********************************************************************************
              CENTRO DE INSTRUMENTACION Y REGISTRO SISMICO  A.C.

    Anaxagoras 814, Col. Narvarte, Benito Juarez, C.P. 03020 Mexico, D.F.
           Tels. 5687 45 42/ 5687 45  82             Fax. 5669 25 12
********************************************************************************
ARCHIVO ESTANDAR DE ACELERACION:
VERSION DEL FORMATO                    : 2.0
NOMBRE DEL ARCHIVO                     : AR1420160627205033
FECHA Y HORA DE CREACION               : 15/SEP/16, 10:43
REF. CATALOGO ACELEROGRAMAS, SMIS 1996 : REGISTRO No.     /PAG.


================================================================================
DATOS DE LA ESTACION:
NOMBRE DE LA ESTACION                  : ESC. PRIM. "JOSÉ ORDAZ LÓPEZ"
CLAVE DE LA ESTACION                   : AR14
LOCALIZACION DE LA ESTACION            : Del. Gustavo A. Madero,                
                                       : Col. Ampliación la Providencia,        
                                       : Calle Puebla esq. con calle            
                                       : Volcán Tacan.                          
                                       : 
COORDENADAS DE LA ESTACION             : 19.4808 LAT. N
                                       : 99.0760 LONG. W
ALTITUD (msnm)                         : 2232
TIPO DE SUELO                          : Arcilloso, zona lago                
                                       :                           
                                       : 
INSTITUCION RESPONSABLE                : CIRES
                                       : 

================================================================================
DATOS DEL ACELEROGRAFO:
MODELO DEL ACELEROGRAFO                : RADESD
NUMERO DE SERIE DEL ACELEROGRAFO       : 215
NUMERO DE CANALES                      : 3
ORIENTACION C1-C6 (rumbo;orientacion)  : /N00E/+V/N90W
ORIENTACION C7-C12 (rumbo;orientacion) : 
VEL. DE MUESTREO, C1-C6 (muestras/s)   : /100/100/100
VEL. DE MUESTREO, C7-C12 (muestras/s)  : 
ESC. COMPLETA DE SENSORES, C1-C6, (g)  : /0.5/0.5/0.5
ESC. COMPLETA DE SENSORES, C7-C12, (g) : 
FREC. NAT. DE SENSORES, C1-C6, (Hz)    : /30/30/32
FREC. NAT. DE SENSORES, C7-C12, (Hz)   : 
AMORTIGUAMIENTO DE SENSORES, C1-C6     : /0.733/0.790/0.750
AMORTIGUAMIENTO DE SENSORES, C7-C12    : 
INTERVALO DE MUESTREO, C1-C6, (s)      : /0.01/0.01/0.01
INTERVALO DE MUESTREO, C7-C12, (s)     : 
UMBRAL DE DISPARO, C1-C6, (Gal)        : /1.95/5.99/2.54
UMBRAL DE DISPARO, C7-C12, (Gal)       : 
MEMORIA DE PREEVENTO (s)               : 44.0
TIEMPO DE POSEVENTO (s)                : 79.0


================================================================================
DATOS DEL SISMO:
FECHA DEL SISMO (GMT)                  : 27/JUN/16
HORA EPICENTRO (GMT)                   : 20:50:33.0
MAGNITUD(ES)                           : /Mc=5.7
COORDENADAS DEL EPICENTRO              : 16.20 LAT. N
                                       : 97.93 LONG. W
PROFUNDIDAD FOCAL (km)                 : 20
FUENTE DE LOS DATOS EPICENTRALES       : SSN
                                       : INSTITUTO DE GEOFISICA, UNAM

================================================================================
DATOS DE ESTE REGISTRO:
HORA DE LA PRIMERA MUESTRA (GMT)       : 20:52:22.00
EXACTITUD DEL TIEMPO (s)               : 0.01
DURACION DEL REGISTRO (s), C1-C6       : /130.4/130.4/130.4
DURACION DEL REGISTRO (s), C7-C12      : 
NUM. TOTAL DE MUESTRAS, C1-C6          : /13040/13040/13040
NUM. TOTAL DE MUESTRAS, C7-C12         : 
ACEL. MAX. (Gal), C1-C6                : /2.60188/2.06522/2.62387
ACEL. MAX., C1-C6, EN LA MUESTRA       : /4485/5507/5352
ACEL. MAX. (Gal), C7-C12               : 
ACEL. MAX., C7-C12, EN LA MUESTRA      : 
UNIDADES DE LOS DATOS                  : Gal (cm/s/s)
FACTOR DE DECIMACION                   : 1
FORMATO DATOS (FORTRAN,10 campos/dato) : 3F10.5


================================================================================
CALIDAD DEL ACELEROGRAMA:
REGISTRO DIGITAL COMPLETO CON TIEMPO ABSOLUTO CORRECTO.


================================================================================
COMENTARIOS:














================================================================================
DATOS DE ACELERACION:
---------+---------+---------+---------+---------+---------+---------+---------+
   CANAL-1   CANAL-2   CANAL-3   CANAL-4   CANAL-5   CANAL-6   CANAL-7   CANAL-8
      N00E        +V      N90W
---------+---------+---------+---------+---------+---------+---------+---------+
[...]
  -0.89964  -0.19430   0.79829
  -1.07920  -0.14941   0.66362
  -1.09416  -0.19430   0.66362
  -1.09416  -0.22423   0.58880
  -1.10913  -0.05963   0.42420
  -1.01935  -0.10452   0.40923
  -1.06424  -0.08956   0.33441
  -1.09416  -0.11949   0.39427
  -1.10913  -0.10452   0.28952
  -1.10913  -0.05963   0.25959
  -1.10913   2.2E-40   0.33441
  -1.00438  -0.14941   0.25959
  -1.15402  -0.05963   0.36434
  -1.06424  -0.14941   0.48405
  -1.07920  -0.16438   0.46909
  -0.97445   0.01519   0.58880
  -0.95949  -0.16438   0.70851
  -0.89964  -0.13445   0.76836
  -0.83978  -0.01474   0.79829
  -0.63029  -0.05963   0.82822
  -0.42079  -0.17934   0.87311
  -0.40583  -0.16438   0.82822
  -0.12152  -0.08956   0.78333
  -0.06166  -0.31401   0.85814
   0.10294  -0.26912   0.76836
   0.26754  -0.29905   0.72347
   0.38725  -0.41876   0.60376
   0.49199  -0.28409   0.48405
   0.58178  -0.26912   0.43916
   0.61170  -0.37387   0.28952
   0.70149  -0.40380   0.24463
   0.67156  -0.53847   0.13988
   0.79127  -0.26912   0.08003
   0.79127  -0.41876   0.03514
   0.80623  -0.49358   0.02017
   0.80623  -0.55343   0.05010
   0.80623  -0.64322   0.00521
   0.71645  -0.43372  -0.12946
   0.73141  -0.46365   0.03514
   0.70149  -0.37387   0.03514
   0.70149  -0.38883  -0.00975
   0.46207  -0.23920   0.00521
   0.52192  -0.13445  -0.08457
   0.35732  -0.28409  -0.00975
   0.35732  -0.08956  -0.02472
   0.25257  -0.01474  -0.06961
   0.11790   0.13490  -0.17436
   0.16279   0.16483  -0.15939
  -0.04670   0.29950  -0.12946
  -0.01677   0.35936  -0.14443
  -0.06166   0.44914  -0.09954
  -0.18137   0.47907   0.00521
  -0.36094   0.53892  -0.03968
  -0.34598   0.56885   0.02017
  -0.46569   0.58381   0.13988
  -0.63029   0.64367   0.00521
  -0.63029   0.76338   0.18477
  -0.72007   0.82323   0.21470
  -0.86971   0.62870   0.22967
  -0.88467   0.70352   0.27456
  -0.98942   0.67359   0.40923
  -1.04927   0.64367   0.40923
  -1.09416   0.52396   0.60376
  -1.16898   0.53892   0.58880
  -1.22884   0.52396   0.70851
  -1.19891   0.40425   0.67858
  -1.39344   0.38928   0.70851
  -1.52811   0.35936   0.75340
  -1.51315   0.29950   0.79829
  -1.49819   0.28454   0.76836
  -1.51315   0.26957   0.81325
  -1.46826   0.14986   0.81325
  -1.54308   0.10497   0.85814
  -1.48322  -0.04467   0.88807
  -1.37848   2.2E-40   0.91800
  -1.31862  -0.05963   0.96289
  -1.21387  -0.05963   0.96289
  -1.01935  -0.10452   0.93296
  -0.88467  -0.05963   0.97785
  -0.70511  -0.04467   0.97785
  -0.55547   0.01519   1.00778
  -0.31605  -0.11949   0.93296
  -0.24123  -0.10452   0.85814
  -0.13648   2.2E-40   0.84318
   0.13286   0.07504   0.64865
   0.26754  -0.02970   0.66362
   0.44710   0.13490   0.40923
   0.52192   0.06008   0.24463
   0.74638   0.13490   0.22967
   0.92594   0.17979   0.08003
   1.00076   0.22468  -0.06961
   1.21025   0.04512  -0.09954
   1.27011   0.04512  -0.15939
   1.34493  -0.16438  -0.39881
   1.44968  -0.19430  -0.41378
   1.47960  -0.26912  -0.48859
   1.64420  -0.40380  -0.63823
   1.59931  -0.50854  -0.63823
   1.53946  -0.55343  -0.69809
   1.67413  -0.47862  -0.74298
   1.65917  -0.67314  -0.86269
   1.70406  -0.76293  -0.78787
   1.74895  -0.86767  -0.68312
   1.64420  -0.83775  -0.72801
   1.59931  -0.89760  -0.51852
   1.62924  -0.80782  -0.51852
   1.53946  -0.79285  -0.44370
   1.46464  -0.50854  -0.32399
   1.52449  -0.56840  -0.21925
   1.43471  -0.55343  -0.15939
   1.30004  -0.37387  -0.03968
   1.28507  -0.35891  -0.06961
   1.27011  -0.29905   0.05010
   1.18033  -0.14941   0.00521
   1.25515  -0.02970  -0.02472
   1.22522   0.03015   0.00521
   1.28507   0.14986  -0.02472
   1.30004   0.09001  -0.05465
   1.22522   0.44914  -0.05465
   1.32997   0.32943  -0.03968
   1.31500   0.38928  -0.14443
   1.37486   0.46410  -0.09954
   1.34493   0.40425  -0.11450
   1.41975   0.52396  -0.20428
   1.43471   0.56885  -0.15939
   1.40478   0.43417  -0.20428
   1.34493   0.53892  -0.29407
   1.35989   0.61374  -0.41378
   1.32997   0.59878  -0.38385
   1.28507   0.47907  -0.42874
   1.21025   0.55388  -0.56341
   1.15040   0.62870  -0.60830
   1.10551   0.74841  -0.59334
   0.98580   0.49403  -0.63823
   0.80623   0.43417  -0.66816
   0.70149   0.41921  -0.63823
   0.56681   0.47907  -0.60830
   0.35732   0.29950  -0.68312
   0.38725   0.37432  -0.71305
   0.20768   0.25461  -0.71305
   0.10294   0.35936  -0.86269
   0.13286   0.28454  -0.83276
  -0.06166   0.28454  -0.86269
  -0.09159   0.29950  -1.04225
  -0.19634   0.17979  -1.05722
  -0.15145   0.37432  -1.26671
  -0.21130   0.23965  -1.23678
  -0.25619   0.22468  -1.19189
  -0.28612   0.37432  -1.22182
  -0.24123   0.34439  -1.29664
  -0.28612   0.28454  -1.26671
  -0.30108   0.38928  -1.29664
  -0.22627   0.37432  -1.13204
  -0.27116   0.26957  -1.11707
  -0.28612   0.25461  -1.07218
  -0.31605   0.37432  -1.16196
  -0.24123   0.32943  -1.05722
  -0.18137   0.41921  -1.02729
  -0.27116   0.53892  -1.17693
  -0.16641   0.53892  -1.10211
  -0.18137   0.64367  -1.10211
  -0.25619   0.44914  -1.13204
  -0.31605   0.50899  -1.10211
  -0.30108   0.56885  -1.11707
  -0.34598   0.56885  -1.05722
  -0.46569   0.47907  -1.02729
  -0.34598   0.31446  -1.02729
  -0.39087   0.32943  -0.87765
  -0.45072   0.22468  -0.81780
  -0.42079   0.17979  -0.86269
  -0.51058   0.20972  -0.72801
  -0.52554   0.06008  -0.65320
  -0.46569   0.43417  -0.59334
  -0.43576   0.09001  -0.51852
  -0.45072   0.07504  -0.53349
  -0.43576   0.11993  -0.42874
  -0.36094   0.09001  -0.33896
  -0.31605   0.16483  -0.38385
  -0.33101   0.03015  -0.27910
  -0.25619   0.07504  -0.29407
  -0.24123  -0.01474  -0.30903
  -0.12152   0.01519  -0.24917
  -0.09159  -0.04467  -0.18932
  -0.18137   0.09001  -0.26414
  -0.03174  -0.11949  -0.21925
  -0.01677  -0.16438  -0.15939
  -0.06166  -0.13445  -0.20428
  -0.07663  -0.31401  -0.23421
  -0.03174  -0.49358  -0.30903
   0.02812  -0.43372  -0.26414
   0.04308  -0.46365  -0.21925
   0.07301  -0.73300  -0.18932
   0.05805  -0.65818  -0.11450
   0.10294  -0.74796   0.06506
   0.07301  -0.74796  -0.00975
  -0.06166  -0.85271   0.15485
   0.02812  -0.88264   0.27456
  -0.01677  -0.97242   0.28952
  -0.00181  -0.86767   0.45412
  -0.06166  -0.95746   0.45412
  -0.01677  -0.97242   0.63369
  -0.13648  -0.94249   0.69354
  -0.15145  -0.94249   0.64865
  -0.16641  -0.88264   0.73843
  -0.36094  -0.80782   0.72347
  -0.27116  -0.59833   0.76836
  -0.27116  -0.59833   0.85814
  -0.42079  -0.52351   0.88807
  -0.45072  -0.41876   0.90304
  -0.57043  -0.34394   1.00778
  -0.72007  -0.28409   0.96289
  -0.57043  -0.23920   0.93296
  -0.86971  -0.07459   0.99282
  -0.88467   2.2E-40   1.02275
  -0.83978  -0.01474   0.88807
  -0.89964   2.2E-40   0.90304
  -0.86971   0.06008   0.97785
  -0.85474   0.20972   0.94793
  -0.85474   0.13490   0.93296
  -0.82482   0.22468   0.88807
  -0.76496   0.20972   0.78333
  -0.86971   0.20972   0.78333
  -0.80985   0.10497   0.76836
  -0.79489   0.17979   0.75340
  -0.89964   0.10497   0.75340
  -0.83978   0.31446   0.78333
  -0.77993   0.20972   0.67858
  -0.82482   0.40425   0.63369
  -0.86971   0.25461   0.61872
  -0.82482   0.34439   0.60376
  -0.80985   0.25461   0.55887
  -0.73503   0.07504   0.33441
  -0.66022   0.11993   0.27456
  -0.70511   0.19475   0.16981
  -0.64525   0.14986  -0.11450
  -0.58540   0.03015  -0.15939
  -0.43576  -0.02970  -0.35392
  -0.42079  -0.08956  -0.47363
  -0.27116  -0.04467  -0.71305
  -0.16641   0.11993  -0.77291
  -0.09159  -0.02970  -0.81780
  -0.16641  -0.14941  -0.78787
  -0.04670  -0.31401  -0.98240
   0.10294  -0.28409  -0.96743
   0.13286  -0.26912  -1.02729
   0.17776  -0.31401  -0.95247
   0.13286  -0.32898  -1.01233
   0.20768  -0.26912  -1.02729
   0.19272   0.01519  -1.10211
   0.19272  -0.11949  -1.16196
   0.19272   0.06008  -1.19189
   0.20768   0.01519  -1.25175
   0.19272   0.07504  -1.31160
   0.14783   0.01519  -1.31160
   0.16279   0.13490  -1.28167
   0.07301   0.10497  -1.31160
   0.14783   0.10497  -1.28167
   0.14783   0.10497  -1.20685
   0.14783   0.20972  -1.11707
   0.16279  -0.02970  -1.16196
   0.11790   0.01519  -1.10211
   0.17776   0.07504  -1.16196
   0.19272  -0.05963  -1.16196
   0.29747  -0.02970  -1.20685
   0.19272  -0.13445  -1.19189
   0.22265  -0.20927  -1.11707
   0.16279  -0.20927  -1.11707
   0.13286  -0.23920  -1.10211
  -0.04670  -0.20927  -1.07218
  -0.09159  -0.25416  -1.10211
  -0.30108  -0.14941  -0.89262
  -0.43576  -0.26912  -0.75794
  -0.39087  -0.31401  -0.74298
  -0.61532  -0.25416  -0.53349
  -0.66022  -0.28409  -0.44370
  -0.70511  -0.13445  -0.32399
  -0.82482  -0.20927  -0.14443
  -0.88467  -0.19430  -0.00975
  -0.79489  -0.17934   0.08003
  -0.86971  -0.14941   0.21470
  -0.76496   0.09001   0.34938
  -0.75000   0.22468   0.40923
  -0.73503   0.16483   0.55887
  -0.57043   0.10497   0.55887
  -0.69014   0.20972   0.67858
  -0.51058   0.23965   0.82822
  -0.42079   0.20972   0.88807
  -0.34598   0.17979   0.93296
  -0.25619   0.22468   0.99282
  -0.15145   0.34439   1.11253
  -0.16641   0.26957   1.20231
  -0.04670   0.29950   1.20231
   0.05805   0.22468   1.27713
   0.08797   0.20972   1.30706
   0.11790   0.23965   1.24720
   0.13286   0.31446   1.21727
   0.28250   0.25461   1.14246
   0.28250   0.23965   1.05267
   0.38725   0.19475   0.97785
   0.34236   0.26957   0.88807
   0.50696   0.25461   0.67858
   0.49199   0.26957   0.51398
   0.59674   0.29950   0.45412
   0.68652   0.26957   0.37930
   0.67156   0.25461   0.24463
   0.64163   0.22468   0.03514
   0.52192   0.07504  -0.00975
   0.62667   0.09001  -0.03968
   0.37228  -0.05963  -0.15939
   0.38725  -0.01474  -0.23421
   0.19272   2.2E-40  -0.41378
   0.22265  -0.19430  -0.42874
   0.14783  -0.34394  -0.59334
   0.04308  -0.25416  -0.63823
  -0.03174  -0.34394  -0.65320
  -0.06166  -0.19430  -0.78787
  -0.04670  -0.40380  -0.63823
  -0.07663  -0.20927  -0.66816
  -0.12152  -0.20927  -0.57838
  -0.10656  -0.26912  -0.50356
  -0.09159  -0.29905  -0.38385
  -0.07663  -0.32898  -0.36888
  -0.15145  -0.14941  -0.20428
  -0.21130  -0.28409   0.00521
  -0.19634  -0.10452   0.05010
  -0.15145  -0.17934   0.16981
  -0.10656  -0.01474   0.22967
  -0.10656   2.2E-40   0.37930
  -0.09159  -0.16438   0.52894
  -0.12152  -0.04467   0.55887
  -0.07663   2.2E-40   0.76836
  -0.04670   0.06008   0.79829
  -0.01677   0.07504   0.88807
  -0.06166   0.22468   1.06764
   0.08797   0.40425   1.20231
   0.23761   0.29950   1.32202
   0.29747   0.25461   1.32202
   0.29747   0.38928   1.54648
   0.26754   0.35936   1.74101
   0.38725   0.37432   1.84575
   0.43214   0.34439   1.96546
   0.37228   0.23965   2.08517
   0.32739   0.31446   2.29467
   0.35732   0.31446   2.35452
   0.41718   0.38928   2.36948
   0.32739   0.44914   2.45927
   0.35732   0.41921   2.51912
   0.28250   0.37432   2.62387
   0.29747   0.25461   2.56401
   0.26754   0.28454   2.60890
   0.35732   0.28454   2.48919
   0.38725   0.26957   2.47423
   0.37228   0.32943   2.47423
   0.34236   0.38928   2.36948
   0.52192   0.47907   2.23481
   0.47703   0.32943   2.11510
   0.46207   0.40425   1.93553
   0.56681   0.31446   1.90561
   0.46207   0.37432   1.65122
   0.38725   0.16483   1.71108
   0.40221   0.17979   1.53151
   0.22265   0.06008   1.39684
   0.20768   0.04512   1.23224
   0.10294   0.06008   1.11253
   0.16279  -0.19430   0.97785
   0.07301  -0.29905   0.84318
   0.05805  -0.34394   0.73843
   0.02812  -0.49358   0.57383
   0.01315  -0.56840   0.37930
   0.04308  -0.70307   0.30448
   0.05805  -0.86767   0.15485
   0.01315  -0.73300   0.09499
   0.07301  -0.86767  -0.02472
   0.22265  -0.73300  -0.09954
   0.20768  -0.70307  -0.20428
   0.29747  -0.67314  -0.29407
   0.37228  -0.53847  -0.33896
   0.37228  -0.47862  -0.42874
   0.47703  -0.28409  -0.45867
   0.53689  -0.35891  -0.42874
   0.64163  -0.17934  -0.48859
   0.74638  -0.22423  -0.45867
   0.80623  -0.10452  -0.56341
   1.01573  -0.08956  -0.60830
   1.16536   0.14986  -0.66816
   1.38982   0.10497  -0.86269
   1.53946   0.17979  -0.95247
   1.80881   0.22468  -1.10211
   1.85370   0.25461  -1.08714
   2.13801   0.25461  -1.14700
   2.21283   0.35936  -0.98240
   2.25772   0.32943  -1.01233
   2.36246   0.29950  -0.96743
   2.42232   0.34439  -0.77291
   2.43728   0.25461  -0.71305
   2.54203   0.25461  -0.62327
   2.48217   0.31446  -0.42874
   2.49714   0.22468  -0.50356
   2.48217   0.11993  -0.42874
   2.40736   0.11993  -0.35392
   2.31757   0.16483  -0.27910
   2.36246   0.26957  -0.33896
   2.12304   0.26957  -0.33896
   2.06319   0.22468  -0.45867
   1.83873   0.38928  -0.45867
   1.61428   0.22468  -0.47363
   1.43471   0.19475  -0.45867
   1.16536   0.26957  -0.45867
   0.86609   0.41921  -0.51852
   0.67156   0.40425  -0.54845
   0.53689   0.41921  -0.56341
   0.28250   0.40425  -0.71305
   0.10294   0.38928  -0.62327
  -0.12152   0.49403  -0.78787
  -0.36094   0.47907  -0.74298
  -0.55547   0.35936  -0.93751
  -0.79489   0.28454  -1.01233
  -0.98942   0.26957  -1.32656
  -1.24380   0.22468  -1.35649
  -1.45329   0.29950  -1.43131
  -1.48322   0.22468  -1.53606
  -1.66279   0.14986  -1.67073
  -1.78250   0.10497  -1.55102
  -1.93213   0.11993  -1.43131
  -2.02192   0.11993  -1.58095
  -2.15659  -0.02970  -1.52109
  -2.11170   0.13490  -1.47620
  -2.17155  -0.17934  -1.37146
  -2.14163  -0.04467  -1.32656
  -2.15659  -0.22423  -1.17693
  -2.02192  -0.37387  -1.07218
  -2.08177  -0.43372  -0.99736
  -1.97703  -0.47862  -0.90758
  -1.97703  -0.53847  -0.78787
  -2.02192  -0.62825  -0.72801
  -1.87228  -0.65818  -0.60830
  -1.88724  -0.64322  -0.41378
  -1.64782  -0.50854  -0.30903
  -1.66279  -0.68811  -0.29407
  -1.58797  -0.29905  -0.08457
  -1.54308  -0.43372  -0.06961
  -1.54308  -0.47862   0.16981
  -1.54308  -0.37387   0.27456
  -1.55804  -0.31401   0.43916
  -1.60293  -0.37387   0.48405
  -1.63286  -0.38883   0.40923
  -1.49819  -0.40380   0.45412
  -1.52811  -0.32898   0.48405
  -1.57300  -0.20927   0.40923
  -1.49819  -0.35891   0.36434
  -1.51315  -0.47862   0.39427
  -1.40840  -0.28409   0.28952
  -1.30366  -0.41876   0.10996
  -1.33358  -0.41876   0.08003
  -1.27373  -0.35891  -0.08457
  -1.21387  -0.49358  -0.23421
  -1.22884  -0.46365  -0.27910
  -1.24380  -0.35891  -0.47363
  -1.27373  -0.46365  -0.54845
  -1.22884  -0.40380  -0.53349
  -1.19891  -0.38883  -0.56341
  -1.12409  -0.38883  -0.57838
  -1.16898  -0.47862  -0.57838
  -1.04927  -0.55343  -0.54845
  -1.04927  -0.53847  -0.53349
  -1.00438  -0.56840  -0.47363
  -1.00438  -0.52351  -0.51852
  -0.97445  -0.76293  -0.56341
  -0.79489  -0.65818  -0.47363
  -0.69014  -0.64322  -0.63823
  -0.54051  -0.67314  -0.57838
  -0.54051  -0.73300  -0.57838
  -0.37590  -0.55343  -0.59334
  -0.31605  -0.64322  -0.53349
  -0.19634  -0.49358  -0.48859
  -0.09159  -0.37387  -0.62327
  -0.06166  -0.22423  -0.62327
   0.05805  -0.25416  -0.63823
   0.14783  -0.07459  -0.65320
   0.26754  -0.05963  -0.63823
   0.34236   0.13490  -0.65320
   0.35732   0.04512  -0.60830
   0.52192   0.25461  -0.60830
   0.61170   0.29950  -0.56341
   0.73141   0.41921  -0.54845
   0.73141   0.55388  -0.53349
   0.85112   0.71849  -0.47363
   0.98580   0.95791  -0.35392
   0.86609   0.94294  -0.32399
   0.92594   1.01776  -0.33896
   0.97083   1.27214  -0.23421
   0.97083   1.39185  -0.20428
   0.91098   1.49660  -0.06961
   0.95587   1.73602  -0.03968
   1.00076   1.78091   0.00521
   0.83616   1.76595  -0.09954
