********************************************************************************
               CENTRO DE INSTRUMENTACION Y REGISTRO SISMICO  A.C.  
                       Coordinacion de Servicios Tecnicos
     Anaxagoras 814, Col. Narvarte, Benito Juarez, C.P. 03020 Mexico, D.F.
            Tels. 687 45 42/ 687 45  82             Fax. 669 25 12
********************************************************************************
ARCHIVO ESTANDAR DE ACELERACION:
VERSION DEL FORMATO                    : 2.0
NOMBRE DEL ARCHIVO                     : AR140406.141
FECHA Y HORA DE CREACION               : 09/NOV/04, 09:45
REF. CATALOGO ACELEROGRAMAS, SMIS 1996 : REGISTRO No.     /PAG.


================================================================================
DATOS DE LA ESTACION:
NOMBRE DE LA ESTACION                  : ARAGON
CLAVE DE LA ESTACION                   : AR14
LOCALIZACION DE LA ESTACION            : Esc Prim Jose Ordaz Lopez Puebla 2 y
                                       : Baja California, Col Providencia
                                       : Gustavo A. Madero
                                       :
                                       :
COORDENADAS DE LA ESTACION             : 19.481 LAT. N 
                                       : 99.076 LONG. W 
ALTITUD (msnm)                         : 2232
TIPO DE SUELO                          : ARCILLOSO, ZONA LAGO
                                       : 
                                       : 
INSTITUCION RESPONSABLE                : CIRES
                                       :

================================================================================
DATOS DEL ACELEROGRAFO:
MODELO DEL ACELEROGRAFO                : RAD-851
NUMERO DE SERIE DEL ACELEROGRAFO       : 235
NUMERO DE CANALES                      : 3
ORIENTACION C1-C6 (rumbo;orientacion)  : /N00E/+V/N90W
ORIENTACION C7-C12 (rumbo;orientacion) :
VEL. DE MUESTREO, C1-C6 (muestras/s)   : /100/100/100
VEL. DE MUESTREO, C7-C12 (muestras/s)  :
ESC. COMPLETA DE SENSORES, C1-C6, (g)  : /0.5/0.5/0.5
ESC. COMPLETA DE SENSORES, C7-C12, (g) :
FREC. NAT. DE SENSORES, C1-C6, (Hz)    : /30/30/32
FREC. NAT. DE SENSORES, C7-C12, (Hz)   :
AMORTIGUAMIENTO DE SENSORES, C1-C6     : /0.733/0.790/0.750
AMORTIGUAMIENTO DE SENSORES, C7-C12    :
INTERVALO DE MUESTREO, C1-C6, (s)      : /0.01/0.01/0.01
INTERVALO DE MUESTREO, C7-C12, (s)     :
UMBRAL DE DISPARO, C1-C6, (Gal)        : /1.95/3.42/1.95
UMBRAL DE DISPARO, C7-C12, (Gal)       :
MEMORIA DE PREEVENTO (s)               : 16
TIEMPO DE POSEVENTO (s)                : 64


================================================================================
DATOS DEL SISMO:
FECHA DEL SISMO (GMT)                  : 19/JUL/97
HORA EPICENTRO (GMT)                   : 14:22:04:1
MAGNITUD(ES)                           : /Ms=6.3
COORDENADAS DEL EPICENTRO              : 15.8 LAT. N
                                       : 98.3 LONG. W
PROFUNDIDAD FOCAL (km)                 : 5.0
FUENTE DE LOS DATOS EPICENTRALES       : SSN
                                       : INSTITUTO DE GEOFISICA, UNAM

================================================================================
DATOS DE ESTE REGISTRO:
HORA DE LA PRIMERA MUESTRA (GMT)       : 22:56:08.00
EXACTITUD DEL TIEMPO (s)               :     
DURACION DEL REGISTRO (s), C1-C6       : /143.25/143.25/143.25
DURACION DEL REGISTRO (s), C7-C12      :
NUM. TOTAL DE MUESTRAS, C1-C6          : /14325/14325/14325
NUM. TOTAL DE MUESTRAS, C7-C12         :
ACEL. MAX. (Gal), C1-C6                : /-4.83021/-2.14668/-4.82450
ACEL. MAX., C1-C6, EN LA MUESTRA       :
ACEL. MAX. (Gal), C7-C12               :
ACEL. MAX., C7-C12, EN LA MUESTRA      :
UNIDADES DE LOS DATOS                  : Gal (cm/s/s)
FACTOR DE DECIMACION                   : 1
FORMATO DATOS (FORTRAN,10 campos/dato) : 3F10.5


================================================================================
CALIDAD DEL ACELEROGRAMA:
REGISTRO DIGITAL COMPLETO, CARECE DE TIEMPO ABSOLUTO.


================================================================================
COMENTARIOS:














================================================================================
DATOS DE ACELERACION:
---------+---------+---------+---------+---------+---------+---------+---------+
   CANAL-1   CANAL-2   CANAL-3   CANAL-4   CANAL-5   CANAL-6   CANAL-7   CANAL-8
      N00E        +V      N90W
---------+---------+---------+---------+---------+---------+---------+---------+
[...]
   0.91584  -0.94959  -0.27554
   0.67642  -1.18901  -0.03612
   0.67642  -1.18901  -0.03612
   0.67642  -1.18901  -0.03612
   0.43700  -1.18901  -0.27554
   0.43700  -1.18901  -0.27554
   0.43700  -1.18901  -0.27554
   0.43700  -0.94959  -0.51496
   0.43700  -1.18901  -0.27554
   0.43700  -0.94959  -0.51496
   0.43700  -0.47075  -0.75437
   0.43700  -0.47075  -0.75437
   0.43700  -0.71017  -0.75437
   0.43700  -0.71017  -0.75437
   0.43700  -0.71017  -0.99379
   0.43700  -0.71017  -0.99379
   0.43700  -0.47075  -0.99379
   0.43700  -0.47075  -0.99379
   0.43700   0.00809  -1.23321
   0.67642   0.00809  -0.99379
   0.43700  -0.23133  -0.75437
   0.43700  -0.23133  -0.75437
   0.43700  -0.23133  -0.75437
   0.19759   0.00809  -0.75437
  -0.04183   0.00809  -0.27554
  -0.28125   0.24751  -0.75437
  -0.28125   0.24751  -0.75437
  -0.52067   0.24751  -0.51496
  -0.76009   0.24751  -0.51496
  -0.99951   0.24751  -0.51496
  -0.99951   0.24751  -0.51496
  -1.23893   0.48693  -0.51496
  -1.47835   0.48693  -0.51496
  -1.71777   0.48693  -0.75437
  -1.71777   0.48693  -0.51496
  -1.95719   0.24751  -0.51496
  -2.19660   0.24751  -0.51496
  -2.19660   0.24751  -0.75437
  -2.43602   0.48693  -0.75437
  -2.67544   0.48693  -0.75437
  -2.67544   0.72635  -0.75437
  -2.67544   0.48693  -0.75437
  -2.91486   0.48693  -0.51496
  -2.91486   0.48693  -0.75437
  -2.91486   0.72635  -0.75437
  -3.15428   0.48693  -0.75437
  -2.91486   0.48693  -0.99379
  -2.91486   0.48693  -0.99379
  -3.15428   0.48693  -0.99379
  -2.91486   0.48693  -0.75437
  -2.91486   0.48693  -0.75437
  -2.91486   0.24751  -0.75437
  -2.91486   0.24751  -0.75437
  -2.91486   0.24751  -0.75437
  -2.91486   0.24751  -0.75437
  -2.91486   0.24751  -0.99379
  -2.91486   0.00809  -0.99379
  -2.91486   0.24751  -0.99379
  -2.91486   0.24751  -1.23321
  -2.67544   0.48693  -1.47263
  -2.67544   0.48693  -1.47263
  -2.67544   0.24751  -1.47263
  -2.43602   0.24751  -1.95147
  -2.43602   0.24751  -2.19089
  -2.43602   0.24751  -2.43031
  -2.67544   0.24751  -2.66973
  -2.43602   0.24751  -2.90914
  -2.19660   0.48693  -3.14856
  -1.95719   0.48693  -3.14856
  -1.95719   0.24751  -3.14856
  -1.71777   0.24751  -3.62740
  -1.23893   0.24751  -3.62740
  -1.23893   0.24751  -3.86682
  -0.76009   0.24751  -4.10624
  -0.52067   0.24751  -4.10624
  -0.28125   0.48693  -4.10624
   0.19759   0.24751  -4.10624
   0.43700   0.00809  -3.86682
   0.67642  -0.23133  -4.10624
   0.91584   0.24751  -4.34566
   1.15526   0.24751  -4.34566
   1.39468   0.24751  -4.58508
   1.39468   0.24751  -4.34566
   1.63410   0.24751  -4.10624
   2.11294   0.48693  -4.10624
   2.11294   0.24751  -3.86682
   2.35236   0.24751  -3.62740
   2.59177   0.24751  -3.62740
   2.83119   0.24751  -3.38798
   2.83119   0.24751  -3.14856
   2.83119   0.24751  -2.90914
   2.83119   0.24751  -2.90914
   3.07061   0.24751  -2.43031
   3.31003   0.24751  -1.95147
   3.31003   0.24751  -1.71205
   3.07061   0.24751  -1.47263
   3.31003   0.24751  -1.23321
   3.31003   0.24751  -0.99379
   3.31003   0.24751  -0.75437
   3.31003   0.24751  -0.51496
   3.31003   0.24751  -0.27554
   3.54945   0.24751  -0.03612
   3.54945   0.24751   0.20330
   3.78887   0.24751   0.44272
   3.78887   0.24751   0.44272
   3.54945   0.24751   0.68214
   3.54945   0.24751   0.68214
   3.54945   0.48693   0.92156
   3.78887   0.48693   1.16098
   3.54945   0.48693   1.40040
   3.54945   0.48693   1.40040
   3.78887   0.48693   1.63982
   3.78887   0.48693   1.87923
   3.54945   0.48693   2.11865
   3.54945   0.24751   2.35807
   3.54945   0.24751   2.59749
   3.54945   0.24751   2.83691
   3.31003   0.24751   3.07633
   3.31003   0.48693   3.07633
   3.07061   0.48693   3.55517
   2.83119   0.48693   3.55517
   2.83119   0.48693   3.79459
   2.59177   0.48693   4.03400
   2.11294   0.48693   4.03400
   1.87352   0.48693   4.03400
   1.87352   0.48693   4.03400
   1.63410   0.24751   4.03400
   1.63410   0.24751   4.27342
   1.15526   0.24751   4.03400
   1.15526   0.24751   4.03400
   0.91584   0.00809   4.03400
   0.67642   0.24751   3.79459
   0.43700   0.00809   3.55517
   0.43700   0.24751   3.55517
   0.19759   0.00809   3.31575
   0.19759   0.24751   3.31575
   0.19759   0.24751   3.07633
  -0.04183   0.00809   3.07633
  -0.04183   0.24751   2.83691
  -0.04183   0.24751   2.83691
  -0.04183   0.00809   3.07633
  -0.04183   0.00809   3.07633
  -0.04183   0.00809   2.83691
  -0.04183   0.24751   3.07633
  -0.28125   0.00809   3.31575
  -0.28125   0.00809   3.31575
  -0.28125   0.00809   3.31575
  -0.52067   0.00809   3.31575
  -0.52067  -0.23133   3.31575
  -0.52067  -0.23133   3.31575
  -0.52067  -0.23133   3.07633
  -0.52067  -0.47075   3.31575
  -0.52067  -0.23133   3.07633
  -0.52067  -0.23133   3.07633
  -0.52067  -0.47075   3.07633
  -0.52067  -0.47075   2.83691
  -0.76009  -0.47075   2.83691
  -0.52067  -0.47075   2.83691
  -0.76009  -0.47075   2.59749
  -0.76009  -0.47075   2.59749
  -0.76009  -0.23133   2.59749
  -0.76009  -0.47075   2.35807
  -0.99951  -0.47075   2.35807
  -0.99951  -0.47075   2.35807
  -0.99951  -0.23133   2.11865
  -0.99951  -0.23133   2.11865
  -0.99951  -0.23133   1.87923
  -0.99951   0.00809   1.87923
  -0.99951   0.00809   1.87923
  -0.76009  -0.23133   2.11865
  -0.76009  -0.23133   1.87923
  -0.52067  -0.23133   1.87923
  -0.28125  -0.23133   1.87923
  -0.28125  -0.23133   1.87923
  -0.28125  -0.23133   1.87923
  -0.04183  -0.23133   1.87923
  -0.04183  -0.23133   1.63982
   0.19759  -0.23133   1.63982
   0.19759   0.00809   1.40040
   0.19759   0.00809   1.40040
   0.19759   0.00809   1.40040
   0.19759   0.00809   1.40040
   0.19759   0.00809   1.16098
   0.19759   0.00809   1.16098
  -0.04183   0.00809   0.92156
  -0.04183   0.24751   0.68214
  -0.04183   0.24751   0.68214
  -0.28125   0.24751   0.68214
  -0.52067   0.24751   0.68214
  -0.52067   0.48693   0.44272
  -0.52067   0.48693   0.44272
  -0.76009   0.24751   0.44272
  -0.99951   0.24751   0.20330
  -0.99951   0.24751   0.44272
  -0.99951   0.24751   0.20330
  -0.99951   0.24751   0.20330
  -0.99951   0.24751   0.20330
  -0.76009   0.48693   0.44272
  -0.76009   0.24751   0.44272
  -0.76009   0.00809   0.20330
  -0.52067   0.00809   0.20330
  -0.52067  -0.23133   0.20330
  -0.52067  -0.23133  -0.03612
  -0.52067  -0.23133  -0.03612
  -0.28125  -0.23133  -0.27554
  -0.28125  -0.23133  -0.51496
  -0.28125   0.00809  -0.51496
  -0.04183  -0.23133  -0.75437
  -0.28125  -0.23133  -0.99379
  -0.04183  -0.47075  -0.99379
  -0.28125  -0.71017  -1.23321
  -0.28125  -0.47075  -1.47263
  -0.52067  -0.47075  -1.71205
  -0.52067  -0.23133  -1.71205
  -0.52067  -0.47075  -1.95147
  -0.76009  -0.23133  -1.95147
  -0.76009  -0.23133  -1.95147
  -0.99951  -0.47075  -1.95147
  -1.23893  -0.71017  -1.95147
  -1.47835  -0.71017  -1.95147
  -1.47835  -0.47075  -2.19089
  -1.71777  -0.47075  -2.19089
  -1.71777  -0.47075  -2.19089
  -2.19660  -0.47075  -1.95147
  -2.19660  -0.71017  -2.19089
  -2.19660  -0.94959  -1.95147
  -2.43602  -0.71017  -1.95147
  -2.43602  -0.94959  -1.95147
  -2.43602  -0.94959  -1.95147
  -2.43602  -0.71017  -1.95147
  -2.67544  -0.71017  -1.71205
  -2.67544  -0.47075  -1.71205
  -2.67544  -0.47075  -1.95147
  -2.67544  -0.47075  -1.71205
  -2.91486  -0.47075  -1.71205
  -2.91486  -0.47075  -1.71205
  -2.91486  -0.47075  -1.71205
  -2.91486  -0.47075  -1.47263
  -2.91486  -0.71017  -1.47263
  -3.15428  -0.47075  -1.47263
  -3.15428  -0.47075  -1.47263
  -3.15428  -0.23133  -1.23321
  -3.15428  -0.23133  -0.99379
  -3.15428  -0.23133  -0.75437
  -2.91486  -0.23133  -0.51496
  -2.91486  -0.47075  -0.51496
  -2.91486  -0.47075  -0.51496
  -3.15428  -0.23133  -0.27554
  -2.91486  -0.23133  -0.27554
  -2.91486  -0.23133  -0.27554
  -3.15428  -0.23133  -0.27554
  -2.91486  -0.23133  -0.27554
  -2.67544  -0.23133  -0.27554
  -2.67544   0.00809  -0.27554
  -2.67544   0.24751  -0.51496
  -2.43602   0.24751  -0.27554
  -2.43602   0.24751  -0.27554
  -2.43602   0.24751  -0.27554
  -2.19660   0.48693  -0.51496
  -1.95719   0.48693  -0.75437
  -1.95719   0.48693  -0.51496
  -1.95719   0.72635  -0.75437
  -1.47835   0.48693  -0.75437
  -1.47835   0.24751  -0.51496
  -1.23893   0.48693  -0.75437
  -1.23893   0.48693  -0.99379
  -0.99951   0.72635  -0.99379
  -0.76009   0.96577  -0.99379
  -0.76009   0.96577  -0.99379
  -0.52067   1.20518  -0.99379
  -0.28125   1.20518  -0.99379
   0.19759   0.96577  -0.99379
   0.19759   0.96577  -0.99379
   0.43700   0.96577  -1.23321
   0.91584   0.96577  -1.23321
   0.91584   0.96577  -1.23321
   1.15526   0.96577  -1.47263
   1.39468   0.96577  -1.47263
   1.63410   0.72635  -1.47263
   1.63410   0.48693  -1.47263
   1.63410   0.48693  -1.71205
   1.63410   0.72635  -1.95147
   1.63410   0.72635  -1.95147
   1.87352   0.72635  -2.19089
   1.87352   0.72635  -2.19089
   1.87352   0.72635  -2.43031
   2.11294   0.72635  -2.66973
   2.35236   0.72635  -2.43031
   2.11294   0.72635  -2.43031
   2.35236   0.96577  -2.66973
   2.35236   0.72635  -2.66973
   2.59177   0.48693  -2.66973
   2.59177   0.48693  -2.66973
   2.59177   0.48693  -2.90914
   2.59177   0.72635  -2.90914
   2.83119   0.72635  -2.90914
   2.83119   0.72635  -2.90914
   3.07061   0.72635  -2.90914
   3.31003   0.72635  -2.90914
   3.54945   0.24751  -2.66973
   3.54945   0.24751  -2.90914
   3.54945   0.24751  -2.90914
   3.78887   0.48693  -2.90914
   3.78887   0.72635  -2.90914
   3.78887   0.48693  -2.90914
   3.78887   0.48693  -2.90914
   3.78887   0.00809  -2.66973
   3.78887  -0.23133  -2.66973
   3.78887  -0.71017  -2.66973
   3.54945  -0.47075  -2.66973
   3.54945   0.00809  -2.66973
   3.54945   0.24751  -2.43031
   3.54945   0.48693  -2.19089
   3.31003   0.24751  -1.71205
   3.31003  -0.23133  -1.47263
   3.31003  -0.71017  -1.23321
   3.07061  -0.94959  -1.23321
   2.83119  -0.94959  -0.99379
   2.83119  -0.71017  -0.99379
   2.83119  -0.71017  -0.75437
   2.83119  -0.71017  -0.51496
   2.83119  -0.71017  -0.27554
   2.83119  -0.94959  -0.27554
   3.07061  -1.18901  -0.03612
   3.07061  -1.42842   0.20330
   3.07061  -1.42842   0.20330
   3.07061  -1.18901   0.44272
   3.07061  -0.94959   0.68214
   3.07061  -0.71017   0.92156
   3.07061  -0.71017   0.92156
   3.07061  -0.71017   1.40040
   3.07061  -0.94959   1.40040
   2.83119  -0.94959   1.63982
   2.59177  -0.71017   1.87923
   2.59177  -0.47075   2.11865
   2.59177  -0.71017   2.35807
   2.35236  -0.71017   2.59749
   2.11294  -0.71017   2.83691
   2.11294  -0.71017   3.07633
   1.87352  -0.94959   3.31575
   1.87352  -0.71017   3.31575
   1.63410  -0.71017   3.55517
   1.63410  -0.71017   3.55517
   1.39468  -0.71017   3.79459
   1.15526  -0.71017   4.03400
   1.15526  -0.71017   4.27342
   0.91584  -0.71017   4.27342
   0.91584  -0.47075   4.27342
   0.91584  -0.47075   4.51284
   0.67642  -0.47075   4.75226
   0.43700  -0.47075   4.27342
   0.19759  -0.23133   4.27342
  -0.04183  -0.23133   4.27342
  -0.28125  -0.23133   4.03400
  -0.28125   0.00809   3.79459
  -0.28125   0.24751   3.79459
  -0.28125   0.00809   3.55517
  -0.52067   0.00809   3.31575
  -0.52067   0.00809   3.31575
  -0.76009   0.00809   3.31575
  -0.99951   0.00809   3.07633
  -0.99951   0.24751   2.83691
  -0.99951   0.24751   2.83691
  -0.99951   0.48693   2.83691
  -0.99951   0.72635   2.59749
  -0.99951   0.72635   2.35807
  -0.76009   0.72635   2.35807
  -0.99951   0.72635   2.35807
  -0.99951   0.48693   2.11865
  -0.76009   0.24751   1.87923
  -0.76009   0.00809   1.87923
  -0.76009   0.00809   1.63982
  -0.99951   0.24751   1.40040
  -0.99951   0.48693   1.16098
  -0.99951   0.48693   1.16098
  -1.23893   0.48693   0.92156
  -1.23893   0.48693   0.92156
  -1.23893   0.24751   0.68214
  -1.23893   0.24751   0.44272
  -1.47835   0.00809   0.44272
  -1.71777   0.00809   0.20330
  -1.71777   0.00809   0.20330
  -1.95719   0.00809  -0.03612
  -2.19660   0.00809  -0.03612
  -2.19660   0.00809  -0.27554
  -2.43602  -0.23133  -0.27554
  -2.43602  -0.23133  -0.27554
  -2.43602   0.00809  -0.27554
  -2.67544   0.00809  -0.27554
  -2.67544   0.00809  -0.27554
  -2.91486   0.24751  -0.27554
  -2.91486   0.48693  -0.27554
  -2.91486   0.24751  -0.27554
  -2.91486   0.24751  -0.03612
  -2.91486  -0.23133  -0.27554
  -2.67544  -0.47075  -0.27554
  -2.67544  -0.71017  -0.27554
  -2.67544  -0.71017  -0.03612
  -2.91486  -0.47075  -0.27554
  -2.67544  -0.23133  -0.27554
  -2.91486  -0.23133  -0.51496
  -2.91486   0.00809  -0.51496
  -2.67544  -0.23133  -0.75437
  -2.43602  -0.47075  -0.75437
  -2.43602  -0.71017  -0.75437
  -2.19660  -0.94959  -0.75437
  -2.43602  -0.94959  -0.99379
  -2.19660  -0.94959  -0.99379
  -2.19660  -0.94959  -1.23321
  -1.95719  -0.94959  -1.47263
  -1.71777  -0.71017  -1.71205
  -1.47835  -0.47075  -1.71205
  -1.47835  -0.47075  -1.71205
  -1.23893  -0.71017  -1.71205
  -1.23893  -0.71017  -1.95147
  -0.99951  -0.71017  -1.95147
  -0.76009  -0.94959  -1.95147
  -0.76009  -0.94959  -2.19089
  -0.76009  -0.94959  -2.19089
  -0.52067  -0.94959  -2.19089
  -0.52067  -0.94959  -2.19089
  -0.52067  -0.71017  -2.19089
  -0.76009  -0.23133  -2.19089
  -0.52067   0.48693  -2.19089
  -0.28125   0.72635  -2.43031
  -0.04183   0.72635  -2.43031
   0.19759   0.48693  -2.43031
   0.43700   0.00809  -2.43031
   0.43700  -0.47075  -2.43031
  -0.04183  -0.47075  -2.19089
  -0.28125  -0.23133  -2.19089
  -0.28125   0.24751  -2.43031
  -0.28125   0.48693  -2.43031
  -0.28125   0.48693  -2.43031
  -0.28125   0.24751  -2.19089
  -0.52067   0.00809  -2.19089
  -0.76009   0.00809  -1.95147
  -1.23893   0.24751  -1.71205
  -1.71777   0.48693  -1.71205
  -1.47835   0.72635  -1.47263
  -1.47835   0.48693  -1.47263
  -1.47835   0.24751  -1.47263
  -1.47835   0.24751  -1.47263
  -1.71777   0.24751  -1.23321
  -1.95719   0.24751  -1.23321
  -1.95719   0.48693  -0.99379
  -1.95719   0.48693  -0.75437
  -1.71777   0.48693  -0.75437
  -1.47835   0.48693  -0.75437
  -1.47835   0.48693  -0.75437
  -1.23893   0.72635  -0.51496
  -0.76009   0.72635  -0.27554
  -0.76009   0.48693  -0.03612
  -0.76009   0.24751   0.20330
  -0.76009   0.24751  -0.03612
  -0.52067   0.48693   0.20330
  -0.52067   0.48693   0.20330
  -0.28125   0.48693   0.44272
  -0.28125   0.48693   0.44272
  -0.04183   0.00809   0.68214
  -0.28125  -0.23133   0.44272
  -0.28125  -0.47075   0.68214
  -0.52067   0.00809   0.68214
  -0.52067   0.24751   0.68214
  -0.52067   0.48693   0.92156
  -0.28125   0.24751   0.92156
  -0.28125  -0.23133   0.92156
  -0.28125  -0.71017   0.92156
  -0.76009  -0.94959   0.68214
  -0.99951  -0.23133   0.68214
  -0.99951   0.48693   0.68214
  -0.76009   0.72635   0.44272
  -0.76009   0.48693   0.44272
  -0.76009  -0.23133   0.44272
  -0.76009  -0.47075   0.44272
  -1.23893  -0.71017   0.20330
  -1.23893  -0.23133   0.20330
  -1.23893   0.00809  -0.03612
  -0.99951   0.24751  -0.03612
  -0.99951   0.24751  -0.27554
  -0.99951   0.48693  -0.51496
  -0.76009   0.72635  -0.51496
  -0.76009   0.72635  -0.51496
  -0.76009   0.72635  -0.51496
  -0.76009   0.96577  -0.75437
  -0.76009   0.72635  -0.75437
  -0.76009   0.48693  -0.75437
  -0.76009   0.72635  -0.99379
  -0.76009   1.20518  -0.99379
  -0.52067   1.44460  -0.99379
  -0.28125   1.20518  -0.75437
  -0.28125   1.20518  -0.75437
  -0.28125   0.96577  -0.75437
  -0.28125   0.96577  -0.75437
  -0.52067   0.96577  -0.75437
  -0.52067   1.44460  -0.75437
  -0.28125   1.68402  -0.75437
  -0.28125   1.68402  -0.51496
  -0.04183   1.68402  -0.51496
  -0.04183   1.44460  -0.51496
