********************************************************************************
               CENTRO DE INSTRUMENTACION Y REGISTRO SISMICO  A.C.  
                       Coordinacion de Servicios Tecnicos
     Anaxagoras 814, Col. Narvarte, Benito Juarez, C.P. 03020 Mexico, D.F.
            Tels. 687 45 42/ 687 45  82             Fax. 669 25 12
********************************************************************************
ARCHIVO ESTANDAR DE ACELERACION:
VERSION DEL FORMATO                    : 2.0
NOMBRE DEL ARCHIVO                     : AR149510.091
FECHA Y HORA DE CREACION               : MARZO 14, 1996/17:23
REF. CATALOGO ACELEROGRAMAS, SMIS 1995 : REGISTRO No.     /PAG.


================================================================================
DATOS DE LA ESTACION:
NOMBRE DE LA ESTACION                  : ARAGON
CLAVE DE LA ESTACION                   : AR14
LOCALIZACION DE LA ESTACION            : Esc Prim Jose Ordaz Lopez Puebla 2 y
                                       : Baja California, Col Providencia
                                       : Gustavo A. Madero
                                       :
                                       :
COORDENADAS DE LA ESTACION             : 19.481 LAT. N 
                                       : 99.076 LONG. W 
ALTITUD (msnm)                         : 2232
TIPO DE SUELO                          : ARCILLOSO, ZONA LAGO
                                       : 
                                       : 
INSTITUCION RESPONSABLE                : CIRES
                                       :

================================================================================
DATOS DEL ACELEROGRAFO:
MODELO DEL ACELEROGRAFO                : DCA-333
NUMERO DE SERIE DEL ACELEROGRAFO       : 235
NUMERO DE CANALES                      : 3
ORIENTACION C1-C6 (rumbo;orientacion)  : /N00E/+V/N90W
ORIENTACION C7-C12 (rumbo;orientacion) :
VEL. DE MUESTREO, C1-C6 (muestras/s)   : /100/100/100
VEL. DE MUESTREO, C7-C12 (muestras/s)  :
ESC. COMPLETA DE SENSORES, C1-C6, (g)  : /0.5/0.5/0.5
ESC. COMPLETA DE SENSORES, C7-C12, (g) :
FREC. NAT. DE SENSORES, C1-C6, (Hz)    : /30/30/30
FREC. NAT. DE SENSORES, C7-C12, (Hz)   :
AMORTIGUAMIENTO DE SENSORES, C1-C6     : /0.700/0.700/0.700
AMORTIGUAMIENTO DE SENSORES, C7-C12    :
INTERVALO DE MUESTREO, C1-C6, (s)      : /0.01/0.01/0.01
INTERVALO DE MUESTREO, C7-C12, (s)     :
UMBRAL DE DISPARO, C1-C6, (Gal)        : /2.9/2.9/2.9
UMBRAL DE DISPARO, C7-C12, (Gal)       :
MEMORIA DE PREEVENTO (s)               : 4
TIEMPO DE POSEVENTO (s)                : 15


================================================================================
DATOS DEL SISMO:
FECHA DEL SISMO (GMT)                  : 09/OCT/95
HORA EPICENTRO (GMT)                   : 15:35:51.0
MAGNITUD(ES)                           : /Mc=6.5/Mb=7.3/Me=7.5
COORDENADAS DEL EPICENTRO              : 18.74 
                                       : 104.67
PROFUNDIDAD FOCAL (km)                 : 5
FUENTE DE LOS DATOS EPICENTRALES       : INSTITUTO DE INGENIERIA UNAM
                                       : INSTITUTO DE GEOFISICA, UNAM

================================================================================
DATOS DE ESTE REGISTRO:
HORA DE LA PRIMERA MUESTRA (GMT)       : 15:38:37.00
EXACTITUD DEL TIEMPO (s)               : 0.01
DURACION DEL REGISTRO (s), C1-C6       : /186.03/186.03/186.03
DURACION DEL REGISTRO (s), C7-C12      :
NUM. TOTAL DE MUESTRAS, C1-C6          : /18603/18603/18603
NUM. TOTAL DE MUESTRAS, C7-C12         :
ACEL. MAX. (Gal), C1-C6                : /17.52/-3.07/10.49
ACEL. MAX., C1-C6, EN LA MUESTRA       :
ACEL. MAX. (Gal), C7-C12               :
ACEL. MAX., C7-C12, EN LA MUESTRA      :
UNIDADES DE LOS DATOS                  : Gal (cm/s/s)
FACTOR DE DECIMACION                   : 1
FORMATO DATOS (FORTRAN,10 campos/dato) : 3F10.2


================================================================================
CALIDAD DEL ACELEROGRAMA:
REGISTRO DIGITAL COMPLETO CON TIEMPO ABSOLUTO CORRECTO.


================================================================================
COMENTARIOS:














================================================================================
DATOS DE ACELERACION:
---------+---------+---------+---------+---------+---------+---------+---------+
   CANAL-1   CANAL-2   CANAL-3   CANAL-4   CANAL-5   CANAL-6   CANAL-7   CANAL-8
      N00E        +V      N90E
---------+---------+---------+---------+---------+---------+---------+---------+
[...]
    -12.49     -0.43      0.04
    -12.49     -0.43      0.28
    -12.49     -0.43      0.28
    -12.49     -0.67      0.52
    -12.25     -0.43      0.28
    -12.25     -0.43      0.28
    -12.01     -0.20      0.52
    -11.77     -0.20      0.52
    -11.53     -0.43      0.76
    -11.53     -0.67      0.76
    -11.29     -0.91      1.00
    -11.29     -1.15      1.00
    -11.29     -0.91      1.00
    -11.29     -0.91      1.00
    -11.05     -0.67      1.00
    -11.05     -0.20      1.00
    -10.81     -0.20      1.00
    -10.57     -0.67      1.00
    -10.33     -0.67      1.24
    -10.09     -0.91      1.48
    -10.09     -1.15      1.72
     -9.85     -1.15      1.48
     -9.61     -1.15      1.72
     -9.61     -1.15      1.72
     -9.38     -0.91      1.72
     -9.14     -0.67      1.72
     -8.90     -0.67      1.72
     -8.90     -0.67      1.96
     -8.66     -0.67      1.96
     -8.42     -0.91      2.20
     -8.18     -0.91      2.20
     -7.94     -0.67      2.20
     -7.70     -0.67      2.20
     -7.46     -0.43      1.96
     -7.22     -0.43      2.20
     -6.98     -0.43      2.20
     -6.74     -0.43      2.44
     -6.74     -0.20      2.44
     -6.50      0.04      2.44
     -6.26      0.04      2.44
     -6.02      0.28      2.68
     -5.78      0.28      2.68
     -5.54      0.28      2.68
     -5.31      0.04      2.44
     -5.07      0.28      2.92
     -4.83      0.04      2.92
     -4.59      0.28      2.92
     -4.35      0.28      3.16
     -4.11      0.04      3.16
     -3.87      0.28      3.16
     -3.39      0.52      3.16
     -3.15      0.52      3.16
     -2.91      0.52      3.16
     -2.67      0.52      3.16
     -2.19      0.76      3.16
     -1.95      0.52      3.40
     -1.71      0.76      3.40
     -1.47      0.76      3.40
     -1.23      0.76      3.40
     -1.00      0.76      3.40
     -0.76      0.52      3.40
     -0.28      0.76      3.40
     -0.04      0.76      3.40
      0.20      1.00      3.40
      0.68      1.00      3.40
      0.68      1.00      3.63
      1.16      1.00      3.63
      1.40      1.00      3.63
      1.64      0.76      3.63
      2.12      0.76      3.63
      2.36      0.76      3.40
      2.60      0.76      3.63
      2.84      0.76      3.63
      3.07      0.76      3.63
      3.55      0.76      3.40
      3.79      0.76      3.40
      4.03      0.76      3.63
      4.27      0.76      3.63
      4.75      0.52      3.63
      5.23      0.52      3.63
      5.47      0.52      3.63
      5.71      0.28      3.63
      5.95      0.28      3.63
      6.19      0.28      3.40
      6.43      0.52      3.40
      6.67      0.52      3.40
      6.91      0.52      3.40
      7.14      0.28      3.63
      7.38      0.04      3.63
      7.62      0.04      3.63
      7.86      0.04      3.63
      8.10      0.04      3.63
      8.34      0.04      3.63
      8.58      0.04      3.63
      8.58      0.28      3.63
      8.82      0.28      3.63
      9.06      0.28      3.87
      9.30      0.28      3.87
      9.54      0.04      4.11
      9.78      0.04      4.11
      9.54      0.04      4.11
     10.02      0.28      4.11
     10.02      0.28      4.11
     10.26      0.52      4.11
     10.50      0.52      4.35
     10.50      0.28      4.35
     10.74      0.04      4.59
     10.98      0.28      4.59
     11.21      0.04      4.83
     11.21      0.28      4.83
     11.45      0.28      4.83
     11.45      0.04      4.83
     11.69      0.04      5.07
     11.69      0.04      5.07
     11.93      0.04      5.07
     12.17      0.04      5.31
     12.17     -0.20      5.31
     12.41     -0.20      5.31
     12.41     -0.20      5.31
     12.41      0.28      5.31
     12.41      0.28      5.31
     12.65      0.28      5.31
     12.89      0.52      5.31
     12.89      0.28      5.55
     13.13      0.52      5.55
     13.13      0.28      5.55
     13.37      0.52      5.55
     13.37      0.52      5.55
     13.37      0.52      5.55
     13.61      0.52      5.55
     13.61      0.28      5.55
     13.61      0.28      5.55
     13.61      0.28      5.55
     13.85      0.28      5.79
     13.85      0.52      5.55
     13.85      0.76      5.55
     13.61      0.76      5.55
     13.85      1.00      5.55
     14.09      0.76      5.55
     14.09      0.76      5.55
     14.33      0.76      5.31
     14.33      0.52      5.55
     14.33      0.28      5.31
     14.33      0.28      5.31
     14.33      0.28      5.07
     14.33      0.52      5.07
     14.33      0.52      5.07
     14.33      0.76      4.83
     14.33      0.76      4.83
     14.33      0.52      4.83
     14.57      0.28      4.59
     14.57      0.28      4.59
     14.57      0.28      4.11
     14.33      0.52      4.11
     14.33      0.52      3.87
     14.57      0.52      3.87
     14.33      0.28      3.63
     14.57      0.28      3.40
     14.33      0.04      3.40
     14.57      0.04      2.92
     14.33     -0.20      2.68
     14.33      0.04      2.44
     14.33      0.28      2.20
     14.33      0.04      1.96
     14.33      0.04      1.72
     14.09      0.04      1.48
     14.09      0.04      1.00
     14.09     -0.20      1.24
     14.09     -0.20      1.00
     14.09     -0.20      0.52
     14.09     -0.67      0.52
     13.85     -0.43      0.28
     13.61     -0.43      0.04
     13.61     -0.43      0.04
     13.61     -0.43     -0.20
     13.61     -0.43     -0.44
     13.61     -0.67     -0.67
     13.61     -0.91     -0.91
     13.37     -0.91     -0.91
     13.37     -1.15     -1.15
     13.13     -1.15     -1.39
     13.13     -1.15     -1.39
     12.89     -1.15     -1.63
     12.89     -1.15     -1.87
     12.65     -0.91     -2.11
     12.65     -0.91     -2.11
     12.65     -0.91     -2.11
     12.65     -0.91     -2.11
     12.41     -0.67     -2.35
     12.41     -0.91     -2.35
     12.41     -0.91     -2.35
     12.17     -0.91     -2.35
     11.93     -0.91     -2.59
     11.93     -0.91     -2.59
     11.69     -0.91     -2.35
     11.69     -0.91     -2.35
     11.45     -0.91     -2.35
     11.45     -0.91     -2.35
     11.21     -0.91     -2.35
     10.98     -0.91     -2.35
     10.98     -0.67     -2.35
     10.74     -1.15     -2.35
     10.50     -1.15     -2.35
     10.50     -1.15     -2.35
     10.26     -1.15     -2.35
      9.78     -1.15     -2.11
      9.54     -1.15     -2.11
      9.54     -1.15     -2.11
      9.30     -0.91     -2.11
      9.06     -0.91     -2.11
      8.82     -0.91     -2.11
      8.58     -0.91     -2.11
      8.34     -0.67     -1.87
      8.10     -0.91     -1.87
      7.86     -0.67     -1.87
      7.62     -0.67     -1.87
      7.62     -0.67     -1.63
      7.14     -0.67     -1.63
      7.14     -0.67     -1.39
      6.91     -0.43     -1.39
      6.67     -0.43     -1.63
      6.43     -0.67     -1.39
      6.19     -0.43     -1.39
      5.71     -0.43     -1.39
      5.47     -0.67     -1.39
      5.23     -0.43     -1.39
      4.99     -0.43     -1.39
      4.99     -0.43     -1.39
      4.51     -0.43     -1.39
      4.51     -0.20     -1.39
      4.27     -0.20     -1.39
      4.03     -0.20     -1.39
      3.79     -0.20     -1.63
      3.55     -0.20     -1.63
      3.31     -0.20     -1.63
      3.07     -0.20     -1.63
      2.84     -0.20     -1.87
      2.60     -0.20     -1.87
      2.36     -0.20     -2.11
      2.12     -0.20     -2.35
      2.12      0.04     -2.35
      1.88     -0.20     -2.59
      1.40      0.04     -2.59
      1.40      0.04     -2.83
      0.92      0.04     -3.07
      0.92      0.28     -3.07
      0.68      0.04     -3.31
      0.44      0.28     -3.55
     -0.04      0.28     -3.55
     -0.04      0.28     -3.55
     -0.28      0.28     -3.79
     -0.76      0.52     -4.03
     -0.76      0.52     -4.27
     -1.23      0.76     -4.27
     -1.23      0.52     -4.27
     -1.71      0.76     -4.51
     -1.71      0.76     -4.51
     -1.95      0.76     -4.51
     -2.19      1.00     -4.74
     -2.67      1.00     -4.98
     -2.67      0.76     -5.22
     -2.91      0.76     -5.22
     -3.15      0.76     -5.22
     -3.63      0.76     -5.22
     -3.63      0.76     -5.46
     -3.87      0.76     -5.46
     -4.11      1.00     -5.46
     -4.35      1.00     -5.70
     -4.59      0.52     -5.70
     -4.83      0.76     -5.70
     -5.07      0.76     -5.94
     -5.31      0.76     -5.94
     -5.54      0.76     -6.18
     -5.78      1.00     -5.94
     -6.02      0.76     -5.94
     -6.02      1.00     -5.94
     -6.26      1.00     -6.18
     -6.50      1.00     -6.18
     -6.74      1.00     -6.18
     -6.98      1.24     -6.18
     -6.98      1.00     -6.18
     -7.22      1.00     -6.42
     -7.22      1.00     -6.42
     -7.46      1.00     -6.42
     -7.70      1.00     -6.42
     -7.70      1.00     -6.18
     -7.94      0.76     -6.18
     -8.18      0.76     -6.18
     -8.18      0.76     -6.18
     -8.42      1.00     -6.18
     -8.66      1.00     -6.18
     -8.90      0.76     -6.18
     -8.90      1.00     -5.94
     -8.90      1.00     -5.94
     -9.14      1.24     -5.94
     -9.38      1.00     -5.94
     -9.61      1.00     -5.94
     -9.61      0.76     -5.70
     -9.85      0.52     -5.70
     -9.85      0.28     -5.70
    -10.09      0.76     -5.46
    -10.09      0.52     -5.46
    -10.33      0.52     -5.46
    -10.57      0.52     -5.46
    -10.57      0.52     -5.22
    -10.81      0.52     -5.22
    -11.05      0.76     -5.22
    -11.05      0.76     -5.46
    -11.29      0.52     -4.98
    -11.53      0.52     -4.74
    -11.53      0.28     -4.51
    -11.77      0.28     -4.74
    -12.01      0.52     -4.51
    -12.25      0.52     -4.51
    -12.49      0.76     -4.51
    -12.49      0.28     -4.27
    -12.73      0.52     -4.51
    -12.97      0.28     -4.27
    -13.21      0.28     -4.27
    -13.21      0.28     -4.27
    -13.45      0.28     -4.27
    -13.92      0.28     -4.03
    -13.92      0.28     -4.03
    -14.16      0.28     -3.79
    -14.40      0.28     -3.79
    -14.64      0.28     -3.79
    -14.88      0.28     -3.55
    -15.12      0.28     -3.55
    -15.12      0.52     -3.79
    -15.36      0.28     -3.31
    -15.60      0.28     -3.31
    -15.84      0.04     -3.07
    -15.84      0.04     -3.07
    -16.08     -0.20     -3.07
    -16.32     -0.20     -2.83
    -16.32     -0.43     -2.83
    -16.32     -0.43     -2.59
    -16.56     -0.43     -2.59
    -16.56     -0.43     -2.59
    -16.56     -0.43     -2.35
    -16.80     -0.43     -2.35
    -16.80     -0.43     -2.35
    -16.80     -0.43     -2.11
    -17.04     -0.43     -2.11
    -17.04     -0.43     -2.11
    -17.04     -0.43     -1.87
    -17.04     -0.43     -1.63
    -17.28     -0.43     -1.63
    -17.28     -0.20     -1.39
    -17.52     -0.20     -1.39
    -17.52     -0.20     -1.63
    -17.52     -0.43     -1.39
    -17.52     -0.20     -1.15
    -17.28     -0.43     -0.91
    -17.52     -0.43     -1.15
    -17.52     -0.43     -0.91
    -17.52     -0.20     -0.67
    -17.52     -0.20     -0.44
    -17.52     -0.43     -0.44
    -17.28     -0.43     -0.20
    -17.28     -0.43     -0.20
    -17.04     -0.67      0.04
    -17.28     -0.91      0.04
    -16.80     -0.91      0.28
    -16.80     -0.91      0.28
    -16.56     -1.15      0.28
    -16.56     -1.15      0.28
    -16.32     -0.91      0.52
    -16.08     -0.91      0.52
    -15.84     -0.91      0.52
    -15.60     -0.67      0.76
    -15.36     -0.91      0.76
    -15.12     -0.91      1.00
    -14.88     -0.91      1.00
    -14.64     -0.67      1.00
    -14.40     -0.91      1.00
    -13.92     -0.67      1.24
    -13.68     -0.91      1.48
    -13.45     -0.67      1.48
    -13.21     -0.67      1.48
    -12.97     -0.67      1.72
    -12.49     -0.91      1.72
    -12.25     -0.91      1.72
    -11.77     -0.91      1.72
    -11.53     -0.67      1.72
    -11.05     -0.67      1.72
    -10.81     -0.43      1.72
    -10.33     -0.43      1.96
    -10.09     -0.67      1.96
     -9.85     -0.67      1.96
     -9.38     -0.67      2.20
     -8.90     -0.67      2.20
     -8.66     -0.43      2.44
     -8.18     -0.43      2.44
     -7.94     -0.43      2.44
     -7.46     -0.43      2.44
     -6.98     -0.67      2.68
     -6.74     -0.67      2.44
     -6.50     -0.67      2.68
     -6.02     -0.67      2.92
     -5.54     -0.43      2.92
     -5.31     -0.43      2.92
     -4.83     -0.43      3.16
     -4.35     -0.43      3.16
     -4.11     -0.67      3.16
     -3.87     -0.67      3.16
     -3.39     -0.91      3.40
     -3.15     -0.67      3.40
     -2.91     -0.67      3.40
     -2.67     -0.67      3.40
     -2.43     -0.43      3.63
     -2.19     -0.43      3.63
     -1.71     -0.67      3.87
     -1.47     -0.67      3.87
     -1.23     -1.15      3.87
     -1.00     -1.15      3.87
     -0.52     -1.15      3.87
     -0.28     -1.15      4.11
     -0.04     -0.91      4.11
      0.20     -0.67      4.11
      0.44     -0.67      4.11
      0.68     -0.91      4.35
      0.68     -0.67      4.35
      1.16     -0.67      4.35
      1.40     -0.67      4.35
      1.64     -0.91      4.35
      2.12     -0.67      4.59
      2.12     -1.15      4.59
      2.36     -1.15      4.59
      2.36     -0.91      4.35
      2.60     -0.91      4.35
      2.84     -0.67      4.35
      3.07     -0.43      4.11
      3.55     -0.43      4.11
      3.79     -0.43      4.35
      4.03     -0.43      4.35
      4.27     -0.43      4.35
      4.51     -0.67      4.35
      4.75     -0.43      4.35
      4.99     -0.67      4.35
      5.23     -0.67      4.11
      5.47     -0.67      3.87
      5.47     -0.43      3.87
      5.95     -0.43      3.87
      6.19     -0.43      3.87
      6.19     -0.43      4.11
      6.43     -0.20      4.11
      6.67      0.04      4.11
      6.91      0.04      4.11
      6.91      0.28      3.87
      7.38      0.04      3.87
      7.38      0.04      3.63
      7.86      0.04      3.63
      7.86      0.04      3.63
      8.10      0.04      3.63
      8.10      0.04      3.87
      8.34      0.04      3.87
      8.58      0.28      3.87
      8.58      0.28      3.87
      8.82      0.28      3.87
      9.06      0.52      3.63
      9.06      0.52      3.87
      9.06      0.76      3.40
      9.30      0.76      3.87
      9.54      0.52      3.87
      9.54      0.52      3.87
      9.78      0.76      3.87
      9.78      0.76      4.11
     10.02      0.76      4.11
     10.02      0.52      4.11
     10.02      0.52      4.35
     10.02      0.52      4.35
     10.02      0.52      4.11
     10.02      0.76      4.11
     10.26      0.76      4.11
     10.26      0.76      3.87
     10.26      1.00      3.63
     10.50      1.00      3.63
     10.26      1.24      3.87
     10.50      1.24      3.87
     10.50      1.00      4.11
     10.74      1.00      4.11
     10.74      1.00      4.35
     10.98      1.00      4.11
     10.98      1.00      4.11
     10.98      0.76      3.87
     10.98      0.76      3.87
     10.98      0.76      3.63
     10.74      0.76      3.63
     10.98      1.00      3.63
     10.98      1.24      3.63
     10.98      1.24      3.63
     11.21      1.24      3.63
     11.21      1.00      3.63
     11.21      0.76      3.63
     11.21      0.52      3.40
     11.21      0.52      3.40
     11.21      0.52      3.40
     11.21      0.52      3.16
