********************************************************************************
               CENTRO DE INSTRUMENTACION Y REGISTRO SISMICO  A.C.  
                       Coordinacion de Servicios Tecnicos
     Anaxagoras 814, Col. Narvarte, Benito Juarez, C.P. 03020 Mexico, D.F.
            Tels. 687 45 42/ 687 45  82             Fax. 669 25 12
********************************************************************************
ARCHIVO ESTANDAR DE ACELERACION:
VERSION DEL FORMATO                    : 2.0
NOMBRE DEL ARCHIVO                     : AR149909.301
FECHA Y HORA DE CREACION               : 10/FEBRERO/2000 10:55
REF. CATALOGO ACELEROGRAMAS, SMIS 1996 : REGISTRO No.     /PAG.


================================================================================
DATOS DE LA ESTACION:
NOMBRE DE LA ESTACION                  : ARAGON
CLAVE DE LA ESTACION                   : AR14
LOCALIZACION DE LA ESTACION            : Esc Prim Jose Ordaz Lopez Puebla 2 y
                                       : Baja California, Col Providencia
                                       : Gustavo A. Madero
                                       :
                                       :
COORDENADAS DE LA ESTACION             : 19.481 LAT. N 
                                       : 99.076 LONG. W 
ALTITUD (msnm)                         : 2232
TIPO DE SUELO                          : ARCILLOSO, ZONA LAGO
                                       : 
                                       : 
INSTITUCION RESPONSABLE                : CIRES
                                       :

================================================================================
DATOS DEL ACELEROGRAFO:
MODELO DEL ACELEROGRAFO                : RAD-851
NUMERO DE SERIE DEL ACELEROGRAFO       : 235
NUMERO DE CANALES                      : 3
ORIENTACION C1-C6 (rumbo;orientacion)  : /N00E/+V/N90W
ORIENTACION C7-C12 (rumbo;orientacion) :
VEL. DE MUESTREO, C1-C6 (muestras/s)   : /100/100/100
VEL. DE MUESTREO, C7-C12 (muestras/s)  :
ESC. COMPLETA DE SENSORES, C1-C6, (g)  : /0.5/0.5/0.5
ESC. COMPLETA DE SENSORES, C7-C12, (g) :
FREC. NAT. DE SENSORES, C1-C6, (Hz)    : /30/30/32
FREC. NAT. DE SENSORES, C7-C12, (Hz)   :
AMORTIGUAMIENTO DE SENSORES, C1-C6     : /0.733/0.790/0.750
AMORTIGUAMIENTO DE SENSORES, C7-C12    :
INTERVALO DE MUESTREO, C1-C6, (s)      : /0.01/0.01/0.01
INTERVALO DE MUESTREO, C7-C12, (s)     :
UMBRAL DE DISPARO, C1-C6, (Gal)        : /2.44/3.42/2.44
UMBRAL DE DISPARO, C7-C12, (Gal)       :
MEMORIA DE PREEVENTO (s)               : 16
TIEMPO DE POSEVENTO (s)                : 64


================================================================================
DATOS DEL SISMO:
FECHA DEL SISMO (GMT)                  : 30/SEP/99
HORA EPICENTRO (GMT)                   : 16:31:14.8
MAGNITUD(ES)                           : /Mb=6.5/Ms=7.5/Mc=5.2/Ma=7.1/Me=7.6
COORDENADAS DEL EPICENTRO              : 15.95 LAT. N
                                       : 97.03 LONG. W
PROFUNDIDAD FOCAL (km)                 : 16.0
FUENTE DE LOS DATOS EPICENTRALES       : SSN
                                       : INSTITUTO DE GEOFISICA, UNAM

================================================================================
DATOS DE ESTE REGISTRO:
HORA DE LA PRIMERA MUESTRA (GMT)       : 16:32:37.00
EXACTITUD DEL TIEMPO (s)               : 0.01
DURACION DEL REGISTRO (s), C1-C6       : /351.25/351.25/351.25
DURACION DEL REGISTRO (s), C7-C12      :
NUM. TOTAL DE MUESTRAS, C1-C6          : /35125/35125/35125
NUM. TOTAL DE MUESTRAS, C7-C12         :
ACEL. MAX. (Gal), C1-C6                : /25.47434/5.87093/25.20453
ACEL. MAX., C1-C6, EN LA MUESTRA       :
ACEL. MAX. (Gal), C7-C12               :
ACEL. MAX., C7-C12, EN LA MUESTRA      :
UNIDADES DE LOS DATOS                  : Gal (cm/s/s)
FACTOR DE DECIMACION                   : 1
FORMATO DATOS (FORTRAN,10 campos/dato) : 3F10.5


================================================================================
CALIDAD DEL ACELEROGRAMA:
REGISTRO DIGITAL COMPLETO CON TIEMPO ABSOLUTO CORRECTO.


================================================================================
COMENTARIOS:














================================================================================
DATOS DE ACELERACION:
---------+---------+---------+---------+---------+---------+---------+---------+
   CANAL-1   CANAL-2   CANAL-3   CANAL-4   CANAL-5   CANAL-6   CANAL-7   CANAL-8
      N00E        +V      N90W
---------+---------+---------+---------+---------+---------+---------+---------+
[...]
  13.02455   0.59338  16.69378
  12.78514   0.83280  16.69378
  12.30630   0.59338  16.69378
  12.30630   0.59338  16.69378
  11.82746   0.59338  16.93320
  11.34862   0.59338  17.17262
  11.10920   0.35397  17.17262
  10.63036   0.11455  17.17262
  10.39095   0.11455  17.41204
   9.91211  -0.12487  17.17262
   9.43327   0.11455  17.41204
   9.19385  -0.12487  17.41204
   8.95443  -0.12487  17.17262
   8.47559  -0.36429  17.41204
   8.23618  -0.36429  17.41204
   8.23618  -0.36429  17.41204
   7.99676  -0.36429  17.17262
   7.75734  -0.60371  17.17262
   7.75734  -0.60371  17.17262
   7.75734  -0.60371  16.93320
   7.51792  -0.60371  16.93320
   7.51792  -0.60371  16.69378
   7.51792  -0.36429  16.69378
   7.51792  -0.36429  16.45436
   7.51792  -0.36429  16.21494
   7.51792  -0.12487  15.97552
   7.51792  -0.12487  15.73611
   7.51792  -0.12487  15.49669
   7.51792   0.11455  15.25727
   7.51792   0.11455  15.25727
   7.51792   0.35397  15.01785
   7.51792   0.35397  14.77843
   7.51792   0.59338  14.53901
   7.51792   0.35397  14.29959
   7.51792   0.59338  14.06017
   7.51792   0.35397  14.06017
   7.51792   0.59338  13.58134
   7.75734   0.35397  13.34192
   7.51792   0.59338  13.10250
   7.51792   0.35397  12.86308
   7.75734   0.35397  12.62366
   7.75734   0.35397  12.14482
   7.99676   0.35397  11.90540
   7.99676   0.35397  11.42656
   7.99676   0.35397  11.18715
   7.99676   0.35397  10.94773
   8.23618   0.35397  10.46889
   8.23618   0.35397  10.22947
   8.47559   0.11455   9.99005
   8.23618   0.35397   9.75063
   8.47559   0.11455   9.51121
   8.71501   0.11455   9.03238
   8.71501  -0.12487   9.27179
   8.47559  -0.36429   9.03238
   8.71501  -0.36429   8.79296
   8.71501  -0.36429   8.55354
   8.71501  -0.60371   8.31412
   8.71501  -0.60371   7.83528
   8.23618  -0.84313   7.83528
   8.23618  -0.84313   7.35644
   7.99676  -0.84313   7.11702
   7.75734  -0.84313   6.63819
   7.51792  -0.84313   6.15935
   7.03908  -0.84313   5.91993
   6.56024  -0.84313   5.44109
   6.32082  -0.84313   4.96225
   5.84199  -1.08255   4.48342
   5.36315  -1.08255   3.76516
   4.88431  -1.08255   3.52574
   4.40547  -1.08255   3.04690
   3.92663  -1.08255   2.32864
   3.44780  -1.08255   2.08923
   2.96896  -1.32197   1.61039
   2.49012  -1.08255   1.13155
   2.01128  -1.56139   0.65271
   1.53244  -1.56139   0.41329
   1.05361  -1.80081  -0.06554
   0.81419  -1.56139  -0.54438
   0.33535  -1.80081  -0.78380
   0.09593  -1.80081  -1.50206
  -0.38291  -1.80081  -1.50206
  -0.62233  -1.80081  -2.22032
  -0.86174  -1.80081  -2.45973
  -1.10116  -1.80081  -2.93857
  -1.34058  -1.80081  -3.17799
  -1.58000  -1.80081  -3.41741
  -1.58000  -1.56139  -3.89625
  -1.81942  -1.32197  -4.13567
  -1.81942  -1.32197  -4.61450
  -1.81942  -1.08255  -4.85392
  -1.81942  -1.08255  -5.09334
  -2.05884  -0.84313  -5.33276
  -2.05884  -0.84313  -5.57218
  -2.05884  -0.36429  -6.05102
  -1.81942  -0.12487  -6.05102
  -1.81942   0.11455  -6.52986
  -1.81942   0.35397  -6.52986
  -1.81942   0.59338  -7.00869
  -1.81942   0.83280  -7.24811
  -1.58000   1.07222  -7.48753
  -1.81942   1.31164  -7.48753
  -1.58000   1.31164  -7.96637
  -1.81942   1.79048  -7.96637
  -1.81942   1.79048  -8.20579
  -1.81942   2.26932  -8.44521
  -1.81942   2.26932  -8.68463
  -2.05884   2.50874  -8.68463
  -2.05884   2.50874  -8.92405
  -2.29826   2.74815  -9.16346
  -2.53768   2.74815  -9.16346
  -2.77710   2.98757  -9.16346
  -2.77710   2.98757  -9.64230
  -3.01652   3.22699  -9.64230
  -3.25593   3.22699  -9.88172
  -3.73477   3.22699 -10.12114
  -3.97419   3.22699 -10.36056
  -4.21361   3.22699 -10.59998
  -4.45303   3.22699 -11.07882
  -4.69245   2.98757 -11.31823
  -4.93187   2.98757 -11.79707
  -5.41070   2.98757 -12.03649
  -5.41070   2.98757 -12.75475
  -5.88954   2.74815 -12.99417
  -6.12896   2.74815 -13.47301
  -6.36838   2.50874 -13.71242
  -6.60780   2.50874 -14.19126
  -7.08664   2.50874 -14.67010
  -7.32606   2.26932 -14.90952
  -7.56548   2.26932 -15.14894
  -7.80489   2.26932 -15.62778
  -8.04431   2.02990 -15.86719
  -8.28373   2.02990 -16.10661
  -8.52315   1.79048 -16.58545
  -8.76257   1.55106 -16.82487
  -9.00199   1.55106 -17.06429
  -9.00199   1.31164 -17.54313
  -9.48083   1.31164 -17.78255
  -9.48083   1.07222 -18.26138
  -9.72025   1.07222 -18.26138
 -10.19908   0.83280 -18.97964
 -10.43850   0.83280 -19.21906
 -10.67792   0.83280 -19.45848
 -10.67792   0.59338 -19.93732
 -11.15676   0.83280 -19.93732
 -11.39618   0.59338 -20.17674
 -11.39618   0.59338 -20.41615
 -11.39618   0.59338 -20.41615
 -11.63560   0.59338 -20.65557
 -11.87502   0.59338 -20.41615
 -11.63560   0.59338 -20.65557
 -11.87502   0.59338 -20.41615
 -12.11444   0.59338 -20.65557
 -12.11444   0.35397 -20.65557
 -12.11444   0.35397 -20.41615
 -12.35385   0.35397 -20.41615
 -12.35385   0.35397 -19.93732
 -12.59327   0.35397 -19.93732
 -12.59327   0.59338 -19.69790
 -12.83269   0.59338 -19.45848
 -12.59327   0.59338 -19.21906
 -12.83269   0.83280 -18.74022
 -12.83269   0.83280 -18.74022
 -12.59327   0.83280 -18.02197
 -12.59327   1.07222 -17.78255
 -12.59327   0.83280 -17.06429
 -12.59327   1.07222 -16.34603
 -12.59327   1.07222 -15.62778
 -12.59327   1.07222 -14.90952
 -12.59327   1.07222 -13.95184
 -12.59327   1.07222 -13.23359
 -12.59327   1.07222 -12.51533
 -12.59327   1.07222 -11.55765
 -12.83269   1.07222 -11.31823
 -12.83269   1.07222 -10.36056
 -12.83269   0.83280  -9.88172
 -13.07211   0.83280  -9.40288
 -13.07211   0.59338  -8.92405
 -13.31153   0.59338  -8.20579
 -13.31153   0.59338  -7.72695
 -13.55095   0.59338  -7.48753
 -13.79037   0.59338  -7.00869
 -14.02979   0.35397  -6.76928
 -14.26921   0.35397  -6.29044
 -14.26921   0.35397  -5.81160
 -14.74804   0.35397  -5.57218
 -14.74804   0.11455  -5.09334
 -14.98746   0.11455  -4.85392
 -14.98746  -0.12487  -4.37509
 -15.22688  -0.36429  -4.13567
 -15.46630  -0.36429  -3.89625
 -15.46630  -0.36429  -3.65683
 -15.70572  -0.60371  -3.17799
 -15.70572  -0.60371  -2.93857
 -15.94514  -0.60371  -2.93857
 -15.94514  -0.60371  -2.69915
 -16.18456  -0.60371  -2.69915
 -16.18456  -0.60371  -2.45973
 -16.18456  -0.84313  -2.45973
 -16.42398  -0.60371  -2.22032
 -16.42398  -0.84313  -2.22032
 -16.42398  -0.84313  -2.22032
 -16.42398  -1.08255  -1.98090
 -16.42398  -0.84313  -1.74148
 -16.42398  -1.08255  -1.74148
 -16.42398  -1.32197  -1.50206
 -16.42398  -1.32197  -1.26264
 -16.18456  -1.56139  -1.26264
 -16.18456  -1.56139  -1.26264
 -15.94514  -1.80081  -1.02322
 -15.70572  -1.80081  -1.02322
 -15.46630  -1.80081  -0.78380
 -14.98746  -2.04022  -0.54438
 -14.74804  -2.04022  -0.54438
 -14.50862  -2.27964  -0.30496
 -14.26921  -2.51906  -0.06554
 -13.79037  -2.51906  -0.06554
 -13.55095  -2.75848   0.17387
 -13.07211  -2.75848   0.17387
 -12.83269  -2.99790   0.41329
 -12.59327  -3.23732   0.65271
 -12.35385  -3.23732   0.89213
 -11.87502  -3.23732   0.89213
 -11.63560  -3.47674   1.13155
 -11.39618  -3.47674   1.37097
 -11.15676  -3.71616   1.61039
 -10.91734  -3.95558   1.61039
 -10.91734  -3.95558   2.08923
 -10.67792  -4.19499   2.08923
 -10.43850  -4.19499   2.32864
 -10.43850  -4.19499   2.80748
  -9.95966  -4.43441   2.80748
 -10.19908  -4.19499   3.04690
  -9.95966  -4.43441   3.28632
  -9.95966  -4.43441   3.28632
  -9.72025  -4.43441   3.28632
  -9.72025  -4.43441   3.52574
  -9.72025  -4.43441   3.52574
  -9.72025  -4.19499   3.52574
  -9.72025  -4.19499   3.76516
  -9.72025  -3.95558   3.52574
  -9.72025  -3.95558   3.76516
  -9.48083  -3.95558   3.76516
  -9.48083  -3.71616   3.76516
  -9.72025  -3.47674   3.76516
  -9.48083  -3.47674   4.00458
  -9.72025  -3.23732   3.76516
  -9.72025  -2.99790   4.00458
  -9.48083  -2.99790   4.00458
  -9.48083  -2.75848   4.00458
  -9.24141  -2.27964   4.00458
  -9.00199  -2.27964   4.00458
  -9.00199  -2.04022   3.76516
  -8.76257  -1.80081   4.00458
  -8.52315  -1.56139   3.76516
  -8.28373  -1.32197   4.00458
  -7.80489  -1.32197   3.76516
  -7.32606  -1.08255   3.76516
  -7.08664  -0.84313   4.00458
  -6.36838  -0.84313   4.00458
  -6.12896  -0.60371   3.76516
  -5.65012  -0.60371   4.24400
  -5.17129  -0.36429   4.00458
  -4.69245  -0.12487   4.24400
  -4.45303  -0.12487   4.24400
  -3.73477   0.11455   4.48342
  -3.25593   0.35397   4.48342
  -2.77710   0.35397   4.72283
  -2.29826   0.59338   4.72283
  -1.81942   0.83280   4.96225
  -1.10116   0.83280   4.96225
  -0.62233   1.07222   5.20167
  -0.14349   1.31164   5.20167
   0.09593   1.31164   5.44109
   0.81419   1.31164   5.44109
   1.05361   1.55106   5.68051
   1.53244   1.55106   5.68051
   1.77186   1.55106   5.91993
   2.25070   1.79048   6.15935
   2.49012   1.79048   6.39877
   2.96896   1.79048   6.63819
   3.20838   2.02990   6.87760
   3.68722   1.79048   7.35644
   3.92663   2.02990   7.59586
   4.16605   2.02990   8.07470
   4.40547   2.02990   8.55354
   4.64489   2.02990   8.79296
   4.88431   1.79048   9.27179
   5.12373   1.79048   9.51121
   5.36315   1.79048   9.75063
   5.60257   1.79048  10.22947
   5.84199   1.55106  10.70831
   6.08140   1.55106  10.94773
   6.32082   1.55106  11.42656
   6.56024   1.31164  11.90540
   6.79966   1.31164  12.14482
   7.03908   1.07222  12.62366
   7.27850   1.07222  13.10250
   7.51792   0.83280  13.34192
   7.99676   0.59338  13.82075
   8.23618   0.59338  14.06017
   8.47559   0.35397  14.77843
   8.95443   0.11455  15.01785
   9.19385   0.11455  15.25727
   9.43327  -0.36429  15.73611
   9.91211  -0.60371  15.97552
  10.15153  -0.60371  15.97552
  10.63036  -0.84313  16.69378
  11.10920  -1.08255  16.69378
  11.58804  -1.32197  16.93320
  12.06688  -1.56139  17.41204
  12.54572  -1.80081  17.65146
  12.78514  -2.04022  17.65146
  13.26397  -2.04022  18.13030
  13.74281  -2.27964  18.13030
  14.46107  -2.27964  18.36971
  14.70049  -2.27964  18.36971
  15.17932  -2.51906  18.60913
  15.65816  -2.51906  18.36971
  15.89758  -2.27964  18.60913
  16.61584  -2.51906  18.84855
  17.09468  -2.51906  18.84855
  17.33410  -2.51906  18.60913
  17.81293  -2.51906  18.60913
  18.29177  -2.27964  18.36971
  18.77061  -2.27964  18.36971
  19.24945  -2.04022  17.89088
  19.72828  -2.04022  17.65146
  19.96770  -1.80081  17.41204
  20.20712  -1.80081  16.93320
  20.68596  -1.32197  16.45436
  21.16480  -1.32197  16.21494
  21.40422  -1.08255  15.49669
  21.64364  -0.84313  15.25727
  22.12247  -0.84313  14.29959
  22.36189  -0.60371  13.82075
  22.60131  -0.36429  13.34192
  22.84073   0.11455  12.62366
  23.31957   0.11455  12.14482
  23.55899   0.35397  11.66598
  23.79841   0.83280  10.94773
  23.79841   0.83280  10.46889
  24.03783   1.31164   9.75063
  24.27724   1.31164   9.27179
  24.75608   1.55106   8.55354
  24.75608   1.79048   8.07470
  24.99550   2.02990   7.35644
  24.99550   2.50874   6.87760
  25.23492   2.74815   6.39877
  25.47434   2.74815   5.91993
  25.23492   2.98757   5.20167
  25.47434   3.22699   4.72283
  25.23492   3.22699   4.24400
  25.23492   3.46641   3.76516
  24.99550   3.46641   3.28632
  24.99550   3.46641   2.80748
  24.75608   3.70583   2.56806
  24.51666   3.46641   1.84981
  24.27724   3.46641   1.61039
  23.79841   3.46641   1.13155
  23.55899   3.46641   0.89213
  23.08015   3.46641   0.65271
  22.60131   3.46641   0.41329
  22.36189   3.22699   0.17387
  21.64364   3.22699  -0.06554
  21.16480   2.98757  -0.30496
  20.44654   2.98757  -0.54438
  20.20712   2.74815  -0.78380
  19.48887   2.74815  -1.26264
  19.01003   2.50874  -1.50206
  18.29177   2.50874  -1.74148
  17.57351   2.50874  -1.98090
  17.09468   2.50874  -2.45973
  15.89758   2.26932  -2.69915
  15.65816   2.50874  -2.93857
  14.93991   2.50874  -3.17799
  14.22165   2.50874  -3.65683
  13.74281   2.50874  -3.89625
  13.02455   2.50874  -4.13567
  12.30630   2.50874  -4.37509
  11.58804   2.50874  -4.85392
  11.10920   2.50874  -5.09334
  10.63036   2.50874  -5.33276
   9.91211   2.50874  -5.81160
   9.43327   2.74815  -6.05102
   8.95443   2.50874  -6.29044
   8.47559   2.50874  -6.76928
   7.99676   2.50874  -7.24811
   7.51792   2.50874  -7.48753
   7.03908   2.74815  -7.72695
   6.79966   2.74815  -8.20579
   6.32082   2.74815  -8.44521
   6.32082   2.74815  -8.92405
   6.08140   2.74815  -9.16346
   5.84199   2.74815  -9.64230
   5.60257   2.50874 -10.12114
   5.36315   2.50874 -10.59998
   5.12373   2.26932 -10.83940
   5.12373   2.50874 -11.07882
   5.12373   2.26932 -11.55765
   4.88431   2.26932 -11.79707
   4.88431   2.26932 -12.03649
   4.64489   2.26932 -12.51533
   4.64489   2.26932 -12.75475
   4.64489   2.26932 -12.99417
   4.40547   2.26932 -12.99417
   4.16605   2.26932 -12.99417
   4.16605   2.26932 -13.23359
   4.16605   2.02990 -13.23359
   3.92663   2.26932 -12.99417
   3.68722   2.02990 -12.99417
   3.44780   2.02990 -12.75475
   3.44780   1.79048 -12.75475
   2.96896   1.79048 -12.27591
   2.72954   1.55106 -12.27591
   2.49012   1.55106 -11.79707
   2.49012   1.55106 -11.31823
   2.01128   1.55106 -11.07882
   1.77186   1.31164 -10.83940
   1.53244   1.55106 -10.12114
   1.29303   1.31164  -9.88172
   0.81419   1.31164  -9.16346
   0.81419   1.31164  -8.92405
   0.33535   1.31164  -8.44521
   0.09593   1.31164  -7.96637
  -0.14349   1.31164  -7.48753
  -0.38291   1.31164  -7.24811
  -0.62233   1.31164  -7.00869
  -0.86174   1.07222  -6.52986
  -1.34058   1.07222  -6.29044
  -1.58000   1.07222  -5.81160
  -1.81942   1.07222  -5.57218
  -2.29826   0.83280  -5.33276
  -2.77710   0.83280  -5.09334
  -3.01652   1.07222  -4.85392
  -3.49535   1.07222  -4.37509
  -3.73477   1.07222  -4.13567
  -4.21361   1.07222  -4.13567
  -4.21361   0.83280  -3.89625
  -4.93187   0.83280  -3.65683
  -5.17129   0.83280  -3.41741
  -5.65012   0.83280  -3.65683
  -6.12896   0.59338  -3.65683
  -6.36838   0.59338  -3.89625
  -6.60780   0.59338  -4.13567
  -6.84722   0.35397  -4.37509
  -7.32606   0.59338  -4.61450
  -7.56548   0.83280  -4.61450
  -7.56548   0.83280  -5.09334
  -7.80489   0.83280  -5.33276
  -8.04431   0.83280  -5.81160
  -8.28373   0.83280  -6.05102
  -8.28373   0.83280  -6.52986
  -8.76257   0.83280  -6.76928
  -8.76257   0.83280  -7.24811
  -9.24141   0.83280  -7.48753
  -9.24141   1.07222  -7.96637
  -9.48083   0.83280  -8.44521
  -9.72025   0.83280  -8.92405
  -9.72025   0.83280  -8.92405
  -9.72025   0.83280  -9.64230
  -9.95966   0.83280  -9.88172
  -9.95966   0.83280 -10.36056
  -9.95966   0.83280 -10.59998
  -9.72025   0.59338 -11.07882
  -9.72025   0.59338 -11.31823
  -9.48083   0.35397 -11.79707
  -9.24141   0.35397 -12.03649
  -9.00199   0.11455 -12.27591
  -8.76257   0.11455 -12.27591
  -8.52315  -0.12487 -12.51533
  -8.28373  -0.36429 -12.51533
  -8.04431  -0.36429 -12.75475
  -7.56548  -0.60371 -12.51533
  -7.32606  -0.60371 -12.51533
  -7.08664  -0.84313 -12.27591
  -6.60780  -1.08255 -12.27591
  -6.36838  -1.32197 -12.03649
  -5.88954  -1.32197 -12.03649
  -5.41070  -1.56139 -11.55765
  -5.17129  -1.56139 -11.55765
  -4.93187  -1.80081 -11.07882
  -4.69245  -2.04022 -11.07882
  -4.45303  -2.27964 -10.59998
  -4.21361  -2.27964 -10.59998
  -4.21361  -2.51906 -10.12114
  -3.97419  -2.75848  -9.88172
  -3.97419  -2.75848  -9.64230
  -3.73477  -2.99790  -9.64230
  -3.97419  -3.23732  -9.16346
  -3.73477  -3.23732  -9.16346
  -3.73477  -3.47674  -8.68463
  -3.73477  -3.47674  -8.44521
  -3.97419  -3.95558  -8.20579
  -3.97419  -3.95558  -7.96637
  -3.97419  -4.19499  -7.72695
  -3.97419  -4.19499  -7.48753
  -3.97419  -4.43441  -7.24811
  -4.21361  -4.43441  -7.24811
