********************************************************************************
               CENTRO DE INSTRUMENTACION Y REGISTRO SISMICO  A.C.  
                       Coordinacion de Servicios Tecnicos
     Anaxagoras 814, Col. Narvarte, Benito Juarez, C.P. 03020 Mexico, D.F.
            Tels. 687 45 42/ 687 45  82             Fax. 669 25 12
********************************************************************************
ARCHIVO ESTANDAR DE ACELERACION:
VERSION DEL FORMATO                    : 2.0
NOMBRE DEL ARCHIVO                     : AR149403.141
FECHA Y HORA DE CREACION               : 22 de enero 1996/16:58
REF. CATALOGO ACELEROGRAMAS, SMIS 1995 : REGISTRO No.     /PAG.


================================================================================
DATOS DE LA ESTACION:
NOMBRE DE LA ESTACION                  : ARAGON
CLAVE DE LA ESTACION                   : AR14
LOCALIZACION DE LA ESTACION            : Esc Prim Jose Ordaz Lopez Puebla 2 y
                                       : Baja California, Col Providencia
                                       : Gustavo A. Madero
                                       :
                                       :
COORDENADAS DE LA ESTACION             : 19.481 LAT. N 
                                       : 99.076 LONG. W 
ALTITUD (msnm)                         : 2232
TIPO DE SUELO                          : ARCILLOSO, ZONA LAGO
                                       : 
                                       : 
INSTITUCION RESPONSABLE                : CIRES
                                       :

================================================================================
DATOS DEL ACELEROGRAFO:
MODELO DEL ACELEROGRAFO                : DCA-333
NUMERO DE SERIE DEL ACELEROGRAFO       : 235
NUMERO DE CANALES                      : 3
ORIENTACION C1-C6 (rumbo;orientacion)  : /N00E/+V/N90W
ORIENTACION C7-C12 (rumbo;orientacion) :
VEL. DE MUESTREO, C1-C6 (muestras/s)   : /100/100/100
VEL. DE MUESTREO, C7-C12 (muestras/s)  :
ESC. COMPLETA DE SENSORES, C1-C6, (g)  : /0.5/0.5/0.5
ESC. COMPLETA DE SENSORES, C7-C12, (g) :
FREC. NAT. DE SENSORES, C1-C6, (Hz)    : /30/30/32
FREC. NAT. DE SENSORES, C7-C12, (Hz)   :
AMORTIGUAMIENTO DE SENSORES, C1-C6     : /0.733/0.790/0.750
AMORTIGUAMIENTO DE SENSORES, C7-C12    :
INTERVALO DE MUESTREO, C1-C6, (s)      : /0.01/0.01/0.01
INTERVALO DE MUESTREO, C7-C12, (s)     :
UMBRAL DE DISPARO, C1-C6, (Gal)        : /2.9/2.9/2.9
UMBRAL DE DISPARO, C7-C12, (Gal)       :
MEMORIA DE PREEVENTO (s)               : 4
TIEMPO DE POSEVENTO (s)                : 15


================================================================================
DATOS DEL SISMO:
FECHA DEL SISMO (GMT)                  : 14/MAR/94
HORA EPICENTRO (GMT)                   : 20:51:32,5
MAGNITUD(ES)                           : /Mc=6.50
COORDENADAS DEL EPICENTRO              : 15.670 LAT. N 
                                       : 93.010 LONG. W 
PROFUNDIDAD FOCAL (km)                 : 95 
FUENTE DE LOS DATOS EPICENTRALES       : SSN
                                       : INSTITUTO DE GEOFISICA, UNAM

================================================================================
DATOS DE ESTE REGISTRO:
HORA DE LA PRIMERA MUESTRA (GMT)       : 20:54:46.31
EXACTITUD DEL TIEMPO (s)               : 0.01
DURACION DEL REGISTRO (s), C1-C6       : /52.49/52.49/52.49
DURACION DEL REGISTRO (s), C7-C12      :
NUM. TOTAL DE MUESTRAS, C1-C6          : /5249/5249/5249
NUM. TOTAL DE MUESTRAS, C7-C12         :
ACEL. MAX. (Gal), C1-C6                : /3.24/1.26/2.64
ACEL. MAX., C1-C6, EN LA MUESTRA       :
ACEL. MAX. (Gal), C7-C12               :
ACEL. MAX., C7-C12, EN LA MUESTRA      :
UNIDADES DE LOS DATOS                  : Gal (cm/s/s)
FACTOR DE DECIMACION                   : 1
FORMATO DATOS (FORTRAN,10 campos/dato) : 3F10.2


================================================================================
CALIDAD DEL ACELEROGRAMA:
REGISTRO DIGITAL COMPLETO, CON TIEMPO ABSOLUTO CORRECTO.


================================================================================
COMENTARIOS:














================================================================================
DATOS DE ACELERACION:
---------+---------+---------+---------+---------+---------+---------+---------+
   CANAL-1   CANAL-2   CANAL-3   CANAL-4   CANAL-5   CANAL-6   CANAL-7   CANAL-8
		N00E        +V      N90W
---------+---------+---------+---------+---------+---------+---------+---------+
[...]
     -0.85      0.31     -0.49
     -0.61      0.07     -0.49
     -0.61      0.31     -0.49
     -0.61      0.31     -0.49
     -0.61      0.31     -0.49
     -0.61      0.07     -0.49
     -0.61      0.31     -0.49
     -0.61      0.31     -0.49
     -0.37      0.31     -0.49
     -0.61      0.31     -0.49
     -0.61      0.31     -0.49
     -0.37      0.31     -0.25
     -0.37      0.31     -0.25
     -0.61      0.31     -0.49
     -0.61      0.31     -0.25
     -0.61      0.31     -0.25
     -0.61      0.31     -0.25
     -0.37      0.07     -0.25
     -0.61      0.07     -0.25
     -0.37      0.31     -0.01
     -0.61      0.07     -0.01
     -0.61      0.07     -0.01
     -0.61      0.07     -0.01
     -0.37      0.07     -0.01
     -0.37      0.07      0.23
     -0.37      0.07     -0.01
     -0.37      0.07      0.23
     -0.61      0.07      0.23
     -0.37      0.07      0.23
     -0.37      0.07      0.23
     -0.37     -0.17     -0.01
     -0.37     -0.17      0.23
     -0.37     -0.17      0.23
     -0.37     -0.17      0.23
     -0.37     -0.41     -0.01
     -0.37     -0.17      0.23
     -0.37     -0.17     -0.01
     -0.13     -0.17      0.23
     -0.13     -0.17     -0.01
     -0.13     -0.17     -0.01
     -0.13      0.07     -0.01
      0.11     -0.17     -0.01
      0.11     -0.41     -0.01
      0.11     -0.17     -0.01
      0.11     -0.17     -0.01
      0.35     -0.17     -0.25
      0.35     -0.17     -0.25
      0.35      0.07     -0.01
      0.59      0.07     -0.01
      0.59     -0.17     -0.01
      0.59     -0.17     -0.01
      0.59     -0.17     -0.25
      0.59      0.07     -0.01
      0.83     -0.41     -0.01
      0.83     -0.17     -0.01
      0.83     -0.41     -0.01
      0.83     -0.41     -0.01
      0.83     -0.41     -0.01
      0.83     -0.41     -0.01
      0.83     -0.41     -0.25
      0.83     -0.41      0.23
      0.83     -0.41      0.23
      0.83     -0.41      0.23
      0.83     -0.41      0.23
      0.83     -0.41      0.23
      0.83     -0.17      0.47
      0.83     -0.41      0.47
      0.83     -0.41      0.47
      0.83     -0.41      0.71
      0.83     -0.41      0.71
      0.83     -0.41      0.95
      0.83     -0.41      0.95
      0.59     -0.41      0.95
      0.83     -0.41      0.95
      0.83     -0.65      1.19
      0.83     -0.41      0.95
      0.83     -0.41      1.19
      0.83     -0.41      1.19
      0.83     -0.41      1.19
      0.83     -0.41      1.43
      1.07     -0.41      1.43
      1.07     -0.41      1.43
      1.07     -0.41      1.67
      1.31     -0.41      1.67
      1.31      0.07      1.67
      1.31     -0.17      1.67
      1.31     -0.17      1.67
      1.31      0.07      1.91
      1.55     -0.17      1.91
      1.55     -0.17      1.91
      1.55     -0.41      1.91
      1.55      0.07      1.91
      1.79      0.07      1.67
      1.79      0.31      1.91
      1.55      0.31      1.91
      1.79      0.31      1.91
      1.79      0.31      1.91
      1.79      0.31      1.91
      1.79      0.31      1.91
      1.79      0.31      1.91
      2.03      0.54      1.91
      1.79      0.54      1.91
      2.03      0.54      1.91
      2.03      0.54      1.91
      2.27      0.31      1.91
      2.03      0.31      1.91
      2.03      0.31      1.91
      2.27      0.31      1.91
      2.27      0.31      1.91
      2.03      0.31      1.67
      2.03      0.07      1.91
      2.03      0.07      1.67
      2.03      0.07      1.67
      2.03      0.07      1.67
      2.03      0.07      1.67
      2.03      0.07      1.67
      2.03     -0.17      1.43
      1.79     -0.17      1.43
      1.79      0.07      1.43
      1.79     -0.17      1.43
      1.79     -0.17      1.19
      1.79     -0.17      1.43
      1.79     -0.17      1.19
      1.55     -0.17      1.19
      1.55     -0.17      1.19
      1.55      0.07      0.95
      1.55     -0.17      0.95
      1.55     -0.17      0.95
      1.55      0.07      0.71
      1.55      0.07      0.71
      1.31      0.07      0.71
      1.31      0.07      0.71
      1.31      0.07      0.47
      1.31      0.07      0.47
      1.31      0.07      0.23
      1.31      0.07      0.23
      1.07      0.07      0.23
      1.07      0.07      0.23
      0.83      0.07     -0.25
      1.07     -0.17     -0.01
      0.83      0.07      0.23
      0.83     -0.17     -0.01
      0.83     -0.17     -0.01
      0.83     -0.17     -0.01
      0.83     -0.17     -0.01
      0.83     -0.17     -0.01
      0.59     -0.17     -0.01
      0.59     -0.17     -0.25
      0.59     -0.17     -0.25
      0.35      0.07     -0.25
      0.59     -0.17     -0.25
      0.59      0.07     -0.25
      0.59     -0.17     -0.25
      0.35     -0.17     -0.01
      0.35     -0.17     -0.25
      0.35     -0.41     -0.25
      0.11     -0.17     -0.01
      0.35     -0.17     -0.01
      0.11     -0.17     -0.01
      0.35     -0.17     -0.01
      0.11     -0.17      0.23
      0.11     -0.17     -0.01
      0.11      0.07      0.23
      0.11      0.07      0.23
      0.11     -0.17      0.23
      0.11      0.07      0.47
      0.11      0.07      0.71
      0.11      0.07      0.47
      0.11     -0.17      0.71
      0.11     -0.17      0.71
      0.35     -0.17      0.23
      0.35     -0.17      0.71
      0.11     -0.17      0.71
      0.11      0.07      0.71
      0.11      0.07      0.71
      0.35     -0.17      0.71
      0.35      0.07      0.71
      0.35     -0.17      0.95
      0.35     -0.17      0.95
      0.35     -0.17      0.95
      0.35     -0.17      0.95
      0.35      0.07      0.71
      0.35      0.07      0.95
      0.35      0.07      0.95
      0.35      0.07      0.95
      0.35      0.07      0.95
      0.11      0.07      0.95
      0.11      0.07      0.95
      0.11      0.07      0.95
      0.11      0.07      0.95
      0.11      0.07      0.95
      0.11      0.07      0.95
     -0.13      0.07      0.95
     -0.13      0.07      0.71
     -0.13      0.07      0.95
     -0.37      0.07      0.95
     -0.37      0.07      0.95
     -0.61      0.31      0.71
     -0.61      0.07      0.71
     -0.61      0.07      0.95
     -0.85      0.07      0.71
     -0.85      0.07      0.71
     -0.85      0.07      0.71
     -0.85     -0.17      0.71
     -1.32     -0.17      0.47
     -1.32      0.07      0.47
     -1.32      0.07      0.47
     -1.32      0.07      0.71
     -1.56      0.07      0.71
     -1.56     -0.17      0.47
     -1.56     -0.17      0.71
     -1.80     -0.17      0.47
     -1.80     -0.17      0.47
     -2.04     -0.17      0.47
     -2.04     -0.17      0.23
     -2.04     -0.17      0.23
     -2.04     -0.17      0.23
     -2.28     -0.17      0.23
     -2.28      0.07      0.23
     -2.28      0.07      0.23
     -2.52      0.07      0.23
     -2.52      0.07      0.23
     -2.52     -0.17      0.23
     -2.76     -0.17      0.23
     -2.52     -0.17     -0.01
     -2.52     -0.17     -0.01
     -2.52     -0.17     -0.01
     -2.52     -0.17     -0.01
     -2.76     -0.17     -0.01
     -2.76     -0.17     -0.01
     -2.76     -0.17     -0.01
     -3.00     -0.17     -0.01
     -2.76     -0.17     -0.01
     -2.52     -0.17     -0.01
     -2.52     -0.17     -0.25
     -2.76     -0.17     -0.25
     -2.76     -0.17     -0.25
     -2.76     -0.17     -0.25
     -2.76      0.07     -0.25
     -2.76      0.07     -0.25
     -3.00      0.07     -0.25
     -2.76      0.07     -0.25
     -2.76      0.07     -0.25
     -2.76      0.07     -0.49
     -2.76      0.07     -0.49
     -2.76      0.07     -0.49
     -2.76      0.07     -0.49
     -2.76      0.07     -0.49
     -2.76      0.07     -0.49
     -2.76      0.07     -0.49
     -2.76      0.07     -0.49
     -2.76      0.31     -0.49
     -2.76      0.07     -0.49
     -2.76      0.07     -0.49
     -2.76      0.07     -0.49
     -2.76      0.07     -0.49
     -2.76      0.07     -0.49
     -2.76      0.07     -0.49
     -2.76      0.31     -0.49
     -2.52      0.07     -0.49
     -2.52      0.07     -0.49
     -2.52      0.07     -0.49
     -2.52      0.07     -0.73
     -2.52      0.31     -0.73
     -2.28      0.07     -0.49
     -2.52      0.07     -0.73
     -2.28      0.07     -0.97
     -2.28      0.07     -0.97
     -2.28      0.07     -0.97
     -2.04      0.07     -0.97
     -1.80      0.07     -1.21
     -1.80      0.31     -1.21
     -1.80      0.31     -1.21
     -1.80      0.07     -1.21
     -1.56      0.07     -1.21
     -1.56      0.07     -1.21
     -1.56      0.07     -1.45
     -1.32      0.07     -1.45
     -1.32      0.07     -1.45
     -1.32      0.07     -1.69
     -1.32      0.07     -1.69
     -1.32      0.07     -1.69
     -1.09      0.07     -1.69
     -1.09      0.07     -1.69
     -0.85      0.07     -1.69
     -0.85      0.07     -1.69
     -0.85     -0.17     -1.69
     -0.85     -0.17     -1.69
     -0.85     -0.17     -1.69
     -0.85     -0.17     -1.69
     -0.85     -0.41     -1.92
     -0.85     -0.41     -1.69
     -0.85     -0.17     -1.69
     -0.85     -0.17     -1.69
     -0.85     -0.17     -1.69
     -0.61     -0.17     -1.92
     -0.85     -0.41     -1.69
     -0.61     -0.41     -1.69
     -0.61     -0.41     -1.69
     -0.61     -0.41     -1.69
     -0.61     -0.17     -1.92
     -0.61     -0.17     -1.69
     -0.37     -0.41     -1.69
     -0.61     -0.41     -1.45
     -0.61     -0.17     -1.45
     -0.37     -0.17     -1.69
     -0.61     -0.17     -1.45
     -0.37     -0.17     -1.45
     -0.37     -0.17     -1.45
     -0.37     -0.17     -1.45
     -0.37     -0.17     -1.45
     -0.37     -0.17     -1.45
     -0.37     -0.41     -1.21
     -0.13     -0.17     -1.21
     -0.37     -0.17     -1.21
     -0.13     -0.17     -1.21
     -0.13     -0.17     -1.21
     -0.13     -0.17     -1.21
      0.11     -0.17     -1.21
      0.11     -0.17     -0.97
      0.11     -0.17     -1.21
      0.11      0.07     -0.97
      0.35      0.07     -0.97
      0.59      0.07     -0.97
      0.59      0.07     -0.97
      0.59      0.07     -1.21
      0.83      0.07     -0.97
      1.07      0.07     -0.97
      1.07      0.31     -1.21
      1.07      0.31     -0.97
      1.31      0.54     -0.97
      1.31      0.31     -0.97
      1.55      0.54     -0.97
      1.79      0.54     -0.97
      1.79      0.31     -0.97
      2.03      0.31     -0.97
      2.03      0.31     -0.97
      2.27      0.31     -0.97
      2.27      0.78     -0.97
      2.27      0.54     -0.97
      2.51      0.54     -0.97
      2.51      0.31     -0.97
      2.75      0.54     -0.97
      2.75      0.54     -0.97
      2.75      0.07     -0.73
      2.75      0.54     -0.97
      2.75      0.54     -0.49
      2.99      0.54     -0.49
      2.99      0.54     -0.49
      3.22      0.07     -0.49
      3.22      0.31     -0.49
      3.22      0.07     -0.49
      3.22      0.07     -0.49
      2.99      0.31     -0.49
      2.99      0.31     -0.49
      2.99      0.31     -0.25
      2.99      0.31     -0.25
      3.22      0.07     -0.25
      2.99      0.07     -0.25
      2.99      0.07     -0.25
      2.99      0.07     -0.25
      2.99      0.07     -0.25
      2.75      0.07     -0.25
      2.75      0.31     -0.01
      2.75      0.07     -0.25
      2.75     -0.17     -0.25
      2.75     -0.17     -0.25
      2.51     -0.17     -0.25
      2.51     -0.17     -0.25
      2.51     -0.41     -0.25
      2.51      0.07     -0.25
      2.27      0.07     -0.25
      2.27      0.07     -0.25
      2.27      0.07     -0.25
      2.27      0.07     -0.25
      2.27      0.07     -0.25
      2.27      0.07     -0.25
      2.03     -0.17     -0.25
      2.03      0.07     -0.25
      2.03      0.07     -0.25
      2.03      0.07     -0.25
      2.03     -0.17     -0.25
      2.03     -0.17     -0.49
      2.03     -0.17     -0.49
      1.79     -0.17     -0.49
      1.79     -0.17     -0.49
      1.79     -0.17     -0.49
      1.79     -0.17     -0.49
      1.79     -0.41     -0.49
      1.79     -0.41     -0.49
      1.79     -0.41     -0.49
      1.55     -0.41     -0.49
      1.55     -0.41     -0.49
      1.55     -0.65     -0.49
      1.55     -0.41     -0.49
      1.31     -0.17     -0.73
      1.31     -0.17     -0.73
      1.55     -0.17     -0.73
      1.31     -0.17     -0.73
      1.31     -0.41     -0.97
      1.31     -0.17     -0.97
      1.07     -0.17     -0.97
      1.07     -0.17     -0.97
      1.07     -0.17     -0.97
      1.07     -0.41     -0.97
      0.83     -0.17     -0.97
      1.07     -0.17     -0.97
      0.83     -0.17     -0.97
      0.83     -0.17     -0.97
      0.83     -0.17     -0.97
      0.83     -0.17     -0.97
      0.83     -0.17     -0.73
      0.59      0.07     -0.97
      0.59     -0.17     -0.73
      0.59     -0.17     -0.73
      0.59     -0.17     -0.49
      0.35     -0.17     -0.49
      0.35     -0.17     -0.49
      0.35     -0.17     -0.49
     -0.13      0.07     -0.49
      0.35     -0.17     -0.49
      0.11      0.07     -0.25
      0.35      0.07     -0.25
      0.11      0.07     -0.25
      0.11      0.07     -0.49
      0.11      0.07     -0.01
      0.11      0.07     -0.01
     -0.13      0.07     -0.01
      0.11     -0.17      0.23
      0.11     -0.17      0.23
      0.11     -0.17      0.23
      0.11     -0.17      0.23
      0.35     -0.17      0.47
      0.35      0.07      0.47
      0.35      0.07      0.47
      0.35      0.07      0.47
      0.35      0.07      0.71
      0.35     -0.17      0.71
      0.35     -0.17      0.71
      0.35      0.07      0.71
      0.35      0.07      0.95
      0.35      0.07      0.95
      0.35      0.07      0.95
      0.35      0.07      0.95
      0.35      0.31      1.19
      0.35      0.31      1.19
      0.35      0.31      1.19
      0.35      0.54      1.19
      0.35      0.31      1.19
      0.35      0.31      1.19
      0.35      0.31      1.43
      0.35      0.31      1.43
      0.35      0.31      1.43
      0.11      0.31      1.43
      0.35      0.31      1.43
      0.35      0.07      1.67
      0.35      0.07      1.67
      0.11      0.07      1.67
      0.11      0.07      1.43
      0.11      0.07      1.43
      0.11      0.31      1.19
      0.11      0.54      1.67
      0.11      0.31      1.67
      0.11      0.07      1.67
      0.11      0.07      1.67
      0.11      0.31      1.67
     -0.13     -0.17      1.67
     -0.13      0.07      1.67
     -0.13      0.07      1.67
     -0.13      0.07      1.67
     -0.13      0.07      1.67
     -0.13      0.07      1.67
     -0.13      0.07      1.67
     -0.37      0.07      1.67
     -0.37     -0.17      1.67
     -0.37      0.07      1.67
     -0.37      0.07      1.67
     -0.61      0.07      1.67
     -0.61      0.31      1.67
     -0.61      0.07      1.67
     -0.85      0.07      1.67
     -0.85     -0.17      1.67
     -0.85      0.07      1.67
     -0.85      0.07      1.67
     -0.85      0.07      1.67
     -0.85      0.07      1.67
     -1.09     -0.17      1.67
     -1.09     -0.17      1.67
     -1.09     -0.17      1.67
     -1.32     -0.17      1.67
     -1.32     -0.17      1.67
     -1.32      0.07      1.91
     -1.32     -0.41      1.91
     -1.32     -0.17      1.91
     -1.32     -0.17      1.91
     -1.56     -0.41      1.91
     -1.56     -0.41      1.91
     -1.56     -0.17      1.91
     -1.56     -0.17      1.91
     -1.56     -0.17      1.67
