********************************************************************************
               CENTRO DE INSTRUMENTACION Y REGISTRO SISMICO  A.C.  
                       Coordinacion de Servicios Tecnicos
     Anaxagoras 814, Col. Narvarte, Benito Juarez, C.P. 03020 Mexico, D.F.
            Tels. 687 45 42/ 687 45  82             Fax. 669 25 12
********************************************************************************
ARCHIVO ESTANDAR DE ACELERACION:
VERSION DEL FORMATO                    : 2.0
NOMBRE DEL ARCHIVO                     : AR149906.211
FECHA Y HORA DE CREACION               : 10/FEBRERO/2000 11:55
REF. CATALOGO ACELEROGRAMAS, SMIS 1996 : REGISTRO No.     /PAG.


================================================================================
DATOS DE LA ESTACION:
NOMBRE DE LA ESTACION                  : ARAGON
CLAVE DE LA ESTACION                   : AR14
LOCALIZACION DE LA ESTACION            : Esc Prim Jose Ordaz Lopez Puebla 2 y
                                       : Baja California, Col Providencia
                                       : Gustavo A. Madero
                                       :
                                       :
COORDENADAS DE LA ESTACION             : 19.481 LAT. N 
                                       : 99.076 LONG. W 
ALTITUD (msnm)                         : 2232
TIPO DE SUELO                          : ARCILLOSO, ZONA LAGO
                                       : 
                                       : 
INSTITUCION RESPONSABLE                : CIRES
                                       :

================================================================================
DATOS DEL ACELEROGRAFO:
MODELO DEL ACELEROGRAFO                : RAD-851
NUMERO DE SERIE DEL ACELEROGRAFO       : 235
NUMERO DE CANALES                      : 3
ORIENTACION C1-C6 (rumbo;orientacion)  : /N00E/+V/N90W
ORIENTACION C7-C12 (rumbo;orientacion) :
VEL. DE MUESTREO, C1-C6 (muestras/s)   : /100/100/100
VEL. DE MUESTREO, C7-C12 (muestras/s)  :
ESC. COMPLETA DE SENSORES, C1-C6, (g)  : /0.5/0.5/0.5
ESC. COMPLETA DE SENSORES, C7-C12, (g) :
FREC. NAT. DE SENSORES, C1-C6, (Hz)    : /30/30/32
FREC. NAT. DE SENSORES, C7-C12, (Hz)   :
AMORTIGUAMIENTO DE SENSORES, C1-C6     : /0.733/0.790/0.750
AMORTIGUAMIENTO DE SENSORES, C7-C12    :
INTERVALO DE MUESTREO, C1-C6, (s)      : /0.01/0.01/0.01
INTERVALO DE MUESTREO, C7-C12, (s)     :
UMBRAL DE DISPARO, C1-C6, (Gal)        : /2.44/3.42/2.44
UMBRAL DE DISPARO, C7-C12, (Gal)       :
MEMORIA DE PREEVENTO (s)               : 16
TIEMPO DE POSEVENTO (s)                : 64


================================================================================
DATOS DEL SISMO:
FECHA DEL SISMO (GMT)                  : 21/JUN/99
HORA EPICENTRO (GMT)                   : 17:43:05.5
MAGNITUD(ES)                           : /Mc=6.0/Ms=5.8/Mc=5.8/Me=6.2
COORDENADAS DEL EPICENTRO              : 17.99 LAT. N
                                       : 101.72 LONG. W
PROFUNDIDAD FOCAL (km)                 : 54.0
FUENTE DE LOS DATOS EPICENTRALES       : SSN
                                       : INSTITUTO DE GEOFISICA, UNAM

================================================================================
DATOS DE ESTE REGISTRO:
HORA DE LA PRIMERA MUESTRA (GMT)       : 17:44:37.00
EXACTITUD DEL TIEMPO (s)               : 0.01
DURACION DEL REGISTRO (s), C1-C6       : /117.25/117.25/117.25
DURACION DEL REGISTRO (s), C7-C12      :
NUM. TOTAL DE MUESTRAS, C1-C6          : /11725/11725/11725
NUM. TOTAL DE MUESTRAS, C7-C12         :
ACEL. MAX. (Gal), C1-C6                : /5.21112/3.07573/5.84985
ACEL. MAX., C1-C6, EN LA MUESTRA       :
ACEL. MAX. (Gal), C7-C12               :
ACEL. MAX., C7-C12, EN LA MUESTRA      :
UNIDADES DE LOS DATOS                  : Gal (cm/s/s)
FACTOR DE DECIMACION                   : 1
FORMATO DATOS (FORTRAN,10 campos/dato) : 3F10.5


================================================================================
CALIDAD DEL ACELEROGRAMA:
REGISTRO DIGITAL COMPLETO CON TIEMPO ABSOLUTO CORRECTO.


================================================================================
COMENTARIOS:














================================================================================
DATOS DE ACELERACION:
---------+---------+---------+---------+---------+---------+---------+---------+
   CANAL-1   CANAL-2   CANAL-3   CANAL-4   CANAL-5   CANAL-6   CANAL-7   CANAL-8
      N00E        +V      N90W
---------+---------+---------+---------+---------+---------+---------+---------+
[...]
  -0.90158   0.68154   1.06147
  -0.90158   0.68154   0.82205
  -1.14100   0.92096   0.58263
  -1.14100   0.92096   0.34321
  -1.14100   1.16038   0.10379
  -0.90158   1.39980  -0.13563
  -0.90158   1.16038   0.10379
  -0.90158   0.68154   0.10379
  -0.90158   0.44212   0.10379
  -0.90158   0.20270  -0.13563
  -0.90158  -0.03671  -0.13563
  -1.14100  -0.27613  -0.13563
  -1.14100  -0.27613   0.10379
  -1.14100  -0.27613  -0.13563
  -1.14100  -0.27613  -0.13563
  -1.14100  -0.03671  -0.13563
  -1.14100   0.20270  -0.13563
  -0.90158   0.44212  -0.13563
  -0.90158   0.20270  -0.13563
  -0.90158  -0.03671  -0.13563
  -0.90158  -0.03671  -0.13563
  -0.90158  -0.03671  -0.13563
  -0.66216  -0.03671  -0.13563
  -0.66216   0.20270   0.10379
  -0.42275   0.20270   0.10379
  -0.18333   0.20270  -0.13563
   0.05609   0.20270   0.10379
   0.29551  -0.03671  -0.13563
   0.53493  -0.03671  -0.13563
   0.77435  -0.03671  -0.13563
   1.01377  -0.03671   0.10379
   1.25319  -0.03671   0.34321
   1.49261  -0.03671   0.58263
   1.49261  -0.27613   0.58263
   1.97144  -0.03671   0.58263
   1.97144   0.20270   0.58263
   1.97144   0.20270   0.58263
   2.21086   0.20270   0.82205
   2.45028   0.20270   0.82205
   2.45028   0.20270   0.58263
   2.68970   0.44212   0.82205
   2.45028   0.44212   0.82205
   2.68970   0.68154   0.82205
   2.68970   0.44212   0.82205
   2.68970   0.20270   0.82205
   2.68970   0.20270   0.58263
   2.45028   0.20270   0.34321
   2.68970   0.20270   0.34321
   2.68970   0.20270   0.34321
   2.92912  -0.03671   0.34321
   2.92912  -0.27613   0.10379
   3.16854  -0.03671   0.10379
   3.16854  -0.27613   0.10379
   3.16854  -0.27613   0.10379
   3.40796  -0.51555  -0.13563
   3.16854  -0.51555  -0.13563
   2.92912  -0.51555   0.10379
   2.92912  -0.51555  -0.13563
   2.92912  -0.27613  -0.37505
   2.92912  -0.27613  -0.37505
   2.92912  -0.03671  -0.37505
   2.68970  -0.03671  -0.37505
   2.68970  -0.03671  -0.37505
   2.21086  -0.03671  -0.37505
   1.97144   0.44212  -0.61446
   1.73203   0.44212  -0.37505
   1.73203   0.68154  -0.61446
   1.49261   0.68154  -0.61446
   1.25319   0.68154  -0.85388
   1.49261   1.16038  -0.85388
   1.25319   0.92096  -1.09330
   1.25319   0.68154  -1.33272
   1.01377   0.68154  -1.81156
   1.01377   0.44212  -1.57214
   0.53493   0.20270  -1.57214
   0.53493   0.44212  -1.57214
   0.29551   0.20270  -1.81156
   0.29551   0.20270  -1.81156
   0.29551  -0.27613  -2.05098
   0.29551  -0.27613  -2.05098
   0.29551  -0.51555  -2.29040
   0.29551  -0.51555  -2.29040
   0.53493  -0.51555  -2.29040
   0.77435  -0.51555  -2.05098
   0.77435  -0.27613  -2.05098
   1.25319  -0.51555  -1.81156
   1.25319  -0.75497  -1.57214
   1.49261  -0.75497  -1.57214
   1.49261  -0.51555  -1.57214
   1.73203  -0.27613  -1.33272
   1.73203  -0.27613  -1.09330
   1.97144  -0.27613  -0.85388
   1.97144  -0.51555  -0.61446
   2.21086  -0.51555  -0.13563
   2.45028  -0.27613  -0.13563
   2.45028  -0.03671   0.58263
   2.45028  -0.03671   0.82205
   2.45028   0.20270   1.30089
   2.45028   0.20270   1.30089
   2.45028  -0.03671   1.77973
   2.21086  -0.27613   1.77973
   2.45028   0.20270   1.77973
   2.45028   0.20270   2.25856
   2.45028  -0.03671   2.25856
   2.68970   0.20270   2.49798
   2.45028  -0.03671   2.25856
   2.21086  -0.03671   2.25856
   2.45028  -0.03671   2.49798
   2.21086  -0.27613   2.25856
   1.97144  -0.03671   2.25856
   1.97144  -0.27613   2.25856
   1.73203  -0.03671   2.01914
   1.49261  -0.27613   2.01914
   1.25319  -0.03671   2.01914
   1.01377  -0.27613   1.77973
   0.77435  -0.51555   2.01914
   0.53493  -0.51555   2.01914
   0.29551  -0.75497   2.01914
  -0.42275  -0.75497   2.01914
  -0.66216  -0.03671   1.77973
  -1.14100  -0.03671   1.77973
  -1.14100  -0.03671   1.77973
  -1.38042   0.20270   1.54031
  -1.61984   0.20270   1.30089
  -1.85926   0.20270   1.30089
  -2.09868  -0.03671   1.06147
  -2.33810  -0.27613   1.06147
  -2.57752  -0.27613   0.82205
  -2.57752  -0.27613   0.82205
  -2.81693  -0.03671   0.58263
  -2.81693  -0.03671   0.34321
  -2.81693  -0.03671   0.34321
  -3.05635  -0.03671   0.34321
  -3.05635  -0.03671   0.10379
  -3.05635  -0.27613   0.10379
  -3.05635  -0.03671   0.10379
  -2.81693  -0.03671   0.34321
  -2.81693  -0.27613   0.34321
  -2.57752  -0.03671   0.58263
  -2.57752  -0.27613   0.58263
  -2.57752  -0.27613   0.34321
  -2.33810  -0.27613   0.58263
  -2.09868  -0.27613   0.58263
  -1.85926  -0.27613   0.58263
  -1.38042  -0.03671   0.58263
  -0.90158  -0.27613   0.82205
  -0.90158  -0.51555   0.34321
  -0.42275  -0.27613   0.10379
  -0.18333  -0.03671   0.10379
  -0.18333   0.44212  -0.13563
   0.05609   0.44212  -0.13563
   0.53493   0.20270  -0.13563
   0.29551   0.20270  -0.37505
   0.77435   0.20270  -0.61446
   1.01377   0.20270  -0.85388
   1.25319  -0.27613  -0.85388
   1.49261  -0.27613  -0.85388
   1.49261  -0.27613  -1.09330
   1.49261  -0.03671  -1.09330
   1.49261  -0.03671  -1.09330
   1.49261   0.20270  -0.85388
   1.25319  -0.03671  -0.85388
   1.25319  -0.03671  -0.85388
   1.25319  -0.03671  -1.09330
   1.25319  -0.03671  -0.85388
   1.01377  -0.03671  -1.09330
   1.25319  -0.27613  -0.85388
   1.25319  -0.51555  -0.85388
   1.01377  -0.51555  -0.85388
   1.01377  -0.75497  -0.85388
   1.01377  -0.75497  -0.85388
   0.77435  -0.99439  -0.61446
   0.77435  -0.99439  -0.61446
   0.53493  -0.99439  -0.85388
   0.53493  -0.75497  -1.09330
   0.53493  -0.75497  -0.85388
   0.29551  -0.75497  -1.09330
   0.05609  -0.75497  -1.09330
  -0.18333  -0.99439  -1.57214
   0.05609  -0.75497  -1.33272
  -0.18333  -0.75497  -1.57214
  -0.18333  -0.75497  -1.57214
  -0.42275  -0.75497  -1.57214
  -0.42275  -0.75497  -1.57214
  -0.66216  -0.75497  -1.57214
  -0.42275  -0.75497  -1.57214
  -0.42275  -0.27613  -1.81156
  -0.42275  -0.51555  -1.81156
  -0.18333  -0.03671  -1.57214
  -0.18333  -0.03671  -1.57214
  -0.18333  -0.03671  -1.57214
  -0.18333  -0.03671  -1.33272
   0.05609   0.20270  -1.33272
   0.05609   0.68154  -1.33272
  -0.18333   0.68154  -1.09330
   0.05609   0.92096  -1.33272
   0.05609   1.39980  -1.33272
   0.05609   1.39980  -1.33272
   0.29551   1.39980  -1.57214
   0.29551   1.39980  -1.57214
   0.53493   1.63922  -1.33272
   0.29551   1.39980  -1.33272
   0.29551   1.39980  -1.09330
   0.53493   1.39980  -1.09330
   0.53493   1.39980  -0.85388
   0.53493   1.39980  -0.85388
   0.53493   1.63922  -0.85388
   0.77435   1.87864  -0.61446
   0.77435   1.87864  -0.37505
   1.01377   1.87864  -0.13563
   1.01377   1.87864   0.10379
   1.25319   1.63922   0.34321
   1.25319   1.39980   0.82205
   1.25319   1.16038   1.06147
   1.25319   1.16038   1.30089
   1.25319   1.16038   1.54031
   1.25319   0.92096   1.77973
   1.49261   1.16038   2.25856
   1.25319   0.92096   2.25856
   1.49261   0.68154   2.25856
   1.49261   0.20270   2.73740
   1.25319   0.20270   2.73740
   1.25319   0.20270   2.97682
   1.01377  -0.03671   2.97682
   1.01377  -0.03671   3.21624
   0.77435  -0.27613   2.97682
   0.53493  -0.51555   2.97682
   0.29551  -0.99439   2.73740
   0.29551  -0.99439   2.49798
   0.29551  -0.75497   2.49798
   0.29551  -0.99439   2.25856
   0.05609  -1.23381   2.01914
   0.05609  -1.47323   1.77973
  -0.42275  -1.23381   1.54031
  -0.66216  -1.23381   1.30089
  -0.66216  -0.99439   1.06147
  -0.66216  -0.99439   0.82205
  -0.90158  -0.75497   0.58263
  -1.14100  -0.99439   0.58263
  -1.14100  -1.23381   0.10379
  -1.38042  -0.99439  -0.13563
  -1.38042  -1.23381  -0.37505
  -1.38042  -1.23381  -0.61446
  -1.38042  -0.99439  -0.85388
  -1.38042  -0.99439  -1.09330
  -1.85926  -0.99439  -1.09330
  -2.09868  -0.99439  -1.33272
  -2.09868  -0.75497  -1.33272
  -2.09868  -0.27613  -1.57214
  -2.33810  -0.27613  -1.81156
  -2.57752  -0.51555  -2.05098
  -2.81693  -0.51555  -2.29040
  -2.81693  -0.27613  -2.29040
  -2.81693   0.20270  -2.52982
  -2.81693   0.44212  -2.76923
  -2.81693   0.44212  -2.52982
  -2.81693   0.44212  -2.76923
  -3.05635   0.44212  -2.76923
  -3.05635   0.44212  -2.76923
  -2.81693   0.68154  -2.76923
  -3.05635   0.68154  -2.76923
  -2.81693   0.92096  -2.76923
  -2.81693   0.68154  -2.76923
  -2.57752   0.68154  -2.52982
  -2.57752   0.44212  -2.52982
  -2.81693   0.68154  -2.29040
  -2.33810   0.68154  -2.05098
  -2.33810   0.68154  -2.05098
  -2.33810   0.44212  -1.81156
  -2.33810   0.44212  -1.57214
  -2.57752   0.68154  -1.57214
  -2.57752   0.68154  -1.33272
  -2.57752   0.68154  -1.33272
  -2.33810   0.44212  -1.09330
  -2.33810   0.44212  -1.09330
  -2.33810   0.44212  -0.85388
  -2.09868  -0.03671  -0.85388
  -2.33810  -0.27613  -0.61446
  -2.09868  -0.27613  -0.37505
  -2.09868  -0.51555  -0.37505
  -2.09868  -0.51555  -0.13563
  -2.33810  -0.75497  -0.13563
  -2.09868  -0.51555  -0.13563
  -2.09868  -0.51555   0.10379
  -2.33810  -0.75497   0.10379
  -2.33810  -0.75497   0.10379
  -2.33810  -0.75497   0.34321
  -2.33810  -0.75497   0.34321
  -2.57752  -0.75497   0.34321
  -3.05635  -0.99439   0.10379
  -3.05635  -0.99439   0.34321
  -3.05635  -0.75497   0.10379
  -3.05635  -0.75497  -0.13563
  -2.81693  -0.75497   0.10379
  -2.81693  -1.23381  -0.13563
  -2.57752  -1.47323  -0.13563
  -2.81693  -1.23381  -0.37505
  -2.81693  -0.99439  -0.61446
  -2.81693  -0.75497  -0.61446
  -2.57752  -0.75497  -0.85388
  -2.81693  -0.51555  -1.09330
  -2.57752  -0.75497  -1.57214
  -2.33810  -0.75497  -1.81156
  -2.33810  -0.75497  -2.05098
  -2.09868  -0.99439  -2.52982
  -1.85926  -0.75497  -2.76923
  -1.38042  -0.75497  -3.00865
  -1.38042  -0.75497  -3.48749
  -1.14100  -0.51555  -3.72691
  -0.90158  -0.51555  -3.72691
  -0.90158  -0.27613  -3.96633
  -0.42275  -0.03671  -4.20575
  -0.18333   0.20270  -4.20575
   0.05609   0.44212  -4.44517
   0.29551   0.68154  -4.44517
   0.53493   0.68154  -4.44517
   0.53493   0.92096  -4.20575
   0.53493   1.16038  -4.20575
   0.53493   1.39980  -3.96633
   0.53493   1.16038  -3.72691
   0.53493   1.16038  -3.48749
   0.29551   0.92096  -3.24807
   0.29551   1.16038  -2.76923
   0.29551   1.39980  -2.29040
   0.29551   1.39980  -1.81156
   0.29551   1.39980  -1.57214
   0.53493   1.39980  -1.09330
   0.53493   1.16038  -0.61446
   0.53493   0.92096  -0.13563
   0.53493   0.92096   0.34321
   0.53493   0.92096   0.82205
   0.77435   1.16038   1.30089
   0.77435   0.92096   1.77973
   0.77435   0.92096   2.25856
   1.01377   0.68154   2.49798
   1.49261   0.68154   2.97682
   1.49261   0.44212   3.45566
   1.73203   0.20270   3.69508
   1.97144  -0.03671   3.93450
   1.97144  -0.03671   4.17391
   1.97144  -0.27613   4.65275
   2.21086  -0.51555   4.89217
   1.97144  -0.51555   5.13159
   2.45028  -0.27613   5.37101
   2.45028  -0.27613   5.37101
   2.68970  -0.27613   5.61043
   2.68970  -0.51555   5.61043
   2.92912  -0.51555   5.61043
   2.92912  -0.51555   5.61043
   3.16854  -0.51555   5.84985
   3.16854  -0.51555   5.61043
   3.16854  -0.51555   5.84985
   3.16854  -0.51555   5.61043
   3.16854  -0.75497   5.61043
   3.40796  -0.75497   5.61043
   3.16854  -0.99439   5.37101
   3.16854  -0.75497   5.13159
   3.16854  -0.99439   4.89217
   3.16854  -0.99439   4.65275
   3.16854  -0.99439   4.41333
   2.92912  -1.23381   4.17391
   2.92912  -0.99439   3.93450
   2.45028  -0.75497   3.69508
   2.68970  -0.51555   3.45566
   2.21086  -0.75497   2.97682
   1.97144  -0.75497   2.73740
   1.73203  -0.75497   2.73740
   1.97144  -0.75497   2.73740
   1.73203  -0.75497   2.49798
   1.97144  -0.51555   2.49798
   1.73203  -0.51555   2.25856
   1.73203  -0.51555   2.25856
   1.49261  -0.27613   2.01914
   1.49261  -0.27613   2.25856
   1.25319  -0.27613   2.01914
   1.01377  -0.27613   2.01914
   0.77435   0.20270   1.77973
   0.77435   0.44212   1.77973
   0.77435   0.44212   1.77973
   0.77435   0.44212   1.54031
   0.53493   0.44212   1.54031
   0.53493   0.44212   1.30089
   0.29551   0.44212   1.06147
   0.29551   0.68154   1.06147
   0.05609   0.92096   1.06147
  -0.18333   1.16038   0.82205
  -0.18333   1.16038   0.58263
  -0.18333   1.16038   0.58263
  -0.42275   1.16038   0.10379
  -0.42275   1.16038  -0.13563
  -0.42275   0.68154  -0.13563
  -0.42275   0.68154  -0.13563
  -0.42275   0.68154  -0.13563
  -0.42275   0.68154  -0.37505
  -0.42275   0.44212  -0.37505
  -0.42275   0.44212  -0.61446
  -0.42275   0.20270  -0.61446
  -0.42275   0.20270  -0.61446
  -0.18333   0.20270  -0.61446
  -0.18333   0.20270  -0.85388
   0.05609  -0.03671  -0.85388
   0.05609   0.20270  -0.61446
   0.29551  -0.03671  -0.85388
   0.05609  -0.03671  -0.85388
   0.05609  -0.27613  -0.85388
  -0.18333  -0.03671  -0.85388
  -0.18333  -0.03671  -0.85388
  -0.18333  -0.27613  -0.85388
  -0.42275  -0.27613  -1.09330
  -0.42275  -0.03671  -0.85388
  -0.18333  -0.03671  -0.85388
  -0.42275  -0.51555  -1.09330
  -0.42275  -0.51555  -0.85388
  -0.42275  -0.51555  -1.09330
  -0.42275  -0.51555  -0.85388
  -0.42275  -0.51555  -0.85388
  -0.42275  -0.51555  -0.85388
  -0.66216  -0.75497  -0.85388
  -0.42275  -0.51555  -0.85388
  -0.18333  -0.27613  -0.61446
  -0.18333  -0.27613  -0.37505
   0.05609  -0.03671  -0.37505
   0.05609  -0.03671  -0.37505
   0.29551   0.20270  -0.13563
   0.53493   0.44212  -0.13563
   0.77435   0.44212   0.10379
   0.77435   0.68154   0.10379
   1.01377   0.92096   0.34321
   0.77435   0.92096   0.34321
   1.01377   0.92096   0.34321
   1.01377   0.92096   0.34321
   1.01377   1.16038   0.34321
   1.25319   1.16038   0.34321
   1.25319   1.16038   0.34321
   1.25319   1.16038   0.58263
   1.25319   1.16038   0.58263
   1.25319   0.92096   0.58263
   1.25319   0.68154   0.82205
   1.25319   0.68154   0.82205
   1.01377   0.68154   0.82205
   0.77435   0.44212   0.82205
   0.77435   0.44212   1.06147
   1.01377   0.44212   1.06147
   0.77435   0.44212   1.06147
   0.77435   0.68154   1.06147
   1.01377   0.44212   1.06147
   0.53493   0.44212   1.30089
   0.29551   0.20270   1.30089
   0.05609   0.20270   1.54031
  -0.18333  -0.03671   1.30089
  -0.42275  -0.03671   1.30089
  -0.42275  -0.27613   1.06147
  -0.42275  -0.27613   1.06147
  -0.18333  -0.27613   1.30089
  -0.42275  -0.51555   1.30089
  -0.42275  -0.27613   1.54031
  -0.42275  -0.27613   1.54031
  -0.42275  -0.27613   1.54031
  -0.66216  -0.51555   1.54031
  -0.90158  -0.51555   1.54031
  -0.66216  -0.75497   1.30089
  -0.66216  -0.75497   1.30089
  -0.66216  -0.99439   1.06147
  -0.18333  -0.99439   0.82205
   0.05609  -0.99439   0.58263
   0.05609  -1.23381   0.34321
   0.53493  -1.23381   0.34321
   0.53493  -1.47323   0.34321
   1.01377  -1.23381   0.10379
   1.01377  -1.23381   0.10379
   1.25319  -1.47323  -0.13563
   1.25319  -1.23381  -0.13563
   1.49261  -1.23381  -0.37505
   1.73203  -1.23381  -0.61446
   1.73203  -1.47323  -0.85388
   1.97144  -1.47323  -0.85388
   1.97144  -0.99439  -0.61446
   2.21086  -1.23381  -0.85388
   2.21086  -0.99439  -1.09330
   1.97144  -0.99439  -1.33272
   1.73203  -0.99439  -1.33272
   1.49261  -0.99439  -1.33272
   1.49261  -0.75497  -1.33272
   1.49261  -0.75497  -1.57214
   1.25319  -0.51555  -1.57214
   1.25319  -0.27613  -1.57214
   1.25319  -0.27613  -1.57214
   1.01377  -0.03671  -1.81156
   1.01377   0.20270  -1.81156
   0.77435   0.20270  -1.57214
   0.77435   0.20270  -1.57214
   0.53493   0.44212  -1.57214
   0.29551   0.20270  -1.81156
   0.29551   0.44212  -1.81156
   0.05609   0.68154  -1.81156
   0.29551   0.92096  -1.81156
   0.05609   1.16038  -1.81156
   0.05609   1.16038  -1.81156
   0.29551   1.16038  -1.81156
