********************************************************************************
               CENTRO DE INSTRUMENTACION Y REGISTRO SISMICO  A.C.  
                       Coordinacion de Servicios Tecnicos
     Anaxagoras 814, Col. Narvarte, Benito Juarez, C.P. 03020 Mexico, D.F.
            Tels. 687 45 42/ 687 45  82             Fax. 669 25 12
********************************************************************************
ARCHIVO ESTANDAR DE ACELERACION:
VERSION DEL FORMATO                    : 2.0
NOMBRE DEL ARCHIVO                     : AR149707.192
FECHA Y HORA DE CREACION               : 19/MAR/98, 10:06
REF. CATALOGO ACELEROGRAMAS, SMIS 1996 : REGISTRO No.     /PAG.


================================================================================
DATOS DE LA ESTACION:
NOMBRE DE LA ESTACION                  : ARAGON
CLAVE DE LA ESTACION                   : AR14
LOCALIZACION DE LA ESTACION            : Esc Prim Jose Ordaz Lopez Puebla 2 y
                                       : Baja California, Col Providencia
                                       : Gustavo A. Madero
                                       :
                                       :
COORDENADAS DE LA ESTACION             : 19.481 LAT. N 
                                       : 99.076 LONG. W 
ALTITUD (msnm)                         : 2232
TIPO DE SUELO                          : ARCILLOSO, ZONA LAGO
                                       : 
                                       : 
INSTITUCION RESPONSABLE                : CIRES
                                       :

================================================================================
DATOS DEL ACELEROGRAFO:
MODELO DEL ACELEROGRAFO                : RAD-851
NUMERO DE SERIE DEL ACELEROGRAFO       : 235
NUMERO DE CANALES                      : 3
ORIENTACION C1-C6 (rumbo;orientacion)  : /N00E/+V/N90W
ORIENTACION C7-C12 (rumbo;orientacion) :
VEL. DE MUESTREO, C1-C6 (muestras/s)   : /100/100/100
VEL. DE MUESTREO, C7-C12 (muestras/s)  :
ESC. COMPLETA DE SENSORES, C1-C6, (g)  : /0.5/0.5/0.5
ESC. COMPLETA DE SENSORES, C7-C12, (g) :
FREC. NAT. DE SENSORES, C1-C6, (Hz)    : /30/30/32
FREC. NAT. DE SENSORES, C7-C12, (Hz)   :
AMORTIGUAMIENTO DE SENSORES, C1-C6     : /0.733/0.790/0.750
AMORTIGUAMIENTO DE SENSORES, C7-C12    :
INTERVALO DE MUESTREO, C1-C6, (s)      : /0.01/0.01/0.01
INTERVALO DE MUESTREO, C7-C12, (s)     :
UMBRAL DE DISPARO, C1-C6, (Gal)        : /1.95/3.42/1.95
UMBRAL DE DISPARO, C7-C12, (Gal)       :
MEMORIA DE PREEVENTO (s)               : 16
TIEMPO DE POSEVENTO (s)                : 64


================================================================================
DATOS DEL SISMO:
FECHA DEL SISMO (GMT)                  : 19/JUL/97
HORA EPICENTRO (GMT)                   : 14:22:04:1
MAGNITUD(ES)                           : /Ms=6.3
COORDENADAS DEL EPICENTRO              : 15.8 LAT. N
                                       : 98.3 LONG. W
PROFUNDIDAD FOCAL (km)                 : 5.0
FUENTE DE LOS DATOS EPICENTRALES       : SSN
                                       : INSTITUTO DE GEOFISICA, UNAM

================================================================================
DATOS DE ESTE REGISTRO:
HORA DE LA PRIMERA MUESTRA (GMT)       : 14:22:00.00
EXACTITUD DEL TIEMPO (s)               :     
DURACION DEL REGISTRO (s), C1-C6       : /162.75/162.75/162.75
DURACION DEL REGISTRO (s), C7-C12      :
NUM. TOTAL DE MUESTRAS, C1-C6          : /16275/16275/16275
NUM. TOTAL DE MUESTRAS, C7-C12         :
ACEL. MAX. (Gal), C1-C6                : /4.14438/2.80349/5.02428
ACEL. MAX., C1-C6, EN LA MUESTRA       :
ACEL. MAX. (Gal), C7-C12               :
ACEL. MAX., C7-C12, EN LA MUESTRA      :
UNIDADES DE LOS DATOS                  : Gal (cm/s/s)
FACTOR DE DECIMACION                   : 1
FORMATO DATOS (FORTRAN,10 campos/dato) : 3F10.5


================================================================================
CALIDAD DEL ACELEROGRAMA:
REGISTRO DIGITAL COMPLETO, CARECE DE TIEMPO ABSOLUTO.


================================================================================
COMENTARIOS:














================================================================================
DATOS DE ACELERACION:
---------+---------+---------+---------+---------+---------+---------+---------+
   CANAL-1   CANAL-2   CANAL-3   CANAL-4   CANAL-5   CANAL-6   CANAL-7   CANAL-8
      N00E        +V      N90W
---------+---------+---------+---------+---------+---------+---------+---------+
[...]
  -1.75019   0.64872  -1.67945
  -1.75019   0.40930  -1.44003
  -1.51077   0.64872  -1.67945
  -1.51077   0.88814  -1.67945
  -1.27136   0.88814  -1.67945
  -1.51077   0.64872  -1.67945
  -1.03194   0.88814  -1.67945
  -0.79252   0.64872  -1.91887
  -0.79252   0.64872  -2.15829
  -0.31368   0.64872  -1.91887
  -0.31368   0.64872  -1.91887
  -0.07426   0.88814  -1.91887
   0.16516   0.88814  -1.91887
   0.40458   0.64872  -1.91887
   0.40458   0.40930  -1.44003
   0.64400   0.16988  -1.67945
   0.88342   0.40930  -1.67945
   1.12283   0.40930  -1.67945
   1.36225   0.64872  -1.67945
   1.36225   0.64872  -1.44003
   1.36225   0.40930  -1.44003
   1.36225   0.40930  -1.44003
   1.36225   0.40930  -1.44003
   1.60167   0.40930  -1.44003
   1.60167   0.40930  -1.67945
   1.60167   0.40930  -1.67945
   1.84109   0.40930  -1.67945
   1.36225   0.64872  -1.44003
   1.60167   0.40930  -1.20061
   1.36225   0.40930  -1.20061
   1.36225   0.40930  -0.96119
   1.36225   0.16988  -0.72177
   1.60167   0.16988  -0.72177
   1.36225   0.40930  -0.72177
   1.36225   0.40930  -0.48235
   1.12283   0.64872  -0.24293
   0.88342   0.64872  -0.00352
   0.64400   0.16988   0.23590
   0.40458   0.40930   0.47532
   0.40458   0.40930   0.71474
   0.16516   0.40930   0.71474
  -0.07426   0.40930   0.95416
  -0.55310   0.16988   0.95416
  -0.79252   0.64872   1.43300
  -1.03194   0.40930   1.67242
  -1.27136   0.16988   1.91184
  -1.51077  -0.06954   1.91184
  -1.75019  -0.06954   2.15125
  -1.98961  -0.06954   2.39067
  -1.98961   0.16988   2.15125
  -2.22903   0.16988   2.39067
  -2.70787   0.16988   2.63009
  -2.70787   0.16988   2.86951
  -2.70787   0.16988   3.10893
  -2.70787   0.16988   3.34835
  -2.94729  -0.06954   3.10893
  -2.46845  -0.06954   3.34835
  -2.70787  -0.06954   3.10893
  -2.70787  -0.06954   3.34835
  -2.94729  -0.06954   3.58777
  -2.94729  -0.06954   3.82719
  -2.70787  -0.30896   3.58777
  -2.94729  -0.54838   3.58777
  -2.70787  -0.78779   3.34835
  -2.46845  -0.54838   3.10893
  -2.22903  -0.30896   3.10893
  -2.46845  -0.30896   3.10893
  -2.22903  -0.30896   3.10893
  -2.22903  -0.30896   3.10893
  -1.75019  -0.06954   3.10893
  -1.75019  -0.54838   2.39067
  -1.27136  -0.78779   2.63009
  -1.03194  -0.54838   2.39067
  -1.03194  -0.78779   2.39067
  -0.79252  -0.78779   2.15125
  -0.79252  -0.78779   2.15125
  -0.31368  -0.78779   2.15125
   0.16516  -1.02721   2.15125
   0.40458  -1.02721   2.15125
   0.88342  -1.26663   1.91184
   0.88342  -1.02721   1.67242
   1.12283  -1.02721   1.43300
   1.36225  -1.02721   1.43300
   1.36225  -1.02721   1.43300
   1.60167  -1.02721   1.67242
   1.84109  -1.02721   1.43300
   2.08051  -1.26663   1.67242
   2.31993  -1.50605   1.43300
   2.31993  -1.02721   1.19358
   2.31993  -1.02721   1.43300
   2.31993  -1.26663   1.43300
   2.55935  -1.26663   1.43300
   2.31993  -1.26663   1.67242
   2.55935  -1.26663   1.43300
   2.55935  -1.26663   1.43300
   2.79877  -1.02721   1.43300
   2.55935  -0.78779   1.19358
   2.31993  -0.78779   1.19358
   2.08051  -0.78779   1.19358
   2.08051  -0.54838   1.43300
   2.08051  -0.54838   1.43300
   2.08051  -0.54838   1.19358
   1.84109  -0.30896   1.19358
   1.84109  -0.30896   0.95416
   1.36225  -0.06954   0.95416
   1.36225   0.16988   0.95416
   1.12283   0.16988   0.95416
   0.88342   0.16988   0.95416
   0.88342   0.16988   1.19358
   0.88342   0.16988   0.71474
   1.12283   0.40930   0.71474
   0.88342   0.40930   0.47532
   0.88342   0.64872   0.47532
   0.88342   0.64872   0.71474
   0.64400   0.64872   0.71474
   0.64400   0.40930   0.47532
   0.88342   0.64872   0.47532
   0.88342   0.64872   0.23590
   0.88342   0.64872  -0.24293
   0.88342   1.12756  -0.24293
   0.88342   1.36698  -0.48235
   0.64400   1.12756  -0.48235
   0.88342   1.12756  -0.48235
   0.88342   1.12756  -0.48235
   0.88342   0.88814  -0.72177
   1.12283   1.12756  -0.96119
   0.88342   0.88814  -1.20061
   0.88342   0.88814  -0.96119
   0.64400   1.12756  -1.20061
   0.40458   0.88814  -1.20061
   0.64400   0.64872  -1.44003
   0.40458   0.64872  -1.20061
   0.64400   0.40930  -1.67945
   0.64400   0.16988  -1.67945
   0.64400   0.64872  -1.91887
   0.16516   0.64872  -2.15829
   0.16516   0.64872  -1.91887
  -0.07426   0.40930  -1.91887
   0.40458   0.40930  -1.91887
   0.16516   0.16988  -2.39771
   0.40458  -0.06954  -2.63712
   0.40458  -0.06954  -2.63712
   0.64400  -0.06954  -2.87654
   0.40458  -0.06954  -2.87654
   0.40458  -0.06954  -2.87654
   0.40458  -0.06954  -2.87654
   0.16516  -0.06954  -2.63712
   0.16516  -0.30896  -3.11596
   0.40458  -0.30896  -3.11596
   0.16516  -0.54838  -3.35538
   0.16516  -0.30896  -3.35538
  -0.07426  -0.30896  -3.11596
  -0.55310  -0.30896  -3.35538
  -0.31368  -0.30896  -3.11596
  -0.55310  -0.78779  -2.87654
  -0.31368  -0.78779  -3.11596
  -0.55310  -0.78779  -2.87654
  -0.55310  -1.02721  -2.87654
  -0.31368  -0.78779  -2.87654
  -0.79252  -0.78779  -2.87654
  -0.79252  -0.78779  -2.39771
  -0.79252  -0.78779  -2.15829
  -1.03194  -1.02721  -1.91887
  -0.79252  -1.02721  -1.91887
  -0.79252  -1.02721  -2.15829
  -0.79252  -0.78779  -2.15829
  -0.79252  -0.54838  -2.15829
  -0.79252  -0.30896  -1.91887
  -0.79252  -0.30896  -1.67945
  -0.79252  -0.54838  -1.67945
  -0.55310  -0.30896  -1.44003
  -0.55310  -0.54838  -1.67945
  -0.31368  -0.30896  -1.67945
  -0.07426  -0.06954  -1.67945
  -0.07426   0.16988  -1.44003
  -0.31368   0.16988  -1.44003
  -0.07426   0.16988  -1.20061
   0.16516   0.16988  -1.20061
   0.16516   0.40930  -0.96119
   0.40458   0.40930  -0.96119
   0.40458   0.64872  -1.20061
   0.40458   0.88814  -1.20061
   0.16516   1.12756  -0.96119
   0.40458   1.36698  -0.72177
   0.40458   1.60639  -0.48235
   0.40458   1.60639  -0.48235
   0.64400   1.84581  -0.48235
   0.88342   1.84581  -0.48235
   1.12283   1.84581  -0.48235
   1.12283   2.08523  -0.48235
   1.12283   2.32465  -0.48235
   1.36225   2.56407  -0.48235
   1.36225   2.80349  -0.24293
   1.36225   2.32465  -0.24293
   1.60167   2.32465  -0.48235
   1.84109   2.08523  -0.72177
   1.84109   2.32465  -0.96119
   2.08051   2.32465  -1.20061
   1.84109   2.32465  -0.96119
   2.08051   2.56407  -0.72177
   1.84109   2.08523  -0.72177
   1.84109   1.84581  -0.72177
   2.08051   1.84581  -0.72177
   2.08051   1.60639  -0.72177
   2.31993   1.60639  -0.72177
   2.08051   1.60639  -0.48235
   1.84109   1.36698  -0.48235
   1.60167   1.12756  -0.24293
   1.60167   0.88814  -0.24293
   1.36225   0.64872  -0.24293
   1.12283   0.40930  -0.24293
   1.12283   0.16988  -0.24293
   0.88342   0.16988  -0.24293
   0.40458   0.40930  -0.24293
   0.16516   0.16988  -0.00352
  -0.31368  -0.30896   0.23590
  -0.31368  -0.30896   0.23590
  -0.55310  -0.54838   0.47532
  -0.79252  -0.78779   0.23590
  -0.79252  -0.78779   0.23590
  -1.03194  -0.78779   0.47532
  -1.27136  -0.78779   0.71474
  -1.75019  -0.78779   1.19358
  -1.75019  -1.02721   1.43300
  -1.98961  -1.50605   1.43300
  -1.98961  -1.50605   1.67242
  -2.22903  -1.74547   1.67242
  -2.22903  -1.74547   1.67242
  -2.46845  -1.50605   1.67242
  -2.70787  -1.50605   1.91184
  -2.94729  -1.50605   2.15125
  -3.18671  -1.74547   2.15125
  -3.18671  -1.74547   2.15125
  -3.18671  -1.50605   2.15125
  -3.18671  -1.50605   2.15125
  -3.42613  -1.50605   2.15125
  -3.18671  -1.26663   1.91184
  -3.18671  -1.26663   1.91184
  -3.42613  -1.50605   2.15125
  -2.94729  -1.26663   2.15125
  -2.70787  -1.50605   1.91184
  -2.46845  -1.26663   1.91184
  -2.22903  -1.26663   1.67242
  -2.22903  -1.02721   1.67242
  -2.22903  -1.02721   1.43300
  -1.98961  -1.02721   1.43300
  -1.75019  -1.02721   1.19358
  -1.51077  -1.02721   1.19358
  -1.03194  -1.02721   1.19358
  -0.55310  -1.02721   0.95416
  -0.31368  -0.78779   0.95416
   0.16516  -0.54838   0.71474
  -0.07426  -0.54838   0.95416
   0.16516  -0.54838   0.71474
   0.40458  -0.54838   0.71474
   0.64400  -0.78779   0.71474
   1.12283  -0.78779   0.71474
   1.12283  -0.78779   0.23590
   1.36225  -0.78779   0.23590
   1.36225  -0.78779  -0.00352
   1.60167  -0.54838  -0.00352
   1.60167  -0.54838  -0.00352
   1.60167  -0.54838  -0.24293
   1.84109  -0.78779  -0.48235
   2.31993  -0.78779  -0.48235
   2.31993  -0.78779  -0.72177
   2.55935  -0.54838  -0.72177
   2.79877  -0.54838  -0.96119
   2.79877  -0.54838  -0.96119
   2.79877  -0.30896  -0.96119
   2.79877  -0.30896  -0.96119
   2.79877  -0.30896  -0.72177
   3.03819  -0.54838  -1.20061
   2.79877  -0.54838  -1.20061
   3.03819  -0.30896  -1.44003
   2.79877  -0.30896  -1.44003
   2.79877  -0.06954  -1.44003
   2.55935   0.40930  -1.44003
   2.08051   0.16988  -1.67945
   1.84109   0.16988  -1.67945
   1.84109   0.16988  -1.67945
   1.60167   0.16988  -1.91887
   1.60167   0.16988  -2.15829
   1.12283   0.40930  -2.15829
   0.88342   0.40930  -2.15829
   0.40458   0.88814  -2.39771
   0.16516   0.40930  -2.39771
   0.16516   0.40930  -2.63712
  -0.31368   0.40930  -2.63712
  -0.31368   0.40930  -2.63712
  -0.55310   0.16988  -2.87654
  -0.79252   0.40930  -2.87654
  -1.03194   0.64872  -3.11596
  -1.03194   0.64872  -2.87654
  -1.27136   0.64872  -2.87654
  -1.03194   0.40930  -3.11596
  -1.03194   0.40930  -3.11596
  -1.03194   0.40930  -3.11596
  -1.03194   0.64872  -3.35538
  -1.03194   0.64872  -3.11596
  -1.27136   0.64872  -2.87654
  -1.51077   0.64872  -2.63712
  -1.27136   0.64872  -2.63712
  -1.03194   0.40930  -2.63712
  -1.03194   0.40930  -2.63712
  -1.03194   0.64872  -2.63712
  -1.03194   0.88814  -2.87654
  -1.27136   0.88814  -2.63712
  -1.03194   0.88814  -2.15829
  -1.03194   0.88814  -2.15829
  -1.03194   0.64872  -2.15829
  -0.79252   0.40930  -1.91887
  -0.79252   0.64872  -2.15829
  -0.79252   0.40930  -1.91887
  -0.55310   0.64872  -1.44003
  -0.55310   0.64872  -1.44003
  -0.79252   0.64872  -1.20061
  -0.55310   0.40930  -0.96119
  -0.31368   0.40930  -0.72177
  -0.31368   0.16988  -0.48235
  -0.07426   0.16988  -0.48235
  -0.07426   0.16988  -0.00352
  -0.07426   0.16988   0.23590
  -0.31368  -0.06954   0.71474
  -0.07426  -0.06954   0.71474
  -0.07426  -0.30896   1.19358
  -0.07426  -0.30896   1.43300
   0.16516  -0.30896   1.43300
   0.16516  -0.78779   1.43300
  -0.07426  -0.78779   1.67242
  -0.07426  -0.54838   1.91184
  -0.07426  -0.78779   2.15125
  -0.07426  -0.78779   2.39067
  -0.31368  -1.02721   2.86951
  -0.31368  -1.26663   2.86951
  -0.31368  -1.02721   2.63009
  -0.55310  -1.02721   2.86951
  -0.55310  -0.78779   2.86951
  -1.03194  -0.78779   3.10893
  -1.27136  -0.78779   3.34835
  -1.51077  -0.78779   3.58777
  -1.51077  -0.78779   4.06661
  -1.75019  -0.78779   3.82719
  -1.75019  -0.54838   4.06661
  -1.98961  -0.30896   4.06661
  -2.22903  -0.06954   4.06661
  -2.46845  -0.30896   4.30603
  -2.46845  -0.06954   4.54544
  -2.46845  -0.30896   4.54544
  -2.46845  -0.30896   5.02428
  -2.70787  -0.78779   4.54544
  -2.70787  -0.30896   4.54544
  -2.70787  -0.30896   4.54544
  -2.94729  -0.06954   4.54544
  -2.94729   0.16988   4.54544
  -3.18671   0.16988   4.54544
  -2.94729   0.16988   4.54544
  -2.94729   0.16988   4.30603
  -2.94729  -0.06954   4.06661
  -2.94729   0.16988   3.82719
  -2.94729   0.40930   3.58777
  -3.18671   0.40930   3.58777
  -3.18671   0.40930   3.34835
  -3.18671   0.64872   3.10893
  -2.94729   0.40930   3.10893
  -2.70787   0.64872   2.63009
  -2.70787   0.64872   2.39067
  -2.46845   0.88814   2.15125
  -2.70787   0.88814   2.15125
  -2.46845   0.88814   2.15125
  -2.70787   0.64872   1.91184
  -2.22903   0.88814   1.67242
  -2.22903   0.88814   1.67242
  -2.22903   0.64872   1.43300
  -1.98961   0.64872   0.95416
  -1.98961   0.88814   0.71474
  -1.75019   0.88814   0.47532
  -1.51077   1.12756   0.47532
  -1.75019   0.88814   0.47532
  -1.51077   0.88814   0.47532
  -1.27136   0.64872   0.47532
  -1.03194   0.40930  -0.00352
  -1.03194   0.40930  -0.24293
  -0.79252   0.64872  -0.24293
  -0.79252   0.40930  -0.48235
  -0.79252   0.64872  -0.48235
  -0.55310   0.40930  -0.48235
  -0.55310   0.16988  -0.72177
  -0.31368   0.40930  -0.72177
  -0.07426  -0.06954  -0.96119
  -0.07426   0.16988  -0.96119
  -0.07426   0.16988  -0.96119
  -0.07426  -0.06954  -0.96119
  -0.07426  -0.06954  -0.96119
  -0.07426  -0.06954  -0.72177
   0.16516  -0.30896  -0.72177
   0.40458  -0.54838  -0.96119
   0.64400  -0.78779  -1.20061
   0.64400  -0.54838  -1.20061
   0.64400  -0.78779  -0.96119
   0.64400  -0.78779  -0.96119
   0.64400  -0.78779  -0.72177
   0.64400  -1.02721  -0.72177
   0.88342  -1.02721  -0.96119
   0.88342  -1.26663  -0.96119
   0.64400  -1.26663  -0.96119
   0.88342  -1.02721  -0.96119
   0.64400  -1.26663  -0.96119
   0.40458  -1.02721  -0.96119
   0.40458  -1.02721  -0.72177
   0.40458  -1.26663  -0.72177
   0.40458  -1.26663  -0.48235
   0.64400  -1.26663  -0.72177
   0.40458  -1.26663  -0.72177
   0.40458  -1.74547  -0.48235
   0.16516  -1.02721  -0.72177
  -0.07426  -1.02721  -0.48235
  -0.31368  -1.02721  -0.48235
  -0.07426  -1.02721  -0.24293
   0.16516  -1.02721  -0.24293
   0.40458  -0.78779  -0.48235
   0.16516  -0.54838  -0.48235
   0.16516  -0.54838  -0.48235
   0.16516  -0.30896  -0.48235
   0.16516  -0.30896  -0.24293
   0.16516  -0.30896  -0.24293
   0.40458  -0.30896  -0.00352
   0.64400  -0.30896  -0.24293
   0.64400  -0.30896  -0.24293
   0.88342  -0.06954  -0.48235
   1.12283   0.16988  -0.24293
   0.88342   0.40930  -0.00352
   1.12283   0.40930  -0.00352
   1.12283   0.64872   0.23590
   1.12283   0.40930   0.23590
   1.60167   0.64872   0.23590
   1.60167   0.64872  -0.00352
   1.84109   0.88814  -0.00352
   1.84109   0.88814   0.23590
   1.60167   0.88814   0.47532
   1.60167   1.12756   0.47532
   1.60167   0.88814   0.71474
   1.84109   0.64872   0.71474
   2.08051   0.40930   0.71474
   1.84109   0.40930   0.71474
   1.60167   0.40930   0.95416
   1.60167   0.64872   0.47532
   1.36225   0.88814   0.71474
   1.36225   0.64872   0.71474
   1.36225   0.64872   0.95416
   1.60167   0.64872   1.19358
   1.60167   0.64872   0.95416
   1.60167   0.64872   0.71474
   1.36225   0.64872   0.47532
   1.36225   0.88814   0.47532
   1.36225   0.88814   0.71474
   1.36225   0.88814   0.95416
   1.36225   0.64872   0.95416
   1.36225   0.16988   0.95416
   1.36225   0.16988   0.71474
   1.60167   0.40930   0.47532
   1.36225   0.16988   0.47532
   1.36225   0.64872   0.47532
   1.12283   0.40930   0.71474
   0.88342   0.64872   0.71474
   1.12283   0.40930   0.71474
   0.64400   0.40930   0.47532
   0.88342   0.16988   0.47532
   0.64400   0.16988   0.47532
   0.64400   0.16988   0.23590
   0.40458   0.40930   0.47532
   0.16516   0.16988   0.47532
  -0.07426   0.16988   0.47532
   0.16516  -0.06954   0.71474
  -0.07426  -0.30896   0.47532
  -0.07426  -0.06954   0.47532
  -0.07426  -0.30896   0.23590
  -0.07426  -0.30896  -0.00352
  -0.07426  -0.06954  -0.00352
  -0.31368   0.16988   0.23590
  -0.31368  -0.06954   0.23590
  -0.31368  -0.30896   0.23590
  -0.07426  -0.30896  -0.00352
  -0.07426  -0.30896  -0.24293
   0.16516  -0.06954  -0.24293
   0.16516   0.16988  -0.48235
  -0.07426   0.16988  -0.48235
  -0.07426   0.16988  -0.48235
  -0.07426   0.16988  -0.48235
  -0.07426  -0.06954  -0.48235
  -0.07426  -0.30896  -0.72177
   0.16516  -0.06954  -0.96119
  -0.07426  -0.06954  -0.96119
  -0.07426  -0.06954  -1.20061
  -0.07426   0.16988  -1.20061
  -0.31368   0.16988  -1.20061
  -0.31368  -0.06954  -1.20061
   0.16516  -0.06954  -1.44003
   0.40458  -0.06954  -1.67945
   0.64400  -0.06954  -1.91887
