********************************************************************************
              CENTRO DE INSTRUMENTACION Y REGISTRO SISMICO  A.C.

    Anaxagoras 814, Col. Narvarte, Benito Juarez, C.P. 03020 Mexico, D.F.
           Tels. 5687 45 42/ 5687 45  82             Fax. 5669 25 12
********************************************************************************
ARCHIVO ESTANDAR DE ACELERACION:
VERSION DEL FORMATO                    : 2.0
NOMBRE DEL ARCHIVO                     : AR1419941210161740
FECHA Y HORA DE CREACION               : 05/MAR/18, 13:48
REF. CATALOGO ACELEROGRAMAS, SMIS 1996 : REGISTRO No.     /PAG.


================================================================================
DATOS DE LA ESTACION:
NOMBRE DE LA ESTACION                  : ESC. PRIM. "JOSÉ ORDAZ LÓPEZ"
CLAVE DE LA ESTACION                   : AR14
LOCALIZACION DE LA ESTACION            : Del. Gustavo A. Madero,                
                                       : Col. Ampliación la Providencia,        
                                       : Calle Puebla esq. con calle            
                                       : Volcán Tacan.                          
                                       : 
COORDENADAS DE LA ESTACION             : 19.4808 LAT. N
                                       : 99.0760 LONG. W
ALTITUD (msnm)                         : 2232
TIPO DE SUELO                          : Arcilloso, zona lago                
                                       :                           
                                       : 
INSTITUCION RESPONSABLE                : CIRES
                                       : 

================================================================================
DATOS DEL ACELEROGRAFO:
MODELO DEL ACELEROGRAFO                : DCA-333
NUMERO DE SERIE DEL ACELEROGRAFO       : 235
NUMERO DE CANALES                      : 3
ORIENTACION C1-C6 (rumbo;orientacion)  : /N00E/+V/N90W
ORIENTACION C7-C12 (rumbo;orientacion) : 
VEL. DE MUESTREO, C1-C6 (muestras/s)   : /100/100/100
VEL. DE MUESTREO, C7-C12 (muestras/s)  : 
ESC. COMPLETA DE SENSORES, C1-C6, (g)  : /0.5/0.5/0.5
ESC. COMPLETA DE SENSORES, C7-C12, (g) : 
FREC. NAT. DE SENSORES, C1-C6, (Hz)    : /30/30/32
FREC. NAT. DE SENSORES, C7-C12, (Hz)   : 
AMORTIGUAMIENTO DE SENSORES, C1-C6     : /0.733/0.790/0.750
AMORTIGUAMIENTO DE SENSORES, C7-C12    : 
INTERVALO DE MUESTREO, C1-C6, (s)      : /0.01/0.01/0.01
INTERVALO DE MUESTREO, C7-C12, (s)     : 
UMBRAL DE DISPARO, C1-C6, (Gal)        : /2.2/4.39/2.2
UMBRAL DE DISPARO, C7-C12, (Gal)       :
MEMORIA DE PREEVENTO (s)               : 4.0
TIEMPO DE POSEVENTO (s)                : 0.0


================================================================================
DATOS DEL SISMO:
FECHA DEL SISMO (GMT)                  : 10/DIC/94
HORA EPICENTRO (GMT)                   : 16:17:40.0
MAGNITUD(ES)                           : /Mc=6.6
COORDENADAS DEL EPICENTRO              : 17.98 LAT. N
                                       : 101.52 LONG. W
PROFUNDIDAD FOCAL (km)                 : 53
FUENTE DE LOS DATOS EPICENTRALES       : SSN
                                       : INSTITUTO DE GEOFISICA, UNAM

================================================================================
DATOS DE ESTE REGISTRO:
HORA DE LA PRIMERA MUESTRA (GMT)       : 16:18:59.34
EXACTITUD DEL TIEMPO (s)               : 0.01
DURACION DEL REGISTRO (s), C1-C6       : /107.89/107.89/107.89
DURACION DEL REGISTRO (s), C7-C12      : 
NUM. TOTAL DE MUESTRAS, C1-C6          : /10789/10789/10789
NUM. TOTAL DE MUESTRAS, C7-C12         : 
ACEL. MAX. (Gal), C1-C6                : /13.54409/3.46013/9.46685
ACEL. MAX., C1-C6, EN LA MUESTRA       : /2917/2515/1198
ACEL. MAX. (Gal), C7-C12               : 
ACEL. MAX., C7-C12, EN LA MUESTRA      : 
UNIDADES DE LOS DATOS                  : Gal (cm/s/s)
FACTOR DE DECIMACION                   : 1
FORMATO DATOS (FORTRAN,10 campos/dato) : 3F10.5


================================================================================
CALIDAD DEL ACELEROGRAMA:
REGISTRO DIGITAL COMPLETO CON TIEMPO ABSOLUTO CORRECTO.


================================================================================
COMENTARIOS:














================================================================================
DATOS DE ACELERACION:
---------+---------+---------+---------+---------+---------+---------+---------+
   CANAL-1   CANAL-2   CANAL-3   CANAL-4   CANAL-5   CANAL-6   CANAL-7   CANAL-8
      N00E        +V      N90W
---------+---------+---------+---------+---------+---------+---------+---------+
[...]
  -1.82349  -0.63278   2.06566
  -2.06291  -0.87220   2.06566
  -2.30233  -0.87220   2.06566
  -2.78117  -1.11162   2.06566
  -3.02059  -1.11162   1.82624
  -3.49943  -1.11162   1.82624
  -3.73885  -1.11162   1.82624
  -4.21769  -1.35104   1.58682
  -4.69653  -1.35104   1.58682
  -5.17537  -1.35104   1.58682
  -5.41479  -1.35104   1.58682
  -5.89363  -1.35104   1.34740
  -6.13305  -1.35104   1.34740
  -6.85131  -1.11162   1.10798
  -7.09073  -1.35104   1.10798
  -7.56957  -1.35104   1.10798
  -7.80899  -1.35104   1.10798
  -8.28783  -1.35104   1.10798
  -8.76667  -1.59046   1.10798
  -9.00610  -1.59046   1.34740
  -9.24552  -1.59046   1.10798
  -9.48494  -1.35104   1.34740
  -9.72436  -1.35104   1.58682
  -9.72436  -1.11162   1.82624
  -9.96378  -1.11162   2.06566
  -9.96378  -1.11162   2.30508
  -9.96378  -1.11162   2.54450
  -9.96378  -1.11162   2.78392
  -9.96378  -1.11162   3.02334
  -9.72436  -1.11162   3.02334
  -9.48494  -1.11162   3.50218
  -9.24552  -1.11162   3.74160
  -9.00610  -0.87220   4.22044
  -8.76667  -1.11162   4.22044
  -8.52725  -0.87220   4.69928
  -8.28783  -0.87220   4.93870
  -8.04841  -0.87220   5.17812
  -7.56957  -0.63278   5.17812
  -7.09073  -0.63278   5.65696
  -6.85131  -0.63278   5.89638
  -6.37247  -0.39336   5.89638
  -5.89363  -0.39336   6.13580
  -5.41479  -0.15394   6.13580
  -5.17537  -0.15394   6.13580
  -4.69653  -0.15394   5.89638
  -4.21769   0.08548   5.89638
  -3.97827   0.32490   5.65696
  -3.73885   0.32490   5.41754
  -3.26001   0.56432   4.93870
  -3.02059   0.56432   4.69928
  -2.54175   0.80374   4.45986
  -2.06291   1.04316   4.22044
  -1.82349   1.28258   3.98102
  -1.58407   1.52200   3.50218
  -1.10523   1.76142   3.26276
  -0.86581   2.00084   2.78392
  -0.38697   2.24026   2.54450
  -0.14755   2.47968   2.06566
   0.09187   2.95852   1.82624
   0.57071   2.71910   1.58682
   0.81013   2.95852   1.34740
   1.04955   2.95852   1.10798
   1.28897   2.71910   0.86856
   1.52839   2.95852   0.38972
   1.76781   2.95852   0.15030
   2.00723   2.71910  -0.08912
   2.00723   2.47968  -0.56796
   2.24665   2.47968  -1.04680
   2.24665   2.71910  -1.28622
   2.48607   2.71910  -1.52564
   2.48607   2.71910  -1.76506
   2.48607   2.71910  -2.00448
   2.48607   2.71910  -2.00448
   2.48607   2.71910  -2.00448
   2.48607   2.71910  -2.24390
   2.24665   2.47968  -2.24390
   2.48607   2.24026  -2.24390
   2.48607   2.00084  -2.48332
   2.48607   1.76142  -2.00448
   2.24665   1.76142  -2.24390
   2.24665   1.52200  -2.00448
   2.00723   1.52200  -1.76506
   2.00723   1.28258  -1.76506
   2.00723   1.04316  -1.52564
   2.00723   0.80374  -1.52564
   1.76781   0.56432  -1.04680
   1.76781   0.32490  -1.04680
   1.52839   0.08548  -0.80738
   1.52839   0.08548  -0.56796
   1.52839   0.08548  -0.56796
   1.28897  -0.15394  -0.32854
   1.52839  -0.15394  -0.08912
   1.28897  -0.15394  -0.08912
   1.28897  -0.15394  -0.08912
   1.28897  -0.15394   0.15030
   1.28897  -0.15394   0.15030
   1.28897  -0.15394   0.38972
   1.28897  -0.15394   0.38972
   1.28897  -0.15394   0.38972
   1.28897  -0.15394   0.62914
   1.28897  -0.15394   0.62914
   1.28897  -0.39336   0.62914
   1.28897  -0.63278   0.62914
   1.52839  -0.63278   0.62914
   1.28897  -0.87220   0.62914
   1.52839  -1.11162   0.62914
   1.52839  -1.35104   0.62914
   1.52839  -1.35104   0.62914
   1.76781  -1.59046   0.38972
   1.76781  -1.59046   0.38972
   2.00723  -1.59046   0.15030
   2.00723  -1.59046  -0.08912
   2.00723  -1.82988  -0.08912
   2.24665  -1.82988  -0.32854
   2.24665  -1.82988  -0.32854
   2.24665  -1.59046  -0.56796
   2.48607  -1.82988  -0.56796
   2.48607  -1.82988  -0.80738
   2.48607  -1.82988  -0.80738
   2.48607  -1.59046  -1.04680
   2.48607  -1.59046  -1.04680
   2.48607  -1.35104  -1.04680
   2.48607  -1.11162  -1.04680
   2.24665  -0.87220  -1.04680
   2.24665  -0.87220  -1.04680
   2.00723  -0.63278  -1.04680
   2.00723  -0.63278  -1.04680
   1.76781  -0.63278  -1.28622
   1.76781  -0.39336  -1.52564
   1.52839  -0.39336  -1.52564
   1.28897  -0.15394  -1.76506
   1.28897  -0.15394  -2.00448
   1.04955  -0.15394  -2.00448
   0.81013   0.08548  -2.00448
   0.57071   0.32490  -2.24390
   0.33129   0.32490  -2.48332
   0.09187   0.32490  -2.24390
  -0.14755   0.32490  -2.24390
  -0.14755   0.56432  -2.48332
  -0.62639   0.80374  -2.24390
  -0.86581   0.80374  -2.24390
  -1.10523   0.80374  -2.24390
  -1.34465   1.04316  -2.00448
  -1.34465   1.28258  -2.00448
  -1.58407   1.28258  -1.76506
  -1.82349   1.52200  -1.52564
  -1.82349   1.52200  -1.52564
  -1.82349   1.52200  -1.28622
  -1.82349   1.76142  -1.04680
  -1.58407   1.76142  -1.04680
  -1.58407   1.76142  -0.80738
  -1.34465   1.76142  -0.56796
  -1.10523   2.00084  -0.56796
  -0.86581   2.00084  -0.56796
  -0.86581   2.00084  -0.56796
  -0.38697   2.00084  -0.32854
  -0.14755   2.00084  -0.32854
   0.09187   2.00084  -0.32854
   0.33129   2.00084  -0.32854
   0.81013   2.00084  -0.08912
   1.04955   2.24026  -0.08912
   1.52839   2.00084  -0.08912
   1.52839   2.00084  -0.08912
   2.24665   2.00084  -0.08912
   2.48607   2.00084  -0.08912
   2.72549   2.00084  -0.32854
   2.96491   1.52200  -0.08912
   2.96491   1.52200  -0.08912
   3.20433   1.52200   0.15030
   3.44375   1.28258   0.15030
   3.68317   1.04316   0.15030
   3.68317   1.04316   0.15030
   3.68317   0.80374   0.15030
   3.92259   0.80374   0.38972
   3.92259   0.80374   0.38972
   3.92259   0.56432   0.38972
   4.16201   0.56432   0.62914
   4.16201   0.32490   0.62914
   4.16201   0.32490   0.62914
   3.92259  -0.15394   0.38972
   3.92259  -0.39336   0.38972
   3.44375  -0.39336   0.38972
   3.92259  -0.39336   0.15030
   3.68317  -0.63278   0.15030
   3.68317  -0.63278   0.15030
   3.68317  -0.87220  -0.08912
   3.44375  -1.11162  -0.08912
   3.44375  -1.11162  -0.32854
   3.20433  -1.11162  -0.32854
   2.96491  -1.11162  -0.32854
   2.72549  -1.11162  -0.56796
   2.48607  -1.11162  -0.56796
   2.48607  -1.11162  -0.56796
   2.48607  -1.35104  -0.80738
   2.48607  -1.59046  -0.80738
   2.24665  -1.82988  -0.80738
   2.24665  -2.06930  -1.04680
   2.24665  -2.06930  -1.04680
   2.48607  -2.06930  -1.52564
   2.48607  -2.06930  -1.28622
   2.72549  -2.06930  -1.52564
   2.96491  -2.06930  -1.52564
   3.20433  -1.82988  -1.76506
   3.20433  -1.82988  -1.76506
   3.44375  -1.82988  -2.00448
   3.68317  -1.82988  -2.00448
   3.92259  -1.82988  -2.24390
   3.92259  -1.82988  -2.72274
   4.40143  -1.82988  -2.48332
   4.16201  -1.82988  -2.48332
   4.40143  -1.82988  -2.72274
   4.40143  -2.06930  -2.72274
   4.40143  -2.06930  -2.96216
   4.16201  -2.06930  -3.20158
   4.16201  -2.06930  -3.20158
   4.16201  -2.06930  -3.44100
   4.16201  -2.30872  -3.44100
   3.92259  -2.06930  -3.44100
   3.68317  -2.06930  -3.68042
   3.44375  -2.06930  -3.68042
   3.44375  -2.06930  -3.68042
   3.20433  -2.06930  -3.68042
   2.72549  -1.82988  -3.68042
   2.48607  -1.82988  -3.68042
   2.48607  -1.82988  -3.68042
   2.00723  -1.82988  -3.68042
   1.76781  -1.59046  -3.68042
   1.52839  -1.35104  -3.91984
   1.28897  -1.11162  -3.91984
   1.04955  -0.87220  -4.15926
   0.57071  -0.63278  -4.15926
   0.33129  -0.15394  -4.15926
  -0.14755  -0.15394  -4.39868
  -0.62639   0.08548  -4.15926
  -0.86581   0.32490  -4.39868
  -1.34465   0.80374  -4.39868
  -1.82349   0.56432  -4.39868
  -2.30233   0.80374  -4.39868
  -2.78117   1.04316  -4.39868
  -3.26001   1.04316  -4.39868
  -3.73885   1.04316  -4.39868
  -4.45711   1.28258  -4.15926
  -4.69653   1.28258  -4.15926
  -5.17537   1.04316  -3.68042
  -5.65421   1.28258  -3.68042
  -6.13305   1.28258  -3.44100
  -6.61189   1.52200  -3.44100
  -6.85131   1.52200  -2.96216
  -7.33015   1.28258  -2.72274
  -7.56957   1.28258  -2.48332
  -7.80899   1.28258  -2.24390
  -8.04841   1.04316  -2.00448
  -8.28783   1.04316  -1.76506
  -8.52725   0.80374  -1.52564
  -8.76667   0.80374  -1.28622
  -8.76667   0.80374  -1.04680
  -9.00610   0.56432  -1.04680
  -9.00610   0.56432  -1.04680
  -9.00610   0.56432  -1.04680
  -9.24552   0.32490  -1.04680
  -9.24552   0.08548  -1.04680
  -9.24552  -0.15394  -1.04680
  -9.24552  -0.15394  -1.04680
  -9.24552  -0.15394  -1.04680
  -9.24552  -0.39336  -1.04680
  -9.24552  -0.39336  -1.04680
  -9.24552  -0.39336  -1.04680
  -9.24552  -0.87220  -0.80738
  -9.00610  -0.87220  -0.80738
  -9.24552  -1.35104  -0.80738
  -9.00610  -1.59046  -0.56796
  -9.00610  -1.59046  -0.32854
  -8.76667  -1.82988  -0.08912
  -8.76667  -1.82988  -0.08912
  -8.76667  -2.06930  -0.08912
  -8.52725  -2.06930   0.62914
  -8.28783  -2.06930   0.62914
  -8.28783  -2.30872   0.86856
  -8.04841  -2.30872   1.10798
  -7.80899  -2.30872   1.10798
  -7.33015  -2.30872   1.34740
  -7.09073  -1.82988   1.34740
  -6.85131  -2.06930   1.58682
  -6.37247  -1.59046   1.58682
  -6.13305  -1.59046   1.58682
  -5.65421  -1.82988   1.34740
  -5.17537  -1.82988   1.58682
  -4.69653  -1.59046   1.58682
  -4.45711  -1.35104   1.58682
  -4.21769  -1.35104   1.58682
  -3.73885  -1.11162   1.82624
  -3.49943  -0.87220   1.58682
  -3.02059  -0.87220   1.58682
  -2.78117  -0.87220   1.58682
  -2.54175  -0.63278   1.58682
  -2.30233  -0.63278   1.58682
  -2.06291  -0.39336   1.58682
  -1.82349  -0.39336   1.34740
  -1.58407  -0.15394   1.34740
  -1.34465   0.08548   1.34740
  -1.10523   0.08548   1.10798
  -1.10523   0.32490   1.10798
  -0.86581   0.32490   1.10798
  -0.62639   0.32490   0.86856
  -0.62639   0.56432   0.86856
  -0.38697   0.56432   0.86856
  -0.14755   0.56432   0.86856
  -0.14755   0.80374   0.62914
   0.09187   0.80374   0.62914
   0.09187   1.04316   0.62914
   0.33129   1.04316   0.38972
   0.81013   1.28258   0.38972
   0.81013   1.04316   0.38972
   1.04955   1.04316   0.15030
   1.52839   1.04316   0.15030
   1.76781   1.52200  -0.08912
   2.00723   1.28258  -0.08912
   2.24665   1.52200  -0.08912
   2.48607   1.28258  -0.32854
   2.96491   1.28258  -0.56796
   3.20433   1.28258  -0.56796
   3.44375   1.28258  -0.56796
   3.92259   1.28258  -0.32854
   4.40143   1.28258  -0.56796
   4.64085   1.28258  -0.32854
   5.11969   1.28258  -0.32854
   5.59854   1.28258  -0.32854
   6.07738   1.52200  -0.08912
   6.55622   1.28258  -0.08912
   7.03506   1.28258  -0.08912
   7.27448   1.04316   0.15030
   7.75332   1.04316   0.15030
   8.23216   1.04316   0.38972
   8.47158   1.28258   0.62914
   8.95042   0.80374   0.86856
   9.42926   0.80374   0.86856
   9.90810   0.80374   1.34740
  10.38694   0.80374   1.58682
  10.62636   0.56432   1.82624
  10.86578   0.56432   2.06566
  11.58404   0.56432   2.54450
  11.82346   0.32490   3.02334
  12.30230   0.32490   3.26276
  12.54172   0.32490   3.74160
  13.02056   0.32490   3.98102
  13.02056   0.32490   4.45986
  13.25998   0.32490   4.93870
  13.49940   0.32490   5.17812
  13.49940   0.32490   5.65696
  13.49940   0.32490   6.13580
  13.49940   0.08548   6.61465
  13.49940   0.08548   6.85407
  13.49940  -0.15394   7.09349
  13.49940   0.08548   7.33291
  13.25998   0.08548   7.57233
  13.02056   0.08548   7.81175
  12.78114  -0.15394   8.05117
  12.78114  -0.15394   8.29059
  12.30230  -0.15394   8.29059
  12.06288  -0.15394   8.29059
  11.58404  -0.39336   8.29059
  11.34462  -0.15394   8.53001
  10.86578   0.08548   8.53001
  10.38694  -0.15394   8.53001
   9.90810  -0.15394   8.76943
   9.18984  -0.15394   8.76943
   8.71100  -0.15394   8.76943
   7.99274  -0.15394   8.76943
   7.27448  -0.39336   8.53001
   6.55622  -0.15394   8.76943
   5.83796  -0.39336   8.76943
   5.11969  -0.39336   8.76943
   4.40143  -0.39336   8.76943
   3.44375  -0.15394   8.53001
   2.72549  -0.63278   8.53001
   1.76781  -0.63278   8.29059
   1.04955  -0.63278   8.05117
   0.33129  -0.63278   8.05117
  -0.62639  -0.63278   7.81175
  -1.34465  -0.39336   7.81175
  -2.06291  -0.39336   7.57233
  -3.02059  -0.39336   7.33291
  -3.73885  -0.39336   7.33291
  -4.45711  -0.39336   7.09349
  -5.17537  -0.15394   6.85407
  -5.65421  -0.39336   6.85407
  -6.37247  -0.39336   6.61465
  -6.85131  -0.63278   6.61465
  -7.56957  -0.63278   6.37522
  -8.04841  -0.63278   6.13580
  -8.52725  -0.39336   5.89638
  -9.00610  -0.39336   5.65696
  -9.24552  -0.15394   5.41754
  -9.72436  -0.15394   5.17812
  -9.96378  -0.15394   5.17812
 -10.20320  -0.15394   4.69928
 -10.44262  -0.15394   4.69928
 -10.68204  -0.15394   4.45986
 -11.16088  -0.15394   4.45986
 -10.92146   0.08548   4.22044
 -10.92146   0.32490   3.74160
 -10.92146   0.32490   3.50218
 -10.92146   0.56432   3.50218
 -10.68204   0.56432   3.26276
 -10.68204   0.80374   3.02334
 -10.44262   0.56432   2.78392
 -10.20320   0.56432   2.54450
 -10.20320   0.56432   2.30508
  -9.72436   0.32490   2.06566
  -9.48494   0.32490   1.82624
  -9.00610   0.56432   1.58682
  -8.52725   0.32490   1.34740
  -8.28783   0.08548   1.10798
  -7.80899   0.56432   0.86856
  -7.33015   0.32490   0.62914
  -6.85131   0.32490   0.38972
  -6.13305   0.32490  -0.08912
  -5.89363   0.32490  -0.32854
  -5.41479   0.80374  -0.56796
  -4.93595   0.56432  -1.04680
  -4.45711   0.56432  -1.28622
  -4.21769   0.56432  -1.52564
  -3.73885   0.32490  -1.76506
  -3.49943   0.32490  -2.00448
  -3.26001   0.32490  -2.48332
  -3.02059   0.08548  -2.72274
  -2.54175   0.08548  -2.96216
  -2.30233   0.08548  -3.44100
  -2.06291   0.08548  -3.44100
  -1.82349   0.08548  -3.68042
  -1.82349   0.32490  -3.91984
  -1.82349   0.08548  -4.15926
  -1.58407   0.32490  -4.39868
  -1.58407   0.32490  -4.87752
  -1.58407   0.56432  -4.87752
  -1.82349   0.80374  -5.11694
  -1.58407   0.56432  -5.35636
  -1.82349   0.56432  -5.35636
  -1.82349   0.80374  -5.59578
  -1.82349   0.56432  -5.59578
  -2.06291   0.56432  -5.83520
  -2.06291   0.56432  -5.83520
  -2.06291   0.56432  -5.83520
  -2.06291   0.32490  -5.83520
  -2.06291   0.56432  -6.07462
  -2.06291   0.80374  -5.83520
  -2.06291   0.80374  -5.83520
  -1.82349   0.80374  -6.07462
  -1.82349   0.80374  -6.07462
  -1.82349   0.80374  -6.31404
  -1.58407   0.80374  -6.55346
  -1.58407   0.56432  -6.55346
  -1.58407   0.56432  -6.79288
  -1.34465   0.08548  -6.79288
  -1.34465   0.32490  -7.03230
  -1.10523   0.08548  -7.27172
  -1.10523   0.08548  -7.27172
  -0.62639   0.08548  -7.27172
  -0.62639  -0.15394  -7.27172
  -0.14755  -0.63278  -7.51114
  -0.14755  -0.63278  -7.51114
  -0.14755  -0.87220  -7.51114
   0.09187  -0.87220  -7.51114
   0.09187  -1.11162  -7.51114
   0.09187  -1.11162  -7.27172
   0.33129  -1.35104  -7.27172
   0.33129  -1.35104  -7.03230
   0.33129  -1.59046  -6.55346
   0.33129  -1.59046  -6.31404
   0.57071  -1.59046  -6.31404
   0.57071  -1.35104  -6.07462
   0.33129  -1.35104  -5.83520
   0.57071  -1.35104  -5.59578
   0.81013  -1.35104  -5.59578
   0.81013  -1.11162  -5.11694
   1.04955  -1.35104  -5.35636
   1.04955  -1.35104  -4.87752
   1.28897  -1.35104  -4.87752
   1.52839  -1.35104  -4.87752
   1.28897  -1.35104  -4.63810
   1.52839  -1.11162  -4.63810
   1.52839  -1.11162  -4.63810
   1.76781  -1.35104  -4.39868
   1.76781  -0.87220  -4.39868
   1.76781  -0.63278  -4.15926
   1.52839  -0.63278  -3.68042
   1.52839  -0.39336  -3.68042
   1.52839  -0.39336  -3.44100
   1.52839  -0.15394  -3.20158
   1.28897  -0.15394  -3.20158
   1.28897  -0.15394  -2.96216
   1.04955   0.32490  -2.72274
   0.81013   0.56432  -2.48332
   0.81013   0.56432  -2.48332
   0.57071   0.80374  -2.48332
   0.57071   0.80374  -2.48332
