********************************************************************************
               CENTRO DE INSTRUMENTACION Y REGISTRO SISMICO  A.C.  
                       Coordinacion de Servicios Tecnicos
     Anaxagoras 814, Col. Narvarte, Benito Juarez, C.P. 03020 Mexico, D.F.
            Tels. 687 45 42/ 687 45  82             Fax. 669 25 12
********************************************************************************
ARCHIVO ESTANDAR DE ACELERACION:
VERSION DEL FORMATO                    : 2.0
NOMBRE DEL ARCHIVO                     : AR149509.141
FECHA Y HORA DE CREACION               : MARZO 14, 1996/17:20
REF. CATALOGO ACELEROGRAMAS, SMIS 1995 : REGISTRO No.     /PAG.


================================================================================
DATOS DE LA ESTACION:
NOMBRE DE LA ESTACION                  : ARAGON
CLAVE DE LA ESTACION                   : AR14
LOCALIZACION DE LA ESTACION            : Esc Prim Jose Ordaz Lopez Puebla 2 y
                                       : Baja California, Col Providencia
                                       : Gustavo A. Madero
                                       :
                                       :
COORDENADAS DE LA ESTACION             : 19.481 LAT. N 
                                       : 99.076 LONG. W 
ALTITUD (msnm)                         : 2232
TIPO DE SUELO                          : ARCILLOSO, ZONA LAGO
                                       : 
                                       : 
INSTITUCION RESPONSABLE                : CIRES
                                       :

================================================================================
DATOS DEL ACELEROGRAFO:
MODELO DEL ACELEROGRAFO                : DCA-333
NUMERO DE SERIE DEL ACELEROGRAFO       : 235
NUMERO DE CANALES                      : 3
ORIENTACION C1-C6 (rumbo;orientacion)  : /N00E/+V/N90E
ORIENTACION C7-C12 (rumbo;orientacion) :
VEL. DE MUESTREO, C1-C6 (muestras/s)   : /100/100/100
VEL. DE MUESTREO, C7-C12 (muestras/s)  :
ESC. COMPLETA DE SENSORES, C1-C6, (g)  : /0.5/0.5/0.5
ESC. COMPLETA DE SENSORES, C7-C12, (g) :
FREC. NAT. DE SENSORES, C1-C6, (Hz)    : /30/30/30
FREC. NAT. DE SENSORES, C7-C12, (Hz)   :
AMORTIGUAMIENTO DE SENSORES, C1-C6     : /0.700/0.700/0.700
AMORTIGUAMIENTO DE SENSORES, C7-C12    :
INTERVALO DE MUESTREO, C1-C6, (s)      : /0.01/0.01/0.01
INTERVALO DE MUESTREO, C7-C12, (s)     :
UMBRAL DE DISPARO, C1-C6, (Gal)        : /2.9/2.9/2.9
UMBRAL DE DISPARO, C7-C12, (Gal)       :
MEMORIA DE PREEVENTO (s)               : 4
TIEMPO DE POSEVENTO (s)                : 15


================================================================================
DATOS DEL SISMO:
FECHA DEL SISMO (GMT)                  : 14/SEP/95
HORA EPICENTRO (GMT)                   : 14:04:30.5
MAGNITUD(ES)                           : /Mc=6.4/Mb=7.2/Me=7.3
COORDENADAS DEL EPICENTRO              : 16.31 LAT. N
                                       : 98.88 LONG. W
PROFUNDIDAD FOCAL (km)                 : 22
FUENTE DE LOS DATOS EPICENTRALES       : SSN
                                       : INSTITUTO DE GEOFISICA, UNAM

================================================================================
DATOS DE ESTE REGISTRO:
HORA DE LA PRIMERA MUESTRA (GMT)       : 14:05:40.96
EXACTITUD DEL TIEMPO (s)               : 0.01
DURACION DEL REGISTRO (s), C1-C6       : /268.69/268.69/268.69
DURACION DEL REGISTRO (s), C7-C12      :
NUM. TOTAL DE MUESTRAS, C1-C6          : /26869/26869/26869
NUM. TOTAL DE MUESTRAS, C7-C12         :
ACEL. MAX. (Gal), C1-C6                : /25.79/9.31/26.97
ACEL. MAX., C1-C6, EN LA MUESTRA       :
ACEL. MAX. (Gal), C7-C12               :
ACEL. MAX., C7-C12, EN LA MUESTRA      :
UNIDADES DE LOS DATOS                  : Gal (cm/s/s)
FACTOR DE DECIMACION                   : 1
FORMATO DATOS (FORTRAN,10 campos/dato) : 3F10.2


================================================================================
CALIDAD DEL ACELEROGRAMA:
REGISTRO DIGITAL COMPLETO CON TIEMPO ABSOLUTO CORRECTO.


================================================================================
COMENTARIOS:














================================================================================
DATOS DE ACELERACION:
---------+---------+---------+---------+---------+---------+---------+---------+
   CANAL-1   CANAL-2   CANAL-3   CANAL-4   CANAL-5   CANAL-6   CANAL-7   CANAL-8
      N00E        +V      N90E
---------+---------+---------+---------+---------+---------+---------+---------+
[...]
     -3.76     -2.66    -16.85
     -3.52     -2.66    -16.61
     -3.04     -2.90    -16.13
     -2.80     -2.66    -15.89
     -2.80     -2.42    -15.17
     -2.56     -2.18    -14.45
     -2.56     -2.18    -13.74
     -2.56     -1.70    -13.02
     -2.56     -1.46    -11.82
     -2.80     -0.98    -11.10
     -2.80     -0.74     -9.90
     -3.04     -0.26     -8.71
     -3.28     -0.26     -7.51
     -3.52     -0.50     -6.55
     -3.76     -0.26     -5.59
     -4.24     -0.02     -4.64
     -4.48      0.22     -3.92
     -4.72      0.46     -3.20
     -4.96      0.70     -2.48
     -5.20      0.94     -1.76
     -5.44      1.17     -1.29
     -5.44      1.17     -0.81
     -5.44      1.17     -0.09
     -5.67      0.94      0.39
     -5.67      0.94      0.87
     -5.44      0.94      1.35
     -5.44      0.70      1.83
     -5.44      0.70      2.07
     -5.44      0.94      2.55
     -5.44      0.94      2.78
     -5.44      1.17      3.02
     -5.20      1.41      3.26
     -5.20      1.17      3.26
     -5.20      1.41      3.26
     -4.96      1.41      3.26
     -4.96      1.65      3.26
     -4.96      1.65      3.02
     -4.72      1.41      2.78
     -4.72      1.41      2.55
     -4.96      1.41      2.07
     -4.72      1.41      1.83
     -4.48      1.41      1.59
     -4.48      1.41      1.11
     -4.48      1.41      0.87
     -4.48      1.41      0.39
     -4.48      1.41     -0.09
     -4.48      1.65     -0.33
     -4.24      1.41     -0.81
     -4.24      1.65     -1.05
     -4.00      1.41     -1.52
     -4.00      1.41     -1.76
     -4.00      1.65     -2.24
     -3.76      1.89     -2.24
     -3.52      2.13     -2.48
     -3.28      2.13     -2.72
     -3.04      2.37     -2.96
     -2.80      2.61     -2.96
     -2.32      2.61     -2.96
     -1.60      2.61     -3.20
     -1.36      2.37     -2.96
     -0.65      2.37     -2.96
     -0.17      2.13     -2.96
      0.55      2.13     -3.20
      0.79      2.13     -2.48
      1.27      2.13     -2.24
      1.75      2.13     -2.00
      1.99      2.13     -1.52
      2.23      2.37     -1.29
      2.71      2.37     -0.81
      2.71      2.61     -0.09
      2.94      2.61      0.63
      3.18      2.61      1.35
      3.18      2.37      2.07
      3.42      2.37      2.78
      3.66      2.37      3.50
      3.66      2.37      4.22
      3.66      2.37      5.18
      3.90      2.61      5.66
      3.90      2.61      6.85
      4.14      2.61      7.57
      4.14      2.37      8.53
      4.14      3.09      9.25
      4.14      3.09     10.21
      4.14      3.09     10.93
      4.14      3.09     11.64
      3.90      3.09     12.60
      3.90      3.09     13.32
      4.14      3.09     14.04
      4.14      3.09     14.28
      4.14      3.09     15.00
      4.38      3.09     15.47
      4.86      3.09     15.95
      5.10      3.09     16.43
      5.58      3.09     16.91
      6.06      2.85     17.63
      6.54      2.61     18.11
      7.49      2.37     18.59
      7.97      1.89     18.83
      8.69      1.65     19.07
      9.41      1.41     19.30
     10.13      1.41     19.30
     10.61      1.41     19.07
     11.32      1.17     18.59
     11.80      0.94     18.35
     12.28      0.94     17.63
     12.52      1.17     16.91
     12.76      0.94     16.19
     12.76      1.17     15.47
     12.76      1.17     14.52
     12.76      0.94     13.56
     12.28      0.70     12.84
     12.28      0.94     11.88
     11.80      0.94     10.93
     11.32      0.70     10.21
     10.85      0.70      9.25
     10.13      0.70      8.53
      9.65      0.70      7.57
      8.69      0.70      6.85
      8.21      0.94      6.14
      7.49      0.94      5.18
      6.78      0.94      4.46
      6.06      1.17      3.74
      5.34      1.17      2.78
      4.62      1.17      2.07
      3.66      0.94      1.35
      2.71      0.70      0.63
      2.23      0.70      0.15
      1.27      0.70     -0.33
      0.55      0.70     -0.81
     -0.41      0.70     -1.52
     -1.13      0.70     -1.76
     -2.08      0.70     -2.00
     -3.04      0.70     -2.48
     -3.76      0.70     -2.72
     -4.48      0.46     -2.96
     -5.44      0.46     -3.20
     -6.15     -0.02     -3.20
     -6.63     -0.26     -3.20
     -7.11     -0.50     -3.20
     -7.83     -0.98     -3.20
     -8.31     -1.22     -2.96
     -8.55     -1.46     -2.72
     -8.55     -1.70     -2.72
     -8.79     -1.70     -2.48
     -8.55     -1.94     -2.00
     -8.79     -2.18     -1.76
     -8.79     -2.42     -1.52
     -8.07     -2.42     -1.52
     -7.59     -2.66     -1.76
     -6.87     -2.90     -1.52
     -6.39     -3.13     -1.52
     -5.67     -3.13     -1.76
     -5.20     -3.13     -2.00
     -4.24     -2.90     -2.00
     -3.76     -2.90     -2.24
     -3.28     -2.66     -2.48
     -2.56     -2.18     -2.96
     -2.08     -2.42     -2.96
     -1.84     -1.94     -3.20
     -1.36     -1.46     -3.44
     -0.89     -1.22     -3.68
     -0.65     -0.98     -3.92
     -0.17     -0.74     -4.16
      0.31     -0.74     -4.16
      0.55     -0.74     -4.40
      1.03     -0.50     -4.64
      1.75     -0.50     -4.88
      2.47     -0.50     -5.36
      2.94     -0.26     -5.83
      3.42     -0.02     -6.31
      4.14      0.46     -6.55
      4.62      0.70     -7.27
      5.34      0.94     -7.51
      5.82      0.94     -8.23
      6.54      1.17     -8.71
      7.01      0.94     -9.19
      7.25      1.17     -9.67
      7.49      1.17    -10.14
      7.73      1.17    -10.62
      7.97      0.94    -10.86
      7.97      0.94    -11.10
      7.73      0.94    -11.34
      7.49      0.94    -11.58
      7.25      0.94    -11.58
      6.78      0.94    -11.34
      6.06      0.94    -11.34
      5.58      0.94    -10.86
      5.10      0.94    -10.62
      4.38      0.70    -10.14
      4.14      0.46     -9.67
      3.66     -0.02     -9.19
      3.42     -0.26     -8.71
      3.42     -0.74     -8.23
      3.18     -0.98     -7.99
      3.42     -1.22     -7.51
      3.66     -1.46     -7.27
      3.90     -1.46     -7.03
      4.14     -1.70     -6.79
      4.62     -1.94     -6.55
      4.86     -2.18     -6.55
      5.10     -2.42     -6.31
      5.10     -2.66     -6.07
      5.10     -2.90     -6.07
      4.86     -2.90     -5.83
      4.62     -2.90     -5.59
      4.14     -3.13     -5.59
      3.90     -3.13     -5.36
      3.42     -2.90     -5.12
      2.94     -2.66     -4.88
      2.47     -2.66     -4.64
      1.99     -2.42     -4.40
      1.51     -2.42     -4.40
      1.03     -2.42     -4.40
      0.55     -2.42     -4.40
      0.31     -2.42     -4.40
      0.07     -2.18     -4.40
     -0.41     -2.18     -4.40
     -0.41     -2.18     -4.40
     -0.65     -1.70     -4.88
     -0.89     -1.46     -5.12
     -0.89     -0.98     -5.59
     -0.89     -0.50     -6.07
     -0.89      0.22     -6.55
     -0.89      0.70     -7.03
     -0.65      0.94     -7.51
     -0.65      1.41     -8.23
     -0.41      1.65     -8.71
     -0.41      1.89     -8.95
     -0.41      2.13     -9.43
     -0.41      2.37     -9.67
     -0.41      2.37    -10.14
     -0.41      2.37    -10.38
     -0.41      2.37    -10.62
     -0.65      2.37    -11.10
     -0.65      2.37    -11.34
     -0.89      2.37    -11.82
     -1.13      2.37    -12.06
     -1.36      2.37    -12.54
     -1.60      2.61    -13.02
     -2.08      2.85    -13.50
     -2.32      2.61    -13.97
     -2.80      3.09    -14.21
     -3.04      3.09    -14.69
     -3.52      3.09    -14.93
     -3.76      3.09    -15.17
     -4.24      3.57    -15.65
     -4.96      3.57    -15.41
     -4.96      4.05    -15.17
     -5.20      4.29    -15.17
     -5.67      4.29    -14.93
     -5.67      4.53    -14.93
     -5.91      4.53    -14.45
     -6.15      4.77    -13.97
     -6.15      4.53    -13.74
     -6.15      4.53    -13.02
     -6.15      4.29    -12.30
     -5.91      4.05    -11.82
     -5.67      4.05    -10.62
     -5.44      4.29     -9.67
     -5.20      3.57     -8.71
     -4.96      3.57     -7.51
     -4.48      3.09     -6.31
     -4.00      2.61     -4.88
     -3.52      2.13     -3.92
     -2.80      1.41     -2.48
     -2.32      0.70     -1.29
     -2.08      0.22     -0.09
     -0.65     -0.02      0.87
      0.07     -0.50      1.83
      0.79     -0.74      2.78
      1.51     -0.74      3.50
      2.47     -0.98      4.22
      3.42     -0.98      4.94
      3.90     -1.22      5.42
      4.86     -1.22      5.66
      5.34     -1.22      5.90
      5.82     -0.98      6.14
      6.30     -1.22      6.14
      6.54     -0.98      6.14
      7.01     -0.50      6.14
      7.01     -0.74      5.90
      7.25     -0.74      5.90
      7.49     -0.74      5.90
      7.73     -0.74      5.90
      7.97     -0.26      5.90
      8.21     -0.50      5.90
      8.45     -0.74      5.90
      8.93     -0.74      5.90
      9.17     -0.98      6.14
      9.41     -0.98      5.66
      9.89     -0.98      5.90
     10.13     -0.98      5.66
     10.61     -0.74      5.66
     10.85     -0.74      5.18
     11.32     -0.50      4.94
     11.80     -0.50      4.70
     12.28     -0.26      4.22
     12.52     -0.26      3.74
     13.00     -0.26      3.26
     13.48     -0.02      2.55
     14.20     -0.02      2.07
     14.44     -0.02      1.59
     14.92     -0.02      1.11
     15.15      0.22      0.63
     15.63      0.46      0.39
     16.11      0.46      0.15
     16.35      0.46     -0.09
     16.59      0.46     -0.09
     17.07      0.22     -0.09
     17.07     -0.02     -0.09
     17.31     -0.26      0.15
     17.55     -0.50      0.39
     17.55     -0.98      0.87
     17.55     -1.22      1.35
     17.55     -1.22      1.83
     17.31     -1.46      2.55
     17.07     -1.70      3.02
     16.83     -1.70      3.74
     16.59     -1.70      4.22
     16.11     -1.94      4.94
     15.63     -1.94      5.66
     15.39     -1.94      6.14
     14.68     -2.18      6.85
     14.44     -2.18      7.57
     13.72     -2.18      8.53
     13.24     -2.18      9.25
     12.52     -2.42     10.21
     12.28     -2.42     11.16
     11.56     -2.42     12.12
     11.08     -2.66     13.08
     10.61     -2.66     14.04
     10.13     -2.42     15.23
      9.41     -2.66     16.19
      8.69     -2.66     17.39
      7.97     -2.42     18.35
      7.01     -2.42     19.30
      6.30     -2.18     20.26
      5.58     -2.18     21.22
      4.62     -1.94     22.18
      3.90     -1.94     23.14
      3.18     -1.70     23.85
      2.23     -1.70     24.57
      1.51     -1.70     25.05
      0.55     -1.46     25.77
     -0.17     -1.46     26.01
     -0.89     -1.46     26.49
     -1.60     -1.22     26.49
     -2.08     -1.46     26.73
     -2.56     -1.46     26.97
     -3.04     -1.46     26.73
     -3.52     -1.70     26.73
     -3.76     -1.70     26.49
     -4.00     -1.94     26.01
     -4.24     -1.94     25.77
     -4.72     -1.94     25.29
     -4.72     -1.70     25.05
     -4.72     -1.94     24.33
     -4.96     -1.70     24.09
     -4.96     -1.94     23.37
     -4.96     -1.94     22.90
     -4.96     -1.94     22.42
     -4.96     -1.94     21.70
     -4.96     -1.94     20.98
     -4.72     -2.42     20.26
     -4.96     -2.42     19.30
     -4.72     -2.18     18.59
     -4.72     -2.42     17.63
     -4.72     -2.42     16.67
     -4.96     -2.42     15.71
     -4.96     -2.42     14.76
     -5.20     -2.42     13.80
     -5.44     -2.66     13.08
     -5.67     -2.66     12.12
     -6.15     -2.66     11.16
     -6.87     -2.66     10.69
     -7.59     -2.90      9.73
     -8.31     -3.13      9.25
     -9.27     -3.37      8.53
    -10.46     -3.37      8.05
    -11.18     -3.37      7.33
    -12.38     -3.37      6.62
    -13.34     -3.37      6.14
    -14.53     -3.37      5.42
    -15.49     -3.61      4.70
    -16.69     -3.61      3.98
    -17.65     -3.61      3.50
    -18.60     -3.61      2.55
    -19.56     -3.61      2.07
    -20.28     -3.61      1.35
    -21.24     -3.61      0.63
    -21.96     -3.37      0.39
    -22.43     -3.13     -0.09
    -23.63     -2.90     -0.57
    -23.87     -2.66     -0.81
    -24.35     -2.18     -1.05
    -24.59     -2.18     -1.29
    -25.07     -2.18     -1.76
    -25.31     -2.18     -1.52
    -25.55     -2.42     -1.76
    -25.79     -2.42     -2.00
    -25.79     -2.66     -2.24
    -25.79     -2.66     -2.72
    -25.55     -2.66     -2.96
    -25.31     -3.13     -3.20
    -24.83     -3.37     -3.68
    -24.59     -3.37     -3.92
    -23.87     -3.37     -4.40
    -23.15     -3.61     -4.88
    -22.67     -3.61     -5.36
    -21.96     -3.61     -5.59
    -21.24     -3.37     -6.07
    -20.52     -3.13     -6.55
    -19.80     -2.90     -7.03
    -19.32     -2.66     -7.27
    -18.36     -2.18     -7.51
    -17.88     -2.18     -7.99
    -17.17     -1.94     -8.23
    -16.45     -1.70     -8.47
    -15.97     -1.70     -8.95
    -15.25     -1.46     -8.95
    -14.77     -0.98     -9.19
    -14.29     -0.74     -9.43
    -13.58     -0.50     -9.43
    -13.10     -0.02     -9.43
    -12.86      0.46     -9.43
    -12.38      0.94     -9.43
    -11.66      1.41     -9.43
    -11.18      1.41     -9.19
    -10.70      1.65     -8.95
    -10.22      1.89     -8.95
     -9.98      2.37     -8.47
     -9.27      2.61     -8.23
     -8.79      2.85     -7.99
     -8.31      3.33     -7.51
     -7.83      3.81     -7.27
     -7.11      4.29     -6.79
     -6.63      4.53     -6.31
     -5.91      5.01     -6.07
     -5.20      5.48     -5.59
     -4.72      5.72     -5.12
     -4.00      6.20     -4.88
     -3.52      6.44     -4.40
     -3.04      6.44     -4.16
     -2.32      6.68     -3.92
     -2.08      6.92     -3.68
     -1.60      7.40     -3.44
     -1.13      7.64     -3.44
     -0.89      8.12     -3.20
     -0.89      8.60     -2.96
     -0.41      8.84     -3.20
     -0.65      9.08     -3.20
      0.07      9.31     -3.44
     -0.17      9.08     -3.92
      0.55      9.31     -3.92
      0.55      9.08     -4.40
      0.55      8.84     -4.64
      0.79      8.84     -5.12
      1.03      8.36     -5.59
      1.27      8.36     -6.07
      1.75      8.12     -6.55
      1.99      7.88     -6.79
      2.47      8.12     -7.27
      2.94      7.64     -7.51
      3.18      7.64     -7.99
      3.66      7.40     -8.23
      4.38      6.92     -8.47
      4.86      6.68     -8.71
      5.34      6.20     -9.19
      5.58      5.72     -9.43
      6.54      5.24     -9.90
      7.25      4.77    -10.14
      7.73      4.53    -10.62
      7.97      4.05    -11.10
      8.45      4.05    -11.34
      8.93      3.57    -11.58
      9.17      3.33    -11.82
      9.65      3.33    -11.82
      9.89      3.09    -11.82
     10.13      2.85    -11.82
     10.13      2.61    -12.06
     10.37      2.61    -12.06
     10.61      2.61    -12.06
     10.85      2.37    -12.30
     11.08      2.37    -12.54
     11.32      2.13    -12.78
     11.32      2.13    -13.02
     11.56      2.13    -13.26
     11.80      1.89    -13.50
     11.80      2.13    -13.74
     12.04      1.65    -13.97
     12.28      1.65    -14.21
     12.28      1.41    -14.69
     12.04      1.41    -14.69
     12.04      1.65    -14.93
     12.04      1.65    -15.41
     12.04      1.65    -15.41
     11.80      1.65    -15.65
     11.56      1.89    -15.65
     11.32      1.89    -15.65
