********************************************************************************
               CENTRO DE INSTRUMENTACION Y REGISTRO SISMICO  A.C.  
                       Coordinacion de Servicios Tecnicos
     Anaxagoras 814, Col. Narvarte, Benito Juarez, C.P. 03020 Mexico, D.F.
            Tels. 687 45 42/ 687 45  82             Fax. 669 25 12
********************************************************************************
ARCHIVO ESTANDAR DE ACELERACION:
VERSION DEL FORMATO                    : 2.0
NOMBRE DEL ARCHIVO                     : AR149602.251
FECHA Y HORA DE CREACION               : 27/MAR/98,11:41
REF. CATALOGO ACELEROGRAMAS, SMIS 1996 : REGISTRO No.     /PAG.


================================================================================
DATOS DE LA ESTACION:
NOMBRE DE LA ESTACION                  : ARAGON
CLAVE DE LA ESTACION                   : AR14
LOCALIZACION DE LA ESTACION            : Esc Prim Jose Ordaz Lopez Puebla 2 y
                                       : Baja California, Col Providencia
                                       : Gustavo A. Madero
                                       :
                                       :
COORDENADAS DE LA ESTACION             : 19.481 LAT. N 
                                       : 99.076 LONG. W 
ALTITUD (msnm)                         : 2232
TIPO DE SUELO                          : ARCILLOSO, ZONA LAGO
                                       : 
                                       : 
INSTITUCION RESPONSABLE                : CIRES
                                       :

================================================================================
DATOS DEL ACELEROGRAFO:
MODELO DEL ACELEROGRAFO                : DCA-333
NUMERO DE SERIE DEL ACELEROGRAFO       : 235
NUMERO DE CANALES                      : 3
ORIENTACION C1-C6 (rumbo;orientacion)  : /N00E/+V/N90W
ORIENTACION C7-C12 (rumbo;orientacion) :
VEL. DE MUESTREO, C1-C6 (muestras/s)   : /100/100/100
VEL. DE MUESTREO, C7-C12 (muestras/s)  :
ESC. COMPLETA DE SENSORES, C1-C6, (g)  : /0.5/0.5/0.5
ESC. COMPLETA DE SENSORES, C7-C12, (g) :
FREC. NAT. DE SENSORES, C1-C6, (Hz)    : /30/30/32
FREC. NAT. DE SENSORES, C7-C12, (Hz)   :
AMORTIGUAMIENTO DE SENSORES, C1-C6     : /0.733/0.790/0.750
AMORTIGUAMIENTO DE SENSORES, C7-C12    :
INTERVALO DE MUESTREO, C1-C6, (s)      : /0.01/0.01/0.01
INTERVALO DE MUESTREO, C7-C12, (s)     :
UMBRAL DE DISPARO, C1-C6, (Gal)        : /2.9/2.9/2.9
UMBRAL DE DISPARO, C7-C12, (Gal)       :
MEMORIA DE PREEVENTO (s)               : 4
TIEMPO DE POSEVENTO (s)                : 15


================================================================================
DATOS DEL SISMO:
FECHA DEL SISMO (GMT)                  : 25/FEB/96
HORA EPICENTRO (GMT)                   : 03:08:13:8
MAGNITUD(ES)                           : /Ms=6.9
COORDENADAS DEL EPICENTRO              : 15.83 LAT. N
                                       : 98.25 LONG. W
PROFUNDIDAD FOCAL (km)                 : 3.0
FUENTE DE LOS DATOS EPICENTRALES       : SSN
                                       : INSTITUTO DE GEOFISICA, UNAM

================================================================================
DATOS DE ESTE REGISTRO:
HORA DE LA PRIMERA MUESTRA (GMT)       : 03:10:25.21
EXACTITUD DEL TIEMPO (s)               : 0.01
DURACION DEL REGISTRO (s), C1-C6       : /70.16/70.16/70.16
DURACION DEL REGISTRO (s), C7-C12      :
NUM. TOTAL DE MUESTRAS, C1-C6          : /7016/7016/7016
NUM. TOTAL DE MUESTRAS, C7-C12         :
ACEL. MAX. (Gal), C1-C6                : /4.39591/1.44252/5.10492
ACEL. MAX., C1-C6, EN LA MUESTRA       :
ACEL. MAX. (Gal), C7-C12               :
ACEL. MAX., C7-C12, EN LA MUESTRA      :
UNIDADES DE LOS DATOS                  : Gal (cm/s/s)
FACTOR DE DECIMACION                   : 1
FORMATO DATOS (FORTRAN,10 campos/dato) : 3F10.5


================================================================================
CALIDAD DEL ACELEROGRAMA:
REGISTRO DIGITAL COMPLETO CON TIEMPO ABSOLUTO CORRECTO.


================================================================================
COMENTARIOS:














================================================================================
DATOS DE ACELERACION:
---------+---------+---------+---------+---------+---------+---------+---------+
   CANAL-1   CANAL-2   CANAL-3   CANAL-4   CANAL-5   CANAL-6   CANAL-7   CANAL-8
      N00E        +V      N90W
---------+---------+---------+---------+---------+---------+---------+---------+
[...]
  -1.76230  -0.48484   3.42899
  -1.76230  -0.48484   3.42899
  -1.76230  -0.24542   3.66841
  -1.76230  -0.24542   3.66841
  -1.76230  -0.24542   3.66841
  -2.00172  -0.00601   3.42899
  -1.76230  -0.00601   3.42899
  -1.76230   0.23341   3.42899
  -2.00172  -0.00601   3.42899
  -2.00172  -0.00601   3.42899
  -2.00172  -0.00601   3.42899
  -2.00172  -0.24542   3.66841
  -1.76230  -0.24542   3.66841
  -2.00172  -0.24542   3.66841
  -2.00172  -0.24542   3.66841
  -2.00172  -0.24542   3.66841
  -2.00172  -0.24542   3.42899
  -2.00172  -0.00601   3.42899
  -1.76230  -0.00601   3.42899
  -2.00172  -0.00601   3.42899
  -2.00172  -0.00601   3.18957
  -1.76230  -0.00601   3.18957
  -1.76230  -0.00601   3.18957
  -1.76230  -0.24542   3.18957
  -1.76230  -0.24542   2.95015
  -1.76230  -0.24542   2.95015
  -1.76230  -0.00601   2.95015
  -1.76230  -0.00601   2.71073
  -1.76230  -0.00601   2.71073
  -1.76230  -0.00601   2.47131
  -1.52288  -0.00601   2.23189
  -1.52288   0.23341   1.99247
  -1.52288   0.23341   1.99247
  -1.52288   0.47283   1.99247
  -1.52288   0.47283   1.75305
  -1.52288   0.23341   1.75305
  -1.28346   0.23341   1.75305
  -1.52288   0.23341   1.51364
  -1.28346   0.23341   1.51364
  -1.28346   0.23341   1.51364
  -1.28346   0.23341   1.27422
  -1.28346   0.23341   1.27422
  -1.28346   0.47283   1.03480
  -1.04405   0.47283   0.79538
  -1.04405   0.47283   0.79538
  -1.04405   0.47283   0.55596
  -1.04405   0.23341   0.79538
  -1.04405   0.23341   0.55596
  -1.04405   0.23341   0.55596
  -0.80463   0.23341   0.31654
  -0.80463   0.47283   0.31654
  -0.80463   0.47283   0.31654
  -0.80463   0.47283   0.07712
  -0.56521   0.23341   0.07712
  -0.56521   0.23341   0.07712
  -0.56521   0.23341   0.07712
  -0.56521  -0.00601  -0.16230
  -0.56521  -0.00601  -0.16230
  -0.56521   0.23341  -0.40172
  -0.56521  -0.00601  -0.40172
  -0.32579   0.23341  -0.40172
  -0.08637   0.47283  -0.40172
  -0.08637   0.23341  -0.40172
  -0.08637  -0.00601  -0.40172
  -0.08637  -0.00601  -0.40172
  -0.08637  -0.24542  -0.64113
  -0.08637  -0.24542  -0.64113
  -0.08637  -0.00601  -0.64113
  -0.08637   0.23341  -0.64113
  -0.08637  -0.00601  -0.88055
  -0.08637   0.23341  -0.88055
  -0.08637   0.23341  -0.88055
  -0.08637  -0.00601  -0.88055
  -0.08637   0.23341  -0.88055
  -0.08637  -0.00601  -0.88055
  -0.08637  -0.00601  -0.88055
  -0.08637   0.23341  -0.88055
  -0.08637  -0.00601  -0.88055
  -0.08637  -0.00601  -0.88055
  -0.08637  -0.00601  -0.64113
  -0.08637  -0.24542  -0.64113
  -0.08637  -0.00601  -0.88055
  -0.08637  -0.00601  -0.88055
  -0.08637  -0.00601  -0.88055
  -0.08637   0.23341  -0.88055
  -0.08637   0.23341  -0.88055
  -0.08637   0.23341  -0.88055
  -0.08637   0.23341  -0.88055
  -0.08637   0.23341  -0.88055
  -0.08637  -0.00601  -0.64113
  -0.08637  -0.00601  -0.88055
  -0.08637  -0.00601  -0.64113
  -0.32579   0.23341  -0.88055
  -0.56521  -0.00601  -0.88055
  -0.56521  -0.00601  -0.88055
  -0.56521  -0.00601  -0.88055
  -0.56521   0.23341  -0.88055
  -0.80463   0.23341  -0.88055
  -0.80463   0.23341  -0.64113
  -0.80463   0.23341  -0.64113
  -0.80463   0.23341  -0.64113
  -0.80463  -0.00601  -0.64113
  -0.80463  -0.00601  -0.88055
  -0.80463   0.23341  -0.88055
  -0.80463   0.23341  -0.88055
  -1.04405   0.23341  -0.64113
  -1.04405  -0.00601  -0.64113
  -1.04405   0.23341  -0.64113
  -1.04405   0.23341  -0.88055
  -1.04405  -0.00601  -0.88055
  -1.04405  -0.00601  -0.88055
  -1.04405  -0.00601  -0.88055
  -1.04405  -0.00601  -1.11997
  -1.04405   0.23341  -0.88055
  -1.04405   0.23341  -0.88055
  -1.04405  -0.00601  -0.88055
  -1.04405  -0.00601  -1.11997
  -1.04405   0.23341  -1.11997
  -0.80463   0.23341  -1.11997
  -1.04405   0.23341  -1.11997
  -1.04405   0.23341  -1.11997
  -0.80463   0.23341  -1.35939
  -0.80463  -0.00601  -1.35939
  -0.80463  -0.00601  -1.35939
  -0.56521  -0.00601  -1.59881
  -0.56521   0.23341  -1.59881
  -0.56521  -0.00601  -1.59881
  -0.32579   0.23341  -1.83823
  -0.56521  -0.00601  -1.83823
  -0.56521  -0.00601  -1.83823
  -0.08637   0.23341  -2.07765
  -0.08637  -0.00601  -2.07765
  -0.08637  -0.00601  -2.31707
  -0.08637  -0.00601  -2.31707
  -0.08637  -0.00601  -2.31707
  -0.08637  -0.00601  -2.31707
  -0.08637  -0.00601  -2.31707
  -0.08637  -0.00601  -2.55649
   0.15305  -0.24542  -2.55649
   0.39247  -0.00601  -2.79591
   0.15305  -0.24542  -2.79591
   0.39247  -0.24542  -3.03532
   0.39247  -0.24542  -2.79591
   0.39247  -0.24542  -2.79591
   0.63189  -0.00601  -2.79591
   0.63189  -0.00601  -3.03532
   0.63189  -0.00601  -3.03532
   0.63189  -0.00601  -3.03532
   0.63189  -0.24542  -3.27474
   0.87131  -0.00601  -3.27474
   0.63189  -0.00601  -3.27474
   0.63189  -0.00601  -3.27474
   0.63189  -0.00601  -3.27474
   0.87131  -0.00601  -3.27474
   0.87131  -0.00601  -3.27474
   0.87131  -0.00601  -3.27474
   0.87131  -0.00601  -3.27474
   1.11073  -0.24542  -3.51416
   1.11073  -0.00601  -3.51416
   1.11073  -0.00601  -3.51416
   1.11073   0.23341  -3.51416
   1.11073  -0.00601  -3.51416
   1.11073  -0.00601  -3.51416
   1.11073  -0.00601  -3.51416
   0.87131  -0.00601  -3.51416
   1.11073  -0.00601  -3.51416
   1.11073  -0.00601  -3.51416
   1.11073  -0.00601  -3.51416
   1.11073  -0.00601  -3.51416
   1.11073   0.23341  -3.27474
   0.87131   0.23341  -3.27474
   1.11073   0.23341  -3.27474
   1.35014   0.23341  -3.27474
   1.11073   0.23341  -3.27474
   1.35014  -0.00601  -3.27474
   1.35014   0.23341  -3.27474
   1.35014  -0.00601  -3.27474
   1.35014  -0.00601  -3.27474
   1.35014   0.23341  -3.27474
   1.35014   0.23341  -3.27474
   1.58956   0.23341  -3.27474
   1.35014   0.23341  -3.03532
   1.35014  -0.00601  -3.03532
   1.35014  -0.00601  -3.75358
   1.58956  -0.00601  -3.27474
   1.58956  -0.00601  -3.03532
   1.58956  -0.00601  -3.03532
   1.58956  -0.24542  -3.03532
   1.58956  -0.24542  -3.03532
   1.82898  -0.00601  -3.03532
   1.82898  -0.00601  -3.03532
   1.82898  -0.00601  -3.03532
   1.82898  -0.00601  -3.03532
   1.82898  -0.00601  -3.03532
   1.82898   0.23341  -3.03532
   1.82898  -0.00601  -2.79591
   1.58956  -0.24542  -2.79591
   1.82898  -0.00601  -2.79591
   2.06840  -0.24542  -2.79591
   1.82898  -0.24542  -3.03532
   1.82898  -0.48484  -2.79591
   1.82898  -0.24542  -2.79591
   1.82898  -0.24542  -2.79591
   1.82898  -0.24542  -2.79591
   2.06840  -0.00601  -2.55649
   1.82898  -0.24542  -2.55649
   1.82898  -0.24542  -2.55649
   1.82898  -0.24542  -2.55649
   1.82898  -0.24542  -2.79591
   1.58956  -0.24542  -2.55649
   1.58956  -0.00601  -2.55649
   1.58956  -0.48484  -2.55649
   1.58956  -0.48484  -2.31707
   1.58956  -0.24542  -2.31707
   1.58956  -0.24542  -2.31707
   1.58956  -0.48484  -2.31707
   1.35014  -0.24542  -2.31707
   1.35014  -0.48484  -2.07765
   1.35014  -0.48484  -2.31707
   1.11073  -0.48484  -2.07765
   1.11073  -0.72426  -2.07765
   1.11073  -0.48484  -1.83823
   0.87131  -0.72426  -1.83823
   0.87131  -0.48484  -1.83823
   0.87131  -0.72426  -1.83823
   0.63189  -0.48484  -1.83823
   0.63189  -0.48484  -1.83823
   0.63189  -0.48484  -1.59881
   0.39247  -0.72426  -1.59881
   0.39247  -0.72426  -1.59881
   0.39247  -0.48484  -1.35939
   0.39247  -0.48484  -1.59881
   0.15305  -0.48484  -1.35939
   0.15305  -0.48484  -1.35939
   0.15305  -0.48484  -1.35939
   0.15305  -0.72426  -1.35939
  -0.08637  -0.96368  -1.35939
   0.15305  -0.72426  -1.35939
  -0.08637  -0.48484  -1.35939
  -0.08637  -0.72426  -1.11997
  -0.08637  -0.48484  -1.11997
  -0.08637  -0.48484  -1.11997
  -0.08637  -0.72426  -1.35939
  -0.08637  -0.72426  -1.11997
  -0.08637  -0.72426  -1.11997
  -0.08637  -0.96368  -1.11997
  -0.08637  -0.72426  -1.11997
  -0.32579  -0.48484  -1.11997
  -0.32579  -0.72426  -1.11997
  -0.32579  -0.72426  -1.11997
  -0.32579  -0.48484  -1.11997
  -0.32579  -0.72426  -1.11997
  -0.32579  -0.72426  -1.11997
  -0.32579  -0.72426  -1.11997
  -0.08637  -0.96368  -1.35939
  -0.32579  -0.96368  -1.35939
  -0.56521  -0.72426  -1.35939
  -0.32579  -0.72426  -1.35939
  -0.32579  -0.72426  -1.11997
  -0.56521  -0.72426  -1.11997
  -0.32579  -0.72426  -1.35939
  -0.56521  -0.48484  -1.11997
  -0.56521  -0.48484  -1.11997
  -0.32579  -0.24542  -1.11997
  -0.32579  -0.24542  -1.11997
  -0.08637  -0.48484  -1.35939
  -0.32579  -0.48484  -1.35939
  -0.08637  -0.72426  -1.35939
  -0.08637  -0.72426  -1.35939
  -0.08637  -0.48484  -1.35939
  -0.08637  -0.48484  -1.35939
  -0.08637  -0.48484  -1.11997
  -0.08637  -0.24542  -1.11997
  -0.08637  -0.24542  -1.11997
  -0.08637  -0.00601  -1.11997
  -0.08637  -0.24542  -1.11997
   0.15305  -0.24542  -1.11997
   0.15305  -0.24542  -1.11997
   0.15305  -0.24542  -1.11997
   0.15305  -0.24542  -1.11997
   0.39247  -0.48484  -0.88055
   0.39247  -0.48484  -0.88055
   0.39247  -0.24542  -0.88055
   0.39247  -0.24542  -0.88055
   0.39247  -0.00601  -0.88055
   0.39247  -0.00601  -0.64113
   0.63189  -0.00601  -0.64113
   0.63189  -0.00601  -0.64113
   0.87131  -0.24542  -0.64113
   0.87131  -0.24542  -0.64113
   1.11073  -0.24542  -0.40172
   1.11073  -0.24542  -0.40172
   1.11073  -0.24542  -0.40172
   1.11073  -0.24542  -0.40172
   1.11073  -0.48484  -0.40172
   1.35014  -0.24542  -0.16230
   1.11073  -0.24542  -0.16230
   1.35014  -0.00601   0.07712
   1.58956  -0.00601   0.07712
   1.58956  -0.00601   0.07712
   1.58956  -0.24542   0.07712
   1.58956  -0.24542   0.31654
   1.58956  -0.24542   0.31654
   1.58956  -0.24542   0.31654
   1.58956  -0.24542   0.31654
   1.58956  -0.00601   0.31654
   1.82898  -0.00601   0.55596
   1.58956   0.23341   0.55596
   1.82898   0.23341   1.03480
   1.82898   0.23341   1.03480
   1.82898   0.47283   1.03480
   1.82898  -0.00601   1.03480
   1.82898  -0.00601   1.03480
   1.82898  -0.00601   1.27422
   1.82898   0.23341   1.27422
   1.82898   0.23341   1.51364
   1.82898   0.47283   1.75305
   1.82898   0.23341   1.99247
   1.82898   0.47283   1.99247
   1.58956   0.47283   2.23189
   1.58956   0.47283   1.99247
   1.58956   0.47283   1.99247
   1.58956   0.47283   2.23189
   1.58956   0.23341   2.47131
   1.58956   0.47283   2.47131
   1.58956   0.23341   2.95015
   1.58956   0.23341   2.95015
   1.58956   0.47283   3.18957
   1.35014   0.47283   3.18957
   1.35014   0.71225   3.18957
   1.35014   0.71225   3.42899
   1.35014   0.71225   3.42899
   1.35014   0.71225   3.42899
   1.35014   0.71225   3.66841
   1.35014   0.71225   3.42899
   1.35014   0.47283   3.66841
   1.35014   0.47283   3.90782
   1.11073   0.47283   4.14724
   1.11073   0.23341   4.38666
   1.11073   0.47283   4.38666
   1.11073   0.47283   4.38666
   1.11073   0.47283   4.38666
   1.11073   0.71225   4.38666
   1.11073   0.71225   4.38666
   1.11073   0.71225   4.62608
   0.87131   0.71225   4.62608
   0.87131   0.47283   4.86550
   0.87131   0.47283   4.86550
   0.87131   0.47283   4.86550
   0.87131   0.47283   5.10492
   0.87131   0.71225   5.10492
   0.87131   0.47283   5.10492
   0.63189   0.47283   5.10492
   0.63189   0.47283   5.10492
   0.63189   0.47283   5.10492
   0.63189   0.23341   5.10492
   0.63189   0.47283   5.10492
   0.63189   0.23341   5.10492
   0.63189   0.47283   4.86550
   0.39247   0.23341   5.10492
   0.39247   0.23341   5.10492
   0.39247   0.23341   4.86550
   0.39247   0.47283   4.86550
   0.15305   0.23341   4.86550
   0.15305   0.47283   4.86550
   0.15305   0.47283   4.86550
   0.15305   0.47283   4.62608
   0.15305  -0.00601   4.86550
   0.15305  -0.00601   4.86550
   0.15305   0.23341   4.86550
   0.15305  -0.00601   4.86550
   0.15305  -0.00601   4.86550
  -0.08637  -0.24542   4.86550
  -0.08637  -0.24542   4.62608
  -0.08637  -0.24542   4.62608
  -0.08637  -0.24542   4.62608
  -0.08637  -0.24542   4.62608
  -0.08637  -0.00601   4.62608
  -0.08637  -0.00601   4.38666
  -0.08637  -0.00601   4.38666
  -0.32579  -0.00601   4.38666
  -0.32579  -0.00601   4.14724
  -0.32579  -0.24542   4.14724
  -0.56521  -0.24542   4.14724
  -0.56521  -0.24542   4.14724
  -0.56521  -0.48484   4.14724
  -0.56521  -0.24542   4.14724
  -0.80463  -0.24542   3.90782
  -0.80463  -0.24542   3.66841
  -0.80463  -0.24542   3.66841
  -0.80463  -0.48484   3.42899
  -0.80463  -0.48484   3.18957
  -0.80463  -0.48484   3.42899
  -0.80463  -0.48484   3.18957
  -0.80463  -0.48484   3.18957
  -1.04405  -0.24542   3.18957
  -1.04405  -0.48484   2.95015
  -1.04405  -0.24542   2.95015
  -1.04405  -0.24542   2.71073
  -1.04405  -0.24542   2.47131
  -1.04405  -0.24542   2.47131
  -1.04405  -0.24542   2.47131
  -1.04405  -0.24542   2.23189
  -1.28346  -0.48484   1.99247
  -1.28346  -0.48484   2.23189
  -1.28346  -0.48484   1.99247
  -1.52288  -0.24542   1.99247
  -1.28346  -0.24542   1.99247
  -1.28346  -0.00601   1.75305
  -1.28346  -0.24542   1.75305
  -1.28346  -0.00601   1.51364
  -1.28346  -0.00601   1.51364
  -1.28346  -0.48484   1.27422
  -1.28346  -0.24542   1.27422
  -1.28346  -0.48484   1.27422
  -1.28346  -0.24542   1.03480
  -1.28346  -0.24542   1.03480
  -1.52288  -0.24542   1.03480
  -1.52288  -0.24542   0.79538
  -1.52288  -0.00601   0.79538
  -1.28346   0.23341   0.55596
  -1.28346   0.23341   0.55596
  -1.28346   0.23341   0.31654
  -1.28346   0.23341   0.55596
  -1.52288   0.23341   0.31654
  -1.28346   0.23341   0.55596
  -1.28346   0.23341   0.31654
  -1.28346   0.23341   0.55596
  -1.52288   0.23341   0.31654
  -1.28346   0.23341   0.31654
  -1.28346   0.47283   0.31654
  -1.28346   0.23341   0.07712
  -1.28346   0.23341   0.07712
  -1.28346  -0.00601   0.07712
  -1.28346   0.47283   0.07712
  -1.28346   0.71225   0.07712
  -1.28346   0.47283   0.07712
  -1.04405   0.47283  -0.16230
  -1.04405   0.47283  -0.16230
  -1.04405   0.47283   0.07712
  -1.04405   0.47283  -0.16230
  -1.04405   0.47283   0.07712
  -1.04405   0.47283   0.07712
  -1.04405   0.71225   0.07712
  -1.04405   0.71225   0.07712
  -1.04405   0.95167   0.07712
  -1.04405   0.95167   0.07712
  -1.04405   0.71225   0.07712
  -1.04405   0.71225   0.07712
  -1.04405   0.71225   0.07712
  -1.04405   0.71225  -0.16230
  -1.04405   0.47283   0.07712
  -1.04405   0.47283   0.07712
  -1.04405   0.47283   0.07712
  -1.04405   0.71225   0.31654
  -1.04405   0.95167   0.31654
  -1.04405   0.71225   0.31654
  -1.28346   0.71225   0.07712
  -1.04405   0.71225   0.07712
  -1.28346   0.71225   0.07712
  -1.28346   0.71225   0.31654
  -1.28346   0.71225   0.07712
  -1.28346   0.71225   0.31654
  -1.28346   0.71225   0.31654
  -1.52288   0.47283   0.31654
  -1.52288   0.71225   0.31654
  -1.52288   0.71225   0.31654
  -1.52288   0.71225   0.31654
  -1.76230   0.71225   0.55596
  -1.76230   0.95167   0.55596
  -1.76230   0.95167   0.55596
  -2.00172   0.71225   0.55596
  -2.00172   0.47283   0.55596
  -2.00172   0.47283   0.55596
  -2.00172   0.47283   0.55596
  -2.00172   0.47283   0.31654
  -2.24114   0.71225   0.31654
  -2.24114   0.95167   0.31654
  -2.24114   0.95167   0.31654
  -2.24114   0.71225   0.31654
  -2.48056   0.71225   0.31654
  -2.48056   0.71225   0.31654
  -2.48056   0.95167   0.31654
  -2.48056   0.95167   0.31654
  -2.71998   0.95167   0.55596
  -2.48056   0.95167   0.31654
  -2.71998   0.95167   0.31654
  -2.71998   0.95167   0.55596
  -2.71998   0.95167   0.55596
  -2.71998   0.95167   0.55596
  -2.71998   0.95167   0.31654
  -2.71998   0.95167   0.31654
  -2.95940   0.95167   0.31654
  -2.95940   0.95167   0.31654
  -2.71998   0.95167   0.31654
  -2.71998   0.95167   0.31654
  -2.95940   0.95167   0.07712
  -2.71998   0.71225   0.07712
  -2.71998   0.95167   0.07712
  -2.71998   0.71225   0.07712
