********************************************************************************
               CENTRO DE INSTRUMENTACION Y REGISTRO SISMICO  A.C.  
                       Coordinacion de Servicios Tecnicos
     Anaxagoras 814, Col. Narvarte, Benito Juarez, C.P. 03020 Mexico, D.F.
            Tels. 687 45 42/ 687 45  82             Fax. 669 25 12
********************************************************************************
ARCHIVO ESTANDAR DE ACELERACION:
VERSION DEL FORMATO                    : 2.0
NOMBRE DEL ARCHIVO                     : AR149906.151
FECHA Y HORA DE CREACION               : 10/FEBRERO/2000 8:55
REF. CATALOGO ACELEROGRAMAS, SMIS 1996 : REGISTRO No.     /PAG.


================================================================================
DATOS DE LA ESTACION:
NOMBRE DE LA ESTACION                  : ARAGON
CLAVE DE LA ESTACION                   : AR14
LOCALIZACION DE LA ESTACION            : Esc Prim Jose Ordaz Lopez Puebla 2 y
                                       : Baja California, Col Providencia
                                       : Gustavo A. Madero
                                       :
                                       :
COORDENADAS DE LA ESTACION             : 19.481 LAT. N 
                                       : 99.076 LONG. W 
ALTITUD (msnm)                         : 2232
TIPO DE SUELO                          : ARCILLOSO, ZONA LAGO
                                       : 
                                       : 
INSTITUCION RESPONSABLE                : CIRES
                                       :

================================================================================
DATOS DEL ACELEROGRAFO:
MODELO DEL ACELEROGRAFO                : RAD-851
NUMERO DE SERIE DEL ACELEROGRAFO       : 235
NUMERO DE CANALES                      : 3
ORIENTACION C1-C6 (rumbo;orientacion)  : /N00E/+V/N90W
ORIENTACION C7-C12 (rumbo;orientacion) :
VEL. DE MUESTREO, C1-C6 (muestras/s)   : /100/100/100
VEL. DE MUESTREO, C7-C12 (muestras/s)  :
ESC. COMPLETA DE SENSORES, C1-C6, (g)  : /0.5/0.5/0.5
ESC. COMPLETA DE SENSORES, C7-C12, (g) :
FREC. NAT. DE SENSORES, C1-C6, (Hz)    : /30/30/32
FREC. NAT. DE SENSORES, C7-C12, (Hz)   :
AMORTIGUAMIENTO DE SENSORES, C1-C6     : /0.733/0.790/0.750
AMORTIGUAMIENTO DE SENSORES, C7-C12    :
INTERVALO DE MUESTREO, C1-C6, (s)      : /0.01/0.01/0.01
INTERVALO DE MUESTREO, C7-C12, (s)     :
UMBRAL DE DISPARO, C1-C6, (Gal)        : /2.44/3.42/2.44
UMBRAL DE DISPARO, C7-C12, (Gal)       :
MEMORIA DE PREEVENTO (s)               : 16
TIEMPO DE POSEVENTO (s)                : 64


================================================================================
DATOS DEL SISMO:
FECHA DEL SISMO (GMT)                  : 15/JUN/99
HORA EPICENTRO (GMT)                   : 20:42:07.1
MAGNITUD(ES)                           : /Mb=6.4/Ms=6.5/Me=7.0
COORDENADAS DEL EPICENTRO              : 18.18 LAT. N
                                       : 97.51 LONG. W
PROFUNDIDAD FOCAL (km)                 : 69.0
FUENTE DE LOS DATOS EPICENTRALES       : SSN
                                       : INSTITUTO DE GEOFISICA, UNAM

================================================================================
DATOS DE ESTE REGISTRO:
HORA DE LA PRIMERA MUESTRA (GMT)       : 20:42:47.00
EXACTITUD DEL TIEMPO (s)               : 0.01
DURACION DEL REGISTRO (s), C1-C6       : /312.25/312.25/312.25
DURACION DEL REGISTRO (s), C7-C12      :
NUM. TOTAL DE MUESTRAS, C1-C6          : /31225/31225/31225
NUM. TOTAL DE MUESTRAS, C7-C12         :
ACEL. MAX. (Gal), C1-C6                : /23.07641/8.59378/25.70602
ACEL. MAX., C1-C6, EN LA MUESTRA       :
ACEL. MAX. (Gal), C7-C12               :
ACEL. MAX., C7-C12, EN LA MUESTRA      :
UNIDADES DE LOS DATOS                  : Gal (cm/s/s)
FACTOR DE DECIMACION                   : 1
FORMATO DATOS (FORTRAN,10 campos/dato) : 3F10.5


================================================================================
CALIDAD DEL ACELEROGRAMA:
REGISTRO DIGITAL COMPLETO CON TIEMPO ABSOLUTO CORRECTO.


================================================================================
COMENTARIOS:














================================================================================
DATOS DE ACELERACION:
---------+---------+---------+---------+---------+---------+---------+---------+
   CANAL-1   CANAL-2   CANAL-3   CANAL-4   CANAL-5   CANAL-6   CANAL-7   CANAL-8
      N00E        +V      N90W
---------+---------+---------+---------+---------+---------+---------+---------+
[...]
   3.68348   1.70124   3.02425
   4.64115   1.94065   2.54542
   5.11999   2.18007   1.82716
   5.83825   2.41949   1.10890
   6.07767   2.65891   0.39065
   6.55651   2.65891  -0.56703
   6.79592   2.65891  -1.52471
   7.03534   2.89833  -2.24296
   7.03534   2.89833  -3.20064
   7.27476   3.13775  -3.91890
   7.03534   3.37717  -4.87657
   7.27476   3.13775  -5.35541
   6.79592   2.65891  -6.07367
   6.55651   2.41949  -6.31308
   6.07767   2.41949  -7.03134
   5.83825   2.65891  -7.27076
   5.35941   2.89833  -7.51018
   4.64115   3.13775  -7.74960
   4.16232   3.37717  -8.22844
   3.68348   3.37717  -8.70727
   3.20464   3.37717  -8.94669
   2.96522   3.13775  -9.42553
   2.48638   3.13775  -9.66495
   2.48638   3.13775  -9.90437
   2.24697   2.65891 -10.38321
   2.00755   2.41949 -10.86204
   2.00755   1.94065 -11.34088
   2.00755   1.70124 -11.81972
   1.76813   1.46182 -12.53798
   1.52871   1.22240 -13.01682
   1.52871   0.74356 -13.49565
   1.52871   0.26472 -14.45333
   1.52871  -0.69295 -14.93217
   1.52871  -1.17179 -15.41100
   1.28929  -1.65063 -15.88984
   1.28929  -2.12947 -16.36868
   1.28929  -2.36889 -16.84752
   1.28929  -2.84772 -17.08694
   1.28929  -3.32656 -17.32636
   1.28929  -3.56598 -17.56578
   1.28929  -3.56598 -17.80519
   1.28929  -3.56598 -17.80519
   1.28929  -3.56598 -17.80519
   1.52871  -3.32656 -17.80519
   1.52871  -3.32656 -17.80519
   1.76813  -3.32656 -17.80519
   2.24697  -3.32656 -17.56578
   2.48638  -3.56598 -17.32636
   2.96522  -3.80540 -17.08694
   3.20464  -4.04482 -16.84752
   3.68348  -4.04482 -16.60810
   4.16232  -3.56598 -16.36868
   4.64115  -3.08714 -16.12926
   5.11999  -2.60831 -15.65042
   5.59883  -2.36889 -15.65042
   6.07767  -2.12947 -15.17159
   6.79592  -1.89005 -15.17159
   7.27476  -1.41121 -14.45333
   7.75360  -1.17179 -14.21391
   7.75360  -0.69295 -13.73507
   7.99302  -0.45354 -13.49565
   8.23244   0.02530 -13.01682
   7.99302   0.50414 -12.77740
   7.75360   0.74356 -12.29856
   7.27476   0.98298 -12.05914
   6.55651   1.22240 -11.81972
   6.31709   1.22240 -11.58030
   5.59883   1.22240 -11.34088
   5.11999   1.22240 -11.10146
   4.40174   1.46182 -10.86204
   3.68348   1.46182 -10.86204
   3.20464   1.22240 -10.62263
   2.24697   1.22240 -10.62263
   1.28929   0.98298 -10.86204
   0.57103   0.98298 -10.86204
  -0.38664   0.98298 -10.86204
  -1.34432   0.98298 -11.10146
  -2.06258   0.98298 -11.10146
  -3.02025   0.98298 -11.34088
  -3.97793   1.22240 -11.34088
  -4.93560   1.46182 -11.34088
  -5.89328   1.70124 -11.58030
  -6.61154   1.70124 -11.58030
  -7.56921   1.94065 -11.34088
  -8.76631   2.18007 -11.10146
  -9.48456   2.41949 -11.10146
 -10.20282   2.65891 -10.86204
 -10.68166   2.89833 -10.62263
 -11.16050   3.13775 -10.62263
 -11.63933   3.37717 -10.62263
 -11.87875   3.37717 -10.62263
 -11.87875   3.37717 -10.86204
 -11.87875   3.61659 -10.86204
 -11.63933   3.61659 -11.10146
 -11.39991   3.61659 -11.10146
 -10.92108   3.61659 -11.34088
 -10.44224   3.85601 -11.58030
  -9.72398   3.85601 -11.81972
  -9.24514   3.85601 -12.05914
  -8.76631   4.33484 -12.53798
  -8.04805   4.57426 -12.77740
  -7.32979   4.57426 -13.01682
  -6.85095   4.57426 -13.25623
  -6.37212   4.81368 -13.49565
  -5.65386   4.81368 -13.73507
  -5.17502   5.05310 -13.73507
  -4.93560   5.29252 -13.49565
  -4.45677   5.29252 -13.49565
  -3.97793   5.77136 -13.01682
  -3.97793   5.77136 -12.53798
  -3.73851   5.29252 -12.29856
  -3.25967   5.05310 -11.34088
  -3.02025   4.09542 -10.86204
  -2.54141   3.85601 -10.14379
  -2.06258   3.61659  -9.42553
  -1.58374   3.37717  -8.70727
  -1.34432   2.89833  -7.98902
  -0.86548   2.41949  -7.27076
  -0.62606   2.41949  -6.31308
  -0.38664   2.18007  -5.59483
  -0.14722   1.94065  -4.87657
  -0.14722   1.94065  -4.15831
  -0.14722   1.70124  -3.44006
  -0.38664   1.70124  -2.48238
  -0.38664   1.46182  -2.00354
  -0.62606   1.22240  -1.28529
  -1.10490   0.98298  -0.56703
  -1.58374   0.26472   0.39065
  -1.82316  -0.21412   1.10890
  -2.30199  -0.93237   2.06658
  -2.78083  -1.17179   2.78484
  -3.49909  -1.89005   3.98193
  -3.73851  -2.12947   4.46077
  -4.21735  -2.60831   5.65786
  -4.45677  -2.84772   6.61554
  -4.69618  -3.08714   7.57321
  -4.93560  -3.32656   8.53089
  -5.17502  -3.56598   9.72798
  -5.17502  -3.32656  10.68566
  -5.41444  -3.56598  11.40392
  -5.65386  -3.56598  12.36159
  -5.89328  -3.56598  13.31927
  -6.13270  -3.32656  13.55869
  -6.13270  -3.08714  14.27694
  -6.37212  -3.08714  14.75578
  -6.37212  -2.84772  15.23462
  -6.37212  -2.60831  15.47404
  -6.37212  -2.36889  15.71346
  -6.13270  -2.12947  15.95288
  -5.65386  -1.41121  16.19230
  -5.41444  -1.41121  16.19230
  -5.17502  -1.41121  16.19230
  -4.93560  -1.41121  16.19230
  -4.69618  -1.17179  15.71346
  -4.45677  -1.17179  15.47404
  -3.97793  -1.17179  14.99520
  -3.97793  -0.93237  14.51636
  -3.25967  -0.93237  14.03753
  -2.78083  -0.93237  13.31927
  -2.54141  -1.41121  12.60101
  -2.06258  -1.65063  11.88276
  -1.34432  -2.12947  11.16450
  -1.10490  -2.36889  10.44624
  -0.86548  -2.84772   9.72798
  -0.38664  -2.84772   9.24915
  -0.14722  -2.84772   8.53089
   0.09219  -2.60831   7.81263
   0.09219  -2.60831   7.33380
   0.33161  -2.60831   6.61554
   0.57103  -2.12947   6.13670
   0.57103  -1.89005   5.65786
   0.81045  -1.65063   5.41844
   1.04987  -1.65063   5.17902
   1.28929  -1.89005   4.93961
   1.28929  -2.36889   5.17902
   1.76813  -2.84772   5.41844
   2.00755  -3.32656   5.89728
   2.24697  -3.80540   6.37612
   2.24697  -4.04482   6.85496
   2.48638  -4.52366   7.33380
   2.48638  -4.52366   8.05205
   2.96522  -4.52366   8.53089
   3.20464  -4.76308   9.00973
   3.20464  -5.00249   9.48857
   3.44406  -5.24191   9.96740
   3.68348  -5.72075  10.68566
   3.92290  -5.96017  10.92508
   4.16232  -6.19959  11.64334
   4.40174  -6.67843  12.12217
   4.88057  -6.91785  12.60101
   5.11999  -7.15727  13.07985
   5.59883  -7.39668  13.55869
   6.07767  -7.39668  13.79811
   6.55651  -7.39668  14.27694
   6.79592  -7.39668  14.51636
   7.03534  -7.15727  14.75578
   6.79592  -7.15727  14.99520
   6.79592  -7.15727  15.23462
   6.55651  -6.91785  15.47404
   6.31709  -6.43901  15.47404
   5.59883  -6.19959  15.47404
   4.88057  -5.72075  15.47404
   4.16232  -5.24191  15.23462
   3.20464  -5.00249  14.99520
   2.24697  -4.76308  14.51636
   1.28929  -4.76308  14.27694
   0.33161  -4.76308  13.79811
  -0.38664  -4.76308  13.55869
  -1.34432  -4.76308  13.31927
  -2.30199  -4.52366  13.07985
  -2.78083  -4.28424  12.84043
  -3.73851  -3.80540  12.36159
  -4.45677  -3.32656  12.12217
  -5.17502  -2.84772  11.88276
  -5.65386  -1.89005  11.40392
  -6.37212  -0.93237  11.16450
  -6.85095  -0.21412  10.92508
  -7.32979   0.74356  10.44624
  -7.56921   1.22240  10.20682
  -8.28747   1.70124   9.72798
  -8.52689   2.65891   9.48857
  -9.24514   3.13775   9.24915
  -9.72398   3.61659   8.77031
 -10.20282   4.09542   8.29147
 -10.44224   4.57426   7.81263
 -10.92108   5.05310   7.09438
 -11.39991   5.29252   6.37612
 -11.63933   5.53194   5.89728
 -11.63933   5.53194   5.41844
 -11.63933   5.77136   4.93961
 -11.63933   6.01078   4.46077
 -11.39991   6.25020   3.98193
 -11.16050   6.72903   3.50309
 -11.16050   6.72903   3.02425
 -10.68166   6.48961   2.78484
 -10.44224   6.25020   2.54542
 -10.20282   6.01078   2.06658
  -9.96340   5.77136   1.58774
  -9.48456   5.53194   1.34832
  -9.00573   5.29252   1.10890
  -8.52689   5.05310   0.63006
  -7.80863   4.81368   0.39065
  -7.32979   4.81368   0.15123
  -6.61154   4.33484  -0.08819
  -5.89328   4.33484  -0.08819
  -4.93560   4.09542  -0.08819
  -4.45677   4.09542  -0.32761
  -3.49909   4.33484  -0.32761
  -2.78083   4.57426  -0.32761
  -1.58374   4.81368  -0.32761
  -0.86548   4.57426  -0.32761
   0.09219   4.81368  -0.32761
   1.04987   4.81368  -0.56703
   2.24697   4.81368  -0.32761
   2.96522   4.81368  -0.32761
   3.92290   4.81368  -0.08819
   4.64115   4.81368  -0.08819
   5.11999   4.57426   0.15123
   5.83825   4.81368   0.15123
   6.55651   4.81368   0.39065
   7.03534   5.05310   0.15123
   7.51418   4.81368   0.39065
   8.23244   4.81368   0.86948
   8.47186   4.57426   0.86948
   8.47186   4.33484   0.86948
   8.71128   4.09542   1.10890
   8.95070   3.85601   1.34832
   8.95070   3.85601   1.34832
   8.71128   3.85601   1.34832
   8.71128   3.61659   1.34832
   8.71128   3.13775   1.34832
   8.71128   2.89833   1.34832
   8.95070   2.41949   1.34832
   8.95070   2.18007   1.34832
   8.95070   1.46182   1.58774
   8.95070   1.22240   1.58774
   9.19011   0.74356   1.82716
   9.19011   0.26472   1.82716
   9.19011  -0.45354   2.06658
   9.42953  -0.93237   2.06658
   9.42953  -1.65063   2.06658
   9.66895  -2.36889   2.30600
   9.90837  -3.32656   2.30600
   9.90837  -3.80540   2.30600
  10.38721  -4.04482   2.30600
  10.62663  -4.28424   2.30600
  10.62663  -4.52366   2.30600
  10.86605  -5.24191   2.54542
  11.10547  -5.48133   2.54542
  11.34488  -5.48133   2.78484
  11.58430  -5.72075   2.78484
  11.82372  -5.96017   3.02425
  11.82372  -6.19959   3.50309
  11.82372  -6.43901   3.98193
  11.82372  -6.67843   4.22135
  11.82372  -6.67843   4.46077
  11.82372  -6.67843   4.70019
  11.82372  -6.43901   4.93961
  11.82372  -6.43901   5.17902
  11.58430  -6.19959   5.41844
  11.58430  -6.19959   5.41844
  11.58430  -5.96017   5.65786
  11.82372  -5.48133   5.89728
  11.82372  -5.24191   6.13670
  11.82372  -5.00249   6.13670
  12.06314  -4.28424   6.37612
  12.06314  -3.80540   6.13670
  12.54198  -3.08714   6.37612
  12.54198  -2.60831   6.13670
  13.02082  -2.12947   6.13670
  12.78140  -1.89005   5.65786
  12.78140  -1.41121   5.41844
  12.78140  -0.93237   5.17902
  12.54198  -0.21412   4.70019
  12.78140   0.50414   4.70019
  12.54198   0.98298   4.22135
  12.54198   1.46182   3.50309
  12.54198   2.18007   2.78484
  12.30256   2.89833   1.82716
  12.30256   3.37717   0.86948
  12.06314   3.37717  -0.08819
  11.82372   3.61659  -1.04587
  11.58430   3.85601  -2.24296
  11.34488   4.57426  -3.44006
  10.62663   5.05310  -4.63715
   9.90837   5.29252  -5.83425
   9.19011   5.77136  -7.03134
   8.47186   6.01078  -8.22844
   7.27476   6.01078  -9.42553
   6.55651   6.25020 -10.86204
   5.35941   6.25020 -12.05914
   4.40174   6.01078 -13.01682
   3.44406   6.25020 -14.21391
   2.24697   6.25020 -15.41100
   1.04987   6.48961 -16.36868
  -0.14722   6.96845 -17.32636
  -1.34432   6.96845 -18.52345
  -2.54141   6.96845 -19.00229
  -3.25967   7.44729 -19.72055
  -3.97793   7.44729 -20.43880
  -4.93560   7.44729 -20.91764
  -5.41444   7.20787 -21.63590
  -6.13270   6.96845 -22.11474
  -6.61154   6.72903 -22.83299
  -6.85095   6.48961 -23.55125
  -7.32979   6.48961 -24.03009
  -7.56921   6.01078 -24.74834
  -7.80863   6.01078 -25.22718
  -7.80863   5.77136 -25.46660
  -7.32979   5.53194 -25.70602
  -7.32979   5.29252 -25.70602
  -6.61154   4.81368 -25.46660
  -6.13270   4.33484 -25.46660
  -5.41444   3.85601 -24.98776
  -4.69618   3.61659 -24.74834
  -4.21735   3.37717 -24.26951
  -3.49909   2.89833 -23.55125
  -2.78083   2.41949 -22.83299
  -1.82316   2.18007 -22.11474
  -0.86548   1.94065 -20.67822
  -0.14722   1.70124 -19.72055
   0.81045   1.70124 -18.76287
   1.52871   1.46182 -17.08694
   2.00755   0.98298 -15.88984
   2.48638   0.50414 -14.69275
   2.96522   0.02530 -13.49565
   2.72580  -0.69295 -12.53798
   2.72580  -0.93237 -11.58030
   2.72580  -1.41121 -10.14379
   2.72580  -1.65063  -8.94669
   2.96522  -2.12947  -7.51018
   2.96522  -2.36889  -6.31308
   2.72580  -2.84772  -5.35541
   2.72580  -3.08714  -3.91890
   2.48638  -3.56598  -2.96122
   2.72580  -3.80540  -1.76412
   2.48638  -4.04482  -0.80645
   2.24697  -4.04482   0.15123
   2.24697  -4.04482   1.34832
   2.48638  -3.80540   2.54542
   2.48638  -4.04482   3.50309
   2.00755  -4.28424   4.22135
   2.00755  -4.28424   4.70019
   1.76813  -4.52366   5.41844
   1.52871  -4.28424   5.65786
   1.04987  -4.28424   6.13670
   0.81045  -4.28424   6.37612
   0.09219  -4.76308   6.85496
  -0.14722  -5.00249   7.09438
  -0.62606  -5.24191   7.57321
  -1.10490  -5.24191   7.81263
  -1.82316  -5.24191   8.29147
  -2.06258  -4.76308   8.29147
  -2.78083  -4.76308   8.53089
  -3.02025  -4.52366   8.53089
  -3.49909  -4.28424   8.77031
  -3.97793  -4.28424   8.77031
  -3.97793  -4.04482   8.77031
  -4.45677  -4.04482   9.00973
  -4.45677  -3.56598   9.24915
  -4.45677  -3.56598   9.24915
  -4.45677  -3.08714   9.72798
  -4.21735  -2.84772   9.96740
  -4.45677  -2.60831  10.44624
  -4.45677  -2.12947  10.92508
  -4.21735  -1.65063  11.40392
  -4.21735  -1.65063  11.64334
  -4.21735  -1.17179  11.88276
  -3.97793  -1.17179  12.12217
  -3.73851  -1.17179  12.60101
  -3.49909  -1.17179  12.60101
  -3.25967  -1.41121  12.60101
  -2.54141  -1.65063  12.60101
  -2.30199  -1.89005  12.36159
  -1.82316  -1.65063  11.88276
  -1.34432  -1.41121  11.64334
  -0.86548  -1.65063  11.16450
  -0.38664  -1.65063  10.68566
  -0.14722  -1.65063  10.20682
   0.33161  -1.89005   9.48857
   1.04987  -2.12947   9.00973
   1.52871  -2.12947   8.53089
   1.76813  -2.36889   7.57321
   2.00755  -2.36889   7.09438
   2.72580  -2.12947   6.37612
   3.20464  -2.36889   5.65786
   3.68348  -2.60831   4.93961
   4.16232  -2.60831   4.70019
   4.16232  -2.84772   3.74251
   4.64115  -3.08714   3.26367
   4.88057  -3.32656   2.54542
   5.35941  -3.56598   2.06658
   5.59883  -3.56598   1.34832
   5.83825  -3.80540   0.63006
   6.07767  -4.04482  -0.08819
   6.07767  -4.04482  -0.80645
   6.07767  -4.28424  -1.76412
   6.31709  -4.28424  -2.48238
   6.07767  -4.04482  -3.20064
   6.07767  -3.80540  -4.15831
   6.07767  -3.32656  -4.87657
   5.83825  -2.84772  -5.83425
   5.83825  -2.36889  -6.55250
   5.83825  -1.89005  -7.27076
   5.83825  -1.41121  -8.22844
   6.07767  -0.93237  -8.70727
   6.07767  -0.69295  -9.42553
   6.07767  -0.21412  -9.66495
   6.07767   0.02530 -10.14379
   6.07767   0.02530 -10.38321
   6.07767   0.50414 -10.14379
   6.07767   0.98298 -10.14379
   6.07767   1.22240  -9.66495
   6.07767   1.70124  -9.66495
   5.59883   2.18007  -9.18611
   5.11999   2.65891  -8.94669
   4.88057   2.65891  -8.70727
   4.40174   2.65891  -8.22844
   4.16232   2.89833  -7.98902
   3.44406   3.13775  -7.74960
   2.72580   3.37717  -7.27076
   2.00755   3.61659  -7.03134
   1.28929   4.09542  -6.79192
   0.33161   4.33484  -6.79192
  -0.38664   4.81368  -6.31308
  -1.10490   5.29252  -6.31308
  -2.06258   5.53194  -6.07367
  -2.78083   5.77136  -5.83425
  -3.73851   6.01078  -5.59483
  -4.45677   6.25020  -5.11599
  -5.17502   6.48961  -4.63715
  -6.13270   6.48961  -3.91890
  -6.85095   6.72903  -3.44006
  -7.56921   6.48961  -2.72180
  -8.52689   6.48961  -2.24296
  -9.24514   6.72903  -1.04587
  -9.72398   6.96845  -0.08819
 -10.20282   6.96845   1.10890
 -10.68166   6.72903   2.06658
 -11.16050   6.01078   3.26367
 -11.16050   5.77136   4.46077
 -11.39991   5.05310   5.41844
 -11.39991   4.57426   6.61554
 -11.39991   4.57426   7.81263
 -11.63933   4.09542   8.29147
 -11.63933   3.61659   9.00973
 -11.63933   3.37717   9.48857
 -11.87875   2.65891   9.96740
 -11.87875   1.94065  10.20682
 -12.11817   1.46182  10.44624
 -11.87875   0.98298  10.44624
 -12.11817   0.26472  10.20682
 -12.11817  -0.21412  10.44624
 -11.87875  -0.93237  10.44624
 -12.11817  -1.17179  10.44624
 -12.11817  -1.65063  10.68566
 -12.11817  -1.89005  11.16450
 -12.11817  -2.60831  10.92508
 -12.35759  -3.08714  11.16450
