********************************************************************************
               CENTRO DE INSTRUMENTACION Y REGISTRO SISMICO  A.C.  
                       Coordinacion de Servicios Tecnicos
     Anaxagoras 814, Col. Narvarte, Benito Juarez, C.P. 03020 Mexico, D.F.
            Tels. 687 45 42/ 687 45  82             Fax. 669 25 12
********************************************************************************
ARCHIVO ESTANDAR DE ACELERACION:
VERSION DEL FORMATO                    : 2.0
NOMBRE DEL ARCHIVO                     : AR149005.311
FECHA Y HORA DE CREACION               : ABRIL 18, 1996/17:07
REF. CATALOGO ACELEROGRAMAS, SMIS 1995 : REGISTRO No. 2188 /PAG. 214


================================================================================
DATOS DE LA ESTACION:
NOMBRE DE LA ESTACION                  : ARAGON
CLAVE DE LA ESTACION                   : AR14
LOCALIZACION DE LA ESTACION            : Esc Prim Jose Ordaz Lopez Puebla 2 y
                                       : Baja California, Col Providencia
                                       : Gustavo A. Madero
                                       :
                                       :
COORDENADAS DE LA ESTACION             : 19.481 LAT. N 
                                       : 99.076 LONG. W 
ALTITUD (msnm)                         : 2232
TIPO DE SUELO                          : ARCILLOSO, ZONA LAGO
                                       : 
                                       : 
INSTITUCION RESPONSABLE                : CIRES
                                       :

================================================================================
DATOS DEL ACELEROGRAFO:
MODELO DEL ACELEROGRAFO                : DCA-333
NUMERO DE SERIE DEL ACELEROGRAFO       : 235
NUMERO DE CANALES                      : 3
ORIENTACION C1-C6 (rumbo;orientacion)  : /N00E/+V/N90W
ORIENTACION C7-C12 (rumbo;orientacion) :
VEL. DE MUESTREO, C1-C6 (muestras/s)   : /100/100/100
VEL. DE MUESTREO, C7-C12 (muestras/s)  :
ESC. COMPLETA DE SENSORES, C1-C6, (g)  : /0.5/0.5/0.5
ESC. COMPLETA DE SENSORES, C7-C12, (g) :
FREC. NAT. DE SENSORES, C1-C6, (Hz)    : /30/30/30
FREC. NAT. DE SENSORES, C7-C12, (Hz)   :
AMORTIGUAMIENTO DE SENSORES, C1-C6     : /0.700/0.700/0.700
AMORTIGUAMIENTO DE SENSORES, C7-C12    :
INTERVALO DE MUESTREO, C1-C6, (s)      : /0.01/0.01/0.01
INTERVALO DE MUESTREO, C7-C12, (s)     :
UMBRAL DE DISPARO, C1-C6, (Gal)        : /4.4/4.4/4.4
UMBRAL DE DISPARO, C7-C12, (Gal)       :
MEMORIA DE PREEVENTO (s)               : 4
TIEMPO DE POSEVENTO (s)                : 15


================================================================================
DATOS DEL SISMO:
FECHA DEL SISMO (GMT)                  : 31/MAY/90
HORA EPICENTRO (GMT)                   : 07:35:26,9 
MAGNITUD(ES)                           : /Mb=5.80/Ms=5.90/Mc=5.50
COORDENADAS DEL EPICENTRO              : 17.106 LAT. N 
                                       : 100.893 LONG. W
PROFUNDIDAD FOCAL (km)                 : 15.8 
FUENTE DE LOS DATOS EPICENTRALES       : INSTITUTO DE INGENIERIA UNAM
                                       : 

================================================================================
DATOS DE ESTE REGISTRO:
HORA DE LA PRIMERA MUESTRA (GMT)       : 07:35:32.64
EXACTITUD DEL TIEMPO (s)               : 0.01
DURACION DEL REGISTRO (s), C1-C6       : /48.93/48.93/48.93
DURACION DEL REGISTRO (s), C7-C12      :
NUM. TOTAL DE MUESTRAS, C1-C6          : /4893/4893/4893
NUM. TOTAL DE MUESTRAS, C7-C12         :
ACEL. MAX. (Gal), C1-C6                : /7.11/2.38/6.20
ACEL. MAX., C1-C6, EN LA MUESTRA       :
ACEL. MAX. (Gal), C7-C12               :
ACEL. MAX., C7-C12, EN LA MUESTRA      :
UNIDADES DE LOS DATOS                  : Gal (cm/s/s)
FACTOR DE DECIMACION                   : 1
FORMATO DATOS (FORTRAN,10 campos/dato) : 3F10.2


================================================================================
CALIDAD DEL ACELEROGRAMA:
REGISTRO DIGITAL AL QUE FALTA UNA PARTE AL INICIO, CON TIEMPO
ABSOLUTO.

================================================================================
COMENTARIOS:














================================================================================
DATOS DE ACELERACION:
---------+---------+---------+---------+---------+---------+---------+---------+
   CANAL-1   CANAL-2   CANAL-3   CANAL-4   CANAL-5   CANAL-6   CANAL-7   CANAL-8
      N00E        +V      N90W
---------+---------+---------+---------+---------+---------+---------+---------+
[...]
      1.03      0.73      0.74
      0.79      0.73      0.74
      0.55      0.49      0.98
      0.55      0.49      0.98
      0.31      0.49      0.98
      0.31      0.25      0.98
      0.07      0.01      0.98
      0.07      0.01      1.22
      0.07      0.01      1.22
      0.07     -0.23      1.22
     -0.17     -0.23      1.22
      0.07     -0.23      1.22
     -0.17     -0.47      1.46
     -0.17     -0.47      1.46
     -0.17     -0.71      1.46
     -0.17     -0.47      1.46
     -0.17     -0.95      1.46
     -0.17     -0.95      1.70
      0.07     -0.95      1.70
      0.07     -1.19      1.70
      0.07     -1.19      1.70
      0.07     -1.43      1.70
      0.31     -1.43      1.70
      0.31     -1.43      1.70
      0.31     -1.43      1.70
      0.55     -1.43      1.70
      0.55     -1.43      1.70
      0.79     -1.67      1.46
      1.03     -1.67      1.46
      1.03     -1.67      1.46
      1.03     -1.67      1.22
      1.27     -1.91      1.22
      1.50     -1.91      1.22
      1.74     -1.91      0.98
      1.74     -1.91      0.98
      1.98     -1.91      0.98
      2.22     -2.15      0.74
      2.46     -2.15      0.74
      2.46     -2.15      0.74
      2.70     -2.38      0.50
      2.94     -2.15      0.50
      2.94     -2.15      0.50
      3.18     -2.15      0.26
      3.18     -2.15      0.26
      3.18     -2.15      0.02
      3.18     -2.15      0.02
      3.18     -2.15      0.02
      3.18     -2.15     -0.22
      3.18     -1.91     -0.22
      3.18     -1.91     -0.22
      3.18     -1.91     -0.46
      3.18     -1.91     -0.46
      2.94     -1.67     -0.70
      2.94     -1.67     -0.70
      2.94     -1.43     -0.93
      2.70     -1.43     -0.93
      2.70     -1.43     -0.93
      2.70     -1.19     -1.17
      2.46     -0.95     -1.17
      2.46     -0.95     -1.17
      2.22     -0.71     -1.17
      1.98     -0.47     -1.17
      1.74     -0.23     -0.93
      1.74     -0.23     -0.93
      1.27      0.01     -0.93
      1.27      0.01     -0.93
      1.03      0.25     -0.93
      1.03      0.49     -0.93
      0.79      0.49     -0.93
      0.55      0.73     -0.93
      0.31      0.73     -0.93
      0.07      0.73     -0.93
     -0.17      0.73     -1.17
     -0.17      0.73     -0.93
     -0.17      0.73     -1.17
     -0.41      0.73     -1.17
     -0.41      0.73     -1.17
     -0.41      0.73     -1.17
     -0.65      0.73     -1.41
     -0.65      0.97     -1.41
     -0.65      0.97     -1.65
     -0.65      0.97     -1.65
     -0.65      0.73     -1.65
     -0.65      0.97     -1.89
     -0.65      0.97     -2.13
     -0.65      0.97     -1.89
     -0.41      0.97     -1.89
     -0.41      0.97     -2.37
     -0.41      0.73     -2.13
     -0.17      0.73     -2.13
     -0.17      0.73     -2.13
     -0.17      0.73     -2.37
     -0.17      0.49     -2.13
     -0.17      0.49     -2.13
      0.07      0.49     -2.13
      0.07      0.49     -1.89
      0.31      0.49     -1.89
      0.31      0.25     -1.89
      0.31      0.73     -1.89
      0.31      0.25     -1.65
      0.55      0.25     -1.41
      0.31      0.25     -1.41
      0.31      0.01     -1.17
      0.31      0.01     -0.93
      0.31      0.01     -0.70
      0.31      0.01     -0.70
      0.07      0.01     -0.22
      0.07     -0.23     -0.22
      0.07     -0.23     -0.22
      0.07     -0.23      0.02
     -0.17     -0.23      0.26
     -0.17      0.01      0.26
     -0.17     -0.23      0.50
     -0.41      0.01      0.74
     -0.41     -0.23      0.98
     -0.65      0.01      1.22
     -0.65      0.01      1.46
     -0.65      0.01      1.70
     -0.65     -0.23      1.94
     -0.65      0.01      1.94
     -0.89      0.01      2.18
     -0.89      0.01      2.18
     -0.89      0.01      2.42
     -0.89      0.25      2.42
     -0.89      0.25      2.42
     -0.89      0.01      2.42
     -0.89      0.25      2.42
     -0.89      0.25      2.42
     -1.13      0.25      2.66
     -0.89      0.25      2.66
     -1.13      0.49      2.42
     -0.89      0.25      2.66
     -0.89      0.25      2.66
     -0.65      0.25      2.66
     -0.65      0.49      2.66
     -0.41      0.49      2.66
     -0.17      0.49      2.66
     -0.17      0.49      2.66
      0.07      0.73      2.66
      0.31      0.73      2.66
      0.55      0.73      2.42
      0.55      0.73      2.66
      1.03      0.73      2.66
      1.03      0.73      2.42
      1.27      0.73      2.42
      1.27      0.73      2.42
      1.50      0.73      2.42
      1.50      1.21      2.42
      1.74      0.73      2.42
      1.98      0.73      2.42
      1.98      0.73      2.42
      2.22      0.73      2.42
      2.22      0.73      2.42
      2.46      0.97      2.42
      2.70      0.97      2.42
      2.70      0.73      2.18
      2.94      0.49      2.18
      3.18      0.49      2.18
      3.18      0.49      1.94
      3.42      0.49      1.94
      3.66      0.49      1.94
      3.66      0.25      1.94
      3.90      0.25      1.94
      3.90      0.25      1.94
      4.14      0.25      2.18
      4.14      0.25      2.18
      4.14      0.01      2.18
      4.14      0.01      2.18
      4.38      0.01      2.42
      4.14      0.01      2.66
      4.14      0.01      2.66
      4.14     -0.23      2.66
      4.14     -0.23      2.90
      4.14     -0.23      2.90
      3.90     -0.23      2.90
      3.90     -0.23      2.90
      3.66     -0.23      3.14
      3.66     -0.23      3.14
      3.42     -0.23      3.14
      3.42     -0.23      3.14
      3.42     -0.47      3.14
      3.42     -0.47      3.14
      3.42     -0.47      3.14
      3.42     -0.71      3.14
      3.18     -0.71      3.14
      3.18     -0.71      2.90
      3.42     -0.71      2.90
      3.18     -0.71      2.90
      3.18     -0.95      2.90
      3.18     -0.95      2.90
      3.18     -0.47      2.90
      3.18     -0.71      2.90
      2.94     -0.95      2.66
      2.70     -0.71      2.66
      2.70     -0.95      2.66
      2.70     -0.95      2.42
      2.46     -0.95      2.42
      2.46     -0.95      2.18
      2.22     -0.95      2.18
      1.98     -0.71      1.94
      1.98     -0.95      1.70
      1.98     -0.95      1.46
      1.74     -0.95      1.22
      1.74     -0.71      0.98
      1.74     -0.95      0.74
      1.50     -0.71      0.50
      1.27     -0.71      0.26
      1.27     -0.95      0.02
      1.27     -0.71     -0.22
      1.27     -0.71     -0.46
      1.03     -0.71     -0.46
      1.03     -0.71     -0.70
      1.03     -0.71     -0.70
      0.79     -0.47     -0.93
      0.55     -0.47     -1.41
      0.55     -0.47     -0.93
      0.55     -0.47     -1.17
      0.31      0.01     -1.17
      0.31     -0.23     -1.41
      0.07      0.01     -1.17
     -0.17      0.01     -1.17
     -0.17      0.01     -1.17
     -0.41      0.01     -1.41
     -0.65      0.01     -1.41
     -0.89      0.01     -1.41
     -1.13      0.25     -1.41
     -1.37      0.01     -1.41
     -1.61      0.01     -1.41
     -1.85      0.01     -1.65
     -1.85      0.01     -1.41
     -2.09      0.25     -1.41
     -2.57      0.01     -1.65
     -2.57      0.25     -1.65
     -2.80      0.49     -1.41
     -3.04      0.49     -1.41
     -3.28      0.49     -1.41
     -3.52      0.73     -1.41
     -3.52      0.73     -1.41
     -3.52      0.97     -1.17
     -3.76      0.97     -1.17
     -3.76      0.73     -1.17
     -4.00      0.97     -1.17
     -4.00      1.21     -1.17
     -4.00      1.21     -1.17
     -4.24      1.45     -1.17
     -4.24      1.45     -1.17
     -4.24      1.21     -1.41
     -4.48      1.21     -1.41
     -4.48      1.21     -1.17
     -4.72      1.45     -1.65
     -4.48      1.21     -1.41
     -4.48      1.45     -1.65
     -4.24      1.45     -1.65
     -4.48      1.45     -1.65
     -4.24      1.45     -1.89
     -4.24      1.45     -1.65
     -4.00      1.45     -2.13
     -4.00      1.45     -1.89
     -3.76      1.45     -1.89
     -3.76      1.45     -1.89
     -3.52      1.45     -1.89
     -3.04      1.45     -1.89
     -2.80      1.21     -1.89
     -2.57      1.45     -1.65
     -2.33      1.21     -1.65
     -2.09      1.21     -1.41
     -1.85      1.21     -1.17
     -1.85      1.21     -1.17
     -1.37      0.97     -0.93
     -1.13      0.97     -0.70
     -0.89      0.97     -0.22
     -0.89      0.97     -0.22
     -0.89      0.97      0.02
     -0.41      0.97      0.26
     -0.41      0.97      0.26
     -0.17      0.73      0.50
     -0.17      0.73      0.74
      0.07      0.73      0.98
      0.07      0.73      1.22
      0.31      0.73      1.46
      0.31      0.73      1.70
      0.31      0.49      1.94
      0.55      0.49      1.94
      0.55      0.49      2.18
      0.55      0.25      2.42
      0.55      0.25      2.42
      0.79      0.25      2.66
      1.03      0.01      2.66
      1.03      0.01      2.90
      1.03      0.01      2.90
      1.03     -0.23      3.14
      1.03     -0.23      3.14
      1.03     -0.23      2.90
      1.27     -0.47      3.37
      1.27     -0.71      3.37
      1.27     -0.71      3.37
      1.50     -0.71      3.37
      1.50     -0.71      2.90
      1.50     -0.95      3.37
      1.50     -0.95      3.37
      1.74     -1.19      3.14
      1.74     -0.95      3.14
      1.74     -1.19      2.90
      1.74     -1.19      2.66
      1.74     -1.19      2.66
      1.74     -1.19      2.18
      1.74     -1.19      1.94
      1.50     -1.43      1.70
      1.50     -1.43      1.46
      1.27     -1.43      1.22
      1.27     -1.19      0.98
      1.27     -1.19      0.50
      1.03     -1.19      0.26
      1.03     -0.95     -0.22
      1.03     -1.19     -0.22
      0.55     -1.19     -0.70
      0.55     -1.19     -1.17
      0.55     -0.95     -1.65
      0.31     -0.95     -1.65
      0.07     -0.71     -1.89
     -0.41     -0.71     -2.37
     -0.65     -0.71     -2.85
     -0.89     -0.71     -2.85
     -1.13     -0.47     -3.33
     -1.37     -0.71     -3.57
     -1.85     -0.47     -3.57
     -2.33     -0.23     -3.81
     -2.33     -0.47     -4.05
     -2.80     -0.23     -4.29
     -3.04     -0.23     -4.29
     -3.28     -0.23     -4.53
     -3.76     -0.23     -4.77
     -4.00     -0.23     -4.77
     -4.24     -0.23     -5.01
     -4.48     -0.23     -5.01
     -4.96     -0.23     -5.24
     -5.20      0.01     -5.24
     -5.44      0.01     -5.24
     -5.68      0.01     -5.24
     -5.92      0.01     -5.48
     -6.16      0.25     -5.48
     -6.16      0.01     -5.48
     -6.40      0.25     -5.48
     -6.40      0.25     -5.72
     -6.87      0.25     -5.48
     -6.64      0.25     -5.48
     -6.87      0.25     -5.24
     -6.87      0.25     -5.24
     -6.87      0.25     -5.24
     -7.11      0.25     -5.01
     -7.11      0.25     -5.01
     -7.11      0.25     -5.01
     -7.11      0.49     -4.77
     -7.11      0.25     -4.53
     -6.87      0.25     -4.29
     -6.87      0.25     -4.29
     -6.64      0.25     -4.05
     -6.40      0.25     -3.81
     -6.40      0.25     -3.57
     -6.16      0.25     -3.33
     -5.92      0.25     -3.09
     -5.68      0.25     -2.85
     -5.44      0.01     -2.61
     -4.96      0.25     -2.13
     -4.96      0.01     -2.13
     -4.72      0.01     -1.65
     -4.24      0.01     -1.65
     -4.00      0.25     -1.41
     -3.76      0.25     -1.17
     -3.52      0.01     -0.93
     -3.28      0.25     -0.70
     -3.04      0.25     -0.70
     -2.80      0.25     -0.22
     -2.80      0.25     -0.22
     -2.57      0.25     -0.22
     -2.33      0.25      0.02
     -2.33      0.25      0.02
     -2.09      0.25      0.26
     -1.85      0.25      0.50
     -1.61      0.25      0.50
     -1.37      0.25      0.50
     -1.13      0.25      0.74
     -0.89      0.25      0.98
     -0.65      0.01      0.98
     -0.41      0.25      1.22
     -0.17      0.25      1.46
      0.07      0.25      1.46
      0.31      0.25      1.46
      0.55      0.25      1.70
      0.79      0.01      1.70
      1.03      0.01      1.94
      1.03      0.01      1.94
      1.27      0.01      2.18
      1.50      0.01      2.42
      1.50      0.01      2.42
      1.74      0.01      2.42
      1.98      0.01      2.42
      1.98      0.01      2.66
      2.22      0.01      2.66
      2.22     -0.23      2.66
      2.22     -0.23      2.66
      2.46     -0.23      2.66
      2.46     -0.23      2.90
      2.46     -0.47      2.90
      2.70     -0.47      2.90
      2.70     -0.47      2.90
      2.70     -0.47      2.90
      2.94     -0.23      2.66
      2.94     -0.47      2.66
      2.70     -0.23      2.66
      2.94     -0.23      2.66
      2.94     -0.47      2.66
      3.18     -0.23      2.66
      3.18     -0.47      2.66
      3.18     -0.23      2.42
      3.18     -0.23      2.42
      3.18     -0.47      2.42
      3.18     -0.47      2.18
      3.18     -0.47      1.94
      3.18     -0.23      1.94
      3.18     -0.23      1.70
      3.18     -0.23      1.46
      3.18     -0.23      1.46
      2.94     -0.23      1.22
      2.94     -0.23      0.98
      2.94     -0.23      0.98
      2.70      0.01      0.50
      2.70      0.01      0.50
      2.46      0.01      0.50
      2.46      0.01      0.26
      2.46      0.01      0.02
      2.22     -0.23     -0.22
      2.22      0.01     -0.22
      1.98      0.25     -0.22
      1.74      0.25     -0.22
      1.74      0.25     -0.22
      1.27      0.25     -0.46
      1.27      0.25     -0.46
      1.03      0.25     -0.70
      1.03      0.25     -0.70
      0.79      0.25     -0.93
      0.55      0.25     -0.93
      0.31      0.49     -0.93
      0.07      0.49     -1.17
     -0.17      0.25     -1.17
     -0.41      0.49     -1.41
     -0.41      0.49     -1.41
     -0.65      0.49     -1.41
     -0.89      0.49     -1.65
     -0.89      0.49     -1.65
     -1.13      0.49     -1.89
     -1.37      0.49     -1.89
     -1.37      0.73     -2.13
     -1.37      0.49     -2.13
     -1.37      0.49     -2.13
     -1.61      0.49     -2.37
     -1.37      0.49     -2.37
     -1.37      0.49     -2.37
     -1.37      0.73     -2.61
     -1.37      0.49     -2.61
     -1.37      0.49     -2.61
     -1.13      0.49     -2.61
     -0.89      0.49     -2.61
     -0.89      0.49     -2.61
     -0.65      0.49     -2.37
     -0.41      0.49     -2.61
     -0.17      0.49     -2.37
      0.07      0.25     -2.37
      0.31      0.25     -2.37
      0.31      0.01     -2.13
      0.55      0.25     -2.13
      1.03      0.25     -2.13
      1.03      0.25     -2.13
      1.27      0.25     -2.13
      1.50      0.25     -2.13
      1.50      0.25     -2.13
      1.74      0.01     -1.89
      1.98      0.25     -1.89
      1.98      0.01     -1.89
      2.22      0.01     -1.65
      2.46      0.01     -1.65
      2.46     -0.23     -1.65
      2.70      0.01     -1.41
      2.70     -0.23     -1.41
      2.94     -0.47     -1.17
      2.94     -0.23     -0.93
      3.18     -0.23     -0.70
      3.42     -0.23     -0.46
      3.42     -0.47     -0.22
      3.42     -0.47     -0.22
      3.66     -0.47      0.02
      3.66     -0.47      0.26
      3.66     -0.47      0.50
      3.90     -0.47      0.74
      3.66     -0.71      0.74
      3.66     -0.71      0.98
      3.66     -0.71      0.98
      3.66     -0.71      1.22
      3.66     -0.71      1.22
