********************************************************************************
               CENTRO DE INSTRUMENTACION Y REGISTRO SISMICO  A.C.  
                       Coordinacion de Servicios Tecnicos
     Anaxagoras 814, Col. Narvarte, Benito Juarez, C.P. 03020 Mexico, D.F.
            Tels. 687 45 42/ 687 45  82             Fax. 669 25 12
********************************************************************************
ARCHIVO ESTANDAR DE ACELERACION:
VERSION DEL FORMATO                    : 2.0
NOMBRE DEL ARCHIVO                     : AR140401.011
FECHA Y HORA DE CREACION               : 08/NOV/04, 10:00
REF. CATALOGO ACELEROGRAMAS, SMIS 1996 : REGISTRO No.     /PAG.


================================================================================
DATOS DE LA ESTACION:
NOMBRE DE LA ESTACION                  : ARAGON
CLAVE DE LA ESTACION                   : AR14
LOCALIZACION DE LA ESTACION            : Esc Prim Jose Ordaz Lopez Puebla 2 y
                                       : Baja California, Col Providencia
                                       : Gustavo A. Madero
                                       :
                                       :
COORDENADAS DE LA ESTACION             : 19.481 LAT. N 
                                       : 99.076 LONG. W 
ALTITUD (msnm)                         : 2232
TIPO DE SUELO                          : ARCILLOSO, ZONA LAGO
                                       : 
                                       : 
INSTITUCION RESPONSABLE                : CIRES
                                       :

================================================================================
DATOS DEL ACELEROGRAFO:
MODELO DEL ACELEROGRAFO                : RAD-851
NUMERO DE SERIE DEL ACELEROGRAFO       : 235
NUMERO DE CANALES                      : 3
ORIENTACION C1-C6 (rumbo;orientacion)  : /N00E/+V/N90W
ORIENTACION C7-C12 (rumbo;orientacion) :
VEL. DE MUESTREO, C1-C6 (muestras/s)   : /100/100/100
VEL. DE MUESTREO, C7-C12 (muestras/s)  :
ESC. COMPLETA DE SENSORES, C1-C6, (g)  : /0.5/0.5/0.5
ESC. COMPLETA DE SENSORES, C7-C12, (g) :
FREC. NAT. DE SENSORES, C1-C6, (Hz)    : /30/30/32
FREC. NAT. DE SENSORES, C7-C12, (Hz)   :
AMORTIGUAMIENTO DE SENSORES, C1-C6     : /0.733/0.790/0.750
AMORTIGUAMIENTO DE SENSORES, C7-C12    :
INTERVALO DE MUESTREO, C1-C6, (s)      : /0.01/0.01/0.01
INTERVALO DE MUESTREO, C7-C12, (s)     :
UMBRAL DE DISPARO, C1-C6, (Gal)        : /1.95/3.42/1.95
UMBRAL DE DISPARO, C7-C12, (Gal)       :
MEMORIA DE PREEVENTO (s)               : 16
TIEMPO DE POSEVENTO (s)                : 64


================================================================================
DATOS DEL SISMO:
FECHA DEL SISMO (GMT)                  : 01/ENE/04
HORA EPICENTRO (GMT)                   : 23:31:49:0
MAGNITUD(ES)                           : /Ms=6.3
COORDENADAS DEL EPICENTRO              : 17.31 LAT. N
                                       : -101.42 LONG. W
PROFUNDIDAD FOCAL (km)                 : 10.0
FUENTE DE LOS DATOS EPICENTRALES       : SSN
                                       : INSTITUTO DE GEOFISICA, UNAM

================================================================================
DATOS DE ESTE REGISTRO:
HORA DE LA PRIMERA MUESTRA (GMT)       : 23:33:30.00
EXACTITUD DEL TIEMPO (s)               :     
DURACION DEL REGISTRO (s), C1-C6       : /143.25/143.25/143.25
DURACION DEL REGISTRO (s), C7-C12      :
NUM. TOTAL DE MUESTRAS, C1-C6          : /14325/14325/14325
NUM. TOTAL DE MUESTRAS, C7-C12         :
ACEL. MAX. (Gal), C1-C6                : /6.08311/-1.61919/5.13120
ACEL. MAX., C1-C6, EN LA MUESTRA       :
ACEL. MAX. (Gal), C7-C12               :
ACEL. MAX., C7-C12, EN LA MUESTRA      :
UNIDADES DE LOS DATOS                  : Gal (cm/s/s)
FACTOR DE DECIMACION                   : 1
FORMATO DATOS (FORTRAN,10 campos/dato) : 3F10.5


================================================================================
CALIDAD DEL ACELEROGRAMA:
REGISTRO DIGITAL COMPLETO, CARECE DE TIEMPO ABSOLUTO.


================================================================================
COMENTARIOS:














================================================================================
DATOS DE ACELERACION:
---------+---------+---------+---------+---------+---------+---------+---------+
   CANAL-1   CANAL-2   CANAL-3   CANAL-4   CANAL-5   CANAL-6   CANAL-7   CANAL-8
      N00E        +V      N90W
---------+---------+---------+---------+---------+---------+---------+---------+
[...]
  -0.62062   0.77500  -0.13601
  -0.62062   0.77500   0.10341
  -0.62062   0.77500   0.58224
  -0.86004   0.77500   0.82166
  -1.09946   0.77500   1.06108
  -1.09946   0.77500   1.30050
  -1.09946   0.53558   1.53992
  -1.33887   0.53558   1.77934
  -1.33887   0.29616   2.25818
  -1.33887   0.29616   2.73701
  -1.33887   0.29616   2.73701
  -1.57829   0.29616   3.21585
  -1.57829   0.29616   3.21585
  -1.57829   0.05674   3.45527
  -1.57829   0.05674   3.69469
  -1.57829   0.05674   3.93411
  -1.57829  -0.18268   4.17353
  -1.57829  -0.18268   4.41295
  -1.57829  -0.18268   4.65237
  -1.57829  -0.42210   4.65237
  -1.33887  -0.42210   4.89178
  -1.33887  -0.42210   4.89178
  -1.09946  -0.66151   5.13120
  -1.09946  -0.66151   5.13120
  -1.09946  -0.66151   5.13120
  -0.86004  -0.66151   5.13120
  -0.62062  -0.66151   4.89178
  -0.38120  -0.90093   4.89178
  -0.14178  -0.90093   4.89178
  -0.14178  -0.90093   4.65237
   0.09764  -0.66151   4.65237
   0.33706  -0.90093   4.41295
   0.33706  -0.66151   4.17353
   0.57648  -0.66151   3.93411
   1.05532  -0.66151   3.93411
   1.05532  -0.66151   3.69469
   1.29473  -0.66151   3.69469
   1.29473  -0.66151   3.45527
   1.29473  -0.42210   3.21585
   1.53415  -0.42210   2.97643
   1.77357  -0.42210   2.97643
   1.77357  -0.42210   2.73701
   2.01299  -0.42210   2.49760
   2.01299  -0.42210   2.49760
   2.01299  -0.18268   2.25818
   2.01299  -0.18268   2.25818
   2.01299  -0.18268   2.25818
   2.01299  -0.42210   2.01876
   2.25241  -0.42210   1.77934
   2.25241  -0.42210   1.77934
   2.25241  -0.42210   1.53992
   2.25241  -0.42210   1.53992
   2.25241  -0.42210   1.53992
   2.49183  -0.42210   1.30050
   2.25241  -0.42210   1.30050
   2.25241  -0.18268   1.30050
   2.25241  -0.42210   1.30050
   2.49183  -0.42210   1.06108
   2.49183  -0.42210   1.06108
   2.49183  -0.42210   1.30050
   2.49183  -0.42210   1.30050
   2.49183  -0.42210   1.30050
   2.49183  -0.66151   1.30050
   2.49183  -0.66151   1.30050
   2.49183  -0.42210   1.30050
   2.49183  -0.66151   1.30050
   2.49183  -0.66151   1.53992
   2.49183  -0.66151   1.53992
   2.25241  -0.66151   1.77934
   2.25241  -0.66151   1.77934
   2.25241  -0.66151   1.77934
   2.25241  -0.66151   1.77934
   2.01299  -0.90093   1.77934
   2.01299  -0.66151   1.53992
   2.01299  -0.90093   1.53992
   1.77357  -0.90093   1.77934
   1.77357  -0.90093   1.53992
   1.77357  -0.90093   1.53992
   1.77357  -0.90093   1.53992
   1.77357  -0.90093   1.30050
   1.77357  -0.90093   1.30050
   1.53415  -0.90093   1.06108
   1.53415  -0.90093   1.06108
   1.53415  -0.90093   0.82166
   1.53415  -0.90093   0.82166
   1.53415  -0.90093   0.58224
   1.29473  -0.90093   0.58224
   1.29473  -0.90093   0.34282
   1.29473  -0.90093   0.34282
   1.29473  -0.66151   0.10341
   1.29473  -0.66151  -0.13601
   1.29473  -0.66151  -0.37543
   1.29473  -0.66151  -0.37543
   1.29473  -0.66151  -0.61485
   1.29473  -0.66151  -0.61485
   1.29473  -0.66151  -0.85427
   1.29473  -0.42210  -0.85427
   1.29473  -0.42210  -0.85427
   1.29473  -0.42210  -1.09369
   1.29473  -0.42210  -1.33311
   1.29473  -0.42210  -1.33311
   1.53415  -0.42210  -1.57253
   1.53415  -0.42210  -1.33311
   1.53415  -0.66151  -1.57253
   1.53415  -0.42210  -1.57253
   1.53415  -0.66151  -1.57253
   1.53415  -0.66151  -1.57253
   1.53415  -0.66151  -1.81195
   1.53415  -0.42210  -1.81195
   1.53415  -0.42210  -1.57253
   1.53415  -0.42210  -1.81195
   1.53415  -0.42210  -1.57253
   1.29473  -0.66151  -1.57253
   1.29473  -0.42210  -1.57253
   1.05532  -0.42210  -1.33311
   1.05532  -0.18268  -1.33311
   0.81590  -0.18268  -1.33311
   0.81590  -0.18268  -1.33311
   0.57648  -0.18268  -1.09369
   0.33706  -0.18268  -1.09369
   0.09764  -0.18268  -0.85427
  -0.14178  -0.18268  -0.61485
  -0.38120   0.05674  -0.61485
  -0.62062   0.05674  -0.37543
  -0.86004   0.05674  -0.13601
  -1.09946   0.05674   0.10341
  -1.33887   0.05674   0.10341
  -1.57829   0.29616   0.34282
  -1.81771   0.05674   0.34282
  -2.05713   0.29616   0.58224
  -2.29655   0.29616   0.82166
  -2.29655   0.29616   0.82166
  -2.53597   0.29616   1.06108
  -2.77539   0.29616   1.06108
  -2.77539   0.53558   1.06108
  -3.01481   0.29616   1.30050
  -3.25423   0.29616   1.53992
  -3.49364   0.29616   1.53992
  -3.73306   0.29616   1.53992
  -3.73306   0.29616   1.53992
  -3.97248   0.29616   1.53992
  -3.97248   0.29616   1.53992
  -3.97248   0.29616   1.53992
  -4.21190   0.05674   1.53992
  -4.21190   0.29616   1.77934
  -4.21190   0.05674   1.77934
  -4.45132   0.29616   1.77934
  -4.45132   0.29616   1.53992
  -4.21190   0.29616   1.53992
  -4.45132   0.29616   1.53992
  -4.21190   0.29616   1.53992
  -3.97248   0.29616   1.53992
  -3.97248   0.29616   1.30050
  -3.97248   0.29616   1.30050
  -3.73306   0.53558   1.06108
  -3.49364   0.53558   1.06108
  -3.49364   0.53558   0.82166
  -3.25423   0.53558   1.06108
  -3.25423   0.53558   0.82166
  -3.25423   0.53558   0.58224
  -3.01481   0.53558   0.58224
  -3.01481   0.53558   0.34282
  -3.01481   0.53558   0.10341
  -2.77539   0.53558   0.10341
  -2.77539   0.53558  -0.13601
  -2.77539   0.53558  -0.13601
  -2.77539   0.53558  -0.13601
  -2.77539   0.53558  -0.13601
  -2.77539   0.53558  -0.13601
  -2.77539   0.53558  -0.37543
  -2.53597   0.53558  -0.37543
  -2.77539   0.53558  -0.61485
  -2.53597   0.53558  -0.37543
  -2.53597   0.29616  -0.37543
  -2.53597   0.29616  -0.37543
  -2.53597   0.53558  -0.61485
  -2.53597   0.53558  -0.37543
  -2.53597   0.53558  -0.37543
  -2.53597   0.53558  -0.61485
  -2.53597   0.53558  -0.61485
  -2.53597   0.53558  -0.61485
  -2.53597   0.29616  -0.37543
  -2.53597   0.29616  -0.37543
  -2.53597   0.05674  -0.37543
  -2.53597   0.05674  -0.37543
  -2.53597   0.05674  -0.37543
  -2.53597   0.05674  -0.37543
  -2.53597   0.05674  -0.37543
  -2.53597   0.05674  -0.37543
  -2.53597  -0.18268  -0.37543
  -2.53597  -0.18268  -0.37543
  -2.53597  -0.18268  -0.37543
  -2.53597  -0.18268  -0.37543
  -2.53597  -0.18268  -0.37543
  -2.53597  -0.18268  -0.61485
  -2.29655  -0.18268  -0.61485
  -2.05713  -0.18268  -0.61485
  -2.05713  -0.42210  -0.61485
  -2.05713  -0.42210  -0.61485
  -2.05713  -0.42210  -0.85427
  -1.81771  -0.42210  -0.85427
  -1.81771  -0.42210  -1.09369
  -1.81771  -0.18268  -1.09369
  -1.57829  -0.18268  -1.09369
  -1.57829  -0.42210  -1.09369
  -1.33887  -0.42210  -1.33311
  -1.33887  -0.18268  -1.33311
  -1.09946  -0.18268  -1.33311
  -1.09946  -0.18268  -1.33311
  -1.09946  -0.42210  -1.33311
  -1.09946  -0.18268  -1.33311
  -1.09946  -0.42210  -1.33311
  -1.09946  -0.18268  -1.33311
  -0.86004  -0.18268  -1.33311
  -0.86004  -0.42210  -1.33311
  -0.62062  -0.18268  -1.33311
  -0.86004  -0.42210  -1.09369
  -0.86004  -0.18268  -1.33311
  -0.62062  -0.18268  -1.33311
  -0.62062  -0.18268  -1.33311
  -0.62062  -0.18268  -1.33311
  -0.62062  -0.18268  -1.33311
  -0.62062  -0.42210  -1.09369
  -0.62062  -0.18268  -1.09369
  -0.38120  -0.18268  -1.09369
  -0.38120  -0.18268  -1.09369
  -0.38120  -0.18268  -0.85427
  -0.38120  -0.18268  -0.85427
  -0.38120  -0.18268  -0.61485
  -0.38120  -0.18268  -0.61485
  -0.14178  -0.18268  -0.37543
  -0.14178  -0.18268  -0.13601
  -0.38120  -0.42210   0.10341
  -0.38120  -0.18268   0.10341
  -0.14178  -0.18268   0.34282
  -0.14178  -0.18268   0.34282
  -0.14178  -0.18268   0.58224
  -0.14178  -0.18268   0.58224
  -0.38120  -0.42210   0.82166
  -0.38120  -0.18268   0.82166
  -0.38120  -0.18268   1.06108
  -0.62062  -0.18268   1.06108
  -0.86004   0.05674   1.06108
  -0.86004   0.05674   1.06108
  -0.86004   0.29616   1.06108
  -1.09946   0.29616   1.06108
  -1.09946   0.29616   1.06108
  -1.09946   0.53558   1.06108
  -1.33887   0.53558   1.06108
  -1.57829   0.53558   0.82166
  -1.57829   0.77500   0.58224
  -1.57829   0.53558   0.58224
  -1.57829   0.77500   0.58224
  -1.57829   0.77500   0.34282
  -1.57829   0.77500   0.58224
  -1.57829   0.77500   0.34282
  -1.81771   1.01442   0.34282
  -1.81771   1.01442   0.10341
  -1.81771   1.01442   0.10341
  -1.57829   1.01442  -0.13601
  -1.57829   1.25384  -0.13601
  -1.57829   1.01442  -0.13601
  -1.57829   1.25384  -0.13601
  -1.57829   1.01442  -0.37543
  -1.57829   1.25384  -0.61485
  -1.57829   1.25384  -0.61485
  -1.33887   1.25384  -0.85427
  -1.33887   1.25384  -1.09369
  -1.33887   1.25384  -1.09369
  -1.33887   1.25384  -1.09369
  -1.33887   1.25384  -1.09369
  -1.09946   1.49326  -1.09369
  -1.33887   1.49326  -1.33311
  -1.33887   1.49326  -1.33311
  -1.09946   1.49326  -1.33311
  -1.09946   1.25384  -1.57253
  -0.86004   1.25384  -1.57253
  -1.09946   1.25384  -1.57253
  -1.09946   1.25384  -1.57253
  -0.86004   1.25384  -1.57253
  -0.86004   1.25384  -1.57253
  -0.86004   1.25384  -1.33311
  -0.86004   1.25384  -1.33311
  -0.86004   1.01442  -1.57253
  -0.62062   1.01442  -1.33311
  -0.62062   1.01442  -1.33311
  -0.62062   1.01442  -1.09369
  -0.38120   0.77500  -1.09369
  -0.38120   0.77500  -1.09369
  -0.38120   0.77500  -0.85427
  -0.38120   0.77500  -0.85427
  -0.14178   0.53558  -0.85427
  -0.14178   0.77500  -0.85427
  -0.14178   0.77500  -0.85427
   0.09764   0.53558  -0.85427
   0.09764   0.29616  -0.61485
   0.09764   0.29616  -0.37543
   0.09764   0.29616  -0.37543
   0.09764   0.29616  -0.13601
   0.09764   0.29616  -0.13601
   0.09764   0.05674   0.10341
   0.33706   0.05674   0.10341
   0.33706   0.05674   0.34282
   0.33706  -0.18268   0.58224
   0.33706  -0.18268   0.58224
   0.33706  -0.42210   0.82166
   0.33706  -0.66151   0.82166
   0.57648  -0.42210   0.82166
   0.57648  -0.66151   1.06108
   0.81590  -0.90093   1.06108
   0.81590  -0.90093   1.06108
   0.81590  -0.90093   1.30050
   0.81590  -1.14035   1.30050
   1.05532  -1.14035   1.30050
   1.29473  -1.14035   1.53992
   1.29473  -1.14035   1.53992
   1.53415  -1.37977   1.30050
   1.53415  -1.37977   1.53992
   1.53415  -1.61919   1.53992
   1.77357  -1.61919   1.53992
   2.01299  -1.61919   1.77934
   2.25241  -1.61919   1.77934
   2.25241  -1.37977   1.77934
   2.49183  -1.61919   1.77934
   2.73125  -1.61919   1.77934
   2.97067  -1.61919   1.77934
   3.21009  -1.61919   2.01876
   3.21009  -1.61919   2.01876
   3.44950  -1.61919   2.01876
   3.44950  -1.37977   2.01876
   3.68892  -1.37977   1.77934
   3.92834  -1.37977   1.77934
   4.16776  -1.37977   1.77934
   4.40718  -1.37977   1.77934
   4.40718  -1.37977   1.77934
   4.64660  -1.37977   1.53992
   4.64660  -1.37977   1.30050
   4.88602  -1.37977   1.30050
   5.12544  -1.14035   1.06108
   5.12544  -1.14035   0.82166
   5.36486  -1.14035   0.82166
   5.36486  -1.14035   0.58224
   5.36486  -1.14035   0.58224
   5.36486  -1.14035   0.34282
   5.60428  -0.90093   0.10341
   5.60428  -0.90093   0.10341
   5.60428  -0.90093  -0.13601
   5.84369  -0.66151  -0.37543
   5.84369  -0.42210  -0.61485
   6.08311  -0.42210  -0.61485
   5.84369  -0.42210  -0.85427
   5.84369  -0.42210  -1.09369
   6.08311  -0.42210  -1.09369
   6.08311  -0.42210  -1.33311
   6.08311  -0.18268  -1.33311
   6.08311  -0.18268  -1.33311
   5.84369  -0.18268  -1.33311
   6.08311   0.05674  -1.57253
   5.84369   0.05674  -1.81195
   5.84369   0.05674  -1.81195
   5.84369   0.05674  -1.81195
   5.84369   0.05674  -2.05136
   5.60428   0.05674  -1.81195
   5.36486   0.05674  -2.05136
   5.36486   0.29616  -2.05136
   5.12544   0.29616  -2.05136
   5.12544   0.29616  -2.05136
   4.88602   0.29616  -2.05136
   4.88602   0.29616  -2.29078
   4.64660   0.29616  -2.29078
   4.64660   0.29616  -2.29078
   4.40718   0.29616  -2.29078
   4.16776   0.05674  -2.29078
   4.16776   0.05674  -2.29078
   3.92834   0.29616  -2.29078
   3.68892   0.05674  -2.53020
   3.44950   0.29616  -2.29078
   3.44950   0.05674  -2.53020
   3.21009   0.05674  -2.53020
   2.97067   0.05674  -2.53020
   2.97067   0.05674  -2.53020
   2.73125   0.05674  -2.53020
   2.49183   0.05674  -2.53020
   2.49183   0.05674  -2.53020
   2.25241  -0.18268  -2.53020
   2.01299  -0.18268  -2.53020
   1.77357  -0.18268  -2.53020
   1.77357   0.05674  -2.53020
   1.77357   0.05674  -2.53020
   1.53415   0.05674  -2.53020
   1.53415  -0.18268  -2.53020
   1.53415   0.05674  -2.53020
   1.29473  -0.18268  -2.53020
   1.29473  -0.18268  -2.29078
   1.29473  -0.18268  -2.29078
   1.05532   0.05674  -2.05136
   1.05532   0.05674  -2.05136
   0.81590   0.29616  -2.05136
   0.81590   0.05674  -1.81195
   0.81590   0.05674  -1.81195
   0.57648   0.05674  -1.81195
   0.57648   0.05674  -1.57253
   0.57648   0.05674  -1.33311
   0.33706   0.05674  -1.33311
   0.33706   0.29616  -1.09369
   0.09764   0.29616  -0.85427
   0.09764   0.29616  -0.85427
   0.09764   0.29616  -0.61485
  -0.14178   0.29616  -0.61485
  -0.14178   0.29616  -0.37543
  -0.14178   0.29616  -0.37543
  -0.38120   0.05674  -0.13601
  -0.62062   0.05674   0.10341
  -0.62062   0.29616   0.10341
  -0.62062   0.29616   0.10341
  -0.86004   0.29616   0.34282
  -0.62062   0.29616   0.34282
  -0.86004   0.29616   0.58224
  -1.09946   0.05674   0.58224
  -1.09946   0.05674   0.82166
  -1.09946   0.05674   1.06108
  -1.33887   0.05674   0.82166
  -1.33887   0.05674   1.06108
  -1.33887   0.05674   1.06108
  -1.57829   0.05674   1.30050
  -1.81771   0.05674   1.30050
  -1.81771   0.05674   1.53992
  -1.81771   0.05674   1.77934
  -2.05713   0.29616   1.77934
  -2.05713   0.05674   1.77934
  -2.05713   0.05674   1.77934
  -2.29655   0.05674   1.77934
  -2.29655   0.05674   2.01876
  -2.77539   0.05674   2.01876
  -2.53597   0.05674   2.01876
  -2.53597  -0.18268   2.01876
  -2.77539  -0.18268   2.25818
  -2.77539  -0.42210   2.25818
  -2.77539  -0.42210   2.49760
  -2.77539  -0.42210   2.49760
  -2.77539  -0.42210   2.49760
  -2.77539  -0.42210   2.49760
  -2.53597  -0.42210   2.49760
  -2.53597  -0.66151   2.49760
  -2.53597  -0.66151   2.49760
  -2.05713  -0.66151   2.73701
  -2.29655  -0.66151   2.73701
  -2.05713  -0.66151   2.73701
  -2.05713  -0.66151   2.73701
  -1.81771  -0.66151   2.49760
  -1.57829  -0.66151   2.49760
  -1.33887  -0.66151   2.73701
  -1.09946  -0.90093   2.73701
  -1.09946  -0.66151   2.49760
  -0.86004  -0.66151   2.73701
  -0.62062  -0.66151   2.49760
  -0.62062  -0.66151   2.49760
  -0.38120  -0.66151   2.49760
  -0.14178  -0.66151   2.49760
  -0.14178  -0.66151   2.25818
   0.09764  -0.66151   2.49760
   0.09764  -0.42210   2.49760
   0.09764  -0.42210   2.25818
   0.09764  -0.42210   2.25818
   0.33706  -0.42210   2.25818
   0.09764  -0.42210   2.01876
   0.09764  -0.42210   2.01876
   0.09764  -0.42210   2.01876
   0.09764  -0.42210   2.01876
   0.09764  -0.18268   1.77934
  -0.14178  -0.42210   1.77934
  -0.14178  -0.18268   1.53992
  -0.14178  -0.18268   1.53992
  -0.14178  -0.18268   1.30050
  -0.38120  -0.18268   1.30050
  -0.38120   0.05674   1.30050
  -0.38120   0.05674   1.06108
  -0.62062   0.05674   1.06108
  -0.62062   0.05674   0.82166
  -0.86004   0.05674   0.82166
  -1.09946   0.05674   0.82166
  -1.33887   0.29616   0.58224
  -1.33887   0.29616   0.58224
  -1.57829   0.29616   0.58224
  -1.81771   0.29616   0.34282
  -1.81771   0.29616   0.34282
  -1.81771   0.05674   0.34282
  -2.05713   0.29616   0.10341
  -2.29655   0.29616   0.10341
  -2.53597   0.29616   0.10341
  -2.53597   0.29616   0.10341
  -2.77539   0.29616   0.10341
  -3.01481   0.05674  -0.13601
  -3.01481   0.29616  -0.13601
  -3.25423   0.29616  -0.13601
  -3.49364   0.05674  -0.13601
  -3.49364   0.05674  -0.37543
  -3.73306   0.05674  -0.37543
  -3.73306   0.29616  -0.37543
  -3.49364   0.29616  -0.37543
