********************************************************************************
              CENTRO DE INSTRUMENTACION Y REGISTRO SISMICO  A.C.

    Anaxagoras 814, Col. Narvarte, Benito Juarez, C.P. 03020 Mexico, D.F.
           Tels. 5687 45 42/ 5687 45  82             Fax. 5669 25 12
********************************************************************************
ARCHIVO ESTANDAR DE ACELERACION:
VERSION DEL FORMATO                    : 2.0
NOMBRE DEL ARCHIVO                     : AR1420170923125259
FECHA Y HORA DE CREACION               : 29/SEP/17, 10:05
REF. CATALOGO ACELEROGRAMAS, SMIS 1996 : REGISTRO No.     /PAG.


================================================================================
DATOS DE LA ESTACION:
NOMBRE DE LA ESTACION                  : ESC. PRIM. "JOSÉ ORDAZ LÓPEZ"
CLAVE DE LA ESTACION                   : AR14
LOCALIZACION DE LA ESTACION            : Del. Gustavo A. Madero,                
                                       : Col. Ampliación la Providencia,        
                                       : Calle Puebla esq. con calle            
                                       : Volcán Tacan.                          
                                       : 
COORDENADAS DE LA ESTACION             : 19.4808 LAT. N
                                       : 99.0760 LONG. W
ALTITUD (msnm)                         : 2232
TIPO DE SUELO                          : Arcilloso, zona lago                
                                       :                           
                                       : 
INSTITUCION RESPONSABLE                : CIRES
                                       : 

================================================================================
DATOS DEL ACELEROGRAFO:
MODELO DEL ACELEROGRAFO                : RADESD
NUMERO DE SERIE DEL ACELEROGRAFO       : 495
NUMERO DE CANALES                      : 3
ORIENTACION C1-C6 (rumbo;orientacion)  : /N00E/+V/N90W
ORIENTACION C7-C12 (rumbo;orientacion) : 
VEL. DE MUESTREO, C1-C6 (muestras/s)   : /100/100/100
VEL. DE MUESTREO, C7-C12 (muestras/s)  : 
ESC. COMPLETA DE SENSORES, C1-C6, (g)  : /0.5/0.5/0.5
ESC. COMPLETA DE SENSORES, C7-C12, (g) : 
FREC. NAT. DE SENSORES, C1-C6, (Hz)    : /30/30/32
FREC. NAT. DE SENSORES, C7-C12, (Hz)   : 
AMORTIGUAMIENTO DE SENSORES, C1-C6     : /0.733/0.790/0.750
AMORTIGUAMIENTO DE SENSORES, C7-C12    : 
INTERVALO DE MUESTREO, C1-C6, (s)      : /0.01/0.01/0.01
INTERVALO DE MUESTREO, C7-C12, (s)     : 
UMBRAL DE DISPARO, C1-C6, (Gal)        : /1.65/4.64/1.95
UMBRAL DE DISPARO, C7-C12, (Gal)       : 
MEMORIA DE PREEVENTO (s)               : 44.0
TIEMPO DE POSEVENTO (s)                : 64.0


================================================================================
DATOS DEL SISMO:
FECHA DEL SISMO (GMT)                  : 23/SEP/17
HORA EPICENTRO (GMT)                   : 12:52:59.0
MAGNITUD(ES)                           : /Mc=6.1
COORDENADAS DEL EPICENTRO              : 16.48 LAT. N
                                       : 94.90 LONG. W
PROFUNDIDAD FOCAL (km)                 : 75
FUENTE DE LOS DATOS EPICENTRALES       : SSN
                                       : INSTITUTO DE GEOFISICA, UNAM

================================================================================
DATOS DE ESTE REGISTRO:
HORA DE LA PRIMERA MUESTRA (GMT)       : 12:55:46.00
EXACTITUD DEL TIEMPO (s)               : 0.01
DURACION DEL REGISTRO (s), C1-C6       : /135.8/135.8/135.8
DURACION DEL REGISTRO (s), C7-C12      : 
NUM. TOTAL DE MUESTRAS, C1-C6          : /13580/13580/13580
NUM. TOTAL DE MUESTRAS, C7-C12         : 
ACEL. MAX. (Gal), C1-C6                : /2.5007/1.93068/2.65338
ACEL. MAX., C1-C6, EN LA MUESTRA       : /5619/4168/3623
ACEL. MAX. (Gal), C7-C12               : 
ACEL. MAX., C7-C12, EN LA MUESTRA      : 
UNIDADES DE LOS DATOS                  : Gal (cm/s/s)
FACTOR DE DECIMACION                   : 1
FORMATO DATOS (FORTRAN,10 campos/dato) : 3F10.5


================================================================================
CALIDAD DEL ACELEROGRAMA:
REGISTRO DIGITAL COMPLETO CON TIEMPO ABSOLUTO CORRECTO.


================================================================================
COMENTARIOS:














================================================================================
DATOS DE ACELERACION:
---------+---------+---------+---------+---------+---------+---------+---------+
   CANAL-1   CANAL-2   CANAL-3   CANAL-4   CANAL-5   CANAL-6   CANAL-7   CANAL-8
      N00E        +V      N90W
---------+---------+---------+---------+---------+---------+---------+---------+
[...]
  -0.42074   0.16495   0.31904
  -0.36088   0.12006   0.27415
  -0.37585   0.13503   0.27415
  -0.48059   0.13503   0.13947
  -0.45067   0.17992   0.19933
  -0.49556   0.13503   0.06465
  -0.54045   0.26970   0.13947
  -0.57038   0.20984   0.09458
  -0.54045   0.22481   0.03473
  -0.61527   0.22481  -0.05506
  -0.55541   0.14999  -0.02513
  -0.57038   0.13503   0.06465
  -0.72001   0.01532   0.07962
  -0.60030  -0.01461   0.00480
  -0.66016  -0.19418  -0.07002
  -0.61527  -0.31389  -0.09995
  -0.52548  -0.35878  -0.11491
  -0.46563  -0.35878  -0.14484
  -0.40577  -0.23907  -0.30944
  -0.39081  -0.07447  -0.26455
  -0.34592   3.5E-40  -0.35433
  -0.24117   0.03028  -0.38426
  -0.19628   0.09013  -0.45908
  -0.34592   0.20984  -0.38426
  -0.07657   0.17992  -0.47404
  -0.16635   0.26970  -0.57879
  -0.13643   0.25474  -0.45908
  -0.10650   0.37445  -0.45908
   0.04314   0.41934  -0.39922
   0.01321   0.31459  -0.27951
   0.01321   0.34452  -0.21966
  -0.06161   0.32955  -0.26455
  -0.03168   0.17992  -0.20469
   0.01321   0.06021  -0.29448
  -0.07657  -0.05950  -0.44412
   0.10299  -0.05950  -0.36930
   0.07307  -0.04454  -0.38426
   0.25263  -0.08943  -0.39922
   0.29752  -0.05950  -0.35433
   0.31249  -0.14929  -0.27951
   0.37234  -0.14929  -0.30944
   0.43220  -0.11936  -0.26455
   0.43220  -0.26900  -0.23462
   0.38730  -0.25403  -0.26455
   0.41723  -0.26900  -0.29448
   0.40227  -0.25403  -0.30944
   0.28256  -0.29892  -0.26455
   0.38730  -0.20914  -0.21966
   0.35738  -0.11936  -0.23462
   0.40227  -0.31389  -0.20469
   0.44716  -0.31389  -0.27951
   0.52198  -0.35878  -0.23462
   0.58183  -0.35878  -0.21966
   0.56687  -0.31389  -0.21966
   0.58183  -0.20914  -0.20469
   0.58183  -0.20914  -0.17477
   0.62672  -0.11936  -0.21966
   0.64169   0.01532  -0.20469
   0.70154   0.09013  -0.30944
   0.73147   0.16495  -0.18973
   0.76140   0.10510  -0.27951
   0.82125   0.22481  -0.44412
   0.86614   0.25474  -0.41419
   0.85118   0.23977  -0.53390
   0.82125   0.41934  -0.51893
   0.82125   0.34452  -0.53390
   0.67162   0.47919  -0.42915
   0.59680   0.25474  -0.47404
   0.53694   0.22481  -0.45908
   0.53694   0.04524  -0.48901
   0.46212  -0.05950  -0.53390
   0.47709  -0.13432  -0.56383
   0.37234  -0.19418  -0.50397
   0.29752  -0.20914  -0.45908
   0.23767  -0.25403  -0.32441
   0.13292  -0.25403  -0.32441
   0.01321  -0.32885  -0.35433
   0.10299  -0.32885  -0.38426
   0.14788  -0.19418  -0.33937
   0.19278  -0.28396  -0.35433
   0.32745  -0.07447  -0.32441
   0.31249  -0.10439  -0.30944
   0.34241   0.04524  -0.24959
   0.34241   0.23977  -0.18973
   0.37234   0.23977  -0.18973
   0.38730   0.32955  -0.23462
   0.38730   0.29963  -0.35433
   0.32745   0.16495  -0.35433
   0.40227   0.13503  -0.50397
   0.44716   3.5E-40  -0.51893
   0.52198  -0.10439  -0.53390
   0.64169  -0.22410  -0.39922
   0.58183  -0.14929  -0.29448
   0.55191  -0.23907  -0.29448
   0.64169  -0.16425  -0.20469
   0.49205  -0.22410  -0.09995
   0.55191  -0.20914   0.01976
   0.53694  -0.28396   0.10954
   0.44716  -0.32885   0.21429
   0.40227  -0.17921   0.28911
   0.43220  -0.20914   0.40882
   0.40227  -0.23907   0.39386
   0.47709  -0.11936   0.33400
   0.41723  -0.05950   0.25918
   0.49205   3.5E-40   0.21429
   0.55191   3.5E-40   0.31904
   0.53694   0.03028   0.25918
   0.44716   0.16495   0.22925
   0.46212   0.23977   0.16940
   0.56687   0.35948   0.33400
   0.59680   0.41934   0.27415
   0.52198   0.55401   0.37889
   0.40227   0.46423   0.25918
   0.29752   0.40437   0.42378
   0.14788   0.16495   0.42378
   0.07307   0.01532   0.49860
   0.02817  -0.35878   0.55846
  -0.00175  -0.50842   0.48364
   0.08803  -0.65805   0.49860
   0.11796  -0.71791   0.40882
   0.08803  -0.64309   0.34896
   0.05810  -0.58324   0.40882
   0.05810  -0.35878   0.46867
   0.04314  -0.10439   0.54349
  -0.06161   0.20984   0.49860
  -0.07657   0.31459   0.51357
  -0.07657   0.55401   0.46867
  -0.19628   0.62883   0.40882
  -0.36088   0.56897   0.48364
  -0.45067   0.52408   0.48364
  -0.67512   0.41934   0.57342
  -0.79483   0.29963   0.67817
  -0.77987   0.17992   0.69313
  -0.79483   0.28466   0.78291
  -0.61527   0.23977   0.87270
  -0.63023   0.34452   0.93255
  -0.55541   0.20984   0.94751
  -0.54045   0.25474   1.00737
  -0.52548   0.25474   0.94751
  -0.51052   0.31459   0.97744
  -0.66016   0.20984   0.97744
  -0.58534   0.23977   0.79788
  -0.40577   0.07517   0.75299
  -0.27110  -0.11936   0.73802
  -0.18132  -0.23907   0.67817
  -0.06161  -0.43360   0.70809
   0.01321  -0.35878   0.73802
   0.10299  -0.26900   0.79788
   0.10299  -0.22410   0.63328
   0.14788  -0.04454   0.63328
   0.13292   0.03028   0.57342
   0.25263   0.17992   0.46867
   0.22270   0.20984   0.30407
   0.29752   0.37445   0.25918
   0.29752   0.46423   0.18436
   0.08803   0.55401   0.24422
   0.08803   0.58394   0.19933
   0.08803   0.41934   0.18436
  -0.01672   0.22481   0.09458
   0.11796  -0.05950   0.06465
   0.04314  -0.20914  -0.07002
   0.11796  -0.37374  -0.17477
   0.11796  -0.34381  -0.24959
   0.08803  -0.25403  -0.24959
   0.17781  -0.05950  -0.33937
   0.22270  -0.10439  -0.50397
   0.29752   0.06021  -0.53390
   0.22270  -0.05950  -0.66857
   0.22270  -0.08943  -0.74339
   0.08803  -0.25403  -0.90799
   0.08803  -0.34381  -0.90799
   0.04314  -0.56827  -0.98281
   0.13292  -0.65805  -0.99777
   0.10299  -0.68798  -1.07259
   0.11796  -0.58324  -1.13245
   0.08803  -0.50842  -1.14741
   0.08803  -0.40367  -1.08756
   0.07307  -0.35878  -1.23719
   0.01321  -0.38871  -1.35690
   0.07307  -0.26900  -1.41676
  -0.01672  -0.16425  -1.56640
  -0.03168  -0.17921  -1.55143
  -0.10650  -0.10439  -1.56640
  -0.09154   0.04524  -1.58136
  -0.09154  -0.10439  -1.58136
  -0.03168  -0.08943  -1.50654
  -0.12146  -0.20914  -1.47661
  -0.04664  -0.25403  -1.47661
  -0.10650  -0.32885  -1.40180
   0.08803  -0.43360  -1.41676
   0.11796  -0.41863  -1.40180
   0.28256  -0.41863  -1.52151
   0.35738  -0.35878  -1.40180
   0.38730  -0.16425  -1.26712
   0.43220  -0.01461  -1.05763
   0.31249   0.10510  -1.01274
   0.34241   0.12006  -0.89303
   0.38730   0.06021  -0.81821
   0.46212   0.04524  -0.87806
   0.49205  -0.04454  -1.01274
   0.59680  -0.08943  -1.02770
   0.56687  -0.08943  -0.96785
   0.61176   0.01532  -0.98281
   0.58183   0.13503  -0.89303
   0.59680   0.10510  -0.72843
   0.61176   0.13503  -0.60872
   0.56687   0.03028  -0.56383
   0.55191   0.12006  -0.60872
   0.43220   0.09013  -0.74339
   0.40227   0.13503  -0.75835
   0.35738   0.14999  -0.77332
   0.29752   0.14999  -0.71346
   0.22270   0.19488  -0.60872
  -0.00175   3.5E-40  -0.47404
  -0.07657  -0.02958  -0.41419
  -0.19628   0.07517  -0.48901
  -0.19628  -0.04454  -0.59375
  -0.25614  -0.02958  -0.56383
  -0.24117   0.06021  -0.47404
  -0.27110  -0.01461  -0.41419
  -0.36088  -0.07447  -0.27951
  -0.48059  -0.01461  -0.26455
  -0.67512   0.06021  -0.29448
  -0.69009  -0.11936  -0.35433
  -0.76490  -0.13432  -0.32441
  -0.73498  -0.11936  -0.38426
  -0.80980  -0.10439  -0.30944
  -0.80980  -0.17921  -0.24959
  -0.91454  -0.11936  -0.18973
  -0.86965  -0.13432  -0.15980
  -0.76490  -0.16425  -0.04009
  -0.80980  -0.26900  -0.01017
  -0.92951  -0.19418  -0.04009
  -0.89958  -0.10439  -0.05506
  -0.86965  -0.05950  -0.14484
  -0.73498  -0.11936  -0.01017
  -0.83972  -0.07447  -0.04009
  -0.80980  -0.13432  -0.05506
  -0.77987  -0.10439  -0.02513
  -0.70505  -0.41863  -0.09995
  -0.55541  -0.38871  -0.09995
  -0.42074  -0.29892  -0.32441
  -0.36088  -0.29892  -0.38426
  -0.37585  -0.22410  -0.59375
  -0.34592  -0.08943  -0.77332
  -0.36088   0.06021  -0.72843
  -0.34592   0.22481  -0.72843
  -0.19628   0.28466  -0.51893
  -0.18132   0.40437  -0.38426
  -0.16635   0.46423  -0.24959
  -0.22621   0.32955  -0.09995
  -0.28606   0.17992  -0.04009
  -0.36088  -0.08943  -0.07002
  -0.33096  -0.25403  -0.14484
  -0.25614  -0.34381  -0.18973
  -0.19628  -0.26900  -0.23462
   0.04314   0.01532  -0.24959
   0.17781   0.35948  -0.15980
   0.26759   0.55401   0.03473
   0.23767   0.70365   0.10954
   0.19278   0.73358   0.13947
   0.08803   0.67372   0.15444
  -0.03168   0.61387   0.06465
  -0.18132   0.43430  -0.01017
  -0.31599   0.35948   0.03473
  -0.30103   0.20984   0.04969
  -0.19628   0.14999   0.24422
  -0.07657   0.07517   0.40882
  -0.07657  -0.02958   0.48364
  -0.07657  -0.05950   0.34896
  -0.03168  -0.07447   0.31904
  -0.00175  -0.01461   0.22925
  -0.01672  -0.04454   0.22925
  -0.04664   0.06021   0.12451
  -0.01672   0.19488   0.15444
   0.01321   0.29963   0.25918
   0.01321   0.43430   0.36393
  -0.03168   0.58394   0.46867
  -0.06161   0.65876   0.55846
  -0.15139   0.83832   0.61831
  -0.22621   0.76350   0.70809
  -0.42074   0.68868   0.79788
  -0.51052   0.49416   0.79788
  -0.60030   0.22481   0.67817
  -0.58534   0.10510   0.63328
  -0.55541  -0.17921   0.64824
  -0.40577  -0.38871   0.73802
  -0.24117  -0.41863   0.85773
  -0.16635  -0.46353   0.91759
  -0.24117  -0.58324   0.81284
  -0.31599  -0.52338   0.75299
  -0.43570  -0.50842   0.66320
  -0.60030  -0.46353   0.78291
  -0.58534  -0.56827   0.88766
  -0.34592  -0.65805   0.97744
  -0.09154  -0.83762   1.05226
   0.17781  -0.95733   0.91759
   0.35738  -0.97229   0.70809
   0.41723  -0.86755   0.48364
   0.43220  -0.64309   0.25918
   0.49205  -0.43360   0.22925
   0.43220  -0.08943   0.01976
   0.43220   0.20984  -0.01017
   0.41723   0.31459  -0.08498
   0.34241   0.26970  -0.04009
   0.37234   0.25474   0.06465
   0.29752  -0.01461   0.16940
   0.34241  -0.19418   0.19933
   0.29752  -0.31389   0.04969
   0.20774  -0.31389  -0.09995
   0.05810  -0.26900  -0.29448
   0.05810  -0.32885  -0.42915
   0.17781  -0.37374  -0.36930
   0.29752  -0.44856  -0.27951
   0.41723  -0.46353  -0.21966
   0.49205  -0.46353  -0.21966
   0.52198  -0.35878  -0.20469
   0.43220  -0.28396  -0.21966
   0.32745  -0.05950  -0.26455
   0.22270   0.04524  -0.08498
   0.10299   0.01532   0.19933
  -0.06161  -0.17921   0.30407
  -0.18132  -0.11936   0.33400
  -0.34592  -0.16425   0.42378
  -0.40577  -0.14929   0.45371
  -0.48059  -0.11936   0.60335
  -0.57038   0.04524   0.75299
  -0.60030   0.06021   0.91759
  -0.80980   0.03028   0.91759
  -0.85469   0.03028   0.87270
  -0.86965   0.01532   0.84277
  -0.82476  -0.17921   0.96248
  -0.83972  -0.31389   1.05226
  -0.76490  -0.52338   1.12708
  -0.85469  -0.55331   1.12708
  -0.86965  -0.65805   1.12708
  -0.98936  -0.55331   1.20190
  -1.07914  -0.49345   1.38146
  -1.16893  -0.43360   1.53110
  -1.03425  -0.37374   1.77052
  -0.77987  -0.43360   1.89023
  -0.61527  -0.26900   1.93512
  -0.48059   0.13503   1.95009
  -0.49556   0.47919   2.05483
  -0.55541   0.91314   2.32418
  -0.64519   1.13760   2.59353
  -0.72001   1.31716   2.65338
  -0.86965   1.07774   2.62346
  -0.79483   0.85329   2.45885
  -0.64519   0.83832   2.33914
  -0.55541   0.73358   2.27929
  -0.43570   0.68868   2.29425
  -0.42074   0.62883   2.42893
  -0.43570   0.68868   2.41396
  -0.42074   0.49416   2.32418
  -0.46563   0.47919   2.20447
  -0.37585   0.46423   1.92016
  -0.42074   0.49416   1.62088
  -0.33096   0.47919   1.50117
  -0.33096   0.40437   1.48621
  -0.19628   0.29963   1.47125
  -0.09154   0.07517   1.59096
  -0.06161  -0.04454   1.60592
  -0.13643  -0.32885   1.56103
  -0.13643  -0.41863   1.45628
  -0.09154  -0.44856   1.18693
   0.16285  -0.49345   0.88766
   0.23767  -0.41863   0.63328
   0.49205  -0.35878   0.58838
   0.46212  -0.19418   0.60335
   0.35738  -0.05950   0.61831
   0.22270  -0.08943   0.63328
   0.05810  -0.10439   0.51357
   0.10299  -0.14929   0.25918
   0.29752   0.03028  -0.02513
   0.59680   0.13503  -0.20469
   0.65665   0.25474  -0.04009
   0.64169   0.32955   0.07962
   0.46212   0.20984   0.30407
   0.40227   0.19488   0.24422
   0.22270   0.32955   0.04969
   0.31249   0.64379  -0.05506
   0.41723   0.94307  -0.08498
   0.35738   1.27227   0.15444
   0.23767   0.91314   0.51357
   0.13292   0.47919   0.69313
   0.08803   0.10510   0.39386
   0.02817  -0.26900   0.04969
   0.19278  -0.22410  -0.32441
   0.16285  -0.19418  -0.32441
   0.28256  -0.13432  -0.11491
   0.43220  -0.17921   0.10954
   0.40227  -0.38871   0.04969
   0.55191  -0.32885  -0.18973
   0.56687  -0.32885  -0.44412
   0.46212  -0.07447  -0.56383
   0.25263   0.16495  -0.41419
   0.29752   0.40437  -0.11491
   0.35738   0.44926   0.07962
   0.43220   0.38941   0.10954
   0.44716   0.25474  -0.04009
   0.34241   0.19488  -0.08498
   0.22270   0.04524  -0.15980
   0.04314  -0.14929  -0.15980
  -0.00175  -0.31389  -0.33937
   0.10299  -0.37374  -0.47404
   0.29752  -0.01461  -0.66857
   0.49205   0.17992  -0.69850
   0.53694   0.37445  -0.69850
   0.59680   0.58394  -0.62368
   0.46212   0.62883  -0.74339
   0.29752   0.73358  -0.65361
   0.05810   0.71861  -0.65361
  -0.01672   0.73358  -0.63864
  -0.22621   0.61387  -0.57879
  -0.18132   0.52408  -0.72843
  -0.03168   0.25474  -0.93792
   0.05810   0.16495  -1.32698
   0.02817   0.17992  -1.50654
  -0.22621   0.26970  -1.55143
  -0.36088   0.50912  -1.47661
  -0.40577   0.47919  -1.52151
  -0.40577   0.56897  -1.61129
  -0.28606   0.49416  -1.55143
  -0.30103   0.26970  -1.50654
  -0.34592   3.5E-40  -1.44669
  -0.46563  -0.28396  -1.59632
  -0.49556  -0.61316  -1.62625
  -0.60030  -0.73287  -1.53647
  -0.61527  -0.82266  -1.53647
  -0.43570  -1.00222  -1.52151
  -0.25614  -1.10697  -1.43172
  -0.04664  -1.00222  -1.26712
   0.22270  -0.62813  -1.25216
   0.38730  -0.22410  -1.13245
   0.32745   0.14999  -1.07259
  -0.01672   0.35948  -1.22223
  -0.24117   0.43430  -1.23719
  -0.52548   0.32955  -1.02770
  -0.61527   0.10510  -0.81821
  -0.42074  -0.22410  -0.63864
  -0.10650  -0.35878  -0.66857
   0.11796  -0.34381  -0.89303
   0.11796  -0.35878  -1.14741
   0.13292  -0.38871  -1.22223
   0.11796  -0.17921  -1.16238
  -0.00175   0.07517  -0.98281
  -0.01672   0.49416  -0.89303
  -0.04664   0.67372  -0.62368
   0.19278   0.86825  -0.51893
  -0.00175   0.91314  -0.36930
  -0.01672   0.74854  -0.32441
  -0.10650   0.71861  -0.45908
  -0.13643   0.55401  -0.62368
  -0.09154   0.41934  -0.72843
   0.14788   0.35948  -0.69850
   0.20774   0.23977  -0.72843
   0.34241   0.20984  -0.69850
   0.25263   0.26970  -0.66857
   0.17781   0.23977  -0.75835
   0.02817   0.16495  -0.72843
   0.13292  -0.08943  -0.78828
   0.37234  -0.32885  -0.71346
   0.76140  -0.64309  -0.57879
   0.88111  -0.61316  -0.53390
   0.86614  -0.47849  -0.57879
   0.74643  -0.28396  -0.77332
   0.82125  -0.29892  -0.86310
   0.77636  -0.35878  -0.96785
   0.77636  -0.70295  -0.74339
   0.86614  -1.18179  -0.68354
   1.03075  -1.39128  -0.71346
   1.04571  -1.25660  -1.01274
   1.13549  -0.92740  -1.37187
   1.03075  -0.40367  -1.85071
   0.97089   0.07517  -1.92553
   0.91104   0.29963  -1.65618
   0.85118   0.22481  -1.37187
   1.01578  -0.10439  -1.08756
   1.15046  -0.28396  -1.19230
   1.16542  -0.49345  -1.40180
   1.15046  -0.52338  -1.70107
   1.00082  -0.40367  -1.94049
   1.03075  -0.26900  -2.03027
   1.06067  -0.26900  -1.82078
   1.16542  -0.31389  -1.58136
   1.22528  -0.34381  -1.32698
   1.24024  -0.38871  -1.29705
   1.30009  -0.22410  -1.43172
   1.18038   0.10510  -1.52151
   0.91104   0.22481  -1.67114
   0.80629   0.34452  -1.73100
   0.70154   0.29963  -1.68611
   0.80629   0.04524  -1.47661
   0.88111  -0.07447  -1.25216
   0.83622  -0.25403  -0.92296
