********************************************************************************
              CENTRO DE INSTRUMENTACION Y REGISTRO SISMICO  A.C.

    Anaxagoras 814, Col. Narvarte, Benito Juarez, C.P. 03020 Mexico, D.F.
           Tels. 5687 45 42/ 5687 45  82             Fax. 5669 25 12
********************************************************************************
ARCHIVO ESTANDAR DE ACELERACION:
VERSION DEL FORMATO                    : 2.0
NOMBRE DEL ARCHIVO                     : AR1420130821123830
FECHA Y HORA DE CREACION               : 11/SEP/13, 15:00
REF. CATALOGO ACELEROGRAMAS, SMIS 1996 : REGISTRO No.     /PAG.


================================================================================
DATOS DE LA ESTACION:
NOMBRE DE LA ESTACION                  : ESC. PRIM. "JOSÉ ORDAZ LÓPEZ"
CLAVE DE LA ESTACION                   : AR14
LOCALIZACION DE LA ESTACION            : Del. Gustavo A. Madero,                
                                       : Col. Ampliación la Providencia,        
                                       : Calle Puebla esq. con calle            
                                       : Volcán Tacan.                          
                                       : 
COORDENADAS DE LA ESTACION             : 19.4808 LAT. N
                                       : 99.0760 LONG. W
ALTITUD (msnm)                         : 2232
TIPO DE SUELO                          : Arcilloso, zona lago                
                                       :                           
                                       : 
INSTITUCION RESPONSABLE                : CIRES
                                       : 

================================================================================
DATOS DEL ACELEROGRAFO:
MODELO DEL ACELEROGRAFO                : RADESD
NUMERO DE SERIE DEL ACELEROGRAFO       : 215
NUMERO DE CANALES                      : 3
ORIENTACION C1-C6 (rumbo;orientacion)  : /N00E/+V/N90W
ORIENTACION C7-C12 (rumbo;orientacion) : 
VEL. DE MUESTREO, C1-C6 (muestras/s)   : /100/100/100
VEL. DE MUESTREO, C7-C12 (muestras/s)  : 
ESC. COMPLETA DE SENSORES, C1-C6, (g)  : /0.5/0.5/0.5
ESC. COMPLETA DE SENSORES, C7-C12, (g) : 
FREC. NAT. DE SENSORES, C1-C6, (Hz)    : /30/30/32
FREC. NAT. DE SENSORES, C7-C12, (Hz)   : 
AMORTIGUAMIENTO DE SENSORES, C1-C6     : /0.733/0.790/0.750
AMORTIGUAMIENTO DE SENSORES, C7-C12    : 
INTERVALO DE MUESTREO, C1-C6, (s)      : /0.01/0.01/0.01
INTERVALO DE MUESTREO, C7-C12, (s)     : 
UMBRAL DE DISPARO, C1-C6, (Gal)        : /31.12/95.77/35.91
UMBRAL DE DISPARO, C7-C12, (Gal)       : 
MEMORIA DE PREEVENTO (s)               : 56.0
TIEMPO DE POSEVENTO (s)                : 80.0


================================================================================
DATOS DEL SISMO:
FECHA DEL SISMO (GMT)                  : 21/AGO/13
HORA EPICENTRO (GMT)                   : 12:38:30.0
MAGNITUD(ES)                           : /Mc=6.0
COORDENADAS DEL EPICENTRO              : 16.79 LAT. N
                                       : 99.56 LONG. W
PROFUNDIDAD FOCAL (km)                 : 20
FUENTE DE LOS DATOS EPICENTRALES       : SSN
                                       : INSTITUTO DE GEOFISICA, UNAM

================================================================================
DATOS DE ESTE REGISTRO:
HORA DE LA PRIMERA MUESTRA (GMT)       : 12:39:55.00
EXACTITUD DEL TIEMPO (s)               : 0.01
DURACION DEL REGISTRO (s), C1-C6       : /224.0/224.0/224.0
DURACION DEL REGISTRO (s), C7-C12      : 
NUM. TOTAL DE MUESTRAS, C1-C6          : /22400/22400/22400
NUM. TOTAL DE MUESTRAS, C7-C12         : 
ACEL. MAX. (Gal), C1-C6                : /8.153/4.65416/7.87849
ACEL. MAX., C1-C6, EN LA MUESTRA       : /7430/6255/5810
ACEL. MAX. (Gal), C7-C12               : 
ACEL. MAX., C7-C12, EN LA MUESTRA      : 
UNIDADES DE LOS DATOS                  : Gal (cm/s/s)
FACTOR DE DECIMACION                   : 1
FORMATO DATOS (FORTRAN,10 campos/dato) : 3F10.5


================================================================================
CALIDAD DEL ACELEROGRAMA:
REGISTRO DIGITAL COMPLETO CON TIEMPO ABSOLUTO CORRECTO.


================================================================================
COMENTARIOS:














================================================================================
DATOS DE ACELERACION:
---------+---------+---------+---------+---------+---------+---------+---------+
   CANAL-1   CANAL-2   CANAL-3   CANAL-4   CANAL-5   CANAL-6   CANAL-7   CANAL-8
      N00E        +V      N90W
---------+---------+---------+---------+---------+---------+---------+---------+
[...]
  -1.33402  -0.47841  -1.12969
  -1.58841  -0.28389  -0.50122
  -1.58841  -0.23899   0.18712
  -1.49862  -0.37367   0.69588
  -1.25920  -0.31381   0.87545
  -1.00482  -0.31381   0.98020
  -0.82525  -0.11928   1.09991
  -0.82525   0.25481   1.39918
  -0.95993   0.34459   1.77328
  -0.88511   0.38948   2.19226
  -0.69058   0.31466   2.35686
  -0.43620   0.03035   2.35686
  -0.16685  -0.01454   2.25212
  -0.00225  -0.05943   2.08751
   0.19228   0.01539   1.99773
   0.46163  -0.08936   2.20722
   0.59630  -0.08936   2.19226
   0.73098  -0.26892   2.20722
   0.73098  -0.46345   1.96780
   0.83572  -0.47841   1.72838
   0.71601  -0.55323   1.59371
   0.67112  -0.62805   1.62364
   0.58134  -0.79265   1.72838
   0.61127  -0.98718   1.83313
   0.52148  -1.18171   1.71342
   0.44666  -1.39120   1.63860
   0.13243  -1.61566   1.54882
  -0.16685  -1.57077   1.65356
  -0.43620  -1.46602   1.83313
  -0.63073  -1.42113   2.16233
  -0.55591  -1.63062   2.49154
  -0.46612  -1.79523   2.71599
  -0.37634  -1.85508   2.71599
  -0.31649  -1.60070   2.70103
  -0.48109  -1.09193   2.46161
  -0.52598  -0.41856   2.35686
  -0.69058   0.26977   2.55139
  -0.82525   0.74861   2.82074
  -0.72051   0.74861   3.40432
  -0.42123   0.41941   3.91309
   0.01272  -0.08936   4.00288
   0.34192  -0.38863   3.73353
   0.47659  -0.35870   3.25469
   0.31199   0.07524   2.68606
   0.10250   0.52416   2.34190
  -0.24167   1.13767   2.10248
  -0.43620   1.54169   2.11744
  -0.43620   1.60155   2.32693
  -0.06210   1.27235   2.62621
   0.20724   0.86832   2.65614
   0.44666   0.61394   2.38679
   0.52148   0.65883   2.02766
   0.32695   0.97307   1.47400
  -0.03218   1.49680   0.98020
  -0.49605   2.14024   0.66596
  -1.01978   2.49937   0.42654
  -1.34899   2.72383   0.32179
  -1.55848   2.63405   0.38165
  -1.70812   2.31981   0.29186
  -1.70812   1.90082   0.20208
  -1.66323   1.67637  -0.12712
  -1.78294   1.66140  -0.62093
  -1.85775   1.78111  -1.17459
  -2.11214   2.11032  -1.80306
  -2.35156   2.48441  -2.23701
  -2.75558   2.94829  -2.47643
  -2.95011   3.17274  -2.34176
  -2.89025   3.02311  -2.07241
  -2.66580   2.49937  -1.93774
  -2.29170   1.99061  -1.89285
  -1.93257   1.51177  -1.95270
  -1.66323   1.15264  -2.10234
  -1.54352   0.91321  -2.52132
  -1.73804   0.97307  -2.98520
  -1.82783   1.36213  -3.29944
  -1.81286   1.69133  -3.28448
  -1.75301   1.58658  -3.14980
  -1.54352   1.19753  -2.77571
  -1.12453   0.74861  -2.53629
  -0.91504   0.50919  -2.65600
  -0.69058   0.46430  -2.59614
  -0.66065   0.58401  -2.67096
  -0.34641   0.53912  -2.40161
  -0.19678   0.26977  -2.19212
   0.02768  -0.05943  -2.02752
   0.17732  -0.28389  -1.63846
   0.11746  -0.56820  -1.32422
   0.02768  -0.77769  -1.11473
   0.05761  -0.70287  -0.90524
   0.19228  -0.43352  -0.57604
   0.35688  -0.28389   0.03748
   0.46163  -0.50834   0.65099
   0.49156  -0.94229   1.14480
   0.44666  -1.54084   1.44407
   0.40177  -1.92990   1.38422
   0.32695  -2.16932   1.23458
   0.14739  -2.19925   1.06998
   0.07257  -1.73537   1.14480
   0.02768  -1.16675   1.44407
   0.13243  -0.98718   2.01270
   0.28206  -1.22660   2.59628
   0.41674  -1.64559   2.89556
   0.47659  -2.27407   2.82074
   0.71601  -2.40874   2.65614
   0.85069  -2.60327   2.35686
   0.95543  -2.84269   2.10248
   0.94047  -2.91751   1.74335
   0.97040  -2.70802   1.36925
   0.97040  -2.10946   1.18969
   1.13500  -1.73537   1.45904
   1.40435  -1.64559   1.98277
   1.71858  -1.70544   2.31197
   2.01786  -1.54084   2.34190
   2.36203  -1.24157   2.35686
   2.52663  -1.03207   2.46161
   2.66130  -1.16675   2.64117
   2.84087  -1.34631   2.61125
   3.08029  -1.19668   2.41672
   3.42445  -1.10689   2.23715
   3.63395  -1.04704   2.34190
   3.88833  -1.09193   2.46161
   4.00804  -1.01711   2.40175
   4.02300  -0.73280   2.37183
   4.14271  -0.38863   2.34190
   4.29235  -0.11928   2.44664
   4.44199   0.03035   2.50650
   4.62155   0.09021   2.31197
   4.75623   0.12014   2.07255
   4.78616   0.07524   1.68349
   4.77119  -0.02950   1.47400
   4.72630  -0.19410   1.17472
   4.65148  -0.20907   0.74078
   4.57666   4.3E-40   0.36668
   4.57666   0.22488   0.15719
   4.54674   0.38948   0.03748
   4.59163   0.28474  -0.17201
   4.69637   0.19495  -0.60596
   4.69637   0.13510  -1.26437
   4.66645   0.10517  -1.90781
   4.65148   0.07524  -2.20709
   4.56170  -0.01454  -2.43154
   4.45695   0.06028  -2.58118
   4.39710   0.20992  -2.61111
   4.38213   0.38948  -2.58118
   4.47192   0.41941  -2.46147
   4.51681   0.26977  -2.41658
   4.35221   0.03035  -2.46147
   4.15768  -0.16418  -2.58118
   4.06789  -0.19410  -2.58118
   3.87337  -0.23899  -2.59614
   3.64891  -0.20907  -2.49140
   3.49927   0.01539  -2.35672
   3.36460   0.15006  -2.40161
   3.12518   0.34459  -2.34176
   2.81094   0.35956  -2.52132
   2.48174   0.29970  -2.62607
   2.25728   0.17999  -2.67096
   2.12261   0.25481  -2.79067
   1.86822   0.22488  -2.76074
   1.67369   0.32963  -2.80564
   1.52406   0.46430  -2.77571
   1.38938   0.52416  -2.79067
   1.20982   0.74861  -2.89542
   0.91054   0.89825  -3.00016
   0.61127   0.89825  -2.88045
   0.35688   0.91321  -2.76074
   0.22221   0.97307  -2.62607
  -0.01721   0.82343  -2.41658
  -0.09203   0.86832  -2.35672
  -0.18181   0.79350  -2.41658
  -0.28656   0.80847  -2.56622
  -0.45116   0.88329  -2.70089
  -0.58583   1.00300  -2.61111
  -0.64569   1.12271  -2.50636
  -0.76540   1.30227  -2.29687
  -0.64569   1.37709  -2.17716
  -0.42123   1.40702  -2.19212
  -0.21174   1.46687  -2.14723
  -0.01721   1.42198  -2.08738
   0.07257   1.37709  -2.02752
   0.05761   1.30227  -1.99759
   0.05761   1.21249  -1.93774
   0.14739   1.15264  -1.72824
   0.28206   0.92818  -1.60853
   0.55141   0.86832  -1.45890
   0.74594   0.88329  -1.48882
   0.92551   0.92818  -1.59357
   1.12003   0.88329  -1.59357
   1.38938   0.67379  -1.48882
   1.58391   0.50919  -1.33919
   1.73355   0.15006  -1.14466
   1.97297   4.3E-40  -1.03991
   2.16750  -0.13425  -1.09977
   2.25728  -0.25396  -1.30926
   2.39195  -0.26892  -1.39904
   2.37699  -0.23899  -1.42897
   2.37699  -0.31381  -1.38408
   2.33210  -0.50834  -1.24940
   2.25728  -0.56820  -1.09977
   2.24232  -0.59812  -0.95013
   2.13757  -0.76273  -0.71071
   2.09268  -1.04704  -0.51618
   1.89815  -1.33135  -0.24683
   1.58391  -1.48099  -0.15705
   1.19485  -1.58573  -0.08223
   0.91054  -1.51091   0.18712
   0.67112  -1.40617   0.42654
   0.56637  -1.28646   0.83056
   0.38681  -1.25653   1.14480
   0.31199  -1.18171   1.60867
  -0.04714  -1.19668   1.87802
  -0.42123  -1.16675   2.25212
  -0.73547  -1.13682   2.44664
  -1.00482  -0.95726   2.70103
  -1.22928  -0.73280   2.98534
  -1.30410  -0.38863   3.23972
  -1.66323  -0.16418   3.41929
  -1.88768   0.06028   3.58389
  -2.20192   0.16503   3.76346
  -2.47127   0.38948   3.91309
  -2.72565   0.43437   4.00288
  -3.00996   0.31466   3.95798
  -3.20449   0.17999   4.16748
  -3.35413   0.26977   4.25726
  -3.47384   0.31466   4.54157
  -3.68333   0.44934   4.72114
  -3.86290   0.71869   4.79595
  -4.11728   0.95811   4.69121
  -4.19210   1.09278   4.60143
  -4.29685   1.15264   4.63135
  -4.49138   1.16760   4.85581
  -4.46145   1.13767   5.17005
  -4.43152   1.04789   5.42443
  -4.34174   0.91321   5.54414
  -4.25196   0.67379   5.60400
  -4.41656   0.49423   5.36458
  -4.55123   0.53912   5.06530
  -4.62605   0.65883   4.79595
  -4.77569   0.68876   4.55653
  -4.91036   0.64387   4.52661
  -4.80561   0.56905   4.48172
  -4.65598   0.55408   4.42186
  -4.67094   0.37452   4.18244
  -4.68590   0.06028   3.92806
  -4.74576  -0.11928   3.59885
  -4.89540  -0.22403   3.25469
  -5.08993  -0.31381   3.06016
  -5.14978  -0.32878   2.88059
  -5.32935  -0.37367   2.67110
  -5.28446  -0.32878   2.47657
  -5.22460  -0.28389   2.19226
  -5.08993  -0.16418   2.07255
  -4.97022  -0.02950   1.93788
  -4.95525  -0.05943   1.92291
  -4.97022  -0.01454   1.93788
  -5.04504  -0.04447   1.90795
  -5.19467  -0.17914   1.83313
  -5.26949  -0.10432   1.83313
  -5.20964  -0.16418   2.05759
  -5.08993  -0.14921   2.17730
  -4.98518   4.3E-40   2.29701
  -4.94029   0.15006   2.23715
  -5.00014   0.23985   2.11744
  -5.08993   0.29970   2.02766
  -5.00014   0.29970   1.99773
  -4.88043   0.20992   1.89299
  -4.74576   0.12014   1.93788
  -4.71583   0.13510   1.77328
  -4.83554   0.17999   1.48896
  -4.92533   0.34459   1.20465
  -4.94029   0.50919   0.87545
  -4.95525   0.46430   0.44150
  -4.86547   0.34459   0.11230
  -4.68590   0.25481  -0.08223
  -4.65598   0.31466  -0.48625
  -4.73080   0.41941  -0.78553
  -4.76072   0.50919  -1.14466
  -4.83554   0.52416  -1.44393
  -4.73080   0.50919  -1.86292
  -4.77569   0.46430  -2.22205
  -4.73080   0.52416  -2.38665
  -4.64101   0.53912  -2.55125
  -4.71583   0.43437  -2.59614
  -4.64101   0.26977  -2.70089
  -4.56619   0.07524  -2.82060
  -4.41656   0.01539  -2.97024
  -4.20706   4.3E-40  -3.13484
  -3.99757  -0.04447  -3.40419
  -3.77312  -0.16418  -3.65857
  -3.53370  -0.37367  -3.88303
  -3.29428  -0.49338  -4.06259
  -3.08478  -0.50834  -4.16734
  -2.81543  -0.49338  -4.12245
  -2.51616  -0.50834  -4.12245
  -2.33659  -0.55323  -4.22719
  -2.23185  -0.80762  -4.28705
  -2.11214  -1.01711  -4.34690
  -1.93257  -1.24157  -4.36187
  -1.75301  -1.60070  -4.31698
  -1.67819  -1.70544  -4.36187
  -1.60337  -1.97479  -4.33194
  -1.60337  -2.10946  -4.34690
  -1.58841  -2.21421  -4.21223
  -1.52855  -2.18428  -4.01770
  -1.46870  -2.25910  -3.85310
  -1.34899  -2.22917  -3.68850
  -1.18438  -2.34888  -3.62864
  -1.04971  -2.58831  -3.82317
  -0.93000  -2.48356  -3.97281
  -0.94496  -2.30399  -4.10748
  -0.78036  -2.00472  -4.04763
  -0.73547  -1.94486  -3.80821
  -0.45116  -1.82515  -3.82317
  -0.19678  -1.76530  -3.86806
  -0.00225  -1.57077  -3.94288
   0.29703  -1.36128  -3.80821
   0.61127  -1.28646  -3.55382
   0.91054  -1.25653  -3.35929
   1.10507  -1.24157  -3.19469
   1.37442  -1.07697  -3.01513
   1.55398  -0.85251  -2.83556
   1.79340  -0.47841  -2.56622
   2.01786  -0.14921  -2.20709
   2.19742  -0.01454  -1.78810
   2.46677  -0.01454  -1.36911
   2.60145   0.06028  -1.03991
   2.93065   0.10517  -0.68078
   3.22992   0.38948  -0.47129
   3.51424   0.79350  -0.24683
   3.75366   1.15264   0.08237
   4.05293   1.40702   0.35172
   4.51681   1.57162   0.68092
   5.05550   1.63148   0.86049
   5.51938   1.85593   0.90538
   5.93836   2.25995   0.92034
   6.13289   2.52930   0.95027
   6.40224   2.81361   0.99516
   6.74641   2.81361   1.09991
   7.15043   2.48441   1.23458
   7.47963   2.15521   1.15976
   7.77891   1.93075   1.05501
   7.88365   1.81104   0.89041
   8.00336   2.09535   0.86049
   8.00336   2.09535   0.93530
   8.04826   1.97564   1.11487
   8.09315   1.93075   1.12983
   8.09315   1.63148   1.01012
   8.15300   1.43695   0.83056
   8.04826   1.28731   0.84552
   7.88365   1.07782   0.98020
   7.68912   0.98803   1.15976
   7.67416   0.92818   1.33933
   7.53949   0.88329   1.32436
   7.32999   0.86832   1.20465
   7.01576   0.74861   0.95027
   6.73144   0.73365   0.66596
   6.38728   0.79350   0.45646
   6.08800   0.95811   0.33675
   5.66902   0.82343   0.32179
   5.33981   0.64387   0.33675
   5.13032   0.47927   0.26194
   4.98068   0.26977  -0.00741
   4.86097   0.19495  -0.36654
   4.57666   0.28474  -0.81546
   4.23250   0.29970  -1.09977
   3.76862   0.23985  -1.05488
   3.18503   0.55408  -0.95013
   2.70619   0.68876  -0.84538
   2.48174   0.59898  -0.81546
   2.33210   0.35956  -0.96509
   2.30217   0.26977  -0.95013
   2.18246   0.26977  -0.84538
   1.88319   0.35956  -0.75560
   1.61384   0.37452  -0.44136
   1.29960   0.26977  -0.29172
   1.10507   0.19495  -0.29172
   0.94047   0.22488  -0.36654
   0.95543   0.50919  -0.35158
   0.80580   0.71869  -0.39647
   0.73098   0.92818  -0.17201
   0.52148   0.83840   0.09733
   0.47659   0.50919   0.47143
   0.38681   0.10517   0.54625
   0.52148  -0.22403   0.26194
   0.58134  -0.14921  -0.08223
   0.31199  -0.02950  -0.45633
  -0.12196   0.22488  -0.66582
  -0.72051   0.64387  -0.92020
  -1.07964   0.82343  -0.83042
  -0.95993   0.64387  -0.68078
  -0.61576   0.35956  -0.45633
  -0.34641   0.10517  -0.62093
  -0.30152  -0.07439  -1.03991
  -0.57087   0.03035  -1.65343
  -1.21431   0.38948  -2.10234
  -1.76797   0.82343  -2.05745
  -2.32163   1.04789  -1.75817
  -2.65083   0.88329  -1.38408
  -2.56105   0.28474  -1.14466
  -2.12710  -0.43352  -1.03991
  -1.72308  -0.88244  -1.39904
  -1.73804  -0.64302  -1.93774
  -1.99243   0.19495  -2.37169
  -2.54609   0.97307  -2.46147
  -3.17457   1.39206  -2.16219
  -3.53370   1.25738  -1.50379
  -3.60851   0.67379  -0.83042
  -3.23442  -0.17914  -0.36654
  -2.84536  -0.71783  -0.29172
  -2.47127  -1.01711  -0.56107
  -2.35156  -1.16675  -0.83042
  -2.41141  -1.12186  -0.96509
  -2.62091  -1.09193  -0.80049
  -2.83040  -1.33135  -0.56107
  -2.90522  -1.61566  -0.44136
  -2.80047  -1.78026  -0.59100
  -2.69572  -1.55581  -0.86035
  -2.62091  -1.09193  -0.71071
  -2.54609  -0.85251  -0.21691
  -2.51616  -1.19668   0.53128
  -2.32163  -1.89997   0.89041
  -2.18696  -2.61823   0.98020
  -2.15703  -3.15693   0.80063
  -2.08221  -3.36642   0.84552
  -1.97746  -3.41131   0.92034
  -1.82783  -3.32153   0.80063
  -1.60337  -3.23175   0.69588
  -1.30410  -3.14196   0.72581
  -1.10957  -2.90254   0.89041
  -0.97489  -2.67809   1.12983
  -0.78036  -2.52845   1.48896
  -0.36138  -2.34888   1.96780
  -0.06210  -2.42370   2.31197
   0.02768  -2.45363   2.65614
   0.02768  -2.75291   3.07512
   0.08753  -3.09707   3.46418
   0.29703  -3.53102   3.79338
   0.49156  -3.66570   3.77842
   0.83572  -3.54599   3.67367
   1.03025  -2.88758   3.32951
   0.89558  -1.63062   2.97038
   0.55141   0.12014   3.04519
   0.07257   1.39206   3.97295
  -0.12196   1.88586   5.11019
  -0.03218   1.67637   6.17262
   0.40177   1.12271   6.74124
   1.10507   0.22488   6.77117
   1.68866  -0.74776   6.14269
   1.80837  -0.70287   5.03537
   1.68866   0.41941   3.85324
   1.40435   1.82600   3.25469
   1.31456   2.87347   3.49411
   1.40435   3.42713   4.09266
   1.61384   3.23260   4.97552
   1.86822   2.51434   5.49925
   1.98793   1.36213   5.11019
   2.28721   0.58401   4.16748
   2.33210   0.61394   2.74592
   2.34706   1.33220   1.72838
   2.33210   2.02053   1.72838
   2.40692   2.00557   2.25212
   2.54159   1.30227   2.79081
   2.48174   0.40445   2.77585
   2.19742  -0.04447   2.16233
   1.77844   0.47927   1.36925
   1.29960   1.39206   1.17472
   1.16493   2.00557   1.26451
   1.22478   2.11032   1.44407
   1.40435   1.82600   1.42911
   1.44924   1.66140   1.56378
   1.34449   1.37709   1.99773
   1.04522   0.77854   2.46161
   0.91054   0.07524   2.43168
   0.94047  -0.46345   1.93788
   0.91054  -0.44849   1.47400
   0.97040  -0.17914   1.21962
   1.12003  -0.13425   1.21962
   1.31456  -0.17914   1.11487
   1.17989  -0.10432   0.75574
   0.74594   0.25481   0.48639
   0.29703   0.95811   0.51632
   0.19228   1.42198   1.04005
   0.59630   1.15264   1.93788
   1.25471   0.03035   2.62621
   1.92808  -1.04704   2.61125
   2.46677  -1.69048   1.87802
   2.67627  -1.57077   0.99516
   2.52663  -1.28646   0.33675
   2.55656  -1.03207  -0.18698
   2.54159  -0.58316  -0.72567
   2.54159   0.12014  -1.18955
   2.61641   0.61394  -1.06984
   2.75108   0.43437  -0.59100
   3.06532  -0.34374  -0.30669
   3.22992  -0.55323  -0.65085
   3.37956   0.15006  -1.12969
