********************************************************************************
              CENTRO DE INSTRUMENTACION Y REGISTRO SISMICO  A.C.

    Anaxagoras 814, Col. Narvarte, Benito Juarez, C.P. 03020 Mexico, D.F.
           Tels. 5687 45 42/ 5687 45  82             Fax. 5669 25 12
********************************************************************************
ARCHIVO ESTANDAR DE ACELERACION:
VERSION DEL FORMATO                    : 2.0
NOMBRE DEL ARCHIVO                     : AR1420130422011634
FECHA Y HORA DE CREACION               : 03/MAY/13, 10:40
REF. CATALOGO ACELEROGRAMAS, SMIS 1996 : REGISTRO No.     /PAG.


================================================================================
DATOS DE LA ESTACION:
NOMBRE DE LA ESTACION                  : ESC. PRIM. "JOSÉ ORDAZ LÓPEZ"
CLAVE DE LA ESTACION                   : AR14
LOCALIZACION DE LA ESTACION            : Del. Gustavo A. Madero,                
                                       : Col. Ampliación la Providencia,        
                                       : Calle Puebla esq. con calle            
                                       : Volcán Tacan.                          
                                       : 
COORDENADAS DE LA ESTACION             : 19.4808 LAT. N
                                       : 99.0760 LONG. W
ALTITUD (msnm)                         : 2232
TIPO DE SUELO                          : Arcilloso, zona lago                
                                       :                           
                                       : 
INSTITUCION RESPONSABLE                : CIRES
                                       : 

================================================================================
DATOS DEL ACELEROGRAFO:
MODELO DEL ACELEROGRAFO                : RADESD
NUMERO DE SERIE DEL ACELEROGRAFO       : 215
NUMERO DE CANALES                      : 3
ORIENTACION C1-C6 (rumbo;orientacion)  : /N00E/+V/N90W
ORIENTACION C7-C12 (rumbo;orientacion) : 
VEL. DE MUESTREO, C1-C6 (muestras/s)   : /100/100/100
VEL. DE MUESTREO, C7-C12 (muestras/s)  : 
ESC. COMPLETA DE SENSORES, C1-C6, (g)  : /0.5/0.5/0.5
ESC. COMPLETA DE SENSORES, C7-C12, (g) : 
FREC. NAT. DE SENSORES, C1-C6, (Hz)    : /30/30/32
FREC. NAT. DE SENSORES, C7-C12, (Hz)   : 
AMORTIGUAMIENTO DE SENSORES, C1-C6     : /0.733/0.790/0.750
AMORTIGUAMIENTO DE SENSORES, C7-C12    : 
INTERVALO DE MUESTREO, C1-C6, (s)      : /0.01/0.01/0.01
INTERVALO DE MUESTREO, C7-C12, (s)     : 
UMBRAL DE DISPARO, C1-C6, (Gal)        : /31.12/95.77/35.91
UMBRAL DE DISPARO, C7-C12, (Gal)       : 
MEMORIA DE PREEVENTO (s)               : 56.0
TIEMPO DE POSEVENTO (s)                : 80.0


================================================================================
DATOS DEL SISMO:
FECHA DEL SISMO (GMT)                  : 22/ABR/13
HORA EPICENTRO (GMT)                   : 01:16:34.0
MAGNITUD(ES)                           : /Mc=5.8
COORDENADAS DEL EPICENTRO              : 17.87 LAT. N
                                       : 102.19 LONG. W
PROFUNDIDAD FOCAL (km)                 : 10
FUENTE DE LOS DATOS EPICENTRALES       : SSN
                                       : INSTITUTO DE GEOFISICA, UNAM

================================================================================
DATOS DE ESTE REGISTRO:
HORA DE LA PRIMERA MUESTRA (GMT)       : 01:18:21.00
EXACTITUD DEL TIEMPO (s)               : 0.01
DURACION DEL REGISTRO (s), C1-C6       : /177.4/177.4/177.4
DURACION DEL REGISTRO (s), C7-C12      : 
NUM. TOTAL DE MUESTRAS, C1-C6          : /17740/17740/17740
NUM. TOTAL DE MUESTRAS, C7-C12         : 
ACEL. MAX. (Gal), C1-C6                : /6.19097/3.13774/6.58671
ACEL. MAX., C1-C6, EN LA MUESTRA       : /5506/6318/4393
ACEL. MAX. (Gal), C7-C12               : 
ACEL. MAX., C7-C12, EN LA MUESTRA      : 
UNIDADES DE LOS DATOS                  : Gal (cm/s/s)
FACTOR DE DECIMACION                   : 1
FORMATO DATOS (FORTRAN,10 campos/dato) : 3F10.5


================================================================================
CALIDAD DEL ACELEROGRAMA:
REGISTRO DIGITAL COMPLETO CON TIEMPO ABSOLUTO CORRECTO.


================================================================================
COMENTARIOS:














================================================================================
DATOS DE ACELERACION:
---------+---------+---------+---------+---------+---------+---------+---------+
   CANAL-1   CANAL-2   CANAL-3   CANAL-4   CANAL-5   CANAL-6   CANAL-7   CANAL-8
      N00E        +V      N90W
---------+---------+---------+---------+---------+---------+---------+---------+
[...]
  -0.02590   0.61816  -2.26218
   0.03395   0.60320  -2.20232
   0.06388   0.51341  -2.09758
   0.07884   0.40867  -2.02276
   0.06388   0.25903  -1.97787
   0.00402   0.09443  -1.90305
  -0.08576  -0.01032  -1.82823
  -0.19051  -0.11506  -1.75341
  -0.29525  -0.20485  -1.69356
  -0.38504  -0.27967  -1.61874
  -0.45985  -0.36945  -1.58881
  -0.56460  -0.39938  -1.52895
  -0.69927  -0.44427  -1.46910
  -0.89380  -0.50412  -1.39428
  -1.07337  -0.51909  -1.36435
  -1.29782  -0.60887  -1.30450
  -1.46243  -0.66872  -1.28953
  -1.56717  -0.74354  -1.22968
  -1.70185  -0.84829  -1.19975
  -1.86645  -0.86325  -1.18479
  -2.03105  -0.81836  -1.15486
  -2.16572  -0.75851  -1.12493
  -2.30040  -0.63880  -1.10997
  -2.39018  -0.51909  -1.12493
  -2.46500  -0.44427  -1.13990
  -2.52485  -0.48916  -1.15486
  -2.58471  -0.60887  -1.15486
  -2.61464  -0.71362  -1.10997
  -2.61464  -0.71362  -0.99026
  -2.62960  -0.68369  -0.91544
  -2.59967  -0.68369  -0.87055
  -2.55478  -0.62383  -0.87055
  -2.52485  -0.62383  -0.90048
  -2.45003  -0.62383  -0.96033
  -2.40514  -0.60887  -0.99026
  -2.37522  -0.66872  -1.03515
  -2.34529  -0.69865  -1.10997
  -2.30040  -0.69865  -1.19975
  -2.25551  -0.60887  -1.28953
  -2.21061  -0.57894  -1.43917
  -2.18069  -0.62383  -1.61874
  -2.19565  -0.66872  -1.84319
  -2.16572  -0.84829  -2.06765
  -2.18069  -0.98296  -2.23225
  -2.18069  -1.05778  -2.39685
  -2.21061  -1.02785  -2.60635
  -2.25551  -1.08771  -2.83080
  -2.28543  -1.14756  -3.04029
  -2.27047  -1.28224  -3.21986
  -2.28543  -1.38698  -3.35453
  -2.27047  -1.44684  -3.42935
  -2.31536  -1.43188  -3.53410
  -2.37522  -1.50669  -3.62388
  -2.39018  -1.53662  -3.65381
  -2.37522  -1.62640  -3.63884
  -2.36025  -1.61144  -3.62388
  -2.36025  -1.52166  -3.65381
  -2.39018  -1.44684  -3.66877
  -2.45003  -1.41691  -3.71366
  -2.50989  -1.41691  -3.68374
  -2.53982  -1.35706  -3.63884
  -2.58471  -1.25231  -3.59395
  -2.58471  -1.14756  -3.57899
  -2.59967  -1.02785  -3.62388
  -2.56974  -0.98296  -3.69870
  -2.52485  -0.92311  -3.77352
  -2.47996  -0.89318  -3.80345
  -2.42011  -0.84829  -3.78848
  -2.36025  -0.74354  -3.78848
  -2.30040  -0.66872  -3.74359
  -2.25551  -0.59391  -3.71366
  -2.18069  -0.54901  -3.62388
  -2.19565  -0.51909  -3.47424
  -2.24054  -0.48916  -3.30964
  -2.30040  -0.42930  -3.11511
  -2.40514  -0.30959  -2.87569
  -2.52485  -0.17492  -2.66620
  -2.68945  -0.10010  -2.47167
  -2.80916   0.00465  -2.30707
  -2.89895   0.07946  -2.11254
  -2.97377   0.10939  -1.90305
  -3.03362   0.16925  -1.72348
  -3.09348   0.22910  -1.57385
  -3.12340   0.25903  -1.46910
  -3.10844   0.30392  -1.37932
  -3.06355   0.30392  -1.33443
  -2.98873   0.37874  -1.28953
  -2.91391   0.37874  -1.25961
  -2.83909   0.34881  -1.24464
  -2.77924   0.33385  -1.25961
  -2.65953   0.28896  -1.22968
  -2.49493   0.28896  -1.21472
  -2.31536   0.25903  -1.19975
  -2.18069   0.13932  -1.27457
  -2.01608   0.04954  -1.31946
  -1.82156  -0.04025  -1.39428
  -1.62703  -0.17492  -1.46910
  -1.44746  -0.26470  -1.49903
  -1.32775  -0.27967  -1.48406
  -1.19308  -0.26470  -1.46910
  -1.04344  -0.21981  -1.43917
  -0.93869  -0.21981  -1.40924
  -0.81898  -0.26470  -1.36435
  -0.72920  -0.27967  -1.31946
  -0.65438  -0.26470  -1.24464
  -0.56460  -0.18988  -1.12493
  -0.48978  -0.14499  -1.08004
  -0.42993  -0.15996  -1.02019
  -0.34014  -0.13003  -0.96033
  -0.25036  -0.11506  -0.88551
  -0.14561  -0.11506  -0.81069
  -0.05583  -0.07017  -0.76580
   0.03395  -0.01032  -0.76580
   0.15366   0.06450  -0.73588
   0.25841   0.06450  -0.72091
   0.36315   0.10939  -0.73588
   0.46790   0.18421  -0.63113
   0.49783   0.25903  -0.57127
   0.51279   0.31888  -0.46653
   0.46790   0.31888  -0.34682
   0.39308   0.34881  -0.21214
   0.36315   0.39370  -0.09243
   0.33323   0.42363  -0.00265
   0.28833   0.49845   0.08713
   0.25841   0.54334   0.14699
   0.21352   0.57327   0.16195
   0.15366   0.54334   0.25173
   0.10877   0.58823   0.37144
   0.10877   0.75283   0.52108
   0.12373   0.91743   0.64079
   0.07884   1.14189   0.74554
   0.09381   1.32146   0.79043
   0.10877   1.39627   0.88021
   0.12373   1.38131   1.01488
   0.10877   1.33642   1.26927
   0.09381   1.30649   1.61343
   0.09381   1.36635   1.95760
   0.15366   1.42620   2.27184
   0.16862   1.45613   2.49630
   0.13870   1.38131   2.66090
   0.12373   1.20175   2.88535
   0.18359   0.99225   3.19959
   0.24344   0.88751   3.58865
   0.28833   0.82765   4.00764
   0.31826   0.79772   4.38173
   0.33323   0.82765   4.63611
   0.34819   0.82765   4.84561
   0.31826   0.76780   5.02517
   0.31826   0.61816   5.23466
   0.31826   0.46852   5.45912
   0.36315   0.34881   5.72847
   0.42301   0.36378   5.96789
   0.48286   0.43859   6.11753
   0.54272   0.49845   6.14745
   0.61754   0.49845   6.08760
   0.67739   0.36378   6.05767
   0.79710   0.24407   6.04271
   0.97667   0.12436   6.10256
   1.14127   0.01961   6.13249
   1.26098  -0.01032   6.10256
   1.33580  -0.04025   5.95293
   1.38069  -0.13003   5.78832
   1.42558  -0.26470   5.68358
   1.47047  -0.41434   5.68358
   1.57522  -0.50412   5.75840
   1.65004  -0.47420   5.81825
   1.69493  -0.44427   5.80329
   1.75478  -0.42930   5.74343
   1.76975  -0.51909   5.74343
   1.78471  -0.54901   5.75840
   1.82960  -0.54901   5.77336
   1.90442  -0.54901   5.87811
   2.02413  -0.47420   5.98285
   2.11391  -0.33952   6.08760
   2.24859  -0.21981   6.13249
   2.23362  -0.24974   6.13249
   2.27851  -0.23477   6.10256
   2.32341  -0.23477   6.10256
   2.36830  -0.18988   6.16242
   2.33837  -0.10010   6.13249
   2.29348  -0.10010   6.13249
   2.21866  -0.01032   6.13249
   2.17377   0.01961   6.11753
   2.11391  -0.02528   6.07264
   2.11391  -0.05521   6.05767
   2.11391  -0.04025   6.08760
   2.17377  -0.02528   6.13249
   2.18873   0.04954   6.08760
   2.18873   0.01961   5.99782
   2.21866  -0.04025   5.92300
   2.21866  -0.13003   5.87811
   2.18873  -0.21981   5.86314
   2.15880  -0.27967   5.86314
   2.12888  -0.32456   5.81825
   2.06902  -0.20485   5.75840
   1.94931  -0.13003   5.59380
   1.73982  -0.08514   5.36934
   1.59018  -0.08514   5.14488
   1.42558  -0.18988   4.98028
   1.33580  -0.18988   4.95035
   1.24601  -0.14499   4.95035
   1.14127  -0.10010   4.86057
   1.02156  -0.10010   4.66604
   0.91681  -0.08514   4.42662
   0.81207  -0.08514   4.18720
   0.75221  -0.13003   3.96275
   0.66243  -0.11506   3.78318
   0.58761  -0.07017   3.64851
   0.49783  -0.01032   3.52880
   0.45294   0.07946   3.37916
   0.34819   0.12436   3.16967
   0.24344   0.15428   2.88535
   0.16862   0.15428   2.61601
   0.12373   0.06450   2.40651
   0.07884  -0.10010   2.30177
  -0.01094  -0.13003   2.21199
  -0.14561  -0.11506   2.06235
  -0.25036  -0.07017   1.91271
  -0.34014  -0.11506   1.68825
  -0.38504  -0.20485   1.53862
  -0.34014  -0.33952   1.41891
  -0.28029  -0.41434   1.32912
  -0.25036  -0.42930   1.22438
  -0.22043  -0.41434   1.10467
  -0.22043  -0.33952   0.91014
  -0.19051  -0.29463   0.71561
  -0.16058  -0.35449   0.49115
  -0.10072  -0.45923   0.34152
   0.01899  -0.50412   0.32655
   0.13870  -0.42930   0.40137
   0.19855  -0.30959   0.47619
   0.21352  -0.13003   0.41633
   0.16862  -0.04025   0.28166
   0.12373  -0.02528   0.14699
   0.13870  -0.01032   0.05720
   0.12373  -0.04025   0.04224
   0.15366  -0.01032   0.10210
   0.12373   0.13932   0.13202
   0.15366   0.27399   0.11706
   0.24344   0.45356  -0.03258
   0.34819   0.61816  -0.25704
   0.45294   0.63312  -0.54135
   0.61754   0.57327  -0.70595
   0.79710   0.55830  -0.75084
   0.96170   0.66305  -0.72091
   1.08141   0.78276  -0.79573
   1.17120   0.87254  -0.94537
   1.27594   0.87254  -1.08004
   1.30587   0.78276  -1.13990
   1.38069   0.60320  -1.10997
   1.45551   0.54334  -0.99026
   1.54529   0.64809  -0.96033
   1.57522   0.73787  -0.93040
   1.57522   0.79772  -0.96033
   1.57522   0.82765  -0.99026
   1.59018   0.81269  -1.02019
   1.59018   0.72291  -0.97530
   1.62011   0.69298  -0.85559
   1.65004   0.73787  -0.75084
   1.66500   0.79772  -0.70595
   1.66500   0.85758  -0.70595
   1.63507   0.81269  -0.72091
   1.60515   0.75283  -0.72091
   1.62011   0.66305  -0.70595
   1.65004   0.57327  -0.69098
   1.65004   0.58823  -0.67602
   1.62011   0.60320  -0.64609
   1.56025   0.55830  -0.69098
   1.50040   0.54334  -0.72091
   1.38069   0.43859  -0.76580
   1.29091   0.37874  -0.81069
   1.21609   0.27399  -0.84062
   1.12630   0.16925  -0.84062
   1.00659   0.06450  -0.79573
   0.93178  -0.01032  -0.76580
   0.85696  -0.07017  -0.75084
   0.81207  -0.07017  -0.76580
   0.75221  -0.10010  -0.78077
   0.73725  -0.10010  -0.84062
   0.72228  -0.02528  -0.87055
   0.67739   0.06450  -0.94537
   0.67739   0.10939  -0.99026
   0.66243   0.12436  -1.05011
   0.64746   0.10939  -1.09501
   0.66243   0.12436  -1.12493
   0.70732   0.10939  -1.16982
   0.66243   0.16925  -1.21472
   0.61754   0.16925  -1.22968
   0.48286   0.18421  -1.21472
   0.34819   0.21414  -1.15486
   0.24344   0.18421  -1.09501
   0.16862   0.18421  -1.08004
   0.07884   0.15428  -1.10997
   0.00402   0.15428  -1.09501
  -0.05583   0.24407  -1.08004
  -0.11569   0.39370  -1.02019
  -0.16058   0.54334  -1.00522
  -0.19051   0.67801  -1.03515
  -0.23540   0.79772  -1.13990
  -0.32518   0.79772  -1.22968
  -0.42993   0.75283  -1.27457
  -0.56460   0.76780  -1.30450
  -0.65438   0.84262  -1.33443
  -0.69927   0.94736  -1.40924
  -0.74417   1.02218  -1.49903
  -0.77409   1.05211  -1.66363
  -0.81898   0.97729  -1.82823
  -0.86388   0.93240  -2.00780
  -0.90877   0.90247  -2.12751
  -0.89380   0.91743  -2.26218
  -0.84891   0.94736  -2.38189
  -0.75913   0.99225  -2.56145
  -0.66935   0.91743  -2.72606
  -0.63942   0.82765  -2.89066
  -0.59453   0.70794  -3.01037
  -0.54964   0.64809  -3.10015
  -0.53467   0.61816  -3.16000
  -0.48978   0.57327  -3.24979
  -0.45985   0.49845  -3.32461
  -0.44489   0.48349  -3.41439
  -0.44489   0.39370  -3.47424
  -0.47482   0.34881  -3.54906
  -0.50475   0.27399  -3.63884
  -0.51971   0.13932  -3.72863
  -0.53467   0.00465  -3.81841
  -0.57956  -0.10010  -3.92316
  -0.56460  -0.20485  -4.04287
  -0.62446  -0.27967  -4.22243
  -0.63942  -0.33952  -4.43192
  -0.62446  -0.38441  -4.61149
  -0.62446  -0.42930  -4.83595
  -0.60949  -0.56398  -5.03047
  -0.57956  -0.69865  -5.21004
  -0.53467  -0.77347  -5.34471
  -0.42993  -0.87822  -5.53924
  -0.38504  -0.92311  -5.68888
  -0.31022  -0.99793  -5.83852
  -0.28029  -1.07275  -5.98816
  -0.23540  -1.14756  -6.12283
  -0.16058  -1.22238  -6.25750
  -0.10072  -1.31217  -6.37721
   0.00402  -1.28224  -6.45203
   0.03395  -1.26727  -6.49692
   0.06388  -1.28224  -6.54181
   0.04891  -1.31217  -6.55678
   0.04891  -1.31217  -6.57174
   0.01899  -1.34209  -6.55678
   0.00402  -1.31217  -6.58671
   0.03395  -1.22238  -6.51189
   0.03395  -1.05778  -6.45203
   0.06388  -0.96800  -6.45203
   0.06388  -0.84829  -6.46700
   0.13870  -0.78843  -6.49692
   0.21352  -0.74354  -6.51189
   0.30330  -0.68369  -6.52685
   0.42301  -0.59391  -6.54181
   0.49783  -0.45923  -6.52685
   0.54272  -0.36945  -6.52685
   0.60257  -0.29463  -6.48196
   0.58761  -0.27967  -6.34729
   0.61754  -0.27967  -6.19765
   0.69236  -0.23477  -6.03305
   0.75221  -0.18988  -5.88341
   0.85696  -0.14499  -5.70384
   0.93178  -0.13003  -5.50931
   0.99163  -0.14499  -5.31479
   1.05149  -0.17492  -5.10529
   1.15623  -0.15996  -4.91076
   1.21609  -0.08514  -4.76113
   1.36572  -0.07017  -4.65638
   1.53033  -0.05521  -4.61149
   1.67996  -0.02528  -4.55163
   1.75478  -0.01032  -4.47682
   1.79967   0.00465  -4.40200
   1.82960   0.06450  -4.28229
   1.88946   0.19917  -4.16258
   1.94931   0.30392  -4.08776
   1.97924   0.42363  -4.04287
   2.00917   0.43859  -4.01294
   1.99420   0.46852  -3.93812
   1.94931   0.45356  -3.81841
   1.87449   0.43859  -3.62388
   1.82960   0.45356  -3.45928
   1.78471   0.48349  -3.29468
   1.69493   0.46852  -3.18993
   1.59018   0.39370  -3.02533
   1.48543   0.31888  -2.86073
   1.32083   0.27399  -2.65124
   1.18616   0.21414  -2.47167
   1.03652   0.19917  -2.26218
   0.88688   0.16925  -2.12751
   0.75221   0.13932  -2.03772
   0.63250   0.07946  -1.99283
   0.51279   0.01961  -1.93298
   0.36315  -0.02528  -1.85816
   0.24344   0.00465  -1.76837
   0.09381   0.01961  -1.70852
  -0.01094   0.07946  -1.64866
  -0.11569   0.06450  -1.60377
  -0.25036   0.01961  -1.51399
  -0.35511   0.00465  -1.42421
  -0.44489  -0.08514  -1.31946
  -0.54964  -0.10010  -1.18479
  -0.66935  -0.11506  -1.00522
  -0.80402  -0.15996  -0.79573
  -0.93869  -0.14499  -0.60120
  -1.07337  -0.15996  -0.42164
  -1.23797  -0.23477  -0.21214
  -1.41753  -0.27967  -0.04754
  -1.56717  -0.32456   0.17691
  -1.74674  -0.29463   0.41633
  -1.97119  -0.30959   0.64079
  -2.18069  -0.27967   0.88021
  -2.36025  -0.23477   1.08970
  -2.55478  -0.18988   1.26927
  -2.68945  -0.21981   1.38898
  -2.82413  -0.24974   1.49372
  -2.91391  -0.32456   1.61343
  -3.00369  -0.35449   1.73315
  -3.07851  -0.32456   1.83789
  -3.12340  -0.26470   1.91271
  -3.15333  -0.21981   1.94264
  -3.18326  -0.24974   1.92767
  -3.15333  -0.35449   1.95760
  -3.16829  -0.44427   2.04738
  -3.18326  -0.50412   2.16709
  -3.16829  -0.57894   2.30177
  -3.15333  -0.63880   2.34666
  -3.09348  -0.68369   2.40651
  -3.09348  -0.72858   2.48133
  -3.09348  -0.77347   2.61601
  -3.04858  -0.87822   2.75068
  -2.98873  -0.92311   2.88535
  -2.89895  -0.98296   2.99010
  -2.86902  -1.01289   3.13974
  -2.82413  -1.02785   3.27441
  -2.80916  -1.02785   3.43901
  -2.77924  -1.02785   3.58865
  -2.74931  -1.08771   3.69340
  -2.73435  -1.10267   3.84304
  -2.73435  -1.11764   3.91785
  -2.71938  -1.10267   3.99267
  -2.71938  -1.08771   4.08246
  -2.70442  -1.10267   4.17224
  -2.70442  -1.10267   4.21713
  -2.70442  -1.14756   4.24706
  -2.67449  -1.20742   4.24706
  -2.67449  -1.16253   4.26202
  -2.64456  -1.11764   4.27698
  -2.56974  -1.08771   4.26202
  -2.43507  -1.02785   4.21713
  -2.30040  -0.98296   4.14231
  -2.13580  -0.96800   4.06749
  -1.94127  -0.98296   3.99267
  -1.76170  -0.95304   3.96275
  -1.56717  -0.84829   3.91785
  -1.34272  -0.71362   3.87296
  -1.07337  -0.59391   3.79814
  -0.84891  -0.53405   3.66347
  -0.62446  -0.51909   3.52880
  -0.41496  -0.45923   3.43901
  -0.25036  -0.41434   3.37916
  -0.08576  -0.38441   3.30434
   0.09381  -0.33952   3.22952
   0.25841  -0.35449   3.18463
   0.39308  -0.35449   3.12477
   0.48286  -0.30959   3.10981
   0.55768  -0.23477   3.13974
   0.60257  -0.20485   3.21456
   0.60257  -0.10010   3.28938
   0.60257  -0.01032   3.36419
   0.55768   0.03457   3.46894
   0.49783   0.07946   3.57369
   0.43797   0.15428   3.67843
   0.36315   0.24407   3.73829
   0.25841   0.33385   3.79814
   0.19855   0.40867   3.78318
   0.09381   0.49845   3.79814
   0.03395   0.58823   3.81311
  -0.02590   0.70794   3.81311
  -0.02590   0.84262   3.73829
  -0.01094   0.94736   3.67843
   0.03395   1.02218   3.57369
   0.04891   1.06707   3.48391
   0.07884   1.11196   3.40909
   0.13870   1.12693   3.36419
   0.21352   1.15685   3.28938
   0.30330   1.14189   3.22952
   0.36315   1.06707   3.19959
   0.39308   0.99225   3.19959
   0.37812   0.96233   3.21456
   0.37812   0.91743   3.24448
   0.34819   0.87254   3.27441
   0.27337   0.78276   3.30434
   0.15366   0.57327   3.33427
   0.01899   0.37874   3.43901
