********************************************************************************
              CENTRO DE INSTRUMENTACION Y REGISTRO SISMICO  A.C.

    Anaxagoras 814, Col. Narvarte, Benito Juarez, C.P. 03020 Mexico, D.F.
           Tels. 5687 45 42/ 5687 45  82             Fax. 5669 25 12
********************************************************************************
ARCHIVO ESTANDAR DE ACELERACION:
VERSION DEL FORMATO                    : 2.0
NOMBRE DEL ARCHIVO                     : AR1420160508073359
FECHA Y HORA DE CREACION               : 31/MAY/16, 11:10
REF. CATALOGO ACELEROGRAMAS, SMIS 1996 : REGISTRO No.     /PAG.


================================================================================
DATOS DE LA ESTACION:
NOMBRE DE LA ESTACION                  : ESC. PRIM. "JOSÉ ORDAZ LÓPEZ"
CLAVE DE LA ESTACION                   : AR14
LOCALIZACION DE LA ESTACION            : Del. Gustavo A. Madero,                
                                       : Col. Ampliación la Providencia,        
                                       : Calle Puebla esq. con calle            
                                       : Volcán Tacan.                          
                                       : 
COORDENADAS DE LA ESTACION             : 19.4808 LAT. N
                                       : 99.0760 LONG. W
ALTITUD (msnm)                         : 2232
TIPO DE SUELO                          : Arcilloso, zona lago                
                                       :                           
                                       : 
INSTITUCION RESPONSABLE                : CIRES
                                       : 

================================================================================
DATOS DEL ACELEROGRAFO:
MODELO DEL ACELEROGRAFO                : RADESD
NUMERO DE SERIE DEL ACELEROGRAFO       : 215
NUMERO DE CANALES                      : 3
ORIENTACION C1-C6 (rumbo;orientacion)  : /N00E/+V/N90W
ORIENTACION C7-C12 (rumbo;orientacion) : 
VEL. DE MUESTREO, C1-C6 (muestras/s)   : /100/100/100
VEL. DE MUESTREO, C7-C12 (muestras/s)  : 
ESC. COMPLETA DE SENSORES, C1-C6, (g)  : /0.5/0.5/0.5
ESC. COMPLETA DE SENSORES, C7-C12, (g) : 
FREC. NAT. DE SENSORES, C1-C6, (Hz)    : /30/30/32
FREC. NAT. DE SENSORES, C7-C12, (Hz)   : 
AMORTIGUAMIENTO DE SENSORES, C1-C6     : /0.733/0.790/0.750
AMORTIGUAMIENTO DE SENSORES, C7-C12    : 
INTERVALO DE MUESTREO, C1-C6, (s)      : /0.01/0.01/0.01
INTERVALO DE MUESTREO, C7-C12, (s)     : 
UMBRAL DE DISPARO, C1-C6, (Gal)        : /1.95/5.99/2.54
UMBRAL DE DISPARO, C7-C12, (Gal)       : 
MEMORIA DE PREEVENTO (s)               : 44.0
TIEMPO DE POSEVENTO (s)                : 259.0


================================================================================
DATOS DEL SISMO:
FECHA DEL SISMO (GMT)                  : 08/MAY/16
HORA EPICENTRO (GMT)                   : 07:33:59.0
MAGNITUD(ES)                           : /Mc=6.0
COORDENADAS DEL EPICENTRO              : 16.25 LAT. N
                                       : 97.98 LONG. W
PROFUNDIDAD FOCAL (km)                 : 35
FUENTE DE LOS DATOS EPICENTRALES       : SSN
                                       : INSTITUTO DE GEOFISICA, UNAM

================================================================================
DATOS DE ESTE REGISTRO:
HORA DE LA PRIMERA MUESTRA (GMT)       : 07:35:54.00
EXACTITUD DEL TIEMPO (s)               : 0.01
DURACION DEL REGISTRO (s), C1-C6       : /144.6/144.6/144.6
DURACION DEL REGISTRO (s), C7-C12      : 
NUM. TOTAL DE MUESTRAS, C1-C6          : /14460/14460/14460
NUM. TOTAL DE MUESTRAS, C7-C12         : 
ACEL. MAX. (Gal), C1-C6                : /3.30839/1.92187/2.93145
ACEL. MAX., C1-C6, EN LA MUESTRA       : /4452/4598/3937
ACEL. MAX. (Gal), C7-C12               : 
ACEL. MAX., C7-C12, EN LA MUESTRA      : 
UNIDADES DE LOS DATOS                  : Gal (cm/s/s)
FACTOR DE DECIMACION                   : 1
FORMATO DATOS (FORTRAN,10 campos/dato) : 3F10.5


================================================================================
CALIDAD DEL ACELEROGRAMA:
REGISTRO DIGITAL COMPLETO CON TIEMPO ABSOLUTO CORRECTO.


================================================================================
COMENTARIOS:














================================================================================
DATOS DE ACELERACION:
---------+---------+---------+---------+---------+---------+---------+---------+
   CANAL-1   CANAL-2   CANAL-3   CANAL-4   CANAL-5   CANAL-6   CANAL-7   CANAL-8
      N00E        +V      N90W
---------+---------+---------+---------+---------+---------+---------+---------+
[...]
  -0.88146  -0.18607  -1.75221
  -0.77671  -0.24593  -1.66242
  -0.76175  -0.23097  -1.66242
  -0.86650  -0.27586  -1.69235
  -0.80664  -0.33571  -1.55768
  -0.77671  -0.27586  -1.54271
  -0.91139  -0.35068  -1.54271
  -0.91139  -0.32075  -1.52775
  -1.00117  -0.38060  -1.42300
  -1.13584  -0.45542  -1.36315
  -1.16577  -0.51528  -1.28833
  -1.33037  -0.39557  -1.13869
  -1.49497  -0.59010  -1.12373
  -1.49497  -0.66491  -1.01898
  -1.52490  -0.47039  -1.03395
  -1.68950  -0.62002  -1.00402
  -1.49497  -0.53024  -1.03395
  -1.49497  -0.60506  -0.98905
  -1.40519  -0.76966  -1.01898
  -1.22563  -0.76966  -1.13869
  -1.01613  -0.78462  -1.15366
  -0.80664  -0.69484  -1.16862
  -0.56722  -0.75470  -1.22848
  -0.34276  -0.70981  -1.25840
  -0.11831  -0.72477  -1.22848
   0.28571  -0.62002  -1.36315
   0.43535  -0.76966  -1.31826
   0.61492  -0.81455  -1.36315
   0.76455  -0.70981  -1.33322
   0.88426  -0.73973  -1.36315
   0.95908  -0.66491  -1.24344
   0.98901  -0.60506  -1.27337
   1.09376  -0.63499  -1.37811
   1.22843  -0.64995  -1.15366
   1.27332  -0.47039  -1.22848
   1.40800  -0.44046  -1.13869
   1.46785  -0.50031  -1.03395
   1.57260  -0.45542  -0.97409
   1.67734  -0.24593  -0.86934
   1.73720  -0.18607  -0.70474
   1.69231  -0.42549  -0.61496
   1.75216  -0.20104  -0.45036
   1.78209  -0.30578  -0.24087
   1.76713  -0.24593  -0.15108
   1.72223  -0.33571  -0.00145
   1.70727  -0.47039   0.23797
   1.69231  -0.41053   0.26790
   1.58756  -0.45542   0.38761
   1.67734  -0.59010   0.46243
   1.61749  -0.73973   0.59710
   1.64742  -0.47039   0.62703
   1.49778  -0.54520   0.74674
   1.48281  -0.36564   0.68689
   1.34814  -0.29082   0.82156
   1.12368  -0.26089   0.86645
   1.07879  -0.03644   0.98616
   0.80945   0.05335   1.01609
   0.64484   0.14313   1.15076
   0.39046   0.35262   1.22558
   0.18097   0.35262   1.13580
  -0.01356   0.44240   1.27047
  -0.25298   0.63693   1.33033
  -0.40262   0.71175   1.37522
  -0.73182   0.75664   1.43507
  -0.94131   0.72672   1.36026
  -1.19570   0.81650   1.47997
  -1.37526   0.84643   1.46500
  -1.53987   0.69679   1.47997
  -1.64461   0.72672   1.61464
  -1.67454   0.63693   1.70442
  -1.68950   0.62197   1.74931
  -1.67454   0.48729   1.86902
  -1.56979   0.54715   1.94384
  -1.39023   0.47233   2.03362
  -1.24059   0.50226   2.01866
  -1.07599   0.59204   2.12341
  -0.85153   0.57708   2.00370
  -0.62708   0.59204   2.03362
  -0.56722   0.69679   2.09348
  -0.47744   0.65190   2.06355
  -0.32780   0.69679   2.00370
  -0.26795   0.72672   1.91391
  -0.28291   0.72672   1.77924
  -0.17816   0.66686   1.83910
  -0.16320   0.59204   1.74931
  -0.04349   0.57708   1.65953
   0.00140   0.53219   1.53982
   0.07622   0.48729   1.42011
   0.25579   0.45737   1.34529
   0.25579   0.47233   1.15076
   0.48024   0.32269   1.03105
   0.67477   0.23291   0.92631
   0.73463   0.18802   0.71681
   0.88426   0.06831   0.50732
   1.01894   0.08327   0.32776
   1.18354  -0.18607   0.20805
   1.25836  -0.30578   0.01352
   1.22843  -0.50031  -0.04634
   1.21347  -0.47039  -0.28576
   1.18354  -0.75470  -0.25583
   1.18354  -0.76966  -0.37554
   1.10872  -0.93426  -0.61496
   1.09376  -0.94923  -0.74963
   0.97405  -0.91930  -0.97409
   0.76455  -1.00908  -1.13869
   0.71966  -1.03901  -1.27337
   0.59995  -0.91930  -1.33322
   0.59995  -1.06894  -1.49782
   0.51017  -1.03901  -1.70732
   0.43535  -0.90433  -1.81206
   0.40542  -1.08390  -1.96170
   0.37550  -1.05397  -2.03652
   0.39046  -1.05397  -2.03652
   0.31564  -1.11383  -2.14126
   0.34557  -0.93426  -2.12630
   0.34557  -1.05397  -2.08141
   0.34557  -1.03901  -2.08141
   0.37550  -0.96419  -2.06645
   0.36053  -1.03901  -2.05148
   0.37550  -0.76966  -2.05148
   0.22586  -0.85944  -2.02155
   0.30068  -0.79959  -1.94674
   0.16600  -0.50031  -1.85695
   0.10615  -0.32075  -1.81206
  -0.01356  -0.18607  -1.67739
  -0.11831  -0.05140  -1.64746
  -0.19313  -0.02147  -1.39308
  -0.22305   0.35262  -1.33322
  -0.31284   0.38255  -1.19855
  -0.26795   0.59204  -1.07884
  -0.38766   0.66686  -1.09380
  -0.32780   0.71175  -1.12373
  -0.43255   0.75664  -0.92920
  -0.40262   0.72672  -0.92920
  -0.34276   0.89132  -0.89927
  -0.34276   0.93621  -0.74963
  -0.40262   0.93621  -0.71971
  -0.32780   0.93621  -0.74963
  -0.38766   0.86139  -0.64489
  -0.37269   0.80153  -0.64489
  -0.50737   0.63693  -0.49525
  -0.49240   0.51722  -0.45036
  -0.59715   0.57708  -0.43540
  -0.71686   0.63693  -0.39050
  -0.77671   0.44240  -0.31569
  -0.82160   0.47233  -0.39050
  -0.94131   0.53219  -0.42043
  -1.16577   0.39751  -0.51021
  -1.21066   0.39751  -0.52518
  -1.30044   0.42744  -0.55511
  -1.50994   0.36758  -0.54014
  -1.52490   0.29277  -0.55511
  -1.62965   0.24787  -0.61496
  -1.77929   0.21795  -0.52518
  -1.80921   0.33766  -0.49525
  -1.91396   0.27780  -0.54014
  -1.91396   0.24787  -0.51021
  -1.94389   0.24787  -0.25583
  -1.92892   0.29277  -0.27079
  -1.86907   0.23291  -0.19598
  -1.89900   0.15809  -0.12116
  -1.79425   0.14313  -0.07627
  -1.70447   0.20298  -0.04634
  -1.70447   0.12816   0.07337
  -1.67454   0.02342   0.11826
  -1.53987   0.00845   0.04344
  -1.50994  -0.15615   0.29783
  -1.42016  -0.20104   0.28286
  -1.24059  -0.18607   0.38761
  -1.19570  -0.29082   0.44747
  -1.06102  -0.33571   0.44747
  -1.15081  -0.23097   0.55221
  -0.98621  -0.32075   0.65696
  -0.98621  -0.18607   0.67192
  -0.92635  -0.26089   0.86645
  -0.83657  -0.27586   0.97120
  -0.77671  -0.18607   0.98616
  -0.80664  -0.21600   1.09091
  -0.79168  -0.30578   1.27047
  -0.92635  -0.27586   1.40515
  -0.82160  -0.09629   1.50989
  -0.92635  -0.17111   1.77924
  -0.88146  -0.18607   1.86902
  -0.77671  -0.11126   2.01866
  -0.92635  -0.20104   2.24312
  -0.83657  -0.17111   2.15333
  -0.71686  -0.05140   2.37779
  -0.67197  -0.03644   2.48254
  -0.58218  -0.03644   2.54239
  -0.43255  -0.00651   2.46757
  -0.40262   0.08327   2.52743
  -0.17816   0.26284   2.58728
   0.01637   0.30773   2.55736
   0.15104   0.38255   2.36283
   0.25579   0.36758   2.34786
   0.33060   0.35262   2.16830
   0.43535   0.53219   2.01866
   0.57003   0.50226   1.91391
   0.65981   0.71175   1.67449
   0.80945   0.62197   1.43507
   0.68974   0.83146   1.27047
   0.74959   0.75664   1.06098
   0.65981   0.87635   0.91134
   0.58499   0.80153   0.85149
   0.42039   0.75664   0.79163
   0.40542   0.56211   0.65696
   0.30068   0.72672   0.58214
   0.13608   0.48729   0.56718
   0.03133   0.35262   0.49236
  -0.10334   0.42744   0.43250
  -0.20809   0.32269   0.46243
  -0.37269   0.18802   0.31279
  -0.43255   0.14313   0.23797
  -0.53729   0.08327   0.19308
  -0.61211   0.08327   0.10330
  -0.59715  -0.09629   0.13323
  -0.53729  -0.00651   0.16315
  -0.61211  -0.02147   0.20805
  -0.52233   0.05335   0.19308
  -0.38766  -0.05140   0.32776
  -0.40262  -0.00651   0.38761
  -0.37269   0.08327   0.37265
  -0.29787   0.15809   0.55221
  -0.25298   0.06831   0.74674
  -0.22305   0.17306   0.67192
  -0.25298   0.11320   0.82156
  -0.22305   0.27780   0.92631
  -0.19313   0.38255   1.12084
  -0.20809   0.41248   1.24055
  -0.26795   0.45737   1.24055
  -0.32780   0.53219   1.31536
  -0.37269   0.65190   1.34529
  -0.53729   0.63693   1.52486
  -0.53729   0.65190   1.49493
  -0.65700   0.65190   1.62960
  -0.65700   0.45737   1.79420
  -0.79168   0.47233   1.82413
  -0.91139   0.39751   1.98873
  -0.86650   0.21795   2.06355
  -0.91139   0.26284   2.09348
  -0.92635   0.23291   2.07852
  -0.98621   0.14313   2.04859
  -0.97124   0.20298   1.92888
  -0.94131   0.02342   1.95881
  -0.79168  -0.08133   1.86902
  -0.73182   0.03838   1.58471
  -0.64204  -0.05140   1.45004
  -0.35773  -0.14118   1.30040
  -0.34276  -0.12622   1.15076
  -0.17816  -0.12622   0.85149
  -0.07342  -0.36564   0.67192
   0.15104  -0.21600   0.49236
   0.27075  -0.38060   0.31279
   0.48024  -0.54520   0.16315
   0.62988  -0.54520  -0.13612
   0.79448  -0.69484  -0.40547
   0.88426  -0.66491  -0.77956
   0.95908  -0.79959  -0.95913
   1.10872  -0.94923  -1.22848
   1.19850  -1.03901  -1.30329
   1.22843  -1.09886  -1.52775
   1.31821  -1.17368  -1.64746
   1.30325  -1.30836  -1.72228
   1.31821  -1.24850  -1.75221
   1.28829  -1.32332  -1.84199
   1.27332  -1.29339  -1.94674
   1.31821  -1.35325  -1.85695
   1.27332  -1.27843  -1.82703
   1.22843  -1.36821  -1.69235
   1.19850  -1.29339  -1.75221
   1.04887  -1.17368  -1.72228
   0.86930  -1.21857  -1.67739
   0.68974  -1.23354  -1.66242
   0.42039  -1.08390  -1.51279
   0.16600  -1.02404  -1.54271
  -0.22305  -1.03901  -1.46790
  -0.35773  -0.81455  -1.39308
  -0.67197  -0.91930  -1.31826
  -1.00117  -0.84448  -1.34819
  -1.18073  -0.85944  -1.25840
  -1.46505  -0.66491  -1.16862
  -1.68950  -0.62002  -1.12373
  -1.86907  -0.60506  -0.98905
  -1.91396  -0.50031  -0.98905
  -2.04863  -0.41053  -1.03395
  -2.13842  -0.24593  -0.88431
  -2.19827  -0.17111  -0.82445
  -2.22820  -0.11126  -0.86934
  -2.24316  -0.03644  -0.88431
  -2.18331   0.32269  -0.80949
  -2.16834   0.29277  -0.76460
  -2.10849   0.45737  -0.70474
  -2.13842   0.60701  -0.60000
  -2.04863   0.68182  -0.48029
  -2.07856   0.89132  -0.48029
  -1.98878   0.98110  -0.27079
  -2.10849   1.04095  -0.21094
  -1.91396   1.32527  -0.03137
  -1.86907   1.43001   0.10330
  -1.70447   1.48987   0.11826
  -1.53987   1.40008   0.08834
  -1.28548   1.32527   0.17812
  -1.12088   1.37016   0.22301
  -0.82160   1.32527   0.22301
  -0.53729   1.32527   0.32776
  -0.17816   1.25045   0.31279
   0.06126   1.19059   0.37265
   0.31564   1.04095   0.38761
   0.79448   0.98110   0.49236
   1.03390   0.87635   0.50732
   1.34814   0.57708   0.61207
   1.54267   0.56211   0.61207
   1.84194   0.48729   0.74674
   2.05144   0.36758   0.74674
   2.23100   0.15809   0.77667
   2.44050   0.02342   0.76171
   2.57517   0.05335   0.80660
   2.56021   0.05335   0.82156
   2.60510  -0.02147   0.79163
   2.72481  -0.02147   0.61207
   2.51531   0.00845   0.65696
   2.63502  -0.11126   0.70185
   2.60510   0.02342   0.64199
   2.56021  -0.03644   0.55221
   2.50035  -0.00651   0.52228
   2.29086  -0.12622   0.52228
   2.29086  -0.15615   0.56718
   2.18611  -0.20104   0.59710
   2.20107  -0.09629   0.59710
   2.09633  -0.20104   0.53725
   2.09633  -0.18607   0.55221
   2.12626  -0.24593   0.47739
   2.15618  -0.23097   0.31279
   2.18611  -0.26089   0.26790
   2.23100  -0.20104   0.10330
   2.32079  -0.11126  -0.03137
   2.50035  -0.09629  -0.15108
   2.59013   0.00845  -0.45036
   2.75473   0.06831  -0.71971
   2.85948   0.24787  -0.74963
   3.03905   0.24787  -0.94416
   3.12883   0.29277  -1.04891
   3.17372   0.33766  -1.10876
   3.20365   0.18802  -1.27337
   3.24854   0.23291  -1.28833
   3.26350   0.27780  -1.39308
   3.21861   0.26284  -1.37811
   3.30839   0.29277  -1.57264
   3.20365   0.35262  -1.57264
   3.11386   0.29277  -1.51279
   3.14379   0.20298  -1.48286
   3.11386   0.20298  -1.55768
   2.97919   0.17306  -1.46790
   3.08394   0.12816  -1.48286
   3.12883   0.18802  -1.42300
   3.00912   0.21795  -1.45293
   2.90437   0.29277  -1.39308
   2.84452   0.24787  -1.37811
   2.69488   0.27780  -1.31826
   2.47042   0.29277  -1.25840
   2.29086   0.26284  -1.22848
   2.09633   0.05335  -1.15366
   1.85691   0.08327  -1.16862
   1.64742   0.05335  -1.15366
   1.48281   0.02342  -1.15366
   1.21347  -0.12622  -1.04891
   1.03390  -0.06636  -1.06387
   1.07879  -0.06636  -0.94416
   0.95908  -0.05140  -0.97409
   0.76455   0.14313  -0.94416
   0.71966   0.24787  -0.86934
   0.67477   0.14313  -0.77956
   0.51017   0.35262  -0.94416
   0.48024   0.30773  -0.83942
   0.30068   0.47233  -0.91424
   0.13608   0.41248  -0.98905
  -0.01356   0.29277  -0.98905
  -0.20809   0.21795  -1.03395
  -0.29787   0.12816  -1.10876
  -0.47744   0.11320  -1.13869
  -0.62708   0.00845  -1.15366
  -0.80664  -0.11126  -1.16862
  -0.86650  -0.05140  -1.22848
  -0.95628  -0.12622  -1.24344
  -1.10592  -0.30578  -1.22848
  -1.15081  -0.32075  -1.13869
  -1.18073  -0.27586  -0.98905
  -1.22563  -0.35068  -0.95913
  -1.27052  -0.32075  -0.79453
  -1.27052  -0.36564  -0.68978
  -1.31541  -0.30578  -0.57007
  -1.33037  -0.18607  -0.55511
  -1.25555  -0.36564  -0.49525
  -1.22563  -0.29082  -0.36058
  -1.22563  -0.21600  -0.22590
  -1.06102  -0.42549  -0.13612
  -0.98621  -0.33571  -0.12116
  -0.88146  -0.45542  -0.06130
  -0.85153  -0.53024  -0.01641
  -0.76175  -0.60506  -0.03137
  -0.59715  -0.56017   0.05841
  -0.53729  -0.63499   0.16315
  -0.32780  -0.66491   0.22301
  -0.16320  -0.67988   0.25294
  -0.13327  -0.62002   0.29783
  -0.01356  -0.56017   0.31279
   0.09118  -0.59010   0.32776
   0.15104  -0.59010   0.37265
   0.22586  -0.78462   0.40257
   0.24082  -0.66491   0.34272
   0.21089  -0.69484   0.32776
   0.16600  -0.78462   0.29783
   0.16600  -0.87441   0.20805
   0.12111  -0.88937   0.34272
   0.13608  -0.88937   0.22301
   0.07622  -0.79959   0.17812
   0.01637  -1.05397   0.13323
   0.01637  -1.11383  -0.00145
   0.07622  -1.06894   0.01352
   0.06126  -1.00908  -0.15108
   0.10615  -1.09886  -0.21094
   0.06126  -0.99412  -0.27079
   0.10615  -0.94923  -0.40547
   0.07622  -0.91930  -0.57007
   0.13608  -0.78462  -0.67482
   0.06126  -0.82952  -0.79453
   0.06126  -0.85944  -0.79453
  -0.01356  -0.79959  -0.97409
  -0.07342  -0.73973  -1.03395
  -0.13327  -0.82952  -1.21351
  -0.20809  -0.70981  -1.16862
  -0.53729  -0.73973  -1.37811
  -0.61211  -0.67988  -1.34819
  -0.77671  -0.59010  -1.33322
  -1.00117  -0.54520  -1.31826
  -1.22563  -0.50031  -1.30329
  -1.24059  -0.38060  -1.21351
  -1.30044  -0.21600  -1.15366
  -1.33037  -0.08133  -1.04891
  -1.43512   0.05335  -0.97409
  -1.53987   0.23291  -0.71971
  -1.58476   0.39751  -0.62992
  -1.61468   0.53219  -0.51021
  -1.67454   0.65190  -0.27079
  -1.65958   0.81650  -0.15108
  -1.70447   1.01103  -0.07627
  -1.76432   1.11577   0.22301
  -1.80921   1.07088   0.37265
  -1.77929   1.14570   0.56718
  -1.77929   1.07088   0.64199
  -1.74936   1.13074   0.85149
  -1.55483   1.29534   1.00113
  -1.52490   1.34023   1.10587
  -1.50994   1.35519   1.28544
  -1.42016   1.53476   1.36026
  -1.31541   1.54972   1.39018
  -1.19570   1.71432   1.47997
  -1.16577   1.57965   1.59968
  -1.10592   1.77418   1.64457
  -1.16577   1.80411   1.79420
  -0.98621   1.86396   1.79420
  -0.85153   1.68440   1.79420
  -0.94131   1.69936   1.80917
  -0.95628   1.57965   1.86902
  -0.88146   1.60958   2.00370
  -0.95628   1.37016   1.97377
  -0.89642   1.26541   2.01866
  -1.03110   1.19059   2.07852
  -1.18073   1.17563   2.04859
  -1.33037   1.02599   1.86902
  -1.39023   1.04095   1.86902
  -1.77929   0.93621   1.65953
  -2.01871   0.89132   1.64457
  -2.24316   0.95117   1.49493
  -2.34791   0.65190   1.37522
  -2.58733   0.56211   1.24055
  -2.72200   0.30773   1.06098
  -2.82675   0.12816   0.85149
  -2.90157  -0.00651   0.58214
  -2.94646  -0.24593   0.41754
  -2.96142  -0.38060   0.19308
  -2.97639  -0.53024  -0.12116
  -2.90157  -0.53024  -0.37554
  -2.79682  -0.88937  -0.43540
  -2.73697  -1.05397  -0.57007
  -2.67711  -1.23354  -0.71971
  -2.61726  -1.23354  -0.80949
  -2.60229  -1.47296  -0.89927
  -2.40776  -1.57770  -1.07884
  -2.27309  -1.63756  -1.01898
  -2.22820  -1.71238  -1.01898
  -2.12345  -1.74231  -1.04891
  -2.10849  -1.72734  -1.09380
  -2.03367  -1.92187  -1.12373
  -1.92892  -1.89194  -1.12373
  -1.94389  -1.84705  -1.12373
