********************************************************************************
               CENTRO DE INSTRUMENTACION Y REGISTRO SISMICO  A.C.  
                       Coordinacion de Servicios Tecnicos
     Anaxagoras 814, Col. Narvarte, Benito Juarez, C.P. 03020 Mexico, D.F.
            Tels. 687 45 42/ 687 45  82             Fax. 669 25 12
********************************************************************************
ARCHIVO ESTANDAR DE ACELERACION:
VERSION DEL FORMATO                    : 2.0
NOMBRE DEL ARCHIVO                     : AR140110.081
FECHA Y HORA DE CREACION               : 06/JUL/04, 11:20
REF. CATALOGO ACELEROGRAMAS, SMIS 1996 : REGISTRO No.     /PAG.


================================================================================
DATOS DE LA ESTACION:
NOMBRE DE LA ESTACION                  : ARAGON
CLAVE DE LA ESTACION                   : AR14
LOCALIZACION DE LA ESTACION            : Esc Prim Jose Ordaz Lopez Puebla 2 y
                                       : Baja California, Col Providencia
                                       : Gustavo A. Madero
                                       :
                                       :
COORDENADAS DE LA ESTACION             : 19.481 LAT. N 
                                       : 99.076 LONG. W 
ALTITUD (msnm)                         : 2232
TIPO DE SUELO                          : ARCILLOSO, ZONA LAGO
                                       : 
                                       : 
INSTITUCION RESPONSABLE                : CIRES
                                       :

================================================================================
DATOS DEL ACELEROGRAFO:
MODELO DEL ACELEROGRAFO                : RAD-851
NUMERO DE SERIE DEL ACELEROGRAFO       : 235
NUMERO DE CANALES                      : 3
ORIENTACION C1-C6 (rumbo;orientacion)  : /N00E/+V/N90W
ORIENTACION C7-C12 (rumbo;orientacion) :
VEL. DE MUESTREO, C1-C6 (muestras/s)   : /100/100/100
VEL. DE MUESTREO, C7-C12 (muestras/s)  :
ESC. COMPLETA DE SENSORES, C1-C6, (g)  : /0.5/0.5/0.5
ESC. COMPLETA DE SENSORES, C7-C12, (g) :
FREC. NAT. DE SENSORES, C1-C6, (Hz)    : /30/30/32
FREC. NAT. DE SENSORES, C7-C12, (Hz)   :
AMORTIGUAMIENTO DE SENSORES, C1-C6     : /0.733/0.790/0.750
AMORTIGUAMIENTO DE SENSORES, C7-C12    :
INTERVALO DE MUESTREO, C1-C6, (s)      : /0.01/0.01/0.01
INTERVALO DE MUESTREO, C7-C12, (s)     :
UMBRAL DE DISPARO, C1-C6, (Gal)        : /1.95/3.42/1.95
UMBRAL DE DISPARO, C7-C12, (Gal)       :
MEMORIA DE PREEVENTO (s)               : 16
TIEMPO DE POSEVENTO (s)                : 64


================================================================================
DATOS DEL SISMO:
FECHA DEL SISMO (GMT)                  : 08/OCT/01
HORA EPICENTRO (GMT)                   : 03:39:19:3
MAGNITUD(ES)                           : /Mb=5.6/Ms=5.4/Mc=5.5/Ma=7.6/Me=6.1
COORDENADAS DEL EPICENTRO              : 16.94 LAT. N
                                       : 100.14 LONG. W
PROFUNDIDAD FOCAL (km)                 : 4.0
FUENTE DE LOS DATOS EPICENTRALES       : SSN
                                       : INSTITUTO DE GEOFISICA, UNAM

================================================================================
DATOS DE ESTE REGISTRO:
HORA DE LA PRIMERA MUESTRA (GMT)       : 03:40:47.00
EXACTITUD DEL TIEMPO (s)               :     
DURACION DEL REGISTRO (s), C1-C6       : /143.25/143.25/143.25
DURACION DEL REGISTRO (s), C7-C12      :
NUM. TOTAL DE MUESTRAS, C1-C6          : /14325/14325/14325
NUM. TOTAL DE MUESTRAS, C7-C12         :
ACEL. MAX. (Gal), C1-C6                : /-4.19318/-2.46412/-5.66307
ACEL. MAX., C1-C6, EN LA MUESTRA       :
ACEL. MAX. (Gal), C7-C12               :
ACEL. MAX., C7-C12, EN LA MUESTRA      :
UNIDADES DE LOS DATOS                  : Gal (cm/s/s)
FACTOR DE DECIMACION                   : 1
FORMATO DATOS (FORTRAN,10 campos/dato) : 3F10.5


================================================================================
CALIDAD DEL ACELEROGRAMA:
REGISTRO DIGITAL COMPLETO, CARECE DE TIEMPO ABSOLUTO.


================================================================================
COMENTARIOS:














================================================================================
DATOS DE ACELERACION:
---------+---------+---------+---------+---------+---------+---------+---------+
   CANAL-1   CANAL-2   CANAL-3   CANAL-4   CANAL-5   CANAL-6   CANAL-7   CANAL-8
      N00E        +V      N90W
---------+---------+---------+---------+---------+---------+---------+---------+
[...]
   1.07403  -0.30935   1.04066
   1.07403  -0.54877   1.04066
   1.07403  -0.54877   1.04066
   1.31345  -0.30935   1.04066
   1.31345  -0.06993   1.04066
   1.07403   0.40891   1.04066
   1.31345   0.40891   1.04066
   0.83462   0.40891   1.04066
   0.83462   0.64833   1.04066
   0.59520   0.88775   1.04066
   0.59520   0.88775   1.04066
   0.83462   1.12717   1.28008
   0.83462   1.12717   1.04066
   0.83462   1.12717   0.80124
   1.07403   0.88775   0.80124
   1.07403   0.64833   0.80124
   1.07403   0.64833   1.04066
   1.31345   0.64833   1.04066
   1.31345   0.88775   1.04066
   1.31345   1.12717   1.04066
   1.31345   0.88775   1.28008
   1.31345   0.88775   1.28008
   1.07403   0.64833   1.28008
   0.59520   0.88775   1.28008
   0.35578   1.12717   1.28008
  -0.12306   1.12717   1.28008
  -0.60190   1.36658   1.28008
  -0.84132   1.36658   1.04066
  -0.84132   1.60600   1.04066
  -1.08074   1.36658   1.04066
  -1.32016   1.36658   0.80124
  -1.32016   1.36658   1.04066
  -1.55957   1.36658   1.04066
  -1.79899   1.36658   1.04066
  -1.79899   1.12717   1.28008
  -1.79899   0.88775   1.28008
  -1.79899   0.64833   1.51950
  -1.79899   0.64833   1.75891
  -2.03841   0.40891   1.75891
  -2.03841   0.40891   1.99833
  -2.03841   0.16949   2.23775
  -2.03841   0.40891   2.23775
  -2.03841   0.40891   2.23775
  -2.03841   0.40891   2.23775
  -2.03841   0.40891   2.23775
  -2.03841   0.64833   1.99833
  -1.79899   0.64833   2.23775
  -2.03841   0.64833   1.99833
  -1.79899   0.88775   1.99833
  -2.03841   0.88775   2.23775
  -1.79899   0.88775   2.23775
  -2.03841   0.64833   2.23775
  -2.03841   0.40891   2.47717
  -2.03841   0.40891   2.47717
  -2.03841   0.16949   2.71659
  -2.03841  -0.06993   2.71659
  -2.03841  -0.30935   2.71659
  -2.03841  -0.30935   2.71659
  -1.79899  -0.54877   2.47717
  -1.55957  -0.54877   2.23775
  -1.55957  -0.78819   1.99833
  -1.32016  -0.78819   1.99833
  -1.08074  -0.54877   1.75891
  -1.08074  -0.54877   1.51950
  -0.84132  -0.54877   1.28008
  -0.60190  -0.54877   1.04066
  -0.60190  -0.54877   1.04066
  -0.60190  -0.54877   0.80124
  -0.36248  -0.30935   0.56182
  -0.36248  -0.06993   0.32240
  -0.36248  -0.06993   0.08298
  -0.36248  -0.06993  -0.15644
  -0.12306  -0.06993  -0.39586
  -0.12306  -0.06993  -0.87469
   0.11636   0.16949  -0.87469
  -0.12306   0.16949  -1.35353
   0.11636   0.16949  -1.35353
   0.11636   0.40891  -1.59295
   0.11636   0.16949  -1.83237
  -0.12306   0.16949  -1.83237
  -0.12306   0.16949  -1.83237
   0.11636  -0.06993  -1.83237
   0.11636  -0.06993  -1.83237
   0.35578  -0.30935  -1.83237
   0.59520  -0.30935  -1.83237
   0.83462  -0.30935  -1.59295
   1.31345  -0.06993  -1.59295
   1.55287   0.16949  -1.59295
   1.79229   0.16949  -1.35353
   2.27113  -0.06993  -1.35353
   2.74997  -0.30935  -1.35353
   2.98939  -0.54877  -1.35353
   3.22880  -0.78819  -1.35353
   3.22880  -0.78819  -1.35353
   3.22880  -1.02760  -1.11411
   3.22880  -1.02760  -1.11411
   2.98939  -1.02760  -0.87469
   2.74997  -1.02760  -0.87469
   2.27113  -1.02760  -0.63527
   2.03171  -1.02760  -0.63527
   1.79229  -1.02760  -0.39586
   1.55287  -1.26702  -0.39586
   1.31345  -1.02760  -0.39586
   1.07403  -0.78819  -0.39586
   1.07403  -0.78819  -0.39586
   0.83462  -0.54877  -0.39586
   0.59520  -0.30935  -0.39586
   0.59520  -0.30935  -0.39586
   0.59520  -0.30935  -0.39586
   0.59520  -0.78819  -0.39586
   0.83462  -1.02760  -0.63527
   0.83462  -1.02760  -0.63527
   1.07403  -1.26702  -0.63527
   1.31345  -1.02760  -0.63527
   1.31345  -1.02760  -0.63527
   1.55287  -0.78819  -0.63527
   1.79229  -0.78819  -0.63527
   1.79229  -0.78819  -0.39586
   2.03171  -0.78819  -0.87469
   2.03171  -0.54877  -0.87469
   2.03171  -0.54877  -0.87469
   2.03171  -0.06993  -1.11411
   1.79229  -0.06993  -0.87469
   1.55287   0.16949  -0.87469
   1.31345   0.16949  -1.11411
   1.07403   0.16949  -1.11411
   1.07403  -0.06993  -1.11411
   0.83462  -0.06993  -1.11411
   0.59520  -0.30935  -1.35353
   0.35578  -0.06993  -1.59295
   0.11636   0.16949  -1.59295
   0.11636   0.40891  -1.59295
  -0.12306   0.88775  -1.59295
  -0.36248   0.88775  -1.59295
  -0.60190   0.88775  -1.59295
  -0.84132   0.88775  -1.59295
  -1.08074   0.64833  -1.59295
  -1.08074   0.64833  -1.59295
  -1.08074   0.40891  -1.83237
  -1.32016   0.16949  -1.83237
  -1.32016  -0.06993  -1.59295
  -1.32016  -0.06993  -1.59295
  -1.32016  -0.06993  -1.35353
  -1.32016  -0.06993  -1.11411
  -1.32016   0.16949  -1.11411
  -1.55957   0.40891  -1.11411
  -1.32016   0.64833  -0.87469
  -1.55957   0.88775  -0.63527
  -1.55957   0.88775  -0.63527
  -1.79899   0.88775  -0.63527
  -1.79899   0.88775  -0.39586
  -1.79899   0.64833  -0.39586
  -1.79899   0.16949  -0.63527
  -1.79899  -0.06993  -0.87469
  -1.79899  -0.30935  -0.87469
  -1.55957  -0.30935  -0.87469
  -1.55957  -0.54877  -0.63527
  -1.08074  -0.78819  -0.87469
  -1.08074  -0.78819  -0.39586
  -0.84132  -0.78819  -0.39586
  -0.60190  -0.54877  -0.15644
  -0.36248  -0.06993   0.08298
   0.11636  -0.06993   0.08298
   0.35578  -0.06993   0.32240
   0.59520  -0.06993   0.56182
   0.59520  -0.06993   0.56182
   0.59520  -0.06993   0.80124
   1.07403   0.16949   1.04066
   1.07403   0.16949   1.04066
   1.31345   0.40891   1.28008
   1.31345   0.64833   1.04066
   1.55287   0.64833   1.28008
   1.55287   0.64833   1.51950
   1.55287   0.40891   1.51950
   1.79229   0.40891   1.75891
   1.55287   0.40891   1.99833
   1.55287   0.40891   2.23775
   1.55287   0.64833   2.23775
   1.31345   0.64833   2.47717
   1.31345   0.88775   2.71659
   1.07403   0.88775   2.95601
   0.83462   0.88775   3.19543
   0.59520   0.64833   3.19543
   0.11636   0.64833   3.43485
  -0.12306   0.64833   3.43485
  -0.36248   0.64833   3.19543
  -0.60190   0.64833   3.19543
  -0.84132   0.88775   3.19543
  -1.32016   0.88775   2.95601
  -1.55957   1.12717   2.71659
  -1.79899   1.12717   2.47717
  -2.03841   0.88775   2.23775
  -2.27783   0.64833   1.99833
  -2.27783   0.64833   1.75891
  -2.27783   0.64833   1.75891
  -2.27783   0.64833   1.51950
  -2.03841   0.40891   1.28008
  -2.03841   0.40891   1.04066
  -1.55957   0.40891   1.04066
  -1.55957   0.40891   0.80124
  -1.08074   0.40891   0.56182
  -0.84132   0.16949   0.56182
  -0.36248  -0.30935   0.32240
  -0.12306  -0.54877   0.32240
   0.11636  -0.54877   0.32240
   0.35578  -0.54877   0.32240
   0.59520  -0.78819   0.32240
   1.07403  -0.78819   0.08298
   1.31345  -0.78819   0.08298
   1.55287  -0.78819  -0.15644
   1.79229  -1.02760  -0.39586
   2.03171  -0.78819  -0.63527
   2.03171  -1.02760  -0.87469
   2.27113  -0.78819  -1.11411
   2.27113  -1.02760  -1.35353
   2.27113  -1.02760  -1.83237
   2.27113  -1.02760  -1.83237
   2.27113  -1.26702  -2.07179
   2.03171  -1.26702  -2.07179
   1.79229  -1.26702  -2.31121
   1.79229  -1.26702  -2.31121
   1.55287  -1.26702  -2.31121
   1.07403  -1.26702  -2.07179
   0.83462  -1.02760  -2.07179
   0.59520  -1.02760  -1.83237
   0.11636  -0.78819  -1.83237
  -0.12306  -0.78819  -1.59295
  -0.36248  -0.54877  -1.59295
  -0.60190  -0.54877  -1.83237
  -0.84132  -0.54877  -1.59295
  -1.08074  -0.30935  -1.59295
  -1.32016  -0.30935  -1.59295
  -1.32016  -0.30935  -1.35353
  -1.32016  -0.30935  -1.59295
  -1.32016  -0.30935  -1.59295
  -1.32016  -0.30935  -1.59295
  -1.32016  -0.30935  -1.35353
  -1.08074  -0.30935  -1.11411
  -1.08074  -0.06993  -1.11411
  -0.84132  -0.06993  -0.87469
  -0.84132  -0.06993  -0.63527
  -0.60190  -0.30935  -0.63527
  -0.36248  -0.30935  -0.63527
  -0.36248  -0.30935  -0.39586
  -0.12306  -0.54877  -0.15644
   0.11636  -0.30935  -0.15644
   0.11636  -0.30935  -0.15644
   0.35578  -0.30935  -0.15644
   0.35578  -0.30935  -0.15644
   0.59520  -0.06993  -0.39586
   0.59520  -0.06993  -0.39586
   0.83462   0.16949  -0.15644
   1.07403   0.16949  -0.39586
   1.07403   0.16949  -0.39586
   1.31345   0.16949  -0.15644
   1.31345   0.16949  -0.15644
   1.31345   0.16949   0.08298
   1.31345   0.40891   0.08298
   1.07403   0.16949   0.32240
   1.07403   0.40891   0.32240
   1.07403   0.40891   0.56182
   0.83462   0.40891   0.80124
   0.83462   0.40891   0.80124
   0.83462   0.40891   1.04066
   0.59520   0.40891   1.28008
   0.35578   0.40891   1.51950
   0.35578   0.40891   1.75891
   0.35578   0.64833   1.75891
   0.35578   0.88775   1.99833
   0.59520   0.88775   2.23775
   0.59520   0.88775   2.47717
   0.59520   0.88775   2.71659
   0.59520   0.64833   2.71659
   0.59520   0.40891   2.95601
   0.83462   0.16949   2.95601
   0.59520  -0.06993   2.95601
   0.59520  -0.06993   2.95601
   0.35578  -0.06993   2.71659
   0.35578   0.16949   2.47717
   0.35578   0.64833   2.23775
   0.35578   0.88775   1.75891
   0.35578   0.88775   1.51950
   0.35578   0.88775   1.28008
   0.35578   0.64833   1.04066
   0.11636   0.40891   1.04066
   0.11636   0.40891   0.80124
  -0.12306   0.40891   0.80124
  -0.36248   0.40891   0.80124
  -0.60190   0.16949   0.80124
  -0.84132  -0.06993   0.56182
  -1.08074  -0.30935   0.56182
  -1.32016  -0.54877   0.56182
  -1.79899  -0.78819   0.56182
  -2.03841  -0.78819   0.32240
  -2.27783  -0.78819   0.56182
  -2.51725  -0.78819   0.56182
  -2.51725  -0.54877   0.56182
  -2.51725  -0.54877   0.56182
  -2.75667  -0.30935   0.80124
  -2.75667  -0.30935   0.80124
  -2.75667  -0.06993   1.04066
  -2.75667   0.16949   1.28008
  -2.75667   0.16949   1.51950
  -2.75667   0.16949   1.75891
  -2.75667  -0.06993   1.99833
  -2.75667  -0.30935   2.23775
  -2.51725  -0.54877   2.23775
  -2.51725  -0.54877   2.23775
  -2.51725  -0.78819   2.23775
  -2.51725  -0.78819   1.99833
  -2.51725  -0.78819   1.99833
  -2.27783  -0.54877   1.75891
  -2.27783  -0.30935   1.51950
  -2.03841  -0.30935   1.28008
  -2.03841  -0.06993   1.04066
  -2.03841  -0.06993   1.04066
  -1.79899   0.40891   0.80124
  -1.79899   0.40891   1.04066
  -1.55957   0.64833   0.80124
  -1.32016   0.88775   0.80124
  -1.32016   0.88775   0.56182
  -1.08074   1.12717   0.32240
  -1.08074   1.12717   0.08298
  -0.84132   1.12717  -0.15644
  -0.60190   1.12717  -0.39586
  -0.60190   1.12717  -0.63527
  -0.12306   1.12717  -0.87469
  -0.12306   1.36658  -1.11411
   0.11636   1.12717  -1.35353
   0.35578   0.88775  -1.59295
   0.59520   0.88775  -1.83237
   0.59520   0.64833  -2.07179
   0.59520   0.64833  -2.07179
   0.59520   0.64833  -2.31121
   0.59520   0.64833  -2.31121
   0.35578   0.64833  -2.55063
   0.11636   0.40891  -2.79005
   0.11636   0.16949  -3.02946
  -0.12306  -0.06993  -3.26888
  -0.36248  -0.06993  -3.50830
  -0.36248  -0.54877  -3.98714
  -0.84132  -0.54877  -4.46598
  -0.84132  -0.54877  -4.70540
  -1.08074  -0.78819  -4.94482
  -1.32016  -0.78819  -4.94482
  -1.32016  -0.78819  -5.18423
  -1.55957  -0.78819  -5.42365
  -1.79899  -0.54877  -5.42365
  -1.79899  -0.78819  -5.42365
  -1.79899  -0.54877  -5.66307
  -1.79899  -1.02760  -5.42365
  -1.79899  -1.02760  -5.18423
  -1.79899  -1.02760  -5.18423
  -1.55957  -1.02760  -4.94482
  -1.55957  -1.02760  -4.70540
  -1.55957  -1.02760  -4.70540
  -1.32016  -1.02760  -4.46598
  -1.32016  -1.26702  -4.22656
  -0.84132  -1.26702  -3.98714
  -0.84132  -1.26702  -3.74772
  -0.60190  -1.02760  -3.26888
  -0.36248  -1.02760  -3.26888
   0.11636  -1.02760  -2.79005
   0.35578  -1.02760  -2.79005
   0.59520  -1.02760  -2.31121
   1.07403  -1.02760  -2.31121
   1.31345  -1.02760  -2.07179
   1.55287  -1.02760  -2.07179
   1.79229  -0.78819  -1.83237
   2.27113  -0.78819  -1.83237
   2.51055  -0.54877  -1.83237
   2.74997  -0.30935  -1.83237
   2.98939  -0.30935  -1.83237
   2.98939   0.16949  -1.83237
   3.22880   0.16949  -1.59295
   3.22880   0.40891  -1.35353
   3.22880   0.64833  -1.11411
   3.22880   0.88775  -0.87469
   2.98939   0.88775  -0.63527
   2.98939   1.36658  -0.39586
   2.74997   1.36658  -0.39586
   2.51055   1.36658  -0.15644
   2.27113   1.36658   0.08298
   1.79229   1.36658   0.32240
   1.31345   1.60600   0.56182
   1.07403   1.84542   0.80124
   0.59520   1.84542   1.04066
   0.35578   1.84542   1.04066
  -0.12306   1.60600   1.28008
  -0.36248   1.60600   1.28008
  -0.36248   1.60600   1.51950
  -0.60190   1.60600   1.75891
  -0.60190   1.60600   1.75891
  -0.84132   1.36658   1.99833
  -0.84132   1.12717   1.99833
  -0.84132   0.88775   2.23775
  -0.60190   0.64833   2.47717
  -0.60190   0.64833   2.71659
  -0.36248   0.40891   2.71659
  -0.12306   0.40891   2.95601
   0.11636   0.40891   2.95601
   0.11636   0.16949   2.95601
   0.35578   0.16949   2.95601
   0.59520   0.16949   2.95601
   0.59520  -0.06993   2.71659
   0.83462  -0.06993   2.95601
   0.83462  -0.30935   2.95601
   1.07403  -0.54877   2.95601
   1.07403  -0.30935   2.95601
   1.31345  -0.30935   2.95601
   1.31345  -0.06993   2.95601
   1.31345  -0.06993   2.71659
   1.55287  -0.06993   2.71659
   1.55287  -0.06993   2.47717
   1.55287  -0.06993   2.23775
   1.55287  -0.06993   1.99833
   1.31345   0.16949   1.99833
   1.31345   0.16949   1.75891
   1.07403   0.16949   1.75891
   0.83462  -0.06993   1.51950
   0.59520  -0.06993   1.51950
   0.35578  -0.30935   1.51950
   0.11636  -0.30935   1.51950
  -0.12306  -0.54877   1.51950
  -0.12306  -0.78819   1.51950
  -0.12306  -0.78819   1.75891
  -0.12306  -0.78819   1.75891
  -0.36248  -0.78819   1.75891
  -0.12306  -0.54877   1.75891
  -0.36248  -0.54877   1.75891
  -0.12306  -0.30935   1.51950
  -0.12306  -0.06993   1.51950
  -0.36248   0.16949   1.04066
  -0.36248   0.16949   0.80124
  -0.60190   0.16949   0.80124
  -0.60190   0.16949   0.32240
  -0.60190   0.16949   0.32240
  -0.36248   0.16949  -0.15644
  -0.60190   0.16949  -0.39586
  -0.36248   0.16949  -0.63527
  -0.12306  -0.06993  -0.87469
  -0.12306  -0.06993  -1.11411
  -0.12306  -0.06993  -1.11411
  -0.12306  -0.06993  -1.35353
   0.11636  -0.06993  -1.35353
  -0.12306  -0.30935  -1.59295
  -0.12306  -0.30935  -1.83237
   0.11636  -0.54877  -2.07179
   0.11636  -0.78819  -2.07179
   0.11636  -1.02760  -2.07179
   0.11636  -1.26702  -2.07179
   0.11636  -1.26702  -2.07179
   0.11636  -1.26702  -2.07179
   0.11636  -1.26702  -2.07179
   0.11636  -1.02760  -1.83237
   0.35578  -0.78819  -1.83237
   0.35578  -0.54877  -1.59295
   0.59520  -0.54877  -1.59295
   0.83462  -0.54877  -1.35353
   1.07403  -0.54877  -1.35353
   0.83462  -0.54877  -1.35353
   1.07403  -0.30935  -1.35353
   1.07403  -0.06993  -1.11411
   1.31345   0.16949  -1.11411
   1.31345   0.16949  -1.11411
   1.31345   0.16949  -1.11411
   1.31345   0.16949  -1.35353
   1.31345  -0.06993  -1.35353
   1.55287  -0.06993  -1.35353
   1.55287  -0.06993  -1.35353
   1.55287  -0.06993  -1.11411
   1.31345   0.16949  -0.87469
   1.31345   0.16949  -0.63527
   1.31345   0.16949  -0.39586
   1.07403  -0.06993  -0.15644
   0.83462  -0.06993   0.08298
   0.83462  -0.30935   0.32240
   0.59520  -0.06993   0.56182
   0.59520  -0.06993   0.80124
   0.59520  -0.06993   1.04066
   0.59520  -0.06993   1.28008
   0.59520  -0.06993   1.28008
   0.83462  -0.30935   1.51950
   0.83462  -0.30935   1.51950
   0.83462  -0.30935   1.75891
   0.83462  -0.30935   1.51950
   0.83462  -0.30935   1.75891
   0.83462  -0.30935   1.51950
   0.83462  -0.30935   1.28008
   0.59520  -0.30935   1.28008
   0.83462  -0.06993   1.28008
   0.83462  -0.06993   1.04066
   0.59520  -0.06993   1.04066
   0.59520  -0.06993   1.04066
   0.35578  -0.06993   0.80124
   0.59520  -0.06993   0.80124
   0.59520  -0.06993   0.80124
   0.59520  -0.06993   0.56182
   0.83462   0.16949   0.56182
