********************************************************************************
              CENTRO DE INSTRUMENTACION Y REGISTRO SISMICO  A.C.

    Anaxagoras 814, Col. Narvarte, Benito Juarez, C.P. 03020 Mexico, D.F.
           Tels. 5687 45 42/ 5687 45  82             Fax. 5669 25 12
********************************************************************************
ARCHIVO ESTANDAR DE ACELERACION:
VERSION DEL FORMATO                    : 2.0
NOMBRE DEL ARCHIVO                     : AR1420180216233938
FECHA Y HORA DE CREACION               : 07/MAR/18, 13:24
REF. CATALOGO ACELEROGRAMAS, SMIS 1996 : REGISTRO No.     /PAG.


================================================================================
DATOS DE LA ESTACION:
NOMBRE DE LA ESTACION                  : ESC. PRIM. "JOSÉ ORDAZ LÓPEZ"
CLAVE DE LA ESTACION                   : AR14
LOCALIZACION DE LA ESTACION            : Del. Gustavo A. Madero,                
                                       : Col. Ampliación la Providencia,        
                                       : Calle Puebla esq. con calle            
                                       : Volcán Tacan.                          
                                       : 
COORDENADAS DE LA ESTACION             : 19.4808 LAT. N
                                       : 99.0760 LONG. W
ALTITUD (msnm)                         : 2232
TIPO DE SUELO                          : Arcilloso, zona lago                
                                       :                           
                                       : 
INSTITUCION RESPONSABLE                : CIRES
                                       : 

================================================================================
DATOS DEL ACELEROGRAFO:
MODELO DEL ACELEROGRAFO                : RADESD
NUMERO DE SERIE DEL ACELEROGRAFO       : 215
NUMERO DE CANALES                      : 3
ORIENTACION C1-C6 (rumbo;orientacion)  : /N00E/+V/N90W
ORIENTACION C7-C12 (rumbo;orientacion) : 
VEL. DE MUESTREO, C1-C6 (muestras/s)   : /100/100/100
VEL. DE MUESTREO, C7-C12 (muestras/s)  : 
ESC. COMPLETA DE SENSORES, C1-C6, (g)  : /0.5/0.5/0.5
ESC. COMPLETA DE SENSORES, C7-C12, (g) : 
FREC. NAT. DE SENSORES, C1-C6, (Hz)    : /30/30/32
FREC. NAT. DE SENSORES, C7-C12, (Hz)   : 
AMORTIGUAMIENTO DE SENSORES, C1-C6     : /0.733/0.790/0.750
AMORTIGUAMIENTO DE SENSORES, C7-C12    : 
INTERVALO DE MUESTREO, C1-C6, (s)      : /0.01/0.01/0.01
INTERVALO DE MUESTREO, C7-C12, (s)     : 
UMBRAL DE DISPARO, C1-C6, (Gal)        : /2.01/4.5/2.01
UMBRAL DE DISPARO, C7-C12, (Gal)       : 
MEMORIA DE PREEVENTO (s)               : 44.0
TIEMPO DE POSEVENTO (s)                : 90.0


================================================================================
DATOS DEL SISMO:
FECHA DEL SISMO (GMT)                  : 16/FEB/18
HORA EPICENTRO (GMT)                   : 23:39:38.0
MAGNITUD(ES)                           : /Mc=7.2
COORDENADAS DEL EPICENTRO              : 16.25 LAT. N
                                       : 98.03 LONG. W
PROFUNDIDAD FOCAL (km)                 : 12
FUENTE DE LOS DATOS EPICENTRALES       : SSN
                                       : INSTITUTO DE GEOFISICA, UNAM

================================================================================
DATOS DE ESTE REGISTRO:
HORA DE LA PRIMERA MUESTRA (GMT)       : 23:40:11.00
EXACTITUD DEL TIEMPO (s)               : 0.01
DURACION DEL REGISTRO (s), C1-C6       : /372.2/372.2/372.2
DURACION DEL REGISTRO (s), C7-C12      : 
NUM. TOTAL DE MUESTRAS, C1-C6          : /37220/37220/37220
NUM. TOTAL DE MUESTRAS, C7-C12         : 
ACEL. MAX. (Gal), C1-C6                : /17.32854/9.96842/29.7554
ACEL. MAX., C1-C6, EN LA MUESTRA       : /8972/9066/8437
ACEL. MAX. (Gal), C7-C12               : 
ACEL. MAX., C7-C12, EN LA MUESTRA      : 
UNIDADES DE LOS DATOS                  : Gal (cm/s/s)
FACTOR DE DECIMACION                   : 1
FORMATO DATOS (FORTRAN,10 campos/dato) : 3F10.5


================================================================================
CALIDAD DEL ACELEROGRAMA:
REGISTRO DIGITAL COMPLETO CON TIEMPO ABSOLUTO CORRECTO.


================================================================================
COMENTARIOS:














================================================================================
DATOS DE ACELERACION:
---------+---------+---------+---------+---------+---------+---------+---------+
   CANAL-1   CANAL-2   CANAL-3   CANAL-4   CANAL-5   CANAL-6   CANAL-7   CANAL-8
      N00E        +V      N90W
---------+---------+---------+---------+---------+---------+---------+---------+
[...]
  -2.11040  -0.70585   4.24226
  -2.57427  -0.90038   3.91306
  -3.12793  -0.72081   3.58386
  -3.65166  -1.03505   3.43422
  -4.16043  -1.02009   3.04516
  -4.56445  -0.99016   2.91049
  -4.92358  -0.93031   2.64114
  -5.52213  -1.05002   2.13237
  -5.77652  -1.06498   1.60864
  -6.01594  -1.19965   1.02506
  -6.31521  -1.31936   0.32176
  -6.56960  -1.30440  -0.41147
  -6.77909  -1.21462  -1.15965
  -7.04844  -0.93031  -2.01259
  -7.28786  -0.87045  -2.80567
  -7.63203  -0.63103  -3.47904
  -8.09590  -0.52628  -3.92795
  -8.51489  -0.40657  -4.18233
  -9.18826  -0.54125  -4.21226
  -9.86163  -0.58614  -4.06262
 -10.46018  -0.46643  -3.74838
 -11.01384  -0.48139  -3.07501
 -11.53757  -0.57118  -2.44654
 -11.95655  -0.75074  -1.72828
 -12.21094  -0.81060  -1.05491
 -12.61496  -1.16973  -0.45636
 -12.62992  -1.19965   0.23198
 -12.68978  -1.13980   0.78564
 -12.77956  -1.07994   1.30937
 -12.77956  -0.90038   1.84806
 -12.80949  -0.55621   2.23712
 -12.85438  -0.42154   2.62618
 -12.89927  -0.04744   2.76085
 -13.00402   0.13212   2.86560
 -13.18358   0.43140   2.82071
 -13.25840   0.38651   2.91049
 -13.31825   0.41643   2.94042
 -13.21351   0.41643   3.00027
 -13.19854   0.26680   3.35940
 -13.00402   0.17701   3.68861
 -12.73467   0.04234   4.15248
 -12.37554  -0.16715   4.69118
 -12.00144  -0.30183   5.24484
 -11.37297  -0.51132   5.67879
 -10.69960  -0.69089   6.06784
  -9.90652  -0.91534   6.21748
  -9.12840  -0.91534   6.15763
  -8.11087  -0.87045   5.96310
  -7.07837  -0.79563   5.36455
  -5.76156  -0.66096   4.60139
  -4.34000  -0.40657   3.67364
  -2.94837  -0.48139   2.80574
  -1.57170  -0.39161   1.56375
  -0.12022  -0.22701   0.33672
   1.18163  -0.27190  -0.90527
   2.49844  -0.40657  -2.23704
   3.72547  -0.58614  -3.26954
   4.84775  -0.90038  -4.13744
   5.76054  -1.16973  -5.28965
   6.44887  -1.66353  -6.24733
   7.07735  -1.87302  -6.96559
   7.22699  -2.33690  -7.65393
   7.45145  -2.56136  -8.23751
   7.45145  -2.72596  -8.44700
   7.28684  -2.92049  -8.56671
   6.95764  -3.08509  -8.64153
   6.73318  -3.29458  -8.43204
   6.47880  -3.39933  -8.04298
   6.20945  -3.45918  -7.47436
   5.91018  -3.48911  -7.16012
   5.83536  -3.45918  -6.63639
   5.71565  -3.29458  -6.09769
   5.79047  -2.83070  -5.94806
   5.88025  -2.38179  -5.60389
   6.01492  -1.58871  -5.45425
   6.04485  -1.00512  -5.33454
   6.08974  -0.40657  -5.48418
   6.05982   0.17701  -5.42432
   6.04485   0.83542  -5.37943
   5.80543   1.20951  -5.33454
   5.58098   1.41901  -5.24476
   5.31163   1.58361  -5.18490
   5.05724   1.77814  -4.78088
   4.66819   1.76317  -4.51154
   4.50358   1.80806  -4.18233
   4.30906   1.97266  -3.79328
   3.92000   1.95770  -3.35933
   3.84518   2.16719  -2.95530
   3.78532   2.31683  -2.41661
   3.69554   2.48143  -2.10237
   3.65065   2.54129  -1.74324
   3.71051   2.73582  -1.51878
   3.90503   2.94531  -1.39907
   4.05467   2.85553  -1.33922
   4.33898   2.81063  -1.45893
   4.72804   2.78071  -1.72828
   5.11710   2.52632  -2.19215
   5.65579   2.54129  -2.74581
   6.28427   2.39165  -3.46407
   7.12224   2.15223  -4.13744
   7.82554   1.73324  -5.03527
   8.79818   1.38908  -6.09769
   9.71097   0.86535  -7.02545
  10.69858   0.37154  -8.19262
  11.70115  -0.06241  -9.19519
  12.53912  -0.37665 -10.19776
  13.10775  -0.67592 -11.43976
  13.72126  -0.85549 -12.69671
  14.18514  -1.06498 -13.86389
  14.46945  -1.18469 -15.16573
  14.70887  -1.48396 -16.57233
  14.84354  -1.66353 -17.90410
  14.97822  -2.18726 -19.50522
  15.09793  -2.83070 -20.95671
  15.30742  -3.24969 -22.55783
  15.26253  -3.92306 -23.91953
  15.29246  -4.38693 -25.17649
  15.06800  -4.67125 -26.19402
  14.73880  -4.92563 -26.79257
  14.20010  -5.04534 -27.37616
  13.51177  -5.22490 -27.46594
  12.77854  -5.28476 -27.27142
  12.01539  -5.52418 -26.79257
  11.11757  -5.68878 -26.35863
  10.38434  -5.89827 -25.95460
   9.80076  -5.82345 -25.59547
   8.97775  -5.79353 -25.40095
   8.13978  -5.65885 -25.11663
   7.36166  -5.28476 -24.78743
   6.40398  -4.91067 -24.62283
   5.53608  -4.43183 -24.53305
   4.50358  -4.10262 -24.23377
   3.26159  -3.60882 -23.94946
   2.12435  -3.05516 -23.68011
   1.01703  -2.47157 -23.18631
  -0.15014  -2.00770 -22.61769
  -1.27243  -1.45404 -21.89943
  -2.28996  -0.93031 -21.06145
  -3.38232  -0.27190 -19.92421
  -4.45971   0.14709 -18.75704
  -5.26775   0.44636 -17.53001
  -6.19550   0.88031 -16.06356
  -6.86887   1.02995 -14.58215
  -7.66195   1.07484 -13.23541
  -8.12583   0.98506 -11.93356
  -8.58971   0.80549 -10.63171
  -8.78423   0.59600  -9.31490
  -9.11344   0.26680  -8.34226
  -9.06855   0.04234  -7.19005
  -9.23315   0.07227  -5.99295
  -9.18826   0.11716  -4.99038
  -9.21818   0.40147  -3.79328
  -9.30797   0.77556  -2.65603
  -9.44264   0.97009  -1.47389
  -9.69702   1.04491  -0.26183
 -10.04119   1.20951   0.84549
 -10.47514   1.38908   1.95281
 -11.05873   1.41901   3.03020
 -11.46275   1.44893   4.09263
 -11.70217   1.70332   5.22987
 -12.04633   1.70332   6.38208
 -12.21094   1.83799   7.35473
 -12.42043   1.89785   8.41715
 -12.39050   1.79310   9.56936
 -12.48028   1.52375  10.49712
 -12.55510   1.20951  11.49969
 -12.61496   1.00002  12.44240
 -12.70474   0.50622  13.13074
 -12.74963   0.10219  13.66943
 -12.73467  -0.19708  14.22309
 -12.73467  -0.57118  14.59719
 -12.65985  -0.76570  14.68697
 -12.55510  -0.96023  14.71690
 -12.28575  -1.28944  14.71690
 -12.24086  -1.67849  14.61215
 -11.91166  -1.99273  14.47748
 -11.59742  -2.27704  14.47748
 -11.35800  -2.60625  14.25302
 -11.08865  -2.96538  13.95374
 -10.63974  -3.01027  13.84900
 -10.25068  -3.18983  13.56469
  -9.83170  -3.05516  13.34023
  -9.38279  -2.81574  13.14570
  -8.85905  -2.54639  12.89132
  -8.33532  -2.44165  12.60701
  -7.70684  -2.23215  12.38255
  -7.00355  -1.90295  12.35262
  -6.24040  -1.81317  12.17306
  -5.44732  -1.43907  12.06831
  -4.35496  -1.06498  11.97853
  -3.32246  -0.66096  11.93364
  -2.15529  -0.46643  11.64933
  -1.09286  -0.10730  11.37998
   0.07431  -0.00255  11.12559
   1.15170   0.11716  10.55697
   2.12435   0.19198  10.04820
   3.12692   0.38651   9.52447
   3.90503   0.43140   8.79125
   4.62329   0.52118   8.11788
   5.29666   0.70074   7.54926
   5.77550   0.79053   7.30984
   6.11967   0.76060   6.86092
   6.43391   0.77556   6.63647
   6.58355   0.61096   6.48683
   6.65837   0.56607   6.44194
   6.68829   0.74564   6.47186
   6.67333   0.86535   6.65143
   6.49376   1.11973   6.77114
   6.17953   1.20951   6.99560
   5.80543   1.40404   7.33976
   5.23681   1.41901   7.59415
   4.57840   1.46390   7.89342
   3.81525   1.50879   8.16277
   2.99224   1.49382   8.31241
   2.06449   1.35915   8.41715
   1.16667   1.26937   8.44708
   0.19402   1.14966   8.43212
  -0.82351   0.91024   8.38723
  -1.78119   0.67082   8.19270
  -2.60420   0.50622   8.02810
  -3.42721   0.35658   7.87846
  -4.13051   0.10219   7.60911
  -4.86373  -0.07737   7.24998
  -5.38746  -0.10730   7.01056
  -6.03090  -0.19708   6.66639
  -6.46485  -0.30183   6.26237
  -6.86887  -0.18212   6.02295
  -7.21304  -0.15219   5.73864
  -7.61706  -0.18212   5.54411
  -7.91634  -0.07737   5.36455
  -8.35029  -0.22701   5.33462
  -8.78423  -0.28686   5.30469
  -9.03862  -0.24197   5.24484
  -9.48753  -0.31679   5.42440
  -9.68206  -0.45146   5.40944
  -9.77184  -0.49636   5.69375
  -9.75688  -0.66096   6.03792
  -9.59228  -0.85549   6.42697
  -9.20322  -0.82556   6.78610
  -8.70942  -0.81060   7.20509
  -8.09590  -0.81060   7.57918
  -7.46742  -0.67592   7.98320
  -6.73420  -0.40657   8.28248
  -5.97105  -0.36168   8.35730
  -5.31264  -0.19708   8.37226
  -4.47467  -0.07737   8.34233
  -3.81627   0.25183   8.10291
  -3.08304   0.44636   7.78868
  -2.40967   0.74564   7.74378
  -1.75127   0.97009   7.56422
  -0.95819   1.22448   7.57918
  -0.28482   1.35915   7.90839
   0.34366   1.31426   8.10291
   0.86739   1.28433   8.31241
   1.39112   1.31426   8.64161
   1.86996   1.28433   8.89599
   2.27398   1.40404   9.24016
   2.72290   1.61353   9.64418
   2.91743   1.59857  10.01828
   3.05210   1.64346  10.31755
   3.24663   1.74821  10.49712
   3.12692   1.53872  10.84128
   3.03714   1.46390  11.00588
   3.05210   1.37411  11.03581
   2.97728   1.22448  11.21538
   2.94735   1.13469  11.20041
   2.96232   1.05987  11.18545
   3.32145   1.07484  11.06574
   3.69554   1.10477  10.99092
   4.17438   1.01498  10.70661
   4.74300   0.97009  10.42230
   5.50616   1.07484  10.12302
   6.22442   0.95513   9.83871
   6.82297   0.88031   9.37483
   7.43648   1.00002   8.83614
   8.07992   0.88031   8.34233
   8.43905   0.89527   7.72882
   8.76826   0.85038   7.10034
   8.94782   0.70074   6.48683
   8.93286   0.55111   5.66382
   8.96279   0.47629   4.73607
   8.82811   0.35658   4.04774
   8.66351   0.32665   3.47911
   8.51387   0.50622   3.00027
   8.18467   0.56607   2.65611
   7.94525   0.76060   2.44661
   7.52626   0.95513   2.40172
   6.91275   1.08980   2.52143
   6.26931   1.29930   2.53640
   5.47623   1.61353   2.82071
   4.42877   1.71828   3.16487
   3.42619   1.88288   3.35940
   2.37873   2.19712   3.77839
   1.30134   2.28690   4.21234
   0.14913   2.55625   4.57147
  -0.82351   2.82560   5.06527
  -1.81112   3.05005   5.66382
  -2.61917   3.22962   6.36712
  -3.51699   3.52890   7.07041
  -4.22029   3.55882   7.81860
  -5.02833   3.81321   8.49197
  -5.61192   4.00774   9.27009
  -6.31521   4.23219  10.09309
  -6.79405   4.35190  10.78143
  -7.25793   4.69607  11.43983
  -7.40757   4.75592  11.85882
  -7.57217   5.01031  12.21795
  -7.60210   5.38440  12.47233
  -7.52728   5.47418  12.68183
  -7.22800   5.72857  12.71175
  -6.79405   5.92310  12.69679
  -6.24040   5.89317  12.53219
  -5.62688   5.87821  12.32269
  -4.86373   5.89317  11.97853
  -4.08561   5.63879  11.64933
  -3.27757   5.47418  11.09567
  -2.40967   5.33951  10.52704
  -1.49688   4.99534  10.16791
  -0.73373   4.77089   9.47958
  -0.01547   4.47161   8.85110
   0.58308   4.17234   8.14781
   1.01703   3.78328   7.17516
   1.61558   3.37926   6.24741
   1.95975   3.05005   5.31966
   2.31888   2.79567   4.07766
   2.57326   2.64603   2.73092
   2.82764   2.31683   1.23455
   2.90246   2.07741  -0.30672
   3.15685   1.94274  -1.96770
   3.12692   1.44893  -3.74838
   3.21670   1.13469  -5.55900
   3.30648   0.65585  -7.54918
   3.15685   0.11716  -9.49447
   3.09699  -0.28686 -11.45472
   3.08203  -0.78067 -13.51972
   2.84261  -1.19965 -15.34530
   2.61815  -1.64857 -17.41030
   2.45355  -2.05259 -19.11617
   2.21413  -2.54639 -20.97167
   2.10938  -2.99530 -22.69250
   2.09442  -3.56393 -24.24874
   1.91485  -4.35701 -25.56555
   1.92982  -5.00045 -26.89732
   1.81011  -5.46432 -27.89989
   1.84004  -6.15266 -28.70794
   1.79514  -6.73624 -29.32145
   1.92982  -7.21508 -29.63569
   1.92982  -7.70889 -29.75540
   2.01960  -8.11291 -29.51598
   2.04953  -8.33737 -28.99225
   1.84004  -8.48700 -28.24406
   1.81011  -8.30744 -27.58565
   1.78018  -8.32240 -26.64294
   1.60061  -8.17277 -25.67029
   1.52580  -7.90342 -24.68268
   1.39112  -7.40961 -23.59033
   1.37616  -6.94574 -22.81221
   1.48090  -6.33222 -21.83957
   1.72033  -5.83842 -20.82203
   1.88493  -5.22490 -20.10377
   2.33384  -4.47672 -19.28077
   2.84261  -3.63875 -18.54754
   3.35137  -2.78581 -18.06870
   3.94993  -1.72338 -17.53001
   4.41380  -0.81060 -17.14095
   4.89264   0.19198 -16.75189
   5.38645   1.17958 -16.40773
   5.56601   1.82303 -16.07852
   5.74558   2.46647 -15.68946
   5.88025   3.09495 -15.25552
   5.83536   3.42415 -14.85149
   5.71565   3.70846 -14.07338
   5.52112   3.99277 -13.32519
   5.35652   3.96284 -12.56204
   5.14703   3.81321 -11.54450
   4.95250   3.88803 -10.54193
   4.71308   3.64861  -9.64411
   4.45869   3.75335  -8.58168
   4.23424   3.72342  -7.81853
   4.11453   3.78328  -6.71121
   3.89007   3.76832  -5.84331
   3.75540   3.76832  -4.69110
   3.59080   3.78328  -3.70349
   3.75540   3.54386  -2.68596
   3.93496   3.22962  -1.59360
   4.41380   3.09495  -0.51621
   4.89264   2.67596   0.47140
   5.44630   2.46647   1.44404
   6.02989   1.97266   2.31194
   6.64340   1.70332   3.01524
   7.18210   1.08980   3.62875
   7.63101   0.77556   3.95795
   8.06496   0.28176   4.28716
   8.33431  -0.09233   4.09263
   8.75329  -0.43650   4.15248
   8.84308  -0.60110   3.82328
   9.24710  -0.69089   3.50904
   9.35184  -0.88541   3.06013
   9.56134  -0.96023   2.50647
   9.68105  -1.18469   1.80317
   9.75586  -1.43907   1.02506
   9.80076  -1.64857   0.27687
   9.89054  -2.05259  -0.42643
   9.96536  -2.21719  -1.26440
  10.17485  -2.47157  -2.01259
  10.26463  -2.71099  -2.50639
  10.32449  -2.81574  -3.01516
  10.45916  -2.87559  -3.29947
  10.50405  -2.93545  -3.59875
  10.69858  -2.75588  -3.68853
  10.72851  -2.65114  -3.76335
  10.78836  -2.30697  -3.91299
  10.86318  -1.97777  -3.77831
  10.83326  -1.63360  -3.77831
  11.01282  -1.36425  -3.61371
  11.20735  -1.05002  -3.40422
  11.38691  -0.70585  -3.17976
  11.58144  -0.37665  -2.94034
  11.83583  -0.15219  -2.52136
  12.09021   0.10219  -2.20712
  12.32963   0.23687  -1.65346
  12.47927   0.19198  -1.26440
  12.52416   0.22190  -0.78556
  12.53912   0.11716  -0.20197
  12.46431  -0.04744   0.48636
  12.23985  -0.24197   1.24951
  11.97050  -0.31679   2.08748
  11.55152  -0.39161   2.82071
  11.17742  -0.34672   3.80832
  10.68362  -0.49636   4.69118
  10.33945  -0.46643   5.70871
   9.75586  -0.55621   6.56165
   9.24710  -0.42154   7.51933
   8.69344  -0.45146   8.40219
   8.06496  -0.34672   9.38980
   7.39159  -0.24197  10.34748
   6.53866   0.10219  11.36501
   5.62587   0.31169  12.41248
   4.80286   0.59600  13.41505
   3.81525   0.91024  14.28295
   2.75282   1.11973  15.16581
   1.70536   1.32922  15.86911
   0.56812   1.58361  16.43773
  -0.61402   1.83799  17.02132
  -1.73630   1.80806  17.39541
  -2.73888   1.83799  17.85929
  -3.83123   1.64346  18.23338
  -4.89366   1.53872  18.56258
  -5.92616   1.52375  18.57755
  -6.70427   1.37411  18.84689
  -7.43750   1.26937  18.99653
  -7.99116   0.98506  18.98157
  -8.39518   0.80549  18.95164
  -8.70942   0.53614  18.81697
  -9.02365   0.08723  18.29324
  -9.09847  -0.37665  18.03885
  -9.14336  -0.88541  17.47023
  -9.14336  -1.22958  16.87168
  -9.24811  -1.58871  16.07860
  -9.32293  -1.73835  15.21070
  -9.39775  -1.76828  14.22309
  -9.48753  -2.08251  13.34023
  -9.62221  -2.08251  12.50226
  -9.75688  -2.26208  11.40991
  -9.78681  -2.47157  10.51208
  -9.92148  -2.65114   9.47958
 -10.07112  -2.65114   8.68650
 -10.35543  -2.51646   8.02810
 -10.54996  -2.33690   7.26494
 -10.90909  -2.24712   6.65143
 -11.26822  -2.15733   5.99302
 -11.86677  -2.08251   5.28973
 -12.09123  -1.97777   4.81089
 -12.61496  -2.20222   4.21234
 -12.86934  -2.24712   3.70357
 -13.27336  -2.38179   3.06013
 -13.54271  -2.24712   2.28201
 -13.78213  -2.36683   1.66850
 -13.94673  -2.17230   0.72578
 -13.81206  -2.27704  -0.30672
 -13.60257  -2.21719  -1.35418
 -13.30329  -2.00770  -2.58121
 -12.79452  -2.11244  -3.80824
 -12.27079  -1.99273  -5.00534
 -11.58246  -1.97777  -6.24733
 -10.92405  -2.15733  -7.54918
 -10.28061  -2.17230  -8.80613
  -9.54739  -2.39675  -9.86856
  -8.96380  -2.50150 -11.03574
  -8.23058  -2.63617 -11.97845
  -7.60210  -2.72596 -13.01095
  -6.86887  -2.86063 -13.87885
  -6.12069  -3.10005 -14.52229
  -5.44732  -3.32451 -15.03106
  -4.80387  -3.62378 -15.45004
  -4.32503  -3.86320 -15.59968
