********************************************************************************
               CENTRO DE INSTRUMENTACION Y REGISTRO SISMICO  A.C.  
                       Coordinacion de Servicios Tecnicos
     Anaxagoras 814, Col. Narvarte, Benito Juarez, C.P. 03020 Mexico, D.F.
            Tels. 687 45 42/ 687 45  82             Fax. 669 25 12
********************************************************************************
ARCHIVO ESTANDAR DE ACELERACION:
VERSION DEL FORMATO                    : 2.0
NOMBRE DEL ARCHIVO                     : AR140301.221
FECHA Y HORA DE CREACION               : 19/JUL/04, 9:00
REF. CATALOGO ACELEROGRAMAS, SMIS 1996 : REGISTRO No.     /PAG.


================================================================================
DATOS DE LA ESTACION:
NOMBRE DE LA ESTACION                  : ARAGON
CLAVE DE LA ESTACION                   : AR14
LOCALIZACION DE LA ESTACION            : Esc Prim Jose Ordaz Lopez Puebla 2 y
                                       : Baja California, Col Providencia
                                       : Gustavo A. Madero
                                       :
                                       :
COORDENADAS DE LA ESTACION             : 19.481 LAT. N 
                                       : 99.076 LONG. W 
ALTITUD (msnm)                         : 2232
TIPO DE SUELO                          : ARCILLOSO, ZONA LAGO
                                       : 
                                       : 
INSTITUCION RESPONSABLE                : CIRES
                                       :

================================================================================
DATOS DEL ACELEROGRAFO:
MODELO DEL ACELEROGRAFO                : RAD-851
NUMERO DE SERIE DEL ACELEROGRAFO       : 235
NUMERO DE CANALES                      : 3
ORIENTACION C1-C6 (rumbo;orientacion)  : /N00E/+V/N90W
ORIENTACION C7-C12 (rumbo;orientacion) :
VEL. DE MUESTREO, C1-C6 (muestras/s)   : /100/100/100
VEL. DE MUESTREO, C7-C12 (muestras/s)  :
ESC. COMPLETA DE SENSORES, C1-C6, (g)  : /0.5/0.5/0.5
ESC. COMPLETA DE SENSORES, C7-C12, (g) :
FREC. NAT. DE SENSORES, C1-C6, (Hz)    : /30/30/32
FREC. NAT. DE SENSORES, C7-C12, (Hz)   :
AMORTIGUAMIENTO DE SENSORES, C1-C6     : /0.733/0.790/0.750
AMORTIGUAMIENTO DE SENSORES, C7-C12    :
INTERVALO DE MUESTREO, C1-C6, (s)      : /0.01/0.01/0.01
INTERVALO DE MUESTREO, C7-C12, (s)     :
UMBRAL DE DISPARO, C1-C6, (Gal)        : /1.95/3.42/1.95
UMBRAL DE DISPARO, C7-C12, (Gal)       :
MEMORIA DE PREEVENTO (s)               : 16
TIEMPO DE POSEVENTO (s)                : 64


================================================================================
DATOS DEL SISMO:
FECHA DEL SISMO (GMT)                  : 22/ENE/03
HORA EPICENTRO (GMT)                   : 02:06:34:5
MAGNITUD(ES)                           : /Mb=6.5/Ms=7.6/Mc=0.0/Ma=7.2/Me=7.6
COORDENADAS DEL EPICENTRO              : 18.60 LAT. N
                                       : 104.22 LONG. W
PROFUNDIDAD FOCAL (km)                 : 9.0
FUENTE DE LOS DATOS EPICENTRALES       : SSN
                                       : INSTITUTO DE GEOFISICA, UNAM

================================================================================
DATOS DE ESTE REGISTRO:
HORA DE LA PRIMERA MUESTRA (GMT)       : 02:09:02.00
EXACTITUD DEL TIEMPO (s)               :     
DURACION DEL REGISTRO (s), C1-C6       : /286.25/286.25/286.25
DURACION DEL REGISTRO (s), C7-C12      :
NUM. TOTAL DE MUESTRAS, C1-C6          : /28625/28625/28625
NUM. TOTAL DE MUESTRAS, C7-C12         :
ACEL. MAX. (Gal), C1-C6                : /-27.81072/4.23087/12.46382
ACEL. MAX., C1-C6, EN LA MUESTRA       :
ACEL. MAX. (Gal), C7-C12               :
ACEL. MAX., C7-C12, EN LA MUESTRA      :
UNIDADES DE LOS DATOS                  : Gal (cm/s/s)
FACTOR DE DECIMACION                   : 1
FORMATO DATOS (FORTRAN,10 campos/dato) : 3F10.5


================================================================================
CALIDAD DEL ACELEROGRAMA:
REGISTRO DIGITAL COMPLETO, CARECE DE TIEMPO ABSOLUTO.


================================================================================
COMENTARIOS:














================================================================================
DATOS DE ACELERACION:
---------+---------+---------+---------+---------+---------+---------+---------+
   CANAL-1   CANAL-2   CANAL-3   CANAL-4   CANAL-5   CANAL-6   CANAL-7   CANAL-8
      N00E        +V      N90W
---------+---------+---------+---------+---------+---------+---------+---------+
[...]
 -20.14931  -1.03635  -9.56272
 -19.90990  -1.03635  -9.32330
 -19.90990  -1.27577  -9.08389
 -19.90990  -1.27577  -9.08389
 -19.67048  -1.27577  -8.84447
 -19.43106  -1.27577  -8.60505
 -19.19164  -1.27577  -8.60505
 -18.95222  -1.27577  -8.36563
 -18.95222  -1.27577  -8.12621
 -18.71280  -1.27577  -7.88679
 -18.23396  -1.27577  -7.64737
 -17.99454  -1.27577  -7.16853
 -17.75512  -1.03635  -7.16853
 -17.51571  -1.03635  -6.68970
 -17.27629  -0.79693  -6.21086
 -16.79745  -0.79693  -5.97144
 -16.31861  -0.79693  -5.49260
 -15.83977  -0.79693  -5.25318
 -15.36094  -0.79693  -4.77434
 -15.12152  -0.79693  -4.53493
 -14.40326  -0.55751  -4.05609
 -13.92442  -0.55751  -3.81667
 -13.44558  -0.55751  -3.33783
 -12.96675  -0.31809  -3.09841
 -12.24849  -0.31809  -2.85899
 -11.76965  -0.31809  -2.61957
 -11.53023  -0.31809  -2.38015
 -11.05139  -0.31809  -1.90132
 -11.05139  -0.07867  -1.90132
 -10.57256  -0.31809  -1.42248
 -10.33314  -0.07867  -1.18306
 -10.09372   0.16075  -0.94364
  -9.61488   0.16075  -0.70422
  -9.37546   0.40017  -0.46480
  -9.13604   0.63959  -0.22538
  -8.89662   0.87900   0.25345
  -8.65721   1.11842   0.25345
  -8.17837   1.11842   0.73229
  -7.93895   1.35784   0.97171
  -7.69953   1.59726   1.21113
  -7.46011   1.59726   1.45055
  -6.98127   1.59726   1.92939
  -6.98127   1.83668   1.92939
  -6.50243   2.07610   2.16881
  -6.26302   2.07610   2.16881
  -6.26302   2.07610   2.40822
  -5.78418   2.07610   2.64764
  -5.78418   2.07610   2.88706
  -5.54476   2.31552   2.88706
  -5.54476   2.31552   3.12648
  -5.30534   2.31552   3.12648
  -5.30534   2.31552   3.12648
  -4.82650   2.31552   3.12648
  -4.82650   2.31552   3.36590
  -4.82650   2.07610   3.12648
  -4.58708   2.07610   3.36590
  -4.34766   2.07610   3.12648
  -4.10825   1.83668   3.36590
  -4.34766   1.83668   3.36590
  -4.10825   1.83668   3.12648
  -3.86883   1.59726   3.12648
  -3.86883   1.35784   3.12648
  -3.86883   1.35784   3.12648
  -3.62941   1.11842   2.88706
  -3.62941   1.11842   2.88706
  -3.62941   0.87900   2.88706
  -3.62941   0.63959   2.64764
  -3.38999   0.63959   2.64764
  -3.15057   0.40017   2.40822
  -3.15057   0.40017   2.40822
  -3.15057   0.40017   2.40822
  -3.15057   0.16075   2.16881
  -2.67173   0.16075   1.92939
  -2.67173   0.16075   1.92939
  -2.67173  -0.07867   1.68997
  -2.43231  -0.07867   1.68997
  -2.43231  -0.31809   1.45055
  -2.43231  -0.55751   1.45055
  -2.43231  -0.31809   1.21113
  -2.19289  -0.31809   1.21113
  -2.19289  -0.55751   0.97171
  -1.95347  -0.79693   0.73229
  -1.71406  -1.03635   0.49287
  -1.71406  -1.03635   0.49287
  -1.71406  -1.03635   0.49287
  -1.47464  -1.27577   0.49287
  -1.47464  -1.51519   0.25345
  -1.23522  -1.27577   0.25345
  -1.23522  -1.27577   0.25345
  -1.23522  -1.51519   0.01403
  -1.23522  -1.51519   0.01403
  -0.99580  -1.51519   0.01403
  -0.99580  -1.75460   0.01403
  -0.99580  -1.75460   0.01403
  -0.75638  -1.75460  -0.22538
  -0.75638  -1.99402   0.01403
  -0.75638  -1.99402   0.01403
  -0.75638  -1.99402  -0.22538
  -0.51696  -1.75460  -0.22538
  -0.51696  -1.75460   0.01403
  -0.51696  -1.75460   0.01403
  -0.27754  -1.51519   0.01403
  -0.03812  -1.51519   0.01403
  -0.03812  -1.51519   0.01403
   0.20130  -1.51519   0.25345
   0.20130  -1.51519   0.25345
   0.44071  -1.27577   0.25345
   0.68013  -1.27577   0.25345
   1.15897  -1.27577   0.01403
   1.15897  -1.27577   0.25345
   1.39839  -1.03635   0.25345
   1.87723  -1.03635   0.25345
   2.11665  -1.03635   0.01403
   2.35607  -1.03635   0.01403
   2.83490  -1.03635   0.25345
   3.07432  -0.79693   0.25345
   3.55316  -0.79693   0.01403
   3.79258  -0.79693   0.25345
   4.27142  -0.55751   0.25345
   4.51084  -0.55751   0.25345
   4.98967  -0.55751   0.25345
   5.46851  -0.31809   0.01403
   5.70793  -0.55751   0.01403
   5.94735  -0.55751   0.01403
   6.42619  -0.31809   0.01403
   6.66561  -0.31809   0.01403
   7.14445  -0.31809  -0.22538
   7.38386  -0.31809  -0.46480
   7.86270  -0.31809  -0.22538
   8.10212  -0.31809  -0.22538
   8.58096  -0.55751  -0.46480
   8.82038  -0.55751  -0.70422
   9.05980  -0.55751  -0.70422
   9.53863  -0.55751  -0.70422
   9.77805  -0.55751  -0.70422
  10.25689  -0.31809  -0.94364
  10.73573  -0.55751  -0.94364
  11.21457  -0.55751  -1.18306
  11.45399  -0.55751  -1.42248
  11.93282  -0.55751  -1.18306
  12.17224  -0.55751  -1.42248
  12.65108  -0.55751  -1.42248
  13.12992  -0.55751  -1.42248
  13.60876  -0.79693  -1.66190
  13.84818  -0.79693  -1.66190
  14.32701  -1.03635  -1.66190
  14.56643  -0.79693  -1.66190
  15.04527  -0.79693  -1.66190
  15.52411  -1.03635  -1.90132
  15.76353  -1.03635  -1.90132
  16.24237  -1.27577  -2.14074
  16.72120  -1.27577  -2.14074
  17.20004  -1.27577  -2.14074
  17.20004  -1.27577  -2.14074
  17.67888  -1.27577  -2.14074
  17.91830  -1.51519  -2.14074
  18.39714  -1.51519  -2.14074
  18.87597  -1.51519  -2.14074
  19.35481  -1.75460  -2.38015
  19.35481  -1.51519  -2.14074
  19.83365  -1.75460  -2.14074
  20.07307  -1.75460  -2.14074
  20.55191  -1.75460  -2.14074
  20.79133  -1.75460  -2.14074
  21.27016  -1.75460  -2.38015
  21.50958  -1.75460  -2.38015
  21.98842  -1.75460  -2.38015
  22.22784  -1.75460  -2.14074
  22.46726  -1.75460  -2.14074
  22.94610  -1.75460  -2.38015
  22.94610  -1.75460  -2.38015
  23.18551  -1.75460  -2.38015
  23.42493  -1.75460  -2.61957
  23.66435  -1.75460  -2.85899
  23.66435  -1.51519  -2.85899
  23.90377  -1.51519  -3.09841
  23.90377  -1.27577  -3.33783
  24.14319  -1.27577  -3.33783
  24.14319  -1.03635  -3.57725
  24.14319  -1.03635  -3.81667
  24.14319  -0.79693  -4.05609
  24.14319  -0.79693  -4.29551
  24.14319  -0.55751  -4.53493
  24.14319  -0.55751  -4.77434
  24.14319  -0.31809  -5.01376
  24.14319  -0.31809  -5.25318
  24.14319  -0.31809  -5.25318
  23.90377  -0.07867  -5.49260
  23.90377  -0.07867  -5.49260
  23.66435  -0.07867  -5.73202
  23.42493  -0.07867  -5.73202
  23.42493   0.16075  -5.73202
  23.18551   0.16075  -5.73202
  22.94610   0.16075  -5.73202
  22.70668   0.40017  -5.73202
  22.70668   0.40017  -5.73202
  22.46726   0.40017  -5.73202
  22.46726   0.40017  -5.73202
  21.98842   0.40017  -5.73202
  21.74900   0.40017  -5.73202
  21.50958   0.40017  -5.49260
  21.27016   0.40017  -5.49260
  21.03074   0.40017  -5.25318
  20.55191   0.40017  -5.25318
  20.31249   0.63959  -5.25318
  19.83365   0.63959  -5.01376
  19.59423   0.63959  -5.01376
  19.11539   0.63959  -4.77434
  18.87597   0.63959  -4.77434
  18.39714   0.63959  -4.77434
  17.91830   0.87900  -4.53493
  17.43946   0.63959  -4.53493
  17.43946   0.87900  -4.29551
  16.72120   0.87900  -4.29551
  16.24237   1.11842  -4.05609
  15.76353   1.11842  -3.81667
  15.52411   1.35784  -3.81667
  15.04527   1.11842  -3.57725
  14.56643   1.35784  -3.81667
  13.84818   1.59726  -3.57725
  13.36934   1.59726  -3.33783
  12.89050   1.59726  -3.33783
  12.41166   1.83668  -3.09841
  11.93282   1.83668  -3.09841
  11.45399   2.07610  -3.09841
  10.97515   2.07610  -2.85899
  10.25689   2.31552  -2.85899
  10.01747   2.55494  -2.85899
   9.53863   2.55494  -2.85899
   9.05980   2.55494  -2.85899
   8.58096   2.55494  -2.85899
   8.34154   2.55494  -2.61957
   7.86270   2.55494  -2.38015
   7.38386   2.55494  -2.61957
   7.14445   2.55494  -2.38015
   6.90503   2.55494  -2.38015
   6.42619   2.55494  -2.14074
   6.18677   2.55494  -1.90132
   5.70793   2.55494  -1.90132
   5.46851   2.31552  -1.66190
   5.22909   2.55494  -1.42248
   5.22909   2.31552  -1.42248
   4.98967   2.07610  -1.18306
   4.75026   2.07610  -0.94364
   4.27142   2.07610  -0.70422
   4.27142   1.83668  -0.70422
   4.03200   1.59726  -0.46480
   3.79258   1.59726  -0.22538
   3.55316   1.35784   0.01403
   3.55316   1.11842   0.01403
   3.31374   0.87900   0.49287
   3.07432   0.63959   0.73229
   2.83490   0.63959   0.97171
   2.59549   0.63959   0.97171
   2.59549   0.16075   1.21113
   2.35607  -0.07867   1.45055
   2.11665  -0.07867   1.68997
   1.87723  -0.31809   2.16881
   1.87723  -0.31809   2.40822
   1.63781  -0.55751   2.64764
   1.39839  -0.79693   2.64764
   1.15897  -1.03635   3.12648
   0.91955  -1.03635   3.36590
   0.68013  -1.27577   3.84474
   0.44071  -1.51519   4.08416
   0.20130  -1.51519   4.32358
   0.20130  -1.75460   4.56299
  -0.03812  -1.75460   4.80241
  -0.27754  -1.99402   5.28125
  -0.51696  -1.99402   5.52067
  -0.51696  -2.23344   5.76009
  -0.75638  -2.23344   5.99951
  -0.99580  -2.23344   6.23893
  -1.23522  -2.23344   6.47835
  -1.23522  -2.23344   6.47835
  -1.47464  -2.47286   6.47835
  -1.71406  -2.47286   6.71777
  -1.95347  -2.47286   6.95718
  -2.19289  -2.47286   7.19660
  -2.43231  -2.47286   6.95718
  -2.43231  -2.47286   7.19660
  -2.67173  -2.47286   7.19660
  -2.67173  -2.47286   7.19660
  -2.91115  -2.23344   7.19660
  -3.15057  -2.23344   7.19660
  -3.38999  -2.23344   7.19660
  -3.62941  -1.99402   6.95718
  -3.62941  -1.99402   6.95718
  -3.86883  -1.99402   6.71777
  -4.10825  -1.75460   6.71777
  -4.10825  -1.51519   6.23893
  -4.34766  -1.51519   6.23893
  -4.58708  -1.51519   5.99951
  -4.82650  -1.27577   5.76009
  -5.06592  -1.03635   5.52067
  -5.06592  -1.03635   5.04183
  -5.54476  -1.03635   4.80241
  -5.78418  -0.79693   4.56299
  -6.02360  -0.79693   4.32358
  -6.26302  -0.79693   4.08416
  -6.74185  -0.55751   3.84474
  -7.22069  -0.31809   3.60532
  -7.46011  -0.31809   3.12648
  -7.93895  -0.07867   2.88706
  -8.41779  -0.07867   2.64764
  -8.65721  -0.07867   2.40822
  -9.13604   0.16075   2.16881
  -9.61488   0.16075   1.92939
 -10.33314   0.40017   1.92939
 -10.81198   0.40017   1.68997
 -11.29081   0.16075   1.45055
 -11.53023   0.40017   1.21113
 -12.24849   0.63959   1.21113
 -12.72733   0.63959   1.21113
 -13.20617   0.63959   1.21113
 -13.68500   0.63959   0.97171
 -14.40326   0.63959   0.97171
 -14.88210   0.87900   0.97171
 -15.36094   0.87900   0.97171
 -16.07919   0.87900   0.97171
 -16.55803   0.87900   1.21113
 -17.03687   0.87900   1.21113
 -17.75512   0.87900   1.21113
 -17.99454   0.87900   1.21113
 -18.71280   0.87900   1.45055
 -19.19164   0.87900   1.45055
 -19.67048   0.87900   1.68997
 -20.14931   0.87900   1.68997
 -20.62815   0.87900   1.68997
 -21.10699   0.87900   1.68997
 -21.82525   1.11842   1.92939
 -22.30408   1.11842   1.92939
 -22.54350   0.87900   1.68997
 -23.02234   1.11842   1.92939
 -23.74060   1.11842   1.92939
 -24.21944   1.35784   1.92939
 -24.45886   1.35784   1.68997
 -24.93769   1.59726   1.92939
 -25.17711   1.59726   1.68997
 -25.65595   1.59726   1.68997
 -25.89537   1.83668   1.68997
 -26.13479   1.83668   1.68997
 -26.61363   1.83668   1.68997
 -26.85304   2.07610   1.68997
 -27.09246   2.07610   1.45055
 -27.33188   2.07610   1.45055
 -27.33188   2.07610   1.45055
 -27.57130   2.31552   1.21113
 -27.57130   2.31552   1.21113
 -27.81072   2.31552   1.45055
 -27.81072   2.55494   1.21113
 -27.81072   2.55494   1.21113
 -27.81072   2.55494   1.21113
 -27.81072   2.79436   1.21113
 -27.81072   2.79436   1.21113
 -27.81072   2.79436   0.97171
 -27.57130   2.79436   0.97171
 -27.57130   2.79436   0.97171
 -27.57130   3.03377   0.97171
 -27.33188   2.79436   0.97171
 -27.09246   3.03377   0.73229
 -26.85304   2.79436   0.97171
 -26.37421   2.79436   0.97171
 -26.13479   3.03377   0.97171
 -26.13479   3.03377   0.73229
 -25.65595   2.79436   0.73229
 -25.41653   2.79436   0.73229
 -25.17711   2.79436   0.73229
 -24.69827   2.79436   0.73229
 -24.21944   2.79436   0.73229
 -23.98002   2.79436   0.73229
 -23.50118   2.79436   0.73229
 -23.50118   3.03377   0.73229
 -23.02234   2.79436   0.73229
 -22.54350   2.79436   0.73229
 -22.30408   2.79436   0.73229
 -22.06467   2.79436   0.73229
 -21.58583   2.79436   0.97171
 -21.34641   2.79436   0.73229
 -21.10699   2.79436   0.97171
 -20.86757   2.55494   1.21113
 -20.38873   2.55494   1.21113
 -20.14931   2.55494   1.21113
 -19.90990   2.55494   1.45055
 -19.67048   2.31552   1.45055
 -19.43106   2.55494   1.68997
 -19.19164   2.31552   1.68997
 -18.95222   2.07610   1.92939
 -18.71280   2.07610   2.16881
 -18.47338   1.83668   2.16881
 -17.99454   1.83668   2.40822
 -17.75512   1.83668   2.40822
 -17.51571   1.83668   2.64764
 -17.27629   1.83668   2.88706
 -16.79745   1.59726   2.64764
 -16.55803   1.59726   2.88706
 -16.07919   1.59726   3.12648
 -15.83977   1.35784   3.12648
 -15.36094   1.11842   3.12648
 -15.12152   1.11842   3.12648
 -14.64268   1.11842   3.36590
 -14.40326   0.87900   3.36590
 -13.92442   0.87900   3.36590
 -13.44558   0.63959   3.36590
 -12.96675   0.63959   3.36590
 -12.72733   0.63959   3.12648
 -12.00907   0.40017   2.88706
 -11.53023   0.40017   3.12648
 -11.05139   0.40017   2.88706
 -10.57256   0.16075   2.64764
  -9.85430   0.16075   2.40822
  -9.37546  -0.07867   2.40822
  -9.13604  -0.07867   2.16881
  -8.41779  -0.07867   1.92939
  -7.69953  -0.31809   1.68997
  -7.22069  -0.31809   1.45055
  -6.50243  -0.31809   1.45055
  -6.02360  -0.55751   1.21113
  -5.30534  -0.79693   0.97171
  -4.82650  -0.79693   0.73229
  -4.34766  -0.79693   0.49287
  -3.62941  -1.03635   0.25345
  -3.15057  -1.27577   0.01403
  -2.43231  -1.03635  -0.22538
  -1.95347  -1.27577  -0.46480
  -1.71406  -1.27577  -0.46480
  -0.99580  -1.27577  -0.70422
  -0.51696  -1.51519  -0.94364
  -0.03812  -1.51519  -0.94364
   0.44071  -1.51519  -1.18306
   0.68013  -1.51519  -1.42248
   1.39839  -1.51519  -1.66190
   1.63781  -1.51519  -1.90132
   2.11665  -1.51519  -1.90132
   2.59549  -1.51519  -2.14074
   2.83490  -1.51519  -2.14074
   3.31374  -1.51519  -2.38015
   3.55316  -1.51519  -2.38015
   4.03200  -1.51519  -2.38015
   4.27142  -1.51519  -2.38015
   4.51084  -1.51519  -2.38015
   4.75026  -1.51519  -2.61957
   5.22909  -1.75460  -2.61957
   5.70793  -1.51519  -2.38015
   5.94735  -1.51519  -2.38015
   6.18677  -1.27577  -2.38015
   6.42619  -1.27577  -2.61957
   6.66561  -1.27577  -2.38015
   7.14445  -1.27577  -2.61957
   7.38386  -1.27577  -2.38015
   7.62328  -1.03635  -2.61957
   7.86270  -1.27577  -2.61957
   8.10212  -1.27577  -2.61957
   8.34154  -1.27577  -2.61957
   8.82038  -1.03635  -2.61957
   8.82038  -1.03635  -2.61957
   9.05980  -1.03635  -2.61957
   9.53863  -1.03635  -2.61957
   9.77805  -1.03635  -2.85899
  10.01747  -1.03635  -2.61957
  10.25689  -0.79693  -2.61957
  10.49631  -0.79693  -2.61957
  10.73573  -0.55751  -2.85899
  10.97515  -0.55751  -2.85899
  11.21457  -0.55751  -3.09841
  11.45399  -0.55751  -3.09841
  11.69341  -0.55751  -2.85899
  11.93282  -0.31809  -2.85899
  12.17224  -0.31809  -2.61957
  12.41166  -0.31809  -2.85899
  12.89050  -0.55751  -3.09841
  13.12992  -0.31809  -3.09841
  13.36934  -0.31809  -3.09841
  13.60876  -0.31809  -2.85899
  13.84818  -0.31809  -2.85899
  14.32701  -0.31809  -2.85899
  14.56643  -0.31809  -2.85899
  15.04527  -0.31809  -2.85899
  15.28469  -0.31809  -2.85899
  15.52411  -0.31809  -2.85899
  15.76353  -0.07867  -2.61957
  16.00295  -0.31809  -2.85899
  16.48178  -0.07867  -2.61957
  16.72120  -0.07867  -2.61957
  16.96062  -0.31809  -2.61957
  17.43946  -0.31809  -2.61957
  17.67888  -0.31809  -2.61957
  17.67888  -0.31809  -2.61957
  18.15772  -0.31809  -2.61957
  18.39714  -0.31809  -2.61957
  18.63655  -0.31809  -2.61957
  18.63655  -0.31809  -2.61957
  18.87597  -0.55751  -2.61957
  19.11539  -0.31809  -2.61957
  19.35481  -0.31809  -2.61957
  19.35481  -0.31809  -2.61957
  19.59423  -0.31809  -2.61957
  19.83365  -0.55751  -2.61957
  20.07307  -0.31809  -2.85899
