********************************************************************************
              CENTRO DE INSTRUMENTACION Y REGISTRO SISMICO  A.C.

    Anaxagoras 814, Col. Narvarte, Benito Juarez, C.P. 03020 Mexico, D.F.
           Tels. 5687 45 42/ 5687 45  82             Fax. 5669 25 12
********************************************************************************
ARCHIVO ESTANDAR DE ACELERACION:
VERSION DEL FORMATO                    : 2.0
NOMBRE DEL ARCHIVO                     : AR1420140418142723
FECHA Y HORA DE CREACION               : 13/MAY/14, 13:00
REF. CATALOGO ACELEROGRAMAS, SMIS 1996 : REGISTRO No.     /PAG.


================================================================================
DATOS DE LA ESTACION:
NOMBRE DE LA ESTACION                  : ESC. PRIM. "JOSÉ ORDAZ LÓPEZ"
CLAVE DE LA ESTACION                   : AR14
LOCALIZACION DE LA ESTACION            : Del. Gustavo A. Madero,                
                                       : Col. Ampliación la Providencia,        
                                       : Calle Puebla esq. con calle            
                                       : Volcán Tacan.                          
                                       : 
COORDENADAS DE LA ESTACION             : 19.4808 LAT. N
                                       : 99.0760 LONG. W
ALTITUD (msnm)                         : 2232
TIPO DE SUELO                          : Arcilloso, zona lago                
                                       :                           
                                       : 
INSTITUCION RESPONSABLE                : CIRES
                                       : 

================================================================================
DATOS DEL ACELEROGRAFO:
MODELO DEL ACELEROGRAFO                : RADESD
NUMERO DE SERIE DEL ACELEROGRAFO       : 215
NUMERO DE CANALES                      : 3
ORIENTACION C1-C6 (rumbo;orientacion)  : /N00E/+V/N90W
ORIENTACION C7-C12 (rumbo;orientacion) : 
VEL. DE MUESTREO, C1-C6 (muestras/s)   : /100/100/100
VEL. DE MUESTREO, C7-C12 (muestras/s)  : 
ESC. COMPLETA DE SENSORES, C1-C6, (g)  : /0.5/0.5/0.5
ESC. COMPLETA DE SENSORES, C7-C12, (g) : 
FREC. NAT. DE SENSORES, C1-C6, (Hz)    : /30/30/32
FREC. NAT. DE SENSORES, C7-C12, (Hz)   : 
AMORTIGUAMIENTO DE SENSORES, C1-C6     : /0.733/0.790/0.750
AMORTIGUAMIENTO DE SENSORES, C7-C12    : 
INTERVALO DE MUESTREO, C1-C6, (s)      : /0.01/0.01/0.01
INTERVALO DE MUESTREO, C7-C12, (s)     : 
UMBRAL DE DISPARO, C1-C6, (Gal)        : /1.95/5.99/2.24
UMBRAL DE DISPARO, C7-C12, (Gal)       : 
MEMORIA DE PREEVENTO (s)               : 44.0
TIEMPO DE POSEVENTO (s)                : 64.0


================================================================================
DATOS DEL SISMO:
FECHA DEL SISMO (GMT)                  : 18/ABR/14
HORA EPICENTRO (GMT)                   : 14:27:23.0
MAGNITUD(ES)                           : /Mc=7.2
COORDENADAS DEL EPICENTRO              : 17.18 LAT. N
                                       : 101.19 LONG. W
PROFUNDIDAD FOCAL (km)                 : 10
FUENTE DE LOS DATOS EPICENTRALES       : SSN
                                       : INSTITUTO DE GEOFISICA, UNAM

================================================================================
DATOS DE ESTE REGISTRO:
HORA DE LA PRIMERA MUESTRA (GMT)       : 14:28:28.00
EXACTITUD DEL TIEMPO (s)               : 0.01
DURACION DEL REGISTRO (s), C1-C6       : /358.8/358.8/358.8
DURACION DEL REGISTRO (s), C7-C12      : 
NUM. TOTAL DE MUESTRAS, C1-C6          : /35880/35880/35880
NUM. TOTAL DE MUESTRAS, C7-C12         : 
ACEL. MAX. (Gal), C1-C6                : /35.98108/13.66402/33.52076
ACEL. MAX., C1-C6, EN LA MUESTRA       : /9708/9958/10559
ACEL. MAX. (Gal), C7-C12               : 
ACEL. MAX., C7-C12, EN LA MUESTRA      : 
UNIDADES DE LOS DATOS                  : Gal (cm/s/s)
FACTOR DE DECIMACION                   : 1
FORMATO DATOS (FORTRAN,10 campos/dato) : 3F10.5


================================================================================
CALIDAD DEL ACELEROGRAMA:
REGISTRO DIGITAL COMPLETO CON TIEMPO ABSOLUTO CORRECTO.


================================================================================
COMENTARIOS:














================================================================================
DATOS DE ACELERACION:
---------+---------+---------+---------+---------+---------+---------+---------+
   CANAL-1   CANAL-2   CANAL-3   CANAL-4   CANAL-5   CANAL-6   CANAL-7   CANAL-8
      N00E        +V      N90W
---------+---------+---------+---------+---------+---------+---------+---------+
[...]
  16.31870  -3.06546 -11.83440
  17.41106  -3.25999 -12.62748
  18.11436  -3.51438 -13.10632
  18.50341  -3.85854 -13.09136
  18.53334  -4.23264 -12.86690
  18.21910  -4.48702 -12.38806
  17.71033  -4.77133 -11.93915
  17.12675  -4.89104 -11.32563
  16.15410  -4.92097 -10.81687
  15.18146  -4.77133 -10.39788
  14.07414  -4.59177 -10.20335
  13.04164  -4.15782 -10.00882
  12.03907  -3.76876  -9.90408
  11.02153  -3.31985  -9.93400
  10.19853  -2.94575  -9.91904
   9.46530  -2.66144  -9.79933
   9.06128  -2.58662  -9.60480
   8.77697  -2.43699  -9.36538
   8.79193  -2.31728  -9.08107
   8.97150  -2.30231  -8.91647
   9.28574  -2.13771  -8.67705
   9.83940  -2.10778  -8.55734
  10.51276  -2.10778  -8.39274
  11.29088  -2.37713  -8.03361
  12.06900  -2.76619  -7.61462
  12.78726  -3.39467  -7.07593
  13.65515  -3.70891  -6.29781
  14.22378  -4.12789  -5.26531
  14.82233  -4.24760  -4.26274
  15.37599  -4.20271  -3.21528
  15.80994  -4.18775  -2.03314
  16.12417  -3.88847  -1.07546
  16.27381  -3.72387  -0.08785
  16.22892  -3.43956   0.66034
  16.10921  -2.96072   1.34867
  15.91468  -2.30231   1.84248
  15.58548  -1.62894   2.14175
  15.30117  -1.03039   2.32132
  14.89715  -0.53659   2.41110
  14.32852  -0.22235   2.35124
  13.65515   0.09189   2.27643
  12.95186   0.55577   2.35124
  12.03907   0.94482   2.32132
  11.09635   1.42366   2.47095
  10.09378   1.85761   2.78519
   8.94157   2.06711   2.88994
   7.75943   1.82769   3.08447
   6.51744   1.63316   3.44360
   5.17070   1.15432   3.57827
   3.85389   0.84008   3.77280
   2.64183   0.54080   3.99726
   1.47465   0.21160   4.13193
   0.29252  -0.05775   4.17682
  -0.62027  -0.25228   3.89251
  -1.27868  -0.37199   3.56331
  -1.75752  -0.28220   2.91987
  -2.13161  -0.10264   2.17168
  -2.17650   0.40613   1.25889
  -2.07176   1.15432   0.30121
  -2.04183   2.11200  -0.64151
  -1.78745   3.14450  -1.46452
  -1.71263   4.05729  -2.27256
  -1.74255   4.82044  -2.91600
  -1.86227   5.40402  -3.26017
  -2.07176   5.67337  -3.37988
  -2.49074   5.86790  -3.40980
  -2.83491   5.94272  -3.14046
  -3.32871   5.85294  -2.66162
  -3.67288   5.70330  -2.10796
  -4.07690   5.46388  -1.67401
  -4.28639   5.29928  -1.28495
  -4.37618   5.02993  -1.04553
  -4.42107   4.86533  -1.07546
  -4.31632   4.79051  -1.40466
  -4.12179   4.74562  -1.97328
  -3.88237   4.83540  -2.57183
  -3.67288   4.86533  -3.30506
  -3.38857   4.77555  -4.03828
  -3.02944   4.64087  -4.77151
  -2.76009   4.29671  -5.38502
  -2.58053   3.93758  -6.13321
  -2.29621   3.59341  -6.80658
  -2.02687   3.27917  -7.46498
  -1.63781   3.03975  -8.39274
  -1.09911   2.93500  -9.27560
  -0.59035   2.86019 -10.38292
   0.11295   2.93500 -11.56505
   0.81625   3.00982 -12.61252
   1.39983   3.06968 -13.55523
   1.89364   3.09961 -14.30342
   2.25277   3.02479 -14.60270
   2.20788   2.75544 -14.66255
   1.90860   2.44120 -14.46802
   1.31005   1.97732 -13.95925
   0.32244   1.49848 -13.31581
  -0.94948   1.12439 -12.38806
  -2.43089   0.76526 -11.46031
  -4.01705   0.39116 -10.44277
  -5.57328   0.21160  -9.38034
  -7.23425  -0.14753  -8.34784
  -8.61092  -0.34206  -7.18067
  -9.79306  -0.62637  -5.93868
 -10.78067  -0.77601  -4.63683
 -11.49893  -0.82090  -3.20031
 -12.09748  -0.89572  -1.95832
 -12.38179  -0.91068  -0.79115
 -12.27704  -0.97054   0.28624
 -12.09748  -1.20996   1.07932
 -11.60367  -1.41945   1.78262
 -11.10987  -1.76362   2.15671
 -10.57117  -2.15267   2.47095
 -10.10730  -2.70633   2.62059
  -9.53867  -3.31985   2.84505
  -8.94012  -4.09796   3.00965
  -8.46128  -5.02572   2.97972
  -8.01237  -5.87865   2.97972
  -7.59339  -6.73159   2.97972
  -7.30907  -7.47977   2.96476
  -7.09958  -8.19803   2.99469
  -6.89009  -8.75169   3.18921
  -6.77038  -9.21557   3.47353
  -6.62074  -9.64952   3.84762
  -6.69556  -9.97872   4.19179
  -6.60578 -10.18821   4.76041
  -6.45614 -10.24807   5.40385
  -6.21672 -10.15829   6.06226
  -5.87255  -9.87397   6.61592
  -5.39371  -9.52981   6.93015
  -5.06451  -9.09586   7.12468
  -4.51085  -8.57213   7.13965
  -4.04697  -8.04840   7.00497
  -3.59806  -7.41992   6.63088
  -3.16411  -6.73159   6.04729
  -2.65534  -6.17793   5.26918
  -2.25132  -5.68412   4.20675
  -1.89219  -5.38485   3.03958
  -1.42832  -5.08557   1.90233
  -0.72502  -4.69651   0.73516
   0.18777  -4.29249  -0.14770
   1.17538  -3.81365  -0.74625
   2.40241  -3.28992  -1.07546
   3.65936  -2.87094  -1.21013
   4.99114  -2.51180  -1.35977
   6.15831  -2.31728  -1.29991
   7.19081  -2.15267  -1.21013
   7.99885  -2.03296  -1.03057
   8.55251  -1.98807  -1.01560
   8.95653  -1.94318  -1.00064
   8.98646  -1.64391  -0.95575
   8.91164  -1.26981  -1.04553
   8.68719  -0.89572  -1.22509
   8.44777  -0.50666  -1.32984
   8.17842   0.24153  -1.47948
   7.83425   0.94482  -1.65904
   7.46016   1.69301  -1.79372
   7.08606   2.59084  -1.56926
   6.36780   3.42881  -1.19517
   5.42509   4.14707  -0.71633
   4.09331   4.67080   0.07675
   2.26773   5.04489   0.88480
   0.11295   5.34417   1.84248
  -2.13161   5.49381   2.93483
  -4.27143   5.50877   4.16186
  -6.27657   5.74819   5.43378
  -8.22186   5.85294   6.52613
  -9.94270   6.06243   7.54367
 -11.48396   6.31681   8.39660
 -12.78581   6.57120   9.05501
 -13.72853   6.79565   9.66852
 -14.32708   7.09493  10.29700
 -14.62635   7.25953  10.74591
 -14.50664   7.34931  11.16490
 -14.04277   7.33435  11.53899
 -13.50407   7.24457  11.58388
 -12.92048   7.28946  11.25468
 -12.41172   7.25953  10.77584
 -12.02266   7.30442   9.99773
 -11.60367   7.40917   8.95026
 -11.09491   7.48399   7.84294
 -10.67592   7.49895   6.75059
 -10.36168   7.34931   5.73305
  -9.80802   7.06500   5.10458
  -9.23940   6.66098   4.55092
  -8.70070   5.95768   4.07208
  -8.08719   5.20950   3.68302
  -7.54849   4.26678   3.42863
  -6.80031   3.26421   3.29396
  -6.02219   2.23171   3.17425
  -5.16926   1.12439   3.12936
  -4.28639   0.03203   3.02461
  -3.52324  -0.94061   2.77023
  -2.67031  -1.83844   2.53081
  -1.84730  -2.70633   2.24650
  -1.11408  -3.72387   1.76766
  -0.32100  -4.68155   1.33371
   0.57683  -5.48959   0.75012
   1.13049  -6.28267   0.10668
   1.63925  -7.04582  -0.67144
   2.07320  -7.56956  -1.43459
   2.59694  -8.10825  -2.06307
   2.85132  -8.60206  -2.55687
   2.95607  -9.03600  -2.88607
   2.88125  -9.60463  -2.87111
   2.59694 -10.03858  -2.69154
   2.26773 -10.33785  -2.34738
   1.74400 -10.51742  -1.79372
   0.96589 -10.56231  -1.38970
   0.14288 -10.32289  -1.13531
  -1.02429  -9.99368  -1.13531
  -2.44585  -9.52981  -1.47948
  -3.95719  -9.05097  -2.18278
  -5.58824  -8.57213  -2.91600
  -7.18936  -8.07832  -3.63426
  -9.02991  -7.58452  -4.24777
 -10.76570  -7.31517  -4.48719
 -12.63617  -6.74655  -4.69669
 -14.52161  -6.25274  -4.57698
 -16.45193  -5.57938  -4.35252
 -18.18773  -4.78630  -4.06821
 -19.77389  -3.90343  -3.99339
 -20.88120  -2.78115  -3.88864
 -21.68925  -1.65887  -4.02332
 -22.22794  -0.49170  -4.38245
 -22.37758   0.61562  -4.72661
 -22.37758   1.73790  -5.29524
 -22.21298   2.74048  -5.81897
 -21.95860   3.68319  -6.35766
 -21.70421   4.41642  -6.74672
 -21.25530   4.98504  -7.13578
 -20.92610   5.40402  -7.28542
 -20.50711   5.67337  -7.50987
 -20.02827   5.77812  -7.56973
 -19.62425   5.70330  -7.73433
 -19.10052   5.38906  -7.83908
 -18.63664   5.23942  -7.83908
 -18.12787   4.98504  -7.71937
 -17.51436   4.64087  -7.55477
 -16.99063   4.32663  -7.15074
 -16.43697   3.89268  -6.49234
 -15.83842   3.36895  -5.71422
 -15.12016   2.77040  -4.74158
 -14.34204   2.00725  -3.58937
 -13.68364   1.18424  -2.37730
 -12.96538   0.52584  -1.18020
 -12.38179  -0.14753  -0.04296
 -11.81317  -0.73112   1.06436
 -11.49893  -1.16507   2.12679
 -11.21462  -1.49427   3.12936
 -11.00512  -2.04793   4.05711
 -10.88541  -2.48188   4.96990
 -10.81059  -2.87094   6.04729
 -10.81059  -3.17021   7.01994
 -10.82556  -3.57423   8.02251
 -10.82556  -3.55927   9.04004
 -10.73577  -3.52934   9.95283
 -10.57117  -3.39467  10.67109
 -10.21204  -2.99065  11.16490
  -9.68831  -2.52677  11.32950
  -8.94012  -2.16764  11.20979
  -8.14704  -1.83844  10.62620
  -7.18936  -1.43441   9.80320
  -6.11197  -1.13514   8.59113
  -4.81013  -0.89572   7.21447
  -3.49331  -0.55155   5.67320
  -1.99694  -0.04278   4.16186
  -0.54545   0.52584   2.54577
   0.84618   0.89993   0.89976
   2.08817   1.16928  -0.67144
   3.03088   1.31892  -2.22767
   3.71922   1.22914  -3.54448
   4.00353   1.07950  -4.59194
   3.71922   0.87001  -5.60948
   3.03088   0.66051  -6.40256
   2.02831   0.49591  -7.16571
   0.86114   0.34627  -7.95879
  -0.42574   0.25649  -8.66208
  -1.66774   0.36124  -9.42524
  -2.73016   0.42109 -10.29313
  -3.65792   0.76526 -11.14607
  -4.34625   0.98972 -11.84936
  -4.60063   1.43863 -12.61252
  -4.70538   1.97732 -13.45049
  -4.49589   2.56091 -14.27349
  -4.03201   2.96493 -15.09650
  -3.52324   3.30910 -15.93447
  -2.95462   3.65326 -16.75748
  -2.07176   3.89268 -17.47574
  -1.26371   4.08721 -18.23889
  -0.41078   4.22189 -18.73269
   0.53194   4.07225 -19.01701
   1.29509   3.78794 -19.25643
   1.99839   3.32406 -19.22650
   2.68672   2.97990 -19.10679
   3.24038   2.36638 -18.61298
   3.67433   1.88754 -18.04436
   4.09331   1.40870 -17.25128
   4.19806   1.15432 -16.51806
   3.95864   0.85504 -15.53045
   3.68929   0.70540 -14.49795
   3.10570   0.55577 -13.55523
   2.32759   0.31635 -12.53770
   1.41480   0.36124 -11.60994
   0.35237   0.40613 -10.87672
  -0.76991   0.46598 -10.14350
  -1.72759   0.48095  -9.15589
  -2.79002   0.55577  -8.15332
  -3.73274   0.55577  -7.09089
  -4.61560   0.45102  -5.96861
  -5.06451   0.24153  -4.72661
  -5.33386  -0.10264  -3.34995
  -5.12436  -0.40191  -2.07803
  -4.51085  -0.64133  -0.80611
  -3.65792  -0.85083   0.55559
  -2.67031  -1.10521   1.48335
  -1.39839  -1.15010   2.36621
  -0.12647  -1.19499   3.03958
   1.19034  -1.28478   3.57827
   2.50715  -1.29974   4.04215
   3.86886  -1.38952   4.47610
   5.15574  -1.43441   4.95494
   6.56233  -1.56909   5.46371
   8.07367  -1.61398   6.04729
   9.89925  -1.58405   6.72066
  11.88943  -1.47931   7.25936
  13.93947  -1.31470   7.63345
  16.24389  -1.04536   7.96265
  18.41363  -0.56652   8.09733
  20.79287  -0.08768   8.27689
  22.99254   0.48095   8.50135
  25.13236   1.09446   8.77070
  27.09261   1.55834   9.14479
  28.93315   1.90250   9.39917
  30.44449   2.05214   9.75831
  31.83612   2.20178  10.01269
  32.98833   2.24667  10.16233
  33.90112   2.33645  10.32693
  34.75406   2.38134  10.64117
  35.27779   2.35142  10.89555
  35.63692   2.32149  11.25468
  35.78656   2.12696  11.71856
  35.78656   1.76783  12.10762
  35.65188   1.36381  12.51164
  35.47232   0.95979  12.94559
  35.38253   0.73533  13.18501
  35.41246   0.81015  13.51421
  35.65188   0.81015  13.75363
  35.87634   0.85504  13.90327
  35.98108   1.07950  14.11276
  35.80152   1.10943  14.24743
  35.59203   1.07950  14.30729
  35.18801   1.06453  14.33722
  34.72413   0.98972  14.23247
  34.26025   1.00468  14.24743
  33.54199   0.91490  14.14269
  32.52446   0.79519  14.15765
  31.22261   0.69044  14.14269
  29.69631   0.60066  13.73867
  28.17000   0.45102  13.37954
  26.65866   0.22656  12.90069
  25.22214  -0.04278  12.40689
  23.54620  -0.37199  12.04776
  21.73559  -0.43184  11.83827
  19.82022  -0.64133  11.73352
  18.17421  -0.91068  11.64374
  15.92965  -0.97054  11.35943
  13.64019  -0.67126  10.92548
  11.69490  -0.31213  10.55138
   9.91421   0.12182  10.46160
   8.25324   0.95979  10.61124
   6.54737   1.82769  10.71599
   4.84150   2.75544  10.59628
   3.36009   3.47370  10.58131
   2.02831   4.17700  10.23715
   1.02574   4.77555   9.81816
   0.29252   5.28431   9.33932
  -0.02172   5.52373   9.02508
  -0.35093   5.65841   8.72581
  -0.48560   5.49381   8.56120
  -0.20129   5.14964   8.36668
   0.20273   4.70073   7.91776
   0.92099   4.43138   7.19950
   2.05824   4.32663   6.36153
   3.34512   4.11714   5.20932
   4.66193   3.84779   3.99726
   6.12838   3.45874   2.77023
   7.44519   2.89011   1.33371
   8.50762   2.32149  -0.17763
   9.43537   1.58827  -1.53933
  10.10874   0.70540  -2.79629
  10.57262  -0.23731  -3.63426
  10.84197  -1.00047  -4.14303
  10.88686  -1.86836  -4.39741
  10.96168  -2.49684  -4.36748
  11.06642  -2.97568  -4.18792
  11.20110  -3.27496  -4.00835
  11.35074  -3.49941  -3.96346
  11.36570  -3.72387  -4.18792
  11.50037  -3.91840  -4.60690
  11.76972  -3.87351  -5.39998
  12.02410  -3.63409  -6.46241
  12.24856  -3.20014  -7.59966
  12.41316  -2.69137  -8.88654
  12.59273  -2.28735 -10.24824
  12.86208  -1.80851 -11.65484
  13.10150  -1.32967 -13.09136
  13.22121  -0.98550 -14.34831
  13.32595  -0.70119 -15.41074
  13.40077  -0.28220 -16.20382
  13.40077   0.04700 -16.57791
  13.28106   0.21160 -16.72755
  12.99675   0.46598 -16.59288
  12.45805   0.55577 -16.20382
  11.78468   0.55577 -15.73994
  10.97664   0.58569 -15.02168
  10.03392   0.57073 -14.27349
   8.86675   0.37620 -13.58516
   7.74447   0.31635 -12.71726
   6.48751   0.22656 -11.92418
   5.12581  -0.01286 -11.05629
   3.77907  -0.07271 -10.21831
   2.20788  -0.08768  -9.52998
   0.42719   0.01707  -9.09603
  -1.62284   0.09189  -8.96136
  -3.49331   0.22656  -8.61719
  -5.13933   0.31635  -8.25806
  -6.87512   0.36124  -7.89893
  -8.52114   0.48095  -7.59966
 -10.15219   0.52584  -7.43506
 -11.85806   0.64555  -7.49491
 -13.29458   0.66051  -7.50987
 -14.65628   0.76526  -7.82411
 -15.58403   0.81015  -8.16828
 -16.27237   0.69044  -8.51245
 -16.63150   0.31635  -8.93143
 -16.55668  -0.05775  -9.32049
 -16.10776  -0.47673  -9.61976
 -15.47929  -0.95557  -9.81429
 -14.61139  -1.32967  -9.90408
 -13.39932  -1.65887  -9.60480
 -12.15733  -1.97311  -9.14092
 -10.67592  -2.28735  -8.45259
  -9.22444  -2.51180  -7.67448
  -7.75799  -2.69137  -6.67190
  -6.57585  -3.00561  -5.72919
  -5.57328  -3.17021  -4.62187
  -4.78020  -3.52934  -3.49959
  -4.12179  -3.75380  -2.31745
  -3.59806  -4.12789  -1.25502
  -3.25389  -4.35235  -0.20756
  -2.96958  -4.44213   0.66034
  -2.73016  -4.50198   1.58809
  -2.71520  -4.54688   2.53081
  -2.81995  -4.60673   3.41367
  -2.92469  -4.62170   4.43121
  -3.14915  -4.60673   5.58342
  -3.37360  -4.53191   6.63088
  -3.52324  -4.42717   7.84294
  -3.53821  -4.09796   8.98019
  -3.43346  -3.90343  10.08751
  -3.07433  -3.39467  11.29957
  -2.46082  -2.85597  12.34704
  -1.78745  -2.19757  13.02040
  -1.05422  -1.58405  13.57406
  -0.26114  -1.04536  14.08283
   0.32244  -0.49170  14.17261
   0.92099  -0.17746  14.20254
   1.50458   0.25649  14.03794
   1.99839   0.64555  13.72370
   2.37248   1.13935  13.34961
   2.56701   1.57330  12.97551
   2.86628   2.18682  12.52660
   2.95607   2.83026  12.01783
   3.03088   3.54852  11.49410
   3.15059   4.35656  11.00030
   3.28527   5.19453  10.38678
   3.39001   5.86790   9.77327
   3.34512   6.42156   9.11486
   3.24038   7.05004   8.33675
   2.92614   7.52888   7.61849
   2.37248   8.03765   7.12468
   1.47465   8.48656   6.66081
   0.33741   8.90554   6.28671
  -0.94948   9.27964   5.94255
  -2.34111   9.54899   5.71809
  -3.74770   9.74351   5.53852
  -5.15429   9.93804   5.38889
  -6.68060   9.99790   5.22429
  -8.19194  10.11761   5.02976
  -9.61349  10.34207   4.83523
 -11.05001  10.43185   4.74545
 -12.33690  10.43185   4.49106
 -13.71356  10.26725   4.13193
 -15.00045   9.93804   3.71295
 -16.07784   9.59388   3.09943
 -17.51436   8.96540   2.38117
 -18.86110   8.36685   1.36364
