********************************************************************************
               CENTRO DE INSTRUMENTACION Y REGISTRO SISMICO  A.C.  
                       Coordinacion de Servicios Tecnicos
     Anaxagoras 814, Col. Narvarte, Benito Juarez, C.P. 03020 Mexico, D.F.
            Tels. 687 45 42/ 687 45  82             Fax. 669 25 12
********************************************************************************
ARCHIVO ESTANDAR DE ACELERACION:
VERSION DEL FORMATO                    : 2.0
NOMBRE DEL ARCHIVO                     : AR149802.031
FECHA Y HORA DE CREACION               : 18/ENERO/2000
REF. CATALOGO ACELEROGRAMAS, SMIS 1996 : REGISTRO No.     /PAG.


================================================================================
DATOS DE LA ESTACION:
NOMBRE DE LA ESTACION                  : ARAGON
CLAVE DE LA ESTACION                   : AR14
LOCALIZACION DE LA ESTACION            : Esc Prim Jose Ordaz Lopez Puebla 2 y
                                       : Baja California, Col Providencia
                                       : Gustavo A. Madero
                                       :
                                       :
COORDENADAS DE LA ESTACION             : 19.481 LAT. N 
                                       : 99.076 LONG. W 
ALTITUD (msnm)                         : 2232
TIPO DE SUELO                          : ARCILLOSO, ZONA LAGO
                                       : 
                                       : 
INSTITUCION RESPONSABLE                : CIRES
                                       :

================================================================================
DATOS DEL ACELEROGRAFO:
MODELO DEL ACELEROGRAFO                : RAD-851
NUMERO DE SERIE DEL ACELEROGRAFO       : 235
NUMERO DE CANALES                      : 3
ORIENTACION C1-C6 (rumbo;orientacion)  : /N00E/+V/N90W
ORIENTACION C7-C12 (rumbo;orientacion) :
VEL. DE MUESTREO, C1-C6 (muestras/s)   : /100/100/100
VEL. DE MUESTREO, C7-C12 (muestras/s)  :
ESC. COMPLETA DE SENSORES, C1-C6, (g)  : /0.5/0.5/0.5
ESC. COMPLETA DE SENSORES, C7-C12, (g) :
FREC. NAT. DE SENSORES, C1-C6, (Hz)    : /30/30/32
FREC. NAT. DE SENSORES, C7-C12, (Hz)   :
AMORTIGUAMIENTO DE SENSORES, C1-C6     : /0.733/0.790/0.750
AMORTIGUAMIENTO DE SENSORES, C7-C12    :
INTERVALO DE MUESTREO, C1-C6, (s)      : /0.01/0.01/0.01
INTERVALO DE MUESTREO, C7-C12, (s)     :
UMBRAL DE DISPARO, C1-C6, (Gal)        : /2.44/3.42/2.44
UMBRAL DE DISPARO, C7-C12, (Gal)       :
MEMORIA DE PREEVENTO (s)               : 16
TIEMPO DE POSEVENTO (s)                : 64


================================================================================
DATOS DEL SISMO:
FECHA DEL SISMO (GMT)                  : 03/FEB/98
HORA EPICENTRO (GMT)                   : 03:02:01.1
MAGNITUD(ES)                           : /Mb=6.0,Ms=6.2,Mc=6.4,Ma=6.4
COORDENADAS DEL EPICENTRO              : 15.69 LAT. N
                                       : 96.37 LONG. W
PROFUNDIDAD FOCAL (km)                 : 33.0
FUENTE DE LOS DATOS EPICENTRALES       : SSN
                                       : INSTITUTO DE GEOFISICA, UNAM

================================================================================
DATOS DE ESTE REGISTRO:
HORA DE LA PRIMERA MUESTRA (GMT)       : 03:04:26.00
EXACTITUD DEL TIEMPO (s)               : 0.01
DURACION DEL REGISTRO (s), C1-C6       : /123.75/123.75/123.75
DURACION DEL REGISTRO (s), C7-C12      :
NUM. TOTAL DE MUESTRAS, C1-C6          : /12375/12375/12375
NUM. TOTAL DE MUESTRAS, C7-C12         :
ACEL. MAX. (Gal), C1-C6                : /3.51893/1.80972/3.83444
ACEL. MAX., C1-C6, EN LA MUESTRA       :
ACEL. MAX. (Gal), C7-C12               :
ACEL. MAX., C7-C12, EN LA MUESTRA      :
UNIDADES DE LOS DATOS                  : Gal (cm/s/s)
FACTOR DE DECIMACION                   : 1
FORMATO DATOS (FORTRAN,10 campos/dato) : 3F10.5


================================================================================
CALIDAD DEL ACELEROGRAMA:
REGISTRO DIGITAL COMPLETO CON TIEMPO ABSOLUTO CORRECTO.


================================================================================
COMENTARIOS:














================================================================================
DATOS DE ACELERACION:
---------+---------+---------+---------+---------+---------+---------+---------+
   CANAL-1   CANAL-2   CANAL-3   CANAL-4   CANAL-5   CANAL-6   CANAL-7   CANAL-8
      N00E        +V      N90W
---------+---------+---------+---------+---------+---------+---------+---------+
[...]
  -2.70597   0.13378  -0.24315
  -2.94539   0.37320  -0.24315
  -2.94539   0.37320  -0.24315
  -2.94539   0.61262  -0.24315
  -2.94539   0.37320  -0.48257
  -2.94539   0.37320  -0.48257
  -2.70597   0.37320  -0.48257
  -2.94539   0.37320  -0.48257
  -2.94539   0.13378  -0.48257
  -2.94539   0.37320  -0.48257
  -2.94539   0.13378  -0.48257
  -2.94539   0.13378  -0.72199
  -2.70597   0.37320  -0.72199
  -2.46655   0.13378  -0.72199
  -2.46655   0.13378  -0.72199
  -2.22713  -0.10563  -0.72199
  -2.22713  -0.10563  -0.48257
  -1.98771   0.13378  -0.24315
  -1.98771   0.13378  -0.48257
  -1.98771   0.13378  -0.24315
  -1.74829   0.13378  -0.48257
  -1.26945   0.13378  -0.48257
  -1.26945  -0.10563  -0.48257
  -1.03003  -0.10563  -0.24315
  -0.79061  -0.10563  -0.00373
  -0.79061  -0.10563  -0.24315
  -0.55120  -0.10563  -0.24315
  -0.31178  -0.10563  -0.24315
  -0.31178   0.13378  -0.24315
   0.16706   0.13378  -0.24315
   0.16706   0.13378  -0.48257
   0.40648  -0.10563  -0.24315
   0.40648  -0.10563  -0.24315
   0.64590  -0.10563  -0.24315
   0.40648  -0.10563  -0.24315
   0.64590  -0.10563  -0.24315
   0.88532   0.13378  -0.24315
   0.88532   0.13378  -0.48257
   1.12474   0.13378  -0.72199
   1.12474   0.13378  -0.48257
   1.12474   0.13378  -0.72199
   1.12474   0.13378  -0.72199
   1.12474   0.13378  -0.72199
   1.36416   0.37320  -0.72199
   1.12474   0.37320  -0.96141
   1.12474   0.13378  -1.20083
   1.12474   0.37320  -1.44025
   1.36416   0.13378  -1.44025
   1.12474   0.13378  -1.44025
   1.12474   0.13378  -1.44025
   1.12474   0.13378  -1.44025
   0.88532   0.13378  -1.67967
   0.88532   0.13378  -1.67967
   0.64590   0.13378  -1.67967
   0.88532   0.13378  -1.91909
   0.64590   0.13378  -1.91909
   0.64590  -0.10563  -1.91909
   0.64590  -0.10563  -1.91909
   0.64590  -0.10563  -1.67967
   0.16706  -0.34505  -1.67967
  -0.07236  -0.10563  -1.67967
  -0.07236  -0.10563  -1.44025
  -0.31178  -0.10563  -1.44025
  -0.31178  -0.10563  -1.44025
  -0.55120  -0.34505  -1.44025
  -0.07236  -0.10563  -0.96141
  -0.55120  -0.34505  -0.96141
  -0.79061  -0.34505  -0.72199
  -0.79061  -0.10563  -0.48257
  -0.79061   0.13378  -0.24315
  -1.03003  -0.10563  -0.24315
  -1.03003   0.13378  -0.00373
  -1.03003  -0.10563  -0.00373
  -0.79061  -0.10563   0.23568
  -0.79061  -0.10563   0.47510
  -1.03003  -0.10563   0.71452
  -1.03003  -0.10563   0.95394
  -1.03003   0.13378   0.95394
  -1.03003  -0.10563   0.95394
  -1.03003   0.13378   1.19336
  -0.79061   0.13378   1.19336
  -0.55120   0.13378   1.43278
  -0.31178  -0.34505   1.43278
  -0.55120  -0.10563   1.67220
  -0.31178  -0.10563   1.91162
  -0.31178   0.13378   1.91162
  -0.31178   0.13378   1.91162
  -0.31178   0.37320   1.91162
  -0.07236   0.37320   1.91162
   0.16706   0.37320   1.91162
   0.16706   0.13378   1.91162
   0.16706   0.13378   1.91162
   0.16706   0.13378   1.91162
   0.16706   0.37320   2.15104
   0.16706   0.13378   1.91162
   0.16706   0.13378   1.67220
   0.40648   0.37320   1.43278
   0.64590   0.37320   1.43278
   0.64590   0.13378   1.19336
   0.64590   0.13378   1.19336
   0.64590  -0.10563   1.19336
   0.64590  -0.10563   1.19336
   0.64590   0.13378   0.95394
   0.64590  -0.10563   0.71452
   0.64590  -0.10563   0.47510
   0.88532  -0.10563   0.23568
   0.88532  -0.34505  -0.00373
   0.88532  -0.34505  -0.24315
   1.12474  -0.34505  -0.24315
   1.12474  -0.58447  -0.24315
   1.12474  -0.34505  -0.48257
   1.36416  -0.34505  -0.72199
   1.36416  -0.10563  -0.24315
   1.36416  -0.10563  -0.72199
   1.60357  -0.34505  -0.96141
   1.84299  -0.10563  -0.96141
   1.84299  -0.10563  -1.20083
   2.08241  -0.34505  -1.20083
   2.08241  -0.10563  -1.20083
   2.08241   0.13378  -1.20083
   2.32183   0.13378  -1.20083
   2.32183   0.13378  -1.44025
   2.56125   0.37320  -1.44025
   2.56125   0.13378  -1.44025
   2.80067   0.13378  -1.44025
   3.04009   0.13378  -1.20083
   2.80067   0.13378  -1.20083
   3.04009   0.37320  -0.96141
   3.04009   0.37320  -0.96141
   3.04009   0.61262  -0.96141
   3.27951   0.61262  -0.96141
   3.27951   0.61262  -0.96141
   3.51893   0.37320  -0.96141
   3.51893   0.13378  -0.96141
   3.51893   0.37320  -0.48257
   3.51893   0.37320  -0.48257
   3.51893   0.37320  -0.48257
   3.27951   0.37320  -0.24315
   3.51893   0.61262  -0.24315
   3.51893   0.37320  -0.24315
   3.27951   0.13378  -0.00373
   3.51893   0.13378  -0.00373
   3.51893   0.13378   0.23568
   3.04009  -0.10563   0.47510
   3.04009  -0.10563   0.71452
   2.80067  -0.10563   0.71452
   2.80067   0.13378   0.95394
   2.56125  -0.10563   0.95394
   2.56125  -0.34505   0.95394
   2.56125  -0.34505   1.19336
   2.32183  -0.58447   1.19336
   2.08241  -0.58447   1.43278
   1.60357  -0.58447   1.43278
   1.60357  -0.34505   1.67220
   1.36416  -0.34505   1.67220
   1.36416  -0.58447   1.43278
   1.12474  -0.58447   1.43278
   1.12474  -0.58447   1.43278
   0.88532  -0.58447   1.43278
   0.88532  -0.58447   1.43278
   0.40648  -0.58447   1.43278
   0.16706  -0.58447   1.67220
  -0.07236  -0.34505   1.67220
  -0.31178  -0.10563   1.43278
  -0.31178  -0.34505   1.43278
  -0.07236  -0.34505   1.19336
  -0.55120  -0.34505   1.19336
  -0.55120  -0.58447   1.19336
  -0.79061  -0.58447   1.19336
  -0.79061  -0.58447   1.19336
  -1.03003  -0.34505   1.19336
  -1.26945  -0.34505   0.95394
  -1.26945  -0.34505   0.95394
  -1.26945  -0.10563   0.71452
  -1.03003  -0.58447   0.95394
  -1.26945  -0.58447   0.71452
  -1.03003  -0.58447   0.95394
  -1.03003  -0.34505   0.95394
  -1.03003  -0.34505   0.95394
  -1.03003  -0.34505   0.95394
  -1.03003  -0.34505   0.71452
  -0.79061  -0.10563   0.71452
  -0.55120  -0.10563   0.71452
  -0.55120  -0.10563   0.71452
  -0.55120  -0.34505   0.47510
  -0.31178  -0.58447   0.95394
  -0.55120  -0.10563   0.95394
  -0.55120  -0.34505   0.71452
  -0.55120  -0.10563   0.71452
  -0.55120   0.13378   0.71452
  -0.55120   0.13378   0.71452
  -0.55120  -0.10563   0.71452
  -0.55120  -0.10563   0.71452
  -0.55120   0.13378   0.71452
  -0.55120   0.13378   0.71452
  -0.79061   0.13378   0.71452
  -0.79061   0.37320   0.71452
  -0.79061   0.37320   0.47510
  -0.55120   0.37320   0.47510
  -0.79061   0.13378   0.23568
  -0.55120   0.37320   0.47510
  -0.55120   0.37320   0.47510
  -0.79061   0.13378   0.23568
  -0.79061   0.37320   0.23568
  -0.55120   0.37320  -0.00373
  -0.79061   0.61262  -0.00373
  -0.79061   0.61262  -0.24315
  -0.55120   0.61262  -0.48257
  -0.55120   0.37320  -0.48257
  -0.31178   0.61262  -0.48257
  -0.31178   0.37320  -0.48257
  -0.31178   0.61262  -0.48257
  -0.55120   0.85204  -0.72199
  -0.55120   0.85204  -0.72199
  -0.55120   0.85204  -0.96141
  -0.31178   0.85204  -0.96141
  -0.07236   0.85204  -0.96141
  -0.07236   0.61262  -0.96141
  -0.31178   0.61262  -0.96141
  -0.07236   0.61262  -0.72199
  -0.07236   0.85204  -0.72199
  -0.31178   0.85204  -0.96141
  -0.07236   0.85204  -0.72199
  -0.07236   0.85204  -0.96141
   0.16706   0.85204  -0.72199
  -0.07236   0.61262  -0.96141
  -0.07236   0.61262  -0.72199
  -0.07236   0.61262  -0.72199
  -0.07236   0.61262  -0.48257
  -0.31178   0.61262  -0.48257
  -0.31178   0.61262  -0.48257
  -0.31178   0.61262  -0.24315
  -0.31178   0.61262  -0.48257
  -0.31178   0.37320  -0.48257
  -0.31178   0.13378  -0.24315
  -0.31178   0.13378  -0.00373
  -0.55120   0.13378  -0.00373
  -0.79061   0.13378   0.23568
  -0.79061   0.13378   0.47510
  -0.55120   0.13378   0.71452
  -0.55120   0.13378   0.71452
  -0.79061  -0.10563   0.71452
  -0.79061  -0.10563   0.95394
  -0.79061  -0.34505   1.19336
  -0.55120  -0.34505   1.43278
  -0.79061  -0.34505   1.43278
  -0.79061  -0.10563   1.67220
  -0.79061  -0.10563   1.67220
  -0.79061  -0.10563   1.67220
  -0.79061  -0.34505   1.91162
  -0.55120  -0.34505   1.91162
  -0.55120  -0.58447   1.91162
  -0.79061  -0.58447   2.15104
  -0.79061  -0.58447   2.15104
  -1.03003  -0.58447   2.15104
  -1.03003  -0.58447   2.15104
  -1.03003  -0.58447   2.15104
  -0.55120  -0.58447   1.67220
  -1.03003  -0.58447   1.91162
  -0.79061  -0.82389   1.91162
  -0.79061  -0.82389   1.91162
  -0.79061  -0.82389   1.67220
  -1.03003  -0.82389   1.67220
  -1.03003  -0.82389   1.67220
  -0.79061  -0.82389   1.43278
  -0.79061  -0.82389   1.43278
  -0.55120  -0.82389   1.19336
  -0.55120  -0.82389   1.19336
  -0.55120  -0.82389   0.95394
  -0.55120  -0.82389   0.95394
  -0.31178  -0.82389   0.95394
  -0.31178  -0.58447   0.95394
  -0.31178  -0.58447   0.71452
  -0.31178  -0.34505   0.47510
  -0.31178  -0.34505   0.23568
  -0.07236  -0.10563   0.23568
  -0.07236  -0.34505   0.23568
  -0.07236  -0.34505  -0.00373
  -0.07236  -0.10563  -0.00373
  -0.31178  -0.10563  -0.00373
  -0.31178   0.13378  -0.24315
  -0.07236   0.13378  -0.24315
   0.16706   0.61262  -0.48257
  -0.07236   0.37320  -0.48257
   0.16706   0.37320  -0.48257
   0.16706   0.37320  -0.72199
   0.16706   0.61262  -0.48257
  -0.07236   0.61262  -0.48257
  -0.31178   0.61262  -0.48257
  -0.07236   0.61262  -0.48257
  -0.07236   0.85204  -0.72199
  -0.31178   0.61262  -0.48257
  -0.07236   0.37320  -0.72199
  -0.07236   0.13378  -0.48257
  -0.07236   0.37320  -0.48257
  -0.31178   0.37320  -0.24315
  -0.55120   0.37320  -0.24315
  -0.55120   0.37320  -0.24315
  -0.31178   0.37320  -0.24315
  -0.31178   0.37320  -0.00373
  -0.31178   0.37320  -0.24315
  -0.55120   0.37320  -0.00373
  -0.31178   0.13378   0.23568
  -0.31178   0.13378   0.23568
  -0.55120   0.13378   0.23568
  -0.55120   0.13378   0.71452
  -0.55120   0.37320   0.71452
  -0.31178   0.13378   0.47510
  -0.07236   0.37320   0.47510
   0.16706   0.37320   0.71452
   0.16706   0.37320   0.95394
   0.16706   0.13378   1.19336
  -0.07236   0.13378   1.19336
   0.16706   0.37320   1.19336
   0.16706   0.37320   1.19336
   0.16706   0.61262   1.19336
   0.16706   0.37320   0.95394
   0.40648   0.37320   0.95394
   0.40648   0.37320   0.95394
   0.16706   0.13378   0.95394
   0.16706   0.13378   0.95394
   0.16706   0.13378   0.95394
   0.16706   0.13378   0.71452
   0.16706   0.37320   0.71452
   0.16706   0.13378   0.47510
   0.16706   0.13378   0.23568
   0.40648   0.13378   0.23568
   0.16706  -0.10563  -0.00373
   0.16706  -0.10563  -0.00373
  -0.07236   0.13378  -0.24315
  -0.07236   0.13378  -0.24315
  -0.07236   0.13378  -0.48257
  -0.07236   0.13378  -0.72199
  -0.07236   0.13378  -1.20083
   0.16706  -0.10563  -1.44025
  -0.07236  -0.10563  -1.44025
  -0.07236  -0.10563  -1.67967
  -0.07236  -0.10563  -1.67967
  -0.31178  -0.10563  -2.15850
  -0.07236   0.13378  -2.15850
  -0.31178   0.13378  -2.39792
  -0.31178  -0.10563  -2.87676
  -0.31178  -0.10563  -2.87676
  -0.07236  -0.10563  -3.11618
  -0.31178  -0.34505  -3.35560
  -0.31178  -0.10563  -3.35560
  -0.31178  -0.34505  -3.35560
  -0.55120  -0.34505  -3.35560
  -0.55120  -0.34505  -3.59502
  -0.79061  -0.10563  -3.83444
  -0.79061  -0.10563  -3.83444
  -0.79061  -0.34505  -3.83444
  -0.79061  -0.34505  -3.83444
  -0.79061  -0.58447  -3.83444
  -1.03003  -0.58447  -3.83444
  -1.50887  -0.34505  -3.59502
  -1.50887  -0.34505  -3.59502
  -1.50887  -0.34505  -3.59502
  -1.50887  -0.58447  -3.59502
  -1.74829  -0.58447  -3.59502
  -1.74829  -0.58447  -3.11618
  -1.74829  -0.58447  -3.11618
  -1.74829  -0.82389  -2.87676
  -1.98771  -0.58447  -2.63734
  -1.98771  -0.58447  -2.39792
  -2.22713  -0.58447  -2.15850
  -2.22713  -0.58447  -2.15850
  -1.98771  -0.58447  -1.91909
  -1.98771  -0.58447  -1.91909
  -2.22713  -0.82389  -1.67967
  -1.98771  -0.82389  -1.44025
  -1.98771  -0.82389  -0.96141
  -2.22713  -0.82389  -0.96141
  -1.98771  -0.58447  -0.72199
  -1.98771  -0.34505  -0.48257
  -1.98771  -0.58447  -0.24315
  -1.74829  -0.58447  -0.00373
  -1.98771  -0.82389  -0.24315
  -1.74829  -0.82389  -0.00373
  -1.74829  -0.82389   0.47510
  -1.74829  -0.82389   0.47510
  -1.74829  -0.58447   0.71452
  -1.98771  -0.58447   0.71452
  -1.74829  -0.34505   0.71452
  -1.50887  -0.58447   0.71452
  -1.50887  -0.58447   0.71452
  -1.26945  -0.34505   0.95394
  -1.26945  -0.34505   0.95394
  -1.26945  -0.34505   0.95394
  -1.26945  -0.10563   0.95394
  -1.26945   0.13378   0.95394
  -1.03003   0.13378   0.95394
  -0.79061   0.13378   0.71452
  -1.03003   0.13378   0.71452
  -0.79061   0.37320   0.71452
  -0.55120   0.37320   0.47510
  -0.55120   0.37320   0.71452
  -0.79061   0.61262   0.47510
  -0.55120   0.85204   0.47510
  -0.55120   0.85204   0.47510
  -0.55120   0.85204   0.23568
  -0.31178   0.85204  -0.00373
  -0.07236   1.09146  -0.00373
  -0.07236   1.33088   0.23568
   0.16706   0.85204  -0.00373
   0.16706   1.09146  -0.00373
  -0.07236   1.33088  -0.00373
   0.16706   1.57030  -0.00373
   0.16706   1.57030  -0.00373
   0.40648   1.57030  -0.24315
   0.40648   1.57030  -0.24315
   0.64590   1.33088  -0.24315
   0.64590   1.33088  -0.48257
   0.40648   1.33088  -0.24315
   0.64590   1.33088  -0.00373
   0.64590   1.57030  -0.00373
   0.88532   1.33088  -0.24315
   0.88532   1.57030  -0.24315
   1.12474   1.33088  -0.24315
   1.36416   1.09146  -0.00373
   1.36416   1.09146  -0.00373
   1.36416   0.85204   0.23568
   1.36416   0.85204   0.23568
   1.36416   0.85204   0.47510
   1.60357   0.61262   0.47510
   1.60357   0.61262   0.47510
   1.84299   0.61262   0.47510
   1.60357   0.13378   0.47510
   2.08241  -0.10563   0.47510
   2.32183  -0.10563   0.71452
   2.32183  -0.34505   0.71452
   2.08241  -0.34505   0.71452
   2.08241  -0.34505   0.71452
   2.32183  -0.34505   0.71452
   2.32183  -0.58447   0.47510
   2.56125  -0.82389   0.47510
   2.56125  -0.82389   0.47510
   2.56125  -1.06331   0.47510
   2.56125  -1.06331   0.47510
   2.32183  -1.06331   0.23568
   2.56125  -0.82389   0.23568
   2.32183  -0.82389   0.23568
   2.56125  -1.06331  -0.24315
   2.32183  -1.06331  -0.24315
   2.56125  -1.06331  -0.48257
   2.56125  -1.06331  -0.48257
   2.32183  -1.54215  -0.48257
   2.32183  -1.30273  -0.48257
   2.32183  -1.30273  -0.48257
   2.08241  -1.30273  -0.72199
   1.84299  -1.06331  -0.72199
   2.08241  -1.30273  -0.96141
   1.84299  -1.30273  -0.96141
   2.08241  -1.30273  -0.96141
   1.60357  -1.30273  -0.96141
   1.60357  -1.30273  -0.72199
   1.36416  -1.30273  -0.96141
   1.12474  -1.06331  -0.96141
   0.88532  -1.06331  -0.96141
   0.88532  -0.82389  -0.96141
   0.88532  -1.06331  -0.96141
   0.88532  -0.82389  -1.20083
   0.64590  -0.82389  -1.20083
   0.64590  -0.82389  -0.96141
   0.40648  -0.82389  -0.72199
   0.16706  -0.58447  -0.72199
   0.16706  -0.34505  -0.72199
  -0.07236  -0.34505  -0.72199
  -0.07236  -0.10563  -0.48257
  -0.07236  -0.34505  -0.48257
  -0.31178  -0.34505  -0.48257
  -0.31178  -0.34505  -0.24315
  -0.79061  -0.34505  -0.24315
  -0.79061  -0.34505  -0.00373
  -1.03003  -0.10563   0.23568
  -1.26945  -0.10563   0.47510
  -1.26945   0.13378   0.23568
  -1.26945  -0.10563   0.23568
  -1.26945  -0.10563   0.23568
  -1.50887  -0.34505   0.71452
  -1.50887  -0.34505   0.71452
  -1.50887  -0.10563   0.95394
  -1.50887   0.13378   1.19336
  -1.50887   0.13378   1.19336
  -1.74829   0.37320   0.95394
  -1.74829   0.37320   0.95394
  -1.50887   0.13378   1.19336
  -1.50887   0.13378   1.19336
  -1.50887   0.13378   1.19336
  -1.50887   0.37320   1.19336
  -1.50887   0.37320   1.43278
  -1.50887   0.37320   1.43278
  -1.50887   0.61262   1.43278
  -1.50887   0.61262   1.19336
  -1.26945   0.61262   1.19336
  -1.26945   0.61262   1.19336
  -1.03003   0.61262   0.95394
  -1.03003   0.61262   0.95394
  -1.03003   0.61262   1.19336
