********************************************************************************
              CENTRO DE INSTRUMENTACION Y REGISTRO SISMICO  A.C.

    Anaxagoras 814, Col. Narvarte, Benito Juarez, C.P. 03020 Mexico, D.F.
           Tels. 5687 45 42/ 5687 45  82             Fax. 5669 25 12
********************************************************************************
ARCHIVO ESTANDAR DE ACELERACION:
VERSION DEL FORMATO                    : 2.0
NOMBRE DEL ARCHIVO                     : AR1420180219065657
FECHA Y HORA DE CREACION               : 07/MAR/18, 13:39
REF. CATALOGO ACELEROGRAMAS, SMIS 1996 : REGISTRO No.     /PAG.


================================================================================
DATOS DE LA ESTACION:
NOMBRE DE LA ESTACION                  : ESC. PRIM. "JOSÉ ORDAZ LÓPEZ"
CLAVE DE LA ESTACION                   : AR14
LOCALIZACION DE LA ESTACION            : Del. Gustavo A. Madero,                
                                       : Col. Ampliación la Providencia,        
                                       : Calle Puebla esq. con calle            
                                       : Volcán Tacan.                          
                                       : 
COORDENADAS DE LA ESTACION             : 19.4808 LAT. N
                                       : 99.0760 LONG. W
ALTITUD (msnm)                         : 2232
TIPO DE SUELO                          : Arcilloso, zona lago                
                                       :                           
                                       : 
INSTITUCION RESPONSABLE                : CIRES
                                       : 

================================================================================
DATOS DEL ACELEROGRAFO:
MODELO DEL ACELEROGRAFO                : RADESD
NUMERO DE SERIE DEL ACELEROGRAFO       : 215
NUMERO DE CANALES                      : 3
ORIENTACION C1-C6 (rumbo;orientacion)  : /N00E/+V/N90W
ORIENTACION C7-C12 (rumbo;orientacion) : 
VEL. DE MUESTREO, C1-C6 (muestras/s)   : /100/100/100
VEL. DE MUESTREO, C7-C12 (muestras/s)  : 
ESC. COMPLETA DE SENSORES, C1-C6, (g)  : /0.5/0.5/0.5
ESC. COMPLETA DE SENSORES, C7-C12, (g) : 
FREC. NAT. DE SENSORES, C1-C6, (Hz)    : /30/30/32
FREC. NAT. DE SENSORES, C7-C12, (Hz)   : 
AMORTIGUAMIENTO DE SENSORES, C1-C6     : /0.733/0.790/0.750
AMORTIGUAMIENTO DE SENSORES, C7-C12    : 
INTERVALO DE MUESTREO, C1-C6, (s)      : /0.01/0.01/0.01
INTERVALO DE MUESTREO, C7-C12, (s)     : 
UMBRAL DE DISPARO, C1-C6, (Gal)        : /2.01/4.5/2.01
UMBRAL DE DISPARO, C7-C12, (Gal)       : 
MEMORIA DE PREEVENTO (s)               : 44.0
TIEMPO DE POSEVENTO (s)                : 69.0


================================================================================
DATOS DEL SISMO:
FECHA DEL SISMO (GMT)                  : 19/FEB/18
HORA EPICENTRO (GMT)                   : 06:56:57.0
MAGNITUD(ES)                           : /Mc=6.0
COORDENADAS DEL EPICENTRO              : 16.25 LAT. N
                                       : 97.77 LONG. W
PROFUNDIDAD FOCAL (km)                 : 10
FUENTE DE LOS DATOS EPICENTRALES       : SSN
                                       : INSTITUTO DE GEOFISICA, UNAM

================================================================================
DATOS DE ESTE REGISTRO:
HORA DE LA PRIMERA MUESTRA (GMT)       : 06:58:04.00
EXACTITUD DEL TIEMPO (s)               : 0.01
DURACION DEL REGISTRO (s), C1-C6       : /162.6/162.6/162.6
DURACION DEL REGISTRO (s), C7-C12      : 
NUM. TOTAL DE MUESTRAS, C1-C6          : /16260/16260/16260
NUM. TOTAL DE MUESTRAS, C7-C12         : 
ACEL. MAX. (Gal), C1-C6                : /3.45461/1.85848/3.19929
ACEL. MAX., C1-C6, EN LA MUESTRA       : /5181/6292/4574
ACEL. MAX. (Gal), C7-C12               : 
ACEL. MAX., C7-C12, EN LA MUESTRA      : 
UNIDADES DE LOS DATOS                  : Gal (cm/s/s)
FACTOR DE DECIMACION                   : 1
FORMATO DATOS (FORTRAN,10 campos/dato) : 3F10.5


================================================================================
CALIDAD DEL ACELEROGRAMA:
REGISTRO DIGITAL COMPLETO CON TIEMPO ABSOLUTO CORRECTO.


================================================================================
COMENTARIOS:














================================================================================
DATOS DE ACELERACION:
---------+---------+---------+---------+---------+---------+---------+---------+
   CANAL-1   CANAL-2   CANAL-3   CANAL-4   CANAL-5   CANAL-6   CANAL-7   CANAL-8
      N00E        +V      N90W
---------+---------+---------+---------+---------+---------+---------+---------+
[...]
   0.92977   0.75117  -0.72121
   0.88488   0.75117  -0.66136
   0.85495   0.75117  -0.93070
   0.86992   0.73620  -0.88581
   0.88488   0.82598  -0.93070
   0.79510   0.81102  -0.93070
   0.72028   0.79606  -0.76610
   0.60057   0.90080  -0.79603
   0.49582   0.88584  -0.76610
   0.43597   0.93073  -0.73617
   0.22648   0.84095  -0.57157
   0.04691   0.99059  -0.64639
  -0.07280   1.02051  -0.42194
  -0.28229   1.03548  -0.33215
  -0.50675   1.08037  -0.27230
  -0.59653   1.09533  -0.21244
  -0.74617   1.23001  -0.04784
  -0.86588   1.21504  -0.06281
  -0.86588   1.25993  -0.10770
  -0.95566   1.24497  -0.04784
  -0.92573   1.08037   0.10180
  -0.94070   1.17015   0.02698
  -0.91077   0.94569   0.05690
  -0.79106   0.97562   0.02698
  -0.73121   0.73620  -0.01791
  -0.58157   0.76613  -0.19748
  -0.55164   0.58656  -0.18252
  -0.34215   0.57160  -0.24237
  -0.35711   0.40700  -0.31719
  -0.14762   0.27233  -0.28726
  -0.10273   0.13765  -0.22741
  -0.04287  -0.02695  -0.27230
  -0.05784  -0.14666  -0.33215
  -0.13265  -0.31126  -0.27230
   0.04691  -0.40104  -0.22741
   0.04691  -0.56564  -0.28726
   0.09180  -0.68535  -0.36208
   0.13669  -0.74521  -0.45186
   0.25640  -0.79010  -0.64639
   0.30129  -0.77514  -0.79603
   0.45093  -0.93974  -0.70625
   0.58561  -0.95470  -0.75114
   0.79510  -0.99959  -0.78107
   0.89984  -1.04449  -0.91574
   0.98963  -1.10434  -0.72121
   1.15423  -1.08938  -0.58654
   1.28890  -1.20909  -0.33215
   1.27394  -1.20909  -0.22741
   1.25897  -1.23901   0.01201
   1.19912  -1.34376   0.29632
   1.15423  -1.26894   0.61056
   1.12430  -1.23901   0.77517
   0.98963  -1.16420   1.01459
   0.79510  -0.96967   1.28393
   0.85495  -0.92478   1.58321
   0.70532  -0.67039   1.64306
   0.64546  -0.56564   1.83759
   0.51079  -0.34119   1.92737
   0.55568  -0.20651   1.89745
   0.57064   0.10772   1.82263
   0.72028   0.06283   1.97227
   0.79510   0.43693   1.89745
   0.81006   0.46685   2.00219
   0.83999   0.61649   1.83759
   0.83999   0.60153   1.80766
   0.92977   0.75117   1.79270
   1.03452   0.69131   1.77774
   0.94474   0.70627   1.67299
   1.03452   0.60153   1.64306
   1.04948   0.57160   1.49343
   1.10934   0.54167   1.49343
   1.09437   0.61649   1.41861
   1.00459   0.51175   1.29890
   1.03452   0.42196   1.38868
   1.00459   0.30225   1.29890
   0.86992   0.37707   1.29890
   0.86992   0.24240   1.25401
   0.72028   0.31722   0.96969
   0.58561   0.33218   0.95473
   0.45093   0.34714   0.68538
   0.36115   0.36211   0.59560
   0.16662   0.39204   0.50582
   0.12173   0.51175   0.38611
  -0.10273   0.34714   0.26640
  -0.25236   0.19751   0.19158
  -0.29726   0.13765   0.01201
  -0.26733   0.13765  -0.16755
  -0.25236   0.15262  -0.27230
  -0.25236   0.15262  -0.42194
  -0.26733  -0.08680  -0.49675
  -0.26733  -0.16162  -0.58654
  -0.13265  -0.20651  -0.66136
  -0.01294  -0.20651  -0.82596
   0.04691  -0.32622  -0.81099
   0.12173  -0.46090  -0.84092
   0.30129  -0.40104  -0.99056
   0.33122  -0.35615  -1.17012
   0.30129  -0.43097  -1.14020
   0.37611  -0.53572  -1.00552
   0.48086  -0.59557  -1.20005
   0.46590  -0.59557  -1.21502
   0.43597  -0.59557  -1.15516
   0.52575  -0.58061  -1.06538
   0.54071  -0.67039  -1.00552
   0.43597  -0.49083  -1.03545
   0.43597  -0.50579  -0.94567
   0.31626  -0.46090  -0.84092
   0.18158  -0.46090  -0.79603
   0.03195  -0.23644  -0.84092
  -0.07280  -0.25141  -0.87085
  -0.28229  -0.05688  -1.20005
  -0.38704  -0.04191  -1.15516
  -0.50675   0.04787  -1.28983
  -0.65639   0.12269  -1.48436
  -0.61150   0.40700  -1.54422
  -0.71624   0.37707  -1.66393
  -0.67135   0.40700  -1.70882
  -0.74617   0.49678  -1.88838
  -0.86588   0.34714  -1.87342
  -0.80602   0.46685  -1.96320
  -0.74617   0.39204  -1.99313
  -0.77610   0.33218  -1.94824
  -0.77610   0.27233  -1.90335
  -0.76113   0.30225  -1.87342
  -0.77610   0.28729  -1.87342
  -0.73121   0.27233  -1.79860
  -0.77610   0.27233  -1.72378
  -0.73121   0.25736  -1.48436
  -0.73121   0.48182  -1.30480
  -0.77610   0.21247  -1.08034
  -0.73121   0.33218  -0.96063
  -0.80602   0.25736  -0.75114
  -0.86588   0.22743  -0.54165
  -0.88084   0.16758  -0.31719
  -0.91077   0.15262  -0.10770
  -0.94070   0.27233  -0.01791
  -0.86588   0.22743   0.22151
  -0.94070   0.19751   0.32625
  -0.92573   0.30225   0.46093
  -0.83595   0.13765   0.73027
  -0.79106   0.12269   0.65546
  -0.77610   0.12269   0.74524
  -0.70128   0.07780   0.83502
  -0.70128  -0.01199   0.92480
  -0.56660   0.00298   0.98466
  -0.50675  -0.10177   1.08940
  -0.40200  -0.01199   1.10437
  -0.38704  -0.02695   1.07444
  -0.43193  -0.19155   1.07444
  -0.31222  -0.08680   1.11933
  -0.37207  -0.05688   1.04451
  -0.35711  -0.14666   0.89488
  -0.35711  -0.26637   0.96969
  -0.35711  -0.35615   1.04451
  -0.26733  -0.31126   0.93977
  -0.37207  -0.35615   0.77517
  -0.34215  -0.26637   0.74524
  -0.22244  -0.23644   0.82006
  -0.22244  -0.11673   0.89488
  -0.20747  -0.40104   0.92480
  -0.22244  -0.14666   1.08940
  -0.22244  -0.26637   1.10437
  -0.20747  -0.25141   1.28393
  -0.31222  -0.19155   1.43357
  -0.32718  -0.16162   1.46350
  -0.41697  -0.13170   1.59817
  -0.40200  -0.11673   1.70292
  -0.35711  -0.10177   1.86752
  -0.32718   0.18254   1.91241
  -0.34215   0.12269   2.09198
  -0.47682   0.19751   2.15183
  -0.40200   0.19751   2.12190
  -0.47682   0.28729   2.22665
  -0.43193   0.27233   2.31643
  -0.49178   0.40700   2.37629
  -0.49178   0.54167   2.61571
  -0.67135   0.34714   2.52593
  -0.67135   0.45189   2.58578
  -0.70128   0.54167   2.57082
  -0.79106   0.66138   2.54089
  -0.85092   0.63146   2.63067
  -0.98559   0.52671   2.51096
  -0.86588   0.67635   2.45111
  -0.94070   0.60153   2.40622
  -1.01552   0.63146   2.42118
  -0.98559   0.60153   2.25658
  -1.07537   0.40700   2.36132
  -0.97063   0.36211   2.27154
  -1.06041   0.36211   2.09198
  -1.15019   0.34714   2.00219
  -1.15019   0.22743   2.00219
  -1.19508   0.25736   2.01716
  -1.16515   0.22743   1.82263
  -1.21005   0.16758   2.03212
  -1.23997   0.09276   1.97227
  -1.16515   0.06283   1.86752
  -1.23997   0.00298   1.83759
  -1.23997   0.06283   1.71788
  -1.12026   0.06283   1.61314
  -0.97063   0.10772   1.55328
  -1.01552   0.00298   1.37372
  -0.88084   0.00298   1.44853
  -0.82099  -0.07184   1.17919
  -0.70128  -0.07184   1.08940
  -0.59653  -0.10177   0.92480
  -0.50675  -0.10177   0.77517
  -0.28229  -0.11673   0.62553
  -0.19251  -0.14666   0.44596
  -0.01294  -0.20651   0.34122
   0.22648  -0.23644   0.16165
   0.34619  -0.37112   0.13172
   0.48086  -0.38608  -0.06281
   0.61553  -0.46090  -0.46683
   0.76517  -0.58061  -0.51172
   0.98963  -0.53572  -0.67632
   1.06445  -0.59557  -0.78107
   1.24401  -0.73025  -0.87085
   1.24401  -0.71528  -0.85588
   1.27394  -0.87988  -0.99056
   1.24401  -0.77514  -1.02049
   1.21408  -0.89485  -0.97559
   1.12430  -0.80507  -0.94567
   0.95970  -0.68535  -1.00552
   0.83999  -0.55068  -0.93070
   0.58561  -0.65543  -0.85588
   0.34619  -0.49083  -0.72121
   0.15166  -0.40104  -0.85588
  -0.05784  -0.35615  -0.76610
  -0.10273  -0.08680  -0.79603
  -0.22244   0.00298  -0.76610
  -0.26733   0.16758  -0.72121
  -0.19251   0.37707  -0.64639
  -0.26733   0.42196  -0.73617
  -0.10273   0.54167  -1.02049
   0.00202   0.67635  -0.97559
   0.10677   0.81102  -1.12523
   0.30129   0.84095  -1.22998
   0.51079   1.02051  -1.39458
   0.81006   0.96066  -1.36465
   1.03452   1.03548  -1.51429
   1.25897   0.85591  -1.54422
   1.43854   0.91577  -1.67889
   1.58818   0.87088  -1.72378
   1.85753   0.85591  -2.03802
   2.00716   0.84095  -2.05299
   2.18673   0.61649  -2.11284
   2.18673   0.64642  -2.26248
   2.44111   0.45189  -2.32233
   2.51593   0.49678  -2.44204
   2.72542   0.30225  -2.51686
   2.81521   0.28729  -2.54679
   2.86010   0.30225  -2.60664
   2.96484   0.21247  -2.72635
   2.90499   0.21247  -2.96577
   2.93492   0.12269  -2.98074
   2.93492   0.13765  -2.90592
   2.97981   0.12269  -3.07052
   2.93492  -0.02695  -2.96577
   2.91995  -0.19155  -2.96577
   2.87506  -0.32622  -3.07052
   2.93492  -0.41601  -3.04059
   2.87506  -0.32622  -3.07052
   2.84513  -0.52075  -2.90592
   2.75535  -0.61054  -3.02563
   2.84513  -0.71528  -2.87599
   2.74039  -0.65543  -2.71139
   2.75535  -0.68535  -2.62161
   2.74039  -0.87988  -2.45701
   2.74039  -0.76017  -2.38219
   2.54586  -0.80507  -2.20262
   2.60571  -0.90981  -2.00809
   2.56082  -0.87988  -1.87342
   2.59075  -0.79010  -1.91831
   2.68053  -0.76017  -1.85846
   2.72542  -0.79010  -1.81357
   2.78528  -0.61054  -1.64896
   2.81521  -0.46090  -1.49933
   2.91995  -0.46090  -1.31976
   2.96484  -0.34119  -1.18509
   2.87506  -0.32622  -0.94567
   2.96484  -0.20651  -0.72121
   2.91995  -0.11673  -0.58654
   2.90499  -0.01199  -0.31719
   2.80024   0.00298  -0.15259
   2.57579   0.19751  -0.09273
   2.47104   0.27233   0.05690
   2.18673   0.40700   0.26640
   1.97724   0.37707   0.34122
   1.75278   0.51175   0.41603
   1.46847   0.60153   0.46093
   1.22905   0.69131   0.55071
   0.98963   0.75117   0.61056
   0.82503   0.94569   0.70035
   0.40604   0.73620   0.86495
   0.27137   0.75117   0.68538
   0.10677   0.82598   0.84998
  -0.08776   0.90080   0.79013
  -0.17755   0.82598   0.89488
  -0.32718   0.78109   0.82006
  -0.37207   0.85591   0.62553
  -0.43193   0.78109   0.55071
  -0.49178   0.61649   0.53574
  -0.56660   0.67635   0.41603
  -0.74617   0.66138   0.32625
  -0.74617   0.55664   0.20654
  -0.74617   0.58656   0.08683
  -0.83595   0.72124   0.04194
  -0.92573   0.40700   0.02698
  -1.01552   0.49678  -0.04784
  -1.21005   0.54167   0.01201
  -1.25494   0.55664  -0.13762
  -1.38961   0.52671  -0.21244
  -1.47939   0.51175  -0.16755
  -1.59910   0.58656  -0.10770
  -1.68889   0.51175  -0.19748
  -1.73378   0.36211  -0.18252
  -2.00312   0.24240  -0.12266
  -2.03305   0.18254  -0.12266
  -2.24254   0.16758  -0.12266
  -2.24254  -0.02695  -0.13762
  -2.24254  -0.16162  -0.12266
  -2.33233  -0.25141  -0.07777
  -2.43707  -0.31126  -0.03288
  -2.45204  -0.43097  -0.03288
  -2.54182  -0.49083   0.04194
  -2.49693  -0.58061  -0.12266
  -2.48197  -0.53572   0.04194
  -2.52686  -0.65543   0.11676
  -2.66153  -0.64046   0.29632
  -2.61664  -0.76017   0.43100
  -2.82613  -0.61054   0.40107
  -2.84110  -0.65543   0.50582
  -2.91591  -0.47586   0.67042
  -3.02066  -0.50579   0.83502
  -3.05059  -0.40104   0.90984
  -3.20023  -0.37112   0.87991
  -3.14037  -0.28133   1.16422
  -3.18526  -0.14666   1.31386
  -3.15533  -0.14666   1.58321
  -3.23015  -0.04191   1.59817
  -3.24512   0.04787   1.73285
  -3.20023   0.07780   1.89745
  -3.33490   0.27233   2.03212
  -3.33490   0.22743   2.18176
  -3.42468   0.37707   2.37629
  -3.39475   0.42196   2.34636
  -3.45461   0.52671   2.48103
  -3.43965   0.40700   2.52593
  -3.40972   0.60153   2.52593
  -3.43965   0.51175   2.73542
  -3.39475   0.55664   2.54089
  -3.37979   0.48182   2.60074
  -3.20023   0.57160   2.39125
  -3.11044   0.46685   2.39125
  -3.00570   0.48182   2.19672
  -2.93088   0.40700   2.01716
  -2.67649   0.31722   1.92737
  -2.57175   0.30225   1.83759
  -2.37722   0.31722   1.74781
  -2.42211   0.10772   1.56824
  -2.22758   0.18254   1.41861
  -2.07794   0.19751   1.32882
  -1.89838   0.09276   1.22408
  -1.77867   0.01794   1.10437
  -1.61407   0.00298   1.04451
  -1.49436  -0.05688   0.99962
  -1.29983  -0.08680   0.80509
  -1.29983  -0.17659   0.71531
  -1.15019  -0.22148   0.71531
  -0.89581  -0.10177   0.83502
  -0.92573  -0.25141   0.65546
  -0.71624  -0.28133   0.65546
  -0.58157  -0.32622   0.58064
  -0.64142  -0.38608   0.70035
  -0.50675  -0.40104   0.47589
  -0.38704  -0.37112   0.43100
  -0.41697  -0.62550   0.38611
  -0.29726  -0.46090   0.28136
  -0.11769  -0.55068   0.31129
   0.04691  -0.55068   0.22151
   0.09180  -0.50579   0.04194
   0.12173  -0.58061  -0.06281
   0.25640  -0.61054  -0.19748
   0.21151  -0.64046  -0.34712
   0.25640  -0.64046  -0.60150
   0.33122  -0.50579  -0.70625
   0.43597  -0.64046  -0.87085
   0.36115  -0.44593  -1.15516
   0.36115  -0.58061  -1.20005
   0.39108  -0.56564  -1.36465
   0.34619  -0.59557  -1.43947
   0.30129  -0.56564  -1.48436
   0.52575  -0.46090  -1.72378
   0.25640  -0.37112  -1.81357
   0.31626  -0.46090  -1.79860
   0.30129  -0.32622  -1.94824
   0.22648  -0.38608  -2.14277
   0.07684  -0.19155  -2.18766
   0.03195  -0.29630  -2.18766
  -0.07280  -0.23644  -2.08291
  -0.19251  -0.20651  -2.02306
  -0.14762  -0.26637  -1.97817
  -0.35711  -0.02695  -1.88838
  -0.46186  -0.13170  -1.79860
  -0.35711  -0.26637  -1.69386
  -0.47682  -0.19155  -1.42451
  -0.35711  -0.14666  -1.28983
  -0.34215  -0.17659  -1.22998
  -0.38704  -0.19155  -0.79603
  -0.29726   0.00298  -0.85588
  -0.13265  -0.14666  -0.51172
  -0.05784  -0.07184  -0.45186
  -0.04287   0.01794  -0.12266
   0.13669   0.07780  -0.06281
   0.42100  -0.05688   0.10180
   0.39108  -0.01199   0.17661
   0.55568  -0.10177   0.38611
   0.78013   0.06283   0.61056
   0.92977   0.06283   0.62553
   1.07941   0.07780   0.71531
   1.19912   0.01794   0.74524
   1.57321   0.03291   0.77517
   1.70789   0.07780   0.92480
   1.88745   0.12269   0.83502
   2.08198   0.07780   0.82006
   2.30644   0.13765   0.79013
   2.50097   0.07780   0.83502
   2.51593  -0.01199   0.59560
   2.75535  -0.04191   0.64049
   2.87506   0.01794   0.61056
   3.08455   0.13765   0.56567
   3.03966  -0.10177   0.52078
   3.21923  -0.14666   0.43100
   3.30901  -0.07184   0.40107
   3.27908  -0.16162   0.28136
   3.29405  -0.20651   0.23647
   3.27908  -0.13170   0.16165
   3.24916  -0.13170   0.04194
   3.21923  -0.40104   0.02698
   3.35390  -0.22148   0.01201
   3.27908  -0.14666   0.04194
   3.24916  -0.25141   0.14669
   3.26412  -0.22148  -0.07777
   3.26412  -0.02695   0.01201
   3.09952   0.01794   0.02698
   3.00973  -0.10177   0.10180
   3.08455   0.00298   0.10180
   2.94988   0.19751   0.08683
   2.72542   0.12269   0.19158
   2.84513   0.24240   0.16165
   2.62068   0.30225   0.26640
   2.57579   0.28729   0.50582
   2.48600   0.40700   0.50582
   2.21666   0.37707   0.65546
   2.15680   0.45189   0.80509
   2.00716   0.76613   0.95473
   1.93234   0.48182   1.13430
   1.67796   0.72124   1.25401
   1.55825   0.78109   1.29890
   1.27394   0.78109   1.43357
   1.15423   0.87088   1.58321
   0.95970   0.93073   1.53832
   0.75021   0.90080   1.47846
   0.48086   0.96066   1.44853
   0.37611   1.03548   1.35875
   0.19655   1.11030   1.43357
   0.10677   1.14022   1.38868
  -0.02791   1.06541   1.19415
  -0.04287   1.00555   0.92480
   0.00202   1.12526   0.71531
  -0.05784   1.21504   0.62553
  -0.10273   1.15519   0.47589
  -0.19251   0.88584   0.26640
  -0.23740   0.84095  -0.07777
  -0.37207   0.94569  -0.21244
  -0.47682   0.67635  -0.43690
  -0.46186   0.73620  -0.57157
  -0.64142   0.49678  -0.67632
  -0.89581   0.55664  -0.90078
  -1.09034   0.28729  -0.96063
  -1.29983   0.13765  -1.03545
  -1.46443  -0.05688  -1.05041
  -1.68889   0.06283  -0.99056
  -1.92831  -0.08680  -1.08034
  -2.09291  -0.28133  -1.00552
  -2.27247  -0.19155  -0.85588
  -2.40715  -0.47586  -0.94567
  -2.55678  -0.53572  -0.79603
  -2.63160  -0.58061  -0.69128
  -2.66153  -0.44593  -0.72121
  -2.67649  -0.56564  -0.57157
  -2.70642  -0.53572  -0.43690
  -2.70642  -0.71528  -0.37704
  -2.48197  -0.58061  -0.31719
  -2.46700  -0.53572  -0.34712
  -2.39218  -0.64046  -0.22741
