********************************************************************************
              CENTRO DE INSTRUMENTACION Y REGISTRO SISMICO  A.C.

    Anaxagoras 814, Col. Narvarte, Benito Juarez, C.P. 03020 Mexico, D.F.
           Tels. 5687 45 42/ 5687 45  82             Fax. 5669 25 12
********************************************************************************
ARCHIVO ESTANDAR DE ACELERACION:
VERSION DEL FORMATO                    : 2.0
NOMBRE DEL ARCHIVO                     : AR1420130616051902
FECHA Y HORA DE CREACION               : 20/OCT/17, 13:29
REF. CATALOGO ACELEROGRAMAS, SMIS 1996 : REGISTRO No.     /PAG.


================================================================================
DATOS DE LA ESTACION:
NOMBRE DE LA ESTACION                  : ESC. PRIM. "JOSÉ ORDAZ LÓPEZ"
CLAVE DE LA ESTACION                   : AR14
LOCALIZACION DE LA ESTACION            : Del. Gustavo A. Madero,                
                                       : Col. Ampliación la Providencia,        
                                       : Calle Puebla esq. con calle            
                                       : Volcán Tacan.                          
                                       : 
COORDENADAS DE LA ESTACION             : 19.4808 LAT. N
                                       : 99.0760 LONG. W
ALTITUD (msnm)                         : 2232
TIPO DE SUELO                          : Arcilloso, zona lago                
                                       :                           
                                       : 
INSTITUCION RESPONSABLE                : CIRES
                                       : 

================================================================================
DATOS DEL ACELEROGRAFO:
MODELO DEL ACELEROGRAFO                : RADESD
NUMERO DE SERIE DEL ACELEROGRAFO       : 215
NUMERO DE CANALES                      : 3
ORIENTACION C1-C6 (rumbo;orientacion)  : /N00E/+V/N90W
ORIENTACION C7-C12 (rumbo;orientacion) : 
VEL. DE MUESTREO, C1-C6 (muestras/s)   : /100/100/100
VEL. DE MUESTREO, C7-C12 (muestras/s)  : 
ESC. COMPLETA DE SENSORES, C1-C6, (g)  : /0.5/0.5/0.5
ESC. COMPLETA DE SENSORES, C7-C12, (g) : 
FREC. NAT. DE SENSORES, C1-C6, (Hz)    : /30/30/32
FREC. NAT. DE SENSORES, C7-C12, (Hz)   : 
AMORTIGUAMIENTO DE SENSORES, C1-C6     : /0.733/0.790/0.750
AMORTIGUAMIENTO DE SENSORES, C7-C12    : 
INTERVALO DE MUESTREO, C1-C6, (s)      : /0.01/0.01/0.01
INTERVALO DE MUESTREO, C7-C12, (s)     : 
UMBRAL DE DISPARO, C1-C6, (Gal)        : /1.95/5.99/2.24
UMBRAL DE DISPARO, C7-C12, (Gal)       : 
MEMORIA DE PREEVENTO (s)               : 44.0
TIEMPO DE POSEVENTO (s)                : 123.0


================================================================================
DATOS DEL SISMO:
FECHA DEL SISMO (GMT)                  : 16/JUN/13
HORA EPICENTRO (GMT)                   : 05:19:02.0
MAGNITUD(ES)                           : /Mc=5.8
COORDENADAS DEL EPICENTRO              : 18.11 LAT. N
                                       : 99.22 LONG. W
PROFUNDIDAD FOCAL (km)                 : 55
FUENTE DE LOS DATOS EPICENTRALES       : SSN
                                       : INSTITUTO DE GEOFISICA, UNAM

================================================================================
DATOS DE ESTE REGISTRO:
HORA DE LA PRIMERA MUESTRA (GMT)       : 05:19:31.00
EXACTITUD DEL TIEMPO (s)               : 0.01
DURACION DEL REGISTRO (s), C1-C6       : /207.2/207.2/207.2
DURACION DEL REGISTRO (s), C7-C12      : 
NUM. TOTAL DE MUESTRAS, C1-C6          : /20720/20720/20720
NUM. TOTAL DE MUESTRAS, C7-C12         : 
ACEL. MAX. (Gal), C1-C6                : /15.54931/7.98825/13.56765
ACEL. MAX., C1-C6, EN LA MUESTRA       : /6922/6701/6433
ACEL. MAX. (Gal), C7-C12               : 
ACEL. MAX., C7-C12, EN LA MUESTRA      : 
UNIDADES DE LOS DATOS                  : Gal (cm/s/s)
FACTOR DE DECIMACION                   : 1
FORMATO DATOS (FORTRAN,10 campos/dato) : 3F10.5


================================================================================
CALIDAD DEL ACELEROGRAMA:
REGISTRO DIGITAL COMPLETO CON TIEMPO ABSOLUTO CORRECTO.


================================================================================
COMENTARIOS:














================================================================================
DATOS DE ACELERACION:
---------+---------+---------+---------+---------+---------+---------+---------+
   CANAL-1   CANAL-2   CANAL-3   CANAL-4   CANAL-5   CANAL-6   CANAL-7   CANAL-8
      N00E        +V      N90W
---------+---------+---------+---------+---------+---------+---------+---------+
[...]
  -0.42094   0.68593   4.21530
  -1.25891   1.31441   3.48208
  -2.03703   1.89800   2.76382
  -2.80018   2.49655   2.09045
  -3.53341   3.06517   1.58168
  -4.11699   3.75350   1.19262
  -4.62576   4.30716   0.90831
  -4.86518   4.54658   0.74371
  -4.98489   4.21738   0.42947
  -5.17942   3.72358  -0.04937
  -5.46373   3.30459  -0.43843
  -5.97250   3.03524  -0.91727
  -6.66083   2.79582  -1.14172
  -7.72326   2.66115  -1.21654
  -8.99518   2.52647  -0.90230
 -10.34192   2.40676  -0.60303
 -11.55398   2.34691  -0.19901
 -12.48173   2.19727   0.11523
 -12.93065   1.91296   0.27983
 -12.82590   1.62865   0.11523
 -12.36202   1.35930  -0.21397
 -11.64376   1.10492  -0.70777
 -10.79083   1.04506  -1.32129
  -9.90797   1.00017  -1.75524
  -9.20467   1.11988  -1.99466
  -8.54627   1.25455  -2.00962
  -8.05246   1.29945  -1.93480
  -7.51377   1.16477  -1.68042
  -7.13967   0.77571  -1.23151
  -6.87032   0.34177  -0.76763
  -6.57105  -0.21189  -0.07930
  -6.28674  -0.40642   0.56415
  -5.88272  -0.28671   1.01306
  -5.31409  -0.00240   1.35722
  -4.37138   0.59615   1.47693
  -3.32391   1.01513   1.35722
  -1.99214   1.20966   1.02802
  -0.55562   1.20966   0.57911
   1.01558   1.14981   0.10027
   2.42217   1.19470  -0.28879
   3.55942   1.47901  -0.45339
   4.51710   1.94289  -0.39354
   5.02586   2.39180  -0.21397
   5.38500   2.70604   0.05538
   5.78902   2.84071   0.41451
   6.16311   2.54144   0.51925
   6.79159   2.10749   0.47436
   7.65949   1.52390   0.17509
   8.61717   0.89542  -0.34864
   9.66463   0.29687  -1.23151
  10.77195  -0.19693  -2.15926
  11.65481  -0.67577  -2.93737
  12.37307  -1.22943  -3.56585
  12.65738  -2.00755  -4.01477
  12.70227  -2.92033  -4.25419
  12.31322  -3.78823  -4.37390
  11.63985  -4.49153  -4.32900
  10.74202  -4.85066  -4.13448
   9.63470  -4.92548  -3.82024
   8.28796  -4.79080  -3.32643
   6.83648  -4.56635  -2.89248
   5.25032  -4.38678  -2.30890
   3.72402  -4.31196  -1.68042
   2.27253  -4.32693  -0.91727
   1.04550  -4.22218  -0.09426
  -0.16656  -3.90794   0.53422
  -1.31877  -3.48896   1.11780
  -2.21660  -2.86048   1.58168
  -2.99471  -2.42653   1.77621
  -3.50348  -2.30682   2.00067
  -4.04217  -2.21704   2.09045
  -4.58087  -2.35171   2.01563
  -5.07467  -2.71084   1.65650
  -5.29913  -2.81559   1.10284
  -5.47869  -2.96523   0.41451
  -5.50862  -2.89041  -0.54317
  -5.31409  -2.72581  -1.44100
  -4.96993  -2.71084  -1.93480
  -4.53598  -2.80062  -2.26401
  -4.13196  -2.89041  -2.11437
  -3.84764  -3.14479  -1.72531
  -3.78779  -3.32436  -1.06690
  -3.89254  -3.17472  -0.27383
  -4.17685  -3.11486   0.44444
  -4.44620  -2.84552   1.04299
  -4.65569  -2.56120   1.20759
  -4.76043  -2.15718   1.25248
  -4.77540  -1.88784   1.16270
  -4.82029  -1.49878   1.07291
  -5.02978  -1.15461   1.16270
  -5.35898  -0.67577   1.31233
  -5.89768  -0.16700   1.64154
  -6.55609   0.16220   2.06052
  -7.13967   0.23702   2.58425
  -7.58859  -0.01737   3.18280
  -7.93275  -0.60095   3.52697
  -8.12728  -1.16957   3.64668
  -8.21706  -1.54367   3.46711
  -8.00757  -1.37907   2.86856
  -7.58859  -0.99001   2.06052
  -6.94514  -0.40642   1.25248
  -6.33163  -0.18197   0.47436
  -5.61337  -0.03233   0.04041
  -4.91007   0.08738  -0.28879
  -4.13196   0.23702  -0.30375
  -3.42866   0.62608   0.01049
  -2.77025   1.23959   0.41451
  -2.15674   1.67354   0.98313
  -1.64797   1.91296   1.46197
  -1.36366   1.58376   1.62657
  -1.31877   1.01513   1.64154
  -1.42352   0.38666   1.50686
  -1.60308  -0.01737   1.22255
  -1.69286  -0.18197   0.98313
  -1.72279   0.01256   0.62400
  -1.73775   0.44651   0.59407
  -1.57315   0.94032   0.66889
  -1.22899   1.50894   1.04299
  -0.85489   1.80821   1.56672
  -0.40598   2.21224   2.24009
   0.01301   2.64618   2.94338
   0.56666   3.39437   3.54193
   1.07543   4.51665   3.99085
   1.77873   5.68383   4.00581
   2.43713   6.80611   3.76639
   3.05065   7.61415   3.07806
   3.51453   7.98825   2.35980
   3.73898   7.91343   1.46197
   3.82876   7.82365   0.90831
   3.66416   7.53933   0.57911
   3.63424   7.41962   0.71378
   3.57438   7.22509   0.95320
   3.66416   6.80611   1.20759
   3.93351   6.32727   1.31233
   4.38242   5.81850   1.20759
   4.92112   5.26484   0.92328
   5.51967   5.01046   0.45940
   6.17807   4.98053   0.02545
   6.73173   4.96557  -0.36361
   7.19561   4.72615  -0.54317
   7.39014   4.21738  -0.67785
   7.40510   3.73854  -0.76763
   7.22554   2.94546  -0.81252
   6.92626   2.06260  -1.02201
   6.64195   1.10492  -1.12676
   6.32771   0.20709  -1.26143
   5.87880  -0.49621  -1.36618
   5.47478  -1.07979  -1.39611
   5.08572  -1.69331  -1.33625
   4.63681  -2.24697  -1.51582
   4.21782  -3.05501  -1.71035
   3.99337  -3.74334  -1.84502
   3.87366  -4.37182  -2.08444
   3.91855  -4.92548  -2.24904
   4.03826  -5.35943  -2.53335
   4.12804  -5.71856  -2.77277
   4.11308  -6.03280  -3.10198
   4.14300  -6.27222  -3.35636
   4.11308  -6.39193  -3.71549
   4.24775  -6.49667  -3.95491
   4.54702  -6.60142  -4.31404
   4.93608  -6.69120  -4.52353
   5.48974  -6.70617  -4.79288
   6.11822  -6.64631  -5.07719
   6.62699  -6.40689  -5.52611
   7.03101  -6.21236  -5.84034
   7.03101  -5.82330  -6.22940
   6.91130  -5.50907  -6.52868
   6.49231  -5.23972  -6.72321
   5.84887  -4.88059  -6.75313
   4.99594  -4.58131  -6.55860
   3.94847  -4.10247  -6.24437
   2.75137  -3.80320  -5.75056
   1.46449  -3.66852  -4.89763
   0.01301  -3.56378  -3.82024
  -1.25891  -3.44407  -2.51839
  -2.20163  -3.14479  -0.87238
  -3.15931  -2.63602   0.68386
  -3.72793  -1.97762   2.00067
  -4.34145  -1.07979   2.82367
  -4.88014  -0.27175   3.01820
  -5.41884   0.82061   2.67404
  -5.98746   1.71843   1.79117
  -6.66083   2.42173   0.60904
  -7.13967   3.09510  -0.73770
  -7.57362   3.61883  -1.97969
  -7.91779   4.03781  -2.87752
  -8.05246   4.38198  -3.56585
  -7.94772   4.86082  -3.80527
  -7.72326   5.29477  -3.88009
  -7.18456   5.81850  -3.74542
  -6.55609   6.35720  -3.59578
  -5.77797   6.62654  -3.35636
  -4.99985   6.58165  -3.35636
  -4.46116   6.26741  -3.41621
  -4.13196   5.75865  -3.79031
  -4.13196   5.29477  -4.35893
  -4.13196   4.87578  -4.80784
  -4.28159   4.63636  -5.22683
  -4.23670   4.36702  -5.24179
  -4.19181   3.96300  -4.95748
  -3.96736   3.31955  -4.17937
  -3.62319   2.52647  -3.17679
  -3.05457   1.71843  -1.80013
  -2.30638   0.95528  -0.09426
  -1.46841   0.52133   1.73132
  -0.60051   0.07242   3.73646
   0.29732  -0.16700   5.53211
   1.21011  -0.46628   6.98360
   1.97326  -0.66081   7.86646
   2.81123  -0.88526   8.53983
   3.64920  -0.84037   8.70443
   4.50213  -0.87030   8.71939
   5.45981  -0.76555   8.62961
   6.56713  -0.67577   8.58472
   7.52481  -0.61592   8.46501
   8.43760  -0.70570   8.36026
   9.15586  -0.88526   8.30041
   9.58981  -0.91519   8.07595
   9.81427  -1.01994   7.73179
   9.90405  -0.96008   7.43251
   9.64967  -0.96008   7.04345
   9.30550  -1.03490   6.71425
   8.73688  -1.30425   6.42994
   7.91387  -1.58856   6.14563
   6.98612  -2.20207   5.99599
   5.81894  -2.87544   5.86132
   4.78644  -3.32436   5.90621
   4.03826  -3.80320   6.10074
   3.54445  -4.17729   6.19052
   3.29007  -4.44664   6.32519
   3.27510  -4.59628   6.57958
   3.24518  -4.58131   6.83396
   3.23021  -4.46160   7.13324
   3.00576  -4.40175   7.47740
   2.46706  -4.22218   7.92632
   1.59916  -3.90794   8.36026
   0.47688  -3.38421   8.70443
  -0.79504  -2.62106   9.10845
  -2.14178  -1.87287   9.25809
  -3.30895  -1.03490   9.30298
  -4.52101  -0.19693   9.07852
  -5.53855   0.50637   8.71939
  -6.43638   1.13484   8.15077
  -7.21449   1.64361   7.64200
  -7.90282   2.18231   7.26791
  -8.63605   2.72100   6.84892
  -9.17474   3.19984   6.54965
  -9.69848   3.55897   6.16059
 -10.01271   3.73854   5.78650
 -10.17732   3.72358   5.24780
 -10.23717   3.70861   4.72407
  -9.95286   3.72358   4.06567
  -9.44409   3.70861   3.27259
  -8.77072   3.84329   2.34483
  -7.84297   4.09767   1.17766
  -6.88529   4.33709  -0.13915
  -5.98746   4.53162  -1.62056
  -4.92504   4.69622  -3.08701
  -3.92246   4.51665  -4.28411
  -2.77025   4.12760  -5.34654
  -1.76768   3.66372  -6.09473
  -0.94468   3.06517  -6.42393
  -0.42094   2.39180  -6.67831
  -0.00196   1.83814  -6.58853
   0.08782   1.14981  -6.39400
   0.19257   0.65600  -6.04984
   0.10279   0.08738  -5.79545
   0.11775  -0.63088  -5.60092
   0.35717  -1.13965  -5.57100
   0.76119  -1.66338  -5.76553
   1.53931  -1.90280  -6.00495
   2.46706  -2.03747  -6.22940
   3.66416  -2.00755  -6.45386
   5.04083  -1.96265  -6.39400
   6.49231  -1.96265  -6.16955
   7.83905  -2.09733  -5.90020
   8.88652  -2.27689  -5.64582
   9.70952  -2.44149  -5.42136
  10.05369  -2.63602  -5.37647
  10.06865  -2.80062  -5.21187
   9.75441  -2.87544  -5.12208
   9.27557  -2.99515  -4.94252
   8.39271  -3.02508  -4.71806
   7.43503  -3.01012  -4.29908
   6.44742  -2.92033  -3.82024
   5.44485  -2.96523  -3.25161
   4.59192  -2.92033  -2.78774
   3.96344  -2.78566  -2.36875
   3.45467  -2.77070  -2.00962
   3.21525  -2.62106  -1.71035
   3.06561  -2.27689  -1.39611
   3.00576  -1.87287  -1.24647
   3.02072  -1.39403  -1.18661
   3.03568  -0.75059  -1.26143
   3.06561  -0.15204  -1.48589
   3.02072   0.35673  -1.78517
   3.11050   0.85053  -2.15926
   3.11050   1.07499  -2.48846
   3.18532   1.03010  -2.69795
   3.34992   1.06003  -2.75781
   3.46963   1.01513  -2.80270
   3.72402   1.16477  -2.71292
   3.84373   1.17974  -2.65306
   4.11308   1.31441  -2.77277
   4.21782   1.35930  -3.16183
   4.35250   1.61368  -3.93995
   4.56199   1.70347  -4.79288
   4.77148   1.64361  -5.76553
   4.98097   1.53887  -6.58853
   5.22039   1.25455  -7.21701
   5.59449   1.01513  -7.74074
   5.90873   0.68593  -7.99513
   6.32771   0.28191  -8.04002
   6.65691  -0.25679  -7.90534
   6.94123  -0.72066  -7.72578
   7.25547  -1.24439  -7.38161
   7.34525  -1.55863  -7.08234
   7.34525  -1.70827  -6.72321
   7.00108  -1.75316  -6.49875
   6.37260  -1.76813  -6.09473
   5.37003  -1.84294  -5.72063
   4.14300  -1.85791  -5.40640
   2.97583  -1.99258  -4.98741
   1.94333  -1.99258  -4.65821
   0.92579  -2.00755  -4.19433
   0.13272  -1.96265  -3.47607
  -0.34613  -1.99258  -2.50343
  -0.70526  -2.00755  -1.42603
  -1.09431  -2.09733  -0.18404
  -1.57315  -2.15718   1.07291
  -2.11185  -2.11229   2.41965
  -2.94982  -2.02251   3.51201
  -3.69801  -1.79805   4.40983
  -4.55094  -1.43892   5.09816
  -5.55351  -1.01994   5.42737
  -6.57105  -0.67577   5.51715
  -7.72326  -0.48124   5.35255
  -8.96525  -0.34657   4.97845
 -10.20724   0.02753   4.51458
 -11.46420   0.44651   4.05070
 -12.49670   1.00017   3.72150
 -13.49927   1.34434   3.58682
 -14.26242   1.74836   3.69157
 -14.80112   2.06260   3.82625
 -15.26499   2.25713   4.17041
 -15.48945   2.31698   4.64925
 -15.54931   2.39180   5.26277
 -15.54931   2.40676   5.83139
 -15.26499   2.40676   6.42994
 -14.86097   2.25713   6.93871
 -14.36717   2.03267   7.37266
 -13.61898   1.88303   7.65697
 -12.85583   1.71843   7.74675
 -12.00289   1.73339   7.73179
 -11.17989   2.03267   7.53726
 -10.43170   2.43669   7.16316
  -9.71344   2.91553   6.83396
  -9.12985   3.49912   6.42994
  -8.74079   3.87321   6.11570
  -8.56123   4.08271   5.83139
  -8.44152   4.18745   5.69672
  -8.50137   4.24731   5.47226
  -8.53130   4.32213   5.21787
  -8.56123   4.35205   4.76896
  -8.42656   4.41191   4.21530
  -8.12728   4.39694   3.36237
  -7.51377   4.29220   2.43462
  -6.78054   4.05278   1.31233
  -5.94257   3.57394   0.13020
  -5.07467   2.85568  -1.11180
  -4.10203   2.28705  -2.35379
  -3.18924   1.70347  -3.37132
  -2.51587   1.14981  -4.38886
  -1.90236   0.67097  -5.27172
  -1.55819   0.10235  -5.94509
  -1.39359  -0.39146  -6.52868
  -1.34870  -1.00497  -6.93270
  -1.54323  -1.49878  -7.18708
  -1.81257  -1.90280  -7.30679
  -2.06696  -2.02251  -7.24694
  -2.24652  -1.82798  -7.32176
  -2.15674  -1.63345  -7.51629
  -1.79761  -1.60352  -7.65096
  -1.21402  -1.66338  -7.60607
  -0.31620  -1.87287  -7.38161
   0.53674  -2.05244  -7.11226
   1.38967  -2.24697  -6.57357
   2.13786  -2.36668  -5.88524
   2.69152  -2.33675  -5.18194
   3.08058  -2.41157  -4.23922
   3.32000  -2.51631  -3.37132
   3.67913  -2.56120  -2.35379
   3.99337  -2.51631  -1.33625
   4.47221  -2.42653  -0.15412
   4.92112  -2.27689   0.96817
   5.44485  -1.93273   2.00067
   6.04340  -1.48381   2.88353
   6.67188  -0.97505   3.60179
   7.28539  -0.42139   4.11056
   7.94380   0.10235   4.48465
   8.55731   0.61111   4.73903
   9.05112   1.11988   5.00838
   9.42521   1.50894   5.17298
   9.69456   2.00274   5.48722
   9.76938   2.45166   5.68175
   9.66463   2.85568   5.83139
   9.42521   3.13999   5.92117
   9.06608   3.36444   5.86132
   8.72191   3.55897   5.65182
   8.36278   3.75350   5.57701
   7.92883   3.70861   5.44233
   7.42007   3.69365   5.32262
   6.91130   3.61883   5.36751
   6.22297   3.33452   5.35255
   5.57952   3.03524   5.45729
   4.99594   2.64618   5.60693
   4.36746   2.24216   5.87628
   3.88862   1.74836   6.11570
   3.37985   1.43412   6.37008
   2.90101   1.25455   6.57958
   2.37728   1.10492   6.74418
   1.80866   0.95528   6.74418
   1.28492   0.55126   6.78907
   0.65645   0.04249   6.53469
   0.10279  -0.45131   6.13066
  -0.46584  -0.87030   5.59197
  -0.81000  -1.34914   4.88867
  -0.98957  -1.72323   4.02077
  -1.01949  -2.05244   2.92842
  -0.91475  -2.17215   1.68643
  -0.69029  -2.30682   0.23494
  -0.37605  -2.54624  -1.30632
   0.02797  -2.77070  -2.66803
   0.31228  -3.14479  -3.89506
   0.53674  -3.65356  -4.79288
   0.82105  -4.23715  -5.48121
   1.09040  -4.65613  -5.97502
   1.32982  -5.09008  -6.30422
   1.55427  -5.49410  -6.52868
   1.80866  -5.77841  -6.57357
   1.98822  -6.09265  -6.37904
   2.09297  -6.24229  -6.18451
   2.06304  -6.18243  -5.81042
   1.92837  -6.03280  -5.46625
   1.68895  -5.82330  -5.24179
   1.47945  -5.67367  -5.15201
   1.38967  -5.52403  -5.27172
   1.31485  -5.20979  -5.63085
   1.32982  -4.97037  -6.12466
   1.26996  -4.49153  -6.58853
   1.06047  -4.08751  -6.94766
   0.71630  -3.68349  -7.12723
   0.07286  -3.23457  -7.02248
  -0.63044  -2.83055  -6.94766
  -1.33373  -2.68091  -6.58853
  -2.06696  -2.60610  -6.25933
  -2.72536  -2.69588  -5.64582
  -3.42866  -2.90537  -5.07719
  -4.10203  -2.95026  -4.38886
  -4.76043  -2.98019  -3.77535
  -5.52359  -2.98019  -3.11694
  -6.30170  -2.92033  -2.53335
  -7.06485  -2.87544  -1.94977
  -7.78311  -2.63602  -1.59064
  -8.33677  -2.21704  -1.30632
  -8.71087  -1.64841  -1.00705
  -8.99518  -1.00497  -0.63296
  -9.08496  -0.30168  -0.13915
  -9.05503   0.37169   0.36962
  -8.92036   0.92535   0.78860
  -8.65101   1.38923   1.16270
  -8.08239   1.77829   1.50686
  -7.57362   2.01771   1.91088
  -6.84040   2.39180   2.29994
  -5.98746   2.76589   2.59922
  -5.04475   3.15495   2.77878
  -3.99728   3.63379   2.97331
  -2.93486   3.78343   3.03317
  -1.96221   3.73854   2.74885
  -1.15417   3.64876   2.46454
  -0.48080   3.40934   2.19520
  -0.00196   3.28963   1.70139
   0.49185   3.25970   1.46197
   0.73127   3.18488   1.31233
   1.00061   3.16992   1.22255
   1.28492   2.96042   1.35722
   1.58420   2.63122   1.77621
   1.89844   2.27209   2.00067
   2.51195   1.95785   2.35980
   2.96087   1.71843   2.41965
   3.64920   1.56879   2.32987
   4.15797   1.53887   1.95578
   4.78644   1.55383   1.28241
   5.22039   1.71843   0.50429
   5.54960   1.97282  -0.36361
