********************************************************************************
              CENTRO DE INSTRUMENTACION Y REGISTRO SISMICO  A.C.

    Anaxagoras 814, Col. Narvarte, Benito Juarez, C.P. 03020 Mexico, D.F.
           Tels. 5687 45 42/ 5687 45  82             Fax. 5669 25 12
********************************************************************************
ARCHIVO ESTANDAR DE ACELERACION:
VERSION DEL FORMATO                    : 2.0
NOMBRE DEL ARCHIVO                     : AR1420140508170016
FECHA Y HORA DE CREACION               : 22/MAY/14, 13:42
REF. CATALOGO ACELEROGRAMAS, SMIS 1996 : REGISTRO No.     /PAG.


================================================================================
DATOS DE LA ESTACION:
NOMBRE DE LA ESTACION                  : ESC. PRIM. "JOSÉ ORDAZ LÓPEZ"
CLAVE DE LA ESTACION                   : AR14
LOCALIZACION DE LA ESTACION            : Del. Gustavo A. Madero,                
                                       : Col. Ampliación la Providencia,        
                                       : Calle Puebla esq. con calle            
                                       : Volcán Tacan.                          
                                       : 
COORDENADAS DE LA ESTACION             : 19.4808 LAT. N
                                       : 99.0760 LONG. W
ALTITUD (msnm)                         : 2232
TIPO DE SUELO                          : Arcilloso, zona lago                
                                       :                           
                                       : 
INSTITUCION RESPONSABLE                : CIRES
                                       : 

================================================================================
DATOS DEL ACELEROGRAFO:
MODELO DEL ACELEROGRAFO                : RADESD
NUMERO DE SERIE DEL ACELEROGRAFO       : 215
NUMERO DE CANALES                      : 3
ORIENTACION C1-C6 (rumbo;orientacion)  : /N00E/+V/N90W
ORIENTACION C7-C12 (rumbo;orientacion) : 
VEL. DE MUESTREO, C1-C6 (muestras/s)   : /100/100/100
VEL. DE MUESTREO, C7-C12 (muestras/s)  : 
ESC. COMPLETA DE SENSORES, C1-C6, (g)  : /0.5/0.5/0.5
ESC. COMPLETA DE SENSORES, C7-C12, (g) : 
FREC. NAT. DE SENSORES, C1-C6, (Hz)    : /30/30/32
FREC. NAT. DE SENSORES, C7-C12, (Hz)   : 
AMORTIGUAMIENTO DE SENSORES, C1-C6     : /0.733/0.790/0.750
AMORTIGUAMIENTO DE SENSORES, C7-C12    : 
INTERVALO DE MUESTREO, C1-C6, (s)      : /0.01/0.01/0.01
INTERVALO DE MUESTREO, C7-C12, (s)     : 
UMBRAL DE DISPARO, C1-C6, (Gal)        : /1.95/5.99/2.24
UMBRAL DE DISPARO, C7-C12, (Gal)       : 
MEMORIA DE PREEVENTO (s)               : 44.0
TIEMPO DE POSEVENTO (s)                : 64.0


================================================================================
DATOS DEL SISMO:
FECHA DEL SISMO (GMT)                  : 08/MAY/14
HORA EPICENTRO (GMT)                   : 17:00:16.0
MAGNITUD(ES)                           : /Mc=6.4
COORDENADAS DEL EPICENTRO              : 17.11 LAT. N
                                       : 100.87 LONG. W
PROFUNDIDAD FOCAL (km)                 : 17
FUENTE DE LOS DATOS EPICENTRALES       : SSN
                                       : INSTITUTO DE GEOFISICA, UNAM

================================================================================
DATOS DE ESTE REGISTRO:
HORA DE LA PRIMERA MUESTRA (GMT)       : 17:01:19.00
EXACTITUD DEL TIEMPO (s)               : 0.01
DURACION DEL REGISTRO (s), C1-C6       : /317.6/317.6/317.6
DURACION DEL REGISTRO (s), C7-C12      : 
NUM. TOTAL DE MUESTRAS, C1-C6          : /31760/31760/31760
NUM. TOTAL DE MUESTRAS, C7-C12         : 
ACEL. MAX. (Gal), C1-C6                : /35.42237/7.70179/23.9356
ACEL. MAX., C1-C6, EN LA MUESTRA       : /9057/8975/9354
ACEL. MAX. (Gal), C7-C12               : 
ACEL. MAX., C7-C12, EN LA MUESTRA      : 
UNIDADES DE LOS DATOS                  : Gal (cm/s/s)
FACTOR DE DECIMACION                   : 1
FORMATO DATOS (FORTRAN,10 campos/dato) : 3F10.5


================================================================================
CALIDAD DEL ACELEROGRAMA:
REGISTRO DIGITAL COMPLETO CON TIEMPO ABSOLUTO CORRECTO.


================================================================================
COMENTARIOS:














================================================================================
DATOS DE ACELERACION:
---------+---------+---------+---------+---------+---------+---------+---------+
   CANAL-1   CANAL-2   CANAL-3   CANAL-4   CANAL-5   CANAL-6   CANAL-7   CANAL-8
      N00E        +V      N90W
---------+---------+---------+---------+---------+---------+---------+---------+
[...]
  28.65876  -1.75530  -6.42800
  29.12263  -1.56077  -6.15865
  29.58651  -1.26150  -5.91923
  30.08031  -0.94726  -5.57507
  30.52923  -0.58813  -5.24586
  30.99310  -0.30382  -4.82688
  31.45698   0.01042  -4.51264
  31.86100   0.36955  -4.15351
  32.17524   0.80350  -3.82431
  32.32488   1.28234  -3.37539
  32.42962   1.76118  -2.82173
  32.44459   2.21009  -2.20822
  32.36977   2.64404  -1.65456
  32.19020   3.10792  -1.20565
  31.89093   3.54187  -0.87644
  31.59165   4.03567  -0.63702
  31.17267   4.42473  -0.44250
  30.67886   4.76890  -0.32279
  30.14017   5.11306  -0.17315
  29.52665   5.45723  -0.03847
  28.79343   5.62183   0.09620
  27.86568   5.69665   0.21591
  26.84814   5.71161   0.35058
  25.75579   5.69665   0.38051
  24.54372   5.66672   0.39547
  23.18202   5.63680   0.44037
  21.74550   5.57694   0.57504
  20.21919   5.50212   0.76957
  18.73778   5.36745   0.99403
  17.22644   5.17292   1.23345
  15.71510   4.94846   1.50279
  14.12894   4.66415   1.78710
  12.61760   4.30502   1.96667
  11.12123   4.02071   2.08638
   9.63982   3.76633   2.20609
   8.15840   3.54187   2.32580
   6.76677   3.24259   2.40062
   5.44996   2.94332   2.38565
   4.16308   2.61412   2.25098
   2.95101   2.18017   1.98163
   1.82873   1.79111   1.63747
   0.73638   1.40205   1.12870
  -0.26619   1.04292   0.57504
  -1.13409   0.62394   0.02138
  -1.86732   0.17502  -0.57717
  -2.43594  -0.28885  -1.22061
  -2.89982  -0.82755  -1.86405
  -3.28887  -1.35128  -2.47757
  -3.69289  -1.86005  -3.15094
  -4.08195  -2.35385  -3.88416
  -4.44108  -2.72795  -4.57249
  -4.81518  -3.07211  -5.18601
  -5.12942  -3.41628  -5.70974
  -5.44365  -3.83527  -6.18858
  -5.77286  -4.29914  -6.65246
  -6.07213  -4.65827  -7.05648
  -6.37141  -4.98747  -7.50539
  -6.62579  -5.24186  -7.92438
  -6.94003  -5.36157  -8.29847
  -7.14952  -5.43639  -8.67256
  -7.34405  -5.49624  -8.92695
  -7.52362  -5.51121  -9.15140
  -7.61340  -5.52617  -9.34593
  -7.73311  -5.51121  -9.55543
  -7.83786  -5.40646  -9.82477
  -7.89771  -5.16704 -10.12405
  -7.95757  -4.82287 -10.42332
  -8.07728  -4.43382 -10.69267
  -8.12217  -4.01483 -10.88720
  -8.15210  -3.59584 -11.00691
  -8.22691  -3.08708 -11.14158
  -8.24188  -2.60824 -11.17151
  -8.33166  -2.12940 -11.12662
  -8.45137  -1.63559 -10.96202
  -8.58604  -1.12682 -10.67771
  -8.75065  -0.57317 -10.31858
  -8.96014   0.08524  -9.82477
  -9.25941   0.66883  -9.15140
  -9.63351   1.13270  -8.44811
  -9.97767   1.61154  -7.78970
 -10.47148   2.13528  -7.17619
 -11.02514   2.65901  -6.60757
 -11.51894   3.19770  -6.06887
 -12.05764   3.72143  -5.47032
 -12.58137   4.18531  -4.79695
 -13.13503   4.52948  -4.06373
 -13.71861   4.81379  -3.30057
 -14.24235   4.94846  -2.55239
 -14.79601   5.17292  -1.78923
 -15.33470   5.41234  -1.02608
 -15.78361   5.56198  -0.27789
 -16.27742   5.65176   0.48526
 -16.65151   5.56198   1.26337
 -16.98071   5.44227   2.17616
 -17.32488   5.27767   3.16377
 -17.65408   5.14299   4.12145
 -17.95336   4.97839   5.09410
 -18.22271   4.79882   6.09667
 -18.41724   4.58933   7.09924
 -18.61176   4.42473   7.96714
 -18.73147   4.29006   8.85000
 -18.94097   4.17035   9.67301
 -19.13550   3.99078  10.48105
 -19.24024   3.81122  11.21427
 -19.31506   3.51194  11.85772
 -19.31506   3.16777  12.48619
 -19.35995   2.85354  13.05482
 -19.43477   2.53930  13.50373
 -19.49463   2.19513  13.96761
 -19.52455   1.82104  14.40155
 -19.56944   1.46191  14.73076
 -19.64426   1.11774  15.05996
 -19.73405   0.77357  15.43405
 -19.85376   0.33962  15.80815
 -19.94354  -0.19907  16.19721
 -19.97347  -0.76769  16.58626
 -20.01836  -1.29143  16.93043
 -20.06325  -1.75530  17.28956
 -20.06325  -2.18925  17.52898
 -20.09318  -2.50349  17.70855
 -20.16800  -2.75787  17.79833
 -20.27274  -2.87758  17.82826
 -20.37749  -2.99729  17.78336
 -20.55705  -3.11700  17.70855
 -20.76655  -3.20679  17.52898
 -21.00597  -3.34146  17.18481
 -21.23042  -3.41628  16.81072
 -21.42495  -3.49110  16.37677
 -21.57459  -3.68563  15.88297
 -21.75415  -3.77541  15.28442
 -21.82897  -3.98490  14.67090
 -22.02350  -4.19440  14.04242
 -22.18810  -4.34403  13.50373
 -22.33774  -4.47871  13.03985
 -22.56220  -4.68820  12.56101
 -22.78665  -4.80791  12.08217
 -23.04104  -4.92762  11.60333
 -23.34031  -5.01740  11.13945
 -23.66952  -5.15208  10.76536
 -24.08850  -5.19697  10.40623
 -24.41770  -5.24186   9.95732
 -24.74691  -5.28675   9.41862
 -24.95640  -5.19697   8.92482
 -24.94143  -5.06229   8.46094
 -24.76187  -4.91266   8.02699
 -24.46259  -4.61338   7.66786
 -24.14836  -4.19440   7.29377
 -23.77426  -3.82030   6.88975
 -23.35528  -3.52103   6.51565
 -22.95125  -3.16190   6.18645
 -22.45745  -2.81773   5.88717
 -21.91876  -2.57831   5.66272
 -21.35013  -2.36882   5.51308
 -20.70669  -2.20422   5.46819
 -20.01836  -1.97976   5.45323
 -19.37492  -1.87501   5.40833
 -18.61176  -1.77027   5.40833
 -17.81868  -1.60566   5.30359
 -17.01064  -1.42610   5.21381
 -16.17267  -1.20164   5.00431
 -15.37959  -1.00711   4.73497
 -14.60148  -0.82755   4.42073
 -13.82336  -0.70784   4.06160
 -13.20985  -0.54324   3.70247
 -12.62626  -0.39360   3.31341
 -12.11749  -0.33375   2.95428
 -11.75836  -0.22900   2.64004
 -11.44412  -0.12425   2.29587
 -11.15981  -0.03447   1.98163
 -10.93535   0.10020   1.69732
 -10.84557   0.16006   1.44294
 -10.80068   0.30970   1.20352
 -10.80068   0.39948   1.02395
 -10.92039   0.39948   0.85935
 -11.01017   0.48926   0.72468
 -11.18974   0.57904   0.60497
 -11.44412   0.60897   0.47029
 -11.71347   0.66883   0.38051
 -12.10253   0.69875   0.29073
 -12.49159   0.71372   0.18598
 -12.80582   0.77357   0.11116
 -13.13503   0.77357   0.12613
 -13.38941   0.81846   0.18598
 -13.62883   0.87832   0.27576
 -13.83832   0.89328   0.36555
 -13.97300   0.95314   0.48526
 -14.12264   1.02796   0.57504
 -14.22738   1.08781   0.70971
 -14.34709   1.13270   0.81446
 -14.40695   1.13270   0.91921
 -14.46680   1.14767   1.05388
 -14.51169   1.20752   1.21848
 -14.52666   1.31227   1.42797
 -14.51169   1.35716   1.66739
 -14.48177   1.43198   1.90681
 -14.36206   1.50680   2.17616
 -14.22738   1.59658   2.49040
 -14.06278   1.62651   2.75975
 -13.77847   1.65644   3.07399
 -13.47919   1.64147   3.43312
 -13.09014   1.53672   3.71743
 -12.65619   1.38709   4.04663
 -12.17735   1.22249   4.33094
 -11.63865   1.08781   4.61526
 -10.99521   0.93817   4.82475
 -10.23206   0.80350   5.00431
  -9.42402   0.68379   5.18388
  -8.58604   0.59401   5.33352
  -7.70318   0.50423   5.45323
  -6.82032   0.32466   5.58790
  -5.89257   0.16006   5.72257
  -4.93489   0.07028   5.88717
  -3.96224  -0.09432   6.03681
  -2.98960  -0.22900   6.18645
  -2.09177  -0.49835   6.24631
  -1.16402  -0.70784   6.33609
  -0.32605  -0.97719   6.39594
   0.42214  -1.26150   6.39594
   1.18529  -1.51588   6.39594
   1.85866  -1.77027   6.29120
   2.47217  -2.00969   6.08170
   3.10065  -2.20422   5.85725
   3.62438  -2.33889   5.58790
   4.11819  -2.47356   5.30359
   4.55214  -2.56335   5.12402
   4.89630  -2.62320   4.94446
   5.19558  -2.66809   4.83971
   5.37514  -2.65313   4.74993
   5.49485  -2.77284   4.73497
   5.53975  -2.86262   4.72000
   5.55471  -3.01226   4.70504
   5.50982  -3.14693   4.61526
   5.47989  -3.19182   4.49555
   5.36018  -3.16190   4.33094
   5.19558  -3.07211   4.10649
   5.03098  -2.87758   3.89699
   4.79156  -2.66809   3.59772
   4.59703  -2.44364   3.26852
   4.35761  -2.17429   2.87946
   4.19301  -1.83012   2.37069
   4.04337  -1.44106   1.83200
   3.87877  -0.99215   1.27834
   3.71417  -0.58813   0.76957
   3.53460  -0.13922   0.29073
   3.25029   0.24984  -0.15818
   2.99591   0.65386  -0.56221
   2.75649   1.08781  -0.99615
   2.51707   1.56665  -1.43010
   2.29261   2.00060  -1.84909
   2.12801   2.47944  -2.34289
   1.96341   2.94332  -2.80677
   1.81377   3.39223  -3.28561
   1.69406   3.73640  -3.73452
   1.64917   4.11049  -4.19840
   1.54442   4.48459  -4.72213
   1.57435   4.91853  -5.32068
   1.73895   5.36745  -5.82945
   1.93348   5.81636  -6.36814
   2.23275   6.19045  -6.89188
   2.59188   6.54958  -7.40064
   3.01087   6.87879  -7.90941
   3.42986   7.08828  -8.44811
   3.89373   7.34266  -9.01673
   4.40250   7.58208  -9.58535
   4.86638   7.67187 -10.19887
   5.37514   7.70179 -10.82735
   5.82406   7.62698 -11.41093
   6.22808   7.47734 -11.96459
   6.64706   7.23792 -12.51825
   7.03612   6.93864 -13.01205
   7.44014   6.59448 -13.50586
   7.81424   6.25031 -13.95477
   8.26315   5.77147 -14.37376
   8.65221   5.17292 -14.83763
   9.08616   4.57437 -15.31647
   9.49018   4.02071 -15.76539
   9.86427   3.42216 -16.24423
  10.25333   2.86850 -16.67818
  10.64239   2.31484 -17.15702
  11.03145   1.74622 -17.66578
  11.42050   1.16263 -18.18952
  11.80956   0.57904 -18.75814
  12.18365  -0.01951 -19.28187
  12.43804  -0.64798 -19.76071
  12.66250  -1.29143 -20.16473
  12.91688  -1.88998 -20.49393
  13.18623  -2.48853 -20.86803
  13.51543  -2.93744 -21.13738
  13.85960  -3.37139 -21.39176
  14.15887  -3.77541 -21.66111
  14.36836  -4.13454 -21.88556
  14.53297  -4.44878 -22.05017
  14.66764  -4.62834 -22.18484
  14.72749  -4.83784 -22.24469
  14.78735  -4.94258 -22.25966
  14.77239  -5.04733 -22.15491
  14.68260  -5.03237 -22.02024
  14.56289  -4.97251 -21.85564
  14.45815  -4.82287 -21.60125
  14.33844  -4.71813 -21.36183
  14.24865  -4.47871 -21.13738
  14.20376  -4.26921 -20.77825
  14.14391  -4.05972 -20.38919
  14.06909  -3.79037 -19.98517
  13.99427  -3.49110 -19.59611
  13.97931  -3.28161 -19.23698
  13.99427  -3.02722 -18.87785
  13.97931  -2.77284 -18.50375
  14.02420  -2.51845 -18.17455
  14.09902  -2.26407 -17.83039
  14.18880  -2.06954 -17.44133
  14.35340  -1.78523 -17.06723
  14.59282  -1.51588 -16.67818
  14.87713  -1.24653 -16.33401
  15.20633  -1.02208 -16.01977
  15.59539  -0.79762 -15.61575
  15.96949  -0.58813 -15.19676
  16.38847  -0.45346 -14.74785
  16.85235  -0.28885 -14.25405
  17.34615  -0.15418 -13.77521
  17.81003  -0.03447 -13.23651
  18.37865   0.11517 -12.68285
  18.97720   0.21991 -12.17408
  19.57575   0.24984 -11.60546
  20.21919   0.36955 -11.06677
  20.81774   0.44437 -10.54303
  21.44622   0.48926  -9.98937
  22.19441   0.50423  -9.43572
  23.06231   0.60897  -8.95688
  24.00503   0.69875  -8.37329
  24.87292   0.71372  -7.77474
  25.83060   0.78854  -7.20612
  26.78828   0.87832  -6.66742
  27.76093   0.92321  -6.05391
  28.68868   1.05788  -5.38054
  29.66133   1.13270  -4.75206
  30.63397   1.07285  -4.13854
  31.47194   0.96810  -3.43525
  32.23509   0.90825  -2.86662
  32.93839   0.84839  -2.19326
  33.53694   0.84839  -1.44507
  33.95593   0.75861  -0.78666
  34.40484   0.74365  -0.14322
  34.74901   0.69875   0.54511
  35.01835   0.59401   1.14366
  35.24281   0.56408   1.80207
  35.36252   0.51919   2.55026
  35.42237   0.48926   3.22363
  35.42237   0.51919   3.86707
  35.36252   0.57904   4.54044
  35.31763   0.62394   5.21381
  35.16799   0.69875   5.88717
  35.04828   0.78854   6.62040
  34.82382   0.95314   7.32370
  34.53951   1.19256   7.95217
  34.15046   1.41701   8.62554
  33.61176   1.58162   9.31388
  33.07306   1.73125   9.86754
  32.51941   1.95571  10.45112
  31.78618   2.12031  10.85514
  31.12778   2.31484  11.13945
  30.39455   2.52433  11.46866
  29.49673   2.56922  11.78290
  28.55401   2.65901  12.05224
  27.55144   2.73383  12.23181
  26.38426   2.67397  12.39641
  25.20213   2.67397  12.57598
  23.99006   2.53930  12.74058
  22.83785   2.32980  12.89021
  21.71557   2.12031  13.02489
  20.56336   1.86593  13.08474
  19.44108   1.56665  13.20445
  18.28887   1.11774  13.12963
  17.19651   0.69875  13.09971
  16.08920   0.24984  13.09971
  15.01181  -0.28885  12.93511
  14.02420  -0.78266  12.77050
  13.09644  -1.21661  12.54605
  12.15373  -1.65056  12.21685
  11.30079  -2.05458  11.87268
  10.49275  -2.32393  11.55844
   9.72960  -2.71298  11.22924
   9.05623  -3.05715  10.95989
   8.41279  -3.41628  10.64565
   7.76935  -3.74548  10.36134
   7.21569  -4.01483  10.00221
   6.64706  -4.31411   9.53833
   6.03355  -4.59842   9.17920
   5.46493  -4.82287   8.76022
   4.85141  -5.03237   8.29634
   4.26783  -5.15208   7.86239
   3.69920  -5.36157   7.39851
   3.16051  -5.48128   6.90471
   2.71159  -5.60099   6.45580
   2.23275  -5.69077   5.91710
   1.82873  -5.66084   5.42330
   1.43967  -5.49624   4.83971
   0.99076  -5.34660   4.27109
   0.51192  -5.16704   3.76232
   0.07797  -5.06229   3.19370
  -0.34101  -4.92762   2.69989
  -0.73007  -4.89769   2.16120
  -1.05927  -4.83784   1.54768
  -1.37351  -4.73309   1.03892
  -1.82242  -4.61338   0.48526
  -2.25637  -4.38892   0.02138
  -2.76514  -4.19440  -0.30782
  -3.30384  -4.04476  -0.68192
  -3.78268  -3.88016  -0.95126
  -4.42612  -3.76045  -1.22061
  -5.12942  -3.61081  -1.62463
  -5.84768  -3.34146  -1.92391
  -6.61083  -3.01226  -2.13340
  -7.29916  -2.68306  -2.16333
  -7.98749  -2.38378  -2.28304
  -8.61597  -2.11443  -2.41771
  -9.18459  -1.84508  -2.61224
  -9.78315  -1.56077  -2.85166
 -10.24702  -1.15675  -3.01626
 -10.78572  -0.79762  -3.16590
 -11.24959  -0.48338  -3.36043
 -11.59376  -0.18411  -3.43525
 -11.95289   0.08524  -3.59985
 -12.31202   0.20495  -3.80934
 -12.61130   0.41444  -3.92905
 -13.01532   0.66883  -4.00387
 -13.32956   0.83343  -3.95898
 -13.59890   0.99803  -3.76445
 -13.88322   1.10278  -3.53999
 -14.07774   1.20752  -3.28561
 -14.22738   1.34220  -2.95641
 -14.36206   1.41701  -2.56735
 -14.40695   1.59658  -2.04362
 -14.43687   1.73125  -1.60967
 -14.34709   1.83600  -1.13083
 -14.28724   1.91082  -0.65199
 -14.22738   2.01557  -0.15818
 -14.18249   2.13528   0.41044
 -14.18249   2.29988   0.93417
 -14.13760   2.43455   1.48783
 -14.04782   2.64404   2.08638
 -14.00293   2.82361   2.53529
 -14.04782   2.97325   2.99917
 -14.10767   3.07799   3.41815
 -14.25731   3.19770   3.77728
 -14.43687   3.25756   4.16634
 -14.70622   3.31741   4.67511
 -15.02046   3.33238   5.16891
 -15.36463   3.28748   5.69265
 -15.73872   3.19770   6.15652
 -16.17267   3.13785   6.59047
 -16.69640   3.04806   6.93464
 -17.27999   2.92835   7.30873
 -17.86358   2.73383   7.69779
 -18.47709   2.53930   8.04196
 -19.09060   2.38966   8.40109
 -19.73405   2.28491   8.85000
 -20.42238   2.06046   9.31388
 -21.05086   1.83600   9.73286
 -21.81401   1.65644  10.07703
 -22.63702   1.47687  10.25659
 -23.51988   1.32723  10.37630
 -24.46259   1.14767  10.54090
 -25.28560   0.99803  10.70551
 -26.06372   0.80350  10.87011
 -26.90169   0.59401  11.03471
 -27.63491   0.45933  11.28909
 -28.42799   0.36955  11.45369
 -29.19114   0.18999  11.61830
 -29.87948   0.07028  11.84275
 -30.61270  -0.01951  11.94750
 -31.24118   0.01042  12.15699
 -31.80980   0.04035  12.41137
 -32.24375   0.07028  12.75554
 -32.49813   0.11517  13.17453
 -32.73755   0.16006  13.62344
 -32.81237   0.21991  13.92271
 -32.90216   0.27977  14.11724
 -32.96201   0.39948  14.22199
 -32.99194   0.59401  14.31177
 -32.90216   0.72868  14.37163
 -32.85726   0.78854  14.40155
 -32.78245   0.81846  14.37163
 -32.72259   0.84839  14.29681
 -32.66274   0.92321  14.20703
 -32.58792   0.95314  14.08732
 -32.43828   1.02796  13.87782
 -32.22879   1.14767  13.69826
 -32.01929   1.23745  13.48877
 -31.73498   1.26738  13.23438
 -31.42074   1.22249  13.02489
 -31.13643   1.10278  12.71065
 -30.68752   1.04292  12.30663
 -30.28350   0.93817  11.91757
 -29.84955   0.83343  11.40880
 -29.29589   0.65386  10.92996
