********************************************************************************
               CENTRO DE INSTRUMENTACION Y REGISTRO SISMICO  A.C.  
                       Coordinacion de Servicios Tecnicos
     Anaxagoras 814, Col. Narvarte, Benito Juarez, C.P. 03020 Mexico, D.F.
            Tels. 687 45 42/ 687 45  82             Fax. 669 25 12
********************************************************************************
ARCHIVO ESTANDAR DE ACELERACION:
VERSION DEL FORMATO                    : 2.0
NOMBRE DEL ARCHIVO                     : AR140008.091
FECHA Y HORA DE CREACION               : 20/JUL/04, 10:00
REF. CATALOGO ACELEROGRAMAS, SMIS 1996 : REGISTRO No.     /PAG.


================================================================================
DATOS DE LA ESTACION:
NOMBRE DE LA ESTACION                  : ARAGON
CLAVE DE LA ESTACION                   : AR14
LOCALIZACION DE LA ESTACION            : Esc Prim Jose Ordaz Lopez Puebla 2 y
                                       : Baja California, Col Providencia
                                       : Gustavo A. Madero
                                       :
                                       :
COORDENADAS DE LA ESTACION             : 19.481 LAT. N 
                                       : 99.076 LONG. W 
ALTITUD (msnm)                         : 2232
TIPO DE SUELO                          : ARCILLOSO, ZONA LAGO
                                       : 
                                       : 
INSTITUCION RESPONSABLE                : CIRES
                                       :

================================================================================
DATOS DEL ACELEROGRAFO:
MODELO DEL ACELEROGRAFO                : RAD-851
NUMERO DE SERIE DEL ACELEROGRAFO       : 235
NUMERO DE CANALES                      : 3
ORIENTACION C1-C6 (rumbo;orientacion)  : /N00E/+V/N90W
ORIENTACION C7-C12 (rumbo;orientacion) :
VEL. DE MUESTREO, C1-C6 (muestras/s)   : /100/100/100
VEL. DE MUESTREO, C7-C12 (muestras/s)  :
ESC. COMPLETA DE SENSORES, C1-C6, (g)  : /0.5/0.5/0.5
ESC. COMPLETA DE SENSORES, C7-C12, (g) :
FREC. NAT. DE SENSORES, C1-C6, (Hz)    : /30/30/32
FREC. NAT. DE SENSORES, C7-C12, (Hz)   :
AMORTIGUAMIENTO DE SENSORES, C1-C6     : /0.733/0.790/0.750
AMORTIGUAMIENTO DE SENSORES, C7-C12    :
INTERVALO DE MUESTREO, C1-C6, (s)      : /0.01/0.01/0.01
INTERVALO DE MUESTREO, C7-C12, (s)     :
UMBRAL DE DISPARO, C1-C6, (Gal)        : /1.95/3.42/1.95
UMBRAL DE DISPARO, C7-C12, (Gal)       :
MEMORIA DE PREEVENTO (s)               : 16
TIEMPO DE POSEVENTO (s)                : 64


================================================================================
DATOS DEL SISMO:
FECHA DEL SISMO (GMT)                  : 09/AGO/00
HORA EPICENTRO (GMT)                   : 11:41:47:7
MAGNITUD(ES)                           : /Mb=6.1/Ms=6.5/Mc=0.0/Ma=6.5/Me=7.0
COORDENADAS DEL EPICENTRO              : 17.99 LAT. N
                                       : 102.66 LONG. W
PROFUNDIDAD FOCAL (km)                 : 16.0
FUENTE DE LOS DATOS EPICENTRALES       : SSN
                                       : INSTITUTO DE GEOFISICA, UNAM

================================================================================
DATOS DE ESTE REGISTRO:
HORA DE LA PRIMERA MUESTRA (GMT)       : 11:43:39.00
EXACTITUD DEL TIEMPO (s)               :     
DURACION DEL REGISTRO (s), C1-C6       : /214.75/214.75/214.75
DURACION DEL REGISTRO (s), C7-C12      :
NUM. TOTAL DE MUESTRAS, C1-C6          : /21475/21475/21475
NUM. TOTAL DE MUESTRAS, C7-C12         :
ACEL. MAX. (Gal), C1-C6                : /-16.11908/-4.41926/-18.90453
ACEL. MAX., C1-C6, EN LA MUESTRA       :
ACEL. MAX. (Gal), C7-C12               :
ACEL. MAX., C7-C12, EN LA MUESTRA      :
UNIDADES DE LOS DATOS                  : Gal (cm/s/s)
FACTOR DE DECIMACION                   : 1
FORMATO DATOS (FORTRAN,10 campos/dato) : 3F10.5


================================================================================
CALIDAD DEL ACELEROGRAMA:
REGISTRO DIGITAL COMPLETO, CARECE DE TIEMPO ABSOLUTO.


================================================================================
COMENTARIOS:














================================================================================
DATOS DE ACELERACION:
---------+---------+---------+---------+---------+---------+---------+---------+
   CANAL-1   CANAL-2   CANAL-3   CANAL-4   CANAL-5   CANAL-6   CANAL-7   CANAL-8
      N00E        +V      N90W
---------+---------+---------+---------+---------+---------+---------+---------+
[...]
 -12.52779   0.36912 -14.59499
 -12.52779   0.36912 -14.59499
 -12.52779   0.36912 -14.59499
 -12.52779   0.36912 -14.59499
 -12.52779   0.12970 -14.59499
 -12.52779   0.12970 -14.59499
 -12.52779   0.12970 -14.59499
 -12.52779   0.12970 -14.59499
 -12.52779   0.12970 -14.83441
 -12.52779   0.36912 -14.59499
 -12.28837   0.36912 -15.07383
 -12.52779   0.36912 -14.83441
 -12.28837   0.36912 -15.31325
 -12.28837   0.60854 -15.07383
 -12.28837   0.36912 -15.07383
 -12.04895   0.36912 -15.31325
 -12.04895   0.12970 -15.07383
 -12.04895   0.36912 -15.31325
 -11.80954   0.12970 -15.31325
 -11.80954   0.36912 -15.31325
 -11.80954   0.12970 -15.55267
 -11.80954   0.36912 -15.55267
 -11.57012   0.36912 -15.55267
 -11.57012   0.12970 -15.55267
 -11.33070   0.12970 -15.79208
 -11.33070   0.12970 -15.79208
 -11.33070   0.12970 -15.55267
 -11.09128   0.12970 -15.79208
 -11.09128   0.12970 -15.79208
 -11.09128   0.12970 -15.79208
 -10.85186  -0.10971 -15.79208
 -10.85186   0.12970 -15.79208
 -10.61244   0.12970 -15.55267
 -10.37302  -0.10971 -15.79208
 -10.37302   0.12970 -15.55267
 -10.13360  -0.10971 -15.55267
  -9.89418  -0.10971 -15.07383
  -9.65477  -0.10971 -15.07383
  -9.41535  -0.10971 -14.59499
  -9.17593  -0.10971 -14.59499
  -8.93651   0.12970 -14.11615
  -8.69709   0.12970 -13.63731
  -8.69709   0.12970 -13.15848
  -8.21825   0.12970 -12.67964
  -8.21825   0.12970 -12.20080
  -7.97883   0.12970 -11.72196
  -7.49999   0.12970 -11.48254
  -7.49999   0.36912 -11.24312
  -7.26058   0.36912 -11.00371
  -7.02116   0.60854 -10.52487
  -7.02116   0.36912 -10.28545
  -6.78174   0.60854 -10.04603
  -6.54232   0.60854  -9.80661
  -6.54232   0.60854  -9.56719
  -6.30290   0.84796  -9.32777
  -6.06348   0.60854  -9.08835
  -5.82406   0.60854  -8.84894
  -5.82406   0.60854  -8.60952
  -5.58464   0.36912  -8.37010
  -5.34522   0.84796  -8.13068
  -5.34522   0.60854  -7.89126
  -5.10581   0.84796  -7.65184
  -4.86639   0.84796  -7.41242
  -4.62697   0.84796  -7.17300
  -4.38755   0.84796  -7.17300
  -4.38755   1.08738  -6.69416
  -4.14813   0.84796  -6.69416
  -3.90871   1.08738  -6.45475
  -3.66929   1.08738  -5.97591
  -3.42987   1.08738  -5.97591
  -3.42987   1.08738  -5.73649
  -3.19045   1.08738  -5.49707
  -2.95103   0.84796  -5.25765
  -2.71162   1.08738  -5.01823
  -2.71162   1.08738  -4.77881
  -2.23278   0.84796  -4.53939
  -2.23278   0.84796  -4.29998
  -1.75394   0.84796  -4.06056
  -1.51452   0.84796  -3.58172
  -1.27510   0.60854  -3.34230
  -1.03568   0.60854  -3.10288
  -0.55685   0.36912  -2.86346
  -0.31743   0.36912  -2.62404
   0.16141   0.36912  -1.90579
   0.64025   0.12970  -1.90579
   0.87967  -0.10971  -1.42695
   1.11909  -0.10971  -1.18753
   1.83734  -0.34913  -0.94811
   2.07676  -0.34913  -0.46927
   2.55560  -0.58855  -0.22985
   3.03444  -0.82797   0.00957
   3.51328  -1.06739   0.24898
   3.99211  -1.06739   0.72782
   4.47095  -1.30681   1.20666
   4.94979  -1.78565   1.44608
   5.18921  -1.78565   1.92492
   5.66805  -2.02507   2.16434
   6.14688  -2.26449   2.64317
   6.38630  -2.50390   3.36143
   6.38630  -2.50390   3.60085
   7.10456  -2.74332   4.07969
   7.34398  -2.98274   4.55853
   7.58340  -2.98274   5.03736
   7.82282  -3.22216   5.51620
   8.06224  -3.22216   5.75562
   8.30166  -3.46158   6.47388
   8.54107  -3.46158   6.71330
   8.78049  -3.70100   7.19213
   8.78049  -3.70100   7.67097
   9.01991  -3.94042   8.14981
   9.25933  -3.94042   8.38923
   9.25933  -4.17984   8.86807
   9.25933  -4.17984   9.34690
   9.25933  -4.17984   9.58632
   9.49875  -4.41926  10.06516
   9.49875  -4.17984  10.30458
   9.25933  -4.17984  10.54400
   9.49875  -4.17984  11.02284
   9.49875  -4.17984  11.26226
   9.49875  -4.17984  11.50167
   9.25933  -4.17984  11.74109
   9.25933  -3.94042  11.74109
   9.01991  -3.94042  11.98051
   9.01991  -3.70100  11.98051
   8.78049  -3.46158  12.45935
   8.78049  -3.46158  12.45935
   8.78049  -3.46158  12.45935
   8.54107  -3.22216  12.69877
   8.54107  -2.98274  12.69877
   8.30166  -2.74332  12.69877
   8.30166  -2.74332  12.69877
   8.06224  -2.26449  12.69877
   8.06224  -2.02507  12.69877
   8.06224  -2.02507  12.69877
   8.06224  -1.78565  12.69877
   7.82282  -1.54623  12.69877
   7.82282  -1.30681  12.69877
   7.58340  -1.06739  12.69877
   7.58340  -0.82797  12.45935
   7.58340  -0.58855  12.45935
   7.34398  -0.34913  12.45935
   7.58340  -0.10971  12.21993
   7.34398   0.12970  12.21993
   7.34398   0.36912  12.45935
   7.34398   0.60854  12.21993
   7.34398   0.60854  12.21993
   7.34398   0.84796  12.21993
   7.34398   1.08738  12.45935
   7.10456   1.08738  12.45935
   7.10456   1.32680  12.69877
   7.34398   1.32680  12.69877
   7.10456   1.56622  12.93819
   7.10456   1.56622  12.93819
   7.10456   1.80564  12.93819
   7.34398   1.80564  13.17761
   7.10456   1.80564  13.17761
   7.10456   1.56622  13.41703
   7.34398   1.80564  13.41703
   7.34398   1.80564  13.65645
   7.34398   2.04506  13.89586
   7.34398   1.80564  13.89586
   7.34398   1.56622  14.13528
   7.58340   1.56622  14.37470
   7.58340   1.56622  14.61412
   7.82282   1.32680  15.09296
   7.82282   1.32680  15.09296
   8.06224   1.08738  15.33238
   8.06224   1.08738  15.33238
   8.30166   0.84796  15.57180
   8.30166   0.60854  15.81122
   8.30166   0.60854  15.81122
   8.30166   0.60854  15.81122
   8.54107   0.36912  16.05063
   8.54107   0.12970  16.05063
   8.78049   0.12970  16.05063
   8.78049   0.12970  16.05063
   8.78049  -0.10971  16.05063
   8.78049  -0.10971  16.05063
   8.78049  -0.10971  16.29005
   8.78049  -0.10971  16.29005
   9.01991  -0.10971  16.05063
   8.78049  -0.10971  16.05063
   8.78049  -0.34913  16.05063
   9.01991  -0.10971  16.29005
   8.78049  -0.34913  16.29005
   8.78049  -0.58855  16.29005
   8.54107  -0.58855  16.05063
   8.78049  -0.58855  16.29005
   8.78049  -0.58855  16.29005
   8.78049  -0.58855  16.52947
   8.54107  -0.58855  16.52947
   8.54107  -0.82797  16.52947
   8.54107  -0.82797  16.52947
   8.54107  -0.82797  16.52947
   8.30166  -0.82797  16.52947
   8.06224  -0.58855  16.52947
   8.06224  -0.82797  16.29005
   7.82282  -0.82797  16.29005
   7.58340  -0.82797  16.05063
   7.58340  -0.82797  15.81122
   7.58340  -0.82797  15.57180
   7.34398  -0.82797  15.57180
   7.10456  -0.82797  15.33238
   6.86514  -0.82797  15.09296
   6.38630  -1.06739  14.61412
   6.38630  -0.82797  14.37470
   5.90747  -0.82797  14.13528
   5.90747  -0.82797  13.89586
   5.66805  -0.82797  13.41703
   5.42863  -0.82797  13.17761
   5.18921  -0.82797  12.93819
   4.94979  -0.82797  12.45935
   4.71037  -0.58855  11.98051
   4.47095  -0.58855  11.74109
   4.47095  -0.58855  11.26226
   4.23153  -0.58855  11.02284
   3.99211  -0.34913  10.30458
   3.75270  -0.10971  10.06516
   3.75270  -0.10971   9.34690
   3.51328  -0.10971   9.10749
   3.51328  -0.10971   8.62865
   3.27386   0.12970   8.38923
   3.27386   0.12970   7.91039
   3.03444   0.36912   7.67097
   3.03444   0.36912   7.19213
   3.03444   0.36912   6.71330
   3.03444   0.36912   6.47388
   2.79502   0.60854   6.23446
   2.79502   0.60854   5.75562
   2.79502   0.60854   5.27678
   2.79502   0.60854   5.03736
   2.79502   0.60854   4.79794
   3.03444   0.84796   4.55853
   2.79502   0.84796   4.07969
   2.79502   0.84796   3.84027
   2.79502   0.84796   3.60085
   2.79502   1.08738   3.36143
   2.79502   1.32680   3.12201
   2.79502   1.08738   2.88259
   2.55560   1.08738   2.40376
   2.55560   1.32680   2.40376
   2.31618   1.32680   2.16434
   2.31618   1.32680   1.68550
   2.07676   1.32680   1.68550
   2.07676   1.32680   1.20666
   2.07676   1.56622   0.96724
   1.83734   1.56622   0.72782
   1.83734   1.56622   0.72782
   1.59792   1.80564   0.24898
   1.35851   1.80564   0.24898
   1.35851   1.80564   0.00957
   1.11909   1.80564  -0.22985
   0.87967   2.04506  -0.46927
   0.64025   1.80564  -0.46927
   0.40083   1.80564  -0.70869
   0.16141   1.80564  -0.94811
  -0.07801   1.80564  -1.18753
  -0.31743   2.04506  -1.42695
  -0.55685   2.04506  -1.42695
  -0.55685   1.80564  -1.66637
  -0.79626   2.04506  -1.90579
  -1.03568   1.80564  -2.14520
  -1.03568   1.80564  -2.38462
  -1.27510   1.80564  -2.62404
  -1.27510   1.80564  -2.86346
  -1.51452   1.56622  -3.10288
  -1.75394   1.80564  -3.34230
  -1.75394   1.56622  -3.34230
  -1.99336   1.56622  -3.58172
  -1.99336   1.56622  -3.82114
  -1.99336   1.56622  -4.29998
  -2.23278   1.56622  -4.29998
  -2.23278   1.56622  -4.77881
  -2.23278   1.32680  -5.01823
  -2.47220   1.56622  -5.25765
  -2.47220   1.32680  -5.49707
  -2.47220   1.56622  -5.73649
  -2.71162   1.32680  -5.97591
  -2.71162   1.32680  -6.45475
  -2.71162   1.32680  -6.69416
  -2.71162   1.32680  -6.93358
  -2.95103   1.32680  -7.17300
  -2.95103   1.08738  -7.65184
  -2.95103   1.32680  -7.89126
  -2.95103   1.08738  -8.37010
  -2.71162   1.08738  -8.60952
  -2.71162   1.32680  -8.84894
  -2.71162   1.32680  -9.32777
  -2.47220   1.08738  -9.56719
  -2.47220   1.08738  -9.80661
  -2.47220   1.08738 -10.28545
  -2.47220   1.08738 -10.52487
  -2.23278   1.08738 -11.00371
  -2.23278   1.32680 -11.00371
  -2.23278   1.08738 -11.48254
  -1.99336   1.32680 -11.72196
  -1.99336   1.32680 -12.20080
  -2.23278   1.32680 -12.44022
  -1.99336   1.32680 -12.44022
  -1.99336   1.32680 -12.91906
  -1.99336   1.32680 -13.15848
  -1.99336   1.32680 -13.39790
  -1.99336   1.56622 -13.87673
  -1.75394   1.56622 -14.11615
  -1.99336   1.56622 -14.35557
  -1.75394   1.32680 -14.83441
  -1.75394   1.32680 -15.07383
  -1.75394   1.32680 -15.31325
  -1.75394   1.56622 -15.55267
  -1.99336   1.32680 -16.03150
  -1.99336   1.32680 -16.27092
  -1.99336   1.08738 -16.51034
  -1.99336   1.32680 -16.74976
  -2.23278   1.08738 -16.98918
  -2.23278   1.32680 -17.22860
  -2.23278   1.32680 -17.46802
  -2.47220   1.32680 -17.46802
  -2.47220   1.08738 -17.94686
  -2.71162   1.08738 -17.70744
  -2.71162   1.08738 -17.94686
  -2.71162   1.08738 -17.94686
  -2.71162   1.32680 -18.18627
  -2.95103   1.32680 -18.18627
  -3.19045   1.32680 -18.42569
  -3.19045   1.56622 -18.18627
  -3.19045   1.56622 -18.42569
  -3.19045   1.80564 -18.42569
  -3.42987   1.80564 -18.42569
  -3.66929   2.04506 -18.42569
  -3.66929   2.04506 -18.66511
  -3.90871   2.04506 -18.42569
  -4.14813   2.04506 -18.42569
  -4.14813   2.28447 -18.42569
  -4.14813   2.52389 -18.42569
  -4.38755   2.52389 -18.42569
  -4.62697   2.52389 -18.66511
  -4.86639   2.52389 -18.42569
  -4.86639   2.76331 -18.42569
  -4.86639   2.76331 -18.42569
  -4.86639   3.00273 -18.42569
  -4.86639   3.00273 -18.42569
  -5.10581   3.00273 -18.42569
  -4.86639   3.00273 -18.42569
  -5.10581   3.00273 -18.42569
  -5.34522   2.76331 -18.42569
  -5.34522   3.00273 -18.42569
  -5.34522   2.76331 -18.66511
  -5.58464   2.52389 -18.66511
  -5.34522   2.52389 -18.66511
  -5.58464   2.76331 -18.90453
  -5.34522   2.52389 -18.66511
  -5.58464   2.52389 -18.66511
  -5.34522   2.28447 -18.42569
  -5.34522   2.28447 -18.42569
  -5.34522   2.04506 -18.42569
  -5.34522   2.04506 -18.18627
  -5.34522   2.04506 -18.18627
  -5.34522   2.04506 -17.70744
  -5.10581   1.80564 -17.70744
  -5.10581   1.80564 -16.98918
  -5.10581   1.32680 -16.74976
  -5.10581   1.32680 -15.79208
  -5.10581   0.84796 -15.31325
  -4.86639   0.60854 -14.35557
  -4.86639   0.12970 -13.63731
  -4.86639  -0.34913 -12.91906
  -5.10581  -0.58855 -11.96138
  -4.86639  -1.06739 -11.24312
  -5.10581  -1.06739 -10.52487
  -5.10581  -1.54623  -9.80661
  -5.34522  -1.78565  -9.08835
  -5.34522  -2.02507  -8.37010
  -5.34522  -2.26449  -7.89126
  -5.58464  -2.50390  -7.41242
  -5.58464  -2.74332  -6.93358
  -5.82406  -2.98274  -6.69416
  -6.30290  -2.98274  -6.21533
  -6.30290  -3.22216  -5.97591
  -6.54232  -3.22216  -5.49707
  -6.78174  -3.22216  -5.25765
  -7.02116  -3.46158  -5.01823
  -7.26058  -3.46158  -5.01823
  -7.49999  -3.46158  -4.53939
  -7.49999  -3.70100  -4.29998
  -7.97883  -3.70100  -4.06056
  -8.21825  -3.70100  -3.82114
  -8.21825  -3.94042  -3.58172
  -8.21825  -3.94042  -3.10288
  -8.45767  -3.94042  -2.86346
  -8.45767  -3.94042  -2.86346
  -8.69709  -3.94042  -2.38462
  -8.69709  -3.70100  -1.90579
  -8.69709  -3.70100  -1.90579
  -8.69709  -3.70100  -1.42695
  -8.69709  -3.70100  -1.42695
  -8.69709  -3.70100  -1.42695
  -8.69709  -3.70100  -0.94811
  -8.69709  -3.70100  -0.70869
  -8.69709  -3.70100  -0.70869
  -8.69709  -3.70100  -0.22985
  -8.69709  -3.46158   0.00957
  -8.45767  -3.46158   0.00957
  -8.21825  -3.46158   0.24898
  -8.21825  -3.22216   0.48840
  -7.97883  -3.46158   0.48840
  -7.73941  -3.46158   0.72782
  -7.73941  -3.46158   0.72782
  -7.49999  -3.46158   0.96724
  -7.26058  -3.46158   0.96724
  -7.02116  -3.46158   1.20666
  -7.02116  -3.46158   1.20666
  -6.78174  -3.46158   1.20666
  -6.54232  -3.46158   1.20666
  -6.30290  -3.46158   1.44608
  -6.06348  -3.70100   1.44608
  -5.82406  -3.46158   1.44608
  -5.58464  -3.46158   1.44608
  -5.58464  -3.46158   1.68550
  -5.34522  -3.46158   1.68550
  -5.34522  -3.46158   1.92492
  -5.34522  -3.46158   2.16434
  -5.10581  -3.46158   2.16434
  -5.10581  -3.46158   2.40376
  -5.10581  -3.22216   2.64317
  -4.86639  -3.46158   2.64317
  -4.86639  -3.22216   2.88259
  -5.10581  -3.22216   3.12201
  -4.86639  -3.22216   3.36143
  -4.86639  -3.22216   3.36143
  -5.10581  -3.22216   3.84027
  -5.10581  -2.98274   4.07969
  -4.86639  -3.22216   4.31911
  -5.10581  -3.22216   4.55853
  -5.10581  -2.74332   4.79794
  -5.34522  -2.98274   5.03736
  -5.34522  -2.98274   5.27678
  -5.58464  -2.74332   5.51620
  -5.58464  -2.74332   5.99504
  -5.58464  -2.50390   6.23446
  -5.34522  -2.50390   6.71330
  -5.34522  -2.26449   6.95272
  -5.58464  -2.26449   7.43155
  -5.58464  -2.02507   7.67097
  -5.58464  -2.02507   7.67097
  -5.58464  -1.78565   8.38923
  -5.34522  -1.54623   8.62865
  -5.58464  -1.54623   8.62865
  -5.10581  -1.30681   8.86807
  -5.34522  -1.06739   9.10749
  -5.34522  -0.82797   9.58632
  -5.10581  -0.58855   9.58632
  -4.86639  -0.58855   9.82574
  -4.86639  -0.10971  10.06516
  -4.86639  -0.10971  10.06516
  -4.62697  -0.10971  10.30458
  -4.62697   0.12970  10.30458
  -4.38755   0.12970  10.30458
  -4.38755   0.36912  10.54400
  -4.14813   0.36912  10.54400
  -3.90871   0.36912  10.54400
  -3.90871   0.60854  10.54400
  -3.66929   0.60854  10.54400
  -3.42987   0.60854  10.54400
  -3.19045   0.60854  10.54400
  -2.95103   0.84796  10.78342
  -2.95103   0.60854  10.78342
  -2.71162   0.60854  10.78342
  -2.47220   0.60854  10.78342
  -2.23278   0.60854  10.78342
  -1.99336   0.60854  11.02284
  -1.99336   0.60854  11.02284
  -1.75394   0.60854  11.02284
  -1.51452   0.36912  11.02284
  -1.27510   0.36912  11.02284
  -1.03568   0.36912  11.02284
  -0.79626   0.36912  11.26226
  -0.55685   0.12970  11.26226
  -0.07801   0.12970  11.50167
   0.16141   0.12970  11.50167
   0.40083  -0.10971  11.74109
   0.64025  -0.10971  11.74109
   0.87967  -0.34913  11.98051
   1.11909  -0.34913  12.21993
   1.35851  -0.58855  12.21993
   1.59792  -0.58855  12.45935
   1.59792  -0.34913  12.45935
   1.83734  -0.58855  12.69877
   2.07676  -0.58855  12.69877
   2.07676  -0.58855  12.93819
   2.31618  -0.58855  13.41703
   2.55560  -0.82797  13.41703
   2.55560  -0.58855  13.65645
   2.79502  -0.58855  13.89586
   2.79502  -0.58855  14.13528
   3.03444  -0.58855  14.13528
   3.27386  -0.82797  14.13528
   3.27386  -0.58855  14.13528
   3.51328  -0.58855  14.37470
   3.51328  -0.58855  14.37470
