********************************************************************************
               CENTRO DE INSTRUMENTACION Y REGISTRO SISMICO  A.C.  
                       Coordinacion de Servicios Tecnicos
     Anaxagoras 814, Col. Narvarte, Benito Juarez, C.P. 03020 Mexico, D.F.
            Tels. 687 45 42/ 687 45  82             Fax. 669 25 12
********************************************************************************
ARCHIVO ESTANDAR DE ACELERACION:
VERSION DEL FORMATO                    : 2.0
NOMBRE DEL ARCHIVO                     : AR149607.151
FECHA Y HORA DE CREACION               : 27/MAR/98,11:41
REF. CATALOGO ACELEROGRAMAS, SMIS 1996 : REGISTRO No.     /PAG.


================================================================================
DATOS DE LA ESTACION:
NOMBRE DE LA ESTACION                  : ARAGON
CLAVE DE LA ESTACION                   : AR14
LOCALIZACION DE LA ESTACION            : Esc Prim Jose Ordaz Lopez Puebla 2 y
                                       : Baja California, Col Providencia
                                       : Gustavo A. Madero
                                       :
                                       :
COORDENADAS DE LA ESTACION             : 19.481 LAT. N 
                                       : 99.076 LONG. W 
ALTITUD (msnm)                         : 2232
TIPO DE SUELO                          : ARCILLOSO, ZONA LAGO
                                       : 
                                       : 
INSTITUCION RESPONSABLE                : CIRES
                                       :

================================================================================
DATOS DEL ACELEROGRAFO:
MODELO DEL ACELEROGRAFO                : DCA-333
NUMERO DE SERIE DEL ACELEROGRAFO       : 235
NUMERO DE CANALES                      : 3
ORIENTACION C1-C6 (rumbo;orientacion)  : /N00E/+V/N90W
ORIENTACION C7-C12 (rumbo;orientacion) :
VEL. DE MUESTREO, C1-C6 (muestras/s)   : /100/100/100
VEL. DE MUESTREO, C7-C12 (muestras/s)  :
ESC. COMPLETA DE SENSORES, C1-C6, (g)  : /0.5/0.5/0.5
ESC. COMPLETA DE SENSORES, C7-C12, (g) :
FREC. NAT. DE SENSORES, C1-C6, (Hz)    : /30/30/32
FREC. NAT. DE SENSORES, C7-C12, (Hz)   :
AMORTIGUAMIENTO DE SENSORES, C1-C6     : /0.733/0.790/0.750
AMORTIGUAMIENTO DE SENSORES, C7-C12    :
INTERVALO DE MUESTREO, C1-C6, (s)      : /0.01/0.01/0.01
INTERVALO DE MUESTREO, C7-C12, (s)     :
UMBRAL DE DISPARO, C1-C6, (Gal)        : /2.9/2.9/2.9
UMBRAL DE DISPARO, C7-C12, (Gal)       :
MEMORIA DE PREEVENTO (s)               : 4
TIEMPO DE POSEVENTO (s)                : 15


================================================================================
DATOS DEL SISMO:
FECHA DEL SISMO (GMT)                  : 15/JUL/96
HORA EPICENTRO (GMT)                   : 21:23:38:5
MAGNITUD(ES)                           : /Ms=6.5
COORDENADAS DEL EPICENTRO              : 17.4 LAT. N
                                       : 101.1 LONG. W
PROFUNDIDAD FOCAL (km)                 : 20.0
FUENTE DE LOS DATOS EPICENTRALES       : SSN
                                       : INSTITUTO DE GEOFISICA, UNAM

================================================================================
DATOS DE ESTE REGISTRO:
HORA DE LA PRIMERA MUESTRA (GMT)       : 21:25:07.81
EXACTITUD DEL TIEMPO (s)               : 0.01
DURACION DEL REGISTRO (s), C1-C6       : /91.64/91.64/91.64
DURACION DEL REGISTRO (s), C7-C12      :
NUM. TOTAL DE MUESTRAS, C1-C6          : /9164/9164/9164
NUM. TOTAL DE MUESTRAS, C7-C12         :
ACEL. MAX. (Gal), C1-C6                : /5.77801/3.22171/7.07733
ACEL. MAX., C1-C6, EN LA MUESTRA       :
ACEL. MAX. (Gal), C7-C12               :
ACEL. MAX., C7-C12, EN LA MUESTRA      :
UNIDADES DE LOS DATOS                  : Gal (cm/s/s)
FACTOR DE DECIMACION                   : 1
FORMATO DATOS (FORTRAN,10 campos/dato) : 3F10.5


================================================================================
CALIDAD DEL ACELEROGRAMA:
REGISTRO DIGITAL COMPLETO CON TIEMPO ABSOLUTO CORRECTO.


================================================================================
COMENTARIOS:














================================================================================
DATOS DE ACELERACION:
---------+---------+---------+---------+---------+---------+---------+---------+
   CANAL-1   CANAL-2   CANAL-3   CANAL-4   CANAL-5   CANAL-6   CANAL-7   CANAL-8
      N00E        +V      N90W
---------+---------+---------+---------+---------+---------+---------+---------+
[...]
   3.38382  -0.36958  -1.06291
   3.38382  -0.13016  -1.30233
   3.38382  -0.13016  -1.30233
   3.62324   0.34868  -1.06291
   3.62324   0.34868  -1.06291
   3.62324   0.58810  -1.06291
   3.62324   0.58810  -0.82349
   3.62324   0.58810  -0.82349
   3.38382   0.82752  -0.82349
   3.38382   0.82752  -0.58407
   3.14440   0.82752  -0.34465
   2.90498   0.82752  -0.34465
   2.42614   1.06693  -0.10524
   2.18672   1.06693  -0.34465
   1.94730   1.30635   0.13418
   1.46847   1.30635  -0.10524
   0.98963   1.30635   0.13418
   0.75021   1.30635   0.13418
   0.27137   1.30635   0.13418
  -0.20747   1.30635   0.13418
  -0.20747   1.30635   0.13418
  -0.44689   1.30635   0.13418
  -0.92572   1.30635   0.13418
  -0.92572   1.30635  -0.10524
  -1.16514   1.30635   0.13418
  -1.40456   1.06693   0.13418
  -1.40456   1.06693  -0.10524
  -1.40456   0.82752  -0.10524
  -1.64398   0.82752  -0.10524
  -1.64398   0.82752  -0.10524
  -1.88340   0.82752  -0.10524
  -2.12282   0.82752  -0.10524
  -1.88340   0.34868  -0.10524
  -2.12282   0.82752  -0.10524
  -2.12282   0.82752  -0.10524
  -2.12282   0.82752  -0.34465
  -2.12282   0.58810  -0.34465
  -2.12282   0.58810  -0.34465
  -2.12282   0.10926  -0.34465
  -2.12282   0.34868  -0.58407
  -2.12282   0.10926  -0.82349
  -2.12282  -0.13016  -0.82349
  -1.88340  -0.36958  -0.82349
  -1.88340  -0.36958  -1.06291
  -1.64398  -0.36958  -1.06291
  -1.64398  -0.36958  -1.06291
  -1.40456  -0.84842  -1.30233
  -1.16514  -0.84842  -1.30233
  -0.92572  -1.08784  -1.30233
  -0.68630  -1.08784  -1.54175
  -0.44689  -1.32725  -1.54175
  -0.20747  -1.32725  -1.78117
   0.03195  -1.56667  -1.78117
   0.03195  -1.56667  -1.78117
   0.27137  -1.80609  -1.78117
   0.27137  -1.80609  -2.02059
   0.27137  -1.80609  -2.02059
   0.27137  -1.80609  -2.02059
   0.27137  -2.04551  -2.26001
   0.27137  -1.56667  -2.26001
   0.03195  -1.56667  -2.26001
  -0.20747  -1.32725  -2.26001
  -0.44689  -1.32725  -2.02059
  -0.68630  -1.08784  -2.02059
  -0.68630  -1.08784  -1.78117
  -0.92572  -0.84842  -1.54175
  -1.16514  -0.84842  -1.30233
  -1.16514  -0.60900  -1.06291
  -1.40456  -0.60900  -0.82349
  -1.64398  -0.36958  -0.34465
  -1.88340  -0.36958  -0.10524
  -2.12282  -0.13016   0.13418
  -2.36224   0.10926   0.37360
  -2.60166   0.10926   0.61302
  -2.84108   0.34868   0.85244
  -3.31991   0.58810   1.09186
  -3.55933   1.06693   1.09186
  -3.79875   1.06693   1.33128
  -4.03817   1.06693   1.33128
  -4.03817   1.30635   1.57070
  -4.03817   1.30635   1.57070
  -4.27759   1.54577   1.81012
  -4.27759   1.54577   2.04953
  -4.27759   1.54577   2.28895
  -4.03817   1.54577   2.28895
  -4.03817   1.54577   2.52837
  -3.79875   1.54577   2.76779
  -3.55933   1.30635   3.00721
  -4.03817   1.54577   3.00721
  -3.31991   1.54577   3.24663
  -3.08049   1.30635   3.24663
  -3.08049   1.30635   3.24663
  -2.60166   1.54577   3.24663
  -2.36224   1.30635   3.24663
  -2.12282   1.30635   3.00721
  -1.88340   1.30635   2.76779
  -1.64398   1.06693   2.76779
  -1.64398   1.06693   2.52837
  -1.16514   0.82752   2.28895
  -0.92572   0.82752   2.28895
  -0.44689   0.82752   2.04953
  -0.20747   0.58810   2.04953
   0.27137  -0.13016   1.81012
   0.75021   0.34868   1.81012
   0.98963  -0.13016   1.57070
   1.22905  -0.13016   1.57070
   1.70788  -0.36958   1.33128
   1.70788  -0.36958   1.09186
   2.18672  -0.84842   0.85244
   2.18672  -1.08784   0.61302
   2.42614  -1.32725   0.37360
   2.42614  -1.32725   0.13418
   2.42614  -1.56667   0.13418
   2.42614  -1.80609   0.13418
   2.42614  -1.80609  -0.10524
   2.42614  -2.04551  -0.10524
   2.18672  -2.28493  -0.34465
   1.94730  -2.04551  -0.34465
   1.70788  -2.28493  -0.34465
   1.22905  -2.28493  -0.58407
   0.98963  -2.28493  -0.58407
   0.51079  -2.28493  -0.82349
   0.03195  -2.04551  -0.82349
  -0.44689  -2.04551  -1.06291
  -0.92572  -1.80609  -1.30233
  -1.16514  -1.56667  -1.54175
  -1.64398  -1.56667  -1.78117
  -2.12282  -1.56667  -2.02059
  -2.36224  -1.32725  -2.49943
  -2.60166  -1.08784  -2.73884
  -2.84108  -0.84842  -2.97826
  -3.08049  -0.60900  -3.21768
  -3.31991  -0.36958  -3.45710
  -3.55933  -0.13016  -3.69652
  -3.55933   0.10926  -3.69652
  -3.79875   0.34868  -3.69652
  -3.55933   0.82752  -3.93594
  -3.55933   0.82752  -3.69652
  -3.55933   1.30635  -3.69652
  -3.55933   1.30635  -3.69652
  -3.31991   1.78519  -3.69652
  -3.31991   1.78519  -3.69652
  -3.08049   2.26403  -3.69652
  -2.84108   2.26403  -3.69652
  -2.60166   2.50345  -3.45710
  -2.36224   2.50345  -3.21768
  -1.88340   2.74287  -3.21768
  -1.64398   2.74287  -2.97826
  -1.40456   2.98229  -2.73884
  -0.92572   2.74287  -2.49943
  -0.44689   2.74287  -2.26001
  -0.20747   2.26403  -1.78117
   0.27137   2.50345  -1.54175
   0.51079   2.26403  -1.30233
   0.98963   2.26403  -1.06291
   1.46847   2.02461  -1.06291
   1.70788   2.02461  -0.82349
   1.94730   1.54577  -0.58407
   2.42614   1.54577  -0.34465
   2.66556   1.06693  -0.10524
   3.14440   0.82752   0.13418
   3.62324   0.34868   0.37360
   3.62324   0.58810   0.61302
   4.10207   0.10926   0.85244
   4.34149  -0.13016   1.09186
   4.58091  -0.36958   1.57070
   4.82033  -0.36958   1.81012
   5.05975  -0.60900   2.04953
   5.05975  -0.84842   2.52837
   5.05975  -1.08784   2.52837
   4.82033  -1.08784   3.00721
   4.82033  -1.32725   3.24663
   4.82033  -1.56667   3.48605
   4.58091  -1.32725   3.72547
   4.34149  -1.56667   3.96489
   4.10207  -1.56667   3.96489
   3.86266  -1.56667   4.20431
   3.38382  -1.80609   4.44372
   3.38382  -1.80609   4.44372
   2.90498  -1.80609   4.68314
   2.66556  -1.80609   4.92256
   2.18672  -1.80609   5.16198
   1.94730  -1.80609   5.16198
   1.46847  -1.80609   5.16198
   1.46847  -1.80609   5.16198
   0.98963  -1.80609   5.16198
   0.98963  -1.80609   4.92256
   0.51079  -1.80609   4.92256
   0.27137  -1.80609   4.68314
   0.27137  -1.80609   4.20431
  -0.20747  -2.04551   3.96489
  -0.20747  -1.56667   3.72547
  -0.44689  -1.32725   3.24663
  -0.68630  -1.32725   3.00721
  -0.68630  -1.08784   2.52837
  -0.68630  -0.84842   2.04953
  -0.68630  -0.60900   1.81012
  -0.92572  -0.36958   1.57070
  -0.92572  -0.36958   1.33128
  -1.16514  -0.13016   1.09186
  -1.16514   0.10926   0.61302
  -1.40456   0.58810   0.61302
  -1.64398   0.58810   0.37360
  -1.64398   0.82752   0.13418
  -1.88340   1.06693  -0.10524
  -1.88340   1.30635  -0.10524
  -2.36224   1.30635  -0.34465
  -2.12282   1.30635  -0.58407
  -2.12282   1.30635  -0.58407
  -2.12282   1.54577  -0.58407
  -2.12282   1.54577  -0.82349
  -2.12282   1.54577  -0.82349
  -1.88340   1.54577  -0.82349
  -1.64398   1.54577  -0.82349
  -1.40456   1.54577  -0.58407
  -1.16514   1.78519  -0.58407
  -0.92572   1.78519  -0.58407
  -0.92572   1.78519  -0.58407
  -0.68630   1.54577  -0.34465
  -0.44689   1.54577  -0.58407
  -0.20747   1.54577  -0.34465
   0.03195   1.30635  -0.34465
   0.27137   1.30635  -0.34465
   0.51079   1.06693  -0.34465
   0.51079   1.06693  -0.58407
   0.75021   0.82752  -0.34465
   0.98963   0.82752  -0.34465
   1.22905   0.58810  -0.34465
   1.46847   0.58810  -0.34465
   1.46847   0.34868  -0.34465
   1.70788  -0.13016  -0.10524
   1.70788   0.10926  -0.34465
   1.94730  -0.13016  -0.10524
   1.94730  -0.36958  -0.10524
   1.94730  -0.36958  -0.10524
   2.42614  -0.60900  -0.10524
   2.42614  -0.84842  -0.10524
   2.66556  -1.08784  -0.10524
   2.66556  -1.32725  -0.10524
   2.90498  -1.32725  -0.10524
   2.90498  -1.56667  -0.34465
   3.14440  -1.56667  -0.34465
   3.14440  -1.56667  -0.34465
   3.38382  -1.80609  -0.34465
   3.14440  -1.80609  -0.58407
   3.14440  -1.56667  -0.34465
   3.14440  -1.80609  -0.58407
   3.14440  -1.56667  -0.58407
   2.90498  -1.56667  -0.58407
   2.66556  -1.56667  -0.58407
   2.18672  -1.56667  -0.58407
   2.42614  -1.56667  -0.82349
   2.18672  -1.56667  -0.82349
   1.94730  -1.32725  -0.82349
   1.70788  -1.32725  -0.82349
   1.70788  -1.08784  -0.82349
   1.70788  -1.08784  -0.82349
   1.46847  -0.84842  -0.82349
   1.70788  -0.84842  -0.82349
   1.70788  -0.60900  -1.06291
   1.70788  -0.36958  -1.06291
   1.70788  -0.13016  -1.06291
   1.94730  -0.13016  -1.06291
   1.94730   0.34868  -1.30233
   2.18672   0.34868  -1.30233
   2.18672   0.58810  -1.54175
   2.42614   0.58810  -1.54175
   2.42614   0.82752  -1.54175
   2.42614   1.06693  -1.30233
   2.66556   1.06693  -1.30233
   2.66556   1.30635  -1.30233
   2.66556   1.30635  -1.30233
   2.66556   1.54577  -0.82349
   2.66556   1.54577  -0.34465
   2.66556   1.54577  -0.10524
   2.66556   1.54577   0.13418
   2.66556   1.30635   0.37360
   2.66556   1.06693   0.61302
   2.42614   0.82752   0.85244
   2.42614   0.82752   1.09186
   2.18672   0.34868   1.33128
   1.94730   0.10926   1.33128
   1.94730   0.10926   1.57070
   1.70788  -0.13016   1.57070
   1.70788  -0.36958   1.57070
   1.46847  -0.36958   1.57070
   1.22905  -0.84842   1.09186
   0.98963  -0.60900   1.09186
   0.98963  -0.84842   0.85244
   0.98963  -1.08784   0.61302
   0.51079  -1.08784   0.37360
   0.27137  -1.08784   0.13418
   0.03195  -1.32725  -0.10524
  -0.20747  -1.32725  -0.58407
  -0.44689  -1.56667  -0.58407
  -0.92572  -1.56667  -0.82349
  -1.16514  -1.56667  -1.06291
  -1.64398  -1.32725  -1.30233
  -2.12282  -1.32725  -1.54175
  -2.36224  -1.32725  -1.78117
  -2.60166  -1.08784  -2.02059
  -3.08049  -0.84842  -2.26001
  -3.31991  -0.84842  -2.73884
  -3.31991  -0.60900  -2.97826
  -3.31991  -0.36958  -3.21768
  -3.31991  -0.36958  -3.45710
  -3.31991  -0.13016  -3.69652
  -3.31991  -0.13016  -3.93594
  -3.31991   0.10926  -4.17536
  -3.08049   0.10926  -4.41478
  -3.08049   0.10926  -4.65420
  -3.08049   0.34868  -4.89361
  -2.84108   0.34868  -4.89361
  -2.84108   0.58810  -5.13303
  -2.84108   0.82752  -5.13303
  -2.84108   0.82752  -5.37245
  -2.84108   0.82752  -5.37245
  -2.84108   1.06693  -5.13303
  -2.60166   0.82752  -4.89361
  -2.36224   1.06693  -4.89361
  -2.12282   1.06693  -4.41478
  -1.88340   1.06693  -4.41478
  -1.64398   1.30635  -4.17536
  -1.40456   1.30635  -3.93594
  -1.16514   1.06693  -3.45710
  -0.68630   1.06693  -2.97826
  -0.68630   1.30635  -2.73884
  -0.20747   1.30635  -2.26001
   0.03195   1.30635  -2.02059
   0.03195   1.30635  -1.30233
   0.03195   1.30635  -1.06291
   0.03195   1.30635  -0.58407
   0.03195   1.30635  -0.10524
  -0.20747   1.06693   0.61302
  -0.20747   1.30635   1.09186
  -0.44689   1.30635   1.57070
  -0.44689   1.30635   2.04953
  -0.92572   1.30635   2.76779
  -0.92572   1.30635   3.24663
  -1.40456   1.30635   3.72547
  -1.40456   1.30635   4.20431
  -1.64398   1.30635   4.68314
  -1.88340   1.30635   5.16198
  -2.12282   1.06693   5.64082
  -2.12282   1.06693   5.88024
  -2.36224   1.06693   6.35908
  -2.36224   0.82752   6.59849
  -2.36224   0.82752   6.83791
  -2.36224   0.58810   6.83791
  -2.12282   0.58810   7.07733
  -2.12282   0.34868   7.07733
  -2.36224   0.10926   7.07733
  -2.12282   0.10926   6.83791
  -2.12282  -0.13016   6.83791
  -2.12282  -0.13016   6.59849
  -1.88340  -0.36958   6.35908
  -1.88340  -0.36958   6.11966
  -1.88340  -0.36958   5.88024
  -1.88340  -0.60900   5.40140
  -1.88340  -0.36958   4.92256
  -1.88340  -0.60900   4.44372
  -2.12282  -0.60900   3.96489
  -2.12282  -0.60900   3.48605
  -2.12282  -0.36958   3.00721
  -2.36224  -0.60900   2.52837
  -2.36224  -0.36958   2.04953
  -2.36224  -0.36958   1.57070
  -2.60166  -0.13016   0.61302
  -2.60166  -0.36958   0.61302
  -2.60166  -0.13016   0.13418
  -2.84108  -0.36958  -0.34465
  -2.84108  -0.13016  -0.82349
  -2.84108  -0.13016  -1.06291
  -3.08049  -0.13016  -1.54175
  -2.84108  -0.13016  -2.02059
  -3.08049  -0.36958  -2.49943
  -3.08049  -0.36958  -2.97826
  -3.55933  -0.60900  -3.45710
  -3.31991  -0.60900  -3.69652
  -3.31991  -0.84842  -3.93594
  -3.31991  -0.84842  -4.41478
  -3.31991  -1.08784  -4.41478
  -3.08049  -1.32725  -4.89361
  -3.08049  -1.32725  -5.13303
  -3.08049  -1.56667  -5.37245
  -2.84108  -1.56667  -5.37245
  -2.60166  -1.56667  -5.37245
  -2.60166  -1.56667  -5.61187
  -2.36224  -1.56667  -5.61187
  -2.12282  -1.80609  -5.37245
  -2.12282  -1.80609  -5.37245
  -2.12282  -1.80609  -5.37245
  -1.88340  -1.80609  -5.37245
  -1.88340  -1.80609  -5.37245
  -1.88340  -1.56667  -5.13303
  -1.88340  -1.56667  -5.13303
  -1.88340  -1.56667  -4.89361
  -1.88340  -1.56667  -4.89361
  -1.64398  -1.56667  -4.41478
  -1.64398  -1.56667  -4.41478
  -1.64398  -1.56667  -4.17536
  -1.40456  -1.56667  -4.17536
  -1.40456  -1.56667  -3.69652
  -1.16514  -1.32725  -3.45710
  -1.16514  -1.32725  -3.21768
  -0.92572  -1.32725  -2.97826
  -0.68630  -1.08784  -2.49943
  -0.44689  -1.08784  -2.02059
  -0.44689  -1.08784  -1.78117
  -0.20747  -0.84842  -1.30233
   0.03195  -0.60900  -1.06291
   0.27137  -0.84842  -0.58407
   0.51079  -0.36958  -0.10524
   0.51079  -0.13016   0.13418
   0.98963  -0.13016   0.85244
   0.98963   0.10926   1.09186
   0.98963   0.34868   1.81012
   1.22905   0.58810   2.04953
   1.22905   0.82752   2.52837
   1.70788   0.82752   3.00721
   1.70788   1.06693   3.48605
   1.94730   1.30635   3.96489
   2.18672   1.30635   4.20431
   2.42614   1.54577   4.68314
   2.42614   1.78519   4.92256
   2.90498   2.02461   5.16198
   2.90498   2.02461   5.16198
   3.14440   2.26403   5.40140
   3.38382   2.26403   5.40140
   3.62324   2.26403   5.88024
   3.86266   2.50345   5.88024
   3.86266   2.50345   5.64082
   4.10207   2.50345   5.64082
   4.34149   2.50345   5.64082
   4.34149   2.50345   5.64082
   4.58091   2.50345   5.40140
   4.58091   2.26403   5.40140
   4.58091   2.26403   5.16198
   4.58091   2.26403   4.92256
   4.58091   2.26403   4.44372
   4.82033   2.26403   4.20431
   4.58091   2.26403   3.96489
   4.58091   2.02461   3.48605
   4.58091   2.02461   3.00721
   4.58091   1.78519   2.52837
   4.58091   1.78519   2.04953
   4.58091   1.54577   1.57070
   4.34149   1.54577   1.09186
   4.34149   1.54577   0.61302
   4.34149   1.30635   0.13418
   4.10207   1.06693  -0.34465
   4.10207   0.82752  -1.06291
   3.86266   0.58810  -1.30233
   3.62324   0.58810  -1.78117
   3.62324   0.10926  -2.26001
   3.62324   0.34868  -2.49943
   3.38382   0.34868  -2.73884
   3.14440   0.10926  -2.97826
   2.90498   0.10926  -3.21768
   2.66556  -0.13016  -3.21768
   2.42614  -0.13016  -3.45710
   2.18672  -0.13016  -3.45710
   1.94730  -0.13016  -3.45710
   1.46847  -0.13016  -3.45710
   1.22905  -0.13016  -3.21768
   0.98963  -0.13016  -3.21768
   0.51079  -0.13016  -3.21768
   0.03195  -0.13016  -2.49943
  -0.20747  -0.36958  -2.26001
  -0.68630  -0.60900  -2.02059
  -0.92572  -0.84842  -1.54175
  -1.16514  -0.60900  -1.30233
  -1.40456  -0.84842  -0.82349
  -2.12282  -0.84842  -0.34465
  -1.64398  -1.08784   0.13418
  -1.88340  -1.08784   0.37360
  -2.12282  -0.84842   0.85244
  -2.12282  -1.08784   1.09186
  -2.36224  -1.08784   1.33128
  -2.36224  -1.32725   1.57070
  -2.60166  -1.56667   1.81012
  -2.60166  -1.56667   2.04953
  -2.84108  -1.80609   2.28895
  -2.84108  -2.04551   2.28895
  -3.08049  -2.04551   2.52837
  -3.08049  -2.28493   2.28895
  -3.31991  -2.52435   2.52837
  -3.31991  -2.28493   2.52837
  -3.55933  -2.76377   2.52837
  -3.55933  -2.52435   2.52837
  -3.55933  -2.52435   2.52837
  -3.79875  -2.52435   2.52837
  -3.79875  -2.52435   2.76779
  -4.03817  -2.28493   2.76779
  -4.03817  -2.28493   3.00721
  -4.03817  -2.04551   3.00721
  -3.79875  -2.04551   3.00721
  -3.79875  -1.80609   3.00721
  -3.79875  -1.56667   3.00721
  -3.55933  -1.32725   3.00721
