********************************************************************************
              CENTRO DE INSTRUMENTACION Y REGISTRO SISMICO  A.C.

    Anaxagoras 814, Col. Narvarte, Benito Juarez, C.P. 03020 Mexico, D.F.
           Tels. 5687 45 42/ 5687 45  82             Fax. 5669 25 12
********************************************************************************
ARCHIVO ESTANDAR DE ACELERACION:
VERSION DEL FORMATO                    : 2.0
NOMBRE DEL ARCHIVO                     : AR1420170908044918
FECHA Y HORA DE CREACION               : 19/SEP/17, 12:35
REF. CATALOGO ACELEROGRAMAS, SMIS 1996 : REGISTRO No.     /PAG.


================================================================================
DATOS DE LA ESTACION:
NOMBRE DE LA ESTACION                  : ESC. PRIM. "JOSÉ ORDAZ LÓPEZ"
CLAVE DE LA ESTACION                   : AR14
LOCALIZACION DE LA ESTACION            : Del. Gustavo A. Madero,                
                                       : Col. Ampliación la Providencia,        
                                       : Calle Puebla esq. con calle            
                                       : Volcán Tacan.                          
                                       : 
COORDENADAS DE LA ESTACION             : 19.4808 LAT. N
                                       : 99.0760 LONG. W
ALTITUD (msnm)                         : 2232
TIPO DE SUELO                          : Arcilloso, zona lago                
                                       :                           
                                       : 
INSTITUCION RESPONSABLE                : CIRES
                                       : 

================================================================================
DATOS DEL ACELEROGRAFO:
MODELO DEL ACELEROGRAFO                : RADESD
NUMERO DE SERIE DEL ACELEROGRAFO       : 495
NUMERO DE CANALES                      : 3
ORIENTACION C1-C6 (rumbo;orientacion)  : /N00E/+V/N90W
ORIENTACION C7-C12 (rumbo;orientacion) : 
VEL. DE MUESTREO, C1-C6 (muestras/s)   : /100/100/100
VEL. DE MUESTREO, C7-C12 (muestras/s)  : 
ESC. COMPLETA DE SENSORES, C1-C6, (g)  : /0.5/0.5/0.5
ESC. COMPLETA DE SENSORES, C7-C12, (g) : 
FREC. NAT. DE SENSORES, C1-C6, (Hz)    : /30/30/32
FREC. NAT. DE SENSORES, C7-C12, (Hz)   : 
AMORTIGUAMIENTO DE SENSORES, C1-C6     : /0.733/0.790/0.750
AMORTIGUAMIENTO DE SENSORES, C7-C12    : 
INTERVALO DE MUESTREO, C1-C6, (s)      : /0.01/0.01/0.01
INTERVALO DE MUESTREO, C7-C12, (s)     : 
UMBRAL DE DISPARO, C1-C6, (Gal)        : /1.65/4.64/1.95
UMBRAL DE DISPARO, C7-C12, (Gal)       : 
MEMORIA DE PREEVENTO (s)               : 44.0
TIEMPO DE POSEVENTO (s)                : 0.0


================================================================================
DATOS DEL SISMO:
FECHA DEL SISMO (GMT)                  : 08/SEP/17
HORA EPICENTRO (GMT)                   : 04:49:18.0
MAGNITUD(ES)                           : /Mc=8.2
COORDENADAS DEL EPICENTRO              : 14.85 LAT. N
                                       : 94.11 LONG. W
PROFUNDIDAD FOCAL (km)                 : 58
FUENTE DE LOS DATOS EPICENTRALES       : SSN
                                       : INSTITUTO DE GEOFISICA, UNAM

================================================================================
DATOS DE ESTE REGISTRO:
HORA DE LA PRIMERA MUESTRA (GMT)       : 04:51:42.00
EXACTITUD DEL TIEMPO (s)               : 0.01
DURACION DEL REGISTRO (s), C1-C6       : /498.2/498.2/498.2
DURACION DEL REGISTRO (s), C7-C12      : 
NUM. TOTAL DE MUESTRAS, C1-C6          : /49820/49820/49820
NUM. TOTAL DE MUESTRAS, C7-C12         : 
ACEL. MAX. (Gal), C1-C6                : /40.70966/6.26629/24.73882
ACEL. MAX., C1-C6, EN LA MUESTRA       : /12322/15610/10920
ACEL. MAX. (Gal), C7-C12               : 
ACEL. MAX., C7-C12, EN LA MUESTRA      : 
UNIDADES DE LOS DATOS                  : Gal (cm/s/s)
FACTOR DE DECIMACION                   : 1
FORMATO DATOS (FORTRAN,10 campos/dato) : 3F10.5


================================================================================
CALIDAD DEL ACELEROGRAMA:
REGISTRO DIGITAL COMPLETO CON TIEMPO ABSOLUTO CORRECTO.


================================================================================
COMENTARIOS:














================================================================================
DATOS DE ACELERACION:
---------+---------+---------+---------+---------+---------+---------+---------+
   CANAL-1   CANAL-2   CANAL-3   CANAL-4   CANAL-5   CANAL-6   CANAL-7   CANAL-8
      N00E        +V      N90W
---------+---------+---------+---------+---------+---------+---------+---------+
[...]
 -18.65308  -2.15126   6.37829
 -18.18920  -2.21111   6.30347
 -17.75525  -2.21111   6.22865
 -17.32131  -2.13629   6.22865
 -16.76765  -2.10637   6.24361
 -16.22895  -2.04651   6.30347
 -15.66033  -2.01658   6.33340
 -15.13660  -1.97169   6.34836
 -14.73258  -1.88191   6.31843
 -14.34352  -1.83702   6.18376
 -13.99935  -1.70235   6.00419
 -13.65518  -1.59760   5.76477
 -13.31102  -1.47789   5.54032
 -13.04167  -1.37314   5.28593
 -12.78729  -1.23847   5.06148
 -12.60772  -1.07387   4.73227
 -12.44312  -0.87934   4.41804
 -12.21866  -0.68481   3.93919
 -12.02413  -0.49028   3.38554
 -11.82961  -0.29575   2.78699
 -11.67997  -0.10122   2.15851
 -11.60515   0.10827   1.48514
 -11.50040   0.33273   0.79681
 -11.38069   0.51229   0.01869
 -11.30587   0.64696  -0.68461
 -11.21609   0.78164  -1.50761
 -11.18616   0.97617  -2.30069
 -11.18616   1.09588  -3.04888
 -11.18616   1.18566  -3.81203
 -11.18616   1.29041  -4.54526
 -11.24602   1.44004  -5.23359
 -11.30587   1.64954  -5.87703
 -11.39566   1.82910  -6.46062
 -11.50040   1.97874  -6.98435
 -11.57522   2.17327  -7.52305
 -11.73982   2.26305  -8.01685
 -11.96428   2.38276  -8.63036
 -12.20370   2.47254  -9.16906
 -12.54787   2.60722  -9.72272
 -12.83218   2.65211 -10.14170
 -13.11649   2.74189 -10.51580
 -13.43073   2.89153 -10.97967
 -13.81979   2.98131 -11.32384
 -14.31359   3.01124 -11.56326
 -14.85229   2.99627 -11.72786
 -15.43587   2.98131 -11.84757
 -16.06435   2.84664 -11.90743
 -16.70779   2.69700 -11.89246
 -17.33627   2.63714 -11.90743
 -17.97971   2.62218 -11.87750
 -18.60819   2.57729 -11.87750
 -19.28156   2.59225 -11.78772
 -19.91004   2.63714 -11.53333
 -20.55348   2.59225 -11.12931
 -21.25677   2.53240 -10.66544
 -21.99000   2.56233 -10.15667
 -22.64840   2.51743  -9.66286
 -23.12724   2.45758  -9.09424
 -23.56119   2.51743  -8.48073
 -23.96522   2.53240  -7.85225
 -24.35427   2.57729  -7.19384
 -24.71340   2.59225  -6.46062
 -25.13239   2.60722  -5.60768
 -25.53641   2.57729  -4.73979
 -25.91050   2.53240  -3.75218
 -26.23971   2.44262  -2.76457
 -26.55395   2.38276  -1.70214
 -26.85322   2.32291  -0.57986
 -27.06271   2.27801   0.58731
 -27.16746   2.23312   1.78441
 -27.34703   2.17327   3.01144
 -27.40688   2.11341   4.28336
 -27.37695   2.00867   5.52535
 -27.24228   1.85903   6.73742
 -27.13753   1.64954   7.82977
 -26.97293   1.46997   8.83234
 -26.83826   1.32033   9.67032
 -26.73351   1.23055  10.38858
 -26.55395   1.12580  10.95720
 -26.34445   0.99113  11.49589
 -26.03021   0.90135  11.89992
 -25.71598   0.75171  12.22912
 -25.38677   0.58711  12.43861
 -25.08750   0.34769  12.58825
 -24.75829   0.06338  12.67803
 -24.51887  -0.13115  12.78278
 -24.20464  -0.29575  12.81270
 -23.87543  -0.53517  12.88752
 -23.50134  -0.74467  12.87256
 -23.09732  -0.90927  12.85760
 -22.64840  -1.17861  12.76781
 -22.19949  -1.35818  12.60321
 -21.70569  -1.58264  12.42365
 -21.16699  -1.77716  12.15430
 -20.64326  -1.98666  11.76524
 -20.07464  -2.15126  11.28640
 -19.50601  -2.30090  10.79260
 -18.89250  -2.45053  10.17908
 -18.33884  -2.58521   9.59550
 -17.77022  -2.68995   8.95205
 -17.18663  -2.70492   8.27869
 -16.60305  -2.70492   7.63524
 -15.98953  -2.63010   6.88706
 -15.33113  -2.54032   6.04909
 -14.67272  -2.57024   5.13630
 -14.05921  -2.54032   4.17862
 -13.37087  -2.51039   3.25086
 -12.69750  -2.48046   2.26325
 -11.99421  -2.39068   1.30557
 -11.21609  -2.37572   0.28804
 -10.42301  -2.33082  -0.72950
  -9.62993  -2.24104  -1.73207
  -8.85182  -2.09140  -2.68975
  -8.05874  -2.04651  -3.73721
  -7.25070  -1.98666  -4.70986
  -6.38280  -2.01658  -5.60768
  -5.61965  -2.00162  -6.40076
  -4.76671  -2.04651  -7.19384
  -3.98860  -2.01658  -7.83728
  -3.15062  -1.88191  -8.51065
  -2.28273  -1.73227  -9.04935
  -1.41483  -1.67242  -9.60301
  -0.59182  -1.52278 -10.05192
   0.23118  -1.50782 -10.39609
   0.99434  -1.43300 -10.69536
   1.80238  -1.28336 -10.85996
   2.49071  -1.22351 -10.96471
   3.23890  -1.13372 -11.02457
   3.89731  -1.02898 -11.06946
   4.55571  -0.92423 -11.09938
   5.12433  -0.87934 -11.08442
   5.69296  -0.86438 -11.09938
   6.20173  -0.75963 -11.06946
   6.72546  -0.69977 -11.00960
   7.17437  -0.66985 -10.96471
   7.62328  -0.62496 -10.88989
   8.01234  -0.56510 -10.84500
   8.35651  -0.56510 -10.74025
   8.68571  -0.59503 -10.72529
   8.98498  -0.63992 -10.63551
   9.26930  -0.71474 -10.53076
   9.44886  -0.84941 -10.39609
   9.68828  -0.99905 -10.30630
   9.91274  -1.10380 -10.18659
  10.03245  -1.28336 -10.05192
  10.19705  -1.46293  -9.96214
  10.37661  -1.61256  -9.93221
  10.49632  -1.82206  -9.85739
  10.64596  -2.12133  -9.79754
  10.76567  -2.30090  -9.69279
  10.87042  -2.52535  -9.67783
  11.02006  -2.77974  -9.52819
  11.12480  -2.95930  -9.43841
  11.22955  -3.21369  -9.30373
  11.27444  -3.45311  -9.22891
  11.25948  -3.60274  -9.13913
  11.28940  -3.84216  -9.10920
  11.27444  -3.96187  -9.06431
  11.28940  -4.09655  -9.09424
  11.27444  -4.17137  -9.07928
  11.30437  -4.18633  -9.12417
  11.34926  -4.17137  -9.12417
  11.45401  -4.09655  -9.15410
  11.49890  -4.06662  -9.10920
  11.45401  -4.08158  -9.19899
  11.51386  -3.94691  -9.19899
  11.52882  -3.93195  -9.25884
  11.37919  -3.97684  -9.34862
  11.33430  -3.91698  -9.37855
  11.21459  -3.87209  -9.39352
  11.07991  -3.85713  -9.36359
  10.93027  -3.85713  -9.37855
  10.76567  -3.84216  -9.31870
  10.60107  -3.85713  -9.31870
  10.45143  -3.81224  -9.22891
  10.30180  -3.79727  -9.16906
  10.16712  -3.72245  -9.00446
  10.06238  -3.69253  -8.83986
  10.01748  -3.64763  -8.64533
   9.95763  -3.60274  -8.43583
   9.88281  -3.52792  -8.16649
   9.86785  -3.49800  -7.91210
   9.80799  -3.39325  -7.62779
   9.79303  -3.28850  -7.31355
   9.70325  -3.18376  -6.89457
   9.76310  -3.03412  -6.43069
   9.85288  -2.92937  -5.92192
   9.98756  -2.77974  -5.41316
  10.18209  -2.61514  -4.94928
  10.39158  -2.52535  -4.44051
  10.67589  -2.40564  -3.90182
  10.96020  -2.25600  -3.39305
  11.28940  -2.22608  -2.89924
  11.67846  -2.07644  -2.37551
  12.11241  -1.95673  -1.91164
  12.56132  -1.82206  -1.40287
  13.08506  -1.65745  -0.95395
  13.63871  -1.46293  -0.53497
  14.31208  -1.25343  -0.34044
  15.13509  -1.04394  -0.34044
  15.82342  -0.90927  -0.29555
  16.45190  -0.83445  -0.20577
  17.14023  -0.77459  -0.14591
  17.88842  -0.75963  -0.11598
  18.62165  -0.78956   0.12344
  19.25012  -0.86438   0.37782
  19.92349  -0.93919   0.57235
  20.65672  -0.99905   0.69206
  21.53958  -0.93919   0.67710
  22.52719  -0.99905   0.66213
  23.54472  -0.87934   0.67710
  24.45751  -0.80452   0.73695
  25.34037  -0.77459   0.85666
  26.16338  -0.77459   0.99133
  26.98639  -0.83445   1.00630
  27.88421  -0.92423   0.93148
  28.72218  -0.89430   0.84170
  29.59008  -0.86438   0.61724
  30.47294  -0.72970   0.49753
  31.38573  -0.59503   0.34789
  32.32845  -0.32568   0.22818
  33.10657  -0.01144   0.09351
  33.83979   0.33273  -0.02620
  34.43834   0.67689  -0.23569
  34.94711   0.94624  -0.43022
  35.41099   1.15573  -0.63972
  35.72522   1.46997  -0.75943
  35.97961   1.73932  -0.90906
  36.17414   1.97874  -1.07366
  36.39859   2.23312  -1.17841
  36.54823   2.42765  -1.25323
  36.56320   2.53240  -1.35798
  36.48838   2.74189  -1.44776
  36.41356   2.74189  -1.56747
  36.29385   2.72693  -1.70214
  36.21903   2.75685  -1.94156
  36.11428   2.78678  -2.12113
  35.97961   2.90649  -2.28573
  35.87486   3.02620  -2.46529
  35.72522   3.11599  -2.55508
  35.56062   3.26562  -2.59997
  35.42595   3.29555  -2.65982
  35.23142   3.34044  -2.65982
  35.03689   3.37037  -2.58500
  34.88725   3.34044  -2.46529
  34.67776   3.43022  -2.40544
  34.43834   3.53497  -2.39048
  34.22885   3.56490  -2.37551
  33.95950   3.72950  -2.34558
  33.73504   3.80432  -2.30069
  33.48066   3.83425  -2.24084
  33.21131   3.90906  -2.16602
  32.92700   3.98388  -2.06127
  32.68758   4.08863  -2.04631
  32.40327   4.19338  -2.00142
  32.08903   4.35798  -1.86674
  31.67005   4.49265  -1.70214
  31.29595   4.61236  -1.62732
  30.93682   4.68718  -1.50761
  30.51784   4.68718  -1.32805
  29.97914   4.74703  -1.05870
  29.44045   4.76200  -0.81928
  28.79700   4.74703  -0.49008
  28.06378   4.68718  -0.08606
  27.25574   4.67222   0.37782
  26.43273   4.62732   0.87162
  25.56483   4.58243   1.42528
  24.65204   4.46272   2.00887
  23.58961   4.40287   2.59246
  22.49726   4.23827   3.23590
  21.34505   4.13352   3.75963
  20.16291   4.02877   4.20854
  18.87603   3.89410   4.61256
  17.51433   3.87914   5.07644
  16.12270   3.83425   5.49543
  14.70114   3.66964   5.92938
  13.15987   3.50504   6.42318
  11.64853   3.34044   6.93195
  10.13719   3.19080   7.50057
   8.62585   3.13095   8.09912
   7.08459   2.96635   8.65278
   5.58821   2.84664   9.14658
   4.13673   2.69700   9.71521
   2.61042   2.60722  10.23894
   1.12901   2.50247  10.77763
  -0.33744   2.39772  11.31633
  -1.72907   2.36780  11.79517
  -3.13566   2.18823  12.22912
  -4.46744   2.06852  12.69299
  -5.72439   1.96378  13.09702
  -6.95142   1.84407  13.48607
  -8.14852   1.73932  13.94995
  -9.30073   1.58968  14.44375
 -10.36316   1.46997  14.87770
 -11.36573   1.38019  15.25180
 -12.26355   1.29041  15.59596
 -13.19131   1.05099  15.92517
 -14.04424   0.97617  16.25437
 -14.83732   0.82653  16.58357
 -15.66033   0.70682  16.89781
 -16.37859   0.58711  17.18212
 -17.11181   0.33273  17.43651
 -17.81511   0.22798  17.69089
 -18.47352   0.06338  17.91535
 -19.11696  -0.14611  18.10988
 -19.76040  -0.31072  18.31937
 -20.34399  -0.29575  18.49893
 -20.95750  -0.38553  18.61864
 -21.48123  -0.56510  18.75332
 -22.01993  -0.56510  18.85806
 -22.49877  -0.62496  18.91792
 -22.97761  -0.65488  18.93288
 -23.44148  -0.63992  18.91792
 -23.96522  -0.60999  18.87303
 -24.42909  -0.60999  18.79821
 -24.93786  -0.55014  18.61864
 -25.43166  -0.53517  18.39419
 -25.98532  -0.49028  18.15477
 -26.53898  -0.49028  17.87046
 -27.12257  -0.44539  17.49636
 -27.78097  -0.46035  17.04745
 -28.45434  -0.41546  16.53868
 -29.17260  -0.41546  16.05984
 -29.84597  -0.41546  15.47625
 -30.56423  -0.40050  14.86274
 -31.25257  -0.41546  14.23426
 -31.94090  -0.41546  13.62075
 -32.62923  -0.46035  13.02220
 -33.37742  -0.53517  12.42365
 -34.03583  -0.63992  11.91488
 -34.75409  -0.66985  11.34626
 -35.33767  -0.81948  10.83749
 -35.93622  -0.80452  10.26887
 -36.45996  -0.84941   9.81995
 -36.95376  -0.87934   9.29622
 -37.52238  -0.81948   8.93709
 -38.04611  -0.83445   8.51811
 -38.49503  -0.78956   8.15898
 -38.88408  -0.69977   7.81481
 -39.19832  -0.50524   7.50057
 -39.45271  -0.35561   7.20129
 -39.67716  -0.20597   7.03669
 -39.82680  -0.05633   6.90202
 -39.97644   0.13820   6.90202
 -40.24579   0.28783   6.90202
 -40.42535   0.52725   6.94691
 -40.58995   0.72178   6.93195
 -40.70966   0.93128   6.94691
 -40.70966   1.06595   6.88706
 -40.64981   1.30537   6.78231
 -40.56003   1.54479   6.72245
 -40.42535   1.73932   6.66260
 -40.29068   1.94881   6.67756
 -40.02133   2.12838   6.64764
 -39.76695   2.32291   6.69253
 -39.49760   2.53240   6.66260
 -39.16840   2.74189   6.73742
 -38.71948   2.84664   6.73742
 -38.27057   3.01124   6.76735
 -37.73188   3.01124   6.79727
 -37.17822   3.13095   6.91698
 -36.57967   3.19080   7.00677
 -36.02601   3.20577   7.05166
 -35.45738   3.34044   7.05166
 -34.91869   3.44519   7.06662
 -34.30517   3.46015   7.11151
 -33.70662   3.40030   7.08158
 -33.09311   3.29555   7.00677
 -32.50952   3.14591   6.87209
 -31.88104   2.95138   6.70749
 -31.26753   2.71196   6.46807
 -30.60913   2.47254   6.22865
 -29.93576   2.27801   5.91441
 -29.26239   2.06852   5.55528
 -28.58902   1.79917   5.10637
 -27.91565   1.52983   4.70235
 -27.22732   1.21559   4.20854
 -26.62876   0.94624   3.66985
 -26.00029   0.64696   3.14612
 -25.37181   0.30280   2.53260
 -24.81815   0.03345   1.91909
 -24.26449  -0.31072   1.32054
 -23.69587  -0.62496   0.72199
 -23.15717  -0.96912   0.06358
 -22.69330  -1.29832  -0.56490
 -22.16956  -1.61256  -1.25323
 -21.64583  -1.86695  -1.94156
 -21.13706  -2.15126  -2.62990
 -20.65822  -2.36075  -3.25837
 -20.04471  -2.60017  -3.88685
 -19.53594  -2.74981  -4.47044
 -18.95236  -2.88448  -4.99417
 -18.42862  -2.95930  -5.48797
 -17.91986  -3.06405  -6.01171
 -17.32131  -3.09398  -6.41573
 -16.70779  -3.10894  -6.74493
 -16.09428  -3.04908  -7.02924
 -15.51069  -3.04908  -7.35844
 -14.91214  -2.98923  -7.77743
 -14.19388  -2.95930  -8.16649
 -13.43073  -2.92937  -8.40591
 -12.72743  -2.88448  -8.49569
 -12.00917  -2.73485  -8.66029
 -11.24602  -2.55528  -8.78000
 -10.52776  -2.36075  -8.80993
  -9.73468  -2.27097  -8.80993
  -8.97153  -2.06148  -8.78000
  -8.23830  -1.97169  -8.70518
  -7.44522  -1.83702  -8.55555
  -6.72696  -1.73227  -8.33109
  -6.03863  -1.67242  -8.04678
  -5.44008  -1.58264  -7.68765
  -4.88642  -1.53774  -7.35844
  -4.31780  -1.38811  -7.10406
  -3.77910  -1.29832  -6.77486
  -3.27033  -1.22351  -6.43069
  -2.76157  -1.11876  -6.14638
  -2.29769  -1.04394  -5.83214
  -1.84878  -0.96912  -5.54783
  -1.39986  -0.93919  -5.24855
  -0.87613  -0.89430  -4.93432
  -0.33744  -0.84941  -4.73979
   0.17133  -0.78956  -4.42555
   0.73995  -0.72970  -4.17116
   1.30858  -0.56510  -3.94671
   1.90713  -0.49028  -3.75218
   2.46079  -0.43043  -3.49779
   3.11919  -0.37057  -3.27334
   3.70278  -0.28079  -3.09377
   4.37615  -0.20597  -2.86932
   5.07944  -0.02640  -2.70471
   5.81267   0.06338  -2.61493
   6.60575   0.15316  -2.52515
   7.44372   0.30280  -2.45033
   8.31162   0.45244  -2.40544
   9.26930   0.54222  -2.39048
  10.24194   0.72178  -2.42040
  11.22955   0.85646  -2.51019
  12.27701   1.00609  -2.76457
  13.32448   1.09588  -3.04888
  14.37194   1.12580  -3.36312
  15.37451   1.24551  -3.73721
  16.40701   1.30537  -4.24598
  17.43951   1.23055  -4.75475
  18.56179   1.21559  -5.33834
  19.59429   1.15573  -5.90696
  20.56694   1.11084  -6.55040
  21.56951   1.08091  -7.19384
  22.54215   0.93128  -7.82232
  23.51480   0.82653  -8.45080
  24.50240   0.70682  -9.09424
  25.43016   0.60207  -9.69279
  26.34295   0.37762 -10.26141
  27.24077   0.24294 -10.83004
  28.04882   0.10827 -11.32384
  28.88679   0.00352 -11.83261
  29.66490  -0.02640 -12.28152
  30.50287  -0.07130 -12.80525
  31.19121  -0.13115 -13.28409
  31.89450  -0.16108 -13.80782
  32.49305  -0.25086 -14.25674
  33.10657  -0.26582 -14.67572
  33.61533  -0.31072 -15.03485
  34.06425  -0.40050 -15.33413
  34.43834  -0.44539 -15.52866
  34.73762  -0.41546 -15.73815
  34.99200  -0.38553 -15.90275
  35.14164  -0.35561 -16.06735
  35.29128  -0.38553 -16.15714
  35.36609  -0.35561 -16.24692
  35.41099  -0.26582 -16.27685
  35.48580  -0.14611 -16.30677
  35.50077  -0.10122 -16.36663
  35.42595  -0.01144 -16.38159
  35.30624   0.06338 -16.39656
  35.15660   0.07834 -16.32174
  34.97704   0.06338 -16.24692
  34.79747   0.01849 -16.17210
  34.66280  -0.11619 -16.09728
  34.57302  -0.22093 -16.05239
  34.39345  -0.32568 -16.03743
  34.27374  -0.50524 -15.96261
  34.15403  -0.75963 -15.84290
  33.97446  -0.92423 -15.75311
  33.72008  -1.19358 -15.58851
  33.40584  -1.38811 -15.42391
  33.03175  -1.52278 -15.16953
  32.65765  -1.71731 -14.96003
  32.29852  -1.94177 -14.70565
  31.92443  -2.16622 -14.37645
  31.47552  -2.28593 -14.04725
  31.08646  -2.49543 -13.74797
  30.63755  -2.68995 -13.40380
  30.20360  -2.77974 -13.05964
  29.79958  -2.94434 -12.79029
  29.32074  -3.01916 -12.49101
