********************************************************************************
               CENTRO DE INSTRUMENTACION Y REGISTRO SISMICO  A.C.  
                       Coordinacion de Servicios Tecnicos
     Anaxagoras 814, Col. Narvarte, Benito Juarez, C.P. 03020 Mexico, D.F.
            Tels. 687 45 42/ 687 45  82             Fax. 669 25 12
********************************************************************************
ARCHIVO ESTANDAR DE ACELERACION:
VERSION DEL FORMATO                    : 2.0
NOMBRE DEL ARCHIVO                     : AR140101.131
FECHA Y HORA DE CREACION               : 02/JUL/04, 13:30
REF. CATALOGO ACELEROGRAMAS, SMIS 1996 : REGISTRO No.     /PAG.


================================================================================
DATOS DE LA ESTACION:
NOMBRE DE LA ESTACION                  : ARAGON
CLAVE DE LA ESTACION                   : AR14
LOCALIZACION DE LA ESTACION            : Esc Prim Jose Ordaz Lopez Puebla 2 y
                                       : Baja California, Col Providencia
                                       : Gustavo A. Madero
                                       :
                                       :
COORDENADAS DE LA ESTACION             : 19.481 LAT. N 
                                       : 99.076 LONG. W 
ALTITUD (msnm)                         : 2232
TIPO DE SUELO                          : ARCILLOSO, ZONA LAGO
                                       : 
                                       : 
INSTITUCION RESPONSABLE                : CIRES
                                       :

================================================================================
DATOS DEL ACELEROGRAFO:
MODELO DEL ACELEROGRAFO                : RAD-851
NUMERO DE SERIE DEL ACELEROGRAFO       : 235
NUMERO DE CANALES                      : 3
ORIENTACION C1-C6 (rumbo;orientacion)  : /N00E/+V/N90W
ORIENTACION C7-C12 (rumbo;orientacion) :
VEL. DE MUESTREO, C1-C6 (muestras/s)   : /100/100/100
VEL. DE MUESTREO, C7-C12 (muestras/s)  :
ESC. COMPLETA DE SENSORES, C1-C6, (g)  : /0.5/0.5/0.5
ESC. COMPLETA DE SENSORES, C7-C12, (g) :
FREC. NAT. DE SENSORES, C1-C6, (Hz)    : /30/30/32
FREC. NAT. DE SENSORES, C7-C12, (Hz)   :
AMORTIGUAMIENTO DE SENSORES, C1-C6     : /0.733/0.790/0.750
AMORTIGUAMIENTO DE SENSORES, C7-C12    :
INTERVALO DE MUESTREO, C1-C6, (s)      : /0.01/0.01/0.01
INTERVALO DE MUESTREO, C7-C12, (s)     :
UMBRAL DE DISPARO, C1-C6, (Gal)        : /1.95/3.42/1.95
UMBRAL DE DISPARO, C7-C12, (Gal)       :
MEMORIA DE PREEVENTO (s)               : 16
TIEMPO DE POSEVENTO (s)                : 64


================================================================================
DATOS DEL SISMO:
FECHA DEL SISMO (GMT)                  : 13/ENE/01
HORA EPICENTRO (GMT)                   : 17:33:46:0
MAGNITUD(ES)                           : /Mc=7.6
COORDENADAS DEL EPICENTRO              : 13.15 LAT. N
                                       : 89.94 LONG. W
PROFUNDIDAD FOCAL (km)                 : 10.0
FUENTE DE LOS DATOS EPICENTRALES       : SSN
                                       : INSTITUTO DE GEOFISICA, UNAM

================================================================================
DATOS DE ESTE REGISTRO:
HORA DE LA PRIMERA MUESTRA (GMT)       : 17:39:40.00
EXACTITUD DEL TIEMPO (s)               :     
DURACION DEL REGISTRO (s), C1-C6       : /110.75/110.75/110.75
DURACION DEL REGISTRO (s), C7-C12      :
NUM. TOTAL DE MUESTRAS, C1-C6          : /11075/11075/11075
NUM. TOTAL DE MUESTRAS, C7-C12         :
ACEL. MAX. (Gal), C1-C6                : /2.17890/1.03072/2.31963
ACEL. MAX., C1-C6, EN LA MUESTRA       :
ACEL. MAX. (Gal), C7-C12               :
ACEL. MAX., C7-C12, EN LA MUESTRA      :
UNIDADES DE LOS DATOS                  : Gal (cm/s/s)
FACTOR DE DECIMACION                   : 1
FORMATO DATOS (FORTRAN,10 campos/dato) : 3F10.5


================================================================================
CALIDAD DEL ACELEROGRAMA:
REGISTRO DIGITAL COMPLETO, CARECE DE TIEMPO ABSOLUTO.


================================================================================
COMENTARIOS:














================================================================================
DATOS DE ACELERACION:
---------+---------+---------+---------+---------+---------+---------+---------+
   CANAL-1   CANAL-2   CANAL-3   CANAL-4   CANAL-5   CANAL-6   CANAL-7   CANAL-8
      N00E        +V      N90W
---------+---------+---------+---------+---------+---------+---------+---------+
[...]
   0.98180   0.07305   1.12253
   0.98180   0.07305   1.12253
   0.98180   0.07305   1.12253
   0.98180   0.07305   1.12253
   0.98180   0.07305   1.12253
   0.98180   0.07305   1.12253
   0.98180   0.07305   1.12253
   0.98180  -0.16637   1.12253
   0.74238  -0.16637   1.12253
   0.74238  -0.16637   1.12253
   0.74238  -0.16637   1.12253
   0.50296  -0.16637   1.12253
   0.74238  -0.16637   1.12253
   0.74238  -0.16637   1.12253
   0.50296  -0.16637   1.12253
   0.50296  -0.16637   1.12253
   0.50296  -0.16637   1.12253
   0.50296  -0.16637   1.12253
   0.50296  -0.16637   0.88312
   0.50296  -0.40579   0.88312
   0.50296  -0.16637   1.12253
   0.50296  -0.16637   0.88312
   0.50296  -0.16637   1.12253
   0.26354  -0.16637   0.88312
   0.50296  -0.16637   1.12253
   0.26354  -0.16637   1.12253
   0.26354  -0.40579   0.88312
   0.26354  -0.16637   0.88312
   0.26354  -0.16637   1.12253
   0.26354  -0.40579   0.88312
   0.26354  -0.16637   1.12253
   0.26354  -0.16637   0.88312
   0.26354  -0.16637   0.88312
   0.02413  -0.16637   0.88312
   0.26354  -0.16637   0.88312
   0.02413  -0.16637   1.12253
   0.02413  -0.40579   0.88312
   0.02413  -0.16637   0.88312
  -0.21529  -0.40579   0.88312
  -0.21529  -0.40579   0.88312
  -0.21529  -0.40579   1.12253
  -0.21529  -0.16637   0.64370
  -0.21529  -0.16637   0.88312
  -0.21529  -0.40579   0.88312
  -0.21529  -0.40579   0.88312
  -0.45471  -0.40579   0.88312
  -0.21529  -0.40579   0.88312
  -0.45471  -0.40579   0.88312
  -0.21529  -0.40579   0.64370
  -0.45471  -0.16637   0.88312
  -0.45471  -0.16637   0.88312
  -0.45471  -0.40579   0.64370
  -0.69413  -0.40579   0.88312
  -0.69413  -0.16637   0.88312
  -0.69413  -0.16637   0.88312
  -0.69413  -0.16637   0.88312
  -0.69413  -0.16637   0.88312
  -0.69413  -0.16637   0.88312
  -0.93355  -0.16637   0.64370
  -0.69413  -0.16637   0.88312
  -0.93355  -0.16637   0.88312
  -0.93355   0.07305   0.88312
  -1.17297   0.07305   0.88312
  -0.93355  -0.16637   0.64370
  -1.17297  -0.16637   0.88312
  -0.93355  -0.16637   0.88312
  -0.93355  -0.16637   0.64370
  -1.17297   0.07305   0.88312
  -1.17297  -0.16637   0.64370
  -1.17297  -0.16637   0.88312
  -1.17297   0.07305   0.88312
  -1.17297  -0.16637   0.64370
  -1.17297  -0.16637   0.88312
  -1.17297  -0.40579   0.88312
  -1.41239  -0.16637   0.88312
  -1.41239  -0.16637   0.88312
  -1.41239  -0.16637   0.88312
  -1.41239   0.07305   0.88312
  -1.17297  -0.16637   0.88312
  -1.41239  -0.16637   0.88312
  -1.41239  -0.16637   0.88312
  -1.41239  -0.16637   0.88312
  -1.41239  -0.16637   1.12253
  -1.41239   0.07305   0.88312
  -1.41239   0.07305   0.88312
  -1.41239  -0.16637   0.64370
  -1.65181   0.07305   0.64370
  -1.41239  -0.16637   0.88312
  -1.41239  -0.16637   0.64370
  -1.65181  -0.16637   0.64370
  -1.41239  -0.16637   0.64370
  -1.65181   0.07305   0.64370
  -1.65181  -0.16637   0.40428
  -1.65181  -0.16637   0.40428
  -1.65181  -0.16637   0.64370
  -1.65181  -0.16637   0.40428
  -1.89123   0.07305   0.40428
  -1.65181   0.07305   0.40428
  -1.89123   0.07305   0.16486
  -1.65181   0.07305   0.40428
  -1.65181   0.31247   0.40428
  -1.89123   0.31247   0.40428
  -1.89123   0.31247   0.16486
  -1.89123   0.31247   0.16486
  -1.65181   0.31247   0.16486
  -1.89123   0.55188   0.16486
  -1.89123   0.55188   0.16486
  -1.65181   0.55188   0.16486
  -1.89123   0.31247   0.16486
  -1.89123   0.55188  -0.07456
  -1.65181   0.55188  -0.07456
  -1.65181   0.55188  -0.07456
  -1.65181   0.55188  -0.07456
  -1.89123   0.55188  -0.07456
  -1.89123   0.55188  -0.07456
  -1.89123   0.31247  -0.07456
  -1.89123   0.31247  -0.31398
  -1.89123   0.31247  -0.07456
  -1.65181   0.31247  -0.31398
  -1.89123   0.31247  -0.31398
  -1.65181   0.31247  -0.31398
  -1.65181   0.31247  -0.31398
  -1.65181   0.31247  -0.31398
  -1.65181   0.31247  -0.31398
  -1.65181   0.31247  -0.31398
  -1.65181   0.31247  -0.31398
  -1.65181   0.31247  -0.55340
  -1.65181   0.07305  -0.55340
  -1.65181   0.07305  -0.55340
  -1.65181   0.07305  -0.55340
  -1.65181   0.07305  -0.55340
  -1.41239   0.07305  -0.79282
  -1.65181   0.31247  -0.55340
  -1.41239   0.07305  -0.55340
  -1.41239   0.07305  -0.55340
  -1.41239   0.07305  -0.55340
  -1.41239   0.07305  -0.79282
  -1.41239   0.07305  -0.79282
  -1.17297   0.07305  -0.79282
  -1.17297   0.31247  -0.79282
  -1.17297   0.07305  -0.79282
  -1.17297   0.07305  -0.79282
  -1.17297   0.31247  -0.55340
  -1.17297   0.07305  -0.79282
  -1.17297   0.31247  -0.79282
  -0.93355   0.31247  -0.79282
  -1.17297   0.07305  -0.79282
  -1.17297   0.07305  -0.79282
  -0.93355   0.07305  -0.79282
  -0.93355   0.07305  -0.79282
  -0.93355   0.07305  -1.03224
  -0.93355   0.07305  -0.79282
  -0.69413   0.07305  -0.79282
  -0.93355   0.07305  -0.79282
  -0.69413   0.07305  -0.79282
  -0.69413   0.07305  -0.79282
  -0.69413   0.07305  -0.79282
  -0.45471   0.31247  -0.79282
  -0.69413   0.07305  -0.79282
  -0.45471   0.07305  -0.79282
  -0.45471   0.07305  -0.79282
  -0.45471   0.07305  -0.79282
  -0.45471   0.07305  -0.79282
  -0.21529   0.31247  -0.79282
  -0.21529   0.31247  -1.03224
  -0.21529   0.07305  -1.03224
  -0.21529   0.31247  -0.79282
   0.02413   0.31247  -1.03224
  -0.21529   0.31247  -1.03224
   0.02413   0.31247  -1.03224
   0.02413   0.31247  -1.03224
   0.02413   0.31247  -1.03224
   0.02413   0.31247  -1.03224
   0.26354   0.55188  -1.03224
   0.26354   0.31247  -1.03224
   0.26354   0.55188  -1.03224
   0.26354   0.31247  -1.03224
   0.50296   0.31247  -1.03224
   0.26354   0.31247  -1.27166
   0.26354   0.31247  -1.27166
   0.50296   0.31247  -1.27166
   0.50296   0.31247  -1.27166
   0.26354   0.31247  -1.27166
   0.50296   0.07305  -1.51107
   0.50296   0.07305  -1.27166
   0.74238   0.07305  -1.27166
   0.74238   0.31247  -1.27166
   0.74238   0.07305  -1.27166
   0.74238   0.07305  -1.27166
   0.74238   0.07305  -1.27166
   0.98180  -0.16637  -1.27166
   0.74238   0.07305  -1.27166
   0.98180   0.07305  -1.03224
   0.98180   0.07305  -1.27166
   0.98180   0.07305  -1.27166
   0.98180   0.07305  -1.27166
   0.98180  -0.16637  -1.27166
   1.22122  -0.16637  -1.27166
   1.22122   0.07305  -1.27166
   1.22122  -0.16637  -1.27166
   1.22122   0.07305  -1.51107
   1.22122   0.07305  -1.27166
   1.22122   0.07305  -1.27166
   1.22122   0.31247  -1.27166
   1.46064   0.07305  -1.27166
   1.22122   0.31247  -1.27166
   1.46064   0.31247  -1.27166
   1.46064   0.31247  -1.51107
   1.22122   0.07305  -1.27166
   1.46064   0.07305  -1.27166
   1.46064   0.31247  -1.51107
   1.46064   0.31247  -1.03224
   1.46064   0.31247  -1.27166
   1.46064   0.31247  -1.27166
   1.46064   0.07305  -1.27166
   1.46064   0.07305  -1.27166
   1.46064  -0.16637  -1.27166
   1.46064   0.07305  -1.03224
   1.70006   0.07305  -1.03224
   1.46064   0.07305  -1.27166
   1.70006  -0.16637  -1.03224
   1.46064  -0.40579  -1.03224
   1.70006  -0.40579  -0.79282
   1.70006  -0.40579  -1.03224
   1.70006   0.07305  -1.03224
   1.70006   0.07305  -1.03224
   1.70006   0.07305  -1.03224
   1.70006  -0.16637  -0.79282
   1.70006  -0.16637  -0.79282
   1.70006  -0.16637  -0.79282
   1.70006  -0.16637  -0.79282
   1.93948  -0.16637  -1.03224
   1.70006  -0.40579  -0.79282
   1.70006  -0.16637  -0.79282
   1.70006  -0.16637  -0.79282
   1.93948  -0.16637  -0.79282
   1.70006   0.07305  -0.79282
   1.70006  -0.16637  -0.79282
   1.70006  -0.16637  -0.79282
   1.70006  -0.40579  -0.79282
   1.93948  -0.40579  -0.79282
   1.70006  -0.16637  -0.79282
   1.70006  -0.16637  -0.79282
   1.70006  -0.16637  -0.79282
   1.70006  -0.16637  -0.79282
   1.70006  -0.16637  -0.79282
   1.70006  -0.40579  -0.79282
   1.93948  -0.40579  -0.55340
   1.70006  -0.16637  -0.55340
   1.70006   0.07305  -0.79282
   1.70006   0.07305  -0.79282
   1.70006   0.07305  -0.79282
   1.46064  -0.40579  -0.79282
   1.70006  -0.40579  -0.55340
   1.70006  -0.40579  -0.55340
   1.46064  -0.16637  -0.55340
   1.46064  -0.16637  -0.79282
   1.46064  -0.16637  -0.79282
   1.46064  -0.40579  -0.55340
   1.46064  -0.16637  -0.79282
   1.46064  -0.16637  -0.79282
   1.46064  -0.16637  -0.79282
   1.22122  -0.40579  -0.79282
   1.22122  -0.40579  -0.55340
   1.46064  -0.40579  -0.55340
   1.22122  -0.40579  -0.55340
   1.22122  -0.40579  -0.55340
   1.22122  -0.16637  -0.55340
   1.22122  -0.40579  -0.55340
   0.98180  -0.16637  -0.55340
   0.98180  -0.16637  -0.55340
   0.98180  -0.40579  -0.55340
   0.74238  -0.40579  -0.55340
   0.74238  -0.40579  -0.55340
   0.74238  -0.40579  -0.31398
   0.98180  -0.40579  -0.31398
   0.74238  -0.40579  -0.55340
   0.74238  -0.16637  -0.31398
   0.74238  -0.40579  -0.55340
   0.50296  -0.64521  -0.31398
   0.74238  -0.88463  -0.31398
   0.50296  -0.64521  -0.31398
   0.50296  -0.16637  -0.07456
   0.50296  -0.16637  -0.31398
   0.50296  -0.40579  -0.31398
   0.50296  -0.64521  -0.07456
   0.50296  -0.64521  -0.07456
   0.50296  -0.64521   0.16486
   0.50296  -0.40579   0.16486
   0.26354  -0.40579   0.16486
   0.26354  -0.64521  -0.07456
   0.02413  -0.64521   0.16486
   0.26354  -0.40579   0.16486
   0.02413  -0.40579   0.16486
   0.26354  -0.16637   0.40428
   0.26354  -0.40579   0.16486
   0.02413  -0.64521   0.40428
   0.02413  -0.40579   0.40428
  -0.21529  -0.16637   0.64370
   0.02413   0.07305   0.64370
  -0.21529  -0.16637   0.40428
  -0.21529  -0.16637   0.64370
  -0.21529  -0.40579   0.64370
  -0.21529  -0.40579   0.88312
  -0.21529  -0.16637   0.88312
  -0.21529   0.07305   0.64370
  -0.45471  -0.16637   0.64370
  -0.45471  -0.40579   0.88312
  -0.45471  -0.64521   1.12253
  -0.45471  -0.16637   1.12253
  -0.45471   0.07305   1.36195
  -0.45471   0.07305   1.12253
  -0.45471  -0.40579   1.12253
  -0.45471  -0.40579   1.12253
  -0.45471  -0.40579   1.12253
  -0.45471  -0.40579   1.36195
  -0.69413  -0.16637   1.36195
  -0.69413   0.07305   1.36195
  -0.69413   0.07305   1.60137
  -0.45471  -0.16637   1.36195
  -0.69413  -0.16637   1.36195
  -0.69413  -0.40579   1.36195
  -0.69413  -0.40579   1.36195
  -0.69413  -0.16637   1.60137
  -0.69413   0.07305   1.60137
  -0.69413   0.31247   1.60137
  -0.69413   0.31247   1.60137
  -0.69413   0.07305   1.60137
  -0.69413  -0.16637   1.60137
  -0.69413  -0.16637   1.60137
  -0.69413   0.07305   1.84079
  -0.69413   0.31247   1.84079
  -0.69413   0.31247   1.84079
  -0.69413   0.31247   1.84079
  -0.69413   0.07305   1.84079
  -0.69413   0.07305   1.84079
  -0.69413   0.31247   1.84079
  -0.69413   0.31247   1.84079
  -0.69413   0.31247   2.08021
  -0.69413   0.55188   2.08021
  -0.69413   0.31247   1.84079
  -0.69413   0.07305   1.84079
  -0.69413  -0.16637   1.84079
  -0.69413   0.07305   2.08021
  -0.69413   0.55188   2.08021
  -0.69413   0.31247   1.84079
  -0.69413   0.07305   2.08021
  -0.45471  -0.16637   2.08021
  -0.45471   0.07305   2.08021
  -0.45471   0.31247   2.31963
  -0.45471   0.07305   2.08021
  -0.69413   0.07305   2.31963
  -0.45471   0.31247   2.31963
  -0.45471   0.31247   2.08021
  -0.45471   0.31247   2.08021
  -0.21529  -0.16637   2.08021
  -0.45471   0.07305   2.08021
  -0.69413   0.31247   2.31963
  -0.21529   0.31247   2.31963
  -0.45471   0.31247   2.31963
  -0.21529   0.07305   2.31963
  -0.21529   0.07305   2.31963
  -0.21529   0.07305   2.31963
  -0.21529   0.07305   2.08021
  -0.21529   0.07305   2.08021
  -0.21529   0.07305   2.31963
   0.02413  -0.16637   2.31963
   0.02413   0.07305   2.31963
   0.02413   0.07305   2.31963
  -0.21529   0.07305   2.08021
   0.02413   0.07305   2.31963
   0.02413   0.07305   2.31963
   0.02413   0.07305   2.31963
   0.02413   0.07305   2.31963
   0.26354   0.07305   2.08021
   0.02413  -0.16637   2.31963
   0.26354   0.07305   2.08021
   0.02413   0.07305   2.08021
   0.26354  -0.16637   2.08021
   0.26354  -0.40579   1.84079
   0.02413  -0.16637   2.08021
   0.26354   0.07305   2.08021
   0.26354   0.07305   2.08021
   0.02413   0.31247   2.08021
   0.26354   0.07305   1.84079
   0.26354  -0.16637   1.84079
   0.26354  -0.16637   1.84079
   0.26354  -0.16637   1.84079
   0.26354   0.07305   1.84079
   0.26354   0.31247   1.84079
   0.26354   0.31247   1.60137
   0.50296   0.07305   1.60137
   0.26354   0.07305   1.36195
   0.26354  -0.16637   1.36195
   0.26354   0.07305   1.36195
   0.26354   0.07305   1.36195
   0.26354   0.31247   1.12253
   0.50296   0.31247   1.12253
   0.50296   0.07305   0.88312
   0.26354   0.07305   0.88312
   0.26354   0.07305   0.88312
   0.26354   0.07305   0.64370
   0.50296   0.31247   0.64370
   0.50296   0.07305   0.64370
   0.26354   0.07305   0.64370
   0.26354  -0.16637   0.64370
   0.50296   0.07305   0.40428
   0.26354   0.07305   0.40428
   0.50296   0.31247   0.40428
   0.50296   0.31247   0.16486
   0.50296   0.07305  -0.07456
   0.26354   0.07305  -0.07456
   0.26354  -0.16637  -0.07456
   0.50296   0.07305   0.16486
   0.26354   0.55188   0.16486
   0.50296   0.31247  -0.07456
   0.50296   0.31247  -0.31398
   0.50296   0.07305  -0.31398
   0.26354  -0.16637  -0.31398
   0.26354   0.07305  -0.31398
   0.26354   0.07305  -0.31398
   0.26354   0.31247  -0.55340
   0.50296   0.07305  -0.55340
   0.26354   0.07305  -0.55340
   0.26354   0.07305  -0.55340
   0.26354   0.07305  -0.79282
   0.26354   0.07305  -0.79282
   0.26354   0.07305  -0.79282
   0.26354   0.31247  -0.79282
   0.50296   0.07305  -1.03224
   0.02413   0.31247  -1.03224
   0.02413   0.07305  -1.03224
   0.26354   0.31247  -1.03224
   0.02413   0.31247  -1.03224
   0.26354   0.07305  -1.27166
   0.02413   0.31247  -1.27166
   0.26354   0.07305  -1.27166
   0.26354   0.07305  -1.27166
   0.02413   0.07305  -1.03224
   0.26354   0.07305  -1.27166
   0.02413   0.07305  -1.27166
   0.26354  -0.16637  -1.27166
   0.02413   0.07305  -1.27166
   0.02413   0.07305  -1.27166
   0.02413   0.07305  -1.27166
  -0.21529   0.07305  -1.27166
   0.02413   0.07305  -1.27166
   0.02413   0.07305  -1.27166
   0.02413   0.07305  -1.51107
  -0.21529   0.07305  -1.27166
   0.02413  -0.16637  -1.03224
  -0.21529   0.07305  -1.27166
  -0.21529   0.31247  -1.27166
  -0.21529   0.07305  -1.27166
  -0.21529   0.07305  -1.27166
  -0.21529  -0.16637  -1.27166
  -0.21529   0.07305  -1.27166
  -0.21529   0.07305  -1.27166
  -0.21529   0.07305  -1.27166
  -0.45471   0.07305  -1.27166
  -0.21529   0.07305  -1.27166
  -0.45471   0.07305  -1.27166
  -0.21529   0.07305  -1.27166
  -0.45471   0.07305  -1.27166
  -0.45471   0.07305  -1.27166
  -0.45471   0.07305  -1.27166
  -0.45471   0.07305  -1.27166
  -0.45471   0.07305  -1.27166
  -0.45471   0.31247  -1.27166
  -0.45471   0.07305  -1.27166
  -0.45471   0.07305  -1.51107
  -0.45471   0.07305  -1.27166
  -0.21529   0.07305  -1.51107
  -0.45471   0.07305  -1.27166
  -0.45471   0.07305  -1.27166
  -0.69413   0.31247  -1.27166
  -0.45471   0.31247  -1.27166
  -0.45471   0.31247  -1.51107
  -0.45471   0.07305  -1.51107
  -0.69413  -0.16637  -1.51107
  -0.69413   0.07305  -1.27166
  -0.45471   0.07305  -1.51107
  -0.69413   0.31247  -1.27166
  -0.69413   0.31247  -1.51107
  -0.69413   0.07305  -1.51107
  -0.69413   0.07305  -1.51107
  -0.45471   0.07305  -1.75049
  -0.69413   0.07305  -1.51107
  -0.69413   0.07305  -1.75049
  -0.69413   0.07305  -1.51107
  -0.69413   0.07305  -1.51107
  -0.69413   0.07305  -1.75049
  -0.93355   0.07305  -1.51107
  -0.69413   0.07305  -1.75049
  -0.69413   0.07305  -1.75049
  -0.69413   0.31247  -1.75049
  -0.93355   0.07305  -1.51107
  -0.69413   0.07305  -1.75049
  -0.93355   0.07305  -1.75049
  -0.93355   0.07305  -1.75049
