********************************************************************************
               CENTRO DE INSTRUMENTACION Y REGISTRO SISMICO  A.C.  
                       Coordinacion de Servicios Tecnicos
     Anaxagoras 814, Col. Narvarte, Benito Juarez, C.P. 03020 Mexico, D.F.
            Tels. 687 45 42/ 687 45  82             Fax. 669 25 12
********************************************************************************
ARCHIVO ESTANDAR DE ACELERACION:
VERSION DEL FORMATO                    : 2.0
NOMBRE DEL ARCHIVO                     : AR140204.181
FECHA Y HORA DE CREACION               : 09/JUL/04, 11:30
REF. CATALOGO ACELEROGRAMAS, SMIS 1996 : REGISTRO No.     /PAG.


================================================================================
DATOS DE LA ESTACION:
NOMBRE DE LA ESTACION                  : ARAGON
CLAVE DE LA ESTACION                   : AR14
LOCALIZACION DE LA ESTACION            : Esc Prim Jose Ordaz Lopez Puebla 2 y
                                       : Baja California, Col Providencia
                                       : Gustavo A. Madero
                                       :
                                       :
COORDENADAS DE LA ESTACION             : 19.481 LAT. N 
                                       : 99.076 LONG. W 
ALTITUD (msnm)                         : 2232
TIPO DE SUELO                          : ARCILLOSO, ZONA LAGO
                                       : 
                                       : 
INSTITUCION RESPONSABLE                : CIRES
                                       :

================================================================================
DATOS DEL ACELEROGRAFO:
MODELO DEL ACELEROGRAFO                : RAD-851
NUMERO DE SERIE DEL ACELEROGRAFO       : 235
NUMERO DE CANALES                      : 3
ORIENTACION C1-C6 (rumbo;orientacion)  : /N00E/+V/N90W
ORIENTACION C7-C12 (rumbo;orientacion) :
VEL. DE MUESTREO, C1-C6 (muestras/s)   : /100/100/100
VEL. DE MUESTREO, C7-C12 (muestras/s)  :
ESC. COMPLETA DE SENSORES, C1-C6, (g)  : /0.5/0.5/0.5
ESC. COMPLETA DE SENSORES, C7-C12, (g) :
FREC. NAT. DE SENSORES, C1-C6, (Hz)    : /30/30/32
FREC. NAT. DE SENSORES, C7-C12, (Hz)   :
AMORTIGUAMIENTO DE SENSORES, C1-C6     : /0.733/0.790/0.750
AMORTIGUAMIENTO DE SENSORES, C7-C12    :
INTERVALO DE MUESTREO, C1-C6, (s)      : /0.01/0.01/0.01
INTERVALO DE MUESTREO, C7-C12, (s)     :
UMBRAL DE DISPARO, C1-C6, (Gal)        : /1.95/3.42/1.95
UMBRAL DE DISPARO, C7-C12, (Gal)       :
MEMORIA DE PREEVENTO (s)               : 16
TIEMPO DE POSEVENTO (s)                : 64


================================================================================
DATOS DEL SISMO:
FECHA DEL SISMO (GMT)                  : 18/ABR/02
HORA EPICENTRO (GMT)                   : 05:02:45:2
MAGNITUD(ES)                           : /Mb=5.4/Ms=6.0/Mc=6.3/Ma=6.2/Me=6.5
COORDENADAS DEL EPICENTRO              : 16.77 LAT. N
                                       : 101.12 LONG. W
PROFUNDIDAD FOCAL (km)                 : 22.0
FUENTE DE LOS DATOS EPICENTRALES       : SSN
                                       : INSTITUTO DE GEOFISICA, UNAM

================================================================================
DATOS DE ESTE REGISTRO:
HORA DE LA PRIMERA MUESTRA (GMT)       : 05:04:57.00
EXACTITUD DEL TIEMPO (s)               :     
DURACION DEL REGISTRO (s), C1-C6       : /175.75/175.75/175.75
DURACION DEL REGISTRO (s), C7-C12      :
NUM. TOTAL DE MUESTRAS, C1-C6          : /17575/17575/17575
NUM. TOTAL DE MUESTRAS, C7-C12         :
ACEL. MAX. (Gal), C1-C6                : /-3.06549/-0.74824/2.30947
ACEL. MAX., C1-C6, EN LA MUESTRA       :
ACEL. MAX. (Gal), C7-C12               :
ACEL. MAX., C7-C12, EN LA MUESTRA      :
UNIDADES DE LOS DATOS                  : Gal (cm/s/s)
FACTOR DE DECIMACION                   : 1
FORMATO DATOS (FORTRAN,10 campos/dato) : 3F10.5


================================================================================
CALIDAD DEL ACELEROGRAMA:
REGISTRO DIGITAL COMPLETO, CARECE DE TIEMPO ABSOLUTO.


================================================================================
COMENTARIOS:














================================================================================
DATOS DE ACELERACION:
---------+---------+---------+---------+---------+---------+---------+---------+
   CANAL-1   CANAL-2   CANAL-3   CANAL-4   CANAL-5   CANAL-6   CANAL-7   CANAL-8
      N00E        +V      N90W
---------+---------+---------+---------+---------+---------+---------+---------+
[...]
  -0.91072   0.20944  -0.56356
  -0.91072  -0.02998  -0.56356
  -0.91072  -0.02998  -0.56356
  -0.91072  -0.02998  -0.56356
  -0.91072  -0.02998  -0.32414
  -1.15014  -0.02998  -0.32414
  -1.15014   0.20944  -0.56356
  -0.91072  -0.02998  -0.56356
  -1.15014   0.20944  -0.56356
  -0.91072   0.20944  -0.32414
  -0.91072   0.20944  -0.32414
  -0.91072   0.20944  -0.56356
  -0.91072   0.20944  -0.32414
  -0.91072   0.20944  -0.32414
  -0.91072  -0.02998  -0.32414
  -0.91072  -0.02998  -0.32414
  -0.91072   0.20944  -0.32414
  -0.91072  -0.02998  -0.32414
  -0.91072  -0.02998  -0.32414
  -0.91072   0.20944  -0.32414
  -0.91072  -0.02998  -0.32414
  -0.91072   0.20944  -0.32414
  -0.67130  -0.02998  -0.32414
  -0.67130   0.20944  -0.32414
  -0.67130  -0.02998  -0.32414
  -0.67130  -0.02998  -0.32414
  -0.67130  -0.02998  -0.56356
  -0.67130   0.20944  -0.32414
  -0.67130  -0.02998  -0.56356
  -0.67130  -0.02998  -0.32414
  -0.43188  -0.02998  -0.56356
  -0.67130  -0.02998  -0.56356
  -0.67130  -0.02998  -0.56356
  -0.67130  -0.02998  -0.56356
  -0.67130  -0.02998  -0.56356
  -0.67130  -0.02998  -0.56356
  -0.43188  -0.02998  -0.56356
  -0.43188  -0.02998  -0.56356
  -0.43188   0.20944  -0.56356
  -0.67130   0.20944  -0.56356
  -0.67130  -0.02998  -0.56356
  -0.67130   0.20944  -0.56356
  -0.67130  -0.02998  -0.56356
  -0.67130   0.20944  -0.56356
  -0.67130   0.20944  -0.56356
  -0.67130   0.20944  -0.56356
  -0.91072   0.20944  -0.56356
  -0.67130   0.20944  -0.56356
  -0.91072   0.20944  -0.56356
  -0.67130   0.20944  -0.56356
  -0.67130   0.20944  -0.56356
  -0.91072   0.20944  -0.56356
  -0.91072   0.20944  -0.32414
  -0.91072   0.20944  -0.32414
  -0.91072   0.20944  -0.32414
  -0.91072   0.20944  -0.32414
  -0.91072   0.20944  -0.32414
  -0.91072   0.20944  -0.32414
  -0.91072   0.20944  -0.32414
  -1.15014   0.20944  -0.32414
  -0.91072   0.20944  -0.32414
  -1.15014   0.20944  -0.56356
  -1.15014   0.44885  -0.32414
  -0.91072   0.20944  -0.32414
  -1.15014   0.20944  -0.32414
  -0.91072  -0.02998  -0.32414
  -0.91072   0.20944  -0.32414
  -0.91072   0.20944  -0.32414
  -0.91072   0.20944  -0.32414
  -0.91072   0.20944  -0.56356
  -0.91072   0.20944  -0.32414
  -0.91072   0.20944  -0.56356
  -0.91072   0.20944  -0.56356
  -0.91072   0.20944  -0.56356
  -0.67130   0.20944  -0.56356
  -0.67130   0.20944  -0.56356
  -0.67130   0.20944  -0.56356
  -0.67130   0.20944  -0.56356
  -0.67130  -0.02998  -0.56356
  -0.43188  -0.02998  -0.56356
  -0.43188   0.20944  -0.56356
  -0.43188   0.20944  -0.56356
  -0.43188   0.20944  -0.56356
  -0.43188  -0.02998  -0.80298
  -0.19246   0.20944  -0.80298
  -0.19246  -0.02998  -0.80298
  -0.19246  -0.02998  -0.80298
  -0.19246  -0.02998  -0.80298
   0.04696  -0.02998  -0.80298
   0.04696  -0.02998  -0.80298
   0.04696  -0.02998  -0.80298
   0.04696  -0.02998  -0.80298
   0.04696  -0.02998  -0.80298
   0.04696  -0.02998  -0.80298
   0.04696  -0.02998  -0.80298
   0.04696  -0.02998  -0.80298
   0.04696  -0.02998  -0.56356
   0.04696  -0.02998  -0.56356
   0.28638  -0.02998  -0.80298
   0.28638  -0.02998  -0.80298
   0.28638  -0.02998  -0.56356
   0.28638  -0.02998  -0.56356
   0.28638  -0.02998  -0.56356
   0.28638  -0.02998  -0.56356
   0.28638  -0.26940  -0.32414
   0.52580  -0.02998  -0.32414
   0.52580  -0.02998  -0.32414
   0.52580  -0.02998  -0.32414
   0.52580  -0.02998  -0.32414
   0.52580  -0.26940  -0.32414
   0.52580  -0.26940  -0.08472
   0.52580  -0.26940  -0.32414
   0.76521  -0.02998  -0.32414
   0.76521  -0.02998  -0.08472
   0.76521  -0.26940  -0.08472
   0.76521  -0.26940  -0.08472
   1.00463  -0.26940   0.15470
   1.00463  -0.26940  -0.08472
   1.00463  -0.26940   0.15470
   1.00463  -0.26940  -0.08472
   1.24405  -0.26940  -0.08472
   1.00463  -0.26940   0.15470
   1.24405  -0.26940  -0.08472
   1.24405  -0.26940   0.15470
   1.24405  -0.26940  -0.08472
   1.24405  -0.02998   0.15470
   1.24405  -0.02998   0.15470
   1.48347  -0.02998   0.15470
   1.48347  -0.26940   0.15470
   1.48347  -0.02998   0.15470
   1.48347  -0.26940   0.15470
   1.48347  -0.02998   0.15470
   1.48347  -0.26940   0.15470
   1.48347  -0.02998   0.15470
   1.48347  -0.02998   0.15470
   1.48347  -0.02998   0.15470
   1.48347  -0.02998   0.15470
   1.72289  -0.02998   0.15470
   1.72289  -0.02998  -0.08472
   1.72289  -0.02998   0.15470
   1.72289   0.20944   0.15470
   1.72289   0.20944   0.15470
   1.96231  -0.02998   0.15470
   1.96231  -0.02998   0.15470
   1.96231  -0.02998   0.15470
   1.96231  -0.02998   0.15470
   1.96231  -0.02998   0.15470
   1.96231  -0.02998   0.15470
   1.96231  -0.02998  -0.08472
   1.96231  -0.02998   0.15470
   1.96231   0.20944  -0.08472
   2.20173   0.20944   0.15470
   2.20173   0.20944  -0.08472
   2.20173   0.20944  -0.08472
   2.20173   0.20944  -0.08472
   2.20173   0.20944  -0.08472
   2.20173   0.20944   0.15470
   2.20173   0.20944   0.15470
   2.20173   0.20944   0.15470
   2.20173   0.20944   0.15470
   2.20173   0.20944   0.15470
   1.96231   0.20944   0.15470
   1.96231   0.20944   0.15470
   1.96231   0.20944   0.15470
   2.20173   0.20944   0.15470
   2.20173   0.20944   0.15470
   1.96231   0.20944   0.15470
   1.96231   0.20944   0.15470
   1.96231   0.20944   0.15470
   1.96231   0.20944   0.15470
   1.96231   0.20944   0.15470
   1.96231   0.20944   0.15470
   1.96231   0.20944   0.15470
   1.96231   0.20944   0.15470
   1.72289   0.20944   0.39412
   1.72289   0.20944   0.39412
   1.72289   0.20944   0.39412
   1.72289   0.20944   0.39412
   1.72289   0.20944   0.39412
   1.72289   0.20944   0.39412
   1.72289   0.20944   0.39412
   1.72289   0.20944   0.39412
   1.72289   0.20944   0.39412
   1.72289   0.20944   0.39412
   1.72289   0.20944   0.63354
   1.48347  -0.02998   0.39412
   1.48347   0.20944   0.63354
   1.48347   0.20944   0.63354
   1.48347   0.20944   0.63354
   1.48347   0.20944   0.63354
   1.48347   0.20944   0.63354
   1.48347   0.20944   0.63354
   1.48347   0.20944   0.87296
   1.24405   0.20944   0.87296
   1.24405   0.20944   0.87296
   1.24405   0.20944   0.87296
   1.48347   0.20944   0.87296
   1.24405  -0.02998   1.11238
   1.24405  -0.02998   1.11238
   1.00463  -0.02998   1.11238
   1.00463  -0.02998   1.11238
   1.00463  -0.02998   1.11238
   1.00463  -0.02998   1.11238
   1.00463  -0.02998   1.11238
   1.00463   0.20944   1.11238
   1.00463  -0.02998   1.11238
   1.00463  -0.02998   1.11238
   1.00463  -0.02998   1.11238
   1.00463  -0.02998   1.35179
   0.76521  -0.02998   1.35179
   0.76521  -0.02998   1.35179
   0.76521  -0.02998   1.35179
   0.76521  -0.02998   1.35179
   0.76521  -0.02998   1.35179
   0.76521  -0.02998   1.35179
   0.76521  -0.02998   1.35179
   0.76521  -0.02998   1.11238
   0.76521  -0.02998   1.11238
   0.76521  -0.02998   1.11238
   0.76521  -0.02998   1.35179
   0.52580  -0.26940   1.35179
   0.76521  -0.26940   1.11238
   0.52580  -0.26940   1.35179
   0.52580  -0.02998   1.35179
   0.52580  -0.26940   1.11238
   0.52580  -0.26940   1.11238
   0.52580  -0.26940   1.11238
   0.28638  -0.26940   1.11238
   0.52580  -0.26940   1.11238
   0.52580  -0.26940   1.11238
   0.52580  -0.26940   0.87296
   0.52580  -0.26940   0.87296
   0.52580  -0.26940   0.87296
   0.52580  -0.02998   0.87296
   0.52580  -0.26940   1.11238
   0.52580  -0.26940   1.11238
   0.28638  -0.26940   0.87296
   0.28638  -0.26940   0.87296
   0.28638  -0.26940   0.87296
   0.28638  -0.26940   0.87296
   0.28638  -0.26940   0.87296
   0.28638  -0.26940   0.63354
   0.28638  -0.26940   0.87296
   0.28638  -0.26940   0.87296
   0.28638  -0.26940   0.87296
   0.04696  -0.26940   0.87296
   0.04696  -0.26940   0.87296
   0.04696  -0.26940   0.87296
   0.04696  -0.26940   0.87296
   0.04696  -0.26940   0.87296
  -0.19246  -0.26940   0.87296
   0.04696  -0.26940   0.63354
  -0.19246  -0.02998   0.87296
  -0.19246  -0.26940   0.87296
  -0.19246  -0.26940   0.87296
  -0.19246  -0.26940   0.87296
  -0.19246  -0.26940   0.87296
  -0.19246  -0.02998   0.87296
  -0.19246  -0.26940   0.87296
  -0.19246  -0.02998   0.87296
  -0.43188  -0.26940   0.87296
  -0.43188  -0.26940   0.87296
  -0.43188  -0.26940   0.87296
  -0.43188  -0.02998   0.87296
  -0.43188  -0.26940   0.87296
  -0.43188  -0.02998   0.87296
  -0.19246  -0.02998   0.87296
  -0.43188  -0.26940   0.63354
  -0.19246  -0.02998   0.87296
  -0.43188  -0.26940   0.63354
  -0.19246  -0.26940   0.87296
  -0.43188  -0.26940   0.87296
  -0.43188  -0.26940   0.87296
  -0.43188  -0.26940   0.87296
  -0.43188  -0.02998   0.87296
  -0.43188  -0.02998   0.87296
  -0.43188  -0.02998   0.63354
  -0.43188  -0.02998   0.63354
  -0.43188  -0.02998   0.63354
  -0.43188  -0.02998   0.63354
  -0.43188  -0.26940   0.63354
  -0.43188  -0.02998   0.63354
  -0.43188  -0.26940   0.63354
  -0.43188  -0.02998   0.63354
  -0.43188  -0.02998   0.63354
  -0.43188  -0.02998   0.63354
  -0.43188  -0.02998   0.39412
  -0.43188  -0.02998   0.39412
  -0.43188   0.20944   0.39412
  -0.67130   0.20944   0.39412
  -0.43188   0.20944   0.15470
  -0.43188   0.20944   0.39412
  -0.43188   0.20944   0.15470
  -0.43188   0.20944   0.15470
  -0.43188   0.20944   0.15470
  -0.67130   0.20944   0.15470
  -0.67130   0.20944   0.15470
  -0.43188   0.20944  -0.08472
  -0.43188   0.20944  -0.08472
  -0.67130   0.20944  -0.08472
  -0.67130   0.20944  -0.08472
  -0.67130   0.20944  -0.32414
  -0.43188   0.20944  -0.32414
  -0.67130   0.20944  -0.32414
  -0.67130   0.20944  -0.32414
  -0.67130   0.20944  -0.32414
  -0.67130   0.20944  -0.32414
  -0.67130   0.20944  -0.32414
  -0.67130  -0.02998  -0.32414
  -0.67130   0.20944  -0.56356
  -0.91072  -0.02998  -0.32414
  -0.91072  -0.02998  -0.32414
  -0.91072  -0.02998  -0.32414
  -0.91072  -0.02998  -0.56356
  -1.15014   0.20944  -0.56356
  -1.15014  -0.02998  -0.56356
  -1.15014   0.20944  -0.56356
  -1.15014  -0.02998  -0.56356
  -1.15014  -0.02998  -0.56356
  -1.15014  -0.02998  -0.56356
  -1.38956  -0.02998  -0.56356
  -1.38956  -0.02998  -0.56356
  -1.38956  -0.02998  -0.56356
  -1.62898  -0.02998  -0.56356
  -1.62898  -0.02998  -0.56356
  -1.62898  -0.02998  -0.56356
  -1.86839  -0.02998  -0.56356
  -1.86839  -0.02998  -0.56356
  -1.86839  -0.02998  -0.56356
  -2.10781  -0.02998  -0.56356
  -2.10781  -0.02998  -0.56356
  -2.10781  -0.02998  -0.56356
  -2.10781  -0.02998  -0.56356
  -2.34723  -0.02998  -0.56356
  -2.34723  -0.02998  -0.56356
  -2.58665  -0.02998  -0.80298
  -2.34723  -0.02998  -0.56356
  -2.58665  -0.02998  -0.56356
  -2.58665  -0.02998  -0.56356
  -2.58665  -0.02998  -0.80298
  -2.82607  -0.02998  -0.80298
  -2.34723  -0.02998  -0.80298
  -2.82607  -0.02998  -0.80298
  -2.58665  -0.02998  -0.80298
  -2.82607   0.20944  -0.80298
  -2.82607  -0.02998  -1.04240
  -2.82607   0.20944  -1.04240
  -2.82607  -0.02998  -1.04240
  -2.82607  -0.02998  -0.80298
  -3.06549  -0.02998  -1.04240
  -3.06549   0.20944  -1.04240
  -3.06549   0.20944  -1.04240
  -2.82607   0.20944  -1.04240
  -2.82607   0.20944  -1.04240
  -2.82607   0.20944  -1.28181
  -2.82607   0.20944  -1.28181
  -3.06549   0.20944  -1.28181
  -2.82607   0.44885  -1.28181
  -2.82607   0.20944  -1.28181
  -2.82607   0.20944  -1.28181
  -2.82607   0.20944  -1.28181
  -2.82607   0.20944  -1.28181
  -2.82607   0.20944  -1.28181
  -2.82607   0.20944  -1.28181
  -2.58665   0.20944  -1.52123
  -2.58665   0.20944  -1.28181
  -2.58665   0.44885  -1.52123
  -2.34723   0.20944  -1.52123
  -2.34723   0.20944  -1.52123
  -2.34723   0.20944  -1.52123
  -2.34723   0.20944  -1.52123
  -2.10781   0.44885  -1.52123
  -2.10781   0.20944  -1.52123
  -2.10781   0.20944  -1.52123
  -1.86839   0.20944  -1.28181
  -1.86839   0.20944  -1.28181
  -1.86839   0.20944  -1.52123
  -1.86839   0.20944  -1.52123
  -1.62898   0.20944  -1.28181
  -1.62898   0.20944  -1.28181
  -1.62898  -0.02998  -1.28181
  -1.38956   0.20944  -1.52123
  -1.15014   0.20944  -1.28181
  -1.15014   0.20944  -1.28181
  -1.15014  -0.02998  -1.28181
  -1.15014  -0.02998  -1.28181
  -0.91072  -0.02998  -1.28181
  -0.91072  -0.02998  -1.28181
  -0.91072  -0.02998  -1.04240
  -0.91072  -0.02998  -1.04240
  -0.67130  -0.02998  -1.28181
  -0.67130  -0.02998  -1.04240
  -0.67130   0.20944  -1.04240
  -0.67130  -0.02998  -1.28181
  -0.43188  -0.02998  -1.28181
  -0.43188  -0.02998  -1.04240
  -0.19246   0.20944  -1.04240
  -0.19246   0.20944  -1.04240
  -0.19246  -0.02998  -1.04240
  -0.19246  -0.02998  -1.04240
  -0.19246  -0.02998  -1.04240
   0.04696   0.20944  -1.04240
   0.04696  -0.02998  -1.04240
   0.04696  -0.02998  -1.04240
   0.04696  -0.02998  -1.04240
   0.04696   0.20944  -1.28181
   0.28638   0.20944  -1.04240
   0.28638   0.20944  -1.04240
   0.28638  -0.02998  -1.04240
   0.28638   0.20944  -1.04240
   0.52580   0.20944  -1.04240
   0.52580   0.20944  -1.04240
   0.52580   0.20944  -1.04240
   0.52580  -0.02998  -1.04240
   0.76521   0.20944  -1.04240
   0.52580   0.20944  -1.04240
   0.52580   0.20944  -0.80298
   0.52580   0.20944  -1.04240
   0.52580   0.20944  -1.04240
   0.76521   0.20944  -1.04240
   0.76521   0.20944  -1.04240
   0.76521   0.20944  -1.04240
   0.76521   0.20944  -1.04240
   0.76521   0.20944  -1.04240
   0.76521   0.20944  -1.04240
   1.00463   0.20944  -0.80298
   1.00463   0.20944  -0.56356
   1.00463   0.20944  -0.80298
   1.00463   0.20944  -0.56356
   1.00463   0.20944  -0.80298
   1.00463   0.20944  -0.32414
   1.00463   0.20944  -0.56356
   1.24405   0.20944  -0.56356
   1.24405   0.20944  -0.56356
   1.24405   0.20944  -0.32414
   1.24405   0.20944  -0.32414
   1.24405   0.20944  -0.32414
   1.24405   0.20944  -0.08472
   1.24405  -0.02998  -0.32414
   1.24405   0.20944  -0.08472
   1.24405  -0.02998  -0.08472
   1.24405  -0.02998  -0.08472
   1.24405  -0.02998  -0.08472
   1.00463   0.20944  -0.08472
   1.00463  -0.02998  -0.08472
   1.24405   0.20944  -0.08472
   1.24405  -0.02998  -0.08472
   1.00463  -0.02998  -0.08472
   1.00463  -0.02998  -0.08472
   1.24405  -0.02998  -0.08472
   1.24405  -0.02998  -0.08472
   1.00463  -0.02998   0.15470
   1.00463  -0.02998   0.15470
   1.24405  -0.02998   0.15470
   1.00463  -0.02998   0.15470
   0.76521  -0.02998   0.15470
   1.00463  -0.02998   0.15470
   1.00463  -0.02998   0.15470
   0.76521  -0.02998   0.15470
   0.76521  -0.02998   0.15470
   0.76521  -0.02998   0.15470
   0.76521  -0.02998   0.15470
   0.76521  -0.02998   0.15470
   1.00463  -0.02998   0.39412
   0.76521  -0.02998   0.39412
   0.76521  -0.02998   0.39412
   0.76521  -0.02998   0.39412
   0.76521  -0.26940   0.39412
   0.52580  -0.26940   0.39412
   0.52580  -0.26940   0.39412
   0.52580  -0.02998   0.39412
   0.52580  -0.02998   0.39412
   0.52580  -0.02998   0.39412
   0.52580  -0.02998   0.39412
   0.52580  -0.02998   0.39412
   0.52580  -0.02998   0.39412
   0.52580  -0.02998   0.39412
   0.52580  -0.26940   0.39412
   0.52580  -0.26940   0.39412
   0.52580  -0.26940   0.39412
   0.52580  -0.02998   0.39412
   0.28638  -0.02998   0.39412
   0.28638  -0.26940   0.39412
   0.28638  -0.02998   0.39412
   0.28638  -0.02998   0.15470
   0.28638  -0.02998   0.15470
   0.52580  -0.02998   0.15470
   0.52580  -0.02998   0.15470
   0.28638  -0.02998   0.39412
   0.28638  -0.02998   0.39412
   0.28638  -0.02998   0.39412
   0.28638  -0.02998   0.39412
   0.28638  -0.02998   0.15470
   0.28638  -0.02998   0.15470
   0.52580  -0.02998   0.15470
   0.28638  -0.02998   0.15470
   0.28638  -0.02998   0.15470
   0.52580  -0.02998   0.39412
   0.52580  -0.02998   0.39412
