********************************************************************************
               CENTRO DE INSTRUMENTACION Y REGISTRO SISMICO  A.C.  
                       Coordinacion de Servicios Tecnicos
     Anaxagoras 814, Col. Narvarte, Benito Juarez, C.P. 03020 Mexico, D.F.
            Tels. 687 45 42/ 687 45  82             Fax. 669 25 12
********************************************************************************
ARCHIVO ESTANDAR DE ACELERACION:
VERSION DEL FORMATO                    : 2.0
NOMBRE DEL ARCHIVO                     : AR149405.231
FECHA Y HORA DE CREACION               : 22 de enero 1996/17:01
REF. CATALOGO ACELEROGRAMAS, SMIS 1995 : REGISTRO No.     /PAG.


================================================================================
DATOS DE LA ESTACION:
NOMBRE DE LA ESTACION                  : ARAGON
CLAVE DE LA ESTACION                   : AR14
LOCALIZACION DE LA ESTACION            : Esc Prim Jose Ordaz Lopez Puebla 2 y
                                       : Baja California, Col Providencia
                                       : Gustavo A. Madero
                                       :
                                       :
COORDENADAS DE LA ESTACION             : 19.481 LAT. N 
                                       : 99.076 LONG. W 
ALTITUD (msnm)                         : 2232
TIPO DE SUELO                          : ARCILLOSO, ZONA LAGO
                                       : 
                                       : 
INSTITUCION RESPONSABLE                : CIRES
                                       :

================================================================================
DATOS DEL ACELEROGRAFO:
MODELO DEL ACELEROGRAFO                : DCA-333
NUMERO DE SERIE DEL ACELEROGRAFO       : 235
NUMERO DE CANALES                      : 3
ORIENTACION C1-C6 (rumbo;orientacion)  : /N00E/+V/N90W
ORIENTACION C7-C12 (rumbo;orientacion) :
VEL. DE MUESTREO, C1-C6 (muestras/s)   : /100/100/100
VEL. DE MUESTREO, C7-C12 (muestras/s)  :
ESC. COMPLETA DE SENSORES, C1-C6, (g)  : /0.5/0.5/0.5
ESC. COMPLETA DE SENSORES, C7-C12, (g) :
FREC. NAT. DE SENSORES, C1-C6, (Hz)    : /30/30/32
FREC. NAT. DE SENSORES, C7-C12, (Hz)   :
AMORTIGUAMIENTO DE SENSORES, C1-C6     : /0.733/0.790/0.750
AMORTIGUAMIENTO DE SENSORES, C7-C12    :
INTERVALO DE MUESTREO, C1-C6, (s)      : /0.01/0.01/0.01
INTERVALO DE MUESTREO, C7-C12, (s)     :
UMBRAL DE DISPARO, C1-C6, (Gal)        : /2.9/2.9/2.9
UMBRAL DE DISPARO, C7-C12, (Gal)       :
MEMORIA DE PREEVENTO (s)               : 4
TIEMPO DE POSEVENTO (s)                : 15


================================================================================
DATOS DEL SISMO:
FECHA DEL SISMO (GMT)                  : 23/MAY/94
HORA EPICENTRO (GMT)                   : 01:41:46,0
MAGNITUD(ES)                           : /Mc=5.60
COORDENADAS DEL EPICENTRO              : 18.030 LAT. N
                                       : 100.570 LONG. W
PROFUNDIDAD FOCAL (km)                 : 23
FUENTE DE LOS DATOS EPICENTRALES       : SSN
                                       : INSTITUTO DE GEOFISICA, UNAM

================================================================================
DATOS DE ESTE REGISTRO:
HORA DE LA PRIMERA MUESTRA (GMT)       : 01:42:44.57
EXACTITUD DEL TIEMPO (s)               : 0.01
DURACION DEL REGISTRO (s), C1-C6       : /45.80/45.80/45.80
DURACION DEL REGISTRO (s), C7-C12      :
NUM. TOTAL DE MUESTRAS, C1-C6          : /4580/4580/4580
NUM. TOTAL DE MUESTRAS, C7-C12         :
ACEL. MAX. (Gal), C1-C6                : /6.36/3.34/6.09
ACEL. MAX., C1-C6, EN LA MUESTRA       :
ACEL. MAX. (Gal), C7-C12               :
ACEL. MAX., C7-C12, EN LA MUESTRA      :
UNIDADES DE LOS DATOS                  : Gal (cm/s/s)
FACTOR DE DECIMACION                   : 1
FORMATO DATOS (FORTRAN,10 campos/dato) : 3F10.2


================================================================================
CALIDAD DEL ACELEROGRAMA:
REGISTRO DIGITAL COMPLETO, CON TIEMPO ABSOLUTO CORRECTO.


================================================================================
COMENTARIOS:














================================================================================
DATOS DE ACELERACION:
---------+---------+---------+---------+---------+---------+---------+---------+
   CANAL-1   CANAL-2   CANAL-3   CANAL-4   CANAL-5   CANAL-6   CANAL-7   CANAL-8
		N00E        +V      N90W
---------+---------+---------+---------+---------+---------+---------+---------+
[...]
     -4.89      0.22      0.82
     -5.13      0.22      0.34
     -5.13      0.22      0.34
     -5.37      0.70      0.10
     -5.13      0.94     -0.13
     -5.13      0.70     -0.37
     -4.89      0.70     -0.37
     -4.65      0.46     -0.61
     -4.65      0.22     -0.61
     -4.17     -0.02     -0.85
     -3.69     -0.49     -1.09
     -3.21     -0.25     -0.85
     -2.50     -0.25     -1.09
     -2.26     -0.49     -1.09
     -1.54     -0.25     -1.33
     -0.82     -0.49     -1.09
     -0.10     -0.49     -1.09
      0.38     -0.49     -0.85
      0.86     -0.49     -0.85
      1.34     -0.49     -0.85
      1.81     -0.49     -0.85
      2.05     -0.49     -0.85
      2.53     -0.49     -0.85
      2.77     -0.49     -0.85
      2.77     -0.73     -0.85
      3.25     -0.73     -0.85
      3.49     -0.73     -0.85
      3.49     -0.97     -0.85
      3.73     -0.97     -0.85
      3.97     -0.97     -0.61
      4.21     -1.21     -0.61
      4.21     -1.21     -0.37
      4.45     -0.97     -0.13
      4.69     -0.97     -0.13
      4.93     -0.97      0.10
      5.17     -0.73      0.34
      5.41     -0.73      0.58
      5.41     -0.73      0.58
      5.41     -0.73      0.58
      5.64     -0.49      0.82
      5.64     -0.49      0.58
      5.41     -0.25      0.58
      5.41     -0.25      1.06
      5.17     -0.25      0.82
      5.17     -0.02      0.82
      4.93     -0.02      0.58
      4.45     -0.02      0.58
      4.21     -0.02      0.34
      3.73     -0.02      0.34
      3.49     -0.25     -0.13
      3.01     -0.25     -0.13
      2.53     -0.25     -0.37
      2.05     -0.25     -0.61
      1.57     -0.25     -0.85
      1.34     -0.02     -0.85
      0.86     -0.25     -1.09
      0.38     -0.25     -1.09
     -0.10     -0.25     -1.09
     -0.34     -0.02     -1.09
     -0.58     -0.02     -1.09
     -0.82     -0.02     -1.09
     -0.82     -0.02     -1.09
     -0.82     -0.02     -1.33
     -0.82      0.22     -1.09
     -0.82      0.22     -1.33
     -0.58      0.22     -1.57
     -0.58      0.46     -1.57
     -0.58      0.46     -1.81
     -0.10      0.46     -1.81
      0.38      0.46     -1.81
      0.62      0.94     -1.81
      0.86      0.70     -1.81
      1.34      0.94     -2.05
      1.34      0.94     -1.81
      1.81      0.94     -1.81
      2.05      0.70     -1.81
      2.29      0.70     -1.81
      2.29      0.70     -1.81
      2.29      0.70     -1.81
      2.53      0.46     -1.81
      2.53      0.46     -1.81
      2.53      0.46     -2.29
      2.53      0.46     -2.29
      2.29      0.46     -2.05
      2.29      0.46     -2.05
      2.29      0.46     -2.05
      2.29      0.46     -2.05
      2.05      0.46     -1.81
      2.05      0.22     -1.81
      2.05      0.22     -1.57
      2.05     -0.02     -1.33
      1.81     -0.02     -1.09
      1.81     -0.02     -0.61
      1.81     -0.25     -0.37
      2.05     -0.49     -0.13
      1.81     -0.49      0.10
      1.81     -0.73      0.34
      1.81     -0.49      0.34
      1.57     -0.49      0.58
      1.57     -0.49      0.58
      1.34     -0.49      0.82
      1.10     -0.49      0.82
      0.62     -0.25      0.82
      0.38     -0.49      0.82
      0.14     -0.25      0.82
     -0.34     -0.49      0.82
     -0.58     -0.49      0.82
     -0.82     -0.25      0.82
     -1.30     -0.25      0.82
     -1.78     -0.02      0.82
     -2.02      0.22      0.82
     -2.50      0.22      0.82
     -2.73      0.46      0.58
     -2.73      0.94      0.34
     -2.73      1.18      0.10
     -2.97      1.42     -0.13
     -2.73      1.90     -0.37
     -2.73      2.14     -0.61
     -2.73      2.38     -0.85
     -2.50      2.38     -1.09
     -2.50      2.38     -1.33
     -2.50      2.38     -1.81
     -2.50      2.14     -1.81
     -2.50      2.14     -2.05
     -2.50      2.14     -2.29
     -2.73      2.14     -2.29
     -2.73      2.38     -2.53
     -2.97      2.38     -2.77
     -2.97      2.62     -3.01
     -3.21      2.38     -3.01
     -3.45      2.62     -3.49
     -3.69      2.38     -3.49
     -3.93      2.38     -3.73
     -3.69      2.14     -3.73
     -3.93      2.14     -3.73
     -3.93      1.90     -3.73
     -4.17      1.90     -3.73
     -4.17      1.66     -3.49
     -3.93      1.66     -3.49
     -3.93      1.66     -3.25
     -3.93      1.18     -3.25
     -3.93      1.18     -2.77
     -3.69      0.94     -2.77
     -3.69      0.70     -2.53
     -3.69      0.70     -2.53
     -3.93      0.46     -2.29
     -3.93      0.22     -2.05
     -3.69     -0.02     -1.81
     -3.69     -0.49     -1.81
     -3.69     -0.25     -1.57
     -3.69     -0.97     -1.33
     -3.69     -1.21     -1.09
     -3.69     -1.45     -0.61
     -3.69     -1.45     -0.61
     -3.69     -1.69     -0.13
     -3.69     -1.93      0.10
     -3.69     -2.17      0.34
     -3.69     -1.93      0.82
     -3.69     -1.93      1.06
     -3.45     -2.17      1.06
     -3.45     -2.17      1.30
     -3.45     -1.93      1.30
     -3.21     -2.41      1.54
     -2.97     -2.41      1.54
     -2.97     -2.65      1.54
     -2.73     -3.13      1.78
     -2.73     -2.89      1.78
     -2.50     -3.13      1.78
     -2.26     -3.13      1.78
     -2.02     -3.13      1.78
     -1.78     -2.89      1.78
     -1.30     -2.89      1.78
     -1.06     -2.89      1.78
     -0.82     -2.65      2.02
     -0.58     -2.65      1.78
     -0.10     -2.41      1.78
      0.14     -2.17      1.54
      0.38     -2.17      1.54
      0.62     -2.17      1.30
      0.86     -2.17      1.30
      1.10     -1.93      1.06
      1.34     -2.17      1.06
      1.57     -1.69      1.06
      1.57     -1.69      0.82
      1.81     -1.45      0.82
      2.05     -1.45      0.82
      1.81     -1.21      0.82
      2.29     -1.21      0.58
      2.29     -0.97      0.58
      2.53     -0.73      0.58
      2.53     -0.73      0.58
      2.53     -0.49      0.34
      2.53     -0.25      0.34
      2.77     -0.02      0.10
      2.77     -0.02      0.10
      2.53      0.22     -0.13
      2.77      0.46     -0.37
      2.53      0.70     -0.61
      2.53      0.70     -0.85
      2.53      0.46     -1.09
      2.29      0.70     -1.33
      2.29      0.70     -1.57
      2.05      0.94     -1.81
      2.05      0.94     -1.81
      2.05      0.94     -2.29
      2.05      0.70     -2.53
      2.05      0.70     -2.53
      1.81      0.70     -2.53
      1.81      0.94     -2.53
      1.81      0.94     -3.01
      1.81      0.94     -2.53
      1.57      0.70     -2.29
      1.57      0.94     -2.53
      1.34      0.94     -2.29
      1.34      0.94     -2.05
      1.34      0.94     -2.05
      0.86      0.70     -2.05
      0.86      0.46     -1.81
      0.86      0.22     -1.81
      0.38      0.46     -1.81
      0.38      0.22     -1.81
      0.38      0.22     -1.81
      0.14     -0.02     -1.57
      0.14     -0.02     -1.57
      0.14      0.22     -1.33
      0.38     -0.02     -1.09
      0.62     -0.02     -0.85
      0.86     -0.25     -0.85
      1.10     -0.25     -0.37
      1.10     -0.25     -0.13
      1.34     -0.25     -0.13
      1.57     -0.25      0.10
      1.57     -0.25      0.10
      1.57     -0.49      0.34
      1.57     -0.49      0.34
      1.57     -0.49      0.34
      1.57     -0.25      0.10
      1.34     -0.25      0.10
      1.34     -0.25     -0.13
      1.10     -0.25     -0.13
      0.86     -0.25     -0.37
      0.62     -0.25     -0.61
      0.38     -0.02     -0.61
      0.14      0.22     -0.85
     -0.10      0.22     -0.85
     -0.34      0.70     -1.09
     -0.58      0.94     -1.09
     -0.82      1.18     -1.33
     -1.06      0.94     -1.33
     -1.54      1.42     -1.57
     -1.78      1.66     -1.57
     -2.02      1.42     -1.57
     -2.26      1.42     -1.57
     -2.50      1.42     -1.57
     -2.97      1.42     -1.57
     -3.21      1.42     -1.33
     -3.69      1.42     -1.33
     -3.93      1.42     -1.09
     -4.17      1.42     -1.09
     -4.41      1.42     -0.85
     -4.89      1.66     -0.61
     -4.89      1.66     -0.37
     -5.13      1.90     -0.13
     -5.61      1.90      0.10
     -5.37      1.90      0.34
     -5.61      1.90      0.34
     -5.61      1.90      0.58
     -5.61      1.66      0.82
     -5.37      1.90      1.06
     -5.13      1.42      1.30
     -4.89      1.42      1.54
     -4.65      1.42      1.78
     -4.17      1.42      1.78
     -3.69      1.18      2.02
     -3.21      1.18      2.26
     -2.73      0.94      2.50
     -2.26      0.94      2.50
     -1.78      0.70      2.74
     -1.30      0.70      2.74
     -0.82      0.46      3.22
     -0.10      0.46      3.22
      0.38      0.46      3.46
      0.86      0.46      3.46
      1.10      0.46      3.22
      1.57      0.22      3.46
      1.81      0.22      3.46
      2.05     -0.02      3.46
      2.29     -0.25      3.22
      2.53     -0.49      3.22
      2.77     -0.73      3.22
      3.01     -0.73      3.22
      3.25     -0.97      2.98
      3.25     -0.97      2.74
      3.49     -1.21      2.74
      3.25     -1.45      2.74
      3.49     -1.45      2.74
      3.49     -1.45      2.74
      3.25     -1.45      2.50
      3.25     -1.45      2.50
      3.01     -1.21      2.50
      2.77     -1.21      2.50
      2.53     -1.21      2.74
      2.05     -1.21      2.74
      1.57     -1.69      2.26
      1.34     -1.45      2.50
      0.62     -1.45      2.50
      0.38     -1.69      2.50
     -0.34     -1.69      2.26
     -0.58     -1.69      2.26
     -0.82     -1.69      2.02
     -1.30     -1.69      2.02
     -1.54     -1.69      1.78
     -1.78     -1.69      1.78
     -2.02     -1.69      1.54
     -2.02     -1.45      1.30
     -2.02     -1.45      1.06
     -2.02     -1.45      0.82
     -2.02     -1.21      0.58
     -2.02     -1.45      0.34
     -2.02     -1.21      0.10
     -2.02     -1.21     -0.13
     -1.54     -1.21     -0.37
     -1.54     -1.21     -0.61
     -1.30     -1.21     -0.61
     -1.06     -1.45     -0.61
     -0.82     -1.45     -0.61
     -0.82     -1.45     -0.61
     -0.58     -1.45     -0.61
     -0.34     -1.45     -0.61
     -0.34     -1.21     -0.61
     -0.10     -1.45     -0.61
      0.14     -1.21     -0.37
      0.38     -1.21     -0.37
      0.86     -0.97     -0.37
      1.10     -0.73     -0.37
      1.34     -0.73     -0.37
      1.81     -0.49     -0.37
      2.29     -0.49     -0.37
      2.53     -0.49     -0.37
      3.01     -0.49     -0.37
      3.49     -0.25     -0.37
      3.97     -0.25     -0.37
      4.45     -0.25     -0.37
      4.93     -0.49     -0.37
      5.17     -0.25     -0.37
      5.64     -0.25     -0.13
      5.88     -0.25     -0.13
      6.12     -0.49      0.10
      6.12     -0.49      0.34
      6.36     -0.25      0.34
      6.12     -0.02      0.82
      6.12     -0.02      1.06
      5.88      0.22      1.30
      5.64      0.46      1.54
      5.41      0.70      1.78
      5.17      0.70      2.02
      4.93      0.70      2.26
      4.45      0.70      2.50
      4.21      0.46      2.74
      3.73      0.46      2.98
      3.49      0.46      2.98
      3.25      0.22      2.98
      2.77      0.46      2.98
      2.53      0.46      2.98
      2.05      0.22      2.74
      1.57      0.46      2.74
      1.34      0.22      2.50
      0.86      0.70      2.26
      0.38      0.94      2.02
      0.38      1.18      1.78
     -0.10      1.18      1.30
     -0.34      1.42      1.30
     -0.82      1.66      0.82
     -1.06      1.90      0.58
     -1.30      1.90      0.58
     -1.78      1.90      0.34
     -2.26      1.90      0.10
     -2.50      1.90      0.10
     -2.97      2.14     -0.13
     -3.21      1.90     -0.37
     -3.45      1.66     -0.13
     -3.69      1.90     -0.13
     -3.93      1.90     -0.13
     -4.17      1.90     -0.61
     -4.41      1.66     -0.85
     -4.41      1.66     -0.85
     -4.41      1.42     -1.09
     -4.41      1.66     -1.57
     -4.41      1.42     -1.81
     -4.17      1.66     -1.81
     -3.93      1.66     -2.29
     -3.93      1.90     -2.29
     -3.45      1.66     -2.53
     -3.21      1.66     -2.77
     -2.97      1.66     -2.77
     -2.50      1.66     -2.77
     -2.26      1.66     -2.77
     -1.78      1.66     -2.77
     -1.30      1.66     -3.01
     -0.82      1.66     -2.77
     -0.82      1.66     -2.77
     -0.58      1.66     -2.53
     -0.34      1.66     -2.29
     -0.10      1.66     -2.05
      0.14      1.18     -1.81
      0.14      1.18     -1.81
      0.38      1.18     -1.57
      0.38      0.94     -1.33
      0.62      0.70     -1.09
      0.62      0.94     -0.85
      0.38      0.70     -0.61
      0.62      0.46     -0.61
      0.62      0.22     -0.37
      0.62      0.22     -0.13
      0.62     -0.02      0.10
      0.86     -0.02      0.34
      0.62     -0.25      0.58
      1.10     -0.49      0.82
      0.86     -0.49      1.06
      1.10     -0.49      1.30
      1.10     -0.97      1.78
      1.10     -0.97      2.02
      0.86     -1.21      2.26
      1.10     -1.45      2.50
      0.86     -1.69      2.74
      0.62     -1.69      3.22
      0.62     -1.69      3.46
      0.38     -1.93      3.70
      0.14     -1.93      3.94
      0.14     -1.93      4.17
     -0.10     -2.17      4.17
     -0.34     -2.17      4.41
     -0.34     -2.17      4.41
     -0.58     -2.41      4.41
     -0.58     -2.17      4.41
     -0.58     -2.41      4.17
     -0.58     -2.41      3.94
     -0.58     -2.41      3.70
     -0.58     -2.17      3.46
     -0.58     -2.17      3.22
     -0.34     -1.93      2.74
     -0.34     -1.69      2.26
     -0.10     -1.45      1.78
      0.14     -1.45      1.54
      0.38     -1.21      1.06
      0.62     -0.97      0.58
      0.86     -0.97      0.10
      1.10     -0.73     -0.13
      1.57     -0.49     -0.61
      1.81     -0.49     -0.61
      2.05     -0.25     -0.85
      2.53     -0.02     -1.09
      2.77     -0.02     -1.33
      3.01      0.22     -1.33
      3.01      0.22     -1.57
      3.25      0.46     -1.57
      3.25      0.46     -1.81
      3.25      0.46     -2.05
      3.01      0.46     -1.81
      2.77      0.46     -2.05
      2.53      0.46     -2.29
      2.53      0.46     -2.29
      2.29      0.70     -2.53
      2.05      0.70     -2.77
      1.81      0.70     -3.01
      1.81      0.70     -3.01
      1.57      0.70     -3.25
      1.34      0.70     -3.49
      1.10      0.70     -3.49
      1.10      0.46     -3.49
      0.86      0.46     -3.73
      0.86      0.46     -3.73
      0.62      0.70     -3.73
      0.38      0.70     -3.49
      0.38      0.70     -3.49
      0.38      0.46     -3.49
      0.14      0.46     -3.25
      0.14      0.22     -3.25
      0.14      0.22     -3.01
      0.38     -0.02     -3.01
      0.14     -0.25     -2.77
      0.14     -0.49     -2.53
      0.38     -0.97     -2.29
      0.38     -1.21     -2.05
      0.38     -1.21     -1.81
      0.38     -1.45     -1.81
      0.38     -1.69     -1.57
      0.14     -1.69     -1.57
     -0.10     -1.93     -1.57
      0.14     -1.93     -1.33
     -0.10     -1.93     -1.33
     -0.10     -2.17     -1.33
     -0.10     -1.93     -1.33
     -0.10     -1.93     -1.33
     -0.10     -1.93     -1.33
     -0.10     -1.69     -1.57
     -0.10     -1.69     -1.57
     -0.10     -1.45     -1.57
      0.14     -1.21     -1.57
      0.14     -1.21     -1.57
