********************************************************************************
               CENTRO DE INSTRUMENTACION Y REGISTRO SISMICO  A.C.  
                       Coordinacion de Servicios Tecnicos
     Anaxagoras 814, Col. Narvarte, Benito Juarez, C.P. 03020 Mexico, D.F.
            Tels. 687 45 42/ 687 45  82             Fax. 669 25 12
********************************************************************************
ARCHIVO ESTANDAR DE ACELERACION:
VERSION DEL FORMATO                    : 2.0
NOMBRE DEL ARCHIVO                     : AR149804.201
FECHA Y HORA DE CREACION               : 19/ENERO/2000. 10:15 
REF. CATALOGO ACELEROGRAMAS, SMIS 1996 : REGISTRO No.     /PAG.


================================================================================
DATOS DE LA ESTACION:
NOMBRE DE LA ESTACION                  : ARAGON
CLAVE DE LA ESTACION                   : AR14
LOCALIZACION DE LA ESTACION            : Esc Prim Jose Ordaz Lopez Puebla 2 y
                                       : Baja California, Col Providencia
                                       : Gustavo A. Madero
                                       :
                                       :
COORDENADAS DE LA ESTACION             : 19.481 LAT. N 
                                       : 99.076 LONG. W 
ALTITUD (msnm)                         : 2232
TIPO DE SUELO                          : ARCILLOSO, ZONA LAGO
                                       : 
                                       : 
INSTITUCION RESPONSABLE                : CIRES
                                       :

================================================================================
DATOS DEL ACELEROGRAFO:
MODELO DEL ACELEROGRAFO                : RAD-851
NUMERO DE SERIE DEL ACELEROGRAFO       : 235
NUMERO DE CANALES                      : 3
ORIENTACION C1-C6 (rumbo;orientacion)  : /N00E/+V/N90W
ORIENTACION C7-C12 (rumbo;orientacion) :
VEL. DE MUESTREO, C1-C6 (muestras/s)   : /100/100/100
VEL. DE MUESTREO, C7-C12 (muestras/s)  :
ESC. COMPLETA DE SENSORES, C1-C6, (g)  : /0.5/0.5/0.5
ESC. COMPLETA DE SENSORES, C7-C12, (g) :
FREC. NAT. DE SENSORES, C1-C6, (Hz)    : /30/30/32
FREC. NAT. DE SENSORES, C7-C12, (Hz)   :
AMORTIGUAMIENTO DE SENSORES, C1-C6     : /0.733/0.790/0.750
AMORTIGUAMIENTO DE SENSORES, C7-C12    :
INTERVALO DE MUESTREO, C1-C6, (s)      : /0.01/0.01/0.01
INTERVALO DE MUESTREO, C7-C12, (s)     :
UMBRAL DE DISPARO, C1-C6, (Gal)        : /2.44/3.42/2.44
UMBRAL DE DISPARO, C7-C12, (Gal)       :
MEMORIA DE PREEVENTO (s)               : 16
TIEMPO DE POSEVENTO (s)                : 64


================================================================================
DATOS DEL SISMO:
FECHA DEL SISMO (GMT)                  : 20/ABR/98
HORA EPICENTRO (GMT)                   : 22:59:17.00
MAGNITUD(ES)                           : /Mb=5.4/Mc=5.0/Ma=5.5/Me=5.7
COORDENADAS DEL EPICENTRO              : 18.37 LAT. N
                                       : 101.21 LONG. W
PROFUNDIDAD FOCAL (km)                 : 66.0
FUENTE DE LOS DATOS EPICENTRALES       : SSN
                                       : INSTITUTO DE GEOFISICA, UNAM

================================================================================
DATOS DE ESTE REGISTRO:
HORA DE LA PRIMERA MUESTRA (GMT)       : 23:00:26.00
EXACTITUD DEL TIEMPO (s)               : 0.01
DURACION DEL REGISTRO (s), C1-C6       : /136.75/136.75/136.75
DURACION DEL REGISTRO (s), C7-C12      :
NUM. TOTAL DE MUESTRAS, C1-C6          : /13675/13675/13675
NUM. TOTAL DE MUESTRAS, C7-C12         :
ACEL. MAX. (Gal), C1-C6                : /3.60828/2.26370/4.78799
ACEL. MAX., C1-C6, EN LA MUESTRA       :
ACEL. MAX. (Gal), C7-C12               :
ACEL. MAX., C7-C12, EN LA MUESTRA      :
UNIDADES DE LOS DATOS                  : Gal (cm/s/s)
FACTOR DE DECIMACION                   : 1
FORMATO DATOS (FORTRAN,10 campos/dato) : 3F10.5


================================================================================
CALIDAD DEL ACELEROGRAMA:
REGISTRO DIGITAL COMPLETO CON TIEMPO ABSOLUTO CORRECTO.


================================================================================
COMENTARIOS:














================================================================================
DATOS DE ACELERACION:
---------+---------+---------+---------+---------+---------+---------+---------+
   CANAL-1   CANAL-2   CANAL-3   CANAL-4   CANAL-5   CANAL-6   CANAL-7   CANAL-8
      N00E        +V      N90W
---------+---------+---------+---------+---------+---------+---------+---------+
[...]
   1.41951  -0.10893   0.95729
   1.89835  -0.10893   1.19671
   1.89835   0.13049   0.95729
   1.89835  -0.10893   0.95729
   2.13777  -0.34835   0.95729
   2.13777  -0.34835   1.19671
   2.13777  -0.10893   1.43613
   2.13777  -0.34835   1.19671
   1.89835  -0.58777   1.19671
   1.65893  -0.82719   1.19671
   1.65893  -0.82719   1.19671
   1.18009  -0.82719   1.19671
   1.41951  -0.82719   1.19671
   1.18009  -1.06661   0.95729
   1.18009  -1.06661   0.71787
   0.94068  -1.06661   0.71787
   0.94068  -1.06661   0.47845
   0.70126  -1.06661   0.23903
   0.70126  -1.30603   0.47845
   0.22242  -1.06661   0.47845
  -0.01700  -1.30603   0.23903
  -0.49584  -1.30603  -0.00039
  -0.97468  -1.06661  -0.00039
  -0.97468  -0.82719  -0.23980
  -0.97468  -0.58777  -0.47922
  -0.97468  -0.34835  -0.47922
  -1.21409  -0.34835  -0.71864
  -1.21409  -0.34835  -0.71864
  -1.21409  -0.58777  -0.71864
  -1.21409  -0.58777  -0.47922
  -1.45351  -0.82719  -0.71864
  -1.69293  -0.82719  -0.71864
  -1.93235  -0.58777  -0.95806
  -1.93235  -0.34835  -0.95806
  -2.17177  -0.34835  -1.19748
  -2.17177   0.13049  -0.95806
  -2.17177  -0.10893  -1.19748
  -1.93235   0.36990  -1.43690
  -1.93235   0.36990  -1.43690
  -1.93235   0.36990  -1.67632
  -2.41119   0.13049  -1.91574
  -2.41119   0.13049  -1.91574
  -2.41119   0.36990  -1.67632
  -2.41119   0.60932  -1.67632
  -2.41119   0.84874  -1.67632
  -2.17177   1.32758  -1.67632
  -1.93235   1.32758  -1.19748
  -1.93235   1.32758  -1.43690
  -1.69293   1.32758  -0.95806
  -1.21409   1.32758  -0.71864
  -0.97468   1.32758  -0.71864
  -1.21409   1.32758  -0.47922
  -1.45351   1.08816  -0.71864
  -1.21409   1.32758  -0.47922
  -0.97468   1.56700  -0.23980
  -0.97468   1.56700  -0.23980
  -0.97468   1.80642  -0.23980
  -0.73526   1.80642   0.23903
  -0.49584   1.80642  -0.00039
  -0.25642   2.04584   0.23903
  -0.01700   2.04584   0.47845
   0.22242   1.80642   0.47845
   0.70126   1.80642   0.71787
   0.94068   1.80642   0.71787
   1.18009   1.32758   0.95729
   1.41951   1.32758   1.19671
   1.41951   1.08816   1.43613
   1.41951   1.08816   1.43613
   1.41951   1.08816   1.67555
   1.65893   1.32758   1.67555
   1.65893   1.08816   1.43613
   1.89835   1.08816   1.43613
   1.89835   1.08816   1.19671
   2.13777   0.84874   1.19671
   2.37719   0.60932   0.95729
   2.37719   0.36990   0.95729
   2.37719  -0.10893   0.95729
   2.37719  -0.34835   0.71787
   2.13777  -0.58777   0.71787
   2.13777  -0.34835   0.47845
   2.13777  -0.82719   0.23903
   2.13777  -0.58777   0.23903
   2.13777  -0.82719   0.23903
   2.13777  -0.58777   0.23903
   1.89835  -0.82719  -0.23980
   1.89835  -1.06661  -0.47922
   2.13777  -1.30603  -0.71864
   1.89835  -1.30603  -0.71864
   2.13777  -1.30603  -0.47922
   2.13777  -1.54545  -0.71864
   2.37719  -1.30603  -0.47922
   2.13777  -1.30603  -0.71864
   2.13777  -1.30603  -0.47922
   1.89835  -1.06661  -0.95806
   2.13777  -0.82719  -0.71864
   2.13777  -1.06661  -0.95806
   2.13777  -1.30603  -0.95806
   2.13777  -1.78487  -0.95806
   2.13777  -1.78487  -0.71864
   1.89835  -2.02428  -0.71864
   1.89835  -2.02428  -0.23980
   1.65893  -1.78487  -0.23980
   1.65893  -1.54545  -0.23980
   1.41951  -1.30603  -0.00039
   1.18009  -1.30603  -0.00039
   1.18009  -1.06661   0.23903
   1.18009  -1.30603   0.23903
   1.41951  -1.30603   0.23903
   1.18009  -1.54545   0.23903
   1.41951  -1.54545   0.47845
   1.18009  -1.54545   0.47845
   1.18009  -1.54545   0.47845
   0.94068  -1.30603   0.71787
   1.18009  -1.06661   1.19671
   0.94068  -1.06661   1.43613
   0.70126  -1.06661   1.43613
   0.22242  -0.82719   1.43613
   0.22242  -0.58777   1.43613
   0.22242  -0.34835   1.43613
   0.22242  -0.34835   1.43613
   0.46184  -0.10893   1.67555
   0.22242   0.13049   1.67555
   0.46184   0.36990   1.67555
  -0.01700   0.13049   1.43613
   0.22242   0.60932   1.43613
   0.22242   0.60932   1.19671
  -0.01700   0.84874   1.19671
  -0.01700   0.84874   1.19671
  -0.01700   1.08816   0.95729
  -0.25642   1.08816   0.71787
  -0.49584   1.32758   0.71787
  -0.49584   1.08816   0.23903
  -0.25642   1.08816   0.23903
  -0.25642   0.84874  -0.00039
  -0.49584   0.84874  -0.23980
  -0.49584   0.84874  -0.23980
  -0.49584   1.08816  -0.71864
  -0.49584   1.08816  -0.71864
  -0.73526   1.32758  -0.95806
  -0.49584   1.32758  -1.19748
  -0.97468   1.08816  -1.43690
  -1.21409   1.32758  -1.91574
  -0.97468   1.32758  -1.91574
  -1.45351   1.56700  -2.39457
  -1.45351   1.32758  -2.63399
  -1.45351   1.32758  -2.87341
  -1.45351   1.32758  -2.87341
  -1.69293   0.84874  -3.35225
  -1.93235   0.84874  -3.59167
  -2.17177   0.84874  -3.83109
  -2.41119   0.84874  -3.83109
  -2.41119   1.08816  -4.07051
  -2.17177   1.32758  -3.83109
  -2.41119   1.08816  -4.07051
  -2.17177   1.08816  -4.07051
  -2.17177   0.84874  -4.30993
  -1.93235   0.60932  -4.30993
  -1.93235   0.60932  -4.54935
  -1.69293   0.60932  -4.30993
  -1.69293   0.60932  -4.54935
  -1.45351   0.36990  -4.30993
  -1.45351   0.36990  -4.07051
  -1.21409   0.36990  -3.83109
  -1.21409   0.36990  -3.83109
  -0.73526   0.60932  -3.35225
  -0.49584   0.60932  -3.35225
  -0.49584   0.36990  -3.11283
  -0.01700   0.13049  -3.35225
  -0.49584  -0.34835  -3.35225
  -0.25642  -0.58777  -3.11283
  -0.01700  -0.58777  -3.11283
   0.22242  -0.82719  -2.87341
   0.46184  -0.82719  -2.87341
   0.46184  -1.06661  -2.63399
   0.46184  -1.06661  -2.63399
   0.70126  -1.06661  -2.39457
   0.70126  -0.82719  -2.15516
   0.94068  -0.82719  -1.91574
   0.94068  -0.58777  -1.67632
   1.18009  -0.58777  -1.67632
   1.41951  -1.06661  -1.67632
   1.41951  -1.06661  -1.43690
   1.65893  -1.06661  -1.19748
   1.89835  -1.30603  -0.71864
   1.89835  -1.06661  -0.47922
   1.89835  -1.30603  -0.23980
   1.89835  -1.30603  -0.00039
   1.89835  -1.54545  -0.00039
   1.89835  -1.30603   0.23903
   2.13777  -1.54545  -0.00039
   1.89835  -1.54545   0.23903
   1.89835  -1.30603  -0.00039
   2.13777  -1.54545  -0.23980
   2.13777  -1.54545  -0.00039
   2.13777  -1.78487  -0.23980
   1.89835  -1.54545  -0.23980
   2.13777  -1.54545  -0.00039
   1.65893  -1.54545  -0.00039
   1.89835  -1.30603  -0.00039
   1.65893  -1.30603  -0.23980
   1.41951  -1.06661  -0.47922
   1.18009  -1.30603  -0.47922
   1.41951  -0.82719  -0.23980
   1.41951  -1.06661  -0.47922
   1.18009  -0.82719  -0.47922
   1.41951  -0.82719  -0.47922
   1.18009  -0.82719  -0.47922
   1.18009  -0.82719  -0.47922
   0.94068  -0.58777  -0.23980
   0.70126  -0.58777  -0.23980
   0.70126  -0.58777  -0.23980
  -0.01700  -0.58777  -0.47922
  -0.01700  -0.10893  -0.47922
  -0.25642   0.36990  -0.47922
  -0.49584   0.60932  -0.71864
  -0.25642   0.84874  -0.23980
  -0.25642   1.08816  -0.47922
  -0.49584   0.84874  -0.47922
  -0.49584   0.84874  -0.47922
  -0.49584   1.08816  -0.47922
  -0.73526   1.08816  -0.71864
  -0.97468   1.08816  -0.47922
  -0.97468   1.32758  -0.47922
  -1.21409   1.56700  -0.23980
  -1.45351   1.80642  -0.23980
  -1.45351   2.04584  -0.47922
  -1.69293   2.04584  -0.47922
  -1.69293   1.80642  -0.47922
  -1.45351   2.04584  -0.23980
  -1.69293   1.80642  -0.47922
  -1.69293   1.56700  -0.23980
  -1.93235   1.32758  -0.47922
  -1.93235   1.32758  -0.00039
  -1.93235   1.32758  -0.00039
  -1.93235   1.56700   0.23903
  -1.93235   1.56700   0.47845
  -2.17177   1.56700   0.23903
  -2.17177   1.08816   0.23903
  -1.93235   1.32758   0.23903
  -1.69293   1.08816  -0.00039
  -1.45351   1.08816   0.23903
  -1.45351   0.84874   0.23903
  -1.45351   0.84874   0.23903
  -1.69293   0.36990   0.23903
  -1.69293   0.13049   0.23903
  -1.93235   0.13049   0.23903
  -1.93235   0.13049   0.23903
  -1.93235   0.13049   0.47845
  -1.93235   0.36990   0.47845
  -1.93235   0.13049   0.47845
  -1.69293   0.13049   0.47845
  -1.45351  -0.10893   0.71787
  -1.21409  -0.10893   0.95729
  -1.21409  -0.58777   0.95729
  -0.97468  -0.34835   1.19671
  -0.97468  -0.34835   1.19671
  -0.73526  -0.34835   1.43613
  -0.73526  -0.58777   1.67555
  -0.49584  -0.58777   1.43613
  -0.25642  -0.82719   1.67555
  -0.25642  -0.58777   1.91497
  -0.01700  -0.58777   1.67555
  -0.01700  -0.82719   1.67555
  -0.01700  -1.06661   1.43613
   0.22242  -1.06661   1.19671
  -0.01700  -1.30603   0.95729
  -0.01700  -1.30603   0.95729
  -0.01700  -1.54545   0.71787
  -0.01700  -1.54545   0.95729
  -0.01700  -1.30603   0.71787
  -0.01700  -1.06661   0.71787
  -0.25642  -0.82719   0.71787
  -0.25642  -0.82719   0.71787
  -0.25642  -0.58777   0.71787
  -0.25642  -0.58777   0.47845
  -0.49584  -0.58777   0.47845
  -0.49584  -0.82719   0.23903
  -0.49584  -0.82719   0.23903
  -0.49584  -0.82719   0.47845
  -0.25642  -0.82719   0.71787
  -0.49584  -1.06661   0.71787
  -0.49584  -0.82719   1.19671
  -0.73526  -0.58777   1.19671
  -0.97468  -0.58777   1.19671
  -0.97468  -0.34835   0.95729
  -1.21409  -0.34835   0.95729
  -1.21409  -0.34835   0.95729
  -1.21409  -0.34835   0.47845
  -0.97468  -0.58777   0.47845
  -0.97468  -0.58777   0.23903
  -0.73526  -0.58777   0.23903
  -0.49584  -0.58777   0.23903
  -0.73526  -0.34835   0.47845
  -0.73526  -0.34835   0.47845
  -0.73526  -0.10893   0.23903
  -0.97468  -0.34835  -0.00039
  -0.73526  -0.34835  -0.00039
  -0.73526  -0.34835  -0.23980
  -0.73526  -0.34835  -0.23980
  -0.49584  -0.34835  -0.47922
  -0.25642  -0.34835  -0.23980
  -0.25642  -0.34835  -0.23980
  -0.25642  -0.34835  -0.00039
  -0.25642  -0.34835  -0.00039
  -0.01700  -0.58777   0.23903
  -0.01700  -0.58777   0.23903
  -0.01700  -0.34835   0.23903
  -0.25642  -0.34835   0.23903
  -0.01700  -0.10893   0.23903
  -0.01700  -0.34835   0.47845
  -0.01700  -0.34835   0.23903
   0.22242  -0.58777   0.23903
   0.22242  -0.58777  -0.00039
   0.22242  -0.58777  -0.00039
   0.46184  -0.58777  -0.00039
   0.22242  -0.58777  -0.00039
   0.46184  -0.34835   0.23903
  -0.01700  -0.10893  -0.00039
   0.22242   0.13049   0.23903
   0.22242   0.36990   0.23903
  -0.01700   0.60932   0.23903
   0.22242   0.36990   0.23903
  -0.01700   0.36990  -0.00039
   0.22242   0.36990   0.23903
   0.22242   0.13049   0.23903
   0.22242   0.60932   0.47845
   0.46184   0.60932   0.47845
   0.22242   0.84874   0.71787
   0.22242   0.84874   0.95729
  -0.01700   0.60932   1.19671
  -0.01700   0.84874   1.43613
  -0.25642   1.08816   1.67555
  -0.25642   1.08816   1.67555
  -0.73526   1.32758   1.67555
  -0.73526   1.08816   1.67555
  -0.73526   1.32758   2.15439
  -0.73526   1.32758   2.15439
  -0.49584   1.32758   2.39380
  -0.73526   1.32758   2.39380
  -0.97468   1.32758   2.87264
  -1.21409   1.32758   3.11206
  -1.45351   1.32758   3.35148
  -1.69293   1.56700   3.35148
  -1.93235   1.08816   3.59090
  -1.93235   1.32758   3.59090
  -1.69293   0.84874   3.83032
  -1.69293   0.84874   4.06974
  -1.45351   0.84874   4.30916
  -1.45351   0.84874   4.30916
  -1.21409   0.84874   4.78799
  -1.21409   0.60932   4.54857
  -0.97468   0.84874   4.54857
  -0.97468   0.84874   4.78799
  -0.73526   0.84874   4.54857
  -0.49584   1.08816   4.54857
  -0.49584   0.84874   4.54857
  -0.01700   0.60932   4.30916
  -0.01700   0.36990   4.06974
  -0.01700   0.36990   4.06974
   0.22242   0.13049   3.59090
   0.46184  -0.34835   3.35148
   0.70126  -0.34835   3.11206
   0.70126  -0.58777   2.87264
   0.94068  -0.58777   2.63322
   0.94068  -0.82719   2.39380
   0.94068  -0.82719   2.39380
   0.70126  -0.82719   2.15439
   0.94068  -0.58777   1.91497
   0.94068  -0.82719   1.67555
   1.18009  -1.06661   1.43613
   1.18009  -1.30603   1.19671
   1.41951  -1.30603   0.95729
   1.41951  -1.30603   0.47845
   1.41951  -1.30603   0.47845
   1.41951  -1.30603   0.47845
   1.18009  -1.30603   0.23903
   0.70126  -1.30603  -0.00039
   0.70126  -1.30603  -0.23980
   0.70126  -1.30603  -0.23980
   0.94068  -1.06661  -0.00039
   0.94068  -1.30603  -0.23980
   0.94068  -1.54545  -0.23980
   0.94068  -1.30603  -0.47922
   0.94068  -1.30603  -0.71864
   0.70126  -1.30603  -0.95806
   0.94068  -1.06661  -1.19748
   0.94068  -1.06661  -1.19748
   0.70126  -1.06661  -0.95806
   0.70126  -1.06661  -0.95806
   0.22242  -0.82719  -0.95806
  -0.01700  -1.06661  -1.19748
   0.22242  -0.82719  -1.43690
  -0.01700  -0.82719  -1.67632
  -0.01700  -0.58777  -1.67632
  -0.01700  -0.82719  -2.15516
  -0.01700  -0.82719  -2.15516
  -0.01700  -0.82719  -1.91574
   0.22242  -0.58777  -2.15516
   0.22242  -0.82719  -2.15516
  -0.01700  -0.58777  -1.91574
  -0.25642  -0.58777  -1.67632
  -0.25642  -0.58777  -1.91574
  -0.25642  -0.34835  -1.67632
  -0.25642  -0.10893  -1.91574
  -0.25642   0.13049  -1.91574
  -0.25642   0.36990  -1.91574
  -0.25642   0.13049  -1.91574
  -0.25642   0.13049  -1.91574
  -0.01700   0.13049  -1.67632
  -0.01700   0.36990  -1.67632
  -0.01700   0.36990  -1.43690
   0.22242   0.36990  -0.95806
  -0.01700   0.36990  -0.95806
  -0.01700   0.60932  -0.71864
   0.22242   0.84874  -0.71864
   0.22242   1.08816  -0.71864
   0.46184   1.08816  -0.47922
   0.70126   1.08816  -0.47922
   0.46184   0.84874  -0.47922
   0.94068   0.84874  -0.47922
   1.18009   0.84874  -0.23980
   1.41951   0.60932  -0.00039
   1.41951   0.13049  -0.23980
   1.41951   0.13049  -0.00039
   1.41951   0.13049  -0.00039
   1.65893   0.84874  -0.00039
   1.65893   0.84874   0.23903
   1.65893   0.84874   0.23903
   1.89835   1.08816   0.47845
   1.89835   1.08816   0.23903
   2.13777   1.08816   0.23903
   2.13777   0.60932   0.23903
   2.37719   0.60932   0.47845
   2.37719   0.60932   0.23903
   2.13777   0.60932   0.23903
   2.13777   1.08816   0.23903
   1.89835   0.84874   0.23903
   1.89835   0.84874   0.23903
   1.65893   0.84874   0.23903
   1.65893   0.84874  -0.23980
   1.65893   0.84874  -0.23980
   1.65893   1.08816  -0.47922
   1.65893   0.84874  -0.71864
   1.65893   0.84874  -0.95806
   1.65893   0.84874  -0.95806
   1.65893   0.84874  -1.19748
   1.65893   0.84874  -1.19748
   1.41951   0.60932  -1.43690
   1.18009   0.84874  -1.67632
   0.94068   0.84874  -1.67632
   0.70126   0.84874  -1.91574
   0.70126   0.84874  -2.15516
   0.46184   0.84874  -2.39457
   0.46184   0.84874  -2.63399
   0.22242   0.84874  -2.87341
   0.22242   0.60932  -3.35225
  -0.01700   0.60932  -3.35225
  -0.01700   0.36990  -3.35225
  -0.01700   0.36990  -3.35225
  -0.25642   0.13049  -3.35225
  -0.49584   0.13049  -3.11283
  -0.73526   0.13049  -3.35225
  -0.97468  -0.34835  -3.59167
  -1.21409  -0.10893  -3.83109
  -1.21409  -0.10893  -3.59167
  -1.21409  -0.10893  -3.35225
  -1.45351  -0.34835  -3.35225
  -0.97468  -0.10893  -2.87341
  -1.45351  -0.58777  -2.87341
  -1.45351  -0.82719  -2.63399
  -1.45351  -0.58777  -2.15516
  -1.69293  -0.82719  -2.15516
  -1.69293  -0.58777  -1.67632
  -1.45351  -0.10893  -1.67632
  -1.69293  -0.10893  -1.43690
  -1.69293   0.13049  -1.19748
  -1.69293   0.13049  -0.95806
  -1.45351  -0.34835  -0.71864
  -1.21409  -0.58777  -0.71864
  -0.97468  -0.82719  -0.95806
  -0.73526  -0.82719  -0.71864
  -0.49584  -1.06661  -0.71864
  -0.49584  -1.06661  -0.47922
  -0.49584  -0.82719  -0.47922
  -0.25642  -0.58777  -0.00039
  -0.01700  -0.58777   0.23903
  -0.01700  -0.58777   0.23903
   0.22242  -0.82719   0.23903
   0.46184  -0.82719   0.23903
   0.70126  -0.82719   0.23903
   1.18009  -0.58777   0.23903
   1.18009  -0.82719   0.47845
   1.18009  -0.82719   0.71787
   1.41951  -0.82719   0.71787
   1.65893  -0.58777   1.19671
   1.89835  -0.82719   1.19671
   2.13777  -0.58777   1.67555
   1.89835  -0.58777   1.67555
   2.13777  -0.34835   1.67555
