********************************************************************************
               CENTRO DE INSTRUMENTACION Y REGISTRO SISMICO  A.C.  
                       Coordinacion de Servicios Tecnicos
     Anaxagoras 814, Col. Narvarte, Benito Juarez, C.P. 03020 Mexico, D.F.
            Tels. 687 45 42/ 687 45  82             Fax. 669 25 12
********************************************************************************
ARCHIVO ESTANDAR DE ACELERACION:
VERSION DEL FORMATO                    : 2.0
NOMBRE DEL ARCHIVO                     : AR149305.152
FECHA Y HORA DE CREACION               : 96/01/10  13:18:50
REF. CATALOGO ACELEROGRAMAS, SMIS 1995 : REGISTRO No. 4082 /PAG. 374


================================================================================
DATOS DE LA ESTACION:
NOMBRE DE LA ESTACION                  : ARAGON
CLAVE DE LA ESTACION                   : AR14
LOCALIZACION DE LA ESTACION            : Esc Prim Jose Ordaz Lopez Puebla 2 y
                                       : Baja California, Col Providencia
                                       : Gustavo A. Madero
                                       :
                                       :
COORDENADAS DE LA ESTACION             : 19.481 LAT. N 
                                       : 99.076 LONG. W 
ALTITUD (msnm)                         : 2232
TIPO DE SUELO                          : ARCILLOSO, ZONA LAGO
                                       : 
                                       : 
INSTITUCION RESPONSABLE                : CIRES
                                       :

================================================================================
DATOS DEL ACELEROGRAFO:
MODELO DEL ACELEROGRAFO                : DCA-333
NUMERO DE SERIE DEL ACELEROGRAFO       : 235
NUMERO DE CANALES                      : 3
ORIENTACION C1-C6 (rumbo;orientacion)  : /N00E/+V/N90W
ORIENTACION C7-C12 (rumbo;orientacion) :
VEL. DE MUESTREO, C1-C6 (muestras/s)   : /100/100/100
VEL. DE MUESTREO, C7-C12 (muestras/s)  :
ESC. COMPLETA DE SENSORES, C1-C6, (g)  : /0.5/0.5/0.5
ESC. COMPLETA DE SENSORES, C7-C12, (g) :
FREC. NAT. DE SENSORES, C1-C6, (Hz)    : /30/30/32
FREC. NAT. DE SENSORES, C7-C12, (Hz)   :
AMORTIGUAMIENTO DE SENSORES, C1-C6     : /0.733/0.790/0.750
AMORTIGUAMIENTO DE SENSORES, C7-C12    :
INTERVALO DE MUESTREO, C1-C6, (s)      : /0.01/0.01/0.01
INTERVALO DE MUESTREO, C7-C12, (s)     :
UMBRAL DE DISPARO, C1-C6, (Gal)        : /2.9/2.9/2.9
UMBRAL DE DISPARO, C7-C12, (Gal)       :
MEMORIA DE PREEVENTO (s)               : 4
TIEMPO DE POSEVENTO (s)                : 15


================================================================================
DATOS DEL SISMO:
FECHA DEL SISMO (GMT)                  : 15/MAY/93
HORA EPICENTRO (GMT)                   : 3:11:56,0 
MAGNITUD(ES)                           : /Mb=5.90/Ms=5.90/Mc=6.00
COORDENADAS DEL EPICENTRO              : 16.470 LAT. N 
                                       : 98.720 LONG. W 
PROFUNDIDAD FOCAL (km)                 : < 5
FUENTE DE LOS DATOS EPICENTRALES       : SSN
                                       : INSTITUTO DE GEOFISICA, UNAM

================================================================================
DATOS DE ESTE REGISTRO:
HORA DE LA PRIMERA MUESTRA (GMT)       : 03:14:04.24
EXACTITUD DEL TIEMPO (s)               : 0.01
DURACION DEL REGISTRO (s), C1-C6       : /71.42/71.42/71.42
DURACION DEL REGISTRO (s), C7-C12      :
NUM. TOTAL DE MUESTRAS, C1-C6          : /7142/7142/7142
NUM. TOTAL DE MUESTRAS, C7-C12         :
ACEL. MAX. (Gal), C1-C6                : /7.21/2.31/6.49
ACEL. MAX., C1-C6, EN LA MUESTRA       :
ACEL. MAX. (Gal), C7-C12               :
ACEL. MAX., C7-C12, EN LA MUESTRA      :
UNIDADES DE LOS DATOS                  : Gal (cm/s/s)
FACTOR DE DECIMACION                   : 1
FORMATO DATOS (FORTRAN,10 campos/dato) : 3F10.2


================================================================================
CALIDAD DEL ACELEROGRAMA:
REGISTRO DIGITAL COMPLETO, CON TIEMPO ABSOLUTO CORRECTO.


================================================================================
COMENTARIOS:














================================================================================
DATOS DE ACELERACION:
---------+---------+---------+---------+---------+---------+---------+---------+
   CANAL-1   CANAL-2   CANAL-3   CANAL-4   CANAL-5   CANAL-6   CANAL-7   CANAL-8
      N00E        +V      N90W
---------+---------+---------+---------+---------+---------+---------+---------+
[...]
     -0.45      0.56      1.71
     -0.69      0.56      1.95
     -0.69      0.80      2.18
     -0.93      0.80      2.42
     -1.17      0.80      2.66
     -1.17      0.80      2.66
     -1.41      0.80      2.90
     -1.41      0.80      2.90
     -1.65      0.80      2.90
     -1.65      1.04      2.90
     -1.65      1.04      3.14
     -1.65      1.04      2.90
     -1.65      1.04      2.90
     -1.89      1.04      2.90
     -1.65      1.04      2.90
     -1.65      1.28      2.90
     -1.65      1.04      2.66
     -1.65      1.04      2.42
     -1.41      0.80      2.18
     -1.17      0.80      1.95
     -0.93      0.80      1.71
     -0.69      0.80      1.23
     -0.45      0.56      0.99
      0.03      0.56      0.51
      0.03      0.32      0.27
      0.51      0.56      0.03
      0.75      0.56     -0.21
      1.23      0.32     -0.45
      1.47      0.32     -0.45
      1.71      0.08     -0.69
      2.18      0.08     -0.93
      2.42      0.08     -1.17
      2.66     -0.16     -1.41
      2.90     -0.16     -1.65
      3.14     -0.16     -1.89
      3.38     -0.40     -1.89
      3.86     -0.16     -2.12
      4.10     -0.64     -2.12
      4.58     -0.64     -2.36
      4.58     -0.64     -2.12
      5.06     -0.88     -2.12
      5.30     -1.12     -2.12
      5.54     -1.12     -2.12
      5.54     -1.12     -2.12
      5.78     -1.12     -2.12
      6.02     -1.12     -1.89
      6.02     -1.12     -1.89
      6.26     -1.12     -1.89
      6.02     -1.12     -1.41
      6.02     -1.12     -1.41
      6.02     -1.12     -0.93
      5.78     -1.12     -0.45
      5.78     -0.88     -0.45
      5.54     -0.88     -0.21
      5.30     -1.12      0.03
      5.06     -0.88      0.51
      4.82     -0.88      0.51
      4.58     -0.88      0.99
      4.10     -0.88      1.23
      3.86     -0.64      1.47
      3.62     -0.64      1.95
      3.38     -0.88      2.18
      3.14     -0.64      2.42
      2.90     -0.88      2.66
      2.42     -0.88      2.66
      2.42     -0.88      2.90
      2.18     -0.64      2.90
      1.95     -0.64      3.14
      1.71     -0.64      3.14
      1.71     -0.40      3.14
      1.47     -0.64      3.14
      1.47     -0.64      3.14
      1.23     -0.40      3.14
      1.23     -0.40      3.14
      0.99     -0.40      3.14
      0.99     -0.40      3.14
      0.75     -0.40      2.90
      0.51     -0.40      2.90
      0.27     -0.16      2.90
      0.27     -0.40      2.66
      0.03     -0.16      2.66
      0.03     -0.40      2.42
      0.03     -0.40      2.18
     -0.45     -0.40      1.95
     -0.45     -0.40      1.95
     -0.69     -0.40      1.71
     -0.69     -0.40      1.47
     -0.93     -0.40      0.99
     -1.17     -0.40      0.99
     -1.17     -0.64      0.75
     -1.41     -0.64      0.27
     -1.41     -0.64      0.27
     -1.41     -0.64      0.03
     -1.65     -0.64     -0.21
     -1.65     -0.40     -0.45
     -1.65     -0.40     -0.45
     -1.89     -0.64     -0.69
     -1.89     -0.64     -1.17
     -1.89     -0.40     -1.17
     -1.89     -0.40     -1.41
     -2.60     -0.40     -1.41
     -2.12     -0.40     -1.65
     -2.12     -0.40     -1.65
     -2.12     -0.16     -1.89
     -2.36     -0.16     -2.12
     -2.36      0.08     -1.89
     -2.36      0.08     -2.12
     -2.36     -0.16     -2.12
     -2.36     -0.16     -2.12
     -2.12     -0.16     -2.12
     -2.36      0.32     -2.12
     -2.12      0.08     -2.12
     -2.12      0.08     -2.12
     -2.12      0.08     -2.12
     -2.12      0.08     -2.12
     -1.89      0.08     -2.12
     -1.89      0.08     -1.89
     -1.65      0.08     -1.89
     -1.41      0.32     -1.89
     -1.41      0.56     -1.89
     -1.17      0.56     -1.89
     -0.93      0.56     -1.89
     -0.69      0.80     -1.89
     -0.45      0.80     -1.89
     -0.45      0.80     -1.65
      0.03      0.80     -1.65
      0.03      0.56     -1.41
      0.03      0.32     -1.41
      0.27      0.32     -1.17
      0.27      0.56     -0.93
      0.51      0.56     -0.69
      0.75      0.56     -0.45
      0.99      0.56     -0.45
      1.23      0.56     -0.21
      1.47      0.80      0.03
      1.71      0.56      0.03
      1.95      0.56      0.27
      2.42      0.56      0.27
      2.66      0.56      0.75
      2.66      0.56      0.75
      2.90      0.80      0.99
      3.14      0.56      1.23
      3.38      0.80      1.47
      3.62      0.80      1.71
      3.86      1.04      1.95
      4.10      1.04      2.18
      4.34      1.04      2.42
      4.34      1.04      2.42
      4.58      1.04      2.66
      4.82      0.80      2.66
      5.06      1.04      2.90
      5.06      1.04      2.90
      5.06      1.04      3.14
      5.30      1.04      3.14
      5.06      1.04      3.14
      5.06      0.80      3.62
      5.06      0.80      3.62
      5.06      0.80      3.62
      5.06      0.56      3.62
      4.82      0.80      3.86
      4.82      0.80      4.10
      4.58      1.04      4.10
      4.34      0.80      4.10
      4.10      0.80      4.10
      3.86      0.56      4.10
      3.62      0.32      3.86
      3.62      0.08      4.10
      3.38      0.08      4.34
      2.90      0.32      4.10
      2.66      0.08      4.34
      2.42      0.08      4.10
      2.18      0.08      4.10
      1.71     -0.16      4.10
      1.47     -0.40      4.34
      1.23     -0.40      4.34
      0.75     -0.40      4.58
      0.51     -0.40      4.58
      0.03     -0.64      4.34
     -0.21     -0.64      4.34
     -0.69     -0.64      4.34
     -0.93     -0.64      4.34
     -1.41     -0.64      4.10
     -1.89     -0.88      4.10
     -2.12     -0.64      4.10
     -2.60     -0.64      3.86
     -2.84     -0.40      3.62
     -3.32     -0.16      3.38
     -3.56     -0.16      3.14
     -3.80     -0.16      2.90
     -4.28     -0.16      2.90
     -4.52      0.08      2.66
     -4.52      0.08      2.42
     -5.00      0.32      2.18
     -5.24      0.56      2.18
     -5.00      0.56      1.95
     -5.00      0.80      1.71
     -4.76      0.80      1.47
     -4.76      1.04      1.47
     -4.76      1.28      1.47
     -4.52      1.28      1.23
     -4.52      1.52      0.99
     -4.28      1.52      0.99
     -4.04      1.28      0.99
     -4.04      1.76      0.75
     -4.04      1.76      0.75
     -4.04      1.76      0.51
     -4.04      1.76      0.51
     -4.04      2.00      0.27
     -3.80      2.00      0.27
     -3.80      2.00      0.27
     -3.80      1.76      0.03
     -3.80      1.76     -0.21
     -3.80      1.76     -0.21
     -3.56      1.76     -0.45
     -3.80      1.52     -0.45
     -3.56      1.52     -0.93
     -3.56      1.28     -1.17
     -3.56      1.04     -1.41
     -3.32      1.04     -1.65
     -3.32      1.04     -1.41
     -3.08      0.80     -1.65
     -3.08      0.80     -1.65
     -3.08      0.56     -1.89
     -2.60      0.56     -2.12
     -2.60      0.32     -2.12
     -2.36      0.08     -2.36
     -2.36      0.08     -2.60
     -2.60      0.08     -2.60
     -2.36     -0.40     -2.60
     -2.36     -0.40     -2.84
     -2.12     -0.64     -2.84
     -2.12     -0.88     -2.84
     -2.12     -1.12     -2.84
     -2.12     -1.12     -2.84
     -1.89     -1.36     -2.84
     -1.89     -1.36     -3.08
     -1.89     -1.60     -3.08
     -1.65     -1.60     -2.84
     -1.65     -1.83     -2.84
     -1.65     -2.07     -2.84
     -1.65     -2.07     -3.08
     -1.41     -2.07     -3.08
     -1.17     -2.31     -3.08
     -1.17     -2.07     -3.08
     -1.17     -1.83     -3.32
     -1.17     -1.83     -3.56
     -1.17     -1.83     -3.56
     -0.93     -1.83     -3.56
     -0.93     -1.60     -3.56
     -0.93     -1.60     -3.56
     -0.69     -1.36     -3.56
     -0.69     -1.36     -3.56
     -0.69     -1.36     -3.56
     -0.69     -1.60     -3.32
     -0.45     -1.60     -3.08
     -0.69     -1.36     -2.84
     -0.69     -1.36     -2.60
     -0.69     -1.36     -2.36
     -0.93     -1.12     -2.12
     -0.93     -0.88     -2.12
     -0.93     -1.12     -1.89
     -0.93     -0.64     -1.65
     -0.93     -0.64     -1.41
     -1.17     -0.40     -1.41
     -1.17     -0.40     -1.17
     -1.17     -0.40     -1.17
     -1.17     -0.40     -0.93
     -1.41     -0.40     -0.93
     -1.41     -0.88     -0.93
     -1.41     -0.88     -0.69
     -1.41     -0.88     -0.45
     -1.65     -0.64     -0.45
     -1.65     -0.64     -0.45
     -1.89     -0.64     -0.45
     -1.89     -0.64     -0.69
     -1.89     -0.40     -0.69
     -1.89     -0.40     -0.69
     -2.12     -0.40     -0.93
     -2.12     -0.16     -0.93
     -2.36     -0.40     -0.93
     -2.36     -0.16     -1.17
     -2.60     -0.16     -1.41
     -2.60      0.08     -1.41
     -2.84     -0.16     -1.65
     -2.84     -0.16     -1.65
     -3.08      0.08     -1.89
     -3.08      0.08     -1.89
     -3.32      0.32     -2.12
     -3.32      0.32     -2.36
     -3.32      0.56     -2.36
     -3.32      0.80     -2.60
     -3.56      0.80     -2.60
     -3.80      1.04     -3.08
     -3.56      1.04     -3.32
     -3.56      1.04     -3.32
     -3.56      0.80     -3.56
     -3.56      1.04     -3.80
     -3.80      1.04     -4.04
     -3.80      1.28     -4.04
     -3.80      1.28     -4.28
     -3.56      1.28     -4.28
     -3.80      1.28     -4.28
     -3.56      0.80     -4.28
     -3.56      1.04     -4.28
     -3.56      1.04     -4.28
     -3.56      0.80     -4.28
     -3.56      0.80     -4.04
     -3.32      0.80     -4.04
     -3.32      0.56     -4.04
     -3.32      0.80     -4.04
     -3.08      1.04     -3.80
     -2.84      0.80     -3.80
     -2.60      0.80     -3.80
     -2.36      0.80     -3.56
     -2.12      0.80     -3.56
     -1.65      0.56     -3.32
     -1.41      0.56     -3.32
     -1.17      0.56     -3.08
     -0.69      0.56     -3.08
     -0.45      0.32     -2.84
      0.03      0.56     -2.84
      0.03      0.32     -2.60
      0.27      0.08     -2.36
      0.75      0.32     -2.12
      0.99      0.32     -2.12
      1.23      0.32     -2.12
      1.47      0.56     -1.89
      1.71      0.56     -1.89
      2.18      0.56     -1.65
      2.42      0.32     -1.65
      2.42      0.08     -1.41
      2.66      0.08     -1.41
      3.14     -0.16     -1.41
      3.38     -0.16     -1.17
      3.62     -0.16     -1.17
      4.10     -0.16     -0.93
      4.34     -0.16     -0.93
      4.58     -0.40     -0.93
      5.06     -0.40     -1.17
      5.30     -0.40     -0.93
      5.54     -0.64     -0.93
      5.78     -0.64     -0.93
      6.02     -0.64     -0.69
      6.02     -0.64     -0.45
      6.26     -0.88     -0.45
      6.49     -0.88     -0.45
      6.49     -0.88     -0.45
      6.73     -1.12     -0.45
      6.97     -1.36     -0.45
      7.21     -1.36     -0.45
      7.21     -1.36     -0.45
      7.21     -1.12     -0.45
      6.97     -1.12     -0.45
      7.21     -1.12     -0.45
      6.97     -1.36     -0.45
      6.97     -1.36     -0.69
      6.73     -1.36     -0.93
      6.73     -1.60     -0.69
      6.49     -1.60     -0.69
      6.26     -1.36     -0.69
      6.26     -1.12     -0.69
      6.02     -1.12     -0.69
      5.78     -1.12     -0.93
      5.54     -0.88     -0.69
      5.30     -0.88     -0.69
      5.06     -0.88     -0.45
      4.58     -0.64     -0.69
      4.34     -0.64     -0.45
      4.10     -0.64     -0.45
      3.62     -0.40     -0.21
      3.38     -0.40     -0.21
      2.90     -0.40      0.03
      2.66     -0.16      0.03
      2.18     -0.16      0.03
      1.95      0.32      0.27
      1.47      0.56      0.27
      1.23      0.56      0.27
      0.27      0.80      0.51
      0.27      0.56      0.51
      0.03      0.56      0.75
      0.03      0.56      0.75
     -0.45      0.32      0.99
     -0.93      0.56      0.99
     -1.17      0.80      1.23
     -1.41      0.80      1.47
     -1.65      1.04      1.47
     -2.12      1.04      1.95
     -2.36      1.04      1.95
     -2.60      1.04      2.18
     -2.60      1.04      2.42
     -3.08      0.80      2.42
     -3.08      0.80      2.66
     -3.08      1.04      2.90
     -3.32      1.04      2.90
     -3.32      0.56      3.14
     -3.32      0.32      3.14
     -3.32      0.32      3.14
     -3.08      0.80      3.14
     -3.08      0.56      3.14
     -3.08      0.56      3.14
     -3.08      0.56      3.14
     -2.84      0.32      3.14
     -2.60      0.08      3.14
     -2.60     -0.16      3.14
     -2.36     -0.16      2.90
     -2.12     -0.16      2.66
     -1.89     -0.16      2.66
     -1.89      0.08      2.42
     -1.65      0.08      2.18
     -1.41     -0.16      1.95
     -1.17     -0.16      1.95
     -1.17     -0.40      1.71
     -0.93     -0.40      1.71
     -0.69     -0.64      1.47
     -0.45     -0.64      1.23
     -0.45     -0.64      1.23
     -0.21     -0.64      0.99
      0.03     -0.64      0.75
      0.03     -0.40      0.51
      0.03     -0.64      0.51
      0.03     -0.64      0.27
      0.03     -0.64      0.27
      0.03     -0.64      0.27
      0.03     -0.64      0.03
      0.03     -0.64      0.03
      0.03     -0.88     -0.21
      0.03     -0.64     -0.45
      0.03     -0.64     -0.45
      0.03     -0.64     -0.21
     -0.21     -0.40     -0.21
     -0.21     -0.40     -0.21
     -0.69     -0.40     -0.21
     -0.45     -0.64     -0.21
     -0.45     -0.40     -0.21
     -0.21     -0.40      0.03
      0.03     -0.16      0.27
     -0.21     -0.16      0.27
      0.03     -0.16      0.51
      0.03     -0.16      0.51
      0.03     -0.16      0.75
      0.03     -0.16      0.99
      0.27     -0.40      0.99
      0.51     -0.40      1.47
      0.75     -0.40      1.71
      0.75     -0.40      2.18
      0.99     -0.16      2.42
      0.99     -0.40      2.66
      0.99     -0.40      3.14
      0.99     -0.16      3.38
      1.23     -0.40      3.62
      1.23     -0.40      3.86
      0.99     -0.64      4.34
      1.23     -0.64      4.58
      0.99     -0.64      4.82
      0.99     -0.64      5.06
      0.99     -0.88      5.54
      0.75     -0.88      5.54
      0.75     -0.88      5.54
      0.75     -0.88      6.02
      0.51     -0.88      6.02
      0.27     -1.12      6.02
      0.27     -0.88      6.02
      0.03     -0.88      6.02
      0.03     -0.88      6.26
      0.03     -0.88      6.49
      0.03     -0.88      6.49
     -0.21     -0.88      6.49
     -0.21     -0.88      6.26
     -0.45     -0.88      6.26
     -0.45     -0.64      6.02
     -0.45     -0.40      5.78
     -0.45     -0.40      5.78
     -0.45     -0.40      5.78
     -0.45     -0.40      5.54
     -0.21     -0.16      5.30
     -0.45     -0.16      5.06
     -0.21      0.08      5.06
     -0.21      0.08      4.58
      0.03      0.32      4.34
      0.03      0.56      4.10
      0.03      0.56      3.86
      0.03      1.04      3.62
      0.03      1.04      3.38
      0.03      0.80      3.14
      0.27      1.04      2.90
      0.27      1.28      2.66
      0.27      1.28      2.66
      0.27      1.28      2.18
      0.27      1.52      2.18
      0.51      1.76      1.71
      0.75      1.76      1.47
      0.99      1.52      1.47
      1.23      1.52      1.71
      1.23      1.52      1.47
      1.47      1.52      1.47
      1.47      1.52      1.23
      1.71      1.52      0.99
      1.95      1.52      0.99
      2.18      1.28      0.75
