********************************************************************************
              CENTRO DE INSTRUMENTACION Y REGISTRO SISMICO  A.C.

    Anaxagoras 814, Col. Narvarte, Benito Juarez, C.P. 03020 Mexico, D.F.
           Tels. 5687 45 42/ 5687 45  82             Fax. 5669 25 12
********************************************************************************
ARCHIVO ESTANDAR DE ACELERACION:
VERSION DEL FORMATO                    : 2.0
NOMBRE DEL ARCHIVO                     : AR1420150320223008
FECHA Y HORA DE CREACION               : 08/ABR/15, 11:22
REF. CATALOGO ACELEROGRAMAS, SMIS 1996 : REGISTRO No.     /PAG.


================================================================================
DATOS DE LA ESTACION:
NOMBRE DE LA ESTACION                  : ESC. PRIM. "JOSÉ ORDAZ LÓPEZ"
CLAVE DE LA ESTACION                   : AR14
LOCALIZACION DE LA ESTACION            : Del. Gustavo A. Madero,                
                                       : Col. Ampliación la Providencia,        
                                       : Calle Puebla esq. con calle            
                                       : Volcán Tacan.                          
                                       : 
COORDENADAS DE LA ESTACION             : 19.4808 LAT. N
                                       : 99.0760 LONG. W
ALTITUD (msnm)                         : 2232
TIPO DE SUELO                          : Arcilloso, zona lago                
                                       :                           
                                       : 
INSTITUCION RESPONSABLE                : CIRES
                                       : 

================================================================================
DATOS DEL ACELEROGRAFO:
MODELO DEL ACELEROGRAFO                : RADESD
NUMERO DE SERIE DEL ACELEROGRAFO       : 215
NUMERO DE CANALES                      : 3
ORIENTACION C1-C6 (rumbo;orientacion)  : /N00E/+V/N90W
ORIENTACION C7-C12 (rumbo;orientacion) : 
VEL. DE MUESTREO, C1-C6 (muestras/s)   : /100/100/100
VEL. DE MUESTREO, C7-C12 (muestras/s)  : 
ESC. COMPLETA DE SENSORES, C1-C6, (g)  : /0.5/0.5/0.5
ESC. COMPLETA DE SENSORES, C7-C12, (g) : 
FREC. NAT. DE SENSORES, C1-C6, (Hz)    : /30/30/32
FREC. NAT. DE SENSORES, C7-C12, (Hz)   : 
AMORTIGUAMIENTO DE SENSORES, C1-C6     : /0.733/0.790/0.750
AMORTIGUAMIENTO DE SENSORES, C7-C12    : 
INTERVALO DE MUESTREO, C1-C6, (s)      : /0.01/0.01/0.01
INTERVALO DE MUESTREO, C7-C12, (s)     : 
UMBRAL DE DISPARO, C1-C6, (Gal)        : /1.95/5.99/2.54
UMBRAL DE DISPARO, C7-C12, (Gal)       :
MEMORIA DE PREEVENTO (s)               : 44.0
TIEMPO DE POSEVENTO (s)                : 64.0


================================================================================
DATOS DEL SISMO:
FECHA DEL SISMO (GMT)                  : 20/MAR/15
HORA EPICENTRO (GMT)                   : 22:30:08.0
MAGNITUD(ES)                           : /Mc=5.4
COORDENADAS DEL EPICENTRO              : 17.96 LAT. N
                                       : 98.58 LONG. W
PROFUNDIDAD FOCAL (km)                 : 61
FUENTE DE LOS DATOS EPICENTRALES       : SSN
                                       : INSTITUTO DE GEOFISICA, UNAM

================================================================================
DATOS DE ESTE REGISTRO:
HORA DE LA PRIMERA MUESTRA (GMT)       : 22:31:07.00
EXACTITUD DEL TIEMPO (s)               : 0.01
DURACION DEL REGISTRO (s), C1-C6       : /119.0/119.0/119.0
DURACION DEL REGISTRO (s), C7-C12      : 
NUM. TOTAL DE MUESTRAS, C1-C6          : /11900/11900/11900
NUM. TOTAL DE MUESTRAS, C7-C12         : 
ACEL. MAX. (Gal), C1-C6                : /3.50097/1.96039/3.23624
ACEL. MAX., C1-C6, EN LA MUESTRA       : /3828/5086/3392
ACEL. MAX. (Gal), C7-C12               : 
ACEL. MAX., C7-C12, EN LA MUESTRA      : 
UNIDADES DE LOS DATOS                  : Gal (cm/s/s)
FACTOR DE DECIMACION                   : 1
FORMATO DATOS (FORTRAN,10 campos/dato) : 3F10.5


================================================================================
CALIDAD DEL ACELEROGRAMA:
REGISTRO DIGITAL COMPLETO CON TIEMPO ABSOLUTO CORRECTO.


================================================================================
COMENTARIOS:














================================================================================
DATOS DE ACELERACION:
---------+---------+---------+---------+---------+---------+---------+---------+
   CANAL-1   CANAL-2   CANAL-3   CANAL-4   CANAL-5   CANAL-6   CANAL-7   CANAL-8
      N00E        +V      N90W
---------+---------+---------+---------+---------+---------+---------+---------+
[...]
  -1.71663   0.79772  -0.02133
  -1.38742   0.75283  -0.14104
  -0.99837   0.51341  -0.24579
  -0.68413   0.24407  -0.23082
  -0.41478   0.09443  -0.18593
  -0.19032  -0.01032  -0.11111
  -0.07061  -0.04025  -0.03630
  -0.10054  -0.07017  -0.03630
  -0.26514  -0.07017  -0.05126
  -0.56442  -0.04025  -0.11111
  -0.89362   0.04954  -0.15601
  -1.26771   0.16925  -0.12608
  -1.56699   0.24407  -0.08119
  -1.67174   0.24407   0.05349
  -1.61188   0.21414   0.23305
  -1.37246   0.21414   0.41262
  -1.01333   0.25903   0.53233
  -0.63924   0.34881   0.57722
  -0.25018   0.49845   0.53233
   0.15384   0.63312   0.48744
   0.45312   0.70794   0.45751
   0.61772   0.54334   0.36773
   0.73743   0.28896   0.21809
   0.81225   0.04954   0.06845
   0.93196  -0.14499  -0.05126
   1.03670  -0.27967  -0.27572
   1.18634  -0.35449  -0.53010
   1.30605  -0.33952  -0.72463
   1.36591  -0.29463  -0.91916
   1.39583  -0.17492  -1.03887
   1.36591  -0.05521  -1.03887
   1.26116  -0.01032  -0.87427
   1.14145   0.07946  -0.67974
   0.91699   0.18421  -0.42535
   0.60276   0.19917  -0.18593
   0.13888   0.04954   0.03852
  -0.33996  -0.15996   0.21809
  -0.75895  -0.38441   0.30787
  -1.14800  -0.57894   0.33780
  -1.44728  -0.69865   0.26298
  -1.70166  -0.80340   0.06845
  -1.88123  -0.84829  -0.15601
  -1.88123  -0.78843  -0.39543
  -1.80641  -0.63880  -0.64981
  -1.70166  -0.50412  -0.88923
  -1.65677  -0.36945  -1.05383
  -1.62684  -0.26470  -1.15858
  -1.62684  -0.26470  -1.21843
  -1.58195  -0.21981  -1.17354
  -1.55203  -0.10010  -0.99398
  -1.47721   0.00465  -0.72463
  -1.35750   0.10939  -0.39543
  -1.29764   0.18421  -0.00637
  -1.25275   0.28896   0.35276
  -1.28268   0.27399   0.69693
  -1.34253   0.28896   0.93635
  -1.46224   0.40867   1.10095
  -1.67174   0.48349   1.25059
  -1.79145   0.55830   1.34037
  -1.86627   0.54334   1.32541
  -1.88123   0.54334   1.19073
  -1.82137   0.54334   0.98124
  -1.64181   0.60320   0.69693
  -1.38742   0.70794   0.38269
  -1.11808   0.90247   0.12831
  -0.83377   1.08204  -0.08119
  -0.57938   1.21671  -0.23082
  -0.23522   1.24664  -0.36550
   0.09399   1.24664  -0.45528
   0.36334   1.15685  -0.54506
   0.57283   1.05211  -0.54506
   0.70750   0.78276  -0.53010
   0.78232   0.49845  -0.45528
   0.84218   0.16925  -0.44032
   0.87210  -0.18988  -0.41039
   0.87210  -0.38441  -0.44032
   0.93196  -0.44427  -0.51514
   0.97685  -0.42930  -0.61988
   0.99181  -0.27967  -0.66477
   1.02174  -0.07017  -0.66477
   1.02174   0.16925  -0.60492
   0.93196   0.37874  -0.56003
   0.84218   0.58823  -0.60492
   0.81225   0.75283  -0.78448
   0.85714   0.85758  -1.05383
   1.03670   0.82765  -1.36807
   1.27612   0.73787  -1.72720
   1.51554   0.58823  -2.10129
   1.68015   0.36378  -2.43050
   1.74000   0.13932  -2.66992
   1.69511  -0.08514  -2.75970
   1.45569  -0.32456  -2.81955
   1.14145  -0.62383  -2.72977
   0.79728  -0.92311  -2.53524
   0.40823  -1.25231  -2.34071
   0.06406  -1.44684  -2.05640
  -0.16040  -1.43188  -1.62245
  -0.29507  -1.44684  -1.20347
  -0.35493  -1.41691  -0.85930
  -0.42974  -1.50669  -0.63485
  -0.45967  -1.50669  -0.53010
  -0.44471  -1.37202  -0.54506
  -0.42974  -1.11764  -0.61988
  -0.31003  -0.68369  -0.76952
  -0.11551  -0.23478  -0.99398
   0.12392   0.06450  -1.23340
   0.24363   0.19917  -1.51771
   0.34837   0.21414  -1.75713
   0.33341   0.21414  -1.87684
   0.24363   0.30392  -1.86187
   0.19873   0.46852  -1.69727
   0.25859   0.63312  -1.33814
   0.30348   0.75283  -0.90419
   0.42319   0.72291  -0.38046
   0.66261   0.48349   0.12831
   0.85714   0.36378   0.66700
   0.90203   0.42363   1.11591
   0.99181   0.40867   1.54986
   1.00678   0.39370   1.95388
   1.00678   0.34881   2.20827
   0.91699   0.31888   2.26812
   0.88707   0.25903   2.11849
   0.88707   0.33385   1.75936
   0.88707   0.54334   1.22066
   0.94692   0.78276   0.72686
   0.94692   1.09700   0.23305
   0.84218   1.26160  -0.23082
   0.67757   1.09700  -0.45528
   0.55786   0.73787  -0.35053
   0.45312   0.43859  -0.11111
   0.46808   0.07946   0.18816
   0.58779  -0.20485   0.56226
   0.73743  -0.48916   0.83160
   0.93196  -0.78843   1.02613
   1.11152  -1.07275   1.08599
   1.12649  -1.25231   1.08599
   1.05167  -1.35706   1.04110
   0.85714  -1.46180   1.04110
   0.64765  -1.46180   1.05606
   0.46808  -1.32713   1.08599
   0.31844  -1.01289   1.08599
   0.22866  -0.72858   1.02613
   0.19873  -0.50412   1.02613
   0.16881  -0.27967   1.01117
   0.16881  -0.18988   0.98124
   0.15384  -0.10010   0.95131
   0.21370   0.12436   0.95131
   0.33341   0.45356   0.93635
   0.51297   0.79772   0.96628
   0.78232   1.08204   0.95131
   1.05167   1.21671   0.90642
   1.23123   1.15685   0.71189
   1.36591   0.94736   0.42758
   1.44073   0.63312   0.09838
   1.36591   0.25903  -0.20090
   1.26116  -0.20485  -0.47024
   1.14145  -0.60887  -0.58995
   1.02174  -0.77347  -0.56003
   0.94692  -0.84829  -0.36550
   0.91699  -0.80340  -0.02133
   0.88707  -0.84829   0.45751
   0.79728  -0.92311   0.96628
   0.58779  -1.07275   1.46008
   0.33341  -1.17749   1.93892
   0.06406  -1.16253   2.31302
  -0.19032  -0.96800   2.62725
  -0.41478  -0.69865   2.85171
  -0.60931  -0.53405   3.00135
  -0.69909  -0.47420   3.01631
  -0.68413  -0.32456   2.88164
  -0.59435  -0.05521   2.65718
  -0.51953   0.18421   2.41776
  -0.41478   0.42363   2.19331
  -0.23522   0.57327   1.96885
  -0.02572   0.78276   1.83417
   0.15384   0.97729   1.74439
   0.30348   1.08204   1.77432
   0.51297   1.17182   1.86410
   0.70750   1.14189   1.92396
   0.81225   1.00722   1.96885
   0.78232   0.90247   1.95388
   0.57283   0.82765   1.84914
   0.16881   0.88751   1.68454
  -0.36989   0.97729   1.51994
  -0.95348   0.96233   1.43015
  -1.40239   0.78276   1.34037
  -1.74656   0.43859   1.22066
  -1.89619   0.03457   0.99620
  -1.79145  -0.30959   0.71189
  -1.35750  -0.45923   0.27794
  -0.74398  -0.47420  -0.24579
   0.00420  -0.53405  -0.79945
   0.78232  -0.60887  -1.24836
   1.41080  -0.77347  -1.65238
   1.88964  -0.86325  -1.98158
   2.12906  -0.92311  -2.19108
   2.17395  -0.90814  -2.35568
   2.08417  -0.83333  -2.38561
   1.87467  -0.78843  -2.35568
   1.45569  -0.81836  -2.17611
   0.91699  -0.95304  -1.95166
   0.31844  -1.07275  -1.62245
  -0.23522  -1.17749  -1.23340
  -0.68413  -1.14756  -0.85930
  -0.95348  -0.99793  -0.53010
  -1.11808  -0.86325  -0.30564
  -1.16297  -0.71362  -0.11111
  -1.16297  -0.54901  -0.05126
  -1.14800  -0.29463  -0.09615
  -1.14800   0.06450  -0.21586
  -1.14800   0.40867  -0.48521
  -1.10311   0.76780  -0.76952
  -1.04326   1.09700  -0.99398
  -1.01333   1.35138  -1.12865
  -1.04326   1.45613  -1.23340
  -1.17793   1.38131  -1.26332
  -1.43232   1.23167  -1.26332
  -1.64181   0.99225  -1.24836
  -1.70166   0.72291  -1.18850
  -1.68670   0.39370  -1.12865
  -1.68670   0.10939  -1.05383
  -1.62684  -0.10010  -0.87427
  -1.56699  -0.26470  -0.61988
  -1.53706  -0.24974  -0.35053
  -1.55203  -0.11507  -0.09615
  -1.58195   0.03457   0.11334
  -1.59692   0.12436   0.24802
  -1.61188   0.15428   0.24802
  -1.64181   0.10939   0.14327
  -1.70166   0.07946  -0.06622
  -1.65677   0.13932  -0.27572
  -1.56699   0.16925  -0.36550
  -1.34253   0.15428  -0.36550
  -0.96844   0.07946  -0.36550
  -0.39982  -0.04025  -0.35053
   0.09399  -0.18988  -0.29068
   0.61772  -0.38441  -0.21586
   1.05167  -0.51909  -0.18593
   1.33598  -0.57894  -0.17097
   1.47065  -0.54901  -0.18593
   1.44073  -0.41434  -0.24579
   1.33598  -0.38441  -0.41039
   1.15641  -0.41434  -0.66477
   0.96189  -0.50412  -0.94908
   0.70750  -0.57894  -1.12865
   0.48305  -0.59391  -1.24836
   0.27355  -0.54901  -1.26332
   0.13888  -0.44427  -1.20347
   0.07902  -0.35449  -1.06879
   0.12392  -0.30959  -0.99398
   0.27355  -0.36945  -0.85930
   0.52794  -0.38441  -0.73959
   0.76736  -0.35449  -0.57499
   0.96189  -0.26470  -0.41039
   1.02174  -0.08514  -0.27572
   0.90203   0.12436  -0.17097
   0.66261   0.30392  -0.17097
   0.37830   0.48349  -0.32061
   0.06406   0.63312  -0.45528
  -0.26514   0.66305  -0.56003
  -0.56442   0.54334  -0.63485
  -0.83377   0.33385  -0.67974
  -1.02829   0.07946  -0.61988
  -1.19290  -0.13003  -0.50017
  -1.32757  -0.20485  -0.41039
  -1.43232  -0.18988  -0.29068
  -1.47721  -0.07017  -0.15601
  -1.50713   0.04954  -0.00637
  -1.55203   0.22910   0.15823
  -1.59692   0.42363   0.32283
  -1.58195   0.61816   0.56226
  -1.52210   0.85758   0.78671
  -1.37246   1.06707   1.04110
  -1.16297   1.32146   1.29548
  -0.96844   1.51598   1.53490
  -0.78887   1.45613   1.66957
  -0.72902   1.32146   1.60972
  -0.66916   1.17182   1.31044
  -0.57938   0.96233   0.87649
  -0.47464   0.81269   0.32283
  -0.31003   0.75283  -0.20090
  -0.05565   0.78276  -0.67974
   0.25859   0.76780  -1.03887
   0.58779   0.73787  -1.26332
   0.82721   0.66305  -1.32318
   0.99181   0.58823  -1.18850
   1.09656   0.52838  -0.97901
   1.11152   0.60320  -0.75456
   1.02174   0.61816  -0.50017
   0.87210   0.61816  -0.21586
   0.70750   0.48349   0.08341
   0.61772   0.31888   0.35276
   0.54290   0.18421   0.56226
   0.54290   0.15428   0.78671
   0.54290   0.19917   0.95131
   0.52794   0.15428   1.08599
   0.51297   0.12436   1.20570
   0.52794  -0.02528   1.23562
   0.55786  -0.17492   1.23562
   0.55786  -0.21981   1.20570
   0.60276  -0.23478   1.14584
   0.66261  -0.20485   1.07102
   0.64765  -0.18988   1.01117
   0.63268  -0.29463   0.92139
   0.52794  -0.50412   0.81664
   0.30348  -0.69865   0.69693
   0.12392  -0.93807   0.60715
   0.03413  -1.14756   0.54729
  -0.02572  -1.17749   0.51736
  -0.10054  -1.22238   0.53233
  -0.16040  -1.19246   0.50240
  -0.16040  -1.05778   0.42758
  -0.14543  -0.77347   0.24802
  -0.05565  -0.32456   0.09838
   0.00420  -0.01032  -0.14104
   0.09399   0.15428  -0.38046
   0.04910   0.27399  -0.57499
  -0.05565   0.22910  -0.73959
  -0.19032   0.18421  -0.90419
  -0.31003   0.21414  -1.06879
  -0.36989   0.19917  -1.26332
  -0.33996   0.15428  -1.44289
  -0.22025   0.04954  -1.59253
   0.00420  -0.10010  -1.65238
   0.28852  -0.21981  -1.56260
   0.60276  -0.24974  -1.32318
   0.87210  -0.15996  -1.03887
   1.09656  -0.04025  -0.69470
   1.12649   0.03457  -0.38046
   1.02174   0.06450  -0.09615
   0.85714  -0.01032   0.05349
   0.60276  -0.21981   0.12831
   0.39326  -0.45923   0.21809
   0.28852  -0.72858   0.26298
   0.22866  -0.92311   0.26298
   0.31844  -0.93807   0.27794
   0.48305  -0.78843   0.26298
   0.70750  -0.56398   0.27794
   0.97685  -0.32456   0.33780
   1.27612  -0.10010   0.50240
   1.66518  -0.04025   0.63707
   2.08417  -0.02528   0.86153
   2.44330  -0.05521   1.14584
   2.84732  -0.18988   1.49001
   3.19149  -0.26470   1.78928
   3.40098  -0.20485   2.01374
   3.50572  -0.07017   2.10352
   3.38601   0.09443   2.10352
   3.14659   0.16925   1.95388
   2.75754   0.25903   1.69950
   2.18891   0.30392   1.31044
   1.45569   0.27399   0.90642
   0.75239   0.07946   0.59218
   0.07902  -0.05521   0.35276
  -0.45967  -0.15996   0.21809
  -0.84873  -0.13003   0.20312
  -1.11808   0.00465   0.26298
  -1.20786   0.12436   0.26298
  -1.22282   0.13932   0.12831
  -1.11808   0.09443  -0.14104
  -1.02829  -0.07017  -0.58995
  -1.01333  -0.20485  -1.09872
  -1.05822  -0.33952  -1.60749
  -1.17793  -0.47420  -2.02648
  -1.32757  -0.48916  -2.37064
  -1.53706  -0.44427  -2.63999
  -1.73159  -0.59391  -2.80459
  -1.86627  -0.75851  -2.77466
  -1.94108  -1.04282  -2.62503
  -2.00094  -1.25231  -2.47539
  -1.97101  -1.25231  -2.35568
  -1.89619  -0.99793  -2.28086
  -1.73159  -0.57894  -2.14619
  -1.50713  -0.32456  -2.05640
  -1.22282  -0.20485  -2.02648
  -0.93851  -0.14499  -2.08633
  -0.77391  -0.13003  -2.23597
  -0.69909  -0.11507  -2.31079
  -0.59435  -0.13003  -2.31079
  -0.51953  -0.18988  -2.22100
  -0.41478  -0.27967  -2.07137
  -0.26514  -0.38441  -1.74216
  -0.10054  -0.51909  -1.27829
   0.15384  -0.53405  -0.69470
   0.42319  -0.50412  -0.14104
   0.63268  -0.44427   0.33780
   0.70750  -0.29463   0.77175
   0.73743  -0.08514   1.10095
   0.70750   0.16925   1.44512
   0.63268   0.51341   1.74439
   0.54290   0.85758   1.96885
   0.43815   1.09700   2.14841
   0.30348   1.21671   2.31302
   0.07902   1.17182   2.37287
  -0.23522   1.06707   2.31302
  -0.59435   1.08204   2.16338
  -0.95348   1.18678   1.96885
  -1.29764   1.33642   1.81921
  -1.50713   1.33642   1.71446
  -1.62684   1.14189   1.66957
  -1.64181   0.82765   1.51994
  -1.59692   0.57327   1.26555
  -1.52210   0.36378   1.02613
  -1.40239   0.30392   0.87649
  -1.23779   0.28896   0.78671
  -0.99837   0.30392   0.71189
  -0.83377   0.36378   0.59218
  -0.66916   0.49845   0.39765
  -0.57938   0.66305   0.20312
  -0.62427   0.75283   0.00860
  -0.72902   0.67801  -0.23082
  -0.89362   0.49845  -0.36550
  -1.05822   0.24407  -0.32061
  -1.23779  -0.05521  -0.18593
  -1.35750  -0.32456   0.03852
  -1.37246  -0.53405   0.21809
  -1.25275  -0.68369   0.35276
  -1.01333  -0.72858   0.44255
  -0.63924  -0.71362   0.42758
  -0.16040  -0.56398   0.30787
   0.27355  -0.33952   0.11334
   0.63268  -0.07017  -0.15601
   0.88707   0.15428  -0.33557
   1.08160   0.37874  -0.48521
   1.14145   0.46852  -0.61988
   1.03670   0.45356  -0.73959
   0.78232   0.31888  -0.81441
   0.46808  -0.05521  -0.78448
   0.12392  -0.45923  -0.60492
  -0.14543  -0.84829  -0.35053
  -0.36989  -1.10267  -0.06622
  -0.53449  -1.13260   0.20312
  -0.60931  -1.05778   0.47247
  -0.60931  -0.92311   0.65204
  -0.47464  -0.81836   0.66700
  -0.29507  -0.63880   0.53233
  -0.11551  -0.29463   0.33780
  -0.04069   0.13932   0.23305
  -0.01076   0.46852   0.21809
  -0.04069   0.72291   0.20312
  -0.05565   0.90247   0.17320
  -0.16040   1.11196   0.18816
  -0.35493   1.29153   0.29291
  -0.57938   1.29153   0.45751
  -0.69909   1.24664   0.54729
  -0.74398   1.20175   0.59218
  -0.74398   1.11196   0.62211
  -0.69909   1.02218   0.66700
  -0.56442   1.02218   0.71189
  -0.31003   1.05211   0.78671
  -0.01076   1.06707   0.78671
   0.21370   1.00722   0.69693
   0.36334   0.91743   0.59218
   0.43815   0.72291   0.42758
   0.46808   0.36378   0.17320
   0.54290   0.01961  -0.21586
   0.52794  -0.18988  -0.57499
   0.46808  -0.21981  -0.84434
   0.45312  -0.21981  -0.94908
   0.54290  -0.29463  -0.87427
   0.75239  -0.42930  -0.61988
   0.96189  -0.59391  -0.29068
   1.15641  -0.75851   0.05349
   1.18634  -0.90814   0.36773
   1.15641  -1.16253   0.63707
   1.14145  -1.35706   0.78671
   1.03670  -1.44684   0.74182
   0.82721  -1.47677   0.51736
   0.63268  -1.49173   0.26298
   0.46808  -1.56655  -0.05126
   0.48305  -1.70122  -0.45528
   0.60276  -1.76108  -0.96405
   0.73743  -1.65633  -1.53267
   0.85714  -1.40195  -1.99655
   1.03670  -1.20742  -2.34071
   1.24620  -1.05778  -2.56517
   1.38087  -0.87822  -2.62503
   1.29109  -0.63880  -2.46042
   1.08160  -0.48916  -1.98158
   0.81225  -0.47420  -1.24836
   0.60276  -0.53405  -0.45528
   0.43815  -0.54901   0.27794
   0.24363  -0.50412   0.84657
  -0.01076  -0.38441   1.29548
  -0.23522  -0.17492   1.59475
  -0.48960   0.07946   1.78928
  -0.72902   0.39370   1.90899
  -0.96844   0.67801   1.89403
  -1.13304   0.97729   1.80425
  -1.19290   1.26160   1.74439
  -1.14800   1.44117   1.63965
  -0.96844   1.48606   1.47504
  -0.77391   1.44117   1.29548
  -0.63924   1.35138   1.14584
  -0.60931   1.26160   1.16081
  -0.53449   1.18678   1.19073
