********************************************************************************
               CENTRO DE INSTRUMENTACION Y REGISTRO SISMICO  A.C.  
                       Coordinacion de Servicios Tecnicos
     Anaxagoras 814, Col. Narvarte, Benito Juarez, C.P. 03020 Mexico, D.F.
            Tels. 687 45 42/ 687 45  82             Fax. 669 25 12
********************************************************************************
ARCHIVO ESTANDAR DE ACELERACION:
VERSION DEL FORMATO                    : 2.0
NOMBRE DEL ARCHIVO                     : AR140007.211
FECHA Y HORA DE CREACION               : 12/JUL/04, 9:05
REF. CATALOGO ACELEROGRAMAS, SMIS 1996 : REGISTRO No.     /PAG.


================================================================================
DATOS DE LA ESTACION:
NOMBRE DE LA ESTACION                  : ARAGON
CLAVE DE LA ESTACION                   : AR14
LOCALIZACION DE LA ESTACION            : Esc Prim Jose Ordaz Lopez Puebla 2 y
                                       : Baja California, Col Providencia
                                       : Gustavo A. Madero
                                       :
                                       :
COORDENADAS DE LA ESTACION             : 19.481 LAT. N 
                                       : 99.076 LONG. W 
ALTITUD (msnm)                         : 2232
TIPO DE SUELO                          : ARCILLOSO, ZONA LAGO
                                       : 
                                       : 
INSTITUCION RESPONSABLE                : CIRES
                                       :

================================================================================
DATOS DEL ACELEROGRAFO:
MODELO DEL ACELEROGRAFO                : RAD-851
NUMERO DE SERIE DEL ACELEROGRAFO       : 235
NUMERO DE CANALES                      : 3
ORIENTACION C1-C6 (rumbo;orientacion)  : /N00E/+V/N90W
ORIENTACION C7-C12 (rumbo;orientacion) :
VEL. DE MUESTREO, C1-C6 (muestras/s)   : /100/100/100
VEL. DE MUESTREO, C7-C12 (muestras/s)  :
ESC. COMPLETA DE SENSORES, C1-C6, (g)  : /0.5/0.5/0.5
ESC. COMPLETA DE SENSORES, C7-C12, (g) :
FREC. NAT. DE SENSORES, C1-C6, (Hz)    : /30/30/32
FREC. NAT. DE SENSORES, C7-C12, (Hz)   :
AMORTIGUAMIENTO DE SENSORES, C1-C6     : /0.733/0.790/0.750
AMORTIGUAMIENTO DE SENSORES, C7-C12    :
INTERVALO DE MUESTREO, C1-C6, (s)      : /0.01/0.01/0.01
INTERVALO DE MUESTREO, C7-C12, (s)     :
UMBRAL DE DISPARO, C1-C6, (Gal)        : /1.95/3.42/1.95
UMBRAL DE DISPARO, C7-C12, (Gal)       :
MEMORIA DE PREEVENTO (s)               : 16
TIEMPO DE POSEVENTO (s)                : 64


================================================================================
DATOS DEL SISMO:
FECHA DEL SISMO (GMT)                  : 21/JUL/00
HORA EPICENTRO (GMT)                   : 06:13:39:7
MAGNITUD(ES)                           : /Mb=5.4/Ms=5.1/Mc=5.4/Ma=5.5/Me=6.0
COORDENADAS DEL EPICENTRO              : 18.09 LAT. N
                                       : 98.97 LONG. W
PROFUNDIDAD FOCAL (km)                 : 48
FUENTE DE LOS DATOS EPICENTRALES       : SSN
                                       : INSTITUTO DE GEOFISICA, UNAM

================================================================================
DATOS DE ESTE REGISTRO:
HORA DE LA PRIMERA MUESTRA (GMT)       : 06:14:19.00
EXACTITUD DEL TIEMPO (s)               :     
DURACION DEL REGISTRO (s), C1-C6       : /136.75/136.75/136.75
DURACION DEL REGISTRO (s), C7-C12      :
NUM. TOTAL DE MUESTRAS, C1-C6          : /13675/13675/13675
NUM. TOTAL DE MUESTRAS, C7-C12         :
ACEL. MAX. (Gal), C1-C6                : /8.47217/-4.38563/-9.14045
ACEL. MAX., C1-C6, EN LA MUESTRA       :
ACEL. MAX. (Gal), C7-C12               :
ACEL. MAX., C7-C12, EN LA MUESTRA      :
UNIDADES DE LOS DATOS                  : Gal (cm/s/s)
FACTOR DE DECIMACION                   : 1
FORMATO DATOS (FORTRAN,10 campos/dato) : 3F10.5


================================================================================
CALIDAD DEL ACELEROGRAMA:
REGISTRO DIGITAL COMPLETO, CARECE DE TIEMPO ABSOLUTO.


================================================================================
COMENTARIOS:














================================================================================
DATOS DE ACELERACION:
---------+---------+---------+---------+---------+---------+---------+---------+
   CANAL-1   CANAL-2   CANAL-3   CANAL-4   CANAL-5   CANAL-6   CANAL-7   CANAL-8
      N00E        +V      N90W
---------+---------+---------+---------+---------+---------+---------+---------+
[...]
   0.09251   0.64217   0.91515
   0.09251   0.40275   1.15457
   0.33193   0.16333   1.15457
   0.57135   0.16333   1.39399
   0.57135   0.16333   1.39399
   0.81077  -0.07609   1.63341
   0.81077  -0.31551   1.63341
   1.05019  -1.03376   1.63341
   1.05019  -1.99144   1.63341
   1.05019  -2.70970   1.63341
   0.81077  -2.94912   1.39399
   0.81077  -2.47028   1.39399
   1.05019  -1.75202   1.39399
   1.05019  -1.27318   1.39399
   0.81077  -1.03376   1.39399
   0.81077  -0.79435   1.39399
   0.57135  -1.03376   0.91515
   0.81077  -1.27318   0.91515
   0.33193  -1.27318   0.67573
   0.09251  -1.03376   0.67573
  -0.14691  -0.55493   0.19689
  -0.38633  -0.07609   0.19689
  -0.38633   0.16333  -0.04253
  -0.62575   0.16333  -0.28195
  -0.62575   0.16333  -0.28195
  -0.86516  -0.07609  -0.28195
  -1.10458  -0.55493  -0.28195
  -1.10458  -0.55493  -0.28195
  -1.10458  -1.03376  -0.28195
  -1.10458  -0.79435  -0.04253
  -1.10458  -0.31551  -0.04253
  -1.10458   0.64217   0.19689
  -0.86516   1.59984   0.43631
  -0.86516   2.55752   0.43631
  -0.86516   2.79694   0.67573
  -0.86516   2.55752   0.67573
  -0.86516   1.83926   0.43631
  -0.86516   1.36042   0.19689
  -1.10458   1.12101   0.19689
  -1.10458   1.59984   0.19689
  -1.10458   2.07868   0.19689
  -1.10458   2.31810   0.19689
  -1.10458   2.31810  -0.04253
  -0.86516   2.07868  -0.28195
  -0.62575   1.59984  -0.28195
  -0.38633   0.88159  -0.28195
  -0.38633   0.16333  -0.52136
  -0.14691  -0.07609  -0.52136
   0.09251  -0.07609  -0.52136
   0.33193   0.16333  -0.52136
   0.81077   0.16333  -0.76078
   1.05019   0.16333  -1.00020
   1.05019   0.40275  -1.23962
   1.28961   0.40275  -1.23962
   1.28961   0.40275  -1.47904
   1.28961   0.64217  -1.47904
   1.28961   0.16333  -1.47904
   1.76844   0.16333  -1.23962
   1.52902  -0.31551  -1.23962
   1.76844  -0.55493  -1.00020
   1.76844  -1.03376  -0.76078
   2.00786  -1.75202  -0.52136
   2.24728  -2.47028  -0.04253
   2.00786  -2.94912   0.19689
   2.00786  -2.70970   0.67573
   1.76844  -1.75202   0.91515
   1.76844  -0.79435   1.39399
   1.76844  -0.07609   1.63341
   1.52902   0.16333   1.87283
   1.52902  -0.07609   1.63341
   1.28961  -0.79435   1.63341
   1.52902  -1.51260   1.39399
   1.28961  -2.23086   1.15457
   1.28961  -2.47028   0.91515
   1.05019  -1.99144   0.91515
   1.28961  -1.51260   0.67573
   1.28961  -1.03376   0.67573
   1.05019  -1.03376   0.43631
   1.05019  -1.03376   0.19689
   1.05019  -1.27318   0.19689
   1.05019  -1.27318  -0.04253
   0.81077  -1.03376  -0.04253
   0.81077  -0.79435  -0.04253
   0.57135  -0.55493   0.19689
   0.57135  -0.31551  -0.04253
   0.33193  -0.31551   0.19689
   0.33193  -0.31551  -0.04253
   0.33193  -0.07609  -0.04253
   0.33193  -0.07609  -0.04253
   0.09251  -0.07609  -0.28195
   0.09251   0.16333  -0.52136
   0.33193   0.40275  -0.76078
   0.57135   0.64217  -1.00020
   0.57135   0.64217  -1.23962
   0.57135   0.40275  -1.47904
   0.57135   0.16333  -1.95788
   0.81077  -0.31551  -2.43672
   1.05019  -0.31551  -2.91555
   1.05019  -0.07609  -3.39439
   1.28961   0.64217  -3.87323
   1.28961   1.36042  -4.11265
   1.52902   2.07868  -4.35207
   1.76844   2.07868  -4.83091
   2.00786   1.59984  -5.07032
   2.24728  -0.79435  -5.30974
   2.00786  -0.79435  -5.30974
   2.00786  -0.31551  -5.30974
   1.76844   0.40275  -4.83091
   1.76844   1.12101  -4.59149
   1.76844   1.36042  -4.35207
   1.76844   1.12101  -3.87323
   1.28961   0.88159  -3.39439
   1.05019   0.40275  -2.91555
   1.05019   0.40275  -2.67613
   0.57135  -0.07609  -1.95788
   0.33193  -0.55493  -1.71846
   0.33193  -0.79435  -1.23962
   0.09251  -0.79435  -0.52136
   0.09251  -0.55493  -0.04253
  -0.14691  -0.07609   0.43631
  -0.14691   0.40275   0.91515
  -0.14691   0.40275   1.39399
  -0.38633  -0.07609   1.87283
  -0.38633  -0.55493   2.35166
  -0.86516  -0.55493   2.83050
  -0.86516  -0.55493   3.30934
  -1.10458  -0.31551   3.54876
  -1.58342  -0.31551   3.78818
  -1.58342  -0.31551   4.02760
  -1.82284  -0.79435   4.26701
  -1.82284  -1.03376   4.50643
  -1.82284  -1.51260   4.74585
  -2.30168  -1.75202   4.98527
  -2.30168  -2.23086   4.98527
  -2.06226  -2.70970   4.98527
  -2.30168  -2.94912   4.98527
  -2.54110  -2.23086   4.74585
  -2.78052  -1.27318   4.74585
  -2.78052  -0.31551   4.26701
  -2.78052  -0.31551   3.78818
  -3.01994  -0.79435   3.30934
  -2.78052  -1.27318   2.83050
  -3.01994  -1.27318   1.87283
  -3.01994  -0.55493   1.39399
  -3.49877   0.16333   0.67573
  -3.49877   0.88159   0.19689
  -3.97761   0.88159  -0.28195
  -4.21703   0.64217  -1.00020
  -4.45645   0.40275  -1.47904
  -4.69587   0.64217  -1.95788
  -4.69587   1.12101  -2.19730
  -4.93529   1.36042  -2.19730
  -5.17471   1.83926  -2.43672
  -5.17471   2.07868  -2.43672
  -4.93529   1.83926  -2.19730
  -4.93529   1.59984  -1.95788
  -5.17471   0.88159  -1.47904
  -4.93529   0.64217  -1.23962
  -4.93529   0.40275  -1.00020
  -4.69587   0.40275  -0.52136
  -4.69587   0.40275  -0.52136
  -4.45645   0.16333  -0.28195
  -4.45645   0.40275  -0.28195
  -4.21703   0.40275  -0.28195
  -3.97761   0.64217  -0.52136
  -3.49877   0.88159  -0.52136
  -3.01994   0.88159  -0.76078
  -2.54110   0.64217  -1.00020
  -2.06226   0.64217  -1.00020
  -1.58342   0.64217  -1.00020
  -0.86516   0.40275  -1.00020
  -0.38633   0.16333  -1.00020
   0.33193  -0.07609  -1.00020
   0.81077  -0.55493  -0.76078
   1.05019  -0.79435  -0.76078
   1.52902  -1.03376  -1.00020
   1.76844  -1.27318  -1.00020
   2.00786  -1.27318  -1.00020
   1.76844  -1.51260  -0.76078
   1.76844  -1.75202  -0.52136
   1.52902  -1.99144  -0.52136
   1.28961  -1.75202  -0.28195
   1.05019  -1.75202  -0.04253
   0.81077  -1.75202  -0.04253
   0.57135  -1.75202  -0.04253
   0.33193  -1.99144   0.19689
   0.33193  -1.75202   0.19689
   0.33193  -1.27318   0.19689
   0.33193  -1.03376   0.19689
   0.09251  -0.55493   0.43631
  -0.14691  -0.31551   0.43631
  -0.38633  -0.31551   0.19689
  -0.38633  -0.07609  -0.04253
  -0.86516   0.40275  -0.28195
  -0.86516   0.64217  -0.52136
  -1.10458   1.12101  -0.76078
  -1.58342   1.59984  -1.00020
  -2.06226   1.83926  -1.00020
  -2.30168   2.07868  -1.00020
  -2.54110   1.83926  -0.76078
  -3.01994   1.59984  -0.76078
  -3.25935   1.12101  -0.76078
  -3.49877   0.88159  -0.76078
  -3.97761   0.88159  -0.76078
  -3.97761   0.88159  -1.00020
  -4.45645   0.88159  -1.00020
  -4.69587   0.64217  -1.00020
  -4.93529   0.40275  -0.76078
  -5.17471   0.16333  -1.00020
  -4.93529   0.16333  -0.76078
  -4.69587   0.40275  -0.76078
  -4.45645   0.64217  -0.52136
  -3.97761   1.12101  -0.52136
  -3.49877   1.59984  -0.76078
  -3.01994   2.31810  -0.76078
  -2.06226   2.55752  -0.76078
  -1.34400   2.55752  -1.00020
  -0.62575   2.07868  -1.00020
  -0.14691   1.59984  -1.47904
   0.09251   1.12101  -1.71846
   0.33193   1.12101  -1.95788
   0.57135   0.88159  -2.43672
   0.81077   0.88159  -2.67613
   0.81077   0.40275  -3.15497
   1.05019   0.16333  -3.15497
   1.28961  -0.31551  -3.15497
   1.76844  -0.31551  -2.91555
   2.24728  -0.07609  -2.43672
   2.72612   0.16333  -1.95788
   3.20496  -0.07609  -1.47904
   3.68380  -0.55493  -1.00020
   4.16263  -1.03376  -0.52136
   4.64147  -1.51260   0.19689
   5.12031  -1.27318   0.43631
   5.59915  -1.03376   0.91515
   5.83857  -0.55493   1.15457
   6.07798  -0.31551   1.39399
   6.79624  -0.07609   1.63341
   7.03566  -0.55493   1.63341
   7.27508  -1.27318   1.63341
   7.51450  -1.99144   1.63341
   7.75392  -2.23086   1.39399
   7.99334  -1.99144   1.39399
   8.23276  -1.51260   1.63341
   8.47217  -0.55493   1.87283
   8.47217   0.16333   2.11224
   8.47217   0.64217   2.11224
   8.23276   0.88159   2.35166
   8.23276   0.64217   2.35166
   7.51450   0.16333   2.35166
   7.27508  -0.07609   2.59108
   6.79624  -0.07609   2.59108
   6.31740  -0.07609   2.83050
   5.83857   0.16333   3.06992
   5.59915   0.40275   3.30934
   5.35973   0.88159   3.54876
   4.88089   1.12101   3.78818
   4.88089   1.36042   3.78818
   4.88089   1.59984   3.78818
   4.88089   1.83926   4.02760
   4.64147   1.59984   4.02760
   4.64147   1.12101   4.26701
   4.64147   0.16333   4.50643
   4.64147  -0.55493   4.50643
   4.40205  -0.79435   4.50643
   4.40205  -0.55493   4.50643
   4.16263  -0.31551   4.26701
   3.92321   0.16333   4.02760
   3.92321   0.40275   3.78818
   3.44438   0.64217   3.54876
   3.20496   0.88159   3.06992
   2.96554   0.64217   2.83050
   2.72612   0.40275   2.59108
   2.24728  -0.07609   2.83050
   2.00786  -0.31551   2.83050
   1.28961  -0.07609   3.06992
   0.57135   0.16333   3.30934
   0.33193   0.40275   3.78818
  -0.38633   0.16333   4.02760
  -0.86516  -0.31551   4.50643
  -1.10458  -0.55493   4.74585
  -1.34400  -0.55493   4.98527
  -1.82284  -0.31551   5.22469
  -2.06226   0.40275   5.46411
  -2.06226   0.64217   5.46411
  -2.06226   0.40275   5.46411
  -2.06226  -0.31551   5.22469
  -1.82284  -0.79435   4.50643
  -1.58342  -1.03376   4.02760
  -1.34400  -0.79435   3.30934
  -1.10458  -0.07609   2.59108
  -0.86516   0.88159   1.63341
  -0.62575   1.59984   1.15457
  -0.38633   2.07868   0.43631
  -0.38633   1.83926  -0.04253
  -0.14691   1.12101  -0.04253
  -0.14691   0.40275  -0.28195
  -0.14691  -0.31551  -0.28195
  -0.38633  -0.55493  -0.04253
  -0.38633  -0.31551  -0.04253
  -0.38633  -0.55493   0.19689
  -0.14691  -0.79435   0.19689
  -0.14691  -1.03376   0.19689
  -0.14691  -1.27318   0.19689
   0.09251  -1.03376   0.19689
   0.09251  -0.79435   0.43631
   0.33193  -0.79435   0.43631
   0.57135  -0.55493   0.67573
   1.05019  -0.31551   0.91515
   1.28961   0.40275   1.15457
   1.76844   0.64217   1.39399
   2.00786   0.40275   1.63341
   2.72612  -0.07609   1.87283
   3.20496  -1.03376   1.87283
   3.68380  -1.51260   1.87283
   3.92321  -1.51260   1.87283
   3.92321  -1.27318   1.63341
   4.16263  -1.03376   1.63341
   4.16263  -1.27318   1.63341
   3.92321  -1.27318   1.15457
   3.68380  -1.27318   0.91515
   3.20496  -1.03376   0.91515
   2.96554  -0.79435   0.91515
   2.48670  -0.79435   0.91515
   2.24728  -1.27318   0.91515
   1.76844  -1.27318   1.39399
   1.76844  -1.03376   1.39399
   1.28961  -0.55493   1.87283
   1.05019  -0.31551   2.11224
   0.57135  -0.31551   2.11224
   0.09251  -0.31551   1.87283
  -0.14691  -0.55493   1.63341
  -0.38633  -0.31551   0.91515
  -0.86516  -0.07609   0.19689
  -1.34400   0.64217  -0.28195
  -1.58342   0.88159  -1.23962
  -2.06226   1.12101  -2.19730
  -2.30168   0.64217  -3.15497
  -2.78052   0.16333  -3.87323
  -3.01994  -0.07609  -4.83091
  -3.49877  -0.31551  -5.54916
  -3.49877  -0.07609  -6.02800
  -3.97761   0.40275  -6.74626
  -4.21703   0.88159  -7.22509
  -4.45645   1.12101  -7.70393
  -4.69587   1.36042  -7.94335
  -5.17471   1.36042  -8.42219
  -5.65354   0.88159  -8.66161
  -6.13238   0.40275  -8.90103
  -6.61122  -0.07609  -9.14045
  -7.09006  -0.07609  -9.14045
  -7.32948   0.40275  -8.90103
  -7.56890   1.12101  -8.66161
  -7.32948   1.83926  -8.18277
  -7.32948   2.07868  -7.70393
  -6.85064   1.83926  -6.98568
  -6.37180   1.36042  -6.26742
  -5.89296   0.64217  -5.30974
  -5.41412  -0.07609  -4.35207
  -5.17471  -0.79435  -3.63381
  -4.69587  -1.51260  -3.15497
  -4.45645  -1.75202  -2.67613
  -4.21703  -1.27318  -2.43672
  -4.21703  -0.79435  -2.19730
  -3.97761  -0.07609  -1.95788
  -3.97761   0.40275  -1.71846
  -3.97761   0.88159  -1.47904
  -3.97761   1.12101  -1.23962
  -3.73819   0.88159  -0.76078
  -3.73819   0.64217  -0.04253
  -3.73819   0.64217   0.67573
  -3.49877   0.64217   1.63341
  -3.01994   0.64217   2.59108
  -2.78052   0.40275   3.54876
  -2.30168   0.16333   4.26701
  -2.06226  -0.31551   4.74585
  -1.58342  -0.55493   4.98527
  -0.86516  -0.79435   5.22469
  -0.62575  -0.79435   5.22469
  -0.38633  -1.03376   4.98527
   0.09251  -1.03376   4.74585
   0.57135  -1.03376   4.26701
   0.57135  -1.03376   3.78818
   1.05019  -0.79435   3.30934
   1.05019  -0.55493   2.59108
   1.28961  -0.31551   1.63341
   1.28961  -0.31551   0.91515
   1.52902  -0.07609   0.19689
   1.76844  -0.07609  -0.76078
   1.52902  -0.07609  -1.47904
   1.76844  -0.07609  -2.19730
   2.00786  -0.31551  -3.15497
   1.76844  -0.55493  -3.63381
   1.76844  -0.79435  -4.35207
   2.00786  -0.55493  -4.59149
   1.76844  -0.07609  -5.07032
   1.76844   0.40275  -5.54916
   1.52902   0.88159  -5.78858
   1.28961   0.88159  -6.02800
   0.81077   0.64217  -6.02800
   0.33193   0.40275  -6.02800
  -0.14691  -0.07609  -5.78858
  -0.86516  -0.31551  -5.78858
  -1.34400   0.16333  -5.54916
  -1.82284   0.64217  -5.07032
  -2.30168   0.88159  -4.83091
  -2.54110   0.64217  -4.83091
  -2.78052   0.40275  -4.83091
  -2.78052  -0.07609  -4.59149
  -2.78052  -0.31551  -4.59149
  -3.01994  -0.31551  -4.35207
  -2.78052  -0.07609  -4.11265
  -2.78052   0.40275  -3.87323
  -2.54110   1.12101  -3.63381
  -2.54110   1.83926  -2.91555
  -2.06226   2.31810  -2.19730
  -1.82284   2.55752  -1.95788
  -1.58342   2.31810  -1.47904
  -1.10458   1.83926  -1.00020
  -0.62575   1.36042  -0.52136
  -0.14691   0.64217  -0.04253
   0.09251   0.16333   0.43631
   0.33193   0.16333   0.67573
   0.33193   0.40275   1.15457
   0.33193   0.64217   1.39399
   0.33193   0.64217   1.63341
   0.33193   0.40275   2.11224
   0.33193   0.16333   1.87283
   0.33193  -0.07609   2.11224
   0.57135   0.16333   2.11224
   0.57135   0.40275   1.87283
   0.57135   0.40275   1.87283
   1.05019   0.40275   1.63341
   1.52902   0.16333   1.63341
   2.00786  -0.31551   1.63341
   2.48670  -0.79435   2.11224
   2.96554  -1.51260   2.35166
   3.44438  -1.99144   2.59108
   3.68380  -1.99144   2.83050
   3.68380  -1.99144   3.30934
   3.44438  -1.99144   3.54876
   3.20496  -1.99144   3.54876
   2.72612  -1.99144   3.54876
   2.24728  -2.23086   3.78818
   1.76844  -2.47028   3.54876
   1.52902  -2.47028   3.54876
   1.05019  -2.23086   3.30934
   0.57135  -1.75202   3.06992
   0.09251  -1.51260   2.83050
  -0.14691  -1.27318   2.35166
  -0.62575  -0.79435   1.87283
  -0.86516  -0.07609   1.39399
  -1.10458   0.40275   0.91515
  -1.10458   0.88159   0.67573
  -1.58342   0.88159   0.43631
  -1.82284   0.64217   0.19689
  -2.06226   0.16333  -0.28195
  -2.30168  -0.31551  -0.76078
  -2.54110  -0.55493  -1.00020
  -2.78052  -0.31551  -1.47904
  -3.01994   0.16333  -2.19730
  -3.49877   0.16333  -2.67613
  -3.49877   0.16333  -3.15497
  -3.97761  -0.07609  -3.63381
  -4.21703  -0.07609  -3.63381
  -4.21703   0.16333  -3.63381
  -4.45645   0.40275  -3.39439
  -4.45645   0.40275  -3.15497
  -4.21703   0.40275  -3.15497
  -4.21703   0.40275  -3.39439
  -3.97761   1.12101  -3.15497
  -3.97761   1.59984  -3.39439
  -3.97761   2.07868  -3.63381
  -3.97761   2.07868  -3.87323
  -3.97761   1.59984  -4.11265
  -3.73819   1.59984  -4.11265
  -3.25935   1.59984  -3.87323
  -3.01994   1.59984  -3.39439
  -2.78052   1.59984  -3.15497
  -2.30168   1.12101  -2.91555
  -1.82284   0.40275  -2.67613
  -1.58342  -0.31551  -2.67613
  -0.86516  -0.55493  -2.43672
  -0.62575  -1.03376  -2.19730
  -0.14691  -1.03376  -1.95788
   0.09251  -1.03376  -1.47904
   0.57135  -0.55493  -1.00020
   1.28961  -0.31551  -0.52136
   1.28961   0.16333  -0.04253
   1.76844   0.16333   0.43631
   2.24728   0.16333   0.67573
   2.48670  -0.07609   0.91515
   2.96554  -0.07609   0.91515
   3.68380  -0.07609   1.15457
   3.92321  -0.07609   1.15457
   4.16263  -0.07609   1.15457
   4.16263  -0.55493   1.15457
   4.40205  -1.27318   0.91515
   4.40205  -1.75202   0.91515
