********************************************************************************
              CENTRO DE INSTRUMENTACION Y REGISTRO SISMICO  A.C.

    Anaxagoras 814, Col. Narvarte, Benito Juarez, C.P. 03020 Mexico, D.F.
           Tels. 5687 45 42/ 5687 45  82             Fax. 5669 25 12
********************************************************************************
ARCHIVO ESTANDAR DE ACELERACION:
VERSION DEL FORMATO                    : 2.0
NOMBRE DEL ARCHIVO                     : AR1420151123204120
FECHA Y HORA DE CREACION               : 17/DIC/15, 11:55
REF. CATALOGO ACELEROGRAMAS, SMIS 1996 : REGISTRO No.     /PAG.


================================================================================
DATOS DE LA ESTACION:
NOMBRE DE LA ESTACION                  : ESC. PRIM. "JOSÉ ORDAZ LÓPEZ"
CLAVE DE LA ESTACION                   : AR14
LOCALIZACION DE LA ESTACION            : Del. Gustavo A. Madero,                
                                       : Col. Ampliación la Providencia,        
                                       : Calle Puebla esq. con calle            
                                       : Volcán Tacan.                          
                                       : 
COORDENADAS DE LA ESTACION             : 19.4808 LAT. N
                                       : 99.0760 LONG. W
ALTITUD (msnm)                         : 2232
TIPO DE SUELO                          : Arcilloso, zona lago                
                                       :                           
                                       : 
INSTITUCION RESPONSABLE                : CIRES
                                       : 

================================================================================
DATOS DEL ACELEROGRAFO:
MODELO DEL ACELEROGRAFO                : RADESD
NUMERO DE SERIE DEL ACELEROGRAFO       : 215
NUMERO DE CANALES                      : 3
ORIENTACION C1-C6 (rumbo;orientacion)  : /N00E/+V/N90W
ORIENTACION C7-C12 (rumbo;orientacion) : 
VEL. DE MUESTREO, C1-C6 (muestras/s)   : /100/100/100
VEL. DE MUESTREO, C7-C12 (muestras/s)  : 
ESC. COMPLETA DE SENSORES, C1-C6, (g)  : /0.5/0.5/0.5
ESC. COMPLETA DE SENSORES, C7-C12, (g) : 
FREC. NAT. DE SENSORES, C1-C6, (Hz)    : /30/30/32
FREC. NAT. DE SENSORES, C7-C12, (Hz)   : 
AMORTIGUAMIENTO DE SENSORES, C1-C6     : /0.733/0.790/0.750
AMORTIGUAMIENTO DE SENSORES, C7-C12    : 
INTERVALO DE MUESTREO, C1-C6, (s)      : /0.01/0.01/0.01
INTERVALO DE MUESTREO, C7-C12, (s)     : 
UMBRAL DE DISPARO, C1-C6, (Gal)        : /1.95/5.99/2.54
UMBRAL DE DISPARO, C7-C12, (Gal)       : 
MEMORIA DE PREEVENTO (s)               : 44.0
TIEMPO DE POSEVENTO (s)                : 89.0


================================================================================
DATOS DEL SISMO:
FECHA DEL SISMO (GMT)                  : 23/NOV/15
HORA EPICENTRO (GMT)                   : 20:41:20.0
MAGNITUD(ES)                           : /Mc=5.6
COORDENADAS DEL EPICENTRO              : 16.86 LAT. N
                                       : 98.94 LONG. W
PROFUNDIDAD FOCAL (km)                 : 10
FUENTE DE LOS DATOS EPICENTRALES       : SSN
                                       : INSTITUTO DE GEOFISICA, UNAM

================================================================================
DATOS DE ESTE REGISTRO:
HORA DE LA PRIMERA MUESTRA (GMT)       : 20:42:47.00
EXACTITUD DEL TIEMPO (s)               : 0.01
DURACION DEL REGISTRO (s), C1-C6       : /146.4/146.4/146.4
DURACION DEL REGISTRO (s), C7-C12      : 
NUM. TOTAL DE MUESTRAS, C1-C6          : /14640/14640/14640
NUM. TOTAL DE MUESTRAS, C7-C12         : 
ACEL. MAX. (Gal), C1-C6                : /3.78737/3.22537/3.51913
ACEL. MAX., C1-C6, EN LA MUESTRA       : /4397/4875/4435
ACEL. MAX. (Gal), C7-C12               : 
ACEL. MAX., C7-C12, EN LA MUESTRA      : 
UNIDADES DE LOS DATOS                  : Gal (cm/s/s)
FACTOR DE DECIMACION                   : 1
FORMATO DATOS (FORTRAN,10 campos/dato) : 3F10.5


================================================================================
CALIDAD DEL ACELEROGRAMA:
REGISTRO DIGITAL COMPLETO CON TIEMPO ABSOLUTO CORRECTO.


================================================================================
COMENTARIOS:














================================================================================
DATOS DE ACELERACION:
---------+---------+---------+---------+---------+---------+---------+---------+
   CANAL-1   CANAL-2   CANAL-3   CANAL-4   CANAL-5   CANAL-6   CANAL-7   CANAL-8
      N00E        +V      N90W
---------+---------+---------+---------+---------+---------+---------+---------+
[...]
   0.64498  -0.20133  -0.79043
   0.64498  -0.27615  -0.91014
   0.64498  -0.32104  -0.91014
   0.86944  -0.45571  -0.83532
   0.89936  -0.56046  -0.70065
   0.92929  -0.41082  -0.52108
   0.82455  -0.41082  -0.31159
   0.76469  -0.29111  -0.08713
   0.60009  -0.33600   0.00265
   0.40556  -0.35097   0.01761
   0.21103  -0.15644  -0.14699
   0.15118  -0.24622  -0.20684
   0.03147  -0.11155  -0.43130
  -0.04335   0.08298  -0.59590
   0.01650   0.35233  -0.73057
  -0.11817   0.48700  -0.77547
  -0.04335   0.51693  -0.89518
  -0.05832   0.33737  -1.10467
   0.03147   0.39722  -1.31416
   0.00154   0.35233  -1.40394
   0.03147   0.27751  -1.37402
   0.24096   0.05305  -1.17949
   0.16614  -0.18637  -1.17949
   0.15118  -0.21629  -1.01489
   0.01650  -0.26118  -0.94007
  -0.02839  -0.14147  -0.99992
  -0.14810   0.08298  -0.85028
  -0.28277   0.20269  -0.74554
  -0.37255   0.20269  -0.65576
  -0.38752   0.20269  -0.67072
  -0.38752   0.29248  -0.61086
  -0.38752   0.42715  -0.55101
  -0.40248   0.39722  -0.37144
  -0.38752   0.24758  -0.44626
  -0.41745   0.03809  -0.40137
  -0.38752   0.06802  -0.44626
  -0.35759   0.15780  -0.44626
  -0.31270   0.15780  -0.34152
  -0.16306   0.15780  -0.40137
  -0.10321   0.15780  -0.28166
   0.09132   0.06802  -0.07217
   0.21103  -0.05169   0.22711
   0.25592  -0.27615   0.42164
   0.42052  -0.12651   0.60120
   0.31578   0.02313   0.79573
   0.42052   0.05305   0.87055
   0.67491   0.00816   0.97529
   0.80958   0.06802   1.08004
   0.92929   0.21766   1.02019
   0.95922   0.24758   0.91544
   0.92929   0.45708   0.82566
   1.01908   0.62168   0.84062
   0.92929   0.62168   0.97529
   0.71980   0.54686   1.09500
   0.61505   0.53190   1.15486
   0.34571   0.62168   1.25961
   0.12125   0.78628   1.46910
  -0.13313   0.81621   1.57385
  -0.50723   0.90599   1.66363
  -0.71672   1.01074   1.76837
  -0.92621   0.92095   1.81327
  -1.09082   0.80124   1.84319
  -1.24045   0.60671   1.78334
  -1.19556   0.45708   1.66363
  -1.19556   0.17276   1.57385
  -0.94118   0.02313   1.40924
  -0.82147  -0.14147   1.31946
  -0.49226  -0.08162   1.16982
  -0.26781  -0.05169   0.99026
   0.06139   0.11291   0.91544
   0.22600   0.08298   0.97529
   0.43549   0.33737   0.78077
   0.55520   0.23262   0.85558
   0.65994   0.20269   0.60120
   0.65994   0.08298   0.60120
   0.51031   0.02313   0.39171
   0.31578   0.09795   0.22711
   0.25592   0.02313   0.27200
  -0.02839  -0.03673   0.19718
  -0.20795  -0.06666   0.16725
  -0.31270  -0.11155   0.13732
  -0.43241   0.03809   0.03258
  -0.44737   0.08298   0.00265
  -0.59701   0.18773  -0.10210
  -0.53716   0.15780  -0.07217
  -0.59701  -0.03673   0.00265
  -0.37255  -0.18637   0.10740
  -0.34263  -0.44075   0.21214
  -0.28277  -0.45571   0.19718
  -0.25284  -0.54550   0.24207
  -0.22292  -0.63528   0.22711
  -0.29774  -0.75499   0.28696
  -0.38752  -0.74002   0.18222
  -0.28277  -0.85973   0.19718
  -0.37255  -0.72506   0.07747
  -0.41745  -0.78492   0.01761
  -0.43241  -0.68017  -0.17691
  -0.47730  -0.62031  -0.41633
  -0.47730  -0.45571  -0.49115
  -0.56708  -0.41082  -0.59590
  -0.50723  -0.29111  -0.74554
  -0.53716  -0.05169  -0.76050
  -0.61197   0.24758  -0.68568
  -0.62694   0.23262  -0.64079
  -0.91125  -0.02176  -0.58094
  -0.94118  -0.08162  -0.61086
  -1.04592  -0.06666  -0.56597
  -1.09082  -0.00680  -0.50612
  -1.12074  -0.12651  -0.47619
  -1.03096  -0.24622  -0.40137
  -0.94118  -0.38089  -0.50612
  -0.89629  -0.50060  -0.44626
  -0.83643  -0.63528  -0.32655
  -0.59701  -0.84477  -0.35648
  -0.55212  -0.87470  -0.19188
  -0.40248  -0.88966  -0.05720
  -0.28277  -0.88966   0.03258
  -0.32766  -0.87470   0.09243
  -0.26781  -0.81484   0.27200
  -0.31270  -0.56046   0.19718
  -0.23788  -0.32104   0.31689
  -0.23788   0.14284   0.33185
  -0.29774   0.45708   0.28696
  -0.32766   0.48700   0.52638
  -0.43241   0.36729   0.67602
  -0.55212   0.38226   0.73587
  -0.49226   0.51693   0.82566
  -0.29774   0.60671   0.81069
  -0.08824   0.68153   0.94537
   0.07636   0.74139   1.00522
   0.15118   0.69650   0.97529
   0.13621   0.56182   0.72091
   0.34571   0.72642   0.54135
   0.48038   0.77132   0.34682
   0.63002   0.75635   0.39171
   0.63002   0.66657   0.33185
   0.57016   0.66657   0.24207
   0.57016   0.68153   0.16725
   0.43549   0.60671   0.16725
   0.22600   0.35233   0.18222
   0.01650   0.23262   0.16725
  -0.22292   0.17276   0.07747
  -0.55212   0.09795   0.07747
  -0.68679  -0.06666   0.04754
  -0.97111  -0.17140   0.04754
  -1.16563  -0.32104  -0.04224
  -1.16563  -0.30608   0.03258
  -1.37513  -0.30608   0.01761
  -1.39009  -0.36593   0.01761
  -1.42002  -0.44075   0.16725
  -1.27038  -0.50060   0.16725
  -1.12074  -0.45571   0.07747
  -0.94118  -0.39586  -0.11706
  -0.74665  -0.35097  -0.26670
  -0.43241  -0.20133  -0.44626
  -0.13313  -0.24622  -0.61086
   0.18110  -0.27615  -0.73057
   0.46542  -0.41082  -0.79043
   0.70484  -0.38089  -0.74554
   0.89936  -0.36593  -0.65576
   1.09389  -0.27615  -0.46123
   1.16871  -0.29111  -0.35648
   1.25850  -0.26118  -0.28166
   1.43806  -0.20133  -0.25173
   1.39317  -0.18637  -0.23677
   1.57273  -0.12651  -0.26670
   1.57273  -0.05169  -0.34152
   1.48295   0.11291  -0.37144
   1.57273   0.26255  -0.52108
   1.40813   0.35233  -0.73057
   1.25850   0.41219  -0.92510
   1.19864   0.59175  -1.19445
   1.07893   0.44211  -1.37402
   1.01908   0.39722  -1.53862
   0.92929   0.32240  -1.62840
   0.71980   0.15780  -1.65833
   0.58513   0.29248  -1.44883
   0.45045   0.17276  -1.31416
   0.10629  -0.06666  -1.46380
  -0.16306  -0.18637  -1.50869
  -0.34263  -0.32104  -1.53862
  -0.52219  -0.27615  -1.52365
  -0.56708  -0.17140  -1.43387
  -0.70176  -0.12651  -1.40394
  -0.64190   0.00816  -1.17949
  -0.80650   0.02313  -1.10467
  -0.86636   0.11291  -0.80539
  -0.83643   0.21766  -0.74554
  -0.91125   0.20269  -0.43130
  -0.97111   0.15780  -0.29662
  -1.01600   0.11291  -0.14699
  -1.00103   0.02313   0.00265
  -1.06089   0.03809   0.27200
  -1.00103  -0.00680   0.39171
  -0.97111   0.00816   0.61616
  -1.01600   0.15780   0.79573
  -0.98607   0.12787   0.84062
  -1.01600   0.26255   0.90048
  -1.16563   0.18773   0.85558
  -1.24045   0.32240   0.78077
  -1.27038   0.38226   0.76580
  -1.27038   0.44211   0.67602
  -1.16563   0.38226   0.72091
  -1.06089   0.48700   0.75084
  -0.82147   0.39722   0.73587
  -0.70176   0.41219   0.64609
  -0.56708   0.57679   0.52638
  -0.35759   0.47204   0.34682
  -0.31270   0.36729  -0.01231
  -0.26781   0.09795  -0.32655
  -0.17803  -0.17140  -0.73057
  -0.13313  -0.35097  -0.86525
  -0.10321  -0.54550  -1.11963
  -0.07328  -0.39586  -1.23934
  -0.13313  -0.47068  -1.28423
  -0.25284  -0.30608  -1.31416
  -0.23788  -0.30608  -1.47876
  -0.26781  -0.35097  -1.38898
  -0.05832  -0.57542  -1.46380
   0.07636  -0.74002  -1.43387
   0.40556  -0.84477  -1.37402
   0.74973  -0.93455  -1.59847
   1.03404  -0.74002  -1.71818
   1.28842  -0.53053  -1.85286
   1.51288  -0.35097  -2.00249
   1.52784  -0.24622  -2.27184
   1.49792  -0.20133  -2.37659
   1.55777  -0.14147  -2.49630
   1.57273  -0.02176  -2.46637
   1.54281   0.05305  -2.43644
   1.31835   0.17276  -2.36162
   1.19864   0.38226  -2.09228
   1.00411   0.56182  -1.83789
   0.79462   0.78628  -1.47876
   0.64498   0.83117  -1.13460
   0.36067   0.69650  -0.91014
   0.19607   0.51693  -0.68568
   0.15118   0.35233  -0.44626
   0.12125   0.35233  -0.25173
  -0.05832   0.30744  -0.05720
  -0.20795   0.41219  -0.01231
  -0.50723   0.56182   0.19718
  -0.68679   0.54686   0.22711
  -0.89629   0.29248   0.27200
  -0.89629   0.12787   0.16725
  -0.86636  -0.32104   0.21214
  -0.64190  -0.39586   0.34682
  -0.38752  -0.48564   0.21214
  -0.07328  -0.23126   0.07747
   0.03147   0.11291  -0.05720
   0.06139   0.38226  -0.19188
   0.09132   0.54686  -0.32655
   0.06139   0.57679  -0.31159
  -0.11817   0.33737  -0.34152
  -0.16306   0.17276  -0.34152
  -0.14810  -0.11155  -0.44626
  -0.05832  -0.30608  -0.40137
   0.01650  -0.57542  -0.31159
  -0.04335  -0.74002  -0.10210
  -0.14810  -0.69513  -0.05720
  -0.31270  -0.74002   0.39171
  -0.55212  -0.84477   0.72091
  -0.67183  -1.03930   1.06508
  -0.65687  -1.09915   1.37932
  -0.58205  -1.06923   1.51399
  -0.41745  -0.99441   1.67859
  -0.31270  -0.72506   1.73845
  -0.28277  -0.30608   1.67859
  -0.04335   0.12787   1.49903
   0.01650   0.33737   1.49903
   0.19607   0.48700   1.34939
   0.27089   0.42715   1.34939
   0.30081   0.32240   1.24464
   0.25592   0.02313   1.21471
   0.22600  -0.05169   1.22968
   0.10629  -0.21629   1.27457
  -0.25284  -0.24622   1.25961
  -0.41745  -0.33600   1.31946
  -0.68679  -0.35097   1.31946
  -0.91125  -0.38089   1.28953
  -1.09082  -0.51557   1.27457
  -1.24045  -0.60535   1.34939
  -1.24045  -0.63528   1.34939
  -1.18060  -0.76995   1.45414
  -1.15067  -0.71010   1.33443
  -1.22549  -0.39586   1.55888
  -1.21053  -0.09658   1.57385
  -1.28534   0.06802   1.69356
  -1.18060   0.39722   1.69356
  -1.19556   0.54686   1.84319
  -1.18060   0.56182   1.85816
  -1.25542   0.62168   1.75341
  -1.19556   0.51693   1.66363
  -1.30031   0.35233   1.54392
  -1.44995   0.24758   1.37932
  -1.74922   0.11291   1.18479
  -1.82404   0.02313   1.15486
  -2.03353   0.02313   1.18479
  -2.28792  -0.00680   1.24464
  -2.25799  -0.26118   1.28953
  -2.16821  -0.42579   1.25961
  -1.86893  -0.63528   1.25961
  -1.50980  -0.47068   1.21471
  -0.97111  -0.33600   1.18479
  -0.71672  -0.35097   1.37932
  -0.40248  -0.05169   1.33443
  -0.20795   0.24758   1.46910
  -0.04335   0.24758   1.51399
   0.04643   0.27751   1.54392
   0.09132   0.23262   1.73845
   0.40556   0.12787   1.67859
   0.55520   0.03809   1.63370
   0.76469   0.03809   1.61874
   0.80958   0.20269   1.43917
   0.91433   0.50197   1.12493
   0.80958   0.57679   0.99026
   0.85447   0.63664   0.70595
   0.86944   0.50197   0.58624
   0.83951   0.20269   0.37674
   1.03404  -0.18637   0.13732
   1.13879  -0.41082  -0.13202
   1.21360  -0.24622  -0.22181
   1.25850  -0.15644  -0.43130
   1.00411   0.12787  -0.58094
   0.79462   0.35233  -0.55101
   0.71980   0.47204  -0.55101
   0.46542   0.23262  -0.65576
   0.40556   0.02313  -0.80539
   0.34571  -0.36593  -0.92510
   0.58513  -0.62031  -1.05978
   0.92929  -0.72506  -1.01489
   1.12382  -0.65024  -0.99992
   1.22857  -0.33600  -0.98496
   1.33331   0.02313  -0.99992
   1.33331   0.12787  -1.01489
   1.31835   0.00816  -0.96999
   1.24353   0.00816  -0.96999
   1.33331  -0.09658  -1.05978
   1.43806  -0.03673  -1.04481
   1.75230   0.11291  -1.10467
   2.14136   0.47204  -1.28423
   2.59027   0.93592  -1.50869
   2.87458   1.23519  -1.64336
   3.08407   1.51950  -1.85286
   3.35342   1.60929  -1.95760
   3.56291   1.56439  -1.97257
   3.68262   1.32497  -1.95760
   3.78737   0.75635  -1.82293
   3.78737   0.30744  -1.58351
   3.71255   0.02313  -1.43387
   3.63773   0.03809  -1.41891
   3.44320   0.36729  -1.41891
   3.33846   0.39722  -1.34409
   3.26364   0.48700  -1.31416
   2.99429   0.42715  -1.23934
   2.78480   0.15780  -1.22438
   2.59027  -0.11155  -0.94007
   2.44063  -0.32104  -0.80539
   2.51545  -0.68017  -0.70065
   2.62020  -0.63528  -0.77547
   2.78480  -0.51557  -0.74554
   2.75487  -0.53053  -0.79043
   2.69502  -0.50060  -0.89518
   2.73991  -0.24622  -0.79043
   2.66509  -0.15644  -0.71561
   2.38078  -0.11155  -0.62583
   2.20121  -0.14147  -0.56597
   1.96179  -0.05169  -0.34152
   1.69244  -0.15644  -0.37144
   1.31835  -0.17140  -0.23677
   1.10886  -0.27615  -0.16195
   0.74973  -0.26118  -0.10210
   0.51031  -0.23126   0.15229
   0.21103  -0.21629   0.42164
   0.04643  -0.21629   0.73587
  -0.16306   0.09795   0.94537
  -0.16306   0.11291   1.25961
  -0.34263   0.21766   1.66363
  -0.44737   0.06802   2.05269
  -0.50723  -0.08162   2.42678
  -0.53716  -0.17140   2.80087
  -0.80650  -0.38089   3.07022
  -0.94118  -0.36593   3.23482
  -1.13571  -0.36593   3.30964
  -1.07585  -0.21629   3.44432
  -1.19556   0.00816   3.51913
  -1.19556   0.18773   3.42935
  -1.33024   0.48700   3.27971
  -1.43498   0.51693   3.11511
  -1.56966   0.63664   3.14504
  -1.80908   0.50197   2.77095
  -1.98864   0.32240   2.54649
  -2.18317   0.20269   2.00779
  -1.95871   0.12787   1.49903
  -1.67440   0.11291   1.13990
  -1.30031   0.30744   0.79573
  -0.86636   0.32240   0.61616
  -0.56708   0.65161   0.51142
  -0.31270   0.74139   0.58624
  -0.17803   1.04066   0.66106
  -0.20795   1.26512   0.84062
  -0.22292   1.17534   0.96033
  -0.23788   0.96584   1.13990
  -0.05832   0.32240   0.96033
   0.13621  -0.36593   0.72091
   0.34571  -0.69513   0.42164
   0.51031  -0.81484   0.22711
   0.45045  -0.51557   0.18222
   0.37563  -0.29111   0.21214
   0.01650  -0.17140   0.27200
  -0.07328  -0.17140   0.12236
   0.03147  -0.18637  -0.07217
   0.18110  -0.36593  -0.28166
   0.42052  -0.63528  -0.41633
   0.73476  -0.75499  -0.70065
   0.94426  -0.56046  -0.99992
   1.12382  -0.20133  -1.13460
   1.19864   0.29248  -1.14956
   1.24353   0.84613  -1.08970
   1.36324   1.22023  -1.13460
   1.16871   1.38483  -1.11963
   1.04900   1.17534  -1.31416
   0.92929   0.83117  -1.58351
   0.86944   0.23262  -1.76307
   0.86944  -0.03673  -1.85286
   0.88440  -0.27615  -1.97257
   0.94426  -0.08162  -1.64336
   0.88440   0.29248  -1.44883
   0.80958   0.59175  -1.07474
   0.48038   0.45708  -0.76050
   0.22600  -0.00680  -0.59590
  -0.04335  -0.41082  -0.68568
  -0.31270  -0.69513  -0.82036
  -0.41745  -0.57542  -0.95503
  -0.44737  -0.30608  -1.26927
  -0.47730   0.11291  -1.47876
  -0.62694   0.41219  -1.85286
  -0.85140   0.41219  -2.03242
  -1.13571   0.27751  -2.03242
  -1.49484  -0.24622  -1.94264
  -1.53973  -0.76995  -2.01746
  -1.64447  -1.26376  -1.91271
  -1.56966  -1.42836  -2.00249
  -1.25542  -1.45828  -1.98753
  -1.04592  -1.27872  -1.89775
  -1.09082  -1.03930  -1.61344
  -1.27038  -0.59039  -1.35905
  -1.71929  -0.33600  -1.13460
  -2.15324  -0.15644  -0.86525
  -2.52734  -0.18637  -0.73057
  -2.49741  -0.36593  -0.73057
  -2.28792  -0.60535  -0.86525
  -1.91382  -0.62031  -0.91014
  -1.49484  -0.51557  -1.07474
  -1.18060  -0.23126  -1.13460
  -0.98607   0.29248  -1.14956
  -0.80650   0.71146  -1.01489
  -0.59701   0.99577  -1.02985
  -0.61197   0.87606  -1.23934
  -0.58205   0.87606  -1.43387
  -0.46234   0.53190  -1.44883
  -0.32766   0.00816  -1.31416
  -0.10321  -0.35097  -1.07474
  -0.11817  -0.56046  -0.99992
  -0.38752  -0.69513  -0.83532
  -0.68679  -0.66521  -0.70065
  -1.24045  -0.47068  -0.61086
  -1.55469  -0.36593  -0.32655
  -1.71929  -0.38089   0.16725
  -1.65944  -0.76995   0.63113
  -1.52476  -0.79988   0.69098
  -1.42002  -0.65024   0.72091
  -1.70433  -0.27615   0.55631
  -2.03353   0.26255   0.58624
  -2.37770   0.54686   0.75084
  -2.61712   0.81621   0.90048
  -2.66201   0.86110   0.99026
  -2.46748   0.80124   1.05011
  -2.25799   0.74139   0.90048
  -2.09339   0.35233   0.76580
  -2.12331  -0.02176   0.30193
  -2.27295  -0.38089  -0.07217
  -2.15324  -0.38089  -0.11706
  -1.91382  -0.36593   0.13732
  -1.50980  -0.20133   0.48149
  -1.24045   0.26255   0.67602
  -1.16563   0.47204   0.78077
  -1.34520   0.44211   1.03515
  -1.52476  -0.09658   1.12493
  -1.47987  -0.60535   0.90048
  -1.28534  -0.90463   0.64609
  -1.04592  -0.65024   0.48149
  -0.79154  -0.18637   0.34682
  -0.76161   0.44211   0.39171
  -0.85140   0.90599   0.51142
  -0.95614   1.26512   0.72091
