********************************************************************************
               CENTRO DE INSTRUMENTACION Y REGISTRO SISMICO  A.C.  
                       Coordinacion de Servicios Tecnicos
     Anaxagoras 814, Col. Narvarte, Benito Juarez, C.P. 03020 Mexico, D.F.
            Tels. 687 45 42/ 687 45  82             Fax. 669 25 12
********************************************************************************
ARCHIVO ESTANDAR DE ACELERACION:
VERSION DEL FORMATO                    : 2.0
NOMBRE DEL ARCHIVO                     : AR149912.291
FECHA Y HORA DE CREACION               : 10/FEBRERO/2000 10:55
REF. CATALOGO ACELEROGRAMAS, SMIS 1996 : REGISTRO No.     /PAG.


================================================================================
DATOS DE LA ESTACION:
NOMBRE DE LA ESTACION                  : ARAGON
CLAVE DE LA ESTACION                   : AR14
LOCALIZACION DE LA ESTACION            : Esc Prim Jose Ordaz Lopez Puebla 2 y
                                       : Baja California, Col Providencia
                                       : Gustavo A. Madero
                                       :
                                       :
COORDENADAS DE LA ESTACION             : 19.481 LAT. N 
                                       : 99.076 LONG. W 
ALTITUD (msnm)                         : 2232
TIPO DE SUELO                          : ARCILLOSO, ZONA LAGO
                                       : 
                                       : 
INSTITUCION RESPONSABLE                : CIRES
                                       :

================================================================================
DATOS DEL ACELEROGRAFO:
MODELO DEL ACELEROGRAFO                : RAD-851
NUMERO DE SERIE DEL ACELEROGRAFO       : 235
NUMERO DE CANALES                      : 3
ORIENTACION C1-C6 (rumbo;orientacion)  : /N00E/+V/N90W
ORIENTACION C7-C12 (rumbo;orientacion) :
VEL. DE MUESTREO, C1-C6 (muestras/s)   : /100/100/100
VEL. DE MUESTREO, C7-C12 (muestras/s)  :
ESC. COMPLETA DE SENSORES, C1-C6, (g)  : /0.5/0.5/0.5
ESC. COMPLETA DE SENSORES, C7-C12, (g) :
FREC. NAT. DE SENSORES, C1-C6, (Hz)    : /30/30/32
FREC. NAT. DE SENSORES, C7-C12, (Hz)   :
AMORTIGUAMIENTO DE SENSORES, C1-C6     : /0.733/0.790/0.750
AMORTIGUAMIENTO DE SENSORES, C7-C12    :
INTERVALO DE MUESTREO, C1-C6, (s)      : /0.01/0.01/0.01
INTERVALO DE MUESTREO, C7-C12, (s)     :
UMBRAL DE DISPARO, C1-C6, (Gal)        : /2.44/3.42/2.44
UMBRAL DE DISPARO, C7-C12, (Gal)       :
MEMORIA DE PREEVENTO (s)               : 16
TIEMPO DE POSEVENTO (s)                : 64


================================================================================
DATOS DEL SISMO:
FECHA DEL SISMO (GMT)                  : 29/DIC/99
HORA EPICENTRO (GMT)                   : 05:19:46.0
MAGNITUD(ES)                           : /Mb=6.1/Ms=5.4/Mc=5.1/Ma=5.6/Me=5.9
COORDENADAS DEL EPICENTRO              : 18.02 LAT. N
                                       : 101.68 LONG. W
PROFUNDIDAD FOCAL (km)                 : 82.0
FUENTE DE LOS DATOS EPICENTRALES       : SSN
                                       : INSTITUTO DE GEOFISICA, UNAM

================================================================================
DATOS DE ESTE REGISTRO:
HORA DE LA PRIMERA MUESTRA (GMT)       : 05:21:18.00
EXACTITUD DEL TIEMPO (s)               : 0.01
DURACION DEL REGISTRO (s), C1-C6       : /110.75/110.75/110.75
DURACION DEL REGISTRO (s), C7-C12      :
NUM. TOTAL DE MUESTRAS, C1-C6          : /11075/11075/11075
NUM. TOTAL DE MUESTRAS, C7-C12         :
ACEL. MAX. (Gal), C1-C6                : /4.40557/1.28638/3.01428
ACEL. MAX., C1-C6, EN LA MUESTRA       :
ACEL. MAX. (Gal), C7-C12               :
ACEL. MAX., C7-C12, EN LA MUESTRA      :
UNIDADES DE LOS DATOS                  : Gal (cm/s/s)
FACTOR DE DECIMACION                   : 1
FORMATO DATOS (FORTRAN,10 campos/dato) : 3F10.5


================================================================================
CALIDAD DEL ACELEROGRAMA:
REGISTRO DIGITAL COMPLETO CON TIEMPO ABSOLUTO CORRECTO.


================================================================================
COMENTARIOS:














================================================================================
DATOS DE ACELERACION:
---------+---------+---------+---------+---------+---------+---------+---------+
   CANAL-1   CANAL-2   CANAL-3   CANAL-4   CANAL-5   CANAL-6   CANAL-7   CANAL-8
      N00E        +V      N90W
---------+---------+---------+---------+---------+---------+---------+---------+
[...]
   0.81428   0.56812  -0.09817
   1.05370   0.08928  -0.09817
   1.05370   0.08928   0.14125
   1.05370  -0.15014   0.14125
   1.05370  -0.15014  -0.09817
   1.05370  -0.15014  -0.09817
   1.05370  -0.15014  -0.09817
   0.81428  -0.15014   0.14125
   0.81428   0.08928  -0.09817
   1.05370   0.08928  -0.09817
   1.05370   0.08928  -0.09817
   1.05370   0.08928  -0.09817
   1.05370  -0.15014  -0.09817
   1.05370  -0.38956  -0.09817
   0.81428  -0.62897  -0.09817
   0.81428  -0.38956  -0.33759
   0.81428  -0.15014  -0.33759
   0.57486   0.32870  -0.33759
   0.57486   0.32870  -0.33759
   0.81428   0.32870  -0.33759
   0.81428   0.08928  -0.33759
   0.81428  -0.15014  -0.57701
   0.57486  -0.15014  -0.57701
   0.57486  -0.15014  -1.05584
   0.57486   0.08928  -1.05584
   0.33545   0.32870  -1.05584
   0.33545   0.56812  -1.05584
   0.57486   0.32870  -1.05584
   0.57486   0.08928  -1.05584
   0.33545   0.08928  -1.05584
   0.33545  -0.15014  -1.05584
   0.33545  -0.15014  -1.29526
   0.09603  -0.15014  -1.29526
   0.09603   0.32870  -1.29526
   0.09603   0.32870  -1.29526
   0.09603   0.32870  -1.05584
   0.09603   0.08928  -1.05584
   0.09603   0.32870  -1.05584
  -0.14339   0.32870  -1.29526
  -0.14339   0.32870  -1.29526
  -0.38281   0.32870  -1.05584
  -0.38281   0.56812  -1.05584
  -0.14339   0.56812  -1.05584
  -0.14339   0.32870  -1.05584
  -0.38281   0.32870  -0.81642
  -0.38281   0.32870  -0.81642
  -0.38281   0.32870  -0.81642
  -0.62223   0.32870  -0.81642
  -0.62223   0.32870  -1.05584
  -0.62223   0.56812  -0.81642
  -0.62223   0.32870  -0.57701
  -0.86165   0.32870  -0.57701
  -0.86165   0.08928  -0.57701
  -0.62223   0.08928  -0.33759
  -0.86165   0.08928  -0.33759
  -0.86165   0.32870  -0.33759
  -0.62223   0.32870  -0.33759
  -0.62223   0.08928  -0.33759
  -0.86165   0.08928  -0.33759
  -0.62223   0.08928  -0.33759
  -0.62223  -0.15014  -0.33759
  -0.62223  -0.15014  -0.09817
  -0.86165  -0.15014  -0.09817
  -0.62223   0.08928  -0.09817
  -0.62223   0.08928  -0.09817
  -0.62223   0.08928  -0.09817
  -0.38281   0.08928   0.14125
  -0.38281   0.08928   0.14125
  -0.62223  -0.38956   0.38067
  -0.62223  -0.15014   0.38067
  -0.62223  -0.38956   0.14125
  -0.62223  -0.15014   0.14125
  -0.62223  -0.38956   0.14125
  -0.62223  -0.15014   0.38067
  -0.62223  -0.15014   0.38067
  -0.38281  -0.15014   0.38067
  -0.62223  -0.15014   0.38067
  -0.38281  -0.15014   0.38067
  -0.38281  -0.15014   0.38067
  -0.38281  -0.15014   0.38067
  -0.38281  -0.15014   0.14125
  -0.38281   0.08928   0.38067
  -0.38281   0.32870   0.38067
  -0.38281   0.32870   0.85951
  -0.14339   0.32870   0.85951
  -0.38281   0.08928   1.09893
  -0.38281   0.08928   1.09893
  -0.38281  -0.15014   1.09893
  -0.38281   0.08928   1.09893
  -0.38281   0.32870   1.09893
  -0.38281   0.32870   1.33835
  -0.38281   0.56812   1.57777
  -0.38281   0.32870   1.81718
  -0.38281   0.32870   2.05660
  -0.38281   0.32870   1.81718
  -0.38281   0.32870   1.81718
  -0.38281   0.32870   2.05660
  -0.38281   0.32870   2.05660
  -0.38281   0.08928   2.05660
  -0.38281   0.08928   2.29602
  -0.38281   0.08928   2.29602
  -0.38281   0.32870   2.29602
  -0.14339   0.32870   2.29602
  -0.38281   0.32870   2.29602
   0.09603   0.32870   2.05660
   0.33545   0.08928   2.05660
   0.33545   0.08928   2.29602
   0.33545   0.32870   2.29602
   0.33545   0.32870   2.05660
   0.33545   0.08928   2.05660
   0.33545   0.32870   1.81718
   0.57486   0.32870   1.57777
   0.57486   0.32870   1.57777
   0.57486   0.56812   1.57777
   0.57486   0.56812   1.33835
   1.05370   0.32870   1.09893
   1.05370   0.08928   1.33835
   1.05370   0.08928   1.09893
   1.05370  -0.15014   0.62009
   1.05370  -0.15014   0.38067
   1.05370   0.08928   0.14125
   1.05370   0.08928   0.14125
   1.29312   0.08928  -0.09817
   1.29312  -0.15014  -0.33759
   1.05370  -0.38956  -0.33759
   1.05370  -0.38956  -0.57701
   1.29312  -0.62897  -0.57701
   1.05370  -0.62897  -0.81642
   1.05370  -0.38956  -1.05584
   1.05370  -0.38956  -1.29526
   0.81428  -0.38956  -1.29526
   0.57486  -0.38956  -1.29526
   0.33545  -0.62897  -1.29526
   0.33545  -0.38956  -1.53468
   0.33545  -0.62897  -1.53468
   0.09603  -0.62897  -1.29526
   0.09603  -0.62897  -1.53468
   0.09603  -0.62897  -1.53468
  -0.14339  -0.62897  -1.53468
  -0.38281  -0.38956  -1.29526
  -0.38281  -0.38956  -1.29526
  -0.38281  -0.38956  -1.29526
  -0.62223  -0.38956  -1.05584
  -0.62223  -0.38956  -0.81642
  -0.62223  -0.38956  -0.57701
  -0.62223  -0.62897  -0.57701
  -0.86165  -0.38956  -0.33759
  -1.10107  -0.38956  -0.33759
  -1.10107  -0.15014  -0.57701
  -0.86165   0.08928  -0.33759
  -1.10107   0.32870  -0.09817
  -1.10107   0.56812   0.14125
  -1.10107   0.32870   0.14125
  -0.86165   0.32870   0.38067
  -1.10107   0.08928   0.38067
  -1.10107   0.08928   0.62009
  -1.10107   0.08928   0.38067
  -1.10107   0.32870   0.38067
  -1.34049   0.56812   0.14125
  -1.10107   0.32870   0.38067
  -1.10107   0.56812   0.38067
  -1.10107   0.56812   0.38067
  -0.86165   0.56812   0.62009
  -0.86165   0.32870   0.85951
  -1.10107   0.32870   0.85951
  -0.86165   0.32870   0.62009
  -0.62223   0.32870   0.62009
  -0.62223   0.56812   0.38067
  -0.62223   0.56812   0.38067
  -0.38281   0.56812   0.38067
  -0.38281   0.08928   0.38067
  -0.38281  -0.15014   0.38067
  -0.38281  -0.15014   0.38067
  -0.14339  -0.15014   0.38067
  -0.38281  -0.15014   0.38067
  -0.38281   0.08928   0.14125
  -0.38281   0.32870   0.14125
  -0.14339   0.08928   0.14125
  -0.14339   0.08928   0.14125
  -0.14339  -0.15014   0.14125
  -0.14339  -0.15014   0.14125
  -0.38281  -0.38956   0.14125
  -0.38281  -0.38956   0.14125
  -0.38281  -0.38956  -0.09817
  -0.62223  -0.15014  -0.09817
  -0.62223  -0.38956  -0.09817
  -0.62223  -0.15014  -0.33759
  -0.62223  -0.15014  -0.33759
  -0.62223  -0.38956  -0.33759
  -0.62223  -0.38956  -0.09817
  -0.62223  -0.38956  -0.09817
  -0.62223  -0.38956  -0.09817
  -0.86165  -0.38956  -0.09817
  -0.86165  -0.38956  -0.09817
  -0.86165  -0.15014  -0.33759
  -0.86165  -0.15014  -0.33759
  -1.10107  -0.15014  -0.09817
  -1.10107  -0.15014  -0.33759
  -1.10107  -0.15014  -0.33759
  -1.34049  -0.15014  -0.09817
  -1.57991  -0.15014  -0.09817
  -1.57991   0.08928  -0.33759
  -1.57991   0.08928  -0.09817
  -1.81932   0.32870  -0.09817
  -1.81932   0.32870  -0.09817
  -2.05874   0.08928  -0.09817
  -2.05874   0.08928  -0.09817
  -2.29816   0.08928  -0.09817
  -2.05874  -0.15014  -0.09817
  -2.29816   0.08928  -0.09817
  -2.53758   0.08928  -0.09817
  -2.53758   0.08928  -0.09817
  -2.53758   0.32870  -0.09817
  -2.53758   0.08928  -0.09817
  -2.53758   0.08928  -0.09817
  -2.53758   0.08928  -0.09817
  -2.53758   0.08928  -0.33759
  -2.77700   0.08928  -0.09817
  -2.77700   0.32870  -0.33759
  -2.53758   0.08928  -0.33759
  -2.53758   0.08928  -0.33759
  -2.53758  -0.15014  -0.09817
  -2.53758   0.08928  -0.33759
  -2.53758   0.08928  -0.33759
  -2.53758   0.08928  -0.33759
  -2.53758   0.08928  -0.33759
  -2.53758   0.08928  -0.57701
  -2.29816   0.08928  -0.33759
  -2.53758  -0.15014  -0.09817
  -2.29816  -0.15014  -0.09817
  -2.53758  -0.15014  -0.09817
  -2.29816  -0.15014  -0.33759
  -2.29816  -0.38956  -0.33759
  -2.29816  -0.38956  -0.09817
  -2.29816  -0.38956  -0.09817
  -2.29816  -0.38956  -0.09817
  -2.29816  -0.38956  -0.09817
  -2.05874  -0.38956  -0.09817
  -2.29816  -0.38956   0.14125
  -2.29816  -0.38956   0.14125
  -2.29816  -0.38956   0.14125
  -1.81932  -0.38956   0.14125
  -2.05874  -0.38956   0.38067
  -2.05874  -0.38956   0.14125
  -1.81932  -0.15014   0.14125
  -1.81932  -0.38956   0.38067
  -2.05874  -0.38956   0.38067
  -1.81932  -0.15014   0.38067
  -1.81932  -0.15014   0.38067
  -1.57991  -0.15014   0.38067
  -1.81932  -0.15014   0.38067
  -1.57991  -0.15014   0.38067
  -1.34049  -0.15014   0.38067
  -1.57991  -0.15014   0.38067
  -1.34049   0.08928   0.38067
  -1.57991   0.08928   0.14125
  -1.57991   0.08928   0.14125
  -1.57991   0.08928   0.14125
  -1.57991   0.08928   0.14125
  -1.57991   0.08928  -0.09817
  -1.34049   0.32870  -0.09817
  -1.34049   0.32870  -0.09817
  -1.34049   0.32870  -0.33759
  -1.10107   0.32870  -0.57701
  -1.34049   0.08928  -0.57701
  -1.10107   0.08928  -0.57701
  -1.10107   0.08928  -0.57701
  -0.86165   0.08928  -0.81642
  -0.86165   0.08928  -0.81642
  -0.86165   0.08928  -0.81642
  -0.62223   0.08928  -1.05584
  -0.38281   0.08928  -1.05584
  -0.62223   0.08928  -1.05584
  -0.38281   0.08928  -1.29526
  -0.14339   0.08928  -1.29526
  -0.14339   0.08928  -1.29526
  -0.14339   0.08928  -1.29526
   0.09603   0.08928  -1.29526
   0.33545   0.08928  -1.53468
   0.33545  -0.15014  -1.53468
   0.33545  -0.15014  -1.53468
   0.81428  -0.15014  -1.77410
   0.81428  -0.15014  -1.77410
   1.05370  -0.15014  -1.77410
   1.05370   0.08928  -1.53468
   1.29312   0.08928  -1.77410
   1.29312  -0.15014  -1.53468
   1.29312   0.08928  -1.77410
   1.53254   0.08928  -1.77410
   1.77196   0.08928  -1.77410
   1.77196   0.08928  -1.53468
   1.77196   0.08928  -1.53468
   1.77196   0.08928  -1.53468
   2.01138  -0.15014  -1.53468
   2.01138  -0.15014  -1.53468
   2.01138  -0.15014  -1.29526
   2.01138  -0.15014  -1.29526
   2.25080  -0.15014  -1.05584
   2.01138   0.08928  -1.05584
   2.01138  -0.15014  -1.05584
   1.77196  -0.15014  -0.81642
   1.77196  -0.38956  -0.57701
   1.77196  -0.38956  -0.33759
   1.77196  -0.15014  -0.33759
   1.77196  -0.38956  -0.09817
   1.77196  -0.38956  -0.09817
   1.53254  -0.38956  -0.09817
   1.53254  -0.38956  -0.33759
   1.53254  -0.38956  -0.33759
   1.53254  -0.38956  -0.09817
   1.53254  -0.15014  -0.09817
   1.77196  -0.15014  -0.09817
   1.77196  -0.15014  -0.09817
   1.77196  -0.38956   0.14125
   1.53254  -0.38956   0.14125
   1.53254  -0.15014   0.14125
   1.53254  -0.38956   0.14125
   1.77196  -0.38956   0.14125
   1.77196  -0.38956   0.14125
   1.77196  -0.38956   0.38067
   1.77196  -0.15014   0.38067
   1.77196  -0.15014   0.38067
   1.77196   0.08928   0.14125
   2.01138   0.08928   0.14125
   2.01138   0.32870   0.14125
   2.01138   0.32870   0.14125
   2.25080   0.32870   0.38067
   2.49022   0.32870   0.14125
   2.25080   0.32870   0.14125
   2.49022   0.32870   0.14125
   2.72964   0.32870   0.14125
   2.72964   0.32870   0.14125
   2.96905   0.56812   0.14125
   3.20847   0.56812  -0.09817
   3.20847   0.32870  -0.09817
   3.20847   0.32870  -0.09817
   3.20847   0.80754  -0.33759
   3.44789   0.56812  -0.09817
   3.68731   0.56812  -0.09817
   3.68731   0.56812   0.14125
   3.68731   0.56812   0.14125
   4.16615   0.32870   0.14125
   3.92673   0.32870   0.14125
   3.92673   0.32870   0.14125
   3.92673   0.32870   0.14125
   4.16615   0.32870   0.38067
   4.16615   0.32870   0.38067
   4.16615   0.32870   0.62009
   4.40557   0.32870   0.62009
   4.40557   0.08928   0.85951
   4.16615   0.08928   0.85951
   4.16615   0.08928   1.09893
   4.16615  -0.15014   1.09893
   4.16615  -0.15014   1.33835
   4.16615  -0.15014   1.57777
   4.16615   0.08928   1.81718
   4.16615  -0.15014   1.81718
   3.92673  -0.15014   2.05660
   4.16615  -0.15014   2.05660
   4.16615  -0.38956   2.29602
   3.92673  -0.38956   2.53544
   3.92673  -0.38956   2.53544
   3.68731  -0.38956   2.53544
   3.68731  -0.15014   2.77486
   3.44789  -0.15014   2.77486
   3.44789  -0.15014   2.77486
   3.44789  -0.15014   2.77486
   3.20847  -0.15014   2.77486
   2.96905  -0.38956   3.01428
   2.96905  -0.38956   3.01428
   2.72964  -0.38956   3.01428
   2.49022  -0.38956   3.01428
   2.49022  -0.15014   2.77486
   2.25080  -0.15014   2.77486
   2.25080  -0.15014   2.77486
   2.01138  -0.15014   2.77486
   2.01138  -0.15014   2.53544
   2.01138  -0.15014   2.29602
   1.77196  -0.15014   2.29602
   1.77196  -0.15014   2.05660
   1.77196  -0.15014   2.05660
   1.53254   0.08928   2.05660
   1.29312   0.08928   1.57777
   1.53254   0.08928   1.33835
   1.29312   0.08928   1.33835
   1.05370   0.32870   1.09893
   1.05370   0.32870   0.62009
   1.05370   0.32870   0.62009
   0.57486   0.32870   0.62009
   0.33545   0.32870   0.38067
   0.33545   0.56812   0.38067
   0.09603   0.56812   0.14125
  -0.14339   0.56812   0.14125
  -0.38281   0.56812  -0.09817
  -0.38281   0.32870  -0.09817
  -0.62223   0.32870  -0.09817
  -0.86165   0.32870  -0.09817
  -1.10107   0.32870  -0.33759
  -1.10107   0.32870  -0.09817
  -1.34049   0.56812  -0.33759
  -1.34049   0.56812  -0.09817
  -1.57991   0.56812  -0.33759
  -1.81932   0.32870  -0.33759
  -1.81932   0.32870  -0.33759
  -1.81932   0.32870  -0.33759
  -1.81932   0.32870  -0.33759
  -1.81932   0.08928  -0.33759
  -2.05874   0.32870  -0.09817
  -1.81932   0.32870  -0.33759
  -1.81932   0.32870  -0.09817
  -1.81932   0.32870  -0.09817
  -1.81932   0.32870  -0.33759
  -1.81932   0.32870  -0.09817
  -1.81932   0.08928  -0.09817
  -1.81932   0.08928  -0.09817
  -1.57991   0.08928  -0.09817
  -1.57991  -0.15014  -0.09817
  -1.57991  -0.15014  -0.09817
  -1.57991   0.08928  -0.09817
  -1.34049  -0.15014  -0.09817
  -1.34049  -0.15014  -0.33759
  -1.10107  -0.38956  -0.09817
  -1.10107  -0.38956  -0.09817
  -0.86165  -0.38956  -0.33759
  -0.86165  -0.38956  -0.33759
  -0.86165  -0.38956  -0.57701
  -0.62223  -0.38956  -0.57701
  -0.38281  -0.38956  -0.57701
  -0.38281  -0.38956  -0.57701
  -0.38281  -0.38956  -0.81642
  -0.14339  -0.38956  -0.81642
   0.33545  -0.38956  -1.05584
   0.09603  -0.15014  -1.05584
   0.33545  -0.15014  -1.29526
   0.57486  -0.15014  -1.29526
   0.81428   0.08928  -1.53468
   0.81428   0.08928  -1.53468
   1.05370   0.08928  -1.53468
   1.29312  -0.15014  -1.77410
   1.53254  -0.15014  -1.53468
   1.53254  -0.15014  -1.77410
   1.53254  -0.38956  -1.77410
   1.53254  -0.38956  -1.77410
   1.77196  -0.38956  -2.01352
   1.77196  -0.15014  -1.77410
   1.53254  -0.15014  -1.77410
   1.77196  -0.38956  -1.77410
   1.53254  -0.38956  -1.77410
   1.53254  -0.38956  -1.53468
   1.53254  -0.15014  -1.53468
   1.53254  -0.15014  -1.29526
   1.29312  -0.15014  -1.29526
   1.29312   0.08928  -1.05584
   1.05370  -0.15014  -1.05584
   1.05370  -0.15014  -1.05584
   0.81428  -0.15014  -0.81642
   0.57486  -0.15014  -0.81642
   0.57486  -0.15014  -0.81642
   0.33545  -0.38956  -0.57701
   0.09603  -0.38956  -0.57701
  -0.14339  -0.38956  -0.57701
  -0.14339  -0.15014  -0.57701
  -0.62223  -0.38956  -0.33759
  -1.10107  -0.15014  -0.33759
  -1.34049  -0.38956  -0.33759
  -1.57991  -0.38956  -0.09817
  -1.81932  -0.38956  -0.09817
  -1.81932  -0.15014   0.14125
  -2.05874  -0.15014   0.14125
  -2.53758  -0.38956   0.38067
  -2.77700  -0.38956   0.38067
  -3.01642  -0.15014   0.38067
  -3.01642  -0.38956   0.38067
  -3.25584  -0.15014   0.62009
  -3.49526  -0.15014   0.85951
  -3.49526  -0.15014   0.85951
  -3.49526  -0.15014   0.85951
  -3.73468  -0.15014   0.85951
  -3.73468  -0.15014   1.09893
  -3.73468  -0.15014   1.09893
  -3.97410   0.08928   0.85951
  -3.97410   0.08928   0.85951
  -3.97410   0.08928   0.85951
  -3.97410   0.08928   0.85951
  -3.97410   0.08928   0.85951
  -3.73468   0.08928   0.85951
  -3.73468   0.08928   0.85951
  -3.73468   0.08928   0.85951
  -3.73468   0.32870   0.62009
  -3.73468   0.32870   0.62009
  -3.73468   0.08928   0.62009
  -3.73468   0.32870   0.38067
  -3.49526   0.32870   0.38067
  -3.49526   0.32870   0.38067
  -3.25584   0.32870   0.62009
  -3.25584   0.32870   0.38067
  -3.25584   0.32870   0.38067
  -3.01642   0.08928   0.14125
