********************************************************************************
              CENTRO DE INSTRUMENTACION Y REGISTRO SISMICO  A.C.

    Anaxagoras 814, Col. Narvarte, Benito Juarez, C.P. 03020 Mexico, D.F.
           Tels. 5687 45 42/ 5687 45  82             Fax. 5669 25 12
********************************************************************************
ARCHIVO ESTANDAR DE ACELERACION:
VERSION DEL FORMATO                    : 2.0
NOMBRE DEL ARCHIVO                     : BA4920150320223008
FECHA Y HORA DE CREACION               : 08/ABR/15, 11:22
REF. CATALOGO ACELEROGRAMAS, SMIS 1996 : REGISTRO No.     /PAG.


================================================================================
DATOS DE LA ESTACION:
NOMBRE DE LA ESTACION                  : BUENOS AIRES
CLAVE DE LA ESTACION                   : BA49
LOCALIZACION DE LA ESTACION            : Del. Cuauhtémoc, Col. Doctores,        
                                       : Av. Lázaro Cárdenas esq. con           
                                       : Calle Dr. Márquez.                     
                                       :                                        
                                       : 
COORDENADAS DE LA ESTACION             : 19.4097 LAT. N
                                       : 99.1450 LONG. W
ALTITUD (msnm)                         : 2233
TIPO DE SUELO                          : Terreno blando, material compresible
                                       : (arcillas)                
                                       : 
INSTITUCION RESPONSABLE                : CIRES
                                       : 

================================================================================
DATOS DEL ACELEROGRAFO:
MODELO DEL ACELEROGRAFO                : RADESD
NUMERO DE SERIE DEL ACELEROGRAFO       : 176
NUMERO DE CANALES                      : 3
ORIENTACION C1-C6 (rumbo;orientacion)  : /S00E/+V/N90W
ORIENTACION C7-C12 (rumbo;orientacion) : 
VEL. DE MUESTREO, C1-C6 (muestras/s)   : /100/100/100
VEL. DE MUESTREO, C7-C12 (muestras/s)  : 
ESC. COMPLETA DE SENSORES, C1-C6, (g)  : /0.5/0.5/0.5
ESC. COMPLETA DE SENSORES, C7-C12, (g) : 
FREC. NAT. DE SENSORES, C1-C6, (Hz)    : /52.99/52.03/52.99
FREC. NAT. DE SENSORES, C7-C12, (Hz)   : 
AMORTIGUAMIENTO DE SENSORES, C1-C6     : /0.5589/0.5469/0.6096
AMORTIGUAMIENTO DE SENSORES, C7-C12    : 
INTERVALO DE MUESTREO, C1-C6, (s)      : /0.01/0.01/0.01
INTERVALO DE MUESTREO, C7-C12, (s)     : 
UMBRAL DE DISPARO, C1-C6, (Gal)        : /0.96/1.92/0.96
UMBRAL DE DISPARO, C7-C12, (Gal)       : 
MEMORIA DE PREEVENTO (s)               : 44.0
TIEMPO DE POSEVENTO (s)                : 20.0


================================================================================
DATOS DEL SISMO:
FECHA DEL SISMO (GMT)                  : 20/MAR/15
HORA EPICENTRO (GMT)                   : 22:30:08.0
MAGNITUD(ES)                           : /Mc=5.4
COORDENADAS DEL EPICENTRO              : 17.96 LAT. N
                                       : 98.58 LONG. W
PROFUNDIDAD FOCAL (km)                 : 61
FUENTE DE LOS DATOS EPICENTRALES       : SSN
                                       : INSTITUTO DE GEOFISICA, UNAM

================================================================================
DATOS DE ESTE REGISTRO:
HORA DE LA PRIMERA MUESTRA (GMT)       : 22:30:39.00
EXACTITUD DEL TIEMPO (s)               : 0.01
DURACION DEL REGISTRO (s), C1-C6       : /180.4/180.4/180.4
DURACION DEL REGISTRO (s), C7-C12      : 
NUM. TOTAL DE MUESTRAS, C1-C6          : /18040/18040/18040
NUM. TOTAL DE MUESTRAS, C7-C12         : 
ACEL. MAX. (Gal), C1-C6                : /2.73249/2.22601/3.166
ACEL. MAX., C1-C6, EN LA MUESTRA       : /5805/4956/4898
ACEL. MAX. (Gal), C7-C12               : 
ACEL. MAX., C7-C12, EN LA MUESTRA      : 
UNIDADES DE LOS DATOS                  : Gal (cm/s/s)
FACTOR DE DECIMACION                   : 1
FORMATO DATOS (FORTRAN,10 campos/dato) : 3F10.5


================================================================================
CALIDAD DEL ACELEROGRAMA:
REGISTRO DIGITAL COMPLETO CON TIEMPO ABSOLUTO CORRECTO.


================================================================================
COMENTARIOS:














================================================================================
DATOS DE ACELERACION:
---------+---------+---------+---------+---------+---------+---------+---------+
   CANAL-1   CANAL-2   CANAL-3   CANAL-4   CANAL-5   CANAL-6   CANAL-7   CANAL-8
      S00E        +V      N90W
---------+---------+---------+---------+---------+---------+---------+---------+
[...]
   0.09566   0.49022   1.14356
   0.06573   0.44533   1.27824
  -0.06894   0.17598   1.42787
  -0.18865  -0.24301   1.51766
  -0.29340  -0.61710   1.47277
  -0.36822  -0.88645   1.45780
  -0.44304  -1.15580   1.39795
  -0.51786  -1.15580   1.30816
  -0.65253  -1.06601   1.18845
  -0.75728  -0.81163   1.08371
  -0.98173  -0.54228   0.94903
  -1.11641  -0.30286   0.84429
  -1.13137  -0.04848   0.75451
  -1.05655   0.07123   0.63480
  -0.98173   0.16101   0.50012
  -0.92188   0.35554   0.32056
  -0.90691   0.49022   0.23077
  -0.90691   0.62489   0.12603
  -0.92188   0.63986   0.11106
  -0.99670   0.69971  -0.02361
  -1.02662   0.59496  -0.06850
  -0.99670   0.49022  -0.20318
  -0.86202   0.23583  -0.26303
  -0.72735  -0.09337  -0.27799
  -0.62260  -0.30286  -0.27799
  -0.48793  -0.46746  -0.14332
  -0.36822  -0.69192  -0.05354
  -0.20362  -0.82659   0.05121
   0.03580  -0.88645   0.15595
   0.17048  -1.05105   0.18588
   0.33508  -1.26054   0.18588
   0.40990  -1.42514   0.18588
   0.42486  -1.52989   0.20085
   0.48472  -1.58975   0.20085
   0.45479  -1.61967   0.21581
   0.43983  -1.52989   0.23077
   0.33508  -1.20069   0.24574
   0.23033  -0.82659   0.26070
   0.06573  -0.39264   0.29063
  -0.08391   0.02634   0.27566
  -0.26347   0.35554   0.30559
  -0.51786   0.47525   0.29063
  -0.68246   0.50518   0.29063
  -0.81713   0.52014   0.44027
  -0.84706   0.47525   0.57494
  -0.84706   0.46029   0.70961
  -0.74231   0.47525   0.91911
  -0.68246   0.55007   1.03882
  -0.69742   0.63986   1.14356
  -0.72735   0.68475   1.11364
  -0.69742   0.71467   1.15853
  -0.71238   0.83438   1.17349
  -0.75728   0.96906   1.23335
  -0.80217   0.93913   1.26327
  -0.84706   0.96906   1.27824
  -0.90691   0.99899   1.26327
  -0.93684   1.05884   1.18845
  -1.04159   1.14862   1.12860
  -1.16130   1.20848   1.15853
  -1.28101   1.11870   1.15853
  -1.35583   0.95409   1.17349
  -1.32590   0.74460   1.20342
  -1.22115   0.44533   1.24831
  -0.99670   0.04130   1.32313
  -0.74231  -0.30286   1.30816
  -0.50289  -0.58717   1.24831
  -0.29340  -0.87148   1.14356
  -0.12880  -0.96127   0.96400
   0.02084  -1.11090   0.79940
   0.24530  -1.15580   0.58990
   0.37997  -1.09594   0.42530
   0.46975  -0.99119   0.17092
   0.48472  -0.72185  -0.06850
   0.49968  -0.34775  -0.36778
   0.48472  -0.04848  -0.57727
   0.43983   0.35554  -0.75683
   0.45479   0.60993  -0.81669
   0.42486   0.72964  -0.78676
   0.33508   0.75957  -0.77180
   0.26026   0.59496  -0.60720
   0.12559   0.23583  -0.45756
   0.02084  -0.18315  -0.38274
   0.06573  -0.54228  -0.33785
   0.14055  -0.88645  -0.29296
   0.29019  -0.96127  -0.27799
   0.43983  -0.79667  -0.27799
   0.51464  -0.60214  -0.21814
   0.54457  -0.31783  -0.26303
   0.55954  -0.24301  -0.30792
   0.51464  -0.16819  -0.35281
   0.49968   0.01138  -0.39770
   0.45479   0.07123  -0.35281
   0.39493   0.25080  -0.30792
   0.29019   0.35554  -0.18821
   0.12559   0.37051  -0.08347
   0.00588   0.43036   0.05121
  -0.03902   0.41540   0.21581
  -0.03902   0.46029   0.38041
  -0.08391   0.28072   0.55998
  -0.08391   0.17598   0.70961
  -0.11383  -0.01855   0.82932
  -0.15873  -0.19812   0.88918
  -0.09887  -0.24301   0.91911
   0.06573  -0.16819   0.90414
   0.30515  -0.10833   0.82932
   0.57450   0.01138   0.73954
   0.79896   0.20591   0.51509
   0.99348   0.29569   0.27566
   1.12816   0.35554   0.03624
   1.27780   0.38547  -0.21814
   1.44240   0.29569  -0.39770
   1.66685   0.25080  -0.45756
   1.80153   0.13109  -0.45756
   1.90627  -0.06344  -0.35281
   1.92124  -0.43754  -0.24807
   1.89131  -0.75177  -0.06850
   1.81649  -0.91638   0.05121
   1.72671  -0.97623   0.12603
   1.59203  -0.85652   0.17092
   1.50225  -0.67696   0.17092
   1.39751  -0.42257   0.05121
   1.27780  -0.22804  -0.11339
   1.21794   0.01138  -0.35281
   1.20298   0.19094  -0.69698
   1.12816   0.17598  -0.98129
   0.99348   0.13109  -1.23567
   0.84385   0.04130  -1.47509
   0.64932   0.05627  -1.71452
   0.49968   0.10116  -1.86415
   0.40990   0.20591  -1.89408
   0.37997   0.26576  -1.86415
   0.36501   0.25080  -1.78933
   0.36501   0.02634  -1.71452
   0.35004  -0.18315  -1.62473
   0.32011  -0.27293  -1.62473
   0.23033  -0.31783  -1.57984
   0.06573  -0.18315  -1.51999
  -0.11383   0.02634  -1.46013
  -0.27844   0.25080  -1.37035
  -0.32333   0.43036  -1.31049
  -0.32333   0.44533  -1.22071
  -0.18865   0.40043  -1.19078
  -0.03902   0.34058  -1.19078
   0.02084   0.19094  -1.17582
   0.11062   0.11612  -1.11596
   0.14055   0.10116  -1.10100
   0.15551   0.11612  -1.01122
   0.27522   0.10116  -0.86158
   0.46975   0.07123  -0.69698
   0.64932  -0.00359  -0.39770
   0.78399  -0.07841  -0.14332
   0.91867  -0.24301   0.20085
   0.94859  -0.31783   0.53005
   0.99348  -0.48243   0.78443
   0.88874  -0.55725   0.97896
   0.73910  -0.46746   1.06874
   0.58946  -0.34775   1.05378
   0.42486  -0.19812   0.91911
   0.33508   0.08620   0.82932
   0.27522   0.16101   0.69465
   0.26026   0.17598   0.54501
   0.30515   0.10116   0.35048
   0.32011  -0.01855   0.20085
   0.36501  -0.16819   0.03624
   0.37997  -0.22804  -0.08347
   0.40990  -0.13826  -0.17325
   0.48472   0.04130  -0.26303
   0.52961   0.22087  -0.29296
   0.66428   0.34058  -0.33785
   0.81392   0.41540  -0.29296
   0.88874   0.38547  -0.27799
   0.93363   0.37051  -0.24807
   0.97852   0.31065  -0.23310
   0.93363   0.31065  -0.24807
   0.85881   0.41540  -0.32289
   0.75406   0.47525  -0.41267
   0.73910   0.41540  -0.57727
   0.73910   0.25080  -0.71194
   0.78399   0.02634  -0.75683
   0.82888  -0.21308  -0.74187
   0.82888  -0.39264  -0.63712
   0.85881  -0.46746  -0.53238
   0.85881  -0.48243  -0.47252
   0.90370  -0.43754  -0.35281
   0.82888  -0.31783  -0.35281
   0.87377  -0.21308  -0.29296
   0.87377  -0.25797  -0.26303
   0.84385  -0.21308  -0.27799
   0.69421  -0.15322  -0.32289
   0.52961  -0.09337  -0.36778
   0.24530  -0.03351  -0.45756
  -0.09887   0.10116  -0.60720
  -0.38318   0.19094  -0.68202
  -0.75728   0.29569  -0.78676
  -1.02662   0.40043  -0.90647
  -1.17626   0.50518  -0.86158
  -1.25108   0.69971  -0.84662
  -1.20619   0.90920  -0.74187
  -1.08648   1.07380  -0.63712
  -1.01166   1.13366  -0.51741
  -0.93684   1.02891  -0.44260
  -0.89195   0.66978  -0.32289
  -0.81713   0.35554  -0.29296
  -0.74231  -0.01855  -0.15828
  -0.63757  -0.28790  -0.08347
  -0.51786  -0.52732   0.05121
  -0.39815  -0.69192   0.21581
  -0.33829  -0.78170   0.30559
  -0.20362  -0.73681   0.42530
  -0.11383  -0.61710   0.54501
  -0.08391  -0.48243   0.57494
  -0.03902  -0.22804   0.66472
  -0.03902  -0.07841   0.63480
  -0.02405   0.17598   0.75451
  -0.00909   0.37051   0.84429
   0.02084   0.44533   1.00889
  -0.00909   0.35554   1.15853
  -0.09887   0.13109   1.32313
  -0.14376  -0.30286   1.41291
  -0.23354  -0.70688   1.45780
  -0.20362  -1.02112   1.36802
  -0.26347  -1.21565   1.18845
  -0.20362  -1.15580   0.91911
  -0.21858  -0.88645   0.61983
  -0.27844  -0.57221   0.29063
  -0.35325  -0.16819  -0.02361
  -0.39815   0.20591  -0.36778
  -0.51786   0.47525  -0.69698
  -0.66749   0.81942  -0.99625
  -0.86202   0.93913  -1.13093
  -1.05655   0.96906  -1.25064
  -1.16130   0.87928  -1.28057
  -1.26604   0.55007  -1.28057
  -1.31093   0.23583  -1.25064
  -1.29597  -0.13826  -1.16086
  -1.32590  -0.46746  -0.95136
  -1.44561  -0.67696  -0.78676
  -1.53539  -0.84156  -0.65209
  -1.59525  -0.78170  -0.48749
  -1.56532  -0.72185  -0.39770
  -1.41568  -0.51235  -0.33785
  -1.31093  -0.18315  -0.38274
  -1.14633   0.13109  -0.42763
  -1.07151   0.34058  -0.45756
  -0.96677   0.53511  -0.50245
  -0.84706   0.50518  -0.47252
  -0.74231   0.50518  -0.51741
  -0.66749   0.41540  -0.47252
  -0.59267   0.34058  -0.42763
  -0.54778   0.29569  -0.27799
  -0.48793   0.22087  -0.09843
  -0.32333   0.08620   0.17092
  -0.17369  -0.01855   0.42530
   0.00588  -0.01855   0.73954
   0.11062  -0.03351   1.06874
   0.11062  -0.06344   1.38298
   0.03580   0.02634   1.53262
   0.06573   0.11612   1.63737
   0.05077   0.23583   1.62240
   0.15551   0.43036   1.53262
   0.21537   0.58000   1.39795
   0.23033   0.71467   1.29320
   0.27522   0.74460   1.18845
   0.18544   0.66978   1.09867
   0.17048   0.58000   1.05378
   0.09566   0.49022   1.00889
   0.03580   0.34058   1.08371
  -0.02405   0.19094   1.15853
  -0.17369   0.01138   1.26327
  -0.32333  -0.25797   1.33809
  -0.41311  -0.64703   1.50269
  -0.50289  -0.91638   1.66729
  -0.63757  -1.20069   1.89175
  -0.75728  -1.41018   2.07132
  -0.89195  -1.55982   2.22095
  -1.01166  -1.49996   2.20599
  -1.01166  -1.35033   2.08628
  -0.95180  -1.05105   1.80197
  -0.74231  -0.81163   1.44284
  -0.51786  -0.39264   1.09867
  -0.24851  -0.06344   0.66472
  -0.11383   0.20591   0.27566
   0.00588   0.47525  -0.09843
   0.15551   0.59496  -0.44260
   0.29019   0.72964  -0.78676
   0.46975   0.71467  -1.10100
   0.61939   0.47525  -1.41524
   0.78399   0.22087  -1.69955
   0.88874   0.04130  -1.95394
   0.91867  -0.27293  -2.08861
   0.88874  -0.49739  -2.07365
   0.79896  -0.75177  -1.93897
   0.66428  -0.79667  -1.69955
   0.49968  -0.88645  -1.46013
   0.26026  -0.73681  -1.17582
   0.06573  -0.52732  -0.89151
  -0.14376  -0.21308  -0.66705
  -0.30836   0.07123  -0.53238
  -0.51786   0.43036  -0.42763
  -0.72735   0.77453  -0.29296
  -0.93684   1.13366  -0.15828
  -1.23612   1.35812  -0.03857
  -1.46057   1.49279   0.11106
  -1.69999   1.47783   0.23077
  -1.84963   1.37308   0.35048
  -1.98430   1.19351   0.57494
  -2.10401   1.04388   0.76947
  -2.16387   0.78949   0.97896
  -2.16387   0.56504   1.18845
  -2.13394   0.41540   1.41291
  -2.10401   0.37051   1.63737
  -1.98430   0.40043   1.87679
  -1.80474   0.35554   2.01146
  -1.64014   0.37051   2.08628
  -1.38575   0.25080   2.16110
  -1.11641   0.14605   2.13117
  -0.80217   0.02634   2.10124
  -0.48793  -0.16819   1.99650
  -0.17369  -0.34775   1.87679
   0.15551  -0.48243   1.75708
   0.45479  -0.60214   1.63737
   0.67925  -0.64703   1.51766
   0.91867  -0.66199   1.32313
   1.11319  -0.76674   1.11364
   1.30772  -0.97623   0.97896
   1.47232  -1.21565   0.79940
   1.62196  -1.47004   0.58990
   1.63693  -1.64960   0.44027
   1.62196  -1.66456   0.30559
   1.50225  -1.60471   0.27566
   1.27780  -1.47004   0.29063
   1.02341  -1.23062   0.29063
   0.79896  -0.94630   0.29063
   0.63435  -0.69192   0.21581
   0.52961  -0.33279   0.09610
   0.45479   0.10116  -0.15828
   0.35004   0.46029  -0.44260
   0.24530   0.71467  -0.80173
   0.12559   0.95409  -1.16086
   0.08069   1.05884  -1.46013
   0.05077   1.10373  -1.77437
   0.09566   1.13366  -2.07365
   0.08069   1.08877  -2.35796
   0.05077   1.05884  -2.62730
  -0.00909   0.95409  -2.83680
  -0.05398   0.87928  -3.06125
  -0.03902   0.84935  -3.16600
   0.05077   0.78949  -3.13607
   0.17048   0.74460  -3.00140
   0.33508   0.78949  -2.79191
   0.42486   0.80446  -2.55249
   0.57450   0.83438  -2.32803
   0.64932   0.90920  -2.08861
   0.69421   0.87928  -1.75941
   0.73910   0.80446  -1.43020
   0.72414   0.53511  -1.07107
   0.70917   0.22087  -0.68202
   0.70917  -0.18315  -0.33785
   0.72414  -0.49739  -0.05354
   0.75406  -0.66199   0.12603
   0.79896  -0.73681   0.30559
   0.82888  -0.70688   0.44027
   0.82888  -0.66199   0.54501
   0.78399  -0.52732   0.63480
   0.73910  -0.49739   0.63480
   0.70917  -0.34775   0.63480
   0.69421  -0.24301   0.61983
   0.61939  -0.19812   0.58990
   0.54457  -0.09337   0.47019
   0.48472  -0.06344   0.42530
   0.39493  -0.10833   0.30559
   0.35004  -0.16819   0.23077
   0.26026  -0.33279   0.23077
   0.23033  -0.54228   0.24574
   0.17048  -0.64703   0.29063
   0.17048  -0.81163   0.29063
   0.18544  -0.97623   0.29063
   0.26026  -1.09594   0.24574
   0.35004  -1.18572   0.15595
   0.45479  -1.17076   0.03624
   0.57450  -1.02112  -0.00865
   0.70917  -0.88645  -0.00865
   0.84385  -0.72185   0.00632
   0.88874  -0.55725   0.05121
   0.96356  -0.45250   0.02128
   1.06830  -0.34775  -0.05354
   1.14312  -0.30286  -0.11339
   1.18801  -0.33279  -0.17325
   1.23290  -0.45250  -0.20318
   1.23290  -0.58717  -0.29296
   1.32269  -0.67696  -0.30792
   1.36758  -0.64703  -0.30792
   1.44240  -0.66199  -0.24807
   1.41247  -0.72185  -0.20318
   1.33765  -0.64703  -0.11339
   1.20298  -0.57221  -0.06850
   1.08327  -0.40761  -0.00865
   0.96356  -0.13826   0.02128
   0.93363   0.31065   0.00632
   0.94859   0.77453   0.00632
   0.88874   1.20848  -0.03857
   0.84385   1.61250  -0.15828
   0.67925   1.95667  -0.38274
   0.51464   2.19609  -0.60720
   0.29019   2.22601  -0.77180
   0.00588   2.21105  -0.86158
  -0.23354   1.98659  -0.87654
  -0.41311   1.76214  -0.77180
  -0.51786   1.50775  -0.54734
  -0.63757   1.38804  -0.27799
  -0.71238   1.25337   0.06617
  -0.77224   1.16359   0.48516
  -0.87699   1.01395   0.81436
  -0.92188   0.93913   1.24831
  -0.95180   0.89424   1.59248
  -1.01166   0.78949   1.96657
  -0.89195   0.69971   2.28081
  -0.89195   0.55007   2.47534
  -0.75728   0.43036   2.59505
  -0.68246   0.31065   2.59505
  -0.69742   0.23583   2.49030
  -0.63757   0.14605   2.40052
  -0.59267   0.02634   2.26585
  -0.50289  -0.13826   2.08628
  -0.45800  -0.30286   1.84686
  -0.35325  -0.31783   1.60744
  -0.20362  -0.48243   1.38298
  -0.02405  -0.57221   1.15853
   0.23033  -0.67696   0.99393
   0.46975  -0.84156   0.81436
   0.72414  -1.06601   0.70961
   1.00845  -1.35033   0.69465
   1.21794  -1.58975   0.64976
   1.33765  -1.72442   0.55998
   1.36758  -1.76931   0.45523
   1.39751  -1.67953   0.27566
   1.39751  -1.54485   0.09610
   1.44240  -1.24558  -0.20318
   1.44240  -0.97623  -0.53238
   1.44240  -0.73681  -0.84662
   1.36758  -0.52732  -1.17582
   1.26283  -0.27293  -1.43020
   1.09823  -0.03351  -1.69955
   0.85881   0.17598  -1.95394
   0.64932   0.50518  -2.13350
   0.42486   0.62489  -2.16343
   0.21537   0.72964  -2.23825
   0.11062   0.68475  -2.17839
   0.09566   0.58000  -2.08861
   0.09566   0.46029  -1.96890
   0.15551   0.17598  -1.81926
   0.12559   0.05627  -1.75941
   0.03580  -0.06344  -1.71452
  -0.18865  -0.13826  -1.72948
  -0.39815   0.02634  -1.80430
  -0.60764   0.23583  -1.90904
  -0.71238   0.53511  -1.93897
  -0.74231   0.80446  -2.04372
  -0.75728   1.05884  -2.07365
  -0.77224   1.19351  -2.16343
  -0.83209   1.28330  -2.19336
  -0.87699   1.26833  -2.08861
  -0.89195   1.05884  -1.92401
  -0.90691   0.83438  -1.68459
  -0.78720   0.52014  -1.37035
  -0.69742   0.20591  -1.01122
  -0.57771  -0.09337  -0.63712
  -0.51786  -0.40761  -0.21814
  -0.39815  -0.64703   0.15595
  -0.29340  -0.84156   0.48516
  -0.21858  -1.03609   0.76947
  -0.17369  -1.24558   0.97896
  -0.09887  -1.47004   1.11364
  -0.08391  -1.58975   1.23335
  -0.17369  -1.55982   1.23335
  -0.18865  -1.38025   1.12860
  -0.29340  -1.09594   1.08371
  -0.35325  -0.67696   1.03882
  -0.51786  -0.24301   0.96400
  -0.60764   0.13109   0.97896
  -0.72735   0.41540   0.94903
  -0.75728   0.60993   0.97896
  -0.81713   0.62489   1.03882
  -0.83209   0.49022   1.08371
  -0.75728   0.22087   1.12860
  -0.69742  -0.06344   1.14356
  -0.69742  -0.49739   1.09867
  -0.72735  -0.79667   1.00889
  -0.78720  -0.96127   0.90414
  -0.83209  -0.84156   0.84429
  -0.84706  -0.76674   0.69465
  -0.86202  -0.49739   0.42530
  -0.86202  -0.18315   0.14099
  -0.90691   0.08620  -0.17325
  -0.98173   0.40043  -0.50245
  -1.10144   0.66978  -0.80173
