********************************************************************************
               CENTRO DE INSTRUMENTACION Y REGISTRO SISMICO  A.C.  
                       Coordinacion de Servicios Tecnicos
     Anaxagoras 814, Col. Narvarte, Benito Juarez, C.P. 03020 Mexico, D.F.
            Tels. 667 45 42/ 687 45  82             Fax. 669 25 12
********************************************************************************
ARCHIVO ESTANDAR DE ACELERACION:
VERSION DEL FORMATO                    : 2.0
NOMBRE DEL ARCHIVO                     : BA490406.141
FECHA Y HORA DE CREACION               : 01/OCT/04, 12:10
REF. CATALOGO ACELEROGRAMAS, SMIS 1996 : REGISTRO No.     /PAG.


================================================================================
DATOS DE LA ESTACION:
NOMBRE DE LA ESTACION                  : BUENOS AIRES
CLAVE DE LA ESTACION                   : BA49
LOCALIZACION DE LA ESTACION            : ESCUELA SECUNDARIA 102, DOCTOR MARQUEZ
                                       : Y EJE CENTRAL, BUENOS AIRES.
                                       :
                                       :
                                       :
COORDENADAS DE LA ESTACION             : 19.410 LAT. N 
                                       : 99.145 LONG. W 
ALTITUD (msnm)                         : 2233
TIPO DE SUELO                          : TERRENO BLANDO, MATERIAL COMPRESIBLE
                                       : (ARCILLAS)
                                       : 
INSTITUCION RESPONSABLE                : CIRES 
                                       :

================================================================================
DATOS DEL ACELEROGRAFO:
MODELO DEL ACELEROGRAFO                : SSA-1
NUMERO DE SERIE DEL ACELEROGRAFO       : 176
NUMERO DE CANALES                      : 3
ORIENTACION C1-C6 (rumbo;orientacion)  : /N00E/+V/N90E
ORIENTACION C7-C12 (rumbo;orientacion) :
VEL. DE MUESTREO, C1-C6 (muestras/s)   : /200/200/200
VEL. DE MUESTREO, C7-C12 (muestras/s)  :
ESC. COMPLETA DE SENSORES, C1-C6, (g)  : /2/2/2
ESC. COMPLETA DE SENSORES, C7-C12, (g) :
FREC. NAT. DE SENSORES, C1-C6, (Hz)    : /52.99/52.03/52.99
FREC. NAT. DE SENSORES, C7-C12, (Hz)   :
AMORTIGUAMIENTO DE SENSORES, C1-C6     : /.5589/.5469/.6096
AMORTIGUAMIENTO DE SENSORES, C7-C12    :
INTERVALO DE MUESTREO, C1-C6, (s)      : /0.005/0.005/0.005
INTERVALO DE MUESTREO, C7-C12, (s)     :
UMBRAL DE DISPARO, C1-C6, (Gal)        : /2/2/2
UMBRAL DE DISPARO, C7-C12, (Gal)       :
MEMORIA DE PREEVENTO (s)               : 15
TIEMPO DE POSEVENTO (s)                : 60


================================================================================
DATOS DEL SISMO:
FECHA DEL SISMO (GMT)                  : 21/JUL/00
HORA EPICENTRO (GMT)                   : 06:13:39,7
MAGNITUD(ES)                           : /Mb=5.4/Ms=5.1/Mc=5.4/Ma=5.5/Me=6.0
COORDENADAS DEL EPICENTRO              : 18.09 LAT. N
                                       : 98.97 LONG. W
PROFUNDIDAD FOCAL (km)                 : 48
FUENTE DE LOS DATOS EPICENTRALES       : SSN
                                       : INSTITUTO DE GEOFISICA, UNAM 

================================================================================
DATOS DE ESTE REGISTRO:
HORA DE LA PRIMERA MUESTRA (GMT)       : 22:56:07.00
EXACTITUD DEL TIEMPO (s)               :     
DURACION DEL REGISTRO (s), C1-C6       : /195.84/195.84/195.84
DURACION DEL REGISTRO (s), C7-C12      :
NUM. TOTAL DE MUESTRAS, C1-C6          : /39168/39168/39168
NUM. TOTAL DE MUESTRAS, C7-C12         :
ACEL. MAX. (Gal), C1-C6                : /-6.74490/2.23860/-6.71149
ACEL. MAX., C1-C6, EN LA MUESTRA       :
ACEL. MAX. (Gal), C7-C12               :
ACEL. MAX., C7-C12, EN LA MUESTRA      :
UNIDADES DE LOS DATOS                  : Gal (cm/s/s)
FACTOR DE DECIMACION                   : 1
FORMATO DATOS (FORTRAN,10 campos/dato) : 3F10.5


================================================================================
CALIDAD DEL ACELEROGRAMA:
REGISTRO DIGITAL COMPLETO, CARECE DE TIEMPO ABSOLUTO.


================================================================================
COMENTARIOS:














================================================================================
DATOS DE ACELERACION:
---------+---------+---------+---------+---------+---------+---------+---------+
   CANAL-1   CANAL-2   CANAL-3   CANAL-4   CANAL-5   CANAL-6   CANAL-7   CANAL-8
      N00E        +V      N90E
---------+---------+---------+---------+---------+---------+---------+---------+
[...]
   3.55510  -0.15140   0.70851
   3.55510  -0.15140   0.70851
   3.55510  -0.15140   0.70851
   3.79510  -0.15140   0.70851
   3.79510  -0.15140   0.70851
   4.03510   0.08860   0.70851
   4.03510   0.08860   0.46851
   4.03510   0.08860   0.46851
   4.03510   0.08860   0.46851
   4.03510   0.08860   0.46851
   4.27510   0.08860   0.46851
   4.27510   0.32860   0.46851
   4.27510   0.08860   0.46851
   4.51510   0.32860   0.22851
   4.51510   0.32860   0.22851
   4.51510   0.32860   0.22851
   4.75510   0.56860   0.22851
   4.75510   0.32860   0.22851
   4.99510   0.56860   0.22851
   4.99510   0.32860  -0.01149
   4.99510   0.56860  -0.01149
   5.23510   0.56860  -0.01149
   5.23510   0.56860  -0.01149
   5.23510   0.32860  -0.01149
   5.47510   0.56860  -0.01149
   5.47510   0.56860  -0.01149
   5.71510   0.56860  -0.25149
   5.71510   0.56860  -0.25149
   5.71510   0.56860  -0.25149
   5.71510   0.80860  -0.25149
   5.95510   0.56860  -0.25149
   5.95510   0.80860  -0.25149
   5.95510   0.80860  -0.25149
   5.95510   0.80860  -0.25149
   6.18510   0.80860  -0.48149
   6.18510   0.80860  -0.72149
   6.18510   0.80860  -0.48149
   6.18510   0.80860  -0.48149
   6.18510   0.80860  -0.48149
   6.18510   0.80860  -0.72149
   6.18510   0.56860  -0.72149
   6.18510   0.80860  -0.72149
   6.18510   0.80860  -0.72149
   6.18510   0.80860  -0.72149
   6.18510   0.80860  -0.72149
   6.18510   0.80860  -0.96149
   5.95510   0.80860  -0.96149
   5.95510   0.80860  -0.96149
   6.18510   0.80860  -0.96149
   5.95510   0.80860  -0.96149
   5.95510   0.80860  -0.96149
   5.71510   0.80860  -1.20149
   5.71510   1.04860  -1.20149
   5.71510   1.04860  -1.20149
   5.71510   1.04860  -1.20149
   5.71510   1.04860  -1.20149
   5.47510   1.04860  -1.20149
   5.47510   0.80860  -1.20149
   5.47510   1.04860  -1.44149
   5.47510   1.04860  -1.44149
   5.23510   1.04860  -1.44149
   5.23510   1.04860  -1.44149
   5.23510   1.04860  -1.68149
   4.99510   1.04860  -1.68149
   4.99510   1.28860  -1.68149
   4.99510   1.04860  -1.68149
   4.75510   1.28860  -1.92149
   4.75510   1.28860  -1.92149
   4.75510   1.28860  -1.92149
   4.51510   1.28860  -1.92149
   4.51510   1.28860  -2.16149
   4.27510   1.28860  -2.16149
   4.27510   1.28860  -2.16149
   4.27510   1.28860  -2.40149
   4.03510   1.28860  -2.40149
   4.03510   1.28860  -2.40149
   3.79510   1.28860  -2.64149
   3.79510   1.28860  -2.64149
   3.55510   1.28860  -2.64149
   3.55510   1.28860  -2.64149
   3.55510   1.28860  -2.64149
   3.31510   1.28860  -2.88149
   3.31510   1.28860  -2.88149
   3.07510   1.28860  -3.12149
   2.83510   1.28860  -3.12149
   2.83510   1.52860  -3.36149
   2.83510   1.52860  -3.36149
   2.59510   1.28860  -3.36149
   2.59510   1.52860  -3.60149
   2.35510   1.52860  -3.60149
   2.11510   1.52860  -3.60149
   2.11510   1.52860  -3.84149
   1.87510   1.52860  -3.84149
   1.87510   1.52860  -3.84149
   1.63510   1.52860  -3.84149
   1.63510   1.52860  -4.08149
   1.39510   1.52860  -4.08149
   1.39510   1.52860  -4.08149
   1.16510   1.52860  -4.08149
   1.16510   1.52860  -4.08149
   0.92510   1.52860  -4.32149
   0.92510   1.52860  -4.32149
   0.68510   1.52860  -4.32149
   0.68510   1.52860  -4.32149
   0.44510   1.52860  -4.32149
   0.44510   1.52860  -4.32149
   0.20510   1.52860  -4.32149
   0.20510   1.52860  -4.32149
  -0.03490   1.52860  -4.32149
  -0.03490   1.52860  -4.32149
  -0.27490   1.52860  -4.32149
  -0.27490   1.52860  -4.32149
  -0.51490   1.28860  -4.56149
  -0.51490   1.28860  -4.56149
  -0.75490   1.52860  -4.56149
  -0.75490   1.28860  -4.32149
  -0.99490   1.28860  -4.32149
  -0.99490   1.04860  -4.56149
  -1.23490   1.28860  -4.32149
  -1.23490   1.04860  -4.56149
  -1.23490   1.04860  -4.32149
  -1.47490   1.04860  -4.32149
  -1.47490   1.04860  -4.32149
  -1.71490   0.80860  -4.32149
  -1.71490   0.80860  -4.32149
  -1.71490   0.80860  -4.32149
  -1.71490   0.56860  -4.32149
  -1.95490   0.80860  -4.08149
  -1.95490   0.56860  -4.08149
  -2.19490   0.32860  -4.08149
  -2.19490   0.56860  -4.08149
  -2.19490   0.32860  -4.08149
  -2.43490   0.32860  -4.08149
  -2.43490   0.32860  -4.08149
  -2.43490   0.32860  -3.84149
  -2.43490   0.08860  -3.84149
  -2.43490   0.08860  -3.84149
  -2.43490  -0.15140  -3.84149
  -2.43490   0.08860  -3.84149
  -2.67490  -0.15140  -3.60149
  -2.43490  -0.15140  -3.60149
  -2.43490  -0.15140  -3.60149
  -2.43490  -0.39140  -3.60149
  -2.43490  -0.39140  -3.60149
  -2.43490  -0.39140  -3.60149
  -2.43490  -0.39140  -3.60149
  -2.43490  -0.39140  -3.60149
  -2.43490  -0.39140  -3.36149
  -2.43490  -0.63140  -3.36149
  -2.19490  -0.63140  -3.36149
  -2.19490  -0.63140  -3.12149
  -2.19490  -0.63140  -3.12149
  -2.19490  -0.63140  -3.12149
  -1.95490  -0.87140  -2.88149
  -1.95490  -0.87140  -2.88149
  -1.71490  -0.87140  -2.64149
  -1.71490  -0.87140  -2.64149
  -1.71490  -1.11140  -2.64149
  -1.71490  -1.11140  -2.40149
  -1.47490  -1.11140  -2.40149
  -1.47490  -1.35140  -2.40149
  -1.23490  -1.35140  -2.16149
  -1.23490  -1.35140  -2.16149
  -0.99490  -1.35140  -1.92149
  -0.99490  -1.35140  -1.92149
  -0.99490  -1.59140  -1.68149
  -0.75490  -1.59140  -1.68149
  -0.75490  -1.35140  -1.68149
  -0.75490  -1.35140  -1.44149
  -0.51490  -1.59140  -1.44149
  -0.51490  -1.59140  -1.20149
  -0.51490  -1.59140  -1.20149
  -0.27490  -1.35140  -0.96149
  -0.27490  -1.59140  -0.96149
  -0.27490  -1.35140  -0.72149
  -0.03490  -1.35140  -0.72149
  -0.03490  -1.35140  -0.72149
  -0.03490  -1.35140  -0.48149
   0.20510  -1.35140  -0.48149
   0.20510  -1.35140  -0.48149
   0.20510  -1.35140  -0.25149
   0.20510  -1.35140  -0.25149
   0.44510  -1.35140  -0.01149
   0.44510  -1.35140  -0.01149
   0.44510  -1.35140  -0.01149
   0.44510  -1.11140   0.22851
   0.44510  -1.11140   0.22851
   0.68510  -1.11140   0.22851
   0.68510  -1.11140   0.22851
   0.68510  -1.11140   0.46851
   0.68510  -1.11140   0.46851
   0.92510  -1.11140   0.46851
   0.92510  -1.11140   0.46851
   0.92510  -1.11140   0.70851
   0.92510  -1.11140   0.70851
   0.92510  -1.11140   0.70851
   0.92510  -1.11140   0.70851
   1.16510  -0.87140   0.70851
   1.16510  -1.11140   0.70851
   1.16510  -0.87140   0.70851
   1.16510  -0.87140   0.94851
   1.16510  -0.87140   0.94851
   1.16510  -0.87140   0.94851
   1.16510  -0.63140   0.94851
   1.16510  -0.63140   0.94851
   1.16510  -0.63140   0.94851
   1.16510  -0.63140   0.94851
   1.39510  -0.63140   0.94851
   1.39510  -0.63140   1.18851
   1.39510  -0.39140   1.18851
   1.39510  -0.39140   1.18851
   1.39510  -0.39140   1.18851
   1.39510  -0.39140   1.18851
   1.39510  -0.15140   1.18851
   1.39510  -0.15140   1.18851
   1.39510  -0.15140   1.18851
   1.39510  -0.15140   1.42851
   1.39510  -0.15140   1.42851
   1.39510   0.08860   1.42851
   1.16510  -0.15140   1.42851
   1.39510  -0.15140   1.42851
   1.39510  -0.15140   1.66851
   1.39510  -0.15140   1.66851
   1.39510   0.08860   1.42851
   1.39510   0.08860   1.66851
   1.39510   0.08860   1.66851
   1.39510   0.08860   1.66851
   1.39510   0.08860   1.66851
   1.39510   0.08860   1.90851
   1.39510   0.08860   1.90851
   1.39510   0.32860   1.90851
   1.39510   0.32860   1.90851
   1.39510   0.32860   1.90851
   1.39510   0.32860   1.90851
   1.39510   0.32860   1.90851
   1.39510   0.32860   2.14851
   1.39510   0.32860   2.14851
   1.39510   0.32860   2.14851
   1.39510   0.32860   2.14851
   1.16510   0.32860   2.14851
   1.16510   0.32860   2.14851
   1.16510   0.32860   2.14851
   1.16510   0.32860   2.14851
   0.92510   0.56860   2.14851
   0.92510   0.56860   2.14851
   0.92510   0.32860   2.14851
   0.68510   0.56860   2.14851
   0.68510   0.56860   2.38851
   0.68510   0.56860   2.38851
   0.44510   0.56860   2.38851
   0.44510   0.56860   2.38851
   0.20510   0.56860   2.38851
   0.20510   0.56860   2.38851
  -0.03490   0.56860   2.38851
  -0.03490   0.56860   2.38851
  -0.27490   0.56860   2.38851
  -0.51490   0.56860   2.38851
  -0.51490   0.56860   2.38851
  -0.75490   0.56860   2.38851
  -0.75490   0.56860   2.38851
  -0.99490   0.56860   2.38851
  -0.99490   0.56860   2.38851
  -1.23490   0.56860   2.38851
  -1.23490   0.56860   2.38851
  -1.47490   0.56860   2.38851
  -1.47490   0.56860   2.38851
  -1.71490   0.56860   2.38851
  -1.95490   0.56860   2.38851
  -1.95490   0.56860   2.38851
  -1.95490   0.32860   2.38851
  -2.19490   0.32860   2.38851
  -2.19490   0.32860   2.38851
  -2.43490   0.32860   2.38851
  -2.43490   0.32860   2.38851
  -2.67490   0.32860   2.38851
  -2.67490   0.32860   2.38851
  -2.91490   0.32860   2.38851
  -2.91490   0.32860   2.38851
  -3.15490   0.32860   2.38851
  -3.15490   0.32860   2.38851
  -3.39490   0.32860   2.38851
  -3.39490   0.32860   2.38851
  -3.39490   0.32860   2.38851
  -3.63490   0.32860   2.38851
  -3.63490   0.08860   2.38851
  -3.63490   0.32860   2.38851
  -3.86490   0.32860   2.38851
  -3.86490   0.08860   2.38851
  -3.86490   0.08860   2.14851
  -4.10490   0.08860   2.38851
  -4.10490   0.08860   2.14851
  -4.34490   0.08860   2.38851
  -4.34490   0.08860   2.14851
  -4.34490   0.08860   2.14851
  -4.58490   0.08860   2.14851
  -4.58490   0.08860   2.14851
  -4.58490  -0.15140   2.14851
  -4.82490   0.08860   2.14851
  -4.82490   0.08860   2.14851
  -4.82490   0.08860   2.14851
  -5.06490   0.08860   1.90851
  -5.06490  -0.15140   1.90851
  -5.06490   0.08860   1.90851
  -5.06490   0.08860   1.90851
  -5.06490  -0.15140   1.90851
  -5.30490  -0.15140   1.90851
  -5.30490  -0.15140   1.66851
  -5.30490  -0.15140   1.66851
  -5.30490   0.08860   1.66851
  -5.54490   0.08860   1.66851
  -5.54490  -0.15140   1.66851
  -5.54490  -0.15140   1.42851
  -5.54490  -0.15140   1.42851
  -5.54490   0.08860   1.42851
  -5.54490   0.08860   1.42851
  -5.78490   0.08860   1.42851
  -5.78490   0.08860   1.18851
  -5.78490   0.08860   1.18851
  -5.78490   0.08860   1.18851
  -5.78490   0.08860   1.18851
  -5.78490  -0.15140   1.18851
  -5.78490   0.08860   0.94851
  -5.78490   0.08860   0.94851
  -5.78490   0.08860   0.94851
  -5.78490   0.08860   0.94851
  -5.78490   0.08860   0.94851
  -6.02490   0.08860   0.70851
  -6.02490   0.08860   0.70851
  -6.02490   0.08860   0.70851
  -6.02490   0.08860   0.70851
  -6.02490   0.08860   0.70851
  -6.26490   0.08860   0.70851
  -6.26490  -0.15140   0.70851
  -6.26490   0.08860   0.70851
  -6.26490   0.08860   0.70851
  -6.26490   0.08860   0.46851
  -6.26490   0.08860   0.70851
  -6.50490  -0.15140   0.46851
  -6.50490   0.08860   0.46851
  -6.50490  -0.15140   0.46851
  -6.50490   0.08860   0.46851
  -6.50490  -0.15140   0.46851
  -6.50490  -0.15140   0.46851
  -6.50490   0.08860   0.46851
  -6.50490  -0.15140   0.46851
  -6.50490  -0.15140   0.46851
  -6.50490  -0.15140   0.46851
  -6.50490  -0.15140   0.46851
  -6.74490  -0.15140   0.46851
  -6.50490  -0.15140   0.46851
  -6.50490  -0.15140   0.46851
  -6.50490  -0.15140   0.46851
  -6.50490  -0.15140   0.46851
  -6.50490  -0.15140   0.46851
  -6.50490  -0.39140   0.46851
  -6.26490  -0.15140   0.46851
  -6.26490  -0.15140   0.46851
  -6.26490  -0.15140   0.46851
  -6.02490  -0.39140   0.46851
  -6.02490  -0.39140   0.46851
  -6.02490  -0.39140   0.46851
  -5.78490  -0.63140   0.46851
  -5.78490  -0.39140   0.46851
  -5.78490  -0.39140   0.46851
  -5.54490  -0.63140   0.46851
  -5.54490  -0.39140   0.46851
  -5.30490  -0.63140   0.46851
  -5.06490  -0.63140   0.46851
  -5.06490  -0.63140   0.46851
  -4.82490  -0.63140   0.46851
  -4.58490  -0.87140   0.22851
  -4.58490  -0.63140   0.46851
  -4.34490  -0.87140   0.22851
  -4.34490  -0.63140   0.22851
  -4.10490  -0.87140   0.22851
  -3.86490  -0.87140   0.22851
  -3.86490  -0.87140   0.22851
  -3.63490  -0.87140   0.22851
  -3.39490  -1.11140   0.22851
  -3.39490  -0.87140   0.22851
  -3.15490  -1.11140   0.22851
  -2.91490  -0.87140   0.22851
  -2.91490  -1.11140   0.22851
  -2.67490  -1.11140   0.22851
  -2.43490  -0.87140  -0.01149
  -2.43490  -1.11140  -0.01149
  -2.19490  -1.11140  -0.01149
  -1.95490  -1.11140  -0.01149
  -1.95490  -1.11140  -0.01149
  -1.71490  -1.11140  -0.01149
  -1.47490  -0.87140  -0.01149
  -1.23490  -1.11140  -0.01149
  -1.23490  -1.11140  -0.01149
  -0.99490  -1.11140  -0.01149
  -0.75490  -0.87140  -0.01149
  -0.75490  -0.87140  -0.25149
  -0.51490  -0.87140  -0.25149
  -0.51490  -0.87140  -0.01149
  -0.27490  -0.87140  -0.25149
  -0.03490  -0.63140  -0.01149
  -0.03490  -0.63140  -0.25149
   0.20510  -0.63140  -0.25149
   0.44510  -0.63140  -0.25149
   0.44510  -0.63140  -0.25149
   0.68510  -0.63140  -0.01149
   0.92510  -0.63140  -0.01149
   0.92510  -0.63140  -0.01149
   1.16510  -0.39140  -0.01149
   1.16510  -0.39140  -0.01149
   1.39510  -0.39140  -0.01149
   1.63510  -0.39140  -0.01149
   1.63510  -0.39140  -0.01149
   1.87510  -0.15140  -0.01149
   1.87510  -0.15140  -0.01149
   2.11510  -0.15140   0.22851
   2.11510   0.08860   0.22851
   2.35510  -0.15140  -0.01149
   2.35510   0.08860   0.22851
   2.59510   0.08860   0.22851
   2.59510   0.08860   0.22851
   2.83510   0.08860   0.22851
   2.83510   0.08860   0.22851
   2.83510   0.32860   0.22851
   3.07510   0.32860   0.22851
   3.07510   0.32860   0.22851
   3.31510   0.32860   0.22851
   3.31510   0.32860   0.22851
   3.55510   0.32860   0.22851
   3.55510   0.56860   0.22851
   3.79510   0.56860   0.22851
   3.79510   0.56860   0.46851
   3.79510   0.56860   0.46851
   4.03510   0.56860   0.46851
   4.03510   0.80860   0.46851
   4.27510   0.80860   0.46851
   4.27510   0.80860   0.46851
   4.51510   0.80860   0.46851
   4.51510   0.80860   0.46851
   4.51510   0.80860   0.46851
   4.75510   1.04860   0.22851
   4.75510   1.04860   0.46851
   4.75510   1.04860   0.46851
   4.75510   1.04860   0.46851
   4.99510   1.28860   0.46851
   4.99510   1.04860   0.46851
   4.99510   1.04860   0.46851
   5.23510   1.04860   0.46851
   5.23510   1.04860   0.46851
   5.23510   1.28860   0.46851
   5.23510   1.04860   0.46851
   5.23510   1.28860   0.46851
   5.47510   1.28860   0.46851
   5.47510   1.28860   0.70851
   5.47510   1.04860   0.70851
   5.47510   1.28860   0.70851
   5.47510   1.28860   0.70851
   5.47510   1.04860   0.70851
   5.47510   1.28860   0.46851
   5.47510   1.04860   0.46851
   5.47510   1.04860   0.70851
   5.47510   1.04860   0.70851
   5.47510   1.28860   0.46851
   5.47510   1.04860   0.46851
   5.47510   1.04860   0.46851
   5.47510   1.04860   0.46851
   5.23510   1.04860   0.46851
   5.23510   1.04860   0.46851
   5.23510   1.04860   0.46851
   5.23510   1.04860   0.46851
   4.99510   1.04860   0.46851
   4.99510   0.80860   0.46851
   4.99510   0.80860   0.46851
   4.75510   0.80860   0.46851
   4.75510   0.80860   0.46851
   4.75510   0.80860   0.46851
   4.51510   0.80860   0.46851
   4.51510   0.80860   0.46851
   4.27510   0.80860   0.46851
   4.27510   0.80860   0.46851
   4.27510   0.80860   0.46851
   4.03510   0.56860   0.46851
   4.03510   0.80860   0.46851
   4.03510   0.56860   0.46851
   3.79510   0.80860   0.46851
   3.55510   0.56860   0.46851
   3.55510   0.56860   0.46851
   3.55510   0.56860   0.46851
   3.31510   0.56860   0.46851
   3.31510   0.56860   0.46851
   3.31510   0.56860   0.46851
   3.07510   0.56860   0.46851
   3.07510   0.56860   0.46851
   2.83510   0.56860   0.46851
   2.83510   0.56860   0.46851
   2.83510   0.56860   0.46851
   2.59510   0.56860   0.46851
   2.59510   0.56860   0.46851
   2.59510   0.56860   0.46851
