********************************************************************************
              CENTRO DE INSTRUMENTACION Y REGISTRO SISMICO  A.C.

    Anaxagoras 814, Col. Narvarte, Benito Juarez, C.P. 03020 Mexico, D.F.
           Tels. 5687 45 42/ 5687 45  82             Fax. 5669 25 12
********************************************************************************
ARCHIVO ESTANDAR DE ACELERACION:
VERSION DEL FORMATO                    : 2.0
NOMBRE DEL ARCHIVO                     : BA4920120501163759
FECHA Y HORA DE CREACION               : 04/JUL/12, 14:46
REF. CATALOGO ACELEROGRAMAS, SMIS 1996 : REGISTRO No.     /PAG.


================================================================================
DATOS DE LA ESTACION:
NOMBRE DE LA ESTACION                  : BUENOS AIRES
CLAVE DE LA ESTACION                   : BA49
LOCALIZACION DE LA ESTACION            : Del. Cuauhtémoc, Col. Doctores,        
                                       : Av. Lázaro Cárdenas esq. con           
                                       : Calle Dr. Márquez.                     
                                       :                                        
                                       : 
COORDENADAS DE LA ESTACION             : 19.4097 LAT. N
                                       : 99.1450 LONG. W
ALTITUD (msnm)                         : 2233
TIPO DE SUELO                          : Terreno blando, material compresible
                                       : (arcillas)                
                                       : 
INSTITUCION RESPONSABLE                : CIRES
                                       : 

================================================================================
DATOS DEL ACELEROGRAFO:
MODELO DEL ACELEROGRAFO                : RADESD
NUMERO DE SERIE DEL ACELEROGRAFO       : 176
NUMERO DE CANALES                      : 3
ORIENTACION C1-C6 (rumbo;orientacion)  : /N00E/+V/N90W
ORIENTACION C7-C12 (rumbo;orientacion) : 
VEL. DE MUESTREO, C1-C6 (muestras/s)   : /100/100/100
VEL. DE MUESTREO, C7-C12 (muestras/s)  : 
ESC. COMPLETA DE SENSORES, C1-C6, (g)  : /0.5/0.5/0.5
ESC. COMPLETA DE SENSORES, C7-C12, (g) : 
FREC. NAT. DE SENSORES, C1-C6, (Hz)    : /52.99/52.03/52.99
FREC. NAT. DE SENSORES, C7-C12, (Hz)   : 
AMORTIGUAMIENTO DE SENSORES, C1-C6     : /0.5589/0.5469/0.6096
AMORTIGUAMIENTO DE SENSORES, C7-C12    : 
INTERVALO DE MUESTREO, C1-C6, (s)      : /0.01/0.01/0.01
INTERVALO DE MUESTREO, C7-C12, (s)     : 
UMBRAL DE DISPARO, C1-C6, (Gal)        : /0.96/1.92/0.96
UMBRAL DE DISPARO, C7-C12, (Gal)       : 
MEMORIA DE PREEVENTO (s)               : 56.0
TIEMPO DE POSEVENTO (s)                : 64.0


================================================================================
DATOS DEL SISMO:
FECHA DEL SISMO (GMT)                  : 01/MAY/12
HORA EPICENTRO (GMT)                   : 16:37:59.0
MAGNITUD(ES)                           : /Mc=5.6
COORDENADAS DEL EPICENTRO              : 18.20 LAT. N
                                       : 101.01 LONG. W
PROFUNDIDAD FOCAL (km)                 : 51
FUENTE DE LOS DATOS EPICENTRALES       : SSN
                                       : INSTITUTO DE GEOFISICA, UNAM

================================================================================
DATOS DE ESTE REGISTRO:
HORA DE LA PRIMERA MUESTRA (GMT)       : 16:39:03.00
EXACTITUD DEL TIEMPO (s)               : 0.01
DURACION DEL REGISTRO (s), C1-C6       : /216.5/216.5/216.5
DURACION DEL REGISTRO (s), C7-C12      : 
NUM. TOTAL DE MUESTRAS, C1-C6          : /21650/21650/21650
NUM. TOTAL DE MUESTRAS, C7-C12         : 
ACEL. MAX. (Gal), C1-C6                : /2.49824/1.45227/3.04776
ACEL. MAX., C1-C6, EN LA MUESTRA       : /7498/7771/7005
ACEL. MAX. (Gal), C7-C12               : 
ACEL. MAX., C7-C12, EN LA MUESTRA      : 
UNIDADES DE LOS DATOS                  : Gal (cm/s/s)
FACTOR DE DECIMACION                   : 1
FORMATO DATOS (FORTRAN,10 campos/dato) : 3F10.5


================================================================================
CALIDAD DEL ACELEROGRAMA:
REGISTRO DIGITAL COMPLETO CON TIEMPO ABSOLUTO CORRECTO.


================================================================================
COMENTARIOS:














================================================================================
DATOS DE ACELERACION:
---------+---------+---------+---------+---------+---------+---------+---------+
   CANAL-1   CANAL-2   CANAL-3   CANAL-4   CANAL-5   CANAL-6   CANAL-7   CANAL-8
      N00E        +V      N90W
---------+---------+---------+---------+---------+---------+---------+---------+
[...]
  -0.85364  -0.25517  -0.41414
  -0.85364  -0.25517  -0.41414
  -0.61422  -0.01575  -0.41414
  -0.85364  -0.01575  -0.17472
  -0.85364  -0.01575  -0.41414
  -0.85364  -0.01575  -0.41414
  -0.61422  -0.01575  -0.17472
  -0.61422  -0.25517  -0.41414
  -0.61422  -0.01575  -0.17472
  -0.61422  -0.01575  -0.41414
  -0.61422  -0.25517  -0.17472
  -0.61422  -0.25517   0.06470
  -0.61422  -0.01575   0.06470
  -0.61422  -0.25517   0.06470
  -0.85364  -0.01575  -0.17472
  -0.85364  -0.25517   0.06470
  -0.61422  -0.25517   0.06470
  -0.61422   0.22367   0.06470
  -0.61422   0.22367   0.06470
  -0.61422  -0.01575   0.30412
  -0.61422   0.22367   0.06470
  -0.61422   0.22367   0.30412
  -0.61422   0.22367   0.30412
  -0.37480   0.22367   0.30412
  -0.37480   0.22367   0.54354
  -0.13538  -0.01575   0.54354
  -0.13538  -0.01575   0.54354
   0.10404   0.22367   0.54354
  -0.13538   0.22367   0.30412
   0.34346   0.22367   0.54354
   0.34346  -0.01575   0.30412
   0.34346   0.22367   0.30412
   0.34346  -0.01575   0.54354
   0.34346  -0.25517   0.30412
   0.34346  -0.25517   0.30412
   0.34346  -0.25517   0.30412
   0.58288  -0.25517   0.30412
   0.58288  -0.01575   0.06470
   0.58288  -0.01575   0.30412
   0.58288  -0.01575   0.30412
   0.58288   0.22367   0.30412
   0.58288   0.22367   0.06470
   0.58288   0.22367   0.06470
   0.58288   0.22367   0.06470
   0.58288   0.22367   0.06470
   0.34346   0.22367  -0.17472
   0.58288   0.22367   0.06470
   0.58288   0.46309  -0.17472
   0.58288   0.46309  -0.17472
   0.58288   0.70251  -0.17472
   0.34346   0.70251  -0.17472
   0.58288   0.94193  -0.17472
   0.34346   0.94193  -0.17472
   0.34346   0.94193  -0.17472
   0.34346   0.94193  -0.17472
   0.34346   0.94193  -0.17472
   0.34346   0.94193   0.06470
   0.34346   0.70251   0.06470
   0.34346   0.46309   0.06470
   0.34346   0.46309   0.06470
   0.58288   0.22367   0.06470
   0.58288  -0.01575   0.06470
   0.58288  -0.01575   0.06470
   0.58288   0.22367   0.06470
   0.82230   0.22367   0.06470
   0.82230   0.22367   0.06470
   1.06172   0.22367   0.06470
   1.06172   0.22367  -0.17472
   1.06172   0.22367  -0.17472
   1.30114  -0.01575  -0.17472
   1.30114   0.22367  -0.41414
   1.30114  -0.01575  -0.17472
   1.30114  -0.25517  -0.17472
   1.30114  -0.49459  -0.17472
   1.30114  -0.49459  -0.41414
   1.30114  -0.73401  -0.41414
   1.30114  -0.73401  -0.41414
   1.30114  -0.97343  -0.41414
   1.30114  -0.73401  -0.41414
   1.06172  -0.73401  -0.65356
   1.30114  -0.49459  -0.65356
   1.30114  -0.49459  -0.65356
   1.30114  -0.49459  -0.89298
   1.30114  -0.49459  -0.65356
   1.30114  -0.49459  -0.89298
   1.30114  -0.49459  -0.65356
   1.54056  -0.25517  -0.65356
   1.30114  -0.25517  -0.65356
   1.30114  -0.25517  -0.65356
   1.54056  -0.25517  -0.41414
   1.54056  -0.25517  -0.41414
   1.54056  -0.25517  -0.17472
   1.30114  -0.25517  -0.17472
   1.54056  -0.73401   0.06470
   1.30114  -0.49459   0.06470
   1.30114  -0.49459   0.06470
   1.30114  -0.49459   0.30412
   1.06172  -0.49459   0.30412
   1.06172  -0.49459   0.30412
   1.06172  -0.49459   0.30412
   0.82230  -0.49459   0.30412
   0.82230  -0.01575   0.54354
   0.82230  -0.25517   0.54354
   0.58288  -0.25517   0.54354
   0.34346  -0.25517   0.30412
   0.34346  -0.25517   0.30412
   0.34346  -0.01575   0.30412
  -0.13538  -0.25517   0.54354
  -0.13538  -0.25517   0.30412
  -0.13538  -0.25517   0.30412
  -0.37480  -0.01575   0.30412
  -0.37480  -0.25517   0.54354
  -0.61422  -0.01575   0.54354
  -0.61422  -0.01575   0.30412
  -0.61422   0.22367   0.54354
  -0.85364   0.46309   0.54354
  -0.85364   0.46309   0.30412
  -0.85364   0.22367   0.06470
  -0.85364   0.46309   0.30412
  -0.61422   0.22367   0.30412
  -0.61422   0.46309   0.30412
  -0.61422   0.46309   0.30412
  -0.61422   0.22367   0.06470
  -0.61422   0.46309   0.06470
  -0.37480   0.22367   0.06470
  -0.37480   0.46309   0.06470
  -0.37480   0.22367   0.06470
  -0.13538   0.22367  -0.17472
  -0.13538   0.22367   0.06470
   0.10404   0.22367  -0.17472
   0.10404   0.22367  -0.17472
   0.10404   0.46309  -0.17472
   0.10404   0.46309  -0.41414
   0.10404   0.46309  -0.65356
   0.34346   0.46309  -0.89298
   0.10404   0.46309  -0.89298
   0.34346   0.46309  -0.89298
   0.34346   0.22367  -0.89298
   0.10404   0.22367  -1.13240
   0.34346   0.22367  -1.13240
   0.34346   0.22367  -1.37182
   0.34346   0.22367  -1.61124
   0.58288   0.22367  -1.61124
   0.58288  -0.01575  -1.61124
   0.58288  -0.01575  -1.61124
   0.58288  -0.01575  -1.61124
   0.58288  -0.01575  -1.61124
   0.58288  -0.25517  -1.61124
   0.82230   0.22367  -1.37182
   0.82230   0.22367  -1.37182
   0.82230   0.22367  -1.37182
   0.82230  -0.01575  -1.37182
   0.58288  -0.01575  -1.37182
   0.82230  -0.01575  -1.13240
   0.82230  -0.01575  -1.13240
   0.82230  -0.01575  -0.89298
   0.82230  -0.25517  -0.89298
   0.58288  -0.25517  -0.65356
   0.82230  -0.01575  -0.41414
   0.58288   0.22367  -0.17472
   0.58288   0.22367   0.06470
   0.58288   0.22367   0.06470
   0.58288   0.22367   0.06470
   0.58288   0.22367   0.30412
   0.34346   0.22367   0.30412
   0.34346  -0.01575   0.54354
   0.10404  -0.01575   0.30412
   0.10404  -0.25517   0.54354
   0.10404  -0.25517   0.54354
  -0.13538  -0.25517   0.54354
  -0.13538  -0.25517   0.54354
  -0.37480  -0.01575   0.54354
  -0.37480  -0.25517   0.78296
  -0.61422  -0.01575   0.78296
  -0.61422  -0.25517   0.78296
  -0.85364  -0.01575   0.78296
  -1.09306  -0.01575   1.02238
  -1.09306   0.22367   1.02238
  -1.33248   0.22367   1.26181
  -1.57190   0.22367   1.26181
  -1.57190  -0.01575   1.26181
  -1.57190  -0.01575   1.26181
  -1.57190  -0.25517   1.50123
  -1.57190  -0.25517   1.50123
  -1.81132  -0.25517   1.50123
  -1.57190  -0.25517   1.74065
  -1.57190  -0.25517   1.74065
  -1.57190  -0.25517   1.74065
  -1.57190  -0.25517   1.74065
  -1.57190  -0.25517   1.98007
  -1.57190  -0.25517   1.74065
  -1.57190  -0.25517   1.74065
  -1.57190  -0.49459   1.74065
  -1.57190  -0.49459   1.98007
  -1.81132  -0.73401   1.74065
  -1.81132  -0.49459   1.98007
  -1.81132  -0.73401   1.98007
  -1.81132  -0.73401   2.21949
  -1.81132  -0.49459   2.21949
  -1.81132  -0.49459   2.21949
  -1.81132  -0.49459   1.98007
  -1.81132  -0.25517   2.21949
  -1.81132  -0.25517   2.21949
  -1.81132  -0.49459   2.21949
  -1.57190  -0.25517   2.21949
  -1.57190  -0.25517   2.21949
  -1.57190  -0.01575   1.98007
  -1.57190  -0.01575   1.98007
  -1.33248   0.22367   1.98007
  -1.33248  -0.01575   1.74065
  -1.33248   0.22367   1.74065
  -1.09306   0.22367   1.50123
  -1.33248   0.22367   1.26181
  -1.09306   0.22367   1.26181
  -1.09306   0.22367   1.02238
  -1.09306   0.22367   1.02238
  -1.09306   0.22367   1.02238
  -1.09306   0.46309   0.78296
  -1.09306   0.46309   0.54354
  -1.09306   0.22367   0.54354
  -1.09306   0.46309   0.30412
  -1.09306   0.46309   0.30412
  -0.85364   0.46309   0.06470
  -0.85364   0.46309  -0.17472
  -0.61422   0.70251  -0.41414
  -0.61422   0.70251  -0.65356
  -0.37480   0.70251  -0.65356
  -0.37480   0.70251  -0.89298
  -0.13538   0.46309  -1.13240
  -0.13538   0.70251  -1.13240
   0.10404   0.46309  -1.37182
   0.10404   0.46309  -1.37182
   0.34346   0.70251  -1.61124
   0.34346   0.46309  -1.61124
   0.34346   0.46309  -1.61124
   0.34346   0.22367  -1.61124
   0.82230   0.46309  -1.61124
   0.58288   0.46309  -1.61124
   0.82230   0.22367  -1.61124
   0.82230   0.22367  -1.61124
   0.82230   0.22367  -1.85066
   1.06172   0.46309  -1.61124
   1.06172   0.46309  -1.85066
   1.30114   0.22367  -1.61124
   1.30114   0.22367  -1.61124
   1.54056   0.22367  -1.61124
   1.30114   0.22367  -1.61124
   1.54056   0.22367  -1.61124
   1.54056  -0.01575  -1.37182
   1.77998  -0.01575  -1.37182
   1.54056  -0.01575  -1.37182
   1.54056  -0.01575  -1.37182
   1.54056  -0.01575  -1.13240
   1.77998  -0.01575  -1.37182
   1.54056  -0.01575  -1.37182
   1.54056  -0.01575  -1.13240
   1.54056  -0.25517  -1.13240
   1.54056  -0.25517  -1.13240
   1.30114  -0.25517  -0.89298
   1.30114  -0.25517  -0.89298
   1.06172  -0.25517  -0.89298
   1.06172  -0.25517  -0.89298
   0.82230  -0.49459  -0.65356
   0.82230  -0.49459  -0.65356
   0.58288  -0.49459  -0.65356
   0.58288  -0.49459  -0.41414
   0.34346  -0.25517  -0.17472
   0.34346  -0.25517  -0.17472
   0.10404  -0.25517  -0.17472
   0.10404  -0.25517   0.06470
  -0.13538  -0.25517   0.30412
  -0.37480  -0.25517   0.54354
  -0.37480  -0.25517   0.78296
  -0.13538  -0.25517   0.78296
  -0.13538  -0.49459   1.02238
  -0.13538  -0.73401   1.02238
  -0.13538  -0.73401   1.26181
  -0.13538  -0.49459   1.02238
  -0.37480  -0.73401   1.02238
  -0.37480  -0.73401   1.02238
  -0.37480  -0.49459   1.02238
  -0.37480  -0.49459   1.02238
  -0.13538  -0.49459   0.78296
  -0.13538  -0.49459   1.02238
  -0.13538  -0.49459   0.78296
  -0.13538  -0.25517   0.78296
  -0.13538  -0.49459   0.54354
  -0.13538  -0.25517   0.54354
  -0.13538  -0.49459   0.54354
  -0.13538  -0.49459   0.54354
  -0.13538  -0.25517   0.78296
  -0.13538  -0.25517   0.78296
  -0.13538  -0.25517   0.78296
  -0.13538  -0.25517   0.54354
  -0.13538  -0.25517   0.78296
  -0.37480  -0.01575   0.78296
  -0.37480  -0.01575   0.78296
  -0.13538  -0.01575   0.78296
  -0.13538   0.22367   0.78296
  -0.13538   0.22367   0.78296
  -0.13538   0.46309   0.54354
  -0.37480   0.46309   0.78296
  -0.13538   0.70251   0.54354
  -0.37480   0.70251   0.30412
  -0.13538   0.70251   0.54354
  -0.13538   0.46309   0.30412
   0.10404   0.46309   0.54354
  -0.13538   0.70251   0.54354
   0.10404   0.46309   0.30412
   0.10404   0.70251   0.30412
   0.10404   0.46309   0.06470
   0.34346   0.46309   0.30412
   0.34346   0.46309   0.06470
   0.34346   0.46309  -0.17472
   0.58288   0.46309   0.06470
   0.58288   0.46309   0.06470
   0.58288   0.22367   0.06470
   0.82230   0.22367  -0.41414
   0.82230   0.22367  -0.17472
   1.06172  -0.01575  -0.17472
   0.82230   0.22367  -0.41414
   0.82230   0.22367  -0.17472
   0.58288   0.22367  -0.41414
   0.82230   0.22367  -0.41414
   0.58288   0.22367  -0.41414
   0.82230   0.22367  -0.65356
   0.58288   0.46309  -0.65356
   0.58288   0.46309  -0.89298
   0.58288   0.46309  -0.65356
   0.34346   0.46309  -0.89298
   0.34346   0.46309  -0.89298
   0.10404   0.46309  -1.13240
  -0.13538   0.46309  -1.13240
  -0.13538   0.46309  -1.13240
  -0.13538   0.22367  -1.13240
  -0.13538   0.22367  -1.37182
  -0.13538   0.70251  -1.61124
  -0.13538   0.46309  -1.85066
  -0.13538   0.46309  -1.85066
  -0.37480   0.46309  -2.09008
  -0.13538   0.22367  -2.09008
  -0.37480   0.22367  -2.09008
  -0.13538   0.22367  -2.32950
  -0.37480  -0.01575  -2.56892
  -0.13538  -0.01575  -2.80834
  -0.13538  -0.25517  -2.80834
  -0.37480  -0.49459  -3.04776
  -0.37480  -0.49459  -2.80834
  -0.13538  -0.49459  -3.04776
  -0.13538  -0.73401  -3.04776
  -0.13538  -0.73401  -3.04776
  -0.13538  -0.73401  -3.04776
  -0.13538  -0.73401  -2.80834
  -0.13538  -0.73401  -3.04776
  -0.13538  -0.73401  -2.80834
  -0.13538  -0.73401  -2.80834
  -0.13538  -0.49459  -2.56892
  -0.13538  -0.49459  -2.56892
  -0.13538  -0.49459  -2.32950
   0.10404  -0.73401  -2.32950
   0.10404  -0.73401  -2.09008
   0.10404  -0.73401  -1.61124
  -0.13538  -0.49459  -1.37182
  -0.13538  -0.49459  -1.13240
   0.10404  -0.49459  -1.13240
   0.10404  -0.49459  -0.89298
   0.10404  -0.49459  -0.65356
  -0.13538  -0.73401  -0.41414
  -0.13538  -0.49459  -0.17472
  -0.13538  -0.49459  -0.17472
  -0.13538  -0.49459   0.06470
  -0.13538  -0.25517   0.30412
  -0.13538  -0.49459   0.54354
  -0.13538  -0.25517   0.54354
  -0.13538  -0.25517   0.78296
  -0.13538  -0.25517   0.78296
  -0.13538  -0.25517   0.78296
  -0.13538  -0.25517   1.02238
  -0.13538  -0.01575   1.02238
  -0.13538  -0.01575   1.26181
   0.10404  -0.01575   1.26181
   0.10404  -0.01575   1.50123
   0.10404  -0.01575   1.26181
   0.34346  -0.01575   1.50123
   0.34346  -0.01575   1.50123
   0.58288  -0.01575   1.50123
   0.34346  -0.25517   1.50123
   0.58288  -0.25517   1.50123
   0.34346  -0.01575   1.50123
   0.58288  -0.01575   1.50123
   0.58288  -0.01575   1.50123
   0.58288  -0.01575   1.50123
   0.58288   0.22367   1.26181
   0.82230  -0.01575   1.50123
   0.82230  -0.01575   1.50123
   0.82230  -0.01575   1.50123
   0.82230  -0.01575   1.02238
   0.82230   0.22367   1.26181
   0.82230   0.22367   1.02238
   0.82230   0.22367   1.02238
   0.82230   0.22367   1.02238
   0.82230   0.46309   1.26181
   0.58288   0.22367   1.02238
   0.58288   0.46309   1.02238
   0.58288   0.46309   1.02238
   0.58288   0.46309   1.02238
   0.34346   0.22367   0.78296
   0.34346   0.46309   0.78296
   0.34346   0.46309   0.78296
   0.10404   0.46309   0.78296
   0.10404   0.70251   0.78296
  -0.13538   0.46309   0.78296
  -0.37480   0.70251   0.78296
  -0.37480   0.70251   0.54354
  -0.61422   0.70251   0.54354
  -0.37480   0.70251   0.78296
  -0.37480   0.70251   0.78296
  -0.61422   0.70251   0.78296
  -0.61422   0.46309   0.78296
  -0.61422   0.46309   1.02238
  -0.85364   0.22367   0.78296
  -0.85364   0.22367   1.02238
  -0.85364  -0.01575   1.02238
  -0.85364  -0.01575   1.02238
  -0.85364  -0.01575   1.02238
  -1.09306  -0.01575   1.02238
  -1.09306  -0.01575   1.02238
  -1.09306  -0.01575   0.78296
  -0.85364  -0.25517   1.02238
  -0.85364  -0.25517   1.02238
  -0.85364  -0.25517   0.54354
  -0.85364  -0.25517   0.54354
  -0.85364  -0.01575   0.54354
  -1.09306  -0.25517   0.06470
  -0.85364  -0.01575   0.06470
  -0.85364  -0.25517   0.06470
  -0.85364  -0.49459   0.06470
  -0.85364  -0.25517   0.06470
  -1.09306  -0.49459  -0.17472
  -0.85364  -0.25517  -0.17472
  -0.85364  -0.49459  -0.17472
  -0.61422  -0.49459  -0.41414
  -0.85364  -0.49459  -0.41414
  -0.85364  -0.25517  -0.65356
  -0.85364  -0.25517  -0.41414
  -0.85364  -0.25517  -0.65356
  -0.85364  -0.01575  -0.65356
  -0.61422  -0.01575  -0.41414
  -0.61422   0.22367  -0.41414
  -0.61422  -0.01575  -0.41414
  -0.37480  -0.01575  -0.41414
  -0.37480  -0.01575  -0.41414
  -0.13538   0.22367  -0.17472
  -0.13538   0.22367  -0.41414
   0.10404   0.22367  -0.17472
   0.10404  -0.01575  -0.41414
   0.34346  -0.01575  -0.41414
   0.34346  -0.25517  -0.17472
   0.34346  -0.25517  -0.17472
   0.58288  -0.25517  -0.17472
   0.58288  -0.25517  -0.41414
   0.58288  -0.25517  -0.17472
   0.58288  -0.25517   0.06470
   0.58288  -0.25517   0.06470
   0.58288  -0.49459   0.06470
   0.58288  -0.25517   0.30412
   0.34346  -0.01575   0.30412
   0.58288  -0.01575   0.54354
   0.58288   0.22367   0.54354
   0.34346  -0.01575   0.54354
   0.34346   0.22367   0.78296
   0.34346  -0.01575   0.78296
   0.10404  -0.01575   0.78296
   0.10404   0.22367   1.02238
   0.10404   0.22367   1.02238
  -0.13538   0.22367   1.26181
   0.10404   0.22367   1.50123
  -0.13538   0.46309   1.26181
  -0.13538   0.70251   1.50123
  -0.13538   0.70251   1.50123
  -0.13538   0.46309   1.50123
   0.10404   0.46309   1.50123
  -0.13538   0.46309   1.50123
  -0.13538   0.46309   1.50123
  -0.13538   0.46309   1.74065
   0.10404   0.46309   1.74065
   0.34346   0.22367   1.74065
   0.10404   0.22367   1.74065
   0.10404   0.22367   1.74065
   0.10404   0.22367   1.74065
   0.10404   0.22367   1.50123
   0.34346   0.22367   1.26181
   0.10404  -0.01575   1.50123
   0.10404   0.22367   1.50123
   0.10404  -0.01575   1.50123
   0.34346  -0.25517   1.74065
