********************************************************************************
              CENTRO DE INSTRUMENTACION Y REGISTRO SISMICO  A.C.

    Anaxagoras 814, Col. Narvarte, Benito Juarez, C.P. 03020 Mexico, D.F.
           Tels. 5687 45 42/ 5687 45  82             Fax. 5669 25 12
********************************************************************************
ARCHIVO ESTANDAR DE ACELERACION:
VERSION DEL FORMATO                    : 2.0
NOMBRE DEL ARCHIVO                     : BA4920121115092022
FECHA Y HORA DE CREACION               : 09/JUL/14, 10:42
REF. CATALOGO ACELEROGRAMAS, SMIS 1996 : REGISTRO No.     /PAG.


================================================================================
DATOS DE LA ESTACION:
NOMBRE DE LA ESTACION                  : BUENOS AIRES
CLAVE DE LA ESTACION                   : BA49
LOCALIZACION DE LA ESTACION            : Del. Cuauhtémoc, Col. Doctores,        
                                       : Av. Lázaro Cárdenas esq. con           
                                       : Calle Dr. Márquez.                     
                                       :                                        
                                       : 
COORDENADAS DE LA ESTACION             : 19.4097 LAT. N
                                       : 99.1450 LONG. W
ALTITUD (msnm)                         : 2233
TIPO DE SUELO                          : Terreno blando, material compresible
                                       : (arcillas)                
                                       : 
INSTITUCION RESPONSABLE                : CIRES
                                       : 

================================================================================
DATOS DEL ACELEROGRAFO:
MODELO DEL ACELEROGRAFO                : RADESD
NUMERO DE SERIE DEL ACELEROGRAFO       : 176
NUMERO DE CANALES                      : 3
ORIENTACION C1-C6 (rumbo;orientacion)  : /S00E/+V/N90W
ORIENTACION C7-C12 (rumbo;orientacion) : 
VEL. DE MUESTREO, C1-C6 (muestras/s)   : /100/100/100
VEL. DE MUESTREO, C7-C12 (muestras/s)  : 
ESC. COMPLETA DE SENSORES, C1-C6, (g)  : /0.5/0.5/0.5
ESC. COMPLETA DE SENSORES, C7-C12, (g) : 
FREC. NAT. DE SENSORES, C1-C6, (Hz)    : /52.99/52.03/52.99
FREC. NAT. DE SENSORES, C7-C12, (Hz)   : 
AMORTIGUAMIENTO DE SENSORES, C1-C6     : /0.5589/0.5469/0.6096
AMORTIGUAMIENTO DE SENSORES, C7-C12    : 
INTERVALO DE MUESTREO, C1-C6, (s)      : /0.01/0.01/0.01
INTERVALO DE MUESTREO, C7-C12, (s)     : 
UMBRAL DE DISPARO, C1-C6, (Gal)        : /0.96/1.92/0.96
UMBRAL DE DISPARO, C7-C12, (Gal)       : 
MEMORIA DE PREEVENTO (s)               : 44.0
TIEMPO DE POSEVENTO (s)                : 0.0


================================================================================
DATOS DEL SISMO:
FECHA DEL SISMO (GMT)                  : 15/NOV/12
HORA EPICENTRO (GMT)                   : 09:20:22.0
MAGNITUD(ES)                           : /Mc=6.1
COORDENADAS DEL EPICENTRO              : 18.17 LAT. N
                                       : 100.52 LONG. W
PROFUNDIDAD FOCAL (km)                 : 40
FUENTE DE LOS DATOS EPICENTRALES       : SSN
                                       : INSTITUTO DE GEOFISICA, UNAM

================================================================================
DATOS DE ESTE REGISTRO:
HORA DE LA PRIMERA MUESTRA (GMT)       : 09:21:05.00
EXACTITUD DEL TIEMPO (s)               : 0.01
DURACION DEL REGISTRO (s), C1-C6       : /344.4/344.4/344.4
DURACION DEL REGISTRO (s), C7-C12      : 
NUM. TOTAL DE MUESTRAS, C1-C6          : /34440/34440/34440
NUM. TOTAL DE MUESTRAS, C7-C12         : 
ACEL. MAX. (Gal), C1-C6                : /7.89391/5.07675/7.71772
ACEL. MAX., C1-C6, EN LA MUESTRA       : /7366/7373/6950
ACEL. MAX. (Gal), C7-C12               : 
ACEL. MAX., C7-C12, EN LA MUESTRA      : 
UNIDADES DE LOS DATOS                  : Gal (cm/s/s)
FACTOR DE DECIMACION                   : 1
FORMATO DATOS (FORTRAN,10 campos/dato) : 3F10.5


================================================================================
CALIDAD DEL ACELEROGRAMA:
REGISTRO DIGITAL COMPLETO CON TIEMPO ABSOLUTO CORRECTO.


================================================================================
COMENTARIOS:














================================================================================
DATOS DE ACELERACION:
---------+---------+---------+---------+---------+---------+---------+---------+
   CANAL-1   CANAL-2   CANAL-3   CANAL-4   CANAL-5   CANAL-6   CANAL-7   CANAL-8
      S00E        +V      N90W
---------+---------+---------+---------+---------+---------+---------+---------+
[...]
  -4.19681  -0.87883   1.50776
  -4.45120  -0.75912   1.85193
  -4.67565  -0.72919   2.22602
  -4.94500  -0.75912   2.57019
  -5.15449  -0.63941   2.95925
  -5.25924  -0.57955   3.33334
  -5.31909  -0.51970   3.64758
  -5.31909  -0.53466   3.88700
  -5.25924  -0.71423   3.99175
  -5.00486  -0.95365   4.05160
  -4.72054  -1.20803   4.08153
  -4.25667  -1.35767   4.03664
  -3.74790  -1.49234   4.02167
  -3.19424  -1.55220   4.02167
  -2.64058  -1.58212   4.06656
  -1.99714  -1.56716   4.08153
  -1.38363  -1.55220   4.11146
  -0.81500  -1.59709   4.17131
  -0.23142  -1.73176   4.23117
   0.26239  -1.86644   4.32095
   0.63648  -2.12082   4.39577
   0.96568  -2.36024   4.50051
   1.23503  -2.56973   4.65015
   1.42956  -2.67448   4.73993
   1.47445  -2.73433   4.88957
   1.42956  -2.71937   4.97935
   1.27992  -2.68944   5.03921
   1.07043  -2.59966   5.06914
   0.84597  -2.33031   5.00928
   0.59159  -2.09089   4.90453
   0.30728  -1.61205   4.81475
   0.00800  -1.08832   4.72497
  -0.26134  -0.51970   4.54540
  -0.59055  -0.01093   4.39577
  -0.88982   0.49784   4.20124
  -1.15917   1.02157   4.03664
  -1.35370   1.39566   3.81218
  -1.53326   1.75479   3.66254
  -1.60808   2.02414   3.54283
  -1.60808   2.23363   3.40816
  -1.48837   2.42816   3.22859
  -1.24895   2.56284   3.07896
  -0.93471   2.66758   2.80961
  -0.57558   2.71247   2.49537
  -0.18652   2.74240   2.09135
   0.24742   2.74240   1.56762
   0.72626   2.77233   0.92417
   1.14525   2.63766   0.29570
   1.59416   2.63766  -0.40760
   1.96826   2.47305  -1.02111
   2.32739   2.35334  -1.67952
   2.61170   2.12889  -2.29303
   2.80623   1.87450  -2.89158
   2.86608   1.56027  -3.44524
   2.83615   1.27595  -3.84926
   2.62666   0.90186  -4.25329
   2.28250   0.61755  -4.55256
   1.89344   0.43798  -4.65731
   1.42956   0.36316  -4.65731
   0.90583   0.31827  -4.58249
   0.45692   0.28835  -4.52263
   0.09779   0.31827  -4.43285
  -0.21645   0.36316  -4.43285
  -0.42594   0.28835  -4.49271
  -0.57558   0.22849  -4.62738
  -0.71026   0.19856  -4.74709
  -0.74018   0.24345  -4.95658
  -0.80004   0.34820  -5.12118
  -0.74018   0.49784  -5.36060
  -0.66537   0.60258  -5.51024
  -0.54565   0.63251  -5.73470
  -0.33616   0.69237  -5.94419
  -0.15660   0.64748  -6.18361
   0.02297   0.61755  -6.43800
   0.17261   0.58762  -6.60260
   0.23246   0.45295  -6.76720
   0.21750   0.34820  -6.85698
   0.20253   0.10878  -6.93180
   0.17261  -0.07078  -6.82705
   0.08282  -0.28028  -6.73727
   0.03793  -0.45984  -6.63252
  -0.11171  -0.66933  -6.57267
  -0.30623  -0.84890  -6.48289
  -0.47084  -0.90876  -6.54274
  -0.66537  -1.05839  -6.57267
  -0.87486  -1.04343  -6.58763
  -1.11428  -1.08832  -6.54274
  -1.35370  -1.16314  -6.52778
  -1.66794  -1.14818  -6.37814
  -1.95225  -1.08832  -6.21354
  -2.34131  -1.01350  -5.95916
  -2.74533  -0.89379  -5.65988
  -3.16431  -0.80401  -5.31571
  -3.58330  -0.78905  -4.92666
  -4.01725  -0.74415  -4.58249
  -4.37638  -0.72919  -4.22336
  -4.69062  -0.66933  -3.75948
  -5.01982  -0.66933  -3.28064
  -5.21435  -0.44488  -2.83173
  -5.30413  -0.31020  -2.42771
  -5.30413  -0.17553  -2.05361
  -5.18442  -0.11568  -1.72441
  -4.97493   0.06389  -1.44010
  -4.73551   0.03396  -1.20068
  -4.51105  -0.05582  -0.97622
  -4.22674  -0.11568  -0.84155
  -3.91250  -0.39999  -0.72184
  -3.53841  -0.68430  -0.67695
  -3.16431  -0.95365  -0.66198
  -2.77526  -1.25292  -0.66198
  -2.32634  -1.44745  -0.67695
  -1.90736  -1.62702  -0.70688
  -1.48837  -1.73176  -0.76673
  -1.09931  -1.91133  -0.84155
  -0.75515  -2.10586  -1.05104
  -0.38105  -2.22557  -1.24557
   0.02297  -2.28542  -1.44010
   0.45692  -2.27046  -1.58974
   0.92079  -2.13578  -1.73937
   1.35474  -1.91133  -1.79923
   1.74380  -1.64198  -1.75434
   2.11789  -1.34270  -1.76930
   2.47702  -1.16314  -1.72441
   2.79126  -0.98357  -1.64959
   3.04565  -0.72919  -1.54485
   3.22521  -0.44488  -1.39521
   3.41974  -0.08575  -1.24557
   3.52449   0.16864  -1.00615
   3.58434   0.39309  -0.73680
   3.68909   0.63251  -0.40760
   3.73398   0.76719  -0.16818
   3.77887   0.91682   0.07124
   3.82376   1.14128   0.26577
   3.82376   1.38070   0.44533
   3.85369   1.65005   0.50519
   3.79384   2.09896   0.58001
   3.76391   2.41320   0.55008
   3.67413   2.81722   0.52015
   3.61427   3.11650   0.50519
   3.55442   3.23621   0.46030
   3.50952   3.19132   0.46030
   3.53945   2.99679   0.46030
   3.58434   2.75737   0.44533
   3.59931   2.51795   0.37052
   3.62923   2.38327   0.22088
   3.58434   2.24860   0.13110
   3.52449   2.06903   0.02635
   3.41974   1.88947  -0.10832
   3.40478   1.73983  -0.25796
   3.50952   1.53034  -0.45249
   3.56938   1.30588  -0.55724
   3.70405   1.06646  -0.66198
   3.80880   0.84200  -0.70688
   3.88362   0.67740  -0.72184
   3.92851   0.67740  -0.79666
   3.91355   0.63251  -0.85651
   3.88362   0.63251  -0.91637
   3.70405   0.43798  -0.88644
   3.59931   0.28835  -0.88644
   3.43471  -0.01093  -0.87148
   3.25514  -0.13064  -0.81162
   3.00076  -0.14560  -0.75177
   2.68652  -0.05582  -0.63206
   2.29746   0.16864  -0.54227
   1.92337   0.42302  -0.52731
   1.44453   0.61755  -0.49738
   1.10036   0.73726  -0.58717
   0.84597   0.82704  -0.70688
   0.54670   0.88690  -0.78169
   0.24742   0.91682  -0.85651
  -0.06681   1.06646  -0.96126
  -0.39602   1.27595  -1.12586
  -0.77011   1.47048  -1.30543
  -1.12924   1.70990  -1.36528
  -1.44348   1.87450  -1.41017
  -1.75772   1.93436  -1.38024
  -1.95225   1.97925  -1.30543
  -2.17670   1.82961  -1.14082
  -2.31138   1.63508  -1.03608
  -2.38620   1.44056  -0.84155
  -2.38620   1.20114  -0.66198
  -2.32634   0.96171  -0.46746
  -2.26649   0.78215  -0.21307
  -2.11685   0.63251   0.04131
  -2.04203   0.43798   0.31066
  -1.90736   0.09382   0.55008
  -1.63801  -0.25035   0.75957
  -1.36866  -0.60948   0.93914
  -0.99457  -0.87883   1.07381
  -0.60551  -1.19307   1.26834
  -0.26134  -1.47738   1.50776
  -0.00696  -1.77665   1.71725
   0.14268  -1.95622   2.00157
   0.15764  -2.09089   2.28588
   0.12771  -2.19564   2.55522
  -0.06681  -2.30038   2.85450
  -0.35113  -2.37520   3.18370
  -0.68033  -2.40513   3.58772
  -1.00953  -2.27046   3.91693
  -1.38363  -2.00111   4.27606
  -1.78765  -1.68687   4.56037
  -2.19167  -1.29781   4.84468
  -2.53584  -0.96861   5.14396
  -2.83511  -0.72919   5.35345
  -3.05957  -0.47481   5.56294
  -3.25410  -0.37006   5.71258
  -3.35884  -0.26531   5.83229
  -3.50848  -0.17553   5.87718
  -3.62819  -0.14560   5.90711
  -3.67308  -0.11568   5.92207
  -3.62819  -0.11568   5.90711
  -3.61323  -0.20546   5.98193
  -3.44862  -0.29524   5.99689
  -3.29899  -0.51970   6.04178
  -3.07453  -0.77408   6.08667
  -2.82015  -1.04343   6.08667
  -2.52087  -1.29781   5.99689
  -2.11685  -1.53723   5.95200
  -1.74276  -1.61205   5.89214
  -1.27888  -1.79162   5.74251
  -0.80004  -1.92629   5.65272
  -0.24638  -2.00111   5.51805
   0.39706  -2.06096   5.41330
   1.07043  -2.10586   5.33848
   1.69891  -2.15075   5.27863
   2.31242  -2.13578   5.17388
   2.88105  -2.01607   5.09906
   3.46463  -1.82154   4.96439
   3.94347  -1.59709   4.87461
   4.40735  -1.52227   4.76986
   4.79641  -1.37263   4.71001
   5.06576  -1.28285   4.63519
   5.23036  -1.22299   4.59030
   5.29021  -1.14818   4.54540
   5.18547  -0.95365   4.45562
   4.99094  -0.68430   4.35088
   4.69166  -0.44488   4.18627
   4.34749  -0.14560   3.99175
   4.04822   0.28835   3.75233
   3.70405   0.54273   3.46801
   3.40478   0.82704   3.24356
   3.10550   1.15624   3.01910
   2.83615   1.47048   2.91435
   2.67155   1.81465   2.77968
   2.49199   2.00918   2.74975
   2.35731   2.21867   2.67493
   2.29746   2.26356   2.64501
   2.25257   2.21867   2.63004
   2.22264   2.20371   2.57019
   2.28250   2.18874   2.52530
   2.32739   2.11392   2.45048
   2.32739   2.17378   2.42055
   2.32739   2.23363   2.37566
   2.25257   2.24860   2.39062
   2.13286   2.26356   2.36070
   1.99818   2.15882   2.39062
   1.75876   1.94932   2.31580
   1.51934   1.76976   2.16617
   1.26496   1.54530   2.01653
   0.95072   1.35077   1.76215
   0.65145   1.23106   1.47783
   0.30728   1.18617   1.20849
  -0.03689   1.18617   0.90921
  -0.42594   1.27595   0.68475
  -0.87486   1.38070   0.44533
  -1.30881   1.48545   0.20591
  -1.71283   1.65005  -0.04847
  -2.10189   1.78472  -0.24300
  -2.43109   1.85954  -0.48242
  -2.70044   1.96429  -0.73680
  -2.92489   1.94932  -0.96126
  -3.10446   1.81465  -1.21564
  -3.29899   1.70990  -1.44010
  -3.55337   1.60516  -1.69448
  -3.86761   1.41063  -1.91894
  -4.19681   1.27595  -2.09850
  -4.51105   1.17121  -2.33793
  -4.81033   1.15624  -2.51749
  -5.00486   1.23106  -2.71202
  -5.12457   1.24603  -2.90655
  -5.22931   1.18617  -3.05619
  -5.22931   1.05150  -3.19086
  -5.24428   0.85697  -3.29561
  -5.21435   0.64748  -3.38539
  -5.16946   0.37813  -3.44524
  -5.10960   0.07885  -3.44524
  -5.03478  -0.20546  -3.40035
  -4.90011  -0.60948  -3.32553
  -4.73551  -1.02847  -3.31057
  -4.64573  -1.58212  -3.22079
  -4.55594  -2.00111  -3.13100
  -4.51105  -2.36024  -3.02626
  -4.52602  -2.62959  -2.89158
  -4.61580  -2.70441  -2.72698
  -4.78040  -2.74930  -2.59231
  -4.95996  -2.61462  -2.42771
  -5.18442  -2.49491  -2.32296
  -5.34902  -2.42009  -2.27807
  -5.57348  -2.36024  -2.27807
  -5.70815  -2.33031  -2.24814
  -5.79793  -2.24053  -2.26311
  -5.85779  -2.33031  -2.26311
  -5.87275  -2.30038  -2.24814
  -5.96254  -2.39017  -2.23318
  -5.97750  -2.39017  -2.17332
  -5.96254  -2.49491  -2.17332
  -5.87275  -2.62959  -2.18829
  -5.64830  -2.67448  -2.21821
  -5.43880  -2.82412  -2.26311
  -5.21435  -2.89894  -2.27807
  -5.01982  -2.83908  -2.26311
  -4.81033  -2.77923  -2.18829
  -4.69062  -2.77923  -2.12843
  -4.49609  -2.71937  -2.05361
  -4.34645  -2.71937  -1.96383
  -4.15192  -2.74930  -1.85908
  -3.97236  -2.70441  -1.85908
  -3.76286  -2.65952  -1.78427
  -3.47855  -2.46499  -1.81419
  -3.11942  -2.28542  -1.85908
  -2.65555  -2.10586  -1.87405
  -2.07196  -2.13578  -1.93390
  -1.45844  -2.18067  -1.99376
  -0.74018  -2.27046  -2.06858
   0.03793  -2.42009  -2.11347
   0.80108  -2.58470  -2.27807
   1.54927  -2.68944  -2.38282
   2.26753  -2.83908  -2.47260
   2.98579  -2.86901  -2.62224
   3.64420  -2.83908  -2.66713
   4.22778  -2.70441  -2.72698
   4.70662  -2.50988  -2.80180
   5.17050  -2.30038  -2.80180
   5.55956  -2.13578  -2.74195
   5.87380  -1.89636  -2.69706
   6.21796  -1.55220  -2.60727
   6.45738  -1.20803  -2.53245
   6.66688  -0.78905  -2.50253
   6.78659  -0.37006  -2.51749
   6.92126   0.04893  -2.54742
   7.01104   0.45295  -2.63720
   7.10083   0.85697  -2.75691
   7.25046   1.30588  -2.93648
   7.45996   1.76976  -3.14597
   7.63952   2.17378  -3.37042
   7.78916   2.68255  -3.54999
   7.89391   3.16139  -3.69963
   7.89391   3.68512  -3.83430
   7.83405   4.10410  -3.95401
   7.69938   4.52309  -4.02883
   7.48988   4.74755  -4.05876
   7.20557   4.98697  -4.07372
   6.84644   5.04682  -4.07372
   6.39753   5.07675  -4.02883
   5.90373   5.00193  -3.95401
   5.40992   4.95704  -3.81934
   4.93108   4.73258  -3.69963
   4.43728   4.50813  -3.54999
   4.06318   4.25374  -3.43028
   3.65916   3.96943  -3.31057
   3.35989   3.75994  -3.14597
   3.04565   3.64023  -2.96640
   2.80623   3.52052  -2.78684
   2.65659   3.47563  -2.63720
   2.52192   3.35592  -2.47260
   2.43213   3.23621  -2.39778
   2.35731   3.02671  -2.33793
   2.29746   2.80226  -2.35289
   2.28250   2.54787  -2.32296
   2.28250   2.32342  -2.23318
   2.32739   2.11392  -2.17332
   2.35731   1.81465  -2.08354
   2.47702   1.35077  -1.97879
   2.59673   1.00661  -1.93390
   2.73141   0.64748  -1.96383
   2.92594   0.28835  -2.03865
   3.07558  -0.11568  -2.21821
   3.27010  -0.45984  -2.44267
   3.41974  -0.80401  -2.75691
   3.58434  -1.14818  -3.05619
   3.77887  -1.37263  -3.35546
   3.94347  -1.58212  -3.65474
   4.07815  -1.79162  -3.83430
   4.16793  -2.03104  -4.01387
   4.21282  -2.18067  -4.08869
   4.18289  -2.27046  -4.17847
   4.12304  -2.25549  -4.14854
   3.86865  -2.25549  -4.10365
   3.47960  -2.22557  -3.93905
   3.00076  -2.22557  -3.69963
   2.46206  -2.18067  -3.37042
   1.90840  -2.04600  -2.95144
   1.35474  -2.12082  -2.47260
   0.81605  -2.12082  -1.87405
   0.30728  -2.13578  -1.26053
  -0.18652  -2.09089  -0.61709
  -0.71026  -1.91133  -0.03351
  -1.20406  -1.80658   0.53512
  -1.66794  -1.67191   0.98403
  -2.10189  -1.43249   1.43294
  -2.49094  -1.29781   1.79207
  -2.82015  -1.17810   2.16617
  -3.05957  -1.10328   2.46544
  -3.19424  -1.14818   2.65997
  -3.32891  -1.19307   2.86946
  -3.37381  -1.23796   3.03406
  -3.44862  -1.28285   3.18370
  -3.52344  -1.29781   3.28845
  -3.56833  -1.23796   3.42312
  -3.56833  -1.22299   3.52787
  -3.50848  -1.17810   3.66254
  -3.35884  -1.20803   3.81218
  -3.08949  -1.25292   3.91693
  -2.77526  -1.38760   4.09649
  -2.41613  -1.50731   4.17131
  -2.05699  -1.67191   4.33591
  -1.75772  -1.77665   4.51548
  -1.47341  -1.89636   4.69504
  -1.20406  -1.98615   4.88957
  -0.94968  -2.03104   5.06914
  -0.68033  -2.01607   5.29359
  -0.44091  -2.07593   5.51805
  -0.20149  -2.12082   5.69761
   0.08282  -2.01607   5.81732
   0.26239  -1.97118   5.87718
   0.33721  -1.89636   5.84725
   0.41203  -1.74673   5.80236
   0.41203  -1.43249   5.71258
   0.30728  -1.11825   5.60783
   0.20253  -0.65437   5.48812
   0.14268  -0.17553   5.38338
   0.17261   0.31827   5.17388
   0.17261   0.84200   4.91950
   0.24742   1.35077   4.60526
   0.41203   1.78472   4.20124
   0.59159   2.11392   3.79722
   0.77116   2.48802   3.28845
   0.99561   2.81722   2.80961
   1.20510   3.10153   2.40559
   1.54927   3.35592   2.00157
   1.86351   3.50555   1.59754
   2.25257   3.49059   1.28330
   2.59673   3.44570   0.98403
   2.98579   3.34095   0.72965
   3.34492   3.17635   0.55008
   3.68909   3.02671   0.37052
   3.97340   2.87708   0.29570
   4.10807   2.66758   0.19095
   4.28764   2.57780   0.16102
   4.36246   2.39824   0.19095
   4.34749   2.23363   0.29570
   4.25771   2.12889   0.37052
   4.04822   2.08400   0.50519
   3.76391   2.02414   0.60994
   3.37485   2.02414   0.74461
   2.85112   2.11392   0.95410
   2.29746   2.11392   1.16359
   1.66898   2.29349   1.44791
   0.99561   2.56284   1.62747
   0.30728   2.86211   1.83696
  -0.35113   3.22124   2.07638
  -0.97960   3.56541   2.27091
  -1.53326   3.80483   2.43551
  -2.14678   3.83476   2.54026
  -2.64058   3.83476   2.65997
  -3.07453   3.68512   2.77968
  -3.41870   3.58037   2.83954
  -3.73294   3.34095   2.89939
  -3.89754   3.07161   2.89939
  -4.06214   2.78729   2.89939
  -4.18185   2.45809   2.83954
  -4.21178   2.00918   2.82457
  -4.25667   1.56027   2.71983
  -4.27163   1.12632   2.71983
  -4.25667   0.69237   2.70486
  -4.22674   0.30331   2.70486
  -4.22674  -0.08575   2.67493
  -4.13696  -0.41495   2.57019
  -4.07710  -0.87883   2.48041
  -3.97236  -1.26789   2.48041
  -3.95739  -1.77665   2.42055
  -3.92746  -2.21060   2.39062
  -3.94243  -2.61462   2.33077
  -4.00228  -2.95879   2.27091
  -4.07710  -3.22814   2.24099
  -4.21178  -3.37778   2.19609
  -4.34645  -3.49749   2.09135
  -4.57091  -3.60223   2.03149
  -4.78040  -3.61720   1.92675
  -5.01982  -3.63216   1.85193
  -5.30413  -3.49749   1.80704
  -5.52859  -3.33288   1.74718
  -5.81290  -3.22814   1.71725
  -5.99246  -3.01865   1.68733
  -6.18699  -2.85404   1.62747
  -6.27678  -2.62959   1.59754
