********************************************************************************
               CENTRO DE INSTRUMENTACION Y REGISTRO SISMICO  A.C.  
                       Coordinacion de Servicios Tecnicos
     Anaxagoras 814, Col. Narvarte, Benito Juarez, C.P. 03020 Mexico, D.F.
            Tels. 687 45 42/ 687 45  82             Fax. 669 25 12
********************************************************************************
ARCHIVO ESTANDAR DE ACELERACION:
VERSION DEL FORMATO                    : 2.0
NOMBRE DEL ARCHIVO                     : BA499310.241
FECHA Y HORA DE CREACION               : 8 de febrero de 1996/18:11
REF. CATALOGO ACELEROGRAMAS, SMIS 1995 : REGISTRO No. 4909 /PAG. 443


================================================================================
DATOS DE LA ESTACION:
NOMBRE DE LA ESTACION                  : BUENOS AIRES
CLAVE DE LA ESTACION                   : BA49
LOCALIZACION DE LA ESTACION            : ESCUELA SECUNDARIA 102, DOCTOR MARQUEZ
                                       : Y EJE CENTRAL, BUENOS AIRES.
                                       :
                                       :
                                       :
COORDENADAS DE LA ESTACION             : 19.410 LAT. N 
                                       : 99.145 LONG. W 
ALTITUD (msnm)                         : 2233
TIPO DE SUELO                          : TERRENO BLANDO, MATERIAL COMPRESIBLE
                                       : (ARCILLAS)
                                       : 
INSTITUCION RESPONSABLE                : CIRES 
                                       :

================================================================================
DATOS DEL ACELEROGRAFO:
MODELO DEL ACELEROGRAFO                : SSA-1
NUMERO DE SERIE DEL ACELEROGRAFO       : 176
NUMERO DE CANALES                      : 3
ORIENTACION C1-C6 (rumbo;orientacion)  : /N00E/+V/N90E
ORIENTACION C7-C12 (rumbo;orientacion) :
VEL. DE MUESTREO, C1-C6 (muestras/s)   : /200/200/200
VEL. DE MUESTREO, C7-C12 (muestras/s)  :
ESC. COMPLETA DE SENSORES, C1-C6, (g)  : /2/2/2
ESC. COMPLETA DE SENSORES, C7-C12, (g) :
FREC. NAT. DE SENSORES, C1-C6, (Hz)    : /50/50/50
FREC. NAT. DE SENSORES, C7-C12, (Hz)   :
AMORTIGUAMIENTO DE SENSORES, C1-C6     : /0.700/0.700/0.700
AMORTIGUAMIENTO DE SENSORES, C7-C12    :
INTERVALO DE MUESTREO, C1-C6, (s)      : /0.005/0.005/0.005
INTERVALO DE MUESTREO, C7-C12, (s)     :
UMBRAL DE DISPARO, C1-C6, (Gal)        : /2/2/2
UMBRAL DE DISPARO, C7-C12, (Gal)       :
MEMORIA DE PREEVENTO (s)               : 15
TIEMPO DE POSEVENTO (s)                : 90


================================================================================
DATOS DEL SISMO:
FECHA DEL SISMO (GMT)                  : 24/OCT/93
HORA EPICENTRO (GMT)                   : 07:52:18,2 
MAGNITUD(ES)                           : /Mb=6.20/Ms=6.60/Mc=6.50
COORDENADAS DEL EPICENTRO              : 16.540 LAT. N 
                                       : 98.980 LONG. W 
PROFUNDIDAD FOCAL (km)                 : < 5
FUENTE DE LOS DATOS EPICENTRALES       : SSN
                                       : INSTITUTO DE GEOFISICA, UNAM

================================================================================
DATOS DE ESTE REGISTRO:
HORA DE LA PRIMERA MUESTRA (GMT)       : 07:54:16.00
EXACTITUD DEL TIEMPO (s)               :     
DURACION DEL REGISTRO (s), C1-C6       : /295.68/295.68/295.68
DURACION DEL REGISTRO (s), C7-C12      :
NUM. TOTAL DE MUESTRAS, C1-C6          : /59136/59136/59136
NUM. TOTAL DE MUESTRAS, C7-C12         :
ACEL. MAX. (Gal), C1-C6                : /14.40642/5.03551/17.72638
ACEL. MAX., C1-C6, EN LA MUESTRA       :
ACEL. MAX. (Gal), C7-C12               :
ACEL. MAX., C7-C12, EN LA MUESTRA      :
UNIDADES DE LOS DATOS                  : Gal (cm/s/s)
FACTOR DE DECIMACION                   : 1
FORMATO DATOS (FORTRAN,10 campos/dato) : 3F10.5


================================================================================
CALIDAD DEL ACELEROGRAMA:
REGISTRO DIGITAL COMPLETO, CARECE DE TIEMPO ABSOLUTO.


================================================================================
COMENTARIOS:
             Los equipos se encontraban con una ganancia de 2 en los
             ejes horizontales y de 4 en el eje vertical, por lo que
             la escala completa era de 1 g y 1/2 g respectivamente.











================================================================================
DATOS DE ACELERACION:
---------+---------+---------+---------+---------+---------+---------+---------+
   CANAL-1   CANAL-2   CANAL-3   CANAL-4   CANAL-5   CANAL-6   CANAL-7   CANAL-8
      N00E        +V      N90E
---------+---------+---------+---------+---------+---------+---------+---------+
[...]
  -5.23358  -0.24551  -2.87362
  -5.23358  -0.00551  -2.87362
  -5.71358  -0.00551  -2.87362
  -5.71358  -0.00551  -2.87362
  -5.71358  -0.00551  -3.35362
  -6.19358  -0.00551  -3.35362
  -6.19358   0.23449  -3.82362
  -6.19358   0.23449  -3.35362
  -6.19358   0.23449  -3.35362
  -6.19358   0.23449  -3.82362
  -6.19358   0.23449  -3.82362
  -6.19358   0.23449  -3.82362
  -6.19358   0.23449  -3.82362
  -6.19358   0.47449  -3.82362
  -6.19358   0.47449  -4.30362
  -6.19358   0.47449  -4.30362
  -6.19358   0.47449  -3.82362
  -5.71358   0.47449  -4.30362
  -5.71358   0.47449  -4.30362
  -5.71358   0.47449  -4.30362
  -5.71358   0.47449  -4.78362
  -5.23358   0.47449  -4.30362
  -5.23358   0.47449  -4.78362
  -5.23358   0.47449  -4.78362
  -5.23358   0.47449  -4.78362
  -4.75358   0.23449  -4.78362
  -4.75358   0.23449  -4.78362
  -4.75358   0.23449  -4.78362
  -4.27358  -0.00551  -4.78362
  -4.27358  -0.00551  -4.78362
  -4.27358  -0.00551  -4.78362
  -4.27358  -0.24551  -4.78362
  -3.79358  -0.24551  -4.78362
  -3.79358  -0.24551  -5.26362
  -3.79358  -0.48551  -5.26362
  -3.31358  -0.48551  -4.78362
  -3.31358  -0.48551  -4.78362
  -3.31358  -0.72551  -4.78362
  -3.31358  -0.72551  -4.78362
  -2.83358  -0.72551  -4.78362
  -3.31358  -0.72551  -5.26362
  -2.83358  -0.72551  -5.26362
  -2.83358  -0.96551  -4.78362
  -2.83358  -0.96551  -5.26362
  -2.35358  -0.96551  -5.26362
  -2.35358  -1.20551  -5.26362
  -2.35358  -1.20551  -5.26362
  -2.35358  -1.20551  -5.26362
  -2.35358  -1.20551  -5.74362
  -2.35358  -1.20551  -5.26362
  -2.35358  -1.20551  -5.26362
  -2.35358  -1.20551  -5.74362
  -2.35358  -1.20551  -5.26362
  -2.35358  -1.20551  -5.74362
  -2.35358  -1.20551  -5.74362
  -1.87358  -0.96551  -5.74362
  -2.35358  -0.96551  -5.74362
  -1.87358  -0.96551  -5.74362
  -1.87358  -0.96551  -6.22362
  -1.87358  -0.96551  -5.74362
  -1.87358  -0.72551  -6.22362
  -1.87358  -0.72551  -6.22362
  -1.87358  -0.72551  -6.22362
  -1.87358  -0.48551  -6.22362
  -1.87358  -0.48551  -6.22362
  -1.87358  -0.48551  -6.22362
  -1.87358  -0.48551  -6.70362
  -1.87358  -0.48551  -6.70362
  -1.87358  -0.24551  -6.70362
  -1.87358  -0.24551  -6.70362
  -1.39358  -0.24551  -6.70362
  -1.39358  -0.00551  -6.70362
  -1.39358  -0.00551  -6.70362
  -1.39358  -0.00551  -6.70362
  -1.39358   0.23449  -6.70362
  -0.92358   0.23449  -6.70362
  -1.39358   0.47449  -7.18362
  -0.92358   0.47449  -7.18362
  -0.92358   0.71449  -6.70362
  -0.92358   0.71449  -7.18362
  -0.44358   0.95449  -6.70362
  -0.44358   0.95449  -7.18362
  -0.44358   0.95449  -7.18362
   0.03642   0.95449  -7.18362
   0.03642   0.95449  -7.18362
   0.51642   1.19449  -7.18362
   0.51642   1.19449  -7.18362
   0.51642   1.19449  -7.18362
   0.99642   1.19449  -7.18362
   0.99642   0.95449  -7.18362
   1.47642   0.95449  -7.18362
   1.47642   0.71449  -7.18362
   1.95642   0.71449  -7.18362
   1.95642   0.47449  -7.18362
   2.43642   0.47449  -7.18362
   2.43642   0.23449  -7.18362
   2.43642   0.23449  -7.18362
   2.91642   0.23449  -7.18362
   3.39642  -0.00551  -7.18362
   3.39642  -0.00551  -7.18362
   3.86642  -0.24551  -7.18362
   3.86642  -0.24551  -6.70362
   4.34642  -0.24551  -6.70362
   4.34642  -0.24551  -6.70362
   4.34642  -0.24551  -6.70362
   4.82642  -0.24551  -6.70362
   4.82642  -0.24551  -6.22362
   4.82642  -0.24551  -6.22362
   4.82642  -0.48551  -6.22362
   5.30642  -0.24551  -6.22362
   5.30642  -0.48551  -6.22362
   5.30642  -0.48551  -6.22362
   5.30642  -0.48551  -5.74362
   5.30642  -0.48551  -5.74362
   5.30642  -0.48551  -5.74362
   5.30642  -0.72551  -5.74362
   5.78642  -0.72551  -5.26362
   5.78642  -0.72551  -5.26362
   5.78642  -0.72551  -5.26362
   5.78642  -0.96551  -5.26362
   5.78642  -0.96551  -4.78362
   5.78642  -1.20551  -4.78362
   5.78642  -1.20551  -4.78362
   5.78642  -1.20551  -4.78362
   5.78642  -1.20551  -4.30362
   5.78642  -1.20551  -4.78362
   6.26642  -1.44551  -4.30362
   5.78642  -1.44551  -4.30362
   5.78642  -1.44551  -4.30362
   5.78642  -1.20551  -4.30362
   5.78642  -1.20551  -4.30362
   5.78642  -1.20551  -3.82362
   5.78642  -1.20551  -3.82362
   5.78642  -0.96551  -3.82362
   5.78642  -0.96551  -3.82362
   5.78642  -0.72551  -3.35362
   6.26642  -0.48551  -3.35362
   5.78642  -0.24551  -3.35362
   6.26642  -0.24551  -3.35362
   6.26642  -0.00551  -3.35362
   6.26642   0.23449  -2.87362
   5.78642   0.23449  -2.87362
   6.26642   0.47449  -2.87362
   6.26642   0.47449  -2.87362
   6.26642   0.71449  -2.87362
   6.26642   0.71449  -2.87362
   6.26642   0.71449  -2.87362
   6.26642   0.71449  -2.87362
   6.74642   0.71449  -2.87362
   6.74642   0.71449  -2.87362
   6.74642   0.95449  -2.87362
   6.74642   0.95449  -2.87362
   6.74642   0.95449  -2.87362
   6.74642   1.19449  -2.87362
   6.74642   0.95449  -2.87362
   6.74642   1.19449  -2.87362
   6.74642   1.19449  -2.87362
   6.74642   1.19449  -2.87362
   6.74642   1.43449  -2.87362
   6.74642   1.43449  -2.87362
   6.74642   1.67449  -2.87362
   6.74642   1.67449  -2.87362
   6.74642   1.67449  -3.35362
   6.74642   1.67449  -3.35362
   6.74642   1.91449  -2.87362
   6.74642   1.91449  -3.35362
   6.74642   1.91449  -3.35362
   6.26642   1.91449  -3.35362
   6.26642   2.15449  -3.35362
   6.26642   1.91449  -3.35362
   6.26642   2.15449  -3.82362
   5.78642   2.39449  -3.82362
   5.78642   2.15449  -3.82362
   5.78642   2.39449  -3.82362
   5.30642   2.15449  -3.82362
   5.30642   2.39449  -3.82362
   5.30642   2.39449  -3.82362
   4.82642   2.62449  -3.82362
   4.34642   2.62449  -4.30362
   4.34642   2.62449  -4.30362
   3.86642   2.62449  -3.82362
   3.86642   2.62449  -4.30362
   3.39642   2.39449  -4.30362
   3.39642   2.39449  -4.30362
   2.91642   2.39449  -4.30362
   2.43642   2.39449  -4.30362
   2.43642   2.39449  -4.78362
   1.95642   2.39449  -4.78362
   1.95642   2.39449  -4.78362
   1.47642   2.39449  -4.78362
   0.99642   2.15449  -4.78362
   0.99642   2.39449  -4.78362
   0.51642   2.39449  -5.26362
   0.51642   2.39449  -4.78362
   0.03642   2.39449  -4.78362
  -0.44358   2.39449  -4.78362
  -0.44358   2.62449  -4.78362
  -0.92358   2.62449  -5.26362
  -0.92358   2.62449  -4.78362
  -1.39358   2.62449  -5.26362
  -1.87358   2.62449  -5.26362
  -1.87358   2.62449  -4.78362
  -1.87358   2.62449  -4.78362
  -2.35358   2.62449  -5.26362
  -2.35358   2.39449  -4.78362
  -2.35358   2.39449  -4.78362
  -2.83358   2.39449  -5.26362
  -2.83358   2.39449  -5.26362
  -2.83358   2.39449  -5.26362
  -2.83358   2.39449  -5.26362
  -2.83358   2.39449  -5.26362
  -2.83358   2.39449  -5.26362
  -3.31358   2.15449  -5.26362
  -3.31358   2.39449  -5.26362
  -3.31358   2.39449  -5.26362
  -3.31358   2.39449  -5.26362
  -3.31358   2.39449  -5.26362
  -3.31358   2.39449  -5.26362
  -3.31358   2.15449  -5.26362
  -2.83358   2.15449  -5.74362
  -3.31358   2.15449  -5.74362
  -2.83358   2.15449  -5.26362
  -2.83358   1.91449  -5.74362
  -2.83358   1.91449  -5.74362
  -2.83358   1.67449  -5.26362
  -2.35358   1.67449  -5.26362
  -2.35358   1.67449  -5.74362
  -2.35358   1.43449  -5.26362
  -2.35358   1.19449  -5.74362
  -1.87358   1.19449  -5.74362
  -1.87358   0.95449  -5.74362
  -1.87358   0.95449  -5.26362
  -1.87358   0.71449  -5.74362
  -1.39358   0.71449  -5.74362
  -1.39358   0.47449  -5.26362
  -1.39358   0.23449  -5.26362
  -1.39358   0.23449  -5.26362
  -1.39358  -0.00551  -5.26362
  -0.92358  -0.24551  -5.26362
  -0.92358  -0.24551  -4.78362
  -0.92358  -0.48551  -4.78362
  -0.92358  -0.48551  -4.78362
  -0.92358  -0.72551  -4.78362
  -0.44358  -0.96551  -4.30362
  -0.44358  -1.20551  -4.30362
  -0.44358  -1.20551  -4.30362
  -0.44358  -1.44551  -4.30362
  -0.44358  -1.20551  -3.82362
  -0.44358  -1.20551  -3.82362
  -0.92358  -1.44551  -3.82362
  -0.92358  -1.44551  -3.82362
  -0.92358  -1.44551  -3.35362
  -0.92358  -1.44551  -3.35362
  -0.92358  -1.44551  -3.35362
  -0.92358  -1.20551  -2.87362
  -1.39358  -1.20551  -2.87362
  -1.39358  -1.44551  -2.39362
  -1.39358  -1.20551  -2.87362
  -1.39358  -1.20551  -2.39362
  -1.39358  -1.20551  -2.39362
  -1.87358  -1.20551  -1.91362
  -1.87358  -1.20551  -1.91362
  -1.87358  -1.20551  -2.39362
  -1.87358  -1.20551  -1.91362
  -2.35358  -1.20551  -1.43362
  -2.35358  -1.20551  -1.43362
  -2.35358  -1.20551  -0.95362
  -2.35358  -1.20551  -1.43362
  -2.35358  -1.20551  -0.95362
  -2.83358  -1.20551  -0.95362
  -2.83358  -0.96551  -0.47362
  -2.83358  -0.96551  -0.47362
  -2.83358  -0.96551  -0.47362
  -2.83358  -0.72551   0.00638
  -2.83358  -0.96551   0.00638
  -2.83358  -0.72551   0.00638
  -3.31358  -0.72551   0.48638
  -2.83358  -0.72551   0.48638
  -3.31358  -0.72551   0.48638
  -3.31358  -0.48551   0.96638
  -3.31358  -0.72551   0.96638
  -3.31358  -0.72551   0.96638
  -3.31358  -0.72551   0.96638
  -3.31358  -0.72551   1.44638
  -3.31358  -0.72551   1.44638
  -3.31358  -0.72551   1.91638
  -3.31358  -0.72551   1.91638
  -3.31358  -0.72551   2.39638
  -3.31358  -0.72551   2.39638
  -3.31358  -0.96551   2.39638
  -3.31358  -0.96551   2.87638
  -3.31358  -1.20551   2.87638
  -3.31358  -1.20551   3.35638
  -2.83358  -1.20551   3.35638
  -2.83358  -1.20551   3.83638
  -2.83358  -1.20551   3.83638
  -2.83358  -1.44551   3.83638
  -2.83358  -1.44551   4.31638
  -2.83358  -1.68551   4.79638
  -2.83358  -1.68551   4.79638
  -2.83358  -1.68551   4.79638
  -2.83358  -1.68551   5.27638
  -2.83358  -1.92551   5.27638
  -2.83358  -2.16551   5.27638
  -2.83358  -2.16551   5.75638
  -2.83358  -2.16551   6.23638
  -2.83358  -2.16551   7.18638
  -2.83358  -2.40551   7.66638
  -2.83358  -2.40551   8.14638
  -2.35358  -2.63551   8.62638
  -2.35358  -2.63551   8.62638
  -2.35358  -2.63551   9.10638
  -2.35358  -2.63551   9.58638
  -2.35358  -2.63551   9.58638
  -2.35358  -2.63551  10.06638
  -2.35358  -2.87551  10.06638
  -2.35358  -2.87551  10.54638
  -2.35358  -2.63551  10.54638
  -1.87358  -2.63551  11.02638
  -1.87358  -2.63551  11.02638
  -1.87358  -2.63551  11.49638
  -1.87358  -2.63551  11.97638
  -1.87358  -2.40551  11.97638
  -1.39358  -2.40551  12.45638
  -1.39358  -2.16551  12.45638
  -1.39358  -2.16551  12.45638
  -1.39358  -2.16551  12.93638
  -1.39358  -1.92551  13.41638
  -1.39358  -1.92551  13.41638
  -0.92358  -1.92551  13.89638
  -0.92358  -1.68551  13.89638
  -0.92358  -1.68551  14.37638
  -0.92358  -1.68551  14.85638
  -0.92358  -1.68551  14.85638
  -0.92358  -1.68551  15.33638
  -0.92358  -1.68551  15.81638
  -0.44358  -1.68551  16.28638
  -0.44358  -1.68551  16.28638
  -0.92358  -1.92551  16.28638
  -0.44358  -1.92551  16.76638
  -0.44358  -1.92551  16.76638
  -0.44358  -1.92551  17.24638
  -0.44358  -1.68551  17.24638
  -0.44358  -1.68551  17.24638
   0.03642  -1.92551  17.72638
   0.03642  -1.68551  17.24638
   0.03642  -1.44551  17.72638
   0.03642  -1.44551  17.72638
   0.03642  -1.20551  17.72638
   0.03642  -1.20551  17.72638
   0.51642  -0.96551  17.72638
   0.51642  -0.96551  17.72638
   0.51642  -0.96551  17.72638
   0.51642  -0.72551  17.72638
   0.51642  -0.72551  17.72638
   0.51642  -0.72551  17.72638
   0.51642  -0.72551  17.72638
   0.99642  -0.72551  17.72638
   0.99642  -0.48551  17.72638
   0.99642  -0.48551  17.72638
   0.99642  -0.48551  17.72638
   0.99642  -0.72551  17.72638
   1.47642  -0.48551  17.72638
   0.99642  -0.48551  17.24638
   0.99642  -0.48551  17.24638
   0.99642  -0.48551  17.24638
   1.47642  -0.48551  17.24638
   0.99642  -0.48551  17.24638
   0.99642  -0.48551  16.76638
   0.99642  -0.48551  16.76638
   0.99642  -0.48551  16.76638
   0.99642  -0.48551  16.28638
   0.99642  -0.48551  16.28638
   0.99642  -0.48551  16.28638
   0.99642  -0.72551  16.28638
   0.99642  -0.72551  15.81638
   0.99642  -0.72551  15.81638
   0.99642  -0.72551  15.81638
   0.51642  -0.48551  15.33638
   0.51642  -0.48551  14.85638
   0.51642  -0.48551  14.85638
   0.51642  -0.24551  14.85638
   0.51642  -0.24551  14.37638
   0.51642  -0.24551  14.37638
   0.03642  -0.00551  13.89638
   0.03642   0.23449  13.89638
   0.03642   0.23449  13.41638
  -0.44358   0.47449  13.89638
  -0.44358   0.71449  13.41638
  -0.44358   0.71449  12.93638
  -0.92358   0.95449  12.93638
  -0.92358   0.95449  12.45638
  -0.92358   0.95449  12.45638
  -0.92358   0.95449  11.97638
  -1.39358   1.19449  11.49638
  -1.39358   1.19449  11.49638
  -1.39358   0.95449  11.49638
  -1.39358   1.19449  11.02638
  -1.39358   1.19449  10.54638
  -1.39358   1.19449  10.54638
  -1.39358   1.19449  10.54638
  -1.87358   1.19449  10.06638
  -1.87358   1.43449   9.58638
  -1.87358   1.43449   9.58638
  -1.87358   1.43449   9.58638
  -1.87358   1.43449   9.10638
  -1.87358   1.43449   9.10638
  -1.87358   1.43449   8.62638
  -1.87358   1.43449   8.62638
  -1.87358   1.43449   8.14638
  -1.87358   1.43449   8.14638
  -1.87358   1.43449   7.66638
  -2.35358   1.43449   7.18638
  -2.35358   1.43449   7.18638
  -2.35358   1.43449   7.18638
  -2.35358   1.43449   6.70638
  -2.35358   1.43449   6.23638
  -2.35358   1.43449   6.23638
  -2.35358   1.43449   5.75638
  -2.35358   1.43449   5.75638
  -2.35358   1.43449   5.27638
  -2.83358   1.43449   5.27638
  -2.83358   1.43449   4.79638
  -2.83358   1.19449   4.79638
  -2.83358   1.19449   4.31638
  -2.83358   0.95449   4.31638
  -2.83358   0.95449   4.31638
  -2.83358   0.95449   3.35638
  -2.83358   0.95449   3.35638
  -3.31358   0.71449   3.35638
  -3.31358   0.71449   2.87638
  -3.31358   0.47449   2.87638
  -3.31358   0.47449   2.39638
  -3.31358   0.47449   1.91638
  -3.31358   0.47449   1.91638
  -3.79358   0.23449   1.44638
  -3.79358   0.47449   0.96638
  -3.79358   0.47449   0.96638
  -3.79358   0.47449   0.96638
  -4.27358   0.47449   0.48638
  -4.27358   0.47449   0.48638
  -4.27358   0.47449   0.00638
  -4.27358   0.47449  -0.47362
  -4.27358   0.47449  -0.47362
  -4.27358   0.47449  -0.95362
  -4.27358   0.47449  -0.95362
  -4.27358   0.47449  -0.95362
  -4.27358   0.23449  -1.43362
  -4.75358   0.23449  -1.43362
  -4.75358   0.23449  -1.43362
  -4.75358  -0.00551  -1.91362
  -4.75358  -0.00551  -1.91362
  -4.75358  -0.24551  -1.91362
  -4.75358  -0.24551  -1.91362
  -4.75358  -0.24551  -1.91362
  -4.27358  -0.48551  -1.91362
  -4.27358  -0.48551  -2.39362
  -4.27358  -0.48551  -2.39362
  -4.27358  -0.48551  -2.39362
  -4.27358  -0.72551  -2.39362
  -4.27358  -0.72551  -2.39362
  -4.27358  -0.72551  -2.39362
  -4.27358  -0.48551  -2.39362
  -3.79358  -0.72551  -2.87362
  -3.79358  -0.48551  -2.87362
  -3.79358  -0.48551  -2.87362
  -3.31358  -0.48551  -2.87362
  -3.31358  -0.24551  -2.87362
  -2.83358  -0.24551  -2.87362
  -2.83358  -0.24551  -2.87362
  -2.35358  -0.24551  -2.87362
  -1.87358  -0.00551  -2.87362
  -1.87358  -0.00551  -2.87362
  -1.39358  -0.00551  -2.87362
  -1.39358  -0.00551  -2.87362
  -0.92358  -0.00551  -2.39362
  -0.92358  -0.00551  -2.39362
  -0.44358  -0.00551  -2.39362
   0.03642  -0.24551  -2.39362
   0.03642  -0.24551  -2.39362
   0.51642  -0.48551  -2.39362
   0.51642  -0.48551  -2.39362
   0.99642  -0.72551  -1.91362
   1.47642  -0.96551  -2.39362
   1.47642  -0.96551  -2.39362
   1.95642  -1.20551  -1.91362
   1.95642  -1.20551  -1.91362
   1.95642  -1.44551  -1.91362
   2.43642  -1.44551  -1.43362
   2.43642  -1.68551  -1.91362
   2.91642  -1.68551  -1.43362
   2.91642  -1.68551  -1.91362
