********************************************************************************
               CENTRO DE INSTRUMENTACION Y REGISTRO SISMICO  A.C.  
                       Coordinacion de Servicios Tecnicos
     Anaxagoras 814, Col. Narvarte, Benito Juarez, C.P. 03020 Mexico, D.F.
            Tels. 667 45 42/ 687 45  82             Fax. 669 25 12
********************************************************************************
ARCHIVO ESTANDAR DE ACELERACION:
VERSION DEL FORMATO                    : 2.0
NOMBRE DEL ARCHIVO                     : BA499602.254
FECHA Y HORA DE CREACION               : 27/MAR/98, 3:55
REF. CATALOGO ACELEROGRAMAS, SMIS 1996 : REGISTRO No.     /PAG.


================================================================================
DATOS DE LA ESTACION:
NOMBRE DE LA ESTACION                  : BUENOS AIRES
CLAVE DE LA ESTACION                   : BA49
LOCALIZACION DE LA ESTACION            : ESCUELA SECUNDARIA 102, DOCTOR MARQUEZ
                                       : Y EJE CENTRAL, BUENOS AIRES.
                                       :
                                       :
                                       :
COORDENADAS DE LA ESTACION             : 19.410 LAT. N 
                                       : 99.145 LONG. W 
ALTITUD (msnm)                         : 2233
TIPO DE SUELO                          : TERRENO BLANDO, MATERIAL COMPRESIBLE
                                       : (ARCILLAS)
                                       : 
INSTITUCION RESPONSABLE                : CIRES 
                                       :

================================================================================
DATOS DEL ACELEROGRAFO:
MODELO DEL ACELEROGRAFO                : SSA-1
NUMERO DE SERIE DEL ACELEROGRAFO       : 176
NUMERO DE CANALES                      : 3
ORIENTACION C1-C6 (rumbo;orientacion)  : /N00E/+V/N90E
ORIENTACION C7-C12 (rumbo;orientacion) :
VEL. DE MUESTREO, C1-C6 (muestras/s)   : /200/200/200
VEL. DE MUESTREO, C7-C12 (muestras/s)  :
ESC. COMPLETA DE SENSORES, C1-C6, (g)  : /2/2/2
ESC. COMPLETA DE SENSORES, C7-C12, (g) :
FREC. NAT. DE SENSORES, C1-C6, (Hz)    : /52.99/52.03/52.99
FREC. NAT. DE SENSORES, C7-C12, (Hz)   :
AMORTIGUAMIENTO DE SENSORES, C1-C6     : /0.5589/0.5469/0.6096
AMORTIGUAMIENTO DE SENSORES, C7-C12    :
INTERVALO DE MUESTREO, C1-C6, (s)      : /0.005/0.005/0.005
INTERVALO DE MUESTREO, C7-C12, (s)     : 
UMBRAL DE DISPARO, C1-C6, (Gal)        : /2/2/2
UMBRAL DE DISPARO, C7-C12, (Gal)       :
MEMORIA DE PREEVENTO (s)               : 15
TIEMPO DE POSEVENTO (s)                : 60


================================================================================
DATOS DEL SISMO:
FECHA DEL SISMO (GMT)                  : 25/FEB/96
HORA EPICENTRO (GMT)                   : 14:27:24,3
MAGNITUD(ES)                           : /Mb=5.2/Ms=5.3/Mc=5.2
COORDENADAS DEL EPICENTRO              : 15.480 LAT. N
                                       : 98.040 LONG. W
PROFUNDIDAD FOCAL (km)                 : 13
FUENTE DE LOS DATOS EPICENTRALES       : SSN
                                       : INSTITUTO DE GEOFISICA, UNAM

================================================================================
DATOS DE ESTE REGISTRO:
HORA DE LA PRIMERA MUESTRA (GMT)       : 14:29:30.00
EXACTITUD DEL TIEMPO (s)               :     
DURACION DEL REGISTRO (s), C1-C6       : /101.12/101.12/101.12
DURACION DEL REGISTRO (s), C7-C12      :
NUM. TOTAL DE MUESTRAS, C1-C6          : /20224/20224/20224
NUM. TOTAL DE MUESTRAS, C7-C12         :
ACEL. MAX. (Gal), C1-C6                : /2.68149/1.40725/2.41011
ACEL. MAX., C1-C6, EN LA MUESTRA       :
ACEL. MAX. (Gal), C7-C12               :
ACEL. MAX., C7-C12, EN LA MUESTRA      :
UNIDADES DE LOS DATOS                  : Gal (cm/s/s)
FACTOR DE DECIMACION                   : 1
FORMATO DATOS (FORTRAN,10 campos/dato) : 3F10.5


================================================================================
CALIDAD DEL ACELEROGRAMA:
REGISTRO DIGITAL COMPLETO, CARECE DE TIEMPO ABSOLUTO.


================================================================================
COMENTARIOS:














================================================================================
DATOS DE ACELERACION:
---------+---------+---------+---------+---------+---------+---------+---------+
   CANAL-1   CANAL-2   CANAL-3   CANAL-4   CANAL-5   CANAL-6   CANAL-7   CANAL-8
      N00E        +V      N90E
---------+---------+---------+---------+---------+---------+---------+---------+
[...]
  -0.18851  -0.51275  -0.74011
  -0.18851  -0.75275  -0.98011
  -0.18851  -0.75275  -0.98011
  -0.18851  -0.51275  -0.98011
  -0.42851  -0.51275  -0.98011
  -0.18851  -0.51275  -0.98011
  -0.18851  -0.51275  -0.98011
  -0.18851  -0.51275  -0.98011
  -0.18851  -0.51275  -1.21011
  -0.18851  -0.51275  -0.98011
  -0.18851  -0.51275  -1.21011
  -0.42851  -0.27275  -0.98011
  -0.42851  -0.27275  -1.21011
  -0.42851  -0.51275  -1.21011
  -0.42851  -0.27275  -1.21011
  -0.42851  -0.27275  -1.21011
  -0.42851  -0.27275  -1.21011
  -0.42851  -0.27275  -1.45011
  -0.18851  -0.27275  -1.45011
  -0.18851  -0.27275  -1.45011
  -0.18851  -0.27275  -1.45011
  -0.18851  -0.03275  -1.45011
  -0.18851  -0.27275  -1.45011
  -0.18851  -0.03275  -1.45011
  -0.18851  -0.03275  -1.45011
  -0.18851  -0.03275  -1.45011
  -0.18851  -0.27275  -1.45011
  -0.18851  -0.03275  -1.45011
  -0.18851  -0.03275  -1.45011
  -0.18851  -0.03275  -1.45011
  -0.18851  -0.03275  -1.45011
  -0.42851   0.20725  -1.45011
  -0.18851   0.20725  -1.45011
  -0.18851   0.20725  -1.45011
  -0.18851  -0.03275  -1.69011
  -0.18851   0.20725  -1.45011
  -0.18851   0.20725  -1.45011
  -0.18851   0.20725  -1.45011
  -0.18851  -0.03275  -1.45011
  -0.18851   0.20725  -1.45011
  -0.18851   0.20725  -1.21011
  -0.18851   0.20725  -1.21011
  -0.18851  -0.03275  -1.45011
  -0.18851  -0.03275  -1.45011
  -0.18851  -0.03275  -1.21011
  -0.18851  -0.03275  -1.21011
  -0.18851  -0.03275  -1.21011
  -0.18851  -0.03275  -0.98011
  -0.18851  -0.03275  -0.98011
  -0.18851  -0.03275  -1.21011
  -0.18851  -0.03275  -0.98011
  -0.18851  -0.03275  -1.21011
  -0.18851  -0.03275  -0.98011
  -0.18851  -0.03275  -0.98011
  -0.18851  -0.03275  -0.98011
  -0.18851  -0.03275  -0.74011
  -0.18851  -0.03275  -0.74011
  -0.18851  -0.27275  -0.74011
  -0.18851  -0.27275  -0.74011
  -0.18851  -0.27275  -0.74011
  -0.18851  -0.27275  -0.50011
  -0.18851  -0.27275  -0.50011
  -0.18851  -0.27275  -0.50011
  -0.18851  -0.27275  -0.26011
  -0.18851  -0.27275  -0.50011
  -0.18851  -0.27275  -0.26011
  -0.18851  -0.27275  -0.26011
  -0.18851  -0.27275  -0.26011
  -0.18851  -0.27275  -0.02011
  -0.18851  -0.27275  -0.02011
  -0.18851  -0.51275  -0.02011
  -0.18851  -0.27275  -0.02011
   0.05149  -0.27275  -0.02011
   0.05149  -0.27275   0.21989
   0.05149  -0.51275   0.21989
   0.05149  -0.27275   0.21989
   0.05149  -0.51275   0.45989
   0.05149  -0.51275   0.45989
   0.05149  -0.51275   0.45989
   0.05149  -0.51275   0.45989
   0.29149  -0.51275   0.69989
   0.29149  -0.51275   0.69989
   0.29149  -0.51275   0.69989
   0.29149  -0.51275   0.69989
   0.29149  -0.51275   0.93989
   0.29149  -0.51275   0.93989
   0.53149  -0.51275   0.93989
   0.53149  -0.51275   0.93989
   0.53149  -0.51275   0.93989
   0.53149  -0.51275   1.17989
   0.77149  -0.51275   0.93989
   0.77149  -0.51275   1.17989
   0.77149  -0.51275   1.17989
   0.77149  -0.51275   1.17989
   1.01149  -0.51275   1.17989
   1.01149  -0.51275   1.17989
   1.01149  -0.51275   1.17989
   1.01149  -0.51275   1.17989
   1.25149  -0.51275   1.17989
   1.25149  -0.51275   1.17989
   1.25149  -0.51275   1.17989
   1.25149  -0.51275   1.17989
   1.25149  -0.51275   1.17989
   1.25149  -0.75275   1.41989
   1.25149  -0.51275   1.41989
   1.49149  -0.51275   1.41989
   1.49149  -0.51275   1.17989
   1.49149  -0.51275   1.41989
   1.49149  -0.51275   1.41989
   1.49149  -0.51275   1.41989
   1.49149  -0.51275   1.17989
   1.49149  -0.51275   1.41989
   1.49149  -0.51275   1.17989
   1.49149  -0.51275   1.41989
   1.49149  -0.27275   1.41989
   1.49149  -0.27275   1.41989
   1.49149  -0.27275   1.41989
   1.49149  -0.27275   1.41989
   1.49149  -0.27275   1.41989
   1.25149  -0.27275   1.17989
   1.25149  -0.03275   1.17989
   1.25149  -0.03275   1.17989
   1.25149  -0.03275   1.17989
   1.25149  -0.03275   1.17989
   1.25149  -0.03275   1.17989
   1.01149  -0.03275   1.17989
   1.01149  -0.03275   1.17989
   1.01149   0.20725   1.17989
   1.01149   0.20725   1.17989
   0.77149   0.20725   0.93989
   0.77149   0.20725   1.17989
   0.77149   0.20725   0.93989
   0.77149   0.20725   0.93989
   0.53149   0.44725   0.93989
   0.53149   0.44725   0.93989
   0.29149   0.20725   0.93989
   0.29149   0.44725   0.93989
   0.29149   0.44725   0.93989
   0.29149   0.44725   0.69989
   0.05149   0.44725   0.69989
   0.05149   0.68725   0.69989
   0.05149   0.68725   0.69989
  -0.18851   0.44725   0.45989
  -0.18851   0.68725   0.45989
  -0.18851   0.68725   0.45989
  -0.42851   0.68725   0.45989
  -0.42851   0.68725   0.45989
  -0.42851   0.68725   0.45989
  -0.42851   0.68725   0.45989
  -0.66851   0.68725   0.21989
  -0.66851   0.68725   0.21989
  -0.66851   0.68725  -0.02011
  -0.66851   0.68725  -0.02011
  -0.90851   0.68725  -0.02011
  -0.90851   0.68725  -0.26011
  -0.90851   0.68725  -0.02011
  -0.90851   0.92725  -0.26011
  -0.90851   0.68725  -0.26011
  -1.14851   0.68725  -0.26011
  -1.14851   0.68725  -0.50011
  -1.14851   0.68725  -0.50011
  -1.14851   0.68725  -0.50011
  -1.14851   0.92725  -0.50011
  -1.14851   0.92725  -0.50011
  -1.14851   0.92725  -0.50011
  -1.14851   0.68725  -0.74011
  -1.38851   0.68725  -0.74011
  -1.38851   0.68725  -0.74011
  -1.38851   0.68725  -0.98011
  -1.38851   0.68725  -0.98011
  -1.38851   0.68725  -0.98011
  -1.38851   0.68725  -0.98011
  -1.38851   0.68725  -0.98011
  -1.38851   0.68725  -0.98011
  -1.38851   0.68725  -1.21011
  -1.38851   0.68725  -1.21011
  -1.38851   0.68725  -1.21011
  -1.38851   0.68725  -1.21011
  -1.38851   0.68725  -1.21011
  -1.38851   0.68725  -1.21011
  -1.62851   0.68725  -1.21011
  -1.38851   0.68725  -1.21011
  -1.38851   0.44725  -1.21011
  -1.38851   0.44725  -1.45011
  -1.38851   0.44725  -1.45011
  -1.38851   0.44725  -1.45011
  -1.38851   0.44725  -1.45011
  -1.38851   0.44725  -1.21011
  -1.38851   0.44725  -1.21011
  -1.38851   0.44725  -1.45011
  -1.38851   0.44725  -1.21011
  -1.38851   0.20725  -1.21011
  -1.38851   0.20725  -1.21011
  -1.14851   0.20725  -1.21011
  -1.38851   0.20725  -1.21011
  -1.14851   0.20725  -1.21011
  -1.38851   0.20725  -1.21011
  -1.14851   0.20725  -1.21011
  -1.14851   0.20725  -1.21011
  -1.14851  -0.03275  -1.21011
  -1.14851  -0.03275  -0.98011
  -1.14851  -0.03275  -0.98011
  -1.14851  -0.03275  -0.98011
  -1.14851  -0.03275  -0.98011
  -1.14851  -0.03275  -0.98011
  -1.14851  -0.03275  -0.74011
  -1.14851  -0.27275  -0.74011
  -1.14851  -0.27275  -0.74011
  -1.14851  -0.27275  -0.74011
  -1.14851  -0.27275  -0.50011
  -1.14851  -0.27275  -0.74011
  -1.14851  -0.27275  -0.50011
  -1.14851  -0.27275  -0.50011
  -1.14851  -0.27275  -0.50011
  -0.90851  -0.27275  -0.50011
  -1.14851  -0.27275  -0.50011
  -0.90851  -0.27275  -0.26011
  -0.90851  -0.27275  -0.26011
  -0.90851  -0.27275  -0.02011
  -0.90851  -0.27275  -0.02011
  -0.90851  -0.51275  -0.02011
  -0.90851  -0.51275  -0.02011
  -0.90851  -0.27275  -0.02011
  -0.90851  -0.27275  -0.02011
  -0.90851  -0.27275   0.21989
  -0.90851  -0.27275   0.21989
  -0.90851  -0.51275   0.21989
  -0.90851  -0.27275   0.45989
  -0.90851  -0.27275   0.21989
  -0.90851  -0.27275   0.45989
  -0.90851  -0.27275   0.45989
  -0.90851  -0.27275   0.45989
  -0.90851  -0.27275   0.45989
  -0.90851  -0.27275   0.45989
  -0.90851  -0.27275   0.45989
  -0.90851  -0.27275   0.45989
  -0.90851  -0.27275   0.45989
  -0.90851  -0.27275   0.45989
  -0.90851  -0.27275   0.69989
  -0.90851  -0.27275   0.69989
  -0.90851  -0.27275   0.69989
  -0.90851  -0.27275   0.69989
  -0.90851  -0.27275   0.93989
  -0.90851  -0.27275   0.69989
  -0.90851  -0.27275   0.69989
  -0.90851  -0.27275   0.69989
  -0.90851  -0.27275   0.69989
  -0.90851  -0.27275   0.69989
  -0.90851  -0.27275   0.69989
  -0.90851  -0.03275   0.69989
  -0.90851  -0.03275   0.69989
  -0.90851  -0.03275   0.69989
  -0.90851  -0.03275   0.69989
  -0.90851  -0.03275   0.69989
  -0.90851  -0.03275   0.93989
  -0.90851  -0.03275   0.69989
  -1.14851  -0.03275   0.69989
  -1.14851  -0.03275   0.69989
  -0.90851  -0.03275   0.69989
  -0.90851  -0.03275   0.69989
  -1.14851  -0.03275   0.69989
  -1.14851  -0.03275   0.69989
  -1.14851  -0.03275   0.69989
  -0.90851  -0.03275   0.69989
  -1.14851   0.20725   0.69989
  -1.14851   0.20725   0.69989
  -0.90851   0.20725   0.69989
  -1.14851   0.20725   0.69989
  -0.90851   0.20725   0.69989
  -0.90851   0.20725   0.69989
  -0.90851   0.20725   0.45989
  -0.90851   0.20725   0.69989
  -0.90851   0.20725   0.45989
  -0.90851   0.20725   0.69989
  -0.90851   0.20725   0.45989
  -0.90851   0.20725   0.45989
  -0.90851   0.20725   0.45989
  -0.90851   0.20725   0.45989
  -0.90851   0.20725   0.45989
  -0.90851   0.20725   0.69989
  -0.90851   0.20725   0.45989
  -0.90851   0.20725   0.69989
  -0.90851   0.20725   0.69989
  -0.90851   0.20725   0.69989
  -0.90851   0.20725   0.69989
  -0.90851   0.20725   0.69989
  -0.66851   0.20725   0.69989
  -0.66851   0.20725   0.69989
  -0.66851  -0.03275   0.45989
  -0.66851   0.20725   0.45989
  -0.66851   0.20725   0.69989
  -0.66851   0.20725   0.69989
  -0.66851   0.20725   0.45989
  -0.66851  -0.03275   0.69989
  -0.42851  -0.03275   0.69989
  -0.42851   0.20725   0.69989
  -0.42851  -0.03275   0.69989
  -0.42851  -0.03275   0.69989
  -0.42851  -0.03275   0.69989
  -0.42851   0.20725   0.69989
  -0.18851   0.20725   0.69989
  -0.18851   0.20725   0.69989
  -0.18851   0.20725   0.69989
  -0.18851   0.20725   0.69989
   0.05149  -0.03275   0.69989
   0.05149   0.20725   0.69989
   0.05149  -0.03275   0.69989
   0.05149  -0.03275   0.69989
   0.29149  -0.03275   0.69989
   0.29149  -0.03275   0.69989
   0.29149  -0.03275   0.69989
   0.29149  -0.03275   0.69989
   0.29149  -0.03275   0.69989
   0.53149  -0.03275   0.69989
   0.53149  -0.03275   0.69989
   0.53149  -0.03275   0.69989
   0.77149  -0.03275   0.69989
   0.77149  -0.03275   0.45989
   0.77149  -0.03275   0.69989
   1.01149  -0.03275   0.69989
   1.01149  -0.03275   0.69989
   1.01149  -0.03275   0.69989
   1.01149  -0.03275   0.69989
   1.25149  -0.03275   0.45989
   1.25149  -0.03275   0.69989
   1.25149  -0.03275   0.69989
   1.25149  -0.03275   0.45989
   1.49149  -0.03275   0.45989
   1.49149  -0.03275   0.45989
   1.49149  -0.03275   0.45989
   1.72149  -0.27275   0.45989
   1.72149  -0.03275   0.45989
   1.72149  -0.27275   0.45989
   1.72149  -0.03275   0.45989
   1.72149  -0.27275   0.45989
   1.96149  -0.03275   0.45989
   1.96149  -0.03275   0.45989
   1.96149  -0.03275   0.45989
   2.20149  -0.27275   0.45989
   2.20149  -0.03275   0.45989
   2.20149  -0.03275   0.45989
   2.20149  -0.03275   0.45989
   2.44149  -0.03275   0.45989
   2.44149  -0.03275   0.45989
   2.44149  -0.03275   0.45989
   2.44149  -0.03275   0.45989
   2.44149  -0.03275   0.45989
   2.44149  -0.03275   0.45989
   2.44149  -0.03275   0.45989
   2.68149  -0.03275   0.45989
   2.68149  -0.03275   0.45989
   2.68149  -0.03275   0.45989
   2.68149  -0.03275   0.45989
   2.68149  -0.03275   0.45989
   2.68149  -0.03275   0.45989
   2.68149  -0.03275   0.45989
   2.68149  -0.03275   0.45989
   2.68149   0.20725   0.45989
   2.68149  -0.03275   0.45989
   2.68149   0.20725   0.21989
   2.68149   0.20725   0.45989
   2.68149   0.20725   0.21989
   2.68149   0.20725   0.45989
   2.68149   0.20725   0.45989
   2.68149   0.20725   0.21989
   2.68149   0.20725   0.21989
   2.44149   0.20725   0.21989
   2.44149   0.20725   0.21989
   2.44149   0.20725   0.21989
   2.44149   0.20725   0.21989
   2.44149   0.20725   0.21989
   2.44149   0.44725   0.21989
   2.44149   0.44725  -0.02011
   2.20149   0.44725  -0.02011
   2.20149   0.44725  -0.02011
   2.20149   0.44725  -0.02011
   2.20149   0.44725  -0.02011
   1.96149   0.44725  -0.02011
   1.96149   0.44725  -0.26011
   1.96149   0.44725  -0.26011
   1.96149   0.68725  -0.26011
   1.72149   0.44725  -0.50011
   1.72149   0.68725  -0.26011
   1.72149   0.68725  -0.26011
   1.72149   0.68725  -0.50011
   1.49149   0.68725  -0.50011
   1.49149   0.68725  -0.50011
   1.25149   0.68725  -0.74011
   1.25149   0.68725  -0.50011
   1.25149   0.44725  -0.74011
   1.25149   0.68725  -0.74011
   1.01149   0.68725  -0.74011
   0.77149   0.44725  -0.98011
   0.77149   0.68725  -0.74011
   0.77149   0.44725  -0.98011
   0.77149   0.44725  -0.98011
   0.53149   0.44725  -0.98011
   0.53149   0.44725  -0.98011
   0.53149   0.44725  -1.21011
   0.29149   0.44725  -0.98011
   0.29149   0.44725  -1.21011
   0.29149   0.44725  -1.21011
   0.29149   0.44725  -1.21011
   0.05149   0.44725  -1.21011
   0.05149   0.20725  -1.21011
   0.05149   0.20725  -1.45011
  -0.18851   0.20725  -1.45011
  -0.18851   0.20725  -1.45011
  -0.18851   0.20725  -1.45011
  -0.18851   0.20725  -1.45011
  -0.18851   0.20725  -1.45011
  -0.18851   0.20725  -1.45011
  -0.42851  -0.03275  -1.45011
  -0.42851   0.20725  -1.45011
  -0.42851  -0.03275  -1.45011
  -0.42851  -0.03275  -1.69011
  -0.66851  -0.03275  -1.69011
  -0.42851  -0.03275  -1.69011
  -0.66851  -0.03275  -1.45011
  -0.66851  -0.03275  -1.69011
  -0.66851  -0.03275  -1.69011
  -0.66851  -0.27275  -1.45011
  -0.66851  -0.27275  -1.45011
  -0.66851  -0.27275  -1.45011
  -0.66851  -0.27275  -1.45011
  -0.66851  -0.27275  -1.45011
  -0.66851  -0.27275  -1.45011
  -0.66851  -0.27275  -1.45011
  -0.66851  -0.27275  -1.45011
  -0.66851  -0.27275  -1.45011
  -0.66851  -0.27275  -1.45011
  -0.66851  -0.51275  -1.45011
  -0.66851  -0.51275  -1.45011
  -0.66851  -0.27275  -1.45011
  -0.66851  -0.51275  -1.45011
  -0.66851  -0.51275  -1.21011
  -0.66851  -0.51275  -1.45011
  -0.66851  -0.51275  -1.21011
  -0.66851  -0.51275  -1.21011
  -0.66851  -0.51275  -0.98011
  -0.66851  -0.51275  -0.98011
  -0.42851  -0.51275  -1.21011
  -0.42851  -0.51275  -0.98011
  -0.42851  -0.51275  -0.98011
  -0.42851  -0.51275  -0.98011
  -0.42851  -0.51275  -0.74011
  -0.42851  -0.75275  -0.74011
  -0.42851  -0.51275  -0.50011
  -0.42851  -0.75275  -0.74011
  -0.42851  -0.51275  -0.50011
  -0.42851  -0.75275  -0.50011
  -0.42851  -0.75275  -0.50011
  -0.42851  -0.75275  -0.26011
  -0.42851  -0.75275  -0.26011
  -0.42851  -0.75275  -0.02011
  -0.42851  -0.75275  -0.02011
  -0.42851  -0.75275  -0.02011
  -0.42851  -0.75275  -0.02011
  -0.42851  -0.75275   0.21989
  -0.42851  -0.75275   0.21989
  -0.42851  -0.75275   0.45989
  -0.42851  -0.75275   0.45989
  -0.42851  -0.75275   0.45989
  -0.42851  -0.75275   0.45989
  -0.66851  -0.75275   0.69989
  -0.66851  -0.75275   0.69989
  -0.66851  -0.51275   0.93989
  -0.66851  -0.51275   0.93989
  -0.66851  -0.51275   0.93989
  -0.66851  -0.51275   1.17989
  -0.66851  -0.51275   1.17989
  -0.66851  -0.51275   1.17989
  -0.66851  -0.51275   1.41989
  -0.66851  -0.51275   1.41989
  -0.66851  -0.51275   1.65989
  -0.66851  -0.51275   1.41989
  -0.66851  -0.51275   1.65989
  -0.66851  -0.51275   1.65989
  -0.66851  -0.27275   1.65989
  -0.66851  -0.27275   1.89989
  -0.90851  -0.27275   1.89989
  -0.90851  -0.27275   1.89989
  -0.90851  -0.27275   1.89989
  -0.66851  -0.27275   1.89989
  -0.90851  -0.27275   1.89989
  -0.90851  -0.27275   2.13989
  -0.90851  -0.27275   1.89989
  -0.90851  -0.27275   2.13989
  -0.66851  -0.03275   2.13989
  -0.90851  -0.27275   2.13989
  -0.90851  -0.03275   1.89989
  -0.90851  -0.03275   1.89989
  -0.90851  -0.03275   1.89989
  -0.90851  -0.03275   1.89989
  -0.90851  -0.03275   1.89989
  -0.66851  -0.03275   1.89989
  -0.66851  -0.03275   1.89989
  -0.90851   0.20725   1.89989
  -0.66851  -0.03275   1.89989
