********************************************************************************
               CENTRO DE INSTRUMENTACION Y REGISTRO SISMICO  A.C.  
                              FUNDACION ICA, A.C.
     Anaxagoras 814, Col. Narvarte, Benito Juarez, C.P. 03020 Mexico, D.F.
            Tels. 687 45 42/ 687 45  82             Fax. 669 25 12
********************************************************************************
ARCHIVO ESTANDAR DE ACELERACION:
VERSION DEL FORMATO                    : 2.0
NOMBRE DEL ARCHIVO                     : BA499104.011
FECHA Y HORA DE CREACION               : 19 de febrero de 1996/18:53
REF. CATALOGO ACELEROGRAMAS, SMIS 1995 : REGISTRO No. 2743 /PAG. 261


================================================================================
DATOS DE LA ESTACION:
NOMBRE DE LA ESTACION                  : BUENOS AIRES
CLAVE DE LA ESTACION                   : BA49
LOCALIZACION DE LA ESTACION            : ESCUELA SECUNDARIA 102, DOCTOR MARQUEZ
                                       : Y EJE CENTRAL, BUENOS AIRES.
                                       :
                                       :
                                       :
COORDENADAS DE LA ESTACION             : 19.410 LAT. N 
                                       : 99.145 LONG. W 
ALTITUD (msnm)                         : 2233
TIPO DE SUELO                          : TERRENO BLANDO, MATERIAL COMPRESIBLE
                                       : (ARCILLAS)
                                       : 
INSTITUCION RESPONSABLE                : FICA
                                       :

================================================================================
DATOS DEL ACELEROGRAFO:
MODELO DEL ACELEROGRAFO                : SSA-1
NUMERO DE SERIE DEL ACELEROGRAFO       : 176
NUMERO DE CANALES                      : 3
ORIENTACION C1-C6 (rumbo;orientacion)  : /N00E/+V/N90E
ORIENTACION C7-C12 (rumbo;orientacion) :
VEL. DE MUESTREO, C1-C6 (muestras/s)   : /200/200/200
VEL. DE MUESTREO, C7-C12 (muestras/s)  :
ESC. COMPLETA DE SENSORES, C1-C6, (g)  : /2/2/2
ESC. COMPLETA DE SENSORES, C7-C12, (g) :
FREC. NAT. DE SENSORES, C1-C6, (Hz)    : /50/50/50
FREC. NAT. DE SENSORES, C7-C12, (Hz)   :
AMORTIGUAMIENTO DE SENSORES, C1-C6     : /0.700/0.700/0.700
AMORTIGUAMIENTO DE SENSORES, C7-C12    :
INTERVALO DE MUESTREO, C1-C6, (s)      : /0.005/0.005/0.005
INTERVALO DE MUESTREO, C7-C12, (s)     :
UMBRAL DE DISPARO, C1-C6, (Gal)        : /2/2/2
UMBRAL DE DISPARO, C7-C12, (Gal)       :
MEMORIA DE PREEVENTO (s)               : 15
TIEMPO DE POSEVENTO (s)                : 90


================================================================================
DATOS DEL SISMO:
FECHA DEL SISMO (GMT)                  : 01/ABR/91
HORA EPICENTRO (GMT)                   : 07:34:45,9 
MAGNITUD(ES)                           : /Mb=5.50/Ms=5.40/Mc=5.30
COORDENADAS DEL EPICENTRO              : 16.044 LAT. N 
                                       : 98.387 LONG. W 
PROFUNDIDAD FOCAL (km)                 : 25.6 
FUENTE DE LOS DATOS EPICENTRALES       : INSTITUTO DE INGENIERIA UNAM
                                       : 

================================================================================
DATOS DE ESTE REGISTRO:
HORA DE LA PRIMERA MUESTRA (GMT)       : 07:34:00.00
EXACTITUD DEL TIEMPO (s)               :     
DURACION DEL REGISTRO (s), C1-C6       : /166.40/166.40/166.40
DURACION DEL REGISTRO (s), C7-C12      :
NUM. TOTAL DE MUESTRAS, C1-C6          : /33280/33280/33280
NUM. TOTAL DE MUESTRAS, C7-C12         :
ACEL. MAX. (Gal), C1-C6                : /3.85939/1.20/3.62479
ACEL. MAX., C1-C6, EN LA MUESTRA       :
ACEL. MAX. (Gal), C7-C12               :
ACEL. MAX., C7-C12, EN LA MUESTRA      :
UNIDADES DE LOS DATOS                  : Gal (cm/s/s)
FACTOR DE DECIMACION                   : 1
FORMATO DATOS (FORTRAN,10 campos/dato) : 3F10.5


================================================================================
CALIDAD DEL ACELEROGRAMA:
REGISTRO DIGITAL COMPLETO, CARECE DE TIEMPO ABSOLUTO.


================================================================================
COMENTARIOS:
             El equipo se encontraba con una ganancia de 2 en los ejes
             horizontales y de 4 en el eje vertical, por lo que las es-
             calas completas eran de 1 g y 1/2 g respectivamente.











================================================================================
DATOS DE ACELERACION:
---------+---------+---------+---------+---------+---------+---------+---------+
   CANAL-1   CANAL-2   CANAL-3   CANAL-4   CANAL-5   CANAL-6   CANAL-7   CANAL-8
      N00E        +V      N90E
---------+---------+---------+---------+---------+---------+---------+---------+
[...]
  -0.97939   0.24000   2.12521
  -0.97939   0.24000   2.12521
  -0.97939   0.24000   2.12521
  -0.97939   0.24000   2.12521
  -0.97939   0.00000   2.60521
  -0.97939   0.00000   2.60521
  -0.97939   0.00000   2.60521
  -0.97939   0.00000   2.60521
  -0.97939   0.00000   2.60521
  -0.49939   0.00000   2.60521
  -0.97939  -0.24000   2.60521
  -0.49939  -0.24000   2.60521
  -0.97939   0.00000   2.60521
  -0.49939  -0.24000   3.08521
  -0.49939  -0.48000   3.08521
  -0.49939  -0.48000   3.08521
  -0.49939  -0.48000   3.08521
  -0.02939  -0.72000   3.08521
  -0.49939  -0.48000   3.08521
  -0.49939  -0.48000   3.08521
  -0.02939  -0.72000   3.08521
  -0.02939  -0.72000   3.08521
  -0.02939  -0.72000   3.08521
  -0.02939  -0.72000   3.08521
  -0.02939  -0.72000   3.08521
  -0.02939  -0.72000   3.08521
  -0.02939  -0.72000   3.08521
  -0.02939  -0.72000   3.08521
  -0.02939  -0.72000   3.08521
   0.45061  -0.72000   3.08521
  -0.02939  -0.72000   3.08521
  -0.02939  -0.72000   3.08521
  -0.02939  -0.72000   3.08521
  -0.02939  -0.72000   3.08521
  -0.02939  -0.72000   3.08521
   0.45061  -0.72000   3.08521
   0.45061  -0.72000   3.08521
  -0.02939  -0.72000   3.56521
  -0.02939  -0.72000   3.08521
  -0.02939  -0.72000   3.08521
  -0.02939  -0.72000   3.08521
  -0.02939  -0.72000   3.56521
  -0.02939  -0.48000   3.56521
  -0.02939  -0.72000   3.08521
  -0.02939  -0.48000   3.08521
  -0.02939  -0.72000   3.08521
  -0.02939  -0.48000   3.08521
  -0.02939  -0.48000   3.08521
  -0.49939  -0.48000   3.08521
  -0.49939  -0.48000   3.08521
  -0.02939  -0.48000   3.08521
  -0.49939  -0.48000   3.08521
  -0.97939  -0.48000   3.08521
  -0.49939  -0.48000   3.08521
  -0.97939  -0.24000   3.08521
  -0.49939  -0.48000   3.08521
  -0.49939  -0.48000   3.56521
  -0.97939  -0.48000   3.08521
  -0.97939  -0.24000   3.08521
  -0.97939  -0.24000   3.08521
  -0.97939  -0.24000   3.08521
  -0.97939   0.00000   3.08521
  -0.97939   0.00000   3.08521
  -0.97939   0.00000   3.08521
  -0.97939  -0.24000   3.08521
  -0.97939   0.00000   3.08521
  -0.97939   0.00000   3.08521
  -0.97939   0.00000   2.60521
  -0.97939   0.00000   3.08521
  -0.97939   0.00000   3.08521
  -0.97939   0.24000   3.08521
  -0.97939   0.00000   2.60521
  -0.97939   0.00000   3.08521
  -0.97939   0.00000   3.08521
  -0.97939   0.00000   2.60521
  -0.97939   0.00000   3.08521
  -0.97939   0.00000   2.60521
  -0.97939   0.00000   3.08521
  -0.97939   0.00000   2.60521
  -0.97939   0.00000   2.60521
  -0.97939   0.00000   2.60521
  -0.97939   0.24000   2.60521
  -0.97939   0.00000   2.60521
  -0.49939   0.00000   2.12521
  -0.49939   0.00000   2.60521
  -0.49939   0.00000   2.60521
  -0.49939   0.00000   2.12521
  -0.49939   0.00000   2.60521
  -0.02939   0.00000   2.12521
  -0.02939   0.00000   2.60521
  -0.02939   0.00000   2.12521
  -0.49939   0.24000   2.12521
  -0.02939   0.24000   2.12521
  -0.02939   0.24000   2.12521
  -0.02939   0.24000   2.12521
  -0.02939   0.24000   2.12521
   0.45061   0.24000   2.12521
   0.45061   0.24000   2.12521
   0.45061   0.24000   2.12521
   0.45061   0.24000   2.12521
   0.45061   0.24000   2.12521
   0.45061   0.24000   2.12521
   0.45061   0.24000   2.12521
   0.45061   0.24000   2.12521
   0.45061   0.24000   2.12521
   0.45061   0.24000   1.64521
   0.45061   0.24000   2.12521
   0.45061   0.24000   2.12521
   0.93061   0.24000   2.12521
   0.93061   0.24000   2.12521
   0.93061   0.24000   2.12521
   0.93061   0.24000   1.64521
   0.93061   0.24000   2.12521
   0.93061   0.24000   1.64521
   0.93061   0.24000   2.12521
   0.93061   0.24000   2.12521
   0.93061   0.48000   1.64521
   0.93061   0.48000   2.12521
   0.93061   0.48000   1.64521
   0.93061   0.48000   1.64521
   0.45061   0.48000   1.64521
   0.93061   0.48000   2.12521
   0.45061   0.48000   1.64521
   0.45061   0.48000   1.64521
   0.45061   0.48000   1.64521
   0.93061   0.48000   1.64521
   0.45061   0.24000   1.64521
   0.45061   0.48000   1.64521
   0.45061   0.48000   1.17521
   0.45061   0.48000   1.64521
  -0.02939   0.24000   1.64521
   0.45061   0.24000   1.64521
  -0.02939   0.24000   1.17521
  -0.02939   0.48000   1.17521
  -0.02939   0.48000   1.17521
  -0.02939   0.48000   1.17521
  -0.02939   0.24000   1.64521
  -0.02939   0.48000   1.17521
  -0.02939   0.48000   1.17521
  -0.02939   0.48000   1.17521
  -0.49939   0.48000   1.17521
  -0.49939   0.48000   1.17521
  -0.49939   0.48000   0.69521
  -0.49939   0.48000   0.69521
  -0.49939   0.48000   1.17521
  -0.49939   0.48000   0.69521
  -0.97939   0.72000   0.69521
  -0.49939   0.48000   0.69521
  -0.97939   0.48000   0.69521
  -0.97939   0.48000   0.69521
  -0.97939   0.48000   0.69521
  -0.97939   0.48000   0.21521
  -0.97939   0.48000   0.21521
  -0.97939   0.48000   0.21521
  -0.97939   0.48000   0.21521
  -0.97939   0.48000   0.21521
  -0.97939   0.48000   0.21521
  -0.97939   0.48000   0.21521
  -0.97939   0.24000   0.21521
  -0.97939   0.24000   0.21521
  -0.97939   0.24000   0.21521
  -0.97939   0.24000   0.21521
  -0.97939   0.24000   0.21521
  -0.97939   0.24000  -0.26479
  -0.97939   0.24000  -0.26479
  -0.49939   0.24000  -0.26479
  -0.49939   0.24000  -0.26479
  -0.49939   0.24000  -0.26479
  -0.02939   0.00000  -0.26479
  -0.49939   0.00000  -0.26479
  -0.02939   0.00000  -0.26479
  -0.02939   0.00000  -0.26479
  -0.02939   0.00000  -0.26479
  -0.02939   0.00000  -0.26479
  -0.02939  -0.24000  -0.26479
  -0.02939  -0.24000  -0.26479
   0.45061  -0.24000  -0.26479
  -0.02939  -0.48000  -0.26479
   0.45061  -0.48000  -0.26479
   0.45061  -0.72000  -0.26479
   0.45061  -0.48000  -0.74479
   0.93061  -0.72000  -0.74479
   0.93061  -0.72000  -0.26479
   0.93061  -0.72000  -0.26479
   0.93061  -0.72000  -0.26479
   0.93061  -0.72000  -0.26479
   0.93061  -0.72000  -0.26479
   1.41061  -0.96000  -0.26479
   1.41061  -0.96000  -0.74479
   1.41061  -0.96000  -0.26479
   1.41061  -0.96000  -0.74479
   1.41061  -0.96000  -0.74479
   1.89061  -1.20000  -0.26479
   1.89061  -1.20000  -0.26479
   1.89061  -0.96000  -0.74479
   1.89061  -1.20000  -0.74479
   1.89061  -1.20000  -0.74479
   1.89061  -1.20000  -0.74479
   1.89061  -1.20000  -0.74479
   1.89061  -1.20000  -0.74479
   2.37061  -1.20000  -0.74479
   2.37061  -1.20000  -0.74479
   2.37061  -1.20000  -0.74479
   2.37061  -1.20000  -0.74479
   2.37061  -1.20000  -0.74479
   2.37061  -1.20000  -0.74479
   2.37061  -1.20000  -0.74479
   2.37061  -1.20000  -0.74479
   2.37061  -1.20000  -0.74479
   2.37061  -1.20000  -1.22479
   1.89061  -1.20000  -1.22479
   2.37061  -1.20000  -1.22479
   2.37061  -1.20000  -0.74479
   1.89061  -1.20000  -1.22479
   1.89061  -0.96000  -1.22479
   1.89061  -0.96000  -1.22479
   1.89061  -1.20000  -1.22479
   1.41061  -0.96000  -1.22479
   1.89061  -0.96000  -1.22479
   1.41061  -0.96000  -1.22479
   1.41061  -0.96000  -1.22479
   1.41061  -0.96000  -1.22479
   1.41061  -0.96000  -1.22479
   1.41061  -0.72000  -1.22479
   1.41061  -0.72000  -1.22479
   1.41061  -0.72000  -1.22479
   0.93061  -0.72000  -1.22479
   0.93061  -0.72000  -1.22479
   0.93061  -0.72000  -1.22479
   0.93061  -0.48000  -1.22479
   0.93061  -0.72000  -1.22479
   0.45061  -0.48000  -1.22479
   0.45061  -0.48000  -1.22479
   0.45061  -0.48000  -1.22479
   0.45061  -0.24000  -1.22479
   0.45061  -0.24000  -0.74479
  -0.02939  -0.24000  -1.22479
  -0.02939  -0.24000  -0.74479
  -0.02939  -0.24000  -0.74479
  -0.02939  -0.24000  -0.74479
  -0.02939   0.00000  -0.74479
  -0.02939   0.00000  -0.74479
  -0.49939   0.00000  -0.74479
  -0.49939   0.00000  -0.74479
  -0.49939   0.00000  -0.74479
  -0.49939   0.00000  -0.74479
  -0.49939   0.00000  -0.74479
  -0.49939   0.00000  -0.74479
  -0.97939   0.24000  -0.74479
  -0.49939   0.24000  -0.74479
  -0.97939   0.24000  -0.74479
  -0.97939   0.24000  -0.74479
  -0.97939   0.24000  -0.74479
  -0.97939   0.24000  -0.26479
  -0.97939   0.24000  -0.26479
  -0.97939   0.24000  -0.26479
  -0.97939   0.24000  -0.26479
  -0.97939   0.24000  -0.74479
  -1.45939   0.24000  -0.26479
  -1.45939   0.24000  -0.26479
  -1.45939   0.24000  -0.26479
  -1.45939   0.24000  -0.26479
  -1.45939   0.24000  -0.26479
  -1.45939   0.24000  -0.26479
  -1.45939   0.24000  -0.26479
  -1.45939   0.24000  -0.26479
  -1.45939   0.24000   0.21521
  -1.45939   0.24000  -0.26479
  -1.45939   0.24000  -0.26479
  -1.45939   0.24000   0.21521
  -1.45939   0.24000  -0.26479
  -1.45939   0.24000  -0.26479
  -1.45939   0.24000  -0.26479
  -1.45939   0.24000  -0.26479
  -1.45939   0.24000  -0.26479
  -1.45939   0.24000  -0.26479
  -1.45939   0.24000  -0.26479
  -1.45939   0.24000  -0.26479
  -1.45939   0.24000  -0.26479
  -1.45939   0.24000  -0.26479
  -1.45939   0.24000  -0.26479
  -1.45939   0.24000  -0.74479
  -1.45939   0.24000  -0.74479
  -1.45939   0.24000  -0.74479
  -0.97939   0.24000  -0.74479
  -1.45939   0.24000  -0.74479
  -1.45939   0.24000  -0.74479
  -0.97939   0.24000  -0.74479
  -0.97939   0.24000  -0.74479
  -0.97939   0.24000  -1.22479
  -0.97939   0.24000  -0.74479
  -0.97939   0.24000  -1.22479
  -0.97939   0.24000  -1.22479
  -0.97939   0.24000  -0.74479
  -0.97939   0.24000  -1.22479
  -0.97939   0.24000  -1.22479
  -0.97939   0.24000  -1.22479
  -0.97939   0.24000  -1.22479
  -0.97939   0.00000  -1.22479
  -0.97939   0.24000  -1.22479
  -0.97939   0.24000  -1.22479
  -0.97939   0.00000  -1.22479
  -0.49939   0.00000  -1.22479
  -0.97939   0.00000  -1.22479
  -0.49939   0.00000  -1.22479
  -0.49939   0.24000  -1.22479
  -0.49939   0.24000  -1.22479
  -0.49939   0.00000  -1.22479
  -0.49939   0.00000  -1.22479
  -0.49939   0.00000  -1.22479
  -0.49939   0.00000  -1.22479
  -0.02939   0.00000  -1.22479
  -0.02939   0.00000  -1.70479
  -0.02939   0.00000  -1.22479
  -0.02939   0.00000  -1.70479
  -0.02939   0.00000  -1.70479
  -0.02939   0.00000  -1.70479
  -0.02939   0.00000  -1.70479
  -0.02939   0.00000  -1.70479
  -0.02939   0.00000  -1.70479
   0.45061  -0.24000  -1.70479
  -0.02939   0.00000  -2.18479
  -0.02939   0.00000  -1.70479
  -0.02939   0.00000  -2.18479
  -0.02939   0.00000  -2.18479
  -0.02939  -0.24000  -2.18479
  -0.02939  -0.48000  -2.18479
   0.45061   0.00000  -2.18479
   0.45061   0.00000  -2.18479
  -0.02939   0.00000  -2.18479
  -0.02939   0.00000  -2.66479
  -0.02939   0.00000  -2.66479
  -0.02939   0.00000  -2.66479
  -0.02939  -0.24000  -2.66479
  -0.02939   0.00000  -2.66479
  -0.02939   0.00000  -2.66479
  -0.02939   0.00000  -2.66479
  -0.02939   0.00000  -3.14479
  -0.02939   0.00000  -2.66479
  -0.02939   0.00000  -3.14479
  -0.02939   0.24000  -3.14479
  -0.02939   0.24000  -3.14479
  -0.02939   0.24000  -3.14479
   0.45061   0.24000  -3.14479
  -0.02939   0.24000  -3.62479
   0.45061   0.24000  -3.62479
   0.45061   0.24000  -3.14479
   0.45061   0.24000  -3.62479
   0.45061   0.24000  -3.62479
   0.45061   0.24000  -3.62479
   0.45061   0.24000  -3.62479
   0.45061   0.24000  -3.62479
   0.93061   0.24000  -3.62479
   0.45061   0.48000  -3.62479
   0.93061   0.48000  -3.62479
   0.93061   0.24000  -3.62479
   0.93061   0.48000  -3.62479
   0.93061   0.48000  -3.62479
   0.93061   0.24000  -3.62479
   0.93061   0.24000  -3.62479
   0.93061   0.24000  -3.62479
   0.93061   0.24000  -3.62479
   1.41061   0.24000  -3.62479
   0.93061   0.24000  -3.62479
   0.93061   0.24000  -3.62479
   1.41061   0.24000  -3.62479
   1.41061   0.24000  -3.62479
   0.93061   0.24000  -3.62479
   1.41061   0.00000  -3.14479
   1.41061   0.24000  -3.62479
   1.41061   0.24000  -3.62479
   1.41061   0.00000  -3.14479
   1.41061   0.24000  -3.14479
   1.41061   0.24000  -3.14479
   1.41061   0.24000  -3.14479
   1.41061   0.00000  -3.14479
   1.41061   0.00000  -3.14479
   1.41061   0.00000  -3.14479
   1.41061   0.24000  -2.66479
   1.41061   0.24000  -2.66479
   1.41061   0.00000  -2.66479
   1.41061   0.24000  -2.66479
   1.41061   0.24000  -2.66479
   1.41061   0.00000  -2.66479
   0.93061   0.24000  -2.66479
   0.93061   0.24000  -2.66479
   0.93061   0.24000  -2.66479
   0.93061   0.24000  -2.66479
   0.93061   0.24000  -2.18479
   0.93061   0.24000  -2.18479
   0.93061   0.24000  -2.18479
   0.93061   0.24000  -2.18479
   0.93061   0.24000  -2.18479
   0.93061   0.24000  -2.18479
   0.93061   0.24000  -2.18479
   0.93061   0.24000  -1.70479
   0.45061   0.48000  -1.70479
   0.45061   0.48000  -1.70479
   0.45061   0.24000  -1.70479
   0.45061   0.24000  -1.70479
   0.45061   0.24000  -1.70479
   0.45061   0.48000  -1.70479
   0.45061   0.24000  -1.22479
   0.45061   0.48000  -1.22479
   0.45061   0.24000  -1.70479
  -0.02939   0.48000  -1.70479
   0.45061   0.48000  -1.70479
  -0.02939   0.48000  -1.70479
  -0.02939   0.48000  -1.22479
  -0.02939   0.48000  -1.22479
  -0.02939   0.48000  -1.22479
  -0.02939   0.72000  -1.70479
  -0.02939   0.48000  -1.22479
  -0.02939   0.72000  -1.70479
  -0.49939   0.72000  -1.70479
  -0.02939   0.72000  -1.22479
  -0.49939   0.72000  -1.22479
  -0.49939   0.72000  -1.70479
  -0.49939   0.72000  -1.70479
  -0.02939   0.72000  -1.22479
  -0.49939   0.72000  -1.22479
  -0.02939   0.72000  -1.70479
  -0.02939   0.72000  -1.22479
  -0.49939   0.72000  -1.70479
  -0.49939   0.72000  -1.22479
  -0.02939   0.72000  -1.22479
  -0.49939   0.72000  -1.70479
  -0.02939   0.48000  -1.22479
  -0.02939   0.48000  -1.22479
  -0.02939   0.48000  -1.70479
  -0.02939   0.48000  -1.70479
  -0.02939   0.48000  -1.70479
  -0.02939   0.48000  -1.70479
  -0.02939   0.48000  -1.22479
  -0.02939   0.48000  -1.22479
  -0.02939   0.24000  -1.22479
  -0.02939   0.48000  -1.22479
   0.45061   0.24000  -1.22479
  -0.02939   0.24000  -1.22479
  -0.02939   0.24000  -1.22479
  -0.02939   0.24000  -1.22479
   0.45061   0.24000  -1.22479
   0.45061   0.00000  -1.22479
   0.45061   0.00000  -1.22479
   0.45061   0.00000  -1.22479
   0.45061   0.00000  -1.22479
   0.45061   0.00000  -1.22479
   0.45061   0.00000  -1.22479
   0.45061  -0.24000  -1.22479
   0.93061  -0.24000  -1.22479
   0.93061  -0.24000  -0.74479
   0.93061  -0.24000  -0.74479
   0.93061  -0.24000  -0.74479
   0.93061  -0.48000  -0.74479
   0.45061  -0.48000  -0.74479
   0.93061  -0.72000  -0.74479
   0.93061  -0.48000  -0.74479
   0.93061  -0.72000  -0.26479
   0.93061  -0.72000  -0.26479
   0.93061  -0.72000  -0.74479
   0.93061  -0.72000  -0.26479
   0.93061  -0.72000  -0.26479
   0.93061  -0.96000  -0.26479
   0.93061  -0.96000  -0.26479
   0.45061  -0.96000  -0.26479
   0.93061  -0.96000   0.21521
   0.45061  -0.96000   0.21521
   0.45061  -0.96000   0.21521
   0.45061  -0.96000   0.21521
   0.45061  -0.96000   0.21521
   0.45061  -1.20000   0.21521
   0.45061  -0.96000   0.21521
   0.45061  -1.20000   0.69521
  -0.02939  -1.20000   0.21521
  -0.02939  -0.96000   0.69521
  -0.02939  -0.96000   0.21521
  -0.02939  -0.96000   0.69521
  -0.02939  -0.96000   0.69521
  -0.02939  -1.20000   0.69521
  -0.49939  -0.72000   0.69521
  -0.02939  -0.96000   0.69521
  -0.49939  -0.72000   0.69521
  -0.49939  -0.72000   0.69521
  -0.49939  -0.72000   0.69521
  -0.49939  -0.72000   1.17521
  -0.49939  -0.72000   1.17521
  -0.49939  -0.72000   1.17521
  -0.97939  -0.72000   1.17521
  -0.49939  -0.48000   1.17521
  -0.49939  -0.48000   1.17521
  -0.97939  -0.48000   1.17521
  -0.97939  -0.48000   1.17521
