********************************************************************************
               CENTRO DE INSTRUMENTACION Y REGISTRO SISMICO  A.C.  
                       Coordinacion de Servicios Tecnicos
     Anaxagoras 814, Col. Narvarte, Benito Juarez, C.P. 03020 Mexico, D.F.
            Tels. 667 45 42/ 687 45  82             Fax. 669 25 12
********************************************************************************
ARCHIVO ESTANDAR DE ACELERACION:
VERSION DEL FORMATO                    : 2.0
NOMBRE DEL ARCHIVO                     : BA499906.211
FECHA Y HORA DE CREACION               : 31/ENERO/2000, 10:10
REF. CATALOGO ACELEROGRAMAS, SMIS 1996 : REGISTRO No.     /PAG.


================================================================================
DATOS DE LA ESTACION:
NOMBRE DE LA ESTACION                  : BUENOS AIRES
CLAVE DE LA ESTACION                   : BA49
LOCALIZACION DE LA ESTACION            : ESCUELA SECUNDARIA 102, DOCTOR MARQUEZ
                                       : Y EJE CENTRAL, BUENOS AIRES.
                                       :
                                       :
                                       :
COORDENADAS DE LA ESTACION             : 19.410 LAT. N 
                                       : 99.145 LONG. W 
ALTITUD (msnm)                         : 2233
TIPO DE SUELO                          : TERRENO BLANDO, MATERIAL COMPRESIBLE
                                       : (ARCILLAS)
                                       : 
INSTITUCION RESPONSABLE                : CIRES 
                                       :

================================================================================
DATOS DEL ACELEROGRAFO:
MODELO DEL ACELEROGRAFO                : SSA-1
NUMERO DE SERIE DEL ACELEROGRAFO       : 176
NUMERO DE CANALES                      : 3
ORIENTACION C1-C6 (rumbo;orientacion)  : /N00E/+V/N90E
ORIENTACION C7-C12 (rumbo;orientacion) :
VEL. DE MUESTREO, C1-C6 (muestras/s)   : /200/200/200
VEL. DE MUESTREO, C7-C12 (muestras/s)  :
ESC. COMPLETA DE SENSORES, C1-C6, (g)  : /2/2/2
ESC. COMPLETA DE SENSORES, C7-C12, (g) :
FREC. NAT. DE SENSORES, C1-C6, (Hz)    : /52.99/52.03/52.99
FREC. NAT. DE SENSORES, C7-C12, (Hz)   :
AMORTIGUAMIENTO DE SENSORES, C1-C6     : /.5589/.5469/.6096
AMORTIGUAMIENTO DE SENSORES, C7-C12    :
INTERVALO DE MUESTREO, C1-C6, (s)      : /0.005/0.005/0.005
INTERVALO DE MUESTREO, C7-C12, (s)     :
UMBRAL DE DISPARO, C1-C6, (Gal)        : /2/2/2
UMBRAL DE DISPARO, C7-C12, (Gal)       :
MEMORIA DE PREEVENTO (s)               : 15
TIEMPO DE POSEVENTO (s)                : 60


================================================================================
DATOS DEL SISMO:
FECHA DEL SISMO (GMT)                  : 21/JUN/99
HORA EPICENTRO (GMT)                   : 17:43:05.5
MAGNITUD(ES)                           : /Mc=6.0/Ms=5.8/Mc=5.8/Me=6.2
COORDENADAS DEL EPICENTRO              : 17.99 LAT. N
                                       : 101.72 LONG. W
PROFUNDIDAD FOCAL (km)                 : 54.0
FUENTE DE LOS DATOS EPICENTRALES       : SSN
                                       : INSTITUTO DE GEOFISICA, UNAM

================================================================================
DATOS DE ESTE REGISTRO:
HORA DE LA PRIMERA MUESTRA (GMT)       : 17:44:26.00
EXACTITUD DEL TIEMPO (s)               :     
DURACION DEL REGISTRO (s), C1-C6       : /189.44/189.44/189.44
DURACION DEL REGISTRO (s), C7-C12      :
NUM. TOTAL DE MUESTRAS, C1-C6          : /37888/37888/37888
NUM. TOTAL DE MUESTRAS, C7-C12         :
ACEL. MAX. (Gal), C1-C6                : /6.82805/3.07654/6.08801
ACEL. MAX., C1-C6, EN LA MUESTRA       :
ACEL. MAX. (Gal), C7-C12               :
ACEL. MAX., C7-C12, EN LA MUESTRA      :
UNIDADES DE LOS DATOS                  : Gal (cm/s/s)
FACTOR DE DECIMACION                   : 1
FORMATO DATOS (FORTRAN,10 campos/dato) : 3F10.5


================================================================================
CALIDAD DEL ACELEROGRAMA:
REGISTRO DIGITAL COMPLETO, CARECE DE TIEMPO ABSOLUTO.


================================================================================
COMENTARIOS:














================================================================================
DATOS DE ACELERACION:
---------+---------+---------+---------+---------+---------+---------+---------+
   CANAL-1   CANAL-2   CANAL-3   CANAL-4   CANAL-5   CANAL-6   CANAL-7   CANAL-8
      N00E        +V      N90E
---------+---------+---------+---------+---------+---------+---------+---------+
[...]
   0.36805  -0.28346   3.97199
   0.12805  -0.28346   3.97199
  -0.11195  -0.28346   3.97199
  -0.11195  -0.04346   3.97199
  -0.35195  -0.04346   4.21199
  -0.59195  -0.04346   4.21199
  -0.59195   0.19654   4.21199
  -0.83195   0.19654   4.21199
  -1.07195   0.19654   4.21199
  -1.07195   0.19654   4.21199
  -1.31195   0.19654   4.21199
  -1.55195   0.19654   4.45199
  -1.55195   0.43654   4.45199
  -1.79195   0.43654   4.45199
  -2.03195   0.43654   4.45199
  -2.03195   0.43654   4.45199
  -2.27195   0.43654   4.45199
  -2.27195   0.43654   4.45199
  -2.75195   0.67654   4.45199
  -2.75195   0.67654   4.45199
  -2.99195   0.43654   4.69199
  -2.99195   0.43654   4.69199
  -3.23195   0.67654   4.69199
  -3.23195   0.67654   4.69199
  -3.47195   0.43654   4.69199
  -3.71195   0.43654   4.69199
  -3.71195   0.43654   4.45199
  -3.95195   0.43654   4.45199
  -3.95195   0.43654   4.45199
  -4.19195   0.19654   4.45199
  -4.19195   0.19654   4.45199
  -4.19195   0.19654   4.45199
  -4.43195   0.19654   4.21199
  -4.43195   0.19654   4.21199
  -4.66195  -0.04346   3.97199
  -4.66195  -0.28346   3.97199
  -4.66195  -0.28346   3.73199
  -4.66195  -0.52346   3.73199
  -4.90195  -0.52346   3.73199
  -4.90195  -0.52346   3.49199
  -4.90195  -0.52346   3.49199
  -5.14195  -0.52346   3.49199
  -5.14195  -0.76346   3.25199
  -5.38195  -0.76346   3.25199
  -5.38195  -0.76346   3.01199
  -5.38195  -0.76346   3.01199
  -5.62195  -1.00346   2.77199
  -5.62195  -1.00346   2.77199
  -5.62195  -1.00346   2.53199
  -5.62195  -1.00346   2.29199
  -5.62195  -1.24346   2.29199
  -5.62195  -1.24346   2.29199
  -5.62195  -1.24346   2.29199
  -5.86195  -1.24346   2.29199
  -5.86195  -1.24346   2.05199
  -5.86195  -1.24346   2.05199
  -5.86195  -1.48346   1.81199
  -5.62195  -1.48346   1.81199
  -5.62195  -1.48346   1.81199
  -5.86195  -1.48346   1.81199
  -5.86195  -1.48346   1.81199
  -5.86195  -1.71346   1.57199
  -5.86195  -1.71346   1.57199
  -5.86195  -1.71346   1.57199
  -5.86195  -1.48346   1.57199
  -6.10195  -1.48346   1.33199
  -6.10195  -1.24346   1.33199
  -6.10195  -1.00346   1.09199
  -5.86195  -1.24346   1.33199
  -5.86195  -1.24346   1.33199
  -5.86195  -1.48346   1.57199
  -6.10195  -1.24346   1.57199
  -6.10195  -1.00346   1.33199
  -6.10195  -0.76346   1.09199
  -6.10195  -0.52346   0.85199
  -6.10195  -0.28346   0.85199
  -6.10195  -0.52346   1.09199
  -5.86195  -0.76346   1.33199
  -6.10195  -0.52346   1.57199
  -6.10195  -0.28346   1.57199
  -6.10195  -0.28346   1.33199
  -5.86195  -0.52346   1.33199
  -5.86195  -0.76346   1.33199
  -5.86195  -0.76346   1.57199
  -5.86195  -0.52346   1.57199
  -5.62195  -0.52346   1.57199
  -5.62195  -0.52346   1.33199
  -5.62195  -0.28346   1.09199
  -5.62195  -0.28346   1.09199
  -5.38195  -0.28346   1.09199
  -5.38195  -0.28346   1.33199
  -5.14195  -0.28346   1.33199
  -5.14195  -0.52346   1.33199
  -5.14195  -0.52346   1.33199
  -5.14195  -0.52346   1.09199
  -4.90195  -0.52346   1.33199
  -4.90195  -0.28346   1.09199
  -4.66195  -0.28346   1.09199
  -4.66195  -0.52346   0.85199
  -4.66195  -0.28346   0.85199
  -4.43195  -0.28346   0.61199
  -4.19195  -0.28346   0.61199
  -4.19195  -0.28346   0.61199
  -3.95195  -0.28346   0.61199
  -3.95195  -0.28346   0.61199
  -3.95195  -0.28346   0.38199
  -3.95195  -0.28346   0.38199
  -3.95195  -0.28346   0.14199
  -3.71195  -0.28346   0.14199
  -3.71195  -0.28346  -0.09801
  -3.47195  -0.28346  -0.09801
  -3.23195  -0.28346  -0.33801
  -3.23195  -0.28346  -0.33801
  -2.99195  -0.52346  -0.33801
  -2.99195  -0.28346  -0.57801
  -2.75195  -0.28346  -0.57801
  -2.51195  -0.28346  -0.81801
  -2.51195  -0.28346  -0.81801
  -2.51195  -0.28346  -0.81801
  -2.51195  -0.28346  -0.81801
  -2.51195  -0.28346  -1.05801
  -2.27195  -0.52346  -1.29801
  -2.27195  -0.28346  -1.29801
  -2.27195  -0.28346  -1.53801
  -2.03195  -0.28346  -1.77801
  -2.03195  -0.28346  -1.77801
  -2.03195  -0.28346  -1.77801
  -1.79195  -0.28346  -2.01801
  -1.79195  -0.28346  -2.01801
  -1.55195  -0.28346  -2.01801
  -1.55195  -0.28346  -2.25801
  -1.55195  -0.28346  -2.25801
  -1.55195  -0.28346  -2.25801
  -1.55195  -0.28346  -2.25801
  -1.55195  -0.28346  -2.25801
  -1.55195  -0.04346  -2.49801
  -1.55195  -0.04346  -2.49801
  -1.55195   0.19654  -2.49801
  -1.55195   0.19654  -2.49801
  -1.31195  -0.04346  -2.49801
  -1.31195  -0.04346  -2.49801
  -1.07195  -0.04346  -2.49801
  -1.07195   0.19654  -2.49801
  -1.07195   0.19654  -2.73801
  -1.31195   0.43654  -2.73801
  -1.31195   0.67654  -2.73801
  -1.31195   0.67654  -2.73801
  -1.31195   0.67654  -2.73801
  -1.31195   0.67654  -2.73801
  -1.31195   0.67654  -2.73801
  -1.31195   0.67654  -2.73801
  -1.31195   0.67654  -2.73801
  -1.31195   0.67654  -2.73801
  -1.07195   0.91654  -2.97801
  -1.07195   0.91654  -2.97801
  -0.83195   1.15654  -2.97801
  -0.83195   0.91654  -2.97801
  -0.83195   0.91654  -2.97801
  -0.83195   1.15654  -2.97801
  -0.83195   0.91654  -2.97801
  -0.83195   1.15654  -2.97801
  -0.83195   1.87654  -3.21801
  -0.83195   2.11654  -3.45801
  -0.59195   1.63654  -3.21801
  -0.59195   1.15654  -2.73801
  -0.35195   0.91654  -2.73801
  -0.11195   1.15654  -2.73801
  -0.11195   1.39654  -2.73801
  -0.11195   1.39654  -2.97801
  -0.11195   1.15654  -3.21801
  -0.11195   1.15654  -3.21801
   0.12805   1.15654  -2.97801
   0.36805   1.15654  -2.97801
   0.36805   1.15654  -2.97801
   0.36805   0.91654  -2.97801
   0.36805   0.91654  -2.97801
   0.36805   0.91654  -2.97801
   0.36805   0.91654  -3.21801
   0.59805   0.91654  -3.21801
   0.59805   0.67654  -2.97801
   0.59805   0.67654  -2.97801
   0.59805   0.67654  -2.97801
   0.59805   0.67654  -2.97801
   0.83805   0.67654  -3.21801
   0.83805   0.43654  -3.21801
   0.83805   0.19654  -3.21801
   0.83805  -0.04346  -2.97801
   1.07805  -0.04346  -2.97801
   0.83805  -0.04346  -2.97801
   0.83805  -0.28346  -2.97801
   0.83805  -0.28346  -2.97801
   0.59805  -0.28346  -2.97801
   0.83805  -0.28346  -3.21801
   0.83805  -0.28346  -3.21801
   0.83805  -0.52346  -3.21801
   0.59805  -0.52346  -3.21801
   0.83805  -0.52346  -2.97801
   0.83805  -0.52346  -2.97801
   0.59805  -0.52346  -3.21801
   0.83805  -0.76346  -2.97801
   0.83805  -1.00346  -2.97801
   0.59805  -1.00346  -2.97801
   0.59805  -1.00346  -2.97801
   0.59805  -0.76346  -2.97801
   0.59805  -0.76346  -3.21801
   0.59805  -0.76346  -2.97801
   0.36805  -0.76346  -2.97801
   0.36805  -0.76346  -2.97801
   0.36805  -0.76346  -2.97801
   0.36805  -0.76346  -2.97801
   0.12805  -0.52346  -2.97801
   0.12805  -0.76346  -2.97801
   0.12805  -0.76346  -2.97801
   0.12805  -1.00346  -2.97801
  -0.11195  -0.76346  -2.97801
  -0.11195  -1.00346  -2.73801
  -0.11195  -1.00346  -2.73801
  -0.11195  -1.00346  -2.97801
  -0.35195  -1.00346  -2.97801
  -0.35195  -0.76346  -2.97801
  -0.35195  -0.76346  -2.97801
  -0.59195  -0.76346  -2.73801
  -0.59195  -0.76346  -2.73801
  -0.59195  -1.00346  -2.73801
  -0.59195  -1.00346  -2.49801
  -0.59195  -1.00346  -2.49801
  -0.59195  -1.00346  -2.49801
  -0.83195  -0.76346  -2.73801
  -0.83195  -0.52346  -2.73801
  -0.83195  -0.52346  -2.73801
  -0.83195  -0.52346  -2.73801
  -0.83195  -0.52346  -2.49801
  -0.83195  -0.76346  -2.25801
  -0.83195  -0.76346  -2.25801
  -0.83195  -0.52346  -2.25801
  -0.83195  -0.52346  -2.25801
  -1.07195  -0.76346  -2.25801
  -0.83195  -0.76346  -2.25801
  -0.83195  -0.76346  -2.01801
  -0.83195  -0.76346  -2.01801
  -0.59195  -0.76346  -2.01801
  -0.59195  -0.76346  -2.01801
  -0.83195  -0.76346  -1.77801
  -0.59195  -0.76346  -1.77801
  -0.59195  -0.76346  -1.77801
  -0.59195  -1.00346  -1.77801
  -0.35195  -1.00346  -1.77801
  -0.35195  -1.00346  -1.53801
  -0.35195  -1.00346  -1.29801
  -0.35195  -0.76346  -1.29801
  -0.35195  -0.76346  -1.29801
  -0.35195  -0.76346  -1.29801
  -0.35195  -0.76346  -1.29801
  -0.35195  -0.76346  -1.29801
  -0.11195  -0.76346  -1.29801
  -0.11195  -1.00346  -1.05801
   0.12805  -0.76346  -1.05801
  -0.11195  -0.76346  -0.81801
  -0.11195  -0.76346  -0.81801
   0.12805  -1.00346  -0.81801
   0.12805  -0.76346  -0.81801
   0.12805  -0.76346  -0.81801
   0.36805  -0.76346  -1.05801
   0.36805  -0.76346  -0.81801
   0.36805  -0.76346  -0.57801
   0.36805  -0.52346  -0.81801
   0.59805  -0.28346  -0.81801
   0.59805  -0.28346  -0.81801
   0.59805  -0.28346  -1.05801
   0.59805  -0.52346  -0.81801
   0.83805  -0.52346  -0.81801
   0.83805  -0.52346  -0.81801
   0.83805  -0.28346  -0.81801
   0.83805  -0.04346  -0.81801
   0.83805   0.19654  -1.05801
   0.83805  -0.04346  -1.05801
   1.07805  -0.28346  -1.05801
   1.07805  -0.28346  -1.05801
   1.31805  -0.28346  -1.05801
   1.31805  -0.28346  -1.05801
   1.31805  -0.04346  -1.29801
   1.31805  -0.04346  -1.29801
   1.31805  -0.04346  -1.53801
   1.31805  -0.04346  -1.53801
   1.31805   0.19654  -1.53801
   1.31805   0.19654  -1.77801
   1.31805   0.43654  -1.77801
   1.31805   0.43654  -2.01801
   1.31805   0.67654  -2.01801
   1.55805   0.67654  -2.01801
   1.55805   0.67654  -2.01801
   1.55805   0.91654  -2.25801
   1.55805   0.91654  -2.25801
   1.55805   0.91654  -2.25801
   1.55805   0.91654  -2.25801
   1.79805   0.91654  -2.01801
   1.79805   0.91654  -2.01801
   1.55805   1.15654  -2.25801
   1.79805   1.63654  -2.49801
   1.79805   1.63654  -2.73801
   1.79805   1.39654  -2.73801
   2.03805   1.15654  -2.73801
   2.03805   1.15654  -2.25801
   2.03805   1.63654  -2.49801
   2.27805   1.87654  -2.73801
   2.27805   1.63654  -2.49801
   2.27805   1.63654  -2.73801
   2.27805   1.63654  -2.49801
   2.27805   1.87654  -2.49801
   2.51805   1.87654  -2.49801
   2.99805   1.87654  -2.73801
   2.99805   1.63654  -2.49801
   3.23805   1.39654  -2.49801
   3.23805   1.63654  -2.49801
   3.23805   1.63654  -2.25801
   3.47805   1.63654  -2.25801
   3.47805   1.63654  -2.25801
   3.71805   1.63654  -2.25801
   3.95805   1.63654  -2.25801
   4.19805   1.87654  -2.49801
   4.19805   1.87654  -2.25801
   4.43805   1.87654  -2.25801
   4.67805   1.63654  -2.01801
   4.67805   1.39654  -2.01801
   4.67805   1.39654  -1.77801
   4.91805   1.63654  -1.77801
   5.15805   1.39654  -1.77801
   5.15805   1.39654  -1.77801
   5.38805   1.39654  -1.77801
   5.38805   1.63654  -1.53801
   5.62805   1.39654  -1.53801
   5.62805   1.15654  -1.29801
   5.86805   1.15654  -1.05801
   5.86805   0.91654  -1.05801
   5.86805   0.91654  -1.05801
   6.10805   0.91654  -1.05801
   6.10805   0.67654  -1.05801
   6.34805   0.67654  -0.81801
   6.34805   0.43654  -0.81801
   6.34805   0.67654  -0.57801
   6.34805   0.43654  -0.57801
   6.34805   0.43654  -0.33801
   6.34805   0.19654  -0.33801
   6.34805   0.19654  -0.33801
   6.58805   0.19654  -0.09801
   6.58805   0.19654  -0.09801
   6.58805  -0.04346   0.14199
   6.58805  -0.04346   0.14199
   6.58805  -0.04346   0.38199
   6.82805  -0.04346   0.38199
   6.82805  -0.04346   0.14199
   6.82805  -0.28346   0.14199
   6.82805  -0.28346   0.38199
   6.82805  -0.28346   0.38199
   6.82805  -0.28346   0.61199
   6.82805  -0.28346   0.61199
   6.82805  -0.28346   0.61199
   6.82805  -0.28346   0.61199
   6.82805  -0.28346   0.61199
   6.82805  -0.28346   0.61199
   6.82805  -0.52346   0.85199
   6.82805  -0.52346   1.09199
   6.82805  -0.28346   1.09199
   6.82805  -0.04346   1.09199
   6.82805   0.19654   0.85199
   6.82805   0.19654   0.38199
   6.82805  -0.28346   0.85199
   6.82805  -0.52346   1.09199
   6.58805  -0.28346   1.33199
   6.58805  -0.52346   1.33199
   6.58805  -0.76346   1.57199
   6.82805  -0.76346   1.33199
   6.58805  -0.76346   1.09199
   6.58805  -0.28346   1.09199
   6.34805  -0.52346   0.85199
   6.58805  -0.52346   1.09199
   6.58805  -0.52346   1.09199
   6.58805  -0.28346   1.09199
   6.34805  -0.28346   1.33199
   6.34805  -0.52346   1.33199
   6.34805  -0.52346   1.33199
   6.34805  -0.28346   1.33199
   6.34805  -0.28346   1.09199
   6.34805  -0.28346   0.85199
   6.34805  -0.28346   1.09199
   6.34805  -0.28346   1.09199
   6.34805  -0.28346   1.09199
   6.10805  -0.04346   1.09199
   6.10805   0.19654   0.85199
   6.10805   0.19654   0.85199
   6.10805   0.19654   0.61199
   6.10805   0.19654   0.85199
   6.10805  -0.04346   0.85199
   6.10805  -0.04346   0.85199
   6.10805  -0.04346   0.85199
   5.86805   0.19654   0.85199
   5.86805   0.19654   0.61199
   5.86805   0.19654   0.38199
   5.62805   0.43654   0.38199
   5.62805   0.43654   0.38199
   5.62805   0.19654   0.61199
   5.62805   0.19654   0.61199
   5.38805   0.43654   0.85199
   5.38805   0.43654   0.61199
   5.15805   0.67654   0.38199
   5.15805   0.67654   0.38199
   5.15805   0.67654   0.14199
   4.91805   0.43654   0.14199
   4.91805   0.67654   0.38199
   4.67805   0.67654   0.38199
   4.43805   0.43654   0.38199
   4.43805   0.43654   0.38199
   4.19805   0.91654   0.14199
   3.95805   0.91654   0.14199
   3.95805   0.91654   0.14199
   3.95805   0.67654   0.14199
   3.71805   0.91654   0.38199
   3.47805   0.67654   0.61199
   3.47805   0.67654   0.61199
   3.23805   0.67654   0.61199
   3.23805   0.67654   0.61199
   2.99805   0.67654   0.61199
   2.99805   0.91654   0.61199
   2.75805   0.91654   0.61199
   2.75805   1.15654   0.61199
   2.51805   0.91654   0.85199
   2.51805   0.91654   0.85199
   2.27805   0.91654   1.09199
   2.27805   0.91654   1.09199
   2.03805   1.15654   0.85199
   2.03805   1.39654   0.85199
   2.03805   1.15654   0.85199
   1.79805   1.15654   1.09199
   1.79805   0.91654   1.09199
   1.79805   0.91654   1.33199
   1.79805   0.67654   1.33199
   1.79805   0.67654   1.33199
   1.55805   0.67654   1.33199
   1.31805   1.15654   1.33199
   1.31805   1.15654   1.09199
   1.07805   1.15654   1.09199
   1.07805   0.67654   1.33199
   1.07805   0.43654   1.57199
   1.07805   0.67654   1.81199
   1.07805   0.67654   1.57199
   1.07805   0.67654   1.57199
   0.83805   0.67654   1.57199
   0.59805   0.67654   1.57199
   0.59805   0.67654   1.81199
   0.59805   0.67654   1.81199
   0.59805   0.43654   1.81199
   0.59805   0.43654   1.81199
   0.59805   0.19654   2.05199
   0.36805   0.43654   2.05199
   0.36805   0.43654   2.29199
   0.12805   0.19654   2.29199
   0.12805  -0.04346   2.29199
   0.12805  -0.28346   2.29199
   0.12805  -0.04346   2.05199
   0.12805  -0.04346   2.29199
  -0.11195  -0.04346   2.29199
  -0.35195  -0.28346   2.29199
  -0.35195  -0.28346   2.29199
  -0.59195  -0.28346   2.53199
  -0.59195  -0.28346   2.53199
  -0.59195  -0.28346   2.53199
  -0.83195  -0.28346   2.53199
  -0.83195  -0.28346   2.77199
  -1.07195  -0.52346   2.77199
  -1.07195  -0.52346   3.01199
  -1.31195  -0.52346   3.01199
  -1.31195  -0.28346   2.77199
  -1.55195  -0.28346   2.77199
  -1.55195  -0.52346   2.77199
  -1.79195  -0.52346   3.01199
  -1.79195  -0.52346   3.25199
  -2.03195  -0.52346   3.49199
  -2.27195  -0.28346   3.25199
  -2.51195  -0.28346   3.25199
  -2.51195  -0.52346   3.25199
  -2.51195  -0.52346   3.49199
  -2.75195  -0.76346   3.73199
  -2.75195  -0.76346   3.97199
  -2.99195  -0.52346   3.97199
  -3.23195  -0.52346   3.97199
  -3.23195  -0.52346   3.97199
  -3.47195  -0.52346   3.97199
  -3.71195  -0.52346   4.21199
  -3.95195  -0.52346   4.21199
  -3.95195  -0.76346   4.45199
  -3.95195  -0.52346   4.45199
  -4.19195  -0.28346   4.45199
  -4.19195  -0.28346   4.45199
  -4.43195  -0.28346   4.21199
  -4.43195  -0.28346   4.45199
  -4.43195  -0.28346   4.69199
  -4.66195  -0.28346   4.69199
  -4.90195  -0.28346   4.93199
  -4.90195  -0.28346   4.93199
