********************************************************************************
              CENTRO DE INSTRUMENTACION Y REGISTRO SISMICO  A.C.

    Anaxagoras 814, Col. Narvarte, Benito Juarez, C.P. 03020 Mexico, D.F.
           Tels. 5687 45 42/ 5687 45  82             Fax. 5669 25 12
********************************************************************************
ARCHIVO ESTANDAR DE ACELERACION:
VERSION DEL FORMATO                    : 2.0
NOMBRE DEL ARCHIVO                     : BA4920081020050052
FECHA Y HORA DE CREACION               : 20/OCT/08, 02:04
REF. CATALOGO ACELEROGRAMAS, SMIS 1996 : REGISTRO No.     /PAG.


================================================================================
DATOS DE LA ESTACION:
NOMBRE DE LA ESTACION                  : BUENOS AIRES
CLAVE DE LA ESTACION                   : BA49
LOCALIZACION DE LA ESTACION            : Del. Cuauhtémoc, Col. Doctores,        
                                       : Av. Lázaro Cárdenas esq. con           
                                       : Calle Dr. Márquez.                     
                                       :                                        
                                       : 
COORDENADAS DE LA ESTACION             : 19.4097 LAT. N
                                       : 99.1450 LONG. W
ALTITUD (msnm)                         : 2233
TIPO DE SUELO                          : Terreno blando, material compresible
                                       : (arcillas)                
                                       : 
INSTITUCION RESPONSABLE                : CIRES
                                       : 

================================================================================
DATOS DEL ACELEROGRAFO:
MODELO DEL ACELEROGRAFO                : RADESD
NUMERO DE SERIE DEL ACELEROGRAFO       : 176
NUMERO DE CANALES                      : 3
ORIENTACION C1-C6 (rumbo;orientacion)  : /N00E/+V/N90W
ORIENTACION C7-C12 (rumbo;orientacion) : 
VEL. DE MUESTREO, C1-C6 (muestras/s)   : /100/100/100
VEL. DE MUESTREO, C7-C12 (muestras/s)  : 
ESC. COMPLETA DE SENSORES, C1-C6, (g)  : /0.5/0.5/0.5
ESC. COMPLETA DE SENSORES, C7-C12, (g) : 
FREC. NAT. DE SENSORES, C1-C6, (Hz)    : /52.99/52.03/52.99
FREC. NAT. DE SENSORES, C7-C12, (Hz)   : 
AMORTIGUAMIENTO DE SENSORES, C1-C6     : /0.5589/0.5469/0.6096
AMORTIGUAMIENTO DE SENSORES, C7-C12    : 
INTERVALO DE MUESTREO, C1-C6, (s)      : /0.01/0.01/0.01
INTERVALO DE MUESTREO, C7-C12, (s)     : 
UMBRAL DE DISPARO, C1-C6, (Gal)        : /0.96/1.92/0.96
UMBRAL DE DISPARO, C7-C12, (Gal)       : 
MEMORIA DE PREEVENTO (s)               : 56.0
TIEMPO DE POSEVENTO (s)                : 64.0


================================================================================
DATOS DEL SISMO:
FECHA DEL SISMO (GMT)                  : 20/OCT/08
HORA EPICENTRO (GMT)                   : 05:00:52.0
MAGNITUD(ES)                           : /Mc=5.1
COORDENADAS DEL EPICENTRO              : 17.25 LAT. N
                                       : 102.09 LONG. W
PROFUNDIDAD FOCAL (km)                 : 25
FUENTE DE LOS DATOS EPICENTRALES       : SSN
                                       : INSTITUTO DE GEOFISICA, UNAM

================================================================================
DATOS DE ESTE REGISTRO:
HORA DE LA PRIMERA MUESTRA (GMT)       : 05:03:00.00
EXACTITUD DEL TIEMPO (s)               : 0.01
DURACION DEL REGISTRO (s), C1-C6       : /120.0/120.0/120.0
DURACION DEL REGISTRO (s), C7-C12      : 
NUM. TOTAL DE MUESTRAS, C1-C6          : /12000/12000/12000
NUM. TOTAL DE MUESTRAS, C7-C12         : 
ACEL. MAX. (Gal), C1-C6                : /1.25568/0.72868/1.52197
ACEL. MAX., C1-C6, EN LA MUESTRA       : /3957/3971/5580
ACEL. MAX. (Gal), C7-C12               : 
ACEL. MAX., C7-C12, EN LA MUESTRA      : 
UNIDADES DE LOS DATOS                  : Gal (cm/s/s)
FACTOR DE DECIMACION                   : 1
FORMATO DATOS (FORTRAN,10 campos/dato) : 3F10.5


================================================================================
CALIDAD DEL ACELEROGRAMA:
REGISTRO DIGITAL COMPLETO CON TIEMPO ABSOLUTO CORRECTO.


================================================================================
COMENTARIOS:














================================================================================
DATOS DE ACELERACION:
---------+---------+---------+---------+---------+---------+---------+---------+
   CANAL-1   CANAL-2   CANAL-3   CANAL-4   CANAL-5   CANAL-6   CANAL-7   CANAL-8
      N00E        +V      N90W
---------+---------+---------+---------+---------+---------+---------+---------+
[...]
  -0.29800  -0.24983  -0.15397
  -0.29800  -0.24983  -0.15397
  -0.05858  -0.24983  -0.15397
  -0.29800  -0.24983  -0.15397
  -0.29800  -0.48926  -0.15397
  -0.05858  -0.24983   0.08545
  -0.29800  -0.48926   0.08545
  -0.05858  -0.01041   0.08545
  -0.05858  -0.24983   0.08545
  -0.05858  -0.24983   0.08545
  -0.05858  -0.24983   0.08545
  -0.05858  -0.24983   0.32487
  -0.05858  -0.24983   0.08545
  -0.05858  -0.01041   0.08545
  -0.05858  -0.24983   0.08545
   0.18084  -0.01041   0.08545
   0.18084  -0.01041   0.32487
   0.18084  -0.01041   0.32487
   0.18084   0.22901   0.32487
   0.18084  -0.01041   0.08545
   0.18084  -0.01041   0.08545
   0.18084   0.22901   0.08545
   0.42026   0.22901   0.08545
   0.42026   0.22901   0.08545
   0.42026   0.22901   0.08545
   0.42026   0.22901   0.08545
   0.18084   0.22901   0.32487
   0.42026   0.22901   0.32487
   0.18084   0.22901   0.32487
   0.42026   0.46843   0.32487
   0.42026   0.22901   0.08545
   0.42026   0.46843   0.32487
   0.42026   0.22901   0.32487
   0.42026   0.22901   0.32487
   0.42026   0.22901   0.32487
   0.42026   0.46843   0.32487
   0.42026   0.22901   0.32487
   0.42026   0.22901   0.32487
   0.42026   0.22901   0.08545
   0.42026   0.22901   0.08545
   0.42026   0.22901   0.08545
   0.18084   0.46843   0.08545
   0.42026   0.22901   0.08545
   0.42026   0.22901   0.08545
   0.18084   0.22901   0.08545
   0.42026   0.22901   0.32487
   0.42026   0.22901   0.08545
   0.42026   0.22901   0.08545
   0.42026   0.22901   0.08545
   0.42026  -0.01041   0.08545
   0.42026  -0.01041   0.08545
   0.42026   0.22901   0.32487
   0.18084  -0.01041   0.32487
   0.42026  -0.01041   0.32487
   0.42026  -0.01041   0.32487
   0.42026  -0.01041   0.32487
   0.42026   0.22901   0.32487
   0.42026  -0.01041   0.56429
   0.42026  -0.01041   0.56429
   0.42026  -0.01041   0.32487
   0.42026  -0.01041   0.56429
   0.42026  -0.01041   0.32487
   0.42026  -0.01041   0.56429
   0.42026  -0.01041   0.56429
   0.18084  -0.01041   0.32487
   0.18084  -0.01041   0.56429
   0.18084  -0.01041   0.56429
   0.18084  -0.01041   0.32487
   0.18084  -0.01041   0.32487
   0.18084   0.22901   0.56429
   0.18084  -0.01041   0.56429
   0.18084  -0.01041   0.32487
   0.18084  -0.01041   0.56429
   0.18084  -0.01041   0.56429
  -0.29800  -0.01041   0.56429
   0.18084  -0.01041   0.32487
  -0.05858  -0.24983   0.56429
  -0.05858  -0.24983   0.56429
  -0.05858  -0.01041   0.32487
  -0.05858  -0.01041   0.32487
  -0.05858  -0.01041   0.56429
  -0.05858  -0.01041   0.32487
  -0.05858  -0.24983   0.32487
  -0.05858  -0.24983   0.56429
  -0.05858  -0.24983   0.56429
  -0.05858  -0.24983   0.32487
  -0.05858  -0.24983   0.32487
   0.18084  -0.01041   0.32487
   0.18084  -0.24983   0.32487
   0.18084  -0.01041   0.32487
   0.18084  -0.24983   0.08545
   0.18084  -0.01041   0.32487
   0.18084  -0.24983   0.08545
   0.18084  -0.01041   0.08545
   0.18084  -0.24983  -0.15397
   0.18084  -0.24983  -0.15397
   0.18084  -0.01041   0.08545
   0.18084  -0.01041  -0.15397
  -0.05858  -0.01041   0.08545
   0.18084   0.22901  -0.15397
   0.18084  -0.01041  -0.15397
   0.18084  -0.01041  -0.15397
   0.18084   0.22901  -0.15397
  -0.05858  -0.01041  -0.15397
  -0.05858  -0.01041  -0.15397
  -0.05858  -0.01041  -0.15397
  -0.05858  -0.01041  -0.15397
  -0.05858  -0.01041  -0.15397
  -0.29800  -0.01041  -0.39339
  -0.05858  -0.01041  -0.15397
  -0.29800  -0.24983  -0.15397
  -0.29800  -0.24983  -0.15397
  -0.29800  -0.01041  -0.15397
  -0.29800  -0.24983  -0.15397
  -0.29800  -0.01041  -0.15397
  -0.29800  -0.24983  -0.15397
  -0.29800  -0.24983  -0.15397
  -0.29800  -0.24983  -0.15397
  -0.29800  -0.01041  -0.15397
  -0.29800  -0.24983  -0.15397
  -0.05858  -0.24983  -0.15397
  -0.29800  -0.24983  -0.15397
  -0.05858  -0.24983  -0.15397
  -0.05858  -0.24983  -0.15397
   0.18084  -0.24983  -0.15397
   0.18084  -0.48926   0.08545
   0.18084  -0.24983  -0.15397
   0.18084  -0.24983  -0.15397
   0.18084  -0.24983  -0.15397
  -0.05858  -0.48926  -0.15397
   0.18084  -0.24983  -0.15397
   0.18084  -0.24983  -0.39339
   0.18084  -0.24983  -0.15397
  -0.05858  -0.24983  -0.39339
   0.18084  -0.24983  -0.15397
   0.18084  -0.01041  -0.15397
   0.18084  -0.01041  -0.39339
   0.18084  -0.01041  -0.39339
   0.18084  -0.24983  -0.39339
   0.18084  -0.24983  -0.39339
  -0.05858  -0.01041  -0.39339
  -0.05858  -0.24983  -0.39339
  -0.05858  -0.24983  -0.39339
  -0.05858  -0.01041  -0.39339
  -0.05858  -0.01041  -0.39339
  -0.29800  -0.01041  -0.63281
  -0.05858   0.22901  -0.39339
  -0.29800   0.22901  -0.39339
  -0.29800  -0.24983  -0.63281
  -0.29800   0.22901  -0.39339
  -0.29800  -0.01041  -0.63281
  -0.29800  -0.01041  -0.63281
  -0.29800  -0.01041  -0.63281
  -0.29800   0.22901  -0.87223
  -0.29800   0.22901  -0.87223
  -0.29800   0.22901  -0.87223
  -0.53742   0.22901  -0.87223
  -0.29800   0.22901  -0.87223
  -0.29800   0.22901  -0.63281
  -0.53742   0.22901  -0.87223
  -0.29800   0.22901  -0.87223
  -0.29800   0.22901  -0.87223
  -0.29800   0.22901  -0.87223
  -0.29800   0.22901  -0.87223
  -0.29800   0.22901  -0.87223
  -0.29800   0.22901  -0.87223
  -0.53742   0.22901  -0.63281
  -0.29800  -0.01041  -0.63281
  -0.53742   0.22901  -0.63281
  -0.29800   0.22901  -0.63281
  -0.53742  -0.01041  -0.63281
  -0.53742   0.22901  -0.39339
  -0.53742   0.22901  -0.39339
  -0.29800   0.22901  -0.39339
  -0.53742  -0.01041  -0.39339
  -0.53742   0.22901  -0.15397
  -0.53742  -0.01041  -0.15397
  -0.53742  -0.01041  -0.15397
  -0.53742   0.22901  -0.15397
  -0.53742   0.22901  -0.15397
  -0.53742   0.22901  -0.15397
  -0.53742  -0.01041   0.08545
  -0.77684   0.22901   0.08545
  -0.53742   0.22901   0.08545
  -0.53742   0.22901   0.08545
  -0.53742  -0.01041   0.08545
  -0.53742   0.22901   0.08545
  -0.53742   0.22901   0.32487
  -0.53742   0.22901   0.08545
  -0.29800   0.22901   0.08545
  -0.29800   0.22901   0.08545
  -0.29800  -0.01041   0.08545
  -0.29800  -0.01041   0.08545
  -0.29800   0.22901   0.32487
  -0.29800   0.22901   0.08545
  -0.05858   0.22901   0.32487
  -0.29800  -0.01041   0.32487
  -0.05858  -0.01041   0.32487
  -0.05858  -0.01041   0.32487
  -0.05858   0.22901   0.08545
   0.18084  -0.01041   0.32487
  -0.05858  -0.01041   0.32487
   0.18084   0.22901   0.32487
   0.42026  -0.01041   0.32487
   0.18084  -0.01041   0.56429
   0.42026  -0.01041   0.56429
   0.18084  -0.01041   0.32487
   0.42026  -0.01041   0.56429
   0.18084  -0.01041   0.56429
   0.18084  -0.01041   0.32487
   0.42026  -0.01041   0.56429
   0.18084  -0.01041   0.56429
   0.42026  -0.01041   0.32487
   0.18084  -0.24983   0.56429
   0.18084  -0.01041   0.56429
   0.18084  -0.01041   0.56429
   0.18084  -0.01041   0.56429
   0.18084   0.22901   0.56429
   0.18084   0.22901   0.32487
   0.18084  -0.01041   0.32487
   0.18084   0.22901   0.32487
   0.18084   0.22901   0.56429
  -0.05858   0.22901   0.32487
   0.18084   0.22901   0.32487
  -0.05858  -0.01041   0.32487
   0.18084   0.22901   0.32487
  -0.05858   0.22901   0.32487
  -0.05858  -0.01041   0.32487
  -0.05858  -0.01041   0.32487
   0.18084  -0.01041   0.32487
  -0.05858  -0.01041   0.32487
   0.18084  -0.24983   0.32487
  -0.05858  -0.24983   0.08545
   0.18084  -0.01041   0.32487
   0.18084  -0.01041   0.32487
   0.18084  -0.24983   0.32487
   0.18084  -0.24983   0.32487
   0.18084  -0.24983   0.32487
   0.18084  -0.01041   0.08545
   0.18084  -0.01041   0.32487
   0.18084  -0.24983   0.08545
   0.42026  -0.24983   0.32487
   0.18084  -0.01041   0.08545
   0.42026  -0.01041   0.08545
   0.42026  -0.01041   0.08545
   0.42026  -0.01041   0.08545
   0.42026  -0.24983   0.08545
   0.42026  -0.01041   0.08545
   0.42026  -0.01041   0.08545
   0.42026  -0.01041   0.08545
   0.42026  -0.01041   0.08545
   0.42026  -0.01041   0.08545
   0.42026  -0.24983   0.08545
   0.42026   0.22901   0.08545
   0.42026  -0.01041   0.08545
   0.42026  -0.01041  -0.15397
   0.42026  -0.01041   0.08545
   0.42026  -0.01041  -0.15397
   0.42026  -0.01041   0.08545
   0.42026  -0.24983   0.08545
   0.18084  -0.24983   0.08545
   0.42026   0.22901  -0.15397
   0.18084  -0.24983   0.08545
   0.42026  -0.01041  -0.15397
   0.42026  -0.01041   0.08545
   0.42026   0.22901   0.08545
   0.42026  -0.01041  -0.15397
   0.42026  -0.24983  -0.15397
   0.42026  -0.01041   0.08545
   0.42026  -0.01041   0.08545
   0.42026  -0.24983   0.08545
   0.42026  -0.01041   0.08545
   0.42026  -0.24983   0.08545
   0.65968  -0.24983   0.08545
   0.42026  -0.01041   0.08545
   0.65968  -0.24983   0.08545
   0.42026  -0.01041   0.08545
   0.65968  -0.01041   0.08545
   0.65968  -0.01041   0.32487
   0.65968  -0.24983   0.08545
   0.65968  -0.01041   0.08545
   0.65968  -0.01041   0.32487
   0.65968  -0.01041   0.32487
   0.65968  -0.01041   0.08545
   0.65968  -0.01041   0.32487
   0.65968  -0.01041   0.08545
   0.65968   0.22901   0.32487
   0.65968  -0.01041   0.32487
   0.65968  -0.01041   0.32487
   0.65968  -0.01041   0.56429
   0.65968  -0.01041   0.56429
   0.65968  -0.01041   0.56429
   0.65968  -0.01041   0.56429
   0.65968   0.22901   0.56429
   0.42026  -0.01041   0.56429
   0.65968   0.22901   0.56429
   0.65968   0.22901   0.56429
   0.65968   0.22901   0.56429
   0.65968  -0.01041   0.80371
   0.65968   0.22901   0.56429
   0.42026   0.22901   0.56429
   0.42026  -0.01041   0.56429
   0.65968  -0.01041   0.56429
   0.42026   0.22901   0.56429
   0.42026  -0.01041   0.56429
   0.42026   0.22901   0.32487
   0.18084  -0.01041   0.56429
   0.42026   0.22901   0.32487
   0.42026  -0.01041   0.56429
   0.42026  -0.01041   0.32487
   0.18084  -0.01041   0.32487
   0.18084  -0.01041   0.08545
   0.18084  -0.24983   0.08545
   0.18084  -0.01041   0.08545
   0.18084  -0.01041   0.08545
   0.18084  -0.01041   0.08545
  -0.05858  -0.01041  -0.15397
  -0.05858  -0.01041  -0.15397
  -0.05858  -0.01041  -0.15397
  -0.29800  -0.24983  -0.15397
  -0.29800  -0.01041  -0.15397
  -0.29800  -0.24983  -0.15397
  -0.29800  -0.01041  -0.15397
  -0.53742  -0.24983  -0.39339
  -0.53742  -0.24983  -0.39339
  -0.77684  -0.01041  -0.39339
  -0.77684  -0.01041  -0.39339
  -0.77684  -0.24983  -0.39339
  -0.77684  -0.24983  -0.63281
  -0.77684  -0.01041  -0.63281
  -0.77684  -0.01041  -0.63281
  -1.01626  -0.01041  -0.63281
  -1.01626  -0.01041  -0.63281
  -1.01626  -0.24983  -0.63281
  -1.01626  -0.01041  -0.87223
  -1.25568  -0.01041  -0.87223
  -1.25568  -0.01041  -0.87223
  -1.25568  -0.01041  -0.87223
  -1.01626  -0.01041  -1.11165
  -1.25568  -0.01041  -0.87223
  -1.25568  -0.01041  -0.87223
  -1.01626  -0.01041  -1.11165
  -1.25568  -0.01041  -0.87223
  -1.01626  -0.01041  -1.11165
  -1.01626  -0.01041  -0.87223
  -1.01626  -0.24983  -1.11165
  -1.01626  -0.01041  -1.35107
  -1.01626  -0.01041  -1.11165
  -1.01626  -0.01041  -1.11165
  -0.77684  -0.01041  -1.11165
  -0.77684  -0.24983  -1.11165
  -0.77684  -0.01041  -0.87223
  -0.77684  -0.01041  -1.11165
  -0.53742  -0.24983  -0.87223
  -0.53742  -0.01041  -0.87223
  -0.53742  -0.24983  -0.87223
  -0.53742  -0.24983  -0.87223
  -0.53742  -0.24983  -0.87223
  -0.53742  -0.24983  -1.11165
  -0.53742  -0.48926  -0.87223
  -0.53742  -0.24983  -0.87223
  -0.53742  -0.24983  -0.63281
  -0.53742  -0.24983  -0.87223
  -0.53742  -0.01041  -0.63281
  -0.53742  -0.24983  -0.63281
  -0.29800  -0.01041  -0.63281
  -0.29800  -0.01041  -0.63281
  -0.29800  -0.01041  -0.63281
  -0.29800  -0.01041  -0.63281
  -0.29800  -0.01041  -0.63281
  -0.29800  -0.01041  -0.63281
  -0.29800  -0.01041  -0.39339
  -0.29800  -0.01041  -0.63281
  -0.29800  -0.01041  -0.39339
  -0.05858  -0.01041  -0.39339
  -0.29800  -0.01041  -0.39339
  -0.05858  -0.01041  -0.39339
  -0.05858  -0.01041  -0.15397
   0.18084   0.22901  -0.15397
   0.18084  -0.01041  -0.15397
   0.18084  -0.01041  -0.15397
   0.18084   0.22901  -0.15397
   0.18084  -0.01041   0.08545
   0.18084  -0.01041  -0.15397
   0.18084   0.22901  -0.15397
   0.18084  -0.01041   0.08545
   0.18084  -0.01041   0.08545
   0.18084  -0.01041   0.08545
   0.18084   0.22901   0.08545
  -0.05858   0.22901   0.08545
   0.18084   0.22901   0.32487
  -0.05858   0.22901   0.08545
   0.18084  -0.01041   0.32487
   0.18084   0.22901   0.32487
  -0.05858   0.22901   0.32487
   0.18084   0.22901   0.32487
  -0.05858   0.22901   0.32487
  -0.05858   0.46843   0.32487
  -0.05858   0.22901   0.56429
  -0.05858   0.22901   0.56429
  -0.05858   0.22901   0.32487
  -0.05858   0.46843   0.56429
  -0.05858   0.22901   0.56429
  -0.29800  -0.01041   0.56429
  -0.05858   0.22901   0.56429
  -0.05858   0.22901   0.56429
  -0.05858   0.22901   0.56429
  -0.05858   0.22901   0.56429
  -0.05858   0.22901   0.80371
  -0.05858  -0.01041   0.56429
  -0.29800   0.22901   0.56429
   0.18084  -0.01041   0.56429
  -0.05858  -0.01041   0.56429
   0.18084  -0.01041   0.56429
   0.18084  -0.24983   0.56429
   0.18084  -0.01041   0.56429
   0.18084  -0.24983   0.56429
   0.18084  -0.24983   0.56429
   0.18084  -0.01041   0.32487
   0.18084  -0.24983   0.32487
   0.18084  -0.24983   0.32487
   0.18084  -0.01041   0.08545
   0.18084  -0.01041   0.32487
   0.42026  -0.01041   0.08545
   0.18084  -0.01041   0.08545
   0.18084  -0.01041   0.08545
   0.18084  -0.01041   0.08545
   0.18084  -0.01041   0.08545
   0.18084  -0.01041   0.08545
  -0.05858   0.22901   0.08545
  -0.05858   0.22901   0.08545
  -0.05858   0.22901   0.08545
  -0.05858  -0.01041  -0.15397
  -0.05858   0.22901  -0.15397
  -0.05858   0.22901  -0.15397
  -0.05858   0.22901   0.08545
  -0.05858   0.22901   0.08545
  -0.29800   0.22901   0.08545
  -0.29800   0.22901   0.08545
  -0.05858   0.22901   0.08545
  -0.29800   0.22901   0.08545
  -0.29800   0.22901   0.08545
  -0.29800   0.22901   0.08545
  -0.29800   0.22901   0.08545
  -0.29800  -0.01041   0.08545
  -0.29800  -0.01041   0.08545
  -0.29800   0.22901   0.32487
  -0.05858  -0.01041   0.08545
  -0.05858  -0.48926   0.08545
  -0.05858  -0.01041   0.32487
  -0.05858  -0.01041   0.32487
  -0.05858  -0.24983   0.32487
  -0.05858  -0.24983   0.32487
  -0.05858  -0.24983   0.32487
  -0.05858  -0.24983   0.32487
   0.18084  -0.01041   0.56429
   0.18084  -0.24983   0.32487
   0.18084  -0.01041   0.56429
   0.18084  -0.24983   0.32487
   0.18084  -0.24983   0.56429
   0.18084  -0.24983   0.32487
   0.18084  -0.48926   0.32487
   0.42026  -0.48926   0.32487
   0.18084  -0.24983   0.56429
   0.18084  -0.01041   0.56429
   0.42026  -0.24983   0.56429
   0.18084  -0.24983   0.56429
   0.18084  -0.24983   0.56429
   0.42026  -0.24983   0.56429
   0.42026  -0.24983   0.56429
   0.42026  -0.01041   0.32487
   0.42026  -0.01041   0.80371
   0.18084  -0.24983   0.56429
   0.65968  -0.01041   0.56429
   0.65968  -0.01041   0.80371
   0.65968  -0.01041   0.56429
   0.65968  -0.01041   0.80371
   0.65968  -0.24983   0.80371
   0.65968  -0.01041   0.80371
   0.65968  -0.01041   0.56429
   0.65968  -0.01041   0.56429
   0.65968  -0.01041   0.56429
   0.65968  -0.01041   0.80371
   0.65968  -0.01041   0.56429
   0.65968  -0.01041   0.56429
   0.65968  -0.01041   0.80371
   0.65968  -0.01041   0.56429
   0.65968   0.22901   0.80371
   0.65968  -0.01041   0.56429
   0.42026  -0.01041   0.56429
   0.42026  -0.01041   0.56429
   0.42026  -0.01041   0.56429
   0.18084   0.22901   0.32487
   0.42026   0.22901   0.32487
   0.18084  -0.01041   0.56429
   0.18084  -0.01041   0.56429
