********************************************************************************
               CENTRO DE INSTRUMENTACION Y REGISTRO SISMICO  A.C.  
                       Coordinacion de Servicios Tecnicos
     Anaxagoras 814, Col. Narvarte, Benito Juarez, C.P. 03020 Mexico, D.F.
            Tels. 667 45 42/ 687 45  82             Fax. 669 25 12
********************************************************************************
ARCHIVO ESTANDAR DE ACELERACION:
VERSION DEL FORMATO                    : 2.0
NOMBRE DEL ARCHIVO                     : BA499705.221
FECHA Y HORA DE CREACION               : 18/MAR/98, 13:30
REF. CATALOGO ACELEROGRAMAS, SMIS 1996 : REGISTRO No.     /PAG.


================================================================================
DATOS DE LA ESTACION:
NOMBRE DE LA ESTACION                  : BUENOS AIRES
CLAVE DE LA ESTACION                   : BA49
LOCALIZACION DE LA ESTACION            : ESCUELA SECUNDARIA 102, DOCTOR MARQUEZ
                                       : Y EJE CENTRAL, BUENOS AIRES.
                                       :
                                       :
                                       :
COORDENADAS DE LA ESTACION             : 19.410 LAT. N 
                                       : 99.145 LONG. W 
ALTITUD (msnm)                         : 2233
TIPO DE SUELO                          : TERRENO BLANDO, MATERIAL COMPRESIBLE
                                       : (ARCILLAS)
                                       : 
INSTITUCION RESPONSABLE                : CIRES 
                                       :

================================================================================
DATOS DEL ACELEROGRAFO:
MODELO DEL ACELEROGRAFO                : SSA-1
NUMERO DE SERIE DEL ACELEROGRAFO       : 176
NUMERO DE CANALES                      : 3
ORIENTACION C1-C6 (rumbo;orientacion)  : /N00E/+V/N90E
ORIENTACION C7-C12 (rumbo;orientacion) :
VEL. DE MUESTREO, C1-C6 (muestras/s)   : /200/200/200
VEL. DE MUESTREO, C7-C12 (muestras/s)  :
ESC. COMPLETA DE SENSORES, C1-C6, (g)  : /2/2/2
ESC. COMPLETA DE SENSORES, C7-C12, (g) :
FREC. NAT. DE SENSORES, C1-C6, (Hz)    : /52.99/52.03/52.99
FREC. NAT. DE SENSORES, C7-C12, (Hz)   :
AMORTIGUAMIENTO DE SENSORES, C1-C6     : /.5589/.5469/.6096
AMORTIGUAMIENTO DE SENSORES, C7-C12    :
INTERVALO DE MUESTREO, C1-C6, (s)      : /0.005/0.005/0.005
INTERVALO DE MUESTREO, C7-C12, (s)     :
UMBRAL DE DISPARO, C1-C6, (Gal)        : /2/2/2
UMBRAL DE DISPARO, C7-C12, (Gal)       :
MEMORIA DE PREEVENTO (s)               : 15
TIEMPO DE POSEVENTO (s)                : 60


================================================================================
DATOS DEL SISMO:
FECHA DEL SISMO (GMT)                  : 22/MAY/97
HORA EPICENTRO (GMT)                   : 07:50:55:7
MAGNITUD(ES)                           : /Ms=6.0
COORDENADAS DEL EPICENTRO              : 18.4 LAT. N
                                       : 101.8 LONG. W
PROFUNDIDAD FOCAL (km)                 : 59.0
FUENTE DE LOS DATOS EPICENTRALES       : SSN
                                       : INSTITUTO DE GEOFISICA, UNAM

================================================================================
DATOS DE ESTE REGISTRO:
HORA DE LA PRIMERA MUESTRA (GMT)       : 07:52:13.00
EXACTITUD DEL TIEMPO (s)               :     
DURACION DEL REGISTRO (s), C1-C6       : /177.92/177.92/177.92
DURACION DEL REGISTRO (s), C7-C12      :
NUM. TOTAL DE MUESTRAS, C1-C6          : /35584/35584/35584
NUM. TOTAL DE MUESTRAS, C7-C12         :
ACEL. MAX. (Gal), C1-C6                : /9.86963/3.36036/10.80731
ACEL. MAX., C1-C6, EN LA MUESTRA       :
ACEL. MAX. (Gal), C7-C12               :
ACEL. MAX., C7-C12, EN LA MUESTRA      :
UNIDADES DE LOS DATOS                  : Gal (cm/s/s)
FACTOR DE DECIMACION                   : 1
FORMATO DATOS (FORTRAN,10 campos/dato) : 3F10.5


================================================================================
CALIDAD DEL ACELEROGRAMA:
REGISTRO DIGITAL COMPLETO, CARECE DE TIEMPO ABSOLUTO.


================================================================================
COMENTARIOS:














================================================================================
DATOS DE ACELERACION:
---------+---------+---------+---------+---------+---------+---------+---------+
   CANAL-1   CANAL-2   CANAL-3   CANAL-4   CANAL-5   CANAL-6   CANAL-7   CANAL-8
      N00E        +V      N90E
---------+---------+---------+---------+---------+---------+---------+---------+
[...]
  -1.39037   0.96036  -5.71269
  -1.39037   0.96036  -5.95269
  -1.39037   0.96036  -5.95269
  -1.63037   0.96036  -6.19269
  -1.63037   0.96036  -6.19269
  -1.63037   1.20036  -6.19269
  -1.63037   0.96036  -6.19269
  -1.87037   0.96036  -6.19269
  -1.87037   0.96036  -6.19269
  -2.11037   0.96036  -6.19269
  -2.11037   0.96036  -6.19269
  -2.11037   0.72036  -6.19269
  -2.35037   0.72036  -6.43269
  -2.35037   0.72036  -6.43269
  -2.35037   0.48036  -6.19269
  -2.59037   0.48036  -6.43269
  -2.59037   0.48036  -6.43269
  -2.59037   0.48036  -6.43269
  -2.83037   0.24036  -6.67269
  -2.83037   0.24036  -6.43269
  -2.83037   0.24036  -6.43269
  -3.06037   0.24036  -6.43269
  -3.06037   0.24036  -6.43269
  -3.06037   0.24036  -6.43269
  -3.06037   0.24036  -6.67269
  -3.06037   0.24036  -6.43269
  -3.06037   0.24036  -6.67269
  -3.30037   0.24036  -6.67269
  -3.30037   0.24036  -6.43269
  -3.30037   0.24036  -6.43269
  -3.30037   0.00036  -6.43269
  -3.30037   0.00036  -6.43269
  -3.06037   0.00036  -6.67269
  -3.30037  -0.23964  -6.67269
  -3.30037  -0.23964  -6.43269
  -3.30037  -0.23964  -6.43269
  -3.30037  -0.23964  -6.67269
  -3.30037  -0.46964  -6.43269
  -3.54037  -0.46964  -6.67269
  -3.54037  -0.46964  -6.67269
  -3.54037  -0.46964  -6.67269
  -3.54037  -0.46964  -6.67269
  -3.54037  -0.70964  -6.43269
  -3.54037  -0.70964  -6.67269
  -3.54037  -0.70964  -6.43269
  -3.54037  -0.70964  -6.67269
  -3.54037  -0.70964  -6.67269
  -3.54037  -0.70964  -6.91269
  -3.54037  -0.70964  -6.67269
  -3.54037  -0.70964  -6.67269
  -3.54037  -0.94964  -6.67269
  -3.54037  -0.94964  -6.67269
  -3.54037  -0.94964  -6.67269
  -3.54037  -0.94964  -6.67269
  -3.54037  -0.94964  -6.67269
  -3.54037  -0.94964  -6.67269
  -3.54037  -0.94964  -6.67269
  -3.30037  -0.94964  -6.67269
  -3.54037  -0.94964  -6.67269
  -3.30037  -0.94964  -6.67269
  -3.30037  -0.70964  -6.67269
  -3.30037  -0.94964  -6.67269
  -3.30037  -0.70964  -6.67269
  -3.30037  -0.70964  -6.67269
  -3.30037  -0.70964  -6.67269
  -3.30037  -0.94964  -6.67269
  -3.30037  -0.70964  -6.67269
  -3.06037  -0.70964  -6.67269
  -3.30037  -0.70964  -6.91269
  -3.06037  -0.46964  -6.67269
  -3.06037  -0.46964  -6.67269
  -3.06037  -0.46964  -6.67269
  -2.83037  -0.46964  -6.67269
  -2.83037  -0.46964  -6.43269
  -2.83037  -0.23964  -6.43269
  -2.83037  -0.23964  -6.67269
  -2.59037  -0.23964  -6.43269
  -2.59037  -0.23964  -6.43269
  -2.59037  -0.23964  -6.43269
  -2.59037  -0.23964  -6.19269
  -2.59037   0.00036  -6.19269
  -2.35037   0.00036  -6.19269
  -2.35037   0.00036  -6.19269
  -2.35037   0.00036  -6.19269
  -2.35037   0.00036  -6.19269
  -2.35037   0.00036  -5.95269
  -2.35037   0.00036  -5.95269
  -2.11037   0.00036  -5.95269
  -2.11037   0.00036  -5.95269
  -2.11037   0.00036  -5.71269
  -2.11037   0.00036  -5.71269
  -2.11037   0.00036  -5.71269
  -2.11037   0.00036  -5.71269
  -1.87037   0.00036  -5.47269
  -1.87037   0.24036  -5.47269
  -1.87037   0.24036  -5.47269
  -1.63037   0.24036  -5.23269
  -1.63037   0.24036  -5.23269
  -1.63037   0.48036  -4.99269
  -1.63037   0.48036  -4.75269
  -1.63037   0.48036  -4.75269
  -1.39037   0.48036  -4.75269
  -1.39037   0.48036  -4.51269
  -1.39037   0.72036  -4.51269
  -1.39037   0.72036  -4.28269
  -1.15037   0.72036  -4.28269
  -1.15037   0.72036  -4.04269
  -1.15037   0.72036  -4.04269
  -1.15037   0.72036  -3.80269
  -1.15037   0.48036  -3.80269
  -1.15037   0.72036  -3.56269
  -0.91037   0.72036  -3.32269
  -0.91037   0.48036  -3.32269
  -0.91037   0.48036  -3.32269
  -0.91037   0.48036  -3.08269
  -0.91037   0.48036  -3.08269
  -0.91037   0.72036  -2.84269
  -0.91037   0.72036  -2.60269
  -0.91037   0.72036  -2.60269
  -0.91037   0.72036  -2.36269
  -0.67037   0.72036  -2.36269
  -0.67037   0.72036  -2.36269
  -0.67037   0.72036  -2.12269
  -0.67037   0.72036  -2.12269
  -0.67037   0.96036  -2.12269
  -0.67037   0.72036  -1.88269
  -0.43037   0.96036  -1.88269
  -0.67037   0.96036  -1.88269
  -0.67037   0.96036  -1.64269
  -0.43037   0.96036  -1.64269
  -0.43037   0.72036  -1.64269
  -0.43037   0.72036  -1.64269
  -0.43037   0.72036  -1.40269
  -0.43037   0.72036  -1.40269
  -0.43037   0.72036  -1.40269
  -0.43037   0.72036  -1.16269
  -0.43037   0.72036  -1.16269
  -0.43037   0.72036  -1.16269
  -0.19037   0.72036  -0.92269
  -0.43037   0.72036  -0.92269
  -0.19037   0.72036  -0.92269
  -0.19037   0.72036  -0.92269
  -0.19037   0.72036  -0.92269
  -0.19037   0.72036  -0.92269
  -0.19037   0.72036  -0.92269
  -0.19037   0.72036  -0.68269
  -0.19037   0.72036  -0.68269
  -0.19037   0.72036  -0.68269
  -0.19037   0.48036  -0.68269
  -0.19037   0.48036  -0.68269
   0.04963   0.48036  -0.68269
   0.04963   0.48036  -0.68269
   0.04963   0.48036  -0.68269
   0.04963   0.48036  -0.68269
   0.04963   0.24036  -0.68269
   0.04963   0.24036  -0.68269
   0.28963   0.24036  -0.68269
   0.28963   0.24036  -0.68269
   0.28963   0.24036  -0.68269
   0.28963   0.24036  -0.44269
   0.28963   0.24036  -0.44269
   0.28963   0.24036  -0.68269
   0.28963   0.24036  -0.68269
   0.28963   0.24036  -0.44269
   0.28963   0.24036  -0.68269
   0.28963   0.24036  -0.68269
   0.28963   0.24036  -0.68269
   0.28963   0.24036  -0.68269
   0.28963   0.24036  -0.68269
   0.52963   0.24036  -0.68269
   0.52963   0.24036  -0.68269
   0.52963   0.00036  -0.92269
   0.52963   0.00036  -0.68269
   0.52963   0.00036  -0.68269
   0.52963   0.00036  -0.68269
   0.52963   0.00036  -0.68269
   0.52963   0.00036  -0.92269
   0.52963   0.00036  -0.68269
   0.52963   0.00036  -0.92269
   0.52963   0.00036  -0.92269
   0.52963   0.00036  -0.92269
   0.52963   0.00036  -0.92269
   0.52963   0.00036  -0.92269
   0.28963   0.00036  -0.92269
   0.28963  -0.23964  -0.92269
   0.28963   0.00036  -0.92269
   0.28963   0.00036  -0.92269
   0.28963   0.00036  -0.92269
   0.04963   0.00036  -1.16269
   0.04963   0.00036  -1.16269
   0.04963   0.24036  -1.16269
   0.04963   0.24036  -1.40269
  -0.19037   0.24036  -1.40269
  -0.19037   0.24036  -1.40269
  -0.19037   0.24036  -1.40269
  -0.19037   0.24036  -1.40269
  -0.43037   0.48036  -1.64269
  -0.43037   0.48036  -1.40269
  -0.67037   0.48036  -1.40269
  -0.67037   0.48036  -1.64269
  -0.67037   0.72036  -1.64269
  -0.67037   0.72036  -1.64269
  -0.91037   0.72036  -1.64269
  -0.91037   0.72036  -1.64269
  -1.15037   0.96036  -1.64269
  -1.15037   0.96036  -1.88269
  -1.15037   0.96036  -1.64269
  -1.15037   0.96036  -1.88269
  -1.15037   0.96036  -1.88269
  -1.39037   0.96036  -1.88269
  -1.15037   0.96036  -1.88269
  -1.39037   0.96036  -1.88269
  -1.39037   1.20036  -1.88269
  -1.39037   0.96036  -1.88269
  -1.39037   0.96036  -1.88269
  -1.39037   0.96036  -2.12269
  -1.39037   0.96036  -2.12269
  -1.39037   0.96036  -2.12269
  -1.39037   0.96036  -2.12269
  -1.39037   0.96036  -1.88269
  -1.39037   0.72036  -2.12269
  -1.63037   0.72036  -2.12269
  -1.63037   0.72036  -1.88269
  -1.63037   0.72036  -1.88269
  -1.63037   0.48036  -2.12269
  -1.63037   0.48036  -1.88269
  -1.63037   0.48036  -1.88269
  -1.87037   0.48036  -1.88269
  -1.87037   0.48036  -1.64269
  -1.87037   0.24036  -1.64269
  -1.87037   0.24036  -1.64269
  -1.87037   0.24036  -1.64269
  -2.11037   0.24036  -1.64269
  -2.11037   0.24036  -1.64269
  -2.11037   0.24036  -1.64269
  -2.11037   0.24036  -1.64269
  -2.11037   0.24036  -1.64269
  -2.11037   0.24036  -1.40269
  -2.11037   0.24036  -1.40269
  -2.11037   0.24036  -1.16269
  -2.11037   0.24036  -1.16269
  -2.35037   0.24036  -1.16269
  -2.35037   0.24036  -0.92269
  -2.35037   0.24036  -0.92269
  -2.35037   0.24036  -0.92269
  -2.35037   0.24036  -0.92269
  -2.59037   0.24036  -0.68269
  -2.35037   0.24036  -0.68269
  -2.59037   0.24036  -0.44269
  -2.59037   0.24036  -0.20269
  -2.59037   0.24036  -0.20269
  -2.35037   0.24036  -0.20269
  -2.35037   0.24036  -0.20269
  -2.35037   0.24036   0.03731
  -2.35037   0.24036   0.27731
  -2.35037   0.24036   0.27731
  -2.35037   0.24036   0.51731
  -2.35037   0.24036   0.51731
  -2.35037   0.24036   0.74731
  -2.11037   0.24036   0.74731
  -2.11037   0.24036   0.98731
  -2.11037   0.24036   0.98731
  -2.11037   0.24036   1.46731
  -2.11037   0.24036   1.46731
  -2.11037   0.24036   1.46731
  -1.87037   0.24036   1.70731
  -1.87037   0.24036   1.70731
  -1.87037   0.24036   1.94731
  -1.63037   0.24036   2.18731
  -1.63037   0.24036   2.42731
  -1.39037   0.24036   2.42731
  -1.39037   0.24036   2.42731
  -1.15037   0.00036   2.66731
  -1.15037   0.00036   2.66731
  -1.15037   0.00036   2.90731
  -0.91037   0.00036   2.90731
  -0.67037   0.00036   3.14731
  -0.67037  -0.23964   3.14731
  -0.43037  -0.23964   3.38731
  -0.19037  -0.23964   3.38731
  -0.19037  -0.23964   3.62731
   0.04963  -0.23964   3.62731
   0.28963  -0.46964   3.62731
   0.28963  -0.46964   3.86731
   0.52963  -0.46964   3.86731
   0.76963  -0.46964   3.86731
   0.76963  -0.70964   4.10731
   1.00963  -0.46964   4.10731
   1.24963  -0.70964   4.34731
   1.24963  -0.70964   4.34731
   1.48963  -0.70964   4.58731
   1.72963  -0.70964   4.58731
   1.72963  -0.70964   4.82731
   1.96963  -0.70964   4.82731
   1.96963  -0.70964   4.82731
   2.19963  -0.70964   4.82731
   2.43963  -0.94964   5.06731
   2.43963  -0.94964   5.06731
   2.67963  -0.94964   5.06731
   2.67963  -0.94964   5.30731
   2.67963  -0.94964   5.30731
   2.67963  -1.18964   5.30731
   2.91963  -1.18964   5.53731
   2.91963  -1.18964   5.53731
   2.91963  -1.18964   5.53731
   3.15963  -1.18964   5.77731
   3.15963  -1.18964   5.77731
   3.15963  -1.18964   6.01731
   3.15963  -1.18964   5.77731
   3.39963  -1.42964   6.01731
   3.39963  -1.18964   6.25731
   3.39963  -1.18964   6.25731
   3.39963  -1.18964   6.25731
   3.39963  -1.18964   6.73731
   3.39963  -1.18964   6.97731
   3.39963  -1.18964   8.17731
   3.39963  -1.18964   8.89731
   3.63963  -1.18964   9.37731
   3.63963  -1.18964   9.37731
   3.63963  -1.18964   9.13731
   3.63963  -0.94964   9.37731
   3.63963  -0.94964   9.37731
   3.39963  -0.70964   9.37731
   3.63963  -0.70964   9.61731
   3.63963  -0.46964   9.61731
   3.63963  -0.46964   9.85731
   3.87963  -0.23964   9.85731
   3.87963  -0.23964   9.85731
   3.87963   0.00036  10.09731
   4.11963   0.00036  10.09731
   4.11963   0.24036  10.09731
   4.11963   0.24036  10.09731
   4.11963   0.24036  10.09731
   4.35963   0.48036  10.32731
   4.35963   0.48036  10.32731
   4.35963   0.48036  10.32731
   4.35963   0.48036  10.09731
   4.59963   0.48036  10.32731
   4.59963   0.48036  10.32731
   4.59963   0.48036  10.56731
   4.83963   0.48036  10.32731
   4.83963   0.48036  10.56731
   4.83963   0.48036  10.56731
   5.07963   0.48036  10.56731
   5.07963   0.24036  10.56731
   5.07963   0.48036  10.56731
   5.31963   0.48036  10.56731
   5.31963   0.48036  10.56731
   5.31963   0.48036  10.80731
   5.55963   0.48036  10.80731
   5.55963   0.48036  10.80731
   5.55963   0.48036  10.80731
   5.55963   0.48036  10.80731
   5.55963   0.48036  10.80731
   5.79963   0.48036  10.80731
   5.79963   0.48036  10.80731
   5.79963   0.24036  10.80731
   5.79963   0.24036  10.80731
   5.79963   0.24036  10.80731
   6.03963   0.24036  10.80731
   5.79963   0.24036  10.80731
   6.03963   0.00036  10.80731
   6.03963   0.00036  10.80731
   6.03963   0.00036  10.80731
   6.03963  -0.23964  10.56731
   6.03963  -0.23964  10.56731
   5.79963  -0.23964  10.56731
   5.79963  -0.23964  10.32731
   5.79963  -0.23964  10.32731
   5.79963  -0.23964  10.32731
   5.79963  -0.23964  10.32731
   5.79963  -0.23964  10.09731
   5.55963  -0.23964   9.85731
   5.55963  -0.23964   9.85731
   5.55963  -0.23964   9.85731
   5.55963  -0.23964   9.61731
   5.31963  -0.23964   9.61731
   5.31963  -0.23964   9.37731
   5.31963  -0.23964   9.13731
   5.31963  -0.23964   8.89731
   5.07963   0.00036   8.65731
   5.07963   0.00036   8.65731
   5.07963   0.00036   8.41731
   4.83963   0.00036   8.17731
   4.83963   0.00036   8.17731
   4.83963   0.00036   7.93731
   4.83963   0.00036   7.69731
   4.59963   0.00036   7.45731
   4.59963   0.24036   7.21731
   4.59963   0.24036   7.21731
   4.59963   0.24036   6.97731
   4.35963   0.24036   6.73731
   4.35963   0.24036   6.49731
   4.35963   0.24036   6.49731
   4.35963   0.48036   6.25731
   4.35963   0.48036   6.01731
   4.35963   0.48036   6.01731
   4.35963   0.48036   5.77731
   4.11963   0.48036   5.53731
   4.11963   0.48036   5.30731
   4.11963   0.48036   5.30731
   4.11963   0.48036   5.06731
   4.11963   0.48036   4.82731
   4.11963   0.48036   4.82731
   4.11963   0.48036   4.58731
   4.11963   0.48036   4.58731
   4.11963   0.48036   4.34731
   4.11963   0.48036   4.10731
   4.11963   0.48036   4.10731
   3.87963   0.48036   3.86731
   3.87963   0.48036   3.86731
   3.87963   0.48036   3.62731
   3.87963   0.72036   3.38731
   3.63963   0.72036   3.14731
   3.63963   0.48036   3.14731
   3.63963   0.72036   3.14731
   3.63963   0.48036   2.90731
   3.63963   0.48036   2.66731
   3.39963   0.48036   2.66731
   3.39963   0.48036   2.42731
   3.39963   0.48036   2.18731
   3.39963   0.48036   2.18731
   3.15963   0.24036   1.94731
   3.15963   0.48036   1.70731
   2.91963   0.48036   1.70731
   2.91963   0.48036   1.46731
   2.67963   0.48036   1.46731
   2.67963   0.48036   1.22731
   2.43963   0.24036   0.98731
   2.43963   0.48036   0.98731
   2.19963   0.48036   0.74731
   2.19963   0.48036   0.74731
   1.96963   0.48036   0.51731
   1.72963   0.48036   0.51731
   1.72963   0.48036   0.27731
   1.48963   0.48036   0.03731
   1.48963   0.48036   0.03731
   1.24963   0.48036   0.03731
   1.24963   0.48036  -0.20269
   1.00963   0.48036  -0.20269
   0.76963   0.48036  -0.44269
   0.76963   0.48036  -0.68269
   0.52963   0.48036  -0.68269
   0.52963   0.48036  -1.16269
   0.28963   0.48036  -1.16269
   0.04963   0.72036  -1.16269
   0.28963   0.72036  -1.40269
   0.04963   0.72036  -1.64269
  -0.19037   0.72036  -1.64269
  -0.19037   0.96036  -1.88269
  -0.19037   0.96036  -2.12269
  -0.43037   0.96036  -2.12269
  -0.43037   0.96036  -2.12269
  -0.67037   0.96036  -2.12269
  -0.67037   0.96036  -2.36269
  -0.91037   0.96036  -2.60269
  -0.91037   0.96036  -2.60269
  -1.15037   0.96036  -2.60269
  -1.15037   0.96036  -2.84269
  -1.15037   0.96036  -2.84269
  -1.39037   0.96036  -2.84269
  -1.39037   0.96036  -3.08269
  -1.39037   0.72036  -3.08269
  -1.39037   0.72036  -3.32269
  -1.39037   0.72036  -3.08269
  -1.39037   0.72036  -3.08269
  -1.63037   0.72036  -3.08269
  -1.63037   0.72036  -3.32269
  -1.63037   0.48036  -3.32269
  -1.63037   0.48036  -3.32269
  -1.63037   0.48036  -3.32269
  -1.87037   0.48036  -3.32269
  -1.87037   0.48036  -3.32269
  -1.87037   0.48036  -3.32269
  -1.87037   0.48036  -3.32269
  -1.87037   0.24036  -3.56269
  -2.11037   0.24036  -3.32269
  -1.87037   0.00036  -3.32269
  -2.11037   0.00036  -3.32269
  -2.11037  -0.23964  -3.32269
  -2.11037  -0.23964  -3.32269
  -2.11037  -0.46964  -3.32269
  -2.11037  -0.46964  -3.32269
  -2.11037  -0.70964  -3.32269
  -2.11037  -0.70964  -3.08269
  -2.11037  -0.70964  -3.08269
  -2.11037  -0.94964  -2.84269
  -2.11037  -0.94964  -2.84269
  -2.11037  -0.94964  -2.84269
  -2.11037  -0.94964  -2.84269
  -2.35037  -0.94964  -2.84269
  -2.35037  -0.94964  -2.84269
  -2.35037  -0.94964  -2.60269
  -2.35037  -0.94964  -2.36269
  -2.35037  -0.94964  -2.36269
  -2.35037  -1.18964  -2.36269
  -2.35037  -1.18964  -2.12269
  -2.35037  -1.18964  -2.12269
  -2.35037  -1.18964  -2.12269
