********************************************************************************
              CENTRO DE INSTRUMENTACION Y REGISTRO SISMICO  A.C.                

    Anaxagoras 814, Col. Narvarte, Benito Juarez, C.P. 03020 Mexico, D.F.       
           Tels. 5687 45 42/ 5687 45  82             Fax. 5669 25 12            
********************************************************************************
ARCHIVO ESTANDAR DE ACELERACION:
VERSION DEL FORMATO                    : 2.0
NOMBRE DEL ARCHIVO                     : BA4920070413054222
FECHA Y HORA DE CREACION               : 24/ABR/07, 13:02
REF. CATALOGO ACELEROGRAMAS, SMIS 1996 : REGISTRO No.     /PAG.


================================================================================
DATOS DE LA ESTACION:
NOMBRE DE LA ESTACION                  : BUENOS AIRES
CLAVE DE LA ESTACION                   : BA49
LOCALIZACION DE LA ESTACION            : Del. Cuauhtémoc, Col. Doctores,        
                                       : Av. Lázaro Cárdenas esq. con           
                                       : Calle Dr. Márquez.                     
                                       :                                        
                                       : 
COORDENADAS DE LA ESTACION             : 19.4097 LAT. N
                                       : 99.1450 LONG. W
ALTITUD (msnm)                         : 2233
TIPO DE SUELO                          : Terreno blando, material compresible
                                       : (arcillas)                
                                       : 
INSTITUCION RESPONSABLE                : CIRES


================================================================================
DATOS DEL ACELEROGRAFO:
MODELO DEL ACELEROGRAFO                : SSA-1
NUMERO DE SERIE DEL ACELEROGRAFO       : 176
NUMERO DE CANALES                      : 3
ORIENTACION C1-C6 (rumbo;orientacion)  : /N00E/+V/N90W
ORIENTACION C7-C12 (rumbo;orientacion) : 
VEL. DE MUESTREO, C1-C6 (muestras/s)   : /200/200/200
VEL. DE MUESTREO, C7-C12 (muestras/s)  : 
ESC. COMPLETA DE SENSORES, C1-C6, (g)  : /2.0/2.0/2.0
ESC. COMPLETA DE SENSORES, C7-C12, (g) : 
FREC. NAT. DE SENSORES, C1-C6, (Hz)    : /52.99/52.03/52.99
FREC. NAT. DE SENSORES, C7-C12, (Hz)   : 
AMORTIGUAMIENTO DE SENSORES, C1-C6     : /0.5589/0.5469/0.6096
AMORTIGUAMIENTO DE SENSORES, C7-C12    : 
INTERVALO DE MUESTREO, C1-C6, (s)      : /0.005/0.005/0.005
INTERVALO DE MUESTREO, C7-C12, (s)     : 
UMBRAL DE DISPARO, C1-C6, (Gal)        : /1.5/2.0/1.0
UMBRAL DE DISPARO, C7-C12, (Gal)       : 
MEMORIA DE PREEVENTO (s)               : 15.36
TIEMPO DE POSEVENTO (s)                : 60.0


================================================================================
DATOS DEL SISMO:
FECHA DEL SISMO (GMT)                  : 13/ABR/07
HORA EPICENTRO (GMT)                   : 05:42:22.0
MAGNITUD(ES)                           : /Me=6.3
COORDENADAS DEL EPICENTRO              : 17.09 LAT. N
                                       : -100.44 LONG. W
PROFUNDIDAD FOCAL (km)                 : 41
FUENTE DE LOS DATOS EPICENTRALES       : SSN
                                       : INSTITUTO DE GEOFISICA, UNAM

================================================================================
DATOS DE ESTE REGISTRO:
HORA DE LA PRIMERA MUESTRA (GMT)       : 5:43:19.82
EXACTITUD DEL TIEMPO (s)               : 0.005
DURACION DEL REGISTRO (s), C1-C6       : /284.16/284.16/284.16
DURACION DEL REGISTRO (s), C7-C12      : 
NUM. TOTAL DE MUESTRAS, C1-C6          : /56832/56832/56832
NUM. TOTAL DE MUESTRAS, C7-C12         : 
ACEL. MAX. (Gal), C1-C6                : /13.64695/4.54898/11.01333
ACEL. MAX., C1-C6, EN LA MUESTRA       : /10087/10251/8435
ACEL. MAX. (Gal), C7-C12               : 
ACEL. MAX., C7-C12, EN LA MUESTRA      : 
UNIDADES DE LOS DATOS                  : Gal (cm/s/s)
FACTOR DE DECIMACION                   : 1
FORMATO DATOS (FORTRAN,10 campos/dato) : 3F10.5


================================================================================
CALIDAD DEL ACELEROGRAMA:
REGISTRO DIGITAL COMPLETO CON TIEMPO ABSOLUTO CORRECTO.


================================================================================
COMENTARIOS:














================================================================================
DATOS DE ACELERACION:
---------+---------+---------+---------+---------+---------+---------+---------+
   CANAL-1   CANAL-2   CANAL-3   CANAL-4   CANAL-5   CANAL-6   CANAL-7   CANAL-8
      N00E        +V      N90W
---------+---------+---------+---------+---------+---------+---------+---------+
[...]
  -2.63362   3.35188  -2.87304
  -3.11246   3.11246  -2.87304
  -3.35188   3.11246  -3.11246
  -3.59130   3.11246  -3.11246
  -4.07014   2.87304  -3.11246
  -4.30956   2.87304  -3.35188
  -4.30956   2.87304  -3.35188
  -4.78840   2.63362  -3.35188
  -5.02782   2.63362  -3.59130
  -5.26724   2.63362  -3.59130
  -5.26724   2.63362  -3.83072
  -5.50666   2.39420  -3.59130
  -5.74608   2.39420  -3.59130
  -5.74608   2.15478  -3.83072
  -5.98550   2.15478  -4.07014
  -5.98550   2.15478  -3.83072
  -5.98550   1.91536  -4.07014
  -6.22492   1.91536  -4.07014
  -6.22492   1.67594  -4.30956
  -6.22492   1.43652  -4.30956
  -6.22492   1.19710  -4.30956
  -6.22492   0.95768  -4.07014
  -6.46434   0.71826  -4.30956
  -6.46434   0.47884  -4.30956
  -6.46434   0.23942  -4.54898
  -6.46434  -0.23942  -4.54898
  -6.46434  -0.47884  -4.54898
  -6.46434  -0.71826  -4.54898
  -6.70376  -0.95768  -4.54898
  -6.70376  -1.19710  -4.54898
  -6.70376  -1.43652  -4.54898
  -6.70376  -1.67594  -4.54898
  -6.70376  -1.91536  -4.54898
  -6.70376  -1.91536  -4.54898
  -6.70376  -2.15478  -4.54898
  -6.94318  -2.15478  -4.54898
  -6.94318  -2.39420  -4.30956
  -6.94318  -2.39420  -4.07014
  -7.18260  -2.39420  -4.07014
  -7.18260  -2.39420  -4.07014
  -7.42203  -2.39420  -4.07014
  -7.42203  -2.39420  -3.83072
  -7.66145  -2.39420  -3.83072
  -7.66145  -2.39420  -3.59130
  -7.90087  -2.39420  -3.59130
  -7.90087  -2.39420  -3.35188
  -8.14029  -2.39420  -3.35188
  -8.14029  -2.39420  -3.11246
  -8.37971  -2.39420  -3.11246
  -8.37971  -2.39420  -2.87304
  -8.61913  -2.39420  -2.63362
  -8.85855  -2.63362  -2.63362
  -8.85855  -2.63362  -2.39420
  -8.85855  -2.63362  -2.15478
  -9.09797  -2.39420  -1.91536
  -9.33739  -2.63362  -1.67594
  -9.33739  -2.63362  -1.67594
  -9.33739  -2.63362  -1.43652
  -9.57681  -2.39420  -0.95768
  -9.57681  -2.63362  -0.95768
  -9.81623  -2.39420  -0.71826
  -9.81623  -2.39420  -0.47884
 -10.05565  -2.63362   0.00000
 -10.05565  -2.39420   0.00000
 -10.29507  -2.39420   0.23942
 -10.29507  -2.39420   0.23942
 -10.29507  -2.39420   0.47884
 -10.53449  -2.39420   0.71826
 -10.53449  -2.39420   0.71826
 -10.53449  -2.39420   0.95768
 -10.77391  -2.39420   0.95768
 -10.77391  -2.39420   0.95768
 -10.77391  -2.39420   1.19710
 -11.01333  -2.15478   1.43652
 -11.01333  -2.15478   1.43652
 -11.01333  -2.15478   1.19710
 -11.01333  -2.15478   1.19710
 -11.25275  -2.15478   1.43652
 -11.25275  -2.15478   1.43652
 -11.25275  -2.15478   1.43652
 -11.49217  -2.15478   1.43652
 -11.49217  -2.15478   1.43652
 -11.49217  -2.15478   1.19710
 -11.73159  -1.91536   1.19710
 -11.73159  -1.91536   1.19710
 -11.73159  -1.91536   1.19710
 -11.73159  -1.91536   0.95768
 -11.97101  -1.91536   0.95768
 -11.97101  -1.91536   0.95768
 -11.97101  -1.91536   0.95768
 -11.97101  -1.91536   0.71826
 -12.21043  -1.67594   0.47884
 -12.21043  -1.67594   0.71826
 -12.21043  -1.67594   0.47884
 -12.44985  -1.67594   0.47884
 -12.44985  -1.67594   0.23942
 -12.68927  -1.67594   0.00000
 -12.68927  -1.43652   0.00000
 -12.92869  -1.43652   0.00000
 -12.92869  -1.43652  -0.23942
 -12.92869  -1.19710   0.00000
 -12.92869  -1.43652  -0.47884
 -12.92869  -1.19710  -0.47884
 -12.92869  -0.95768  -0.47884
 -12.92869  -0.95768  -0.71826
 -12.68927  -0.95768  -0.71826
 -12.68927  -0.71826  -0.95768
 -12.68927  -0.71826  -0.95768
 -12.44985  -0.71826  -0.95768
 -12.44985  -0.71826  -0.95768
 -12.21043  -0.71826  -0.95768
 -11.97101  -0.71826  -0.95768
 -11.97101  -0.71826  -0.95768
 -11.73159  -0.71826  -0.95768
 -11.49217  -0.95768  -0.95768
 -11.25275  -0.71826  -0.95768
 -11.01333  -0.95768  -0.95768
 -10.53449  -0.95768  -0.95768
 -10.29507  -0.95768  -0.95768
 -10.05565  -0.95768  -0.71826
  -9.57681  -0.95768  -0.95768
  -9.33739  -0.95768  -0.71826
  -8.85855  -0.95768  -0.71826
  -8.61913  -1.19710  -0.47884
  -8.14029  -1.19710  -0.71826
  -7.66145  -1.19710  -0.47884
  -7.18260  -1.43652  -0.47884
  -6.94318  -1.43652  -0.47884
  -6.46434  -1.43652  -0.47884
  -6.22492  -1.43652  -0.23942
  -5.74608  -1.67594   0.00000
  -5.26724  -1.67594   0.23942
  -4.78840  -1.91536   0.23942
  -4.30956  -1.91536   0.23942
  -3.83072  -2.15478   0.47884
  -3.35188  -2.15478   0.71826
  -2.87304  -2.39420   0.95768
  -2.63362  -2.39420   0.95768
  -2.15478  -2.39420   1.19710
  -1.67594  -2.63362   1.43652
  -1.43652  -2.63362   1.43652
  -0.95768  -2.87304   1.67594
  -0.47884  -2.87304   1.67594
  -0.23942  -2.87304   1.91536
   0.23942  -2.63362   2.15478
   0.47884  -2.63362   2.15478
   0.95768  -2.63362   2.39420
   1.19710  -2.63362   2.63362
   1.67594  -2.63362   2.63362
   1.91536  -2.63362   2.63362
   2.39420  -2.39420   2.63362
   2.87304  -2.39420   2.87304
   3.11246  -2.15478   2.87304
   3.59130  -2.15478   2.87304
   3.83072  -2.15478   2.87304
   4.07014  -1.91536   3.11246
   4.54898  -1.91536   2.87304
   4.78840  -1.91536   3.11246
   5.26724  -1.91536   3.11246
   5.50666  -1.67594   3.11246
   5.74608  -1.67594   3.11246
   5.98550  -1.43652   3.11246
   6.22492  -1.43652   3.11246
   6.70376  -1.43652   3.11246
   6.70376  -1.43652   3.11246
   6.94318  -1.19710   2.87304
   7.18260  -1.19710   2.87304
   7.42203  -0.95768   2.87304
   7.42203  -0.95768   2.63362
   7.66145  -0.71826   2.63362
   7.66145  -0.47884   2.63362
   7.66145  -0.47884   2.63362
   7.90087  -0.23942   2.63362
   7.90087   0.00000   2.39420
   7.90087   0.00000   2.15478
   8.14029   0.23942   1.91536
   8.14029   0.47884   1.91536
   8.14029   0.71826   1.91536
   8.14029   0.95768   1.67594
   8.14029   0.95768   1.43652
   8.37971   1.19710   1.43652
   8.37971   1.43652   1.43652
   8.37971   1.67594   0.95768
   8.37971   1.91536   0.95768
   8.37971   1.91536   0.95768
   8.37971   2.15478   0.71826
   8.37971   2.15478   0.47884
   8.37971   2.39420   0.47884
   8.14029   2.39420   0.00000
   8.14029   2.63362   0.00000
   8.14029   2.63362  -0.23942
   8.14029   2.87304  -0.23942
   8.14029   2.87304  -0.71826
   7.90087   2.87304  -0.95768
   7.90087   2.87304  -0.95768
   7.90087   3.11246  -1.19710
   7.90087   3.11246  -1.19710
   7.66145   3.11246  -1.43652
   7.66145   3.11246  -1.43652
   7.66145   3.11246  -1.67594
   7.42203   3.35188  -1.67594
   7.42203   3.35188  -1.91536
   7.18260   3.11246  -2.15478
   7.18260   3.35188  -2.39420
   6.94318   3.35188  -2.63362
   6.94318   3.35188  -2.63362
   6.70376   3.35188  -3.11246
   6.46434   3.35188  -3.11246
   6.22492   3.59130  -3.35188
   5.98550   3.59130  -3.59130
   5.50666   3.59130  -3.59130
   5.26724   3.59130  -3.83072
   5.02782   3.83072  -4.07014
   4.54898   3.83072  -4.30956
   4.30956   3.83072  -4.30956
   4.07014   3.83072  -4.30956
   3.59130   3.83072  -4.54898
   3.35188   3.83072  -4.78840
   2.87304   3.83072  -4.78840
   2.39420   3.83072  -4.78840
   2.15478   3.59130  -5.02782
   1.67594   3.59130  -5.02782
   1.19710   3.59130  -5.02782
   0.95768   3.59130  -5.02782
   0.47884   3.83072  -5.02782
   0.00000   3.59130  -5.26724
  -0.47884   3.59130  -5.26724
  -0.71826   3.59130  -5.50666
  -1.19710   3.59130  -5.26724
  -1.67594   3.59130  -5.02782
  -1.91536   3.59130  -5.26724
  -2.15478   3.35188  -5.02782
  -2.63362   3.35188  -5.02782
  -2.87304   3.35188  -5.02782
  -3.35188   3.35188  -4.78840
  -3.35188   3.11246  -5.02782
  -3.59130   3.11246  -4.78840
  -3.83072   2.87304  -4.78840
  -4.07014   2.87304  -5.02782
  -4.30956   2.87304  -4.54898
  -4.54898   2.87304  -4.54898
  -4.54898   2.87304  -4.30956
  -4.78840   2.63362  -4.30956
  -4.78840   2.63362  -4.07014
  -4.78840   2.39420  -4.07014
  -4.78840   2.39420  -3.83072
  -5.02782   2.39420  -3.59130
  -5.02782   2.15478  -3.35188
  -5.02782   2.15478  -3.35188
  -4.78840   1.91536  -3.35188
  -4.78840   1.91536  -3.11246
  -4.78840   1.67594  -2.87304
  -4.78840   1.67594  -2.63362
  -4.54898   1.43652  -2.39420
  -4.54898   1.19710  -2.15478
  -4.30956   0.95768  -2.15478
  -4.07014   0.95768  -1.67594
  -3.83072   0.71826  -1.67594
  -3.59130   0.47884  -1.43652
  -3.59130   0.47884  -1.19710
  -3.35188   0.23942  -0.71826
  -3.11246   0.00000  -0.71826
  -2.87304   0.00000  -0.23942
  -2.63362  -0.23942   0.00000
  -2.39420  -0.47884   0.00000
  -2.15478  -0.47884   0.23942
  -1.91536  -0.71826   0.47884
  -1.67594  -0.71826   0.95768
  -1.43652  -0.95768   0.95768
  -1.19710  -0.95768   1.19710
  -0.95768  -0.95768   1.43652
  -0.71826  -1.19710   1.67594
  -0.47884  -1.19710   1.91536
  -0.23942  -1.43652   1.91536
   0.00000  -1.43652   2.39420
   0.00000  -1.67594   2.39420
   0.23942  -1.67594   2.63362
   0.47884  -1.67594   2.87304
   0.71826  -1.91536   3.35188
   0.95768  -1.91536   3.59130
   1.19710  -1.91536   3.83072
   1.43652  -1.91536   4.07014
   1.43652  -2.15478   4.30956
   1.67594  -2.15478   4.30956
   1.91536  -2.39420   4.78840
   2.15478  -2.39420   4.78840
   2.15478  -2.39420   5.02782
   2.39420  -2.39420   5.26724
   2.63362  -2.39420   5.50666
   2.87304  -2.39420   5.74608
   2.87304  -2.39420   5.98550
   3.11246  -2.39420   6.22492
   3.35188  -2.39420   6.22492
   3.35188  -2.39420   6.46434
   3.59130  -2.15478   6.70376
   3.83072  -2.15478   6.70376
   4.07014  -2.15478   6.94318
   4.07014  -1.91536   7.18260
   4.30956  -1.91536   7.42203
   4.54898  -1.67594   7.66145
   4.78840  -1.67594   7.66145
   4.78840  -1.67594   7.90087
   5.02782  -1.43652   7.90087
   5.26724  -1.43652   8.37971
   5.50666  -1.43652   8.37971
   5.74608  -1.19710   8.61913
   5.98550  -1.19710   8.61913
   6.22492  -1.19710   8.85855
   6.46434  -0.95768   8.85855
   6.70376  -0.95768   8.85855
   6.94318  -0.95768   9.09797
   7.18260  -0.71826   9.09797
   7.42203  -0.71826   9.09797
   7.42203  -0.71826   9.33739
   7.66145  -0.47884   9.09797
   7.90087  -0.47884   9.09797
   8.14029  -0.47884   9.33739
   8.37971  -0.47884   9.33739
   8.61913  -0.23942   9.09797
   8.61913  -0.23942   9.33739
   8.85855  -0.23942   9.09797
   9.09797   0.00000   9.09797
   9.33739   0.00000   8.85855
   9.57681   0.00000   9.09797
   9.81623   0.00000   9.09797
  10.05565   0.00000   8.85855
  10.53449   0.00000   8.85855
  10.77391   0.23942   8.61913
  11.01333   0.23942   8.61913
  11.25275   0.23942   8.37971
  11.49217   0.23942   8.37971
  11.73159   0.23942   8.14029
  11.97101   0.23942   8.14029
  11.97101   0.47884   8.14029
  12.21043   0.23942   7.90087
  12.44985   0.47884   7.90087
  12.68927   0.47884   7.66145
  12.68927   0.47884   7.42203
  12.92869   0.47884   7.18260
  12.92869   0.71826   7.18260
  13.16811   0.71826   6.94318
  13.16811   0.71826   6.70376
  13.16811   0.95768   6.70376
  13.40753   0.95768   6.46434
  13.40753   0.95768   6.46434
  13.40753   0.95768   6.22492
  13.64695   0.95768   5.98550
  13.64695   0.95768   5.74608
  13.64695   0.95768   5.74608
  13.64695   0.95768   5.50666
  13.64695   0.95768   5.26724
  13.64695   1.19710   5.26724
  13.64695   1.19710   5.26724
  13.64695   1.19710   5.02782
  13.64695   1.19710   4.78840
  13.64695   1.19710   4.78840
  13.40753   0.95768   4.78840
  13.40753   0.95768   4.54898
  13.40753   0.95768   4.54898
  13.40753   0.95768   4.30956
  13.16811   0.95768   4.30956
  13.16811   0.95768   4.07014
  12.92869   1.19710   4.07014
  12.92869   0.95768   4.07014
  12.92869   1.19710   3.83072
  12.68927   1.19710   3.59130
  12.68927   1.19710   3.59130
  12.68927   1.19710   3.35188
  12.44985   1.19710   3.35188
  12.44985   1.43652   3.35188
  12.44985   1.43652   3.35188
  12.21043   1.43652   3.11246
  12.21043   1.43652   2.87304
  12.21043   1.43652   2.87304
  11.97101   1.43652   2.87304
  11.73159   1.67594   2.87304
  11.73159   1.67594   2.63362
  11.49217   1.91536   2.63362
  11.49217   1.67594   2.39420
  11.25275   1.67594   2.39420
  11.01333   1.67594   2.39420
  10.77391   1.67594   2.15478
  10.53449   1.67594   2.15478
  10.29507   1.67594   2.15478
  10.05565   1.67594   1.91536
  10.05565   1.67594   1.67594
   9.81623   1.67594   1.67594
   9.57681   1.67594   1.43652
   9.33739   1.67594   1.43652
   9.09797   1.67594   1.19710
   8.85855   1.43652   1.19710
   8.61913   1.43652   0.95768
   8.37971   1.43652   0.95768
   8.14029   1.43652   0.71826
   7.90087   1.19710   0.47884
   7.66145   0.95768   0.47884
   7.18260   0.95768   0.00000
   6.94318   0.71826   0.00000
   6.70376   0.71826   0.00000
   6.46434   0.47884  -0.23942
   6.22492   0.47884  -0.47884
   6.22492   0.47884  -0.71826
   5.98550   0.23942  -0.95768
   5.50666   0.23942  -1.19710
   5.26724   0.23942  -1.43652
   5.26724   0.23942  -1.67594
   4.78840   0.23942  -1.91536
   4.54898   0.23942  -2.39420
   4.54898   0.23942  -2.63362
   4.30956   0.23942  -2.87304
   4.07014   0.23942  -2.87304
   3.83072   0.23942  -3.11246
   3.59130   0.23942  -3.35188
   3.35188   0.23942  -3.83072
   3.11246   0.00000  -3.83072
   2.87304   0.00000  -4.30956
   2.63362   0.00000  -4.54898
   2.39420   0.00000  -4.78840
   2.15478   0.00000  -4.78840
   2.15478   0.00000  -5.02782
   1.67594  -0.23942  -5.26724
   1.43652  -0.23942  -5.50666
   1.19710  -0.23942  -5.74608
   0.95768  -0.23942  -6.22492
   0.71826  -0.23942  -6.46434
   0.47884  -0.23942  -6.94318
   0.23942  -0.23942  -6.94318
   0.00000  -0.23942  -6.94318
  -0.23942  -0.23942  -7.18260
  -0.71826  -0.23942  -7.42203
  -0.95768  -0.23942  -7.42203
  -1.19710  -0.23942  -7.66145
  -1.43652  -0.23942  -8.14029
  -1.91536  -0.23942  -8.14029
  -2.15478  -0.23942  -8.37971
  -2.39420  -0.23942  -8.37971
  -2.87304   0.00000  -8.61913
  -3.11246  -0.23942  -8.61913
  -3.35188  -0.23942  -8.85855
  -3.59130  -0.23942  -9.09797
  -3.83072  -0.23942  -9.09797
  -4.30956  -0.23942  -9.09797
  -4.54898  -0.23942  -9.09797
  -4.78840  -0.23942  -9.33739
  -5.02782  -0.23942  -9.33739
  -5.26724  -0.23942  -9.57681
  -5.50666  -0.23942  -9.57681
  -5.98550  -0.23942  -9.57681
  -5.98550   0.00000  -9.57681
  -6.46434   0.00000  -9.81623
  -6.70376   0.00000  -9.81623
  -6.94318   0.00000  -9.81623
  -7.18260  -0.23942  -9.81623
  -7.42203  -0.23942  -9.81623
  -7.66145  -0.23942  -9.57681
  -7.90087  -0.23942  -9.57681
  -8.14029  -0.47884  -9.57681
  -8.37971  -0.47884  -9.57681
  -8.61913  -0.47884  -9.33739
  -8.85855  -0.47884  -9.33739
  -9.09797  -0.71826  -9.09797
  -9.33739  -0.95768  -9.09797
  -9.57681  -0.95768  -8.61913
  -9.81623  -1.19710  -8.61913
 -10.05565  -1.19710  -8.61913
 -10.05565  -1.19710  -8.14029
 -10.29507  -1.43652  -7.90087
 -10.53449  -1.43652  -7.90087
 -10.77391  -1.67594  -7.42203
 -10.77391  -1.67594  -7.42203
 -11.01333  -1.91536  -7.18260
 -11.25275  -1.91536  -6.70376
 -11.49217  -2.15478  -6.70376
 -11.49217  -2.39420  -6.46434
 -11.49217  -2.39420  -5.98550
 -11.73159  -2.39420  -5.50666
 -11.73159  -2.63362  -5.50666
 -11.97101  -2.63362  -5.02782
 -11.97101  -2.87304  -4.78840
 -11.97101  -2.87304  -4.54898
 -11.97101  -2.87304  -4.30956
 -11.97101  -2.87304  -4.07014
 -11.97101  -2.87304  -4.07014
 -11.73159  -2.87304  -3.59130
 -11.73159  -3.11246  -3.35188
 -11.73159  -3.11246  -3.35188
 -11.73159  -3.11246  -2.87304
 -11.49217  -3.11246  -2.63362
 -11.49217  -3.35188  -2.63362
 -11.25275  -3.35188  -2.39420
 -11.01333  -3.35188  -2.15478
 -10.77391  -3.35188  -2.15478
 -10.53449  -3.35188  -1.91536
 -10.53449  -3.35188  -1.67594
 -10.29507  -3.35188  -1.43652
 -10.05565  -3.35188  -1.19710
