********************************************************************************
               CENTRO DE INSTRUMENTACION Y REGISTRO SISMICO  A.C.  
                       Coordinacion de Servicios Tecnicos
     Anaxagoras 814, Col. Narvarte, Benito Juarez, C.P. 03020 Mexico, D.F.
            Tels. 667 45 42/ 687 45  82             Fax. 669 25 12
********************************************************************************
ARCHIVO ESTANDAR DE ACELERACION:
VERSION DEL FORMATO                    : 2.0
NOMBRE DEL ARCHIVO                     : BA499802.031
FECHA Y HORA DE CREACION               : 31/ENERO/2000, 10:10
REF. CATALOGO ACELEROGRAMAS, SMIS 1996 : REGISTRO No.     /PAG.


================================================================================
DATOS DE LA ESTACION:
NOMBRE DE LA ESTACION                  : BUENOS AIRES
CLAVE DE LA ESTACION                   : BA49
LOCALIZACION DE LA ESTACION            : ESCUELA SECUNDARIA 102, DOCTOR MARQUEZ
                                       : Y EJE CENTRAL, BUENOS AIRES.
                                       :
                                       :
                                       :
COORDENADAS DE LA ESTACION             : 19.410 LAT. N 
                                       : 99.145 LONG. W 
ALTITUD (msnm)                         : 2233
TIPO DE SUELO                          : TERRENO BLANDO, MATERIAL COMPRESIBLE
                                       : (ARCILLAS)
                                       : 
INSTITUCION RESPONSABLE                : CIRES 
                                       :

================================================================================
DATOS DEL ACELEROGRAFO:
MODELO DEL ACELEROGRAFO                : SSA-1
NUMERO DE SERIE DEL ACELEROGRAFO       : 176
NUMERO DE CANALES                      : 3
ORIENTACION C1-C6 (rumbo;orientacion)  : /N00E/+V/N90E
ORIENTACION C7-C12 (rumbo;orientacion) :
VEL. DE MUESTREO, C1-C6 (muestras/s)   : /200/200/200
VEL. DE MUESTREO, C7-C12 (muestras/s)  :
ESC. COMPLETA DE SENSORES, C1-C6, (g)  : /2/2/2
ESC. COMPLETA DE SENSORES, C7-C12, (g) :
FREC. NAT. DE SENSORES, C1-C6, (Hz)    : /52.99/52.03/52.99
FREC. NAT. DE SENSORES, C7-C12, (Hz)   :
AMORTIGUAMIENTO DE SENSORES, C1-C6     : /.5589/.5469/.6096
AMORTIGUAMIENTO DE SENSORES, C7-C12    :
INTERVALO DE MUESTREO, C1-C6, (s)      : /0.005/0.005/0.005
INTERVALO DE MUESTREO, C7-C12, (s)     :
UMBRAL DE DISPARO, C1-C6, (Gal)        : /2/2/2
UMBRAL DE DISPARO, C7-C12, (Gal)       :
MEMORIA DE PREEVENTO (s)               : 15
TIEMPO DE POSEVENTO (s)                : 60


================================================================================
DATOS DEL SISMO:
FECHA DEL SISMO (GMT)                  : 03/FEB/98
HORA EPICENTRO (GMT)                   : 03:02:01.1
MAGNITUD(ES)                           : /Mb=6.0,Ms=6.2,Mc=6.4,Ma=6.4
COORDENADAS DEL EPICENTRO              : 15.69 LAT. N
                                       : 96.37 LONG. W
PROFUNDIDAD FOCAL (km)                 : 33.0
FUENTE DE LOS DATOS EPICENTRALES       : SSN
                                       : INSTITUTO DE GEOFISICA, UNAM

================================================================================
DATOS DE ESTE REGISTRO:
HORA DE LA PRIMERA MUESTRA (GMT)       : 03:04:21.00
EXACTITUD DEL TIEMPO (s)               :     
DURACION DEL REGISTRO (s), C1-C6       : /165.12/165.12/165.12
DURACION DEL REGISTRO (s), C7-C12      :
NUM. TOTAL DE MUESTRAS, C1-C6          : /33024/33024/33024
NUM. TOTAL DE MUESTRAS, C7-C12         :
ACEL. MAX. (Gal), C1-C6                : /3.89214/1.50916/3.76252
ACEL. MAX., C1-C6, EN LA MUESTRA       :
ACEL. MAX. (Gal), C7-C12               :
ACEL. MAX., C7-C12, EN LA MUESTRA      :
UNIDADES DE LOS DATOS                  : Gal (cm/s/s)
FACTOR DE DECIMACION                   : 1
FORMATO DATOS (FORTRAN,10 campos/dato) : 3F10.5


================================================================================
CALIDAD DEL ACELEROGRAMA:
REGISTRO DIGITAL COMPLETO, CARECE DE TIEMPO ABSOLUTO.


================================================================================
COMENTARIOS:














================================================================================
DATOS DE ACELERACION:
---------+---------+---------+---------+---------+---------+---------+---------+
   CANAL-1   CANAL-2   CANAL-3   CANAL-4   CANAL-5   CANAL-6   CANAL-7   CANAL-8
      N00E        +V      N90E
---------+---------+---------+---------+---------+---------+---------+---------+
[...]
   0.30214   0.65084  -2.81252
   0.30214   0.65084  -2.81252
   0.06214   0.65084  -2.81252
   0.06214   0.65084  -2.81252
   0.06214   0.65084  -2.81252
   0.06214   0.65084  -2.81252
   0.06214   0.65084  -2.81252
  -0.17786   0.65084  -3.05252
  -0.17786   0.65084  -2.81252
  -0.17786   0.65084  -2.81252
  -0.17786   0.65084  -2.81252
  -0.41786   0.65084  -2.81252
  -0.41786   0.65084  -2.81252
  -0.41786   0.65084  -2.81252
  -0.41786   0.65084  -2.81252
  -0.41786   0.65084  -2.81252
  -0.65786   0.65084  -2.81252
  -0.65786   0.65084  -2.57252
  -0.65786   0.65084  -2.57252
  -0.65786   0.65084  -2.57252
  -0.89786   0.65084  -2.81252
  -0.89786   0.65084  -2.57252
  -0.89786   0.65084  -2.57252
  -0.89786   0.65084  -2.57252
  -0.89786   0.65084  -2.33252
  -0.89786   0.65084  -2.33252
  -1.13786   0.65084  -2.09252
  -1.13786   0.41084  -2.09252
  -1.13786   0.41084  -2.09252
  -1.13786   0.41084  -2.09252
  -1.13786   0.41084  -1.85252
  -1.13786   0.41084  -1.85252
  -1.13786   0.41084  -1.85252
  -1.13786   0.17084  -1.61252
  -1.13786   0.17084  -1.61252
  -1.37786   0.17084  -1.61252
  -1.13786   0.17084  -1.61252
  -1.37786   0.17084  -1.37252
  -1.37786  -0.06916  -1.37252
  -1.37786  -0.06916  -1.37252
  -1.37786  -0.06916  -1.13252
  -1.37786  -0.06916  -1.13252
  -1.37786  -0.30916  -1.13252
  -1.37786  -0.30916  -1.13252
  -1.37786  -0.30916  -0.89252
  -1.37786  -0.30916  -0.89252
  -1.37786  -0.30916  -0.89252
  -1.13786  -0.30916  -0.89252
  -1.37786  -0.54916  -0.89252
  -1.13786  -0.54916  -0.65252
  -1.13786  -0.54916  -0.65252
  -1.13786  -0.54916  -0.41252
  -1.13786  -0.54916  -0.41252
  -1.13786  -0.78916  -0.41252
  -1.13786  -0.78916  -0.41252
  -0.89786  -0.78916  -0.41252
  -0.89786  -0.78916  -0.41252
  -0.89786  -0.78916  -0.17252
  -0.89786  -0.78916  -0.17252
  -0.89786  -1.02916  -0.17252
  -0.65786  -1.02916  -0.17252
  -0.65786  -1.02916  -0.17252
  -0.65786  -1.02916  -0.17252
  -0.65786  -1.02916  -0.17252
  -0.41786  -1.02916  -0.17252
  -0.41786  -1.26916  -0.17252
  -0.41786  -1.26916  -0.17252
  -0.17786  -1.26916  -0.17252
  -0.17786  -1.26916  -0.17252
  -0.17786  -1.26916  -0.17252
   0.06214  -1.26916  -0.17252
   0.06214  -1.26916  -0.17252
   0.06214  -1.26916  -0.17252
   0.30214  -1.26916  -0.17252
   0.30214  -1.26916  -0.17252
   0.30214  -1.26916  -0.17252
   0.54214  -1.26916  -0.17252
   0.54214  -1.26916  -0.17252
   0.54214  -1.26916  -0.17252
   0.78214  -1.26916  -0.17252
   0.78214  -1.26916  -0.41252
   0.78214  -1.50916  -0.17252
   1.02214  -1.26916  -0.41252
   1.02214  -1.26916  -0.41252
   1.02214  -1.26916  -0.41252
   1.02214  -1.26916  -0.41252
   1.26214  -1.26916  -0.41252
   1.26214  -1.26916  -0.41252
   1.26214  -1.26916  -0.41252
   1.50214  -1.26916  -0.65252
   1.50214  -1.26916  -0.65252
   1.50214  -1.02916  -0.65252
   1.50214  -1.02916  -0.65252
   1.50214  -1.02916  -0.65252
   1.74214  -0.78916  -0.65252
   1.74214  -1.02916  -0.65252
   1.74214  -0.78916  -0.65252
   1.74214  -0.78916  -0.65252
   1.74214  -0.78916  -0.65252
   1.74214  -0.78916  -0.89252
   1.74214  -0.54916  -0.65252
   1.74214  -0.54916  -0.65252
   1.98214  -0.54916  -0.89252
   1.98214  -0.54916  -0.65252
   1.98214  -0.54916  -0.89252
   1.98214  -0.30916  -0.89252
   1.98214  -0.30916  -0.89252
   1.98214  -0.30916  -0.89252
   1.98214  -0.30916  -0.89252
   1.98214  -0.30916  -0.65252
   1.98214  -0.06916  -0.89252
   1.98214  -0.06916  -0.89252
   1.98214  -0.06916  -0.65252
   1.98214   0.17084  -0.89252
   1.98214   0.17084  -0.89252
   1.98214   0.17084  -0.89252
   1.98214   0.17084  -0.65252
   1.98214   0.41084  -0.65252
   1.98214   0.41084  -0.65252
   1.98214   0.41084  -0.89252
   1.98214   0.41084  -0.89252
   1.98214   0.65084  -0.65252
   1.98214   0.41084  -0.65252
   1.98214   0.65084  -0.89252
   1.98214   0.65084  -0.65252
   1.98214   0.65084  -0.65252
   1.98214   0.65084  -0.41252
   1.98214   0.65084  -0.65252
   1.98214   0.65084  -0.65252
   1.98214   0.65084  -0.65252
   1.98214   0.65084  -0.41252
   1.98214   0.89084  -0.41252
   1.98214   0.65084  -0.41252
   1.98214   0.89084  -0.41252
   1.74214   0.89084  -0.41252
   1.74214   0.89084  -0.17252
   1.74214   0.89084  -0.17252
   1.74214   0.89084  -0.41252
   1.74214   0.89084  -0.17252
   1.74214   0.89084  -0.17252
   1.74214   0.89084  -0.17252
   1.50214   0.89084   0.06748
   1.50214   0.89084   0.06748
   1.50214   0.89084  -0.17252
   1.50214   0.89084   0.06748
   1.50214   0.89084   0.06748
   1.50214   0.65084   0.06748
   1.26214   0.89084   0.30748
   1.26214   0.89084   0.30748
   1.26214   0.65084   0.06748
   1.26214   0.65084   0.06748
   1.02214   0.65084   0.30748
   1.02214   0.65084   0.30748
   1.02214   0.65084   0.54748
   1.02214   0.65084   0.30748
   0.78214   0.65084   0.30748
   0.78214   0.65084   0.54748
   0.78214   0.65084   0.30748
   0.78214   0.65084   0.54748
   0.54214   0.65084   0.54748
   0.54214   0.65084   0.54748
   0.54214   0.65084   0.54748
   0.54214   0.65084   0.54748
   0.30214   0.65084   0.54748
   0.30214   0.65084   0.54748
   0.30214   0.65084   0.54748
   0.06214   0.65084   0.54748
   0.06214   0.65084   0.54748
   0.06214   0.65084   0.78748
   0.06214   0.65084   0.78748
  -0.17786   0.65084   0.78748
  -0.17786   0.65084   0.54748
  -0.17786   0.65084   0.78748
  -0.41786   0.65084   0.78748
  -0.41786   0.65084   0.78748
  -0.41786   0.65084   0.54748
  -0.41786   0.89084   0.78748
  -0.65786   0.89084   0.54748
  -0.65786   0.89084   0.78748
  -0.65786   0.89084   0.54748
  -0.89786   0.89084   0.54748
  -0.89786   0.65084   0.54748
  -0.89786   0.89084   0.54748
  -0.89786   0.65084   0.54748
  -1.13786   0.89084   0.54748
  -1.13786   0.89084   0.30748
  -1.13786   0.65084   0.54748
  -1.13786   0.65084   0.54748
  -1.37786   0.65084   0.30748
  -1.37786   0.89084   0.30748
  -1.37786   0.65084   0.06748
  -1.37786   0.89084   0.06748
  -1.61786   0.65084   0.30748
  -1.61786   0.65084   0.06748
  -1.61786   0.65084   0.06748
  -1.61786   0.65084   0.06748
  -1.85786   0.65084  -0.17252
  -1.85786   0.65084   0.06748
  -1.85786   0.65084  -0.17252
  -1.85786   0.65084   0.06748
  -1.85786   0.65084  -0.17252
  -1.85786   0.65084  -0.17252
  -1.85786   0.65084  -0.17252
  -2.09786   0.65084  -0.17252
  -2.09786   0.65084  -0.17252
  -2.09786   0.65084  -0.17252
  -2.09786   0.41084  -0.41252
  -2.09786   0.41084  -0.41252
  -2.09786   0.41084  -0.41252
  -2.09786   0.41084  -0.41252
  -2.33786   0.41084  -0.65252
  -2.33786   0.41084  -0.41252
  -2.33786   0.41084  -0.65252
  -2.33786   0.41084  -0.65252
  -2.33786   0.17084  -0.65252
  -2.33786   0.17084  -0.65252
  -2.33786   0.17084  -0.65252
  -2.57786   0.17084  -0.65252
  -2.57786   0.17084  -0.65252
  -2.57786   0.17084  -0.65252
  -2.57786  -0.06916  -0.65252
  -2.57786  -0.06916  -0.89252
  -2.57786  -0.06916  -0.89252
  -2.57786  -0.06916  -0.65252
  -2.80786  -0.06916  -0.65252
  -2.80786  -0.06916  -0.65252
  -2.80786  -0.30916  -0.65252
  -2.80786  -0.30916  -0.65252
  -2.80786  -0.30916  -0.65252
  -2.80786  -0.30916  -0.65252
  -2.80786  -0.30916  -0.65252
  -3.04786  -0.30916  -0.65252
  -3.04786  -0.30916  -0.65252
  -3.04786  -0.30916  -0.65252
  -3.04786  -0.30916  -0.41252
  -3.04786  -0.30916  -0.41252
  -3.04786  -0.30916  -0.41252
  -3.04786  -0.54916  -0.41252
  -3.28786  -0.30916  -0.41252
  -3.28786  -0.30916  -0.41252
  -3.28786  -0.30916  -0.17252
  -3.28786  -0.54916  -0.17252
  -3.28786  -0.54916  -0.17252
  -3.28786  -0.54916  -0.17252
  -3.28786  -0.54916  -0.17252
  -3.28786  -0.54916   0.06748
  -3.28786  -0.54916   0.06748
  -3.28786  -0.54916   0.06748
  -3.52786  -0.54916   0.06748
  -3.52786  -0.54916   0.06748
  -3.52786  -0.54916   0.30748
  -3.52786  -0.54916   0.30748
  -3.52786  -0.54916   0.30748
  -3.52786  -0.54916   0.30748
  -3.28786  -0.54916   0.30748
  -3.52786  -0.54916   0.54748
  -3.28786  -0.54916   0.54748
  -3.28786  -0.54916   0.78748
  -3.28786  -0.78916   0.78748
  -3.28786  -0.54916   0.78748
  -3.28786  -0.54916   0.78748
  -3.28786  -0.54916   1.02748
  -3.28786  -0.54916   1.02748
  -3.28786  -0.78916   1.02748
  -3.28786  -0.54916   1.02748
  -3.28786  -0.54916   1.26748
  -3.28786  -0.78916   1.26748
  -3.28786  -0.54916   1.26748
  -3.04786  -0.78916   1.49748
  -3.04786  -0.54916   1.49748
  -3.04786  -0.78916   1.73748
  -3.04786  -0.78916   1.73748
  -2.80786  -0.54916   1.73748
  -2.80786  -0.54916   1.73748
  -2.80786  -0.54916   1.97748
  -2.80786  -0.78916   1.97748
  -2.80786  -0.78916   1.97748
  -2.57786  -0.78916   2.21748
  -2.57786  -0.78916   2.21748
  -2.57786  -0.54916   2.21748
  -2.33786  -0.78916   2.21748
  -2.33786  -0.78916   2.45748
  -2.33786  -0.78916   2.45748
  -2.09786  -0.78916   2.45748
  -2.09786  -0.78916   2.45748
  -1.85786  -0.78916   2.69748
  -1.85786  -0.78916   2.69748
  -1.85786  -0.54916   2.69748
  -1.61786  -0.78916   2.69748
  -1.61786  -0.54916   2.69748
  -1.61786  -0.54916   2.93748
  -1.37786  -0.54916   2.69748
  -1.37786  -0.54916   2.93748
  -1.13786  -0.54916   2.93748
  -1.13786  -0.54916   2.93748
  -0.89786  -0.54916   2.93748
  -0.89786  -0.54916   2.93748
  -0.89786  -0.54916   3.17748
  -0.65786  -0.54916   3.17748
  -0.65786  -0.54916   3.17748
  -0.41786  -0.54916   3.17748
  -0.41786  -0.30916   3.17748
  -0.17786  -0.54916   2.93748
  -0.17786  -0.30916   3.17748
   0.06214  -0.30916   3.17748
   0.06214  -0.30916   2.93748
   0.06214  -0.30916   3.17748
   0.30214  -0.30916   3.17748
   0.30214  -0.30916   3.17748
   0.54214  -0.30916   2.93748
   0.54214  -0.30916   2.93748
   0.78214  -0.06916   2.93748
   1.02214  -0.06916   2.93748
   1.02214  -0.06916   2.93748
   1.02214  -0.06916   2.93748
   1.26214  -0.06916   2.93748
   1.26214  -0.06916   2.93748
   1.50214   0.17084   2.93748
   1.50214   0.17084   2.93748
   1.50214   0.17084   2.69748
   1.74214   0.17084   2.69748
   1.98214   0.17084   2.45748
   1.98214   0.17084   2.69748
   1.98214   0.17084   2.45748
   2.21214   0.41084   2.21748
   2.21214   0.41084   2.45748
   2.45214   0.41084   2.45748
   2.45214   0.41084   2.45748
   2.45214   0.41084   2.21748
   2.69214   0.41084   2.21748
   2.69214   0.41084   1.97748
   2.93214   0.41084   1.97748
   2.93214   0.65084   1.97748
   2.93214   0.65084   1.97748
   3.17214   0.65084   1.73748
   3.17214   0.65084   1.73748
   3.17214   0.65084   1.73748
   3.17214   0.65084   1.73748
   3.41214   0.65084   1.49748
   3.41214   0.65084   1.49748
   3.41214   0.65084   1.49748
   3.41214   0.65084   1.26748
   3.65214   0.65084   1.26748
   3.65214   0.65084   1.02748
   3.65214   0.89084   1.02748
   3.65214   0.89084   1.02748
   3.65214   0.89084   1.02748
   3.65214   0.89084   1.02748
   3.65214   0.89084   0.78748
   3.89214   0.89084   0.78748
   3.89214   0.89084   0.78748
   3.89214   0.89084   0.78748
   3.89214   0.89084   0.54748
   3.89214   0.89084   0.30748
   3.89214   0.89084   0.54748
   3.89214   0.89084   0.54748
   3.89214   0.89084   0.30748
   3.89214   0.89084   0.30748
   3.89214   1.13084   0.30748
   3.89214   1.13084   0.30748
   3.89214   1.13084   0.06748
   3.65214   0.89084   0.06748
   3.65214   1.13084   0.06748
   3.65214   1.13084  -0.17252
   3.65214   1.13084  -0.17252
   3.65214   0.89084  -0.17252
   3.41214   0.89084  -0.41252
   3.41214   0.89084  -0.17252
   3.41214   0.89084  -0.41252
   3.41214   1.13084  -0.41252
   3.41214   0.89084  -0.41252
   3.41214   0.89084  -0.41252
   3.17214   0.89084  -0.65252
   3.17214   0.89084  -0.41252
   3.17214   0.89084  -0.41252
   3.17214   0.89084  -0.41252
   3.17214   0.89084  -0.65252
   2.93214   0.89084  -0.65252
   2.93214   0.89084  -0.65252
   2.93214   0.89084  -0.89252
   2.93214   0.89084  -0.65252
   2.69214   0.65084  -0.89252
   2.69214   0.65084  -0.65252
   2.69214   0.65084  -0.89252
   2.45214   0.65084  -0.89252
   2.45214   0.65084  -0.89252
   2.45214   0.65084  -0.89252
   2.45214   0.65084  -0.89252
   2.21214   0.65084  -0.89252
   2.21214   0.65084  -0.89252
   2.21214   0.41084  -0.89252
   1.98214   0.41084  -0.89252
   1.98214   0.41084  -0.89252
   1.98214   0.41084  -1.13252
   1.74214   0.41084  -0.89252
   1.74214   0.41084  -1.13252
   1.74214   0.41084  -1.13252
   1.50214   0.17084  -1.13252
   1.50214   0.17084  -1.13252
   1.26214   0.17084  -1.13252
   1.26214   0.17084  -1.13252
   1.26214   0.17084  -1.13252
   1.26214   0.17084  -1.13252
   1.02214   0.17084  -1.13252
   1.02214  -0.06916  -1.13252
   1.02214  -0.06916  -1.13252
   0.78214  -0.06916  -1.37252
   0.78214  -0.06916  -1.13252
   0.78214  -0.06916  -1.13252
   0.54214  -0.06916  -1.13252
   0.54214  -0.06916  -1.37252
   0.54214  -0.30916  -1.13252
   0.30214  -0.30916  -1.37252
   0.30214  -0.30916  -1.37252
   0.30214  -0.30916  -1.37252
   0.30214  -0.30916  -1.37252
   0.06214  -0.30916  -1.37252
   0.06214  -0.30916  -1.37252
   0.06214  -0.30916  -1.37252
   0.06214  -0.30916  -1.37252
   0.06214  -0.30916  -1.37252
   0.06214  -0.30916  -1.37252
  -0.17786  -0.30916  -1.37252
  -0.17786  -0.54916  -1.37252
  -0.17786  -0.30916  -1.37252
  -0.17786  -0.54916  -1.37252
  -0.17786  -0.54916  -1.37252
  -0.41786  -0.30916  -1.37252
  -0.41786  -0.54916  -1.61252
  -0.41786  -0.54916  -1.61252
  -0.41786  -0.54916  -1.37252
  -0.41786  -0.54916  -1.37252
  -0.41786  -0.54916  -1.61252
  -0.41786  -0.30916  -1.61252
  -0.41786  -0.54916  -1.37252
  -0.41786  -0.54916  -1.61252
  -0.65786  -0.54916  -1.61252
  -0.65786  -0.54916  -1.61252
  -0.65786  -0.54916  -1.61252
  -0.65786  -0.30916  -1.61252
  -0.65786  -0.54916  -1.61252
  -0.65786  -0.54916  -1.61252
  -0.65786  -0.54916  -1.61252
  -0.89786  -0.54916  -1.61252
  -0.89786  -0.54916  -1.61252
  -0.89786  -0.54916  -1.61252
  -0.89786  -0.54916  -1.61252
  -0.89786  -0.54916  -1.37252
  -0.89786  -0.54916  -1.61252
  -0.89786  -0.54916  -1.61252
  -0.89786  -0.54916  -1.37252
  -0.89786  -0.54916  -1.37252
  -0.89786  -0.30916  -1.37252
  -1.13786  -0.30916  -1.37252
  -1.13786  -0.54916  -1.37252
  -1.13786  -0.30916  -1.37252
  -1.13786  -0.54916  -1.37252
  -1.13786  -0.54916  -1.37252
  -1.13786  -0.54916  -1.37252
  -1.13786  -0.54916  -1.37252
  -1.37786  -0.54916  -1.37252
  -1.37786  -0.54916  -1.13252
  -1.37786  -0.54916  -1.13252
  -1.37786  -0.54916  -1.13252
  -1.37786  -0.54916  -1.13252
  -1.37786  -0.54916  -1.13252
  -1.37786  -0.54916  -1.13252
  -1.37786  -0.54916  -0.89252
  -1.37786  -0.54916  -0.89252
  -1.61786  -0.54916  -0.89252
  -1.61786  -0.54916  -0.89252
  -1.61786  -0.54916  -0.65252
  -1.61786  -0.54916  -0.65252
  -1.61786  -0.54916  -0.65252
  -1.61786  -0.54916  -0.65252
  -1.61786  -0.54916  -0.41252
  -1.61786  -0.54916  -0.41252
  -1.85786  -0.54916  -0.41252
  -1.85786  -0.54916  -0.17252
  -1.85786  -0.54916  -0.17252
  -1.85786  -0.54916   0.06748
  -1.85786  -0.54916   0.06748
  -1.85786  -0.54916   0.06748
  -1.85786  -0.54916   0.06748
  -1.85786  -0.54916   0.30748
  -1.85786  -0.54916   0.30748
  -1.85786  -0.54916   0.30748
  -2.09786  -0.54916   0.54748
  -1.85786  -0.54916   0.54748
  -1.85786  -0.54916   0.54748
  -1.85786  -0.54916   0.54748
  -1.85786  -0.54916   0.54748
  -1.85786  -0.54916   0.78748
  -1.85786  -0.54916   0.78748
  -1.85786  -0.30916   1.02748
  -1.85786  -0.30916   1.02748
  -1.85786  -0.54916   1.02748
  -1.85786  -0.30916   1.02748
  -1.85786  -0.30916   1.02748
