********************************************************************************
               CENTRO DE INSTRUMENTACION Y REGISTRO SISMICO  A.C.  
                       Coordinacion de Servicios Tecnicos
      Anaxagoras 814, Col. Narvarte, Benito Juarez, C.P. 03020 Mexico, D.F.
            Tels. 687 45 42/ 687 45  82             Fax. 669 25 12
********************************************************************************
ARCHIVO ESTANDAR DE ACELERACION:
VERSION DEL FORMATO                    : 2.0
NOMBRE DEL ARCHIVO                     : BA499305.151
FECHA Y HORA DE CREACION               : 8 de febrero de 1996/18:03
REF. CATALOGO ACELEROGRAMAS, SMIS 1995 : REGISTRO No. 4084 /PAG. 374


================================================================================
DATOS DE LA ESTACION:
NOMBRE DE LA ESTACION                  : BUENOS AIRES
CLAVE DE LA ESTACION                   : BA49
LOCALIZACION DE LA ESTACION            : ESCUELA SECUNDARIA 102, DOCTOR MARQUEZ
                                       : Y EJE CENTRAL, BUENOS AIRES.
                                       :
                                       :
                                       :
COORDENADAS DE LA ESTACION             : 19.410 LAT. N 
                                       : 99.145 LONG. W 
ALTITUD (msnm)                         : 2233
TIPO DE SUELO                          : TERRENO BLANDO, MATERIAL COMPRESIBLE
                                       : (ARCILLAS)
                                       : 
INSTITUCION RESPONSABLE                : CIRES 
                                       :

================================================================================
DATOS DEL ACELEROGRAFO:
MODELO DEL ACELEROGRAFO                : SSA-1
NUMERO DE SERIE DEL ACELEROGRAFO       : 176
NUMERO DE CANALES                      : 3
ORIENTACION C1-C6 (rumbo;orientacion)  : /N00E/+V/N90E
ORIENTACION C7-C12 (rumbo;orientacion) :
VEL. DE MUESTREO, C1-C6 (muestras/s)   : /200/200/200
VEL. DE MUESTREO, C7-C12 (muestras/s)  :
ESC. COMPLETA DE SENSORES, C1-C6, (g)  : /2/2/2
ESC. COMPLETA DE SENSORES, C7-C12, (g) :
FREC. NAT. DE SENSORES, C1-C6, (Hz)    : /50/50/50
FREC. NAT. DE SENSORES, C7-C12, (Hz)   :
AMORTIGUAMIENTO DE SENSORES, C1-C6     : /0.700/0.700/0.700
AMORTIGUAMIENTO DE SENSORES, C7-C12    :
INTERVALO DE MUESTREO, C1-C6, (s)      : /0.005/0.005/0.005
INTERVALO DE MUESTREO, C7-C12, (s)     :
UMBRAL DE DISPARO, C1-C6, (Gal)        : /2/2/2
UMBRAL DE DISPARO, C7-C12, (Gal)       :
MEMORIA DE PREEVENTO (s)               : 15
TIEMPO DE POSEVENTO (s)                : 90


================================================================================
DATOS DEL SISMO:
FECHA DEL SISMO (GMT)                  : 15/MAY/93
HORA EPICENTRO (GMT)                   : 03:09:39,4 
MAGNITUD(ES)                           : /Mb=5.80/Ms=5.80/Mc=5.80
COORDENADAS DEL EPICENTRO              : 16.430 LAT. N 
                                       : 98.740 LONG. W 
PROFUNDIDAD FOCAL (km)                 : < 5
FUENTE DE LOS DATOS EPICENTRALES       : INSTITUTO DE INGENIERIA UNAM
                                       : INSTITUTO DE GEOFISICA, UNAM

================================================================================
DATOS DE ESTE REGISTRO:
HORA DE LA PRIMERA MUESTRA (GMT)       : 03:09:00.00
EXACTITUD DEL TIEMPO (s)               :     
DURACION DEL REGISTRO (s), C1-C6       : /292.645/292.645/292.645
DURACION DEL REGISTRO (s), C7-C12      :
NUM. TOTAL DE MUESTRAS, C1-C6          : /58529/58529/58529
NUM. TOTAL DE MUESTRAS, C7-C12         :
ACEL. MAX. (Gal), C1-C6                : /8.25404/5.42881/14.23256
ACEL. MAX., C1-C6, EN LA MUESTRA       :
ACEL. MAX. (Gal), C7-C12               :
ACEL. MAX., C7-C12, EN LA MUESTRA      :
UNIDADES DE LOS DATOS                  : Gal (cm/s/s)
FACTOR DE DECIMACION                   : 1
FORMATO DATOS (FORTRAN,10 campos/dato) : 3F10.5


================================================================================
CALIDAD DEL ACELEROGRAMA:
REGISTRO DIGITAL COMPLETO, CARECE DE TIEMPO ABSOLUTO.


================================================================================
COMENTARIOS: 
             Los equipos se encontraban con una ganancia de 2 en los ejes
             horizontales y de 4 en el eje vertical, por lo que la escala
             completa era de 1 g y 1/2 g respectivamente.











================================================================================
DATOS DE ACELERACION:
---------+---------+---------+---------+---------+---------+---------+---------+
   CANAL-1   CANAL-2   CANAL-3   CANAL-4   CANAL-5   CANAL-6   CANAL-7   CANAL-8
      N00E        +V      N90E
---------+---------+---------+---------+---------+---------+---------+---------+
[...]
   2.02404   4.22881  -0.61744
   2.02404   4.22881  -0.61744
   2.02404   4.22881  -0.61744
   1.54404   4.22881  -1.09744
   1.54404   4.22881  -1.09744
   1.06404   4.22881  -1.09744
   0.58404   4.22881  -1.57744
   0.58404   4.22881  -1.57744
   0.10404   4.22881  -1.57744
   0.58404   4.46881  -1.57744
   0.10404   4.46881  -1.57744
   0.10404   4.46881  -2.05744
  -0.36596   4.46881  -2.05744
  -0.36596   4.46881  -2.05744
  -0.36596   4.46881  -2.05744
  -0.84596   4.22881  -2.05744
  -0.84596   4.22881  -2.05744
  -1.32596   4.22881  -2.05744
  -1.32596   4.22881  -2.05744
  -1.80596   4.22881  -2.05744
  -1.80596   3.98881  -2.05744
  -1.80596   3.98881  -2.05744
  -1.80596   3.98881  -2.05744
  -1.80596   3.98881  -2.05744
  -2.28596   3.98881  -2.05744
  -2.28596   3.74881  -2.05744
  -2.28596   3.74881  -2.05744
  -2.28596   3.50881  -1.57744
  -2.28596   3.50881  -2.05744
  -2.28596   3.50881  -1.57744
  -2.76596   3.26881  -1.57744
  -2.76596   3.26881  -1.57744
  -2.76596   3.26881  -1.57744
  -2.76596   3.02881  -1.57744
  -2.76596   3.02881  -1.57744
  -2.76596   3.02881  -1.57744
  -2.76596   2.78881  -1.57744
  -2.76596   2.54881  -1.57744
  -2.76596   2.54881  -1.57744
  -2.76596   2.30881  -1.57744
  -2.76596   2.30881  -1.57744
  -2.76596   2.30881  -1.57744
  -2.76596   2.06881  -1.57744
  -2.76596   2.06881  -1.57744
  -2.76596   1.82881  -1.57744
  -2.76596   1.82881  -1.57744
  -2.76596   1.59881  -1.57744
  -2.76596   1.59881  -1.57744
  -2.76596   1.59881  -1.57744
  -2.76596   1.35881  -1.57744
  -2.28596   1.35881  -1.57744
  -2.28596   1.35881  -1.57744
  -2.28596   1.11881  -1.57744
  -2.28596   1.11881  -1.57744
  -2.28596   1.11881  -1.57744
  -1.80596   1.11881  -1.57744
  -1.80596   1.11881  -2.05744
  -1.80596   1.11881  -2.05744
  -1.80596   0.87881  -1.57744
  -1.80596   0.87881  -2.05744
  -1.32596   0.87881  -2.05744
  -1.32596   0.63881  -2.05744
  -1.32596   0.63881  -2.05744
  -1.32596   0.63881  -2.05744
  -1.32596   0.63881  -2.05744
  -1.32596   0.63881  -2.05744
  -0.84596   0.63881  -2.05744
  -0.84596   0.63881  -2.53744
  -0.84596   0.39881  -2.05744
  -0.36596   0.63881  -2.53744
  -0.36596   0.63881  -2.53744
  -0.36596   0.63881  -2.53744
  -0.36596   0.63881  -2.53744
  -0.36596   0.63881  -2.53744
  -0.36596   0.63881  -2.53744
   0.10404   0.63881  -2.53744
   0.10404   0.63881  -2.53744
   0.10404   0.63881  -2.53744
   0.10404   0.63881  -2.53744
   0.10404   0.63881  -2.53744
   0.58404   0.63881  -2.53744
   0.58404   0.63881  -2.53744
   0.58404   0.87881  -2.53744
   0.58404   0.87881  -3.01744
   0.58404   0.87881  -3.01744
   1.06404   0.87881  -3.01744
   1.06404   0.87881  -3.01744
   1.06404   0.87881  -3.01744
   1.06404   0.87881  -3.01744
   1.06404   0.87881  -3.01744
   1.06404   1.11881  -3.01744
   1.06404   1.11881  -3.01744
   1.06404   1.11881  -2.53744
   1.06404   1.11881  -3.01744
   1.06404   1.11881  -2.53744
   1.06404   1.35881  -2.53744
   0.58404   1.35881  -2.53744
   1.06404   1.35881  -2.53744
   1.06404   1.59881  -2.53744
   1.06404   1.59881  -2.53744
   1.06404   1.59881  -2.05744
   1.06404   1.59881  -2.53744
   0.58404   1.59881  -2.05744
   0.58404   1.82881  -2.05744
   0.58404   1.82881  -2.05744
   0.58404   1.82881  -2.05744
   0.58404   2.06881  -2.05744
   0.58404   2.06881  -1.57744
   0.58404   2.06881  -1.57744
   0.58404   2.06881  -1.57744
   0.10404   2.06881  -1.57744
   0.10404   2.06881  -1.57744
   0.10404   2.30881  -1.57744
  -0.36596   2.06881  -1.09744
  -0.36596   2.30881  -1.09744
  -0.36596   2.30881  -1.09744
  -0.84596   2.06881  -1.09744
  -0.36596   2.30881  -1.09744
  -0.84596   2.30881  -1.09744
  -0.84596   2.30881  -1.09744
  -0.84596   2.30881  -0.61744
  -0.84596   2.30881  -0.61744
  -1.32596   2.30881  -0.61744
  -1.32596   2.06881  -0.61744
  -1.32596   2.30881  -0.61744
  -1.32596   2.30881  -0.61744
  -1.80596   2.06881  -0.14744
  -1.80596   2.30881  -0.14744
  -1.80596   2.30881  -0.14744
  -2.28596   2.30881  -0.14744
  -2.28596   2.06881   0.33256
  -2.28596   2.30881   0.33256
  -2.28596   2.30881   0.33256
  -2.28596   2.30881   0.33256
  -2.28596   2.30881   0.33256
  -2.28596   2.30881   0.33256
  -2.28596   2.30881   0.81256
  -2.28596   2.30881   0.81256
  -2.28596   2.30881   0.81256
  -2.28596   2.30881   0.81256
  -2.28596   2.06881   1.29256
  -2.28596   2.06881   1.29256
  -2.28596   2.06881   1.29256
  -2.28596   2.06881   1.29256
  -2.28596   2.06881   1.77256
  -2.28596   1.82881   1.77256
  -2.28596   1.82881   1.77256
  -1.80596   1.82881   1.77256
  -1.80596   1.82881   2.25256
  -1.80596   1.82881   2.25256
  -1.80596   1.59881   2.25256
  -1.80596   1.59881   2.25256
  -1.32596   1.59881   2.73256
  -1.32596   1.59881   2.73256
  -1.32596   1.59881   2.73256
  -1.32596   1.35881   3.21256
  -0.84596   1.59881   3.21256
  -0.84596   1.59881   3.21256
  -0.84596   1.35881   3.21256
  -0.36596   1.35881   3.69256
  -0.36596   1.35881   3.69256
  -0.36596   1.35881   4.17256
  -0.36596   1.35881   4.17256
   0.10404   1.35881   4.17256
   0.10404   1.35881   4.17256
   0.10404   1.11881   4.65256
   0.58404   1.11881   4.65256
   0.58404   1.11881   4.65256
   0.58404   1.11881   4.65256
   1.06404   1.11881   4.65256
   1.06404   1.11881   5.12256
   1.06404   1.11881   5.12256
   1.06404   1.11881   5.12256
   1.54404   1.11881   5.60256
   1.54404   1.11881   5.60256
   1.54404   1.11881   5.60256
   1.54404   1.11881   5.60256
   1.54404   1.11881   5.60256
   2.02404   1.11881   5.60256
   2.02404   1.11881   6.08256
   2.02404   1.11881   6.08256
   2.02404   1.11881   6.56256
   2.02404   1.11881   6.56256
   2.50404   1.11881   6.56256
   2.50404   1.11881   6.56256
   2.50404   1.11881   6.56256
   2.50404   1.11881   6.56256
   2.50404   1.11881   7.04256
   2.50404   1.11881   7.04256
   2.50404   1.11881   7.04256
   2.50404   1.11881   7.04256
   2.50404   1.11881   7.04256
   2.50404   1.11881   7.52256
   2.50404   1.11881   7.52256
   2.50404   1.35881   7.52256
   2.50404   1.35881   7.52256
   2.50404   1.35881   7.52256
   2.50404   1.35881   7.52256
   2.50404   1.59881   8.00256
   2.50404   1.59881   8.00256
   2.50404   1.59881   8.00256
   2.50404   1.59881   8.00256
   2.02404   1.59881   8.00256
   2.02404   1.82881   8.00256
   2.02404   2.06881   7.52256
   1.54404   2.30881   7.52256
   2.02404   2.30881   8.00256
   2.02404   2.30881   7.52256
   2.02404   2.54881   8.00256
   2.02404   2.54881   8.00256
   2.02404   2.78881   7.52256
   1.54404   2.78881   7.52256
   1.54404   3.02881   7.52256
   1.54404   3.26881   7.52256
   1.06404   3.26881   7.52256
   1.54404   3.26881   7.04256
   1.06404   3.50881   7.04256
   1.06404   3.50881   7.04256
   1.06404   3.74881   6.56256
   1.06404   3.98881   7.04256
   1.06404   3.98881   6.56256
   1.06404   3.98881   6.56256
   1.06404   4.22881   6.56256
   1.06404   4.22881   6.08256
   0.58404   4.22881   6.08256
   0.58404   4.46881   6.08256
   0.58404   4.46881   6.08256
   0.58404   4.46881   5.60256
   0.58404   4.46881   5.60256
   0.58404   4.46881   5.60256
   0.58404   4.46881   5.60256
   0.58404   4.46881   5.60256
   0.10404   4.46881   5.12256
   0.10404   4.70881   5.12256
   0.10404   4.70881   5.12256
   0.10404   4.70881   4.65256
  -0.36596   4.70881   4.65256
  -0.36596   4.70881   4.65256
  -0.36596   4.70881   4.65256
  -0.36596   4.70881   4.65256
  -0.36596   4.70881   4.17256
  -0.84596   4.70881   4.17256
  -0.84596   4.70881   4.17256
  -0.84596   4.46881   4.17256
  -1.32596   4.46881   3.69256
  -1.32596   4.46881   3.69256
  -1.32596   4.46881   3.69256
  -1.80596   4.46881   3.69256
  -1.80596   4.46881   3.21256
  -2.28596   4.46881   3.21256
  -2.28596   4.22881   3.21256
  -2.28596   4.46881   3.21256
  -2.76596   4.22881   3.21256
  -2.76596   4.22881   2.73256
  -2.76596   4.22881   2.73256
  -2.76596   3.98881   2.73256
  -3.24596   3.98881   2.73256
  -3.24596   3.98881   2.73256
  -3.24596   3.74881   2.73256
  -3.72596   3.74881   2.25256
  -3.72596   3.74881   2.25256
  -3.72596   3.74881   2.73256
  -4.20596   3.74881   2.25256
  -4.20596   3.74881   2.25256
  -4.68596   3.50881   2.25256
  -4.68596   3.50881   2.25256
  -4.68596   3.50881   2.25256
  -4.68596   3.26881   2.25256
  -4.68596   3.26881   2.25256
  -5.16596   3.02881   2.25256
  -5.16596   3.02881   2.25256
  -5.16596   3.02881   2.25256
  -5.16596   2.78881   2.25256
  -5.16596   2.54881   2.73256
  -5.63596   2.54881   2.73256
  -5.63596   2.30881   2.25256
  -5.63596   2.30881   2.73256
  -5.63596   2.06881   2.73256
  -6.11596   1.82881   2.73256
  -5.63596   1.82881   2.73256
  -5.63596   1.59881   2.73256
  -6.11596   1.59881   3.21256
  -6.11596   1.35881   3.21256
  -6.11596   1.11881   3.21256
  -6.11596   1.11881   3.21256
  -6.11596   0.87881   3.69256
  -6.11596   0.87881   3.69256
  -5.63596   0.63881   4.17256
  -6.11596   0.63881   4.17256
  -6.11596   0.63881   4.17256
  -6.11596   0.39881   4.17256
  -5.63596   0.39881   4.65256
  -5.63596   0.15881   4.65256
  -5.63596   0.15881   4.65256
  -5.63596  -0.08119   5.12256
  -5.63596  -0.08119   5.12256
  -5.63596  -0.32119   5.12256
  -5.16596  -0.32119   5.60256
  -5.16596  -0.56119   6.08256
  -5.16596  -0.56119   6.08256
  -5.16596  -0.56119   6.08256
  -5.16596  -0.80119   6.08256
  -5.16596  -0.80119   6.56256
  -4.68596  -1.04119   6.56256
  -4.68596  -1.04119   7.04256
  -4.68596  -1.28119   7.04256
  -4.68596  -1.28119   7.52256
  -4.20596  -1.28119   7.52256
  -4.20596  -1.28119   8.00256
  -4.20596  -1.28119   8.00256
  -3.72596  -1.28119   8.48256
  -3.72596  -1.28119   8.48256
  -3.72596  -1.52119   8.96256
  -3.24596  -1.52119   8.96256
  -3.24596  -1.52119   9.44256
  -3.24596  -1.52119   9.91256
  -3.24596  -1.52119   9.91256
  -2.76596  -1.52119  10.39256
  -2.76596  -1.52119  10.39256
  -2.76596  -1.52119  10.87256
  -2.76596  -1.52119  10.87256
  -2.28596  -1.52119  10.87256
  -2.28596  -1.52119  11.35256
  -2.28596  -1.52119  11.35256
  -2.28596  -1.52119  11.83256
  -1.80596  -1.52119  11.83256
  -1.80596  -1.52119  11.83256
  -1.32596  -1.52119  12.31256
  -1.32596  -1.52119  12.31256
  -1.32596  -1.52119  12.31256
  -1.32596  -1.28119  12.79256
  -0.84596  -1.28119  12.79256
  -1.32596  -1.28119  12.79256
  -0.84596  -1.28119  13.27256
  -0.84596  -1.28119  13.27256
  -0.84596  -1.04119  13.27256
  -0.84596  -1.04119  13.27256
  -0.84596  -0.80119  13.75256
  -0.36596  -0.56119  13.75256
  -0.36596  -0.56119  13.75256
  -0.36596  -0.32119  13.75256
  -0.36596  -0.32119  13.75256
   0.10404  -0.32119  13.75256
   0.10404  -0.08119  14.23256
   0.10404   0.15881  14.23256
   0.10404   0.15881  14.23256
   0.10404   0.39881  14.23256
   0.10404   0.63881  14.23256
   0.10404   0.63881  14.23256
   0.10404   0.87881  14.23256
   0.10404   1.11881  14.23256
   0.58404   1.11881  14.23256
   0.58404   1.35881  14.23256
   0.58404   1.35881  14.23256
   0.58404   1.35881  14.23256
   0.58404   1.59881  14.23256
   1.06404   1.59881  14.23256
   0.58404   1.82881  14.23256
   0.58404   1.82881  14.23256
   1.06404   1.82881  14.23256
   1.06404   2.06881  14.23256
   1.06404   2.30881  14.23256
   1.06404   2.06881  14.23256
   1.06404   2.30881  14.23256
   1.06404   2.30881  14.23256
   1.54404   2.54881  14.23256
   1.54404   2.54881  14.23256
   1.54404   2.54881  14.23256
   1.54404   2.54881  14.23256
   1.54404   2.78881  14.23256
   1.54404   2.78881  14.23256
   1.54404   2.78881  14.23256
   1.54404   3.02881  14.23256
   2.02404   3.02881  14.23256
   2.02404   3.02881  14.23256
   2.02404   3.02881  14.23256
   2.02404   3.02881  14.23256
   2.50404   3.26881  14.23256
   2.50404   3.26881  14.23256
   2.50404   3.26881  13.75256
   2.50404   3.26881  14.23256
   2.50404   3.26881  14.23256
   2.98404   3.26881  14.23256
   2.98404   3.50881  14.23256
   2.98404   3.26881  13.75256
   2.98404   3.26881  13.75256
   3.46404   3.26881  13.75256
   3.46404   3.26881  13.75256
   3.46404   3.26881  13.75256
   3.94404   3.26881  13.75256
   3.94404   3.26881  13.75256
   3.94404   3.02881  13.75256
   4.42404   3.02881  13.75256
   4.42404   2.78881  13.75256
   4.42404   2.78881  13.27256
   4.89404   2.78881  13.75256
   4.89404   2.78881  13.27256
   4.89404   2.78881  13.27256
   4.89404   2.54881  13.27256
   5.37404   2.54881  12.79256
   5.37404   2.54881  12.79256
   5.37404   2.54881  12.79256
   5.85404   2.54881  12.79256
   5.85404   2.54881  12.31256
   5.85404   2.54881  12.31256
   5.85404   2.54881  12.31256
   5.85404   2.30881  12.31256
   5.85404   2.54881  11.83256
   5.85404   2.54881  11.83256
   6.33404   2.54881  11.83256
   6.33404   2.54881  11.35256
   6.33404   2.54881  11.35256
   6.33404   2.54881  11.35256
   6.81404   2.54881  10.87256
   6.81404   2.54881  10.87256
   6.81404   2.54881  10.39256
   6.81404   2.54881  10.39256
   6.81404   2.54881  10.39256
   6.81404   2.54881   9.91256
   6.81404   2.54881   9.91256
   6.81404   2.54881   9.44256
   6.81404   2.78881   9.44256
   6.81404   2.78881   9.44256
   6.81404   2.78881   8.96256
   6.81404   3.02881   8.96256
   6.81404   3.02881   8.96256
   6.81404   3.02881   8.48256
   6.81404   3.02881   8.48256
   6.33404   3.02881   8.00256
   6.33404   3.02881   8.00256
   6.33404   3.02881   8.00256
   6.33404   3.02881   7.52256
   6.33404   3.02881   7.52256
   6.33404   3.02881   7.52256
   6.33404   3.26881   7.04256
   5.85404   3.26881   6.56256
   5.85404   3.26881   6.56256
   5.85404   3.26881   6.56256
   5.85404   3.26881   6.56256
   5.85404   3.26881   6.08256
   5.85404   3.50881   6.08256
   5.85404   3.26881   5.60256
   5.37404   3.26881   5.60256
   5.37404   3.26881   5.12256
   5.37404   3.26881   5.12256
   5.37404   3.50881   5.12256
   5.37404   3.50881   4.65256
   5.37404   3.50881   4.65256
   5.37404   3.50881   4.17256
   4.89404   3.50881   4.17256
   4.89404   3.50881   4.17256
   4.89404   3.50881   3.69256
   4.89404   3.50881   3.69256
   4.89404   3.50881   3.69256
   4.89404   3.50881   3.21256
   4.89404   3.26881   3.21256
   4.89404   3.50881   3.21256
   4.89404   3.50881   3.21256
   4.89404   3.50881   2.73256
   4.89404   3.50881   2.73256
   4.89404   3.50881   2.73256
   4.89404   3.50881   2.25256
   4.42404   3.50881   2.25256
   4.42404   3.50881   2.25256
   4.42404   3.50881   2.25256
   4.42404   3.74881   1.77256
   4.42404   3.74881   1.77256
   4.42404   3.74881   1.77256
   4.42404   3.74881   1.29256
   4.42404   3.74881   1.29256
   4.42404   3.74881   1.29256
   4.42404   3.74881   1.29256
   4.42404   3.74881   1.29256
   3.94404   3.74881   1.29256
   3.94404   3.74881   0.81256
   3.94404   3.74881   0.81256
   3.94404   3.74881   0.81256
   3.94404   3.74881   0.81256
   3.94404   3.74881   0.81256
   3.46404   3.74881   0.33256
   3.46404   3.74881   0.33256
   3.46404   3.74881   0.33256
   3.46404   3.74881   0.33256
   2.98404   3.74881  -0.14744
   2.98404   3.50881   0.33256
   2.98404   3.74881  -0.14744
   2.98404   3.50881  -0.14744
   2.98404   3.74881  -0.14744
   2.50404   3.74881  -0.14744
   2.50404   3.74881  -0.14744
   2.50404   3.74881  -0.61744
