********************************************************************************
              CENTRO DE INSTRUMENTACION Y REGISTRO SISMICO  A.C.                

    Anaxagoras 814, Col. Narvarte, Benito Juarez, C.P. 03020 Mexico, D.F.       
           Tels. 5687 45 42/ 5687 45  82             Fax. 5669 25 12            
********************************************************************************
ARCHIVO ESTANDAR DE ACELERACION:
VERSION DEL FORMATO                    : 2.0
NOMBRE DEL ARCHIVO                     : BA4919890812153149
FECHA Y HORA DE CREACION               : 04/MAY/18, 11:26
REF. CATALOGO ACELEROGRAMAS, SMIS 1996 : REGISTRO No.     /PAG.


================================================================================
DATOS DE LA ESTACION:
NOMBRE DE LA ESTACION                  : BUENOS AIRES
CLAVE DE LA ESTACION                   : BA49
LOCALIZACION DE LA ESTACION            : Del. Cuauhtémoc, Col. Doctores,        
                                       : Av. Lázaro Cárdenas esq. con           
                                       : Calle Dr. Márquez.                     
                                       :                                        
                                       : 
COORDENADAS DE LA ESTACION             : 19.4097 LAT. N
                                       : 99.1450 LONG. W
ALTITUD (msnm)                         : 2233
TIPO DE SUELO                          : Terreno blando, material compresible
                                       : (arcillas)                
                                       : 
INSTITUCION RESPONSABLE                : CIRES


================================================================================
DATOS DEL ACELEROGRAFO:
MODELO DEL ACELEROGRAFO                : SSA-1
NUMERO DE SERIE DEL ACELEROGRAFO       : 176
NUMERO DE CANALES                      : 3
ORIENTACION C1-C6 (rumbo;orientacion)  : /S00E/+V/N90W
ORIENTACION C7-C12 (rumbo;orientacion) : 
VEL. DE MUESTREO, C1-C6 (muestras/s)   : /200/200/200
VEL. DE MUESTREO, C7-C12 (muestras/s)  : 
ESC. COMPLETA DE SENSORES, C1-C6, (g)  : /1.0/1.0/1.0
ESC. COMPLETA DE SENSORES, C7-C12, (g) : 
FREC. NAT. DE SENSORES, C1-C6, (Hz)    : /52.99/52.03/52.99
FREC. NAT. DE SENSORES, C7-C12, (Hz)   : 
AMORTIGUAMIENTO DE SENSORES, C1-C6     : /0.5589/0.5469/0.6096
AMORTIGUAMIENTO DE SENSORES, C7-C12    : 
INTERVALO DE MUESTREO, C1-C6, (s)      : /0.005/0.005/0.005
INTERVALO DE MUESTREO, C7-C12, (s)     : 
UMBRAL DE DISPARO, C1-C6, (Gal)        : /1.0/2.0/1.0
UMBRAL DE DISPARO, C7-C12, (Gal)       : 
MEMORIA DE PREEVENTO (s)               : 15.36
TIEMPO DE POSEVENTO (s)                : 0.0


================================================================================
DATOS DEL SISMO:
FECHA DEL SISMO (GMT)                  : 12/AGO/89
HORA EPICENTRO (GMT)                   : 15:31:49.0
MAGNITUD(ES)                           : /Mc=4.8
COORDENADAS DEL EPICENTRO              : 18.12 LAT. N
                                       : -101.03 LONG. W
PROFUNDIDAD FOCAL (km)                 : 56
FUENTE DE LOS DATOS EPICENTRALES       : SSN
                                       : INSTITUTO DE GEOFISICA, UNAM

================================================================================
DATOS DE ESTE REGISTRO:
HORA DE LA PRIMERA MUESTRA (GMT)       : 15:33:21.98
EXACTITUD DEL TIEMPO (s)               : 0.005
DURACION DEL REGISTRO (s), C1-C6       : /89.6/89.6/89.6
DURACION DEL REGISTRO (s), C7-C12      : 
NUM. TOTAL DE MUESTRAS, C1-C6          : /17920/17920/17920
NUM. TOTAL DE MUESTRAS, C7-C12         : 
ACEL. MAX. (Gal), C1-C6                : /1.90327/0.77516/0.93246
ACEL. MAX., C1-C6, EN LA MUESTRA       : /5108/3851/7027
ACEL. MAX. (Gal), C7-C12               : 
ACEL. MAX., C7-C12, EN LA MUESTRA      : 
UNIDADES DE LOS DATOS                  : Gal (cm/s/s)
FACTOR DE DECIMACION                   : 1
FORMATO DATOS (FORTRAN,10 campos/dato) : 3F10.5


================================================================================
CALIDAD DEL ACELEROGRAMA:
REGISTRO DIGITAL COMPLETO CON TIEMPO ABSOLUTO CORRECTO.


================================================================================
COMENTARIOS:














================================================================================
DATOS DE ACELERACION:
---------+---------+---------+---------+---------+---------+---------+---------+
   CANAL-1   CANAL-2   CANAL-3   CANAL-4   CANAL-5   CANAL-6   CANAL-7   CANAL-8
      N00E        +V      N90W
---------+---------+---------+---------+---------+---------+---------+---------+
[...]
   0.49093   0.05690   0.02522
   0.49093  -0.18252   0.02522
   0.73035  -0.18252   0.02522
   0.73035  -0.18252   0.26464
   0.73035  -0.18252   0.02522
   0.73035  -0.18252   0.02522
   0.73035   0.05690   0.26464
   0.73035  -0.18252   0.26464
   0.73035   0.05690   0.26464
   0.73035   0.05690   0.26464
   0.73035   0.05690   0.26464
   0.73035  -0.18252   0.02522
   0.73035  -0.18252   0.26464
   0.96977   0.05690   0.26464
   0.96977  -0.18252   0.50406
   0.73035  -0.18252   0.26464
   0.96977  -0.18252   0.26464
   1.20919   0.05690   0.26464
   0.96977  -0.18252   0.26464
   0.96977  -0.18252   0.50406
   0.96977   0.05690   0.50406
   0.96977   0.05690   0.50406
   0.96977   0.05690   0.50406
   0.96977   0.05690   0.50406
   0.96977  -0.18252   0.50406
   0.96977  -0.18252   0.50406
   0.96977  -0.18252   0.50406
   1.20919  -0.18252   0.50406
   1.20919   0.05690   0.50406
   1.20919   0.05690   0.50406
   0.96977  -0.18252   0.50406
   0.96977   0.05690   0.26464
   0.96977   0.05690   0.50406
   0.96977   0.05690   0.50406
   0.96977   0.05690   0.50406
   1.20919   0.05690   0.50406
   0.96977   0.05690   0.50406
   0.73035   0.05690   0.50406
   0.73035   0.05690   0.26464
   0.96977   0.05690   0.26464
   0.73035   0.29632   0.26464
   0.96977   0.05690   0.26464
   0.73035   0.05690   0.26464
   0.73035   0.05690   0.26464
   0.73035   0.29632   0.26464
   0.73035   0.29632   0.26464
   0.73035   0.29632   0.26464
   0.73035   0.05690   0.26464
   0.73035   0.05690   0.26464
   0.49093   0.29632   0.26464
   0.73035   0.29632   0.26464
   0.73035   0.29632   0.26464
   0.49093   0.29632   0.02522
   0.49093   0.29632   0.26464
   0.49093   0.29632   0.02522
   0.49093   0.29632   0.02522
   0.49093   0.29632   0.02522
   0.49093   0.05690   0.02522
   0.49093   0.05690   0.02522
   0.49093   0.29632   0.26464
   0.25151   0.29632   0.02522
   0.25151   0.29632   0.02522
   0.25151   0.29632   0.02522
   0.01209   0.29632   0.02522
   0.01209   0.29632   0.02522
   0.25151   0.29632   0.02522
   0.01209   0.29632  -0.21420
   0.01209   0.29632  -0.21420
   0.01209   0.05690  -0.21420
  -0.22733   0.29632   0.02522
  -0.22733   0.29632   0.02522
  -0.22733   0.29632  -0.21420
  -0.22733   0.29632  -0.21420
  -0.46675   0.29632  -0.21420
  -0.22733   0.29632   0.02522
  -0.46675   0.05690   0.02522
  -0.46675   0.29632  -0.21420
  -0.46675   0.29632  -0.21420
  -0.46675   0.05690  -0.21420
  -0.70617   0.29632  -0.21420
  -0.70617   0.29632  -0.21420
  -0.46675   0.29632  -0.21420
  -0.70617   0.05690  -0.21420
  -0.70617   0.05690  -0.21420
  -0.70617   0.05690  -0.21420
  -0.70617   0.05690   0.02522
  -0.70617   0.05690  -0.21420
  -0.70617   0.05690  -0.21420
  -0.94559   0.05690  -0.21420
  -0.70617   0.05690  -0.21420
  -0.94559   0.05690  -0.21420
  -0.70617   0.05690  -0.21420
  -0.70617   0.05690  -0.21420
  -0.70617   0.05690  -0.21420
  -0.70617  -0.18252  -0.21420
  -0.70617  -0.18252  -0.21420
  -0.94559  -0.18252  -0.21420
  -0.94559  -0.18252  -0.21420
  -0.94559  -0.18252  -0.21420
  -0.70617   0.05690   0.02522
  -0.70617  -0.18252  -0.21420
  -0.70617  -0.18252   0.02522
  -0.70617  -0.18252  -0.21420
  -0.70617   0.05690   0.02522
  -0.70617   0.05690  -0.21420
  -0.70617  -0.18252   0.02522
  -0.70617   0.05690   0.02522
  -0.70617   0.05690   0.02522
  -0.46675   0.05690  -0.21420
  -0.70617  -0.18252   0.02522
  -0.70617  -0.18252  -0.21420
  -0.70617  -0.18252   0.02522
  -0.70617  -0.18252   0.02522
  -0.70617  -0.18252   0.02522
  -0.46675  -0.18252   0.02522
  -0.46675  -0.18252   0.02522
  -0.46675  -0.18252   0.02522
  -0.46675  -0.18252   0.02522
  -0.46675  -0.18252   0.02522
  -0.46675   0.05690   0.02522
  -0.46675  -0.18252   0.02522
  -0.46675  -0.18252   0.02522
  -0.46675  -0.18252  -0.21420
  -0.46675  -0.18252  -0.21420
  -0.46675  -0.18252   0.02522
  -0.46675  -0.18252   0.02522
  -0.46675  -0.18252   0.02522
  -0.46675  -0.18252   0.02522
  -0.46675  -0.18252   0.02522
  -0.22733  -0.18252  -0.21420
  -0.46675  -0.42194  -0.21420
  -0.46675  -0.18252   0.02522
  -0.22733  -0.18252  -0.21420
  -0.46675  -0.18252   0.02522
  -0.46675  -0.18252   0.02522
  -0.22733  -0.18252   0.02522
  -0.46675   0.05690   0.02522
  -0.46675  -0.18252   0.02522
  -0.22733  -0.18252   0.02522
  -0.46675  -0.18252   0.02522
  -0.22733   0.05690   0.02522
  -0.22733   0.05690  -0.21420
  -0.22733   0.05690  -0.21420
  -0.22733  -0.18252  -0.21420
  -0.22733  -0.18252  -0.21420
  -0.22733  -0.18252  -0.21420
  -0.22733  -0.18252  -0.21420
  -0.22733  -0.18252  -0.21420
  -0.22733  -0.18252   0.02522
  -0.22733   0.05690  -0.21420
   0.01209  -0.18252  -0.21420
  -0.22733  -0.18252  -0.21420
  -0.22733   0.05690  -0.21420
  -0.22733   0.05690   0.02522
   0.01209   0.05690  -0.21420
   0.01209   0.05690  -0.21420
   0.01209   0.05690  -0.21420
  -0.22733   0.05690  -0.21420
   0.01209   0.05690   0.02522
   0.01209   0.05690   0.02522
   0.01209   0.05690   0.02522
   0.01209   0.05690   0.02522
   0.01209   0.05690   0.02522
   0.01209   0.05690   0.02522
   0.01209   0.05690   0.02522
   0.01209   0.05690   0.02522
   0.25151   0.05690  -0.21420
   0.01209   0.05690   0.02522
   0.25151   0.05690   0.02522
   0.25151   0.05690  -0.21420
   0.01209   0.29632   0.02522
   0.25151   0.05690   0.02522
   0.25151   0.05690   0.02522
   0.25151   0.05690   0.02522
   0.25151   0.05690   0.02522
   0.25151   0.05690   0.02522
   0.25151   0.05690   0.02522
   0.25151   0.05690   0.02522
   0.25151   0.05690   0.02522
   0.25151   0.05690   0.02522
   0.49093   0.05690   0.02522
   0.49093   0.05690   0.02522
   0.49093   0.05690   0.02522
   0.49093   0.05690   0.26464
   0.49093   0.05690   0.26464
   0.49093   0.05690   0.02522
   0.49093   0.05690   0.26464
   0.49093   0.05690   0.02522
   0.49093   0.05690   0.02522
   0.49093  -0.18252   0.26464
   0.49093  -0.18252   0.26464
   0.49093  -0.18252   0.02522
   0.49093  -0.18252   0.26464
   0.73035  -0.18252   0.26464
   0.73035  -0.18252   0.26464
   0.49093  -0.18252   0.02522
   0.73035  -0.18252   0.02522
   0.73035  -0.18252   0.26464
   0.73035  -0.18252   0.02522
   0.73035  -0.18252   0.02522
   0.73035  -0.42194   0.02522
   0.73035  -0.18252   0.02522
   0.73035  -0.42194   0.02522
   0.73035  -0.42194   0.02522
   0.73035  -0.18252   0.02522
   0.73035  -0.42194   0.02522
   0.73035  -0.42194   0.02522
   0.73035  -0.42194   0.02522
   0.73035  -0.42194   0.02522
   0.49093  -0.18252   0.02522
   0.73035  -0.18252   0.02522
   0.73035  -0.42194   0.02522
   0.96977  -0.42194   0.02522
   0.96977  -0.42194   0.02522
   0.73035  -0.18252   0.02522
   0.96977  -0.42194   0.02522
   0.96977  -0.18252   0.02522
   0.96977  -0.18252   0.02522
   0.73035  -0.18252   0.02522
   0.96977  -0.18252   0.02522
   0.73035  -0.42194  -0.21420
   0.96977  -0.18252   0.02522
   0.73035  -0.18252   0.02522
   0.73035  -0.18252  -0.21420
   0.96977  -0.18252   0.02522
   0.73035  -0.18252  -0.21420
   0.96977  -0.18252   0.02522
   0.96977  -0.18252   0.02522
   0.96977  -0.18252   0.02522
   0.96977  -0.18252   0.02522
   0.73035   0.05690  -0.21420
   0.73035  -0.18252  -0.21420
   0.73035  -0.18252  -0.21420
   0.73035  -0.18252  -0.21420
   0.73035   0.05690  -0.21420
   0.73035   0.05690  -0.21420
   0.73035   0.05690  -0.21420
   0.73035   0.05690  -0.21420
   0.73035   0.05690  -0.21420
   0.73035   0.05690  -0.21420
   0.73035   0.05690  -0.21420
   0.49093   0.05690  -0.45362
   0.73035   0.05690  -0.45362
   0.49093   0.05690  -0.21420
   0.49093   0.05690  -0.21420
   0.49093   0.05690  -0.21420
   0.49093   0.05690  -0.45362
   0.49093   0.29632  -0.21420
   0.49093   0.05690  -0.45362
   0.49093   0.05690  -0.21420
   0.49093   0.05690  -0.21420
   0.25151   0.05690  -0.21420
   0.25151   0.05690  -0.45362
   0.25151   0.29632  -0.45362
   0.25151   0.29632  -0.45362
   0.25151   0.05690  -0.21420
   0.01209   0.05690  -0.21420
   0.01209   0.05690  -0.21420
   0.01209   0.05690  -0.21420
  -0.22733   0.29632  -0.21420
   0.01209   0.29632  -0.21420
   0.01209   0.05690  -0.21420
  -0.22733   0.29632  -0.21420
   0.01209   0.05690  -0.21420
   0.01209   0.05690   0.02522
   0.01209   0.05690   0.02522
   0.01209   0.05690  -0.21420
   0.01209   0.29632   0.02522
  -0.22733   0.29632  -0.21420
   0.01209   0.05690   0.02522
  -0.22733   0.05690   0.02522
  -0.22733   0.05690   0.02522
  -0.22733   0.05690   0.02522
   0.01209   0.05690   0.02522
  -0.22733   0.05690   0.02522
  -0.22733   0.05690   0.02522
   0.01209   0.05690   0.02522
  -0.22733   0.05690   0.26464
  -0.22733   0.05690   0.26464
  -0.22733   0.05690   0.26464
  -0.22733   0.05690   0.26464
   0.01209   0.05690   0.02522
  -0.22733  -0.18252   0.26464
   0.01209  -0.18252   0.26464
  -0.22733   0.05690   0.26464
   0.01209  -0.18252   0.02522
   0.01209   0.05690   0.02522
   0.01209  -0.18252   0.26464
   0.01209  -0.18252   0.26464
   0.01209  -0.18252   0.26464
   0.01209  -0.18252   0.26464
   0.01209  -0.18252   0.26464
   0.01209  -0.18252   0.26464
   0.01209  -0.18252   0.26464
   0.01209  -0.18252   0.26464
   0.01209  -0.18252   0.26464
   0.01209  -0.18252   0.26464
   0.01209  -0.42194   0.02522
   0.01209  -0.18252   0.02522
   0.01209  -0.18252   0.26464
   0.01209  -0.18252   0.26464
   0.01209  -0.18252   0.26464
   0.01209  -0.18252   0.02522
   0.01209  -0.18252   0.02522
   0.01209  -0.18252   0.26464
   0.01209  -0.18252   0.02522
  -0.22733  -0.18252   0.02522
   0.01209  -0.18252   0.02522
  -0.22733  -0.18252   0.02522
   0.01209  -0.42194   0.02522
  -0.22733  -0.18252   0.02522
  -0.22733  -0.18252   0.02522
  -0.22733  -0.18252   0.02522
  -0.22733   0.05690   0.02522
  -0.46675   0.05690   0.02522
  -0.46675  -0.18252   0.02522
  -0.46675  -0.18252  -0.21420
  -0.46675   0.05690   0.02522
  -0.70617   0.05690   0.02522
  -0.70617   0.05690  -0.21420
  -0.70617   0.05690  -0.21420
  -0.70617   0.05690  -0.21420
  -0.94559   0.05690  -0.21420
  -0.94559   0.29632   0.02522
  -0.94559   0.05690  -0.21420
  -0.94559   0.29632  -0.21420
  -0.94559   0.29632  -0.21420
  -1.18501   0.29632  -0.21420
  -1.18501   0.29632  -0.21420
  -1.18501   0.29632  -0.21420
  -1.18501   0.29632  -0.21420
  -1.42443   0.53574  -0.21420
  -1.42443   0.29632  -0.21420
  -1.42443   0.53574  -0.21420
  -1.42443   0.53574  -0.21420
  -1.42443   0.29632  -0.21420
  -1.66385   0.53574  -0.21420
  -1.66385   0.53574  -0.21420
  -1.66385   0.53574  -0.21420
  -1.66385   0.53574  -0.21420
  -1.66385   0.53574  -0.21420
  -1.66385   0.53574  -0.21420
  -1.66385   0.53574  -0.21420
  -1.66385   0.53574  -0.21420
  -1.66385   0.53574  -0.21420
  -1.66385   0.53574  -0.21420
  -1.90327   0.29632  -0.21420
  -1.66385   0.53574  -0.21420
  -1.66385   0.53574  -0.21420
  -1.66385   0.53574  -0.21420
  -1.66385   0.53574  -0.45362
  -1.66385   0.53574  -0.21420
  -1.90327   0.29632  -0.21420
  -1.66385   0.29632  -0.21420
  -1.66385   0.29632  -0.21420
  -1.66385   0.29632  -0.21420
  -1.66385   0.29632  -0.21420
  -1.42443   0.29632  -0.21420
  -1.42443   0.29632  -0.21420
  -1.42443   0.29632  -0.21420
  -1.42443   0.05690  -0.21420
  -1.42443   0.05690  -0.21420
  -1.42443   0.05690  -0.21420
  -1.18501   0.05690  -0.21420
  -1.18501   0.05690  -0.21420
  -1.18501   0.05690  -0.21420
  -1.18501   0.05690  -0.21420
  -1.18501   0.05690   0.02522
  -0.94559   0.05690   0.02522
  -0.94559   0.05690   0.02522
  -0.94559  -0.18252   0.02522
  -0.70617  -0.18252  -0.21420
  -0.70617  -0.18252   0.02522
  -0.70617   0.05690   0.02522
  -0.46675  -0.18252   0.02522
  -0.46675  -0.42194   0.02522
  -0.46675  -0.18252   0.02522
  -0.46675  -0.42194   0.02522
  -0.46675  -0.42194   0.02522
  -0.46675  -0.42194   0.02522
  -0.22733  -0.42194   0.02522
  -0.22733  -0.42194   0.02522
  -0.22733  -0.66136   0.02522
  -0.22733  -0.42194   0.02522
   0.01209  -0.42194   0.02522
  -0.22733  -0.42194   0.02522
   0.01209  -0.66136   0.02522
   0.01209  -0.42194   0.02522
   0.01209  -0.66136   0.02522
   0.25151  -0.66136   0.02522
   0.25151  -0.66136   0.02522
   0.01209  -0.42194   0.02522
   0.25151  -0.66136   0.02522
   0.25151  -0.66136   0.26464
   0.25151  -0.42194   0.02522
   0.49093  -0.66136   0.26464
   0.49093  -0.42194   0.26464
   0.49093  -0.66136   0.26464
   0.49093  -0.42194   0.26464
   0.49093  -0.42194   0.26464
   0.49093  -0.42194   0.26464
   0.73035  -0.42194   0.26464
   0.49093  -0.42194   0.02522
   0.49093  -0.42194   0.26464
   0.73035  -0.42194   0.26464
   0.73035  -0.42194   0.26464
   0.73035  -0.42194   0.26464
   0.73035  -0.42194   0.26464
   0.73035  -0.18252   0.26464
   0.73035  -0.18252   0.26464
   0.73035  -0.18252   0.26464
   0.96977  -0.18252   0.26464
   0.73035  -0.18252   0.26464
   0.96977  -0.42194   0.26464
   0.96977  -0.18252   0.26464
   0.96977  -0.18252   0.50406
   0.96977  -0.18252   0.26464
   0.96977  -0.18252   0.50406
   0.96977   0.05690   0.26464
   0.96977   0.05690   0.26464
   0.96977   0.05690   0.50406
   1.20919  -0.18252   0.50406
   0.96977   0.05690   0.50406
   1.20919   0.05690   0.50406
   1.20919   0.05690   0.26464
   1.20919   0.05690   0.26464
   1.20919   0.05690   0.50406
   1.20919   0.05690   0.50406
   1.20919   0.05690   0.50406
   1.20919   0.05690   0.50406
   1.20919   0.05690   0.50406
   1.20919   0.05690   0.50406
   0.96977   0.05690   0.50406
   1.20919   0.05690   0.50406
   0.96977   0.05690   0.50406
   1.20919   0.05690   0.50406
   1.20919   0.05690   0.50406
   1.20919   0.05690   0.50406
   1.20919   0.05690   0.50406
   0.96977   0.05690   0.50406
   1.20919   0.05690   0.50406
   1.20919   0.29632   0.50406
   1.20919   0.05690   0.50406
   0.96977   0.29632   0.26464
   1.20919   0.05690   0.50406
   1.20919   0.29632   0.50406
   0.96977   0.05690   0.50406
   0.96977   0.29632   0.26464
   0.96977   0.05690   0.26464
   0.96977   0.05690   0.26464
   0.96977   0.05690   0.26464
   0.96977   0.29632   0.26464
   0.96977   0.29632   0.26464
   0.96977   0.29632   0.26464
   0.96977   0.05690   0.02522
   0.73035   0.05690   0.26464
   0.73035   0.29632   0.26464
   0.73035   0.05690   0.26464
   0.73035   0.29632   0.26464
   0.73035   0.29632   0.26464
   0.73035   0.05690   0.26464
   0.49093   0.29632   0.26464
   0.73035   0.29632   0.26464
   0.73035   0.29632   0.02522
   0.49093   0.29632   0.02522
   0.73035   0.29632   0.02522
   0.49093   0.29632   0.02522
   0.49093   0.05690   0.02522
   0.49093   0.29632   0.02522
   0.49093   0.29632   0.02522
   0.49093   0.29632   0.02522
   0.49093   0.29632  -0.21420
   0.49093   0.05690  -0.21420
   0.49093   0.29632  -0.21420
   0.49093   0.29632  -0.21420
   0.49093   0.29632  -0.21420
   0.25151   0.29632  -0.21420
   0.49093   0.29632  -0.21420
   0.25151   0.29632  -0.21420
   0.25151   0.29632  -0.21420
   0.25151   0.29632  -0.21420
   0.25151   0.29632  -0.45362
   0.25151   0.29632  -0.45362
   0.25151   0.05690  -0.45362
   0.01209   0.29632  -0.45362
   0.01209   0.29632  -0.45362
   0.25151   0.05690  -0.45362
   0.01209   0.29632  -0.45362
   0.01209   0.29632  -0.45362
  -0.22733   0.29632  -0.45362
   0.01209   0.05690  -0.45362
   0.01209   0.29632  -0.45362
   0.01209   0.29632  -0.45362
   0.01209   0.29632  -0.45362
   0.01209   0.29632  -0.45362
   0.01209   0.29632  -0.45362
