********************************************************************************
              CENTRO DE INSTRUMENTACION Y REGISTRO SISMICO  A.C.

    Anaxagoras 814, Col. Narvarte, Benito Juarez, C.P. 03020 Mexico, D.F.
           Tels. 5687 45 42/ 5687 45  82             Fax. 5669 25 12
********************************************************************************
ARCHIVO ESTANDAR DE ACELERACION:
VERSION DEL FORMATO                    : 2.0
NOMBRE DEL ARCHIVO                     : BA4920100630072227
FECHA Y HORA DE CREACION               : 20/JUL/10, 12:41
REF. CATALOGO ACELEROGRAMAS, SMIS 1996 : REGISTRO No.     /PAG.


================================================================================
DATOS DE LA ESTACION:
NOMBRE DE LA ESTACION                  : BUENOS AIRES
CLAVE DE LA ESTACION                   : BA49
LOCALIZACION DE LA ESTACION            : Del. Cuauhtémoc, Col. Doctores,        
                                       : Av. Lázaro Cárdenas esq. con           
                                       : Calle Dr. Márquez.                     
                                       :                                        
                                       : 
COORDENADAS DE LA ESTACION             : 19.4097 LAT. N
                                       : 99.1450 LONG. W
ALTITUD (msnm)                         : 2233
TIPO DE SUELO                          : Terreno blando, material compresible
                                       : (arcillas)                
                                       : 
INSTITUCION RESPONSABLE                : CIRES
                                       : 

================================================================================
DATOS DEL ACELEROGRAFO:
MODELO DEL ACELEROGRAFO                : RADESD
NUMERO DE SERIE DEL ACELEROGRAFO       : 176
NUMERO DE CANALES                      : 3
ORIENTACION C1-C6 (rumbo;orientacion)  : /N00E/+V/N90W
ORIENTACION C7-C12 (rumbo;orientacion) : 
VEL. DE MUESTREO, C1-C6 (muestras/s)   : /100/100/100
VEL. DE MUESTREO, C7-C12 (muestras/s)  : 
ESC. COMPLETA DE SENSORES, C1-C6, (g)  : /0.5/0.5/0.5
ESC. COMPLETA DE SENSORES, C7-C12, (g) : 
FREC. NAT. DE SENSORES, C1-C6, (Hz)    : /52.99/52.03/52.99
FREC. NAT. DE SENSORES, C7-C12, (Hz)   : 
AMORTIGUAMIENTO DE SENSORES, C1-C6     : /0.5589/0.5469/0.6096
AMORTIGUAMIENTO DE SENSORES, C7-C12    : 
INTERVALO DE MUESTREO, C1-C6, (s)      : /0.01/0.01/0.01
INTERVALO DE MUESTREO, C7-C12, (s)     : 
UMBRAL DE DISPARO, C1-C6, (Gal)        : /0.96/1.92/0.96
UMBRAL DE DISPARO, C7-C12, (Gal)       : 
MEMORIA DE PREEVENTO (s)               : 56.0
TIEMPO DE POSEVENTO (s)                : 64.0


================================================================================
DATOS DEL SISMO:
FECHA DEL SISMO (GMT)                  : 30/JUN/10
HORA EPICENTRO (GMT)                   : 07:22:27.0
MAGNITUD(ES)                           : /Mc=6.0
COORDENADAS DEL EPICENTRO              : 16.22 LAT. N
                                       : 98.03 LONG. W
PROFUNDIDAD FOCAL (km)                 : 8
FUENTE DE LOS DATOS EPICENTRALES       : SSN
                                       : INSTITUTO DE GEOFISICA, UNAM

================================================================================
DATOS DE ESTE REGISTRO:
HORA DE LA PRIMERA MUESTRA (GMT)       : 07:24:11.00
EXACTITUD DEL TIEMPO (s)               : 0.01
DURACION DEL REGISTRO (s), C1-C6       : /291.5/291.5/291.5
DURACION DEL REGISTRO (s), C7-C12      : 
NUM. TOTAL DE MUESTRAS, C1-C6          : /29150/29150/29150
NUM. TOTAL DE MUESTRAS, C7-C12         : 
ACEL. MAX. (Gal), C1-C6                : /6.30433/2.98763/8.11306
ACEL. MAX., C1-C6, EN LA MUESTRA       : /7865/6545/7174
ACEL. MAX. (Gal), C7-C12               : 
ACEL. MAX., C7-C12, EN LA MUESTRA      : 
UNIDADES DE LOS DATOS                  : Gal (cm/s/s)
FACTOR DE DECIMACION                   : 1
FORMATO DATOS (FORTRAN,10 campos/dato) : 3F10.5


================================================================================
CALIDAD DEL ACELEROGRAMA:
REGISTRO DIGITAL COMPLETO CON TIEMPO ABSOLUTO CORRECTO.


================================================================================
COMENTARIOS:














================================================================================
DATOS DE ACELERACION:
---------+---------+---------+---------+---------+---------+---------+---------+
   CANAL-1   CANAL-2   CANAL-3   CANAL-4   CANAL-5   CANAL-6   CANAL-7   CANAL-8
      N00E        +V      N90W
---------+---------+---------+---------+---------+---------+---------+---------+
[...]
   1.83595  -1.31169   1.88813
   1.83595  -1.07227   1.88813
   1.83595  -1.07227   1.88813
   2.07537  -0.83285   1.88813
   2.07537  -0.59343   2.12755
   2.07537  -0.59343   2.12755
   2.07537  -0.35401   2.12755
   2.07537  -0.11458   2.12755
   2.07537   0.12484   2.12755
   1.83595   0.36426   2.12755
   1.83595   0.36426   2.12755
   1.59653   0.60368   2.12755
   1.35711   0.84310   2.12755
   1.11769   0.84310   2.12755
   0.87827   1.08252   2.12755
   0.87827   1.32194   2.36697
   0.39943   1.08252   2.12755
   0.16001   1.56136   2.36697
  -0.07941   1.56136   2.36697
  -0.31883   1.80078   2.12755
  -0.79767   1.56136   2.12755
  -1.03709   1.80078   2.12755
  -1.51593   1.80078   2.12755
  -1.75535   1.80078   2.12755
  -1.99477   1.80078   2.12755
  -2.47361   1.56136   2.12755
  -2.71303   1.56136   2.12755
  -3.19187   1.56136   1.88813
  -3.43129   1.32194   1.88813
  -3.67071   1.32194   1.64871
  -4.14955   1.08252   1.64871
  -4.38897   0.84310   1.64871
  -4.38897   0.60368   1.64871
  -4.86781   0.36426   1.40929
  -4.86781   0.12484   1.40929
  -4.86781   0.12484   1.16987
  -5.10723  -0.11458   0.93045
  -5.10723  -0.35401   0.93045
  -5.10723  -0.35401   0.69103
  -5.10723  -0.35401   0.45161
  -5.10723  -0.59343   0.45161
  -5.10723  -0.59343   0.21219
  -4.86781  -0.83285  -0.02723
  -4.86781  -1.07227  -0.26665
  -4.62839  -1.07227  -0.50607
  -4.62839  -1.31169  -0.50607
  -4.62839  -1.55111  -0.50607
  -4.14955  -1.31169  -0.74549
  -4.14955  -1.55111  -0.74549
  -3.91013  -1.55111  -0.74549
  -3.67071  -1.55111  -0.98491
  -3.67071  -1.55111  -0.98491
  -3.43129  -1.55111  -0.98491
  -3.19187  -1.55111  -1.22433
  -2.71303  -1.55111  -1.22433
  -2.47361  -1.55111  -1.22433
  -2.23419  -1.55111  -1.22433
  -1.99477  -1.31169  -1.22433
  -1.75535  -1.31169  -1.46375
  -1.51593  -1.31169  -1.46375
  -1.27651  -1.31169  -1.70317
  -1.03709  -1.07227  -1.70317
  -0.79767  -1.07227  -1.70317
  -0.55825  -1.07227  -1.94259
  -0.31883  -0.83285  -1.94259
  -0.07941  -0.83285  -1.94259
   0.16001  -0.59343  -1.94259
   0.16001  -0.59343  -1.94259
   0.39943  -0.11458  -1.94259
   0.39943  -0.11458  -1.94259
   0.39943  -0.11458  -1.94259
   0.63885   0.12484  -1.94259
   0.63885   0.36426  -1.70317
   0.87827   0.36426  -1.46375
   0.87827   0.36426  -1.46375
   0.87827   0.60368  -1.46375
   0.87827   0.84310  -1.22433
   0.87827   1.08252  -0.98491
   0.87827   1.08252  -0.74549
   0.87827   1.32194  -0.74549
   0.87827   1.32194  -0.50607
   0.63885   1.56136  -0.26665
   0.63885   1.56136  -0.26665
   0.39943   1.32194  -0.02723
   0.39943   1.56136   0.21219
   0.16001   1.32194   0.45161
   0.16001   1.56136   0.45161
   0.16001   1.56136   0.93045
  -0.07941   1.32194   0.93045
  -0.07941   1.08252   0.93045
  -0.07941   1.08252   1.16987
  -0.07941   0.84310   1.16987
  -0.07941   0.84310   1.16987
  -0.07941   0.84310   1.16987
  -0.07941   0.60368   1.16987
  -0.07941   0.60368   1.16987
  -0.07941   0.36426   1.16987
   0.16001   0.36426   1.16987
   0.16001   0.12484   0.93045
   0.39943   0.12484   0.69103
   0.39943  -0.11458   0.69103
   0.39943  -0.35401   0.69103
   0.39943  -0.59343   0.45161
   0.39943  -0.59343   0.45161
   0.63885  -0.59343   0.21219
   0.63885  -0.83285   0.21219
   0.63885  -0.83285  -0.02723
   0.63885  -0.83285  -0.02723
   0.63885  -0.83285  -0.26665
   0.63885  -1.07227  -0.26665
   0.39943  -0.83285  -0.50607
   0.39943  -0.83285  -0.50607
   0.63885  -0.83285  -0.50607
   0.63885  -0.83285  -0.50607
   0.63885  -0.83285  -0.74549
   0.63885  -0.83285  -0.74549
   0.63885  -0.83285  -0.74549
   0.87827  -0.83285  -0.74549
   0.87827  -0.83285  -0.74549
   0.87827  -0.83285  -0.98491
   1.11769  -0.83285  -0.74549
   1.11769  -0.83285  -0.74549
   1.11769  -0.83285  -0.74549
   1.11769  -1.07227  -0.74549
   0.87827  -0.83285  -0.74549
   1.11769  -0.83285  -0.50607
   0.87827  -0.83285  -0.50607
   0.87827  -0.83285  -0.50607
   0.87827  -0.83285  -0.50607
   0.63885  -0.83285  -0.50607
   0.63885  -0.59343  -0.50607
   0.39943  -0.59343  -0.26665
   0.39943  -0.59343  -0.50607
   0.16001  -0.59343  -0.02723
  -0.07941  -0.35401  -0.02723
  -0.07941  -0.35401   0.21219
  -0.07941  -0.11458   0.21219
  -0.31883   0.12484   0.45161
  -0.31883   0.12484   0.69103
  -0.55825   0.36426   0.69103
  -0.31883   0.36426   0.93045
  -0.31883   0.36426   1.16987
  -0.31883   0.36426   1.40929
  -0.31883   0.60368   1.64871
  -0.07941   0.60368   1.88813
  -0.07941   0.60368   2.12755
  -0.07941   0.60368   2.36697
   0.16001   0.36426   2.60639
   0.39943   0.36426   2.84581
   0.63885   0.12484   2.84581
   0.87827   0.36426   3.08523
   0.87827   0.12484   3.08523
   1.35711   0.12484   3.32465
   1.59653   0.12484   3.56408
   1.83595  -0.11458   3.56408
   2.07537  -0.11458   3.56408
   2.31479  -0.59343   3.80350
   2.55421  -0.35401   3.80350
   2.79363  -0.35401   3.80350
   3.03306  -0.59343   3.80350
   3.27248  -0.59343   3.80350
   3.51190  -0.59343   3.80350
   3.51190  -0.59343   3.80350
   3.75132  -0.83285   3.56408
   3.99074  -0.83285   3.56408
   3.99074  -0.83285   3.32465
   3.99074  -0.83285   3.32465
   3.99074  -0.59343   3.32465
   3.99074  -0.35401   3.08523
   3.99074  -0.35401   3.08523
   3.99074  -0.35401   3.08523
   3.75132  -0.11458   3.08523
   3.75132   0.12484   3.08523
   3.51190   0.12484   3.08523
   3.27248   0.36426   3.08523
   3.27248   0.36426   2.84581
   3.03306   0.36426   2.84581
   2.79363   0.60368   2.84581
   2.55421   0.60368   2.84581
   2.31479   0.60368   2.84581
   2.07537   0.84310   2.60639
   1.83595   0.84310   2.60639
   1.35711   1.08252   2.60639
   1.11769   1.08252   2.36697
   0.87827   1.08252   2.60639
   0.39943   1.08252   2.36697
   0.39943   1.08252   2.36697
   0.16001   1.08252   2.36697
  -0.31883   1.08252   2.36697
  -0.55825   1.08252   2.12755
  -0.55825   0.84310   2.12755
  -0.79767   0.84310   1.88813
  -1.03709   0.60368   1.88813
  -1.27651   0.36426   1.88813
  -1.27651   0.36426   1.64871
  -1.27651   0.12484   1.40929
  -1.51593   0.12484   1.40929
  -1.51593  -0.11458   1.16987
  -1.51593  -0.35401   0.93045
  -1.51593  -0.35401   0.93045
  -1.51593  -0.35401   0.69103
  -1.51593  -0.59343   0.69103
  -1.51593  -0.59343   0.45161
  -1.75535  -0.83285   0.21219
  -1.75535  -0.83285   0.21219
  -1.51593  -0.83285  -0.02723
  -1.51593  -0.83285  -0.26665
  -1.75535  -0.83285  -0.26665
  -1.51593  -0.83285  -0.50607
  -1.75535  -0.83285  -0.74549
  -1.75535  -0.83285  -0.74549
  -1.51593  -0.59343  -0.98491
  -1.75535  -0.59343  -1.22433
  -1.51593  -0.59343  -1.22433
  -1.51593  -0.35401  -1.46375
  -1.51593  -0.11458  -1.46375
  -1.27651  -0.11458  -1.70317
  -1.27651   0.12484  -1.94259
  -1.27651   0.12484  -1.94259
  -1.03709   0.12484  -2.18201
  -0.79767   0.36426  -2.18201
  -0.55825   0.36426  -2.42143
  -0.55825   0.36426  -2.42143
  -0.31883   0.36426  -2.66085
  -0.07941   0.60368  -2.66085
  -0.07941   0.36426  -2.66085
  -0.07941   0.60368  -2.66085
   0.16001   0.60368  -2.66085
   0.39943   0.60368  -2.66085
   0.39943   0.84310  -2.66085
   0.63885   0.84310  -2.42143
   0.39943   0.60368  -2.42143
   0.63885   0.60368  -2.18201
   0.63885   0.60368  -2.18201
   0.63885   0.84310  -2.18201
   0.63885   0.84310  -2.18201
   0.63885   0.84310  -2.18201
   0.87827   0.84310  -1.94259
   0.63885   1.08252  -1.70317
   0.63885   0.84310  -1.70317
   0.63885   1.08252  -1.70317
   0.63885   1.08252  -1.70317
   0.63885   1.08252  -1.70317
   0.39943   1.08252  -1.46375
   0.39943   1.08252  -1.70317
   0.16001   1.32194  -1.70317
   0.16001   1.08252  -1.70317
   0.16001   1.08252  -1.46375
  -0.07941   1.08252  -1.70317
  -0.07941   1.08252  -1.70317
  -0.07941   1.08252  -1.70317
  -0.07941   0.84310  -1.70317
  -0.31883   0.84310  -1.70317
  -0.31883   0.60368  -1.70317
  -0.31883   0.60368  -1.70317
  -0.07941   0.60368  -1.94259
  -0.31883   0.36426  -1.94259
  -0.07941   0.36426  -1.94259
  -0.07941   0.12484  -1.94259
   0.16001  -0.11458  -2.18201
  -0.07941  -0.11458  -1.94259
   0.39943  -0.11458  -2.18201
   0.39943  -0.35401  -2.18201
   0.63885  -0.59343  -2.18201
   0.63885  -0.35401  -2.18201
   0.87827  -0.59343  -2.42143
   0.87827  -0.83285  -2.42143
   1.11769  -0.83285  -2.42143
   1.35711  -0.83285  -2.66085
   1.35711  -0.83285  -2.66085
   1.35711  -1.07227  -2.90027
   1.59653  -1.07227  -3.13969
   1.59653  -1.07227  -3.37911
   1.59653  -1.07227  -3.61853
   1.59653  -1.07227  -3.61853
   1.59653  -1.07227  -3.85795
   1.59653  -1.07227  -4.09737
   1.59653  -0.83285  -4.57621
   1.59653  -0.83285  -4.81563
   1.35711  -0.83285  -5.05505
   1.35711  -0.59343  -5.29447
   1.11769  -0.35401  -5.77331
   0.87827  -0.35401  -5.77331
   0.63885  -0.11458  -6.01273
   0.39943   0.12484  -6.25215
   0.16001   0.12484  -6.49157
  -0.07941   0.36426  -6.73099
  -0.31883   0.36426  -6.73099
  -0.55825   0.36426  -6.97041
  -1.03709   0.60368  -7.20983
  -1.27651   0.60368  -7.20983
  -1.51593   0.60368  -7.20983
  -1.75535   0.60368  -7.20983
  -1.99477   0.84310  -7.44925
  -2.23419   0.84310  -7.44925
  -2.47361   0.84310  -7.20983
  -2.71303   0.84310  -7.20983
  -2.95245   0.84310  -7.20983
  -3.19187   0.84310  -7.44925
  -3.19187   0.84310  -7.20983
  -3.19187   0.84310  -7.20983
  -3.43129   0.60368  -7.20983
  -3.43129   0.60368  -7.20983
  -3.43129   0.60368  -6.97041
  -3.43129   0.60368  -6.97041
  -3.43129   0.36426  -6.73099
  -3.43129   0.36426  -6.49157
  -3.43129   0.36426  -6.25215
  -3.43129   0.12484  -6.01273
  -3.43129   0.12484  -5.77331
  -3.19187  -0.11458  -5.53389
  -3.19187  -0.11458  -5.05505
  -2.95245  -0.11458  -4.81563
  -2.95245  -0.11458  -4.33679
  -2.95245  -0.11458  -4.09737
  -2.71303  -0.11458  -3.61853
  -2.71303  -0.11458  -3.13969
  -2.47361  -0.35401  -2.66085
  -2.47361  -0.35401  -2.18201
  -2.47361  -0.35401  -1.46375
  -2.23419  -0.59343  -0.98491
  -2.23419  -0.35401  -0.50607
  -1.99477  -0.59343   0.21219
  -1.99477  -0.59343   0.69103
  -1.99477  -0.59343   1.40929
  -2.23419  -0.35401   1.88813
  -1.99477  -0.83285   2.36697
  -1.99477  -0.35401   2.84581
  -2.23419  -0.35401   3.32465
  -2.23419  -0.35401   3.80350
  -2.23419  -0.35401   4.28234
  -2.23419  -0.35401   4.76118
  -2.23419  -0.35401   5.00060
  -2.23419  -0.35401   5.47944
  -2.47361  -0.11458   5.71886
  -2.23419  -0.11458   6.19770
  -2.47361  -0.11458   6.43712
  -2.47361  -0.11458   6.67654
  -2.23419  -0.35401   6.67654
  -2.23419  -0.11458   7.15538
  -2.23419  -0.11458   7.15538
  -2.23419  -0.35401   7.39480
  -1.99477  -0.35401   7.63422
  -1.99477  -0.35401   7.63422
  -1.99477  -0.35401   7.87364
  -1.99477  -0.59343   7.87364
  -1.99477  -0.59343   8.11306
  -1.75535  -0.59343   8.11306
  -1.75535  -0.59343   8.11306
  -1.75535  -0.59343   8.11306
  -1.51593  -0.83285   7.87364
  -1.51593  -0.83285   7.87364
  -1.51593  -0.83285   7.87364
  -1.27651  -1.07227   7.63422
  -1.27651  -0.83285   7.63422
  -1.51593  -1.07227   7.39480
  -1.27651  -1.07227   7.15538
  -1.03709  -0.83285   6.67654
  -1.03709  -1.07227   6.43712
  -1.03709  -1.07227   6.19770
  -0.79767  -1.07227   5.71886
  -0.79767  -1.07227   5.47944
  -0.55825  -1.07227   5.00060
  -0.55825  -1.07227   4.52176
  -0.31883  -0.83285   4.04292
  -0.07941  -1.07227   3.80350
  -0.07941  -1.07227   3.56408
   0.16001  -1.31169   2.84581
   0.39943  -0.83285   2.84581
   0.39943  -0.83285   2.36697
   0.63885  -0.83285   2.12755
   0.87827  -0.59343   1.64871
   0.87827  -0.83285   1.40929
   1.35711  -0.83285   1.16987
   1.35711  -0.83285   0.93045
   1.59653  -0.83285   0.69103
   2.07537  -0.83285   0.45161
   2.31479  -0.83285   0.45161
   2.31479  -0.59343   0.21219
   2.55421  -0.59343  -0.02723
   2.79363  -0.59343  -0.02723
   3.03306  -0.35401  -0.02723
   3.03306  -0.35401  -0.26665
   3.03306  -0.11458  -0.26665
   3.51190  -0.35401  -0.26665
   3.27248  -0.11458  -0.26665
   3.51190  -0.11458  -0.26665
   3.51190   0.12484  -0.50607
   3.75132   0.12484  -0.50607
   3.51190   0.36426  -0.74549
   3.51190   0.36426  -0.26665
   3.51190   0.60368  -0.50607
   3.51190   0.84310  -0.50607
   3.27248   0.84310  -0.50607
   3.27248   0.84310  -0.50607
   3.03306   1.08252  -0.50607
   3.03306   1.32194  -0.26665
   2.55421   1.56136  -0.26665
   2.55421   1.56136  -0.26665
   2.31479   1.56136  -0.02723
   2.07537   1.80078  -0.02723
   1.83595   1.80078   0.21219
   1.59653   2.04020   0.45161
   1.59653   1.80078   0.69103
   1.11769   2.04020   0.93045
   0.87827   2.04020   0.93045
   0.63885   2.04020   1.16987
   0.63885   2.04020   1.64871
   0.39943   1.80078   1.64871
   0.16001   1.80078   1.88813
  -0.07941   1.56136   2.12755
  -0.07941   1.56136   2.36697
  -0.31883   1.32194   2.60639
  -0.31883   1.08252   2.84581
  -0.31883   0.84310   3.08523
  -0.55825   0.84310   3.56408
  -0.55825   0.60368   3.80350
  -0.55825   0.36426   4.04292
  -0.31883   0.12484   4.28234
  -0.31883  -0.35401   4.52176
  -0.31883  -0.11458   4.52176
  -0.07941  -0.11458   4.76118
  -0.07941  -0.59343   5.00060
   0.16001  -0.59343   5.24002
   0.39943  -0.83285   5.24002
   0.39943  -1.07227   5.47944
   0.63885  -1.07227   5.71886
   0.87827  -1.31169   5.71886
   0.87827  -1.31169   5.95828
   1.11769  -1.55111   5.95828
   1.11769  -1.55111   6.19770
   1.11769  -1.55111   6.19770
   1.35711  -1.79053   6.19770
   1.35711  -1.79053   6.43712
   1.35711  -1.79053   6.43712
   1.59653  -1.79053   6.43712
   1.35711  -1.79053   6.43712
   1.59653  -1.79053   6.67654
   1.35711  -1.79053   6.67654
   1.11769  -1.79053   6.43712
   1.11769  -1.31169   6.43712
   1.11769  -1.31169   6.19770
   0.87827  -1.07227   5.95828
   0.63885  -0.83285   5.71886
   0.63885  -0.83285   5.71886
   0.39943  -0.35401   5.47944
   0.39943  -0.35401   5.00060
   0.16001  -0.11458   4.76118
   0.16001   0.12484   4.52176
  -0.07941   0.36426   4.04292
  -0.07941   0.60368   3.80350
  -0.07941   0.60368   3.32465
  -0.07941   0.84310   2.84581
  -0.07941   1.08252   2.36697
  -0.07941   1.32194   2.12755
  -0.07941   1.32194   1.64871
   0.16001   1.32194   1.16987
   0.16001   1.56136   0.69103
   0.16001   1.56136   0.45161
   0.39943   1.56136  -0.02723
   0.63885   1.56136  -0.50607
   0.87827   1.56136  -0.74549
   0.87827   1.56136  -1.22433
   1.35711   1.56136  -1.70317
   1.59653   1.56136  -1.94259
   1.83595   1.32194  -2.42143
   2.07537   1.32194  -2.66085
   2.31479   1.08252  -3.13969
   2.55421   1.08252  -3.37911
   2.79363   0.84310  -3.85795
   3.03306   1.08252  -4.09737
   3.27248   0.84310  -4.57621
   3.51190   0.60368  -4.81563
   3.51190   0.60368  -5.29447
   3.75132   0.60368  -5.29447
   3.75132   0.36426  -5.53389
   3.75132   0.36426  -6.01273
   3.99074   0.36426  -6.01273
   3.99074   0.36426  -6.49157
   3.99074   0.36426  -6.49157
   3.99074   0.12484  -6.73099
   3.99074   0.12484  -6.97041
   3.75132   0.12484  -6.97041
   3.99074   0.12484  -6.97041
   3.75132   0.12484  -7.20983
   3.75132   0.12484  -7.20983
   3.51190   0.12484  -6.97041
   3.51190   0.36426  -6.97041
   3.27248   0.36426  -6.73099
   3.27248   0.12484  -6.73099
   3.27248   0.12484  -6.25215
   2.79363  -0.11458  -6.01273
   2.79363  -0.11458  -5.77331
   2.79363  -0.11458  -5.29447
   2.55421  -0.11458  -5.05505
   2.31479  -0.11458  -4.57621
