********************************************************************************
              CENTRO DE INSTRUMENTACION Y REGISTRO SISMICO  A.C.

    Anaxagoras 814, Col. Narvarte, Benito Juarez, C.P. 03020 Mexico, D.F.
           Tels. 5687 45 42/ 5687 45  82             Fax. 5669 25 12
********************************************************************************
ARCHIVO ESTANDAR DE ACELERACION:
VERSION DEL FORMATO                    : 2.0
NOMBRE DEL ARCHIVO                     : BA4920090815132245
FECHA Y HORA DE CREACION               : 08/OCT/09, 00:53
REF. CATALOGO ACELEROGRAMAS, SMIS 1996 : REGISTRO No.     /PAG.


================================================================================
DATOS DE LA ESTACION:
NOMBRE DE LA ESTACION                  : BUENOS AIRES
CLAVE DE LA ESTACION                   : BA49
LOCALIZACION DE LA ESTACION            : Del. Cuauhtémoc, Col. Doctores,        
                                       : Av. Lázaro Cárdenas esq. con           
                                       : Calle Dr. Márquez.                     
                                       :                                        
                                       : 
COORDENADAS DE LA ESTACION             : 19.4097 LAT. N
                                       : 99.1450 LONG. W
ALTITUD (msnm)                         : 2233
TIPO DE SUELO                          : Terreno blando, material compresible
                                       : (arcillas)                
                                       : 
INSTITUCION RESPONSABLE                : CIRES
                                       : 

================================================================================
DATOS DEL ACELEROGRAFO:
MODELO DEL ACELEROGRAFO                : RADESD
NUMERO DE SERIE DEL ACELEROGRAFO       : 176
NUMERO DE CANALES                      : 3
ORIENTACION C1-C6 (rumbo;orientacion)  : /N00E/+V/N90W
ORIENTACION C7-C12 (rumbo;orientacion) : 
VEL. DE MUESTREO, C1-C6 (muestras/s)   : /100/100/100
VEL. DE MUESTREO, C7-C12 (muestras/s)  : 
ESC. COMPLETA DE SENSORES, C1-C6, (g)  : /0.5/0.5/0.5
ESC. COMPLETA DE SENSORES, C7-C12, (g) : 
FREC. NAT. DE SENSORES, C1-C6, (Hz)    : /52.99/52.03/52.99
FREC. NAT. DE SENSORES, C7-C12, (Hz)   : 
AMORTIGUAMIENTO DE SENSORES, C1-C6     : /0.5589/0.5469/0.6096
AMORTIGUAMIENTO DE SENSORES, C7-C12    : 
INTERVALO DE MUESTREO, C1-C6, (s)      : /0.01/0.01/0.01
INTERVALO DE MUESTREO, C7-C12, (s)     : 
UMBRAL DE DISPARO, C1-C6, (Gal)        : /0.96/1.92/0.96
UMBRAL DE DISPARO, C7-C12, (Gal)       : 
MEMORIA DE PREEVENTO (s)               : 56.0
TIEMPO DE POSEVENTO (s)                : 64.0


================================================================================
DATOS DEL SISMO:
FECHA DEL SISMO (GMT)                  : 15/AGO/09
HORA EPICENTRO (GMT)                   : 13:22:45.0
MAGNITUD(ES)                           : /Mc=5.4
COORDENADAS DEL EPICENTRO              : 18.06 LAT. N
                                       : 100.67 LONG. W
PROFUNDIDAD FOCAL (km)                 : 55
FUENTE DE LOS DATOS EPICENTRALES       : SSN
                                       : INSTITUTO DE GEOFISICA, UNAM

================================================================================
DATOS DE ESTE REGISTRO:
HORA DE LA PRIMERA MUESTRA (GMT)       : 13:24:01.00
EXACTITUD DEL TIEMPO (s)               : 0.01
DURACION DEL REGISTRO (s), C1-C6       : /155.5/155.5/155.5
DURACION DEL REGISTRO (s), C7-C12      : 
NUM. TOTAL DE MUESTRAS, C1-C6          : /15550/15550/15550
NUM. TOTAL DE MUESTRAS, C7-C12         : 
ACEL. MAX. (Gal), C1-C6                : /1.48905/0.97836/1.73445
ACEL. MAX., C1-C6, EN LA MUESTRA       : /5641/5504/7210
ACEL. MAX. (Gal), C7-C12               : 
ACEL. MAX., C7-C12, EN LA MUESTRA      : 
UNIDADES DE LOS DATOS                  : Gal (cm/s/s)
FACTOR DE DECIMACION                   : 1
FORMATO DATOS (FORTRAN,10 campos/dato) : 3F10.5


================================================================================
CALIDAD DEL ACELEROGRAMA:
REGISTRO DIGITAL COMPLETO CON TIEMPO ABSOLUTO CORRECTO.


================================================================================
COMENTARIOS:














================================================================================
DATOS DE ACELERACION:
---------+---------+---------+---------+---------+---------+---------+---------+
   CANAL-1   CANAL-2   CANAL-3   CANAL-4   CANAL-5   CANAL-6   CANAL-7   CANAL-8
      N00E        +V      N90W
---------+---------+---------+---------+---------+---------+---------+---------+
[...]
   0.18689   0.26010   1.13859
   0.18689   0.26010   1.13859
   0.18689   0.26010   1.13859
   0.18689   0.02068   1.13859
   0.42631   0.26010   1.13859
   0.18689   0.26010   1.13859
   0.42631   0.49952   0.89917
   0.66573   0.49952   0.89917
   0.42631   0.49952   0.89917
   0.42631   0.49952   0.89917
   0.42631   0.49952   0.89917
   0.66573   0.73894   0.65975
   0.66573   0.73894   0.65975
   0.66573   0.49952   0.89917
   0.66573   0.73894   0.65975
   0.66573   0.73894   0.65975
   0.42631   0.73894   0.42033
   0.42631   0.73894   0.42033
   0.42631   0.73894   0.42033
   0.42631   0.73894   0.42033
   0.42631   0.73894   0.65975
   0.42631   0.49952   0.65975
   0.42631   0.49952   0.65975
   0.42631   0.49952   0.65975
   0.42631   0.49952   0.65975
   0.42631   0.49952   0.65975
   0.42631   0.49952   0.65975
   0.42631   0.26010   0.65975
   0.42631   0.26010   0.65975
   0.42631   0.26010   0.65975
   0.42631   0.26010   0.65975
   0.42631   0.26010   0.42033
   0.42631   0.26010   0.42033
   0.66573   0.26010   0.42033
   0.66573   0.26010   0.42033
   0.66573   0.26010   0.42033
   0.42631   0.26010   0.42033
   0.42631   0.02068   0.42033
   0.42631   0.02068   0.42033
   0.42631   0.02068   0.18091
   0.66573   0.02068   0.18091
   0.42631   0.02068   0.18091
   0.42631   0.02068   0.18091
   0.42631   0.02068   0.18091
   0.42631   0.02068   0.18091
   0.42631  -0.21874   0.18091
   0.42631  -0.21874   0.18091
   0.42631  -0.21874   0.18091
   0.42631  -0.21874   0.18091
   0.42631  -0.45816   0.18091
   0.42631  -0.21874   0.18091
   0.42631  -0.45816   0.18091
   0.42631  -0.21874   0.18091
   0.66573  -0.45816   0.18091
   0.42631  -0.45816   0.18091
   0.42631  -0.21874   0.18091
   0.42631  -0.45816   0.18091
   0.66573  -0.45816   0.18091
   0.66573  -0.45816   0.18091
   0.90515  -0.45816   0.18091
   0.66573  -0.69758   0.18091
   0.66573  -0.45816   0.18091
   0.90515  -0.45816   0.18091
   0.90515  -0.45816   0.42033
   0.90515  -0.69758   0.18091
   0.90515  -0.45816   0.42033
   1.14457  -0.45816   0.42033
   1.14457  -0.45816   0.42033
   0.90515  -0.45816   0.42033
   1.14457  -0.45816   0.42033
   1.14457  -0.45816   0.42033
   0.90515  -0.45816   0.42033
   1.14457  -0.45816   0.42033
   1.14457  -0.45816   0.42033
   1.14457  -0.21874   0.42033
   1.14457  -0.21874   0.18091
   1.14457  -0.21874   0.18091
   1.14457   0.02068   0.18091
   0.90515  -0.21874   0.18091
   0.90515   0.02068   0.18091
   0.90515   0.26010   0.18091
   0.66573   0.26010   0.18091
   0.66573   0.26010  -0.05851
   0.66573   0.26010  -0.05851
   0.42631   0.26010  -0.05851
   0.42631   0.02068  -0.05851
   0.42631   0.26010   0.18091
   0.18689   0.02068  -0.05851
   0.18689   0.26010  -0.05851
   0.18689   0.26010  -0.05851
   0.18689   0.26010  -0.29793
   0.18689   0.26010  -0.05851
  -0.05253   0.26010  -0.29793
  -0.05253   0.26010  -0.05851
  -0.05253   0.02068  -0.29793
   0.18689   0.26010  -0.29793
  -0.05253   0.02068  -0.29793
  -0.05253   0.02068  -0.29793
  -0.05253   0.02068  -0.53735
   0.18689   0.02068  -0.53735
   0.18689   0.02068  -0.53735
   0.18689  -0.21874  -0.53735
   0.18689   0.02068  -0.53735
   0.18689   0.02068  -0.53735
   0.18689  -0.21874  -0.53735
   0.18689  -0.21874  -0.77677
   0.18689  -0.21874  -0.77677
   0.42631  -0.21874  -0.77677
   0.18689  -0.45816  -0.77677
   0.18689  -0.21874  -0.77677
   0.18689  -0.21874  -0.77677
   0.18689  -0.21874  -0.77677
   0.18689  -0.21874  -0.77677
   0.18689   0.02068  -0.77677
   0.18689   0.02068  -1.01619
  -0.05253   0.02068  -0.77677
  -0.05253   0.02068  -1.01619
   0.18689   0.02068  -1.01619
  -0.05253   0.02068  -1.01619
  -0.05253   0.02068  -1.01619
  -0.05253   0.02068  -1.01619
  -0.05253   0.26010  -1.01619
  -0.05253   0.26010  -1.01619
  -0.29195   0.26010  -1.01619
  -0.29195   0.26010  -1.01619
  -0.29195   0.26010  -0.77677
  -0.29195   0.49952  -1.01619
  -0.29195   0.49952  -1.01619
  -0.29195   0.49952  -0.77677
  -0.29195   0.49952  -0.77677
  -0.53137   0.49952  -0.77677
  -0.29195   0.49952  -0.77677
  -0.53137   0.26010  -0.77677
  -0.53137   0.26010  -0.77677
  -0.53137   0.26010  -0.53735
  -0.53137   0.26010  -0.77677
  -0.77079   0.26010  -0.77677
  -0.53137   0.26010  -0.53735
  -0.53137   0.02068  -0.53735
  -0.53137   0.02068  -0.53735
  -0.77079   0.02068  -0.53735
  -0.77079  -0.21874  -0.53735
  -0.77079   0.02068  -0.53735
  -0.53137  -0.21874  -0.53735
  -0.53137  -0.21874  -0.53735
  -0.77079   0.02068  -0.53735
  -0.77079   0.02068  -0.53735
  -0.77079   0.02068  -0.53735
  -0.77079   0.02068  -0.77677
  -0.77079   0.02068  -0.77677
  -0.77079  -0.21874  -0.77677
  -0.77079   0.02068  -0.77677
  -0.77079   0.02068  -0.77677
  -1.01021   0.02068  -0.77677
  -0.77079   0.02068  -1.01619
  -1.01021   0.26010  -1.01619
  -1.01021   0.02068  -0.77677
  -0.77079   0.02068  -1.01619
  -1.01021   0.26010  -1.01619
  -1.01021   0.26010  -1.01619
  -0.77079   0.26010  -1.01619
  -1.01021   0.26010  -1.01619
  -1.01021   0.02068  -1.01619
  -1.01021   0.26010  -0.77677
  -1.01021   0.26010  -1.01619
  -0.77079   0.02068  -0.77677
  -1.01021   0.02068  -0.77677
  -1.01021   0.02068  -0.77677
  -1.01021   0.02068  -0.53735
  -1.01021   0.02068  -0.53735
  -1.01021   0.02068  -0.53735
  -0.77079   0.02068  -0.29793
  -1.01021   0.02068  -0.29793
  -0.77079   0.02068  -0.05851
  -0.77079  -0.21874  -0.05851
  -0.77079  -0.21874  -0.05851
  -0.77079  -0.21874   0.18091
  -0.77079  -0.21874   0.18091
  -0.77079  -0.45816   0.18091
  -0.53137  -0.45816   0.42033
  -0.53137  -0.45816   0.42033
  -0.77079  -0.45816   0.42033
  -0.53137  -0.45816   0.42033
  -0.53137  -0.45816   0.42033
  -0.53137  -0.45816   0.65975
  -0.53137  -0.45816   0.65975
  -0.53137  -0.45816   0.65975
  -0.53137  -0.21874   0.65975
  -0.53137  -0.45816   0.65975
  -0.29195  -0.21874   0.65975
  -0.29195  -0.21874   0.65975
  -0.53137  -0.21874   0.65975
  -0.53137  -0.21874   0.65975
  -0.53137  -0.21874   0.89917
  -0.53137  -0.21874   0.89917
  -0.53137  -0.21874   0.89917
  -0.53137   0.02068   0.65975
  -0.53137  -0.21874   0.89917
  -0.53137   0.02068   0.89917
  -0.29195   0.26010   0.89917
  -0.53137   0.02068   0.89917
  -0.29195   0.02068   0.89917
  -0.53137   0.49952   0.89917
  -0.29195   0.02068   0.89917
  -0.29195   0.02068   0.89917
  -0.29195   0.26010   0.89917
  -0.05253   0.26010   0.89917
  -0.05253   0.02068   0.89917
   0.18689  -0.21874   0.89917
   0.18689   0.02068   0.89917
   0.18689   0.26010   0.89917
   0.18689   0.26010   0.89917
   0.18689   0.49952   0.89917
   0.18689   0.26010   0.89917
   0.18689  -0.21874   0.89917
   0.42631   0.26010   0.65975
   0.42631   0.49952   0.65975
   0.42631   0.26010   0.89917
   0.42631   0.49952   0.89917
   0.42631   0.49952   0.89917
   0.42631   0.02068   0.89917
   0.18689   0.02068   0.65975
   0.42631   0.02068   0.65975
   0.18689   0.02068   0.65975
   0.18689   0.02068   0.65975
   0.18689   0.26010   0.65975
   0.18689   0.02068   0.65975
   0.18689   0.02068   0.65975
   0.18689   0.26010   0.65975
   0.18689   0.26010   0.65975
  -0.05253   0.26010   0.89917
  -0.05253   0.26010   0.65975
   0.18689   0.26010   0.65975
  -0.05253   0.02068   0.42033
   0.18689   0.26010   0.42033
   0.18689   0.26010   0.42033
   0.18689   0.26010   0.42033
   0.18689   0.26010   0.42033
   0.18689   0.26010   0.42033
   0.42631   0.02068   0.42033
   0.42631   0.26010   0.42033
   0.42631   0.02068   0.42033
   0.42631   0.02068   0.42033
   0.66573   0.02068   0.65975
   0.42631   0.02068   0.65975
   0.42631   0.02068   0.65975
   0.66573   0.02068   0.65975
   0.66573   0.02068   0.65975
   0.66573   0.02068   0.65975
   0.66573   0.26010   0.65975
   0.42631   0.26010   0.65975
   0.42631   0.02068   0.65975
   0.66573   0.02068   0.65975
   0.66573   0.02068   0.65975
   0.66573  -0.21874   0.65975
   0.42631  -0.21874   0.65975
   0.42631  -0.21874   0.65975
   0.42631   0.02068   0.65975
   0.42631  -0.21874   0.65975
   0.42631  -0.21874   0.65975
   0.66573  -0.21874   0.65975
   0.66573  -0.21874   0.42033
   0.66573   0.02068   0.65975
   0.42631  -0.21874   0.42033
   0.66573   0.02068   0.42033
   0.42631  -0.21874   0.42033
   0.42631  -0.21874   0.42033
   0.42631  -0.21874   0.42033
   0.66573  -0.21874   0.42033
   0.66573  -0.21874   0.42033
   0.66573  -0.21874   0.18091
   0.66573  -0.21874   0.18091
   0.42631  -0.21874   0.18091
   0.66573  -0.21874   0.18091
   0.66573  -0.21874  -0.05851
   0.42631  -0.21874  -0.05851
   0.66573   0.02068  -0.05851
   0.66573  -0.21874  -0.05851
   0.66573   0.02068  -0.05851
   0.42631   0.02068  -0.05851
   0.42631  -0.21874  -0.05851
   0.42631   0.02068  -0.05851
   0.42631   0.02068   0.18091
   0.42631  -0.21874  -0.05851
   0.42631  -0.21874   0.18091
   0.18689  -0.21874   0.18091
   0.18689  -0.21874  -0.05851
   0.18689  -0.21874   0.18091
  -0.05253  -0.21874   0.18091
  -0.05253  -0.21874  -0.29793
  -0.05253  -0.21874  -0.29793
   0.18689  -0.21874   0.18091
  -0.05253  -0.21874   0.18091
   0.18689  -0.21874   0.18091
   0.18689  -0.21874   0.18091
   0.18689  -0.45816  -0.05851
   0.18689  -0.21874  -0.05851
   0.18689  -0.21874  -0.05851
   0.42631  -0.21874  -0.05851
   0.18689  -0.45816   0.18091
   0.42631   0.02068  -0.05851
   0.42631  -0.21874  -0.05851
   0.42631  -0.21874  -0.05851
   0.66573   0.02068  -0.05851
   0.66573  -0.21874  -0.05851
   0.42631   0.02068  -0.05851
   0.66573   0.02068  -0.05851
   0.66573   0.02068  -0.29793
   0.66573   0.02068  -0.05851
   0.66573   0.02068  -0.05851
   0.66573   0.26010  -0.29793
   0.66573   0.26010  -0.29793
   0.66573   0.26010  -0.29793
   0.66573   0.49952  -0.29793
   0.66573   0.49952  -0.29793
   0.66573   0.49952  -0.29793
   0.66573   0.49952  -0.53735
   0.42631   0.49952  -0.29793
   0.66573   0.49952  -0.53735
   0.42631   0.73894  -0.53735
   0.42631   0.73894  -0.53735
   0.66573   0.49952  -0.77677
   0.66573   0.49952  -0.77677
   0.66573   0.49952  -0.77677
   0.66573   0.49952  -0.77677
   0.66573   0.49952  -0.77677
   0.66573   0.49952  -1.01619
   0.90515   0.26010  -1.01619
   0.90515   0.26010  -1.01619
   0.90515   0.26010  -1.01619
   0.90515   0.26010  -1.25561
   0.90515   0.26010  -1.25561
   0.90515   0.26010  -1.25561
   0.90515   0.26010  -1.25561
   0.90515   0.26010  -1.49503
   0.90515   0.02068  -1.25561
   0.90515   0.26010  -1.49503
   0.90515   0.02068  -1.49503
   0.66573   0.26010  -1.25561
   0.90515   0.26010  -1.25561
   0.66573   0.26010  -1.49503
   0.66573   0.26010  -1.49503
   0.66573   0.02068  -1.49503
   0.42631   0.26010  -1.49503
   0.42631   0.26010  -1.49503
   0.42631   0.02068  -1.49503
   0.42631   0.02068  -1.73445
   0.18689   0.26010  -1.49503
   0.18689   0.02068  -1.49503
   0.18689   0.02068  -1.49503
  -0.05253   0.02068  -1.49503
  -0.05253   0.26010  -1.49503
  -0.29195   0.26010  -1.25561
  -0.29195   0.26010  -1.25561
  -0.29195   0.02068  -1.25561
  -0.53137   0.26010  -1.25561
  -0.53137   0.02068  -1.25561
  -0.53137  -0.21874  -1.25561
  -0.77079   0.02068  -1.01619
  -0.77079   0.02068  -1.01619
  -0.77079  -0.21874  -0.77677
  -0.77079  -0.21874  -0.77677
  -0.77079  -0.21874  -0.77677
  -1.01021  -0.21874  -0.77677
  -1.01021  -0.21874  -0.53735
  -1.01021  -0.21874  -0.53735
  -1.01021  -0.21874  -0.29793
  -1.01021  -0.21874  -0.29793
  -1.01021  -0.21874  -0.29793
  -0.77079  -0.45816  -0.05851
  -0.77079  -0.45816  -0.05851
  -1.01021  -0.45816  -0.05851
  -1.01021  -0.69758   0.18091
  -0.77079  -0.45816  -0.05851
  -0.77079  -0.45816   0.18091
  -0.77079  -0.45816   0.18091
  -1.01021  -0.45816   0.18091
  -1.01021  -0.45816   0.18091
  -1.01021  -0.45816   0.18091
  -1.01021  -0.45816   0.42033
  -1.01021  -0.21874   0.42033
  -1.01021  -0.45816   0.42033
  -1.01021  -0.45816   0.42033
  -1.24963  -0.45816   0.42033
  -1.24963  -0.45816   0.42033
  -1.01021  -0.45816   0.42033
  -1.24963  -0.21874   0.42033
  -1.24963  -0.21874   0.65975
  -1.24963  -0.21874   0.65975
  -1.48905  -0.21874   0.65975
  -1.48905  -0.21874   0.65975
  -1.24963  -0.21874   0.65975
  -1.24963  -0.21874   0.65975
  -1.48905  -0.21874   0.65975
  -1.48905  -0.21874   0.65975
  -1.48905   0.02068   0.65975
  -1.48905   0.02068   0.65975
  -1.48905   0.02068   0.65975
  -1.48905   0.02068   0.65975
  -1.48905   0.26010   0.65975
  -1.48905   0.26010   0.65975
  -1.24963   0.26010   0.65975
  -1.24963   0.02068   0.65975
  -1.24963   0.02068   0.65975
  -1.01021   0.26010   0.65975
  -1.01021   0.26010   0.65975
  -1.01021   0.26010   0.42033
  -1.01021   0.26010   0.42033
  -0.77079   0.26010   0.42033
  -0.77079   0.26010   0.42033
  -0.77079   0.02068   0.42033
  -0.77079   0.02068   0.42033
  -0.77079   0.26010   0.42033
  -0.53137   0.26010   0.42033
  -0.53137   0.02068   0.42033
  -0.53137   0.26010   0.42033
  -0.29195   0.26010   0.18091
  -0.53137   0.26010   0.42033
  -0.29195   0.26010   0.18091
  -0.29195   0.49952   0.42033
  -0.53137   0.49952   0.42033
  -0.29195   0.26010   0.18091
  -0.29195   0.26010   0.18091
  -0.29195   0.02068   0.42033
  -0.05253   0.26010   0.18091
  -0.05253   0.26010   0.18091
  -0.05253   0.26010   0.18091
  -0.05253   0.26010   0.18091
  -0.05253   0.26010   0.42033
  -0.05253   0.26010  -0.05851
  -0.05253   0.49952   0.18091
  -0.05253   0.26010  -0.05851
  -0.05253   0.26010   0.18091
   0.18689   0.02068   0.18091
   0.18689   0.26010   0.18091
  -0.05253   0.26010   0.18091
   0.18689   0.26010   0.18091
   0.18689   0.26010   0.18091
  -0.05253   0.49952   0.18091
   0.18689   0.26010   0.18091
  -0.05253   0.26010   0.18091
   0.18689   0.26010   0.18091
  -0.05253   0.02068   0.18091
  -0.05253   0.26010   0.18091
   0.18689   0.26010   0.18091
  -0.29195   0.26010   0.18091
  -0.05253   0.26010   0.18091
  -0.05253   0.26010   0.18091
  -0.05253   0.02068   0.18091
  -0.29195   0.26010   0.18091
   0.18689   0.26010   0.18091
   0.18689   0.26010   0.18091
   0.18689   0.02068   0.18091
  -0.29195   0.02068   0.18091
   0.18689   0.02068   0.18091
  -0.29195  -0.21874   0.18091
  -0.05253   0.02068   0.18091
   0.18689  -0.21874   0.18091
   0.18689  -0.21874   0.18091
   0.18689  -0.21874   0.42033
   0.18689  -0.21874   0.42033
   0.18689  -0.21874   0.42033
   0.18689  -0.21874   0.42033
   0.18689  -0.21874   0.42033
   0.18689  -0.45816   0.42033
   0.42631  -0.21874   0.42033
   0.18689  -0.21874   0.65975
   0.42631  -0.21874   0.42033
   0.42631  -0.21874   0.65975
   0.18689  -0.21874   0.65975
   0.42631  -0.21874   0.65975
   0.42631  -0.21874   0.65975
   0.18689  -0.45816   0.65975
   0.18689  -0.21874   0.89917
   0.42631  -0.45816   0.89917
   0.18689  -0.21874   0.89917
   0.42631  -0.21874   0.89917
   0.18689   0.02068   0.89917
   0.42631  -0.21874   1.13859
   0.42631   0.02068   0.89917
   0.18689  -0.21874   0.89917
   0.42631  -0.21874   0.89917
   0.42631  -0.21874   0.89917
   0.42631  -0.21874   0.89917
   0.42631  -0.21874   0.89917
   0.66573  -0.21874   0.89917
   0.66573  -0.21874   0.89917
   0.90515  -0.21874   0.89917
   0.66573  -0.21874   0.89917
   0.90515  -0.21874   0.89917
   0.90515  -0.45816   0.89917
   0.90515  -0.21874   0.89917
   0.90515  -0.21874   0.89917
   1.14457  -0.21874   0.65975
   1.14457  -0.21874   0.89917
   1.14457  -0.21874   0.65975
