********************************************************************************
              CENTRO DE INSTRUMENTACION Y REGISTRO SISMICO  A.C.

    Anaxagoras 814, Col. Narvarte, Benito Juarez, C.P. 03020 Mexico, D.F.
           Tels. 5687 45 42/ 5687 45  82             Fax. 5669 25 12
********************************************************************************
ARCHIVO ESTANDAR DE ACELERACION:
VERSION DEL FORMATO                    : 2.0
NOMBRE DEL ARCHIVO                     : BA4920121107163551
FECHA Y HORA DE CREACION               : 11/ABR/13, 13:51
REF. CATALOGO ACELEROGRAMAS, SMIS 1996 : REGISTRO No.     /PAG.


================================================================================
DATOS DE LA ESTACION:
NOMBRE DE LA ESTACION                  : BUENOS AIRES
CLAVE DE LA ESTACION                   : BA49
LOCALIZACION DE LA ESTACION            : Del. Cuauhtémoc, Col. Doctores,        
                                       : Av. Lázaro Cárdenas esq. con           
                                       : Calle Dr. Márquez.                     
                                       :                                        
                                       : 
COORDENADAS DE LA ESTACION             : 19.4097 LAT. N
                                       : 99.1450 LONG. W
ALTITUD (msnm)                         : 2233
TIPO DE SUELO                          : Terreno blando, material compresible
                                       : (arcillas)                
                                       : 
INSTITUCION RESPONSABLE                : CIRES
                                       : 

================================================================================
DATOS DEL ACELEROGRAFO:
MODELO DEL ACELEROGRAFO                : RADESD
NUMERO DE SERIE DEL ACELEROGRAFO       : 176
NUMERO DE CANALES                      : 3
ORIENTACION C1-C6 (rumbo;orientacion)  : /N00E/+V/N90W
ORIENTACION C7-C12 (rumbo;orientacion) : 
VEL. DE MUESTREO, C1-C6 (muestras/s)   : /100/100/100
VEL. DE MUESTREO, C7-C12 (muestras/s)  : 
ESC. COMPLETA DE SENSORES, C1-C6, (g)  : /0.5/0.5/0.5
ESC. COMPLETA DE SENSORES, C7-C12, (g) : 
FREC. NAT. DE SENSORES, C1-C6, (Hz)    : /52.99/52.03/52.99
FREC. NAT. DE SENSORES, C7-C12, (Hz)   : 
AMORTIGUAMIENTO DE SENSORES, C1-C6     : /0.5589/0.5469/0.6096
AMORTIGUAMIENTO DE SENSORES, C7-C12    : 
INTERVALO DE MUESTREO, C1-C6, (s)      : /0.01/0.01/0.01
INTERVALO DE MUESTREO, C7-C12, (s)     : 
UMBRAL DE DISPARO, C1-C6, (Gal)        : /15.32/30.65/15.32
UMBRAL DE DISPARO, C7-C12, (Gal)       : 
MEMORIA DE PREEVENTO (s)               : 56.0
TIEMPO DE POSEVENTO (s)                : 80.0


================================================================================
DATOS DEL SISMO:
FECHA DEL SISMO (GMT)                  : 07/NOV/12
HORA EPICENTRO (GMT)                   : 16:35:51.0
MAGNITUD(ES)                           : /Mc=7.3
COORDENADAS DEL EPICENTRO              : 14.08 LAT. N
                                       : 92.32 LONG. W
PROFUNDIDAD FOCAL (km)                 : 16
FUENTE DE LOS DATOS EPICENTRALES       : SSN
                                       : INSTITUTO DE GEOFISICA, UNAM

================================================================================
DATOS DE ESTE REGISTRO:
HORA DE LA PRIMERA MUESTRA (GMT)       : 16:39:59.00
EXACTITUD DEL TIEMPO (s)               : 0.01
DURACION DEL REGISTRO (s), C1-C6       : /313.2/313.2/313.2
DURACION DEL REGISTRO (s), C7-C12      : 
NUM. TOTAL DE MUESTRAS, C1-C6          : /31320/31320/31320
NUM. TOTAL DE MUESTRAS, C7-C12         : 
ACEL. MAX. (Gal), C1-C6                : /4.2523/1.57921/3.94158
ACEL. MAX., C1-C6, EN LA MUESTRA       : /10083/14477/9081
ACEL. MAX. (Gal), C7-C12               : 
ACEL. MAX., C7-C12, EN LA MUESTRA      : 
UNIDADES DE LOS DATOS                  : Gal (cm/s/s)
FACTOR DE DECIMACION                   : 1
FORMATO DATOS (FORTRAN,10 campos/dato) : 3F10.5


================================================================================
CALIDAD DEL ACELEROGRAMA:
REGISTRO DIGITAL COMPLETO CON TIEMPO ABSOLUTO CORRECTO.


================================================================================
COMENTARIOS:














================================================================================
DATOS DE ACELERACION:
---------+---------+---------+---------+---------+---------+---------+---------+
   CANAL-1   CANAL-2   CANAL-3   CANAL-4   CANAL-5   CANAL-6   CANAL-7   CANAL-8
      N00E        +V      N90W
---------+---------+---------+---------+---------+---------+---------+---------+
[...]
  -2.06240   0.45586   2.58262
  -1.83795   0.39600   2.50780
  -1.82298   0.03687   2.71730
  -2.00255   0.08176   2.85197
  -2.12226   0.38104   2.68737
  -2.06240   0.36607   2.61255
  -1.85291   0.27629   2.61255
  -1.95766   0.14162   2.68737
  -2.09233   0.15658   2.76219
  -2.03247   0.21644   2.58262
  -1.88284   0.14162   2.47788
  -1.86787   0.05184   2.47788
  -1.95766  -0.03795   2.53773
  -2.06240   0.06680   2.64248
  -1.97262  -0.09780   2.59759
  -1.91276  -0.05291   2.38809
  -1.92773   0.03687   2.23846
  -1.95766   0.11169   2.25342
  -1.91276   0.02191   2.32824
  -1.83795  -0.11277   2.32824
  -1.82298  -0.15766   2.10378
  -1.86787  -0.02298   1.87933
  -1.89780   0.06680   1.89429
  -1.77809  -0.12773   1.99904
  -1.59853  -0.39708   1.98407
  -1.56860  -0.38211   1.72969
  -1.55363  -0.12773   1.49027
  -1.47882  -0.09780   1.62494
  -1.43392  -0.32226   1.60998
  -1.37407  -0.47190   1.44538
  -1.29925  -0.47190   1.38552
  -1.23940  -0.26240   1.19099
  -1.13465  -0.23248   1.17603
  -1.08976  -0.62153   1.17603
  -0.98501  -0.56168   1.07128
  -0.92516  -0.26240   0.84683
  -0.85034  -0.06787   0.59244
  -0.70070  -0.33722   0.69719
  -0.64085  -0.59161   0.81690
  -0.73063  -0.41204   0.59244
  -0.58099  -0.27737   0.35302
  -0.43135  -0.51679   0.29317
  -0.32661  -0.57664   0.33806
  -0.35653  -0.60657   0.35302
  -0.20690  -0.44197   0.09864
  -0.11711  -0.42700  -0.09589
  -0.05726  -0.53175  -0.14078
  -0.07222  -0.53175  -0.12582
  -0.02733  -0.47190  -0.12582
   0.09238  -0.48686  -0.30538
   0.25698  -0.62153  -0.45502
   0.40662  -0.63650  -0.49991
   0.48144  -0.62153  -0.55977
   0.54129  -0.42700  -0.66451
   0.60115  -0.41204  -0.82911
   0.63107  -0.54671  -0.90393
   0.66100  -0.53175  -0.96379
   0.73582  -0.26240  -1.08350
   0.84057  -0.23248  -1.08350
   0.99020  -0.48686  -1.15832
   0.96028  -0.32226  -1.24810
   0.94531  -0.27737  -1.36781
   1.10991  -0.39708  -1.44263
   1.19970  -0.38211  -1.51745
   1.00517  -0.29233  -1.66708
   1.10991  -0.38211  -1.68205
   1.33437  -0.42700  -1.68205
   1.22963  -0.36715  -1.69701
   1.12488  -0.09780  -1.84665
   1.21466  -0.23248  -1.95140
   1.40919  -0.27737  -1.99629
   1.34934  -0.06787  -2.07111
   1.18473   0.08176  -2.22074
   1.27452  -0.29233  -2.11600
   1.42415  -0.44197  -2.04118
   1.39423  -0.09780  -2.26563
   1.33437   0.06680  -2.59484
   1.37926  -0.11277  -2.44520
   1.48401  -0.11277  -2.37038
   1.42415   0.24636  -2.53498
   1.31941   0.17155  -2.83426
   1.34934   0.00694  -2.68462
   1.45408  -0.17262  -2.57987
   1.36430   0.05184  -2.60980
   1.31941   0.29126  -2.92404
   1.45408   0.12665  -2.99886
   1.46905  -0.09780  -2.89411
   1.37926   0.14162  -2.81929
   1.30444   0.42593  -3.07368
   1.33437   0.29126  -3.25324
   1.48401   0.14162  -3.05871
   1.40919   0.21644  -2.98390
   1.27452   0.41097  -3.10361
   1.31941   0.50075  -3.22332
   1.43912   0.36607  -3.11857
   1.34934   0.30622  -3.05871
   1.25955   0.50075  -3.14850
   1.27452   0.48578  -3.23828
   1.39423   0.33615  -3.16346
   1.34934   0.29126  -3.01382
   1.25955   0.45586  -3.10361
   1.21466   0.33615  -3.22332
   1.45408   0.30622  -3.19339
   1.37926   0.44089  -3.05871
   1.31941   0.51571  -3.17842
   1.40919   0.42593  -3.22332
   1.51394   0.39600  -3.17842
   1.46905   0.51571  -3.14850
   1.37926   0.59053  -3.17842
   1.43912   0.56060  -3.20835
   1.48401   0.36607  -3.04375
   1.43912   0.51571  -2.99886
   1.49897   0.60549  -3.13353
   1.60372   0.39600  -3.08864
   1.67854   0.24636  -2.99886
   1.63365   0.38104  -2.93900
   1.63365   0.48578  -2.98390
   1.70847   0.39600  -2.98390
   1.79825   0.47082  -2.93900
   1.88803   0.38104  -2.84922
   1.87307   0.30622  -2.84922
   1.85810   0.32118  -2.81929
   1.85810   0.26133  -2.72951
   1.97781   0.21644  -2.68462
   1.97781   0.14162  -2.63973
   1.93292   0.30622  -2.74448
   1.99278   0.32118  -2.71455
   2.20227   0.30622  -2.56491
   2.18731   0.27629  -2.50505
   2.14241   0.33615  -2.47513
   2.24716   0.08176  -2.47513
   2.30702   0.18651  -2.25067
   2.32198   0.24636  -2.31053
   2.27709   0.11169  -2.29556
   2.36687   0.09673  -2.17585
   2.51651   0.18651  -2.13096
   2.53147   0.17155  -2.07111
   2.53147   0.06680  -1.98132
   2.47162   0.15658  -1.89154
   2.50154   0.26133  -1.81672
   2.54644   0.18651  -1.84665
   2.54644   0.05184  -1.72694
   2.50154   0.12665  -1.59227
   2.53147   0.24636  -1.53241
   2.63622   0.09673  -1.48752
   2.62125   0.02191  -1.44263
   2.53147   0.00694  -1.20321
   2.51651   0.14162  -1.15832
   2.59133   0.15658  -1.12839
   2.60629   0.14162  -1.00868
   2.51651   0.09673  -0.94882
   2.57636   0.26133  -0.90393
   2.56140   0.32118  -0.73933
   2.51651   0.27629  -0.64955
   2.45665   0.30622  -0.57473
   2.41176   0.20147  -0.51487
   2.29205   0.20147  -0.41013
   2.24716   0.26133  -0.30538
   2.26212   0.27629  -0.23056
   2.27709   0.18651  -0.08093
   2.12745   0.12665   0.05375
   2.06760   0.27629   0.15849
   2.05263   0.32118   0.20339
   1.91796   0.24636   0.38295
   1.76832   0.23140   0.44281
   1.64861   0.24636   0.39791
   1.66357   0.26133   0.53259
   1.57379   0.33615   0.66726
   1.46905   0.50075   0.72712
   1.42415   0.48578   0.78697
   1.31941   0.33615   0.87676
   1.10991   0.30622   1.07128
   0.96028   0.38104   1.07128
   0.91539   0.27629   1.08625
   0.81064   0.27629   1.17603
   0.66100   0.39600   1.20596
   0.58618   0.27629   1.32567
   0.46647   0.14162   1.52020
   0.31684   0.21644   1.56509
   0.09238   0.27629   1.52020
   0.03252   0.20147   1.56509
  -0.05726   0.15658   1.74465
  -0.22186   0.18651   1.77458
  -0.34157   0.21644   1.69976
  -0.41639   0.21644   1.86436
  -0.55106   0.12665   1.99904
  -0.74559   0.17155   2.01400
  -0.85034   0.11169   2.07386
  -0.97005   0.09673   2.10378
  -1.08976   0.20147   2.11875
  -1.26932   0.20147   2.08882
  -1.35911   0.17155   2.29831
  -1.41896   0.09673   2.32824
  -1.49378   0.14162   2.34320
  -1.65838   0.08176   2.37313
  -1.80802  -0.05291   2.50780
  -1.89780  -0.12773   2.52277
  -1.91276  -0.08284   2.37313
  -1.91276  -0.11277   2.32824
  -2.01751  -0.05291   2.50780
  -2.15218  -0.06787   2.59759
  -2.30182  -0.18758   2.67241
  -2.40657  -0.23248   2.68737
  -2.45146  -0.27737   2.58262
  -2.45146  -0.35219   2.47788
  -2.42153  -0.33722   2.55270
  -2.45146  -0.33722   2.65744
  -2.58613  -0.18758   2.62751
  -2.69088  -0.26240   2.65744
  -2.75074  -0.29233   2.62751
  -2.81059  -0.33722   2.70233
  -2.84052  -0.33722   2.68737
  -2.88541  -0.26240   2.62751
  -2.97519  -0.21751   2.65744
  -3.06497  -0.24744   2.74723
  -3.00512  -0.33722   2.71730
  -2.97519  -0.30729   2.67241
  -3.06497  -0.23248   2.68737
  -3.12483  -0.23248   2.67241
  -3.12483  -0.26240   2.71730
  -3.13979  -0.24744   2.76219
  -3.18468  -0.15766   2.76219
  -3.16972  -0.20255   2.62751
  -3.16972  -0.15766   2.62751
  -3.21461  -0.18758   2.70233
  -3.21461  -0.11277   2.74723
  -3.25950  -0.23248   2.76219
  -3.28943  -0.20255   2.70233
  -3.27447  -0.26240   2.62751
  -3.25950  -0.21751   2.61255
  -3.16972  -0.27737   2.67241
  -3.22958  -0.36715   2.76219
  -3.27447  -0.33722   2.67241
  -3.30439  -0.27737   2.62751
  -3.25950  -0.24744   2.64248
  -3.27447  -0.21751   2.68737
  -3.31936  -0.12773   2.65744
  -3.34929  -0.18758   2.68737
  -3.31936  -0.29233   2.62751
  -3.28943  -0.20255   2.64248
  -3.27447  -0.18758   2.56766
  -3.21461  -0.18758   2.62751
  -3.22958  -0.21751   2.62751
  -3.24454  -0.21751   2.64248
  -3.25950  -0.29233   2.59759
  -3.24454  -0.26240   2.52277
  -3.18468  -0.14269   2.55270
  -3.10987  -0.02298   2.58262
  -3.06497  -0.12773   2.58262
  -3.09490  -0.47190   2.61255
  -3.21461  -0.32226   2.65744
  -3.19965  -0.15766   2.49284
  -3.09490  -0.15766   2.43299
  -3.02008  -0.17262   2.41802
  -2.97519  -0.09780   2.46291
  -2.99016  -0.14269   2.43299
  -2.97519  -0.18758   2.44795
  -3.03505  -0.09780   2.38809
  -2.99016  -0.12773   2.35817
  -2.93030  -0.05291   2.34320
  -2.90037   0.05184   2.29831
  -2.82555   0.12665   2.17860
  -2.70584   0.11169   2.13371
  -2.61606   0.03687   2.08882
  -2.57117   0.08176   2.05889
  -2.66095   0.14162   2.05889
  -2.67592   0.17155   2.04393
  -2.54124   0.11169   1.99904
  -2.43650   0.06680   1.87933
  -2.31679  -0.02298   1.72969
  -2.18211   0.00694   1.72969
  -2.16715  -0.02298   1.71473
  -2.22700  -0.00802   1.66983
  -2.24197   0.02191   1.55012
  -2.13722  -0.00802   1.44538
  -2.00255   0.11169   1.34063
  -1.83795   0.15658   1.22092
  -1.73320   0.08176   1.16107
  -1.74816   0.06680   1.07128
  -1.74816   0.06680   1.01143
  -1.59853   0.02191   0.86179
  -1.40400   0.09673   0.68223
  -1.28429   0.14162   0.56252
  -1.22443   0.15658   0.44281
  -1.22443   0.21644   0.39791
  -1.16458   0.24636   0.27820
  -1.02990   0.35111   0.21835
  -0.71566   0.33615  -0.02107
  -0.61092   0.29126  -0.12582
  -0.65581   0.33615  -0.15574
  -0.62588   0.23140  -0.30538
  -0.44632   0.12665  -0.41013
  -0.32661   0.14162  -0.52984
  -0.16200   0.15658  -0.72437
  -0.01237   0.11169  -0.81415
   0.19713   0.15658  -0.87400
   0.21209   0.27629  -0.90393
   0.22705   0.26133  -1.14335
   0.28691   0.06680  -1.23314
   0.46647   0.06680  -1.35285
   0.63107   0.21644  -1.45759
   0.75078   0.05184  -1.59227
   1.00517  -0.03795  -1.66708
   1.15481  -0.06787  -1.84665
   1.22963   0.08176  -1.92147
   1.25955   0.03687  -1.96636
   1.25955   0.06680  -1.96636
   1.33437   0.12665  -2.07111
   1.55883   0.05184  -2.26563
   1.90299  -0.06787  -2.40031
   2.06760  -0.06787  -2.46016
   2.00774   0.00694  -2.56491
   2.20227  -0.06787  -2.68462
   2.36687  -0.18758  -2.75944
   2.38183  -0.09780  -2.83426
   2.36687   0.18651  -2.87915
   2.48658   0.23140  -2.95397
   2.66615   0.21644  -3.02879
   2.87564   0.15658  -3.14850
   3.01031   0.05184  -3.20835
   3.05520  -0.20255  -3.13353
   3.13002  -0.32226  -3.13353
   3.29462  -0.24744  -3.28317
   3.30959  -0.11277  -3.46274
   3.21981  -0.00802  -3.37295
   3.21981   0.00694  -3.29813
   3.50412  -0.05291  -3.38792
   3.72857  -0.12773  -3.59741
   3.78843  -0.17262  -3.53755
   3.71361  -0.14269  -3.46274
   3.63879  -0.09780  -3.38792
   3.71361  -0.11277  -3.34303
   3.89317   0.00694  -3.44777
   3.90814   0.09673  -3.52259
   3.83332   0.03687  -3.47770
   3.87821   0.02191  -3.43281
   3.96799  -0.05291  -3.44777
   4.11763   0.02191  -3.46274
   4.11763   0.15658  -3.38792
   4.02785   0.15658  -3.25324
   3.99792   0.00694  -3.19339
   4.04281  -0.06787  -3.19339
   4.02785  -0.03795  -3.23828
   4.01288   0.15658  -3.19339
   4.11763   0.29126  -3.13353
   4.19245   0.27629  -3.05871
   4.25230   0.17155  -2.93900
   4.07274   0.17155  -2.93900
   3.92310   0.27629  -2.93900
   3.95303   0.24636  -2.86419
   4.07274   0.21644  -2.78937
   4.10267   0.08176  -2.69958
   4.07274   0.12665  -2.65469
   4.07274   0.09673  -2.59484
   4.02785   0.20147  -2.46016
   3.87821   0.23140  -2.46016
   3.80339   0.23140  -2.41527
   3.83332   0.27629  -2.37038
   3.84828   0.29126  -2.28060
   3.90814   0.33615  -2.17585
   3.83332   0.24636  -2.16089
   3.68368   0.26133  -2.13096
   3.56397   0.23140  -2.05614
   3.63879   0.33615  -1.89154
   3.65375   0.33615  -1.87658
   3.53404   0.42593  -1.87658
   3.39937   0.50075  -1.87658
   3.30959   0.33615  -1.78679
   3.21981   0.24636  -1.57730
   3.08513   0.23140  -1.57730
   3.10010   0.39600  -1.59227
   3.04024   0.36607  -1.56234
   2.98038   0.26133  -1.38277
   2.81578   0.17155  -1.32292
   2.71104   0.36607  -1.33788
   2.62125   0.44089  -1.42766
   2.51651   0.35111  -1.26306
   2.44169   0.29126  -1.15832
   2.39680   0.30622  -1.09846
   2.33694   0.17155  -1.15832
   2.11249   0.23140  -1.08350
   1.84314   0.15658  -1.03861
   1.76832   0.21644  -0.96379
   1.75336   0.26133  -0.96379
   1.73839   0.35111  -0.99372
   1.55883   0.23140  -0.94882
   1.39423   0.06680  -0.82911
   1.19970   0.09673  -0.72437
   1.05006   0.11169  -0.67948
   0.94531   0.15658  -0.78422
   0.84057   0.00694  -0.79919
   0.67597   0.00694  -0.63458
   0.58618   0.09673  -0.57473
   0.46647   0.08176  -0.54480
   0.40662   0.03687  -0.48495
   0.22705  -0.18758  -0.48495
   0.00260  -0.12773  -0.35027
  -0.14704  -0.14269  -0.32035
  -0.28171  -0.06787  -0.26049
  -0.37150  -0.11277  -0.26049
  -0.43135  -0.17262  -0.20064
  -0.46128  -0.30729  -0.08093
  -0.52113  -0.27737   0.03878
  -0.73063  -0.30729   0.02382
  -0.98501  -0.32226   0.06871
  -1.17954  -0.35219   0.00886
  -1.22443  -0.26240   0.11360
  -1.20947  -0.14269   0.20339
  -1.16458  -0.30729   0.21835
  -1.23940  -0.39708   0.30813
  -1.49378  -0.47190   0.41288
  -1.70327  -0.44197   0.41288
  -1.85291  -0.39708   0.47273
  -1.89780  -0.32226   0.53259
  -1.83795  -0.15766   0.47273
  -1.80802  -0.26240   0.59244
  -1.89780  -0.54671   0.83186
  -2.09233  -0.74124   0.98150
  -2.25693  -0.57664   1.01143
  -2.27189  -0.45693   0.93661
  -2.36168  -0.32226   0.99647
  -2.43650  -0.30729   1.11618
  -2.46642  -0.36715   1.19099
  -2.51132  -0.41204   1.28078
  -2.49635  -0.47190   1.26581
  -2.60110  -0.48686   1.31070
  -2.73577  -0.41204   1.44538
  -2.76570  -0.48686   1.56509
  -2.76570  -0.32226   1.53516
  -2.93030  -0.35219   1.47531
  -3.02008  -0.35219   1.56509
  -3.12483  -0.32226   1.66983
  -3.06497  -0.20255   1.72969
  -2.94526  -0.20255   1.78954
  -2.94526  -0.15766   1.81947
  -3.00512  -0.27737   1.80451
  -3.15476  -0.18758   1.84940
  -3.25950  -0.17262   1.87933
  -3.22958  -0.11277   1.86436
  -3.22958  -0.06787   1.84940
  -3.25950  -0.00802   1.99904
  -3.27447  -0.02298   2.05889
  -3.25950  -0.15766   2.10378
  -3.28943  -0.20255   1.99904
  -3.37921  -0.09780   1.92422
  -3.39418   0.03687   2.05889
  -3.27447   0.08176   2.11875
  -3.28943  -0.08284   2.05889
  -3.31936  -0.09780   2.04393
  -3.25950   0.06680   2.02896
  -3.13979   0.09673   2.08882
  -3.10987   0.12665   2.07386
  -3.12483   0.21644   2.02896
  -3.02008   0.17155   1.96911
  -3.05001  -0.02298   1.95415
  -3.05001   0.05184   2.01400
  -2.90037   0.12665   1.92422
  -2.67592   0.09673   1.86436
  -2.66095   0.05184   1.93918
  -2.63103   0.11169   1.81947
  -2.64599   0.14162   1.89429
  -2.61606   0.05184   1.87933
  -2.48139   0.18651   1.72969
  -2.31679  -0.00802   1.69976
  -2.06240  -0.11277   1.71473
  -1.95766  -0.24744   1.81947
  -1.98758  -0.20255   1.71473
  -2.00255  -0.14269   1.56509
  -1.97262  -0.06787   1.53516
  -1.88284  -0.05291   1.47531
  -1.74816   0.03687   1.38552
  -1.58356   0.06680   1.43041
  -1.41896  -0.09780   1.50523
  -1.35911  -0.23248   1.52020
  -1.38903  -0.36715   1.37056
  -1.34414  -0.24744   1.35560
  -1.25436  -0.06787   1.35560
  -1.11969   0.05184   1.19099
  -1.04487  -0.06787   1.11618
  -0.98501  -0.21751   1.20596
  -0.95508  -0.30729   1.23589
  -0.86530  -0.38211   1.22092
  -0.76056  -0.35219   1.10121
  -0.68574  -0.32226   0.99647
  -0.77552  -0.21751   1.11618
  -0.73063  -0.09780   0.98150
  -0.73063  -0.09780   1.05632
  -0.67077  -0.20255   1.10121
  -0.61092   0.02191   0.90668
  -0.50617  -0.03795   0.86179
  -0.38646  -0.17262   0.96654
  -0.37150  -0.24744   1.05632
  -0.43135  -0.33722   0.96654
  -0.53610  -0.12773   0.78697
  -0.46128   0.02191   0.83186
  -0.44632   0.03687   0.87676
