********************************************************************************
              CENTRO DE INSTRUMENTACION Y REGISTRO SISMICO  A.C.

    Anaxagoras 814, Col. Narvarte, Benito Juarez, C.P. 03020 Mexico, D.F.
           Tels. 5687 45 42/ 5687 45  82             Fax. 5669 25 12
********************************************************************************
ARCHIVO ESTANDAR DE ACELERACION:
VERSION DEL FORMATO                    : 2.0
NOMBRE DEL ARCHIVO                     : BA4920130821123830
FECHA Y HORA DE CREACION               : 11/SEP/13, 15:00
REF. CATALOGO ACELEROGRAMAS, SMIS 1996 : REGISTRO No.     /PAG.


================================================================================
DATOS DE LA ESTACION:
NOMBRE DE LA ESTACION                  : BUENOS AIRES
CLAVE DE LA ESTACION                   : BA49
LOCALIZACION DE LA ESTACION            : Del. Cuauhtémoc, Col. Doctores,        
                                       : Av. Lázaro Cárdenas esq. con           
                                       : Calle Dr. Márquez.                     
                                       :                                        
                                       : 
COORDENADAS DE LA ESTACION             : 19.4097 LAT. N
                                       : 99.1450 LONG. W
ALTITUD (msnm)                         : 2233
TIPO DE SUELO                          : Terreno blando, material compresible
                                       : (arcillas)                
                                       : 
INSTITUCION RESPONSABLE                : CIRES
                                       : 

================================================================================
DATOS DEL ACELEROGRAFO:
MODELO DEL ACELEROGRAFO                : RADESD
NUMERO DE SERIE DEL ACELEROGRAFO       : 176
NUMERO DE CANALES                      : 3
ORIENTACION C1-C6 (rumbo;orientacion)  : /N00E/+V/N90W
ORIENTACION C7-C12 (rumbo;orientacion) : 
VEL. DE MUESTREO, C1-C6 (muestras/s)   : /100/100/100
VEL. DE MUESTREO, C7-C12 (muestras/s)  : 
ESC. COMPLETA DE SENSORES, C1-C6, (g)  : /0.5/0.5/0.5
ESC. COMPLETA DE SENSORES, C7-C12, (g) : 
FREC. NAT. DE SENSORES, C1-C6, (Hz)    : /52.99/52.03/52.99
FREC. NAT. DE SENSORES, C7-C12, (Hz)   : 
AMORTIGUAMIENTO DE SENSORES, C1-C6     : /0.5589/0.5469/0.6096
AMORTIGUAMIENTO DE SENSORES, C7-C12    : 
INTERVALO DE MUESTREO, C1-C6, (s)      : /0.01/0.01/0.01
INTERVALO DE MUESTREO, C7-C12, (s)     : 
UMBRAL DE DISPARO, C1-C6, (Gal)        : /15.32/30.65/15.32
UMBRAL DE DISPARO, C7-C12, (Gal)       : 
MEMORIA DE PREEVENTO (s)               : 56.0
TIEMPO DE POSEVENTO (s)                : 80.0


================================================================================
DATOS DEL SISMO:
FECHA DEL SISMO (GMT)                  : 21/AGO/13
HORA EPICENTRO (GMT)                   : 12:38:30.0
MAGNITUD(ES)                           : /Mc=6.0
COORDENADAS DEL EPICENTRO              : 16.79 LAT. N
                                       : 99.56 LONG. W
PROFUNDIDAD FOCAL (km)                 : 20
FUENTE DE LOS DATOS EPICENTRALES       : SSN
                                       : INSTITUTO DE GEOFISICA, UNAM

================================================================================
DATOS DE ESTE REGISTRO:
HORA DE LA PRIMERA MUESTRA (GMT)       : 12:39:34.00
EXACTITUD DEL TIEMPO (s)               : 0.01
DURACION DEL REGISTRO (s), C1-C6       : /319.0/319.0/319.0
DURACION DEL REGISTRO (s), C7-C12      : 
NUM. TOTAL DE MUESTRAS, C1-C6          : /31900/31900/31900
NUM. TOTAL DE MUESTRAS, C7-C12         : 
ACEL. MAX. (Gal), C1-C6                : /12.206/4.32175/12.99457
ACEL. MAX., C1-C6, EN LA MUESTRA       : /7547/8309/7071
ACEL. MAX. (Gal), C7-C12               : 
ACEL. MAX., C7-C12, EN LA MUESTRA      : 
UNIDADES DE LOS DATOS                  : Gal (cm/s/s)
FACTOR DE DECIMACION                   : 1
FORMATO DATOS (FORTRAN,10 campos/dato) : 3F10.5


================================================================================
CALIDAD DEL ACELEROGRAMA:
REGISTRO DIGITAL COMPLETO CON TIEMPO ABSOLUTO CORRECTO.


================================================================================
COMENTARIOS:














================================================================================
DATOS DE ACELERACION:
---------+---------+---------+---------+---------+---------+---------+---------+
   CANAL-1   CANAL-2   CANAL-3   CANAL-4   CANAL-5   CANAL-6   CANAL-7   CANAL-8
      N00E        +V      N90W
---------+---------+---------+---------+---------+---------+---------+---------+
[...]
  -2.39863   0.74542   1.69984
  -2.53331   0.68556   1.65495
  -2.66798   0.37132   1.74474
  -2.54827   0.23665   1.96919
  -2.47345   0.19176   2.10387
  -2.45849   0.04212   2.10387
  -2.44353   0.16183   2.13379
  -2.29389   0.37132   2.26847
  -2.15921   0.26657   2.23854
  -2.15921  -0.04766   2.28343
  -2.08440   0.07205   2.10387
  -1.85994  -0.09256   2.05897
  -1.88987  -0.67614   2.26847
  -1.90483  -0.64621   1.99912
  -1.84498  -0.16737   1.50531
  -1.74023  -0.40679   1.52028
  -1.74023  -0.63125   1.61006
  -1.72527  -0.40679   1.31079
  -1.47088  -0.39183   0.89180
  -1.23146  -0.28708   0.69727
  -1.20153  -0.21227   0.72720
  -1.09679  -0.09256   0.54763
  -0.82744   0.19176   0.06879
  -0.54313   0.43118  -0.35019
  -0.46831   0.88009  -0.55968
  -0.39349   1.17936  -1.03852
  -0.10918   1.05965  -1.53233
   0.16017   1.17936  -1.71189
   0.27988   1.41878  -1.90642
   0.29484   1.61331  -2.10095
   0.47441   1.68813  -2.46008
   0.65397   1.50857  -2.60972
   0.63901   1.65820  -2.72943
   0.47441   1.46368  -2.77432
   0.44448   1.05965  -2.69950
   0.51930   0.79031  -3.02870
   0.69886   0.44614  -3.11849
   0.75872   0.38629  -2.80425
   0.57915   0.38629  -2.59476
   0.50434   0.35636  -2.62468
   0.65397   0.85016  -2.87907
   0.68390   0.83520  -2.54986
   0.50434   0.61074  -2.13088
   0.59412   0.56585  -2.20570
   1.02807   0.41621  -2.20570
   1.32734   0.23665  -1.81664
   1.38720   0.17679  -1.41262
   1.55180   0.17679  -1.20313
   1.83611   0.19176  -1.14327
   2.10546   0.13190  -1.21809
   2.22517   0.22168  -1.00860
   2.35984   0.16183  -0.61954
   2.59926   0.07205  -0.48487
   3.01825  -0.12248  -0.67939
   3.30256  -0.36190  -0.45494
   3.39234  -0.36190  -0.08084
   3.54198  -0.37687  -0.26041
   4.00585  -0.46665  -0.49983
   4.29017  -0.67614  -0.42501
   4.36499  -0.46665  -0.39508
   4.52959  -0.42176  -0.42501
   5.06828  -0.60132  -0.48487
   5.69676  -0.55643  -0.51479
   5.99604  -0.42176  -0.52976
   6.19056  -0.01774  -0.61954
   6.44495   0.55089  -1.18816
   6.86393   0.55089  -1.66700
   7.10335   0.26657  -1.60715
   6.95372   0.11694  -1.74182
   7.01357   0.20672  -2.23563
   7.38766   0.25161  -2.78928
   7.43256  -0.16737  -2.95389
   7.08839  -0.37687  -2.77432
   6.87890   0.04212  -2.98381
   6.81904   0.43118  -3.55244
   6.65444   0.71549  -4.07617
   6.50480   0.79031  -4.13602
   6.19056   0.92498  -4.06120
   5.66683   1.38886  -4.56997
   5.71172   1.68813  -5.09370
   5.90625   1.34397  -5.09370
   5.56209   1.31404  -4.94407
   5.02339   1.79288  -5.18349
   4.79893   1.70310  -5.45283
   4.85879   1.34397  -5.40794
   4.55951   1.19433  -5.43787
   4.26024   1.07462  -5.45283
   4.02082   1.01476  -5.27327
   3.85622   1.07462  -5.07874
   3.91607   1.11951  -4.97399
   3.58687   1.01476  -4.58494
   3.00328   1.47864  -4.16595
   2.61423   1.89762  -4.03128
   2.38977   1.82281  -3.85171
   2.19524   1.41878  -3.35791
   1.89596   1.64324  -2.78928
   1.68647   1.44871  -2.41519
   1.77625   0.77534  -1.83160
   1.70144   0.44614  -1.06845
   1.28245   0.73045  -0.69436
   0.98318   0.71549  -0.55968
   0.63901   0.46110  -0.08084
   0.17513   0.40125   0.45785
  -0.16903   0.35636   0.77209
  -0.34860  -0.27212   0.69727
  -0.51320  -0.58636   0.90676
  -0.93219  -0.34694   1.34071
  -1.33621  -0.76592   1.71481
  -1.30628  -1.43929   1.92430
  -1.41103  -1.36447   2.05897
  -2.02454  -0.96045   2.17868
  -2.38367  -1.16995   2.29839
  -2.18914  -1.73857   2.35825
  -1.96469  -1.81339   2.29839
  -1.97965  -1.46922   2.13379
  -1.90483  -1.70864   2.29839
  -1.51577  -2.21741   2.58271
  -1.14168  -2.35208   2.47796
  -0.84240  -2.21741   2.25350
  -0.64787  -2.29223   2.29839
  -0.46831  -2.50172   2.35825
  -0.34860  -2.45683   2.08890
  -0.04932  -2.24734   1.68488
   0.27988  -2.27726   1.66992
   0.30981  -2.23237   1.77466
   0.27988  -1.79842   1.35568
   0.56419  -1.48419   1.02647
   0.65397  -1.16995   1.19108
   0.39959  -0.67614   1.20604
   0.22002  -0.48161   0.86187
   0.50434  -0.27212   0.54763
   0.87843   0.01219   0.41296
   0.89339   0.14686   0.69727
   0.93828   0.19176   0.75713
   1.22260   0.52096   0.41296
   1.41712   1.08958   0.02390
   1.43209   1.49360   0.26332
   1.22260   1.64324   0.45785
   1.20763   1.86770   0.21843
   1.31238   2.19690  -0.12573
   1.19267   2.18194  -0.15566
   1.22260   2.25676  -0.02099
   1.34231   1.80784  -0.00602
   1.20763   1.28411   0.24836
   1.05799   1.44871   0.12865
   1.11785   1.68813   0.00894
   1.04303   1.49360   0.11369
   0.77368   1.41878   0.38303
   0.51930   1.55346   0.41296
   0.56419   1.58339   0.45785
   0.57915   1.17936   0.80202
   0.54923   0.95491   1.19108
   0.50434   0.92498   1.44546
   0.42952   0.89505   1.69984
   0.33973   0.70052   1.69984
   0.27988   0.53592   1.80459
   0.02549   0.26657   2.32832
  -0.19896   0.20672   2.61263
  -0.37853  -0.04766   2.46300
  -0.54313  -0.16737   2.50789
  -0.85737  -0.13745   2.70242
  -1.27635  -0.03270   2.79220
  -1.56066  -0.25716   2.77723
  -1.74023  -0.48161   2.94184
  -2.06943  -0.48161   3.01665
  -2.27892  -0.06263   2.58271
  -2.51834   0.29650   2.31336
  -2.77273   0.11694   2.50789
  -2.90740  -0.06263   2.71738
  -3.11689  -0.10752   2.40314
  -3.23661   0.17679   1.65495
  -2.98222   0.71549   1.23597
  -3.10193   0.40125   1.32575
  -3.49099  -0.15241   1.58013
  -3.62566  -0.00277   1.05640
  -3.41617   0.38629   0.21843
  -3.25157   0.49103  -0.12573
  -3.43113   0.40125   0.06879
  -3.61070   0.31147   0.06879
  -3.47603   0.20672  -0.51479
  -3.38624   0.22168  -1.05349
  -3.49099   0.34139  -0.94874
  -3.55084   0.37132  -1.02356
  -3.55084   0.22168  -1.48744
  -3.46106   0.38629  -1.81664
  -3.43113   0.55089  -1.84657
  -3.49099   0.46110  -1.86153
  -3.49099   0.46110  -2.10095
  -3.28150   0.46110  -2.31044
  -3.14682   0.05708  -2.17577
  -3.22164  -0.15241  -1.90642
  -3.22164  -0.10752  -1.99621
  -3.14682  -0.33198  -1.99621
  -3.14682  -0.25716  -1.72686
  -3.26653  -0.33198  -1.39765
  -3.16179  -0.78089  -1.20313
  -2.96726  -1.09513  -0.76918
  -3.02711  -0.69111  -0.33523
  -3.10193  -0.37687  -0.15566
  -2.89244  -0.75096  -0.06588
  -2.69791  -0.79585   0.29325
  -2.66798  -0.27212   0.59253
  -2.92237  -0.07759   0.78705
  -2.92237  -0.42176   1.04144
  -2.56324  -0.42176   1.13122
  -2.38367  -0.22723   1.08633
  -2.36871  -0.85571   1.71481
  -2.65302  -1.27469   2.29839
  -2.56324  -1.16995   2.26847
  -2.35374  -1.61886   2.23854
  -2.75776  -1.54404   2.58271
  -3.28150  -1.45426   3.04658
  -3.47603  -1.76850   3.36082
  -3.79026  -1.40937   3.28600
  -4.07458  -1.43929   3.61521
  -4.41874  -1.52908   4.07908
  -4.80780  -1.19987   4.16886
  -5.01729  -1.31958   4.63274
  -5.45124  -1.08016   5.08165
  -5.73555  -0.52650   5.24625
  -5.97497  -0.85571   5.56049
  -6.28921  -0.76592   5.81488
  -6.31914  -0.81082   5.78495
  -6.36403  -0.93053   5.75502
  -6.64834  -0.73600   5.56049
  -6.79798  -0.78089   5.44078
  -6.84287  -1.12505   5.17144
  -6.87280  -1.27469   5.06669
  -6.97755  -1.34951   4.97691
  -7.29178  -1.08016   4.18383
  -7.27682  -1.06520   3.61521
  -7.03740  -1.05024   3.58528
  -7.26186  -1.03527   3.09147
  -7.38157  -1.06520   2.23854
  -7.14215  -0.78089   1.44546
  -6.82791  -0.94549   1.28086
  -6.79798  -1.64879   1.19108
  -6.88776  -1.58893   0.17354
  -6.51367  -1.55900  -0.84400
  -6.06476  -1.67871  -1.05349
  -6.07972  -2.00792  -0.91881
  -6.00490  -2.24734  -1.47247
  -5.57095  -2.17252  -2.22066
  -5.22679  -2.14259  -2.28052
  -4.94247  -1.72361  -2.17577
  -4.79284  -1.46922  -2.54986
  -4.43371  -1.09513  -2.87907
  -4.08954  -0.87067  -2.90899
  -3.93990  -0.88563  -2.50497
  -3.79026  -0.30205  -2.65461
  -3.58077  -0.04766  -3.02870
  -3.28150  -0.15241  -2.84914
  -2.99718  -0.19730  -2.16081
  -3.05704  -0.46665  -1.53233
  -2.90740  -0.49658  -1.84657
  -2.47345  -0.46665  -1.78671
  -2.33878  -0.70607  -0.73925
  -2.27892  -0.42176  -0.24545
  -2.12929   0.14686  -0.81407
  -1.74023   0.28154  -0.66443
  -1.30628   0.22168   0.30821
  -1.23146   0.34139   1.07137
  -1.15664   0.65563   1.02647
  -0.73766   0.86513   0.90676
  -0.22889   0.99980   1.46042
   0.05542   0.95491   2.20861
  -0.00443   0.99980   2.49292
   0.30981   1.05965   2.41810
   1.11785   0.62571   2.62760
   1.47698   0.56585   3.13636
   1.38720   1.20929   3.16629
   1.82115   1.01476   3.24111
   2.44962   0.32643   3.58528
   2.67408   0.55089   3.77981
   2.68904   0.83520   3.85463
   2.98832   0.47607   3.89952
   3.33249   0.22168   3.97434
   3.34745   0.46110   4.04915
   3.33249   0.59578   4.01923
   3.49709   0.35636   3.94441
   3.64672   0.32643   3.95937
   3.60183   0.47607   4.00426
   3.42227   0.53592   3.91448
   3.37738   0.52096   3.63017
   3.54198   0.46110   3.37578
   3.57191   0.44614   3.13636
   3.54198   0.35636   2.98673
   3.57191   0.34139   2.77723
   3.72154   0.11694   2.43307
   3.91607  -0.00277   2.04401
   4.11060   0.16183   1.71481
   4.24528   0.02715   1.52028
   4.49966  -0.27212   1.40057
   4.75404  -0.34694   0.98158
   4.96354  -0.06263   0.50274
   5.18799  -0.21227   0.32318
   5.36756  -0.58636   0.45785
   5.59201  -0.45169   0.05383
   5.92122  -0.45169  -0.51479
   6.19056  -1.02031  -0.36516
   6.25042  -0.91556  -0.20055
   6.32524  -0.72103  -0.51479
   6.59459  -0.79585  -0.82903
   6.71430  -0.90060  -0.64947
   6.83401  -0.75096  -0.46990
   7.13328  -0.66118  -0.54472
   7.02853  -1.16995  -0.18559
   7.11832  -1.08016   0.12865
   7.46248  -0.61629  -0.03595
   7.70190  -0.66118  -0.09581
   7.82161  -1.02031   0.42792
   7.73183  -0.99038   0.75713
   7.64205  -0.31701   0.39800
   7.77672  -0.28708   0.23340
   7.76176  -0.90060   0.69727
   7.53730  -0.70607   0.89180
   7.29788  -0.21227   0.41296
   7.40263  -0.28708  -0.00602
   7.44752  -0.49658   0.12865
   6.98364  -0.12248  -0.06588
   6.62451   0.22168  -0.75421
   6.59459   0.28154  -1.30787
   6.29531   0.37132  -1.39765
   5.74165   0.80527  -1.75678
   5.65187   1.11951  -2.72943
   5.63690   1.20929  -3.37287
   5.24785   1.47864  -3.68711
   4.91864   1.73302  -4.10610
   4.73908   1.82281  -4.86925
   4.85879   2.09215  -5.69225
   4.66426   2.16697  -6.48533
   4.29017   2.61589  -7.00906
   4.12557   2.78049  -7.69740
   4.33506   2.73560  -8.50544
   4.27520   3.03487  -9.38830
   3.97593   3.39400  -9.70254
   3.82629   3.12465  -9.97189
   4.06571   2.45128 -10.37591
   4.20038   2.42136 -11.03432
   4.05075   2.78049 -11.45330
   4.09564   2.46625 -11.73761
   4.24528   2.10712 -12.09674
   4.27520   2.22683 -12.36609
   4.37995   2.43632 -12.50076
   4.42484   2.30165 -12.66537
   4.32009   2.27172 -12.82997
   4.26024   2.72063 -12.99457
   4.49966   2.64581 -12.91975
   4.43980   2.13704 -12.63544
   4.11060   2.21186 -12.60551
   3.97593   2.55603 -12.93471
   4.11060   2.37647 -12.96464
   3.90111   2.39143 -12.77011
   3.46716   2.63085 -12.65040
   3.27263   2.21186 -12.57558
   3.19781   1.73302 -12.33616
   2.95839   1.98741 -12.11171
   2.68904   2.15201 -12.15660
   2.68904   1.83777 -11.84236
   2.68904   1.52353 -11.13906
   2.65912   1.58339 -10.75000
   2.56933   1.40382 -10.31606
   2.65912   0.89505  -9.49305
   2.79379   0.85016  -8.78975
   2.67408   0.85016  -8.16127
   2.70401   0.56585  -7.18863
   2.88357   0.20672  -6.23095
   2.86861  -0.00277  -5.27327
   2.73394  -0.27212  -4.19588
   2.82372  -0.28708  -3.26812
   2.97336  -0.48161  -2.37030
   2.91350  -1.06520  -1.26298
   2.77883  -1.03527  -0.32026
   2.70401  -0.51154   0.21843
   2.56933  -0.66118   0.81698
   2.59926  -1.18491   1.81955
   2.52444  -1.03527   2.53781
   2.32991  -1.14002   3.01665
   2.12042  -1.31958   3.51046
   2.25509  -1.27469   4.12397
   2.06057  -1.42433   4.82727
   1.56676  -1.52908   5.45575
   1.53683  -1.18491   5.65028
   1.59669  -0.72103   5.82984
   1.08792  -0.97542   6.35357
   0.35470  -1.37944   7.10176
   0.16017  -1.14002   7.22147
   0.16017  -0.76592   6.92220
  -0.16903  -0.66118   6.90723
  -0.88729  -0.66118   6.93716
  -1.62052  -0.75096   7.07183
  -1.78512  -0.90060   7.07183
  -1.72527  -1.08016   6.71270
  -2.17418  -1.14002   6.47328
  -2.78769  -0.70607   6.15904
  -3.02711  -0.45169   5.91962
  -3.08697  -0.93053   6.11415
  -3.40121  -0.81082   5.94955
  -3.64063  -0.46665   5.30611
  -3.55084  -0.51154   4.88712
  -3.41617  -0.97542   5.11158
  -3.73041  -0.97542   5.21633
  -3.68552  -0.63125   4.69260
  -3.10193  -1.03527   4.24368
  -2.86251  -1.42433   4.36339
  -2.96726  -0.91556   4.39332
  -2.72784  -0.73600   4.00426
  -2.23403  -1.37944   3.79477
  -2.06943  -1.75353   3.80973
  -2.06943  -1.15498   3.67506
  -1.74023  -0.94549   3.31593
  -1.27635  -1.60390   3.15133
  -1.03693  -1.87324   3.16629
  -0.84240  -1.45426   2.92687
  -0.64787  -1.51411   2.71738
  -0.43838  -1.67871   2.50789
  -0.24385  -1.18491   2.07394
  -0.10918  -0.94549   2.07394
  -0.01940  -1.02031   2.04401
  -0.04932  -1.03527   1.80459
  -0.06429  -0.99038   1.84948
   0.08535  -0.91556   2.04401
   0.04046  -0.69111   1.95423
  -0.21393  -0.55643   1.83452
  -0.42342  -0.03270   1.99912
  -0.66284   0.05708   2.41810
  -0.93219   0.10197   2.71738
  -1.32124   0.56585   2.83709
  -1.51577   0.86513   2.73234
  -1.71030   0.52096   3.07651
  -2.36871   0.47607   3.77981
  -2.90740   1.28411   3.69002
  -2.98222   1.29907   3.36082
  -3.44610   0.68556   3.86959
  -4.07458   0.88009   4.43821
  -4.56838   0.96987   4.48310
  -4.80780   0.76038   4.48310
  -5.04722   0.76038   4.63274
  -5.84030   0.76038   5.03676
  -6.52863   0.95491   5.08165
  -6.64834   1.11951   4.84223
  -6.88776   1.17936   4.97691
  -7.45639   1.02973   5.30611
  -8.11479   1.25418   5.03676
  -8.27939   1.17936   4.70756
  -8.14472   0.55089   4.99187
  -8.57867   0.43118   5.23129
  -9.11736   0.89505   4.76741
  -9.10240   1.01476   4.09405
  -8.98269   0.44614   4.16886
  -9.22211   0.02715   4.63274
  -9.44657   0.16183   4.43821
  -9.34182   0.10197   3.70499
  -9.07247  -0.45169   3.49550
  -9.08744  -0.72103   3.77981
  -9.29693  -0.48161   3.69002
  -9.35678  -0.58636   3.07651
  -9.07247  -1.02031   3.03162
  -8.98269  -0.90060   3.18126
  -9.13233  -0.72103   2.91191
  -9.10240  -1.02031   2.61263
  -8.77320  -1.15498   2.50789
  -8.57867  -0.87067   2.47796
  -8.57867  -1.22980   2.52285
  -8.39910  -2.06777   2.59767
  -8.11479  -1.91813   2.26847
  -7.84544  -1.75353   2.14876
  -7.78559  -2.27726   2.46300
  -7.81552  -2.35208   2.37321
  -7.56113  -2.27726   1.95423
  -7.09726  -2.51668   2.04401
  -6.81294  -2.69625   2.49292
  -6.79798  -2.48676   2.32832
  -6.66331  -2.14259   1.80459
  -6.30418  -2.03784   2.05897
  -5.94505  -2.27726   2.58271
  -5.88519  -2.38201   2.58271
  -5.61584  -1.90317   2.11883
  -5.24175  -1.91813   2.13379
  -4.95744  -1.93310   2.40314
  -4.82276  -1.66375   2.55278
  -4.52349  -1.61886   2.49292
  -4.08954  -1.61886   2.44803
  -3.92494  -1.70864   2.85205
  -3.65559  -1.78346   3.09147
  -3.26653  -1.72361   2.94184
  -2.92237  -1.69368   2.88198
  -2.69791  -1.88821   3.12140
  -2.53331  -1.64879   3.01665
  -2.36871  -1.22980   2.61263
  -2.05447  -1.08016   2.35825
  -1.75519  -1.15498   2.41810
  -1.68037  -1.00534   2.40314
  -1.57563  -1.00534   1.93926
  -1.39606  -1.18491   1.53524
  -1.18657  -0.64621   1.17611
