********************************************************************************
              CENTRO DE INSTRUMENTACION Y REGISTRO SISMICO  A.C.

    Anaxagoras 814, Col. Narvarte, Benito Juarez, C.P. 03020 Mexico, D.F.
           Tels. 5687 45 42/ 5687 45  82             Fax. 5669 25 12
********************************************************************************
ARCHIVO ESTANDAR DE ACELERACION:
VERSION DEL FORMATO                    : 2.0
NOMBRE DEL ARCHIVO                     : BA4920111211014725
FECHA Y HORA DE CREACION               : 04/ENE/12, 12:26
REF. CATALOGO ACELEROGRAMAS, SMIS 1996 : REGISTRO No.     /PAG.


================================================================================
DATOS DE LA ESTACION:
NOMBRE DE LA ESTACION                  : BUENOS AIRES
CLAVE DE LA ESTACION                   : BA49
LOCALIZACION DE LA ESTACION            : Del. Cuauhtémoc, Col. Doctores,        
                                       : Av. Lázaro Cárdenas esq. con           
                                       : Calle Dr. Márquez.                     
                                       :                                        
                                       : 
COORDENADAS DE LA ESTACION             : 19.4097 LAT. N
                                       : 99.1450 LONG. W
ALTITUD (msnm)                         : 2233
TIPO DE SUELO                          : Terreno blando, material compresible
                                       : (arcillas)                
                                       : 
INSTITUCION RESPONSABLE                : CIRES
                                       : 

================================================================================
DATOS DEL ACELEROGRAFO:
MODELO DEL ACELEROGRAFO                : RADESD
NUMERO DE SERIE DEL ACELEROGRAFO       : 176
NUMERO DE CANALES                      : 3
ORIENTACION C1-C6 (rumbo;orientacion)  : /N00E/+V/N90W
ORIENTACION C7-C12 (rumbo;orientacion) : 
VEL. DE MUESTREO, C1-C6 (muestras/s)   : /100/100/100
VEL. DE MUESTREO, C7-C12 (muestras/s)  : 
ESC. COMPLETA DE SENSORES, C1-C6, (g)  : /0.5/0.5/0.5
ESC. COMPLETA DE SENSORES, C7-C12, (g) : 
FREC. NAT. DE SENSORES, C1-C6, (Hz)    : /52.99/52.03/52.99
FREC. NAT. DE SENSORES, C7-C12, (Hz)   : 
AMORTIGUAMIENTO DE SENSORES, C1-C6     : /0.5589/0.5469/0.6096
AMORTIGUAMIENTO DE SENSORES, C7-C12    : 
INTERVALO DE MUESTREO, C1-C6, (s)      : /0.01/0.01/0.01
INTERVALO DE MUESTREO, C7-C12, (s)     : 
UMBRAL DE DISPARO, C1-C6, (Gal)        : /0.96/1.92/0.96
UMBRAL DE DISPARO, C7-C12, (Gal)       : 
MEMORIA DE PREEVENTO (s)               : 56.0
TIEMPO DE POSEVENTO (s)                : 64.0


================================================================================
DATOS DEL SISMO:
FECHA DEL SISMO (GMT)                  : 11/DIC/11
HORA EPICENTRO (GMT)                   : 01:47:25.0
MAGNITUD(ES)                           : /Mc=6.5
COORDENADAS DEL EPICENTRO              : 17.84 LAT. N
                                       : 99.98 LONG. W
PROFUNDIDAD FOCAL (km)                 : 58
FUENTE DE LOS DATOS EPICENTRALES       : SSN
                                       : INSTITUTO DE GEOFISICA, UNAM

================================================================================
DATOS DE ESTE REGISTRO:
HORA DE LA PRIMERA MUESTRA (GMT)       : 01:47:48.00
EXACTITUD DEL TIEMPO (s)               : 0.01
DURACION DEL REGISTRO (s), C1-C6       : /358.0/358.0/358.0
DURACION DEL REGISTRO (s), C7-C12      : 
NUM. TOTAL DE MUESTRAS, C1-C6          : /35800/35800/35800
NUM. TOTAL DE MUESTRAS, C7-C12         : 
ACEL. MAX. (Gal), C1-C6                : /19.52194/11.96267/19.42802
ACEL. MAX., C1-C6, EN LA MUESTRA       : /7921/8625/9972
ACEL. MAX. (Gal), C7-C12               : 
ACEL. MAX., C7-C12, EN LA MUESTRA      : 
UNIDADES DE LOS DATOS                  : Gal (cm/s/s)
FACTOR DE DECIMACION                   : 1
FORMATO DATOS (FORTRAN,10 campos/dato) : 3F10.5


================================================================================
CALIDAD DEL ACELEROGRAMA:
REGISTRO DIGITAL COMPLETO CON TIEMPO ABSOLUTO CORRECTO.


================================================================================
COMENTARIOS:














================================================================================
DATOS DE ACELERACION:
---------+---------+---------+---------+---------+---------+---------+---------+
   CANAL-1   CANAL-2   CANAL-3   CANAL-4   CANAL-5   CANAL-6   CANAL-7   CANAL-8
      N00E        +V      N90W
---------+---------+---------+---------+---------+---------+---------+---------+
[...]
   1.78646  -3.59964   0.92269
   1.78646  -3.83906   1.40153
   1.78646  -4.31790   1.40153
   1.78646  -4.31790   1.40153
   2.02588  -4.31790   1.40153
   2.02588  -4.07848   1.16211
   2.02588  -3.83906   1.40153
   2.26530  -3.83906   1.40153
   2.50472  -3.36022   1.40153
   2.50472  -3.12080   1.40153
   2.74414  -2.64196   1.16211
   2.98356  -1.68428   1.16211
   3.22298  -1.44486   1.16211
   3.22298  -0.48718   0.92269
   3.46240  -0.00834   0.92269
   3.70182   0.23108   0.92269
   3.94124   0.70992   0.68327
   4.18066   0.94934   0.68327
   4.18066   1.18876   1.16211
   4.42008   1.18876   1.16211
   4.42008   0.94934   1.16211
   4.42008   0.94934   0.92269
   4.42008   0.94934   0.92269
   4.42008   1.66760   0.68327
   4.18066   2.38586   0.68327
   3.94124   2.86470   0.44385
   3.70182   3.58296   0.68327
   3.46240   4.30122   0.44385
   2.98356   4.54064   0.44385
   2.50472   4.06180   0.20443
   2.26530   4.06180  -0.03499
   1.78646   3.10412  -0.51383
   1.30762   2.62528  -0.99267
   0.82877   2.38586  -1.23209
   0.34993   2.14644  -1.47151
  -0.12891   2.38586  -1.47151
  -0.84717   2.14644  -1.47151
  -1.32601   2.14644  -1.47151
  -1.80485   1.90702  -1.23209
  -2.04427   1.90702  -1.23209
  -2.04427   1.66760  -1.23209
  -2.28369   1.66760  -0.99267
  -2.28369   1.42818  -0.99267
  -2.28369   1.18876  -0.99267
  -2.52311   0.47050  -0.75325
  -2.52311  -0.00834  -0.99267
  -2.28369  -0.48718  -0.75325
  -2.04427  -0.96602  -0.51383
  -1.56543  -1.68428  -0.27441
  -1.32601  -2.40254  -0.51383
  -0.84717  -2.64196  -0.51383
  -0.60775  -2.88138  -0.75325
  -0.12891  -3.12080  -0.75325
   0.34993  -3.12080  -0.75325
   0.34993  -2.88138  -0.51383
   0.58935  -3.12080  -0.27441
   0.82877  -2.88138  -0.27441
   0.82877  -2.88138  -0.51383
   0.82877  -2.64196  -0.27441
   1.06820  -2.16312  -0.03499
   0.82877  -1.44486  -0.03499
   0.82877  -0.96602  -0.03499
   0.58935  -0.48718  -0.03499
   0.58935   0.23108  -0.03499
   0.34993   0.23108   0.20443
   0.34993  -0.00834   0.20443
   0.34993  -0.72660   0.20443
   0.34993  -1.44486   0.44385
   0.34993  -2.16312   0.68327
   0.11051  -2.40254   0.44385
   0.11051  -2.40254   0.68327
  -0.12891  -1.92370   0.44385
  -0.12891  -1.20544   0.44385
  -0.12891  -0.72660   0.68327
  -0.12891  -0.24776   0.44385
  -0.12891  -0.00834   0.68327
   0.11051  -0.24776   0.44385
   0.11051  -0.96602   0.44385
   0.11051  -1.44486   0.20443
   0.11051  -1.68428   0.20443
   0.11051  -1.92370  -0.03499
   0.34993  -1.68428  -0.03499
   0.34993  -1.92370   0.20443
   0.34993  -1.68428   0.20443
   0.34993  -1.68428  -0.03499
   0.11051  -1.92370  -0.03499
   0.34993  -1.68428  -0.27441
   0.34993  -1.44486  -0.27441
   0.58935  -1.20544  -0.27441
   0.58935  -0.96602  -0.03499
   0.82877  -0.48718  -0.03499
   0.82877   0.23108   0.20443
   0.82877   0.70992   0.20443
   0.58935   0.94934   0.44385
   0.82877   1.42818   0.68327
   0.82877   1.42818   0.92269
   0.82877   1.18876   1.16211
   0.82877   0.94934   1.16211
   0.82877   0.70992   1.40153
   0.82877   0.47050   1.64095
   0.82877  -0.00834   1.88037
   1.06820  -0.48718   1.88037
   1.06820  -0.48718   2.11979
   1.30762  -0.48718   2.35921
   1.54704  -0.24776   2.35921
   1.78646  -0.48718   2.35921
   1.78646  -0.48718   2.59863
   2.26530  -0.48718   2.83805
   2.26530  -0.48718   2.83805
   2.50472  -0.24776   2.83805
   2.98356   0.23108   3.07747
   2.98356   0.70992   3.07747
   2.98356   1.42818   2.83805
   2.98356   2.14644   2.83805
   2.98356   2.38586   2.59863
   3.22298   2.38586   2.59863
   3.22298   2.38586   2.35921
   2.74414   1.90702   2.35921
   2.50472   1.42818   2.11979
   2.26530   0.94934   1.88037
   1.78646   1.18876   1.40153
   1.54704   1.18876   1.16211
   1.06820   1.90702   0.92269
   0.58935   3.10412   0.92269
   0.11051   4.06180   0.92269
  -0.36833   4.54064   0.68327
  -0.84717   4.54064   0.44385
  -1.08659   4.30122   0.44385
  -1.08659   4.06180   0.20443
  -1.08659   3.58296  -0.03499
  -1.32601   2.86470  -0.27441
  -1.56543   2.38586  -0.27441
  -1.80485   1.90702  -0.75325
  -2.28369   1.66760  -0.99267
  -2.28369   1.66760  -1.23209
  -2.52311   1.66760  -1.47151
  -2.52311   2.14644  -1.71093
  -2.52311   2.38586  -1.71093
  -2.52311   3.34354  -1.71093
  -2.52311   3.82238  -1.71093
  -2.52311   4.54064  -1.71093
  -2.52311   4.30122  -1.71093
  -2.76253   3.82238  -1.71093
  -3.00195   2.86470  -1.71093
  -3.24137   1.66760  -1.71093
  -3.24137  -0.00834  -1.95035
  -3.48079  -1.92370  -2.18977
  -3.48079  -3.59964  -1.95035
  -3.72021  -4.55732  -2.18977
  -4.19905  -5.03616  -1.71093
  -4.43847  -5.03616  -1.71093
  -4.43847  -4.79674  -1.71093
  -4.67789  -4.07848  -1.47151
  -4.91731  -3.83906  -1.23209
  -4.91731  -3.59964  -1.23209
  -5.15673  -3.59964  -0.99267
  -5.15673  -3.36022  -0.99267
  -4.91731  -3.36022  -0.99267
  -5.15673  -3.12080  -0.75325
  -5.15673  -3.36022  -0.51383
  -4.91731  -3.59964  -0.27441
  -4.91731  -4.07848  -0.03499
  -4.67789  -4.55732   0.20443
  -4.19905  -5.03616   0.20443
  -3.72021  -5.27558   0.44385
  -3.48079  -5.27558   0.68327
  -3.00195  -4.79674   0.68327
  -2.76253  -3.83906   0.92269
  -2.28369  -3.12080   0.92269
  -1.80485  -1.92370   1.16211
  -1.08659  -1.20544   1.16211
  -0.60775  -0.48718   0.92269
  -0.36833   0.23108   0.92269
  -0.12891   0.47050   0.68327
   0.34993   0.70992   0.44385
   0.34993   1.18876   0.44385
   0.58935   1.42818   0.20443
   0.58935   1.42818   0.20443
   1.06820   1.18876   0.44385
   1.30762   1.18876   0.68327
   1.54704   0.94934   0.68327
   1.54704   0.70992   0.68327
   1.54704   1.18876   0.44385
   1.54704   1.42818   0.68327
   1.30762   1.90702   0.68327
   1.30762   2.38586   0.68327
   1.30762   2.38586   0.68327
   1.30762   1.66760   0.68327
   1.30762   0.94934   0.68327
   1.06820  -0.24776   0.68327
   1.06820  -1.20544   0.44385
   0.82877  -1.92370   0.44385
   0.82877  -1.92370   0.20443
   0.58935  -1.68428   0.20443
   0.34993  -0.72660  -0.03499
  -0.12891   0.70992  -0.03499
  -0.36833   2.38586  -0.03499
  -0.36833   3.58296   0.20443
  -0.60775   4.78006   0.20443
  -0.36833   5.01948   0.20443
  -0.60775   4.06180   0.20443
  -0.36833   2.62528   0.44385
  -0.36833   0.94934   0.44385
  -0.12891  -0.24776   0.68327
  -0.12891  -1.20544   0.92269
  -0.12891  -1.20544   1.16211
  -0.12891  -0.96602   1.40153
  -0.12891  -0.48718   1.40153
  -0.36833   0.47050   1.40153
  -0.12891   0.94934   1.16211
   0.11051   1.18876   1.40153
   0.11051   1.42818   1.16211
   0.34993   1.18876   1.40153
   0.11051   0.94934   1.64095
   0.11051   0.47050   1.64095
  -0.12891  -0.00834   1.64095
  -0.36833  -0.48718   1.40153
  -0.60775  -0.72660   1.16211
  -0.60775  -0.72660   0.92269
  -0.60775  -0.24776   0.68327
  -0.60775   0.23108   0.44385
  -0.84717   0.94934   0.44385
  -0.84717   1.90702   0.44385
  -0.84717   3.10412   0.20443
  -1.32601   4.06180  -0.27441
  -1.56543   4.78006  -0.27441
  -1.56543   4.54064  -0.27441
  -1.56543   4.06180  -0.75325
  -1.80485   3.10412  -0.99267
  -1.80485   1.66760  -1.23209
  -1.80485  -0.00834  -1.23209
  -2.04427  -1.92370  -1.23209
  -2.04427  -3.12080  -1.47151
  -1.56543  -3.59964  -1.47151
  -1.80485  -3.59964  -1.71093
  -1.56543  -3.12080  -1.95035
  -1.08659  -2.40254  -2.18977
  -0.84717  -1.20544  -2.18977
  -0.60775   0.23108  -2.42919
  -0.12891   1.18876  -2.42919
   0.34993   2.38586  -2.42919
   0.82877   3.34354  -2.18977
   1.30762   3.82238  -2.18977
   1.54704   3.10412  -1.95035
   1.78646   1.66760  -1.71093
   2.02588  -0.24776  -1.71093
   2.26530  -2.40254  -1.47151
   2.74414  -4.07848  -1.47151
   3.22298  -5.27558  -1.23209
   3.46240  -5.27558  -0.75325
   3.70182  -4.55732  -0.27441
   3.70182  -3.36022  -0.03499
   4.18066  -1.92370   0.20443
   4.65950  -0.72660   0.68327
   5.13834   0.47050   0.92269
   5.61718   1.42818   1.16211
   6.09602   2.38586   1.40153
   6.09602   3.34354   1.64095
   6.33544   3.82238   1.88037
   6.57486   3.58296   2.35921
   6.81428   3.10412   2.83805
   7.05370   1.66760   3.55631
   7.29312  -0.24776   4.03515
   7.53254  -2.16312   4.51399
   7.53254  -4.31790   4.99283
   7.53254  -5.99384   5.71109
   7.53254  -6.95152   6.18993
   7.53254  -7.19094   6.66877
   7.29312  -6.23326   6.90819
   7.53254  -4.55732   7.14761
   7.53254  -3.12080   7.62646
   7.77196  -1.20544   7.86588
   7.77196   0.23108   8.10530
   8.01138   1.42818   7.86588
   8.25080   2.62528   7.86588
   8.25080   2.62528   7.38704
   8.49022   2.62528   6.90819
   8.49022   1.90702   6.66877
   8.49022   1.18876   5.95051
   8.25080   0.47050   5.47167
   8.49022  -0.24776   4.99283
   8.49022  -0.72660   4.51399
   8.25080  -1.20544   4.27457
   8.01138  -0.72660   3.55631
   7.77196  -0.48718   3.31689
   7.53254  -0.00834   2.59863
   7.77196   0.47050   1.64095
   7.77196   0.70992   1.16211
   7.77196   1.18876   0.20443
   8.01138   1.18876  -0.27441
   8.01138   1.18876  -0.99267
   8.01138   1.18876  -1.71093
   8.01138   1.42818  -2.42919
   8.01138   1.66760  -3.14745
   8.25080   2.38586  -4.10513
   8.25080   3.34354  -5.06281
   8.01138   4.54064  -6.02049
   8.01138   5.01948  -6.97817
   8.25080   4.78006  -7.93586
   8.25080   4.78006  -8.65412
   8.01138   4.06180  -9.61180
   7.77196   3.34354 -10.09064
   7.29312   2.38586 -10.80890
   6.57486   1.90702 -11.04832
   5.61718   1.18876 -12.24542
   4.42008   0.23108 -12.72426
   3.46240  -0.72660 -13.44252
   2.50472  -1.68428 -14.16078
   1.54704  -1.68428 -14.87904
   0.82877  -1.44486 -15.35788
   0.11051  -0.72660 -15.35788
  -0.84717   0.47050 -15.35788
  -1.56543   1.90702 -15.35788
  -2.52311   3.34354 -15.11846
  -3.24137   4.30122 -14.63962
  -4.19905   4.54064 -14.16078
  -4.67789   4.78006 -13.68194
  -5.15673   4.30122 -12.96368
  -5.63557   3.34354 -12.48484
  -5.63557   2.38586 -11.52716
  -5.63557   1.42818 -10.80890
  -5.87499   0.47050  -9.85122
  -5.87499  -0.24776  -8.89354
  -6.11441  -0.96602  -7.69644
  -6.11441  -0.96602  -6.73875
  -6.59325  -1.20544  -5.78107
  -7.07209  -0.72660  -5.06281
  -7.55093  -0.48718  -4.10513
  -8.02977  -0.00834  -3.38687
  -8.50861   0.23108  -2.90803
  -8.74803   0.23108  -2.18977
  -9.22687   0.23108  -1.95035
  -9.70571  -0.00834  -1.95035
  -9.70571   0.23108  -1.95035
 -10.42397   0.23108  -1.95035
 -11.38165   0.23108  -2.18977
 -12.09991  -0.24776  -2.18977
 -13.29701  -1.20544  -1.95035
 -14.49412  -2.40254  -2.18977
 -15.45180  -3.12080  -2.18977
 -16.40948  -3.83906  -1.95035
 -17.12774  -3.59964  -1.71093
 -17.60658  -3.83906  -1.23209
 -18.32484  -3.12080  -0.75325
 -18.56426  -2.40254  -0.03499
 -19.04310  -1.44486   0.92269
 -19.52194  -0.96602   1.64095
 -19.52194  -0.72660   2.35921
 -19.52194  -0.96602   2.83805
 -19.28252  -0.96602   3.55631
 -18.56426  -0.96602   3.79573
 -17.84600  -0.72660   4.27457
 -16.64890  -0.24776   4.75341
 -15.45180  -0.24776   4.99283
 -14.01528  -0.48718   5.47167
 -12.57875  -1.20544   5.71109
 -11.14223  -1.92370   5.71109
  -9.94513  -3.12080   5.71109
  -8.98745  -3.59964   5.71109
  -7.79035  -4.55732   5.47167
  -7.07209  -5.27558   5.23225
  -6.59325  -5.75442   4.99283
  -5.63557  -5.75442   4.51399
  -5.15673  -5.27558   4.75341
  -4.91731  -4.07848   4.51399
  -5.15673  -3.12080   4.75341
  -5.15673  -2.16312   4.99283
  -5.63557  -1.92370   4.99283
  -5.87499  -1.68428   4.75341
  -5.63557  -1.44486   4.51399
  -5.63557  -0.96602   4.27457
  -5.39615  -0.96602   4.03515
  -5.15673  -0.48718   4.03515
  -5.39615  -0.00834   3.79573
  -5.39615   0.47050   3.07747
  -5.63557   0.94934   3.07747
  -5.39615   1.42818   2.59863
  -5.15673   2.14644   2.59863
  -4.67789   2.86470   2.59863
  -4.19905   3.58296   2.35921
  -3.48079   4.30122   2.35921
  -2.76253   4.78006   2.11979
  -2.04427   5.01948   2.11979
  -1.32601   5.25890   1.88037
  -0.84717   5.25890   1.64095
  -0.12891   5.01948   1.40153
   0.58935   4.30122   1.88037
   1.54704   3.82238   1.64095
   2.74414   2.86470   1.88037
   3.94124   2.14644   2.11979
   5.37776   1.42818   2.11979
   6.81428   0.94934   1.64095
   7.53254   0.47050   0.92269
   8.72964  -0.24776   0.20443
   9.44790  -1.20544  -0.75325
   9.92674  -1.92370  -1.47151
  10.40558  -2.16312  -1.71093
  10.16616  -2.16312  -1.95035
   9.92674  -2.16312  -2.18977
   9.20848  -2.16312  -2.18977
   8.25080  -2.16312  -2.42919
   7.77196  -1.92370  -2.66861
   6.81428  -1.44486  -2.66861
   6.09602  -0.96602  -2.90803
   4.89892  -0.48718  -2.66861
   4.18066  -0.00834  -2.18977
   3.22298   0.47050  -1.47151
   2.50472   0.70992  -0.75325
   1.54704   1.18876  -0.03499
   0.82877   1.42818   0.44385
   0.34993   1.42818   1.16211
   0.11051   0.94934   1.64095
   0.11051   0.70992   1.88037
   0.34993   0.70992   2.35921
   0.82877   1.18876   2.83805
   1.06820   1.90702   3.79573
   1.30762   2.86470   4.51399
   1.30762   3.58296   5.47167
   0.82877   3.82238   6.66877
   0.34993   3.82238   7.14761
  -0.36833   3.10412   8.10530
  -0.84717   1.90702   8.34472
  -1.08659   0.23108   8.58414
  -1.80485  -1.44486   8.58414
  -2.04427  -2.64196   8.58414
  -2.28369  -3.36022   8.34472
  -2.52311  -4.07848   8.10530
  -2.28369  -3.83906   8.10530
  -2.04427  -3.36022   7.62646
  -1.56543  -3.12080   7.62646
  -1.32601  -2.40254   7.38704
  -0.84717  -2.40254   7.38704
  -0.36833  -2.40254   7.14761
   0.34993  -2.16312   6.66877
   0.82877  -1.92370   6.18993
   1.54704  -1.68428   5.47167
   1.78646  -1.20544   4.75341
   2.50472  -0.48718   4.03515
   2.98356   0.47050   3.79573
   3.46240   1.18876   3.31689
   3.94124   1.66760   3.07747
   4.18066   1.90702   2.83805
   4.42008   1.66760   2.11979
   4.89892   0.70992   1.88037
   5.37776  -0.48718   1.64095
   6.09602  -1.92370   0.92269
   6.81428  -2.88138   0.68327
   7.77196  -3.59964   0.44385
   8.72964  -3.36022  -0.03499
   9.20848  -2.40254  -0.03499
   9.68732  -1.44486  -0.75325
   9.92674  -0.48718  -1.47151
  10.16616   0.70992  -2.18977
  10.40558   1.66760  -3.38687
  10.64500   2.14644  -4.34455
  10.88442   2.62528  -5.78107
  11.12384   2.62528  -6.73875
  10.64500   2.38586  -7.69644
   9.68732   1.90702  -8.65412
   8.01138   1.42818  -9.37238
   6.09602   1.42818 -10.09064
   3.94124   1.66760 -10.56948
   2.02588   2.14644 -10.56948
   0.58935   2.62528 -10.80890
  -0.12891   2.86470 -10.80890
  -0.84717   3.10412 -10.56948
  -1.08659   3.34354 -10.09064
  -1.32601   3.58296  -9.37238
  -1.56543   4.30122  -8.41470
  -2.04427   4.30122  -7.21760
  -2.28369   4.06180  -6.25991
  -2.52311   3.82238  -5.06281
  -2.04427   3.34354  -4.10513
  -1.08659   2.62528  -2.90803
   0.11051   1.90702  -2.18977
   0.82877   1.18876  -1.47151
   1.54704   1.18876  -0.99267
   2.02588   0.94934  -0.75325
   2.02588   0.47050  -0.99267
   1.78646  -0.24776  -1.23209
   1.54704  -0.96602  -1.47151
   1.06820  -1.92370  -1.47151
   1.06820  -2.64196  -1.71093
   0.82877  -3.12080  -1.71093
   0.58935  -2.88138  -1.47151
   0.34993  -2.40254  -1.47151
   0.34993  -1.68428  -1.23209
   0.11051  -0.48718  -0.99267
  -0.12891   0.94934  -0.99267
   0.11051   1.90702  -0.75325
   0.34993   2.14644  -0.27441
   0.58935   1.90702   0.20443
   0.82877   1.42818   1.16211
   0.82877   0.94934   2.11979
   0.58935   0.23108   3.31689
  -0.12891  -0.24776   4.27457
