********************************************************************************
               CENTRO DE INSTRUMENTACION Y REGISTRO SISMICO  A.C.  
                       Coordinacion de Servicios Tecnicos
     Anaxagoras 814, Col. Narvarte, Benito Juarez, C.P. 03020 Mexico, D.F.
            Tels. 667 45 42/ 687 45  82             Fax. 669 25 12
********************************************************************************
ARCHIVO ESTANDAR DE ACELERACION:
VERSION DEL FORMATO                    : 2.0
NOMBRE DEL ARCHIVO                     : BA490401.011
FECHA Y HORA DE CREACION               : 27/OCT/04, 10:13
REF. CATALOGO ACELEROGRAMAS, SMIS 1996 : REGISTRO No.     /PAG.


================================================================================
DATOS DE LA ESTACION:
NOMBRE DE LA ESTACION                  : BUENOS AIRES
CLAVE DE LA ESTACION                   : BA49
LOCALIZACION DE LA ESTACION            : ESCUELA SECUNDARIA 102, DOCTOR MARQUEZ
                                       : Y EJE CENTRAL, BUENOS AIRES.
                                       :
                                       :
                                       :
COORDENADAS DE LA ESTACION             : 19.410 LAT. N 
                                       : 99.145 LONG. W 
ALTITUD (msnm)                         : 2233
TIPO DE SUELO                          : TERRENO BLANDO, MATERIAL COMPRESIBLE
                                       : (ARCILLAS)
                                       : 
INSTITUCION RESPONSABLE                : CIRES 
                                       :

================================================================================
DATOS DEL ACELEROGRAFO:
MODELO DEL ACELEROGRAFO                : SSA-1
NUMERO DE SERIE DEL ACELEROGRAFO       : 176
NUMERO DE CANALES                      : 3
ORIENTACION C1-C6 (rumbo;orientacion)  : /N00E/+V/N90E
ORIENTACION C7-C12 (rumbo;orientacion) :
VEL. DE MUESTREO, C1-C6 (muestras/s)   : /200/200/200
VEL. DE MUESTREO, C7-C12 (muestras/s)  :
ESC. COMPLETA DE SENSORES, C1-C6, (g)  : /2/2/2
ESC. COMPLETA DE SENSORES, C7-C12, (g) :
FREC. NAT. DE SENSORES, C1-C6, (Hz)    : /52.99/52.03/52.99
FREC. NAT. DE SENSORES, C7-C12, (Hz)   :
AMORTIGUAMIENTO DE SENSORES, C1-C6     : /.5589/.5469/.6096
AMORTIGUAMIENTO DE SENSORES, C7-C12    :
INTERVALO DE MUESTREO, C1-C6, (s)      : /0.005/0.005/0.005
INTERVALO DE MUESTREO, C7-C12, (s)     :
UMBRAL DE DISPARO, C1-C6, (Gal)        : /2/2/2
UMBRAL DE DISPARO, C7-C12, (Gal)       :
MEMORIA DE PREEVENTO (s)               : 15
TIEMPO DE POSEVENTO (s)                : 60


================================================================================
DATOS DEL SISMO:
FECHA DEL SISMO (GMT)                  : 01/ENE/04
HORA EPICENTRO (GMT)                   : 23:31:49:0
MAGNITUD(ES)                           : /Ms=6.3
COORDENADAS DEL EPICENTRO              : 17.31 LAT. N
                                       : -101.42 LONG. W
PROFUNDIDAD FOCAL (km)                 : 10.0
FUENTE DE LOS DATOS EPICENTRALES       : SSN
                                       : INSTITUTO DE GEOFISICA, UNAM

================================================================================
DATOS DE ESTE REGISTRO:
HORA DE LA PRIMERA MUESTRA (GMT)       : 23:33:03.00
EXACTITUD DEL TIEMPO (s)               :     
DURACION DEL REGISTRO (s), C1-C6       : /213.76/213.76/213.76
DURACION DEL REGISTRO (s), C7-C12      :
NUM. TOTAL DE MUESTRAS, C1-C6          : /42752/42752/42752
NUM. TOTAL DE MUESTRAS, C7-C12         :
ACEL. MAX. (Gal), C1-C6                : /-10.88360/2.03354/-8.35887
ACEL. MAX., C1-C6, EN LA MUESTRA       :
ACEL. MAX. (Gal), C7-C12               :
ACEL. MAX., C7-C12, EN LA MUESTRA      :
UNIDADES DE LOS DATOS                  : Gal (cm/s/s)
FACTOR DE DECIMACION                   : 1
FORMATO DATOS (FORTRAN,10 campos/dato) : 3F10.5


================================================================================
CALIDAD DEL ACELEROGRAMA:
REGISTRO DIGITAL COMPLETO, CARECE DE TIEMPO ABSOLUTO.


================================================================================
COMENTARIOS:














================================================================================
DATOS DE ACELERACION:
---------+---------+---------+---------+---------+---------+---------+---------+
   CANAL-1   CANAL-2   CANAL-3   CANAL-4   CANAL-5   CANAL-6   CANAL-7   CANAL-8
      N00E        +V      N90E
---------+---------+---------+---------+---------+---------+---------+---------+
[...]
   1.33640  -0.59646  -3.80887
   1.57640  -0.35646  -3.80887
   1.81640  -0.35646  -3.80887
   2.05640  -0.35646  -3.80887
   2.05640  -0.59646  -4.04887
   2.28640  -0.35646  -4.04887
   2.52640  -0.35646  -4.04887
   2.52640  -0.35646  -4.28887
   2.76640  -0.35646  -4.28887
   3.00640  -0.35646  -4.28887
   3.00640  -0.59646  -4.28887
   3.24640  -0.35646  -4.51887
   3.24640  -0.35646  -4.51887
   3.48640  -0.35646  -4.75887
   3.48640  -0.35646  -4.75887
   3.72640  -0.35646  -4.75887
   3.72640  -0.35646  -4.75887
   3.96640  -0.35646  -4.99887
   4.20640  -0.35646  -4.99887
   4.20640  -0.35646  -4.99887
   4.20640  -0.12646  -4.99887
   4.44640  -0.35646  -5.23887
   4.44640  -0.12646  -5.23887
   4.68640  -0.12646  -5.23887
   4.68640  -0.35646  -5.23887
   4.92640  -0.12646  -5.47887
   4.92640  -0.12646  -5.47887
   4.92640  -0.12646  -5.47887
   5.16640  -0.12646  -5.71887
   5.16640  -0.12646  -5.71887
   5.40640  -0.12646  -5.71887
   5.40640  -0.12646  -5.71887
   5.40640   0.11354  -5.95887
   5.40640   0.11354  -5.95887
   5.64640   0.11354  -5.95887
   5.64640   0.11354  -6.19887
   5.88640   0.11354  -6.19887
   5.88640   0.11354  -6.19887
   5.88640   0.11354  -6.19887
   5.88640   0.11354  -6.43887
   6.12640   0.11354  -6.43887
   6.12640   0.35354  -6.43887
   6.12640   0.35354  -6.43887
   6.36640   0.35354  -6.43887
   6.36640   0.35354  -6.67887
   6.36640   0.35354  -6.67887
   6.36640   0.59354  -6.67887
   6.60640   0.59354  -6.67887
   6.60640   0.59354  -6.67887
   6.60640   0.59354  -6.91887
   6.60640   0.59354  -6.91887
   6.60640   0.59354  -6.91887
   6.84640   0.59354  -6.91887
   6.84640   0.83354  -6.91887
   6.84640   0.83354  -7.15887
   6.84640   0.59354  -6.91887
   6.84640   0.83354  -7.15887
   6.84640   0.83354  -7.15887
   7.07640   0.83354  -7.15887
   7.07640   0.83354  -7.15887
   7.07640   0.83354  -7.15887
   7.07640   0.83354  -7.15887
   7.07640   0.83354  -7.39887
   7.07640   0.83354  -7.15887
   7.07640   0.83354  -7.39887
   7.07640   0.83354  -7.39887
   7.07640   1.07354  -7.39887
   7.31640   1.07354  -7.39887
   7.31640   1.07354  -7.39887
   7.31640   1.07354  -7.39887
   7.31640   1.31354  -7.39887
   7.31640   1.31354  -7.39887
   7.31640   1.31354  -7.63887
   7.07640   1.31354  -7.63887
   7.31640   1.31354  -7.63887
   7.07640   1.31354  -7.63887
   7.07640   1.55354  -7.63887
   7.07640   1.31354  -7.63887
   7.07640   1.55354  -7.63887
   7.07640   1.55354  -7.63887
   7.07640   1.55354  -7.63887
   7.07640   1.79354  -7.63887
   7.07640   1.79354  -7.63887
   7.07640   1.79354  -7.87887
   7.07640   1.79354  -7.63887
   7.07640   1.79354  -7.63887
   7.07640   1.79354  -7.87887
   7.07640   1.79354  -7.87887
   7.07640   1.79354  -7.87887
   7.07640   2.03354  -7.87887
   7.07640   1.79354  -7.87887
   7.07640   1.79354  -7.87887
   7.07640   1.79354  -7.87887
   7.07640   2.03354  -7.87887
   6.84640   2.03354  -7.87887
   6.84640   1.79354  -7.87887
   6.84640   1.79354  -7.87887
   6.84640   2.03354  -7.87887
   6.84640   2.03354  -7.87887
   6.84640   1.79354  -7.63887
   6.84640   1.79354  -7.63887
   6.84640   1.79354  -7.63887
   6.84640   1.79354  -7.63887
   6.84640   1.79354  -7.63887
   6.84640   1.79354  -7.63887
   6.84640   1.79354  -7.63887
   6.84640   1.79354  -7.39887
   6.84640   1.79354  -7.39887
   6.84640   1.79354  -7.39887
   6.84640   1.55354  -7.39887
   6.84640   1.55354  -7.39887
   6.84640   1.55354  -7.15887
   6.84640   1.55354  -7.15887
   6.84640   1.55354  -7.15887
   6.84640   1.31354  -7.15887
   6.84640   1.31354  -6.91887
   6.84640   1.31354  -6.91887
   6.84640   1.07354  -6.67887
   6.84640   1.07354  -6.67887
   6.84640   1.31354  -6.43887
   6.84640   0.83354  -6.43887
   6.84640   1.31354  -6.43887
   6.84640   1.07354  -6.19887
   6.84640   1.07354  -6.19887
   6.84640   1.07354  -6.19887
   6.84640   1.07354  -5.95887
   6.60640   0.83354  -5.71887
   6.84640   0.83354  -5.71887
   6.84640   0.83354  -5.47887
   6.84640   0.59354  -5.47887
   6.84640   0.59354  -5.23887
   6.84640   0.59354  -5.23887
   6.84640   0.83354  -4.99887
   6.84640   0.59354  -4.99887
   6.84640   0.59354  -4.75887
   6.84640   0.59354  -4.51887
   6.84640   0.35354  -4.51887
   6.84640   0.35354  -4.28887
   6.84640   0.35354  -4.28887
   6.84640   0.35354  -4.04887
   6.84640   0.35354  -3.80887
   6.84640   0.35354  -3.80887
   6.84640   0.35354  -3.56887
   6.84640   0.11354  -3.32887
   6.84640   0.11354  -3.32887
   6.84640   0.11354  -3.08887
   6.84640   0.11354  -2.84887
   6.84640  -0.12646  -2.84887
   6.84640   0.11354  -2.60887
   6.84640  -0.12646  -2.36887
   6.60640  -0.12646  -2.36887
   6.60640  -0.12646  -2.12887
   6.60640  -0.12646  -2.12887
   6.60640  -0.12646  -1.88887
   6.60640  -0.12646  -1.64887
   6.60640  -0.12646  -1.40887
   6.60640  -0.35646  -1.40887
   6.60640  -0.12646  -1.16887
   6.60640  -0.35646  -1.16887
   6.60640  -0.35646  -0.92887
   6.60640  -0.12646  -0.68887
   6.60640  -0.35646  -0.68887
   6.36640  -0.35646  -0.44887
   6.36640  -0.35646  -0.44887
   6.36640  -0.35646  -0.20887
   6.36640  -0.35646   0.03113
   6.36640  -0.35646   0.03113
   6.36640  -0.35646   0.27113
   6.36640  -0.35646   0.27113
   6.36640  -0.35646   0.51113
   6.36640  -0.35646   0.74113
   6.36640  -0.35646   0.74113
   6.12640  -0.35646   0.98113
   6.12640  -0.35646   0.98113
   6.12640  -0.35646   1.22113
   6.36640  -0.35646   1.22113
   6.12640  -0.35646   1.46113
   6.12640  -0.35646   1.46113
   6.12640  -0.59646   1.46113
   6.12640  -0.35646   1.70113
   6.12640  -0.35646   1.70113
   6.12640  -0.35646   1.94113
   6.12640  -0.35646   1.94113
   6.36640  -0.59646   2.18113
   6.36640  -0.35646   2.18113
   6.36640  -0.35646   2.18113
   6.36640  -0.35646   2.42113
   6.36640  -0.35646   2.42113
   6.36640  -0.35646   2.66113
   6.36640  -0.59646   2.66113
   6.36640  -0.35646   2.66113
   6.36640  -0.35646   2.66113
   6.36640  -0.35646   2.90113
   6.36640  -0.59646   2.90113
   6.36640  -0.35646   3.14113
   6.36640  -0.59646   3.14113
   6.36640  -0.59646   3.14113
   6.36640  -0.35646   3.14113
   6.36640  -0.35646   3.14113
   6.36640  -0.35646   3.38113
   6.36640  -0.35646   3.38113
   6.36640  -0.35646   3.38113
   6.36640  -0.12646   3.38113
   6.36640  -0.12646   3.38113
   6.36640  -0.12646   3.38113
   6.36640  -0.12646   3.62113
   6.36640  -0.12646   3.62113
   6.36640  -0.12646   3.62113
   6.36640  -0.12646   3.62113
   6.12640  -0.12646   3.86113
   6.12640  -0.12646   3.62113
   6.12640  -0.12646   3.86113
   6.12640  -0.12646   3.86113
   6.12640   0.11354   3.86113
   6.12640  -0.12646   3.86113
   5.88640   0.11354   3.86113
   5.88640   0.11354   3.86113
   5.88640   0.11354   3.86113
   5.88640   0.11354   3.86113
   5.88640   0.11354   3.86113
   5.64640   0.11354   4.10113
   5.64640   0.35354   4.10113
   5.64640   0.35354   4.10113
   5.64640   0.35354   4.10113
   5.40640   0.35354   4.10113
   5.40640   0.35354   4.10113
   5.40640   0.35354   4.10113
   5.40640   0.35354   4.10113
   5.16640   0.35354   4.10113
   5.16640   0.35354   4.10113
   4.92640   0.35354   4.10113
   4.92640   0.35354   4.10113
   4.68640   0.59354   4.10113
   4.68640   0.59354   4.10113
   4.68640   0.59354   4.34113
   4.44640   0.35354   4.34113
   4.44640   0.59354   4.10113
   4.20640   0.35354   4.34113
   4.20640   0.59354   4.34113
   4.20640   0.59354   4.34113
   3.96640   0.59354   4.34113
   3.72640   0.59354   4.10113
   3.72640   0.59354   4.34113
   3.48640   0.59354   4.34113
   3.48640   0.35354   4.34113
   3.24640   0.59354   4.34113
   3.24640   0.35354   4.34113
   3.00640   0.59354   4.34113
   3.00640   0.59354   4.34113
   2.76640   0.59354   4.10113
   2.52640   0.59354   4.34113
   2.52640   0.59354   4.10113
   2.28640   0.59354   4.10113
   2.28640   0.59354   4.10113
   2.05640   0.59354   4.10113
   1.81640   0.59354   4.10113
   1.81640   0.35354   4.10113
   1.57640   0.35354   4.10113
   1.33640   0.35354   4.10113
   1.33640   0.35354   4.10113
   1.09640   0.35354   4.10113
   0.85640   0.35354   4.10113
   0.85640   0.35354   4.10113
   0.61640   0.35354   3.86113
   0.37640   0.35354   3.86113
   0.37640   0.35354   3.86113
   0.13640   0.11354   3.86113
  -0.10360   0.35354   3.86113
  -0.10360   0.11354   3.86113
  -0.34360   0.11354   3.86113
  -0.58360   0.35354   3.62113
  -0.82360   0.11354   3.86113
  -1.06360   0.11354   3.62113
  -1.30360   0.11354   3.62113
  -1.54360   0.11354   3.62113
  -1.54360   0.11354   3.62113
  -1.78360   0.11354   3.62113
  -2.02360   0.11354   3.62113
  -2.26360   0.11354   3.62113
  -2.50360  -0.12646   3.62113
  -2.74360  -0.12646   3.38113
  -2.97360  -0.12646   3.62113
  -3.21360  -0.12646   3.38113
  -3.21360   0.11354   3.38113
  -3.45360  -0.12646   3.38113
  -3.69360  -0.12646   3.38113
  -3.93360  -0.12646   3.38113
  -4.17360  -0.12646   3.38113
  -4.41360  -0.12646   3.38113
  -4.65360  -0.12646   3.38113
  -4.89360  -0.12646   3.38113
  -4.89360  -0.12646   3.38113
  -5.13360  -0.12646   3.38113
  -5.37360  -0.12646   3.38113
  -5.61360  -0.12646   3.38113
  -5.85360  -0.12646   3.38113
  -5.85360  -0.12646   3.38113
  -6.09360  -0.12646   3.38113
  -6.33360  -0.12646   3.38113
  -6.33360  -0.12646   3.38113
  -6.57360  -0.12646   3.38113
  -6.81360  -0.35646   3.38113
  -7.05360  -0.12646   3.38113
  -7.05360  -0.12646   3.38113
  -7.29360  -0.12646   3.38113
  -7.29360  -0.35646   3.38113
  -7.53360  -0.12646   3.38113
  -7.76360  -0.35646   3.38113
  -7.76360  -0.12646   3.38113
  -8.00360  -0.12646   3.38113
  -8.24360  -0.35646   3.38113
  -8.24360  -0.12646   3.38113
  -8.48360  -0.12646   3.38113
  -8.48360  -0.12646   3.38113
  -8.72360  -0.35646   3.38113
  -8.72360  -0.12646   3.38113
  -8.96360  -0.12646   3.38113
  -8.96360  -0.12646   3.62113
  -9.20360  -0.12646   3.62113
  -9.20360  -0.12646   3.62113
  -9.20360  -0.12646   3.62113
  -9.44360  -0.12646   3.62113
  -9.44360  -0.35646   3.62113
  -9.68360  -0.12646   3.62113
  -9.68360  -0.12646   3.62113
  -9.68360  -0.12646   3.62113
  -9.92360  -0.35646   3.62113
  -9.92360  -0.35646   3.62113
  -9.92360  -0.12646   3.86113
 -10.16360  -0.12646   3.86113
 -10.16360  -0.12646   3.86113
 -10.16360  -0.35646   3.86113
 -10.16360  -0.12646   3.86113
 -10.16360  -0.12646   3.86113
 -10.40360  -0.35646   3.86113
 -10.40360  -0.35646   3.86113
 -10.40360  -0.35646   3.86113
 -10.40360  -0.35646   3.86113
 -10.40360  -0.35646   4.10113
 -10.64360  -0.35646   4.10113
 -10.64360  -0.35646   4.10113
 -10.64360  -0.35646   4.10113
 -10.64360  -0.35646   4.10113
 -10.64360  -0.35646   4.10113
 -10.64360  -0.59646   4.10113
 -10.64360  -0.59646   4.10113
 -10.64360  -0.59646   4.10113
 -10.64360  -0.59646   4.34113
 -10.64360  -0.59646   4.34113
 -10.88360  -0.59646   4.34113
 -10.88360  -0.59646   4.34113
 -10.64360  -0.59646   4.34113
 -10.64360  -0.83646   4.34113
 -10.64360  -0.59646   4.34113
 -10.88360  -0.59646   4.34113
 -10.64360  -0.83646   4.34113
 -10.88360  -0.83646   4.58113
 -10.64360  -0.59646   4.58113
 -10.64360  -0.59646   4.58113
 -10.64360  -0.83646   4.58113
 -10.64360  -0.83646   4.58113
 -10.64360  -0.59646   4.58113
 -10.64360  -0.59646   4.58113
 -10.64360  -0.83646   4.58113
 -10.64360  -0.83646   4.58113
 -10.64360  -0.83646   4.58113
 -10.64360  -0.83646   4.82113
 -10.64360  -0.83646   4.82113
 -10.64360  -0.83646   4.82113
 -10.64360  -0.83646   4.82113
 -10.40360  -0.83646   4.82113
 -10.40360  -0.83646   4.82113
 -10.40360  -0.83646   4.82113
 -10.40360  -1.07646   4.82113
 -10.40360  -1.07646   4.82113
 -10.40360  -0.83646   4.82113
 -10.16360  -0.83646   5.06113
 -10.16360  -0.83646   5.06113
 -10.16360  -0.83646   5.06113
 -10.16360  -1.07646   5.06113
  -9.92360  -0.83646   5.06113
  -9.92360  -1.07646   5.06113
  -9.92360  -1.07646   5.06113
  -9.92360  -0.83646   4.82113
  -9.68360  -0.83646   4.82113
  -9.68360  -1.07646   5.06113
  -9.44360  -0.83646   5.06113
  -9.44360  -0.83646   5.06113
  -9.20360  -0.83646   4.82113
  -9.20360  -0.83646   4.82113
  -9.20360  -0.83646   4.82113
  -8.96360  -0.83646   4.82113
  -8.96360  -0.83646   4.82113
  -8.96360  -1.07646   4.82113
  -8.72360  -0.83646   4.82113
  -8.72360  -1.07646   4.58113
  -8.48360  -0.83646   4.58113
  -8.24360  -0.83646   4.58113
  -8.24360  -1.07646   4.58113
  -8.00360  -1.07646   4.34113
  -8.00360  -0.83646   4.34113
  -7.76360  -0.83646   4.34113
  -7.76360  -0.83646   4.34113
  -7.53360  -0.83646   4.34113
  -7.29360  -1.07646   4.10113
  -7.29360  -1.07646   4.10113
  -7.05360  -0.83646   3.86113
  -7.05360  -1.07646   3.86113
  -6.81360  -1.07646   3.86113
  -6.81360  -1.07646   3.62113
  -6.57360  -1.07646   3.62113
  -6.33360  -1.07646   3.38113
  -6.33360  -1.07646   3.38113
  -6.09360  -1.07646   3.38113
  -5.85360  -1.07646   3.14113
  -5.85360  -1.07646   3.14113
  -5.61360  -1.07646   2.90113
  -5.61360  -1.07646   2.90113
  -5.37360  -1.07646   2.66113
  -5.13360  -1.07646   2.66113
  -5.13360  -1.07646   2.42113
  -4.89360  -1.07646   2.42113
  -4.65360  -1.07646   2.42113
  -4.65360  -1.07646   2.18113
  -4.41360  -1.07646   2.18113
  -4.17360  -1.07646   1.70113
  -4.17360  -1.07646   1.94113
  -3.93360  -1.07646   1.70113
  -3.93360  -1.07646   1.46113
  -3.69360  -0.83646   1.46113
  -3.45360  -0.83646   1.22113
  -3.45360  -0.83646   1.22113
  -3.21360  -0.83646   0.98113
  -2.97360  -0.83646   0.98113
  -2.97360  -0.83646   0.74113
  -2.74360  -0.59646   0.51113
  -2.50360  -0.59646   0.51113
  -2.50360  -0.59646   0.27113
  -2.26360  -0.59646   0.03113
  -2.26360  -0.59646   0.03113
  -2.02360  -0.59646  -0.20887
  -1.78360  -0.59646  -0.44887
  -1.78360  -0.59646  -0.44887
  -1.54360  -0.35646  -0.68887
  -1.54360  -0.35646  -0.68887
  -1.30360  -0.35646  -0.92887
  -1.30360  -0.35646  -1.16887
  -1.06360  -0.35646  -1.16887
  -0.82360  -0.12646  -1.40887
  -0.82360  -0.12646  -1.64887
  -0.82360  -0.12646  -1.64887
  -0.58360  -0.12646  -1.88887
  -0.58360   0.11354  -1.88887
  -0.34360  -0.12646  -2.12887
  -0.34360   0.11354  -2.12887
  -0.10360   0.11354  -2.36887
  -0.10360   0.11354  -2.36887
  -0.10360   0.11354  -2.60887
   0.13640   0.11354  -2.60887
   0.13640   0.35354  -2.84887
   0.13640   0.35354  -2.84887
   0.37640   0.11354  -3.08887
   0.37640   0.35354  -3.32887
   0.37640   0.35354  -3.32887
   0.37640   0.35354  -3.32887
   0.61640   0.59354  -3.32887
   0.61640   0.59354  -3.56887
   0.61640   0.59354  -3.56887
   0.61640   0.59354  -3.80887
   0.85640   0.83354  -3.80887
   0.85640   0.83354  -4.04887
   0.85640   0.83354  -4.04887
   0.85640   1.07354  -4.04887
   0.85640   1.07354  -4.28887
   0.85640   1.07354  -4.28887
   0.85640   1.07354  -4.28887
   0.85640   1.07354  -4.51887
   1.09640   1.07354  -4.51887
   1.09640   1.07354  -4.51887
   1.09640   1.07354  -4.75887
   1.09640   1.31354  -4.75887
   1.09640   1.31354  -4.75887
   1.09640   1.07354  -4.99887
   1.09640   1.31354  -4.99887
   1.09640   1.55354  -4.99887
   1.09640   1.55354  -4.99887
   1.09640   1.55354  -5.23887
   1.09640   1.55354  -5.23887
   1.09640   1.55354  -5.23887
   1.09640   1.55354  -5.23887
   1.09640   1.31354  -5.23887
   1.09640   1.55354  -5.23887
   1.09640   1.55354  -5.47887
   1.09640   1.55354  -5.47887
   1.09640   1.55354  -5.47887
   1.09640   1.31354  -5.47887
   1.09640   1.55354  -5.47887
   1.09640   1.55354  -5.47887
   1.09640   1.55354  -5.47887
