********************************************************************************
              CENTRO DE INSTRUMENTACION Y REGISTRO SISMICO  A.C.

    Anaxagoras 814, Col. Narvarte, Benito Juarez, C.P. 03020 Mexico, D.F.
           Tels. 5687 45 42/ 5687 45  82             Fax. 5669 25 12
********************************************************************************
ARCHIVO ESTANDAR DE ACELERACION:
VERSION DEL FORMATO                    : 2.0
NOMBRE DEL ARCHIVO                     : BA4920160410071121
FECHA Y HORA DE CREACION               : 27/ABR/16, 11:17
REF. CATALOGO ACELEROGRAMAS, SMIS 1996 : REGISTRO No.     /PAG.


================================================================================
DATOS DE LA ESTACION:
NOMBRE DE LA ESTACION                  : BUENOS AIRES
CLAVE DE LA ESTACION                   : BA49
LOCALIZACION DE LA ESTACION            : Del. Cuauhtémoc, Col. Doctores,        
                                       : Av. Lázaro Cárdenas esq. con           
                                       : Calle Dr. Márquez.                     
                                       :                                        
                                       : 
COORDENADAS DE LA ESTACION             : 19.4097 LAT. N
                                       : 99.1450 LONG. W
ALTITUD (msnm)                         : 2233
TIPO DE SUELO                          : Terreno blando, material compresible
                                       : (arcillas)                
                                       : 
INSTITUCION RESPONSABLE                : CIRES
                                       : 

================================================================================
DATOS DEL ACELEROGRAFO:
MODELO DEL ACELEROGRAFO                : RADESD
NUMERO DE SERIE DEL ACELEROGRAFO       : 176
NUMERO DE CANALES                      : 3
ORIENTACION C1-C6 (rumbo;orientacion)  : /S00E/+V/N90W
ORIENTACION C7-C12 (rumbo;orientacion) : 
VEL. DE MUESTREO, C1-C6 (muestras/s)   : /100/100/100
VEL. DE MUESTREO, C7-C12 (muestras/s)  : 
ESC. COMPLETA DE SENSORES, C1-C6, (g)  : /0.5/0.5/0.5
ESC. COMPLETA DE SENSORES, C7-C12, (g) : 
FREC. NAT. DE SENSORES, C1-C6, (Hz)    : /52.99/52.03/52.99
FREC. NAT. DE SENSORES, C7-C12, (Hz)   : 
AMORTIGUAMIENTO DE SENSORES, C1-C6     : /0.5589/0.5469/0.6096
AMORTIGUAMIENTO DE SENSORES, C7-C12    : 
INTERVALO DE MUESTREO, C1-C6, (s)      : /0.01/0.01/0.01
INTERVALO DE MUESTREO, C7-C12, (s)     : 
UMBRAL DE DISPARO, C1-C6, (Gal)        : /0.96/1.92/0.96
UMBRAL DE DISPARO, C7-C12, (Gal)       : 
MEMORIA DE PREEVENTO (s)               : 44.0
TIEMPO DE POSEVENTO (s)                : 76.0


================================================================================
DATOS DEL SISMO:
FECHA DEL SISMO (GMT)                  : 10/ABR/16
HORA EPICENTRO (GMT)                   : 07:11:21.0
MAGNITUD(ES)                           : /Mc=5.4
COORDENADAS DEL EPICENTRO              : 15.74 LAT. N
                                       : 96.37 LONG. W
PROFUNDIDAD FOCAL (km)                 : 31
FUENTE DE LOS DATOS EPICENTRALES       : SSN
                                       : INSTITUTO DE GEOFISICA, UNAM

================================================================================
DATOS DE ESTE REGISTRO:
HORA DE LA PRIMERA MUESTRA (GMT)       : 07:14:02.00
EXACTITUD DEL TIEMPO (s)               : 0.01
DURACION DEL REGISTRO (s), C1-C6       : /131.8/131.8/131.8
DURACION DEL REGISTRO (s), C7-C12      : 
NUM. TOTAL DE MUESTRAS, C1-C6          : /13180/13180/13180
NUM. TOTAL DE MUESTRAS, C7-C12         : 
ACEL. MAX. (Gal), C1-C6                : /1.36852/0.61504/1.06721
ACEL. MAX., C1-C6, EN LA MUESTRA       : /4383/4500/3141
ACEL. MAX. (Gal), C7-C12               : 
ACEL. MAX., C7-C12, EN LA MUESTRA      : 
UNIDADES DE LOS DATOS                  : Gal (cm/s/s)
FACTOR DE DECIMACION                   : 1
FORMATO DATOS (FORTRAN,10 campos/dato) : 3F10.5


================================================================================
CALIDAD DEL ACELEROGRAMA:
REGISTRO DIGITAL COMPLETO CON TIEMPO ABSOLUTO CORRECTO.


================================================================================
COMENTARIOS:














================================================================================
DATOS DE ACELERACION:
---------+---------+---------+---------+---------+---------+---------+---------+
   CANAL-1   CANAL-2   CANAL-3   CANAL-4   CANAL-5   CANAL-6   CANAL-7   CANAL-8
      S00E        +V      N90W
---------+---------+---------+---------+---------+---------+---------+---------+
[...]
  -0.26253   0.12123  -0.04967
  -0.27750   0.13620  -0.09456
  -0.24757   0.21101  -0.04967
  -0.27750   0.16612  -0.16938
  -0.33735   0.16612  -0.10953
  -0.30742   0.10627  -0.09456
  -0.38224   0.18109  -0.09456
  -0.35232   0.19605  -0.09456
  -0.39721   0.16612  -0.15442
  -0.41217   0.10627  -0.04967
  -0.39721   0.18109  -0.09456
  -0.41217   0.10627  -0.15442
  -0.38224   0.22598  -0.07960
  -0.42713   0.13620  -0.12449
  -0.44210   0.13620  -0.18435
  -0.48699   0.07634  -0.06464
  -0.50195   0.18109  -0.12449
  -0.54684   0.15116  -0.03471
  -0.53188   0.06138  -0.07960
  -0.50195   0.06138  -0.13945
  -0.51692   0.01649  -0.04967
  -0.53188   0.06138  -0.07960
  -0.51692   0.00152  -0.07960
  -0.56181   0.04641   0.07004
  -0.59174   0.01649   0.07004
  -0.51692  -0.08826   0.04011
  -0.53188  -0.10322   0.04011
  -0.51692  -0.14812   0.09997
  -0.50195  -0.08826   0.07004
  -0.51692  -0.13315   0.09997
  -0.56181  -0.13315   0.18975
  -0.47203  -0.10322   0.11493
  -0.48699  -0.25286   0.21968
  -0.47203  -0.19301   0.18975
  -0.51692  -0.20797   0.32442
  -0.42713  -0.31272   0.21968
  -0.45706  -0.34265   0.33939
  -0.45706  -0.41746   0.38428
  -0.38224  -0.29775   0.36931
  -0.41217  -0.32768   0.38428
  -0.36728  -0.32768   0.42917
  -0.33735  -0.35761   0.39924
  -0.36728  -0.31272   0.35435
  -0.30742  -0.38754   0.39924
  -0.26253  -0.29775   0.38428
  -0.26253  -0.31272   0.38428
  -0.26253  -0.29775   0.42917
  -0.14282  -0.35761   0.32442
  -0.15779  -0.32768   0.29449
  -0.17275  -0.32768   0.30946
  -0.14282  -0.25286   0.27953
  -0.06800  -0.26783   0.18975
  -0.09793  -0.11819   0.27953
   0.02178  -0.16308   0.17478
  -0.02311  -0.11819   0.11493
   0.06667  -0.10322   0.09997
   0.06667  -0.05833   0.02515
   0.09660  -0.05833   0.07004
   0.12652  -0.02841  -0.04967
   0.09660  -0.07330  -0.03471
   0.14149  -0.05833  -0.04967
   0.20134   0.12123  -0.13945
   0.21631   0.16612  -0.15442
   0.20134   0.10627  -0.18435
   0.18638   0.13620  -0.25916
   0.23127   0.21101  -0.24420
   0.23127   0.21101  -0.34895
   0.21631   0.22598  -0.36391
   0.21631   0.27087  -0.39384
   0.21631   0.25591  -0.42377
   0.24623   0.30080  -0.43873
   0.20134   0.27087  -0.46866
   0.21631   0.37562  -0.43873
   0.20134   0.31576  -0.51355
   0.21631   0.31576  -0.58837
   0.24623   0.31576  -0.58837
   0.23127   0.33072  -0.57340
   0.30609   0.27087  -0.63326
   0.24623   0.24094  -0.66319
   0.29113   0.34569  -0.69311
   0.26120   0.30080  -0.69311
   0.27616   0.31576  -0.72304
   0.27616   0.28583  -0.75297
   0.23127   0.21101  -0.76793
   0.26120   0.24094  -0.75297
   0.23127   0.21101  -0.73801
   0.27616   0.21101  -0.76793
   0.27616   0.25591  -0.81282
   0.23127   0.16612  -0.73801
   0.21631   0.21101  -0.75297
   0.18638   0.12123  -0.72304
   0.23127   0.13620  -0.67815
   0.24623   0.10627  -0.66319
   0.20134   0.09130  -0.64822
   0.18638   0.04641  -0.61830
   0.20134   0.04641  -0.60333
   0.18638   0.00152  -0.57340
   0.15645  -0.01344  -0.52851
   0.08163   0.00152  -0.48362
   0.15645  -0.08826  -0.45369
   0.11156  -0.10322  -0.37887
   0.08163  -0.02841  -0.40880
   0.11156  -0.11819  -0.31902
   0.09660  -0.16308  -0.27413
   0.11156  -0.05833  -0.27413
   0.09660  -0.05833  -0.18435
   0.05171  -0.17804  -0.18435
   0.06667  -0.16308  -0.13945
   0.06667  -0.11819  -0.10953
   0.08163  -0.20797  -0.03471
   0.02178  -0.19301  -0.00478
   0.11156  -0.22294   0.05507
   0.08163  -0.28279   0.09997
   0.06667  -0.25286   0.15982
   0.02178  -0.29775   0.23464
   0.09660  -0.28279   0.23464
   0.06667  -0.34265   0.21968
   0.08163  -0.29775   0.23464
   0.06667  -0.32768   0.27953
   0.08163  -0.35761   0.26457
   0.12652  -0.28279   0.33939
   0.11156  -0.29775   0.35435
   0.09660  -0.29775   0.30946
   0.11156  -0.19301   0.33939
   0.15645  -0.23790   0.33939
   0.12652  -0.25286   0.35435
   0.15645  -0.22294   0.36931
   0.17142  -0.17804   0.32442
   0.20134  -0.20797   0.35435
   0.18638  -0.14812   0.32442
   0.21631  -0.14812   0.29449
   0.23127  -0.16308   0.26457
   0.24623  -0.14812   0.30946
   0.24623  -0.07330   0.23464
   0.24623  -0.04337   0.26457
   0.26120  -0.07330   0.21968
   0.29113  -0.01344   0.18975
   0.29113   0.00152   0.11493
   0.30609   0.01649   0.18975
   0.35098   0.01649   0.15982
   0.36594   0.01649   0.11493
   0.36594   0.06138   0.11493
   0.32105   0.06138   0.09997
   0.39587   0.06138   0.02515
   0.36594   0.09130   0.05507
   0.39587   0.16612  -0.01974
   0.39587   0.12123  -0.01974
   0.35098   0.12123  -0.01974
   0.39587   0.18109  -0.01974
   0.36594   0.18109  -0.07960
   0.38091   0.19605  -0.10953
   0.36594   0.21101  -0.12449
   0.33602   0.15116  -0.10953
   0.33602   0.21101  -0.10953
   0.32105   0.16612  -0.12449
   0.30609   0.24094  -0.12449
   0.29113   0.19605  -0.16938
   0.32105   0.25591  -0.16938
   0.27616   0.22598  -0.09456
   0.23127   0.21101  -0.15442
   0.27616   0.25591  -0.13945
   0.21631   0.25591  -0.13945
   0.20134   0.28583  -0.15442
   0.17142   0.25591  -0.13945
   0.14149   0.22598  -0.12449
   0.12652   0.27087  -0.12449
   0.12652   0.18109  -0.10953
   0.12652   0.19605  -0.18435
   0.08163   0.16612  -0.07960
   0.06667   0.21101  -0.06464
   0.03674   0.18109  -0.06464
   0.05171   0.15116  -0.01974
   0.05171   0.19605  -0.01974
   0.03674   0.16612  -0.00478
   0.02178   0.07634   0.01018
   0.06667   0.13620   0.02515
  -0.00815   0.06138   0.04011
  -0.00815   0.03145   0.09997
  -0.03808   0.03145   0.08500
  -0.00815   0.03145   0.11493
  -0.03808   0.00152   0.12989
  -0.06800  -0.07330   0.20471
  -0.00815   0.01649   0.21968
  -0.09793  -0.02841   0.24960
  -0.12786  -0.07330   0.24960
  -0.06800  -0.10322   0.21968
  -0.08297  -0.11819   0.15982
  -0.15779  -0.16308   0.26457
  -0.15779  -0.04337   0.32442
  -0.20268  -0.13315   0.30946
  -0.21764  -0.14812   0.23464
  -0.23261  -0.13315   0.27953
  -0.29246  -0.08826   0.32442
  -0.29246  -0.10322   0.26457
  -0.33735  -0.11819   0.32442
  -0.38224  -0.10322   0.30946
  -0.38224  -0.10322   0.23464
  -0.45706  -0.07330   0.29449
  -0.45706  -0.01344   0.24960
  -0.54684  -0.08826   0.24960
  -0.51692  -0.01344   0.26457
  -0.54684  -0.01344   0.14486
  -0.57677  -0.05833   0.14486
  -0.62166   0.03145   0.21968
  -0.54684  -0.04337   0.12989
  -0.68152  -0.11819   0.12989
  -0.66655  -0.02841   0.07004
  -0.66655  -0.01344   0.12989
  -0.66655  -0.02841   0.11493
  -0.65159  -0.02841  -0.00478
  -0.69648  -0.10322   0.04011
  -0.65159  -0.04337   0.04011
  -0.66655  -0.02841   0.07004
  -0.57677  -0.08826   0.08500
  -0.60670  -0.10322   0.02515
  -0.56181  -0.08826   0.08500
  -0.54684  -0.02841   0.05507
  -0.51692  -0.04337   0.08500
  -0.45706  -0.05833   0.05507
  -0.42713  -0.11819   0.12989
  -0.39721  -0.04337   0.02515
  -0.35232  -0.08826   0.04011
  -0.32239   0.01649   0.14486
  -0.23261  -0.08826   0.15982
  -0.18771  -0.08826   0.05507
  -0.14282  -0.04337   0.02515
  -0.09793  -0.10322   0.14486
  -0.00815   0.03145   0.14486
   0.00681  -0.01344   0.09997
   0.06667   0.10627   0.20471
   0.18638   0.01649   0.12989
   0.15645   0.06138   0.12989
   0.20134   0.03145   0.14486
   0.23127   0.03145   0.09997
   0.27616   0.06138   0.21968
   0.35098   0.00152   0.11493
   0.38091   0.04641   0.05507
   0.39587   0.07634   0.05507
   0.39587   0.01649   0.20471
   0.39587   0.07634   0.12989
   0.45573   0.03145   0.11493
   0.38091   0.12123   0.26457
   0.53055   0.03145   0.17478
   0.44076   0.06138   0.17478
   0.47069  -0.04337   0.27953
   0.45573   0.00152   0.24960
   0.50062   0.06138   0.24960
   0.47069   0.03145   0.20471
   0.45573  -0.02841   0.27953
   0.44076  -0.07330   0.30946
   0.45573  -0.10322   0.23464
   0.42580  -0.05833   0.15982
   0.39587  -0.17804   0.27953
   0.36594  -0.02841   0.24960
   0.35098  -0.05833   0.23464
   0.30609  -0.11819   0.27953
   0.35098  -0.13315   0.14486
   0.29113  -0.17804   0.26457
   0.27616  -0.10322   0.20471
   0.21631  -0.08826   0.14486
   0.20134  -0.16308   0.09997
   0.17142  -0.14812   0.17478
   0.09660  -0.13315   0.07004
   0.09660  -0.11819   0.12989
   0.05171  -0.16308   0.11493
   0.02178  -0.19301   0.05507
  -0.02311  -0.14812   0.09997
  -0.05304  -0.14812   0.02515
  -0.09793  -0.17804   0.05507
  -0.12786  -0.17804  -0.00478
  -0.18771  -0.17804  -0.01974
  -0.23261  -0.19301  -0.03471
  -0.24757  -0.10322  -0.00478
  -0.33735  -0.14812   0.02515
  -0.27750  -0.14812  -0.01974
  -0.33735  -0.11819  -0.03471
  -0.36728  -0.16308  -0.03471
  -0.38224   0.01649  -0.07960
  -0.41217  -0.07330  -0.07960
  -0.39721  -0.05833  -0.01974
  -0.45706  -0.07330  -0.01974
  -0.53188  -0.08826  -0.03471
  -0.50195  -0.04337   0.02515
  -0.47203  -0.02841  -0.01974
  -0.45706   0.04641  -0.00478
  -0.50195   0.00152  -0.04967
  -0.53188   0.09130  -0.01974
  -0.50195   0.07634  -0.01974
  -0.53188   0.01649  -0.01974
  -0.48699   0.07634  -0.03471
  -0.54684   0.10627  -0.04967
  -0.50195   0.12123  -0.07960
  -0.56181   0.09130  -0.03471
  -0.51692   0.12123  -0.06464
  -0.50195   0.13620  -0.09456
  -0.51692   0.09130  -0.09456
  -0.53188   0.12123  -0.07960
  -0.54684   0.13620  -0.13945
  -0.54684   0.07634  -0.16938
  -0.51692   0.12123  -0.15442
  -0.53188   0.12123  -0.12449
  -0.53188   0.12123  -0.21427
  -0.53188   0.10627  -0.18435
  -0.54684   0.12123  -0.22924
  -0.56181   0.07634  -0.21427
  -0.59174   0.13620  -0.25916
  -0.54684   0.18109  -0.22924
  -0.53188   0.09130  -0.22924
  -0.54684   0.13620  -0.22924
  -0.51692   0.09130  -0.22924
  -0.48699   0.13620  -0.25916
  -0.45706   0.15116  -0.24420
  -0.45706   0.09130  -0.30406
  -0.41217   0.09130  -0.30406
  -0.39721   0.03145  -0.24420
  -0.33735   0.04641  -0.24420
  -0.26253   0.01649  -0.27413
  -0.21764   0.06138  -0.25916
  -0.15779   0.04641  -0.27413
  -0.11290   0.01649  -0.24420
  -0.06800  -0.05833  -0.19931
   0.00681   0.00152  -0.18435
   0.12652  -0.07330  -0.24420
   0.18638  -0.07330  -0.19931
   0.26120  -0.05833  -0.24420
   0.32105  -0.08826  -0.22924
   0.41084  -0.04337  -0.15442
   0.50062  -0.13315  -0.19931
   0.57544  -0.05833  -0.13945
   0.66522  -0.16308  -0.10953
   0.76997  -0.07330  -0.07960
   0.82982  -0.11819  -0.12449
   0.91960  -0.13315  -0.03471
   0.96449  -0.19301  -0.03471
   1.02435  -0.22294   0.02515
   1.05428  -0.14812   0.04011
   1.14406  -0.20797   0.02515
   1.21888  -0.19301   0.08500
   1.23384  -0.20797   0.11493
   1.30866  -0.17804   0.09997
   1.30866  -0.07330   0.11493
   1.35355  -0.14812   0.12989
   1.33859  -0.05833   0.18975
   1.33859  -0.11819   0.17478
   1.35355   0.00152   0.17478
   1.35355  -0.01344   0.17478
   1.36852   0.06138   0.20471
   1.32363   0.06138   0.18975
   1.27873   0.07634   0.18975
   1.23384   0.16612   0.17478
   1.18895   0.15116   0.18975
   1.17399   0.25591   0.14486
   1.08421   0.24094   0.11493
   1.05428   0.30080   0.12989
   1.00939   0.24094   0.08500
   0.91960   0.33072   0.05507
   0.88968   0.37562   0.02515
   0.78493   0.40554   0.02515
   0.71011   0.37562  -0.01974
   0.65026   0.45043  -0.07960
   0.57544   0.46540  -0.06464
   0.50062   0.43547  -0.12449
   0.41084   0.48036  -0.10953
   0.32105   0.45043  -0.18435
   0.26120   0.48036  -0.24420
   0.14149   0.39058  -0.24420
   0.09660   0.36065  -0.30406
  -0.00815   0.39058  -0.33398
  -0.08297   0.33072  -0.39384
  -0.14282   0.33072  -0.43873
  -0.18771   0.31576  -0.48362
  -0.33735   0.24094  -0.52851
  -0.35232   0.22598  -0.49859
  -0.41217   0.15116  -0.52851
  -0.45706   0.12123  -0.57340
  -0.51692   0.06138  -0.58837
  -0.56181   0.12123  -0.60333
  -0.59174   0.09130  -0.60333
  -0.63663  -0.01344  -0.63326
  -0.72641  -0.05833  -0.61830
  -0.71145  -0.07330  -0.63326
  -0.75634  -0.05833  -0.61830
  -0.83116  -0.10322  -0.60333
  -0.81619  -0.07330  -0.58837
  -0.81619  -0.14812  -0.58837
  -0.81619  -0.14812  -0.55844
  -0.83116  -0.13315  -0.55844
  -0.81619  -0.14812  -0.55844
  -0.81619  -0.20797  -0.46866
  -0.81619  -0.20797  -0.46866
  -0.78626  -0.22294  -0.42377
  -0.78626  -0.22294  -0.42377
  -0.78626  -0.25286  -0.42377
  -0.74137  -0.28279  -0.37887
  -0.77130  -0.31272  -0.33398
  -0.69648  -0.23790  -0.33398
  -0.71145  -0.29775  -0.25916
  -0.63663  -0.32768  -0.24420
  -0.62166  -0.29775  -0.24420
  -0.60670  -0.31272  -0.19931
  -0.57677  -0.28279  -0.13945
  -0.56181  -0.32768  -0.09456
  -0.54684  -0.34265  -0.03471
  -0.50195  -0.29775  -0.00478
  -0.48699  -0.31272   0.02515
  -0.41217  -0.29775   0.04011
  -0.39721  -0.26783   0.09997
  -0.35232  -0.29775   0.11493
  -0.33735  -0.28279   0.12989
  -0.30742  -0.20797   0.15982
  -0.26253  -0.19301   0.15982
  -0.23261  -0.19301   0.20471
  -0.21764  -0.19301   0.17478
  -0.18771  -0.17804   0.21968
  -0.14282  -0.22294   0.21968
  -0.12786  -0.14812   0.27953
  -0.11290  -0.14812   0.26457
  -0.08297  -0.16308   0.26457
  -0.03808  -0.17804   0.29449
   0.00681  -0.16308   0.32442
  -0.00815  -0.17804   0.30946
   0.05171  -0.13315   0.32442
   0.05171  -0.14812   0.35435
   0.09660  -0.14812   0.35435
   0.11156  -0.19301   0.38428
   0.15645  -0.11819   0.38428
   0.18638  -0.11819   0.39924
   0.20134  -0.14812   0.42917
   0.27616  -0.13315   0.39924
   0.27616  -0.13315   0.47406
   0.32105  -0.16308   0.47406
   0.35098  -0.08826   0.47406
   0.36594  -0.13315   0.48902
   0.42580  -0.07330   0.48902
   0.42580  -0.07330   0.54888
   0.45573  -0.07330   0.50399
   0.53055  -0.04337   0.47406
   0.51558  -0.04337   0.50399
   0.48565  -0.04337   0.53391
   0.51558  -0.05833   0.48902
   0.54551   0.04641   0.53391
   0.54551   0.03145   0.50399
   0.54551   0.06138   0.54888
   0.48565   0.09130   0.54888
   0.50062   0.13620   0.53391
   0.51558   0.16612   0.48902
   0.47069   0.19605   0.50399
   0.44076   0.22598   0.45910
   0.42580   0.21101   0.44413
   0.39587   0.28583   0.47406
   0.36594   0.31576   0.44413
   0.30609   0.33072   0.44413
   0.29113   0.37562   0.41420
   0.21631   0.39058   0.35435
   0.18638   0.46540   0.35435
   0.08163   0.52525   0.36931
   0.08163   0.52525   0.27953
  -0.00815   0.46540   0.26457
  -0.09793   0.57014   0.24960
  -0.09793   0.58511   0.17478
  -0.18771   0.55518   0.15982
  -0.21764   0.58511   0.15982
  -0.30742   0.54022   0.11493
  -0.33735   0.61504   0.05507
  -0.44210   0.58511   0.05507
  -0.45706   0.58511   0.01018
  -0.53188   0.55518  -0.01974
  -0.62166   0.51029  -0.06464
  -0.68152   0.48036  -0.04967
  -0.69648   0.48036  -0.10953
  -0.69648   0.45043  -0.13945
  -0.75634   0.40554  -0.21427
  -0.80123   0.36065  -0.22924
  -0.83116   0.34569  -0.24420
  -0.83116   0.27087  -0.25916
  -0.84612   0.21101  -0.34895
  -0.83116   0.16612  -0.28909
  -0.86108   0.13620  -0.36391
  -0.89101   0.12123  -0.34895
  -0.89101  -0.01344  -0.39384
  -0.83116  -0.01344  -0.34895
  -0.83116  -0.11819  -0.37887
  -0.78626  -0.08826  -0.36391
  -0.74137  -0.13315  -0.43873
  -0.75634  -0.22294  -0.36391
  -0.68152  -0.28279  -0.37887
  -0.62166  -0.26783  -0.36391
  -0.56181  -0.29775  -0.33398
  -0.53188  -0.38754  -0.33398
  -0.45706  -0.35761  -0.31902
  -0.41217  -0.38754  -0.27413
  -0.41217  -0.44739  -0.25916
  -0.27750  -0.40250  -0.21427
  -0.27750  -0.50725  -0.18435
  -0.20268  -0.46236  -0.15442
  -0.23261  -0.50725  -0.12449
