********************************************************************************
               CENTRO DE INSTRUMENTACION Y REGISTRO SISMICO  A.C.  
                       Coordinacion de Servicios Tecnicos
     Anaxagoras 814, Col. Narvarte, Benito Juarez, C.P. 03020 Mexico, D.F.
            Tels. 667 45 42/ 687 45  82             Fax. 669 25 12
********************************************************************************
ARCHIVO ESTANDAR DE ACELERACION:
VERSION DEL FORMATO                    : 2.0
NOMBRE DEL ARCHIVO                     : BA499906.151
FECHA Y HORA DE CREACION               : 16/FEBRERO/2000, 10:10
REF. CATALOGO ACELEROGRAMAS, SMIS 1996 : REGISTRO No.     /PAG.


================================================================================
DATOS DE LA ESTACION:
NOMBRE DE LA ESTACION                  : BUENOS AIRES
CLAVE DE LA ESTACION                   : BA49
LOCALIZACION DE LA ESTACION            : ESCUELA SECUNDARIA 102, DOCTOR MARQUEZ
                                       : Y EJE CENTRAL, BUENOS AIRES.
                                       :
                                       :
                                       :
COORDENADAS DE LA ESTACION             : 19.410 LAT. N 
                                       : 99.145 LONG. W 
ALTITUD (msnm)                         : 2233
TIPO DE SUELO                          : TERRENO BLANDO, MATERIAL COMPRESIBLE
                                       : (ARCILLAS)
                                       : 
INSTITUCION RESPONSABLE                : CIRES 
                                       :

================================================================================
DATOS DEL ACELEROGRAFO:
MODELO DEL ACELEROGRAFO                : SSA-1
NUMERO DE SERIE DEL ACELEROGRAFO       : 176
NUMERO DE CANALES                      : 3
ORIENTACION C1-C6 (rumbo;orientacion)  : /N00E/+V/N90E
ORIENTACION C7-C12 (rumbo;orientacion) :
VEL. DE MUESTREO, C1-C6 (muestras/s)   : /200/200/200
VEL. DE MUESTREO, C7-C12 (muestras/s)  :
ESC. COMPLETA DE SENSORES, C1-C6, (g)  : /2/2/2
ESC. COMPLETA DE SENSORES, C7-C12, (g) :
FREC. NAT. DE SENSORES, C1-C6, (Hz)    : /52.99/52.03/52.99
FREC. NAT. DE SENSORES, C7-C12, (Hz)   :
AMORTIGUAMIENTO DE SENSORES, C1-C6     : /.5589/.5469/.6096
AMORTIGUAMIENTO DE SENSORES, C7-C12    :
INTERVALO DE MUESTREO, C1-C6, (s)      : /0.005/0.005/0.005
INTERVALO DE MUESTREO, C7-C12, (s)     :
UMBRAL DE DISPARO, C1-C6, (Gal)        : /2/2/2
UMBRAL DE DISPARO, C7-C12, (Gal)       :
MEMORIA DE PREEVENTO (s)               : 15
TIEMPO DE POSEVENTO (s)                : 60


================================================================================
DATOS DEL SISMO:
FECHA DEL SISMO (GMT)                  : 15/JUN/99
HORA EPICENTRO (GMT)                   : 20:42:07.1
MAGNITUD(ES)                           : /Mb=6.4/Ms=6.5/Me=7.0
COORDENADAS DEL EPICENTRO              : 18.18 LAT. N
                                       : 97.51 LONG. W
PROFUNDIDAD FOCAL (km)                 : 69.0
FUENTE DE LOS DATOS EPICENTRALES       : SSN
                                       : INSTITUTO DE GEOFISICA, UNAM

================================================================================
DATOS DE ESTE REGISTRO:
HORA DE LA PRIMERA MUESTRA (GMT)       : 20:42:49.00
EXACTITUD DEL TIEMPO (s)               :     
DURACION DEL REGISTRO (s), C1-C6       : /344.32/344.32/344.32
DURACION DEL REGISTRO (s), C7-C12      :
NUM. TOTAL DE MUESTRAS, C1-C6          : /68864/68864/68864
NUM. TOTAL DE MUESTRAS, C7-C12         :
ACEL. MAX. (Gal), C1-C6                : /39.44292/9.87780/33.52478
ACEL. MAX., C1-C6, EN LA MUESTRA       :
ACEL. MAX. (Gal), C7-C12               :
ACEL. MAX., C7-C12, EN LA MUESTRA      :
UNIDADES DE LOS DATOS                  : Gal (cm/s/s)
FACTOR DE DECIMACION                   : 1
FORMATO DATOS (FORTRAN,10 campos/dato) : 3F10.5


================================================================================
CALIDAD DEL ACELEROGRAMA:
REGISTRO DIGITAL COMPLETO, CARECE DE TIEMPO ABSOLUTO.


================================================================================
COMENTARIOS:














================================================================================
DATOS DE ACELERACION:
---------+---------+---------+---------+---------+---------+---------+---------+
   CANAL-1   CANAL-2   CANAL-3   CANAL-4   CANAL-5   CANAL-6   CANAL-7   CANAL-8
      N00E        +V      N90E
---------+---------+---------+---------+---------+---------+---------+---------+
[...]
  11.56708  -0.42220 -21.79478
  12.28708  -0.18220 -21.79478
  13.00708  -0.18220 -21.79478
  13.96708   0.05780 -21.79478
  14.68708   0.05780 -21.55478
  15.15708   0.05780 -21.31478
  15.87708   0.29780 -21.07478
  16.83708   0.29780 -20.83478
  17.55708   0.53780 -20.83478
  18.27708   0.77780 -20.83478
  18.75708   0.77780 -20.35478
  19.47708   1.01780 -20.35478
  20.42708   1.01780 -19.87478
  21.14708   1.25780 -19.63478
  21.86708   1.49780 -19.63478
  22.58708   1.73780 -19.39478
  23.30708   1.73780 -19.15478
  24.02708   1.97780 -18.92478
  24.50708   2.21780 -18.68478
  25.21708   2.21780 -18.68478
  25.69708   2.45780 -18.44478
  26.17708   2.45780 -18.20478
  26.89708   2.68780 -17.96478
  27.37708   2.68780 -17.72478
  27.85708   2.92780 -17.72478
  28.33708   2.92780 -17.48478
  28.81708   2.92780 -17.24478
  29.05708   2.92780 -17.24478
  29.52708   2.92780 -17.00478
  30.00708   2.92780 -17.00478
  30.24708   3.16780 -16.52478
  30.48708   3.16780 -16.52478
  30.96708   3.16780 -16.28478
  31.20708   3.16780 -16.04478
  31.44708   3.16780 -15.80478
  31.68708   3.16780 -15.80478
  31.92708   3.16780 -15.56478
  32.16708   3.40780 -15.32478
  32.40708   3.40780 -15.08478
  32.64708   3.64780 -15.08478
  32.64708   3.64780 -14.84478
  32.88708   3.88780 -14.60478
  33.12708   4.12780 -14.60478
  33.36708   4.12780 -14.36478
  33.36708   4.36780 -14.36478
  33.60708   4.60780 -14.13478
  33.84708   4.84780 -13.89478
  33.84708   5.08780 -13.65478
  33.84708   5.32780 -13.41478
  33.84708   5.32780 -13.41478
  34.08708   5.56780 -13.17478
  34.31708   5.56780 -12.93478
  34.31708   5.80780 -12.93478
  34.31708   6.04780 -12.69478
  34.31708   6.04780 -12.45478
  34.31708   6.28780 -12.45478
  34.31708   6.52780 -12.21478
  34.31708   6.52780 -11.97478
  34.31708   6.76780 -11.97478
  34.31708   6.76780 -11.73478
  34.31708   7.00780 -11.49478
  34.31708   7.00780 -11.49478
  34.08708   7.00780 -11.25478
  34.08708   7.00780 -11.25478
  33.84708   7.00780 -11.01478
  33.84708   7.00780 -11.01478
  33.60708   7.00780 -10.77478
  33.36708   7.00780 -10.53478
  33.36708   7.00780 -10.53478
  33.12708   6.76780 -10.29478
  33.12708   6.52780 -10.29478
  32.88708   6.52780 -10.29478
  32.88708   6.28780 -10.05478
  32.64708   6.04780 -10.05478
  32.64708   5.80780  -9.81478
  32.40708   5.56780  -9.57478
  32.40708   5.56780  -9.57478
  32.40708   5.32780  -9.57478
  32.16708   5.32780  -9.34478
  32.16708   5.08780  -9.34478
  32.16708   5.08780  -9.10478
  31.92708   5.32780  -9.10478
  31.92708   5.08780  -8.86478
  31.92708   5.32780  -8.86478
  31.68708   5.32780  -8.62478
  31.68708   5.32780  -8.38478
  31.68708   5.32780  -8.38478
  31.68708   5.32780  -8.14478
  31.68708   5.32780  -7.90478
  31.44708   5.32780  -7.66478
  31.68708   5.08780  -7.66478
  31.68708   5.08780  -7.18478
  31.68708   4.84780  -6.94478
  31.68708   4.84780  -6.94478
  31.68708   4.60780  -6.70478
  31.92708   4.60780  -6.22478
  31.92708   4.36780  -5.98478
  31.92708   4.12780  -5.74478
  32.16708   4.12780  -5.50478
  32.16708   3.88780  -5.02478
  32.16708   3.88780  -4.78478
  32.16708   3.88780  -4.55478
  32.16708   3.88780  -4.31478
  32.16708   3.64780  -3.83478
  32.16708   3.64780  -3.59478
  32.16708   3.64780  -3.11478
  32.16708   3.40780  -2.87478
  31.92708   3.40780  -2.63478
  31.92708   3.40780  -2.39478
  31.92708   3.16780  -1.91478
  31.68708   2.92780  -1.67478
  31.68708   2.92780  -1.43478
  31.68708   2.68780  -1.19478
  31.44708   2.45780  -0.95478
  31.44708   2.21780  -0.71478
  31.20708   1.97780  -0.23478
  30.96708   1.73780   0.00522
  30.96708   1.49780   0.24522
  30.72708   1.25780   0.71522
  30.48708   1.25780   0.95522
  30.24708   1.01780   1.19522
  30.00708   0.77780   1.43522
  29.76708   0.77780   1.67522
  29.52708   0.77780   1.91522
  29.29708   0.77780   2.39522
  29.05708   0.77780   2.63522
  28.81708   1.01780   2.87522
  28.33708   1.01780   3.11522
  28.09708   1.01780   3.35522
  27.85708   1.25780   3.59522
  27.37708   1.25780   3.83522
  27.13708   1.25780   4.31522
  26.65708   1.25780   4.55522
  26.41708   1.25780   4.55522
  26.17708   1.25780   5.03522
  25.69708   1.25780   5.03522
  25.45708   1.01780   5.26522
  24.97708   1.01780   5.74522
  24.73708   0.77780   5.74522
  24.26708   0.53780   5.98522
  24.02708   0.53780   6.22522
  23.54708   0.29780   6.46522
  23.30708   0.29780   6.70522
  22.82708   0.29780   6.70522
  22.58708   0.05780   7.18522
  22.10708   0.05780   7.42522
  21.86708   0.05780   7.42522
  21.38708   0.05780   7.66522
  21.14708   0.05780   7.90522
  20.66708   0.05780   8.14522
  20.42708   0.29780   8.14522
  19.94708   0.29780   8.38522
  19.71708   0.29780   8.38522
  19.47708   0.29780   8.38522
  19.23708   0.29780   8.38522
  18.75708   0.29780   8.38522
  18.51708   0.29780   8.38522
  18.27708   0.29780   8.62522
  18.03708   0.29780   8.62522
  17.79708   0.05780   8.86522
  17.55708   0.05780   8.86522
  17.31708   0.05780   8.86522
  16.83708  -0.18220   8.86522
  16.59708  -0.18220   8.86522
  16.59708  -0.18220   9.10522
  16.35708  -0.18220   9.10522
  16.11708   0.05780   9.34522
  15.63708   0.05780   9.34522
  15.63708   0.05780   9.34522
  15.39708   0.05780   9.58522
  15.15708   0.05780   9.58522
  14.68708   0.05780   9.58522
  14.68708   0.29780   9.58522
  14.44708   0.29780   9.58522
  14.20708   0.29780   9.58522
  13.96708   0.05780   9.82522
  13.96708   0.05780  10.05522
  13.72708  -0.18220  10.05522
  13.72708  -0.18220  10.29522
  13.48708  -0.42220  10.53522
  13.24708  -0.42220  10.53522
  13.00708  -0.66220  10.77522
  12.76708  -0.66220  11.01522
  12.52708  -0.66220  11.01522
  12.52708  -0.90220  11.01522
  12.52708  -1.14220  10.77522
  12.28708  -1.38220  11.01522
  12.28708  -1.62220  11.25522
  12.04708  -2.10220  11.73522
  12.04708  -2.34220  11.97522
  11.80708  -2.57220  12.45522
  11.56708  -2.57220  12.93522
  11.56708  -2.81220  13.17522
  11.56708  -2.81220  13.41522
  11.32708  -2.81220  13.41522
  11.32708  -3.05220  13.65522
  11.08708  -3.05220  13.65522
  10.84708  -3.05220  13.89522
  10.84708  -3.05220  13.89522
  10.60708  -3.29220  13.89522
  10.36708  -3.29220  14.13522
  10.36708  -3.53220  14.13522
  10.13708  -3.53220  14.61522
   9.89708  -3.77220  14.61522
   9.89708  -3.77220  15.08522
   9.65708  -3.77220  15.08522
   9.41708  -3.77220  15.32522
   9.17708  -3.77220  15.32522
   8.93708  -3.77220  15.32522
   8.69708  -3.77220  15.56522
   8.45708  -3.53220  15.80522
   8.21708  -3.53220  15.80522
   7.97708  -3.53220  16.04522
   7.49708  -3.53220  16.04522
   7.25708  -3.53220  16.28522
   7.01708  -3.53220  16.52522
   6.53708  -3.53220  16.52522
   6.29708  -3.53220  16.76522
   5.81708  -3.53220  16.76522
   5.57708  -3.53220  16.76522
   5.10708  -3.53220  17.00522
   4.86708  -3.53220  17.00522
   4.38708  -3.29220  17.24522
   3.90708  -3.29220  17.24522
   3.42708  -3.05220  17.24522
   3.18708  -3.05220  17.24522
   2.70708  -2.81220  17.48522
   2.22708  -2.57220  17.72522
   1.50708  -2.34220  17.72522
   1.02708  -2.10220  17.96522
   0.31708  -1.86220  17.96522
  -0.16292  -1.62220  18.20522
  -0.64292  -1.38220  18.20522
  -1.36292  -1.38220  18.20522
  -1.84292  -1.14220  18.44522
  -2.32292  -0.90220  18.68522
  -2.80292  -0.90220  18.92522
  -3.28292  -0.66220  19.16522
  -3.76292  -0.66220  19.16522
  -4.24292  -0.66220  19.40522
  -4.71292  -0.42220  19.63522
  -4.95292  -0.42220  19.87522
  -5.43292  -0.18220  20.11522
  -5.91292  -0.18220  20.35522
  -6.39292   0.05780  20.59522
  -6.87292   0.05780  20.59522
  -7.35292   0.29780  21.07522
  -7.83292   0.53780  21.07522
  -8.31292   0.77780  21.31522
  -8.79292   0.77780  21.55522
  -9.26292   1.01780  21.55522
  -9.74292   1.25780  21.79522
  -9.98292   1.25780  22.03522
 -10.46292   1.49780  22.03522
 -10.70292   1.49780  22.27522
 -10.94292   1.49780  22.27522
 -11.18292   1.73780  22.51522
 -11.42292   1.73780  22.51522
 -11.90292   1.73780  22.51522
 -12.14292   1.73780  22.75522
 -12.38292   1.73780  22.99522
 -12.86292   1.49780  23.23522
 -13.10292   1.49780  23.47522
 -13.58292   1.49780  23.47522
 -13.82292   1.25780  23.47522
 -13.82292   1.25780  23.23522
 -14.05292   1.01780  23.23522
 -14.53292   0.77780  23.23522
 -14.77292   0.77780  23.47522
 -15.01292   0.53780  23.47522
 -15.25292   0.53780  23.47522
 -15.49292   0.53780  23.47522
 -15.73292   0.29780  23.47522
 -15.97292   0.29780  23.47522
 -16.45292   0.29780  23.71522
 -16.69292   0.29780  23.71522
 -17.17292   0.29780  23.47522
 -17.41292   0.29780  23.23522
 -17.65292   0.29780  23.23522
 -18.13292   0.29780  23.23522
 -18.37292   0.29780  22.99522
 -18.61292   0.29780  22.99522
 -19.08292   0.29780  22.75522
 -19.32292   0.29780  22.75522
 -19.80292   0.29780  22.51522
 -20.04292   0.29780  22.27522
 -20.28292   0.29780  22.27522
 -20.76292   0.05780  21.79522
 -21.24292  -0.18220  21.79522
 -21.72292  -0.18220  21.55522
 -21.96292  -0.18220  21.31522
 -22.44292  -0.42220  21.07522
 -22.92292  -0.42220  20.83522
 -23.40292  -0.66220  20.59522
 -23.87292  -0.66220  20.11522
 -24.11292  -0.90220  19.87522
 -24.59292  -0.90220  19.63522
 -25.07292  -0.90220  19.16522
 -25.55292  -0.90220  18.92522
 -25.79292  -1.14220  18.68522
 -26.27292  -0.90220  18.20522
 -26.75292  -0.90220  17.96522
 -27.23292  -0.90220  17.48522
 -27.47292  -0.90220  17.24522
 -27.95292  -0.90220  16.76522
 -28.42292  -1.14220  16.52522
 -28.90292  -0.90220  16.04522
 -29.38292  -0.90220  15.56522
 -29.62292  -0.90220  15.32522
 -30.10292  -0.90220  14.84522
 -30.34292  -0.66220  14.61522
 -30.82292  -0.66220  14.13522
 -31.30292  -0.66220  13.89522
 -31.78292  -0.66220  13.41522
 -32.02292  -0.66220  12.93522
 -32.26292  -0.66220  12.69522
 -32.50292  -0.66220  12.21522
 -32.98292  -0.66220  11.97522
 -33.21292  -0.66220  11.49522
 -33.45292  -0.66220  11.25522
 -33.93292  -0.66220  10.77522
 -34.17292  -0.90220  10.53522
 -34.65292  -0.90220  10.05522
 -34.89292  -1.14220   9.58522
 -35.37292  -1.14220   9.34522
 -35.61292  -1.38220   8.86522
 -35.85292  -1.38220   8.38522
 -36.09292  -1.62220   8.14522
 -36.33292  -1.62220   7.66522
 -36.81292  -1.62220   7.18522
 -36.81292  -1.86220   6.70522
 -37.29292  -1.86220   6.46522
 -37.53292  -2.10220   5.98522
 -37.77292  -2.10220   5.74522
 -38.00292  -2.10220   5.26522
 -38.24292  -2.34220   4.79522
 -38.48292  -2.34220   4.55522
 -38.48292  -2.57220   4.07522
 -38.72292  -2.57220   3.59522
 -38.72292  -2.81220   3.35522
 -38.72292  -2.81220   2.87522
 -38.96292  -2.81220   2.63522
 -39.20292  -3.05220   2.15522
 -38.96292  -3.05220   1.91522
 -39.20292  -3.05220   1.43522
 -39.20292  -3.29220   1.43522
 -39.20292  -3.29220   0.95522
 -39.20292  -3.29220   0.71522
 -39.20292  -3.29220   0.47522
 -39.44292  -3.53220   0.24522
 -39.44292  -3.53220   0.00522
 -39.44292  -3.53220  -0.23478
 -39.20292  -3.77220  -0.47478
 -39.20292  -3.77220  -0.71478
 -39.20292  -4.01220  -0.95478
 -38.96292  -4.01220  -1.19478
 -38.96292  -4.01220  -1.19478
 -38.96292  -4.25220  -1.43478
 -38.96292  -4.25220  -1.67478
 -38.96292  -4.49220  -1.67478
 -38.96292  -4.49220  -1.91478
 -38.96292  -4.49220  -1.91478
 -38.72292  -4.49220  -2.15478
 -38.72292  -4.73220  -2.15478
 -38.72292  -4.73220  -2.39478
 -38.72292  -4.73220  -2.39478
 -38.72292  -4.73220  -2.39478
 -38.48292  -4.73220  -2.39478
 -38.48292  -4.73220  -2.63478
 -38.48292  -4.73220  -2.87478
 -38.48292  -4.49220  -2.87478
 -38.48292  -4.49220  -2.87478
 -38.48292  -4.49220  -2.87478
 -38.48292  -4.49220  -3.11478
 -38.24292  -4.49220  -3.11478
 -38.24292  -4.49220  -3.35478
 -38.24292  -4.49220  -3.35478
 -38.24292  -4.49220  -3.83478
 -38.00292  -4.49220  -3.83478
 -37.77292  -4.49220  -3.83478
 -37.77292  -4.49220  -3.83478
 -37.53292  -4.73220  -4.07478
 -37.53292  -4.49220  -4.07478
 -37.29292  -4.49220  -4.31478
 -37.29292  -4.49220  -4.55478
 -37.05292  -4.49220  -4.55478
 -36.81292  -4.25220  -4.78478
 -36.57292  -4.01220  -4.78478
 -36.33292  -4.01220  -4.78478
 -36.09292  -4.01220  -4.78478
 -35.85292  -3.77220  -5.02478
 -35.61292  -3.53220  -5.02478
 -35.37292  -3.53220  -5.02478
 -34.89292  -3.29220  -5.26478
 -34.65292  -3.29220  -5.50478
 -34.41292  -3.05220  -5.74478
 -33.93292  -3.05220  -5.74478
 -33.69292  -2.81220  -5.74478
 -33.21292  -2.81220  -5.74478
 -32.74292  -2.81220  -5.98478
 -32.26292  -2.81220  -5.98478
 -32.02292  -2.81220  -5.98478
 -31.54292  -2.81220  -5.98478
 -31.06292  -2.81220  -5.98478
 -30.58292  -2.57220  -6.22478
 -30.10292  -2.57220  -6.22478
 -29.86292  -2.57220  -6.22478
 -29.38292  -2.57220  -6.46478
 -29.14292  -2.57220  -6.46478
 -28.66292  -2.57220  -6.70478
 -28.19292  -2.34220  -6.70478
 -27.71292  -2.10220  -6.70478
 -27.47292  -2.10220  -6.70478
 -26.99292  -2.10220  -6.70478
 -26.51292  -1.86220  -6.94478
 -26.27292  -1.86220  -6.94478
 -25.79292  -1.62220  -6.94478
 -25.55292  -1.62220  -7.18478
 -25.07292  -1.62220  -7.18478
 -24.83292  -1.38220  -7.18478
 -24.35292  -1.38220  -7.42478
 -23.87292  -1.38220  -7.42478
 -23.63292  -1.62220  -7.42478
 -23.16292  -1.38220  -7.42478
 -22.68292  -1.38220  -7.42478
 -22.20292  -1.38220  -7.66478
 -21.72292  -1.38220  -7.66478
 -21.24292  -1.14220  -7.66478
 -20.76292  -1.14220  -7.66478
 -20.28292  -1.14220  -7.42478
 -19.56292  -0.90220  -7.66478
 -19.08292  -0.66220  -7.42478
 -18.61292  -0.66220  -7.42478
 -17.89292  -0.42220  -7.42478
 -17.41292  -0.42220  -7.18478
 -16.93292  -0.18220  -7.18478
 -16.21292  -0.18220  -7.18478
 -15.49292   0.05780  -7.18478
 -14.77292   0.05780  -6.94478
 -14.05292   0.05780  -6.94478
 -13.34292   0.05780  -6.70478
 -12.62292   0.05780  -6.70478
 -11.90292   0.05780  -6.46478
 -11.18292   0.05780  -6.46478
 -10.46292   0.05780  -6.22478
  -9.74292  -0.18220  -6.22478
  -9.03292  -0.18220  -5.98478
  -8.55292  -0.18220  -5.98478
  -7.59292  -0.18220  -5.74478
  -6.87292  -0.18220  -5.74478
  -6.39292  -0.18220  -5.50478
  -5.67292  -0.18220  -5.50478
  -4.95292  -0.18220  -5.50478
  -4.47292  -0.18220  -5.50478
  -3.76292  -0.18220  -5.26478
  -3.28292  -0.18220  -5.26478
  -2.80292  -0.18220  -5.26478
  -2.08292   0.05780  -5.26478
  -1.60292   0.29780  -5.26478
  -1.12292   0.29780  -5.02478
  -0.88292   0.29780  -5.26478
  -0.40292   0.53780  -5.02478
   0.07708   0.53780  -5.02478
   0.31708   0.77780  -5.26478
   0.78708   0.77780  -5.02478
   1.26708   1.01780  -5.26478
   1.50708   1.01780  -5.26478
   1.98708   1.25780  -5.26478
   2.22708   1.25780  -5.26478
   2.46708   1.49780  -5.26478
   2.70708   1.49780  -5.26478
   3.18708   1.73780  -5.50478
   3.42708   1.73780  -5.74478
   3.66708   1.73780  -5.50478
   3.90708   1.97780  -5.74478
   4.14708   1.97780  -5.74478
   4.38708   2.21780  -5.98478
   4.62708   2.45780  -5.98478
   5.10708   2.45780  -5.98478
   5.34708   2.68780  -6.22478
   5.57708   2.92780  -6.46478
   5.81708   3.16780  -6.46478
   5.81708   3.40780  -6.70478
   6.29708   3.40780  -6.94478
   6.29708   3.64780  -6.94478
   6.53708   3.64780  -7.18478
   7.01708   3.88780  -7.42478
   7.01708   3.88780  -7.66478
   7.49708   4.12780  -7.66478
   7.73708   4.12780  -7.90478
   7.97708   4.12780  -8.14478
   8.21708   4.12780  -8.14478
   8.69708   4.36780  -8.38478
   8.93708   4.36780  -8.62478
   9.41708   4.36780  -8.38478
   9.65708   4.36780  -8.62478
   9.89708   4.36780  -8.62478
  10.13708   4.36780  -8.62478
  10.36708   4.36780  -8.86478
