********************************************************************************
              CENTRO DE INSTRUMENTACION Y REGISTRO SISMICO  A.C.

    Anaxagoras 814, Col. Narvarte, Benito Juarez, C.P. 03020 Mexico, D.F.
           Tels. 5687 45 42/ 5687 45  82             Fax. 5669 25 12
********************************************************************************
ARCHIVO ESTANDAR DE ACELERACION:
VERSION DEL FORMATO                    : 2.0
NOMBRE DEL ARCHIVO                     : BA4920170818051511
FECHA Y HORA DE CREACION               : 01/NOV/17, 11:32
REF. CATALOGO ACELEROGRAMAS, SMIS 1996 : REGISTRO No.     /PAG.


================================================================================
DATOS DE LA ESTACION:
NOMBRE DE LA ESTACION                  : BUENOS AIRES
CLAVE DE LA ESTACION                   : BA49
LOCALIZACION DE LA ESTACION            : Del. Cuauhtémoc, Col. Doctores,        
                                       : Av. Lázaro Cárdenas esq. con           
                                       : Calle Dr. Márquez.                     
                                       :                                        
                                       : 
COORDENADAS DE LA ESTACION             : 19.4097 LAT. N
                                       : 99.1450 LONG. W
ALTITUD (msnm)                         : 2233
TIPO DE SUELO                          : Terreno blando, material compresible
                                       : (arcillas)                
                                       : 
INSTITUCION RESPONSABLE                : CIRES
                                       : 

================================================================================
DATOS DEL ACELEROGRAFO:
MODELO DEL ACELEROGRAFO                : RADESD
NUMERO DE SERIE DEL ACELEROGRAFO       : 176
NUMERO DE CANALES                      : 3
ORIENTACION C1-C6 (rumbo;orientacion)  : /S00E/+V/N90W
ORIENTACION C7-C12 (rumbo;orientacion) : 
VEL. DE MUESTREO, C1-C6 (muestras/s)   : /100/100/100
VEL. DE MUESTREO, C7-C12 (muestras/s)  : 
ESC. COMPLETA DE SENSORES, C1-C6, (g)  : /0.5/0.5/0.5
ESC. COMPLETA DE SENSORES, C7-C12, (g) : 
FREC. NAT. DE SENSORES, C1-C6, (Hz)    : /52.99/52.03/52.99
FREC. NAT. DE SENSORES, C7-C12, (Hz)   : 
AMORTIGUAMIENTO DE SENSORES, C1-C6     : /0.5589/0.5469/0.6096
AMORTIGUAMIENTO DE SENSORES, C7-C12    : 
INTERVALO DE MUESTREO, C1-C6, (s)      : /0.01/0.01/0.01
INTERVALO DE MUESTREO, C7-C12, (s)     : 
UMBRAL DE DISPARO, C1-C6, (Gal)        : /0.96/1.92/0.96
UMBRAL DE DISPARO, C7-C12, (Gal)       : 
MEMORIA DE PREEVENTO (s)               : 44.0
TIEMPO DE POSEVENTO (s)                : 0.0


================================================================================
DATOS DEL SISMO:
FECHA DEL SISMO (GMT)                  : 18/AGO/17
HORA EPICENTRO (GMT)                   : 05:15:11.0
MAGNITUD(ES)                           : /Mc=5.3
COORDENADAS DEL EPICENTRO              : 16.84 LAT. N
                                       : 100.49 LONG. W
PROFUNDIDAD FOCAL (km)                 : 4
FUENTE DE LOS DATOS EPICENTRALES       : SSN
                                       : INSTITUTO DE GEOFISICA, UNAM

================================================================================
DATOS DE ESTE REGISTRO:
HORA DE LA PRIMERA MUESTRA (GMT)       : 05:16:46.00
EXACTITUD DEL TIEMPO (s)               : 0.01
DURACION DEL REGISTRO (s), C1-C6       : /176.0/176.0/176.0
DURACION DEL REGISTRO (s), C7-C12      : 
NUM. TOTAL DE MUESTRAS, C1-C6          : /17600/17600/17600
NUM. TOTAL DE MUESTRAS, C7-C12         : 
ACEL. MAX. (Gal), C1-C6                : /1.54204/0.87703/1.78123
ACEL. MAX., C1-C6, EN LA MUESTRA       : /4658/5110/6752
ACEL. MAX. (Gal), C7-C12               : 
ACEL. MAX., C7-C12, EN LA MUESTRA      : 
UNIDADES DE LOS DATOS                  : Gal (cm/s/s)
FACTOR DE DECIMACION                   : 1
FORMATO DATOS (FORTRAN,10 campos/dato) : 3F10.5


================================================================================
CALIDAD DEL ACELEROGRAMA:
REGISTRO DIGITAL COMPLETO CON TIEMPO ABSOLUTO CORRECTO.


================================================================================
COMENTARIOS:














================================================================================
DATOS DE ACELERACION:
---------+---------+---------+---------+---------+---------+---------+---------+
   CANAL-1   CANAL-2   CANAL-3   CANAL-4   CANAL-5   CANAL-6   CANAL-7   CANAL-8
      S00E        +V      N90W
---------+---------+---------+---------+---------+---------+---------+---------+
[...]
   0.95691   0.33503  -0.21003
   1.00180   0.34999  -0.19507
   0.98684   0.39489  -0.25493
   0.95691   0.39489  -0.25493
   0.95691   0.36496  -0.16514
   1.06166   0.36496  -0.10529
   1.07662   0.32007  -0.09032
   1.01677   0.34999  -0.07536
   1.01677   0.34999  -0.09032
   1.04669   0.30510  -0.07536
   1.03173   0.36496  -0.09032
   0.95691   0.40985  -0.12025
   0.94195   0.37992  -0.12025
   0.91202   0.30510  -0.13522
   0.91202   0.30510  -0.13522
   0.86713   0.32007  -0.12025
   0.86713   0.42481  -0.10529
   0.89706   0.36496  -0.09032
   0.82224   0.36496  -0.16514
   0.80727   0.29014  -0.12025
   0.80727   0.30510  -0.18011
   0.70253   0.37992  -0.23996
   0.68756   0.32007  -0.18011
   0.70253   0.34999  -0.13522
   0.70253   0.27518   0.01442
   0.68756   0.37992  -5.4E-40
   0.62771   0.30510   0.04435
   0.61275   0.29014  -0.01551
   0.59778   0.23028   0.05931
   0.50800   0.29014  -0.01551
   0.49304   0.23028   0.07428
   0.41822   0.18539   0.13413
   0.43318   0.15547   0.22391
   0.38829   0.15547   0.25384
   0.34340   0.08065   0.35859
   0.26858   0.12554   0.32866
   0.31347   0.08065   0.41844
   0.26858   0.05072   0.49326
   0.23865   0.03576   0.55312
   0.13391  -0.08395   0.58305
   0.13391  -0.08395   0.61297
   0.05909  -0.08395   0.61297
  -0.03070  -0.20366   0.68779
  -0.03070  -0.14381   0.74765
  -0.10551  -0.29345   0.76261
  -0.12048  -0.24856   0.85239
  -0.18033  -0.27848   0.88232
  -0.27012  -0.36827   0.91225
  -0.27012  -0.27848   0.92721
  -0.35990  -0.38323   0.97210
  -0.35990  -0.32337   0.98707
  -0.41975  -0.29345   1.03196
  -0.49457  -0.36827   1.06189
  -0.55443  -0.36827   1.09181
  -0.53946  -0.30841   1.12174
  -0.62925  -0.30841   1.12174
  -0.65917  -0.32337   1.18160
  -0.74896  -0.24856   1.18160
  -0.71903  -0.27848   1.25641
  -0.82378  -0.24856   1.22649
  -0.80881  -0.15877   1.25641
  -0.80881  -0.18870   1.30131
  -0.91356  -0.11388   1.31627
  -0.91356  -0.17374   1.31627
  -0.95845  -0.09892   1.31627
  -0.94349  -0.06899   1.31627
  -0.97341  -0.05403   1.33123
  -1.01830  -0.15877   1.34620
  -0.98838  -0.11388   1.33123
  -1.03327  -0.12885   1.36116
  -0.98838  -0.05403   1.30131
  -0.95845  -0.03906   1.31627
  -0.91356  -0.05403   1.34620
  -0.92852  -0.05403   1.28634
  -0.92852  -0.03906   1.25641
  -0.89859  -0.00914   1.21152
  -0.89859  -0.02410   1.16663
  -0.82378  -0.00914   1.19656
  -0.80881  -0.05403   1.12174
  -0.79385  -0.05403   1.07685
  -0.71903  -0.09892   1.04692
  -0.71903  -0.06899   0.98707
  -0.65917  -0.11388   1.03196
  -0.59932  -0.08395   0.95714
  -0.58436  -0.11388   0.86736
  -0.50954  -0.12885   0.91225
  -0.50954  -0.15877   0.82247
  -0.41975  -0.08395   0.82247
  -0.40479  -0.17374   0.76261
  -0.32997  -0.15877   0.76261
  -0.28508  -0.14381   0.68779
  -0.21026  -0.23359   0.67283
  -0.16537  -0.15877   0.56808
  -0.19530  -0.26352   0.56808
  -0.15041  -0.20366   0.53815
  -0.09055  -0.23359   0.47830
  -0.10551  -0.21863   0.41844
  -0.03070  -0.18870   0.35859
  -0.03070  -0.23359   0.29873
  -7.7E-40  -0.21863   0.20895
  -0.03070  -0.18870   0.17902
   0.02916  -0.20366   0.14910
   0.04412  -0.14381   0.11917
   0.04412  -0.17374   0.05931
   0.04412  -0.15877   0.04435
   0.04412  -0.14381  -0.07536
   0.05909  -0.15877  -0.04543
   0.05909  -0.12885  -0.10529
   0.07405  -0.08395  -0.18011
   0.02916  -0.06899  -0.25493
   0.07405  -0.08395  -0.26989
   0.08901  -0.06899  -0.32974
   0.05909  -0.06899  -0.34471
   0.05909  -0.05403  -0.35967
   0.02916  -0.03906  -0.43449
   0.02916  -0.02410  -0.44945
   0.01420  -0.02410  -0.43449
   0.01420  -0.02410  -0.43449
   0.01420  -0.00914  -0.49435
  -7.7E-40   0.03576  -0.50931
  -0.04566   0.05072  -0.52427
  -0.04566   0.05072  -0.55420
  -0.13544   0.05072  -0.56916
  -0.12048   0.02079  -0.56916
  -0.12048   0.08065  -0.59909
  -0.18033   0.11057  -0.65895
  -0.13544   0.11057  -0.64398
  -0.19530   0.11057  -0.67391
  -0.18033   0.11057  -0.68887
  -0.21026   0.08065  -0.70384
  -0.19530   0.05072  -0.70384
  -0.21026   0.09561  -0.76369
  -0.22522   0.11057  -0.80858
  -0.19530   0.14050  -0.80858
  -0.25515   0.06568  -0.85348
  -0.21026   0.11057  -0.83851
  -0.22522   0.09561  -0.86844
  -0.24019   0.12554  -0.89837
  -0.25515   0.12554  -0.91333
  -0.28508   0.12554  -0.91333
  -0.27012   0.09561  -0.97319
  -0.27012   0.12554  -0.95822
  -0.28508   0.08065  -0.98815
  -0.25515   0.09561  -0.98815
  -0.28508   0.08065  -1.00311
  -0.24019   0.03576  -0.97319
  -0.25515   0.03576  -1.00311
  -0.19530   0.03576  -1.01808
  -0.25515   0.06568  -1.01808
  -0.21026   0.02079  -0.98815
  -0.15041   0.00583  -0.98815
  -0.13544  -0.03906  -1.00311
  -0.12048   0.03576  -0.97319
  -0.10551   0.02079  -1.09290
  -0.04566   0.06568  -1.03304
   0.01420  -0.02410  -0.97319
  -0.04566  -0.03906  -1.06297
  -0.01573  -0.00914  -1.16771
   0.08901  -0.02410  -1.06297
   0.10398  -0.00914  -1.09290
   0.11894  -0.02410  -1.10786
   0.16383   0.00583  -1.18268
   0.20872  -0.00914  -1.12282
   0.26858   0.05072  -1.12282
   0.25362   0.03576  -1.19764
   0.29851   0.05072  -1.25750
   0.31347   0.11057  -1.24253
   0.41822   0.11057  -1.19764
   0.38829   0.12554  -1.24253
   0.38829   0.11057  -1.24253
   0.40325   0.11057  -1.21261
   0.46311   0.14050  -1.19764
   0.47807   0.14050  -1.28742
   0.52296   0.09561  -1.22757
   0.56785   0.17043  -1.13779
   0.55289   0.18539  -1.28742
   0.53793   0.14050  -1.19764
   0.61275   0.12554  -1.15275
   0.62771   0.14050  -1.01808
   0.64267   0.15547  -1.04800
   0.64267   0.08065  -1.01808
   0.65764   0.18539  -1.01808
   0.71749   0.11057  -0.95822
   0.68756   0.06568  -0.89837
   0.73246   0.03576  -0.89837
   0.73246   0.14050  -0.85348
   0.80727   0.14050  -0.83851
   0.80727   0.08065  -0.82355
   0.76238   0.09561  -0.85348
   0.86713   0.11057  -0.76369
   0.91202   0.18539  -0.71880
   0.89706   0.09561  -0.74873
   0.89706   0.08065  -0.73377
   0.91202   0.06568  -0.67391
   0.95691   0.06568  -0.65895
   0.97188   0.11057  -0.74873
   0.94195   0.08065  -0.65895
   0.89706   0.08065  -0.71880
   0.92698   0.06568  -0.64398
   0.98684   0.09561  -0.52427
   0.92698   0.05072  -0.50931
   0.92698   0.08065  -0.47938
   0.94195   0.08065  -0.50931
   0.89706   0.06568  -0.43449
   0.89706   0.05072  -0.32974
   0.88209   0.15547  -0.23996
   0.86713   0.09561  -0.23996
   0.83720   0.02079  -0.19507
   0.77735   0.09561  -0.12025
   0.74742   0.12554  -0.06040
   0.74742   0.05072  -0.03047
   0.67260   0.08065  -0.01551
   0.59778   0.11057  -0.03047
   0.56785   0.09561   0.07428
   0.49304   0.11057   0.10420
   0.44814   0.11057   0.10420
   0.34340   0.14050   0.13413
   0.40325   0.14050   0.29873
   0.35836   0.15547   0.35859
   0.28354   0.09561   0.32866
   0.23865   0.11057   0.37355
   0.22369   0.18539   0.44837
   0.11894   0.14050   0.47830
   0.02916   0.14050   0.46333
  -7.7E-40   0.18539   0.53815
  -0.01573   0.17043   0.61297
  -0.06062   0.20036   0.62794
  -0.12048   0.14050   0.58305
  -0.12048   0.17043   0.68779
  -0.15041   0.17043   0.74765
  -0.21026   0.12554   0.73268
  -0.24019   0.03576   0.74765
  -0.27012   0.02079   0.74765
  -0.34494   0.00583   0.79254
  -0.38983   0.03576   0.83743
  -0.35990  -0.05403   0.95714
  -0.34494  -0.05403   0.98707
  -0.40479  -0.03906   1.00203
  -0.41975  -0.12885   1.04692
  -0.43472  -0.12885   1.04692
  -0.44968  -0.11388   1.12174
  -0.43472  -0.12885   1.15167
  -0.47961  -0.12885   1.24145
  -0.50954  -0.15877   1.18160
  -0.47961  -0.20366   1.27138
  -0.50954  -0.24856   1.27138
  -0.50954  -0.15877   1.34620
  -0.53946  -0.26352   1.31627
  -0.52450  -0.17374   1.34620
  -0.47961  -0.27848   1.34620
  -0.49457  -0.21863   1.37612
  -0.49457  -0.29345   1.37612
  -0.52450  -0.21863   1.36116
  -0.50954  -0.21863   1.40605
  -0.44968  -0.14381   1.36116
  -0.50954  -0.21863   1.40605
  -0.49457  -0.17374   1.37612
  -0.49457  -0.15877   1.37612
  -0.47961  -0.12885   1.37612
  -0.43472  -0.18870   1.42102
  -0.44968  -0.09892   1.37612
  -0.40479  -0.09892   1.37612
  -0.46465  -0.11388   1.36116
  -0.38983  -0.20366   1.43598
  -0.41975  -0.11388   1.42102
  -0.41975  -0.14381   1.34620
  -0.38983  -0.12885   1.37612
  -0.43472  -0.14381   1.34620
  -0.41975  -0.11388   1.31627
  -0.44968  -0.09892   1.30131
  -0.44968  -0.05403   1.30131
  -0.44968  -0.06899   1.22649
  -0.47961  -0.09892   1.25641
  -0.46465  -0.08395   1.22649
  -0.52450  -0.08395   1.22649
  -0.50954  -0.02410   1.19656
  -0.52450  -0.03906   1.15167
  -0.55443  -0.02410   1.04692
  -0.49457  -0.00914   1.13670
  -0.52450   0.00583   0.98707
  -0.52450   0.00583   1.09181
  -0.52450   0.02079   0.94218
  -0.52450   0.03576   1.03196
  -0.56939   0.05072   0.92721
  -0.52450  -0.00914   0.98707
  -0.55443  -0.08395   0.92721
  -0.46465  -0.02410   0.95714
  -0.55443  -0.05403   0.89728
  -0.52450  -0.02410   0.88232
  -0.55443  -0.12885   0.85239
  -0.55443  -0.06899   0.88232
  -0.55443  -0.14381   0.86736
  -0.52450  -0.11388   0.83743
  -0.50954  -0.15877   0.85239
  -0.53946  -0.12885   0.82247
  -0.56939  -0.14381   0.80750
  -0.52450  -0.18870   0.79254
  -0.56939  -0.21863   0.76261
  -0.53946  -0.17374   0.79254
  -0.50954  -0.21863   0.73268
  -0.50954  -0.23359   0.70276
  -0.53946  -0.26352   0.71772
  -0.50954  -0.20366   0.68779
  -0.47961  -0.20366   0.67283
  -0.50954  -0.27848   0.58305
  -0.49457  -0.26352   0.55312
  -0.46465  -0.23359   0.50823
  -0.38983  -0.21863   0.43341
  -0.41975  -0.24856   0.41844
  -0.41975  -0.20366   0.29873
  -0.38983  -0.21863   0.29873
  -0.24019  -0.24856   0.16406
  -0.28508  -0.23359   0.10420
  -0.30004  -0.24856   0.07428
  -0.21026  -0.14381  -0.03047
  -0.13544  -0.11388  -0.10529
  -0.10551  -0.18870  -0.15018
  -0.13544  -0.14381  -0.19507
  -0.12048  -0.06899  -0.31478
  -7.7E-40  -0.06899  -0.31478
  -0.01573  -0.02410  -0.44945
   0.02916  -0.05403  -0.49435
   0.05909  -0.02410  -0.55420
   0.08901  -0.02410  -0.64398
   0.11894   0.02079  -0.71880
   0.16383   0.06568  -0.80858
   0.19376   0.02079  -0.82355
   0.25362   0.08065  -0.88340
   0.20872   0.08065  -0.97319
   0.29851   0.09561  -1.01808
   0.26858   0.11057  -1.07793
   0.31347   0.15547  -1.10786
   0.28354   0.14050  -1.16771
   0.35836   0.12554  -1.22757
   0.32843   0.20036  -1.31735
   0.34340   0.15547  -1.31735
   0.32843   0.24525  -1.43706
   0.35836   0.29014  -1.48195
   0.35836   0.26021  -1.51188
   0.35836   0.24525  -1.57174
   0.35836   0.17043  -1.61663
   0.38829   0.29014  -1.66152
   0.43318   0.20036  -1.61663
   0.43318   0.17043  -1.70641
   0.41822   0.18539  -1.72137
   0.41822   0.20036  -1.72137
   0.44814   0.21532  -1.78123
   0.47807   0.12554  -1.75130
   0.49304   0.15547  -1.75130
   0.49304   0.08065  -1.73634
   0.47807   0.09561  -1.70641
   0.47807   0.15547  -1.70641
   0.47807   0.08065  -1.67648
   0.49304   0.02079  -1.67648
   0.59778   0.00583  -1.57174
   0.56785  -0.02410  -1.57174
   0.56785   0.06568  -1.58670
   0.55289   0.02079  -1.55677
   0.58282   0.05072  -1.48195
   0.53793   0.05072  -1.46699
   0.44814   0.09561  -1.46699
   0.47807   0.06568  -1.46699
   0.52296   0.08065  -1.33232
   0.52296   0.02079  -1.30239
   0.50800   0.06568  -1.30239
   0.46311   0.08065  -1.24253
   0.43318   0.14050  -1.24253
   0.43318   0.11057  -1.18268
   0.44814   0.12554  -1.10786
   0.46311   0.14050  -1.07793
   0.41822   0.14050  -1.12282
   0.38829   0.23028  -1.00311
   0.40325   0.17043  -0.95822
   0.28354   0.21532  -1.10786
   0.29851   0.20036  -1.10786
   0.34340   0.17043  -1.01808
   0.29851   0.18539  -0.98815
   0.25362   0.17043  -0.91333
   0.26858   0.24525  -0.89837
   0.26858   0.18539  -0.82355
   0.16383   0.12554  -0.85348
   0.22369   0.23028  -0.83851
   0.19376   0.14050  -0.74873
   0.22369   0.17043  -0.76369
   0.19376   0.15547  -0.71880
   0.19376   0.12554  -0.65895
   0.17880   0.09561  -0.65895
   0.08901   0.14050  -0.65895
   0.04412   0.12554  -0.71880
   0.04412   0.06568  -0.59909
   0.10398   0.15547  -0.59909
   0.10398   0.12554  -0.55420
   0.04412   0.11057  -0.46442
   0.04412   0.09561  -0.37464
   0.01420   0.11057  -0.37464
  -7.7E-40   0.14050  -0.40456
  -0.04566   0.15547  -0.32974
  -0.13544   0.14050  -0.35967
  -0.09055   0.11057  -0.26989
  -0.12048   0.11057  -0.13522
  -0.19530   0.18539  -0.06040
  -0.21026   0.15547  -0.07536
  -0.21026   0.09561  -0.04543
  -0.31501   0.14050  -0.07536
  -0.24019   0.08065   0.04435
  -0.28508   0.08065   0.10420
  -0.35990   0.09561   0.08924
  -0.40479   0.11057   0.13413
  -0.34494   0.06568   0.22391
  -0.38983   0.00583   0.19399
  -0.40479   0.05072   0.23888
  -0.38983   0.05072   0.31370
  -0.40479   0.00583   0.29873
  -0.40479   0.00583   0.34362
  -0.31501  -0.05403   0.46333
  -0.32997  -0.03906   0.46333
  -0.34494  -0.02410   0.43341
  -0.37486  -0.03906   0.37355
  -0.37486  -0.03906   0.40348
  -0.27012  -0.05403   0.53815
  -0.31501  -0.08395   0.49326
  -0.32997  -0.15877   0.52319
  -0.19530  -0.12885   0.58305
  -0.22522  -0.20366   0.56808
  -0.21026  -0.20366   0.53815
  -0.19530  -0.20366   0.59801
  -0.18033  -0.21863   0.62794
  -0.15041  -0.23359   0.61297
  -0.19530  -0.23359   0.59801
  -0.10551  -0.20366   0.71772
  -0.06062  -0.30841   0.68779
  -0.04566  -0.27848   0.68779
  -0.06062  -0.32337   0.70276
  -0.01573  -0.30841   0.76261
  -0.01573  -0.27848   0.76261
   0.02916  -0.30841   0.74765
  -7.7E-40  -0.24856   0.71772
   0.07405  -0.24856   0.82247
   0.10398  -0.24856   0.80750
   0.13391  -0.29345   0.74765
   0.17880  -0.33834   0.79254
   0.17880  -0.26352   0.77757
   0.22369  -0.26352   0.88232
   0.23865  -0.27848   0.88232
   0.23865  -0.27848   0.88232
   0.25362  -0.35330   0.85239
   0.29851  -0.18870   0.86736
   0.26858  -0.26352   0.88232
   0.29851  -0.15877   0.88232
   0.25362  -0.24856   0.86736
   0.35836  -0.20366   0.88232
   0.28354  -0.17374   0.85239
   0.29851  -0.14381   0.86736
   0.28354  -0.14381   0.85239
   0.32843  -0.15877   0.88232
   0.28354  -0.08395   0.86736
   0.28354  -0.12885   0.86736
   0.25362  -0.11388   0.88232
   0.19376  -0.02410   0.89728
   0.23865   0.00583   0.88232
   0.19376  -0.02410   0.85239
   0.22369   0.03576   0.86736
   0.19376  -0.09892   0.86736
   0.11894   0.03576   0.80750
   0.10398   0.08065   0.82247
   0.13391   0.03576   0.82247
   0.10398   0.12554   0.85239
   0.07405   0.08065   0.89728
   0.05909   0.15547   0.88232
   0.07405   0.15547   0.82247
   0.02916   0.14050   0.80750
   0.04412   0.20036   0.79254
  -7.7E-40   0.20036   0.82247
  -0.01573   0.21532   0.82247
   0.01420   0.20036   0.77757
   0.01420   0.21532   0.77757
   0.02916   0.29014   0.76261
  -7.7E-40   0.21532   0.74765
  -0.01573   0.24525   0.73268
  -7.7E-40   0.17043   0.70276
  -0.03070   0.18539   0.76261
  -0.01573   0.23028   0.65786
  -0.01573   0.20036   0.64290
   0.01420   0.21532   0.65786
  -7.7E-40   0.21532   0.56808
  -0.03070   0.18539   0.56808
   0.01420   0.18539   0.52319
  -7.7E-40   0.15547   0.59801
   0.05909   0.09561   0.58305
   0.02916   0.12554   0.55312
   0.10398   0.12554   0.55312
   0.05909   0.08065   0.52319
   0.05909   0.09561   0.53815
   0.05909   0.06568   0.50823
   0.05909   0.08065   0.47830
   0.05909   0.05072   0.44837
