********************************************************************************
              CENTRO DE INSTRUMENTACION Y REGISTRO SISMICO  A.C.

    Anaxagoras 814, Col. Narvarte, Benito Juarez, C.P. 03020 Mexico, D.F.
           Tels. 5687 45 42/ 5687 45  82             Fax. 5669 25 12
********************************************************************************
ARCHIVO ESTANDAR DE ACELERACION:
VERSION DEL FORMATO                    : 2.0
NOMBRE DEL ARCHIVO                     : BA4920130405015848
FECHA Y HORA DE CREACION               : 14/MAY/13, 11:10
REF. CATALOGO ACELEROGRAMAS, SMIS 1996 : REGISTRO No.     /PAG.


================================================================================
DATOS DE LA ESTACION:
NOMBRE DE LA ESTACION                  : BUENOS AIRES
CLAVE DE LA ESTACION                   : BA49
LOCALIZACION DE LA ESTACION            : Del. Cuauhtémoc, Col. Doctores,        
                                       : Av. Lázaro Cárdenas esq. con           
                                       : Calle Dr. Márquez.                     
                                       :                                        
                                       : 
COORDENADAS DE LA ESTACION             : 19.4097 LAT. N
                                       : 99.1450 LONG. W
ALTITUD (msnm)                         : 2233
TIPO DE SUELO                          : Terreno blando, material compresible
                                       : (arcillas)                
                                       : 
INSTITUCION RESPONSABLE                : CIRES
                                       : 

================================================================================
DATOS DEL ACELEROGRAFO:
MODELO DEL ACELEROGRAFO                : RADESD
NUMERO DE SERIE DEL ACELEROGRAFO       : 176
NUMERO DE CANALES                      : 3
ORIENTACION C1-C6 (rumbo;orientacion)  : /N00E/+V/N90W
ORIENTACION C7-C12 (rumbo;orientacion) : 
VEL. DE MUESTREO, C1-C6 (muestras/s)   : /100/100/100
VEL. DE MUESTREO, C7-C12 (muestras/s)  : 
ESC. COMPLETA DE SENSORES, C1-C6, (g)  : /0.5/0.5/0.5
ESC. COMPLETA DE SENSORES, C7-C12, (g) : 
FREC. NAT. DE SENSORES, C1-C6, (Hz)    : /52.99/52.03/52.99
FREC. NAT. DE SENSORES, C7-C12, (Hz)   : 
AMORTIGUAMIENTO DE SENSORES, C1-C6     : /0.5589/0.5469/0.6096
AMORTIGUAMIENTO DE SENSORES, C7-C12    : 
INTERVALO DE MUESTREO, C1-C6, (s)      : /0.01/0.01/0.01
INTERVALO DE MUESTREO, C7-C12, (s)     : 
UMBRAL DE DISPARO, C1-C6, (Gal)        : /15.32/30.65/15.32
UMBRAL DE DISPARO, C7-C12, (Gal)       : 
MEMORIA DE PREEVENTO (s)               : 56.0
TIEMPO DE POSEVENTO (s)                : 80.0


================================================================================
DATOS DEL SISMO:
FECHA DEL SISMO (GMT)                  : 05/ABR/13
HORA EPICENTRO (GMT)                   : 01:58:48.0
MAGNITUD(ES)                           : /Mc=5.3
COORDENADAS DEL EPICENTRO              : 17.08 LAT. N
                                       : 100.82 LONG. W
PROFUNDIDAD FOCAL (km)                 : 17
FUENTE DE LOS DATOS EPICENTRALES       : SSN
                                       : INSTITUTO DE GEOFISICA, UNAM

================================================================================
DATOS DE ESTE REGISTRO:
HORA DE LA PRIMERA MUESTRA (GMT)       : 01:59:50.00
EXACTITUD DEL TIEMPO (s)               : 0.01
DURACION DEL REGISTRO (s), C1-C6       : /226.2/226.2/226.2
DURACION DEL REGISTRO (s), C7-C12      : 
NUM. TOTAL DE MUESTRAS, C1-C6          : /22620/22620/22620
NUM. TOTAL DE MUESTRAS, C7-C12         : 
ACEL. MAX. (Gal), C1-C6                : /3.17367/1.08082/3.16327
ACEL. MAX., C1-C6, EN LA MUESTRA       : /9753/8498/7668
ACEL. MAX. (Gal), C7-C12               : 
ACEL. MAX., C7-C12, EN LA MUESTRA      : 
UNIDADES DE LOS DATOS                  : Gal (cm/s/s)
FACTOR DE DECIMACION                   : 1
FORMATO DATOS (FORTRAN,10 campos/dato) : 3F10.5


================================================================================
CALIDAD DEL ACELEROGRAMA:
REGISTRO DIGITAL COMPLETO CON TIEMPO ABSOLUTO CORRECTO.


================================================================================
COMENTARIOS:














================================================================================
DATOS DE ACELERACION:
---------+---------+---------+---------+---------+---------+---------+---------+
   CANAL-1   CANAL-2   CANAL-3   CANAL-4   CANAL-5   CANAL-6   CANAL-7   CANAL-8
      N00E        +V      N90W
---------+---------+---------+---------+---------+---------+---------+---------+
[...]
  -2.07861  -0.51220  -1.74172
  -2.10854  -0.48227  -1.71179
  -2.13847  -0.42242  -1.69682
  -2.13847  -0.36256  -1.71179
  -2.10854  -0.42242  -1.68186
  -2.13847  -0.51220  -1.63697
  -2.18336  -0.52717  -1.53222
  -2.21329  -0.43738  -1.45740
  -2.22825  -0.37753  -1.38259
  -2.22825  -0.30271  -1.39755
  -2.18336  -0.36256  -1.32273
  -2.19832  -0.39249  -1.26288
  -2.16840  -0.42242  -1.17309
  -2.18336  -0.42242  -1.08331
  -2.18336  -0.45235  -0.97856
  -2.19832  -0.42242  -0.90375
  -2.13847  -0.40746  -0.82893
  -2.12351  -0.42242  -0.75411
  -2.06365  -0.46731  -0.66433
  -2.04869  -0.49724  -0.58951
  -2.00380  -0.49724  -0.45483
  -1.98883  -0.43738  -0.36505
  -1.91401  -0.40746  -0.21541
  -1.86912  -0.39249  -0.12563
  -1.79430  -0.39249  -0.03585
  -1.70452  -0.37753   0.11379
  -1.65963  -0.37753   0.18861
  -1.52496  -0.31767   0.29336
  -1.45014  -0.22789   0.36817
  -1.36035  -0.19796   0.47292
  -1.25561  -0.16804   0.51781
  -1.13590  -0.18300   0.59263
  -0.98626  -0.15307   0.65249
  -0.88151  -0.16804   0.71234
  -0.74684  -0.15307   0.78716
  -0.67202  -0.09322   0.87694
  -0.56727  -0.09322   0.92183
  -0.44756  -0.03336   0.92183
  -0.31289   0.01153   0.95176
  -0.19318   0.10131   0.95176
  -0.10340   0.20606   0.96672
  -0.05851   0.20606   0.90687
  -0.01362   0.19109   0.93680
   0.09113   0.20606   0.93680
   0.21084   0.20606   0.96672
   0.30062   0.28088   0.96672
   0.40537   0.35570   0.98169
   0.48019   0.41555   0.98169
   0.49515   0.49037   0.95176
   0.56997   0.49037   0.93680
   0.61486   0.44548   0.93680
   0.65975   0.44548   0.92183
   0.71961   0.53526   0.89191
   0.76450   0.47541   0.95176
   0.80939   0.55023   0.90687
   0.83932   0.58015   0.95176
   0.91414   0.62504   0.90687
   0.91414   0.66994   0.92183
   0.94407   0.72979   0.95176
   1.00392   0.72979   0.90687
   1.04881   0.74475   0.90687
   1.06378   0.66994   0.90687
   1.06378   0.61008   0.81709
   1.07874   0.62504   0.86198
   1.07874   0.64001   0.86198
   1.07874   0.68490   0.80212
   1.12363   0.65497   0.78716
   1.09370   0.71483   0.78716
   1.07874   0.71483   0.71234
   1.06378   0.66994   0.65249
   0.98896   0.69986   0.66745
   0.92910   0.64001   0.57767
   0.85428   0.58015   0.51781
   0.80939   0.58015   0.50285
   0.73457   0.55023   0.48788
   0.70464   0.55023   0.51781
   0.65975   0.58015   0.45796
   0.55501   0.61008   0.36817
   0.42033   0.61008   0.30832
   0.36048   0.49037   0.21854
   0.28566   0.50533   0.14372
   0.24077   0.40059   0.12875
   0.21084   0.32577   0.05394
   0.09113   0.29584   0.02401
   0.04624   0.31080  -0.03585
   0.00135   0.26591  -0.14059
  -0.10340   0.17613  -0.17052
  -0.14829   0.13124  -0.23038
  -0.23807   0.14620  -0.29023
  -0.28296   0.01153  -0.29023
  -0.32785  -0.03336  -0.39498
  -0.37275  -0.07825  -0.42491
  -0.41764  -0.13811  -0.45483
  -0.44756  -0.16804  -0.57454
  -0.50742  -0.24285  -0.55958
  -0.52238  -0.37753  -0.54462
  -0.56727  -0.40746  -0.57454
  -0.58224  -0.49724  -0.55958
  -0.56727  -0.61695  -0.57454
  -0.58224  -0.64688  -0.57454
  -0.56727  -0.69177  -0.58951
  -0.55231  -0.72169  -0.55958
  -0.53735  -0.76659  -0.52965
  -0.49246  -0.91622  -0.46980
  -0.53735  -0.87133  -0.42491
  -0.44756  -0.87133  -0.38001
  -0.37275  -0.81148  -0.38001
  -0.34282  -0.81148  -0.29023
  -0.25304  -0.81148  -0.21541
  -0.13333  -0.84140  -0.18549
  -0.13333  -0.93119  -0.11067
  -0.11836  -0.85637  -0.03585
  -0.05851  -0.76659  -0.03585
   0.04624  -0.87133   0.05394
   0.19588  -0.91622   0.06890
   0.27070  -0.96111   0.20357
   0.34551  -0.84140   0.20357
   0.43530  -0.75162   0.30832
   0.52508  -0.69177   0.36817
   0.59990  -0.64688   0.44299
   0.65975  -0.58702   0.50285
   0.76450  -0.54213   0.47292
   0.82436  -0.51220   0.48788
   0.95903  -0.40746   0.51781
   1.07874  -0.43738   0.53278
   1.13859  -0.43738   0.60759
   1.24334  -0.34760   0.62256
   1.27327  -0.24285   0.56270
   1.37801  -0.16804   0.57767
   1.43787  -0.00343   0.48788
   1.51269  -0.01840   0.51781
   1.64736   0.05642   0.54774
   1.70722   0.01153   0.51781
   1.78204  -0.00343   0.48788
   1.82693   0.16117   0.48788
   1.87182   0.26591   0.45796
   1.88678   0.26591   0.42803
   1.96160   0.22102   0.41307
   1.97656   0.25095   0.38314
   1.99153   0.32577   0.32328
   2.03642   0.41555   0.27839
   2.11124   0.47541   0.27839
   2.23095   0.50533   0.27839
   2.26088   0.46044   0.30832
   2.23095   0.43052   0.32328
   2.23095   0.49037   0.24846
   2.26088   0.61008   0.17365
   2.32073   0.68490   0.05394
   2.33569   0.68490   0.02401
   2.35066   0.64001   0.03897
   2.30577   0.61008   0.08386
   2.24591   0.59512   0.03897
   2.26088   0.61008  -0.03585
   2.32073   0.69986  -0.14059
   2.30577   0.69986  -0.14059
   2.26088   0.68490  -0.15556
   2.17109   0.68490  -0.18549
   2.05138   0.72979  -0.20045
   1.99153   0.74475  -0.27527
   1.94664   0.78965  -0.35009
   1.93167   0.74475  -0.36505
   1.84189   0.74475  -0.45483
   1.73714   0.72979  -0.42491
   1.63240   0.71483  -0.52965
   1.57254   0.71483  -0.66433
   1.51269   0.68490  -0.67929
   1.40794   0.64001  -0.69425
   1.31816   0.58015  -0.67929
   1.21341   0.55023  -0.70922
   1.09370   0.52030  -0.79900
   1.04881   0.50533  -0.90375
   0.97399   0.49037  -0.94864
   0.85428   0.52030  -0.97856
   0.68968   0.46044  -0.91871
   0.55501   0.37066  -0.94864
   0.48019   0.34073  -0.96360
   0.42033   0.35570  -1.09827
   0.37544   0.41555  -1.20302
   0.31559   0.35570  -1.18806
   0.21084   0.26591  -1.12820
   0.04624   0.13124  -1.08331
  -0.11836   0.11628  -1.09827
  -0.17822   0.14620  -1.15813
  -0.17822   0.17613  -1.20302
  -0.20814   0.10131  -1.20302
  -0.29793  -0.03336  -1.12820
  -0.46253  -0.06329  -1.08331
  -0.61217  -0.07825  -1.08331
  -0.71691  -0.01840  -1.11324
  -0.77677  -0.03336  -1.12820
  -0.86655  -0.07825  -1.05338
  -0.91144  -0.19796  -0.99353
  -0.98626  -0.33264  -0.99353
  -1.12093  -0.42242  -0.94864
  -1.16583  -0.33264  -0.91871
  -1.22568  -0.27278  -0.88878
  -1.36035  -0.25782  -0.78404
  -1.48006  -0.27278  -0.67929
  -1.59977  -0.30271  -0.55958
  -1.65963  -0.45235  -0.52965
  -1.68956  -0.51220  -0.49972
  -1.74941  -0.52717  -0.48476
  -1.71948  -0.52717  -0.39498
  -1.68956  -0.55709  -0.24534
  -1.77934  -0.66184  -0.06578
  -1.89905  -0.67680   0.05394
  -2.03372  -0.67680   0.11379
  -2.07861  -0.67680   0.18861
  -1.94394  -0.70673   0.26343
  -1.82423  -0.75162   0.35321
  -1.79430  -0.79651   0.45796
  -1.88409  -0.81148   0.59263
  -1.97387  -0.87133   0.75723
  -2.01876  -0.84140   0.81709
  -1.97387  -0.82644   0.84701
  -1.83919  -0.88630   0.89191
  -1.71948  -0.96111   0.98169
  -1.68956  -0.97608   1.07147
  -1.61474  -0.88630   1.13133
  -1.59977  -0.82644   1.20614
  -1.59977  -0.78155   1.32585
  -1.58481  -0.73666   1.35578
  -1.53992  -0.73666   1.41564
  -1.45014  -0.67680   1.40067
  -1.31546  -0.64688   1.41564
  -1.27057  -0.63191   1.44556
  -1.21072  -0.54213   1.58024
  -1.13590  -0.48227   1.56527
  -1.07604  -0.42242   1.55031
  -1.10597  -0.33264   1.56527
  -1.10597  -0.33264   1.59520
  -1.03115  -0.21293   1.56527
  -0.89648  -0.12314   1.49046
  -0.85159  -0.00343   1.41564
  -0.86655   0.07138   1.46053
  -0.86655   0.05642   1.40067
  -0.80669   0.10131   1.32585
  -0.80669   0.10131   1.32585
  -0.77677   0.20606   1.29593
  -0.76180   0.26591   1.25104
  -0.73188   0.35570   1.19118
  -0.70195   0.37066   1.10140
  -0.64209   0.35570   1.05651
  -0.55231   0.29584   1.04154
  -0.52238   0.34073   0.98169
  -0.55231   0.34073   1.01162
  -0.58224   0.44548   0.90687
  -0.61217   0.47541   0.83205
  -0.55231   0.43052   0.77220
  -0.46253   0.50533   0.71234
  -0.46253   0.46044   0.72730
  -0.40267   0.37066   0.63752
  -0.37275   0.37066   0.59263
  -0.44756   0.34073   0.59263
  -0.50742   0.34073   0.48788
  -0.49246   0.41555   0.44299
  -0.41764   0.47541   0.33825
  -0.41764   0.46044   0.32328
  -0.43260   0.46044   0.39810
  -0.49246   0.43052   0.27839
  -0.52238   0.37066   0.27839
  -0.55231   0.35570   0.21854
  -0.53735   0.37066   0.12875
  -0.53735   0.37066   0.08386
  -0.58224   0.41555   0.06890
  -0.64209   0.40059   0.05394
  -0.67202   0.43052   0.02401
  -0.71691   0.40059   0.02401
  -0.79173   0.40059  -0.00592
  -0.83662   0.46044  -0.11067
  -0.89648   0.41555  -0.15556
  -1.01619   0.41555  -0.21541
  -1.01619   0.38562  -0.29023
  -0.98626   0.34073  -0.35009
  -1.03115   0.37066  -0.38001
  -1.18079   0.31080  -0.39498
  -1.37532   0.25095  -0.40994
  -1.48006   0.29584  -0.43987
  -1.46510   0.31080  -0.52965
  -1.43517   0.34073  -0.52965
  -1.45014   0.28088  -0.55958
  -1.48006   0.20606  -0.57454
  -1.58481   0.11628  -0.57454
  -1.65963   0.14620  -0.61943
  -1.67459   0.08635  -0.63440
  -1.58481   0.07138  -0.60447
  -1.52496  -0.00343  -0.64936
  -1.53992  -0.10818  -0.63440
  -1.61474  -0.10818  -0.61943
  -1.56985  -0.15307  -0.66433
  -1.50999  -0.13811  -0.64936
  -1.42021  -0.12314  -0.64936
  -1.34539  -0.19796  -0.63440
  -1.30050  -0.27278  -0.61943
  -1.30050  -0.36256  -0.63440
  -1.22568  -0.42242  -0.61943
  -1.12093  -0.37753  -0.63440
  -0.98626  -0.42242  -0.61943
  -0.85159  -0.46731  -0.55958
  -0.71691  -0.51220  -0.49972
  -0.71691  -0.48227  -0.49972
  -0.70195  -0.49724  -0.46980
  -0.61217  -0.55709  -0.45483
  -0.53735  -0.49724  -0.38001
  -0.43260  -0.57206  -0.35009
  -0.32785  -0.52717  -0.35009
  -0.19318  -0.60198  -0.36505
  -0.13333  -0.58702  -0.30520
  -0.04354  -0.67680  -0.29023
   0.04624  -0.64688  -0.18549
   0.10609  -0.55709  -0.21541
   0.25573  -0.52717  -0.17052
   0.31559  -0.39249  -0.20045
   0.40537  -0.34760  -0.12563
   0.51012  -0.39249  -0.11067
   0.61486  -0.39249  -0.08074
   0.73457  -0.37753  -0.02088
   0.85428  -0.28775  -0.05081
   0.85428  -0.21293  -0.00592
   0.94407  -0.19796   0.06890
   1.06378  -0.15307   0.03897
   1.28823  -0.16804   0.05394
   1.37801  -0.12314   0.08386
   1.45283  -0.10818   0.08386
   1.54262  -0.06329   0.11379
   1.64736   0.01153   0.08386
   1.76707   0.02649   0.08386
   1.87182   0.07138   0.03897
   2.03642   0.02649   0.09883
   2.14117   0.01153   0.09883
   2.23095   0.07138   0.05394
   2.26088   0.16117  -0.00592
   2.41051   0.14620   0.00904
   2.44044   0.19109  -0.03585
   2.54519   0.22102  -0.09570
   2.62001   0.26591  -0.12563
   2.73972   0.22102  -0.20045
   2.85943   0.20606  -0.20045
   2.90432   0.16117  -0.17052
   2.99410   0.19109  -0.21541
   3.00906   0.22102  -0.23038
   2.99410   0.25095  -0.29023
   3.02403   0.29584  -0.42491
   3.06892   0.35570  -0.46980
   3.08388   0.35570  -0.51469
   3.12877   0.28088  -0.49972
   3.17367   0.22102  -0.48476
   3.12877   0.23599  -0.54462
   3.02403   0.23599  -0.63440
   2.96417   0.32577  -0.72418
   2.90432   0.38562  -0.75411
   2.88935   0.40059  -0.75411
   2.90432   0.44548  -0.79900
   2.93425   0.44548  -0.84389
   2.91928   0.38562  -0.87382
   2.85943   0.31080  -0.87382
   2.69483   0.34073  -0.87382
   2.57511   0.40059  -0.88878
   2.48533   0.53526  -0.90375
   2.47037   0.65497  -0.90375
   2.51526   0.62504  -0.88878
   2.44044   0.47541  -0.84389
   2.30577   0.35570  -0.81396
   2.11124   0.38562  -0.78404
   1.97656   0.44548  -0.75411
   1.93167   0.52030  -0.73914
   1.87182   0.52030  -0.70922
   1.72218   0.50533  -0.66433
   1.60247   0.47541  -0.61943
   1.48276   0.43052  -0.55958
   1.37801   0.38562  -0.51469
   1.30320   0.38562  -0.43987
   1.21341   0.32577  -0.38001
   1.09370   0.31080  -0.33512
   0.95903   0.26591  -0.30520
   0.80939   0.28088  -0.26030
   0.77946   0.29584  -0.18549
   0.71961   0.32577  -0.15556
   0.62983   0.23599  -0.02088
   0.49515   0.13124   0.03897
   0.36048   0.07138   0.09883
   0.28566   0.02649   0.11379
   0.19588   0.02649   0.18861
   0.16595   0.02649   0.24846
   0.07617  -0.01840   0.30832
  -0.02858  -0.07825   0.38314
  -0.08843  -0.13811   0.39810
  -0.14829  -0.19796   0.42803
  -0.22311  -0.22789   0.45796
  -0.28296  -0.27278   0.50285
  -0.38771  -0.28775   0.53278
  -0.41764  -0.30271   0.53278
  -0.43260  -0.27278   0.51781
  -0.46253  -0.25782   0.56270
  -0.53735  -0.24285   0.59263
  -0.61217  -0.28775   0.63752
  -0.68698  -0.39249   0.62256
  -0.77677  -0.37753   0.60759
  -0.79173  -0.30271   0.59263
  -0.77677  -0.22789   0.60759
  -0.79173  -0.16804   0.60759
  -0.79173  -0.25782   0.65249
  -0.88151  -0.31767   0.65249
  -0.97130  -0.34760   0.65249
  -1.07604  -0.27278   0.63752
  -1.07604  -0.16804   0.57767
  -1.01619  -0.13811   0.57767
  -1.01619  -0.16804   0.60759
  -1.07604  -0.21293   0.66745
  -1.15086  -0.21293   0.63752
  -1.18079  -0.15307   0.60759
  -1.15086  -0.07825   0.53278
  -1.12093  -0.09322   0.57767
  -1.12093  -0.13811   0.56270
  -1.18079  -0.12314   0.56270
  -1.22568  -0.09322   0.56270
  -1.25561  -0.10818   0.56270
  -1.19575  -0.06329   0.54774
  -1.13590  -0.07825   0.54774
  -1.09101  -0.12314   0.56270
  -1.12093  -0.18300   0.56270
  -1.18079  -0.15307   0.54774
  -1.19575  -0.16804   0.54774
  -1.13590  -0.18300   0.57767
  -1.03115  -0.16804   0.53278
  -1.00122  -0.18300   0.53278
  -1.04612  -0.18300   0.51781
  -1.09101  -0.22789   0.50285
  -1.07604  -0.21293   0.47292
  -1.06108  -0.19796   0.42803
  -0.97130  -0.12314   0.39810
  -0.89648  -0.09322   0.38314
  -0.85159  -0.03336   0.38314
  -0.85159  -0.01840   0.38314
  -0.91144  -0.12314   0.39810
  -0.89648  -0.16804   0.30832
  -0.82166  -0.10818   0.24846
  -0.73188   0.02649   0.12875
  -0.68698   0.10131   0.11379
  -0.74684   0.07138   0.15868
  -0.79173   0.08635   0.12875
  -0.80669   0.11628   0.09883
  -0.77677   0.11628  -0.05081
  -0.71691   0.08635  -0.09570
  -0.68698   0.04146  -0.15556
  -0.71691   0.07138  -0.17052
  -0.74684   0.13124  -0.23038
  -0.79173   0.16117  -0.30520
  -0.83662   0.16117  -0.36505
  -0.88151   0.11628  -0.38001
  -0.89648   0.08635  -0.42491
  -0.86655   0.11628  -0.54462
  -0.89648   0.05642  -0.61943
  -1.04612   0.01153  -0.63440
  -1.09101  -0.03336  -0.64936
  -1.07604  -0.03336  -0.70922
  -1.12093   0.02649  -0.72418
  -1.19575  -0.03336  -0.75411
  -1.25561  -0.19796  -0.73914
  -1.34539  -0.25782  -0.79900
  -1.40525  -0.25782  -0.79900
  -1.39028  -0.24285  -0.85885
  -1.42021  -0.24285  -0.84389
  -1.52496  -0.19796  -0.79900
  -1.58481  -0.25782  -0.81396
  -1.62970  -0.27278  -0.82893
  -1.65963  -0.30271  -0.88878
  -1.70452  -0.31767  -0.84389
  -1.77934  -0.25782  -0.81396
  -1.80927  -0.28775  -0.78404
  -1.79430  -0.36256  -0.79900
  -1.76438  -0.39249  -0.79900
  -1.83919  -0.45235  -0.70922
  -1.89905  -0.45235  -0.64936
  -2.01876  -0.42242  -0.64936
  -2.00380  -0.43738  -0.66433
  -2.00380  -0.37753  -0.61943
  -2.03372  -0.33264  -0.54462
  -2.07861  -0.34760  -0.46980
  -2.10854  -0.34760  -0.43987
  -1.98883  -0.42242  -0.36505
  -1.95890  -0.39249  -0.32016
  -1.94394  -0.39249  -0.27527
  -2.01876  -0.33264  -0.21541
  -2.00380  -0.24285  -0.15556
  -1.95890  -0.19796  -0.12563
  -1.89905  -0.21293  -0.06578
  -1.83919  -0.21293   0.00904
  -1.80927  -0.18300   0.03897
  -1.65963  -0.16804   0.08386
  -1.56985  -0.10818   0.11379
  -1.48006  -0.07825   0.20357
  -1.46510  -0.01840   0.26343
  -1.46510   0.04146   0.29336
  -1.30050   0.14620   0.26343
  -1.16583   0.11628   0.33825
