********************************************************************************
              CENTRO DE INSTRUMENTACION Y REGISTRO SISMICO  A.C.                

    Anaxagoras 814, Col. Narvarte, Benito Juarez, C.P. 03020 Mexico, D.F.       
           Tels. 5687 45 42/ 5687 45  82             Fax. 5669 25 12            
********************************************************************************
ARCHIVO ESTANDAR DE ACELERACION:
VERSION DEL FORMATO                    : 2.0
NOMBRE DEL ARCHIVO                     : BA4920060811143041
FECHA Y HORA DE CREACION               : 21/JUN/09, 23:40
REF. CATALOGO ACELEROGRAMAS, SMIS 1996 : REGISTRO No.     /PAG.


================================================================================
DATOS DE LA ESTACION:
NOMBRE DE LA ESTACION                  : BUENOS AIRES
CLAVE DE LA ESTACION                   : BA49
LOCALIZACION DE LA ESTACION            : Del. Cuauhtémoc, Col. Doctores,        
                                       : Av. Lázaro Cárdenas esq. con           
                                       : Calle Dr. Márquez.                     
                                       :                                        
                                       : 
COORDENADAS DE LA ESTACION             : 19.4097 LAT. N
                                       : 99.1450 LONG. W
ALTITUD (msnm)                         : 2233
TIPO DE SUELO                          : Terreno blando, material compresible
                                       : (arcillas)                
                                       : 
INSTITUCION RESPONSABLE                : CIRES


================================================================================
DATOS DEL ACELEROGRAFO:
MODELO DEL ACELEROGRAFO                : SSA-1
NUMERO DE SERIE DEL ACELEROGRAFO       : 176
NUMERO DE CANALES                      : 3
ORIENTACION C1-C6 (rumbo;orientacion)  : /N00E/+V/N90W
ORIENTACION C7-C12 (rumbo;orientacion) : 
VEL. DE MUESTREO, C1-C6 (muestras/s)   : /200/200/200
VEL. DE MUESTREO, C7-C12 (muestras/s)  : 
ESC. COMPLETA DE SENSORES, C1-C6, (g)  : /2.0/2.0/2.0
ESC. COMPLETA DE SENSORES, C7-C12, (g) : 
FREC. NAT. DE SENSORES, C1-C6, (Hz)    : /52.99/52.03/52.99
FREC. NAT. DE SENSORES, C7-C12, (Hz)   : 
AMORTIGUAMIENTO DE SENSORES, C1-C6     : /0.5589/0.5469/0.6096
AMORTIGUAMIENTO DE SENSORES, C7-C12    : 
INTERVALO DE MUESTREO, C1-C6, (s)      : /0.005/0.005/0.005
INTERVALO DE MUESTREO, C7-C12, (s)     : 
UMBRAL DE DISPARO, C1-C6, (Gal)        : /1.5/2.0/1.0
UMBRAL DE DISPARO, C7-C12, (Gal)       : 
MEMORIA DE PREEVENTO (s)               : 15.36
TIEMPO DE POSEVENTO (s)                : 60.0


================================================================================
DATOS DEL SISMO:
FECHA DEL SISMO (GMT)                  : 11/AGO/06
HORA EPICENTRO (GMT)                   : 14:30:41.0
MAGNITUD(ES)                           : /Mc=5.9
COORDENADAS DEL EPICENTRO              : 18.32 LAT. N
                                       : -101.27 LONG. W
PROFUNDIDAD FOCAL (km)                 : 51
FUENTE DE LOS DATOS EPICENTRALES       : SSN
                                       : INSTITUTO DE GEOFISICA, UNAM

================================================================================
DATOS DE ESTE REGISTRO:
HORA DE LA PRIMERA MUESTRA (GMT)       : 5:43:25.57
EXACTITUD DEL TIEMPO (s)               : 0.005
DURACION DEL REGISTRO (s), C1-C6       : /111.36/111.36/111.36
DURACION DEL REGISTRO (s), C7-C12      : 
NUM. TOTAL DE MUESTRAS, C1-C6          : /22272/22272/22272
NUM. TOTAL DE MUESTRAS, C7-C12         : 
ACEL. MAX. (Gal), C1-C6                : /1.98493/1.12529/1.57696
ACEL. MAX., C1-C6, EN LA MUESTRA       : /9826/4458/3243
ACEL. MAX. (Gal), C7-C12               : 
ACEL. MAX., C7-C12, EN LA MUESTRA      : 
UNIDADES DE LOS DATOS                  : Gal (cm/s/s)
FACTOR DE DECIMACION                   : 1
FORMATO DATOS (FORTRAN,10 campos/dato) : 3F10.5


================================================================================
CALIDAD DEL ACELEROGRAMA:
REGISTRO DIGITAL COMPLETO CON TIEMPO ABSOLUTO CORRECTO.


================================================================================
COMENTARIOS:














================================================================================
DATOS DE ACELERACION:
---------+---------+---------+---------+---------+---------+---------+---------+
   CANAL-1   CANAL-2   CANAL-3   CANAL-4   CANAL-5   CANAL-6   CANAL-7   CANAL-8
      N00E        +V      N90W
---------+---------+---------+---------+---------+---------+---------+---------+
[...]
   0.40927  -0.07181   0.57782
   0.40927  -0.31123   0.57782
   0.40927  -0.07181   0.33840
   0.40927  -0.07181   0.57782
   0.64869  -0.07181   0.57782
   0.64869  -0.31123   0.57782
   0.64869  -0.07181   0.57782
   0.64869  -0.07181   0.57782
   0.64869  -0.31123   0.57782
   0.64869  -0.07181   0.33840
   0.88811  -0.07181   0.33840
   0.88811  -0.31123   0.57782
   0.88811  -0.07181   0.57782
   0.88811  -0.07181   0.57782
   0.88811  -0.07181   0.33840
   0.88811   0.16761   0.57782
   0.88811  -0.07181   0.33840
   0.88811  -0.07181   0.33840
   0.88811  -0.07181   0.33840
   0.88811  -0.07181   0.33840
   1.12753  -0.07181   0.33840
   1.12753  -0.07181   0.33840
   1.12753  -0.07181   0.33840
   0.88811  -0.07181   0.33840
   0.88811   0.16761   0.33840
   1.12753  -0.07181   0.33840
   1.12753  -0.07181   0.33840
   1.12753   0.16761   0.33840
   1.12753  -0.07181   0.33840
   1.12753  -0.07181   0.33840
   1.12753   0.16761   0.33840
   1.12753  -0.07181   0.33840
   1.12753  -0.07181   0.33840
   1.12753   0.16761   0.33840
   1.12753   0.16761   0.33840
   1.12753  -0.07181   0.33840
   1.12753   0.16761   0.33840
   1.12753   0.16761   0.33840
   1.12753  -0.07181   0.33840
   1.12753   0.16761   0.33840
   1.12753   0.16761   0.33840
   1.12753   0.16761   0.33840
   1.12753   0.16761   0.33840
   1.12753   0.16761   0.09898
   1.12753   0.16761   0.33840
   1.12753   0.16761   0.09898
   1.12753   0.16761   0.33840
   1.12753   0.16761   0.09898
   1.12753  -0.07181   0.09898
   1.12753   0.16761   0.09898
   1.12753   0.16761   0.09898
   1.12753   0.16761   0.09898
   0.88811   0.16761   0.09898
   0.88811   0.16761   0.09898
   1.12753   0.16761   0.09898
   1.12753   0.16761   0.09898
   0.88811   0.16761   0.09898
   0.88811  -0.07181   0.09898
   1.12753   0.16761   0.09898
   1.12753   0.16761   0.09898
   1.12753   0.16761   0.09898
   1.12753   0.16761   0.09898
   1.12753   0.16761  -0.14044
   1.12753   0.16761  -0.14044
   1.12753   0.16761  -0.14044
   1.12753   0.40703  -0.14044
   1.12753   0.16761  -0.14044
   1.12753   0.16761  -0.14044
   1.12753   0.16761  -0.14044
   1.12753   0.16761  -0.14044
   1.12753   0.16761  -0.14044
   1.12753   0.16761  -0.14044
   1.12753   0.16761  -0.14044
   1.12753   0.40703  -0.14044
   1.12753   0.16761  -0.14044
   1.12753   0.16761  -0.14044
   1.12753   0.16761  -0.14044
   1.12753   0.16761  -0.14044
   1.12753   0.16761  -0.14044
   1.12753   0.40703  -0.14044
   1.12753   0.16761  -0.14044
   1.12753   0.16761  -0.14044
   1.12753  -0.07181  -0.14044
   1.12753   0.16761  -0.14044
   1.12753   0.16761  -0.14044
   1.12753   0.16761  -0.14044
   1.12753   0.40703  -0.14044
   1.12753   0.16761  -0.14044
   1.12753   0.16761  -0.14044
   1.12753  -0.07181  -0.14044
   1.12753  -0.07181  -0.14044
   1.12753  -0.07181  -0.14044
   1.12753  -0.07181  -0.14044
   1.12753  -0.07181  -0.14044
   1.12753  -0.07181  -0.14044
   1.12753  -0.07181  -0.37986
   1.12753  -0.07181  -0.37986
   1.12753  -0.07181  -0.37986
   1.12753  -0.07181  -0.37986
   1.12753  -0.07181  -0.37986
   1.12753  -0.07181  -0.37986
   1.12753  -0.07181  -0.14044
   1.12753  -0.07181  -0.37986
   1.12753  -0.07181  -0.37986
   1.12753   0.16761  -0.37986
   0.88811  -0.07181  -0.37986
   0.88811  -0.07181  -0.61928
   1.12753  -0.07181  -0.37986
   1.12753  -0.07181  -0.37986
   0.88811  -0.07181  -0.37986
   0.88811   0.16761  -0.37986
   0.88811  -0.07181  -0.37986
   0.88811   0.16761  -0.37986
   0.88811   0.16761  -0.37986
   0.88811  -0.07181  -0.37986
   0.88811  -0.31123  -0.37986
   0.88811  -0.07181  -0.37986
   0.88811   0.16761  -0.37986
   0.64869  -0.31123  -0.37986
   0.88811  -0.07181  -0.37986
   0.88811  -0.07181  -0.37986
   0.88811  -0.07181  -0.37986
   0.64869  -0.07181  -0.37986
   0.64869  -0.07181  -0.37986
   0.88811  -0.07181  -0.37986
   0.88811  -0.31123  -0.37986
   0.88811  -0.07181  -0.37986
   0.64869  -0.07181  -0.37986
   0.88811  -0.07181  -0.37986
   0.64869  -0.07181  -0.37986
   0.64869  -0.07181  -0.37986
   0.64869  -0.07181  -0.37986
   0.64869  -0.07181  -0.37986
   0.88811  -0.07181  -0.37986
   0.64869  -0.07181  -0.37986
   0.64869  -0.07181  -0.37986
   0.64869  -0.07181  -0.37986
   0.64869  -0.07181  -0.37986
   0.64869  -0.07181  -0.61928
   0.64869  -0.07181  -0.61928
   0.64869  -0.07181  -0.61928
   0.64869  -0.07181  -0.61928
   0.64869  -0.07181  -0.61928
   0.64869  -0.07181  -0.61928
   0.64869   0.16761  -0.61928
   0.64869  -0.07181  -0.61928
   0.40927  -0.07181  -0.61928
   0.64869  -0.07181  -0.61928
   0.64869  -0.07181  -0.61928
   0.64869  -0.07181  -0.61928
   0.64869  -0.07181  -0.61928
   0.40927  -0.07181  -0.61928
   0.40927  -0.07181  -0.61928
   0.40927  -0.07181  -0.61928
   0.64869  -0.07181  -0.61928
   0.64869  -0.07181  -0.61928
   0.64869  -0.07181  -0.61928
   0.64869  -0.07181  -0.61928
   0.64869  -0.31123  -0.61928
   0.64869  -0.07181  -0.61928
   0.64869  -0.07181  -0.61928
   0.64869  -0.07181  -0.61928
   0.64869  -0.07181  -0.61928
   0.64869  -0.07181  -0.61928
   0.64869  -0.07181  -0.61928
   0.64869  -0.07181  -0.61928
   0.64869  -0.07181  -0.61928
   0.64869  -0.07181  -0.61928
   0.64869  -0.07181  -0.61928
   0.64869  -0.07181  -0.61928
   0.64869  -0.07181  -0.61928
   0.64869  -0.07181  -0.61928
   0.64869  -0.07181  -0.85870
   0.64869  -0.07181  -0.61928
   0.64869  -0.07181  -0.61928
   0.64869  -0.07181  -0.61928
   0.64869  -0.07181  -0.61928
   0.64869  -0.07181  -0.61928
   0.64869  -0.31123  -0.61928
   0.64869  -0.07181  -0.61928
   0.64869  -0.31123  -0.61928
   0.64869  -0.31123  -0.61928
   0.64869  -0.31123  -0.61928
   0.64869  -0.07181  -0.61928
   0.64869  -0.31123  -0.61928
   0.64869  -0.31123  -0.61928
   0.64869  -0.31123  -0.61928
   0.88811  -0.31123  -0.61928
   0.88811  -0.07181  -0.61928
   0.88811  -0.31123  -0.61928
   0.88811  -0.31123  -0.61928
   0.88811  -0.07181  -0.61928
   0.88811  -0.31123  -0.61928
   0.88811  -0.07181  -0.61928
   0.88811  -0.07181  -0.61928
   0.88811  -0.07181  -0.61928
   0.88811   0.16761  -0.61928
   0.88811  -0.07181  -0.37986
   0.88811  -0.07181  -0.37986
   0.88811  -0.31123  -0.37986
   0.88811  -0.31123  -0.61928
   0.88811  -0.31123  -0.37986
   0.88811  -0.07181  -0.37986
   0.64869  -0.31123  -0.37986
   0.88811  -0.07181  -0.61928
   0.88811  -0.07181  -0.37986
   0.88811  -0.07181  -0.61928
   0.88811  -0.31123  -0.61928
   0.88811  -0.31123  -0.37986
   0.88811  -0.07181  -0.37986
   0.88811  -0.07181  -0.37986
   0.88811  -0.07181  -0.37986
   0.88811  -0.07181  -0.37986
   0.88811  -0.07181  -0.37986
   0.88811  -0.31123  -0.37986
   0.64869  -0.31123  -0.37986
   0.88811  -0.07181  -0.37986
   0.64869  -0.07181  -0.37986
   0.64869   0.16761  -0.37986
   0.64869   0.16761  -0.37986
   0.64869   0.16761  -0.37986
   0.64869   0.16761  -0.37986
   0.64869   0.16761  -0.37986
   0.64869  -0.07181  -0.61928
   0.64869  -0.07181  -0.37986
   0.64869  -0.07181  -0.37986
   0.64869  -0.07181  -0.37986
   0.40927   0.16761  -0.37986
   0.40927   0.16761  -0.37986
   0.40927   0.16761  -0.37986
   0.40927   0.16761  -0.37986
   0.40927  -0.07181  -0.37986
   0.64869  -0.07181  -0.37986
   0.64869   0.16761  -0.37986
   0.40927   0.16761  -0.37986
   0.40927   0.16761  -0.37986
   0.16985   0.16761  -0.37986
   0.40927   0.16761  -0.37986
   0.16985   0.16761  -0.37986
   0.16985   0.16761  -0.37986
   0.16985   0.16761  -0.37986
   0.16985   0.16761  -0.37986
   0.16985   0.16761  -0.37986
   0.16985   0.16761  -0.37986
   0.16985   0.16761  -0.37986
   0.16985   0.16761  -0.37986
   0.16985   0.16761  -0.37986
   0.16985   0.16761  -0.37986
   0.16985   0.16761  -0.37986
   0.16985   0.16761  -0.37986
  -0.06957   0.16761  -0.14044
  -0.06957   0.16761  -0.14044
  -0.06957   0.16761  -0.14044
  -0.06957   0.16761  -0.37986
  -0.06957   0.16761  -0.37986
  -0.06957   0.16761  -0.14044
  -0.06957   0.16761  -0.14044
  -0.06957   0.40703  -0.14044
  -0.06957   0.16761  -0.14044
  -0.06957   0.40703  -0.14044
  -0.06957   0.16761  -0.14044
  -0.30899   0.16761  -0.14044
  -0.30899   0.16761  -0.14044
  -0.06957   0.16761  -0.14044
  -0.30899   0.40703  -0.14044
  -0.30899   0.16761  -0.14044
  -0.30899   0.40703  -0.14044
  -0.30899   0.40703  -0.14044
  -0.30899   0.40703  -0.14044
  -0.30899   0.16761  -0.14044
  -0.54841   0.40703  -0.14044
  -0.30899   0.40703  -0.37986
  -0.54841   0.40703  -0.14044
  -0.54841   0.40703  -0.14044
  -0.54841   0.16761  -0.14044
  -0.54841   0.40703  -0.14044
  -0.54841   0.40703  -0.14044
  -0.54841   0.40703  -0.14044
  -0.78783   0.16761  -0.14044
  -0.54841   0.16761  -0.14044
  -0.54841   0.16761  -0.14044
  -0.54841   0.16761   0.09898
  -0.54841   0.16761  -0.14044
  -0.78783   0.40703  -0.14044
  -0.78783   0.16761   0.09898
  -0.78783   0.16761   0.09898
  -0.78783   0.40703   0.09898
  -1.02725   0.16761   0.09898
  -1.02725   0.40703  -0.14044
  -1.02725   0.16761   0.09898
  -1.02725   0.40703   0.09898
  -1.02725   0.16761   0.09898
  -1.02725   0.40703   0.09898
  -1.02725   0.16761   0.09898
  -1.02725   0.40703   0.09898
  -1.02725   0.16761  -0.14044
  -1.02725   0.40703   0.09898
  -1.02725   0.16761   0.09898
  -1.02725   0.16761   0.09898
  -1.26667   0.16761   0.09898
  -1.26667   0.16761   0.09898
  -1.26667   0.16761   0.09898
  -1.26667   0.16761   0.09898
  -1.26667   0.16761  -0.14044
  -1.26667   0.16761   0.09898
  -1.26667   0.16761   0.33840
  -1.26667   0.16761   0.33840
  -1.26667   0.40703   0.33840
  -1.26667   0.16761   0.33840
  -1.26667   0.16761   0.33840
  -1.50609   0.16761   0.33840
  -1.50609   0.16761   0.33840
  -1.50609   0.16761   0.33840
  -1.50609   0.16761   0.33840
  -1.50609   0.16761   0.33840
  -1.50609   0.16761   0.33840
  -1.50609   0.16761   0.33840
  -1.50609  -0.07181   0.33840
  -1.50609  -0.07181   0.33840
  -1.50609   0.16761   0.33840
  -1.50609   0.16761   0.33840
  -1.50609  -0.07181   0.33840
  -1.50609  -0.07181   0.33840
  -1.50609   0.16761   0.33840
  -1.50609   0.16761   0.33840
  -1.50609   0.16761   0.57782
  -1.50609  -0.07181   0.33840
  -1.50609  -0.07181   0.33840
  -1.50609  -0.07181   0.57782
  -1.50609  -0.07181   0.57782
  -1.50609  -0.07181   0.57782
  -1.74551  -0.07181   0.57782
  -1.74551  -0.07181   0.33840
  -1.74551  -0.07181   0.57782
  -1.74551  -0.07181   0.57782
  -1.74551  -0.07181   0.57782
  -1.74551  -0.07181   0.57782
  -1.74551  -0.07181   0.57782
  -1.74551  -0.07181   0.57782
  -1.74551  -0.07181   0.57782
  -1.74551  -0.07181   0.57782
  -1.74551  -0.07181   0.57782
  -1.74551  -0.31123   0.57782
  -1.74551  -0.07181   0.57782
  -1.74551  -0.07181   0.57782
  -1.74551  -0.07181   0.57782
  -1.98493  -0.07181   0.57782
  -1.98493  -0.07181   0.57782
  -1.74551  -0.07181   0.57782
  -1.98493  -0.07181   0.57782
  -1.74551  -0.07181   0.57782
  -1.74551  -0.07181   0.57782
  -1.74551  -0.07181   0.57782
  -1.74551  -0.07181   0.57782
  -1.98493  -0.07181   0.57782
  -1.98493  -0.07181   0.57782
  -1.98493  -0.07181   0.57782
  -1.98493  -0.07181   0.57782
  -1.98493  -0.07181   0.57782
  -1.98493  -0.07181   0.57782
  -1.98493  -0.07181   0.57782
  -1.98493  -0.07181   0.57782
  -1.98493  -0.07181   0.57782
  -1.98493  -0.07181   0.57782
  -1.98493  -0.07181   0.57782
  -1.98493  -0.31123   0.57782
  -1.98493  -0.31123   0.57782
  -1.98493  -0.07181   0.57782
  -1.98493  -0.31123   0.57782
  -1.98493  -0.31123   0.57782
  -1.98493  -0.31123   0.57782
  -1.98493  -0.31123   0.57782
  -1.98493  -0.31123   0.57782
  -1.98493  -0.31123   0.57782
  -1.98493  -0.31123   0.57782
  -1.98493  -0.31123   0.57782
  -1.74551  -0.31123   0.57782
  -1.98493  -0.31123   0.57782
  -1.98493  -0.31123   0.57782
  -1.74551  -0.31123   0.57782
  -1.74551  -0.31123   0.57782
  -1.74551  -0.31123   0.57782
  -1.74551  -0.31123   0.57782
  -1.74551  -0.31123   0.57782
  -1.74551  -0.31123   0.57782
  -1.74551  -0.31123   0.57782
  -1.74551  -0.31123   0.57782
  -1.50609  -0.31123   0.57782
  -1.50609  -0.31123   0.57782
  -1.50609  -0.31123   0.57782
  -1.50609  -0.31123   0.57782
  -1.50609  -0.31123   0.57782
  -1.50609  -0.55065   0.57782
  -1.50609  -0.31123   0.57782
  -1.50609  -0.31123   0.57782
  -1.50609  -0.31123   0.57782
  -1.50609  -0.31123   0.57782
  -1.26667  -0.55065   0.57782
  -1.26667  -0.31123   0.57782
  -1.26667  -0.31123   0.57782
  -1.26667  -0.31123   0.57782
  -1.02725  -0.31123   0.57782
  -1.02725  -0.31123   0.33840
  -1.02725  -0.55065   0.57782
  -1.02725  -0.31123   0.57782
  -1.02725  -0.55065   0.57782
  -1.02725  -0.31123   0.57782
  -1.02725  -0.31123   0.57782
  -1.02725  -0.31123   0.57782
  -1.02725  -0.31123   0.57782
  -1.02725  -0.31123   0.57782
  -0.78783  -0.31123   0.57782
  -1.02725  -0.31123   0.57782
  -0.78783  -0.31123   0.57782
  -0.78783  -0.31123   0.33840
  -0.78783  -0.31123   0.33840
  -0.78783  -0.31123   0.33840
  -0.54841  -0.31123   0.33840
  -0.54841  -0.31123   0.33840
  -0.54841  -0.31123   0.33840
  -0.54841  -0.31123   0.33840
  -0.54841  -0.07181   0.33840
  -0.54841  -0.07181   0.33840
  -0.54841  -0.07181   0.33840
  -0.54841  -0.07181   0.33840
  -0.54841  -0.07181   0.33840
  -0.30899  -0.07181   0.33840
  -0.30899  -0.07181   0.33840
  -0.30899  -0.31123   0.33840
  -0.30899  -0.31123   0.33840
  -0.30899  -0.07181   0.33840
  -0.30899  -0.31123   0.33840
  -0.30899  -0.07181   0.33840
  -0.30899  -0.07181   0.33840
  -0.30899  -0.31123   0.33840
  -0.30899  -0.07181   0.33840
  -0.30899  -0.07181   0.33840
  -0.30899  -0.07181   0.33840
  -0.06957  -0.07181   0.33840
  -0.30899  -0.07181   0.33840
  -0.06957  -0.07181   0.57782
  -0.30899   0.16761   0.33840
  -0.06957   0.16761   0.33840
  -0.06957  -0.07181   0.33840
  -0.06957  -0.07181   0.33840
  -0.06957  -0.07181   0.33840
  -0.06957  -0.07181   0.33840
  -0.06957   0.16761   0.33840
  -0.06957   0.16761   0.09898
  -0.06957  -0.07181   0.33840
  -0.06957   0.16761   0.33840
  -0.06957  -0.07181   0.09898
  -0.06957   0.16761   0.33840
  -0.06957   0.16761   0.09898
  -0.06957   0.16761   0.09898
   0.16985   0.16761   0.09898
   0.16985   0.16761   0.09898
   0.16985   0.16761   0.09898
   0.16985   0.40703   0.09898
   0.16985   0.16761   0.09898
   0.16985   0.16761   0.09898
   0.16985   0.16761   0.09898
   0.16985   0.40703   0.09898
   0.16985   0.16761   0.09898
   0.16985   0.40703   0.09898
   0.16985   0.16761   0.09898
   0.16985   0.16761   0.09898
   0.16985   0.16761   0.09898
   0.16985   0.16761   0.09898
   0.16985   0.16761   0.09898
   0.16985   0.16761   0.09898
   0.16985   0.16761  -0.14044
   0.16985   0.16761   0.09898
   0.16985   0.16761   0.09898
   0.40927   0.16761  -0.14044
   0.40927   0.16761   0.09898
   0.16985   0.16761   0.09898
   0.16985   0.40703   0.09898
   0.16985   0.16761  -0.14044
   0.16985   0.16761  -0.14044
   0.40927   0.16761  -0.14044
   0.16985   0.16761  -0.14044
   0.40927   0.16761  -0.14044
   0.40927   0.16761  -0.14044
   0.40927   0.16761  -0.14044
   0.40927   0.16761  -0.14044
   0.40927   0.16761  -0.14044
   0.40927   0.16761  -0.14044
   0.40927   0.16761  -0.14044
   0.40927   0.16761  -0.14044
   0.40927   0.16761  -0.14044
   0.40927   0.16761  -0.14044
   0.40927   0.16761  -0.14044
   0.64869   0.16761  -0.14044
   0.40927   0.16761  -0.14044
   0.64869   0.16761  -0.14044
