********************************************************************************
              CENTRO DE INSTRUMENTACION Y REGISTRO SISMICO  A.C.

    Anaxagoras 814, Col. Narvarte, Benito Juarez, C.P. 03020 Mexico, D.F.
           Tels. 5687 45 42/ 5687 45  82             Fax. 5669 25 12
********************************************************************************
ARCHIVO ESTANDAR DE ACELERACION:
VERSION DEL FORMATO                    : 2.0
NOMBRE DEL ARCHIVO                     : BA4920130220212311
FECHA Y HORA DE CREACION               : 11/MAR/13, 10:48
REF. CATALOGO ACELEROGRAMAS, SMIS 1996 : REGISTRO No.     /PAG.


================================================================================
DATOS DE LA ESTACION:
NOMBRE DE LA ESTACION                  : BUENOS AIRES
CLAVE DE LA ESTACION                   : BA49
LOCALIZACION DE LA ESTACION            : Del. Cuauhtémoc, Col. Doctores,        
                                       : Av. Lázaro Cárdenas esq. con           
                                       : Calle Dr. Márquez.                     
                                       :                                        
                                       : 
COORDENADAS DE LA ESTACION             : 19.4097 LAT. N
                                       : 99.1450 LONG. W
ALTITUD (msnm)                         : 2233
TIPO DE SUELO                          : Terreno blando, material compresible
                                       : (arcillas)                
                                       : 
INSTITUCION RESPONSABLE                : CIRES
                                       : 

================================================================================
DATOS DEL ACELEROGRAFO:
MODELO DEL ACELEROGRAFO                : RADESD
NUMERO DE SERIE DEL ACELEROGRAFO       : 176
NUMERO DE CANALES                      : 3
ORIENTACION C1-C6 (rumbo;orientacion)  : /N00E/+V/N90W
ORIENTACION C7-C12 (rumbo;orientacion) : 
VEL. DE MUESTREO, C1-C6 (muestras/s)   : /100/100/100
VEL. DE MUESTREO, C7-C12 (muestras/s)  : 
ESC. COMPLETA DE SENSORES, C1-C6, (g)  : /0.5/0.5/0.5
ESC. COMPLETA DE SENSORES, C7-C12, (g) : 
FREC. NAT. DE SENSORES, C1-C6, (Hz)    : /52.99/52.03/52.99
FREC. NAT. DE SENSORES, C7-C12, (Hz)   : 
AMORTIGUAMIENTO DE SENSORES, C1-C6     : /0.5589/0.5469/0.6096
AMORTIGUAMIENTO DE SENSORES, C7-C12    : 
INTERVALO DE MUESTREO, C1-C6, (s)      : /0.01/0.01/0.01
INTERVALO DE MUESTREO, C7-C12, (s)     : 
UMBRAL DE DISPARO, C1-C6, (Gal)        : /15.32/30.65/15.32
UMBRAL DE DISPARO, C7-C12, (Gal)       : 
MEMORIA DE PREEVENTO (s)               : 56.0
TIEMPO DE POSEVENTO (s)                : 80.0


================================================================================
DATOS DEL SISMO:
FECHA DEL SISMO (GMT)                  : 20/FEB/13
HORA EPICENTRO (GMT)                   : 21:23:11.0
MAGNITUD(ES)                           : /Mc=5.6
COORDENADAS DEL EPICENTRO              : 18.60 LAT. N
                                       : 104.04 LONG. W
PROFUNDIDAD FOCAL (km)                 : 5
FUENTE DE LOS DATOS EPICENTRALES       : SSN
                                       : INSTITUTO DE GEOFISICA, UNAM

================================================================================
DATOS DE ESTE REGISTRO:
HORA DE LA PRIMERA MUESTRA (GMT)       : 21:25:50.00
EXACTITUD DEL TIEMPO (s)               : 0.01
DURACION DEL REGISTRO (s), C1-C6       : /154.0/154.0/154.0
DURACION DEL REGISTRO (s), C7-C12      : 
NUM. TOTAL DE MUESTRAS, C1-C6          : /15400/15400/15400
NUM. TOTAL DE MUESTRAS, C7-C12         : 
ACEL. MAX. (Gal), C1-C6                : /1.55916/0.78306/1.90012
ACEL. MAX., C1-C6, EN LA MUESTRA       : /5155/15162/4498
ACEL. MAX. (Gal), C7-C12               : 
ACEL. MAX., C7-C12, EN LA MUESTRA      : 
UNIDADES DE LOS DATOS                  : Gal (cm/s/s)
FACTOR DE DECIMACION                   : 1
FORMATO DATOS (FORTRAN,10 campos/dato) : 3F10.5


================================================================================
CALIDAD DEL ACELEROGRAMA:
REGISTRO DIGITAL COMPLETO CON TIEMPO ABSOLUTO CORRECTO.


================================================================================
COMENTARIOS:














================================================================================
DATOS DE ACELERACION:
---------+---------+---------+---------+---------+---------+---------+---------+
   CANAL-1   CANAL-2   CANAL-3   CANAL-4   CANAL-5   CANAL-6   CANAL-7   CANAL-8
      N00E        +V      N90W
---------+---------+---------+---------+---------+---------+---------+---------+
[...]
  -0.10182   0.03994  -0.65868
  -0.22153   0.08484  -0.70357
  -0.19160   0.12973  -0.74846
  -0.10182   0.11476  -0.70357
  -0.05693  -0.01991  -0.65868
  -0.02700  -0.00495  -0.58386
  -0.07189   0.08484  -0.61379
  -0.14671   0.18958  -0.71853
  -0.17664   0.21951  -0.88313
  -0.10182   0.21951  -1.04774
  -0.08685   0.24944  -1.06270
  -0.10182   0.21951  -0.92803
  -0.08685  -0.00495  -0.77839
  -0.13174  -0.04984  -0.71853
  -0.22153   0.03994  -0.80832
  -0.13174   0.11476  -0.92803
   0.09271   0.08484  -0.97292
   0.15257   0.17462  -1.10759
   0.10768   0.17462  -1.18241
   0.07775  -0.13962  -1.01781
  -0.02700  -0.12466  -0.91306
  -0.14671  -0.04984  -0.94299
  -0.10182  -0.15458  -0.95795
   0.01789  -0.04984  -0.98788
   0.18249   0.20455  -1.04774
   0.31717  -0.04984  -1.09263
   0.24235  -0.33415  -1.03277
  -0.08685  -0.07977  -1.00284
  -0.28138   0.24944  -1.09263
  -0.17664   0.05491  -1.09263
   0.09271  -0.03487  -0.97292
   0.25731   0.01002  -0.82328
   0.18249  -0.04984  -0.79335
   0.13760  -0.13962  -0.86817
   0.09271  -0.09473  -0.92803
  -0.08685   0.14469  -0.88313
  -0.13174   0.11476  -0.86817
   0.01789  -0.00495  -0.95795
   0.04782  -0.06480  -0.97292
  -0.01203  -0.07977  -0.86817
  -0.04196  -0.25933  -0.68861
   0.06278  -0.25933  -0.68861
   0.07775   0.08484  -0.70357
  -0.07189   0.41404  -0.71853
  -0.11678   0.41404  -0.64371
  -0.04196   0.33922  -0.67364
   0.01789   0.33922  -0.76342
   0.09271   0.21951  -0.86817
   0.19746   0.02498  -0.73350
   0.12264  -0.18451  -0.46415
  -0.01203  -0.19948  -0.31451
  -0.07189  -0.06480  -0.25466
  -0.08685   0.12973  -0.32948
  -0.08685   0.24944  -0.43422
  -0.07189   0.20455  -0.43422
  -0.04196   0.01002  -0.35940
  -0.05693  -0.10969  -0.35940
  -0.02700  -0.12466  -0.37437
   0.06278  -0.19948  -0.31451
  -0.02700  -0.25933  -0.11998
  -0.13174  -0.25933  -0.03020
  -0.17664  -0.12466   0.05958
  -0.16167   0.06987   0.19426
  -0.23649   0.39907   0.16433
  -0.25145   0.53375   0.04462
  -0.05693   0.39907  -0.14991
   0.15257   0.01002  -0.07509
  -0.01203  -0.18451   0.19426
  -0.23649  -0.24437   0.35886
  -0.31131  -0.21444   0.46360
  -0.28138   0.01002   0.47857
  -0.25145   0.23447   0.47857
  -0.19160   0.36915   0.35886
  -0.02700   0.32426   0.25411
   0.00293   0.15965   0.43368
  -0.14671   0.01002   0.65813
  -0.29635  -0.15458   0.71799
  -0.35620  -0.15458   0.58331
  -0.32627  -0.12466   0.56835
  -0.22153  -0.06480   0.71799
  -0.11678   0.08484   0.82273
  -0.20656   0.23447   0.74791
  -0.26642   0.21951   0.64317
  -0.31131  -0.07977   0.71799
  -0.32627  -0.28926   0.83770
  -0.25145  -0.42393   0.86763
  -0.13174  -0.43890   0.85266
  -0.10182  -0.40897   0.94244
  -0.20656  -0.36408   1.06215
  -0.38613  -0.22940   1.06215
  -0.53577  -0.12466   0.91252
  -0.61058  -0.09473   0.80777
  -0.52080  -0.06480   0.86763
  -0.26642  -0.04984   0.95741
   0.01789  -0.15458   1.09208
   0.07775  -0.25933   1.07712
  -0.16167  -0.15458   1.07712
  -0.37116  -0.07977   1.01726
  -0.37116  -0.01991   1.04719
  -0.31131   0.02498   1.15194
  -0.32627   0.18958   1.19683
  -0.38613   0.23447   1.16690
  -0.38613   0.21951   1.04719
  -0.26642   0.08484   0.98734
  -0.14671  -0.06480   0.94244
   0.01789  -0.21444   0.95741
   0.07775  -0.33415   1.00230
  -0.01203  -0.31919   1.07712
  -0.25145   0.03994   1.09208
  -0.43102   0.35418   1.01726
  -0.34124   0.54871   0.91252
  -0.01203   0.42900   0.86763
   0.15257   0.20455   0.89755
   0.18249  -0.10969   0.94244
   0.01789  -0.39400   1.04719
  -0.14671  -0.28926   1.07712
  -0.22153  -0.03487   0.98734
  -0.22153   0.17462   0.82273
  -0.05693   0.17462   0.70302
   0.12264   0.18958   0.76288
   0.19746   0.11476   0.79281
   0.19746   0.02498   0.80777
   0.13760  -0.15458   0.77784
   0.07775  -0.10969   0.92748
  -0.10182   0.05491   1.07712
  -0.13174   0.20455   1.06215
   0.04782   0.15965   0.88259
   0.22739   0.17462   0.73295
   0.22739   0.30929   0.71799
   0.18249   0.38411   0.76288
   0.15257   0.21951   0.76288
   0.18249  -0.09473   0.80777
   0.10768  -0.34911   0.89755
   0.04782  -0.37904   0.94244
   0.07775  -0.21444   0.83770
   0.30220   0.11476   0.64317
   0.42191   0.36915   0.67310
   0.34710   0.38411   0.91252
   0.12264   0.14469   1.07712
  -0.04196  -0.18451   1.01726
  -0.08685  -0.36408   0.92748
   0.00293  -0.30422   0.85266
   0.12264  -0.10969   0.77784
   0.30220  -0.03487   0.61324
   0.51170  -0.04984   0.67310
   0.52666  -0.15458   0.80777
   0.33213  -0.28926   0.82273
   0.10768  -0.37904   0.85266
  -0.07189  -0.31919   0.88259
  -0.19160  -0.19948   0.86763
  -0.14671  -0.01991   0.85266
   0.04782   0.06987   0.73295
   0.25731   0.02498   0.61324
   0.36206  -0.00495   0.62820
   0.28724  -0.15458   0.73295
   0.13760  -0.09473   0.71799
  -0.10182   0.05491   0.70302
  -0.17664   0.14469   0.71799
  -0.04196   0.01002   0.68806
   0.07775  -0.00495   0.61324
   0.10768   0.14469   0.49353
  -0.01203   0.17462   0.46360
  -0.08685   0.18958   0.53842
  -0.07189   0.15965   0.55339
   0.04782   0.06987   0.46360
   0.12264  -0.01991   0.40375
   0.12264  -0.19948   0.50849
  -0.05693  -0.24437   0.56835
  -0.25145  -0.03487   0.47857
  -0.31131   0.23447   0.23915
  -0.22153   0.27936   0.11944
  -0.01203  -0.00495   0.14936
   0.06278  -0.22940   0.34389
  -0.07189  -0.34911   0.43368
  -0.23649  -0.22940   0.34389
  -0.32627  -0.03487   0.10447
  -0.19160   0.18958  -0.07509
   0.04782   0.17462  -0.06013
   0.16753  -0.07977   0.02965
  -0.11678  -0.28926   0.17929
  -0.50584  -0.33415   0.22418
  -0.68540  -0.12466   0.08951
  -0.50584   0.12973  -0.14991
  -0.14671   0.15965  -0.23969
   0.13760   0.03994  -0.22473
   0.15257  -0.16955  -0.11998
  -0.13174  -0.42393   0.01469
  -0.38613  -0.60350   0.02965
  -0.46095  -0.45386  -0.16487
  -0.28138   0.03994  -0.40429
  -0.04196   0.42900  -0.55393
   0.07775   0.47389  -0.52400
   0.09271   0.01002  -0.29955
  -0.23649  -0.42393  -0.04516
  -0.68540  -0.48379   0.07455
  -0.83504  -0.07977  -0.31451
  -0.47591   0.42900  -0.83824
   0.03286   0.62353  -0.97292
   0.37702   0.44397  -0.74846
   0.34710   0.01002  -0.43422
  -0.19160  -0.30422  -0.29955
  -0.90986  -0.25933  -0.29955
  -1.19417   0.18958  -0.44919
  -0.83504   0.60857  -0.70357
  -0.11678   0.71331  -1.04774
   0.54162   0.42900  -1.10759
   0.67630  -0.06480  -0.82328
   0.16753  -0.43890  -0.52400
  -0.52080  -0.36408  -0.44919
  -0.82008   0.12973  -0.62875
  -0.70037   0.63849  -0.74846
  -0.37116   0.66842  -0.71853
  -0.07189   0.48886  -0.76342
   0.09271   0.36915  -0.88313
   0.18249   0.39907  -1.01781
   0.12264   0.38411  -1.03277
  -0.02700   0.18958  -0.95795
  -0.17664  -0.18451  -0.86817
  -0.20656  -0.48379  -0.73350
  -0.22153  -0.33415  -0.74846
  -0.14671  -0.06480  -0.86817
  -0.02700   0.17462  -0.98788
   0.01789   0.32426  -1.00284
   0.01789   0.09980  -1.04774
   0.09271  -0.34911  -1.12256
   0.31717  -0.48379  -1.15248
   0.39199  -0.24437  -1.12256
   0.36206  -0.24437  -1.01781
   0.24235  -0.42393  -0.88313
   0.10768  -0.36408  -0.86817
  -0.04196  -0.19948  -1.04774
  -0.08685  -0.12466  -1.12256
   0.00293  -0.09473  -1.12256
   0.22739  -0.04984  -1.10759
   0.34710  -0.03487  -1.15248
   0.33213  -0.22940  -1.15248
   0.30220  -0.37904  -1.18241
   0.46681  -0.30422  -1.30212
   0.72119  -0.27429  -1.36198
   0.79601  -0.27429  -1.31708
   0.55659  -0.04984  -1.16745
   0.09271   0.18958  -1.04774
  -0.26642   0.18958  -1.00284
  -0.17664   0.15965  -1.13752
   0.34710   0.21951  -1.40687
   0.99054   0.11476  -1.54154
   1.22996  -0.31919  -1.49665
   0.94565  -0.63342  -1.22730
   0.40695  -0.57357  -1.07766
   0.13760   0.08484  -1.19737
   0.28724   0.41404  -1.39190
   0.64637   0.72828  -1.57147
   0.94565   0.62353  -1.49665
   0.91572   0.24944  -1.24227
   0.64637  -0.01991  -1.13752
   0.43688   0.01002  -1.21234
   0.54162   0.05491  -1.36198
   0.78105  -0.00495  -1.42183
   0.90076  -0.07977  -1.22730
   0.79601   0.05491  -1.09263
   0.67630   0.26440  -1.16745
   0.61644   0.35418  -1.34701
   0.46681   0.45893  -1.28716
   0.27228   0.53375  -1.07766
   0.24235   0.33922  -0.97292
   0.48177   0.08484  -1.07766
   0.82594   0.12973  -1.21234
   1.12521   0.18958  -1.22730
   1.12521   0.11476  -1.09263
   0.69126   0.02498  -0.88313
   0.04782   0.11476  -0.71853
  -0.25145   0.29433  -0.74846
  -0.11678   0.38411  -0.88313
   0.36206   0.30929  -1.01781
   0.87083   0.11476  -0.94299
   1.09528  -0.00495  -0.85321
   0.94565  -0.09473  -0.82328
   0.61644  -0.03487  -0.85321
   0.24235   0.08484  -0.74846
  -0.17664   0.36915  -0.59882
  -0.44598   0.36915  -0.53897
  -0.32627   0.18958  -0.59882
   0.15257   0.01002  -0.79335
   0.60148  -0.03487  -0.83824
   0.60148  -0.21444  -0.67364
   0.43688  -0.45386  -0.49408
   0.40695  -0.46882  -0.38933
   0.33213  -0.18451  -0.34444
  -0.01203   0.14469  -0.37437
  -0.46095   0.14469  -0.37437
  -0.62555  -0.07977  -0.41926
  -0.35620  -0.22940  -0.43422
   0.13760  -0.30422  -0.44919
   0.46681  -0.36408  -0.31451
   0.46681  -0.46882  -0.11998
   0.16753  -0.42393   0.01469
  -0.20656  -0.33415  -0.10502
  -0.53577  -0.21444  -0.19480
  -0.61058  -0.10969  -0.25466
  -0.35620   0.02498  -0.19480
   0.06278   0.02498  -0.10502
   0.25731  -0.12466   0.17929
   0.04782  -0.27429   0.32893
  -0.34124  -0.34911   0.23915
  -0.52080  -0.27429   0.04462
  -0.44598  -0.15458   0.04462
  -0.26642  -0.03487   0.20922
  -0.08685   0.05491   0.25411
  -0.16167   0.03994   0.28404
  -0.50584  -0.18451   0.32893
  -0.74526  -0.13962   0.43368
  -0.71533   0.14469   0.44864
  -0.52080   0.38411   0.41871
  -0.16167   0.21951   0.43368
   0.06278  -0.18451   0.52346
   0.03286  -0.37904   0.59828
  -0.29635  -0.27429   0.68806
  -0.70037  -0.06480   0.83770
  -0.93979   0.12973   0.97237
  -0.77519   0.24944   0.88259
  -0.26642   0.38411   0.77784
   0.19746   0.23447   0.82273
   0.15257  -0.01991   0.98734
  -0.25145  -0.15458   1.06215
  -0.50584  -0.06480   1.00230
  -0.38613   0.14469   0.98734
  -0.37116   0.33922   1.15194
  -0.32627   0.24944   1.28661
  -0.32627   0.05491   1.37639
  -0.20656  -0.06480   1.34647
  -0.13174   0.06987   1.36143
  -0.04196   0.14469   1.34647
  -0.13174   0.24944   1.42128
  -0.19160   0.12973   1.43625
  -0.26642  -0.04984   1.46618
  -0.13174  -0.24437   1.45121
   0.06278  -0.25933   1.58589
   0.13760  -0.31919   1.73552
   0.09271  -0.30422   1.75049
  -0.05693  -0.12466   1.61581
  -0.05693   0.09980   1.52603
  -0.01203   0.30929   1.64574
   0.16753   0.24944   1.75049
   0.21242   0.01002   1.81034
   0.15257  -0.36408   1.69063
   0.03286  -0.54364   1.81034
  -0.08685  -0.52868   1.90012
  -0.02700  -0.27429   1.82531
   0.09271   0.03994   1.67567
   0.10768   0.26440   1.66070
   0.00293   0.17462   1.79538
  -0.02700  -0.09473   1.88516
  -0.08685  -0.19948   1.84027
   0.03286  -0.24437   1.70560
   0.21242  -0.24437   1.61581
   0.25731  -0.13962   1.61581
   0.16753  -0.01991   1.67567
   0.12264   0.02498   1.72056
   0.19746  -0.13962   1.70560
   0.13760  -0.13962   1.75049
   0.06278  -0.00495   1.64574
   0.04782   0.14469   1.60085
   0.07775   0.17462   1.61581
   0.24235   0.06987   1.58589
   0.27228   0.02498   1.64574
   0.18249  -0.16955   1.61581
   0.06278  -0.25933   1.52603
  -0.05693  -0.16955   1.36143
  -0.10182   0.30929   1.30157
  -0.05693   0.77317   1.36143
  -0.01203   0.72828   1.45121
   0.01789   0.36915   1.48114
   0.09271   0.06987   1.34647
   0.12264   0.09980   1.22676
   0.12264   0.29433   1.12201
  -0.02700   0.41404   1.19683
  -0.22153   0.39907   1.19683
  -0.40109   0.41404   1.07712
  -0.34124   0.53375   0.89755
  -0.17664   0.45893   0.88259
  -0.05693   0.23447   1.00230
  -0.19160   0.08484   1.03223
  -0.32627   0.02498   0.88259
  -0.35620  -0.04984   0.79281
  -0.40109   0.03994   0.71799
  -0.46095   0.20455   0.62820
  -0.59562   0.33922   0.58331
  -0.73029   0.48886   0.53842
  -0.65548   0.45893   0.55339
  -0.34124   0.30929   0.52346
  -0.05693   0.21951   0.47857
  -0.02700   0.01002   0.41871
  -0.23649  -0.31919   0.44864
  -0.59562  -0.36408   0.40375
  -0.83504  -0.04984   0.26907
  -0.86497   0.26440   0.14936
  -0.71533   0.45893   0.01469
  -0.52080   0.36915  -0.01524
  -0.29635   0.14469  -0.01524
  -0.14671  -0.15458   0.01469
  -0.22153  -0.46882   0.02965
  -0.46095  -0.54364   0.05958
  -0.76022  -0.31919  -0.01524
  -0.87993   0.06987  -0.14991
  -0.73029   0.38411  -0.37437
  -0.38613   0.33922  -0.40429
  -0.19160   0.09980  -0.32948
  -0.20656  -0.12466  -0.28458
  -0.34124  -0.10969  -0.26962
  -0.38613   0.01002  -0.29955
  -0.31131   0.06987  -0.38933
  -0.23649  -0.03487  -0.43422
  -0.34124  -0.16955  -0.44919
  -0.41606  -0.06480  -0.52400
  -0.35620  -0.07977  -0.53897
  -0.26642  -0.09473  -0.56890
  -0.22153  -0.25933  -0.53897
  -0.26642  -0.46882  -0.55393
  -0.28138  -0.42393  -0.64371
  -0.19160  -0.13962  -0.70357
  -0.07189   0.09980  -0.68861
   0.06278   0.02498  -0.70357
   0.09271  -0.24437  -0.68861
  -0.01203  -0.37904  -0.73350
  -0.11678  -0.25933  -0.80832
  -0.17664  -0.00495  -0.86817
  -0.13174   0.21951  -0.92803
   0.06278   0.08484  -0.95795
   0.12264  -0.37904  -0.88313
   0.03286  -0.75313  -0.92803
  -0.02700  -0.76810  -0.94299
  -0.05693  -0.42393  -0.98788
  -0.07189   0.01002  -1.04774
  -0.05693   0.12973  -0.98788
   0.03286  -0.03487  -1.01781
   0.10768  -0.34911  -1.09263
   0.07775  -0.55861  -1.13752
   0.00293  -0.39400  -1.13752
   0.06278  -0.12466  -1.13752
   0.24235   0.03994  -1.22730
   0.27228  -0.04984  -1.28716
   0.00293  -0.31919  -1.21234
  -0.16167  -0.43890  -1.16745
  -0.01203  -0.36408  -1.19737
   0.16753  -0.15458  -1.25723
   0.19746  -0.00495  -1.25723
   0.04782  -0.09473  -1.21234
  -0.16167  -0.33415  -1.31708
  -0.25145  -0.40897  -1.54154
  -0.22153  -0.28926  -1.54154
   0.07775   0.06987  -1.40687
   0.40695   0.32426  -1.24227
   0.54162   0.20455  -1.12256
   0.34710  -0.21444  -1.18241
  -0.02700  -0.49875  -1.31708
  -0.17664  -0.37904  -1.57147
  -0.11678   0.11476  -1.69118
   0.01789   0.63849  -1.64629
  -0.01203   0.68339  -1.52658
   0.00293   0.32426  -1.46672
   0.13760  -0.19948  -1.43679
   0.33213  -0.40897  -1.36198
   0.42191  -0.22940  -1.30212
   0.39199   0.03994  -1.27219
   0.19746   0.21951  -1.28716
  -0.13174   0.30929  -1.39190
  -0.28138   0.41404  -1.51161
  -0.25145   0.45893  -1.61636
  -0.02700   0.45893  -1.60140
   0.21242   0.47389  -1.46672
   0.24235   0.35418  -1.34701
   0.18249   0.14469  -1.27219
   0.15257  -0.01991  -1.30212
   0.13760  -0.07977  -1.30212
   0.09271  -0.12466  -1.27219
  -0.02700  -0.01991  -1.27219
  -0.19160   0.23447  -1.31708
  -0.26642   0.44397  -1.31708
  -0.23649   0.41404  -1.34701
  -0.10182   0.32426  -1.21234
   0.09271   0.12973  -1.13752
   0.12264   0.01002  -1.01781
  -0.07189   0.03994  -1.01781
  -0.32627   0.09980  -1.09263
  -0.52080   0.17462  -1.15248
  -0.49087   0.12973  -1.16745
  -0.29635   0.12973  -1.12256
  -0.05693   0.11476  -1.01781
   0.03286   0.06987  -0.83824
   0.00293  -0.06480  -0.76342
  -0.05693  -0.19948  -0.64371
  -0.22153  -0.24437  -0.67364
  -0.26642  -0.15458  -0.80832
  -0.34124   0.08484  -0.89810
  -0.49087   0.30929  -0.86817
  -0.59562   0.36915  -0.82328
