********************************************************************************
              CENTRO DE INSTRUMENTACION Y REGISTRO SISMICO  A.C.

    Anaxagoras 814, Col. Narvarte, Benito Juarez, C.P. 03020 Mexico, D.F.
           Tels. 5687 45 42/ 5687 45  82             Fax. 5669 25 12
********************************************************************************
ARCHIVO ESTANDAR DE ACELERACION:
VERSION DEL FORMATO                    : 2.0
NOMBRE DEL ARCHIVO                     : BA4920100209004740
FECHA Y HORA DE CREACION               : 09/FEB/10, 11:37
REF. CATALOGO ACELEROGRAMAS, SMIS 1996 : REGISTRO No.     /PAG.


================================================================================
DATOS DE LA ESTACION:
NOMBRE DE LA ESTACION                  : BUENOS AIRES
CLAVE DE LA ESTACION                   : BA49
LOCALIZACION DE LA ESTACION            : Del. Cuauhtémoc, Col. Doctores,        
                                       : Av. Lázaro Cárdenas esq. con           
                                       : Calle Dr. Márquez.                     
                                       :                                        
                                       : 
COORDENADAS DE LA ESTACION             : 19.4097 LAT. N
                                       : 99.1450 LONG. W
ALTITUD (msnm)                         : 2233
TIPO DE SUELO                          : Terreno blando, material compresible
                                       : (arcillas)                
                                       : 
INSTITUCION RESPONSABLE                : CIRES
                                       : 

================================================================================
DATOS DEL ACELEROGRAFO:
MODELO DEL ACELEROGRAFO                : RADESD
NUMERO DE SERIE DEL ACELEROGRAFO       : 176
NUMERO DE CANALES                      : 3
ORIENTACION C1-C6 (rumbo;orientacion)  : /N00E/+V/N90W
ORIENTACION C7-C12 (rumbo;orientacion) : 
VEL. DE MUESTREO, C1-C6 (muestras/s)   : /100/100/100
VEL. DE MUESTREO, C7-C12 (muestras/s)  : 
ESC. COMPLETA DE SENSORES, C1-C6, (g)  : /0.5/0.5/0.5
ESC. COMPLETA DE SENSORES, C7-C12, (g) : 
FREC. NAT. DE SENSORES, C1-C6, (Hz)    : /52.99/52.03/52.99
FREC. NAT. DE SENSORES, C7-C12, (Hz)   : 
AMORTIGUAMIENTO DE SENSORES, C1-C6     : /0.5589/0.5469/0.6096
AMORTIGUAMIENTO DE SENSORES, C7-C12    : 
INTERVALO DE MUESTREO, C1-C6, (s)      : /0.01/0.01/0.01
INTERVALO DE MUESTREO, C7-C12, (s)     : 
UMBRAL DE DISPARO, C1-C6, (Gal)        : /0.96/1.92/0.96
UMBRAL DE DISPARO, C7-C12, (Gal)       : 
MEMORIA DE PREEVENTO (s)               : 56.0
TIEMPO DE POSEVENTO (s)                : 64.0


================================================================================
DATOS DEL SISMO:
FECHA DEL SISMO (GMT)                  : 09/FEB/10
HORA EPICENTRO (GMT)                   : 00:47:40.0
MAGNITUD(ES)                           : /Mc=5.8
COORDENADAS DEL EPICENTRO              : 15.90 LAT. N
                                       : 98.86 LONG. W
PROFUNDIDAD FOCAL (km)                 : 37
FUENTE DE LOS DATOS EPICENTRALES       : SSN
                                       : INSTITUTO DE GEOFISICA, UNAM

================================================================================
DATOS DE ESTE REGISTRO:
HORA DE LA PRIMERA MUESTRA (GMT)       : 00:49:59.00
EXACTITUD DEL TIEMPO (s)               : 0.01
DURACION DEL REGISTRO (s), C1-C6       : /217.0/217.0/217.0
DURACION DEL REGISTRO (s), C7-C12      : 
NUM. TOTAL DE MUESTRAS, C1-C6          : /21700/21700/21700
NUM. TOTAL DE MUESTRAS, C7-C12         : 
ACEL. MAX. (Gal), C1-C6                : /1.96838/1.12533/1.97842
ACEL. MAX., C1-C6, EN LA MUESTRA       : /8532/6492/6584
ACEL. MAX. (Gal), C7-C12               : 
ACEL. MAX., C7-C12, EN LA MUESTRA      : 
UNIDADES DE LOS DATOS                  : Gal (cm/s/s)
FACTOR DE DECIMACION                   : 1
FORMATO DATOS (FORTRAN,10 campos/dato) : 3F10.5


================================================================================
CALIDAD DEL ACELEROGRAMA:
REGISTRO DIGITAL COMPLETO CON TIEMPO ABSOLUTO CORRECTO.


================================================================================
COMENTARIOS:














================================================================================
DATOS DE ACELERACION:
---------+---------+---------+---------+---------+---------+---------+---------+
   CANAL-1   CANAL-2   CANAL-3   CANAL-4   CANAL-5   CANAL-6   CANAL-7   CANAL-8
      N00E        +V      N90W
---------+---------+---------+---------+---------+---------+---------+---------+
[...]
  -0.90467  -0.31119  -0.89463
  -0.90467  -0.31119  -1.13405
  -1.14409  -0.31119  -1.13405
  -0.90467  -0.31119  -1.13405
  -0.90467  -0.55061  -1.13405
  -0.90467  -0.55061  -1.13405
  -0.90467  -0.31119  -0.89463
  -0.90467  -0.31119  -0.89463
  -0.90467  -0.31119  -1.13405
  -1.14409  -0.31119  -0.89463
  -1.14409  -0.07177  -0.89463
  -1.14409  -0.07177  -0.89463
  -1.38351   0.16765  -0.89463
  -1.14409  -0.07177  -0.89463
  -0.90467  -0.07177  -0.89463
  -1.14409  -0.07177  -1.13405
  -1.14409  -0.07177  -0.89463
  -1.14409   0.16765  -0.65521
  -1.14409   0.16765  -0.65521
  -0.90467   0.16765  -0.65521
  -0.90467   0.16765  -0.65521
  -0.90467  -0.07177  -0.89463
  -0.90467  -0.07177  -0.89463
  -0.90467  -0.07177  -0.65521
  -0.66525  -0.07177  -0.41579
  -0.90467  -0.07177  -0.41579
  -0.66525  -0.07177  -0.65521
  -0.66525  -0.07177  -0.65521
  -0.90467  -0.07177  -0.41579
  -0.66525  -0.07177  -0.41579
  -0.66525  -0.07177  -0.17637
  -0.66525  -0.07177  -0.41579
  -0.66525  -0.31119  -0.17637
  -0.66525  -0.07177  -0.17637
  -0.90467  -0.31119  -0.17637
  -0.66525  -0.07177  -0.17637
  -0.66525  -0.31119   0.06305
  -0.42583  -0.07177   0.06305
  -0.66525  -0.07177   0.06305
  -0.66525   0.16765   0.30247
  -0.66525  -0.07177   0.30247
  -0.66525  -0.07177   0.30247
  -0.90467  -0.07177   0.30247
  -0.66525   0.16765   0.30247
  -0.66525  -0.07177   0.30247
  -0.66525   0.16765   0.30247
  -0.66525   0.16765   0.30247
  -0.66525   0.16765   0.30247
  -0.66525   0.16765   0.30247
  -0.66525   0.16765   0.30247
  -0.90467   0.16765   0.54189
  -0.90467   0.16765   0.54189
  -0.66525   0.16765   0.30247
  -0.66525  -0.07177   0.30247
  -0.66525  -0.07177   0.30247
  -0.66525   0.16765   0.54189
  -0.66525   0.16765   0.54189
  -0.66525   0.40707   0.54189
  -0.66525   0.16765   0.54189
  -0.66525   0.16765   0.54189
  -0.66525   0.16765   0.30247
  -0.66525   0.16765   0.30247
  -0.66525   0.16765   0.30247
  -0.90467   0.16765   0.54189
  -0.66525   0.16765   0.54189
  -0.66525   0.16765   0.30247
  -0.66525   0.16765   0.30247
  -0.42583   0.16765   0.30247
  -0.66525   0.16765   0.30247
  -0.66525  -0.07177   0.30247
  -0.90467   0.16765   0.54189
  -0.66525   0.40707   0.06305
  -0.42583   0.40707   0.30247
  -0.42583   0.40707   0.30247
  -0.42583   0.16765   0.30247
  -0.66525   0.16765   0.06305
  -0.66525   0.16765   0.30247
  -0.66525   0.16765   0.06305
  -0.66525   0.16765   0.30247
  -0.42583  -0.07177   0.06305
  -0.42583   0.16765   0.06305
  -0.18641  -0.07177   0.06305
  -0.18641  -0.07177   0.30247
  -0.18641  -0.07177   0.06305
  -0.42583   0.40707   0.06305
  -0.18641   0.16765   0.06305
  -0.18641   0.16765   0.06305
  -0.18641   0.16765   0.06305
   0.05301   0.16765   0.06305
   0.05301  -0.07177   0.06305
   0.05301  -0.07177   0.06305
   0.05301  -0.31119   0.06305
   0.05301   0.16765   0.06305
   0.05301   0.16765   0.30247
   0.29243   0.16765   0.30247
   0.29243   0.16765   0.30247
   0.53185   0.16765   0.30247
   0.53185   0.16765   0.30247
   0.53185  -0.07177   0.30247
   0.53185   0.16765   0.30247
   0.29243   0.16765   0.30247
   0.29243  -0.07177   0.54189
   0.53185  -0.07177   0.54189
   0.77127  -0.07177   0.54189
   1.01070  -0.07177   0.54189
   1.01070  -0.07177   0.78132
   0.77127  -0.07177   0.78132
   0.77127  -0.31119   0.78132
   0.77127  -0.07177   1.02074
   1.01070  -0.07177   1.02074
   1.25012  -0.07177   1.02074
   1.25012  -0.31119   1.26016
   1.01070  -0.07177   1.26016
   1.01070  -0.07177   1.26016
   1.01070   0.16765   1.26016
   1.25012  -0.07177   1.02074
   1.48954  -0.07177   1.02074
   1.25012  -0.07177   1.26016
   1.25012  -0.07177   1.26016
   1.25012  -0.07177   1.49958
   1.25012   0.16765   1.49958
   1.25012   0.16765   1.49958
   1.48954   0.16765   1.26016
   1.48954   0.16765   1.26016
   1.25012   0.16765   1.26016
   1.25012   0.16765   1.26016
   1.25012  -0.07177   1.26016
   1.48954  -0.07177   1.26016
   1.48954  -0.07177   1.26016
   1.48954   0.16765   1.26016
   1.48954   0.16765   1.26016
   1.25012   0.16765   1.26016
   1.25012  -0.07177   1.26016
   1.48954  -0.07177   1.26016
   1.48954   0.16765   1.26016
   1.48954   0.16765   1.02074
   1.25012   0.16765   1.02074
   1.25012   0.16765   1.02074
   1.48954   0.16765   1.02074
   1.25012   0.16765   1.02074
   1.25012   0.16765   1.02074
   1.25012   0.16765   1.02074
   1.25012   0.16765   1.02074
   1.25012   0.16765   0.78132
   1.25012   0.40707   1.02074
   1.25012   0.16765   1.02074
   1.01070   0.16765   0.78132
   1.01070   0.16765   0.78132
   1.25012   0.16765   0.78132
   1.01070   0.16765   0.78132
   1.01070   0.16765   0.54189
   1.01070   0.16765   0.78132
   0.77127   0.16765   0.54189
   0.77127  -0.07177   0.78132
   0.77127   0.16765   0.54189
   0.53185   0.16765   0.30247
   0.53185   0.16765   0.30247
   0.53185   0.16765   0.30247
   0.77127  -0.07177   0.30247
   0.53185  -0.07177   0.54189
   0.29243  -0.07177   0.30247
   0.29243   0.16765   0.30247
   0.05301   0.16765   0.06305
   0.29243   0.16765   0.06305
   0.29243   0.16765  -0.17637
   0.53185  -0.07177  -0.17637
   0.53185  -0.07177  -0.17637
   0.29243  -0.07177  -0.17637
   0.05301   0.16765  -0.41579
  -0.18641   0.16765  -0.17637
   0.05301   0.16765  -0.41579
   0.05301   0.40707  -0.65521
   0.29243   0.40707  -0.41579
   0.29243   0.40707  -0.41579
   0.29243   0.40707  -0.65521
  -0.18641   0.40707  -0.65521
   0.05301   0.40707  -0.89463
   0.05301   0.40707  -0.89463
   0.05301   0.16765  -0.89463
   0.29243  -0.07177  -0.89463
   0.29243   0.16765  -0.89463
   0.05301   0.16765  -0.89463
  -0.18641   0.16765  -0.89463
  -0.18641  -0.07177  -1.13405
  -0.18641  -0.07177  -1.13405
   0.05301  -0.07177  -1.13405
   0.05301  -0.07177  -1.13405
   0.05301  -0.07177  -0.89463
  -0.42583  -0.55061  -0.89463
  -0.66525  -0.07177  -1.13405
  -0.66525   0.16765  -1.13405
  -0.42583   0.16765  -1.13405
  -0.18641   0.16765  -1.13405
  -0.18641  -0.07177  -1.13405
  -0.18641  -0.31119  -0.89463
  -0.42583  -0.31119  -0.89463
  -0.66525  -0.55061  -0.89463
  -0.66525  -0.07177  -0.89463
  -0.42583   0.16765  -0.89463
  -0.66525   0.16765  -0.89463
  -0.42583  -0.07177  -0.89463
  -0.18641  -0.55061  -0.65521
  -0.18641  -0.55061  -0.65521
  -0.18641  -0.55061  -0.65521
  -0.18641  -0.55061  -0.65521
  -0.42583  -0.07177  -0.65521
  -0.42583  -0.07177  -0.65521
  -0.66525  -0.07177  -0.65521
  -0.42583  -0.31119  -0.41579
  -0.42583  -0.55061  -0.41579
  -0.42583  -0.31119  -0.41579
  -0.42583  -0.55061  -0.41579
  -0.42583  -0.55061  -0.41579
  -0.42583  -0.79003  -0.41579
  -0.42583  -0.55061   0.06305
  -0.42583  -0.31119  -0.17637
  -0.42583  -0.31119  -0.17637
  -0.42583  -0.31119  -0.17637
  -0.66525  -0.55061  -0.17637
  -0.66525  -0.55061  -0.17637
  -0.42583  -0.31119  -0.17637
  -0.18641  -0.31119  -0.17637
   0.05301  -0.31119  -0.17637
  -0.18641  -0.55061   0.06305
  -0.18641  -0.55061   0.06305
  -0.66525  -0.31119   0.06305
  -0.66525  -0.31119   0.06305
  -0.66525   0.16765   0.06305
  -0.18641  -0.07177  -0.17637
  -0.18641  -0.07177   0.06305
  -0.42583  -0.31119   0.06305
  -0.42583  -0.31119   0.30247
  -0.42583  -0.07177   0.06305
  -0.42583  -0.07177  -0.17637
  -0.42583  -0.07177   0.30247
  -0.42583  -0.07177   0.06305
  -0.42583  -0.31119   0.06305
  -0.66525  -0.07177  -0.17637
  -0.42583  -0.31119  -0.17637
  -0.42583  -0.07177   0.06305
  -0.42583   0.16765   0.06305
  -0.18641   0.16765  -0.17637
  -0.18641  -0.07177  -0.17637
  -0.42583   0.16765  -0.41579
  -0.42583   0.16765  -0.41579
  -0.66525   0.16765  -0.41579
  -0.90467   0.16765  -0.17637
  -0.66525   0.40707  -0.41579
  -0.42583   0.40707  -0.41579
  -0.18641   0.16765  -0.65521
   0.05301   0.16765  -0.65521
  -0.18641   0.16765  -0.65521
  -0.42583   0.16765  -0.65521
  -0.90467   0.64649  -0.65521
  -0.90467   1.12533  -0.65521
  -0.90467   0.88591  -0.89463
  -0.42583   0.64649  -0.89463
  -0.18641   0.16765  -1.13405
   0.05301   0.16765  -1.13405
  -0.18641  -0.07177  -1.13405
  -0.66525   0.16765  -1.13405
  -0.90467   0.40707  -1.13405
  -0.90467   0.64649  -1.13405
  -0.66525   0.88591  -1.13405
  -0.42583   0.40707  -1.13405
  -0.18641   0.16765  -1.37347
  -0.18641   0.16765  -1.37347
  -0.42583   0.16765  -1.37347
  -0.66525   0.16765  -1.13405
  -0.42583   0.40707  -1.13405
  -0.42583   0.64649  -1.37347
  -0.18641   0.40707  -1.37347
  -0.42583   0.16765  -1.61289
  -0.18641   0.16765  -1.37347
  -0.42583   0.16765  -1.37347
  -0.42583   0.16765  -1.37347
  -0.42583   0.64649  -1.37347
  -0.18641   0.40707  -1.61289
  -0.18641   0.40707  -1.37347
  -0.18641  -0.07177  -1.61289
  -0.18641  -0.07177  -1.37347
  -0.42583  -0.07177  -1.37347
  -0.42583  -0.07177  -1.37347
  -0.42583   0.16765  -1.37347
  -0.42583   0.16765  -1.37347
  -0.18641  -0.07177  -1.37347
   0.05301  -0.07177  -1.13405
  -0.18641  -0.31119  -1.37347
  -0.18641  -0.07177  -1.13405
  -0.66525  -0.07177  -1.37347
  -0.66525  -0.07177  -1.37347
  -0.42583  -0.07177  -1.13405
  -0.18641  -0.31119  -0.89463
  -0.18641  -0.55061  -0.89463
  -0.18641  -0.31119  -0.89463
  -0.18641  -0.31119  -0.89463
  -0.18641  -0.31119  -0.89463
  -0.18641  -0.31119  -0.89463
  -0.18641  -0.07177  -0.65521
  -0.18641  -0.07177  -0.65521
  -0.42583  -0.07177  -0.41579
  -0.42583  -0.31119  -0.41579
  -0.42583  -0.55061  -0.41579
  -0.18641  -0.55061  -0.41579
   0.05301  -0.55061  -0.41579
   0.29243  -0.31119  -0.41579
   0.29243  -0.31119  -0.17637
   0.05301  -0.07177   0.06305
  -0.18641  -0.07177   0.06305
  -0.18641  -0.07177   0.06305
  -0.18641  -0.31119   0.06305
  -0.18641  -0.07177   0.06305
   0.05301  -0.07177   0.30247
   0.05301   0.16765   0.30247
   0.29243  -0.07177   0.30247
   0.05301  -0.07177   0.30247
   0.05301  -0.07177   0.54189
   0.05301  -0.31119   0.54189
  -0.18641  -0.31119   0.54189
   0.05301  -0.07177   0.78132
   0.05301  -0.07177   0.78132
   0.29243   0.16765   1.02074
   0.05301   0.16765   0.78132
   0.05301  -0.07177   1.02074
  -0.18641   0.16765   1.02074
   0.05301   0.16765   1.26016
  -0.18641   0.40707   1.02074
   0.29243   0.16765   1.02074
   0.53185   0.16765   1.02074
   0.53185  -0.31119   1.02074
   0.29243  -0.31119   1.26016
   0.05301   0.16765   1.49958
  -0.18641   0.64649   1.49958
  -0.18641   0.88591   1.26016
   0.29243   0.40707   1.26016
   0.53185  -0.07177   1.26016
   0.53185  -0.31119   1.49958
   0.29243  -0.31119   1.73900
   0.05301  -0.07177   1.49958
  -0.18641   0.16765   1.49958
   0.05301   0.40707   1.73900
   0.05301   0.64649   1.73900
   0.29243   0.64649   1.73900
   0.53185   0.40707   1.49958
   0.53185   0.40707   1.49958
   0.29243   0.16765   1.73900
   0.05301   0.40707   1.97842
   0.05301   0.40707   1.73900
   0.05301   0.64649   1.73900
   0.29243   0.64649   1.73900
   0.53185   0.40707   1.73900
   0.29243   0.16765   1.73900
   0.29243  -0.07177   1.73900
   0.05301   0.16765   1.73900
   0.05301   0.64649   1.73900
   0.05301   0.88591   1.73900
   0.05301   0.88591   1.49958
   0.29243   0.88591   1.73900
   0.53185   0.16765   1.73900
   0.53185   0.16765   1.49958
   0.53185   0.16765   1.49958
   0.53185   0.40707   1.49958
   0.05301   0.64649   1.49958
   0.05301   0.64649   1.49958
   0.29243   0.40707   1.49958
   0.53185  -0.07177   1.26016
   0.53185  -0.07177   1.26016
   0.29243   0.16765   1.26016
   0.05301   0.16765   1.49958
   0.05301   0.16765   1.49958
   0.05301   0.16765   1.26016
   0.05301   0.16765   1.26016
   0.05301  -0.07177   1.26016
   0.05301  -0.07177   1.26016
   0.29243  -0.07177   1.02074
   0.53185  -0.31119   1.02074
   0.53185  -0.31119   1.02074
   0.53185  -0.07177   1.02074
   0.05301   0.40707   1.02074
  -0.18641   0.40707   1.02074
   0.05301   0.40707   0.78132
   0.29243  -0.07177   0.78132
   0.29243  -0.31119   0.78132
   0.29243  -0.55061   0.78132
   0.05301  -0.31119   0.78132
   0.29243  -0.31119   0.78132
   0.53185  -0.31119   0.54189
   0.53185  -0.55061   0.78132
   0.53185  -0.79003   0.78132
   0.29243  -0.79003   0.54189
   0.05301  -0.55061   0.54189
   0.05301  -0.07177   0.54189
   0.29243  -0.07177   0.54189
   0.53185  -0.07177   0.54189
   0.53185  -0.55061   0.54189
   0.29243  -0.79003   0.54189
   0.53185  -0.79003   0.54189
   0.53185  -0.79003   0.54189
   0.29243  -0.31119   0.54189
   0.29243  -0.31119   0.54189
   0.29243  -0.31119   0.54189
   0.29243  -0.55061   0.30247
   0.29243  -0.55061   0.30247
   0.29243  -0.55061   0.06305
   0.53185  -0.31119   0.30247
   0.29243  -0.31119   0.30247
   0.29243  -0.55061   0.06305
   0.05301  -0.55061   0.06305
   0.05301  -0.55061   0.06305
   0.05301  -0.31119   0.06305
   0.05301  -0.31119   0.30247
   0.29243  -0.31119   0.30247
   0.29243  -0.07177   0.06305
   0.05301  -0.31119  -0.17637
   0.05301  -0.31119   0.06305
  -0.18641  -0.31119   0.06305
  -0.18641  -0.31119   0.06305
  -0.18641  -0.55061   0.06305
   0.05301  -0.55061   0.06305
  -0.18641  -0.55061   0.06305
  -0.18641  -0.31119   0.06305
  -0.18641  -0.07177  -0.17637
  -0.18641   0.16765  -0.41579
  -0.18641  -0.07177  -0.17637
  -0.18641   0.16765   0.06305
  -0.18641  -0.07177  -0.17637
  -0.18641  -0.31119   0.06305
  -0.18641  -0.07177  -0.17637
   0.05301   0.16765  -0.17637
   0.05301   0.40707  -0.17637
   0.05301   0.16765  -0.17637
  -0.18641   0.16765  -0.17637
  -0.42583   0.16765  -0.17637
  -0.42583   0.40707  -0.17637
  -0.42583   0.64649  -0.17637
  -0.18641   0.40707  -0.41579
   0.05301   0.40707  -0.41579
   0.05301   0.16765  -0.41579
   0.05301  -0.07177  -0.17637
  -0.18641  -0.31119  -0.17637
  -0.18641  -0.07177  -0.41579
  -0.42583   0.40707  -0.41579
  -0.42583   0.64649  -0.41579
  -0.18641   0.64649  -0.65521
  -0.18641   0.40707  -0.65521
   0.05301  -0.07177  -0.65521
   0.05301  -0.31119  -0.65521
   0.05301  -0.07177  -0.65521
   0.05301   0.16765  -0.65521
   0.05301   0.16765  -0.89463
  -0.18641   0.40707  -0.89463
  -0.18641   0.16765  -0.89463
  -0.18641  -0.07177  -0.89463
  -0.18641   0.16765  -0.89463
  -0.42583   0.16765  -0.89463
  -0.18641   0.16765  -0.89463
  -0.18641   0.16765  -1.13405
   0.05301  -0.07177  -1.13405
   0.05301  -0.07177  -1.13405
   0.05301  -0.07177  -1.13405
   0.29243  -0.07177  -1.13405
   0.29243  -0.07177  -1.13405
   0.05301   0.16765  -1.13405
  -0.18641   0.40707  -1.13405
  -0.18641   0.64649  -1.37347
   0.05301   0.40707  -1.61289
   0.29243   0.40707  -1.61289
   0.29243   0.16765  -1.61289
   0.29243  -0.31119  -1.37347
   0.05301  -0.31119  -1.37347
   0.05301  -0.55061  -1.37347
   0.05301  -0.07177  -1.61289
   0.05301   0.16765  -1.61289
   0.29243   0.16765  -1.61289
   0.29243  -0.07177  -1.61289
   0.05301  -0.07177  -1.61289
   0.05301  -0.07177  -1.61289
   0.05301   0.16765  -1.61289
   0.05301   0.40707  -1.61289
   0.29243   0.40707  -1.85231
   0.29243  -0.07177  -1.61289
   0.29243  -0.07177  -1.85231
   0.05301  -0.31119  -1.61289
  -0.18641   0.16765  -1.61289
   0.05301   0.16765  -1.61289
   0.05301   0.40707  -1.61289
   0.05301   0.40707  -1.61289
   0.29243   0.16765  -1.61289
   0.05301  -0.07177  -1.61289
   0.05301  -0.07177  -1.37347
   0.05301   0.16765  -1.61289
   0.05301   0.16765  -1.61289
   0.05301   0.64649  -1.61289
   0.29243   0.40707  -1.61289
   0.29243   0.16765  -1.61289
   0.29243  -0.31119  -1.61289
