********************************************************************************
               CENTRO DE INSTRUMENTACION Y REGISTRO SISMICO  A.C.  
                       Coordinacion de Servicios Tecnicos
     Anaxagoras 814, Col. Narvarte, Benito Juarez, C.P. 03020 Mexico, D.F.
            Tels. 687 45 42/ 687 45  82             Fax. 669 25 12
********************************************************************************
ARCHIVO ESTANDAR DE ACELERACION:
VERSION DEL FORMATO                    : 2.0
NOMBRE DEL ARCHIVO                     : BA499510.091
FECHA Y HORA DE CREACION               : 19 de marzo de 1996/10:23
REF. CATALOGO ACELEROGRAMAS, SMIS 1995 : REGISTRO No.     /PAG.


================================================================================
DATOS DE LA ESTACION:
NOMBRE DE LA ESTACION                  : BUENOS AIRES
CLAVE DE LA ESTACION                   : BA49
LOCALIZACION DE LA ESTACION            : ESCUELA SECUNDARIA 102, DOCTOR MARQUEZ
                                       : Y EJE CENTRAL, BUENOS AIRES.
                                       :
                                       :
                                       :
COORDENADAS DE LA ESTACION             : 19.410 LAT. N 
                                       : 99.145 LONG. W 
ALTITUD (msnm)                         : 2233
TIPO DE SUELO                          : TERRENO BLANDO, MATERIAL COMPRESIBLE
                                       : (ARCILLAS)
                                       : 
INSTITUCION RESPONSABLE                : CIRES 
                                       :

================================================================================
DATOS DEL ACELEROGRAFO:
MODELO DEL ACELEROGRAFO                : SSA-1
NUMERO DE SERIE DEL ACELEROGRAFO       : 176
NUMERO DE CANALES                      : 3
ORIENTACION C1-C6 (rumbo;orientacion)  : /N00E/+V/N90E
ORIENTACION C7-C12 (rumbo;orientacion) :
VEL. DE MUESTREO, C1-C6 (muestras/s)   : /200/200/200
VEL. DE MUESTREO, C7-C12 (muestras/s)  :
ESC. COMPLETA DE SENSORES, C1-C6, (g)  : /2/2/2
ESC. COMPLETA DE SENSORES, C7-C12, (g) :
FREC. NAT. DE SENSORES, C1-C6, (Hz)    : /50/50/50
FREC. NAT. DE SENSORES, C7-C12, (Hz)   :
AMORTIGUAMIENTO DE SENSORES, C1-C6     : /0.700/0.700/0.700
AMORTIGUAMIENTO DE SENSORES, C7-C12    :
INTERVALO DE MUESTREO, C1-C6, (s)      : /0.005/0.005/0.005
INTERVALO DE MUESTREO, C7-C12, (s)     :
UMBRAL DE DISPARO, C1-C6, (Gal)        : /2/2/2
UMBRAL DE DISPARO, C7-C12, (Gal)       :
MEMORIA DE PREEVENTO (s)               : 15
TIEMPO DE POSEVENTO (s)                : 60


================================================================================
DATOS DEL SISMO:
FECHA DEL SISMO (GMT)                  : 09/OCT/95
HORA EPICENTRO (GMT)                   : 15:35:51.0
MAGNITUD(ES)                           : /Mc=6.5/Mb=7.3/Me=7.5
COORDENADAS DEL EPICENTRO              : 18.74
                                       : 104.67
PROFUNDIDAD FOCAL (km)                 : 5
FUENTE DE LOS DATOS EPICENTRALES       : INSTITUTO DE INGENIERIA UNAM
                                       : INSTITUTO DE GEOFISICA, UNAM

================================================================================
DATOS DE ESTE REGISTRO:
HORA DE LA PRIMERA MUESTRA (GMT)       : 15:38:11.00
EXACTITUD DEL TIEMPO (s)               :     
DURACION DEL REGISTRO (s), C1-C6       : /360.96/360.96/360.96
DURACION DEL REGISTRO (s), C7-C12      :
NUM. TOTAL DE MUESTRAS, C1-C6          : /72192/72192/72192
NUM. TOTAL DE MUESTRAS, C7-C12         :
ACEL. MAX. (Gal), C1-C6                : /22.90806/7.41758/15.99498
ACEL. MAX., C1-C6, EN LA MUESTRA       :
ACEL. MAX. (Gal), C7-C12               :
ACEL. MAX., C7-C12, EN LA MUESTRA      :
UNIDADES DE LOS DATOS                  : Gal (cm/s/s)
FACTOR DE DECIMACION                   : 1
FORMATO DATOS (FORTRAN,10 campos/dato) : 3F10.5


================================================================================
CALIDAD DEL ACELEROGRAMA:
REGISTRO DIGITAL COMPLETO, CARECE DE TIEMPO ABSOLUTO.


================================================================================
COMENTARIOS:
             EL EQUIPO SE ENCONTRABA CON GANANCIAS DE 4 EN TODOS LOS EJES,
             POR LO QUE LAS ESCALAS COMPLETAS ERAN DE 1/2 G.












================================================================================
DATOS DE ACELERACION:
---------+---------+---------+---------+---------+---------+---------+---------+
   CANAL-1   CANAL-2   CANAL-3   CANAL-4   CANAL-5   CANAL-6   CANAL-7   CANAL-8
      N00E        +V      N90E
---------+---------+---------+---------+---------+---------+---------+---------+
[...]
  14.93194  -1.20242  -3.16502
  15.17194  -1.20242  -3.16502
  15.17194  -1.20242  -3.16502
  15.41194  -1.20242  -3.16502
  15.65194  -1.20242  -2.92502
  15.89194  -1.20242  -2.92502
  16.13194  -1.20242  -2.92502
  16.13194  -1.20242  -2.92502
  16.37194  -1.20242  -2.92502
  16.60194  -1.20242  -2.92502
  16.60194  -1.20242  -2.92502
  16.84194  -1.20242  -2.68502
  16.84194  -0.96242  -2.92502
  17.08194  -0.96242  -2.68502
  17.32194  -0.96242  -2.68502
  17.56194  -0.96242  -2.68502
  17.56194  -0.72242  -2.68502
  17.80194  -0.72242  -2.68502
  17.80194  -0.72242  -2.68502
  18.04194  -0.72242  -2.68502
  18.28194  -0.48242  -2.44502
  18.28194  -0.48242  -2.44502
  18.52194  -0.48242  -2.44502
  18.52194  -0.48242  -2.44502
  18.76194  -0.24242  -2.44502
  18.76194  -0.24242  -2.44502
  19.00194  -0.24242  -2.44502
  19.00194  -0.00242  -2.44502
  19.00194  -0.00242  -2.44502
  19.24194  -0.00242  -2.20502
  19.24194   0.23758  -2.20502
  19.24194   0.23758  -2.20502
  19.48194   0.23758  -2.20502
  19.48194   0.47758  -2.20502
  19.48194   0.47758  -2.20502
  19.48194   0.71758  -2.20502
  19.72194   0.71758  -2.20502
  19.72194   0.71758  -2.20502
  19.72194   0.95758  -2.20502
  19.72194   0.71758  -2.20502
  19.72194   0.95758  -2.20502
  19.72194   0.95758  -1.96502
  19.72194   1.19758  -1.96502
  19.96194   1.19758  -1.96502
  19.96194   1.19758  -1.96502
  19.96194   1.19758  -1.96502
  19.96194   1.19758  -1.96502
  19.96194   1.19758  -1.96502
  19.96194   1.19758  -1.96502
  19.96194   1.43758  -1.96502
  19.96194   1.43758  -1.96502
  19.96194   1.43758  -1.96502
  19.96194   1.43758  -1.96502
  19.96194   1.67758  -1.96502
  19.96194   1.67758  -1.96502
  19.72194   1.67758  -1.96502
  19.72194   1.67758  -1.96502
  19.72194   1.67758  -1.96502
  19.72194   1.67758  -1.96502
  19.72194   1.67758  -2.20502
  19.72194   1.67758  -2.20502
  19.72194   1.91758  -2.20502
  19.72194   1.67758  -2.20502
  19.48194   1.91758  -2.20502
  19.48194   1.91758  -2.20502
  19.48194   1.91758  -2.20502
  19.24194   1.91758  -2.20502
  19.24194   1.91758  -2.20502
  19.24194   1.91758  -2.20502
  19.00194   1.91758  -2.20502
  19.00194   1.91758  -2.44502
  18.76194   1.91758  -2.44502
  18.76194   1.91758  -2.44502
  18.76194   1.91758  -2.44502
  18.52194   2.15758  -2.44502
  18.52194   2.15758  -2.44502
  18.28194   2.15758  -2.68502
  18.28194   2.15758  -2.68502
  18.04194   2.15758  -2.68502
  18.04194   2.15758  -2.68502
  18.04194   2.15758  -2.92502
  17.80194   2.15758  -2.92502
  17.80194   2.15758  -2.92502
  17.56194   2.15758  -2.92502
  17.32194   2.15758  -3.16502
  17.08194   2.15758  -3.16502
  17.08194   2.15758  -3.16502
  17.08194   2.15758  -3.16502
  16.84194   1.91758  -3.16502
  16.60194   2.15758  -3.16502
  16.60194   2.15758  -3.16502
  16.37194   2.15758  -3.16502
  16.37194   1.91758  -3.40502
  16.13194   1.91758  -3.40502
  16.13194   2.15758  -3.64502
  15.89194   1.91758  -3.64502
  15.65194   1.91758  -3.64502
  15.65194   1.91758  -3.64502
  15.41194   1.91758  -3.64502
  15.17194   1.91758  -3.88502
  14.93194   1.91758  -3.88502
  14.93194   1.91758  -3.88502
  14.69194   1.91758  -3.88502
  14.45194   1.91758  -4.12502
  14.45194   1.91758  -4.12502
  14.21194   1.91758  -4.12502
  13.97194   1.91758  -4.12502
  13.73194   1.91758  -4.12502
  13.49194   1.67758  -4.12502
  13.49194   1.67758  -4.36502
  13.25194   1.67758  -4.36502
  13.01194   1.43758  -4.36502
  13.01194   1.43758  -4.36502
  12.77194   1.43758  -4.36502
  12.53194   1.43758  -4.36502
  12.29194   1.19758  -4.36502
  12.29194   1.19758  -4.60502
  12.05194   1.19758  -4.60502
  11.81194   1.19758  -4.60502
  11.81194   0.95758  -4.60502
  11.58194   0.95758  -4.60502
  11.34194   0.95758  -4.60502
  11.10194   0.71758  -4.60502
  11.10194   0.71758  -4.60502
  10.86194   0.71758  -4.60502
  10.62194   0.71758  -4.60502
  10.38194   0.47758  -4.60502
  10.14194   0.47758  -4.60502
  10.14194   0.23758  -4.60502
   9.90194   0.23758  -4.60502
   9.66194   0.23758  -4.60502
   9.42194   0.23758  -4.60502
   9.42194   0.23758  -4.60502
   9.18194   0.23758  -4.60502
   8.94194  -0.00242  -4.60502
   8.94194  -0.00242  -4.60502
   8.70194  -0.00242  -4.36502
   8.46194  -0.00242  -4.36502
   8.46194  -0.24242  -4.36502
   8.22194  -0.00242  -4.36502
   7.98194  -0.24242  -4.36502
   7.74194  -0.24242  -4.12502
   7.74194  -0.24242  -4.12502
   7.50194  -0.24242  -4.12502
   7.26194  -0.24242  -4.12502
   7.26194  -0.24242  -4.12502
   7.02194  -0.24242  -3.88502
   6.79194  -0.48242  -3.88502
   6.79194  -0.48242  -3.64502
   6.55194  -0.24242  -3.64502
   6.31194  -0.48242  -3.64502
   6.31194  -0.48242  -3.40502
   6.07194  -0.48242  -3.40502
   5.83194  -0.48242  -3.16502
   5.83194  -0.48242  -3.16502
   5.59194  -0.72242  -3.16502
   5.35194  -0.72242  -2.92502
   5.35194  -0.72242  -2.92502
   5.11194  -0.72242  -2.68502
   4.87194  -0.72242  -2.68502
   4.87194  -0.72242  -2.44502
   4.63194  -0.72242  -2.44502
   4.63194  -0.72242  -2.20502
   4.39194  -0.72242  -2.20502
   4.15194  -0.72242  -1.96502
   4.15194  -0.72242  -1.96502
   3.91194  -0.72242  -1.72502
   3.67194  -0.72242  -1.72502
   3.67194  -0.96242  -1.72502
   3.43194  -0.96242  -1.48502
   3.43194  -0.96242  -1.24502
   3.19194  -0.96242  -1.24502
   2.95194  -0.96242  -1.00502
   2.95194  -0.96242  -1.00502
   2.71194  -1.20242  -0.76502
   2.47194  -0.96242  -0.76502
   2.47194  -1.20242  -0.76502
   2.23194  -0.96242  -0.52502
   2.00194  -0.96242  -0.52502
   1.76194  -0.96242  -0.29502
   1.76194  -1.20242  -0.29502
   1.52194  -0.96242  -0.05502
   1.28194  -0.96242   0.18498
   1.28194  -1.20242   0.18498
   1.04194  -1.20242   0.42498
   0.80194  -0.96242   0.42498
   0.80194  -0.96242   0.66498
   0.56194  -1.20242   0.66498
   0.56194  -1.20242   0.90498
   0.32194  -1.20242   0.90498
   0.08194  -1.20242   1.14498
  -0.15806  -1.20242   1.38498
  -0.15806  -1.20242   1.62498
  -0.39806  -1.20242   1.62498
  -0.63806  -1.20242   1.86498
  -0.63806  -1.20242   1.86498
  -0.87806  -0.96242   1.86498
  -0.87806  -0.96242   2.10498
  -1.11806  -0.96242   2.10498
  -1.35806  -0.96242   2.34498
  -1.35806  -0.96242   2.34498
  -1.59806  -0.96242   2.58498
  -1.83806  -0.96242   2.58498
  -2.07806  -0.96242   2.82498
  -2.07806  -0.96242   2.82498
  -2.31806  -0.96242   3.06498
  -2.55806  -0.96242   3.06498
  -2.79806  -0.72242   3.30498
  -3.02806  -0.96242   3.30498
  -3.02806  -0.96242   3.54498
  -3.26806  -0.72242   3.54498
  -3.26806  -0.72242   3.78498
  -3.50806  -0.72242   3.78498
  -3.74806  -0.72242   4.02498
  -3.98806  -0.72242   4.02498
  -3.98806  -0.72242   4.26498
  -4.22806  -0.72242   4.26498
  -4.46806  -0.72242   4.49498
  -4.70806  -0.72242   4.49498
  -4.70806  -0.72242   4.49498
  -4.94806  -0.48242   4.73498
  -5.18806  -0.48242   4.97498
  -5.42806  -0.48242   4.97498
  -5.42806  -0.48242   5.21498
  -5.66806  -0.48242   5.21498
  -5.90806  -0.48242   5.45498
  -5.90806  -0.48242   5.45498
  -6.14806  -0.48242   5.45498
  -6.14806  -0.48242   5.45498
  -6.38806  -0.24242   5.69498
  -6.62806  -0.48242   5.69498
  -6.86806  -0.48242   5.69498
  -6.86806  -0.48242   5.93498
  -7.10806  -0.48242   5.93498
  -7.34806  -0.48242   5.93498
  -7.34806  -0.48242   6.17498
  -7.58806  -0.48242   6.17498
  -7.58806  -0.48242   6.17498
  -7.81806  -0.48242   6.17498
  -8.05806  -0.48242   6.17498
  -8.05806  -0.48242   6.17498
  -8.29806  -0.48242   6.17498
  -8.53806  -0.48242   6.17498
  -8.77806  -0.48242   6.17498
  -8.77806  -0.48242   6.17498
  -9.01806  -0.48242   6.17498
  -9.01806  -0.48242   6.17498
  -9.25806  -0.48242   6.41498
  -9.49806  -0.48242   6.17498
  -9.73806  -0.72242   6.41498
  -9.73806  -0.72242   6.17498
  -9.97806  -0.72242   6.17498
 -10.21806  -0.72242   6.17498
 -10.21806  -0.72242   6.17498
 -10.45806  -0.72242   6.17498
 -10.69806  -0.72242   6.17498
 -10.69806  -0.72242   6.17498
 -10.93806  -0.72242   6.17498
 -11.17806  -0.72242   5.93498
 -11.17806  -0.72242   6.17498
 -11.41806  -0.72242   5.93498
 -11.65806  -0.72242   5.93498
 -11.65806  -0.72242   5.93498
 -11.89806  -0.72242   5.93498
 -12.13806  -0.72242   5.93498
 -12.13806  -0.48242   5.93498
 -12.37806  -0.48242   5.69498
 -12.60806  -0.48242   5.69498
 -12.84806  -0.48242   5.69498
 -12.84806  -0.48242   5.69498
 -13.08806  -0.48242   5.69498
 -13.32806  -0.48242   5.69498
 -13.56806  -0.48242   5.69498
 -13.80806  -0.48242   5.69498
 -13.80806  -0.48242   5.45498
 -14.04806  -0.48242   5.45498
 -14.28806  -0.48242   5.45498
 -14.52806  -0.24242   5.45498
 -14.52806  -0.24242   5.21498
 -14.76806  -0.24242   5.21498
 -15.00806  -0.24242   5.21498
 -15.24806  -0.24242   5.21498
 -15.48806  -0.24242   5.21498
 -15.72806  -0.24242   4.97498
 -15.72806  -0.24242   4.97498
 -15.96806  -0.24242   4.97498
 -16.20806  -0.24242   4.97498
 -16.44806  -0.24242   4.97498
 -16.68806  -0.24242   4.97498
 -16.68806  -0.00242   4.97498
 -17.16806  -0.00242   4.73498
 -17.16806  -0.00242   4.73498
 -17.39806  -0.00242   4.49498
 -17.63806  -0.00242   4.49498
 -17.63806  -0.00242   4.49498
 -17.87806  -0.00242   4.49498
 -18.11806   0.23758   4.49498
 -18.35806  -0.00242   4.49498
 -18.35806   0.23758   4.26498
 -18.59806   0.23758   4.26498
 -18.83806   0.23758   4.26498
 -19.07806   0.23758   4.26498
 -19.31806   0.23758   4.02498
 -19.31806   0.23758   4.02498
 -19.55806   0.23758   3.78498
 -19.55806   0.23758   3.78498
 -19.79806   0.23758   3.78498
 -19.79806   0.23758   3.54498
 -20.03806   0.23758   3.54498
 -20.27806   0.23758   3.54498
 -20.27806   0.23758   3.30498
 -20.51806   0.47758   3.30498
 -20.51806   0.23758   3.06498
 -20.75806   0.23758   3.06498
 -20.75806   0.23758   2.82498
 -20.75806   0.23758   2.82498
 -20.99806   0.47758   2.58498
 -20.99806   0.23758   2.58498
 -21.23806   0.23758   2.58498
 -21.23806   0.23758   2.34498
 -21.23806   0.23758   2.34498
 -21.47806   0.23758   2.10498
 -21.47806  -0.00242   2.10498
 -21.71806   0.23758   1.86498
 -21.71806  -0.00242   1.86498
 -21.71806  -0.00242   1.86498
 -21.95806  -0.00242   1.62498
 -21.95806  -0.00242   1.38498
 -22.18806  -0.00242   1.38498
 -22.18806  -0.00242   1.14498
 -22.18806  -0.00242   1.14498
 -22.18806  -0.00242   0.90498
 -22.18806  -0.00242   0.90498
 -22.42806  -0.00242   0.90498
 -22.42806  -0.00242   0.66498
 -22.42806  -0.00242   0.66498
 -22.42806  -0.00242   0.66498
 -22.66806  -0.00242   0.42498
 -22.66806  -0.00242   0.42498
 -22.66806  -0.00242   0.18498
 -22.66806  -0.00242   0.18498
 -22.66806  -0.00242   0.18498
 -22.66806  -0.00242  -0.05502
 -22.66806  -0.00242  -0.29502
 -22.66806  -0.24242  -0.05502
 -22.90806  -0.00242  -0.29502
 -22.90806  -0.24242  -0.29502
 -22.90806  -0.24242  -0.29502
 -22.90806  -0.24242  -0.52502
 -22.66806  -0.24242  -0.52502
 -22.66806  -0.24242  -0.52502
 -22.66806  -0.24242  -0.76502
 -22.66806  -0.24242  -1.00502
 -22.66806  -0.24242  -1.00502
 -22.66806  -0.24242  -1.00502
 -22.66806  -0.48242  -1.00502
 -22.66806  -0.48242  -1.24502
 -22.66806  -0.48242  -1.24502
 -22.42806  -0.48242  -1.24502
 -22.42806  -0.72242  -1.48502
 -22.42806  -0.48242  -1.48502
 -22.18806  -0.72242  -1.48502
 -22.18806  -0.72242  -1.72502
 -22.18806  -0.72242  -1.72502
 -21.95806  -0.72242  -1.72502
 -21.95806  -0.72242  -1.96502
 -21.71806  -0.72242  -1.96502
 -21.71806  -0.96242  -1.96502
 -21.47806  -0.96242  -1.96502
 -21.47806  -0.96242  -2.20502
 -21.23806  -0.96242  -2.20502
 -21.23806  -0.96242  -2.20502
 -20.99806  -1.20242  -2.44502
 -20.99806  -1.20242  -2.44502
 -20.99806  -1.20242  -2.44502
 -20.75806  -1.20242  -2.68502
 -20.51806  -1.20242  -2.68502
 -20.51806  -1.20242  -2.68502
 -20.27806  -1.20242  -2.68502
 -20.27806  -1.20242  -2.68502
 -20.03806  -1.20242  -2.92502
 -19.79806  -1.20242  -2.92502
 -19.79806  -1.20242  -2.92502
 -19.55806  -1.20242  -3.16502
 -19.31806  -1.20242  -2.92502
 -19.31806  -1.20242  -3.16502
 -19.07806  -1.20242  -3.16502
 -18.83806  -1.20242  -3.16502
 -18.83806  -1.20242  -3.16502
 -18.59806  -1.20242  -3.40502
 -18.35806  -1.20242  -3.40502
 -18.11806  -1.20242  -3.40502
 -17.87806  -1.20242  -3.40502
 -17.63806  -1.20242  -3.64502
 -17.39806  -1.20242  -3.64502
 -17.39806  -1.20242  -3.64502
 -17.16806  -1.20242  -3.64502
 -16.92806  -0.96242  -3.88502
 -16.68806  -0.96242  -3.88502
 -16.44806  -0.96242  -3.88502
 -16.20806  -0.96242  -3.88502
 -15.96806  -0.96242  -3.88502
 -15.72806  -0.96242  -4.12502
 -15.48806  -0.96242  -4.12502
 -15.24806  -0.96242  -4.12502
 -15.00806  -0.96242  -4.12502
 -14.76806  -0.96242  -4.12502
 -14.52806  -0.96242  -4.12502
 -14.28806  -0.96242  -4.12502
 -14.04806  -0.72242  -4.12502
 -13.80806  -0.72242  -4.36502
 -13.32806  -0.72242  -4.36502
 -13.08806  -0.72242  -4.36502
 -12.84806  -0.72242  -4.36502
 -12.60806  -0.72242  -4.36502
 -12.37806  -0.72242  -4.36502
 -12.13806  -0.72242  -4.36502
 -11.65806  -0.72242  -4.36502
 -11.41806  -0.72242  -4.36502
 -11.17806  -0.72242  -4.36502
 -10.93806  -0.72242  -4.60502
 -10.69806  -0.72242  -4.60502
 -10.21806  -0.72242  -4.60502
  -9.97806  -0.72242  -4.60502
  -9.73806  -0.72242  -4.60502
  -9.49806  -0.72242  -4.60502
  -9.25806  -0.72242  -4.60502
  -9.01806  -0.72242  -4.60502
  -8.53806  -0.72242  -4.60502
  -8.29806  -0.72242  -4.60502
  -8.05806  -0.72242  -4.60502
  -7.81806  -0.72242  -4.60502
  -7.34806  -0.72242  -4.60502
  -7.10806  -0.72242  -4.60502
  -6.86806  -0.72242  -4.60502
  -6.62806  -0.72242  -4.60502
  -6.38806  -0.72242  -4.60502
  -5.90806  -0.72242  -4.60502
  -5.66806  -0.72242  -4.60502
  -5.42806  -0.72242  -4.60502
  -5.18806  -0.72242  -4.60502
  -4.70806  -0.72242  -4.60502
  -4.46806  -0.72242  -4.60502
  -4.22806  -0.72242  -4.60502
  -3.98806  -0.72242  -4.60502
  -3.50806  -0.72242  -4.60502
  -3.26806  -0.72242  -4.60502
  -3.02806  -0.72242  -4.60502
  -2.79806  -0.72242  -4.60502
  -2.55806  -0.72242  -4.60502
  -2.07806  -0.72242  -4.36502
  -1.83806  -0.48242  -4.36502
  -1.59806  -0.48242  -4.36502
  -1.35806  -0.48242  -4.36502
  -1.11806  -0.48242  -4.36502
  -0.87806  -0.48242  -4.36502
  -0.39806  -0.24242  -4.36502
  -0.15806  -0.24242  -4.12502
   0.08194  -0.24242  -4.36502
   0.32194  -0.24242  -4.12502
   0.56194  -0.24242  -4.12502
   1.04194  -0.24242  -4.12502
   1.28194  -0.24242  -4.12502
   1.52194  -0.00242  -4.12502
   1.76194  -0.00242  -3.88502
   2.23194  -0.00242  -3.88502
   2.47194  -0.00242  -3.88502
   2.71194  -0.00242  -3.88502
   2.95194  -0.00242  -3.88502
   3.19194   0.23758  -3.88502
   3.43194   0.23758  -3.64502
   3.67194   0.23758  -3.64502
   3.91194   0.23758  -3.64502
   4.39194   0.23758  -3.64502
   4.63194   0.23758  -3.40502
   4.87194   0.23758  -3.40502
   5.11194   0.23758  -3.40502
   5.35194   0.47758  -3.40502
   5.59194   0.47758  -3.40502
   5.83194   0.47758  -3.40502
   6.07194   0.47758  -3.16502
   6.31194   0.47758  -3.16502
   6.55194   0.71758  -3.16502
   6.79194   0.71758  -3.16502
   7.02194   0.71758  -3.16502
   7.02194   0.71758  -3.16502
   7.50194   0.71758  -3.16502
   7.74194   0.71758  -3.16502
   7.74194   0.95758  -2.92502
   7.98194   0.95758  -2.92502
   8.22194   0.95758  -2.92502
   8.46194   0.95758  -2.92502
   8.70194   0.95758  -2.92502
   8.94194   0.95758  -2.92502
