********************************************************************************
               CENTRO DE INSTRUMENTACION Y REGISTRO SISMICO  A.C.  
                       Coordinacion de Servicios Tecnicos
     Anaxagoras 814, Col. Narvarte, Benito Juarez, C.P. 03020 Mexico, D.F.
            Tels. 667 45 42/ 687 45  82             Fax. 669 25 12
********************************************************************************
ARCHIVO ESTANDAR DE ACELERACION:
VERSION DEL FORMATO                    : 2.0
NOMBRE DEL ARCHIVO                     : BA499712.221
FECHA Y HORA DE CREACION               : 18/MAR/98, 13:30
REF. CATALOGO ACELEROGRAMAS, SMIS 1996 : REGISTRO No.     /PAG.


================================================================================
DATOS DE LA ESTACION:
NOMBRE DE LA ESTACION                  : BUENOS AIRES
CLAVE DE LA ESTACION                   : BA49
LOCALIZACION DE LA ESTACION            : ESCUELA SECUNDARIA 102, DOCTOR MARQUEZ
                                       : Y EJE CENTRAL, BUENOS AIRES.
                                       :
                                       :
                                       :
COORDENADAS DE LA ESTACION             : 19.410 LAT. N 
                                       : 99.145 LONG. W 
ALTITUD (msnm)                         : 2233
TIPO DE SUELO                          : TERRENO BLANDO, MATERIAL COMPRESIBLE
                                       : (ARCILLAS)
                                       : 
INSTITUCION RESPONSABLE                : CIRES 
                                       :

================================================================================
DATOS DEL ACELEROGRAFO:
MODELO DEL ACELEROGRAFO                : SSA-1
NUMERO DE SERIE DEL ACELEROGRAFO       : 176
NUMERO DE CANALES                      : 3
ORIENTACION C1-C6 (rumbo;orientacion)  : /N00E/+V/N90E
ORIENTACION C7-C12 (rumbo;orientacion) :
VEL. DE MUESTREO, C1-C6 (muestras/s)   : /200/200/200
VEL. DE MUESTREO, C7-C12 (muestras/s)  :
ESC. COMPLETA DE SENSORES, C1-C6, (g)  : /2/2/2
ESC. COMPLETA DE SENSORES, C7-C12, (g) :
FREC. NAT. DE SENSORES, C1-C6, (Hz)    : /52.99/52.03/52.99
FREC. NAT. DE SENSORES, C7-C12, (Hz)   :
AMORTIGUAMIENTO DE SENSORES, C1-C6     : /.5589/.5469/.6096
AMORTIGUAMIENTO DE SENSORES, C7-C12    :
INTERVALO DE MUESTREO, C1-C6, (s)      : /0.005/0.005/0.005
INTERVALO DE MUESTREO, C7-C12, (s)     :
UMBRAL DE DISPARO, C1-C6, (Gal)        : /2/2/2
UMBRAL DE DISPARO, C7-C12, (Gal)       :
MEMORIA DE PREEVENTO (s)               : 15
TIEMPO DE POSEVENTO (s)                : 60


================================================================================
DATOS DEL SISMO:
FECHA DEL SISMO (GMT)                  : 22/DIC/97
HORA EPICENTRO (GMT)                   : 05:22:07:8
MAGNITUD(ES)                           : /Ms=5.0
COORDENADAS DEL EPICENTRO              : 17.1 LAT. N
                                       : 101.2 LONG. W
PROFUNDIDAD FOCAL (km)                 : 5.0
FUENTE DE LOS DATOS EPICENTRALES       : SSN
                                       : INSTITUTO DE GEOFISICA, UNAM

================================================================================
DATOS DE ESTE REGISTRO:
HORA DE LA PRIMERA MUESTRA (GMT)       : 05:23:43.00
EXACTITUD DEL TIEMPO (s)               :     
DURACION DEL REGISTRO (s), C1-C6       : /130.56/130.56/130.56
DURACION DEL REGISTRO (s), C7-C12      :
NUM. TOTAL DE MUESTRAS, C1-C6          : /26112/26112/26112
NUM. TOTAL DE MUESTRAS, C7-C12         :
ACEL. MAX. (Gal), C1-C6                : /3.06597/1.00415/2.28463
ACEL. MAX., C1-C6, EN LA MUESTRA       :
ACEL. MAX. (Gal), C7-C12               :
ACEL. MAX., C7-C12, EN LA MUESTRA      :
UNIDADES DE LOS DATOS                  : Gal (cm/s/s)
FACTOR DE DECIMACION                   : 1
FORMATO DATOS (FORTRAN,10 campos/dato) : 3F10.5


================================================================================
CALIDAD DEL ACELEROGRAMA:
REGISTRO DIGITAL COMPLETO, CARECE DE TIEMPO ABSOLUTO.


================================================================================
COMENTARIOS:














================================================================================
DATOS DE ACELERACION:
---------+---------+---------+---------+---------+---------+---------+---------+
   CANAL-1   CANAL-2   CANAL-3   CANAL-4   CANAL-5   CANAL-6   CANAL-7   CANAL-8
      N00E        +V      N90E
---------+---------+---------+---------+---------+---------+---------+---------+
[...]
  -0.04403  -0.04415  -0.60463
  -0.04403  -0.04415  -0.84463
  -0.04403  -0.04415  -0.60463
  -0.04403  -0.04415  -0.60463
  -0.04403  -0.04415  -0.60463
  -0.04403  -0.04415  -0.60463
  -0.04403  -0.04415  -0.36463
  -0.04403  -0.04415  -0.36463
  -0.04403  -0.04415  -0.36463
  -0.04403  -0.04415  -0.36463
  -0.04403  -0.04415  -0.36463
  -0.04403  -0.04415  -0.12463
  -0.04403  -0.04415  -0.12463
  -0.04403  -0.04415  -0.12463
  -0.04403  -0.04415  -0.12463
  -0.04403  -0.04415  -0.12463
  -0.04403  -0.04415  -0.12463
  -0.28403  -0.04415   0.11537
  -0.28403  -0.04415   0.11537
  -0.28403  -0.04415   0.11537
  -0.28403   0.19585   0.11537
  -0.28403  -0.04415   0.11537
  -0.28403  -0.04415   0.11537
  -0.28403  -0.04415   0.35537
  -0.28403  -0.04415   0.11537
  -0.28403  -0.04415   0.35537
  -0.28403  -0.04415   0.35537
  -0.52403  -0.04415   0.35537
  -0.52403  -0.04415   0.35537
  -0.52403  -0.04415   0.35537
  -0.52403  -0.04415   0.35537
  -0.52403  -0.04415   0.35537
  -0.52403  -0.04415   0.59537
  -0.52403  -0.04415   0.59537
  -0.52403   0.19585   0.59537
  -0.52403  -0.04415   0.35537
  -0.52403  -0.04415   0.59537
  -0.52403   0.19585   0.35537
  -0.76403   0.19585   0.59537
  -0.52403   0.19585   0.59537
  -0.52403   0.19585   0.59537
  -0.76403   0.19585   0.59537
  -0.76403   0.19585   0.59537
  -0.76403   0.19585   0.59537
  -0.76403   0.19585   0.59537
  -0.76403   0.19585   0.35537
  -0.76403  -0.04415   0.59537
  -0.76403  -0.04415   0.59537
  -0.76403   0.19585   0.59537
  -0.76403   0.19585   0.59537
  -0.76403  -0.04415   0.59537
  -1.00403  -0.04415   0.59537
  -1.00403  -0.04415   0.35537
  -1.00403  -0.04415   0.35537
  -1.00403  -0.04415   0.35537
  -1.00403  -0.04415   0.35537
  -1.00403  -0.04415   0.11537
  -1.00403  -0.04415   0.35537
  -1.00403  -0.04415   0.11537
  -1.24403  -0.04415   0.35537
  -1.00403  -0.04415   0.11537
  -1.00403   0.19585   0.11537
  -1.00403   0.19585   0.11537
  -1.00403   0.19585   0.11537
  -1.00403   0.19585   0.11537
  -1.00403   0.19585   0.11537
  -1.00403   0.19585  -0.12463
  -1.00403   0.19585   0.11537
  -1.00403   0.19585   0.11537
  -1.00403   0.19585   0.11537
  -1.24403   0.19585   0.11537
  -1.24403   0.19585   0.11537
  -1.24403   0.19585   0.11537
  -1.00403   0.19585  -0.12463
  -1.00403   0.19585   0.11537
  -1.00403   0.19585   0.11537
  -1.00403   0.19585  -0.12463
  -1.24403   0.19585   0.11537
  -1.00403   0.19585   0.11537
  -1.00403   0.19585   0.11537
  -1.24403   0.19585   0.11537
  -1.00403   0.19585   0.11537
  -1.24403   0.19585   0.11537
  -1.00403   0.19585   0.11537
  -1.00403   0.19585   0.11537
  -1.00403   0.43585   0.11537
  -1.00403   0.43585   0.11537
  -1.00403   0.43585   0.11537
  -1.00403   0.43585   0.11537
  -1.00403   0.19585   0.11537
  -1.00403   0.43585   0.11537
  -1.00403   0.43585   0.11537
  -1.00403   0.43585   0.11537
  -1.00403   0.43585   0.11537
  -1.00403   0.43585   0.11537
  -1.00403   0.43585   0.11537
  -1.00403   0.43585   0.11537
  -1.00403   0.43585   0.11537
  -1.00403   0.43585   0.11537
  -1.00403   0.43585   0.11537
  -1.00403   0.43585   0.11537
  -1.00403   0.43585   0.11537
  -1.00403   0.43585   0.11537
  -1.00403   0.43585   0.11537
  -1.00403   0.43585   0.11537
  -1.00403   0.43585   0.11537
  -1.00403   0.43585  -0.12463
  -1.00403   0.43585  -0.12463
  -0.76403   0.43585  -0.12463
  -1.00403   0.43585  -0.12463
  -0.76403   0.43585  -0.12463
  -0.76403   0.19585  -0.12463
  -0.76403   0.19585  -0.12463
  -0.76403   0.19585  -0.12463
  -0.76403   0.19585  -0.36463
  -0.76403   0.19585  -0.12463
  -0.76403   0.19585  -0.36463
  -0.76403   0.19585  -0.12463
  -0.76403  -0.04415  -0.12463
  -0.76403  -0.04415  -0.36463
  -0.76403  -0.04415  -0.36463
  -0.76403  -0.04415  -0.60463
  -0.76403  -0.04415  -0.36463
  -0.76403  -0.04415  -0.36463
  -1.00403  -0.04415  -0.60463
  -1.00403  -0.04415  -0.36463
  -1.00403  -0.04415  -0.36463
  -1.00403  -0.04415  -0.60463
  -1.00403  -0.04415  -0.60463
  -1.00403  -0.04415  -0.60463
  -1.00403   0.19585  -0.60463
  -1.00403  -0.04415  -0.60463
  -1.00403  -0.04415  -0.60463
  -1.00403  -0.04415  -0.84463
  -1.00403  -0.04415  -0.60463
  -1.00403  -0.04415  -0.84463
  -1.00403  -0.04415  -0.60463
  -1.00403  -0.04415  -0.84463
  -1.00403  -0.04415  -0.84463
  -1.00403  -0.04415  -0.60463
  -1.00403  -0.04415  -0.84463
  -1.00403  -0.28415  -0.84463
  -1.00403  -0.28415  -0.60463
  -1.00403  -0.28415  -0.60463
  -1.00403  -0.28415  -0.60463
  -1.00403  -0.28415  -0.84463
  -1.00403  -0.28415  -0.84463
  -0.76403  -0.28415  -0.84463
  -0.76403  -0.28415  -0.60463
  -0.76403  -0.28415  -0.60463
  -0.76403  -0.28415  -0.60463
  -0.76403  -0.28415  -0.60463
  -0.76403  -0.28415  -0.60463
  -0.52403  -0.28415  -0.60463
  -0.52403  -0.28415  -0.60463
  -0.52403  -0.28415  -0.60463
  -0.52403  -0.28415  -0.60463
  -0.52403  -0.52415  -0.60463
  -0.52403  -0.52415  -0.60463
  -0.28403  -0.52415  -0.60463
  -0.28403  -0.52415  -0.60463
  -0.28403  -0.52415  -0.60463
  -0.28403  -0.52415  -0.36463
  -0.28403  -0.52415  -0.36463
  -0.28403  -0.52415  -0.36463
  -0.28403  -0.52415  -0.36463
  -0.28403  -0.76415  -0.36463
  -0.28403  -0.76415  -0.36463
  -0.28403  -0.76415  -0.36463
  -0.04403  -0.52415  -0.36463
  -0.04403  -0.76415  -0.36463
  -0.04403  -0.76415  -0.36463
  -0.28403  -0.76415  -0.36463
  -0.04403  -0.76415  -0.36463
  -0.04403  -0.52415  -0.12463
  -0.04403  -0.76415  -0.12463
  -0.04403  -0.76415  -0.12463
  -0.04403  -0.76415  -0.36463
  -0.04403  -0.76415  -0.12463
  -0.04403  -0.76415  -0.12463
  -0.28403  -0.76415  -0.12463
  -0.28403  -0.52415  -0.12463
  -0.28403  -0.52415  -0.12463
  -0.28403  -0.52415  -0.12463
  -0.28403  -0.52415  -0.12463
  -0.28403  -0.52415   0.11537
  -0.52403  -0.52415  -0.12463
  -0.52403  -0.52415   0.11537
  -0.52403  -0.52415  -0.12463
  -0.76403  -0.52415   0.11537
  -0.76403  -0.52415  -0.12463
  -0.76403  -0.28415   0.11537
  -0.76403  -0.28415   0.11537
  -1.00403  -0.28415   0.11537
  -1.00403  -0.28415   0.11537
  -1.00403  -0.28415  -0.12463
  -1.00403  -0.28415   0.11537
  -1.00403  -0.28415   0.11537
  -1.00403  -0.04415   0.11537
  -1.24403  -0.04415   0.11537
  -1.24403  -0.04415   0.11537
  -1.24403  -0.04415   0.11537
  -1.24403  -0.04415   0.11537
  -1.24403  -0.04415   0.11537
  -1.48403  -0.04415   0.11537
  -1.48403  -0.04415   0.11537
  -1.48403  -0.04415   0.11537
  -1.48403  -0.28415   0.11537
  -1.48403  -0.04415   0.11537
  -1.48403  -0.04415   0.11537
  -1.48403  -0.04415   0.11537
  -1.48403  -0.04415   0.11537
  -1.72403  -0.04415   0.11537
  -1.72403  -0.04415   0.11537
  -1.72403  -0.04415   0.11537
  -1.72403   0.19585   0.11537
  -1.72403   0.19585   0.11537
  -1.72403   0.19585   0.11537
  -1.72403   0.19585   0.11537
  -1.72403   0.19585   0.11537
  -1.72403   0.19585   0.11537
  -1.72403   0.19585   0.11537
  -1.48403   0.19585   0.11537
  -1.48403   0.19585   0.11537
  -1.48403   0.19585   0.11537
  -1.48403   0.19585   0.11537
  -1.48403   0.19585   0.11537
  -1.48403   0.19585   0.11537
  -1.48403   0.19585   0.35537
  -1.48403   0.19585   0.11537
  -1.48403   0.19585   0.11537
  -1.48403   0.19585   0.11537
  -1.48403   0.19585   0.11537
  -1.48403  -0.04415   0.11537
  -1.48403  -0.04415   0.11537
  -1.48403  -0.04415   0.11537
  -1.24403  -0.04415   0.11537
  -1.24403  -0.04415   0.35537
  -1.24403  -0.04415   0.35537
  -1.24403  -0.04415   0.35537
  -1.24403  -0.04415   0.35537
  -1.24403  -0.04415   0.59537
  -1.00403  -0.04415   0.35537
  -1.00403  -0.04415   0.35537
  -1.00403  -0.04415   0.35537
  -1.00403  -0.04415   0.35537
  -0.76403  -0.04415   0.59537
  -0.76403  -0.04415   0.35537
  -1.00403  -0.04415   0.35537
  -0.76403   0.19585   0.59537
  -0.76403   0.19585   0.59537
  -0.52403   0.19585   0.59537
  -0.52403   0.19585   0.59537
  -0.52403   0.19585   0.59537
  -0.52403   0.19585   0.59537
  -0.28403   0.19585   0.59537
  -0.28403   0.19585   0.83537
  -0.28403   0.19585   0.59537
  -0.28403   0.19585   0.83537
  -0.28403   0.19585   0.83537
  -0.28403   0.19585   0.83537
  -0.28403   0.19585   0.83537
  -0.04403   0.19585   0.83537
  -0.28403   0.19585   0.83537
  -0.04403   0.19585   0.83537
  -0.04403   0.19585   1.07537
  -0.04403   0.19585   1.07537
  -0.04403   0.19585   0.83537
  -0.04403   0.19585   1.07537
  -0.28403   0.19585   1.07537
  -0.28403   0.19585   1.07537
  -0.04403   0.19585   1.07537
  -0.04403   0.19585   1.07537
  -0.28403   0.19585   1.07537
  -0.28403   0.19585   1.07537
  -0.28403   0.19585   1.07537
  -0.28403   0.19585   1.07537
  -0.04403   0.19585   1.31537
  -0.28403   0.19585   1.07537
  -0.28403   0.19585   1.31537
  -0.28403   0.19585   1.31537
  -0.28403   0.43585   1.07537
  -0.28403   0.43585   1.07537
  -0.28403   0.19585   1.31537
  -0.28403   0.43585   1.31537
  -0.28403   0.43585   1.31537
  -0.28403   0.43585   1.07537
  -0.04403   0.43585   1.31537
  -0.04403   0.43585   1.07537
  -0.04403   0.43585   1.07537
  -0.04403   0.43585   1.07537
  -0.04403   0.43585   1.31537
   0.19597   0.43585   1.31537
  -0.04403   0.43585   1.31537
   0.19597   0.43585   1.31537
   0.19597   0.43585   1.07537
   0.19597   0.43585   1.07537
   0.43597   0.43585   1.07537
   0.43597   0.43585   1.07537
   0.43597   0.43585   1.07537
   0.43597   0.43585   0.83537
   0.43597   0.43585   1.07537
   0.43597   0.43585   0.83537
   0.67597   0.43585   0.83537
   0.67597   0.43585   0.83537
   0.67597   0.43585   0.83537
   0.67597   0.43585   0.83537
   0.91597   0.43585   0.83537
   0.91597   0.43585   0.83537
   0.91597   0.19585   0.83537
   0.91597   0.19585   0.59537
   0.91597   0.19585   0.83537
   1.15597   0.19585   0.83537
   1.15597   0.19585   0.83537
   1.15597   0.19585   0.59537
   1.39597  -0.04415   0.83537
   1.39597  -0.04415   0.83537
   1.39597  -0.04415   0.59537
   1.62597  -0.04415   0.83537
   1.62597  -0.04415   0.83537
   1.62597  -0.28415   0.59537
   1.62597  -0.28415   0.83537
   1.86597  -0.28415   0.59537
   1.86597  -0.28415   0.83537
   1.86597  -0.28415   0.83537
   1.86597  -0.28415   0.83537
   2.10597  -0.28415   0.83537
   2.10597  -0.28415   0.83537
   2.10597  -0.28415   0.83537
   2.34597  -0.28415   0.83537
   2.34597  -0.28415   0.83537
   2.34597  -0.28415   0.83537
   2.34597  -0.28415   0.83537
   2.34597  -0.28415   0.83537
   2.58597  -0.04415   0.83537
   2.58597  -0.04415   0.83537
   2.58597  -0.04415   0.83537
   2.58597  -0.04415   0.59537
   2.58597  -0.04415   0.83537
   2.82597  -0.04415   0.83537
   2.82597  -0.04415   0.83537
   2.82597  -0.04415   0.83537
   2.82597  -0.04415   0.83537
   2.82597  -0.04415   0.83537
   2.82597  -0.04415   0.83537
   2.82597  -0.04415   0.83537
   2.82597  -0.04415   0.83537
   2.82597  -0.04415   0.83537
   3.06597  -0.04415   0.83537
   2.82597  -0.04415   0.83537
   2.82597  -0.04415   0.83537
   3.06597  -0.04415   0.83537
   3.06597  -0.04415   0.83537
   3.06597  -0.04415   0.83537
   3.06597  -0.04415   0.59537
   3.06597  -0.04415   0.83537
   3.06597  -0.04415   0.83537
   3.06597  -0.04415   0.59537
   2.82597  -0.04415   0.83537
   2.82597  -0.04415   0.59537
   2.82597  -0.04415   0.59537
   2.82597  -0.04415   0.59537
   2.82597  -0.04415   0.35537
   2.82597  -0.04415   0.59537
   2.82597  -0.04415   0.35537
   2.82597  -0.04415   0.35537
   2.82597   0.19585   0.11537
   2.82597   0.19585   0.11537
   2.82597  -0.04415   0.11537
   2.82597   0.19585   0.11537
   2.82597   0.19585   0.11537
   2.58597   0.19585   0.11537
   2.58597   0.19585  -0.12463
   2.58597   0.19585  -0.12463
   2.58597   0.19585  -0.12463
   2.58597   0.19585  -0.12463
   2.34597   0.19585  -0.36463
   2.34597   0.19585  -0.36463
   2.34597   0.19585  -0.12463
   2.34597   0.19585  -0.36463
   2.34597   0.19585  -0.36463
   2.10597   0.19585  -0.60463
   2.10597   0.19585  -0.60463
   2.10597   0.19585  -0.60463
   2.10597   0.19585  -0.84463
   2.10597   0.19585  -0.84463
   1.86597   0.19585  -0.60463
   1.86597   0.19585  -0.84463
   1.86597   0.19585  -0.84463
   1.86597   0.19585  -0.84463
   1.62597   0.19585  -0.84463
   1.62597   0.19585  -0.84463
   1.62597   0.19585  -0.84463
   1.62597   0.19585  -0.84463
   1.62597   0.19585  -0.84463
   1.39597   0.19585  -0.84463
   1.39597   0.19585  -0.84463
   1.39597   0.19585  -0.84463
   1.39597  -0.04415  -1.08463
   1.39597  -0.04415  -1.08463
   1.39597  -0.04415  -1.08463
   1.39597  -0.04415  -1.08463
   1.39597  -0.04415  -0.84463
   1.15597  -0.04415  -1.08463
   1.15597  -0.28415  -1.08463
   1.15597  -0.04415  -0.84463
   1.15597  -0.28415  -0.84463
   1.15597  -0.04415  -0.84463
   1.15597  -0.04415  -0.84463
   1.15597  -0.28415  -0.84463
   1.15597  -0.04415  -0.84463
   1.15597  -0.04415  -0.84463
   1.15597  -0.04415  -0.84463
   1.15597  -0.04415  -0.84463
   1.15597  -0.04415  -0.60463
   1.15597  -0.04415  -0.60463
   1.15597  -0.04415  -0.84463
   1.15597  -0.04415  -0.60463
   0.91597  -0.04415  -0.60463
   1.15597  -0.04415  -0.60463
   1.15597  -0.04415  -0.60463
   0.91597  -0.04415  -0.60463
   0.91597  -0.04415  -0.60463
   0.91597  -0.04415  -0.60463
   0.91597  -0.28415  -0.60463
   0.91597  -0.28415  -0.60463
   0.91597  -0.28415  -0.60463
   0.91597  -0.28415  -0.36463
   0.91597  -0.28415  -0.36463
   0.91597  -0.28415  -0.60463
   0.91597  -0.28415  -0.60463
   0.91597  -0.28415  -0.36463
   0.91597  -0.28415  -0.36463
   0.91597  -0.28415  -0.60463
   0.91597  -0.28415  -0.36463
   0.91597  -0.28415  -0.36463
   0.91597  -0.28415  -0.36463
   0.91597  -0.28415  -0.36463
   0.91597  -0.28415  -0.12463
   0.91597  -0.28415  -0.36463
   0.91597  -0.52415  -0.36463
   0.67597  -0.28415  -0.36463
   0.67597  -0.28415  -0.36463
   0.67597  -0.28415  -0.36463
   0.67597  -0.28415  -0.36463
   0.67597  -0.28415  -0.12463
   0.67597  -0.28415  -0.12463
   0.67597  -0.28415  -0.12463
   0.43597  -0.04415  -0.12463
   0.43597  -0.28415  -0.12463
   0.43597  -0.04415  -0.12463
   0.43597  -0.04415  -0.12463
   0.43597  -0.04415  -0.12463
   0.19597  -0.04415  -0.12463
   0.19597  -0.04415  -0.12463
   0.19597  -0.04415  -0.12463
  -0.04403  -0.04415  -0.12463
  -0.04403  -0.04415  -0.12463
  -0.04403   0.19585  -0.12463
  -0.04403  -0.04415  -0.12463
  -0.28403   0.19585   0.11537
  -0.28403   0.19585  -0.12463
  -0.28403   0.19585   0.11537
  -0.28403   0.19585  -0.12463
  -0.28403   0.19585   0.11537
  -0.52403   0.19585   0.11537
  -0.52403   0.19585   0.11537
  -0.52403   0.19585  -0.12463
  -0.52403   0.19585   0.11537
  -0.52403  -0.04415   0.11537
  -0.52403   0.19585   0.11537
  -0.52403   0.19585   0.11537
  -0.52403   0.19585  -0.12463
  -0.52403   0.19585  -0.12463
  -0.52403   0.19585  -0.12463
  -0.52403   0.19585   0.11537
  -0.52403   0.19585  -0.12463
  -0.52403   0.19585   0.11537
  -0.52403   0.19585   0.11537
  -0.52403   0.19585   0.11537
  -0.52403   0.19585   0.11537
  -0.52403   0.19585   0.11537
  -0.52403   0.19585   0.11537
  -0.52403   0.19585   0.11537
  -0.52403   0.19585   0.11537
  -0.52403   0.19585   0.11537
  -0.28403  -0.04415   0.11537
  -0.28403   0.19585   0.11537
  -0.28403   0.19585   0.11537
  -0.28403  -0.04415   0.11537
  -0.28403  -0.04415   0.11537
  -0.28403  -0.04415   0.11537
  -0.28403  -0.04415   0.11537
  -0.28403  -0.04415   0.11537
  -0.28403  -0.04415   0.11537
  -0.28403  -0.04415   0.11537
  -0.04403  -0.04415   0.11537
  -0.04403  -0.04415   0.11537
  -0.04403  -0.28415   0.11537
