********************************************************************************
              CENTRO DE INSTRUMENTACION Y REGISTRO SISMICO  A.C.

    Anaxagoras 814, Col. Narvarte, Benito Juarez, C.P. 03020 Mexico, D.F.
           Tels. 5687 45 42/ 5687 45  82             Fax. 5669 25 12
********************************************************************************
ARCHIVO ESTANDAR DE ACELERACION:
VERSION DEL FORMATO                    : 2.0
NOMBRE DEL ARCHIVO                     : BA4920110407131122
FECHA Y HORA DE CREACION               : 15/JUN/11, 12:49
REF. CATALOGO ACELEROGRAMAS, SMIS 1996 : REGISTRO No.     /PAG.


================================================================================
DATOS DE LA ESTACION:
NOMBRE DE LA ESTACION                  : BUENOS AIRES
CLAVE DE LA ESTACION                   : BA49
LOCALIZACION DE LA ESTACION            : Del. Cuauhtémoc, Col. Doctores,        
                                       : Av. Lázaro Cárdenas esq. con           
                                       : Calle Dr. Márquez.                     
                                       :                                        
                                       : 
COORDENADAS DE LA ESTACION             : 19.4097 LAT. N
                                       : 99.1450 LONG. W
ALTITUD (msnm)                         : 2233
TIPO DE SUELO                          : Terreno blando, material compresible
                                       : (arcillas)                
                                       : 
INSTITUCION RESPONSABLE                : CIRES
                                       : 

================================================================================
DATOS DEL ACELEROGRAFO:
MODELO DEL ACELEROGRAFO                : RADESD
NUMERO DE SERIE DEL ACELEROGRAFO       : 176
NUMERO DE CANALES                      : 3
ORIENTACION C1-C6 (rumbo;orientacion)  : /N00E/+V/N90W
ORIENTACION C7-C12 (rumbo;orientacion) : 
VEL. DE MUESTREO, C1-C6 (muestras/s)   : /100/100/100
VEL. DE MUESTREO, C7-C12 (muestras/s)  : 
ESC. COMPLETA DE SENSORES, C1-C6, (g)  : /0.5/0.5/0.5
ESC. COMPLETA DE SENSORES, C7-C12, (g) : 
FREC. NAT. DE SENSORES, C1-C6, (Hz)    : /52.99/52.03/52.99
FREC. NAT. DE SENSORES, C7-C12, (Hz)   : 
AMORTIGUAMIENTO DE SENSORES, C1-C6     : /0.5589/0.5469/0.6096
AMORTIGUAMIENTO DE SENSORES, C7-C12    : 
INTERVALO DE MUESTREO, C1-C6, (s)      : /0.01/0.01/0.01
INTERVALO DE MUESTREO, C7-C12, (s)     : 
UMBRAL DE DISPARO, C1-C6, (Gal)        : /0.96/1.92/0.96
UMBRAL DE DISPARO, C7-C12, (Gal)       : 
MEMORIA DE PREEVENTO (s)               : 56.0
TIEMPO DE POSEVENTO (s)                : 64.0


================================================================================
DATOS DEL SISMO:
FECHA DEL SISMO (GMT)                  : 07/ABR/11
HORA EPICENTRO (GMT)                   : 13:11:22.0
MAGNITUD(ES)                           : /Mc=6.7
COORDENADAS DEL EPICENTRO              : 17.20 LAT. N
                                       : 94.34 LONG. W
PROFUNDIDAD FOCAL (km)                 : 167
FUENTE DE LOS DATOS EPICENTRALES       : SSN
                                       : INSTITUTO DE GEOFISICA, UNAM

================================================================================
DATOS DE ESTE REGISTRO:
HORA DE LA PRIMERA MUESTRA (GMT)       : 13:13:47.00
EXACTITUD DEL TIEMPO (s)               : 0.01
DURACION DEL REGISTRO (s), C1-C6       : /336.0/336.0/336.0
DURACION DEL REGISTRO (s), C7-C12      : 
NUM. TOTAL DE MUESTRAS, C1-C6          : /33600/33600/33600
NUM. TOTAL DE MUESTRAS, C7-C12         : 
ACEL. MAX. (Gal), C1-C6                : /3.03111/1.82269/2.92298
ACEL. MAX., C1-C6, EN LA MUESTRA       : /9057/15012/11351
ACEL. MAX. (Gal), C7-C12               : 
ACEL. MAX., C7-C12, EN LA MUESTRA      : 
UNIDADES DE LOS DATOS                  : Gal (cm/s/s)
FACTOR DE DECIMACION                   : 1
FORMATO DATOS (FORTRAN,10 campos/dato) : 3F10.5


================================================================================
CALIDAD DEL ACELEROGRAMA:
REGISTRO DIGITAL COMPLETO CON TIEMPO ABSOLUTO CORRECTO.


================================================================================
COMENTARIOS:














================================================================================
DATOS DE ACELERACION:
---------+---------+---------+---------+---------+---------+---------+---------+
   CANAL-1   CANAL-2   CANAL-3   CANAL-4   CANAL-5   CANAL-6   CANAL-7   CANAL-8
      N00E        +V      N90W
---------+---------+---------+---------+---------+---------+---------+---------+
[...]
  -0.32077  -0.33210  -0.90774
  -0.32077  -0.33210  -0.90774
  -0.32077  -0.33210  -0.90774
  -0.32077  -0.09268  -0.90774
  -0.08135  -0.09268  -0.42890
  -0.32077  -0.09268  -0.66832
  -0.32077   0.14674  -0.42890
  -0.32077  -0.09268  -0.18948
  -0.32077   0.14674  -0.42890
  -0.08135   0.14674   0.04994
  -0.08135  -0.09268   0.04994
  -0.32077   0.14674   0.04994
  -0.08135   0.14674   0.04994
  -0.08135  -0.09268   0.52878
  -0.08135   0.14674   0.52878
  -0.08135   0.14674   0.52878
  -0.08135  -0.09268   0.76820
  -0.08135   0.14674   0.76820
   0.15807  -0.09268   1.00762
  -0.08135   0.14674   1.00762
   0.15807   0.14674   1.24704
   0.15807   0.14674   1.24704
   0.15807   0.14674   1.48646
   0.39749   0.14674   1.48646
   0.15807   0.14674   1.48646
   0.39749   0.14674   1.48646
   0.39749   0.14674   1.72588
   0.39749   0.38616   1.72588
   0.39749   0.14674   1.72588
   0.15807   0.38616   1.72588
   0.39749   0.38616   1.72588
   0.39749   0.38616   1.72588
   0.39749   0.38616   1.96530
   0.39749   0.14674   1.96530
   0.39749   0.14674   1.72588
   0.39749   0.38616   1.72588
   0.39749   0.38616   1.96530
   0.39749   0.38616   1.96530
   0.39749   0.14674   1.96530
   0.39749   0.38616   1.96530
   0.63691   0.38616   1.72588
   0.63691   0.38616   1.96530
   0.63691   0.14674   1.96530
   0.63691   0.38616   1.96530
   0.63691   0.14674   1.96530
   0.63691   0.14674   1.96530
   0.63691   0.14674   1.96530
   0.63691   0.14674   1.96530
   0.63691   0.14674   1.96530
   0.63691   0.14674   1.96530
   0.63691   0.14674   1.72588
   0.87633   0.14674   1.72588
   0.87633  -0.09268   1.72588
   0.87633  -0.09268   1.72588
   0.63691  -0.09268   1.48646
   0.63691   0.14674   1.48646
   0.87633  -0.09268   1.48646
   0.63691  -0.33210   1.48646
   0.63691  -0.09268   1.48646
   0.87633  -0.09268   1.24704
   0.63691  -0.09268   1.24704
   0.63691  -0.33210   1.00762
   0.63691  -0.33210   1.00762
   0.63691  -0.33210   1.00762
   0.39749  -0.09268   0.76820
   0.63691  -0.09268   0.76820
   0.39749  -0.09268   0.76820
   0.39749  -0.33210   0.76820
   0.39749  -0.33210   0.52878
   0.39749  -0.33210   0.52878
   0.39749  -0.33210   0.28936
   0.39749  -0.09268   0.28936
   0.15807  -0.33210   0.28936
   0.15807  -0.33210   0.52878
   0.15807  -0.33210   0.04994
   0.15807  -0.33210   0.04994
   0.15807  -0.33210   0.04994
   0.15807  -0.33210   0.04994
   0.15807  -0.33210   0.04994
   0.15807  -0.33210  -0.18948
   0.15807  -0.33210   0.04994
  -0.08135  -0.09268   0.04994
   0.15807  -0.33210   0.04994
   0.15807  -0.33210  -0.18948
   0.15807  -0.33210  -0.18948
   0.39749  -0.33210   0.04994
   0.15807  -0.09268   0.04994
   0.39749  -0.33210   0.04994
   0.39749  -0.33210   0.04994
   0.39749  -0.33210   0.04994
   0.39749  -0.33210   0.04994
   0.15807  -0.33210   0.04994
   0.39749  -0.09268   0.04994
   0.15807  -0.33210   0.04994
   0.15807  -0.33210   0.04994
   0.39749  -0.33210   0.04994
   0.15807  -0.33210   0.28936
   0.15807  -0.09268   0.28936
   0.15807  -0.09268   0.28936
   0.15807  -0.09268   0.28936
   0.15807   0.14674   0.52878
   0.15807  -0.09268   0.52878
   0.15807   0.14674   0.28936
   0.15807   0.14674   0.52878
   0.15807   0.14674   0.52878
   0.15807   0.14674   0.52878
   0.15807  -0.09268   0.52878
  -0.08135  -0.09268   0.76820
   0.15807   0.14674   0.76820
   0.15807   0.38616   0.76820
   0.15807   0.14674   0.52878
   0.15807   0.14674   0.76820
   0.15807   0.38616   0.76820
   0.15807   0.38616   0.76820
   0.15807   0.38616   0.52878
   0.15807   0.14674   0.76820
   0.15807   0.38616   0.76820
  -0.08135   0.14674   0.52878
   0.15807   0.62558   0.76820
   0.15807   0.38616   0.76820
   0.15807   0.38616   0.52878
   0.15807   0.38616   0.52878
   0.15807   0.62558   0.52878
   0.15807   0.38616   0.28936
   0.15807   0.62558   0.28936
   0.15807   0.38616   0.28936
   0.39749   0.62558   0.28936
   0.39749   0.62558   0.04994
   0.39749   0.62558  -0.18948
   0.39749   0.62558   0.28936
   0.39749   0.62558   0.04994
   0.63691   0.38616   0.28936
   0.63691   0.38616   0.04994
   0.63691   0.38616   0.04994
   0.63691   0.38616   0.04994
   0.63691   0.14674   0.04994
   0.87633   0.38616   0.04994
   1.11575   0.14674  -0.18948
   0.87633   0.38616  -0.18948
   1.11575   0.14674  -0.18948
   1.11575   0.14674  -0.18948
   1.11575   0.14674  -0.18948
   1.35517   0.14674  -0.18948
   1.11575   0.14674  -0.42890
   1.35517  -0.09268  -0.42890
   1.11575  -0.09268  -0.42890
   1.35517   0.14674  -0.42890
   1.35517  -0.09268  -0.66832
   1.35517  -0.09268  -0.66832
   1.35517   0.14674  -0.66832
   1.35517  -0.33210  -0.90774
   1.35517  -0.09268  -0.66832
   1.35517  -0.09268  -0.90774
   1.35517   0.14674  -1.14716
   1.35517  -0.09268  -0.90774
   1.35517  -0.09268  -1.14716
   1.35517  -0.09268  -1.14716
   1.35517  -0.09268  -1.14716
   1.35517  -0.09268  -1.14716
   1.35517   0.14674  -1.14716
   1.11575   0.14674  -1.38658
   1.11575  -0.09268  -1.38658
   1.35517  -0.09268  -1.14716
   1.11575   0.14674  -1.38658
   1.11575  -0.09268  -1.14716
   1.11575  -0.09268  -1.38658
   1.11575  -0.09268  -1.38658
   1.11575  -0.09268  -1.38658
   1.11575   0.14674  -1.38658
   0.87633   0.14674  -1.38658
   0.87633  -0.09268  -1.62600
   0.63691   0.14674  -1.62600
   0.63691   0.14674  -1.62600
   0.63691  -0.09268  -1.62600
   0.63691  -0.09268  -1.62600
   0.39749  -0.09268  -1.62600
   0.39749  -0.09268  -1.62600
   0.15807  -0.09268  -1.62600
   0.15807  -0.09268  -1.62600
  -0.08135  -0.09268  -1.62600
  -0.08135  -0.09268  -1.62600
  -0.32077  -0.09268  -1.86543
  -0.32077  -0.09268  -1.86543
  -0.56019   0.14674  -2.10485
  -0.56019  -0.09268  -1.86543
  -0.56019  -0.09268  -1.86543
  -0.79961  -0.09268  -1.86543
  -1.03903  -0.09268  -2.10485
  -1.03903  -0.09268  -1.86543
  -1.27845  -0.09268  -1.86543
  -1.27845  -0.09268  -2.10485
  -1.27845  -0.09268  -1.86543
  -1.51787  -0.33210  -1.62600
  -1.75729  -0.33210  -1.86543
  -1.75729  -0.33210  -1.62600
  -1.99671  -0.33210  -1.62600
  -1.75729  -0.33210  -1.62600
  -1.99671  -0.33210  -1.38658
  -1.99671  -0.33210  -1.62600
  -1.99671  -0.33210  -1.38658
  -1.99671  -0.33210  -1.14716
  -2.23613  -0.57152  -1.14716
  -2.23613  -0.57152  -1.14716
  -2.23613  -0.33210  -0.90774
  -2.23613  -0.33210  -0.66832
  -2.23613  -0.57152  -0.66832
  -2.47555  -0.57152  -0.66832
  -2.47555  -0.33210  -0.42890
  -2.47555  -0.57152  -0.42890
  -2.47555  -0.33210  -0.42890
  -2.47555  -0.33210  -0.18948
  -2.23613  -0.33210   0.04994
  -2.47555  -0.33210   0.04994
  -2.47555  -0.33210   0.04994
  -2.47555  -0.33210   0.04994
  -2.23613  -0.33210   0.04994
  -2.47555  -0.09268   0.28936
  -2.47555  -0.09268   0.04994
  -2.23613  -0.33210   0.52878
  -2.47555  -0.33210   0.28936
  -2.23613  -0.09268   0.52878
  -2.23613  -0.09268   0.76820
  -2.23613  -0.09268   0.52878
  -2.23613  -0.09268   0.52878
  -1.99671  -0.09268   0.76820
  -1.99671   0.14674   0.76820
  -1.99671  -0.09268   0.76820
  -1.75729   0.14674   1.00762
  -1.75729  -0.09268   0.76820
  -1.99671  -0.09268   0.76820
  -1.75729   0.14674   0.76820
  -1.51787   0.14674   0.76820
  -1.51787   0.14674   1.00762
  -1.51787   0.14674   1.00762
  -1.51787  -0.09268   1.00762
  -1.27845   0.14674   0.76820
  -1.03903   0.14674   1.00762
  -1.03903   0.14674   1.00762
  -1.03903   0.14674   1.00762
  -1.03903   0.14674   1.00762
  -0.79961  -0.09268   0.76820
  -0.79961   0.14674   0.76820
  -0.79961   0.14674   0.76820
  -0.56019   0.14674   0.52878
  -0.32077  -0.09268   0.52878
  -0.32077   0.14674   0.52878
  -0.08135   0.14674   0.52878
   0.15807   0.14674   0.52878
   0.15807  -0.09268   0.28936
   0.39749  -0.09268   0.52878
   0.39749  -0.09268   0.28936
   0.39749  -0.09268   0.28936
   0.63691  -0.09268   0.52878
   0.63691  -0.09268   0.28936
   0.63691   0.14674   0.04994
   0.63691  -0.33210   0.04994
   0.87633  -0.33210   0.28936
   0.87633  -0.09268   0.28936
   0.63691  -0.09268   0.28936
   0.63691  -0.09268   0.28936
   0.87633   0.14674   0.28936
   0.87633   0.14674   0.04994
   0.63691   0.38616   0.28936
   0.87633   0.38616   0.04994
   0.63691   0.38616   0.04994
   0.39749   0.14674   0.04994
   0.63691   0.14674   0.28936
   0.63691   0.14674   0.28936
   0.63691   0.38616   0.04994
   0.63691   0.38616  -0.18948
   0.63691   0.38616   0.04994
   0.63691   0.38616   0.04994
   0.39749   0.38616  -0.18948
   0.63691   0.38616   0.04994
   0.39749   0.14674   0.04994
   0.15807   0.38616  -0.18948
   0.39749   0.38616   0.04994
   0.15807   0.38616  -0.18948
   0.15807   0.38616   0.04994
   0.15807   0.14674   0.04994
   0.15807   0.38616  -0.18948
   0.15807   0.14674   0.04994
   0.15807   0.38616  -0.18948
  -0.08135   0.14674   0.04994
  -0.08135   0.38616   0.04994
   0.15807   0.14674   0.04994
  -0.08135   0.14674   0.04994
  -0.08135  -0.09268   0.28936
  -0.08135  -0.09268   0.28936
  -0.32077  -0.09268   0.28936
  -0.08135  -0.09268   0.28936
  -0.32077  -0.09268   0.28936
  -0.32077  -0.33210   0.52878
  -0.56019  -0.09268   0.52878
  -0.32077  -0.09268   0.52878
  -0.32077  -0.09268   0.52878
  -0.32077  -0.09268   0.52878
  -0.32077  -0.33210   0.76820
  -0.56019  -0.09268   0.76820
  -0.56019   0.14674   0.76820
  -0.56019  -0.09268   1.00762
  -0.56019  -0.33210   1.00762
  -0.56019  -0.33210   1.00762
  -0.56019  -0.33210   1.24704
  -0.56019  -0.09268   1.00762
  -0.32077  -0.33210   1.24704
  -0.56019  -0.57152   1.48646
  -0.56019  -0.33210   1.24704
  -0.32077  -0.57152   1.48646
  -0.32077  -0.33210   1.72588
  -0.32077  -0.33210   1.72588
  -0.08135  -0.57152   1.96530
  -0.08135  -0.33210   1.72588
  -0.08135  -0.33210   1.96530
  -0.08135  -0.33210   1.96530
  -0.08135  -0.33210   1.96530
   0.15807  -0.33210   1.96530
   0.15807  -0.57152   2.20472
   0.15807  -0.57152   2.20472
   0.39749  -0.33210   1.96530
   0.39749  -0.09268   2.20472
   0.39749  -0.33210   1.96530
   0.63691  -0.09268   2.20472
   0.63691   0.14674   1.96530
   0.63691  -0.09268   2.20472
   0.87633  -0.09268   2.20472
   1.11575   0.14674   2.20472
   1.11575   0.14674   1.96530
   1.35517   0.14674   1.96530
   1.35517   0.14674   2.20472
   1.35517   0.38616   1.96530
   1.59459   0.14674   1.72588
   1.83401   0.38616   1.96530
   1.83401   0.38616   1.72588
   2.07343   0.14674   1.72588
   2.07343   0.62558   1.48646
   2.07343   0.38616   1.72588
   2.31285   0.38616   1.48646
   2.31285   0.38616   1.48646
   2.55227   0.38616   1.48646
   2.55227   0.38616   1.48646
   2.79169   0.38616   1.00762
   2.79169   0.14674   1.24704
   2.79169   0.38616   1.00762
   2.79169   0.62558   0.76820
   2.79169   0.38616   0.76820
   3.03111   0.38616   0.76820
   3.03111   0.62558   0.52878
   3.03111   0.38616   0.52878
   3.03111   0.62558   0.28936
   3.03111   0.38616   0.28936
   3.03111   0.62558   0.04994
   3.03111   0.62558   0.04994
   3.03111   0.62558   0.04994
   2.79169   0.38616  -0.18948
   3.03111   0.38616  -0.18948
   3.03111   0.38616  -0.18948
   3.03111   0.62558  -0.18948
   2.79169   0.38616  -0.42890
   3.03111   0.62558  -0.42890
   2.79169   0.38616  -0.66832
   2.79169   0.38616  -0.66832
   2.79169   0.38616  -0.90774
   2.79169   0.62558  -0.66832
   2.79169   0.38616  -0.90774
   2.55227   0.38616  -0.90774
   2.55227   0.38616  -0.90774
   2.55227   0.38616  -1.14716
   2.31285   0.38616  -1.14716
   2.31285   0.38616  -1.14716
   2.31285   0.38616  -1.14716
   2.07343   0.38616  -1.14716
   2.07343   0.38616  -1.14716
   1.83401   0.14674  -1.14716
   1.59459   0.38616  -1.14716
   1.59459   0.14674  -1.14716
   1.35517   0.14674  -1.14716
   1.35517   0.38616  -1.14716
   1.11575   0.14674  -1.38658
   0.87633   0.14674  -1.14716
   0.87633   0.14674  -1.14716
   0.63691   0.14674  -1.38658
   0.63691   0.14674  -1.38658
   0.39749   0.14674  -1.14716
   0.15807   0.14674  -1.14716
  -0.08135  -0.09268  -1.38658
  -0.32077  -0.09268  -1.14716
  -0.32077  -0.33210  -1.14716
  -0.56019  -0.09268  -1.14716
  -0.79961  -0.09268  -1.14716
  -0.79961  -0.09268  -0.90774
  -1.03903  -0.33210  -0.90774
  -1.27845  -0.09268  -0.90774
  -1.51787  -0.33210  -0.90774
  -1.51787  -0.33210  -0.66832
  -1.75729  -0.09268  -0.90774
  -1.99671  -0.33210  -0.90774
  -1.99671  -0.33210  -0.90774
  -2.23613  -0.57152  -0.90774
  -2.23613  -0.57152  -0.90774
  -2.23613  -0.33210  -0.66832
  -2.47555  -0.81094  -0.66832
  -2.47555  -0.57152  -0.66832
  -2.71497  -0.81094  -0.66832
  -2.71497  -0.57152  -0.66832
  -2.71497  -0.57152  -0.66832
  -2.71497  -0.81094  -0.42890
  -2.71497  -0.57152  -0.66832
  -2.71497  -0.81094  -0.66832
  -2.95439  -0.57152  -0.66832
  -2.95439  -0.57152  -0.66832
  -2.95439  -0.57152  -0.66832
  -2.95439  -0.57152  -0.66832
  -2.71497  -0.57152  -0.66832
  -2.95439  -0.57152  -0.66832
  -2.71497  -0.81094  -0.66832
  -2.71497  -0.57152  -0.42890
  -2.71497  -0.81094  -0.66832
  -2.47555  -0.57152  -0.42890
  -2.71497  -0.57152  -0.66832
  -2.47555  -0.57152  -0.66832
  -2.47555  -0.81094  -0.66832
  -2.23613  -0.57152  -0.66832
  -2.23613  -0.57152  -0.66832
  -1.99671  -0.57152  -0.90774
  -1.99671  -0.57152  -0.90774
  -1.99671  -0.33210  -0.90774
  -1.75729  -0.57152  -0.90774
  -1.75729  -0.33210  -1.14716
  -1.51787  -0.57152  -1.14716
  -1.51787  -0.33210  -0.90774
  -1.27845  -0.33210  -1.38658
  -1.27845  -0.09268  -1.38658
  -1.03903  -0.33210  -1.38658
  -1.03903  -0.33210  -1.38658
  -1.03903  -0.09268  -1.38658
  -0.79961  -0.09268  -1.62600
  -0.79961  -0.33210  -1.62600
  -0.79961  -0.33210  -1.62600
  -0.79961  -0.09268  -1.62600
  -0.79961  -0.09268  -1.62600
  -0.56019  -0.09268  -1.62600
  -0.56019  -0.09268  -1.62600
  -0.56019  -0.09268  -1.86543
  -0.32077  -0.09268  -1.62600
  -0.32077   0.14674  -1.62600
  -0.32077  -0.09268  -1.86543
  -0.08135  -0.09268  -1.62600
  -0.32077  -0.09268  -1.86543
  -0.08135   0.14674  -1.62600
  -0.08135   0.14674  -1.62600
  -0.08135   0.38616  -1.62600
  -0.08135   0.14674  -1.62600
  -0.08135  -0.09268  -1.62600
  -0.08135   0.14674  -1.62600
  -0.08135   0.14674  -1.62600
  -0.08135  -0.09268  -1.62600
   0.15807  -0.09268  -1.38658
   0.15807  -0.09268  -1.38658
  -0.08135   0.14674  -1.38658
  -0.08135   0.14674  -1.62600
  -0.08135   0.14674  -1.38658
  -0.08135   0.14674  -1.62600
  -0.08135  -0.09268  -1.38658
  -0.08135   0.14674  -1.62600
  -0.08135   0.14674  -1.38658
  -0.32077   0.38616  -1.14716
  -0.32077   0.14674  -1.38658
  -0.08135   0.14674  -1.14716
  -0.32077   0.14674  -1.38658
  -0.32077   0.38616  -1.14716
  -0.56019   0.38616  -1.14716
  -0.56019   0.14674  -1.14716
  -0.79961   0.38616  -0.90774
  -0.79961   0.38616  -0.90774
  -0.79961   0.38616  -1.14716
  -0.79961   0.38616  -0.90774
  -0.79961   0.38616  -0.66832
  -1.03903   0.38616  -0.66832
  -1.03903   0.38616  -0.66832
  -1.03903   0.38616  -0.66832
  -0.79961   0.14674  -0.66832
  -0.79961   0.38616  -0.18948
  -0.79961   0.38616  -0.42890
  -0.79961   0.38616  -0.18948
  -1.03903   0.38616  -0.18948
  -0.79961   0.38616  -0.18948
  -0.79961   0.14674   0.04994
  -1.03903   0.14674   0.04994
  -0.79961   0.38616   0.28936
  -0.79961   0.38616   0.28936
  -0.79961   0.38616   0.28936
  -0.79961   0.14674   0.28936
  -0.79961   0.14674   0.52878
  -0.79961   0.14674   0.76820
  -0.79961   0.14674   0.76820
