********************************************************************************
               CENTRO DE INSTRUMENTACION Y REGISTRO SISMICO  A.C.  
                       Coordinacion de Servicios Tecnicos
     Anaxagoras 814, Col. Narvarte, Benito Juarez, C.P. 03020 Mexico, D.F.
            Tels. 687 45 42/ 687 45  82             Fax. 669 25 12
********************************************************************************
ARCHIVO ESTANDAR DE ACELERACION:
VERSION DEL FORMATO                    : 2.0
NOMBRE DEL ARCHIVO                     : BA499309.101
FECHA Y HORA DE CREACION               : 8 de febrero de 1996/18:07
REF. CATALOGO ACELEROGRAMAS, SMIS 1995 : REGISTRO No. 4759 /PAG. 430


================================================================================
DATOS DE LA ESTACION:
NOMBRE DE LA ESTACION                  : BUENOS AIRES
CLAVE DE LA ESTACION                   : BA49
LOCALIZACION DE LA ESTACION            : ESCUELA SECUNDARIA 102, DOCTOR MARQUEZ
                                       : Y EJE CENTRAL, BUENOS AIRES.
                                       :
                                       :
                                       :
COORDENADAS DE LA ESTACION             : 19.410 LAT. N 
                                       : 99.145 LONG. W 
ALTITUD (msnm)                         : 2233
TIPO DE SUELO                          : TERRENO BLANDO, MATERIAL COMPRESIBLE
                                       : (ARCILLAS)
                                       : 
INSTITUCION RESPONSABLE                : CIRES 
                                       :

================================================================================
DATOS DEL ACELEROGRAFO:
MODELO DEL ACELEROGRAFO                : SSA-1
NUMERO DE SERIE DEL ACELEROGRAFO       : 176
NUMERO DE CANALES                      : 3
ORIENTACION C1-C6 (rumbo;orientacion)  : /N00E/+V/N90E
ORIENTACION C7-C12 (rumbo;orientacion) :
VEL. DE MUESTREO, C1-C6 (muestras/s)   : /200/200/200
VEL. DE MUESTREO, C7-C12 (muestras/s)  :
ESC. COMPLETA DE SENSORES, C1-C6, (g)  : /2/2/2
ESC. COMPLETA DE SENSORES, C7-C12, (g) :
FREC. NAT. DE SENSORES, C1-C6, (Hz)    : /50/50/50
FREC. NAT. DE SENSORES, C7-C12, (Hz)   :
AMORTIGUAMIENTO DE SENSORES, C1-C6     : /0.700/0.700/0.700
AMORTIGUAMIENTO DE SENSORES, C7-C12    :
INTERVALO DE MUESTREO, C1-C6, (s)      : /0.005/0.005/0.005
INTERVALO DE MUESTREO, C7-C12, (s)     :
UMBRAL DE DISPARO, C1-C6, (Gal)        : /2/2/2
UMBRAL DE DISPARO, C7-C12, (Gal)       :
MEMORIA DE PREEVENTO (s)               : 15
TIEMPO DE POSEVENTO (s)                : 90


================================================================================
DATOS DEL SISMO:
FECHA DEL SISMO (GMT)                  : 10/SEP/93
HORA EPICENTRO (GMT)                   : 10:50:23,0
MAGNITUD(ES)                           : /Mb=4.8/Mc=4.8
COORDENADAS DEL EPICENTRO              : 16.57 LAT. N 
                                       : 98.94 LONG. W 
PROFUNDIDAD FOCAL (km)                 : 20
FUENTE DE LOS DATOS EPICENTRALES       : SSN
                                       : INSTITUTO DE GEOFISICA, UNAM

================================================================================
DATOS DE ESTE REGISTRO:
HORA DE LA PRIMERA MUESTRA (GMT)       : 19:12:50.00
EXACTITUD DEL TIEMPO (s)               :     
DURACION DEL REGISTRO (s), C1-C6       : /193.28/193.28/193.28
DURACION DEL REGISTRO (s), C7-C12      :
NUM. TOTAL DE MUESTRAS, C1-C6          : /38656/38656/38656
NUM. TOTAL DE MUESTRAS, C7-C12         :
ACEL. MAX. (Gal), C1-C6                : /5.57053/0.74304/3.85421
ACEL. MAX., C1-C6, EN LA MUESTRA       :
ACEL. MAX. (Gal), C7-C12               :
ACEL. MAX., C7-C12, EN LA MUESTRA      :
UNIDADES DE LOS DATOS                  : Gal (cm/s/s)
FACTOR DE DECIMACION                   : 1
FORMATO DATOS (FORTRAN,10 campos/dato) : 3F10.5


================================================================================
CALIDAD DEL ACELEROGRAMA:
REGISTRO DIGITAL COMPLETO, CARECE DE TIEMPO ABSOLUTO.


================================================================================
COMENTARIOS: 
             Los equipos se encontraban con una ganancia de 2 en los
             ejes horizontales y de 4 en el eje vertical, por lo que 
             las escalas completas eran de 1 g y 1/2 g respectiva-
             mente.










================================================================================
DATOS DE ACELERACION:
---------+---------+---------+---------+---------+---------+---------+---------+
   CANAL-1   CANAL-2   CANAL-3   CANAL-4   CANAL-5   CANAL-6   CANAL-7   CANAL-8
      N00E        +V      N90E
---------+---------+---------+---------+---------+---------+---------+---------+
[...]
  -1.60947  -0.02304  -1.41579
  -1.60947  -0.02304  -0.93579
  -1.60947  -0.02304  -1.41579
  -1.60947  -0.02304  -1.41579
  -2.08947  -0.02304  -0.93579
  -1.60947  -0.02304  -0.93579
  -2.08947  -0.02304  -0.93579
  -2.08947  -0.02304  -0.93579
  -2.08947  -0.02304  -0.93579
  -2.08947  -0.02304  -0.93579
  -2.08947  -0.02304  -0.93579
  -2.08947  -0.02304  -0.93579
  -2.08947  -0.02304  -0.93579
  -2.56947  -0.02304  -0.93579
  -2.56947  -0.02304  -0.45579
  -2.56947  -0.02304  -0.45579
  -3.04947  -0.02304  -0.45579
  -2.56947  -0.02304  -0.45579
  -2.56947  -0.02304  -0.45579
  -2.56947  -0.02304  -0.45579
  -2.56947  -0.02304  -0.45579
  -2.56947  -0.02304  -0.45579
  -3.04947  -0.02304  -0.45579
  -3.04947  -0.02304  -0.45579
  -3.04947  -0.02304  -0.45579
  -3.04947  -0.02304  -0.45579
  -3.04947  -0.02304  -0.45579
  -3.04947  -0.02304  -0.93579
  -3.04947  -0.02304  -0.45579
  -3.04947  -0.02304  -0.45579
  -3.04947  -0.02304  -0.45579
  -3.04947  -0.02304  -0.45579
  -3.04947  -0.02304  -0.45579
  -3.04947  -0.02304  -0.45579
  -3.52947  -0.02304  -0.45579
  -3.52947  -0.02304   0.02421
  -3.52947  -0.02304   0.02421
  -3.52947  -0.02304  -0.45579
  -3.52947  -0.02304   0.02421
  -3.52947  -0.02304   0.02421
  -3.52947  -0.02304   0.02421
  -3.52947  -0.02304   0.02421
  -3.52947  -0.02304  -0.45579
  -3.52947  -0.02304  -0.45579
  -3.52947  -0.02304   0.02421
  -3.52947  -0.02304   0.02421
  -3.52947  -0.26304  -0.45579
  -4.00947  -0.26304   0.02421
  -4.00947  -0.26304   0.02421
  -4.00947  -0.26304  -0.45579
  -4.00947  -0.26304  -0.45579
  -4.00947  -0.26304   0.02421
  -4.00947  -0.26304   0.02421
  -4.00947  -0.26304   0.02421
  -4.00947  -0.26304   0.02421
  -4.00947  -0.26304  -0.45579
  -4.00947  -0.26304   0.02421
  -4.00947  -0.26304   0.02421
  -4.00947  -0.26304   0.50421
  -4.00947  -0.26304   0.02421
  -4.00947  -0.26304   0.02421
  -4.00947  -0.26304   0.02421
  -4.00947  -0.26304   0.02421
  -4.00947  -0.26304   0.02421
  -4.00947  -0.26304   0.02421
  -4.00947  -0.26304   0.02421
  -4.00947  -0.26304   0.02421
  -4.00947  -0.26304   0.02421
  -4.00947  -0.26304   0.02421
  -4.48947  -0.26304   0.50421
  -4.00947  -0.26304   0.50421
  -4.48947  -0.26304   0.50421
  -4.48947  -0.26304   0.50421
  -4.48947  -0.26304   0.50421
  -4.48947  -0.26304   0.02421
  -4.48947  -0.26304   0.02421
  -4.48947  -0.26304   0.50421
  -4.48947  -0.26304   0.50421
  -4.48947  -0.26304   0.50421
  -4.48947  -0.26304   0.02421
  -4.48947  -0.26304   0.02421
  -4.48947  -0.26304   0.02421
  -4.48947  -0.26304   0.50421
  -4.48947  -0.26304   0.50421
  -4.48947  -0.26304   0.50421
  -4.48947  -0.26304   0.50421
  -4.48947  -0.26304   0.50421
  -4.48947  -0.26304   0.50421
  -4.48947  -0.26304   0.50421
  -4.48947  -0.26304   0.50421
  -4.48947  -0.26304   0.50421
  -4.48947  -0.26304   0.50421
  -4.48947  -0.26304   0.50421
  -4.48947  -0.26304   0.50421
  -4.48947  -0.26304   0.50421
  -4.48947  -0.26304   0.50421
  -4.48947  -0.26304   0.98421
  -4.48947  -0.26304   0.50421
  -4.48947  -0.26304   0.50421
  -4.48947  -0.26304   0.98421
  -4.48947  -0.50304   0.98421
  -4.48947  -0.26304   0.50421
  -4.48947  -0.26304   0.98421
  -4.48947  -0.26304   0.50421
  -4.48947  -0.26304   0.98421
  -4.48947  -0.50304   0.98421
  -4.48947  -0.26304   0.98421
  -4.48947  -0.26304   0.98421
  -4.48947  -0.50304   0.98421
  -4.48947  -0.26304   0.98421
  -4.48947  -0.50304   0.98421
  -4.48947  -0.26304   0.98421
  -4.48947  -0.50304   0.98421
  -4.48947  -0.50304   0.98421
  -4.48947  -0.50304   0.98421
  -4.48947  -0.50304   0.98421
  -4.48947  -0.50304   1.46421
  -4.48947  -0.26304   0.98421
  -4.48947  -0.50304   0.98421
  -4.48947  -0.50304   0.98421
  -4.48947  -0.50304   0.98421
  -4.48947  -0.50304   1.46421
  -4.48947  -0.50304   0.98421
  -4.48947  -0.50304   1.46421
  -4.48947  -0.50304   0.98421
  -4.48947  -0.50304   1.46421
  -4.48947  -0.50304   1.46421
  -4.48947  -0.50304   1.46421
  -4.48947  -0.50304   1.46421
  -4.48947  -0.50304   1.46421
  -4.48947  -0.50304   1.46421
  -4.48947  -0.50304   1.46421
  -4.48947  -0.50304   1.46421
  -4.48947  -0.26304   1.93421
  -4.48947  -0.26304   1.46421
  -4.48947  -0.50304   1.93421
  -4.48947  -0.50304   1.93421
  -4.48947  -0.50304   1.46421
  -4.48947  -0.50304   1.93421
  -4.48947  -0.50304   1.46421
  -4.48947  -0.50304   1.46421
  -4.48947  -0.50304   1.93421
  -4.48947  -0.50304   1.93421
  -4.48947  -0.50304   1.93421
  -4.48947  -0.50304   1.93421
  -4.48947  -0.50304   1.93421
  -4.48947  -0.50304   1.93421
  -4.48947  -0.50304   1.93421
  -4.48947  -0.50304   1.93421
  -4.00947  -0.50304   1.93421
  -4.00947  -0.50304   1.93421
  -4.00947  -0.50304   1.93421
  -4.00947  -0.50304   1.93421
  -4.00947  -0.50304   1.93421
  -4.00947  -0.50304   2.41421
  -4.00947  -0.50304   2.41421
  -4.00947  -0.50304   2.41421
  -4.00947  -0.50304   2.41421
  -4.00947  -0.50304   1.93421
  -4.00947  -0.26304   1.93421
  -4.00947  -0.50304   2.41421
  -4.00947  -0.26304   2.41421
  -4.00947  -0.50304   1.93421
  -4.00947  -0.50304   2.41421
  -4.00947  -0.26304   1.93421
  -4.00947  -0.50304   2.41421
  -4.00947  -0.50304   2.41421
  -4.00947  -0.26304   1.93421
  -4.00947  -0.50304   2.41421
  -4.00947  -0.50304   2.41421
  -4.00947  -0.50304   2.41421
  -4.00947  -0.50304   2.41421
  -4.00947  -0.26304   1.93421
  -4.00947  -0.26304   1.93421
  -4.00947  -0.26304   1.93421
  -4.00947  -0.26304   2.41421
  -3.52947  -0.50304   2.41421
  -3.52947  -0.26304   2.41421
  -3.52947  -0.26304   2.41421
  -3.52947  -0.26304   2.41421
  -3.52947  -0.50304   2.41421
  -3.52947  -0.26304   2.41421
  -3.52947  -0.26304   2.41421
  -3.52947  -0.26304   2.41421
  -3.52947  -0.26304   2.41421
  -3.52947  -0.26304   2.41421
  -3.52947  -0.26304   2.41421
  -3.04947  -0.26304   2.89421
  -3.52947  -0.26304   2.41421
  -3.04947  -0.26304   2.41421
  -3.04947  -0.26304   2.41421
  -3.04947  -0.26304   2.41421
  -3.04947  -0.26304   2.89421
  -3.04947  -0.02304   2.41421
  -3.04947  -0.26304   2.41421
  -3.04947  -0.26304   2.41421
  -3.04947  -0.02304   2.41421
  -3.04947  -0.02304   2.41421
  -3.04947  -0.02304   2.41421
  -3.04947  -0.02304   2.41421
  -3.04947  -0.02304   2.41421
  -2.56947  -0.02304   2.41421
  -2.56947  -0.02304   2.41421
  -2.56947  -0.02304   2.41421
  -2.56947  -0.02304   2.41421
  -2.56947  -0.02304   2.41421
  -2.56947  -0.02304   2.41421
  -2.56947  -0.02304   2.41421
  -2.56947  -0.02304   2.41421
  -2.56947  -0.02304   2.41421
  -2.08947  -0.02304   2.89421
  -2.08947  -0.02304   2.41421
  -2.08947  -0.02304   2.41421
  -2.08947  -0.02304   2.41421
  -2.08947  -0.02304   1.93421
  -2.08947  -0.02304   2.41421
  -2.08947  -0.02304   2.41421
  -2.08947  -0.02304   2.41421
  -2.08947  -0.02304   1.93421
  -2.08947  -0.02304   2.41421
  -1.60947  -0.02304   2.41421
  -1.60947  -0.02304   2.41421
  -1.60947  -0.02304   2.41421
  -1.60947  -0.02304   2.41421
  -1.60947  -0.02304   1.93421
  -1.60947  -0.02304   2.41421
  -1.60947   0.21696   2.41421
  -1.60947  -0.02304   1.93421
  -1.12947  -0.02304   1.93421
  -1.12947  -0.02304   1.93421
  -1.12947   0.21696   1.93421
  -1.12947  -0.02304   1.93421
  -1.12947  -0.02304   1.93421
  -1.12947  -0.02304   1.93421
  -1.12947   0.21696   2.41421
  -0.65947  -0.02304   1.93421
  -0.65947  -0.02304   1.93421
  -0.65947  -0.02304   1.93421
  -0.65947  -0.02304   1.93421
  -0.65947  -0.02304   1.93421
  -0.65947  -0.02304   1.93421
  -0.17947  -0.02304   1.93421
  -0.17947  -0.02304   1.93421
  -0.17947  -0.02304   1.93421
  -0.17947  -0.02304   1.46421
  -0.17947   0.21696   1.93421
  -0.17947  -0.02304   1.93421
  -0.17947  -0.02304   1.93421
   0.30053   0.21696   1.93421
   0.30053   0.21696   1.93421
   0.30053   0.21696   1.93421
   0.30053  -0.02304   1.46421
   0.30053   0.21696   1.46421
   0.30053   0.21696   1.93421
   0.78053   0.21696   1.46421
   0.78053  -0.02304   1.46421
   0.78053  -0.02304   1.93421
   0.78053   0.21696   1.46421
   0.78053  -0.02304   1.46421
   0.78053  -0.02304   1.46421
   1.26053   0.21696   1.46421
   1.26053   0.21696   1.46421
   1.26053   0.21696   1.46421
   1.26053   0.21696   1.46421
   1.26053   0.21696   1.46421
   1.26053   0.21696   0.98421
   1.26053   0.21696   1.46421
   1.74053   0.21696   1.46421
   1.74053   0.21696   1.46421
   1.74053   0.21696   1.46421
   1.74053   0.21696   0.98421
   1.74053   0.21696   0.98421
   1.74053   0.21696   0.98421
   2.22053   0.21696   0.98421
   2.22053   0.21696   0.98421
   2.22053   0.21696   0.98421
   2.22053   0.21696   0.98421
   2.22053   0.45696   0.98421
   2.22053   0.21696   0.98421
   2.22053   0.21696   0.98421
   2.22053   0.45696   0.98421
   2.22053   0.21696   0.98421
   2.70053   0.21696   0.50421
   2.70053   0.21696   0.50421
   2.70053   0.45696   0.50421
   2.70053   0.21696   0.50421
   2.70053   0.45696   0.50421
   2.70053   0.21696   0.50421
   3.18053   0.21696   0.50421
   3.18053   0.21696   0.50421
   3.18053   0.21696   0.50421
   3.18053   0.21696   0.50421
   3.18053   0.21696   0.50421
   3.18053   0.21696   0.50421
   3.66053   0.21696   0.02421
   3.66053   0.21696   0.50421
   3.66053   0.21696   0.02421
   3.66053   0.45696   0.50421
   3.66053   0.21696   0.02421
   3.66053   0.21696   0.50421
   3.66053   0.21696   0.02421
   3.66053   0.21696   0.02421
   4.13053   0.21696   0.02421
   3.66053   0.21696   0.02421
   4.13053   0.21696   0.02421
   4.13053   0.21696   0.02421
   4.13053   0.21696   0.02421
   4.13053   0.45696   0.02421
   4.13053   0.45696   0.02421
   4.13053   0.45696   0.02421
   4.13053   0.45696   0.02421
   4.13053   0.21696  -0.45579
   4.13053   0.21696   0.02421
   4.61053   0.45696   0.02421
   4.61053   0.21696   0.02421
   4.61053   0.45696  -0.45579
   4.61053   0.21696  -0.45579
   4.61053   0.45696   0.02421
   4.61053   0.21696  -0.45579
   4.61053   0.45696  -0.45579
   4.61053   0.45696  -0.45579
   4.61053   0.21696  -0.45579
   4.61053   0.45696  -0.45579
   4.61053   0.45696  -0.45579
   4.61053   0.45696  -0.45579
   5.09053   0.45696  -0.45579
   5.09053   0.45696  -0.45579
   5.09053   0.21696  -0.45579
   5.09053   0.45696  -0.45579
   5.09053   0.45696  -0.45579
   5.09053   0.21696  -0.45579
   5.09053   0.45696  -0.93579
   5.09053   0.45696  -0.93579
   5.09053   0.45696  -0.45579
   5.09053   0.45696  -0.93579
   5.09053   0.45696  -0.93579
   5.09053   0.45696  -0.93579
   5.09053   0.45696  -0.93579
   5.09053   0.21696  -0.93579
   5.09053   0.45696  -0.45579
   5.09053   0.21696  -0.93579
   5.09053   0.45696  -0.93579
   5.09053   0.45696  -0.45579
   5.09053   0.45696  -0.93579
   5.57053   0.45696  -0.93579
   5.57053   0.45696  -0.93579
   5.57053   0.45696  -0.93579
   5.57053   0.45696  -0.93579
   5.57053   0.45696  -0.93579
   5.57053   0.45696  -0.93579
   5.57053   0.45696  -0.93579
   5.57053   0.45696  -0.93579
   5.57053   0.45696  -0.93579
   5.57053   0.45696  -0.93579
   5.57053   0.21696  -0.93579
   5.57053   0.21696  -0.93579
   5.57053   0.21696  -0.93579
   5.57053   0.45696  -0.93579
   5.57053   0.21696  -1.41579
   5.57053   0.21696  -1.41579
   5.57053   0.45696  -0.93579
   5.57053   0.45696  -1.41579
   5.57053   0.45696  -0.93579
   5.57053   0.45696  -1.41579
   5.57053   0.21696  -0.93579
   5.57053   0.45696  -1.41579
   5.57053   0.21696  -1.41579
   5.57053   0.21696  -1.41579
   5.57053   0.21696  -1.41579
   5.57053   0.21696  -1.41579
   5.57053   0.21696  -1.41579
   5.57053   0.21696  -1.41579
   5.57053   0.21696  -1.41579
   5.57053   0.21696  -1.41579
   5.57053   0.21696  -1.41579
   5.57053   0.21696  -1.41579
   5.57053   0.21696  -1.41579
   5.57053   0.45696  -1.41579
   5.57053   0.21696  -1.41579
   5.57053   0.45696  -1.41579
   5.57053   0.45696  -1.41579
   5.57053   0.45696  -1.41579
   5.57053   0.45696  -1.41579
   5.57053   0.45696  -1.41579
   5.57053   0.45696  -1.41579
   5.57053   0.45696  -1.41579
   5.57053   0.45696  -1.41579
   5.57053   0.45696  -1.41579
   5.57053   0.45696  -1.41579
   5.09053   0.21696  -1.41579
   5.09053   0.21696  -1.41579
   5.09053   0.21696  -1.41579
   5.09053   0.21696  -1.41579
   5.09053   0.21696  -1.41579
   5.09053   0.21696  -1.41579
   5.09053   0.21696  -1.41579
   5.09053   0.21696  -1.41579
   5.09053   0.21696  -1.41579
   5.09053   0.21696  -1.41579
   5.09053   0.21696  -1.41579
   5.09053   0.21696  -1.41579
   5.09053   0.21696  -1.89579
   5.09053   0.21696  -1.41579
   5.09053   0.21696  -1.41579
   5.09053   0.21696  -1.41579
   5.09053   0.21696  -1.41579
   4.61053   0.21696  -1.89579
   4.61053   0.21696  -1.41579
   4.61053   0.21696  -1.89579
   4.61053   0.21696  -1.41579
   4.61053   0.21696  -1.41579
   4.61053   0.21696  -1.89579
   4.61053   0.21696  -1.89579
   4.61053   0.21696  -1.41579
   4.61053   0.21696  -1.41579
   4.61053   0.21696  -1.41579
   4.61053   0.21696  -1.41579
   4.61053   0.21696  -1.41579
   4.61053   0.45696  -1.89579
   4.13053   0.45696  -1.89579
   4.13053   0.45696  -1.41579
   4.13053   0.45696  -1.89579
   4.13053   0.45696  -1.41579
   4.13053   0.21696  -1.41579
   4.13053   0.21696  -1.89579
   4.13053   0.21696  -1.41579
   4.13053   0.45696  -1.41579
   4.13053   0.45696  -1.41579
   4.13053   0.21696  -1.89579
   3.66053   0.21696  -1.41579
   3.66053   0.21696  -1.89579
   3.66053   0.21696  -1.41579
   3.66053   0.21696  -1.89579
   3.66053   0.21696  -1.89579
   3.66053   0.21696  -1.41579
   3.66053   0.21696  -1.41579
   3.66053   0.21696  -1.89579
   3.66053   0.21696  -1.41579
   3.18053   0.21696  -1.89579
   3.66053   0.21696  -1.41579
   3.18053   0.21696  -1.89579
   3.18053   0.21696  -1.89579
   3.18053   0.21696  -1.89579
   3.18053   0.21696  -1.89579
   3.18053   0.21696  -1.89579
   3.18053   0.21696  -1.89579
   3.18053   0.21696  -1.89579
   2.70053   0.21696  -1.89579
   2.70053   0.21696  -1.41579
   2.70053   0.21696  -1.89579
   2.70053   0.21696  -1.89579
   2.70053   0.21696  -1.89579
   2.70053   0.21696  -1.89579
   2.70053   0.21696  -1.89579
   2.22053   0.21696  -1.89579
   2.22053   0.21696  -1.89579
   2.22053   0.21696  -1.89579
   2.22053   0.21696  -1.89579
   2.22053   0.21696  -1.89579
   2.22053   0.21696  -1.89579
   2.22053   0.21696  -1.89579
   2.22053   0.21696  -1.89579
   2.22053   0.21696  -1.89579
   1.74053   0.21696  -1.89579
   1.74053   0.21696  -2.37579
   1.74053   0.21696  -1.89579
   1.74053   0.21696  -2.37579
   1.74053   0.21696  -1.89579
   1.74053  -0.02304  -1.89579
   1.74053   0.21696  -1.89579
   1.74053  -0.02304  -1.89579
   1.74053   0.21696  -1.89579
   1.26053   0.21696  -1.89579
   1.26053  -0.02304  -1.89579
   1.26053  -0.02304  -1.89579
   1.26053  -0.02304  -1.89579
   1.26053  -0.02304  -1.89579
   1.26053  -0.02304  -1.89579
   0.78053  -0.02304  -1.89579
   0.78053  -0.02304  -1.89579
   0.78053  -0.02304  -1.89579
   0.78053  -0.02304  -1.89579
   0.78053  -0.02304  -1.89579
   0.78053  -0.02304  -1.89579
   0.78053  -0.02304  -2.37579
   0.78053  -0.26304  -1.89579
   0.78053  -0.26304  -1.89579
   0.30053  -0.26304  -1.89579
   0.30053  -0.26304  -1.41579
   0.30053  -0.26304  -1.41579
   0.30053  -0.26304  -1.41579
   0.30053  -0.26304  -1.41579
