********************************************************************************
               CENTRO DE INSTRUMENTACION Y REGISTRO SISMICO  A.C.  
                       Coordinacion de Servicios Tecnicos
     Anaxagoras 814, Col. Narvarte, Benito Juarez, C.P. 03020 Mexico, D.F.
            Tels. 667 45 42/ 687 45  82             Fax. 669 25 12
********************************************************************************
ARCHIVO ESTANDAR DE ACELERACION:
VERSION DEL FORMATO                    : 2.0
NOMBRE DEL ARCHIVO                     : BA490008.091
FECHA Y HORA DE CREACION               : 02/JUN/04, 12:18
REF. CATALOGO ACELEROGRAMAS, SMIS 1996 : REGISTRO No.     /PAG.


================================================================================
DATOS DE LA ESTACION:
NOMBRE DE LA ESTACION                  : BUENOS AIRES
CLAVE DE LA ESTACION                   : BA49
LOCALIZACION DE LA ESTACION            : ESCUELA SECUNDARIA 102, DOCTOR MARQUEZ
                                       : Y EJE CENTRAL, BUENOS AIRES.
                                       :
                                       :
                                       :
COORDENADAS DE LA ESTACION             : 19.410 LAT. N 
                                       : 99.145 LONG. W 
ALTITUD (msnm)                         : 2233
TIPO DE SUELO                          : TERRENO BLANDO, MATERIAL COMPRESIBLE
                                       : (ARCILLAS)
                                       : 
INSTITUCION RESPONSABLE                : CIRES 
                                       :

================================================================================
DATOS DEL ACELEROGRAFO:
MODELO DEL ACELEROGRAFO                : SSA-1
NUMERO DE SERIE DEL ACELEROGRAFO       : 176
NUMERO DE CANALES                      : 3
ORIENTACION C1-C6 (rumbo;orientacion)  : /N00E/+V/N90E
ORIENTACION C7-C12 (rumbo;orientacion) :
VEL. DE MUESTREO, C1-C6 (muestras/s)   : /200/200/200
VEL. DE MUESTREO, C7-C12 (muestras/s)  :
ESC. COMPLETA DE SENSORES, C1-C6, (g)  : /2/2/2
ESC. COMPLETA DE SENSORES, C7-C12, (g) :
FREC. NAT. DE SENSORES, C1-C6, (Hz)    : /52.99/52.03/52.99
FREC. NAT. DE SENSORES, C7-C12, (Hz)   :
AMORTIGUAMIENTO DE SENSORES, C1-C6     : /.5589/.5469/.6096
AMORTIGUAMIENTO DE SENSORES, C7-C12    :
INTERVALO DE MUESTREO, C1-C6, (s)      : /0.005/0.005/0.005
INTERVALO DE MUESTREO, C7-C12, (s)     :
UMBRAL DE DISPARO, C1-C6, (Gal)        : /2/2/2
UMBRAL DE DISPARO, C7-C12, (Gal)       :
MEMORIA DE PREEVENTO (s)               : 15
TIEMPO DE POSEVENTO (s)                : 60


================================================================================
DATOS DEL SISMO:
FECHA DEL SISMO (GMT)                  : 09/AGO/00
HORA EPICENTRO (GMT)                   : 11:41:47:7
MAGNITUD(ES)                           : /Mb=6.1/Ms=6.5/Mc=0.0/Ma=6.5/Me=7.0
COORDENADAS DEL EPICENTRO              : 17.99 LAT. N
                                       : 102.66 LONG. W
PROFUNDIDAD FOCAL (km)                 : 16.0
FUENTE DE LOS DATOS EPICENTRALES       : SSN
                                       : INSTITUTO DE GEOFISICA, UNAM

================================================================================
DATOS DE ESTE REGISTRO:
HORA DE LA PRIMERA MUESTRA (GMT)       : 11:43:30.00
EXACTITUD DEL TIEMPO (s)               :     
DURACION DEL REGISTRO (s), C1-C6       : /238.08/238.08/238.08
DURACION DEL REGISTRO (s), C7-C12      :
NUM. TOTAL DE MUESTRAS, C1-C6          : /47616/47616/47616
NUM. TOTAL DE MUESTRAS, C7-C12         :
ACEL. MAX. (Gal), C1-C6                : /24.57407/-4.04583/24.25905
ACEL. MAX., C1-C6, EN LA MUESTRA       :
ACEL. MAX. (Gal), C7-C12               :
ACEL. MAX., C7-C12, EN LA MUESTRA      :
UNIDADES DE LOS DATOS                  : Gal (cm/s/s)
FACTOR DE DECIMACION                   : 1
FORMATO DATOS (FORTRAN,10 campos/dato) : 3F10.5


================================================================================
CALIDAD DEL ACELEROGRAMA:
REGISTRO DIGITAL COMPLETO, CARECE DE TIEMPO ABSOLUTO.


================================================================================
COMENTARIOS:














================================================================================
DATOS DE ACELERACION:
---------+---------+---------+---------+---------+---------+---------+---------+
   CANAL-1   CANAL-2   CANAL-3   CANAL-4   CANAL-5   CANAL-6   CANAL-7   CANAL-8
      N00E        +V      N90E
---------+---------+---------+---------+---------+---------+---------+---------+
[...]
  -6.32593   0.98417 -15.49095
  -6.56593   1.22417 -15.73095
  -7.03593   1.22417 -15.73095
  -7.51593   1.22417 -15.97095
  -7.99593   1.22417 -16.21095
  -8.47593   1.22417 -16.45095
  -8.95593   1.22417 -16.45095
  -9.19593   1.22417 -16.69095
  -9.67593   1.22417 -16.69095
 -10.15593   1.22417 -16.93095
 -10.39593   1.46417 -17.17095
 -10.87593   1.22417 -17.17095
 -11.35593   1.22417 -17.17095
 -11.59593   1.22417 -17.41095
 -12.06593   1.22417 -17.65095
 -12.54593   1.22417 -17.65095
 -12.78593   0.98417 -17.89095
 -13.26593   0.98417 -18.13095
 -13.50593   0.74417 -18.13095
 -13.98593   0.98417 -18.13095
 -14.22593   0.98417 -18.37095
 -14.70593   0.74417 -18.37095
 -14.94593   0.50417 -18.37095
 -15.42593   0.50417 -18.37095
 -15.66593   0.50417 -18.37095
 -15.90593   0.26417 -18.61095
 -16.14593   0.26417 -18.61095
 -16.61593   0.26417 -18.61095
 -16.85593   0.02417 -18.61095
 -17.09593   0.02417 -18.61095
 -17.33593  -0.20583 -18.61095
 -17.57593  -0.20583 -18.61095
 -17.81593  -0.44583 -18.61095
 -18.05593  -0.44583 -18.61095
 -18.29593  -0.68583 -18.61095
 -18.53593  -0.68583 -18.61095
 -18.77593  -0.68583 -18.61095
 -19.01593  -0.92583 -18.61095
 -19.25593  -1.16583 -18.61095
 -19.49593  -1.16583 -18.61095
 -19.49593  -1.16583 -18.61095
 -19.73593  -1.16583 -18.61095
 -19.97593  -1.40583 -18.61095
 -20.21593  -1.64583 -18.61095
 -20.45593  -1.64583 -18.37095
 -20.45593  -1.88583 -18.61095
 -20.69593  -1.88583 -18.37095
 -20.93593  -2.12583 -18.37095
 -20.93593  -2.12583 -18.37095
 -21.17593  -2.12583 -18.37095
 -21.17593  -2.36583 -18.37095
 -21.40593  -2.36583 -18.37095
 -21.40593  -2.60583 -18.37095
 -21.64593  -2.60583 -18.37095
 -21.64593  -2.84583 -18.13095
 -21.64593  -2.84583 -18.13095
 -21.88593  -3.08583 -18.13095
 -21.88593  -3.08583 -18.13095
 -21.88593  -3.08583 -18.13095
 -22.12593  -3.08583 -18.13095
 -22.12593  -3.32583 -18.13095
 -22.12593  -3.32583 -17.89095
 -22.12593  -3.56583 -17.89095
 -22.12593  -3.56583 -17.89095
 -22.12593  -3.56583 -17.89095
 -22.36593  -3.56583 -17.89095
 -22.36593  -3.80583 -17.89095
 -22.36593  -3.80583 -17.65095
 -22.36593  -3.56583 -17.65095
 -22.36593  -3.80583 -17.65095
 -22.36593  -3.80583 -17.65095
 -22.36593  -3.80583 -17.65095
 -22.36593  -3.80583 -17.65095
 -22.36593  -3.80583 -17.65095
 -22.36593  -3.80583 -17.65095
 -22.36593  -3.80583 -17.41095
 -22.36593  -3.80583 -17.41095
 -22.12593  -4.04583 -17.41095
 -22.12593  -3.80583 -17.41095
 -22.12593  -4.04583 -17.17095
 -22.12593  -3.80583 -17.17095
 -22.12593  -3.80583 -17.17095
 -21.88593  -3.80583 -17.17095
 -21.88593  -3.80583 -17.17095
 -21.88593  -3.80583 -16.93095
 -21.88593  -3.80583 -16.93095
 -21.64593  -3.80583 -16.93095
 -21.64593  -3.56583 -16.93095
 -21.64593  -3.56583 -16.69095
 -21.40593  -3.56583 -16.69095
 -21.40593  -3.32583 -16.69095
 -21.40593  -3.32583 -16.69095
 -21.40593  -3.32583 -16.69095
 -21.17593  -3.32583 -16.69095
 -21.17593  -3.08583 -16.45095
 -20.93593  -3.08583 -16.45095
 -20.93593  -2.84583 -16.45095
 -20.93593  -2.84583 -16.45095
 -20.69593  -2.84583 -16.45095
 -20.69593  -2.84583 -16.21095
 -20.45593  -2.60583 -16.21095
 -20.45593  -2.36583 -16.21095
 -20.45593  -2.36583 -16.21095
 -20.21593  -2.36583 -16.21095
 -20.21593  -2.12583 -15.97095
 -19.97593  -2.12583 -15.97095
 -19.73593  -1.88583 -15.97095
 -19.73593  -1.88583 -15.97095
 -19.73593  -1.88583 -15.97095
 -19.49593  -1.64583 -15.97095
 -19.49593  -1.64583 -15.97095
 -19.25593  -1.40583 -15.97095
 -19.25593  -1.40583 -15.73095
 -19.01593  -1.16583 -15.73095
 -19.01593  -0.92583 -15.73095
 -18.77593  -0.92583 -15.49095
 -18.53593  -0.92583 -15.49095
 -18.53593  -0.68583 -15.25095
 -18.29593  -0.68583 -15.25095
 -18.05593  -0.68583 -15.25095
 -18.05593  -0.44583 -15.25095
 -17.81593  -0.44583 -15.25095
 -17.57593  -0.44583 -15.01095
 -17.57593  -0.44583 -15.01095
 -17.33593  -0.20583 -15.01095
 -17.33593  -0.20583 -14.77095
 -17.09593   0.02417 -14.77095
 -16.85593   0.02417 -14.77095
 -16.61593   0.02417 -14.53095
 -16.61593   0.26417 -14.53095
 -16.61593   0.02417 -14.53095
 -16.14593   0.50417 -14.53095
 -16.14593   0.50417 -14.53095
 -15.90593   0.50417 -14.53095
 -15.90593   0.50417 -14.53095
 -15.66593   0.50417 -14.30095
 -15.66593   0.74417 -14.30095
 -15.42593   0.74417 -14.06095
 -15.18593   0.74417 -14.06095
 -15.18593   0.98417 -14.06095
 -15.18593   0.98417 -14.06095
 -14.94593   0.98417 -13.82095
 -14.94593   1.22417 -13.82095
 -14.70593   1.22417 -13.58095
 -14.46593   1.46417 -13.58095
 -14.46593   1.46417 -13.34095
 -14.22593   1.46417 -13.34095
 -14.22593   1.46417 -13.10095
 -13.98593   1.70417 -13.10095
 -13.98593   1.70417 -12.62095
 -13.98593   1.94417 -12.62095
 -13.74593   1.94417 -12.38095
 -13.74593   1.94417 -12.14095
 -13.50593   2.18417 -11.90095
 -13.50593   2.18417 -11.66095
 -13.50593   2.42417 -11.42095
 -13.50593   2.42417 -11.42095
 -13.26593   2.42417 -11.18095
 -13.26593   2.66417 -10.94095
 -13.02593   2.90417 -10.70095
 -13.02593   2.90417 -10.46095
 -12.78593   2.90417 -10.22095
 -12.78593   2.90417  -9.98095
 -12.54593   2.90417  -9.74095
 -12.54593   3.14417  -9.51095
 -12.30593   3.14417  -9.27095
 -12.30593   3.14417  -8.79095
 -12.30593   3.14417  -8.55095
 -12.06593   3.14417  -8.07095
 -12.06593   3.14417  -7.83095
 -12.06593   3.14417  -7.59095
 -11.82593   3.14417  -7.35095
 -11.82593   2.90417  -7.11095
 -11.59593   3.14417  -6.87095
 -11.35593   3.14417  -6.39095
 -11.35593   2.90417  -6.15095
 -11.11593   2.90417  -5.67095
 -11.11593   2.90417  -5.43095
 -10.87593   2.90417  -5.19095
 -10.87593   2.66417  -4.95095
 -10.63593   2.66417  -4.72095
 -10.63593   2.66417  -4.24095
 -10.39593   2.42417  -4.00095
 -10.39593   2.42417  -3.76095
 -10.15593   2.42417  -3.52095
  -9.91593   2.42417  -3.28095
  -9.67593   2.42417  -3.04095
  -9.67593   2.18417  -2.80095
  -9.43593   2.18417  -2.56095
  -9.43593   2.42417  -2.32095
  -9.19593   2.18417  -2.08095
  -8.95593   2.18417  -1.84095
  -8.71593   2.18417  -1.60095
  -8.47593   1.94417  -1.36095
  -8.47593   2.18417  -1.12095
  -8.23593   1.94417  -0.88095
  -7.99593   1.94417  -0.64095
  -7.99593   2.18417  -0.40095
  -7.75593   2.18417  -0.16095
  -7.51593   2.18417   0.30905
  -7.51593   1.94417   0.30905
  -7.27593   1.94417   0.78905
  -7.27593   2.18417   0.78905
  -7.03593   2.18417   1.02905
  -6.80593   2.18417   1.26905
  -6.56593   2.42417   1.74905
  -6.56593   2.18417   1.74905
  -6.32593   2.42417   2.22905
  -6.32593   2.18417   2.22905
  -6.32593   1.94417   2.46905
  -6.08593   1.94417   2.70905
  -6.08593   2.18417   2.94905
  -5.84593   2.18417   3.18905
  -5.84593   2.18417   3.42905
  -5.60593   2.18417   3.66905
  -5.60593   2.18417   3.90905
  -5.36593   2.18417   4.38905
  -5.36593   2.18417   4.62905
  -5.12593   2.18417   4.86905
  -5.12593   2.18417   5.09905
  -5.12593   2.18417   5.33905
  -5.12593   2.18417   5.57905
  -4.88593   2.18417   5.81905
  -4.88593   2.18417   5.81905
  -4.64593   2.18417   6.29905
  -4.64593   2.18417   6.53905
  -4.40593   2.18417   6.77905
  -4.40593   2.18417   7.01905
  -4.16593   2.18417   7.01905
  -4.16593   1.94417   7.25905
  -3.92593   1.94417   7.49905
  -3.92593   1.94417   7.49905
  -3.92593   1.94417   7.73905
  -3.68593   1.94417   8.21905
  -3.68593   1.94417   8.21905
  -3.44593   1.94417   8.45905
  -3.20593   1.94417   8.69905
  -3.20593   1.94417   8.69905
  -2.96593   1.94417   8.93905
  -2.96593   1.94417   9.17905
  -2.72593   1.94417   9.17905
  -2.72593   1.70417   9.41905
  -2.48593   1.94417   9.41905
  -2.24593   1.70417   9.65905
  -2.00593   1.70417   9.65905
  -2.00593   1.70417   9.88905
  -1.77593   1.70417   9.88905
  -1.53593   1.70417  10.12905
  -1.53593   1.70417  10.36905
  -1.29593   1.70417  10.36905
  -1.05593   1.46417  10.36905
  -0.81593   1.70417  10.60905
  -0.57593   1.46417  10.84905
  -0.33593   1.46417  10.84905
  -0.09593   1.46417  11.08905
   0.38407   1.46417  11.08905
   0.62407   1.22417  11.32905
   0.62407   1.22417  11.32905
   1.10407   1.22417  11.56905
   1.34407   0.98417  11.56905
   1.58407   0.98417  11.80905
   1.82407   0.74417  11.80905
   2.06407   0.74417  12.04905
   2.54407   0.50417  12.04905
   2.54407   0.50417  12.28905
   3.01407   0.50417  12.28905
   3.25407   0.50417  12.52905
   3.49407   0.50417  12.76905
   3.97407   0.26417  12.76905
   4.21407   0.02417  13.00905
   4.45407   0.02417  13.00905
   4.93407   0.02417  13.00905
   5.17407  -0.20583  13.24905
   5.41407  -0.20583  13.24905
   5.89407  -0.44583  13.48905
   6.13407  -0.44583  13.72905
   6.37407  -0.68583  13.72905
   6.61407  -0.92583  13.96905
   6.85407  -0.92583  13.96905
   7.33407  -0.92583  14.20905
   7.57407  -1.16583  14.20905
   7.80407  -1.40583  14.44905
   8.28407  -1.40583  14.44905
   8.52407  -1.64583  14.44905
   8.76407  -1.88583  14.67905
   9.24407  -1.88583  14.67905
   9.48407  -1.88583  14.67905
   9.72407  -1.88583  14.91905
   9.96407  -2.12583  14.91905
  10.20407  -2.12583  14.91905
  10.44407  -2.36583  15.15905
  10.68407  -2.36583  15.39905
  11.16407  -2.36583  15.39905
  11.40407  -2.60583  15.39905
  11.64407  -2.60583  15.39905
  11.88407  -2.60583  15.39905
  12.36407  -2.60583  15.63905
  12.59407  -2.60583  15.63905
  12.83407  -2.84583  15.63905
  13.31407  -2.60583  15.63905
  13.55407  -2.84583  15.87905
  13.79407  -2.84583  15.87905
  14.03407  -2.84583  15.87905
  14.27407  -2.84583  15.87905
  14.51407  -2.84583  15.87905
  14.99407  -2.84583  15.87905
  15.23407  -2.60583  15.87905
  15.47407  -2.60583  15.87905
  15.95407  -2.60583  15.87905
  16.19407  -2.60583  15.87905
  16.43407  -2.60583  15.87905
  16.67407  -2.60583  15.87905
  16.91407  -2.60583  16.11905
  17.15407  -2.36583  16.11905
  17.38407  -2.36583  16.11905
  17.86407  -2.36583  16.11905
  18.10407  -2.36583  16.11905
  18.34407  -2.36583  16.11905
  18.58407  -2.12583  16.11905
  18.82407  -2.12583  16.11905
  19.06407  -2.12583  16.11905
  19.54407  -2.12583  15.87905
  19.78407  -2.12583  15.87905
  20.02407  -1.88583  15.87905
  20.26407  -1.88583  15.87905
  20.50407  -1.88583  15.87905
  20.74407  -1.88583  15.63905
  21.22407  -1.64583  15.63905
  21.46407  -1.64583  15.63905
  21.70407  -1.40583  15.39905
  21.94407  -1.40583  15.39905
  22.17407  -1.16583  15.39905
  22.41407  -1.16583  15.39905
  22.65407  -1.16583  15.15905
  22.89407  -1.16583  15.15905
  23.13407  -0.92583  15.15905
  23.13407  -0.92583  14.91905
  23.37407  -0.92583  14.91905
  23.61407  -0.92583  14.67905
  23.85407  -0.68583  14.67905
  24.09407  -0.68583  14.44905
  24.09407  -0.68583  14.44905
  24.33407  -0.68583  14.20905
  24.33407  -0.68583  14.20905
  24.33407  -0.44583  13.96905
  24.33407  -0.44583  13.96905
  24.33407  -0.44583  13.72905
  24.33407  -0.44583  13.72905
  24.57407  -0.20583  13.48905
  24.57407   0.02417  13.48905
  24.57407   0.02417  13.48905
  24.57407   0.02417  13.24905
  24.57407   0.26417  13.24905
  24.57407   0.26417  13.00905
  24.57407   0.50417  13.00905
  24.57407   0.50417  12.76905
  24.57407   0.50417  12.76905
  24.33407   0.50417  12.52905
  24.33407   0.74417  12.52905
  24.33407   0.98417  12.52905
  24.33407   0.98417  12.28905
  24.57407   0.98417  12.28905
  24.33407   1.22417  12.28905
  24.33407   0.98417  12.04905
  24.33407   0.98417  11.80905
  24.33407   0.98417  11.80905
  24.09407   1.22417  11.56905
  24.09407   1.22417  11.32905
  24.09407   1.22417  11.08905
  23.85407   1.22417  11.08905
  23.85407   1.22417  11.08905
  23.61407   1.22417  10.84905
  23.61407   1.22417  10.84905
  23.61407   1.46417  10.60905
  23.61407   1.22417  10.60905
  23.37407   1.22417  10.36905
  23.37407   1.22417  10.12905
  23.13407   1.22417  10.12905
  23.13407   1.46417  10.12905
  22.89407   1.46417  10.12905
  22.89407   1.46417   9.88905
  22.65407   1.46417   9.65905
  22.65407   1.46417   9.41905
  22.41407   1.46417   9.17905
  22.41407   1.46417   9.17905
  22.17407   1.46417   8.93905
  21.94407   1.46417   8.93905
  21.70407   1.70417   8.69905
  21.70407   1.46417   8.45905
  21.70407   1.70417   8.45905
  21.46407   1.70417   8.21905
  21.46407   1.70417   8.21905
  21.22407   1.70417   7.97905
  20.98407   1.70417   7.73905
  20.98407   1.70417   7.49905
  20.74407   1.70417   7.49905
  20.50407   1.70417   7.25905
  20.50407   1.46417   7.01905
  20.26407   1.70417   7.01905
  20.02407   1.46417   7.01905
  19.78407   1.46417   6.77905
  19.54407   1.70417   6.53905
  19.54407   1.70417   6.53905
  19.30407   1.46417   6.29905
  19.30407   1.70417   6.29905
  19.06407   1.70417   6.05905
  19.06407   1.70417   5.81905
  18.82407   1.46417   5.81905
  18.58407   1.46417   5.81905
  18.58407   1.46417   5.57905
  18.34407   1.46417   5.57905
  18.10407   1.46417   5.57905
  17.86407   1.46417   5.33905
  17.62407   1.46417   5.33905
  17.62407   1.46417   5.33905
  17.38407   1.46417   5.09905
  17.38407   1.22417   5.09905
  17.15407   0.98417   4.86905
  16.91407   0.98417   4.86905
  16.91407   0.98417   4.62905
  16.67407   1.22417   4.62905
  16.43407   1.22417   4.38905
  16.43407   0.98417   4.14905
  16.19407   0.98417   4.14905
  15.95407   0.98417   3.90905
  15.71407   0.98417   3.90905
  15.71407   0.98417   3.90905
  15.47407   0.74417   3.66905
  15.47407   0.74417   3.42905
  15.23407   0.98417   3.42905
  15.23407   0.74417   3.18905
  14.99407   0.74417   2.94905
  14.99407   0.74417   2.70905
  14.75407   0.74417   2.70905
  14.51407   0.74417   2.46905
  14.51407   0.74417   2.22905
  14.27407   0.50417   1.98905
  14.03407   0.50417   1.74905
  14.03407   0.50417   1.50905
  13.79407   0.50417   1.26905
  13.55407   0.50417   1.26905
  13.55407   0.50417   1.02905
  13.31407   0.26417   0.54905
  13.31407   0.50417   0.30905
  13.07407   0.50417   0.07905
  13.07407   0.26417  -0.40095
  12.83407   0.26417  -0.40095
  12.59407   0.26417  -0.64095
  12.59407   0.26417  -0.88095
  12.36407   0.02417  -1.36095
  12.12407   0.26417  -1.60095
  12.12407   0.02417  -1.84095
  11.88407   0.26417  -2.08095
  11.64407   0.26417  -2.56095
  11.40407   0.02417  -2.80095
  11.40407   0.02417  -3.04095
  11.16407   0.02417  -3.28095
  10.92407   0.02417  -3.52095
  10.68407  -0.20583  -3.76095
  10.44407   0.02417  -4.00095
  10.44407  -0.20583  -4.24095
  10.20407  -0.20583  -4.48095
   9.96407  -0.20583  -4.72095
   9.72407  -0.20583  -4.95095
   9.48407  -0.20583  -5.19095
   9.24407  -0.20583  -5.43095
   9.00407  -0.20583  -5.67095
   9.00407  -0.20583  -5.91095
   8.52407  -0.20583  -5.91095
   8.28407  -0.44583  -6.15095
   8.04407  -0.44583  -6.39095
   7.80407  -0.44583  -6.63095
   7.57407  -0.44583  -6.87095
   7.33407  -0.44583  -6.87095
   7.09407  -0.68583  -7.11095
   6.85407  -0.44583  -7.35095
   6.61407  -0.68583  -7.35095
   6.37407  -0.68583  -7.59095
   5.89407  -0.68583  -7.83095
   5.65407  -0.68583  -7.83095
   5.41407  -0.68583  -8.07095
   5.17407  -0.68583  -8.07095
   4.93407  -0.92583  -8.31095
   4.69407  -0.68583  -8.55095
   4.45407  -0.92583  -8.55095
   3.97407  -0.68583  -8.79095
   3.73407  -0.68583  -9.03095
   3.49407  -0.68583  -9.03095
   3.25407  -0.68583  -9.27095
   2.78407  -0.68583  -9.27095
   2.54407  -0.92583  -9.51095
   2.06407  -0.68583  -9.51095
   1.82407  -0.68583  -9.74095
   1.58407  -0.68583  -9.74095
   1.34407  -0.92583  -9.98095
   1.10407  -0.92583  -9.98095
   0.86407  -0.92583 -10.22095
   0.38407  -0.92583 -10.46095
