********************************************************************************
              CENTRO DE INSTRUMENTACION Y REGISTRO SISMICO  A.C.                

    Anaxagoras 814, Col. Narvarte, Benito Juarez, C.P. 03020 Mexico, D.F.       
           Tels. 5687 45 42/ 5687 45  82             Fax. 5669 25 12            
********************************************************************************
ARCHIVO ESTANDAR DE ACELERACION:
VERSION DEL FORMATO                    : 2.0
NOMBRE DEL ARCHIVO                     : BA4920071106063542
FECHA Y HORA DE CREACION               : 06/NOV/07, 11:17
REF. CATALOGO ACELEROGRAMAS, SMIS 1996 : REGISTRO No.     /PAG.


================================================================================
DATOS DE LA ESTACION:
NOMBRE DE LA ESTACION                  : BUENOS AIRES
CLAVE DE LA ESTACION                   : BA49
LOCALIZACION DE LA ESTACION            : Del. Cuauhtémoc, Col. Doctores,        
                                       : Av. Lázaro Cárdenas esq. con           
                                       : Calle Dr. Márquez.                     
                                       :                                        
                                       : 
COORDENADAS DE LA ESTACION             : 19.4097 LAT. N
                                       : 99.1450 LONG. W
ALTITUD (msnm)                         : 2233
TIPO DE SUELO                          : Terreno blando, material compresible
                                       : (arcillas)                
                                       : 
INSTITUCION RESPONSABLE                : CIRES


================================================================================
DATOS DEL ACELEROGRAFO:
MODELO DEL ACELEROGRAFO                : SSA-1
NUMERO DE SERIE DEL ACELEROGRAFO       : 176
NUMERO DE CANALES                      : 3
ORIENTACION C1-C6 (rumbo;orientacion)  : /N00E/+V/N90W
ORIENTACION C7-C12 (rumbo;orientacion) : 
VEL. DE MUESTREO, C1-C6 (muestras/s)   : /200/200/200
VEL. DE MUESTREO, C7-C12 (muestras/s)  : 
ESC. COMPLETA DE SENSORES, C1-C6, (g)  : /2.0/2.0/2.0
ESC. COMPLETA DE SENSORES, C7-C12, (g) : 
FREC. NAT. DE SENSORES, C1-C6, (Hz)    : /52.99/52.03/52.99
FREC. NAT. DE SENSORES, C7-C12, (Hz)   : 
AMORTIGUAMIENTO DE SENSORES, C1-C6     : /0.5589/0.5469/0.6096
AMORTIGUAMIENTO DE SENSORES, C7-C12    : 
INTERVALO DE MUESTREO, C1-C6, (s)      : /0.005/0.005/0.005
INTERVALO DE MUESTREO, C7-C12, (s)     : 
UMBRAL DE DISPARO, C1-C6, (Gal)        : /1.5/2.0/1.0
UMBRAL DE DISPARO, C7-C12, (Gal)       : 
MEMORIA DE PREEVENTO (s)               : 15.36
TIEMPO DE POSEVENTO (s)                : 60.0


================================================================================
DATOS DEL SISMO:
FECHA DEL SISMO (GMT)                  : 06/NOV/07
HORA EPICENTRO (GMT)                   : 06:35:42.0
MAGNITUD(ES)                           : /Mc=5.6
COORDENADAS DEL EPICENTRO              : 17.08 LAT. N
                                       : -100.14 LONG. W
PROFUNDIDAD FOCAL (km)                 : 9
FUENTE DE LOS DATOS EPICENTRALES       : SSN
                                       : INSTITUTO DE GEOFISICA, UNAM

================================================================================
DATOS DE ESTE REGISTRO:
HORA DE LA PRIMERA MUESTRA (GMT)       : 6:37:01.31
EXACTITUD DEL TIEMPO (s)               : 0.005
DURACION DEL REGISTRO (s), C1-C6       : /131.84/131.84/131.84
DURACION DEL REGISTRO (s), C7-C12      : 
NUM. TOTAL DE MUESTRAS, C1-C6          : /26368/26368/26368
NUM. TOTAL DE MUESTRAS, C7-C12         : 
ACEL. MAX. (Gal), C1-C6                : /3.127/1.48031/3.39508
ACEL. MAX., C1-C6, EN LA MUESTRA       : /10851/3361/11786
ACEL. MAX. (Gal), C7-C12               : 
ACEL. MAX., C7-C12, EN LA MUESTRA      : 
UNIDADES DE LOS DATOS                  : Gal (cm/s/s)
FACTOR DE DECIMACION                   : 1
FORMATO DATOS (FORTRAN,10 campos/dato) : 3F10.5


================================================================================
CALIDAD DEL ACELEROGRAMA:
REGISTRO DIGITAL COMPLETO CON TIEMPO ABSOLUTO CORRECTO.


================================================================================
COMENTARIOS:














================================================================================
DATOS DE ACELERACION:
---------+---------+---------+---------+---------+---------+---------+---------+
   CANAL-1   CANAL-2   CANAL-3   CANAL-4   CANAL-5   CANAL-6   CANAL-7   CANAL-8
      N00E        +V      N90W
---------+---------+---------+---------+---------+---------+---------+---------+
[...]
   0.94314   0.04379   0.19622
   0.94314   0.04379   0.43564
   0.94314   0.04379   0.43564
   0.94314   0.04379   0.43564
   0.94314   0.04379   0.43564
   1.18256   0.04379   0.43564
   1.18256   0.04379   0.67506
   1.18256   0.04379   0.43564
   1.18256   0.04379   0.67506
   1.18256   0.04379   0.67506
   1.18256   0.04379   0.67506
   1.18256   0.04379   0.67506
   1.18256   0.28321   0.91448
   1.18256   0.28321   0.91448
   1.18256   0.04379   0.91448
   1.18256   0.28321   0.91448
   1.42198   0.04379   0.91448
   1.42198   0.28321   0.91448
   1.42198   0.28321   1.15390
   1.42198   0.28321   1.15390
   1.42198   0.28321   1.15390
   1.42198   0.28321   1.15390
   1.42198   0.28321   1.15390
   1.42198   0.04379   1.15390
   1.42198   0.28321   1.39332
   1.42198   0.28321   1.39332
   1.42198   0.28321   1.39332
   1.42198   0.28321   1.39332
   1.42198   0.04379   1.39332
   1.42198   0.28321   1.63274
   1.42198   0.04379   1.63274
   1.42198   0.04379   1.63274
   1.42198   0.04379   1.63274
   1.42198   0.04379   1.39332
   1.42198   0.04379   1.87216
   1.42198   0.28321   1.63274
   1.42198   0.04379   1.63274
   1.66140   0.04379   1.87216
   1.42198   0.04379   1.87216
   1.42198   0.04379   1.87216
   1.66140   0.04379   1.87216
   1.66140   0.04379   1.87216
   1.66140   0.04379   1.87216
   1.66140   0.04379   1.87216
   1.66140   0.04379   2.11158
   1.66140   0.04379   2.11158
   1.66140   0.04379   2.11158
   1.66140   0.04379   2.11158
   1.66140   0.04379   2.11158
   1.66140   0.04379   2.11158
   1.66140   0.04379   2.35100
   1.66140   0.04379   2.35100
   1.66140   0.04379   2.11158
   1.66140   0.04379   2.11158
   1.66140   0.04379   2.35100
   1.66140   0.04379   2.11158
   1.66140   0.04379   2.35100
   1.66140   0.04379   2.35100
   1.66140   0.04379   2.35100
   1.66140   0.04379   2.35100
   1.66140   0.04379   2.35100
   1.66140   0.04379   2.35100
   1.66140   0.04379   2.35100
   1.66140   0.04379   2.35100
   1.66140   0.04379   2.35100
   1.66140   0.04379   2.59042
   1.66140   0.04379   2.35100
   1.66140   0.04379   2.59042
   1.66140   0.04379   2.59042
   1.66140   0.04379   2.59042
   1.66140   0.04379   2.59042
   1.66140   0.04379   2.59042
   1.66140   0.04379   2.59042
   1.66140   0.04379   2.59042
   1.66140   0.04379   2.59042
   1.66140  -0.19563   2.59042
   1.66140   0.04379   2.59042
   1.66140  -0.19563   2.59042
   1.66140  -0.19563   2.59042
   1.42198  -0.19563   2.59042
   1.42198  -0.19563   2.82984
   1.42198  -0.19563   2.59042
   1.42198  -0.19563   2.82984
   1.42198   0.04379   2.82984
   1.42198  -0.19563   2.82984
   1.42198   0.04379   2.82984
   1.42198   0.04379   2.82984
   1.42198  -0.19563   2.82984
   1.42198   0.04379   2.82984
   1.42198   0.04379   2.82984
   1.42198  -0.19563   2.82984
   1.42198  -0.19563   2.82984
   1.42198  -0.19563   2.82984
   1.42198  -0.19563   2.82984
   1.18256  -0.19563   2.82984
   1.42198   0.04379   2.82984
   1.42198  -0.19563   2.82984
   1.18256  -0.19563   3.06926
   1.42198  -0.19563   2.82984
   1.18256  -0.19563   2.82984
   1.18256  -0.19563   2.82984
   1.18256  -0.19563   2.82984
   1.18256   0.04379   3.06926
   1.18256   0.04379   2.82984
   1.18256  -0.19563   2.82984
   1.18256   0.04379   2.82984
   1.18256   0.04379   2.82984
   1.18256   0.04379   2.82984
   1.42198   0.04379   2.82984
   1.18256   0.04379   2.82984
   1.18256  -0.19563   2.82984
   1.42198  -0.19563   2.82984
   1.18256  -0.19563   2.82984
   1.18256   0.04379   2.82984
   1.18256   0.04379   2.82984
   1.18256  -0.19563   2.82984
   1.18256  -0.19563   2.59042
   1.18256  -0.19563   2.82984
   1.18256  -0.19563   2.82984
   1.18256  -0.19563   2.82984
   1.18256  -0.19563   2.82984
   1.18256  -0.19563   2.82984
   1.18256  -0.19563   2.82984
   1.18256  -0.19563   2.82984
   1.18256  -0.19563   2.59042
   1.18256  -0.19563   2.82984
   1.18256  -0.19563   2.59042
   1.18256   0.04379   2.82984
   1.18256  -0.19563   2.82984
   1.18256  -0.19563   2.82984
   1.18256  -0.19563   2.59042
   1.18256  -0.19563   2.59042
   1.18256  -0.19563   2.59042
   1.18256  -0.19563   2.59042
   1.18256   0.04379   2.59042
   1.18256   0.04379   2.82984
   1.18256   0.04379   2.59042
   1.18256   0.04379   2.82984
   1.18256   0.04379   2.59042
   1.18256   0.04379   2.59042
   1.18256   0.04379   2.59042
   1.18256   0.04379   2.59042
   1.18256   0.04379   2.59042
   1.18256   0.04379   2.59042
   1.18256   0.04379   2.59042
   1.18256   0.04379   2.59042
   1.18256   0.04379   2.35100
   1.18256   0.04379   2.59042
   1.18256   0.04379   2.35100
   1.18256   0.04379   2.35100
   1.18256   0.04379   2.35100
   1.18256   0.04379   2.35100
   1.18256   0.04379   2.35100
   1.18256   0.04379   2.35100
   1.18256   0.04379   2.35100
   1.18256   0.04379   2.35100
   1.18256   0.04379   2.35100
   1.18256   0.04379   2.11158
   0.94314   0.04379   2.11158
   0.94314   0.04379   2.11158
   0.94314   0.04379   2.11158
   0.94314   0.04379   2.11158
   1.18256   0.04379   2.11158
   0.94314   0.04379   1.87216
   0.94314   0.04379   1.87216
   0.94314   0.04379   1.87216
   0.94314   0.04379   1.87216
   0.94314   0.04379   1.87216
   0.94314   0.04379   1.87216
   0.70372   0.04379   1.87216
   0.70372   0.04379   1.87216
   0.70372   0.04379   1.63274
   0.70372   0.04379   1.63274
   0.70372   0.04379   1.63274
   0.70372   0.04379   1.63274
   0.70372   0.04379   1.39332
   0.70372   0.04379   1.39332
   0.70372   0.04379   1.39332
   0.70372   0.04379   1.39332
   0.70372   0.28321   1.39332
   0.46430   0.04379   1.39332
   0.70372   0.28321   1.15390
   0.46430   0.04379   1.15390
   0.46430   0.04379   1.15390
   0.46430   0.04379   1.15390
   0.22488   0.04379   1.15390
   0.46430   0.04379   1.15390
   0.46430   0.04379   0.91448
   0.46430   0.04379   0.91448
   0.22488   0.28321   0.91448
   0.22488   0.04379   0.91448
   0.22488   0.04379   0.91448
   0.22488   0.28321   0.91448
   0.22488   0.04379   0.91448
  -0.01454   0.04379   0.67506
   0.22488   0.04379   0.67506
   0.22488   0.28321   0.67506
  -0.01454   0.04379   0.67506
  -0.01454   0.28321   0.67506
  -0.01454   0.04379   0.67506
  -0.01454   0.28321   0.67506
  -0.01454   0.28321   0.67506
  -0.01454   0.04379   0.43564
  -0.01454   0.04379   0.67506
  -0.25396   0.04379   0.43564
  -0.25396   0.04379   0.43564
  -0.25396   0.04379   0.43564
  -0.25396   0.04379   0.43564
  -0.25396   0.28321   0.43564
  -0.25396   0.04379   0.43564
  -0.25396   0.04379   0.43564
  -0.25396   0.04379   0.43564
  -0.25396   0.04379   0.19622
  -0.25396   0.04379   0.19622
  -0.25396   0.04379   0.19622
  -0.49338   0.04379  -0.04320
  -0.49338   0.04379   0.19622
  -0.49338   0.04379  -0.04320
  -0.49338   0.04379  -0.04320
  -0.49338   0.04379  -0.04320
  -0.49338   0.04379  -0.04320
  -0.49338   0.04379   0.19622
  -0.49338   0.04379  -0.04320
  -0.49338   0.04379  -0.04320
  -0.49338   0.04379  -0.04320
  -0.49338   0.04379  -0.04320
  -0.49338   0.04379  -0.04320
  -0.49338   0.04379  -0.04320
  -0.49338   0.04379  -0.04320
  -0.49338   0.04379  -0.04320
  -0.49338   0.04379  -0.04320
  -0.49338   0.04379  -0.28262
  -0.49338   0.04379  -0.28262
  -0.49338   0.04379  -0.28262
  -0.49338   0.04379  -0.28262
  -0.49338   0.04379  -0.28262
  -0.49338   0.04379  -0.28262
  -0.49338   0.04379  -0.28262
  -0.49338  -0.19563  -0.28262
  -0.49338   0.04379  -0.52204
  -0.49338   0.04379  -0.52204
  -0.49338  -0.19563  -0.52204
  -0.49338  -0.19563  -0.52204
  -0.73280  -0.19563  -0.52204
  -0.73280  -0.19563  -0.52204
  -0.73280  -0.19563  -0.52204
  -0.73280  -0.19563  -0.52204
  -0.73280  -0.19563  -0.52204
  -0.73280  -0.19563  -0.52204
  -0.73280  -0.19563  -0.52204
  -0.73280  -0.19563  -0.52204
  -0.73280  -0.19563  -0.52204
  -0.73280  -0.19563  -0.52204
  -0.73280  -0.19563  -0.52204
  -0.73280  -0.19563  -0.52204
  -0.73280  -0.19563  -0.52204
  -0.97222  -0.19563  -0.76146
  -0.97222   0.04379  -0.76146
  -0.97222  -0.19563  -0.76146
  -0.97222   0.04379  -0.76146
  -0.97222   0.04379  -0.76146
  -0.97222   0.04379  -0.76146
  -0.97222   0.04379  -0.76146
  -0.97222   0.04379  -0.76146
  -0.97222   0.04379  -0.76146
  -0.97222   0.04379  -0.76146
  -0.97222   0.04379  -0.76146
  -0.97222   0.04379  -1.00088
  -0.97222   0.04379  -1.00088
  -0.97222  -0.19563  -1.00088
  -0.97222   0.04379  -1.00088
  -0.97222   0.04379  -1.00088
  -0.97222  -0.19563  -1.00088
  -0.97222   0.04379  -1.00088
  -0.97222   0.04379  -1.24030
  -0.97222   0.04379  -1.24030
  -0.97222   0.04379  -1.24030
  -0.97222   0.04379  -1.24030
  -0.73280   0.04379  -1.24030
  -0.97222   0.04379  -1.24030
  -0.97222   0.04379  -1.24030
  -0.73280   0.04379  -1.47972
  -0.73280   0.04379  -1.47972
  -0.73280   0.04379  -1.47972
  -0.73280   0.04379  -1.47972
  -0.73280   0.04379  -1.47972
  -0.73280   0.04379  -1.47972
  -0.73280   0.04379  -1.71914
  -0.73280   0.04379  -1.71914
  -0.73280   0.04379  -1.71914
  -0.73280   0.04379  -1.71914
  -0.73280   0.04379  -1.95856
  -0.73280   0.04379  -1.95856
  -0.49338   0.04379  -1.95856
  -0.49338   0.04379  -1.95856
  -0.49338   0.04379  -1.95856
  -0.49338   0.04379  -1.95856
  -0.49338   0.04379  -1.95856
  -0.49338   0.04379  -2.19798
  -0.49338   0.04379  -2.19798
  -0.49338   0.04379  -2.19798
  -0.49338   0.04379  -2.19798
  -0.49338   0.04379  -2.19798
  -0.49338   0.04379  -2.43740
  -0.49338   0.04379  -2.43740
  -0.49338   0.04379  -2.43740
  -0.49338  -0.19563  -2.43740
  -0.49338   0.04379  -2.67682
  -0.49338   0.04379  -2.43740
  -0.49338   0.04379  -2.67682
  -0.49338   0.04379  -2.43740
  -0.25396   0.04379  -2.67682
  -0.25396   0.04379  -2.67682
  -0.25396   0.04379  -2.67682
  -0.25396   0.04379  -2.91624
  -0.25396   0.04379  -2.91624
  -0.25396   0.04379  -2.91624
  -0.25396   0.04379  -2.91624
  -0.25396   0.04379  -2.91624
  -0.25396   0.04379  -2.91624
  -0.25396   0.04379  -2.91624
  -0.25396   0.04379  -2.91624
  -0.25396   0.28321  -2.91624
  -0.25396   0.04379  -2.91624
  -0.25396   0.04379  -2.91624
  -0.25396   0.04379  -2.91624
  -0.25396   0.28321  -2.91624
  -0.25396   0.28321  -2.91624
  -0.25396   0.28321  -2.91624
  -0.25396   0.28321  -3.15566
  -0.25396   0.28321  -3.15566
  -0.25396   0.28321  -3.15566
  -0.25396   0.28321  -3.15566
  -0.25396   0.28321  -3.15566
  -0.25396   0.28321  -3.15566
  -0.25396   0.28321  -3.15566
  -0.25396   0.28321  -3.15566
  -0.25396   0.28321  -3.15566
  -0.25396   0.04379  -3.15566
  -0.25396   0.28321  -3.15566
  -0.25396   0.04379  -3.15566
  -0.25396   0.04379  -3.15566
  -0.25396   0.04379  -3.15566
  -0.25396   0.04379  -3.15566
  -0.25396   0.04379  -3.15566
  -0.25396   0.04379  -3.15566
  -0.25396   0.04379  -3.39508
  -0.25396   0.04379  -3.39508
  -0.25396   0.04379  -3.15566
  -0.25396   0.04379  -3.15566
  -0.25396   0.04379  -3.15566
  -0.25396   0.04379  -3.39508
  -0.25396   0.04379  -3.15566
  -0.25396   0.04379  -3.15566
  -0.25396   0.04379  -3.15566
  -0.25396   0.04379  -3.15566
  -0.25396   0.04379  -3.39508
  -0.25396   0.04379  -3.15566
  -0.25396   0.04379  -3.15566
  -0.25396   0.04379  -3.15566
  -0.25396   0.04379  -3.15566
  -0.25396   0.04379  -3.15566
  -0.25396   0.04379  -3.15566
  -0.25396   0.04379  -3.15566
  -0.25396   0.04379  -3.15566
  -0.25396   0.04379  -3.15566
  -0.25396   0.04379  -3.15566
  -0.25396   0.04379  -3.15566
  -0.01454   0.04379  -3.15566
  -0.01454   0.04379  -3.15566
  -0.01454   0.04379  -2.91624
  -0.01454   0.04379  -2.91624
  -0.01454   0.04379  -2.91624
  -0.01454  -0.19563  -2.91624
  -0.01454  -0.19563  -2.91624
  -0.01454   0.04379  -2.91624
  -0.01454  -0.19563  -2.91624
  -0.01454   0.04379  -2.91624
  -0.01454  -0.19563  -2.91624
  -0.01454   0.04379  -2.91624
  -0.25396   0.04379  -2.91624
  -0.01454   0.04379  -2.91624
  -0.25396   0.04379  -2.91624
  -0.01454   0.04379  -2.67682
  -0.25396   0.04379  -2.67682
  -0.01454   0.04379  -2.67682
  -0.01454   0.04379  -2.67682
  -0.01454   0.04379  -2.67682
  -0.25396   0.04379  -2.67682
  -0.25396   0.04379  -2.67682
  -0.25396   0.04379  -2.43740
  -0.01454   0.04379  -2.43740
  -0.01454   0.04379  -2.43740
  -0.25396   0.04379  -2.43740
  -0.25396   0.04379  -2.43740
  -0.25396   0.04379  -2.43740
  -0.25396   0.04379  -2.43740
  -0.01454   0.04379  -2.19798
  -0.25396   0.04379  -2.19798
  -0.25396   0.04379  -2.19798
  -0.25396   0.04379  -2.19798
  -0.25396   0.04379  -2.19798
  -0.25396   0.04379  -2.19798
  -0.25396   0.04379  -2.19798
  -0.25396   0.04379  -1.95856
  -0.01454  -0.19563  -1.95856
  -0.25396   0.04379  -1.95856
  -0.25396   0.04379  -1.95856
  -0.25396   0.04379  -1.95856
  -0.25396   0.04379  -1.95856
  -0.25396   0.04379  -1.71914
  -0.25396   0.04379  -1.71914
  -0.25396  -0.19563  -1.71914
  -0.25396   0.04379  -1.71914
  -0.25396   0.04379  -1.71914
  -0.25396   0.04379  -1.47972
  -0.25396   0.04379  -1.47972
  -0.25396   0.04379  -1.47972
  -0.25396   0.04379  -1.47972
  -0.25396   0.04379  -1.47972
  -0.25396   0.04379  -1.24030
  -0.25396   0.04379  -1.24030
  -0.25396  -0.19563  -1.24030
  -0.25396  -0.19563  -1.24030
  -0.25396  -0.19563  -1.24030
  -0.25396  -0.19563  -1.24030
  -0.25396  -0.19563  -1.00088
  -0.25396  -0.19563  -1.00088
  -0.25396  -0.19563  -1.00088
  -0.25396  -0.19563  -1.00088
  -0.25396  -0.19563  -1.00088
  -0.25396  -0.19563  -0.76146
  -0.25396  -0.19563  -1.00088
  -0.25396  -0.19563  -0.76146
  -0.25396  -0.19563  -0.76146
  -0.25396  -0.19563  -0.76146
  -0.25396  -0.19563  -0.76146
  -0.25396  -0.19563  -0.52204
  -0.25396  -0.19563  -0.52204
  -0.25396  -0.19563  -0.52204
  -0.25396  -0.19563  -0.52204
  -0.25396  -0.19563  -0.28262
  -0.25396  -0.19563  -0.28262
  -0.25396  -0.19563  -0.28262
  -0.25396  -0.19563  -0.28262
  -0.25396  -0.19563  -0.28262
  -0.25396  -0.19563  -0.04320
  -0.25396  -0.19563  -0.04320
  -0.01454  -0.19563  -0.04320
  -0.01454  -0.19563  -0.04320
  -0.01454  -0.19563  -0.04320
  -0.01454  -0.19563  -0.04320
  -0.01454  -0.19563  -0.04320
  -0.25396  -0.19563   0.19622
  -0.25396  -0.19563   0.19622
  -0.25396  -0.19563   0.19622
  -0.25396  -0.19563   0.19622
  -0.01454  -0.19563   0.43564
  -0.01454  -0.19563   0.43564
  -0.01454  -0.19563   0.43564
  -0.01454  -0.19563   0.67506
  -0.25396  -0.19563   0.67506
  -0.25396  -0.19563   0.67506
  -0.25396  -0.19563   0.67506
  -0.01454  -0.19563   0.67506
  -0.25396  -0.19563   0.91448
  -0.01454  -0.19563   0.91448
  -0.25396  -0.19563   0.91448
  -0.01454  -0.19563   0.91448
  -0.01454   0.04379   0.91448
  -0.01454   0.04379   0.91448
  -0.01454   0.04379   1.15390
  -0.01454   0.04379   1.15390
  -0.25396   0.04379   0.91448
  -0.01454   0.04379   1.15390
  -0.01454   0.04379   1.15390
  -0.01454   0.04379   1.15390
  -0.01454   0.04379   1.15390
  -0.01454   0.04379   1.39332
  -0.01454   0.04379   1.39332
  -0.01454   0.04379   1.15390
  -0.01454   0.04379   1.39332
  -0.01454   0.04379   1.39332
  -0.01454   0.04379   1.39332
  -0.01454   0.04379   1.39332
  -0.01454   0.04379   1.39332
  -0.01454   0.04379   1.39332
  -0.01454   0.04379   1.63274
  -0.01454   0.04379   1.39332
  -0.01454   0.04379   1.63274
  -0.01454   0.04379   1.63274
  -0.01454   0.04379   1.63274
  -0.01454   0.04379   1.63274
  -0.01454   0.04379   1.63274
  -0.01454   0.04379   1.63274
  -0.01454   0.04379   1.63274
