********************************************************************************
               CENTRO DE INSTRUMENTACION Y REGISTRO SISMICO  A.C.  
                       Coordinacion de Servicios Tecnicos
     Anaxagoras 814, Col. Narvarte, Benito Juarez, C.P. 03020 Mexico, D.F.
            Tels. 667 45 42/ 687 45  82             Fax. 669 25 12
********************************************************************************
ARCHIVO ESTANDAR DE ACELERACION:
VERSION DEL FORMATO                    : 2.0
NOMBRE DEL ARCHIVO                     : BA490301.221
FECHA Y HORA DE CREACION               : 15/JUL/04, 09:15
REF. CATALOGO ACELEROGRAMAS, SMIS 1996 : REGISTRO No.     /PAG.


================================================================================
DATOS DE LA ESTACION:
NOMBRE DE LA ESTACION                  : BUENOS AIRES
CLAVE DE LA ESTACION                   : BA49
LOCALIZACION DE LA ESTACION            : ESCUELA SECUNDARIA 102, DOCTOR MARQUEZ
                                       : Y EJE CENTRAL, BUENOS AIRES.
                                       :
                                       :
                                       :
COORDENADAS DE LA ESTACION             : 19.410 LAT. N 
                                       : 99.145 LONG. W 
ALTITUD (msnm)                         : 2233
TIPO DE SUELO                          : TERRENO BLANDO, MATERIAL COMPRESIBLE
                                       : (ARCILLAS)
                                       : 
INSTITUCION RESPONSABLE                : CIRES 
                                       :

================================================================================
DATOS DEL ACELEROGRAFO:
MODELO DEL ACELEROGRAFO                : SSA-1
NUMERO DE SERIE DEL ACELEROGRAFO       : 176
NUMERO DE CANALES                      : 3
ORIENTACION C1-C6 (rumbo;orientacion)  : /N00E/+V/N90E
ORIENTACION C7-C12 (rumbo;orientacion) :
VEL. DE MUESTREO, C1-C6 (muestras/s)   : /200/200/200
VEL. DE MUESTREO, C7-C12 (muestras/s)  :
ESC. COMPLETA DE SENSORES, C1-C6, (g)  : /2/2/2
ESC. COMPLETA DE SENSORES, C7-C12, (g) :
FREC. NAT. DE SENSORES, C1-C6, (Hz)    : /52.99/52.03/52.99
FREC. NAT. DE SENSORES, C7-C12, (Hz)   :
AMORTIGUAMIENTO DE SENSORES, C1-C6     : /.5589/.5469/.6096
AMORTIGUAMIENTO DE SENSORES, C7-C12    :
INTERVALO DE MUESTREO, C1-C6, (s)      : /0.005/0.005/0.005
INTERVALO DE MUESTREO, C7-C12, (s)     :
UMBRAL DE DISPARO, C1-C6, (Gal)        : /2/2/2
UMBRAL DE DISPARO, C7-C12, (Gal)       :
MEMORIA DE PREEVENTO (s)               : 15
TIEMPO DE POSEVENTO (s)                : 60


================================================================================
DATOS DEL SISMO:
FECHA DEL SISMO (GMT)                  : 22/ENE/03
HORA EPICENTRO (GMT)                   : 02:06:34:5
MAGNITUD(ES)                           : /Mb=6.5/Ms=7.6/Mc=0.0/Ma=7.2/Me=7.6
COORDENADAS DEL EPICENTRO              : 18.60 LAT. N
                                       : 104.22 LONG. W
PROFUNDIDAD FOCAL (km)                 : 9.0
FUENTE DE LOS DATOS EPICENTRALES       : SSN
                                       : INSTITUTO DE GEOFISICA, UNAM

================================================================================
DATOS DE ESTE REGISTRO:
HORA DE LA PRIMERA MUESTRA (GMT)       : 02:11:01.00
EXACTITUD DEL TIEMPO (s)               :     
DURACION DEL REGISTRO (s), C1-C6       : /258.56/258.56/258.56
DURACION DEL REGISTRO (s), C7-C12      :
NUM. TOTAL DE MUESTRAS, C1-C6          : /51712/51712/51712
NUM. TOTAL DE MUESTRAS, C7-C12         :
ACEL. MAX. (Gal), C1-C6                : /12.00272/-1.33699/-12.88653
ACEL. MAX., C1-C6, EN LA MUESTRA       :
ACEL. MAX. (Gal), C7-C12               :
ACEL. MAX., C7-C12, EN LA MUESTRA      :
UNIDADES DE LOS DATOS                  : Gal (cm/s/s)
FACTOR DE DECIMACION                   : 1
FORMATO DATOS (FORTRAN,10 campos/dato) : 3F10.5


================================================================================
CALIDAD DEL ACELEROGRAMA:
REGISTRO DIGITAL COMPLETO, CARECE DE TIEMPO ABSOLUTO.


================================================================================
COMENTARIOS:














================================================================================
DATOS DE ACELERACION:
---------+---------+---------+---------+---------+---------+---------+---------+
   CANAL-1   CANAL-2   CANAL-3   CANAL-4   CANAL-5   CANAL-6   CANAL-7   CANAL-8
      N00E        +V      N90E
---------+---------+---------+---------+---------+---------+---------+---------+
  -0.21728   0.34301  -0.19653
   0.02272   0.34301  -0.19653
  -0.21728   0.10301  -0.19653
  -0.21728   0.34301  -0.19653
  -0.21728   0.10301  -0.19653
  -0.21728   0.34301  -0.19653
  -0.21728   0.34301  -0.19653
   0.02272   0.34301  -0.19653
   0.02272   0.34301  -0.19653
   0.02272   0.34301  -0.19653
   0.02272   0.34301  -0.19653
   0.02272   0.34301  -0.19653
   0.02272   0.34301  -0.19653
   0.02272   0.34301  -0.19653
   0.02272   0.10301  -0.19653
  -0.21728   0.34301  -0.19653
   0.02272   0.34301  -0.19653
  -0.21728   0.34301  -0.19653
  -0.21728   0.34301  -0.19653
  -0.21728   0.34301  -0.19653
  -0.21728   0.34301  -0.19653
  -0.21728   0.34301  -0.19653
   0.02272   0.34301  -0.19653
  -0.21728   0.34301  -0.19653
  -0.21728   0.34301  -0.19653
   0.02272   0.34301  -0.19653
   0.02272   0.34301  -0.19653
  -0.21728   0.34301  -0.19653
   0.02272   0.34301  -0.19653
  -0.21728   0.34301  -0.19653
  -0.21728   0.34301  -0.19653
  -0.21728   0.34301  -0.19653
  -0.21728   0.34301  -0.19653
  -0.21728   0.34301  -0.19653
  -0.21728   0.34301  -0.19653
   0.02272   0.34301  -0.19653
   0.02272   0.34301  -0.19653
   0.02272   0.34301  -0.19653
   0.02272   0.34301  -0.19653
   0.02272   0.34301  -0.19653
   0.02272   0.34301  -0.19653
   0.02272   0.10301  -0.19653
   0.02272   0.34301  -0.19653
   0.02272   0.10301  -0.19653
  -0.21728   0.10301  -0.19653
  -0.21728   0.34301  -0.19653
  -0.21728   0.10301  -0.19653
  -0.21728   0.34301  -0.19653
  -0.21728   0.34301  -0.19653
  -0.21728   0.34301  -0.19653
  -0.21728   0.34301  -0.19653
  -0.21728   0.34301  -0.19653
  -0.21728   0.34301   0.04347
   0.02272   0.34301  -0.19653
   0.02272   0.34301  -0.19653
   0.02272   0.34301  -0.19653
   0.02272   0.34301  -0.19653
   0.02272   0.34301  -0.19653
  -0.21728   0.34301  -0.19653
  -0.21728   0.34301  -0.19653
   0.02272   0.34301  -0.19653
  -0.21728   0.10301  -0.19653
  -0.21728   0.34301  -0.19653
  -0.21728   0.10301  -0.19653
  -0.21728   0.34301  -0.19653
  -0.21728   0.34301  -0.19653
   0.02272   0.34301  -0.19653
  -0.21728   0.34301  -0.19653
   0.02272   0.34301  -0.19653
  11.28272  -0.37699   5.79347
  11.28272  -0.37699   5.55347
  11.28272  -0.37699   5.55347
  11.28272  -0.37699   5.31347
  11.28272  -0.37699   5.31347
  11.52272  -0.37699   5.07347
  11.52272  -0.13699   5.07347
  11.52272  -0.13699   4.83347
  11.52272  -0.37699   4.83347
  11.52272  -0.13699   4.59347
  11.76272  -0.13699   4.59347
  11.76272  -0.13699   4.35347
  11.76272  -0.13699   4.35347
  11.76272  -0.13699   4.11347
  11.76272  -0.13699   3.87347
  11.76272  -0.13699   3.87347
  11.76272  -0.13699   3.63347
  11.76272  -0.13699   3.39347
  12.00272  -0.13699   3.39347
  11.76272  -0.13699   3.15347
  11.76272  -0.13699   2.91347
  12.00272  -0.13699   2.91347
  12.00272  -0.13699   2.91347
  12.00272  -0.13699   2.67347
  12.00272  -0.13699   2.43347
  12.00272  -0.13699   2.43347
  12.00272  -0.13699   2.20347
  12.00272  -0.13699   1.96347
  12.00272   0.10301   1.96347
  12.00272   0.10301   1.72347
  12.00272   0.10301   1.48347
  12.00272  -0.13699   1.24347
  12.00272   0.10301   1.24347
  12.00272   0.10301   1.00347
  11.76272   0.10301   0.76347
  12.00272   0.10301   0.76347
  12.00272   0.10301   0.52347
  11.76272   0.10301   0.28347
  11.76272   0.10301   0.04347
  11.76272   0.34301   0.04347
  11.76272   0.10301  -0.19653
  11.76272   0.34301  -0.43653
  11.76272   0.10301  -0.67653
  11.76272   0.34301  -0.67653
  11.76272   0.34301  -0.91653
  11.52272   0.34301  -1.15653
  11.52272   0.34301  -1.15653
  11.52272   0.34301  -1.39653
  11.52272   0.34301  -1.63653
  11.52272   0.34301  -1.87653
  11.52272   0.34301  -1.87653
  11.28272   0.34301  -2.11653
  11.28272   0.34301  -2.35653
  11.28272   0.34301  -2.59653
  11.28272   0.34301  -2.59653
  11.04272   0.58301  -2.82653
  11.04272   0.34301  -3.06653
  11.04272   0.58301  -3.06653
  11.04272   0.58301  -3.30653
  10.80272   0.58301  -3.54653
  10.80272   0.58301  -3.78653
  10.80272   0.58301  -3.78653
  10.80272   0.58301  -4.02653
  10.56272   0.58301  -4.26653
  10.56272   0.82301  -4.50653
  10.56272   0.82301  -4.50653
  10.32272   0.82301  -4.74653
  10.32272   0.82301  -4.98653
  10.08272   0.82301  -4.98653
  10.08272   0.82301  -5.22653
  10.08272   0.82301  -5.46653
   9.84272   0.82301  -5.46653
   9.84272   0.82301  -5.70653
   9.84272   0.82301  -5.94653
   9.60272   0.82301  -5.94653
   9.60272   0.82301  -6.18653
   9.60272   0.82301  -6.42653
   9.36272   1.06301  -6.66653
   9.36272   0.82301  -6.66653
   9.12272   1.06301  -6.90653
   9.12272   1.06301  -6.90653
   8.88272   1.06301  -7.14653
   8.88272   1.06301  -7.38653
   8.64272   1.06301  -7.38653
   8.64272   1.06301  -7.61653
   8.40272   1.06301  -7.61653
   8.40272   1.06301  -7.85653
   8.16272   1.06301  -8.09653
   8.16272   1.06301  -8.09653
   7.93272   1.29301  -8.33653
   7.93272   1.29301  -8.57653
   7.69272   1.06301  -8.57653
   7.45272   1.29301  -8.81653
   7.45272   1.29301  -8.81653
   7.45272   1.29301  -9.05653
   7.21272   1.29301  -9.29653
   7.21272   1.29301  -9.29653
   7.21272   1.06301  -9.29653
   6.97272   1.06301  -9.53653
   6.97272   1.29301  -9.77653
   6.73272   1.29301  -9.77653
   6.73272   1.29301  -9.77653
   6.49272   1.29301 -10.01653
   6.25272   1.29301 -10.01653
   6.25272   1.29301 -10.25653
   6.01272   1.06301 -10.49653
   6.01272   1.29301 -10.49653
   5.77272   1.29301 -10.49653
   5.77272   1.29301 -10.73653
   5.53272   1.29301 -10.73653
   5.29272   1.29301 -10.97653
   5.29272   1.06301 -10.97653
   5.05272   1.29301 -11.21653
   5.05272   1.29301 -11.21653
   4.81272   1.06301 -11.21653
   4.81272   1.06301 -11.45653
   4.57272   1.06301 -11.45653
   4.57272   1.29301 -11.45653
   4.33272   1.06301 -11.69653
   4.33272   1.06301 -11.69653
   4.09272   1.06301 -11.69653
   4.09272   1.06301 -11.93653
   3.85272   1.06301 -11.93653
   3.85272   1.06301 -11.93653
   3.61272   0.82301 -11.93653
   3.61272   1.06301 -12.17653
   3.37272   0.82301 -12.17653
   3.14272   0.82301 -12.17653
   3.14272   0.82301 -12.17653
   2.90272   0.82301 -12.40653
   2.90272   0.82301 -12.40653
   2.66272   0.58301 -12.40653
   2.66272   0.82301 -12.40653
   2.42272   0.82301 -12.64653
   2.18272   0.58301 -12.64653
   2.18272   0.82301 -12.64653
   1.94272   0.58301 -12.64653
   1.94272   0.82301 -12.64653
   1.70272   0.58301 -12.64653
   1.70272   0.82301 -12.88653
   1.46272   0.58301 -12.88653
   1.22272   0.58301 -12.88653
   1.22272   0.58301 -12.88653
   0.98272   0.58301 -12.88653
   0.98272   0.58301 -12.88653
   0.74272   0.34301 -12.88653
   0.74272   0.34301 -12.88653
   0.50272   0.34301 -12.88653
   0.50272   0.34301 -12.88653
   0.26272   0.34301 -12.88653
   0.02272   0.34301 -12.88653
   0.02272   0.34301 -12.88653
  -0.21728   0.34301 -12.88653
  -0.21728   0.34301 -12.88653
  -0.45728   0.34301 -12.88653
  -0.45728   0.34301 -12.88653
  -0.69728   0.34301 -12.88653
  -0.69728   0.10301 -12.88653
  -0.93728   0.10301 -12.88653
  -0.93728   0.10301 -12.88653
  -1.17728   0.10301 -12.88653
  -1.17728   0.10301 -12.88653
  -1.41728   0.10301 -12.88653
  -1.65728   0.10301 -12.88653
  -1.65728   0.10301 -12.64653
  -1.88728   0.10301 -12.64653
  -1.88728   0.10301 -12.64653
  -2.12728   0.10301 -12.64653
  -2.12728   0.10301 -12.64653
  -2.36728  -0.13699 -12.40653
  -2.60728  -0.13699 -12.40653
  -2.60728  -0.13699 -12.17653
  -2.84728  -0.13699 -12.17653
  -2.84728  -0.13699 -12.17653
  -3.08728  -0.13699 -12.17653
  -3.32728  -0.13699 -12.17653
  -3.32728  -0.13699 -11.93653
  -3.56728  -0.13699 -11.93653
  -3.56728  -0.13699 -11.69653
  -3.80728  -0.37699 -11.69653
  -3.80728  -0.37699 -11.69653
  -4.04728  -0.13699 -11.45653
  -4.04728  -0.37699 -11.45653
  -4.28728  -0.37699 -11.21653
  -4.52728  -0.13699 -11.21653
  -4.52728  -0.37699 -11.21653
  -4.52728  -0.37699 -10.97653
  -4.76728  -0.37699 -10.97653
  -4.76728  -0.37699 -10.97653
  -4.76728  -0.37699 -10.97653
  -5.00728  -0.61699 -10.97653
  -5.00728  -0.61699 -10.73653
  -5.24728  -0.37699 -10.73653
  -5.24728  -0.61699 -10.49653
  -5.48728  -0.37699 -10.49653
  -5.48728  -0.37699 -10.49653
  -5.72728  -0.61699 -10.25653
  -5.72728  -0.37699 -10.25653
  -5.72728  -0.37699 -10.25653
  -5.96728  -0.37699 -10.01653
  -5.96728  -0.61699 -10.01653
  -6.20728  -0.37699  -9.77653
  -6.20728  -0.61699  -9.77653
  -6.20728  -0.37699  -9.77653
  -6.44728  -0.61699  -9.77653
  -6.44728  -0.61699  -9.53653
  -6.67728  -0.61699  -9.53653
  -6.67728  -0.37699  -9.29653
  -6.67728  -0.37699  -9.29653
  -6.91728  -0.61699  -9.29653
  -6.91728  -0.61699  -9.05653
  -7.15728  -0.61699  -9.05653
  -7.15728  -0.37699  -8.81653
  -7.15728  -0.61699  -8.81653
  -7.39728  -0.37699  -8.81653
  -7.39728  -0.37699  -8.57653
  -7.63728  -0.37699  -8.33653
  -7.63728  -0.37699  -8.33653
  -7.63728  -0.37699  -8.33653
  -7.87728  -0.37699  -8.09653
  -7.87728  -0.37699  -8.09653
  -7.87728  -0.37699  -7.85653
  -8.11728  -0.13699  -7.85653
  -8.11728  -0.37699  -7.61653
  -8.35728  -0.13699  -7.61653
  -8.35728  -0.13699  -7.38653
  -8.59728  -0.13699  -7.38653
  -8.59728   0.10301  -7.14653
  -8.59728  -0.13699  -7.14653
  -8.83728  -0.13699  -6.90653
  -8.83728   0.10301  -6.90653
  -8.83728   0.10301  -6.66653
  -8.83728   0.10301  -6.66653
  -9.07728   0.10301  -6.42653
  -9.07728   0.10301  -6.42653
  -9.31728   0.10301  -6.18653
  -9.31728   0.34301  -6.18653
  -9.31728   0.10301  -5.94653
  -9.31728   0.34301  -5.94653
  -9.55728   0.34301  -5.70653
  -9.55728   0.34301  -5.70653
  -9.55728   0.34301  -5.46653
  -9.55728   0.34301  -5.46653
  -9.79728   0.34301  -5.22653
  -9.79728   0.34301  -5.22653
  -9.79728   0.34301  -4.98653
  -9.79728   0.34301  -4.98653
  -9.79728   0.34301  -4.74653
 -10.03728   0.34301  -4.74653
 -10.03728   0.34301  -4.50653
 -10.03728   0.58301  -4.50653
 -10.03728   0.34301  -4.26653
 -10.03728   0.58301  -4.26653
 -10.27728   0.58301  -4.26653
 -10.27728   0.58301  -4.02653
 -10.27728   0.58301  -4.02653
 -10.27728   0.58301  -3.78653
 -10.27728   0.58301  -3.78653
 -10.51728   0.58301  -3.54653
 -10.51728   0.58301  -3.54653
 -10.51728   0.58301  -3.30653
 -10.51728   0.58301  -3.30653
 -10.51728   0.58301  -3.30653
 -10.51728   0.58301  -3.06653
 -10.51728   0.58301  -3.06653
 -10.75728   0.58301  -2.82653
 -10.75728   0.82301  -2.82653
 -10.75728   0.58301  -2.59653
 -10.99728   0.58301  -2.59653
 -10.75728   0.82301  -2.35653
 -10.75728   0.58301  -2.35653
 -10.99728   0.58301  -2.11653
 -10.99728   0.82301  -2.11653
 -10.99728   0.82301  -2.11653
 -10.99728   0.58301  -1.87653
 -10.99728   0.58301  -1.87653
 -10.99728   0.58301  -1.63653
 -10.99728   0.82301  -1.63653
 -10.99728   0.58301  -1.39653
 -11.23728   0.82301  -1.15653
 -10.99728   0.58301  -1.15653
 -11.23728   0.58301  -0.91653
 -11.23728   0.58301  -0.91653
 -11.23728   0.58301  -0.67653
 -11.23728   0.58301  -0.67653
 -11.23728   0.58301  -0.43653
 -11.23728   0.58301  -0.43653
 -11.23728   0.58301  -0.19653
 -11.23728   0.34301   0.04347
 -11.23728   0.34301   0.04347
 -11.23728   0.34301   0.28347
 -11.23728   0.34301   0.28347
 -11.23728   0.34301   0.52347
 -11.23728   0.34301   0.52347
 -11.23728   0.34301   0.52347
 -11.23728   0.34301   0.76347
 -11.23728   0.34301   1.00347
 -11.23728   0.34301   1.00347
 -11.23728   0.34301   1.24347
 -11.23728   0.34301   1.24347
 -11.23728   0.10301   1.48347
 -11.23728   0.34301   1.48347
 -11.23728   0.10301   1.72347
 -11.23728   0.10301   1.72347
 -10.99728   0.10301   1.96347
 -10.99728   0.10301   2.20347
 -10.99728   0.10301   2.20347
 -10.99728   0.10301   2.43347
 -10.99728   0.10301   2.43347
 -10.99728   0.10301   2.67347
 -10.99728   0.10301   2.67347
 -10.99728   0.10301   2.91347
 -10.75728   0.10301   2.91347
 -10.75728   0.10301   3.15347
 -10.75728   0.10301   3.15347
 -10.75728   0.10301   3.39347
 -10.75728  -0.13699   3.39347
 -10.51728  -0.13699   3.63347
 -10.51728  -0.13699   3.87347
 -10.51728  -0.13699   3.87347
 -10.27728  -0.13699   4.11347
 -10.27728  -0.37699   4.11347
 -10.27728  -0.37699   4.35347
 -10.27728  -0.37699   4.59347
 -10.27728  -0.37699   4.59347
 -10.03728  -0.37699   4.83347
 -10.03728  -0.37699   4.83347
 -10.03728  -0.37699   5.07347
  -9.79728  -0.37699   5.07347
  -9.79728  -0.61699   5.31347
  -9.79728  -0.61699   5.55347
  -9.55728  -0.61699   5.55347
  -9.55728  -0.61699   5.55347
  -9.55728  -0.85699   5.79347
  -9.31728  -0.85699   6.03347
  -9.31728  -0.85699   6.03347
  -9.07728  -0.85699   6.27347
  -9.07728  -0.85699   6.51347
  -8.83728  -0.85699   6.51347
  -8.83728  -0.85699   6.75347
  -8.59728  -0.85699   6.75347
  -8.59728  -1.09699   6.99347
  -8.59728  -0.85699   6.99347
  -8.35728  -1.09699   7.22347
  -8.35728  -1.09699   7.46347
  -8.11728  -1.09699   7.46347
  -8.11728  -1.09699   7.70347
  -7.87728  -1.09699   7.70347
  -7.87728  -1.09699   7.70347
  -7.87728  -1.09699   7.94347
  -7.63728  -1.09699   8.18347
  -7.63728  -1.09699   8.18347
  -7.39728  -1.09699   8.42347
  -7.39728  -1.33699   8.42347
  -7.15728  -1.33699   8.66347
  -7.15728  -1.33699   8.66347
  -6.91728  -1.33699   8.90347
  -6.67728  -1.33699   8.90347
  -6.67728  -1.33699   9.14347
  -6.67728  -1.33699   9.14347
  -6.44728  -1.33699   9.38347
  -6.44728  -1.09699   9.38347
  -6.20728  -1.09699   9.38347
  -6.20728  -1.33699   9.62347
  -5.96728  -1.33699   9.62347
  -5.96728  -1.33699   9.86347
  -5.72728  -1.33699   9.86347
  -5.72728  -1.33699  10.10347
  -5.48728  -1.33699  10.10347
  -5.24728  -1.33699  10.34347
  -5.24728  -1.33699  10.34347
  -5.00728  -1.33699  10.34347
  -5.00728  -1.33699  10.58347
  -4.76728  -1.09699  10.58347
  -4.76728  -1.09699  10.58347
  -4.52728  -1.09699  10.82347
  -4.52728  -1.09699  10.82347
  -4.28728  -1.09699  10.82347
  -4.28728  -1.09699  11.06347
  -4.04728  -1.09699  11.06347
  -4.04728  -1.09699  11.06347
  -3.80728  -1.09699  11.30347
  -3.80728  -1.09699  11.30347
  -3.56728  -1.09699  11.30347
  -3.32728  -1.09699  11.54347
  -3.32728  -1.09699  11.54347
  -3.08728  -0.85699  11.54347
  -2.84728  -0.85699  11.78347
  -2.84728  -0.85699  11.78347
  -2.60728  -0.85699  11.78347
  -2.60728  -0.85699  12.01347
  -2.36728  -1.09699  12.01347
  -2.36728  -0.85699  12.01347
  -2.12728  -0.85699  12.01347
  -2.12728  -0.85699  12.25347
  -1.88728  -0.61699  12.25347
  -1.65728  -0.85699  12.25347
  -1.65728  -0.85699  12.25347
  -1.41728  -0.61699  12.25347
  -1.17728  -0.61699  12.25347
  -1.17728  -0.61699  12.25347
  -0.93728  -0.61699  12.49347
  -0.93728  -0.61699  12.49347
  -0.69728  -0.61699  12.49347
  -0.69728  -0.61699  12.49347
  -0.45728  -0.61699  12.49347
  -0.45728  -0.61699  12.49347
  -0.21728  -0.37699  12.49347
  -0.21728  -0.37699  12.49347
   0.02272  -0.61699  12.49347
   0.02272  -0.37699  12.49347
   0.26272  -0.37699  12.49347
   0.50272  -0.13699  12.49347
   0.50272  -0.37699  12.49347
   0.74272  -0.13699  12.49347
   0.98272  -0.37699  12.49347
   0.98272  -0.37699  12.49347
   1.22272  -0.13699  12.49347
   1.22272  -0.13699  12.49347
   1.46272  -0.13699  12.49347
   1.46272  -0.13699  12.49347
   1.70272  -0.13699  12.49347
   1.94272  -0.13699  12.49347
   1.94272  -0.13699  12.49347
   2.18272  -0.13699  12.25347
   2.18272  -0.13699  12.25347
   2.42272  -0.13699  12.25347
   2.42272  -0.13699  12.25347
   2.66272  -0.13699  12.25347
   2.66272  -0.13699  12.25347
