********************************************************************************
              CENTRO DE INSTRUMENTACION Y REGISTRO SISMICO  A.C.

    Anaxagoras 814, Col. Narvarte, Benito Juarez, C.P. 03020 Mexico, D.F.
           Tels. 5687 45 42/ 5687 45  82             Fax. 5669 25 12
********************************************************************************
ARCHIVO ESTANDAR DE ACELERACION:
VERSION DEL FORMATO                    : 2.0
NOMBRE DEL ARCHIVO                     : BA4920120929071110
FECHA Y HORA DE CREACION               : 11/ABR/13, 12:20
REF. CATALOGO ACELEROGRAMAS, SMIS 1996 : REGISTRO No.     /PAG.


================================================================================
DATOS DE LA ESTACION:
NOMBRE DE LA ESTACION                  : BUENOS AIRES
CLAVE DE LA ESTACION                   : BA49
LOCALIZACION DE LA ESTACION            : Del. Cuauhtémoc, Col. Doctores,        
                                       : Av. Lázaro Cárdenas esq. con           
                                       : Calle Dr. Márquez.                     
                                       :                                        
                                       : 
COORDENADAS DE LA ESTACION             : 19.4097 LAT. N
                                       : 99.1450 LONG. W
ALTITUD (msnm)                         : 2233
TIPO DE SUELO                          : Terreno blando, material compresible
                                       : (arcillas)                
                                       : 
INSTITUCION RESPONSABLE                : CIRES
                                       : 

================================================================================
DATOS DEL ACELEROGRAFO:
MODELO DEL ACELEROGRAFO                : RADESD
NUMERO DE SERIE DEL ACELEROGRAFO       : 176
NUMERO DE CANALES                      : 3
ORIENTACION C1-C6 (rumbo;orientacion)  : /N00E/+V/N90W
ORIENTACION C7-C12 (rumbo;orientacion) : 
VEL. DE MUESTREO, C1-C6 (muestras/s)   : /100/100/100
VEL. DE MUESTREO, C7-C12 (muestras/s)  : 
ESC. COMPLETA DE SENSORES, C1-C6, (g)  : /0.5/0.5/0.5
ESC. COMPLETA DE SENSORES, C7-C12, (g) : 
FREC. NAT. DE SENSORES, C1-C6, (Hz)    : /52.99/52.03/52.99
FREC. NAT. DE SENSORES, C7-C12, (Hz)   : 
AMORTIGUAMIENTO DE SENSORES, C1-C6     : /0.5589/0.5469/0.6096
AMORTIGUAMIENTO DE SENSORES, C7-C12    : 
INTERVALO DE MUESTREO, C1-C6, (s)      : /0.01/0.01/0.01
INTERVALO DE MUESTREO, C7-C12, (s)     : 
UMBRAL DE DISPARO, C1-C6, (Gal)        : /15.32/30.65/15.32
UMBRAL DE DISPARO, C7-C12, (Gal)       : 
MEMORIA DE PREEVENTO (s)               : 56.0
TIEMPO DE POSEVENTO (s)                : 80.0


================================================================================
DATOS DEL SISMO:
FECHA DEL SISMO (GMT)                  : 29/SEP/12
HORA EPICENTRO (GMT)                   : 07:11:10.0
MAGNITUD(ES)                           : /Mc=5.5
COORDENADAS DEL EPICENTRO              : 15.89 LAT. N
                                       : 98.67 LONG. W
PROFUNDIDAD FOCAL (km)                 : 15
FUENTE DE LOS DATOS EPICENTRALES       : SSN
                                       : INSTITUTO DE GEOFISICA, UNAM

================================================================================
DATOS DE ESTE REGISTRO:
HORA DE LA PRIMERA MUESTRA (GMT)       : 07:13:04.00
EXACTITUD DEL TIEMPO (s)               : 0.01
DURACION DEL REGISTRO (s), C1-C6       : /189.4/189.4/189.4
DURACION DEL REGISTRO (s), C7-C12      : 
NUM. TOTAL DE MUESTRAS, C1-C6          : /18940/18940/18940
NUM. TOTAL DE MUESTRAS, C7-C12         : 
ACEL. MAX. (Gal), C1-C6                : /2.2576/0.79855/2.89207
ACEL. MAX., C1-C6, EN LA MUESTRA       : /6323/7101/5750
ACEL. MAX. (Gal), C7-C12               : 
ACEL. MAX., C7-C12, EN LA MUESTRA      : 
UNIDADES DE LOS DATOS                  : Gal (cm/s/s)
FACTOR DE DECIMACION                   : 1
FORMATO DATOS (FORTRAN,10 campos/dato) : 3F10.5


================================================================================
CALIDAD DEL ACELEROGRAMA:
REGISTRO DIGITAL COMPLETO CON TIEMPO ABSOLUTO CORRECTO.


================================================================================
COMENTARIOS:














================================================================================
DATOS DE ACELERACION:
---------+---------+---------+---------+---------+---------+---------+---------+
   CANAL-1   CANAL-2   CANAL-3   CANAL-4   CANAL-5   CANAL-6   CANAL-7   CANAL-8
      N00E        +V      N90W
---------+---------+---------+---------+---------+---------+---------+---------+
[...]
  -0.62655   0.42446  -0.95362
  -0.62655   0.46935  -0.90873
  -0.52181   0.42446  -0.92369
  -0.47692   0.37957  -0.89376
  -0.38713   0.36460  -0.86384
  -0.37217   0.31971  -0.78902
  -0.28239   0.31971  -0.75909
  -0.23750   0.28979  -0.71420
  -0.14771   0.25986  -0.68427
  -0.08786   0.18504  -0.56456
  -0.02800   0.18504  -0.50471
   0.06178   0.15511  -0.44485
   0.09171   0.11022  -0.35507
   0.10667   0.08029  -0.31018
   0.18149   0.05037  -0.26529
   0.22638  -0.02445  -0.17550
   0.27127  -0.03942  -0.11565
   0.30120  -0.02445  -0.05579
   0.28624  -0.02445  -0.02587
   0.30120  -0.06934   0.03399
   0.28624  -0.03942   0.09384
   0.27127  -0.03942   0.09384
   0.25631  -0.06934   0.13874
   0.25631  -0.03942   0.13874
   0.21142  -0.06934   0.18363
   0.16653  -0.06934   0.21355
   0.09171  -0.11424   0.21355
   0.10667  -0.05438   0.19859
   0.04682  -0.06934   0.24348
   0.00192  -0.09927   0.22852
  -0.04297  -0.09927   0.24348
  -0.08786  -0.06934   0.25845
  -0.11779  -0.11424   0.24348
  -0.13275  -0.12920   0.25845
  -0.17764  -0.18905   0.22852
  -0.16268  -0.21898   0.24348
  -0.22253  -0.21898   0.22852
  -0.25246  -0.26387   0.24348
  -0.23750  -0.27884   0.22852
  -0.26742  -0.29380   0.19859
  -0.29735  -0.36862   0.19859
  -0.31231  -0.36862   0.16866
  -0.31231  -0.38358   0.15370
  -0.31231  -0.39855   0.12377
  -0.35721  -0.41351   0.09384
  -0.34224  -0.44344   0.04895
  -0.35721  -0.47337   0.03399
  -0.32728  -0.44344  -0.01090
  -0.37217  -0.45840  -0.04083
  -0.40210  -0.47337  -0.05579
  -0.41706  -0.47337  -0.10068
  -0.37217  -0.44344  -0.11565
  -0.40210  -0.45840  -0.17550
  -0.37217  -0.39855  -0.14558
  -0.34224  -0.36862  -0.16054
  -0.34224  -0.35366  -0.22039
  -0.32728  -0.30876  -0.25032
  -0.34224  -0.30876  -0.20543
  -0.28239  -0.26387  -0.22039
  -0.31231  -0.26387  -0.20543
  -0.29735  -0.21898  -0.22039
  -0.26742  -0.20402  -0.22039
  -0.23750  -0.15913  -0.17550
  -0.23750  -0.14416  -0.13061
  -0.19260  -0.11424  -0.11565
  -0.17764  -0.06934  -0.07076
  -0.13275  -0.05438  -0.05579
  -0.11779  -0.06934  -0.01090
  -0.10282   0.00547   0.01903
  -0.02800   0.05037   0.06392
  -0.02800   0.05037   0.10881
   0.01689   0.05037   0.15370
   0.03185   0.06533   0.21355
   0.06178   0.14015   0.27341
   0.12163   0.11022   0.33326
   0.15156   0.17008   0.36319
   0.18149   0.17008   0.39312
   0.18149   0.17008   0.40808
   0.22638   0.22993   0.46794
   0.27127   0.28979   0.48290
   0.30120   0.33468   0.52779
   0.36105   0.36460   0.49787
   0.36105   0.30475   0.51283
   0.40595   0.37957   0.48290
   0.40595   0.39453   0.48290
   0.42091   0.40950   0.51283
   0.43587   0.40950   0.49787
   0.42091   0.45439   0.48290
   0.37602   0.46935   0.49787
   0.42091   0.46935   0.48290
   0.37602   0.51424   0.46794
   0.37602   0.54417   0.43801
   0.37602   0.52921   0.39312
   0.36105   0.54417   0.36319
   0.31616   0.51424   0.34823
   0.31616   0.52921   0.27341
   0.30120   0.55913   0.27341
   0.28624   0.52921   0.24348
   0.24134   0.51424   0.22852
   0.24134   0.51424   0.24348
   0.18149   0.45439   0.21355
   0.15156   0.46935   0.21355
   0.12163   0.37957   0.12377
   0.12163   0.42446   0.16866
   0.07674   0.34964   0.13874
   0.07674   0.31971   0.15370
   0.04682   0.30475   0.13874
  -0.01304   0.24489   0.12377
  -0.01304   0.20000   0.10881
  -0.01304   0.17008   0.10881
  -0.04297   0.11022   0.10881
  -0.05793   0.06533   0.12377
  -0.08786   0.05037   0.15370
  -0.13275  -0.08431   0.15370
  -0.07289  -0.11424   0.15370
  -0.10282  -0.17409   0.21355
  -0.11779  -0.23395   0.21355
  -0.08786  -0.27884   0.22852
  -0.08786  -0.33869   0.34823
  -0.07289  -0.38358   0.31830
  -0.04297  -0.41351   0.37816
  -0.04297  -0.47337   0.42305
  -0.02800  -0.48833   0.43801
   0.01689  -0.50329   0.43801
   0.07674  -0.51826   0.48290
   0.10667  -0.54818   0.46794
   0.10667  -0.59308   0.51283
   0.13660  -0.59308   0.55772
   0.19645  -0.59308   0.52779
   0.19645  -0.57811   0.45297
   0.22638  -0.57811   0.48290
   0.25631  -0.54818   0.52779
   0.27127  -0.56315   0.52779
   0.30120  -0.48833   0.48290
   0.30120  -0.51826   0.45297
   0.30120  -0.48833   0.37816
   0.31616  -0.42847   0.40808
   0.33113  -0.41351   0.37816
   0.33113  -0.38358   0.31830
   0.33113  -0.32373   0.28837
   0.31616  -0.27884   0.24348
   0.30120  -0.27884   0.16866
   0.33113  -0.15913   0.12377
   0.33113  -0.18905   0.10881
   0.33113  -0.06934   0.07888
   0.31616  -0.03942   0.00406
   0.31616   0.02044  -0.04083
   0.31616   0.06533  -0.04083
   0.34609   0.06533  -0.05579
   0.31616   0.11022  -0.11565
   0.33113   0.12518  -0.11565
   0.36105   0.18504  -0.11565
   0.36105   0.18504  -0.13061
   0.40595   0.22993  -0.14558
   0.40595   0.20000  -0.11565
   0.40595   0.22993  -0.08572
   0.39098   0.27482  -0.08572
   0.40595   0.24489  -0.07076
   0.40595   0.24489  -0.05579
   0.43587   0.24489  -0.01090
   0.40595   0.25986   0.01903
   0.42091   0.24489   0.07888
   0.40595   0.24489   0.13874
   0.40595   0.27482   0.15370
   0.37602   0.28979   0.22852
   0.34609   0.25986   0.22852
   0.36105   0.24489   0.30334
   0.33113   0.27482   0.36319
   0.28624   0.22993   0.40808
   0.30120   0.24489   0.43801
   0.24134   0.22993   0.48290
   0.19645   0.24489   0.49787
   0.18149   0.24489   0.54276
   0.09171   0.20000   0.63254
   0.06178   0.15511   0.64750
   0.03185   0.17008   0.70736
  -0.04297   0.15511   0.72232
  -0.10282   0.14015   0.73729
  -0.14771   0.14015   0.75225
  -0.20757   0.14015   0.79714
  -0.23750   0.11022   0.79714
  -0.28239   0.14015   0.78218
  -0.29735   0.12518   0.81210
  -0.38713   0.11022   0.79714
  -0.43202   0.09526   0.81210
  -0.46195   0.11022   0.81210
  -0.44699   0.09526   0.76721
  -0.46195   0.08029   0.75225
  -0.47692   0.09526   0.70736
  -0.53677   0.05037   0.64750
  -0.55173   0.08029   0.61758
  -0.55173   0.08029   0.55772
  -0.53677   0.05037   0.49787
  -0.56670   0.06533   0.39312
  -0.61159  -0.00949   0.36319
  -0.58166   0.03540   0.27341
  -0.58166   0.05037   0.16866
  -0.59663   0.02044   0.06392
  -0.58166   0.05037  -0.01090
  -0.62655   0.02044  -0.04083
  -0.64152   0.00547  -0.14558
  -0.61159   0.02044  -0.28025
  -0.62655  -0.05438  -0.37003
  -0.58166  -0.02445  -0.42989
  -0.59663  -0.05438  -0.48974
  -0.56670  -0.11424  -0.57952
  -0.56670  -0.09927  -0.65434
  -0.52181  -0.08431  -0.74413
  -0.50684  -0.06934  -0.80398
  -0.49188  -0.09927  -0.87880
  -0.44699  -0.12920  -0.89376
  -0.44699  -0.15913  -0.92369
  -0.38713  -0.18905  -0.96858
  -0.37217  -0.15913  -0.98355
  -0.34224  -0.18905  -1.02844
  -0.28239  -0.21898  -1.04340
  -0.26742  -0.17409  -1.02844
  -0.23750  -0.18905  -1.02844
  -0.17764  -0.21898  -0.99851
  -0.14771  -0.20402  -0.99851
  -0.10282  -0.18905  -0.98355
  -0.07289  -0.20402  -0.92369
  -0.05793  -0.24891  -0.89376
  -0.04297  -0.23395  -0.89376
  -0.04297  -0.20402  -0.80398
  -0.02800  -0.21898  -0.83391
   0.01689  -0.24891  -0.78902
   0.03185  -0.24891  -0.78902
   0.03185  -0.24891  -0.71420
   0.04682  -0.18905  -0.68427
   0.04682  -0.12920  -0.66931
   0.03185  -0.11424  -0.63938
   0.04682  -0.09927  -0.63938
   0.04682  -0.08431  -0.59449
   0.01689  -0.05438  -0.50471
   0.00192   0.00547  -0.50471
   0.00192   0.06533  -0.48974
   0.01689   0.12518  -0.45981
   0.03185   0.14015  -0.41492
   0.04682   0.15511  -0.41492
   0.00192   0.21497  -0.35507
  -0.02800   0.27482  -0.34010
   0.00192   0.27482  -0.39996
   0.00192   0.25986  -0.35507
   0.04682   0.33468  -0.34010
   0.04682   0.36460  -0.34010
   0.09171   0.36460  -0.38500
   0.06178   0.40950  -0.34010
   0.09171   0.37957  -0.45981
   0.15156   0.42446  -0.51967
   0.18149   0.40950  -0.50471
   0.24134   0.45439  -0.50471
   0.22638   0.34964  -0.56456
   0.24134   0.37957  -0.51967
   0.27127   0.33468  -0.59449
   0.27127   0.37957  -0.62442
   0.25631   0.34964  -0.68427
   0.31616   0.33468  -0.63938
   0.34609   0.27482  -0.69924
   0.30120   0.22993  -0.69924
   0.34609   0.24489  -0.72916
   0.31616   0.21497  -0.78902
   0.34609   0.15511  -0.84887
   0.34609   0.12518  -0.77405
   0.27127   0.11022  -0.77405
   0.25631   0.02044  -0.83391
   0.25631   0.11022  -0.81895
   0.19645   0.03540  -0.90873
   0.19645   0.02044  -0.89376
   0.13660  -0.00949  -0.83391
   0.09171  -0.08431  -0.86384
   0.03185  -0.03942  -0.86384
   0.01689  -0.06934  -0.87880
  -0.04297  -0.14416  -0.86384
  -0.08786  -0.17409  -0.84887
  -0.23750  -0.23395  -0.80398
  -0.20757  -0.21898  -0.89376
  -0.26742  -0.18905  -0.80398
  -0.29735  -0.23395  -0.81895
  -0.37217  -0.26387  -0.86384
  -0.40210  -0.24891  -0.78902
  -0.46195  -0.26387  -0.78902
  -0.47692  -0.30876  -0.80398
  -0.53677  -0.32373  -0.75909
  -0.49188  -0.30876  -0.77405
  -0.55173  -0.33869  -0.69924
  -0.59663  -0.32373  -0.69924
  -0.56670  -0.30876  -0.71420
  -0.52181  -0.27884  -0.68427
  -0.50684  -0.32373  -0.68427
  -0.50684  -0.32373  -0.54960
  -0.44699  -0.35366  -0.59449
  -0.47692  -0.39855  -0.53463
  -0.38713  -0.35366  -0.59449
  -0.32728  -0.30876  -0.51967
  -0.29735  -0.33869  -0.44485
  -0.20757  -0.33869  -0.48974
  -0.17764  -0.38358  -0.45981
  -0.07289  -0.35366  -0.45981
  -0.05793  -0.30876  -0.32514
   0.00192  -0.30876  -0.38500
   0.09171  -0.35366  -0.32514
   0.13660  -0.24891  -0.23536
   0.22638  -0.27884  -0.28025
   0.28624  -0.30876  -0.14558
   0.34609  -0.27884  -0.08572
   0.34609  -0.29380  -0.05579
   0.37602  -0.27884   0.01903
   0.43587  -0.20402   0.10881
   0.52566  -0.23395   0.12377
   0.54062  -0.18905   0.25845
   0.52566  -0.18905   0.36319
   0.57055  -0.11424   0.46794
   0.60048  -0.14416   0.43801
   0.66033  -0.12920   0.57268
   0.61544  -0.09927   0.72232
   0.58551  -0.05438   0.79714
   0.60048  -0.06934   0.96174
   0.61544  -0.03942   1.03656
   0.61544  -0.00949   1.08145
   0.58551   0.00547   1.15627
   0.57055   0.02044   1.27598
   0.49573   0.02044   1.44058
   0.49573   0.09526   1.48547
   0.52566   0.11022   1.59022
   0.49573   0.14015   1.65008
   0.51069   0.14015   1.75482
   0.42091   0.15511   1.87453
   0.33113   0.15511   2.02417
   0.37602   0.20000   2.03913
   0.37602   0.24489   2.11395
   0.42091   0.30475   2.23366
   0.36105   0.33468   2.30848
   0.34609   0.34964   2.36834
   0.25631   0.33468   2.47308
   0.25631   0.37957   2.51797
   0.30120   0.45439   2.51797
   0.33113   0.46935   2.59279
   0.36105   0.42446   2.59279
   0.31616   0.40950   2.59279
   0.24134   0.43942   2.66761
   0.34609   0.49928   2.62272
   0.33113   0.45439   2.69754
   0.36105   0.48431   2.75739
   0.36105   0.43942   2.75739
   0.37602   0.48431   2.86214
   0.39098   0.43942   2.89207
   0.40595   0.39453   2.89207
   0.42091   0.40950   2.86214
   0.52566   0.37957   2.77236
   0.51069   0.34964   2.71250
   0.51069   0.31971   2.63768
   0.52566   0.30475   2.57783
   0.58551   0.28979   2.47308
   0.58551   0.20000   2.38330
   0.61544   0.22993   2.26359
   0.63040   0.18504   2.14388
   0.61544   0.20000   1.96431
   0.64537   0.18504   1.82964
   0.60048   0.09526   1.70993
   0.67529   0.06533   1.51540
   0.67529   0.09526   1.32087
   0.64537   0.06533   1.15627
   0.63040   0.00547   0.97671
   0.54062   0.02044   0.81210
   0.55558   0.03540   0.64750
   0.58551   0.03540   0.46794
   0.58551   0.02044   0.28837
   0.54062   0.03540   0.12377
   0.45084  -0.00949  -0.07076
   0.40595  -0.00949  -0.20543
   0.34609   0.05037  -0.34010
   0.37602   0.06533  -0.50471
   0.34609   0.02044  -0.60945
   0.30120  -0.06934  -0.77405
   0.22638  -0.03942  -0.84887
   0.15156  -0.05438  -0.96858
   0.09171  -0.06934  -1.11822
   0.10667  -0.03942  -1.16311
   0.06178  -0.03942  -1.26786
  -0.01304  -0.08431  -1.32771
  -0.07289  -0.09927  -1.46239
  -0.10282  -0.12920  -1.49231
  -0.14771  -0.12920  -1.53721
  -0.16268  -0.11424  -1.59706
  -0.20757  -0.11424  -1.61202
  -0.23750  -0.12920  -1.67188
  -0.25246  -0.15913  -1.67188
  -0.26742  -0.18905  -1.70181
  -0.28239  -0.21898  -1.68684
  -0.32728  -0.24891  -1.68684
  -0.32728  -0.24891  -1.71677
  -0.37217  -0.23395  -1.70181
  -0.35721  -0.24891  -1.65692
  -0.35721  -0.29380  -1.64195
  -0.40210  -0.30876  -1.56713
  -0.40210  -0.33869  -1.53721
  -0.46195  -0.32373  -1.47735
  -0.37217  -0.32373  -1.47735
  -0.44699  -0.36862  -1.41750
  -0.43202  -0.36862  -1.41750
  -0.46195  -0.39855  -1.32771
  -0.44699  -0.33869  -1.23793
  -0.49188  -0.35366  -1.23793
  -0.55173  -0.33869  -1.16311
  -0.55173  -0.32373  -1.13318
  -0.53677  -0.30876  -1.05837
  -0.55173  -0.23395  -0.98355
  -0.55173  -0.26387  -0.95362
  -0.61159  -0.27884  -0.84887
  -0.68641  -0.21898  -0.80398
  -0.67144  -0.15913  -0.71420
  -0.68641  -0.11424  -0.68427
  -0.70137  -0.11424  -0.60945
  -0.67144  -0.08431  -0.54960
  -0.68641  -0.08431  -0.45981
  -0.73130  -0.08431  -0.37003
  -0.79115  -0.08431  -0.32514
  -0.80612  -0.06934  -0.29521
  -0.74626  -0.00949  -0.20543
  -0.73130   0.00547  -0.17550
  -0.74626   0.00547  -0.04083
  -0.76123  -0.00949   0.00406
  -0.85101  -0.02445   0.07888
  -0.82108   0.02044   0.07888
  -0.82108   0.06533   0.12377
  -0.79115   0.11022   0.19859
  -0.80612   0.09526   0.22852
  -0.80612   0.06533   0.30334
  -0.83605   0.06533   0.37816
  -0.88094   0.08029   0.42305
  -0.91086   0.09526   0.40808
  -0.86597   0.14015   0.39312
  -0.88094   0.17008   0.48290
  -0.89590   0.15511   0.46794
  -0.94079   0.09526   0.45297
  -0.94079   0.11022   0.49787
  -1.00065   0.12518   0.51283
  -0.98568   0.15511   0.43801
  -1.01561   0.14015   0.45297
  -0.97072   0.15511   0.37816
  -0.92583   0.17008   0.39312
  -0.97072   0.09526   0.30334
  -0.97072   0.06533   0.28837
  -0.98568   0.09526   0.22852
  -0.97072   0.09526   0.16866
  -0.86597   0.08029   0.10881
  -0.86597   0.05037   0.01903
  -0.83605   0.05037   0.00406
  -0.83605   0.00547  -0.07076
  -0.80612   0.02044  -0.13061
  -0.76123  -0.02445  -0.22039
  -0.74626   0.02044  -0.31018
  -0.68641  -0.03942  -0.39996
  -0.67144  -0.00949  -0.47478
  -0.58166  -0.00949  -0.54960
  -0.56670  -0.05438  -0.60945
  -0.53677  -0.08431  -0.69924
  -0.50684  -0.06934  -0.66931
  -0.43202  -0.08431  -0.80398
  -0.44699  -0.09927  -0.78902
  -0.40210  -0.08431  -0.87880
  -0.31231  -0.05438  -0.93866
  -0.35721  -0.05438  -0.95362
  -0.35721  -0.09927  -1.01347
  -0.28239  -0.05438  -1.16311
  -0.28239  -0.06934  -1.19304
  -0.25246   0.03540  -1.17808
  -0.22253   0.03540  -1.26786
  -0.20757  -0.00949  -1.32771
  -0.22253  -0.00949  -1.31275
  -0.20757  -0.05438  -1.40253
  -0.20757   0.02044  -1.40253
  -0.17764   0.03540  -1.43246
  -0.16268   0.06533  -1.43246
  -0.14771   0.00547  -1.47735
  -0.13275   0.03540  -1.46239
  -0.13275   0.03540  -1.49231
  -0.04297   0.08029  -1.53721
  -0.05793   0.12518  -1.52224
   0.03185   0.18504  -1.53721
   0.07674   0.12518  -1.61202
   0.13660   0.09526  -1.58210
   0.21142   0.11022  -1.56713
   0.19645   0.11022  -1.50728
   0.28624   0.09526  -1.55217
   0.36105   0.15511  -1.47735
   0.42091   0.09526  -1.46239
   0.45084   0.15511  -1.34268
   0.51069   0.09526  -1.31275
   0.57055   0.09526  -1.28282
   0.60048   0.11022  -1.22297
   0.64537   0.06533  -1.16311
   0.64537   0.08029  -1.05837
   0.67529   0.11022  -0.99851
   0.70522   0.06533  -0.98355
