********************************************************************************
               CENTRO DE INSTRUMENTACION Y REGISTRO SISMICO  A.C.  
                       Coordinacion de Servicios Tecnicos
     Anaxagoras 814, Col. Narvarte, Benito Juarez, C.P. 03020 Mexico, D.F.
            Tels. 667 45 42/ 687 45  82             Fax. 669 25 12
********************************************************************************
ARCHIVO ESTANDAR DE ACELERACION:
VERSION DEL FORMATO                    : 2.0
NOMBRE DEL ARCHIVO                     : BA490410.281
FECHA Y HORA DE CREACION               : 02/JUN/04, 12:18
REF. CATALOGO ACELEROGRAMAS, SMIS 1996 : REGISTRO No.     /PAG.


================================================================================
DATOS DE LA ESTACION:
NOMBRE DE LA ESTACION                  : BUENOS AIRES
CLAVE DE LA ESTACION                   : BA49
LOCALIZACION DE LA ESTACION            : ESCUELA SECUNDARIA 102, DOCTOR MARQUEZ
                                       : Y EJE CENTRAL, BUENOS AIRES.
                                       :
                                       :
                                       :
COORDENADAS DE LA ESTACION             : 19.410 LAT. N 
                                       : 99.145 LONG. W 
ALTITUD (msnm)                         : 2233
TIPO DE SUELO                          : TERRENO BLANDO, MATERIAL COMPRESIBLE
                                       : (ARCILLAS)
                                       : 
INSTITUCION RESPONSABLE                : CIRES 
                                       :

================================================================================
DATOS DEL ACELEROGRAFO:
MODELO DEL ACELEROGRAFO                : SSA-1
NUMERO DE SERIE DEL ACELEROGRAFO       : 176
NUMERO DE CANALES                      : 3
ORIENTACION C1-C6 (rumbo;orientacion)  : /N00E/+V/N90E
ORIENTACION C7-C12 (rumbo;orientacion) :
VEL. DE MUESTREO, C1-C6 (muestras/s)   : /200/200/200
VEL. DE MUESTREO, C7-C12 (muestras/s)  :
ESC. COMPLETA DE SENSORES, C1-C6, (g)  : /2/2/2
ESC. COMPLETA DE SENSORES, C7-C12, (g) :
FREC. NAT. DE SENSORES, C1-C6, (Hz)    : /52.99/52.03/52.99
FREC. NAT. DE SENSORES, C7-C12, (Hz)   :
AMORTIGUAMIENTO DE SENSORES, C1-C6     : /.5589/.5469/.6096
AMORTIGUAMIENTO DE SENSORES, C7-C12    :
INTERVALO DE MUESTREO, C1-C6, (s)      : /0.005/0.005/0.005
INTERVALO DE MUESTREO, C7-C12, (s)     :
UMBRAL DE DISPARO, C1-C6, (Gal)        : /2/2/2
UMBRAL DE DISPARO, C7-C12, (Gal)       :
MEMORIA DE PREEVENTO (s)               : 15
TIEMPO DE POSEVENTO (s)                : 60


================================================================================
DATOS DEL SISMO:
FECHA DEL SISMO (GMT)                  : 28/OCT/04
HORA EPICENTRO (GMT)                   : 20:30:02,0
MAGNITUD(ES)                           : /Mc=4.6
COORDENADAS DEL EPICENTRO              : 18.34 LAT. N
                                       : -99.74 LONG. W
PROFUNDIDAD FOCAL (km)                 : 46
FUENTE DE LOS DATOS EPICENTRALES       : SSN
                                       : INSTITUTO DE GEOFISICA, UNAM 

================================================================================
DATOS DE ESTE REGISTRO:
HORA DE LA PRIMERA MUESTRA (GMT)       : 20:30:38.00
EXACTITUD DEL TIEMPO (s)               :     
DURACION DEL REGISTRO (s), C1-C6       : /92.16/92.16/92.16
DURACION DEL REGISTRO (s), C7-C12      :
NUM. TOTAL DE MUESTRAS, C1-C6          : /18432/18432/18432
NUM. TOTAL DE MUESTRAS, C7-C12         :
ACEL. MAX. (Gal), C1-C6                : /1.67101/1.89169/-1.80917
ACEL. MAX., C1-C6, EN LA MUESTRA       :
ACEL. MAX. (Gal), C7-C12               :
ACEL. MAX., C7-C12, EN LA MUESTRA      :
UNIDADES DE LOS DATOS                  : Gal (cm/s/s)
FACTOR DE DECIMACION                   : 1
FORMATO DATOS (FORTRAN,10 campos/dato) : 3F10.5


================================================================================
CALIDAD DEL ACELEROGRAMA:
REGISTRO DIGITAL COMPLETO, CARECE DE TIEMPO ABSOLUTO.


================================================================================
COMENTARIOS:














================================================================================
DATOS DE ACELERACION:
---------+---------+---------+---------+---------+---------+---------+---------+
   CANAL-1   CANAL-2   CANAL-3   CANAL-4   CANAL-5   CANAL-6   CANAL-7   CANAL-8
      N00E        +V      N90E
---------+---------+---------+---------+---------+---------+---------+---------+
[...]
  -0.23899  -0.01831  -0.13917
  -0.23899  -0.01831  -0.13917
  -0.23899  -0.01831  -0.13917
  -0.23899  -0.01831  -0.13917
  -0.23899  -0.01831  -0.13917
  -0.23899  -0.01831  -0.13917
  -0.23899   0.22169  -0.13917
  -0.23899   0.22169  -0.13917
  -0.23899  -0.01831  -0.13917
  -0.23899  -0.01831  -0.13917
  -0.23899  -0.01831  -0.13917
  -0.47899  -0.01831  -0.13917
  -0.47899  -0.25831  -0.13917
  -0.47899  -0.01831  -0.13917
  -0.23899  -0.25831  -0.13917
  -0.47899  -0.25831   0.10083
  -0.47899  -0.01831   0.10083
  -0.23899  -0.01831   0.10083
  -0.23899  -0.01831   0.10083
  -0.47899   0.22169   0.10083
  -0.23899   0.22169   0.10083
  -0.23899   0.22169   0.10083
  -0.23899   0.22169   0.10083
  -0.23899   0.46169   0.10083
  -0.23899   0.46169   0.10083
  -0.23899   0.46169   0.10083
   0.00101   0.22169   0.10083
   0.00101   0.22169   0.10083
   0.00101  -0.01831   0.10083
   0.00101  -0.01831   0.10083
   0.00101  -0.25831   0.10083
   0.00101  -0.01831   0.10083
   0.00101  -0.25831   0.10083
   0.00101  -0.25831   0.10083
   0.00101  -0.49831   0.10083
   0.00101  -0.49831   0.10083
   0.00101  -0.49831   0.10083
   0.00101  -0.49831   0.10083
   0.00101  -0.25831   0.10083
   0.00101  -0.25831   0.10083
   0.00101  -0.01831   0.10083
   0.00101  -0.01831   0.10083
   0.00101  -0.01831   0.34083
  -0.23899   0.22169   0.34083
  -0.23899  -0.01831   0.34083
   0.00101   0.22169   0.34083
   0.00101   0.22169   0.34083
   0.00101   0.22169   0.34083
   0.00101   0.22169   0.34083
   0.00101   0.46169   0.34083
   0.00101   0.46169   0.10083
   0.00101   0.46169   0.10083
   0.00101   0.46169   0.10083
  -0.23899   0.22169   0.10083
   0.00101   0.22169   0.10083
   0.00101   0.22169   0.10083
   0.00101  -0.01831   0.10083
   0.00101  -0.01831   0.10083
   0.00101  -0.01831   0.10083
   0.00101  -0.01831   0.10083
   0.00101  -0.25831   0.10083
   0.00101  -0.25831   0.10083
   0.24101  -0.25831   0.10083
   0.24101  -0.25831   0.10083
   0.00101  -0.25831   0.10083
   0.24101  -0.25831   0.10083
   0.24101  -0.25831   0.10083
   0.24101  -0.01831   0.10083
   0.24101  -0.01831   0.10083
   0.24101   0.22169   0.10083
   0.00101   0.22169   0.10083
   0.24101   0.22169   0.10083
   0.24101   0.22169   0.10083
   0.00101   0.46169   0.10083
   0.00101   0.46169   0.10083
   0.24101   0.46169   0.10083
   0.24101   0.46169   0.10083
   0.00101   0.46169  -0.13917
   0.24101   0.46169   0.10083
   0.00101   0.22169   0.10083
   0.00101  -0.01831   0.10083
   0.00101  -0.01831   0.10083
   0.00101  -0.25831   0.10083
   0.00101  -0.25831   0.10083
   0.00101  -0.25831   0.10083
   0.00101  -0.49831   0.10083
   0.00101  -0.49831   0.10083
   0.00101  -0.49831   0.10083
   0.00101  -0.73831   0.10083
   0.00101  -0.73831   0.10083
   0.00101  -0.73831   0.10083
   0.00101  -0.49831   0.10083
   0.00101  -0.49831   0.10083
   0.00101  -0.49831   0.10083
   0.00101  -0.49831   0.10083
   0.00101  -0.25831   0.10083
   0.00101  -0.01831  -0.13917
   0.00101  -0.01831   0.10083
   0.00101   0.22169   0.10083
   0.00101   0.22169   0.10083
   0.00101   0.46169   0.10083
   0.00101   0.46169   0.10083
   0.00101   0.46169   0.10083
   0.00101   0.70169   0.10083
   0.00101   0.70169   0.10083
   0.00101   0.70169   0.10083
   0.00101   0.70169   0.10083
   0.00101   0.46169   0.10083
   0.00101   0.46169   0.10083
   0.00101   0.22169   0.34083
   0.00101   0.22169   0.34083
   0.00101  -0.01831   0.34083
   0.00101  -0.25831   0.34083
   0.00101  -0.49831   0.34083
   0.00101  -0.49831   0.34083
   0.00101  -0.73831   0.34083
   0.00101  -0.73831   0.34083
   0.00101  -0.97831   0.34083
   0.00101  -0.97831   0.34083
   0.00101  -0.97831   0.34083
   0.00101  -0.73831   0.34083
  -0.23899  -0.73831   0.34083
  -0.23899  -0.49831   0.34083
  -0.23899  -0.25831   0.34083
  -0.23899  -0.01831   0.34083
  -0.23899   0.22169   0.10083
   0.00101   0.46169   0.34083
  -0.23899   0.70169   0.34083
   0.00101   0.70169   0.34083
   0.00101   0.93169   0.34083
   0.00101   0.93169   0.34083
   0.00101   0.93169   0.10083
   0.00101   0.70169   0.10083
   0.00101   0.70169   0.10083
   0.00101   0.46169   0.10083
   0.00101   0.22169   0.10083
   0.00101  -0.01831   0.10083
  -0.23899  -0.01831   0.10083
   0.00101  -0.49831  -0.13917
  -0.23899  -0.49831  -0.13917
  -0.23899  -0.73831  -0.13917
   0.00101  -0.73831  -0.13917
   0.00101  -0.97831  -0.13917
   0.00101  -0.97831  -0.13917
   0.00101  -0.73831  -0.13917
   0.00101  -0.73831  -0.13917
   0.00101  -0.49831  -0.13917
   0.00101  -0.49831  -0.13917
   0.00101  -0.25831  -0.13917
   0.00101  -0.25831  -0.13917
   0.00101  -0.01831  -0.13917
   0.00101  -0.01831  -0.13917
   0.00101  -0.01831   0.10083
   0.00101   0.22169   0.10083
   0.00101   0.22169  -0.13917
   0.00101   0.22169   0.10083
   0.00101   0.22169  -0.13917
   0.00101   0.22169   0.10083
   0.00101   0.22169  -0.13917
   0.00101   0.22169   0.10083
   0.00101   0.22169   0.10083
   0.00101   0.22169   0.10083
   0.00101   0.22169   0.10083
   0.00101   0.22169   0.10083
   0.00101   0.22169   0.10083
   0.00101   0.22169   0.10083
   0.00101   0.22169   0.10083
   0.00101   0.22169   0.10083
   0.00101   0.22169  -0.13917
   0.00101   0.22169  -0.13917
   0.00101   0.22169  -0.13917
   0.00101   0.22169  -0.13917
   0.00101   0.22169  -0.13917
   0.00101   0.22169  -0.13917
   0.00101   0.46169  -0.13917
   0.00101   0.46169  -0.13917
   0.00101   0.46169  -0.13917
   0.00101   0.46169  -0.13917
   0.00101   0.22169  -0.13917
   0.00101   0.22169  -0.13917
   0.00101   0.22169  -0.13917
   0.00101   0.22169  -0.13917
   0.24101  -0.01831  -0.13917
   0.24101  -0.01831  -0.13917
   0.24101  -0.25831  -0.13917
   0.24101  -0.25831  -0.13917
   0.24101  -0.25831  -0.13917
   0.24101  -0.49831  -0.13917
   0.24101  -0.49831  -0.13917
   0.24101  -0.49831  -0.13917
   0.24101  -0.49831  -0.13917
   0.24101  -0.49831  -0.13917
   0.24101  -0.49831  -0.13917
   0.24101  -0.25831  -0.13917
   0.24101  -0.25831   0.10083
   0.24101  -0.01831   0.10083
   0.24101  -0.01831  -0.13917
   0.00101   0.22169  -0.13917
   0.00101   0.22169  -0.13917
   0.00101   0.22169  -0.13917
   0.00101   0.46169   0.10083
   0.00101   0.46169  -0.13917
   0.00101   0.46169   0.10083
   0.00101   0.46169   0.10083
   0.00101   0.22169   0.10083
   0.00101   0.46169   0.10083
   0.00101   0.22169   0.10083
   0.00101  -0.01831   0.10083
   0.00101  -0.01831   0.10083
   0.00101  -0.25831   0.10083
   0.00101  -0.49831   0.10083
   0.24101  -0.49831   0.10083
   0.00101  -0.73831   0.10083
   0.00101  -0.73831   0.10083
   0.00101  -0.49831  -0.13917
   0.00101  -0.73831  -0.13917
   0.00101  -0.49831  -0.13917
   0.00101  -0.49831  -0.13917
   0.00101  -0.49831  -0.13917
   0.00101  -0.25831  -0.13917
   0.00101  -0.25831  -0.13917
   0.00101  -0.01831  -0.13917
   0.00101  -0.01831  -0.13917
   0.24101   0.22169  -0.13917
   0.24101   0.46169  -0.13917
   0.24101   0.46169  -0.13917
   0.24101   0.70169  -0.13917
   0.24101   0.70169  -0.13917
   0.24101   0.93169  -0.13917
   0.24101   0.93169  -0.13917
   0.24101   0.93169  -0.13917
   0.24101   0.93169  -0.13917
   0.24101   0.70169   0.10083
   0.24101   0.70169  -0.13917
   0.24101   0.46169   0.10083
   0.24101   0.22169   0.10083
   0.24101  -0.01831   0.10083
   0.48101  -0.25831  -0.13917
   0.24101  -0.49831  -0.13917
   0.48101  -0.73831  -0.13917
   0.24101  -0.97831  -0.13917
   0.48101  -0.97831  -0.13917
   0.48101  -1.21831  -0.13917
   0.48101  -1.21831   0.10083
   0.48101  -1.21831  -0.13917
   0.48101  -1.21831   0.10083
   0.24101  -0.97831  -0.13917
   0.24101  -0.73831  -0.13917
   0.24101  -0.25831  -0.13917
   0.24101  -0.01831   0.10083
   0.24101   0.70169  -0.13917
   0.24101   0.93169   0.10083
   0.24101   1.17169   0.10083
   0.24101   1.41169   0.10083
   0.24101   1.65169   0.10083
   0.24101   1.65169   0.10083
   0.24101   1.65169   0.10083
   0.24101   1.65169   0.10083
   0.24101   1.41169   0.10083
   0.48101   0.93169   0.10083
   0.48101   0.93169   0.10083
   0.48101   0.46169   0.10083
   0.48101   0.22169   0.10083
   0.48101  -0.25831   0.10083
   0.48101  -0.73831   0.10083
   0.48101  -0.97831   0.10083
   0.48101  -1.21831   0.10083
   0.48101  -1.45831   0.10083
   0.48101  -1.45831   0.10083
   0.48101  -1.45831   0.10083
   0.48101  -1.45831   0.10083
   0.48101  -1.21831  -0.13917
   0.48101  -0.97831   0.10083
   0.48101  -0.97831   0.10083
   0.48101  -0.73831   0.10083
   0.48101  -0.49831   0.10083
   0.48101  -0.25831   0.10083
   0.48101  -0.01831   0.10083
   0.48101   0.22169   0.10083
   0.48101   0.22169   0.10083
   0.48101   0.46169   0.10083
   0.48101   0.46169   0.34083
   0.48101   0.46169   0.34083
   0.48101   0.70169   0.34083
   0.72101   0.70169   0.34083
   0.48101   0.70169   0.34083
   0.72101   0.70169   0.34083
   0.72101   0.70169   0.34083
   0.48101   0.46169   0.34083
   0.48101   0.46169   0.34083
   0.48101   0.46169   0.34083
   0.48101   0.22169   0.34083
   0.24101   0.22169   0.34083
   0.24101  -0.01831   0.34083
   0.24101  -0.01831   0.34083
   0.24101  -0.25831   0.34083
   0.24101  -0.25831   0.34083
   0.24101  -0.49831   0.10083
   0.24101  -0.49831   0.10083
   0.24101  -0.49831   0.10083
   0.24101  -0.49831   0.10083
   0.24101  -0.49831   0.10083
   0.24101  -0.49831   0.10083
   0.24101  -0.49831   0.10083
   0.24101  -0.49831   0.10083
   0.24101  -0.25831   0.10083
   0.24101  -0.25831   0.10083
   0.24101  -0.25831   0.10083
   0.24101  -0.01831   0.10083
   0.24101  -0.01831   0.10083
   0.00101  -0.01831   0.10083
   0.00101   0.22169   0.10083
   0.00101   0.22169   0.10083
   0.00101   0.46169   0.10083
  -0.23899   0.46169   0.10083
  -0.23899   0.46169   0.10083
  -0.47899   0.46169   0.10083
  -0.47899   0.22169   0.10083
  -0.47899   0.22169   0.10083
  -0.71899   0.22169  -0.13917
  -0.71899   0.22169  -0.13917
  -0.71899  -0.01831  -0.13917
  -0.95899  -0.25831  -0.13917
  -0.95899  -0.25831  -0.13917
  -0.95899  -0.49831  -0.13917
  -0.95899  -0.49831  -0.13917
  -0.95899  -0.49831  -0.13917
  -0.95899  -0.49831  -0.37917
  -1.19899  -0.49831  -0.13917
  -1.19899  -0.73831  -0.13917
  -1.19899  -0.97831  -0.13917
  -1.19899  -0.97831  -0.13917
  -1.43899  -0.97831  -0.13917
  -1.43899  -0.97831  -0.13917
  -1.43899  -0.97831  -0.13917
  -1.43899  -0.97831  -0.13917
  -1.43899  -0.97831  -0.13917
  -1.43899  -0.73831  -0.13917
  -1.19899  -0.49831  -0.37917
  -1.19899  -0.49831  -0.13917
  -1.19899  -0.01831  -0.13917
  -0.95899   0.22169  -0.37917
  -0.95899   0.46169  -0.37917
  -0.95899   0.93169  -0.37917
  -0.95899   1.17169  -0.37917
  -0.95899   1.41169  -0.37917
  -0.95899   1.65169  -0.37917
  -0.95899   1.65169  -0.37917
  -0.71899   1.89169  -0.37917
  -0.71899   1.89169  -0.60917
  -0.71899   1.65169  -0.37917
  -0.71899   1.65169  -0.37917
  -0.71899   1.41169  -0.60917
  -0.71899   1.17169  -0.60917
  -0.47899   0.93169  -0.37917
  -0.47899   0.70169  -0.37917
  -0.47899   0.22169  -0.37917
  -0.47899  -0.01831  -0.37917
  -0.47899  -0.25831  -0.60917
  -0.47899  -0.49831  -0.37917
  -0.47899  -0.73831  -0.37917
  -0.47899  -0.97831  -0.37917
  -0.47899  -0.97831  -0.37917
  -0.47899  -0.97831  -0.37917
  -0.47899  -0.97831  -0.37917
  -0.47899  -0.97831  -0.37917
  -0.47899  -0.97831  -0.37917
  -0.47899  -0.73831  -0.37917
  -0.47899  -0.49831  -0.37917
  -0.47899  -0.49831  -0.37917
  -0.47899  -0.01831  -0.37917
  -0.47899  -0.01831  -0.13917
  -0.47899  -0.01831  -0.13917
  -0.47899   0.22169  -0.13917
  -0.47899   0.22169  -0.13917
  -0.23899   0.22169  -0.13917
  -0.23899   0.46169  -0.13917
  -0.23899   0.22169  -0.13917
  -0.23899   0.22169  -0.13917
   0.00101  -0.01831  -0.13917
  -0.23899  -0.01831  -0.13917
   0.00101  -0.25831  -0.13917
   0.00101  -0.25831  -0.13917
   0.00101  -0.49831  -0.13917
   0.00101  -0.73831  -0.13917
   0.00101  -0.73831  -0.13917
   0.00101  -0.73831  -0.37917
   0.24101  -0.97831  -0.37917
   0.24101  -0.97831  -0.37917
   0.24101  -0.97831  -0.37917
   0.24101  -0.73831  -0.60917
   0.24101  -0.73831  -0.60917
   0.24101  -0.49831  -0.60917
   0.48101  -0.25831  -0.60917
   0.48101  -0.25831  -0.60917
   0.48101  -0.01831  -0.60917
   0.48101   0.22169  -0.60917
   0.48101   0.22169  -0.60917
   0.24101   0.70169  -0.60917
   0.24101   0.70169  -0.60917
   0.24101   0.70169  -0.60917
   0.24101   0.93169  -0.60917
   0.24101   0.93169  -0.84917
   0.00101   0.93169  -0.84917
   0.00101   0.93169  -0.84917
   0.00101   0.93169  -0.84917
  -0.23899   0.70169  -0.84917
  -0.23899   0.70169  -0.84917
  -0.23899   0.70169  -0.84917
  -0.47899   0.46169  -0.84917
  -0.47899   0.22169  -0.84917
  -0.47899  -0.01831  -0.60917
  -0.47899  -0.01831  -0.60917
  -0.71899  -0.01831  -0.60917
  -0.71899  -0.25831  -0.60917
  -0.71899  -0.25831  -0.60917
  -0.71899  -0.25831  -0.60917
  -0.71899  -0.25831  -0.60917
  -0.71899  -0.25831  -0.37917
  -0.71899  -0.25831  -0.37917
  -0.71899  -0.25831  -0.37917
  -0.71899  -0.01831  -0.37917
  -0.71899  -0.01831  -0.37917
  -0.71899  -0.01831  -0.13917
  -0.71899   0.22169  -0.13917
  -0.47899   0.22169  -0.13917
  -0.47899   0.22169   0.10083
  -0.47899   0.46169   0.10083
  -0.47899   0.46169   0.10083
  -0.47899   0.46169   0.10083
  -0.47899   0.46169   0.10083
  -0.47899   0.70169   0.34083
  -0.47899   0.70169   0.34083
  -0.47899   0.70169   0.34083
  -0.47899   0.46169   0.34083
  -0.47899   0.46169   0.34083
  -0.23899   0.22169   0.34083
  -0.47899   0.46169   0.58083
  -0.47899   0.22169   0.58083
  -0.23899  -0.01831   0.58083
  -0.23899  -0.01831   0.58083
  -0.23899  -0.25831   0.58083
  -0.23899  -0.25831   0.58083
  -0.23899  -0.25831   0.82083
  -0.23899  -0.49831   0.82083
  -0.23899  -0.49831   0.82083
  -0.23899  -0.49831   0.82083
  -0.23899  -0.49831   0.82083
  -0.23899  -0.49831   0.82083
  -0.47899  -0.49831   0.82083
  -0.47899  -0.49831   0.82083
  -0.47899  -0.49831   0.82083
  -0.47899  -0.49831   0.82083
  -0.47899  -0.49831   0.82083
  -0.47899  -0.49831   1.06083
  -0.47899  -0.49831   0.82083
  -0.71899  -0.49831   0.82083
  -0.71899  -0.25831   0.82083
  -0.71899  -0.49831   0.82083
  -0.71899  -0.49831   0.82083
  -0.47899  -0.49831   0.82083
  -0.71899  -0.49831   0.82083
  -0.47899  -0.49831   0.82083
  -0.47899  -0.49831   0.82083
  -0.47899  -0.49831   0.82083
  -0.23899  -0.49831   0.58083
  -0.23899  -0.49831   0.58083
  -0.23899  -0.49831   0.58083
   0.00101  -0.25831   0.58083
   0.00101  -0.25831   0.58083
   0.00101  -0.25831   0.58083
   0.00101  -0.25831   0.58083
   0.24101  -0.25831   0.34083
   0.24101  -0.01831   0.34083
   0.24101  -0.25831   0.34083
   0.24101  -0.01831   0.34083
   0.48101   0.22169   0.10083
   0.48101   0.22169   0.10083
   0.72101   0.46169   0.10083
   0.72101   0.46169   0.10083
   0.96101   0.46169   0.10083
   0.96101   0.46169  -0.13917
   0.96101   0.46169  -0.13917
   1.20101   0.46169  -0.13917
   1.20101   0.46169  -0.13917
   1.43101   0.22169  -0.13917
   1.43101   0.22169  -0.37917
   1.43101  -0.01831  -0.13917
   1.43101  -0.01831  -0.13917
   1.67101  -0.25831  -0.13917
   1.67101  -0.25831  -0.13917
   1.67101  -0.25831  -0.13917
   1.67101  -0.25831  -0.13917
   1.43101  -0.25831  -0.13917
   1.67101  -0.25831  -0.13917
   1.43101  -0.25831  -0.13917
   1.43101  -0.25831   0.10083
   1.20101  -0.25831   0.10083
   1.20101  -0.01831   0.10083
