********************************************************************************
              CENTRO DE INSTRUMENTACION Y REGISTRO SISMICO  A.C.

    Anaxagoras 814, Col. Narvarte, Benito Juarez, C.P. 03020 Mexico, D.F.
           Tels. 5687 45 42/ 5687 45  82             Fax. 5669 25 12
********************************************************************************
ARCHIVO ESTANDAR DE ACELERACION:
VERSION DEL FORMATO                    : 2.0
NOMBRE DEL ARCHIVO                     : BA4920120320180250
FECHA Y HORA DE CREACION               : 04/ABR/12, 11:14
REF. CATALOGO ACELEROGRAMAS, SMIS 1996 : REGISTRO No.     /PAG.


================================================================================
DATOS DE LA ESTACION:
NOMBRE DE LA ESTACION                  : BUENOS AIRES
CLAVE DE LA ESTACION                   : BA49
LOCALIZACION DE LA ESTACION            : Del. Cuauhtémoc, Col. Doctores,        
                                       : Av. Lázaro Cárdenas esq. con           
                                       : Calle Dr. Márquez.                     
                                       :                                        
                                       : 
COORDENADAS DE LA ESTACION             : 19.4097 LAT. N
                                       : 99.1450 LONG. W
ALTITUD (msnm)                         : 2233
TIPO DE SUELO                          : Terreno blando, material compresible
                                       : (arcillas)                
                                       : 
INSTITUCION RESPONSABLE                : CIRES
                                       : 

================================================================================
DATOS DEL ACELEROGRAFO:
MODELO DEL ACELEROGRAFO                : RADESD
NUMERO DE SERIE DEL ACELEROGRAFO       : 176
NUMERO DE CANALES                      : 3
ORIENTACION C1-C6 (rumbo;orientacion)  : /N00E/+V/N90W
ORIENTACION C7-C12 (rumbo;orientacion) : 
VEL. DE MUESTREO, C1-C6 (muestras/s)   : /100/100/100
VEL. DE MUESTREO, C7-C12 (muestras/s)  : 
ESC. COMPLETA DE SENSORES, C1-C6, (g)  : /0.5/0.5/0.5
ESC. COMPLETA DE SENSORES, C7-C12, (g) : 
FREC. NAT. DE SENSORES, C1-C6, (Hz)    : /52.99/52.03/52.99
FREC. NAT. DE SENSORES, C7-C12, (Hz)   : 
AMORTIGUAMIENTO DE SENSORES, C1-C6     : /0.5589/0.5469/0.6096
AMORTIGUAMIENTO DE SENSORES, C7-C12    : 
INTERVALO DE MUESTREO, C1-C6, (s)      : /0.01/0.01/0.01
INTERVALO DE MUESTREO, C7-C12, (s)     : 
UMBRAL DE DISPARO, C1-C6, (Gal)        : /0.96/1.92/0.96
UMBRAL DE DISPARO, C7-C12, (Gal)       : 
MEMORIA DE PREEVENTO (s)               : 56.0
TIEMPO DE POSEVENTO (s)                : 64.0


================================================================================
DATOS DEL SISMO:
FECHA DEL SISMO (GMT)                  : 20/MAR/12
HORA EPICENTRO (GMT)                   : 18:02:50.0
MAGNITUD(ES)                           : /Mc=7.4
COORDENADAS DEL EPICENTRO              : 16.42 LAT. N
                                       : 98.36 LONG. W
PROFUNDIDAD FOCAL (km)                 : 15
FUENTE DE LOS DATOS EPICENTRALES       : SSN
                                       : INSTITUTO DE GEOFISICA, UNAM

================================================================================
DATOS DE ESTE REGISTRO:
HORA DE LA PRIMERA MUESTRA (GMT)       : 18:03:47.00
EXACTITUD DEL TIEMPO (s)               : 0.01
DURACION DEL REGISTRO (s), C1-C6       : /586.75/586.75/586.75
DURACION DEL REGISTRO (s), C7-C12      : 
NUM. TOTAL DE MUESTRAS, C1-C6          : /58675/58675/58675
NUM. TOTAL DE MUESTRAS, C7-C12         : 
ACEL. MAX. (Gal), C1-C6                : /31.79365/10.89434/48.34394
ACEL. MAX., C1-C6, EN LA MUESTRA       : /10684/9775/12153
ACEL. MAX. (Gal), C7-C12               : 
ACEL. MAX., C7-C12, EN LA MUESTRA      : 
UNIDADES DE LOS DATOS                  : Gal (cm/s/s)
FACTOR DE DECIMACION                   : 1
FORMATO DATOS (FORTRAN,10 campos/dato) : 3F10.5


================================================================================
CALIDAD DEL ACELEROGRAMA:
REGISTRO DIGITAL COMPLETO CON TIEMPO ABSOLUTO CORRECTO.


================================================================================
COMENTARIOS:














================================================================================
DATOS DE ACELERACION:
---------+---------+---------+---------+---------+---------+---------+---------+
   CANAL-1   CANAL-2   CANAL-3   CANAL-4   CANAL-5   CANAL-6   CANAL-7   CANAL-8
      N00E        +V      N90W
---------+---------+---------+---------+---------+---------+---------+---------+
[...]
  -6.17569  -0.59783 -21.08791
  -6.17569  -0.59783 -19.89081
  -6.65453  -0.59783 -19.17255
  -6.89395  -0.83725 -18.45429
  -7.13337  -0.83725 -17.73603
  -7.61221  -0.59783 -16.53892
  -8.09106  -0.35841 -16.06008
  -8.56990  -0.35841 -15.34182
  -9.04874   0.12043 -14.86298
  -9.28816   0.35985 -14.14472
 -10.00642   0.35985 -12.94762
 -10.72468   0.35985 -11.98994
 -11.44294   1.07812 -11.75052
 -11.44294   1.55696 -11.51110
 -11.92178   1.79638 -10.79284
 -12.64004   1.79638  -9.59574
 -13.11888   2.51464  -9.11690
 -13.11888   3.23290  -9.11690
 -13.35830   2.99348  -8.39864
 -13.35830   2.75406  -7.20154
 -13.59772   2.75406  -6.24386
 -13.59772   3.71174  -6.24386
 -13.11888   3.95116  -6.24386
 -12.87946   3.95116  -4.80734
 -13.11888   3.71174  -3.37082
 -12.87946   3.95116  -3.13140
 -12.64004   4.19058  -3.13140
 -12.16120   3.71174  -2.17371
 -11.68236   3.71174  -0.73719
 -11.68236   3.95116  -0.01893
 -11.20352   3.71174   0.45991
 -10.48526   3.71174   1.17817
 -10.00642   3.47232   2.61469
  -9.76700   3.71174   3.33295
  -9.28816   3.95116   3.81179
  -8.80932   3.95116   4.53005
  -8.09106   3.95116   5.72715
  -7.85163   3.47232   6.68483
  -7.61221   3.71174   7.40309
  -6.65453   3.95116   7.88193
  -5.93627   3.71174   8.83961
  -5.69685   3.23290  10.27613
  -5.21801   3.47232  10.99439
  -4.49975   3.71174  11.23381
  -3.78149   3.71174  11.95208
  -3.54207   3.47232  13.14918
  -3.06323   3.47232  14.34628
  -2.58439   3.71174  14.34628
  -1.62671   4.19058  14.34628
  -1.14787   4.19058  15.54338
  -0.66903   4.19058  16.74048
  -0.42961   4.19058  17.21932
   0.52807   4.66942  16.97990
   1.24633   4.66942  17.69816
   1.48575   4.19058  18.89526
   1.72517   3.95116  19.37410
   2.44343   3.95116  19.13468
   3.16169   4.19058  19.13468
   3.64053   3.47232  19.85294
   3.87995   2.99348  20.57120
   4.11937   2.75406  20.57120
   5.07705   2.75406  20.33178
   5.79531   2.75406  20.33178
   6.03473   2.27522  20.81062
   6.27415   2.03580  21.05004
   6.99242   1.55696  20.57120
   7.95010   1.79638  20.09236
   8.66836   1.31754  20.33178
   9.14720   0.59927  20.57120
   9.62604   0.59927  20.09236
  10.10488   0.83869  19.37410
  10.82314   0.35985  19.37410
  11.30198  -0.35841  19.61352
  12.02024  -0.59783  19.37410
  12.73850  -0.35841  18.65584
  13.45676  -0.83725  17.93758
  13.93560  -1.79493  18.65584
  14.17502  -2.51319  19.13468
  14.65386  -2.75261  18.65584
  15.13270  -2.75261  18.41642
  15.37212  -3.47087  18.41642
  15.61154  -3.71029  19.13468
  16.09038  -3.94971  19.13468
  16.56922  -3.94971  18.89526
  16.80864  -4.42855  19.13468
  17.04806  -5.14681  19.37410
  16.80864  -5.14681  19.85294
  17.04806  -4.90739  19.61352
  17.52690  -4.90739  19.37410
  17.28748  -5.14681  20.09236
  17.04806  -5.62565  20.57120
  17.04806  -5.62565  20.57120
  17.28748  -5.62565  20.33178
  17.28748  -5.38623  20.57120
  16.56922  -5.62565  21.28946
  16.09038  -5.62565  21.76830
  15.61154  -6.10449  21.76830
  15.37212  -5.62565  22.24714
  14.65386  -5.86507  22.48656
  13.93560  -5.86507  22.96540
  13.21734  -5.86507  22.96540
  12.73850  -5.14681  23.20482
  11.78082  -5.38623  23.92308
  10.82314  -5.14681  24.64134
   9.86546  -5.38623  25.12018
   9.14720  -4.90739  25.12018
   8.66836  -4.42855  25.59902
   7.71068  -4.90739  26.55671
   6.75300  -5.38623  27.51439
   6.27415  -4.42855  27.51439
   6.27415  -4.18913  27.27497
   5.55589  -4.66797  27.99323
   4.59821  -5.14681  29.42975
   3.87995  -4.42855  29.42975
   4.11937  -3.71029  28.71149
   4.11937  -4.18913  29.19033
   3.64053  -4.42855  30.62685
   2.68285  -3.94971  30.86627
   2.92227  -3.47087  30.14801
   2.92227  -3.94971  30.62685
   2.68285  -4.18913  31.34511
   2.44343  -3.47087  31.34511
   2.20401  -3.47087  30.62685
   2.20401  -3.47087  30.62685
   2.44343  -3.23145  31.10569
   2.44343  -2.51319  31.10569
   2.44343  -2.51319  30.14801
   2.68285  -2.99203  30.14801
   2.92227  -2.51319  30.38743
   2.92227  -2.03435  30.14801
   3.16169  -2.27377  29.42975
   3.40111  -2.51319  29.19033
   3.40111  -2.03435  28.95091
   3.40111  -1.55551  28.23265
   3.40111  -2.03435  27.75381
   3.87995  -1.79493  27.51439
   3.87995  -1.31609  26.79613
   3.87995  -0.35841  25.83844
   3.64053  -0.59783  25.59902
   3.64053  -0.59783  25.35960
   3.87995  -0.11899  24.16250
   4.11937   0.35985  22.96540
   4.11937   0.35985  22.00772
   3.87995   0.59927  21.76830
   4.35879   1.07812  20.57120
   4.59821   1.31754  19.13468
   4.83763   1.55696  17.93758
   4.59821   1.79638  17.21932
   4.59821   1.31754  16.97990
   4.59821   1.55696  15.78280
   4.83763   2.27522  13.62802
   5.07705   2.51464  12.43092
   4.83763   2.03580  12.19150
   4.35879   2.27522  11.23381
   4.11937   2.75406   9.31845
   4.35879   2.75406   7.64251
   4.11937   2.51464   6.92425
   3.64053   2.27522   6.20599
   3.16169   2.99348   4.76947
   3.16169   3.23290   2.61469
   3.16169   2.99348   1.17817
   2.20401   2.75406   0.45991
   1.48575   3.23290  -0.97661
   1.24633   3.47232  -3.13140
   1.24633   2.99348  -4.56792
   0.76749   2.51464  -5.52560
   0.28865   3.23290  -6.96212
   0.04923   2.99348  -8.63806
  -0.42961   2.27522 -10.07458
  -0.90845   2.99348 -11.98994
  -1.14787   2.99348 -13.42646
  -1.38729   2.03580 -14.62356
  -1.86613   2.03580 -16.29950
  -2.10555   2.03580 -18.21487
  -2.34497   1.79638 -19.65139
  -2.58439   1.79638 -21.32733
  -3.06323   1.07812 -22.76385
  -3.06323   1.55696 -24.91863
  -3.30265   1.07812 -26.11573
  -3.78149  -0.11899 -27.31283
  -4.02091   0.12043 -28.74935
  -4.26033   0.12043 -30.66471
  -4.26033  -1.07667 -32.34066
  -4.73917  -2.03435 -33.29834
  -5.21801  -2.27377 -34.25602
  -5.45743  -2.03435 -35.93196
  -5.93627  -2.51319 -37.84732
  -6.41511  -3.47087 -38.80500
  -7.13337  -3.23145 -39.52326
  -7.61221  -2.99203 -40.72036
  -8.09106  -3.71029 -42.15688
  -8.80932  -3.23145 -43.35398
  -9.28816  -2.99203 -44.07224
 -10.00642  -2.99203 -44.07224
 -10.96410  -2.75261 -45.02992
 -11.44294  -2.51319 -45.74818
 -11.68236  -2.99203 -46.22703
 -12.40062  -3.23145 -45.98761
 -13.35830  -2.75261 -45.98761
 -14.07656  -2.75261 -46.46645
 -14.07656  -2.03435 -47.18471
 -14.55540  -2.75261 -46.94529
 -15.51308  -2.99203 -46.46645
 -16.23134  -2.27377 -46.70587
 -16.47076  -2.03435 -47.42413
 -16.71018  -3.23145 -46.70587
 -17.66786  -3.47087 -45.74818
 -18.14670  -3.23145 -45.74818
 -18.38612  -2.75261 -46.46645
 -18.38612  -2.99203 -46.22703
 -19.10438  -4.42855 -44.79050
 -20.30148  -4.42855 -44.07224
 -20.54090  -3.71029 -44.55108
 -20.30148  -4.18913 -44.31166
 -21.01974  -5.38623 -42.63572
 -21.97742  -5.14681 -41.91746
 -22.21684  -4.90739 -42.15688
 -22.45627  -5.14681 -41.67804
 -23.17453  -6.10449 -39.76268
 -23.89279  -5.62565 -38.80500
 -24.13221  -5.14681 -39.04442
 -24.13221  -5.38623 -38.32616
 -24.61105  -5.38623 -36.65022
 -25.08989  -5.14681 -35.21370
 -25.08989  -4.66797 -34.97428
 -24.85047  -4.42855 -34.49544
 -24.85047  -4.18913 -32.81950
 -25.08989  -3.71029 -31.38298
 -24.61105  -3.23145 -30.90413
 -24.13221  -3.47087 -30.18587
 -23.89279  -2.75261 -29.46761
 -23.17453  -2.27377 -28.27051
 -22.69569  -2.51319 -27.31283
 -22.21684  -2.51319 -26.35515
 -21.25916  -1.79493 -26.11573
 -20.30148  -1.07667 -25.39747
 -19.34380  -1.07667 -24.43979
 -18.62554  -1.55551 -23.24269
 -17.42844  -1.07667 -22.76385
 -15.99192  -0.11899 -22.52443
 -14.79482  -0.35841 -21.56675
 -14.31598  -0.59783 -20.13023
 -13.11888   0.12043 -19.17255
 -11.20352   0.83869 -19.41197
 -10.00642   0.83869 -18.45429
  -9.04874   0.59927 -17.01777
  -7.85163   1.79638 -16.06008
  -6.17569   1.79638 -16.06008
  -4.73917   1.55696 -15.10240
  -3.78149   2.03580 -13.66588
  -2.82381   2.99348 -12.94762
  -1.38729   3.47232 -12.94762
   0.28865   3.47232 -12.22936
   1.00691   3.71174 -10.31400
   1.96459   4.43000  -9.35632
   3.16169   5.62710  -9.59574
   4.35879   5.62710  -8.87748
   5.31647   5.86652  -7.44096
   6.03473   6.58478  -6.24386
   6.75300   6.82420  -5.76502
   7.47126   7.06362  -5.52560
   8.42894   7.78188  -4.56792
   8.90778   7.54246  -3.37082
   8.90778   7.78188  -2.41313
   9.14720   8.02130  -1.93429
   9.86546   8.50014  -1.69487
  10.34430   8.50014  -0.49777
  10.10488   8.02130   0.69933
  10.10488   8.26072   1.17817
  10.34430   8.50014   1.41759
  10.58372   8.50014   1.89643
  10.58372   8.02130   2.85411
  10.10488   8.26072   3.33295
   9.86546   8.50014   3.57237
  10.10488   8.26072   3.81179
   9.62604   7.78188   4.29063
   9.38662   7.54246   5.00889
   9.14720   7.54246   5.24831
   9.14720   7.54246   5.00889
   8.90778   7.30304   5.24831
   8.42894   6.34536   5.96657
   8.18952   5.86652   6.44541
   7.95010   5.86652   6.20599
   7.71068   5.62710   6.20599
   7.23184   4.43000   6.92425
   6.99242   3.95116   7.16367
   6.99242   3.95116   6.68483
   6.75300   3.47232   6.92425
   6.75300   2.51464   7.40309
   6.27415   2.03580   7.64251
   6.03473   1.79638   7.88193
   6.03473   1.55696   7.88193
   6.03473   1.31754   8.36077
   5.79531   0.59927   8.83961
   5.55589   0.12043   9.31845
   5.55589  -0.35841   9.07903
   5.79531  -0.59783   9.07903
   5.55589  -1.31609   9.55787
   5.55589  -2.03435  10.27613
   5.55589  -2.27377  10.27613
   5.55589  -2.75261  10.51555
   5.55589  -2.99203  10.75497
   5.55589  -3.23145  11.23381
   5.79531  -3.71029  11.47323
   6.03473  -3.94971  11.95208
   6.03473  -4.18913  12.43092
   6.27415  -4.90739  13.14918
   6.75300  -5.38623  13.62802
   7.23184  -5.62565  14.10686
   7.47126  -5.62565  15.06454
   7.95010  -6.10449  16.02222
   8.18952  -6.10449  16.97990
   8.42894  -6.58333  17.69816
   9.38662  -6.82275  18.65584
   9.86546  -7.06217  20.09236
  10.34430  -7.30159  21.05004
  11.06256  -7.78043  22.24714
  11.78082  -8.01985  23.44424
  12.73850  -8.25927  24.88076
  13.21734  -8.25927  26.07786
  13.69618  -8.25927  27.27497
  14.17502  -8.49869  28.47207
  14.65386  -8.49869  30.14801
  15.37212  -8.01985  31.34511
  15.85096  -8.25927  32.78163
  16.09038  -8.25927  34.21815
  16.56922  -7.78043  35.41525
  17.04806  -7.30159  36.37293
  17.04806  -7.30159  37.57003
  17.28748  -7.06217  38.76713
  17.76632  -6.34391  39.72481
  18.00574  -5.86507  40.44307
  18.00574  -5.86507  41.64018
  18.24516  -5.38623  42.59786
  18.24516  -4.42855  43.31612
  18.48458  -4.18913  43.79496
  18.48458  -3.71029  44.51322
  18.48458  -3.47087  45.47090
  18.24516  -3.23145  45.94974
  18.24516  -2.99203  46.42858
  18.72400  -2.51319  46.66800
  18.48458  -2.51319  47.38626
  18.48458  -2.27377  47.62568
  18.24516  -2.27377  47.86510
  18.48458  -2.03435  48.10452
  18.24516  -1.79493  48.10452
  18.00574  -1.31609  48.10452
  18.00574  -1.07667  48.34394
  18.00574  -0.83725  48.10452
  17.76632  -0.59783  47.62568
  17.28748  -0.59783  47.86510
  17.28748  -0.59783  47.38626
  16.80864  -0.59783  46.90742
  16.56922  -0.35841  46.42858
  16.32980  -0.11899  45.94974
  15.85096  -0.11899  45.71032
  15.37212  -0.35841  44.99206
  14.89328   0.12043  44.03438
  14.17502   0.12043  43.55554
  13.69618  -0.11899  42.83728
  12.97792  -0.11899  41.87960
  12.49908   0.35985  40.68249
  12.02024   0.59927  39.72481
  11.06256   0.59927  38.76713
  10.10488   0.59927  37.80945
   9.14720   0.59927  36.61235
   8.42894   0.59927  35.17583
   7.47126   0.83869  33.97873
   6.51358   0.83869  32.78163
   5.31647   1.07812  31.58453
   4.35879   1.31754  29.90859
   3.40111   1.31754  28.71149
   2.20401   0.83869  27.51439
   0.76749   1.07812  26.31728
  -0.42961   1.31754  24.88076
  -1.38729   1.55696  23.44424
  -2.34497   1.31754  22.48656
  -3.78149   1.31754  21.52888
  -4.73917   1.31754  20.09236
  -5.45743   1.07812  19.13468
  -6.65453   0.83869  18.17700
  -7.61221   0.83869  17.21932
  -8.33048   0.83869  16.26164
  -8.80932   0.59927  15.54338
  -9.52758   0.35985  14.58570
 -10.24584   0.35985  13.86744
 -10.72468   0.59927  12.67034
 -11.44294   0.59927  11.71265
 -11.92178   0.83869  10.99439
 -12.64004   1.07812  10.03671
 -12.87946   0.83869   9.07903
 -13.35830   0.59927   7.88193
 -13.83714   0.35985   7.16367
 -14.31598   0.35985   6.44541
 -14.55540   0.35985   5.48773
 -15.03424   0.35985   4.29063
 -15.27366   0.12043   3.57237
 -15.75250   0.12043   2.61469
 -16.23134  -0.35841   1.89643
 -16.23134  -0.59783   0.93875
 -16.47076  -0.35841  -0.25835
 -16.47076  -0.59783  -0.97661
 -16.71018  -1.07667  -1.93429
 -16.94960  -1.07667  -2.89198
 -17.18902  -0.83725  -4.08908
 -17.18902  -1.07667  -5.04676
 -17.42844  -1.79493  -5.52560
 -17.42844  -1.79493  -6.48328
 -17.18902  -1.55551  -7.44096
 -16.94960  -1.55551  -8.39864
 -16.94960  -1.79493  -9.11690
 -16.71018  -2.03435 -10.07458
 -16.47076  -2.51319 -11.03226
 -15.99192  -2.51319 -11.98994
 -15.75250  -2.75261 -12.94762
 -15.27366  -2.99203 -13.90530
 -14.79482  -2.99203 -15.10240
 -14.31598  -2.99203 -16.29950
 -13.59772  -3.23145 -17.01777
 -13.11888  -3.47087 -18.21487
 -12.64004  -3.47087 -19.17255
 -12.16120  -3.71029 -20.13023
 -11.68236  -3.71029 -21.08791
 -10.96410  -3.23145 -22.04559
 -10.24584  -2.99203 -23.00327
  -9.76700  -2.99203 -23.72153
  -9.52758  -3.23145 -24.43979
  -8.80932  -2.75261 -25.15805
  -8.33048  -2.51319 -25.87631
  -7.85163  -2.27377 -26.83399
  -7.37279  -2.03435 -27.31283
  -6.89395  -2.03435 -27.55225
  -6.41511  -1.55551 -28.03109
  -6.17569  -1.55551 -28.27051
  -5.69685  -1.07667 -29.22819
  -5.45743  -1.07667 -29.22819
  -4.73917  -0.83725 -29.46761
  -4.73917  -0.83725 -29.46761
  -4.26033  -0.59783 -29.70703
  -3.78149  -0.59783 -30.18587
  -3.54207  -0.59783 -30.18587
  -3.54207  -0.83725 -30.42529
  -3.54207  -0.83725 -30.42529
  -3.06323  -0.83725 -30.66471
  -3.06323  -0.83725 -30.90413
  -3.06323  -0.83725 -30.90413
  -3.06323  -0.59783 -30.90413
  -2.82381  -0.11899 -31.14355
  -2.82381  -0.35841 -31.62240
  -2.82381  -0.59783 -31.62240
  -2.82381  -0.35841 -31.38298
  -3.06323   0.35985 -32.10124
  -3.06323   0.83869 -32.58008
  -3.06323   0.59927 -32.58008
  -3.30265   0.59927 -32.58008
  -3.78149   1.31754 -33.05892
  -4.02091   1.79638 -33.53776
  -4.26033   1.55696 -33.53776
  -4.49975   1.79638 -33.77718
  -4.73917   2.27522 -34.25602
  -5.21801   2.51464 -34.49544
  -5.45743   2.99348 -35.21370
  -5.69685   3.23290 -35.45312
  -5.93627   3.23290 -35.93196
  -6.41511   3.23290 -36.17138
  -6.65453   3.95116 -36.41080
  -6.65453   4.19058 -37.12906
  -6.65453   3.95116 -37.60790
  -6.89395   3.95116 -37.84732
  -7.13337   4.43000 -38.08674
  -7.13337   4.43000 -38.80500
  -7.37279   3.95116 -39.04442
  -7.37279   3.95116 -39.04442
  -7.85163   4.43000 -39.76268
  -7.61221   4.90884 -40.24152
  -7.85163   3.95116 -40.48094
  -8.09106   3.95116 -40.24152
  -8.33048   3.95116 -40.72036
  -8.56990   4.43000 -41.43862
  -8.56990   4.19058 -41.43862
  -9.04874   3.95116 -41.43862
  -9.52758   3.95116 -41.43862
  -9.76700   4.19058 -41.67804
  -9.76700   3.95116 -41.67804
 -10.00642   4.19058 -41.67804
 -10.24584   4.19058 -41.67804
 -10.48526   3.95116 -41.67804
 -10.48526   3.95116 -41.43862
 -10.48526   3.47232 -40.72036
 -10.48526   3.47232 -40.48094
 -10.72468   3.47232 -40.48094
 -10.48526   3.47232 -40.00210
 -10.24584   3.23290 -39.52326
 -10.24584   2.51464 -38.56558
 -10.24584   2.27522 -37.84732
 -10.24584   2.27522 -37.36848
