********************************************************************************
              CENTRO DE INSTRUMENTACION Y REGISTRO SISMICO  A.C.

    Anaxagoras 814, Col. Narvarte, Benito Juarez, C.P. 03020 Mexico, D.F.
           Tels. 5687 45 42/ 5687 45  82             Fax. 5669 25 12
********************************************************************************
ARCHIVO ESTANDAR DE ACELERACION:
VERSION DEL FORMATO                    : 2.0
NOMBRE DEL ARCHIVO                     : BA4920180219065657
FECHA Y HORA DE CREACION               : 07/MAR/18, 13:39
REF. CATALOGO ACELEROGRAMAS, SMIS 1996 : REGISTRO No.     /PAG.


================================================================================
DATOS DE LA ESTACION:
NOMBRE DE LA ESTACION                  : BUENOS AIRES
CLAVE DE LA ESTACION                   : BA49
LOCALIZACION DE LA ESTACION            : Del. Cuauhtémoc, Col. Doctores,        
                                       : Av. Lázaro Cárdenas esq. con           
                                       : Calle Dr. Márquez.                     
                                       :                                        
                                       : 
COORDENADAS DE LA ESTACION             : 19.4097 LAT. N
                                       : 99.1450 LONG. W
ALTITUD (msnm)                         : 2233
TIPO DE SUELO                          : Terreno blando, material compresible
                                       : (arcillas)                
                                       : 
INSTITUCION RESPONSABLE                : CIRES
                                       : 

================================================================================
DATOS DEL ACELEROGRAFO:
MODELO DEL ACELEROGRAFO                : RADESD
NUMERO DE SERIE DEL ACELEROGRAFO       : 176
NUMERO DE CANALES                      : 3
ORIENTACION C1-C6 (rumbo;orientacion)  : /S00E/+V/N90W
ORIENTACION C7-C12 (rumbo;orientacion) : 
VEL. DE MUESTREO, C1-C6 (muestras/s)   : /100/100/100
VEL. DE MUESTREO, C7-C12 (muestras/s)  : 
ESC. COMPLETA DE SENSORES, C1-C6, (g)  : /0.5/0.5/0.5
ESC. COMPLETA DE SENSORES, C7-C12, (g) : 
FREC. NAT. DE SENSORES, C1-C6, (Hz)    : /52.99/52.03/52.99
FREC. NAT. DE SENSORES, C7-C12, (Hz)   : 
AMORTIGUAMIENTO DE SENSORES, C1-C6     : /0.5589/0.5469/0.6096
AMORTIGUAMIENTO DE SENSORES, C7-C12    : 
INTERVALO DE MUESTREO, C1-C6, (s)      : /0.01/0.01/0.01
INTERVALO DE MUESTREO, C7-C12, (s)     : 
UMBRAL DE DISPARO, C1-C6, (Gal)        : /0.96/1.92/0.96
UMBRAL DE DISPARO, C7-C12, (Gal)       : 
MEMORIA DE PREEVENTO (s)               : 44.0
TIEMPO DE POSEVENTO (s)                : 11.0


================================================================================
DATOS DEL SISMO:
FECHA DEL SISMO (GMT)                  : 19/FEB/18
HORA EPICENTRO (GMT)                   : 06:56:57.0
MAGNITUD(ES)                           : /Mc=6.0
COORDENADAS DEL EPICENTRO              : 16.25 LAT. N
                                       : 97.77 LONG. W
PROFUNDIDAD FOCAL (km)                 : 10
FUENTE DE LOS DATOS EPICENTRALES       : SSN
                                       : INSTITUTO DE GEOFISICA, UNAM

================================================================================
DATOS DE ESTE REGISTRO:
HORA DE LA PRIMERA MUESTRA (GMT)       : 06:58:02.00
EXACTITUD DEL TIEMPO (s)               : 0.01
DURACION DEL REGISTRO (s), C1-C6       : /221.8/221.8/221.8
DURACION DEL REGISTRO (s), C7-C12      : 
NUM. TOTAL DE MUESTRAS, C1-C6          : /22180/22180/22180
NUM. TOTAL DE MUESTRAS, C7-C12         : 
ACEL. MAX. (Gal), C1-C6                : /4.21254/1.57176/4.34727
ACEL. MAX., C1-C6, EN LA MUESTRA       : /7950/5894/5135
ACEL. MAX. (Gal), C7-C12               : 
ACEL. MAX., C7-C12, EN LA MUESTRA      : 
UNIDADES DE LOS DATOS                  : Gal (cm/s/s)
FACTOR DE DECIMACION                   : 1
FORMATO DATOS (FORTRAN,10 campos/dato) : 3F10.5


================================================================================
CALIDAD DEL ACELEROGRAMA:
REGISTRO DIGITAL COMPLETO CON TIEMPO ABSOLUTO CORRECTO.


================================================================================
COMENTARIOS:














================================================================================
DATOS DE ACELERACION:
---------+---------+---------+---------+---------+---------+---------+---------+
   CANAL-1   CANAL-2   CANAL-3   CANAL-4   CANAL-5   CANAL-6   CANAL-7   CANAL-8
      S00E        +V      N90W
---------+---------+---------+---------+---------+---------+---------+---------+
[...]
   0.47160  -0.58416  -1.71305
   0.48657  -0.47941  -1.66816
   0.54642  -0.50934  -1.38385
   0.57635  -0.44948  -1.26414
   0.56138  -0.49437  -1.12947
   0.68109  -0.50934  -0.93494
   0.68109  -0.44948  -0.83019
   0.69606  -0.50934  -0.77034
   0.68109  -0.53926  -0.63566
   0.68109  -0.37466  -0.63566
   0.69606  -0.29984  -0.36632
   0.74095  -0.31481  -0.35135
   0.72599  -0.34474  -0.29150
   0.72599  -0.22503  -0.09697
   0.75591  -0.13524  -0.05208
   0.80080  -0.13524   0.15742
   0.77088  -0.03050   0.09756
   0.83073  -0.15021   0.26216
   0.87562  -5.7E-40   0.45669
   0.86066   0.04432   0.45669
   0.90555   0.08921   0.53151
   0.87562   0.13411   0.68115
   0.86066   0.05929   0.62129
   0.90555   0.07425   0.80086
   0.75591   0.14907   0.83078
   0.92051   0.20892   0.89064
   0.86066   0.26878   1.05524
   0.87562   0.23885   1.17495
   0.78584   0.20892   1.23481
   0.75591   0.29871   1.33955
   0.72599   0.31367   1.51912
   0.47160   0.28374   1.54905
   0.51649   0.35856   1.59394
   0.39678   0.31367   1.81839
   0.26211   0.25382   1.80343
   0.18729   0.25382   1.98299
   0.02269   0.20892   2.01292
  -0.00724   0.17900   2.11767
  -0.14191   0.29871   2.17752
  -0.21673   0.28374   2.13263
  -0.29155   0.37353   2.22241
  -0.42622   0.34360   2.14760
  -0.53097   0.46331   2.11767
  -0.65068   0.52316   2.08774
  -0.74046   0.40345   1.83336
  -0.80032   0.31367   1.75854
  -0.94996   0.41842   1.65379
  -0.97988   0.47827   1.44430
  -1.06967   0.32863   1.21984
  -1.12952   0.16403   1.05524
  -1.17441   0.29871   0.95049
  -1.35398   0.22389   0.68115
  -1.38390   0.25382   0.59136
  -1.44376   0.07425   0.45669
  -1.50361  -5.7E-40   0.24720
  -1.54851  -5.7E-40   0.20231
  -1.62332  -0.06042   0.03771
  -1.63829  -0.12028  -0.05208
  -1.62332  -0.19510  -0.09697
  -1.65325  -0.23999  -0.14186
  -1.68318  -0.28488  -0.26157
  -1.60836  -0.34474  -0.24661
  -1.66822  -0.32977  -0.32142
  -1.63829  -0.26992  -0.41121
  -1.60836  -0.26992  -0.44113
  -1.62332  -0.28488  -0.53092
  -1.54851  -0.26992  -0.56084
  -1.56347  -0.23999  -0.56084
  -1.48865  -0.25495  -0.54588
  -1.48865  -0.23999  -0.68055
  -1.51858  -0.18013  -0.60574
  -1.47369  -0.18013  -0.65063
  -1.44376  -0.16517  -0.72545
  -1.45872  -0.12028  -0.66559
  -1.48865  -0.12028  -0.75537
  -1.47369  -0.06042  -0.77034
  -1.47369  -0.09035  -0.77034
  -1.42880  -0.07539  -0.78530
  -1.42880  -0.06042  -0.83019
  -1.41383  -0.12028  -0.86012
  -1.36894  -0.07539  -0.94990
  -1.26419  -0.18013  -0.97983
  -1.15945  -0.13524  -1.03969
  -1.08463  -0.10532  -1.12947
  -0.94996  -0.09035  -1.18932
  -0.80032  -0.04546  -1.23421
  -0.59082  -0.03050  -1.26414
  -0.44119  -0.07539  -1.36889
  -0.20177  -0.01553  -1.36889
   0.00773  -0.04546  -1.36889
   0.24715  -0.15021  -1.42874
   0.47160  -0.13524  -1.39882
   0.69606  -0.15021  -1.36889
   0.90555  -0.18013  -1.35392
   1.14497  -0.19510  -1.30903
   1.33950  -0.19510  -1.30903
   1.53403  -0.19510  -1.26414
   1.65374  -0.13524  -1.26414
   1.80338  -0.04546  -1.15940
   1.95301  -0.01553  -1.11450
   2.05776   0.05929  -1.09954
   2.10265   0.16403  -1.06961
   2.25229   0.25382  -1.05465
   2.29718   0.41842  -1.06961
   2.43185   0.49324  -0.90501
   2.44682   0.71769  -0.99479
   2.53660   0.82244  -0.99479
   2.52164   0.94215  -1.03969
   2.50667   1.01697  -1.02472
   2.53660   1.12171  -1.03969
   2.55156   1.19653  -1.08458
   2.50667   1.27135  -1.02472
   2.50667   1.33121  -1.05465
   2.44682   1.37610  -1.02472
   2.44682   1.39106  -1.00976
   2.40193   1.37610  -0.99479
   2.35704   1.43595  -0.99479
   2.26725   1.43595  -0.87508
   2.25229   1.39106  -0.91998
   2.13258   1.43595  -0.86012
   2.07272   1.31624  -0.78530
   1.96798   1.24142  -0.69552
   1.86323   1.15164  -0.63566
   1.80338   1.01697  -0.51595
   1.75849   0.91222  -0.44113
   1.69863   0.80747  -0.36632
   1.72856   0.73266  -0.29150
   1.65374   0.61295  -0.23164
   1.51907   0.49324  -0.17179
   1.48914   0.43338  -0.12690
   1.45921   0.31367  -0.08200
   1.38439   0.22389   0.05267
   1.30957   0.07425   0.09756
   1.26468   0.02936   0.20231
   1.20483  -0.06042   0.21727
   1.08512  -0.18013   0.29209
   1.02526  -0.18013   0.38187
   0.90555  -0.32977   0.36691
   0.81577  -0.44948   0.53151
   0.74095  -0.46445   0.65122
   0.65117  -0.55423   0.72604
   0.57635  -0.62905   0.80086
   0.47160  -0.62905   0.93553
   0.39678  -0.70387   1.07021
   0.33693  -0.62905   1.20488
   0.30700  -0.65897   1.26473
   0.20225  -0.58416   1.41437
   0.20225  -0.56919   1.50415
   0.17233  -0.59912   1.57897
   0.12744  -0.59912   1.65379
   0.12744  -0.55423   1.80343
   0.08254  -0.62905   1.86328
   0.09751  -0.76372   1.95307
   0.11247  -0.76372   2.01292
   0.14240  -0.83854   2.05781
   0.12744  -0.88343   2.13263
   0.15736  -0.92832   2.17752
   0.15736  -0.92832   2.14760
   0.08254  -1.00314   2.17752
   0.03765  -1.04803   2.20745
   0.02269  -1.04803   2.23738
  -0.00724  -1.06300   2.29723
  -0.06709  -1.07796   2.29723
  -0.14191  -1.12285   2.34212
  -0.14191  -1.09292   2.37205
  -0.21673  -1.07796   2.34212
  -0.29155  -1.03307   2.37205
  -0.33644  -1.03307   2.40198
  -0.44119  -0.95825   2.38702
  -0.47111  -0.98818   2.43191
  -0.51601  -0.98818   2.47680
  -0.57586  -0.92832   2.47680
  -0.65068  -0.86847   2.55162
  -0.69557  -0.85350   2.50673
  -0.75543  -0.80861   2.61147
  -0.74046  -0.68890   2.61147
  -0.78535  -0.61408   2.58154
  -0.77039  -0.58416   2.64140
  -0.84521  -0.53926   2.64140
  -0.87514  -0.47941   2.79104
  -0.86017  -0.44948   2.88082
  -0.89010  -0.40459   2.89578
  -0.94996  -0.35970   2.92571
  -0.99485  -0.28488   2.97060
  -0.96492  -0.40459   3.06039
  -1.05470  -0.29984   2.98557
  -1.05470  -0.37466   3.01549
  -1.11456  -0.29984   2.97060
  -1.08463  -0.28488   2.92571
  -1.08463  -0.35970   2.91075
  -1.11456  -0.38963   2.82097
  -1.14448  -0.28488   2.82097
  -1.12952  -0.32977   2.74615
  -1.11456  -0.35970   2.61147
  -1.18938  -0.31481   2.47680
  -1.11456  -0.19510   2.32716
  -1.09959  -0.21006   2.19249
  -1.12952  -0.18013   2.02789
  -1.00981  -0.07539   1.87825
  -1.05470   0.01440   1.54905
  -1.00981  -5.7E-40   1.39941
  -0.97988   0.25382   1.27970
  -0.89010   0.23885   1.02531
  -0.92003   0.31367   0.86071
  -0.81528   0.32863   0.77093
  -0.84521   0.43338   0.45669
  -0.75543   0.43338   0.44173
  -0.75543   0.52316   0.30705
  -0.68061   0.56805   0.23223
  -0.74046   0.53813   0.00778
  -0.74046   0.74762  -0.11193
  -0.72550   0.68776  -0.15682
  -0.72550   0.73266  -0.12690
  -0.75543   0.82244  -0.32142
  -0.81528   0.88229  -0.35135
  -0.84521   0.88229  -0.51595
  -0.90506   0.91222  -0.59077
  -0.90506   1.10675  -0.63566
  -0.92003   1.06186  -0.89005
  -0.96492   1.03193  -0.99479
  -0.97988   1.19653  -0.97983
  -1.03974   1.21150  -1.27911
  -1.15945   1.27135  -1.36889
  -1.17441   1.22646  -1.48860
  -1.21930   1.18157  -1.68313
  -1.20434   1.15164  -1.75795
  -1.41383   1.07682  -2.04226
  -1.30909   1.07682  -2.20686
  -1.35398   1.01697  -2.26671
  -1.35398   0.77755  -2.47621
  -1.36894   0.80747  -2.55102
  -1.35398   0.77755  -2.74555
  -1.38390   0.74762  -2.71563
  -1.36894   0.59798  -2.89519
  -1.23427   0.67280  -2.82037
  -1.29412   0.65784  -2.92512
  -1.27916   0.61295  -3.01490
  -1.18938   0.47827  -2.95505
  -1.11456   0.52316  -2.89519
  -1.11456   0.47827  -2.85030
  -1.08463   0.34360  -2.88023
  -1.06967   0.35856  -2.77548
  -1.06967   0.26878  -2.74555
  -0.97988   0.26878  -2.62584
  -0.92003   0.19396  -2.62584
  -0.87514   0.01440  -2.53606
  -0.72550  -0.06042  -2.37146
  -0.84521  -0.12028  -2.41635
  -0.65068  -0.10532  -2.41635
  -0.62075  -0.13524  -2.31160
  -0.51601  -0.09035  -2.25175
  -0.50104  -0.15021  -2.29664
  -0.38133  -0.06042  -2.32657
  -0.30651  -0.07539  -2.31160
  -0.21673  -0.10532  -2.31160
  -0.11198  -0.06042  -2.35650
   0.02269  -0.07539  -2.37146
   0.14240  -0.10532  -2.44628
   0.26211  -0.15021  -2.47621
   0.38182  -0.19510  -2.49117
   0.51649  -0.19510  -2.56599
   0.62124  -0.28488  -2.61088
   0.77088  -0.32977  -2.58095
   0.87562  -0.31481  -2.64081
   1.02526  -0.46445  -2.68570
   1.20483  -0.41955  -2.70066
   1.35446  -0.50934  -2.71563
   1.45921  -0.53926  -2.70066
   1.51907  -0.58416  -2.68570
   1.60885  -0.52430  -2.65577
   1.68367  -0.50934  -2.67074
   1.74352  -0.50934  -2.61088
   1.81834  -0.49437  -2.55102
   1.90812  -0.46445  -2.46124
   1.98294  -0.40459  -2.41635
   2.04280  -0.29984  -2.32657
   2.05776  -0.26992  -2.28168
   2.05776  -0.21006  -2.23679
   2.04280  -0.13524  -2.13204
   2.08769  -0.12028  -2.14700
   2.07272  -0.06042  -2.11708
   2.02783   0.02936  -2.07218
   2.05776   0.02936  -2.05722
   2.07272   0.02936  -2.02729
   2.05776   0.05929  -2.04226
   2.02783   0.10418  -2.07218
   2.02783   0.16403  -2.02729
   2.01287   0.08921  -1.99737
   1.99791   0.13411  -1.90758
   1.96798   0.08921  -1.86269
   1.90812   0.07425  -1.83276
   1.84827   0.02936  -1.74298
   1.80338  -0.01553  -1.59334
   1.72856  -0.06042  -1.42874
   1.65374  -0.18013  -1.33896
   1.63878  -0.25495  -1.18932
   1.62381  -0.32977  -1.00976
   1.54899  -0.41955  -0.81523
   1.53403  -0.46445  -0.60574
   1.48914  -0.49437  -0.44113
   1.41432  -0.61408  -0.24661
   1.42928  -0.58416  -0.02215
   1.38439  -0.68890   0.20231
   1.30957  -0.77868   0.42676
   1.38439  -0.80861   0.57640
   1.35446  -0.79365   0.84575
   1.32454  -0.77868   1.04028
   1.33950  -0.82358   1.26473
   1.32454  -0.83854   1.50415
   1.30957  -0.80861   1.72861
   1.29461  -0.77868   1.93810
   1.27965  -0.71883   2.10270
   1.26468  -0.70387   2.31220
   1.27965  -0.70387   2.46183
   1.29461  -0.65897   2.62644
   1.24972  -0.64401   2.68629
   1.26468  -0.59912   2.89578
   1.27965  -0.58416   2.91075
   1.18986  -0.53926   2.97060
   1.15993  -0.47941   3.04542
   1.10008  -0.44948   3.01549
   1.02526  -0.43452   3.03046
   0.90555  -0.40459   3.04542
   0.84570  -0.35970   2.98557
   0.68109  -0.35970   3.01549
   0.59131  -0.25495   3.01549
   0.44167  -0.21006   3.01549
   0.29204  -0.19510   3.03046
   0.15736  -0.13524   3.04542
  -0.00724  -0.07539   3.07535
  -0.14191  -5.7E-40   3.12024
  -0.30651   0.04432   3.22499
  -0.42622   0.04432   3.28484
  -0.53097   0.07425   3.43448
  -0.69557   0.13411   3.52426
  -0.81528   0.20892   3.62901
  -0.93499   0.17900   3.70383
  -0.93499   0.22389   3.83850
  -1.06967   0.17900   3.89836
  -1.08463   0.19396   3.95821
  -1.21930   0.20892   4.04799
  -1.30909   0.19396   4.10785
  -1.41383   0.31367   4.18267
  -1.45872   0.28374   4.28741
  -1.53354   0.34360   4.30238
  -1.62332   0.37353   4.31734
  -1.69814   0.40345   4.34727
  -1.75800   0.40345   4.34727
  -1.83282   0.44834   4.28741
  -1.87771   0.38849   4.27245
  -1.89267   0.41842   4.27245
  -1.98245   0.41842   4.21259
  -1.96749   0.43338   4.06296
  -1.98245   0.47827   3.95821
  -1.93756   0.50820   3.79361
  -1.90764   0.50820   3.67390
  -1.92260   0.53813   3.46441
  -1.89267   0.59798   3.22499
  -1.93756   0.64287   2.98557
  -1.92260   0.67280   2.82097
  -1.90764   0.71769   2.56658
  -1.86274   0.76258   2.32716
  -1.89267   0.74762   2.11767
  -1.83282   0.76258   1.98299
  -1.86274   0.73266   1.63883
  -1.84778   0.74762   1.56401
  -1.86274   0.83740   1.30963
  -1.86274   0.83740   1.14502
  -1.81785   0.79251   1.04028
  -1.86274   0.76258   0.81582
  -1.81785   0.77755   0.72604
  -1.83282   0.80747   0.51655
  -1.77296   0.79251   0.39684
  -1.83282   0.80747   0.21727
  -1.77296   0.86733   0.09756
  -1.80289   0.83740  -0.20171
  -1.75800   0.83740  -0.29150
  -1.75800   0.86733  -0.59077
  -1.75800   0.76258  -0.77034
  -1.69814   0.73266  -0.96487
  -1.77296   0.68776  -1.18932
  -1.69814   0.67280  -1.32400
  -1.68318   0.52316  -1.57838
  -1.66822   0.52316  -1.72802
  -1.57843   0.49324  -1.99737
  -1.47369   0.38849  -2.08715
  -1.48865   0.26878  -2.29664
  -1.33901   0.37353  -2.46124
  -1.27916   0.22389  -2.68570
  -1.15945   0.22389  -2.73059
  -1.00981   0.23885  -2.88023
  -0.92003   0.11914  -3.01490
  -0.87514   0.01440  -3.05979
  -0.74046  -5.7E-40  -3.20943
  -0.72550  -0.07539  -3.37403
  -0.59082  -0.16517  -3.28425
  -0.48608  -0.13524  -3.40396
  -0.56090  -0.22503  -3.44885
  -0.47111  -0.28488  -3.32914
  -0.48608  -0.38963  -3.38900
  -0.54593  -0.35970  -3.28425
  -0.44119  -0.50934  -3.22439
  -0.56090  -0.61408  -3.17950
  -0.48608  -0.65897  -3.05979
  -0.48608  -0.64401  -3.04483
  -0.53097  -0.65897  -2.94008
  -0.51601  -0.65897  -2.80541
  -0.59082  -0.71883  -2.76052
  -0.56090  -0.70387  -2.65577
  -0.54593  -0.67394  -2.68570
  -0.56090  -0.61408  -2.59592
  -0.48608  -0.65897  -2.61088
  -0.53097  -0.62905  -2.58095
  -0.42622  -0.58416  -2.65577
  -0.38133  -0.44948  -2.73059
  -0.27659  -0.67394  -2.71563
  -0.15688  -0.62905  -2.67074
  -0.12695  -0.62905  -2.86526
   0.05262  -0.56919  -2.86526
   0.21722  -0.67394  -2.89519
   0.32196  -0.56919  -2.98497
   0.53146  -0.65897  -3.04483
   0.68109  -0.65897  -3.16454
   0.81577  -0.71883  -3.17950
   0.90555  -0.70387  -3.34410
   1.07015  -0.65897  -3.32914
   1.26468  -0.68890  -3.32914
   1.30957  -0.64401  -3.53863
   1.39936  -0.59912  -3.52367
   1.44425  -0.59912  -3.49374
   1.50410  -0.55423  -3.47878
   1.47417  -0.58416  -3.50871
   1.47417  -0.41955  -3.43389
   1.32454  -0.41955  -3.41892
   1.33950  -0.28488  -3.31418
   1.23475  -0.23999  -3.34410
   1.15993  -0.22503  -3.13461
   1.05519  -0.13524  -3.02987
   1.05519  -0.12028  -2.95505
   0.98037  -0.07539  -2.77548
   0.90555  -0.04546  -2.58095
   0.83073  -0.13524  -2.52110
   0.81577  -0.04546  -2.32657
   0.80080  -0.04546  -2.10211
   0.80080  -0.06042  -2.04226
   0.71102  -0.01553  -1.77291
   0.78584  -0.15021  -1.54845
   0.74095  -0.18013  -1.54845
   0.80080  -0.43452  -1.23421
   0.89059  -0.38963  -0.94990
   0.92051  -0.52430  -0.74041
   0.98037  -0.53926  -0.54588
   0.99533  -0.59912  -0.38128
   1.10008  -0.73379  -0.02215
   1.11504  -0.76372   0.18734
   1.23475  -0.73379   0.35194
   1.23475  -0.82358   0.57640
   1.29461  -0.83854   0.84575
   1.32454  -0.79365   0.99539
   1.39936  -0.73379   1.15999
   1.39936  -0.67394   1.27970
   1.41432  -0.62905   1.38444
   1.47417  -0.49437   1.51912
   1.45921  -0.40459   1.65379
   1.45921  -0.34474   1.74357
   1.47417  -0.19510   1.78847
   1.45921  -0.13524   1.83336
   1.42928  -0.01553   1.84832
   1.41432   0.07425   1.89321
   1.39936   0.13411   1.96803
   1.36943   0.23885   1.99796
   1.36943   0.29871   2.11767
   1.41432   0.35856   2.13263
   1.35446   0.37353   2.17752
   1.36943   0.41842   2.23738
   1.33950   0.47827   2.23738
   1.32454   0.44834   2.19249
   1.32454   0.47827   2.28227
   1.33950   0.49324   2.28227
   1.30957   0.50820   2.25234
   1.29461   0.50820   2.29723
   1.30957   0.52316   2.23738
   1.24972   0.50820   2.23738
   1.23475   0.40345   2.22241
   1.14497   0.35856   2.17752
   1.08512   0.32863   2.19249
   1.02526   0.23885   2.16256
   0.93548   0.23885   2.10270
   0.90555   0.17900   2.07278
   0.83073   0.20892   2.05781
   0.66613   0.17900   2.04285
   0.59131   0.26878   1.98299
   0.51649   0.32863   1.84832
   0.42671   0.40345   1.84832
   0.29204   0.47827   1.69868
   0.17233   0.53813   1.60890
