********************************************************************************
              CENTRO DE INSTRUMENTACION Y REGISTRO SISMICO  A.C.

    Anaxagoras 814, Col. Narvarte, Benito Juarez, C.P. 03020 Mexico, D.F.
           Tels. 5687 45 42/ 5687 45  82             Fax. 5669 25 12
********************************************************************************
ARCHIVO ESTANDAR DE ACELERACION:
VERSION DEL FORMATO                    : 2.0
NOMBRE DEL ARCHIVO                     : BA4920120413101003
FECHA Y HORA DE CREACION               : 15/MAY/12, 09:55
REF. CATALOGO ACELEROGRAMAS, SMIS 1996 : REGISTRO No.     /PAG.


================================================================================
DATOS DE LA ESTACION:
NOMBRE DE LA ESTACION                  : BUENOS AIRES
CLAVE DE LA ESTACION                   : BA49
LOCALIZACION DE LA ESTACION            : Del. Cuauhtémoc, Col. Doctores,        
                                       : Av. Lázaro Cárdenas esq. con           
                                       : Calle Dr. Márquez.                     
                                       :                                        
                                       : 
COORDENADAS DE LA ESTACION             : 19.4097 LAT. N
                                       : 99.1450 LONG. W
ALTITUD (msnm)                         : 2233
TIPO DE SUELO                          : Terreno blando, material compresible
                                       : (arcillas)                
                                       : 
INSTITUCION RESPONSABLE                : CIRES
                                       : 

================================================================================
DATOS DEL ACELEROGRAFO:
MODELO DEL ACELEROGRAFO                : RADESD
NUMERO DE SERIE DEL ACELEROGRAFO       : 176
NUMERO DE CANALES                      : 3
ORIENTACION C1-C6 (rumbo;orientacion)  : /N00E/+V/N90W
ORIENTACION C7-C12 (rumbo;orientacion) : 
VEL. DE MUESTREO, C1-C6 (muestras/s)   : /100/100/100
VEL. DE MUESTREO, C7-C12 (muestras/s)  : 
ESC. COMPLETA DE SENSORES, C1-C6, (g)  : /0.5/0.5/0.5
ESC. COMPLETA DE SENSORES, C7-C12, (g) : 
FREC. NAT. DE SENSORES, C1-C6, (Hz)    : /52.99/52.03/52.99
FREC. NAT. DE SENSORES, C7-C12, (Hz)   : 
AMORTIGUAMIENTO DE SENSORES, C1-C6     : /0.5589/0.5469/0.6096
AMORTIGUAMIENTO DE SENSORES, C7-C12    : 
INTERVALO DE MUESTREO, C1-C6, (s)      : /0.01/0.01/0.01
INTERVALO DE MUESTREO, C7-C12, (s)     : 
UMBRAL DE DISPARO, C1-C6, (Gal)        : /0.96/1.92/0.96
UMBRAL DE DISPARO, C7-C12, (Gal)       : 
MEMORIA DE PREEVENTO (s)               : 56.0
TIEMPO DE POSEVENTO (s)                : 64.0


================================================================================
DATOS DEL SISMO:
FECHA DEL SISMO (GMT)                  : 13/ABR/12
HORA EPICENTRO (GMT)                   : 10:10:03.0
MAGNITUD(ES)                           : /Mc=5.2
COORDENADAS DEL EPICENTRO              : 16.11 LAT. N
                                       : 98.34 LONG. W
PROFUNDIDAD FOCAL (km)                 : 14
FUENTE DE LOS DATOS EPICENTRALES       : SSN
                                       : INSTITUTO DE GEOFISICA, UNAM

================================================================================
DATOS DE ESTE REGISTRO:
HORA DE LA PRIMERA MUESTRA (GMT)       : 10:11:50.00
EXACTITUD DEL TIEMPO (s)               : 0.01
DURACION DEL REGISTRO (s), C1-C6       : /238.0/238.0/238.0
DURACION DEL REGISTRO (s), C7-C12      : 
NUM. TOTAL DE MUESTRAS, C1-C6          : /23800/23800/23800
NUM. TOTAL DE MUESTRAS, C7-C12         : 
ACEL. MAX. (Gal), C1-C6                : /2.89224/1.13273/1.93237
ACEL. MAX., C1-C6, EN LA MUESTRA       : /7170/7740/8340
ACEL. MAX. (Gal), C7-C12               : 
ACEL. MAX., C7-C12, EN LA MUESTRA      : 
UNIDADES DE LOS DATOS                  : Gal (cm/s/s)
FACTOR DE DECIMACION                   : 1
FORMATO DATOS (FORTRAN,10 campos/dato) : 3F10.5


================================================================================
CALIDAD DEL ACELEROGRAMA:
REGISTRO DIGITAL COMPLETO CON TIEMPO ABSOLUTO CORRECTO.


================================================================================
COMENTARIOS:














================================================================================
DATOS DE ACELERACION:
---------+---------+---------+---------+---------+---------+---------+---------+
   CANAL-1   CANAL-2   CANAL-3   CANAL-4   CANAL-5   CANAL-6   CANAL-7   CANAL-8
      N00E        +V      N90W
---------+---------+---------+---------+---------+---------+---------+---------+
[...]
   0.25861  -0.06437  -0.01701
   0.25861  -0.06437  -0.01701
   0.25861  -0.06437   0.22241
   0.25861  -0.30379   0.22241
   0.25861  -0.06437   0.22241
   0.25861  -0.30379   0.22241
   0.25861  -0.30379   0.22241
   0.01919  -0.06437   0.46183
   0.01919  -0.54321   0.22241
   0.01919  -0.06437   0.22241
   0.01919  -0.30379   0.46183
   0.01919  -0.54321   0.22241
   0.01919  -0.30379   0.46183
   0.01919  -0.54321   0.46183
  -0.22023  -0.30379   0.46183
   0.01919  -0.30379   0.46183
  -0.22023  -0.54321   0.46183
  -0.22023  -0.30379   0.46183
   0.01919  -0.54321   0.46183
  -0.22023  -0.54321   0.22241
  -0.22023  -0.54321   0.22241
  -0.22023  -0.54321   0.70125
  -0.22023  -0.54321   0.22241
  -0.22023  -0.54321   0.46183
  -0.22023  -0.54321   0.46183
  -0.45965  -0.54321   0.22241
  -0.22023  -0.54321   0.46183
  -0.22023  -0.54321   0.46183
  -0.22023  -0.54321   0.46183
  -0.22023  -0.54321   0.46183
  -0.45965  -0.30379   0.46183
  -0.45965  -0.54321   0.46183
  -0.69907  -0.30379   0.46183
  -0.22023  -0.54321   0.46183
  -0.45965  -0.30379   0.46183
  -0.45965  -0.30379   0.46183
  -0.45965  -0.30379   0.46183
  -0.45965  -0.30379   0.70125
  -0.45965  -0.30379   0.46183
  -0.45965  -0.30379   0.46183
  -0.45965  -0.30379   0.46183
  -0.45965  -0.06437   0.70125
  -0.45965  -0.06437   0.46183
  -0.45965  -0.06437   0.70125
  -0.45965  -0.06437   0.46183
  -0.22023   0.17505   0.46183
  -0.22023  -0.06437   0.46183
  -0.22023   0.17505   0.46183
  -0.22023  -0.06437   0.70125
  -0.22023   0.17505   0.46183
   0.01919  -0.06437   0.70125
   0.01919  -0.06437   0.46183
   0.01919  -0.06437   0.46183
   0.25861  -0.06437   0.70125
   0.01919   0.17505   0.70125
   0.25861   0.17505   0.70125
   0.25861   0.17505   0.46183
   0.25861   0.17505   0.46183
   0.25861   0.17505   0.46183
   0.49803   0.17505   0.46183
   0.25861   0.17505   0.46183
   0.25861   0.41447   0.46183
   0.25861   0.41447   0.46183
   0.01919   0.41447   0.22241
   0.25861   0.41447   0.46183
   0.25861   0.41447   0.46183
   0.25861   0.41447   0.46183
   0.25861   0.41447   0.46183
   0.25861   0.41447   0.46183
   0.25861   0.41447   0.22241
   0.25861   0.65389   0.46183
   0.01919   0.41447   0.22241
   0.01919   0.65389   0.46183
   0.01919   0.41447   0.46183
   0.01919   0.17505   0.46183
   0.01919   0.41447   0.22241
   0.01919   0.17505   0.46183
   0.01919   0.17505   0.46183
  -0.22023   0.17505   0.22241
  -0.22023  -0.06437   0.22241
   0.01919  -0.06437   0.22241
   0.01919   0.17505   0.22241
  -0.22023   0.17505   0.22241
  -0.22023  -0.06437  -0.01701
  -0.22023  -0.06437   0.22241
  -0.22023  -0.30379  -0.01701
  -0.22023  -0.30379  -0.01701
  -0.22023  -0.06437  -0.01701
  -0.22023  -0.06437  -0.01701
  -0.22023  -0.30379  -0.01701
  -0.22023  -0.30379  -0.01701
  -0.22023  -0.30379  -0.01701
  -0.22023  -0.30379  -0.01701
  -0.22023  -0.54321  -0.01701
  -0.22023  -0.30379  -0.01701
   0.01919  -0.54321  -0.01701
  -0.22023  -0.54321   0.22241
   0.01919  -0.54321   0.22241
   0.01919  -0.54321   0.22241
  -0.22023  -0.30379  -0.01701
   0.01919  -0.30379  -0.01701
   0.01919  -0.54321   0.22241
   0.01919  -0.54321   0.46183
   0.01919  -0.54321   0.46183
   0.01919  -0.54321   0.46183
   0.01919  -0.54321   0.46183
   0.01919  -0.54321   0.46183
   0.01919  -0.30379   0.70125
  -0.22023  -0.30379   0.70125
  -0.22023  -0.06437   0.94067
   0.01919  -0.30379   0.94067
  -0.22023  -0.06437   0.94067
  -0.22023  -0.06437   0.70125
  -0.22023  -0.06437   0.70125
  -0.22023   0.17505   0.94067
  -0.22023   0.17505   0.94067
  -0.22023  -0.06437   0.94067
  -0.22023  -0.06437   0.94067
  -0.45965   0.17505   0.70125
  -0.22023   0.17505   0.94067
  -0.22023   0.17505   0.94067
  -0.22023   0.17505   0.94067
  -0.22023   0.17505   0.94067
  -0.22023   0.41447   0.70125
  -0.22023   0.41447   0.70125
  -0.22023   0.41447   0.94067
  -0.22023   0.17505   0.70125
   0.01919   0.41447   0.70125
  -0.22023   0.41447   0.70125
   0.01919   0.41447   0.70125
  -0.22023   0.41447   0.46183
   0.01919   0.41447   0.46183
   0.01919   0.65389   0.22241
   0.01919   0.65389   0.22241
   0.01919   0.65389   0.22241
   0.01919   0.41447   0.22241
   0.25861   0.41447   0.22241
   0.01919   0.41447  -0.01701
   0.25861   0.41447   0.22241
   0.25861   0.65389  -0.01701
   0.01919   0.41447  -0.01701
   0.25861   0.65389  -0.01701
   0.25861   0.41447  -0.25643
   0.25861   0.65389  -0.01701
   0.25861   0.65389  -0.25643
   0.25861   0.41447  -0.25643
   0.49803   0.41447  -0.25643
   0.49803   0.41447  -0.49585
   0.49803   0.41447  -0.25643
   0.49803   0.17505  -0.49585
   0.73745   0.41447  -0.49585
   0.73745   0.41447  -0.49585
   0.73745   0.41447  -0.73527
   0.97687   0.17505  -0.73527
   0.97687   0.17505  -0.97469
   0.97687   0.17505  -0.73527
   1.21629  -0.06437  -0.73527
   1.21629  -0.06437  -0.73527
   1.21629   0.17505  -0.97469
   1.21629   0.17505  -0.97469
   1.45571  -0.30379  -0.97469
   1.21629  -0.30379  -1.21411
   1.45571  -0.30379  -0.97469
   1.45571  -0.30379  -0.97469
   1.45571  -0.30379  -0.97469
   1.45571  -0.30379  -1.21411
   1.45571  -0.30379  -1.21411
   1.69514  -0.30379  -1.21411
   1.69514  -0.30379  -1.21411
   1.69514  -0.30379  -1.21411
   1.45571  -0.30379  -1.45353
   1.45571  -0.54321  -1.21411
   1.45571  -0.54321  -1.21411
   1.21629  -0.30379  -1.21411
   1.21629  -0.54321  -1.21411
   0.97687  -0.30379  -1.45353
   0.97687  -0.06437  -1.21411
   0.97687  -0.30379  -1.21411
   0.73745  -0.06437  -1.21411
   0.73745  -0.06437  -1.21411
   0.49803  -0.06437  -1.21411
   0.25861   0.17505  -1.21411
   0.25861  -0.06437  -1.21411
   0.25861   0.17505  -1.21411
   0.01919   0.17505  -1.21411
  -0.22023   0.17505  -1.21411
  -0.22023   0.17505  -1.21411
  -0.22023   0.17505  -1.21411
  -0.45965   0.17505  -1.21411
  -0.45965   0.17505  -1.21411
  -0.45965  -0.06437  -1.21411
  -0.45965   0.17505  -1.21411
  -0.45965   0.17505  -1.21411
  -0.69907   0.17505  -1.21411
  -0.69907  -0.06437  -1.21411
  -0.69907  -0.06437  -0.97469
  -0.69907   0.17505  -1.21411
  -0.93849   0.17505  -1.21411
  -0.93849  -0.06437  -0.97469
  -0.93849  -0.06437  -0.97469
  -0.93849  -0.06437  -1.21411
  -1.17791   0.17505  -0.97469
  -1.17791  -0.06437  -0.97469
  -1.41733  -0.06437  -0.97469
  -1.41733  -0.06437  -0.97469
  -1.17791  -0.06437  -0.97469
  -1.41733   0.17505  -0.97469
  -1.41733   0.17505  -0.73527
  -1.65675  -0.06437  -0.73527
  -1.65675  -0.06437  -0.73527
  -1.65675   0.17505  -0.73527
  -1.65675   0.17505  -0.49585
  -1.65675  -0.06437  -0.49585
  -1.65675  -0.06437  -0.49585
  -1.65675  -0.06437  -0.49585
  -1.65675  -0.06437  -0.25643
  -1.89617   0.17505  -0.25643
  -1.65675  -0.06437  -0.49585
  -1.65675  -0.06437  -0.49585
  -1.89617   0.17505  -0.25643
  -1.65675  -0.06437  -0.01701
  -1.65675   0.17505  -0.01701
  -1.65675  -0.06437  -0.01701
  -1.65675  -0.06437  -0.01701
  -1.41733  -0.30379  -0.25643
  -1.65675  -0.06437  -0.01701
  -1.41733  -0.06437  -0.01701
  -1.17791  -0.06437  -0.01701
  -1.17791  -0.06437   0.22241
  -1.17791  -0.06437   0.22241
  -0.93849  -0.30379   0.22241
  -0.93849  -0.30379   0.22241
  -0.93849  -0.06437  -0.01701
  -0.93849  -0.06437  -0.01701
  -0.69907  -0.30379  -0.01701
  -0.45965  -0.06437   0.22241
  -0.45965  -0.06437   0.22241
  -0.45965  -0.06437  -0.01701
  -0.45965  -0.06437  -0.01701
  -0.22023  -0.30379   0.22241
  -0.22023  -0.06437  -0.01701
  -0.22023  -0.30379  -0.01701
  -0.22023  -0.06437   0.22241
  -0.22023  -0.06437   0.22241
   0.01919  -0.06437   0.22241
   0.01919  -0.06437  -0.01701
   0.25861   0.17505   0.22241
   0.01919  -0.06437  -0.01701
   0.01919  -0.06437  -0.01701
   0.01919  -0.06437  -0.01701
   0.01919  -0.06437  -0.01701
   0.01919  -0.06437  -0.25643
   0.01919  -0.06437  -0.01701
   0.01919  -0.06437  -0.01701
   0.01919  -0.06437  -0.25643
   0.25861  -0.06437  -0.25643
   0.25861  -0.06437  -0.25643
   0.25861  -0.06437  -0.25643
   0.25861  -0.06437  -0.25643
   0.25861  -0.06437  -0.25643
   0.25861  -0.30379  -0.25643
   0.25861  -0.30379  -0.25643
   0.49803  -0.06437  -0.25643
   0.49803  -0.30379  -0.01701
   0.49803  -0.06437  -0.01701
   0.49803  -0.30379  -0.01701
   0.49803  -0.30379  -0.01701
   0.73745  -0.30379  -0.01701
   0.49803  -0.54321  -0.01701
   0.73745  -0.54321  -0.01701
   0.73745  -0.30379   0.22241
   0.49803  -0.54321   0.22241
   0.49803  -0.30379   0.22241
   0.49803  -0.30379   0.22241
   0.49803  -0.30379   0.22241
   0.49803  -0.30379   0.22241
   0.49803  -0.30379   0.46183
   0.49803  -0.30379   0.46183
   0.49803  -0.30379   0.70125
   0.49803  -0.30379   0.70125
   0.25861  -0.30379   0.46183
   0.25861  -0.30379   0.70125
   0.25861  -0.06437   0.70125
   0.25861  -0.06437   0.46183
   0.01919  -0.06437   0.94067
   0.01919  -0.06437   0.94067
   0.01919  -0.06437   0.94067
  -0.22023   0.17505   0.94067
  -0.22023   0.41447   1.18009
  -0.45965   0.17505   0.94067
  -0.45965   0.41447   1.18009
  -0.45965   0.17505   1.18009
  -0.45965   0.41447   1.18009
  -0.69907   0.17505   1.18009
  -0.69907   0.41447   1.41951
  -0.93849   0.17505   1.41951
  -0.93849   0.41447   1.41951
  -0.93849   0.17505   1.65893
  -1.17791   0.41447   1.65893
  -1.17791   0.65389   1.41951
  -1.17791   0.17505   1.65893
  -1.17791   0.41447   1.65893
  -1.17791   0.41447   1.65893
  -1.17791   0.41447   1.65893
  -1.17791   0.41447   1.89835
  -1.17791   0.41447   1.89835
  -1.17791   0.41447   1.89835
  -0.93849   0.41447   1.65893
  -0.93849   0.17505   1.89835
  -0.69907   0.17505   1.65893
  -0.69907   0.17505   1.65893
  -0.69907  -0.06437   1.65893
  -0.93849  -0.06437   1.65893
  -0.45965  -0.06437   1.65893
  -0.45965  -0.30379   1.65893
  -0.22023  -0.06437   1.89835
  -0.22023  -0.30379   1.65893
  -0.22023  -0.30379   1.65893
  -0.22023  -0.30379   1.65893
   0.01919  -0.54321   1.65893
   0.01919  -0.30379   1.41951
   0.01919  -0.30379   1.41951
   0.25861  -0.30379   1.65893
   0.25861  -0.54321   1.41951
   0.49803  -0.30379   1.41951
   0.49803  -0.30379   1.41951
   0.73745  -0.54321   1.41951
   0.73745  -0.54321   1.18009
   0.97687  -0.54321   1.18009
   1.21629  -0.30379   1.18009
   1.21629  -0.06437   1.18009
   1.45571  -0.06437   0.94067
   1.45571  -0.30379   0.94067
   1.69514  -0.30379   0.70125
   1.93456  -0.30379   0.70125
   1.93456  -0.30379   0.70125
   1.93456  -0.06437   0.70125
   1.93456  -0.06437   0.46183
   2.17398  -0.06437   0.22241
   2.41340  -0.06437   0.46183
   2.41340   0.17505   0.22241
   2.41340  -0.06437   0.22241
   2.41340   0.17505   0.22241
   2.65282   0.17505   0.22241
   2.65282   0.17505   0.22241
   2.65282   0.41447  -0.01701
   2.89224   0.41447  -0.01701
   2.89224   0.41447  -0.01701
   2.89224   0.41447  -0.01701
   2.89224   0.17505  -0.25643
   2.65282   0.17505  -0.25643
   2.89224   0.41447  -0.25643
   2.65282   0.41447  -0.25643
   2.65282   0.41447  -0.25643
   2.41340   0.41447  -0.49585
   2.41340   0.41447  -0.25643
   2.41340   0.41447  -0.49585
   2.17398   0.65389  -0.49585
   2.17398   0.41447  -0.49585
   1.93456   0.65389  -0.49585
   1.93456   0.65389  -0.49585
   1.93456   0.65389  -0.49585
   1.69514   0.65389  -0.49585
   1.45571   0.65389  -0.73527
   1.45571   0.89331  -0.73527
   1.21629   0.65389  -0.97469
   0.97687   0.65389  -0.73527
   0.97687   0.65389  -0.73527
   0.97687   0.65389  -0.73527
   0.97687   0.41447  -0.49585
   0.49803   0.41447  -0.73527
   0.73745   0.41447  -0.73527
   0.49803   0.41447  -0.73527
   0.49803   0.41447  -0.49585
   0.49803   0.41447  -0.49585
   0.25861   0.41447  -0.49585
   0.25861   0.41447  -0.49585
   0.25861   0.17505  -0.73527
   0.25861   0.41447  -0.49585
   0.01919   0.17505  -0.49585
   0.01919   0.17505  -0.25643
   0.01919  -0.06437  -0.25643
  -0.22023   0.17505  -0.25643
  -0.22023  -0.06437  -0.25643
  -0.22023  -0.06437  -0.25643
  -0.22023   0.17505  -0.25643
  -0.22023  -0.06437  -0.25643
  -0.22023  -0.06437  -0.25643
  -0.45965  -0.06437  -0.25643
  -0.45965  -0.06437  -0.25643
  -0.69907  -0.06437  -0.25643
  -0.45965  -0.06437  -0.25643
  -0.45965  -0.30379  -0.25643
  -0.69907   0.17505  -0.25643
  -0.69907  -0.30379  -0.01701
  -0.69907  -0.06437  -0.25643
  -0.69907  -0.30379  -0.25643
  -0.93849  -0.06437  -0.25643
  -0.93849  -0.06437  -0.25643
  -0.93849  -0.06437  -0.25643
  -0.93849  -0.30379  -0.25643
  -0.93849  -0.06437  -0.49585
  -0.93849  -0.30379  -0.49585
  -1.17791  -0.06437  -0.49585
  -1.17791  -0.06437  -0.49585
  -1.41733  -0.30379  -0.49585
  -1.17791  -0.30379  -0.73527
  -1.41733  -0.30379  -0.49585
  -1.17791  -0.30379  -0.49585
  -1.41733  -0.30379  -0.49585
  -1.41733  -0.54321  -0.73527
  -1.41733  -0.30379  -0.49585
  -1.41733  -0.54321  -0.73527
  -1.65675  -0.54321  -0.73527
  -1.65675  -0.54321  -0.73527
  -1.41733  -0.30379  -0.73527
  -1.65675  -0.54321  -0.73527
  -1.41733  -0.54321  -0.73527
  -1.65675  -0.54321  -0.97469
  -1.41733  -0.30379  -0.73527
  -1.41733  -0.78263  -0.97469
  -1.41733  -0.54321  -0.97469
  -1.17791  -0.54321  -0.97469
  -1.41733  -0.54321  -1.21411
  -1.17791  -0.54321  -0.97469
  -1.17791  -0.78263  -1.45353
  -0.93849  -0.54321  -1.21411
  -0.93849  -0.54321  -1.21411
  -0.93849  -0.78263  -1.45353
  -0.93849  -0.54321  -1.21411
  -0.69907  -0.54321  -1.21411
  -0.69907  -0.54321  -1.21411
  -0.69907  -0.54321  -1.45353
  -0.69907  -0.54321  -1.45353
  -0.69907  -0.78263  -1.45353
  -0.45965  -0.54321  -1.45353
  -0.69907  -0.54321  -1.69295
  -0.45965  -0.54321  -1.45353
  -0.45965  -0.54321  -1.45353
  -0.45965  -0.54321  -1.69295
  -0.45965  -0.78263  -1.69295
  -0.69907  -0.54321  -1.45353
  -0.45965  -0.54321  -1.45353
  -0.45965  -0.54321  -1.45353
  -0.45965  -0.30379  -1.45353
  -0.45965  -0.54321  -1.69295
  -0.45965  -0.06437  -1.45353
  -0.69907  -0.30379  -1.69295
  -0.45965  -0.06437  -1.45353
  -0.69907  -0.06437  -1.45353
  -0.69907  -0.06437  -1.45353
  -0.45965   0.17505  -1.45353
  -0.45965   0.41447  -1.45353
  -0.45965   0.17505  -1.21411
  -0.45965   0.41447  -1.21411
  -0.45965   0.41447  -1.21411
  -0.45965   0.41447  -1.21411
  -0.45965   0.41447  -0.97469
  -0.45965   0.41447  -1.21411
  -0.45965   0.41447  -0.97469
  -0.45965   0.65389  -0.97469
  -0.45965   0.41447  -0.97469
  -0.69907   0.41447  -0.73527
  -0.45965   0.41447  -0.49585
  -0.93849   0.41447  -0.49585
  -0.69907   0.41447  -0.73527
  -0.93849   0.41447  -0.49585
  -0.93849   0.41447  -0.49585
  -0.93849   0.41447  -0.49585
  -0.93849   0.17505  -0.25643
  -0.93849   0.41447  -0.25643
  -1.41733   0.41447  -0.25643
  -1.17791   0.41447  -0.25643
  -1.41733   0.17505  -0.25643
  -1.41733   0.41447  -0.01701
  -1.65675   0.41447  -0.25643
  -1.65675   0.65389  -0.25643
  -1.65675   0.41447  -0.01701
  -1.89617   0.65389  -0.01701
  -1.89617   0.41447  -0.25643
  -1.89617   0.41447  -0.01701
  -1.65675   0.41447  -0.01701
  -1.65675   0.41447  -0.01701
  -1.65675   0.41447   0.22241
  -1.89617   0.17505   0.22241
  -1.89617   0.17505  -0.01701
  -1.65675   0.17505  -0.01701
  -1.65675  -0.06437  -0.01701
  -1.41733   0.17505  -0.01701
  -1.41733  -0.06437   0.22241
  -1.41733  -0.06437   0.22241
  -1.41733  -0.06437   0.22241
  -1.17791  -0.06437   0.22241
  -1.17791  -0.06437   0.22241
  -1.17791  -0.06437   0.22241
  -0.93849  -0.30379   0.22241
