********************************************************************************
              CENTRO DE INSTRUMENTACION Y REGISTRO SISMICO  A.C.                

    Anaxagoras 814, Col. Narvarte, Benito Juarez, C.P. 03020 Mexico, D.F.       
           Tels. 5687 45 42/ 5687 45  82             Fax. 5669 25 12            
********************************************************************************
ARCHIVO ESTANDAR DE ACELERACION:
VERSION DEL FORMATO                    : 2.0
NOMBRE DEL ARCHIVO                     : BA4920080428000629
FECHA Y HORA DE CREACION               : 15/MAY/08, 11:06
REF. CATALOGO ACELEROGRAMAS, SMIS 1996 : REGISTRO No.     /PAG.


================================================================================
DATOS DE LA ESTACION:
NOMBRE DE LA ESTACION                  : BUENOS AIRES
CLAVE DE LA ESTACION                   : BA49
LOCALIZACION DE LA ESTACION            : Del. Cuauhtémoc, Col. Doctores,        
                                       : Av. Lázaro Cárdenas esq. con           
                                       : Calle Dr. Márquez.                     
                                       :                                        
                                       : 
COORDENADAS DE LA ESTACION             : 19.4097 LAT. N
                                       : 99.1450 LONG. W
ALTITUD (msnm)                         : 2233
TIPO DE SUELO                          : Terreno blando, material compresible
                                       : (arcillas)                
                                       : 
INSTITUCION RESPONSABLE                : CIRES


================================================================================
DATOS DEL ACELEROGRAFO:
MODELO DEL ACELEROGRAFO                : SSA-1
NUMERO DE SERIE DEL ACELEROGRAFO       : 176
NUMERO DE CANALES                      : 3
ORIENTACION C1-C6 (rumbo;orientacion)  : /N00E/+V/N90W
ORIENTACION C7-C12 (rumbo;orientacion) : 
VEL. DE MUESTREO, C1-C6 (muestras/s)   : /200/200/200
VEL. DE MUESTREO, C7-C12 (muestras/s)  : 
ESC. COMPLETA DE SENSORES, C1-C6, (g)  : /2.0/2.0/2.0
ESC. COMPLETA DE SENSORES, C7-C12, (g) : 
FREC. NAT. DE SENSORES, C1-C6, (Hz)    : /52.99/52.03/52.99
FREC. NAT. DE SENSORES, C7-C12, (Hz)   : 
AMORTIGUAMIENTO DE SENSORES, C1-C6     : /0.5589/0.5469/0.6096
AMORTIGUAMIENTO DE SENSORES, C7-C12    : 
INTERVALO DE MUESTREO, C1-C6, (s)      : /0.005/0.005/0.005
INTERVALO DE MUESTREO, C7-C12, (s)     : 
UMBRAL DE DISPARO, C1-C6, (Gal)        : /1.5/2.0/1.0
UMBRAL DE DISPARO, C7-C12, (Gal)       : 
MEMORIA DE PREEVENTO (s)               : 15.36
TIEMPO DE POSEVENTO (s)                : 60.0


================================================================================
DATOS DEL SISMO:
FECHA DEL SISMO (GMT)                  : 28/ABR/08
HORA EPICENTRO (GMT)                   : 00:06:29.0
MAGNITUD(ES)                           : /Mc=5.6
COORDENADAS DEL EPICENTRO              : 18.05 LAT. N
                                       : -100.01 LONG. W
PROFUNDIDAD FOCAL (km)                 : 52
FUENTE DE LOS DATOS EPICENTRALES       : SSN
                                       : INSTITUTO DE GEOFISICA, UNAM

================================================================================
DATOS DE ESTE REGISTRO:
HORA DE LA PRIMERA MUESTRA (GMT)       : 0:07:15.69
EXACTITUD DEL TIEMPO (s)               : 0.005
DURACION DEL REGISTRO (s), C1-C6       : /188.16/188.16/188.16
DURACION DEL REGISTRO (s), C7-C12      : 
NUM. TOTAL DE MUESTRAS, C1-C6          : /37632/37632/37632
NUM. TOTAL DE MUESTRAS, C7-C12         : 
ACEL. MAX. (Gal), C1-C6                : /6.08176/2.95771/5.55902
ACEL. MAX., C1-C6, EN LA MUESTRA       : /8911/2742/5750
ACEL. MAX. (Gal), C7-C12               : 
ACEL. MAX., C7-C12, EN LA MUESTRA      : 
UNIDADES DE LOS DATOS                  : Gal (cm/s/s)
FACTOR DE DECIMACION                   : 1
FORMATO DATOS (FORTRAN,10 campos/dato) : 3F10.5


================================================================================
CALIDAD DEL ACELEROGRAMA:
REGISTRO DIGITAL COMPLETO CON TIEMPO ABSOLUTO CORRECTO.


================================================================================
COMENTARIOS:














================================================================================
DATOS DE ACELERACION:
---------+---------+---------+---------+---------+---------+---------+---------+
   CANAL-1   CANAL-2   CANAL-3   CANAL-4   CANAL-5   CANAL-6   CANAL-7   CANAL-8
      N00E        +V      N90W
---------+---------+---------+---------+---------+---------+---------+---------+
[...]
  -0.86143   1.52119   0.29177
  -0.86143   1.52119   0.29177
  -1.10085   1.52119   0.29177
  -1.34027   1.52119   0.29177
  -1.34027   1.52119   0.29177
  -1.57969   1.28177   0.29177
  -1.57969   1.28177   0.05235
  -1.57969   1.52119   0.29177
  -1.81911   1.28177   0.29177
  -2.05853   1.28177   0.29177
  -2.05853   1.28177   0.29177
  -2.29795   1.28177   0.05235
  -2.29795   1.52119   0.05235
  -2.53737   1.28177   0.29177
  -2.53737   1.28177   0.05235
  -2.77679   1.52119   0.29177
  -2.77679   1.52119   0.29177
  -3.01621   1.28177   0.53119
  -3.01621   1.52119   0.29177
  -3.01621   1.52119   0.29177
  -3.01621   1.52119   0.05235
  -3.01621   1.52119   0.05235
  -2.77679   1.52119   0.05235
  -2.77679   1.52119   0.29177
  -2.77679   1.28177   0.29177
  -2.77679   1.28177   0.29177
  -2.77679   1.04235   0.29177
  -2.77679   1.04235   0.29177
  -3.01621   1.04235   0.05235
  -3.01621   0.80293   0.05235
  -3.01621   0.80293   0.05235
  -3.01621   0.80293  -0.18707
  -2.77679   0.80293  -0.18707
  -2.77679   0.56351  -0.18707
  -2.77679   0.56351  -0.18707
  -2.77679   0.32409  -0.18707
  -2.53737   0.32409  -0.42649
  -2.53737   0.08467  -0.42649
  -2.29795   0.08467  -0.42649
  -2.29795   0.08467  -0.42649
  -2.05853  -0.15475  -0.42649
  -2.05853  -0.15475  -0.66591
  -2.05853  -0.15475  -0.66591
  -2.05853  -0.15475  -0.66591
  -2.05853  -0.15475  -0.42649
  -2.05853  -0.15475  -0.42649
  -2.05853  -0.15475  -0.42649
  -2.05853  -0.39417  -0.66591
  -2.05853  -0.39417  -0.42649
  -2.05853  -0.39417  -0.42649
  -2.05853  -0.63359  -0.66591
  -2.29795  -0.63359  -0.42649
  -2.29795  -0.63359  -0.66591
  -2.29795  -0.87301  -0.66591
  -2.29795  -0.87301  -0.42649
  -2.53737  -0.87301  -0.42649
  -2.53737  -1.11243  -0.42649
  -2.77679  -1.11243  -0.18707
  -2.77679  -1.11243  -0.18707
  -3.01621  -1.11243  -0.18707
  -3.25563  -1.11243  -0.18707
  -3.25563  -1.35185  -0.18707
  -3.25563  -1.35185  -0.18707
  -3.49505  -1.35185  -0.18707
  -3.49505  -1.35185   0.05235
  -3.73447  -1.35185   0.05235
  -3.73447  -1.35185   0.05235
  -3.97389  -1.35185   0.05235
  -4.21331  -1.35185   0.05235
  -4.21331  -1.35185   0.29177
  -4.45273  -1.35185   0.05235
  -4.45273  -1.35185   0.29177
  -4.69215  -1.35185   0.29177
  -4.69215  -1.35185   0.29177
  -4.93157  -1.35185   0.29177
  -4.93157  -1.35185   0.53119
  -4.93157  -1.35185   0.53119
  -4.93157  -1.35185   0.53119
  -5.17099  -1.35185   0.53119
  -5.17099  -1.35185   0.53119
  -4.93157  -1.35185   0.53119
  -5.17099  -1.35185   0.77061
  -4.93157  -1.35185   0.77061
  -5.17099  -1.35185   0.77061
  -5.17099  -1.35185   0.77061
  -4.93157  -1.35185   0.77061
  -5.17099  -1.35185   1.01003
  -5.17099  -1.35185   1.01003
  -4.93157  -1.35185   1.01003
  -4.93157  -1.35185   1.01003
  -4.93157  -1.35185   1.01003
  -4.93157  -1.35185   1.01003
  -4.93157  -1.35185   1.01003
  -4.69215  -1.35185   1.01003
  -4.45273  -1.35185   1.24945
  -4.45273  -1.35185   1.24945
  -4.45273  -1.35185   1.24945
  -4.21331  -1.35185   1.24945
  -4.21331  -1.35185   1.24945
  -4.21331  -1.59127   1.24945
  -3.97389  -1.59127   1.48888
  -3.97389  -1.83069   1.24945
  -3.73447  -1.83069   1.24945
  -3.73447  -1.83069   1.24945
  -3.49505  -2.07011   1.24945
  -3.49505  -2.07011   1.48888
  -3.25563  -2.07011   1.48888
  -3.25563  -2.30953   1.48888
  -3.25563  -2.30953   1.48888
  -3.01621  -2.30953   1.72830
  -3.01621  -2.30953   1.48888
  -2.77679  -2.30953   1.72830
  -2.77679  -2.54895   1.72830
  -2.77679  -2.30953   1.72830
  -2.77679  -2.30953   1.72830
  -2.77679  -2.30953   1.96772
  -2.53737  -2.07011   1.72830
  -2.53737  -2.07011   2.20714
  -2.53737  -2.07011   2.20714
  -2.29795  -1.83069   2.20714
  -2.29795  -1.83069   2.20714
  -2.29795  -1.59127   2.20714
  -2.29795  -1.59127   2.44656
  -2.29795  -1.35185   2.44656
  -2.29795  -1.11243   2.68598
  -2.53737  -1.11243   2.68598
  -2.53737  -0.87301   2.68598
  -2.53737  -0.87301   2.68598
  -2.53737  -0.87301   2.92540
  -2.53737  -0.63359   2.92540
  -2.53737  -0.63359   2.92540
  -2.29795  -0.63359   2.92540
  -2.29795  -0.63359   2.92540
  -2.29795  -0.39417   3.16482
  -2.29795  -0.39417   2.92540
  -2.29795  -0.39417   3.16482
  -2.05853  -0.39417   3.16482
  -2.05853  -0.39417   3.16482
  -2.05853  -0.15475   3.16482
  -2.05853  -0.15475   3.16482
  -2.05853  -0.15475   3.16482
  -2.29795   0.08467   3.16482
  -2.05853   0.32409   2.92540
  -2.05853   0.32409   3.16482
  -2.05853   0.56351   2.92540
  -1.81911   0.56351   2.92540
  -1.81911   0.80293   2.92540
  -1.81911   1.04235   2.92540
  -1.57969   1.04235   2.92540
  -1.57969   1.04235   2.92540
  -1.34027   1.28177   2.92540
  -1.34027   1.28177   2.68598
  -1.34027   1.28177   2.68598
  -1.34027   1.28177   2.68598
  -1.34027   1.28177   2.68598
  -1.34027   1.52119   2.68598
  -1.34027   1.52119   2.68598
  -1.34027   1.52119   2.44656
  -1.34027   1.52119   2.44656
  -1.34027   1.52119   2.44656
  -1.10085   1.76061   2.44656
  -1.10085   1.76061   2.44656
  -1.10085   1.52119   2.44656
  -0.86143   1.52119   2.44656
  -0.86143   1.52119   2.44656
  -0.86143   1.28177   2.44656
  -0.86143   1.28177   2.44656
  -0.86143   1.04235   2.20714
  -0.86143   1.04235   2.20714
  -0.86143   1.04235   2.20714
  -0.86143   1.04235   2.20714
  -0.86143   1.04235   1.96772
  -0.86143   1.28177   1.96772
  -0.62201   1.28177   1.96772
  -0.62201   1.28177   1.96772
  -0.62201   1.28177   1.96772
  -0.62201   1.04235   1.96772
  -0.62201   1.04235   1.72830
  -0.86143   1.04235   1.72830
  -0.86143   1.28177   1.72830
  -0.86143   1.28177   1.72830
  -1.10085   1.04235   1.72830
  -1.10085   1.04235   1.72830
  -1.10085   1.04235   1.48888
  -1.10085   1.28177   1.48888
  -1.10085   1.28177   1.72830
  -1.10085   1.28177   1.48888
  -1.10085   1.52119   1.48888
  -1.10085   1.52119   1.72830
  -1.10085   1.52119   1.48888
  -1.10085   1.52119   1.48888
  -1.10085   1.52119   1.72830
  -1.10085   1.28177   1.48888
  -1.10085   1.28177   1.48888
  -1.10085   1.28177   1.48888
  -1.34027   1.28177   1.48888
  -1.34027   1.52119   1.72830
  -1.34027   1.52119   1.48888
  -1.57969   1.76061   1.48888
  -1.57969   2.00003   1.24945
  -1.57969   2.00003   1.24945
  -1.34027   2.00003   1.24945
  -1.57969   2.23945   1.48888
  -1.34027   2.00003   1.24945
  -1.34027   2.00003   1.48888
  -1.10085   1.76061   1.48888
  -1.10085   1.52119   1.24945
  -1.10085   1.52119   1.48888
  -1.10085   1.52119   1.24945
  -1.10085   1.52119   1.24945
  -1.10085   1.52119   1.01003
  -1.10085   1.52119   1.01003
  -0.86143   1.52119   1.01003
  -0.86143   1.52119   0.77061
  -0.86143   1.52119   0.77061
  -0.62201   1.52119   0.53119
  -0.62201   1.52119   0.53119
  -0.62201   1.52119   0.53119
  -0.38259   1.28177   0.53119
  -0.38259   1.28177   0.29177
  -0.38259   1.04235   0.29177
  -0.38259   1.04235   0.05235
  -0.38259   0.80293   0.29177
  -0.38259   1.04235   0.05235
  -0.38259   0.80293   0.05235
  -0.38259   0.80293  -0.18707
  -0.38259   0.80293   0.05235
  -0.38259   0.80293  -0.18707
  -0.38259   0.80293  -0.18707
  -0.14317   0.56351   0.05235
  -0.14317   0.56351   0.05235
  -0.38259   0.56351   0.05235
  -0.38259   0.32409   0.05235
  -0.38259   0.32409   0.05235
  -0.38259   0.32409   0.05235
  -0.62201   0.32409   0.29177
  -0.62201   0.08467   0.29177
  -0.62201   0.08467   0.29177
  -0.62201   0.08467   0.29177
  -0.62201   0.08467   0.29177
  -0.62201   0.08467   0.53119
  -0.62201   0.08467   0.53119
  -0.62201   0.08467   0.53119
  -0.62201   0.08467   0.77061
  -0.62201  -0.15475   0.77061
  -0.62201  -0.15475   0.77061
  -0.62201  -0.39417   1.01003
  -0.62201  -0.39417   1.01003
  -0.62201  -0.63359   1.01003
  -0.62201  -0.63359   1.01003
  -0.62201  -0.87301   1.01003
  -0.38259  -0.87301   0.77061
  -0.38259  -0.87301   1.01003
  -0.38259  -0.87301   0.77061
  -0.38259  -0.87301   0.77061
  -0.38259  -0.87301   0.77061
  -0.38259  -0.87301   0.53119
  -0.14317  -0.87301   0.77061
  -0.14317  -0.87301   0.53119
  -0.14317  -0.87301   0.53119
   0.09625  -0.87301   0.53119
   0.09625  -0.87301   0.29177
   0.33567  -0.87301   0.53119
   0.33567  -1.11243   0.29177
   0.57509  -1.11243   0.29177
   0.57509  -1.11243   0.29177
   0.57509  -1.35185   0.29177
   0.57509  -1.11243   0.05235
   0.81451  -1.35185   0.05235
   0.81451  -1.35185   0.05235
   1.05393  -1.35185  -0.18707
   1.05393  -1.35185  -0.18707
   1.05393  -1.59127  -0.18707
   1.29335  -1.59127  -0.18707
   1.53277  -1.59127  -0.66591
   1.53277  -1.35185  -0.42649
   1.53277  -1.35185  -0.66591
   1.77219  -1.35185  -0.90533
   1.77219  -1.35185  -0.66591
   1.77219  -1.35185  -0.90533
   1.77219  -1.11243  -0.90533
   1.77219  -1.11243  -1.14475
   2.01161  -1.11243  -1.14475
   2.01161  -0.87301  -1.14475
   2.25103  -0.87301  -1.38417
   2.25103  -0.87301  -1.62359
   2.49045  -0.87301  -1.38417
   2.72987  -0.87301  -1.62359
   2.72987  -0.87301  -1.62359
   2.72987  -0.87301  -1.62359
   2.72987  -0.87301  -1.86301
   2.72987  -0.87301  -1.86301
   2.96929  -0.87301  -2.10243
   2.72987  -0.87301  -2.10243
   2.96929  -0.87301  -1.86301
   2.96929  -0.87301  -2.10243
   2.96929  -0.87301  -2.10243
   2.96929  -0.87301  -2.10243
   2.96929  -0.63359  -2.10243
   2.96929  -0.63359  -2.10243
   2.96929  -0.63359  -2.10243
   3.20872  -0.39417  -2.10243
   3.20872  -0.39417  -2.10243
   2.96929  -0.39417  -2.10243
   2.96929  -0.39417  -2.10243
   2.96929  -0.63359  -1.86301
   2.96929  -0.39417  -1.86301
   2.96929  -0.39417  -1.86301
   2.96929  -0.39417  -1.62359
   3.20872  -0.39417  -1.62359
   2.96929  -0.15475  -1.86301
   3.20872  -0.15475  -1.86301
   3.20872   0.08467  -1.62359
   3.20872   0.08467  -1.62359
   3.20872   0.32409  -1.62359
   3.20872   0.32409  -1.62359
   3.44814   0.56351  -1.62359
   3.44814   0.56351  -1.38417
   3.44814   0.56351  -1.38417
   3.68756   0.56351  -1.38417
   3.68756   0.56351  -1.38417
   3.68756   0.56351  -1.62359
   3.68756   0.80293  -1.38417
   3.92698   0.80293  -1.62359
   3.92698   0.80293  -1.38417
   4.16640   1.04235  -1.38417
   4.16640   1.04235  -1.38417
   4.16640   1.04235  -1.38417
   4.40582   1.04235  -1.38417
   4.40582   1.04235  -1.38417
   4.64524   0.80293  -1.62359
   4.64524   0.80293  -1.62359
   4.88466   0.80293  -1.62359
   4.88466   0.80293  -1.62359
   5.12408   0.56351  -1.62359
   5.12408   0.56351  -1.62359
   5.12408   0.56351  -1.62359
   5.12408   0.56351  -1.86301
   5.12408   0.56351  -1.86301
   5.36350   0.32409  -1.86301
   5.36350   0.32409  -2.10243
   5.60292   0.32409  -2.10243
   5.60292   0.32409  -2.10243
   5.84234   0.32409  -2.34185
   5.84234   0.32409  -2.58127
   5.84234   0.32409  -2.58127
   6.08176   0.08467  -2.58127
   6.08176   0.08467  -2.58127
   6.08176   0.08467  -2.58127
   5.84234   0.08467  -2.82069
   6.08176   0.08467  -2.82069
   6.08176   0.08467  -3.06011
   6.08176   0.08467  -3.06011
   6.08176   0.08467  -3.06011
   6.08176   0.08467  -3.06011
   6.08176   0.08467  -3.29953
   6.08176   0.08467  -3.29953
   6.08176   0.08467  -3.29953
   6.08176   0.08467  -3.53895
   6.08176  -0.15475  -3.53895
   6.08176   0.08467  -3.53895
   5.84234  -0.15475  -3.53895
   5.84234  -0.15475  -3.77837
   5.84234   0.08467  -3.77837
   5.84234   0.08467  -3.77837
   5.84234   0.08467  -3.77837
   5.60292   0.32409  -3.77837
   5.60292   0.32409  -3.77837
   5.36350   0.56351  -3.53895
   5.36350   0.56351  -3.77837
   5.36350   0.56351  -3.77837
   5.12408   0.56351  -3.77837
   5.12408   0.80293  -3.77837
   5.12408   0.80293  -3.53895
   5.12408   0.80293  -3.53895
   5.12408   0.80293  -3.53895
   5.12408   0.80293  -3.53895
   4.88466   0.80293  -3.53895
   4.88466   0.80293  -3.53895
   4.88466   0.80293  -3.29953
   4.88466   1.04235  -3.29953
   4.64524   1.04235  -3.29953
   4.64524   1.04235  -3.06011
   4.64524   1.04235  -3.06011
   4.64524   1.04235  -3.06011
   4.64524   1.04235  -3.06011
   4.40582   1.04235  -2.82069
   4.64524   1.04235  -2.82069
   4.40582   0.80293  -2.58127
   4.40582   0.56351  -2.82069
   4.40582   0.56351  -2.58127
   4.40582   0.56351  -2.58127
   4.16640   0.32409  -2.58127
   4.16640   0.32409  -2.34185
   3.92698   0.32409  -2.34185
   3.92698   0.32409  -2.34185
   3.68756   0.08467  -2.34185
   3.68756   0.08467  -2.34185
   3.68756   0.08467  -2.34185
   3.44814   0.08467  -2.10243
   3.44814   0.08467  -2.10243
   3.20872   0.08467  -2.34185
   3.20872   0.08467  -2.10243
   2.96929   0.08467  -1.86301
   2.72987   0.08467  -2.10243
   2.72987   0.08467  -1.62359
   2.49045   0.08467  -1.86301
   2.49045   0.08467  -1.62359
   2.25103   0.08467  -1.86301
   2.01161   0.08467  -1.62359
   2.01161   0.08467  -1.62359
   1.77219   0.08467  -1.62359
   1.53277   0.08467  -1.62359
   1.29335  -0.15475  -1.62359
   1.29335  -0.15475  -1.62359
   1.05393  -0.15475  -1.38417
   0.81451  -0.39417  -1.38417
   0.81451  -0.39417  -1.38417
   0.57509  -0.39417  -1.14475
   0.33567  -0.39417  -1.14475
   0.09625  -0.39417  -1.14475
   0.09625  -0.39417  -0.90533
  -0.14317  -0.63359  -1.14475
  -0.14317  -0.63359  -0.90533
  -0.38259  -0.63359  -0.90533
  -0.38259  -0.63359  -0.90533
  -0.62201  -0.63359  -0.66591
  -0.62201  -0.87301  -0.66591
  -0.62201  -0.87301  -0.90533
  -0.86143  -0.87301  -0.66591
  -0.86143  -0.63359  -0.66591
  -1.10085  -0.87301  -0.66591
  -1.10085  -0.87301  -0.66591
  -1.34027  -0.87301  -0.42649
  -1.34027  -0.87301  -0.42649
  -1.34027  -0.87301  -0.18707
  -1.57969  -0.87301  -0.18707
  -1.57969  -0.87301  -0.18707
  -1.81911  -0.87301  -0.18707
  -1.81911  -0.87301  -0.18707
  -1.81911  -0.87301   0.05235
  -1.81911  -0.87301  -0.18707
  -2.05853  -0.87301  -0.18707
  -2.05853  -0.87301   0.05235
  -2.05853  -0.87301   0.29177
  -2.29795  -0.87301   0.05235
  -2.29795  -0.87301   0.29177
  -2.29795  -0.87301   0.29177
  -2.29795  -0.87301   0.29177
  -2.29795  -1.11243   0.29177
  -2.29795  -1.11243   0.29177
  -2.29795  -1.11243   0.29177
  -2.29795  -1.11243   0.53119
  -2.29795  -1.11243   0.29177
  -2.29795  -1.11243   0.53119
  -2.29795  -1.11243   0.53119
  -2.29795  -1.11243   0.29177
  -2.29795  -1.11243   0.53119
  -2.29795  -1.11243   0.53119
  -2.29795  -1.11243   0.29177
  -2.29795  -1.11243   0.29177
  -2.29795  -1.11243   0.53119
  -2.29795  -1.11243   0.53119
  -2.29795  -1.35185   0.29177
  -2.05853  -1.35185   0.29177
  -2.05853  -1.35185   0.29177
  -2.05853  -1.35185   0.53119
  -2.05853  -1.35185   0.29177
  -2.05853  -1.35185   0.29177
  -2.05853  -1.35185   0.29177
  -2.05853  -1.11243   0.29177
  -2.05853  -1.11243   0.29177
  -2.05853  -1.11243   0.53119
  -2.29795  -1.11243   0.29177
  -2.29795  -1.11243   0.29177
  -2.29795  -1.11243   0.53119
  -2.53737  -1.11243   0.53119
  -2.53737  -0.87301   0.53119
  -2.53737  -0.87301   0.53119
  -2.53737  -0.87301   0.53119
  -2.77679  -0.87301   0.53119
  -2.77679  -0.87301   0.53119
  -3.01621  -0.63359   0.53119
  -3.01621  -0.63359   0.53119
  -3.01621  -0.63359   0.53119
  -3.25563  -0.39417   0.53119
  -3.25563  -0.39417   0.29177
  -3.49505  -0.39417   0.29177
  -3.49505  -0.39417   0.29177
  -3.49505  -0.15475   0.53119
  -3.73447  -0.15475   0.29177
  -3.73447  -0.15475   0.29177
  -3.73447   0.08467   0.29177
  -3.97389   0.08467   0.29177
  -3.97389   0.08467   0.29177
  -3.97389   0.32409   0.29177
