********************************************************************************
              CENTRO DE INSTRUMENTACION Y REGISTRO SISMICO  A.C.                

    Anaxagoras 814, Col. Narvarte, Benito Juarez, C.P. 03020 Mexico, D.F.       
           Tels. 5687 45 42/ 5687 45  82             Fax. 5669 25 12            
********************************************************************************
ARCHIVO ESTANDAR DE ACELERACION:
VERSION DEL FORMATO                    : 2.0
NOMBRE DEL ARCHIVO                     : BA4920080212125018
FECHA Y HORA DE CREACION               : 11/FEB/08, 11:57
REF. CATALOGO ACELEROGRAMAS, SMIS 1996 : REGISTRO No.     /PAG.


================================================================================
DATOS DE LA ESTACION:
NOMBRE DE LA ESTACION                  : BUENOS AIRES
CLAVE DE LA ESTACION                   : BA49
LOCALIZACION DE LA ESTACION            : Del. Cuauhtémoc, Col. Doctores,        
                                       : Av. Lázaro Cárdenas esq. con           
                                       : Calle Dr. Márquez.                     
                                       :                                        
                                       : 
COORDENADAS DE LA ESTACION             : 19.4097 LAT. N
                                       : 99.1450 LONG. W
ALTITUD (msnm)                         : 2233
TIPO DE SUELO                          : Terreno blando, material compresible
                                       : (arcillas)                
                                       : 
INSTITUCION RESPONSABLE                : CIRES


================================================================================
DATOS DEL ACELEROGRAFO:
MODELO DEL ACELEROGRAFO                : SSA-1
NUMERO DE SERIE DEL ACELEROGRAFO       : 176
NUMERO DE CANALES                      : 3
ORIENTACION C1-C6 (rumbo;orientacion)  : /N00E/+V/N90W
ORIENTACION C7-C12 (rumbo;orientacion) : 
VEL. DE MUESTREO, C1-C6 (muestras/s)   : /200/200/200
VEL. DE MUESTREO, C7-C12 (muestras/s)  : 
ESC. COMPLETA DE SENSORES, C1-C6, (g)  : /2.0/2.0/2.0
ESC. COMPLETA DE SENSORES, C7-C12, (g) : 
FREC. NAT. DE SENSORES, C1-C6, (Hz)    : /52.99/52.03/52.99
FREC. NAT. DE SENSORES, C7-C12, (Hz)   : 
AMORTIGUAMIENTO DE SENSORES, C1-C6     : /0.5589/0.5469/0.6096
AMORTIGUAMIENTO DE SENSORES, C7-C12    : 
INTERVALO DE MUESTREO, C1-C6, (s)      : /0.005/0.005/0.005
INTERVALO DE MUESTREO, C7-C12, (s)     : 
UMBRAL DE DISPARO, C1-C6, (Gal)        : /1.5/2.0/1.0
UMBRAL DE DISPARO, C7-C12, (Gal)       : 
MEMORIA DE PREEVENTO (s)               : 15.36
TIEMPO DE POSEVENTO (s)                : 60.0


================================================================================
DATOS DEL SISMO:
FECHA DEL SISMO (GMT)                  : 12/FEB/08
HORA EPICENTRO (GMT)                   : 12:50:18.0
MAGNITUD(ES)                           : /Mc=6.6
COORDENADAS DEL EPICENTRO              : 16.19 LAT. N
                                       : -94.54 LONG. W
PROFUNDIDAD FOCAL (km)                 : 90
FUENTE DE LOS DATOS EPICENTRALES       : SSN
                                       : INSTITUTO DE GEOFISICA, UNAM

================================================================================
DATOS DE ESTE REGISTRO:
HORA DE LA PRIMERA MUESTRA (GMT)       : 12:52:47.20
EXACTITUD DEL TIEMPO (s)               : 0.005
DURACION DEL REGISTRO (s), C1-C6       : /252.16/252.16/252.16
DURACION DEL REGISTRO (s), C7-C12      : 
NUM. TOTAL DE MUESTRAS, C1-C6          : /50432/50432/50432
NUM. TOTAL DE MUESTRAS, C7-C12         : 
ACEL. MAX. (Gal), C1-C6                : /4.7556/1.25418/3.81607
ACEL. MAX., C1-C6, EN LA MUESTRA       : /15288/13837/9904
ACEL. MAX. (Gal), C7-C12               : 
ACEL. MAX., C7-C12, EN LA MUESTRA      : 
UNIDADES DE LOS DATOS                  : Gal (cm/s/s)
FACTOR DE DECIMACION                   : 1
FORMATO DATOS (FORTRAN,10 campos/dato) : 3F10.5


================================================================================
CALIDAD DEL ACELEROGRAMA:
REGISTRO DIGITAL COMPLETO CON TIEMPO ABSOLUTO CORRECTO.


================================================================================
COMENTARIOS:














================================================================================
DATOS DE ACELERACION:
---------+---------+---------+---------+---------+---------+---------+---------+
   CANAL-1   CANAL-2   CANAL-3   CANAL-4   CANAL-5   CANAL-6   CANAL-7   CANAL-8
      N00E        +V      N90W
---------+---------+---------+---------+---------+---------+---------+---------+
[...]
  -0.27222  -0.42176  -0.73291
  -0.27222  -0.42176  -0.73291
  -0.27222  -0.42176  -0.73291
  -0.27222  -0.42176  -0.73291
  -0.27222  -0.42176  -0.97233
  -0.27222  -0.42176  -0.73291
  -0.27222  -0.42176  -0.73291
  -0.27222  -0.42176  -0.73291
  -0.27222  -0.42176  -0.73291
  -0.51164  -0.42176  -0.73291
  -0.51164  -0.42176  -0.73291
  -0.51164  -0.42176  -0.73291
  -0.51164  -0.42176  -0.73291
  -0.51164  -0.42176  -0.73291
  -0.51164  -0.42176  -0.73291
  -0.51164  -0.42176  -0.49349
  -0.75106  -0.42176  -0.49349
  -0.75106  -0.42176  -0.49349
  -0.75106  -0.42176  -0.49349
  -0.75106  -0.42176  -0.49349
  -0.75106  -0.42176  -0.49349
  -0.75106  -0.42176  -0.49349
  -0.99049  -0.42176  -0.49349
  -0.99049  -0.42176  -0.49349
  -0.99049  -0.42176  -0.49349
  -0.99049  -0.18234  -0.49349
  -0.99049  -0.42176  -0.49349
  -0.99049  -0.18234  -0.49349
  -1.22991  -0.18234  -0.49349
  -1.22991  -0.18234  -0.49349
  -1.22991  -0.18234  -0.25407
  -1.22991  -0.18234  -0.25407
  -1.22991  -0.18234  -0.25407
  -1.22991  -0.18234  -0.25407
  -1.22991  -0.18234  -0.25407
  -1.46933  -0.18234  -0.01465
  -1.46933  -0.18234  -0.01465
  -1.46933  -0.18234  -0.25407
  -1.46933  -0.18234  -0.25407
  -1.46933  -0.18234  -0.25407
  -1.46933  -0.18234  -0.01465
  -1.70875  -0.18234  -0.01465
  -1.70875  -0.18234  -0.01465
  -1.70875  -0.18234  -0.01465
  -1.70875  -0.18234  -0.01465
  -1.70875  -0.18234  -0.01465
  -1.70875   0.05708  -0.01465
  -1.94817  -0.18234  -0.01465
  -1.70875  -0.18234   0.22477
  -1.70875  -0.18234   0.22477
  -1.94817  -0.18234   0.22477
  -1.94817  -0.18234   0.22477
  -1.94817  -0.18234   0.22477
  -1.94817   0.05708   0.22477
  -1.94817  -0.18234   0.22477
  -1.94817   0.05708   0.22477
  -1.94817  -0.18234   0.22477
  -1.94817  -0.18234   0.46419
  -1.94817  -0.18234   0.46419
  -2.18759  -0.18234   0.46419
  -2.18759  -0.18234   0.46419
  -2.18759  -0.18234   0.46419
  -2.18759  -0.18234   0.46419
  -2.18759  -0.18234   0.46419
  -2.18759  -0.18234   0.46419
  -2.18759  -0.18234   0.46419
  -2.42701  -0.18234   0.46419
  -2.42701  -0.18234   0.70361
  -2.42701  -0.18234   0.46419
  -2.42701  -0.18234   0.70361
  -2.42701  -0.18234   0.70361
  -2.42701  -0.18234   0.70361
  -2.42701  -0.18234   0.70361
  -2.42701   0.05708   0.70361
  -2.42701  -0.18234   0.94303
  -2.66643  -0.18234   0.94303
  -2.66643  -0.18234   0.94303
  -2.66643  -0.18234   0.94303
  -2.90585  -0.18234   0.94303
  -2.66643  -0.18234   0.94303
  -2.66643  -0.18234   0.94303
  -2.90585  -0.18234   0.94303
  -2.66643  -0.18234   0.94303
  -2.66643  -0.18234   0.94303
  -2.66643  -0.18234   0.94303
  -2.66643  -0.18234   0.94303
  -2.90585  -0.18234   1.18245
  -2.66643  -0.18234   0.94303
  -2.90585  -0.18234   1.18245
  -2.90585  -0.18234   0.94303
  -2.90585  -0.18234   1.18245
  -2.90585  -0.18234   1.18245
  -2.90585  -0.18234   1.18245
  -2.90585  -0.18234   1.18245
  -2.90585  -0.18234   1.18245
  -2.90585  -0.18234   1.18245
  -2.90585  -0.18234   1.18245
  -2.90585  -0.18234   1.18245
  -2.90585  -0.18234   1.18245
  -2.90585   0.05708   1.18245
  -2.90585  -0.18234   1.18245
  -2.90585  -0.18234   1.18245
  -2.90585  -0.18234   1.18245
  -2.90585  -0.18234   1.18245
  -2.90585  -0.18234   1.18245
  -2.90585  -0.18234   1.18245
  -2.90585   0.05708   1.18245
  -2.90585  -0.18234   1.18245
  -2.90585  -0.18234   1.18245
  -2.90585  -0.18234   1.18245
  -2.90585  -0.18234   1.18245
  -2.90585  -0.18234   1.18245
  -2.90585  -0.18234   1.18245
  -2.90585  -0.18234   1.18245
  -2.90585  -0.18234   1.18245
  -2.90585  -0.18234   1.18245
  -2.90585  -0.18234   1.18245
  -2.90585  -0.18234   1.18245
  -2.66643  -0.18234   1.18245
  -2.66643  -0.18234   1.18245
  -2.66643   0.05708   1.18245
  -2.66643  -0.18234   1.18245
  -2.66643  -0.18234   1.18245
  -2.66643  -0.18234   1.18245
  -2.66643  -0.18234   1.18245
  -2.66643  -0.18234   1.18245
  -2.66643   0.05708   1.18245
  -2.66643  -0.18234   1.18245
  -2.66643  -0.18234   1.18245
  -2.66643   0.05708   1.18245
  -2.66643   0.05708   1.18245
  -2.66643   0.05708   1.18245
  -2.66643   0.05708   1.18245
  -2.66643   0.05708   1.18245
  -2.66643   0.05708   1.18245
  -2.42701  -0.18234   1.18245
  -2.42701   0.05708   1.18245
  -2.42701   0.05708   1.18245
  -2.42701   0.05708   1.18245
  -2.42701   0.05708   1.18245
  -2.42701   0.05708   0.94303
  -2.42701   0.05708   1.18245
  -2.42701   0.05708   1.18245
  -2.42701   0.05708   1.18245
  -2.42701   0.05708   1.18245
  -2.42701   0.05708   1.18245
  -2.42701   0.05708   1.18245
  -2.42701   0.05708   1.42187
  -2.42701   0.05708   1.18245
  -2.42701   0.05708   1.18245
  -2.42701   0.05708   1.18245
  -2.42701   0.05708   1.18245
  -2.42701   0.05708   1.18245
  -2.42701   0.05708   1.18245
  -2.42701   0.05708   1.18245
  -2.42701   0.05708   1.18245
  -2.42701   0.05708   1.18245
  -2.42701   0.05708   1.18245
  -2.18759   0.05708   1.18245
  -2.18759   0.05708   1.42187
  -2.18759   0.05708   1.42187
  -2.18759   0.05708   1.42187
  -2.18759   0.05708   1.42187
  -2.18759   0.05708   1.42187
  -2.18759   0.05708   1.42187
  -2.18759   0.29650   1.42187
  -2.18759   0.29650   1.42187
  -2.18759   0.29650   1.42187
  -2.18759   0.05708   1.42187
  -2.18759   0.05708   1.42187
  -1.94817   0.29650   1.42187
  -2.18759   0.05708   1.42187
  -1.94817   0.05708   1.42187
  -1.94817   0.05708   1.42187
  -1.94817   0.05708   1.42187
  -1.94817   0.29650   1.66129
  -1.94817   0.05708   1.42187
  -1.94817   0.05708   1.42187
  -1.94817   0.05708   1.42187
  -1.94817   0.05708   1.42187
  -1.94817   0.05708   1.66129
  -1.94817   0.05708   1.42187
  -1.94817   0.05708   1.66129
  -1.70875   0.29650   1.66129
  -1.70875   0.05708   1.66129
  -1.94817   0.05708   1.66129
  -1.70875   0.05708   1.66129
  -1.70875   0.05708   1.66129
  -1.70875   0.05708   1.66129
  -1.70875   0.05708   1.66129
  -1.46933   0.05708   1.66129
  -1.46933   0.29650   1.42187
  -1.46933   0.05708   1.66129
  -1.46933   0.05708   1.66129
  -1.46933   0.29650   1.66129
  -1.46933   0.05708   1.66129
  -1.46933   0.29650   1.66129
  -1.46933   0.05708   1.66129
  -1.46933   0.05708   1.66129
  -1.46933   0.29650   1.66129
  -1.46933   0.29650   1.66129
  -1.22991   0.29650   1.66129
  -1.46933   0.29650   1.66129
  -1.22991   0.29650   1.66129
  -1.22991   0.29650   1.66129
  -1.22991   0.05708   1.66129
  -1.22991   0.29650   1.66129
  -1.22991   0.29650   1.66129
  -1.22991   0.29650   1.66129
  -0.99049   0.29650   1.66129
  -0.99049   0.29650   1.66129
  -0.99049   0.29650   1.66129
  -0.99049   0.29650   1.42187
  -0.99049   0.29650   1.42187
  -0.99049   0.29650   1.42187
  -0.99049   0.29650   1.66129
  -0.99049   0.29650   1.66129
  -0.99049   0.29650   1.42187
  -0.75106   0.29650   1.42187
  -0.75106   0.29650   1.42187
  -0.75106   0.29650   1.66129
  -0.75106   0.29650   1.42187
  -0.75106   0.53592   1.42187
  -0.75106   0.29650   1.42187
  -0.75106   0.53592   1.42187
  -0.75106   0.29650   1.42187
  -0.51164   0.29650   1.42187
  -0.51164   0.29650   1.42187
  -0.51164   0.53592   1.42187
  -0.51164   0.53592   1.42187
  -0.51164   0.29650   1.42187
  -0.51164   0.29650   1.42187
  -0.51164   0.29650   1.42187
  -0.27222   0.29650   1.42187
  -0.27222   0.29650   1.42187
  -0.27222   0.53592   1.42187
  -0.27222   0.29650   1.42187
  -0.27222   0.53592   1.18245
  -0.27222   0.53592   1.18245
  -0.27222   0.29650   1.18245
  -0.27222   0.29650   1.18245
  -0.03280   0.53592   1.18245
  -0.03280   0.53592   1.18245
  -0.03280   0.53592   1.18245
  -0.03280   0.53592   1.18245
  -0.03280   0.29650   1.18245
  -0.03280   0.53592   1.18245
  -0.03280   0.53592   1.18245
  -0.03280   0.29650   1.18245
   0.20662   0.29650   0.94303
   0.20662   0.53592   0.94303
   0.20662   0.29650   0.94303
   0.20662   0.29650   0.94303
   0.20662   0.29650   0.94303
   0.20662   0.53592   0.94303
   0.44604   0.29650   0.94303
   0.44604   0.53592   0.94303
   0.44604   0.29650   0.94303
   0.44604   0.29650   0.94303
   0.44604   0.29650   0.70361
   0.44604   0.29650   0.94303
   0.68546   0.29650   0.70361
   0.68546   0.29650   0.70361
   0.68546   0.29650   0.70361
   0.68546   0.29650   0.70361
   0.68546   0.29650   0.70361
   0.92488   0.29650   0.70361
   0.92488   0.29650   0.70361
   0.92488   0.29650   0.70361
   0.92488   0.29650   0.70361
   0.92488   0.29650   0.70361
   0.92488   0.29650   0.46419
   0.92488   0.05708   0.70361
   1.16430   0.05708   0.46419
   1.16430   0.05708   0.46419
   1.16430   0.05708   0.46419
   1.16430   0.05708   0.46419
   1.16430   0.05708   0.46419
   1.40372   0.05708   0.46419
   1.40372   0.05708   0.46419
   1.40372   0.05708   0.46419
   1.40372   0.05708   0.46419
   1.40372   0.05708   0.46419
   1.64314   0.05708   0.46419
   1.64314   0.05708   0.46419
   1.64314   0.05708   0.22477
   1.64314   0.05708   0.22477
   1.88256  -0.18234   0.22477
   1.88256   0.05708   0.22477
   1.88256  -0.18234   0.22477
   1.88256  -0.18234   0.22477
   1.88256  -0.18234   0.22477
   1.88256  -0.18234   0.22477
   2.12198  -0.18234   0.22477
   2.12198  -0.18234   0.22477
   2.12198  -0.18234   0.22477
   2.12198  -0.18234   0.22477
   2.36140  -0.18234   0.22477
   2.36140  -0.18234   0.22477
   2.36140  -0.18234  -0.01465
   2.36140  -0.18234  -0.01465
   2.60082  -0.18234  -0.01465
   2.60082  -0.18234  -0.01465
   2.36140  -0.18234  -0.01465
   2.60082  -0.42176  -0.01465
   2.60082  -0.42176  -0.01465
   2.84024  -0.42176  -0.01465
   2.84024  -0.42176  -0.01465
   2.84024  -0.42176  -0.01465
   2.84024  -0.42176  -0.01465
   3.07966  -0.42176  -0.01465
   3.07966  -0.42176  -0.01465
   3.07966  -0.42176  -0.25407
   3.07966  -0.42176  -0.01465
   3.07966  -0.42176  -0.25407
   3.31908  -0.42176  -0.25407
   3.31908  -0.42176  -0.25407
   3.31908  -0.42176  -0.25407
   3.31908  -0.42176  -0.25407
   3.55850  -0.42176  -0.25407
   3.55850  -0.42176  -0.25407
   3.55850  -0.42176  -0.25407
   3.55850  -0.42176  -0.25407
   3.55850  -0.42176  -0.25407
   3.55850  -0.42176  -0.25407
   3.79792  -0.42176  -0.25407
   3.79792  -0.42176  -0.25407
   3.79792  -0.42176  -0.25407
   3.79792  -0.42176  -0.25407
   4.03734  -0.42176  -0.25407
   4.03734  -0.42176  -0.49349
   4.03734  -0.42176  -0.49349
   4.27676  -0.42176  -0.49349
   4.03734  -0.42176  -0.49349
   4.27676  -0.42176  -0.49349
   4.27676  -0.42176  -0.49349
   4.27676  -0.42176  -0.49349
   4.27676  -0.42176  -0.49349
   4.27676  -0.42176  -0.49349
   4.27676  -0.42176  -0.49349
   4.51618  -0.42176  -0.49349
   4.51618  -0.42176  -0.49349
   4.51618  -0.42176  -0.49349
   4.51618  -0.42176  -0.73291
   4.51618  -0.42176  -0.73291
   4.51618  -0.42176  -0.73291
   4.75560  -0.42176  -0.73291
   4.51618  -0.42176  -0.73291
   4.75560  -0.42176  -0.73291
   4.51618  -0.42176  -0.73291
   4.51618  -0.42176  -0.73291
   4.75560  -0.42176  -0.73291
   4.75560  -0.42176  -0.73291
   4.75560  -0.18234  -0.97233
   4.75560  -0.42176  -0.97233
   4.75560  -0.42176  -0.97233
   4.75560  -0.18234  -1.21175
   4.75560  -0.18234  -0.97233
   4.75560  -0.18234  -0.97233
   4.75560  -0.18234  -0.97233
   4.75560  -0.18234  -0.97233
   4.75560  -0.18234  -1.21175
   4.75560  -0.18234  -1.21175
   4.75560  -0.18234  -1.21175
   4.75560  -0.18234  -1.21175
   4.75560  -0.18234  -1.21175
   4.51618  -0.18234  -1.21175
   4.51618  -0.18234  -1.21175
   4.51618  -0.18234  -1.45117
   4.51618   0.05708  -1.45117
   4.51618  -0.18234  -1.45117
   4.51618   0.05708  -1.45117
   4.51618   0.05708  -1.45117
   4.51618   0.05708  -1.45117
   4.51618   0.05708  -1.45117
   4.27676   0.05708  -1.45117
   4.27676   0.05708  -1.45117
   4.27676   0.05708  -1.45117
   4.27676   0.05708  -1.45117
   4.27676   0.05708  -1.45117
   4.27676   0.05708  -1.45117
   4.03734   0.05708  -1.45117
   4.03734   0.05708  -1.69059
   4.03734   0.05708  -1.69059
   4.03734   0.05708  -1.69059
   3.79792   0.29650  -1.69059
   3.79792   0.05708  -1.69059
   3.79792   0.05708  -1.69059
   3.79792   0.05708  -1.69059
   3.79792   0.05708  -1.69059
   3.55850   0.29650  -1.69059
   3.55850   0.29650  -1.69059
   3.55850   0.29650  -1.69059
   3.55850   0.29650  -1.69059
   3.31908   0.29650  -1.93001
   3.31908   0.29650  -1.69059
   3.31908   0.29650  -1.69059
   3.07966   0.29650  -1.93001
   3.07966   0.29650  -1.93001
   3.07966   0.29650  -1.93001
   3.07966   0.29650  -1.69059
   2.84024   0.29650  -1.93001
   2.84024   0.29650  -1.93001
   2.84024   0.29650  -1.93001
   2.84024   0.29650  -1.93001
   2.60082   0.29650  -1.93001
   2.60082   0.29650  -1.93001
   2.60082   0.29650  -1.93001
   2.36140   0.29650  -1.93001
   2.36140   0.29650  -1.93001
   2.36140   0.53592  -1.93001
   2.36140   0.29650  -1.93001
   2.12198   0.29650  -1.93001
   2.12198   0.29650  -1.93001
   2.12198   0.29650  -1.93001
   1.88256   0.29650  -1.93001
   1.64314   0.53592  -1.93001
   1.88256   0.53592  -1.93001
   1.64314   0.53592  -1.93001
   1.64314   0.29650  -1.93001
   1.64314   0.29650  -1.93001
   1.64314   0.29650  -1.93001
   1.40372   0.53592  -1.93001
   1.40372   0.29650  -1.93001
   1.40372   0.53592  -1.93001
   1.40372   0.53592  -1.93001
   1.16430   0.53592  -1.93001
   1.16430   0.53592  -1.93001
   1.16430   0.53592  -1.93001
   1.16430   0.53592  -1.93001
   0.92488   0.53592  -1.93001
   0.92488   0.53592  -1.93001
   0.92488   0.29650  -1.93001
   0.92488   0.53592  -1.93001
   0.68546   0.53592  -1.93001
   0.68546   0.53592  -1.93001
   0.68546   0.53592  -1.93001
   0.44604   0.53592  -1.93001
   0.44604   0.29650  -1.93001
   0.44604   0.53592  -1.93001
   0.44604   0.29650  -1.93001
   0.44604   0.29650  -1.93001
   0.20662   0.29650  -1.93001
   0.20662   0.29650  -1.93001
   0.20662   0.29650  -1.93001
   0.20662   0.29650  -1.93001
   0.20662   0.29650  -1.93001
  -0.03280   0.53592  -1.93001
  -0.03280   0.29650  -1.93001
  -0.03280   0.29650  -1.93001
  -0.03280   0.29650  -1.93001
  -0.03280   0.29650  -1.93001
  -0.27222   0.29650  -1.93001
  -0.27222   0.29650  -1.93001
  -0.27222   0.29650  -1.93001
  -0.27222   0.29650  -1.93001
  -0.27222   0.29650  -1.93001
  -0.51164   0.29650  -1.93001
  -0.51164   0.29650  -1.93001
  -0.51164   0.29650  -1.93001
  -0.51164   0.29650  -1.93001
  -0.51164   0.29650  -1.69059
  -0.51164   0.29650  -1.93001
  -0.75106   0.29650  -1.69059
  -0.75106   0.29650  -1.69059
  -0.75106   0.29650  -1.69059
  -0.75106   0.29650  -1.69059
  -0.75106   0.29650  -1.69059
  -0.99049   0.29650  -1.69059
  -0.99049   0.29650  -1.69059
  -0.99049   0.05708  -1.69059
  -0.99049   0.05708  -1.69059
  -0.99049   0.05708  -1.69059
  -0.99049   0.05708  -1.69059
  -0.99049   0.05708  -1.69059
  -1.22991   0.05708  -1.69059
  -1.22991   0.05708  -1.45117
  -1.22991   0.05708  -1.69059
  -1.22991   0.05708  -1.45117
  -1.22991   0.05708  -1.45117
  -1.22991   0.05708  -1.45117
  -1.46933   0.05708  -1.45117
  -1.46933   0.05708  -1.45117
  -1.46933   0.05708  -1.45117
  -1.46933   0.05708  -1.45117
  -1.46933   0.05708  -1.45117
  -1.46933   0.05708  -1.69059
  -1.46933   0.05708  -1.45117
  -1.46933   0.05708  -1.45117
  -1.70875   0.05708  -1.45117
  -1.70875   0.05708  -1.45117
  -1.70875   0.05708  -1.45117
  -1.70875   0.05708  -1.45117
  -1.70875   0.05708  -1.45117
  -1.70875  -0.18234  -1.45117
  -1.70875  -0.18234  -1.45117
