********************************************************************************
              CENTRO DE INSTRUMENTACION Y REGISTRO SISMICO  A.C.                

    Anaxagoras 814, Col. Narvarte, Benito Juarez, C.P. 03020 Mexico, D.F.       
           Tels. 5687 45 42/ 5687 45  82             Fax. 5669 25 12            
********************************************************************************
ARCHIVO ESTANDAR DE ACELERACION:
VERSION DEL FORMATO                    : 2.0
NOMBRE DEL ARCHIVO                     : BA4919890425142900
FECHA Y HORA DE CREACION               : 03/MAY/18, 13:20
REF. CATALOGO ACELEROGRAMAS, SMIS 1996 : REGISTRO No.     /PAG.


================================================================================
DATOS DE LA ESTACION:
NOMBRE DE LA ESTACION                  : BUENOS AIRES
CLAVE DE LA ESTACION                   : BA49
LOCALIZACION DE LA ESTACION            : Del. Cuauhtémoc, Col. Doctores,        
                                       : Av. Lázaro Cárdenas esq. con           
                                       : Calle Dr. Márquez.                     
                                       :                                        
                                       : 
COORDENADAS DE LA ESTACION             : 19.4097 LAT. N
                                       : 99.1450 LONG. W
ALTITUD (msnm)                         : 2233
TIPO DE SUELO                          : Terreno blando, material compresible
                                       : (arcillas)                
                                       : 
INSTITUCION RESPONSABLE                : CIRES


================================================================================
DATOS DEL ACELEROGRAFO:
MODELO DEL ACELEROGRAFO                : SSA-1
NUMERO DE SERIE DEL ACELEROGRAFO       : 176
NUMERO DE CANALES                      : 3
ORIENTACION C1-C6 (rumbo;orientacion)  : /S00E/+V/N90W
ORIENTACION C7-C12 (rumbo;orientacion) : 
VEL. DE MUESTREO, C1-C6 (muestras/s)   : /200/200/200
VEL. DE MUESTREO, C7-C12 (muestras/s)  : 
ESC. COMPLETA DE SENSORES, C1-C6, (g)  : /1.0/1.0/1.0
ESC. COMPLETA DE SENSORES, C7-C12, (g) : 
FREC. NAT. DE SENSORES, C1-C6, (Hz)    : /52.99/52.03/52.99
FREC. NAT. DE SENSORES, C7-C12, (Hz)   : 
AMORTIGUAMIENTO DE SENSORES, C1-C6     : /0.5589/0.5469/0.6096
AMORTIGUAMIENTO DE SENSORES, C7-C12    : 
INTERVALO DE MUESTREO, C1-C6, (s)      : /0.005/0.005/0.005
INTERVALO DE MUESTREO, C7-C12, (s)     : 
UMBRAL DE DISPARO, C1-C6, (Gal)        : /1.0/2.0/1.0
UMBRAL DE DISPARO, C7-C12, (Gal)       : 
MEMORIA DE PREEVENTO (s)               : 15.36
TIEMPO DE POSEVENTO (s)                : 0.0


================================================================================
DATOS DEL SISMO:
FECHA DEL SISMO (GMT)                  : 25/ABR/89
HORA EPICENTRO (GMT)                   : 14:29:00.0
MAGNITUD(ES)                           : /Mc=6.5
COORDENADAS DEL EPICENTRO              : 16.60 LAT. N
                                       : -99.40 LONG. W
PROFUNDIDAD FOCAL (km)                 : 19
FUENTE DE LOS DATOS EPICENTRALES       : SSN
                                       : INSTITUTO DE GEOFISICA, UNAM

================================================================================
DATOS DE ESTE REGISTRO:
HORA DE LA PRIMERA MUESTRA (GMT)       : 13:30:28.68
EXACTITUD DEL TIEMPO (s)               : 0.005
DURACION DEL REGISTRO (s), C1-C6       : /300.8/300.8/300.8
DURACION DEL REGISTRO (s), C7-C12      : 
NUM. TOTAL DE MUESTRAS, C1-C6          : /60160/60160/60160
NUM. TOTAL DE MUESTRAS, C7-C12         : 
ACEL. MAX. (Gal), C1-C6                : /27.25299/7.3316/29.47496
ACEL. MAX., C1-C6, EN LA MUESTRA       : /10521/13968/12508
ACEL. MAX. (Gal), C7-C12               : 
ACEL. MAX., C7-C12, EN LA MUESTRA      : 
UNIDADES DE LOS DATOS                  : Gal (cm/s/s)
FACTOR DE DECIMACION                   : 1
FORMATO DATOS (FORTRAN,10 campos/dato) : 3F10.5


================================================================================
CALIDAD DEL ACELEROGRAMA:
REGISTRO DIGITAL COMPLETO CON TIEMPO ABSOLUTO CORRECTO.


================================================================================
COMENTARIOS:














================================================================================
DATOS DE ACELERACION:
---------+---------+---------+---------+---------+---------+---------+---------+
   CANAL-1   CANAL-2   CANAL-3   CANAL-4   CANAL-5   CANAL-6   CANAL-7   CANAL-8
      N00E        +V      N90W
---------+---------+---------+---------+---------+---------+---------+---------+
[...]
   8.66004   2.30377 -22.00037
   8.66004   2.30377 -22.00037
   8.66004   2.30377 -22.00037
   8.66004   2.30377 -22.23979
   8.66004   1.82493 -22.23979
   8.66004   2.06435 -22.23979
   8.42062   2.06435 -22.23979
   8.42062   2.06435 -22.23979
   8.42062   2.06435 -22.23979
   8.18120   2.30377 -22.23979
   8.18120   2.30377 -22.23979
   7.94178   2.06435 -22.47921
   7.94178   2.30377 -22.47921
   7.94178   2.30377 -22.47921
   7.70236   2.30377 -22.47921
   7.70236   2.30377 -22.23979
   7.94178   2.30377 -22.23979
   7.70236   2.30377 -22.47921
   7.70236   2.30377 -22.23979
   7.46294   2.30377 -22.23979
   7.46294   2.30377 -22.00037
   7.46294   2.30377 -22.00037
   7.46294   2.30377 -21.76095
   7.46294   2.30377 -21.76095
   7.22352   2.06435 -21.52153
   7.22352   2.06435 -21.52153
   7.22352   2.30377 -21.28211
   6.98410   2.06435 -21.04269
   6.98410   2.06435 -20.80327
   6.98410   2.06435 -20.56385
   6.74468   2.06435 -20.32443
   6.74468   1.82493 -20.08501
   6.74468   2.06435 -20.08501
   6.74468   1.82493 -19.84559
   6.74468   1.82493 -19.36675
   6.50526   1.82493 -19.12733
   6.74468   1.58551 -18.64849
   6.74468   1.58551 -18.40907
   6.50526   1.58551 -17.93023
   6.50526   1.58551 -17.69081
   6.50526   1.34609 -17.21197
   6.74468   1.34609 -16.73313
   6.74468   1.34609 -16.49371
   6.50526   1.10667 -16.01487
   6.50526   1.10667 -15.77545
   6.74468   1.10667 -15.05719
   6.50526   1.10667 -14.57835
   6.74468   0.86725 -14.33893
   6.74468   0.86725 -13.86009
   6.74468   0.86725 -13.38125
   6.74468   0.62783 -12.90241
   6.74468   0.62783 -12.42357
   6.74468   0.62783 -11.94473
   6.74468   0.38841 -11.22647
   6.50526   0.38841 -10.74763
   6.74468   0.38841 -10.26879
   6.74468   0.14899  -9.78994
   6.74468   0.14899  -9.31110
   6.50526  -0.09043  -8.59284
   6.50526   0.14899  -8.11400
   6.50526  -0.09043  -7.63516
   6.50526  -0.09043  -7.39574
   6.74468  -0.32985  -6.67748
   6.50526  -0.32985  -6.19864
   6.50526  -0.32985  -5.71980
   6.50526  -0.32985  -5.24096
   6.26584  -0.56927  -4.76212
   6.26584  -0.56927  -4.28328
   6.26584  -0.56927  -3.80444
   6.26584  -0.56927  -3.32560
   6.26584  -0.80869  -2.84676
   6.02642  -0.80869  -2.36792
   6.02642  -0.80869  -2.12850
   6.02642  -0.80869  -1.64966
   5.78700  -0.80869  -1.41024
   5.78700  -0.80869  -0.93140
   5.78700  -0.80869  -0.69198
   5.54758  -0.80869  -0.21314
   5.54758  -0.80869   0.02628
   5.54758  -0.80869   0.50512
   5.30816  -0.80869   0.74454
   5.30816  -0.80869   0.98396
   5.30816  -0.80869   1.46280
   5.06874  -0.80869   1.70222
   4.82931  -0.80869   1.94164
   4.82931  -1.04811   2.18106
   4.58989  -0.80869   2.18106
   4.58989  -1.04811   2.42048
   4.35047  -1.04811   2.65990
   4.35047  -1.04811   2.89932
   4.11105  -1.04811   3.13874
   4.11105  -1.04811   3.37816
   3.87163  -0.80869   3.61758
   3.63221  -0.80869   3.61758
   3.39279  -0.80869   3.85700
   3.39279  -0.80869   4.09642
   3.15337  -0.80869   4.09642
   2.91395  -0.56927   4.33585
   2.91395  -0.56927   4.33585
   2.91395  -0.56927   4.57527
   2.67453  -0.56927   4.81469
   2.19569  -0.56927   4.81469
   2.19569  -0.56927   5.05411
   1.95627  -0.32985   5.05411
   1.95627  -0.56927   5.29353
   1.71685  -0.32985   5.29353
   1.71685  -0.32985   5.29353
   1.47743  -0.32985   5.29353
   1.23801  -0.56927   5.53295
   0.99859  -0.32985   5.53295
   0.51975  -0.32985   5.53295
   0.51975  -0.56927   5.53295
   0.28033  -0.32985   5.53295
   0.04091  -0.32985   5.53295
  -0.19851  -0.32985   5.53295
  -0.43793  -0.32985   5.53295
  -0.67735  -0.32985   5.77237
  -0.91677  -0.32985   5.77237
  -1.15619  -0.32985   5.53295
  -1.63503  -0.32985   5.53295
  -1.63503  -0.09043   5.53295
  -1.63503  -0.09043   5.53295
  -1.87445  -0.09043   5.53295
  -2.35329  -0.09043   5.53295
  -2.35329  -0.09043   5.53295
  -2.59271  -0.09043   5.53295
  -2.83213   0.14899   5.29353
  -3.07155   0.14899   5.29353
  -3.31097   0.14899   5.29353
  -3.55039   0.38841   5.29353
  -3.78981   0.38841   5.29353
  -4.02923   0.62783   5.05411
  -4.26865   0.62783   5.05411
  -4.50807   0.62783   5.05411
  -4.74749   0.86725   4.81469
  -4.98691   1.10667   4.81469
  -5.22633   1.10667   4.81469
  -5.22633   1.10667   4.57527
  -5.70517   1.34609   4.33585
  -5.94459   1.34609   4.33585
  -5.94459   1.58551   4.09642
  -6.18401   1.58551   4.09642
  -6.18401   1.82493   3.85700
  -6.66285   1.82493   3.85700
  -6.66285   2.06435   3.61758
  -6.90227   2.06435   3.61758
  -7.14169   2.30377   3.37816
  -7.38111   2.30377   3.13874
  -7.38111   2.30377   2.89932
  -7.62053   2.54319   2.89932
  -7.85995   2.54319   2.65990
  -7.85995   2.78261   2.42048
  -8.09937   2.78261   2.42048
  -8.09937   2.78261   2.18106
  -8.33879   2.78261   1.94164
  -8.33879   2.78261   1.94164
  -8.57821   3.02203   1.70222
  -8.57821   3.02203   1.46280
  -8.81763   3.02203   1.22338
  -8.81763   3.02203   1.22338
  -9.05705   3.26146   0.98396
  -8.81763   3.26146   0.98396
  -9.05705   3.26146   0.74454
  -9.05705   3.26146   0.50512
  -9.05705   3.50088   0.26570
  -9.05705   3.50088   0.26570
  -9.29647   3.26146   0.26570
  -9.29647   3.50088   0.02628
  -9.29647   3.50088   0.02628
  -9.29647   3.50088  -0.21314
  -9.29647   3.50088  -0.21314
  -9.29647   3.50088  -0.21314
  -9.29647   3.50088  -0.45256
  -9.29647   3.50088  -0.45256
  -9.05705   3.26146  -0.45256
  -9.05705   3.26146  -0.45256
  -9.29647   3.26146  -0.45256
  -9.05705   3.26146  -0.45256
  -9.05705   3.26146  -0.69198
  -9.05705   3.26146  -0.69198
  -9.05705   3.26146  -0.69198
  -9.05705   3.02203  -0.69198
  -9.05705   3.02203  -0.69198
  -9.05705   3.02203  -0.69198
  -8.81763   2.78261  -0.69198
  -8.81763   2.78261  -0.69198
  -8.81763   2.54319  -0.69198
  -8.81763   2.78261  -0.69198
  -8.81763   2.54319  -0.69198
  -8.81763   2.30377  -0.69198
  -8.57821   2.30377  -0.45256
  -8.57821   2.06435  -0.69198
  -8.57821   2.06435  -0.45256
  -8.33879   1.82493  -0.45256
  -8.33879   1.82493  -0.45256
  -8.57821   1.58551  -0.69198
  -8.33879   1.34609  -0.45256
  -8.33879   1.34609  -0.45256
  -8.33879   1.10667  -0.45256
  -8.33879   1.10667  -0.45256
  -8.33879   0.86725  -0.45256
  -8.33879   0.86725  -0.45256
  -8.09937   0.62783  -0.45256
  -8.33879   0.38841  -0.21314
  -8.33879   0.38841  -0.21314
  -8.09937   0.14899  -0.21314
  -8.09937  -0.09043  -0.21314
  -8.33879  -0.09043  -0.21314
  -8.33879  -0.32985   0.02628
  -8.33879  -0.32985  -0.21314
  -8.33879  -0.32985   0.02628
  -8.33879  -0.56927   0.02628
  -8.33879  -0.56927   0.02628
  -8.33879  -0.56927   0.02628
  -8.57821  -0.80869   0.02628
  -8.33879  -0.80869   0.26570
  -8.57821  -0.80869   0.26570
  -8.57821  -0.80869   0.26570
  -8.57821  -1.04811   0.26570
  -8.57821  -1.04811   0.50512
  -8.57821  -1.04811   0.26570
  -8.81763  -1.28753   0.74454
  -8.81763  -1.28753   0.74454
  -8.81763  -1.28753   0.74454
  -9.05705  -1.52695   0.74454
  -9.05705  -1.52695   0.98396
  -9.05705  -1.76637   0.98396
  -9.05705  -1.76637   0.98396
  -9.05705  -1.76637   0.98396
  -9.29647  -1.76637   0.98396
  -9.29647  -2.00579   1.22338
  -9.53590  -2.00579   1.22338
  -9.29647  -2.24521   1.22338
  -9.53590  -2.24521   1.22338
  -9.53590  -2.24521   1.46280
  -9.53590  -2.24521   1.46280
  -9.77532  -2.24521   1.46280
  -9.77532  -2.24521   1.70222
  -9.77532  -2.24521   1.94164
 -10.01474  -2.24521   1.94164
 -10.01474  -2.24521   1.94164
 -10.25416  -2.48463   2.18106
 -10.25416  -2.24521   2.42048
 -10.25416  -2.24521   2.42048
 -10.49358  -2.48463   2.42048
 -10.49358  -2.48463   2.65990
 -10.49358  -2.48463   2.89932
 -10.49358  -2.24521   2.89932
 -10.97242  -2.24521   3.13874
 -10.97242  -2.48463   3.37816
 -11.21184  -2.48463   3.61758
 -11.21184  -2.48463   3.85700
 -11.45126  -2.48463   3.85700
 -11.45126  -2.48463   4.09642
 -11.45126  -2.72405   4.33585
 -11.69068  -2.72405   4.57527
 -11.69068  -2.72405   4.81469
 -11.93010  -2.72405   4.81469
 -12.16952  -2.72405   5.29353
 -12.16952  -2.96347   5.77237
 -12.40894  -2.96347   5.77237
 -12.40894  -2.96347   6.01179
 -12.64836  -2.96347   6.25121
 -12.64836  -2.96347   6.49063
 -12.88778  -3.20289   6.73005
 -12.88778  -3.20289   6.96947
 -13.12720  -3.20289   7.20889
 -13.12720  -3.44231   7.44831
 -13.36662  -3.20289   7.68773
 -13.36662  -3.44231   7.92715
 -13.36662  -3.44231   8.16657
 -13.60604  -3.44231   8.40599
 -13.60604  -3.68173   8.64541
 -13.84546  -3.68173   8.88483
 -13.84546  -3.68173   9.12425
 -14.08488  -3.68173   9.36367
 -14.08488  -3.92115   9.36367
 -14.08488  -3.92115   9.60309
 -14.08488  -3.92115   9.84251
 -14.32430  -3.92115  10.08193
 -14.56372  -3.92115  10.32135
 -14.56372  -3.92115  10.56077
 -14.80314  -3.92115  11.03961
 -14.80314  -3.92115  11.27903
 -14.80314  -4.16057  11.51845
 -14.80314  -4.16057  11.75787
 -14.80314  -3.92115  11.99729
 -15.04256  -4.16057  12.23671
 -15.04256  -4.16057  12.71555
 -15.28198  -4.16057  12.71555
 -15.28198  -4.16057  13.19439
 -15.28198  -4.16057  13.67323
 -15.28198  -4.16057  13.91265
 -15.52140  -4.16057  14.15207
 -15.52140  -4.39999  14.63091
 -15.76082  -4.39999  14.87033
 -15.76082  -4.39999  15.34917
 -15.76082  -4.39999  15.58859
 -16.00024  -4.39999  16.06743
 -16.00024  -4.39999  16.30685
 -16.00024  -4.39999  16.78569
 -16.00024  -4.39999  17.02511
 -16.00024  -4.39999  17.74337
 -16.23966  -4.39999  17.98279
 -16.23966  -4.39999  18.22221
 -16.47908  -4.39999  18.70106
 -16.23966  -4.39999  18.94048
 -16.23966  -4.39999  19.41932
 -16.23966  -4.39999  19.65874
 -16.23966  -4.39999  20.13758
 -16.47908  -4.39999  20.37700
 -16.23966  -4.39999  20.85584
 -16.23966  -4.39999  21.09526
 -16.23966  -4.39999  21.33468
 -16.23966  -4.16057  21.81352
 -16.23966  -4.16057  22.29236
 -16.23966  -4.39999  22.53178
 -16.23966  -4.16057  23.01062
 -16.23966  -4.39999  23.25004
 -16.23966  -4.16057  23.72888
 -16.23966  -4.16057  23.96830
 -16.23966  -4.16057  24.44714
 -16.23966  -4.16057  24.92598
 -16.23966  -4.16057  25.16540
 -16.00024  -4.16057  25.40482
 -16.23966  -4.16057  25.64424
 -16.00024  -4.16057  26.12308
 -16.00024  -3.92115  26.36250
 -16.00024  -3.92115  26.60192
 -16.00024  -3.92115  26.84134
 -15.76082  -4.16057  27.08076
 -15.76082  -3.92115  27.32018
 -15.76082  -3.92115  27.55960
 -15.76082  -3.92115  27.79902
 -15.52140  -3.92115  28.03844
 -15.76082  -3.92115  28.03844
 -15.52140  -3.92115  28.27786
 -15.28198  -3.68173  28.51728
 -15.28198  -3.68173  28.51728
 -15.28198  -3.68173  28.99612
 -15.04256  -3.44231  28.75670
 -14.80314  -3.44231  28.99612
 -14.80314  -3.44231  29.23554
 -14.80314  -3.44231  29.23554
 -14.80314  -3.44231  29.23554
 -14.56372  -3.20289  29.23554
 -14.56372  -3.20289  29.47496
 -14.80314  -3.20289  29.47496
 -14.56372  -3.20289  29.47496
 -14.56372  -2.96347  29.47496
 -14.56372  -2.96347  29.23554
 -14.56372  -2.72405  29.23554
 -14.56372  -2.72405  29.23554
 -14.32430  -2.72405  28.99612
 -14.32430  -2.72405  28.75670
 -14.32430  -2.72405  28.51728
 -14.08488  -2.48463  28.51728
 -14.08488  -2.48463  28.27786
 -13.60604  -2.48463  28.03844
 -13.36662  -2.48463  28.03844
 -13.36662  -2.48463  28.03844
 -13.12720  -2.24521  27.79902
 -13.36662  -2.24521  27.79902
 -13.12720  -2.00579  27.55960
 -12.88778  -2.00579  27.55960
 -12.88778  -2.00579  27.32018
 -12.64836  -2.00579  27.08076
 -12.64836  -1.76637  26.84134
 -12.40894  -1.76637  26.60192
 -12.16952  -1.52695  26.36250
 -12.16952  -1.28753  26.12308
 -11.93010  -1.04811  25.88366
 -11.93010  -1.04811  25.64424
 -11.93010  -0.80869  25.64424
 -11.93010  -0.56927  25.16540
 -12.16952  -0.56927  24.92598
 -11.93010  -0.32985  24.68656
 -12.16952  -0.09043  24.44714
 -11.93010  -0.09043  24.20772
 -11.93010   0.14899  23.96830
 -12.16952   0.14899  23.48946
 -11.93010   0.38841  23.01062
 -11.93010   0.38841  22.77120
 -11.93010   0.38841  22.29236
 -11.93010   0.62783  22.05294
 -11.93010   0.86725  21.57410
 -11.93010   1.10667  21.09526
 -11.93010   1.34609  20.61642
 -11.93010   1.34609  20.61642
 -11.93010   1.58551  20.13758
 -11.69068   1.82493  19.65874
 -11.69068   1.82493  19.41932
 -11.69068   1.82493  18.94048
 -11.93010   2.06435  18.46163
 -11.93010   2.30377  18.22221
 -11.93010   2.54319  17.74337
 -11.93010   2.54319  17.50395
 -11.93010   2.54319  17.02511
 -11.93010   2.78261  16.78569
 -11.93010   2.78261  16.30685
 -11.93010   3.02203  15.82801
 -11.93010   3.02203  15.34917
 -11.93010   3.26146  15.10975
 -11.69068   3.26146  14.87033
 -11.69068   3.50088  14.39149
 -11.69068   3.50088  14.15207
 -11.45126   3.50088  13.67323
 -11.45126   3.74030  13.19439
 -11.45126   3.74030  12.95497
 -11.21184   3.97972  12.23671
 -11.21184   4.21914  11.99729
 -10.97242   4.21914  11.75787
 -10.97242   4.21914  11.27903
 -10.73300   4.45856  10.80019
 -10.73300   4.45856  10.56077
 -10.49358   4.69798  10.08193
 -10.25416   4.45856   9.84251
 -10.25416   4.69798   9.36367
 -10.01474   4.69798   8.88483
 -10.01474   4.69798   8.64541
  -9.77532   4.93740   7.92715
  -9.53590   4.69798   7.68773
  -9.29647   4.69798   7.20889
  -9.29647   4.69798   6.73005
  -8.81763   4.69798   6.49063
  -8.57821   4.69798   6.01179
  -8.33879   4.69798   5.53295
  -8.09937   4.69798   5.05411
  -7.85995   4.45856   4.57527
  -7.62053   4.45856   4.09642
  -7.14169   4.45856   3.61758
  -6.90227   4.21914   3.13874
  -6.66285   4.21914   2.65990
  -6.42343   4.21914   2.18106
  -6.18401   3.97972   1.70222
  -5.70517   3.97972   1.22338
  -5.46575   3.97972   0.74454
  -5.22633   3.74030   0.26570
  -4.74749   3.74030  -0.21314
  -4.26865   3.50088  -0.69198
  -3.78981   3.50088  -1.17082
  -3.31097   3.50088  -1.64966
  -3.07155   3.26146  -2.12850
  -2.59271   3.26146  -2.36792
  -2.11387   3.02203  -2.84676
  -1.87445   3.02203  -3.32560
  -1.39561   2.78261  -3.80444
  -0.91677   2.78261  -4.28328
  -0.43793   2.54319  -4.52270
   0.04091   2.30377  -5.00154
   0.28033   2.54319  -5.48038
   0.75917   2.30377  -5.95922
   1.47743   2.30377  -6.19864
   1.95627   2.06435  -6.67748
   2.43511   2.06435  -7.15632
   2.91395   1.82493  -7.39574
   3.39279   1.58551  -7.87458
   3.63221   1.58551  -8.11400
   4.11105   1.58551  -8.59284
   4.58989   1.34609  -8.83226
   5.06874   1.34609  -9.07168
   5.30816   1.10667  -9.31110
   5.78700   0.86725  -9.55052
   6.26584   0.86725 -10.02936
   6.50526   0.86725 -10.26879
   6.98410   0.62783 -10.50821
   7.22352   0.62783 -10.74763
   7.70236   0.62783 -10.98705
   8.18120   0.38841 -11.22647
   8.42062   0.38841 -11.46589
   8.66004   0.14899 -11.70531
   9.13888   0.14899 -11.94473
   9.37830  -0.09043 -12.18415
   9.61772  -0.09043 -12.42357
   9.85714  -0.09043 -12.66299
  10.33598  -0.32985 -12.66299
  10.33598  -0.09043 -12.90241
  10.81482  -0.32985 -13.14183
  11.05424  -0.32985 -13.38125
  11.05424  -0.32985 -13.38125
  11.53308  -0.32985 -13.62067
  11.77250  -0.32985 -13.62067
  12.01192  -0.32985 -13.86009
  12.25134  -0.56927 -14.09951
  12.49076  -0.56927 -14.09951
  12.73018  -0.56927 -14.33893
  12.96960  -0.56927 -14.33893
  13.20902  -0.80869 -14.57835
  13.44844  -0.80869 -14.81777
  13.44844  -0.56927 -14.81777
  13.68786  -0.80869 -15.05719
  13.92728  -0.56927 -15.05719
  14.16670  -0.80869 -15.05719
  14.40612  -0.80869 -15.29661
  14.64554  -0.80869 -15.53603
  14.88496  -0.80869 -15.77545
