********************************************************************************
              CENTRO DE INSTRUMENTACION Y REGISTRO SISMICO  A.C.

    Anaxagoras 814, Col. Narvarte, Benito Juarez, C.P. 03020 Mexico, D.F.
           Tels. 5687 45 42/ 5687 45  82             Fax. 5669 25 12
********************************************************************************
ARCHIVO ESTANDAR DE ACELERACION:
VERSION DEL FORMATO                    : 2.0
NOMBRE DEL ARCHIVO                     : BA4920130813165042
FECHA Y HORA DE CREACION               : 03/SEP/13, 13:35
REF. CATALOGO ACELEROGRAMAS, SMIS 1996 : REGISTRO No.     /PAG.


================================================================================
DATOS DE LA ESTACION:
NOMBRE DE LA ESTACION                  : BUENOS AIRES
CLAVE DE LA ESTACION                   : BA49
LOCALIZACION DE LA ESTACION            : Del. Cuauhtémoc, Col. Doctores,        
                                       : Av. Lázaro Cárdenas esq. con           
                                       : Calle Dr. Márquez.                     
                                       :                                        
                                       : 
COORDENADAS DE LA ESTACION             : 19.4097 LAT. N
                                       : 99.1450 LONG. W
ALTITUD (msnm)                         : 2233
TIPO DE SUELO                          : Terreno blando, material compresible
                                       : (arcillas)                
                                       : 
INSTITUCION RESPONSABLE                : CIRES
                                       : 

================================================================================
DATOS DEL ACELEROGRAFO:
MODELO DEL ACELEROGRAFO                : RADESD
NUMERO DE SERIE DEL ACELEROGRAFO       : 176
NUMERO DE CANALES                      : 3
ORIENTACION C1-C6 (rumbo;orientacion)  : /N00E/+V/N90W
ORIENTACION C7-C12 (rumbo;orientacion) : 
VEL. DE MUESTREO, C1-C6 (muestras/s)   : /100/100/100
VEL. DE MUESTREO, C7-C12 (muestras/s)  : 
ESC. COMPLETA DE SENSORES, C1-C6, (g)  : /0.5/0.5/0.5
ESC. COMPLETA DE SENSORES, C7-C12, (g) : 
FREC. NAT. DE SENSORES, C1-C6, (Hz)    : /52.99/52.03/52.99
FREC. NAT. DE SENSORES, C7-C12, (Hz)   : 
AMORTIGUAMIENTO DE SENSORES, C1-C6     : /0.5589/0.5469/0.6096
AMORTIGUAMIENTO DE SENSORES, C7-C12    : 
INTERVALO DE MUESTREO, C1-C6, (s)      : /0.01/0.01/0.01
INTERVALO DE MUESTREO, C7-C12, (s)     : 
UMBRAL DE DISPARO, C1-C6, (Gal)        : /15.32/30.65/15.32
UMBRAL DE DISPARO, C7-C12, (Gal)       : 
MEMORIA DE PREEVENTO (s)               : 56.0
TIEMPO DE POSEVENTO (s)                : 80.0


================================================================================
DATOS DEL SISMO:
FECHA DEL SISMO (GMT)                  : 13/AGO/13
HORA EPICENTRO (GMT)                   : 16:50:42.0
MAGNITUD(ES)                           : /Mc=5.0
COORDENADAS DEL EPICENTRO              : 16.56 LAT. N
                                       : 98.57 LONG. W
PROFUNDIDAD FOCAL (km)                 : 4
FUENTE DE LOS DATOS EPICENTRALES       : SSN
                                       : INSTITUTO DE GEOFISICA, UNAM

================================================================================
DATOS DE ESTE REGISTRO:
HORA DE LA PRIMERA MUESTRA (GMT)       : 16:52:28.00
EXACTITUD DEL TIEMPO (s)               : 0.01
DURACION DEL REGISTRO (s), C1-C6       : /132.2/132.2/132.2
DURACION DEL REGISTRO (s), C7-C12      : 
NUM. TOTAL DE MUESTRAS, C1-C6          : /13220/13220/13220
NUM. TOTAL DE MUESTRAS, C7-C12         : 
ACEL. MAX. (Gal), C1-C6                : /1.22991/0.59001/1.55558
ACEL. MAX., C1-C6, EN LA MUESTRA       : /4384/4513/5541
ACEL. MAX. (Gal), C7-C12               : 
ACEL. MAX., C7-C12, EN LA MUESTRA      : 
UNIDADES DE LOS DATOS                  : Gal (cm/s/s)
FACTOR DE DECIMACION                   : 1
FORMATO DATOS (FORTRAN,10 campos/dato) : 3F10.5


================================================================================
CALIDAD DEL ACELEROGRAMA:
REGISTRO DIGITAL COMPLETO CON TIEMPO ABSOLUTO CORRECTO.


================================================================================
COMENTARIOS:














================================================================================
DATOS DE ACELERACION:
---------+---------+---------+---------+---------+---------+---------+---------+
   CANAL-1   CANAL-2   CANAL-3   CANAL-4   CANAL-5   CANAL-6   CANAL-7   CANAL-8
      N00E        +V      N90W
---------+---------+---------+---------+---------+---------+---------+---------+
[...]
   0.34129  -0.00642   1.06308
   0.32632  -0.00642   1.07804
   0.28143  -0.06627   1.09301
   0.28143  -0.08124   1.12293
   0.26647  -0.03635   1.10797
   0.26647   0.00854   1.12293
   0.22158   0.05344   1.10797
   0.23654   0.09833   1.10797
   0.22158   0.09833   1.09301
   0.23654   0.11329   1.03315
   0.22158   0.17315   1.01819
   0.19165   0.27789   1.03315
   0.17669   0.23300   1.03315
   0.16172   0.14322   0.98826
   0.16172   0.08336   0.98826
   0.17669   0.09833   0.95833
   0.17669   0.08336   0.95833
   0.17669   0.05344   0.94337
   0.23654   0.09833   0.95833
   0.20661   0.03847   0.91344
   0.22158   0.00854   0.91344
   0.25150   0.00854   0.92840
   0.23654  -0.02138   0.88351
   0.25150  -0.05131   0.85359
   0.26647  -0.03635   0.83862
   0.26647  -0.05131   0.80869
   0.26647  -0.05131   0.74884
   0.34129  -0.03635   0.74884
   0.34129   0.02351   0.73388
   0.35625  -0.00642   0.71891
   0.38618   0.00854   0.64409
   0.38618  -0.05131   0.58424
   0.44603  -0.06627   0.56927
   0.49092  -0.09620   0.56927
   0.47596  -0.12613   0.49445
   0.55078  -0.06627   0.47949
   0.50589  -0.06627   0.43460
   0.59567  -0.09620   0.38971
   0.64056  -0.14109   0.34482
   0.65553  -0.08124   0.34482
   0.65553  -0.05131   0.31489
   0.67049  -0.08124   0.27000
   0.71538   0.00854   0.22511
   0.74531   0.03847   0.18022
   0.77524   0.02351   0.19518
   0.73034   0.09833   0.15029
   0.74531   0.08336   0.12036
   0.76027   0.06840   0.12036
   0.76027   0.08336   0.13532
   0.73034   0.05344   0.09043
   0.77524   0.08336   0.10540
   0.73034   0.08336   0.09043
   0.65553   0.06840   0.04554
   0.61063  -0.00642   0.03058
   0.61063   0.11329   0.03058
   0.55078   0.05344   6.5E-40
   0.53582   0.15818   6.5E-40
   0.49092   0.11329  -0.04424
   0.47596   0.18811  -0.08913
   0.49092   0.18811  -0.07417
   0.43107   0.24796  -0.11906
   0.37121   0.24796  -0.13402
   0.31136   0.21804  -0.16395
   0.28143   0.21804  -0.16395
   0.26647   0.20307  -0.16395
   0.26647   0.09833  -0.16395
   0.23654   0.06840  -0.16395
   0.22158   0.08336  -0.13402
   0.17669   0.05344  -0.13402
   0.11683   0.03847  -0.17891
   0.10187  -0.02138  -0.13402
   0.05698  -0.06627  -0.11906
   0.07194  -0.12613  -0.10410
   0.04201  -0.08124  -0.10410
  -0.00288  -0.03635  -0.08913
  -0.03281  -0.02138  -0.11906
  -0.04777  -0.02138  -0.11906
  -0.12259  -0.03635  -0.11906
  -0.15252  -0.08124  -0.08913
  -0.16748  -0.14109  -0.07417
  -0.19741  -0.20095  -0.05920
  -0.21237  -0.20095  -0.02928
  -0.24230  -0.17102   6.5E-40
  -0.27223  -0.17102   6.5E-40
  -0.30215  -0.18598   6.5E-40
  -0.34705  -0.15606   6.5E-40
  -0.33208  -0.14109   0.01561
  -0.36201  -0.20095   0.06051
  -0.34705  -0.15606   0.04554
  -0.36201  -0.14109   0.07547
  -0.40690  -0.17102   0.10540
  -0.33208  -0.11117   0.13532
  -0.39194  -0.11117   0.13532
  -0.39194  -0.05131   0.13532
  -0.42186  -0.00642   0.07547
  -0.40690  -0.02138   0.07547
  -0.43683  -0.00642   0.04554
  -0.42186  -0.09620   0.01561
  -0.40690  -0.08124   0.04554
  -0.42186  -0.09620   0.06051
  -0.37697  -0.08124   0.01561
  -0.37697  -0.12613  -0.02928
  -0.39194  -0.08124  -0.02928
  -0.39194  -0.06627  -0.05920
  -0.42186  -0.02138  -0.10410
  -0.45179   0.00854  -0.10410
  -0.43683   0.02351  -0.11906
  -0.48172  -0.02138  -0.19388
  -0.48172  -0.03635  -0.20884
  -0.51165  -0.00642  -0.25373
  -0.52661  -0.00642  -0.28366
  -0.54157  -0.00642  -0.26870
  -0.58647   0.05344  -0.32855
  -0.60143   0.08336  -0.31359
  -0.63136  -0.03635  -0.35848
  -0.63136   0.00854  -0.38841
  -0.61639  -0.05131  -0.43330
  -0.66129  -0.03635  -0.44826
  -0.63136  -0.02138  -0.46323
  -0.70618   0.03847  -0.49315
  -0.72114   0.08336  -0.56797
  -0.78100   0.11329  -0.59790
  -0.76603   0.08336  -0.62783
  -0.75107   0.06840  -0.67272
  -0.75107   0.09833  -0.68768
  -0.73610   0.05344  -0.67272
  -0.73610   0.11329  -0.71761
  -0.72114   0.06840  -0.77746
  -0.69121   0.08336  -0.74754
  -0.67625   0.11329  -0.82236
  -0.66129   0.09833  -0.83732
  -0.66129   0.11329  -0.80739
  -0.63136   0.09833  -0.86725
  -0.60143   0.00854  -0.91214
  -0.57150   0.00854  -0.88221
  -0.55654  -0.06627  -0.89717
  -0.52661  -0.09620  -0.94207
  -0.52661  -0.12613  -0.92710
  -0.54157  -0.11117  -0.95703
  -0.52661  -0.09620  -1.00192
  -0.52661  -0.08124  -0.98696
  -0.48172  -0.05131  -1.01688
  -0.43683  -0.03635  -1.04681
  -0.43683  -0.03635  -1.04681
  -0.43683  -0.03635  -1.03185
  -0.40690  -0.00642  -1.06178
  -0.37697   0.00854  -1.07674
  -0.36201   0.03847  -1.09170
  -0.28719   0.03847  -1.09170
  -0.25726   0.06840  -1.09170
  -0.24230   0.11329  -1.15156
  -0.25726   0.14322  -1.18149
  -0.25726   0.15818  -1.21141
  -0.27223   0.11329  -1.19645
  -0.24230   0.09833  -1.13659
  -0.22734   0.06840  -1.13659
  -0.19741   0.06840  -1.10667
  -0.16748   0.06840  -1.13659
  -0.12259   0.05344  -1.13659
  -0.12259   0.09833  -1.10667
  -0.10763   0.12825  -1.09170
  -0.13755   0.11329  -1.06178
  -0.13755   0.11329  -1.03185
  -0.18244   0.06840  -1.06178
  -0.16748   0.05344  -1.03185
  -0.10763   0.02351  -1.00192
  -0.10763   0.05344  -0.98696
  -0.12259   0.05344  -0.95703
  -0.09266   0.03847  -0.86725
  -0.10763   0.03847  -0.86725
  -0.09266  -0.05131  -0.83732
  -0.16748  -0.09620  -0.79243
  -0.13755  -0.11117  -0.73257
  -0.13755  -0.12613  -0.67272
  -0.15252  -0.08124  -0.62783
  -0.13755  -0.14109  -0.56797
  -0.10763  -0.11117  -0.53804
  -0.06273  -0.14109  -0.47819
  -0.07770  -0.14109  -0.43330
  -0.06273  -0.17102  -0.40337
  -0.03281  -0.15606  -0.32855
  -0.00288  -0.15606  -0.26870
   0.02705  -0.17102  -0.22381
   0.05698  -0.14109  -0.14899
   0.08690  -0.09620  -0.05920
   0.10187  -0.08124  -0.02928
   0.11683  -0.06627   0.06051
   0.08690  -0.06627   0.10540
   0.11683  -0.00642   0.21014
   0.13179   0.02351   0.25503
   0.16172   0.03847   0.34482
   0.19165   0.06840   0.38971
   0.19165   0.02351   0.47949
   0.23654  -0.00642   0.50942
   0.29640   0.08336   0.55431
   0.31136   0.02351   0.55431
   0.29640   0.11329   0.61417
   0.28143   0.12825   0.67402
   0.28143   0.15818   0.73388
   0.29640   0.14322   0.71891
   0.34129   0.11329   0.74884
   0.40114   0.12825   0.80869
   0.43107   0.12825   0.80869
   0.44603   0.17315   0.83862
   0.43107   0.12825   0.86855
   0.43107   0.14322   0.86855
   0.43107   0.14322   0.88351
   0.50589   0.18811   0.91344
   0.50589   0.26293   0.91344
   0.52085   0.29286   0.91344
   0.53582   0.32278   0.94337
   0.52085   0.27789   0.88351
   0.53582   0.29286   0.92840
   0.58071   0.26293   0.91344
   0.59567   0.33775   0.98826
   0.58071   0.35271   0.97330
   0.59567   0.35271   1.01819
   0.55078   0.33775   1.01819
   0.56574   0.27789   1.01819
   0.58071   0.29286   1.04811
   0.59567   0.21804   1.04811
   0.62560   0.20307   1.07804
   0.59567   0.17315   1.09301
   0.58071   0.15818   1.10797
   0.53582   0.17315   1.10797
   0.58071   0.15818   1.07804
   0.58071   0.12825   1.09301
   0.61063   0.12825   1.09301
   0.58071   0.12825   1.10797
   0.56574   0.11329   1.10797
   0.55078   0.11329   1.13790
   0.56574   0.09833   1.12293
   0.52085   0.03847   1.07804
   0.50589   0.02351   1.06308
   0.49092  -0.02138   1.04811
   0.47596  -0.00642   1.03315
   0.49092  -0.03635   1.00322
   0.49092  -0.00642   0.95833
   0.50589  -0.05131   0.92840
   0.46100  -0.08124   0.91344
   0.47596  -0.11117   0.89848
   0.49092  -0.20095   0.91344
   0.47596  -0.24584   0.82366
   0.49092  -0.26080   0.83862
   0.52085  -0.24584   0.80869
   0.46100  -0.30569   0.76380
   0.50589  -0.27577   0.76380
   0.47596  -0.23088   0.71891
   0.50589  -0.24584   0.67402
   0.52085  -0.21591   0.61417
   0.53582  -0.23088   0.59920
   0.52085  -0.24584   0.55431
   0.47596  -0.21591   0.55431
   0.44603  -0.24584   0.53935
   0.46100  -0.20095   0.55431
   0.46100  -0.17102   0.50942
   0.44603  -0.15606   0.47949
   0.50589  -0.11117   0.46453
   0.44603  -0.12613   0.41964
   0.44603  -0.09620   0.41964
   0.43107  -0.15606   0.41964
   0.38618  -0.18598   0.34482
   0.35625  -0.20095   0.32985
   0.37121  -0.21591   0.32985
   0.35625  -0.24584   0.27000
   0.31136  -0.20095   0.29993
   0.31136  -0.15606   0.28496
   0.31136  -0.17102   0.27000
   0.29640  -0.17102   0.27000
   0.28143  -0.18598   0.29993
   0.23654  -0.27577   0.24007
   0.20661  -0.21591   0.29993
   0.19165  -0.26080   0.25503
   0.16172  -0.29073   0.27000
   0.11683  -0.29073   0.29993
   0.08690  -0.29073   0.28496
   0.07194  -0.26080   0.32985
   0.05698  -0.27577   0.29993
   0.07194  -0.29073   0.31489
   0.07194  -0.30569   0.37474
   0.05698  -0.29073   0.35978
   0.07194  -0.29073   0.40467
   0.08690  -0.29073   0.43460
   0.05698  -0.30569   0.43460
   0.04201  -0.30569   0.46453
  -0.03281  -0.32066   0.41964
  -0.04777  -0.36555   0.46453
  -0.01784  -0.35059   0.49445
  -0.06273  -0.33562   0.49445
  -0.09266  -0.33562   0.47949
  -0.07770  -0.35059   0.49445
  -0.09266  -0.33562   0.52438
  -0.12259  -0.30569   0.46453
  -0.13755  -0.30569   0.50942
  -0.15252  -0.27577   0.46453
  -0.16748  -0.23088   0.44956
  -0.18244  -0.14109   0.46453
  -0.22734  -0.05131   0.41964
  -0.28719  -0.03635   0.38971
  -0.28719   0.05344   0.35978
  -0.34705   0.09833   0.28496
  -0.36201   0.12825   0.27000
  -0.36201   0.18811   0.24007
  -0.42186   0.20307   0.21014
  -0.42186   0.18811   0.16525
  -0.43683   0.21804   0.16525
  -0.45179   0.23300   0.10540
  -0.45179   0.27789   0.10540
  -0.45179   0.26293   0.06051
  -0.46676   0.30782   0.01561
  -0.54157   0.36767  -0.07417
  -0.52661   0.35271  -0.10410
  -0.57150   0.41257  -0.16395
  -0.55654   0.42753  -0.22381
  -0.55654   0.42753  -0.26870
  -0.54157   0.44249  -0.34352
  -0.51165   0.45746  -0.41833
  -0.51165   0.39760  -0.50812
  -0.51165   0.39760  -0.58294
  -0.52661   0.32278  -0.68768
  -0.51165   0.35271  -0.68768
  -0.48172   0.33775  -0.73257
  -0.45179   0.33775  -0.77746
  -0.45179   0.36767  -0.88221
  -0.45179   0.32278  -0.94207
  -0.48172   0.33775  -0.97199
  -0.48172   0.32278  -1.06178
  -0.46676   0.30782  -1.10667
  -0.45179   0.29286  -1.13659
  -0.43683   0.26293  -1.21141
  -0.43683   0.24796  -1.22638
  -0.43683   0.26293  -1.25631
  -0.45179   0.27789  -1.30120
  -0.43683   0.24796  -1.31616
  -0.51165   0.23300  -1.31616
  -0.51165   0.21804  -1.34609
  -0.52661   0.21804  -1.37602
  -0.51165   0.23300  -1.45083
  -0.51165   0.18811  -1.42091
  -0.57150   0.17315  -1.42091
  -0.60143   0.17315  -1.42091
  -0.64632   0.12825  -1.43587
  -0.63136   0.11329  -1.45083
  -0.66129   0.12825  -1.51069
  -0.60143   0.11329  -1.49573
  -0.61639   0.06840  -1.51069
  -0.61639   0.02351  -1.55558
  -0.58647   0.02351  -1.54062
  -0.60143  -0.03635  -1.55558
  -0.58647  -0.00642  -1.49573
  -0.58647  -0.00642  -1.51069
  -0.55654  -0.05131  -1.51069
  -0.52661  -0.08124  -1.48076
  -0.54157  -0.08124  -1.49573
  -0.48172  -0.02138  -1.46580
  -0.48172  -0.05131  -1.43587
  -0.45179  -0.02138  -1.43587
  -0.37697  -0.09620  -1.42091
  -0.40690  -0.12613  -1.40594
  -0.42186  -0.12613  -1.34609
  -0.33208  -0.20095  -1.30120
  -0.31712  -0.12613  -1.24134
  -0.28719  -0.14109  -1.16652
  -0.28719  -0.11117  -1.13659
  -0.25726  -0.12613  -1.09170
  -0.27223  -0.11117  -1.06178
  -0.24230  -0.11117  -0.95703
  -0.24230  -0.11117  -0.88221
  -0.21237  -0.15606  -0.80739
  -0.18244  -0.21591  -0.76250
  -0.15252  -0.14109  -0.67272
  -0.13755  -0.15606  -0.61286
  -0.10763  -0.14109  -0.55301
  -0.12259  -0.11117  -0.49315
  -0.09266  -0.17102  -0.41833
  -0.07770  -0.18598  -0.32855
  -0.07770  -0.24584  -0.31359
   0.05698  -0.24584  -0.20884
   0.05698  -0.26080  -0.17891
   0.05698  -0.26080  -0.11906
   0.07194  -0.30569  -0.11906
   0.10187  -0.30569  -0.01431
   0.08690  -0.26080   0.01561
   0.08690  -0.23088   0.04554
   0.17669  -0.20095   0.04554
   0.19165  -0.24584   0.07547
   0.23654  -0.27577   0.12036
   0.23654  -0.24584   0.19518
   0.23654  -0.21591   0.21014
   0.22158  -0.14109   0.24007
   0.22158  -0.12613   0.28496
   0.22158  -0.05131   0.31489
   0.28143  -0.02138   0.29993
   0.29640   0.00854   0.32985
   0.31136   0.03847   0.34482
   0.29640   0.05344   0.37474
   0.25150   0.05344   0.40467
   0.28143   0.09833   0.40467
   0.28143   0.12825   0.41964
   0.32632   0.20307   0.38971
   0.34129   0.27789   0.38971
   0.31136   0.30782   0.41964
   0.31136   0.30782   0.43460
   0.31136   0.32278   0.40467
   0.34129   0.33775   0.35978
   0.34129   0.32278   0.40467
   0.34129   0.29286   0.37474
   0.34129   0.30782   0.35978
   0.29640   0.30782   0.34482
   0.29640   0.32278   0.31489
   0.32632   0.36767   0.31489
   0.32632   0.36767   0.28496
   0.32632   0.36767   0.22511
   0.31136   0.32278   0.22511
   0.34129   0.26293   0.22511
   0.34129   0.20307   0.24007
   0.32632   0.20307   0.27000
   0.29640   0.18811   0.28496
   0.31136   0.14322   0.29993
   0.26647   0.14322   0.22511
   0.25150   0.14322   0.27000
   0.26647   0.18811   0.31489
   0.23654   0.17315   0.31489
   0.20661   0.12825   0.29993
   0.19165   0.11329   0.28496
   0.20661   0.12825   0.31489
   0.20661   0.15818   0.29993
   0.17669   0.14322   0.35978
   0.16172   0.11329   0.35978
   0.16172   0.08336   0.37474
   0.13179   0.03847   0.37474
   0.13179  -0.00642   0.38971
   0.07194  -0.00642   0.44956
   0.10187  -0.00642   0.50942
   0.10187  -0.05131   0.53935
   0.11683  -0.02138   0.58424
   0.10187  -0.00642   0.56927
   0.07194  -0.02138   0.56927
   0.07194  -0.00642   0.56927
   0.02705   0.02351   0.59920
   0.02705  -0.02138   0.65906
   0.01208  -0.03635   0.67402
   0.05698  -0.08124   0.67402
   0.10187  -0.02138   0.73388
   0.07194  -0.02138   0.73388
   0.07194  -0.05131   0.74884
   0.10187  -0.12613   0.74884
   0.08690  -0.08124   0.74884
   0.07194  -0.09620   0.80869
   0.02705  -0.11117   0.80869
   0.01208  -0.12613   0.83862
   0.02705  -0.15606   0.86855
   0.01208  -0.18598   0.86855
   0.04201  -0.20095   0.88351
   0.07194  -0.15606   0.91344
   0.02705  -0.20095   0.86855
   0.05698  -0.14109   0.89848
  -0.03281  -0.24584   0.85359
   0.02705  -0.27577   0.89848
   0.01208  -0.33562   0.89848
  -0.01784  -0.35059   0.86855
  -0.03281  -0.35059   0.89848
   0.01208  -0.29073   0.88351
   0.01208  -0.30569   0.85359
   0.02705  -0.32066   0.83862
   0.07194  -0.33562   0.88351
   0.04201  -0.39548   0.80869
   0.02705  -0.38051   0.83862
   0.07194  -0.38051   0.83862
   0.04201  -0.39548   0.79373
   0.08690  -0.33562   0.76380
   0.10187  -0.35059   0.80869
   0.07194  -0.35059   0.80869
   0.10187  -0.30569   0.80869
   0.08690  -0.26080   0.73388
   0.14676  -0.20095   0.70395
   0.19165  -0.20095   0.70395
   0.23654  -0.23088   0.74884
   0.25150  -0.21591   0.76380
   0.23654  -0.23088   0.76380
   0.26647  -0.23088   0.71891
   0.28143  -0.18598   0.76380
   0.28143  -0.18598   0.76380
   0.26647  -0.15606   0.77877
   0.29640  -0.11117   0.79373
   0.26647  -0.02138   0.74884
   0.32632  -0.00642   0.70395
   0.37121  -0.00642   0.65906
   0.40114   0.03847   0.64409
   0.43107   0.02351   0.65906
   0.46100   0.00854   0.65906
   0.46100   0.08336   0.67402
   0.41611   0.08336   0.67402
   0.41611   0.12825   0.65906
   0.46100   0.11329   0.53935
   0.53582   0.11329   0.47949
