********************************************************************************
              CENTRO DE INSTRUMENTACION Y REGISTRO SISMICO  A.C.

    Anaxagoras 814, Col. Narvarte, Benito Juarez, C.P. 03020 Mexico, D.F.
           Tels. 5687 45 42/ 5687 45  82             Fax. 5669 25 12
********************************************************************************
ARCHIVO ESTANDAR DE ACELERACION:
VERSION DEL FORMATO                    : 2.0
NOMBRE DEL ARCHIVO                     : BA4920110505132407
FECHA Y HORA DE CREACION               : 01/JUL/11, 12:12
REF. CATALOGO ACELEROGRAMAS, SMIS 1996 : REGISTRO No.     /PAG.


================================================================================
DATOS DE LA ESTACION:
NOMBRE DE LA ESTACION                  : BUENOS AIRES
CLAVE DE LA ESTACION                   : BA49
LOCALIZACION DE LA ESTACION            : Del. Cuauhtémoc, Col. Doctores,        
                                       : Av. Lázaro Cárdenas esq. con           
                                       : Calle Dr. Márquez.                     
                                       :                                        
                                       : 
COORDENADAS DE LA ESTACION             : 19.4097 LAT. N
                                       : 99.1450 LONG. W
ALTITUD (msnm)                         : 2233
TIPO DE SUELO                          : Terreno blando, material compresible
                                       : (arcillas)                
                                       : 
INSTITUCION RESPONSABLE                : CIRES
                                       : 

================================================================================
DATOS DEL ACELEROGRAFO:
MODELO DEL ACELEROGRAFO                : RADESD
NUMERO DE SERIE DEL ACELEROGRAFO       : 176
NUMERO DE CANALES                      : 3
ORIENTACION C1-C6 (rumbo;orientacion)  : /N00E/+V/N90W
ORIENTACION C7-C12 (rumbo;orientacion) : 
VEL. DE MUESTREO, C1-C6 (muestras/s)   : /100/100/100
VEL. DE MUESTREO, C7-C12 (muestras/s)  : 
ESC. COMPLETA DE SENSORES, C1-C6, (g)  : /0.5/0.5/0.5
ESC. COMPLETA DE SENSORES, C7-C12, (g) : 
FREC. NAT. DE SENSORES, C1-C6, (Hz)    : /52.99/52.03/52.99
FREC. NAT. DE SENSORES, C7-C12, (Hz)   : 
AMORTIGUAMIENTO DE SENSORES, C1-C6     : /0.5589/0.5469/0.6096
AMORTIGUAMIENTO DE SENSORES, C7-C12    : 
INTERVALO DE MUESTREO, C1-C6, (s)      : /0.01/0.01/0.01
INTERVALO DE MUESTREO, C7-C12, (s)     : 
UMBRAL DE DISPARO, C1-C6, (Gal)        : /0.96/1.92/0.96
UMBRAL DE DISPARO, C7-C12, (Gal)       : 
MEMORIA DE PREEVENTO (s)               : 56.0
TIEMPO DE POSEVENTO (s)                : 64.0


================================================================================
DATOS DEL SISMO:
FECHA DEL SISMO (GMT)                  : 05/MAY/11
HORA EPICENTRO (GMT)                   : 13:24:07.0
MAGNITUD(ES)                           : /Mc=5.5
COORDENADAS DEL EPICENTRO              : 16.61 LAT. N
                                       : 98.91 LONG. W
PROFUNDIDAD FOCAL (km)                 : 11
FUENTE DE LOS DATOS EPICENTRALES       : SSN
                                       : INSTITUTO DE GEOFISICA, UNAM

================================================================================
DATOS DE ESTE REGISTRO:
HORA DE LA PRIMERA MUESTRA (GMT)       : 13:25:34.00
EXACTITUD DEL TIEMPO (s)               : 0.01
DURACION DEL REGISTRO (s), C1-C6       : /200.5/200.5/200.5
DURACION DEL REGISTRO (s), C7-C12      : 
NUM. TOTAL DE MUESTRAS, C1-C6          : /20050/20050/20050
NUM. TOTAL DE MUESTRAS, C7-C12         : 
ACEL. MAX. (Gal), C1-C6                : /3.20194/2.02892/6.03192
ACEL. MAX., C1-C6, EN LA MUESTRA       : /6517/6780/6123
ACEL. MAX. (Gal), C7-C12               : 
ACEL. MAX., C7-C12, EN LA MUESTRA      : 
UNIDADES DE LOS DATOS                  : Gal (cm/s/s)
FACTOR DE DECIMACION                   : 1
FORMATO DATOS (FORTRAN,10 campos/dato) : 3F10.5


================================================================================
CALIDAD DEL ACELEROGRAMA:
REGISTRO DIGITAL COMPLETO CON TIEMPO ABSOLUTO CORRECTO.


================================================================================
COMENTARIOS:














================================================================================
DATOS DE ACELERACION:
---------+---------+---------+---------+---------+---------+---------+---------+
   CANAL-1   CANAL-2   CANAL-3   CANAL-4   CANAL-5   CANAL-6   CANAL-7   CANAL-8
      N00E        +V      N90W
---------+---------+---------+---------+---------+---------+---------+---------+
[...]
   1.04716   0.60470   2.20120
   0.80774   0.84412   2.44062
   0.80774   0.84412   2.68004
   0.56832   0.60470   3.15888
   0.32890   1.08354   3.15888
   0.32890   1.08354   3.39830
   0.08948   0.84412   3.63772
  -0.14995   0.84412   3.63772
  -0.14995   0.60470   3.63772
  -0.14995   0.60470   3.87714
  -0.14995   0.60470   3.63772
  -0.14995   0.60470   3.63772
  -0.14995   0.60470   3.63772
  -0.14995   0.36528   3.63772
  -0.38937   0.36528   3.39830
  -0.14995   0.36528   3.39830
  -0.38937   0.12586   3.15888
  -0.14995   0.12586   3.15888
   0.08948  -0.11356   3.15888
  -0.14995  -0.35298   2.91946
  -0.14995  -0.35298   2.68004
  -0.14995  -0.35298   2.44062
  -0.14995  -0.11356   2.20120
  -0.38937   0.12586   1.72236
  -0.14995  -0.11356   1.24352
  -0.14995  -0.11356   1.00410
  -0.14995  -0.11356   0.76468
  -0.14995  -0.11356   0.28584
  -0.14995  -0.11356   0.04642
  -0.14995  -0.11356  -0.19300
   0.08948  -0.11356  -0.43243
  -0.14995  -0.35298  -0.67185
   0.08948  -0.11356  -0.91127
   0.08948  -0.11356  -1.15069
  -0.14995  -0.11356  -1.15069
  -0.14995  -0.11356  -1.15069
   0.08948  -0.11356  -1.39011
  -0.14995  -0.11356  -1.39011
   0.08948   0.12586  -1.62953
  -0.14995   0.12586  -1.62953
  -0.14995   0.12586  -1.62953
  -0.14995   0.12586  -2.10837
  -0.38937   0.12586  -1.86895
  -0.62879   0.12586  -1.86895
  -0.38937   0.12586  -1.86895
  -0.62879   0.36528  -1.86895
  -0.86821   0.36528  -2.10837
  -0.86821   0.60470  -2.10837
  -0.86821   0.60470  -2.10837
  -0.62879   0.60470  -2.34779
  -0.62879   0.60470  -1.86895
  -0.86821   0.60470  -2.10837
  -0.62879   0.36528  -2.10837
  -0.62879   0.36528  -2.10837
  -0.62879   0.60470  -1.86895
  -0.62879   0.60470  -1.86895
  -0.62879   0.36528  -1.86895
  -0.38937   0.36528  -1.86895
  -0.14995   0.12586  -1.39011
  -0.14995   0.36528  -1.62953
  -0.14995   0.36528  -1.39011
   0.08948   0.36528  -1.15069
   0.08948   0.12586  -1.15069
   0.32890  -0.11356  -0.91127
   0.32890   0.12586  -0.91127
   0.32890  -0.11356  -0.67185
   0.32890  -0.11356  -0.43243
   0.56832  -0.11356  -0.19300
   0.56832  -0.11356   0.04642
   0.56832  -0.35298   0.28584
   0.80774  -0.11356   0.28584
   0.80774  -0.35298   0.52526
   0.80774  -0.11356   0.52526
   0.80774  -0.35298   0.76468
   1.04716  -0.59240   0.76468
   1.28658  -0.59240   0.76468
   1.04716  -0.59240   1.00410
   1.28658  -0.59240   1.00410
   1.04716  -0.35298   1.48294
   1.28658  -0.35298   1.24352
   1.28658  -0.59240   1.48294
   1.28658  -0.35298   1.48294
   1.28658  -0.35298   1.48294
   1.04716  -0.35298   1.48294
   1.04716  -0.59240   1.72236
   1.04716  -0.59240   1.72236
   1.28658  -0.35298   1.72236
   1.28658  -0.59240   1.96178
   1.04716  -0.59240   1.72236
   1.04716  -0.59240   1.72236
   1.04716  -0.59240   1.96178
   0.80774  -0.59240   1.96178
   0.80774  -0.59240   1.72236
   1.04716  -0.35298   1.72236
   0.80774  -0.59240   1.72236
   0.56832  -0.11356   1.72236
   0.56832  -0.35298   1.96178
   0.56832  -0.35298   1.96178
   0.56832  -0.11356   1.72236
   0.56832  -0.11356   1.96178
   0.56832   0.12586   1.96178
   0.56832   0.12586   1.96178
   0.56832   0.12586   1.96178
   0.80774   0.12586   1.96178
   0.80774   0.12586   2.20120
   0.80774   0.12586   1.96178
   0.80774   0.12586   2.20120
   0.80774   0.12586   2.20120
   0.80774   0.12586   1.96178
   0.80774   0.36528   2.20120
   0.80774   0.36528   2.20120
   0.56832   0.36528   2.44062
   0.32890   0.36528   2.44062
   0.56832   0.12586   2.20120
   0.32890   0.36528   2.44062
   0.08948   0.36528   2.20120
  -0.14995   0.12586   2.44062
  -0.38937   0.12586   2.20120
  -0.62879   0.12586   2.20120
  -0.62879  -0.11356   2.20120
  -1.10763  -0.11356   1.96178
  -1.10763  -0.11356   2.20120
  -1.58647  -0.11356   1.96178
  -1.58647  -0.11356   1.96178
  -1.82589   0.36528   1.72236
  -2.06531   0.36528   1.72236
  -2.06531   0.12586   1.72236
  -2.30473   0.12586   1.24352
  -2.30473   0.36528   1.24352
  -2.06531   0.12586   1.00410
  -2.06531   0.36528   0.76468
  -2.06531   0.36528   0.52526
  -2.06531   0.36528   0.28584
  -2.30473   0.36528   0.04642
  -1.82589   0.60470  -0.19300
  -1.82589   0.36528  -0.19300
  -1.82589   0.36528  -0.67185
  -1.58647   0.36528  -0.67185
  -1.34705   0.60470  -0.67185
  -1.10763   0.36528  -0.91127
  -1.10763   0.60470  -1.15069
  -0.62879   0.36528  -1.39011
  -0.62879   0.12586  -1.86895
  -0.38937   0.12586  -1.86895
  -0.14995   0.12586  -2.10837
   0.08948  -0.11356  -2.10837
   0.08948  -0.11356  -2.34779
   0.32890  -0.35298  -2.34779
   0.56832  -0.35298  -2.58721
   0.56832  -0.35298  -2.58721
   0.80774  -0.35298  -2.58721
   0.80774  -0.35298  -2.82663
   0.80774  -0.35298  -2.82663
   0.80774  -0.11356  -2.82663
   1.04716  -0.11356  -2.82663
   0.80774  -0.11356  -2.82663
   0.80774  -0.11356  -2.82663
   0.80774  -0.11356  -2.58721
   0.80774  -0.11356  -2.82663
   0.56832  -0.11356  -2.58721
   0.56832   0.12586  -2.10837
   0.32890  -0.11356  -1.86895
   0.32890   0.12586  -1.86895
   0.08948   0.12586  -1.62953
  -0.14995   0.36528  -1.39011
  -0.38937   0.12586  -1.15069
  -0.38937   0.60470  -1.15069
  -0.62879   0.36528  -0.91127
  -0.62879   0.36528  -0.67185
  -0.62879   0.36528  -0.19300
  -0.86821   0.60470  -0.19300
  -1.10763   0.60470   0.04642
  -1.10763   0.36528   0.28584
  -1.34705   0.36528   0.28584
  -1.34705   0.36528   0.28584
  -1.58647   0.12586   0.52526
  -1.58647   0.12586   0.76468
  -1.58647   0.12586   0.76468
  -1.82589  -0.11356   0.76468
  -1.58647  -0.11356   0.76468
  -1.82589  -0.35298   0.76468
  -1.58647  -0.35298   0.76468
  -1.58647  -0.59240   0.76468
  -1.82589  -0.83182   0.76468
  -1.34705  -0.83182   0.76468
  -1.34705  -0.83182   0.76468
  -1.34705  -1.31066   0.52526
  -1.34705  -1.31066   0.28584
  -1.10763  -1.31066   0.52526
  -0.86821  -1.31066   0.28584
  -0.86821  -1.55008   0.04642
  -0.86821  -1.31066   0.04642
  -0.62879  -1.55008   0.04642
  -0.62879  -1.31066  -0.43243
  -0.62879  -1.55008  -0.43243
  -0.38937  -1.07124  -0.67185
  -0.38937  -1.31066  -0.91127
  -0.38937  -1.07124  -1.15069
  -0.14995  -1.07124  -1.15069
  -0.14995  -0.83182  -1.62953
  -0.14995  -0.83182  -1.86895
   0.32890  -0.59240  -2.10837
   0.08948  -0.35298  -2.10837
   0.56832  -0.35298  -2.34779
   0.56832  -0.35298  -2.34779
   0.56832  -0.11356  -2.58721
   0.80774  -0.35298  -2.34779
   1.04716  -0.11356  -2.82663
   1.28658  -0.11356  -2.58721
   1.52600  -0.35298  -2.58721
   1.76542  -0.11356  -2.82663
   1.52600   0.12586  -2.82663
   1.76542   0.12586  -2.58721
   1.76542   0.36528  -2.34779
   1.76542  -0.11356  -2.10837
   2.00484   0.12586  -2.10837
   2.00484   0.36528  -1.86895
   2.00484   0.12586  -1.62953
   2.24426   0.12586  -1.15069
   2.24426   0.60470  -1.15069
   2.00484   0.60470  -0.67185
   2.24426   0.84412  -0.19300
   2.24426   0.84412  -0.19300
   2.24426   0.84412   0.28584
   2.00484   1.08354   0.76468
   2.24426   1.08354   0.76468
   2.00484   1.08354   1.00410
   2.00484   0.84412   1.72236
   2.00484   0.84412   1.72236
   1.76542   0.84412   1.96178
   1.52600   0.84412   2.20120
   1.28658   1.08354   2.20120
   1.28658   1.08354   2.44062
   1.04716   0.84412   2.44062
   0.80774   1.08354   2.68004
   0.80774   0.84412   2.68004
   0.56832   1.08354   2.68004
   0.56832   1.08354   2.44062
   0.32890   1.08354   2.20120
   0.32890   1.08354   2.20120
   0.08948   1.08354   2.20120
  -0.14995   1.08354   2.44062
  -0.38937   0.84412   2.20120
  -0.38937   0.84412   1.96178
  -0.38937   0.60470   1.96178
  -0.62879   0.60470   1.72236
  -0.86821   0.36528   1.72236
  -0.62879   0.36528   1.48294
  -0.62879   0.36528   1.24352
  -0.86821   0.60470   1.24352
  -0.86821   0.36528   1.00410
  -0.86821   0.36528   0.76468
  -0.86821   0.12586   0.52526
  -0.86821   0.12586   0.28584
  -0.86821  -0.11356   0.28584
  -0.86821  -0.35298   0.28584
  -0.86821   0.12586  -0.19300
  -0.86821   0.12586  -0.19300
  -0.86821  -0.11356  -0.67185
  -1.10763  -0.11356  -0.91127
  -0.86821   0.12586  -0.91127
  -0.86821   0.12586  -1.15069
  -0.86821   0.12586  -1.15069
  -1.10763   0.12586  -1.39011
  -0.86821   0.12586  -1.62953
  -0.86821  -0.11356  -1.86895
  -1.10763  -0.11356  -1.86895
  -1.10763  -0.11356  -2.10837
  -1.10763  -0.11356  -2.34779
  -1.10763  -0.35298  -2.58721
  -1.10763  -0.11356  -2.58721
  -1.10763   0.12586  -2.82663
  -1.10763   0.36528  -3.06605
  -1.10763   0.12586  -2.82663
  -1.10763   0.12586  -2.82663
  -1.10763   0.12586  -3.06605
  -1.10763  -0.11356  -2.82663
  -1.10763  -0.11356  -2.58721
  -0.86821  -0.11356  -2.34779
  -0.86821  -0.11356  -2.10837
  -0.62879  -0.11356  -2.10837
  -0.62879  -0.35298  -1.86895
  -0.62879  -0.35298  -1.62953
  -0.38937  -0.35298  -1.39011
  -0.38937  -0.35298  -1.15069
  -0.38937  -0.35298  -0.91127
  -0.38937  -0.35298  -0.91127
  -0.14995  -0.35298  -0.67185
  -0.38937  -0.35298  -0.43243
  -0.38937  -0.59240  -0.19300
  -0.38937  -0.83182  -0.19300
  -0.38937  -0.35298  -0.19300
  -0.14995  -0.59240  -0.19300
  -0.38937  -0.59240  -0.19300
  -0.38937  -0.59240  -0.19300
  -0.38937  -0.59240  -0.43243
  -0.38937  -0.35298  -0.43243
  -0.38937  -0.35298  -0.67185
  -0.38937  -0.11356  -0.43243
  -0.38937  -0.35298  -0.43243
  -0.38937  -0.35298  -0.67185
  -0.14995  -0.35298  -0.67185
  -0.14995  -0.35298  -0.67185
  -0.14995  -0.11356  -0.67185
  -0.14995  -0.11356  -0.91127
  -0.14995  -0.11356  -0.91127
   0.08948   0.12586  -1.15069
   0.32890  -0.35298  -0.91127
   0.32890  -0.11356  -1.15069
   0.32890  -0.35298  -1.15069
   0.56832  -0.35298  -1.15069
   0.80774  -0.11356  -1.15069
   1.04716  -0.11356  -1.15069
   1.04716  -0.11356  -1.15069
   1.04716  -0.35298  -0.91127
   1.28658  -0.11356  -0.91127
   1.52600  -0.11356  -1.15069
   1.52600  -0.11356  -0.91127
   1.52600  -0.35298  -0.67185
   1.76542  -0.35298  -0.67185
   1.76542  -0.11356  -0.43243
   1.76542  -0.11356  -0.43243
   2.24426  -0.11356  -0.19300
   2.24426  -0.11356   0.04642
   2.24426   0.12586   0.04642
   2.24426  -0.11356   0.28584
   2.48368   0.12586   0.52526
   2.48368   0.36528   0.52526
   2.48368   0.12586   0.76468
   2.72310  -0.11356   1.00410
   2.96252   0.12586   1.00410
   2.96252   0.12586   1.48294
   2.72310   0.12586   1.48294
   2.72310   0.12586   1.96178
   2.72310   0.12586   2.20120
   2.72310   0.12586   2.68004
   2.72310   0.12586   2.91946
   2.48368  -0.11356   3.63772
   2.24426  -0.11356   3.87714
   2.00484  -0.11356   4.35598
   1.76542  -0.35298   4.59540
   1.52600  -0.35298   5.07424
   1.28658   0.12586   5.31366
   0.80774   0.12586   5.55308
   0.80774   0.12586   5.79250
   0.32890   0.12586   5.79250
   0.08948   0.12586   6.03192
  -0.14995   0.36528   6.03192
  -0.38937   0.36528   6.03192
  -0.62879   0.36528   5.55308
  -0.86821   0.36528   5.55308
  -1.34705   0.60470   5.31366
  -1.58647   0.36528   4.83482
  -1.82589   0.36528   4.11656
  -1.82589   0.36528   4.11656
  -2.06531   0.60470   3.39830
  -2.30473   0.60470   2.91946
  -2.30473   0.60470   2.44062
  -2.54415   0.60470   1.96178
  -2.78357   0.36528   1.48294
  -2.78357   0.60470   1.00410
  -2.78357   0.36528   0.52526
  -2.78357   0.36528   0.04642
  -2.78357   0.36528  -0.19300
  -2.78357   0.36528  -0.43243
  -2.78357   0.12586  -0.67185
  -2.54415   0.12586  -0.91127
  -2.30473   0.36528  -0.91127
  -2.06531   0.12586  -1.15069
  -2.06531   0.36528  -1.39011
  -2.06531   0.36528  -1.62953
  -1.82589   0.36528  -1.39011
  -1.82589   0.12586  -1.62953
  -1.58647   0.12586  -1.62953
  -1.58647  -0.11356  -1.62953
  -1.34705  -0.11356  -1.62953
  -1.34705  -0.35298  -1.62953
  -1.34705  -0.35298  -1.62953
  -1.34705  -0.35298  -1.62953
  -1.34705  -0.59240  -1.62953
  -1.34705  -0.35298  -1.62953
  -1.10763  -0.59240  -1.62953
  -1.34705  -0.35298  -1.86895
  -1.10763  -0.35298  -1.86895
  -1.10763  -0.35298  -1.86895
  -1.10763  -0.35298  -1.86895
  -0.86821  -0.35298  -2.10837
  -0.86821  -0.11356  -2.10837
  -0.86821   0.12586  -2.10837
  -0.62879   0.12586  -2.10837
  -0.38937   0.12586  -2.10837
  -0.38937   0.12586  -2.10837
  -0.38937   0.12586  -2.10837
  -0.38937   0.12586  -1.86895
  -0.38937  -0.11356  -1.86895
  -0.14995   0.12586  -1.62953
  -0.14995  -0.11356  -1.62953
  -0.14995  -0.35298  -1.39011
  -0.14995   0.12586  -1.15069
  -0.14995  -0.11356  -0.91127
   0.08948  -0.11356  -0.91127
   0.08948  -0.35298  -0.43243
   0.08948  -0.11356  -0.19300
   0.08948  -0.35298   0.04642
  -0.14995  -0.11356   0.04642
   0.08948  -0.11356   0.28584
   0.08948   0.12586   0.28584
   0.08948   0.12586   0.52526
   0.32890   0.12586   0.52526
   0.08948   0.12586   0.52526
   0.32890   0.12586   0.52526
   0.32890   0.12586   0.28584
   0.32890  -0.11356   0.28584
   0.32890  -0.11356   0.28584
   0.56832  -0.11356   0.04642
   0.56832  -0.11356   0.04642
   0.56832  -0.11356   0.04642
   0.56832  -0.11356  -0.19300
   0.80774  -0.11356  -0.43243
   0.80774  -0.11356  -0.43243
   1.04716  -0.11356  -0.43243
   1.04716  -0.35298  -0.91127
   1.04716  -0.59240  -0.43243
   1.28658  -0.59240  -0.91127
   1.28658  -0.59240  -0.67185
   1.28658  -0.83182  -0.67185
   1.28658  -0.59240  -0.67185
   1.28658  -0.83182  -0.67185
   1.28658  -0.59240  -0.43243
   1.28658  -0.83182  -0.43243
   1.28658  -0.83182  -0.19300
   1.28658  -1.07124   0.04642
   1.28658  -0.83182   0.28584
   1.28658  -1.07124   0.52526
   1.04716  -0.83182   0.76468
   1.04716  -0.83182   1.00410
   1.04716  -0.83182   1.24352
   1.04716  -0.59240   1.72236
   1.04716  -0.59240   1.72236
   1.04716  -0.59240   2.20120
   1.04716  -0.35298   2.20120
   1.28658  -0.35298   2.44062
   1.04716  -0.35298   2.68004
   1.04716  -0.35298   2.68004
   1.04716  -0.35298   2.68004
   1.04716  -0.11356   2.91946
   1.04716  -0.11356   3.15888
   0.80774  -0.11356   2.91946
   1.04716  -0.11356   2.91946
   1.04716  -0.11356   2.91946
   0.80774   0.12586   2.91946
   0.80774  -0.11356   3.15888
   0.56832   0.36528   2.91946
   0.32890   0.36528   2.68004
   0.32890   0.36528   2.44062
   0.08948   0.12586   2.44062
  -0.14995   0.36528   2.20120
  -0.38937   0.36528   2.20120
  -0.62879   0.36528   1.96178
  -0.86821   0.60470   1.96178
  -1.10763   0.84412   1.72236
  -1.34705   1.08354   1.48294
  -1.58647   0.84412   1.24352
  -1.82589   1.08354   1.00410
  -2.06531   1.08354   0.76468
  -2.30473   1.32296   0.76468
  -2.54415   1.32296   0.28584
  -2.54415   1.32296   0.04642
  -2.54415   1.56238  -0.43243
  -2.54415   1.32296  -0.67185
  -2.54415   1.32296  -0.91127
  -2.30473   1.32296  -1.15069
  -2.30473   1.32296  -1.62953
  -2.06531   1.08354  -1.86895
  -1.82589   0.84412  -2.10837
  -1.58647   0.84412  -2.58721
  -1.58647   0.84412  -2.82663
  -1.34705   0.60470  -3.06605
  -1.10763   0.60470  -3.30547
  -0.86821   0.60470  -3.54489
  -0.62879   0.36528  -3.54489
  -0.38937   0.36528  -3.78431
  -0.38937   0.12586  -3.78431
  -0.14995   0.12586  -3.78431
   0.32890   0.12586  -4.02373
   0.32890   0.12586  -3.78431
   0.56832  -0.11356  -3.78431
   0.80774  -0.35298  -3.78431
   0.80774  -0.35298  -3.54489
   1.04716  -0.59240  -3.30547
   1.28658  -0.83182  -3.06605
   1.28658  -0.83182  -2.82663
   1.28658  -1.07124  -2.82663
   1.28658  -0.83182  -2.82663
   1.04716  -1.07124  -2.58721
   1.28658  -0.83182  -2.34779
