********************************************************************************
              CENTRO DE INSTRUMENTACION Y REGISTRO SISMICO  A.C.

    Anaxagoras 814, Col. Narvarte, Benito Juarez, C.P. 03020 Mexico, D.F.
           Tels. 5687 45 42/ 5687 45  82             Fax. 5669 25 12
********************************************************************************
ARCHIVO ESTANDAR DE ACELERACION:
VERSION DEL FORMATO                    : 2.0
NOMBRE DEL ARCHIVO                     : BA4920090327084816
FECHA Y HORA DE CREACION               : 11/AGO/14, 12:50
REF. CATALOGO ACELEROGRAMAS, SMIS 1996 : REGISTRO No.     /PAG.


================================================================================
DATOS DE LA ESTACION:
NOMBRE DE LA ESTACION                  : BUENOS AIRES
CLAVE DE LA ESTACION                   : BA49
LOCALIZACION DE LA ESTACION            : Del. Cuauhtémoc, Col. Doctores,        
                                       : Av. Lázaro Cárdenas esq. con           
                                       : Calle Dr. Márquez.                     
                                       :                                        
                                       : 
COORDENADAS DE LA ESTACION             : 19.4097 LAT. N
                                       : 99.1450 LONG. W
ALTITUD (msnm)                         : 2233
TIPO DE SUELO                          : Terreno blando, material compresible
                                       : (arcillas)                
                                       : 
INSTITUCION RESPONSABLE                : CIRES
                                       : 

================================================================================
DATOS DEL ACELEROGRAFO:
MODELO DEL ACELEROGRAFO                : RADESD
NUMERO DE SERIE DEL ACELEROGRAFO       : 176
NUMERO DE CANALES                      : 3
ORIENTACION C1-C6 (rumbo;orientacion)  : /S00E/+V/N90W
ORIENTACION C7-C12 (rumbo;orientacion) : 
VEL. DE MUESTREO, C1-C6 (muestras/s)   : /100/100/100
VEL. DE MUESTREO, C7-C12 (muestras/s)  : 
ESC. COMPLETA DE SENSORES, C1-C6, (g)  : /0.5/0.5/0.5
ESC. COMPLETA DE SENSORES, C7-C12, (g) : 
FREC. NAT. DE SENSORES, C1-C6, (Hz)    : /52.99/52.03/52.99
FREC. NAT. DE SENSORES, C7-C12, (Hz)   : 
AMORTIGUAMIENTO DE SENSORES, C1-C6     : /0.5589/0.5469/0.6096
AMORTIGUAMIENTO DE SENSORES, C7-C12    : 
INTERVALO DE MUESTREO, C1-C6, (s)      : /0.01/0.01/0.01
INTERVALO DE MUESTREO, C7-C12, (s)     : 
UMBRAL DE DISPARO, C1-C6, (Gal)        : /0.96/1.92/0.96
UMBRAL DE DISPARO, C7-C12, (Gal)       : 
MEMORIA DE PREEVENTO (s)               : 56.0
TIEMPO DE POSEVENTO (s)                : 64.0


================================================================================
DATOS DEL SISMO:
FECHA DEL SISMO (GMT)                  : 27/MAR/09
HORA EPICENTRO (GMT)                   : 08:48:16.0
MAGNITUD(ES)                           : /Mc=5.3
COORDENADAS DEL EPICENTRO              : 17.35 LAT. N
                                       : 100.82 LONG. W
PROFUNDIDAD FOCAL (km)                 : 30
FUENTE DE LOS DATOS EPICENTRALES       : SSN
                                       : INSTITUTO DE GEOFISICA, UNAM

================================================================================
DATOS DE ESTE REGISTRO:
HORA DE LA PRIMERA MUESTRA (GMT)       : 08:49:37.00
EXACTITUD DEL TIEMPO (s)               : 0.01
DURACION DEL REGISTRO (s), C1-C6       : /96.5/96.5/96.5
DURACION DEL REGISTRO (s), C7-C12      : 
NUM. TOTAL DE MUESTRAS, C1-C6          : /9650/9650/9650
NUM. TOTAL DE MUESTRAS, C7-C12         : 
ACEL. MAX. (Gal), C1-C6                : /2.89282/1.30654/1.98786
ACEL. MAX., C1-C6, EN LA MUESTRA       : /6583/7298/6884
ACEL. MAX. (Gal), C7-C12               : 
ACEL. MAX., C7-C12, EN LA MUESTRA      : 
UNIDADES DE LOS DATOS                  : Gal (cm/s/s)
FACTOR DE DECIMACION                   : 1
FORMATO DATOS (FORTRAN,10 campos/dato) : 3F10.5


================================================================================
CALIDAD DEL ACELEROGRAMA:
REGISTRO DIGITAL COMPLETO CON TIEMPO ABSOLUTO CORRECTO.


================================================================================
COMENTARIOS:














================================================================================
DATOS DE ACELERACION:
---------+---------+---------+---------+---------+---------+---------+---------+
   CANAL-1   CANAL-2   CANAL-3   CANAL-4   CANAL-5   CANAL-6   CANAL-7   CANAL-8
      S00E        +V      N90W
---------+---------+---------+---------+---------+---------+---------+---------+
[...]
   1.45629   0.12998  -0.07250
   1.21687   0.36940  -0.07250
   1.21687   0.36940  -0.31192
   1.21687   0.36940  -0.31192
   1.21687   0.84824  -0.31192
   1.21687   0.60882  -0.31192
   0.97745   0.60882  -0.31192
   0.73803   0.60882  -0.31192
   0.73803   0.84824  -0.31192
   0.49861   0.84824  -0.31192
   0.49861   0.84824  -0.31192
   0.25919   0.36940  -0.07250
   0.01977   0.36940  -0.07250
   0.01977   0.36940  -0.07250
  -0.21965   0.36940  -0.07250
  -0.45907   0.36940   0.16692
  -0.45907   0.36940   0.16692
  -0.45907   0.36940   0.16692
  -0.69849  -0.10944   0.40634
  -0.69849   0.12998   0.40634
  -0.93791   0.12998   0.64576
  -0.69849   0.12998   0.64576
  -0.93791   0.12998   0.64576
  -0.93791   0.12998   0.64576
  -0.93791   0.12998   0.64576
  -0.93791   0.12998   0.40634
  -0.69849   0.12998   0.64576
  -0.69849  -0.10944   0.64576
  -0.69849  -0.10944   0.64576
  -0.69849  -0.10944   0.88518
  -0.69849  -0.10944   0.64576
  -0.45907  -0.10944   0.64576
  -0.45907  -0.10944   0.64576
  -0.21965  -0.10944   0.64576
  -0.21965  -0.10944   0.64576
  -0.21965  -0.34886   0.64576
   0.01977  -0.34886   0.40634
   0.01977  -0.34886   0.40634
   0.25919  -0.58828   0.64576
   0.25919  -0.58828   0.40634
   0.49861  -0.82770   0.40634
   0.49861  -0.58828   0.40634
   0.49861  -0.82770   0.40634
   0.73803  -0.58828   0.16692
   0.73803  -0.58828   0.40634
   0.97745  -0.58828   0.16692
   1.21687  -0.58828   0.16692
   1.21687  -0.58828   0.16692
   1.21687  -0.34886   0.16692
   1.45629  -0.10944   0.16692
   1.45629  -0.10944   0.16692
   1.45629  -0.34886  -0.07250
   1.69572  -0.34886  -0.07250
   1.69572  -0.10944  -0.31192
   1.93514  -0.10944  -0.31192
   1.93514  -0.10944  -0.31192
   1.93514   0.12998  -0.31192
   1.93514   0.12998  -0.31192
   1.93514   0.12998  -0.31192
   1.93514   0.36940  -0.31192
   1.93514   0.12998  -0.55134
   1.93514   0.36940  -0.55134
   1.93514   0.12998  -0.31192
   1.93514   0.36940  -0.55134
   1.69572   0.36940  -0.55134
   1.69572   0.60882  -0.31192
   1.69572   0.60882  -0.55134
   1.69572   0.60882  -0.31192
   1.45629   0.60882  -0.31192
   1.45629   0.60882  -0.31192
   1.45629   0.60882  -0.31192
   1.21687   0.60882  -0.31192
   0.97745   0.60882  -0.31192
   0.97745   0.84824  -0.07250
   0.97745   0.60882  -0.07250
   0.97745   0.60882   0.16692
   0.73803   0.60882  -0.07250
   0.49861   0.36940   0.16692
   0.49861   0.36940   0.16692
   0.49861   0.36940   0.16692
   0.49861   0.12998   0.16692
   0.25919   0.36940   0.16692
   0.25919   0.12998   0.16692
   0.25919  -0.10944   0.40634
   0.25919  -0.10944   0.40634
   0.25919  -0.10944   0.40634
   0.01977  -0.10944   0.40634
   0.01977  -0.10944   0.16692
  -0.21965  -0.10944   0.40634
   0.01977  -0.10944   0.16692
   0.01977  -0.34886   0.16692
   0.01977  -0.10944   0.40634
   0.01977  -0.10944   0.40634
  -0.21965  -0.10944   0.16692
   0.01977  -0.34886   0.40634
   0.01977  -0.10944   0.40634
   0.01977  -0.34886   0.16692
   0.25919  -0.10944   0.16692
   0.01977  -0.34886   0.16692
   0.01977  -0.34886   0.40634
   0.25919  -0.34886   0.40634
   0.25919  -0.34886   0.16692
   0.25919  -0.34886   0.16692
   0.25919  -0.34886   0.16692
   0.25919  -0.58828   0.16692
   0.25919  -0.58828  -0.07250
   0.25919  -0.58828  -0.07250
   0.25919  -0.34886  -0.07250
   0.25919  -0.34886  -0.31192
   0.73803  -0.10944  -0.31192
   0.49861   0.12998  -0.31192
   0.49861   0.12998  -0.31192
   0.25919  -0.10944  -0.55134
   0.25919   0.12998  -0.55134
   0.25919   0.12998  -0.79076
   0.25919   0.12998  -0.79076
   0.25919   0.12998  -0.79076
   0.01977   0.12998  -0.79076
   0.01977   0.12998  -0.79076
   0.01977   0.12998  -1.03018
  -0.21965   0.12998  -1.03018
  -0.21965   0.12998  -0.79076
  -0.21965  -0.10944  -0.79076
  -0.45907   0.36940  -0.79076
  -0.45907   0.36940  -0.79076
  -0.45907   0.36940  -0.79076
  -0.69849   0.12998  -0.55134
  -0.69849   0.12998  -0.55134
  -0.93791   0.36940  -0.55134
  -0.93791   0.36940  -0.55134
  -1.17733   0.36940  -0.55134
  -0.93791   0.36940  -0.31192
  -0.93791   0.36940  -0.31192
  -0.93791   0.36940  -0.31192
  -1.17733   0.36940  -0.31192
  -0.93791   0.36940  -0.07250
  -0.93791   0.12998  -0.07250
  -0.69849   0.36940  -0.07250
  -0.69849   0.12998  -0.07250
  -0.45907   0.12998  -0.07250
  -0.45907  -0.10944  -0.07250
  -0.21965  -0.10944  -0.07250
  -0.21965  -0.10944  -0.07250
   0.01977  -0.10944   0.16692
   0.01977  -0.58828   0.16692
   0.25919  -0.58828   0.16692
   0.49861  -0.58828   0.16692
   0.49861  -0.82770   0.16692
   0.25919  -0.82770   0.16692
   0.49861  -0.58828   0.16692
   0.49861  -0.82770   0.16692
   0.49861  -0.82770   0.16692
   0.73803  -0.82770   0.16692
   0.73803  -0.58828   0.16692
   0.49861  -0.82770   0.16692
   0.49861  -0.82770   0.16692
   0.49861  -0.58828   0.16692
   0.49861  -0.58828   0.16692
   0.49861  -0.34886   0.16692
   0.49861  -0.10944   0.16692
   0.25919  -0.10944   0.16692
   0.25919  -0.10944   0.16692
   0.01977   0.36940   0.16692
   0.01977   0.12998  -0.07250
   0.01977   0.36940  -0.07250
   0.01977   0.60882  -0.07250
  -0.21965   0.60882  -0.07250
  -0.21965   0.60882  -0.07250
  -0.21965   0.60882  -0.79076
  -0.21965   0.60882  -0.31192
  -0.45907   0.84824  -0.31192
  -0.45907   0.60882  -0.31192
  -0.45907   0.60882  -0.55134
  -0.45907   0.60882  -0.55134
  -0.45907   0.60882  -0.55134
  -0.45907   0.60882  -0.55134
  -0.45907   0.60882  -0.55134
  -0.45907   0.36940  -0.31192
  -0.69849   0.60882  -0.55134
  -0.69849   0.12998  -0.55134
  -0.69849   0.36940  -0.31192
  -0.93791   0.12998  -0.31192
  -0.93791   0.12998  -0.31192
  -1.17733   0.12998  -0.31192
  -1.17733   0.12998   0.16692
  -1.17733   0.12998  -0.07250
  -1.41675   0.12998  -0.07250
  -1.41675   0.12998   0.16692
  -1.41675  -0.10944  -0.07250
  -1.65617  -0.10944  -0.07250
  -1.65617   0.12998   0.16692
  -1.65617  -0.10944   0.16692
  -1.65617  -0.10944   0.16692
  -1.89559  -0.10944   0.16692
  -1.89559  -0.10944   0.16692
  -1.89559  -0.34886   0.16692
  -1.89559  -0.10944   0.16692
  -1.89559  -0.34886   0.16692
  -1.89559  -0.10944  -0.07250
  -1.89559  -0.34886  -0.07250
  -1.65617  -0.10944  -0.07250
  -1.89559  -0.34886   0.16692
  -1.89559  -0.10944  -0.07250
  -1.65617  -0.10944   0.16692
  -1.89559  -0.34886   0.16692
  -1.65617  -0.34886   0.16692
  -1.65617  -0.34886   0.16692
  -1.65617  -0.34886   0.16692
  -1.65617  -0.34886   0.16692
  -1.65617  -0.34886   0.40634
  -1.65617  -0.34886   0.40634
  -1.65617  -0.34886   0.40634
  -1.65617  -0.10944   0.40634
  -1.65617  -0.10944   0.40634
  -1.41675  -0.10944   0.40634
  -1.41675  -0.10944   0.40634
  -1.17733   0.12998   0.40634
  -1.17733  -0.10944   0.40634
  -1.17733   0.12998   0.40634
  -1.17733   0.12998   0.40634
  -0.93791  -0.10944   0.40634
  -0.93791   0.12998   0.40634
  -0.93791   0.12998   0.40634
  -0.69849   0.12998   0.40634
  -0.69849   0.12998   0.40634
  -0.69849  -0.10944   0.40634
  -0.45907   0.12998   0.16692
  -0.45907  -0.10944   0.16692
  -0.45907  -0.10944   0.16692
  -0.45907  -0.10944   0.16692
  -0.45907  -0.10944   0.16692
  -0.21965  -0.34886   0.16692
  -0.21965  -0.10944   0.16692
  -0.21965  -0.10944   0.16692
  -0.21965  -0.10944   0.16692
  -0.21965  -0.10944   0.16692
  -0.21965  -0.34886   0.16692
  -0.21965  -0.34886   0.16692
  -0.21965  -0.34886   0.16692
   0.01977  -0.10944   0.16692
  -0.21965  -0.10944   0.16692
  -0.21965  -0.10944   0.16692
   0.01977  -0.10944   0.16692
  -0.21965  -0.10944   0.40634
   0.01977  -0.10944   0.40634
   0.01977  -0.10944   0.16692
   0.25919   0.12998   0.16692
   0.25919   0.36940   0.40634
   0.25919   0.12998   0.40634
   0.25919   0.12998   0.40634
   0.25919   0.12998   0.40634
   0.49861   0.36940   0.16692
   0.73803   0.12998   0.16692
   0.73803   0.12998   0.16692
   0.97745   0.12998   0.40634
   0.97745   0.12998   0.40634
   1.21687   0.12998   0.40634
   1.21687   0.12998   0.40634
   1.45629  -0.10944   0.16692
   1.45629   0.12998   0.16692
   1.21687   0.12998   0.16692
   1.21687   0.12998   0.16692
   1.21687   0.12998   0.16692
   1.21687   0.12998   0.16692
   1.21687   0.12998   0.16692
   1.21687   0.12998   0.16692
   1.21687   0.12998  -0.07250
   0.97745  -0.10944  -0.07250
   0.97745   0.12998  -0.07250
   0.73803   0.12998  -0.07250
   0.73803   0.36940  -0.31192
   0.49861   0.36940  -0.31192
   0.49861   0.36940  -0.31192
   0.25919   0.36940  -0.31192
   0.25919   0.60882  -0.31192
   0.25919   0.84824  -0.55134
   0.25919   0.84824  -0.31192
   0.01977   0.60882  -0.31192
   0.01977   0.84824  -0.31192
   0.01977   0.60882  -0.31192
   0.25919   0.60882  -0.31192
   0.25919   0.36940  -0.31192
   0.25919   0.36940  -0.31192
   0.25919   0.12998  -0.55134
   0.25919  -0.10944  -0.31192
   0.25919  -0.10944  -0.31192
   0.49861  -0.10944  -0.31192
   0.25919  -0.34886  -0.31192
   0.25919  -0.34886  -0.55134
   0.25919  -0.10944  -0.55134
   0.49861  -0.34886  -0.55134
   0.49861  -0.58828  -0.31192
   0.49861  -0.34886  -0.31192
   0.49861  -0.34886  -0.31192
   0.49861  -0.34886  -0.31192
   0.25919  -0.58828  -0.31192
   0.25919  -0.34886  -0.31192
   0.25919  -0.82770  -0.31192
   0.25919  -0.58828  -0.07250
   0.01977  -0.58828  -0.07250
   0.01977  -0.58828  -0.07250
   0.01977  -0.58828  -0.07250
   0.01977  -0.58828  -0.07250
  -0.21965  -0.58828  -0.07250
  -0.45907  -0.34886  -0.07250
  -0.45907  -0.10944  -0.07250
  -0.45907  -0.10944  -0.07250
  -0.69849  -0.10944  -0.07250
  -0.45907  -0.10944  -0.07250
  -0.69849  -0.10944  -0.31192
  -0.69849  -0.10944  -0.07250
  -0.69849  -0.10944  -0.07250
  -0.69849  -0.10944   0.16692
  -0.69849  -0.34886  -0.07250
  -0.69849   0.12998   0.16692
  -0.69849   0.12998   0.16692
  -0.69849   0.12998   0.16692
  -0.45907   0.12998   0.16692
  -0.45907   0.12998   0.16692
  -0.45907   0.12998   0.16692
  -0.21965   0.12998   0.40634
  -0.21965  -0.10944   0.40634
   0.01977  -0.10944   0.40634
   0.25919  -0.10944   0.64576
   0.25919  -0.34886   0.40634
   0.25919  -0.34886   0.40634
   0.49861  -0.10944   0.40634
   0.73803  -0.34886   0.40634
   0.97745  -0.10944   0.64576
   1.21687   0.12998   0.64576
   1.45629  -0.34886   0.64576
   1.45629  -0.34886   0.40634
   1.69572  -0.34886   0.64576
   1.69572  -0.34886   0.64576
   2.17456  -0.10944   0.64576
   2.17456  -0.10944   0.64576
   2.17456  -0.34886   0.40634
   2.41398  -0.34886   0.64576
   2.65340  -0.34886   0.88518
   2.65340  -0.34886   0.64576
   2.65340  -0.34886   0.64576
   2.65340  -0.34886   0.64576
   2.65340  -0.34886   0.64576
   2.65340  -0.10944   0.88518
   2.65340  -0.10944   0.88518
   2.65340  -0.10944   0.64576
   2.89282  -0.10944   0.64576
   2.89282   0.12998   0.88518
   2.65340   0.12998   0.64576
   2.89282   0.12998   0.88518
   2.65340   0.36940   0.88518
   2.65340   0.36940   0.88518
   2.65340   0.36940   0.88518
   2.65340   0.36940   0.88518
   2.65340   0.60882   0.88518
   2.41398   0.60882   0.64576
   2.41398   0.36940   0.64576
   2.17456   0.60882   0.88518
   2.17456   0.84824   0.64576
   1.93514   0.84824   0.64576
   1.69572   0.84824   0.64576
   1.69572   0.60882   0.40634
   1.45629   0.84824   0.40634
   1.45629   0.84824   0.40634
   1.21687   0.84824   0.16692
   1.21687   0.84824   0.16692
   0.97745   0.84824  -0.07250
   0.73803   0.84824  -0.07250
   0.49861   0.84824  -0.31192
   0.25919   0.84824  -0.31192
   0.01977   0.84824  -0.55134
  -0.21965   0.84824  -0.79076
  -0.21965   0.84824  -0.79076
  -0.45907   0.84824  -0.79076
  -0.45907   0.84824  -1.03018
  -0.69849   0.84824  -1.03018
  -0.69849   0.84824  -1.26960
  -0.93791   0.84824  -1.26960
  -0.93791   0.84824  -1.26960
  -0.93791   0.60882  -1.26960
  -0.93791   0.60882  -1.50902
  -0.93791   0.36940  -1.26960
  -1.17733   0.60882  -1.26960
  -1.17733   0.60882  -1.26960
  -0.93791   0.36940  -1.26960
  -0.93791   0.12998  -1.26960
  -0.93791   0.12998  -1.26960
  -0.93791   0.12998  -1.26960
  -0.93791   0.12998  -1.26960
  -0.93791  -0.10944  -1.03018
  -0.69849  -0.10944  -1.03018
  -0.69849  -0.10944  -0.79076
  -0.69849  -0.34886  -0.79076
  -0.69849  -0.34886  -0.79076
  -0.69849  -0.58828  -0.55134
  -0.69849  -0.58828  -0.55134
  -0.45907  -0.82770  -0.55134
  -0.45907  -0.82770  -0.31192
  -0.69849  -0.82770  -0.07250
  -0.45907  -1.06712  -0.07250
  -0.69849  -0.82770  -0.07250
  -0.69849  -0.82770  -0.07250
  -0.69849  -0.82770  -0.07250
  -0.45907  -0.82770  -0.07250
  -0.69849  -0.82770  -0.07250
  -0.69849  -0.58828  -0.07250
  -0.69849  -0.58828  -0.07250
  -0.69849  -0.58828  -0.07250
  -0.93791  -0.58828  -0.07250
  -0.93791  -0.58828  -0.31192
  -0.93791  -0.10944  -0.07250
  -1.17733  -0.10944  -0.07250
  -0.93791  -0.10944  -0.31192
  -1.17733  -0.10944  -0.31192
  -1.17733   0.12998  -0.31192
  -1.17733  -0.10944  -0.31192
  -0.93791  -0.10944  -0.31192
  -1.17733   0.36940  -0.31192
  -1.17733   0.12998  -0.31192
  -1.17733   0.36940  -0.31192
  -1.17733  -0.10944  -0.31192
  -1.17733   0.12998  -0.31192
  -1.17733   0.12998  -0.31192
  -1.17733  -0.10944  -0.31192
  -1.17733   0.12998  -0.31192
  -1.41675  -0.10944  -0.55134
  -1.17733  -0.10944  -0.31192
  -1.41675  -0.10944  -0.31192
  -1.41675  -0.10944  -0.31192
  -1.17733  -0.34886  -0.55134
  -1.41675  -0.34886  -0.31192
  -1.41675  -0.34886  -0.31192
  -1.17733  -0.58828  -0.55134
  -1.17733  -0.34886  -0.55134
  -1.17733  -0.34886  -0.55134
  -0.93791  -0.58828  -0.31192
  -0.93791  -0.58828  -0.55134
  -0.93791  -0.34886  -0.31192
  -0.93791  -0.34886  -0.31192
  -0.69849  -0.34886  -0.31192
  -0.69849  -0.34886  -0.31192
  -0.69849  -0.34886  -0.31192
  -0.45907  -0.58828  -0.31192
  -0.69849  -0.34886  -0.07250
  -0.45907  -0.34886  -0.07250
  -0.21965  -0.58828  -0.07250
  -0.21965  -0.34886  -0.07250
  -0.45907  -0.34886   0.16692
  -0.45907  -0.10944   0.16692
  -0.21965  -0.10944   0.16692
  -0.21965  -0.10944   0.16692
  -0.21965  -0.10944   0.40634
  -0.21965   0.12998   0.64576
  -0.21965   0.12998   0.40634
   0.01977   0.12998   0.40634
  -0.21965   0.36940   0.64576
  -0.21965   0.12998   0.64576
  -0.21965   0.12998   0.64576
   0.01977  -0.10944   1.12460
  -0.45907   0.12998   0.88518
  -0.45907   0.12998   1.12460
  -0.45907   0.12998   1.12460
  -0.45907  -0.10944   1.12460
  -0.45907  -0.10944   1.12460
  -0.45907   0.12998   1.12460
  -0.69849   0.12998   1.12460
  -0.69849   0.36940   0.88518
  -0.69849   0.12998   0.88518
  -0.93791   0.36940   0.88518
  -0.93791   0.60882   0.64576
  -0.93791   0.36940   0.64576
  -0.93791   0.60882   0.64576
  -1.17733   0.60882   0.40634
  -1.17733   0.60882   0.16692
  -1.41675   0.60882   0.16692
  -1.41675   0.60882   0.16692
  -1.41675   0.60882   0.16692
  -1.41675   0.84824  -0.07250
  -1.65617   0.84824  -0.07250
  -1.41675   0.36940  -0.07250
  -1.41675   0.60882  -0.31192
  -1.65617   0.60882  -0.31192
  -1.65617   0.60882  -0.31192
  -1.41675   0.60882  -0.55134
  -1.65617   0.36940  -0.31192
  -1.65617   0.36940  -0.55134
  -1.65617   0.36940  -0.55134
  -1.65617   0.36940  -0.55134
  -1.65617   0.36940  -0.55134
  -1.65617   0.12998  -0.55134
  -1.65617   0.12998  -0.55134
  -1.65617   0.12998  -0.55134
  -1.65617   0.12998  -0.55134
  -1.65617  -0.10944  -0.55134
  -1.65617  -0.34886  -0.31192
  -1.65617  -0.34886  -0.31192
