********************************************************************************
               CENTRO DE INSTRUMENTACION Y REGISTRO SISMICO  A.C.  
                       Coordinacion de Servicios Tecnicos
     Anaxagoras 814, Col. Narvarte, Benito Juarez, C.P. 03020 Mexico, D.F.
            Tels. 667 45 42/ 687 45  82             Fax. 669 25 12
********************************************************************************
ARCHIVO ESTANDAR DE ACELERACION:
VERSION DEL FORMATO                    : 2.0
NOMBRE DEL ARCHIVO                     : BA490508.141
FECHA Y HORA DE CREACION               : 15/AGO/05, 13:55
REF. CATALOGO ACELEROGRAMAS, SMIS 1996 : REGISTRO No.     /PAG.


================================================================================
DATOS DE LA ESTACION:
NOMBRE DE LA ESTACION                  : BUENOS AIRES
CLAVE DE LA ESTACION                   : BA49
LOCALIZACION DE LA ESTACION            : ESCUELA SECUNDARIA 102, DOCTOR MARQUEZ
                                       : Y EJE CENTRAL, BUENOS AIRES.
                                       :
                                       :
                                       :
COORDENADAS DE LA ESTACION             : 19.410 LAT. N 
                                       : 99.145 LONG. W 
ALTITUD (msnm)                         : 2233
TIPO DE SUELO                          : TERRENO BLANDO, MATERIAL COMPRESIBLE
                                       : (ARCILLAS)
                                       : 
INSTITUCION RESPONSABLE                : CIRES 
                                       :

================================================================================
DATOS DEL ACELEROGRAFO:
MODELO DEL ACELEROGRAFO                : SSA-1
NUMERO DE SERIE DEL ACELEROGRAFO       : 176
NUMERO DE CANALES                      : 3
ORIENTACION C1-C6 (rumbo;orientacion)  : /N00E/+V/N90E
ORIENTACION C7-C12 (rumbo;orientacion) :
VEL. DE MUESTREO, C1-C6 (muestras/s)   : /200/200/200
VEL. DE MUESTREO, C7-C12 (muestras/s)  :
ESC. COMPLETA DE SENSORES, C1-C6, (g)  : /2/2/2
ESC. COMPLETA DE SENSORES, C7-C12, (g) :
FREC. NAT. DE SENSORES, C1-C6, (Hz)    : /52.99/52.03/52.99
FREC. NAT. DE SENSORES, C7-C12, (Hz)   :
AMORTIGUAMIENTO DE SENSORES, C1-C6     : /.5589/.5469/.6096
AMORTIGUAMIENTO DE SENSORES, C7-C12    :
INTERVALO DE MUESTREO, C1-C6, (s)      : /0.005/0.005/0.005
INTERVALO DE MUESTREO, C7-C12, (s)     :
UMBRAL DE DISPARO, C1-C6, (Gal)        : /2/2/2
UMBRAL DE DISPARO, C7-C12, (Gal)       :
MEMORIA DE PREEVENTO (s)               : 15
TIEMPO DE POSEVENTO (s)                : 60


================================================================================
DATOS DEL SISMO:
FECHA DEL SISMO (GMT)                  : 14/AGO/05
HORA EPICENTRO (GMT)                   : 02:51:56,0
MAGNITUD(ES)                           : /Mc=5.8
COORDENADAS DEL EPICENTRO              : 15.94 LAT. N
                                       : 97.93 LONG. W
PROFUNDIDAD FOCAL (km)                 : 9
FUENTE DE LOS DATOS EPICENTRALES       : SSN
                                       : INSTITUTO DE GEOFISICA, UNAM 

================================================================================
DATOS DE ESTE REGISTRO:
HORA DE LA PRIMERA MUESTRA (GMT)       : 02:53:46.00
EXACTITUD DEL TIEMPO (s)               :     
DURACION DEL REGISTRO (s), C1-C6       : /131.84/131.84/131.84
DURACION DEL REGISTRO (s), C7-C12      :
NUM. TOTAL DE MUESTRAS, C1-C6          : /26368/26368/26368
NUM. TOTAL DE MUESTRAS, C7-C12         :
ACEL. MAX. (Gal), C1-C6                : /3.59695/1.55760/3.34905
ACEL. MAX., C1-C6, EN LA MUESTRA       :
ACEL. MAX. (Gal), C7-C12               :
ACEL. MAX., C7-C12, EN LA MUESTRA      :
UNIDADES DE LOS DATOS                  : Gal (cm/s/s)
FACTOR DE DECIMACION                   : 1
FORMATO DATOS (FORTRAN,10 campos/dato) : 3F10.5


================================================================================
CALIDAD DEL ACELEROGRAMA:
REGISTRO DIGITAL COMPLETO, CARECE DE TIEMPO ABSOLUTO.


================================================================================
COMENTARIOS:














================================================================================
DATOS DE ACELERACION:
---------+---------+---------+---------+---------+---------+---------+---------+
   CANAL-1   CANAL-2   CANAL-3   CANAL-4   CANAL-5   CANAL-6   CANAL-7   CANAL-8
      N00E        +V      N90E
---------+---------+---------+---------+---------+---------+---------+---------+
[...]
   1.19695   0.35760   1.42905
   1.19695   0.59760   1.42905
   1.19695   0.59760   1.42905
   0.95695   0.59760   1.66905
   0.95695   0.59760   1.66905
   0.95695   0.83760   1.66905
   0.95695   0.59760   1.66905
   0.95695   0.83760   1.66905
   0.95695   0.59760   1.66905
   0.95695   0.83760   1.90905
   0.95695   0.83760   1.90905
   0.95695   0.83760   1.90905
   0.95695   0.83760   1.90905
   0.95695   0.83760   1.90905
   0.95695   0.83760   1.90905
   0.72695   0.83760   1.90905
   0.72695   0.83760   1.90905
   0.72695   1.07760   1.90905
   0.72695   0.83760   1.90905
   0.72695   1.07760   1.90905
   0.72695   1.07760   2.14905
   0.48695   1.07760   1.90905
   0.72695   1.07760   2.14905
   0.72695   0.83760   2.14905
   0.72695   1.07760   2.14905
   0.48695   0.83760   1.90905
   0.48695   1.07760   2.14905
   0.48695   0.83760   1.90905
   0.48695   1.07760   1.90905
   0.48695   1.07760   1.90905
   0.48695   0.83760   2.14905
   0.48695   0.83760   1.90905
   0.48695   0.83760   1.90905
   0.48695   1.07760   1.90905
   0.24695   0.83760   1.90905
   0.48695   0.83760   1.90905
   0.48695   0.83760   1.90905
   0.24695   0.83760   1.66905
   0.48695   0.83760   1.66905
   0.24695   0.59760   1.66905
   0.24695   0.83760   1.66905
   0.24695   0.83760   1.66905
   0.24695   0.83760   1.66905
   0.00695   0.59760   1.66905
   0.00695   0.83760   1.66905
   0.24695   0.83760   1.42905
   0.00695   0.59760   1.42905
   0.00695   0.59760   1.42905
   0.00695   0.59760   1.42905
   0.00695   0.59760   1.18905
   0.00695   0.59760   1.18905
   0.00695   0.59760   1.18905
   0.00695   0.59760   0.94905
  -0.23305   0.59760   0.94905
  -0.23305   0.59760   0.94905
  -0.23305   0.59760   0.94905
  -0.23305   0.35760   0.71905
  -0.23305   0.59760   0.71905
  -0.47305   0.35760   0.71905
  -0.47305   0.35760   0.47905
  -0.47305   0.35760   0.47905
  -0.47305   0.11760   0.47905
  -0.47305   0.35760   0.47905
  -0.47305   0.35760   0.23905
  -0.47305   0.11760   0.23905
  -0.47305   0.11760   0.23905
  -0.71305   0.11760  -0.00095
  -0.71305   0.35760  -0.00095
  -0.71305   0.11760  -0.00095
  -0.71305   0.11760  -0.24095
  -0.71305   0.11760  -0.24095
  -0.71305   0.11760  -0.24095
  -0.71305   0.11760  -0.24095
  -0.71305   0.11760  -0.48095
  -0.71305   0.11760  -0.48095
  -0.71305  -0.12240  -0.48095
  -0.71305   0.11760  -0.72095
  -0.95305   0.11760  -0.72095
  -0.71305   0.11760  -0.72095
  -0.95305  -0.12240  -0.72095
  -0.95305   0.11760  -0.72095
  -0.71305   0.11760  -0.96095
  -0.71305  -0.12240  -0.96095
  -0.71305  -0.12240  -0.96095
  -0.71305  -0.12240  -0.96095
  -0.71305  -0.12240  -1.20095
  -0.71305  -0.12240  -1.20095
  -0.71305  -0.12240  -0.96095
  -0.71305  -0.36240  -1.20095
  -0.71305  -0.12240  -1.20095
  -0.71305  -0.36240  -1.20095
  -0.71305  -0.36240  -1.20095
  -0.71305  -0.36240  -1.20095
  -0.71305  -0.36240  -1.20095
  -0.71305  -0.36240  -1.20095
  -0.71305  -0.60240  -1.20095
  -0.71305  -0.60240  -1.20095
  -0.47305  -0.60240  -1.44095
  -0.47305  -0.60240  -1.20095
  -0.47305  -0.60240  -1.44095
  -0.47305  -0.60240  -1.20095
  -0.47305  -0.60240  -1.20095
  -0.47305  -0.60240  -1.20095
  -0.47305  -0.60240  -1.20095
  -0.23305  -0.84240  -1.20095
  -0.23305  -0.84240  -1.20095
  -0.23305  -0.84240  -1.20095
  -0.23305  -0.60240  -1.20095
   0.00695  -0.60240  -1.20095
   0.00695  -0.84240  -1.20095
   0.00695  -0.84240  -1.20095
   0.00695  -0.84240  -1.20095
   0.00695  -0.84240  -1.20095
   0.24695  -0.60240  -1.20095
   0.24695  -0.60240  -1.20095
   0.24695  -0.60240  -1.20095
   0.24695  -0.84240  -1.20095
   0.48695  -0.84240  -1.20095
   0.48695  -0.84240  -1.20095
   0.48695  -0.60240  -1.20095
   0.48695  -0.84240  -1.20095
   0.72695  -0.60240  -1.20095
   0.72695  -0.84240  -1.20095
   0.72695  -0.84240  -1.20095
   0.95695  -0.84240  -1.20095
   0.95695  -0.84240  -0.96095
   0.95695  -0.84240  -1.20095
   0.95695  -0.60240  -0.96095
   0.95695  -0.84240  -0.96095
   1.19695  -0.84240  -0.96095
   1.19695  -0.84240  -0.96095
   1.19695  -0.84240  -0.96095
   1.19695  -0.60240  -0.96095
   1.19695  -0.60240  -0.72095
   1.19695  -0.60240  -0.72095
   1.43695  -0.84240  -0.72095
   1.43695  -0.60240  -0.72095
   1.43695  -0.84240  -0.72095
   1.43695  -0.84240  -0.48095
   1.43695  -0.60240  -0.48095
   1.67695  -0.60240  -0.48095
   1.67695  -0.60240  -0.48095
   1.43695  -0.60240  -0.24095
   1.67695  -0.60240  -0.24095
   1.67695  -0.60240  -0.24095
   1.67695  -0.60240  -0.24095
   1.67695  -0.60240  -0.24095
   1.67695  -0.60240  -0.24095
   1.67695  -0.60240  -0.00095
   1.67695  -0.60240  -0.00095
   1.67695  -0.60240  -0.00095
   1.67695  -0.36240  -0.00095
   1.67695  -0.60240   0.23905
   1.67695  -0.60240   0.23905
   1.67695  -0.60240   0.23905
   1.67695  -0.36240   0.23905
   1.67695  -0.60240   0.23905
   1.67695  -0.36240   0.23905
   1.67695  -0.36240   0.23905
   1.67695  -0.36240   0.23905
   1.67695  -0.36240   0.23905
   1.67695  -0.36240   0.23905
   1.67695  -0.36240   0.23905
   1.67695  -0.36240   0.23905
   1.43695  -0.36240   0.47905
   1.43695  -0.12240   0.47905
   1.43695  -0.12240   0.47905
   1.43695  -0.12240   0.47905
   1.43695   0.11760   0.47905
   1.43695   0.11760   0.47905
   1.19695  -0.12240   0.47905
   1.19695   0.11760   0.23905
   1.19695   0.11760   0.23905
   1.19695   0.11760   0.23905
   1.19695   0.11760   0.23905
   1.19695   0.11760   0.23905
   0.95695   0.11760   0.23905
   0.95695   0.11760   0.23905
   0.95695   0.35760   0.23905
   0.95695   0.35760  -0.00095
   0.95695   0.35760  -0.00095
   0.72695   0.35760  -0.00095
   0.72695   0.35760  -0.00095
   0.72695   0.35760  -0.00095
   0.72695   0.35760  -0.24095
   0.48695   0.35760  -0.24095
   0.48695   0.35760  -0.24095
   0.48695   0.59760  -0.24095
   0.48695   0.59760  -0.48095
   0.24695   0.59760  -0.48095
   0.00695   0.59760  -0.48095
   0.24695   0.59760  -0.48095
   0.24695   0.59760  -0.72095
   0.00695   0.83760  -0.72095
   0.00695   0.83760  -0.72095
   0.00695   0.59760  -0.96095
   0.00695   0.59760  -0.72095
  -0.23305   0.83760  -0.96095
  -0.23305   0.83760  -1.20095
  -0.23305   0.83760  -1.20095
  -0.23305   0.83760  -1.20095
  -0.47305   0.83760  -1.20095
  -0.47305   0.83760  -1.20095
  -0.47305   0.59760  -1.44095
  -0.47305   0.83760  -1.20095
  -0.71305   0.83760  -1.44095
  -0.71305   1.07760  -1.44095
  -0.71305   0.83760  -1.44095
  -0.95305   0.83760  -1.44095
  -0.95305   1.07760  -1.44095
  -0.95305   0.59760  -1.44095
  -0.95305   0.83760  -1.68095
  -0.95305   0.83760  -1.68095
  -0.95305   0.83760  -1.44095
  -1.19305   1.07760  -1.44095
  -1.19305   0.83760  -1.68095
  -1.19305   0.59760  -1.68095
  -1.19305   0.83760  -1.68095
  -1.43305   0.83760  -1.68095
  -1.43305   0.83760  -1.68095
  -1.43305   0.59760  -1.68095
  -1.43305   0.59760  -1.68095
  -1.67305   0.59760  -1.68095
  -1.43305   0.83760  -1.68095
  -1.67305   0.59760  -1.68095
  -1.67305   0.59760  -1.68095
  -1.67305   0.59760  -1.44095
  -1.67305   0.59760  -1.44095
  -1.67305   0.59760  -1.44095
  -1.67305   0.59760  -1.44095
  -1.67305   0.59760  -1.44095
  -1.67305   0.59760  -1.44095
  -1.91305   0.59760  -1.44095
  -1.67305   0.59760  -1.20095
  -1.91305   0.59760  -1.20095
  -1.91305   0.59760  -1.20095
  -1.91305   0.35760  -1.20095
  -1.91305   0.59760  -1.20095
  -1.91305   0.35760  -1.20095
  -1.91305   0.35760  -0.96095
  -1.91305   0.35760  -0.96095
  -1.91305   0.35760  -0.96095
  -1.91305   0.11760  -0.96095
  -1.91305   0.11760  -0.96095
  -1.91305   0.11760  -0.72095
  -1.91305   0.11760  -0.72095
  -1.91305   0.11760  -0.72095
  -1.91305   0.11760  -0.72095
  -1.91305   0.11760  -0.72095
  -1.91305   0.11760  -0.72095
  -1.91305   0.11760  -0.72095
  -1.91305   0.11760  -0.48095
  -1.91305   0.11760  -0.48095
  -1.91305  -0.12240  -0.48095
  -1.91305  -0.12240  -0.48095
  -1.91305   0.11760  -0.48095
  -1.91305  -0.12240  -0.48095
  -1.91305  -0.36240  -0.48095
  -1.91305  -0.12240  -0.48095
  -1.91305  -0.12240  -0.48095
  -1.91305  -0.12240  -0.48095
  -1.91305  -0.12240  -0.24095
  -1.91305  -0.36240  -0.24095
  -1.91305  -0.36240  -0.24095
  -1.91305  -0.36240  -0.24095
  -1.91305  -0.36240  -0.24095
  -1.91305  -0.36240  -0.24095
  -1.91305  -0.36240  -0.24095
  -1.91305  -0.36240  -0.48095
  -1.91305  -0.60240  -0.24095
  -1.91305  -0.36240  -0.24095
  -1.91305  -0.36240  -0.24095
  -1.91305  -0.60240  -0.24095
  -1.91305  -0.60240  -0.24095
  -1.91305  -0.60240  -0.24095
  -1.91305  -0.60240  -0.24095
  -1.91305  -0.36240  -0.48095
  -1.91305  -0.60240  -0.24095
  -1.67305  -0.60240  -0.24095
  -1.67305  -0.60240  -0.24095
  -1.67305  -0.60240  -0.24095
  -1.67305  -0.60240  -0.24095
  -1.67305  -0.60240  -0.24095
  -1.67305  -0.60240  -0.24095
  -1.67305  -0.60240  -0.48095
  -1.67305  -0.60240  -0.24095
  -1.67305  -0.60240  -0.48095
  -1.67305  -0.60240  -0.48095
  -1.43305  -0.60240  -0.48095
  -1.43305  -0.60240  -0.48095
  -1.43305  -0.84240  -0.48095
  -1.43305  -0.84240  -0.48095
  -1.43305  -0.84240  -0.48095
  -1.19305  -0.84240  -0.48095
  -1.19305  -0.60240  -0.48095
  -1.19305  -0.60240  -0.48095
  -0.95305  -0.60240  -0.48095
  -0.95305  -0.60240  -0.48095
  -0.95305  -0.84240  -0.48095
  -0.95305  -0.60240  -0.48095
  -0.71305  -0.60240  -0.48095
  -0.71305  -0.60240  -0.48095
  -0.71305  -0.60240  -0.48095
  -0.47305  -0.60240  -0.48095
  -0.47305  -0.60240  -0.48095
  -0.23305  -0.60240  -0.48095
  -0.23305  -0.60240  -0.48095
  -0.23305  -0.60240  -0.48095
   0.00695  -0.84240  -0.48095
   0.00695  -0.60240  -0.48095
   0.24695  -0.84240  -0.48095
   0.24695  -0.84240  -0.48095
   0.48695  -0.60240  -0.48095
   0.48695  -0.60240  -0.48095
   0.72695  -0.60240  -0.48095
   0.72695  -0.60240  -0.48095
   0.95695  -0.60240  -0.48095
   0.95695  -0.60240  -0.48095
   1.19695  -0.60240  -0.48095
   1.19695  -0.60240  -0.48095
   1.43695  -0.60240  -0.48095
   1.43695  -0.60240  -0.48095
   1.67695  -0.60240  -0.24095
   1.67695  -0.60240  -0.24095
   1.91695  -0.60240  -0.24095
   1.91695  -0.36240  -0.24095
   2.15695  -0.60240  -0.24095
   2.15695  -0.60240  -0.24095
   2.15695  -0.36240  -0.00095
   2.39695  -0.36240  -0.00095
   2.39695  -0.36240  -0.00095
   2.63695  -0.36240  -0.00095
   2.63695  -0.36240  -0.00095
   2.87695  -0.36240  -0.00095
   2.87695  -0.36240   0.23905
   2.87695  -0.36240   0.23905
   2.87695  -0.36240   0.23905
   3.11695  -0.12240   0.23905
   3.11695  -0.12240   0.23905
   3.11695  -0.12240   0.23905
   3.11695  -0.36240   0.47905
   3.35695  -0.12240   0.47905
   3.35695  -0.12240   0.47905
   3.35695  -0.12240   0.47905
   3.35695  -0.12240   0.47905
   3.35695  -0.12240   0.71905
   3.35695   0.11760   0.47905
   3.35695  -0.12240   0.71905
   3.59695   0.11760   0.71905
   3.35695   0.11760   0.71905
   3.35695   0.11760   0.71905
   3.35695   0.11760   0.94905
   3.35695   0.11760   0.94905
   3.35695   0.35760   0.94905
   3.35695   0.35760   0.94905
   3.35695   0.35760   0.94905
   3.35695   0.35760   0.94905
   3.35695   0.35760   0.94905
   3.35695   0.35760   1.18905
   3.11695   0.59760   1.18905
   3.11695   0.59760   1.18905
   3.11695   0.59760   1.18905
   3.11695   0.35760   1.18905
   2.87695   0.59760   1.18905
   2.87695   0.59760   1.18905
   2.87695   0.59760   1.42905
   2.87695   0.59760   1.42905
   2.63695   0.83760   1.42905
   2.63695   0.83760   1.42905
   2.39695   0.83760   1.42905
   2.39695   0.83760   1.42905
   2.39695   0.83760   1.42905
   2.39695   1.07760   1.42905
   2.15695   0.83760   1.42905
   2.15695   1.07760   1.42905
   1.91695   1.07760   1.42905
   1.91695   1.07760   1.42905
   1.91695   1.07760   1.42905
   1.67695   1.07760   1.42905
   1.67695   1.07760   1.66905
   1.67695   1.31760   1.66905
   1.43695   1.31760   1.66905
   1.43695   1.31760   1.66905
   1.19695   1.07760   1.42905
   1.19695   1.31760   1.66905
   1.19695   1.07760   1.66905
   0.95695   1.31760   1.66905
   0.95695   1.31760   1.66905
   0.72695   1.31760   1.42905
   0.72695   1.07760   1.66905
   0.48695   1.07760   1.42905
   0.48695   1.31760   1.42905
   0.48695   1.07760   1.42905
   0.48695   1.07760   1.42905
   0.24695   1.07760   1.42905
   0.24695   1.07760   1.66905
   0.00695   0.83760   1.42905
   0.00695   0.83760   1.42905
   0.00695   0.83760   1.42905
  -0.23305   1.07760   1.42905
  -0.23305   1.07760   1.42905
  -0.23305   1.07760   1.42905
  -0.47305   1.07760   1.42905
  -0.47305   0.83760   1.42905
  -0.47305   0.83760   1.42905
  -0.71305   0.59760   1.42905
  -0.71305   0.83760   1.18905
  -0.71305   0.59760   1.42905
  -0.71305   0.59760   1.42905
  -0.95305   0.59760   1.18905
  -0.95305   0.59760   1.18905
  -0.95305   0.59760   1.18905
  -1.19305   0.59760   1.18905
  -1.19305   0.59760   1.18905
  -1.19305   0.35760   1.18905
  -1.43305   0.59760   1.18905
  -1.43305   0.35760   1.18905
  -1.43305   0.35760   1.18905
  -1.43305   0.11760   0.94905
  -1.67305   0.11760   0.94905
  -1.67305   0.11760   0.94905
  -1.67305   0.35760   0.94905
  -1.91305   0.11760   0.94905
  -1.91305   0.11760   0.94905
  -1.91305   0.11760   0.71905
  -1.91305   0.11760   0.71905
  -2.15305   0.11760   0.71905
  -2.15305  -0.12240   0.71905
  -2.15305  -0.12240   0.71905
  -2.39305   0.11760   0.71905
  -2.39305  -0.12240   0.47905
  -2.39305  -0.12240   0.47905
  -2.39305  -0.12240   0.47905
  -2.39305  -0.12240   0.47905
  -2.63305  -0.12240   0.47905
  -2.63305  -0.36240   0.23905
  -2.63305  -0.36240   0.23905
  -2.63305  -0.36240   0.23905
  -2.63305  -0.36240   0.23905
  -2.87305  -0.36240  -0.00095
  -2.87305  -0.36240  -0.00095
  -2.87305  -0.36240   0.23905
  -2.87305  -0.36240  -0.00095
  -2.87305  -0.36240  -0.00095
  -3.11305  -0.60240  -0.00095
  -2.87305  -0.36240  -0.00095
  -3.11305  -0.60240  -0.24095
  -3.11305  -0.60240  -0.24095
  -3.11305  -0.60240  -0.24095
  -3.11305  -0.60240  -0.24095
  -3.11305  -0.60240  -0.24095
  -3.11305  -0.60240  -0.24095
  -2.87305  -0.60240  -0.24095
  -2.87305  -0.60240  -0.24095
  -2.87305  -0.60240  -0.24095
  -2.87305  -0.60240  -0.48095
  -2.87305  -0.60240  -0.24095
  -2.87305  -0.60240  -0.24095
  -2.87305  -0.60240  -0.24095
  -2.87305  -0.60240  -0.24095
  -2.63305  -0.60240  -0.24095
  -2.63305  -0.60240  -0.24095
  -2.63305  -0.84240  -0.24095
  -2.39305  -0.84240  -0.24095
  -2.39305  -0.84240  -0.24095
  -2.39305  -0.60240  -0.24095
  -2.15305  -0.60240  -0.24095
  -2.15305  -0.84240  -0.24095
  -2.15305  -0.84240  -0.00095
  -1.91305  -0.60240  -0.00095
  -1.91305  -0.84240  -0.00095
  -1.67305  -0.60240  -0.00095
  -1.67305  -0.84240  -0.00095
  -1.43305  -0.84240  -0.00095
  -1.43305  -0.84240   0.23905
  -1.43305  -0.84240  -0.00095
  -1.19305  -0.84240   0.23905
  -1.19305  -0.84240   0.23905
  -0.95305  -0.84240   0.23905
  -0.95305  -0.84240   0.23905
  -0.71305  -0.84240   0.47905
  -0.71305  -0.84240   0.47905
  -0.47305  -0.84240   0.47905
  -0.47305  -0.84240   0.47905
  -0.47305  -0.60240   0.47905
  -0.23305  -0.84240   0.47905
  -0.23305  -0.84240   0.47905
   0.00695  -0.84240   0.71905
   0.00695  -0.84240   0.47905
   0.00695  -0.84240   0.71905
   0.24695  -0.84240   0.71905
   0.24695  -0.84240   0.71905
   0.48695  -0.84240   0.71905
   0.48695  -0.60240   0.71905
   0.48695  -0.60240   0.71905
   0.72695  -0.60240   0.71905
   0.72695  -0.60240   0.71905
   0.72695  -0.36240   0.71905
   0.72695  -0.60240   0.71905
