********************************************************************************
               CENTRO DE INSTRUMENTACION Y REGISTRO SISMICO  A.C.  
                              FUNDACION ICA, A.C.
     Anaxagoras 814, Col. Narvarte, Benito Juarez, C.P. 03020 Mexico, D.F.
            Tels. 687 45 42/ 687 45  82             Fax. 669 25 12
********************************************************************************
ARCHIVO ESTANDAR DE ACELERACION:
VERSION DEL FORMATO                    : 2.0
NOMBRE DEL ARCHIVO                     : BA499005.111
FECHA Y HORA DE CREACION               : ABRIL 16, 1996/19:49
REF. CATALOGO ACELEROGRAMAS, SMIS 1995 : REGISTRO No. 2035 /PAG. 201


================================================================================
DATOS DE LA ESTACION:
NOMBRE DE LA ESTACION                  : BUENOS AIRES
CLAVE DE LA ESTACION                   : BA49
LOCALIZACION DE LA ESTACION            : ESCUELA SECUNDARIA 102, DOCTOR MARQUEZ
                                       : Y EJE CENTRAL, BUENOS AIRES.
                                       :
                                       :
                                       :
COORDENADAS DE LA ESTACION             : 19.410 LAT. N 
                                       : 99.145 LONG. W 
ALTITUD (msnm)                         : 2233
TIPO DE SUELO                          : TERRENO BLANDO, MATERIAL COMPRESIBLE
                                       : (ARCILLAS)
                                       : 
INSTITUCION RESPONSABLE                : FICA
                                       :

================================================================================
DATOS DEL ACELEROGRAFO:
MODELO DEL ACELEROGRAFO                : SSA-1
NUMERO DE SERIE DEL ACELEROGRAFO       : 176
NUMERO DE CANALES                      : 3
ORIENTACION C1-C6 (rumbo;orientacion)  : /N00E/+V/N90E
ORIENTACION C7-C12 (rumbo;orientacion) :
VEL. DE MUESTREO, C1-C6 (muestras/s)   : /200/200/200
VEL. DE MUESTREO, C7-C12 (muestras/s)  :
ESC. COMPLETA DE SENSORES, C1-C6, (g)  : /2/2/2
ESC. COMPLETA DE SENSORES, C7-C12, (g) :
FREC. NAT. DE SENSORES, C1-C6, (Hz)    : /50/50/50
FREC. NAT. DE SENSORES, C7-C12, (Hz)   :
AMORTIGUAMIENTO DE SENSORES, C1-C6     : /0.700/0.700/0.700
AMORTIGUAMIENTO DE SENSORES, C7-C12    :
INTERVALO DE MUESTREO, C1-C6, (s)      : /0.005/0.005/0.005
INTERVALO DE MUESTREO, C7-C12, (s)     :
UMBRAL DE DISPARO, C1-C6, (Gal)        : /2/2/2
UMBRAL DE DISPARO, C7-C12, (Gal)       :
MEMORIA DE PREEVENTO (s)               : 15
TIEMPO DE POSEVENTO (s)                : 90


================================================================================
DATOS DEL SISMO:
FECHA DEL SISMO (GMT)                  : 11/MAY/90
HORA EPICENTRO (GMT)                   : 23:43:49,1
MAGNITUD(ES)                           : /Mb=5.30/Ms=4.90/Mc=5.30
COORDENADAS DEL EPICENTRO              : 17.046 LAT. N 
                                       : 100.840 LONG. W
PROFUNDIDAD FOCAL (km)                 : 11.7 
FUENTE DE LOS DATOS EPICENTRALES       : INSTITUTO DE INGENIERIA UNAM
                                       : 

================================================================================
DATOS DE ESTE REGISTRO:
HORA DE LA PRIMERA MUESTRA (GMT)       : 23:43:52.00
EXACTITUD DEL TIEMPO (s)               :     
DURACION DEL REGISTRO (s), C1-C6       : /113.92/113.92/113.92
DURACION DEL REGISTRO (s), C7-C12      :
NUM. TOTAL DE MUESTRAS, C1-C6          : /22784/22784/22784
NUM. TOTAL DE MUESTRAS, C7-C12         :
ACEL. MAX. (Gal), C1-C6                : /6.91435/1.82029/3.80362
ACEL. MAX., C1-C6, EN LA MUESTRA       :
ACEL. MAX. (Gal), C7-C12               :
ACEL. MAX., C7-C12, EN LA MUESTRA      :
UNIDADES DE LOS DATOS                  : Gal (cm/s/s)
FACTOR DE DECIMACION                   : 1
FORMATO DATOS (FORTRAN,10 campos/dato) : 3F10.5


================================================================================
CALIDAD DEL ACELEROGRAMA:
REGISTRO DIGITAL COMPLETO, CARECE DE TIEMPO ABSOLUTO.


================================================================================
COMENTARIOS:














================================================================================
DATOS DE ACELERACION:
---------+---------+---------+---------+---------+---------+---------+---------+
   CANAL-1   CANAL-2   CANAL-3   CANAL-4   CANAL-5   CANAL-6   CANAL-7   CANAL-8
      N00E        +V      N90E
---------+---------+---------+---------+---------+---------+---------+---------+
[...]
   1.16435  -0.09971   0.50638
   0.68435  -0.09971   0.02638
   0.68435  -0.09971   0.02638
   0.68435  -0.09971   0.02638
   0.68435  -0.09971   0.02638
   0.68435   0.38029   0.02638
   0.20435  -0.09971   0.02638
   0.68435   0.38029  -0.45362
   0.20435   0.38029  -0.45362
   0.20435   0.38029  -0.45362
   0.20435   0.38029  -0.45362
  -0.27565   0.86029  -0.45362
  -0.27565   0.86029  -0.93362
  -0.27565   0.86029  -0.93362
  -0.27565   0.86029  -0.93362
  -0.27565   0.86029  -0.93362
  -0.74565   0.86029  -1.41362
  -0.74565   0.86029  -1.41362
  -0.74565   0.86029  -1.41362
  -0.74565   0.86029  -1.41362
  -0.74565   0.86029  -1.41362
  -1.22565   1.34029  -1.89362
  -1.22565   1.34029  -1.41362
  -1.22565   1.34029  -1.89362
  -1.22565   1.34029  -1.89362
  -1.22565   1.34029  -1.89362
  -1.22565   1.34029  -2.37362
  -1.22565   1.34029  -2.37362
  -1.22565   1.34029  -2.37362
  -1.70565   1.34029  -2.37362
  -1.70565   1.34029  -2.37362
  -1.70565   1.34029  -2.37362
  -1.70565   1.34029  -2.37362
  -1.70565   1.34029  -2.37362
  -1.70565   1.34029  -2.84362
  -1.70565   1.34029  -2.84362
  -1.70565   1.34029  -2.84362
  -1.70565   1.34029  -2.84362
  -1.70565   1.34029  -2.84362
  -1.70565   1.34029  -2.84362
  -2.18565   1.34029  -2.84362
  -2.18565   0.86029  -3.32362
  -1.70565   0.86029  -2.84362
  -1.70565   0.86029  -3.32362
  -1.70565   0.86029  -3.32362
  -2.18565   0.86029  -3.32362
  -2.18565   0.86029  -3.32362
  -1.70565   0.38029  -3.32362
  -1.70565   0.86029  -3.32362
  -2.18565   0.38029  -3.32362
  -1.70565   0.38029  -3.32362
  -1.70565   0.38029  -3.32362
  -1.70565  -0.09971  -3.32362
  -1.70565   0.38029  -3.80362
  -1.70565  -0.09971  -3.80362
  -1.70565  -0.09971  -3.80362
  -1.70565  -0.09971  -3.80362
  -1.70565  -0.09971  -3.80362
  -1.70565  -0.56971  -3.80362
  -1.70565  -0.56971  -3.80362
  -1.70565  -0.56971  -3.80362
  -1.70565  -0.56971  -3.80362
  -1.70565  -0.56971  -3.80362
  -1.22565  -0.56971  -3.80362
  -1.70565  -0.56971  -3.80362
  -1.22565  -0.56971  -3.80362
  -1.70565  -0.56971  -3.80362
  -1.22565  -1.04971  -3.80362
  -1.22565  -1.04971  -3.80362
  -1.70565  -0.56971  -3.80362
  -1.22565  -1.04971  -3.80362
  -1.22565  -1.04971  -3.80362
  -1.22565  -1.04971  -3.80362
  -0.74565  -1.04971  -3.80362
  -1.22565  -1.04971  -3.80362
  -1.22565  -1.04971  -3.80362
  -1.22565  -1.04971  -3.80362
  -0.74565  -1.52971  -3.32362
  -0.74565  -1.52971  -3.32362
  -0.74565  -1.04971  -3.32362
  -0.74565  -1.04971  -3.32362
  -0.74565  -1.52971  -3.32362
  -0.74565  -1.52971  -3.32362
  -0.74565  -1.04971  -3.32362
  -0.27565  -1.52971  -3.32362
  -0.27565  -1.52971  -3.32362
  -0.27565  -1.04971  -3.32362
  -0.27565  -1.52971  -3.32362
  -0.27565  -1.04971  -2.84362
   0.20435  -1.52971  -2.84362
   0.20435  -1.52971  -2.84362
   0.20435  -1.04971  -2.84362
   0.20435  -1.04971  -2.84362
   0.20435  -1.52971  -2.84362
   0.20435  -1.52971  -2.84362
   0.20435  -1.52971  -2.37362
   0.68435  -1.04971  -2.37362
   0.20435  -1.04971  -2.84362
   0.68435  -1.52971  -2.37362
   0.68435  -1.52971  -2.37362
   0.68435  -1.04971  -2.37362
   0.68435  -1.04971  -2.37362
   0.68435  -1.04971  -2.37362
   0.68435  -1.04971  -2.37362
   0.68435  -1.04971  -2.37362
   0.68435  -1.04971  -2.37362
   0.68435  -1.04971  -1.89362
   0.68435  -1.04971  -1.89362
   1.16435  -1.04971  -1.89362
   0.68435  -1.04971  -1.89362
   0.68435  -1.04971  -1.89362
   0.68435  -0.56971  -1.89362
   1.16435  -0.56971  -1.41362
   1.16435  -0.56971  -1.41362
   0.68435  -0.56971  -1.41362
   1.16435  -0.56971  -1.41362
   0.68435  -0.56971  -1.41362
   0.68435  -0.56971  -1.41362
   0.68435  -0.56971  -1.41362
   0.68435  -0.56971  -1.41362
   0.68435  -0.56971  -1.41362
   0.68435  -0.56971  -1.41362
   0.68435  -0.56971  -0.93362
   0.68435  -0.56971  -1.41362
   0.68435  -0.56971  -0.93362
   0.68435  -0.56971  -1.41362
   0.68435  -0.56971  -0.93362
   0.68435  -0.56971  -0.93362
   0.68435  -0.56971  -0.93362
   0.68435  -0.09971  -0.93362
   0.68435  -0.09971  -0.93362
   0.68435  -0.09971  -0.93362
   0.20435  -0.09971  -0.93362
   0.20435  -0.09971  -0.93362
   0.20435  -0.09971  -0.93362
   0.20435  -0.09971  -0.93362
   0.20435  -0.09971  -0.93362
   0.20435  -0.09971  -0.93362
   0.20435  -0.09971  -0.93362
   0.20435   0.38029  -0.93362
   0.20435   0.38029  -0.93362
   0.20435   0.38029  -0.45362
   0.20435   0.38029  -0.93362
  -0.27565   0.38029  -0.93362
  -0.27565   0.38029  -0.45362
  -0.27565   0.38029  -0.45362
  -0.27565   0.38029  -0.45362
  -0.27565   0.38029  -0.45362
  -0.27565   0.38029  -0.45362
  -0.27565   0.86029  -0.45362
  -0.27565   0.38029  -0.45362
  -0.27565   0.38029  -0.45362
  -0.27565   0.86029  -0.45362
  -0.27565   0.86029  -0.45362
  -0.74565   0.86029  -0.45362
  -0.27565   0.86029   0.02638
  -0.74565   0.38029   0.02638
  -0.74565   0.38029   0.02638
  -0.74565   0.86029   0.02638
  -0.74565   0.86029   0.02638
  -0.74565   0.86029   0.02638
  -0.74565   0.86029   0.02638
  -0.74565   0.86029   0.02638
  -0.74565   0.86029   0.02638
  -1.22565   0.86029   0.02638
  -0.74565   0.86029   0.50638
  -0.74565   0.86029   0.50638
  -0.74565   0.38029   0.50638
  -1.22565   0.86029   0.50638
  -1.22565   0.86029   0.50638
  -1.22565   0.86029   0.50638
  -1.22565   0.86029   0.50638
  -1.22565   0.38029   0.50638
  -1.22565   0.86029   0.50638
  -1.22565   0.38029   0.50638
  -1.70565   0.86029   0.50638
  -1.70565   0.38029   0.98638
  -1.70565   0.86029   0.50638
  -1.70565   0.38029   0.98638
  -1.70565   0.86029   0.98638
  -1.70565   0.38029   0.98638
  -1.70565   0.38029   0.98638
  -2.18565   0.38029   0.98638
  -1.70565   0.38029   0.98638
  -2.18565   0.38029   1.46638
  -2.18565   0.38029   0.98638
  -2.18565   0.38029   1.46638
  -2.18565   0.38029   0.98638
  -2.18565   0.38029   0.98638
  -2.18565   0.38029   0.98638
  -2.66565   0.38029   0.98638
  -2.66565   0.38029   0.98638
  -2.66565   0.86029   0.98638
  -2.66565   0.38029   0.98638
  -2.66565   0.38029   1.46638
  -3.14565   0.38029   1.46638
  -2.66565   0.38029   1.46638
  -3.14565   0.38029   1.46638
  -3.14565   0.38029   1.46638
  -3.14565   0.86029   1.46638
  -3.14565   0.86029   1.46638
  -3.14565   0.86029   1.46638
  -3.14565   0.38029   1.46638
  -3.14565   0.86029   1.46638
  -3.62565   0.86029   1.46638
  -3.14565   0.38029   1.46638
  -3.62565   0.86029   1.46638
  -3.62565   0.38029   1.46638
  -3.62565   0.38029   1.46638
  -3.62565   0.38029   1.46638
  -3.62565   0.38029   1.46638
  -3.62565   0.38029   1.46638
  -3.62565   0.38029   1.46638
  -3.62565   0.38029   1.46638
  -3.62565   0.38029   1.46638
  -3.62565   0.38029   1.46638
  -3.62565   0.38029   1.46638
  -3.62565   0.38029   0.98638
  -3.62565   0.38029   1.46638
  -3.62565   0.38029   1.46638
  -3.62565  -0.09971   0.98638
  -3.14565  -0.09971   1.46638
  -3.62565   0.38029   1.46638
  -3.62565  -0.09971   1.46638
  -3.62565  -0.09971   1.46638
  -3.14565  -0.09971   1.46638
  -3.62565  -0.09971   1.46638
  -3.62565  -0.09971   1.46638
  -3.14565  -0.09971   1.46638
  -3.14565  -0.09971   1.46638
  -3.14565  -0.56971   1.46638
  -3.14565  -0.09971   1.46638
  -3.14565  -0.09971   0.98638
  -3.14565  -0.09971   0.98638
  -3.14565  -0.09971   0.98638
  -3.14565  -0.56971   0.98638
  -3.14565  -0.09971   1.46638
  -3.14565  -0.09971   0.98638
  -3.14565  -0.56971   0.98638
  -3.14565  -0.09971   0.98638
  -3.14565  -0.09971   0.98638
  -3.14565  -0.56971   0.98638
  -2.66565  -0.56971   1.46638
  -3.14565  -0.56971   0.98638
  -2.66565  -0.56971   0.98638
  -3.14565  -0.56971   0.98638
  -2.66565  -0.56971   0.98638
  -3.14565  -0.56971   0.98638
  -3.14565  -0.56971   0.98638
  -3.14565  -0.56971   0.98638
  -3.14565  -0.56971   0.98638
  -3.14565  -0.56971   0.98638
  -3.14565  -0.09971   0.98638
  -3.14565  -0.56971   0.98638
  -3.14565  -0.56971   0.98638
  -3.14565  -0.56971   0.98638
  -3.14565  -0.56971   0.50638
  -3.14565  -0.09971   0.50638
  -3.62565  -0.09971   0.50638
  -3.14565  -0.09971   0.50638
  -3.62565  -0.09971   0.50638
  -3.14565  -0.09971   0.50638
  -3.14565  -0.09971   0.50638
  -3.62565  -0.09971   0.50638
  -3.62565  -0.09971   0.50638
  -3.62565   0.38029   0.50638
  -3.62565  -0.09971   0.50638
  -3.62565  -0.09971   0.50638
  -3.62565   0.38029   0.50638
  -3.62565  -0.09971   0.50638
  -3.62565   0.38029   0.50638
  -3.62565  -0.09971   0.50638
  -3.62565   0.38029   0.02638
  -3.62565   0.38029   0.02638
  -3.62565   0.38029   0.02638
  -3.14565   0.38029   0.02638
  -3.62565   0.38029   0.02638
  -3.62565   0.38029   0.02638
  -3.62565   0.38029   0.02638
  -3.14565   0.38029   0.02638
  -3.14565   0.38029   0.02638
  -3.14565   0.38029   0.02638
  -3.14565   0.38029   0.02638
  -2.66565   0.38029   0.02638
  -2.66565   0.38029  -0.45362
  -2.66565   0.38029  -0.45362
  -2.66565  -0.09971   0.02638
  -2.66565   0.38029   0.02638
  -2.18565   0.38029   0.02638
  -2.18565   0.38029   0.02638
  -2.18565   0.38029  -0.45362
  -1.70565   0.38029   0.02638
  -1.70565   0.38029   0.02638
  -1.70565   0.38029   0.02638
  -1.70565  -0.09971   0.02638
  -1.22565   0.38029   0.02638
  -1.22565  -0.09971   0.02638
  -1.22565  -0.09971   0.02638
  -0.74565  -0.09971   0.02638
  -0.74565  -0.09971   0.02638
  -0.74565  -0.09971   0.02638
  -0.27565  -0.09971   0.02638
  -0.27565  -0.09971   0.02638
   0.20435  -0.09971  -0.45362
   0.20435  -0.09971   0.02638
   0.20435  -0.56971   0.02638
   0.68435  -0.56971   0.02638
   0.68435  -0.56971   0.02638
   0.68435  -0.56971   0.02638
   1.16435  -0.56971   0.50638
   1.16435  -0.56971   0.02638
   1.16435  -0.56971   0.50638
   1.16435  -0.56971   0.02638
   1.64435  -1.04971   0.50638
   2.12435  -1.04971   0.50638
   2.12435  -0.56971   0.50638
   2.60435  -0.56971   0.50638
   2.60435  -0.56971   0.50638
   2.60435  -1.04971   0.50638
   2.60435  -0.56971   0.50638
   2.60435  -0.56971   0.50638
   3.08435  -1.04971   0.02638
   3.08435  -1.04971   0.50638
   3.08435  -1.04971   0.50638
   3.56435  -1.04971   0.50638
   4.04435  -0.56971   0.98638
   3.56435  -1.04971   0.50638
   4.04435  -1.04971   0.50638
   4.04435  -1.04971   0.50638
   4.52435  -1.04971   0.50638
   4.52435  -1.04971   0.98638
   4.52435  -1.04971   0.50638
   4.52435  -1.04971   0.50638
   4.99435  -0.56971   0.50638
   4.99435  -1.04971   0.98638
   4.99435  -1.04971   0.98638
   5.47435  -0.56971   0.98638
   5.47435  -0.56971   0.50638
   5.47435  -0.56971   0.98638
   5.47435  -0.56971   0.98638
   5.95435  -0.56971   0.98638
   5.95435  -0.09971   0.98638
   5.95435  -0.09971   0.98638
   6.43435  -0.56971   0.50638
   6.43435  -0.09971   0.98638
   6.43435  -0.09971   0.98638
   6.43435  -0.09971   0.98638
   6.43435  -0.09971   0.98638
   6.43435  -0.09971   0.98638
   6.91435  -0.09971   0.98638
   6.43435  -0.09971   0.98638
   6.91435  -0.09971   0.98638
   6.43435  -0.09971   0.98638
   6.91435  -0.09971   0.98638
   6.91435   0.38029   0.98638
   6.91435   0.38029   0.98638
   6.91435   0.38029   0.98638
   6.91435   0.38029   0.98638
   6.91435   0.86029   0.98638
   6.91435   0.38029   0.98638
   6.43435   0.38029   0.98638
   6.43435   0.86029   0.98638
   6.91435   0.38029   0.98638
   6.91435   0.86029   1.46638
   6.91435   0.86029   0.98638
   6.91435   0.86029   1.46638
   6.43435   0.86029   0.98638
   6.43435   0.86029   0.98638
   6.43435   0.86029   0.98638
   6.43435   0.86029   1.46638
   6.43435   0.86029   0.98638
   5.95435   0.86029   0.98638
   5.95435   0.86029   1.46638
   5.95435   1.34029   0.98638
   5.47435   1.34029   1.46638
   5.47435   0.86029   1.46638
   5.47435   1.34029   1.46638
   5.47435   1.34029   1.46638
   5.47435   1.34029   1.46638
   4.99435   1.34029   1.46638
   4.99435   1.34029   1.46638
   4.52435   1.34029   1.46638
   4.52435   1.34029   1.46638
   4.52435   1.34029   1.46638
   4.52435   1.34029   1.46638
   4.52435   1.34029   1.46638
   4.04435   1.34029   1.46638
   3.56435   0.86029   1.46638
   3.56435   1.34029   1.46638
   4.04435   1.34029   1.46638
   3.56435   1.34029   1.46638
   3.08435   1.34029   1.46638
   3.08435   1.34029   1.46638
   3.08435   1.34029   1.46638
   2.60435   1.34029   1.46638
   3.08435   1.34029   1.46638
   2.60435   0.86029   1.46638
   2.60435   1.34029   0.98638
   2.60435   1.34029   1.46638
   2.12435   1.34029   1.46638
   2.12435   0.86029   1.46638
   2.12435   0.86029   1.46638
   2.12435   0.86029   1.46638
   2.12435   0.86029   1.46638
   1.64435   0.86029   1.46638
   1.16435   0.86029   1.46638
   1.16435   0.86029   1.46638
   1.16435   0.86029   1.46638
   1.16435   0.86029   1.46638
   1.16435   0.86029   0.98638
   0.68435   0.86029   1.46638
   0.68435   0.86029   1.46638
   0.68435   0.86029   1.46638
   0.68435   0.38029   0.98638
   0.68435   0.38029   0.98638
   0.68435   0.38029   1.46638
   0.68435   0.38029   0.98638
   0.20435   0.38029   1.46638
   0.20435   0.38029   0.98638
   0.68435   0.38029   0.98638
   0.20435  -0.09971   1.46638
   0.20435   0.38029   0.98638
   0.20435  -0.09971   0.98638
   0.20435  -0.09971   0.98638
   0.20435  -0.09971   0.98638
   0.20435   0.38029   0.98638
  -0.27565  -0.09971   1.46638
   0.20435  -0.09971   1.46638
  -0.27565  -0.09971   0.98638
   0.20435  -0.09971   1.46638
  -0.27565  -0.56971   1.46638
  -0.27565  -0.09971   0.98638
  -0.27565  -0.09971   1.46638
  -0.27565  -0.56971   1.46638
  -0.27565  -0.09971   1.46638
  -0.27565  -0.56971   1.46638
  -0.27565  -0.56971   1.46638
  -0.27565  -0.56971   1.46638
  -0.74565  -0.56971   1.46638
  -0.74565  -0.56971   1.46638
  -0.74565  -0.56971   1.46638
  -0.74565  -0.56971   1.46638
  -0.74565  -1.04971   1.46638
  -0.74565  -0.56971   1.46638
  -0.74565  -0.56971   1.46638
  -0.74565  -0.56971   1.46638
  -1.22565  -0.56971   1.46638
  -1.22565  -0.56971   1.46638
  -1.22565  -1.04971   1.46638
  -0.74565  -1.04971   1.94638
  -1.22565  -0.56971   1.46638
  -1.22565  -1.04971   1.94638
  -1.22565  -0.56971   1.46638
  -1.22565  -1.04971   1.94638
  -1.22565  -1.04971   1.94638
  -1.22565  -1.04971   1.94638
  -1.70565  -0.56971   1.94638
  -1.70565  -0.56971   1.94638
  -1.70565  -0.56971   1.94638
  -1.70565  -0.56971   1.94638
  -1.70565  -1.04971   1.94638
  -1.70565  -0.56971   1.46638
  -1.70565  -0.56971   1.94638
  -1.70565  -0.56971   1.94638
  -1.70565  -0.56971   1.94638
  -1.70565  -0.56971   1.94638
  -1.70565  -0.56971   1.46638
  -1.70565  -0.56971   1.46638
  -1.70565  -0.56971   1.94638
  -2.18565  -0.56971   1.46638
  -1.70565  -0.09971   1.46638
  -1.70565  -0.09971   1.94638
  -1.70565  -0.09971   1.46638
  -2.18565  -0.09971   1.46638
  -1.70565  -0.09971   1.46638
  -1.70565  -0.09971   1.46638
  -1.70565  -0.09971   1.46638
  -1.70565  -0.09971   1.46638
  -1.70565  -0.09971   1.46638
  -1.70565  -0.09971   1.46638
  -1.70565  -0.09971   1.46638
  -1.70565  -0.09971   1.46638
  -1.70565  -0.09971   0.98638
  -1.70565  -0.09971   0.98638
  -1.70565  -0.09971   0.98638
  -1.22565  -0.09971   0.98638
  -1.22565  -0.09971   0.98638
  -1.70565  -0.09971   0.50638
  -1.22565  -0.09971   0.98638
  -1.22565  -0.09971   0.50638
  -1.22565  -0.09971   0.50638
  -1.22565  -0.09971   0.50638
  -1.22565   0.38029   0.50638
  -1.22565  -0.09971   0.50638
  -1.22565   0.38029   0.02638
  -0.74565  -0.09971   0.02638
  -0.74565  -0.09971   0.02638
  -0.74565  -0.09971   0.02638
  -0.74565   0.38029   0.02638
