********************************************************************************
               CENTRO DE INSTRUMENTACION Y REGISTRO SISMICO  A.C.  
                              FUNDACION ICA, A.C.
     Anaxagoras 814, Col. Narvarte, Benito Juarez, C.P. 03020 Mexico, D.F.
            Tels. 687 45 42/ 687 45  82             Fax. 669 25 12
********************************************************************************
ARCHIVO ESTANDAR DE ACELERACION:
VERSION DEL FORMATO                    : 2.0
NOMBRE DEL ARCHIVO                     : BA499101.141
FECHA Y HORA DE CREACION               : 19 de febrero de 1996/18:50
REF. CATALOGO ACELEROGRAMAS, SMIS 1995 : REGISTRO No. 2555 /PAG. 245


================================================================================
DATOS DE LA ESTACION:
NOMBRE DE LA ESTACION                  : BUENOS AIRES
CLAVE DE LA ESTACION                   : BA49
LOCALIZACION DE LA ESTACION            : ESCUELA SECUNDARIA 102, DOCTOR MARQUEZ
                                       : Y EJE CENTRAL, BUENOS AIRES.
                                       :
                                       :
                                       :
COORDENADAS DE LA ESTACION             : 19.410 LAT. N 
                                       : 99.145 LONG. W 
ALTITUD (msnm)                         : 2233
TIPO DE SUELO                          : TERRENO BLANDO, MATERIAL COMPRESIBLE
                                       : (ARCILLAS)
                                       : 
INSTITUCION RESPONSABLE                : FICA
                                       :

================================================================================
DATOS DEL ACELEROGRAFO:
MODELO DEL ACELEROGRAFO                : SSA-1
NUMERO DE SERIE DEL ACELEROGRAFO       : 176
NUMERO DE CANALES                      : 3
ORIENTACION C1-C6 (rumbo;orientacion)  : /N00E/+V/N90E
ORIENTACION C7-C12 (rumbo;orientacion) :
VEL. DE MUESTREO, C1-C6 (muestras/s)   : /200/200/200
VEL. DE MUESTREO, C7-C12 (muestras/s)  :
ESC. COMPLETA DE SENSORES, C1-C6, (g)  : /2/2/2
ESC. COMPLETA DE SENSORES, C7-C12, (g) :
FREC. NAT. DE SENSORES, C1-C6, (Hz)    : /50/50/50
FREC. NAT. DE SENSORES, C7-C12, (Hz)   :
AMORTIGUAMIENTO DE SENSORES, C1-C6     : /0.700/0.700/0.700
AMORTIGUAMIENTO DE SENSORES, C7-C12    :
INTERVALO DE MUESTREO, C1-C6, (s)      : /0.005/0.005/0.005
INTERVALO DE MUESTREO, C7-C12, (s)     :
UMBRAL DE DISPARO, C1-C6, (Gal)        : /2/2/2
UMBRAL DE DISPARO, C7-C12, (Gal)       :
MEMORIA DE PREEVENTO (s)               : 15
TIEMPO DE POSEVENTO (s)                : 90


================================================================================
DATOS DEL SISMO:
FECHA DEL SISMO (GMT)                  : 14/ENE/91
HORA EPICENTRO (GMT)                   : 21:11:06,0
MAGNITUD(ES)                           : /Mb=5.30/Ms=5.00/Mc=5.10
COORDENADAS DEL EPICENTRO              : 17.838 LAT. N 
                                       : 101.854 LONG. W
PROFUNDIDAD FOCAL (km)                 : 24.7 
FUENTE DE LOS DATOS EPICENTRALES       : INSTITUTO DE INGENIERIA UNAM
                                       : 

================================================================================
DATOS DE ESTE REGISTRO:
HORA DE LA PRIMERA MUESTRA (GMT)       : 21:11:07.00
EXACTITUD DEL TIEMPO (s)               :     
DURACION DEL REGISTRO (s), C1-C6       : /119.04/119.04/119.04
DURACION DEL REGISTRO (s), C7-C12      :
NUM. TOTAL DE MUESTRAS, C1-C6          : /23808/23808/23808
NUM. TOTAL DE MUESTRAS, C7-C12         :
ACEL. MAX. (Gal), C1-C6                : /2.64230/1.38006/2.07178
ACEL. MAX., C1-C6, EN LA MUESTRA       :
ACEL. MAX. (Gal), C7-C12               :
ACEL. MAX., C7-C12, EN LA MUESTRA      :
UNIDADES DE LOS DATOS                  : Gal (cm/s/s)
FACTOR DE DECIMACION                   : 1
FORMATO DATOS (FORTRAN,10 campos/dato) : 3F10.5


================================================================================
CALIDAD DEL ACELEROGRAMA:
REGISTRO DIGITAL COMPLETO, CARECE DE TIEMPO ABSOLUTO.


================================================================================
COMENTARIOS:
             El equipo se encontraba con una ganancia de 2 en los ejes
             horizontales y de 4 en el eje vertical, por lo que las es-
             calas completas eran de 1 g y 1/2 g respectivamente.











================================================================================
DATOS DE ACELERACION:
---------+---------+---------+---------+---------+---------+---------+---------+
   CANAL-1   CANAL-2   CANAL-3   CANAL-4   CANAL-5   CANAL-6   CANAL-7   CANAL-8
      N00E        +V      N90E
---------+---------+---------+---------+---------+---------+---------+---------+
[...]
  -0.22770  -0.53994   1.59178
  -0.22770  -0.53994   1.59178
  -0.22770  -0.53994   1.59178
  -0.22770  -0.53994   1.59178
  -0.22770  -0.53994   1.59178
  -0.22770  -0.53994   1.59178
  -0.22770  -0.53994   1.59178
  -0.22770  -0.53994   1.59178
  -0.22770  -0.53994   1.59178
   0.24230  -0.53994   1.59178
   0.24230  -0.53994   1.59178
   0.24230  -0.53994   1.59178
   0.24230  -0.53994   1.59178
   0.24230  -0.53994   1.59178
   0.24230  -0.53994   1.59178
   0.24230  -0.53994   1.59178
   0.72230  -0.53994   1.59178
   0.72230  -0.53994   1.59178
   0.24230  -0.77994   1.59178
   0.72230  -0.53994   1.59178
   1.20230  -0.53994   1.59178
   1.20230  -0.53994   1.59178
   1.20230  -0.53994   1.59178
   1.20230  -0.53994   1.59178
   1.20230  -0.53994   1.59178
   1.20230  -0.53994   1.59178
   1.20230  -0.53994   1.59178
   1.68230  -0.53994   1.59178
   1.20230  -0.53994   1.59178
   1.20230  -0.29994   1.59178
   1.20230  -0.53994   1.59178
   1.68230  -0.29994   1.59178
   1.68230  -0.29994   1.11178
   1.68230  -0.29994   1.59178
   1.68230  -0.29994   1.59178
   1.68230  -0.29994   1.11178
   1.68230  -0.29994   1.11178
   1.68230  -0.05994   1.11178
   1.68230  -0.05994   1.11178
   1.68230  -0.29994   0.63178
   1.68230  -0.05994   0.63178
   1.68230  -0.05994   0.63178
   1.68230  -0.29994   1.11178
   1.68230  -0.05994   0.63178
   1.68230  -0.05994   0.63178
   1.20230  -0.05994   0.63178
   1.68230  -0.05994   0.63178
   1.68230  -0.05994   0.63178
   1.68230   0.18006   0.63178
   1.20230   0.42006   0.15178
   1.20230   0.42006   0.15178
   1.68230   0.42006   0.15178
   1.20230   0.42006   0.15178
   1.20230   0.42006   0.15178
   1.20230   0.42006   0.15178
   1.20230   0.42006   0.15178
   1.20230   0.42006   0.15178
   1.20230   0.42006  -0.32822
   1.20230   0.42006  -0.32822
   0.72230   0.42006  -0.32822
   1.20230   0.42006  -0.32822
   0.72230   0.66006  -0.32822
   0.72230   0.66006  -0.32822
   0.72230   0.66006  -0.32822
   0.72230   0.66006  -0.32822
   0.24230   0.66006  -0.32822
   0.24230   0.66006  -0.79822
   0.72230   0.66006  -0.32822
   0.24230   0.90006  -0.79822
   0.24230   0.90006  -0.32822
   0.24230   0.66006  -0.32822
   0.24230   0.90006  -0.32822
   0.24230   0.90006  -0.32822
   0.24230   0.90006  -0.32822
   0.24230   0.90006  -0.32822
  -0.22770   1.14006  -0.79822
   0.24230   1.14006  -0.79822
   0.24230   1.14006  -0.32822
  -0.22770   1.14006  -0.79822
  -0.22770   1.14006  -0.32822
  -0.22770   1.14006  -0.79822
  -0.22770   1.14006  -0.32822
  -0.22770   1.14006  -0.32822
  -0.22770   1.14006  -0.32822
  -0.22770   1.14006  -0.32822
  -0.22770   0.90006  -0.79822
  -0.22770   1.14006  -0.32822
  -0.22770   1.14006  -0.79822
  -0.22770   0.90006  -0.32822
  -0.22770   0.66006  -0.32822
  -0.22770   0.90006  -0.32822
  -0.70770   0.66006  -0.32822
  -0.22770   0.90006  -0.32822
  -0.22770   0.66006  -0.32822
  -0.22770   0.66006  -0.32822
  -0.22770   0.66006  -0.32822
  -0.22770   0.66006  -0.32822
  -0.22770   0.66006  -0.32822
  -0.22770   0.66006  -0.32822
  -0.22770   0.66006  -0.32822
  -0.22770   0.66006  -0.32822
   0.24230   0.66006  -0.32822
   0.24230   0.42006  -0.32822
  -0.22770   0.66006  -0.32822
   0.24230   0.42006  -0.32822
   0.24230   0.42006  -0.32822
   0.24230   0.42006  -0.32822
   0.24230   0.42006  -0.32822
   0.24230   0.42006   0.15178
  -0.22770   0.42006  -0.32822
   0.24230   0.42006  -0.32822
   0.24230   0.42006  -0.32822
   0.24230   0.42006  -0.32822
   0.24230   0.42006  -0.32822
   0.24230   0.66006  -0.32822
   0.24230   0.42006  -0.32822
   0.24230   0.42006  -0.32822
   0.24230   0.42006  -0.79822
   0.24230   0.42006  -0.32822
   0.24230   0.42006  -0.32822
   0.24230   0.42006  -0.32822
   0.24230   0.42006  -0.32822
   0.24230   0.18006  -0.32822
   0.24230   0.18006  -0.32822
  -0.22770   0.18006  -0.32822
   0.24230   0.18006  -0.32822
  -0.22770   0.18006  -0.32822
  -0.22770  -0.05994  -0.79822
  -0.22770  -0.05994  -0.32822
  -0.22770  -0.05994  -0.32822
  -0.22770  -0.05994  -0.32822
  -0.22770  -0.05994  -0.32822
  -0.22770  -0.05994  -0.32822
  -0.22770  -0.05994  -0.32822
  -0.22770  -0.05994  -0.32822
  -0.22770  -0.05994  -0.79822
  -0.22770  -0.05994  -0.79822
  -0.70770   0.18006  -0.79822
  -0.70770  -0.05994  -0.32822
  -0.70770  -0.05994  -0.79822
  -0.70770   0.18006  -0.79822
  -0.70770  -0.05994  -0.79822
  -0.70770  -0.05994  -0.79822
  -0.70770   0.18006  -0.79822
  -0.70770  -0.05994  -0.79822
  -0.70770  -0.05994  -0.79822
  -0.70770  -0.05994  -0.79822
  -0.70770  -0.05994  -0.32822
  -1.18770  -0.05994  -0.79822
  -0.70770  -0.05994  -0.79822
  -0.70770  -0.05994  -0.79822
  -0.70770  -0.05994  -0.79822
  -0.70770  -0.05994  -0.32822
  -0.70770  -0.05994  -0.32822
  -0.70770  -0.05994  -0.79822
  -0.70770  -0.05994  -0.32822
  -0.70770  -0.29994  -0.32822
  -0.70770  -0.05994  -0.32822
  -0.70770  -0.29994  -0.32822
  -0.70770  -0.29994  -0.32822
  -0.70770  -0.29994  -0.32822
  -0.70770  -0.29994  -0.32822
  -0.70770  -0.29994   0.15178
  -0.70770  -0.29994   0.15178
  -0.70770  -0.29994  -0.32822
  -0.70770  -0.53994   0.15178
  -0.70770  -0.53994   0.15178
  -0.70770  -0.53994   0.15178
  -0.70770  -0.53994   0.15178
  -0.70770  -0.53994   0.15178
  -0.22770  -0.53994   0.15178
  -0.22770  -0.77994   0.15178
  -0.22770  -0.77994   0.15178
  -0.22770  -0.53994   0.15178
  -0.22770  -0.53994   0.15178
  -0.22770  -0.53994   0.63178
  -0.22770  -0.53994   0.63178
  -0.22770  -0.53994   0.63178
   0.24230  -0.53994   0.63178
   0.24230  -0.53994   0.63178
  -0.22770  -0.53994   0.63178
   0.24230  -0.53994   0.63178
  -0.22770  -0.77994   0.63178
   0.24230  -0.77994   0.63178
  -0.22770  -0.77994   1.11178
   0.24230  -1.01994   0.63178
   0.24230  -1.01994   0.63178
   0.24230  -1.01994   1.11178
   0.24230  -1.01994   1.11178
   0.72230  -1.25994   1.11178
   0.72230  -1.25994   1.11178
   0.72230  -1.25994   1.11178
   0.72230  -1.01994   1.11178
   0.72230  -1.01994   1.11178
   0.24230  -1.01994   1.11178
   0.72230  -1.01994   1.59178
   0.72230  -1.01994   1.11178
   0.72230  -1.01994   1.59178
   0.72230  -1.01994   1.11178
   0.24230  -1.01994   1.11178
   0.72230  -1.01994   1.59178
   0.24230  -1.01994   1.11178
   0.72230  -1.01994   1.11178
   0.72230  -1.01994   1.59178
   0.72230  -1.01994   1.59178
   0.24230  -1.01994   1.59178
   0.72230  -1.01994   1.59178
   0.72230  -1.01994   1.59178
   0.72230  -1.25994   1.11178
   0.72230  -1.01994   1.59178
   0.72230  -1.01994   1.59178
   0.72230  -1.01994   2.07178
   0.72230  -1.01994   1.59178
   0.72230  -1.01994   1.59178
   0.72230  -0.77994   1.59178
   0.72230  -0.77994   1.59178
   0.72230  -0.53994   1.59178
   0.72230  -0.53994   1.59178
   0.72230  -0.53994   1.59178
   0.24230  -0.53994   1.59178
   0.72230  -0.53994   1.59178
   0.72230  -0.53994   1.59178
   0.72230  -0.53994   1.59178
   0.72230  -0.53994   1.59178
   0.72230  -0.53994   1.59178
   0.72230  -0.29994   1.59178
   0.72230  -0.53994   1.59178
   0.72230  -0.29994   1.59178
   0.72230  -0.29994   1.59178
   0.72230  -0.05994   1.59178
   0.72230  -0.05994   1.59178
   0.24230  -0.05994   1.59178
   0.72230  -0.05994   1.59178
   0.72230  -0.29994   1.59178
   0.72230   0.18006   1.59178
   0.72230   0.18006   1.11178
   0.24230   0.18006   1.11178
   0.72230   0.18006   1.59178
   0.72230   0.18006   1.11178
   0.72230   0.18006   1.11178
   0.72230   0.18006   1.11178
   0.72230   0.18006   1.11178
   0.72230   0.18006   1.11178
   0.24230   0.18006   1.11178
   0.24230   0.18006   1.11178
   0.24230   0.18006   1.11178
   0.24230   0.42006   0.63178
   0.24230   0.18006   1.11178
   0.24230   0.18006   0.63178
   0.24230   0.42006   0.63178
   0.72230   0.18006   0.63178
   0.24230   0.42006   0.63178
   0.24230   0.18006   0.63178
   0.24230   0.42006   0.63178
   0.24230   0.42006   0.63178
   0.24230   0.42006   0.15178
   0.24230   0.42006   0.63178
   0.24230   0.66006   0.63178
   0.24230   0.66006   0.15178
   0.24230   0.66006   0.63178
   0.24230   0.90006   0.15178
   0.24230   0.90006   0.15178
   0.24230   0.90006   0.15178
   0.24230   0.90006   0.15178
   0.24230   0.90006   0.15178
   0.24230   0.90006  -0.32822
   0.24230   1.14006  -0.32822
   0.24230   0.66006   0.15178
   0.24230   0.66006  -0.32822
   0.24230   0.66006  -0.32822
   0.24230   0.66006  -0.32822
   0.24230   0.90006  -0.32822
   0.72230   0.66006  -0.32822
   0.72230   0.66006  -0.32822
   0.72230   0.66006  -0.32822
   0.24230   0.66006  -0.32822
   0.72230   0.66006  -0.32822
   0.72230   0.66006  -0.32822
   0.72230   0.90006  -0.32822
   0.72230   0.90006  -0.32822
   0.72230   0.66006  -0.32822
   0.72230   0.66006  -0.32822
   0.72230   0.90006  -0.32822
   0.72230   0.66006  -0.32822
   0.72230   0.66006  -0.32822
   1.20230   0.66006  -0.32822
   0.72230   0.66006  -0.32822
   0.72230   0.42006  -0.32822
   1.20230   0.66006  -0.32822
   1.20230   0.66006  -0.32822
   1.20230   0.66006  -0.32822
   1.20230   0.66006  -0.32822
   1.20230   0.66006  -0.32822
   1.20230   0.66006  -0.32822
   0.72230   0.66006  -0.32822
   1.20230   0.66006  -0.32822
   1.20230   0.66006  -0.32822
   1.20230   0.66006  -0.32822
   1.20230   0.66006  -0.32822
   1.20230   0.42006  -0.32822
   1.20230   0.66006  -0.79822
   1.20230   0.66006  -0.79822
   1.20230   0.66006  -0.32822
   0.72230   0.66006  -0.32822
   0.72230   0.42006  -0.32822
   1.20230   0.66006  -0.79822
   0.72230   0.66006  -0.79822
   0.72230   0.66006  -0.79822
   0.72230   0.66006  -1.27822
   0.24230   0.66006  -0.79822
   0.72230   0.66006  -0.79822
   0.72230   0.66006  -0.79822
   0.24230   0.66006  -0.79822
   0.24230   0.66006  -1.27822
   0.24230   0.42006  -1.27822
  -0.22770   0.42006  -0.79822
  -0.22770   0.66006  -1.75822
  -0.22770   0.42006  -1.27822
  -0.22770   0.66006  -1.27822
  -0.22770   0.66006  -1.27822
  -0.22770   0.42006  -1.27822
  -0.70770   0.66006  -1.27822
  -0.22770   0.66006  -1.27822
  -0.70770   0.66006  -1.27822
  -0.70770   0.66006  -1.27822
  -0.70770   0.66006  -1.27822
  -0.70770   0.66006  -1.27822
  -1.18770   0.66006  -1.27822
  -1.18770   0.66006  -1.27822
  -1.18770   0.66006  -1.75822
  -1.18770   0.66006  -1.75822
  -1.18770   0.42006  -1.27822
  -1.18770   0.66006  -1.75822
  -1.66770   0.42006  -1.75822
  -1.66770   0.42006  -1.75822
  -1.66770   0.42006  -1.75822
  -2.14770   0.18006  -1.75822
  -2.14770   0.42006  -1.75822
  -2.14770   0.42006  -1.75822
  -2.14770   0.42006  -1.75822
  -2.14770   0.42006  -1.75822
  -2.14770   0.42006  -1.75822
  -2.14770   0.42006  -1.27822
  -2.14770   0.18006  -1.27822
  -2.62770   0.18006  -1.27822
  -2.14770   0.18006  -1.27822
  -2.62770   0.18006  -1.27822
  -2.14770   0.18006  -1.75822
  -2.62770   0.18006  -1.27822
  -2.62770   0.18006  -1.27822
  -2.62770   0.18006  -1.27822
  -2.62770  -0.05994  -1.27822
  -2.62770  -0.05994  -1.27822
  -2.14770  -0.05994  -1.27822
  -2.62770  -0.05994  -1.27822
  -2.62770  -0.29994  -1.27822
  -2.62770  -0.29994  -1.27822
  -2.14770  -0.53994  -1.27822
  -2.14770  -0.53994  -0.79822
  -2.14770  -0.53994  -0.79822
  -2.14770  -0.53994  -1.27822
  -2.14770  -0.53994  -0.79822
  -2.14770  -0.77994  -1.27822
  -1.66770  -0.77994  -0.79822
  -1.66770  -0.77994  -0.79822
  -2.14770  -0.77994  -0.79822
  -1.66770  -0.77994  -0.79822
  -1.66770  -0.77994  -0.79822
  -1.66770  -1.01994  -0.32822
  -1.66770  -0.77994  -0.79822
  -1.66770  -1.01994  -0.79822
  -1.66770  -1.01994  -0.79822
  -1.66770  -1.01994  -0.79822
  -1.18770  -1.01994  -0.32822
  -1.18770  -1.25994  -0.32822
  -1.18770  -1.25994  -0.32822
  -1.18770  -1.01994  -0.32822
  -0.70770  -1.25994  -0.32822
  -1.18770  -1.25994  -0.32822
  -1.18770  -1.25994  -0.32822
  -0.70770  -1.25994  -0.32822
  -0.70770  -1.25994  -0.32822
  -0.70770  -1.25994  -0.32822
  -0.70770  -1.01994  -0.32822
  -0.70770  -1.01994  -0.32822
  -0.70770  -1.01994  -0.32822
  -0.70770  -1.01994  -0.32822
  -0.70770  -1.01994  -0.32822
  -0.70770  -1.25994  -0.32822
  -0.70770  -1.25994  -0.32822
  -0.70770  -1.01994   0.15178
  -0.70770  -1.01994  -0.32822
  -0.70770  -1.01994   0.15178
  -0.70770  -1.01994   0.15178
  -0.22770  -1.01994   0.15178
  -0.70770  -1.01994   0.15178
  -0.70770  -1.01994   0.15178
  -0.70770  -0.77994   0.15178
  -0.22770  -0.77994   0.15178
  -0.22770  -0.77994   0.15178
  -0.22770  -0.77994   0.15178
  -0.22770  -0.77994   0.15178
  -0.22770  -0.53994   0.15178
  -0.70770  -0.53994   0.15178
  -0.22770  -0.53994   0.15178
  -0.70770  -0.53994   0.15178
  -0.70770  -0.53994  -0.32822
  -0.22770  -0.29994  -0.32822
  -0.70770  -0.53994   0.15178
  -0.22770  -0.53994   0.15178
  -0.22770  -0.29994  -0.32822
  -0.22770  -0.29994   0.15178
  -0.22770  -0.29994   0.15178
  -0.22770  -0.29994   0.15178
   0.24230  -0.29994   0.15178
  -0.22770  -0.29994   0.15178
   0.24230  -0.29994   0.15178
   0.24230  -0.29994   0.15178
   0.24230  -0.29994   0.15178
   0.24230  -0.29994   0.15178
   0.24230  -0.29994   0.15178
   0.24230  -0.05994   0.15178
   0.24230  -0.05994   0.15178
   0.72230  -0.05994   0.15178
   0.72230  -0.05994   0.15178
   0.72230  -0.05994   0.15178
   0.72230  -0.05994   0.63178
   0.72230  -0.05994   0.15178
   0.72230  -0.05994   0.15178
   0.72230  -0.05994   0.63178
   0.72230  -0.05994   0.15178
   0.72230  -0.05994   0.15178
   1.20230  -0.05994   0.63178
   1.20230  -0.05994   0.63178
   1.20230  -0.05994   0.63178
   1.20230  -0.05994   0.63178
   1.20230  -0.05994   0.63178
   1.68230  -0.05994   0.63178
   1.68230  -0.05994   0.63178
   1.68230  -0.05994   0.63178
   1.68230  -0.05994   0.63178
   1.68230  -0.05994   0.63178
   1.68230   0.18006   0.63178
   1.68230  -0.05994   0.63178
   1.68230   0.18006   0.63178
   1.68230   0.18006   0.63178
   1.68230   0.18006   0.63178
   1.68230   0.18006   0.63178
   1.68230   0.18006   0.63178
   1.68230   0.42006   0.63178
   1.68230   0.18006   0.63178
   1.68230   0.18006   0.63178
   1.68230   0.18006   0.63178
   2.16230   0.42006   0.63178
   2.16230   0.42006   0.15178
   1.68230   0.42006   0.63178
   1.68230   0.42006   0.63178
   1.68230   0.42006   0.63178
   1.68230   0.42006   0.63178
   1.68230   0.42006   0.63178
   1.68230   0.42006   0.63178
   1.20230   0.66006   0.63178
   1.68230   0.66006   0.63178
   1.20230   0.66006   0.63178
   1.20230   0.66006   0.63178
   1.20230   0.90006   0.15178
   1.20230   0.90006   0.63178
   1.20230   0.90006   0.63178
   1.20230   1.14006   0.15178
   1.20230   1.14006   0.15178
   1.20230   1.14006   0.15178
   0.72230   1.14006   0.15178
   0.72230   1.14006  -0.32822
   0.72230   1.14006   0.15178
   0.72230   1.14006   0.15178
   0.72230   1.38006  -0.32822
   0.72230   1.14006   0.15178
   0.72230   1.38006  -0.32822
   0.72230   1.38006  -0.32822
   0.24230   1.38006  -0.32822
   0.72230   1.38006  -0.32822
   0.72230   1.38006  -0.32822
   0.24230   1.38006  -0.32822
   0.24230   1.38006  -0.32822
   0.24230   1.38006  -0.32822
   0.24230   1.38006  -0.32822
   0.24230   1.38006  -0.32822
   0.24230   1.38006  -0.32822
  -0.22770   1.38006  -0.79822
   0.24230   1.14006  -0.79822
  -0.22770   1.14006  -0.79822
  -0.22770   1.14006  -0.79822
