********************************************************************************
              CENTRO DE INSTRUMENTACION Y REGISTRO SISMICO  A.C.                

    Anaxagoras 814, Col. Narvarte, Benito Juarez, C.P. 03020 Mexico, D.F.       
           Tels. 5687 45 42/ 5687 45  82             Fax. 5669 25 12            
********************************************************************************
ARCHIVO ESTANDAR DE ACELERACION:
VERSION DEL FORMATO                    : 2.0
NOMBRE DEL ARCHIVO                     : BA4919880208135129
FECHA Y HORA DE CREACION               : 30/ABR/18, 11:16
REF. CATALOGO ACELEROGRAMAS, SMIS 1996 : REGISTRO No.     /PAG.


================================================================================
DATOS DE LA ESTACION:
NOMBRE DE LA ESTACION                  : BUENOS AIRES
CLAVE DE LA ESTACION                   : BA49
LOCALIZACION DE LA ESTACION            : Del. Cuauht�moc, Col. Doctores,        
                                       : Av. L�zaro C�rdenas esq. con           
                                       : Calle Dr. M�rquez.                     
                                       :                                        
                                       : 
COORDENADAS DE LA ESTACION             : 19.4097 LAT. N
                                       : 99.1450 LONG. W
ALTITUD (msnm)                         : 2233
TIPO DE SUELO                          : Terreno blando, material compresible
                                       : (arcillas)                
                                       : 
INSTITUCION RESPONSABLE                : CIRES


================================================================================
DATOS DEL ACELEROGRAFO:
MODELO DEL ACELEROGRAFO                : SSA-1
NUMERO DE SERIE DEL ACELEROGRAFO       : 176
NUMERO DE CANALES                      : 3
ORIENTACION C1-C6 (rumbo;orientacion)  : /S00E/+V/N90W
ORIENTACION C7-C12 (rumbo;orientacion) : 
VEL. DE MUESTREO, C1-C6 (muestras/s)   : /200/200/200
VEL. DE MUESTREO, C7-C12 (muestras/s)  : 
ESC. COMPLETA DE SENSORES, C1-C6, (g)  : /1.0/1.0/1.0
ESC. COMPLETA DE SENSORES, C7-C12, (g) : 
FREC. NAT. DE SENSORES, C1-C6, (Hz)    : /52.99/52.03/52.99
FREC. NAT. DE SENSORES, C7-C12, (Hz)   : 
AMORTIGUAMIENTO DE SENSORES, C1-C6     : /0.5589/0.5469/0.6096
AMORTIGUAMIENTO DE SENSORES, C7-C12    : 
INTERVALO DE MUESTREO, C1-C6, (s)      : /0.005/0.005/0.005
INTERVALO DE MUESTREO, C7-C12, (s)     : 
UMBRAL DE DISPARO, C1-C6, (Gal)        : /1.0/2.0/1.0
UMBRAL DE DISPARO, C7-C12, (Gal)       : 
MEMORIA DE PREEVENTO (s)               : 15.36
TIEMPO DE POSEVENTO (s)                : 50.0


================================================================================
DATOS DEL SISMO:
FECHA DEL SISMO (GMT)                  : 08/FEB/88
HORA EPICENTRO (GMT)                   : 13:51:29.0
MAGNITUD(ES)                           : /Mc=5.0
COORDENADAS DEL EPICENTRO              : 17.49 LAT. N
                                       : -101.15 LONG. W
PROFUNDIDAD FOCAL (km)                 : 19
FUENTE DE LOS DATOS EPICENTRALES       : SSN
                                       : INSTITUTO DE GEOFISICA, UNAM

================================================================================
DATOS DE ESTE REGISTRO:
HORA DE LA PRIMERA MUESTRA (GMT)       : 13:52:53.98
EXACTITUD DEL TIEMPO (s)               : 0.005
DURACION DEL REGISTRO (s), C1-C6       : /78.08/78.08/78.08
DURACION DEL REGISTRO (s), C7-C12      : 
NUM. TOTAL DE MUESTRAS, C1-C6          : /15616/15616/15616
NUM. TOTAL DE MUESTRAS, C7-C12         : 
ACEL. MAX. (Gal), C1-C6                : /2.88756/1.83933/2.39857
ACEL. MAX., C1-C6, EN LA MUESTRA       : /3219/4936/5786
ACEL. MAX. (Gal), C7-C12               : 
ACEL. MAX., C7-C12, EN LA MUESTRA      : 
UNIDADES DE LOS DATOS                  : Gal (cm/s/s)
FACTOR DE DECIMACION                   : 1
FORMATO DATOS (FORTRAN,10 campos/dato) : 3F10.5


================================================================================
CALIDAD DEL ACELEROGRAMA:
REGISTRO DIGITAL COMPLETO CON TIEMPO ABSOLUTO CORRECTO.


================================================================================
COMENTARIOS:














================================================================================
DATOS DE ACELERACION:
---------+---------+---------+---------+---------+---------+---------+---------+
   CANAL-1   CANAL-2   CANAL-3   CANAL-4   CANAL-5   CANAL-6   CANAL-7   CANAL-8
      N00E        +V      N90W
---------+---------+---------+---------+---------+---------+---------+---------+
[...]
  -0.70374   0.07603  -0.00437
  -0.70374   0.07603  -0.00437
  -0.70374   0.07603  -0.00437
  -0.94316   0.07603  -0.00437
  -0.70374   0.07603  -0.00437
  -0.70374   0.07603  -0.00437
  -0.94316   0.07603  -0.00437
  -0.94316   0.07603  -0.00437
  -0.94316   0.07603  -0.00437
  -0.94316   0.07603  -0.00437
  -0.94316   0.07603  -0.00437
  -0.94316   0.07603  -0.00437
  -0.94316   0.31545  -0.24379
  -0.94316   0.31545  -0.00437
  -0.94316   0.07603  -0.00437
  -0.94316   0.31545  -0.00437
  -0.94316   0.31545  -0.24379
  -0.94316   0.31545  -0.24379
  -0.94316   0.07603  -0.24379
  -0.94316   0.07603  -0.24379
  -0.94316   0.07603  -0.24379
  -0.94316   0.07603  -0.24379
  -0.94316   0.07603  -0.00437
  -0.94316   0.07603  -0.24379
  -0.94316   0.07603  -0.00437
  -0.94316   0.07603  -0.24379
  -0.94316   0.07603  -0.24379
  -1.18258   0.07603  -0.00437
  -0.94316   0.07603  -0.00437
  -0.94316  -0.16339  -0.00437
  -0.94316   0.07603  -0.00437
  -0.70374  -0.16339  -0.00437
  -0.70374  -0.16339  -0.00437
  -0.70374  -0.16339  -0.00437
  -0.94316   0.07603  -0.00437
  -0.70374  -0.16339  -0.00437
  -0.70374  -0.16339   0.23505
  -0.70374  -0.16339   0.23505
  -0.70374  -0.16339   0.23505
  -0.70374  -0.16339   0.23505
  -0.46432  -0.16339   0.23505
  -0.70374  -0.40281   0.23505
  -0.70374  -0.40281   0.23505
  -0.70374  -0.40281   0.47447
  -0.46432  -0.40281   0.47447
  -0.46432  -0.40281   0.47447
  -0.22490  -0.40281   0.47447
  -0.46432  -0.40281   0.23505
  -0.46432  -0.40281   0.47447
  -0.22490  -0.40281   0.47447
  -0.22490  -0.40281   0.47447
  -0.22490  -0.64223   0.71389
  -0.22490  -0.40281   0.71389
   0.01452  -0.40281   0.71389
   0.01452  -0.40281   0.71389
   0.01452  -0.40281   0.71389
   0.01452  -0.64223   0.95331
   0.25394  -0.40281   0.95331
   0.25394  -0.40281   0.95331
   0.25394  -0.64223   0.95331
   0.25394  -0.40281   0.71389
   0.25394  -0.40281   0.71389
   0.25394  -0.40281   0.95331
   0.25394  -0.40281   0.95331
   0.25394  -0.40281   0.95331
   0.25394  -0.40281   0.95331
   0.25394  -0.40281   0.95331
   0.25394  -0.40281   0.95331
   0.49336  -0.40281   0.95331
   0.49336  -0.64223   0.95331
   0.49336  -0.64223   0.95331
   0.49336  -0.40281   0.95331
   0.49336  -0.40281   0.95331
   0.49336  -0.40281   0.95331
   0.73278  -0.64223   0.95331
   0.73278  -0.40281   0.95331
   0.73278  -0.40281   0.95331
   0.73278  -0.40281   0.95331
   0.73278  -0.40281   0.95331
   0.73278  -0.40281   0.95331
   0.73278  -0.40281   0.95331
   0.97220  -0.40281   0.71389
   0.97220  -0.40281   0.71389
   0.97220  -0.40281   0.95331
   1.21162  -0.40281   0.71389
   1.21162  -0.16339   0.71389
   0.97220  -0.40281   0.71389
   1.21162  -0.40281   0.71389
   1.21162  -0.40281   0.71389
   1.45104  -0.40281   0.71389
   1.45104  -0.40281   0.71389
   1.45104  -0.16339   0.71389
   1.45104  -0.16339   0.71389
   1.45104  -0.16339   0.71389
   1.45104  -0.16339   0.71389
   1.45104   0.07603   0.71389
   1.45104   0.07603   0.71389
   1.45104   0.07603   0.71389
   1.45104   0.07603   0.71389
   1.45104   0.07603   0.47447
   1.69046   0.07603   0.71389
   1.69046   0.07603   0.47447
   1.69046   0.07603   0.47447
   1.69046   0.07603   0.47447
   1.69046   0.07603   0.47447
   1.92988   0.07603   0.47447
   1.92988   0.07603   0.47447
   1.92988   0.07603   0.47447
   1.92988   0.07603   0.47447
   1.92988   0.07603   0.47447
   1.69046   0.07603   0.47447
   1.92988   0.07603   0.47447
   1.92988   0.07603   0.47447
   1.92988   0.07603   0.47447
   1.92988   0.07603   0.47447
   1.92988   0.07603   0.47447
   1.92988   0.07603   0.47447
   1.92988   0.07603   0.47447
   1.92988   0.31545   0.47447
   1.92988   0.07603   0.47447
   1.92988   0.07603   0.47447
   1.92988   0.07603   0.23505
   1.92988   0.07603   0.47447
   2.16930   0.07603   0.23505
   1.92988   0.31545   0.23505
   2.16930   0.07603   0.47447
   1.92988   0.07603   0.23505
   2.16930   0.07603   0.23505
   1.92988   0.07603   0.23505
   1.92988   0.07603   0.23505
   1.92988   0.31545   0.23505
   1.92988   0.31545   0.23505
   2.16930   0.31545   0.23505
   2.16930   0.31545   0.23505
   2.16930   0.31545   0.23505
   1.92988   0.55487   0.23505
   1.92988   0.55487   0.23505
   2.16930   0.55487  -0.00437
   1.92988   0.55487   0.23505
   1.92988   0.55487   0.23505
   1.92988   0.55487  -0.00437
   1.92988   0.55487   0.23505
   1.92988   0.55487   0.23505
   1.92988   0.55487  -0.00437
   1.92988   0.55487  -0.00437
   1.92988   0.55487  -0.00437
   1.92988   0.55487  -0.24379
   1.92988   0.55487  -0.00437
   1.92988   0.55487  -0.24379
   1.69046   0.55487  -0.24379
   1.69046   0.55487  -0.24379
   1.69046   0.55487  -0.24379
   1.69046   0.55487  -0.24379
   1.69046   0.31545  -0.24379
   1.69046   0.31545  -0.48321
   1.45104   0.31545  -0.48321
   1.45104   0.07603  -0.48321
   1.45104   0.31545  -0.48321
   1.45104   0.31545  -0.72263
   1.45104   0.55487  -0.72263
   1.45104   0.31545  -0.72263
   1.45104   0.31545  -0.72263
   1.21162   0.31545  -0.96205
   1.21162   0.31545  -0.96205
   1.21162   0.31545  -0.96205
   1.21162   0.31545  -0.96205
   0.97220   0.07603  -0.96205
   0.97220   0.31545  -0.96205
   0.97220   0.07603  -0.96205
   0.97220   0.07603  -0.96205
   0.73278   0.07603  -0.96205
   0.73278   0.07603  -1.20147
   0.73278   0.31545  -0.96205
   0.49336   0.31545  -1.20147
   0.49336   0.31545  -1.20147
   0.49336   0.31545  -1.20147
   0.25394   0.07603  -1.20147
   0.49336   0.07603  -1.20147
   0.25394   0.07603  -1.20147
   0.25394   0.07603  -1.20147
   0.25394   0.07603  -1.20147
   0.01452   0.07603  -1.20147
  -0.22490   0.31545  -1.44089
   0.01452   0.07603  -1.44089
  -0.22490   0.07603  -1.44089
  -0.22490   0.07603  -1.44089
  -0.46432   0.07603  -1.44089
  -0.46432   0.07603  -1.44089
  -0.46432   0.07603  -1.68031
  -0.46432   0.07603  -1.44089
  -0.70374   0.31545  -1.68031
  -0.70374   0.07603  -1.44089
  -0.70374   0.07603  -1.44089
  -0.94316   0.07603  -1.44089
  -0.94316   0.07603  -1.44089
  -0.94316   0.07603  -1.44089
  -1.18258   0.07603  -1.44089
  -1.18258   0.07603  -1.44089
  -1.18258   0.07603  -1.44089
  -1.18258   0.07603  -1.44089
  -1.18258   0.07603  -1.44089
  -1.42200   0.07603  -1.44089
  -1.42200   0.07603  -1.20147
  -1.42200   0.07603  -1.44089
  -1.42200   0.07603  -1.20147
  -1.42200   0.07603  -1.20147
  -1.66142   0.07603  -1.20147
  -1.66142   0.07603  -1.20147
  -1.66142   0.07603  -0.96205
  -1.66142   0.07603  -1.20147
  -1.66142   0.07603  -0.96205
  -1.66142   0.07603  -0.96205
  -1.90084   0.07603  -0.72263
  -1.90084   0.07603  -0.72263
  -1.90084  -0.16339  -0.96205
  -1.90084   0.07603  -0.48321
  -2.14026  -0.16339  -0.48321
  -2.14026   0.07603  -0.72263
  -1.90084   0.07603  -0.24379
  -2.14026   0.07603  -0.24379
  -2.37968   0.07603  -0.24379
  -2.14026   0.07603  -0.00437
  -2.14026   0.07603  -0.00437
  -2.14026   0.07603   0.23505
  -2.14026   0.07603   0.23505
  -2.14026   0.07603   0.23505
  -2.14026   0.07603   0.47447
  -2.37968   0.07603   0.47447
  -2.37968   0.07603   0.71389
  -2.37968   0.07603   0.71389
  -2.37968   0.07603   0.71389
  -2.37968   0.07603   0.71389
  -2.37968   0.07603   0.95331
  -2.37968   0.07603   0.95331
  -2.37968   0.07603   0.95331
  -2.37968   0.07603   0.95331
  -2.37968   0.07603   1.19273
  -2.37968   0.07603   1.19273
  -2.37968   0.07603   1.19273
  -2.37968  -0.16339   1.43215
  -2.37968  -0.16339   1.43215
  -2.37968  -0.16339   1.19273
  -2.37968  -0.16339   1.43215
  -2.37968  -0.40281   1.43215
  -2.37968  -0.40281   1.43215
  -2.37968  -0.40281   1.43215
  -2.37968  -0.40281   1.67157
  -2.37968  -0.40281   1.67157
  -2.14026  -0.40281   1.67157
  -2.14026  -0.40281   1.67157
  -2.14026  -0.40281   1.43215
  -2.14026  -0.64223   1.67157
  -2.14026  -0.40281   1.67157
  -2.14026  -0.40281   1.67157
  -2.14026  -0.40281   1.43215
  -2.14026  -0.40281   1.67157
  -2.14026  -0.40281   1.43215
  -1.90084  -0.40281   1.43215
  -1.90084  -0.40281   1.43215
  -1.66142  -0.40281   1.43215
  -1.66142  -0.16339   1.43215
  -1.66142  -0.16339   1.43215
  -1.66142  -0.16339   1.43215
  -1.42200  -0.16339   1.43215
  -1.42200  -0.16339   1.19273
  -1.66142  -0.16339   1.19273
  -1.42200  -0.16339   1.19273
  -1.42200  -0.16339   1.19273
  -1.42200  -0.16339   1.19273
  -1.42200  -0.16339   0.95331
  -1.18258  -0.40281   0.95331
  -1.42200  -0.16339   0.95331
  -1.18258  -0.16339   0.95331
  -1.18258  -0.16339   0.95331
  -1.18258  -0.40281   0.95331
  -1.18258  -0.16339   0.71389
  -1.18258  -0.16339   0.71389
  -1.18258  -0.16339   0.71389
  -1.18258  -0.16339   0.71389
  -1.18258  -0.16339   0.71389
  -0.94316  -0.16339   0.71389
  -1.18258  -0.16339   0.71389
  -0.94316  -0.16339   0.71389
  -0.94316  -0.16339   0.47447
  -0.94316   0.07603   0.47447
  -0.94316  -0.16339   0.47447
  -0.70374  -0.16339   0.47447
  -0.94316  -0.16339   0.47447
  -0.70374  -0.16339   0.47447
  -0.70374  -0.16339   0.47447
  -0.70374  -0.16339   0.47447
  -0.46432  -0.16339   0.47447
  -0.70374  -0.16339   0.23505
  -0.70374  -0.16339   0.23505
  -0.46432  -0.16339   0.23505
  -0.70374  -0.16339   0.23505
  -0.70374  -0.16339   0.23505
  -0.46432  -0.16339   0.23505
  -0.46432  -0.16339   0.23505
  -0.70374  -0.16339   0.23505
  -0.46432  -0.16339   0.23505
  -0.46432  -0.16339   0.23505
  -0.46432   0.07603  -0.00437
  -0.22490   0.07603   0.23505
  -0.22490   0.07603   0.23505
  -0.22490   0.07603   0.23505
  -0.22490   0.31545  -0.00437
   0.01452   0.07603   0.23505
   0.01452   0.07603   0.23505
   0.01452   0.31545   0.23505
   0.25394   0.31545  -0.00437
   0.01452   0.31545  -0.00437
   0.25394   0.31545  -0.00437
   0.25394   0.31545  -0.00437
   0.49336   0.31545  -0.00437
   0.49336   0.07603  -0.00437
   0.49336   0.07603  -0.00437
   0.49336   0.07603  -0.00437
   0.49336   0.07603  -0.00437
   0.73278   0.07603  -0.00437
   0.73278  -0.16339  -0.00437
   0.97220  -0.16339  -0.24379
   0.97220  -0.16339  -0.24379
   0.97220  -0.16339  -0.24379
   0.97220  -0.16339  -0.24379
   1.21162  -0.16339  -0.24379
   1.21162  -0.40281  -0.24379
   1.21162  -0.40281  -0.24379
   1.45104  -0.40281  -0.24379
   1.45104  -0.40281  -0.24379
   1.45104  -0.64223  -0.24379
   1.69046  -0.40281  -0.24379
   1.69046  -0.64223  -0.24379
   1.69046  -0.40281  -0.48321
   1.92988  -0.64223  -0.48321
   1.92988  -0.64223  -0.48321
   1.92988  -0.64223  -0.48321
   2.16930  -0.64223  -0.48321
   2.16930  -0.40281  -0.48321
   2.16930  -0.40281  -0.48321
   2.16930  -0.40281  -0.48321
   2.40872  -0.40281  -0.48321
   2.40872  -0.40281  -0.48321
   2.40872  -0.40281  -0.48321
   2.64814  -0.40281  -0.48321
   2.64814  -0.40281  -0.72263
   2.88756  -0.64223  -0.48321
   2.88756  -0.64223  -0.48321
   2.88756  -0.64223  -0.48321
   2.88756  -0.64223  -0.72263
   2.88756  -0.64223  -0.48321
   2.88756  -0.64223  -0.72263
   2.88756  -0.64223  -0.96205
   2.88756  -0.64223  -0.48321
   2.88756  -0.64223  -0.96205
   2.88756  -0.64223  -0.48321
   2.88756  -0.64223  -0.48321
   2.88756  -0.64223  -0.48321
   2.88756  -0.64223  -0.48321
   2.88756  -0.40281  -0.72263
   2.88756  -0.40281  -0.48321
   2.88756  -0.40281  -0.48321
   2.88756  -0.40281  -0.48321
   2.88756  -0.16339  -0.48321
   2.88756  -0.16339  -0.72263
   2.88756  -0.16339  -0.48321
   2.64814   0.07603  -0.48321
   2.64814   0.07603  -0.48321
   2.64814  -0.16339  -0.48321
   2.40872   0.07603  -0.48321
   2.40872   0.07603  -0.48321
   2.40872   0.07603  -0.48321
   2.16930   0.07603  -0.48321
   2.16930   0.07603  -0.24379
   2.16930   0.07603  -0.24379
   2.16930   0.31545  -0.24379
   2.16930   0.07603  -0.24379
   1.92988   0.31545  -0.24379
   1.92988   0.31545  -0.24379
   1.92988   0.31545  -0.24379
   1.69046   0.31545  -0.24379
   1.92988   0.55487  -0.24379
   1.69046   0.55487  -0.24379
   1.69046   0.31545  -0.00437
   1.69046   0.55487  -0.00437
   1.69046   0.55487  -0.00437
   1.45104   0.79429  -0.00437
   1.45104   0.79429  -0.00437
   1.21162   0.79429  -0.00437
   1.45104   0.79429  -0.00437
   1.21162   0.79429  -0.00437
   1.45104   0.79429   0.23505
   1.21162   1.03371  -0.00437
   1.21162   0.79429   0.23505
   1.21162   0.79429   0.23505
   1.21162   0.79429   0.23505
   1.21162   0.79429   0.23505
   1.21162   0.79429   0.23505
   0.97220   0.79429   0.23505
   0.97220   0.79429   0.23505
   0.97220   0.79429   0.23505
   0.97220   1.03371   0.23505
   0.97220   0.79429   0.23505
   0.97220   1.03371   0.23505
   0.73278   0.79429   0.23505
   0.73278   0.79429   0.23505
   0.73278   0.79429   0.23505
   0.73278   0.79429   0.23505
   0.73278   0.79429   0.23505
   0.49336   0.79429   0.23505
   0.73278   0.55487   0.23505
   0.73278   0.55487   0.23505
   0.49336   0.55487   0.23505
   0.49336   0.55487   0.23505
   0.49336   0.31545   0.23505
   0.49336   0.55487   0.23505
   0.49336   0.55487   0.23505
   0.49336   0.55487   0.23505
   0.49336   0.55487   0.23505
   0.01452   0.55487   0.23505
   0.25394   0.55487   0.23505
   0.01452   0.31545   0.23505
  -0.22490   0.55487   0.23505
  -0.22490   0.55487   0.23505
  -0.22490   0.31545   0.23505
  -0.46432   0.31545   0.23505
  -0.46432   0.31545   0.23505
  -0.46432   0.31545   0.23505
  -0.70374   0.31545  -0.00437
  -0.70374   0.31545   0.23505
  -0.94316   0.07603   0.23505
  -0.94316   0.07603  -0.00437
  -0.94316   0.07603   0.23505
  -1.18258   0.07603  -0.00437
  -1.18258   0.07603  -0.00437
  -1.42200   0.07603  -0.00437
  -1.42200   0.07603  -0.00437
  -1.42200   0.07603  -0.00437
  -1.42200   0.07603  -0.00437
  -1.66142   0.07603  -0.00437
  -1.66142   0.07603  -0.00437
  -1.66142   0.07603  -0.00437
  -2.14026   0.07603  -0.00437
  -2.14026   0.07603  -0.24379
  -2.37968   0.07603  -0.24379
  -2.37968   0.07603  -0.24379
  -2.37968   0.07603  -0.24379
  -2.61910   0.07603  -0.24379
  -2.37968   0.07603  -0.24379
  -2.61910   0.07603  -0.48321
  -2.61910   0.07603  -0.48321
  -2.61910   0.07603  -0.24379
  -2.85852   0.07603  -0.48321
  -2.61910   0.07603  -0.24379
  -2.61910   0.07603  -0.48321
  -2.61910   0.07603  -0.24379
  -2.61910   0.07603  -0.24379
  -2.61910   0.07603  -0.24379
  -2.61910   0.07603  -0.48321
  -2.61910   0.07603  -0.48321
  -2.61910   0.07603  -0.48321
  -2.61910   0.07603  -0.48321
  -2.61910   0.07603  -0.24379
  -2.61910   0.07603  -0.48321
  -2.61910   0.07603  -0.24379
  -2.61910   0.07603  -0.24379
  -2.61910   0.07603  -0.48321
  -2.61910   0.07603  -0.48321
  -2.37968   0.07603  -0.24379
  -2.37968   0.07603  -0.48321
  -2.37968   0.07603  -0.48321
  -2.37968  -0.16339  -0.48321
  -2.37968  -0.16339  -0.48321
  -2.37968  -0.16339  -0.48321
  -2.14026  -0.40281  -0.48321
  -2.14026  -0.40281  -0.48321
  -2.14026  -0.40281  -0.48321
  -2.14026  -0.40281  -0.48321
  -2.14026  -0.40281  -0.48321
  -1.90084  -0.40281  -0.48321
  -2.14026  -0.40281  -0.24379
  -1.66142  -0.64223  -0.24379
  -1.90084  -0.64223  -0.24379
  -1.66142  -0.64223  -0.24379
  -1.66142  -0.64223  -0.24379
  -1.66142  -0.64223  -0.24379
  -1.66142  -0.64223  -0.24379
  -1.42200  -0.88165  -0.24379
  -1.42200  -0.88165  -0.24379
  -1.42200  -0.64223  -0.24379
  -1.42200  -0.88165  -0.24379
  -1.42200  -0.88165  -0.00437
  -1.42200  -1.12107  -0.00437
  -1.42200  -0.88165  -0.00437
  -1.42200  -0.88165  -0.00437
  -1.18258  -0.88165  -0.00437
