********************************************************************************
               CENTRO DE INSTRUMENTACION Y REGISTRO SISMICO  A.C.
                              FUNDACION ICA, A.C.
     Anaxagoras 814, Col. Narvarte, Benito Juarez, C.P. 03020 Mexico, D.F.
            Tels. 687 45 42/ 687 45  82             Fax. 669 25 12
********************************************************************************
ARCHIVO ESTANDAR DE ACELERACION:
VERSION DEL FORMATO                    : 2.0
NOMBRE DEL ARCHIVO                     : BA499203.311
FECHA Y HORA DE CREACION               : 19 de febrero de 1996/18:05
REF. CATALOGO ACELEROGRAMAS, SMIS 1995 : REGISTRO No. 3331 /PAG. 310


================================================================================
DATOS DE LA ESTACION:
NOMBRE DE LA ESTACION                  : BUENOS AIRES
CLAVE DE LA ESTACION                   : BA49
LOCALIZACION DE LA ESTACION            : ESCUELA SECUNDARIA 102, DOCTOR MARQUEZ
                                       : Y EJE CENTRAL, BUENOS AIRES.
                                       :
                                       :
                                       :
COORDENADAS DE LA ESTACION             : 19.410 LAT. N
                                       : 99.145 LONG. W
ALTITUD (msnm)                         : 2233
TIPO DE SUELO                          : TERRENO BLANDO, MATERIAL COMPRESIBLE
                                       : (ARCILLAS)
                                       :
INSTITUCION RESPONSABLE                : FICA
                                       :

================================================================================
DATOS DEL ACELEROGRAFO:
MODELO DEL ACELEROGRAFO                : SSA-1
NUMERO DE SERIE DEL ACELEROGRAFO       : 176
NUMERO DE CANALES                      : 3
ORIENTACION C1-C6 (rumbo;orientacion)  : /N00E/+V/N90E
ORIENTACION C7-C12 (rumbo;orientacion) :
VEL. DE MUESTREO, C1-C6 (muestras/s)   : /200/200/200
VEL. DE MUESTREO, C7-C12 (muestras/s)  :
ESC. COMPLETA DE SENSORES, C1-C6, (g)  : /2/2/2
ESC. COMPLETA DE SENSORES, C7-C12, (g) :
FREC. NAT. DE SENSORES, C1-C6, (Hz)    : /50/50/50
FREC. NAT. DE SENSORES, C7-C12, (Hz)   :
AMORTIGUAMIENTO DE SENSORES, C1-C6     : /0.700/0.700/0.700
AMORTIGUAMIENTO DE SENSORES, C7-C12    :
INTERVALO DE MUESTREO, C1-C6, (s)      : /0.005/0.005/0.005
INTERVALO DE MUESTREO, C7-C12, (s)     :
UMBRAL DE DISPARO, C1-C6, (Gal)        : /2/2/2
UMBRAL DE DISPARO, C7-C12, (Gal)       :
MEMORIA DE PREEVENTO (s)               : 15
TIEMPO DE POSEVENTO (s)                : 90


================================================================================
DATOS DEL SISMO:
FECHA DEL SISMO (GMT)                  : 31/MAR/92
HORA EPICENTRO (GMT)                   : 20:56:33,6
MAGNITUD(ES)                           : /Mb=5.20/Ms=5.10/Mc=4.70
COORDENADAS DEL EPICENTRO              : 17.233 LAT. N 
                                       : 101.302 LONG. W
PROFUNDIDAD FOCAL (km)                 : 11 
FUENTE DE LOS DATOS EPICENTRALES       : INSTITUTO DE INGENIERIA UNAM
                                       : 

================================================================================
DATOS DE ESTE REGISTRO:
HORA DE LA PRIMERA MUESTRA (GMT)       : 20:56:00.00
EXACTITUD DEL TIEMPO (s)               :
DURACION DEL REGISTRO (s), C1-C6       : /115.20/115.20/115.20
DURACION DEL REGISTRO (s), C7-C12      :
NUM. TOTAL DE MUESTRAS, C1-C6          : /23040/23040/23040
NUM. TOTAL DE MUESTRAS, C7-C12         :
ACEL. MAX. (Gal), C1-C6                : /2.70094/0.93192/2.47509
ACEL. MAX., C1-C6, EN LA MUESTRA       :
ACEL. MAX. (Gal), C7-C12               :
ACEL. MAX., C7-C12, EN LA MUESTRA      :
UNIDADES DE LOS DATOS                  : Gal (cm/s/s)
FACTOR DE DECIMACION                   : 1
FORMATO DATOS (FORTRAN,10 campos/dato) : 3F10.5


================================================================================
CALIDAD DEL ACELEROGRAMA:
REGISTRO DIGITAL COMPLETO, CARECE DE TIEMPO ABSOLUTO.


================================================================================
COMENTARIOS: 
             El equipo se encontraba con una ganancia de 2 en los ejes
             horizontales y de 4 en el eje vertical, por lo que las es-
             calas completas eran de 1 g y 1/2 g respectivamente.











================================================================================
DATOS DE ACELERACION:
---------+---------+---------+---------+---------+---------+---------+---------+
   CANAL-1   CANAL-2   CANAL-3   CANAL-4   CANAL-5   CANAL-6   CANAL-7   CANAL-8
      N00E        +V      N90E
---------+---------+---------+---------+---------+---------+---------+---------+
[...]
   1.60906   0.01808   0.40491
   1.60906   0.25808  -0.07509
   1.60906   0.25808   0.40491
   1.60906   0.25808   0.40491
   1.60906   0.25808  -0.07509
   1.60906   0.25808  -0.07509
   1.60906   0.25808  -0.07509
   1.60906   0.25808  -0.07509
   1.60906   0.25808  -0.07509
   1.60906   0.25808  -0.07509
   1.60906   0.25808  -0.07509
   1.60906   0.25808   0.40491
   1.60906   0.25808  -0.07509
   1.60906   0.25808  -0.07509
   1.60906   0.25808  -0.07509
   1.60906   0.25808   0.40491
   1.60906   0.25808   0.40491
   1.60906   0.25808  -0.07509
   1.60906   0.25808  -0.07509
   1.60906   0.25808  -0.07509
   1.60906   0.25808  -0.07509
   1.60906   0.25808   0.40491
   1.60906   0.25808   0.40491
   1.60906   0.25808   0.40491
   1.60906   0.25808  -0.07509
   1.60906   0.25808  -0.07509
   1.60906   0.25808  -0.07509
   1.60906   0.25808  -0.07509
   1.60906   0.25808  -0.07509
   1.60906   0.49808   0.40491
   1.60906   0.25808  -0.07509
   1.60906   0.25808  -0.07509
   1.60906   0.25808  -0.07509
   1.60906   0.25808  -0.07509
   1.60906   0.25808  -0.07509
   1.60906   0.01808   0.40491
   1.60906   0.01808  -0.07509
   1.12906   0.01808  -0.07509
   1.60906   0.01808   0.40491
   1.12906   0.01808  -0.07509
   1.60906   0.01808   0.40491
   1.60906   0.01808   0.40491
   1.60906   0.01808   0.40491
   1.60906   0.25808  -0.07509
   1.60906   0.01808   0.40491
   1.60906   0.25808  -0.07509
   1.60906   0.01808  -0.07509
   1.12906   0.01808  -0.07509
   1.12906   0.25808  -0.07509
   1.12906   0.01808  -0.07509
   1.12906   0.01808   0.40491
   1.12906   0.01808   0.40491
   1.12906   0.25808   0.40491
   1.12906   0.01808  -0.07509
   1.12906   0.01808  -0.07509
   1.12906   0.01808   0.40491
   1.12906   0.01808   0.40491
   1.12906   0.25808  -0.07509
   1.12906   0.01808  -0.07509
   0.65906   0.25808  -0.07509
   0.65906   0.25808   0.40491
   0.65906   0.01808   0.40491
   0.65906   0.01808  -0.07509
   0.65906   0.25808   0.40491
   0.65906   0.01808   0.40491
   0.65906   0.25808   0.40491
   0.65906   0.25808  -0.07509
   0.65906   0.25808   0.40491
   0.65906   0.25808  -0.07509
   0.65906   0.25808  -0.07509
   0.65906   0.25808   0.40491
   0.65906   0.25808   0.40491
   0.65906   0.25808  -0.07509
   0.65906   0.25808  -0.07509
   0.65906   0.25808   0.40491
   0.65906   0.25808  -0.07509
   0.65906   0.25808   0.40491
   0.65906   0.25808   0.40491
   0.17906   0.25808  -0.07509
   0.65906   0.25808  -0.07509
   0.17906   0.25808  -0.07509
   0.65906   0.25808   0.40491
   0.65906   0.25808   0.40491
   0.65906   0.25808   0.40491
   0.65906   0.25808   0.40491
   0.65906   0.49808  -0.07509
   0.17906   0.49808  -0.07509
   0.17906   0.49808   0.40491
   0.17906   0.49808  -0.07509
   0.17906   0.25808  -0.07509
   0.17906   0.49808  -0.07509
   0.17906   0.25808   0.40491
   0.17906   0.25808  -0.07509
   0.17906   0.25808   0.40491
   0.17906   0.25808   0.40491
   0.17906   0.25808   0.40491
   0.17906   0.49808   0.40491
   0.17906   0.49808   0.40491
   0.17906   0.49808   0.40491
   0.17906   0.49808   0.40491
   0.17906   0.49808   0.40491
   0.17906   0.49808   0.40491
   0.17906   0.49808   0.40491
   0.17906   0.49808   0.40491
   0.17906   0.49808  -0.07509
   0.17906   0.49808  -0.07509
   0.17906   0.25808   0.40491
   0.17906   0.25808   0.40491
   0.17906   0.25808   0.40491
   0.17906   0.25808   0.40491
   0.17906   0.25808   0.40491
   0.17906   0.25808   0.40491
   0.17906   0.25808  -0.07509
   0.17906   0.25808   0.40491
   0.17906   0.25808   0.40491
   0.17906   0.25808   0.40491
   0.17906   0.25808  -0.07509
   0.17906   0.25808   0.40491
   0.17906   0.25808   0.40491
   0.17906   0.25808   0.40491
  -0.30094   0.25808   0.40491
  -0.30094   0.25808   0.40491
  -0.30094   0.25808  -0.07509
  -0.30094   0.25808  -0.07509
  -0.30094   0.25808  -0.07509
   0.17906   0.25808   0.40491
   0.17906   0.25808  -0.07509
  -0.30094   0.01808  -0.07509
   0.17906   0.01808  -0.07509
  -0.30094   0.01808  -0.07509
  -0.30094   0.01808  -0.07509
  -0.30094   0.01808  -0.07509
  -0.30094   0.01808  -0.07509
  -0.30094   0.01808  -0.07509
  -0.30094   0.01808  -0.07509
  -0.30094   0.01808  -0.07509
  -0.30094   0.01808  -0.07509
  -0.30094   0.01808  -0.07509
  -0.30094   0.01808  -0.07509
  -0.30094   0.01808   0.40491
   0.17906   0.01808  -0.07509
  -0.30094   0.01808  -0.07509
  -0.30094   0.01808  -0.07509
   0.17906   0.01808  -0.07509
   0.17906   0.01808   0.40491
   0.17906   0.01808  -0.07509
   0.17906  -0.22192  -0.07509
   0.17906  -0.22192  -0.07509
   0.17906  -0.22192   0.40491
   0.17906  -0.22192  -0.07509
   0.17906  -0.22192  -0.07509
   0.17906  -0.22192  -0.07509
   0.17906  -0.22192   0.40491
   0.17906  -0.22192  -0.07509
   0.17906  -0.22192   0.40491
   0.17906  -0.22192   0.40491
   0.17906  -0.22192  -0.07509
   0.17906  -0.22192   0.40491
   0.17906  -0.22192  -0.07509
   0.17906  -0.22192   0.40491
   0.17906  -0.22192   0.40491
   0.65906  -0.22192   0.40491
   0.65906  -0.22192  -0.07509
   0.17906  -0.46192   0.40491
   0.65906  -0.46192   0.40491
   0.65906  -0.46192   0.40491
   0.65906  -0.46192  -0.07509
   0.65906  -0.46192   0.40491
   0.65906  -0.46192   0.40491
   0.65906  -0.46192   0.40491
   0.65906  -0.46192   0.40491
   0.65906  -0.46192   0.40491
   0.65906  -0.46192   0.40491
   0.65906  -0.22192   0.40491
   0.65906  -0.22192   0.40491
   0.65906  -0.22192   0.40491
   1.12906  -0.22192   0.40491
   1.12906  -0.22192   0.40491
   1.12906  -0.22192   0.40491
   1.12906  -0.22192   0.40491
   1.12906  -0.22192   0.40491
   1.12906  -0.22192   0.40491
   1.12906  -0.46192   0.40491
   1.12906  -0.46192   0.87491
   1.12906  -0.46192   0.87491
   1.12906  -0.46192   0.87491
   1.12906  -0.46192   0.40491
   1.12906  -0.46192   0.87491
   1.12906  -0.46192   0.40491
   1.12906  -0.70192   0.87491
   1.12906  -0.46192   0.87491
   1.60906  -0.46192   0.87491
   1.12906  -0.46192   0.40491
   1.60906  -0.46192   0.87491
   1.60906  -0.46192   0.87491
   1.60906  -0.46192   0.87491
   1.12906  -0.46192   0.87491
   1.60906  -0.46192   0.87491
   1.12906  -0.46192   0.87491
   1.12906  -0.46192   0.87491
   1.60906  -0.46192   0.87491
   1.12906  -0.46192   0.40491
   1.12906  -0.46192   0.87491
   1.60906  -0.46192   0.87491
   1.60906  -0.46192   0.87491
   1.12906  -0.22192   0.87491
   1.60906  -0.22192   0.87491
   1.12906  -0.22192   0.87491
   1.12906  -0.22192   1.35491
   1.12906  -0.22192   0.87491
   1.12906  -0.22192   0.87491
   1.12906  -0.22192   0.87491
   1.12906  -0.22192   0.87491
   1.12906  -0.22192   0.87491
   1.12906  -0.22192   0.87491
   1.12906   0.01808   0.87491
   1.12906   0.01808   0.87491
   1.12906   0.01808   0.87491
   1.12906   0.01808   0.87491
   1.12906   0.01808   0.40491
   1.12906   0.01808   0.40491
   1.12906   0.01808   0.87491
   1.12906   0.01808   0.40491
   1.12906   0.01808   0.87491
   1.12906   0.01808   0.40491
   0.65906   0.01808   0.87491
   0.65906   0.01808   0.40491
   0.65906   0.25808   0.87491
   0.65906   0.01808   0.87491
   0.65906   0.25808   0.40491
   0.65906   0.01808   0.40491
   0.65906   0.01808   0.40491
   0.65906   0.01808   0.40491
   0.65906   0.25808  -0.07509
   0.65906   0.01808   0.40491
   0.65906   0.01808   0.40491
   0.65906   0.01808  -0.07509
   0.65906   0.25808   0.40491
   0.17906   0.25808  -0.07509
   0.17906   0.25808   0.40491
   0.65906   0.25808  -0.07509
   0.17906   0.25808   0.40491
   0.17906   0.25808  -0.07509
   0.17906   0.25808  -0.07509
   0.17906   0.25808  -0.07509
   0.17906   0.25808  -0.55509
   0.17906   0.25808  -0.07509
   0.17906   0.25808  -0.55509
   0.17906   0.25808  -0.55509
   0.17906   0.25808  -0.55509
   0.17906   0.25808  -0.55509
   0.17906   0.25808  -0.07509
   0.17906   0.25808  -0.55509
  -0.30094   0.25808  -0.55509
  -0.30094   0.25808  -0.55509
  -0.30094   0.25808  -0.55509
  -0.30094   0.25808  -0.55509
  -0.30094   0.25808  -0.55509
  -0.30094   0.25808  -1.03509
  -0.30094   0.25808  -0.55509
  -0.30094   0.25808  -1.03509
  -0.30094   0.25808  -1.03509
  -0.30094   0.25808  -1.03509
  -0.30094   0.01808  -1.03509
  -0.30094   0.25808  -1.03509
  -0.30094   0.25808  -1.51509
  -0.30094   0.25808  -1.03509
  -0.30094   0.01808  -1.03509
  -0.78094   0.01808  -1.03509
  -0.78094   0.01808  -1.03509
  -0.78094   0.01808  -1.51509
  -0.78094   0.01808  -1.51509
  -0.78094   0.01808  -1.03509
  -0.78094   0.01808  -1.03509
  -0.78094   0.01808  -1.03509
  -0.78094   0.01808  -1.51509
  -0.78094   0.01808  -1.51509
  -1.26094   0.01808  -1.51509
  -1.26094   0.01808  -1.51509
  -1.26094   0.01808  -1.51509
  -1.26094  -0.22192  -1.03509
  -1.26094   0.01808  -1.51509
  -1.26094  -0.22192  -1.51509
  -1.26094  -0.22192  -1.51509
  -1.26094  -0.22192  -1.51509
  -1.26094  -0.22192  -1.03509
  -1.26094  -0.22192  -1.51509
  -1.26094  -0.22192  -1.51509
  -1.26094  -0.22192  -1.51509
  -1.26094  -0.22192  -1.03509
  -1.26094  -0.46192  -1.03509
  -1.74094  -0.22192  -1.51509
  -1.74094  -0.22192  -1.51509
  -1.74094  -0.46192  -1.03509
  -1.74094  -0.22192  -1.03509
  -1.74094  -0.22192  -1.03509
  -1.74094  -0.22192  -1.51509
  -1.74094  -0.22192  -1.03509
  -1.74094  -0.22192  -1.51509
  -1.74094  -0.22192  -1.03509
  -1.74094  -0.22192  -1.03509
  -1.74094  -0.22192  -1.51509
  -1.74094  -0.22192  -1.03509
  -1.74094  -0.22192  -1.03509
  -1.74094  -0.22192  -1.03509
  -1.74094  -0.22192  -1.03509
  -2.22094  -0.46192  -1.03509
  -2.22094  -0.46192  -1.03509
  -2.22094  -0.46192  -1.03509
  -2.22094  -0.46192  -1.03509
  -2.22094  -0.22192  -1.03509
  -2.22094  -0.22192  -0.55509
  -2.22094  -0.22192  -1.03509
  -2.22094  -0.22192  -0.55509
  -2.22094  -0.22192  -1.03509
  -2.22094  -0.22192  -1.03509
  -2.22094  -0.22192  -0.55509
  -2.22094  -0.22192  -0.55509
  -2.22094  -0.22192  -0.55509
  -2.22094  -0.22192  -0.55509
  -2.22094  -0.22192  -0.55509
  -2.22094   0.01808  -0.55509
  -2.22094   0.01808  -0.55509
  -2.22094   0.01808  -0.55509
  -2.22094  -0.22192  -0.55509
  -2.22094   0.01808  -0.55509
  -2.22094   0.01808  -0.55509
  -2.22094   0.01808  -0.55509
  -2.22094   0.01808  -0.55509
  -2.22094   0.01808  -0.55509
  -2.22094   0.01808  -0.55509
  -2.22094   0.01808  -0.55509
  -2.22094   0.01808  -0.55509
  -2.22094   0.01808  -0.55509
  -2.22094   0.01808  -0.55509
  -2.22094   0.01808  -0.07509
  -2.22094   0.01808  -0.07509
  -2.22094   0.01808  -0.07509
  -2.22094   0.25808  -0.07509
  -2.22094   0.25808  -0.55509
  -2.22094   0.01808  -0.07509
  -2.22094   0.01808  -0.07509
  -2.22094   0.01808  -0.07509
  -2.22094   0.01808  -0.07509
  -2.22094   0.01808  -0.55509
  -2.70094   0.01808  -0.07509
  -2.70094   0.01808  -0.07509
  -2.70094  -0.22192  -0.07509
  -2.70094   0.01808  -0.07509
  -2.22094   0.01808  -0.07509
  -2.22094   0.01808  -0.07509
  -2.22094   0.01808  -0.07509
  -2.22094   0.01808  -0.07509
  -2.22094   0.01808  -0.07509
  -2.22094   0.01808  -0.07509
  -2.22094  -0.22192  -0.07509
  -2.22094  -0.22192  -0.55509
  -2.22094  -0.22192  -0.07509
  -2.22094  -0.22192  -0.07509
  -2.22094  -0.22192  -0.07509
  -2.22094  -0.22192  -0.07509
  -2.22094  -0.22192   0.40491
  -2.22094  -0.22192  -0.07509
  -2.22094  -0.22192  -0.07509
  -2.22094  -0.22192  -0.07509
  -1.74094  -0.22192  -0.07509
  -1.74094  -0.22192  -0.07509
  -1.74094  -0.22192  -0.07509
  -1.74094  -0.22192  -0.07509
  -1.74094   0.01808  -0.07509
  -1.74094   0.01808  -0.07509
  -1.74094  -0.22192  -0.07509
  -1.74094  -0.22192  -0.07509
  -1.74094  -0.22192  -0.07509
  -1.74094   0.01808  -0.07509
  -1.74094  -0.22192  -0.07509
  -1.74094   0.01808  -0.07509
  -1.26094  -0.22192   0.40491
  -1.26094  -0.22192  -0.07509
  -1.26094  -0.22192  -0.07509
  -1.26094  -0.22192  -0.07509
  -1.26094  -0.22192  -0.07509
  -1.26094  -0.22192  -0.07509
  -1.26094   0.01808   0.40491
  -1.26094   0.01808  -0.07509
  -1.26094   0.01808   0.40491
  -1.26094   0.01808  -0.07509
  -1.26094   0.01808   0.40491
  -1.26094   0.01808  -0.07509
  -1.26094   0.01808  -0.07509
  -1.26094   0.01808  -0.07509
  -0.78094   0.01808  -0.07509
  -0.78094   0.01808  -0.07509
  -0.78094   0.01808  -0.07509
  -0.78094   0.01808  -0.07509
  -0.78094   0.01808   0.40491
  -0.78094   0.01808  -0.07509
  -0.78094   0.01808  -0.07509
  -0.78094   0.01808  -0.07509
  -0.78094   0.01808   0.40491
  -0.78094   0.01808   0.40491
  -0.78094   0.01808  -0.07509
  -0.78094  -0.22192  -0.07509
  -0.30094   0.01808   0.40491
  -0.30094   0.01808  -0.07509
  -0.30094   0.01808  -0.07509
  -0.30094   0.01808  -0.07509
  -0.30094   0.01808   0.40491
  -0.30094   0.01808  -0.07509
  -0.30094   0.01808   0.40491
  -0.30094  -0.22192   0.40491
  -0.30094   0.01808  -0.07509
  -0.30094   0.01808  -0.07509
  -0.30094   0.01808  -0.07509
  -0.30094   0.01808   0.40491
  -0.30094   0.01808  -0.07509
  -0.30094   0.01808   0.40491
  -0.30094   0.01808   0.40491
  -0.30094  -0.22192   0.40491
  -0.30094  -0.22192   0.40491
   0.17906  -0.22192  -0.07509
   0.17906   0.01808  -0.07509
   0.17906  -0.22192   0.40491
   0.17906   0.01808   0.40491
   0.17906   0.01808   0.40491
   0.17906   0.01808   0.40491
   0.17906   0.01808   0.40491
   0.17906   0.01808   0.40491
   0.17906   0.01808   0.40491
  -0.30094   0.01808  -0.07509
   0.17906   0.01808   0.40491
   0.17906   0.01808   0.40491
   0.17906   0.01808   0.40491
   0.17906   0.01808   0.40491
   0.17906   0.01808   0.40491
   0.17906   0.01808   0.40491
   0.65906   0.01808   0.40491
   0.17906   0.01808   0.40491
   0.17906   0.01808   0.40491
   0.17906   0.01808   0.40491
   0.17906   0.01808   0.40491
   0.17906   0.01808   0.40491
   0.17906   0.01808   0.40491
   0.17906   0.01808   0.40491
   0.17906   0.01808   0.40491
  -0.30094   0.01808   0.40491
   0.17906   0.01808   0.40491
   0.17906   0.01808   0.40491
   0.17906   0.01808   0.40491
   0.17906   0.01808   0.40491
   0.17906   0.01808   0.40491
   0.17906   0.01808   0.40491
   0.17906   0.01808   0.40491
   0.17906   0.01808   0.40491
   0.17906   0.01808   0.40491
   0.17906   0.01808   0.40491
  -0.30094   0.01808   0.40491
   0.17906   0.01808   0.40491
   0.17906   0.01808   0.40491
   0.17906   0.01808  -0.07509
   0.17906   0.01808   0.40491
   0.17906   0.01808   0.40491
   0.17906   0.01808   0.40491
   0.17906   0.01808   0.40491
   0.17906   0.01808  -0.07509
   0.17906   0.01808   0.40491
   0.17906   0.01808   0.40491
   0.17906   0.01808  -0.07509
   0.17906   0.01808   0.40491
   0.17906   0.01808   0.40491
   0.17906   0.01808   0.40491
   0.17906   0.01808   0.40491
   0.17906   0.01808  -0.07509
   0.17906   0.01808  -0.07509
   0.17906   0.01808  -0.07509
   0.17906   0.01808  -0.07509
   0.17906   0.01808  -0.07509
   0.17906   0.25808  -0.07509
   0.17906   0.25808   0.40491
   0.17906   0.25808  -0.07509
   0.65906   0.25808   0.40491
   0.17906   0.25808  -0.07509
   0.17906   0.25808  -0.07509
   0.17906   0.25808  -0.07509
   0.65906   0.25808  -0.07509
   0.65906   0.25808  -0.07509
   0.65906   0.25808  -0.07509
   0.17906   0.25808  -0.07509
   0.17906   0.25808  -0.07509
   0.65906   0.25808  -0.07509
   0.17906   0.25808  -0.07509
   0.17906   0.25808  -0.07509
   0.17906   0.25808  -0.55509
