********************************************************************************
              CENTRO DE INSTRUMENTACION Y REGISTRO SISMICO  A.C.

    Anaxagoras 814, Col. Narvarte, Benito Juarez, C.P. 03020 Mexico, D.F.
           Tels. 5687 45 42/ 5687 45  82             Fax. 5669 25 12
********************************************************************************
ARCHIVO ESTANDAR DE ACELERACION:
VERSION DEL FORMATO                    : 2.0
NOMBRE DEL ARCHIVO                     : BA4920120724052528
FECHA Y HORA DE CREACION               : 05/ABR/13, 17:41
REF. CATALOGO ACELEROGRAMAS, SMIS 1996 : REGISTRO No.     /PAG.


================================================================================
DATOS DE LA ESTACION:
NOMBRE DE LA ESTACION                  : BUENOS AIRES
CLAVE DE LA ESTACION                   : BA49
LOCALIZACION DE LA ESTACION            : Del. Cuauhtémoc, Col. Doctores,        
                                       : Av. Lázaro Cárdenas esq. con           
                                       : Calle Dr. Márquez.                     
                                       :                                        
                                       : 
COORDENADAS DE LA ESTACION             : 19.4097 LAT. N
                                       : 99.1450 LONG. W
ALTITUD (msnm)                         : 2233
TIPO DE SUELO                          : Terreno blando, material compresible
                                       : (arcillas)                
                                       : 
INSTITUCION RESPONSABLE                : CIRES
                                       : 

================================================================================
DATOS DEL ACELEROGRAFO:
MODELO DEL ACELEROGRAFO                : RADESD
NUMERO DE SERIE DEL ACELEROGRAFO       : 176
NUMERO DE CANALES                      : 3
ORIENTACION C1-C6 (rumbo;orientacion)  : /N00E/+V/N90W
ORIENTACION C7-C12 (rumbo;orientacion) : 
VEL. DE MUESTREO, C1-C6 (muestras/s)   : /100/100/100
VEL. DE MUESTREO, C7-C12 (muestras/s)  : 
ESC. COMPLETA DE SENSORES, C1-C6, (g)  : /0.5/0.5/0.5
ESC. COMPLETA DE SENSORES, C7-C12, (g) : 
FREC. NAT. DE SENSORES, C1-C6, (Hz)    : /52.99/52.03/52.99
FREC. NAT. DE SENSORES, C7-C12, (Hz)   : 
AMORTIGUAMIENTO DE SENSORES, C1-C6     : /0.5589/0.5469/0.6096
AMORTIGUAMIENTO DE SENSORES, C7-C12    : 
INTERVALO DE MUESTREO, C1-C6, (s)      : /0.01/0.01/0.01
INTERVALO DE MUESTREO, C7-C12, (s)     : 
UMBRAL DE DISPARO, C1-C6, (Gal)        : /0.96/1.92/0.96
UMBRAL DE DISPARO, C7-C12, (Gal)       : 
MEMORIA DE PREEVENTO (s)               : 56.0
TIEMPO DE POSEVENTO (s)                : 64.0


================================================================================
DATOS DEL SISMO:
FECHA DEL SISMO (GMT)                  : 24/JUL/12
HORA EPICENTRO (GMT)                   : 05:25:28.0
MAGNITUD(ES)                           : /Mc=5.0
COORDENADAS DEL EPICENTRO              : 16.27 LAT. N
                                       : 98.31 LONG. W
PROFUNDIDAD FOCAL (km)                 : 5
FUENTE DE LOS DATOS EPICENTRALES       : SSN
                                       : INSTITUTO DE GEOFISICA, UNAM

================================================================================
DATOS DE ESTE REGISTRO:
HORA DE LA PRIMERA MUESTRA (GMT)       : 05:27:37.00
EXACTITUD DEL TIEMPO (s)               : 0.01
DURACION DEL REGISTRO (s), C1-C6       : /151.75/151.75/151.75
DURACION DEL REGISTRO (s), C7-C12      : 
NUM. TOTAL DE MUESTRAS, C1-C6          : /15175/15175/15175
NUM. TOTAL DE MUESTRAS, C7-C12         : 
ACEL. MAX. (Gal), C1-C6                : /1.27009/0.73107/1.42212
ACEL. MAX., C1-C6, EN LA MUESTRA       : /5569/4794/4674
ACEL. MAX. (Gal), C7-C12               : 
ACEL. MAX., C7-C12, EN LA MUESTRA      : 
UNIDADES DE LOS DATOS                  : Gal (cm/s/s)
FACTOR DE DECIMACION                   : 1
FORMATO DATOS (FORTRAN,10 campos/dato) : 3F10.5


================================================================================
CALIDAD DEL ACELEROGRAMA:
REGISTRO DIGITAL COMPLETO CON TIEMPO ABSOLUTO CORRECTO.


================================================================================
COMENTARIOS:














================================================================================
DATOS DE ACELERACION:
---------+---------+---------+---------+---------+---------+---------+---------+
   CANAL-1   CANAL-2   CANAL-3   CANAL-4   CANAL-5   CANAL-6   CANAL-7   CANAL-8
      N00E        +V      N90W
---------+---------+---------+---------+---------+---------+---------+---------+
[...]
   0.07299   0.01281  -0.01440
   0.31241   0.01281  -0.01440
   0.07299   0.25223  -0.01440
   0.31241   0.01281  -0.25382
   0.31241   0.25223  -0.01440
   0.55183   0.01281  -0.25382
   0.31241   0.01281  -0.25382
   0.55183   0.01281  -0.25382
   0.55183  -0.22661  -0.25382
   0.55183  -0.22661  -0.25382
   0.55183  -0.22661  -0.49324
   0.55183  -0.46603  -0.49324
   0.55183  -0.22661  -0.49324
   0.55183  -0.46603  -0.49324
   0.55183  -0.22661  -0.49324
   0.55183  -0.22661  -0.49324
   0.55183  -0.22661  -0.49324
   0.55183   0.25223  -0.49324
   0.55183   0.01281  -0.49324
   0.55183   0.01281  -0.49324
   0.31241   0.01281  -0.73267
   0.31241   0.01281  -0.73267
   0.31241   0.01281  -0.73267
   0.31241   0.01281  -0.49324
   0.31241   0.01281  -0.73267
   0.07299   0.01281  -0.49324
   0.31241   0.01281  -0.49324
   0.31241   0.25223  -0.25382
   0.07299   0.25223  -0.25382
   0.31241   0.01281  -0.01440
   0.31241   0.01281  -0.25382
   0.31241   0.01281  -0.25382
   0.31241   0.01281  -0.01440
   0.31241   0.01281  -0.01440
   0.55183   0.25223   0.22502
   0.55183   0.25223   0.22502
   0.31241   0.25223   0.46444
   0.55183   0.01281   0.46444
   0.55183   0.01281   0.46444
   0.55183   0.01281   0.46444
   0.55183   0.01281   0.70386
   0.55183   0.01281   0.70386
   0.55183   0.01281   0.70386
   0.55183   0.01281   0.70386
   0.31241   0.01281   0.70386
   0.55183  -0.22661   0.70386
   0.55183  -0.22661   0.70386
   0.31241   0.01281   0.70386
   0.31241   0.01281   0.70386
   0.07299  -0.22661   0.46444
   0.07299   0.01281   0.46444
   0.07299   0.01281   0.70386
  -0.16643   0.01281   0.46444
  -0.16643   0.01281   0.46444
  -0.16643   0.25223   0.22502
  -0.40585   0.49165   0.22502
  -0.40585   0.49165   0.22502
  -0.40585   0.25223  -0.01440
  -0.64527   0.49165  -0.01440
  -0.64527   0.49165  -0.01440
  -0.40585   0.49165  -0.01440
  -0.64527   0.49165  -0.01440
  -0.64527   0.49165  -0.25382
  -0.40585   0.25223  -0.25382
  -0.40585   0.49165  -0.25382
  -0.40585   0.25223  -0.25382
  -0.16643   0.01281  -0.49324
  -0.16643   0.01281  -0.49324
  -0.16643   0.25223  -0.25382
   0.07299   0.01281  -0.49324
   0.07299   0.01281  -0.49324
   0.31241  -0.22661  -0.49324
   0.31241  -0.22661  -0.49324
   0.31241  -0.22661  -0.49324
   0.31241   0.01281  -0.49324
   0.31241  -0.22661  -0.49324
   0.31241  -0.22661  -0.49324
   0.55183  -0.22661  -0.73267
   0.31241  -0.22661  -0.73267
   0.31241  -0.22661  -0.49324
   0.55183  -0.22661  -0.49324
   0.31241  -0.22661  -0.73267
   0.55183  -0.46603  -0.73267
   0.31241  -0.22661  -0.49324
   0.31241  -0.46603  -0.73267
   0.31241  -0.22661  -0.73267
   0.31241   0.01281  -0.73267
   0.07299  -0.22661  -0.73267
   0.07299   0.01281  -0.73267
   0.07299  -0.22661  -0.73267
   0.07299  -0.22661  -0.73267
   0.07299   0.01281  -0.73267
   0.07299   0.01281  -0.73267
   0.07299   0.01281  -0.73267
   0.07299   0.01281  -0.73267
  -0.16643   0.01281  -0.73267
   0.07299   0.01281  -0.73267
  -0.16643   0.01281  -0.49324
  -0.16643   0.01281  -0.49324
  -0.16643   0.01281  -0.49324
  -0.16643   0.01281  -0.49324
  -0.16643   0.01281  -0.25382
  -0.16643   0.01281  -0.25382
  -0.40585  -0.22661  -0.25382
  -0.16643  -0.22661  -0.25382
  -0.40585   0.01281  -0.25382
  -0.16643   0.01281  -0.25382
  -0.16643   0.01281  -0.01440
  -0.16643   0.01281  -0.01440
  -0.16643  -0.22661  -0.01440
  -0.40585   0.01281  -0.25382
  -0.16643   0.01281  -0.25382
  -0.16643  -0.22661  -0.01440
  -0.16643   0.01281  -0.25382
  -0.16643  -0.22661  -0.01440
  -0.16643   0.01281  -0.01440
  -0.16643   0.01281  -0.01440
  -0.16643   0.01281  -0.01440
  -0.16643   0.01281   0.22502
   0.07299   0.01281   0.22502
   0.07299   0.25223   0.22502
  -0.16643   0.01281   0.22502
   0.07299   0.25223   0.22502
   0.07299  -0.22661  -0.01440
   0.07299   0.01281   0.22502
   0.07299   0.01281   0.22502
   0.07299   0.01281   0.22502
   0.07299   0.01281   0.22502
   0.07299   0.01281  -0.01440
   0.07299   0.25223   0.22502
  -0.16643   0.25223  -0.01440
   0.07299   0.01281  -0.01440
   0.07299   0.01281  -0.01440
   0.07299   0.01281  -0.01440
   0.07299   0.01281  -0.01440
   0.07299   0.25223   0.22502
  -0.16643   0.01281   0.22502
  -0.16643   0.25223   0.46444
  -0.16643   0.01281   0.22502
  -0.40585   0.25223   0.46444
  -0.40585   0.25223   0.46444
  -0.40585   0.25223   0.46444
  -0.40585   0.01281   0.22502
  -0.64527   0.25223   0.46444
  -0.40585   0.01281   0.46444
  -0.40585   0.25223   0.46444
  -0.40585   0.25223   0.46444
  -0.40585   0.25223   0.46444
  -0.40585   0.25223   0.46444
  -0.16643   0.25223   0.46444
  -0.16643   0.25223   0.70386
  -0.16643   0.25223   0.46444
  -0.16643   0.01281   0.46444
  -0.16643  -0.22661   0.70386
   0.07299   0.01281   0.94328
   0.07299  -0.22661   0.70386
   0.07299  -0.22661   0.70386
   0.07299  -0.46603   0.70386
   0.07299  -0.22661   0.70386
   0.07299  -0.22661   0.70386
   0.07299  -0.46603   0.70386
  -0.16643  -0.22661   0.70386
  -0.16643   0.01281   0.70386
  -0.16643  -0.22661   0.70386
  -0.40585   0.01281   0.70386
  -0.64527   0.01281   0.70386
  -0.64527   0.01281   0.70386
  -0.64527   0.25223   0.46444
  -0.64527   0.01281   0.46444
  -0.64527   0.01281   0.22502
  -0.88469   0.25223   0.46444
  -0.88469   0.25223   0.22502
  -0.88469   0.25223   0.22502
  -0.88469   0.25223  -0.01440
  -0.88469   0.25223  -0.01440
  -0.88469   0.25223  -0.01440
  -0.88469   0.25223  -0.01440
  -0.64527   0.49165  -0.01440
  -0.64527   0.25223  -0.25382
  -0.64527   0.01281  -0.25382
  -0.40585   0.25223  -0.25382
  -0.16643   0.01281  -0.49324
  -0.16643   0.01281  -0.49324
   0.07299  -0.22661  -0.49324
   0.07299  -0.22661  -0.25382
   0.07299  -0.46603  -0.25382
   0.07299  -0.46603  -0.25382
   0.31241  -0.70545  -0.25382
   0.31241  -0.46603  -0.25382
   0.31241  -0.46603  -0.25382
   0.55183  -0.46603  -0.25382
   0.55183  -0.46603  -0.01440
   0.55183  -0.46603  -0.01440
   0.55183  -0.46603  -0.25382
   0.55183  -0.70545  -0.01440
   0.31241  -0.22661  -0.01440
   0.31241  -0.22661  -0.01440
   0.31241  -0.22661   0.22502
   0.31241  -0.22661   0.22502
   0.07299  -0.22661   0.22502
   0.07299  -0.22661   0.22502
   0.07299   0.01281   0.22502
  -0.16643   0.01281   0.22502
  -0.16643   0.49165   0.22502
  -0.40585   0.25223   0.22502
  -0.40585   0.01281   0.22502
  -0.40585   0.25223   0.22502
  -0.64527   0.01281   0.46444
  -0.64527   0.01281   0.22502
  -0.40585   0.25223   0.22502
  -0.64527   0.25223   0.22502
  -0.64527   0.25223   0.22502
  -0.64527   0.01281   0.22502
  -0.40585   0.01281   0.22502
  -0.64527  -0.22661   0.22502
  -0.40585   0.01281   0.22502
  -0.40585  -0.22661   0.22502
  -0.40585  -0.22661   0.22502
  -0.16643   0.01281   0.22502
  -0.40585   0.25223   0.22502
  -0.16643   0.01281   0.22502
   0.07299  -0.22661  -0.01440
  -0.16643  -0.22661   0.22502
   0.07299  -0.22661   0.22502
   0.07299  -0.22661   0.22502
   0.07299  -0.22661   0.22502
   0.07299  -0.22661   0.22502
   0.07299  -0.46603   0.22502
   0.07299  -0.22661   0.22502
  -0.16643  -0.22661   0.22502
   0.07299  -0.22661  -0.01440
   0.07299  -0.22661  -0.01440
   0.07299   0.01281   0.22502
   0.31241   0.01281  -0.01440
   0.31241   0.01281   0.22502
   0.31241  -0.22661   0.22502
   0.31241  -0.22661  -0.01440
   0.31241   0.01281   0.22502
   0.31241   0.25223   0.22502
   0.55183   0.25223   0.22502
   0.55183   0.25223   0.22502
   0.55183   0.25223  -0.01440
   0.55183   0.25223   0.22502
   0.55183   0.25223   0.22502
   0.55183   0.01281   0.22502
   0.55183   0.01281   0.22502
   0.55183  -0.22661  -0.01440
   0.31241   0.01281   0.22502
   0.55183   0.01281  -0.01440
   0.55183   0.01281  -0.01440
   0.31241   0.01281  -0.01440
   0.31241   0.01281  -0.01440
   0.31241  -0.22661  -0.01440
   0.31241   0.01281  -0.01440
   0.31241   0.01281  -0.01440
   0.31241   0.01281  -0.01440
   0.07299   0.25223  -0.01440
   0.31241   0.25223  -0.01440
   0.31241   0.01281  -0.01440
   0.31241   0.01281  -0.25382
   0.31241   0.01281  -0.01440
   0.31241   0.01281  -0.01440
   0.07299   0.01281  -0.01440
   0.07299   0.01281  -0.01440
   0.07299   0.01281  -0.25382
   0.31241   0.01281  -0.01440
   0.07299  -0.22661  -0.25382
   0.31241  -0.22661  -0.25382
   0.31241  -0.22661  -0.25382
   0.31241   0.01281  -0.49324
   0.31241   0.25223  -0.01440
   0.55183   0.01281  -0.25382
   0.31241   0.25223  -0.25382
   0.31241   0.25223  -0.25382
   0.55183   0.01281  -0.49324
   0.55183   0.25223  -0.25382
   0.31241   0.01281  -0.25382
   0.55183   0.25223  -0.25382
   0.55183   0.01281  -0.25382
   0.55183   0.01281  -0.25382
   0.55183  -0.22661  -0.49324
   0.55183   0.01281  -0.25382
   0.55183   0.25223  -0.25382
   0.55183   0.01281  -0.49324
   0.31241   0.25223  -0.49324
   0.31241   0.01281  -0.49324
   0.55183   0.01281  -0.49324
   0.31241   0.01281  -0.49324
   0.55183   0.01281  -0.49324
   0.31241   0.25223  -0.49324
   0.31241   0.49165  -0.73267
   0.31241   0.49165  -0.73267
   0.31241   0.49165  -0.97209
   0.31241   0.25223  -0.73267
   0.31241   0.01281  -0.73267
   0.55183   0.01281  -0.49324
   0.55183   0.01281  -0.49324
   0.55183   0.01281  -0.49324
   0.55183   0.01281  -0.49324
   0.55183   0.01281  -0.49324
   0.55183   0.25223  -0.73267
   0.55183   0.01281  -0.49324
   0.55183   0.01281  -0.49324
   0.79125   0.01281  -0.49324
   0.79125   0.01281  -0.49324
   0.79125   0.01281  -0.49324
   0.79125   0.25223  -0.49324
   0.55183   0.25223  -0.49324
   0.55183   0.01281  -0.49324
   0.55183   0.25223  -0.49324
   0.55183  -0.22661  -0.49324
   0.31241   0.25223  -0.49324
   0.31241  -0.22661  -0.49324
   0.07299   0.25223  -0.25382
   0.07299   0.01281  -0.49324
   0.07299   0.01281  -0.49324
  -0.16643   0.01281  -0.49324
  -0.16643   0.01281  -0.49324
  -0.40585   0.25223  -0.25382
  -0.40585   0.25223  -0.25382
  -0.40585   0.49165  -0.49324
  -0.64527   0.25223  -0.49324
  -0.64527   0.25223  -0.49324
  -0.64527   0.01281  -0.25382
  -0.64527   0.01281  -0.25382
  -0.64527   0.01281  -0.01440
  -0.64527   0.01281  -0.01440
  -0.88469  -0.22661   0.22502
  -0.64527   0.01281  -0.01440
  -0.64527  -0.22661   0.22502
  -0.88469   0.01281   0.22502
  -0.64527  -0.22661   0.22502
  -0.64527  -0.22661   0.22502
  -0.40585  -0.22661   0.22502
  -0.64527  -0.22661   0.46444
  -0.16643  -0.22661   0.46444
  -0.40585  -0.22661   0.70386
  -0.40585  -0.46603   0.70386
  -0.40585  -0.22661   0.70386
  -0.16643  -0.46603   0.70386
  -0.16643  -0.22661   0.94328
  -0.40585  -0.22661   0.94328
  -0.16643  -0.70545   0.94328
  -0.16643  -0.46603   0.94328
  -0.40585  -0.46603   1.18270
  -0.16643  -0.22661   1.18270
  -0.40585  -0.22661   1.42212
  -0.40585  -0.22661   1.18270
  -0.40585   0.01281   1.18270
  -0.40585   0.01281   1.18270
  -0.40585   0.01281   1.18270
  -0.64527  -0.22661   1.18270
  -0.40585   0.01281   1.18270
  -0.64527   0.01281   1.18270
  -0.64527   0.25223   1.18270
  -0.64527   0.25223   1.42212
  -0.64527   0.01281   1.18270
  -0.64527   0.25223   1.18270
  -0.64527   0.25223   1.18270
  -0.64527   0.25223   1.18270
  -0.64527   0.01281   1.18270
  -0.64527  -0.22661   0.94328
  -0.40585  -0.22661   0.94328
  -0.16643   0.01281   0.70386
  -0.40585   0.01281   0.70386
  -0.40585   0.01281   0.46444
  -0.40585   0.25223   0.46444
  -0.16643   0.01281   0.46444
  -0.16643   0.01281   0.22502
  -0.16643  -0.22661  -0.01440
   0.07299  -0.22661  -0.01440
   0.07299  -0.22661  -0.01440
   0.31241  -0.22661  -0.01440
   0.07299  -0.46603  -0.01440
   0.07299  -0.22661  -0.01440
   0.31241   0.01281  -0.01440
   0.31241  -0.22661  -0.25382
   0.31241   0.01281  -0.25382
   0.31241   0.01281  -0.25382
   0.31241   0.01281  -0.25382
   0.31241   0.01281  -0.25382
   0.31241   0.01281  -0.49324
   0.07299   0.25223  -0.25382
   0.07299   0.25223  -0.49324
  -0.16643   0.25223  -0.49324
  -0.16643   0.49165  -0.49324
  -0.40585   0.49165  -0.49324
  -0.64527   0.49165  -0.49324
  -0.88469   0.49165  -0.49324
  -0.64527   0.25223  -0.49324
  -0.88469   0.25223  -0.49324
  -0.40585   0.25223  -0.49324
  -0.64527   0.25223  -0.25382
  -0.64527   0.25223  -0.49324
  -0.64527   0.49165  -0.73267
  -0.64527   0.49165  -0.49324
  -0.64527   0.49165  -0.73267
  -0.64527   0.25223  -0.49324
  -0.64527   0.01281  -0.49324
  -0.64527   0.01281  -0.73267
  -0.40585  -0.22661  -0.73267
  -0.40585  -0.22661  -0.49324
  -0.16643  -0.46603  -0.49324
  -0.16643  -0.22661  -0.49324
  -0.16643  -0.46603  -0.49324
   0.07299  -0.22661  -0.73267
   0.07299  -0.46603  -0.73267
   0.31241  -0.46603  -0.73267
   0.31241  -0.46603  -0.73267
   0.55183  -0.46603  -0.73267
   0.55183  -0.46603  -0.73267
   0.55183  -0.22661  -0.49324
   0.55183  -0.46603  -0.73267
   0.79125  -0.46603  -0.73267
   0.55183  -0.46603  -0.97209
   0.55183  -0.22661  -0.73267
   0.79125  -0.22661  -0.97209
   0.55183   0.01281  -0.97209
   0.79125   0.01281  -0.97209
   0.55183   0.01281  -0.97209
   0.55183   0.01281  -0.97209
   0.55183   0.25223  -1.21151
   0.07299   0.25223  -0.97209
   0.07299   0.49165  -1.21151
   0.07299   0.49165  -0.97209
   0.07299   0.25223  -1.21151
  -0.16643   0.49165  -0.97209
  -0.40585   0.49165  -0.97209
  -0.16643   0.49165  -0.97209
  -0.40585   0.49165  -0.97209
  -0.40585   0.25223  -0.97209
  -0.64527   0.49165  -0.97209
  -0.40585   0.25223  -0.73267
  -0.40585   0.25223  -0.73267
  -0.64527   0.25223  -0.49324
  -0.40585   0.25223  -0.73267
  -0.64527   0.01281  -0.49324
  -0.40585   0.01281  -0.25382
  -0.40585  -0.22661  -0.25382
  -0.40585  -0.22661  -0.25382
  -0.40585  -0.46603  -0.25382
  -0.16643  -0.46603  -0.01440
  -0.16643  -0.46603   0.22502
  -0.16643  -0.46603   0.22502
  -0.16643  -0.46603   0.22502
  -0.16643  -0.46603   0.22502
   0.07299  -0.46603   0.46444
   0.31241  -0.46603   0.46444
   0.07299  -0.22661   0.46444
   0.31241  -0.46603   0.46444
   0.55183  -0.22661   0.46444
   0.31241  -0.22661   0.70386
   0.55183  -0.22661   0.70386
   0.31241   0.01281   0.70386
   0.55183   0.01281   0.46444
   0.55183   0.25223   0.70386
   0.55183   0.01281   0.70386
   0.55183   0.01281   0.70386
   0.55183   0.25223   0.70386
   0.55183   0.25223   0.46444
   0.55183   0.25223   0.70386
   0.55183   0.49165   0.70386
   0.55183   0.25223   0.70386
   0.55183   0.49165   0.70386
   0.31241   0.49165   0.70386
   0.55183   0.49165   0.46444
   0.31241   0.73107   0.70386
   0.55183   0.25223   0.46444
   0.31241   0.49165   0.46444
   0.31241   0.25223   0.46444
   0.07299   0.49165   0.46444
   0.31241   0.25223   0.22502
   0.31241   0.25223   0.46444
   0.31241   0.49165   0.22502
   0.31241   0.25223   0.22502
   0.31241   0.25223   0.22502
   0.31241   0.49165   0.22502
   0.31241   0.25223   0.22502
   0.31241   0.25223   0.22502
   0.55183   0.01281   0.22502
   0.31241   0.01281  -0.01440
   0.31241   0.01281  -0.01440
   0.31241   0.01281  -0.01440
   0.31241   0.01281   0.22502
   0.31241   0.01281   0.22502
   0.07299  -0.22661   0.22502
   0.31241  -0.22661   0.22502
   0.31241   0.01281   0.46444
   0.07299   0.01281   0.22502
   0.31241  -0.22661  -0.01440
   0.07299  -0.22661   0.22502
   0.07299  -0.22661  -0.01440
   0.07299  -0.46603   0.22502
   0.07299  -0.22661   0.46444
   0.07299  -0.22661   0.46444
  -0.16643  -0.22661   0.46444
