********************************************************************************
               CENTRO DE INSTRUMENTACION Y REGISTRO SISMICO  A.C.  
                       Coordinacion de Servicios Tecnicos
     Anaxagoras 814, Col. Narvarte, Benito Juarez, C.P. 03020 Mexico, D.F.
            Tels. 667 45 42/ 687 45  82             Fax. 669 25 12
********************************************************************************
ARCHIVO ESTANDAR DE ACELERACION:
VERSION DEL FORMATO                    : 2.0
NOMBRE DEL ARCHIVO                     : BA499807.171
FECHA Y HORA DE CREACION               : 31/ENERO/2000, 10:10
REF. CATALOGO ACELEROGRAMAS, SMIS 1996 : REGISTRO No.     /PAG.


================================================================================
DATOS DE LA ESTACION:
NOMBRE DE LA ESTACION                  : BUENOS AIRES
CLAVE DE LA ESTACION                   : BA49
LOCALIZACION DE LA ESTACION            : ESCUELA SECUNDARIA 102, DOCTOR MARQUEZ
                                       : Y EJE CENTRAL, BUENOS AIRES.
                                       :
                                       :
                                       :
COORDENADAS DE LA ESTACION             : 19.410 LAT. N 
                                       : 99.145 LONG. W 
ALTITUD (msnm)                         : 2233
TIPO DE SUELO                          : TERRENO BLANDO, MATERIAL COMPRESIBLE
                                       : (ARCILLAS)
                                       : 
INSTITUCION RESPONSABLE                : CIRES 
                                       :

================================================================================
DATOS DEL ACELEROGRAFO:
MODELO DEL ACELEROGRAFO                : SSA-1
NUMERO DE SERIE DEL ACELEROGRAFO       : 176
NUMERO DE CANALES                      : 3
ORIENTACION C1-C6 (rumbo;orientacion)  : /N00E/+V/N90E
ORIENTACION C7-C12 (rumbo;orientacion) :
VEL. DE MUESTREO, C1-C6 (muestras/s)   : /200/200/200
VEL. DE MUESTREO, C7-C12 (muestras/s)  :
ESC. COMPLETA DE SENSORES, C1-C6, (g)  : /2/2/2
ESC. COMPLETA DE SENSORES, C7-C12, (g) :
FREC. NAT. DE SENSORES, C1-C6, (Hz)    : /52.99/52.03/52.99
FREC. NAT. DE SENSORES, C7-C12, (Hz)   :
AMORTIGUAMIENTO DE SENSORES, C1-C6     : /.5589/.5469/.6096
AMORTIGUAMIENTO DE SENSORES, C7-C12    :
INTERVALO DE MUESTREO, C1-C6, (s)      : /0.005/0.005/0.005
INTERVALO DE MUESTREO, C7-C12, (s)     :
UMBRAL DE DISPARO, C1-C6, (Gal)        : /2/2/2
UMBRAL DE DISPARO, C7-C12, (Gal)       :
MEMORIA DE PREEVENTO (s)               : 15
TIEMPO DE POSEVENTO (s)                : 60


================================================================================
DATOS DEL SISMO:
FECHA DEL SISMO (GMT)                  : 17/JUL/98
HORA EPICENTRO (GMT)                   : 11:18:04.0
MAGNITUD(ES)                           : /Mc=4.6
COORDENADAS DEL EPICENTRO              : 16.98 LAT. N
                                       : 100.16 LONG. W
PROFUNDIDAD FOCAL (km)                 : 27
FUENTE DE LOS DATOS EPICENTRALES       : SSN
                                       : INSTITUTO DE GEOFISICA, UNAM 

================================================================================
DATOS DE ESTE REGISTRO:
HORA DE LA PRIMERA MUESTRA (GMT)       : 11:19:25.00
EXACTITUD DEL TIEMPO (s)               :     
DURACION DEL REGISTRO (s), C1-C6       : /78.08/78.08/78.08
DURACION DEL REGISTRO (s), C7-C12      :
NUM. TOTAL DE MUESTRAS, C1-C6          : /15616/15616/15616
NUM. TOTAL DE MUESTRAS, C7-C12         :
ACEL. MAX. (Gal), C1-C6                : /2.04352/1.01886/1.45076
ACEL. MAX., C1-C6, EN LA MUESTRA       :
ACEL. MAX. (Gal), C7-C12               :
ACEL. MAX., C7-C12, EN LA MUESTRA      :
UNIDADES DE LOS DATOS                  : Gal (cm/s/s)
FACTOR DE DECIMACION                   : 1
FORMATO DATOS (FORTRAN,10 campos/dato) : 3F10.5


================================================================================
CALIDAD DEL ACELEROGRAMA:
REGISTRO DIGITAL COMPLETO, CARECE DE TIEMPO ABSOLUTO.


================================================================================
COMENTARIOS:














================================================================================
DATOS DE ACELERACION:
---------+---------+---------+---------+---------+---------+---------+---------+
   CANAL-1   CANAL-2   CANAL-3   CANAL-4   CANAL-5   CANAL-6   CANAL-7   CANAL-8
      N00E        +V      N90E
---------+---------+---------+---------+---------+---------+---------+---------+
[...]
   0.61352  -0.29886  -0.73076
   0.61352  -0.29886  -0.49076
   0.61352  -0.29886  -0.49076
   0.61352  -0.29886  -0.49076
   0.37352  -0.29886  -0.49076
   0.37352  -0.05886  -0.49076
   0.37352  -0.05886  -0.49076
   0.37352  -0.05886  -0.49076
   0.37352  -0.05886  -0.49076
   0.37352  -0.05886  -0.49076
   0.37352  -0.05886  -0.49076
   0.13352  -0.05886  -0.49076
   0.13352  -0.05886  -0.25076
   0.13352  -0.05886  -0.49076
   0.13352  -0.05886  -0.49076
   0.13352  -0.05886  -0.49076
   0.13352  -0.05886  -0.49076
  -0.10648  -0.05886  -0.49076
  -0.10648  -0.05886  -0.49076
  -0.10648  -0.05886  -0.49076
  -0.10648  -0.05886  -0.49076
  -0.10648  -0.05886  -0.49076
  -0.10648  -0.05886  -0.49076
  -0.34648  -0.05886  -0.49076
  -0.34648  -0.05886  -0.49076
  -0.34648  -0.05886  -0.49076
  -0.34648  -0.05886  -0.49076
  -0.34648  -0.05886  -0.49076
  -0.34648  -0.05886  -0.49076
  -0.58648  -0.05886  -0.49076
  -0.58648   0.18114  -0.49076
  -0.58648   0.18114  -0.49076
  -0.58648   0.18114  -0.49076
  -0.58648   0.18114  -0.49076
  -0.58648   0.18114  -0.49076
  -0.58648   0.18114  -0.49076
  -0.58648   0.18114  -0.49076
  -0.58648   0.18114  -0.49076
  -0.58648   0.18114  -0.49076
  -0.58648   0.18114  -0.49076
  -0.58648   0.18114  -0.49076
  -0.58648   0.18114  -0.49076
  -0.58648  -0.05886  -0.49076
  -0.58648   0.18114  -0.49076
  -0.58648   0.18114  -0.49076
  -0.58648   0.18114  -0.49076
  -0.58648  -0.05886  -0.49076
  -0.58648   0.18114  -0.49076
  -0.58648  -0.05886  -0.49076
  -0.58648   0.18114  -0.49076
  -0.58648   0.18114  -0.49076
  -0.34648   0.18114  -0.49076
  -0.34648   0.18114  -0.49076
  -0.34648  -0.05886  -0.49076
  -0.34648  -0.05886  -0.25076
  -0.34648  -0.05886  -0.25076
  -0.34648  -0.05886  -0.25076
  -0.34648  -0.05886  -0.25076
  -0.10648  -0.05886  -0.25076
  -0.10648  -0.05886  -0.01076
  -0.10648  -0.05886  -0.01076
  -0.10648  -0.05886  -0.01076
  -0.10648  -0.05886  -0.01076
  -0.10648  -0.05886  -0.01076
  -0.10648  -0.05886  -0.01076
  -0.10648  -0.05886  -0.01076
  -0.10648  -0.05886  -0.01076
   0.13352  -0.05886  -0.01076
   0.13352  -0.05886  -0.01076
  -0.10648  -0.05886   0.22924
   0.13352  -0.05886   0.22924
  -0.10648  -0.29886  -0.01076
   0.13352  -0.29886   0.22924
   0.13352  -0.29886   0.22924
   0.13352  -0.29886   0.22924
   0.13352  -0.29886   0.22924
  -0.10648  -0.29886   0.22924
  -0.10648  -0.29886   0.22924
   0.13352  -0.29886   0.22924
  -0.10648  -0.29886   0.22924
  -0.10648  -0.29886   0.22924
  -0.10648  -0.29886   0.22924
  -0.10648  -0.29886   0.22924
  -0.10648  -0.29886   0.22924
  -0.10648  -0.29886   0.22924
  -0.10648  -0.05886   0.46924
  -0.10648  -0.05886   0.46924
  -0.10648  -0.05886   0.46924
  -0.10648  -0.05886   0.22924
  -0.10648  -0.05886   0.22924
  -0.10648  -0.05886   0.22924
  -0.10648  -0.05886   0.22924
  -0.10648  -0.05886   0.22924
  -0.10648   0.18114   0.22924
  -0.10648  -0.05886   0.22924
  -0.10648   0.18114  -0.01076
  -0.10648  -0.05886  -0.01076
  -0.10648   0.18114  -0.01076
  -0.10648   0.18114   0.22924
   0.13352  -0.05886  -0.01076
   0.13352  -0.05886  -0.01076
   0.13352  -0.05886  -0.01076
   0.13352  -0.05886  -0.01076
   0.13352  -0.05886  -0.01076
   0.13352  -0.05886  -0.01076
   0.37352   0.18114  -0.01076
   0.37352   0.18114  -0.01076
   0.37352   0.18114  -0.01076
   0.37352   0.18114  -0.01076
   0.61352   0.18114  -0.01076
   0.61352   0.18114  -0.25076
   0.61352   0.18114  -0.25076
   0.61352   0.18114  -0.25076
   0.85352   0.18114  -0.01076
   0.85352   0.18114  -0.25076
   0.85352   0.18114  -0.01076
   0.85352   0.18114  -0.01076
   1.09352   0.18114  -0.01076
   1.09352   0.18114  -0.01076
   1.09352  -0.05886  -0.01076
   1.09352  -0.05886  -0.01076
   1.09352  -0.05886  -0.01076
   1.09352  -0.05886  -0.01076
   1.09352  -0.05886   0.22924
   1.09352  -0.05886   0.22924
   1.09352  -0.05886   0.22924
   1.09352  -0.05886   0.22924
   1.09352  -0.05886   0.22924
   1.09352  -0.05886   0.46924
   1.09352  -0.05886   0.46924
   1.09352  -0.05886   0.46924
   1.09352  -0.05886   0.46924
   0.85352  -0.05886   0.46924
   0.85352  -0.05886   0.70924
   0.85352  -0.05886   0.46924
   0.85352  -0.05886   0.70924
   0.61352  -0.05886   0.70924
   0.61352  -0.05886   0.70924
   0.61352  -0.05886   0.70924
   0.61352  -0.05886   0.70924
   0.37352  -0.05886   0.70924
   0.37352   0.18114   0.94924
   0.37352   0.18114   0.94924
   0.13352   0.18114   0.94924
   0.13352   0.18114   0.94924
   0.13352   0.18114   0.94924
  -0.10648   0.18114   0.94924
  -0.10648   0.18114   0.94924
  -0.10648   0.18114   0.94924
  -0.10648   0.18114   0.94924
  -0.34648   0.18114   0.94924
  -0.34648   0.18114   0.94924
  -0.34648   0.18114   0.70924
  -0.58648   0.42114   0.94924
  -0.58648   0.18114   0.94924
  -0.58648   0.42114   0.94924
  -0.82648   0.42114   0.70924
  -0.82648   0.42114   0.70924
  -0.82648   0.42114   0.70924
  -0.82648   0.42114   0.70924
  -0.82648   0.42114   0.70924
  -1.06648   0.42114   0.70924
  -1.06648   0.42114   0.46924
  -1.06648   0.42114   0.46924
  -1.06648   0.42114   0.22924
  -1.06648   0.42114   0.46924
  -1.06648   0.42114   0.46924
  -1.06648   0.42114   0.22924
  -1.30648   0.42114   0.22924
  -1.06648   0.42114   0.22924
  -1.06648   0.42114   0.22924
  -1.06648   0.42114   0.22924
  -1.06648   0.42114  -0.01076
  -1.06648   0.42114   0.22924
  -1.06648   0.42114  -0.01076
  -1.06648   0.42114  -0.01076
  -1.06648   0.42114  -0.01076
  -1.06648   0.18114  -0.25076
  -1.06648   0.18114  -0.01076
  -1.06648   0.18114  -0.25076
  -0.82648   0.18114  -0.25076
  -0.82648   0.18114  -0.25076
  -0.82648   0.18114  -0.25076
  -0.82648   0.18114  -0.25076
  -0.82648   0.18114  -0.25076
  -0.82648  -0.05886  -0.25076
  -0.82648  -0.05886  -0.25076
  -0.58648  -0.05886  -0.25076
  -0.58648  -0.05886  -0.25076
  -0.58648  -0.05886  -0.25076
  -0.58648  -0.29886  -0.25076
  -0.58648  -0.29886  -0.25076
  -0.58648  -0.53886  -0.25076
  -0.82648  -0.53886  -0.01076
  -0.82648  -0.53886  -0.01076
  -0.58648  -0.53886  -0.01076
  -0.58648  -0.53886  -0.01076
  -0.58648  -0.53886  -0.01076
  -0.58648  -0.53886  -0.01076
  -0.58648  -0.53886   0.22924
  -0.82648  -0.53886  -0.01076
  -0.82648  -0.53886   0.22924
  -0.82648  -0.53886  -0.01076
  -0.82648  -0.53886   0.22924
  -0.82648  -0.53886  -0.01076
  -0.82648  -0.53886  -0.01076
  -0.82648  -0.53886  -0.01076
  -0.82648  -0.53886   0.22924
  -0.82648  -0.53886   0.22924
  -0.82648  -0.53886   0.22924
  -0.82648  -0.53886   0.22924
  -0.82648  -0.53886   0.22924
  -0.82648  -0.53886   0.46924
  -0.82648  -0.53886   0.22924
  -0.82648  -0.53886   0.46924
  -0.82648  -0.53886   0.22924
  -0.82648  -0.53886   0.22924
  -0.82648  -0.29886   0.22924
  -0.82648  -0.29886   0.22924
  -0.82648  -0.29886   0.22924
  -0.82648  -0.05886   0.22924
  -0.82648  -0.05886   0.22924
  -0.82648  -0.05886   0.22924
  -0.82648  -0.05886   0.22924
  -0.82648  -0.05886  -0.01076
  -0.82648  -0.05886  -0.01076
  -0.82648   0.18114  -0.01076
  -0.58648   0.18114  -0.01076
  -0.82648   0.18114  -0.01076
  -0.58648   0.18114  -0.01076
  -0.58648   0.18114  -0.01076
  -0.58648   0.18114  -0.01076
  -0.58648   0.18114  -0.01076
  -0.58648   0.18114  -0.01076
  -0.58648   0.18114  -0.01076
  -0.34648   0.18114  -0.25076
  -0.34648   0.18114  -0.25076
  -0.34648   0.18114  -0.25076
  -0.34648   0.18114  -0.25076
  -0.34648   0.18114  -0.25076
  -0.34648   0.18114  -0.25076
  -0.34648   0.18114  -0.25076
  -0.34648   0.18114  -0.25076
  -0.34648   0.18114  -0.25076
  -0.34648   0.18114  -0.01076
  -0.34648   0.18114  -0.01076
  -0.34648   0.18114  -0.25076
  -0.34648   0.18114  -0.25076
  -0.58648   0.18114  -0.01076
  -0.34648   0.18114  -0.25076
  -0.34648  -0.05886  -0.25076
  -0.34648  -0.05886  -0.25076
  -0.34648  -0.05886  -0.01076
  -0.34648  -0.05886  -0.01076
  -0.34648  -0.05886  -0.01076
  -0.58648  -0.05886   0.22924
  -0.58648  -0.05886  -0.01076
  -0.58648  -0.05886   0.22924
  -0.58648  -0.29886   0.22924
  -0.58648  -0.05886  -0.01076
  -0.58648  -0.05886   0.22924
  -0.58648  -0.05886   0.22924
  -0.58648  -0.05886   0.22924
  -0.58648  -0.05886   0.22924
  -0.58648  -0.05886   0.22924
  -0.82648  -0.05886   0.46924
  -0.82648  -0.05886   0.46924
  -0.82648  -0.05886   0.46924
  -0.82648  -0.05886   0.46924
  -0.82648  -0.05886   0.46924
  -0.82648  -0.05886   0.46924
  -0.82648  -0.05886   0.46924
  -0.82648  -0.05886   0.46924
  -0.82648  -0.29886   0.46924
  -0.82648  -0.05886   0.46924
  -0.82648  -0.05886   0.46924
  -0.82648  -0.29886   0.46924
  -0.82648  -0.05886   0.46924
  -0.82648  -0.05886   0.46924
  -0.82648  -0.05886   0.46924
  -0.82648  -0.05886   0.46924
  -0.82648  -0.05886   0.46924
  -0.82648  -0.29886   0.46924
  -0.82648  -0.05886   0.46924
  -0.82648  -0.05886   0.46924
  -0.82648  -0.05886   0.46924
  -0.82648  -0.05886   0.46924
  -0.82648  -0.05886   0.22924
  -0.58648  -0.05886   0.22924
  -0.58648  -0.05886   0.22924
  -0.58648  -0.05886   0.22924
  -0.58648  -0.05886   0.22924
  -0.58648  -0.05886  -0.01076
  -0.58648  -0.05886   0.22924
  -0.34648  -0.05886  -0.01076
  -0.34648  -0.05886   0.22924
  -0.34648  -0.05886   0.22924
  -0.34648  -0.05886  -0.01076
  -0.34648  -0.05886  -0.01076
  -0.10648  -0.05886  -0.01076
  -0.10648  -0.05886  -0.01076
  -0.10648  -0.05886  -0.01076
  -0.10648  -0.05886  -0.01076
  -0.10648  -0.05886  -0.01076
  -0.10648  -0.05886  -0.01076
  -0.10648  -0.05886  -0.01076
   0.13352  -0.05886  -0.01076
   0.13352  -0.05886  -0.01076
   0.13352  -0.05886  -0.01076
   0.13352  -0.29886  -0.01076
   0.13352  -0.29886  -0.01076
   0.13352  -0.29886  -0.01076
   0.13352  -0.29886  -0.01076
   0.37352  -0.29886  -0.01076
   0.37352  -0.05886  -0.01076
   0.37352  -0.05886  -0.01076
   0.37352  -0.05886  -0.01076
   0.37352  -0.05886  -0.01076
   0.61352  -0.05886  -0.01076
   0.61352  -0.05886  -0.25076
   0.61352  -0.05886  -0.01076
   0.61352  -0.05886  -0.01076
   0.85352  -0.05886  -0.01076
   0.85352  -0.05886  -0.25076
   0.85352  -0.05886  -0.25076
   0.85352  -0.05886  -0.25076
   1.09352  -0.05886  -0.25076
   1.09352  -0.05886  -0.25076
   1.09352  -0.05886  -0.25076
   1.09352  -0.05886  -0.25076
   1.09352  -0.05886  -0.49076
   1.32352  -0.05886  -0.49076
   1.32352  -0.05886  -0.49076
   1.32352  -0.05886  -0.49076
   1.32352  -0.05886  -0.49076
   1.32352  -0.05886  -0.49076
   1.56352  -0.05886  -0.49076
   1.56352  -0.05886  -0.49076
   1.56352  -0.05886  -0.49076
   1.56352  -0.05886  -0.49076
   1.80352  -0.05886  -0.49076
   1.56352  -0.05886  -0.49076
   1.80352  -0.05886  -0.49076
   1.80352  -0.05886  -0.49076
   1.80352  -0.05886  -0.49076
   1.80352  -0.05886  -0.73076
   1.80352  -0.05886  -0.49076
   1.80352  -0.05886  -0.73076
   2.04352  -0.05886  -0.73076
   2.04352  -0.05886  -0.73076
   2.04352  -0.05886  -0.73076
   2.04352  -0.05886  -0.73076
   2.04352  -0.05886  -0.73076
   2.04352  -0.05886  -0.73076
   2.04352  -0.05886  -0.73076
   2.04352   0.18114  -0.73076
   2.04352   0.18114  -0.73076
   2.04352   0.18114  -0.49076
   2.04352   0.18114  -0.73076
   2.04352   0.18114  -0.73076
   2.04352   0.18114  -0.73076
   2.04352   0.18114  -0.73076
   2.04352  -0.05886  -0.73076
   2.04352   0.18114  -0.73076
   2.04352   0.18114  -0.73076
   2.04352   0.18114  -0.73076
   2.04352  -0.05886  -0.73076
   2.04352   0.18114  -0.49076
   1.80352   0.18114  -0.49076
   1.80352   0.18114  -0.49076
   1.80352  -0.05886  -0.49076
   1.80352   0.18114  -0.49076
   1.80352   0.18114  -0.49076
   1.80352   0.18114  -0.49076
   1.80352   0.18114  -0.49076
   1.56352   0.18114  -0.25076
   1.56352   0.18114  -0.25076
   1.56352   0.18114  -0.25076
   1.32352   0.18114  -0.25076
   1.32352   0.18114  -0.25076
   1.32352   0.18114  -0.25076
   1.32352   0.18114  -0.25076
   1.09352   0.18114  -0.25076
   1.09352   0.18114  -0.25076
   0.85352   0.18114  -0.01076
   1.09352   0.18114  -0.01076
   0.85352   0.18114   0.22924
   0.85352   0.18114  -0.01076
   0.61352   0.18114  -0.01076
   0.61352   0.18114   0.22924
   0.61352   0.18114   0.22924
   0.37352   0.18114   0.22924
   0.37352   0.18114   0.22924
   0.37352   0.18114   0.46924
   0.13352   0.18114   0.46924
   0.13352   0.18114   0.46924
   0.13352   0.18114   0.46924
  -0.10648   0.18114   0.46924
  -0.10648   0.18114   0.46924
  -0.10648   0.18114   0.46924
  -0.34648   0.18114   0.46924
  -0.34648   0.18114   0.46924
  -0.34648   0.18114   0.46924
  -0.58648   0.18114   0.46924
  -0.58648   0.18114   0.46924
  -0.58648   0.18114   0.46924
  -0.82648   0.18114   0.46924
  -0.82648   0.18114   0.46924
  -0.82648   0.42114   0.70924
  -1.06648   0.18114   0.46924
  -1.06648   0.42114   0.46924
  -1.06648   0.42114   0.46924
  -1.30648   0.42114   0.46924
  -1.30648   0.42114   0.22924
  -1.30648   0.42114   0.46924
  -1.30648   0.66114   0.46924
  -1.30648   0.42114   0.22924
  -1.54648   0.42114   0.22924
  -1.54648   0.42114   0.22924
  -1.54648   0.42114   0.22924
  -1.54648   0.42114   0.22924
  -1.54648   0.42114  -0.01076
  -1.78648   0.42114   0.22924
  -1.78648   0.42114  -0.01076
  -1.78648   0.18114  -0.01076
  -1.78648   0.42114  -0.01076
  -1.78648   0.42114  -0.01076
  -1.78648   0.42114  -0.01076
  -1.78648   0.42114  -0.01076
  -1.78648   0.42114  -0.25076
  -1.78648   0.42114  -0.01076
  -1.78648   0.42114  -0.25076
  -1.78648   0.18114  -0.25076
  -1.78648   0.18114  -0.25076
  -1.78648   0.18114  -0.25076
  -1.54648   0.18114  -0.25076
  -1.54648   0.18114  -0.25076
  -1.54648   0.18114  -0.25076
  -1.54648   0.18114  -0.25076
  -1.30648   0.18114  -0.25076
  -1.30648  -0.05886  -0.25076
  -1.30648  -0.05886  -0.25076
  -1.30648  -0.05886  -0.25076
  -1.06648  -0.05886  -0.25076
  -1.06648  -0.05886  -0.25076
  -0.82648  -0.05886  -0.25076
  -0.82648  -0.29886  -0.25076
  -0.82648  -0.29886  -0.25076
  -0.58648  -0.29886  -0.25076
  -0.58648  -0.29886  -0.25076
  -0.58648  -0.29886  -0.25076
  -0.58648  -0.29886  -0.01076
  -0.34648  -0.29886  -0.25076
  -0.34648  -0.29886  -0.01076
  -0.10648  -0.29886  -0.25076
  -0.10648  -0.29886  -0.01076
  -0.10648  -0.53886  -0.01076
   0.13352  -0.29886  -0.01076
   0.13352  -0.53886  -0.01076
   0.13352  -0.53886  -0.01076
   0.13352  -0.53886  -0.01076
   0.37352  -0.53886  -0.01076
   0.37352  -0.53886  -0.01076
   0.37352  -0.53886  -0.01076
   0.13352  -0.53886  -0.01076
   0.37352  -0.77886  -0.01076
   0.37352  -0.53886  -0.01076
   0.37352  -0.53886  -0.01076
   0.37352  -0.53886  -0.01076
   0.37352  -0.53886  -0.01076
   0.37352  -0.53886  -0.01076
   0.37352  -0.53886   0.22924
   0.13352  -0.53886  -0.01076
   0.13352  -0.53886   0.22924
   0.13352  -0.53886   0.22924
   0.13352  -0.53886   0.22924
   0.13352  -0.53886   0.22924
   0.13352  -0.53886   0.22924
   0.13352  -0.53886   0.22924
  -0.10648  -0.53886  -0.01076
  -0.10648  -0.29886  -0.01076
  -0.10648  -0.29886  -0.01076
  -0.10648  -0.29886  -0.01076
  -0.10648  -0.05886  -0.01076
  -0.10648  -0.05886  -0.01076
  -0.10648  -0.05886  -0.01076
  -0.34648  -0.05886   0.22924
  -0.34648  -0.05886  -0.01076
  -0.10648   0.18114  -0.01076
  -0.34648   0.18114  -0.01076
  -0.34648   0.18114  -0.01076
  -0.34648   0.18114  -0.01076
  -0.34648   0.18114  -0.01076
  -0.34648   0.42114  -0.01076
  -0.34648   0.42114  -0.01076
  -0.34648   0.42114  -0.01076
  -0.34648   0.42114  -0.01076
  -0.34648   0.42114  -0.01076
  -0.34648   0.42114  -0.01076
