********************************************************************************
              CENTRO DE INSTRUMENTACION Y REGISTRO SISMICO  A.C.

    Anaxagoras 814, Col. Narvarte, Benito Juarez, C.P. 03020 Mexico, D.F.
           Tels. 5687 45 42/ 5687 45  82             Fax. 5669 25 12
********************************************************************************
ARCHIVO ESTANDAR DE ACELERACION:
VERSION DEL FORMATO                    : 2.0
NOMBRE DEL ARCHIVO                     : BA4920180216233938
FECHA Y HORA DE CREACION               : 07/MAR/18, 13:25
REF. CATALOGO ACELEROGRAMAS, SMIS 1996 : REGISTRO No.     /PAG.


================================================================================
DATOS DE LA ESTACION:
NOMBRE DE LA ESTACION                  : BUENOS AIRES
CLAVE DE LA ESTACION                   : BA49
LOCALIZACION DE LA ESTACION            : Del. Cuauhtémoc, Col. Doctores,        
                                       : Av. Lázaro Cárdenas esq. con           
                                       : Calle Dr. Márquez.                     
                                       :                                        
                                       : 
COORDENADAS DE LA ESTACION             : 19.4097 LAT. N
                                       : 99.1450 LONG. W
ALTITUD (msnm)                         : 2233
TIPO DE SUELO                          : Terreno blando, material compresible
                                       : (arcillas)                
                                       : 
INSTITUCION RESPONSABLE                : CIRES
                                       : 

================================================================================
DATOS DEL ACELEROGRAFO:
MODELO DEL ACELEROGRAFO                : RADESD
NUMERO DE SERIE DEL ACELEROGRAFO       : 176
NUMERO DE CANALES                      : 3
ORIENTACION C1-C6 (rumbo;orientacion)  : /S00E/+V/N90W
ORIENTACION C7-C12 (rumbo;orientacion) : 
VEL. DE MUESTREO, C1-C6 (muestras/s)   : /100/100/100
VEL. DE MUESTREO, C7-C12 (muestras/s)  : 
ESC. COMPLETA DE SENSORES, C1-C6, (g)  : /0.5/0.5/0.5
ESC. COMPLETA DE SENSORES, C7-C12, (g) : 
FREC. NAT. DE SENSORES, C1-C6, (Hz)    : /52.99/52.03/52.99
FREC. NAT. DE SENSORES, C7-C12, (Hz)   : 
AMORTIGUAMIENTO DE SENSORES, C1-C6     : /0.5589/0.5469/0.6096
AMORTIGUAMIENTO DE SENSORES, C7-C12    : 
INTERVALO DE MUESTREO, C1-C6, (s)      : /0.01/0.01/0.01
INTERVALO DE MUESTREO, C7-C12, (s)     : 
UMBRAL DE DISPARO, C1-C6, (Gal)        : /0.96/1.92/0.96
UMBRAL DE DISPARO, C7-C12, (Gal)       : 
MEMORIA DE PREEVENTO (s)               : 44.0
TIEMPO DE POSEVENTO (s)                : 0.0


================================================================================
DATOS DEL SISMO:
FECHA DEL SISMO (GMT)                  : 16/FEB/18
HORA EPICENTRO (GMT)                   : 23:39:38.0
MAGNITUD(ES)                           : /Mc=7.2
COORDENADAS DEL EPICENTRO              : 16.25 LAT. N
                                       : 98.03 LONG. W
PROFUNDIDAD FOCAL (km)                 : 12
FUENTE DE LOS DATOS EPICENTRALES       : SSN
                                       : INSTITUTO DE GEOFISICA, UNAM

================================================================================
DATOS DE ESTE REGISTRO:
HORA DE LA PRIMERA MUESTRA (GMT)       : 23:40:10.00
EXACTITUD DEL TIEMPO (s)               : 0.01
DURACION DEL REGISTRO (s), C1-C6       : /462.2/462.2/462.2
DURACION DEL REGISTRO (s), C7-C12      : 
NUM. TOTAL DE MUESTRAS, C1-C6          : /46220/46220/46220
NUM. TOTAL DE MUESTRAS, C7-C12         : 
ACEL. MAX. (Gal), C1-C6                : /24.6843/8.78164/30.54416
ACEL. MAX., C1-C6, EN LA MUESTRA       : /12003/11298/9133
ACEL. MAX. (Gal), C7-C12               : 
ACEL. MAX., C7-C12, EN LA MUESTRA      : 
UNIDADES DE LOS DATOS                  : Gal (cm/s/s)
FACTOR DE DECIMACION                   : 1
FORMATO DATOS (FORTRAN,10 campos/dato) : 3F10.5


================================================================================
CALIDAD DEL ACELEROGRAMA:
REGISTRO DIGITAL COMPLETO CON TIEMPO ABSOLUTO CORRECTO.


================================================================================
COMENTARIOS:














================================================================================
DATOS DE ACELERACION:
---------+---------+---------+---------+---------+---------+---------+---------+
   CANAL-1   CANAL-2   CANAL-3   CANAL-4   CANAL-5   CANAL-6   CANAL-7   CANAL-8
      S00E        +V      N90W
---------+---------+---------+---------+---------+---------+---------+---------+
[...]
   5.39602   1.04538  10.77078
   5.27631   0.89574  10.24705
   4.97703   0.95560   9.76821
   4.69272   0.92567   9.28937
   4.31863   0.91071   8.85542
   4.07921   1.00049   8.31673
   3.82482   1.06034   7.92767
   3.51058   1.09027   7.40394
   3.25620   1.09027   6.94006
   3.00182   1.06034   6.41633
   2.79232   0.85085   6.04224
   2.49305   0.71618   5.65318
   2.20874   0.52165   5.18930
   1.86457   0.26726   4.89003
   1.46055   0.04281   4.53090
   1.07149  -0.21158   4.27651
   0.66747  -0.43603   4.06702
   0.27841  -0.61560   3.73782
  -0.15554  -0.69042   3.30387
  -0.46978  -0.82509   2.97467
  -0.79898  -0.86998   2.54072
  -1.21796  -0.94480   2.09180
  -1.71177  -0.95976   1.58304
  -2.13075  -1.01962   1.16405
  -2.71434  -1.12436   0.59543
  -3.16325  -1.18422   0.10162
  -3.67202  -1.34882  -0.51189
  -4.27057  -1.43860  -1.18526
  -4.85416  -1.43860  -1.90352
  -5.45271  -1.49846  -2.68164
  -6.06622  -1.51342  -3.54953
  -6.69470  -1.51342  -4.34261
  -7.41296  -1.46853  -5.27037
  -8.10129  -1.45357  -6.04848
  -8.74474  -1.16926  -6.72185
  -9.19365  -1.00465  -7.39522
  -9.65753  -0.69042  -7.91895
 -10.07651  -0.42107  -8.51750
 -10.39075  -0.27143  -8.84671
 -10.79477  -0.00208  -9.29562
 -10.77981   0.25230  -9.65475
 -10.98930   0.40194  -9.83431
 -11.10901   0.52165 -10.07373
 -11.04915   0.62640  -9.96899
 -11.00426   0.65632 -10.01388
 -10.88455   0.88078  -9.99891
 -10.71995   0.91071  -9.93906
 -10.57031   0.95560  -9.80439
 -10.39075   0.98553  -9.75949
 -10.24111   1.04538  -9.69964
 -10.09147   1.06034  -9.66971
  -9.92687   0.98553  -9.52007
  -9.77724   0.88078  -9.40036
  -9.64256   0.73114  -9.25073
  -9.49292   0.64136  -9.11605
  -9.25350   0.43187  -8.96642
  -9.05897   0.22237  -8.83174
  -8.87941   0.14755  -8.83174
  -8.65495   0.14755  -8.65218
  -8.37064   0.11763  -8.63721
  -8.16115   0.13259  -8.59232
  -7.98158   0.16252  -8.45765
  -7.66735   0.26726  -8.23319
  -7.41296   0.17748  -8.08355
  -7.17354   0.25230  -7.82917
  -6.97901   0.26726  -7.61968
  -6.73959   0.32712  -7.35033
  -6.60492   0.43187  -7.05105
  -6.42535   0.47676  -6.79667
  -6.35053   0.46179  -6.45250
  -6.23082   0.38698  -6.21308
  -6.17097   0.35705  -5.79410
  -6.14104   0.23734  -5.46490
  -6.09615   0.11763  -5.27037
  -6.05126  -0.00208  -4.98606
  -6.03630  -0.15172  -4.74663
  -5.93155  -0.31632  -4.47729
  -5.85673  -0.46596  -4.34261
  -5.81184  -0.69042  -4.25283
  -5.78191  -0.88494  -4.32765
  -5.78191  -1.03458  -4.40247
  -5.85673  -1.07947  -4.50721
  -5.88666  -1.04955  -4.79153
  -6.00637  -0.97473  -5.10577
  -6.09615  -0.82509  -5.44993
  -6.20090  -0.73531  -5.85395
  -6.32061  -0.67545  -6.37768
  -6.44032  -0.63056  -6.88645
  -6.66477  -0.57071  -7.60471
  -6.81441  -0.45100  -8.12844
  -6.93412  -0.43603  -8.72700
  -7.09872  -0.43603  -9.56497
  -7.14361  -0.30136 -10.25330
  -7.18850  -0.24150 -10.98652
  -7.17354  -0.22654 -11.62996
  -7.06879  -0.21158 -12.30333
  -7.02390  -0.16668 -12.94678
  -6.72463  -0.22654 -13.48547
  -6.47024  -0.27143 -13.85957
  -6.18593  -0.43603 -14.26359
  -5.82680  -0.60063 -14.54790
  -5.48264  -0.76523 -14.80228
  -5.12351  -1.12436 -14.92199
  -4.64467  -1.37875 -15.11652
  -4.34539  -1.67802 -15.14645
  -3.95633  -1.93241 -15.17638
  -3.61217  -2.18679 -15.07163
  -3.46253  -2.51599 -14.93696
  -3.29793  -2.89009 -14.75739
  -3.17822  -3.17440 -14.66761
  -3.16325  -3.53353 -14.57783
  -3.26800  -3.60835 -14.32344
  -3.41764  -3.89266 -14.17380
  -3.56727  -3.99741 -13.99424
  -3.76180  -4.05726 -13.99424
  -4.12093  -3.90762 -13.84460
  -4.37532  -3.75799 -13.76978
  -4.68956  -3.57842 -13.72489
  -5.03372  -3.33900 -13.66504
  -5.37789  -3.12951 -13.63511
  -5.54249  -2.75541 -13.62014
  -5.78191  -2.38132 -13.60518
  -5.96148  -1.99226 -13.69496
  -6.08119  -1.60321 -13.60518
  -6.14104  -1.18422 -13.56029
  -6.18593  -0.86998 -13.53036
  -6.20090  -0.64552 -13.50043
  -6.02133  -0.61560 -13.36576
  -5.88666  -0.57071 -13.17123
  -5.73702  -0.49589 -12.94678
  -5.54249  -0.57071 -12.60261
  -5.27314  -0.66049 -12.31830
  -5.09358  -0.79516 -12.03399
  -4.83919  -0.89991 -11.60004
  -4.53992  -1.04955 -11.22594
  -4.33043  -1.22911 -10.86681
  -3.94137  -1.28897 -10.37301
  -3.62713  -1.42364  -9.86424
  -3.37275  -1.54335  -9.37044
  -3.04354  -1.46853  -8.72700
  -2.77420  -1.30393  -8.12844
  -2.45996  -1.13933  -7.54486
  -2.19061  -0.89991  -6.91638
  -1.98112  -0.63056  -6.28790
  -1.77162  -0.27143  -5.56964
  -1.51724   0.04281  -4.95613
  -1.30775   0.44683  -4.34261
  -1.14315   0.73114  -3.78895
  -0.97854   0.97056  -3.23530
  -0.85883   1.26984  -2.66667
  -0.69423   1.59904  -2.06812
  -0.57452   1.95817  -1.60425
  -0.37999   2.18263  -1.05059
  -0.24532   2.42205  -0.55678
   0.06892   2.61658   0.05673
   0.36819   2.76621   0.67025
   0.87696   2.70636   1.25383
   1.35580   2.69139   1.88231
   1.98428   2.60161   2.61554
   2.65765   2.48190   3.27394
   3.40584   2.30234   4.09695
   4.16899   2.13774   4.90499
   4.91718   1.95817   5.77289
   5.72522   1.71875   6.59590
   6.47341   1.38955   7.46379
   7.20663   1.06034   8.24191
   8.04460   0.77603   9.07988
   8.71797   0.59647   9.85800
   9.46616   0.35705  10.69597
  10.07967   0.29719  11.36933
  10.64830   0.31216  11.96789
  11.20196   0.34208  12.47665
  11.62094   0.43187  13.03031
  12.06985   0.64136  13.28470
  12.44395   0.76107  13.58397
  12.77315   0.97056  13.83836
  13.08739   1.09027  13.91317
  13.40163   1.26984  14.00296
  13.68594   1.49429  14.03288
  13.89543   1.65889  13.98799
  14.13485   1.85342  13.83836
  14.32938   1.95817  13.74857
  14.53888   2.12277  13.56901
  14.70348   2.13774  13.38944
  14.88304   2.12277  13.19491
  15.00275   2.15270  13.01535
  15.21224   2.06292  12.83578
  15.24217   1.82350  12.65622
  15.52648   1.64393  12.43176
  15.60130   1.31473  12.32702
  15.70605   0.98553  12.16241
  15.78087   0.76107  12.01278
  15.84072   0.65632  11.92299
  15.85569   0.47676  11.75839
  15.81080   0.37201  11.63868
  15.67612   0.17748  11.59379
  15.52648   0.13259  11.50401
  15.34692   0.16252  11.33941
  15.03268   0.16252  11.23466
  14.74837   0.14755  11.11495
  14.32938   0.26726  10.98028
  13.88047   0.32712  10.87553
  13.38667   0.52165  10.74086
  12.83301   0.65632  10.57626
  12.23446   0.95560  10.36676
  11.65087   1.04538  10.12734
  10.99246   1.25487   9.93281
  10.31909   1.37458   9.61858
   9.69062   1.47933   9.33426
   9.06214   1.76364   9.02002
   8.49352   1.86839   8.84046
   8.02964   2.07788   8.57111
   7.61065   2.15270   8.46637
   7.40116   2.24248   8.28680
   7.25152   2.34723   8.13716
   7.23656   2.45197   8.09227
   7.20663   2.48190   8.09227
   7.35627   2.46694   8.03242
   7.59569   2.43701   8.13716
   7.83511   2.31730   8.30176
   8.13439   2.04795   8.45140
   8.59826   1.92824   8.78060
   9.00228   1.58408   9.15470
   9.43623   1.37458   9.42405
   9.81033   1.15013   9.78318
  10.18442   0.83589  10.05252
  10.51362   0.52165  10.38173
  10.78297   0.16252  10.77078
  11.00743  -0.15172  11.11495
  11.15707  -0.39114  11.35437
  11.21692  -0.70538  11.68357
  11.21692  -0.89991  11.86314
  11.27678  -1.07947  11.87810
  11.32167  -1.27400  11.98285
  11.27678  -1.28897  12.07263
  11.09721  -1.33386  12.20731
  10.99246  -1.37875  12.34198
  10.85779  -1.16926  12.28212
  10.66326  -1.15429  12.17738
  10.52859  -0.88494  12.13249
  10.27420  -0.81013  12.14745
  10.07967  -0.73531  12.08760
   9.85522  -0.66049  12.02774
   9.69062  -0.61560  12.07263
   9.46616  -0.63056  12.10256
   9.19681  -0.73531  12.14745
   8.89754  -0.85502  12.31205
   8.62819  -1.00465  12.50658
   8.28402  -1.12436  12.83578
   7.90993  -1.39371  13.16499
   7.61065  -1.66306  13.56901
   7.25152  -1.93241  14.01792
   7.02707  -2.20176  14.51172
   6.59312  -2.42621  15.14020
   6.11428  -2.60578  15.88839
   5.51573  -2.77038  16.54680
   4.93214  -2.83023  17.16031
   4.27374  -2.96491  17.86361
   3.58540  -3.09958  18.53698
   2.91203  -3.27915  19.19538
   2.16385  -3.29411  19.73408
   1.32587  -3.36893  20.25781
   0.47294  -3.45871  20.70672
  -0.49970  -3.44375  21.09578
  -1.36760  -3.33900  21.33520
  -2.19061  -3.36893  21.54469
  -2.98369  -3.32404  21.67937
  -3.77677  -3.21929  21.69433
  -4.50999  -3.15944  21.63447
  -5.13847  -3.00980  21.52973
  -5.63227  -2.86016  21.32024
  -6.08119  -2.66563  20.99103
  -6.42535  -2.54592  20.54212
  -6.63485  -2.53096  20.07824
  -6.75456  -2.45614  19.62933
  -6.81441  -2.29154  19.06071
  -6.76952  -2.12694  18.44719
  -6.67974  -1.97730  17.75886
  -6.60492  -1.85759  17.08549
  -6.51514  -1.67802  16.33730
  -6.38046  -1.69299  15.61904
  -6.32061  -1.57328  14.91575
  -6.09615  -1.75284  14.21245
  -6.00637  -1.78277  13.35952
  -5.94651  -1.78277  12.62629
  -5.93155  -1.72292  11.81825
  -5.90162  -1.70795  11.12991
  -5.91659  -1.69299  10.29194
  -6.03630  -1.60321   9.36419
  -6.21586  -1.36378   8.45140
  -6.39543  -1.09444   7.44883
  -6.70966  -0.79516   6.58093
  -6.93412  -0.40610   5.51850
  -7.18850   0.07274   4.48601
  -7.66735   0.61143   3.49840
  -7.99655   1.00049   2.39108
  -8.41553   1.47933   1.34362
  -8.84948   2.04795   0.23630
  -9.28343   2.55672  -0.93088
  -9.70242   3.17023  -2.05316
 -10.09147   3.79871  -3.13055
 -10.43564   4.30748  -4.20794
 -10.85463   4.87610  -5.33022
 -11.06412   5.35494  -6.45250
 -11.34843   5.75897  -7.38026
 -11.55792   5.98342  -8.27808
 -11.79734   6.16299  -9.20584
 -12.02180   6.17795 -10.10366
 -12.14151   6.14802 -10.86681
 -12.27618   6.08817 -11.79457
 -12.41086   5.80386 -12.55772
 -12.51560   5.47465 -13.35080
 -12.60539   5.25020 -14.05409
 -12.68020   4.81625 -14.75739
 -12.69517   4.39726 -15.44572
 -12.78495   4.06806 -16.01435
 -12.84481   3.63411 -16.67275
 -12.84481   3.33484 -17.30123
 -12.88970   2.93081 -17.86985
 -12.91962   2.60161 -18.39358
 -12.97948   2.25745 -18.96221
 -12.88970   1.80853 -19.50090
 -12.85977   1.44940 -20.11442
 -12.81488   1.10524 -20.77282
 -12.75502   0.68625 -21.41626
 -12.60539   0.38698 -22.19438
 -12.47071   0.02784 -22.83782
 -12.20136  -0.21158 -23.57105
 -12.02180  -0.48092 -24.30427
 -11.79734  -0.79516 -24.90282
 -11.49807  -0.98969 -25.68094
 -11.25865  -1.16926 -26.26452
 -10.94441  -1.34882 -26.78825
 -10.52542  -1.52839 -27.32695
 -10.09147  -1.58824 -27.83572
  -9.73234  -1.72292 -28.19485
  -9.17868  -1.85759 -28.61383
  -8.75970  -1.97730 -28.98793
  -8.23597  -2.12694 -29.34706
  -7.80202  -2.23168 -29.51166
  -7.39800  -2.26161 -29.75108
  -7.02390  -2.27657 -29.97553
  -6.78448  -2.26161 -30.15510
  -6.61988  -2.14190 -30.30474
  -6.51514  -2.11197 -30.43941
  -6.48521  -1.93241 -30.52919
  -6.53010  -1.76781 -30.54416
  -6.69470  -1.69299 -30.54416
  -6.85930  -1.43860 -30.43941
  -7.14361  -1.24407 -30.37956
  -7.42792  -1.15429 -30.27481
  -7.80202  -0.91487 -30.09525
  -8.17611  -0.78020 -29.91568
  -8.59510  -0.67545 -29.67626
  -9.04401  -0.58567 -29.40691
  -9.53782  -0.58567 -29.01785
  -9.97176  -0.61560 -28.56894
 -10.48053  -0.58567 -28.16492
 -10.82470  -0.69042 -27.67112
 -11.25865  -0.78020 -26.90796
 -11.58785  -0.88494 -26.33934
 -11.93202  -0.92984 -25.62108
 -12.09662  -0.92984 -24.76815
 -12.35100  -1.00465 -23.87032
 -12.56049  -1.01962 -22.92760
 -12.78495  -1.07947 -21.96992
 -12.94955  -1.06451 -21.01224
 -13.09919  -1.10940 -19.99471
 -13.23386  -1.16926 -18.93228
 -13.33861  -1.25904 -17.83993
 -13.41343  -1.37875 -16.80743
 -13.41343  -1.39371 -15.74500
 -13.32365  -1.46853 -14.69754
 -13.27876  -1.33386 -13.85957
 -13.14408  -1.19918 -12.72232
 -12.88970  -0.97473 -11.89931
 -12.76999  -0.67545 -10.89674
 -12.32107  -0.52581 -10.04381
 -11.96194  -0.27143  -9.16094
 -11.39332  -0.07690  -8.56239
 -10.83966   0.17748  -7.72442
 -10.18126   0.38698  -7.03609
  -9.31336   0.62640  -6.46747
  -8.44546   0.89574  -5.83899
  -7.50274   1.07531  -5.36015
  -6.48521   1.31473  -4.83642
  -5.39285   1.50926  -4.35758
  -4.21072   1.59904  -3.98348
  -3.11836   1.64393  -3.59443
  -1.92126   1.70379  -3.16048
  -0.67927   1.67386  -2.87616
   0.42805   1.65889  -2.65171
   1.58026   1.53918  -2.44222
   2.71750   1.67386  -2.29258
   3.77993   1.53918  -2.26265
   4.78250   1.68882  -2.20280
   5.72522   1.76364  -2.15790
   6.65297   1.77860  -2.21776
   7.53584   1.85342  -2.32251
   8.35884   1.92824  -2.48711
   9.16689   2.01802  -2.57689
   9.78040   2.12277  -2.74149
  10.40888   2.19759  -2.90609
  10.97750   2.28737  -2.98091
  11.38152   2.43701  -3.08566
  11.87533   2.51183  -3.23530
  12.21949   2.70636  -3.41486
  12.50380   2.75125  -3.48968
  12.69833   2.85600  -3.56450
  12.84797   2.99067  -3.62435
  13.01257   3.08045  -3.69917
  13.14725   3.40965  -3.71414
  13.19214   3.66404  -3.78895
  13.22206   4.06806  -3.69917
  13.29688   4.38230  -3.75903
  13.34177   4.69654  -3.84881
  13.38667   4.98085  -3.74406
  13.47645   5.26516  -3.63932
  13.52134   5.36991  -3.45975
  13.56623   5.57940  -3.32508
  13.55127   5.57940  -3.07069
  13.52134   5.47465  -2.90609
  13.52134   5.38487  -2.47214
  13.49141   5.22027  -2.15790
  13.41659   4.90603  -1.84367
  13.32681   4.53194  -1.46957
  13.26696   4.08302  -0.99073
  13.13228   3.64907  -0.45204
  12.98264   3.20016   0.08666
  12.89286   2.72132   0.46075
  12.75819   2.24248   0.99945
  12.53373   1.80853   1.64289
  12.38409   1.25487   2.19655
  12.18956   0.86582   2.75021
  12.02496   0.47676   3.24401
  11.89029   0.14755   3.67796
  11.83043  -0.16668   4.20169
  11.71072  -0.45100   4.53090
  11.59101  -0.69042   4.87506
  11.53116  -0.98969   5.27908
  11.45634  -1.19918   5.63821
  11.44138  -1.37875   6.17691
  11.30670  -1.60321   6.47619
  11.21692  -1.88752   6.58093
  10.99246  -2.26161   6.89517
  10.85779  -2.71052   7.43387
  10.57348  -3.14447   7.80796
  10.24428  -3.54849   8.22695
   9.98989  -4.07223   8.63097
   9.54098  -4.43136   9.04995
   9.12199  -4.70070   9.69339
   8.82272  -5.10472  10.21713
   8.29899  -5.41896  10.81568
   7.93986  -5.80802  11.33941
   7.58073  -6.12226  12.05767
   7.22160  -6.42154  12.82082
   6.95225  -6.88541  13.56901
   6.62305  -7.21462  14.30223
   6.41355  -7.60367  15.08035
   6.15917  -7.73835  15.94825
   5.82997  -7.96280  16.83111
   5.71026  -8.18726  17.54937
   5.65040  -8.38179  18.35741
   5.63544  -8.36682  19.25524
   5.60551  -8.47157  20.03335
   5.51573  -8.39675  20.88629
   5.54566  -8.20222  21.70929
   5.60551  -8.18726  22.51734
   5.74018  -7.93288  23.26552
   5.80004  -7.58871  23.90897
   5.93471  -7.22958  24.50752
   6.06939  -6.69088  25.06118
   6.20406  -6.15219  25.67469
   6.39859  -5.68831  26.09368
   6.50334  -5.07480  26.64733
   6.72779  -4.55107  26.97654
   6.93729  -3.93755  27.41049
   7.04203  -3.33900  27.85940
   7.19167  -2.90505  28.23349
   7.37123  -2.51599  28.60759
   7.46102  -2.12694  28.89190
   7.34131  -1.81270  29.23606
   7.29642  -1.52839  29.53534
   7.28145  -1.25904  29.75980
   7.26649  -0.86998  29.90943
   7.16174  -0.60063  30.11893
   6.92232  -0.24150  30.31346
   6.72779   0.23734  30.44813
   6.63801   0.79100  30.38827
   6.54823   1.26984  30.34338
   6.30881   1.70379  30.38827
   6.18910   2.10781  30.20871
   6.18910   2.69139  29.89447
   6.14421   3.24505  29.50541
   6.03946   3.66404  29.08643
   6.02450   4.18777  28.68241
