********************************************************************************
               CENTRO DE INSTRUMENTACION Y REGISTRO SISMICO  A.C.  
                       Coordinacion de Servicios Tecnicos
     Anaxagoras 814, Col. Narvarte, Benito Juarez, C.P. 03020 Mexico, D.F.
            Tels. 667 45 42/ 687 45  82             Fax. 669 25 12
********************************************************************************
ARCHIVO ESTANDAR DE ACELERACION:
VERSION DEL FORMATO                    : 2.0
NOMBRE DEL ARCHIVO                     : BA490103.051
FECHA Y HORA DE CREACION               : 05/JUL/04, 10:20
REF. CATALOGO ACELEROGRAMAS, SMIS 1996 : REGISTRO No.     /PAG.


================================================================================
DATOS DE LA ESTACION:
NOMBRE DE LA ESTACION                  : BUENOS AIRES
CLAVE DE LA ESTACION                   : BA49
LOCALIZACION DE LA ESTACION            : ESCUELA SECUNDARIA 102, DOCTOR MARQUEZ
                                       : Y EJE CENTRAL, BUENOS AIRES.
                                       :
                                       :
                                       :
COORDENADAS DE LA ESTACION             : 19.410 LAT. N 
                                       : 99.145 LONG. W 
ALTITUD (msnm)                         : 2233
TIPO DE SUELO                          : TERRENO BLANDO, MATERIAL COMPRESIBLE
                                       : (ARCILLAS)
                                       : 
INSTITUCION RESPONSABLE                : CIRES 
                                       :

================================================================================
DATOS DEL ACELEROGRAFO:
MODELO DEL ACELEROGRAFO                : SSA-1
NUMERO DE SERIE DEL ACELEROGRAFO       : 176
NUMERO DE CANALES                      : 3
ORIENTACION C1-C6 (rumbo;orientacion)  : /N00E/+V/N90E
ORIENTACION C7-C12 (rumbo;orientacion) :
VEL. DE MUESTREO, C1-C6 (muestras/s)   : /200/200/200
VEL. DE MUESTREO, C7-C12 (muestras/s)  :
ESC. COMPLETA DE SENSORES, C1-C6, (g)  : /2/2/2
ESC. COMPLETA DE SENSORES, C7-C12, (g) :
FREC. NAT. DE SENSORES, C1-C6, (Hz)    : /52.99/52.03/52.99
FREC. NAT. DE SENSORES, C7-C12, (Hz)   :
AMORTIGUAMIENTO DE SENSORES, C1-C6     : /.5589/.5469/.6096
AMORTIGUAMIENTO DE SENSORES, C7-C12    :
INTERVALO DE MUESTREO, C1-C6, (s)      : /0.005/0.005/0.005
INTERVALO DE MUESTREO, C7-C12, (s)     :
UMBRAL DE DISPARO, C1-C6, (Gal)        : /2/2/2
UMBRAL DE DISPARO, C7-C12, (Gal)       :
MEMORIA DE PREEVENTO (s)               : 15
TIEMPO DE POSEVENTO (s)                : 60


================================================================================
DATOS DEL SISMO:
FECHA DEL SISMO (GMT)                  : 05/MAR/01
HORA EPICENTRO (GMT)                   : 10:17:36,5
MAGNITUD(ES)                           : /Mb=5.0/Ms=4.5/Mc=4.9/Ma=5.0/Me=5.2
COORDENADAS DEL EPICENTRO              : 17.13 LAT. N
                                       : 100.06 LONG. W
PROFUNDIDAD FOCAL (km)                 : 32
FUENTE DE LOS DATOS EPICENTRALES       : SSN
                                       : INSTITUTO DE GEOFISICA, UNAM 

================================================================================
DATOS DE ESTE REGISTRO:
HORA DE LA PRIMERA MUESTRA (GMT)       : 10:18:57.00
EXACTITUD DEL TIEMPO (s)               :     
DURACION DEL REGISTRO (s), C1-C6       : /78.08/78.08/78.08
DURACION DEL REGISTRO (s), C7-C12      :
NUM. TOTAL DE MUESTRAS, C1-C6          : /15616/15616/15616
NUM. TOTAL DE MUESTRAS, C7-C12         :
ACEL. MAX. (Gal), C1-C6                : /1.68183/-0.98015/-1.98756
ACEL. MAX., C1-C6, EN LA MUESTRA       :
ACEL. MAX. (Gal), C7-C12               :
ACEL. MAX., C7-C12, EN LA MUESTRA      :
UNIDADES DE LOS DATOS                  : Gal (cm/s/s)
FACTOR DE DECIMACION                   : 1
FORMATO DATOS (FORTRAN,10 campos/dato) : 3F10.5


================================================================================
CALIDAD DEL ACELEROGRAMA:
REGISTRO DIGITAL COMPLETO, CARECE DE TIEMPO ABSOLUTO.


================================================================================
COMENTARIOS:














================================================================================
DATOS DE ACELERACION:
---------+---------+---------+---------+---------+---------+---------+---------+
   CANAL-1   CANAL-2   CANAL-3   CANAL-4   CANAL-5   CANAL-6   CANAL-7   CANAL-8
      N00E        +V      N90E
---------+---------+---------+---------+---------+---------+---------+---------+
[...]
   1.20183  -0.02015  -0.55756
   1.20183  -0.26015  -0.55756
   1.20183  -0.26015  -0.31756
   1.20183  -0.26015  -0.55756
   1.20183  -0.26015  -0.31756
   1.20183  -0.02015  -0.31756
   0.96183  -0.26015  -0.31756
   0.96183  -0.26015  -0.55756
   0.96183  -0.02015  -0.31756
   0.96183  -0.02015  -0.31756
   0.96183  -0.02015  -0.31756
   0.96183  -0.02015  -0.31756
   0.72183  -0.02015  -0.31756
   0.72183  -0.02015  -0.31756
   0.72183  -0.02015  -0.31756
   0.72183  -0.02015  -0.31756
   0.72183  -0.02015  -0.07756
   0.72183  -0.02015  -0.31756
   0.72183  -0.02015  -0.07756
   0.72183  -0.02015  -0.07756
   0.72183  -0.02015  -0.07756
   0.48183   0.21985  -0.07756
   0.48183   0.21985  -0.07756
   0.48183   0.21985  -0.07756
   0.48183   0.21985   0.16244
   0.48183   0.21985   0.16244
   0.48183   0.21985   0.16244
   0.48183   0.21985   0.16244
   0.24183   0.21985   0.16244
   0.24183   0.21985   0.16244
   0.24183   0.21985   0.16244
   0.24183   0.21985   0.16244
   0.24183   0.21985   0.16244
   0.24183   0.21985   0.16244
   0.00183   0.21985   0.40244
   0.00183   0.21985   0.40244
   0.00183   0.21985   0.40244
   0.00183   0.21985   0.40244
  -0.23817   0.21985   0.40244
  -0.23817   0.21985   0.40244
  -0.23817  -0.02015   0.40244
  -0.47817  -0.02015   0.40244
  -0.47817  -0.02015   0.40244
  -0.47817  -0.02015   0.40244
  -0.47817  -0.02015   0.40244
  -0.71817  -0.02015   0.64244
  -0.71817  -0.02015   0.64244
  -0.71817  -0.02015   0.64244
  -0.71817  -0.26015   0.64244
  -0.71817  -0.02015   0.64244
  -0.95817  -0.02015   0.64244
  -0.95817  -0.02015   0.64244
  -0.95817  -0.02015   0.64244
  -1.19817  -0.02015   0.64244
  -1.19817  -0.02015   0.64244
  -1.19817  -0.02015   0.64244
  -1.19817  -0.02015   0.88244
  -1.19817  -0.02015   0.88244
  -1.43817  -0.02015   0.88244
  -1.43817  -0.02015   0.88244
  -1.43817  -0.02015   0.64244
  -1.43817  -0.02015   0.88244
  -1.43817  -0.02015   0.88244
  -1.43817  -0.02015   0.88244
  -1.43817  -0.02015   0.88244
  -1.43817  -0.02015   0.88244
  -1.43817  -0.02015   0.64244
  -1.43817  -0.02015   0.64244
  -1.43817  -0.26015   0.64244
  -1.43817  -0.26015   0.64244
  -1.43817  -0.26015   0.64244
  -1.43817  -0.26015   0.64244
  -1.43817  -0.26015   0.64244
  -1.43817  -0.26015   0.64244
  -1.43817  -0.26015   0.64244
  -1.43817  -0.26015   0.64244
  -1.43817  -0.26015   0.64244
  -1.43817  -0.26015   0.40244
  -1.43817  -0.26015   0.40244
  -1.43817  -0.26015   0.40244
  -1.43817  -0.26015   0.40244
  -1.43817  -0.26015   0.40244
  -1.43817  -0.26015   0.40244
  -1.43817  -0.26015   0.40244
  -1.43817  -0.26015   0.16244
  -1.43817  -0.26015   0.16244
  -1.43817  -0.26015   0.16244
  -1.43817  -0.26015   0.16244
  -1.43817  -0.26015  -0.07756
  -1.43817  -0.26015  -0.07756
  -1.43817  -0.26015  -0.07756
  -1.43817  -0.26015  -0.07756
  -1.43817  -0.26015  -0.07756
  -1.43817  -0.26015  -0.31756
  -1.43817  -0.26015  -0.31756
  -1.43817  -0.26015  -0.31756
  -1.43817  -0.26015  -0.31756
  -1.19817  -0.26015  -0.55756
  -1.19817  -0.26015  -0.55756
  -1.19817  -0.26015  -0.55756
  -1.19817  -0.26015  -0.55756
  -1.19817  -0.26015  -0.55756
  -1.19817  -0.26015  -0.79756
  -1.19817  -0.26015  -0.79756
  -0.95817  -0.26015  -0.79756
  -0.95817  -0.26015  -0.79756
  -0.95817  -0.26015  -0.79756
  -0.95817  -0.26015  -0.79756
  -0.71817  -0.26015  -0.79756
  -0.71817  -0.26015  -1.03756
  -0.71817  -0.26015  -1.03756
  -0.71817  -0.26015  -1.03756
  -0.71817  -0.26015  -1.03756
  -0.47817  -0.26015  -1.03756
  -0.47817  -0.26015  -1.03756
  -0.47817  -0.26015  -1.03756
  -0.47817  -0.26015  -1.03756
  -0.47817  -0.50015  -1.03756
  -0.23817  -0.50015  -1.27756
  -0.23817  -0.50015  -1.27756
  -0.23817  -0.50015  -1.27756
  -0.23817  -0.50015  -1.27756
  -0.23817  -0.26015  -1.27756
  -0.23817  -0.50015  -1.27756
  -0.23817  -0.26015  -1.27756
   0.00183  -0.26015  -1.27756
   0.00183  -0.50015  -1.27756
   0.00183  -0.26015  -1.27756
   0.00183  -0.26015  -1.27756
   0.00183  -0.26015  -1.27756
   0.00183  -0.26015  -1.27756
   0.00183  -0.26015  -1.27756
   0.00183  -0.26015  -1.27756
   0.00183  -0.26015  -1.27756
   0.00183  -0.26015  -1.27756
   0.00183  -0.26015  -1.27756
   0.00183  -0.02015  -1.27756
   0.00183  -0.02015  -1.27756
   0.24183  -0.26015  -1.27756
   0.24183  -0.02015  -1.27756
   0.24183  -0.02015  -1.27756
   0.24183  -0.02015  -1.27756
   0.24183  -0.26015  -1.03756
   0.24183  -0.02015  -1.03756
   0.24183  -0.02015  -1.03756
   0.24183  -0.02015  -1.03756
   0.24183  -0.02015  -1.03756
   0.24183  -0.02015  -0.79756
   0.24183  -0.02015  -0.79756
   0.24183  -0.02015  -0.79756
   0.24183  -0.02015  -0.79756
   0.24183  -0.02015  -0.55756
   0.24183   0.21985  -0.55756
   0.48183   0.21985  -0.55756
   0.48183   0.21985  -0.55756
   0.48183   0.21985  -0.31756
   0.48183   0.21985  -0.31756
   0.48183   0.21985  -0.31756
   0.48183   0.21985  -0.31756
   0.48183   0.21985  -0.07756
   0.48183   0.45985  -0.07756
   0.48183   0.21985  -0.07756
   0.72183   0.45985  -0.07756
   0.48183   0.21985  -0.07756
   0.48183   0.21985   0.16244
   0.72183   0.21985   0.16244
   0.72183   0.21985   0.16244
   0.72183   0.21985   0.16244
   0.72183   0.21985   0.40244
   0.72183   0.21985   0.40244
   0.72183   0.21985   0.40244
   0.72183   0.21985   0.40244
   0.72183   0.21985   0.40244
   0.72183   0.21985   0.64244
   0.96183   0.21985   0.64244
   0.96183   0.21985   0.64244
   0.96183  -0.02015   0.64244
   0.96183   0.21985   0.64244
   0.96183  -0.02015   0.64244
   0.96183  -0.02015   0.88244
   0.96183  -0.02015   0.88244
   0.96183   0.21985   0.88244
   0.96183  -0.02015   0.88244
   0.96183  -0.02015   0.88244
   0.96183   0.21985   0.88244
   0.96183   0.21985   0.88244
   0.72183  -0.02015   0.88244
   0.72183  -0.02015   0.88244
   0.72183   0.21985   0.88244
   0.72183   0.21985   0.88244
   0.72183   0.21985   0.88244
   0.72183  -0.02015   0.88244
   0.72183  -0.02015   0.88244
   0.72183  -0.02015   0.88244
   0.72183  -0.02015   0.88244
   0.48183  -0.02015   0.88244
   0.48183   0.21985   0.88244
   0.48183   0.21985   0.88244
   0.48183   0.21985   0.88244
   0.48183   0.21985   0.88244
   0.24183   0.21985   0.88244
   0.24183   0.21985   0.64244
   0.24183   0.45985   0.64244
   0.24183   0.21985   0.64244
   0.24183   0.21985   0.64244
   0.24183   0.21985   0.64244
   0.00183   0.21985   0.64244
   0.00183   0.21985   0.64244
   0.00183   0.21985   0.40244
   0.00183   0.21985   0.40244
   0.00183   0.21985   0.40244
   0.00183   0.21985   0.40244
  -0.23817   0.21985   0.40244
  -0.23817   0.21985   0.40244
  -0.23817   0.21985   0.40244
  -0.23817   0.21985   0.40244
  -0.23817   0.21985   0.40244
  -0.47817   0.21985   0.40244
  -0.47817   0.21985   0.40244
  -0.47817   0.21985   0.40244
  -0.71817  -0.02015   0.40244
  -0.47817   0.21985   0.40244
  -0.71817  -0.02015   0.16244
  -0.71817   0.21985   0.40244
  -0.71817  -0.02015   0.40244
  -0.71817   0.21985   0.40244
  -0.71817  -0.02015   0.40244
  -0.71817   0.21985   0.40244
  -0.71817   0.21985   0.40244
  -0.71817  -0.02015   0.40244
  -0.71817  -0.02015   0.40244
  -0.71817  -0.02015   0.64244
  -0.95817  -0.02015   0.40244
  -0.95817  -0.02015   0.40244
  -0.95817  -0.02015   0.40244
  -0.95817  -0.02015   0.40244
  -0.95817  -0.02015   0.64244
  -0.95817  -0.26015   0.64244
  -0.95817  -0.02015   0.64244
  -0.95817  -0.26015   0.64244
  -0.95817  -0.26015   0.64244
  -0.95817  -0.26015   0.64244
  -0.95817  -0.26015   0.64244
  -0.95817  -0.50015   0.64244
  -0.95817  -0.50015   0.64244
  -0.95817  -0.26015   0.64244
  -0.95817  -0.50015   0.64244
  -0.95817  -0.50015   0.64244
  -0.95817  -0.50015   0.64244
  -0.95817  -0.50015   0.64244
  -0.95817  -0.50015   0.64244
  -0.95817  -0.50015   0.64244
  -0.95817  -0.50015   0.64244
  -0.95817  -0.50015   0.64244
  -0.95817  -0.50015   0.64244
  -0.95817  -0.50015   0.64244
  -0.95817  -0.74015   0.64244
  -0.95817  -0.74015   0.64244
  -0.95817  -0.50015   0.88244
  -0.95817  -0.74015   0.64244
  -0.95817  -0.50015   0.64244
  -0.95817  -0.50015   0.64244
  -0.95817  -0.50015   0.88244
  -0.95817  -0.74015   0.88244
  -0.95817  -0.50015   0.88244
  -0.95817  -0.50015   0.88244
  -0.95817  -0.50015   0.88244
  -0.95817  -0.50015   0.88244
  -0.95817  -0.50015   0.88244
  -0.95817  -0.50015   0.88244
  -0.95817  -0.50015   0.88244
  -0.95817  -0.50015   0.88244
  -0.95817  -0.50015   0.88244
  -1.19817  -0.26015   0.88244
  -1.19817  -0.26015   0.88244
  -1.19817  -0.26015   0.88244
  -1.19817  -0.26015   0.88244
  -1.19817  -0.02015   0.88244
  -1.19817  -0.02015   0.88244
  -1.19817  -0.02015   0.88244
  -1.19817   0.21985   0.88244
  -1.19817   0.21985   0.88244
  -1.19817   0.21985   0.88244
  -1.19817   0.21985   0.88244
  -1.19817   0.21985   0.88244
  -1.19817   0.21985   0.88244
  -1.19817   0.21985   0.88244
  -1.19817   0.21985   0.88244
  -1.19817   0.21985   0.88244
  -1.19817   0.21985   0.88244
  -1.19817   0.45985   0.88244
  -1.19817   0.45985   0.88244
  -1.19817   0.21985   0.88244
  -0.95817   0.45985   0.88244
  -0.95817   0.45985   0.88244
  -0.95817   0.21985   0.88244
  -0.95817   0.45985   0.64244
  -0.95817   0.21985   0.88244
  -0.95817   0.45985   0.64244
  -0.71817   0.45985   0.64244
  -0.71817   0.21985   0.64244
  -0.71817   0.45985   0.64244
  -0.71817   0.45985   0.64244
  -0.71817   0.45985   0.64244
  -0.71817   0.45985   0.64244
  -0.47817   0.21985   0.64244
  -0.47817   0.21985   0.64244
  -0.47817   0.21985   0.64244
  -0.47817   0.45985   0.64244
  -0.47817   0.21985   0.64244
  -0.23817   0.21985   0.64244
  -0.23817   0.21985   0.40244
  -0.23817   0.21985   0.40244
  -0.23817   0.21985   0.40244
   0.00183   0.21985   0.40244
   0.00183   0.21985   0.16244
   0.00183   0.21985   0.16244
   0.24183  -0.02015  -0.07756
   0.24183   0.21985  -0.07756
   0.24183  -0.02015  -0.07756
   0.24183   0.21985  -0.07756
   0.48183   0.21985  -0.07756
   0.24183  -0.02015  -0.31756
   0.48183  -0.02015  -0.31756
   0.72183  -0.02015  -0.31756
   0.72183   0.21985  -0.55756
   0.72183  -0.02015  -0.55756
   0.72183  -0.02015  -0.55756
   0.96183  -0.02015  -0.79756
   0.96183  -0.02015  -0.79756
   0.96183  -0.02015  -0.79756
   0.96183  -0.02015  -0.79756
   0.96183  -0.02015  -1.03756
   1.20183  -0.02015  -1.03756
   1.20183  -0.02015  -1.03756
   1.20183  -0.26015  -1.03756
   1.20183  -0.02015  -1.27756
   1.20183  -0.02015  -1.27756
   1.20183  -0.02015  -1.27756
   1.20183  -0.26015  -1.27756
   1.20183  -0.02015  -1.51756
   1.20183  -0.02015  -1.51756
   1.44183  -0.02015  -1.51756
   1.44183  -0.02015  -1.51756
   1.44183  -0.02015  -1.74756
   1.44183  -0.02015  -1.74756
   1.44183  -0.02015  -1.74756
   1.44183  -0.26015  -1.74756
   1.44183   0.21985  -1.98756
   1.44183  -0.02015  -1.98756
   1.44183  -0.02015  -1.98756
   1.44183   0.21985  -1.98756
   1.44183   0.21985  -1.98756
   1.44183   0.21985  -1.98756
   1.44183   0.21985  -1.98756
   1.68183   0.21985  -1.98756
   1.44183   0.21985  -1.98756
   1.44183   0.21985  -1.98756
   1.44183   0.21985  -1.98756
   1.68183   0.21985  -1.98756
   1.44183   0.21985  -1.98756
   1.44183   0.21985  -1.98756
   1.44183   0.21985  -1.98756
   1.44183   0.21985  -1.98756
   1.44183   0.21985  -1.98756
   1.44183   0.21985  -1.98756
   1.44183   0.21985  -1.98756
   1.44183   0.21985  -1.98756
   1.44183   0.21985  -1.98756
   1.44183   0.21985  -1.74756
   1.44183   0.21985  -1.74756
   1.44183   0.21985  -1.74756
   1.44183   0.21985  -1.51756
   1.20183   0.21985  -1.74756
   1.20183   0.21985  -1.74756
   1.20183   0.21985  -1.51756
   1.20183   0.21985  -1.51756
   1.20183   0.21985  -1.51756
   1.20183   0.45985  -1.51756
   0.96183   0.21985  -1.51756
   0.96183   0.21985  -1.27756
   0.96183   0.45985  -1.51756
   1.20183   0.21985  -1.27756
   0.96183   0.21985  -1.27756
   0.96183   0.45985  -1.03756
   0.72183   0.21985  -1.03756
   0.72183   0.21985  -1.03756
   0.72183   0.21985  -1.03756
   0.72183   0.21985  -1.03756
   0.72183   0.21985  -0.79756
   0.48183   0.21985  -0.79756
   0.48183   0.21985  -0.79756
   0.48183   0.21985  -0.55756
   0.48183   0.21985  -0.55756
   0.48183  -0.02015  -0.55756
   0.24183   0.21985  -0.55756
   0.24183   0.21985  -0.55756
   0.24183   0.21985  -0.31756
   0.24183   0.21985  -0.55756
   0.24183  -0.02015  -0.31756
   0.24183   0.21985  -0.31756
   0.24183  -0.02015  -0.07756
   0.24183  -0.02015  -0.07756
   0.24183   0.21985  -0.07756
   0.24183  -0.02015  -0.07756
   0.24183  -0.02015  -0.07756
   0.24183  -0.02015  -0.07756
   0.24183  -0.02015   0.16244
   0.24183  -0.02015   0.16244
   0.24183  -0.02015   0.16244
   0.24183  -0.02015   0.16244
   0.24183  -0.02015   0.16244
   0.24183  -0.02015   0.16244
   0.24183  -0.02015   0.16244
   0.00183  -0.02015   0.40244
   0.24183  -0.26015   0.40244
   0.24183  -0.26015   0.40244
   0.00183  -0.26015   0.40244
   0.00183  -0.26015   0.40244
   0.00183  -0.26015   0.40244
   0.00183  -0.26015   0.40244
   0.00183  -0.26015   0.64244
   0.00183  -0.50015   0.64244
   0.00183  -0.26015   0.64244
   0.00183  -0.50015   0.40244
   0.00183  -0.26015   0.64244
   0.00183  -0.26015   0.64244
   0.00183  -0.26015   0.64244
   0.00183  -0.26015   0.64244
   0.00183  -0.50015   0.64244
   0.00183  -0.50015   0.64244
   0.00183  -0.50015   0.64244
  -0.23817  -0.26015   0.64244
   0.00183  -0.50015   0.64244
  -0.23817  -0.26015   0.64244
  -0.23817  -0.26015   0.64244
  -0.23817  -0.26015   0.64244
  -0.23817  -0.26015   0.64244
  -0.23817  -0.26015   0.64244
  -0.23817  -0.26015   0.64244
  -0.23817  -0.50015   0.64244
  -0.23817  -0.26015   0.64244
  -0.47817  -0.26015   0.64244
  -0.47817  -0.26015   0.64244
  -0.47817  -0.26015   0.64244
  -0.47817  -0.50015   0.40244
  -0.47817  -0.26015   0.40244
  -0.47817  -0.26015   0.40244
  -0.47817  -0.26015   0.40244
  -0.47817  -0.26015   0.40244
  -0.71817  -0.26015   0.40244
  -0.71817  -0.26015   0.40244
  -0.71817  -0.26015   0.40244
  -0.71817  -0.26015   0.40244
  -0.71817  -0.26015   0.40244
  -0.71817  -0.26015   0.40244
  -0.95817  -0.02015   0.16244
  -0.95817  -0.02015   0.16244
  -0.95817  -0.26015   0.16244
  -0.95817  -0.26015   0.16244
  -0.95817  -0.26015   0.16244
  -0.95817  -0.02015   0.16244
  -0.95817  -0.02015  -0.07756
  -1.19817  -0.02015   0.16244
  -1.19817  -0.02015  -0.07756
  -1.19817  -0.02015   0.16244
  -1.19817  -0.02015   0.16244
  -1.19817  -0.02015   0.16244
  -1.19817  -0.02015  -0.07756
  -1.19817  -0.02015  -0.07756
  -1.19817  -0.02015  -0.07756
  -1.19817  -0.02015  -0.07756
  -0.95817  -0.02015  -0.07756
  -0.95817   0.21985  -0.07756
  -0.95817  -0.02015   0.16244
  -0.95817  -0.02015   0.16244
  -0.95817   0.21985   0.16244
  -0.71817   0.21985   0.16244
  -0.71817  -0.02015   0.16244
  -0.71817  -0.02015   0.16244
  -0.71817  -0.02015   0.16244
  -0.71817  -0.02015   0.16244
  -0.47817  -0.02015   0.16244
  -0.47817  -0.02015   0.16244
  -0.47817  -0.02015   0.16244
  -0.23817  -0.02015   0.40244
  -0.23817  -0.02015   0.40244
  -0.23817  -0.26015   0.40244
  -0.23817  -0.02015   0.40244
   0.00183  -0.26015   0.40244
   0.00183  -0.26015   0.40244
   0.00183  -0.26015   0.40244
   0.00183  -0.02015   0.40244
   0.24183  -0.26015   0.40244
   0.24183  -0.26015   0.64244
   0.24183  -0.02015   0.64244
   0.24183  -0.26015   0.64244
   0.24183  -0.02015   0.64244
