********************************************************************************
              CENTRO DE INSTRUMENTACION Y REGISTRO SISMICO  A.C.

    Anaxagoras 814, Col. Narvarte, Benito Juarez, C.P. 03020 Mexico, D.F.
           Tels. 5687 45 42/ 5687 45  82             Fax. 5669 25 12
********************************************************************************
ARCHIVO ESTANDAR DE ACELERACION:
VERSION DEL FORMATO                    : 2.0
NOMBRE DEL ARCHIVO                     : BA4920180320174653
FECHA Y HORA DE CREACION               : 25/ABR/18, 13:57
REF. CATALOGO ACELEROGRAMAS, SMIS 1996 : REGISTRO No.     /PAG.


================================================================================
DATOS DE LA ESTACION:
NOMBRE DE LA ESTACION                  : BUENOS AIRES
CLAVE DE LA ESTACION                   : BA49
LOCALIZACION DE LA ESTACION            : Del. Cuauhtémoc, Col. Doctores,        
                                       : Av. Lázaro Cárdenas esq. con           
                                       : Calle Dr. Márquez.                     
                                       :                                        
                                       : 
COORDENADAS DE LA ESTACION             : 19.4097 LAT. N
                                       : 99.1450 LONG. W
ALTITUD (msnm)                         : 2233
TIPO DE SUELO                          : Terreno blando, material compresible
                                       : (arcillas)                
                                       : 
INSTITUCION RESPONSABLE                : CIRES
                                       : 

================================================================================
DATOS DEL ACELEROGRAFO:
MODELO DEL ACELEROGRAFO                : RADESD
NUMERO DE SERIE DEL ACELEROGRAFO       : 176
NUMERO DE CANALES                      : 3
ORIENTACION C1-C6 (rumbo;orientacion)  : /S00E/+V/N90W
ORIENTACION C7-C12 (rumbo;orientacion) : 
VEL. DE MUESTREO, C1-C6 (muestras/s)   : /100/100/100
VEL. DE MUESTREO, C7-C12 (muestras/s)  : 
ESC. COMPLETA DE SENSORES, C1-C6, (g)  : /0.5/0.5/0.5
ESC. COMPLETA DE SENSORES, C7-C12, (g) : 
FREC. NAT. DE SENSORES, C1-C6, (Hz)    : /52.99/52.03/52.99
FREC. NAT. DE SENSORES, C7-C12, (Hz)   : 
AMORTIGUAMIENTO DE SENSORES, C1-C6     : /0.5589/0.5469/0.6096
AMORTIGUAMIENTO DE SENSORES, C7-C12    : 
INTERVALO DE MUESTREO, C1-C6, (s)      : /0.01/0.01/0.01
INTERVALO DE MUESTREO, C7-C12, (s)     : 
UMBRAL DE DISPARO, C1-C6, (Gal)        : /0.96/1.92/0.96
UMBRAL DE DISPARO, C7-C12, (Gal)       : 
MEMORIA DE PREEVENTO (s)               : 44.0
TIEMPO DE POSEVENTO (s)                : 493.0


================================================================================
DATOS DEL SISMO:
FECHA DEL SISMO (GMT)                  : 20/MAR/18
HORA EPICENTRO (GMT)                   : 17:46:53.0
MAGNITUD(ES)                           : /Mc=5.3
COORDENADAS DEL EPICENTRO              : 15.87 LAT. N
                                       : 98.72 LONG. W
PROFUNDIDAD FOCAL (km)                 : 13
FUENTE DE LOS DATOS EPICENTRALES       : SSN
                                       : INSTITUTO DE GEOFISICA, UNAM

================================================================================
DATOS DE ESTE REGISTRO:
HORA DE LA PRIMERA MUESTRA (GMT)       : 17:48:17.00
EXACTITUD DEL TIEMPO (s)               : 0.01
DURACION DEL REGISTRO (s), C1-C6       : /157.4/157.4/157.4
DURACION DEL REGISTRO (s), C7-C12      : 
NUM. TOTAL DE MUESTRAS, C1-C6          : /15740/15740/15740
NUM. TOTAL DE MUESTRAS, C7-C12         : 
ACEL. MAX. (Gal), C1-C6                : /1.1567/0.50426/1.45898
ACEL. MAX., C1-C6, EN LA MUESTRA       : /8522/4362/5648
ACEL. MAX. (Gal), C7-C12               : 
ACEL. MAX., C7-C12, EN LA MUESTRA      : 
UNIDADES DE LOS DATOS                  : Gal (cm/s/s)
FACTOR DE DECIMACION                   : 1
FORMATO DATOS (FORTRAN,10 campos/dato) : 3F10.5


================================================================================
CALIDAD DEL ACELEROGRAMA:
REGISTRO DIGITAL COMPLETO CON TIEMPO ABSOLUTO CORRECTO.


================================================================================
COMENTARIOS:














================================================================================
DATOS DE ACELERACION:
---------+---------+---------+---------+---------+---------+---------+---------+
   CANAL-1   CANAL-2   CANAL-3   CANAL-4   CANAL-5   CANAL-6   CANAL-7   CANAL-8
      S00E        +V      N90W
---------+---------+---------+---------+---------+---------+---------+---------+
[...]
  -0.18405   0.30973   0.33667
  -0.19902   0.30973   0.32170
  -0.18405   0.30973   0.36659
  -0.21398   0.32469   0.38156
  -0.19902   0.30973   0.41149
  -0.18405   0.35462   0.35163
  -0.13916   0.36958   0.35163
  -0.15413   0.33965   0.45638
  -0.09427   0.29476   0.39652
  -0.15413   0.32469   0.42645
  -0.09427   0.32469   0.53120
  -0.09427   0.29476   0.51623
  -0.06434   0.30973   0.51623
  -0.04938   0.30973   0.51623
  -0.03442   0.30973   0.42645
  -0.00449   0.21994   0.45638
  -0.01945   0.20498   0.59105
  -0.00449   0.19002   0.48630
   0.04040   0.20498   0.45638
  -0.00449   0.21994   0.53120
   0.04040   0.20498   0.53120
   0.07033   0.23491   0.48630
   0.11522   0.13016   0.53120
   0.13018   0.13016   0.57609
   0.11522   0.16009   0.50127
   0.14515   0.19002   0.53120
   0.19004   0.19002   0.48630
   0.19004   0.13016   0.62098
   0.26486   0.13016   0.50127
   0.23493   0.14513   0.48630
   0.26486   0.08527   0.50127
   0.26486   0.14513   0.50127
   0.26486   0.04038   0.45638
   0.24989   0.08527   0.54616
   0.33968   0.02542   0.50127
   0.30975   0.01045   0.47134
   0.29479  -0.06437   0.38156
   0.30975  -0.03444   0.51623
   0.30975  -0.09429   0.48630
   0.33968  -0.12422   0.48630
   0.35464  -0.15415   0.45638
   0.32471  -0.19904   0.51623
   0.33968  -0.19904   0.53120
   0.36960  -0.21400   0.51623
   0.35464  -0.27386   0.57609
   0.36960  -0.30379   0.53120
   0.33968  -0.24393   0.57609
   0.33968  -0.33371   0.60601
   0.39953  -0.31875   0.60601
   0.36960  -0.43846   0.60601
   0.38457  -0.45342   0.57609
   0.38457  -0.46839   0.65091
   0.35464  -0.43846   0.65091
   0.32471  -0.30379   0.60601
   0.30975  -0.24393   0.62098
   0.33968  -0.28882   0.62098
   0.33968  -0.22897   0.66587
   0.29479  -0.30379   0.68083
   0.27982  -0.36364   0.71076
   0.24989  -0.31875   0.71076
   0.29479  -0.37861   0.68083
   0.26486  -0.33371   0.72572
   0.30975  -0.33371   0.77062
   0.24989  -0.30379   0.74069
   0.29479  -0.21400   0.78558
   0.29479  -0.16911   0.78558
   0.21997  -0.16911   0.80054
   0.21997  -0.10926   0.71076
   0.21997  -0.13919   0.78558
   0.26486  -0.09429   0.81551
   0.21997  -0.13919   0.75565
   0.19004   0.01045   0.78558
   0.19004   0.01045   0.78558
   0.17508  -0.00451   0.78558
   0.16011  -0.00451   0.75565
   0.08529   0.02542   0.81551
   0.08529   0.01045   0.75565
   0.07033   0.05534   0.77062
   0.05537   0.07031   0.75565
   0.05537   0.11520   0.74069
   0.02544   0.10023   0.68083
  -0.06434   0.13016   0.68083
  -0.04938   0.16009   0.71076
  -0.07931   0.23491   0.60601
  -0.00449   0.16009   0.59105
  -0.03442   0.21994   0.60601
  -0.07931   0.16009   0.62098
  -0.15413   0.14513   0.51623
  -0.22895   0.17505   0.44141
  -0.18405   0.19002   0.47134
  -0.16909   0.14513   0.47134
  -0.21398   0.08527   0.35163
  -0.21398   0.17505   0.26185
  -0.19902   0.11520   0.24688
  -0.25887   0.17505   0.27681
  -0.31873   0.21994   0.29178
  -0.27384   0.13016   0.23192
  -0.31873   0.19002   0.17207
  -0.28880   0.16009   0.12717
  -0.27384   0.21994   0.12717
  -0.30376   0.23491   0.08228
  -0.30376   0.27980   0.02243
  -0.28880   0.17505   0.05236
  -0.28880   0.14513  -0.03743
  -0.33369   0.13016  -0.09728
  -0.33369   0.10023  -0.08232
  -0.33369   0.11520  -0.14217
  -0.28880   0.16009  -0.09728
  -0.28880   0.08527  -0.14217
  -0.28880   0.10023  -0.20203
  -0.30376   0.02542  -0.15714
  -0.31873  -0.01948  -0.26188
  -0.28880  -0.06437  -0.24692
  -0.27384  -0.09429  -0.24692
  -0.28880  -0.07933  -0.30678
  -0.24391  -0.09429  -0.32174
  -0.25887  -0.07933  -0.45641
  -0.21398   0.04038  -0.44145
  -0.22895  -0.04940  -0.48634
  -0.21398  -0.07933  -0.51627
  -0.25887  -0.10926  -0.48634
  -0.19902  -0.18408  -0.50130
  -0.07931  -0.18408  -0.65094
   0.01047  -0.19904  -0.71080
  -0.03442  -0.27386  -0.69583
  -0.15413  -0.24393  -0.65094
  -0.13916  -0.15415  -0.63598
  -0.13916  -0.18408  -0.81554
   0.02544  -0.21400  -0.86043
   0.05537  -0.22897  -0.87540
   0.07033  -0.30379  -0.81554
  -0.00449  -0.39357  -0.84547
  -0.01945  -0.25890  -0.84547
   0.08529  -0.21400  -0.90533
   0.14515  -0.16911  -1.02504
   0.27982  -0.28882  -1.01007
   0.16011  -0.28882  -0.95022
   0.10026  -0.33371  -0.96518
   0.13018  -0.18408  -1.02504
   0.21997  -0.21400  -1.05496
   0.24989  -0.27386  -1.11482
   0.27982  -0.31875  -1.08489
   0.27982  -0.27386  -1.12978
   0.20500  -0.27386  -1.09985
   0.19004  -0.15415  -1.20460
   0.23493  -0.21400  -1.14475
   0.20500  -0.19904  -1.15971
   0.16011  -0.22897  -1.14475
   0.17508  -0.22897  -1.09985
   0.17508  -0.18408  -1.24949
   0.26486  -0.10926  -1.12978
   0.24989  -0.07933  -1.24949
   0.24989  -0.01948  -1.14475
   0.32471  -0.00451  -1.15971
   0.26486   0.11520  -1.17467
   0.14515   0.17505  -1.17467
   0.11522   0.14513  -1.15971
   0.14515   0.19002  -1.18964
   0.32471   0.05534  -1.15971
   0.39953  -0.04940  -1.20460
   0.27982  -0.07933  -1.08489
   0.13018  -0.03444  -1.02504
   0.05537   0.08527  -0.90533
   0.11522   0.14513  -0.95022
   0.30975   0.17505  -0.95022
   0.24989   0.07031  -0.96518
   0.23493   0.10023  -0.86043
   0.07033   0.13016  -0.84547
   0.02544   0.16009  -0.86043
   0.13018   0.17505  -0.81554
   0.21997   0.20498  -0.81554
   0.23493   0.13016  -0.74072
   0.01047   0.17505  -0.74072
  -0.12420   0.14513  -0.59109
  -0.07931   0.19002  -0.72576
   0.01047   0.13016  -0.57612
   0.19004   0.04038  -0.53123
   0.14515   0.10023  -0.47138
   0.01047   0.20498  -0.36663
  -0.06434   0.26484  -0.41152
  -0.04938   0.27980  -0.36663
  -0.04938   0.23491  -0.32174
   0.01047   0.24987  -0.21699
  -0.00449   0.30973  -0.21699
  -0.09427   0.29476  -0.14217
  -0.07931   0.26484  -0.08232
  -0.03442   0.26484  -0.17210
   0.01047   0.26484   0.02243
   0.04040   0.29476  -0.06735
   0.01047   0.24987   0.03739
   0.02544   0.29476  -0.00750
  -0.01945   0.30973   0.03739
   0.07033   0.32469   0.12717
  -0.00449   0.20498   0.17207
   0.02544   0.11520   0.17207
   0.02544   0.13016   0.12717
   0.08529   0.24987   0.20199
   0.04040   0.26484   0.30674
   0.05537   0.20498   0.29178
   0.04040   0.23491   0.20199
   0.05537   0.23491   0.24688
   0.11522   0.21994   0.30674
   0.07033   0.05534   0.27681
   0.07033   0.04038   0.32170
   0.07033   0.07031   0.41149
   0.16011   0.08527   0.42645
   0.13018   0.10023   0.36659
   0.16011   0.16009   0.39652
   0.13018   0.11520   0.44141
   0.08529   0.04038   0.50127
   0.19004  -0.00451   0.47134
   0.19004  -0.03444   0.50127
   0.17508   0.05534   0.56112
   0.08529   0.04038   0.50127
   0.11522  -0.00451   0.60601
   0.19004  -0.00451   0.56112
   0.13018   0.07031   0.53120
   0.08529  -0.00451   0.62098
   0.11522  -0.12422   0.53120
   0.07033  -0.09429   0.66587
   0.17508  -0.01948   0.71076
   0.23493  -0.10926   0.66587
   0.17508  -0.12422   0.66587
   0.20500  -0.00451   0.78558
   0.16011  -0.03444   0.69580
   0.11522   0.01045   0.69580
   0.14515  -0.03444   0.80054
   0.14515  -0.10926   0.78558
   0.13018  -0.18408   0.72572
   0.04040  -0.18408   0.80054
   0.14515  -0.09429   0.86040
   0.11522  -0.15415   0.83047
   0.08529  -0.07933   0.86040
   0.10026  -0.10926   0.78558
   0.04040  -0.22897   0.80054
   0.04040  -0.16911   0.83047
   0.02544  -0.16911   0.77062
   0.04040  -0.18408   0.84543
   0.07033  -0.21400   0.89033
   0.04040  -0.19904   0.93522
  -0.03442  -0.15415   0.84543
  -0.06434  -0.12422   0.89033
  -0.06434  -0.07933   0.89033
  -0.07931  -0.10926   0.86040
  -0.12420  -0.07933   0.87536
  -0.07931  -0.09429   0.84543
  -0.13916  -0.19904   0.86040
  -0.15413  -0.13919   0.86040
  -0.18405  -0.13919   0.86040
  -0.18405  -0.09429   0.84543
  -0.18405  -0.12422   0.87536
  -0.25887  -0.15415   0.81551
  -0.27384  -0.15415   0.90529
  -0.28880  -0.27386   0.87536
  -0.34866  -0.19904   0.78558
  -0.30376  -0.13919   0.89033
  -0.31873  -0.16911   0.89033
  -0.33369  -0.16911   0.92025
  -0.34866  -0.13919   0.89033
  -0.43844  -0.15415   0.84543
  -0.43844  -0.15415   0.81551
  -0.37858  -0.09429   0.87536
  -0.40851  -0.15415   0.83047
  -0.39355  -0.10926   0.83047
  -0.46837  -0.18408   0.83047
  -0.39355  -0.10926   0.81551
  -0.45340  -0.03444   0.83047
  -0.42347  -0.03444   0.84543
  -0.37858   0.02542   0.77062
  -0.40851  -0.01948   0.84543
  -0.43844  -0.13919   0.83047
  -0.46837  -0.15415   0.78558
  -0.46837  -0.12422   0.77062
  -0.42347  -0.18408   0.78558
  -0.46837  -0.18408   0.80054
  -0.45340  -0.10926   0.72572
  -0.43844  -0.01948   0.74069
  -0.46837   0.01045   0.75565
  -0.48333  -0.10926   0.77062
  -0.49829  -0.04940   0.74069
  -0.52822  -0.03444   0.72572
  -0.51326  -0.03444   0.74069
  -0.54318   0.01045   0.75565
  -0.51326   0.04038   0.66587
  -0.55815   0.05534   0.68083
  -0.49829   0.07031   0.66587
  -0.48333  -0.01948   0.69580
  -0.48333  -0.01948   0.69580
  -0.42347  -0.04940   0.63594
  -0.42347   0.05534   0.59105
  -0.39355   0.10023   0.50127
  -0.34866   0.16009   0.42645
  -0.37858   0.11520   0.48630
  -0.42347  -0.01948   0.41149
  -0.40851  -0.03444   0.36659
  -0.37858  -0.00451   0.32170
  -0.36362   0.01045   0.26185
  -0.30376   0.04038   0.20199
  -0.27384   0.04038   0.23192
  -0.27384  -0.00451   0.18703
  -0.30376  -0.06437   0.11221
  -0.25887   0.02542  -0.02246
  -0.21398  -0.04940  -0.05239
  -0.19902  -0.04940  -0.08232
  -0.18405  -0.00451  -0.14217
  -0.21398  -0.04940  -0.23196
  -0.19902   0.02542  -0.24692
  -0.13916  -0.03444  -0.29181
  -0.06434  -0.01948  -0.33670
  -0.07931   0.01045  -0.38159
  -0.01945  -0.07933  -0.42649
  -0.00449   0.02542  -0.45641
   0.04040  -0.01948  -0.54620
   0.01047  -0.01948  -0.53123
  -0.07931   0.01045  -0.57612
   0.01047  -0.04940  -0.65094
   0.08529  -0.13919  -0.60605
   0.10026  -0.10926  -0.69583
   0.05537  -0.13919  -0.74072
   0.07033  -0.06437  -0.75569
   0.13018  -0.10926  -0.81554
   0.13018  -0.01948  -0.86043
   0.10026   0.10023  -0.92029
   0.04040   0.08527  -0.96518
   0.04040   0.05534  -0.95022
   0.02544   0.10023  -1.05496
   0.08529   0.10023  -1.04000
   0.10026  -0.03444  -1.09985
   0.08529   0.04038  -1.04000
   0.07033  -0.06437  -1.14475
   0.11522  -0.01948  -1.05496
   0.10026  -0.00451  -1.11482
   0.08529   0.04038  -1.12978
   0.07033   0.05534  -1.18964
   0.07033   0.13016  -1.15971
   0.07033   0.01045  -1.24949
   0.11522   0.07031  -1.23453
   0.08529  -0.04940  -1.26446
   0.08529  -0.03444  -1.27942
   0.17508   0.01045  -1.27942
   0.10026  -0.00451  -1.30935
   0.01047  -0.00451  -1.26446
   0.08529   0.04038  -1.44402
   0.13018   0.02542  -1.44402
   0.16011   0.10023  -1.41409
   0.16011   0.08527  -1.38417
   0.13018  -0.00451  -1.45898
   0.19004  -0.07933  -1.39913
   0.20500  -0.09429  -1.41409
   0.19004  -0.07933  -1.39913
   0.20500  -0.09429  -1.35424
   0.21997  -0.12422  -1.38417
   0.20500  -0.03444  -1.27942
   0.17508  -0.01948  -1.32431
   0.23493   0.02542  -1.33927
   0.20500  -0.00451  -1.35424
   0.20500  -0.03444  -1.29438
   0.20500  -0.03444  -1.26446
   0.24989  -0.00451  -1.26446
   0.24989  -0.06437  -1.21956
   0.26486  -0.10926  -1.18964
   0.24989  -0.00451  -1.15971
   0.33968  -0.09429  -1.14475
   0.26486  -0.12422  -1.20460
   0.32471  -0.10926  -1.11482
   0.26486  -0.15415  -1.18964
   0.21997  -0.06437  -1.06993
   0.30975  -0.03444  -1.01007
   0.30975   0.01045  -1.04000
   0.33968   0.02542  -1.01007
   0.29479   0.02542  -0.98014
   0.29479  -0.07933  -0.86043
   0.29479   0.01045  -0.95022
   0.35464  -0.00451  -0.89036
   0.36960   0.04038  -0.86043
   0.32471   0.11520  -0.89036
   0.33968   0.19002  -0.74072
   0.32471   0.24987  -0.75569
   0.35464   0.20498  -0.71080
   0.36960   0.17505  -0.71080
   0.32471   0.19002  -0.60605
   0.32471   0.23491  -0.65094
   0.29479   0.19002  -0.54620
   0.27982   0.20498  -0.57612
   0.36960   0.27980  -0.45641
   0.36960   0.27980  -0.44145
   0.38457   0.27980  -0.41152
   0.36960   0.36958  -0.33670
   0.32471   0.33965  -0.20203
   0.35464   0.30973  -0.24692
   0.39953   0.29476  -0.14217
   0.41450   0.32469  -0.11225
   0.39953   0.30973  -0.06735
   0.41450   0.29476   0.00746
   0.44442   0.41447  -0.00750
   0.47435   0.32469   0.09725
   0.39953   0.27980   0.00746
   0.42946   0.29476   0.09725
   0.48931   0.21994   0.11221
   0.50428   0.16009   0.21696
   0.44442   0.13016   0.21696
   0.50428   0.14513   0.38156
   0.48931   0.16009   0.29178
   0.53421   0.14513   0.42645
   0.50428   0.08527   0.38156
   0.47435   0.10023   0.42645
   0.56413   0.08527   0.39652
   0.51924  -0.00451   0.57609
   0.54917   0.02542   0.51623
   0.57910  -0.03444   0.53120
   0.59406  -0.00451   0.69580
   0.59406  -0.04940   0.59105
   0.51924  -0.07933   0.63594
   0.60903  -0.07933   0.65091
   0.59406  -0.16911   0.65091
   0.59406  -0.16911   0.72572
   0.60903  -0.06437   0.69580
   0.59406  -0.00451   0.71076
   0.56413  -0.00451   0.74069
   0.57910   0.04038   0.66587
   0.53421  -0.00451   0.69580
   0.42946  -0.12422   0.78558
   0.47435  -0.12422   0.83047
   0.50428  -0.13919   0.74069
   0.44442  -0.24393   0.80054
   0.45939  -0.16911   0.86040
   0.42946  -0.10926   0.86040
   0.35464  -0.09429   0.86040
   0.33968  -0.00451   0.92025
   0.30975   0.02542   0.86040
   0.19004  -0.03444   0.84543
   0.17508   0.01045   0.74069
   0.10026  -0.00451   0.80054
   0.16011  -0.15415   0.86040
   0.08529  -0.07933   0.81551
   0.07033  -0.12422   0.83047
   0.05537  -0.10926   0.96514
   0.04040  -0.03444   0.83047
  -0.01945   0.01045   0.86040
  -0.07931  -0.03444   0.93522
  -0.07931   0.01045   0.93522
  -0.13916  -0.03444   0.80054
  -0.13916  -0.00451   0.87536
  -0.16909  -0.04940   0.93522
  -0.18405  -0.04940   0.92025
  -0.21398  -0.00451   0.95018
  -0.25887  -0.10926   0.89033
  -0.25887  -0.12422   0.83047
  -0.27384  -0.07933   0.92025
  -0.31873  -0.06437   0.93522
  -0.28880  -0.10926   0.93522
  -0.28880  -0.12422   0.96514
  -0.28880  -0.06437   0.89033
  -0.31873  -0.07933   0.90529
  -0.40851  -0.06437   0.80054
  -0.36362  -0.12422   0.89033
  -0.42347  -0.21400   0.86040
  -0.40851  -0.16911   0.89033
  -0.36362  -0.21400   0.84543
  -0.37858  -0.25890   0.95018
  -0.36362  -0.24393   0.90529
  -0.42347  -0.21400   0.95018
  -0.42347  -0.24393   0.95018
  -0.43844  -0.15415   0.96514
  -0.46837  -0.30379   0.95018
  -0.46837  -0.25890   0.96514
  -0.46837  -0.31875   0.92025
  -0.45340  -0.30379   0.98011
  -0.46837  -0.30379   0.98011
  -0.52822  -0.24393   0.93522
  -0.52822  -0.19904   0.95018
  -0.49829  -0.09429   0.87536
  -0.43844  -0.07933   0.90529
  -0.46837  -0.15415   0.87536
  -0.46837  -0.19904   0.92025
  -0.46837  -0.18408   0.89033
  -0.49829  -0.12422   0.84543
  -0.54318  -0.04940   0.90529
  -0.45340   0.01045   0.87536
  -0.45340   0.01045   0.71076
  -0.42347   0.01045   0.77062
  -0.43844  -0.03444   0.81551
  -0.42347   0.01045   0.77062
  -0.45340  -0.03444   0.81551
  -0.42347  -0.04940   0.80054
  -0.34866  -0.06437   0.69580
  -0.34866  -0.06437   0.66587
  -0.36362  -0.16911   0.72572
  -0.36362  -0.06437   0.60601
  -0.31873   0.01045   0.63594
  -0.34866  -0.01948   0.59105
  -0.31873   0.02542   0.56112
  -0.31873   0.01045   0.59105
  -0.28880  -0.06437   0.48630
  -0.25887  -0.06437   0.50127
  -0.24391  -0.07933   0.48630
