********************************************************************************
              CENTRO DE INSTRUMENTACION Y REGISTRO SISMICO  A.C.

    Anaxagoras 814, Col. Narvarte, Benito Juarez, C.P. 03020 Mexico, D.F.
           Tels. 5687 45 42/ 5687 45  82             Fax. 5669 25 12
********************************************************************************
ARCHIVO ESTANDAR DE ACELERACION:
VERSION DEL FORMATO                    : 2.0
NOMBRE DEL ARCHIVO                     : BA4920170908044918
FECHA Y HORA DE CREACION               : 13/SEP/17, 10:54
REF. CATALOGO ACELEROGRAMAS, SMIS 1996 : REGISTRO No.     /PAG.


================================================================================
DATOS DE LA ESTACION:
NOMBRE DE LA ESTACION                  : BUENOS AIRES
CLAVE DE LA ESTACION                   : BA49
LOCALIZACION DE LA ESTACION            : Del. Cuauhtémoc, Col. Doctores,        
                                       : Av. Lázaro Cárdenas esq. con           
                                       : Calle Dr. Márquez.                     
                                       :                                        
                                       : 
COORDENADAS DE LA ESTACION             : 19.4097 LAT. N
                                       : 99.1450 LONG. W
ALTITUD (msnm)                         : 2233
TIPO DE SUELO                          : Terreno blando, material compresible
                                       : (arcillas)                
                                       : 
INSTITUCION RESPONSABLE                : CIRES
                                       : 

================================================================================
DATOS DEL ACELEROGRAFO:
MODELO DEL ACELEROGRAFO                : RADESD
NUMERO DE SERIE DEL ACELEROGRAFO       : 176
NUMERO DE CANALES                      : 3
ORIENTACION C1-C6 (rumbo;orientacion)  : /S00E/+V/N90W
ORIENTACION C7-C12 (rumbo;orientacion) : 
VEL. DE MUESTREO, C1-C6 (muestras/s)   : /100/100/100
VEL. DE MUESTREO, C7-C12 (muestras/s)  : 
ESC. COMPLETA DE SENSORES, C1-C6, (g)  : /0.5/0.5/0.5
ESC. COMPLETA DE SENSORES, C7-C12, (g) : 
FREC. NAT. DE SENSORES, C1-C6, (Hz)    : /52.99/52.03/52.99
FREC. NAT. DE SENSORES, C7-C12, (Hz)   : 
AMORTIGUAMIENTO DE SENSORES, C1-C6     : /0.5589/0.5469/0.6096
AMORTIGUAMIENTO DE SENSORES, C7-C12    : 
INTERVALO DE MUESTREO, C1-C6, (s)      : /0.01/0.01/0.01
INTERVALO DE MUESTREO, C7-C12, (s)     : 
UMBRAL DE DISPARO, C1-C6, (Gal)        : /0.96/1.92/0.96
UMBRAL DE DISPARO, C7-C12, (Gal)       : 
MEMORIA DE PREEVENTO (s)               : 44.0
TIEMPO DE POSEVENTO (s)                : 64.0


================================================================================
DATOS DEL SISMO:
FECHA DEL SISMO (GMT)                  : 08/SEP/17
HORA EPICENTRO (GMT)                   : 04:49:18.0
MAGNITUD(ES)                           : /Mc=8.2
COORDENADAS DEL EPICENTRO              : 14.85 LAT. N
                                       : 94.11 LONG. W
PROFUNDIDAD FOCAL (km)                 : 58
FUENTE DE LOS DATOS EPICENTRALES       : SSN
                                       : INSTITUTO DE GEOFISICA, UNAM

================================================================================
DATOS DE ESTE REGISTRO:
HORA DE LA PRIMERA MUESTRA (GMT)       : 04:51:34.00
EXACTITUD DEL TIEMPO (s)               : 0.01
DURACION DEL REGISTRO (s), C1-C6       : /578.8/578.8/578.8
DURACION DEL REGISTRO (s), C7-C12      : 
NUM. TOTAL DE MUESTRAS, C1-C6          : /57880/57880/57880
NUM. TOTAL DE MUESTRAS, C7-C12         : 
ACEL. MAX. (Gal), C1-C6                : /56.83148/8.40685/34.3297
ACEL. MAX., C1-C6, EN LA MUESTRA       : /16014/16192/12306
ACEL. MAX. (Gal), C7-C12               : 
ACEL. MAX., C7-C12, EN LA MUESTRA      : 
UNIDADES DE LOS DATOS                  : Gal (cm/s/s)
FACTOR DE DECIMACION                   : 1
FORMATO DATOS (FORTRAN,10 campos/dato) : 3F10.5


================================================================================
CALIDAD DEL ACELEROGRAMA:
REGISTRO DIGITAL COMPLETO CON TIEMPO ABSOLUTO CORRECTO.


================================================================================
COMENTARIOS:














================================================================================
DATOS DE ACELERACION:
---------+---------+---------+---------+---------+---------+---------+---------+
   CANAL-1   CANAL-2   CANAL-3   CANAL-4   CANAL-5   CANAL-6   CANAL-7   CANAL-8
      S00E        +V      N90W
---------+---------+---------+---------+---------+---------+---------+---------+
[...]
  32.18793  -4.60606  15.88868
  32.35254  -4.47139  16.14306
  32.23283  -4.47139  16.32262
  31.99341  -4.41153  16.93614
  31.67917  -4.38160  17.60951
  31.30507  -4.09729  18.16317
  31.05069  -3.99255  18.56719
  30.87112  -3.79802  18.79165
  30.60178  -3.76809  18.98617
  30.27257  -3.60349  19.28545
  29.89848  -3.48378  19.67451
  29.49446  -3.30421  19.82414
  29.03058  -3.06479  20.19824
  28.50685  -2.96005  20.45262
  27.86341  -2.72063  20.70701
  27.39953  -2.40639  20.81175
  26.89076  -2.15200  20.93146
  26.35207  -1.85273  21.20081
  25.96301  -1.55345  21.32052
  25.37942  -1.28410  21.51505
  24.67613  -0.93994  21.72454
  23.98779  -0.71548  21.91907
  23.25457  -0.41621  22.11360
  22.52135  -0.25161  22.33806
  21.71330  -0.01219  22.57748
  20.89030   0.13745  22.80193
  20.02240   0.22723  23.02639
  19.04975   0.51155  23.23588
  18.12200   0.58637  23.31070
  17.17928   0.63126  23.34063
  16.20664   0.79586  23.35559
  15.14421   0.99039  23.38552
  13.85733   1.08017  23.49027
  12.73505   1.16995  23.35559
  11.41823   1.28966  23.38552
  10.14632   1.40937  23.43041
   8.78461   1.58894  23.50523
   7.43787   1.70865  23.58005
   5.94150   1.70865  23.77458
   4.47505   1.70865  23.90925
   3.06846   1.78347  24.10378
   1.61697   1.72361  24.26838
   0.13556   1.70865  24.44795
  -1.48053   1.67872  24.67240
  -3.08165   1.66376  24.92679
  -4.62292   1.67872  25.09139
  -6.17915   1.61886  25.28592
  -7.73538   1.57397  25.46548
  -9.24672   1.48419  25.63008
 -10.71317   1.36448  25.76476
 -12.13472   1.22981  25.82461
 -13.45153   1.22981  25.86950
 -14.82820   1.05024  25.92936
 -16.08516   1.02031  25.85454
 -17.38700   0.81082  25.98921
 -18.80856   0.64622  26.04907
 -19.96077   0.43673  26.00418
 -21.15787   0.16738  25.86950
 -22.54950  -0.10197  25.76476
 -23.74660  -0.26657  25.67497
 -24.91378  -0.52095  25.57023
 -26.09591  -0.79030  25.52534
 -27.32294  -0.98483  25.43555
 -28.52004  -1.20929  25.31584
 -29.71714  -1.46367  25.19613
 -30.94417  -1.77791  25.01657
 -32.15624  -1.91258  24.86693
 -33.26355  -2.18193  24.68737
 -34.41576  -2.28668  24.53773
 -35.50812  -2.40639  24.32824
 -36.55558  -2.57099  24.11874
 -37.54319  -2.72063  23.84940
 -38.53080  -2.79544  23.53516
 -39.48848  -2.87026  23.26581
 -40.35638  -2.97501  22.99646
 -41.16442  -2.94508  22.62237
 -41.85275  -2.98997  22.18842
 -42.60094  -2.93012  21.82929
 -43.21445  -3.07976  21.51505
 -43.79804  -3.12465  21.21577
 -44.39659  -3.19947  20.82672
 -44.89040  -3.18450  20.31795
 -45.41413  -3.19947  19.86904
 -45.78822  -3.13961  19.39020
 -46.22217  -3.09472  18.98617
 -46.65612  -3.07976  18.55222
 -47.03021  -2.91515  18.14820
 -47.47913  -2.98997  17.80404
 -48.09264  -2.96005  17.44491
 -48.66126  -2.93012  17.07081
 -49.08025  -2.78048  16.48723
 -49.46931  -2.54106  15.99342
 -49.96311  -2.16697  15.54451
 -50.33720  -1.94251  15.08063
 -50.71130  -2.10711  14.55690
 -50.93575  -2.15200  13.77879
 -51.01057  -1.95747  13.04556
 -51.22007  -1.71805  12.14774
 -51.29488  -1.55345  11.38458
 -51.45949  -1.17936  10.77107
 -51.33978  -0.83519  10.05281
 -51.35474  -0.49103   9.24477
 -51.51934  -0.07204   8.28709
 -51.66898   0.31702   7.28451
 -51.80365   0.70608   6.43158
 -51.80365   0.99039   5.59361
 -51.86351   1.12506   4.75564
 -51.72883   1.25973   3.78299
 -51.63905   1.27470   3.00488
 -51.48941   1.14002   1.98734
 -51.39963   0.94550   0.93988
 -51.24999   0.85571   0.16176
 -51.16021   0.70608  -0.58642
 -50.99561   0.45169  -1.36454
 -50.68137   0.28709  -2.23244
 -50.45691   0.28709  -2.98063
 -50.20253   0.33198  -3.69889
 -49.94815   0.46666  -4.35729
 -49.49923   0.48162  -5.01570
 -48.93061   0.49658  -5.56936
 -48.30213   0.49658  -6.15294
 -47.56891   0.57140  -6.69164
 -46.83568   0.64622  -7.08070
 -45.99771   0.75097  -7.69421
 -45.18967   0.66118  -8.17305
 -44.23199   0.87068  -8.60700
 -43.22942   1.03528  -9.07088
 -42.19692   1.25973  -9.51979
 -41.10456   1.31959  -9.99863
 -40.11696   1.45426 -10.46251
 -38.94978   1.42434 -10.91142
 -37.76765   1.33455 -11.42019
 -36.58551   1.18492 -12.00377
 -35.32855   0.93053 -12.46765
 -34.04167   0.70608 -12.91656
 -32.72486   0.58637 -13.32058
 -31.34819   0.34694 -13.70964
 -30.00145   0.18234 -14.11366
 -28.65472   0.03271 -14.59250
 -27.21819  -0.23664 -15.07134
 -25.85649  -0.26657 -15.43047
 -24.49479  -0.32642 -15.83450
 -23.11812  -0.29650 -16.13377
 -21.65168  -0.28153 -16.55276
 -20.26005  -0.17679 -16.95678
 -18.85345   0.00278 -17.37576
 -17.40197   0.21227 -17.66008
 -15.93552   0.49658 -17.95935
 -14.48403   0.87068 -18.25863
 -12.95773   1.25973 -18.55790
 -11.43143   1.61886 -18.91703
  -9.86023   2.02289 -19.20134
  -8.27407   2.39698 -19.47069
  -6.73281   2.75611 -19.68018
  -5.22147   3.04042 -19.93457
  -3.68020   3.38459 -20.09917
  -2.04915   3.48933 -20.35355
  -0.44803   3.56415 -20.65283
   1.22791   3.66890 -20.80246
   2.78415   3.78861 -21.02692
   4.35534   3.89336 -21.20649
   5.82179   3.96817 -21.44591
   7.37802   3.98314 -21.53569
   8.88936   4.02803 -21.73022
  10.37077   4.07292 -21.90978
  11.83722   4.02803 -21.98460
  13.25878   3.95321 -22.07438
  14.65041   3.83350 -22.28388
  16.01211   3.81854 -22.55322
  17.41870   3.69883 -22.71783
  18.75048   3.65394 -23.01710
  20.12714   3.68386 -23.30141
  21.51877   3.60904 -23.52587
  22.82062   3.56415 -23.79522
  24.13743   3.57912 -24.10946
  25.33453   3.56415 -24.37880
  26.51667   3.44444 -24.78283
  27.75866   3.23495 -25.02225
  28.92583   3.10028 -25.18685
  30.12294   2.83093 -25.45619
  31.18536   2.51669 -25.71058
  32.21786   2.18749 -25.95000
  33.28029   1.87325 -26.06971
  34.26790   1.58894 -26.30913
  35.28543   1.27470 -26.44380
  36.16829   0.96046 -26.59344
  37.05116   0.63126 -26.80293
  37.94898   0.37687 -26.95257
  38.77199   0.00278 -27.08724
  39.47529  -0.34139 -27.20695
  40.20851  -0.68555 -27.29674
  40.88188  -0.96987 -27.35659
  41.65999  -1.22425 -27.35659
  42.31840  -1.52353 -27.34163
  43.08155  -1.71805 -27.25185
  43.78485  -1.97244 -27.22192
  44.38340  -2.13704 -27.07228
  45.07173  -2.31660 -26.95257
  45.65532  -2.39142 -26.81790
  46.28380  -2.40639 -26.57848
  46.85242  -2.54106 -26.36898
  47.46593  -2.51113 -26.05474
  48.07945  -2.49617 -25.65072
  48.69296  -2.48121 -25.30656
  49.20173  -2.30164 -24.91750
  49.72546  -2.16697 -24.46859
  50.17437  -2.03229 -23.92989
  50.69811  -1.74798 -23.34630
  51.16198  -1.56842 -22.70286
  51.53608  -1.35892 -21.87986
  51.89521  -1.19432 -21.08678
  52.17952  -0.99979 -20.21888
  52.50872  -0.77534 -19.33602
  52.80800  -0.83519 -18.28855
  52.98756  -0.76037 -17.36080
  53.15216  -0.71548 -16.23852
  53.31676  -0.82023 -15.16113
  53.54122  -0.93994 -13.87424
  53.69086  -1.04468 -12.60232
  53.67589  -1.16439 -11.45011
  53.78064  -1.37389 -10.37272
  53.88539  -1.35892  -9.23548
  53.91531  -1.43374  -8.06830
  53.93028  -1.44871  -7.00588
  54.06495  -1.47863  -6.06316
  54.15473  -1.53849  -5.27008
  54.15473  -1.49360  -4.35729
  54.19963  -1.41878  -3.42954
  54.27444  -1.38885  -2.63646
  54.46897  -1.50856  -1.81345
  54.66350  -1.31403  -0.82584
  54.67847  -1.23921   0.16176
  54.51386  -1.14943   1.01470
  54.43905  -0.99979   1.77785
  54.33430  -0.89505   2.52604
  54.27444  -0.80526   3.22933
  54.19963  -0.53592   3.96256
  54.09488  -0.49103   4.59104
  53.85546  -0.22168   5.06988
  53.66093  -0.19175   5.44397
  53.42151  -0.04211   5.72828
  53.12224   0.16738   6.16223
  52.73318   0.30205   6.43158
  52.25434   0.64622   6.79071
  51.71564   0.82579   7.04509
  51.08716   1.16995   7.37430
  50.50358   1.42434   7.53890
  49.78532   1.58894   7.70350
  49.06706   1.85828   7.92796
  48.28894   2.03785   8.07759
  47.43601   2.24734   8.19730
  46.53818   2.32216   8.27212
  45.61043   2.30720   8.22723
  44.51807   2.35209   8.31701
  43.41075   2.33713   8.37687
  42.19869   2.23238   8.42176
  40.97166   2.17252   8.58636
  39.77456   2.02289   8.73600
  38.48768   1.96303   8.94549
  36.96137   1.85828   9.24477
  35.25551   1.72361   9.54404
  33.63942   1.64879   9.78346
  32.02333   1.61886  10.11266
  30.18279   1.40937  10.54661
  28.35721   1.22981  10.83092
  26.44185   0.99039  11.20502
  24.49656   0.90060  11.63897
  22.43156   0.93053  12.13277
  20.50124   0.78089  12.53679
  18.55595   0.70608  13.06052
  16.44606   0.67615  13.64411
  14.42595   0.57140  14.19777
  12.31606   0.42176  14.79632
  10.32588   0.37687  15.30509
   8.27585   0.25716  15.85875
   6.31559   0.10752  16.38248
   4.37030   0.01774  16.78650
   2.36516  -0.14686  17.26534
   0.49469  -0.32642  17.69929
  -1.42067  -0.47606  18.17813
  -3.27618  -0.65563  18.58215
  -5.01197  -0.86512  18.91136
  -6.80763  -0.95490  19.45005
  -8.49853  -1.28410  19.88400
 -10.02483  -1.61331  20.37780
 -11.67085  -1.77791  20.88657
 -13.37672  -1.94251  21.26067
 -14.84316  -2.21186  21.88914
 -16.45925  -2.48121  22.33806
 -18.00052  -2.73559  22.77201
 -19.49689  -2.91515  23.08624
 -21.02320  -3.21443  23.37056
 -22.57943  -3.30421  23.62494
 -24.04588  -3.37903  23.86436
 -25.63204  -3.46881  24.01400
 -27.15834  -3.57356  24.10378
 -28.62479  -3.64838  24.10378
 -30.03138  -3.46881  24.11874
 -31.39308  -3.48378  24.07385
 -32.76975  -3.34910  23.99903
 -34.02671  -3.31918  23.86436
 -35.23877  -3.33414  23.69976
 -36.28623  -3.15458  23.47530
 -37.34866  -3.07976  23.31070
 -38.26145  -3.10968  23.17603
 -39.12935  -3.10968  22.99646
 -39.86257  -2.97501  22.81690
 -40.65565  -2.90019  22.62237
 -41.32902  -2.93012  22.47273
 -42.04728  -2.85530  22.35302
 -42.64583  -2.75055  22.18842
 -43.31920  -2.48121  22.02382
 -43.88782  -2.54106  21.96396
 -44.48637  -2.33157  21.88914
 -44.96521  -2.34653  21.76943
 -45.54880  -2.36150  21.73951
 -46.10246  -2.21186  21.60483
 -46.64116  -1.98740  21.51505
 -46.86561  -1.77791  21.45519
 -47.01525  -1.41878  21.20081
 -47.26963  -0.99979  20.90154
 -47.71855  -0.67059  20.46759
 -48.09264  -0.20671  20.13838
 -48.60141   0.30205  19.82414
 -49.09521   0.78089  19.45005
 -49.54412   0.93053  19.04603
 -50.03793   0.94550  18.64201
 -50.38210   1.06521  18.31280
 -50.72626   1.28966  17.78907
 -50.87590   1.64879  17.02592
 -51.20510   2.02289  16.21788
 -51.62409   2.38202  15.46969
 -52.28249   2.66633  14.87114
 -52.85112   2.62144  14.18281
 -53.30003   2.56158  13.55433
 -53.68909   2.42691  13.07549
 -54.06318   2.30720  12.55176
 -54.30260   2.11267  11.95321
 -54.34749   1.87325  11.17509
 -54.54202   1.54405  10.14259
 -54.99093   1.40937   8.88564
 -55.45481   1.28966   7.95788
 -55.69423   1.14002   7.28451
 -55.90372   0.93053   6.53633
 -56.23293   0.91557   5.47390
 -56.63695   1.06521   4.50125
 -56.83148   1.45426   3.10962
 -56.50227   1.79843   1.79281
 -56.23293   2.09770   0.65557
 -56.32271   2.44187  -0.30211
 -56.09825   2.20245  -1.02037
 -55.87380   2.05281  -1.63389
 -55.60445   1.85828  -2.15762
 -54.87122   1.64879  -2.81602
 -53.95843   1.34952  -3.62407
 -53.43470   1.36448  -4.17773
 -52.64162   0.99039  -4.41715
 -51.71387   0.42176  -4.62664
 -50.78612   0.04767  -4.91095
 -49.79851  -0.40124  -5.31497
 -48.93061  -0.93994  -5.61425
 -47.91307  -1.46367  -6.04820
 -47.12000  -1.73302  -6.24273
 -46.10246  -2.04726  -6.48215
 -45.14478  -2.28668  -6.85624
 -43.87286  -2.48121  -7.26026
 -42.57101  -2.43631  -7.46975
 -41.34398  -2.43631  -7.76903
 -39.99725  -2.48121  -7.91867
 -38.56072  -2.37646  -8.06830
 -37.15413  -2.37646  -8.21794
 -35.80739  -2.31660  -8.54715
 -34.44569  -2.30164  -8.75664
 -33.00917  -2.12208  -8.93620
 -31.51279  -1.80784  -9.16066
 -29.94160  -1.62827  -9.47490
 -28.44522  -1.29907  -9.80410
 -26.93388  -0.98483 -10.11834
 -25.34772  -0.85016 -10.50740
 -23.65682  -0.64066 -10.85156
 -21.78635  -0.50599 -11.18077
 -20.08048  -0.22168 -11.46508
 -18.34468   0.06263 -11.73443
 -16.65378   0.22723 -12.15341
 -14.96287   0.45169 -12.61729
 -13.27197   0.57140 -13.03627
 -11.50625   0.87068 -13.42533
  -9.75549   1.12506 -13.78446
  -8.03465   1.51412 -14.24834
  -6.34375   1.90318 -14.74214
  -4.65284   2.36705 -15.29580
  -2.93201   2.84589 -15.78961
  -1.33089   3.32473 -16.44801
   0.15052   3.68386 -17.03160
   1.58704   4.05796 -17.58526
   2.99364   4.50687 -18.21373
   4.50498   4.77622 -18.76739
   5.94150   5.15031 -19.29113
   7.30320   5.44959 -19.82982
   8.59008   5.73390 -20.41341
   9.87697   5.88354 -21.05685
  11.10400   6.09303 -21.68533
  12.46570   6.13792 -22.32877
  13.81244   6.24267 -22.80761
  15.06939   6.21274 -23.30141
  16.22160   6.13792 -23.88500
  17.26907   6.12296 -24.51348
  18.42127   5.91346 -25.23174
  19.51363   5.68901 -25.90511
  20.59102   5.58426 -26.57848
  21.53374   5.28499 -27.17703
  22.50638   5.00067 -27.77558
  23.46406   4.73133 -28.37413
  24.39182   4.31234 -28.97268
  25.31957   3.92328 -29.46648
  26.27725   3.59408 -29.91539
  27.19004   3.29481 -30.21467
  28.05794   2.90575 -30.52891
  28.89591   2.57655 -30.78329
  29.73388   2.21741 -30.97782
  30.52696   1.90318 -31.12746
  31.33500   1.64879 -31.11250
  32.06822   1.39441 -31.06760
  32.78648   1.15499 -31.02271
  33.47482   0.93053 -30.79826
  34.02848   0.63126 -30.52891
  34.64199   0.39184 -30.24460
  35.25551   0.10752 -29.91539
  35.86902  -0.05708 -29.31684
  36.45261  -0.16182 -28.79311
  37.00627  -0.34139 -28.16463
  37.54496  -0.56584 -27.49127
  37.96395  -0.59577 -26.80293
  38.41286  -0.65563 -26.08467
  38.96652  -0.76037 -25.29159
  39.29572  -0.77534 -24.57333
  39.77456  -0.76037 -23.69047
  40.10376  -0.62570 -22.86746
  40.43297  -0.49103 -22.14920
  40.67239  -0.46110 -21.34116
  40.89684  -0.31146 -20.57801
  41.16619  -0.20671 -19.75500
  41.36072   0.12249 -19.05170
  41.65999   0.15242 -18.25863
  41.76474   0.24220 -17.34584
  41.82460   0.34694 -16.50787
  41.85452   0.52651 -15.63997
  41.95927   0.60133 -14.89178
  42.01912   0.72104 -13.97899
  42.01912   0.78089 -13.12606
  41.88445   0.88564 -12.15341
  41.74978   0.82579 -11.31544
  41.60014   0.84075 -10.46251
  41.37568   0.93053  -9.62454
  41.13626   0.88564  -8.77160
  40.77713   0.82579  -8.02341
  40.46289   0.73600  -7.17048
  40.10376   0.64622  -6.19783
  39.86434   0.60133  -5.31497
  39.74463   0.61629  -4.52189
  39.50521   0.60133  -3.72881
  39.14608   0.67615  -2.90581
  38.77199   0.72104  -2.00798
  38.38293   0.85571  -0.90066
  37.96395   1.06521   0.25155
  37.41029   1.48419   1.10448
  36.93145   1.90318   1.80778
  36.54239   2.27727   2.61582
  36.22815   2.50173   3.19941
  35.95880   2.89078   3.84285
  35.74931   3.27984   4.23191
  35.42011   3.41452   4.71075
  35.00112   3.68386   5.09980
  34.61206   4.01307   5.33922
  34.29782   4.25249   5.51879
  33.90877   4.53680   5.80310
  33.45985   4.74629   5.98267
  32.95109   5.10542   5.89288
  32.41239   5.21017   5.84799
  31.85873   5.31491   5.77317
  31.30507   5.28499   5.65346
  30.64667   5.22513   5.48886
  30.10797   5.01564   5.33922
  29.38971   4.83607   4.96513
  28.77620   4.55176   4.80053
  28.07290   4.34227   4.53118
  27.47435   4.04299   4.32169
  26.63638   3.77365   4.11220
  25.84330   3.42948   3.88774
  24.87066   3.08531   3.84285
  23.86808   2.71122   3.57350
  22.79069   2.32216   3.55854
  21.75819   1.88821   3.54357
  20.51620   1.52908   3.54357
  19.30414   1.15499   3.55854
  17.98733   1.00535   3.60343
