********************************************************************************
              CENTRO DE INSTRUMENTACION Y REGISTRO SISMICO  A.C.

    Anaxagoras 814, Col. Narvarte, Benito Juarez, C.P. 03020 Mexico, D.F.
           Tels. 5687 45 42/ 5687 45  82             Fax. 5669 25 12
********************************************************************************
ARCHIVO ESTANDAR DE ACELERACION:
VERSION DEL FORMATO                    : 2.0
NOMBRE DEL ARCHIVO                     : BA4920120402173642
FECHA Y HORA DE CREACION               : 15/MAY/12, 09:41
REF. CATALOGO ACELEROGRAMAS, SMIS 1996 : REGISTRO No.     /PAG.


================================================================================
DATOS DE LA ESTACION:
NOMBRE DE LA ESTACION                  : BUENOS AIRES
CLAVE DE LA ESTACION                   : BA49
LOCALIZACION DE LA ESTACION            : Del. Cuauhtémoc, Col. Doctores,        
                                       : Av. Lázaro Cárdenas esq. con           
                                       : Calle Dr. Márquez.                     
                                       :                                        
                                       : 
COORDENADAS DE LA ESTACION             : 19.4097 LAT. N
                                       : 99.1450 LONG. W
ALTITUD (msnm)                         : 2233
TIPO DE SUELO                          : Terreno blando, material compresible
                                       : (arcillas)                
                                       : 
INSTITUCION RESPONSABLE                : CIRES
                                       : 

================================================================================
DATOS DEL ACELEROGRAFO:
MODELO DEL ACELEROGRAFO                : RADESD
NUMERO DE SERIE DEL ACELEROGRAFO       : 176
NUMERO DE CANALES                      : 3
ORIENTACION C1-C6 (rumbo;orientacion)  : /N00E/+V/N90W
ORIENTACION C7-C12 (rumbo;orientacion) : 
VEL. DE MUESTREO, C1-C6 (muestras/s)   : /100/100/100
VEL. DE MUESTREO, C7-C12 (muestras/s)  : 
ESC. COMPLETA DE SENSORES, C1-C6, (g)  : /0.5/0.5/0.5
ESC. COMPLETA DE SENSORES, C7-C12, (g) : 
FREC. NAT. DE SENSORES, C1-C6, (Hz)    : /52.99/52.03/52.99
FREC. NAT. DE SENSORES, C7-C12, (Hz)   : 
AMORTIGUAMIENTO DE SENSORES, C1-C6     : /0.5589/0.5469/0.6096
AMORTIGUAMIENTO DE SENSORES, C7-C12    : 
INTERVALO DE MUESTREO, C1-C6, (s)      : /0.01/0.01/0.01
INTERVALO DE MUESTREO, C7-C12, (s)     : 
UMBRAL DE DISPARO, C1-C6, (Gal)        : /0.96/1.92/0.96
UMBRAL DE DISPARO, C7-C12, (Gal)       : 
MEMORIA DE PREEVENTO (s)               : 56.0
TIEMPO DE POSEVENTO (s)                : 64.0


================================================================================
DATOS DEL SISMO:
FECHA DEL SISMO (GMT)                  : 02/ABR/12
HORA EPICENTRO (GMT)                   : 17:36:42.0
MAGNITUD(ES)                           : /Mc=6.0
COORDENADAS DEL EPICENTRO              : 16.27 LAT. N
                                       : 98.47 LONG. W
PROFUNDIDAD FOCAL (km)                 : 10
FUENTE DE LOS DATOS EPICENTRALES       : SSN
                                       : INSTITUTO DE GEOFISICA, UNAM

================================================================================
DATOS DE ESTE REGISTRO:
HORA DE LA PRIMERA MUESTRA (GMT)       : 17:38:19.00
EXACTITUD DEL TIEMPO (s)               : 0.01
DURACION DEL REGISTRO (s), C1-C6       : /299.0/299.0/299.0
DURACION DEL REGISTRO (s), C7-C12      : 
NUM. TOTAL DE MUESTRAS, C1-C6          : /29900/29900/29900
NUM. TOTAL DE MUESTRAS, C7-C12         : 
ACEL. MAX. (Gal), C1-C6                : /6.74355/3.03799/7.55135
ACEL. MAX., C1-C6, EN LA MUESTRA       : /12911/6460/6465
ACEL. MAX. (Gal), C7-C12               : 
ACEL. MAX., C7-C12, EN LA MUESTRA      : 
UNIDADES DE LOS DATOS                  : Gal (cm/s/s)
FACTOR DE DECIMACION                   : 1
FORMATO DATOS (FORTRAN,10 campos/dato) : 3F10.5


================================================================================
CALIDAD DEL ACELEROGRAMA:
REGISTRO DIGITAL COMPLETO CON TIEMPO ABSOLUTO CORRECTO.


================================================================================
COMENTARIOS:














================================================================================
DATOS DE ACELERACION:
---------+---------+---------+---------+---------+---------+---------+---------+
   CANAL-1   CANAL-2   CANAL-3   CANAL-4   CANAL-5   CANAL-6   CANAL-7   CANAL-8
      N00E        +V      N90W
---------+---------+---------+---------+---------+---------+---------+---------+
[...]
  -0.03978   0.64379  -2.28411
  -0.27920   0.64379  -2.52353
  -0.51862   0.40437  -2.52353
  -0.51862   0.40437  -3.00237
  -0.75804   0.40437  -3.00237
  -0.99746   0.16495  -3.00237
  -0.99746   0.16495  -3.24179
  -1.23688   0.16495  -3.48121
  -1.23688  -0.07447  -3.72063
  -1.47630  -0.07447  -3.72063
  -1.47630  -0.07447  -3.72063
  -1.47630   0.16495  -3.72063
  -1.71572   0.16495  -3.72063
  -1.71572   0.16495  -3.72063
  -1.71572  -0.07447  -3.96005
  -1.71572  -0.07447  -3.72063
  -1.95514  -0.07447  -3.72063
  -1.95514  -0.07447  -3.72063
  -1.71572  -0.07447  -3.48121
  -1.71572  -0.31389  -3.48121
  -1.23688  -0.31389  -3.48121
  -1.23688  -0.55331  -3.48121
  -0.99746  -0.55331  -3.48121
  -0.99746  -0.79273  -3.24179
  -0.75804  -0.79273  -3.24179
  -0.51862  -0.79273  -3.24179
  -0.27920  -0.79273  -3.24179
  -0.03978  -0.79273  -3.24179
   0.19964  -1.03215  -3.00237
   0.19964  -1.27157  -3.00237
   0.43906  -1.27157  -2.76295
   0.43906  -1.27157  -2.52353
   0.43906  -1.51099  -2.52353
   0.43906  -1.51099  -2.52353
   0.67848  -1.75041  -2.52353
   0.67848  -1.75041  -2.52353
   0.67848  -1.75041  -2.76295
   0.67848  -1.51099  -2.52353
   0.43906  -1.51099  -2.52353
   0.43906  -1.03215  -2.76295
   0.67848  -1.03215  -3.00237
   0.67848  -0.55331  -2.76295
   0.67848  -0.79273  -3.00237
   0.91790  -0.79273  -3.00237
   0.67848  -0.79273  -3.00237
   0.91790  -1.03215  -3.24179
   0.91790  -1.03215  -3.24179
   0.91790  -1.03215  -3.24179
   0.91790  -1.03215  -3.00237
   0.91790  -1.03215  -3.00237
   0.91790  -1.03215  -3.00237
   0.67848  -1.03215  -2.76295
   0.91790  -0.79273  -2.76295
   0.91790  -0.55331  -2.76295
   0.91790  -0.31389  -2.52353
   0.67848   0.16495  -2.52353
   0.91790   0.16495  -2.52353
   0.91790   0.40437  -2.52353
   0.67848   0.64379  -2.52353
   0.91790   0.64379  -2.28411
   0.91790   0.64379  -2.28411
   0.91790   1.12263  -2.28411
   0.91790   1.12263  -2.28411
   0.91790   1.36205  -2.04469
   0.91790   1.12263  -2.28411
   0.91790   1.36205  -1.80527
   0.91790   1.36205  -1.80527
   0.91790   1.36205  -1.56585
   0.91790   1.36205  -1.32643
   0.91790   1.60147  -1.08701
   0.91790   1.84089  -0.60817
   0.91790   1.60147  -0.12933
   0.91790   1.84089  -0.12933
   0.91790   1.84089   0.11009
   0.91790   1.60147   0.34951
   0.91790   1.36205   0.34951
   0.67848   1.12263   0.58893
   0.91790   0.88321   0.82835
   0.91790   0.64379   0.82835
   0.67848   0.64379   0.82835
   0.91790   0.16495   1.06777
   0.67848   0.40437   1.30719
   0.67848   0.16495   1.06777
   0.67848  -0.07447   1.30719
   0.91790   0.40437   1.54661
   0.91790   0.40437   1.78603
   0.91790   0.16495   2.26487
   0.67848   0.40437   2.26487
   0.91790   0.40437   2.26487
   0.91790   0.64379   2.26487
   0.91790   0.88321   2.50429
   1.15732   0.88321   2.74372
   1.15732   1.12263   2.74372
   1.39674   1.12263   2.98314
   1.63616   1.12263   2.98314
   1.63616   1.12263   3.22256
   1.87558   1.12263   3.22256
   1.63616   1.12263   3.46198
   1.87558   1.12263   3.70140
   2.35442   0.88321   3.94082
   2.35442   0.64379   3.94082
   2.11500   0.40437   4.41966
   2.35442   0.16495   4.18024
   2.35442   0.40437   4.41966
   2.35442   0.16495   4.41966
   2.59384  -0.07447   4.65908
   2.59384   0.16495   4.65908
   2.35442  -0.31389   4.41966
   2.35442  -0.31389   4.41966
   2.35442  -0.07447   4.18024
   2.11500  -0.07447   3.94082
   2.11500  -0.31389   3.46198
   2.35442  -0.31389   3.46198
   1.87558  -0.31389   3.22256
   1.87558  -0.31389   2.98314
   1.63616  -0.07447   2.74372
   1.87558  -0.07447   2.50429
   1.63616   0.16495   2.26487
   1.39674   0.16495   2.02545
   1.15732  -0.07447   2.02545
   0.91790   0.16495   1.78603
   0.43906  -0.07447   1.54661
   0.43906  -0.31389   1.54661
   0.19964  -0.07447   1.54661
  -0.03978  -0.31389   1.54661
  -0.27920  -0.31389   1.30719
  -0.51862  -0.31389   1.06777
  -0.51862  -0.31389   1.06777
  -0.51862  -0.31389   0.82835
  -0.75804  -0.07447   0.82835
  -0.75804  -0.07447   0.82835
  -0.75804  -0.07447   0.58893
  -0.99746  -0.07447   0.58893
  -0.99746   0.16495   0.58893
  -0.99746   0.16495   0.58893
  -0.99746  -0.07447   0.34951
  -0.99746  -0.07447   0.34951
  -0.75804  -0.55331   0.58893
  -0.51862  -0.55331   0.82835
  -0.51862  -0.79273   0.58893
  -0.27920  -1.03215   0.58893
  -0.27920  -1.27157   0.58893
  -0.27920  -1.51099   0.58893
   0.19964  -1.51099   0.58893
   0.19964  -1.51099   0.58893
   0.43906  -1.75041   0.58893
   0.67848  -1.75041   0.11009
   0.91790  -1.75041   0.11009
   0.91790  -1.51099  -0.12933
   0.91790  -1.51099  -0.12933
   0.91790  -1.27157  -0.36875
   1.15732  -1.03215  -0.60817
   1.15732  -0.79273  -0.60817
   1.15732  -0.79273  -0.60817
   1.15732  -0.55331  -1.08701
   1.15732  -0.31389  -1.08701
   1.15732  -0.31389  -1.08701
   0.91790  -0.31389  -1.08701
   0.91790  -0.31389  -1.08701
   0.91790  -0.07447  -1.08701
   0.91790   0.16495  -1.32643
   0.91790   0.16495  -1.32643
   0.91790   0.16495  -1.32643
   0.91790   0.64379  -1.08701
   0.91790   0.64379  -1.08701
   1.15732   0.64379  -1.32643
   1.39674   0.64379  -1.32643
   1.39674   0.64379  -0.84759
   1.39674   0.40437  -0.84759
   1.39674   0.64379  -0.60817
   1.39674   0.40437  -0.36875
   1.39674   0.40437  -0.36875
   1.39674   0.64379  -0.12933
   1.15732   0.40437  -0.12933
   1.39674   0.40437   0.11009
   1.15732   0.40437   0.11009
   1.15732   0.64379   0.34951
   0.91790   0.40437   0.34951
   0.91790   0.16495   0.58893
   0.67848   0.40437   0.58893
   0.43906   0.16495   0.82835
   0.19964   0.40437   0.58893
   0.19964   0.16495   0.82835
  -0.03978   0.16495   1.06777
  -0.27920  -0.07447   0.82835
  -0.51862  -0.07447   1.06777
  -0.51862  -0.07447   1.30719
  -0.75804  -0.07447   1.30719
  -0.51862  -0.31389   1.30719
  -0.75804  -0.31389   1.54661
  -0.75804  -0.31389   1.78603
  -0.75804  -0.31389   2.02545
  -0.75804  -0.55331   2.26487
  -0.51862  -0.79273   2.26487
  -0.75804  -1.03215   2.74372
  -0.75804  -1.03215   2.98314
  -0.75804  -1.03215   2.98314
  -0.75804  -1.03215   3.22256
  -0.75804  -0.79273   3.46198
  -0.75804  -1.03215   3.70140
  -0.51862  -1.03215   3.46198
  -0.51862  -1.03215   4.18024
  -0.51862  -1.03215   4.18024
  -0.75804  -1.27157   4.41966
  -0.75804  -0.79273   4.41966
  -0.51862  -0.79273   4.65908
  -0.51862  -0.79273   4.65908
  -0.51862  -1.03215   4.65908
  -0.51862  -1.03215   4.65908
  -0.51862  -1.03215   4.65908
  -0.51862  -0.55331   4.65908
  -0.51862  -0.79273   4.65908
  -0.51862  -0.55331   4.41966
  -0.51862  -0.55331   4.41966
  -0.51862  -0.31389   4.41966
  -0.27920  -0.55331   4.18024
  -0.27920  -0.31389   3.94082
  -0.27920  -0.31389   3.70140
  -0.51862  -0.31389   3.70140
  -0.51862  -0.31389   3.46198
  -0.75804  -0.55331   2.98314
  -0.75804  -0.31389   2.98314
  -0.99746  -0.31389   2.50429
  -1.23688  -0.07447   2.26487
  -1.47630  -0.07447   2.02545
  -1.71572   0.16495   1.78603
  -2.19456   0.40437   1.30719
  -2.43398   0.64379   1.06777
  -2.67340   0.88321   0.82835
  -2.91282   0.88321   0.34951
  -2.91282   1.12263   0.34951
  -3.15224   1.36205   0.11009
  -3.39166   1.36205  -0.12933
  -3.39166   1.60147  -0.36875
  -3.63108   1.60147  -0.60817
  -3.87050   1.84089  -0.84759
  -3.87050   1.84089  -1.08701
  -4.10992   1.84089  -1.08701
  -4.10992   1.84089  -1.08701
  -4.10992   1.84089  -1.32643
  -4.10992   1.60147  -1.08701
  -3.87050   1.36205  -1.32643
  -3.87050   1.36205  -1.32643
  -3.87050   1.12263  -1.32643
  -3.87050   1.12263  -1.32643
  -3.63108   1.12263  -1.56585
  -3.63108   0.64379  -1.80527
  -3.15224   0.88321  -2.04469
  -2.91282   0.64379  -2.28411
  -2.43398   0.40437  -2.52353
  -2.19456   0.40437  -2.52353
  -1.71572   0.16495  -2.76295
  -1.23688   0.16495  -2.76295
  -0.99746  -0.31389  -3.00237
  -0.51862  -0.55331  -3.24179
  -0.51862  -0.55331  -3.24179
  -0.03978  -0.55331  -3.24179
   0.19964  -1.03215  -3.24179
   0.67848  -1.27157  -3.24179
   0.67848  -1.51099  -3.24179
   0.67848  -1.51099  -3.24179
   0.91790  -1.51099  -3.00237
   0.91790  -1.51099  -3.00237
   0.67848  -1.51099  -2.76295
   0.91790  -1.51099  -2.76295
   0.67848  -1.51099  -2.76295
   0.67848  -1.51099  -2.76295
   0.19964  -1.27157  -2.52353
   0.19964  -1.03215  -2.28411
  -0.03978  -0.55331  -2.52353
  -0.03978  -0.55331  -2.52353
  -0.27920  -0.07447  -2.28411
  -0.27920  -0.07447  -2.04469
  -0.27920  -0.07447  -1.80527
  -0.51862   0.16495  -1.56585
  -0.51862   0.16495  -1.08701
  -0.51862   0.16495  -1.08701
  -0.51862  -0.07447  -0.60817
  -0.51862  -0.07447  -0.36875
  -0.51862  -0.07447  -0.12933
  -0.27920  -0.07447   0.11009
  -0.27920  -0.55331   0.34951
  -0.03978  -0.31389   0.58893
  -0.27920  -0.55331   0.82835
  -0.27920  -0.31389   0.82835
  -0.27920  -0.31389   1.30719
  -0.27920  -0.31389   1.30719
  -0.03978  -0.55331   1.30719
  -0.03978  -0.31389   1.30719
  -0.03978  -0.55331   1.30719
  -0.03978  -0.79273   1.30719
  -0.27920  -0.55331   1.30719
  -0.27920  -0.55331   1.30719
  -0.51862  -0.79273   1.30719
  -0.51862  -0.79273   1.30719
  -0.75804  -0.79273   1.30719
  -0.99746  -0.79273   1.30719
  -1.23688  -0.55331   1.30719
  -1.47630  -1.03215   1.30719
  -1.47630  -0.79273   1.30719
  -1.71572  -0.79273   1.06777
  -1.95514  -0.55331   1.30719
  -2.19456  -0.79273   1.30719
  -2.43398  -0.31389   1.30719
  -2.43398  -0.31389   1.30719
  -2.43398  -0.31389   1.06777
  -2.67340  -0.07447   0.82835
  -2.67340   0.16495   1.06777
  -2.67340   0.40437   0.82835
  -2.43398   0.64379   0.82835
  -2.43398   0.40437   0.82835
  -2.19456   0.40437   0.82835
  -1.95514   0.40437   0.82835
  -1.71572   0.16495   0.82835
  -1.23688   0.16495   0.58893
  -0.99746   0.16495   0.58893
  -0.51862   0.40437   0.58893
  -0.03978   0.16495   0.58893
   0.67848   0.40437   0.34951
   0.91790   0.16495   0.11009
   1.39674   0.40437   0.11009
   1.63616   0.16495  -0.36875
   2.11500   0.40437  -0.36875
   2.35442   0.40437  -0.60817
   2.83326   0.16495  -0.60817
   3.31210   0.16495  -1.08701
   3.31210   0.16495  -1.08701
   3.31210   0.40437  -1.56585
   3.31210   0.40437  -1.80527
   3.31210   0.16495  -2.28411
   3.55152   0.40437  -2.52353
   3.55152   0.64379  -3.00237
   3.31210   0.64379  -3.24179
   2.83326   1.12263  -3.72063
   2.83326   1.36205  -4.19947
   2.59384   1.60147  -4.43889
   2.35442   2.08031  -4.67831
   2.11500   2.31973  -5.15715
   1.87558   2.55915  -5.39657
   1.63616   2.79857  -5.63599
   1.63616   2.79857  -6.11483
   1.39674   3.03799  -6.35425
   1.15732   2.79857  -6.59367
   1.15732   2.79857  -6.59367
   1.15732   3.03799  -7.07251
   1.15732   3.03799  -7.31193
   1.15732   2.79857  -7.55135
   1.15732   2.55915  -7.31193
   1.15732   2.55915  -7.55135
   1.15732   2.55915  -7.55135
   1.39674   2.31973  -7.55135
   1.39674   2.08031  -7.31193
   1.63616   1.84089  -7.31193
   2.11500   1.36205  -7.31193
   2.35442   1.12263  -7.31193
   2.35442   0.64379  -7.07251
   2.83326   0.16495  -6.83309
   2.83326  -0.07447  -6.83309
   3.07268  -0.55331  -6.59367
   3.07268  -1.27157  -6.59367
   3.07268  -1.03215  -6.35425
   3.31210  -1.27157  -6.11483
   3.55152  -1.51099  -5.87541
   3.79094  -1.75041  -5.63599
   3.55152  -1.98983  -5.39657
   3.55152  -1.98983  -5.39657
   3.31210  -1.98983  -4.91773
   3.07268  -1.75041  -4.43889
   3.07268  -1.75041  -4.19947
   2.83326  -1.98983  -3.96005
   2.83326  -1.75041  -3.72063
   2.59384  -1.98983  -3.48121
   2.35442  -1.75041  -3.24179
   2.11500  -1.75041  -3.00237
   1.87558  -1.51099  -2.76295
   1.63616  -1.27157  -2.28411
   1.63616  -1.27157  -2.04469
   1.39674  -1.03215  -1.80527
   1.15732  -1.03215  -1.56585
   0.91790  -0.79273  -1.32643
   0.91790  -0.55331  -1.08701
   0.67848  -0.79273  -0.84759
   0.43906  -0.31389  -0.36875
   0.19964  -0.31389  -0.12933
  -0.03978  -0.07447   0.11009
  -0.03978  -0.07447   0.34951
  -0.03978  -0.07447   0.58893
   0.19964  -0.07447   0.82835
  -0.03978  -0.31389   1.06777
  -0.03978  -0.07447   1.30719
  -0.03978  -0.31389   1.30719
  -0.03978  -0.55331   1.78603
  -0.03978  -0.79273   2.02545
   0.19964  -0.79273   2.02545
   0.19964  -1.03215   2.26487
   0.19964  -1.27157   2.50429
  -0.03978  -1.03215   2.50429
  -0.03978  -1.03215   2.50429
  -0.03978  -1.03215   2.74372
  -0.03978  -0.79273   2.98314
  -0.03978  -1.03215   3.22256
  -0.27920  -0.79273   3.22256
  -0.51862  -0.55331   3.46198
  -0.51862  -0.31389   3.46198
  -0.51862  -0.31389   3.46198
  -0.75804  -0.31389   3.70140
  -0.99746  -0.31389   3.70140
  -0.99746  -0.07447   3.94082
  -0.99746  -0.07447   3.94082
  -1.23688  -0.07447   3.94082
  -1.71572   0.16495   3.70140
  -1.47630   0.40437   3.94082
  -1.47630   0.64379   3.94082
  -1.71572   0.64379   3.70140
  -1.47630   0.88321   3.94082
  -1.47630   0.64379   3.94082
  -1.71572   0.88321   3.94082
  -1.71572   1.12263   3.94082
  -1.95514   1.36205   3.94082
  -1.95514   1.36205   3.70140
  -1.95514   1.12263   3.94082
  -1.95514   1.36205   3.94082
  -2.19456   1.60147   3.94082
  -2.19456   1.60147   3.94082
  -2.19456   1.36205   3.94082
  -2.19456   1.36205   4.18024
  -2.19456   1.60147   3.94082
  -1.95514   1.36205   3.94082
  -1.71572   1.36205   3.94082
  -1.47630   1.12263   3.94082
  -1.23688   1.12263   3.70140
  -0.99746   1.12263   3.70140
  -0.51862   0.88321   3.46198
  -0.27920   0.88321   3.46198
   0.43906   0.88321   3.22256
   0.91790   0.88321   3.22256
   0.91790   1.36205   3.22256
   1.39674   0.88321   3.22256
   1.63616   0.88321   2.74372
   2.11500   0.88321   2.74372
   2.35442   0.64379   2.50429
   2.35442   0.64379   2.26487
   2.35442   0.40437   2.26487
   2.35442   0.16495   2.02545
   2.35442   0.16495   2.02545
   2.11500  -0.07447   1.78603
   2.11500  -0.07447   1.54661
   1.87558   0.16495   1.54661
   1.39674   0.40437   1.30719
   1.15732   0.64379   1.30719
   0.91790   0.64379   1.30719
   0.67848   0.88321   1.06777
   0.43906   0.88321   1.06777
   0.19964   1.12263   1.06777
  -0.03978   1.12263   1.30719
  -0.27920   0.88321   1.30719
  -0.51862   1.12263   1.30719
  -0.75804   1.12263   1.06777
  -0.99746   1.12263   1.30719
  -0.99746   1.12263   1.30719
  -0.99746   0.88321   1.54661
  -1.23688   0.88321   1.30719
  -1.23688   0.40437   1.54661
  -1.47630   0.16495   1.54661
  -1.23688  -0.07447   1.78603
  -1.47630  -0.07447   1.78603
  -1.47630  -0.31389   1.78603
  -1.47630  -0.79273   2.02545
  -1.23688  -1.03215   2.26487
  -1.23688  -1.51099   2.02545
  -1.23688  -1.75041   2.02545
  -0.99746  -1.75041   2.26487
  -0.99746  -1.98983   2.26487
  -0.99746  -2.22925   2.26487
  -0.99746  -1.98983   2.26487
  -0.99746  -2.22925   2.26487
  -1.23688  -2.22925   2.02545
  -0.99746  -1.98983   2.02545
  -0.99746  -2.22925   1.78603
  -1.23688  -2.22925   1.78603
  -1.23688  -2.22925   1.54661
  -1.47630  -2.22925   1.30719
  -1.71572  -1.98983   1.30719
  -2.19456  -1.98983   1.06777
  -2.43398  -1.75041   1.06777
  -2.67340  -1.75041   0.82835
  -2.91282  -1.51099   0.82835
  -3.39166  -1.51099   1.06777
  -3.63108  -1.51099   0.82835
  -3.87050  -1.27157   0.82835
  -4.10992  -0.79273   0.58893
  -4.34934  -0.55331   0.82835
  -4.34934  -0.55331   0.82835
  -4.58876  -0.31389   0.82835
  -4.58876  -0.07447   0.82835
  -4.58876   0.16495   0.82835
