********************************************************************************
               CENTRO DE INSTRUMENTACION Y REGISTRO SISMICO  A.C.  
                       Coordinacion de Servicios Tecnicos
     Anaxagoras 814, Col. Narvarte, Benito Juarez, C.P. 03020 Mexico, D.F.
            Tels. 667 45 42/ 687 45  82             Fax. 669 25 12
********************************************************************************
ARCHIVO ESTANDAR DE ACELERACION:
VERSION DEL FORMATO                    : 2.0
NOMBRE DEL ARCHIVO                     : BA499602.253
FECHA Y HORA DE CREACION               : 27/MAR/98, 3:55
REF. CATALOGO ACELEROGRAMAS, SMIS 1996 : REGISTRO No.     /PAG.


================================================================================
DATOS DE LA ESTACION:
NOMBRE DE LA ESTACION                  : BUENOS AIRES
CLAVE DE LA ESTACION                   : BA49
LOCALIZACION DE LA ESTACION            : ESCUELA SECUNDARIA 102, DOCTOR MARQUEZ
                                       : Y EJE CENTRAL, BUENOS AIRES.
                                       :
                                       :
                                       :
COORDENADAS DE LA ESTACION             : 19.410 LAT. N 
                                       : 99.145 LONG. W 
ALTITUD (msnm)                         : 2233
TIPO DE SUELO                          : TERRENO BLANDO, MATERIAL COMPRESIBLE
                                       : (ARCILLAS)
                                       : 
INSTITUCION RESPONSABLE                : CIRES 
                                       :

================================================================================
DATOS DEL ACELEROGRAFO:
MODELO DEL ACELEROGRAFO                : SSA-1
NUMERO DE SERIE DEL ACELEROGRAFO       : 176
NUMERO DE CANALES                      : 3
ORIENTACION C1-C6 (rumbo;orientacion)  : /N00E/+V/N90E
ORIENTACION C7-C12 (rumbo;orientacion) :
VEL. DE MUESTREO, C1-C6 (muestras/s)   : /200/200/200
VEL. DE MUESTREO, C7-C12 (muestras/s)  :
ESC. COMPLETA DE SENSORES, C1-C6, (g)  : /2/2/2
ESC. COMPLETA DE SENSORES, C7-C12, (g) :
FREC. NAT. DE SENSORES, C1-C6, (Hz)    : /52.99/52.03/52.99
FREC. NAT. DE SENSORES, C7-C12, (Hz)   :
AMORTIGUAMIENTO DE SENSORES, C1-C6     : /0.5589/0.5469/0.6096
AMORTIGUAMIENTO DE SENSORES, C7-C12    :
INTERVALO DE MUESTREO, C1-C6, (s)      : /0.005/0.005/0.005
INTERVALO DE MUESTREO, C7-C12, (s)     : 
UMBRAL DE DISPARO, C1-C6, (Gal)        : /2/2/2
UMBRAL DE DISPARO, C7-C12, (Gal)       :
MEMORIA DE PREEVENTO (s)               : 15
TIEMPO DE POSEVENTO (s)                : 60


================================================================================
DATOS DEL SISMO:
FECHA DEL SISMO (GMT)                  : 25/FEB/96
HORA EPICENTRO (GMT)                   : 09:17:57,2
MAGNITUD(ES)                           : /Mb=5.6/Ms=5.4/Mc=5.4
COORDENADAS DEL EPICENTRO              : 15.860 LAT. N
                                       : 98.130 LONG. W
PROFUNDIDAD FOCAL (km)                 : 17.0
FUENTE DE LOS DATOS EPICENTRALES       : SSN
                                       : INSTITUTO DE GEOFISICA, UNAM

================================================================================
DATOS DE ESTE REGISTRO:
HORA DE LA PRIMERA MUESTRA (GMT)       : 09:20:05.00
EXACTITUD DEL TIEMPO (s)               :     
DURACION DEL REGISTRO (s), C1-C6       : /128.00/128.00/128.00
DURACION DEL REGISTRO (s), C7-C12      :
NUM. TOTAL DE MUESTRAS, C1-C6          : /25600/25600/25600
NUM. TOTAL DE MUESTRAS, C7-C12         :
ACEL. MAX. (Gal), C1-C6                : /3.38569/0.92537/2.29186
ACEL. MAX., C1-C6, EN LA MUESTRA       :
ACEL. MAX. (Gal), C7-C12               :
ACEL. MAX., C7-C12, EN LA MUESTRA      :
UNIDADES DE LOS DATOS                  : Gal (cm/s/s)
FACTOR DE DECIMACION                   : 1
FORMATO DATOS (FORTRAN,10 campos/dato) : 3F10.5


================================================================================
CALIDAD DEL ACELEROGRAMA:
REGISTRO DIGITAL COMPLETO, CARECE DE TIEMPO ABSOLUTO.


================================================================================
COMENTARIOS:














================================================================================
DATOS DE ACELERACION:
---------+---------+---------+---------+---------+---------+---------+---------+
   CANAL-1   CANAL-2   CANAL-3   CANAL-4   CANAL-5   CANAL-6   CANAL-7   CANAL-8
      N00E        +V      N90E
---------+---------+---------+---------+---------+---------+---------+---------+
[...]
   0.03569   0.03463   0.81814
   0.03569   0.03463   0.81814
   0.03569   0.03463   0.81814
   0.27569   0.03463   0.81814
   0.27569   0.03463   0.81814
   0.27569   0.03463   0.81814
   0.27569   0.03463   0.81814
   0.27569   0.03463   0.81814
   0.27569   0.03463   0.81814
   0.27569   0.03463   0.81814
   0.51569   0.03463   0.81814
   0.51569   0.03463   0.81814
   0.51569   0.03463   0.81814
   0.51569   0.03463   0.81814
   0.51569   0.03463   0.81814
   0.51569   0.03463   0.81814
   0.75569   0.03463   0.81814
   0.75569   0.03463   0.81814
   0.75569   0.03463   0.81814
   0.75569   0.03463   0.81814
   0.75569   0.03463   0.81814
   0.75569   0.03463   0.81814
   0.75569   0.03463   0.81814
   0.99569   0.03463   0.57814
   0.99569   0.03463   0.57814
   0.99569   0.03463   0.57814
   0.99569   0.03463   0.57814
   0.99569   0.03463   0.81814
   1.23569   0.03463   0.57814
   0.99569   0.03463   0.81814
   1.23569   0.03463   0.57814
   1.23569   0.03463   0.57814
   1.23569   0.03463   0.57814
   1.23569   0.03463   0.57814
   1.23569   0.03463   0.57814
   1.23569   0.03463   0.57814
   1.47569   0.03463   0.57814
   1.47569   0.03463   0.57814
   1.47569   0.03463   0.57814
   1.47569   0.03463   0.57814
   1.47569   0.03463   0.57814
   1.47569   0.03463   0.57814
   1.70569   0.03463   0.57814
   1.70569   0.03463   0.57814
   1.70569   0.03463   0.57814
   1.70569   0.03463   0.57814
   1.70569   0.03463   0.57814
   1.70569   0.03463   0.57814
   1.70569   0.03463   0.57814
   1.70569   0.03463   0.57814
   1.94569   0.03463   0.33814
   1.94569   0.03463   0.33814
   1.94569   0.27463   0.57814
   1.94569   0.03463   0.33814
   1.94569   0.03463   0.57814
   1.94569   0.03463   0.33814
   1.94569   0.03463   0.57814
   1.94569   0.03463   0.33814
   2.18569   0.03463   0.33814
   2.18569   0.03463   0.57814
   2.18569   0.03463   0.33814
   2.18569   0.03463   0.57814
   2.18569   0.27463   0.57814
   2.18569   0.03463   0.57814
   2.18569   0.03463   0.57814
   2.18569   0.03463   0.33814
   2.42569   0.03463   0.33814
   2.42569   0.03463   0.33814
   2.42569   0.03463   0.33814
   2.42569   0.03463   0.33814
   2.42569   0.03463   0.33814
   2.42569   0.03463   0.33814
   2.42569   0.03463   0.33814
   2.42569   0.03463   0.33814
   2.42569   0.03463   0.33814
   2.42569   0.03463   0.33814
   2.42569   0.03463   0.33814
   2.42569   0.03463   0.33814
   2.42569   0.03463   0.33814
   2.42569   0.03463   0.33814
   2.66569   0.03463   0.33814
   2.66569   0.03463   0.33814
   2.66569   0.03463   0.33814
   2.66569   0.03463   0.33814
   2.66569   0.03463   0.09814
   2.66569   0.03463   0.33814
   2.66569   0.03463   0.33814
   2.66569   0.03463   0.09814
   2.66569   0.03463   0.33814
   2.66569   0.03463   0.09814
   2.66569   0.03463   0.33814
   2.66569   0.03463   0.09814
   2.66569   0.03463   0.09814
   2.66569   0.03463   0.09814
   2.66569   0.03463   0.09814
   2.66569   0.03463   0.09814
   2.66569   0.03463   0.09814
   2.66569   0.03463   0.09814
   2.90569   0.03463   0.09814
   2.90569   0.03463   0.09814
   2.90569   0.03463  -0.14186
   2.90569   0.03463  -0.14186
   2.90569   0.03463  -0.14186
   2.66569   0.27463   0.09814
   2.90569   0.03463   0.09814
   2.90569   0.03463  -0.14186
   2.90569   0.03463  -0.14186
   2.90569   0.03463  -0.14186
   2.90569   0.03463  -0.14186
   2.90569   0.03463  -0.14186
   2.90569   0.03463  -0.14186
   2.90569   0.03463  -0.14186
   2.90569   0.03463  -0.14186
   2.90569   0.03463  -0.14186
   2.90569   0.03463  -0.14186
   2.90569   0.03463  -0.14186
   2.90569   0.03463  -0.14186
   2.90569   0.03463  -0.14186
   2.90569   0.03463  -0.14186
   2.90569   0.03463  -0.14186
   2.90569   0.03463  -0.14186
   2.90569   0.03463  -0.38186
   2.90569   0.03463  -0.38186
   2.90569   0.03463  -0.38186
   2.90569   0.03463  -0.38186
   2.90569   0.03463  -0.38186
   2.90569   0.03463  -0.38186
   2.90569   0.03463  -0.38186
   2.90569   0.03463  -0.38186
   2.90569   0.03463  -0.38186
   2.66569   0.03463  -0.38186
   2.90569   0.03463  -0.38186
   2.90569   0.03463  -0.38186
   2.90569   0.03463  -0.38186
   2.66569   0.03463  -0.38186
   2.66569   0.03463  -0.38186
   2.90569   0.03463  -0.62186
   2.90569   0.03463  -0.62186
   2.66569   0.03463  -0.62186
   2.66569   0.03463  -0.38186
   2.66569   0.03463  -0.38186
   2.66569   0.03463  -0.62186
   2.66569   0.03463  -0.62186
   2.66569   0.03463  -0.62186
   2.66569   0.03463  -0.62186
   2.66569   0.03463  -0.62186
   2.66569   0.03463  -0.62186
   2.66569   0.03463  -0.62186
   2.66569   0.03463  -0.62186
   2.66569   0.03463  -0.62186
   2.66569   0.03463  -0.62186
   2.66569   0.03463  -0.62186
   2.66569   0.03463  -0.62186
   2.66569   0.03463  -0.62186
   2.66569   0.03463  -0.62186
   2.66569   0.03463  -0.62186
   2.42569   0.03463  -0.62186
   2.66569   0.03463  -0.62186
   2.66569   0.03463  -0.62186
   2.42569   0.03463  -0.86186
   2.42569   0.03463  -0.86186
   2.42569   0.03463  -0.86186
   2.42569   0.03463  -0.86186
   2.42569   0.03463  -0.62186
   2.42569   0.03463  -0.86186
   2.42569   0.03463  -0.62186
   2.42569   0.03463  -0.86186
   2.42569   0.03463  -0.86186
   2.42569   0.03463  -0.86186
   2.18569   0.03463  -0.86186
   2.42569   0.03463  -0.86186
   2.42569   0.03463  -0.86186
   2.18569   0.03463  -0.86186
   2.18569   0.03463  -0.86186
   2.18569   0.03463  -0.86186
   2.18569   0.03463  -0.86186
   2.18569   0.03463  -0.86186
   2.18569   0.03463  -0.86186
   2.18569   0.03463  -0.86186
   2.18569   0.03463  -0.86186
   2.18569   0.03463  -0.86186
   2.18569   0.03463  -0.86186
   2.18569   0.03463  -1.10186
   1.94569   0.03463  -0.86186
   1.94569   0.03463  -1.10186
   1.94569   0.03463  -0.86186
   1.94569   0.03463  -0.86186
   1.94569   0.03463  -1.10186
   1.94569   0.03463  -0.86186
   1.94569   0.03463  -0.86186
   1.94569   0.03463  -0.86186
   1.94569   0.03463  -1.10186
   1.70569   0.03463  -0.86186
   1.70569   0.03463  -1.10186
   1.70569   0.03463  -0.86186
   1.70569   0.03463  -0.86186
   1.70569   0.03463  -0.86186
   1.70569   0.03463  -0.86186
   1.70569   0.03463  -1.10186
   1.70569   0.03463  -0.86186
   1.70569   0.03463  -0.86186
   1.70569   0.03463  -0.86186
   1.47569   0.03463  -0.86186
   1.47569   0.03463  -0.86186
   1.47569   0.03463  -1.10186
   1.47569   0.03463  -0.86186
   1.47569   0.03463  -0.86186
   1.47569   0.03463  -0.86186
   1.47569   0.03463  -1.10186
   1.47569   0.27463  -0.86186
   1.47569   0.03463  -0.86186
   1.47569   0.27463  -0.86186
   1.23569   0.03463  -0.86186
   1.23569   0.03463  -0.86186
   1.23569   0.03463  -0.86186
   1.23569   0.03463  -0.86186
   1.23569   0.03463  -0.86186
   1.23569   0.03463  -0.86186
   1.23569   0.03463  -1.10186
   1.23569   0.03463  -0.86186
   0.99569   0.03463  -0.86186
   0.99569   0.03463  -0.86186
   0.99569   0.03463  -0.86186
   0.99569   0.03463  -0.86186
   0.99569   0.03463  -0.86186
   0.99569   0.03463  -0.86186
   0.75569   0.03463  -0.86186
   0.75569   0.03463  -0.86186
   0.75569   0.03463  -0.86186
   0.75569   0.03463  -0.86186
   0.75569   0.03463  -0.86186
   0.75569   0.03463  -0.62186
   0.75569   0.03463  -0.86186
   0.51569   0.03463  -0.86186
   0.51569   0.03463  -0.62186
   0.27569   0.03463  -0.62186
   0.51569   0.03463  -0.86186
   0.51569   0.03463  -0.86186
   0.51569   0.03463  -0.62186
   0.27569   0.03463  -0.86186
   0.27569   0.03463  -0.62186
   0.27569   0.03463  -0.62186
   0.27569   0.03463  -0.62186
   0.27569   0.03463  -0.62186
   0.27569   0.03463  -0.62186
   0.27569   0.03463  -0.62186
   0.03569   0.03463  -0.62186
   0.03569   0.03463  -0.62186
   0.03569   0.03463  -0.62186
   0.03569   0.03463  -0.62186
   0.03569   0.03463  -0.62186
   0.03569   0.03463  -0.62186
  -0.20431   0.03463  -0.62186
  -0.20431   0.03463  -0.62186
  -0.20431   0.03463  -0.62186
  -0.20431   0.03463  -0.62186
  -0.20431   0.03463  -0.38186
  -0.44431   0.03463  -0.62186
  -0.44431   0.03463  -0.62186
  -0.44431   0.03463  -0.62186
  -0.44431   0.03463  -0.62186
  -0.44431  -0.20537  -0.62186
  -0.44431   0.03463  -0.62186
  -0.68431   0.03463  -0.62186
  -0.68431   0.03463  -0.62186
  -0.68431   0.03463  -0.62186
  -0.68431   0.03463  -0.62186
  -0.68431   0.03463  -0.62186
  -0.68431   0.03463  -0.38186
  -0.92431   0.03463  -0.62186
  -0.92431   0.03463  -0.38186
  -0.92431   0.03463  -0.38186
  -0.92431  -0.20537  -0.38186
  -0.92431   0.03463  -0.38186
  -1.16431  -0.20537  -0.62186
  -1.16431   0.03463  -0.38186
  -1.16431  -0.20537  -0.38186
  -1.16431   0.03463  -0.38186
  -1.16431   0.03463  -0.38186
  -1.16431   0.03463  -0.38186
  -1.16431  -0.20537  -0.38186
  -1.40431  -0.20537  -0.38186
  -1.40431   0.03463  -0.38186
  -1.40431  -0.20537  -0.38186
  -1.40431  -0.20537  -0.38186
  -1.40431   0.03463  -0.38186
  -1.40431   0.03463  -0.38186
  -1.64431   0.03463  -0.38186
  -1.64431  -0.20537  -0.38186
  -1.64431   0.03463  -0.38186
  -1.64431  -0.20537  -0.38186
  -1.64431   0.03463  -0.38186
  -1.88431   0.03463  -0.38186
  -1.88431   0.03463  -0.38186
  -1.88431  -0.20537  -0.38186
  -1.88431  -0.20537  -0.38186
  -1.88431   0.03463  -0.38186
  -1.88431   0.03463  -0.14186
  -1.88431  -0.20537  -0.38186
  -2.12431  -0.20537  -0.38186
  -1.88431   0.03463  -0.38186
  -2.12431  -0.20537  -0.38186
  -2.12431   0.03463  -0.38186
  -2.12431  -0.20537  -0.38186
  -2.12431   0.03463  -0.38186
  -2.12431   0.03463  -0.38186
  -2.36431   0.03463  -0.38186
  -2.36431   0.03463  -0.14186
  -2.36431   0.03463  -0.38186
  -2.36431   0.03463  -0.38186
  -2.36431   0.03463  -0.38186
  -2.36431   0.03463  -0.38186
  -2.36431   0.03463  -0.38186
  -2.36431   0.03463  -0.38186
  -2.36431   0.03463  -0.38186
  -2.60431   0.03463  -0.38186
  -2.60431  -0.20537  -0.38186
  -2.60431  -0.20537  -0.38186
  -2.60431   0.03463  -0.38186
  -2.60431  -0.20537  -0.38186
  -2.60431   0.03463  -0.38186
  -2.60431   0.03463  -0.38186
  -2.60431   0.03463  -0.38186
  -2.60431   0.03463  -0.38186
  -2.84431   0.03463  -0.38186
  -2.84431   0.03463  -0.38186
  -2.84431  -0.20537  -0.38186
  -2.84431   0.03463  -0.14186
  -2.84431  -0.20537  -0.38186
  -2.84431   0.03463  -0.38186
  -2.84431   0.03463  -0.38186
  -2.84431   0.03463  -0.38186
  -2.84431   0.03463  -0.38186
  -3.08431   0.03463  -0.38186
  -2.84431   0.03463  -0.38186
  -2.84431  -0.20537  -0.38186
  -3.08431  -0.20537  -0.38186
  -3.08431  -0.20537  -0.38186
  -3.08431   0.03463  -0.38186
  -3.08431   0.03463  -0.14186
  -3.08431   0.03463  -0.14186
  -3.08431   0.03463  -0.38186
  -3.08431   0.03463  -0.14186
  -3.08431   0.03463  -0.14186
  -3.08431   0.03463  -0.38186
  -3.08431  -0.20537  -0.38186
  -3.08431  -0.20537  -0.38186
  -3.08431   0.03463  -0.38186
  -3.08431  -0.20537  -0.38186
  -3.32431   0.03463  -0.38186
  -3.32431   0.03463  -0.38186
  -3.32431   0.03463  -0.38186
  -3.32431  -0.20537  -0.38186
  -3.32431   0.03463  -0.14186
  -3.32431   0.03463  -0.38186
  -3.32431   0.03463  -0.38186
  -3.32431   0.03463  -0.14186
  -3.32431  -0.20537  -0.14186
  -3.32431  -0.20537  -0.38186
  -3.32431   0.03463  -0.14186
  -3.32431   0.03463  -0.38186
  -3.32431  -0.20537  -0.14186
  -3.32431   0.03463  -0.14186
  -3.32431   0.03463  -0.14186
  -3.32431   0.03463  -0.14186
  -3.32431   0.03463  -0.14186
  -3.32431   0.03463  -0.14186
  -3.32431   0.03463  -0.14186
  -3.32431  -0.20537  -0.14186
  -3.32431   0.03463  -0.14186
  -3.32431   0.03463  -0.14186
  -3.32431   0.03463  -0.14186
  -3.32431   0.03463  -0.14186
  -3.32431   0.03463  -0.14186
  -3.32431   0.03463  -0.14186
  -3.32431   0.03463  -0.14186
  -3.32431   0.03463  -0.14186
  -3.32431   0.03463  -0.14186
  -3.32431   0.03463  -0.14186
  -3.32431   0.03463  -0.14186
  -3.32431   0.03463  -0.14186
  -3.32431   0.03463  -0.14186
  -3.32431   0.03463  -0.14186
  -3.32431  -0.20537  -0.14186
  -3.32431   0.03463  -0.14186
  -3.32431   0.03463  -0.14186
  -3.32431   0.03463  -0.14186
  -3.32431   0.03463  -0.14186
  -3.32431   0.03463  -0.14186
  -3.32431   0.03463  -0.14186
  -3.32431   0.03463  -0.14186
  -3.32431   0.03463  -0.14186
  -3.32431   0.03463  -0.14186
  -3.32431   0.03463  -0.14186
  -3.32431   0.03463  -0.14186
  -3.32431   0.03463  -0.14186
  -3.32431   0.03463  -0.14186
  -3.08431   0.03463  -0.14186
  -3.08431   0.03463   0.09814
  -3.08431   0.03463   0.09814
  -3.08431   0.03463  -0.14186
  -3.08431   0.03463   0.09814
  -3.08431   0.03463   0.09814
  -3.08431   0.03463   0.09814
  -3.08431   0.03463   0.09814
  -3.08431  -0.20537   0.09814
  -3.08431   0.03463   0.09814
  -3.08431   0.03463   0.09814
  -3.08431   0.03463   0.09814
  -3.08431   0.03463   0.09814
  -3.08431   0.03463   0.09814
  -2.84431   0.03463   0.09814
  -2.84431   0.03463   0.09814
  -2.84431   0.03463   0.33814
  -2.84431  -0.20537   0.09814
  -2.84431   0.03463   0.09814
  -2.84431   0.03463   0.09814
  -2.84431   0.03463   0.09814
  -2.84431   0.03463   0.09814
  -2.84431   0.03463   0.09814
  -2.60431   0.03463   0.33814
  -2.60431   0.03463   0.33814
  -2.60431   0.03463   0.09814
  -2.60431  -0.20537   0.33814
  -2.60431   0.03463   0.33814
  -2.60431   0.03463   0.33814
  -2.60431   0.03463   0.33814
  -2.60431   0.03463   0.33814
  -2.36431   0.03463   0.33814
  -2.36431  -0.20537   0.09814
  -2.36431   0.03463   0.33814
  -2.36431  -0.20537   0.33814
  -2.36431  -0.20537   0.33814
  -2.36431   0.03463   0.33814
  -2.36431   0.03463   0.33814
  -2.12431   0.03463   0.33814
  -2.36431  -0.20537   0.33814
  -2.12431   0.03463   0.33814
  -2.12431  -0.20537   0.33814
  -2.12431  -0.20537   0.33814
  -2.12431  -0.20537   0.33814
  -2.12431  -0.20537   0.33814
  -1.88431  -0.20537   0.33814
  -1.88431  -0.20537   0.33814
  -1.88431  -0.20537   0.33814
  -1.88431  -0.20537   0.33814
  -1.88431  -0.20537   0.33814
  -1.88431  -0.20537   0.33814
  -1.88431  -0.20537   0.33814
  -1.88431  -0.20537   0.57814
  -1.64431  -0.20537   0.33814
  -1.64431  -0.20537   0.33814
  -1.64431  -0.20537   0.33814
  -1.64431  -0.20537   0.57814
  -1.64431  -0.20537   0.57814
  -1.40431  -0.20537   0.57814
  -1.40431  -0.20537   0.57814
  -1.40431  -0.20537   0.57814
  -1.40431  -0.20537   0.33814
  -1.40431  -0.20537   0.57814
  -1.40431  -0.20537   0.57814
  -1.16431  -0.20537   0.57814
  -1.16431  -0.20537   0.57814
  -1.16431  -0.20537   0.57814
  -1.16431  -0.20537   0.57814
  -1.16431  -0.20537   0.57814
  -1.16431  -0.20537   0.57814
  -0.92431  -0.20537   0.57814
  -0.92431  -0.20537   0.57814
  -0.92431  -0.20537   0.57814
  -0.92431  -0.20537   0.57814
  -0.92431  -0.20537   0.81814
  -0.92431  -0.20537   0.57814
  -0.92431  -0.20537   0.81814
  -0.68431  -0.20537   0.57814
  -0.68431  -0.20537   0.57814
  -0.68431  -0.20537   0.81814
  -0.68431  -0.20537   0.81814
  -0.68431  -0.20537   0.81814
  -0.68431  -0.20537   0.81814
  -0.68431  -0.20537   0.57814
  -0.44431  -0.20537   0.81814
  -0.44431  -0.20537   0.81814
  -0.44431  -0.20537   0.81814
  -0.44431  -0.20537   0.81814
  -0.44431  -0.20537   0.81814
  -0.20431  -0.20537   0.81814
  -0.20431  -0.20537   0.81814
  -0.20431  -0.20537   0.81814
  -0.20431   0.03463   0.81814
  -0.20431   0.03463   0.81814
  -0.20431  -0.20537   0.81814
   0.03569   0.03463   0.81814
   0.03569   0.03463   0.81814
   0.03569  -0.20537   0.81814
   0.03569  -0.20537   0.81814
   0.03569  -0.20537   0.81814
   0.03569   0.03463   0.81814
   0.27569   0.03463   0.81814
