********************************************************************************
              CENTRO DE INSTRUMENTACION Y REGISTRO SISMICO  A.C.                

    Anaxagoras 814, Col. Narvarte, Benito Juarez, C.P. 03020 Mexico, D.F.       
           Tels. 5687 45 42/ 5687 45  82             Fax. 5669 25 12            
********************************************************************************
ARCHIVO ESTANDAR DE ACELERACION:
VERSION DEL FORMATO                    : 2.0
NOMBRE DEL ARCHIVO                     : BA4920070413084350
FECHA Y HORA DE CREACION               : 24/ABR/07, 13:34
REF. CATALOGO ACELEROGRAMAS, SMIS 1996 : REGISTRO No.     /PAG.


================================================================================
DATOS DE LA ESTACION:
NOMBRE DE LA ESTACION                  : BUENOS AIRES
CLAVE DE LA ESTACION                   : BA49
LOCALIZACION DE LA ESTACION            : Del. Cuauhtémoc, Col. Doctores,        
                                       : Av. Lázaro Cárdenas esq. con           
                                       : Calle Dr. Márquez.                     
                                       :                                        
                                       : 
COORDENADAS DE LA ESTACION             : 19.4097 LAT. N
                                       : 99.1450 LONG. W
ALTITUD (msnm)                         : 2233
TIPO DE SUELO                          : Terreno blando, material compresible
                                       : (arcillas)                
                                       : 
INSTITUCION RESPONSABLE                : CIRES


================================================================================
DATOS DEL ACELEROGRAFO:
MODELO DEL ACELEROGRAFO                : SSA-1
NUMERO DE SERIE DEL ACELEROGRAFO       : 176
NUMERO DE CANALES                      : 3
ORIENTACION C1-C6 (rumbo;orientacion)  : /N00E/+V/N90W
ORIENTACION C7-C12 (rumbo;orientacion) : 
VEL. DE MUESTREO, C1-C6 (muestras/s)   : /200/200/200
VEL. DE MUESTREO, C7-C12 (muestras/s)  : 
ESC. COMPLETA DE SENSORES, C1-C6, (g)  : /2.0/2.0/2.0
ESC. COMPLETA DE SENSORES, C7-C12, (g) : 
FREC. NAT. DE SENSORES, C1-C6, (Hz)    : /52.99/52.03/52.99
FREC. NAT. DE SENSORES, C7-C12, (Hz)   : 
AMORTIGUAMIENTO DE SENSORES, C1-C6     : /0.5589/0.5469/0.6096
AMORTIGUAMIENTO DE SENSORES, C7-C12    : 
INTERVALO DE MUESTREO, C1-C6, (s)      : /0.005/0.005/0.005
INTERVALO DE MUESTREO, C7-C12, (s)     : 
UMBRAL DE DISPARO, C1-C6, (Gal)        : /1.5/2.0/1.0
UMBRAL DE DISPARO, C7-C12, (Gal)       : 
MEMORIA DE PREEVENTO (s)               : 15.36
TIEMPO DE POSEVENTO (s)                : 60.0


================================================================================
DATOS DEL SISMO:
FECHA DEL SISMO (GMT)                  : 13/ABR/07
HORA EPICENTRO (GMT)                   : 08:43:50.0
MAGNITUD(ES)                           : /Me=5.4
COORDENADAS DEL EPICENTRO              : 16.97 LAT. N
                                       : -100.27 LONG. W
PROFUNDIDAD FOCAL (km)                 : 10
FUENTE DE LOS DATOS EPICENTRALES       : SSN
                                       : INSTITUTO DE GEOFISICA, UNAM

================================================================================
DATOS DE ESTE REGISTRO:
HORA DE LA PRIMERA MUESTRA (GMT)       : 8:45:03.41
EXACTITUD DEL TIEMPO (s)               : 0.005
DURACION DEL REGISTRO (s), C1-C6       : /149.76/149.76/149.76
DURACION DEL REGISTRO (s), C7-C12      : 
NUM. TOTAL DE MUESTRAS, C1-C6          : /29952/29952/29952
NUM. TOTAL DE MUESTRAS, C7-C12         : 
ACEL. MAX. (Gal), C1-C6                : /4.54898/2.3942/4.54898
ACEL. MAX., C1-C6, EN LA MUESTRA       : /4118/4775/7189
ACEL. MAX. (Gal), C7-C12               : 
ACEL. MAX., C7-C12, EN LA MUESTRA      : 
UNIDADES DE LOS DATOS                  : Gal (cm/s/s)
FACTOR DE DECIMACION                   : 1
FORMATO DATOS (FORTRAN,10 campos/dato) : 3F10.5


================================================================================
CALIDAD DEL ACELEROGRAMA:
REGISTRO DIGITAL COMPLETO CON TIEMPO ABSOLUTO CORRECTO.


================================================================================
COMENTARIOS:














================================================================================
DATOS DE ACELERACION:
---------+---------+---------+---------+---------+---------+---------+---------+
   CANAL-1   CANAL-2   CANAL-3   CANAL-4   CANAL-5   CANAL-6   CANAL-7   CANAL-8
      N00E        +V      N90W
---------+---------+---------+---------+---------+---------+---------+---------+
[...]
   1.19710  -0.47884  -0.47884
   1.19710  -0.47884  -0.71826
   1.19710  -0.47884  -0.47884
   1.19710  -0.47884  -0.47884
   1.43652  -0.47884  -0.71826
   1.43652  -0.47884  -0.71826
   1.43652  -0.47884  -0.71826
   1.43652  -0.47884  -0.71826
   1.43652  -0.47884  -0.71826
   1.43652  -0.47884  -0.71826
   1.43652  -0.47884  -0.95768
   1.43652  -0.47884  -0.71826
   1.43652  -0.47884  -0.95768
   1.43652  -0.47884  -0.95768
   1.43652  -0.23942  -0.95768
   1.43652  -0.23942  -0.95768
   1.43652  -0.23942  -0.95768
   1.19710  -0.23942  -0.95768
   1.19710  -0.23942  -0.95768
   1.19710  -0.23942  -0.95768
   1.19710   0.00000  -0.95768
   1.19710   0.00000  -0.95768
   1.19710   0.00000  -1.19710
   1.19710   0.00000  -0.95768
   0.95768   0.00000  -0.95768
   0.95768   0.00000  -1.19710
   0.95768   0.23942  -1.19710
   0.95768   0.23942  -1.19710
   0.95768   0.23942  -1.19710
   0.71826   0.23942  -1.19710
   0.71826   0.23942  -1.19710
   0.71826   0.23942  -1.19710
   0.71826   0.47884  -1.19710
   0.47884   0.47884  -1.43652
   0.47884   0.47884  -1.19710
   0.47884   0.47884  -1.43652
   0.47884   0.47884  -1.19710
   0.47884   0.47884  -1.19710
   0.47884   0.47884  -1.19710
   0.23942   0.71826  -1.19710
   0.23942   0.71826  -1.19710
   0.23942   0.71826  -1.19710
   0.23942   0.71826  -1.19710
   0.23942   0.71826  -1.19710
   0.23942   0.71826  -1.19710
   0.23942   0.71826  -1.19710
   0.23942   0.71826  -1.19710
   0.23942   0.71826  -1.19710
   0.00000   0.71826  -1.19710
   0.23942   0.95768  -1.19710
   0.00000   0.71826  -0.95768
   0.00000   0.95768  -1.19710
   0.00000   0.95768  -0.95768
   0.00000   0.95768  -0.95768
   0.00000   0.95768  -0.95768
   0.00000   0.95768  -0.95768
   0.00000   0.95768  -0.95768
  -0.23942   0.95768  -0.95768
  -0.23942   0.95768  -0.95768
  -0.23942   0.71826  -0.95768
  -0.23942   0.71826  -0.95768
  -0.23942   0.71826  -0.95768
  -0.23942   0.71826  -0.71826
  -0.23942   0.71826  -0.71826
  -0.23942   0.47884  -0.71826
  -0.23942   0.47884  -0.71826
  -0.23942   0.47884  -0.71826
  -0.23942   0.47884  -0.71826
  -0.23942   0.47884  -0.71826
  -0.23942   0.47884  -0.71826
  -0.47884   0.47884  -0.47884
  -0.47884   0.47884  -0.47884
  -0.47884   0.47884  -0.47884
  -0.47884   0.47884  -0.47884
  -0.47884   0.47884  -0.47884
  -0.47884   0.23942  -0.23942
  -0.47884   0.47884  -0.23942
  -0.47884   0.47884  -0.23942
  -0.47884   0.47884  -0.23942
  -0.47884   0.47884  -0.23942
  -0.47884   0.47884   0.00000
  -0.47884   0.47884   0.00000
  -0.47884   0.47884   0.00000
  -0.71826   0.47884   0.00000
  -0.47884   0.71826   0.00000
  -0.47884   0.71826   0.00000
  -0.71826   0.71826   0.23942
  -0.71826   0.71826   0.23942
  -0.47884   0.71826   0.23942
  -0.47884   0.71826   0.23942
  -0.47884   0.71826   0.47884
  -0.47884   0.71826   0.47884
  -0.47884   0.71826   0.47884
  -0.47884   0.71826   0.47884
  -0.47884   0.71826   0.71826
  -0.47884   0.71826   0.71826
  -0.71826   0.71826   0.47884
  -0.47884   0.71826   0.71826
  -0.47884   0.71826   0.71826
  -0.71826   0.71826   0.71826
  -0.47884   0.47884   0.71826
  -0.47884   0.71826   0.47884
  -0.47884   0.71826   0.71826
  -0.47884   0.47884   0.47884
  -0.47884   0.47884   0.71826
  -0.47884   0.47884   0.71826
  -0.47884   0.47884   0.71826
  -0.47884   0.47884   0.71826
  -0.47884   0.23942   0.71826
  -0.47884   0.23942   0.71826
  -0.47884   0.23942   0.95768
  -0.47884   0.23942   0.71826
  -0.47884   0.00000   0.95768
  -0.47884   0.00000   0.71826
  -0.23942   0.00000   0.71826
  -0.23942   0.00000   0.95768
  -0.23942   0.00000   0.95768
  -0.23942  -0.23942   0.95768
  -0.23942  -0.23942   0.95768
  -0.23942  -0.23942   0.95768
  -0.23942  -0.23942   0.71826
  -0.23942  -0.23942   0.71826
   0.00000  -0.23942   1.19710
   0.00000  -0.23942   1.19710
   0.00000  -0.23942   0.95768
   0.00000  -0.23942   1.19710
   0.00000  -0.47884   1.19710
   0.00000  -0.23942   0.95768
   0.00000  -0.23942   1.19710
   0.00000  -0.23942   0.95768
   0.00000  -0.47884   1.19710
   0.00000  -0.47884   1.19710
   0.00000  -0.47884   1.19710
   0.00000  -0.47884   1.19710
   0.00000  -0.47884   1.19710
   0.00000  -0.47884   1.43652
   0.00000  -0.47884   1.43652
   0.00000  -0.71826   1.43652
   0.00000  -0.71826   1.43652
   0.23942  -0.71826   1.67594
   0.23942  -0.71826   1.43652
   0.23942  -0.71826   1.67594
   0.23942  -0.71826   1.43652
   0.23942  -0.71826   1.67594
   0.23942  -0.71826   1.67594
   0.23942  -0.47884   1.43652
   0.23942  -0.47884   1.67594
   0.47884  -0.47884   1.67594
   0.47884  -0.47884   1.43652
   0.47884  -0.47884   1.67594
   0.23942  -0.47884   1.67594
   0.47884  -0.47884   1.67594
   0.47884  -0.47884   1.67594
   0.47884  -0.23942   1.67594
   0.47884  -0.23942   1.67594
   0.47884  -0.23942   1.67594
   0.47884  -0.23942   1.67594
   0.71826  -0.23942   1.67594
   0.71826  -0.23942   1.67594
   0.71826  -0.23942   1.67594
   0.71826  -0.23942   1.67594
   0.71826  -0.23942   1.43652
   0.71826  -0.23942   1.43652
   0.71826  -0.23942   1.43652
   0.95768  -0.23942   1.43652
   0.95768  -0.47884   1.43652
   0.95768  -0.47884   1.43652
   0.71826  -0.47884   1.43652
   0.71826  -0.47884   1.19710
   0.95768  -0.47884   1.43652
   0.95768  -0.47884   1.43652
   0.95768  -0.47884   1.43652
   0.71826  -0.47884   1.19710
   0.71826  -0.47884   1.19710
   0.71826  -0.47884   1.19710
   0.71826  -0.47884   1.19710
   0.71826  -0.47884   1.19710
   0.47884  -0.47884   1.19710
   0.47884  -0.47884   0.95768
   0.47884  -0.47884   1.19710
   0.47884  -0.47884   0.95768
   0.47884  -0.47884   0.95768
   0.47884  -0.23942   0.95768
   0.47884  -0.23942   0.95768
   0.47884  -0.23942   0.71826
   0.23942  -0.23942   0.71826
   0.23942  -0.23942   0.71826
   0.23942  -0.23942   0.47884
   0.23942  -0.23942   0.47884
   0.23942  -0.23942   0.71826
   0.23942  -0.23942   0.47884
   0.00000  -0.23942   0.71826
   0.00000  -0.23942   0.47884
   0.00000  -0.23942   0.47884
   0.00000  -0.23942   0.23942
   0.00000  -0.23942   0.47884
   0.00000  -0.23942   0.47884
  -0.23942  -0.23942   0.47884
  -0.23942  -0.47884   0.23942
  -0.23942  -0.47884   0.23942
  -0.23942  -0.47884   0.23942
  -0.23942  -0.47884   0.00000
  -0.23942  -0.23942   0.00000
  -0.47884  -0.23942   0.00000
  -0.47884  -0.23942   0.00000
  -0.47884  -0.23942  -0.23942
  -0.47884  -0.23942  -0.23942
  -0.47884   0.00000  -0.23942
  -0.47884   0.00000  -0.23942
  -0.47884   0.00000  -0.47884
  -0.71826   0.00000  -0.71826
  -0.71826   0.00000  -0.71826
  -0.71826   0.00000  -0.71826
  -0.71826   0.23942  -0.71826
  -0.71826   0.23942  -0.95768
  -0.71826   0.23942  -0.95768
  -0.71826   0.23942  -0.95768
  -0.95768   0.23942  -1.19710
  -0.95768   0.23942  -1.19710
  -0.95768   0.23942  -1.43652
  -0.95768   0.23942  -1.19710
  -0.95768   0.23942  -1.43652
  -0.95768   0.23942  -1.43652
  -1.19710   0.23942  -1.43652
  -1.19710   0.47884  -1.43652
  -1.19710   0.23942  -1.67594
  -1.19710   0.47884  -1.67594
  -1.43652   0.47884  -1.67594
  -1.43652   0.47884  -1.67594
  -1.43652   0.47884  -1.67594
  -1.43652   0.47884  -1.67594
  -1.43652   0.47884  -1.67594
  -1.67594   0.47884  -1.91536
  -1.67594   0.47884  -1.91536
  -1.67594   0.47884  -1.91536
  -1.67594   0.47884  -1.67594
  -1.91536   0.47884  -1.91536
  -1.91536   0.47884  -1.91536
  -1.91536   0.71826  -1.91536
  -2.15478   0.71826  -1.67594
  -2.15478   0.71826  -1.91536
  -2.15478   0.95768  -1.67594
  -2.39420   0.95768  -1.67594
  -2.39420   0.95768  -1.67594
  -2.39420   0.95768  -1.67594
  -2.39420   0.95768  -1.67594
  -2.63362   0.95768  -1.67594
  -2.63362   0.95768  -1.43652
  -2.63362   0.95768  -1.67594
  -2.87304   0.95768  -1.67594
  -2.87304   0.95768  -1.67594
  -2.87304   0.95768  -1.43652
  -2.87304   0.95768  -1.43652
  -2.87304   0.95768  -1.19710
  -3.11246   0.95768  -1.19710
  -3.11246   0.95768  -1.19710
  -3.11246   0.95768  -1.19710
  -3.11246   0.95768  -0.95768
  -3.11246   0.95768  -0.95768
  -3.11246   0.95768  -0.95768
  -3.11246   0.95768  -0.71826
  -3.35188   0.95768  -0.95768
  -3.35188   0.95768  -0.71826
  -3.35188   0.95768  -0.71826
  -3.11246   0.95768  -0.71826
  -3.11246   0.95768  -0.71826
  -3.35188   0.95768  -0.71826
  -3.11246   0.95768  -0.71826
  -3.11246   0.71826  -0.71826
  -3.11246   0.71826  -0.71826
  -3.11246   0.71826  -0.71826
  -3.11246   0.71826  -0.71826
  -3.11246   0.71826  -0.71826
  -2.87304   0.71826  -0.71826
  -2.87304   0.47884  -0.47884
  -2.87304   0.47884  -0.47884
  -2.87304   0.47884  -0.47884
  -2.63362   0.47884  -0.71826
  -2.63362   0.47884  -0.71826
  -2.63362   0.47884  -0.47884
  -2.39420   0.47884  -0.47884
  -2.39420   0.23942  -0.47884
  -2.15478   0.47884  -0.47884
  -2.15478   0.23942  -0.47884
  -1.91536   0.23942  -0.47884
  -1.91536   0.23942  -0.47884
  -1.67594   0.23942  -0.47884
  -1.67594   0.23942  -0.47884
  -1.43652   0.00000  -0.23942
  -1.43652   0.00000  -0.47884
  -1.19710   0.00000  -0.47884
  -0.95768   0.00000  -0.23942
  -0.95768   0.00000  -0.47884
  -0.95768   0.00000  -0.23942
  -0.71826  -0.23942  -0.23942
  -0.47884  -0.23942  -0.23942
  -0.47884  -0.23942  -0.47884
  -0.23942  -0.23942  -0.23942
  -0.23942  -0.47884  -0.23942
   0.00000  -0.47884  -0.23942
   0.23942  -0.47884  -0.23942
   0.23942  -0.47884  -0.23942
   0.47884  -0.71826  -0.23942
   0.47884  -0.71826  -0.23942
   0.71826  -0.71826  -0.23942
   0.95768  -0.95768  -0.23942
   0.95768  -0.95768  -0.23942
   1.19710  -0.95768   0.00000
   1.19710  -0.95768  -0.23942
   1.43652  -0.95768  -0.47884
   1.43652  -0.95768   0.00000
   1.67594  -0.95768   0.00000
   1.67594  -0.95768   0.00000
   1.91536  -0.95768   0.00000
   2.15478  -0.71826   0.00000
   2.15478  -0.71826   0.00000
   2.15478  -0.71826  -0.23942
   2.39420  -0.71826   0.00000
   2.39420  -0.71826   0.00000
   2.63362  -0.71826   0.23942
   2.63362  -0.71826   0.00000
   2.87304  -0.71826   0.23942
   2.87304  -0.71826   0.00000
   2.87304  -0.71826   0.00000
   3.11246  -0.71826   0.23942
   3.11246  -0.71826   0.00000
   3.35188  -0.71826   0.00000
   3.35188  -0.71826   0.23942
   3.35188  -0.71826   0.23942
   3.59130  -0.71826   0.00000
   3.59130  -0.71826   0.00000
   3.83072  -0.47884   0.00000
   3.83072  -0.47884   0.23942
   3.83072  -0.47884   0.00000
   4.07014  -0.71826   0.00000
   4.07014  -0.71826   0.00000
   4.07014  -0.71826   0.00000
   4.07014  -0.71826   0.00000
   4.07014  -0.47884  -0.23942
   4.30956  -0.71826  -0.23942
   4.30956  -0.71826  -0.23942
   4.30956  -0.71826  -0.23942
   4.30956  -0.71826  -0.23942
   4.30956  -0.47884  -0.23942
   4.30956  -0.71826  -0.47884
   4.30956  -0.47884  -0.47884
   4.54898  -0.47884  -0.47884
   4.30956  -0.47884  -0.47884
   4.30956  -0.47884  -0.47884
   4.30956  -0.47884  -0.47884
   4.30956  -0.47884  -0.47884
   4.30956  -0.47884  -0.47884
   4.30956  -0.47884  -0.47884
   4.30956  -0.23942  -0.47884
   4.30956  -0.23942  -0.71826
   4.30956  -0.23942  -0.71826
   4.07014  -0.47884  -0.47884
   4.07014  -0.23942  -0.47884
   4.07014  -0.23942  -0.47884
   3.83072  -0.23942  -0.71826
   3.83072  -0.23942  -0.71826
   3.83072   0.00000  -0.71826
   3.83072   0.00000  -0.71826
   3.59130   0.00000  -0.47884
   3.59130   0.00000  -0.47884
   3.59130   0.23942  -0.71826
   3.35188   0.23942  -0.47884
   3.35188   0.00000  -0.47884
   3.35188   0.23942  -0.47884
   3.11246   0.23942  -0.47884
   3.11246   0.23942  -0.23942
   3.11246   0.23942  -0.47884
   2.87304   0.23942  -0.47884
   2.87304   0.23942  -0.23942
   2.87304   0.47884  -0.23942
   2.63362   0.47884   0.00000
   2.63362   0.47884  -0.23942
   2.63362   0.47884   0.00000
   2.39420   0.47884   0.00000
   2.39420   0.47884   0.00000
   2.15478   0.47884   0.23942
   2.15478   0.47884   0.00000
   1.91536   0.71826   0.23942
   1.91536   0.71826   0.23942
   1.91536   0.71826   0.23942
   1.67594   0.71826   0.23942
   1.43652   0.71826   0.23942
   1.43652   0.71826   0.23942
   1.19710   0.71826   0.47884
   1.19710   0.71826   0.47884
   1.19710   0.71826   0.71826
   0.95768   0.71826   0.47884
   0.71826   0.71826   0.47884
   0.71826   0.71826   0.71826
   0.71826   0.71826   0.71826
   0.47884   0.71826   0.95768
   0.23942   0.47884   0.95768
   0.23942   0.47884   0.71826
   0.00000   0.47884   0.95768
   0.00000   0.47884   0.95768
  -0.23942   0.47884   0.95768
  -0.23942   0.47884   1.19710
  -0.47884   0.47884   1.19710
  -0.47884   0.47884   1.19710
  -0.71826   0.47884   1.19710
  -0.71826   0.23942   1.19710
  -0.71826   0.23942   1.19710
  -0.95768   0.23942   1.43652
  -0.95768   0.23942   1.43652
  -0.95768   0.23942   1.43652
  -0.95768   0.23942   1.43652
  -0.95768   0.23942   1.67594
  -1.19710   0.23942   1.67594
  -1.19710   0.23942   1.67594
  -1.19710   0.47884   1.91536
  -1.19710   0.47884   1.91536
  -1.19710   0.47884   1.67594
  -1.19710   0.47884   1.67594
  -1.19710   0.47884   1.67594
  -1.19710   0.47884   1.67594
  -1.43652   0.47884   1.91536
  -1.43652   0.47884   1.67594
  -1.43652   0.47884   1.67594
  -1.43652   0.71826   1.67594
  -1.43652   0.71826   1.67594
  -1.43652   0.71826   1.67594
  -1.43652   0.71826   1.67594
  -1.67594   0.71826   1.67594
  -1.67594   0.71826   1.67594
  -1.67594   0.47884   1.43652
  -1.67594   0.71826   1.43652
  -1.67594   0.71826   1.43652
  -1.67594   0.71826   1.43652
  -1.67594   0.71826   1.43652
  -1.67594   0.47884   1.19710
  -1.67594   0.47884   1.43652
  -1.67594   0.47884   1.43652
  -1.91536   0.47884   1.19710
  -1.91536   0.47884   1.19710
  -1.91536   0.47884   1.19710
  -1.91536   0.47884   1.19710
  -1.91536   0.47884   1.43652
  -1.91536   0.23942   1.19710
  -1.91536   0.23942   1.19710
  -1.91536   0.23942   1.19710
  -1.91536   0.23942   0.95768
  -2.15478   0.23942   1.19710
  -2.15478   0.23942   1.19710
  -2.15478   0.23942   1.19710
  -2.15478   0.23942   1.19710
  -2.15478   0.47884   1.19710
  -2.39420   0.47884   1.19710
  -2.39420   0.47884   1.19710
  -2.39420   0.47884   0.95768
  -2.39420   0.47884   0.95768
  -2.39420   0.71826   0.95768
  -2.39420   0.71826   0.95768
  -2.39420   0.71826   0.95768
  -2.63362   0.71826   0.95768
  -2.63362   0.71826   0.95768
  -2.63362   0.71826   0.95768
  -2.63362   0.71826   0.95768
  -2.63362   0.95768   1.19710
  -2.87304   0.95768   1.19710
  -2.87304   0.95768   0.95768
  -2.87304   0.95768   0.95768
  -2.87304   0.95768   1.19710
  -2.87304   0.71826   1.19710
  -2.87304   0.95768   1.19710
  -2.87304   0.95768   1.19710
  -3.11246   0.95768   1.19710
  -3.11246   0.95768   1.19710
  -3.11246   0.95768   1.19710
  -3.11246   1.19710   1.19710
  -3.11246   0.95768   1.19710
  -3.11246   0.95768   1.19710
  -3.11246   0.95768   1.19710
  -3.11246   0.95768   1.19710
  -3.11246   0.95768   1.43652
  -3.11246   0.95768   1.19710
  -3.11246   0.95768   1.43652
  -2.87304   0.95768   1.43652
  -2.87304   0.95768   1.67594
  -2.87304   0.71826   1.43652
  -2.87304   0.71826   1.67594
  -2.63362   0.71826   1.67594
  -2.63362   0.47884   1.67594
  -2.63362   0.47884   1.91536
  -2.39420   0.23942   1.67594
  -2.39420   0.23942   1.91536
  -2.15478   0.23942   1.67594
  -2.15478   0.23942   1.91536
  -1.91536   0.23942   1.91536
  -1.91536   0.00000   2.15478
  -1.67594   0.00000   1.91536
  -1.43652   0.00000   2.15478
