********************************************************************************
              CENTRO DE INSTRUMENTACION Y REGISTRO SISMICO  A.C.

    Anaxagoras 814, Col. Narvarte, Benito Juarez, C.P. 03020 Mexico, D.F.
           Tels. 5687 45 42/ 5687 45  82             Fax. 5669 25 12
********************************************************************************
ARCHIVO ESTANDAR DE ACELERACION:
VERSION DEL FORMATO                    : 2.0
NOMBRE DEL ARCHIVO                     : BA4920130412034509
FECHA Y HORA DE CREACION               : 14/MAY/13, 12:39
REF. CATALOGO ACELEROGRAMAS, SMIS 1996 : REGISTRO No.     /PAG.


================================================================================
DATOS DE LA ESTACION:
NOMBRE DE LA ESTACION                  : BUENOS AIRES
CLAVE DE LA ESTACION                   : BA49
LOCALIZACION DE LA ESTACION            : Del. Cuauhtémoc, Col. Doctores,        
                                       : Av. Lázaro Cárdenas esq. con           
                                       : Calle Dr. Márquez.                     
                                       :                                        
                                       : 
COORDENADAS DE LA ESTACION             : 19.4097 LAT. N
                                       : 99.1450 LONG. W
ALTITUD (msnm)                         : 2233
TIPO DE SUELO                          : Terreno blando, material compresible
                                       : (arcillas)                
                                       : 
INSTITUCION RESPONSABLE                : CIRES
                                       : 

================================================================================
DATOS DEL ACELEROGRAFO:
MODELO DEL ACELEROGRAFO                : RADESD
NUMERO DE SERIE DEL ACELEROGRAFO       : 176
NUMERO DE CANALES                      : 3
ORIENTACION C1-C6 (rumbo;orientacion)  : /N00E/+V/N90W
ORIENTACION C7-C12 (rumbo;orientacion) : 
VEL. DE MUESTREO, C1-C6 (muestras/s)   : /100/100/100
VEL. DE MUESTREO, C7-C12 (muestras/s)  : 
ESC. COMPLETA DE SENSORES, C1-C6, (g)  : /0.5/0.5/0.5
ESC. COMPLETA DE SENSORES, C7-C12, (g) : 
FREC. NAT. DE SENSORES, C1-C6, (Hz)    : /52.99/52.03/52.99
FREC. NAT. DE SENSORES, C7-C12, (Hz)   : 
AMORTIGUAMIENTO DE SENSORES, C1-C6     : /0.5589/0.5469/0.6096
AMORTIGUAMIENTO DE SENSORES, C7-C12    : 
INTERVALO DE MUESTREO, C1-C6, (s)      : /0.01/0.01/0.01
INTERVALO DE MUESTREO, C7-C12, (s)     : 
UMBRAL DE DISPARO, C1-C6, (Gal)        : /15.32/30.65/15.32
UMBRAL DE DISPARO, C7-C12, (Gal)       : 
MEMORIA DE PREEVENTO (s)               : 56.0
TIEMPO DE POSEVENTO (s)                : 80.0


================================================================================
DATOS DEL SISMO:
FECHA DEL SISMO (GMT)                  : 12/ABR/13
HORA EPICENTRO (GMT)                   : 03:45:09.0
MAGNITUD(ES)                           : /Mc=5.2
COORDENADAS DEL EPICENTRO              : 17.78 LAT. N
                                       : 101.58 LONG. W
PROFUNDIDAD FOCAL (km)                 : 35
FUENTE DE LOS DATOS EPICENTRALES       : SSN
                                       : INSTITUTO DE GEOFISICA, UNAM

================================================================================
DATOS DE ESTE REGISTRO:
HORA DE LA PRIMERA MUESTRA (GMT)       : 03:46:34.00
EXACTITUD DEL TIEMPO (s)               : 0.01
DURACION DEL REGISTRO (s), C1-C6       : /200.4/200.4/200.4
DURACION DEL REGISTRO (s), C7-C12      : 
NUM. TOTAL DE MUESTRAS, C1-C6          : /20040/20040/20040
NUM. TOTAL DE MUESTRAS, C7-C12         : 
ACEL. MAX. (Gal), C1-C6                : /1.83659/1.15918/2.92333
ACEL. MAX., C1-C6, EN LA MUESTRA       : /5718/5640/6492
ACEL. MAX. (Gal), C7-C12               : 
ACEL. MAX., C7-C12, EN LA MUESTRA      : 
UNIDADES DE LOS DATOS                  : Gal (cm/s/s)
FACTOR DE DECIMACION                   : 1
FORMATO DATOS (FORTRAN,10 campos/dato) : 3F10.5


================================================================================
CALIDAD DEL ACELEROGRAMA:
REGISTRO DIGITAL COMPLETO CON TIEMPO ABSOLUTO CORRECTO.


================================================================================
COMENTARIOS:














================================================================================
DATOS DE ACELERACION:
---------+---------+---------+---------+---------+---------+---------+---------+
   CANAL-1   CANAL-2   CANAL-3   CANAL-4   CANAL-5   CANAL-6   CANAL-7   CANAL-8
      N00E        +V      N90W
---------+---------+---------+---------+---------+---------+---------+---------+
[...]
  -0.21345   0.35114  -0.68293
  -0.28827   0.29128  -0.83257
  -0.31819   0.29128  -0.89243
  -0.36308   0.27632  -0.93732
  -0.39301   0.26135  -0.99717
  -0.34812   0.20150  -1.02710
  -0.39301   0.14164  -1.05703
  -0.34812   0.03690  -1.13185
  -0.37805  -0.03792  -1.11688
  -0.39301  -0.03792  -1.11688
  -0.37805  -0.02296  -1.16177
  -0.37805  -0.06785  -1.28148
  -0.36308  -0.17260  -1.32638
  -0.37805  -0.23245  -1.40119
  -0.39301  -0.26238  -1.38623
  -0.37805  -0.29231  -1.38623
  -0.37805  -0.39705  -1.43112
  -0.45287  -0.38209  -1.35630
  -0.45287  -0.38209  -1.31141
  -0.48279  -0.18756  -1.32638
  -0.48279  -0.18756  -1.46105
  -0.49776  -0.21749  -1.49098
  -0.55761  -0.20252  -1.46105
  -0.55761  -0.14267  -1.47601
  -0.55761  -0.18756  -1.46105
  -0.57258  -0.17260  -1.50594
  -0.57258  -0.18756  -1.58076
  -0.61747  -0.12770  -1.55083
  -0.58754  -0.14267  -1.59572
  -0.60250  -0.06785  -1.58076
  -0.60250  -0.12770  -1.58076
  -0.58754  -0.09778  -1.59572
  -0.60250  -0.20252  -1.65558
  -0.60250  -0.21749  -1.55083
  -0.64740  -0.29231  -1.53587
  -0.58754  -0.41202  -1.44609
  -0.64740  -0.41202  -1.37127
  -0.57258  -0.36712  -1.29645
  -0.60250  -0.29231  -1.20667
  -0.60250  -0.39705  -1.08696
  -0.58754  -0.44194  -0.93732
  -0.55761  -0.50180  -0.77272
  -0.55761  -0.53173  -0.68293
  -0.52769  -0.53173  -0.51833
  -0.49776  -0.54669  -0.36870
  -0.51272  -0.60654  -0.21906
  -0.49776  -0.53173  -0.06942
  -0.49776  -0.50180   0.06525
  -0.46783  -0.42698   0.11014
  -0.46783  -0.44194   0.31964
  -0.45287  -0.44194   0.37949
  -0.45287  -0.38209   0.49920
  -0.48279  -0.42698   0.58899
  -0.42294  -0.39705   0.66380
  -0.46783  -0.29231   0.70870
  -0.52769  -0.20252   0.76855
  -0.51272  -0.15763   0.82841
  -0.49776  -0.17260   0.88826
  -0.51272  -0.03792   0.90322
  -0.49776  -0.09778   0.99301
  -0.49776  -0.03792   1.03790
  -0.48279  -0.06785   1.05286
  -0.49776   0.06682   1.05286
  -0.49776   0.09675   1.14264
  -0.48279   0.09675   1.15761
  -0.49776   0.09675   1.18754
  -0.46783   0.12668   1.21746
  -0.48279   0.14164   1.27732
  -0.46783   0.24639   1.33717
  -0.48279   0.20150   1.32221
  -0.45287   0.14164   1.33717
  -0.46783   0.20150   1.42696
  -0.48279   0.23143   1.51674
  -0.51272   0.27632   1.51674
  -0.54265   0.38106   1.51674
  -0.57258   0.36610   1.50177
  -0.58754   0.36610   1.48681
  -0.57258   0.35114   1.47185
  -0.61747   0.35114   1.45688
  -0.58754   0.30624   1.45688
  -0.60250   0.33617   1.38206
  -0.60250   0.29128   1.32221
  -0.63243   0.32121   1.29228
  -0.58754   0.35114   1.20250
  -0.60250   0.39603   1.12768
  -0.58754   0.42595   1.06783
  -0.57258   0.41099   0.94812
  -0.58754   0.45588   0.85833
  -0.60250   0.48581   0.79848
  -0.58754   0.38106   0.73862
  -0.60250   0.35114   0.67877
  -0.58754   0.29128   0.64884
  -0.58754   0.32121   0.63388
  -0.58754   0.30624   0.58899
  -0.58754   0.24639   0.55906
  -0.60250   0.24639   0.52913
  -0.60250   0.20150   0.45431
  -0.60250   0.14164   0.46928
  -0.63243   0.12668   0.43935
  -0.61747   0.09675   0.42438
  -0.58754   0.08179   0.45431
  -0.51272   0.06682   0.48424
  -0.49776   0.06682   0.43935
  -0.46783   0.06682   0.48424
  -0.40798   0.03690   0.51417
  -0.31819   0.00697   0.52913
  -0.22841  -0.03792   0.57402
  -0.15359  -0.06785   0.63388
  -0.06381  -0.08281   0.61891
   0.02597  -0.08281   0.63388
   0.08583  -0.03792   0.64884
   0.19057  -0.06785   0.60395
   0.28036  -0.06785   0.64884
   0.35518  -0.12770   0.64884
   0.42999  -0.11274   0.63388
   0.56467  -0.17260   0.70870
   0.66941  -0.14267   0.73862
   0.72927  -0.12770   0.70870
   0.81905  -0.05289   0.69373
   0.87891  -0.03792   0.72366
   0.95373  -0.00799   0.73862
   0.96869  -0.00799   0.76855
   0.96869   0.03690   0.75359
   1.04351  -0.02296   0.82841
   1.07344  -0.05289   0.87330
   1.10336  -0.11274   0.94812
   1.16322  -0.09778   1.02293
   1.17818  -0.06785   1.12768
   1.19315  -0.09778   1.14264
   1.19315  -0.09778   1.20250
   1.22307  -0.03792   1.26235
   1.22307  -0.08281   1.26235
   1.22307  -0.06785   1.32221
   1.22307  -0.05289   1.35214
   1.22307  -0.09778   1.38206
   1.22307  -0.09778   1.44192
   1.20811  -0.11274   1.41199
   1.25300  -0.12770   1.42696
   1.20811  -0.08281   1.42696
   1.23804  -0.06785   1.39703
   1.26797  -0.00799   1.36710
   1.28293   0.02193   1.36710
   1.28293   0.00697   1.38206
   1.28293  -0.03792   1.33717
   1.28293  -0.00799   1.29228
   1.26797   0.02193   1.27732
   1.23804   0.06682   1.23243
   1.22307   0.08179   1.18754
   1.20811   0.08179   1.15761
   1.17818   0.03690   1.14264
   1.14826   0.03690   1.11272
   1.10336  -0.00799   1.05286
   1.07344   0.02193   0.99301
   0.98365  -0.02296   1.02293
   0.96869  -0.00799   1.00797
   0.89387   0.03690   0.94812
   0.84898   0.08179   0.91819
   0.83402   0.05186   0.87330
   0.72927   0.09675   0.90322
   0.69934   0.03690   0.82841
   0.65445   0.08179   0.78351
   0.65445   0.09675   0.78351
   0.57963   0.17157   0.72366
   0.51978   0.12668   0.66380
   0.47489   0.17157   0.61891
   0.44496   0.11172   0.57402
   0.34021   0.12668   0.49920
   0.38510   0.14164   0.45431
   0.29532   0.08179   0.36453
   0.28036   0.06682   0.24482
   0.22050   0.09675   0.22986
   0.13072   0.05186   0.12511
   0.08583   0.05186   0.02036
  -0.01892   0.12668  -0.05446
  -0.09374   0.15661  -0.17417
  -0.13863   0.11172  -0.23402
  -0.19848   0.12668  -0.35373
  -0.25834   0.05186  -0.45848
  -0.31819  -0.02296  -0.53330
  -0.31819   0.00697  -0.56322
  -0.34812  -0.02296  -0.68293
  -0.42294  -0.05289  -0.71286
  -0.45287  -0.09778  -0.86250
  -0.48279  -0.08281  -0.93732
  -0.51272   0.00697  -0.95228
  -0.54265  -0.03792  -1.05703
  -0.54265  -0.06785  -1.17674
  -0.54265  -0.09778  -1.19170
  -0.58754  -0.08281  -1.29645
  -0.60250  -0.14267  -1.32638
  -0.64740  -0.05289  -1.40119
  -0.72221  -0.09778  -1.41616
  -0.76711  -0.12770  -1.46105
  -0.75214  -0.14267  -1.50594
  -0.78207  -0.09778  -1.53587
  -0.82696  -0.02296  -1.65558
  -0.82696  -0.00799  -1.62565
  -0.85689  -0.06785  -1.71543
  -0.88682  -0.08281  -1.74536
  -0.91674  -0.12770  -1.74536
  -0.90178  -0.08281  -1.80522
  -0.91674  -0.11274  -1.85011
  -0.91674  -0.06785  -1.86507
  -0.91674  -0.06785  -1.90996
  -0.93171  -0.11274  -2.01471
  -0.93171  -0.09778  -2.01471
  -0.93171  -0.12770  -2.04464
  -0.91674  -0.15763  -2.05960
  -0.94667  -0.03792  -2.07456
  -0.94667  -0.05289  -1.99975
  -0.97660  -0.03792  -2.01471
  -0.99156  -0.06785  -1.98478
  -0.94667  -0.11274  -1.96982
  -0.97660  -0.18756  -1.86507
  -0.90178  -0.24741  -1.74536
  -0.88682  -0.26238  -1.65558
  -0.85689  -0.30727  -1.52090
  -0.85689  -0.27734  -1.46105
  -0.88682  -0.20252  -1.40119
  -0.79703  -0.24741  -1.31141
  -0.79703  -0.26238  -1.25156
  -0.64740  -0.33720  -1.17674
  -0.60250  -0.32223  -1.10192
  -0.40798  -0.36712  -0.99717
  -0.36308  -0.30727  -0.93732
  -0.28827  -0.41202  -0.90739
  -0.19848  -0.38209  -0.90739
  -0.06381  -0.42698  -0.81761
   0.05590  -0.42698  -0.77272
   0.08583  -0.39705  -0.71286
   0.14568  -0.38209  -0.65301
   0.29532  -0.42698  -0.63804
   0.29532  -0.33720  -0.48841
   0.35518  -0.39705  -0.50337
   0.38510  -0.39705  -0.42855
   0.42999  -0.29231  -0.24899
   0.45992  -0.35216  -0.30884
   0.53474  -0.35216  -0.26395
   0.54970  -0.38209  -0.20409
   0.54970  -0.32223  -0.14424
   0.47489  -0.20252  -0.15920
   0.48985  -0.17260  -0.15920
   0.45992  -0.21749  -0.11431
   0.47489  -0.20252  -0.12928
   0.47489  -0.20252  -0.05446
   0.42999  -0.18756  -0.09935
   0.41503  -0.08281  -0.12928
   0.37014  -0.02296  -0.09935
   0.32525   0.08179  -0.15920
   0.29532   0.09675  -0.20409
   0.23547   0.18653  -0.20409
   0.22050   0.17157  -0.27891
   0.26539   0.15661  -0.33877
   0.25043   0.23143  -0.38366
   0.20554   0.26135  -0.44351
   0.20554   0.32121  -0.53330
   0.20554   0.35114  -0.68293
   0.20554   0.33617  -0.66797
   0.22050   0.38106  -0.77272
   0.19057   0.42595  -0.90739
   0.20554   0.42595  -1.02710
   0.22050   0.36610  -1.10192
   0.19057   0.42595  -1.20667
   0.17561   0.45588  -1.29645
   0.19057   0.45588  -1.38623
   0.16065   0.48581  -1.47601
   0.11576   0.47085  -1.49098
   0.07086   0.54567  -1.55083
   0.01101   0.54567  -1.58076
  -0.04885   0.53070  -1.55083
  -0.07877   0.51574  -1.67054
  -0.13863   0.44092  -1.61069
  -0.21345   0.48581  -1.58076
  -0.25834   0.47085  -1.53587
  -0.27330   0.47085  -1.53587
  -0.31819   0.45588  -1.44609
  -0.39301   0.48581  -1.41616
  -0.43790   0.47085  -1.35630
  -0.45287   0.45588  -1.34134
  -0.48279   0.42595  -1.31141
  -0.49776   0.41099  -1.20667
  -0.48279   0.39603  -1.17674
  -0.51272   0.32121  -1.10192
  -0.54265   0.27632  -1.05703
  -0.57258   0.29128  -1.05703
  -0.60250   0.29128  -0.96725
  -0.57258   0.18653  -0.96725
  -0.60250   0.17157  -0.96725
  -0.61747   0.11172  -0.93732
  -0.57258   0.05186  -0.87746
  -0.55761   0.00697  -0.80264
  -0.54265  -0.03792  -0.77272
  -0.57258   0.03690  -0.74279
  -0.54265  -0.02296  -0.68293
  -0.54265  -0.02296  -0.60812
  -0.48279  -0.03792  -0.56322
  -0.48279  -0.06785  -0.48841
  -0.45287  -0.08281  -0.39862
  -0.40798  -0.15763  -0.26395
  -0.39301  -0.12770  -0.17417
  -0.36308  -0.17260  -0.08438
  -0.33316  -0.12770  -0.02453
  -0.31819  -0.11274   0.14007
  -0.28827  -0.03792   0.15504
  -0.28827  -0.05289   0.27475
  -0.25834  -0.05289   0.36453
  -0.21345  -0.11274   0.45431
  -0.19848  -0.09778   0.54409
  -0.16856  -0.11274   0.63388
  -0.16856  -0.09778   0.72366
  -0.13863  -0.06785   0.76855
  -0.13863   0.00697   0.78351
  -0.12366   0.00697   0.82841
  -0.15359   0.03690   0.90322
  -0.10870  -0.00799   0.93315
  -0.06381  -0.00799   0.97804
  -0.03388   0.02193   1.02293
  -0.00395   0.00697   1.05286
   0.02597   0.00697   1.09775
   0.08583  -0.02296   1.12768
   0.13072   0.00697   1.23243
   0.19057  -0.03792   1.24739
   0.23547  -0.00799   1.33717
   0.31028  -0.00799   1.35214
   0.32525  -0.05289   1.41199
   0.40007  -0.05289   1.47185
   0.41503  -0.05289   1.51674
   0.45992  -0.03792   1.57659
   0.50481  -0.00799   1.68134
   0.54970  -0.02296   1.74119
   0.56467  -0.02296   1.86090
   0.59460  -0.03792   1.95069
   0.62452  -0.05289   1.98061
   0.63949  -0.09778   2.13025
   0.68438  -0.09778   2.24996
   0.71431  -0.15763   2.35471
   0.72927  -0.14267   2.45946
   0.77416  -0.18756   2.54924
   0.77416  -0.17260   2.63902
   0.77416  -0.15763   2.72880
   0.80409  -0.15763   2.77369
   0.87891  -0.14267   2.81859
   0.92380  -0.12770   2.86348
   0.93876  -0.15763   2.86348
   0.96869  -0.11274   2.89340
   0.96869  -0.15763   2.89340
   0.96869  -0.15763   2.92333
   0.95373  -0.14267   2.90837
   0.96869  -0.09778   2.87844
   0.95373  -0.09778   2.86348
   0.93876  -0.08281   2.83355
   0.90883  -0.02296   2.78866
   0.87891  -0.00799   2.75873
   0.90883   0.09675   2.68391
   0.83402   0.14164   2.63902
   0.81905   0.14164   2.62406
   0.81905   0.17157   2.50435
   0.77416   0.17157   2.47442
   0.72927   0.15661   2.41456
   0.66941   0.27632   2.38464
   0.66941   0.18653   2.29485
   0.57963   0.17157   2.20507
   0.54970   0.14164   2.13025
   0.44496   0.15661   2.04047
   0.50481   0.14164   1.99558
   0.44496   0.14164   1.89083
   0.41503   0.18653   1.74119
   0.40007   0.12668   1.68134
   0.32525   0.14164   1.59156
   0.25043   0.12668   1.42696
   0.25043   0.09675   1.32221
   0.22050   0.06682   1.18754
   0.19057   0.00697   1.02293
   0.16065  -0.00799   0.90322
   0.16065  -0.08281   0.78351
   0.08583  -0.03792   0.63388
   0.11576  -0.05289   0.52913
   0.10079  -0.08281   0.40942
   0.04094  -0.09778   0.27475
   0.08583  -0.18756   0.17000
   0.05590  -0.14267   0.09518
  -0.00395  -0.18756  -0.00957
   0.01101  -0.17260   0.06525
  -0.04885  -0.11274  -0.09935
  -0.09374  -0.17260  -0.11431
  -0.07877  -0.24741  -0.14424
  -0.13863  -0.20252  -0.17417
  -0.12366  -0.23245  -0.17417
  -0.15359  -0.35216  -0.17417
  -0.15359  -0.32223  -0.15920
  -0.16856  -0.32223  -0.17417
  -0.13863  -0.33720  -0.21906
  -0.15359  -0.32223  -0.20409
  -0.19848  -0.30727  -0.15920
  -0.12366  -0.35216  -0.17417
  -0.19848  -0.36712  -0.12928
  -0.19848  -0.29231  -0.23402
  -0.24337  -0.33720  -0.11431
  -0.19848  -0.38209  -0.15920
  -0.22841  -0.30727  -0.11431
  -0.25834  -0.30727  -0.18913
  -0.28827  -0.35216  -0.11431
  -0.28827  -0.36712  -0.18913
  -0.22841  -0.35216  -0.17417
  -0.25834  -0.35216  -0.15920
  -0.25834  -0.35216  -0.17417
  -0.25834  -0.38209  -0.14424
  -0.22841  -0.36712  -0.12928
  -0.25834  -0.41202  -0.14424
  -0.16856  -0.29231  -0.24899
  -0.18352  -0.30727  -0.15920
  -0.18352  -0.24741  -0.18913
  -0.07877  -0.23245  -0.17417
  -0.09374  -0.21749  -0.18913
  -0.06381  -0.20252  -0.17417
  -0.06381  -0.17260  -0.17417
  -0.03388  -0.20252  -0.15920
  -0.12366  -0.15763  -0.18913
  -0.06381  -0.14267  -0.17417
  -0.09374  -0.12770  -0.17417
  -0.13863   0.02193  -0.30884
  -0.16856  -0.02296  -0.26395
  -0.16856  -0.02296  -0.27891
  -0.18352  -0.02296  -0.21906
  -0.24337   0.08179  -0.24899
  -0.24337   0.11172  -0.32380
  -0.31819   0.09675  -0.33877
  -0.28827   0.09675  -0.35373
  -0.34812   0.24639  -0.39862
  -0.36308   0.29128  -0.51833
  -0.31819   0.29128  -0.56322
  -0.42294   0.27632  -0.60812
  -0.33316   0.21646  -0.66797
  -0.33316   0.20150  -0.68293
  -0.40798   0.23143  -0.81761
  -0.43790   0.26135  -0.87746
  -0.42294   0.27632  -0.89243
  -0.46783   0.27632  -0.96725
  -0.51272   0.30624  -1.10192
  -0.54265   0.30624  -1.14681
  -0.61747   0.27632  -1.10192
  -0.64740   0.26135  -1.17674
  -0.69229   0.23143  -1.17674
  -0.70725   0.18653  -1.22163
  -0.78207   0.15661  -1.20667
  -0.81200   0.17157  -1.25156
  -0.90178   0.17157  -1.23659
  -0.84193   0.12668  -1.29645
  -0.93171   0.17157  -1.26652
  -0.96164   0.17157  -1.29645
  -0.94667   0.23143  -1.29645
  -1.02149   0.23143  -1.31141
  -1.03645   0.30624  -1.29645
  -1.03645   0.29128  -1.32638
  -1.08135   0.33617  -1.34134
  -1.06638   0.30624  -1.38623
  -1.08135   0.26135  -1.44609
  -1.06638   0.30624  -1.47601
  -1.05142   0.26135  -1.52090
  -1.08135   0.27632  -1.58076
  -1.06638   0.18653  -1.62565
  -1.05142   0.26135  -1.67054
  -1.02149   0.18653  -1.70047
  -1.02149   0.14164  -1.79025
  -1.00653   0.17157  -1.90996
  -0.93171   0.14164  -1.92493
  -0.91674   0.11172  -2.02967
  -0.85689   0.12668  -2.04464
  -0.78207   0.06682  -2.11946
  -0.73718   0.06682  -2.17931
  -0.66236   0.08179  -2.22420
  -0.60250   0.12668  -2.19427
  -0.57258   0.12668  -2.26909
  -0.49776   0.09675  -2.29902
  -0.45287   0.15661  -2.29902
  -0.40798   0.12668  -2.32895
  -0.40798   0.17157  -2.34391
  -0.33316   0.15661  -2.35888
  -0.33316   0.14164  -2.32895
  -0.30323   0.15661  -2.32895
  -0.28827   0.09675  -2.29902
  -0.28827   0.08179  -2.31398
  -0.27330   0.08179  -2.31398
  -0.25834   0.03690  -2.26909
  -0.27330   0.05186  -2.31398
  -0.25834   0.02193  -2.26909
  -0.22841   0.02193  -2.28406
  -0.19848  -0.00799  -2.25413
  -0.19848  -0.02296  -2.26909
  -0.15359  -0.00799  -2.20924
  -0.12366  -0.08281  -2.23917
  -0.04885  -0.08281  -2.17931
  -0.04885  -0.11274  -2.17931
  -0.00395  -0.11274  -2.13442
   0.07086  -0.12770  -2.10449
   0.08583  -0.20252  -2.01471
