********************************************************************************
               CENTRO DE INSTRUMENTACION Y REGISTRO SISMICO  A.C.  
                       Coordinacion de Servicios Tecnicos
     Anaxagoras 814, Col. Narvarte, Benito Juarez, C.P. 03020 Mexico, D.F.
            Tels. 667 45 42/ 687 45  82             Fax. 669 25 12
********************************************************************************
ARCHIVO ESTANDAR DE ACELERACION:
VERSION DEL FORMATO                    : 2.0
NOMBRE DEL ARCHIVO                     : BA490007.211
FECHA Y HORA DE CREACION               : 02/JUL/04, 12:18
REF. CATALOGO ACELEROGRAMAS, SMIS 1996 : REGISTRO No.     /PAG.


================================================================================
DATOS DE LA ESTACION:
NOMBRE DE LA ESTACION                  : BUENOS AIRES
CLAVE DE LA ESTACION                   : BA49
LOCALIZACION DE LA ESTACION            : ESCUELA SECUNDARIA 102, DOCTOR MARQUEZ
                                       : Y EJE CENTRAL, BUENOS AIRES.
                                       :
                                       :
                                       :
COORDENADAS DE LA ESTACION             : 19.410 LAT. N 
                                       : 99.145 LONG. W 
ALTITUD (msnm)                         : 2233
TIPO DE SUELO                          : TERRENO BLANDO, MATERIAL COMPRESIBLE
                                       : (ARCILLAS)
                                       : 
INSTITUCION RESPONSABLE                : CIRES 
                                       :

================================================================================
DATOS DEL ACELEROGRAFO:
MODELO DEL ACELEROGRAFO                : SSA-1
NUMERO DE SERIE DEL ACELEROGRAFO       : 176
NUMERO DE CANALES                      : 3
ORIENTACION C1-C6 (rumbo;orientacion)  : /N00E/+V/N90E
ORIENTACION C7-C12 (rumbo;orientacion) :
VEL. DE MUESTREO, C1-C6 (muestras/s)   : /200/200/200
VEL. DE MUESTREO, C7-C12 (muestras/s)  :
ESC. COMPLETA DE SENSORES, C1-C6, (g)  : /2/2/2
ESC. COMPLETA DE SENSORES, C7-C12, (g) :
FREC. NAT. DE SENSORES, C1-C6, (Hz)    : /52.99/52.03/52.99
FREC. NAT. DE SENSORES, C7-C12, (Hz)   :
AMORTIGUAMIENTO DE SENSORES, C1-C6     : /.5589/.5469/.6096
AMORTIGUAMIENTO DE SENSORES, C7-C12    :
INTERVALO DE MUESTREO, C1-C6, (s)      : /0.005/0.005/0.005
INTERVALO DE MUESTREO, C7-C12, (s)     :
UMBRAL DE DISPARO, C1-C6, (Gal)        : /2/2/2
UMBRAL DE DISPARO, C7-C12, (Gal)       :
MEMORIA DE PREEVENTO (s)               : 15
TIEMPO DE POSEVENTO (s)                : 60


================================================================================
DATOS DEL SISMO:
FECHA DEL SISMO (GMT)                  : 21/JUL/00
HORA EPICENTRO (GMT)                   : 06:13:39,7
MAGNITUD(ES)                           : /Mb=5.4/Ms=5.1/Mc=5.4/Ma=5.5/Me=6.0
COORDENADAS DEL EPICENTRO              : 18.09 LAT. N
                                       : 98.97 LONG. W
PROFUNDIDAD FOCAL (km)                 : 48
FUENTE DE LOS DATOS EPICENTRALES       : SSN
                                       : INSTITUTO DE GEOFISICA, UNAM 

================================================================================
DATOS DE ESTE REGISTRO:
HORA DE LA PRIMERA MUESTRA (GMT)       : 06:14:07.00
EXACTITUD DEL TIEMPO (s)               :     
DURACION DEL REGISTRO (s), C1-C6       : /181.76/181.76/181.76
DURACION DEL REGISTRO (s), C7-C12      :
NUM. TOTAL DE MUESTRAS, C1-C6          : /36352/36352/36352
NUM. TOTAL DE MUESTRAS, C7-C12         :
ACEL. MAX. (Gal), C1-C6                : /13.05494/7.19451/13.834
ACEL. MAX., C1-C6, EN LA MUESTRA       :
ACEL. MAX. (Gal), C7-C12               :
ACEL. MAX., C7-C12, EN LA MUESTRA      :
UNIDADES DE LOS DATOS                  : Gal (cm/s/s)
FACTOR DE DECIMACION                   : 1
FORMATO DATOS (FORTRAN,10 campos/dato) : 3F10.5


================================================================================
CALIDAD DEL ACELEROGRAMA:
REGISTRO DIGITAL COMPLETO, CARECE DE TIEMPO ABSOLUTO.


================================================================================
COMENTARIOS:














================================================================================
DATOS DE ACELERACION:
---------+---------+---------+---------+---------+---------+---------+---------+
   CANAL-1   CANAL-2   CANAL-3   CANAL-4   CANAL-5   CANAL-6   CANAL-7   CANAL-8
      N00E        +V      N90E
---------+---------+---------+---------+---------+---------+---------+---------+
[...]
   8.74494  -3.57549  -4.01400
   8.74494  -3.57549  -3.53400
   8.74494  -3.34549  -3.05400
   8.74494  -3.34549  -2.57400
   8.74494  -3.10549  -2.09400
   8.50494  -2.86549  -1.61400
   8.50494  -2.86549  -1.13400
   8.26494  -2.62549  -0.89400
   8.26494  -2.38549  -0.41400
   8.02494  -2.38549  -0.18400
   8.02494  -2.14549   0.05600
   8.02494  -1.90549   0.29600
   7.78494  -1.90549   0.29600
   7.55494  -1.66549   0.53600
   7.31494  -1.42549   0.77600
   7.07494  -1.42549   1.01600
   7.07494  -1.42549   1.25600
   6.83494  -1.18549   1.73600
   6.59494  -1.18549   1.97600
   6.35494  -0.94549   2.45600
   6.11494  -0.70549   2.69600
   5.87494  -0.70549   3.17600
   5.63494  -0.46549   3.65600
   5.39494  -0.46549   4.13600
   5.39494  -0.22549   4.60600
   5.15494   0.01451   4.84600
   5.15494   0.25451   5.32600
   4.91494   0.25451   5.56600
   4.91494   0.49451   6.04600
   4.67494   0.73451   6.28600
   4.43494   0.97451   6.52600
   4.43494   1.21451   6.52600
   4.19494   1.21451   6.52600
   3.95494   1.45451   6.52600
   3.95494   1.68451   6.52600
   3.71494   1.92451   6.52600
   3.47494   1.92451   6.52600
   3.47494   2.16451   6.52600
   2.99494   2.16451   6.52600
   2.99494   2.40451   6.52600
   2.76494   2.40451   6.76600
   2.76494   2.64451   6.76600
   2.52494   2.88451   7.00600
   2.52494   3.12451   7.00600
   2.52494   3.12451   7.24600
   2.52494   3.36451   7.48600
   2.52494   3.36451   7.48600
   2.52494   3.36451   7.48600
   2.52494   3.12451   7.72600
   2.76494   3.12451   7.72600
   2.76494   2.88451   7.48600
   2.76494   2.64451   7.48600
   2.52494   2.40451   7.48600
   2.52494   2.40451   7.24600
   2.52494   2.16451   7.24600
   2.52494   1.92451   7.00600
   2.52494   1.92451   7.00600
   2.28494   1.68451   7.00600
   2.28494   1.68451   6.76600
   2.04494   1.45451   6.76600
   1.80494   1.45451   7.00600
   1.56494   1.45451   7.00600
   1.08494   1.45451   7.00600
   0.84494   1.68451   7.24600
   0.60494   1.68451   7.48600
   0.12494   1.92451   7.72600
  -0.11506   2.16451   7.96600
  -0.35506   2.16451   8.20600
  -0.35506   2.40451   8.44600
  -0.59506   2.64451   8.68600
  -0.83506   2.40451   8.92600
  -1.07506   2.40451   9.16600
  -1.07506   2.16451   9.16600
  -1.07506   1.92451   9.16600
  -1.31506   1.68451   9.16600
  -1.31506   1.21451   8.92600
  -1.31506   0.97451   8.68600
  -1.31506   0.73451   8.44600
  -1.31506   0.49451   7.96600
  -1.55506   0.25451   7.72600
  -1.79506   0.25451   7.24600
  -1.79506   0.01451   7.00600
  -2.02506   0.01451   6.52600
  -2.26506   0.01451   6.28600
  -2.50506   0.01451   6.04600
  -2.74506   0.01451   5.80600
  -2.98506   0.25451   5.32600
  -3.22506   0.25451   5.08600
  -3.22506   0.49451   4.60600
  -3.46506   0.73451   4.13600
  -3.46506   0.73451   3.65600
  -3.46506   0.73451   3.17600
  -3.70506   0.97451   2.93600
  -3.70506   0.97451   2.21600
  -3.70506   0.97451   1.73600
  -3.70506   0.97451   1.25600
  -3.94506   1.21451   0.53600
  -3.94506   0.97451   0.05600
  -4.18506   0.97451  -0.41400
  -4.18506   0.73451  -1.13400
  -4.42506   0.73451  -1.37400
  -4.66506   0.49451  -1.85400
  -4.66506   0.25451  -2.33400
  -4.66506   0.01451  -2.33400
  -4.90506  -0.22549  -2.57400
  -4.90506  -0.22549  -3.05400
  -4.90506  -0.46549  -3.29400
  -5.14506  -0.70549  -3.29400
  -5.14506  -0.70549  -3.53400
  -5.38506  -0.70549  -3.77400
  -5.62506  -0.70549  -4.01400
  -5.62506  -0.46549  -4.49400
  -5.86506  -0.46549  -4.49400
  -6.10506  -0.46549  -4.73400
  -6.10506  -0.46549  -5.21400
  -6.34506  -0.46549  -5.44400
  -6.34506  -0.46549  -5.68400
  -6.58506  -0.70549  -5.68400
  -6.58506  -0.70549  -5.92400
  -6.34506  -0.94549  -6.16400
  -6.34506  -1.18549  -6.16400
  -6.10506  -1.18549  -6.16400
  -6.10506  -1.42549  -6.16400
  -5.86506  -1.66549  -6.16400
  -5.62506  -1.66549  -6.16400
  -5.38506  -1.90549  -6.16400
  -5.14506  -1.90549  -5.92400
  -4.90506  -1.90549  -5.92400
  -4.66506  -1.66549  -5.92400
  -4.18506  -1.66549  -5.68400
  -3.94506  -1.66549  -5.68400
  -3.70506  -1.66549  -5.44400
  -3.46506  -1.42549  -5.44400
  -3.22506  -1.18549  -5.21400
  -2.74506  -1.18549  -5.21400
  -2.50506  -1.18549  -4.97400
  -2.26506  -1.18549  -4.97400
  -1.79506  -1.42549  -4.97400
  -1.55506  -1.42549  -4.73400
  -1.31506  -1.66549  -4.73400
  -1.07506  -1.90549  -4.49400
  -0.83506  -2.14549  -4.49400
  -0.59506  -2.14549  -4.25400
  -0.35506  -2.14549  -4.01400
  -0.11506  -2.14549  -3.77400
  -0.11506  -2.14549  -3.53400
   0.12494  -2.14549  -3.29400
   0.12494  -2.14549  -3.05400
   0.12494  -2.14549  -2.57400
   0.12494  -1.90549  -2.33400
   0.12494  -1.90549  -1.85400
   0.12494  -1.90549  -1.61400
   0.12494  -1.90549  -1.37400
   0.12494  -1.90549  -0.89400
   0.12494  -1.90549  -0.89400
   0.12494  -1.90549  -0.41400
   0.36494  -1.90549  -0.18400
   0.60494  -1.90549   0.05600
   0.60494  -1.90549   0.05600
   0.84494  -2.14549   0.29600
   0.84494  -2.14549   0.53600
   0.84494  -2.14549   0.77600
   0.84494  -2.38549   0.77600
   0.84494  -2.38549   0.77600
   1.08494  -2.62549   0.77600
   1.08494  -2.62549   0.77600
   1.08494  -2.62549   0.77600
   1.08494  -2.62549   0.77600
   1.08494  -2.62549   0.77600
   1.08494  -2.38549   0.77600
   1.32494  -2.14549   0.77600
   1.32494  -2.14549   0.77600
   1.56494  -1.90549   0.77600
   1.56494  -1.66549   0.77600
   1.56494  -1.42549   0.77600
   1.56494  -1.18549   1.01600
   1.56494  -0.94549   1.01600
   1.32494  -0.70549   1.01600
   1.08494  -0.46549   1.01600
   1.08494  -0.22549   1.01600
   0.84494   0.01451   0.77600
   0.60494   0.49451   0.77600
   0.60494   0.73451   0.77600
   0.12494   0.97451   0.77600
   0.12494   1.45451   0.77600
  -0.11506   1.68451   0.77600
  -0.35506   1.92451   0.77600
  -0.59506   2.16451   0.77600
  -0.83506   2.40451   0.77600
  -1.07506   2.64451   0.77600
  -1.31506   2.64451   0.77600
  -1.31506   2.88451   0.77600
  -1.55506   2.88451   0.77600
  -1.55506   2.88451   0.53600
  -1.79506   2.88451   0.53600
  -2.02506   3.12451   0.53600
  -2.02506   3.12451   0.29600
  -2.02506   3.12451   0.05600
  -2.26506   2.88451   0.05600
  -2.26506   2.88451  -0.18400
  -2.50506   2.88451  -0.18400
  -2.74506   2.88451  -0.41400
  -2.98506   2.88451  -0.41400
  -2.98506   2.88451  -0.65400
  -3.22506   3.12451  -0.89400
  -3.46506   3.12451  -0.89400
  -3.46506   3.36451  -1.13400
  -3.70506   3.36451  -1.37400
  -3.70506   3.60451  -1.37400
  -3.94506   3.60451  -1.61400
  -3.94506   3.84451  -1.61400
  -4.18506   3.84451  -1.85400
  -4.18506   3.84451  -1.85400
  -4.18506   3.84451  -1.85400
  -4.18506   3.84451  -2.09400
  -4.18506   3.60451  -2.09400
  -4.18506   3.60451  -2.09400
  -4.18506   3.60451  -2.33400
  -3.94506   3.36451  -2.09400
  -3.94506   3.36451  -2.09400
  -3.70506   3.12451  -2.09400
  -3.70506   2.88451  -2.09400
  -3.46506   2.64451  -1.85400
  -3.46506   2.16451  -1.85400
  -3.22506   1.68451  -1.61400
  -3.22506   1.45451  -1.37400
  -2.98506   0.97451  -1.37400
  -2.98506   0.49451  -1.13400
  -2.74506   0.25451  -0.89400
  -2.50506   0.01451  -0.65400
  -2.26506  -0.22549  -0.65400
  -2.02506  -0.46549  -0.41400
  -1.79506  -0.46549  -0.41400
  -1.31506  -0.70549  -0.18400
  -1.31506  -0.70549   0.05600
  -1.07506  -0.94549   0.05600
  -0.83506  -1.18549   0.29600
  -0.59506  -1.18549   0.29600
  -0.35506  -1.42549   0.29600
  -0.35506  -1.66549   0.29600
  -0.11506  -1.90549   0.53600
   0.12494  -2.14549   0.53600
   0.12494  -2.38549   0.53600
   0.36494  -2.62549   0.77600
   0.60494  -2.62549   1.25600
   0.84494  -2.86549   1.25600
   0.84494  -3.10549   1.49600
   1.08494  -3.34549   1.97600
   1.08494  -3.57549   2.21600
   1.32494  -3.81549   2.69600
   1.32494  -4.05549   2.93600
   1.56494  -4.05549   3.41600
   1.56494  -4.05549   3.65600
   1.32494  -4.05549   3.89600
   1.56494  -3.81549   4.13600
   1.56494  -3.57549   4.13600
   1.56494  -3.57549   4.37600
   1.56494  -3.34549   4.60600
   1.32494  -3.10549   4.84600
   1.32494  -2.86549   5.08600
   1.08494  -2.62549   5.08600
   1.08494  -2.38549   5.32600
   0.84494  -2.38549   5.56600
   0.60494  -2.38549   5.80600
   0.60494  -2.38549   5.80600
   0.36494  -2.38549   6.04600
   0.12494  -2.62549   6.28600
   0.12494  -2.62549   6.52600
  -0.11506  -2.62549   6.76600
  -0.35506  -2.62549   7.00600
  -0.59506  -2.62549   7.24600
  -0.59506  -2.62549   7.48600
  -0.83506  -2.62549   7.72600
  -1.07506  -2.38549   7.96600
  -1.31506  -2.38549   7.96600
  -1.55506  -2.14549   8.20600
  -1.79506  -2.14549   8.20600
  -2.02506  -1.90549   8.44600
  -2.26506  -1.66549   8.20600
  -2.50506  -1.42549   8.20600
  -2.74506  -1.18549   8.20600
  -2.74506  -0.94549   8.20600
  -2.98506  -0.70549   7.96600
  -2.98506  -0.46549   7.96600
  -2.98506  -0.22549   7.96600
  -3.22506   0.01451   7.72600
  -3.46506   0.01451   7.72600
  -3.46506   0.25451   7.48600
  -3.70506   0.25451   7.48600
  -3.94506   0.49451   7.24600
  -4.18506   0.49451   7.00600
  -4.42506   0.97451   6.76600
  -4.66506   1.21451   6.76600
  -5.14506   1.45451   6.52600
  -5.38506   1.92451   6.28600
  -5.62506   2.16451   6.04600
  -6.10506   2.64451   6.04600
  -6.34506   2.88451   5.80600
  -6.58506   3.12451   5.80600
  -7.05506   3.36451   5.56600
  -7.05506   3.60451   5.32600
  -7.05506   3.84451   5.08600
  -7.05506   3.84451   4.84600
  -7.29506   3.84451   4.60600
  -7.05506   4.08451   4.13600
  -7.05506   4.08451   3.89600
  -6.82506   4.08451   3.41600
  -6.82506   4.08451   3.17600
  -6.58506   4.08451   2.69600
  -6.34506   4.08451   2.45600
  -6.34506   3.84451   1.97600
  -6.10506   3.84451   1.73600
  -6.10506   3.84451   1.25600
  -6.10506   3.84451   1.01600
  -6.10506   3.84451   0.53600
  -6.10506   4.08451   0.05600
  -5.86506   4.08451  -0.41400
  -5.86506   4.08451  -0.89400
  -5.86506   4.08451  -1.37400
  -5.62506   4.08451  -1.85400
  -5.38506   3.84451  -2.33400
  -5.38506   3.60451  -3.05400
  -5.14506   3.36451  -3.53400
  -5.14506   2.88451  -4.25400
  -4.90506   2.40451  -4.73400
  -4.66506   1.92451  -5.44400
  -4.66506   1.68451  -5.92400
  -4.42506   1.21451  -6.64400
  -4.18506   0.73451  -7.36400
  -4.18506   0.25451  -7.84400
  -3.94506   0.01451  -8.32400
  -3.70506  -0.22549  -9.04400
  -3.46506  -0.46549  -9.28400
  -3.46506  -0.46549  -9.76400
  -3.46506  -0.46549 -10.23400
  -3.46506  -0.46549 -10.47400
  -3.46506  -0.46549 -10.95400
  -3.70506  -0.46549 -10.95400
  -3.70506  -0.46549 -11.19400
  -3.94506  -0.46549 -11.67400
  -4.18506  -0.22549 -11.91400
  -4.42506  -0.22549 -12.15400
  -4.42506  -0.22549 -12.39400
  -4.66506  -0.22549 -12.63400
  -4.66506  -0.22549 -12.87400
  -4.66506  -0.22549 -13.11400
  -4.66506  -0.22549 -13.35400
  -4.66506  -0.46549 -13.59400
  -4.66506  -0.46549 -13.83400
  -4.66506  -0.70549 -13.83400
  -4.66506  -0.94549 -13.83400
  -4.66506  -1.18549 -13.59400
  -4.66506  -1.18549 -13.59400
  -4.42506  -1.42549 -13.59400
  -4.42506  -1.42549 -13.35400
  -4.42506  -1.66549 -13.11400
  -4.18506  -1.66549 -12.87400
  -4.18506  -1.90549 -12.63400
  -3.94506  -2.14549 -12.15400
  -3.94506  -2.14549 -11.91400
  -3.70506  -2.38549 -11.67400
  -3.46506  -2.62549 -11.19400
  -3.22506  -2.62549 -10.71400
  -3.22506  -2.86549 -10.23400
  -2.98506  -2.86549  -9.76400
  -2.98506  -2.86549  -9.52400
  -2.74506  -2.62549  -9.04400
  -2.74506  -2.38549  -8.56400
  -2.50506  -2.14549  -8.08400
  -2.26506  -1.90549  -7.60400
  -2.26506  -1.66549  -7.12400
  -2.02506  -1.18549  -6.64400
  -2.02506  -0.94549  -5.92400
  -1.79506  -0.70549  -5.44400
  -1.55506  -0.70549  -4.97400
  -1.31506  -0.70549  -4.25400
  -1.07506  -0.94549  -3.77400
  -0.83506  -0.94549  -3.53400
  -0.35506  -1.42549  -2.81400
   0.12494  -1.66549  -2.33400
   0.60494  -2.14549  -1.85400
   0.84494  -2.38549  -1.37400
   1.32494  -2.86549  -0.89400
   1.80494  -3.10549  -0.41400
   2.04494  -3.34549   0.29600
   2.28494  -3.34549   0.53600
   2.28494  -3.34549   1.01600
   2.52494  -3.34549   1.49600
   2.52494  -3.10549   1.73600
   2.52494  -2.62549   2.21600
   2.52494  -2.38549   2.45600
   2.52494  -2.14549   2.45600
   2.52494  -1.66549   2.69600
   2.52494  -1.18549   2.93600
   2.76494  -0.94549   3.17600
   2.76494  -0.70549   3.41600
   2.99494  -0.46549   3.65600
   3.23494  -0.22549   3.89600
   3.47494   0.01451   4.13600
   3.47494   0.25451   4.37600
   3.71494   0.25451   4.84600
   3.95494   0.49451   5.08600
   4.19494   0.49451   5.56600
   4.19494   0.49451   5.80600
   4.43494   0.73451   6.28600
   4.43494   0.73451   6.52600
   4.43494   0.73451   6.76600
   4.67494   0.73451   6.76600
   4.67494   0.73451   6.76600
   4.67494   0.73451   7.00600
   4.91494   0.73451   7.00600
   4.91494   0.97451   6.76600
   4.91494   1.21451   6.76600
   5.15494   1.21451   6.76600
   5.39494   1.45451   6.52600
   5.39494   1.45451   6.28600
   5.39494   1.68451   6.04600
   5.39494   1.68451   6.04600
   5.39494   1.68451   5.56600
   5.39494   1.68451   5.32600
   5.39494   1.68451   5.08600
   5.39494   1.68451   4.60600
   5.39494   1.92451   4.37600
   5.39494   1.92451   4.13600
   5.15494   1.92451   3.65600
   4.91494   2.16451   3.17600
   4.91494   2.40451   2.93600
   4.67494   2.64451   2.45600
   4.43494   2.88451   2.21600
   4.19494   3.12451   1.73600
   4.19494   3.12451   1.49600
   3.95494   3.36451   0.77600
   3.71494   3.60451   0.53600
   3.71494   3.60451   0.05600
   3.47494   3.60451  -0.41400
   3.23494   3.60451  -0.65400
   3.23494   3.60451  -1.13400
   2.99494   3.36451  -1.37400
   2.76494   3.36451  -1.85400
   2.76494   3.12451  -2.09400
   2.52494   3.12451  -2.33400
   2.28494   2.88451  -2.57400
   2.28494   2.64451  -2.81400
   2.04494   2.40451  -2.81400
   1.80494   2.40451  -2.81400
   1.56494   2.16451  -2.81400
   1.32494   1.92451  -2.81400
   1.08494   2.16451  -2.57400
   1.08494   2.16451  -2.57400
   0.84494   2.16451  -2.33400
   0.60494   2.16451  -2.09400
   0.60494   2.16451  -1.85400
   0.60494   2.16451  -1.85400
   0.60494   2.16451  -1.61400
   0.60494   1.92451  -1.61400
   0.84494   1.92451  -1.37400
   0.84494   1.68451  -1.37400
   1.08494   1.45451  -1.13400
   1.32494   1.21451  -1.13400
   1.56494   0.97451  -1.13400
   1.80494   0.73451  -1.13400
   2.04494   0.49451  -1.13400
   2.28494   0.25451  -0.89400
   2.52494   0.25451  -0.89400
   2.52494   0.01451  -0.65400
   2.76494  -0.22549  -0.65400
   2.76494  -0.22549  -0.41400
   2.99494  -0.22549  -0.18400
   3.23494  -0.46549   0.05600
   3.23494  -0.70549   0.05600
   3.47494  -0.70549   0.29600
   3.71494  -1.18549   0.53600
   3.95494  -1.42549   0.77600
   4.19494  -1.66549   1.01600
   4.43494  -2.14549   1.01600
   4.67494  -2.38549   1.25600
   4.67494  -2.62549   1.49600
   4.91494  -2.86549   1.73600
   5.15494  -3.10549   2.21600
   5.15494  -3.10549   2.21600
   5.15494  -3.34549   2.45600
   5.15494  -3.34549   2.93600
   5.15494  -3.34549   2.93600
   5.15494  -3.10549   3.17600
   5.15494  -3.10549   3.41600
   4.91494  -2.86549   3.41600
   4.91494  -2.62549   3.65600
   4.91494  -2.62549   3.89600
   4.91494  -2.38549   3.89600
   4.91494  -2.14549   4.13600
   5.15494  -2.38549   4.13600
   5.15494  -2.14549   4.37600
   5.39494  -2.14549   4.60600
   5.39494  -2.38549   4.84600
   5.39494  -2.62549   5.08600
   5.39494  -2.62549   5.32600
   5.39494  -2.86549   5.56600
   5.39494  -2.86549   5.56600
