********************************************************************************
               CENTRO DE INSTRUMENTACION Y REGISTRO SISMICO  A.C.  
                       Coordinacion de Servicios Tecnicos
     Anaxagoras 814, Col. Narvarte, Benito Juarez, C.P. 03020 Mexico, D.F.
            Tels. 667 45 42/ 687 45  82             Fax. 669 25 12
********************************************************************************
ARCHIVO ESTANDAR DE ACELERACION:
VERSION DEL FORMATO                    : 2.0
NOMBRE DEL ARCHIVO                     : BA499912.291
FECHA Y HORA DE CREACION               : 31/ENERO/2000, 10:10
REF. CATALOGO ACELEROGRAMAS, SMIS 1996 : REGISTRO No.     /PAG.


================================================================================
DATOS DE LA ESTACION:
NOMBRE DE LA ESTACION                  : BUENOS AIRES
CLAVE DE LA ESTACION                   : BA49
LOCALIZACION DE LA ESTACION            : ESCUELA SECUNDARIA 102, DOCTOR MARQUEZ
                                       : Y EJE CENTRAL, BUENOS AIRES.
                                       :
                                       :
                                       :
COORDENADAS DE LA ESTACION             : 19.410 LAT. N 
                                       : 99.145 LONG. W 
ALTITUD (msnm)                         : 2233
TIPO DE SUELO                          : TERRENO BLANDO, MATERIAL COMPRESIBLE
                                       : (ARCILLAS)
                                       : 
INSTITUCION RESPONSABLE                : CIRES 
                                       :

================================================================================
DATOS DEL ACELEROGRAFO:
MODELO DEL ACELEROGRAFO                : SSA-1
NUMERO DE SERIE DEL ACELEROGRAFO       : 176
NUMERO DE CANALES                      : 3
ORIENTACION C1-C6 (rumbo;orientacion)  : /N00E/+V/N90E
ORIENTACION C7-C12 (rumbo;orientacion) :
VEL. DE MUESTREO, C1-C6 (muestras/s)   : /200/200/200
VEL. DE MUESTREO, C7-C12 (muestras/s)  :
ESC. COMPLETA DE SENSORES, C1-C6, (g)  : /2/2/2
ESC. COMPLETA DE SENSORES, C7-C12, (g) :
FREC. NAT. DE SENSORES, C1-C6, (Hz)    : /52.99/52.03/52.99
FREC. NAT. DE SENSORES, C7-C12, (Hz)   :
AMORTIGUAMIENTO DE SENSORES, C1-C6     : /.5589/.5469/.6096
AMORTIGUAMIENTO DE SENSORES, C7-C12    :
INTERVALO DE MUESTREO, C1-C6, (s)      : /0.005/0.005/0.005
INTERVALO DE MUESTREO, C7-C12, (s)     :
UMBRAL DE DISPARO, C1-C6, (Gal)        : /2/2/2
UMBRAL DE DISPARO, C7-C12, (Gal)       :
MEMORIA DE PREEVENTO (s)               : 15
TIEMPO DE POSEVENTO (s)                : 60


================================================================================
DATOS DEL SISMO:
FECHA DEL SISMO (GMT)                  : 29/DIC/99
HORA EPICENTRO (GMT)                   : 05:19:46.0
MAGNITUD(ES)                           : /Mb=6.1/Ms=5.4/Mc=5.1/Ma=5.6/Me=5.9
COORDENADAS DEL EPICENTRO              : 18.02 LAT. N
                                       : 101.68 LONG. W
PROFUNDIDAD FOCAL (km)                 : 82.0
FUENTE DE LOS DATOS EPICENTRALES       : SSN
                                       : INSTITUTO DE GEOFISICA, UNAM

================================================================================
DATOS DE ESTE REGISTRO:
HORA DE LA PRIMERA MUESTRA (GMT)       : 05:21:42.00
EXACTITUD DEL TIEMPO (s)               :     
DURACION DEL REGISTRO (s), C1-C6       : /78.08/78.08/78.08
DURACION DEL REGISTRO (s), C7-C12      :
NUM. TOTAL DE MUESTRAS, C1-C6          : /15616/15616/15616
NUM. TOTAL DE MUESTRAS, C7-C12         :
ACEL. MAX. (Gal), C1-C6                : /7.20972/1.83741/5.78434
ACEL. MAX., C1-C6, EN LA MUESTRA       :
ACEL. MAX. (Gal), C7-C12               :
ACEL. MAX., C7-C12, EN LA MUESTRA      :
UNIDADES DE LOS DATOS                  : Gal (cm/s/s)
FACTOR DE DECIMACION                   : 1
FORMATO DATOS (FORTRAN,10 campos/dato) : 3F10.5


================================================================================
CALIDAD DEL ACELEROGRAMA:
REGISTRO DIGITAL COMPLETO, CARECE DE TIEMPO ABSOLUTO.


================================================================================
COMENTARIOS:














================================================================================
DATOS DE ACELERACION:
---------+---------+---------+---------+---------+---------+---------+---------+
   CANAL-1   CANAL-2   CANAL-3   CANAL-4   CANAL-5   CANAL-6   CANAL-7   CANAL-8
      N00E        +V      N90E
---------+---------+---------+---------+---------+---------+---------+---------+
[...]
   0.73972  -0.08259   0.20566
   0.49972  -0.08259   0.20566
   0.25972   0.15741  -0.03434
   0.25972   0.15741   0.20566
   0.25972  -0.08259  -0.03434
   0.01972   0.15741   0.20566
   0.01972   0.15741  -0.03434
  -0.22028   0.15741  -0.03434
  -0.22028   0.15741  -0.03434
  -0.22028   0.15741  -0.03434
  -0.45028  -0.08259  -0.03434
  -0.45028  -0.08259  -0.03434
  -0.69028   0.15741  -0.03434
  -0.69028  -0.08259  -0.03434
  -0.69028  -0.08259  -0.27434
  -0.93028  -0.08259  -0.03434
  -0.93028  -0.08259  -0.27434
  -1.17028  -0.08259  -0.27434
  -1.17028  -0.08259  -0.27434
  -1.41028   0.15741  -0.27434
  -1.41028  -0.08259  -0.27434
  -1.65028   0.15741  -0.27434
  -1.65028   0.15741  -0.27434
  -1.65028   0.15741  -0.27434
  -1.89028   0.15741  -0.27434
  -1.89028   0.15741  -0.27434
  -2.13028   0.15741  -0.27434
  -2.13028  -0.08259  -0.51434
  -2.13028   0.15741  -0.51434
  -2.37028   0.15741  -0.51434
  -2.37028   0.15741  -0.51434
  -2.61028   0.15741  -0.51434
  -2.61028   0.15741  -0.51434
  -2.61028   0.15741  -0.51434
  -2.61028   0.15741  -0.51434
  -2.85028   0.15741  -0.51434
  -2.85028   0.15741  -0.51434
  -2.85028   0.15741  -0.51434
  -3.09028   0.15741  -0.51434
  -3.09028   0.15741  -0.51434
  -3.09028   0.15741  -0.51434
  -3.09028   0.15741  -0.51434
  -3.09028   0.15741  -0.75434
  -3.33028   0.15741  -0.51434
  -3.33028   0.15741  -0.75434
  -3.33028   0.15741  -0.75434
  -3.57028   0.15741  -0.75434
  -3.57028   0.15741  -0.75434
  -3.57028   0.15741  -0.75434
  -3.57028   0.15741  -0.75434
  -3.57028   0.15741  -0.75434
  -3.81028   0.15741  -0.75434
  -3.81028  -0.08259  -0.75434
  -3.81028  -0.08259  -0.75434
  -3.81028  -0.08259  -0.75434
  -3.81028  -0.08259  -0.75434
  -3.81028  -0.08259  -0.75434
  -4.05028  -0.08259  -0.75434
  -4.05028  -0.08259  -0.75434
  -4.05028  -0.32259  -0.75434
  -4.05028  -0.08259  -0.75434
  -4.05028  -0.08259  -0.75434
  -4.05028  -0.32259  -0.51434
  -4.05028  -0.32259  -0.51434
  -4.05028  -0.32259  -0.51434
  -4.29028  -0.32259  -0.51434
  -4.29028  -0.32259  -0.51434
  -4.29028  -0.32259  -0.51434
  -4.29028  -0.32259  -0.51434
  -4.29028  -0.32259  -0.51434
  -4.29028  -0.56259  -0.51434
  -4.29028  -0.56259  -0.51434
  -4.53028  -0.56259  -0.51434
  -4.53028  -0.56259  -0.51434
  -4.53028  -0.56259  -0.51434
  -4.29028  -0.56259  -0.51434
  -4.53028  -0.56259  -0.51434
  -4.53028  -0.56259  -0.51434
  -4.29028  -0.79259  -0.27434
  -4.53028  -0.56259  -0.27434
  -4.53028  -1.03259  -0.27434
  -4.53028  -0.79259  -0.27434
  -4.53028  -0.79259  -0.27434
  -4.53028  -0.79259  -0.27434
  -4.53028  -0.79259  -0.27434
  -4.53028  -0.79259  -0.27434
  -4.53028  -0.79259  -0.27434
  -4.53028  -0.79259  -0.27434
  -4.53028  -1.03259  -0.27434
  -4.53028  -0.79259  -0.27434
  -4.53028  -0.79259  -0.27434
  -4.53028  -0.79259  -0.27434
  -4.53028  -0.79259  -0.03434
  -4.53028  -0.79259  -0.27434
  -4.53028  -0.79259  -0.27434
  -4.29028  -0.79259  -0.27434
  -4.29028  -0.79259  -0.27434
  -4.29028  -0.79259  -0.27434
  -4.29028  -0.79259  -0.27434
  -4.29028  -0.79259  -0.27434
  -4.29028  -0.79259  -0.27434
  -4.29028  -0.79259  -0.27434
  -4.29028  -0.79259  -0.27434
  -4.29028  -0.79259  -0.27434
  -4.05028  -0.79259  -0.27434
  -4.05028  -0.79259  -0.51434
  -4.05028  -0.79259  -0.51434
  -4.05028  -0.79259  -0.51434
  -4.05028  -0.79259  -0.51434
  -3.81028  -0.79259  -0.51434
  -4.05028  -0.79259  -0.51434
  -3.81028  -0.79259  -0.51434
  -3.81028  -0.79259  -0.75434
  -4.05028  -0.79259  -0.75434
  -3.81028  -0.79259  -0.75434
  -3.81028  -0.79259  -0.75434
  -3.81028  -0.79259  -0.75434
  -3.81028  -0.79259  -0.75434
  -3.57028  -0.79259  -0.75434
  -3.57028  -0.79259  -0.99434
  -3.57028  -0.79259  -0.99434
  -3.57028  -0.56259  -0.99434
  -3.57028  -0.56259  -0.99434
  -3.57028  -0.56259  -0.99434
  -3.33028  -0.56259  -1.23434
  -3.33028  -0.79259  -1.23434
  -3.33028  -0.79259  -1.23434
  -3.33028  -0.56259  -1.23434
  -3.57028  -0.79259  -1.23434
  -3.33028  -0.56259  -1.47434
  -3.33028  -0.56259  -1.71434
  -3.57028  -0.56259  -1.47434
  -3.33028  -0.56259  -1.47434
  -3.33028  -0.56259  -1.47434
  -3.33028  -0.56259  -1.47434
  -3.09028  -0.56259  -1.71434
  -3.33028  -0.56259  -1.71434
  -3.09028  -0.56259  -1.71434
  -3.09028  -0.56259  -1.71434
  -3.09028  -0.56259  -1.71434
  -3.09028  -0.32259  -1.95434
  -3.09028  -0.32259  -1.95434
  -3.09028  -0.32259  -1.95434
  -3.09028  -0.32259  -1.95434
  -3.09028  -0.32259  -1.95434
  -3.09028  -0.32259  -1.95434
  -3.33028  -0.08259  -2.19434
  -3.33028  -0.32259  -1.95434
  -3.33028  -0.08259  -1.95434
  -3.33028  -0.08259  -1.95434
  -3.33028  -0.08259  -1.95434
  -3.33028  -0.08259  -1.95434
  -3.33028  -0.08259  -1.95434
  -3.33028   0.15741  -1.95434
  -3.33028   0.15741  -1.95434
  -3.33028   0.15741  -1.95434
  -3.57028   0.15741  -1.95434
  -3.57028   0.15741  -1.95434
  -3.57028   0.15741  -1.95434
  -3.57028   0.15741  -1.95434
  -3.57028   0.15741  -1.95434
  -3.57028   0.39741  -1.95434
  -3.57028   0.15741  -1.95434
  -3.57028   0.39741  -1.71434
  -3.57028   0.39741  -1.71434
  -3.57028   0.39741  -1.71434
  -3.81028   0.39741  -1.71434
  -3.57028   0.39741  -1.71434
  -3.81028   0.39741  -1.71434
  -3.81028   0.39741  -1.71434
  -3.81028   0.39741  -1.47434
  -3.81028   0.39741  -1.47434
  -3.81028   0.39741  -1.47434
  -3.81028   0.63741  -1.23434
  -3.81028   0.63741  -1.23434
  -3.81028   0.39741  -1.23434
  -3.81028   0.39741  -1.23434
  -3.81028   0.63741  -1.23434
  -3.81028   0.39741  -1.23434
  -3.81028   0.39741  -0.99434
  -3.81028   0.63741  -0.99434
  -3.81028   0.39741  -0.99434
  -3.81028   0.39741  -0.99434
  -3.81028   0.39741  -0.75434
  -3.81028   0.39741  -0.75434
  -3.81028   0.39741  -0.75434
  -3.81028   0.39741  -0.51434
  -3.81028   0.39741  -0.51434
  -3.81028   0.39741  -0.51434
  -3.81028   0.39741  -0.51434
  -3.81028   0.39741  -0.51434
  -3.81028   0.39741  -0.27434
  -3.57028   0.15741  -0.27434
  -3.57028   0.15741  -0.27434
  -3.57028   0.15741  -0.27434
  -3.57028   0.15741  -0.03434
  -3.57028   0.15741  -0.03434
  -3.57028   0.15741  -0.03434
  -3.57028   0.15741  -0.03434
  -3.57028  -0.08259  -0.03434
  -3.57028  -0.08259  -0.03434
  -3.57028  -0.08259  -0.03434
  -3.57028  -0.08259   0.20566
  -3.57028  -0.08259   0.20566
  -3.57028  -0.08259   0.20566
  -3.57028  -0.08259   0.20566
  -3.33028  -0.08259   0.20566
  -3.33028  -0.08259   0.43566
  -3.33028  -0.32259   0.43566
  -3.33028  -0.08259   0.43566
  -3.33028  -0.08259   0.43566
  -3.33028  -0.08259   0.43566
  -3.09028  -0.32259   0.43566
  -3.09028  -0.32259   0.43566
  -3.09028  -0.08259   0.43566
  -3.09028  -0.32259   0.67566
  -3.09028  -0.56259   0.67566
  -3.09028  -0.32259   0.67566
  -3.09028  -0.32259   0.67566
  -3.09028  -0.32259   0.67566
  -3.09028  -0.32259   0.67566
  -2.85028  -0.32259   0.67566
  -2.85028  -0.32259   0.67566
  -2.85028  -0.32259   0.67566
  -2.85028  -0.32259   0.67566
  -2.85028  -0.32259   0.67566
  -2.85028  -0.32259   0.67566
  -2.85028  -0.32259   0.67566
  -2.61028  -0.32259   0.67566
  -2.61028  -0.32259   0.67566
  -2.61028  -0.32259   0.67566
  -2.61028  -0.32259   0.67566
  -2.61028  -0.32259   0.67566
  -2.61028  -0.32259   0.67566
  -2.61028  -0.32259   0.67566
  -2.37028  -0.32259   0.67566
  -2.61028  -0.32259   0.67566
  -2.37028  -0.32259   0.67566
  -2.13028  -0.32259   0.91566
  -2.13028  -0.32259   0.67566
  -2.13028  -0.32259   0.67566
  -2.13028  -0.32259   0.67566
  -2.13028  -0.32259   0.67566
  -1.89028  -0.32259   0.91566
  -1.89028  -0.32259   0.91566
  -1.89028  -0.32259   0.91566
  -1.65028  -0.32259   0.91566
  -1.65028  -0.32259   0.67566
  -1.65028  -0.32259   0.67566
  -1.65028  -0.08259   0.67566
  -1.65028  -0.32259   0.67566
  -1.41028  -0.32259   0.67566
  -1.41028  -0.32259   0.91566
  -1.17028  -0.08259   0.67566
  -1.17028  -0.08259   0.67566
  -1.17028  -0.08259   0.67566
  -1.17028  -0.08259   0.67566
  -0.93028  -0.08259   0.67566
  -0.69028  -0.08259   0.67566
  -0.69028  -0.08259   0.67566
  -0.69028  -0.08259   0.67566
  -0.69028  -0.08259   0.67566
  -0.69028  -0.08259   0.67566
  -0.45028  -0.08259   0.67566
  -0.22028  -0.08259   0.67566
  -0.22028  -0.08259   0.67566
   0.01972   0.15741   0.67566
   0.01972  -0.08259   0.67566
   0.25972   0.15741   0.67566
   0.25972   0.15741   0.67566
   0.25972   0.15741   0.91566
   0.49972   0.15741   0.91566
   0.49972   0.15741   0.91566
   0.49972   0.39741   0.91566
   0.73972   0.15741   0.91566
   0.97972   0.15741   0.91566
   0.97972   0.39741   0.91566
   1.21972   0.15741   0.91566
   1.21972   0.39741   0.91566
   1.45972   0.39741   0.91566
   1.45972   0.39741   0.91566
   1.69972   0.39741   0.91566
   1.69972   0.39741   0.91566
   1.93972   0.39741   1.15566
   1.93972   0.39741   1.15566
   2.17972   0.39741   1.15566
   2.17972   0.39741   1.15566
   2.41972   0.39741   1.15566
   2.41972   0.39741   1.15566
   2.65972   0.39741   1.15566
   2.65972   0.39741   1.39566
   2.89972   0.39741   1.39566
   3.13972   0.39741   1.39566
   3.13972   0.63741   1.39566
   3.13972   0.63741   1.39566
   3.37972   0.63741   1.39566
   3.37972   0.63741   1.39566
   3.61972   0.63741   1.39566
   3.85972   0.63741   1.63566
   3.85972   0.63741   1.39566
   3.85972   0.63741   1.63566
   3.85972   0.63741   1.63566
   4.09972   0.63741   1.63566
   4.09972   0.63741   1.63566
   4.33972   0.63741   1.63566
   4.33972   0.63741   1.63566
   4.56972   0.63741   1.63566
   4.56972   0.63741   1.63566
   4.80972   0.63741   1.87566
   4.80972   0.63741   1.87566
   4.80972   0.63741   1.87566
   5.04972   0.63741   1.87566
   5.04972   0.63741   1.87566
   5.04972   0.63741   1.87566
   5.28972   0.63741   1.87566
   5.28972   0.63741   1.87566
   5.52972   0.63741   1.87566
   5.52972   0.87741   1.87566
   5.52972   0.63741   1.87566
   5.76972   0.63741   1.87566
   5.76972   0.63741   2.11566
   5.76972   0.63741   2.11566
   5.76972   0.63741   2.11566
   6.00972   0.87741   1.87566
   6.00972   0.63741   2.11566
   6.00972   0.87741   2.11566
   6.24972   0.87741   2.11566
   6.24972   0.63741   2.11566
   6.24972   0.63741   2.11566
   6.24972   0.87741   2.11566
   6.48972   0.87741   2.11566
   6.48972   0.63741   2.11566
   6.48972   0.87741   2.11566
   6.48972   0.63741   1.87566
   6.48972   0.63741   2.11566
   6.72972   0.63741   1.87566
   6.72972   0.63741   1.87566
   6.72972   0.63741   1.87566
   6.72972   0.63741   1.87566
   6.72972   0.63741   1.87566
   6.96972   0.63741   1.87566
   6.96972   0.63741   1.87566
   6.96972   0.63741   1.87566
   6.96972   0.63741   1.87566
   6.96972   0.63741   1.87566
   6.96972   0.63741   1.87566
   6.96972   0.63741   1.87566
   6.96972   0.63741   1.63566
   7.20972   0.63741   1.63566
   7.20972   0.63741   1.63566
   7.20972   0.63741   1.63566
   7.20972   0.63741   1.63566
   7.20972   0.63741   1.63566
   7.20972   0.63741   1.63566
   7.20972   0.63741   1.39566
   6.96972   0.63741   1.63566
   7.20972   0.63741   1.39566
   7.20972   0.39741   1.39566
   7.20972   0.39741   1.39566
   7.20972   0.39741   1.39566
   7.20972   0.39741   1.39566
   7.20972   0.39741   1.39566
   6.96972   0.39741   1.15566
   7.20972   0.39741   1.39566
   6.96972   0.39741   1.39566
   6.96972   0.39741   1.39566
   6.96972   0.15741   1.39566
   6.96972   0.39741   1.39566
   6.96972   0.39741   1.15566
   6.96972   0.39741   1.15566
   6.96972   0.15741   1.15566
   6.96972   0.39741   1.15566
   6.72972   0.15741   1.15566
   6.72972   0.15741   1.15566
   6.72972   0.15741   1.15566
   6.48972   0.15741   1.15566
   6.48972   0.15741   1.15566
   6.48972   0.15741   1.15566
   6.48972   0.15741   1.15566
   6.24972   0.15741   0.91566
   6.24972   0.15741   1.15566
   6.24972   0.15741   0.91566
   6.00972   0.15741   0.91566
   6.00972   0.15741   1.15566
   6.00972   0.15741   0.91566
   5.76972   0.15741   0.91566
   5.76972  -0.08259   0.91566
   5.52972   0.15741   0.91566
   5.52972   0.15741   0.91566
   5.52972   0.15741   0.91566
   5.28972  -0.08259   0.91566
   5.28972   0.15741   0.91566
   5.28972   0.15741   0.91566
   5.04972   0.15741   0.91566
   4.80972   0.15741   0.67566
   4.80972  -0.08259   0.67566
   4.80972  -0.08259   0.67566
   4.56972   0.15741   0.67566
   4.56972   0.15741   0.67566
   4.33972  -0.08259   0.67566
   4.33972   0.15741   0.67566
   4.09972   0.15741   0.67566
   4.09972   0.15741   0.67566
   3.85972   0.15741   0.67566
   3.85972  -0.08259   0.67566
   3.61972   0.15741   0.67566
   3.61972  -0.08259   0.67566
   3.37972  -0.08259   0.67566
   3.37972   0.15741   0.67566
   3.13972   0.15741   0.67566
   3.13972  -0.08259   0.67566
   2.89972   0.15741   0.67566
   2.89972  -0.08259   0.67566
   2.89972  -0.08259   0.67566
   2.65972  -0.08259   0.67566
   2.41972  -0.08259   0.43566
   2.41972  -0.08259   0.67566
   2.41972  -0.08259   0.43566
   2.17972  -0.08259   0.43566
   2.17972  -0.08259   0.43566
   2.17972  -0.08259   0.43566
   1.93972  -0.08259   0.43566
   1.93972  -0.08259   0.43566
   1.93972  -0.08259   0.43566
   1.69972  -0.08259   0.43566
   1.69972  -0.32259   0.43566
   1.69972  -0.32259   0.20566
   1.45972  -0.32259   0.20566
   1.45972  -0.32259   0.43566
   1.45972  -0.32259   0.20566
   1.21972  -0.32259   0.20566
   1.21972  -0.56259   0.20566
   1.21972  -0.56259   0.20566
   1.21972  -0.32259  -0.03434
   1.21972  -0.32259  -0.03434
   0.97972  -0.56259  -0.03434
   0.97972  -0.56259  -0.03434
   0.97972  -0.32259  -0.27434
   0.97972  -0.56259  -0.03434
   0.97972  -0.56259  -0.27434
   0.73972  -0.56259  -0.27434
   0.73972  -0.56259  -0.27434
   0.73972  -0.56259  -0.27434
   0.73972  -0.56259  -0.51434
   0.73972  -0.56259  -0.51434
   0.73972  -0.56259  -0.51434
   0.73972  -0.56259  -0.51434
   0.49972  -0.56259  -0.75434
   0.49972  -0.56259  -0.75434
   0.49972  -0.56259  -0.75434
   0.49972  -0.56259  -0.75434
   0.49972  -0.56259  -0.99434
   0.49972  -0.56259  -0.99434
   0.49972  -0.56259  -0.99434
   0.49972  -0.56259  -0.99434
   0.49972  -0.56259  -0.99434
   0.49972  -0.56259  -1.23434
   0.49972  -0.56259  -1.23434
   0.25972  -0.56259  -1.23434
   0.25972  -0.56259  -1.23434
   0.25972  -0.56259  -1.47434
   0.25972  -0.56259  -1.47434
   0.25972  -0.56259  -1.47434
   0.25972  -0.32259  -1.71434
   0.25972  -0.56259  -1.71434
   0.01972  -0.56259  -1.71434
   0.01972  -0.32259  -1.95434
   0.01972  -0.32259  -1.95434
   0.01972  -0.32259  -1.95434
   0.01972  -0.32259  -1.95434
   0.01972  -0.32259  -1.95434
  -0.22028  -0.32259  -1.95434
  -0.22028  -0.32259  -2.19434
  -0.22028  -0.32259  -2.19434
  -0.22028  -0.32259  -2.19434
  -0.22028  -0.32259  -2.19434
  -0.45028  -0.32259  -2.19434
  -0.45028  -0.32259  -2.43434
  -0.45028  -0.08259  -2.43434
  -0.45028  -0.32259  -2.43434
  -0.69028  -0.32259  -2.43434
  -0.69028  -0.08259  -2.43434
  -0.69028  -0.32259  -2.43434
  -0.69028  -0.08259  -2.67434
  -0.93028  -0.08259  -2.67434
  -0.93028  -0.08259  -2.67434
  -0.93028  -0.08259  -2.67434
  -0.93028  -0.08259  -2.67434
  -1.17028   0.15741  -2.67434
  -1.17028   0.15741  -2.67434
  -1.17028   0.15741  -2.67434
  -1.17028   0.15741  -2.67434
  -1.41028  -0.08259  -2.67434
  -1.41028   0.15741  -2.67434
  -1.41028   0.15741  -2.67434
  -1.41028   0.39741  -2.91434
  -1.65028   0.15741  -2.91434
  -1.65028   0.39741  -2.91434
