********************************************************************************
               CENTRO DE INSTRUMENTACION Y REGISTRO SISMICO  A.C.  
                       Coordinacion de Servicios Tecnicos
     Anaxagoras 814, Col. Narvarte, Benito Juarez, C.P. 03020 Mexico, D.F.
            Tels. 667 45 42/ 687 45  82             Fax. 669 25 12
********************************************************************************
ARCHIVO ESTANDAR DE ACELERACION:
VERSION DEL FORMATO                    : 2.0
NOMBRE DEL ARCHIVO                     : BA499607.151
FECHA Y HORA DE CREACION               : 27/MAR/98, 3:55
REF. CATALOGO ACELEROGRAMAS, SMIS 1996 : REGISTRO No.     /PAG.


================================================================================
DATOS DE LA ESTACION:
NOMBRE DE LA ESTACION                  : BUENOS AIRES
CLAVE DE LA ESTACION                   : BA49
LOCALIZACION DE LA ESTACION            : ESCUELA SECUNDARIA 102, DOCTOR MARQUEZ
                                       : Y EJE CENTRAL, BUENOS AIRES.
                                       :
                                       :
                                       :
COORDENADAS DE LA ESTACION             : 19.410 LAT. N 
                                       : 99.145 LONG. W 
ALTITUD (msnm)                         : 2233
TIPO DE SUELO                          : TERRENO BLANDO, MATERIAL COMPRESIBLE
                                       : (ARCILLAS)
                                       : 
INSTITUCION RESPONSABLE                : CIRES 
                                       :

================================================================================
DATOS DEL ACELEROGRAFO:
MODELO DEL ACELEROGRAFO                : SSA-1
NUMERO DE SERIE DEL ACELEROGRAFO       : 176
NUMERO DE CANALES                      : 3
ORIENTACION C1-C6 (rumbo;orientacion)  : /N00E/+V/N90E
ORIENTACION C7-C12 (rumbo;orientacion) :
VEL. DE MUESTREO, C1-C6 (muestras/s)   : /200/200/200
VEL. DE MUESTREO, C7-C12 (muestras/s)  :
ESC. COMPLETA DE SENSORES, C1-C6, (g)  : /2/2/2
ESC. COMPLETA DE SENSORES, C7-C12, (g) :
FREC. NAT. DE SENSORES, C1-C6, (Hz)    : /52.99/52.03/52.99
FREC. NAT. DE SENSORES, C7-C12, (Hz)   :
AMORTIGUAMIENTO DE SENSORES, C1-C6     : /0.5589/0.5469/0.6096
AMORTIGUAMIENTO DE SENSORES, C7-C12    :
INTERVALO DE MUESTREO, C1-C6, (s)      : /0.005/0.005/0.005
INTERVALO DE MUESTREO, C7-C12, (s)     : 
UMBRAL DE DISPARO, C1-C6, (Gal)        : /2/2/2
UMBRAL DE DISPARO, C7-C12, (Gal)       :
MEMORIA DE PREEVENTO (s)               : 15
TIEMPO DE POSEVENTO (s)                : 60


================================================================================
DATOS DEL SISMO:
FECHA DEL SISMO (GMT)                  : 15/JUL/96
HORA EPICENTRO (GMT)                   : 21:23:38:5
MAGNITUD(ES)                           : /Ms=6.5
COORDENADAS DEL EPICENTRO              : 17.4 LAT. N
                                       : 101.1 LONG. W
PROFUNDIDAD FOCAL (km)                 : 20.0
FUENTE DE LOS DATOS EPICENTRALES       : SSN
                                       : INSTITUTO DE GEOFISICA, UNAM

================================================================================
DATOS DE ESTE REGISTRO:
HORA DE LA PRIMERA MUESTRA (GMT)       : 21:24:53.00
EXACTITUD DEL TIEMPO (s)               :     
DURACION DEL REGISTRO (s), C1-C6       : /218.88/218.88/218.88
DURACION DEL REGISTRO (s), C7-C12      :
NUM. TOTAL DE MUESTRAS, C1-C6          : /43776/43776/43776
NUM. TOTAL DE MUESTRAS, C7-C12         :
ACEL. MAX. (Gal), C1-C6                : /10.28386/4.84321/12.04452
ACEL. MAX., C1-C6, EN LA MUESTRA       :
ACEL. MAX. (Gal), C7-C12               :
ACEL. MAX., C7-C12, EN LA MUESTRA      :
UNIDADES DE LOS DATOS                  : Gal (cm/s/s)
FACTOR DE DECIMACION                   : 1
FORMATO DATOS (FORTRAN,10 campos/dato) : 3F10.5


================================================================================
CALIDAD DEL ACELEROGRAMA:
REGISTRO DIGITAL COMPLETO, CARECE DE TIEMPO ABSOLUTO.


================================================================================
COMENTARIOS:














================================================================================
DATOS DE ACELERACION:
---------+---------+---------+---------+---------+---------+---------+---------+
   CANAL-1   CANAL-2   CANAL-3   CANAL-4   CANAL-5   CANAL-6   CANAL-7   CANAL-8
      N00E        +V      N90E
---------+---------+---------+---------+---------+---------+---------+---------+
[...]
   2.37386  -0.90679  -0.41548
   2.37386  -0.90679  -0.88548
   2.61386  -0.90679  -0.88548
   2.85386  -0.90679  -1.12548
   2.85386  -0.66679  -1.36548
   3.09386  -0.66679  -1.36548
   3.09386  -0.42679  -1.60548
   3.09386  -0.42679  -1.60548
   3.33386  -0.42679  -1.84548
   3.33386  -0.42679  -1.84548
   3.33386  -0.18679  -2.08548
   3.33386  -0.18679  -2.08548
   3.33386   0.05321  -2.32548
   3.09386   0.05321  -2.32548
   3.09386   0.29321  -2.56548
   3.09386   0.29321  -2.56548
   3.09386   0.53321  -2.56548
   3.09386   0.53321  -3.04548
   2.85386   0.77321  -3.04548
   2.85386   0.77321  -3.04548
   2.85386   1.01321  -3.28548
   2.61386   1.01321  -3.28548
   2.61386   1.01321  -3.28548
   2.37386   1.25321  -3.28548
   2.13386   1.25321  -3.52548
   1.89386   1.49321  -3.52548
   1.65386   1.49321  -3.76548
   1.42386   1.49321  -3.76548
   1.18386   1.73321  -4.00548
   0.94386   1.73321  -4.00548
   0.70386   1.96321  -4.24548
   0.46386   2.20321  -4.24548
   0.22386   2.44321  -4.24548
   0.22386   2.44321  -4.48548
  -0.25614   2.68321  -4.48548
  -0.25614   2.92321  -4.72548
  -0.49614   3.16321  -4.96548
  -0.49614   3.16321  -4.96548
  -0.73614   3.40321  -5.20548
  -0.97614   3.40321  -5.20548
  -0.97614   3.64321  -5.20548
  -1.21614   3.64321  -5.68548
  -1.45614   3.88321  -5.68548
  -1.45614   3.88321  -5.91548
  -1.45614   3.88321  -6.15548
  -1.45614   3.88321  -6.15548
  -1.45614   3.88321  -6.39548
  -1.45614   3.88321  -6.63548
  -1.45614   4.12321  -6.63548
  -1.21614   3.88321  -6.87548
  -1.45614   3.88321  -7.11548
  -1.21614   3.88321  -7.11548
  -0.97614   3.88321  -7.59548
  -0.97614   3.88321  -7.83548
  -0.97614   3.88321  -8.07548
  -0.73614   3.88321  -8.07548
  -0.73614   3.64321  -8.31548
  -0.73614   3.64321  -8.55548
  -0.49614   3.64321  -8.55548
  -0.49614   3.64321  -8.79548
  -0.25614   3.64321  -8.79548
  -0.01614   3.40321  -8.79548
   0.22386   3.40321  -9.03548
   0.22386   3.16321  -9.03548
   0.46386   3.16321  -9.03548
   0.70386   2.92321  -9.03548
   0.70386   2.68321  -9.03548
   0.94386   2.68321  -9.03548
   0.94386   2.44321  -9.03548
   1.18386   2.20321  -9.03548
   1.18386   1.96321  -9.03548
   1.18386   1.73321  -9.27548
   1.18386   1.73321  -9.03548
   1.42386   1.49321  -9.03548
   1.42386   1.25321  -8.79548
   1.42386   1.01321  -8.79548
   1.42386   1.01321  -8.79548
   1.65386   0.77321  -8.79548
   1.65386   0.53321  -8.55548
   1.65386   0.53321  -8.31548
   1.65386   0.29321  -8.31548
   1.65386   0.05321  -8.07548
   1.42386  -0.18679  -8.07548
   1.65386  -0.42679  -7.83548
   1.42386  -0.66679  -7.59548
   1.42386  -0.90679  -7.35548
   1.42386  -1.14679  -7.35548
   1.42386  -1.14679  -6.87548
   1.42386  -1.38679  -6.87548
   1.42386  -1.62679  -6.63548
   1.18386  -1.86679  -6.39548
   1.18386  -2.10679  -5.91548
   1.18386  -2.10679  -5.68548
   1.18386  -2.34679  -5.44548
   1.18386  -2.34679  -5.20548
   0.94386  -2.58679  -4.96548
   0.94386  -2.58679  -4.72548
   0.94386  -2.58679  -4.48548
   0.70386  -2.82679  -4.00548
   0.70386  -2.82679  -4.00548
   0.46386  -2.82679  -3.76548
   0.46386  -2.82679  -3.52548
   0.46386  -2.82679  -3.52548
   0.46386  -2.82679  -3.28548
   0.22386  -2.82679  -3.04548
   0.22386  -2.82679  -2.80548
   0.22386  -2.82679  -2.56548
   0.22386  -2.82679  -2.56548
  -0.01614  -2.82679  -2.32548
  -0.01614  -3.06679  -2.08548
  -0.01614  -3.06679  -2.08548
  -0.01614  -3.06679  -1.60548
  -0.01614  -3.29679  -1.60548
  -0.01614  -3.29679  -1.36548
  -0.25614  -3.29679  -1.36548
  -0.25614  -3.29679  -1.12548
  -0.25614  -3.29679  -0.88548
  -0.25614  -3.29679  -0.88548
  -0.25614  -3.29679  -0.65548
  -0.25614  -3.29679  -0.41548
  -0.25614  -3.29679  -0.41548
  -0.25614  -3.29679  -0.41548
  -0.25614  -3.29679  -0.41548
  -0.25614  -3.29679  -0.17548
  -0.01614  -3.29679  -0.17548
  -0.01614  -3.29679   0.06452
  -0.01614  -3.29679   0.06452
  -0.01614  -3.06679   0.06452
  -0.01614  -3.06679   0.30452
  -0.01614  -3.06679   0.30452
  -0.01614  -2.82679   0.30452
  -0.01614  -2.82679   0.54452
  -0.01614  -2.82679   0.54452
   0.22386  -2.82679   0.54452
   0.22386  -2.82679   0.78452
   0.22386  -2.82679   0.78452
   0.22386  -2.82679   0.78452
   0.22386  -2.82679   1.02452
   0.22386  -2.82679   1.26452
   0.22386  -2.58679   1.26452
   0.22386  -2.58679   1.26452
   0.22386  -2.58679   1.26452
  -0.01614  -2.34679   1.50452
  -0.01614  -2.34679   1.50452
  -0.01614  -2.34679   1.50452
  -0.25614  -2.10679   1.50452
  -0.25614  -2.10679   1.74452
  -0.25614  -1.86679   1.74452
  -0.49614  -1.86679   1.74452
  -0.73614  -1.86679   1.98452
  -0.73614  -1.62679   1.98452
  -0.73614  -1.38679   2.22452
  -0.97614  -1.38679   2.46452
  -1.21614  -1.38679   2.46452
  -1.21614  -1.14679   2.46452
  -1.45614  -1.14679   2.22452
  -1.69614  -0.90679   2.70452
  -1.93614  -0.90679   2.70452
  -1.93614  -0.66679   2.94452
  -2.17614  -0.66679   2.70452
  -2.41614  -0.42679   2.94452
  -2.41614  -0.42679   3.18452
  -2.65614  -0.18679   3.18452
  -2.89614  -0.18679   3.18452
  -2.89614   0.05321   3.42452
  -3.13614   0.05321   3.18452
  -3.37614   0.29321   3.42452
  -3.37614   0.53321   3.42452
  -3.60614   0.53321   3.42452
  -3.84614   0.77321   3.66452
  -3.84614   0.77321   3.66452
  -4.08614   1.01321   3.66452
  -4.08614   1.01321   3.66452
  -4.32614   1.01321   3.66452
  -4.32614   1.25321   3.66452
  -4.56614   1.49321   3.66452
  -4.56614   1.49321   3.66452
  -4.56614   1.49321   3.66452
  -4.80614   1.73321   3.66452
  -5.04614   1.73321   3.66452
  -5.04614   1.96321   3.66452
  -5.04614   1.96321   3.66452
  -5.28614   1.96321   3.66452
  -5.28614   2.20321   3.66452
  -5.28614   2.20321   3.66452
  -5.52614   2.44321   3.42452
  -5.52614   2.20321   3.42452
  -5.76614   2.44321   3.42452
  -5.76614   2.44321   3.66452
  -5.76614   2.44321   3.42452
  -6.00614   2.44321   3.42452
  -6.00614   2.44321   3.42452
  -6.00614   2.44321   3.18452
  -6.00614   2.44321   3.18452
  -6.00614   2.20321   3.18452
  -6.00614   2.20321   3.18452
  -6.00614   1.96321   2.94452
  -6.00614   1.96321   2.94452
  -6.00614   1.73321   2.70452
  -6.00614   1.73321   2.70452
  -6.00614   1.73321   2.46452
  -6.00614   1.49321   2.46452
  -6.00614   1.49321   2.46452
  -6.00614   1.49321   2.22452
  -6.00614   1.49321   2.22452
  -6.00614   1.49321   2.22452
  -5.76614   1.49321   1.98452
  -5.76614   1.25321   1.98452
  -5.76614   1.49321   1.98452
  -5.52614   1.49321   1.74452
  -5.52614   1.49321   1.98452
  -5.52614   1.49321   1.74452
  -5.28614   1.73321   1.74452
  -5.28614   1.73321   1.50452
  -5.04614   1.73321   1.50452
  -5.04614   1.73321   1.50452
  -4.80614   1.73321   1.50452
  -4.80614   1.73321   1.26452
  -4.56614   1.73321   1.02452
  -4.32614   1.73321   1.02452
  -4.32614   1.73321   0.78452
  -4.32614   1.73321   0.78452
  -4.08614   1.49321   0.78452
  -4.08614   1.49321   0.54452
  -3.84614   1.49321   0.30452
  -3.84614   1.25321   0.30452
  -3.84614   1.25321   0.06452
  -3.60614   1.25321   0.06452
  -3.60614   1.01321   0.06452
  -3.60614   1.01321  -0.17548
  -3.60614   1.01321  -0.17548
  -3.60614   1.01321  -0.41548
  -3.60614   1.01321  -0.65548
  -3.60614   1.01321  -0.88548
  -3.37614   0.77321  -1.12548
  -3.37614   0.77321  -1.12548
  -3.37614   0.77321  -1.36548
  -3.13614   0.77321  -1.60548
  -3.13614   0.77321  -1.60548
  -3.13614   0.77321  -1.84548
  -3.13614   0.77321  -2.08548
  -3.13614   0.77321  -2.32548
  -2.89614   0.77321  -2.56548
  -2.89614   0.77321  -2.80548
  -2.89614   0.53321  -2.80548
  -2.89614   0.53321  -3.04548
  -2.89614   0.53321  -3.28548
  -2.65614   0.53321  -3.52548
  -2.65614   0.53321  -3.76548
  -2.65614   0.53321  -3.76548
  -2.65614   0.29321  -3.76548
  -2.65614   0.29321  -4.00548
  -2.65614   0.29321  -4.24548
  -2.41614   0.29321  -4.48548
  -2.41614   0.29321  -4.72548
  -2.41614   0.29321  -4.72548
  -2.41614   0.29321  -4.96548
  -2.41614   0.05321  -5.20548
  -2.41614   0.05321  -5.20548
  -2.41614   0.05321  -5.44548
  -2.41614   0.05321  -5.91548
  -2.41614   0.05321  -5.68548
  -2.41614   0.05321  -5.91548
  -2.41614   0.05321  -6.15548
  -2.41614   0.05321  -6.15548
  -2.41614   0.05321  -6.39548
  -2.41614   0.05321  -6.39548
  -2.41614   0.05321  -6.63548
  -2.41614   0.05321  -6.63548
  -2.17614   0.05321  -6.87548
  -2.17614   0.05321  -6.87548
  -2.17614   0.05321  -6.87548
  -2.17614  -0.18679  -7.11548
  -2.17614  -0.18679  -7.11548
  -2.17614  -0.18679  -7.11548
  -1.93614  -0.42679  -7.11548
  -1.93614  -0.42679  -7.11548
  -1.93614  -0.42679  -6.87548
  -1.93614  -0.66679  -6.87548
  -1.93614  -0.66679  -6.87548
  -1.93614  -0.66679  -6.87548
  -1.69614  -0.66679  -6.63548
  -1.69614  -0.66679  -6.63548
  -1.69614  -0.66679  -6.39548
  -1.69614  -0.66679  -6.15548
  -1.69614  -0.42679  -6.15548
  -1.45614  -0.42679  -5.91548
  -1.45614  -0.42679  -5.68548
  -1.45614  -0.42679  -5.68548
  -1.45614  -0.42679  -5.44548
  -1.45614  -0.42679  -5.20548
  -1.45614  -0.18679  -5.20548
  -1.21614  -0.18679  -4.96548
  -1.21614  -0.18679  -4.72548
  -1.21614   0.05321  -4.24548
  -0.97614   0.05321  -4.00548
  -0.97614   0.05321  -3.76548
  -0.97614   0.05321  -3.52548
  -0.73614   0.05321  -3.28548
  -0.73614   0.05321  -3.04548
  -0.73614   0.05321  -2.56548
  -0.49614   0.05321  -2.32548
  -0.49614   0.05321  -1.84548
  -0.25614   0.05321  -1.60548
  -0.25614   0.05321  -1.12548
  -0.01614   0.05321  -0.65548
  -0.01614   0.05321  -0.41548
   0.22386   0.05321   0.06452
   0.46386  -0.18679   0.54452
   0.46386  -0.18679   1.02452
   0.70386  -0.18679   1.50452
   0.70386  -0.42679   1.74452
   0.94386  -0.42679   2.22452
   1.18386  -0.66679   2.46452
   1.18386  -0.66679   3.18452
   1.18386  -0.90679   3.42452
   1.42386  -0.90679   3.66452
   1.42386  -0.90679   4.13452
   1.65386  -0.90679   4.61452
   1.65386  -1.14679   5.09452
   1.89386  -1.14679   5.57452
   2.13386  -1.38679   6.05452
   2.13386  -1.38679   6.53452
   2.13386  -1.38679   6.77452
   2.37386  -1.62679   7.49452
   2.37386  -1.62679   7.49452
   2.61386  -1.62679   7.97452
   2.61386  -1.62679   8.21452
   2.61386  -1.62679   8.45452
   2.61386  -1.62679   8.92452
   2.61386  -1.62679   9.16452
   2.61386  -1.62679   9.40452
   2.85386  -1.86679   9.64452
   2.85386  -1.86679   9.88452
   2.85386  -1.86679  10.12452
   2.85386  -1.86679  10.36452
   2.61386  -1.62679  10.36452
   2.61386  -1.86679  10.60452
   2.61386  -1.86679  10.84452
   2.61386  -1.86679  11.08452
   2.61386  -1.86679  11.32452
   2.37386  -1.86679  11.32452
   2.37386  -1.86679  11.56452
   2.13386  -1.86679  11.56452
   2.13386  -1.86679  11.56452
   1.89386  -1.62679  11.80452
   1.65386  -1.62679  11.80452
   1.65386  -1.38679  11.80452
   1.18386  -1.38679  11.80452
   1.18386  -1.38679  12.04452
   0.94386  -1.14679  12.04452
   0.70386  -1.14679  12.04452
   0.46386  -0.90679  12.04452
   0.22386  -0.66679  12.04452
  -0.01614  -0.42679  12.04452
  -0.25614  -0.42679  12.04452
  -0.49614  -0.18679  12.04452
  -0.73614  -0.18679  12.04452
  -0.97614   0.05321  11.80452
  -1.21614   0.29321  11.80452
  -1.45614   0.53321  11.80452
  -1.69614   0.77321  11.80452
  -1.93614   0.77321  11.56452
  -2.17614   1.01321  11.32452
  -2.41614   1.25321  11.32452
  -2.65614   1.49321  11.08452
  -2.89614   1.49321  10.84452
  -3.13614   1.73321  10.60452
  -3.60614   1.96321  10.60452
  -3.60614   2.20321  10.36452
  -3.84614   2.44321  10.12452
  -4.08614   2.68321   9.88452
  -4.32614   2.92321   9.64452
  -4.56614   3.16321   9.40452
  -4.56614   3.40321   9.16452
  -4.80614   3.64321   9.16452
  -5.04614   3.64321   8.69452
  -5.04614   3.88321   8.45452
  -5.04614   4.12321   8.45452
  -5.28614   4.36321   7.97452
  -5.28614   4.36321   7.73452
  -5.28614   4.60321   7.49452
  -5.28614   4.60321   7.25452
  -5.52614   4.60321   7.01452
  -5.52614   4.84321   6.77452
  -5.28614   4.84321   6.53452
  -5.28614   4.84321   6.29452
  -5.28614   4.84321   6.05452
  -5.28614   4.60321   5.81452
  -5.04614   4.60321   5.57452
  -5.04614   4.60321   5.33452
  -4.80614   4.36321   5.09452
  -4.80614   4.36321   5.09452
  -4.56614   4.36321   4.61452
  -4.56614   4.12321   4.61452
  -4.32614   4.12321   4.37452
  -4.08614   3.88321   4.13452
  -4.08614   3.64321   3.90452
  -3.84614   3.64321   3.66452
  -3.60614   3.40321   3.66452
  -3.37614   3.16321   3.66452
  -3.13614   2.92321   3.42452
  -2.89614   2.92321   3.18452
  -2.65614   2.68321   2.94452
  -2.65614   2.44321   2.94452
  -2.41614   2.20321   2.70452
  -2.17614   1.96321   2.70452
  -1.93614   1.96321   2.46452
  -1.69614   1.73321   2.46452
  -1.45614   1.73321   2.22452
  -1.21614   1.49321   1.98452
  -1.21614   1.49321   1.98452
  -0.97614   1.49321   1.74452
  -0.73614   1.25321   1.74452
  -0.49614   1.49321   1.50452
  -0.25614   1.25321   1.50452
  -0.25614   1.25321   1.26452
  -0.01614   1.01321   1.26452
   0.22386   0.77321   1.02452
   0.22386   0.77321   0.78452
   0.46386   0.77321   0.54452
   0.46386   0.53321   0.54452
   0.70386   0.53321   0.54452
   0.94386   0.29321   0.30452
   0.94386   0.05321   0.30452
   0.94386   0.05321   0.06452
   1.18386   0.05321   0.06452
   1.18386  -0.18679  -0.17548
   1.42386  -0.42679  -0.17548
   1.42386  -0.42679  -0.41548
   1.42386  -0.42679  -0.41548
   1.65386  -0.42679  -0.65548
   1.65386  -0.42679  -0.41548
   1.65386  -0.42679  -0.65548
   1.89386  -0.66679  -0.65548
   1.89386  -0.42679  -0.65548
   1.89386  -0.42679  -0.88548
   2.13386  -0.42679  -0.88548
   2.13386  -0.42679  -1.12548
   2.13386  -0.66679  -1.12548
   2.13386  -0.42679  -1.12548
   2.13386  -0.66679  -1.12548
   2.37386  -0.66679  -1.36548
   2.37386  -0.42679  -1.36548
   2.37386  -0.66679  -1.36548
   2.61386  -0.66679  -1.36548
   2.61386  -0.66679  -1.60548
   2.61386  -0.66679  -1.60548
   2.85386  -0.66679  -1.84548
   2.85386  -0.66679  -1.84548
   3.09386  -0.90679  -1.84548
   3.09386  -0.90679  -2.08548
   3.09386  -0.90679  -2.08548
   3.33386  -0.90679  -2.08548
   3.33386  -0.90679  -2.32548
   3.57386  -0.90679  -2.32548
   3.57386  -0.90679  -2.32548
   3.81386  -0.90679  -2.56548
   3.81386  -0.90679  -2.56548
   4.05386  -1.14679  -2.80548
   4.05386  -1.14679  -2.80548
   4.29386  -1.14679  -2.80548
   4.29386  -1.38679  -3.04548
   4.53386  -1.38679  -3.04548
   4.53386  -1.62679  -3.28548
   4.77386  -1.62679  -3.28548
   5.01386  -1.62679  -3.28548
   5.01386  -1.86679  -3.52548
   5.25386  -1.86679  -3.52548
   5.49386  -2.10679  -3.52548
   5.49386  -2.10679  -3.52548
   5.73386  -2.10679  -3.52548
   5.97386  -2.34679  -3.76548
   5.97386  -2.34679  -3.76548
   6.21386  -2.34679  -3.76548
   6.44386  -2.34679  -3.76548
   6.68386  -2.58679  -3.76548
   6.68386  -2.58679  -4.00548
   6.92386  -2.82679  -4.00548
   7.16386  -2.82679  -4.00548
   7.16386  -2.82679  -4.00548
   7.40386  -2.82679  -3.76548
   7.40386  -3.06679  -4.00548
   7.64386  -3.06679  -4.00548
   7.64386  -3.06679  -4.00548
   7.88386  -3.29679  -4.00548
   7.88386  -3.06679  -3.76548
   7.88386  -3.06679  -3.76548
   8.12386  -3.29679  -3.76548
   8.12386  -3.29679  -3.76548
   8.12386  -3.06679  -3.76548
   8.36386  -3.06679  -3.76548
   8.36386  -3.06679  -3.76548
   8.36386  -3.06679  -3.52548
   8.36386  -3.06679  -3.52548
   8.36386  -2.82679  -3.52548
   8.36386  -2.82679  -3.52548
   8.36386  -2.58679  -3.52548
   8.60386  -2.58679  -3.28548
