********************************************************************************
               CENTRO DE INSTRUMENTACION Y REGISTRO SISMICO  A.C.  
                       Coordinacion de Servicios Tecnicos
     Anaxagoras 814, Col. Narvarte, Benito Juarez, C.P. 03020 Mexico, D.F.
            Tels. 667 45 42/ 687 45  82             Fax. 669 25 12
********************************************************************************
ARCHIVO ESTANDAR DE ACELERACION:
VERSION DEL FORMATO                    : 2.0
NOMBRE DEL ARCHIVO                     : BA490409.131
FECHA Y HORA DE CREACION               : 03/NOV/04, 12:00
REF. CATALOGO ACELEROGRAMAS, SMIS 1996 : REGISTRO No.     /PAG.


================================================================================
DATOS DE LA ESTACION:
NOMBRE DE LA ESTACION                  : BUENOS AIRES
CLAVE DE LA ESTACION                   : BA49
LOCALIZACION DE LA ESTACION            : ESCUELA SECUNDARIA 102, DOCTOR MARQUEZ
                                       : Y EJE CENTRAL, BUENOS AIRES.
                                       :
                                       :
                                       :
COORDENADAS DE LA ESTACION             : 19.410 LAT. N 
                                       : 99.145 LONG. W 
ALTITUD (msnm)                         : 2233
TIPO DE SUELO                          : TERRENO BLANDO, MATERIAL COMPRESIBLE
                                       : (ARCILLAS)
                                       : 
INSTITUCION RESPONSABLE                : CIRES 
                                       :

================================================================================
DATOS DEL ACELEROGRAFO:
MODELO DEL ACELEROGRAFO                : SSA-1
NUMERO DE SERIE DEL ACELEROGRAFO       : 176
NUMERO DE CANALES                      : 3
ORIENTACION C1-C6 (rumbo;orientacion)  : /N00E/+V/N90E
ORIENTACION C7-C12 (rumbo;orientacion) :
VEL. DE MUESTREO, C1-C6 (muestras/s)   : /200/200/200
VEL. DE MUESTREO, C7-C12 (muestras/s)  :
ESC. COMPLETA DE SENSORES, C1-C6, (g)  : /2/2/2
ESC. COMPLETA DE SENSORES, C7-C12, (g) :
FREC. NAT. DE SENSORES, C1-C6, (Hz)    : /52.99/52.03/52.99
FREC. NAT. DE SENSORES, C7-C12, (Hz)   :
AMORTIGUAMIENTO DE SENSORES, C1-C6     : /.5589/.5469/.6096
AMORTIGUAMIENTO DE SENSORES, C7-C12    :
INTERVALO DE MUESTREO, C1-C6, (s)      : /0.005/0.005/0.005
INTERVALO DE MUESTREO, C7-C12, (s)     :
UMBRAL DE DISPARO, C1-C6, (Gal)        : /2/2/2
UMBRAL DE DISPARO, C7-C12, (Gal)       :
MEMORIA DE PREEVENTO (s)               : 15
TIEMPO DE POSEVENTO (s)                : 60


================================================================================
DATOS DEL SISMO:
FECHA DEL SISMO (GMT)                  : 13/SEP/04
HORA EPICENTRO (GMT)                   : 20:58:34:0
MAGNITUD(ES)                           : /Ms=3.1
COORDENADAS DEL EPICENTRO              : 19.37 LAT. N
                                       : -99.11 LONG. W
PROFUNDIDAD FOCAL (km)                 : 10.0
FUENTE DE LOS DATOS EPICENTRALES       : SSN
                                       : INSTITUTO DE GEOFISICA, UNAM

================================================================================
DATOS DE ESTE REGISTRO:
HORA DE LA PRIMERA MUESTRA (GMT)       : 20:58:39.00
EXACTITUD DEL TIEMPO (s)               :     
DURACION DEL REGISTRO (s), C1-C6       : /78.08/78.08/78.08
DURACION DEL REGISTRO (s), C7-C12      :
NUM. TOTAL DE MUESTRAS, C1-C6          : /15616/15616/15616
NUM. TOTAL DE MUESTRAS, C7-C12         :
ACEL. MAX. (Gal), C1-C6                : /1.90877/-1.28141/1.99478
ACEL. MAX., C1-C6, EN LA MUESTRA       :
ACEL. MAX. (Gal), C7-C12               :
ACEL. MAX., C7-C12, EN LA MUESTRA      :
UNIDADES DE LOS DATOS                  : Gal (cm/s/s)
FACTOR DE DECIMACION                   : 1
FORMATO DATOS (FORTRAN,10 campos/dato) : 3F10.5


================================================================================
CALIDAD DEL ACELEROGRAMA:
REGISTRO DIGITAL COMPLETO, CARECE DE TIEMPO ABSOLUTO.


================================================================================
COMENTARIOS:














================================================================================
DATOS DE ACELERACION:
---------+---------+---------+---------+---------+---------+---------+---------+
   CANAL-1   CANAL-2   CANAL-3   CANAL-4   CANAL-5   CANAL-6   CANAL-7   CANAL-8
      N00E        +V      N90E
---------+---------+---------+---------+---------+---------+---------+---------+
[...]
  -0.00123  -0.08141   0.32478
  -0.00123  -0.08141   0.32478
  -0.00123  -0.08141   0.08478
  -0.00123  -0.08141   0.08478
  -0.00123  -0.08141  -0.15522
  -0.00123  -0.08141  -0.15522
  -0.00123  -0.32141  -0.39522
  -0.00123  -0.32141  -0.15522
  -0.00123  -0.08141  -0.15522
  -0.00123  -0.08141   0.08478
  -0.00123   0.15859   0.08478
  -0.00123  -0.08141   0.08478
  -0.00123  -0.08141   0.08478
  -0.24123  -0.32141   0.08478
  -0.24123  -0.32141  -0.15522
  -0.24123  -0.32141  -0.15522
  -0.00123  -0.08141  -0.15522
  -0.00123   0.15859  -0.15522
   0.23877   0.39859  -0.15522
   0.23877   0.15859  -0.15522
  -0.00123  -0.32141   0.08478
  -0.00123  -0.56141   0.08478
  -0.00123  -0.56141   0.08478
  -0.00123  -0.32141   0.08478
  -0.00123   0.15859  -0.15522
  -0.00123   0.39859  -0.15522
   0.23877   0.39859  -0.15522
  -0.00123   0.15859   0.08478
  -0.00123  -0.08141   0.08478
  -0.00123  -0.32141   0.08478
  -0.00123  -0.56141   0.08478
  -0.00123  -0.56141   0.08478
  -0.00123  -0.56141  -0.15522
  -0.00123  -0.32141  -0.15522
  -0.00123  -0.08141  -0.15522
  -0.00123   0.15859  -0.39522
  -0.00123   0.15859  -0.15522
  -0.00123   0.15859  -0.15522
  -0.00123   0.39859   0.08478
  -0.00123   0.63859   0.08478
  -0.00123   0.63859   0.32478
  -0.00123   0.63859   0.32478
  -0.00123   0.39859   0.08478
  -0.00123   0.39859   0.08478
  -0.00123   0.15859   0.08478
  -0.00123   0.39859   0.08478
  -0.00123   0.39859   0.08478
  -0.00123   0.63859   0.08478
  -0.00123   0.39859   0.08478
  -0.00123   0.15859   0.08478
  -0.24123  -0.08141  -0.15522
  -0.00123  -0.56141  -0.15522
  -0.00123  -0.80141  -0.15522
  -0.00123  -0.80141  -0.15522
  -0.00123  -1.04141   0.08478
  -0.00123  -1.04141  -0.15522
  -0.00123  -1.28141  -0.15522
  -0.00123  -1.04141   0.08478
  -0.00123  -0.80141   0.08478
  -0.00123  -0.32141  -0.15522
  -0.00123   0.15859  -0.15522
  -0.00123   0.39859  -0.15522
  -0.00123   0.63859   0.08478
  -0.00123   0.63859   0.08478
  -0.00123   0.63859   0.08478
  -0.00123   0.63859   0.32478
  -0.00123   0.63859   0.32478
  -0.24123   0.87859   0.32478
  -0.00123   0.63859   0.08478
  -0.00123   0.39859  -0.15522
  -0.00123   0.39859  -0.15522
  -0.00123   0.15859  -0.39522
  -0.00123  -0.08141  -0.39522
   0.23877  -0.08141  -0.39522
   0.23877  -0.32141  -0.15522
   0.47877  -0.56141  -0.15522
   0.23877  -0.32141   0.08478
   0.23877  -0.32141   0.08478
  -0.00123  -0.08141   0.32478
  -0.00123  -0.08141   0.32478
  -0.24123  -0.08141   0.08478
  -0.24123  -0.32141   0.08478
  -0.24123  -0.80141   0.08478
  -0.00123  -0.80141  -0.15522
  -0.24123  -0.80141  -0.15522
  -0.00123  -0.32141  -0.15522
  -0.00123   0.15859  -0.15522
   0.23877   0.87859  -0.15522
   0.23877   1.11859  -0.15522
   0.23877   0.87859   0.08478
  -0.00123   0.63859   0.08478
  -0.00123   0.39859   0.08478
  -0.24123   0.15859   0.32478
  -0.24123  -0.08141   0.08478
  -0.24123  -0.32141   0.08478
  -0.24123  -0.56141  -0.15522
  -0.00123  -0.56141  -0.39522
  -0.00123  -0.32141  -0.39522
  -0.00123   0.15859  -0.39522
   0.23877   0.15859  -0.39522
   0.23877   0.39859  -0.15522
   0.23877   0.39859   0.08478
   0.23877   0.39859   0.32478
  -0.00123   0.15859   0.32478
  -0.00123   0.15859   0.32478
  -0.24123   0.15859   0.32478
  -0.24123   0.15859   0.08478
  -0.24123  -0.08141   0.08478
  -0.24123  -0.32141  -0.39522
  -0.00123  -0.32141  -0.39522
   0.23877  -0.32141  -0.39522
   0.23877  -0.08141  -0.39522
   0.23877   0.15859  -0.15522
   0.23877  -0.08141   0.08478
  -0.00123  -0.08141   0.08478
  -0.00123  -0.32141   0.08478
  -0.24123  -0.32141   0.08478
  -0.24123  -0.32141   0.08478
  -0.00123  -0.08141   0.08478
  -0.00123  -0.08141   0.08478
  -0.00123  -0.08141   0.08478
   0.23877  -0.08141  -0.15522
   0.23877  -0.08141   0.08478
   0.23877  -0.08141   0.08478
  -0.00123  -0.08141   0.08478
  -0.00123   0.15859   0.08478
  -0.00123   0.15859   0.08478
  -0.00123   0.15859   0.08478
  -0.00123   0.15859   0.08478
  -0.00123   0.15859   0.08478
  -0.24123   0.15859   0.08478
  -0.24123  -0.08141   0.08478
  -0.24123  -0.08141  -0.15522
  -0.24123  -0.32141   0.08478
  -0.00123  -0.56141   0.08478
  -0.00123  -0.80141  -0.15522
  -0.00123  -0.56141   0.08478
  -0.00123  -0.56141  -0.15522
   0.23877  -0.32141  -0.15522
   0.23877  -0.08141  -0.15522
  -0.00123   0.15859  -0.15522
  -0.00123   0.15859   0.08478
  -0.00123   0.39859   0.08478
  -0.00123   0.63859   0.32478
  -0.00123   0.63859   0.32478
  -0.00123   0.63859   0.08478
  -0.00123   0.15859   0.08478
  -0.00123  -0.32141  -0.15522
  -0.00123  -0.56141  -0.15522
  -0.24123  -0.80141  -0.15522
  -0.24123  -0.56141   0.08478
  -0.00123  -0.08141  -0.15522
  -0.00123   0.15859  -0.15522
   0.23877   0.39859  -0.15522
   0.23877   0.39859   0.08478
   0.47877   0.15859   0.08478
   0.23877   0.15859   0.08478
  -0.00123  -0.08141   0.08478
  -0.00123  -0.32141   0.08478
  -0.00123  -0.32141   0.08478
  -0.00123  -0.08141   0.08478
  -0.00123   0.15859   0.08478
  -0.00123   0.63859   0.08478
  -0.00123   0.63859  -0.15522
  -0.24123   0.39859  -0.39522
  -0.00123   0.15859  -0.15522
  -0.00123  -0.08141  -0.15522
  -0.00123  -0.32141   0.08478
  -0.00123  -0.32141   0.08478
   0.23877  -0.32141   0.08478
  -0.00123  -0.32141   0.08478
  -0.00123  -0.32141   0.08478
  -0.00123  -0.32141  -0.15522
  -0.00123  -0.08141  -0.15522
  -0.00123   0.15859  -0.15522
  -0.00123   0.39859  -0.39522
  -0.00123   0.39859  -0.15522
  -0.00123   0.39859  -0.15522
  -0.00123   0.39859   0.08478
   0.23877   0.39859   0.32478
  -0.00123   0.15859   0.32478
  -0.00123  -0.08141   0.32478
  -0.24123  -0.32141   0.08478
  -0.24123  -0.56141  -0.15522
  -0.00123  -0.56141  -0.15522
  -0.00123  -0.80141  -0.15522
  -0.00123  -0.80141  -0.15522
   0.23877  -0.56141   0.08478
   0.23877  -0.32141   0.08478
   0.23877  -0.08141   0.08478
   0.23877   0.15859   0.08478
  -0.00123   0.15859   0.08478
  -0.00123   0.15859   0.08478
  -0.24123   0.39859   0.08478
  -0.24123   0.63859   0.08478
  -0.00123   0.63859   0.08478
  -0.00123   0.63859  -0.15522
  -0.00123   0.39859  -0.15522
  -0.00123   0.15859  -0.15522
  -0.00123  -0.08141  -0.15522
  -0.00123  -0.08141   0.08478
  -0.00123   0.15859   0.08478
  -0.00123   0.15859   0.08478
   0.23877   0.39859   0.08478
   0.23877   0.15859   0.08478
   0.23877  -0.08141  -0.15522
  -0.00123  -0.56141  -0.15522
  -0.00123  -0.80141  -0.15522
  -0.00123  -0.80141   0.08478
  -0.00123  -0.80141   0.08478
  -0.00123  -0.56141  -0.15522
  -0.00123  -0.32141  -0.15522
  -0.00123  -0.32141   0.08478
  -0.00123  -0.08141   0.08478
  -0.00123   0.15859   0.08478
  -0.00123   0.39859   0.08478
  -0.00123   0.63859   0.08478
   0.23877   0.63859   0.32478
   0.23877   0.63859   0.56478
   0.23877   0.15859   0.56478
   0.23877  -0.32141   0.56478
   0.23877  -0.56141   0.32478
   0.23877  -0.56141   0.32478
   0.47877  -0.80141   0.32478
   0.47877  -0.56141   0.32478
   0.47877  -0.56141   0.32478
   0.47877  -0.56141   0.56478
   0.47877  -0.32141   0.56478
   0.23877  -0.32141   0.56478
   0.23877  -0.08141   0.56478
   0.23877   0.15859   0.56478
  -0.00123   0.15859   0.56478
  -0.00123   0.39859   0.56478
  -0.00123   0.39859   0.56478
  -0.00123   0.39859   0.56478
  -0.00123   0.39859   0.32478
  -0.00123   0.39859   0.32478
  -0.00123   0.39859   0.32478
  -0.00123   0.15859   0.08478
  -0.00123   0.15859   0.08478
  -0.24123   0.15859  -0.15522
  -0.48123   0.39859  -0.15522
  -0.48123   0.39859  -0.15522
  -0.48123   0.15859  -0.15522
  -0.72123  -0.08141  -0.15522
  -0.96123  -0.32141  -0.39522
  -0.96123  -0.56141  -0.63522
  -1.44123  -0.56141  -0.63522
  -1.44123  -0.32141  -0.87522
  -1.44123  -0.32141  -0.87522
  -1.44123  -0.08141  -0.87522
  -1.20123   0.15859  -0.87522
  -0.96123   0.15859  -0.63522
  -0.96123   0.15859  -0.63522
  -0.72123   0.15859  -0.63522
  -0.72123   0.39859  -0.39522
  -0.72123   0.63859  -0.15522
  -0.48123   0.87859  -0.39522
  -0.48123   0.87859  -0.15522
  -0.48123   0.63859  -0.15522
  -0.24123   0.63859  -0.15522
  -0.24123   0.39859  -0.39522
  -0.00123   0.15859  -0.39522
  -0.00123   0.15859  -0.39522
   0.23877   0.15859  -0.63522
   0.47877   0.15859  -0.63522
   0.47877   0.15859  -0.63522
   0.47877  -0.08141  -0.63522
   0.47877  -0.08141  -0.63522
   0.47877  -0.08141  -0.63522
   0.47877  -0.32141  -0.63522
   0.47877  -0.32141  -0.63522
   0.23877  -0.08141  -0.39522
   0.47877  -0.08141  -0.39522
   0.47877   0.15859  -0.15522
   0.47877   0.15859  -0.15522
   0.47877  -0.08141  -0.15522
   0.47877  -0.32141   0.08478
   0.23877  -0.56141   0.08478
  -0.00123  -0.80141   0.08478
  -0.24123  -1.04141   0.08478
  -0.24123  -1.04141  -0.15522
  -0.48123  -1.04141  -0.15522
  -0.24123  -1.04141  -0.39522
  -0.24123  -1.04141  -0.63522
  -0.00123  -0.80141  -0.87522
   0.23877  -0.56141  -0.87522
   0.47877  -0.32141  -1.11522
   0.71877  -0.08141  -0.87522
   0.95877  -0.08141  -0.63522
   1.19877  -0.08141  -0.39522
   1.19877  -0.32141  -0.15522
   0.95877  -0.32141   0.32478
   0.71877  -0.56141   0.56478
   0.71877  -0.56141   0.79478
   0.47877  -0.32141   1.03478
   0.23877  -0.32141   1.03478
   0.23877  -0.32141   1.03478
   0.23877  -0.32141   1.03478
   0.23877  -0.08141   1.03478
   0.23877   0.15859   1.03478
  -0.00123   0.15859   1.03478
  -0.00123   0.15859   0.79478
  -0.00123   0.39859   0.79478
  -0.24123   0.15859   0.56478
  -0.24123   0.39859   0.32478
  -0.24123   0.39859   0.08478
  -0.24123   0.63859  -0.15522
  -0.24123   0.63859  -0.39522
  -0.00123   0.39859  -0.63522
  -0.00123   0.39859  -0.63522
  -0.24123   0.15859  -0.63522
  -0.48123   0.15859  -0.63522
  -0.48123   0.15859  -0.39522
  -0.72123   0.15859  -0.39522
  -0.96123   0.15859  -0.39522
  -0.96123   0.15859  -0.39522
  -0.96123   0.39859  -0.39522
  -0.96123   0.63859  -0.63522
  -0.72123   0.39859  -0.63522
  -0.72123   0.39859  -0.39522
  -0.48123   0.39859  -0.15522
  -0.48123   0.15859   0.08478
  -0.48123   0.15859   0.32478
  -0.72123  -0.08141   0.56478
  -0.72123  -0.32141   0.56478
  -0.96123  -0.08141   0.32478
  -0.96123  -0.08141   0.08478
  -0.72123   0.15859  -0.15522
  -0.48123   0.15859  -0.39522
  -0.24123   0.39859  -0.39522
  -0.00123   0.39859  -0.15522
   0.23877   0.39859   0.08478
   0.47877   0.15859   0.32478
   0.47877   0.15859   0.32478
   0.23877   0.15859   0.32478
   0.23877   0.15859   0.32478
   0.23877   0.15859   0.08478
  -0.00123   0.15859  -0.15522
  -0.00123  -0.08141  -0.39522
  -0.00123  -0.08141  -0.15522
  -0.00123  -0.32141  -0.15522
   0.23877  -0.32141   0.08478
   0.47877  -0.32141   0.08478
   0.71877  -0.08141   0.08478
   0.95877   0.15859   0.08478
   1.43877   0.15859   0.08478
   1.67877   0.15859  -0.15522
   1.90877   0.15859  -0.15522
   1.90877  -0.08141  -0.15522
   1.43877  -0.08141   0.08478
   0.95877  -0.32141   0.08478
   0.47877  -0.32141   0.32478
  -0.00123  -0.32141   0.32478
  -0.48123  -0.32141   0.08478
  -0.72123  -0.56141  -0.15522
  -0.72123  -0.56141  -0.15522
  -0.48123  -0.56141  -0.15522
  -0.24123  -0.56141  -0.15522
  -0.24123  -0.56141   0.08478
  -0.00123  -0.32141   0.32478
  -0.00123  -0.08141   0.32478
  -0.24123  -0.08141   0.56478
  -0.24123   0.15859   0.32478
  -0.24123   0.15859   0.08478
  -0.24123   0.39859  -0.15522
  -0.24123   0.39859  -0.39522
  -0.24123   0.39859  -0.63522
  -0.24123   0.39859  -0.63522
  -0.24123   0.39859  -0.39522
  -0.24123   0.39859  -0.15522
  -0.24123   0.39859   0.08478
  -0.24123   0.39859   0.08478
  -0.00123   0.39859   0.32478
  -0.00123   0.39859   0.08478
   0.23877   0.15859   0.08478
   0.23877   0.15859   0.08478
   0.23877  -0.08141  -0.15522
   0.47877  -0.08141   0.08478
   0.23877  -0.08141   0.08478
  -0.00123  -0.08141  -0.15522
  -0.24123  -0.08141  -0.15522
  -0.48123   0.15859  -0.15522
  -0.96123   0.15859  -0.15522
  -1.20123   0.15859  -0.39522
  -1.44123  -0.08141  -0.15522
  -1.44123  -0.32141  -0.15522
  -1.20123  -0.56141  -0.39522
  -0.96123  -0.56141  -0.39522
  -0.48123  -0.56141  -0.15522
  -0.24123  -0.56141  -0.15522
  -0.00123  -0.32141  -0.15522
   0.23877  -0.08141   0.08478
   0.47877  -0.08141   0.08478
   0.71877  -0.08141   0.08478
   0.71877  -0.08141   0.32478
   0.71877  -0.08141   0.32478
   0.71877  -0.08141   0.56478
   0.47877  -0.08141   0.56478
   0.47877  -0.08141   0.56478
   0.23877  -0.08141   0.56478
  -0.00123  -0.08141   0.56478
  -0.00123  -0.08141   0.32478
  -0.00123  -0.08141   0.32478
  -0.00123   0.15859  -0.15522
   0.23877   0.15859  -0.15522
   0.47877   0.15859  -0.39522
   0.47877  -0.08141  -0.39522
   0.47877  -0.08141  -0.39522
   0.47877  -0.32141  -0.39522
   0.47877  -0.56141  -0.39522
   0.47877  -0.56141  -0.15522
   0.71877  -0.56141  -0.39522
   0.71877  -0.56141  -0.39522
   0.71877  -0.56141  -0.39522
   0.71877  -0.32141  -0.39522
   0.47877  -0.08141  -0.39522
   0.47877  -0.08141  -0.15522
   0.23877  -0.08141   0.08478
  -0.00123   0.15859  -0.15522
  -0.24123   0.15859   0.08478
  -0.24123   0.15859   0.32478
  -0.24123   0.39859   0.32478
  -0.24123   0.39859   0.32478
  -0.24123   0.39859   0.08478
  -0.24123   0.39859   0.08478
  -0.24123   0.39859   0.08478
  -0.48123   0.39859   0.08478
  -0.48123   0.39859   0.08478
  -0.72123   0.39859   0.08478
  -0.48123   0.15859   0.08478
  -0.48123   0.15859   0.08478
  -0.24123   0.15859   0.32478
  -0.00123   0.15859   0.56478
   0.23877   0.39859   0.56478
   0.47877   0.15859   0.56478
   0.47877   0.39859   0.56478
   0.47877   0.39859   0.32478
   0.23877   0.63859   0.32478
  -0.00123   0.63859  -0.15522
  -0.24123   0.87859  -0.15522
  -0.48123   0.87859   0.08478
  -0.72123   0.87859  -0.15522
  -0.48123   0.63859  -0.15522
  -0.48123   0.63859   0.08478
  -0.48123   0.39859   0.32478
  -0.24123   0.39859   0.32478
  -0.00123   0.15859   0.56478
   0.23877   0.15859   0.56478
   0.47877   0.15859   0.56478
   0.47877   0.15859   0.79478
   0.47877   0.15859   0.56478
   0.47877   0.15859   0.56478
   0.23877  -0.08141   0.32478
   0.23877  -0.08141   0.08478
  -0.00123  -0.32141  -0.39522
  -0.24123  -0.32141  -0.63522
  -0.48123  -0.32141  -1.11522
  -0.72123  -0.32141  -1.35522
  -0.72123  -0.32141  -1.35522
  -0.72123  -0.08141  -1.35522
  -0.48123  -0.08141  -1.11522
  -0.48123   0.15859  -1.11522
  -0.00123  -0.08141  -0.87522
   0.23877  -0.08141  -0.39522
   0.47877  -0.08141  -0.15522
   0.47877  -0.32141   0.32478
   0.47877  -0.32141   0.32478
   0.47877  -0.32141   0.56478
   0.23877  -0.32141   0.79478
  -0.00123  -0.32141   0.56478
  -0.00123  -0.32141   0.56478
  -0.24123  -0.32141   0.56478
  -0.24123  -0.32141   0.32478
  -0.00123  -0.56141   0.08478
   0.23877  -0.56141  -0.15522
   0.47877  -0.56141  -0.15522
   0.47877  -0.56141  -0.15522
   0.71877  -0.32141  -0.15522
   0.71877  -0.32141  -0.15522
   0.47877  -0.32141  -0.15522
   0.23877  -0.32141  -0.39522
  -0.00123  -0.32141  -0.63522
  -0.00123  -0.32141  -0.63522
  -0.24123  -0.08141  -0.87522
  -0.24123  -0.08141  -1.11522
  -0.24123   0.15859  -0.87522
  -0.24123   0.15859  -0.87522
  -0.00123   0.15859  -0.87522
  -0.00123   0.15859  -0.63522
  -0.00123   0.15859  -0.63522
  -0.00123   0.15859  -0.63522
  -0.00123   0.15859  -0.39522
  -0.00123   0.15859  -0.39522
  -0.00123  -0.08141  -0.39522
  -0.00123  -0.32141  -0.39522
  -0.00123  -0.32141  -0.39522
  -0.00123  -0.32141  -0.63522
  -0.00123  -0.32141  -0.63522
