********************************************************************************
               CENTRO DE INSTRUMENTACION Y REGISTRO SISMICO  A.C.  
                       Coordinacion de Servicios Tecnicos
     Anaxagoras 814, Col. Narvarte, Benito Juarez, C.P. 03020 Mexico, D.F.
            Tels. 667 45 42/ 687 45  82             Fax. 669 25 12
********************************************************************************
ARCHIVO ESTANDAR DE ACELERACION:
VERSION DEL FORMATO                    : 2.0
NOMBRE DEL ARCHIVO                     : BA499804.201
FECHA Y HORA DE CREACION               : 31/ENERO/2000, 10:10
REF. CATALOGO ACELEROGRAMAS, SMIS 1996 : REGISTRO No.     /PAG.


================================================================================
DATOS DE LA ESTACION:
NOMBRE DE LA ESTACION                  : BUENOS AIRES
CLAVE DE LA ESTACION                   : BA49
LOCALIZACION DE LA ESTACION            : ESCUELA SECUNDARIA 102, DOCTOR MARQUEZ
                                       : Y EJE CENTRAL, BUENOS AIRES.
                                       :
                                       :
                                       :
COORDENADAS DE LA ESTACION             : 19.410 LAT. N 
                                       : 99.145 LONG. W 
ALTITUD (msnm)                         : 2233
TIPO DE SUELO                          : TERRENO BLANDO, MATERIAL COMPRESIBLE
                                       : (ARCILLAS)
                                       : 
INSTITUCION RESPONSABLE                : CIRES 
                                       :

================================================================================
DATOS DEL ACELEROGRAFO:
MODELO DEL ACELEROGRAFO                : SSA-1
NUMERO DE SERIE DEL ACELEROGRAFO       : 176
NUMERO DE CANALES                      : 3
ORIENTACION C1-C6 (rumbo;orientacion)  : /N00E/+V/N90E
ORIENTACION C7-C12 (rumbo;orientacion) :
VEL. DE MUESTREO, C1-C6 (muestras/s)   : /200/200/200
VEL. DE MUESTREO, C7-C12 (muestras/s)  :
ESC. COMPLETA DE SENSORES, C1-C6, (g)  : /2/2/2
ESC. COMPLETA DE SENSORES, C7-C12, (g) :
FREC. NAT. DE SENSORES, C1-C6, (Hz)    : /52.99/52.03/52.99
FREC. NAT. DE SENSORES, C7-C12, (Hz)   :
AMORTIGUAMIENTO DE SENSORES, C1-C6     : /.5589/.5469/.6096
AMORTIGUAMIENTO DE SENSORES, C7-C12    :
INTERVALO DE MUESTREO, C1-C6, (s)      : /0.005/0.005/0.005
INTERVALO DE MUESTREO, C7-C12, (s)     :
UMBRAL DE DISPARO, C1-C6, (Gal)        : /2/2/2
UMBRAL DE DISPARO, C7-C12, (Gal)       :
MEMORIA DE PREEVENTO (s)               : 15
TIEMPO DE POSEVENTO (s)                : 60


================================================================================
DATOS DEL SISMO:
FECHA DEL SISMO (GMT)                  : 20/ABR/98
HORA EPICENTRO (GMT)                   : 22:59:17.00
MAGNITUD(ES)                           : /Mb=5.4/Mc=5.0/Ma=5.5/Me=5.7
COORDENADAS DEL EPICENTRO              : 18.37 LAT. N
                                       : 101.21 LONG. W
PROFUNDIDAD FOCAL (km)                 : 66.0
FUENTE DE LOS DATOS EPICENTRALES       : SSN
                                       : INSTITUTO DE GEOFISICA, UNAM

================================================================================
DATOS DE ESTE REGISTRO:
HORA DE LA PRIMERA MUESTRA (GMT)       : 23:00:20.00
EXACTITUD DEL TIEMPO (s)               :     
DURACION DEL REGISTRO (s), C1-C6       : /135.68/135.68/135.68
DURACION DEL REGISTRO (s), C7-C12      :
NUM. TOTAL DE MUESTRAS, C1-C6          : /27136/27136/27136
NUM. TOTAL DE MUESTRAS, C7-C12         :
ACEL. MAX. (Gal), C1-C6                : /6.21842/1.71369/3.48752
ACEL. MAX., C1-C6, EN LA MUESTRA       :
ACEL. MAX. (Gal), C7-C12               :
ACEL. MAX., C7-C12, EN LA MUESTRA      :
UNIDADES DE LOS DATOS                  : Gal (cm/s/s)
FACTOR DE DECIMACION                   : 1
FORMATO DATOS (FORTRAN,10 campos/dato) : 3F10.5


================================================================================
CALIDAD DEL ACELEROGRAMA:
REGISTRO DIGITAL COMPLETO, CARECE DE TIEMPO ABSOLUTO.


================================================================================
COMENTARIOS:














================================================================================
DATOS DE ACELERACION:
---------+---------+---------+---------+---------+---------+---------+---------+
   CANAL-1   CANAL-2   CANAL-3   CANAL-4   CANAL-5   CANAL-6   CANAL-7   CANAL-8
      N00E        +V      N90E
---------+---------+---------+---------+---------+---------+---------+---------+
[...]
   1.20158  -1.23369  -0.84752
   1.44158  -1.47369  -0.84752
   1.44158  -1.47369  -0.84752
   1.68158  -1.47369  -0.60752
   1.68158  -1.47369  -0.60752
   1.92158  -1.23369  -0.60752
   2.16158  -1.47369  -0.60752
   2.16158  -1.23369  -0.60752
   2.40158  -1.23369  -0.60752
   2.40158  -1.23369  -0.60752
   2.64158  -1.23369  -0.60752
   2.64158  -1.00369  -0.36752
   2.88158  -1.00369  -0.36752
   3.12158  -0.76369  -0.36752
   3.12158  -0.52369  -0.36752
   3.12158  -0.52369  -0.36752
   3.36158  -0.52369  -0.36752
   3.36158  -0.28369  -0.36752
   3.36158  -0.28369  -0.36752
   3.60158  -0.04369  -0.12752
   3.60158  -0.04369  -0.36752
   3.84158   0.19631  -0.12752
   3.84158   0.19631  -0.12752
   4.08158   0.19631  -0.12752
   4.08158   0.19631   0.11248
   4.08158   0.19631   0.11248
   4.08158   0.19631   0.11248
   4.08158   0.19631   0.11248
   4.08158   0.43631   0.34248
   4.08158   0.19631   0.34248
   4.32158   0.19631   0.34248
   4.32158   0.43631   0.34248
   4.32158   0.43631   0.34248
   4.32158   0.43631   0.34248
   4.32158   0.43631   0.34248
   4.32158   0.67631   0.34248
   4.32158   0.67631   0.34248
   4.32158   0.67631   0.34248
   4.32158   0.67631   0.34248
   4.32158   0.67631   0.58248
   4.32158   0.91631   0.58248
   4.32158   0.91631   0.58248
   4.32158   0.91631   0.58248
   4.56158   0.91631   0.58248
   4.56158   0.91631   0.58248
   4.56158   1.15631   0.58248
   4.56158   1.15631   0.58248
   4.56158   1.15631   0.58248
   4.56158   1.15631   0.58248
   4.56158   0.91631   0.58248
   4.56158   1.15631   0.58248
   4.56158   1.15631   0.58248
   4.56158   1.15631   0.58248
   4.56158   1.15631   0.58248
   4.32158   1.15631   0.34248
   4.32158   1.15631   0.34248
   4.32158   1.15631   0.34248
   4.32158   1.15631   0.34248
   4.32158   0.91631   0.34248
   4.08158   1.15631   0.34248
   4.08158   0.91631   0.34248
   4.08158   0.91631   0.11248
   4.08158   0.91631   0.11248
   4.08158   0.91631   0.11248
   4.08158   0.91631   0.11248
   4.08158   0.91631   0.11248
   4.08158   0.67631   0.11248
   3.84158   0.67631   0.11248
   3.84158   0.67631   0.11248
   3.84158   0.67631   0.11248
   3.60158   0.67631   0.34248
   3.60158   0.67631   0.34248
   3.36158   0.67631   0.11248
   3.36158   0.67631   0.11248
   3.12158   0.67631   0.11248
   3.12158   0.67631   0.11248
   2.88158   0.67631   0.11248
   2.88158   0.67631   0.11248
   2.88158   0.67631   0.11248
   2.64158   0.67631   0.11248
   2.64158   0.67631   0.11248
   2.40158   0.67631   0.11248
   2.40158   0.67631   0.11248
   2.16158   0.91631   0.11248
   2.16158   0.91631   0.11248
   1.92158   0.91631   0.11248
   1.92158   0.91631   0.11248
   1.68158   0.91631   0.11248
   1.44158   0.91631   0.11248
   1.44158   0.91631   0.34248
   1.44158   0.91631   0.34248
   1.20158   1.15631   0.34248
   0.96158   1.15631   0.34248
   0.96158   1.15631   0.34248
   0.96158   1.15631   0.34248
   0.72158   1.15631   0.34248
   0.72158   1.15631   0.34248
   0.49158   1.15631   0.34248
   0.49158   0.91631   0.34248
   0.25158   0.91631   0.34248
   0.25158   0.91631   0.34248
   0.01158   0.67631   0.34248
   0.01158   0.67631   0.34248
  -0.22842   0.67631   0.34248
  -0.22842   0.67631   0.34248
  -0.22842   0.67631   0.34248
  -0.22842   0.43631   0.34248
  -0.46842   0.43631   0.34248
  -0.46842   0.43631   0.34248
  -0.46842   0.43631   0.34248
  -0.46842   0.43631   0.34248
  -0.70842   0.43631   0.34248
  -0.70842   0.43631   0.34248
  -0.70842   0.19631   0.34248
  -0.94842   0.19631   0.34248
  -0.94842   0.19631   0.34248
  -0.94842   0.19631   0.34248
  -0.94842   0.19631   0.11248
  -1.18842   0.19631   0.11248
  -1.18842   0.19631   0.11248
  -1.18842   0.19631   0.11248
  -1.18842   0.19631   0.11248
  -1.18842   0.19631   0.11248
  -1.18842   0.19631  -0.12752
  -1.18842   0.19631  -0.12752
  -0.94842   0.19631  -0.12752
  -1.18842   0.19631  -0.12752
  -1.18842   0.19631  -0.12752
  -1.18842   0.19631  -0.12752
  -1.18842   0.19631  -0.12752
  -1.42842   0.19631  -0.12752
  -1.42842   0.19631  -0.12752
  -1.42842   0.19631  -0.36752
  -1.42842   0.19631  -0.36752
  -1.18842  -0.04369  -0.36752
  -1.18842  -0.04369  -0.36752
  -1.18842  -0.04369  -0.36752
  -1.18842  -0.28369  -0.36752
  -1.18842  -0.28369  -0.60752
  -1.18842  -0.28369  -0.60752
  -1.18842  -0.28369  -0.60752
  -1.18842  -0.28369  -0.60752
  -1.18842  -0.28369  -0.60752
  -1.18842  -0.28369  -0.60752
  -1.18842  -0.28369  -0.60752
  -1.18842  -0.28369  -0.60752
  -1.18842  -0.28369  -0.60752
  -0.94842  -0.28369  -0.60752
  -0.94842  -0.28369  -0.60752
  -0.94842  -0.04369  -0.60752
  -0.94842  -0.28369  -0.60752
  -0.94842  -0.04369  -0.60752
  -0.70842  -0.28369  -0.60752
  -0.70842  -0.28369  -0.60752
  -0.70842  -0.28369  -0.60752
  -0.46842  -0.28369  -0.36752
  -0.46842  -0.28369  -0.36752
  -0.46842  -0.52369  -0.36752
  -0.46842  -0.52369  -0.36752
  -0.46842  -0.52369  -0.36752
  -0.46842  -0.76369  -0.36752
  -0.22842  -0.76369  -0.12752
  -0.22842  -0.76369  -0.12752
  -0.22842  -0.76369  -0.12752
  -0.22842  -0.76369  -0.12752
   0.01158  -0.76369  -0.12752
   0.01158  -1.00369  -0.12752
   0.01158  -1.00369  -0.12752
   0.25158  -1.00369  -0.12752
   0.25158  -1.00369  -0.12752
   0.25158  -1.00369  -0.12752
   0.25158  -1.00369   0.11248
   0.25158  -1.00369   0.11248
   0.25158  -1.00369   0.11248
   0.25158  -1.00369   0.11248
   0.49158  -1.00369   0.11248
   0.49158  -1.00369   0.11248
   0.49158  -1.00369   0.11248
   0.72158  -1.00369   0.11248
   0.72158  -1.00369   0.11248
   0.72158  -1.23369   0.34248
   0.96158  -1.23369   0.11248
   0.96158  -1.23369   0.11248
   0.96158  -1.23369   0.11248
   0.96158  -1.23369   0.34248
   0.96158  -1.23369   0.34248
   1.20158  -1.23369   0.34248
   1.20158  -1.23369   0.34248
   1.20158  -1.23369   0.34248
   1.20158  -1.23369   0.34248
   1.20158  -1.23369   0.34248
   1.44158  -1.23369   0.34248
   1.68158  -1.23369   0.34248
   1.68158  -1.23369   0.34248
   1.92158  -1.23369   0.34248
   2.16158  -1.23369   0.34248
   2.16158  -1.00369   0.34248
   2.40158  -1.23369   0.34248
   2.40158  -1.00369   0.34248
   2.40158  -1.00369   0.34248
   2.64158  -1.00369   0.34248
   2.64158  -1.00369   0.58248
   2.88158  -1.00369   0.58248
   2.88158  -0.76369   0.58248
   2.88158  -0.76369   0.58248
   2.88158  -0.76369   0.58248
   3.12158  -0.76369   0.58248
   3.36158  -0.76369   0.58248
   3.36158  -0.76369   0.58248
   3.36158  -0.76369   0.58248
   3.36158  -0.76369   0.58248
   3.36158  -0.76369   0.58248
   3.60158  -0.76369   0.58248
   3.36158  -0.76369   0.82248
   3.60158  -0.76369   0.82248
   3.60158  -0.76369   0.58248
   3.60158  -0.52369   0.82248
   3.60158  -0.52369   0.82248
   3.60158  -0.52369   0.82248
   3.60158  -0.52369   0.82248
   3.84158  -0.52369   0.82248
   3.84158  -0.28369   0.82248
   3.84158  -0.28369   0.82248
   3.84158  -0.28369   0.82248
   4.08158  -0.28369   0.82248
   4.08158  -0.28369   0.82248
   4.08158  -0.28369   1.06248
   4.08158  -0.04369   1.06248
   4.08158  -0.04369   1.06248
   4.08158  -0.04369   1.06248
   4.08158  -0.04369   1.06248
   4.08158   0.19631   1.06248
   4.08158   0.19631   1.06248
   4.08158   0.43631   1.06248
   4.08158   0.19631   1.06248
   4.08158   0.19631   1.06248
   4.08158   0.19631   1.06248
   4.08158   0.19631   1.06248
   4.08158   0.43631   1.06248
   4.08158   0.43631   1.06248
   3.84158   0.43631   1.06248
   3.84158   0.43631   1.06248
   3.84158   0.43631   1.06248
   3.84158   0.43631   1.06248
   3.84158   0.67631   1.06248
   3.60158   0.67631   1.06248
   3.60158   0.91631   1.06248
   3.60158   0.67631   0.82248
   3.60158   0.91631   0.82248
   3.60158   1.15631   1.06248
   3.36158   1.15631   0.82248
   3.36158   1.15631   0.82248
   3.36158   1.15631   0.82248
   3.12158   1.15631   0.82248
   3.12158   1.15631   0.82248
   2.88158   1.15631   0.58248
   2.88158   1.15631   0.58248
   2.64158   1.15631   0.34248
   2.64158   1.15631   0.34248
   2.40158   1.15631   0.34248
   2.40158   1.15631   0.34248
   2.16158   1.39631   0.34248
   1.92158   1.15631   0.34248
   1.92158   1.15631   0.11248
   1.68158   1.15631   0.11248
   1.68158   1.15631   0.11248
   1.44158   1.39631   0.11248
   1.44158   1.39631  -0.12752
   1.44158   1.39631  -0.12752
   1.20158   1.39631  -0.12752
   1.20158   1.39631  -0.12752
   1.20158   1.39631  -0.12752
   0.96158   1.39631  -0.12752
   0.72158   1.39631   0.11248
   0.72158   1.39631   0.11248
   0.72158   1.39631   0.11248
   0.49158   1.39631   0.11248
   0.25158   1.39631   0.11248
   0.25158   1.39631   0.11248
   0.25158   1.39631   0.11248
   0.01158   1.39631   0.11248
   0.01158   1.39631   0.11248
  -0.22842   1.39631   0.34248
  -0.46842   1.39631   0.34248
  -0.46842   1.39631   0.34248
  -0.46842   1.39631   0.34248
  -0.46842   1.39631   0.34248
  -0.70842   1.39631   0.34248
  -0.70842   1.15631   0.58248
  -0.94842   1.15631   0.58248
  -0.94842   1.15631   0.58248
  -1.18842   1.15631   0.58248
  -1.18842   1.15631   0.58248
  -1.42842   0.91631   0.82248
  -1.66842   0.91631   0.82248
  -1.66842   0.91631   0.58248
  -1.66842   0.91631   0.82248
  -1.90842   0.91631   0.82248
  -1.90842   0.91631   0.82248
  -1.90842   0.91631   0.82248
  -2.14842   0.91631   0.82248
  -2.14842   0.67631   0.82248
  -2.14842   0.67631   0.82248
  -2.38842   0.67631   0.82248
  -2.38842   0.43631   0.82248
  -2.62842   0.43631   0.82248
  -2.62842   0.43631   0.82248
  -2.62842   0.43631   0.82248
  -2.86842   0.19631   0.82248
  -2.86842   0.19631   0.58248
  -2.86842   0.19631   0.82248
  -2.86842   0.19631   0.58248
  -2.86842   0.19631   0.58248
  -3.10842   0.19631   0.58248
  -3.10842   0.19631   0.58248
  -3.10842   0.19631   0.58248
  -3.10842   0.19631   0.58248
  -3.10842  -0.04369   0.58248
  -3.34842  -0.04369   0.34248
  -3.34842  -0.04369   0.34248
  -3.34842  -0.04369   0.34248
  -3.58842  -0.04369   0.34248
  -3.58842  -0.04369   0.34248
  -3.82842  -0.04369   0.34248
  -3.82842  -0.04369   0.34248
  -4.06842  -0.28369   0.34248
  -4.06842  -0.28369   0.34248
  -4.29842  -0.28369   0.34248
  -4.29842  -0.28369   0.34248
  -4.29842  -0.28369   0.34248
  -4.29842  -0.28369   0.34248
  -4.53842  -0.28369   0.34248
  -4.53842  -0.52369   0.34248
  -4.77842  -0.52369   0.34248
  -5.01842  -0.52369   0.34248
  -5.25842  -0.76369   0.34248
  -5.25842  -0.76369   0.34248
  -5.49842  -0.76369   0.34248
  -5.49842  -0.76369   0.34248
  -5.73842  -0.76369   0.34248
  -5.73842  -0.76369   0.34248
  -5.73842  -0.76369   0.34248
  -5.73842  -0.76369   0.34248
  -5.73842  -0.76369   0.34248
  -5.73842  -0.76369   0.34248
  -5.97842  -0.76369   0.34248
  -5.97842  -0.76369   0.34248
  -5.97842  -0.76369   0.34248
  -6.21842  -0.76369   0.34248
  -6.21842  -0.76369   0.34248
  -6.21842  -0.76369   0.34248
  -6.21842  -0.76369   0.34248
  -6.21842  -0.76369   0.34248
  -6.21842  -0.52369   0.34248
  -6.21842  -0.76369   0.11248
  -6.21842  -0.52369   0.34248
  -6.21842  -0.52369   0.11248
  -5.97842  -0.52369   0.34248
  -5.97842  -0.52369   0.34248
  -5.97842  -0.52369   0.34248
  -5.97842  -0.76369   0.34248
  -5.97842  -0.76369   0.34248
  -5.97842  -0.76369   0.34248
  -5.97842  -0.76369   0.34248
  -5.97842  -0.76369   0.34248
  -5.73842  -0.76369   0.34248
  -5.73842  -0.76369   0.34248
  -5.73842  -1.00369   0.34248
  -5.49842  -1.00369   0.34248
  -5.49842  -1.00369   0.34248
  -5.49842  -1.00369   0.34248
  -5.25842  -1.00369   0.34248
  -5.25842  -1.23369   0.34248
  -5.01842  -1.23369   0.34248
  -5.01842  -1.23369   0.11248
  -5.01842  -1.47369   0.11248
  -4.77842  -1.47369   0.11248
  -4.77842  -1.47369   0.11248
  -4.53842  -1.47369   0.11248
  -4.53842  -1.47369   0.11248
  -4.29842  -1.71369  -0.12752
  -4.29842  -1.71369  -0.12752
  -4.06842  -1.71369  -0.12752
  -3.82842  -1.71369  -0.12752
  -3.82842  -1.71369  -0.12752
  -3.58842  -1.71369  -0.12752
  -3.58842  -1.71369  -0.12752
  -3.58842  -1.47369  -0.36752
  -3.34842  -1.47369  -0.36752
  -3.10842  -1.47369  -0.36752
  -3.10842  -1.47369  -0.36752
  -2.86842  -1.47369  -0.60752
  -2.62842  -1.23369  -0.60752
  -2.38842  -1.23369  -0.60752
  -2.38842  -1.23369  -0.84752
  -2.14842  -1.23369  -0.84752
  -1.90842  -1.23369  -0.84752
  -1.66842  -1.23369  -0.84752
  -1.66842  -1.23369  -0.84752
  -1.42842  -1.23369  -1.08752
  -1.18842  -1.23369  -1.08752
  -1.18842  -1.23369  -1.08752
  -0.94842  -1.23369  -1.08752
  -0.70842  -1.23369  -1.08752
  -0.70842  -1.23369  -1.08752
  -0.46842  -1.23369  -1.08752
  -0.22842  -1.23369  -1.32752
  -0.22842  -1.23369  -1.32752
   0.01158  -1.23369  -1.32752
   0.25158  -1.23369  -1.32752
   0.25158  -1.23369  -1.56752
   0.49158  -1.23369  -1.56752
   0.72158  -1.23369  -1.56752
   0.72158  -1.23369  -1.56752
   0.96158  -1.00369  -1.56752
   0.96158  -1.00369  -1.56752
   1.20158  -1.00369  -1.56752
   1.44158  -1.00369  -1.56752
   1.44158  -1.00369  -1.80752
   1.68158  -0.76369  -1.80752
   1.68158  -0.76369  -1.80752
   1.92158  -0.52369  -1.80752
   2.16158  -0.52369  -1.80752
   2.16158  -0.28369  -1.80752
   2.40158  -0.28369  -1.80752
   2.40158  -0.28369  -1.80752
   2.64158  -0.28369  -1.80752
   2.64158  -0.28369  -1.80752
   2.64158  -0.04369  -1.80752
   2.88158  -0.04369  -1.80752
   2.88158  -0.04369  -1.56752
   2.88158   0.19631  -1.80752
   3.12158   0.43631  -1.80752
   3.12158   0.43631  -1.80752
   3.36158   0.43631  -1.80752
   3.36158   0.67631  -1.80752
   3.36158   0.67631  -1.56752
   3.60158   0.67631  -1.56752
   3.60158   0.67631  -1.56752
   3.60158   0.67631  -1.56752
   3.60158   0.67631  -1.56752
   3.60158   0.67631  -1.56752
   3.84158   0.91631  -1.56752
   3.84158   0.91631  -1.32752
   3.84158   1.15631  -1.32752
   3.84158   1.15631  -1.32752
   3.84158   1.39631  -1.32752
   3.84158   1.39631  -1.32752
   3.84158   1.39631  -1.32752
   3.84158   1.39631  -1.32752
   3.84158   1.63631  -1.08752
   3.84158   1.63631  -1.08752
   3.84158   1.63631  -1.08752
   3.84158   1.63631  -1.08752
   3.84158   1.63631  -1.08752
   3.60158   1.63631  -0.84752
   3.60158   1.63631  -0.84752
   3.60158   1.63631  -0.84752
   3.60158   1.63631  -0.84752
   3.36158   1.63631  -0.60752
   3.36158   1.63631  -0.60752
   3.36158   1.63631  -0.60752
   3.12158   1.63631  -0.60752
   3.12158   1.63631  -0.60752
   3.12158   1.63631  -0.36752
   3.12158   1.63631  -0.36752
   2.88158   1.63631  -0.36752
   2.88158   1.63631  -0.12752
   2.64158   1.63631  -0.12752
   2.64158   1.63631  -0.12752
   2.40158   1.63631  -0.12752
   2.16158   1.63631   0.11248
   2.16158   1.63631   0.11248
   1.92158   1.63631   0.11248
   1.92158   1.63631   0.11248
   1.92158   1.63631   0.34248
   1.68158   1.63631   0.34248
   1.68158   1.63631   0.34248
   1.68158   1.63631   0.58248
   1.44158   1.39631   0.58248
   1.44158   1.39631   0.58248
   1.20158   1.15631   0.82248
   0.96158   1.15631   0.82248
   0.72158   1.15631   0.82248
   0.49158   1.15631   0.82248
   0.49158   1.15631   0.82248
   0.25158   0.91631   0.82248
   0.01158   1.15631   0.82248
   0.01158   1.15631   0.82248
  -0.22842   1.15631   1.06248
  -0.22842   0.91631   1.06248
  -0.46842   1.15631   1.06248
  -0.46842   0.91631   1.06248
  -0.70842   0.91631   1.06248
  -0.70842   0.91631   1.06248
  -0.94842   0.91631   1.06248
  -1.18842   0.91631   1.30248
  -1.42842   0.91631   1.30248
