********************************************************************************
               CENTRO DE INSTRUMENTACION Y REGISTRO SISMICO  A.C.  
                              FUNDACION ICA, A.C.
     Anaxagoras 814, Col. Narvarte, Benito Juarez, C.P. 03020 Mexico, D.F.
            Tels. 687 45 42/ 687 45  82             Fax. 669 25 12
********************************************************************************
ARCHIVO ESTANDAR DE ACELERACION:
VERSION DEL FORMATO                    : 2.0
NOMBRE DEL ARCHIVO                     : BA499005.311
FECHA Y HORA DE CREACION               : ABRIL 16, 1996/19:51
REF. CATALOGO ACELEROGRAMAS, SMIS 1995 : REGISTRO No. 2193 /PAG. 215


================================================================================
DATOS DE LA ESTACION:
NOMBRE DE LA ESTACION                  : BUENOS AIRES
CLAVE DE LA ESTACION                   : BA49
LOCALIZACION DE LA ESTACION            : ESCUELA SECUNDARIA 102, DOCTOR MARQUEZ
                                       : Y EJE CENTRAL, BUENOS AIRES.
                                       :
                                       :
                                       :
COORDENADAS DE LA ESTACION             : 19.410 LAT. N 
                                       : 99.145 LONG. W 
ALTITUD (msnm)                         : 2233
TIPO DE SUELO                          : TERRENO BLANDO, MATERIAL COMPRESIBLE
                                       : (ARCILLAS)
                                       : 
INSTITUCION RESPONSABLE                : FICA
                                       :

================================================================================
DATOS DEL ACELEROGRAFO:
MODELO DEL ACELEROGRAFO                : SSA-1
NUMERO DE SERIE DEL ACELEROGRAFO       : 176
NUMERO DE CANALES                      : 3
ORIENTACION C1-C6 (rumbo;orientacion)  : /N00E/+V/N90E
ORIENTACION C7-C12 (rumbo;orientacion) :
VEL. DE MUESTREO, C1-C6 (muestras/s)   : /200/200/200
VEL. DE MUESTREO, C7-C12 (muestras/s)  :
ESC. COMPLETA DE SENSORES, C1-C6, (g)  : /2/2/2
ESC. COMPLETA DE SENSORES, C7-C12, (g) :
FREC. NAT. DE SENSORES, C1-C6, (Hz)    : /50/50/50
FREC. NAT. DE SENSORES, C7-C12, (Hz)   :
AMORTIGUAMIENTO DE SENSORES, C1-C6     : /0.700/0.700/0.700
AMORTIGUAMIENTO DE SENSORES, C7-C12    :
INTERVALO DE MUESTREO, C1-C6, (s)      : /0.005/0.005/0.005
INTERVALO DE MUESTREO, C7-C12, (s)     :
UMBRAL DE DISPARO, C1-C6, (Gal)        : /2/2/2
UMBRAL DE DISPARO, C7-C12, (Gal)       :
MEMORIA DE PREEVENTO (s)               : 15
TIEMPO DE POSEVENTO (s)                : 90


================================================================================
DATOS DEL SISMO:
FECHA DEL SISMO (GMT)                  : 31/MAY/90
HORA EPICENTRO (GMT)                   : 07:35:26,9 
MAGNITUD(ES)                           : /Mb=5.80/Ms=5.90/Mc=5.50
COORDENADAS DEL EPICENTRO              : 17.106 LAT. N 
                                       : 100.893 LONG. W
PROFUNDIDAD FOCAL (km)                 : 15.8 
FUENTE DE LOS DATOS EPICENTRALES       : INSTITUTO DE INGENIERIA UNAM
                                       : 

================================================================================
DATOS DE ESTE REGISTRO:
HORA DE LA PRIMERA MUESTRA (GMT)       : 07:35:27.00
EXACTITUD DEL TIEMPO (s)               :     
DURACION DEL REGISTRO (s), C1-C6       : /204.80/204.80/204.80
DURACION DEL REGISTRO (s), C7-C12      :
NUM. TOTAL DE MUESTRAS, C1-C6          : /40960/40960/40960
NUM. TOTAL DE MUESTRAS, C7-C12         :
ACEL. MAX. (Gal), C1-C6                : /15.63714/3.13900/8.49377
ACEL. MAX., C1-C6, EN LA MUESTRA       :
ACEL. MAX. (Gal), C7-C12               :
ACEL. MAX., C7-C12, EN LA MUESTRA      :
UNIDADES DE LOS DATOS                  : Gal (cm/s/s)
FACTOR DE DECIMACION                   : 1
FORMATO DATOS (FORTRAN,10 campos/dato) : 3F10.5


================================================================================
CALIDAD DEL ACELEROGRAMA:
REGISTRO DIGITAL COMPLETO, CARECE DE TIEMPO ABSOLUTO.


================================================================================
COMENTARIOS:














================================================================================
DATOS DE ACELERACION:
---------+---------+---------+---------+---------+---------+---------+---------+
   CANAL-1   CANAL-2   CANAL-3   CANAL-4   CANAL-5   CANAL-6   CANAL-7   CANAL-8
      N00E        +V      N90E
---------+---------+---------+---------+---------+---------+---------+---------+
[...]
   4.96286   0.74900   2.52623
   4.96286   0.74900   2.52623
   5.44286   1.22900   3.00623
   5.44286   1.22900   3.00623
   5.44286   1.22900   3.00623
   5.92286   1.22900   3.00623
   5.92286   1.22900   3.00623
   5.92286   1.22900   3.00623
   6.40286   1.22900   3.00623
   6.40286   1.22900   3.48623
   6.88286   0.74900   3.48623
   6.88286   1.22900   3.48623
   6.88286   1.22900   3.48623
   7.36286   1.22900   3.48623
   7.36286   1.22900   3.48623
   7.36286   1.22900   3.48623
   7.84286   1.22900   3.48623
   7.84286   1.22900   3.48623
   7.84286   1.22900   3.48623
   8.32286   1.22900   3.48623
   8.32286   1.22900   3.48623
   8.32286   1.22900   3.48623
   8.79286   1.22900   3.48623
   8.32286   1.22900   3.96623
   8.79286   1.22900   3.96623
   8.79286   1.22900   3.96623
   8.79286   1.22900   3.96623
   8.79286   1.22900   3.96623
   9.27286   1.22900   3.96623
   9.27286   1.22900   3.96623
   9.27286   1.22900   3.96623
   9.27286   1.22900   3.96623
   9.27286   1.22900   3.96623
   9.75286   1.22900   3.96623
   9.27286   1.22900   3.96623
   9.75286   1.22900   3.96623
   9.75286   1.70900   3.96623
   9.75286   1.22900   3.96623
   9.75286   1.22900   3.96623
   9.75286   1.70900   3.96623
   9.75286   1.70900   3.96623
   9.27286   1.70900   3.96623
   9.75286   1.70900   3.96623
   9.75286   1.70900   3.96623
   9.75286   1.70900   3.96623
   9.75286   1.70900   4.43623
   9.75286   1.70900   3.96623
   9.75286   1.70900   4.43623
   9.75286   1.70900   4.43623
   9.75286   1.70900   4.43623
   9.27286   1.70900   4.43623
   9.75286   1.70900   4.43623
   9.75286   1.70900   4.43623
   9.27286   2.18900   4.43623
   9.27286   2.18900   4.43623
   9.27286   1.70900   4.91623
   9.27286   1.70900   4.91623
   9.27286   1.70900   4.91623
   9.27286   1.70900   4.91623
   8.79286   2.18900   4.43623
   8.79286   2.18900   4.91623
   8.79286   1.70900   4.91623
   8.79286   1.70900   4.43623
   8.79286   1.70900   4.91623
   8.79286   1.70900   4.91623
   8.79286   1.70900   4.43623
   8.79286   1.70900   4.43623
   8.79286   1.70900   4.91623
   8.79286   1.70900   4.91623
   8.79286   1.70900   4.43623
   8.79286   1.22900   4.91623
   8.79286   1.22900   4.43623
   8.79286   1.22900   4.43623
   8.79286   1.22900   4.43623
   8.79286   1.22900   4.43623
   8.79286   1.22900   4.43623
   8.79286   1.22900   3.96623
   8.32286   0.74900   4.43623
   8.32286   1.22900   3.96623
   8.32286   0.74900   4.43623
   8.32286   0.74900   3.96623
   8.32286   0.74900   3.96623
   8.32286   0.74900   3.96623
   8.32286   0.74900   3.48623
   8.32286   0.26900   3.48623
   8.32286   0.26900   3.48623
   8.32286   0.26900   3.48623
   8.32286   0.26900   3.48623
   7.84286  -0.21100   3.48623
   7.84286  -0.21100   3.00623
   7.84286  -0.21100   3.00623
   7.84286  -0.21100   3.00623
   7.36286  -0.21100   2.52623
   7.36286  -0.21100   3.00623
   7.36286  -0.69100   2.52623
   7.36286  -0.69100   2.52623
   6.88286  -0.69100   2.52623
   6.88286  -0.69100   2.04623
   6.88286  -0.69100   2.04623
   6.40286  -0.69100   2.04623
   6.40286  -0.69100   2.04623
   5.92286  -0.69100   2.04623
   5.92286  -0.69100   2.04623
   5.44286  -0.69100   2.04623
   5.44286  -1.17100   2.04623
   4.96286  -1.17100   2.04623
   4.48286  -1.17100   2.04623
   4.48286  -1.17100   2.04623
   4.00286  -1.17100   2.04623
   4.00286  -1.17100   2.04623
   3.53286  -1.17100   2.04623
   3.05286  -1.17100   2.04623
   2.57286  -1.17100   2.04623
   2.57286  -1.17100   2.04623
   2.09286  -1.17100   1.56623
   2.09286  -1.17100   2.04623
   1.61286  -1.17100   2.04623
   1.61286  -1.17100   2.04623
   1.13286  -1.17100   2.04623
   1.13286  -1.17100   2.04623
   0.17286  -0.69100   2.04623
  -0.30714  -0.69100   2.04623
  -0.30714  -0.69100   2.04623
  -0.30714  -0.69100   2.52623
  -0.78714  -0.69100   2.52623
  -1.26714  -0.69100   2.04623
  -1.26714  -0.69100   2.04623
  -1.73714  -0.69100   2.52623
  -1.73714  -0.69100   2.52623
  -1.73714  -0.69100   2.52623
  -2.21714  -0.21100   2.52623
  -2.21714  -0.21100   2.52623
  -2.69714  -0.21100   2.52623
  -2.69714  -0.21100   2.52623
  -2.69714  -0.21100   2.52623
  -2.69714  -0.21100   2.52623
  -3.17714  -0.21100   2.52623
  -3.17714  -0.21100   2.52623
  -3.17714  -0.21100   2.52623
  -3.17714  -0.21100   2.52623
  -3.17714  -0.21100   2.52623
  -3.65714  -0.21100   2.52623
  -3.17714  -0.21100   2.52623
  -3.65714  -0.21100   2.52623
  -3.17714  -0.21100   3.00623
  -3.65714  -0.21100   3.00623
  -3.65714  -0.21100   3.00623
  -3.17714  -0.21100   3.00623
  -3.17714  -0.21100   3.00623
  -3.65714  -0.21100   3.00623
  -3.17714  -0.69100   2.52623
  -3.17714  -0.69100   3.00623
  -3.17714  -0.69100   3.00623
  -3.17714  -0.69100   3.00623
  -3.17714  -1.17100   3.00623
  -3.17714  -0.69100   3.00623
  -2.69714  -0.69100   2.52623
  -2.69714  -0.69100   3.00623
  -2.69714  -1.17100   3.00623
  -2.21714  -1.17100   3.00623
  -2.21714  -1.17100   3.00623
  -2.21714  -1.17100   2.52623
  -2.21714  -1.17100   3.00623
  -1.73714  -1.17100   3.00623
  -1.73714  -1.17100   3.00623
  -1.73714  -1.17100   3.00623
  -1.73714  -1.17100   2.52623
  -1.26714  -1.65100   2.52623
  -1.26714  -1.65100   3.00623
  -0.78714  -1.65100   2.52623
  -0.78714  -1.65100   2.52623
  -0.78714  -1.65100   2.52623
  -0.78714  -1.65100   2.52623
  -0.30714  -1.65100   2.52623
  -0.30714  -1.65100   2.04623
  -0.30714  -1.65100   2.04623
   0.17286  -1.65100   2.04623
   0.17286  -1.65100   2.04623
   0.65286  -1.65100   1.56623
   0.65286  -1.65100   1.56623
   1.13286  -1.65100   1.56623
   1.61286  -1.65100   1.08623
   1.61286  -1.65100   1.08623
   1.61286  -1.65100   0.60623
   2.09286  -1.65100   0.60623
   2.09286  -1.65100   0.12623
   2.09286  -1.65100   0.12623
   2.57286  -1.65100   0.12623
   2.57286  -1.65100  -0.35377
   2.57286  -1.65100  -0.83377
   3.05286  -1.65100  -0.83377
   3.05286  -1.65100  -1.30377
   3.05286  -1.17100  -1.30377
   3.53286  -1.17100  -1.30377
   3.53286  -1.17100  -1.78377
   3.53286  -1.65100  -2.26377
   4.00286  -1.17100  -2.26377
   4.00286  -1.17100  -2.74377
   4.48286  -1.17100  -2.74377
   4.48286  -1.17100  -3.22377
   4.48286  -1.17100  -3.22377
   4.96286  -1.17100  -3.70377
   4.96286  -1.17100  -4.18377
   5.44286  -1.17100  -4.18377
   5.44286  -1.17100  -4.66377
   5.44286  -1.17100  -4.66377
   5.92286  -1.17100  -5.14377
   5.92286  -0.69100  -5.14377
   5.92286  -0.69100  -5.62377
   5.92286  -0.69100  -5.62377
   6.40286  -0.69100  -5.62377
   6.40286  -0.69100  -6.09377
   6.40286  -0.21100  -6.57377
   6.40286  -0.69100  -6.09377
   6.40286  -0.69100  -6.57377
   6.40286  -0.21100  -6.57377
   6.88286  -0.21100  -7.05377
   6.88286  -0.21100  -7.05377
   6.88286  -0.21100  -7.53377
   6.88286  -0.21100  -7.05377
   7.36286  -0.21100  -7.53377
   7.36286  -0.21100  -7.53377
   7.36286  -0.21100  -7.53377
   7.36286  -0.21100  -7.53377
   7.36286   0.26900  -7.53377
   7.36286  -0.21100  -8.01377
   7.36286   0.26900  -8.01377
   7.36286   0.26900  -8.01377
   7.36286   0.26900  -8.01377
   7.36286   0.26900  -8.01377
   7.36286   0.26900  -8.01377
   7.36286   0.26900  -8.01377
   7.36286   0.26900  -8.01377
   7.36286   0.74900  -8.01377
   7.36286   0.74900  -8.01377
   6.88286   0.74900  -8.01377
   6.88286   0.74900  -7.53377
   6.88286   0.74900  -7.53377
   6.88286   0.74900  -8.01377
   6.88286   1.22900  -7.53377
   6.88286   1.22900  -7.53377
   6.40286   1.22900  -7.53377
   6.40286   1.22900  -7.53377
   6.40286   1.70900  -7.53377
   6.40286   1.22900  -7.53377
   5.92286   1.70900  -7.05377
   5.92286   1.70900  -7.05377
   5.92286   1.70900  -7.05377
   5.44286   1.70900  -7.05377
   5.44286   2.18900  -6.57377
   5.44286   1.70900  -6.57377
   5.44286   2.18900  -6.57377
   4.96286   2.18900  -6.57377
   4.96286   2.18900  -6.57377
   4.48286   2.18900  -6.09377
   4.48286   2.65900  -6.09377
   4.48286   2.18900  -6.09377
   4.00286   2.65900  -6.09377
   3.53286   2.65900  -5.62377
   3.53286   2.65900  -5.62377
   3.53286   2.65900  -5.62377
   3.05286   2.65900  -5.62377
   3.05286   2.65900  -5.14377
   2.57286   2.65900  -5.14377
   2.57286   2.65900  -5.14377
   2.57286   2.65900  -5.14377
   2.09286   2.65900  -4.66377
   2.09286   2.65900  -4.66377
   1.61286   3.13900  -4.66377
   1.61286   2.65900  -4.66377
   1.61286   2.65900  -4.66377
   1.13286   2.65900  -4.18377
   0.65286   2.65900  -4.66377
   0.65286   2.65900  -4.18377
   0.17286   2.65900  -4.18377
   0.17286   2.65900  -4.18377
  -0.30714   2.65900  -4.18377
  -0.78714   2.65900  -3.70377
  -0.78714   2.18900  -3.70377
  -0.78714   2.18900  -3.70377
  -0.78714   2.18900  -3.70377
  -1.26714   2.18900  -3.70377
  -1.26714   2.18900  -3.22377
  -1.73714   2.18900  -3.22377
  -2.21714   1.70900  -3.22377
  -2.21714   1.70900  -3.22377
  -2.69714   1.70900  -3.22377
  -2.69714   1.22900  -2.74377
  -3.17714   1.22900  -2.74377
  -3.17714   1.22900  -2.74377
  -3.65714   1.22900  -2.74377
  -4.13714   0.74900  -2.74377
  -4.13714   0.74900  -2.26377
  -4.61714   0.74900  -2.26377
  -4.61714   0.74900  -2.26377
  -5.09714   0.74900  -2.26377
  -5.09714   0.74900  -1.78377
  -5.57714   0.74900  -1.78377
  -6.05714   0.26900  -1.78377
  -6.05714   0.26900  -1.78377
  -6.05714   0.26900  -1.78377
  -6.52714   0.26900  -1.78377
  -7.00714   0.26900  -1.78377
  -7.48714   0.26900  -1.30377
  -7.48714  -0.21100  -1.30377
  -7.96714  -0.21100  -1.30377
  -7.96714  -0.21100  -1.30377
  -8.44714  -0.21100  -1.30377
  -8.44714  -0.21100  -1.30377
  -8.92714  -0.69100  -1.30377
  -8.92714  -0.69100  -0.83377
  -9.40714  -0.69100  -0.83377
  -9.40714  -0.69100  -0.83377
  -9.40714  -0.69100  -0.83377
  -9.88714  -0.69100  -0.83377
  -9.88714  -1.17100  -0.83377
 -10.36714  -1.17100  -0.83377
 -10.36714  -1.17100  -0.83377
 -10.84714  -1.17100  -0.83377
 -10.84714  -1.17100  -0.83377
 -11.31714  -1.17100  -0.83377
 -11.79714  -1.17100  -0.83377
 -11.79714  -1.17100  -0.83377
 -11.79714  -1.17100  -0.83377
 -11.79714  -1.17100  -0.83377
 -12.27714  -1.17100  -0.83377
 -12.27714  -1.17100  -0.35377
 -12.75714  -1.65100  -0.83377
 -12.75714  -1.17100  -0.83377
 -12.75714  -1.65100  -0.35377
 -13.23714  -1.65100  -0.83377
 -13.23714  -1.65100  -0.83377
 -13.23714  -1.65100  -0.35377
 -13.71714  -1.65100  -0.35377
 -13.71714  -1.17100  -0.35377
 -13.71714  -1.65100  -0.83377
 -14.19714  -1.65100  -0.83377
 -13.71714  -1.65100  -0.35377
 -14.19714  -1.65100  -0.35377
 -14.67714  -1.65100  -0.35377
 -14.19714  -1.65100  -0.35377
 -14.67714  -1.65100  -0.35377
 -14.67714  -1.65100  -0.83377
 -14.67714  -1.65100  -0.35377
 -14.67714  -1.65100  -0.83377
 -14.67714  -1.65100  -0.35377
 -15.15714  -1.65100  -0.35377
 -15.15714  -1.65100  -0.83377
 -15.15714  -1.65100  -0.83377
 -15.63714  -1.65100  -0.83377
 -15.15714  -1.65100  -0.83377
 -15.15714  -1.65100  -0.83377
 -15.15714  -1.65100  -0.83377
 -15.15714  -1.65100  -0.83377
 -15.15714  -1.65100  -0.83377
 -15.15714  -1.65100  -0.83377
 -15.15714  -1.17100  -0.83377
 -15.15714  -1.17100  -0.83377
 -15.15714  -1.17100  -0.83377
 -15.15714  -1.17100  -0.83377
 -15.15714  -1.17100  -0.83377
 -15.15714  -1.17100  -0.83377
 -14.67714  -1.17100  -0.83377
 -15.15714  -1.17100  -0.83377
 -14.67714  -0.69100  -0.83377
 -14.67714  -1.17100  -0.83377
 -14.67714  -0.69100  -0.83377
 -14.67714  -1.17100  -0.83377
 -14.67714  -0.69100  -0.83377
 -14.67714  -0.69100  -0.83377
 -14.19714  -0.69100  -0.83377
 -14.19714  -0.69100  -0.83377
 -14.19714  -0.69100  -0.83377
 -13.71714  -0.69100  -0.35377
 -13.71714  -0.69100  -0.35377
 -13.71714  -0.69100  -0.35377
 -13.23714  -0.21100  -0.35377
 -13.23714  -0.69100  -0.35377
 -13.23714  -0.21100  -0.35377
 -13.23714  -0.21100  -0.35377
 -12.75714  -0.21100  -0.35377
 -12.75714  -0.21100  -0.35377
 -12.75714  -0.21100   0.12623
 -12.75714  -0.21100  -0.35377
 -12.27714  -0.21100  -0.35377
 -12.27714  -0.21100  -0.35377
 -11.79714   0.26900   0.12623
 -11.79714  -0.21100  -0.35377
 -11.79714  -0.21100   0.12623
 -11.31714  -0.21100   0.12623
 -11.31714  -0.21100   0.12623
 -11.31714   0.26900   0.12623
 -10.84714  -0.21100   0.12623
 -10.36714   0.26900   0.12623
 -10.36714   0.26900   0.12623
  -9.88714   0.26900   0.12623
  -9.88714   0.26900   0.12623
  -9.88714   0.26900   0.12623
  -9.40714   0.26900   0.12623
  -9.40714   0.26900  -0.35377
  -9.40714   0.26900  -0.35377
  -8.92714   0.26900  -0.35377
  -8.92714   0.26900  -0.35377
  -7.96714   0.26900  -0.35377
  -7.96714   0.26900  -0.35377
  -7.48714   0.26900  -0.35377
  -7.00714   0.26900  -0.35377
  -7.00714   0.74900  -0.35377
  -6.52714   0.74900  -0.35377
  -6.05714   0.74900  -0.83377
  -6.05714   0.74900  -0.35377
  -5.57714   0.26900  -0.35377
  -5.09714   0.74900  -0.35377
  -5.09714   0.74900  -0.83377
  -4.61714   0.74900  -0.35377
  -4.13714   0.74900  -0.83377
  -4.13714   0.74900  -0.83377
  -3.65714   0.74900  -0.35377
  -3.17714   0.74900  -0.83377
  -2.69714   0.74900  -0.83377
  -2.69714   0.74900  -0.83377
  -2.21714   0.74900  -1.30377
  -1.73714   0.74900  -1.30377
  -1.26714   0.74900  -1.30377
  -1.26714   0.26900  -1.30377
  -0.78714   0.74900  -1.30377
  -0.30714   0.74900  -1.30377
  -0.30714   0.74900  -1.30377
   0.17286   0.74900  -1.30377
   0.65286   0.74900  -1.78377
   1.13286   0.74900  -1.78377
   1.13286   0.74900  -1.78377
   1.61286   0.74900  -1.78377
   2.09286   0.74900  -1.78377
   2.09286   0.74900  -1.78377
   2.57286   0.74900  -1.78377
   3.05286   0.74900  -2.26377
   3.05286   1.22900  -2.26377
   3.53286   0.74900  -2.26377
   3.53286   1.22900  -2.26377
   4.00286   0.74900  -2.26377
   4.48286   1.22900  -2.26377
   4.48286   0.74900  -2.26377
   4.96286   0.74900  -2.26377
   4.96286   0.74900  -2.26377
   5.44286   0.74900  -2.74377
   5.44286   1.22900  -2.74377
   5.92286   1.22900  -2.74377
   5.92286   0.74900  -2.74377
   6.40286   0.74900  -2.74377
   6.40286   0.74900  -2.74377
   6.40286   0.74900  -2.74377
   6.88286   0.74900  -2.74377
   6.88286   0.74900  -2.74377
   7.36286   0.74900  -2.74377
   7.36286   0.74900  -2.74377
   7.36286   1.22900  -2.74377
   7.36286   1.22900  -2.74377
   7.36286   0.74900  -2.74377
   7.84286   0.74900  -2.74377
   7.84286   0.74900  -2.74377
   7.84286   0.74900  -2.26377
   7.84286   0.74900  -2.26377
   7.84286   0.74900  -2.26377
   7.84286   0.74900  -2.26377
   8.32286   0.74900  -2.74377
   7.84286   0.74900  -2.26377
   8.32286   0.74900  -2.26377
   7.84286   0.74900  -2.26377
   7.84286   0.74900  -2.26377
   7.84286   0.74900  -1.78377
   7.84286   0.74900  -1.78377
   7.84286   1.22900  -1.78377
   7.84286   1.22900  -1.78377
   7.84286   1.22900  -1.78377
   7.36286   1.22900  -1.78377
   7.84286   1.22900  -1.78377
   7.36286   1.22900  -1.30377
   7.36286   1.22900  -1.78377
   7.36286   1.22900  -1.78377
   6.88286   1.22900  -1.30377
   6.88286   0.74900  -1.30377
   6.88286   0.74900  -1.30377
   6.88286   0.74900  -0.83377
   6.40286   0.74900  -0.83377
   6.40286   1.22900  -0.83377
   6.40286   1.22900  -0.83377
   5.92286   0.74900  -0.35377
   5.44286   0.74900  -0.35377
   5.44286   0.74900  -0.35377
   5.44286   0.74900  -0.35377
   4.96286   0.74900   0.12623
   4.96286   0.74900   0.12623
   4.48286   0.74900   0.12623
   4.00286   0.74900   0.60623
   4.48286   0.74900   0.60623
   4.00286   0.26900   1.08623
   3.53286   0.74900   0.60623
   3.53286   0.74900   1.08623
