********************************************************************************
              CENTRO DE INSTRUMENTACION Y REGISTRO SISMICO  A.C.                

    Anaxagoras 814, Col. Narvarte, Benito Juarez, C.P. 03020 Mexico, D.F.       
           Tels. 5687 45 42/ 5687 45  82             Fax. 5669 25 12            
********************************************************************************
ARCHIVO ESTANDAR DE ACELERACION:
VERSION DEL FORMATO                    : 2.0
NOMBRE DEL ARCHIVO                     : BA4919941210161740
FECHA Y HORA DE CREACION               : 05/MAR/18, 11:03
REF. CATALOGO ACELEROGRAMAS, SMIS 1996 : REGISTRO No.     /PAG.


================================================================================
DATOS DE LA ESTACION:
NOMBRE DE LA ESTACION                  : BUENOS AIRES
CLAVE DE LA ESTACION                   : BA49
LOCALIZACION DE LA ESTACION            : Del. Cuauhtémoc, Col. Doctores,        
                                       : Av. Lázaro Cárdenas esq. con           
                                       : Calle Dr. Márquez.                     
                                       :                                        
                                       : 
COORDENADAS DE LA ESTACION             : 19.4097 LAT. N
                                       : 99.1450 LONG. W
ALTITUD (msnm)                         : 2233
TIPO DE SUELO                          : Terreno blando, material compresible
                                       : (arcillas)                
                                       : 
INSTITUCION RESPONSABLE                : CIRES


================================================================================
DATOS DEL ACELEROGRAFO:
MODELO DEL ACELEROGRAFO                : SSA-1
NUMERO DE SERIE DEL ACELEROGRAFO       : 176
NUMERO DE CANALES                      : 3
ORIENTACION C1-C6 (rumbo;orientacion)  : /S00E/+V/N90W
ORIENTACION C7-C12 (rumbo;orientacion) : 
VEL. DE MUESTREO, C1-C6 (muestras/s)   : /200/200/200
VEL. DE MUESTREO, C7-C12 (muestras/s)  : 
ESC. COMPLETA DE SENSORES, C1-C6, (g)  : /2.0/2.0/2.0
ESC. COMPLETA DE SENSORES, C7-C12, (g) : 
FREC. NAT. DE SENSORES, C1-C6, (Hz)    : /52.99/52.03/52.99
FREC. NAT. DE SENSORES, C7-C12, (Hz)   : 
AMORTIGUAMIENTO DE SENSORES, C1-C6     : /0.5589/0.5469/0.6096
AMORTIGUAMIENTO DE SENSORES, C7-C12    : 
INTERVALO DE MUESTREO, C1-C6, (s)      : /0.005/0.005/0.005
INTERVALO DE MUESTREO, C7-C12, (s)     : 
UMBRAL DE DISPARO, C1-C6, (Gal)        : /2.0/2.0/2.0
UMBRAL DE DISPARO, C7-C12, (Gal)       : 
MEMORIA DE PREEVENTO (s)               : 15.36
TIEMPO DE POSEVENTO (s)                : 0.0


================================================================================
DATOS DEL SISMO:
FECHA DEL SISMO (GMT)                  : 10/DIC/94
HORA EPICENTRO (GMT)                   : 16:17:40.0
MAGNITUD(ES)                           : /Mc=6.6
COORDENADAS DEL EPICENTRO              : 17.98 LAT. N
                                       : -101.52 LONG. W
PROFUNDIDAD FOCAL (km)                 : 53
FUENTE DE LOS DATOS EPICENTRALES       : SSN
                                       : INSTITUTO DE GEOFISICA, UNAM

================================================================================
DATOS DE ESTE REGISTRO:
HORA DE LA PRIMERA MUESTRA (GMT)       : 16:18:44.94
EXACTITUD DEL TIEMPO (s)               : 0.005
DURACION DEL REGISTRO (s), C1-C6       : /281.6/281.6/281.6
DURACION DEL REGISTRO (s), C7-C12      : 
NUM. TOTAL DE MUESTRAS, C1-C6          : /56320/56320/56320
NUM. TOTAL DE MUESTRAS, C7-C12         : 
ACEL. MAX. (Gal), C1-C6                : /16.53263/5.13421/15.9678
ACEL. MAX., C1-C6, EN LA MUESTRA       : /11818/9543/8289
ACEL. MAX. (Gal), C7-C12               : 
ACEL. MAX., C7-C12, EN LA MUESTRA      : 
UNIDADES DE LOS DATOS                  : Gal (cm/s/s)
FACTOR DE DECIMACION                   : 1
FORMATO DATOS (FORTRAN,10 campos/dato) : 3F10.5


================================================================================
CALIDAD DEL ACELEROGRAMA:
REGISTRO DIGITAL COMPLETO CON TIEMPO ABSOLUTO CORRECTO.


================================================================================
COMENTARIOS:














================================================================================
DATOS DE ACELERACION:
---------+---------+---------+---------+---------+---------+---------+---------+
   CANAL-1   CANAL-2   CANAL-3   CANAL-4   CANAL-5   CANAL-6   CANAL-7   CANAL-8
      N00E        +V      N90W
---------+---------+---------+---------+---------+---------+---------+---------+
[...]
   5.97287  -0.82465   1.27045
   5.97287  -0.82465   1.50987
   5.97287  -0.82465   1.74929
   6.21229  -0.58523   1.74929
   6.45171  -0.58523   1.74929
   6.69113  -0.58523   2.22813
   6.93055  -0.58523   2.22813
   6.93055  -0.58523   2.46755
   7.16997  -0.58523   2.46755
   7.40939  -0.58523   2.70697
   7.64881  -0.82465   2.70697
   7.88823  -0.82465   2.70697
   7.88823  -0.58523   2.94639
   8.12765  -0.58523   3.18581
   8.36707  -0.82465   3.18581
   8.60649  -0.82465   3.42523
   8.84591  -0.58523   3.42523
   9.08533  -0.58523   3.42523
   9.32475  -0.34581   3.66465
   9.32475  -0.34581   3.66465
   9.56417  -0.34581   3.90407
   9.80359  -0.10639   3.66465
  10.04301  -0.10639   3.90407
  10.28243   0.13303   3.90407
  10.52185   0.13303   3.90407
  10.76127   0.13303   4.14350
  11.00069   0.37245   4.14350
  11.24011   0.37245   4.38292
  11.47953   0.37245   4.38292
  11.71895   0.37245   4.38292
  11.95837   0.37245   4.38292
  12.19779   0.37245   4.62234
  12.43721   0.61187   4.38292
  12.67663   0.61187   4.62234
  12.91605   0.61187   4.62234
  13.15547   0.61187   4.62234
  13.39489   0.61187   4.86176
  13.39489   0.85129   5.10118
  13.63431   1.09071   4.86176
  13.63431   1.09071   5.10118
  13.87373   1.09071   5.34060
  13.87373   1.09071   5.10118
  14.11315   1.33013   5.34060
  14.35257   1.33013   5.34060
  14.59199   1.56955   5.34060
  14.59199   1.56955   5.58002
  14.83141   1.56955   5.81944
  15.07083   1.56955   5.81944
  15.07083   1.56955   6.05886
  15.31025   1.56955   6.05886
  15.31025   1.56955   6.05886
  15.31025   1.56955   6.29828
  15.31025   1.56955   6.29828
  15.31025   1.56955   6.53770
  15.54967   1.56955   6.53770
  15.54967   1.56955   6.77712
  15.54967   1.56955   6.77712
  15.54967   1.56955   7.01654
  15.54967   1.33013   7.01654
  15.54967   1.33013   7.25596
  15.54967   1.33013   7.25596
  15.54967   1.33013   7.25596
  15.54967   1.33013   7.49538
  15.54967   1.33013   7.49538
  15.54967   1.33013   7.49538
  15.54967   1.33013   7.73480
  15.54967   1.33013   7.73480
  15.54967   1.33013   7.97422
  15.54967   1.33013   7.97422
  15.54967   1.33013   7.97422
  15.31025   1.09071   8.21364
  15.31025   1.09071   7.97422
  15.31025   1.09071   8.21364
  15.07083   1.09071   7.97422
  14.83141   1.09071   8.21364
  14.59199   1.09071   7.97422
  14.59199   1.09071   8.21364
  14.35257   1.09071   8.21364
  14.35257   1.09071   8.21364
  14.11315   1.09071   7.97422
  14.11315   1.33013   8.21364
  13.87373   1.09071   7.97422
  13.87373   1.33013   7.73480
  13.63431   1.33013   7.97422
  13.39489   1.33013   7.73480
  13.15547   1.33013   7.73480
  12.91605   1.33013   7.49538
  12.43721   1.33013   7.73480
  12.19779   1.33013   7.49538
  11.95837   1.33013   7.49538
  11.71895   1.56955   7.49538
  11.47953   1.56955   7.25596
  11.24011   1.33013   7.25596
  11.00069   1.56955   7.25596
  10.52185   1.56955   7.25596
  10.28243   1.56955   7.25596
  10.04301   1.56955   7.25596
   9.80359   1.56955   7.25596
   9.56417   1.56955   7.01654
   9.32475   1.56955   7.01654
   8.84591   1.56955   7.01654
   8.84591   1.56955   7.01654
   8.60649   1.33013   7.01654
   8.36707   1.33013   7.01654
   8.12765   1.33013   6.77712
   7.64881   1.33013   6.77712
   7.64881   1.33013   6.77712
   7.40939   1.33013   6.53770
   7.16997   1.33013   6.77712
   6.93055   1.33013   6.53770
   6.69113   1.09071   6.53770
   6.45171   1.09071   6.53770
   6.21229   1.09071   6.29828
   5.97287   0.85129   6.53770
   5.97287   0.85129   6.29828
   5.73345   0.85129   6.29828
   5.49403   0.61187   6.29828
   5.25461   0.37245   6.05886
   5.25461   0.37245   6.05886
   5.01519   0.13303   5.81944
   4.77576   0.13303   5.81944
   4.53634  -0.10639   5.81944
   4.29692  -0.10639   5.58002
   4.05750  -0.34581   5.58002
   3.81808  -0.58523   5.34060
   3.57866  -0.58523   5.34060
   3.33924  -0.58523   5.10118
   3.33924  -0.58523   5.10118
   3.09982  -0.82465   5.10118
   2.86040  -0.82465   4.86176
   2.86040  -0.82465   4.86176
   2.62098  -0.82465   4.62234
   2.38156  -0.82465   4.38292
   2.14214  -0.82465   4.38292
   2.14214  -0.82465   4.38292
   1.90272  -0.82465   4.14350
   1.90272  -0.82465   4.14350
   1.66330  -1.06407   3.90407
   1.66330  -1.06407   3.66465
   1.66330  -1.06407   3.66465
   1.42388  -1.06407   3.42523
   1.42388  -1.06407   3.42523
   1.18446  -1.30349   3.18581
   1.18446  -1.30349   3.18581
   1.18446  -1.30349   2.94639
   1.18446  -1.30349   2.94639
   0.94504  -1.30349   2.70697
   0.94504  -1.30349   2.46755
   0.70562  -1.30349   2.46755
   0.70562  -1.30349   2.22813
   0.70562  -1.06407   1.98871
   0.70562  -1.06407   1.98871
   0.70562  -1.06407   1.74929
   0.70562  -1.06407   1.50987
   0.70562  -0.82465   1.50987
   0.70562  -0.82465   1.27045
   0.70562  -0.82465   1.03103
   0.94504  -0.58523   1.03103
   0.70562  -0.82465   0.79161
   0.70562  -0.58523   0.55219
   0.94504  -0.58523   0.31277
   0.94504  -0.58523   0.31277
   0.94504  -0.58523   0.31277
   0.94504  -0.58523  -0.16607
   0.94504  -0.58523  -0.16607
   1.18446  -0.58523  -0.40549
   1.18446  -0.58523  -0.40549
   1.18446  -0.58523  -0.40549
   1.18446  -0.58523  -0.40549
   1.42388  -0.58523  -0.64491
   1.42388  -0.58523  -0.64491
   1.66330  -0.58523  -0.88433
   1.66330  -0.34581  -0.88433
   1.66330  -0.34581  -0.88433
   1.66330  -0.34581  -1.12375
   1.66330  -0.34581  -0.88433
   1.90272  -0.34581  -1.12375
   1.90272  -0.34581  -1.12375
   1.90272  -0.10639  -1.12375
   1.90272  -0.10639  -1.36317
   1.90272  -0.10639  -1.12375
   1.90272  -0.10639  -1.36317
   1.90272   0.13303  -1.12375
   2.14214   0.13303  -1.36317
   2.14214   0.13303  -1.12375
   2.14214   0.13303  -1.36317
   2.14214   0.13303  -1.12375
   2.14214   0.13303  -1.12375
   2.14214   0.37245  -1.12375
   2.14214   0.37245  -1.12375
   2.38156   0.37245  -1.12375
   2.38156   0.37245  -0.88433
   2.38156   0.37245  -0.88433
   2.38156   0.37245  -0.88433
   2.38156   0.13303  -0.88433
   2.38156   0.13303  -1.12375
   2.38156   0.13303  -1.12375
   2.38156   0.13303  -0.88433
   2.38156   0.13303  -1.12375
   2.14214   0.13303  -0.88433
   2.14214   0.13303  -1.12375
   1.90272   0.13303  -1.12375
   1.90272   0.13303  -0.88433
   1.90272   0.13303  -0.88433
   1.66330   0.13303  -0.88433
   1.66330   0.13303  -0.88433
   1.42388   0.13303  -1.12375
   1.42388   0.37245  -0.88433
   1.18446   0.37245  -0.88433
   1.18446   0.61187  -0.88433
   0.94504   0.61187  -0.88433
   0.70562   0.61187  -0.88433
   0.70562   0.61187  -0.88433
   0.46620   0.61187  -0.88433
   0.22678   0.85129  -0.88433
   0.22678   1.09071  -0.64491
  -0.01264   1.09071  -0.64491
  -0.25206   1.09071  -0.64491
  -0.25206   1.09071  -0.64491
  -0.73090   1.09071  -0.64491
  -0.73090   1.33013  -0.40549
  -0.97032   1.33013  -0.40549
  -0.97032   1.33013  -0.40549
  -1.20974   1.33013  -0.40549
  -1.44916   1.33013  -0.16607
  -1.68858   1.33013  -0.16607
  -1.92800   1.56955  -0.16607
  -2.16742   1.56955   0.07335
  -2.40684   1.56955  -0.16607
  -2.64626   1.33013   0.07335
  -2.88568   1.33013   0.07335
  -2.88568   1.33013   0.07335
  -3.12510   1.33013   0.31277
  -3.36452   1.33013   0.31277
  -3.60394   1.33013   0.31277
  -3.84336   1.33013   0.55219
  -4.08278   1.33013   0.55219
  -4.32220   1.33013   0.31277
  -4.32220   1.09071   0.55219
  -4.56162   1.09071   0.55219
  -4.80104   1.09071   0.55219
  -5.04046   0.85129   0.55219
  -5.04046   0.85129   0.55219
  -5.04046   0.85129   0.55219
  -5.27988   0.61187   0.55219
  -5.27988   0.61187   0.55219
  -5.51930   0.61187   0.79161
  -5.51930   0.61187   0.55219
  -5.75872   0.37245   0.79161
  -5.75872   0.37245   0.55219
  -5.99814   0.37245   0.55219
  -5.99814   0.37245   0.55219
  -6.23756   0.13303   0.79161
  -6.23756   0.13303   0.55219
  -6.23756   0.13303   0.55219
  -6.23756  -0.10639   0.55219
  -6.47698  -0.10639   0.55219
  -6.47698  -0.34581   0.55219
  -6.47698  -0.34581   0.31277
  -6.47698  -0.34581   0.31277
  -6.71640  -0.34581   0.31277
  -6.71640  -0.58523   0.07335
  -6.71640  -0.82465   0.07335
  -6.71640  -0.82465   0.31277
  -6.71640  -0.82465   0.07335
  -6.71640  -0.82465   0.07335
  -6.95582  -0.82465  -0.16607
  -6.95582  -1.06407  -0.16607
  -6.95582  -1.06407  -0.16607
  -6.95582  -1.06407  -0.40549
  -6.95582  -1.06407  -0.40549
  -6.95582  -1.30349  -0.64491
  -6.95582  -1.30349  -0.64491
  -6.95582  -1.30349  -0.88433
  -6.95582  -1.30349  -0.88433
  -6.95582  -1.54291  -1.12375
  -6.95582  -1.54291  -1.12375
  -6.95582  -1.78233  -1.12375
  -7.19524  -1.54291  -1.36317
  -7.19524  -1.54291  -1.60259
  -7.19524  -1.78233  -1.60259
  -7.19524  -1.78233  -1.84201
  -7.19524  -1.78233  -1.84201
  -7.43466  -1.78233  -2.32085
  -7.43466  -1.78233  -2.32085
  -7.43466  -2.02175  -2.32085
  -7.43466  -2.02175  -2.56027
  -7.43466  -2.02175  -2.79969
  -7.43466  -2.02175  -3.03911
  -7.67408  -2.02175  -3.27853
  -7.67408  -2.02175  -3.51795
  -7.67408  -2.26117  -3.51795
  -7.67408  -2.26117  -3.75737
  -7.91350  -2.26117  -3.75737
  -7.91350  -2.26117  -3.75737
  -7.91350  -2.26117  -3.99679
  -8.15292  -2.26117  -4.23621
  -8.39234  -2.26117  -4.47563
  -8.39234  -2.02175  -4.47563
  -8.63176  -2.02175  -4.47563
  -8.63176  -2.02175  -4.71505
  -8.87118  -2.02175  -4.71505
  -8.87118  -2.02175  -4.71505
  -9.11060  -2.02175  -4.95447
  -9.35002  -2.02175  -4.95447
  -9.35002  -2.02175  -4.95447
  -9.58945  -1.78233  -5.19389
  -9.82887  -1.78233  -5.19389
 -10.06829  -1.78233  -5.19389
 -10.30771  -1.78233  -5.19389
 -10.54713  -1.78233  -5.43331
 -10.54713  -1.78233  -5.43331
 -10.78655  -1.78233  -5.67273
 -11.02597  -1.78233  -5.67273
 -11.26539  -1.78233  -5.67273
 -11.74423  -1.78233  -5.91215
 -11.74423  -1.78233  -5.91215
 -12.22307  -1.78233  -5.91215
 -12.46249  -1.78233  -6.15157
 -12.70191  -1.78233  -6.15157
 -12.94133  -1.78233  -6.39099
 -13.18075  -1.78233  -6.39099
 -13.42017  -1.78233  -6.63041
 -13.42017  -1.78233  -6.63041
 -13.65959  -1.54291  -6.86983
 -13.89901  -1.54291  -6.63041
 -14.13843  -1.54291  -6.86983
 -14.37785  -1.30349  -6.86983
 -14.61727  -1.30349  -7.10925
 -14.61727  -1.30349  -7.10925
 -14.85669  -1.30349  -7.10925
 -15.09611  -1.06407  -7.10925
 -15.09611  -1.06407  -7.34867
 -15.33553  -1.06407  -7.58809
 -15.33553  -0.82465  -7.58809
 -15.57495  -0.82465  -7.58809
 -15.57495  -0.82465  -7.82751
 -15.81437  -0.58523  -7.82751
 -16.05379  -0.58523  -7.82751
 -16.05379  -0.34581  -7.82751
 -16.05379  -0.34581  -8.06693
 -16.05379  -0.34581  -8.06693
 -16.05379  -0.10639  -8.30635
 -16.29321  -0.10639  -8.30635
 -16.29321   0.13303  -8.30635
 -16.29321   0.13303  -8.30635
 -16.53263   0.13303  -8.54577
 -16.53263   0.13303  -8.54577
 -16.53263   0.37245  -8.54577
 -16.53263   0.37245  -8.78519
 -16.53263   0.37245  -8.78519
 -16.53263   0.37245  -8.78519
 -16.53263   0.61187  -8.78519
 -16.53263   0.61187  -8.78519
 -16.53263   0.61187  -9.02461
 -16.53263   0.61187  -9.02461
 -16.53263   0.61187  -9.02461
 -16.53263   0.85129  -8.78519
 -16.53263   0.85129  -9.02461
 -16.53263   0.85129  -9.02461
 -16.29321   0.85129  -8.78519
 -16.29321   0.85129  -9.02461
 -16.29321   0.85129  -8.78519
 -16.29321   0.85129  -8.78519
 -16.05379   0.85129  -9.02461
 -16.05379   0.61187  -9.02461
 -16.05379   0.61187  -9.02461
 -16.05379   0.61187  -8.78519
 -16.05379   0.61187  -9.02461
 -15.81437   0.61187  -9.02461
 -15.57495   0.61187  -9.02461
 -15.57495   0.61187  -8.78519
 -15.57495   0.61187  -8.78519
 -15.33553   0.37245  -9.02461
 -15.33553   0.37245  -8.78519
 -15.33553   0.37245  -8.78519
 -15.09611   0.37245  -8.78519
 -15.09611   0.37245  -8.78519
 -14.85669   0.37245  -8.78519
 -14.61727   0.13303  -8.78519
 -14.37785   0.13303  -8.78519
 -14.37785   0.13303  -8.78519
 -14.13843   0.13303  -8.54577
 -13.89901   0.13303  -8.78519
 -13.65959   0.13303  -8.78519
 -13.65959   0.13303  -8.54577
 -13.18075   0.13303  -8.54577
 -13.18075   0.13303  -8.54577
 -12.94133   0.13303  -8.54577
 -12.70191   0.13303  -8.54577
 -12.46249   0.13303  -8.54577
 -12.22307   0.13303  -8.30635
 -11.98365   0.13303  -8.54577
 -11.74423   0.37245  -8.30635
 -11.26539   0.37245  -8.06693
 -11.02597   0.37245  -8.30635
 -10.78655   0.13303  -8.06693
 -10.54713   0.37245  -8.06693
 -10.06829   0.37245  -7.82751
  -9.82887   0.37245  -7.82751
  -9.35002   0.13303  -7.82751
  -9.11060   0.13303  -7.82751
  -8.63176   0.13303  -7.82751
  -8.39234   0.13303  -7.82751
  -7.91350   0.13303  -7.58809
  -7.67408  -0.10639  -7.34867
  -7.43466  -0.10639  -7.34867
  -6.95582  -0.10639  -7.34867
  -6.71640  -0.10639  -7.10925
  -6.47698  -0.10639  -7.10925
  -5.99814  -0.34581  -6.86983
  -5.75872  -0.34581  -6.63041
  -5.51930  -0.34581  -6.39099
  -5.27988  -0.34581  -6.39099
  -5.04046  -0.10639  -6.39099
  -4.80104  -0.10639  -6.15157
  -4.56162  -0.10639  -5.91215
  -4.32220  -0.10639  -5.91215
  -3.84336  -0.10639  -5.67273
  -3.84336  -0.10639  -5.67273
  -3.60394  -0.10639  -5.43331
  -3.36452  -0.10639  -5.19389
  -3.12510  -0.10639  -5.19389
  -2.88568  -0.10639  -5.19389
  -2.64626  -0.10639  -4.95447
  -2.40684  -0.10639  -4.95447
  -2.16742  -0.10639  -4.47563
  -1.92800  -0.10639  -4.23621
  -1.68858  -0.10639  -4.23621
  -1.68858  -0.10639  -3.99679
  -1.44916  -0.10639  -3.75737
  -1.44916  -0.10639  -3.51795
  -1.44916  -0.34581  -3.27853
  -1.20974  -0.34581  -3.03911
  -1.20974  -0.34581  -2.79969
  -1.20974  -0.34581  -2.32085
  -0.97032  -0.34581  -2.32085
  -0.97032  -0.34581  -1.84201
  -0.97032  -0.34581  -1.84201
  -0.73090  -0.34581  -1.60259
  -0.73090  -0.34581  -1.12375
  -0.73090  -0.10639  -1.12375
  -0.49148  -0.10639  -0.88433
  -0.49148  -0.10639  -0.64491
  -0.49148  -0.10639  -0.16607
  -0.25206   0.13303  -0.16607
  -0.25206  -0.10639   0.31277
  -0.25206   0.13303   0.55219
  -0.25206   0.13303   0.79161
  -0.25206   0.13303   1.03103
  -0.01264   0.13303   1.27045
  -0.01264   0.13303   1.50987
   0.22678   0.13303   1.74929
   0.22678   0.13303   1.74929
   0.22678   0.37245   2.22813
   0.22678   0.37245   2.22813
   0.46620   0.37245   2.46755
   0.46620   0.37245   2.94639
   0.46620   0.13303   2.94639
   0.70562   0.37245   2.94639
   0.70562   0.37245   3.18581
   0.70562   0.37245   3.42523
   0.94504   0.37245   3.66465
   0.94504   0.37245   3.66465
   1.18446   0.37245   3.90407
   1.18446   0.37245   3.90407
   1.18446   0.37245   4.14350
   1.18446   0.37245   4.38292
   1.42388   0.37245   4.62234
   1.42388   0.61187   4.38292
   1.66330   0.61187   4.62234
   1.90272   0.37245   4.62234
   1.90272   0.61187   4.62234
   1.90272   0.37245   4.86176
   2.14214   0.37245   4.86176
   2.14214   0.61187   5.10118
   2.38156   0.37245   4.86176
   2.62098   0.61187   4.86176
   2.62098   0.61187   5.10118
   2.62098   0.37245   5.10118
   2.86040   0.37245   5.10118
   3.09982   0.37245   5.10118
   3.09982   0.37245   4.86176
   3.33924   0.37245   4.86176
   3.33924   0.37245   4.86176
   3.57866   0.37245   4.62234
   3.81808   0.37245   4.62234
   4.05750   0.37245   4.62234
   4.05750   0.37245   4.38292
   4.29692   0.37245   4.62234
   4.29692   0.61187   4.38292
   4.53634   0.61187   4.14350
   4.77576   0.61187   4.14350
   4.77576   0.61187   4.14350
   5.01519   0.85129   4.14350
   5.25461   0.85129   3.90407
