********************************************************************************
               CENTRO DE INSTRUMENTACION Y REGISTRO SISMICO  A.C.  
                       Coordinacion de Servicios Tecnicos
     Anaxagoras 814, Col. Narvarte, Benito Juarez, C.P. 03020 Mexico, D.F.
            Tels. 667 45 42/ 687 45  82             Fax. 669 25 12
********************************************************************************
ARCHIVO ESTANDAR DE ACELERACION:
VERSION DEL FORMATO                    : 2.0
NOMBRE DEL ARCHIVO                     : BA490311.191
FECHA Y HORA DE CREACION               : 16/JUL/04, 13:18
REF. CATALOGO ACELEROGRAMAS, SMIS 1996 : REGISTRO No.     /PAG.


================================================================================
DATOS DE LA ESTACION:
NOMBRE DE LA ESTACION                  : BUENOS AIRES
CLAVE DE LA ESTACION                   : BA49
LOCALIZACION DE LA ESTACION            : ESCUELA SECUNDARIA 102, DOCTOR MARQUEZ
                                       : Y EJE CENTRAL, BUENOS AIRES.
                                       :
                                       :
                                       :
COORDENADAS DE LA ESTACION             : 19.410 LAT. N 
                                       : 99.145 LONG. W 
ALTITUD (msnm)                         : 2233
TIPO DE SUELO                          : TERRENO BLANDO, MATERIAL COMPRESIBLE
                                       : (ARCILLAS)
                                       : 
INSTITUCION RESPONSABLE                : CIRES 
                                       :

================================================================================
DATOS DEL ACELEROGRAFO:
MODELO DEL ACELEROGRAFO                : SSA-1
NUMERO DE SERIE DEL ACELEROGRAFO       : 176
NUMERO DE CANALES                      : 3
ORIENTACION C1-C6 (rumbo;orientacion)  : /N00E/+V/N90E
ORIENTACION C7-C12 (rumbo;orientacion) :
VEL. DE MUESTREO, C1-C6 (muestras/s)   : /200/200/200
VEL. DE MUESTREO, C7-C12 (muestras/s)  :
ESC. COMPLETA DE SENSORES, C1-C6, (g)  : /2/2/2
ESC. COMPLETA DE SENSORES, C7-C12, (g) :
FREC. NAT. DE SENSORES, C1-C6, (Hz)    : /52.99/52.03/52.99
FREC. NAT. DE SENSORES, C7-C12, (Hz)   :
AMORTIGUAMIENTO DE SENSORES, C1-C6     : /.5589/.5469/.6096
AMORTIGUAMIENTO DE SENSORES, C7-C12    :
INTERVALO DE MUESTREO, C1-C6, (s)      : /0.005/0.005/0.005
INTERVALO DE MUESTREO, C7-C12, (s)     :
UMBRAL DE DISPARO, C1-C6, (Gal)        : /2/2/2
UMBRAL DE DISPARO, C7-C12, (Gal)       :
MEMORIA DE PREEVENTO (s)               : 15
TIEMPO DE POSEVENTO (s)                : 60


================================================================================
DATOS DEL SISMO:
FECHA DEL SISMO (GMT)                  : 19/NOV/03
HORA EPICENTRO (GMT)                   : 13:50:28,2
MAGNITUD(ES)                           : /Mb=4.9/Ms=0.0/Mc=4.8/Ma=4.8/Me=4.8
COORDENADAS DEL EPICENTRO              : 17.86 LAT. N
                                       : 99.54 LONG. W
PROFUNDIDAD FOCAL (km)                 : 53
FUENTE DE LOS DATOS EPICENTRALES       : SSN
                                       : INSTITUTO DE GEOFISICA, UNAM 

================================================================================
DATOS DE ESTE REGISTRO:
HORA DE LA PRIMERA MUESTRA (GMT)       : 13:51:18.00
EXACTITUD DEL TIEMPO (s)               :     
DURACION DEL REGISTRO (s), C1-C6       : /94.72/94.72/94.72
DURACION DEL REGISTRO (s), C7-C12      :
NUM. TOTAL DE MUESTRAS, C1-C6          : /18944/18944/18944
NUM. TOTAL DE MUESTRAS, C7-C12         :
ACEL. MAX. (Gal), C1-C6                : /1.22370/-0.85263/1.47053
ACEL. MAX., C1-C6, EN LA MUESTRA       :
ACEL. MAX. (Gal), C7-C12               :
ACEL. MAX., C7-C12, EN LA MUESTRA      :
UNIDADES DE LOS DATOS                  : Gal (cm/s/s)
FACTOR DE DECIMACION                   : 1
FORMATO DATOS (FORTRAN,10 campos/dato) : 3F10.5


================================================================================
CALIDAD DEL ACELEROGRAMA:
REGISTRO DIGITAL COMPLETO, CARECE DE TIEMPO ABSOLUTO.


================================================================================
COMENTARIOS:














================================================================================
DATOS DE ACELERACION:
---------+---------+---------+---------+---------+---------+---------+---------+
   CANAL-1   CANAL-2   CANAL-3   CANAL-4   CANAL-5   CANAL-6   CANAL-7   CANAL-8
      N00E        +V      N90E
---------+---------+---------+---------+---------+---------+---------+---------+
[...]
   0.02370   0.34737   0.51053
   0.02370   0.34737   0.51053
   0.02370   0.34737   0.51053
   0.02370   0.34737   0.51053
   0.26370   0.34737   0.51053
   0.26370   0.34737   0.51053
   0.26370   0.34737   0.51053
   0.26370   0.34737   0.51053
   0.26370   0.34737   0.51053
   0.26370   0.34737   0.51053
   0.26370   0.10737   0.51053
   0.26370   0.10737   0.51053
   0.26370   0.10737   0.51053
   0.26370   0.10737   0.51053
   0.26370   0.10737   0.51053
   0.26370   0.10737   0.51053
   0.26370   0.10737   0.51053
   0.26370   0.10737   0.51053
   0.26370   0.10737   0.51053
   0.26370   0.10737   0.51053
   0.50370   0.10737   0.51053
   0.50370   0.10737   0.51053
   0.50370   0.10737   0.51053
   0.50370  -0.13263   0.51053
   0.50370  -0.13263   0.51053
   0.50370  -0.13263   0.51053
   0.50370  -0.13263   0.51053
   0.26370  -0.13263   0.51053
   0.50370  -0.13263   0.51053
   0.26370   0.10737   0.51053
   0.26370  -0.13263   0.51053
   0.26370  -0.13263   0.51053
   0.26370  -0.13263   0.51053
   0.26370  -0.13263   0.51053
   0.26370  -0.13263   0.51053
   0.26370  -0.13263   0.27053
   0.26370  -0.13263   0.27053
   0.26370  -0.13263   0.51053
   0.02370  -0.13263   0.51053
   0.02370  -0.13263   0.27053
   0.02370   0.10737   0.27053
   0.02370   0.10737   0.27053
  -0.21630   0.10737   0.27053
  -0.21630   0.10737   0.27053
  -0.21630   0.10737   0.27053
  -0.21630   0.10737   0.27053
  -0.21630   0.34737   0.03053
  -0.21630   0.10737   0.03053
  -0.21630   0.10737   0.03053
  -0.45630   0.10737   0.03053
  -0.45630   0.10737  -0.19947
  -0.45630  -0.13263   0.03053
  -0.45630  -0.13263   0.03053
  -0.45630  -0.13263  -0.19947
  -0.45630  -0.13263  -0.19947
  -0.69630  -0.13263  -0.19947
  -0.69630  -0.13263  -0.19947
  -0.69630  -0.13263  -0.19947
  -0.69630   0.10737  -0.19947
  -0.69630   0.10737  -0.19947
  -0.69630   0.10737  -0.43947
  -0.69630   0.34737  -0.43947
  -0.69630   0.34737  -0.19947
  -0.69630   0.34737  -0.43947
  -0.69630   0.34737  -0.43947
  -0.69630   0.34737  -0.43947
  -0.69630   0.10737  -0.43947
  -0.69630   0.10737  -0.43947
  -0.69630   0.10737  -0.43947
  -0.69630   0.10737  -0.43947
  -0.69630   0.10737  -0.43947
  -0.69630   0.10737  -0.67947
  -0.69630   0.10737  -0.43947
  -0.69630  -0.13263  -0.43947
  -0.45630  -0.13263  -0.43947
  -0.69630  -0.13263  -0.43947
  -0.45630  -0.13263  -0.43947
  -0.45630  -0.13263  -0.43947
  -0.45630  -0.13263  -0.43947
  -0.45630  -0.13263  -0.43947
  -0.45630  -0.13263  -0.19947
  -0.45630  -0.13263  -0.19947
  -0.45630  -0.13263  -0.19947
  -0.45630  -0.13263   0.03053
  -0.45630   0.10737   0.03053
  -0.21630  -0.13263   0.03053
  -0.21630  -0.13263   0.03053
  -0.21630  -0.13263   0.03053
  -0.21630  -0.13263   0.03053
   0.02370  -0.37263   0.27053
   0.02370  -0.13263   0.27053
   0.02370  -0.13263   0.27053
   0.02370  -0.37263   0.27053
   0.02370  -0.37263   0.27053
   0.26370  -0.13263   0.51053
   0.26370  -0.37263   0.51053
   0.26370  -0.37263   0.51053
   0.26370  -0.13263   0.51053
   0.26370  -0.37263   0.51053
   0.50370  -0.37263   0.51053
   0.50370  -0.37263   0.51053
   0.50370  -0.37263   0.51053
   0.50370  -0.37263   0.51053
   0.50370  -0.37263   0.51053
   0.50370  -0.37263   0.51053
   0.50370  -0.37263   0.27053
   0.50370  -0.37263   0.27053
   0.50370  -0.37263   0.27053
   0.74370  -0.37263   0.27053
   0.50370  -0.37263   0.27053
   0.50370  -0.37263   0.27053
   0.50370  -0.13263   0.03053
   0.50370  -0.13263   0.03053
   0.50370  -0.13263   0.03053
   0.50370  -0.13263   0.03053
   0.50370  -0.13263   0.03053
   0.50370  -0.13263  -0.19947
   0.50370  -0.13263   0.03053
   0.50370  -0.13263  -0.19947
   0.50370  -0.13263  -0.19947
   0.50370  -0.13263  -0.19947
   0.50370  -0.13263   0.03053
   0.26370  -0.13263  -0.19947
   0.26370  -0.13263  -0.19947
   0.26370  -0.13263  -0.19947
   0.26370  -0.13263  -0.19947
   0.26370  -0.13263  -0.19947
   0.26370  -0.13263  -0.19947
   0.26370  -0.13263  -0.19947
   0.26370  -0.13263  -0.19947
   0.02370  -0.13263  -0.19947
   0.02370  -0.13263  -0.19947
   0.02370  -0.13263  -0.19947
   0.02370  -0.13263  -0.19947
   0.26370   0.10737  -0.19947
   0.26370  -0.13263  -0.19947
   0.02370   0.10737  -0.19947
   0.02370  -0.13263  -0.19947
   0.02370  -0.13263  -0.19947
   0.02370  -0.13263   0.03053
   0.02370  -0.13263   0.03053
   0.26370  -0.13263   0.03053
   0.26370  -0.13263   0.03053
   0.26370  -0.13263   0.03053
   0.26370  -0.13263   0.03053
   0.26370  -0.13263   0.03053
   0.26370  -0.13263  -0.19947
   0.26370  -0.13263   0.03053
   0.26370  -0.13263   0.03053
   0.26370  -0.13263   0.03053
   0.26370  -0.13263   0.27053
   0.26370   0.10737   0.27053
   0.26370  -0.13263   0.27053
   0.26370   0.10737   0.03053
   0.26370   0.10737   0.03053
   0.02370   0.10737   0.27053
   0.02370   0.10737   0.27053
   0.26370   0.10737   0.27053
   0.26370   0.10737   0.27053
   0.26370   0.10737   0.27053
   0.26370   0.10737   0.27053
   0.26370   0.10737   0.27053
   0.26370  -0.13263   0.27053
   0.26370  -0.13263   0.27053
   0.26370  -0.13263   0.03053
   0.26370  -0.13263   0.03053
   0.26370  -0.13263   0.03053
   0.26370  -0.13263   0.03053
   0.26370  -0.13263   0.03053
   0.26370   0.10737   0.03053
   0.50370   0.10737  -0.19947
   0.26370   0.10737  -0.19947
   0.50370   0.10737  -0.19947
   0.50370   0.10737  -0.43947
   0.50370   0.10737  -0.43947
   0.50370   0.10737  -0.43947
   0.50370   0.10737  -0.43947
   0.50370   0.10737  -0.43947
   0.50370  -0.13263  -0.43947
   0.50370  -0.13263  -0.43947
   0.50370  -0.13263  -0.43947
   0.50370  -0.13263  -0.67947
   0.26370  -0.13263  -0.67947
   0.26370  -0.13263  -0.67947
   0.26370  -0.13263  -0.67947
   0.26370  -0.13263  -0.67947
   0.26370   0.10737  -0.91947
   0.26370  -0.13263  -0.91947
   0.26370  -0.13263  -0.91947
   0.26370  -0.13263  -0.67947
   0.26370  -0.13263  -0.67947
   0.26370   0.10737  -0.67947
   0.02370   0.10737  -0.67947
   0.02370   0.10737  -0.67947
  -0.21630   0.34737  -0.67947
  -0.21630   0.34737  -0.43947
  -0.21630   0.34737  -0.67947
  -0.45630   0.34737  -0.67947
  -0.45630   0.34737  -0.67947
  -0.45630   0.34737  -0.67947
  -0.21630   0.34737  -0.67947
  -0.45630   0.34737  -0.67947
  -0.21630   0.10737  -0.67947
  -0.45630   0.10737  -0.43947
  -0.45630   0.10737  -0.43947
  -0.45630  -0.13263  -0.43947
  -0.69630  -0.13263  -0.43947
  -0.69630  -0.13263  -0.43947
  -0.69630  -0.13263  -0.43947
  -0.69630   0.10737  -0.43947
  -0.69630   0.10737  -0.43947
  -0.69630   0.10737  -0.43947
  -0.69630   0.10737  -0.43947
  -0.69630  -0.13263  -0.43947
  -0.69630   0.10737  -0.43947
  -0.69630  -0.13263  -0.19947
  -0.69630   0.10737  -0.19947
  -0.69630  -0.13263  -0.19947
  -0.69630  -0.13263  -0.19947
  -0.69630   0.10737  -0.19947
  -0.69630   0.10737  -0.19947
  -0.93630   0.10737  -0.19947
  -0.69630   0.10737  -0.19947
  -0.69630   0.34737  -0.19947
  -0.69630   0.34737  -0.43947
  -0.69630   0.34737  -0.43947
  -0.45630   0.34737  -0.43947
  -0.45630   0.34737  -0.43947
  -0.45630   0.34737  -0.43947
  -0.45630   0.34737  -0.43947
  -0.45630   0.34737  -0.43947
  -0.45630   0.34737  -0.43947
  -0.45630   0.10737  -0.43947
  -0.45630   0.10737  -0.19947
  -0.69630   0.10737  -0.43947
  -0.69630   0.10737  -0.43947
  -0.45630   0.10737  -0.43947
  -0.45630   0.10737  -0.43947
  -0.45630  -0.13263  -0.67947
  -0.45630  -0.13263  -0.67947
  -0.21630  -0.13263  -0.67947
  -0.21630  -0.13263  -0.67947
   0.02370  -0.13263  -0.67947
   0.02370  -0.13263  -0.91947
   0.02370  -0.13263  -0.67947
  -0.21630  -0.13263  -0.67947
  -0.21630  -0.13263  -0.91947
  -0.21630  -0.13263  -0.91947
  -0.45630  -0.13263  -0.91947
  -0.45630   0.10737  -0.91947
  -0.45630   0.10737  -0.91947
  -0.21630   0.34737  -0.91947
  -0.21630   0.34737  -0.91947
  -0.21630   0.34737  -1.15947
   0.02370   0.34737  -1.15947
   0.02370   0.10737  -1.15947
   0.02370   0.34737  -1.15947
   0.02370   0.34737  -0.91947
   0.02370   0.10737  -0.91947
   0.02370   0.10737  -0.67947
   0.02370   0.10737  -0.67947
   0.02370   0.10737  -0.67947
   0.02370   0.10737  -0.91947
   0.02370   0.10737  -0.91947
   0.02370   0.10737  -0.91947
   0.02370  -0.13263  -0.91947
   0.02370  -0.13263  -0.91947
   0.02370  -0.13263  -0.91947
   0.02370  -0.13263  -0.91947
   0.26370  -0.13263  -0.67947
   0.02370  -0.13263  -0.67947
   0.02370  -0.13263  -0.67947
   0.02370  -0.37263  -0.43947
   0.02370  -0.13263  -0.43947
   0.02370  -0.37263  -0.43947
   0.02370  -0.13263  -0.43947
   0.02370  -0.13263  -0.43947
   0.02370  -0.13263  -0.43947
   0.02370  -0.13263  -0.43947
   0.02370  -0.13263  -0.43947
   0.02370  -0.13263  -0.43947
   0.02370  -0.13263  -0.43947
   0.02370  -0.13263  -0.19947
   0.02370  -0.13263  -0.19947
   0.02370  -0.13263  -0.19947
  -0.21630  -0.13263  -0.19947
  -0.21630   0.10737  -0.19947
  -0.21630  -0.13263  -0.19947
  -0.45630  -0.13263   0.03053
  -0.45630  -0.13263   0.03053
  -0.45630   0.10737   0.03053
  -0.45630   0.10737   0.03053
  -0.45630   0.10737   0.03053
  -0.21630   0.10737   0.03053
  -0.21630   0.10737   0.03053
  -0.21630   0.10737   0.27053
  -0.21630   0.10737   0.27053
  -0.21630   0.10737   0.27053
  -0.21630   0.10737   0.27053
  -0.21630   0.10737   0.27053
  -0.21630   0.10737   0.27053
  -0.21630   0.10737   0.27053
   0.02370   0.10737   0.27053
  -0.21630   0.10737   0.27053
   0.02370   0.10737   0.27053
   0.02370   0.10737   0.27053
   0.02370   0.10737   0.27053
   0.02370  -0.13263   0.27053
   0.02370   0.10737   0.27053
   0.02370   0.10737   0.27053
   0.02370   0.10737   0.27053
   0.26370   0.10737   0.27053
   0.02370   0.10737   0.27053
   0.26370   0.10737   0.27053
   0.26370  -0.13263   0.27053
   0.26370  -0.13263   0.27053
   0.26370  -0.13263   0.27053
   0.26370   0.10737   0.27053
   0.50370   0.10737   0.27053
   0.50370   0.10737   0.03053
   0.50370   0.10737   0.03053
   0.50370  -0.13263   0.03053
   0.50370   0.10737   0.27053
   0.50370   0.10737   0.03053
   0.50370   0.10737   0.27053
   0.50370  -0.13263   0.27053
   0.74370  -0.13263   0.27053
   0.74370  -0.13263   0.27053
   0.74370  -0.37263   0.27053
   0.74370  -0.13263   0.27053
   0.74370  -0.37263   0.51053
   0.50370  -0.37263   0.51053
   0.50370  -0.13263   0.51053
   0.50370  -0.37263   0.51053
   0.74370  -0.37263   0.51053
   0.74370  -0.37263   0.75053
   0.74370  -0.37263   0.75053
   0.74370  -0.37263   0.75053
   0.74370  -0.37263   0.99053
   0.74370  -0.37263   0.99053
   0.74370  -0.37263   0.99053
   0.74370  -0.13263   0.99053
   0.74370  -0.13263   0.99053
   0.74370  -0.13263   0.99053
   0.74370  -0.13263   0.99053
   0.74370  -0.13263   0.99053
   0.74370  -0.13263   1.23053
   0.50370  -0.13263   1.23053
   0.50370  -0.13263   1.23053
   0.50370  -0.13263   1.47053
   0.50370   0.10737   1.23053
   0.50370   0.10737   1.23053
   0.50370   0.34737   1.23053
   0.74370   0.10737   1.23053
   0.50370   0.10737   1.23053
   0.50370   0.10737   1.23053
   0.50370   0.34737   1.23053
   0.50370   0.34737   1.23053
   0.50370   0.34737   1.23053
   0.50370   0.58737   0.99053
   0.50370   0.34737   0.99053
   0.50370   0.34737   0.99053
   0.50370   0.34737   0.99053
   0.26370   0.34737   0.75053
   0.26370   0.34737   0.75053
   0.26370   0.34737   0.75053
   0.02370   0.34737   0.75053
   0.02370   0.34737   0.75053
   0.02370   0.34737   0.51053
   0.02370   0.58737   0.51053
   0.02370   0.58737   0.51053
   0.02370   0.58737   0.51053
   0.02370   0.58737   0.51053
   0.02370   0.58737   0.51053
   0.02370   0.58737   0.27053
   0.02370   0.58737   0.27053
   0.02370   0.34737   0.03053
   0.02370   0.34737   0.27053
  -0.21630   0.34737   0.27053
  -0.21630   0.34737   0.03053
  -0.45630   0.34737   0.03053
  -0.45630   0.34737   0.03053
  -0.45630   0.34737   0.03053
  -0.45630   0.34737   0.03053
  -0.21630   0.34737  -0.19947
  -0.21630   0.34737  -0.19947
  -0.21630   0.10737  -0.19947
   0.02370   0.10737  -0.19947
  -0.21630   0.10737  -0.19947
  -0.21630   0.10737  -0.19947
  -0.21630   0.10737  -0.19947
  -0.21630   0.10737  -0.19947
  -0.21630  -0.13263  -0.19947
  -0.21630  -0.13263  -0.19947
  -0.21630  -0.13263  -0.43947
  -0.21630  -0.13263  -0.43947
   0.02370  -0.13263  -0.43947
   0.02370   0.10737  -0.43947
   0.02370   0.10737  -0.43947
   0.26370   0.10737  -0.43947
   0.26370   0.10737  -0.43947
   0.26370   0.10737  -0.43947
   0.26370   0.10737  -0.43947
   0.26370  -0.13263  -0.19947
   0.02370  -0.13263  -0.43947
  -0.21630  -0.13263  -0.19947
  -0.21630  -0.13263  -0.19947
  -0.21630  -0.13263  -0.19947
  -0.21630  -0.13263  -0.19947
  -0.21630   0.10737  -0.43947
   0.02370   0.10737  -0.19947
   0.02370   0.10737  -0.19947
   0.02370   0.10737  -0.19947
   0.02370   0.10737  -0.19947
   0.26370  -0.13263  -0.19947
   0.26370  -0.13263  -0.19947
   0.26370  -0.13263  -0.19947
   0.26370  -0.13263  -0.19947
   0.02370  -0.13263  -0.19947
   0.02370  -0.13263  -0.19947
   0.02370  -0.13263  -0.19947
   0.02370   0.10737  -0.19947
   0.02370   0.10737  -0.19947
   0.02370   0.34737  -0.19947
  -0.21630   0.34737  -0.19947
   0.02370   0.58737  -0.19947
   0.02370   0.34737  -0.19947
   0.02370   0.34737  -0.19947
   0.02370   0.34737  -0.19947
  -0.21630   0.34737  -0.19947
   0.02370   0.34737  -0.19947
  -0.21630   0.34737  -0.19947
  -0.21630   0.34737  -0.19947
  -0.21630   0.34737  -0.19947
  -0.21630   0.34737  -0.19947
  -0.21630   0.34737  -0.19947
   0.02370   0.34737  -0.19947
   0.02370   0.34737  -0.43947
   0.02370   0.34737  -0.19947
   0.02370   0.34737  -0.43947
   0.02370   0.34737  -0.43947
   0.02370   0.34737  -0.43947
  -0.21630   0.34737  -0.43947
  -0.21630   0.34737  -0.19947
  -0.21630   0.10737  -0.43947
  -0.21630   0.10737  -0.43947
  -0.21630   0.10737  -0.43947
  -0.21630   0.10737  -0.19947
  -0.21630  -0.13263  -0.19947
  -0.21630  -0.13263  -0.43947
  -0.21630  -0.13263  -0.43947
  -0.21630  -0.13263  -0.19947
  -0.21630  -0.13263  -0.19947
  -0.21630  -0.37263  -0.19947
  -0.21630  -0.37263  -0.19947
  -0.21630  -0.13263  -0.19947
   0.02370  -0.37263  -0.19947
  -0.21630  -0.37263  -0.19947
   0.02370  -0.37263  -0.19947
   0.02370  -0.37263  -0.19947
   0.02370  -0.13263   0.03053
   0.02370  -0.13263   0.03053
   0.02370  -0.13263   0.03053
   0.02370  -0.13263   0.03053
   0.02370  -0.13263   0.03053
   0.02370  -0.13263   0.03053
   0.02370  -0.13263   0.03053
   0.02370  -0.13263   0.03053
   0.02370  -0.13263   0.03053
   0.02370   0.10737   0.27053
   0.02370  -0.13263   0.27053
   0.02370  -0.13263   0.27053
   0.26370  -0.13263   0.27053
   0.26370  -0.13263   0.27053
   0.26370  -0.13263   0.27053
   0.26370  -0.37263   0.27053
   0.26370  -0.37263   0.27053
   0.26370  -0.37263   0.27053
   0.26370  -0.37263   0.27053
   0.26370  -0.37263   0.27053
   0.02370  -0.37263   0.27053
   0.02370  -0.37263   0.27053
   0.02370  -0.37263   0.27053
   0.02370  -0.37263   0.27053
   0.02370  -0.37263   0.27053
   0.02370  -0.37263   0.27053
   0.26370  -0.13263   0.27053
   0.26370  -0.13263   0.03053
   0.26370  -0.37263   0.27053
   0.26370  -0.13263   0.03053
   0.26370  -0.37263   0.03053
   0.26370  -0.37263   0.03053
   0.02370  -0.37263   0.03053
   0.02370  -0.37263   0.03053
   0.02370  -0.37263  -0.19947
   0.02370  -0.13263  -0.19947
   0.02370  -0.13263  -0.19947
   0.02370   0.10737  -0.43947
   0.02370   0.34737  -0.43947
