********************************************************************************
               CENTRO DE INSTRUMENTACION Y REGISTRO SISMICO  A.C.  
                       Coordinacion de Servicios Tecnicos
     Anaxagoras 814, Col. Narvarte, Benito Juarez, C.P. 03020 Mexico, D.F.
            Tels. 667 45 42/ 687 45  82             Fax. 669 25 12
********************************************************************************
ARCHIVO ESTANDAR DE ACELERACION:
VERSION DEL FORMATO                    : 2.0
NOMBRE DEL ARCHIVO                     : BA499701.211
FECHA Y HORA DE CREACION               : 18/MAR/98, 13:30
REF. CATALOGO ACELEROGRAMAS, SMIS 1996 : REGISTRO No.     /PAG.


================================================================================
DATOS DE LA ESTACION:
NOMBRE DE LA ESTACION                  : BUENOS AIRES
CLAVE DE LA ESTACION                   : BA49
LOCALIZACION DE LA ESTACION            : ESCUELA SECUNDARIA 102, DOCTOR MARQUEZ
                                       : Y EJE CENTRAL, BUENOS AIRES.
                                       :
                                       :
                                       :
COORDENADAS DE LA ESTACION             : 19.410 LAT. N 
                                       : 99.145 LONG. W 
ALTITUD (msnm)                         : 2233
TIPO DE SUELO                          : TERRENO BLANDO, MATERIAL COMPRESIBLE
                                       : (ARCILLAS)
                                       : 
INSTITUCION RESPONSABLE                : CIRES 
                                       :

================================================================================
DATOS DEL ACELEROGRAFO:
MODELO DEL ACELEROGRAFO                : SSA-1
NUMERO DE SERIE DEL ACELEROGRAFO       : 176
NUMERO DE CANALES                      : 3
ORIENTACION C1-C6 (rumbo;orientacion)  : /N00E/+V/N90E
ORIENTACION C7-C12 (rumbo;orientacion) :
VEL. DE MUESTREO, C1-C6 (muestras/s)   : /200/200/200
VEL. DE MUESTREO, C7-C12 (muestras/s)  :
ESC. COMPLETA DE SENSORES, C1-C6, (g)  : /2/2/2
ESC. COMPLETA DE SENSORES, C7-C12, (g) :
FREC. NAT. DE SENSORES, C1-C6, (Hz)    : /52.99/52.03/52.99
FREC. NAT. DE SENSORES, C7-C12, (Hz)   :
AMORTIGUAMIENTO DE SENSORES, C1-C6     : /.5589/.5469/.6096
AMORTIGUAMIENTO DE SENSORES, C7-C12    :
INTERVALO DE MUESTREO, C1-C6, (s)      : /0.005/0.005/0.005
INTERVALO DE MUESTREO, C7-C12, (s)     :
UMBRAL DE DISPARO, C1-C6, (Gal)        : /2/2/2
UMBRAL DE DISPARO, C7-C12, (Gal)       :
MEMORIA DE PREEVENTO (s)               : 15
TIEMPO DE POSEVENTO (s)                : 60


================================================================================
DATOS DEL SISMO:
FECHA DEL SISMO (GMT)                  : 21/ENE/97
HORA EPICENTRO (GMT)                   : 21:19:58,0
MAGNITUD(ES)                           : /Mb=5.1/Ms=5.0
COORDENADAS DEL EPICENTRO              : 16.440 LAT. N
                                       : 98.150 LONG. W
PROFUNDIDAD FOCAL (km)                 : 18
FUENTE DE LOS DATOS EPICENTRALES       : SSN
                                       : INSTITUTO DE GEOFISICA, UNAM

================================================================================
DATOS DE ESTE REGISTRO:
HORA DE LA PRIMERA MUESTRA (GMT)       : 21:22:02.00
EXACTITUD DEL TIEMPO (s)               :     
DURACION DEL REGISTRO (s), C1-C6       : /80.64/80.64/80.64
DURACION DEL REGISTRO (s), C7-C12      :
NUM. TOTAL DE MUESTRAS, C1-C6          : /16128/16128/16128
NUM. TOTAL DE MUESTRAS, C7-C12         :
ACEL. MAX. (Gal), C1-C6                : /2.06746/1.21962/1.10011
ACEL. MAX., C1-C6, EN LA MUESTRA       :
ACEL. MAX. (Gal), C7-C12               :
ACEL. MAX., C7-C12, EN LA MUESTRA      :
UNIDADES DE LOS DATOS                  : Gal (cm/s/s)
FACTOR DE DECIMACION                   : 1
FORMATO DATOS (FORTRAN,10 campos/dato) : 3F10.5


================================================================================
CALIDAD DEL ACELEROGRAMA:
REGISTRO DIGITAL COMPLETO, CARECE DE TIEMPO ABSOLUTO.


================================================================================
COMENTARIOS:














================================================================================
DATOS DE ACELERACION:
---------+---------+---------+---------+---------+---------+---------+---------+
   CANAL-1   CANAL-2   CANAL-3   CANAL-4   CANAL-5   CANAL-6   CANAL-7   CANAL-8
      N00E        +V      N90E
---------+---------+---------+---------+---------+---------+---------+---------+
[...]
  -0.62746   0.01962  -0.56989
  -0.62746  -0.22038  -0.56989
  -0.62746   0.01962  -0.56989
  -0.62746   0.01962  -0.56989
  -0.62746   0.01962  -0.56989
  -0.38746   0.01962  -0.56989
  -0.38746   0.01962  -0.56989
  -0.38746   0.01962  -0.56989
  -0.38746   0.01962  -0.56989
  -0.38746   0.01962  -0.56989
  -0.38746   0.01962  -0.56989
  -0.38746  -0.22038  -0.80989
  -0.38746   0.01962  -0.56989
  -0.38746   0.01962  -0.80989
  -0.38746   0.01962  -0.56989
  -0.14746   0.01962  -0.56989
  -0.14746   0.01962  -0.56989
  -0.14746   0.01962  -0.56989
  -0.14746   0.01962  -0.80989
  -0.14746  -0.22038  -0.56989
  -0.14746   0.01962  -0.80989
  -0.14746   0.01962  -0.56989
  -0.14746   0.01962  -0.56989
   0.09254   0.01962  -0.56989
   0.09254   0.01962  -0.56989
   0.09254  -0.22038  -0.56989
   0.09254  -0.22038  -0.56989
   0.09254  -0.22038  -0.56989
   0.33254  -0.22038  -0.56989
   0.33254  -0.22038  -0.56989
   0.33254  -0.22038  -0.56989
   0.33254  -0.22038  -0.56989
   0.57254  -0.22038  -0.56989
   0.57254  -0.22038  -0.56989
   0.57254  -0.22038  -0.56989
   0.81254  -0.22038  -0.56989
   0.81254  -0.22038  -0.56989
   0.81254  -0.22038  -0.32989
   0.81254  -0.22038  -0.56989
   0.81254  -0.22038  -0.56989
   0.81254  -0.22038  -0.32989
   1.05254  -0.22038  -0.32989
   1.05254  -0.22038  -0.32989
   1.05254  -0.22038  -0.32989
   1.05254  -0.22038  -0.32989
   1.05254  -0.22038  -0.32989
   1.29254  -0.22038  -0.32989
   1.29254  -0.22038  -0.32989
   1.29254  -0.22038  -0.32989
   1.29254  -0.46038  -0.32989
   1.29254  -0.46038  -0.08989
   1.53254  -0.46038  -0.32989
   1.53254  -0.46038  -0.08989
   1.53254  -0.46038  -0.08989
   1.53254  -0.46038  -0.08989
   1.53254  -0.46038  -0.08989
   1.53254  -0.46038  -0.08989
   1.53254  -0.46038  -0.08989
   1.53254  -0.46038  -0.08989
   1.77254  -0.46038  -0.08989
   1.53254  -0.46038  -0.08989
   1.77254  -0.46038  -0.08989
   1.53254  -0.46038   0.15011
   1.77254  -0.46038   0.15011
   1.53254  -0.46038   0.15011
   1.53254  -0.46038  -0.08989
   1.53254  -0.46038   0.15011
   1.53254  -0.46038  -0.08989
   1.53254  -0.46038   0.15011
   1.53254  -0.46038  -0.08989
   1.53254  -0.46038   0.15011
   1.53254  -0.46038   0.15011
   1.53254  -0.22038   0.15011
   1.29254  -0.46038   0.15011
   1.29254  -0.22038   0.15011
   1.29254  -0.22038   0.15011
   1.29254  -0.22038   0.15011
   1.29254  -0.22038   0.15011
   1.05254  -0.22038   0.15011
   1.05254  -0.22038   0.15011
   1.05254  -0.22038   0.15011
   1.05254  -0.22038   0.15011
   0.81254   0.01962   0.15011
   0.81254   0.01962   0.15011
   0.81254   0.01962   0.15011
   0.81254   0.01962   0.15011
   0.57254   0.01962   0.15011
   0.57254   0.01962   0.15011
   0.57254   0.25962   0.15011
   0.57254   0.25962   0.15011
   0.33254   0.25962   0.39011
   0.33254   0.25962   0.39011
   0.33254   0.25962   0.39011
   0.33254   0.25962   0.15011
   0.09254   0.25962   0.39011
   0.09254   0.25962   0.39011
   0.09254   0.25962   0.39011
   0.09254   0.49962   0.39011
  -0.14746   0.49962   0.39011
  -0.14746   0.49962   0.39011
  -0.14746   0.49962   0.39011
  -0.14746   0.49962   0.39011
  -0.38746   0.49962   0.39011
  -0.38746   0.49962   0.39011
  -0.38746   0.49962   0.39011
  -0.38746   0.49962   0.62011
  -0.62746   0.49962   0.39011
  -0.62746   0.49962   0.62011
  -0.62746   0.49962   0.39011
  -0.62746   0.49962   0.62011
  -0.62746   0.49962   0.62011
  -0.62746   0.49962   0.62011
  -0.86746   0.49962   0.62011
  -0.86746   0.49962   0.62011
  -0.86746   0.49962   0.62011
  -0.86746   0.49962   0.62011
  -0.86746   0.49962   0.62011
  -0.86746   0.49962   0.62011
  -1.10746   0.49962   0.62011
  -1.10746   0.49962   0.62011
  -1.10746   0.49962   0.62011
  -1.10746   0.49962   0.86011
  -1.10746   0.49962   0.62011
  -1.10746   0.49962   0.62011
  -1.34746   0.49962   0.86011
  -1.34746   0.49962   0.86011
  -1.34746   0.73962   0.86011
  -1.34746   0.49962   0.86011
  -1.34746   0.49962   0.86011
  -1.34746   0.49962   0.86011
  -1.34746   0.49962   0.86011
  -1.58746   0.49962   0.62011
  -1.58746   0.49962   0.86011
  -1.58746   0.49962   0.86011
  -1.58746   0.49962   0.62011
  -1.58746   0.49962   0.86011
  -1.58746   0.49962   0.86011
  -1.58746   0.49962   0.86011
  -1.58746   0.49962   0.86011
  -1.58746   0.49962   0.86011
  -1.58746   0.49962   0.86011
  -1.58746   0.49962   0.86011
  -1.58746   0.49962   0.86011
  -1.58746   0.49962   0.62011
  -1.58746   0.49962   0.86011
  -1.58746   0.49962   0.62011
  -1.58746   0.49962   0.62011
  -1.58746   0.49962   0.62011
  -1.58746   0.49962   0.62011
  -1.58746   0.49962   0.62011
  -1.58746   0.49962   0.62011
  -1.58746   0.49962   0.62011
  -1.58746   0.25962   0.62011
  -1.34746   0.25962   0.62011
  -1.34746   0.25962   0.62011
  -1.34746   0.25962   0.62011
  -1.34746   0.25962   0.62011
  -1.34746   0.25962   0.62011
  -1.34746   0.25962   0.62011
  -1.10746   0.25962   0.62011
  -1.10746   0.01962   0.39011
  -1.10746   0.01962   0.39011
  -1.10746   0.01962   0.39011
  -1.10746   0.01962   0.39011
  -1.10746   0.01962   0.39011
  -1.10746   0.01962   0.39011
  -0.86746   0.01962   0.39011
  -0.86746   0.01962   0.39011
  -0.86746   0.01962   0.15011
  -0.62746  -0.22038   0.15011
  -0.62746   0.01962   0.15011
  -0.62746   0.01962   0.15011
  -0.62746  -0.22038   0.15011
  -0.62746  -0.22038   0.15011
  -0.38746  -0.22038   0.15011
  -0.38746  -0.22038  -0.08989
  -0.38746  -0.22038   0.15011
  -0.38746  -0.22038  -0.08989
  -0.14746  -0.22038  -0.08989
  -0.14746  -0.22038  -0.08989
  -0.14746  -0.22038  -0.08989
  -0.14746  -0.22038  -0.08989
  -0.14746  -0.22038  -0.08989
  -0.14746  -0.22038  -0.08989
   0.09254  -0.22038  -0.08989
   0.09254  -0.22038  -0.32989
   0.09254  -0.22038  -0.32989
   0.09254  -0.46038  -0.32989
   0.09254  -0.22038  -0.32989
   0.33254  -0.46038  -0.32989
   0.33254  -0.46038  -0.32989
   0.33254  -0.46038  -0.32989
   0.33254  -0.46038  -0.56989
   0.33254  -0.46038  -0.32989
   0.33254  -0.46038  -0.56989
   0.33254  -0.46038  -0.56989
   0.57254  -0.46038  -0.56989
   0.57254  -0.46038  -0.56989
   0.57254  -0.46038  -0.56989
   0.57254  -0.46038  -0.56989
   0.57254  -0.46038  -0.56989
   0.57254  -0.46038  -0.56989
   0.57254  -0.46038  -0.56989
   0.81254  -0.46038  -0.56989
   0.57254  -0.46038  -0.80989
   0.81254  -0.46038  -0.56989
   0.81254  -0.46038  -0.56989
   0.81254  -0.46038  -0.80989
   0.81254  -0.46038  -0.56989
   0.81254  -0.46038  -0.80989
   0.81254  -0.46038  -0.80989
   0.81254  -0.46038  -0.80989
   0.81254  -0.46038  -0.80989
   0.81254  -0.46038  -0.80989
   0.81254  -0.46038  -0.56989
   0.81254  -0.22038  -0.80989
   1.05254  -0.22038  -0.80989
   1.05254  -0.22038  -0.80989
   1.05254  -0.22038  -0.80989
   1.05254  -0.22038  -0.80989
   0.81254  -0.22038  -0.80989
   1.05254  -0.22038  -0.80989
   1.05254  -0.22038  -0.80989
   1.29254  -0.22038  -0.80989
   1.29254  -0.22038  -0.80989
   1.29254  -0.22038  -0.80989
   1.29254  -0.22038  -0.80989
   1.29254  -0.22038  -0.80989
   1.29254  -0.22038  -0.80989
   1.29254  -0.22038  -0.80989
   1.29254  -0.22038  -0.80989
   1.29254  -0.22038  -0.80989
   1.53254  -0.22038  -0.80989
   1.53254  -0.22038  -0.80989
   1.53254  -0.22038  -0.80989
   1.53254  -0.22038  -0.80989
   1.53254  -0.22038  -0.80989
   1.53254  -0.22038  -0.56989
   1.53254  -0.22038  -0.56989
   1.53254  -0.22038  -0.80989
   1.53254  -0.22038  -0.56989
   1.77254  -0.22038  -0.56989
   1.77254  -0.22038  -0.56989
   1.77254  -0.22038  -0.56989
   1.53254  -0.22038  -0.56989
   1.77254  -0.22038  -0.56989
   1.77254  -0.22038  -0.56989
   1.77254  -0.22038  -0.56989
   1.77254  -0.22038  -0.56989
   1.77254  -0.22038  -0.32989
   1.77254  -0.22038  -0.56989
   1.77254  -0.22038  -0.56989
   1.77254  -0.22038  -0.32989
   1.77254  -0.22038  -0.32989
   1.77254  -0.22038  -0.56989
   1.77254  -0.22038  -0.32989
   1.77254  -0.22038  -0.32989
   1.77254  -0.22038  -0.32989
   1.77254  -0.22038  -0.32989
   1.53254  -0.22038  -0.32989
   1.53254  -0.22038  -0.32989
   1.53254  -0.22038  -0.32989
   1.53254  -0.46038  -0.32989
   1.53254  -0.22038  -0.32989
   1.53254  -0.22038  -0.32989
   1.53254  -0.22038  -0.32989
   1.53254  -0.46038  -0.32989
   1.53254  -0.46038  -0.32989
   1.53254  -0.22038  -0.08989
   1.53254  -0.22038  -0.08989
   1.53254  -0.22038  -0.08989
   1.29254  -0.22038  -0.32989
   1.29254  -0.22038  -0.32989
   1.29254  -0.22038  -0.08989
   1.29254  -0.22038  -0.08989
   1.29254  -0.22038  -0.08989
   1.29254  -0.22038  -0.08989
   1.29254  -0.22038  -0.08989
   1.29254  -0.22038  -0.08989
   1.05254  -0.22038  -0.08989
   1.05254  -0.22038  -0.08989
   1.05254  -0.22038  -0.08989
   1.05254  -0.22038  -0.08989
   1.05254   0.01962  -0.08989
   1.05254   0.01962  -0.08989
   1.05254   0.01962  -0.08989
   1.05254   0.01962  -0.08989
   0.81254   0.01962  -0.08989
   0.81254   0.01962  -0.08989
   0.81254   0.01962  -0.08989
   0.81254   0.01962  -0.08989
   0.81254   0.01962  -0.08989
   0.81254   0.01962  -0.08989
   0.81254   0.01962  -0.08989
   0.81254   0.01962  -0.08989
   0.81254   0.25962  -0.08989
   0.57254   0.25962  -0.08989
   0.81254   0.25962  -0.08989
   0.57254   0.25962  -0.08989
   0.57254   0.25962  -0.08989
   0.57254   0.25962  -0.08989
   0.57254   0.25962  -0.08989
   0.57254   0.25962  -0.08989
   0.57254   0.25962  -0.08989
   0.33254   0.25962  -0.08989
   0.33254   0.25962  -0.08989
   0.33254   0.25962  -0.08989
   0.33254   0.25962  -0.08989
   0.33254   0.25962  -0.08989
   0.33254   0.25962  -0.08989
   0.33254   0.25962   0.15011
   0.33254   0.25962  -0.08989
   0.33254   0.25962   0.15011
   0.09254   0.25962  -0.08989
   0.09254   0.25962   0.15011
   0.09254   0.25962  -0.08989
   0.09254   0.25962  -0.08989
   0.09254   0.01962   0.15011
  -0.14746   0.01962   0.15011
  -0.14746   0.25962   0.15011
  -0.14746   0.25962  -0.08989
  -0.14746   0.25962  -0.08989
  -0.38746   0.25962   0.15011
  -0.14746   0.01962   0.15011
  -0.38746   0.25962   0.15011
  -0.38746   0.25962   0.15011
  -0.62746   0.25962   0.15011
  -0.62746   0.25962   0.15011
  -0.62746   0.25962   0.15011
  -0.62746   0.25962   0.15011
  -0.86746   0.25962   0.15011
  -0.86746   0.25962   0.15011
  -0.86746   0.25962   0.15011
  -1.10746   0.25962   0.15011
  -1.10746   0.25962   0.15011
  -1.10746   0.25962   0.15011
  -1.34746   0.25962   0.15011
  -1.34746   0.25962   0.15011
  -1.34746   0.25962   0.15011
  -1.34746   0.25962   0.15011
  -1.58746   0.25962   0.15011
  -1.58746   0.25962   0.15011
  -1.58746   0.25962   0.15011
  -1.58746   0.25962   0.15011
  -1.58746   0.25962   0.15011
  -1.82746   0.25962   0.15011
  -1.82746   0.25962   0.15011
  -1.82746   0.25962   0.15011
  -1.82746   0.25962   0.15011
  -2.06746   0.25962   0.15011
  -2.06746   0.25962   0.15011
  -2.06746   0.25962   0.15011
  -2.06746   0.25962   0.15011
  -2.06746   0.25962   0.15011
  -2.06746   0.25962   0.15011
  -2.06746   0.25962   0.15011
  -2.06746   0.25962   0.15011
  -2.06746   0.49962   0.15011
  -2.06746   0.25962   0.15011
  -2.06746   0.25962   0.15011
  -2.06746   0.25962   0.15011
  -2.06746   0.25962   0.15011
  -2.06746   0.25962   0.15011
  -2.06746   0.25962   0.15011
  -2.06746   0.25962   0.15011
  -2.06746   0.25962   0.15011
  -2.06746   0.01962   0.15011
  -1.82746   0.25962   0.15011
  -1.82746   0.25962   0.15011
  -1.82746   0.01962   0.15011
  -1.82746   0.01962   0.15011
  -1.82746   0.01962   0.15011
  -1.82746   0.01962   0.15011
  -1.82746   0.01962   0.15011
  -1.58746   0.01962   0.15011
  -1.58746   0.01962   0.15011
  -1.58746   0.01962   0.15011
  -1.58746  -0.22038   0.15011
  -1.58746  -0.22038  -0.08989
  -1.34746  -0.22038  -0.08989
  -1.34746  -0.22038  -0.08989
  -1.34746  -0.22038  -0.08989
  -1.34746  -0.22038  -0.08989
  -1.34746  -0.22038  -0.08989
  -1.10746  -0.46038  -0.08989
  -1.10746  -0.46038  -0.08989
  -1.10746  -0.46038  -0.08989
  -1.10746  -0.46038  -0.08989
  -0.86746  -0.46038  -0.08989
  -0.86746  -0.46038  -0.08989
  -0.86746  -0.46038  -0.08989
  -0.86746  -0.46038  -0.08989
  -0.86746  -0.46038  -0.08989
  -0.62746  -0.46038  -0.08989
  -0.62746  -0.46038  -0.08989
  -0.62746  -0.46038  -0.08989
  -0.62746  -0.46038  -0.08989
  -0.62746  -0.46038  -0.08989
  -0.62746  -0.46038  -0.32989
  -0.62746  -0.46038  -0.32989
  -0.62746  -0.46038  -0.32989
  -0.62746  -0.46038  -0.32989
  -0.38746  -0.46038  -0.32989
  -0.38746  -0.46038  -0.32989
  -0.38746  -0.46038  -0.32989
  -0.38746  -0.46038  -0.32989
  -0.38746  -0.46038  -0.32989
  -0.38746  -0.46038  -0.32989
  -0.38746  -0.46038  -0.32989
  -0.38746  -0.46038  -0.32989
  -0.38746  -0.46038  -0.32989
  -0.38746  -0.22038  -0.32989
  -0.14746  -0.22038  -0.32989
  -0.14746  -0.22038  -0.32989
  -0.14746  -0.22038  -0.32989
  -0.14746  -0.22038  -0.32989
  -0.14746  -0.22038  -0.32989
  -0.14746  -0.22038  -0.32989
  -0.14746  -0.22038  -0.32989
  -0.14746  -0.22038  -0.08989
  -0.14746   0.01962  -0.32989
  -0.14746   0.01962  -0.08989
  -0.14746   0.01962  -0.08989
  -0.14746   0.01962  -0.08989
  -0.14746   0.01962  -0.32989
  -0.14746   0.01962  -0.08989
  -0.14746   0.25962  -0.08989
  -0.14746   0.25962  -0.08989
   0.09254   0.25962  -0.08989
   0.09254   0.25962  -0.08989
   0.09254   0.25962  -0.08989
   0.09254   0.25962  -0.08989
   0.09254   0.25962  -0.08989
   0.09254   0.25962  -0.08989
   0.09254   0.25962  -0.08989
   0.09254   0.49962   0.15011
   0.09254   0.25962   0.15011
   0.09254   0.49962  -0.08989
   0.09254   0.25962   0.15011
   0.09254   0.25962   0.15011
   0.09254   0.25962   0.15011
   0.33254   0.25962   0.15011
   0.33254   0.49962   0.15011
   0.33254   0.25962   0.15011
   0.33254   0.25962   0.15011
   0.33254   0.25962   0.15011
   0.33254   0.25962   0.15011
   0.33254   0.25962   0.15011
   0.33254   0.25962   0.15011
   0.33254   0.25962   0.15011
   0.33254   0.25962   0.15011
   0.33254   0.25962   0.15011
   0.33254   0.25962   0.15011
   0.57254   0.25962   0.39011
   0.57254   0.25962   0.15011
   0.57254   0.25962   0.39011
   0.57254   0.25962   0.39011
   0.57254   0.25962   0.15011
   0.57254   0.25962   0.39011
   0.57254   0.01962   0.15011
   0.57254   0.01962   0.39011
   0.57254   0.25962   0.39011
   0.57254   0.01962   0.15011
   0.57254   0.01962   0.15011
   0.57254   0.01962   0.39011
   0.57254   0.01962   0.39011
   0.81254   0.01962   0.15011
   0.81254   0.01962   0.39011
   0.81254   0.01962   0.39011
   0.81254   0.01962   0.39011
   0.81254   0.01962   0.39011
   0.81254   0.01962   0.39011
   0.81254   0.01962   0.15011
   0.81254   0.01962   0.39011
   0.81254   0.01962   0.39011
   0.81254   0.01962   0.15011
   0.81254   0.01962   0.15011
   0.81254   0.01962   0.39011
   0.81254   0.01962   0.39011
   0.81254  -0.22038   0.15011
   0.81254   0.01962   0.39011
   0.81254  -0.22038   0.15011
   0.81254  -0.22038   0.15011
   0.81254  -0.22038   0.15011
   0.81254  -0.22038   0.15011
   0.81254  -0.22038   0.39011
   0.57254  -0.22038   0.15011
   0.81254  -0.22038   0.39011
   0.57254  -0.22038   0.39011
   0.57254  -0.22038   0.15011
   0.57254  -0.22038   0.39011
   0.57254  -0.22038   0.39011
   0.57254  -0.22038   0.39011
   0.57254  -0.22038   0.39011
   0.57254  -0.22038   0.39011
   0.57254   0.01962   0.15011
   0.57254   0.01962   0.39011
   0.57254  -0.22038   0.39011
   0.33254   0.01962   0.39011
