********************************************************************************
               CENTRO DE INSTRUMENTACION Y REGISTRO SISMICO  A.C.  
                       Coordinacion de Servicios Tecnicos
     Anaxagoras 814, Col. Narvarte, Benito Juarez, C.P. 03020 Mexico, D.F.
            Tels. 667 45 42/ 687 45  82             Fax. 669 25 12
********************************************************************************
ARCHIVO ESTANDAR DE ACELERACION:
VERSION DEL FORMATO                    : 2.0
NOMBRE DEL ARCHIVO                     : BA499403.141
FECHA Y HORA DE CREACION               : 13 de febrero de 1996/19:18
REF. CATALOGO ACELEROGRAMAS, SMIS 1995 : REGISTRO No.     /PAG.


================================================================================
DATOS DE LA ESTACION:
NOMBRE DE LA ESTACION                  : BUENOS AIRES
CLAVE DE LA ESTACION                   : BA49
LOCALIZACION DE LA ESTACION            : ESCUELA SECUNDARIA 102, DOCTOR MARQUEZ
                                       : Y EJE CENTRAL, BUENOS AIRES.
                                       :
                                       :
                                       :
COORDENADAS DE LA ESTACION             : 19.410 LAT. N 
                                       : 99.145 LONG. W 
ALTITUD (msnm)                         : 2233
TIPO DE SUELO                          : TERRENO BLANDO, MATERIAL COMPRESIBLE
                                       : (ARCILLAS)
                                       : 
INSTITUCION RESPONSABLE                : CIRES 
                                       :

================================================================================
DATOS DEL ACELEROGRAFO:
MODELO DEL ACELEROGRAFO                : SSA-1
NUMERO DE SERIE DEL ACELEROGRAFO       : 176
NUMERO DE CANALES                      : 3
ORIENTACION C1-C6 (rumbo;orientacion)  : /N00E/+V/N90E
ORIENTACION C7-C12 (rumbo;orientacion) :
VEL. DE MUESTREO, C1-C6 (muestras/s)   : /200/200/200
VEL. DE MUESTREO, C7-C12 (muestras/s)  :
ESC. COMPLETA DE SENSORES, C1-C6, (g)  : /2/2/2
ESC. COMPLETA DE SENSORES, C7-C12, (g) :
FREC. NAT. DE SENSORES, C1-C6, (Hz)    : /50/50/50
FREC. NAT. DE SENSORES, C7-C12, (Hz)   :
AMORTIGUAMIENTO DE SENSORES, C1-C6     : /0.700/0.700/0.700
AMORTIGUAMIENTO DE SENSORES, C7-C12    :
INTERVALO DE MUESTREO, C1-C6, (s)      : /0.005/0.005/0.005
INTERVALO DE MUESTREO, C7-C12, (s)     :
UMBRAL DE DISPARO, C1-C6, (Gal)        : /2/2/2
UMBRAL DE DISPARO, C7-C12, (Gal)       :
MEMORIA DE PREEVENTO (s)               : 15
TIEMPO DE POSEVENTO (s)                : 90


================================================================================
DATOS DEL SISMO:
FECHA DEL SISMO (GMT)                  : 14/MAR/94
HORA EPICENTRO (GMT)                   : 20:51:32,5
MAGNITUD(ES)                           : /Mc=6.50
COORDENADAS DEL EPICENTRO              : 15.670 LAT. N 
                                       : 93.010 LONG. W 
PROFUNDIDAD FOCAL (km)                 : 95 
FUENTE DE LOS DATOS EPICENTRALES       : SSN
                                       : INSTITUTO DE GEOFISICA, UNAM

================================================================================
DATOS DE ESTE REGISTRO:
HORA DE LA PRIMERA MUESTRA (GMT)       : 20:54:00.00
EXACTITUD DEL TIEMPO (s)               :     
DURACION DEL REGISTRO (s), C1-C6       : /163.84/163.84/163.84
DURACION DEL REGISTRO (s), C7-C12      :
NUM. TOTAL DE MUESTRAS, C1-C6          : /32768/32768/32768
NUM. TOTAL DE MUESTRAS, C7-C12         :
ACEL. MAX. (Gal), C1-C6                : /4.51418/0.98202/4.32606
ACEL. MAX., C1-C6, EN LA MUESTRA       :
ACEL. MAX. (Gal), C7-C12               :
ACEL. MAX., C7-C12, EN LA MUESTRA      :
UNIDADES DE LOS DATOS                  : Gal (cm/s/s)
FACTOR DE DECIMACION                   : 1
FORMATO DATOS (FORTRAN,10 campos/dato) : 3F10.5


================================================================================
CALIDAD DEL ACELEROGRAMA:
REGISTRO DIGITAL COMPLETO, CARECE DE TIEMPO ABSOLUTO.


================================================================================
COMENTARIOS:
             El equipo se encontraba con ganancias de 4 en todos los ejes,
             por lo que las escalas completas eran de 1/2 g.












================================================================================
DATOS DE ACELERACION:
---------+---------+---------+---------+---------+---------+---------+---------+
   CANAL-1   CANAL-2   CANAL-3   CANAL-4   CANAL-5   CANAL-6   CANAL-7   CANAL-8
      N00E        +V      N90E
---------+---------+---------+---------+---------+---------+---------+---------+
[...]
  -1.95582  -0.21798  -0.46394
  -1.95582  -0.21798  -0.22394
  -1.95582  -0.21798  -0.46394
  -1.95582  -0.21798  -0.46394
  -1.95582  -0.21798  -0.22394
  -2.18582  -0.21798  -0.22394
  -2.18582  -0.21798  -0.22394
  -2.18582  -0.21798  -0.22394
  -2.42582  -0.21798  -0.22394
  -2.42582  -0.21798   0.01606
  -2.42582  -0.21798   0.01606
  -2.66582  -0.21798   0.01606
  -2.66582  -0.21798   0.01606
  -2.66582  -0.21798   0.01606
  -2.66582   0.02202   0.25606
  -2.66582   0.26202   0.01606
  -2.66582   0.02202   0.01606
  -2.90582   0.02202   0.01606
  -2.90582   0.02202   0.01606
  -2.90582   0.02202   0.25606
  -3.14582   0.02202   0.25606
  -3.14582   0.02202   0.25606
  -3.14582   0.02202   0.25606
  -3.14582   0.02202   0.25606
  -3.14582   0.02202   0.25606
  -3.38582   0.02202   0.49606
  -3.38582   0.02202   0.49606
  -3.38582   0.02202   0.49606
  -3.38582   0.02202   0.49606
  -3.38582   0.02202   0.49606
  -3.38582   0.02202   0.49606
  -3.62582   0.02202   0.49606
  -3.62582   0.02202   0.49606
  -3.62582   0.02202   0.49606
  -3.86582   0.02202   0.73606
  -3.86582   0.02202   0.73606
  -3.86582   0.02202   0.73606
  -3.86582   0.02202   0.97606
  -3.86582   0.02202   0.97606
  -3.86582   0.02202   0.97606
  -3.86582   0.02202   0.73606
  -3.86582   0.02202   0.97606
  -3.86582   0.02202   0.97606
  -3.86582   0.02202   0.97606
  -3.86582   0.02202   0.97606
  -3.86582   0.02202   0.97606
  -3.86582   0.02202   0.97606
  -4.10582   0.02202   0.97606
  -4.10582   0.02202   0.97606
  -4.10582  -0.21798   0.97606
  -4.10582   0.02202   1.21606
  -4.10582   0.02202   1.21606
  -4.10582  -0.21798   1.21606
  -4.10582   0.02202   1.21606
  -3.86582   0.02202   1.21606
  -3.86582   0.02202   1.21606
  -3.86582   0.02202   1.21606
  -3.86582   0.02202   1.21606
  -3.86582   0.02202   1.21606
  -3.86582  -0.21798   1.21606
  -3.86582   0.02202   1.44606
  -3.86582  -0.21798   1.44606
  -3.86582  -0.21798   1.44606
  -3.86582  -0.21798   1.44606
  -3.86582  -0.21798   1.44606
  -3.86582  -0.21798   1.44606
  -3.62582  -0.21798   1.44606
  -3.62582  -0.21798   1.68606
  -3.62582  -0.21798   1.44606
  -3.62582  -0.21798   1.44606
  -3.62582   0.02202   1.44606
  -3.38582   0.02202   1.44606
  -3.38582   0.02202   1.68606
  -3.38582   0.02202   1.68606
  -3.38582   0.02202   1.68606
  -3.38582  -0.21798   1.68606
  -3.38582  -0.21798   1.68606
  -3.38582  -0.21798   1.68606
  -3.38582  -0.21798   1.68606
  -3.38582  -0.21798   1.68606
  -3.38582  -0.21798   1.92606
  -3.14582  -0.21798   1.92606
  -3.14582  -0.21798   1.68606
  -3.14582  -0.21798   1.68606
  -3.14582  -0.21798   1.92606
  -3.14582  -0.21798   1.92606
  -3.14582  -0.21798   1.92606
  -3.14582  -0.21798   1.92606
  -2.90582  -0.45798   1.92606
  -2.90582  -0.45798   1.92606
  -2.90582  -0.45798   1.92606
  -2.90582  -0.21798   1.92606
  -2.90582  -0.21798   1.92606
  -2.90582  -0.21798   1.92606
  -2.90582  -0.21798   2.16606
  -2.90582  -0.21798   2.16606
  -2.90582  -0.21798   2.16606
  -2.90582  -0.21798   2.16606
  -2.90582  -0.21798   2.16606
  -2.66582   0.02202   2.16606
  -2.66582   0.02202   1.92606
  -2.66582  -0.21798   1.92606
  -2.42582  -0.21798   1.92606
  -2.42582  -0.21798   2.16606
  -2.42582  -0.45798   1.92606
  -2.42582  -0.21798   1.92606
  -2.42582  -0.45798   2.16606
  -2.42582  -0.21798   2.16606
  -2.42582  -0.21798   2.16606
  -2.42582  -0.21798   2.40606
  -2.42582  -0.21798   2.16606
  -2.42582   0.02202   2.40606
  -2.42582   0.02202   2.40606
  -2.18582  -0.21798   2.16606
  -2.18582  -0.21798   2.16606
  -1.95582  -0.21798   2.16606
  -1.95582  -0.21798   2.16606
  -1.95582  -0.45798   2.16606
  -1.71582  -0.21798   2.16606
  -1.71582  -0.21798   2.16606
  -1.95582  -0.21798   2.40606
  -1.95582  -0.21798   2.40606
  -1.95582  -0.21798   2.40606
  -1.95582  -0.21798   2.64606
  -1.71582  -0.21798   2.64606
  -1.71582  -0.21798   2.40606
  -1.71582  -0.21798   2.64606
  -1.47582  -0.21798   2.40606
  -1.23582   0.02202   2.40606
  -1.23582   0.02202   2.40606
  -1.23582   0.02202   2.40606
  -1.23582   0.02202   2.40606
  -1.23582   0.02202   2.40606
  -1.23582   0.02202   2.40606
  -1.23582   0.02202   2.64606
  -1.23582   0.02202   2.64606
  -1.23582   0.02202   2.64606
  -1.23582   0.02202   2.64606
  -1.23582   0.02202   2.64606
  -1.23582  -0.21798   2.64606
  -0.99582  -0.21798   2.64606
  -0.99582  -0.21798   2.64606
  -0.75582  -0.21798   2.64606
  -0.75582  -0.21798   2.64606
  -0.75582  -0.21798   2.88606
  -0.75582   0.02202   2.64606
  -0.75582   0.02202   2.88606
  -0.75582   0.02202   2.88606
  -0.75582   0.02202   2.88606
  -0.75582   0.02202   2.88606
  -0.75582   0.02202   2.88606
  -0.75582  -0.21798   2.88606
  -0.75582  -0.21798   2.88606
  -0.51582  -0.21798   2.88606
  -0.51582  -0.21798   2.88606
  -0.51582  -0.21798   2.64606
  -0.51582  -0.21798   2.88606
  -0.51582   0.02202   2.64606
  -0.51582   0.02202   2.88606
  -0.75582   0.02202   2.88606
  -0.51582   0.02202   2.88606
  -0.51582   0.02202   2.88606
  -0.51582   0.02202   2.88606
  -0.51582   0.02202   2.88606
  -0.27582   0.02202   2.88606
  -0.27582   0.02202   2.88606
  -0.27582   0.02202   2.88606
  -0.27582   0.02202   2.88606
  -0.27582   0.02202   2.88606
  -0.27582   0.02202   2.88606
  -0.27582   0.02202   2.88606
  -0.51582   0.02202   2.88606
  -0.27582   0.02202   2.88606
  -0.27582   0.02202   2.88606
  -0.27582   0.02202   2.88606
  -0.27582   0.02202   2.88606
  -0.03582  -0.21798   2.88606
  -0.03582  -0.21798   2.88606
  -0.03582  -0.21798   2.88606
  -0.03582  -0.21798   2.88606
  -0.03582  -0.21798   2.88606
  -0.03582  -0.21798   2.88606
  -0.03582   0.02202   2.88606
  -0.03582   0.02202   2.88606
  -0.03582   0.02202   2.88606
  -0.03582   0.02202   2.88606
  -0.03582   0.02202   2.88606
  -0.03582   0.02202   2.88606
  -0.03582   0.02202   2.88606
   0.20418   0.02202   2.88606
   0.20418   0.02202   2.88606
   0.20418   0.02202   2.88606
   0.20418  -0.21798   2.88606
   0.20418  -0.21798   2.88606
   0.20418  -0.21798   2.88606
   0.20418  -0.21798   2.88606
   0.20418  -0.21798   2.88606
   0.20418  -0.21798   2.88606
   0.20418  -0.21798   2.88606
   0.20418  -0.21798   2.88606
   0.20418  -0.21798   2.88606
   0.44418  -0.21798   2.88606
   0.44418  -0.21798   2.88606
   0.44418  -0.21798   2.88606
   0.44418  -0.21798   2.88606
   0.44418  -0.21798   2.88606
   0.44418  -0.21798   2.88606
   0.44418  -0.21798   2.88606
   0.44418  -0.21798   2.64606
   0.44418  -0.21798   2.88606
   0.44418  -0.21798   2.64606
   0.44418  -0.21798   2.64606
   0.44418   0.02202   2.64606
   0.44418   0.02202   2.64606
   0.20418   0.02202   2.64606
   0.20418   0.02202   2.64606
   0.20418   0.02202   2.64606
   0.20418   0.02202   2.64606
   0.20418   0.26202   2.64606
   0.20418   0.26202   2.40606
   0.20418   0.26202   2.40606
   0.20418   0.26202   2.40606
   0.20418   0.02202   2.40606
   0.44418   0.26202   2.40606
   0.20418   0.02202   2.16606
   0.44418   0.26202   2.16606
   0.20418   0.26202   2.16606
   0.44418   0.26202   2.16606
   0.20418   0.02202   2.16606
   0.20418   0.26202   2.16606
   0.20418   0.26202   1.92606
   0.20418   0.02202   2.16606
   0.20418   0.26202   1.92606
   0.20418   0.02202   1.92606
   0.20418   0.26202   1.92606
   0.20418   0.26202   1.68606
   0.20418   0.26202   1.68606
   0.20418   0.26202   1.68606
   0.20418   0.26202   1.68606
   0.20418   0.26202   1.68606
   0.20418   0.26202   1.44606
   0.20418   0.26202   1.44606
   0.20418   0.26202   1.44606
   0.20418   0.26202   1.44606
   0.20418   0.26202   1.21606
   0.20418   0.26202   1.21606
   0.20418   0.02202   1.21606
   0.20418   0.26202   1.21606
   0.20418   0.26202   0.97606
   0.20418   0.26202   0.97606
   0.44418   0.26202   0.97606
   0.44418   0.26202   0.97606
   0.44418   0.26202   0.97606
   0.44418   0.26202   0.97606
   0.44418   0.26202   0.73606
   0.44418   0.02202   0.73606
   0.44418   0.02202   0.73606
   0.44418   0.26202   0.73606
   0.44418   0.26202   0.73606
   0.44418   0.26202   0.73606
   0.44418   0.26202   0.73606
   0.44418   0.26202   0.73606
   0.44418   0.26202   0.49606
   0.44418   0.26202   0.49606
   0.68418   0.26202   0.49606
   0.68418   0.02202   0.49606
   0.68418   0.02202   0.25606
   0.68418   0.26202   0.25606
   0.92418   0.02202   0.25606
   0.68418   0.26202   0.25606
   0.68418   0.26202   0.25606
   0.68418   0.26202   0.25606
   0.68418   0.26202   0.25606
   0.68418   0.26202   0.25606
   0.92418   0.26202   0.25606
   0.92418   0.26202   0.01606
   1.16418   0.26202   0.01606
   1.16418   0.26202   0.01606
   1.40418   0.26202   0.01606
   1.40418   0.26202  -0.22394
   1.40418   0.26202   0.01606
   1.40418   0.26202   0.01606
   1.40418   0.26202  -0.22394
   1.40418   0.26202   0.01606
   1.40418   0.26202  -0.22394
   1.40418   0.26202  -0.22394
   1.40418   0.26202  -0.46394
   1.40418   0.26202  -0.46394
   1.64418   0.50202  -0.46394
   1.64418   0.26202  -0.46394
   1.88418   0.26202  -0.70394
   1.88418   0.26202  -0.70394
   2.12418   0.26202  -0.70394
   2.12418   0.02202  -0.70394
   2.12418   0.02202  -0.70394
   2.12418   0.02202  -0.70394
   2.12418   0.02202  -0.70394
   2.12418   0.02202  -0.46394
   1.88418   0.02202  -0.70394
   2.12418   0.26202  -0.70394
   2.12418   0.26202  -0.94394
   2.12418   0.26202  -0.94394
   2.36418   0.26202  -0.94394
   2.36418   0.26202  -1.18394
   2.60418   0.26202  -1.18394
   2.60418   0.26202  -1.18394
   2.84418   0.02202  -1.18394
   2.84418   0.02202  -1.18394
   3.07418   0.02202  -1.18394
   3.07418   0.02202  -1.18394
   3.07418   0.02202  -1.42394
   3.07418   0.02202  -1.42394
   3.07418   0.02202  -1.42394
   3.07418   0.02202  -1.42394
   3.07418   0.02202  -1.42394
   3.07418   0.02202  -1.66394
   3.31418   0.02202  -1.90394
   3.31418   0.02202  -1.90394
   3.31418   0.02202  -1.90394
   3.55418   0.02202  -1.90394
   3.55418   0.02202  -2.14394
   3.55418  -0.21798  -2.14394
   3.79418  -0.21798  -1.90394
   3.79418  -0.21798  -2.14394
   3.79418  -0.21798  -2.14394
   3.55418  -0.21798  -2.14394
   3.55418  -0.21798  -2.38394
   3.55418   0.02202  -2.38394
   3.55418   0.02202  -2.38394
   3.79418   0.02202  -2.38394
   3.79418   0.02202  -2.62394
   4.03418  -0.21798  -2.62394
   4.03418  -0.21798  -2.62394
   4.03418  -0.21798  -2.62394
   4.03418  -0.21798  -2.62394
   4.03418   0.02202  -2.86394
   4.27418   0.02202  -2.86394
   4.03418   0.02202  -2.86394
   4.03418   0.02202  -2.86394
   4.03418   0.26202  -2.86394
   3.79418   0.02202  -2.86394
   3.79418   0.26202  -3.10394
   4.03418   0.26202  -3.34394
   4.03418   0.26202  -3.34394
   4.27418   0.26202  -3.34394
   4.27418   0.26202  -3.34394
   4.51418   0.26202  -3.58394
   4.51418   0.26202  -3.58394
   4.51418   0.02202  -3.34394
   4.51418  -0.21798  -3.34394
   4.27418  -0.21798  -3.34394
   4.27418  -0.21798  -3.34394
   4.03418   0.02202  -3.34394
   3.79418   0.02202  -3.34394
   3.79418   0.26202  -3.34394
   3.79418   0.50202  -3.34394
   3.79418   0.74202  -3.58394
   3.79418   0.74202  -3.58394
   4.03418   0.74202  -3.81394
   4.27418   0.50202  -3.81394
   4.27418   0.50202  -3.81394
   4.51418   0.26202  -3.81394
   4.51418   0.02202  -3.81394
   4.51418   0.02202  -3.58394
   4.27418   0.02202  -3.58394
   4.03418   0.02202  -3.34394
   3.79418   0.02202  -3.34394
   3.55418   0.02202  -3.34394
   3.55418   0.26202  -3.34394
   3.55418   0.26202  -3.34394
   3.55418   0.50202  -3.58394
   3.79418   0.50202  -3.58394
   3.79418   0.50202  -3.81394
   3.79418   0.50202  -3.81394
   4.03418   0.50202  -3.81394
   4.03418   0.50202  -3.81394
   4.03418   0.50202  -3.81394
   3.79418   0.26202  -3.81394
   3.79418   0.26202  -3.81394
   3.55418   0.02202  -3.58394
   3.55418   0.02202  -3.58394
   3.31418   0.02202  -3.34394
   3.31418   0.26202  -3.34394
   3.31418   0.02202  -3.34394
   3.31418   0.26202  -3.34394
   3.31418   0.26202  -3.34394
   3.31418   0.50202  -3.34394
   3.31418   0.50202  -3.58394
   3.31418   0.26202  -3.58394
   3.55418   0.26202  -3.58394
   3.31418   0.02202  -3.58394
   3.31418   0.02202  -3.58394
   3.31418  -0.21798  -3.34394
   3.07418  -0.21798  -3.34394
   3.07418  -0.21798  -3.10394
   2.84418   0.02202  -3.10394
   2.84418   0.02202  -2.86394
   2.60418   0.02202  -2.86394
   2.84418   0.02202  -2.86394
   2.84418   0.26202  -2.86394
   2.84418   0.02202  -3.10394
   2.84418   0.02202  -2.86394
   2.84418   0.02202  -2.86394
   2.84418  -0.21798  -2.86394
   2.60418   0.02202  -2.86394
   2.60418  -0.21798  -2.62394
   2.36418  -0.21798  -2.62394
   2.12418  -0.21798  -2.62394
   2.12418  -0.21798  -2.62394
   1.88418  -0.21798  -2.62394
   1.88418   0.02202  -2.62394
   1.88418   0.02202  -2.62394
   1.88418   0.02202  -2.38394
   1.88418   0.02202  -2.38394
   1.88418   0.02202  -2.38394
   1.88418   0.02202  -2.38394
   1.88418   0.02202  -2.14394
   1.88418  -0.21798  -2.14394
   1.64418  -0.21798  -2.14394
   1.64418  -0.21798  -1.90394
   1.40418  -0.21798  -2.14394
   1.16418  -0.21798  -2.14394
   1.16418  -0.21798  -2.14394
   0.92418   0.02202  -2.14394
   0.92418  -0.21798  -2.14394
   0.92418   0.02202  -2.14394
   0.92418   0.02202  -1.90394
   0.92418   0.02202  -1.90394
   0.92418   0.02202  -1.90394
   0.92418   0.02202  -1.90394
   0.68418   0.02202  -1.90394
   0.68418   0.02202  -1.90394
   0.68418  -0.21798  -1.90394
   0.44418   0.02202  -1.90394
   0.44418   0.02202  -1.90394
   0.20418   0.02202  -1.66394
   0.20418   0.02202  -1.66394
   0.20418   0.02202  -1.90394
   0.20418   0.02202  -1.90394
  -0.03582   0.02202  -1.90394
  -0.03582   0.02202  -1.90394
  -0.03582   0.02202  -1.90394
  -0.03582   0.02202  -1.90394
  -0.03582   0.02202  -1.90394
  -0.27582   0.02202  -1.90394
  -0.27582   0.02202  -1.90394
  -0.51582   0.02202  -1.90394
  -0.51582   0.02202  -1.90394
  -0.51582   0.26202  -1.90394
  -0.51582   0.26202  -1.90394
  -0.51582   0.26202  -1.90394
  -0.51582   0.26202  -1.90394
  -0.27582   0.26202  -1.90394
  -0.27582   0.26202  -1.90394
  -0.27582   0.02202  -1.90394
  -0.27582   0.02202  -1.90394
  -0.51582   0.26202  -1.66394
  -0.75582   0.26202  -1.90394
  -0.75582   0.26202  -1.66394
  -0.99582   0.26202  -1.90394
  -0.99582   0.26202  -1.90394
  -1.23582   0.26202  -1.90394
  -1.23582   0.26202  -2.14394
  -1.23582   0.26202  -2.14394
  -0.99582   0.26202  -1.90394
  -0.99582   0.26202  -2.14394
  -0.99582   0.26202  -1.90394
  -0.75582   0.26202  -1.90394
  -0.99582   0.26202  -1.66394
  -0.75582   0.26202  -1.66394
  -0.99582   0.26202  -1.66394
  -0.99582   0.26202  -1.66394
  -1.23582   0.26202  -1.90394
  -1.23582   0.26202  -1.90394
  -1.47582   0.26202  -1.90394
  -1.47582   0.26202  -1.90394
  -1.47582   0.26202  -1.90394
  -1.47582   0.26202  -1.66394
  -1.47582   0.26202  -1.66394
  -1.47582   0.26202  -1.66394
  -1.47582   0.50202  -1.66394
  -1.47582   0.50202  -1.66394
  -1.23582   0.50202  -1.66394
  -1.23582   0.26202  -1.66394
  -1.23582   0.26202  -1.66394
  -1.23582   0.02202  -1.66394
  -1.23582   0.02202  -1.42394
  -1.47582   0.02202  -1.42394
  -1.71582   0.02202  -1.42394
  -1.95582   0.02202  -1.42394
  -2.18582   0.02202  -1.42394
  -2.18582   0.26202  -1.42394
  -1.95582   0.26202  -1.42394
  -1.95582   0.26202  -1.42394
  -1.71582   0.26202  -1.42394
