********************************************************************************
               CENTRO DE INSTRUMENTACION Y REGISTRO SISMICO  A.C.  
                       Coordinacion de Servicios Tecnicos
     Anaxagoras 814, Col. Narvarte, Benito Juarez, C.P. 03020 Mexico, D.F.
            Tels. 687 45 42/ 687 45  82             Fax. 669 25 12
********************************************************************************
ARCHIVO ESTANDAR DE ACELERACION:
VERSION DEL FORMATO                    : 2.0
NOMBRE DEL ARCHIVO                     : BA499510.211
FECHA Y HORA DE CREACION               : 18 de marzo de 1996/11:29
REF. CATALOGO ACELEROGRAMAS, SMIS 1995 : REGISTRO No.     /PAG.


================================================================================
DATOS DE LA ESTACION:
NOMBRE DE LA ESTACION                  : BUENOS AIRES
CLAVE DE LA ESTACION                   : BA49
LOCALIZACION DE LA ESTACION            : ESCUELA SECUNDARIA 102, DOCTOR MARQUEZ
                                       : Y EJE CENTRAL, BUENOS AIRES.
                                       :
                                       :
                                       :
COORDENADAS DE LA ESTACION             : 19.410 LAT. N 
                                       : 99.145 LONG. W 
ALTITUD (msnm)                         : 2233
TIPO DE SUELO                          : TERRENO BLANDO, MATERIAL COMPRESIBLE
                                       : (ARCILLAS)
                                       : 
INSTITUCION RESPONSABLE                : CIRES 
                                       :

================================================================================
DATOS DEL ACELEROGRAFO:
MODELO DEL ACELEROGRAFO                : SSA-1
NUMERO DE SERIE DEL ACELEROGRAFO       : 176
NUMERO DE CANALES                      : 3
ORIENTACION C1-C6 (rumbo;orientacion)  : /N00E/+V/N90E
ORIENTACION C7-C12 (rumbo;orientacion) :
VEL. DE MUESTREO, C1-C6 (muestras/s)   : /200/200/200
VEL. DE MUESTREO, C7-C12 (muestras/s)  :
ESC. COMPLETA DE SENSORES, C1-C6, (g)  : /2/2/2
ESC. COMPLETA DE SENSORES, C7-C12, (g) :
FREC. NAT. DE SENSORES, C1-C6, (Hz)    : /50/50/50
FREC. NAT. DE SENSORES, C7-C12, (Hz)   :
AMORTIGUAMIENTO DE SENSORES, C1-C6     : /0.700/0.700/0.700
AMORTIGUAMIENTO DE SENSORES, C7-C12    :
INTERVALO DE MUESTREO, C1-C6, (s)      : /0.005/0.005/0.005
INTERVALO DE MUESTREO, C7-C12, (s)     :
UMBRAL DE DISPARO, C1-C6, (Gal)        : 2/2/2
UMBRAL DE DISPARO, C7-C12, (Gal)       :
MEMORIA DE PREEVENTO (s)               : 15
TIEMPO DE POSEVENTO (s)                : 60


================================================================================
DATOS DEL SISMO:
FECHA DEL SISMO (GMT)                  : 21/OCT/95
HORA EPICENTRO (GMT)                   : 02:38:59,0
MAGNITUD(ES)                           : /Mc=6.2/ME=6.5
COORDENADAS DEL EPICENTRO              : 16.92 LAT. N
                                       : 93.62 LONG. W
PROFUNDIDAD FOCAL (km)                 : 98
FUENTE DE LOS DATOS EPICENTRALES       : SSN
                                       : INSTITUTO DE GEOFISICA, UNAM

================================================================================
DATOS DE ESTE REGISTRO:
HORA DE LA PRIMERA MUESTRA (GMT)       : 02:42:20.00
EXACTITUD DEL TIEMPO (s)               :     
DURACION DEL REGISTRO (s), C1-C6       : /139.52/139.52/139.52
DURACION DEL REGISTRO (s), C7-C12      :
NUM. TOTAL DE MUESTRAS, C1-C6          : /27904/27904/27904
NUM. TOTAL DE MUESTRAS, C7-C12         :
ACEL. MAX. (Gal), C1-C6                : /3.51562/1.12089/3.61262
ACEL. MAX., C1-C6, EN LA MUESTRA       :
ACEL. MAX. (Gal), C7-C12               :
ACEL. MAX., C7-C12, EN LA MUESTRA      :
UNIDADES DE LOS DATOS                  : Gal (cm/s/s)
FACTOR DE DECIMACION                   : 1
FORMATO DATOS (FORTRAN,10 campos/dato) : 3F10.5


================================================================================
CALIDAD DEL ACELEROGRAMA:
REGISTRO DIGITAL COMPLETO, CARECE DE TIEMPO ABSOLUTO.


================================================================================
COMENTARIOS:
             EL EQUIPO SE ENCONTRABA CON GANANCIAS DE 4 EN TODOS LOS EJES,
             POR LO QUE LAS ESCALAS COMPLETAS ERAN DE 1/2 G.












================================================================================
DATOS DE ACELERACION:
---------+---------+---------+---------+---------+---------+---------+---------+
   CANAL-1   CANAL-2   CANAL-3   CANAL-4   CANAL-5   CANAL-6   CANAL-7   CANAL-8
      N00E        +V      N90E
---------+---------+---------+---------+---------+---------+---------+---------+
[...]
  -1.27438  -0.07911  -0.45738
  -1.27438  -0.07911  -0.45738
  -1.27438  -0.07911  -0.69738
  -1.27438  -0.07911  -0.69738
  -1.27438  -0.07911  -0.93738
  -1.51438  -0.31911  -0.93738
  -1.51438  -0.07911  -0.93738
  -1.51438  -0.31911  -0.93738
  -1.51438  -0.07911  -0.93738
  -1.51438  -0.07911  -0.93738
  -1.51438  -0.31911  -1.17738
  -1.51438  -0.31911  -1.17738
  -1.51438  -0.31911  -1.17738
  -1.51438  -0.31911  -1.17738
  -1.51438  -0.31911  -1.17738
  -1.51438  -0.31911  -1.41738
  -1.75438  -0.31911  -1.41738
  -1.51438  -0.31911  -1.41738
  -1.75438  -0.31911  -1.41738
  -1.75438  -0.31911  -1.41738
  -1.75438  -0.31911  -1.41738
  -1.75438  -0.31911  -1.41738
  -1.75438  -0.31911  -1.65738
  -1.75438  -0.31911  -1.65738
  -1.75438  -0.31911  -1.65738
  -1.75438  -0.31911  -1.65738
  -1.75438  -0.31911  -1.89738
  -1.75438  -0.31911  -1.89738
  -1.75438  -0.31911  -1.89738
  -1.75438  -0.31911  -1.89738
  -1.75438  -0.31911  -1.89738
  -1.75438  -0.31911  -1.89738
  -1.75438  -0.31911  -2.13738
  -1.75438  -0.31911  -2.13738
  -1.75438  -0.31911  -2.13738
  -1.99438  -0.31911  -2.13738
  -1.75438  -0.31911  -2.13738
  -1.75438  -0.31911  -2.37738
  -1.75438  -0.31911  -2.37738
  -1.75438  -0.31911  -2.37738
  -1.75438  -0.31911  -2.37738
  -1.75438  -0.31911  -2.37738
  -1.75438  -0.31911  -2.37738
  -1.75438  -0.31911  -2.37738
  -1.75438  -0.31911  -2.37738
  -1.75438  -0.31911  -2.37738
  -1.75438  -0.31911  -2.61738
  -1.75438  -0.31911  -2.37738
  -1.75438  -0.31911  -2.61738
  -1.75438  -0.31911  -2.61738
  -1.75438  -0.31911  -2.61738
  -1.75438  -0.31911  -2.61738
  -1.75438  -0.31911  -2.61738
  -1.75438  -0.31911  -2.61738
  -1.75438  -0.31911  -2.61738
  -1.75438  -0.31911  -2.85738
  -1.75438  -0.31911  -2.85738
  -1.75438  -0.31911  -2.85738
  -1.75438  -0.31911  -2.85738
  -1.75438  -0.31911  -2.85738
  -1.75438  -0.31911  -2.85738
  -1.75438  -0.31911  -2.85738
  -1.75438  -0.31911  -3.09738
  -1.75438  -0.31911  -2.85738
  -1.75438  -0.31911  -3.09738
  -1.75438  -0.31911  -2.85738
  -1.75438  -0.31911  -2.85738
  -1.75438  -0.31911  -2.85738
  -1.75438  -0.07911  -3.09738
  -1.51438  -0.31911  -3.09738
  -1.51438  -0.31911  -3.09738
  -1.51438  -0.31911  -3.09738
  -1.51438  -0.07911  -2.85738
  -1.51438  -0.31911  -3.09738
  -1.51438  -0.31911  -3.09738
  -1.51438  -0.31911  -3.09738
  -1.51438  -0.07911  -3.09738
  -1.51438  -0.31911  -3.09738
  -1.51438  -0.31911  -3.09738
  -1.51438  -0.31911  -3.09738
  -1.51438  -0.31911  -3.09738
  -1.51438  -0.07911  -3.09738
  -1.27438  -0.07911  -3.09738
  -1.51438  -0.07911  -3.09738
  -1.27438  -0.31911  -3.09738
  -1.27438  -0.07911  -3.09738
  -1.27438  -0.31911  -3.09738
  -1.27438  -0.07911  -3.09738
  -1.27438  -0.07911  -3.09738
  -1.27438  -0.07911  -3.09738
  -1.27438  -0.07911  -3.09738
  -1.27438  -0.07911  -3.09738
  -1.27438  -0.07911  -3.09738
  -1.27438  -0.07911  -3.09738
  -1.27438  -0.07911  -3.09738
  -1.27438  -0.07911  -3.09738
  -1.27438  -0.07911  -3.09738
  -1.03438  -0.07911  -3.09738
  -1.27438  -0.07911  -3.09738
  -1.03438  -0.07911  -3.09738
  -1.03438  -0.07911  -3.09738
  -1.03438  -0.07911  -2.85738
  -1.03438  -0.07911  -2.85738
  -1.03438  -0.07911  -2.85738
  -1.03438  -0.07911  -2.85738
  -1.03438  -0.07911  -2.85738
  -1.27438  -0.07911  -2.85738
  -1.03438   0.16089  -2.85738
  -1.03438  -0.07911  -2.85738
  -1.03438  -0.07911  -2.85738
  -1.03438   0.16089  -2.85738
  -1.03438   0.16089  -2.85738
  -1.03438   0.16089  -2.85738
  -1.03438   0.16089  -2.61738
  -1.03438   0.16089  -2.85738
  -1.03438   0.16089  -2.61738
  -1.03438   0.16089  -2.85738
  -1.03438   0.16089  -2.61738
  -1.03438   0.16089  -2.61738
  -1.03438   0.16089  -2.61738
  -1.27438   0.16089  -2.61738
  -1.03438   0.16089  -2.61738
  -1.03438   0.16089  -2.61738
  -1.03438   0.16089  -2.61738
  -1.27438   0.16089  -2.61738
  -1.27438   0.16089  -2.61738
  -1.27438   0.40089  -2.61738
  -1.27438   0.16089  -2.61738
  -1.27438   0.16089  -2.61738
  -1.27438   0.16089  -2.61738
  -1.27438   0.16089  -2.61738
  -1.27438   0.16089  -2.37738
  -1.27438   0.16089  -2.37738
  -1.27438   0.16089  -2.37738
  -1.27438   0.16089  -2.37738
  -1.27438   0.16089  -2.37738
  -1.27438   0.16089  -2.37738
  -1.27438   0.16089  -2.37738
  -1.27438   0.16089  -2.37738
  -1.27438   0.16089  -2.13738
  -1.27438   0.16089  -2.37738
  -1.51438   0.16089  -2.37738
  -1.51438   0.16089  -2.37738
  -1.51438   0.16089  -2.13738
  -1.51438   0.16089  -2.13738
  -1.51438   0.16089  -2.13738
  -1.51438   0.16089  -2.37738
  -1.51438   0.16089  -2.13738
  -1.51438   0.16089  -2.13738
  -1.51438   0.16089  -2.13738
  -1.75438   0.16089  -2.13738
  -1.75438   0.16089  -2.13738
  -1.75438   0.16089  -2.13738
  -1.75438   0.16089  -2.13738
  -1.75438   0.16089  -2.13738
  -1.75438   0.16089  -2.13738
  -1.75438   0.16089  -2.13738
  -1.75438   0.16089  -2.13738
  -1.75438   0.16089  -2.13738
  -1.75438   0.16089  -1.89738
  -1.75438   0.16089  -2.13738
  -1.75438   0.16089  -1.89738
  -1.75438   0.16089  -2.13738
  -1.75438   0.16089  -1.89738
  -1.99438   0.16089  -1.89738
  -1.99438   0.16089  -1.89738
  -1.99438   0.16089  -1.89738
  -1.99438   0.16089  -1.89738
  -1.99438   0.16089  -1.89738
  -1.99438   0.16089  -1.89738
  -1.99438   0.16089  -1.89738
  -1.99438   0.16089  -1.89738
  -1.99438   0.16089  -1.89738
  -1.99438   0.16089  -1.89738
  -1.99438   0.16089  -1.89738
  -1.99438   0.16089  -1.89738
  -1.99438   0.16089  -1.89738
  -1.99438   0.16089  -1.65738
  -1.99438   0.16089  -1.65738
  -1.99438   0.16089  -1.65738
  -1.99438   0.16089  -1.65738
  -1.99438   0.16089  -1.89738
  -1.99438   0.16089  -1.65738
  -1.99438   0.16089  -1.65738
  -1.99438   0.16089  -1.65738
  -1.99438   0.16089  -1.65738
  -1.99438   0.16089  -1.65738
  -1.99438   0.16089  -1.65738
  -1.99438   0.16089  -1.65738
  -1.99438   0.16089  -1.41738
  -1.99438   0.16089  -1.41738
  -1.99438   0.16089  -1.41738
  -1.99438   0.16089  -1.65738
  -1.99438   0.16089  -1.65738
  -1.99438   0.16089  -1.65738
  -1.99438   0.16089  -1.41738
  -1.99438   0.16089  -1.65738
  -1.99438   0.16089  -1.41738
  -1.99438   0.16089  -1.65738
  -1.99438   0.16089  -1.41738
  -1.75438   0.16089  -1.41738
  -1.99438   0.16089  -1.41738
  -1.75438   0.16089  -1.41738
  -1.75438   0.16089  -1.41738
  -1.75438  -0.07911  -1.41738
  -1.75438  -0.07911  -1.41738
  -1.75438  -0.07911  -1.41738
  -1.75438  -0.07911  -1.41738
  -1.75438  -0.07911  -1.41738
  -1.75438  -0.07911  -1.41738
  -1.75438  -0.07911  -1.17738
  -1.51438  -0.07911  -1.41738
  -1.51438  -0.07911  -1.17738
  -1.51438  -0.07911  -1.17738
  -1.51438  -0.07911  -1.17738
  -1.51438  -0.07911  -1.17738
  -1.51438  -0.07911  -1.17738
  -1.51438  -0.07911  -1.17738
  -1.51438  -0.07911  -1.17738
  -1.27438  -0.07911  -1.17738
  -1.27438  -0.07911  -0.93738
  -1.27438  -0.07911  -0.93738
  -1.27438  -0.07911  -0.93738
  -1.27438  -0.07911  -0.93738
  -1.27438  -0.07911  -0.93738
  -1.27438  -0.07911  -0.93738
  -1.03438  -0.31911  -0.93738
  -1.03438  -0.31911  -0.93738
  -1.03438  -0.31911  -0.93738
  -1.03438  -0.31911  -0.93738
  -1.03438  -0.31911  -0.93738
  -0.79438  -0.31911  -0.69738
  -0.79438  -0.31911  -0.69738
  -0.79438  -0.31911  -0.69738
  -0.79438  -0.31911  -0.69738
  -0.55438  -0.31911  -0.69738
  -0.55438  -0.31911  -0.69738
  -0.55438  -0.31911  -0.45738
  -0.55438  -0.31911  -0.69738
  -0.55438  -0.31911  -0.45738
  -0.55438  -0.31911  -0.45738
  -0.31438  -0.31911  -0.45738
  -0.31438  -0.31911  -0.45738
  -0.31438  -0.31911  -0.45738
  -0.31438  -0.31911  -0.21738
  -0.31438  -0.31911  -0.45738
  -0.31438  -0.31911  -0.21738
  -0.07438  -0.31911  -0.21738
  -0.07438  -0.31911  -0.21738
  -0.07438  -0.31911  -0.21738
  -0.07438  -0.31911  -0.21738
  -0.07438  -0.31911   0.01262
   0.16562  -0.31911   0.01262
   0.16562  -0.31911   0.01262
   0.16562  -0.31911   0.01262
   0.16562  -0.31911   0.01262
   0.40562  -0.31911   0.01262
   0.40562  -0.31911   0.01262
   0.40562  -0.31911   0.25262
   0.40562  -0.31911   0.25262
   0.40562  -0.31911   0.25262
   0.64562  -0.31911   0.25262
   0.64562  -0.31911   0.25262
   0.64562  -0.31911   0.25262
   0.64562  -0.31911   0.49262
   0.88562  -0.31911   0.49262
   0.88562  -0.31911   0.49262
   0.88562  -0.31911   0.73262
   0.88562  -0.31911   0.49262
   1.12562  -0.31911   0.73262
   1.12562  -0.31911   0.73262
   1.12562  -0.31911   0.73262
   1.12562  -0.31911   0.73262
   1.36562  -0.31911   0.73262
   1.36562  -0.31911   0.73262
   1.36562  -0.31911   0.73262
   1.36562  -0.31911   0.97262
   1.36562  -0.31911   0.97262
   1.60562  -0.31911   0.97262
   1.60562  -0.31911   0.97262
   1.60562  -0.31911   0.97262
   1.60562  -0.31911   1.21262
   1.84562  -0.31911   0.97262
   1.84562  -0.31911   0.97262
   1.84562  -0.31911   1.45262
   1.84562  -0.31911   1.45262
   2.08562  -0.31911   1.21262
   2.08562  -0.31911   1.21262
   2.08562  -0.07911   1.45262
   2.08562  -0.31911   1.45262
   2.31562  -0.07911   1.45262
   2.31562  -0.31911   1.69262
   2.08562  -0.07911   1.45262
   2.31562  -0.07911   1.69262
   2.31562  -0.07911   1.69262
   2.31562  -0.07911   1.69262
   2.55562  -0.07911   1.69262
   2.55562  -0.07911   1.69262
   2.55562  -0.07911   1.69262
   2.55562  -0.07911   1.93262
   2.55562  -0.07911   1.93262
   2.55562  -0.07911   2.17262
   2.55562  -0.07911   2.17262
   2.79562  -0.07911   2.17262
   2.79562   0.16089   2.17262
   2.79562  -0.07911   2.17262
   2.79562   0.16089   2.17262
   2.79562   0.16089   2.17262
   2.79562   0.16089   2.41262
   3.03562   0.16089   2.17262
   3.03562   0.16089   2.41262
   3.03562   0.16089   2.41262
   3.03562   0.16089   2.41262
   3.03562   0.16089   2.41262
   3.03562   0.16089   2.41262
   3.03562   0.16089   2.65262
   3.03562   0.16089   2.65262
   3.27562   0.16089   2.65262
   3.27562   0.16089   2.65262
   3.27562   0.16089   2.89262
   3.27562   0.40089   2.65262
   3.27562   0.40089   2.89262
   3.27562   0.40089   2.89262
   3.27562   0.40089   2.65262
   3.27562   0.40089   2.89262
   3.27562   0.40089   2.89262
   3.27562   0.40089   3.13262
   3.27562   0.40089   3.13262
   3.51562   0.40089   2.89262
   3.27562   0.40089   3.13262
   3.51562   0.40089   3.13262
   3.51562   0.40089   3.13262
   3.51562   0.40089   3.13262
   3.51562   0.64089   3.37262
   3.51562   0.64089   3.37262
   3.51562   0.64089   3.37262
   3.51562   0.64089   3.37262
   3.51562   0.64089   3.37262
   3.51562   0.64089   3.37262
   3.51562   0.40089   3.37262
   3.51562   0.64089   3.37262
   3.51562   0.64089   3.37262
   3.51562   0.64089   3.37262
   3.51562   0.64089   3.37262
   3.51562   0.64089   3.37262
   3.51562   0.64089   3.37262
   3.51562   0.64089   3.61262
   3.27562   0.64089   3.37262
   3.51562   0.64089   3.37262
   3.51562   0.64089   3.37262
   3.51562   0.64089   3.61262
   3.51562   0.64089   3.37262
   3.51562   0.64089   3.61262
   3.51562   0.64089   3.37262
   3.51562   0.64089   3.37262
   3.51562   0.64089   3.61262
   3.51562   0.64089   3.37262
   3.27562   0.64089   3.61262
   3.27562   0.64089   3.37262
   3.27562   0.64089   3.61262
   3.27562   0.64089   3.61262
   3.27562   0.64089   3.61262
   3.27562   0.64089   3.37262
   3.27562   0.64089   3.37262
   3.27562   0.64089   3.61262
   3.27562   0.40089   3.37262
   3.27562   0.64089   3.37262
   3.03562   0.40089   3.61262
   3.03562   0.64089   3.13262
   3.03562   0.40089   3.61262
   3.03562   0.64089   3.37262
   3.03562   0.40089   3.37262
   3.03562   0.40089   3.61262
   3.03562   0.40089   3.37262
   3.03562   0.40089   3.37262
   3.03562   0.40089   3.37262
   2.79562   0.40089   3.37262
   2.79562   0.40089   3.37262
   2.79562   0.64089   3.37262
   2.79562   0.40089   3.37262
   2.79562   0.40089   3.37262
   2.55562   0.40089   3.37262
   2.55562   0.64089   3.37262
   2.55562   0.40089   3.37262
   2.55562   0.64089   3.37262
   2.55562   0.64089   3.37262
   2.55562   0.40089   3.37262
   2.55562   0.40089   3.13262
   2.31562   0.64089   3.13262
   2.31562   0.40089   3.13262
   2.31562   0.40089   3.13262
   2.31562   0.40089   2.89262
   2.31562   0.40089   3.13262
   2.08562   0.40089   2.89262
   2.08562   0.40089   3.13262
   2.08562   0.40089   2.89262
   2.08562   0.40089   2.89262
   2.08562   0.40089   2.89262
   2.08562   0.40089   2.89262
   1.84562   0.16089   2.89262
   1.84562   0.16089   2.65262
   1.84562   0.16089   2.65262
   1.84562   0.16089   2.65262
   1.84562   0.16089   2.65262
   1.60562   0.16089   2.41262
   1.84562   0.16089   2.65262
   1.60562   0.16089   2.41262
   1.60562   0.16089   2.65262
   1.60562   0.16089   2.41262
   1.60562   0.16089   2.41262
   1.60562   0.16089   2.41262
   1.36562   0.16089   2.41262
   1.36562   0.16089   2.17262
   1.36562   0.16089   2.17262
   1.36562   0.16089   2.17262
   1.36562   0.16089   2.17262
   1.36562   0.16089   2.17262
   1.12562  -0.07911   1.93262
   1.12562   0.16089   1.93262
   1.12562   0.16089   1.93262
   1.12562  -0.07911   1.93262
   0.88562  -0.07911   1.93262
   0.88562  -0.07911   1.69262
   0.88562  -0.07911   1.69262
   0.88562  -0.07911   1.69262
   0.88562  -0.07911   1.69262
   0.88562  -0.07911   1.69262
   0.88562  -0.07911   1.69262
   0.88562  -0.07911   1.45262
   0.64562  -0.07911   1.45262
   0.64562  -0.07911   1.45262
   0.64562  -0.07911   1.45262
   0.64562  -0.07911   1.21262
   0.64562  -0.07911   1.21262
   0.64562  -0.07911   0.97262
   0.40562  -0.07911   1.21262
   0.64562  -0.07911   0.97262
   0.40562  -0.07911   1.21262
   0.40562  -0.07911   0.97262
   0.40562  -0.07911   0.97262
   0.40562  -0.07911   0.97262
   0.40562  -0.07911   0.97262
   0.40562  -0.07911   0.97262
   0.40562  -0.07911   0.73262
   0.40562  -0.07911   0.73262
   0.40562  -0.07911   0.73262
   0.16562  -0.07911   0.73262
   0.16562  -0.07911   0.73262
   0.16562  -0.07911   0.73262
   0.16562  -0.07911   0.49262
   0.16562  -0.07911   0.49262
   0.16562  -0.07911   0.49262
   0.16562  -0.07911   0.49262
   0.16562  -0.07911   0.49262
   0.16562  -0.07911   0.49262
   0.16562  -0.07911   0.25262
   0.16562  -0.07911   0.25262
   0.16562  -0.07911   0.25262
   0.16562  -0.07911   0.25262
  -0.07438  -0.31911   0.25262
  -0.07438  -0.31911   0.01262
  -0.07438  -0.31911   0.01262
   0.16562  -0.31911   0.01262
  -0.07438  -0.31911   0.25262
  -0.07438  -0.31911   0.01262
  -0.07438  -0.31911   0.01262
  -0.07438  -0.31911   0.01262
  -0.07438  -0.31911  -0.21738
  -0.07438  -0.31911   0.01262
  -0.07438  -0.31911  -0.21738
  -0.07438  -0.31911   0.01262
  -0.07438  -0.31911  -0.21738
  -0.07438  -0.31911  -0.21738
  -0.07438  -0.31911  -0.21738
  -0.07438  -0.31911  -0.21738
  -0.07438  -0.31911  -0.21738
  -0.07438  -0.31911  -0.21738
  -0.07438  -0.31911  -0.21738
  -0.07438  -0.31911  -0.21738
  -0.07438  -0.31911  -0.45738
  -0.07438  -0.31911  -0.21738
  -0.07438  -0.31911  -0.21738
  -0.07438  -0.31911  -0.45738
  -0.07438  -0.31911  -0.21738
  -0.07438  -0.55911  -0.45738
  -0.07438  -0.55911  -0.45738
  -0.07438  -0.55911  -0.45738
  -0.31438  -0.55911  -0.45738
  -0.07438  -0.55911  -0.45738
  -0.31438  -0.55911  -0.45738
  -0.31438  -0.31911  -0.45738
  -0.31438  -0.55911  -0.45738
  -0.31438  -0.55911  -0.45738
  -0.31438  -0.55911  -0.45738
  -0.31438  -0.55911  -0.45738
