********************************************************************************
               CENTRO DE INSTRUMENTACION Y REGISTRO SISMICO  A.C.  
                       Coordinacion de Servicios Tecnicos
     Anaxagoras 814, Col. Narvarte, Benito Juarez, C.P. 03020 Mexico, D.F.
            Tels. 667 45 42/ 687 45  82             Fax. 669 25 12
********************************************************************************
ARCHIVO ESTANDAR DE ACELERACION:
VERSION DEL FORMATO                    : 2.0
NOMBRE DEL ARCHIVO                     : BA4919971216114829
FECHA Y HORA DE CREACION               : 26/MAR/18, 11:40
REF. CATALOGO ACELEROGRAMAS, SMIS 1996 : REGISTRO No.     /PAG.


================================================================================
DATOS DE LA ESTACION:
NOMBRE DE LA ESTACION                  : BUENOS AIRES
CLAVE DE LA ESTACION                   : BA49
LOCALIZACION DE LA ESTACION            : ESCUELA SECUNDARIA 102, DOCTOR MARQUEZ
                                       : Y EJE CENTRAL, BUENOS AIRES.
                                       :
                                       :
                                       :
COORDENADAS DE LA ESTACION             : 19.410 LAT. N 
                                       : 99.145 LONG. W 
ALTITUD (msnm)                         : 2233
TIPO DE SUELO                          : TERRENO BLANDO, MATERIAL COMPRESIBLE
                                       : (ARCILLAS)
                                       : 
INSTITUCION RESPONSABLE                : CIRES 
                                       :

================================================================================
DATOS DEL ACELEROGRAFO:
MODELO DEL ACELEROGRAFO                : SSA-1
NUMERO DE SERIE DEL ACELEROGRAFO       : 176
NUMERO DE CANALES                      : 3
ORIENTACION C1-C6 (rumbo;orientacion)  : /S00E/+V/N90W
ORIENTACION C7-C12 (rumbo;orientacion) : 
VEL. DE MUESTREO, C1-C6 (muestras/s)   : /200/200/200
VEL. DE MUESTREO, C7-C12 (muestras/s)  : 
ESC. COMPLETA DE SENSORES, C1-C6, (g)  : /2/2/2
ESC. COMPLETA DE SENSORES, C7-C12, (g) : 
FREC. NAT. DE SENSORES, C1-C6, (Hz)    : /52.99/52.03/52.9
FREC. NAT. DE SENSORES, C7-C12, (Hz)   : 
AMORTIGUAMIENTO DE SENSORES, C1-C6     : /.5589/.5469/.609
AMORTIGUAMIENTO DE SENSORES, C7-C12    : 
INTERVALO DE MUESTREO, C1-C6, (s)      : /0.005/0.005/0.005
INTERVALO DE MUESTREO, C7-C12, (s)     : 
UMBRAL DE DISPARO, C1-C6, (Gal)        : /2/2/2
UMBRAL DE DISPARO, C7-C12, (Gal)       :
MEMORIA DE PREEVENTO (s)               : 15
TIEMPO DE POSEVENTO (s)                : 60


================================================================================
DATOS DEL SISMO:
FECHA DEL SISMO (GMT)                  : 16/DIC/97
HORA EPICENTRO (GMT)                   : 11:48:29,0
MAGNITUD(ES)                           : /Mc=6.0
COORDENADAS DEL EPICENTRO              : 15.70 LAT. N
                                       : 99.04 LONG. W
PROFUNDIDAD FOCAL (km)                 : 16
FUENTE DE LOS DATOS EPICENTRALES       : SSN
                                       : INSTITUTO DE GEOFISICA, UNAM

================================================================================
DATOS DE ESTE REGISTRO:
HORA DE LA PRIMERA MUESTRA (GMT)       : 11:50:21.00
EXACTITUD DEL TIEMPO (s)               :     
DURACION DEL REGISTRO (s), C1-C6       : /102.4/102.4/102.4
DURACION DEL REGISTRO (s), C7-C12      :
NUM. TOTAL DE MUESTRAS, C1-C6          : /20480/20480/20480
NUM. TOTAL DE MUESTRAS, C7-C12         :
ACEL. MAX. (Gal), C1-C6                : /3.01031/1.3595/2.66279
ACEL. MAX., C1-C6, EN LA MUESTRA       : /3434/3233/7935
ACEL. MAX. (Gal), C7-C12               :
ACEL. MAX., C7-C12, EN LA MUESTRA      :
UNIDADES DE LOS DATOS                  : Gal (cm/s/s)
FACTOR DE DECIMACION                   : 1
FORMATO DATOS (FORTRAN,10 campos/dato) : 3F10.5


================================================================================
CALIDAD DEL ACELEROGRAMA:
REGISTRO DIGITAL COMPLETO, CARECE DE TIEMPO ABSOLUTO.


================================================================================
COMENTARIOS:














================================================================================
DATOS DE ACELERACION:
---------+---------+---------+---------+---------+---------+---------+---------+
   CANAL-1   CANAL-2   CANAL-3   CANAL-4   CANAL-5   CANAL-6   CANAL-7   CANAL-8
      S00E        +V      N90W
---------+---------+---------+---------+---------+---------+---------+---------+
[...]
  -1.09031  -0.16950   2.42279
  -1.09031  -0.16950   2.42279
  -1.09031  -0.16950   2.42279
  -0.85031  -0.16950   2.42279
  -0.85031  -0.16950   2.42279
  -0.85031  -0.16950   2.42279
  -0.85031  -0.16950   2.42279
  -0.85031  -0.16950   2.42279
  -0.85031  -0.16950   2.42279
  -0.85031  -0.16950   2.42279
  -0.85031  -0.16950   2.42279
  -0.61031  -0.16950   2.42279
  -0.61031  -0.16950   2.42279
  -0.61031  -0.16950   2.42279
  -0.61031  -0.16950   2.42279
  -0.61031  -0.16950   2.42279
  -0.37031  -0.16950   2.42279
  -0.37031  -0.16950   2.42279
  -0.37031  -0.16950   2.42279
  -0.13031  -0.16950   2.42279
  -0.13031  -0.16950   2.42279
  -0.13031  -0.16950   2.42279
  -0.13031   0.07050   2.42279
  -0.13031   0.07050   2.18279
   0.10969   0.07050   2.18279
   0.10969   0.07050   2.18279
   0.10969   0.07050   2.18279
   0.10969   0.07050   2.18279
   0.34969   0.07050   2.18279
   0.34969   0.07050   2.18279
   0.34969   0.07050   1.94279
   0.34969   0.31050   1.94279
   0.34969   0.31050   1.94279
   0.34969   0.31050   1.94279
   0.58969   0.31050   1.94279
   0.58969   0.31050   1.94279
   0.58969   0.31050   1.71279
   0.58969   0.31050   1.71279
   0.82969   0.31050   1.71279
   0.82969   0.31050   1.71279
   0.82969   0.55050   1.71279
   0.82969   0.55050   1.47279
   0.82969   0.55050   1.47279
   0.82969   0.55050   1.47279
   1.06969   0.55050   1.47279
   1.06969   0.55050   1.23279
   1.06969   0.55050   1.23279
   1.06969   0.55050   1.23279
   1.06969   0.55050   1.23279
   1.06969   0.55050   1.23279
   1.30969   0.55050   0.99279
   1.06969   0.55050   0.99279
   1.30969   0.79050   0.99279
   1.30969   0.79050   0.99279
   1.30969   0.79050   0.99279
   1.30969   0.79050   0.75279
   1.30969   0.79050   0.75279
   1.30969   0.79050   0.51279
   1.30969   0.79050   0.75279
   1.30969   0.79050   0.75279
   1.30969   0.79050   0.75279
   1.30969   0.79050   0.51279
   1.30969   0.79050   0.51279
   1.30969   0.79050   0.51279
   1.30969   0.79050   0.51279
   1.30969   0.79050   0.51279
   1.30969   0.79050   0.51279
   1.30969   0.79050   0.51279
   1.30969   0.79050   0.27279
   1.30969   0.79050   0.27279
   1.06969   0.79050   0.27279
   1.06969   0.79050   0.27279
   1.06969   0.79050   0.27279
   1.06969   0.79050   0.03279
   1.06969   0.79050   0.03279
   0.82969   0.79050   0.03279
   0.82969   0.55050   0.03279
   0.82969   0.79050   0.03279
   0.82969   0.79050  -0.20721
   0.58969   0.79050  -0.20721
   0.58969   0.79050  -0.20721
   0.58969   0.55050  -0.20721
   0.58969   0.55050  -0.20721
   0.34969   0.55050  -0.20721
   0.34969   0.55050  -0.44721
   0.34969   0.55050  -0.20721
   0.34969   0.55050  -0.20721
   0.10969   0.55050  -0.44721
   0.10969   0.55050  -0.44721
   0.10969   0.55050  -0.44721
   0.10969   0.55050  -0.44721
  -0.13031   0.55050  -0.68721
  -0.13031   0.31050  -0.68721
  -0.37031   0.31050  -0.68721
  -0.37031   0.31050  -0.68721
  -0.37031   0.31050  -0.68721
  -0.61031   0.31050  -0.68721
  -0.61031   0.31050  -0.68721
  -0.61031   0.31050  -0.92721
  -0.61031   0.31050  -0.92721
  -0.85031   0.31050  -0.92721
  -0.85031   0.31050  -0.92721
  -1.09031   0.31050  -0.92721
  -1.09031   0.31050  -0.92721
  -1.09031   0.31050  -0.92721
  -1.09031   0.07050  -0.92721
  -1.33031   0.31050  -0.92721
  -1.33031   0.31050  -0.92721
  -1.33031   0.07050  -0.92721
  -1.57031   0.07050  -0.92721
  -1.57031   0.07050  -0.92721
  -1.57031   0.07050  -0.92721
  -1.57031   0.07050  -0.92721
  -1.57031   0.07050  -0.92721
  -1.81031  -0.16950  -0.92721
  -1.81031  -0.16950  -1.16721
  -1.81031  -0.16950  -1.16721
  -1.81031  -0.16950  -1.16721
  -2.05031  -0.16950  -1.16721
  -2.05031  -0.16950  -1.16721
  -2.05031  -0.16950  -1.16721
  -2.05031  -0.40950  -1.16721
  -2.05031  -0.40950  -1.16721
  -2.05031  -0.40950  -1.16721
  -2.05031  -0.40950  -1.16721
  -2.05031  -0.40950  -1.16721
  -2.05031  -0.40950  -1.16721
  -1.81031  -0.63950  -1.16721
  -2.05031  -0.63950  -1.40721
  -1.81031  -0.63950  -1.40721
  -1.81031  -0.63950  -1.40721
  -1.81031  -0.63950  -1.40721
  -1.81031  -0.63950  -1.40721
  -1.81031  -0.63950  -1.40721
  -1.81031  -0.63950  -1.40721
  -1.57031  -0.87950  -1.40721
  -1.57031  -0.87950  -1.40721
  -1.57031  -0.87950  -1.40721
  -1.57031  -0.87950  -1.64721
  -1.57031  -1.11950  -1.64721
  -1.57031  -1.11950  -1.64721
  -1.33031  -0.87950  -1.64721
  -1.33031  -1.11950  -1.64721
  -1.33031  -1.11950  -1.64721
  -1.09031  -1.11950  -1.88721
  -1.09031  -1.11950  -1.88721
  -1.09031  -1.11950  -1.88721
  -1.09031  -1.11950  -1.88721
  -0.85031  -1.35950  -1.88721
  -0.85031  -1.11950  -1.88721
  -0.85031  -1.11950  -1.88721
  -0.61031  -1.11950  -1.88721
  -0.61031  -1.11950  -1.88721
  -0.61031  -1.11950  -2.12721
  -0.61031  -1.11950  -1.88721
  -0.61031  -1.11950  -1.88721
  -0.37031  -1.11950  -2.12721
  -0.37031  -1.11950  -1.88721
  -0.37031  -1.11950  -1.88721
  -0.13031  -1.11950  -1.88721
  -0.13031  -1.11950  -2.12721
  -0.13031  -1.11950  -1.88721
  -0.13031  -1.11950  -2.12721
   0.10969  -1.11950  -2.12721
   0.10969  -1.11950  -2.12721
   0.10969  -1.11950  -2.12721
   0.10969  -1.11950  -2.12721
   0.10969  -1.11950  -1.88721
   0.10969  -0.87950  -1.88721
   0.34969  -0.87950  -1.88721
   0.34969  -0.87950  -1.88721
   0.34969  -0.87950  -1.88721
   0.34969  -0.63950  -1.88721
   0.34969  -0.63950  -1.88721
   0.34969  -0.63950  -1.88721
   0.58969  -0.63950  -1.64721
   0.58969  -0.63950  -1.64721
   0.58969  -0.63950  -1.64721
   0.58969  -0.40950  -1.64721
   0.58969  -0.40950  -1.64721
   0.58969  -0.40950  -1.64721
   0.82969  -0.40950  -1.64721
   0.82969  -0.40950  -1.40721
   0.82969  -0.16950  -1.40721
   0.82969  -0.16950  -1.40721
   0.82969  -0.16950  -1.40721
   0.82969  -0.16950  -1.16721
   0.82969  -0.16950  -1.16721
   0.82969  -0.16950  -1.16721
   0.82969   0.07050  -1.16721
   0.82969   0.07050  -0.92721
   1.06969   0.31050  -0.92721
   1.06969   0.07050  -0.92721
   1.06969   0.07050  -0.92721
   1.06969   0.31050  -0.92721
   1.06969   0.31050  -0.92721
   1.06969   0.31050  -0.68721
   1.06969   0.31050  -0.68721
   1.06969   0.31050  -0.44721
   1.30969   0.55050  -0.44721
   1.06969   0.31050  -0.44721
   1.30969   0.55050  -0.44721
   1.06969   0.55050  -0.20721
   1.30969   0.55050  -0.20721
   1.30969   0.55050  -0.20721
   1.30969   0.55050  -0.20721
   1.06969   0.55050  -0.20721
   1.30969   0.55050   0.03279
   1.06969   0.55050   0.03279
   1.30969   0.55050   0.27279
   1.30969   0.79050   0.27279
   1.30969   0.79050   0.27279
   1.30969   0.79050   0.27279
   1.06969   0.79050   0.27279
   1.06969   0.79050   0.51279
   1.06969   0.79050   0.51279
   1.06969   0.79050   0.51279
   1.06969   0.79050   0.51279
   1.06969   0.79050   0.75279
   1.06969   0.79050   0.75279
   1.06969   0.79050   0.75279
   1.06969   0.79050   0.75279
   1.06969   0.79050   0.99279
   1.06969   0.79050   0.99279
   1.06969   0.79050   0.99279
   1.06969   0.79050   1.23279
   1.06969   0.79050   0.99279
   0.82969   0.79050   1.23279
   1.06969   0.79050   1.23279
   1.06969   0.79050   1.23279
   1.06969   0.79050   1.23279
   1.06969   0.79050   1.23279
   0.82969   0.79050   1.23279
   0.82969   0.79050   1.47279
   0.82969   0.79050   1.47279
   0.82969   0.79050   1.47279
   0.82969   0.55050   1.47279
   0.82969   0.55050   1.47279
   0.82969   0.55050   1.47279
   0.82969   0.55050   1.47279
   0.82969   0.55050   1.47279
   0.82969   0.55050   1.47279
   0.82969   0.55050   1.47279
   0.82969   0.55050   1.47279
   0.82969   0.55050   1.47279
   1.06969   0.55050   1.71279
   0.82969   0.31050   1.47279
   1.06969   0.31050   1.47279
   1.06969   0.31050   1.47279
   1.06969   0.31050   1.47279
   1.06969   0.31050   1.47279
   1.06969   0.31050   1.71279
   1.06969   0.31050   1.47279
   1.06969   0.31050   1.47279
   1.06969   0.31050   1.47279
   1.06969   0.31050   1.47279
   1.30969   0.31050   1.47279
   1.30969   0.31050   1.47279
   1.30969   0.31050   1.47279
   1.30969   0.31050   1.47279
   1.30969   0.07050   1.47279
   1.30969   0.07050   1.47279
   1.30969   0.07050   1.47279
   1.53969   0.07050   1.47279
   1.53969   0.07050   1.47279
   1.53969   0.07050   1.47279
   1.53969   0.07050   1.47279
   1.53969   0.07050   1.47279
   1.53969  -0.16950   1.47279
   1.53969  -0.16950   1.23279
   1.53969  -0.16950   1.47279
   1.77969  -0.16950   1.23279
   1.77969  -0.16950   1.23279
   1.77969  -0.16950   1.23279
   1.77969  -0.16950   1.23279
   1.77969  -0.16950   0.99279
   1.77969  -0.16950   1.23279
   1.77969  -0.16950   0.99279
   1.77969  -0.16950   0.99279
   1.77969  -0.16950   0.99279
   1.53969  -0.16950   0.99279
   1.53969  -0.16950   0.99279
   1.53969  -0.16950   0.99279
   1.53969  -0.16950   0.99279
   1.53969  -0.16950   0.75279
   1.53969  -0.16950   0.75279
   1.53969  -0.16950   0.75279
   1.30969  -0.16950   0.75279
   1.30969  -0.16950   0.75279
   1.30969  -0.16950   0.51279
   1.30969  -0.16950   0.51279
   1.30969  -0.16950   0.51279
   1.06969  -0.16950   0.51279
   1.06969   0.07050   0.51279
   1.06969  -0.16950   0.51279
   0.82969   0.07050   0.51279
   0.82969   0.07050   0.51279
   0.82969   0.07050   0.27279
   0.58969   0.07050   0.27279
   0.58969   0.07050   0.27279
   0.58969   0.07050   0.27279
   0.34969   0.07050   0.27279
   0.34969   0.07050   0.27279
   0.34969   0.07050   0.27279
   0.10969   0.07050   0.03279
   0.10969   0.07050   0.03279
  -0.13031   0.07050   0.03279
  -0.13031   0.07050   0.03279
  -0.13031   0.07050   0.03279
  -0.37031   0.07050   0.03279
  -0.37031   0.07050  -0.20721
  -0.61031   0.31050  -0.20721
  -0.61031   0.07050  -0.20721
  -0.61031   0.07050  -0.20721
  -0.85031   0.07050  -0.20721
  -0.85031   0.07050  -0.20721
  -0.85031   0.07050  -0.20721
  -1.09031   0.07050  -0.20721
  -1.09031   0.07050  -0.44721
  -1.09031   0.07050  -0.20721
  -1.33031   0.07050  -0.20721
  -1.33031   0.07050  -0.44721
  -1.33031   0.07050  -0.44721
  -1.57031   0.07050  -0.44721
  -1.57031   0.07050  -0.44721
  -1.57031   0.07050  -0.44721
  -1.81031   0.07050  -0.44721
  -1.81031   0.31050  -0.44721
  -1.81031   0.07050  -0.44721
  -2.05031   0.07050  -0.44721
  -2.05031   0.07050  -0.44721
  -2.05031   0.07050  -0.44721
  -2.29031   0.07050  -0.68721
  -2.29031   0.07050  -0.44721
  -2.29031   0.07050  -0.68721
  -2.29031   0.07050  -0.68721
  -2.29031   0.07050  -0.68721
  -2.29031   0.07050  -0.68721
  -2.53031   0.07050  -0.68721
  -2.53031   0.07050  -0.68721
  -2.53031   0.07050  -0.68721
  -2.53031   0.07050  -0.68721
  -2.77031  -0.16950  -0.68721
  -2.77031  -0.16950  -0.92721
  -2.77031  -0.16950  -0.68721
  -2.77031  -0.16950  -0.92721
  -2.77031  -0.16950  -0.92721
  -2.77031  -0.16950  -0.92721
  -2.77031  -0.16950  -0.92721
  -3.01031  -0.16950  -0.92721
  -3.01031  -0.16950  -0.92721
  -3.01031  -0.16950  -0.92721
  -3.01031  -0.16950  -0.92721
  -3.01031  -0.16950  -0.92721
  -3.01031  -0.16950  -1.16721
  -3.01031  -0.16950  -1.16721
  -3.01031  -0.40950  -1.16721
  -3.01031  -0.16950  -1.16721
  -3.01031  -0.40950  -1.16721
  -3.01031  -0.40950  -1.16721
  -3.01031  -0.40950  -1.16721
  -2.77031  -0.40950  -1.40721
  -2.77031  -0.40950  -1.40721
  -2.77031  -0.40950  -1.40721
  -2.77031  -0.40950  -1.40721
  -2.77031  -0.40950  -1.40721
  -2.77031  -0.40950  -1.40721
  -2.53031  -0.40950  -1.40721
  -2.53031  -0.40950  -1.40721
  -2.53031  -0.40950  -1.40721
  -2.53031  -0.40950  -1.40721
  -2.29031  -0.40950  -1.40721
  -2.29031  -0.63950  -1.64721
  -2.05031  -0.40950  -1.64721
  -2.05031  -0.40950  -1.64721
  -2.05031  -0.40950  -1.64721
  -2.05031  -0.40950  -1.64721
  -1.81031  -0.40950  -1.64721
  -1.81031  -0.40950  -1.64721
  -1.57031  -0.40950  -1.88721
  -1.57031  -0.40950  -1.64721
  -1.33031  -0.40950  -1.88721
  -1.33031  -0.40950  -1.88721
  -1.33031  -0.63950  -1.88721
  -1.09031  -0.40950  -1.88721
  -1.09031  -0.40950  -1.88721
  -0.85031  -0.40950  -1.88721
  -0.85031  -0.40950  -1.88721
  -0.61031  -0.40950  -1.64721
  -0.61031  -0.40950  -1.88721
  -0.37031  -0.40950  -1.88721
  -0.37031  -0.40950  -1.88721
  -0.37031  -0.40950  -1.88721
  -0.13031  -0.40950  -1.88721
  -0.13031  -0.40950  -1.64721
   0.10969  -0.40950  -1.64721
   0.10969  -0.40950  -1.88721
   0.34969  -0.40950  -1.64721
   0.34969  -0.40950  -1.64721
   0.34969  -0.40950  -1.64721
   0.58969  -0.40950  -1.64721
   0.58969  -0.40950  -1.64721
   0.82969  -0.40950  -1.64721
   0.82969  -0.40950  -1.40721
   0.82969  -0.40950  -1.40721
   0.82969  -0.40950  -1.40721
   1.06969  -0.16950  -1.40721
   1.06969  -0.16950  -1.40721
   1.06969  -0.16950  -1.16721
   1.06969  -0.16950  -1.16721
   1.30969  -0.16950  -1.16721
   1.30969  -0.16950  -1.16721
   1.30969  -0.16950  -0.92721
   1.30969  -0.16950  -0.92721
   1.53969   0.07050  -0.92721
   1.53969   0.07050  -0.92721
   1.53969   0.07050  -0.68721
   1.53969   0.07050  -0.68721
   1.53969   0.31050  -0.68721
   1.53969   0.31050  -0.68721
   1.77969   0.31050  -0.44721
   1.77969   0.31050  -0.44721
   1.77969   0.31050  -0.44721
   1.77969   0.31050  -0.20721
   1.77969   0.55050  -0.20721
   1.77969   0.55050  -0.20721
   1.77969   0.55050   0.03279
   1.77969   0.55050   0.03279
   1.77969   0.55050   0.03279
   1.77969   0.55050   0.03279
   1.77969   0.55050   0.27279
   1.77969   0.55050   0.27279
   1.77969   0.55050   0.27279
   1.77969   0.79050   0.51279
   1.77969   0.79050   0.51279
   1.77969   0.55050   0.51279
   1.77969   0.55050   0.75279
   1.77969   0.79050   0.75279
   1.53969   0.79050   0.75279
   1.53969   0.79050   0.99279
   1.53969   0.79050   0.99279
   1.53969   0.79050   0.99279
   1.53969   0.79050   0.99279
   1.53969   0.79050   1.23279
   1.53969   0.79050   1.23279
   1.30969   0.79050   1.23279
   1.30969   0.79050   1.23279
   1.30969   0.79050   1.47279
   1.30969   0.79050   1.47279
   1.30969   0.79050   1.47279
   1.30969   0.79050   1.71279
   1.30969   0.79050   1.47279
   1.30969   0.79050   1.71279
   1.06969   0.79050   1.71279
   1.06969   0.79050   1.71279
   1.06969   0.79050   1.71279
   1.06969   0.55050   1.71279
   1.06969   0.55050   1.71279
   1.06969   0.55050   1.71279
   1.06969   0.55050   1.71279
   1.06969   0.55050   1.71279
   0.82969   0.55050   1.94279
   0.82969   0.55050   1.71279
   0.82969   0.55050   1.71279
   0.82969   0.55050   1.71279
   0.82969   0.55050   1.94279
   0.82969   0.55050   1.94279
   0.82969   0.31050   1.71279
   0.82969   0.31050   1.71279
   0.82969   0.31050   1.71279
   0.82969   0.31050   1.71279
   0.82969   0.31050   1.71279
   0.82969   0.31050   1.71279
   0.82969   0.31050   1.71279
   0.82969   0.31050   1.71279
   0.82969   0.31050   1.47279
   0.82969   0.31050   1.47279
   0.82969   0.31050   1.47279
   0.82969   0.31050   1.47279
   0.82969   0.31050   1.47279
   0.82969   0.31050   1.47279
   0.82969   0.07050   1.23279
   0.82969   0.07050   1.23279
   0.82969   0.07050   1.23279
   0.82969   0.07050   1.23279
   0.82969   0.07050   0.99279
   0.82969   0.07050   0.99279
   0.82969   0.07050   0.99279
   0.82969   0.07050   0.99279
   0.82969   0.07050   0.75279
   0.82969   0.07050   0.75279
   0.82969   0.07050   0.75279
   0.82969  -0.16950   0.75279
   0.82969  -0.16950   0.51279
   0.82969  -0.16950   0.51279
   0.82969  -0.16950   0.51279
   0.82969  -0.16950   0.51279
   0.82969  -0.16950   0.27279
   0.82969  -0.16950   0.27279
