********************************************************************************
              CENTRO DE INSTRUMENTACION Y REGISTRO SISMICO  A.C.

    Anaxagoras 814, Col. Narvarte, Benito Juarez, C.P. 03020 Mexico, D.F.
           Tels. 5687 45 42/ 5687 45  82             Fax. 5669 25 12
********************************************************************************
ARCHIVO ESTANDAR DE ACELERACION:
VERSION DEL FORMATO                    : 2.0
NOMBRE DEL ARCHIVO                     : BA4920170919181440
FECHA Y HORA DE CREACION               : 25/SEP/17, 11:11
REF. CATALOGO ACELEROGRAMAS, SMIS 1996 : REGISTRO No.     /PAG.


================================================================================
DATOS DE LA ESTACION:
NOMBRE DE LA ESTACION                  : BUENOS AIRES
CLAVE DE LA ESTACION                   : BA49
LOCALIZACION DE LA ESTACION            : Del. Cuauhtémoc, Col. Doctores,        
                                       : Av. Lázaro Cárdenas esq. con           
                                       : Calle Dr. Márquez.                     
                                       :                                        
                                       : 
COORDENADAS DE LA ESTACION             : 19.4097 LAT. N
                                       : 99.1450 LONG. W
ALTITUD (msnm)                         : 2233
TIPO DE SUELO                          : Terreno blando, material compresible
                                       : (arcillas)                
                                       : 
INSTITUCION RESPONSABLE                : CIRES
                                       : 

================================================================================
DATOS DEL ACELEROGRAFO:
MODELO DEL ACELEROGRAFO                : RADESD
NUMERO DE SERIE DEL ACELEROGRAFO       : 176
NUMERO DE CANALES                      : 3
ORIENTACION C1-C6 (rumbo;orientacion)  : /S00E/+V/N90W
ORIENTACION C7-C12 (rumbo;orientacion) : 
VEL. DE MUESTREO, C1-C6 (muestras/s)   : /100/100/100
VEL. DE MUESTREO, C7-C12 (muestras/s)  : 
ESC. COMPLETA DE SENSORES, C1-C6, (g)  : /0.5/0.5/0.5
ESC. COMPLETA DE SENSORES, C7-C12, (g) : 
FREC. NAT. DE SENSORES, C1-C6, (Hz)    : /52.99/52.03/52.99
FREC. NAT. DE SENSORES, C7-C12, (Hz)   : 
AMORTIGUAMIENTO DE SENSORES, C1-C6     : /0.5589/0.5469/0.6096
AMORTIGUAMIENTO DE SENSORES, C7-C12    : 
INTERVALO DE MUESTREO, C1-C6, (s)      : /0.01/0.01/0.01
INTERVALO DE MUESTREO, C7-C12, (s)     : 
UMBRAL DE DISPARO, C1-C6, (Gal)        : /0.96/1.92/0.96
UMBRAL DE DISPARO, C7-C12, (Gal)       : 
MEMORIA DE PREEVENTO (s)               : 44.0
TIEMPO DE POSEVENTO (s)                : 64.0


================================================================================
DATOS DEL SISMO:
FECHA DEL SISMO (GMT)                  : 19/SEP/17
HORA EPICENTRO (GMT)                   : 18:14:40.0
MAGNITUD(ES)                           : /Mc=7.1
COORDENADAS DEL EPICENTRO              : 18.40 LAT. N
                                       : 98.72 LONG. W
PROFUNDIDAD FOCAL (km)                 : 57
FUENTE DE LOS DATOS EPICENTRALES       : SSN
                                       : INSTITUTO DE GEOFISICA, UNAM

================================================================================
DATOS DE ESTE REGISTRO:
HORA DE LA PRIMERA MUESTRA (GMT)       : 18:15:00.00
EXACTITUD DEL TIEMPO (s)               : 0.01
DURACION DEL REGISTRO (s), C1-C6       : /489.4/489.4/489.4
DURACION DEL REGISTRO (s), C7-C12      : 
NUM. TOTAL DE MUESTRAS, C1-C6          : /48940/48940/48940
NUM. TOTAL DE MUESTRAS, C7-C12         : 
ACEL. MAX. (Gal), C1-C6                : /88.93823/30.64265/113.16128
ACEL. MAX., C1-C6, EN LA MUESTRA       : /9793/8389/7992
ACEL. MAX. (Gal), C7-C12               : 
ACEL. MAX., C7-C12, EN LA MUESTRA      : 
UNIDADES DE LOS DATOS                  : Gal (cm/s/s)
FACTOR DE DECIMACION                   : 1
FORMATO DATOS (FORTRAN,10 campos/dato) : 3F10.5


================================================================================
CALIDAD DEL ACELEROGRAMA:
REGISTRO DIGITAL COMPLETO CON TIEMPO ABSOLUTO CORRECTO.


================================================================================
COMENTARIOS:














================================================================================
DATOS DE ACELERACION:
---------+---------+---------+---------+---------+---------+---------+---------+
   CANAL-1   CANAL-2   CANAL-3   CANAL-4   CANAL-5   CANAL-6   CANAL-7   CANAL-8
      S00E        +V      N90W
---------+---------+---------+---------+---------+---------+---------+---------+
[...]
 -20.59874 -22.41258  67.91518
 -18.98265 -20.40744  65.68558
 -15.72055 -18.68660  63.48591
 -11.18653 -18.52200  62.27384
  -7.43063 -19.35997  61.19645
  -4.94665 -19.88370  59.34095
  -1.57980 -20.36254  56.85696
   3.13379 -21.94870  54.46276
   7.39846 -23.71443  52.15834
  10.82516 -23.17573  49.82399
  13.90769 -21.42497  47.11555
  16.99023 -19.94356  44.45200
  20.37204 -18.38733  42.23737
  23.67903 -16.60664  39.96288
  26.29769 -15.76867  37.32925
  28.27290 -16.27744  35.36900
  29.82913 -16.87599  33.84270
  30.87660 -17.51943  31.88245
  30.92149 -18.62675  29.99701
  30.15834 -18.61178  28.90466
  28.87145 -17.10044  27.91705
  27.18055 -15.30479  26.42067
  25.87870 -14.06280  24.81955
  24.84620 -12.86570  23.47281
  23.70896 -10.54632  22.11111
  22.54178  -7.32911  20.82423
  21.32972  -3.52831  19.52238
  20.29722   1.00571  17.72673
  19.77349   6.61712  15.46720
  19.27968  12.63255  13.10293
  18.68113  18.07936  10.73865
  18.36689  22.13453   8.88315
  18.63624  23.99004   7.37181
  18.72602  24.18457   5.65097
  18.39682  22.77798   3.76554
  18.09755  20.66809   2.83779
  18.15740  18.22899   3.16699
  18.02273  15.26617   3.61590
  17.91798  12.39313   3.36152
  17.84316  10.05878   1.71551
  17.45410   7.63465   0.24906
  17.40921   5.49483  -0.03525
  18.14244   4.80650   0.11438
  19.20486   3.96853   0.11438
  19.99794   2.11302  -0.18489
  20.20744   0.28744  -1.08272
  20.01291  -1.04433  -2.21996
  19.62385  -1.26879  -3.86598
  19.48918  -0.56549  -6.30507
  20.05780  -0.83484  -8.95366
  20.40196  -1.04433 -11.96137
  20.07276  -1.56806 -15.05887
  19.44428  -2.92976 -17.55782
  18.63624  -4.75534 -19.33851
  17.36432  -5.60828 -21.37358
  15.59860  -5.42871 -23.49843
  13.60842  -5.95244 -24.62071
  11.30400  -5.84770 -24.89006
   8.29628  -4.41118 -25.84774
   4.74987  -1.64288 -27.77807
   1.48777   1.37980 -29.58868
  -1.47505   4.07328 -30.87556
  -4.31817   7.30545 -31.78835
  -6.33828  10.55258 -32.89567
  -7.72990  13.21613 -34.48183
  -8.62773  15.11653 -36.36726
  -9.16643  17.09175 -37.59429
  -9.60038  20.06954 -38.49212
  -9.82483  22.59841 -39.27023
 -10.28871  23.78055 -39.59944
 -11.27632  24.33421 -39.65929
 -13.34132  23.30171 -40.21295
 -15.66070  20.98233 -41.08085
 -17.92023  18.03446 -41.60458
 -20.89801  16.34356 -42.18817
 -24.56414  16.13407 -42.92139
 -28.66421  16.29867 -42.98125
 -32.74931  17.07678 -41.97868
 -37.02895  18.93229 -41.42502
 -41.44326  19.99472 -41.15567
 -45.48347  19.26149 -40.51223
 -49.28427  17.76512 -39.19542
 -52.74090  17.03189 -38.41730
 -55.70372  16.28370 -38.05817
 -58.57676  15.05668 -37.54940
 -61.25528  14.09900 -37.02567
 -63.54473  13.99425 -36.44208
 -65.50498  13.35081 -35.40958
 -67.27071  12.54276 -34.04788
 -68.81197  13.09642 -33.29969
 -69.48534  13.51541 -33.03035
 -68.97658  12.36320 -31.84821
 -67.97400  10.07374 -29.75328
 -67.25574   8.12846 -28.00252
 -66.23821   6.61712 -27.53865
 -64.06846   4.85139 -27.55361
 -61.91368   3.22034 -26.86528
 -60.49212   1.97835 -26.08716
 -59.07057   0.70643 -26.01234
 -56.75118  -0.90966 -27.07477
 -53.77340  -2.49581 -27.80799
 -50.60108  -3.79766 -28.69086
 -47.21927  -5.08455 -30.45658
 -43.28380  -6.79041 -32.77596
 -39.07898  -8.55614 -34.49679
 -35.38293 -10.03755 -35.57419
 -31.98616 -11.42918 -36.90596
 -28.36493 -13.25476 -39.04578
 -24.38457 -15.76867 -40.81150
 -20.50896 -17.60921 -41.73925
 -16.70816 -18.86617 -42.89146
 -12.89240 -19.86874 -44.98639
  -8.13393 -21.08080 -46.30320
  -3.18092 -21.73921 -46.36306
   1.35310 -21.63446 -46.49773
   5.96194 -20.66182 -47.32074
  10.82516 -19.18041 -48.17367
  15.70334 -18.34244 -48.62258
  20.07276 -17.68403 -48.93682
  23.78377 -17.30994 -49.83465
  27.15062 -16.95081 -50.80729
  31.43026 -17.93842 -51.13650
  35.59018 -18.34244 -51.45074
  39.04681 -17.69900 -52.10914
  41.63554 -16.42708 -52.64784
  43.89507 -14.63142 -52.60294
  45.97503 -12.73103 -52.09418
  47.48637 -10.30690 -51.88468
  48.38420  -8.01744 -52.04929
  49.31195  -6.77545 -51.28613
  49.83568  -6.64078 -49.32588
  49.77583  -6.07215 -47.38059
  49.70101  -5.24915 -46.55759
  50.26963  -4.78527 -45.31559
  50.85322  -4.96484 -43.51994
  49.47655  -5.11447 -43.54987
  46.82797  -4.91994 -44.59733
  45.70568  -4.35132 -44.29806
  45.66079  -4.15679 -42.90643
  44.26916  -2.16661 -42.14328
  41.87496   1.76886 -42.12831
  39.91471   4.34262 -42.26299
  38.53804   5.91382 -41.97868
  36.54786   8.11349 -41.63451
  34.69236  11.00150 -41.91882
  33.57007  12.49787 -42.35277
  32.02881  12.94679 -41.11078
  30.21819  13.24606 -39.38994
  28.85649  12.64751 -38.82132
  27.49479  11.15113 -38.62679
  26.31265  10.17849 -37.19027
  25.31008   9.47519 -34.66140
  23.82867   8.57737 -32.38690
  22.46696   8.38284 -31.29455
  21.85345   8.23320 -30.33687
  21.97316   7.69451 -28.70582
  21.41950   7.88904 -27.23937
  20.83591   7.57480 -25.96745
  21.44943   7.42516 -25.21926
  21.77863   8.05364 -25.27912
  21.28483   8.05364 -24.56086
  21.07533   7.67954 -22.89988
  20.97059   8.29306 -22.06191
  20.34211   8.80182 -22.72032
  19.47421   8.84672 -23.33383
  19.50414   8.99635 -22.36119
  19.98298   8.84672 -20.50568
  19.59392   8.26313 -19.24872
  18.95048   7.06603 -18.00673
  19.07019   5.56965 -16.31583
  18.62128   4.28277 -14.38550
  16.79570   4.37255 -12.29057
  15.04494   5.44994  -9.89637
  13.47374   5.64447  -6.51456
  11.78284   4.83643  -2.89333
   9.83755   5.40505   0.56330
   7.74262   7.14085   3.33159
   5.90208   7.11092   6.36923
   4.49549   5.83900  10.75362
   2.78962   5.76418  14.97340
   0.84433   5.92878  18.17564
  -1.26556   4.71672  21.54249
  -3.24078   4.08824  25.68745
  -4.87183   4.10320  29.78752
  -6.75726   4.73168  32.79524
  -8.91204   4.61197  36.05734
 -10.90222   4.35759  40.42675
 -13.31139   4.11817  44.61661
 -16.31910   3.74407  47.81885
 -18.69834   3.28020  50.72182
 -20.61370   1.96339  53.80436
 -22.24475   0.67650  57.03653
 -23.38200  -0.32607  59.80482
 -23.98055  -0.52060  61.34609
 -24.36961   0.31737  62.37859
 -25.14772   0.34730  64.38373
 -26.10540  -0.25125  66.59837
 -26.65906  -1.37353  68.13964
 -26.91345  -1.89726  69.32177
 -27.33243  -2.54071  70.60866
 -27.69156  -4.81520  73.46674
 -27.97587  -5.15936  76.86351
 -28.24522  -4.75534  79.45224
 -28.21529  -5.32397  82.16068
 -28.00580  -6.17690  85.51256
 -27.60178  -5.50353  88.75970
 -27.67660  -4.35132  91.33347
 -27.15287  -3.03451  93.93716
 -25.73131  -2.25639  96.49596
 -24.65392  -2.49581  98.86024
 -23.05280  -2.97465 100.23690
 -20.98780  -3.27393 100.94020
 -18.96769  -4.26154 102.00263
 -16.72312  -6.16194 103.09498
 -14.85265  -8.13715 103.60375
 -12.93729  -8.37657 102.70592
 -10.69273  -7.89773 100.88035
  -8.28356  -7.61342  99.92266
  -5.88936  -6.85027  98.84527
  -3.33056  -6.20683  96.43611
  -0.20313  -5.87762  92.88970
   2.98415  -6.53603  89.52285
   5.52799  -7.88277  87.17354
   7.27875  -8.97512  83.79173
   8.87987  -9.94777  79.57195
   9.55324 -10.77077  76.22007
   9.25396 -10.32186  72.97293
   9.07440  -9.97769  69.09732
   8.35614 -10.05251  64.38373
   7.96708  -9.64849  59.95446
   7.65284  -9.09483  55.64490
   6.66523  -9.91784  50.79664
   5.46813 -10.92041  46.02320
   4.42067 -10.66603  41.54904
   2.86444  -9.90288  37.46393
   0.94908  -9.63353  33.45364
  -0.20313  -9.57367  29.44335
  -0.83161  -9.49885  25.83709
  -1.04110  -9.21454  22.78448
  -0.59219  -8.70578  20.40524
  -0.11335  -7.64335  18.28039
   0.00636  -6.98494  16.39495
   0.51513  -7.89773  15.21282
   1.39799  -9.72331  14.01572
   2.50531 -11.26458  12.35474
   3.88197 -12.73103  10.14010
   5.58784 -13.89820   7.59626
   7.18896 -14.18251   4.64840
   8.58059 -13.73360   2.40384
   9.20907 -13.31461   1.10199
   9.38864 -11.86313  -0.57395
   9.59813  -9.42404  -3.23750
   9.94230  -6.61085  -5.90105
   9.95726  -4.78527  -7.30764
   9.68791  -3.78270  -8.19050
   9.14922  -2.28632 -10.00112
   8.64045  -1.82245 -11.79677
   8.53570  -2.22647 -12.51503
   7.71270  -1.07426 -13.48768
   5.67762   0.93089 -14.71470
   3.34328   1.94842 -14.98405
   1.00893   2.74150 -14.23586
  -1.78929   4.34262 -14.28075
  -4.42291   5.04592 -14.32565
  -6.12878   5.64447 -13.48768
  -6.83208   7.09596 -11.93144
  -7.87954   7.96385 -10.10587
  -9.03175   9.50512  -8.10072
  -9.48066  11.42048  -6.52953
  -9.39088  11.71976  -4.50942
 -10.01936  10.53762  -1.50170
 -10.18396   9.78943   1.34141
  -9.03175   9.05621   2.50858
  -6.63755   6.91639   3.61590
  -4.57255   3.72911   6.92289
  -3.62983   2.18784  10.75362
  -3.13603   2.68165  12.08539
  -1.29549   2.65172  11.56166
   0.57498  -0.25125  12.26496
   0.66476  -2.09179  14.67412
  -0.09839  -1.53813  16.03582
  -0.30788  -1.83741  15.69166
   0.70966  -2.72027  15.19785
   1.39799  -4.15679  16.32014
   0.56002  -4.38125  18.28039
  -0.09839  -4.24657  19.37274
   0.06621  -6.67070  20.71948
  -0.23306  -7.02983  21.85673
  -1.14585  -5.54842  22.54506
  -2.07360  -5.29404  23.74216
  -2.59734  -5.09951  25.31336
  -3.37545  -5.06958  27.34843
  -4.85686  -4.45607  29.86234
  -6.08389  -2.34618  31.71784
  -6.59266  -0.90966  33.63321
  -7.13135   0.30241  36.20697
  -7.99925   2.26266  38.04752
  -8.76240   5.03096  38.33183
  -9.01679   6.85654  38.13730
  -9.19635   7.26056  38.40665
  -9.94454   7.11092  38.49643
 -11.06682   6.85654  37.31429
 -11.51574   5.95871  35.14455
 -10.81244   3.19041  33.85766
 -10.18396  -0.07169  32.51092
  -9.49563  -1.50821  29.21890
  -8.29853  -2.13668  24.96919
  -6.84704  -3.09436  21.00379
  -4.72219  -3.79766  17.26285
  -3.01632  -1.61295  12.99818
  -2.74697   2.44223   8.01525
  -1.51994   4.34262   3.57101
   0.90418   5.40505  -0.34949
   1.81697   7.91896  -6.14047
   0.99397   9.57994 -12.93402
   0.23082   9.40037 -18.45564
   0.27571   9.46023 -22.95974
   0.50016  10.82193 -28.01749
   0.29067  12.07889 -34.13766
  -0.50241  11.04639 -39.19542
  -2.29806   9.47519 -42.77175
  -4.69226   9.72958 -46.58751
  -6.24849  10.74711 -51.10657
  -7.55034  11.10624 -54.93729
  -9.10657  11.52523 -57.36142
 -10.48324  11.85443 -59.06729
 -11.72523  12.63255 -62.19472
 -12.14421  12.91686 -66.24989
 -11.45588  12.85700 -69.72149
 -10.45331  13.59023 -72.72920
  -9.30110  13.93439 -75.18326
  -7.31092  14.84718 -77.54753
  -4.33313  17.22642 -80.40561
  -1.16081  17.92972 -82.97938
   1.77208  17.40599 -85.25387
   4.91447  16.92715 -88.71050
   8.73023  15.50559 -92.63100
  12.90512  13.27599 -95.56390
  16.60117  11.94421 -97.68875
  19.32457  11.77961-100.18770
  21.44943  11.54019-102.97096
  22.93084  10.52266-105.20056
  23.75385   9.13103-106.74183
  24.63671   8.33795-108.25317
  25.48964   7.45509-110.12364
  25.90863   6.34777-112.30835
  26.22287   6.82661-113.16128
  26.16301   6.88646-112.87697
  25.36993   5.47987-112.68244
  23.90348   4.13313-111.90433
  22.28740   2.62179-110.09371
  20.01291   1.45462-108.26813
  17.05008   0.22759-106.09839
  14.53617  -1.02937-103.46477
  12.54599  -1.59799-100.48698
  10.51092  -2.00201 -96.80589
   8.34117  -2.89984 -92.52626
   6.09661  -3.25897 -88.39626
   3.41810  -3.72284 -84.84985
   0.97900  -3.63306 -81.21365
  -0.62212  -3.12429 -76.96395
  -2.07360  -2.76516 -71.99598
  -3.36049  -2.19654 -66.95319
  -3.85429  -1.68777 -61.95530
  -3.61487  -1.14908 -57.27164
  -3.31560  -1.82245 -52.37849
  -2.95647  -3.51335 -46.99153
  -2.05864  -4.77031 -42.41262
  -0.75679  -5.65317 -38.62679
   0.64980  -7.28422 -34.46687
   2.19107  -8.43643 -30.09745
   3.46299  -9.39411 -26.38644
   4.15132 -10.75581 -22.72032
   5.21375 -11.86313 -18.82974
   6.76998 -13.01534 -14.84938
   7.63788 -13.97302 -11.13836
   7.69773 -13.86827  -8.04087
   7.53313 -13.20987  -5.64666
   6.66523 -13.50914  -2.86341
   5.79733 -14.43690   0.75782
   4.69002 -14.09273   3.72065
   2.26589 -13.47921   6.42909
  -0.14328 -14.28726   9.64630
  -1.78929 -13.58396  12.80365
  -3.48020 -13.00037  15.10807
  -5.84447 -12.37190  16.33510
  -7.96933 -11.95291  17.38256
  -9.45074 -12.23722  18.80412
 -10.61791 -12.68614  20.50999
 -12.02450 -12.71606  22.00636
 -13.16175 -11.57882  23.38303
 -13.96979 -10.47150  24.95423
 -14.52345  -9.28936  27.12397
 -15.18186  -7.28422  28.85977
 -15.30157  -6.07215  29.66781
 -14.41871  -7.16451  31.05944
 -13.77526  -8.21197  33.22918
 -14.49352  -7.37400  35.00987
 -14.62820  -6.04223  35.80295
 -12.92233  -7.71817  37.22451
 -11.15661  -9.43900  40.35193
 -10.64784  -7.16451  42.01291
 -10.43835  -4.68052  41.42933
  -9.15146  -4.81520  40.92056
  -7.02661  -5.47360  41.99795
  -5.63498  -5.24915  43.43447
  -5.09628  -4.08197  43.52425
  -3.98896  -2.98962  42.68628
  -2.43273  -2.46589  42.32715
  -1.35534  -1.50821  42.40197
  -1.28052   0.28744  42.37204
  -1.44513   3.34005  41.26472
  -1.43016   7.06603  38.78074
  -1.56484   8.92153  36.91027
  -2.14842   9.20585  35.78799
  -3.00136  10.35806  33.81277
  -3.42034  10.65733  31.04448
  -2.94150   9.59490  28.79991
  -1.92397   9.37045  26.74988
  -1.65462  10.32813  24.01151
  -1.57980  11.83947  20.94394
  -0.48744  13.06650  17.80155
   1.09871  13.76979  14.80880
   2.43049  15.23624  11.48684
   3.97176  16.59794   8.59884
   5.87215  16.43334   7.26706
   8.05686  16.50816   5.53126
   9.91237  15.37092   2.97246
  12.47117  13.90447   0.98228
  15.74824  13.45555  -0.57395
  18.47164  13.53037  -2.08529
  20.38700  12.84204  -3.43203
  21.79359  11.67487  -4.47949
  22.97573  10.98653  -5.28753
  23.58925   9.25074  -5.88609
  23.60421   6.52733  -5.85616
  23.23012   4.97110  -5.43717
  22.99070   3.86378  -4.86855
  22.93084   1.72397  -3.85101
  22.58667  -0.11658  -2.30975
  22.22754  -0.92462  -1.30717
  22.21258  -1.70274  -1.09768
  22.69142  -2.88487  -0.69366
  23.21515  -5.15936   0.17424
  23.81370  -7.91270   1.07206
  24.18780  -9.99266   1.65565
  24.42722 -10.95034   2.44873
  24.78635 -11.23465   3.16699
  24.99584 -10.63610   3.70569
  25.36993  -9.67842   4.66337
  25.86374  -8.67585   5.69587
  26.34258  -7.13458   6.08492
  27.09077  -4.33636   5.96521
  28.21305  -2.52574   5.95025
  28.07837  -2.12172   6.41413
  27.47982  -0.95455   6.80318
  27.13566   0.36226   5.92032
  26.64185   0.01810   4.75315
  25.81885  -1.53813   4.79804
  24.71153  -1.86734   4.58855
  23.72392  -1.52317   2.76297
  23.08048  -2.34618   1.01221
  22.13776  -3.61810   0.84761
  19.90816  -3.58817   1.10199
  17.39425  -3.00458   1.40127
  15.38910  -3.40860   1.99982
  13.12958  -5.14440   3.09217
  10.54085  -6.86523   4.39402
   7.89226  -7.25429   6.32434
   5.46813  -7.28422   8.73351
   3.04400  -8.07730  11.87590
  -0.30788  -9.66346  15.22778
  -4.60248 -10.65106  18.72930
  -8.65766 -11.18976  21.42278
 -12.05443 -12.62628  23.83194
 -15.52602 -14.16755  27.03419
 -19.62609 -14.12266  30.80506
 -23.48674 -12.58139  33.66313
 -26.25504 -11.27954  35.99748
 -28.84377 -10.87552  39.51396
 -31.64199 -10.06748  43.26987
 -34.08109  -8.18204  46.15787
 -35.32308  -6.86523  48.23784
 -36.02638  -6.05719  50.60211
 -36.81946  -5.36886  52.83171
 -37.34319  -4.66556  54.20838
 -37.58261  -3.67795  54.86678
 -37.31326  -3.18415  55.65986
 -36.92420  -2.92976  56.45294
 -36.46032  -2.37610  56.63251
 -35.86177  -2.34618  56.66243
 -35.36797  -2.69034  56.64747
 -35.12855  -3.27393  56.28834
 -35.15848  -3.93234  55.37555
 -35.33804  -4.60570  54.25327
 -36.14609  -4.59074  53.56493
