********************************************************************************
              CENTRO DE INSTRUMENTACION Y REGISTRO SISMICO  A.C.

    Anaxagoras 814, Col. Narvarte, Benito Juarez, C.P. 03020 Mexico, D.F.
           Tels. 5687 45 42/ 5687 45  82             Fax. 5669 25 12
********************************************************************************
ARCHIVO ESTANDAR DE ACELERACION:
VERSION DEL FORMATO                    : 2.0
NOMBRE DEL ARCHIVO                     : BA4920160627205033
FECHA Y HORA DE CREACION               : 15/SEP/16, 10:43
REF. CATALOGO ACELEROGRAMAS, SMIS 1996 : REGISTRO No.     /PAG.


================================================================================
DATOS DE LA ESTACION:
NOMBRE DE LA ESTACION                  : BUENOS AIRES
CLAVE DE LA ESTACION                   : BA49
LOCALIZACION DE LA ESTACION            : Del. Cuauhtémoc, Col. Doctores,        
                                       : Av. Lázaro Cárdenas esq. con           
                                       : Calle Dr. Márquez.                     
                                       :                                        
                                       : 
COORDENADAS DE LA ESTACION             : 19.4097 LAT. N
                                       : 99.1450 LONG. W
ALTITUD (msnm)                         : 2233
TIPO DE SUELO                          : Terreno blando, material compresible
                                       : (arcillas)                
                                       : 
INSTITUCION RESPONSABLE                : CIRES
                                       : 

================================================================================
DATOS DEL ACELEROGRAFO:
MODELO DEL ACELEROGRAFO                : RADESD
NUMERO DE SERIE DEL ACELEROGRAFO       : 176
NUMERO DE CANALES                      : 3
ORIENTACION C1-C6 (rumbo;orientacion)  : /S00E/+V/N90W
ORIENTACION C7-C12 (rumbo;orientacion) : 
VEL. DE MUESTREO, C1-C6 (muestras/s)   : /100/100/100
VEL. DE MUESTREO, C7-C12 (muestras/s)  : 
ESC. COMPLETA DE SENSORES, C1-C6, (g)  : /0.5/0.5/0.5
ESC. COMPLETA DE SENSORES, C7-C12, (g) : 
FREC. NAT. DE SENSORES, C1-C6, (Hz)    : /52.99/52.03/52.99
FREC. NAT. DE SENSORES, C7-C12, (Hz)   : 
AMORTIGUAMIENTO DE SENSORES, C1-C6     : /0.5589/0.5469/0.6096
AMORTIGUAMIENTO DE SENSORES, C7-C12    : 
INTERVALO DE MUESTREO, C1-C6, (s)      : /0.01/0.01/0.01
INTERVALO DE MUESTREO, C7-C12, (s)     : 
UMBRAL DE DISPARO, C1-C6, (Gal)        : /0.96/1.92/0.96
UMBRAL DE DISPARO, C7-C12, (Gal)       : 
MEMORIA DE PREEVENTO (s)               : 44.0
TIEMPO DE POSEVENTO (s)                : 0.0


================================================================================
DATOS DEL SISMO:
FECHA DEL SISMO (GMT)                  : 27/JUN/16
HORA EPICENTRO (GMT)                   : 20:50:33.0
MAGNITUD(ES)                           : /Mc=5.7
COORDENADAS DEL EPICENTRO              : 16.20 LAT. N
                                       : 97.93 LONG. W
PROFUNDIDAD FOCAL (km)                 : 20
FUENTE DE LOS DATOS EPICENTRALES       : SSN
                                       : INSTITUTO DE GEOFISICA, UNAM

================================================================================
DATOS DE ESTE REGISTRO:
HORA DE LA PRIMERA MUESTRA (GMT)       : 20:52:12.00
EXACTITUD DEL TIEMPO (s)               : 0.01
DURACION DEL REGISTRO (s), C1-C6       : /210.2/210.2/210.2
DURACION DEL REGISTRO (s), C7-C12      : 
NUM. TOTAL DE MUESTRAS, C1-C6          : /21020/21020/21020
NUM. TOTAL DE MUESTRAS, C7-C12         : 
ACEL. MAX. (Gal), C1-C6                : /3.12808/1.36836/3.72825
ACEL. MAX., C1-C6, EN LA MUESTRA       : /7651/7532/6131
ACEL. MAX. (Gal), C7-C12               : 
ACEL. MAX., C7-C12, EN LA MUESTRA      : 
UNIDADES DE LOS DATOS                  : Gal (cm/s/s)
FACTOR DE DECIMACION                   : 1
FORMATO DATOS (FORTRAN,10 campos/dato) : 3F10.5


================================================================================
CALIDAD DEL ACELEROGRAMA:
REGISTRO DIGITAL COMPLETO CON TIEMPO ABSOLUTO CORRECTO.


================================================================================
COMENTARIOS:














================================================================================
DATOS DE ACELERACION:
---------+---------+---------+---------+---------+---------+---------+---------+
   CANAL-1   CANAL-2   CANAL-3   CANAL-4   CANAL-5   CANAL-6   CANAL-7   CANAL-8
      S00E        +V      N90W
---------+---------+---------+---------+---------+---------+---------+---------+
[...]
  -0.59920  -0.65175   2.12258
  -0.55431  -0.60686   2.18244
  -0.44956  -0.60686   2.18244
  -0.25504  -0.48715   2.10762
  -0.10540  -0.50211   2.10762
   0.01431  -0.39737   2.07769
   0.10409  -0.36744   1.98791
   0.25373  -0.33751   1.98791
   0.29862  -0.27766   1.91309
   0.37344  -0.20284   1.88316
   0.49315  -0.15795   1.88316
   0.61286  -0.14298   1.89812
   0.73257  -0.03824   1.85323
   0.82235   0.05154   1.77841
   0.92710   0.11140   1.76345
   0.97199   0.18622   1.67367
   1.07674   0.24607   1.70360
   1.16652   0.29096   1.65870
   1.27127   0.27600   1.61381
   1.36105   0.39571   1.55396
   1.42091   0.44060   1.46418
   1.54062   0.51542   1.40432
   1.60047   0.50046   1.37439
   1.66033   0.44060   1.23972
   1.78004   0.54535   1.20979
   1.82493   0.50046   1.17986
   1.80996   0.54535   1.01526
   1.83989   0.54535   0.97037
   1.89975   0.60520   0.94044
   1.92967   0.59024   0.88059
   1.95960   0.63513   0.88059
   1.91471   0.70995   0.83570
   1.92967   0.70995   0.80577
   1.97456   0.81470   0.74591
   1.95960   0.76981   0.73095
   1.94464   0.84462   0.59628
   1.89975   0.85959   0.64117
   1.86982   0.81470   0.56635
   1.80996   0.81470   0.58131
   1.78004   0.79973   0.64117
   1.72018   0.84462   0.55139
   1.63040   0.81470   0.53642
   1.54062   0.78477   0.53642
   1.46580   0.81470   0.56635
   1.40594   0.72491   0.50649
   1.28623   0.75484   0.47657
   1.21141   0.72491   0.47657
   1.13659   0.70995   0.53642
   0.92710   0.78477   0.44664
   0.76250   0.73988   0.43168
   0.59790   0.66506   0.35686
   0.53804   0.65009   0.31197
   0.38841   0.63513   0.23715
   0.29862   0.54535   0.23715
   0.13402   0.47053   0.25211
   0.04424   0.41067   0.20722
  -0.09043   0.30593   0.23715
  -0.13533   0.23111   0.16233
  -0.28496   0.14133   0.10247
  -0.25504   0.00665   0.20722
  -0.29993  -0.03824   0.26707
  -0.43460  -0.05320   0.22218
  -0.49446  -0.20284   0.17729
  -0.52438  -0.23277   0.22218
  -0.58424  -0.29262   0.31197
  -0.68899  -0.38240   0.26707
  -0.73388  -0.44226   0.28204
  -0.77877  -0.54701   0.31197
  -0.83862  -0.68168   0.34189
  -0.79373  -0.72657   0.37182
  -0.92841  -0.78643   0.40175
  -0.98826  -0.77146   0.40175
  -1.07804  -0.87621   0.49153
  -1.15286  -0.80139   0.46160
  -1.27257  -0.89117   0.50649
  -1.25761  -0.89117   0.56635
  -1.33243  -0.93606   0.55139
  -1.36235  -0.93606   0.65613
  -1.48206  -0.93606   0.62620
  -1.63170  -0.89117   0.67110
  -1.69156  -0.83132   0.70102
  -1.76638  -0.87621   0.74591
  -1.81127  -0.81635   0.70102
  -1.87112  -0.89117   0.77584
  -1.93098  -0.75650   0.71599
  -1.97587  -0.75650   0.76088
  -2.02076  -0.80139   0.82073
  -2.00580  -0.69664   0.82073
  -1.97587  -0.66672   0.85066
  -1.99083  -0.66672   0.85066
  -2.03572  -0.63679   0.89555
  -1.99083  -0.57693   0.86563
  -1.88609  -0.62182   0.92548
  -1.76638  -0.62182   0.95541
  -1.69156  -0.65175   0.92548
  -1.57185  -0.66672   0.95541
  -1.48206  -0.59190   0.95541
  -1.37732  -0.59190   0.97037
  -1.25761  -0.53204   0.98534
  -1.09301  -0.45722   1.01526
  -0.95833  -0.44226   0.95541
  -0.79373  -0.44226   0.97037
  -0.61417  -0.35248   0.94044
  -0.47949  -0.36744   0.92548
  -0.34482  -0.24773   0.86563
  -0.16525  -0.21780   0.83570
  -0.10540  -0.24773   0.82073
   0.01431  -0.06817   0.74591
   0.14899  -0.12802   0.70102
   0.23877  -0.02327   0.59628
   0.37344   0.06651   0.58131
   0.47819   0.06651   0.56635
   0.52308   0.12636   0.43168
   0.58293   0.30593   0.35686
   0.70264   0.39571   0.32693
   0.68768   0.41067   0.23715
   0.79243   0.57528   0.13240
   0.83732   0.63513   0.10247
   0.89717   0.63513   0.05758
   0.91214   0.70995   0.01269
   0.95703   0.76981  -0.04716
   0.95703   0.79973  -0.07709
   0.95703   0.85959  -0.21177
   0.97199   0.85959  -0.21177
   0.97199   0.88952  -0.27162
   0.98696   0.91944  -0.40629
   0.86725   0.96433  -0.46615
   0.88221   0.87455  -0.51104
   0.79243   0.78477  -0.64571
   0.73257   0.84462  -0.69061
   0.74754   0.79973  -0.75046
   0.67272   0.81470  -0.85521
   0.61286   0.70995  -0.90010
   0.52308   0.75484  -1.01981
   0.47819   0.62017  -1.13952
   0.46322   0.60520  -1.16945
   0.34351   0.54535  -1.30412
   0.28366   0.51542  -1.39390
   0.22380   0.48549  -1.48369
   0.19388   0.41067  -1.60340
   0.16395   0.44060  -1.67821
   0.11906   0.27600  -1.82785
   0.07417   0.27600  -1.93260
   0.01431   0.20118  -1.97749
  -0.03058   0.08147  -2.15705
  -0.10540   0.03658  -2.24684
  -0.13533   0.02162  -2.39647
  -0.24007  -0.11306  -2.48626
  -0.28496  -0.15795  -2.56108
  -0.41964  -0.23277  -2.63589
  -0.43460  -0.23277  -2.78553
  -0.46453  -0.20284  -2.83042
  -0.56927  -0.30759  -2.98006
  -0.62913  -0.32255  -2.98006
  -0.73388  -0.30759  -3.11474
  -0.76380  -0.38240  -3.15963
  -0.85359  -0.53204  -3.17459
  -0.85359  -0.62182  -3.18955
  -0.97330  -0.66672  -3.23445
  -1.06308  -0.68168  -3.23445
  -1.06308  -0.66672  -3.23445
  -1.10797  -0.80139  -3.24941
  -1.10797  -0.71161  -3.21948
  -1.19775  -0.80139  -3.27934
  -1.19775  -0.93606  -3.29430
  -1.18279  -0.83132  -3.23445
  -1.18279  -0.80139  -3.26437
  -1.15286  -0.84628  -3.14466
  -1.19775  -0.81635  -3.15963
  -1.13790  -0.77146  -3.09977
  -1.12293  -0.72657  -3.11474
  -1.10797  -0.62182  -3.05488
  -1.06308  -0.59190  -2.98006
  -1.01819  -0.57693  -2.87532
  -1.00322  -0.54701  -2.84539
  -0.91344  -0.47219  -2.72568
  -0.79373  -0.44226  -2.57604
  -0.70395  -0.42730  -2.53115
  -0.59920  -0.32255  -2.39647
  -0.47949  -0.36744  -2.32166
  -0.41964  -0.30759  -2.21691
  -0.35978  -0.23277  -2.11216
  -0.28496  -0.21780  -2.00742
  -0.19518  -0.08313  -1.85778
  -0.09043   0.00665  -1.79792
  -0.04554   0.00665  -1.73807
   0.07417   0.05154  -1.60340
   0.20884   0.08147  -1.45376
   0.25373   0.06651  -1.36398
   0.34351   0.12636  -1.33405
   0.34351   0.18622  -1.22930
   0.44826   0.15629  -1.10959
   0.61286   0.17125  -1.03477
   0.70264   0.15629  -0.85521
   0.74754   0.20118  -0.73550
   0.83732   0.24607  -0.61579
   0.95703   0.29096  -0.49608
   1.06177   0.36578  -0.40629
   1.19645   0.29096  -0.33148
   1.33112   0.38075  -0.18184
   1.49572   0.36578   0.01269
   1.60047   0.44060   0.10247
   1.75011   0.47053   0.23715
   1.85485   0.59024   0.37182
   1.98953   0.50046   0.47657
   2.09427   0.54535   0.62620
   2.15413   0.53038   0.76088
   2.33369   0.53038   0.91052
   2.40851   0.53038   1.00030
   2.48333   0.54535   1.16490
   2.51326   0.54535   1.22476
   2.61801   0.50046   1.34447
   2.64793   0.56031   1.43425
   2.64793   0.54535   1.50907
   2.69282   0.50046   1.56892
   2.69282   0.51542   1.62878
   2.69282   0.50046   1.71856
   2.66290   0.44060   1.73352
   2.63297   0.32089   1.71856
   2.58808   0.33586   1.73352
   2.48333   0.36578   1.71856
   2.36362   0.30593   1.76345
   2.33369   0.35082   1.73352
   2.24391   0.27600   1.74849
   2.15413   0.18622   1.88316
   2.10924   0.12636   1.95798
   1.92967   0.18622   1.85323
   1.83989   0.15629   1.97294
   1.69025   0.11140   1.92805
   1.60047   0.14133   1.91309
   1.40594   0.06651   1.92805
   1.27127   0.12636   1.92805
   1.06177   0.14133   1.95798
   0.92710   0.17125   1.95798
   0.73257   0.15629   1.91309
   0.58293   0.24607   1.86820
   0.40337   0.20118   1.97294
   0.28366   0.23111   2.01783
   0.05920   0.23111   2.00287
  -0.09043   0.27600   1.95798
  -0.25504   0.29096   1.94302
  -0.40467   0.29096   1.98791
  -0.52438   0.27600   2.01783
  -0.70395   0.23111   2.00287
  -0.83862   0.20118   1.98791
  -0.92841   0.24607   2.09265
  -1.06308   0.38075   2.00287
  -1.18279   0.26104   1.98791
  -1.24264   0.15629   2.01783
  -1.42221   0.12636   1.94302
  -1.51199  -0.00831   1.91309
  -1.54192  -0.03824   1.97294
  -1.58681  -0.03824   1.97294
  -1.64667  -0.08313   1.97294
  -1.69156  -0.12802   1.88316
  -1.72148  -0.17291   1.88316
  -1.73645  -0.24773   1.86820
  -1.75141  -0.30759   1.85323
  -1.75141  -0.38240   1.86820
  -1.78134  -0.45722   1.88316
  -1.72148  -0.47219   1.83827
  -1.75141  -0.54701   1.77841
  -1.72148  -0.62182   1.79338
  -1.69156  -0.68168   1.88316
  -1.64667  -0.65175   1.85323
  -1.64667  -0.65175   1.88316
  -1.61674  -0.60686   1.83827
  -1.58681  -0.63679   1.88316
  -1.49703  -0.60686   1.85323
  -1.45214  -0.65175   1.82331
  -1.34739  -0.62182   1.80834
  -1.30250  -0.50211   1.80834
  -1.24264  -0.47219   1.80834
  -1.18279  -0.48715   1.77841
  -1.09301  -0.38240   1.82331
  -1.01819  -0.41233   1.83827
  -0.89848  -0.27766   1.82331
  -0.80870  -0.15795   1.79338
  -0.65906  -0.24773   1.76345
  -0.61417  -0.18788   1.76345
  -0.50942  -0.15795   1.71856
  -0.41964  -0.06817   1.68863
  -0.31489  -0.12802   1.67367
  -0.21014  -0.03824   1.64374
  -0.13533   0.03658   1.61381
  -0.03058  -0.02327   1.55396
   0.07417   0.08147   1.53899
   0.17891   0.05154   1.49410
   0.26870   0.03658   1.50907
   0.34351   0.14133   1.37439
   0.46322   0.03658   1.43425
   0.55301   0.12636   1.34447
   0.67272   0.17125   1.35943
   0.77746   0.17125   1.29957
   0.79243   0.24607   1.19483
   0.94206   0.21615   1.22476
   0.97199   0.21615   1.14994
   1.10667   0.17125   1.14994
   1.13659   0.24607   1.01526
   1.16652   0.27600   1.01526
   1.19645   0.26104   0.94044
   1.18148   0.23111   0.91052
   1.31616   0.23111   0.79081
   1.30120   0.17125   0.80577
   1.30120   0.27600   0.65613
   1.31616   0.20118   0.55139
   1.31616   0.24607   0.55139
   1.33112   0.29096   0.46160
   1.30120   0.23111   0.40175
   1.25630   0.30593   0.28204
   1.27127   0.29096   0.23715
   1.25630   0.39571   0.07255
   1.18148   0.38075  -0.00227
   1.16652   0.24607  -0.07709
   1.09170   0.21615  -0.16687
   1.03185   0.30593  -0.22673
   0.92710   0.38075  -0.30155
   0.85228   0.35082  -0.40629
   0.74754   0.30593  -0.55593
   0.65775   0.29096  -0.63075
   0.49315   0.30593  -0.72053
   0.40337   0.26104  -0.84024
   0.22380   0.27600  -0.91506
   0.08913   0.32089  -1.00484
  -0.06051   0.24607  -1.07966
  -0.19518   0.30593  -1.25923
  -0.41964   0.26104  -1.34901
  -0.53935   0.35082  -1.48369
  -0.76380   0.18622  -1.61836
  -0.92841   0.26104  -1.70814
  -1.01819   0.29096  -1.85778
  -1.19775   0.29096  -1.99245
  -1.30250   0.29096  -2.15705
  -1.42221   0.27600  -2.33662
  -1.57185   0.18622  -2.45633
  -1.73645   0.24607  -2.62093
  -1.84119   0.12636  -2.74064
  -1.97587   0.00665  -2.87532
  -2.02076   0.03658  -2.99503
  -2.14047  -0.11306  -3.15963
  -2.26018  -0.15795  -3.21948
  -2.32003  -0.11306  -3.36912
  -2.36493  -0.30759  -3.42897
  -2.51456  -0.38240  -3.51876
  -2.54449  -0.35248  -3.59358
  -2.60435  -0.38240  -3.63847
  -2.63427  -0.38240  -3.72825
  -2.64924  -0.39737  -3.65343
  -2.60435  -0.47219  -3.71329
  -2.60435  -0.63679  -3.68336
  -2.61931  -0.62182  -3.65343
  -2.61931  -0.57693  -3.65343
  -2.57442  -0.66672  -3.62350
  -2.55946  -0.69664  -3.54868
  -2.45471  -0.69664  -3.47387
  -2.42478  -0.69664  -3.39905
  -2.30507  -0.71161  -3.35416
  -2.23025  -0.75650  -3.23445
  -2.11054  -0.77146  -3.11474
  -1.94594  -0.80139  -3.02495
  -1.79630  -0.69664  -2.96510
  -1.67659  -0.69664  -2.81546
  -1.54192  -0.72657  -2.72568
  -1.36235  -0.77146  -2.63589
  -1.15286  -0.74153  -2.53115
  -1.03315  -0.75650  -2.42640
  -0.86855  -0.74153  -2.36655
  -0.62913  -0.72657  -2.26180
  -0.44956  -0.72657  -2.20195
  -0.32985  -0.69664  -2.08224
  -0.06051  -0.63679  -1.96253
   0.14899  -0.72657  -1.84282
   0.28366  -0.65175  -1.76800
   0.41833  -0.62182  -1.72311
   0.55301  -0.59190  -1.61836
   0.71761  -0.42730  -1.51361
   0.92710  -0.45722  -1.39390
   0.98696  -0.41233  -1.34901
   1.09170  -0.30759  -1.25923
   1.22638  -0.27766  -1.13952
   1.31616  -0.14298  -1.09463
   1.45083  -0.06817  -0.97492
   1.61543  -0.00831  -0.90010
   1.70522   0.11140  -0.81032
   1.80996   0.15629  -0.69061
   1.89975   0.20118  -0.58586
   1.97456   0.29096  -0.51104
   2.03442   0.42564  -0.43622
   2.10924   0.42564  -0.40629
   2.10924   0.48549  -0.34644
   2.13917   0.56031  -0.34644
   2.13917   0.66506  -0.25666
   2.10924   0.72491  -0.24169
   2.10924   0.76981  -0.21177
   2.12420   0.73988  -0.16687
   2.09427   0.79973  -0.12198
   2.07931   0.81470  -0.13695
   1.98953   0.79973  -0.10702
   1.91471   0.84462  -0.04716
   1.82493   0.82966  -0.07709
   1.78004   0.70995  -0.04716
   1.70522   0.72491  -0.01724
   1.66033   0.68002   0.04262
   1.61543   0.68002   0.07255
   1.49572   0.66506   0.13240
   1.34609   0.62017   0.11744
   1.19645   0.57528   0.13240
   1.18148   0.51542   0.19226
   1.06177   0.39571   0.26707
   0.95703   0.33586   0.35686
   0.88221   0.29096   0.40175
   0.74754   0.32089   0.43168
   0.62783   0.29096   0.55139
   0.46322   0.27600   0.58131
   0.32855   0.20118   0.56635
   0.17891   0.24607   0.53642
   0.04424   0.11140   0.70102
  -0.09043   0.08147   0.64117
  -0.24007   0.06651   0.77584
  -0.43460   0.08147   0.80577
  -0.67402   0.17125   0.79081
  -0.74884   0.14133   0.98534
  -0.83862   0.29096   1.01526
  -1.00322   0.30593   1.06015
  -1.13790   0.21615   1.07512
  -1.28754   0.21615   1.13497
  -1.40725   0.29096   1.22476
  -1.60177   0.29096   1.23972
  -1.60177   0.23111   1.29957
  -1.69156   0.30593   1.29957
  -1.79630   0.23111   1.41928
  -1.82623   0.29096   1.44921
  -1.87112   0.23111   1.47914
  -1.91601   0.15629   1.43425
  -2.00580   0.15629   1.47914
  -1.99083   0.15629   1.50907
  -2.05069   0.11140   1.47914
  -2.05069   0.14133   1.56892
  -2.06565   0.15629   1.46418
  -2.02076   0.12636   1.50907
  -1.99083   0.08147   1.56892
  -1.94594   0.11140   1.53899
  -1.91601   0.11140   1.52403
  -1.79630   0.05154   1.56892
  -1.69156  -0.05320   1.73352
  -1.57185  -0.05320   1.73352
  -1.52696  -0.03824   1.71856
  -1.43717  -0.06817   1.71856
  -1.36235  -0.12802   1.74849
  -1.21272  -0.14298   1.88316
  -1.13790  -0.30759   1.86820
  -0.98826  -0.30759   1.92805
  -0.83862  -0.35248   2.00287
  -0.68899  -0.36744   1.98791
  -0.53935  -0.36744   2.09265
  -0.38971  -0.41233   2.09265
  -0.29993  -0.23277   2.10762
  -0.15029  -0.30759   2.10762
  -0.03058  -0.35248   2.07769
   0.07417  -0.44226   2.13754
   0.26870  -0.51708   2.21236
   0.40337  -0.53204   2.25725
   0.50812  -0.53204   2.24229
   0.65775  -0.48715   2.28718
   0.80739  -0.42730   2.30215
   0.92710  -0.41233   2.33207
   1.06177  -0.39737   2.25725
   1.18148  -0.39737   2.25725
   1.39098  -0.44226   2.33207
   1.51069  -0.44226   2.31711
   1.64536  -0.39737   2.22733
   1.78004  -0.30759   2.24229
   1.89975  -0.36744   2.18244
   2.07931  -0.27766   2.16747
   2.16909  -0.26269   2.16747
   2.24391  -0.23277   2.01783
   2.42348  -0.12802   1.95798
   2.49830  -0.24773   1.94302
   2.57311  -0.17291   1.83827
   2.66290  -0.20284   1.80834
   2.73772  -0.21780   1.74849
   2.76764   0.02162   1.68863
   2.76764   0.08147   1.56892
   2.82750   0.06651   1.47914
   2.82750   0.03658   1.43425
   2.79757   0.09644   1.35943
   2.81253   0.06651   1.28461
   2.72275   0.09644   1.19483
   2.64793   0.14133   1.09008
   2.55815   0.21615   1.03023
   2.54319   0.26104   0.94044
   2.46837   0.39571   0.85066
   2.42348   0.41067   0.77584
   2.31873   0.44060   0.71599
   2.24391   0.42564   0.49153
   2.09427   0.41067   0.41671
