********************************************************************************
              CENTRO DE INSTRUMENTACION Y REGISTRO SISMICO  A.C.

    Anaxagoras 814, Col. Narvarte, Benito Juarez, C.P. 03020 Mexico, D.F.
           Tels. 5687 45 42/ 5687 45  82             Fax. 5669 25 12
********************************************************************************
ARCHIVO ESTANDAR DE ACELERACION:
VERSION DEL FORMATO                    : 2.0
NOMBRE DEL ARCHIVO                     : BA4920110426110728
FECHA Y HORA DE CREACION               : 30/JUN/11, 11:42
REF. CATALOGO ACELEROGRAMAS, SMIS 1996 : REGISTRO No.     /PAG.


================================================================================
DATOS DE LA ESTACION:
NOMBRE DE LA ESTACION                  : BUENOS AIRES
CLAVE DE LA ESTACION                   : BA49
LOCALIZACION DE LA ESTACION            : Del. Cuauhtémoc, Col. Doctores,        
                                       : Av. Lázaro Cárdenas esq. con           
                                       : Calle Dr. Márquez.                     
                                       :                                        
                                       : 
COORDENADAS DE LA ESTACION             : 19.4097 LAT. N
                                       : 99.1450 LONG. W
ALTITUD (msnm)                         : 2233
TIPO DE SUELO                          : Terreno blando, material compresible
                                       : (arcillas)                
                                       : 
INSTITUCION RESPONSABLE                : CIRES
                                       : 

================================================================================
DATOS DEL ACELEROGRAFO:
MODELO DEL ACELEROGRAFO                : RADESD
NUMERO DE SERIE DEL ACELEROGRAFO       : 176
NUMERO DE CANALES                      : 3
ORIENTACION C1-C6 (rumbo;orientacion)  : /N00E/+V/N90W
ORIENTACION C7-C12 (rumbo;orientacion) : 
VEL. DE MUESTREO, C1-C6 (muestras/s)   : /100/100/100
VEL. DE MUESTREO, C7-C12 (muestras/s)  : 
ESC. COMPLETA DE SENSORES, C1-C6, (g)  : /0.5/0.5/0.5
ESC. COMPLETA DE SENSORES, C7-C12, (g) : 
FREC. NAT. DE SENSORES, C1-C6, (Hz)    : /52.99/52.03/52.99
FREC. NAT. DE SENSORES, C7-C12, (Hz)   : 
AMORTIGUAMIENTO DE SENSORES, C1-C6     : /0.5589/0.5469/0.6096
AMORTIGUAMIENTO DE SENSORES, C7-C12    : 
INTERVALO DE MUESTREO, C1-C6, (s)      : /0.01/0.01/0.01
INTERVALO DE MUESTREO, C7-C12, (s)     : 
UMBRAL DE DISPARO, C1-C6, (Gal)        : /0.96/1.92/0.96
UMBRAL DE DISPARO, C7-C12, (Gal)       : 
MEMORIA DE PREEVENTO (s)               : 56.0
TIEMPO DE POSEVENTO (s)                : 64.0


================================================================================
DATOS DEL SISMO:
FECHA DEL SISMO (GMT)                  : 26/ABR/11
HORA EPICENTRO (GMT)                   : 11:07:28.0
MAGNITUD(ES)                           : /Mc=5.5
COORDENADAS DEL EPICENTRO              : 16.71 LAT. N
                                       : 99.69 LONG. W
PROFUNDIDAD FOCAL (km)                 : 7
FUENTE DE LOS DATOS EPICENTRALES       : SSN
                                       : INSTITUTO DE GEOFISICA, UNAM

================================================================================
DATOS DE ESTE REGISTRO:
HORA DE LA PRIMERA MUESTRA (GMT)       : 11:08:53.00
EXACTITUD DEL TIEMPO (s)               : 0.01
DURACION DEL REGISTRO (s), C1-C6       : /185.75/185.75/185.75
DURACION DEL REGISTRO (s), C7-C12      : 
NUM. TOTAL DE MUESTRAS, C1-C6          : /18575/18575/18575
NUM. TOTAL DE MUESTRAS, C7-C12         : 
ACEL. MAX. (Gal), C1-C6                : /3.13097/1.09315/2.23433
ACEL. MAX., C1-C6, EN LA MUESTRA       : /7097/6129/7398
ACEL. MAX. (Gal), C7-C12               : 
ACEL. MAX., C7-C12, EN LA MUESTRA      : 
UNIDADES DE LOS DATOS                  : Gal (cm/s/s)
FACTOR DE DECIMACION                   : 1
FORMATO DATOS (FORTRAN,10 campos/dato) : 3F10.5


================================================================================
CALIDAD DEL ACELEROGRAMA:
REGISTRO DIGITAL COMPLETO CON TIEMPO ABSOLUTO CORRECTO.


================================================================================
COMENTARIOS:














================================================================================
DATOS DE ACELERACION:
---------+---------+---------+---------+---------+---------+---------+---------+
   CANAL-1   CANAL-2   CANAL-3   CANAL-4   CANAL-5   CANAL-6   CANAL-7   CANAL-8
      N00E        +V      N90W
---------+---------+---------+---------+---------+---------+---------+---------+
[...]
   0.73677  -0.34337  -0.07955
   0.73677  -0.10395  -0.31897
   0.49735  -0.10395  -0.31897
   0.25793  -0.10395  -0.31897
   0.25793  -0.10395  -0.31897
   0.25793  -0.10395  -0.31897
   0.01851   0.13547  -0.31897
  -0.22091  -0.10395  -0.55839
  -0.22091   0.13547  -0.55839
  -0.46033   0.13547  -0.31897
  -0.69975   0.13547  -0.31897
  -0.69975   0.37489  -0.55839
  -0.93917   0.13547  -0.31897
  -0.93917   0.13547  -0.31897
  -1.17859   0.13547  -0.55839
  -1.17859   0.13547  -0.55839
  -1.41801   0.37489  -0.31897
  -1.41801   0.37489  -0.31897
  -1.65743   0.37489  -0.31897
  -1.65743   0.37489  -0.07955
  -1.89685   0.37489  -0.31897
  -1.89685   0.37489  -0.07955
  -1.89685   0.37489  -0.07955
  -2.13627   0.37489  -0.07955
  -2.13627   0.37489  -0.07955
  -2.13627   0.13547  -0.07955
  -2.13627   0.13547  -0.07955
  -2.13627   0.13547   0.15987
  -2.13627  -0.10395   0.15987
  -2.37569  -0.10395   0.15987
  -2.37569  -0.10395   0.15987
  -2.13627  -0.34337   0.15987
  -1.89685  -0.34337  -0.07955
  -1.89685  -0.34337   0.15987
  -1.89685  -0.34337   0.15987
  -1.65743  -0.58279   0.15987
  -1.65743  -0.58279   0.15987
  -1.41801  -0.58279  -0.07955
  -1.41801  -0.82221   0.15987
  -1.41801  -0.82221  -0.07955
  -1.17859  -0.82221   0.15987
  -0.93917  -0.58279  -0.07955
  -0.93917  -0.58279   0.15987
  -0.93917  -0.58279   0.15987
  -0.69975  -0.58279   0.15987
  -0.69975  -0.58279  -0.07955
  -0.46033  -0.58279   0.15987
  -0.46033  -0.58279   0.15987
  -0.46033  -0.34337  -0.07955
  -0.46033  -0.58279  -0.07955
   0.01851  -0.34337   0.15987
  -0.22091  -0.34337  -0.07955
   0.01851  -0.58279   0.15987
   0.01851  -0.10395   0.15987
   0.01851  -0.34337   0.15987
   0.25793  -0.34337   0.15987
   0.25793  -0.34337   0.15987
   0.25793  -0.34337   0.15987
   0.49735  -0.34337  -0.07955
   0.49735  -0.10395   0.15987
   0.49735   0.13547   0.15987
   0.49735  -0.10395   0.15987
   0.49735   0.13547   0.39929
   0.49735   0.13547   0.39929
   0.49735  -0.10395   0.15987
   0.73677  -0.10395   0.39929
   0.49735  -0.10395   0.39929
   0.49735  -0.10395   0.63871
   0.49735   0.13547   0.39929
   0.73677   0.13547   0.63871
   0.73677   0.13547   0.63871
   0.73677   0.13547   0.63871
   0.73677   0.37489   0.63871
   0.49735   0.13547   0.63871
   0.73677   0.37489   0.63871
   0.73677   0.37489   0.63871
   0.73677   0.61431   0.87813
   0.73677   0.61431   0.63871
   0.97619   0.61431   0.63871
   0.97619   0.37489   0.63871
   0.73677   0.61431   0.63871
   0.97619   0.37489   0.63871
   0.73677   0.61431   0.39929
   0.97619   0.37489   0.63871
   0.73677   0.61431   0.63871
   0.73677   0.37489   0.63871
   0.73677   0.37489   0.39929
   0.73677   0.37489   0.39929
   0.73677   0.13547   0.15987
   0.73677   0.61431   0.39929
   0.49735   0.37489   0.15987
   0.49735   0.37489   0.15987
   0.49735   0.37489   0.15987
   0.49735   0.37489   0.39929
   0.25793   0.13547  -0.07955
   0.49735   0.37489   0.15987
   0.49735   0.13547  -0.07955
   0.49735   0.37489  -0.31897
   0.25793   0.13547  -0.07955
   0.49735   0.37489  -0.31897
   0.49735   0.13547  -0.07955
   0.49735   0.13547  -0.31897
   0.49735   0.13547  -0.31897
   0.49735   0.13547  -0.07955
   0.49735   0.37489  -0.31897
   0.49735  -0.10395  -0.31897
   0.49735   0.13547  -0.31897
   0.73677   0.13547  -0.31897
   0.73677   0.13547  -0.31897
   0.73677   0.13547  -0.31897
   0.73677   0.13547  -0.31897
   0.73677   0.13547  -0.31897
   0.73677   0.13547  -0.31897
   0.73677   0.13547  -0.07955
   0.49735   0.13547  -0.07955
   0.73677   0.13547   0.15987
   0.49735  -0.10395   0.15987
   0.49735   0.13547   0.15987
   0.49735   0.13547   0.39929
   0.49735  -0.10395   0.39929
   0.49735  -0.10395   0.39929
   0.25793  -0.10395   0.39929
   0.49735  -0.10395   0.39929
   0.49735  -0.34337   0.63871
   0.49735  -0.10395   0.63871
   0.49735  -0.34337   0.39929
   0.49735  -0.34337   0.39929
   0.49735  -0.10395   0.39929
   0.49735  -0.10395   0.39929
   0.49735  -0.10395   0.15987
   0.49735  -0.10395   0.39929
   0.49735  -0.10395   0.15987
   0.73677  -0.10395   0.15987
   0.49735  -0.10395   0.15987
   0.49735   0.13547   0.15987
   0.49735  -0.10395  -0.07955
   0.49735  -0.10395  -0.07955
   0.73677  -0.10395  -0.07955
   0.73677   0.13547  -0.31897
   0.73677   0.13547  -0.07955
   0.73677  -0.10395  -0.31897
   0.49735   0.13547  -0.31897
   0.73677  -0.10395  -0.31897
   0.73677   0.13547  -0.31897
   0.73677   0.13547  -0.07955
   0.73677  -0.10395  -0.07955
   0.49735  -0.10395  -0.07955
   0.49735  -0.10395  -0.07955
   0.49735   0.13547  -0.07955
   0.25793  -0.10395  -0.07955
   0.49735  -0.10395  -0.07955
   0.25793  -0.10395  -0.07955
   0.01851  -0.10395  -0.07955
   0.25793  -0.10395  -0.31897
   0.01851  -0.10395  -0.31897
   0.01851  -0.10395  -0.07955
   0.25793  -0.34337  -0.07955
   0.25793  -0.10395  -0.07955
   0.25793  -0.10395   0.15987
   0.25793  -0.10395  -0.07955
   0.25793  -0.10395   0.15987
   0.25793  -0.34337  -0.07955
   0.49735  -0.34337   0.15987
   0.49735  -0.10395   0.15987
   0.49735  -0.10395   0.15987
   0.49735  -0.34337   0.15987
   0.73677  -0.34337   0.15987
   0.73677  -0.34337   0.39929
   0.73677  -0.10395   0.39929
   0.73677  -0.34337   0.15987
   0.73677  -0.34337   0.39929
   0.73677  -0.34337   0.39929
   0.73677  -0.34337   0.39929
   0.73677  -0.10395   0.63871
   0.73677  -0.10395   0.63871
   0.73677  -0.10395   0.63871
   0.73677  -0.10395   0.63871
   0.49735   0.13547   0.87813
   0.49735  -0.10395   0.63871
   0.49735  -0.10395   0.63871
   0.25793   0.13547   0.87813
   0.25793   0.37489   0.63871
   0.01851   0.37489   0.87813
   0.01851   0.37489   0.87813
   0.01851   0.37489   0.87813
  -0.22091   0.13547   0.87813
  -0.22091   0.13547   0.87813
  -0.46033   0.37489   0.63871
  -0.46033   0.37489   0.63871
  -0.69975   0.37489   0.39929
  -0.69975   0.37489   0.39929
  -0.69975   0.37489   0.39929
  -0.69975   0.61431   0.15987
  -0.93917   0.37489   0.39929
  -0.93917   0.37489   0.15987
  -0.93917   0.37489   0.15987
  -0.93917   0.37489   0.15987
  -0.93917   0.13547  -0.07955
  -0.69975   0.13547   0.15987
  -0.69975   0.13547  -0.07955
  -0.69975   0.13547  -0.07955
  -0.69975   0.13547  -0.07955
  -0.69975   0.13547  -0.07955
  -0.69975   0.13547   0.15987
  -0.93917  -0.10395  -0.07955
  -0.69975  -0.10395   0.15987
  -0.69975  -0.10395   0.15987
  -0.69975  -0.34337   0.15987
  -0.46033  -0.10395   0.15987
  -0.46033  -0.34337  -0.07955
  -0.46033  -0.10395  -0.07955
  -0.46033  -0.10395  -0.07955
  -0.46033  -0.34337  -0.31897
  -0.46033  -0.34337  -0.07955
  -0.46033  -0.34337  -0.07955
  -0.46033  -0.10395  -0.31897
  -0.46033  -0.10395  -0.31897
  -0.46033  -0.10395  -0.31897
  -0.46033  -0.10395  -0.55839
  -0.46033  -0.10395  -0.55839
  -0.22091  -0.10395  -0.55839
  -0.46033  -0.10395  -0.79781
  -0.46033   0.13547  -0.79781
  -0.22091  -0.10395  -0.79781
  -0.46033   0.13547  -1.03723
  -0.22091   0.13547  -1.03723
  -0.22091   0.13547  -1.03723
  -0.46033   0.37489  -0.79781
  -0.22091   0.13547  -0.79781
  -0.46033   0.13547  -0.79781
  -0.46033   0.37489  -0.79781
  -0.46033   0.37489  -0.79781
  -0.46033   0.37489  -0.55839
  -0.46033   0.13547  -0.79781
  -0.46033   0.13547  -0.79781
  -0.22091   0.13547  -0.55839
  -0.46033   0.13547  -0.55839
  -0.46033  -0.10395  -0.55839
  -0.46033   0.13547  -0.55839
  -0.46033  -0.10395  -0.31897
  -0.46033  -0.10395  -0.55839
  -0.46033  -0.34337  -0.55839
  -0.22091  -0.34337  -0.31897
  -0.22091  -0.34337  -0.55839
  -0.46033  -0.34337  -0.31897
  -0.22091  -0.34337  -0.31897
  -0.22091  -0.34337  -0.55839
  -0.22091  -0.34337  -0.79781
   0.01851  -0.34337  -0.31897
   0.01851  -0.34337  -0.31897
  -0.22091  -0.34337  -0.31897
   0.01851  -0.10395  -0.31897
   0.01851  -0.34337  -0.07955
   0.25793  -0.34337  -0.55839
   0.01851  -0.34337  -0.31897
   0.01851  -0.34337  -0.31897
   0.01851  -0.34337  -0.07955
   0.01851  -0.10395  -0.31897
  -0.22091  -0.10395  -0.07955
  -0.22091  -0.34337  -0.07955
  -0.22091  -0.10395  -0.07955
  -0.22091  -0.10395  -0.07955
  -0.46033  -0.10395  -0.07955
  -0.46033  -0.10395  -0.07955
  -0.46033  -0.10395   0.15987
  -0.46033  -0.10395   0.15987
  -0.69975  -0.34337   0.15987
  -0.69975  -0.10395   0.15987
  -0.46033  -0.10395   0.39929
  -0.69975  -0.10395   0.15987
  -0.69975   0.13547   0.39929
  -0.69975  -0.10395   0.39929
  -0.69975   0.13547   0.39929
  -0.69975   0.13547   0.39929
  -0.69975   0.13547   0.39929
  -0.93917   0.13547   0.15987
  -0.69975   0.13547   0.39929
  -0.69975   0.37489   0.15987
  -0.69975   0.37489   0.39929
  -0.69975   0.37489   0.15987
  -0.69975   0.13547   0.15987
  -0.46033   0.13547   0.15987
  -0.46033   0.37489   0.15987
  -0.46033   0.37489   0.15987
  -0.69975   0.13547  -0.07955
  -0.46033   0.37489   0.15987
  -0.46033   0.37489   0.15987
  -0.46033   0.37489   0.39929
  -0.46033   0.37489   0.39929
  -0.69975   0.37489   0.15987
  -0.69975   0.13547   0.39929
  -0.69975   0.37489   0.39929
  -0.69975   0.37489   0.39929
  -0.93917   0.13547   0.39929
  -0.93917  -0.10395   0.39929
  -1.17859   0.13547   0.39929
  -0.93917  -0.10395   0.87813
  -0.93917  -0.34337   0.87813
  -1.17859  -0.34337   1.11755
  -1.17859  -0.34337   1.11755
  -1.17859  -0.34337   1.11755
  -1.41801  -0.34337   1.11755
  -1.41801  -0.58279   1.11755
  -1.41801  -0.58279   1.35697
  -1.17859  -0.58279   1.35697
  -1.17859  -0.58279   1.59639
  -1.17859  -0.58279   1.35697
  -1.17859  -0.58279   1.35697
  -1.17859  -0.58279   1.35697
  -0.93917  -0.58279   1.35697
  -1.17859  -0.58279   1.35697
  -1.17859  -0.58279   1.35697
  -0.93917  -0.58279   1.35697
  -0.69975  -0.58279   1.35697
  -0.69975  -0.34337   1.35697
  -0.69975  -0.34337   1.35697
  -0.46033  -0.58279   1.35697
  -0.46033  -0.34337   1.35697
  -0.22091  -0.34337   1.11755
  -0.22091  -0.34337   1.11755
  -0.22091  -0.10395   1.11755
  -0.22091  -0.10395   1.11755
   0.01851  -0.10395   1.11755
  -0.22091  -0.10395   0.87813
   0.01851   0.13547   1.11755
   0.01851   0.37489   0.87813
   0.25793   0.13547   0.87813
   0.25793   0.13547   0.87813
   0.49735   0.37489   0.63871
   0.49735   0.37489   0.63871
   0.73677   0.13547   0.39929
   0.73677   0.37489   0.63871
   0.97619   0.37489   0.39929
   0.97619   0.37489   0.39929
   1.21561   0.37489   0.15987
   1.45503   0.37489   0.15987
   1.45503   0.61431   0.15987
   1.69445   0.37489  -0.07955
   1.93387   0.37489  -0.31897
   2.17329   0.61431  -0.31897
   2.41271   0.37489  -0.07955
   2.41271   0.61431  -0.31897
   2.65213   0.37489  -0.31897
   2.65213   0.13547  -0.31897
   2.89155   0.61431  -0.55839
   2.89155   0.37489  -0.55839
   3.13097   0.37489  -0.55839
   3.13097   0.37489  -0.31897
   3.13097   0.37489  -0.55839
   2.89155   0.37489  -0.55839
   3.13097   0.37489  -0.55839
   3.13097   0.37489  -0.31897
   2.89155   0.37489  -0.31897
   2.89155   0.13547  -0.31897
   2.89155   0.13547  -0.31897
   2.65213   0.13547  -0.31897
   2.41271   0.13547  -0.31897
   2.17329   0.13547  -0.31897
   2.17329   0.37489  -0.31897
   1.93387   0.37489  -0.07955
   1.69445  -0.10395  -0.07955
   1.69445   0.13547  -0.07955
   1.45503   0.13547  -0.07955
   1.21561   0.37489  -0.31897
   0.97619   0.37489  -0.07955
   0.73677   0.13547  -0.07955
   0.49735   0.13547  -0.07955
   0.25793   0.13547  -0.31897
   0.49735   0.13547  -0.07955
   0.25793   0.13547  -0.07955
   0.01851   0.13547  -0.31897
   0.01851   0.37489  -0.07955
  -0.22091   0.13547  -0.07955
  -0.22091   0.13547  -0.07955
  -0.22091   0.13547  -0.31897
  -0.22091  -0.10395  -0.07955
  -0.46033   0.37489  -0.31897
  -0.46033   0.13547  -0.07955
  -0.69975   0.37489  -0.31897
  -0.46033   0.13547  -0.07955
  -0.46033   0.13547  -0.31897
  -0.46033   0.13547  -0.07955
  -0.46033  -0.10395  -0.07955
  -0.69975   0.13547  -0.07955
  -0.69975  -0.10395  -0.31897
  -0.46033   0.13547   0.15987
  -0.69975   0.13547   0.39929
  -0.69975  -0.10395   0.15987
  -0.69975  -0.10395   0.15987
  -0.69975  -0.34337   0.15987
  -0.69975  -0.10395   0.39929
  -0.69975  -0.34337   0.39929
  -0.69975  -0.34337   0.63871
  -0.69975  -0.34337   0.63871
  -0.69975  -0.34337   0.63871
  -0.69975  -0.34337   0.87813
  -0.93917  -0.34337   0.87813
  -0.69975  -0.10395   0.63871
  -0.93917  -0.10395   0.63871
  -0.69975  -0.10395   0.63871
  -0.69975   0.13547   0.63871
  -0.93917  -0.10395   0.63871
  -0.69975  -0.10395   0.87813
  -0.69975  -0.10395   0.63871
  -0.69975  -0.10395   0.87813
  -0.69975   0.13547   0.63871
  -0.46033   0.13547   0.63871
  -0.69975  -0.10395   0.15987
  -0.46033  -0.10395   0.39929
  -0.46033  -0.10395   0.39929
  -0.46033  -0.10395   0.39929
  -0.46033  -0.10395   0.39929
  -0.22091  -0.10395   0.39929
  -0.22091  -0.10395   0.39929
  -0.22091  -0.34337   0.39929
  -0.22091  -0.34337   0.39929
  -0.22091  -0.34337   0.39929
  -0.22091  -0.34337   0.39929
  -0.22091  -0.58279   0.15987
   0.01851  -0.34337   0.15987
   0.01851  -0.10395   0.15987
  -0.22091  -0.10395   0.15987
   0.01851  -0.10395   0.15987
   0.01851  -0.10395  -0.07955
   0.01851  -0.10395  -0.07955
   0.01851  -0.10395  -0.31897
   0.25793   0.13547  -0.07955
   0.25793  -0.10395  -0.55839
   0.25793   0.13547  -0.55839
   0.25793   0.13547  -0.55839
   0.49735   0.13547  -0.79781
   0.49735   0.37489  -0.55839
   0.49735   0.13547  -1.03723
   0.73677   0.13547  -1.03723
   0.73677   0.13547  -1.03723
   0.97619   0.13547  -1.03723
   0.97619   0.13547  -1.03723
   0.97619  -0.10395  -1.27665
   1.21561   0.13547  -1.27665
   1.21561  -0.10395  -1.03723
   1.45503   0.13547  -1.27665
   1.45503   0.13547  -1.27665
   1.45503   0.13547  -1.27665
   1.69445   0.13547  -1.27665
   1.45503  -0.10395  -1.51607
   1.45503   0.13547  -1.51607
   1.69445   0.13547  -1.51607
   1.21561  -0.10395  -1.51607
   1.45503  -0.10395  -1.51607
   1.21561  -0.10395  -1.51607
   1.21561   0.13547  -1.51607
   1.21561   0.13547  -1.51607
   1.21561   0.13547  -1.51607
   0.97619   0.13547  -1.51607
   0.97619  -0.10395  -1.51607
   0.49735   0.13547  -1.51607
   0.73677   0.13547  -1.51607
   0.49735   0.13547  -1.51607
   0.49735   0.13547  -1.51607
   0.25793   0.13547  -1.27665
   0.25793   0.13547  -1.27665
   0.01851   0.13547  -1.27665
  -0.22091   0.37489  -1.27665
  -0.22091   0.13547  -1.03723
  -0.69975   0.37489  -1.27665
  -0.69975   0.37489  -1.03723
  -0.69975   0.37489  -1.03723
  -0.93917   0.37489  -1.03723
  -1.17859   0.13547  -1.27665
  -1.17859   0.13547  -0.79781
  -1.17859   0.13547  -0.79781
  -1.41801   0.13547  -0.55839
  -1.65743   0.13547  -0.55839
  -1.65743   0.13547  -0.55839
  -1.65743   0.13547  -0.31897
  -1.89685   0.13547  -0.31897
  -1.89685  -0.10395  -0.31897
  -1.89685  -0.10395  -0.31897
  -1.89685  -0.34337  -0.07955
  -2.13627  -0.10395  -0.07955
  -2.13627  -0.34337  -0.07955
  -2.13627  -0.34337  -0.07955
  -2.13627  -0.34337  -0.07955
  -2.13627  -0.34337   0.15987
  -2.13627  -0.34337   0.15987
  -2.13627  -0.34337   0.15987
  -2.13627  -0.58279   0.39929
  -2.13627  -0.58279   0.39929
  -2.37569  -0.58279   0.39929
  -2.13627  -0.58279   0.63871
  -2.37569  -0.58279   0.39929
  -2.13627  -0.58279   0.63871
  -1.89685  -0.58279   0.63871
  -1.89685  -0.58279   0.63871
  -2.13627  -0.34337   0.63871
  -1.89685  -0.58279   0.87813
