********************************************************************************
              CENTRO DE INSTRUMENTACION Y REGISTRO SISMICO  A.C.

    Anaxagoras 814, Col. Narvarte, Benito Juarez, C.P. 03020 Mexico, D.F.
           Tels. 5687 45 42/ 5687 45  82             Fax. 5669 25 12
********************************************************************************
ARCHIVO ESTANDAR DE ACELERACION:
VERSION DEL FORMATO                    : 2.0
NOMBRE DEL ARCHIVO                     : BA4920170923125259
FECHA Y HORA DE CREACION               : 25/SEP/17, 12:55
REF. CATALOGO ACELEROGRAMAS, SMIS 1996 : REGISTRO No.     /PAG.


================================================================================
DATOS DE LA ESTACION:
NOMBRE DE LA ESTACION                  : BUENOS AIRES
CLAVE DE LA ESTACION                   : BA49
LOCALIZACION DE LA ESTACION            : Del. Cuauhtémoc, Col. Doctores,        
                                       : Av. Lázaro Cárdenas esq. con           
                                       : Calle Dr. Márquez.                     
                                       :                                        
                                       : 
COORDENADAS DE LA ESTACION             : 19.4097 LAT. N
                                       : 99.1450 LONG. W
ALTITUD (msnm)                         : 2233
TIPO DE SUELO                          : Terreno blando, material compresible
                                       : (arcillas)                
                                       : 
INSTITUCION RESPONSABLE                : CIRES
                                       : 

================================================================================
DATOS DEL ACELEROGRAFO:
MODELO DEL ACELEROGRAFO                : RADESD
NUMERO DE SERIE DEL ACELEROGRAFO       : 176
NUMERO DE CANALES                      : 3
ORIENTACION C1-C6 (rumbo;orientacion)  : /S00E/+V/N90W
ORIENTACION C7-C12 (rumbo;orientacion) : 
VEL. DE MUESTREO, C1-C6 (muestras/s)   : /100/100/100
VEL. DE MUESTREO, C7-C12 (muestras/s)  : 
ESC. COMPLETA DE SENSORES, C1-C6, (g)  : /0.5/0.5/0.5
ESC. COMPLETA DE SENSORES, C7-C12, (g) : 
FREC. NAT. DE SENSORES, C1-C6, (Hz)    : /52.99/52.03/52.99
FREC. NAT. DE SENSORES, C7-C12, (Hz)   : 
AMORTIGUAMIENTO DE SENSORES, C1-C6     : /0.5589/0.5469/0.6096
AMORTIGUAMIENTO DE SENSORES, C7-C12    : 
INTERVALO DE MUESTREO, C1-C6, (s)      : /0.01/0.01/0.01
INTERVALO DE MUESTREO, C7-C12, (s)     : 
UMBRAL DE DISPARO, C1-C6, (Gal)        : /0.96/1.92/0.96
UMBRAL DE DISPARO, C7-C12, (Gal)       : 
MEMORIA DE PREEVENTO (s)               : 44.0
TIEMPO DE POSEVENTO (s)                : 105.0


================================================================================
DATOS DEL SISMO:
FECHA DEL SISMO (GMT)                  : 23/SEP/17
HORA EPICENTRO (GMT)                   : 12:52:59.0
MAGNITUD(ES)                           : /Mc=6.1
COORDENADAS DEL EPICENTRO              : 16.48 LAT. N
                                       : 94.90 LONG. W
PROFUNDIDAD FOCAL (km)                 : 75
FUENTE DE LOS DATOS EPICENTRALES       : SSN
                                       : INSTITUTO DE GEOFISICA, UNAM

================================================================================
DATOS DE ESTE REGISTRO:
HORA DE LA PRIMERA MUESTRA (GMT)       : 12:55:38.00
EXACTITUD DEL TIEMPO (s)               : 0.01
DURACION DEL REGISTRO (s), C1-C6       : /245.0/245.0/245.0
DURACION DEL REGISTRO (s), C7-C12      : 
NUM. TOTAL DE MUESTRAS, C1-C6          : /24500/24500/24500
NUM. TOTAL DE MUESTRAS, C7-C12         : 
ACEL. MAX. (Gal), C1-C6                : /2.93297/0.87379/2.87566
ACEL. MAX., C1-C6, EN LA MUESTRA       : /9451/6768/6124
ACEL. MAX. (Gal), C7-C12               : 
ACEL. MAX., C7-C12, EN LA MUESTRA      : 
UNIDADES DE LOS DATOS                  : Gal (cm/s/s)
FACTOR DE DECIMACION                   : 1
FORMATO DATOS (FORTRAN,10 campos/dato) : 3F10.5


================================================================================
CALIDAD DEL ACELEROGRAMA:
REGISTRO DIGITAL COMPLETO CON TIEMPO ABSOLUTO CORRECTO.


================================================================================
COMENTARIOS:














================================================================================
DATOS DE ACELERACION:
---------+---------+---------+---------+---------+---------+---------+---------+
   CANAL-1   CANAL-2   CANAL-3   CANAL-4   CANAL-5   CANAL-6   CANAL-7   CANAL-8
      S00E        +V      N90W
---------+---------+---------+---------+---------+---------+---------+---------+
[...]
  -1.00250  -0.03582   0.95507
  -0.98754  -0.05078   0.85032
  -0.97258   0.03900   0.74557
  -1.01747   0.00907   0.73061
  -0.97258   0.00907   0.55104
  -1.00250   0.00907   0.52112
  -0.97258   0.00907   0.46126
  -0.97258   0.02403   0.32659
  -0.92768  -0.00589   0.25177
  -0.92768   0.03900   0.20688
  -0.91272   0.03900   0.08717
  -0.95761   0.05396   0.04228
  -0.91272   0.02403   0.02731
  -0.94265   0.00907  -0.15225
  -0.89776   0.02403  -0.16722
  -0.91272   0.12878  -0.19714
  -0.88279   0.02403  -0.28693
  -0.91272   0.00907  -0.28693
  -0.94265   0.05396  -0.37671
  -0.88279   0.02403  -0.39167
  -0.89776   0.08389  -0.51138
  -0.83790   0.02403  -0.46649
  -0.83790   0.02403  -0.55627
  -0.91272   0.02403  -0.67598
  -0.88279   0.09885  -0.69095
  -0.82294   0.03900  -0.72088
  -0.91272   0.02403  -0.79569
  -0.80797   0.02403  -0.70591
  -0.85287  -0.06575  -0.88548
  -0.88279   0.03900  -0.99022
  -0.82294   0.05396  -0.91540
  -0.82294   0.05396  -1.00519
  -0.88279  -0.03582  -1.00519
  -0.74812  -0.00589  -0.99022
  -0.77805  -0.08071  -1.16979
  -0.79301   0.05396  -1.18475
  -0.71819  -0.08071  -1.16979
  -0.73316   0.05396  -1.28950
  -0.71819  -0.02086  -1.31943
  -0.73316  -0.00589  -1.31943
  -0.77805  -0.06575  -1.36432
  -0.68826   0.02403  -1.39425
  -0.59848  -0.06575  -1.43914
  -0.59848  -0.06575  -1.48403
  -0.61345  -0.06575  -1.63367
  -0.55359  -0.09568  -1.63367
  -0.55359  -0.03582  -1.64863
  -0.47877  -0.08071  -1.57381
  -0.40395  -0.14057  -1.66359
  -0.37402  -0.06575  -1.70848
  -0.38899  -0.03582  -1.69352
  -0.37402  -0.03582  -1.76834
  -0.31417  -0.00589  -1.78330
  -0.29921   0.00907  -1.87309
  -0.29921  -0.08071  -1.91798
  -0.14957  -0.06575  -1.82819
  -0.10468  -0.06575  -1.90301
  -0.08971   0.02403  -1.94790
  -0.04482  -0.15553  -2.02272
  -0.02986  -0.00589  -2.18732
   0.03000   0.02403  -2.09754
   0.10482  -0.03582  -2.08258
   0.22453  -0.11064  -2.14243
   0.23949   0.00907  -2.18732
   0.29934  -0.02086  -2.23222
   0.37416  -0.05078  -2.29207
   0.32927  -0.08071  -2.24718
   0.41905  -0.00589  -2.36689
   0.56869   0.00907  -2.38185
   0.43402  -0.05078  -2.41178
   0.47891  -0.00589  -2.41178
   0.58366  -0.00589  -2.36689
   0.58366  -0.03582  -2.41178
   0.59862  -0.02086  -2.42674
   0.70337  -0.00589  -2.35193
   0.83804   0.09885  -2.32200
   0.80811   0.09885  -2.39682
   0.86797  -0.00589  -2.39682
   0.82308   0.03900  -2.47164
   0.83804   0.03900  -2.44171
   0.80811   0.05396  -2.35193
   0.88293   0.17367  -2.36689
   0.91286   0.08389  -2.32200
   0.89789   0.09885  -2.29207
   0.85300   0.08389  -2.30703
   0.89789   0.06893  -2.24718
   0.88293   0.12878  -2.20229
   0.88293   0.06893  -2.20229
   0.88293   0.27842  -2.26214
   0.89789   0.27842  -2.09754
   0.94279   0.14374  -2.02272
   0.88293   0.26346  -2.03769
   0.86797   0.26346  -1.94790
   0.91286   0.23353  -2.00776
   0.82308   0.17367  -1.94790
   0.79315   0.09885  -1.87309
   0.82308   0.12878  -1.82819
   0.79315   0.09885  -1.75338
   0.85300   0.03900  -1.63367
   1.01760   0.12878  -1.51396
   0.91286   0.08389  -1.49899
   0.92782   0.08389  -1.46906
   0.89789   0.03900  -1.45410
   0.89789   0.02403  -1.28950
   0.88293   0.00907  -1.22964
   0.89789  -0.05078  -1.15482
   0.88293   0.05396  -1.10993
   0.89789  -0.05078  -1.00519
   0.92782  -0.00589  -0.90044
   0.91286  -0.06575  -0.75080
   0.91286  -0.03582  -0.73584
   0.94279  -0.00589  -0.60117
   0.97271  -0.08071  -0.52635
   0.91286  -0.02086  -0.34678
   0.97271  -0.03582  -0.30189
   0.97271  -0.09568  -0.19714
   0.94279  -0.06575  -0.10736
   0.97271  -0.06575   0.07220
   1.00264  -0.15553   0.16199
   1.01760  -0.11064   0.26673
   1.04753  -0.11064   0.37148
   1.06250  -0.12560   0.41637
   1.06250  -0.12560   0.50615
   1.09242  -0.11064   0.68572
   1.12235  -0.15553   0.80543
   1.13731  -0.12560   0.88025
   1.10739  -0.12560   0.92514
   1.15228  -0.12560   1.07478
   1.16724  -0.17049   1.13463
   1.21213  -0.15553   1.25434
   1.21213  -0.14057   1.29923
   1.21213  -0.15553   1.40398
   1.21213  -0.17049   1.49376
   1.18221  -0.17049   1.50872
   1.22710  -0.14057   1.58354
   1.22710  -0.12560   1.67333
   1.22710  -0.17049   1.74814
   1.21213  -0.17049   1.85289
   1.27199  -0.20042   1.86785
   1.21213  -0.12560   1.91275
   1.19717  -0.14057   1.97260
   1.19717  -0.09568   2.03246
   1.19717  -0.11064   2.06238
   1.19717  -0.08071   2.10727
   1.16724  -0.06575   2.16713
   1.16724  -0.08071   2.21202
   1.12235  -0.05078   2.24195
   1.15228  -0.08071   2.25691
   1.12235  -0.05078   2.27188
   1.15228  -0.05078   2.30180
   1.15228  -0.05078   2.30180
   1.12235  -0.02086   2.30180
   1.10739   0.02403   2.25691
   1.06250   0.00907   2.28684
   1.07746   0.05396   2.25691
   1.03257   0.05396   2.30180
   1.06250  -0.00589   2.24195
   1.04753   0.03900   2.24195
   1.00264   0.05396   2.22698
   0.98768   0.06893   2.19706
   1.01760  -0.00589   2.13720
   0.95775   0.00907   2.12224
   1.00264   0.06893   2.10727
   0.98768   0.03900   2.07735
   0.92782   0.02403   2.03246
   0.89789   0.03900   2.00253
   0.94279   0.03900   1.89778
   0.86797   0.05396   1.91275
   0.88293   0.08389   1.86785
   0.83804   0.05396   1.80800
   0.79315   0.11382   1.74814
   0.73329   0.08389   1.71822
   0.74826   0.11382   1.64340
   0.70337   0.08389   1.62843
   0.68840   0.08389   1.53865
   0.64351   0.11382   1.55362
   0.61358   0.06893   1.52369
   0.52380   0.08389   1.40398
   0.49387   0.05396   1.41894
   0.43402   0.12878   1.29923
   0.40409   0.09885   1.32916
   0.32927   0.12878   1.23938
   0.31431   0.05396   1.26930
   0.23949   0.08389   1.17952
   0.17963   0.08389   1.11967
   0.13474   0.08389   1.05981
   0.07489   0.14374   1.04485
  -0.01489   0.11382   1.01492
  -0.08971   0.14374   0.91017
  -0.19446   0.08389   0.89521
  -0.26928   0.15871   0.85032
  -0.31417   0.08389   0.80543
  -0.41892   0.11382   0.80543
  -0.43388   0.06893   0.68572
  -0.50870   0.08389   0.62586
  -0.58352   0.02403   0.68572
  -0.65834  -0.00589   0.55104
  -0.74812   0.00907   0.56601
  -0.82294   0.02403   0.53608
  -0.85287  -0.02086   0.50615
  -0.98754  -0.02086   0.44630
  -1.06236  -0.08071   0.43133
  -1.10725  -0.06575   0.38644
  -1.19703  -0.05078   0.38644
  -1.27185  -0.06575   0.32659
  -1.36163  -0.05078   0.32659
  -1.40652  -0.08071   0.31162
  -1.46638  -0.09568   0.28170
  -1.55616  -0.08071   0.25177
  -1.61602  -0.06575   0.25177
  -1.67587  -0.09568   0.22184
  -1.67587  -0.15553   0.20688
  -1.75069  -0.14057   0.20688
  -1.82551  -0.12560   0.17695
  -1.87040  -0.12560   0.11709
  -1.91529  -0.14057   0.07220
  -1.99011  -0.14057   0.17695
  -1.97515  -0.09568   0.16199
  -2.04997  -0.23035   0.01235
  -2.12478  -0.15553   0.05724
  -2.09486  -0.14057   0.07220
  -2.15471  -0.12560  -0.03254
  -2.28939  -0.23035  -0.00262
  -2.16968  -0.18546   0.04228
  -2.16968  -0.12560   0.02731
  -2.18464  -0.20042  -0.07743
  -2.21457  -0.29020  -0.04751
  -2.22953  -0.24531  -0.09240
  -2.22953  -0.21539  -0.12233
  -2.25946  -0.05078  -0.13729
  -2.22953  -0.11064  -0.10736
  -2.19960  -0.11064  -0.10736
  -2.24450  -0.15553  -0.19714
  -2.15471  -0.15553  -0.12233
  -2.19960  -0.24531  -0.18218
  -2.21457  -0.17049  -0.28693
  -2.21457  -0.05078  -0.31685
  -2.19960  -0.14057  -0.39167
  -2.15471  -0.09568  -0.21211
  -2.12478  -0.09568  -0.22707
  -2.15471  -0.03582  -0.25700
  -2.09486  -0.05078  -0.31685
  -2.03500  -0.06575  -0.37671
  -2.06493  -0.05078  -0.36175
  -2.02004  -0.05078  -0.28693
  -1.96018   0.00907  -0.31685
  -1.99011   0.00907  -0.42160
  -2.03500  -0.06575  -0.45153
  -2.03500   0.11382  -0.54131
  -1.94522  -0.00589  -0.40664
  -2.00507   0.15871  -0.51138
  -1.96018   0.18864  -0.57124
  -1.88536   0.17367  -0.63109
  -1.94522   0.14374  -0.63109
  -1.87040   0.17367  -0.55627
  -1.85544   0.15871  -0.67598
  -1.87040   0.15871  -0.81066
  -1.87040   0.20360  -0.82562
  -1.82551   0.35324  -0.75080
  -1.73573   0.14374  -0.70591
  -1.78062   0.27842  -0.75080
  -1.69084   0.24849  -0.78073
  -1.66091   0.20360  -0.87051
  -1.72076   0.17367  -0.87051
  -1.70580   0.14374  -0.85555
  -1.58609   0.21856  -0.94533
  -1.45142   0.23353  -0.94533
  -1.45142   0.29338  -0.91540
  -1.37660   0.21856  -0.96030
  -1.34667   0.24849  -1.02015
  -1.31674   0.20360  -1.00519
  -1.28681   0.23353  -1.05008
  -1.21200   0.20360  -1.00519
  -1.18207   0.21856  -1.08001
  -1.13718   0.21856  -1.10993
  -1.04739   0.20360  -1.15482
  -0.94265   0.17367  -1.16979
  -0.83790   0.12878  -1.19972
  -0.86783   0.14374  -1.21468
  -0.82294   0.08389  -1.22964
  -0.68826   0.03900  -1.19972
  -0.64337  -0.03582  -1.24461
  -0.56855   0.03900  -1.15482
  -0.55359   0.15871  -1.30446
  -0.47877  -0.02086  -1.39425
  -0.37402  -0.18546  -1.21468
  -0.29921  -0.14057  -1.24461
  -0.22439  -0.03582  -1.24461
  -0.11964   0.00907  -1.18475
  -0.01489  -0.00589  -1.15482
   0.07489  -0.05078  -1.05008
   0.10482  -0.03582  -1.08001
   0.07489  -0.09568  -1.15482
   0.17963  -0.12560  -1.16979
   0.17963  -0.15553  -1.10993
   0.32927  -0.11064  -1.13986
   0.55373  -0.00589  -1.06504
   0.61358  -0.09568  -0.96030
   0.71833  -0.09568  -0.94533
   0.76322   0.02403  -0.91540
   0.79315  -0.06575  -1.02015
   0.94279  -0.03582  -0.88548
   1.01760  -0.06575  -0.82562
   1.06250  -0.00589  -0.90044
   1.16724  -0.03582  -0.78073
   1.22710  -0.09568  -0.82562
   1.33184  -0.06575  -0.76577
   1.42163  -0.11064  -0.76577
   1.49645  -0.05078  -0.72088
   1.55630  -0.09568  -0.66102
   1.67601  -0.05078  -0.63109
   1.69097  -0.12560  -0.69095
   1.76579  -0.00589  -0.64606
   1.88550  -0.03582  -0.60117
   1.96032  -0.05078  -0.52635
   1.99025  -0.00589  -0.57124
   2.08003   0.00907  -0.55627
   2.10996  -0.00589  -0.49642
   2.13989  -0.03582  -0.49642
   2.22967   0.02403  -0.40664
   2.25960  -0.02086  -0.40664
   2.34938  -0.02086  -0.42160
   2.33442  -0.02086  -0.40664
   2.40923  -0.00589  -0.37671
   2.45413   0.00907  -0.31685
   2.51398   0.00907  -0.37671
   2.52894  -0.02086  -0.28693
   2.60376   0.02403  -0.30189
   2.64865   0.03900  -0.25700
   2.66362   0.11382  -0.27196
   2.67858   0.05396  -0.28693
   2.67858   0.11382  -0.22707
   2.70851   0.08389  -0.24204
   2.75340   0.05396  -0.16722
   2.73844   0.08389  -0.12233
   2.79829   0.02403  -0.15225
   2.79829   0.12878  -0.18218
   2.82822   0.09885  -0.10736
   2.87311   0.08389  -0.18218
   2.88807   0.05396  -0.15225
   2.85815   0.08389  -0.13729
   2.85815   0.11382  -0.15225
   2.90304   0.08389  -0.10736
   2.90304   0.14374  -0.15225
   2.91800   0.09885  -0.12233
   2.91800   0.09885  -0.07743
   2.93297   0.03900  -0.03254
   2.90304   0.06893  -0.07743
   2.88807   0.03900  -0.03254
   2.84318   0.09885  -0.04751
   2.82822   0.03900  -0.00262
   2.81326   0.08389  -0.00262
   2.75340   0.11382   0.01235
   2.75340   0.14374   0.01235
   2.76836   0.09885   0.02731
   2.67858   0.11382  -0.00262
   2.64865   0.12878   0.08717
   2.54391   0.12878   0.08717
   2.48405   0.11382   0.07220
   2.45413   0.11382   0.07220
   2.39427   0.11382   0.13206
   2.31945   0.17367   0.07220
   2.25960   0.11382   0.08717
   2.19974   0.08389   0.10213
   2.09500   0.06893   0.14702
   2.02018   0.08389   0.16199
   1.96032   0.06893   0.14702
   1.87054   0.08389   0.17695
   1.76579   0.06893   0.19191
   1.70594   0.09885   0.14702
   1.64608   0.11382   0.22184
   1.57126   0.05396   0.19191
   1.43659   0.02403   0.19191
   1.39170   0.00907   0.16199
   1.28695   0.05396   0.19191
   1.21213   0.00907   0.19191
   1.18221  -0.02086   0.22184
   1.10739  -0.00589   0.26673
   0.97271  -0.02086   0.26673
   0.89789  -0.02086   0.22184
   0.82308  -0.06575   0.28170
   0.71833  -0.06575   0.22184
   0.59862  -0.02086   0.23680
   0.53876  -0.08071   0.26673
   0.47891  -0.08071   0.28170
   0.37416  -0.14057   0.26673
   0.29934  -0.03582   0.25177
   0.22453  -0.09568   0.28170
   0.19460  -0.06575   0.28170
   0.10482  -0.08071   0.32659
   0.04496  -0.12560   0.31162
  -0.04482  -0.15553   0.34155
  -0.07475  -0.12560   0.31162
  -0.10468  -0.17049   0.34155
  -0.17950  -0.15553   0.31162
  -0.23935  -0.18546   0.37148
  -0.31417  -0.17049   0.34155
  -0.38899  -0.15553   0.37148
  -0.41892  -0.21539   0.35651
  -0.44884  -0.14057   0.40141
  -0.47877  -0.14057   0.46126
  -0.56855  -0.14057   0.35651
  -0.56855  -0.14057   0.41637
  -0.67330  -0.17049   0.44630
  -0.67330  -0.12560   0.38644
  -0.74812  -0.14057   0.43133
  -0.74812  -0.17049   0.40141
  -0.80797  -0.12560   0.43133
  -0.86783  -0.11064   0.46126
  -0.91272  -0.11064   0.43133
  -0.95761  -0.12560   0.44630
  -0.97258  -0.15553   0.50615
  -1.00250  -0.09568   0.43133
  -1.04739  -0.11064   0.53608
  -1.15214  -0.08071   0.50615
  -1.15214  -0.05078   0.43133
  -1.18207  -0.05078   0.37148
  -1.18207  -0.06575   0.56601
  -1.28681  -0.05078   0.52112
  -1.33171  -0.00589   0.52112
  -1.33171  -0.05078   0.53608
  -1.45142  -0.06575   0.56601
  -1.42149  -0.06575   0.56601
  -1.49631  -0.00589   0.52112
  -1.46638  -0.05078   0.52112
  -1.57113  -0.00589   0.53608
  -1.58609  -0.02086   0.58097
  -1.70580   0.09885   0.32659
  -1.72076  -0.00589   0.46126
  -1.72076  -0.00589   0.56601
  -1.79558   0.02403   0.55104
  -1.81055   0.05396   0.47623
  -1.85544   0.05396   0.58097
  -1.93026   0.03900   0.49119
  -1.97515   0.11382   0.50615
  -2.02004   0.15871   0.46126
  -2.03500   0.08389   0.43133
  -2.13975   0.05396   0.41637
  -2.15471   0.09885   0.47623
  -2.19960   0.05396   0.41637
  -2.27442   0.08389   0.32659
  -2.28939   0.08389   0.35651
  -2.31931   0.09885   0.34155
  -2.36421   0.17367   0.32659
  -2.39413   0.08389   0.31162
  -2.37917   0.08389   0.35651
  -2.48392   0.03900   0.23680
  -2.52881   0.06893   0.16199
  -2.55873   0.12878   0.14702
  -2.64852   0.02403   0.10213
  -2.64852   0.02403   0.13206
  -2.63355   0.09885   0.11709
  -2.70837   0.00907  -0.03254
  -2.69341   0.00907   0.02731
  -2.72334   0.11382  -0.01758
  -2.79815  -0.00589  -0.09240
  -2.69341  -0.02086  -0.04751
  -2.75326  -0.05078  -0.04751
  -2.78319  -0.05078  -0.12233
  -2.76823  -0.18546  -0.18218
  -2.79815  -0.20042  -0.16722
  -2.81312  -0.20042  -0.25700
  -2.81312  -0.26028  -0.30189
  -2.78319  -0.30517  -0.27196
  -2.82808  -0.12560  -0.37671
  -2.78319  -0.24531  -0.37671
  -2.79815  -0.32013  -0.33182
  -2.78319  -0.17049  -0.37671
  -2.75326  -0.17049  -0.25700
  -2.70837  -0.27524  -0.22707
  -2.70837  -0.17049  -0.28693
  -2.67844  -0.23035  -0.28693
  -2.58866  -0.20042  -0.30189
  -2.63355  -0.24531  -0.31685
  -2.67844  -0.26028  -0.19714
  -2.46895  -0.29020  -0.16722
  -2.51384  -0.29020  -0.13729
  -2.54377  -0.29020  -0.21211
  -2.45399  -0.20042  -0.15225
  -2.40910  -0.14057  -0.15225
  -2.37917  -0.15553  -0.09240
  -2.24450  -0.23035  -0.06247
  -2.19960  -0.09568  -0.13729
  -2.13975  -0.27524  -0.06247
  -2.07989  -0.18546  -0.16722
  -1.96018  -0.23035   0.01235
  -1.84047  -0.09568   0.04228
  -1.78062  -0.17049   0.10213
  -1.72076  -0.18546   0.02731
  -1.66091  -0.06575   0.05724
  -1.54120  -0.24531   0.16199
  -1.42149  -0.06575   0.16199
  -1.30178  -0.03582   0.25177
  -1.27185  -0.08071   0.25177
  -1.16710  -0.15553   0.17695
  -1.04739   0.06893   0.16199
