********************************************************************************
               CENTRO DE INSTRUMENTACION Y REGISTRO SISMICO  A.C.  
                       Coordinacion de Servicios Tecnicos
     Anaxagoras 814, Col. Narvarte, Benito Juarez, C.P. 03020 Mexico, D.F.
            Tels. 667 45 42/ 687 45  82             Fax. 669 25 12
********************************************************************************
ARCHIVO ESTANDAR DE ACELERACION:
VERSION DEL FORMATO                    : 2.0
NOMBRE DEL ARCHIVO                     : BA490401.012
FECHA Y HORA DE CREACION               : 27/OCT/04, 12:05
REF. CATALOGO ACELEROGRAMAS, SMIS 1996 : REGISTRO No.     /PAG.


================================================================================
DATOS DE LA ESTACION:
NOMBRE DE LA ESTACION                  : BUENOS AIRES
CLAVE DE LA ESTACION                   : BA49
LOCALIZACION DE LA ESTACION            : ESCUELA SECUNDARIA 102, DOCTOR MARQUEZ
                                       : Y EJE CENTRAL, BUENOS AIRES.
                                       :
                                       :
                                       :
COORDENADAS DE LA ESTACION             : 19.410 LAT. N 
                                       : 99.145 LONG. W 
ALTITUD (msnm)                         : 2233
TIPO DE SUELO                          : TERRENO BLANDO, MATERIAL COMPRESIBLE
                                       : (ARCILLAS)
                                       : 
INSTITUCION RESPONSABLE                : CIRES 
                                       :

================================================================================
DATOS DEL ACELEROGRAFO:
MODELO DEL ACELEROGRAFO                : SSA-1
NUMERO DE SERIE DEL ACELEROGRAFO       : 176
NUMERO DE CANALES                      : 3
ORIENTACION C1-C6 (rumbo;orientacion)  : /N00E/+V/N90E
ORIENTACION C7-C12 (rumbo;orientacion) :
VEL. DE MUESTREO, C1-C6 (muestras/s)   : /200/200/200
VEL. DE MUESTREO, C7-C12 (muestras/s)  :
ESC. COMPLETA DE SENSORES, C1-C6, (g)  : /2/2/2
ESC. COMPLETA DE SENSORES, C7-C12, (g) :
FREC. NAT. DE SENSORES, C1-C6, (Hz)    : /52.99/52.03/52.99
FREC. NAT. DE SENSORES, C7-C12, (Hz)   :
AMORTIGUAMIENTO DE SENSORES, C1-C6     : /.5589/.5469/.6096
AMORTIGUAMIENTO DE SENSORES, C7-C12    :
INTERVALO DE MUESTREO, C1-C6, (s)      : /0.005/0.005/0.005
INTERVALO DE MUESTREO, C7-C12, (s)     :
UMBRAL DE DISPARO, C1-C6, (Gal)        : /2/2/2
UMBRAL DE DISPARO, C7-C12, (Gal)       :
MEMORIA DE PREEVENTO (s)               : 15
TIEMPO DE POSEVENTO (s)                : 60


================================================================================
DATOS DEL SISMO:
FECHA DEL SISMO (GMT)                  : 01/ENE/04
HORA EPICENTRO (GMT)                   : 23:57:56,0
MAGNITUD(ES)                           : /Mc=5.8
COORDENADAS DEL EPICENTRO              : 16.97 LAT. N
                                       : 98.97 LONG. W
PROFUNDIDAD FOCAL (km)                 : 10
FUENTE DE LOS DATOS EPICENTRALES       : SSN
                                       : INSTITUTO DE GEOFISICA, UNAM 

================================================================================
DATOS DE ESTE REGISTRO:
HORA DE LA PRIMERA MUESTRA (GMT)       : 23:59:37.00
EXACTITUD DEL TIEMPO (s)               :     
DURACION DEL REGISTRO (s), C1-C6       : /160.00/160.00/160.00
DURACION DEL REGISTRO (s), C7-C12      :
NUM. TOTAL DE MUESTRAS, C1-C6          : /32000/32000/32000
NUM. TOTAL DE MUESTRAS, C7-C12         :
ACEL. MAX. (Gal), C1-C6                : /-4.17512/1.36602/-3.82041
ACEL. MAX., C1-C6, EN LA MUESTRA       :
ACEL. MAX. (Gal), C7-C12               :
ACEL. MAX., C7-C12, EN LA MUESTRA      :
UNIDADES DE LOS DATOS                  : Gal (cm/s/s)
FACTOR DE DECIMACION                   : 1
FORMATO DATOS (FORTRAN,10 campos/dato) : 3F10.5


================================================================================
CALIDAD DEL ACELEROGRAMA:
REGISTRO DIGITAL COMPLETO, CARECE DE TIEMPO ABSOLUTO.


================================================================================
COMENTARIOS:














================================================================================
DATOS DE ACELERACION:
---------+---------+---------+---------+---------+---------+---------+---------+
   CANAL-1   CANAL-2   CANAL-3   CANAL-4   CANAL-5   CANAL-6   CANAL-7   CANAL-8
      N00E        +V      N90E
---------+---------+---------+---------+---------+---------+---------+---------+
[...]
  -0.10512  -0.07398   0.49959
  -0.10512  -0.07398   0.49959
  -0.10512  -0.07398   0.25959
  -0.10512  -0.07398   0.25959
   0.13488  -0.07398   0.25959
   0.13488  -0.07398   0.25959
   0.13488  -0.07398   0.25959
   0.13488  -0.07398   0.25959
   0.13488  -0.07398   0.25959
   0.37488  -0.07398   0.25959
   0.37488  -0.07398   0.25959
   0.37488  -0.07398   0.01959
   0.37488  -0.07398   0.01959
   0.37488  -0.07398   0.01959
   0.37488  -0.07398   0.01959
   0.61488   0.16602   0.01959
   0.61488  -0.07398   0.01959
   0.61488  -0.07398   0.01959
   0.61488  -0.07398   0.01959
   0.61488  -0.07398   0.01959
   0.85488  -0.07398   0.01959
   0.85488  -0.07398   0.01959
   0.85488  -0.07398   0.01959
   0.85488  -0.07398   0.01959
   0.85488  -0.07398   0.01959
   1.09488  -0.30398   0.01959
   1.09488  -0.07398   0.01959
   1.09488  -0.30398   0.01959
   1.09488  -0.07398  -0.22041
   1.09488  -0.07398   0.01959
   1.09488  -0.30398   0.01959
   1.33488  -0.30398  -0.22041
   1.33488  -0.30398   0.01959
   1.33488  -0.30398   0.01959
   1.33488  -0.30398  -0.22041
   1.33488  -0.30398  -0.22041
   1.57488  -0.07398  -0.22041
   1.57488  -0.07398  -0.22041
   1.57488  -0.30398  -0.22041
   1.57488  -0.30398  -0.22041
   1.57488  -0.07398  -0.22041
   1.57488  -0.30398  -0.22041
   1.57488  -0.07398  -0.22041
   1.81488  -0.30398  -0.22041
   1.81488  -0.54398  -0.22041
   1.81488  -0.30398  -0.46041
   1.81488  -0.07398  -0.46041
   1.81488  -0.30398  -0.46041
   1.81488  -0.30398  -0.46041
   1.81488  -0.30398  -0.46041
   1.81488  -0.30398  -0.46041
   1.81488  -0.30398  -0.46041
   1.81488  -0.30398  -0.46041
   2.05488  -0.30398  -0.46041
   2.05488  -0.30398  -0.46041
   2.05488  -0.30398  -0.70041
   2.05488  -0.30398  -0.70041
   2.05488  -0.30398  -0.70041
   2.05488  -0.30398  -0.70041
   2.05488  -0.30398  -0.70041
   2.05488  -0.30398  -0.70041
   2.05488  -0.30398  -0.70041
   2.05488  -0.30398  -0.70041
   2.05488  -0.30398  -0.70041
   2.05488  -0.30398  -0.70041
   2.05488  -0.30398  -0.70041
   2.05488  -0.07398  -0.94041
   2.05488  -0.30398  -0.94041
   2.05488  -0.30398  -0.94041
   2.05488  -0.30398  -0.94041
   2.05488  -0.30398  -0.94041
   2.05488  -0.07398  -0.94041
   2.05488  -0.07398  -0.94041
   2.05488  -0.07398  -1.18041
   2.05488  -0.07398  -0.94041
   2.05488  -0.07398  -0.94041
   2.05488  -0.07398  -0.94041
   2.05488  -0.07398  -0.94041
   2.05488  -0.07398  -0.94041
   2.05488  -0.07398  -0.94041
   2.05488  -0.07398  -0.94041
   2.05488  -0.07398  -0.94041
   2.05488  -0.07398  -0.94041
   2.05488  -0.07398  -0.94041
   2.05488  -0.07398  -0.94041
   2.05488  -0.07398  -0.94041
   2.05488   0.16602  -0.94041
   2.05488   0.16602  -0.94041
   2.05488   0.16602  -0.94041
   2.05488  -0.07398  -0.94041
   2.05488   0.16602  -1.18041
   2.05488  -0.07398  -0.94041
   2.05488   0.16602  -1.18041
   1.81488   0.16602  -0.94041
   1.81488   0.16602  -0.94041
   1.81488   0.16602  -1.18041
   1.81488   0.16602  -1.18041
   1.81488   0.16602  -1.18041
   1.81488   0.16602  -1.18041
   1.81488   0.40602  -1.18041
   1.81488   0.40602  -1.18041
   1.81488   0.16602  -1.18041
   1.81488   0.40602  -1.18041
   1.81488   0.40602  -1.18041
   1.57488   0.40602  -1.18041
   1.81488   0.40602  -1.18041
   1.57488   0.40602  -1.18041
   1.57488   0.40602  -1.18041
   1.57488   0.40602  -1.18041
   1.57488   0.40602  -1.18041
   1.57488   0.40602  -1.18041
   1.33488   0.64602  -1.18041
   1.33488   0.40602  -1.42041
   1.33488   0.64602  -1.42041
   1.33488   0.64602  -1.42041
   1.33488   0.64602  -1.42041
   1.33488   0.64602  -1.42041
   1.09488   0.64602  -1.42041
   1.09488   0.88602  -1.42041
   1.09488   0.88602  -1.42041
   1.09488   0.88602  -1.42041
   0.85488   0.64602  -1.42041
   0.85488   0.88602  -1.42041
   0.85488   0.88602  -1.42041
   0.85488   0.88602  -1.42041
   0.85488   0.88602  -1.42041
   0.85488   0.88602  -1.42041
   0.85488   0.88602  -1.42041
   0.61488   0.88602  -1.42041
   0.61488   0.88602  -1.42041
   0.61488   0.64602  -1.42041
   0.61488   0.88602  -1.42041
   0.61488   0.88602  -1.66041
   0.61488   0.88602  -1.42041
   0.61488   0.88602  -1.42041
   0.37488   0.64602  -1.66041
   0.61488   0.88602  -1.42041
   0.61488   0.88602  -1.66041
   0.37488   0.88602  -1.66041
   0.37488   0.64602  -1.66041
   0.61488   0.64602  -1.66041
   0.37488   0.64602  -1.66041
   0.61488   0.64602  -1.42041
   0.61488   0.64602  -1.42041
   0.61488   0.64602  -1.42041
   0.61488   0.88602  -1.42041
   0.61488   0.64602  -1.42041
   0.61488   0.64602  -1.42041
   0.61488   0.64602  -1.42041
   0.61488   0.64602  -1.42041
   0.61488   0.64602  -1.42041
   0.61488   0.64602  -1.42041
   0.85488   0.40602  -1.42041
   0.61488   0.64602  -1.42041
   0.85488   0.64602  -1.42041
   0.85488   0.40602  -1.42041
   0.85488   0.40602  -1.42041
   0.85488   0.40602  -1.66041
   0.85488   0.40602  -1.66041
   0.85488   0.40602  -1.42041
   1.09488   0.40602  -1.42041
   1.09488   0.40602  -1.42041
   1.09488   0.40602  -1.42041
   1.09488   0.40602  -1.42041
   1.09488   0.40602  -1.42041
   1.33488   0.40602  -1.66041
   1.33488   0.16602  -1.66041
   1.33488   0.40602  -1.42041
   1.33488   0.16602  -1.42041
   1.33488   0.40602  -1.42041
   1.33488   0.16602  -1.66041
   1.33488   0.16602  -1.66041
   1.57488   0.16602  -1.66041
   1.57488   0.16602  -1.66041
   1.57488   0.16602  -1.66041
   1.57488   0.16602  -1.42041
   1.57488   0.16602  -1.42041
   1.57488   0.16602  -1.42041
   1.57488  -0.07398  -1.42041
   1.57488   0.16602  -1.42041
   1.81488   0.16602  -1.66041
   1.81488  -0.07398  -1.42041
   1.81488  -0.07398  -1.42041
   1.81488  -0.07398  -1.42041
   1.81488   0.16602  -1.42041
   1.81488   0.16602  -1.42041
   1.81488  -0.07398  -1.42041
   1.81488   0.16602  -1.42041
   1.81488   0.16602  -1.42041
   1.81488   0.16602  -1.42041
   1.81488  -0.07398  -1.42041
   1.81488  -0.07398  -1.42041
   1.81488  -0.07398  -1.42041
   1.81488  -0.07398  -1.42041
   1.81488  -0.07398  -1.42041
   1.81488  -0.07398  -1.42041
   1.81488  -0.30398  -1.42041
   1.81488  -0.07398  -1.42041
   1.81488  -0.07398  -1.18041
   1.81488  -0.07398  -1.18041
   1.81488  -0.30398  -1.18041
   1.81488  -0.30398  -1.18041
   1.81488  -0.30398  -1.42041
   1.81488  -0.30398  -1.18041
   1.81488  -0.30398  -1.18041
   1.81488  -0.30398  -0.94041
   1.81488  -0.54398  -1.18041
   1.81488  -0.30398  -1.18041
   1.81488  -0.54398  -1.18041
   1.81488  -0.54398  -1.18041
   1.81488  -0.54398  -1.18041
   1.81488  -0.54398  -1.18041
   1.81488  -0.54398  -1.18041
   1.81488  -0.54398  -0.94041
   1.81488  -0.54398  -0.94041
   1.81488  -0.54398  -0.94041
   2.05488  -0.54398  -0.94041
   1.81488  -0.54398  -0.94041
   1.81488  -0.54398  -0.94041
   1.81488  -0.54398  -0.94041
   2.05488  -0.54398  -0.94041
   2.05488  -0.54398  -0.94041
   2.05488  -0.78398  -0.94041
   2.05488  -0.78398  -0.94041
   2.05488  -0.54398  -0.94041
   2.05488  -0.54398  -0.94041
   2.05488  -0.78398  -0.94041
   2.05488  -0.54398  -0.94041
   2.05488  -0.54398  -0.94041
   2.05488  -0.54398  -0.94041
   2.05488  -0.54398  -0.94041
   2.05488  -0.54398  -0.94041
   2.05488  -0.78398  -0.94041
   2.05488  -0.54398  -0.94041
   2.05488  -0.54398  -0.94041
   2.05488  -0.78398  -0.94041
   2.05488  -0.54398  -0.94041
   2.05488  -0.54398  -0.94041
   2.05488  -0.54398  -0.94041
   1.81488  -0.54398  -0.94041
   1.81488  -0.54398  -0.94041
   1.81488  -0.54398  -0.94041
   1.81488  -0.54398  -0.94041
   1.81488  -0.54398  -0.94041
   1.81488  -0.54398  -0.94041
   1.81488  -0.30398  -0.94041
   1.81488  -0.30398  -1.18041
   1.81488  -0.30398  -0.94041
   1.81488  -0.30398  -0.94041
   1.81488  -0.54398  -0.94041
   1.81488  -0.30398  -0.94041
   1.57488  -0.30398  -0.94041
   1.57488  -0.30398  -0.94041
   1.57488  -0.07398  -0.94041
   1.57488  -0.07398  -0.94041
   1.57488  -0.30398  -0.94041
   1.57488  -0.07398  -0.94041
   1.57488  -0.07398  -0.94041
   1.57488  -0.30398  -0.94041
   1.33488  -0.07398  -0.94041
   1.33488  -0.07398  -0.94041
   1.33488  -0.07398  -0.94041
   1.33488  -0.07398  -0.94041
   1.33488   0.16602  -0.70041
   1.33488   0.16602  -0.70041
   1.33488   0.16602  -0.70041
   1.09488   0.16602  -0.70041
   1.09488   0.16602  -0.70041
   1.09488   0.16602  -0.70041
   1.09488   0.16602  -0.70041
   1.09488   0.16602  -0.70041
   0.85488   0.16602  -0.46041
   0.85488   0.40602  -0.46041
   0.85488   0.40602  -0.22041
   0.85488   0.40602  -0.46041
   0.85488   0.40602  -0.46041
   0.85488   0.40602  -0.46041
   0.61488   0.40602  -0.46041
   0.61488   0.40602  -0.46041
   0.61488   0.40602  -0.22041
   0.61488   0.40602  -0.22041
   0.61488   0.40602  -0.22041
   0.61488   0.40602  -0.22041
   0.37488   0.40602  -0.22041
   0.37488   0.40602  -0.22041
   0.37488   0.40602  -0.22041
   0.37488   0.64602   0.01959
   0.13488   0.40602   0.01959
   0.13488   0.40602   0.01959
   0.13488   0.40602   0.01959
   0.13488   0.40602   0.01959
  -0.10512   0.40602   0.01959
  -0.10512   0.40602   0.01959
  -0.10512   0.40602   0.25959
  -0.10512   0.64602   0.01959
  -0.34512   0.64602   0.25959
  -0.34512   0.64602   0.25959
  -0.34512   0.40602   0.25959
  -0.58512   0.40602   0.25959
  -0.58512   0.40602   0.25959
  -0.58512   0.40602   0.25959
  -0.82512   0.40602   0.25959
  -0.82512   0.40602   0.25959
  -0.82512   0.64602   0.25959
  -1.06512   0.40602   0.25959
  -1.06512   0.64602   0.25959
  -1.06512   0.40602   0.49959
  -1.30512   0.40602   0.49959
  -1.30512   0.40602   0.49959
  -1.30512   0.40602   0.49959
  -1.54512   0.64602   0.49959
  -1.54512   0.40602   0.49959
  -1.54512   0.40602   0.49959
  -1.78512   0.40602   0.49959
  -1.78512   0.40602   0.49959
  -2.02512   0.40602   0.49959
  -2.02512   0.64602   0.72959
  -2.26512   0.40602   0.49959
  -2.26512   0.40602   0.72959
  -2.26512   0.40602   0.72959
  -2.26512   0.40602   0.72959
  -2.50512   0.40602   0.72959
  -2.50512   0.40602   0.72959
  -2.50512   0.16602   0.72959
  -2.74512   0.16602   0.72959
  -2.74512   0.40602   0.72959
  -2.74512   0.16602   0.72959
  -2.97512   0.40602   0.72959
  -2.97512   0.16602   0.96959
  -2.97512   0.16602   0.96959
  -2.97512   0.16602   0.96959
  -3.21512  -0.07398   0.96959
  -3.21512  -0.07398   0.72959
  -3.21512   0.16602   0.96959
  -3.45512   0.16602   0.96959
  -3.45512   0.16602   0.96959
  -3.45512  -0.07398   0.96959
  -3.45512  -0.07398   0.96959
  -3.45512   0.16602   0.96959
  -3.69512  -0.07398   0.96959
  -3.69512   0.16602   0.96959
  -3.93512  -0.07398   0.96959
  -3.93512  -0.07398   0.96959
  -3.93512  -0.07398   1.20959
  -3.93512  -0.07398   1.20959
  -3.93512  -0.07398   1.20959
  -3.93512  -0.07398   1.20959
  -3.93512  -0.07398   1.20959
  -4.17512  -0.07398   1.20959
  -3.93512  -0.30398   1.20959
  -3.93512  -0.30398   1.20959
  -4.17512  -0.30398   1.20959
  -3.93512  -0.30398   1.20959
  -4.17512  -0.30398   1.20959
  -4.17512  -0.30398   1.20959
  -4.17512  -0.30398   1.20959
  -4.17512  -0.54398   1.20959
  -4.17512  -0.54398   1.20959
  -4.17512  -0.54398   1.20959
  -4.17512  -0.30398   1.20959
  -4.17512  -0.30398   1.20959
  -4.17512  -0.30398   1.20959
  -4.17512  -0.54398   1.20959
  -3.93512  -0.54398   1.20959
  -3.93512  -0.54398   1.20959
  -3.93512  -0.78398   1.20959
  -3.93512  -0.54398   1.20959
  -3.93512  -0.54398   1.20959
  -3.93512  -0.54398   1.20959
  -3.69512  -0.54398   1.20959
  -3.69512  -0.54398   1.20959
  -3.69512  -0.54398   1.20959
  -3.69512  -0.54398   1.20959
  -3.45512  -0.54398   1.20959
  -3.45512  -0.54398   1.20959
  -3.45512  -0.78398   1.20959
  -3.45512  -0.78398   1.20959
  -3.21512  -0.54398   1.44959
  -3.21512  -0.78398   1.20959
  -3.21512  -0.78398   1.20959
  -2.97512  -0.78398   1.44959
  -2.97512  -0.54398   1.44959
  -2.97512  -0.78398   1.44959
  -2.74512  -0.78398   1.44959
  -2.74512  -1.02398   1.44959
  -2.50512  -0.78398   1.44959
  -2.50512  -0.78398   1.44959
  -2.26512  -0.78398   1.20959
  -2.26512  -1.02398   1.44959
  -2.02512  -1.02398   1.44959
  -2.02512  -0.78398   1.44959
  -2.02512  -0.78398   1.44959
  -1.78512  -1.02398   1.20959
  -1.78512  -1.02398   1.44959
  -1.54512  -0.78398   1.44959
  -1.54512  -1.02398   1.20959
  -1.30512  -0.78398   1.44959
  -1.30512  -1.02398   1.20959
  -1.30512  -0.78398   1.20959
  -1.06512  -1.02398   1.44959
  -1.06512  -0.78398   1.44959
  -0.82512  -1.02398   1.20959
  -0.82512  -0.78398   1.44959
  -0.82512  -1.02398   1.44959
  -0.58512  -0.78398   1.20959
  -0.58512  -1.02398   1.20959
  -0.34512  -0.78398   1.44959
  -0.34512  -1.02398   1.20959
  -0.34512  -0.78398   1.20959
  -0.10512  -0.78398   1.20959
  -0.10512  -0.78398   1.20959
  -0.10512  -0.78398   1.20959
  -0.10512  -0.78398   1.20959
   0.13488  -0.54398   1.20959
   0.13488  -0.78398   1.20959
   0.13488  -0.78398   1.20959
   0.37488  -0.54398   1.20959
   0.37488  -0.54398   1.20959
   0.37488  -0.54398   1.20959
   0.37488  -0.54398   1.20959
   0.37488  -0.54398   1.20959
   0.61488  -0.54398   1.20959
   0.61488  -0.54398   1.20959
   0.61488  -0.30398   0.96959
   0.61488  -0.30398   0.96959
   0.61488  -0.30398   0.96959
   0.61488  -0.30398   0.96959
   0.85488  -0.07398   0.96959
   0.85488  -0.30398   0.96959
   0.85488  -0.07398   0.96959
   0.85488  -0.07398   0.96959
   0.85488  -0.07398   0.72959
   0.85488  -0.07398   0.72959
   0.85488   0.16602   0.96959
   0.85488   0.16602   0.96959
   0.85488   0.16602   0.96959
   0.85488   0.16602   0.96959
   0.85488   0.16602   0.96959
   0.85488   0.16602   0.96959
   0.85488   0.40602   0.96959
   0.85488   0.40602   0.72959
   0.85488   0.40602   0.72959
   0.85488   0.40602   0.72959
   0.85488   0.40602   0.72959
   0.61488   0.40602   0.72959
   0.85488   0.40602   0.72959
   0.61488   0.40602   0.96959
   0.61488   0.64602   0.72959
   0.61488   0.64602   0.72959
   0.61488   0.64602   0.72959
   0.37488   0.64602   0.96959
   0.61488   0.64602   0.72959
   0.37488   0.64602   0.72959
   0.37488   0.64602   0.72959
   0.37488   0.88602   0.72959
   0.37488   0.88602   0.72959
   0.37488   0.88602   0.72959
   0.13488   0.88602   0.72959
   0.13488   0.88602   0.72959
   0.13488   1.12602   0.72959
   0.13488   0.88602   0.72959
   0.13488   0.88602   0.72959
  -0.10512   1.12602   0.72959
  -0.10512   1.12602   0.49959
  -0.10512   1.12602   0.49959
  -0.10512   1.12602   0.72959
  -0.10512   1.12602   0.49959
  -0.10512   1.12602   0.72959
  -0.34512   1.12602   0.72959
  -0.34512   1.12602   0.72959
  -0.34512   1.12602   0.72959
  -0.34512   1.12602   0.72959
  -0.34512   1.12602   0.72959
  -0.58512   1.12602   0.72959
  -0.58512   1.36602   0.72959
  -0.58512   1.12602   0.49959
  -0.58512   1.36602   0.49959
  -0.58512   1.12602   0.49959
  -0.58512   1.36602   0.49959
  -0.58512   1.36602   0.49959
  -0.58512   1.36602   0.49959
  -0.82512   1.36602   0.49959
  -0.82512   1.36602   0.49959
  -0.82512   1.36602   0.49959
  -0.82512   1.12602   0.49959
  -0.82512   1.12602   0.49959
  -0.82512   1.36602   0.49959
  -0.82512   1.36602   0.49959
  -0.82512   1.12602   0.49959
  -0.82512   1.12602   0.25959
  -0.82512   1.12602   0.49959
  -0.82512   1.12602   0.49959
  -1.06512   1.12602   0.49959
  -1.06512   1.12602   0.25959
  -1.06512   1.12602   0.49959
  -1.06512   1.12602   0.49959
  -1.06512   0.88602   0.25959
  -1.06512   1.12602   0.49959
  -1.06512   1.12602   0.49959
