********************************************************************************
               CENTRO DE INSTRUMENTACION Y REGISTRO SISMICO  A.C.  
                       Coordinacion de Servicios Tecnicos
     Anaxagoras 814, Col. Narvarte, Benito Juarez, C.P. 03020 Mexico, D.F.
            Tels. 667 45 42/ 687 45  82             Fax. 669 25 12
********************************************************************************
ARCHIVO ESTANDAR DE ACELERACION:
VERSION DEL FORMATO                    : 2.0
NOMBRE DEL ARCHIVO                     : BA499909.301
FECHA Y HORA DE CREACION               : 31/ENERO/2000, 10:10
REF. CATALOGO ACELEROGRAMAS, SMIS 1996 : REGISTRO No.     /PAG.


================================================================================
DATOS DE LA ESTACION:
NOMBRE DE LA ESTACION                  : BUENOS AIRES
CLAVE DE LA ESTACION                   : BA49
LOCALIZACION DE LA ESTACION            : ESCUELA SECUNDARIA 102, DOCTOR MARQUEZ
                                       : Y EJE CENTRAL, BUENOS AIRES.
                                       :
                                       :
                                       :
COORDENADAS DE LA ESTACION             : 19.410 LAT. N 
                                       : 99.145 LONG. W 
ALTITUD (msnm)                         : 2233
TIPO DE SUELO                          : TERRENO BLANDO, MATERIAL COMPRESIBLE
                                       : (ARCILLAS)
                                       : 
INSTITUCION RESPONSABLE                : CIRES 
                                       :

================================================================================
DATOS DEL ACELEROGRAFO:
MODELO DEL ACELEROGRAFO                : SSA-1
NUMERO DE SERIE DEL ACELEROGRAFO       : 176
NUMERO DE CANALES                      : 3
ORIENTACION C1-C6 (rumbo;orientacion)  : /N00E/+V/N90E
ORIENTACION C7-C12 (rumbo;orientacion) :
VEL. DE MUESTREO, C1-C6 (muestras/s)   : /200/200/200
VEL. DE MUESTREO, C7-C12 (muestras/s)  :
ESC. COMPLETA DE SENSORES, C1-C6, (g)  : /2/2/2
ESC. COMPLETA DE SENSORES, C7-C12, (g) :
FREC. NAT. DE SENSORES, C1-C6, (Hz)    : /52.99/52.03/52.99
FREC. NAT. DE SENSORES, C7-C12, (Hz)   :
AMORTIGUAMIENTO DE SENSORES, C1-C6     : /.5589/.5469/.6096
AMORTIGUAMIENTO DE SENSORES, C7-C12    :
INTERVALO DE MUESTREO, C1-C6, (s)      : /0.005/0.005/0.005
INTERVALO DE MUESTREO, C7-C12, (s)     :
UMBRAL DE DISPARO, C1-C6, (Gal)        : /2/2/2
UMBRAL DE DISPARO, C7-C12, (Gal)       :
MEMORIA DE PREEVENTO (s)               : 15
TIEMPO DE POSEVENTO (s)                : 60


================================================================================
DATOS DEL SISMO:
FECHA DEL SISMO (GMT)                  : 30/SEP/99
HORA EPICENTRO (GMT)                   : 16:31:14.8
MAGNITUD(ES)                           : /Mb=6.5/Ms=7.5/Mc=5.2/Ma=7.1/Me=7.6
COORDENADAS DEL EPICENTRO              : 15.95 LAT. N
                                       : 97.03 LONG. W
PROFUNDIDAD FOCAL (km)                 : 16.0
FUENTE DE LOS DATOS EPICENTRALES       : SSN
                                       : INSTITUTO DE GEOFISICA, UNAM

================================================================================
DATOS DE ESTE REGISTRO:
HORA DE LA PRIMERA MUESTRA (GMT)       : 16:32:37.00
EXACTITUD DEL TIEMPO (s)               :     
DURACION DEL REGISTRO (s), C1-C6       : /396.80/396.80/396.80
DURACION DEL REGISTRO (s), C7-C12      :
NUM. TOTAL DE MUESTRAS, C1-C6          : /79360/79360/79360
NUM. TOTAL DE MUESTRAS, C7-C12         :
ACEL. MAX. (Gal), C1-C6                : /38.89179/8.32521/43.03999
ACEL. MAX., C1-C6, EN LA MUESTRA       :
ACEL. MAX. (Gal), C7-C12               :
ACEL. MAX., C7-C12, EN LA MUESTRA      :
UNIDADES DE LOS DATOS                  : Gal (cm/s/s)
FACTOR DE DECIMACION                   : 1
FORMATO DATOS (FORTRAN,10 campos/dato) : 3F10.5


================================================================================
CALIDAD DEL ACELEROGRAMA:
REGISTRO DIGITAL COMPLETO, CARECE DE TIEMPO ABSOLUTO.


================================================================================
COMENTARIOS:














================================================================================
DATOS DE ACELERACION:
---------+---------+---------+---------+---------+---------+---------+---------+
   CANAL-1   CANAL-2   CANAL-3   CANAL-4   CANAL-5   CANAL-6   CANAL-7   CANAL-8
      N00E        +V      N90E
---------+---------+---------+---------+---------+---------+---------+---------+
[...]
   1.09821   1.61521  18.52001
   1.33821   1.61521  18.99001
   1.57821   1.61521  19.47001
   1.57821   2.09521  20.19001
   1.81821   2.09521  20.67001
   2.05821   2.33521  21.15001
   2.05821   2.33521  21.63001
   2.29821   2.33521  22.11001
   2.53821   2.33521  22.59001
   2.53821   2.33521  23.07001
   2.77821   2.33521  23.78001
   2.77821   2.33521  24.26001
   2.77821   2.57521  24.74001
   2.77821   2.57521  25.22001
   2.77821   2.57521  25.46001
   2.77821   2.57521  25.94001
   2.77821   2.33521  26.18001
   2.77821   2.57521  26.42001
   2.77821   2.57521  26.90001
   2.77821   2.57521  27.14001
   3.01821   2.57521  27.62001
   3.01821   2.33521  27.86001
   3.01821   2.33521  28.34001
   2.77821   2.33521  28.81001
   2.77821   2.33521  29.05001
   2.77821   2.09521  29.29001
   2.53821   2.09521  29.53001
   2.53821   2.09521  29.77001
   2.53821   2.09521  30.01001
   2.53821   2.09521  30.25001
   2.29821   2.09521  30.49001
   2.29821   2.09521  30.73001
   2.29821   2.09521  30.97001
   2.05821   1.85521  31.21001
   2.05821   1.85521  31.45001
   2.05821   1.85521  31.69001
   2.05821   1.61521  31.93001
   2.05821   1.61521  31.93001
   1.81821   1.37521  32.17001
   1.81821   1.37521  32.41001
   1.57821   1.14521  32.65001
   1.57821   0.90521  32.65001
   1.57821   0.90521  32.65001
   1.33821   1.14521  32.89001
   1.33821   0.90521  33.13001
   1.09821   0.90521  33.13001
   1.09821   0.66521  33.36001
   1.09821   0.66521  33.60001
   0.85821   0.42521  33.60001
   0.85821   0.42521  33.84001
   0.85821   0.42521  34.08001
   0.61821   0.42521  34.32001
   0.61821   0.18521  34.32001
   0.37821   0.18521  34.56001
   0.37821   0.18521  34.56001
   0.37821   0.18521  34.80001
   0.37821  -0.05479  34.80001
   0.37821  -0.05479  34.80001
   0.37821  -0.29479  34.80001
   0.13821  -0.29479  35.04001
   0.13821  -0.53479  35.28001
   0.13821  -0.29479  35.28001
   0.13821  -0.53479  35.52001
  -0.10179  -0.29479  35.52001
  -0.10179  -0.29479  35.52001
  -0.10179  -0.53479  35.76001
  -0.10179  -0.53479  35.76001
  -0.10179  -0.53479  35.76001
  -0.10179  -0.53479  35.76001
  -0.10179  -0.53479  36.00001
  -0.10179  -0.53479  36.00001
  -0.10179  -0.53479  36.00001
  -0.10179  -0.53479  36.00001
   0.13821  -0.53479  36.24001
   0.13821  -0.53479  36.24001
   0.13821  -0.53479  36.48001
   0.13821  -0.53479  36.48001
   0.13821  -0.29479  36.48001
   0.13821  -0.53479  36.48001
   0.37821  -0.53479  36.72001
   0.37821  -0.53479  36.72001
   0.37821  -0.53479  36.72001
   0.61821  -0.53479  36.72001
   0.61821  -0.29479  36.96001
   0.85821  -0.29479  36.96001
   0.61821  -0.29479  36.96001
   0.85821  -0.29479  37.20001
   1.09821  -0.29479  37.20001
   1.09821  -0.29479  37.20001
   1.09821  -0.53479  37.44001
   1.09821  -0.53479  37.44001
   1.33821  -0.53479  37.44001
   1.33821  -0.77479  37.68001
   1.57821  -0.53479  37.68001
   1.57821  -0.77479  37.68001
   1.81821  -0.53479  37.68001
   2.05821  -0.77479  37.68001
   2.29821  -0.77479  37.68001
   2.29821  -0.77479  37.68001
   2.29821  -1.01479  37.68001
   2.53821  -1.25479  37.68001
   2.77821  -1.25479  37.68001
   2.77821  -1.25479  37.68001
   3.01821  -1.49479  37.68001
   3.01821  -1.49479  37.44001
   3.01821  -1.49479  37.44001
   3.25821  -1.73479  37.44001
   3.25821  -1.73479  37.20001
   3.49821  -1.73479  37.44001
   3.73821  -1.73479  37.20001
   3.97821  -1.97479  37.20001
   3.97821  -1.97479  37.20001
   4.21821  -1.97479  36.96001
   4.45821  -1.97479  36.96001
   4.45821  -2.21479  36.72001
   4.68821  -2.45479  36.72001
   4.68821  -2.45479  36.48001
   4.68821  -2.21479  36.24001
   4.68821  -2.45479  36.24001
   4.68821  -2.45479  36.00001
   4.68821  -2.45479  36.00001
   4.68821  -2.45479  35.76001
   4.92821  -2.45479  35.52001
   4.92821  -2.45479  35.52001
   5.16821  -2.21479  35.28001
   5.16821  -2.45479  35.04001
   5.40821  -2.45479  34.80001
   5.64821  -2.21479  34.56001
   5.64821  -2.45479  34.32001
   6.12821  -2.21479  34.08001
   6.12821  -2.21479  34.08001
   6.36821  -2.45479  33.84001
   6.60821  -2.21479  33.60001
   6.84821  -2.21479  33.36001
   7.08821  -2.21479  33.13001
   7.08821  -1.97479  32.89001
   7.32821  -1.97479  32.65001
   7.32821  -1.97479  32.17001
   7.32821  -1.73479  31.93001
   7.32821  -1.49479  31.69001
   7.56821  -1.49479  31.21001
   7.56821  -1.25479  30.97001
   7.80821  -1.01479  30.49001
   7.80821  -1.01479  30.25001
   8.04821  -1.01479  30.01001
   8.52821  -1.01479  29.77001
   8.76821  -1.25479  29.53001
   9.00821  -1.25479  29.05001
   9.24821  -1.25479  28.81001
   9.47821  -1.25479  28.34001
   9.71821  -1.25479  28.10001
   9.71821  -1.25479  27.62001
   9.95821  -1.25479  27.38001
  10.19821  -1.25479  26.90001
  10.19821  -1.01479  26.42001
  10.43821  -0.77479  25.94001
  10.43821  -0.77479  25.46001
  10.67821  -0.53479  24.98001
  10.91821  -0.53479  24.74001
  10.91821  -0.53479  24.26001
  11.15821  -0.53479  23.78001
  11.39821  -0.29479  23.31001
  11.63821  -0.29479  22.83001
  11.87821  -0.05479  22.35001
  12.11821  -0.29479  21.87001
  12.11821  -0.05479  21.39001
  12.35821  -0.05479  20.91001
  12.59821  -0.29479  20.43001
  12.83821  -0.29479  19.71001
  13.07821  -0.05479  19.23001
  13.31821  -0.05479  18.76001
  13.55821  -0.29479  18.04001
  13.79821  -0.53479  17.56001
  13.79821  -0.53479  17.08001
  14.03821  -0.29479  16.60001
  14.26821  -0.53479  16.12001
  14.50821  -0.29479  15.40001
  14.74821  -0.53479  14.92001
  14.98821  -0.53479  14.44001
  14.98821  -0.53479  13.97001
  15.22821  -0.53479  13.49001
  15.46821  -0.53479  13.01001
  15.70821  -0.53479  12.53001
  15.94821  -0.53479  12.05001
  16.42821  -0.53479  11.57001
  16.66821  -0.53479  11.09001
  16.66821  -0.53479  10.61001
  16.90821  -0.53479  10.13001
  17.14821  -0.53479   9.65001
  17.38821  -0.53479   9.18001
  17.62821  -0.53479   8.46001
  17.86821  -0.53479   7.98001
  18.10821  -0.29479   7.50001
  18.34821  -0.29479   7.02001
  18.58821  -0.29479   6.54001
  18.82821  -0.29479   6.30001
  19.05821  -0.53479   5.82001
  19.53821  -0.53479   5.58001
  19.77821  -0.53479   5.34001
  20.01821  -0.77479   5.10001
  20.25821  -0.53479   4.86001
  20.25821  -0.29479   4.39001
  20.49821  -0.05479   4.15001
  20.49821   0.18521   3.67001
  20.49821   0.18521   3.19001
  20.73821   0.18521   2.71001
  20.97821   0.18521   2.47001
  20.73821  -0.05479   2.47001
  20.73821  -0.29479   2.47001
  20.73821  -0.29479   2.71001
  20.73821  -0.05479   2.71001
  20.97821  -0.05479   2.47001
  20.97821   0.18521   2.47001
  21.21821   0.66521   2.23001
  21.21821   0.66521   1.99001
  21.21821   0.66521   1.75001
  21.21821   0.66521   1.51001
  21.21821   0.66521   1.27001
  20.97821   0.66521   1.03001
  20.97821   0.66521   0.79001
  20.97821   0.66521   0.55001
  20.73821   0.66521   0.31001
  20.73821   0.66521   0.07001
  20.73821   0.66521   0.07001
  20.49821   0.90521  -0.16999
  20.25821   0.90521  -0.39999
  20.25821   0.90521  -0.63999
  19.77821   0.90521  -0.63999
  19.53821   1.14521  -0.87999
  19.05821   0.90521  -1.11999
  18.82821   1.14521  -1.35999
  18.58821   1.37521  -1.59999
  18.34821   1.14521  -1.59999
  17.86821   1.37521  -1.83999
  17.62821   1.37521  -2.07999
  17.14821   1.37521  -2.31999
  16.90821   1.37521  -2.55999
  16.66821   1.37521  -2.79999
  16.18821   1.37521  -3.03999
  15.94821   1.37521  -3.51999
  15.46821   1.37521  -3.51999
  15.22821   1.61521  -3.75999
  14.74821   1.37521  -4.23999
  14.26821   1.61521  -4.47999
  13.79821   1.61521  -4.71999
  13.55821   1.61521  -5.19999
  13.07821   1.61521  -5.42999
  12.59821   1.61521  -5.66999
  12.11821   1.61521  -5.90999
  11.63821   1.61521  -6.14999
  11.15821   1.37521  -6.38999
  10.67821   1.37521  -6.86999
  10.19821   1.37521  -7.10999
   9.71821   1.37521  -7.58999
   9.00821   1.14521  -8.06999
   8.52821   1.14521  -8.30999
   8.04821   1.14521  -8.78999
   7.32821   1.14521  -9.26999
   7.08821   0.90521  -9.74999
   6.36821   0.90521 -10.21999
   5.88821   0.90521 -10.69999
   5.16821   0.90521 -10.93999
   4.68821   0.42521 -11.41999
   4.21821   0.42521 -11.89999
   3.49821   0.42521 -12.37999
   3.01821   0.18521 -12.61999
   2.29821   0.42521 -13.09999
   1.81821   0.18521 -13.57999
   1.33821  -0.05479 -14.05999
   0.85821  -0.05479 -14.29999
   0.13821  -0.05479 -15.00999
  -0.33179  -0.05479 -15.24999
  -0.81179  -0.29479 -15.72999
  -1.53179  -0.53479 -16.20999
  -2.01179  -0.53479 -16.68999
  -2.49179  -0.77479 -17.16999
  -2.97179  -0.77479 -17.64999
  -3.21179  -0.77479 -18.12999
  -3.69179  -0.77479 -18.60999
  -4.17179  -1.01479 -19.08999
  -4.41179  -1.01479 -19.56999
  -4.89179  -1.01479 -19.79999
  -5.36179  -1.25479 -20.27999
  -5.84179  -1.25479 -20.75999
  -6.32179  -1.25479 -21.23999
  -6.56179  -1.49479 -21.71999
  -7.04179  -1.25479 -22.19999
  -7.28179  -1.49479 -22.67999
  -7.52179  -1.49479 -23.15999
  -7.76179  -1.49479 -23.63999
  -8.24179  -1.49479 -24.11999
  -8.48179  -1.49479 -24.58999
  -8.72179  -1.49479 -25.06999
  -9.20179  -1.49479 -25.54999
  -9.44179  -1.73479 -26.02999
  -9.68179  -1.73479 -26.50999
 -10.15179  -1.97479 -26.98999
 -10.39179  -1.97479 -27.46999
 -10.87179  -2.21479 -27.94999
 -11.11179  -2.45479 -28.18999
 -11.35179  -2.45479 -28.66999
 -11.59179  -2.45479 -29.14999
 -11.83179  -2.69479 -29.37999
 -12.07179  -2.69479 -29.85999
 -12.07179  -2.93479 -30.09999
 -12.07179  -2.69479 -30.57999
 -12.31179  -2.93479 -31.05999
 -12.31179  -2.93479 -31.53999
 -12.55179  -3.17479 -32.01999
 -12.55179  -3.41479 -32.25999
 -12.79179  -3.17479 -32.73999
 -12.79179  -3.41479 -33.21999
 -12.79179  -3.65479 -33.45999
 -13.03179  -3.65479 -33.93999
 -13.03179  -3.65479 -34.16999
 -13.03179  -3.65479 -34.40999
 -13.03179  -3.65479 -34.88999
 -13.27179  -3.65479 -35.36999
 -13.27179  -3.65479 -35.60999
 -13.27179  -3.65479 -36.08999
 -13.03179  -3.65479 -36.32999
 -13.03179  -3.65479 -36.80999
 -13.03179  -3.41479 -37.04999
 -13.03179  -3.65479 -37.28999
 -13.03179  -3.41479 -37.76999
 -12.79179  -3.41479 -38.00999
 -12.79179  -3.41479 -38.48999
 -12.55179  -3.41479 -38.72999
 -12.55179  -3.41479 -39.19999
 -12.55179  -3.17479 -39.43999
 -12.55179  -3.17479 -39.67999
 -12.31179  -2.93479 -40.15999
 -12.31179  -2.93479 -40.39999
 -12.07179  -2.93479 -40.63999
 -12.07179  -2.69479 -40.63999
 -12.07179  -2.69479 -40.87999
 -11.83179  -2.45479 -41.11999
 -11.83179  -2.45479 -41.35999
 -11.59179  -2.21479 -41.59999
 -11.59179  -2.21479 -41.83999
 -11.59179  -1.97479 -42.07999
 -11.59179  -1.97479 -42.07999
 -11.59179  -1.97479 -42.31999
 -11.59179  -1.73479 -42.55999
 -11.59179  -1.73479 -42.55999
 -11.59179  -1.73479 -42.79999
 -11.59179  -1.73479 -42.79999
 -11.35179  -1.49479 -42.79999
 -11.35179  -1.49479 -43.03999
 -11.35179  -1.49479 -43.03999
 -11.35179  -1.49479 -43.03999
 -11.35179  -1.25479 -43.03999
 -11.35179  -1.25479 -42.79999
 -11.59179  -1.25479 -42.79999
 -11.59179  -1.01479 -42.79999
 -11.59179  -1.01479 -42.79999
 -11.59179  -0.77479 -42.79999
 -11.83179  -0.77479 -42.55999
 -11.83179  -0.53479 -42.55999
 -11.83179  -0.53479 -42.31999
 -11.83179  -0.29479 -42.31999
 -11.83179  -0.29479 -42.31999
 -11.59179  -0.29479 -42.07999
 -11.83179  -0.05479 -42.07999
 -11.83179  -0.05479 -41.83999
 -11.83179   0.18521 -41.59999
 -11.83179   0.18521 -41.35999
 -11.83179   0.42521 -41.11999
 -11.83179   0.42521 -40.87999
 -11.83179   0.66521 -40.87999
 -11.83179   0.66521 -40.63999
 -11.83179   0.66521 -40.39999
 -11.59179   0.90521 -40.15999
 -11.59179   0.90521 -39.67999
 -11.35179   0.90521 -39.43999
 -11.35179   0.90521 -39.19999
 -11.11179   0.90521 -38.95999
 -11.11179   0.90521 -38.72999
 -11.11179   0.90521 -38.24999
 -11.11179   0.66521 -37.76999
 -10.87179   0.90521 -37.52999
 -10.87179   0.90521 -37.28999
 -10.87179   0.66521 -36.80999
 -10.63179   0.66521 -36.56999
 -10.63179   0.66521 -36.32999
 -10.63179   0.90521 -36.08999
 -10.39179   0.66521 -35.60999
 -10.39179   0.66521 -35.36999
 -10.39179   0.66521 -34.88999
 -10.15179   0.42521 -34.64999
 -10.15179   0.18521 -34.16999
 -10.15179   0.18521 -33.69999
 -10.15179  -0.05479 -33.21999
  -9.92179  -0.05479 -32.97999
  -9.92179  -0.29479 -32.49999
  -9.92179  -0.29479 -32.25999
  -9.92179  -0.53479 -32.01999
  -9.68179  -0.53479 -31.53999
  -9.92179  -0.53479 -31.29999
  -9.68179  -0.53479 -30.81999
  -9.68179  -0.77479 -30.57999
  -9.44179  -0.77479 -30.33999
  -9.44179  -1.01479 -29.85999
  -9.20179  -1.01479 -29.37999
  -9.20179  -1.01479 -29.14999
  -8.96179  -1.25479 -28.66999
  -8.96179  -1.25479 -28.42999
  -8.72179  -1.49479 -27.94999
  -8.72179  -1.49479 -27.70999
  -8.72179  -1.73479 -27.22999
  -8.48179  -1.73479 -26.98999
  -8.48179  -1.73479 -26.74999
  -8.24179  -1.73479 -26.26999
  -8.24179  -1.73479 -26.02999
  -8.24179  -1.49479 -25.78999
  -8.24179  -1.49479 -25.30999
  -8.00179  -1.49479 -25.06999
  -8.00179  -1.49479 -24.58999
  -7.76179  -1.49479 -24.35999
  -7.76179  -1.49479 -23.87999
  -7.76179  -1.25479 -23.63999
  -7.52179  -1.49479 -23.39999
  -7.52179  -1.25479 -23.15999
  -7.52179  -1.25479 -22.67999
  -7.52179  -1.25479 -22.43999
  -7.52179  -1.01479 -21.95999
  -7.28179  -1.01479 -21.71999
  -7.28179  -1.01479 -21.47999
  -7.28179  -0.77479 -20.99999
  -7.28179  -0.77479 -20.99999
  -7.04179  -0.77479 -20.51999
  -7.04179  -0.53479 -20.27999
  -6.80179  -0.53479 -20.03999
  -6.80179  -0.53479 -19.56999
  -6.56179  -0.53479 -19.32999
  -6.56179  -0.29479 -19.08999
  -6.56179  -0.29479 -18.84999
  -6.56179  -0.29479 -18.36999
  -6.56179  -0.05479 -18.12999
  -6.32179  -0.05479 -17.88999
  -6.32179   0.18521 -17.40999
  -6.32179   0.18521 -16.92999
  -6.32179   0.42521 -16.68999
  -6.56179   0.42521 -16.20999
  -6.32179   0.42521 -15.96999
  -6.32179   0.42521 -15.48999
  -6.32179   0.66521 -15.24999
  -6.32179   0.66521 -14.77999
  -6.32179   0.90521 -14.29999
  -6.32179   0.90521 -13.81999
  -6.08179   0.90521 -13.33999
  -6.32179   1.14521 -13.09999
  -6.32179   1.37521 -12.37999
  -6.56179   1.37521 -11.89999
  -6.56179   1.37521 -11.41999
  -6.80179   1.61521 -10.93999
  -6.80179   1.61521 -10.45999
  -6.80179   1.85521  -9.74999
  -6.80179   1.85521  -9.26999
  -7.04179   1.85521  -8.54999
  -7.04179   2.09521  -8.06999
  -7.28179   2.33521  -7.58999
  -7.28179   2.33521  -6.86999
  -7.52179   2.57521  -6.14999
  -7.76179   2.57521  -5.42999
  -7.76179   2.81521  -4.71999
  -8.00179   3.05521  -3.99999
  -8.24179   3.05521  -3.51999
  -8.24179   2.81521  -2.79999
  -8.48179   3.05521  -2.07999
  -8.72179   3.29521  -1.35999
  -8.72179   3.29521  -0.63999
  -8.96179   3.53521   0.07001
  -9.20179   3.53521   0.79001
  -9.20179   3.77521   1.51001
  -9.44179   3.77521   2.23001
  -9.68179   3.77521   2.95001
  -9.92179   4.01521   3.67001
  -9.92179   4.25521   4.39001
 -10.15179   4.25521   5.10001
 -10.39179   4.49521   6.06001
 -10.39179   4.73521   6.78001
 -10.87179   4.73521   7.26001
 -10.87179   4.73521   7.98001
 -10.87179   4.97521   8.70001
 -11.11179   4.73521   9.41001
 -11.11179   4.97521  10.13001
 -11.35179   4.97521  10.61001
 -11.35179   4.97521  11.33001
 -11.35179   4.97521  11.81001
 -11.59179   5.21521  12.53001
 -11.59179   5.21521  13.01001
 -11.59179   5.21521  13.73001
 -11.83179   5.45521  14.20001
 -11.83179   5.45521  14.68001
 -11.83179   5.45521  15.16001
 -11.83179   5.69521  15.64001
 -11.83179   5.69521  15.88001
