********************************************************************************
               CENTRO DE INSTRUMENTACION Y REGISTRO SISMICO  A.C.  
                       Coordinacion de Servicios Tecnicos
     Anaxagoras 814, Col. Narvarte, Benito Juarez, C.P. 03020 Mexico, D.F.
            Tels. 667 45 42/ 687 45  82             Fax. 669 25 12
********************************************************************************
ARCHIVO ESTANDAR DE ACELERACION:
VERSION DEL FORMATO                    : 2.0
NOMBRE DEL ARCHIVO                     : BA499510.301
FECHA Y HORA DE CREACION               : 2/SEP/96
REF. CATALOGO ACELEROGRAMAS, SMIS 1996 : REGISTRO No.     /PAG.


================================================================================
DATOS DE LA ESTACION:
NOMBRE DE LA ESTACION                  : BUENOS AIRES
CLAVE DE LA ESTACION                   : BA49
LOCALIZACION DE LA ESTACION            : ESCUELA SECUNDARIA 102, DOCTOR MARQUEZ
                                       : Y EJE CENTRAL, BUENOS AIRES.
                                       :
                                       :
                                       :
COORDENADAS DE LA ESTACION             : 19.410 LAT. N 
                                       : 99.145 LONG. W 
ALTITUD (msnm)                         : 2233
TIPO DE SUELO                          : TERRENO BLANDO, MATERIAL COMPRESIBLE
                                       : (ARCILLAS)
                                       : 
INSTITUCION RESPONSABLE                : CIRES 
                                       :

================================================================================
DATOS DEL ACELEROGRAFO:
MODELO DEL ACELEROGRAFO                : SSA-1
NUMERO DE SERIE DEL ACELEROGRAFO       : 176
NUMERO DE CANALES                      : 3
ORIENTACION C1-C6 (rumbo;orientacion)  : /N00E/+V/N90E
ORIENTACION C7-C12 (rumbo;orientacion) :
VEL. DE MUESTREO, C1-C6 (muestras/s)   : /200/200/200
VEL. DE MUESTREO, C7-C12 (muestras/s)  :
ESC. COMPLETA DE SENSORES, C1-C6, (g)  : /2/2/2
ESC. COMPLETA DE SENSORES, C7-C12, (g) :
FREC. NAT. DE SENSORES, C1-C6, (Hz)    : /50/50/50
FREC. NAT. DE SENSORES, C7-C12, (Hz)   :
AMORTIGUAMIENTO DE SENSORES, C1-C6     : /0.700/0.700/0.700
AMORTIGUAMIENTO DE SENSORES, C7-C12    :
INTERVALO DE MUESTREO, C1-C6, (s)      : /0.005/0.005/.005
INTERVALO DE MUESTREO, C7-C12, (s)     :
UMBRAL DE DISPARO, C1-C6, (Gal)        : /2/2/2
UMBRAL DE DISPARO, C7-C12, (Gal)       :
MEMORIA DE PREEVENTO (s)               : 15
TIEMPO DE POSEVENTO (s)                : 60


================================================================================
DATOS DEL SISMO:
FECHA DEL SISMO (GMT)                  : 30/OCT/95
HORA EPICENTRO (GMT)                   : 14:47:56.6
MAGNITUD(ES)                           : /ME=5.5
COORDENADAS DEL EPICENTRO              : 16.35 LAT N
                                       : 98.50 LON W
PROFUNDIDAD FOCAL (km)                 : 27
FUENTE DE LOS DATOS EPICENTRALES       : SSN
                                       : INSTITUTO DE GEOFISICA, UNAM

================================================================================
DATOS DE ESTE REGISTRO:
HORA DE LA PRIMERA MUESTRA (GMT)       : 14:49:45.00
EXACTITUD DEL TIEMPO (s)               :     
DURACION DEL REGISTRO (s), C1-C6       : /85.76/85.76/85.76
DURACION DEL REGISTRO (s), C7-C12      :
NUM. TOTAL DE MUESTRAS, C1-C6          : /17152/17152/17152
NUM. TOTAL DE MUESTRAS, C7-C12         :
ACEL. MAX. (Gal), C1-C6                : /2.07554/2.17373/2.87404
ACEL. MAX., C1-C6, EN LA MUESTRA       :
ACEL. MAX. (Gal), C7-C12               :
ACEL. MAX., C7-C12, EN LA MUESTRA      :
UNIDADES DE LOS DATOS                  : Gal (cm/s/s)
FACTOR DE DECIMACION                   : 1
FORMATO DATOS (FORTRAN,10 campos/dato) : 3F10.5


================================================================================
CALIDAD DEL ACELEROGRAMA:
REGISTRO DIGITAL COMPLETO, CARECE DE TIEMPO ABSOLUTO.


================================================================================
COMENTARIOS:














================================================================================
DATOS DE ACELERACION:
---------+---------+---------+---------+---------+---------+---------+---------+
   CANAL-1   CANAL-2   CANAL-3   CANAL-4   CANAL-5   CANAL-6   CANAL-7   CANAL-8
      N00E        +V      N90E
---------+---------+---------+---------+---------+---------+---------+---------+
[...]
   1.04446   0.46627  -0.47596
   1.04446   0.46627  -0.71596
   0.80446   0.22627  -0.71596
   0.80446   0.22627  -0.95596
   0.80446   0.46627  -0.95596
   0.80446   0.46627  -0.95596
   0.80446   0.46627  -0.95596
   0.80446   0.46627  -1.19596
   0.80446   0.46627  -1.19596
   0.80446   0.46627  -1.19596
   0.80446   0.46627  -1.19596
   0.80446   0.46627  -1.43596
   0.80446   0.46627  -1.43596
   0.80446   0.46627  -1.43596
   0.56446   0.46627  -1.43596
   0.56446   0.46627  -1.43596
   0.56446   0.46627  -1.67596
   0.56446   0.46627  -1.67596
   0.56446   0.46627  -1.67596
   0.56446   0.46627  -1.67596
   0.56446   0.46627  -1.67596
   0.56446   0.46627  -1.67596
   0.56446   0.46627  -1.91596
   0.56446   0.46627  -1.67596
   0.56446   0.46627  -1.91596
   0.32446   0.22627  -1.91596
   0.56446   0.22627  -1.91596
   0.56446   0.22627  -2.15596
   0.56446   0.22627  -1.91596
   0.56446   0.22627  -2.15596
   0.56446   0.46627  -1.91596
   0.56446   0.46627  -2.15596
   0.56446   0.46627  -1.91596
   0.56446   0.22627  -2.15596
   0.56446   0.22627  -2.15596
   0.56446   0.22627  -2.15596
   0.56446   0.22627  -2.15596
   0.56446   0.22627  -2.15596
   0.56446   0.22627  -2.15596
   0.56446   0.22627  -2.15596
   0.56446   0.22627  -1.91596
   0.32446   0.22627  -2.15596
   0.32446   0.22627  -1.91596
   0.32446   0.22627  -1.91596
   0.32446   0.22627  -1.91596
   0.32446   0.22627  -1.91596
   0.32446   0.22627  -1.91596
   0.32446   0.22627  -1.91596
   0.32446   0.22627  -1.91596
   0.32446   0.22627  -1.91596
   0.32446   0.22627  -1.91596
   0.32446  -0.01373  -1.91596
   0.32446  -0.01373  -1.91596
   0.32446  -0.01373  -1.67596
   0.08446  -0.01373  -1.67596
   0.08446  -0.01373  -1.67596
   0.08446  -0.01373  -1.67596
   0.08446  -0.01373  -1.67596
   0.08446  -0.01373  -1.67596
   0.08446  -0.25373  -1.67596
   0.08446  -0.01373  -1.67596
   0.08446  -0.25373  -1.67596
   0.08446  -0.01373  -1.67596
  -0.15554  -0.25373  -1.67596
  -0.15554  -0.25373  -1.67596
  -0.15554  -0.25373  -1.67596
  -0.15554  -0.25373  -1.67596
  -0.15554  -0.25373  -1.67596
  -0.39554  -0.25373  -1.67596
  -0.39554  -0.25373  -1.67596
  -0.39554  -0.25373  -1.67596
  -0.39554  -0.25373  -1.67596
  -0.39554  -0.25373  -1.67596
  -0.63554  -0.25373  -1.67596
  -0.63554  -0.25373  -1.43596
  -0.63554  -0.25373  -1.43596
  -0.63554  -0.01373  -1.67596
  -0.63554  -0.01373  -1.67596
  -0.63554  -0.25373  -1.43596
  -0.63554  -0.25373  -1.43596
  -0.87554  -0.25373  -1.67596
  -0.87554  -0.25373  -1.43596
  -0.87554  -0.25373  -1.43596
  -0.87554  -0.25373  -1.67596
  -0.87554  -0.25373  -1.67596
  -0.87554  -0.25373  -1.67596
  -1.11554  -0.25373  -1.43596
  -1.11554  -0.25373  -1.43596
  -1.11554  -0.25373  -1.43596
  -1.11554  -0.25373  -1.43596
  -1.11554  -0.25373  -1.43596
  -1.11554  -0.25373  -1.43596
  -1.11554  -0.25373  -1.43596
  -1.11554  -0.25373  -1.67596
  -1.11554  -0.25373  -1.43596
  -1.35554  -0.25373  -1.67596
  -1.35554  -0.25373  -1.43596
  -1.35554  -0.25373  -1.43596
  -1.35554  -0.25373  -1.43596
  -1.35554  -0.25373  -1.67596
  -1.35554  -0.25373  -1.43596
  -1.35554  -0.25373  -1.43596
  -1.35554  -0.25373  -1.43596
  -1.35554  -0.25373  -1.67596
  -1.35554  -0.25373  -1.43596
  -1.35554  -0.25373  -1.43596
  -1.11554  -0.25373  -1.67596
  -1.35554  -0.25373  -1.67596
  -1.35554  -0.25373  -1.67596
  -1.35554  -0.25373  -1.67596
  -1.11554  -0.25373  -1.67596
  -1.11554  -0.25373  -1.67596
  -1.11554  -0.25373  -1.67596
  -1.11554  -0.25373  -1.67596
  -1.11554  -0.25373  -1.67596
  -1.11554  -0.25373  -1.67596
  -1.11554  -0.25373  -1.67596
  -1.11554  -0.25373  -1.91596
  -0.87554  -0.25373  -1.67596
  -0.87554  -0.25373  -1.67596
  -0.87554  -0.25373  -1.67596
  -0.87554  -0.25373  -1.67596
  -0.87554  -0.49373  -1.91596
  -0.87554  -0.49373  -1.91596
  -0.87554  -0.49373  -1.91596
  -0.87554  -0.49373  -1.91596
  -0.87554  -0.49373  -1.91596
  -0.63554  -0.49373  -1.91596
  -0.63554  -0.49373  -1.91596
  -0.63554  -0.49373  -2.15596
  -0.63554  -0.25373  -2.15596
  -0.63554  -0.25373  -2.15596
  -0.63554  -0.25373  -2.15596
  -0.63554  -0.25373  -1.91596
  -0.63554  -0.25373  -2.15596
  -0.63554  -0.25373  -2.15596
  -0.39554  -0.25373  -2.15596
  -0.39554  -0.25373  -2.15596
  -0.39554  -0.25373  -2.15596
  -0.39554  -0.25373  -2.15596
  -0.39554  -0.25373  -2.39596
  -0.39554  -0.25373  -2.15596
  -0.39554  -0.25373  -2.15596
  -0.15554  -0.25373  -2.15596
  -0.15554  -0.25373  -2.15596
  -0.15554  -0.25373  -2.15596
  -0.15554  -0.25373  -2.15596
  -0.15554  -0.25373  -2.15596
  -0.15554  -0.25373  -2.15596
  -0.15554  -0.25373  -2.15596
  -0.39554  -0.25373  -2.15596
  -0.39554  -0.25373  -2.15596
  -0.15554  -0.25373  -2.15596
  -0.15554  -0.25373  -1.91596
  -0.15554  -0.25373  -1.91596
  -0.15554  -0.25373  -2.15596
  -0.15554  -0.25373  -2.15596
  -0.15554  -0.25373  -2.15596
  -0.15554  -0.01373  -1.91596
  -0.15554  -0.25373  -1.91596
  -0.15554  -0.01373  -1.91596
  -0.15554  -0.01373  -1.91596
  -0.15554  -0.01373  -1.91596
   0.08446  -0.01373  -1.91596
   0.08446  -0.25373  -1.91596
  -0.15554  -0.25373  -1.67596
   0.08446  -0.25373  -1.67596
   0.08446  -0.01373  -1.67596
   0.08446  -0.01373  -1.67596
   0.08446  -0.01373  -1.67596
   0.08446  -0.01373  -1.43596
   0.08446  -0.01373  -1.43596
   0.08446  -0.01373  -1.43596
   0.08446  -0.01373  -1.43596
   0.08446  -0.01373  -1.19596
   0.08446  -0.01373  -1.19596
   0.08446  -0.01373  -1.19596
   0.08446  -0.01373  -0.95596
   0.32446  -0.01373  -0.95596
   0.08446  -0.01373  -0.71596
   0.08446  -0.01373  -0.71596
   0.08446  -0.01373  -0.71596
   0.08446  -0.01373  -0.71596
   0.08446  -0.01373  -0.71596
   0.08446  -0.01373  -0.71596
   0.08446  -0.01373  -0.47596
   0.08446  -0.01373  -0.47596
   0.32446  -0.01373  -0.23596
   0.08446   0.22627  -0.23596
   0.08446   0.22627  -0.23596
   0.08446   0.22627  -0.23596
   0.08446   0.22627  -0.23596
   0.08446  -0.01373   0.00404
   0.08446  -0.25373   0.00404
   0.08446  -0.01373   0.00404
   0.08446  -0.01373   0.00404
   0.08446  -0.01373   0.00404
   0.08446  -0.01373   0.23404
   0.08446  -0.01373   0.23404
   0.08446  -0.01373   0.23404
   0.08446  -0.01373   0.23404
   0.08446  -0.01373   0.23404
   0.08446  -0.01373   0.23404
   0.08446   0.22627   0.47404
   0.08446   0.22627   0.47404
   0.08446   0.22627   0.47404
   0.08446   0.22627   0.47404
  -0.15554   0.22627   0.47404
  -0.15554   0.22627   0.47404
  -0.15554   0.22627   0.71404
  -0.15554   0.22627   0.71404
  -0.15554   0.22627   0.47404
  -0.15554   0.22627   0.71404
  -0.15554   0.22627   0.71404
  -0.15554   0.22627   0.47404
  -0.15554   0.22627   0.47404
  -0.15554   0.22627   0.71404
  -0.15554   0.22627   0.71404
  -0.15554   0.46627   0.71404
  -0.15554   0.46627   0.47404
  -0.39554   0.46627   0.71404
  -0.39554   0.46627   0.71404
  -0.39554   0.46627   0.71404
  -0.39554   0.46627   0.71404
  -0.39554   0.46627   0.71404
  -0.39554   0.46627   0.71404
  -0.39554   0.46627   0.71404
  -0.63554   0.46627   0.47404
  -0.63554   0.46627   0.47404
  -0.63554   0.46627   0.47404
  -0.63554   0.46627   0.71404
  -0.63554   0.46627   0.47404
  -0.63554   0.46627   0.47404
  -0.63554   0.46627   0.47404
  -0.63554   0.46627   0.47404
  -0.63554   0.46627   0.47404
  -0.63554   0.46627   0.47404
  -0.63554   0.46627   0.47404
  -0.63554   0.46627   0.71404
  -0.63554   0.46627   0.71404
  -0.87554   0.46627   0.47404
  -0.87554   0.46627   0.47404
  -0.87554   0.70627   0.47404
  -1.11554   0.70627   0.47404
  -1.11554   0.70627   0.47404
  -1.11554   0.70627   0.47404
  -1.11554   0.70627   0.47404
  -1.11554   0.46627   0.47404
  -1.11554   0.46627   0.47404
  -1.11554   0.22627   0.47404
  -1.11554   0.22627   0.47404
  -1.11554   0.46627   0.47404
  -1.11554   0.46627   0.47404
  -1.11554   0.46627   0.47404
  -1.35554   0.46627   0.47404
  -1.35554   0.22627   0.23404
  -1.35554   0.22627   0.47404
  -1.11554   0.22627   0.47404
  -1.11554   0.22627   0.47404
  -1.11554   0.22627   0.47404
  -1.11554   0.22627   0.47404
  -1.11554   0.22627   0.47404
  -1.11554   0.22627   0.47404
  -1.35554   0.22627   0.23404
  -1.11554   0.22627   0.47404
  -1.35554   0.22627   0.47404
  -1.35554   0.22627   0.47404
  -1.35554   0.22627   0.23404
  -1.35554   0.22627   0.47404
  -1.35554   0.22627   0.23404
  -1.35554   0.22627   0.47404
  -1.35554   0.22627   0.23404
  -1.35554   0.22627   0.47404
  -1.35554   0.22627   0.47404
  -1.35554  -0.01373   0.47404
  -1.35554  -0.01373   0.47404
  -1.35554   0.22627   0.47404
  -1.35554   0.22627   0.47404
  -1.35554   0.22627   0.47404
  -1.35554  -0.01373   0.47404
  -1.35554   0.22627   0.47404
  -1.35554   0.22627   0.47404
  -1.35554   0.22627   0.47404
  -1.35554   0.22627   0.47404
  -1.59554   0.22627   0.47404
  -1.59554  -0.01373   0.47404
  -1.59554  -0.01373   0.47404
  -1.35554  -0.01373   0.47404
  -1.59554  -0.01373   0.71404
  -1.59554  -0.01373   0.71404
  -1.59554  -0.01373   0.71404
  -1.59554  -0.01373   0.71404
  -1.59554  -0.01373   0.71404
  -1.59554  -0.01373   0.71404
  -1.59554  -0.01373   0.95404
  -1.59554  -0.01373   0.71404
  -1.59554  -0.01373   0.95404
  -1.59554  -0.01373   0.95404
  -1.59554  -0.01373   0.95404
  -1.59554  -0.01373   0.95404
  -1.59554  -0.01373   0.95404
  -1.59554  -0.01373   1.19404
  -1.59554  -0.01373   1.19404
  -1.59554  -0.25373   1.19404
  -1.59554  -0.25373   1.19404
  -1.59554  -0.01373   1.19404
  -1.59554  -0.25373   1.43404
  -1.83554  -0.25373   1.43404
  -1.59554  -0.25373   1.67404
  -1.59554  -0.25373   1.67404
  -1.59554  -0.25373   1.67404
  -1.59554  -0.25373   1.67404
  -1.59554  -0.25373   1.67404
  -1.59554  -0.25373   1.67404
  -1.59554  -0.49373   1.67404
  -1.59554  -0.25373   1.67404
  -1.59554  -0.25373   1.91404
  -1.59554  -0.01373   1.91404
  -1.59554  -0.01373   1.91404
  -1.35554  -0.01373   1.91404
  -1.35554  -0.25373   1.91404
  -1.35554  -0.49373   1.91404
  -1.35554  -0.49373   1.91404
  -1.35554  -0.25373   2.15404
  -1.35554  -0.25373   2.15404
  -1.35554  -0.25373   2.15404
  -1.11554  -0.01373   2.15404
  -1.35554  -0.25373   2.15404
  -1.11554  -0.25373   2.39404
  -1.11554  -0.25373   2.39404
  -0.87554  -0.25373   2.39404
  -0.87554  -0.25373   2.39404
  -0.87554  -0.25373   2.15404
  -0.63554  -0.25373   2.39404
  -0.63554  -0.25373   2.39404
  -0.63554  -0.49373   2.39404
  -0.63554  -0.25373   2.39404
  -0.63554  -0.49373   2.39404
  -0.39554  -0.49373   2.63404
  -0.39554  -0.49373   2.63404
  -0.39554  -0.49373   2.63404
  -0.39554  -0.49373   2.63404
  -0.39554  -0.49373   2.63404
  -0.15554  -0.49373   2.63404
  -0.15554  -0.49373   2.63404
  -0.15554  -0.49373   2.63404
  -0.15554  -0.25373   2.63404
  -0.15554  -0.49373   2.63404
   0.08446  -0.49373   2.63404
   0.08446  -0.49373   2.87404
   0.08446  -0.49373   2.63404
   0.08446  -0.49373   2.63404
   0.32446  -0.49373   2.63404
   0.32446  -0.49373   2.87404
   0.32446  -0.49373   2.63404
   0.32446  -0.49373   2.87404
   0.32446  -0.25373   2.87404
   0.32446  -0.25373   2.63404
   0.56446  -0.49373   2.63404
   0.56446  -0.25373   2.87404
   0.56446  -0.25373   2.63404
   0.56446  -0.25373   2.63404
   0.56446  -0.25373   2.63404
   0.56446  -0.25373   2.63404
   0.56446  -0.25373   2.63404
   0.56446  -0.25373   2.39404
   0.56446  -0.25373   2.63404
   0.80446  -0.25373   2.39404
   0.80446  -0.25373   2.39404
   0.80446  -0.25373   2.39404
   0.80446  -0.25373   2.39404
   0.80446  -0.25373   2.15404
   0.80446  -0.25373   2.15404
   0.80446  -0.25373   2.39404
   0.80446  -0.01373   2.15404
   0.80446  -0.01373   2.15404
   0.80446  -0.01373   2.15404
   0.80446  -0.01373   1.91404
   0.80446  -0.01373   1.91404
   0.80446  -0.25373   1.91404
   0.80446  -0.01373   1.91404
   0.80446  -0.01373   1.67404
   0.80446  -0.01373   1.67404
   0.80446  -0.01373   1.67404
   0.80446  -0.01373   1.67404
   0.80446  -0.01373   1.43404
   0.80446  -0.01373   1.43404
   0.80446  -0.01373   1.43404
   0.80446  -0.01373   1.43404
   0.80446  -0.01373   1.43404
   0.80446  -0.01373   1.43404
   0.80446  -0.01373   1.43404
   0.80446  -0.01373   1.43404
   0.80446  -0.01373   1.43404
   0.80446  -0.01373   1.43404
   0.80446   0.22627   1.19404
   0.80446   0.22627   1.19404
   0.80446   0.22627   1.19404
   0.80446   0.22627   0.95404
   0.80446   0.22627   1.19404
   0.80446   0.22627   0.95404
   0.80446  -0.01373   1.19404
   0.80446  -0.01373   1.19404
   0.80446  -0.01373   1.19404
   0.80446  -0.01373   1.19404
   0.80446   0.22627   0.95404
   0.80446   0.22627   0.95404
   0.80446   0.22627   1.19404
   0.80446   0.22627   1.19404
   0.80446   0.22627   1.19404
   0.80446   0.22627   1.19404
   0.80446   0.22627   1.19404
   0.80446   0.22627   0.95404
   0.80446   0.22627   0.95404
   0.80446   0.22627   0.95404
   0.80446   0.22627   1.19404
   0.80446   0.22627   1.19404
   0.80446   0.22627   1.19404
   0.80446   0.22627   1.19404
   0.80446   0.22627   1.43404
   0.80446   0.22627   1.43404
   0.80446   0.22627   1.43404
   0.80446   0.46627   1.19404
   0.80446   0.46627   1.19404
   0.80446   0.46627   1.19404
   0.80446   0.22627   1.43404
   0.80446   0.22627   1.43404
   0.80446   0.22627   1.43404
   0.80446   0.22627   1.43404
   0.80446   0.22627   1.43404
   0.80446   0.22627   1.43404
   0.80446   0.22627   1.43404
   0.80446   0.22627   1.43404
   0.80446   0.22627   1.67404
   0.80446   0.22627   1.67404
   0.80446   0.22627   1.67404
   0.80446  -0.01373   1.67404
   0.80446  -0.01373   1.67404
   0.80446   0.22627   1.67404
   0.80446  -0.01373   1.67404
   0.80446  -0.01373   1.67404
   0.80446  -0.01373   1.67404
   0.80446  -0.01373   1.67404
   0.56446  -0.01373   1.67404
   0.56446  -0.01373   1.67404
   0.80446  -0.01373   1.67404
   0.56446   0.22627   1.67404
   0.56446  -0.01373   1.67404
   0.56446  -0.01373   1.67404
   0.56446  -0.01373   1.67404
   0.56446  -0.01373   1.67404
   0.56446  -0.01373   1.67404
   0.56446  -0.01373   1.67404
   0.56446  -0.01373   1.67404
   0.56446  -0.01373   1.43404
   0.56446  -0.01373   1.67404
   0.32446  -0.01373   1.43404
   0.32446  -0.01373   1.43404
   0.32446  -0.01373   1.43404
   0.32446  -0.01373   1.43404
   0.32446  -0.01373   1.19404
   0.32446  -0.01373   1.19404
   0.32446  -0.01373   1.19404
   0.32446  -0.01373   1.19404
   0.32446  -0.01373   1.19404
   0.32446  -0.01373   1.19404
   0.32446  -0.01373   0.95404
   0.32446  -0.01373   0.95404
   0.32446  -0.01373   0.95404
   0.32446  -0.01373   0.95404
   0.32446  -0.01373   0.71404
   0.32446  -0.01373   0.95404
   0.32446  -0.01373   0.71404
   0.32446  -0.01373   0.71404
   0.32446  -0.01373   0.71404
   0.32446  -0.01373   0.71404
   0.32446  -0.01373   0.71404
   0.08446   0.22627   0.47404
   0.08446   0.22627   0.47404
   0.08446   0.22627   0.47404
   0.08446   0.46627   0.23404
   0.08446   0.22627   0.23404
   0.32446   0.22627   0.23404
   0.32446  -0.01373   0.23404
   0.08446  -0.01373   0.00404
   0.08446  -0.01373   0.23404
   0.08446   0.22627   0.23404
   0.08446   0.46627   0.00404
   0.32446   0.46627   0.00404
   0.32446   0.46627   0.00404
   0.32446   0.22627  -0.23596
   0.32446   0.22627   0.00404
   0.32446   0.22627  -0.23596
   0.32446   0.22627  -0.23596
   0.32446   0.22627  -0.23596
   0.32446   0.22627  -0.23596
   0.32446   0.22627  -0.23596
   0.32446   0.22627  -0.47596
   0.32446  -0.01373  -0.47596
   0.32446   0.22627  -0.47596
