********************************************************************************
              CENTRO DE INSTRUMENTACION Y REGISTRO SISMICO  A.C.

    Anaxagoras 814, Col. Narvarte, Benito Juarez, C.P. 03020 Mexico, D.F.
           Tels. 5687 45 42/ 5687 45  82             Fax. 5669 25 12
********************************************************************************
ARCHIVO ESTANDAR DE ACELERACION:
VERSION DEL FORMATO                    : 2.0
NOMBRE DEL ARCHIVO                     : BA4920090522192418
FECHA Y HORA DE CREACION               : 24/JUN/09, 01:39
REF. CATALOGO ACELEROGRAMAS, SMIS 1996 : REGISTRO No.     /PAG.


================================================================================
DATOS DE LA ESTACION:
NOMBRE DE LA ESTACION                  : BUENOS AIRES
CLAVE DE LA ESTACION                   : BA49
LOCALIZACION DE LA ESTACION            : Del. Cuauhtémoc, Col. Doctores,        
                                       : Av. Lázaro Cárdenas esq. con           
                                       : Calle Dr. Márquez.                     
                                       :                                        
                                       : 
COORDENADAS DE LA ESTACION             : 19.4097 LAT. N
                                       : 99.1450 LONG. W
ALTITUD (msnm)                         : 2233
TIPO DE SUELO                          : Terreno blando, material compresible
                                       : (arcillas)                
                                       : 
INSTITUCION RESPONSABLE                : CIRES
                                       : 

================================================================================
DATOS DEL ACELEROGRAFO:
MODELO DEL ACELEROGRAFO                : RADESD
NUMERO DE SERIE DEL ACELEROGRAFO       : 176
NUMERO DE CANALES                      : 3
ORIENTACION C1-C6 (rumbo;orientacion)  : /N00E/+V/N90W
ORIENTACION C7-C12 (rumbo;orientacion) : 
VEL. DE MUESTREO, C1-C6 (muestras/s)   : /100/100/100
VEL. DE MUESTREO, C7-C12 (muestras/s)  : 
ESC. COMPLETA DE SENSORES, C1-C6, (g)  : /0.5/0.5/0.5
ESC. COMPLETA DE SENSORES, C7-C12, (g) : 
FREC. NAT. DE SENSORES, C1-C6, (Hz)    : /52.99/52.03/52.99
FREC. NAT. DE SENSORES, C7-C12, (Hz)   : 
AMORTIGUAMIENTO DE SENSORES, C1-C6     : /0.5589/0.5469/0.6096
AMORTIGUAMIENTO DE SENSORES, C7-C12    : 
INTERVALO DE MUESTREO, C1-C6, (s)      : /0.01/0.01/0.01
INTERVALO DE MUESTREO, C7-C12, (s)     : 
UMBRAL DE DISPARO, C1-C6, (Gal)        : /0.96/1.92/0.96
UMBRAL DE DISPARO, C7-C12, (Gal)       : 
MEMORIA DE PREEVENTO (s)               : 56.0
TIEMPO DE POSEVENTO (s)                : 64.0


================================================================================
DATOS DEL SISMO:
FECHA DEL SISMO (GMT)                  : 22/MAY/09
HORA EPICENTRO (GMT)                   : 19:24:18.0
MAGNITUD(ES)                           : /Mc=5.7
COORDENADAS DEL EPICENTRO              : 18.13 LAT. N
                                       : 98.44 LONG. W
PROFUNDIDAD FOCAL (km)                 : 45
FUENTE DE LOS DATOS EPICENTRALES       : SSN
                                       : INSTITUTO DE GEOFISICA, UNAM

================================================================================
DATOS DE ESTE REGISTRO:
HORA DE LA PRIMERA MUESTRA (GMT)       : 19:24:43.00
EXACTITUD DEL TIEMPO (s)               : 0.01
DURACION DEL REGISTRO (s), C1-C6       : /218.25/218.25/218.25
DURACION DEL REGISTRO (s), C7-C12      : 
NUM. TOTAL DE MUESTRAS, C1-C6          : /21825/21825/21825
NUM. TOTAL DE MUESTRAS, C7-C12         : 
ACEL. MAX. (Gal), C1-C6                : /13.79388/6.82688/15.48409
ACEL. MAX., C1-C6, EN LA MUESTRA       : /8473/8344/8152
ACEL. MAX. (Gal), C7-C12               : 
ACEL. MAX., C7-C12, EN LA MUESTRA      : 
UNIDADES DE LOS DATOS                  : Gal (cm/s/s)
FACTOR DE DECIMACION                   : 1
FORMATO DATOS (FORTRAN,10 campos/dato) : 3F10.5


================================================================================
CALIDAD DEL ACELEROGRAMA:
REGISTRO DIGITAL COMPLETO CON TIEMPO ABSOLUTO CORRECTO.


================================================================================
COMENTARIOS:














================================================================================
DATOS DE ACELERACION:
---------+---------+---------+---------+---------+---------+---------+---------+
   CANAL-1   CANAL-2   CANAL-3   CANAL-4   CANAL-5   CANAL-6   CANAL-7   CANAL-8
      N00E        +V      N90W
---------+---------+---------+---------+---------+---------+---------+---------+
[...]
  -2.00785   0.83456  -1.99358
  -1.28959   1.07398  -1.03590
  -1.05017   1.31340  -0.07822
  -0.33191   1.55282   0.64004
   0.38635   1.07398   1.11888
   1.10461   0.59514   1.83715
   2.06229  -0.12312   2.31599
   2.78055  -0.36254   2.79483
   3.49881  -0.84138   3.27367
   4.45650  -1.08080   3.51309
   5.41418  -1.08080   3.99193
   6.13244  -1.08080   4.23135
   6.61128  -0.84138   4.23135
   7.56896  -0.84138   4.23135
   7.80838  -0.84138   3.99193
   7.80838  -1.32022   3.51309
   7.56896  -1.55964   3.27367
   7.32954  -2.03848   3.03425
   6.61128  -2.27790   2.79483
   5.89302  -2.51732   2.79483
   4.93534  -2.99616   2.79483
   3.97765  -3.71442   3.03425
   3.01997  -4.19326   3.03425
   1.82287  -4.91152   3.03425
   0.62577  -4.43268   2.55541
  -0.33191  -4.43268   2.07657
  -1.05017  -3.71442   1.35830
  -1.52901  -2.75674   0.40062
  -2.00785  -1.55964  -0.55706
  -2.48669  -0.60196  -1.51474
  -2.72611   0.35572  -2.23300
  -3.20495   1.31340  -2.95126
  -3.44437   1.79225  -3.19068
  -3.68379   2.27109  -3.19068
  -3.68379   2.51051  -3.43010
  -3.92321   2.74993  -3.66952
  -3.92321   2.98935  -3.90894
  -3.92321   2.98935  -3.90894
  -4.40205   3.22877  -3.66952
  -4.64147   3.22877  -3.43010
  -4.88089   3.22877  -2.95126
  -4.88089   3.22877  -2.23300
  -4.88089   2.98935  -1.51474
  -4.64147   2.74993  -0.79648
  -4.40205   2.51051   0.16120
  -4.16263   2.27109   1.11888
  -4.16263   2.51051   1.83715
  -3.92321   2.27109   2.07657
  -3.44437   2.27109   2.31599
  -2.96553   2.27109   2.55541
  -2.72611   2.03167   2.79483
  -2.72611   1.79225   3.27367
  -2.48669   1.79225   3.75251
  -2.24727   1.55282   4.23135
  -2.24727   1.55282   4.71019
  -2.48669   1.31340   5.18903
  -2.72611   1.07398   5.18903
  -2.72611   0.83456   5.18903
  -2.96553   0.35572   5.18903
  -3.20495   0.11630   5.18903
  -3.20495  -0.36254   5.18903
  -3.44437  -0.84138   5.18903
  -3.44437  -1.32022   5.18903
  -3.68379  -1.32022   5.18903
  -3.44437  -1.55964   5.18903
  -3.44437  -1.32022   4.94961
  -3.20495  -1.08080   4.71019
  -3.20495  -0.60196   4.71019
  -3.20495  -0.36254   4.47077
  -3.44437   0.11630   4.71019
  -3.44437   0.35572   4.71019
  -3.68379   0.59514   4.71019
  -3.92321   0.59514   4.94961
  -4.40205   0.59514   4.94961
  -4.40205   0.35572   4.94961
  -4.64147   0.11630   4.71019
  -4.88089  -0.36254   4.47077
  -4.64147  -0.84138   3.99193
  -4.40205  -1.32022   3.99193
  -4.16263  -1.08080   3.99193
  -3.92321  -1.32022   4.23135
  -3.44437  -1.08080   4.23135
  -3.20495  -0.60196   3.99193
  -2.48669  -0.12312   4.23135
  -2.00785   0.11630   3.75251
  -1.76843   0.11630   3.27367
  -1.52901   0.11630   2.55541
  -1.52901  -0.12312   2.07657
  -1.52901  -0.12312   1.83715
  -1.52901   0.11630   1.59773
  -1.76843   0.35572   1.59773
  -2.00785   0.59514   1.35830
  -2.24727   1.07398   1.35830
  -2.24727   1.07398   0.87946
  -2.24727   1.07398   0.16120
  -2.48669   0.83456  -0.79648
  -2.48669   0.35572  -1.75416
  -2.72611  -0.12312  -2.71184
  -2.96553  -0.36254  -3.43010
  -3.44437  -0.60196  -3.66952
  -3.44437  -0.36254  -3.66952
  -3.44437  -0.12312  -3.90894
  -2.96553   0.35572  -3.66952
  -2.72611   0.59514  -3.19068
  -2.00785   0.83456  -2.95126
  -1.52901   0.83456  -2.23300
  -1.05017   0.35572  -1.75416
  -0.57133  -0.12312  -0.79648
  -0.09249  -1.08080  -0.07822
   0.14693  -1.79906   0.40062
   0.62577  -2.75674   0.64004
   1.10461  -2.99616   0.87946
   1.82287  -3.47500   0.87946
   2.78055  -3.71442   0.64004
   3.49881  -4.19326   0.64004
   4.21707  -4.67210   0.40062
   5.17476  -4.91152   0.40062
   5.65360  -4.67210   0.40062
   6.13244  -4.19326   0.40062
   6.61128  -3.47500   0.40062
   6.85070  -2.99616   0.64004
   7.09012  -2.51732   0.40062
   6.85070  -2.27790   0.64004
   6.85070  -1.79906   0.64004
   6.61128  -1.32022   0.64004
   6.37186  -0.60196   0.64004
   6.13244  -0.36254   0.87946
   5.41418  -0.12312   1.11888
   4.69592  -0.12312   1.11888
   3.97765   0.11630   0.64004
   3.25939  -0.12312   0.40062
   2.78055  -0.36254  -0.07822
   2.54113  -0.60196  -0.55706
   2.30171  -0.84138  -1.03590
   1.82287  -0.60196  -1.75416
   1.58345  -0.12312  -2.47242
   1.34403   0.83456  -3.43010
   1.10461   2.03167  -4.14836
   0.86519   3.22877  -5.10604
   0.86519   3.94703  -5.58488
   0.86519   4.18645  -5.82430
   0.62577   4.18645  -5.82430
   0.62577   3.94703  -5.82430
   0.38635   3.46819  -5.82430
  -0.09249   2.98935  -5.58488
  -0.57133   2.27109  -5.34546
  -1.05017   1.79225  -4.86662
  -1.52901   1.55282  -4.62720
  -2.00785   1.31340  -4.38778
  -2.24727   1.55282  -4.14836
  -2.48669   1.07398  -3.66952
  -2.48669   0.83456  -3.66952
  -2.48669   0.11630  -3.43010
  -2.48669  -0.12312  -3.19068
  -2.00785   0.11630  -3.19068
  -1.28959   0.35572  -3.19068
  -0.81075   0.83456  -3.19068
  -0.09249   1.31340  -3.19068
   0.62577   1.31340  -2.95126
   1.10461   1.31340  -2.95126
   1.34403   1.79225  -2.71184
   1.82287   1.55282  -2.47242
   2.06229   1.31340  -2.23300
   2.06229   1.07398  -1.75416
   2.06229   0.83456  -1.27532
   2.06229   0.35572  -1.03590
   1.82287  -0.12312  -1.03590
   1.58345  -0.36254  -1.27532
   1.58345  -0.12312  -1.27532
   1.82287  -0.12312  -1.51474
   2.06229  -0.36254  -1.51474
   2.30171  -0.60196  -1.51474
   2.54113  -1.08080  -1.27532
   3.01997  -1.32022  -1.27532
   3.25939  -1.32022  -1.03590
   3.73823  -1.55964  -1.03590
   4.45650  -1.55964  -1.03590
   4.69592  -1.55964  -1.03590
   4.69592  -1.32022  -1.03590
   4.69592  -1.08080  -1.03590
   4.69592  -0.84138  -1.51474
   4.45650  -0.84138  -1.75416
   4.21707  -0.12312  -1.99358
   3.97765   0.35572  -1.99358
   3.73823   0.83456  -1.75416
   3.73823   1.55282  -1.75416
   3.73823   2.27109  -1.51474
   3.97765   3.22877  -1.27532
   4.21707   4.18645  -0.79648
   4.45650   4.42587  -0.55706
   4.45650   4.42587  -0.31764
   4.69592   4.42587  -0.31764
   4.93534   4.42587  -0.07822
   5.17476   4.18645  -0.07822
   5.65360   3.70761  -0.31764
   6.13244   3.46819   0.16120
   6.37186   2.74993   0.16120
   6.85070   2.74993   0.16120
   7.09012   2.03167   0.40062
   7.09012   1.31340   0.40062
   7.09012   0.59514   0.16120
   6.85070  -0.12312   0.16120
   6.37186  -0.84138   0.16120
   5.41418  -1.55964   0.16120
   4.69592  -2.27790   0.16120
   3.73823  -2.51732   0.16120
   3.01997  -2.51732  -0.07822
   2.54113  -2.51732  -0.07822
   2.06229  -2.51732  -0.07822
   1.82287  -2.75674  -0.07822
   1.34403  -2.75674  -0.31764
   0.86519  -2.51732  -0.79648
   0.38635  -2.03848  -0.79648
  -0.57133  -2.03848  -1.03590
  -1.05017  -1.79906  -1.27532
  -1.76843  -1.79906  -1.27532
  -2.24727  -2.03848  -1.51474
  -2.96553  -1.79906  -1.75416
  -3.20495  -1.32022  -2.23300
  -3.44437  -1.08080  -2.47242
  -3.92321  -0.60196  -2.47242
  -4.16263  -0.36254  -2.23300
  -4.40205  -0.12312  -2.47242
  -4.16263   0.35572  -1.99358
  -3.92321   0.59514  -1.51474
  -3.44437   1.07398  -1.03590
  -2.96553   0.59514  -0.31764
  -2.24727   0.11630   0.40062
  -1.76843  -0.60196   0.87946
  -1.28959  -1.32022   1.59773
  -0.81075  -2.03848   2.07657
  -0.57133  -2.51732   2.79483
  -0.57133  -2.51732   3.27367
  -0.33191  -2.51732   3.75251
  -0.33191  -2.27790   4.23135
  -0.57133  -2.27790   4.23135
  -0.57133  -2.27790   3.99193
  -0.81075  -2.03848   3.99193
  -1.28959  -2.27790   3.99193
  -1.76843  -2.51732   3.99193
  -2.48669  -2.51732   3.99193
  -3.20495  -2.51732   3.75251
  -3.92321  -2.99616   3.99193
  -4.40205  -2.99616   3.75251
  -5.12031  -2.75674   3.51309
  -5.35973  -2.03848   3.27367
  -5.59915  -1.32022   3.03425
  -5.83857  -0.60196   3.27367
  -5.83857   0.35572   3.27367
  -5.83857   1.55282   3.03425
  -5.59915   2.27109   2.79483
  -5.12031   2.98935   2.79483
  -4.64147   3.94703   2.31599
  -4.16263   4.42587   1.83715
  -3.20495   5.14413   1.35830
  -2.72611   5.38355   1.35830
  -2.24727   5.38355   1.11888
  -1.28959   5.14413   1.11888
  -0.57133   4.90471   1.59773
   0.38635   4.42587   1.83715
   1.58345   3.46819   2.07657
   2.54113   2.74993   2.55541
   3.25939   1.55282   3.03425
   3.97765   0.59514   3.51309
   4.69592  -0.36254   3.99193
   4.69592  -1.32022   4.47077
   4.69592  -2.03848   5.18903
   4.69592  -2.51732   5.90729
   4.45650  -2.51732   6.62555
   4.21707  -2.51732   7.10439
   3.73823  -2.27790   7.34381
   3.49881  -2.03848   7.10439
   2.78055  -2.03848   6.86497
   2.30171  -2.27790   6.14671
   1.82287  -2.27790   5.18903
   1.10461  -1.79906   4.47077
   0.62577  -1.32022   3.51309
   0.14693  -0.60196   2.55541
  -0.33191   0.11630   1.59773
  -0.33191   0.83456   0.40062
  -0.33191   1.55282  -0.31764
  -0.33191   2.27109  -1.51474
  -0.57133   2.74993  -2.23300
  -0.57133   2.98935  -3.19068
  -0.57133   3.22877  -3.66952
  -0.57133   3.22877  -4.38778
  -1.05017   3.22877  -4.62720
  -1.05017   2.74993  -5.10604
  -1.05017   2.51051  -5.58488
  -0.81075   2.27109  -5.82430
  -1.05017   2.03167  -6.06372
  -0.81075   1.79225  -6.30314
  -0.81075   1.07398  -6.54256
  -1.05017   0.83456  -6.78198
  -1.52901   0.11630  -6.78198
  -1.52901  -0.36254  -6.78198
  -2.00785  -0.84138  -6.78198
  -2.24727  -1.32022  -6.78198
  -2.48669  -1.79906  -6.78198
  -2.72611  -1.79906  -7.02140
  -3.20495  -1.79906  -7.02140
  -2.96553  -1.55964  -6.78198
  -3.20495  -1.55964  -6.54256
  -3.44437  -1.55964  -6.54256
  -3.92321  -1.79906  -6.30314
  -4.40205  -2.03848  -6.30314
  -4.64147  -2.03848  -6.30314
  -4.88089  -2.03848  -6.54256
  -4.88089  -1.79906  -6.54256
  -5.12031  -1.55964  -6.78198
  -4.88089  -1.32022  -7.26082
  -4.64147  -0.84138  -7.73966
  -4.40205  -0.36254  -8.21850
  -3.92321   0.11630  -8.21850
  -3.44437   0.35572  -8.45792
  -2.96553   0.59514  -8.45792
  -2.24727   0.59514  -8.69734
  -1.76843   0.35572  -8.45792
  -1.05017  -0.12312  -8.45792
  -0.81075  -0.60196  -8.21850
  -0.57133  -0.84138  -7.73966
  -0.81075  -1.08080  -7.02140
  -1.28959  -1.32022  -6.06372
  -1.76843  -1.32022  -5.10604
  -2.48669  -1.55964  -3.90894
  -3.20495  -1.55964  -2.71184
  -3.68379  -1.32022  -1.03590
  -4.16263  -1.08080   0.16120
  -4.40205  -0.84138   1.83715
  -4.64147  -0.36254   3.27367
  -4.88089  -0.36254   4.71019
  -5.12031  -0.36254   6.38613
  -5.35973  -0.60196   7.58323
  -5.59915  -0.60196   8.78033
  -5.83857  -0.36254   9.73801
  -5.59915  -0.36254  10.69569
  -5.59915  -0.12312  11.41395
  -5.35973  -0.12312  12.13221
  -4.88089  -0.12312  12.85047
  -4.40205  -0.12312  13.32931
  -3.92321  -0.12312  13.56873
  -3.44437  -0.12312  13.80815
  -2.96553  -0.36254  14.28699
  -2.72611  -0.60196  14.52641
  -2.48669  -0.60196  15.00525
  -2.48669  -0.84138  15.24467
  -2.48669  -0.84138  15.24467
  -2.24727  -1.32022  15.48409
  -2.00785  -1.79906  15.24467
  -1.76843  -1.79906  15.00525
  -1.52901  -2.51732  14.76583
  -1.52901  -2.51732  14.52641
  -1.52901  -2.27790  14.04757
  -1.52901  -1.79906  13.56873
  -1.28959  -1.79906  12.37163
  -1.52901  -1.79906  11.65337
  -1.76843  -1.79906  10.45627
  -1.76843  -1.55964   9.01975
  -1.76843  -1.32022   7.58323
  -2.00785  -1.08080   6.38613
  -2.00785  -0.60196   5.18903
  -2.24727  -0.12312   3.99193
  -2.24727   0.11630   3.03425
  -2.24727   0.59514   2.07657
  -2.24727   1.07398   0.87946
  -2.00785   1.31340   0.16120
  -1.52901   1.55282  -0.55706
  -1.05017   1.79225  -1.27532
  -0.33191   2.03167  -1.99358
  -0.33191   2.27109  -2.47242
   0.62577   2.51051  -3.19068
   1.10461   2.74993  -3.66952
   1.58345   2.98935  -4.14836
   2.06229   2.98935  -4.86662
   2.78055   2.74993  -5.34546
   3.49881   2.51051  -5.82430
   4.21707   2.27109  -6.06372
   4.93534   1.31340  -6.06372
   5.65360   0.59514  -6.30314
   6.13244   0.11630  -6.54256
   6.61128  -0.12312  -6.78198
   7.09012  -0.36254  -7.02140
   7.56896  -0.36254  -6.78198
   8.04780  -0.36254  -6.78198
   8.52664  -0.60196  -6.54256
   8.76606  -0.60196  -6.30314
   8.76606  -0.84138  -5.82430
   8.76606  -1.08080  -5.10604
   8.52664  -0.84138  -4.38778
   8.52664  -0.84138  -3.90894
   8.04780  -0.36254  -3.66952
   7.80838  -0.36254  -3.43010
   7.09012  -0.12312  -3.66952
   6.85070   0.11630  -3.90894
   6.13244   0.35572  -4.14836
   5.41418   0.59514  -4.38778
   4.45650   0.83456  -4.62720
   3.49881   1.31340  -4.86662
   2.54113   1.79225  -5.58488
   1.82287   1.79225  -5.82430
   1.10461   2.03167  -6.30314
   0.62577   1.79225  -6.54256
   0.38635   1.79225  -7.02140
   0.14693   2.03167  -7.02140
  -0.09249   2.03167  -7.02140
  -0.33191   2.51051  -7.02140
  -0.57133   2.98935  -7.02140
  -0.81075   3.22877  -6.78198
  -0.81075   3.22877  -6.78198
  -1.05017   3.22877  -6.78198
  -1.28959   2.98935  -6.54256
  -1.52901   2.51051  -6.54256
  -2.00785   2.03167  -6.06372
  -2.48669   1.55282  -5.58488
  -2.72611   0.83456  -5.10604
  -2.96553   0.11630  -4.14836
  -2.96553  -0.60196  -3.66952
  -2.72611  -0.60196  -2.95126
  -2.48669  -0.60196  -2.23300
  -2.24727  -0.60196  -1.99358
  -1.76843  -0.60196  -1.51474
  -1.05017  -0.60196  -1.27532
  -0.33191  -0.84138  -1.03590
   0.14693  -1.08080  -0.79648
   0.86519  -1.55964  -0.55706
   1.58345  -1.79906  -0.31764
   2.06229  -2.03848  -0.07822
   2.54113  -2.27790   0.16120
   3.25939  -2.51732   0.40062
   3.73823  -2.51732   0.40062
   4.21707  -2.51732   0.64004
   4.45650  -2.51732   0.64004
   4.45650  -2.75674   0.64004
   4.21707  -2.27790   0.64004
   4.21707  -2.51732   0.87946
   4.21707  -2.51732   1.11888
   3.49881  -2.51732   1.35830
   3.25939  -2.75674   1.59773
   2.78055  -2.51732   1.83715
   2.30171  -2.51732   2.31599
   1.82287  -2.03848   2.79483
   1.58345  -1.55964   3.27367
   1.10461  -1.32022   3.75251
   1.10461  -0.84138   4.23135
   0.86519  -0.36254   4.71019
   1.10461   0.11630   4.94961
   1.10461   0.59514   5.42845
   1.34403   1.07398   5.90729
   1.10461   1.31340   6.14671
   0.86519   1.79225   6.62555
   0.62577   2.03167   6.86497
  -0.09249   2.51051   7.10439
  -0.57133   2.98935   7.34381
  -1.05017   3.22877   7.34381
  -1.52901   3.70761   7.34381
  -1.76843   4.18645   7.10439
  -2.00785   4.42587   6.86497
  -2.00785   4.42587   6.62555
  -2.24727   4.42587   6.38613
  -2.24727   4.18645   5.90729
  -2.24727   3.70761   5.42845
  -2.24727   3.22877   4.94961
  -1.76843   2.74993   4.23135
  -1.28959   2.03167   3.51309
  -0.81075   1.31340   2.79483
  -0.09249   0.59514   2.07657
   0.62577   0.11630   0.87946
   1.34403  -0.60196   0.16120
   1.82287  -0.84138  -1.03590
   2.30171  -1.08080  -1.99358
   3.01997  -1.32022  -3.19068
   3.49881  -1.08080  -4.14836
   3.73823  -1.08080  -5.10604
   4.21707  -1.08080  -6.30314
   4.45650  -0.84138  -7.50024
   4.69592  -1.08080  -8.69734
   4.93534  -1.08080  -9.65502
   5.17476  -1.55964 -10.61270
   4.93534  -1.55964 -11.09154
   4.93534  -1.79906 -11.33096
   4.93534  -1.55964 -11.33096
   4.93534  -1.32022 -11.09154
   4.93534  -1.08080 -10.85212
   4.93534  -0.60196 -10.13386
   5.17476  -0.36254  -9.65502
   5.17476   0.11630  -9.17618
   5.17476   0.59514  -8.21850
   5.17476   0.83456  -7.73966
   5.17476   1.31340  -6.78198
   5.17476   1.55282  -6.06372
   5.17476   2.03167  -5.10604
   5.17476   1.79225  -4.38778
   5.17476   1.55282  -3.43010
   5.17476   1.31340  -2.71184
   5.17476   0.59514  -2.23300
   4.93534   0.11630  -1.75416
