********************************************************************************
              CENTRO DE INSTRUMENTACION Y REGISTRO SISMICO  A.C.                

    Anaxagoras 814, Col. Narvarte, Benito Juarez, C.P. 03020 Mexico, D.F.       
           Tels. 5687 45 42/ 5687 45  82             Fax. 5669 25 12            
********************************************************************************
ARCHIVO ESTANDAR DE ACELERACION:
VERSION DEL FORMATO                    : 2.0
NOMBRE DEL ARCHIVO                     : BA4919890502093016
FECHA Y HORA DE CREACION               : 04/MAY/18, 10:29
REF. CATALOGO ACELEROGRAMAS, SMIS 1996 : REGISTRO No.     /PAG.


================================================================================
DATOS DE LA ESTACION:
NOMBRE DE LA ESTACION                  : BUENOS AIRES
CLAVE DE LA ESTACION                   : BA49
LOCALIZACION DE LA ESTACION            : Del. Cuauhtémoc, Col. Doctores,        
                                       : Av. Lázaro Cárdenas esq. con           
                                       : Calle Dr. Márquez.                     
                                       :                                        
                                       : 
COORDENADAS DE LA ESTACION             : 19.4097 LAT. N
                                       : 99.1450 LONG. W
ALTITUD (msnm)                         : 2233
TIPO DE SUELO                          : Terreno blando, material compresible
                                       : (arcillas)                
                                       : 
INSTITUCION RESPONSABLE                : CIRES


================================================================================
DATOS DEL ACELEROGRAFO:
MODELO DEL ACELEROGRAFO                : SSA-1
NUMERO DE SERIE DEL ACELEROGRAFO       : 176
NUMERO DE CANALES                      : 3
ORIENTACION C1-C6 (rumbo;orientacion)  : /S00E/+V/N90W
ORIENTACION C7-C12 (rumbo;orientacion) : 
VEL. DE MUESTREO, C1-C6 (muestras/s)   : /200/200/200
VEL. DE MUESTREO, C7-C12 (muestras/s)  : 
ESC. COMPLETA DE SENSORES, C1-C6, (g)  : /1.0/1.0/1.0
ESC. COMPLETA DE SENSORES, C7-C12, (g) : 
FREC. NAT. DE SENSORES, C1-C6, (Hz)    : /52.99/52.03/52.99
FREC. NAT. DE SENSORES, C7-C12, (Hz)   : 
AMORTIGUAMIENTO DE SENSORES, C1-C6     : /0.5589/0.5469/0.6096
AMORTIGUAMIENTO DE SENSORES, C7-C12    : 
INTERVALO DE MUESTREO, C1-C6, (s)      : /0.005/0.005/0.005
INTERVALO DE MUESTREO, C7-C12, (s)     : 
UMBRAL DE DISPARO, C1-C6, (Gal)        : /1.0/2.0/1.0
UMBRAL DE DISPARO, C7-C12, (Gal)       : 
MEMORIA DE PREEVENTO (s)               : 15.36
TIEMPO DE POSEVENTO (s)                : 0.0


================================================================================
DATOS DEL SISMO:
FECHA DEL SISMO (GMT)                  : 02/MAY/89
HORA EPICENTRO (GMT)                   : 09:30:16.0
MAGNITUD(ES)                           : /Mc=5.1
COORDENADAS DEL EPICENTRO              : 16.63 LAT. N
                                       : -99.51 LONG. W
PROFUNDIDAD FOCAL (km)                 : 13
FUENTE DE LOS DATOS EPICENTRALES       : SSN
                                       : INSTITUTO DE GEOFISICA, UNAM

================================================================================
DATOS DE ESTE REGISTRO:
HORA DE LA PRIMERA MUESTRA (GMT)       : 9:32:12.13
EXACTITUD DEL TIEMPO (s)               : 0.005
DURACION DEL REGISTRO (s), C1-C6       : /125.44/125.44/125.44
DURACION DEL REGISTRO (s), C7-C12      : 
NUM. TOTAL DE MUESTRAS, C1-C6          : /25088/25088/25088
NUM. TOTAL DE MUESTRAS, C7-C12         : 
ACEL. MAX. (Gal), C1-C6                : /2.7951/1.39758/1.91357
ACEL. MAX., C1-C6, EN LA MUESTRA       : /6864/5966/6114
ACEL. MAX. (Gal), C7-C12               : 
ACEL. MAX., C7-C12, EN LA MUESTRA      : 
UNIDADES DE LOS DATOS                  : Gal (cm/s/s)
FACTOR DE DECIMACION                   : 1
FORMATO DATOS (FORTRAN,10 campos/dato) : 3F10.5


================================================================================
CALIDAD DEL ACELEROGRAMA:
REGISTRO DIGITAL COMPLETO CON TIEMPO ABSOLUTO CORRECTO.


================================================================================
COMENTARIOS:














================================================================================
DATOS DE ACELERACION:
---------+---------+---------+---------+---------+---------+---------+---------+
   CANAL-1   CANAL-2   CANAL-3   CANAL-4   CANAL-5   CANAL-6   CANAL-7   CANAL-8
      N00E        +V      N90W
---------+---------+---------+---------+---------+---------+---------+---------+
[...]
   0.55678   0.51778  -0.23763
   0.55678   0.51778  -0.23763
   0.55678   0.27836  -0.47705
   0.55678   0.51778  -0.23763
   0.55678   0.51778  -0.23763
   0.55678   0.51778  -0.23763
   0.55678   0.51778  -0.23763
   0.79620   0.51778  -0.23763
   0.55678   0.51778  -0.47705
   0.55678   0.27836  -0.47705
   0.55678   0.51778  -0.47705
   0.79620   0.51778  -0.47705
   0.79620   0.27836  -0.47705
   0.79620   0.51778  -0.23763
   0.79620   0.51778  -0.23763
   0.79620   0.51778  -0.23763
   0.79620   0.27836  -0.23763
   1.03562   0.51778  -0.23763
   0.79620   0.51778  -0.23763
   0.79620   0.51778  -0.23763
   0.79620   0.51778  -0.23763
   0.79620   0.27836  -0.23763
   0.79620   0.51778  -0.23763
   0.79620   0.51778  -0.23763
   1.27504   0.27836  -0.23763
   1.03562   0.51778  -0.23763
   0.79620   0.27836  -0.23763
   1.27504   0.27836  -0.23763
   1.03562   0.27836  -0.23763
   0.79620   0.27836  -0.23763
   1.27504   0.27836  -0.23763
   1.03562   0.27836  -0.23763
   1.03562   0.27836  -0.23763
   1.03562   0.27836  -0.23763
   1.27504   0.27836  -0.23763
   1.03562   0.27836  -0.23763
   1.03562   0.27836  -0.23763
   1.27504   0.27836  -0.23763
   1.03562   0.27836  -0.23763
   1.03562   0.27836  -0.23763
   1.03562   0.27836  -0.23763
   1.03562   0.27836   0.00179
   1.03562   0.03894  -0.23763
   1.27504   0.27836  -0.23763
   1.03562   0.27836   0.00179
   1.03562   0.03894   0.00179
   0.79620   0.03894   0.00179
   1.03562   0.03894   0.00179
   0.79620   0.03894   0.00179
   0.79620   0.03894   0.00179
   0.79620   0.03894   0.00179
   0.79620   0.03894   0.00179
   0.79620   0.03894   0.00179
   0.79620   0.03894   0.00179
   0.79620   0.03894   0.24121
   0.79620   0.03894   0.00179
   0.79620  -0.20048   0.00179
   0.79620   0.03894   0.24121
   0.79620  -0.20048   0.00179
   0.55678  -0.20048   0.00179
   0.79620  -0.20048   0.00179
   0.55678  -0.20048   0.24121
   0.55678  -0.20048   0.24121
   0.55678  -0.20048   0.24121
   0.55678  -0.20048   0.24121
   0.55678  -0.20048   0.24121
   0.55678  -0.43990   0.24121
   0.55678  -0.43990   0.24121
   0.55678  -0.43990   0.24121
   0.31736  -0.43990   0.24121
   0.31736  -0.20048   0.24121
   0.55678  -0.43990   0.24121
   0.31736  -0.43990   0.24121
   0.31736  -0.43990   0.24121
   0.31736  -0.43990   0.24121
   0.31736  -0.43990   0.24121
   0.31736  -0.43990   0.24121
   0.31736  -0.43990   0.24121
   0.31736  -0.43990   0.24121
   0.07794  -0.43990   0.24121
   0.07794  -0.43990   0.24121
   0.07794  -0.43990   0.24121
   0.07794  -0.43990   0.24121
   0.07794  -0.43990   0.24121
   0.07794  -0.43990   0.48063
   0.07794  -0.43990   0.24121
  -0.16148  -0.43990   0.24121
   0.07794  -0.43990   0.48063
   0.07794  -0.43990   0.24121
  -0.16148  -0.43990   0.24121
  -0.16148  -0.43990   0.24121
   0.07794  -0.43990   0.48063
  -0.16148  -0.43990   0.24121
  -0.16148  -0.67932   0.48063
  -0.16148  -0.43990   0.48063
  -0.16148  -0.43990   0.24121
  -0.16148  -0.43990   0.24121
  -0.16148  -0.43990   0.24121
  -0.16148  -0.43990   0.24121
  -0.16148  -0.43990   0.24121
  -0.16148  -0.43990   0.24121
  -0.16148  -0.43990   0.24121
  -0.16148  -0.43990   0.24121
  -0.16148  -0.43990   0.24121
  -0.16148  -0.43990   0.24121
  -0.16148  -0.43990   0.00179
  -0.16148  -0.43990   0.00179
  -0.16148  -0.43990   0.24121
  -0.16148  -0.43990   0.00179
  -0.40090  -0.43990   0.00179
  -0.16148  -0.43990   0.00179
  -0.16148  -0.20048   0.24121
  -0.40090  -0.43990   0.00179
  -0.16148  -0.20048   0.00179
  -0.16148  -0.20048   0.00179
  -0.16148  -0.43990   0.00179
  -0.16148  -0.43990   0.00179
  -0.16148  -0.20048   0.00179
  -0.16148  -0.20048  -0.23763
  -0.16148  -0.43990  -0.23763
  -0.16148  -0.20048  -0.23763
  -0.16148  -0.20048  -0.23763
  -0.16148  -0.43990  -0.23763
   0.07794  -0.43990  -0.23763
   0.07794  -0.20048  -0.23763
  -0.16148  -0.43990  -0.23763
   0.07794  -0.20048  -0.23763
   0.07794  -0.20048  -0.23763
   0.07794  -0.20048  -0.23763
   0.07794  -0.43990  -0.47705
   0.07794  -0.20048  -0.23763
   0.07794  -0.20048  -0.47705
  -0.16148  -0.20048  -0.47705
   0.07794  -0.20048  -0.47705
   0.07794  -0.20048  -0.47705
   0.07794  -0.20048  -0.47705
   0.07794  -0.20048  -0.71647
   0.31736  -0.20048  -0.47705
   0.31736  -0.20048  -0.71647
   0.31736  -0.20048  -0.71647
   0.31736  -0.20048  -0.71647
   0.31736  -0.20048  -0.71647
   0.31736  -0.20048  -0.71647
   0.55678  -0.20048  -0.71647
   0.55678  -0.20048  -0.71647
   0.55678  -0.20048  -0.71647
   0.55678  -0.20048  -0.95589
   0.55678  -0.20048  -0.71647
   0.55678  -0.20048  -0.71647
   0.55678  -0.20048  -0.71647
   0.79620  -0.20048  -0.71647
   0.79620  -0.20048  -0.71647
   0.79620  -0.20048  -0.95589
   0.79620   0.03894  -0.95589
   1.03562   0.03894  -0.95589
   0.79620   0.03894  -0.95589
   0.79620  -0.20048  -0.95589
   0.79620  -0.20048  -0.95589
   1.03562   0.03894  -0.95589
   1.03562   0.03894  -1.19531
   1.03562   0.03894  -1.19531
   1.27504   0.03894  -0.95589
   1.03562   0.03894  -1.19531
   1.27504   0.03894  -1.19531
   1.27504   0.03894  -1.19531
   1.03562   0.03894  -1.19531
   1.03562   0.03894  -1.19531
   1.27504   0.27836  -1.19531
   1.03562   0.27836  -1.19531
   1.03562   0.27836  -1.43473
   1.27504   0.27836  -1.19531
   1.27504   0.27836  -1.43473
   1.27504   0.27836  -1.43473
   1.27504   0.27836  -1.43473
   1.27504   0.27836  -1.43473
   1.27504   0.27836  -1.43473
   1.27504   0.27836  -1.43473
   1.03562   0.27836  -1.43473
   1.03562   0.27836  -1.43473
   1.27504   0.27836  -1.43473
   1.27504   0.51778  -1.43473
   1.27504   0.51778  -1.43473
   1.03562   0.51778  -1.43473
   1.03562   0.51778  -1.43473
   1.03562   0.51778  -1.43473
   0.79620   0.51778  -1.43473
   1.03562   0.51778  -1.43473
   1.03562   0.75720  -1.43473
   1.03562   0.51778  -1.43473
   1.03562   0.51778  -1.43473
   1.03562   0.51778  -1.43473
   1.27504   0.75720  -1.43473
   1.03562   0.51778  -1.43473
   0.79620   0.75720  -1.43473
   1.03562   0.51778  -1.43473
   0.79620   0.75720  -1.43473
   0.79620   0.51778  -1.43473
   0.79620   0.75720  -1.19531
   0.79620   0.51778  -1.19531
   0.55678   0.51778  -1.43473
   0.79620   0.75720  -1.19531
   0.79620   0.75720  -1.19531
   0.79620   0.75720  -1.19531
   0.79620   0.51778  -1.19531
   0.79620   0.75720  -1.19531
   0.79620   0.51778  -1.19531
   0.55678   0.51778  -1.19531
   0.79620   0.75720  -1.19531
   0.55678   0.51778  -0.95589
   0.55678   0.51778  -0.95589
   0.55678   0.51778  -0.95589
   0.55678   0.51778  -0.71647
   0.55678   0.51778  -0.95589
   0.55678   0.51778  -0.95589
   0.55678   0.51778  -0.95589
   0.31736   0.51778  -0.71647
   0.55678   0.51778  -0.95589
   0.55678   0.51778  -0.95589
   0.31736   0.51778  -0.95589
   0.55678   0.51778  -0.95589
   0.55678   0.51778  -0.71647
   0.55678   0.51778  -0.71647
   0.31736   0.51778  -0.71647
   0.31736   0.51778  -0.47705
   0.31736   0.51778  -0.71647
   0.31736   0.51778  -0.71647
   0.31736   0.27836  -0.71647
   0.31736   0.51778  -0.47705
   0.31736   0.27836  -0.47705
   0.31736   0.27836  -0.47705
   0.31736   0.27836  -0.47705
   0.31736   0.27836  -0.47705
   0.31736   0.27836  -0.47705
   0.31736   0.27836  -0.47705
   0.31736   0.27836  -0.47705
   0.31736   0.27836  -0.71647
   0.07794   0.27836  -0.47705
   0.07794   0.27836  -0.23763
   0.31736   0.03894  -0.23763
   0.07794   0.03894  -0.47705
   0.07794   0.27836  -0.23763
   0.07794   0.27836  -0.23763
   0.07794   0.03894  -0.23763
   0.07794   0.03894  -0.23763
   0.07794   0.03894  -0.23763
   0.07794   0.03894  -0.23763
   0.07794   0.03894  -0.23763
   0.07794   0.03894  -0.23763
   0.07794   0.03894  -0.23763
   0.07794   0.03894  -0.23763
   0.07794   0.03894  -0.23763
   0.07794   0.03894  -0.23763
   0.07794   0.03894  -0.23763
   0.07794   0.03894  -0.23763
   0.07794   0.03894  -0.23763
  -0.16148  -0.20048  -0.23763
  -0.16148  -0.20048  -0.23763
   0.07794  -0.20048  -0.23763
   0.07794  -0.20048  -0.23763
  -0.16148  -0.20048  -0.23763
   0.07794  -0.20048  -0.23763
  -0.16148  -0.20048  -0.23763
  -0.16148  -0.43990  -0.23763
  -0.16148  -0.43990  -0.23763
  -0.16148  -0.20048   0.00179
  -0.16148  -0.43990   0.00179
  -0.16148  -0.43990  -0.23763
  -0.16148  -0.43990   0.00179
  -0.16148  -0.43990   0.00179
  -0.16148  -0.43990  -0.23763
  -0.16148  -0.43990   0.00179
  -0.16148  -0.43990   0.00179
  -0.16148  -0.43990   0.00179
  -0.16148  -0.43990   0.00179
  -0.16148  -0.43990   0.00179
  -0.16148  -0.43990   0.00179
  -0.40090  -0.67932   0.00179
  -0.40090  -0.43990   0.00179
  -0.40090  -0.43990   0.00179
  -0.40090  -0.67932   0.00179
  -0.40090  -0.43990   0.00179
  -0.40090  -0.43990   0.00179
  -0.40090  -0.43990   0.00179
  -0.40090  -0.43990   0.00179
  -0.40090  -0.43990   0.24121
  -0.40090  -0.43990   0.00179
  -0.40090  -0.43990   0.00179
  -0.64032  -0.43990   0.00179
  -0.64032  -0.43990   0.00179
  -0.64032  -0.67932   0.00179
  -0.64032  -0.43990   0.00179
  -0.64032  -0.43990   0.24121
  -0.87974  -0.43990   0.00179
  -0.87974  -0.43990   0.00179
  -0.64032  -0.43990   0.24121
  -0.87974  -0.43990   0.00179
  -0.87974  -0.43990   0.00179
  -0.87974  -0.43990   0.00179
  -1.11916  -0.43990   0.00179
  -1.35858  -0.43990   0.00179
  -1.11916  -0.20048   0.00179
  -1.11916  -0.20048   0.00179
  -1.11916  -0.20048   0.00179
  -1.35858  -0.20048   0.00179
  -1.11916  -0.20048   0.00179
  -1.35858  -0.20048  -0.23763
  -1.35858  -0.20048  -0.23763
  -1.35858   0.03894   0.00179
  -1.59800  -0.20048  -0.23763
  -1.59800  -0.20048  -0.23763
  -1.83742   0.03894  -0.23763
  -1.83742   0.03894  -0.23763
  -1.83742   0.03894  -0.23763
  -1.83742   0.03894  -0.23763
  -1.83742   0.27836  -0.23763
  -1.83742   0.03894  -0.23763
  -2.07684   0.03894  -0.23763
  -1.83742   0.03894  -0.23763
  -2.07684   0.03894  -0.23763
  -2.31626   0.03894  -0.23763
  -2.31626   0.03894  -0.23763
  -2.07684   0.27836  -0.23763
  -2.31626   0.03894  -0.23763
  -2.31626   0.27836  -0.23763
  -2.31626   0.27836  -0.23763
  -2.31626   0.27836  -0.23763
  -2.31626   0.27836  -0.23763
  -2.31626   0.27836  -0.23763
  -2.55568   0.27836   0.00179
  -2.55568   0.03894  -0.23763
  -2.55568   0.27836  -0.23763
  -2.55568   0.27836   0.00179
  -2.55568   0.27836  -0.23763
  -2.55568   0.27836   0.00179
  -2.55568   0.27836   0.00179
  -2.55568   0.27836  -0.23763
  -2.55568   0.27836   0.00179
  -2.55568   0.27836   0.00179
  -2.55568   0.03894   0.00179
  -2.55568   0.03894   0.00179
  -2.55568   0.27836   0.24121
  -2.55568   0.27836   0.00179
  -2.55568   0.03894   0.24121
  -2.55568   0.03894   0.24121
  -2.55568   0.27836   0.24121
  -2.55568   0.03894   0.24121
  -2.79510   0.03894   0.24121
  -2.55568   0.27836   0.24121
  -2.55568   0.03894   0.24121
  -2.55568   0.03894   0.24121
  -2.55568   0.03894   0.24121
  -2.31626   0.03894   0.48063
  -2.55568   0.03894   0.24121
  -2.55568   0.03894   0.48063
  -2.31626   0.03894   0.48063
  -2.55568  -0.20048   0.48063
  -2.31626   0.03894   0.24121
  -2.31626   0.03894   0.48063
  -2.31626   0.03894   0.72005
  -2.55568  -0.20048   0.48063
  -2.31626  -0.20048   0.48063
  -2.31626  -0.20048   0.72005
  -2.31626  -0.20048   0.72005
  -2.31626  -0.20048   0.72005
  -2.31626  -0.20048   0.72005
  -2.31626  -0.20048   0.72005
  -2.31626  -0.20048   0.48063
  -2.07684  -0.20048   0.72005
  -2.07684  -0.20048   0.72005
  -2.07684  -0.20048   0.72005
  -2.07684  -0.20048   0.48063
  -2.07684  -0.20048   0.95947
  -2.07684  -0.43990   0.72005
  -1.83742  -0.43990   0.72005
  -1.83742  -0.20048   0.95947
  -1.83742  -0.43990   0.72005
  -1.83742  -0.20048   0.72005
  -1.83742  -0.20048   0.72005
  -1.59800  -0.43990   0.72005
  -1.83742  -0.43990   0.48063
  -1.59800  -0.20048   0.95947
  -1.59800  -0.43990   0.72005
  -1.35858  -0.43990   0.72005
  -1.59800  -0.20048   0.72005
  -1.35858  -0.43990   0.95947
  -1.59800  -0.20048   0.72005
  -1.35858  -0.43990   0.72005
  -1.35858  -0.20048   0.72005
  -1.35858  -0.20048   0.48063
  -1.11916  -0.43990   0.48063
  -1.11916  -0.20048   0.72005
  -1.11916  -0.20048   0.48063
  -1.11916  -0.43990   0.48063
  -1.11916  -0.43990   0.72005
  -0.87974  -0.20048   0.72005
  -0.87974  -0.43990   0.48063
  -0.87974  -0.43990   0.48063
  -0.64032  -0.20048   0.48063
  -0.87974  -0.20048   0.48063
  -0.87974  -0.43990   0.72005
  -0.64032  -0.20048   0.72005
  -0.64032  -0.20048   0.48063
  -0.64032  -0.43990   0.48063
  -0.64032  -0.20048   0.48063
  -0.40090  -0.20048   0.72005
  -0.40090  -0.20048   0.72005
  -0.40090  -0.20048   0.72005
  -0.40090  -0.20048   0.72005
  -0.40090  -0.43990   0.72005
  -0.40090  -0.20048   0.72005
  -0.16148  -0.20048   0.72005
  -0.16148  -0.20048   0.72005
  -0.16148  -0.20048   0.48063
   0.07794  -0.20048   0.72005
   0.07794  -0.20048   0.95947
   0.07794  -0.20048   0.72005
   0.07794  -0.20048   0.72005
   0.07794  -0.20048   0.95947
   0.07794  -0.20048   0.95947
   0.07794  -0.20048   0.95947
   0.31736  -0.20048   0.72005
   0.07794  -0.20048   0.95947
   0.07794  -0.20048   0.95947
   0.07794  -0.20048   0.95947
   0.31736  -0.20048   0.95947
   0.31736  -0.20048   0.95947
   0.31736  -0.20048   0.95947
   0.31736   0.03894   1.19889
   0.31736  -0.20048   0.95947
   0.31736  -0.20048   1.19889
   0.55678  -0.20048   1.19889
   0.55678  -0.20048   0.95947
   0.31736   0.03894   0.95947
   0.55678  -0.20048   1.19889
   0.55678   0.03894   1.19889
   0.55678  -0.20048   1.19889
   0.55678   0.03894   1.19889
   0.55678   0.03894   1.19889
   0.55678   0.03894   1.19889
   0.55678  -0.20048   1.19889
   0.79620   0.03894   1.19889
   0.79620   0.03894   1.19889
   0.55678   0.03894   0.95947
   0.79620   0.03894   1.19889
   0.79620   0.03894   1.19889
   0.79620  -0.20048   1.19889
   0.79620  -0.20048   1.19889
   0.79620   0.03894   1.19889
   0.79620  -0.20048   1.19889
   0.79620  -0.20048   1.19889
   0.79620  -0.20048   1.19889
   0.79620   0.03894   1.19889
   1.03562  -0.20048   1.19889
   0.79620  -0.20048   1.19889
   1.03562   0.03894   1.19889
   0.79620  -0.20048   1.19889
   1.03562   0.03894   1.19889
   1.27504   0.03894   1.19889
   1.03562   0.03894   0.95947
   1.03562  -0.20048   0.95947
   0.79620  -0.20048   1.19889
   1.03562  -0.20048   1.19889
   1.27504  -0.20048   1.19889
   1.27504   0.03894   1.19889
   1.27504  -0.20048   1.19889
   1.27504  -0.20048   0.95947
   1.03562  -0.20048   1.19889
   1.27504  -0.20048   0.95947
   1.27504  -0.20048   0.95947
   1.27504  -0.20048   1.19889
   1.27504  -0.20048   1.19889
   1.27504  -0.20048   0.95947
   1.27504  -0.43990   0.95947
   1.03562  -0.20048   0.95947
   1.27504  -0.20048   0.95947
   1.27504  -0.20048   0.95947
   1.03562  -0.43990   0.95947
   1.03562  -0.20048   0.95947
   1.03562  -0.20048   0.95947
   1.03562  -0.43990   0.95947
   1.03562  -0.20048   0.95947
   1.03562  -0.20048   0.95947
   0.79620  -0.20048   0.95947
   1.03562  -0.20048   0.95947
   1.27504  -0.20048   0.95947
   1.03562  -0.20048   0.95947
   1.27504  -0.20048   0.72005
   1.03562  -0.20048   0.95947
   0.79620  -0.20048   0.95947
   0.79620  -0.20048   0.72005
   0.79620  -0.20048   0.72005
   0.79620  -0.20048   0.95947
   1.03562  -0.43990   0.72005
   1.03562  -0.20048   0.72005
   1.03562  -0.20048   0.72005
   0.79620   0.03894   0.48063
