********************************************************************************
              CENTRO DE INSTRUMENTACION Y REGISTRO SISMICO  A.C.

    Anaxagoras 814, Col. Narvarte, Benito Juarez, C.P. 03020 Mexico, D.F.
           Tels. 5687 45 42/ 5687 45  82             Fax. 5669 25 12
********************************************************************************
ARCHIVO ESTANDAR DE ACELERACION:
VERSION DEL FORMATO                    : 2.0
NOMBRE DEL ARCHIVO                     : BA4920160508073359
FECHA Y HORA DE CREACION               : 31/MAY/16, 11:10
REF. CATALOGO ACELEROGRAMAS, SMIS 1996 : REGISTRO No.     /PAG.


================================================================================
DATOS DE LA ESTACION:
NOMBRE DE LA ESTACION                  : BUENOS AIRES
CLAVE DE LA ESTACION                   : BA49
LOCALIZACION DE LA ESTACION            : Del. Cuauhtémoc, Col. Doctores,        
                                       : Av. Lázaro Cárdenas esq. con           
                                       : Calle Dr. Márquez.                     
                                       :                                        
                                       : 
COORDENADAS DE LA ESTACION             : 19.4097 LAT. N
                                       : 99.1450 LONG. W
ALTITUD (msnm)                         : 2233
TIPO DE SUELO                          : Terreno blando, material compresible
                                       : (arcillas)                
                                       : 
INSTITUCION RESPONSABLE                : CIRES
                                       : 

================================================================================
DATOS DEL ACELEROGRAFO:
MODELO DEL ACELEROGRAFO                : RADESD
NUMERO DE SERIE DEL ACELEROGRAFO       : 176
NUMERO DE CANALES                      : 3
ORIENTACION C1-C6 (rumbo;orientacion)  : /S00E/+V/N90W
ORIENTACION C7-C12 (rumbo;orientacion) : 
VEL. DE MUESTREO, C1-C6 (muestras/s)   : /100/100/100
VEL. DE MUESTREO, C7-C12 (muestras/s)  : 
ESC. COMPLETA DE SENSORES, C1-C6, (g)  : /0.5/0.5/0.5
ESC. COMPLETA DE SENSORES, C7-C12, (g) : 
FREC. NAT. DE SENSORES, C1-C6, (Hz)    : /52.99/52.03/52.99
FREC. NAT. DE SENSORES, C7-C12, (Hz)   : 
AMORTIGUAMIENTO DE SENSORES, C1-C6     : /0.5589/0.5469/0.6096
AMORTIGUAMIENTO DE SENSORES, C7-C12    : 
INTERVALO DE MUESTREO, C1-C6, (s)      : /0.01/0.01/0.01
INTERVALO DE MUESTREO, C7-C12, (s)     : 
UMBRAL DE DISPARO, C1-C6, (Gal)        : /0.96/1.92/0.96
UMBRAL DE DISPARO, C7-C12, (Gal)       : 
MEMORIA DE PREEVENTO (s)               : 44.0
TIEMPO DE POSEVENTO (s)                : 126.0


================================================================================
DATOS DEL SISMO:
FECHA DEL SISMO (GMT)                  : 08/MAY/16
HORA EPICENTRO (GMT)                   : 07:33:59.0
MAGNITUD(ES)                           : /Mc=6.0
COORDENADAS DEL EPICENTRO              : 16.25 LAT. N
                                       : 97.98 LONG. W
PROFUNDIDAD FOCAL (km)                 : 35
FUENTE DE LOS DATOS EPICENTRALES       : SSN
                                       : INSTITUTO DE GEOFISICA, UNAM

================================================================================
DATOS DE ESTE REGISTRO:
HORA DE LA PRIMERA MUESTRA (GMT)       : 07:35:46.00
EXACTITUD DEL TIEMPO (s)               : 0.01
DURACION DEL REGISTRO (s), C1-C6       : /278.0/278.0/278.0
DURACION DEL REGISTRO (s), C7-C12      : 
NUM. TOTAL DE MUESTRAS, C1-C6          : /27800/27800/27800
NUM. TOTAL DE MUESTRAS, C7-C12         : 
ACEL. MAX. (Gal), C1-C6                : /4.57862/1.83627/4.79993
ACEL. MAX., C1-C6, EN LA MUESTRA       : /7277/5890/7889
ACEL. MAX. (Gal), C7-C12               : 
ACEL. MAX., C7-C12, EN LA MUESTRA      : 
UNIDADES DE LOS DATOS                  : Gal (cm/s/s)
FACTOR DE DECIMACION                   : 1
FORMATO DATOS (FORTRAN,10 campos/dato) : 3F10.5


================================================================================
CALIDAD DEL ACELEROGRAMA:
REGISTRO DIGITAL COMPLETO CON TIEMPO ABSOLUTO CORRECTO.


================================================================================
COMENTARIOS:














================================================================================
DATOS DE ACELERACION:
---------+---------+---------+---------+---------+---------+---------+---------+
   CANAL-1   CANAL-2   CANAL-3   CANAL-4   CANAL-5   CANAL-6   CANAL-7   CANAL-8
      S00E        +V      N90W
---------+---------+---------+---------+---------+---------+---------+---------+
[...]
   1.39134  -0.00427   1.16374
   1.30156   0.02566   1.02906
   1.25667   0.13040   0.96921
   1.19681   0.08551   0.78964
   1.10703   0.10048   0.69986
   1.00229   0.02566   0.56519
   0.92747   0.10048   0.40059
   0.82272   0.11544   0.22102
   0.76287   0.10048   0.11627
   0.64316   0.02566   0.08635
   0.52345  -0.04916  -0.00344
   0.41870  -0.03420  -0.10818
   0.28403  -0.07909  -0.19796
   0.19424  -0.09405  -0.33264
   0.16432  -0.12398  -0.43738
   0.02964  -0.12398  -0.55709
  -0.06014  -0.13894  -0.72170
  -0.13496  -0.07909  -0.82644
  -0.19482  -0.13894  -0.94615
  -0.34445  -0.16887  -0.94615
  -0.50905  -0.12398  -1.06586
  -0.61380  -0.07909  -1.12572
  -0.68862  -0.06413  -1.29032
  -0.83826  -0.03420  -1.35017
  -0.97293  -0.03420  -1.38010
  -1.09264  -0.01923  -1.43996
  -1.22731  -0.03420  -1.51478
  -1.33206  -0.01923  -1.51478
  -1.42184  -0.00427  -1.63449
  -1.60141   0.02566  -1.64945
  -1.72112   0.04062  -1.64945
  -1.82587   0.02566  -1.66441
  -1.97550   0.05558  -1.70930
  -2.06529   0.07055  -1.75420
  -2.17003   0.08551  -1.73923
  -2.33463   0.07055  -1.76916
  -2.42442   0.10048  -1.75420
  -2.52916   0.08551  -1.69434
  -2.63391   0.08551  -1.70930
  -2.81347   0.05558  -1.67938
  -2.88829   0.04062  -1.67938
  -3.02297  -0.01923  -1.67938
  -3.08282  -0.00427  -1.57463
  -3.20253  -0.06413  -1.57463
  -3.29231  -0.09405  -1.51478
  -3.36713  -0.12398  -1.51478
  -3.41202  -0.15391  -1.43996
  -3.53173  -0.18384  -1.38010
  -3.62152  -0.25865  -1.33521
  -3.72626  -0.27362  -1.21550
  -3.77115  -0.31851  -1.18557
  -3.86094  -0.34844  -1.09579
  -3.92079  -0.40829  -1.02097
  -3.96568  -0.42326  -0.87133
  -4.04050  -0.48311  -0.72170
  -4.13028  -0.52800  -0.66184
  -4.10036  -0.48311  -0.49724
  -4.22007  -0.57289  -0.34760
  -4.26496  -0.57289  -0.25782
  -4.33978  -0.55793  -0.09322
  -4.30985  -0.51304   0.01153
  -4.36970  -0.64771   0.14620
  -4.41460  -0.60282   0.26591
  -4.36970  -0.46815   0.38562
  -4.36970  -0.54297   0.49037
  -4.38467  -0.49807   0.61008
  -4.36970  -0.49807   0.71483
  -4.32481  -0.58786   0.80461
  -4.26496  -0.49807   0.84950
  -4.20510  -0.49807   0.95425
  -4.19014  -0.45318   0.99914
  -4.11532  -0.45318   1.07396
  -4.04050  -0.43822   1.11885
  -3.92079  -0.33347   1.16374
  -3.86094  -0.30355   1.17870
  -3.75619  -0.24369   1.22359
  -3.63648  -0.22873   1.20863
  -3.48684  -0.15391   1.25352
  -3.32224  -0.19880   1.26848
  -3.24742  -0.12398   1.25352
  -3.08282  -0.04916   1.28345
  -2.88829   0.01069   1.23856
  -2.70873   0.04062   1.19367
  -2.57405   0.11544   1.19367
  -2.39449   0.16033   1.16374
  -2.17003   0.22019   1.11885
  -2.03536   0.28004   1.08892
  -1.85579   0.36982   1.04403
  -1.67623   0.38479   0.90935
  -1.52659   0.47457   0.87943
  -1.33206   0.54939   0.81957
  -1.15250   0.62421   0.69986
  -1.00286   0.63917   0.62504
  -0.86818   0.68406   0.50533
  -0.70358   0.71399   0.43051
  -0.55395   0.72895   0.32577
  -0.38934   0.72895   0.19109
  -0.28460   0.75888   0.16117
  -0.13496   0.78881   0.02649
  -0.04518   0.75888   0.01153
   0.07453   0.80377  -0.07825
   0.14935   0.81874  -0.18300
   0.20921   0.80377  -0.24286
   0.31395   0.80377  -0.28775
   0.38877   0.83370  -0.39249
   0.44863   0.81874  -0.43738
   0.47855   0.84866  -0.46731
   0.49352   0.81874  -0.48228
   0.52345   0.81874  -0.52717
   0.55337   0.78881  -0.55709
   0.56834   0.72895  -0.57206
   0.62819   0.69903  -0.55709
   0.62819   0.66910  -0.55709
   0.58330   0.65413  -0.52717
   0.64316   0.66910  -0.54213
   0.64316   0.57932  -0.49724
   0.70301   0.59428  -0.48228
   0.73294   0.59428  -0.43738
   0.74790   0.51946  -0.37753
   0.74790   0.47457  -0.34760
   0.76287   0.41471  -0.34760
   0.80776   0.38479  -0.25782
   0.85265   0.36982  -0.22789
   0.86761   0.29500  -0.19796
   0.92747   0.22019  -0.18300
   0.95739   0.16033  -0.12315
   1.00229   0.14537  -0.07825
   0.98732   0.05558   0.02649
   1.07710   0.01069  -0.01840
   1.10703  -0.01923   0.08635
   1.10703  -0.07909   0.13124
   1.15192  -0.13894   0.17613
   1.21178  -0.09405   0.28088
   1.12200  -0.22873   0.34073
   1.21178  -0.13894   0.29584
   1.22674  -0.21376   0.37066
   1.22674  -0.21376   0.44548
   1.25667  -0.28858   0.47541
   1.27163  -0.30355   0.58015
   1.25667  -0.30355   0.58015
   1.30156  -0.24369   0.68490
   1.22674  -0.28858   0.71483
   1.30156  -0.28858   0.65497
   1.30156  -0.27362   0.83454
   1.30156  -0.28858   0.81957
   1.28660  -0.30355   0.93928
   1.31652  -0.30355   0.96921
   1.36142  -0.27362   0.95425
   1.36142  -0.33347   1.08892
   1.42127  -0.28858   0.98417
   1.48113  -0.24369   1.04403
   1.52602  -0.24369   1.01410
   1.58587  -0.24369   1.14877
   1.60084  -0.27362   1.13381
   1.67565  -0.30355   1.13381
   1.72055  -0.28858   1.17870
   1.79536  -0.21376   1.19367
   1.79536  -0.25865   1.22359
   1.87018  -0.25865   1.25352
   1.98989  -0.24369   1.23856
   1.95997  -0.22873   1.23856
   2.03479  -0.16887   1.22359
   2.10960  -0.19880   1.26848
   2.13953  -0.16887   1.28345
   2.15450  -0.18384   1.28345
   2.21435  -0.10902   1.22359
   2.22931  -0.13894   1.19367
   2.25924  -0.09405   1.22359
   2.25924  -0.07909   1.23856
   2.28917   0.02566   1.07396
   2.33406   0.05558   1.19367
   2.33406   0.16033   1.07396
   2.31910   0.11544   1.05899
   2.36399   0.23515   0.99914
   2.33406   0.25011   0.92432
   2.36399   0.35486   0.86446
   2.33406   0.38479   0.72979
   2.30413   0.36982   0.61008
   2.28917   0.39975   0.55022
   2.28917   0.48953   0.44548
   2.27421   0.51946   0.34073
   2.25924   0.53442   0.29584
   2.25924   0.56435   0.17613
   2.21435   0.54939   0.07138
   2.27421   0.62421  -0.12315
   2.28917   0.57932  -0.18300
   2.28917   0.54939  -0.25782
   2.30413   0.56435  -0.37753
   2.40888   0.57932  -0.51220
   2.42384   0.50450  -0.63191
   2.46873   0.53442  -0.70673
   2.43881   0.42968  -0.75162
   2.48370   0.41471  -0.85637
   2.54355   0.41471  -0.94615
   2.55852   0.29500  -1.03593
   2.55852   0.26508  -1.09579
   2.51363   0.16033  -1.24543
   2.55852   0.22019  -1.24543
   2.52859   0.07055  -1.20054
   2.49866   0.01069  -1.24543
   2.49866  -0.01923  -1.33521
   2.48370  -0.00427  -1.43996
   2.45377  -0.09405  -1.46988
   2.39392  -0.07909  -1.58959
   2.31910  -0.22873  -1.58959
   2.24428  -0.13894  -1.63449
   2.12457  -0.21376  -1.70930
   2.03479  -0.21376  -1.76916
   1.88515  -0.18384  -1.84398
   1.75047  -0.16887  -1.90383
   1.61580  -0.15391  -1.85894
   1.37638  -0.21376  -1.81405
   1.27163  -0.16887  -1.84398
   1.04718  -0.19880  -1.79909
   0.94243  -0.13894  -1.82901
   0.79279  -0.09405  -1.99362
   0.67308  -0.09405  -1.85894
   0.43366  -0.13894  -1.84398
   0.25410  -0.21376  -1.81405
   0.13439  -0.13894  -1.82901
  -0.04518  -0.16887  -1.82901
  -0.16489  -0.09405  -1.76916
  -0.37438  -0.13894  -1.66441
  -0.46416  -0.10902  -1.61952
  -0.65869  -0.19880  -1.54470
  -0.73351  -0.10902  -1.52974
  -0.82329  -0.15391  -1.49981
  -0.95797  -0.21376  -1.33521
  -1.09264  -0.21376  -1.32025
  -1.16746  -0.30355  -1.26039
  -1.25724  -0.30355  -1.15564
  -1.37695  -0.34844  -1.05090
  -1.46673  -0.42326  -0.93119
  -1.52659  -0.42326  -0.90126
  -1.57148  -0.45318  -0.75162
  -1.63134  -0.49807  -0.69177
  -1.69119  -0.57289  -0.57206
  -1.75105  -0.55793  -0.49724
  -1.84083  -0.64771  -0.45235
  -1.88572  -0.63275  -0.39249
  -1.88572  -0.67764  -0.33264
  -1.93061  -0.69260  -0.33264
  -1.97550  -0.70757  -0.24286
  -2.03536  -0.75246  -0.22789
  -2.06529  -0.81231  -0.19796
  -2.05032  -0.78239  -0.19796
  -2.11018  -0.87217  -0.12315
  -2.11018  -0.78239  -0.16804
  -2.17003  -0.78239  -0.15307
  -2.19996  -0.78239  -0.13811
  -2.18500  -0.76742  -0.15307
  -2.18500  -0.73749  -0.22789
  -2.22989  -0.69260  -0.18300
  -2.18500  -0.67764  -0.30271
  -2.18500  -0.66268  -0.30271
  -2.14010  -0.63275  -0.28775
  -2.15507  -0.60282  -0.39249
  -2.09521  -0.52800  -0.43738
  -2.12514  -0.49807  -0.46731
  -2.03536  -0.46815  -0.48228
  -2.03536  -0.42326  -0.58702
  -1.96054  -0.33347  -0.64688
  -1.94558  -0.27362  -0.70673
  -1.90068  -0.33347  -0.73666
  -1.84083  -0.22873  -0.88630
  -1.76601  -0.12398  -0.90126
  -1.73608  -0.22873  -0.93119
  -1.66126  -0.15391  -1.05090
  -1.60141  -0.01923  -1.06586
  -1.51163   0.07055  -1.18557
  -1.46673  -0.00427  -1.23046
  -1.40688   0.10048  -1.27535
  -1.36199   0.20522  -1.36514
  -1.28717   0.23515  -1.36514
  -1.21235   0.28004  -1.39506
  -1.13753   0.29500  -1.52974
  -1.13753   0.36982  -1.52974
  -1.06271   0.41471  -1.52974
  -1.01782   0.44464  -1.60456
  -0.95797   0.41471  -1.60456
  -0.92804   0.47457  -1.60456
  -0.86818   0.50450  -1.64945
  -0.85322   0.50450  -1.72427
  -0.80833   0.48953  -1.69434
  -0.77840   0.57932  -1.72427
  -0.80833   0.59428  -1.69434
  -0.80833   0.62421  -1.75420
  -0.82329   0.62421  -1.66441
  -0.83826   0.62421  -1.67938
  -0.82329   0.63917  -1.69434
  -0.91308   0.62421  -1.69434
  -0.89811   0.69903  -1.66441
  -0.94300   0.68406  -1.60456
  -0.97293   0.69903  -1.60456
  -1.00286   0.71399  -1.57463
  -1.00286   0.69903  -1.52974
  -1.03279   0.71399  -1.46988
  -1.07768   0.66910  -1.38010
  -1.09264   0.63917  -1.36514
  -1.07768   0.65413  -1.30528
  -1.10760   0.60924  -1.20054
  -1.07768   0.59428  -1.15564
  -1.10760   0.57932  -1.05090
  -1.04775   0.56435  -1.05090
  -1.06271   0.53442  -0.87133
  -1.04775   0.42968  -0.82644
  -1.03279   0.38479  -0.69177
  -1.01782   0.36982  -0.58702
  -0.97293   0.32493  -0.46731
  -0.95797   0.35486  -0.36257
  -0.94300   0.26508  -0.19796
  -0.95797   0.17529  -0.12315
  -0.97293   0.19026   0.07138
  -0.92804   0.13040   0.17613
  -0.86818   0.05558   0.31080
  -0.83826   0.05558   0.46044
  -0.86818   0.02566   0.61008
  -0.86818  -0.06413   0.75972
  -0.83826  -0.12398   0.92432
  -0.89811  -0.10902   1.08892
  -0.85322  -0.13894   1.29841
  -0.88315  -0.18384   1.41812
  -0.91308  -0.24369   1.62761
  -0.85322  -0.25865   1.79222
  -0.85322  -0.30355   1.97178
  -0.89811  -0.34844   2.16631
  -0.86818  -0.39333   2.28602
  -0.91308  -0.45318   2.54040
  -0.85322  -0.42326   2.66011
  -0.88315  -0.46815   2.83968
  -0.82329  -0.49807   2.98932
  -0.85322  -0.57289   3.24370
  -0.83826  -0.63275   3.36341
  -0.74847  -0.63275   3.52801
  -0.68862  -0.61778   3.66269
  -0.62876  -0.63275   3.78240
  -0.55395  -0.60282   3.85721
  -0.50905  -0.69260   3.99189
  -0.43424  -0.64771   4.15649
  -0.32949  -0.60282   4.29116
  -0.25467  -0.58786   4.36598
  -0.17985  -0.58786   4.42584
  -0.12000  -0.60282   4.51562
  -0.03021  -0.60282   4.57548
   0.01468  -0.55793   4.71015
   0.04460  -0.58786   4.75504
   0.13439  -0.48311   4.79993
   0.26906  -0.48311   4.77000
   0.35884  -0.42326   4.74008
   0.38877  -0.36340   4.75504
   0.43366  -0.24369   4.72511
   0.59826  -0.16887   4.66526
   0.70301  -0.12398   4.59044
   0.68805  -0.06413   4.60540
   0.71797   0.02566   4.51562
   0.79279   0.08551   4.42584
   0.83768   0.17529   4.32109
   0.97236   0.26508   4.14153
   1.01725   0.33990   4.02182
   1.06214   0.36982   3.84225
   1.10703   0.45961   3.67765
   1.22674   0.59428   3.57290
   1.25667   0.59428   3.46816
   1.31652   0.65413   3.30356
   1.36142   0.69903   3.15392
   1.45120   0.71399   2.98932
   1.52602   0.78881   2.82472
   1.60084   0.80377   2.67508
   1.63076   0.83370   2.43566
   1.73551   0.90852   2.37580
   1.76544   0.92348   2.18127
   1.82529   0.89356   2.15135
   1.88515   0.92348   2.01667
   1.97493   0.93845   1.77725
   1.98989   0.87859   1.76229
   2.03479   0.86363   1.68747
   2.15450   0.87859   1.50790
   2.21435   0.81874   1.37323
   2.18442   0.71399   1.23856
   2.22931   0.72895   1.10388
   2.19939   0.66910   1.13381
   2.28917   0.65413   1.04403
   2.30413   0.59428   0.87943
   2.28917   0.48953   0.80461
   2.30413   0.44464   0.69986
   2.28917   0.41471   0.66993
   2.25924   0.29500   0.68490
   2.31910   0.29500   0.50533
   2.34902   0.22019   0.44548
   2.30413   0.22019   0.32577
   2.28917   0.19026   0.23598
   2.28917   0.11544   0.16117
   2.24428   0.07055   0.02649
   2.21435   0.10048  -0.03336
   2.21435   0.01069  -0.10818
   2.16946  -0.03420  -0.22789
   2.16946  -0.00427  -0.34760
   2.07968  -0.00427  -0.42242
   2.09464  -0.04916  -0.48228
   2.01982  -0.10902  -0.57206
   2.00486  -0.10902  -0.61695
   1.97493  -0.10902  -0.66184
   1.93004  -0.10902  -0.82644
   1.88515  -0.16887  -0.82644
   1.81033  -0.19880  -0.96112
   1.75047  -0.16887  -1.06586
   1.67565  -0.19880  -1.14068
   1.64573  -0.21376  -1.20054
   1.58587  -0.27362  -1.23046
   1.58587  -0.28858  -1.24543
   1.45120  -0.33347  -1.24543
   1.39134  -0.33347  -1.30528
   1.39134  -0.37836  -1.41003
   1.31652  -0.37836  -1.45492
   1.22674  -0.46815  -1.48485
   1.16689  -0.49807  -1.58959
   1.13696  -0.49807  -1.70930
   1.04718  -0.55793  -1.64945
   1.00229  -0.54297  -1.66441
   0.95739  -0.55793  -1.72427
   0.83768  -0.61778  -1.75420
   0.74790  -0.69260  -1.79909
   0.68805  -0.63275  -1.85894
   0.53841  -0.72253  -1.76916
   0.50848  -0.70757  -1.79909
   0.44863  -0.67764  -1.96369
   0.37381  -0.72253  -2.00858
   0.25410  -0.72253  -1.88887
   0.22417  -0.70757  -1.97865
   0.14935  -0.75246  -1.94872
   0.04460  -0.73749  -1.97865
  -2.9E-40  -0.75246  -1.97865
  -0.06014  -0.67764  -2.02354
  -0.19482  -0.70757  -2.00858
  -0.28460  -0.75246  -2.06843
  -0.37438  -0.64771  -2.03851
  -0.46416  -0.69260  -2.11333
  -0.53898  -0.64771  -2.08340
  -0.68862  -0.72253  -2.11333
  -0.73351  -0.60282  -2.11333
  -0.83826  -0.60282  -2.17318
  -0.88315  -0.54297  -2.17318
  -1.01782  -0.52800  -2.18814
  -1.09264  -0.51304  -2.26296
  -1.18242  -0.42326  -2.30785
  -1.25724  -0.37836  -2.29289
  -1.36199  -0.37836  -2.30785
  -1.37695  -0.31851  -2.38267
  -1.43681  -0.25865  -2.39764
  -1.52659  -0.18384  -2.44253
  -1.51163  -0.18384  -2.47246
  -1.54155  -0.07909  -2.50238
  -1.60141  -0.00427  -2.56224
  -1.61637   0.04062  -2.54727
  -1.63134   0.11544  -2.54727
  -1.64630   0.19026  -2.62209
  -1.67623   0.22019  -2.66698
  -1.72112   0.33990  -2.71188
  -1.70616   0.42968  -2.74180
  -1.70616   0.48953  -2.80166
  -1.70616   0.47457  -2.86151
  -1.73608   0.56435  -2.89144
  -1.75105   0.62421  -2.90640
  -1.79594   0.63917  -2.99619
  -1.75105   0.62421  -3.05604
  -1.76601   0.74392  -3.08597
  -1.79594   0.77384  -3.08597
  -1.79594   0.71399  -3.19072
  -1.79594   0.78881  -3.17575
  -1.81090   0.81874  -3.22064
  -1.81090   0.75888  -3.31043
  -1.81090   0.78881  -3.29546
  -1.84083   0.75888  -3.32539
  -1.81090   0.77384  -3.37028
  -1.82587   0.71399  -3.32539
  -1.76601   0.72895  -3.38525
  -1.73608   0.72895  -3.37028
  -1.76601   0.71399  -3.37028
  -1.72112   0.66910  -3.35532
  -1.66126   0.71399  -3.34035
  -1.66126   0.66910  -3.31043
  -1.64630   0.62421  -3.26553
  -1.61637   0.62421  -3.23561
  -1.60141   0.57932  -3.20568
  -1.60141   0.51946  -3.16079
  -1.51163   0.50450  -3.07101
  -1.55652   0.44464  -2.96626
  -1.45177   0.39975  -2.93633
  -1.43681   0.32493  -2.78669
  -1.40688   0.28004  -2.68195
  -1.37695   0.26508  -2.59217
  -1.34702   0.25011  -2.41260
  -1.30213   0.14537  -2.29289
  -1.33206   0.10048  -2.14325
  -1.31710   0.13040  -2.00858
  -1.24228   0.02566  -1.82901
