********************************************************************************
               CENTRO DE INSTRUMENTACION Y REGISTRO SISMICO  A.C.  
                       Coordinacion de Servicios Tecnicos
     Anaxagoras 814, Col. Narvarte, Benito Juarez, C.P. 03020 Mexico, D.F.
            Tels. 687 45 42/ 687 45  82             Fax. 669 25 12
********************************************************************************
ARCHIVO ESTANDAR DE ACELERACION:
VERSION DEL FORMATO                    : 2.0
NOMBRE DEL ARCHIVO                     : BA499510.121
FECHA Y HORA DE CREACION               : 19 de marzo de 1996/9:01
REF. CATALOGO ACELEROGRAMAS, SMIS 1995 : REGISTRO No.     /PAG.


================================================================================
DATOS DE LA ESTACION:
NOMBRE DE LA ESTACION                  : BUENOS AIRES
CLAVE DE LA ESTACION                   : BA49
LOCALIZACION DE LA ESTACION            : ESCUELA SECUNDARIA 102, DOCTOR MARQUEZ
                                       : Y EJE CENTRAL, BUENOS AIRES.
                                       :
                                       :
                                       :
COORDENADAS DE LA ESTACION             : 19.410 LAT. N 
                                       : 99.145 LONG. W 
ALTITUD (msnm)                         : 2233
TIPO DE SUELO                          : TERRENO BLANDO, MATERIAL COMPRESIBLE
                                       : (ARCILLAS)
                                       : 
INSTITUCION RESPONSABLE                : CIRES 
                                       :

================================================================================
DATOS DEL ACELEROGRAFO:
MODELO DEL ACELEROGRAFO                : SSA-1
NUMERO DE SERIE DEL ACELEROGRAFO       : 176
NUMERO DE CANALES                      : 3
ORIENTACION C1-C6 (rumbo;orientacion)  : /N00E/+V/N90E
ORIENTACION C7-C12 (rumbo;orientacion) :
VEL. DE MUESTREO, C1-C6 (muestras/s)   : /200/200/200
VEL. DE MUESTREO, C7-C12 (muestras/s)  :
ESC. COMPLETA DE SENSORES, C1-C6, (g)  : /2/2/2
ESC. COMPLETA DE SENSORES, C7-C12, (g) :
FREC. NAT. DE SENSORES, C1-C6, (Hz)    : /50/50/50
FREC. NAT. DE SENSORES, C7-C12, (Hz)   :
AMORTIGUAMIENTO DE SENSORES, C1-C6     : /0.700/0.700/0.700
AMORTIGUAMIENTO DE SENSORES, C7-C12    :
INTERVALO DE MUESTREO, C1-C6, (s)      : /0.005/0.005/0.005
INTERVALO DE MUESTREO, C7-C12, (s)     :
UMBRAL DE DISPARO, C1-C6, (Gal)        : /2/2/2
UMBRAL DE DISPARO, C7-C12, (Gal)       :
MEMORIA DE PREEVENTO (s)               : 15
TIEMPO DE POSEVENTO (s)                : 60


================================================================================
DATOS DEL SISMO:
FECHA DEL SISMO (GMT)                  : 12/OCT/95
HORA EPICENTRO (GMT)                   : 16:53:04.3
MAGNITUD(ES)                           : /Mc=5.5/Mb=5.5/Me=6.1
COORDENADAS DEL EPICENTRO              : 19.04 LAT. N
                                       : 103.20 LONG W
PROFUNDIDAD FOCAL (km)                 : 11
FUENTE DE LOS DATOS EPICENTRALES       : INSTITUTO DE INGENIERIA UNAM
                                       : INSTITUTO DE GEOFISICA, UNAM

================================================================================
DATOS DE ESTE REGISTRO:
HORA DE LA PRIMERA MUESTRA (GMT)       : 16:55:44.00
EXACTITUD DEL TIEMPO (s)               :     
DURACION DEL REGISTRO (s), C1-C6       : /134.40/134.40/134.40
DURACION DEL REGISTRO (s), C7-C12      :
NUM. TOTAL DE MUESTRAS, C1-C6          : /26880/26880/26880
NUM. TOTAL DE MUESTRAS, C7-C12         :
ACEL. MAX. (Gal), C1-C6                : /3.98833/1.59802/2.91153
ACEL. MAX., C1-C6, EN LA MUESTRA       :
ACEL. MAX. (Gal), C7-C12               :
ACEL. MAX., C7-C12, EN LA MUESTRA      :
UNIDADES DE LOS DATOS                  : Gal (cm/s/s)
FACTOR DE DECIMACION                   : 1
FORMATO DATOS (FORTRAN,10 campos/dato) : 3F10.5


================================================================================
CALIDAD DEL ACELEROGRAMA:
REGISTRO DIGITAL COMPLETO, CARECE DE TIEMPO ABSOLUTO.


================================================================================
COMENTARIOS:
             EL EQUIPO SE ENCONTRABA CON GANANCIAS DE 4 EN TODOS LOS EJES,
             POR LO QUE LAS ESCALAS COMPLETAS ERAN DE 1/2 G.












================================================================================
DATOS DE ACELERACION:
---------+---------+---------+---------+---------+---------+---------+---------+
   CANAL-1   CANAL-2   CANAL-3   CANAL-4   CANAL-5   CANAL-6   CANAL-7   CANAL-8
      N00E        +V      N90E
---------+---------+---------+---------+---------+---------+---------+---------+
[...]
  -0.80167   0.08198   0.19847
  -0.80167   0.08198   0.19847
  -1.04167   0.08198   0.19847
  -0.80167   0.08198   0.19847
  -0.80167   0.08198  -0.04153
  -1.04167   0.08198  -0.04153
  -1.04167   0.08198  -0.04153
  -1.04167   0.08198  -0.04153
  -1.28167   0.32198  -0.04153
  -1.28167   0.08198  -0.04153
  -1.28167   0.08198  -0.04153
  -1.28167   0.08198  -0.04153
  -1.28167   0.08198  -0.04153
  -1.28167   0.08198  -0.04153
  -1.52167   0.08198  -0.04153
  -1.52167   0.08198  -0.04153
  -1.52167   0.08198  -0.04153
  -1.52167   0.08198  -0.27153
  -1.52167  -0.15802  -0.27153
  -1.52167  -0.15802  -0.04153
  -1.76167  -0.15802  -0.27153
  -1.76167   0.08198  -0.27153
  -1.76167   0.08198  -0.27153
  -2.00167   0.08198  -0.27153
  -2.00167   0.08198  -0.27153
  -2.00167   0.08198  -0.27153
  -2.00167  -0.15802  -0.27153
  -2.00167  -0.15802  -0.27153
  -2.00167  -0.15802  -0.27153
  -2.24167  -0.15802  -0.04153
  -2.24167   0.08198  -0.27153
  -2.24167   0.08198  -0.27153
  -2.24167   0.08198  -0.27153
  -2.24167   0.08198  -0.27153
  -2.24167   0.08198  -0.27153
  -2.24167   0.08198  -0.04153
  -2.48167   0.32198  -0.04153
  -2.72167   0.32198  -0.27153
  -2.72167   0.32198  -0.27153
  -2.72167   0.08198  -0.27153
  -2.48167   0.08198  -0.27153
  -2.48167  -0.15802  -0.27153
  -2.48167  -0.15802  -0.04153
  -2.48167   0.08198  -0.27153
  -2.72167   0.08198  -0.27153
  -2.72167   0.08198  -0.27153
  -2.72167  -0.15802  -0.27153
  -2.72167   0.08198  -0.27153
  -2.72167  -0.15802  -0.27153
  -2.72167  -0.15802  -0.27153
  -2.72167   0.08198  -0.27153
  -2.72167   0.08198  -0.27153
  -2.95167   0.08198  -0.04153
  -2.95167   0.08198  -0.27153
  -2.95167  -0.15802  -0.27153
  -2.95167  -0.15802  -0.04153
  -2.95167  -0.15802  -0.27153
  -2.95167  -0.15802  -0.27153
  -2.95167  -0.15802  -0.27153
  -2.95167  -0.15802  -0.27153
  -2.95167  -0.15802  -0.04153
  -2.95167  -0.15802  -0.27153
  -2.95167  -0.15802  -0.27153
  -2.95167  -0.15802  -0.27153
  -2.95167  -0.15802  -0.04153
  -3.19167  -0.15802  -0.27153
  -3.19167  -0.15802  -0.04153
  -3.19167  -0.39802  -0.27153
  -3.19167  -0.15802  -0.27153
  -3.19167  -0.15802  -0.27153
  -3.19167  -0.15802  -0.27153
  -3.19167  -0.15802  -0.27153
  -3.19167  -0.15802  -0.27153
  -3.19167  -0.15802  -0.27153
  -3.19167  -0.15802  -0.27153
  -2.95167  -0.15802  -0.27153
  -2.95167  -0.15802  -0.27153
  -3.19167  -0.15802  -0.04153
  -3.19167  -0.15802  -0.04153
  -3.19167  -0.39802  -0.04153
  -3.19167  -0.15802  -0.27153
  -3.19167  -0.15802  -0.27153
  -3.19167  -0.39802  -0.04153
  -3.19167  -0.15802  -0.04153
  -3.19167  -0.39802  -0.27153
  -3.19167  -0.15802  -0.04153
  -3.19167  -0.15802  -0.04153
  -3.19167  -0.15802  -0.04153
  -3.19167  -0.15802  -0.04153
  -3.19167  -0.15802  -0.04153
  -3.19167  -0.39802  -0.04153
  -3.19167  -0.39802  -0.27153
  -2.95167  -0.39802  -0.27153
  -2.95167  -0.15802  -0.04153
  -2.95167  -0.39802  -0.27153
  -2.95167  -0.15802  -0.04153
  -2.95167  -0.15802  -0.27153
  -2.95167  -0.15802  -0.27153
  -2.95167  -0.39802  -0.04153
  -2.95167  -0.39802  -0.04153
  -2.95167  -0.15802  -0.04153
  -3.19167  -0.15802  -0.04153
  -3.19167   0.08198  -0.04153
  -2.95167  -0.15802  -0.04153
  -2.72167  -0.39802  -0.04153
  -2.72167  -0.63802   0.19847
  -2.72167  -0.39802   0.19847
  -2.72167  -0.15802  -0.04153
  -2.72167  -0.15802  -0.04153
  -2.72167  -0.15802  -0.27153
  -2.72167  -0.15802  -0.04153
  -2.72167  -0.15802  -0.04153
  -2.72167  -0.15802  -0.04153
  -2.72167  -0.15802  -0.04153
  -2.72167  -0.15802  -0.04153
  -2.72167  -0.15802  -0.04153
  -2.72167  -0.15802  -0.04153
  -2.48167  -0.15802  -0.04153
  -2.48167  -0.39802  -0.04153
  -2.48167  -0.39802  -0.04153
  -2.48167  -0.39802  -0.04153
  -2.24167  -0.39802  -0.04153
  -2.24167  -0.39802  -0.04153
  -2.24167  -0.39802  -0.04153
  -2.24167  -0.39802  -0.04153
  -2.48167  -0.39802  -0.04153
  -2.48167  -0.39802  -0.04153
  -2.48167  -0.39802  -0.04153
  -2.48167  -0.39802  -0.04153
  -2.24167  -0.39802  -0.04153
  -2.24167  -0.39802   0.19847
  -2.24167  -0.39802  -0.04153
  -2.00167  -0.39802   0.19847
  -2.00167  -0.15802  -0.04153
  -2.00167  -0.39802   0.19847
  -2.00167  -0.39802  -0.04153
  -1.76167  -0.15802  -0.04153
  -2.00167  -0.39802  -0.04153
  -2.00167  -0.39802   0.19847
  -2.00167  -0.39802   0.19847
  -2.00167  -0.39802  -0.04153
  -2.00167  -0.39802   0.19847
  -2.00167  -0.39802   0.19847
  -2.00167  -0.39802  -0.04153
  -2.00167  -0.15802   0.19847
  -1.76167  -0.15802   0.19847
  -1.76167  -0.15802  -0.04153
  -1.52167  -0.15802   0.19847
  -1.52167  -0.15802   0.19847
  -1.52167  -0.15802  -0.04153
  -1.52167  -0.15802   0.19847
  -1.28167  -0.15802  -0.04153
  -1.28167  -0.15802  -0.04153
  -1.28167  -0.15802  -0.04153
  -1.52167  -0.15802   0.19847
  -1.52167  -0.15802   0.19847
  -1.52167  -0.15802   0.19847
  -1.52167  -0.15802   0.19847
  -1.52167  -0.15802  -0.04153
  -1.52167  -0.15802   0.19847
  -1.52167  -0.15802  -0.04153
  -1.28167  -0.15802   0.19847
  -1.28167  -0.15802   0.19847
  -1.28167  -0.15802   0.19847
  -1.04167  -0.15802   0.19847
  -1.04167   0.08198   0.19847
  -1.04167   0.08198  -0.04153
  -1.04167   0.32198  -0.04153
  -1.04167   0.08198  -0.04153
  -1.04167   0.08198   0.19847
  -1.04167  -0.15802   0.19847
  -1.04167   0.08198   0.43847
  -1.04167   0.08198   0.19847
  -1.04167   0.32198   0.19847
  -1.04167   0.32198  -0.04153
  -1.04167   0.32198  -0.04153
  -1.04167   0.08198   0.19847
  -0.80167   0.08198   0.19847
  -0.80167   0.08198   0.19847
  -0.80167   0.08198  -0.04153
  -0.80167   0.32198  -0.04153
  -0.80167   0.32198  -0.04153
  -0.80167   0.08198  -0.04153
  -0.80167   0.08198  -0.04153
  -0.80167   0.08198   0.19847
  -0.80167   0.08198   0.19847
  -0.56167   0.08198   0.19847
  -0.80167   0.08198  -0.04153
  -0.56167   0.32198   0.19847
  -0.56167   0.32198  -0.04153
  -0.56167   0.32198  -0.04153
  -0.56167   0.32198   0.19847
  -0.56167   0.32198  -0.04153
  -0.56167   0.08198  -0.04153
  -0.56167   0.32198   0.19847
  -0.56167   0.32198  -0.04153
  -0.56167   0.32198  -0.04153
  -0.56167   0.32198  -0.04153
  -0.56167   0.32198  -0.04153
  -0.56167   0.32198  -0.04153
  -0.56167   0.32198  -0.04153
  -0.56167   0.32198  -0.04153
  -0.56167   0.32198  -0.04153
  -0.32167   0.32198  -0.04153
  -0.32167   0.08198   0.19847
  -0.32167   0.08198   0.19847
  -0.32167   0.08198  -0.04153
  -0.32167   0.08198  -0.04153
  -0.32167   0.08198  -0.04153
  -0.32167   0.08198  -0.04153
  -0.32167   0.08198  -0.04153
  -0.32167   0.08198  -0.04153
  -0.32167   0.08198   0.19847
  -0.32167   0.32198  -0.04153
  -0.32167   0.32198  -0.04153
  -0.32167   0.32198  -0.04153
  -0.32167   0.32198  -0.04153
  -0.32167   0.08198  -0.04153
  -0.32167   0.08198  -0.04153
  -0.08167   0.32198  -0.04153
  -0.08167   0.08198   0.19847
  -0.08167   0.32198  -0.04153
  -0.08167   0.08198  -0.04153
  -0.08167   0.08198  -0.04153
  -0.08167   0.32198  -0.04153
  -0.08167   0.08198  -0.04153
  -0.08167   0.08198  -0.04153
  -0.08167   0.08198  -0.04153
  -0.08167   0.08198  -0.04153
  -0.08167   0.08198  -0.04153
  -0.08167   0.08198  -0.04153
  -0.08167   0.08198  -0.04153
  -0.08167   0.08198  -0.04153
   0.15833   0.08198  -0.04153
   0.15833   0.08198  -0.04153
   0.15833   0.08198  -0.04153
   0.15833   0.32198  -0.04153
  -0.08167   0.32198  -0.04153
  -0.08167   0.08198  -0.04153
  -0.08167  -0.15802  -0.04153
  -0.08167  -0.15802   0.19847
  -0.08167  -0.15802  -0.04153
   0.15833   0.08198  -0.04153
   0.15833   0.08198  -0.04153
   0.15833   0.08198  -0.04153
   0.15833   0.08198   0.19847
   0.15833  -0.15802   0.19847
   0.15833  -0.15802  -0.04153
   0.15833  -0.15802  -0.04153
   0.15833   0.08198  -0.04153
   0.15833  -0.15802  -0.04153
   0.15833  -0.15802  -0.04153
   0.15833  -0.15802  -0.04153
   0.15833  -0.15802  -0.04153
   0.39833  -0.15802  -0.04153
   0.39833  -0.15802  -0.04153
   0.39833  -0.15802  -0.04153
   0.39833  -0.15802   0.19847
   0.39833  -0.15802  -0.04153
   0.39833  -0.15802  -0.04153
   0.39833  -0.15802   0.19847
   0.39833  -0.15802   0.19847
   0.39833  -0.15802   0.19847
   0.39833  -0.15802   0.19847
   0.63833  -0.15802   0.19847
   0.63833  -0.15802   0.19847
   0.63833  -0.15802   0.19847
   0.63833  -0.15802   0.19847
   0.63833  -0.15802  -0.04153
   0.63833  -0.15802   0.19847
   0.87833   0.08198  -0.04153
   0.87833  -0.15802  -0.04153
   0.87833  -0.15802   0.19847
   0.87833  -0.15802   0.19847
   1.11833  -0.15802   0.19847
   1.11833  -0.15802  -0.04153
   1.11833  -0.15802   0.19847
   1.11833  -0.15802   0.19847
   1.11833  -0.15802   0.19847
   1.11833  -0.15802   0.19847
   1.11833  -0.15802   0.19847
   1.11833  -0.15802   0.19847
   1.11833  -0.15802   0.19847
   1.35833  -0.15802   0.19847
   1.35833  -0.15802   0.19847
   1.35833  -0.15802   0.19847
   1.59833  -0.15802   0.19847
   1.59833  -0.15802   0.19847
   1.59833  -0.15802   0.19847
   1.59833  -0.15802   0.19847
   1.59833   0.08198  -0.04153
   1.59833  -0.15802   0.19847
   1.59833  -0.15802   0.19847
   1.83833  -0.15802   0.19847
   1.83833  -0.15802   0.19847
   1.83833  -0.15802   0.19847
   1.83833  -0.15802   0.19847
   1.83833  -0.15802   0.19847
   2.07833   0.08198   0.43847
   2.07833   0.08198   0.19847
   2.07833   0.32198   0.19847
   2.30833   0.08198  -0.04153
   2.30833   0.08198   0.19847
   2.30833  -0.15802   0.19847
   2.07833  -0.15802   0.19847
   2.30833  -0.15802   0.43847
   2.30833   0.08198   0.43847
   2.30833   0.08198   0.43847
   2.54833   0.08198   0.43847
   2.54833  -0.15802   0.43847
   2.54833  -0.15802   0.43847
   2.78833  -0.15802   0.19847
   2.78833  -0.15802   0.19847
   2.78833  -0.15802   0.43847
   2.78833  -0.15802   0.43847
   2.78833  -0.15802   0.19847
   3.02833   0.08198   0.19847
   2.78833   0.08198   0.19847
   2.78833   0.08198   0.43847
   2.78833   0.08198   0.43847
   3.02833   0.08198   0.43847
   3.02833   0.08198   0.43847
   3.02833   0.08198   0.43847
   3.02833   0.08198   0.43847
   3.02833   0.08198   0.43847
   3.26833   0.08198   0.43847
   3.26833   0.08198   0.43847
   3.26833   0.08198   0.43847
   3.50833   0.08198   0.43847
   3.50833   0.08198   0.43847
   3.50833   0.08198   0.43847
   3.50833   0.08198   0.43847
   3.50833   0.08198   0.43847
   3.50833   0.08198   0.43847
   3.50833   0.08198   0.43847
   3.50833   0.32198   0.43847
   3.74833   0.32198   0.43847
   3.74833   0.32198   0.43847
   3.74833   0.08198   0.43847
   3.74833   0.08198   0.43847
   3.74833   0.08198   0.43847
   3.50833   0.08198   0.43847
   3.74833   0.32198   0.43847
   3.74833   0.32198   0.43847
   3.74833   0.32198   0.43847
   3.98833   0.08198   0.43847
   3.98833   0.08198   0.43847
   3.98833   0.08198   0.43847
   3.98833   0.32198   0.43847
   3.98833   0.32198   0.43847
   3.98833   0.32198   0.43847
   3.98833   0.32198   0.43847
   3.98833   0.08198   0.43847
   3.98833   0.32198   0.43847
   3.98833   0.32198   0.43847
   3.98833   0.32198   0.43847
   3.98833   0.32198   0.43847
   3.98833   0.32198   0.43847
   3.98833   0.32198   0.43847
   3.98833   0.32198   0.43847
   3.98833   0.32198   0.43847
   3.98833   0.32198   0.43847
   3.98833   0.32198   0.43847
   3.98833   0.32198   0.43847
   3.98833   0.32198   0.43847
   3.98833   0.32198   0.43847
   3.98833   0.32198   0.43847
   3.98833   0.56198   0.43847
   3.98833   0.56198   0.19847
   3.98833   0.80198   0.43847
   3.98833   0.80198   0.19847
   3.98833   0.80198   0.19847
   3.74833   0.56198   0.43847
   3.98833   0.56198   0.43847
   3.98833   0.32198   0.43847
   3.74833   0.56198   0.43847
   3.98833   0.56198   0.19847
   3.98833   0.56198   0.19847
   3.98833   0.56198   0.19847
   3.98833   0.32198   0.19847
   3.74833   0.32198   0.19847
   3.74833   0.32198   0.19847
   3.74833   0.32198   0.19847
   3.74833   0.56198   0.19847
   3.74833   0.56198   0.19847
   3.74833   0.56198   0.19847
   3.74833   0.56198   0.19847
   3.74833   0.56198   0.19847
   3.74833   0.56198   0.19847
   3.74833   0.56198  -0.04153
   3.74833   0.56198  -0.04153
   3.50833   0.80198  -0.04153
   3.50833   0.80198   0.19847
   3.50833   0.56198  -0.04153
   3.50833   0.80198  -0.04153
   3.50833   0.56198  -0.04153
   3.50833   0.56198  -0.04153
   3.50833   0.56198  -0.04153
   3.50833   0.56198  -0.04153
   3.50833   0.56198  -0.04153
   3.50833   0.56198  -0.04153
   3.50833   0.32198  -0.04153
   3.26833   0.56198   0.19847
   3.26833   0.56198  -0.27153
   3.02833   0.32198  -0.04153
   3.02833   0.56198  -0.27153
   3.02833   0.80198  -0.27153
   2.78833   0.80198  -0.04153
   2.78833   0.80198  -0.27153
   2.78833   0.80198  -0.27153
   3.02833   0.80198  -0.27153
   3.02833   0.56198  -0.27153
   3.02833   0.56198  -0.27153
   3.02833   0.56198  -0.27153
   3.02833   0.32198  -0.27153
   2.78833   0.32198  -0.27153
   2.78833   0.32198  -0.27153
   2.78833   0.32198  -0.27153
   2.54833   0.32198  -0.27153
   2.54833   0.56198  -0.27153
   2.30833   0.56198  -0.27153
   2.30833   0.56198  -0.27153
   2.30833   0.56198  -0.51153
   2.30833   0.56198  -0.51153
   2.30833   0.56198  -0.51153
   2.30833   0.80198  -0.51153
   2.30833   0.80198  -0.51153
   2.30833   0.80198  -0.27153
   2.30833   0.56198  -0.51153
   2.30833   0.56198  -0.51153
   2.07833   0.56198  -0.51153
   1.83833   0.56198  -0.51153
   1.83833   0.32198  -0.75153
   1.83833   0.32198  -0.75153
   1.83833   0.56198  -0.51153
   1.83833   0.56198  -0.51153
   1.83833   0.56198  -0.75153
   1.59833   0.56198  -0.75153
   1.59833   0.56198  -0.75153
   1.59833   0.56198  -0.75153
   1.59833   0.56198  -0.75153
   1.35833   0.32198  -0.75153
   1.35833   0.32198  -0.75153
   1.35833   0.32198  -0.75153
   1.11833   0.32198  -0.75153
   1.11833   0.32198  -0.75153
   1.11833   0.32198  -0.75153
   1.11833   0.32198  -0.75153
   0.87833   0.32198  -0.75153
   1.11833   0.32198  -0.75153
   1.11833   0.08198  -0.75153
   1.11833   0.08198  -0.75153
   1.11833   0.08198  -0.75153
   1.11833   0.08198  -0.75153
   0.87833   0.08198  -0.75153
   0.63833   0.08198  -0.99153
   0.63833   0.32198  -0.99153
   0.39833   0.32198  -0.75153
   0.39833   0.32198  -0.99153
   0.39833   0.32198  -0.99153
   0.39833   0.56198  -0.99153
   0.39833   0.56198  -0.99153
   0.39833   0.32198  -0.99153
   0.15833   0.32198  -0.75153
   0.15833   0.32198  -0.75153
   0.15833   0.08198  -0.99153
   0.15833   0.08198  -0.75153
   0.15833  -0.15802  -0.75153
   0.15833  -0.15802  -0.75153
  -0.08167  -0.15802  -0.75153
  -0.08167  -0.15802  -0.75153
  -0.08167  -0.15802  -0.75153
  -0.08167  -0.15802  -0.99153
  -0.08167  -0.15802  -0.75153
  -0.32167  -0.15802  -0.75153
  -0.32167  -0.15802  -0.75153
  -0.32167   0.08198  -0.75153
  -0.56167   0.08198  -0.75153
  -0.56167   0.08198  -0.75153
  -0.56167   0.08198  -0.75153
  -0.56167   0.08198  -0.99153
  -0.56167   0.08198  -0.75153
  -0.80167   0.08198  -0.75153
  -0.80167   0.08198  -0.75153
  -0.80167   0.08198  -0.75153
  -0.80167  -0.15802  -0.75153
  -0.80167  -0.15802  -0.75153
  -0.80167  -0.15802  -0.75153
  -1.04167  -0.15802  -0.75153
  -1.04167  -0.15802  -0.75153
  -1.04167  -0.15802  -0.75153
  -1.04167  -0.15802  -0.75153
  -1.28167  -0.15802  -0.75153
  -1.28167  -0.15802  -0.75153
