********************************************************************************
               CENTRO DE INSTRUMENTACION Y REGISTRO SISMICO  A.C.  
                       Coordinacion de Servicios Tecnicos
     Anaxagoras 814, Col. Narvarte, Benito Juarez, C.P. 03020 Mexico, D.F.
            Tels. 667 45 42/ 687 45  82             Fax. 669 25 12
********************************************************************************
ARCHIVO ESTANDAR DE ACELERACION:
VERSION DEL FORMATO                    : 2.0
NOMBRE DEL ARCHIVO                     : BA499604.231
FECHA Y HORA DE CREACION               : 27/MAR/98, 3:55
REF. CATALOGO ACELEROGRAMAS, SMIS 1996 : REGISTRO No.     /PAG.


================================================================================
DATOS DE LA ESTACION:
NOMBRE DE LA ESTACION                  : BUENOS AIRES
CLAVE DE LA ESTACION                   : BA49
LOCALIZACION DE LA ESTACION            : ESCUELA SECUNDARIA 102, DOCTOR MARQUEZ
                                       : Y EJE CENTRAL, BUENOS AIRES.
                                       :
                                       :
                                       :
COORDENADAS DE LA ESTACION             : 19.410 LAT. N 
                                       : 99.145 LONG. W 
ALTITUD (msnm)                         : 2233
TIPO DE SUELO                          : TERRENO BLANDO, MATERIAL COMPRESIBLE
                                       : (ARCILLAS)
                                       : 
INSTITUCION RESPONSABLE                : CIRES 
                                       :

================================================================================
DATOS DEL ACELEROGRAFO:
MODELO DEL ACELEROGRAFO                : SSA-1
NUMERO DE SERIE DEL ACELEROGRAFO       : 176
NUMERO DE CANALES                      : 3
ORIENTACION C1-C6 (rumbo;orientacion)  : /N00E/+V/N90E
ORIENTACION C7-C12 (rumbo;orientacion) :
VEL. DE MUESTREO, C1-C6 (muestras/s)   : /200/200/200
VEL. DE MUESTREO, C7-C12 (muestras/s)  :
ESC. COMPLETA DE SENSORES, C1-C6, (g)  : /2/2/2
ESC. COMPLETA DE SENSORES, C7-C12, (g) :
FREC. NAT. DE SENSORES, C1-C6, (Hz)    : /52.99/52.03/52.99
FREC. NAT. DE SENSORES, C7-C12, (Hz)   :
AMORTIGUAMIENTO DE SENSORES, C1-C6     : /0.5589/0.5469/0.6096
AMORTIGUAMIENTO DE SENSORES, C7-C12    :
INTERVALO DE MUESTREO, C1-C6, (s)      : /0.005/0.005/0.005
INTERVALO DE MUESTREO, C7-C12, (s)     : 
UMBRAL DE DISPARO, C1-C6, (Gal)        : /2/2/2
UMBRAL DE DISPARO, C7-C12, (Gal)       :
MEMORIA DE PREEVENTO (s)               : 15
TIEMPO DE POSEVENTO (s)                : 60


================================================================================
DATOS DEL SISMO:
FECHA DEL SISMO (GMT)                  : 23/ABR/96
HORA EPICENTRO (GMT)                   : 06:53:35,0
MAGNITUD(ES)                           : /Mb=5.3/Ms=4.9/Mc=5.3
COORDENADAS DEL EPICENTRO              : 17.110 LAT. N
                                       : 101.600 LONG. W
PROFUNDIDAD FOCAL (km)                 : 17
FUENTE DE LOS DATOS EPICENTRALES       : SSN
                                       : INSTITUTO DE GEOFISICA, UNAM

================================================================================
DATOS DE ESTE REGISTRO:
HORA DE LA PRIMERA MUESTRA (GMT)       : 06:55:47.00
EXACTITUD DEL TIEMPO (s)               :     
DURACION DEL REGISTRO (s), C1-C6       : /125.44/125.44/125.44
DURACION DEL REGISTRO (s), C7-C12      :
NUM. TOTAL DE MUESTRAS, C1-C6          : /25088/25088/25088
NUM. TOTAL DE MUESTRAS, C7-C12         :
ACEL. MAX. (Gal), C1-C6                : /3.54783/0.84832/2.41366
ACEL. MAX., C1-C6, EN LA MUESTRA       :
ACEL. MAX. (Gal), C7-C12               :
ACEL. MAX., C7-C12, EN LA MUESTRA      :
UNIDADES DE LOS DATOS                  : Gal (cm/s/s)
FACTOR DE DECIMACION                   : 1
FORMATO DATOS (FORTRAN,10 campos/dato) : 3F10.5


================================================================================
CALIDAD DEL ACELEROGRAMA:
REGISTRO DIGITAL COMPLETO, CARECE DE TIEMPO ABSOLUTO.


================================================================================
COMENTARIOS:














================================================================================
DATOS DE ACELERACION:
---------+---------+---------+---------+---------+---------+---------+---------+
   CANAL-1   CANAL-2   CANAL-3   CANAL-4   CANAL-5   CANAL-6   CANAL-7   CANAL-8
      N00E        +V      N90E
---------+---------+---------+---------+---------+---------+---------+---------+
[...]
  -0.19783  -0.11168   0.49366
  -0.19783  -0.11168   0.49366
  -0.19783  -0.11168   0.49366
   0.04217  -0.11168   0.49366
   0.04217  -0.11168   0.49366
   0.04217  -0.11168   0.49366
   0.04217  -0.11168   0.49366
   0.04217  -0.35168   0.49366
   0.28217  -0.11168   0.49366
   0.28217  -0.11168   0.49366
   0.28217  -0.11168   0.49366
   0.28217  -0.11168   0.49366
   0.28217  -0.11168   0.49366
   0.52217  -0.11168   0.49366
   0.52217  -0.11168   0.49366
   0.52217  -0.11168   0.25366
   0.52217  -0.11168   0.25366
   0.76217  -0.11168   0.25366
   0.76217  -0.11168   0.25366
   0.76217  -0.11168   0.25366
   0.76217  -0.11168   0.49366
   0.76217  -0.11168   0.25366
   1.00217  -0.11168   0.25366
   1.00217  -0.11168   0.25366
   1.00217  -0.11168   0.25366
   1.00217  -0.11168   0.25366
   1.00217  -0.11168   0.25366
   1.24217  -0.11168   0.25366
   1.24217   0.12832   0.25366
   1.24217  -0.11168   0.25366
   1.24217  -0.11168   0.01366
   1.24217   0.12832   0.25366
   1.48217  -0.11168   0.25366
   1.48217  -0.11168   0.25366
   1.48217  -0.11168   0.01366
   1.48217   0.12832   0.25366
   1.48217   0.12832   0.25366
   1.48217   0.12832   0.01366
   1.71217   0.12832   0.01366
   1.71217   0.12832   0.01366
   1.71217   0.12832   0.01366
   1.71217   0.12832   0.01366
   1.71217  -0.11168   0.01366
   1.95217   0.12832   0.01366
   1.71217   0.12832   0.01366
   1.95217   0.12832   0.01366
   1.95217   0.12832   0.01366
   1.95217   0.12832   0.01366
   1.95217   0.12832   0.01366
   2.19217   0.12832   0.01366
   2.19217   0.12832   0.01366
   2.19217   0.12832   0.01366
   2.19217   0.12832   0.01366
   2.19217   0.12832   0.01366
   2.19217   0.12832   0.01366
   2.19217   0.12832   0.01366
   2.19217   0.12832   0.01366
   2.43217   0.12832   0.01366
   2.43217   0.12832   0.01366
   2.43217   0.12832   0.01366
   2.43217   0.12832   0.01366
   2.43217   0.12832   0.01366
   2.67217   0.12832  -0.22634
   2.43217   0.12832   0.01366
   2.67217   0.12832  -0.22634
   2.67217   0.12832  -0.22634
   2.67217   0.12832  -0.22634
   2.67217   0.12832   0.01366
   2.67217   0.12832   0.01366
   2.67217   0.12832  -0.22634
   2.67217   0.12832   0.01366
   2.67217   0.12832  -0.22634
   2.67217   0.12832  -0.22634
   2.91217   0.12832  -0.22634
   2.91217   0.12832  -0.22634
   2.91217   0.12832  -0.22634
   2.91217   0.12832   0.01366
   2.91217   0.36832   0.01366
   2.91217   0.12832   0.01366
   2.91217   0.12832  -0.22634
   2.91217   0.12832  -0.22634
   2.91217   0.12832  -0.22634
   2.91217   0.12832  -0.22634
   2.91217   0.12832  -0.22634
   2.91217   0.12832  -0.22634
   2.91217   0.12832  -0.22634
   3.15217   0.12832  -0.22634
   3.15217   0.12832  -0.22634
   3.15217   0.12832  -0.22634
   3.15217   0.12832  -0.22634
   3.15217   0.12832  -0.22634
   3.15217   0.12832   0.01366
   3.15217   0.12832   0.01366
   3.15217   0.12832  -0.22634
   3.15217   0.36832  -0.22634
   3.15217   0.12832  -0.22634
   3.15217   0.12832  -0.22634
   3.15217   0.12832  -0.22634
   3.15217   0.12832  -0.22634
   3.15217   0.12832  -0.22634
   3.15217   0.12832  -0.22634
   3.15217   0.12832  -0.22634
   3.15217   0.12832  -0.22634
   3.15217   0.12832  -0.22634
   3.15217   0.12832  -0.22634
   3.15217   0.12832  -0.22634
   3.15217   0.12832  -0.22634
   3.15217   0.12832  -0.22634
   3.15217   0.12832  -0.22634
   3.15217   0.12832  -0.22634
   3.15217   0.12832  -0.22634
   3.15217   0.12832  -0.22634
   3.15217   0.12832  -0.22634
   3.15217   0.12832  -0.46634
   2.91217   0.12832  -0.46634
   3.15217   0.12832  -0.46634
   3.15217   0.12832  -0.22634
   3.15217   0.12832  -0.46634
   3.15217   0.12832  -0.46634
   3.15217   0.12832  -0.46634
   3.15217   0.12832  -0.46634
   3.15217   0.12832  -0.46634
   3.15217   0.12832  -0.46634
   3.15217   0.12832  -0.46634
   3.15217   0.12832  -0.46634
   3.15217   0.12832  -0.46634
   3.15217   0.12832  -0.70634
   3.15217   0.12832  -0.46634
   2.91217   0.12832  -0.70634
   3.15217   0.12832  -0.70634
   2.91217   0.12832  -0.70634
   2.91217   0.12832  -0.70634
   2.91217   0.12832  -0.70634
   2.91217   0.12832  -0.70634
   2.91217   0.12832  -0.70634
   2.91217   0.12832  -0.70634
   2.91217   0.12832  -0.94634
   2.91217   0.12832  -0.94634
   2.91217   0.36832  -0.94634
   2.91217   0.12832  -0.94634
   2.91217   0.12832  -0.94634
   2.91217   0.12832  -0.94634
   2.91217   0.12832  -0.94634
   2.91217   0.12832  -0.94634
   2.91217   0.12832  -0.94634
   2.91217   0.12832  -0.94634
   2.91217   0.36832  -0.94634
   2.91217   0.12832  -0.94634
   2.67217   0.36832  -0.94634
   2.67217   0.12832  -1.18634
   2.67217   0.12832  -1.18634
   2.67217   0.12832  -1.18634
   2.67217   0.12832  -1.18634
   2.67217   0.36832  -1.18634
   2.67217   0.36832  -1.18634
   2.67217   0.36832  -1.18634
   2.67217   0.36832  -1.18634
   2.67217   0.36832  -1.18634
   2.67217   0.36832  -1.18634
   2.67217   0.36832  -1.41634
   2.67217   0.36832  -1.18634
   2.67217   0.36832  -1.18634
   2.67217   0.36832  -1.18634
   2.43217   0.36832  -1.18634
   2.43217   0.36832  -1.41634
   2.43217   0.36832  -1.18634
   2.43217   0.36832  -1.41634
   2.43217   0.36832  -1.41634
   2.43217   0.36832  -1.41634
   2.43217   0.36832  -1.41634
   2.19217   0.36832  -1.41634
   2.43217   0.36832  -1.41634
   2.43217   0.36832  -1.41634
   2.43217   0.36832  -1.41634
   2.19217   0.36832  -1.41634
   2.19217   0.36832  -1.41634
   2.19217   0.36832  -1.41634
   2.19217   0.36832  -1.41634
   2.19217   0.36832  -1.41634
   2.19217   0.36832  -1.41634
   2.19217   0.36832  -1.41634
   2.19217   0.12832  -1.65634
   2.19217   0.36832  -1.41634
   2.19217   0.36832  -1.65634
   1.95217   0.36832  -1.65634
   1.95217   0.36832  -1.41634
   1.95217   0.36832  -1.65634
   1.95217   0.36832  -1.65634
   1.95217   0.12832  -1.65634
   1.95217   0.36832  -1.65634
   1.95217   0.36832  -1.65634
   1.95217   0.36832  -1.65634
   1.71217   0.12832  -1.65634
   1.71217   0.36832  -1.65634
   1.71217   0.12832  -1.65634
   1.71217   0.12832  -1.65634
   1.71217   0.12832  -1.65634
   1.71217   0.36832  -1.65634
   1.71217   0.12832  -1.65634
   1.71217   0.12832  -1.65634
   1.48217   0.36832  -1.65634
   1.48217   0.12832  -1.65634
   1.48217   0.12832  -1.65634
   1.48217   0.36832  -1.65634
   1.48217   0.12832  -1.65634
   1.48217   0.36832  -1.65634
   1.48217   0.36832  -1.65634
   1.48217   0.12832  -1.65634
   1.48217   0.12832  -1.65634
   1.24217   0.12832  -1.41634
   1.24217   0.12832  -1.65634
   1.24217   0.12832  -1.65634
   1.24217   0.12832  -1.65634
   1.24217   0.12832  -1.41634
   1.24217   0.12832  -1.65634
   1.24217   0.12832  -1.41634
   1.24217   0.12832  -1.65634
   1.24217   0.12832  -1.41634
   1.00217   0.12832  -1.41634
   1.00217   0.12832  -1.41634
   1.00217   0.12832  -1.41634
   1.00217   0.12832  -1.41634
   1.00217   0.12832  -1.41634
   1.00217   0.12832  -1.41634
   1.00217   0.12832  -1.41634
   1.00217   0.12832  -1.18634
   0.76217   0.12832  -1.18634
   0.76217   0.12832  -1.41634
   0.76217   0.12832  -1.41634
   0.76217   0.12832  -1.41634
   0.76217   0.12832  -1.18634
   0.76217   0.12832  -1.18634
   0.76217   0.12832  -1.18634
   0.76217   0.12832  -1.18634
   0.76217   0.12832  -1.18634
   0.76217   0.12832  -1.18634
   0.52217   0.12832  -1.18634
   0.76217   0.12832  -0.94634
   0.52217   0.12832  -0.94634
   0.52217   0.12832  -1.18634
   0.52217   0.12832  -1.18634
   0.52217   0.12832  -0.94634
   0.52217   0.12832  -1.18634
   0.52217   0.12832  -0.94634
   0.52217   0.12832  -1.18634
   0.52217   0.12832  -0.94634
   0.28217   0.12832  -0.94634
   0.28217   0.12832  -0.94634
   0.28217   0.12832  -0.94634
   0.28217   0.12832  -0.94634
   0.28217   0.12832  -0.94634
   0.28217   0.12832  -0.94634
   0.28217   0.12832  -0.94634
   0.04217   0.12832  -0.94634
   0.04217  -0.11168  -0.94634
   0.04217   0.12832  -0.70634
   0.04217  -0.11168  -0.94634
   0.04217  -0.11168  -0.70634
   0.04217  -0.11168  -0.70634
  -0.19783  -0.11168  -0.70634
  -0.19783  -0.11168  -0.70634
  -0.19783  -0.11168  -0.70634
  -0.19783  -0.11168  -0.70634
  -0.19783  -0.11168  -0.70634
  -0.19783  -0.11168  -0.70634
  -0.43783  -0.11168  -0.70634
  -0.43783  -0.11168  -0.70634
  -0.43783  -0.11168  -0.70634
  -0.43783  -0.11168  -0.46634
  -0.43783  -0.11168  -0.46634
  -0.43783  -0.11168  -0.46634
  -0.43783  -0.11168  -0.46634
  -0.67783  -0.11168  -0.46634
  -0.67783  -0.11168  -0.46634
  -0.67783  -0.11168  -0.46634
  -0.67783  -0.11168  -0.22634
  -0.67783  -0.11168  -0.22634
  -0.67783  -0.11168  -0.46634
  -0.91783  -0.11168  -0.46634
  -0.91783  -0.11168  -0.22634
  -0.91783  -0.11168  -0.22634
  -0.91783  -0.35168  -0.22634
  -1.15783  -0.11168  -0.22634
  -1.15783  -0.11168  -0.22634
  -1.15783  -0.35168  -0.22634
  -1.15783  -0.11168  -0.22634
  -1.39783  -0.11168  -0.22634
  -1.39783  -0.11168  -0.22634
  -1.39783  -0.11168   0.01366
  -1.39783  -0.11168   0.01366
  -1.39783  -0.11168   0.01366
  -1.39783  -0.11168   0.01366
  -1.39783  -0.11168   0.01366
  -1.63783  -0.35168   0.01366
  -1.63783  -0.11168   0.01366
  -1.63783  -0.11168   0.25366
  -1.63783  -0.35168   0.25366
  -1.63783  -0.35168   0.25366
  -1.63783  -0.35168   0.25366
  -1.87783  -0.35168   0.25366
  -1.87783  -0.35168   0.25366
  -1.87783  -0.11168   0.25366
  -1.87783  -0.35168   0.25366
  -1.87783  -0.35168   0.25366
  -2.11783  -0.11168   0.25366
  -2.11783  -0.11168   0.49366
  -2.11783  -0.11168   0.49366
  -2.11783  -0.35168   0.49366
  -2.11783  -0.11168   0.49366
  -2.11783  -0.11168   0.49366
  -2.35783  -0.11168   0.49366
  -2.35783  -0.11168   0.49366
  -2.35783  -0.11168   0.73366
  -2.35783  -0.11168   0.73366
  -2.35783  -0.11168   0.49366
  -2.59783  -0.11168   0.73366
  -2.59783  -0.11168   0.49366
  -2.59783  -0.11168   0.73366
  -2.59783  -0.11168   0.73366
  -2.59783  -0.35168   0.73366
  -2.59783  -0.11168   0.73366
  -2.59783  -0.11168   0.73366
  -2.83783  -0.11168   0.73366
  -2.83783  -0.35168   0.73366
  -2.83783  -0.11168   0.73366
  -2.83783  -0.11168   0.73366
  -2.83783  -0.11168   0.73366
  -2.83783  -0.11168   0.73366
  -2.83783  -0.35168   0.97366
  -3.07783  -0.11168   0.97366
  -3.07783  -0.11168   0.97366
  -3.07783  -0.11168   0.97366
  -3.07783  -0.11168   0.97366
  -3.07783  -0.11168   0.97366
  -3.07783  -0.11168   0.97366
  -3.07783  -0.35168   0.97366
  -3.31783  -0.11168   0.97366
  -3.31783  -0.11168   0.97366
  -3.31783  -0.11168   0.97366
  -3.31783  -0.11168   0.97366
  -3.31783  -0.11168   0.97366
  -3.31783  -0.11168   0.97366
  -3.31783  -0.11168   0.97366
  -3.31783  -0.11168   0.97366
  -3.31783  -0.11168   0.97366
  -3.31783  -0.11168   0.97366
  -3.31783  -0.11168   0.97366
  -3.31783  -0.11168   1.21366
  -3.31783  -0.11168   0.97366
  -3.54783  -0.11168   1.21366
  -3.54783  -0.11168   1.21366
  -3.54783  -0.11168   1.21366
  -3.54783  -0.11168   1.21366
  -3.54783  -0.11168   1.21366
  -3.54783  -0.11168   0.97366
  -3.54783  -0.11168   1.21366
  -3.54783  -0.11168   1.21366
  -3.54783  -0.11168   1.21366
  -3.54783  -0.11168   1.21366
  -3.54783  -0.11168   1.21366
  -3.54783  -0.11168   1.21366
  -3.54783  -0.11168   1.21366
  -3.54783  -0.11168   1.21366
  -3.54783  -0.11168   1.21366
  -3.54783  -0.11168   1.21366
  -3.54783  -0.11168   1.21366
  -3.54783  -0.11168   1.21366
  -3.54783  -0.11168   1.21366
  -3.54783  -0.11168   1.21366
  -3.31783  -0.11168   1.21366
  -3.31783  -0.11168   1.21366
  -3.31783  -0.11168   1.21366
  -3.31783  -0.11168   1.21366
  -3.31783  -0.11168   0.97366
  -3.31783  -0.11168   0.97366
  -3.31783  -0.11168   0.97366
  -3.31783  -0.11168   1.21366
  -3.31783  -0.11168   0.97366
  -3.31783  -0.11168   0.97366
  -3.31783  -0.11168   1.21366
  -3.31783  -0.11168   0.97366
  -3.31783  -0.11168   0.97366
  -3.31783  -0.11168   0.97366
  -3.07783  -0.11168   0.97366
  -3.07783  -0.11168   0.97366
  -3.07783  -0.11168   0.97366
  -3.07783  -0.11168   0.97366
  -3.07783  -0.11168   0.97366
  -3.07783  -0.11168   0.97366
  -3.07783  -0.11168   0.97366
  -2.83783  -0.11168   0.97366
  -2.83783  -0.11168   0.97366
  -2.83783  -0.11168   0.97366
  -2.83783  -0.11168   0.97366
  -2.83783  -0.11168   0.97366
  -2.83783  -0.11168   0.97366
  -2.83783  -0.11168   0.97366
  -2.59783  -0.11168   0.97366
  -2.59783  -0.11168   0.97366
  -2.59783  -0.11168   0.73366
  -2.59783  -0.11168   0.97366
  -2.59783  -0.11168   0.97366
  -2.59783  -0.11168   0.97366
  -2.59783  -0.11168   0.97366
  -2.59783  -0.11168   0.97366
  -2.35783  -0.11168   0.97366
  -2.35783  -0.11168   0.97366
  -2.35783  -0.11168   0.97366
  -2.35783  -0.11168   0.97366
  -2.35783  -0.11168   0.97366
  -2.35783  -0.11168   0.97366
  -2.35783  -0.11168   0.97366
  -2.11783  -0.11168   0.97366
  -2.11783  -0.11168   0.97366
  -2.11783  -0.11168   0.97366
  -2.11783  -0.11168   0.97366
  -2.11783  -0.11168   0.97366
  -2.11783  -0.11168   0.73366
  -2.11783  -0.11168   0.97366
  -1.87783  -0.11168   0.97366
  -1.87783  -0.11168   0.97366
  -1.87783  -0.11168   0.97366
  -1.87783  -0.11168   0.97366
  -1.87783  -0.11168   0.97366
  -1.63783  -0.11168   0.97366
  -1.63783  -0.11168   0.73366
  -1.63783  -0.11168   0.97366
  -1.63783  -0.11168   0.97366
  -1.63783  -0.11168   0.97366
  -1.63783  -0.11168   0.97366
  -1.63783  -0.11168   0.97366
  -1.63783  -0.11168   0.97366
  -1.63783  -0.11168   0.97366
  -1.39783  -0.11168   0.97366
  -1.39783  -0.11168   0.97366
  -1.39783  -0.11168   0.97366
  -1.39783  -0.11168   1.21366
  -1.39783  -0.11168   0.97366
  -1.39783  -0.11168   0.97366
  -1.15783  -0.11168   0.97366
  -1.15783  -0.11168   0.97366
  -1.15783  -0.11168   0.97366
  -1.15783  -0.11168   0.97366
  -1.15783  -0.11168   0.97366
  -1.15783  -0.11168   0.97366
  -0.91783  -0.11168   1.21366
  -0.91783  -0.11168   0.97366
  -0.91783  -0.11168   0.97366
  -0.91783  -0.11168   0.97366
  -0.91783  -0.11168   0.97366
  -0.91783  -0.11168   0.97366
  -0.91783  -0.11168   1.21366
  -0.67783  -0.11168   1.21366
  -0.67783   0.12832   1.21366
  -0.67783  -0.11168   1.21366
  -0.67783   0.12832   0.97366
  -0.67783  -0.11168   0.97366
  -0.67783   0.12832   0.97366
  -0.67783  -0.11168   0.97366
  -0.43783  -0.11168   0.97366
  -0.43783   0.12832   0.97366
  -0.43783   0.12832   1.21366
  -0.43783   0.12832   1.21366
  -0.43783   0.12832   0.97366
  -0.43783   0.12832   1.21366
  -0.43783   0.12832   1.21366
  -0.43783   0.12832   1.21366
  -0.19783   0.12832   0.97366
  -0.19783   0.12832   1.21366
  -0.19783   0.12832   1.21366
  -0.19783   0.12832   0.97366
  -0.19783   0.12832   0.97366
  -0.19783   0.12832   0.97366
  -0.19783   0.12832   1.21366
  -0.19783   0.12832   0.97366
  -0.19783   0.12832   0.97366
   0.04217   0.12832   1.21366
  -0.19783   0.12832   0.97366
   0.04217   0.12832   0.97366
  -0.19783   0.12832   1.21366
   0.04217   0.36832   0.97366
   0.04217   0.12832   1.21366
   0.04217   0.36832   1.21366
   0.04217   0.12832   1.21366
   0.04217   0.36832   0.97366
   0.04217   0.36832   1.21366
   0.04217   0.36832   1.21366
   0.04217   0.36832   0.97366
   0.04217   0.36832   0.97366
   0.28217   0.36832   1.21366
   0.28217   0.36832   0.97366
   0.04217   0.36832   0.97366
   0.04217   0.36832   0.97366
   0.28217   0.36832   0.97366
   0.28217   0.36832   0.97366
   0.28217   0.36832   0.97366
   0.28217   0.36832   0.97366
   0.28217   0.36832   0.97366
   0.28217   0.36832   0.97366
