********************************************************************************
              CENTRO DE INSTRUMENTACION Y REGISTRO SISMICO  A.C.                

    Anaxagoras 814, Col. Narvarte, Benito Juarez, C.P. 03020 Mexico, D.F.       
           Tels. 5687 45 42/ 5687 45  82             Fax. 5669 25 12            
********************************************************************************
ARCHIVO ESTANDAR DE ACELERACION:
VERSION DEL FORMATO                    : 2.0
NOMBRE DEL ARCHIVO                     : BA4920071126215616
FECHA Y HORA DE CREACION               : 27/DIC/08, 09:54
REF. CATALOGO ACELEROGRAMAS, SMIS 1996 : REGISTRO No.     /PAG.


================================================================================
DATOS DE LA ESTACION:
NOMBRE DE LA ESTACION                  : BUENOS AIRES
CLAVE DE LA ESTACION                   : BA49
LOCALIZACION DE LA ESTACION            : Del. Cuauhtémoc, Col. Doctores,        
                                       : Av. Lázaro Cárdenas esq. con           
                                       : Calle Dr. Márquez.                     
                                       :                                        
                                       : 
COORDENADAS DE LA ESTACION             : 19.4097 LAT. N
                                       : 99.1450 LONG. W
ALTITUD (msnm)                         : 2233
TIPO DE SUELO                          : Terreno blando, material compresible
                                       : (arcillas)                
                                       : 
INSTITUCION RESPONSABLE                : CIRES


================================================================================
DATOS DEL ACELEROGRAFO:
MODELO DEL ACELEROGRAFO                : SSA-1
NUMERO DE SERIE DEL ACELEROGRAFO       : 176
NUMERO DE CANALES                      : 3
ORIENTACION C1-C6 (rumbo;orientacion)  : /N00E/+V/N90W
ORIENTACION C7-C12 (rumbo;orientacion) : 
VEL. DE MUESTREO, C1-C6 (muestras/s)   : /200/200/200
VEL. DE MUESTREO, C7-C12 (muestras/s)  : 
ESC. COMPLETA DE SENSORES, C1-C6, (g)  : /2.0/2.0/2.0
ESC. COMPLETA DE SENSORES, C7-C12, (g) : 
FREC. NAT. DE SENSORES, C1-C6, (Hz)    : /52.99/52.03/52.99
FREC. NAT. DE SENSORES, C7-C12, (Hz)   : 
AMORTIGUAMIENTO DE SENSORES, C1-C6     : /0.5589/0.5469/0.6096
AMORTIGUAMIENTO DE SENSORES, C7-C12    : 
INTERVALO DE MUESTREO, C1-C6, (s)      : /0.005/0.005/0.005
INTERVALO DE MUESTREO, C7-C12, (s)     : 
UMBRAL DE DISPARO, C1-C6, (Gal)        : /1.5/2.0/1.0
UMBRAL DE DISPARO, C7-C12, (Gal)       : 
MEMORIA DE PREEVENTO (s)               : 15.36
TIEMPO DE POSEVENTO (s)                : 60.0


================================================================================
DATOS DEL SISMO:
FECHA DEL SISMO (GMT)                  : 26/NOV/07
HORA EPICENTRO (GMT)                   : 21:56:16.0
MAGNITUD(ES)                           : /Mc=5.6
COORDENADAS DEL EPICENTRO              : 18.05 LAT. N
                                       : -101.31 LONG. W
PROFUNDIDAD FOCAL (km)                 : 53
FUENTE DE LOS DATOS EPICENTRALES       : SSN
                                       : INSTITUTO DE GEOFISICA, UNAM

================================================================================
DATOS DE ESTE REGISTRO:
HORA DE LA PRIMERA MUESTRA (GMT)       : 21:57:51.16
EXACTITUD DEL TIEMPO (s)               : 0.005
DURACION DEL REGISTRO (s), C1-C6       : /160.0/160.0/160.0
DURACION DEL REGISTRO (s), C7-C12      : 
NUM. TOTAL DE MUESTRAS, C1-C6          : /32000/32000/32000
NUM. TOTAL DE MUESTRAS, C7-C12         : 
ACEL. MAX. (Gal), C1-C6                : /1.65631/0.72363/1.98482
ACEL. MAX., C1-C6, EN LA MUESTRA       : /9930/5035/6240
ACEL. MAX. (Gal), C7-C12               : 
ACEL. MAX., C7-C12, EN LA MUESTRA      : 
UNIDADES DE LOS DATOS                  : Gal (cm/s/s)
FACTOR DE DECIMACION                   : 1
FORMATO DATOS (FORTRAN,10 campos/dato) : 3F10.5


================================================================================
CALIDAD DEL ACELEROGRAMA:
REGISTRO DIGITAL COMPLETO CON TIEMPO ABSOLUTO CORRECTO.


================================================================================
COMENTARIOS:














================================================================================
DATOS DE ACELERACION:
---------+---------+---------+---------+---------+---------+---------+---------+
   CANAL-1   CANAL-2   CANAL-3   CANAL-4   CANAL-5   CANAL-6   CANAL-7   CANAL-8
      N00E        +V      N90W
---------+---------+---------+---------+---------+---------+---------+---------+
[...]
  -0.01963  -0.24479   0.78771
  -0.01963  -0.24479   0.78771
  -0.01963  -0.24479   0.78771
  -0.01963  -0.24479   0.78771
  -0.01963  -0.48421   0.78771
  -0.01963  -0.48421   0.78771
  -0.01963  -0.48421   0.54829
  -0.01963  -0.48421   0.54829
  -0.01963  -0.24479   0.54829
  -0.01963  -0.24479   0.54829
  -0.01963  -0.24479   0.54829
   0.21979  -0.24479   0.54829
   0.21979  -0.24479   0.30887
   0.21979  -0.24479   0.30887
   0.21979  -0.24479   0.30887
   0.21979  -0.24479   0.30887
   0.21979  -0.24479   0.30887
   0.21979  -0.24479   0.30887
  -0.01963  -0.24479   0.06945
   0.21979  -0.24479   0.06945
   0.21979  -0.24479   0.06945
   0.21979  -0.24479   0.06945
   0.21979  -0.24479   0.06945
   0.21979  -0.24479   0.06945
   0.21979  -0.24479  -0.16997
   0.21979  -0.00537  -0.16997
   0.21979  -0.24479  -0.16997
   0.21979  -0.00537  -0.16997
   0.21979  -0.00537  -0.40939
  -0.01963  -0.00537  -0.16997
   0.21979  -0.00537  -0.16997
   0.21979  -0.00537  -0.40939
   0.21979  -0.00537  -0.40939
   0.21979  -0.00537  -0.40939
   0.21979  -0.00537  -0.64881
   0.21979  -0.00537  -0.40939
   0.21979  -0.00537  -0.40939
   0.21979  -0.00537  -0.40939
   0.21979   0.23405  -0.64881
   0.21979  -0.00537  -0.64881
   0.21979  -0.00537  -0.64881
  -0.01963  -0.00537  -0.64881
   0.21979  -0.00537  -0.64881
  -0.01963  -0.00537  -0.64881
   0.21979  -0.00537  -0.64881
   0.21979  -0.00537  -0.64881
   0.21979  -0.00537  -0.64881
   0.21979  -0.00537  -0.88823
   0.21979  -0.00537  -0.88823
   0.21979  -0.00537  -0.88823
   0.21979  -0.00537  -0.88823
   0.21979  -0.00537  -0.88823
  -0.01963  -0.00537  -0.88823
   0.21979  -0.00537  -0.88823
   0.21979  -0.00537  -0.88823
  -0.01963  -0.00537  -0.88823
   0.21979  -0.00537  -0.88823
   0.21979   0.23405  -0.88823
   0.21979  -0.00537  -0.88823
  -0.01963  -0.00537  -0.88823
   0.21979  -0.00537  -0.88823
   0.21979  -0.00537  -1.12765
   0.21979  -0.00537  -0.88823
   0.21979  -0.00537  -1.12765
   0.21979   0.23405  -0.88823
   0.21979   0.23405  -0.88823
   0.21979  -0.00537  -0.88823
   0.21979  -0.00537  -1.12765
   0.21979   0.23405  -1.12765
   0.21979  -0.00537  -1.12765
   0.21979  -0.00537  -1.12765
   0.21979  -0.00537  -1.12765
   0.21979   0.23405  -1.12765
   0.21979   0.23405  -1.12765
   0.21979   0.23405  -1.12765
   0.21979   0.23405  -1.12765
   0.21979   0.23405  -1.12765
   0.21979  -0.00537  -1.12765
   0.21979  -0.00537  -1.12765
   0.21979   0.23405  -1.12765
   0.21979  -0.00537  -1.36707
   0.21979  -0.00537  -1.36707
   0.21979  -0.00537  -1.36707
   0.21979  -0.00537  -1.36707
   0.21979  -0.00537  -1.36707
   0.21979  -0.00537  -1.36707
   0.45921  -0.00537  -1.36707
   0.45921  -0.00537  -1.36707
   0.45921  -0.00537  -1.36707
   0.45921  -0.00537  -1.36707
   0.45921  -0.00537  -1.36707
   0.45921  -0.00537  -1.36707
   0.45921  -0.00537  -1.36707
   0.45921  -0.00537  -1.36707
   0.45921  -0.00537  -1.36707
   0.45921  -0.00537  -1.36707
   0.45921  -0.00537  -1.36707
   0.45921  -0.00537  -1.36707
   0.45921  -0.00537  -1.36707
   0.45921  -0.24479  -1.36707
   0.45921  -0.24479  -1.36707
   0.45921  -0.00537  -1.36707
   0.45921  -0.24479  -1.36707
   0.45921  -0.00537  -1.36707
   0.21979  -0.24479  -1.36707
   0.45921  -0.00537  -1.36707
   0.21979  -0.00537  -1.36707
   0.21979  -0.24479  -1.36707
   0.21979  -0.24479  -1.36707
   0.21979  -0.00537  -1.36707
   0.21979  -0.00537  -1.36707
   0.21979  -0.00537  -1.36707
   0.21979  -0.00537  -1.36707
   0.21979  -0.00537  -1.36707
  -0.01963  -0.00537  -1.36707
   0.21979  -0.00537  -1.36707
  -0.01963  -0.00537  -1.36707
  -0.01963  -0.00537  -1.36707
  -0.01963  -0.24479  -1.36707
  -0.01963  -0.00537  -1.36707
  -0.01963  -0.00537  -1.36707
  -0.01963   0.23405  -1.36707
  -0.01963  -0.00537  -1.36707
  -0.01963  -0.00537  -1.36707
  -0.01963   0.23405  -1.36707
  -0.01963  -0.00537  -1.36707
  -0.01963   0.23405  -1.36707
  -0.25905  -0.00537  -1.12765
  -0.01963  -0.00537  -1.12765
  -0.25905   0.23405  -1.12765
  -0.25905  -0.00537  -1.12765
  -0.25905   0.23405  -1.12765
  -0.25905   0.23405  -1.12765
  -0.25905  -0.00537  -1.12765
  -0.25905  -0.00537  -1.12765
  -0.25905   0.23405  -1.12765
  -0.49847   0.23405  -1.12765
  -0.25905   0.23405  -1.12765
  -0.25905   0.23405  -1.12765
  -0.25905   0.23405  -1.12765
  -0.25905   0.23405  -1.12765
  -0.25905   0.23405  -1.12765
  -0.25905   0.23405  -0.88823
  -0.25905   0.23405  -0.88823
  -0.25905   0.23405  -0.88823
  -0.49847   0.23405  -0.88823
  -0.49847   0.23405  -0.88823
  -0.49847  -0.00537  -0.88823
  -0.49847  -0.00537  -0.88823
  -0.49847  -0.00537  -0.88823
  -0.49847  -0.00537  -0.64881
  -0.49847  -0.00537  -0.64881
  -0.49847  -0.00537  -0.64881
  -0.49847  -0.00537  -0.64881
  -0.49847  -0.00537  -0.64881
  -0.49847  -0.00537  -0.64881
  -0.49847  -0.00537  -0.64881
  -0.49847  -0.00537  -0.64881
  -0.49847  -0.00537  -0.64881
  -0.49847  -0.00537  -0.64881
  -0.49847  -0.00537  -0.64881
  -0.49847  -0.00537  -0.40939
  -0.49847  -0.00537  -0.40939
  -0.49847  -0.00537  -0.40939
  -0.49847  -0.00537  -0.40939
  -0.49847  -0.00537  -0.40939
  -0.49847  -0.00537  -0.40939
  -0.49847  -0.00537  -0.40939
  -0.49847  -0.00537  -0.40939
  -0.49847  -0.00537  -0.16997
  -0.49847  -0.00537  -0.16997
  -0.49847  -0.00537  -0.16997
  -0.49847  -0.00537  -0.16997
  -0.49847  -0.00537  -0.16997
  -0.49847  -0.00537  -0.16997
  -0.49847  -0.00537  -0.16997
  -0.49847  -0.00537  -0.16997
  -0.49847  -0.00537  -0.16997
  -0.49847   0.23405  -0.16997
  -0.49847  -0.00537  -0.16997
  -0.49847  -0.00537  -0.16997
  -0.49847  -0.00537  -0.16997
  -0.49847  -0.00537   0.06945
  -0.49847  -0.00537   0.06945
  -0.49847  -0.00537   0.06945
  -0.49847  -0.00537   0.06945
  -0.49847  -0.00537   0.06945
  -0.49847  -0.00537   0.06945
  -0.49847  -0.00537   0.06945
  -0.49847  -0.00537   0.06945
  -0.49847  -0.00537   0.06945
  -0.25905  -0.00537   0.06945
  -0.25905  -0.00537   0.06945
  -0.25905  -0.00537   0.06945
  -0.25905  -0.00537   0.06945
  -0.25905  -0.00537   0.06945
  -0.25905  -0.00537   0.06945
  -0.25905  -0.00537   0.06945
  -0.25905  -0.00537   0.06945
  -0.25905  -0.00537   0.30887
  -0.25905   0.23405   0.06945
  -0.25905  -0.00537   0.06945
  -0.25905  -0.00537   0.06945
  -0.25905  -0.00537   0.06945
  -0.01963  -0.00537   0.06945
  -0.01963  -0.00537   0.06945
  -0.01963  -0.00537   0.06945
  -0.01963  -0.00537   0.06945
  -0.01963  -0.00537   0.30887
  -0.01963  -0.00537   0.06945
  -0.01963  -0.00537   0.06945
  -0.01963  -0.00537   0.06945
  -0.01963  -0.00537   0.06945
   0.21979  -0.00537   0.06945
   0.21979  -0.00537   0.06945
   0.21979  -0.00537   0.06945
   0.21979  -0.00537   0.06945
   0.21979  -0.24479   0.06945
   0.21979  -0.00537   0.06945
   0.21979  -0.00537   0.06945
   0.45921  -0.00537   0.06945
   0.45921  -0.00537  -0.16997
   0.45921  -0.00537  -0.16997
   0.45921  -0.00537  -0.16997
   0.45921  -0.00537  -0.16997
   0.45921  -0.00537  -0.16997
   0.45921  -0.00537  -0.16997
   0.45921  -0.00537  -0.16997
   0.69863  -0.00537  -0.16997
   0.69863  -0.00537  -0.16997
   0.69863  -0.00537  -0.16997
   0.69863  -0.00537  -0.16997
   0.69863  -0.00537  -0.16997
   0.69863  -0.00537  -0.16997
   0.69863  -0.00537  -0.16997
   0.69863  -0.00537  -0.16997
   0.69863  -0.00537  -0.40939
   0.69863  -0.00537  -0.40939
   0.69863  -0.00537  -0.40939
   0.69863   0.23405  -0.40939
   0.69863   0.23405  -0.40939
   0.69863   0.23405  -0.40939
   0.69863   0.23405  -0.40939
   0.93805   0.23405  -0.40939
   0.93805   0.23405  -0.40939
   0.93805   0.23405  -0.40939
   0.93805   0.23405  -0.40939
   0.93805   0.23405  -0.40939
   0.93805   0.23405  -0.40939
   0.93805   0.23405  -0.40939
   0.93805   0.23405  -0.40939
   0.93805   0.47347  -0.40939
   0.93805   0.47347  -0.40939
   0.93805   0.47347  -0.40939
   0.93805   0.47347  -0.40939
   0.93805   0.47347  -0.40939
   0.93805   0.47347  -0.40939
   0.93805   0.47347  -0.40939
   0.93805   0.47347  -0.40939
   0.93805   0.47347  -0.40939
   0.93805   0.47347  -0.40939
   0.93805   0.47347  -0.40939
   0.93805   0.47347  -0.40939
   0.93805   0.47347  -0.40939
   0.93805   0.47347  -0.40939
   0.93805   0.47347  -0.16997
   0.93805   0.47347  -0.16997
   0.93805   0.47347  -0.40939
   0.93805   0.47347  -0.40939
   0.93805   0.47347  -0.40939
   0.93805   0.47347  -0.40939
   0.93805   0.47347  -0.16997
   0.93805   0.47347  -0.16997
   0.93805   0.47347  -0.16997
   0.93805   0.47347  -0.16997
   0.93805   0.47347  -0.16997
   0.93805   0.47347  -0.16997
   0.93805   0.47347  -0.16997
   0.93805   0.47347  -0.16997
   0.93805   0.47347  -0.16997
   0.93805   0.47347  -0.16997
   0.93805   0.47347  -0.16997
   0.93805   0.47347  -0.16997
   0.93805   0.47347  -0.16997
   0.93805   0.23405  -0.16997
   0.93805   0.23405  -0.16997
   0.93805   0.23405  -0.16997
   0.93805   0.23405  -0.16997
   0.93805   0.23405  -0.16997
   0.69863   0.23405  -0.16997
   0.69863   0.23405   0.06945
   0.69863   0.23405   0.06945
   0.69863   0.23405   0.06945
   0.69863   0.23405   0.06945
   0.69863   0.23405   0.06945
   0.69863   0.23405   0.06945
   0.69863   0.23405   0.06945
   0.69863   0.23405   0.06945
   0.69863   0.23405   0.06945
   0.69863  -0.00537   0.06945
   0.69863  -0.00537   0.06945
   0.69863  -0.00537   0.06945
   0.69863  -0.00537   0.30887
   0.69863  -0.00537   0.30887
   0.69863  -0.00537   0.30887
   0.45921  -0.00537   0.30887
   0.69863  -0.00537   0.30887
   0.45921  -0.00537   0.54829
   0.45921  -0.00537   0.30887
   0.45921  -0.00537   0.54829
   0.45921  -0.00537   0.54829
   0.45921  -0.00537   0.54829
   0.45921  -0.00537   0.54829
   0.45921  -0.00537   0.54829
   0.45921  -0.24479   0.54829
   0.45921  -0.00537   0.54829
   0.45921  -0.24479   0.78771
   0.45921  -0.24479   0.78771
   0.45921  -0.24479   0.78771
   0.45921  -0.24479   0.78771
   0.45921  -0.24479   0.78771
   0.45921  -0.24479   0.78771
   0.45921  -0.00537   1.02713
   0.45921  -0.00537   1.02713
   0.45921  -0.00537   0.78771
   0.21979  -0.24479   1.02713
   0.21979  -0.24479   1.02713
   0.21979  -0.24479   1.26656
   0.21979  -0.24479   1.26656
   0.21979  -0.24479   1.26656
   0.21979  -0.24479   1.26656
   0.21979  -0.24479   1.26656
   0.21979  -0.24479   1.26656
   0.21979  -0.24479   1.26656
   0.21979  -0.24479   1.50598
   0.21979  -0.24479   1.26656
   0.21979  -0.24479   1.50598
   0.21979  -0.24479   1.50598
   0.21979  -0.24479   1.50598
   0.21979  -0.24479   1.50598
   0.21979  -0.24479   1.74540
   0.21979  -0.24479   1.74540
   0.21979  -0.24479   1.74540
  -0.01963  -0.24479   1.74540
  -0.01963  -0.24479   1.74540
  -0.01963  -0.24479   1.74540
  -0.01963  -0.24479   1.98482
  -0.01963  -0.24479   1.74540
  -0.01963  -0.24479   1.74540
  -0.01963  -0.24479   1.74540
  -0.01963  -0.24479   1.74540
  -0.01963  -0.00537   1.98482
  -0.01963  -0.24479   1.98482
  -0.01963  -0.24479   1.98482
  -0.25905  -0.24479   1.98482
  -0.25905  -0.24479   1.98482
  -0.25905  -0.24479   1.98482
  -0.25905  -0.24479   1.98482
  -0.25905  -0.24479   1.98482
  -0.25905  -0.24479   1.98482
  -0.25905  -0.24479   1.98482
  -0.25905  -0.24479   1.98482
  -0.25905  -0.24479   1.98482
  -0.25905  -0.24479   1.74540
  -0.49847  -0.24479   1.98482
  -0.49847  -0.24479   1.98482
  -0.49847  -0.24479   1.74540
  -0.49847  -0.24479   1.74540
  -0.49847  -0.24479   1.74540
  -0.49847  -0.24479   1.74540
  -0.49847  -0.24479   1.74540
  -0.49847  -0.24479   1.74540
  -0.49847  -0.24479   1.74540
  -0.49847  -0.24479   1.74540
  -0.49847  -0.24479   1.74540
  -0.49847  -0.24479   1.74540
  -0.49847  -0.24479   1.74540
  -0.49847  -0.24479   1.74540
  -0.49847  -0.24479   1.50598
  -0.49847  -0.24479   1.50598
  -0.49847  -0.24479   1.50598
  -0.49847  -0.00537   1.50598
  -0.49847  -0.24479   1.50598
  -0.49847  -0.24479   1.50598
  -0.49847  -0.24479   1.50598
  -0.49847  -0.24479   1.26656
  -0.49847  -0.00537   1.50598
  -0.49847  -0.24479   1.26656
  -0.49847  -0.00537   1.50598
  -0.49847  -0.00537   1.26656
  -0.49847  -0.00537   1.26656
  -0.49847  -0.00537   1.26656
  -0.49847  -0.00537   1.26656
  -0.49847  -0.00537   1.26656
  -0.49847  -0.00537   1.26656
  -0.49847  -0.00537   1.26656
  -0.49847  -0.00537   1.26656
  -0.49847  -0.00537   1.26656
  -0.49847  -0.00537   1.26656
  -0.49847  -0.00537   1.02713
  -0.49847  -0.00537   1.26656
  -0.49847   0.23405   1.02713
  -0.25905   0.23405   1.02713
  -0.49847  -0.00537   1.02713
  -0.25905   0.23405   1.02713
  -0.25905   0.23405   1.02713
  -0.25905  -0.00537   1.02713
  -0.25905   0.23405   1.02713
  -0.25905  -0.00537   1.02713
  -0.25905  -0.00537   0.78771
  -0.25905  -0.00537   0.78771
  -0.25905   0.23405   1.02713
  -0.25905  -0.00537   0.78771
  -0.25905  -0.00537   0.78771
  -0.25905  -0.00537   0.78771
  -0.25905  -0.00537   0.78771
  -0.25905  -0.00537   0.78771
  -0.25905  -0.00537   0.54829
  -0.25905  -0.00537   0.78771
  -0.25905  -0.00537   0.78771
  -0.25905  -0.00537   0.78771
  -0.25905  -0.00537   0.78771
  -0.25905  -0.00537   0.78771
  -0.25905  -0.00537   0.78771
  -0.25905  -0.00537   0.78771
  -0.25905  -0.00537   0.54829
  -0.25905   0.23405   0.54829
  -0.25905  -0.00537   0.54829
  -0.25905  -0.00537   0.54829
  -0.25905  -0.00537   0.54829
  -0.25905  -0.00537   0.54829
  -0.25905  -0.00537   0.54829
  -0.25905  -0.00537   0.30887
  -0.25905  -0.00537   0.30887
  -0.25905  -0.00537   0.30887
  -0.25905  -0.00537   0.30887
  -0.01963  -0.00537   0.30887
  -0.01963  -0.00537   0.30887
  -0.01963  -0.00537   0.30887
  -0.01963  -0.00537   0.30887
  -0.01963  -0.00537   0.30887
  -0.01963  -0.00537   0.30887
  -0.01963  -0.00537   0.06945
  -0.01963  -0.00537   0.06945
  -0.01963  -0.00537   0.06945
  -0.01963  -0.00537   0.06945
  -0.01963  -0.00537   0.06945
  -0.01963  -0.00537   0.06945
  -0.01963  -0.00537  -0.16997
  -0.01963  -0.00537  -0.16997
  -0.01963  -0.00537  -0.16997
   0.21979  -0.00537  -0.16997
   0.21979  -0.00537  -0.16997
   0.21979  -0.00537  -0.16997
   0.21979  -0.00537  -0.16997
   0.21979  -0.00537  -0.16997
   0.21979  -0.00537  -0.16997
   0.21979  -0.00537  -0.16997
   0.21979  -0.00537  -0.40939
   0.21979  -0.00537  -0.40939
   0.21979  -0.00537  -0.40939
   0.21979  -0.00537  -0.40939
   0.21979  -0.00537  -0.40939
   0.21979  -0.00537  -0.40939
   0.21979  -0.00537  -0.40939
   0.21979  -0.00537  -0.40939
   0.21979  -0.00537  -0.40939
   0.21979  -0.00537  -0.64881
   0.21979  -0.00537  -0.40939
   0.21979  -0.00537  -0.64881
   0.21979  -0.00537  -0.64881
   0.21979  -0.00537  -0.64881
   0.21979  -0.00537  -0.64881
   0.21979  -0.00537  -0.64881
   0.21979  -0.00537  -0.64881
   0.21979  -0.00537  -0.40939
   0.21979  -0.00537  -0.64881
  -0.01963  -0.00537  -0.64881
  -0.01963  -0.00537  -0.64881
  -0.01963  -0.00537  -0.64881
  -0.01963  -0.00537  -0.64881
  -0.01963  -0.00537  -0.64881
  -0.01963  -0.00537  -0.64881
  -0.01963   0.23405  -0.64881
  -0.01963   0.23405  -0.64881
  -0.01963  -0.00537  -0.64881
  -0.01963   0.23405  -0.64881
  -0.01963   0.23405  -0.64881
  -0.25905   0.23405  -0.40939
  -0.25905   0.23405  -0.40939
  -0.25905   0.23405  -0.40939
  -0.25905   0.23405  -0.40939
  -0.25905   0.23405  -0.40939
  -0.25905   0.23405  -0.40939
  -0.25905   0.23405  -0.40939
  -0.25905   0.23405  -0.40939
