********************************************************************************
               CENTRO DE INSTRUMENTACION Y REGISTRO SISMICO  A.C.  
                       Coordinacion de Servicios Tecnicos
     Anaxagoras 814, Col. Narvarte, Benito Juarez, C.P. 03020 Mexico, D.F.
            Tels. 667 45 42/ 687 45  82             Fax. 669 25 12
********************************************************************************
ARCHIVO ESTANDAR DE ACELERACION:
VERSION DEL FORMATO                    : 2.0
NOMBRE DEL ARCHIVO                     : BA499405.231
FECHA Y HORA DE CREACION               : 13 de febrero de 1996/19:20
REF. CATALOGO ACELEROGRAMAS, SMIS 1995 : REGISTRO No.     /PAG.


================================================================================
DATOS DE LA ESTACION:
NOMBRE DE LA ESTACION                  : BUENOS AIRES
CLAVE DE LA ESTACION                   : BA49
LOCALIZACION DE LA ESTACION            : ESCUELA SECUNDARIA 102, DOCTOR MARQUEZ
                                       : Y EJE CENTRAL, BUENOS AIRES.
                                       :
                                       :
                                       :
COORDENADAS DE LA ESTACION             : 19.410 LAT. N 
                                       : 99.145 LONG. W 
ALTITUD (msnm)                         : 2233
TIPO DE SUELO                          : TERRENO BLANDO, MATERIAL COMPRESIBLE
                                       : (ARCILLAS)
                                       : 
INSTITUCION RESPONSABLE                : CIRES 
                                       :

================================================================================
DATOS DEL ACELEROGRAFO:
MODELO DEL ACELEROGRAFO                : SSA-1
NUMERO DE SERIE DEL ACELEROGRAFO       : 176
NUMERO DE CANALES                      : 3
ORIENTACION C1-C6 (rumbo;orientacion)  : /N00E/+V/N90E
ORIENTACION C7-C12 (rumbo;orientacion) :
VEL. DE MUESTREO, C1-C6 (muestras/s)   : /200/200/200
VEL. DE MUESTREO, C7-C12 (muestras/s)  :
ESC. COMPLETA DE SENSORES, C1-C6, (g)  : /2/2/2
ESC. COMPLETA DE SENSORES, C7-C12, (g) :
FREC. NAT. DE SENSORES, C1-C6, (Hz)    : /50/50/50
FREC. NAT. DE SENSORES, C7-C12, (Hz)   :
AMORTIGUAMIENTO DE SENSORES, C1-C6     : /0.700/0.700/0.700
AMORTIGUAMIENTO DE SENSORES, C7-C12    :
INTERVALO DE MUESTREO, C1-C6, (s)      : /0.005/0.005/0.005
INTERVALO DE MUESTREO, C7-C12, (s)     :
UMBRAL DE DISPARO, C1-C6, (Gal)        : /2/2/2
UMBRAL DE DISPARO, C7-C12, (Gal)       :
MEMORIA DE PREEVENTO (s)               : 15
TIEMPO DE POSEVENTO (s)                : 90


================================================================================
DATOS DEL SISMO:
FECHA DEL SISMO (GMT)                  : 23/MAY/94
HORA EPICENTRO (GMT)                   : 01:41:46,0
MAGNITUD(ES)                           : /Mc=5.60
COORDENADAS DEL EPICENTRO              : 18.030 LAT. N
                                       : 100.570 LONG. W
PROFUNDIDAD FOCAL (km)                 : 23
FUENTE DE LOS DATOS EPICENTRALES       : SSN
                                       : INSTITUTO DE GEOFISICA, UNAM

================================================================================
DATOS DE ESTE REGISTRO:
HORA DE LA PRIMERA MUESTRA (GMT)       : 01:42:00.00
EXACTITUD DEL TIEMPO (s)               :     
DURACION DEL REGISTRO (s), C1-C6       : /258.56/258.56/258.56
DURACION DEL REGISTRO (s), C7-C12      :
NUM. TOTAL DE MUESTRAS, C1-C6          : /51712/51712/51712
NUM. TOTAL DE MUESTRAS, C7-C12         :
ACEL. MAX. (Gal), C1-C6                : /7.48913/3.40590/9.08418
ACEL. MAX., C1-C6, EN LA MUESTRA       :
ACEL. MAX. (Gal), C7-C12               :
ACEL. MAX., C7-C12, EN LA MUESTRA      :
UNIDADES DE LOS DATOS                  : Gal (cm/s/s)
FACTOR DE DECIMACION                   : 1
FORMATO DATOS (FORTRAN,10 campos/dato) : 3F10.5


================================================================================
CALIDAD DEL ACELEROGRAMA:
REGISTRO DIGITAL COMPLETO, CARECE DE TIEMPO ABSOLUTO.


================================================================================
COMENTARIOS: 
             El equipo se encontraba con ganancias de 4 en todos lo ejes,
             por lo que las escalas completas eran de 1/2 g.












================================================================================
DATOS DE ACELERACION:
---------+---------+---------+---------+---------+---------+---------+---------+
   CANAL-1   CANAL-2   CANAL-3   CANAL-4   CANAL-5   CANAL-6   CANAL-7   CANAL-8
      N00E        +V      N90E
---------+---------+---------+---------+---------+---------+---------+---------+
[...]
  -3.89913  -0.66410  -3.13582
  -4.13913  -0.66410  -3.37582
  -4.13913  -0.66410  -3.84582
  -4.37913  -0.42410  -3.84582
  -4.37913  -0.42410  -4.32582
  -4.37913  -0.42410  -4.56582
  -4.61913  -0.42410  -5.04582
  -4.85913  -0.18410  -5.28582
  -4.85913  -0.18410  -5.28582
  -5.09913  -0.18410  -5.52582
  -5.33913  -0.18410  -5.76582
  -5.33913  -0.18410  -6.24582
  -5.57913  -0.18410  -6.24582
  -5.81913  -0.18410  -6.48582
  -6.05913   0.05590  -6.72582
  -6.29913   0.05590  -6.96582
  -6.29913  -0.18410  -7.20582
  -6.53913  -0.18410  -7.44582
  -6.53913  -0.18410  -7.44582
  -6.77913  -0.42410  -7.44582
  -7.01913  -0.42410  -7.68582
  -7.01913  -0.42410  -7.68582
  -7.24913  -0.66410  -7.68582
  -7.24913  -0.66410  -7.68582
  -7.24913  -0.66410  -7.92582
  -7.24913  -0.66410  -7.68582
  -7.48913  -0.66410  -7.68582
  -7.24913  -0.90410  -7.68582
  -7.24913  -0.90410  -7.68582
  -7.24913  -0.90410  -7.68582
  -7.24913  -0.90410  -7.68582
  -7.01913  -0.90410  -7.44582
  -7.01913  -0.90410  -7.20582
  -7.01913  -0.90410  -7.20582
  -7.01913  -0.90410  -7.20582
  -6.77913  -1.14410  -6.96582
  -6.77913  -1.14410  -6.72582
  -6.53913  -1.14410  -6.72582
  -6.29913  -1.14410  -6.48582
  -6.05913  -1.14410  -6.48582
  -5.81913  -1.14410  -6.48582
  -5.81913  -1.14410  -6.24582
  -5.57913  -1.38410  -6.00582
  -5.33913  -1.14410  -6.00582
  -5.09913  -1.14410  -6.00582
  -4.85913  -1.38410  -6.00582
  -4.61913  -1.38410  -5.76582
  -4.37913  -1.38410  -5.52582
  -4.13913  -1.38410  -5.52582
  -3.89913  -1.38410  -5.28582
  -3.41913  -1.38410  -5.28582
  -3.17913  -1.62410  -5.04582
  -2.93913  -1.38410  -4.80582
  -2.69913  -1.38410  -4.56582
  -2.45913  -1.62410  -4.56582
  -1.98913  -1.38410  -4.56582
  -1.74913  -1.38410  -4.08582
  -1.50913  -1.38410  -4.08582
  -1.26913  -1.38410  -3.84582
  -1.02913  -1.38410  -3.84582
  -0.54913  -1.38410  -3.60582
  -0.30913  -1.38410  -3.37582
  -0.06913  -1.14410  -3.13582
   0.17087  -1.38410  -2.89582
   0.41087  -1.38410  -2.65582
   0.65087  -1.38410  -2.41582
   0.89087  -1.38410  -2.17582
   1.13087  -1.38410  -1.93582
   1.37087  -1.38410  -1.45582
   1.61087  -1.38410  -1.21582
   1.85087  -1.38410  -0.97582
   2.09087  -1.38410  -0.97582
   2.33087  -1.38410  -0.49582
   2.33087  -1.38410  -0.49582
   2.57087  -1.38410  -0.01582
   2.57087  -1.38410   0.22418
   2.57087  -1.14410   0.22418
   2.57087  -1.38410   0.46418
   2.80087  -1.38410   0.94418
   2.80087  -1.14410   0.94418
   2.80087  -1.14410   1.18418
   2.80087  -1.14410   1.65418
   2.57087  -1.14410   1.65418
   2.80087  -0.90410   1.89418
   2.80087  -0.90410   2.13418
   2.80087  -0.66410   2.13418
   2.80087  -0.66410   2.37418
   2.80087  -0.42410   2.61418
   2.80087  -0.18410   2.85418
   2.80087  -0.18410   3.09418
   2.80087   0.05590   3.09418
   2.80087   0.29590   3.33418
   2.80087   0.29590   3.33418
   2.80087   0.29590   3.57418
   2.80087   0.53590   3.81418
   2.80087   0.53590   3.81418
   3.04087   0.53590   4.05418
   3.04087   0.53590   4.29418
   3.04087   0.53590   4.29418
   3.04087   0.53590   4.29418
   3.04087   0.53590   4.53418
   3.04087   0.53590   4.53418
   3.04087   0.53590   4.77418
   3.28087   0.53590   4.77418
   3.28087   0.53590   5.01418
   3.28087   0.53590   5.01418
   3.28087   0.53590   5.25418
   3.52087   0.53590   5.49418
   3.52087   0.53590   5.73418
   3.52087   0.53590   5.73418
   3.76087   0.77590   5.97418
   3.76087   0.77590   5.97418
   4.00087   0.77590   6.21418
   4.00087   1.01590   6.21418
   4.24087   1.01590   6.44418
   4.24087   1.01590   6.44418
   4.24087   1.25590   6.44418
   4.48087   1.25590   6.44418
   4.72087   1.25590   6.44418
   4.72087   1.25590   6.44418
   4.72087   1.25590   6.44418
   4.72087   1.49590   6.44418
   4.72087   1.49590   6.21418
   4.96087   1.49590   6.21418
   4.96087   1.73590   5.97418
   5.20087   1.73590   5.97418
   5.20087   1.73590   5.73418
   5.20087   1.73590   5.49418
   5.20087   1.73590   5.25418
   5.20087   1.73590   5.25418
   5.20087   1.73590   5.01418
   5.20087   1.73590   4.53418
   5.20087   1.73590   4.29418
   5.20087   1.73590   4.05418
   5.20087   1.73590   3.81418
   5.20087   1.73590   3.57418
   4.96087   1.73590   3.33418
   4.96087   1.49590   2.85418
   4.72087   1.49590   2.61418
   4.72087   1.49590   2.37418
   4.48087   1.25590   2.13418
   4.48087   1.01590   1.65418
   4.24087   1.25590   1.42418
   4.00087   1.01590   1.18418
   3.76087   1.01590   0.94418
   3.52087   1.01590   0.70418
   3.28087   1.01590   0.22418
   2.80087   0.77590  -0.01582
   2.57087   1.01590  -0.49582
   2.33087   1.01590  -0.73582
   1.85087   1.01590  -0.97582
   1.61087   1.01590  -1.21582
   1.37087   1.25590  -1.45582
   0.89087   1.25590  -1.69582
   0.89087   1.49590  -1.93582
   0.65087   1.49590  -2.17582
   0.41087   1.73590  -2.41582
   0.17087   1.73590  -2.65582
  -0.06913   1.96590  -2.89582
  -0.30913   1.96590  -2.89582
  -0.30913   2.20590  -3.13582
  -0.54913   2.20590  -3.13582
  -0.54913   2.20590  -3.13582
  -0.78913   2.20590  -3.37582
  -1.02913   2.44590  -3.37582
  -1.02913   2.44590  -3.37582
  -1.02913   2.44590  -3.37582
  -1.02913   2.44590  -3.37582
  -1.26913   2.44590  -3.37582
  -1.26913   2.44590  -3.37582
  -1.26913   2.44590  -3.37582
  -1.26913   2.44590  -3.37582
  -1.26913   2.44590  -3.37582
  -1.02913   2.20590  -3.37582
  -1.02913   2.20590  -3.37582
  -1.02913   1.96590  -3.13582
  -1.02913   1.96590  -3.13582
  -0.78913   1.96590  -2.89582
  -0.54913   1.96590  -2.89582
  -0.54913   1.73590  -2.89582
  -0.30913   1.73590  -2.65582
  -0.06913   1.49590  -2.65582
  -0.06913   1.49590  -2.65582
   0.17087   1.25590  -2.65582
   0.17087   1.25590  -2.65582
   0.41087   1.01590  -2.65582
   0.41087   0.77590  -2.65582
   0.65087   0.53590  -2.41582
   0.65087   0.53590  -2.41582
   0.65087   0.29590  -2.17582
   0.65087   0.05590  -2.17582
   0.65087   0.05590  -2.17582
   0.65087  -0.18410  -1.93582
   0.65087  -0.42410  -1.93582
   0.65087  -0.42410  -1.93582
   0.65087  -0.42410  -1.69582
   0.65087  -0.42410  -1.69582
   0.65087  -0.66410  -1.69582
   0.65087  -0.66410  -1.45582
   0.41087  -0.66410  -1.21582
   0.65087  -0.90410  -1.21582
   0.41087  -0.90410  -1.21582
   0.41087  -0.90410  -0.97582
   0.41087  -0.90410  -0.97582
   0.17087  -0.90410  -0.73582
   0.17087  -0.90410  -0.73582
   0.17087  -0.90410  -0.73582
  -0.06913  -0.90410  -0.73582
  -0.06913  -0.90410  -0.73582
  -0.06913  -0.90410  -0.73582
  -0.30913  -0.90410  -0.49582
  -0.30913  -0.90410  -0.25582
  -0.54913  -0.90410  -0.49582
  -0.54913  -0.66410  -0.49582
  -0.78913  -0.66410  -0.49582
  -0.78913  -0.66410  -0.49582
  -0.78913  -0.66410  -0.49582
  -1.02913  -0.66410  -0.25582
  -1.02913  -0.90410  -0.49582
  -1.02913  -0.66410  -0.49582
  -1.02913  -0.90410  -0.49582
  -1.26913  -0.90410  -0.49582
  -1.26913  -0.90410  -0.49582
  -1.26913  -0.90410  -0.49582
  -1.50913  -0.66410  -0.49582
  -1.26913  -0.66410  -0.49582
  -1.50913  -0.66410  -0.49582
  -1.50913  -0.66410  -0.73582
  -1.50913  -0.90410  -0.73582
  -1.50913  -0.66410  -0.73582
  -1.50913  -0.90410  -0.73582
  -1.50913  -0.66410  -0.73582
  -1.50913  -0.90410  -0.73582
  -1.50913  -0.66410  -0.97582
  -1.50913  -0.66410  -0.97582
  -1.50913  -0.66410  -0.97582
  -1.50913  -0.66410  -1.21582
  -1.74913  -0.66410  -1.21582
  -1.74913  -0.66410  -1.21582
  -1.74913  -0.66410  -1.21582
  -1.74913  -0.66410  -1.45582
  -1.74913  -0.66410  -1.45582
  -1.74913  -0.66410  -1.45582
  -1.74913  -0.66410  -1.69582
  -1.74913  -0.66410  -1.69582
  -1.74913  -0.66410  -1.93582
  -1.74913  -0.66410  -1.93582
  -1.74913  -0.66410  -2.17582
  -1.74913  -0.66410  -2.17582
  -1.50913  -0.66410  -2.41582
  -1.50913  -0.90410  -2.41582
  -1.50913  -0.90410  -2.65582
  -1.50913  -0.90410  -2.65582
  -1.50913  -0.90410  -2.89582
  -1.50913  -0.90410  -2.89582
  -1.26913  -0.90410  -3.37582
  -1.26913  -0.90410  -3.13582
  -1.26913  -0.66410  -3.37582
  -1.26913  -0.90410  -3.60582
  -1.26913  -0.90410  -3.60582
  -1.26913  -0.90410  -3.60582
  -1.26913  -0.90410  -3.84582
  -1.26913  -0.90410  -4.08582
  -1.26913  -0.90410  -4.08582
  -1.26913  -0.90410  -4.08582
  -1.50913  -0.90410  -4.32582
  -1.50913  -0.90410  -4.32582
  -1.50913  -0.90410  -4.56582
  -1.50913  -1.14410  -4.56582
  -1.50913  -0.90410  -4.56582
  -1.74913  -0.90410  -4.80582
  -1.74913  -0.90410  -4.80582
  -1.74913  -0.90410  -4.80582
  -1.98913  -0.90410  -4.80582
  -1.98913  -0.90410  -4.80582
  -1.98913  -0.90410  -4.80582
  -1.98913  -0.66410  -5.04582
  -2.22913  -0.66410  -5.04582
  -2.22913  -0.42410  -4.80582
  -2.22913  -0.42410  -4.80582
  -2.22913  -0.42410  -4.56582
  -2.45913  -0.18410  -4.56582
  -2.45913  -0.18410  -4.56582
  -2.45913  -0.18410  -4.32582
  -2.45913  -0.18410  -4.08582
  -2.45913  -0.18410  -3.84582
  -2.45913   0.05590  -3.60582
  -2.45913   0.05590  -3.60582
  -2.45913   0.05590  -3.37582
  -2.45913   0.05590  -3.13582
  -2.45913   0.05590  -2.89582
  -2.45913   0.05590  -2.65582
  -2.22913   0.05590  -2.41582
  -2.22913   0.05590  -2.17582
  -1.98913   0.05590  -1.69582
  -1.98913  -0.18410  -1.69582
  -1.74913  -0.18410  -1.21582
  -1.50913  -0.18410  -0.97582
  -1.50913  -0.18410  -0.73582
  -1.26913  -0.42410  -0.49582
  -1.02913  -0.42410  -0.25582
  -1.02913  -0.42410  -0.01582
  -0.78913  -0.42410   0.22418
  -0.54913  -0.42410   0.46418
  -0.30913  -0.42410   0.70418
  -0.06913  -0.42410   0.94418
   0.17087  -0.66410   1.42418
   0.17087  -0.42410   1.65418
   0.65087  -0.42410   1.89418
   0.65087  -0.66410   2.13418
   0.89087  -0.66410   2.37418
   1.13087  -0.66410   2.61418
   1.37087  -0.66410   2.85418
   1.61087  -0.66410   3.09418
   1.85087  -0.66410   3.33418
   2.09087  -0.66410   3.57418
   2.33087  -0.90410   3.81418
   2.57087  -0.90410   4.05418
   2.80087  -0.90410   4.29418
   3.04087  -1.14410   4.77418
   3.28087  -1.14410   5.25418
   3.28087  -1.38410   5.25418
   3.52087  -1.38410   5.73418
   3.76087  -1.38410   6.21418
   4.00087  -1.38410   6.21418
   4.00087  -1.62410   6.44418
   4.24087  -1.62410   6.68418
   4.24087  -1.62410   6.92418
   4.24087  -1.62410   6.92418
   4.48087  -1.62410   7.16418
   4.48087  -1.62410   7.40418
   4.48087  -1.86410   7.40418
   4.48087  -1.86410   7.64418
   4.48087  -1.62410   7.88418
   4.72087  -1.86410   7.88418
   4.48087  -1.62410   8.12418
   4.48087  -1.62410   8.12418
   4.48087  -1.62410   8.12418
   4.72087  -1.62410   8.36418
   4.72087  -1.62410   8.36418
   4.72087  -1.62410   8.60418
   4.72087  -1.62410   8.60418
   4.72087  -1.38410   8.60418
   4.72087  -1.38410   8.84418
   4.72087  -1.38410   8.84418
   4.72087  -1.14410   8.84418
   4.48087  -1.14410   9.08418
   4.48087  -0.90410   9.08418
   4.48087  -0.66410   9.08418
   4.24087  -0.42410   9.08418
   4.24087  -0.42410   9.08418
   4.00087  -0.18410   9.08418
   4.00087   0.05590   9.08418
   3.76087   0.05590   9.08418
   3.76087   0.29590   9.08418
   3.76087   0.53590   9.08418
   3.52087   0.53590   9.08418
   3.52087   0.77590   9.08418
   3.52087   0.77590   9.08418
   3.28087   0.77590   9.08418
   3.28087   0.77590   9.08418
   3.04087   0.77590   8.84418
   3.04087   0.77590   8.84418
   3.28087   0.77590   8.84418
   3.04087   0.77590   8.60418
   3.04087   0.53590   8.60418
   3.04087   0.77590   8.36418
   3.04087   0.53590   8.36418
   3.04087   0.77590   8.12418
   3.04087   0.77590   7.88418
   2.80087   0.77590   7.64418
   2.80087   1.01590   7.64418
   2.80087   0.77590   7.16418
   2.57087   1.01590   7.16418
   2.57087   1.25590   6.92418
   2.33087   1.25590   6.44418
   2.33087   1.49590   6.21418
   2.33087   1.49590   5.97418
   2.33087   1.49590   5.73418
   2.33087   1.49590   5.49418
   2.09087   1.73590   5.01418
   2.09087   1.73590   4.77418
   2.09087   1.73590   4.53418
   1.85087   1.96590   4.29418
   1.85087   1.73590   4.05418
   1.85087   1.96590   3.81418
   1.85087   1.73590   3.33418
   1.61087   1.73590   3.09418
   1.61087   1.73590   2.61418
   1.61087   1.73590   2.37418
   1.61087   1.49590   2.13418
   1.61087   1.49590   1.65418
   1.61087   1.73590   1.42418
   1.37087   1.49590   1.18418
   1.37087   1.73590   0.94418
   1.13087   1.73590   0.46418
   1.13087   1.73590   0.22418
   0.89087   1.96590  -0.01582
   0.65087   1.96590  -0.49582
   0.41087   1.96590  -0.73582
   0.41087   1.96590  -0.73582
   0.17087   1.96590  -1.21582
  -0.06913   1.96590  -1.45582
  -0.06913   1.96590  -1.69582
  -0.30913   1.96590  -1.69582
  -0.30913   1.96590  -1.93582
  -0.54913   1.96590  -2.41582
  -0.78913   1.96590  -2.41582
  -1.02913   1.96590  -2.65582
  -1.26913   1.96590  -2.89582
  -1.26913   1.96590  -2.89582
  -1.50913   1.96590  -3.13582
  -1.74913   1.96590  -3.13582
  -2.22913   1.96590  -3.13582
  -2.45913   1.96590  -3.13582
  -2.69913   1.96590  -3.37582
  -2.93913   1.96590  -3.13582
  -3.17913   1.96590  -3.13582
  -3.41913   1.96590  -3.13582
  -3.65913   1.73590  -3.13582
  -3.65913   1.73590  -3.13582
  -4.13913   1.73590  -3.13582
  -4.13913   1.49590  -3.13582
  -4.37913   1.49590  -3.13582
  -4.37913   1.25590  -2.89582
  -4.61913   1.25590  -2.89582
  -4.61913   1.25590  -2.65582
  -4.61913   1.25590  -2.65582
  -4.85913   1.25590  -2.65582
  -4.85913   1.25590  -2.65582
  -4.85913   1.25590  -2.65582
  -5.09913   1.25590  -2.41582
  -5.09913   1.25590  -2.17582
  -5.09913   1.25590  -2.17582
  -5.09913   1.25590  -1.93582
  -5.09913   1.25590  -1.93582
  -5.09913   1.25590  -1.69582
  -4.85913   1.25590  -1.69582
  -4.85913   1.25590  -1.69582
  -4.61913   1.01590  -1.69582
  -4.61913   1.01590  -1.45582
  -4.37913   0.77590  -1.45582
  -4.13913   0.53590  -1.21582
  -4.13913   0.29590  -1.21582
  -3.89913   0.05590  -1.21582
  -3.65913  -0.18410  -0.73582
  -3.65913  -0.42410  -0.73582
  -3.41913  -0.66410  -0.73582
  -3.17913  -0.90410  -0.49582
  -2.93913  -1.38410  -0.49582
  -2.93913  -1.38410  -0.49582
  -2.69913  -1.62410  -0.49582
  -2.45913  -1.86410  -0.49582
  -2.45913  -2.10410  -0.25582
  -2.22913  -2.10410  -0.49582
  -2.22913  -2.10410  -0.25582
  -1.98913  -2.34410  -0.25582
  -1.98913  -2.34410  -0.25582
  -1.74913  -2.34410  -0.25582
  -1.50913  -2.34410  -0.25582
  -1.50913  -2.34410  -0.25582
  -1.50913  -2.10410  -0.25582
  -1.26913  -2.10410  -0.25582
  -1.26913  -2.10410  -0.25582
  -1.02913  -2.10410  -0.25582
  -1.02913  -2.10410  -0.25582
  -0.78913  -2.10410  -0.25582
  -0.78913  -2.34410  -0.25582
  -0.54913  -2.34410  -0.25582
  -0.54913  -2.34410  -0.25582
  -0.54913  -2.34410  -0.49582
  -0.54913  -2.58410  -0.25582
  -0.30913  -2.58410  -0.25582
  -0.30913  -2.58410  -0.25582
  -0.30913  -2.58410  -0.25582
  -0.30913  -2.58410  -0.25582
  -0.30913  -2.58410  -0.25582
  -0.30913  -2.58410  -0.25582
  -0.06913  -2.58410  -0.25582
  -0.06913  -2.34410  -0.25582
  -0.06913  -2.34410  -0.25582
  -0.06913  -2.10410  -0.49582
   0.17087  -2.10410  -0.25582
   0.17087  -2.10410  -0.25582
   0.17087  -1.86410  -0.25582
   0.17087  -1.62410  -0.25582
   0.17087  -1.62410  -0.01582
   0.17087  -1.38410  -0.25582
   0.17087  -1.14410  -0.49582
   0.17087  -1.14410  -0.49582
   0.17087  -1.14410  -0.49582
   0.17087  -0.90410  -0.49582
   0.41087  -0.90410  -0.49582
   0.17087  -0.66410  -0.49582
   0.41087  -0.66410  -0.73582
