********************************************************************************
               CENTRO DE INSTRUMENTACION Y REGISTRO SISMICO  A.C.  
                       Coordinacion de Servicios Tecnicos
     Anaxagoras 814, Col. Narvarte, Benito Juarez, C.P. 03020 Mexico, D.F.
            Tels. 667 45 42/ 687 45  82             Fax. 669 25 12
********************************************************************************
ARCHIVO ESTANDAR DE ACELERACION:
VERSION DEL FORMATO                    : 2.0
NOMBRE DEL ARCHIVO                     : BA490411.151
FECHA Y HORA DE CREACION               : 10/DIC/04, 10:18
REF. CATALOGO ACELEROGRAMAS, SMIS 1996 : REGISTRO No.     /PAG.


================================================================================
DATOS DE LA ESTACION:
NOMBRE DE LA ESTACION                  : BUENOS AIRES
CLAVE DE LA ESTACION                   : BA49
LOCALIZACION DE LA ESTACION            : ESCUELA SECUNDARIA 102, DOCTOR MARQUEZ
                                       : Y EJE CENTRAL, BUENOS AIRES.
                                       :
                                       :
                                       :
COORDENADAS DE LA ESTACION             : 19.410 LAT. N 
                                       : 99.145 LONG. W 
ALTITUD (msnm)                         : 2233
TIPO DE SUELO                          : TERRENO BLANDO, MATERIAL COMPRESIBLE
                                       : (ARCILLAS)
                                       : 
INSTITUCION RESPONSABLE                : CIRES 
                                       :

================================================================================
DATOS DEL ACELEROGRAFO:
MODELO DEL ACELEROGRAFO                : SSA-1
NUMERO DE SERIE DEL ACELEROGRAFO       : 176
NUMERO DE CANALES                      : 3
ORIENTACION C1-C6 (rumbo;orientacion)  : /N00E/+V/N90E
ORIENTACION C7-C12 (rumbo;orientacion) :
VEL. DE MUESTREO, C1-C6 (muestras/s)   : /200/200/200
VEL. DE MUESTREO, C7-C12 (muestras/s)  :
ESC. COMPLETA DE SENSORES, C1-C6, (g)  : /2/2/2
ESC. COMPLETA DE SENSORES, C7-C12, (g) :
FREC. NAT. DE SENSORES, C1-C6, (Hz)    : /52.99/52.03/52.99
FREC. NAT. DE SENSORES, C7-C12, (Hz)   :
AMORTIGUAMIENTO DE SENSORES, C1-C6     : /.5589/.5469/.6096
AMORTIGUAMIENTO DE SENSORES, C7-C12    :
INTERVALO DE MUESTREO, C1-C6, (s)      : /0.005/0.005/0.005
INTERVALO DE MUESTREO, C7-C12, (s)     :
UMBRAL DE DISPARO, C1-C6, (Gal)        : /2/2/2
UMBRAL DE DISPARO, C7-C12, (Gal)       :
MEMORIA DE PREEVENTO (s)               : 15
TIEMPO DE POSEVENTO (s)                : 60


================================================================================
DATOS DEL SISMO:
FECHA DEL SISMO (GMT)                  : 15/NOV/04
HORA EPICENTRO (GMT)                   : 02:38:39,0
MAGNITUD(ES)                           : /Mc=5.1
COORDENADAS DEL EPICENTRO              : 15.98 LAT. N
                                       : -98.72 LONG. W
PROFUNDIDAD FOCAL (km)                 : 25
FUENTE DE LOS DATOS EPICENTRALES       : SSN
                                       : INSTITUTO DE GEOFISICA, UNAM 

================================================================================
DATOS DE ESTE REGISTRO:
HORA DE LA PRIMERA MUESTRA (GMT)       : 02:40:32.00
EXACTITUD DEL TIEMPO (s)               :     
DURACION DEL REGISTRO (s), C1-C6       : /143.36/143.36/143.36
DURACION DEL REGISTRO (s), C7-C12      :
NUM. TOTAL DE MUESTRAS, C1-C6          : /28672/28672/28672
NUM. TOTAL DE MUESTRAS, C7-C12         :
ACEL. MAX. (Gal), C1-C6                : -2.14277/0.84485/2.08077
ACEL. MAX., C1-C6, EN LA MUESTRA       :
ACEL. MAX. (Gal), C7-C12               :
ACEL. MAX., C7-C12, EN LA MUESTRA      :
UNIDADES DE LOS DATOS                  : Gal (cm/s/s)
FACTOR DE DECIMACION                   : 1
FORMATO DATOS (FORTRAN,10 campos/dato) : 3F10.5


================================================================================
CALIDAD DEL ACELEROGRAMA:
REGISTRO DIGITAL COMPLETO, CARECE DE TIEMPO ABSOLUTO.


================================================================================
COMENTARIOS:














================================================================================
DATOS DE ACELERACION:
---------+---------+---------+---------+---------+---------+---------+---------+
   CANAL-1   CANAL-2   CANAL-3   CANAL-4   CANAL-5   CANAL-6   CANAL-7   CANAL-8
      N00E        +V      N90E
---------+---------+---------+---------+---------+---------+---------+---------+
[...]
  -0.22277  -0.34515  -0.54923
  -0.46277  -0.34515  -0.54923
  -0.46277  -0.34515  -0.54923
  -0.46277  -0.34515  -0.54923
  -0.46277  -0.34515  -0.54923
  -0.46277  -0.34515  -0.54923
  -0.46277  -0.34515  -0.54923
  -0.46277  -0.34515  -0.54923
  -0.46277  -0.10515  -0.54923
  -0.46277  -0.34515  -0.54923
  -0.46277  -0.10515  -0.54923
  -0.46277  -0.10515  -0.54923
  -0.46277  -0.34515  -0.54923
  -0.46277  -0.10515  -0.54923
  -0.46277  -0.10515  -0.54923
  -0.46277  -0.10515  -0.78923
  -0.46277  -0.34515  -0.54923
  -0.46277  -0.34515  -0.54923
  -0.46277  -0.10515  -0.54923
  -0.22277  -0.34515  -0.54923
  -0.22277  -0.10515  -0.54923
  -0.22277  -0.34515  -0.54923
  -0.22277  -0.10515  -0.54923
  -0.22277  -0.34515  -0.54923
  -0.22277  -0.34515  -0.54923
  -0.22277  -0.10515  -0.78923
  -0.22277  -0.10515  -0.54923
  -0.22277  -0.10515  -0.54923
  -0.22277  -0.10515  -0.78923
  -0.22277  -0.10515  -0.54923
  -0.22277  -0.34515  -0.54923
  -0.22277  -0.10515  -0.54923
  -0.22277  -0.10515  -0.54923
  -0.22277  -0.10515  -0.78923
  -0.22277  -0.10515  -0.54923
  -0.22277  -0.10515  -0.54923
  -0.22277  -0.10515  -0.78923
  -0.22277  -0.10515  -0.54923
  -0.22277  -0.10515  -0.78923
  -0.22277  -0.10515  -0.54923
  -0.22277  -0.10515  -0.54923
  -0.22277  -0.10515  -0.54923
  -0.22277  -0.10515  -0.54923
  -0.22277  -0.34515  -0.54923
  -0.22277  -0.10515  -0.54923
   0.01723  -0.10515  -0.78923
   0.01723  -0.10515  -0.54923
   0.01723  -0.10515  -0.54923
   0.01723  -0.10515  -0.54923
   0.01723  -0.10515  -0.54923
   0.01723  -0.10515  -0.54923
   0.01723  -0.10515  -0.54923
   0.01723  -0.10515  -0.54923
   0.01723  -0.10515  -0.31923
   0.01723  -0.10515  -0.31923
   0.01723  -0.10515  -0.54923
   0.01723  -0.10515  -0.31923
   0.25723  -0.10515  -0.31923
   0.01723  -0.10515  -0.31923
   0.01723  -0.10515  -0.31923
   0.01723  -0.10515  -0.31923
   0.25723  -0.10515  -0.31923
   0.25723  -0.34515  -0.07923
   0.01723  -0.10515  -0.07923
   0.25723  -0.34515  -0.07923
   0.25723  -0.10515  -0.07923
   0.25723  -0.10515  -0.07923
   0.25723  -0.10515  -0.07923
   0.25723  -0.10515  -0.07923
   0.25723  -0.34515  -0.07923
   0.25723  -0.34515  -0.07923
   0.25723  -0.10515  -0.07923
   0.25723   0.13485   0.16077
   0.25723  -0.10515   0.16077
   0.25723  -0.34515   0.16077
   0.25723  -0.10515   0.16077
   0.25723  -0.10515   0.16077
   0.25723  -0.10515   0.16077
   0.25723  -0.10515   0.16077
   0.25723  -0.10515   0.40077
   0.25723  -0.34515   0.40077
   0.25723  -0.10515   0.40077
   0.25723  -0.10515   0.40077
   0.25723   0.13485   0.40077
   0.25723  -0.10515   0.40077
   0.25723  -0.10515   0.40077
   0.25723  -0.10515   0.40077
   0.25723  -0.10515   0.64077
   0.25723  -0.10515   0.64077
   0.25723   0.13485   0.64077
   0.25723  -0.10515   0.64077
   0.25723  -0.10515   0.64077
   0.25723   0.13485   0.64077
   0.25723   0.13485   0.64077
   0.25723  -0.10515   0.64077
   0.25723   0.13485   0.88077
   0.25723  -0.10515   0.88077
   0.25723   0.13485   0.88077
   0.25723   0.13485   0.88077
   0.25723   0.13485   0.88077
   0.25723   0.13485   0.88077
   0.25723   0.13485   0.88077
   0.25723   0.13485   0.88077
   0.25723   0.13485   0.88077
   0.49723   0.13485   0.88077
   0.49723   0.13485   1.12077
   0.49723   0.37485   1.12077
   0.49723   0.13485   1.12077
   0.49723   0.13485   1.12077
   0.49723   0.13485   1.12077
   0.49723   0.13485   1.12077
   0.49723   0.37485   1.12077
   0.49723   0.13485   1.12077
   0.49723   0.13485   1.12077
   0.49723   0.37485   1.36077
   0.49723   0.37485   1.36077
   0.49723   0.13485   1.36077
   0.49723   0.13485   1.36077
   0.73723   0.13485   1.36077
   0.73723   0.37485   1.36077
   0.73723   0.13485   1.36077
   0.73723   0.13485   1.36077
   0.73723   0.37485   1.36077
   0.73723   0.37485   1.36077
   0.73723   0.37485   1.36077
   0.73723   0.37485   1.36077
   0.73723   0.37485   1.36077
   0.73723   0.13485   1.36077
   0.73723   0.37485   1.36077
   0.73723   0.37485   1.36077
   0.73723   0.37485   1.36077
   0.73723   0.13485   1.36077
   0.97723   0.37485   1.36077
   0.73723   0.37485   1.36077
   0.97723   0.37485   1.36077
   0.97723   0.37485   1.36077
   0.97723   0.37485   1.36077
   0.97723   0.37485   1.36077
   0.97723   0.37485   1.36077
   0.97723   0.37485   1.36077
   0.97723   0.37485   1.36077
   0.97723   0.37485   1.36077
   0.97723   0.37485   1.36077
   0.97723   0.37485   1.36077
   0.97723   0.37485   1.36077
   0.97723   0.60485   1.36077
   0.97723   0.37485   1.36077
   0.97723   0.37485   1.36077
   0.97723   0.37485   1.36077
   0.97723   0.37485   1.12077
   0.97723   0.37485   1.12077
   0.97723   0.37485   1.12077
   0.97723   0.13485   1.12077
   0.97723   0.37485   1.12077
   0.97723   0.37485   1.12077
   0.97723   0.37485   1.12077
   0.97723   0.37485   1.12077
   0.97723   0.37485   0.88077
   0.97723   0.37485   0.88077
   0.97723   0.13485   0.88077
   0.97723   0.37485   0.88077
   0.97723   0.37485   0.88077
   0.97723   0.37485   0.88077
   0.97723   0.37485   0.88077
   0.97723   0.37485   0.64077
   1.21723   0.37485   0.64077
   0.97723   0.37485   0.64077
   0.97723   0.37485   0.64077
   1.21723   0.37485   0.40077
   1.21723   0.37485   0.40077
   1.21723   0.37485   0.40077
   0.97723   0.13485   0.40077
   0.97723   0.37485   0.40077
   0.97723   0.37485   0.40077
   0.97723   0.37485   0.40077
   0.97723   0.37485   0.16077
   0.97723   0.37485   0.16077
   0.97723   0.37485   0.16077
   0.97723   0.13485   0.16077
   0.97723   0.13485   0.16077
   0.97723   0.13485   0.16077
   0.97723   0.13485   0.16077
   0.97723   0.13485  -0.07923
   0.97723   0.13485  -0.07923
   0.97723   0.13485  -0.07923
   0.97723   0.13485  -0.07923
   0.97723   0.13485  -0.07923
   0.97723   0.13485  -0.07923
   0.97723   0.13485  -0.07923
   0.97723   0.13485  -0.07923
   0.97723   0.13485  -0.07923
   0.97723   0.13485  -0.07923
   0.97723   0.13485  -0.07923
   0.97723   0.13485  -0.07923
   0.97723   0.13485  -0.31923
   0.97723   0.13485  -0.07923
   0.97723   0.13485  -0.07923
   0.73723  -0.10515  -0.07923
   0.73723   0.13485  -0.07923
   0.73723   0.13485  -0.07923
   0.73723  -0.10515  -0.07923
   0.97723  -0.10515  -0.07923
   0.73723  -0.10515  -0.07923
   0.73723  -0.10515  -0.07923
   0.73723  -0.10515  -0.07923
   0.73723  -0.10515  -0.07923
   0.73723  -0.10515  -0.07923
   0.73723  -0.10515  -0.07923
   0.73723  -0.34515  -0.07923
   0.73723  -0.10515  -0.07923
   0.73723  -0.34515  -0.07923
   0.73723  -0.34515  -0.07923
   0.73723  -0.34515  -0.07923
   0.73723  -0.34515  -0.07923
   0.49723  -0.34515  -0.07923
   0.49723  -0.34515  -0.07923
   0.73723  -0.34515  -0.07923
   0.73723  -0.34515  -0.07923
   0.49723  -0.34515  -0.07923
   0.49723  -0.34515  -0.07923
   0.73723  -0.34515  -0.07923
   0.49723  -0.34515  -0.07923
   0.73723  -0.34515  -0.07923
   0.49723  -0.34515  -0.07923
   0.73723  -0.34515  -0.07923
   0.49723  -0.34515  -0.07923
   0.49723  -0.34515  -0.07923
   0.73723  -0.34515  -0.07923
   0.49723  -0.58515   0.16077
   0.73723  -0.34515   0.16077
   0.73723  -0.58515   0.16077
   0.49723  -0.34515   0.16077
   0.49723  -0.58515   0.16077
   0.73723  -0.34515   0.16077
   0.49723  -0.58515   0.16077
   0.49723  -0.58515   0.16077
   0.49723  -0.34515   0.16077
   0.49723  -0.58515   0.16077
   0.49723  -0.58515   0.16077
   0.49723  -0.58515   0.16077
   0.49723  -0.58515   0.16077
   0.49723  -0.58515   0.16077
   0.49723  -0.58515   0.16077
   0.49723  -0.34515   0.16077
   0.49723  -0.34515   0.40077
   0.49723  -0.34515   0.40077
   0.49723  -0.58515   0.40077
   0.49723  -0.34515   0.40077
   0.49723  -0.34515   0.40077
   0.49723  -0.34515   0.40077
   0.49723  -0.34515   0.40077
   0.49723  -0.34515   0.40077
   0.49723  -0.34515   0.40077
   0.25723  -0.34515   0.40077
   0.49723  -0.34515   0.40077
   0.25723  -0.34515   0.40077
   0.49723  -0.34515   0.40077
   0.49723  -0.34515   0.40077
   0.25723  -0.34515   0.64077
   0.25723  -0.58515   0.64077
   0.25723  -0.34515   0.64077
   0.25723  -0.34515   0.64077
   0.25723  -0.34515   0.64077
   0.25723  -0.34515   0.64077
   0.25723  -0.34515   0.64077
   0.01723  -0.10515   0.64077
   0.25723  -0.34515   0.64077
   0.01723  -0.10515   0.64077
   0.01723  -0.10515   0.40077
   0.01723  -0.10515   0.64077
   0.01723  -0.10515   0.64077
   0.01723  -0.10515   0.64077
   0.01723   0.13485   0.64077
   0.01723   0.13485   0.64077
   0.01723   0.13485   0.64077
   0.01723  -0.10515   0.64077
  -0.22277  -0.10515   0.64077
  -0.22277   0.13485   0.64077
  -0.22277   0.13485   0.64077
  -0.22277   0.13485   0.64077
  -0.22277   0.13485   0.64077
  -0.22277   0.13485   0.64077
  -0.22277   0.13485   0.40077
  -0.22277   0.13485   0.64077
  -0.22277   0.13485   0.64077
  -0.46277   0.13485   0.64077
  -0.46277   0.13485   0.40077
  -0.46277   0.13485   0.40077
  -0.46277   0.13485   0.40077
  -0.46277   0.13485   0.40077
  -0.46277   0.13485   0.40077
  -0.46277   0.13485   0.40077
  -0.46277   0.13485   0.40077
  -0.46277   0.13485   0.40077
  -0.70277   0.13485   0.40077
  -0.70277   0.13485   0.40077
  -0.70277   0.37485   0.16077
  -0.70277   0.13485   0.16077
  -0.70277   0.13485   0.16077
  -0.70277   0.13485   0.16077
  -0.70277   0.13485   0.16077
  -0.70277   0.13485   0.16077
  -0.94277   0.13485   0.16077
  -0.94277   0.13485   0.16077
  -0.94277  -0.10515  -0.07923
  -0.94277   0.13485  -0.07923
  -0.94277   0.13485   0.16077
  -0.94277   0.13485  -0.07923
  -0.94277   0.13485  -0.07923
  -0.94277   0.13485  -0.07923
  -0.94277   0.13485  -0.07923
  -0.94277   0.13485  -0.07923
  -1.18277   0.13485  -0.07923
  -1.18277   0.13485  -0.07923
  -1.18277   0.37485  -0.07923
  -1.18277   0.13485  -0.31923
  -1.18277   0.13485  -0.31923
  -1.18277   0.13485  -0.31923
  -1.18277   0.13485  -0.31923
  -1.18277   0.13485  -0.31923
  -1.42277   0.13485  -0.31923
  -1.42277   0.37485  -0.31923
  -1.42277   0.13485  -0.31923
  -1.42277   0.13485  -0.31923
  -1.42277   0.37485  -0.31923
  -1.42277   0.37485  -0.31923
  -1.66277   0.13485  -0.31923
  -1.42277   0.13485  -0.54923
  -1.66277   0.37485  -0.31923
  -1.66277   0.37485  -0.54923
  -1.66277   0.37485  -0.54923
  -1.66277   0.13485  -0.54923
  -1.66277   0.37485  -0.54923
  -1.66277   0.37485  -0.54923
  -1.66277   0.37485  -0.54923
  -1.66277   0.37485  -0.54923
  -1.66277   0.37485  -0.54923
  -1.66277   0.37485  -0.54923
  -1.90277   0.37485  -0.54923
  -1.90277   0.37485  -0.54923
  -1.90277   0.60485  -0.54923
  -1.90277   0.37485  -0.54923
  -1.90277   0.37485  -0.54923
  -1.90277   0.37485  -0.78923
  -1.90277   0.13485  -0.78923
  -1.90277   0.37485  -0.54923
  -1.90277   0.37485  -0.54923
  -1.90277   0.37485  -0.78923
  -2.14277   0.13485  -0.54923
  -2.14277   0.13485  -0.54923
  -2.14277   0.37485  -0.54923
  -2.14277   0.13485  -0.54923
  -2.14277   0.13485  -0.54923
  -2.14277   0.13485  -0.54923
  -2.14277   0.13485  -0.54923
  -2.14277   0.13485  -0.78923
  -2.14277   0.13485  -0.78923
  -2.14277   0.13485  -0.78923
  -2.14277   0.13485  -0.78923
  -2.14277   0.13485  -0.78923
  -2.14277   0.13485  -0.78923
  -2.14277  -0.10515  -0.78923
  -2.14277  -0.10515  -0.54923
  -2.14277   0.13485  -0.78923
  -2.14277  -0.10515  -0.54923
  -2.14277   0.13485  -0.78923
  -2.14277  -0.10515  -0.78923
  -2.14277   0.13485  -0.78923
  -2.14277  -0.10515  -0.78923
  -2.14277  -0.10515  -0.78923
  -2.14277  -0.10515  -0.78923
  -2.14277  -0.10515  -0.78923
  -2.14277  -0.10515  -0.54923
  -2.14277  -0.10515  -0.78923
  -2.14277  -0.10515  -0.78923
  -2.14277  -0.34515  -0.78923
  -1.90277  -0.10515  -0.78923
  -1.90277  -0.34515  -0.78923
  -1.90277  -0.34515  -0.78923
  -2.14277  -0.34515  -0.78923
  -1.90277  -0.34515  -0.78923
  -1.90277  -0.34515  -0.78923
  -1.90277  -0.34515  -0.78923
  -1.66277  -0.34515  -0.78923
  -1.66277  -0.34515  -0.78923
  -1.66277  -0.34515  -0.78923
  -1.66277  -0.34515  -0.78923
  -1.66277  -0.34515  -0.78923
  -1.66277  -0.34515  -0.78923
  -1.42277  -0.34515  -0.78923
  -1.42277  -0.34515  -0.78923
  -1.42277  -0.34515  -0.78923
  -1.42277  -0.34515  -0.78923
  -1.18277  -0.34515  -0.78923
  -1.18277  -0.34515  -0.78923
  -1.18277  -0.58515  -0.78923
  -0.94277  -0.34515  -0.78923
  -0.94277  -0.58515  -0.78923
  -0.94277  -0.58515  -0.78923
  -0.94277  -0.58515  -0.78923
  -0.94277  -0.34515  -0.78923
  -0.70277  -0.34515  -0.78923
  -0.70277  -0.34515  -0.78923
  -0.70277  -0.34515  -0.78923
  -0.70277  -0.34515  -0.78923
  -0.46277  -0.58515  -0.78923
  -0.46277  -0.34515  -0.78923
  -0.46277  -0.34515  -0.78923
  -0.22277  -0.34515  -0.78923
  -0.22277  -0.34515  -0.78923
  -0.22277  -0.34515  -0.78923
  -0.22277  -0.34515  -0.78923
   0.01723  -0.34515  -0.54923
   0.01723  -0.34515  -0.54923
   0.01723  -0.34515  -0.54923
   0.01723  -0.34515  -0.54923
   0.01723  -0.34515  -0.54923
   0.25723  -0.34515  -0.54923
   0.25723  -0.58515  -0.54923
   0.25723  -0.34515  -0.54923
   0.49723  -0.34515  -0.54923
   0.49723  -0.34515  -0.54923
   0.49723  -0.34515  -0.78923
   0.49723  -0.34515  -0.54923
   0.49723  -0.34515  -0.54923
   0.73723  -0.34515  -0.54923
   0.73723  -0.34515  -0.54923
   0.73723  -0.10515  -0.31923
   0.73723  -0.34515  -0.31923
   0.73723  -0.34515  -0.31923
   0.97723  -0.34515  -0.31923
   0.97723  -0.10515  -0.31923
   0.97723  -0.10515  -0.31923
   0.97723  -0.10515  -0.31923
   0.97723  -0.10515  -0.31923
   0.97723  -0.10515  -0.31923
   0.97723  -0.10515  -0.31923
   1.21723   0.13485  -0.31923
   0.97723  -0.10515  -0.31923
   1.21723  -0.10515  -0.07923
   1.21723  -0.10515  -0.31923
   1.21723  -0.10515  -0.31923
   1.21723  -0.10515  -0.07923
   1.21723  -0.10515  -0.07923
   1.21723  -0.10515  -0.07923
   1.21723  -0.10515  -0.07923
   1.21723  -0.10515  -0.07923
   1.44723  -0.10515  -0.07923
   1.21723  -0.10515  -0.07923
   1.44723  -0.10515  -0.07923
   1.44723  -0.10515  -0.07923
   1.44723  -0.10515  -0.07923
   1.44723  -0.10515  -0.07923
   1.44723   0.13485  -0.07923
   1.44723   0.13485  -0.07923
   1.44723   0.13485  -0.07923
   1.44723   0.13485  -0.07923
   1.44723   0.13485   0.16077
   1.44723   0.13485   0.16077
   1.44723   0.13485  -0.07923
   1.44723   0.13485  -0.07923
   1.44723   0.37485   0.16077
   1.44723   0.37485   0.16077
   1.44723   0.13485   0.16077
   1.44723   0.13485   0.16077
   1.44723   0.13485   0.16077
   1.44723   0.13485   0.16077
   1.44723   0.13485   0.16077
   1.44723   0.13485   0.16077
   1.44723   0.13485   0.16077
   1.44723   0.13485   0.16077
   1.44723   0.37485   0.16077
   1.44723   0.13485   0.16077
   1.44723   0.37485   0.16077
   1.44723   0.13485   0.16077
   1.44723   0.37485   0.16077
   1.44723   0.13485   0.16077
   1.44723   0.37485   0.16077
   1.21723   0.37485   0.16077
   1.44723   0.37485   0.16077
   1.21723   0.37485   0.16077
   1.21723   0.37485   0.16077
   1.21723   0.37485   0.16077
   1.21723   0.37485   0.16077
   1.21723   0.37485   0.16077
   1.21723   0.37485   0.16077
   1.21723   0.13485   0.16077
   1.21723   0.37485   0.16077
   0.97723   0.37485   0.16077
   0.97723   0.37485   0.16077
   0.97723   0.37485   0.16077
   0.97723   0.37485   0.16077
   0.97723   0.37485   0.16077
   0.97723   0.37485   0.16077
   0.97723   0.37485   0.16077
   0.97723   0.37485   0.16077
   0.97723   0.37485   0.16077
   0.97723   0.13485   0.16077
   0.73723   0.37485   0.16077
