********************************************************************************
              CENTRO DE INSTRUMENTACION Y REGISTRO SISMICO  A.C.

    Anaxagoras 814, Col. Narvarte, Benito Juarez, C.P. 03020 Mexico, D.F.
           Tels. 5687 45 42/ 5687 45  82             Fax. 5669 25 12
********************************************************************************
ARCHIVO ESTANDAR DE ACELERACION:
VERSION DEL FORMATO                    : 2.0
NOMBRE DEL ARCHIVO                     : BA4920120411225510
FECHA Y HORA DE CREACION               : 15/MAY/12, 09:49
REF. CATALOGO ACELEROGRAMAS, SMIS 1996 : REGISTRO No.     /PAG.


================================================================================
DATOS DE LA ESTACION:
NOMBRE DE LA ESTACION                  : BUENOS AIRES
CLAVE DE LA ESTACION                   : BA49
LOCALIZACION DE LA ESTACION            : Del. Cuauhtémoc, Col. Doctores,        
                                       : Av. Lázaro Cárdenas esq. con           
                                       : Calle Dr. Márquez.                     
                                       :                                        
                                       : 
COORDENADAS DE LA ESTACION             : 19.4097 LAT. N
                                       : 99.1450 LONG. W
ALTITUD (msnm)                         : 2233
TIPO DE SUELO                          : Terreno blando, material compresible
                                       : (arcillas)                
                                       : 
INSTITUCION RESPONSABLE                : CIRES
                                       : 

================================================================================
DATOS DEL ACELEROGRAFO:
MODELO DEL ACELEROGRAFO                : RADESD
NUMERO DE SERIE DEL ACELEROGRAFO       : 176
NUMERO DE CANALES                      : 3
ORIENTACION C1-C6 (rumbo;orientacion)  : /N00E/+V/N90W
ORIENTACION C7-C12 (rumbo;orientacion) : 
VEL. DE MUESTREO, C1-C6 (muestras/s)   : /100/100/100
VEL. DE MUESTREO, C7-C12 (muestras/s)  : 
ESC. COMPLETA DE SENSORES, C1-C6, (g)  : /0.5/0.5/0.5
ESC. COMPLETA DE SENSORES, C7-C12, (g) : 
FREC. NAT. DE SENSORES, C1-C6, (Hz)    : /52.99/52.03/52.99
FREC. NAT. DE SENSORES, C7-C12, (Hz)   : 
AMORTIGUAMIENTO DE SENSORES, C1-C6     : /0.5589/0.5469/0.6096
AMORTIGUAMIENTO DE SENSORES, C7-C12    : 
INTERVALO DE MUESTREO, C1-C6, (s)      : /0.01/0.01/0.01
INTERVALO DE MUESTREO, C7-C12, (s)     : 
UMBRAL DE DISPARO, C1-C6, (Gal)        : /0.96/1.92/0.96
UMBRAL DE DISPARO, C7-C12, (Gal)       : 
MEMORIA DE PREEVENTO (s)               : 56.0
TIEMPO DE POSEVENTO (s)                : 64.0


================================================================================
DATOS DEL SISMO:
FECHA DEL SISMO (GMT)                  : 11/ABR/12
HORA EPICENTRO (GMT)                   : 22:55:10.0
MAGNITUD(ES)                           : /Mc=6.4
COORDENADAS DEL EPICENTRO              : 17.90 LAT. N
                                       : 103.06 LONG. W
PROFUNDIDAD FOCAL (km)                 : 16
FUENTE DE LOS DATOS EPICENTRALES       : SSN
                                       : INSTITUTO DE GEOFISICA, UNAM

================================================================================
DATOS DE ESTE REGISTRO:
HORA DE LA PRIMERA MUESTRA (GMT)       : 22:57:14.00
EXACTITUD DEL TIEMPO (s)               : 0.01
DURACION DEL REGISTRO (s), C1-C6       : /308.75/308.75/308.75
DURACION DEL REGISTRO (s), C7-C12      : 
NUM. TOTAL DE MUESTRAS, C1-C6          : /30875/30875/30875
NUM. TOTAL DE MUESTRAS, C7-C12         : 
ACEL. MAX. (Gal), C1-C6                : /22.88633/2.88346/11.72074
ACEL. MAX., C1-C6, EN LA MUESTRA       : /7885/7378/7262
ACEL. MAX. (Gal), C7-C12               : 
ACEL. MAX., C7-C12, EN LA MUESTRA      : 
UNIDADES DE LOS DATOS                  : Gal (cm/s/s)
FACTOR DE DECIMACION                   : 1
FORMATO DATOS (FORTRAN,10 campos/dato) : 3F10.5


================================================================================
CALIDAD DEL ACELEROGRAMA:
REGISTRO DIGITAL COMPLETO CON TIEMPO ABSOLUTO CORRECTO.


================================================================================
COMENTARIOS:














================================================================================
DATOS DE ACELERACION:
---------+---------+---------+---------+---------+---------+---------+---------+
   CANAL-1   CANAL-2   CANAL-3   CANAL-4   CANAL-5   CANAL-6   CANAL-7   CANAL-8
      N00E        +V      N90W
---------+---------+---------+---------+---------+---------+---------+---------+
[...]
 -13.74496   0.94727  -5.73524
 -13.74496   0.70785  -5.73524
 -13.74496   0.70785  -5.49582
 -13.74496   0.94727  -5.25640
 -13.74496   0.70785  -5.01697
 -13.74496   0.70785  -4.77755
 -13.50554   0.70785  -4.53813
 -13.50554   0.70785  -4.53813
 -13.50554   0.46843  -4.29871
 -13.50554   0.22901  -4.05929
 -13.26612  -0.01041  -3.81987
 -13.26612  -0.01041  -3.34103
 -13.02670  -0.01041  -3.10161
 -13.02670  -0.24983  -2.62277
 -12.78728  -0.48925  -2.62277
 -12.78728  -0.48925  -2.14393
 -12.54786  -0.48925  -2.14393
 -12.54786  -0.72867  -1.90451
 -12.30844  -0.96809  -1.42567
 -12.30844  -0.96809  -1.18625
 -12.30844  -1.20752  -0.94683
 -11.82960  -1.20752  -0.70741
 -11.59018  -1.20752  -0.22857
 -11.59018  -1.20752   0.25027
 -11.11134  -1.44694   0.48969
 -10.87192  -1.44694   0.96853
 -10.63250  -1.44694   1.20795
 -10.39308  -1.44694   1.44737
 -10.15366  -1.68636   1.68679
  -9.91424  -1.68636   2.16563
  -9.67482  -1.92578   2.64447
  -9.19598  -1.68636   2.88389
  -8.95656  -1.68636   3.36273
  -8.47771  -1.92578   3.84157
  -8.23829  -1.92578   3.84157
  -7.75945  -1.68636   4.32041
  -7.28061  -1.92578   4.79925
  -6.80177  -1.68636   5.03867
  -6.56235  -1.68636   5.27809
  -6.08351  -1.68636   5.99635
  -5.60467  -1.44694   5.99635
  -5.36525  -1.44694   6.23577
  -4.64699  -1.44694   6.71461
  -4.16815  -1.20752   6.95403
  -3.68931  -1.20752   7.19345
  -3.21047  -1.20752   7.43287
  -2.49221  -1.20752   7.67229
  -1.77395  -0.96809   7.91171
  -1.53453  -0.96809   8.15113
  -0.81627  -0.96809   8.39055
  -0.09801  -0.72867   8.62997
   0.38083  -0.72867   8.86939
   1.09909  -0.72867   9.10881
   1.57793  -0.48925   9.34824
   2.29619  -0.48925   9.34824
   2.77503  -0.72867   9.58766
   3.25387  -0.48925   9.58766
   3.73271  -0.48925   9.82708
   4.45097  -0.48925   9.82708
   4.92981  -0.24983  10.30592
   5.40865  -0.01041  10.30592
   5.88750  -0.24983  10.54534
   6.36634  -0.01041  10.54534
   7.08460  -0.01041  10.78476
   7.32402   0.22901  10.78476
   7.80286   0.22901  10.78476
   8.04228   0.22901  11.02418
   8.76054   0.22901  11.02418
   8.99996   0.22901  11.02418
   9.47880   0.46843  11.02418
   9.71822   0.70785  11.26360
  10.19706   0.70785  11.26360
  10.67590   0.70785  11.26360
  11.15474   0.94727  11.26360
  11.39416   1.18669  11.26360
  11.63358   0.94727  11.02418
  11.87300   0.46843  11.02418
  12.35184   1.18669  11.02418
  12.83068   0.94727  11.02418
  12.83068   0.70785  10.78476
  13.54894   0.94727  10.78476
  13.78836   0.70785  10.54534
  14.02778   0.70785  10.54534
  14.26720   0.70785  10.30592
  14.74604   0.70785  10.06650
  14.98546   0.46843  10.06650
  15.22488   0.46843   9.82708
  15.46430   0.22901   9.58766
  15.70372  -0.01041   9.10881
  15.94314  -0.01041   9.10881
  16.18256  -0.01041   8.86939
  16.42198  -0.01041   8.62997
  16.42198   0.22901   8.15113
  16.66140   0.22901   8.15113
  16.90082   0.22901   7.91171
  16.90082  -0.01041   7.43287
  17.14024   0.22901   7.19345
  17.14024   0.22901   6.95403
  17.14024   0.70785   6.71461
  17.37966   0.70785   6.47519
  17.37966   0.70785   6.23577
  17.37966   0.94727   5.75693
  17.37966   0.94727   5.51751
  17.61908   0.94727   5.51751
  17.61908   0.94727   4.79925
  17.61908   0.94727   4.55983
  17.61908   0.70785   4.08099
  17.61908   0.70785   3.84157
  17.61908   0.46843   3.60215
  17.85850   0.70785   3.36273
  17.61908   0.46843   2.88389
  17.37966   0.22901   2.40505
  17.61908   0.46843   2.40505
  17.61908   0.46843   1.92621
  17.61908   0.22901   1.68679
  17.37966  -0.01041   1.44737
  17.37966   0.22901   1.20795
  17.37966  -0.01041   1.20795
  17.37966  -0.24983   0.96853
  17.14024  -0.24983   0.72911
  17.14024  -0.48925   0.48969
  16.90082  -0.24983   0.25027
  16.90082  -0.48925   0.25027
  16.66140  -0.72867   0.01085
  16.66140  -0.72867   0.01085
  16.42198  -0.96809  -0.22857
  16.42198  -0.96809  -0.22857
  16.18256  -0.96809  -0.46799
  15.94314  -0.96809  -0.70741
  15.94314  -1.20752  -0.70741
  15.46430  -1.20752  -0.70741
  15.22488  -1.20752  -0.94683
  15.22488  -1.20752  -0.94683
  14.74604  -0.96809  -1.18625
  14.74604  -0.96809  -0.94683
  14.50662  -0.96809  -1.18625
  14.26720  -0.96809  -1.18625
  14.02778  -0.96809  -0.94683
  13.54894  -0.96809  -1.18625
  13.30952  -0.72867  -1.18625
  13.07010  -0.96809  -1.18625
  12.83068  -0.72867  -1.42567
  12.59126  -0.96809  -1.18625
  12.11242  -0.96809  -1.42567
  12.11242  -0.72867  -1.42567
  11.63358  -0.72867  -1.90451
  11.15474  -0.96809  -1.90451
  11.15474  -0.96809  -2.14393
  10.67590  -1.20752  -2.14393
   9.71822  -0.96809  -1.90451
   9.71822  -0.72867  -1.90451
   9.95764  -0.72867  -2.38335
   9.23938  -0.24983  -2.62277
   8.76054  -0.24983  -2.62277
   8.52112  -0.48925  -2.62277
   8.04228  -0.48925  -2.62277
   7.80286  -0.48925  -3.10161
   7.32402  -0.24983  -3.10161
   6.84518  -0.48925  -3.10161
   6.36634  -0.01041  -3.58045
   6.12692  -0.01041  -3.81987
   5.64807  -0.01041  -4.05929
   5.40865  -0.01041  -4.29871
   4.69039  -0.01041  -4.29871
   4.21155  -0.01041  -4.53813
   3.97213   0.22901  -4.77755
   3.49329   0.46843  -5.01697
   3.01445   0.22901  -5.25640
   2.53561   0.46843  -5.25640
   1.81735   0.46843  -5.49582
   1.33851   0.46843  -5.97466
   0.85967   0.94727  -5.73524
   0.14141   1.18669  -6.21408
  -0.09801   0.94727  -6.21408
  -0.81627   0.94727  -6.45350
  -1.29511   1.18669  -6.45350
  -2.01337   1.42611  -6.45350
  -2.49221   1.18669  -6.69292
  -3.21047   1.18669  -6.69292
  -3.92873   1.42611  -6.93234
  -4.40757   1.42611  -6.93234
  -4.88641   1.42611  -6.93234
  -5.60467   1.42611  -7.17176
  -6.08351   1.18669  -7.17176
  -6.56235   1.42611  -7.17176
  -7.28061   1.18669  -7.41118
  -7.75945   1.18669  -7.41118
  -8.47771   1.18669  -7.41118
  -8.95656   1.18669  -7.41118
  -9.67482   1.42611  -7.41118
 -10.15366   1.42611  -7.89002
 -10.63250   1.18669  -7.65060
 -10.87192   1.18669  -7.65060
 -11.59018   1.18669  -7.65060
 -11.82960   0.94727  -7.89002
 -12.30844   0.70785  -7.89002
 -12.78728   0.70785  -8.12944
 -13.26612   0.70785  -8.12944
 -13.50554   0.46843  -8.12944
 -14.22380   0.46843  -8.12944
 -14.46322   0.46843  -7.89002
 -14.94206   0.22901  -8.36886
 -15.42090  -0.01041  -8.36886
 -15.66032   0.22901  -8.36886
 -16.13916   0.22901  -8.36886
 -16.61800   0.22901  -8.36886
 -16.85742   0.22901  -8.36886
 -17.33626   0.22901  -8.60828
 -17.57568   0.22901  -8.60828
 -17.81510  -0.01041  -8.84770
 -18.05452  -0.01041  -8.84770
 -18.53336  -0.01041  -8.60828
 -18.77278  -0.01041  -8.84770
 -19.01220  -0.24983  -9.08712
 -19.25162  -0.24983  -8.84770
 -19.25162  -0.24983  -9.08712
 -19.73046  -0.01041  -9.08712
 -19.96988  -0.24983  -9.32654
 -19.96988  -0.24983  -9.08712
 -20.20930  -0.24983  -9.08712
 -20.20930  -0.24983  -9.32654
 -20.44872  -0.48925  -9.32654
 -20.68814  -0.24983  -9.32654
 -20.44872  -0.48925  -9.32654
 -20.68814  -0.48925  -9.32654
 -20.68814  -0.72867  -9.32654
 -20.44872  -0.96809  -9.08712
 -20.68814  -0.96809  -9.08712
 -20.68814  -1.20752  -9.08712
 -20.68814  -1.44694  -9.08712
 -20.68814  -1.20752  -8.84770
 -20.44872  -1.20752  -8.84770
 -20.44872  -1.44694  -8.84770
 -20.20930  -1.68636  -8.36886
 -20.20930  -1.68636  -8.12944
 -20.20930  -1.68636  -7.89002
 -19.96988  -1.68636  -7.65060
 -19.73046  -1.68636  -7.41118
 -19.73046  -1.68636  -6.93234
 -19.49104  -1.68636  -6.45350
 -19.25162  -1.44694  -6.21408
 -19.01220  -1.20752  -5.73524
 -18.77278  -1.20752  -5.25640
 -18.53336  -1.20752  -5.01697
 -18.29394  -0.96809  -4.29871
 -18.05452  -0.96809  -4.05929
 -17.81510  -0.96809  -3.34103
 -17.57568  -0.72867  -3.10161
 -17.33626  -0.72867  -2.62277
 -16.85742  -0.48925  -2.14393
 -16.85742  -0.48925  -1.66509
 -16.61800  -0.24983  -1.18625
 -16.13916  -0.01041  -0.94683
 -15.66032  -0.01041  -0.46799
 -15.66032  -0.01041  -0.22857
 -15.18148   0.22901   0.48969
 -14.94206   0.22901   0.96853
 -14.46322   0.22901   1.20795
 -14.22380   0.22901   1.68679
 -13.98438   0.46843   2.16563
 -13.74496   0.46843   2.40505
 -13.26612   0.46843   2.88389
 -13.02670   0.46843   3.12331
 -12.78728   0.70785   3.36273
 -12.54786   0.70785   3.84157
 -12.30844   0.70785   4.32041
 -11.82960   0.70785   4.55983
 -11.59018   0.70785   4.79925
 -11.11134   0.94727   5.27809
 -10.87192   0.94727   5.51751
 -10.63250   0.94727   5.75693
 -10.15366   0.94727   5.99635
  -9.67482   0.94727   6.23577
  -9.43540   0.94727   6.47519
  -9.19598   1.18669   6.47519
  -8.47771   1.18669   6.71461
  -7.99887   1.18669   6.71461
  -7.52003   1.18669   6.95403
  -7.28061   1.18669   7.19345
  -7.04119   1.42611   7.19345
  -6.56235   1.18669   7.19345
  -5.84409   1.42611   7.43287
  -5.60467   1.42611   7.43287
  -5.12583   1.42611   7.67229
  -4.64699   1.18669   7.67229
  -4.16815   1.18669   7.67229
  -3.68931   1.18669   7.67229
  -3.21047   1.18669   7.91171
  -2.73163   0.94727   7.91171
  -2.01337   1.18669   8.15113
  -1.77395   0.94727   8.15113
  -1.05569   0.94727   8.15113
  -0.57685   0.70785   8.15113
  -0.33743   0.70785   8.39055
   0.38083   0.22901   8.62997
   1.09909   0.22901   8.62997
   1.57793   0.22901   8.62997
   2.05677   0.22901   8.62997
   2.77503  -0.01041   8.62997
   3.25387  -0.24983   8.86939
   3.73271  -0.24983   8.86939
   4.21155  -0.24983   8.86939
   4.69039  -0.48925   8.86939
   5.40865  -0.48925   8.86939
   5.88750  -0.72867   9.10881
   6.60576  -0.72867   8.86939
   7.08460  -0.72867   9.10881
   7.56344  -0.96809   9.10881
   8.04228  -0.96809   9.10881
   8.76054  -0.96809   9.10881
   9.23938  -0.96809   9.10881
   9.71822  -0.96809   9.10881
  10.19706  -0.96809   9.10881
  10.91532  -0.96809   9.10881
  11.39416  -0.96809   9.10881
  12.11242  -0.96809   9.10881
  12.11242  -1.20752   9.10881
  13.07010  -0.96809   9.10881
  13.54894  -1.20752   9.10881
  14.02778  -0.96809   8.86939
  14.50662  -0.72867   9.10881
  14.98546  -0.96809   9.10881
  15.46430  -0.96809   9.10881
  15.70372  -0.48925   8.86939
  16.18256  -0.48925   8.86939
  16.66140  -0.24983   8.86939
  17.14024  -0.72867   8.62997
  17.61908  -0.48925   8.62997
  18.09792  -0.24983   8.86939
  18.57676  -0.24983   8.62997
  18.81618  -0.24983   8.62997
  19.29502  -0.24983   8.62997
  19.77386  -0.24983   8.62997
  20.25270  -0.01041   8.62997
  20.49213  -0.01041   8.62997
  20.73155  -0.01041   8.39055
  21.21039  -0.01041   8.62997
  21.21039  -0.24983   8.39055
  21.44981   0.22901   8.15113
  21.92865   0.22901   8.15113
  21.92865  -0.01041   8.15113
  22.16807  -0.24983   8.15113
  22.40749  -0.01041   8.15113
  22.40749  -0.01041   8.15113
  22.64691  -0.01041   7.91171
  22.64691  -0.01041   7.91171
  22.64691  -0.01041   7.67229
  22.88633  -0.01041   7.67229
  22.88633  -0.01041   7.67229
  22.64691  -0.24983   7.19345
  22.88633  -0.01041   7.19345
  22.64691  -0.01041   7.43287
  22.64691  -0.01041   7.19345
  22.64691  -0.24983   6.95403
  22.64691  -0.01041   6.95403
  22.40749  -0.24983   6.71461
  22.16807  -0.24983   6.47519
  22.16807  -0.24983   6.47519
  21.92865  -0.24983   5.99635
  21.92865  -0.48925   5.99635
  21.44981  -0.24983   5.51751
  21.21039  -0.01041   5.27809
  21.21039  -0.48925   5.27809
  20.73155  -0.48925   5.03867
  20.73155  -0.48925   4.55983
  20.25270  -0.48925   4.32041
  20.01328  -0.48925   4.08099
  19.53444  -0.72867   3.84157
  19.29502  -0.72867   3.36273
  19.05560  -0.72867   3.12331
  18.57676  -0.72867   2.88389
  18.09792  -0.96809   2.40505
  17.85850  -0.96809   2.16563
  17.37966  -0.96809   1.68679
  16.90082  -0.96809   1.20795
  16.66140  -0.96809   0.72911
  16.18256  -0.96809   0.48969
  15.94314  -0.96809   0.01085
  15.22488  -1.20752  -0.22857
  14.74604  -1.20752  -0.70741
  14.50662  -0.96809  -0.70741
  14.02778  -0.96809  -1.18625
  13.54894  -0.96809  -1.90451
  13.07010  -0.72867  -2.14393
  12.59126  -0.72867  -2.38335
  12.11242  -0.48925  -2.62277
  11.63358  -0.72867  -3.10161
  11.39416  -0.72867  -3.34103
  10.67590  -0.48925  -3.58045
  10.43648  -0.72867  -4.05929
   9.95764  -0.24983  -4.29871
   9.47880  -0.48925  -4.77755
   8.99996  -0.24983  -5.25640
   8.76054  -0.24983  -5.25640
   8.28170  -0.24983  -5.73524
   7.56344  -0.24983  -5.97466
   7.08460  -0.01041  -6.21408
   6.84518   0.22901  -6.45350
   6.12692   0.46843  -6.93234
   5.88750  -0.24983  -6.93234
   5.16923  -0.01041  -7.41118
   4.92981   0.22901  -7.65060
   4.21155   0.22901  -7.89002
   3.97213   0.22901  -7.89002
   3.25387   0.22901  -8.12944
   2.77503   0.46843  -8.36886
   2.29619   0.46843  -8.36886
   1.81735   0.46843  -8.60828
   1.33851   0.46843  -9.08712
   0.85967   0.70785  -9.32654
   0.38083   0.46843  -9.32654
  -0.09801   0.70785  -9.56596
  -0.57685   0.46843  -9.56596
  -1.05569   0.46843  -9.56596
  -1.29511   0.46843  -9.80538
  -1.77395   0.22901  -9.80538
  -2.25279   0.22901 -10.04480
  -2.73163   0.22901 -10.04480
  -3.21047   0.22901 -10.28422
  -3.68931  -0.01041 -10.28422
  -3.92873  -0.01041 -10.28422
  -4.40757  -0.24983 -10.28422
  -4.88641  -0.01041 -10.28422
  -5.36525  -0.01041 -10.28422
  -5.84409  -0.01041 -10.52364
  -6.32293  -0.24983 -10.52364
  -6.56235  -0.24983 -10.28422
  -7.04119  -0.48925 -10.28422
  -7.52003  -0.24983 -10.52364
  -7.75945  -0.24983 -10.28422
  -8.23829  -0.24983 -10.04480
  -8.47771  -0.24983 -10.04480
  -8.95656  -0.48925 -10.28422
  -9.43540  -0.24983 -10.04480
  -9.91424   0.22901 -10.28422
 -10.39308  -0.01041 -10.28422
 -10.87192  -0.24983  -9.80538
 -10.87192  -0.24983  -9.80538
 -11.35076   0.22901 -10.04480
 -11.59018  -0.01041  -9.80538
 -12.30844  -0.01041  -9.80538
 -12.54786  -0.01041  -9.80538
 -13.02670  -0.01041  -9.56596
 -13.26612  -0.01041  -9.32654
 -13.74496  -0.01041  -9.32654
 -13.98438  -0.01041  -9.08712
 -14.22380  -0.01041  -9.08712
 -14.70264  -0.01041  -9.08712
 -14.94206  -0.24983  -8.84770
 -15.42090  -0.01041  -8.60828
 -15.66032  -0.01041  -8.36886
 -15.89974  -0.01041  -8.36886
 -16.37858  -0.01041  -8.12944
 -16.61800  -0.01041  -7.89002
 -16.85742  -0.01041  -7.65060
 -17.33626  -0.24983  -7.65060
 -17.57568  -0.01041  -7.17176
 -17.81510  -0.01041  -7.17176
 -18.05452  -0.01041  -7.17176
 -18.53336  -0.01041  -6.69292
 -18.53336  -0.01041  -6.69292
 -19.01220  -0.01041  -6.45350
 -19.25162  -0.01041  -6.21408
 -19.25162  -0.01041  -5.97466
 -19.73046  -0.24983  -5.97466
 -19.96988  -0.24983  -5.73524
 -19.96988  -0.01041  -5.49582
 -20.20930  -0.01041  -5.49582
 -20.44872  -0.24983  -5.25640
 -20.68814  -0.01041  -5.25640
 -20.68814  -0.01041  -5.01697
 -20.68814   0.22901  -5.01697
 -20.92756  -0.01041  -4.77755
 -20.92756  -0.01041  -4.53813
 -20.92756   0.22901  -4.53813
 -20.92756   0.22901  -4.29871
 -21.16698  -0.01041  -4.05929
 -21.16698  -0.01041  -4.05929
 -21.16698   0.46843  -3.81987
 -21.16698   0.22901  -3.58045
 -21.16698   0.22901  -3.58045
 -20.92756   0.22901  -3.34103
 -20.92756   0.22901  -3.10161
 -20.92756   0.46843  -2.86219
 -20.92756  -0.01041  -2.86219
 -20.68814   0.46843  -2.62277
 -20.44872   0.22901  -2.38335
 -20.20930   0.46843  -2.14393
 -20.20930   0.22901  -1.90451
 -19.96988   0.46843  -1.90451
 -19.73046   0.46843  -1.66509
 -19.49104   0.70785  -1.42567
 -19.25162   0.46843  -1.18625
 -18.53336   0.46843  -0.70741
 -18.29394   0.46843  -0.70741
 -17.81510   0.70785  -0.46799
