********************************************************************************
               CENTRO DE INSTRUMENTACION Y REGISTRO SISMICO  A.C.  
                       Coordinacion de Servicios Tecnicos
     Anaxagoras 814, Col. Narvarte, Benito Juarez, C.P. 03020 Mexico, D.F.
            Tels. 667 45 42/ 687 45  82             Fax. 669 25 12
********************************************************************************
ARCHIVO ESTANDAR DE ACELERACION:
VERSION DEL FORMATO                    : 2.0
NOMBRE DEL ARCHIVO                     : BA490401.131
FECHA Y HORA DE CREACION               : 27/OCT/04, 10:44
REF. CATALOGO ACELEROGRAMAS, SMIS 1996 : REGISTRO No.     /PAG.


================================================================================
DATOS DE LA ESTACION:
NOMBRE DE LA ESTACION                  : BUENOS AIRES
CLAVE DE LA ESTACION                   : BA49
LOCALIZACION DE LA ESTACION            : ESCUELA SECUNDARIA 102, DOCTOR MARQUEZ
                                       : Y EJE CENTRAL, BUENOS AIRES.
                                       :
                                       :
                                       :
COORDENADAS DE LA ESTACION             : 19.410 LAT. N 
                                       : 99.145 LONG. W 
ALTITUD (msnm)                         : 2233
TIPO DE SUELO                          : TERRENO BLANDO, MATERIAL COMPRESIBLE
                                       : (ARCILLAS)
                                       : 
INSTITUCION RESPONSABLE                : CIRES 
                                       :

================================================================================
DATOS DEL ACELEROGRAFO:
MODELO DEL ACELEROGRAFO                : SSA-1
NUMERO DE SERIE DEL ACELEROGRAFO       : 176
NUMERO DE CANALES                      : 3
ORIENTACION C1-C6 (rumbo;orientacion)  : /N00E/+V/N90E
ORIENTACION C7-C12 (rumbo;orientacion) :
VEL. DE MUESTREO, C1-C6 (muestras/s)   : /200/200/200
VEL. DE MUESTREO, C7-C12 (muestras/s)  :
ESC. COMPLETA DE SENSORES, C1-C6, (g)  : /2/2/2
ESC. COMPLETA DE SENSORES, C7-C12, (g) :
FREC. NAT. DE SENSORES, C1-C6, (Hz)    : /52.99/52.03/52.99
FREC. NAT. DE SENSORES, C7-C12, (Hz)   :
AMORTIGUAMIENTO DE SENSORES, C1-C6     : /.5589/.5469/.6096
AMORTIGUAMIENTO DE SENSORES, C7-C12    :
INTERVALO DE MUESTREO, C1-C6, (s)      : /0.005/0.005/0.005
INTERVALO DE MUESTREO, C7-C12, (s)     :
UMBRAL DE DISPARO, C1-C6, (Gal)        : /2/2/2
UMBRAL DE DISPARO, C7-C12, (Gal)       :
MEMORIA DE PREEVENTO (s)               : 15
TIEMPO DE POSEVENTO (s)                : 60


================================================================================
DATOS DEL SISMO:
FECHA DEL SISMO (GMT)                  : 13/ENE/04
HORA EPICENTRO (GMT)                   : 21:28:56,0
MAGNITUD(ES)                           : /Mc=5.5
COORDENADAS DEL EPICENTRO              : 15.90 LAT. N
                                       : -97.03 LONG. W
PROFUNDIDAD FOCAL (km)                 : 16
FUENTE DE LOS DATOS EPICENTRALES       : SSN
                                       : INSTITUTO DE GEOFISICA, UNAM 

================================================================================
DATOS DE ESTE REGISTRO:
HORA DE LA PRIMERA MUESTRA (GMT)       : 21:30:58.00
EXACTITUD DEL TIEMPO (s)               :     
DURACION DEL REGISTRO (s), C1-C6       : /117.76/117.76/117.76
DURACION DEL REGISTRO (s), C7-C12      :
NUM. TOTAL DE MUESTRAS, C1-C6          : /23552/23552/23552
NUM. TOTAL DE MUESTRAS, C7-C12         :
ACEL. MAX. (Gal), C1-C6                : /-1.97902/1.22081/2.37681
ACEL. MAX., C1-C6, EN LA MUESTRA       :
ACEL. MAX. (Gal), C7-C12               :
ACEL. MAX., C7-C12, EN LA MUESTRA      :
UNIDADES DE LOS DATOS                  : Gal (cm/s/s)
FACTOR DE DECIMACION                   : 1
FORMATO DATOS (FORTRAN,10 campos/dato) : 3F10.5


================================================================================
CALIDAD DEL ACELEROGRAMA:
REGISTRO DIGITAL COMPLETO, CARECE DE TIEMPO ABSOLUTO.


================================================================================
COMENTARIOS:














================================================================================
DATOS DE ACELERACION:
---------+---------+---------+---------+---------+---------+---------+---------+
   CANAL-1   CANAL-2   CANAL-3   CANAL-4   CANAL-5   CANAL-6   CANAL-7   CANAL-8
      N00E        +V      N90E
---------+---------+---------+---------+---------+---------+---------+---------+
[...]
   1.14098   0.26081   0.94681
   1.14098   0.26081   0.70681
   1.14098   0.26081   0.94681
   1.14098   0.26081   0.70681
   1.14098   0.02081   0.70681
   1.38098   0.02081   0.70681
   1.14098   0.26081   0.70681
   1.14098   0.02081   0.70681
   1.38098   0.26081   0.70681
   1.38098   0.26081   0.70681
   1.38098   0.02081   0.70681
   1.38098   0.26081   0.70681
   1.38098   0.26081   0.70681
   1.38098   0.26081   0.70681
   1.38098   0.26081   0.70681
   1.38098   0.26081   0.46681
   1.14098   0.26081   0.46681
   1.14098   0.26081   0.46681
   1.14098   0.26081   0.22681
   1.14098   0.26081   0.22681
   1.38098   0.26081   0.46681
   1.14098   0.26081   0.46681
   1.14098   0.26081   0.22681
   1.14098   0.26081   0.46681
   1.14098   0.26081   0.46681
   1.14098   0.26081   0.22681
   1.14098   0.26081  -0.01319
   1.14098   0.26081   0.22681
   1.14098   0.26081   0.22681
   1.14098   0.26081  -0.01319
   1.14098   0.26081   0.22681
   1.14098   0.26081   0.22681
   1.14098   0.26081   0.22681
   1.14098   0.26081   0.22681
   1.14098   0.26081   0.22681
   1.14098   0.26081  -0.01319
   1.14098   0.26081  -0.01319
   1.14098   0.26081  -0.01319
   1.14098   0.26081  -0.01319
   1.14098   0.26081  -0.01319
   1.14098   0.26081  -0.01319
   0.90098   0.26081  -0.01319
   1.14098   0.26081  -0.25319
   1.14098   0.26081  -0.25319
   0.90098   0.26081  -0.25319
   0.90098   0.02081  -0.25319
   0.90098   0.02081  -0.25319
   0.90098   0.26081  -0.25319
   0.90098   0.02081  -0.25319
   0.90098   0.02081  -0.25319
   0.90098   0.02081  -0.49319
   0.90098   0.02081  -0.25319
   0.90098   0.02081  -0.49319
   0.66098   0.02081  -0.49319
   0.66098   0.02081  -0.49319
   0.66098   0.02081  -0.49319
   0.66098   0.02081  -0.49319
   0.66098   0.02081  -0.49319
   0.66098   0.02081  -0.49319
   0.66098   0.02081  -0.49319
   0.66098   0.02081  -0.49319
   0.66098  -0.21919  -0.49319
   0.66098   0.02081  -0.73319
   0.42098   0.02081  -0.49319
   0.18098   0.02081  -0.49319
   0.42098   0.02081  -0.49319
   0.18098   0.02081  -0.73319
   0.18098   0.02081  -0.49319
   0.18098   0.02081  -0.73319
   0.18098   0.02081  -0.49319
   0.18098   0.02081  -0.73319
   0.18098   0.02081  -0.73319
   0.18098   0.02081  -0.73319
   0.18098   0.02081  -0.73319
   0.18098   0.02081  -0.73319
   0.18098   0.02081  -0.73319
   0.18098   0.02081  -0.73319
   0.18098  -0.21919  -0.73319
  -0.05902   0.02081  -0.73319
  -0.05902   0.02081  -0.73319
  -0.05902   0.02081  -0.73319
  -0.29902   0.02081  -0.73319
  -0.29902   0.02081  -0.73319
  -0.29902   0.02081  -0.73319
  -0.53902   0.02081  -0.73319
  -0.53902   0.26081  -0.73319
  -0.53902   0.02081  -0.73319
  -0.53902   0.02081  -0.73319
  -0.53902   0.02081  -0.73319
  -0.53902   0.02081  -0.73319
  -0.53902   0.02081  -0.73319
  -0.53902   0.02081  -0.73319
  -0.77902   0.02081  -0.73319
  -0.77902  -0.21919  -0.73319
  -0.77902  -0.21919  -0.73319
  -0.77902  -0.21919  -0.73319
  -0.77902  -0.21919  -0.73319
  -1.01902  -0.21919  -0.73319
  -1.01902   0.02081  -0.73319
  -1.01902   0.02081  -0.73319
  -1.01902  -0.21919  -0.73319
  -1.01902  -0.21919  -0.73319
  -1.01902  -0.21919  -0.73319
  -1.01902  -0.21919  -0.73319
  -1.01902  -0.21919  -0.73319
  -1.01902  -0.21919  -0.73319
  -1.01902  -0.21919  -0.73319
  -1.25902  -0.21919  -0.73319
  -1.01902  -0.21919  -0.73319
  -1.25902  -0.21919  -0.73319
  -1.25902  -0.21919  -0.97319
  -1.25902  -0.21919  -0.97319
  -1.25902  -0.21919  -0.97319
  -1.25902  -0.21919  -0.97319
  -1.25902  -0.21919  -0.97319
  -1.25902  -0.21919  -0.97319
  -1.25902  -0.45919  -0.97319
  -1.25902  -0.45919  -0.97319
  -1.25902  -0.45919  -0.97319
  -1.25902  -0.45919  -0.97319
  -1.25902  -0.45919  -0.97319
  -1.25902  -0.21919  -0.97319
  -1.25902  -0.45919  -0.97319
  -1.25902  -0.21919  -0.97319
  -1.25902  -0.21919  -1.21319
  -1.01902  -0.21919  -1.21319
  -1.01902  -0.45919  -1.21319
  -1.25902  -0.21919  -1.21319
  -1.01902  -0.21919  -1.21319
  -1.01902  -0.21919  -1.21319
  -1.01902  -0.21919  -1.21319
  -1.01902  -0.21919  -1.21319
  -1.01902  -0.21919  -1.21319
  -1.01902  -0.21919  -1.21319
  -1.01902  -0.45919  -1.45319
  -1.01902  -0.21919  -1.21319
  -1.01902  -0.21919  -1.21319
  -1.01902  -0.21919  -1.21319
  -0.77902  -0.21919  -1.45319
  -0.77902  -0.21919  -1.45319
  -1.01902  -0.21919  -1.45319
  -0.77902  -0.21919  -1.45319
  -0.77902  -0.21919  -1.45319
  -0.77902  -0.21919  -1.45319
  -0.77902  -0.21919  -1.45319
  -0.53902  -0.21919  -1.45319
  -0.53902  -0.21919  -1.45319
  -0.53902  -0.21919  -1.45319
  -0.53902  -0.21919  -1.45319
  -0.53902  -0.21919  -1.45319
  -0.53902  -0.21919  -1.45319
  -0.53902  -0.21919  -1.45319
  -0.29902  -0.21919  -1.45319
  -0.29902  -0.21919  -1.45319
  -0.29902  -0.21919  -1.45319
  -0.29902  -0.21919  -1.45319
  -0.29902  -0.21919  -1.45319
  -0.29902  -0.21919  -1.45319
  -0.05902  -0.21919  -1.45319
  -0.05902  -0.21919  -1.45319
  -0.05902  -0.21919  -1.45319
   0.18098  -0.21919  -1.45319
   0.18098  -0.21919  -1.45319
   0.18098  -0.21919  -1.45319
   0.18098  -0.21919  -1.45319
   0.18098  -0.21919  -1.45319
  -0.05902  -0.21919  -1.45319
   0.18098  -0.21919  -1.45319
   0.18098  -0.21919  -1.45319
   0.18098  -0.21919  -1.45319
   0.18098  -0.21919  -1.21319
   0.18098   0.02081  -1.45319
   0.18098  -0.21919  -1.45319
   0.42098   0.02081  -1.45319
   0.42098  -0.21919  -1.45319
   0.42098   0.02081  -1.21319
   0.66098  -0.21919  -1.45319
   0.42098  -0.21919  -1.21319
   0.66098  -0.21919  -1.21319
   0.66098  -0.21919  -1.21319
   0.66098  -0.21919  -1.21319
   0.66098   0.02081  -1.21319
   0.66098  -0.21919  -1.21319
   0.66098   0.02081  -1.21319
   0.66098   0.02081  -1.21319
   0.66098   0.02081  -1.21319
   0.66098   0.02081  -1.21319
   0.90098   0.02081  -1.21319
   0.90098  -0.21919  -0.97319
   0.90098  -0.21919  -0.97319
   0.90098  -0.21919  -0.97319
   0.90098  -0.21919  -0.97319
   0.90098  -0.21919  -0.97319
   0.90098  -0.21919  -0.97319
   0.90098  -0.21919  -0.97319
   0.90098  -0.21919  -0.97319
   0.90098   0.02081  -0.97319
   0.90098   0.02081  -0.73319
   0.90098   0.02081  -0.73319
   0.90098   0.02081  -0.73319
   0.90098   0.02081  -0.73319
   0.90098   0.02081  -0.73319
   0.90098   0.02081  -0.73319
   0.90098   0.02081  -0.73319
   0.90098   0.02081  -0.73319
   0.90098   0.02081  -0.73319
   0.90098   0.02081  -0.49319
   0.90098   0.02081  -0.49319
   0.90098   0.02081  -0.49319
   0.90098   0.02081  -0.49319
   0.90098   0.02081  -0.49319
   1.14098   0.02081  -0.49319
   1.14098   0.02081  -0.49319
   1.14098   0.02081  -0.49319
   1.14098   0.02081  -0.49319
   1.14098   0.02081  -0.49319
   1.14098   0.26081  -0.49319
   1.14098   0.26081  -0.49319
   1.14098   0.26081  -0.49319
   0.90098   0.02081  -0.49319
   0.90098   0.02081  -0.49319
   0.90098   0.02081  -0.49319
   0.90098   0.02081  -0.49319
   0.90098   0.02081  -0.49319
   0.90098   0.02081  -0.49319
   0.90098   0.02081  -0.49319
   0.90098   0.02081  -0.25319
   0.90098   0.26081  -0.25319
   0.90098   0.02081  -0.25319
   0.90098   0.26081  -0.25319
   0.90098   0.26081  -0.25319
   0.90098   0.26081  -0.49319
   0.90098   0.02081  -0.25319
   0.90098   0.26081  -0.25319
   0.90098   0.26081  -0.25319
   0.90098   0.26081  -0.25319
   0.90098   0.26081  -0.25319
   0.90098   0.26081  -0.25319
   0.90098   0.26081  -0.25319
   0.90098   0.26081  -0.25319
   0.66098   0.26081  -0.25319
   0.66098   0.02081  -0.25319
   0.66098   0.26081  -0.25319
   0.66098   0.26081  -0.25319
   0.66098   0.02081  -0.25319
   0.66098   0.26081  -0.25319
   0.66098   0.02081  -0.25319
   0.66098   0.02081  -0.25319
   0.66098   0.02081  -0.25319
   0.66098   0.02081  -0.25319
   0.42098   0.02081  -0.25319
   0.42098   0.02081  -0.25319
   0.42098   0.02081  -0.25319
   0.42098   0.26081  -0.25319
   0.42098   0.26081  -0.25319
   0.42098   0.02081  -0.25319
   0.42098   0.02081  -0.25319
   0.42098   0.02081  -0.25319
   0.42098   0.02081  -0.25319
   0.42098   0.02081  -0.25319
   0.42098   0.02081  -0.25319
   0.42098   0.02081  -0.25319
   0.42098   0.02081  -0.25319
   0.18098   0.02081  -0.25319
   0.18098   0.02081  -0.25319
   0.18098   0.02081  -0.25319
   0.18098   0.02081  -0.01319
   0.18098   0.02081  -0.25319
  -0.05902   0.02081  -0.25319
  -0.05902   0.02081  -0.25319
  -0.05902   0.02081  -0.25319
  -0.05902   0.26081  -0.25319
  -0.05902   0.26081  -0.25319
  -0.05902   0.26081  -0.25319
  -0.05902   0.26081  -0.01319
  -0.05902   0.26081  -0.25319
  -0.29902   0.26081  -0.25319
  -0.29902   0.26081  -0.25319
  -0.29902   0.26081  -0.25319
  -0.29902   0.26081  -0.25319
  -0.29902   0.26081  -0.01319
  -0.29902   0.26081  -0.01319
  -0.29902   0.26081  -0.01319
  -0.53902   0.26081  -0.01319
  -0.29902   0.26081  -0.01319
  -0.53902   0.26081  -0.01319
  -0.53902   0.26081  -0.01319
  -0.53902   0.26081  -0.01319
  -0.53902   0.26081  -0.01319
  -0.53902   0.26081  -0.01319
  -0.53902   0.26081  -0.01319
  -0.53902   0.26081  -0.01319
  -0.77902   0.26081   0.22681
  -0.77902   0.26081  -0.01319
  -0.77902   0.26081   0.22681
  -0.77902   0.26081   0.22681
  -0.77902   0.26081   0.22681
  -0.77902   0.26081   0.22681
  -0.77902   0.26081   0.22681
  -0.77902   0.26081   0.22681
  -0.77902   0.26081   0.46681
  -0.77902   0.26081   0.46681
  -1.01902   0.26081   0.46681
  -1.01902   0.26081   0.46681
  -1.01902   0.26081   0.46681
  -1.01902   0.26081   0.46681
  -1.01902   0.26081   0.46681
  -1.01902   0.26081   0.70681
  -1.01902   0.26081   0.70681
  -1.01902   0.26081   0.70681
  -1.25902   0.26081   0.70681
  -1.25902   0.26081   0.70681
  -1.25902   0.26081   0.70681
  -1.01902   0.26081   0.70681
  -1.25902   0.26081   0.94681
  -1.01902   0.26081   0.94681
  -1.25902   0.26081   0.70681
  -1.25902   0.26081   0.94681
  -1.25902   0.02081   0.94681
  -1.25902   0.02081   1.18681
  -1.25902   0.02081   1.18681
  -1.25902   0.02081   1.18681
  -1.25902   0.02081   1.18681
  -1.25902   0.02081   1.18681
  -1.25902   0.02081   1.18681
  -1.25902   0.02081   1.18681
  -1.25902   0.02081   1.41681
  -1.25902   0.02081   1.41681
  -1.25902   0.02081   1.41681
  -1.25902   0.02081   1.41681
  -1.25902   0.02081   1.65681
  -1.25902   0.02081   1.65681
  -1.25902   0.02081   1.65681
  -1.25902   0.02081   1.65681
  -1.25902   0.02081   1.65681
  -1.25902   0.02081   1.65681
  -1.25902   0.02081   1.89681
  -1.25902   0.02081   1.89681
  -1.25902   0.02081   1.89681
  -1.01902   0.02081   1.89681
  -1.01902   0.02081   1.89681
  -1.01902   0.02081   1.89681
  -1.01902   0.02081   2.13681
  -1.01902   0.02081   1.89681
  -1.01902   0.02081   2.13681
  -0.77902   0.02081   2.13681
  -0.77902   0.02081   2.13681
  -0.77902   0.02081   2.13681
  -1.01902   0.02081   2.37681
  -0.77902   0.02081   2.13681
  -0.77902   0.02081   2.37681
  -0.77902   0.02081   2.13681
  -0.77902  -0.21919   2.13681
  -0.53902  -0.21919   2.13681
  -0.77902  -0.21919   2.13681
  -0.77902  -0.21919   2.13681
  -0.53902  -0.21919   2.37681
  -0.53902  -0.21919   2.37681
  -0.53902  -0.21919   2.37681
  -0.53902  -0.21919   2.13681
  -0.29902  -0.21919   2.13681
  -0.29902  -0.21919   2.37681
  -0.29902  -0.21919   2.37681
  -0.29902  -0.21919   2.13681
  -0.29902  -0.21919   2.13681
  -0.29902  -0.21919   2.13681
  -0.29902  -0.21919   2.13681
  -0.29902  -0.21919   2.13681
  -0.29902  -0.21919   2.13681
  -0.29902  -0.21919   2.13681
  -0.29902  -0.21919   2.13681
  -0.05902  -0.21919   2.13681
  -0.05902  -0.21919   2.13681
  -0.05902  -0.21919   2.13681
  -0.05902  -0.21919   2.13681
  -0.05902  -0.21919   2.13681
  -0.05902  -0.21919   2.13681
  -0.05902  -0.21919   1.89681
  -0.29902  -0.21919   1.89681
  -0.05902   0.02081   1.89681
  -0.05902   0.02081   1.89681
  -0.05902   0.02081   1.65681
  -0.05902   0.02081   1.65681
  -0.05902   0.02081   1.65681
  -0.05902   0.02081   1.65681
  -0.05902   0.02081   1.41681
   0.18098   0.02081   1.65681
   0.18098   0.02081   1.41681
   0.18098   0.02081   1.41681
   0.18098   0.02081   1.41681
   0.18098   0.02081   1.41681
   0.18098   0.02081   1.18681
   0.18098   0.02081   1.18681
   0.42098   0.02081   0.94681
   0.42098   0.02081   1.18681
   0.42098   0.02081   1.18681
   0.42098   0.02081   0.94681
   0.42098   0.02081   0.94681
   0.42098   0.26081   0.94681
   0.66098   0.26081   0.94681
   0.66098   0.26081   0.70681
   0.66098   0.26081   0.70681
   0.42098   0.26081   0.70681
   0.66098   0.26081   0.70681
   0.66098   0.26081   0.70681
   0.66098   0.02081   0.46681
   0.66098   0.26081   0.46681
   0.66098   0.26081   0.46681
   0.66098   0.02081   0.46681
   0.66098   0.02081   0.22681
   0.66098   0.02081   0.22681
   0.66098   0.02081   0.22681
   0.90098   0.02081   0.22681
   0.90098   0.02081   0.22681
   0.90098   0.02081   0.22681
   0.90098   0.02081   0.22681
   0.90098   0.02081  -0.01319
   0.90098   0.02081  -0.01319
   0.90098   0.02081  -0.01319
   0.90098   0.02081  -0.01319
   0.66098   0.02081  -0.01319
   0.90098   0.02081  -0.01319
   0.66098   0.02081  -0.01319
   0.90098   0.02081  -0.01319
   0.90098  -0.21919  -0.25319
   0.90098   0.02081  -0.25319
   0.90098   0.02081  -0.01319
   0.90098   0.02081  -0.25319
   0.90098   0.02081  -0.25319
   0.90098   0.02081  -0.25319
   0.90098   0.02081  -0.25319
   0.90098   0.02081  -0.25319
   0.90098   0.02081  -0.25319
   0.90098   0.02081  -0.25319
   0.90098   0.02081  -0.25319
   0.90098   0.02081  -0.25319
   0.66098   0.02081  -0.25319
   0.90098   0.02081  -0.25319
   0.90098   0.26081  -0.25319
   0.66098   0.02081  -0.25319
   0.90098   0.26081  -0.25319
   0.66098   0.26081  -0.25319
   0.66098   0.26081  -0.25319
   0.66098   0.26081  -0.25319
   0.66098   0.26081  -0.25319
   0.66098   0.26081  -0.25319
   0.66098   0.02081  -0.25319
   0.66098   0.26081  -0.25319
   0.66098   0.26081  -0.25319
   0.66098   0.26081  -0.25319
   0.66098   0.26081  -0.25319
   0.66098   0.26081  -0.25319
   0.66098   0.26081  -0.25319
   0.66098   0.26081  -0.25319
   0.66098   0.26081  -0.25319
   0.66098   0.02081  -0.25319
   0.66098   0.26081  -0.25319
   0.66098   0.26081  -0.25319
   0.42098   0.02081  -0.25319
   0.42098   0.02081  -0.25319
   0.42098   0.02081  -0.25319
   0.42098   0.02081  -0.25319
   0.42098   0.02081  -0.25319
   0.66098   0.02081  -0.01319
   0.42098   0.02081  -0.25319
   0.42098   0.02081  -0.25319
   0.42098   0.02081  -0.25319
   0.42098   0.02081  -0.25319
   0.42098   0.02081  -0.25319
   0.42098   0.02081  -0.25319
   0.42098   0.02081  -0.25319
   0.18098   0.02081  -0.25319
   0.42098   0.02081  -0.25319
   0.42098   0.02081  -0.25319
   0.42098   0.02081  -0.25319
   0.18098   0.02081  -0.25319
   0.18098   0.02081  -0.25319
   0.18098   0.02081  -0.25319
   0.18098   0.02081  -0.25319
   0.18098   0.02081  -0.25319
   0.18098   0.02081  -0.25319
   0.18098   0.02081  -0.25319
   0.18098   0.02081  -0.25319
   0.18098   0.02081  -0.25319
   0.18098   0.02081  -0.25319
  -0.05902   0.02081  -0.25319
   0.18098   0.02081  -0.25319
  -0.05902   0.02081  -0.25319
  -0.05902   0.02081  -0.25319
  -0.05902   0.02081  -0.25319
  -0.05902   0.02081  -0.25319
  -0.05902   0.02081  -0.25319
  -0.05902   0.02081  -0.25319
  -0.05902   0.02081  -0.25319
  -0.05902   0.02081  -0.25319
  -0.05902   0.02081  -0.25319
  -0.05902   0.02081  -0.25319
  -0.29902   0.02081  -0.25319
  -0.29902   0.02081  -0.25319
