********************************************************************************
              CENTRO DE INSTRUMENTACION Y REGISTRO SISMICO  A.C.

    Anaxagoras 814, Col. Narvarte, Benito Juarez, C.P. 03020 Mexico, D.F.
           Tels. 5687 45 42/ 5687 45  82             Fax. 5669 25 12
********************************************************************************
ARCHIVO ESTANDAR DE ACELERACION:
VERSION DEL FORMATO                    : 2.0
NOMBRE DEL ARCHIVO                     : BA4920090427164627
FECHA Y HORA DE CREACION               : 25/JUN/09, 01:11
REF. CATALOGO ACELEROGRAMAS, SMIS 1996 : REGISTRO No.     /PAG.


================================================================================
DATOS DE LA ESTACION:
NOMBRE DE LA ESTACION                  : BUENOS AIRES
CLAVE DE LA ESTACION                   : BA49
LOCALIZACION DE LA ESTACION            : Del. Cuauhtémoc, Col. Doctores,        
                                       : Av. Lázaro Cárdenas esq. con           
                                       : Calle Dr. Márquez.                     
                                       :                                        
                                       : 
COORDENADAS DE LA ESTACION             : 19.4097 LAT. N
                                       : 99.1450 LONG. W
ALTITUD (msnm)                         : 2233
TIPO DE SUELO                          : Terreno blando, material compresible
                                       : (arcillas)                
                                       : 
INSTITUCION RESPONSABLE                : CIRES
                                       : 

================================================================================
DATOS DEL ACELEROGRAFO:
MODELO DEL ACELEROGRAFO                : RADESD
NUMERO DE SERIE DEL ACELEROGRAFO       : 176
NUMERO DE CANALES                      : 3
ORIENTACION C1-C6 (rumbo;orientacion)  : /N00E/+V/N90W
ORIENTACION C7-C12 (rumbo;orientacion) : 
VEL. DE MUESTREO, C1-C6 (muestras/s)   : /100/100/100
VEL. DE MUESTREO, C7-C12 (muestras/s)  : 
ESC. COMPLETA DE SENSORES, C1-C6, (g)  : /0.5/0.5/0.5
ESC. COMPLETA DE SENSORES, C7-C12, (g) : 
FREC. NAT. DE SENSORES, C1-C6, (Hz)    : /52.99/52.03/52.99
FREC. NAT. DE SENSORES, C7-C12, (Hz)   : 
AMORTIGUAMIENTO DE SENSORES, C1-C6     : /0.5589/0.5469/0.6096
AMORTIGUAMIENTO DE SENSORES, C7-C12    : 
INTERVALO DE MUESTREO, C1-C6, (s)      : /0.01/0.01/0.01
INTERVALO DE MUESTREO, C7-C12, (s)     : 
UMBRAL DE DISPARO, C1-C6, (Gal)        : /0.96/1.92/0.96
UMBRAL DE DISPARO, C7-C12, (Gal)       : 
MEMORIA DE PREEVENTO (s)               : 56.0
TIEMPO DE POSEVENTO (s)                : 64.0


================================================================================
DATOS DEL SISMO:
FECHA DEL SISMO (GMT)                  : 27/ABR/09
HORA EPICENTRO (GMT)                   : 16:46:27.0
MAGNITUD(ES)                           : /Mc=5.7
COORDENADAS DEL EPICENTRO              : 16.90 LAT. N
                                       : 99.58 LONG. W
PROFUNDIDAD FOCAL (km)                 : 7
FUENTE DE LOS DATOS EPICENTRALES       : SSN
                                       : INSTITUTO DE GEOFISICA, UNAM

================================================================================
DATOS DE ESTE REGISTRO:
HORA DE LA PRIMERA MUESTRA (GMT)       : 16:47:33.00
EXACTITUD DEL TIEMPO (s)               : 0.01
DURACION DEL REGISTRO (s), C1-C6       : /231.5/231.5/231.5
DURACION DEL REGISTRO (s), C7-C12      : 
NUM. TOTAL DE MUESTRAS, C1-C6          : /23150/23150/23150
NUM. TOTAL DE MUESTRAS, C7-C12         : 
ACEL. MAX. (Gal), C1-C6                : /7.93007/3.62846/8.60658
ACEL. MAX., C1-C6, EN LA MUESTRA       : /8803/8718/8982
ACEL. MAX. (Gal), C7-C12               : 
ACEL. MAX., C7-C12, EN LA MUESTRA      : 
UNIDADES DE LOS DATOS                  : Gal (cm/s/s)
FACTOR DE DECIMACION                   : 1
FORMATO DATOS (FORTRAN,10 campos/dato) : 3F10.5


================================================================================
CALIDAD DEL ACELEROGRAMA:
REGISTRO DIGITAL COMPLETO CON TIEMPO ABSOLUTO CORRECTO.


================================================================================
COMENTARIOS:














================================================================================
DATOS DE ACELERACION:
---------+---------+---------+---------+---------+---------+---------+---------+
   CANAL-1   CANAL-2   CANAL-3   CANAL-4   CANAL-5   CANAL-6   CANAL-7   CANAL-8
      N00E        +V      N90W
---------+---------+---------+---------+---------+---------+---------+---------+
[...]
  -0.74747  -0.75542   4.32211
  -0.26863  -0.75542   4.56153
  -0.26863  -0.51600   4.56153
  -0.02921  -0.27658   4.80095
   0.21021  -0.27658   4.80095
   0.21021  -0.27658   4.80095
   0.44963  -0.03716   4.80095
   0.68905  -0.03716   5.04037
   0.92847   0.20226   4.80095
   0.92847   0.20226   5.04037
   1.16789   0.20226   5.04037
   1.40731   0.44168   4.80095
   1.64674   0.44168   4.56153
   1.88616   0.20226   4.80095
   2.12558   0.44168   4.80095
   2.36500   0.44168   4.80095
   2.60442   0.68110   4.80095
   2.84384   0.68110   4.80095
   2.84384   0.44168   4.56153
   3.32268   0.44168   4.80095
   3.56210   0.44168   4.56153
   3.56210   0.20226   4.56153
   3.80152   0.44168   4.56153
   3.80152   0.44168   4.56153
   4.04094   0.44168   4.80095
   4.04094   0.44168   4.80095
   4.04094   0.68110   4.80095
   4.28036   0.68110   4.80095
   4.28036   0.68110   4.80095
   4.28036   0.68110   4.80095
   4.51978   0.68110   4.80095
   4.28036   0.92052   5.04037
   4.51978   0.68110   5.04037
   4.51978   0.68110   5.04037
   4.51978   0.68110   5.04037
   4.51978   0.68110   4.80095
   4.28036   0.68110   5.04037
   4.28036   0.92052   4.80095
   4.28036   0.68110   4.80095
   4.28036   0.92052   4.80095
   4.28036   0.92052   4.56153
   4.28036   0.92052   4.80095
   4.28036   0.92052   4.32211
   4.04094   1.15994   4.32211
   4.04094   1.15994   4.08269
   4.04094   1.15994   4.08269
   3.80152   1.15994   3.84327
   3.56210   0.92052   3.84327
   3.56210   1.15994   3.84327
   3.32268   0.92052   3.36443
   3.32268   0.92052   3.36443
   2.84384   0.92052   3.12501
   2.60442   0.92052   2.88559
   2.36500   0.68110   2.64617
   1.88616   0.68110   2.40675
   1.64674   0.68110   2.16733
   1.40731   0.68110   1.92791
   0.92847   0.44168   1.68849
   0.68905   0.44168   1.68849
   0.21021   0.44168   1.44907
  -0.26863   0.20226   1.44907
  -0.50805   0.20226   1.20965
  -0.98689  -0.03716   1.20965
  -1.22631  -0.03716   0.97023
  -1.70515  -0.27658   0.97023
  -1.94457  -0.27658   0.73081
  -2.18399  -0.51600   0.73081
  -2.42341  -0.51600   0.49139
  -2.66283  -0.75542   0.49139
  -2.90225  -0.99484   0.49139
  -2.90225  -1.23426   0.25197
  -2.90225  -1.47368   0.25197
  -3.14167  -1.71310   0.25197
  -3.14167  -1.95252   0.25197
  -3.14167  -2.19194   0.01254
  -2.90225  -2.43136   0.01254
  -3.14167  -2.67078   0.01254
  -2.90225  -2.91020   0.01254
  -2.66283  -3.14962   0.01254
  -2.42341  -3.14962  -0.22688
  -2.18399  -3.38904  -0.22688
  -1.94457  -3.38904  -0.22688
  -1.70515  -3.62846   0.01254
  -1.22631  -3.62846   0.01254
  -0.98689  -3.38904   0.01254
  -0.50805  -3.62846  -0.22688
  -0.26863  -3.62846   0.01254
  -0.02921  -3.62846   0.25197
   0.44963  -3.62846   0.25197
   0.92847  -3.38904   0.25197
   1.16789  -3.14962   0.25197
   1.40731  -2.91020   0.49139
   1.88616  -2.91020   0.49139
   2.12558  -2.67078   0.49139
   2.60442  -2.43136   0.73081
   2.84384  -2.19194   0.97023
   3.32268  -1.95252   0.97023
   3.56210  -1.71310   0.97023
   3.80152  -1.47368   0.97023
   4.04094  -1.23426   0.73081
   4.28036  -0.99484   0.73081
   4.51978  -0.75542   0.73081
   4.75920  -0.51600   0.49139
   4.75920  -0.27658   0.49139
   4.99862  -0.03716   0.25197
   5.23804   0.20226   0.25197
   5.23804   0.44168   0.01254
   5.23804   0.68110  -0.22688
   5.23804   1.15994  -0.22688
   4.99862   1.15994  -0.70572
   5.23804   1.39936  -0.94514
   5.23804   1.87820  -1.18456
   4.99862   1.87820  -1.42398
   4.99862   2.11762  -1.90282
   4.99862   2.11762  -2.14224
   4.75920   2.11762  -2.14224
   4.75920   2.11762  -2.62108
   4.75920   2.11762  -3.09992
   4.51978   2.11762  -3.09992
   4.28036   1.87820  -3.57876
   4.28036   1.87820  -3.81818
   4.04094   2.11762  -4.29702
   4.04094   2.11762  -4.29702
   4.04094   1.87820  -4.77586
   3.80152   2.11762  -5.01528
   3.80152   1.87820  -5.25470
   3.56210   2.11762  -5.49412
   3.56210   2.35704  -5.73354
   3.32268   2.35704  -5.73354
   3.08326   2.11762  -5.97296
   2.84384   2.35704  -6.21238
   2.84384   2.35704  -6.21238
   2.60442   2.35704  -6.45180
   2.12558   2.35704  -6.45180
   1.88616   2.35704  -6.45180
   1.64674   2.11762  -6.69122
   1.40731   1.87820  -6.69122
   1.16789   1.87820  -6.93064
   0.68905   1.63878  -6.93064
   0.44963   1.63878  -7.17006
  -0.02921   1.63878  -7.17006
  -0.26863   1.39936  -7.40948
  -0.74747   1.39936  -7.40948
  -1.22631   1.39936  -7.40948
  -1.70515   1.39936  -7.64890
  -2.18399   1.15994  -7.64890
  -2.66283   1.15994  -7.64890
  -2.90225   1.15994  -7.64890
  -3.38109   1.15994  -7.64890
  -3.85993   0.92052  -7.40948
  -4.33877   0.92052  -7.40948
  -4.57819   0.68110  -7.40948
  -5.05703   0.68110  -7.17006
  -5.29645   0.44168  -7.17006
  -5.77529   0.20226  -6.93064
  -6.01471  -0.03716  -6.93064
  -6.25413  -0.27658  -6.93064
  -6.49355  -0.27658  -6.69122
  -6.73297  -0.51600  -6.69122
  -6.97239  -0.75542  -6.45180
  -7.45123  -0.75542  -6.21238
  -7.21181  -0.99484  -6.21238
  -7.69065  -1.23426  -5.97296
  -7.69065  -1.47368  -5.73354
  -7.69065  -1.47368  -5.73354
  -7.69065  -1.71310  -5.25470
  -7.69065  -1.71310  -5.25470
  -7.93007  -1.95252  -5.01528
  -7.69065  -1.95252  -4.77586
  -7.69065  -2.19194  -4.53644
  -7.45123  -2.19194  -4.29702
  -7.69065  -2.19194  -4.05760
  -7.45123  -1.95252  -3.57876
  -7.45123  -2.19194  -3.33934
  -7.21181  -1.95252  -3.09992
  -7.21181  -2.19194  -2.86050
  -6.97239  -2.19194  -2.38166
  -6.49355  -2.19194  -2.14224
  -6.25413  -1.95252  -1.66340
  -6.25413  -1.95252  -1.42398
  -5.77529  -1.95252  -0.70572
  -5.53587  -1.95252  -0.22688
  -5.05703  -1.71310  -0.22688
  -4.81761  -1.71310   0.49139
  -4.33877  -1.47368   0.97023
  -3.85993  -1.47368   1.44907
  -3.38109  -1.23426   2.16733
  -2.90225  -1.23426   2.64617
  -2.42341  -1.23426   3.12501
  -1.94457  -0.99484   3.60385
  -1.22631  -0.75542   4.08269
  -0.74747  -0.99484   4.56153
  -0.26863  -0.75542   4.80095
   0.44963  -0.75542   5.27979
   0.68905  -0.75542   5.51921
   1.16789  -0.75542   5.75863
   1.64674  -0.51600   5.99805
   2.36500  -0.51600   5.99805
   2.60442  -0.27658   6.23747
   3.08326  -0.03716   6.47689
   3.56210   0.20226   6.47689
   3.80152   0.44168   6.71631
   4.04094   0.68110   6.71631
   4.04094   0.92052   6.71631
   4.28036   1.39936   6.95573
   4.51978   1.63878   6.71631
   4.75920   1.87820   6.71631
   4.75920   1.87820   6.71631
   4.75920   2.11762   6.47689
   4.75920   2.35704   6.47689
   4.75920   2.35704   6.23747
   4.75920   2.59646   5.99805
   4.51978   2.83588   5.99805
   4.51978   2.83588   5.75863
   4.28036   3.07530   5.27979
   4.04094   3.07530   5.27979
   4.04094   3.07530   4.80095
   3.56210   3.07530   4.56153
   3.56210   3.07530   4.08269
   3.32268   3.31472   3.84327
   3.08326   3.07530   3.60385
   2.84384   3.07530   3.12501
   2.60442   2.83588   2.64617
   2.36500   2.83588   2.40675
   2.36500   2.35704   2.16733
   2.12558   2.35704   1.68849
   2.12558   2.11762   1.68849
   1.88616   2.11762   1.20965
   1.64674   1.87820   0.97023
   1.16789   1.63878   0.73081
   1.16789   1.15994   0.49139
   0.92847   1.39936   0.25197
   0.68905   1.15994  -0.22688
   0.44963   0.68110  -0.22688
   0.21021   0.44168  -0.46630
  -0.26863  -0.03716  -0.46630
  -0.50805  -0.27658  -0.70572
  -0.74747  -0.27658  -0.70572
  -0.98689  -0.51600  -0.70572
  -1.46573  -0.51600  -0.70572
  -1.70515  -0.51600  -0.46630
  -1.94457  -0.51600  -0.70572
  -2.18399  -0.75542  -0.46630
  -2.42341  -0.75542  -0.46630
  -2.90225  -0.75542  -0.22688
  -2.90225  -0.99484   0.01254
  -3.14167  -0.99484   0.01254
  -3.38109  -0.99484   0.25197
  -3.62051  -0.75542   0.49139
  -3.85993  -0.99484   0.73081
  -3.85993  -1.23426   0.97023
  -4.09935  -1.23426   1.20965
  -4.33877  -1.23426   1.44907
  -4.33877  -1.23426   1.68849
  -4.57819  -1.23426   1.92791
  -4.81761  -1.23426   2.40675
  -4.81761  -1.47368   2.64617
  -4.81761  -1.71310   2.64617
  -5.05703  -1.47368   2.88559
  -5.05703  -1.47368   3.12501
  -5.05703  -1.71310   3.36443
  -4.81761  -1.71310   3.36443
  -4.81761  -1.95252   3.60385
  -4.81761  -1.95252   3.84327
  -4.57819  -1.71310   3.84327
  -4.33877  -1.95252   4.08269
  -4.09935  -1.95252   4.08269
  -3.85993  -1.95252   4.08269
  -3.62051  -1.95252   4.32211
  -3.38109  -1.95252   4.08269
  -3.14167  -1.95252   4.32211
  -2.90225  -1.71310   4.32211
  -2.42341  -1.71310   4.32211
  -2.42341  -1.71310   4.08269
  -2.18399  -1.47368   4.08269
  -1.94457  -1.71310   4.32211
  -1.70515  -1.47368   4.08269
  -1.22631  -1.47368   4.08269
  -1.22631  -1.47368   4.08269
  -0.98689  -1.23426   4.08269
  -0.50805  -1.23426   4.08269
  -0.50805  -0.99484   4.08269
  -0.02921  -0.99484   4.08269
  -0.02921  -0.75542   4.08269
   0.44963  -0.51600   4.08269
   0.68905  -0.51600   4.08269
   0.92847  -0.27658   4.08269
   1.16789  -0.27658   4.08269
   1.40731  -0.03716   4.08269
   1.64674  -0.03716   4.08269
   1.88616   0.20226   4.08269
   2.12558   0.20226   4.08269
   2.36500   0.20226   4.08269
   2.60442   0.44168   3.84327
   2.84384   0.20226   4.08269
   3.08326   0.44168   3.84327
   3.32268   0.44168   3.84327
   3.56210   0.44168   3.84327
   3.80152   0.44168   3.84327
   4.04094   0.20226   3.84327
   4.28036   0.20226   3.84327
   4.75920   0.20226   3.60385
   4.99862   0.20226   3.60385
   5.23804   0.20226   3.36443
   5.47746  -0.03716   3.12501
   5.71688  -0.03716   3.12501
   5.95630  -0.03716   3.12501
   6.43514  -0.03716   2.88559
   6.43514  -0.03716   2.64617
   6.67456  -0.51600   2.40675
   6.91398  -0.27658   2.16733
   6.67456  -0.27658   1.92791
   6.91398  -0.27658   1.44907
   6.67456  -0.27658   1.20965
   6.67456  -0.27658   0.97023
   6.43514  -0.27658   0.49139
   6.43514  -0.27658   0.25197
   6.19572  -0.03716  -0.22688
   5.95630  -0.03716  -0.46630
   5.71688  -0.03716  -0.94514
   5.71688   0.20226  -1.42398
   5.23804   0.44168  -1.66340
   4.99862   0.20226  -2.14224
   4.51978   0.44168  -2.62108
   4.28036   0.44168  -2.86050
   4.04094   0.68110  -3.09992
   3.80152   1.15994  -3.57876
   3.56210   0.92052  -3.81818
   3.08326   0.92052  -4.29702
   2.84384   1.15994  -4.77586
   2.60442   1.15994  -5.25470
   2.12558   1.15994  -5.49412
   1.88616   0.92052  -5.97296
   1.64674   0.92052  -6.21238
   1.40731   1.15994  -6.45180
   1.16789   0.92052  -6.93064
   0.92847   1.15994  -7.17006
   0.68905   1.15994  -7.64890
   0.44963   1.15994  -7.64890
   0.21021   1.15994  -7.88832
   0.21021   1.15994  -7.88832
  -0.02921   1.39936  -8.12774
  -0.26863   1.39936  -8.36716
  -0.50805   1.39936  -8.36716
  -0.74747   1.39936  -8.36716
  -0.74747   1.15994  -8.36716
  -0.98689   1.15994  -8.60658
  -1.22631   0.68110  -8.60658
  -1.22631   0.68110  -8.36716
  -1.46573   0.68110  -8.36716
  -1.46573   0.68110  -8.36716
  -1.70515   0.68110  -8.12774
  -1.70515   0.68110  -8.12774
  -1.94457   0.68110  -7.88832
  -1.94457   0.44168  -7.64890
  -2.18399   0.44168  -7.40948
  -2.18399   0.44168  -7.17006
  -2.18399   0.44168  -6.69122
  -2.42341   0.44168  -6.45180
  -2.42341   0.68110  -5.97296
  -2.42341   0.44168  -5.49412
  -2.42341   0.44168  -5.01528
  -2.42341   0.44168  -4.53644
  -2.42341   0.20226  -4.05760
  -2.42341  -0.03716  -3.57876
  -2.18399  -0.03716  -3.09992
  -2.18399  -0.27658  -2.62108
  -1.94457  -0.51600  -2.14224
  -1.94457  -0.27658  -1.66340
  -1.70515  -0.51600  -1.42398
  -1.46573  -0.75542  -1.18456
  -1.46573  -0.75542  -0.94514
  -1.22631  -0.75542  -0.70572
  -0.98689  -0.75542  -0.46630
  -0.98689  -0.99484  -0.22688
  -0.74747  -0.99484  -0.22688
  -0.74747  -0.99484   0.01254
  -0.50805  -0.99484   0.01254
  -0.50805  -0.99484   0.01254
  -0.50805  -0.99484   0.01254
  -0.50805  -0.99484   0.01254
  -0.26863  -0.99484  -0.22688
  -0.26863  -0.75542  -0.22688
  -0.26863  -0.51600  -0.22688
  -0.26863  -0.51600  -0.22688
  -0.26863  -0.51600  -0.22688
  -0.02921  -0.03716  -0.22688
  -0.02921  -0.03716  -0.46630
   0.21021  -0.27658  -0.46630
  -0.02921  -0.03716  -0.46630
   0.21021  -0.03716  -0.70572
   0.21021   0.20226  -0.70572
   0.44963   0.44168  -0.94514
   0.44963   0.20226  -0.94514
   0.44963   0.44168  -1.18456
   0.44963   0.44168  -1.18456
   0.44963   0.44168  -1.18456
   0.68905   0.20226  -1.42398
   0.68905   0.20226  -1.42398
   0.68905   0.20226  -1.42398
   0.92847   0.20226  -1.42398
   0.92847  -0.03716  -1.66340
   0.92847  -0.27658  -1.66340
   1.16789  -0.03716  -1.66340
   1.16789  -0.03716  -1.66340
   1.16789  -0.27658  -1.66340
   1.16789  -0.27658  -1.66340
   1.40731  -0.51600  -1.66340
   1.40731  -0.51600  -1.66340
   1.64674  -0.27658  -1.66340
   1.64674  -0.51600  -1.66340
   1.64674  -0.27658  -1.66340
   1.64674  -0.27658  -1.66340
   1.64674  -0.27658  -1.42398
   1.64674  -0.27658  -1.42398
   1.64674  -0.03716  -1.18456
   1.64674  -0.27658  -1.18456
   1.64674  -0.27658  -1.18456
   1.88616  -0.27658  -0.94514
   1.64674  -0.03716  -0.70572
   1.64674   0.20226  -0.70572
   1.40731  -0.03716  -0.46630
   1.40731   0.44168  -0.46630
   1.16789   0.44168  -0.22688
   1.16789   0.44168  -0.22688
   1.16789   0.68110   0.01254
   0.92847   0.68110   0.01254
   0.44963   0.92052   0.25197
   0.44963   0.92052   0.49139
   0.21021   0.92052   0.73081
  -0.02921   0.92052   0.73081
  -0.26863   0.92052   0.97023
  -0.74747   0.92052   0.97023
  -0.74747   0.92052   1.20965
  -0.98689   1.15994   1.20965
  -1.22631   1.15994   1.44907
  -1.46573   1.15994   1.44907
  -1.94457   1.15994   1.44907
  -2.18399   1.39936   1.44907
  -2.18399   1.15994   1.44907
  -2.42341   1.15994   1.44907
  -2.66283   1.15994   1.44907
  -2.66283   1.15994   1.44907
  -2.90225   1.39936   1.44907
  -2.90225   1.15994   1.20965
  -3.14167   1.15994   1.44907
  -3.38109   0.92052   1.44907
  -3.38109   0.92052   1.44907
  -3.62051   0.92052   1.68849
  -3.62051   0.68110   1.68849
  -3.62051   0.44168   1.68849
  -3.62051   0.20226   1.68849
  -3.62051  -0.03716   1.68849
  -3.62051  -0.03716   1.92791
  -3.85993  -0.27658   2.16733
  -3.85993  -0.27658   2.40675
  -3.85993  -0.99484   2.40675
  -3.85993  -0.99484   2.64617
  -3.85993  -0.75542   2.88559
  -3.62051  -1.23426   3.36443
  -3.85993  -1.23426   3.60385
  -3.85993  -1.47368   3.60385
  -3.62051  -1.47368   4.08269
  -3.62051  -1.71310   4.32211
  -3.62051  -1.71310   4.56153
  -3.62051  -1.71310   4.80095
  -3.62051  -1.71310   5.04037
  -3.38109  -1.71310   5.51921
  -3.38109  -1.71310   5.75863
  -3.38109  -1.95252   5.99805
  -3.14167  -1.95252   6.23747
  -3.14167  -1.95252   6.47689
  -2.90225  -1.95252   6.71631
  -2.90225  -1.95252   6.95573
  -2.90225  -1.95252   7.19515
  -2.66283  -2.19194   7.43457
  -2.66283  -1.95252   7.43457
  -2.42341  -2.19194   7.67399
  -2.18399  -1.95252   7.67399
  -1.94457  -1.95252   7.91341
  -1.70515  -1.95252   7.91341
  -1.70515  -1.95252   8.15283
  -1.46573  -1.71310   8.15283
  -1.22631  -1.71310   7.91341
  -0.98689  -1.71310   8.15283
  -0.50805  -1.71310   8.15283
  -0.74747  -1.71310   8.15283
  -0.50805  -1.71310   7.91341
  -0.26863  -1.71310   7.91341
  -0.02921  -1.47368   7.67399
   0.21021  -1.47368   7.67399
   0.21021  -1.47368   7.43457
   0.44963  -0.99484   7.19515
   0.68905  -0.99484   6.71631
   0.68905  -0.75542   6.47689
   0.92847  -0.27658   6.23747
