********************************************************************************
               CENTRO DE INSTRUMENTACION Y REGISTRO SISMICO  A.C.  
                       Coordinacion de Servicios Tecnicos
     Anaxagoras 814, Col. Narvarte, Benito Juarez, C.P. 03020 Mexico, D.F.
            Tels. 667 45 42/ 687 45  82             Fax. 669 25 12
********************************************************************************
ARCHIVO ESTANDAR DE ACELERACION:
VERSION DEL FORMATO                    : 2.0
NOMBRE DEL ARCHIVO                     : BA490110.291
FECHA Y HORA DE CREACION               : 07/JUL/04, 09:35
REF. CATALOGO ACELEROGRAMAS, SMIS 1996 : REGISTRO No.     /PAG.


================================================================================
DATOS DE LA ESTACION:
NOMBRE DE LA ESTACION                  : BUENOS AIRES
CLAVE DE LA ESTACION                   : BA49
LOCALIZACION DE LA ESTACION            : ESCUELA SECUNDARIA 102, DOCTOR MARQUEZ
                                       : Y EJE CENTRAL, BUENOS AIRES.
                                       :
                                       :
                                       :
COORDENADAS DE LA ESTACION             : 19.410 LAT. N 
                                       : 99.145 LONG. W 
ALTITUD (msnm)                         : 2233
TIPO DE SUELO                          : TERRENO BLANDO, MATERIAL COMPRESIBLE
                                       : (ARCILLAS)
                                       : 
INSTITUCION RESPONSABLE                : CIRES 
                                       :

================================================================================
DATOS DEL ACELEROGRAFO:
MODELO DEL ACELEROGRAFO                : SSA-1
NUMERO DE SERIE DEL ACELEROGRAFO       : 176
NUMERO DE CANALES                      : 3
ORIENTACION C1-C6 (rumbo;orientacion)  : /N00E/+V/N90E
ORIENTACION C7-C12 (rumbo;orientacion) :
VEL. DE MUESTREO, C1-C6 (muestras/s)   : /200/200/200
VEL. DE MUESTREO, C7-C12 (muestras/s)  :
ESC. COMPLETA DE SENSORES, C1-C6, (g)  : /2/2/2
ESC. COMPLETA DE SENSORES, C7-C12, (g) :
FREC. NAT. DE SENSORES, C1-C6, (Hz)    : /52.99/52.03/52.99
FREC. NAT. DE SENSORES, C7-C12, (Hz)   :
AMORTIGUAMIENTO DE SENSORES, C1-C6     : /.5589/.5469/.6096
AMORTIGUAMIENTO DE SENSORES, C7-C12    :
INTERVALO DE MUESTREO, C1-C6, (s)      : /0.005/0.005/0.005
INTERVALO DE MUESTREO, C7-C12, (s)     :
UMBRAL DE DISPARO, C1-C6, (Gal)        : /2/2/2
UMBRAL DE DISPARO, C7-C12, (Gal)       :
MEMORIA DE PREEVENTO (s)               : 15
TIEMPO DE POSEVENTO (s)                : 60


================================================================================
DATOS DEL SISMO:
FECHA DEL SISMO (GMT)                  : 29/OCT/01
HORA EPICENTRO (GMT)                   : 05:23:12,3
MAGNITUD(ES)                           : /Mb=5.0/Ms=4.5/Mc=5.1/Ma=5.1/Me=5.4
COORDENADAS DEL EPICENTRO              : 17.00 LAT. N
                                       : 100.19 LONG. W
PROFUNDIDAD FOCAL (km)                 : 4
FUENTE DE LOS DATOS EPICENTRALES       : SSN
                                       : INSTITUTO DE GEOFISICA, UNAM 

================================================================================
DATOS DE ESTE REGISTRO:
HORA DE LA PRIMERA MUESTRA (GMT)       : 05:24:36.00
EXACTITUD DEL TIEMPO (s)               :     
DURACION DEL REGISTRO (s), C1-C6       : /87.04/87.04/87.04
DURACION DEL REGISTRO (s), C7-C12      :
NUM. TOTAL DE MUESTRAS, C1-C6          : /17408/17408/17408
NUM. TOTAL DE MUESTRAS, C7-C12         :
ACEL. MAX. (Gal), C1-C6                : /-2.30322/-0.99396/2.36608
ACEL. MAX., C1-C6, EN LA MUESTRA       :
ACEL. MAX. (Gal), C7-C12               :
ACEL. MAX., C7-C12, EN LA MUESTRA      :
UNIDADES DE LOS DATOS                  : Gal (cm/s/s)
FACTOR DE DECIMACION                   : 1
FORMATO DATOS (FORTRAN,10 campos/dato) : 3F10.5


================================================================================
CALIDAD DEL ACELEROGRAMA:
REGISTRO DIGITAL COMPLETO, CARECE DE TIEMPO ABSOLUTO.


================================================================================
COMENTARIOS:














================================================================================
DATOS DE ACELERACION:
---------+---------+---------+---------+---------+---------+---------+---------+
   CANAL-1   CANAL-2   CANAL-3   CANAL-4   CANAL-5   CANAL-6   CANAL-7   CANAL-8
      N00E        +V      N90E
---------+---------+---------+---------+---------+---------+---------+---------+
[...]
   0.08678  -0.03396   0.68608
   0.08678  -0.03396   0.68608
   0.08678  -0.03396   0.68608
   0.08678  -0.03396   0.68608
   0.08678  -0.03396   0.68608
   0.08678  -0.03396   0.68608
   0.08678  -0.03396   0.68608
   0.08678  -0.03396   0.68608
   0.08678  -0.27396   0.68608
   0.08678  -0.03396   0.68608
   0.08678  -0.03396   0.68608
   0.08678  -0.03396   0.68608
   0.08678  -0.03396   0.68608
   0.08678  -0.03396   0.68608
   0.08678  -0.03396   0.68608
   0.08678   0.20604   0.68608
   0.08678  -0.03396   0.68608
   0.08678   0.20604   0.68608
   0.08678  -0.03396   0.68608
   0.08678   0.20604   0.68608
   0.08678   0.20604   0.68608
   0.08678   0.20604   0.68608
   0.08678   0.20604   0.68608
   0.08678   0.20604   0.68608
   0.08678   0.20604   0.68608
   0.08678   0.20604   0.68608
  -0.15322   0.20604   0.44608
  -0.15322   0.20604   0.44608
  -0.15322   0.20604   0.44608
  -0.15322   0.20604   0.44608
  -0.15322   0.20604   0.44608
  -0.15322   0.20604   0.44608
  -0.15322   0.20604   0.44608
  -0.15322   0.20604   0.44608
  -0.15322   0.20604   0.20608
  -0.15322   0.20604   0.20608
  -0.15322   0.20604   0.20608
  -0.15322   0.20604   0.20608
  -0.15322   0.20604   0.20608
  -0.39322   0.20604   0.20608
  -0.15322   0.20604  -0.03392
  -0.15322   0.20604  -0.03392
  -0.15322   0.20604  -0.03392
  -0.39322   0.20604  -0.03392
  -0.15322   0.20604  -0.03392
  -0.15322   0.20604  -0.03392
  -0.15322   0.20604  -0.03392
  -0.15322   0.20604  -0.03392
  -0.15322   0.20604  -0.27392
  -0.15322   0.20604  -0.27392
  -0.15322   0.20604  -0.27392
  -0.15322   0.20604  -0.27392
  -0.15322   0.20604  -0.27392
  -0.15322   0.20604  -0.27392
  -0.15322   0.20604  -0.27392
  -0.15322   0.20604  -0.27392
  -0.15322   0.20604  -0.27392
  -0.15322   0.20604  -0.27392
  -0.15322   0.20604  -0.27392
  -0.15322   0.20604  -0.51392
  -0.15322   0.20604  -0.51392
  -0.15322   0.20604  -0.51392
  -0.15322   0.20604  -0.27392
  -0.15322   0.20604  -0.51392
  -0.15322   0.20604  -0.51392
  -0.15322   0.20604  -0.51392
  -0.15322   0.20604  -0.51392
  -0.15322   0.20604  -0.51392
  -0.15322   0.20604  -0.51392
  -0.15322   0.20604  -0.51392
  -0.15322   0.20604  -0.51392
  -0.15322   0.20604  -0.51392
  -0.15322   0.20604  -0.51392
  -0.15322   0.20604  -0.51392
  -0.15322   0.20604  -0.51392
  -0.15322  -0.03396  -0.51392
  -0.15322   0.20604  -0.51392
  -0.15322   0.20604  -0.51392
  -0.15322  -0.03396  -0.51392
  -0.15322   0.20604  -0.51392
  -0.15322  -0.03396  -0.51392
  -0.15322   0.20604  -0.51392
  -0.15322   0.20604  -0.75392
  -0.15322  -0.03396  -0.51392
  -0.15322   0.20604  -0.51392
  -0.15322   0.20604  -0.51392
  -0.15322   0.20604  -0.51392
  -0.15322   0.20604  -0.51392
  -0.15322   0.20604  -0.51392
  -0.15322   0.20604  -0.51392
  -0.15322   0.20604  -0.51392
  -0.15322  -0.03396  -0.51392
  -0.15322   0.20604  -0.51392
  -0.15322   0.20604  -0.51392
  -0.15322   0.20604  -0.51392
  -0.15322   0.20604  -0.51392
  -0.15322   0.20604  -0.51392
  -0.15322   0.20604  -0.51392
  -0.15322   0.20604  -0.75392
  -0.15322   0.20604  -0.51392
  -0.15322   0.44604  -0.75392
  -0.15322   0.20604  -0.75392
  -0.15322   0.20604  -0.75392
  -0.15322   0.20604  -0.75392
  -0.15322   0.20604  -0.75392
  -0.15322   0.20604  -0.75392
  -0.15322   0.20604  -0.75392
  -0.15322   0.20604  -0.75392
  -0.15322   0.20604  -0.75392
  -0.15322   0.20604  -0.75392
  -0.15322   0.20604  -0.75392
  -0.15322   0.20604  -0.75392
  -0.15322   0.20604  -0.75392
  -0.15322   0.20604  -0.75392
  -0.15322   0.20604  -0.75392
  -0.15322   0.20604  -0.75392
  -0.15322   0.20604  -0.75392
  -0.15322   0.20604  -0.75392
   0.08678   0.20604  -0.75392
   0.08678   0.20604  -0.75392
   0.08678   0.20604  -0.75392
   0.08678  -0.03396  -0.75392
   0.08678  -0.03396  -0.75392
   0.08678  -0.03396  -0.75392
   0.08678  -0.03396  -0.75392
   0.08678  -0.03396  -0.75392
   0.32678  -0.03396  -0.75392
   0.32678  -0.27396  -0.75392
   0.32678  -0.03396  -0.75392
   0.32678  -0.03396  -0.75392
   0.32678  -0.03396  -0.75392
   0.56678  -0.27396  -0.75392
   0.32678  -0.27396  -0.75392
   0.32678  -0.27396  -0.75392
   0.32678  -0.27396  -0.75392
   0.32678  -0.27396  -0.75392
   0.32678  -0.27396  -0.75392
   0.56678  -0.27396  -0.75392
   0.56678  -0.27396  -0.75392
   0.56678  -0.27396  -0.51392
   0.32678  -0.27396  -0.51392
   0.56678  -0.27396  -0.51392
   0.56678  -0.51396  -0.51392
   0.56678  -0.51396  -0.51392
   0.56678  -0.51396  -0.51392
   0.56678  -0.51396  -0.51392
   0.56678  -0.51396  -0.51392
   0.56678  -0.51396  -0.51392
   0.56678  -0.27396  -0.51392
   0.56678  -0.27396  -0.51392
   0.56678  -0.51396  -0.27392
   0.56678  -0.51396  -0.51392
   0.56678  -0.27396  -0.51392
   0.56678  -0.27396  -0.27392
   0.56678  -0.27396  -0.51392
   0.56678  -0.27396  -0.27392
   0.56678  -0.27396  -0.51392
   0.56678  -0.27396  -0.27392
   0.56678  -0.27396  -0.27392
   0.56678  -0.51396  -0.27392
   0.56678  -0.51396  -0.27392
   0.56678  -0.27396  -0.27392
   0.32678  -0.27396  -0.51392
   0.32678  -0.51396  -0.51392
   0.56678  -0.27396  -0.51392
   0.32678  -0.27396  -0.51392
   0.56678  -0.27396  -0.51392
   0.56678  -0.51396  -0.51392
   0.56678  -0.27396  -0.51392
   0.56678  -0.27396  -0.51392
   0.56678  -0.27396  -0.27392
   0.56678  -0.27396  -0.51392
   0.56678  -0.27396  -0.51392
   0.56678  -0.03396  -0.51392
   0.56678  -0.03396  -0.51392
   0.56678  -0.03396  -0.51392
   0.56678  -0.03396  -0.51392
   0.56678  -0.03396  -0.75392
   0.56678  -0.03396  -0.75392
   0.56678  -0.03396  -0.75392
   0.56678  -0.03396  -0.75392
   0.56678  -0.03396  -0.75392
   0.56678  -0.03396  -0.75392
   0.56678  -0.03396  -0.75392
   0.56678  -0.03396  -0.75392
   0.56678   0.20604  -0.75392
   0.56678   0.20604  -0.75392
   0.80678  -0.03396  -0.75392
   0.56678   0.20604  -0.75392
   0.80678   0.20604  -0.75392
   0.80678   0.20604  -0.75392
   0.80678   0.20604  -0.75392
   0.80678   0.20604  -0.75392
   0.80678   0.20604  -0.75392
   0.80678   0.20604  -0.75392
   0.80678   0.20604  -0.75392
   0.80678   0.20604  -0.75392
   0.80678   0.20604  -0.75392
   0.80678   0.20604  -0.75392
   0.80678   0.20604  -0.75392
   0.80678   0.20604  -0.75392
   0.80678   0.44604  -0.75392
   0.56678   0.20604  -0.75392
   0.56678   0.20604  -0.75392
   0.56678   0.20604  -0.75392
   0.56678   0.44604  -0.75392
   0.56678   0.44604  -0.75392
   0.56678   0.20604  -0.75392
   0.56678   0.44604  -0.75392
   0.56678   0.44604  -0.75392
   0.56678   0.44604  -0.75392
   0.56678   0.44604  -0.75392
   0.56678   0.44604  -0.75392
   0.56678   0.44604  -0.99392
   0.56678   0.44604  -0.75392
   0.56678   0.44604  -0.99392
   0.56678   0.44604  -0.99392
   0.32678   0.44604  -0.99392
   0.56678   0.44604  -0.99392
   0.32678   0.44604  -0.99392
   0.32678   0.44604  -0.99392
   0.32678   0.44604  -0.99392
   0.32678   0.44604  -0.99392
   0.32678   0.44604  -0.99392
   0.32678   0.44604  -0.99392
   0.32678   0.68604  -0.99392
   0.32678   0.44604  -0.99392
   0.32678   0.44604  -0.99392
   0.32678   0.44604  -0.99392
   0.32678   0.44604  -0.99392
   0.32678   0.44604  -0.99392
   0.32678   0.44604  -0.99392
   0.32678   0.44604  -0.99392
   0.32678   0.44604  -0.99392
   0.32678   0.44604  -0.99392
   0.32678   0.44604  -1.23392
   0.56678   0.20604  -1.23392
   0.56678   0.20604  -1.23392
   0.56678   0.44604  -1.23392
   0.56678   0.44604  -1.23392
   0.56678   0.44604  -1.23392
   0.56678   0.44604  -1.23392
   0.56678   0.20604  -1.23392
   0.56678   0.20604  -1.23392
   0.56678   0.20604  -1.23392
   0.56678   0.20604  -1.23392
   0.56678   0.20604  -1.23392
   0.56678   0.20604  -1.23392
   0.56678   0.20604  -1.23392
   0.56678   0.20604  -1.23392
   0.56678  -0.03396  -1.23392
   0.56678  -0.03396  -1.23392
   0.56678  -0.03396  -1.23392
   0.56678  -0.03396  -1.23392
   0.56678  -0.03396  -1.23392
   0.56678  -0.03396  -1.23392
   0.56678  -0.03396  -1.23392
   0.56678  -0.03396  -1.23392
   0.56678  -0.03396  -1.23392
   0.56678  -0.03396  -1.23392
   0.56678  -0.03396  -1.23392
   0.56678  -0.03396  -1.23392
   0.56678  -0.03396  -1.23392
   0.56678  -0.03396  -1.23392
   0.56678  -0.03396  -1.23392
   0.56678  -0.03396  -1.23392
   0.32678  -0.03396  -1.23392
   0.32678  -0.03396  -1.23392
   0.32678  -0.03396  -0.99392
   0.32678  -0.03396  -1.23392
   0.32678  -0.03396  -1.23392
   0.32678  -0.03396  -0.99392
   0.32678  -0.03396  -0.99392
   0.08678  -0.03396  -0.99392
   0.08678  -0.03396  -0.99392
   0.08678  -0.03396  -0.99392
   0.08678  -0.03396  -0.99392
   0.08678  -0.03396  -0.99392
   0.08678  -0.03396  -0.99392
   0.08678  -0.03396  -0.99392
   0.08678  -0.03396  -0.99392
   0.08678  -0.03396  -0.99392
  -0.15322  -0.03396  -0.99392
  -0.15322  -0.03396  -0.99392
  -0.15322  -0.03396  -0.99392
  -0.15322  -0.03396  -0.99392
  -0.15322  -0.03396  -0.99392
  -0.15322  -0.03396  -0.99392
  -0.39322  -0.03396  -0.99392
  -0.39322  -0.03396  -0.99392
  -0.39322  -0.03396  -0.99392
  -0.39322   0.20604  -0.99392
  -0.39322  -0.03396  -0.99392
  -0.39322  -0.03396  -0.99392
  -0.39322  -0.03396  -0.75392
  -0.39322  -0.03396  -0.75392
  -0.39322  -0.03396  -0.75392
  -0.63322  -0.03396  -0.75392
  -0.63322  -0.03396  -0.75392
  -0.63322  -0.03396  -0.75392
  -0.63322  -0.03396  -0.51392
  -0.63322  -0.03396  -0.51392
  -0.63322  -0.27396  -0.51392
  -0.63322  -0.03396  -0.51392
  -0.63322  -0.03396  -0.51392
  -0.63322  -0.03396  -0.51392
  -0.63322  -0.03396  -0.27392
  -0.63322  -0.03396  -0.27392
  -0.63322  -0.03396  -0.27392
  -0.63322  -0.03396  -0.27392
  -0.39322  -0.03396  -0.03392
  -0.39322  -0.03396  -0.03392
  -0.39322  -0.27396  -0.03392
  -0.39322  -0.03396  -0.03392
  -0.39322  -0.27396   0.20608
  -0.39322  -0.03396   0.20608
  -0.39322  -0.27396   0.20608
  -0.39322  -0.27396   0.44608
  -0.39322  -0.27396   0.44608
  -0.39322  -0.27396   0.44608
  -0.39322  -0.27396   0.44608
  -0.39322  -0.27396   0.68608
  -0.39322  -0.27396   0.68608
  -0.15322  -0.27396   0.68608
  -0.15322  -0.27396   0.92608
  -0.15322  -0.27396   0.92608
  -0.15322  -0.51396   0.92608
  -0.15322  -0.51396   0.92608
  -0.15322  -0.27396   1.16608
  -0.15322  -0.51396   1.16608
  -0.15322  -0.27396   1.16608
  -0.15322  -0.51396   1.40608
  -0.15322  -0.27396   1.40608
  -0.15322  -0.51396   1.40608
   0.08678  -0.51396   1.40608
   0.08678  -0.51396   1.64608
   0.08678  -0.51396   1.64608
   0.08678  -0.51396   1.64608
   0.08678  -0.51396   1.64608
   0.08678  -0.51396   1.88608
   0.08678  -0.51396   1.88608
   0.08678  -0.51396   1.88608
   0.08678  -0.51396   1.88608
   0.08678  -0.51396   1.88608
   0.08678  -0.51396   2.12608
   0.08678  -0.51396   1.88608
   0.08678  -0.51396   2.12608
   0.08678  -0.51396   2.12608
   0.08678  -0.51396   2.12608
   0.32678  -0.51396   2.36608
   0.08678  -0.51396   2.36608
   0.32678  -0.51396   2.36608
   0.32678  -0.51396   2.36608
   0.08678  -0.51396   2.36608
   0.32678  -0.51396   2.36608
   0.32678  -0.51396   2.36608
   0.32678  -0.51396   2.36608
   0.32678  -0.51396   2.36608
   0.32678  -0.27396   2.36608
   0.32678  -0.51396   2.36608
   0.32678  -0.51396   2.36608
   0.32678  -0.51396   2.36608
   0.32678  -0.27396   2.36608
   0.32678  -0.27396   2.36608
   0.32678  -0.27396   2.12608
   0.32678  -0.51396   2.36608
   0.32678  -0.27396   2.36608
   0.32678  -0.27396   2.36608
   0.32678  -0.27396   2.36608
   0.32678  -0.27396   2.36608
   0.08678  -0.27396   2.36608
   0.32678  -0.27396   2.36608
   0.08678  -0.27396   2.36608
   0.08678  -0.27396   2.36608
   0.08678  -0.27396   2.36608
   0.08678  -0.27396   2.36608
   0.08678  -0.27396   2.36608
   0.08678  -0.27396   2.36608
   0.08678  -0.27396   2.36608
   0.08678  -0.27396   2.36608
   0.08678  -0.03396   2.36608
   0.08678  -0.27396   2.36608
   0.08678  -0.03396   2.36608
  -0.15322  -0.27396   2.36608
  -0.15322  -0.03396   2.36608
  -0.15322  -0.03396   2.36608
  -0.15322  -0.03396   2.36608
  -0.15322  -0.03396   2.36608
  -0.15322  -0.03396   2.12608
  -0.15322  -0.27396   2.12608
  -0.39322  -0.03396   2.12608
  -0.39322  -0.03396   2.12608
  -0.39322  -0.03396   2.12608
  -0.39322  -0.03396   2.12608
  -0.39322  -0.03396   2.12608
  -0.39322   0.20604   2.12608
  -0.39322   0.20604   1.88608
  -0.63322   0.20604   1.88608
  -0.63322   0.20604   1.88608
  -0.63322   0.20604   1.88608
  -0.63322   0.20604   1.88608
  -0.63322   0.20604   1.88608
  -0.63322   0.20604   1.64608
  -0.63322   0.20604   1.64608
  -0.63322   0.20604   1.40608
  -0.87322   0.20604   1.64608
  -0.63322   0.20604   1.40608
  -0.63322   0.20604   1.40608
  -0.63322   0.20604   1.40608
  -0.63322   0.44604   1.40608
  -0.87322   0.44604   1.40608
  -0.87322   0.20604   1.16608
  -0.87322   0.44604   1.16608
  -0.87322   0.44604   1.16608
  -0.87322   0.20604   0.92608
  -0.87322   0.44604   0.92608
  -0.87322   0.44604   0.92608
  -0.87322   0.44604   0.92608
  -0.87322   0.44604   0.92608
  -0.87322   0.44604   0.92608
  -0.87322   0.44604   0.68608
  -0.87322   0.20604   0.68608
  -0.87322   0.44604   0.68608
  -0.87322   0.44604   0.68608
  -0.87322   0.44604   0.68608
  -0.87322   0.44604   0.68608
  -0.87322   0.20604   0.44608
  -0.87322   0.20604   0.44608
  -0.87322   0.20604   0.44608
  -0.87322   0.20604   0.44608
  -0.87322   0.20604   0.44608
  -0.87322   0.20604   0.44608
  -0.87322   0.20604   0.44608
  -0.87322   0.20604   0.44608
  -0.87322   0.20604   0.44608
  -0.63322   0.20604   0.20608
  -0.87322   0.20604   0.20608
  -0.63322   0.20604   0.20608
  -0.63322   0.20604   0.20608
  -0.63322   0.20604   0.20608
  -0.63322   0.20604   0.20608
  -0.63322   0.20604   0.20608
  -0.63322   0.20604   0.20608
  -0.63322   0.20604   0.20608
  -0.63322   0.20604   0.20608
  -0.63322   0.20604  -0.03392
  -0.63322   0.20604  -0.03392
  -0.63322   0.20604  -0.03392
  -0.63322   0.20604  -0.03392
  -0.63322   0.20604  -0.03392
  -0.63322   0.20604  -0.03392
  -0.39322  -0.03396  -0.03392
  -0.39322   0.20604  -0.03392
  -0.39322   0.20604  -0.03392
  -0.39322  -0.03396  -0.03392
  -0.39322  -0.03396  -0.03392
  -0.39322  -0.03396  -0.03392
  -0.39322  -0.03396  -0.03392
  -0.39322   0.20604  -0.03392
  -0.39322   0.20604  -0.03392
  -0.39322   0.20604  -0.03392
  -0.39322  -0.03396  -0.27392
  -0.39322   0.20604  -0.03392
  -0.39322  -0.03396  -0.27392
  -0.39322   0.20604  -0.27392
  -0.39322  -0.03396  -0.27392
  -0.39322  -0.03396  -0.27392
  -0.39322  -0.03396  -0.27392
  -0.39322  -0.03396  -0.27392
  -0.39322  -0.03396  -0.27392
  -0.39322  -0.03396  -0.27392
  -0.39322  -0.03396  -0.27392
  -0.39322  -0.03396  -0.51392
  -0.39322  -0.03396  -0.51392
  -0.39322  -0.03396  -0.51392
  -0.39322  -0.03396  -0.51392
  -0.39322  -0.03396  -0.51392
  -0.39322   0.20604  -0.51392
  -0.39322  -0.03396  -0.51392
  -0.39322   0.20604  -0.51392
  -0.39322   0.20604  -0.51392
  -0.39322  -0.03396  -0.51392
  -0.39322  -0.03396  -0.51392
  -0.39322  -0.03396  -0.51392
  -0.39322  -0.03396  -0.51392
  -0.39322  -0.03396  -0.75392
  -0.15322  -0.03396  -0.75392
  -0.39322  -0.03396  -0.75392
  -0.39322  -0.03396  -0.75392
  -0.39322  -0.03396  -0.75392
  -0.39322  -0.03396  -0.75392
  -0.39322  -0.03396  -0.75392
  -0.39322  -0.03396  -0.75392
  -0.39322  -0.27396  -0.75392
  -0.39322  -0.03396  -0.75392
  -0.39322  -0.03396  -0.51392
  -0.39322  -0.03396  -0.75392
  -0.39322  -0.03396  -0.51392
  -0.39322  -0.03396  -0.51392
