********************************************************************************
               CENTRO DE INSTRUMENTACION Y REGISTRO SISMICO  A.C.  
                       Coordinacion de Servicios Tecnicos
     Anaxagoras 814, Col. Narvarte, Benito Juarez, C.P. 03020 Mexico, D.F.
            Tels. 667 45 42/ 687 45  82             Fax. 669 25 12
********************************************************************************
ARCHIVO ESTANDAR DE ACELERACION:
VERSION DEL FORMATO                    : 2.0
NOMBRE DEL ARCHIVO                     : BA499807.111
FECHA Y HORA DE CREACION               : 31/ENERO/2000, 10:10
REF. CATALOGO ACELEROGRAMAS, SMIS 1996 : REGISTRO No.     /PAG.


================================================================================
DATOS DE LA ESTACION:
NOMBRE DE LA ESTACION                  : BUENOS AIRES
CLAVE DE LA ESTACION                   : BA49
LOCALIZACION DE LA ESTACION            : ESCUELA SECUNDARIA 102, DOCTOR MARQUEZ
                                       : Y EJE CENTRAL, BUENOS AIRES.
                                       :
                                       :
                                       :
COORDENADAS DE LA ESTACION             : 19.410 LAT. N 
                                       : 99.145 LONG. W 
ALTITUD (msnm)                         : 2233
TIPO DE SUELO                          : TERRENO BLANDO, MATERIAL COMPRESIBLE
                                       : (ARCILLAS)
                                       : 
INSTITUCION RESPONSABLE                : CIRES 
                                       :

================================================================================
DATOS DEL ACELEROGRAFO:
MODELO DEL ACELEROGRAFO                : SSA-1
NUMERO DE SERIE DEL ACELEROGRAFO       : 176
NUMERO DE CANALES                      : 3
ORIENTACION C1-C6 (rumbo;orientacion)  : /N00E/+V/N90E
ORIENTACION C7-C12 (rumbo;orientacion) :
VEL. DE MUESTREO, C1-C6 (muestras/s)   : /200/200/200
VEL. DE MUESTREO, C7-C12 (muestras/s)  :
ESC. COMPLETA DE SENSORES, C1-C6, (g)  : /2/2/2
ESC. COMPLETA DE SENSORES, C7-C12, (g) :
FREC. NAT. DE SENSORES, C1-C6, (Hz)    : /52.99/52.03/52.99
FREC. NAT. DE SENSORES, C7-C12, (Hz)   :
AMORTIGUAMIENTO DE SENSORES, C1-C6     : /.5589/.5469/.6096
AMORTIGUAMIENTO DE SENSORES, C7-C12    :
INTERVALO DE MUESTREO, C1-C6, (s)      : /0.005/0.005/0.005
INTERVALO DE MUESTREO, C7-C12, (s)     :
UMBRAL DE DISPARO, C1-C6, (Gal)        : /2/2/2
UMBRAL DE DISPARO, C7-C12, (Gal)       :
MEMORIA DE PREEVENTO (s)               : 15
TIEMPO DE POSEVENTO (s)                : 60


================================================================================
DATOS DEL SISMO:
FECHA DEL SISMO (GMT)                  : 11/JUL/98
HORA EPICENTRO (GMT)                   : 05:21:12.6
MAGNITUD(ES)                           : /Mb=4.6/Ms=4.7/Mc=4.9/Ma=5.3/Me=5.4
COORDENADAS DEL EPICENTRO              : 17.25 LAT. N
                                       : 101.54 LONG. W
PROFUNDIDAD FOCAL (km)                 : 5
FUENTE DE LOS DATOS EPICENTRALES       : SSN
                                       : INSTITUTO DE GEOFISICA, UNAM 

================================================================================
DATOS DE ESTE REGISTRO:
HORA DE LA PRIMERA MUESTRA (GMT)       : 05:23:15.00
EXACTITUD DEL TIEMPO (s)               :     
DURACION DEL REGISTRO (s), C1-C6       : /78.08/78.08/78.08
DURACION DEL REGISTRO (s), C7-C12      :
NUM. TOTAL DE MUESTRAS, C1-C6          : /15616/15616/15616
NUM. TOTAL DE MUESTRAS, C7-C12         :
ACEL. MAX. (Gal), C1-C6                : /2.18797/0.50066/1.96036
ACEL. MAX., C1-C6, EN LA MUESTRA       :
ACEL. MAX. (Gal), C7-C12               :
ACEL. MAX., C7-C12, EN LA MUESTRA      :
UNIDADES DE LOS DATOS                  : Gal (cm/s/s)
FACTOR DE DECIMACION                   : 1
FORMATO DATOS (FORTRAN,10 campos/dato) : 3F10.5


================================================================================
CALIDAD DEL ACELEROGRAMA:
REGISTRO DIGITAL COMPLETO, CARECE DE TIEMPO ABSOLUTO.


================================================================================
COMENTARIOS:














================================================================================
DATOS DE ACELERACION:
---------+---------+---------+---------+---------+---------+---------+---------+
   CANAL-1   CANAL-2   CANAL-3   CANAL-4   CANAL-5   CANAL-6   CANAL-7   CANAL-8
      N00E        +V      N90E
---------+---------+---------+---------+---------+---------+---------+---------+
[...]
  -0.20203   0.02066   0.67964
  -0.20203   0.02066   0.67964
  -0.20203   0.02066   0.67964
  -0.20203   0.02066   0.67964
  -0.20203   0.02066   0.67964
  -0.20203   0.02066   0.67964
  -0.20203   0.02066   0.67964
  -0.20203   0.02066   0.67964
  -0.44203   0.02066   0.67964
  -0.44203   0.02066   0.67964
  -0.44203   0.02066   0.67964
  -0.44203   0.02066   0.67964
  -0.44203   0.02066   0.67964
  -0.44203   0.02066   0.67964
  -0.68203   0.02066   0.67964
  -0.44203   0.02066   0.67964
  -0.68203   0.02066   0.67964
  -0.68203   0.02066   0.67964
  -0.68203   0.02066   0.67964
  -0.68203   0.02066   0.91964
  -0.68203   0.02066   0.67964
  -0.68203   0.02066   0.91964
  -0.92203   0.02066   0.67964
  -0.92203   0.02066   0.67964
  -0.92203   0.02066   0.67964
  -0.92203   0.02066   0.67964
  -0.92203   0.02066   0.67964
  -0.92203   0.02066   0.67964
  -0.92203   0.02066   0.91964
  -0.92203   0.02066   0.91964
  -0.92203   0.02066   0.91964
  -0.92203   0.02066   0.91964
  -0.92203   0.26066   0.91964
  -1.16203   0.02066   0.91964
  -1.16203   0.02066   0.91964
  -1.16203   0.26066   0.91964
  -1.16203   0.02066   0.91964
  -1.16203   0.26066   0.91964
  -1.16203   0.02066   0.91964
  -1.16203   0.26066   0.91964
  -1.16203   0.26066   0.91964
  -1.16203   0.02066   0.91964
  -1.16203   0.02066   0.91964
  -1.16203   0.02066   0.91964
  -1.16203   0.02066   0.91964
  -1.16203   0.02066   0.91964
  -1.16203   0.02066   0.91964
  -1.16203   0.02066   0.91964
  -1.16203   0.02066   0.91964
  -1.16203   0.02066   0.91964
  -1.16203   0.02066   0.91964
  -1.16203   0.02066   0.91964
  -1.16203   0.02066   0.91964
  -1.16203   0.02066   0.91964
  -1.16203   0.02066   0.91964
  -1.16203   0.02066   0.91964
  -1.16203   0.02066   0.91964
  -1.16203   0.02066   0.91964
  -1.16203   0.02066   0.91964
  -1.16203   0.02066   0.91964
  -1.16203   0.02066   0.67964
  -1.16203   0.02066   0.91964
  -1.16203   0.02066   0.91964
  -1.16203   0.02066   0.91964
  -1.16203   0.02066   0.91964
  -1.16203   0.02066   0.91964
  -1.16203   0.02066   0.91964
  -1.16203   0.02066   0.91964
  -1.16203   0.02066   0.91964
  -1.16203  -0.21934   0.91964
  -1.16203  -0.21934   0.91964
  -1.16203   0.02066   0.91964
  -1.16203  -0.21934   0.91964
  -0.92203  -0.21934   0.91964
  -0.92203  -0.21934   0.91964
  -0.92203  -0.21934   0.91964
  -0.92203  -0.21934   0.91964
  -0.92203  -0.21934   0.91964
  -0.92203  -0.21934   0.91964
  -0.92203  -0.21934   0.91964
  -0.92203  -0.21934   0.91964
  -0.92203  -0.21934   0.91964
  -0.92203  -0.21934   0.91964
  -0.92203  -0.21934   0.91964
  -0.92203  -0.21934   0.91964
  -0.68203  -0.21934   0.91964
  -0.92203  -0.21934   0.91964
  -0.92203  -0.21934   1.15964
  -0.68203  -0.21934   0.91964
  -0.68203  -0.21934   0.91964
  -0.92203  -0.21934   0.91964
  -0.68203  -0.21934   0.91964
  -0.68203  -0.21934   1.15964
  -0.68203  -0.21934   1.15964
  -0.68203  -0.21934   0.91964
  -0.68203  -0.21934   0.91964
  -0.68203  -0.21934   1.15964
  -0.68203  -0.21934   0.91964
  -0.68203  -0.21934   0.91964
  -0.44203  -0.45934   0.91964
  -0.68203  -0.45934   1.15964
  -0.44203  -0.45934   1.15964
  -0.68203  -0.21934   1.15964
  -0.44203  -0.45934   1.15964
  -0.44203  -0.45934   1.15964
  -0.44203  -0.45934   0.91964
  -0.44203  -0.21934   1.15964
  -0.44203  -0.21934   0.91964
  -0.44203  -0.21934   1.15964
  -0.44203  -0.21934   1.15964
  -0.44203  -0.21934   1.15964
  -0.44203  -0.21934   1.15964
  -0.44203  -0.21934   0.91964
  -0.44203  -0.21934   1.15964
  -0.44203  -0.21934   0.91964
  -0.44203  -0.21934   1.15964
  -0.44203  -0.21934   1.15964
  -0.44203  -0.21934   0.91964
  -0.44203  -0.21934   0.91964
  -0.44203  -0.21934   1.15964
  -0.44203  -0.21934   0.91964
  -0.44203  -0.21934   1.15964
  -0.20203  -0.21934   0.91964
  -0.20203  -0.21934   0.91964
  -0.44203  -0.21934   1.15964
  -0.44203  -0.21934   0.91964
  -0.20203  -0.21934   0.91964
  -0.20203  -0.21934   1.15964
  -0.20203  -0.21934   0.91964
  -0.20203  -0.21934   0.91964
  -0.20203  -0.21934   0.91964
  -0.44203  -0.21934   0.91964
  -0.20203  -0.21934   0.91964
  -0.44203  -0.21934   0.91964
  -0.20203  -0.21934   0.91964
  -0.20203  -0.21934   0.91964
  -0.44203  -0.21934   0.91964
  -0.44203   0.02066   0.91964
  -0.44203   0.02066   0.91964
  -0.44203   0.02066   0.91964
  -0.44203   0.02066   0.91964
  -0.44203   0.02066   0.67964
  -0.44203   0.02066   0.91964
  -0.44203   0.02066   0.91964
  -0.44203   0.02066   0.91964
  -0.44203   0.02066   0.91964
  -0.44203   0.02066   0.67964
  -0.44203   0.02066   0.67964
  -0.44203   0.02066   0.67964
  -0.44203   0.02066   0.67964
  -0.44203   0.02066   0.67964
  -0.44203   0.02066   0.67964
  -0.44203   0.02066   0.67964
  -0.44203   0.02066   0.67964
  -0.68203   0.02066   0.67964
  -0.68203   0.02066   0.67964
  -0.68203   0.02066   0.67964
  -0.68203   0.02066   0.43964
  -0.68203   0.02066   0.43964
  -0.68203   0.02066   0.43964
  -0.68203   0.02066   0.43964
  -0.68203   0.02066   0.43964
  -0.68203   0.02066   0.43964
  -0.68203   0.02066   0.43964
  -0.68203   0.02066   0.43964
  -0.68203   0.02066   0.43964
  -0.68203   0.02066   0.43964
  -0.68203   0.02066   0.43964
  -0.68203   0.02066   0.19964
  -0.68203   0.02066   0.19964
  -0.68203   0.02066   0.43964
  -0.68203  -0.21934   0.43964
  -0.68203   0.02066   0.19964
  -0.68203   0.02066   0.43964
  -0.68203   0.02066   0.43964
  -0.68203   0.02066   0.19964
  -0.68203   0.02066   0.19964
  -0.68203   0.02066   0.19964
  -0.68203   0.02066   0.19964
  -0.68203   0.02066   0.19964
  -0.92203   0.02066   0.19964
  -0.68203   0.02066   0.19964
  -0.92203   0.02066   0.19964
  -0.92203   0.02066   0.19964
  -0.92203   0.02066   0.19964
  -0.68203   0.02066   0.19964
  -0.92203   0.02066  -0.04036
  -0.68203   0.02066  -0.04036
  -0.92203   0.02066  -0.04036
  -0.92203   0.02066  -0.04036
  -0.92203   0.02066   0.19964
  -0.92203   0.02066  -0.04036
  -0.92203   0.02066   0.19964
  -0.92203   0.02066  -0.04036
  -0.92203   0.02066  -0.04036
  -0.92203   0.02066   0.19964
  -0.92203   0.02066  -0.04036
  -0.92203   0.02066   0.19964
  -0.92203   0.02066   0.19964
  -0.92203   0.02066  -0.04036
  -0.92203   0.02066  -0.04036
  -0.92203   0.02066  -0.04036
  -0.92203   0.02066  -0.04036
  -0.92203   0.02066  -0.04036
  -0.92203   0.02066  -0.04036
  -0.92203   0.02066  -0.04036
  -0.92203   0.02066  -0.04036
  -0.92203   0.02066  -0.04036
  -0.92203   0.02066  -0.04036
  -0.92203   0.02066  -0.04036
  -0.92203   0.02066  -0.04036
  -0.92203   0.02066  -0.04036
  -0.92203   0.02066  -0.04036
  -0.92203   0.02066  -0.04036
  -0.92203   0.02066  -0.04036
  -0.92203   0.02066  -0.04036
  -0.92203   0.02066  -0.04036
  -0.92203   0.02066  -0.04036
  -0.92203   0.02066  -0.04036
  -0.92203   0.02066  -0.04036
  -0.92203   0.02066  -0.04036
  -0.92203   0.02066  -0.04036
  -0.92203   0.02066  -0.04036
  -0.92203   0.02066  -0.28036
  -0.92203   0.02066  -0.04036
  -0.92203  -0.21934  -0.28036
  -0.92203   0.02066  -0.04036
  -0.92203   0.02066  -0.04036
  -0.92203   0.02066  -0.04036
  -0.68203   0.02066  -0.28036
  -0.68203  -0.21934  -0.28036
  -0.68203  -0.21934  -0.28036
  -0.92203  -0.21934  -0.28036
  -0.68203  -0.21934  -0.28036
  -0.68203  -0.21934  -0.28036
  -0.68203  -0.21934  -0.28036
  -0.68203  -0.21934  -0.28036
  -0.68203  -0.21934  -0.28036
  -0.68203  -0.21934  -0.28036
  -0.68203  -0.21934  -0.28036
  -0.68203   0.02066  -0.28036
  -0.68203  -0.21934  -0.52036
  -0.44203   0.02066  -0.28036
  -0.44203  -0.21934  -0.52036
  -0.44203  -0.21934  -0.52036
  -0.44203  -0.21934  -0.52036
  -0.44203  -0.21934  -0.52036
  -0.44203  -0.21934  -0.52036
  -0.44203  -0.21934  -0.52036
  -0.20203  -0.21934  -0.76036
  -0.20203   0.02066  -0.76036
  -0.20203  -0.21934  -0.76036
  -0.20203   0.02066  -0.76036
  -0.20203  -0.21934  -0.76036
  -0.20203   0.02066  -0.76036
  -0.20203  -0.21934  -1.00036
  -0.20203  -0.21934  -1.00036
  -0.20203   0.02066  -1.00036
   0.03797   0.02066  -1.00036
   0.03797   0.02066  -1.00036
   0.03797   0.02066  -1.00036
   0.03797  -0.21934  -1.00036
   0.03797   0.02066  -1.00036
   0.03797   0.02066  -1.00036
   0.03797   0.02066  -1.24036
   0.03797   0.02066  -1.24036
   0.03797   0.02066  -1.24036
   0.03797   0.02066  -1.24036
   0.03797   0.02066  -1.24036
   0.27797   0.02066  -1.24036
   0.27797   0.02066  -1.24036
   0.27797  -0.21934  -1.24036
   0.27797  -0.21934  -1.24036
   0.27797   0.02066  -1.48036
   0.27797   0.02066  -1.48036
   0.27797   0.02066  -1.24036
   0.27797   0.02066  -1.48036
   0.27797   0.02066  -1.48036
   0.27797   0.02066  -1.48036
   0.27797  -0.21934  -1.48036
   0.27797   0.02066  -1.48036
   0.51797   0.02066  -1.48036
   0.51797   0.02066  -1.48036
   0.51797   0.02066  -1.48036
   0.51797   0.02066  -1.48036
   0.51797   0.02066  -1.48036
   0.51797   0.02066  -1.48036
   0.51797   0.02066  -1.48036
   0.51797   0.02066  -1.72036
   0.51797   0.02066  -1.72036
   0.51797   0.02066  -1.72036
   0.51797   0.02066  -1.72036
   0.51797   0.02066  -1.72036
   0.51797   0.02066  -1.72036
   0.75797   0.02066  -1.72036
   0.75797   0.02066  -1.72036
   0.75797   0.02066  -1.72036
   0.75797   0.02066  -1.72036
   0.75797   0.02066  -1.72036
   0.75797  -0.21934  -1.72036
   0.75797  -0.21934  -1.72036
   0.75797   0.02066  -1.72036
   0.75797   0.02066  -1.72036
   0.99797  -0.21934  -1.72036
   0.99797   0.02066  -1.96036
   0.99797  -0.21934  -1.72036
   0.99797  -0.21934  -1.72036
   0.99797  -0.21934  -1.72036
   0.99797   0.02066  -1.72036
   0.99797  -0.21934  -1.72036
   0.99797  -0.21934  -1.72036
   1.22797  -0.21934  -1.72036
   1.22797  -0.21934  -1.72036
   1.22797  -0.21934  -1.72036
   1.22797  -0.21934  -1.72036
   1.22797  -0.21934  -1.72036
   1.22797  -0.21934  -1.72036
   1.22797  -0.21934  -1.72036
   1.22797   0.02066  -1.72036
   1.46797  -0.21934  -1.72036
   1.46797  -0.21934  -1.48036
   1.46797   0.02066  -1.48036
   1.46797  -0.21934  -1.48036
   1.46797  -0.21934  -1.48036
   1.46797  -0.21934  -1.48036
   1.46797   0.02066  -1.48036
   1.46797   0.02066  -1.48036
   1.70797   0.02066  -1.48036
   1.70797  -0.21934  -1.48036
   1.70797  -0.21934  -1.24036
   1.70797   0.02066  -1.24036
   1.70797   0.02066  -1.24036
   1.70797  -0.21934  -1.48036
   1.70797  -0.21934  -1.24036
   1.70797   0.02066  -1.24036
   1.94797  -0.21934  -1.24036
   1.70797   0.02066  -1.24036
   1.94797   0.02066  -1.24036
   1.94797   0.02066  -1.24036
   1.94797   0.02066  -1.00036
   1.94797   0.02066  -1.00036
   1.94797   0.02066  -1.00036
   1.94797   0.02066  -1.00036
   1.94797   0.02066  -1.00036
   1.94797   0.02066  -0.76036
   1.94797   0.02066  -1.00036
   1.94797   0.02066  -0.76036
   1.94797   0.02066  -0.76036
   2.18797   0.02066  -0.52036
   2.18797   0.02066  -0.76036
   2.18797   0.26066  -0.52036
   2.18797   0.26066  -0.52036
   2.18797   0.26066  -0.52036
   2.18797   0.26066  -0.52036
   1.94797   0.26066  -0.52036
   2.18797   0.26066  -0.52036
   1.94797   0.26066  -0.52036
   1.94797   0.26066  -0.52036
   2.18797   0.26066  -0.52036
   1.94797   0.26066  -0.52036
   2.18797   0.26066  -0.52036
   2.18797   0.26066  -0.28036
   2.18797   0.26066  -0.52036
   2.18797   0.26066  -0.28036
   2.18797   0.26066  -0.28036
   2.18797   0.26066  -0.28036
   2.18797   0.50066  -0.28036
   2.18797   0.50066  -0.28036
   1.94797   0.26066  -0.28036
   1.94797   0.50066  -0.28036
   1.94797   0.50066  -0.28036
   1.94797   0.50066  -0.28036
   1.94797   0.50066  -0.28036
   1.94797   0.50066  -0.28036
   1.94797   0.50066  -0.28036
   1.94797   0.50066  -0.28036
   1.94797   0.50066  -0.04036
   1.94797   0.50066  -0.04036
   1.94797   0.50066  -0.04036
   1.94797   0.50066  -0.28036
   1.94797   0.50066  -0.04036
   1.94797   0.50066  -0.28036
   1.94797   0.50066  -0.28036
   1.70797   0.50066  -0.28036
   1.70797   0.50066  -0.04036
   1.70797   0.50066  -0.04036
   1.70797   0.50066  -0.28036
   1.70797   0.50066  -0.04036
   1.70797   0.50066  -0.28036
   1.70797   0.50066  -0.04036
   1.70797   0.50066  -0.04036
   1.70797   0.50066  -0.28036
   1.70797   0.50066  -0.04036
   1.70797   0.50066  -0.04036
   1.46797   0.50066  -0.04036
   1.46797   0.50066  -0.04036
   1.46797   0.50066  -0.04036
   1.46797   0.50066  -0.04036
   1.46797   0.50066  -0.04036
   1.46797   0.50066  -0.28036
   1.46797   0.50066  -0.04036
   1.22797   0.50066  -0.04036
   1.22797   0.50066  -0.28036
   1.22797   0.50066  -0.04036
   1.22797   0.50066  -0.04036
   1.22797   0.50066  -0.04036
   1.22797   0.50066  -0.04036
   1.22797   0.50066  -0.04036
   0.99797   0.50066  -0.04036
   0.99797   0.50066  -0.04036
   0.99797   0.50066  -0.04036
   0.99797   0.50066  -0.04036
   0.99797   0.26066  -0.04036
   0.99797   0.50066  -0.04036
   0.99797   0.50066  -0.04036
   0.99797   0.50066  -0.04036
   0.75797   0.50066  -0.04036
   0.99797   0.50066  -0.04036
   0.75797   0.50066  -0.04036
   0.75797   0.50066  -0.04036
   0.75797   0.50066  -0.04036
   0.75797   0.50066  -0.04036
   0.75797   0.50066  -0.04036
   0.75797   0.50066   0.19964
   0.75797   0.50066   0.19964
   0.75797   0.26066  -0.04036
   0.75797   0.50066  -0.04036
   0.51797   0.26066   0.19964
   0.51797   0.26066   0.19964
   0.51797   0.26066   0.19964
   0.51797   0.26066   0.19964
   0.51797   0.26066   0.19964
   0.51797   0.26066   0.19964
   0.51797   0.26066   0.19964
   0.51797   0.26066   0.19964
   0.51797   0.26066   0.19964
   0.51797   0.26066   0.19964
   0.51797   0.26066   0.43964
   0.51797   0.26066   0.43964
   0.27797   0.26066   0.43964
   0.51797   0.02066   0.43964
   0.27797   0.02066   0.43964
   0.27797   0.02066   0.67964
   0.27797   0.02066   0.43964
   0.27797   0.02066   0.43964
   0.27797   0.02066   0.67964
   0.27797   0.02066   0.43964
   0.27797   0.02066   0.67964
   0.27797   0.02066   0.67964
   0.27797   0.02066   0.67964
   0.27797   0.02066   0.67964
   0.27797   0.02066   0.91964
   0.27797   0.02066   0.67964
   0.27797  -0.21934   0.91964
   0.27797   0.02066   0.91964
   0.27797   0.02066   0.91964
   0.03797  -0.21934   0.91964
   0.03797   0.02066   0.91964
   0.03797  -0.21934   0.91964
   0.03797  -0.21934   0.91964
   0.03797   0.02066   0.91964
   0.03797  -0.21934   0.91964
   0.03797  -0.21934   0.91964
   0.03797  -0.21934   0.91964
   0.03797  -0.21934   0.91964
   0.03797  -0.21934   0.91964
   0.03797  -0.21934   0.91964
   0.03797  -0.21934   0.91964
   0.03797  -0.21934   0.91964
   0.03797  -0.21934   0.91964
   0.03797  -0.21934   0.91964
   0.03797  -0.21934   0.91964
   0.03797  -0.21934   0.91964
   0.03797  -0.21934   0.91964
   0.03797  -0.45934   0.91964
   0.03797  -0.21934   0.91964
   0.03797  -0.21934   0.91964
  -0.20203  -0.45934   0.91964
  -0.20203  -0.45934   0.91964
   0.03797  -0.45934   0.67964
  -0.20203  -0.21934   0.91964
  -0.20203  -0.45934   0.91964
  -0.20203  -0.45934   0.91964
  -0.20203  -0.45934   0.91964
  -0.20203  -0.45934   0.91964
  -0.20203  -0.45934   0.91964
  -0.20203  -0.21934   0.91964
  -0.20203  -0.45934   0.67964
  -0.20203  -0.45934   0.67964
  -0.20203  -0.45934   0.91964
  -0.20203  -0.45934   0.67964
  -0.20203  -0.21934   0.67964
  -0.20203  -0.45934   0.67964
  -0.20203  -0.45934   0.67964
  -0.20203  -0.45934   0.67964
  -0.20203  -0.45934   0.43964
  -0.20203  -0.45934   0.67964
  -0.20203  -0.45934   0.67964
