********************************************************************************
               CENTRO DE INSTRUMENTACION Y REGISTRO SISMICO  A.C.  
                       Coordinacion de Servicios Tecnicos
     Anaxagoras 814, Col. Narvarte, Benito Juarez, C.P. 03020 Mexico, D.F.
            Tels. 667 45 42/ 687 45  82             Fax. 669 25 12
********************************************************************************
ARCHIVO ESTANDAR DE ACELERACION:
VERSION DEL FORMATO                    : 2.0
NOMBRE DEL ARCHIVO                     : BA499607.181
FECHA Y HORA DE CREACION               : 27/MAR/98, 3:55
REF. CATALOGO ACELEROGRAMAS, SMIS 1996 : REGISTRO No.     /PAG.


================================================================================
DATOS DE LA ESTACION:
NOMBRE DE LA ESTACION                  : BUENOS AIRES
CLAVE DE LA ESTACION                   : BA49
LOCALIZACION DE LA ESTACION            : ESCUELA SECUNDARIA 102, DOCTOR MARQUEZ
                                       : Y EJE CENTRAL, BUENOS AIRES.
                                       :
                                       :
                                       :
COORDENADAS DE LA ESTACION             : 19.410 LAT. N 
                                       : 99.145 LONG. W 
ALTITUD (msnm)                         : 2233
TIPO DE SUELO                          : TERRENO BLANDO, MATERIAL COMPRESIBLE
                                       : (ARCILLAS)
                                       : 
INSTITUCION RESPONSABLE                : CIRES 
                                       :

================================================================================
DATOS DEL ACELEROGRAFO:
MODELO DEL ACELEROGRAFO                : SSA-1
NUMERO DE SERIE DEL ACELEROGRAFO       : 176
NUMERO DE CANALES                      : 3
ORIENTACION C1-C6 (rumbo;orientacion)  : /N00E/+V/N90E
ORIENTACION C7-C12 (rumbo;orientacion) :
VEL. DE MUESTREO, C1-C6 (muestras/s)   : /200/200/200
VEL. DE MUESTREO, C7-C12 (muestras/s)  :
ESC. COMPLETA DE SENSORES, C1-C6, (g)  : /2/2/2
ESC. COMPLETA DE SENSORES, C7-C12, (g) :
FREC. NAT. DE SENSORES, C1-C6, (Hz)    : /52.99/52.03/52.99
FREC. NAT. DE SENSORES, C7-C12, (Hz)   :
AMORTIGUAMIENTO DE SENSORES, C1-C6     : /0.5589/0.5469/0.6096
AMORTIGUAMIENTO DE SENSORES, C7-C12    :
INTERVALO DE MUESTREO, C1-C6, (s)      : /0.005/0.005/0.005
INTERVALO DE MUESTREO, C7-C12, (s)     : 
UMBRAL DE DISPARO, C1-C6, (Gal)        : /2/2/2
UMBRAL DE DISPARO, C7-C12, (Gal)       :
MEMORIA DE PREEVENTO (s)               : 15
TIEMPO DE POSEVENTO (s)                : 60


================================================================================
DATOS DEL SISMO:
FECHA DEL SISMO (GMT)                  : 18/JUL/96
HORA EPICENTRO (GMT)                   : 08:16:46,7
MAGNITUD(ES)                           : /Mb=4.9/Ms=4.7/Mc=5.1
COORDENADAS DEL EPICENTRO              : 17.540 LAT. N
                                       : 101.200 LONG. W
PROFUNDIDAD FOCAL (km)                 : 20
FUENTE DE LOS DATOS EPICENTRALES       : SSN
                                       : INSTITUTO DE GEOFISICA, UNAM

================================================================================
DATOS DE ESTE REGISTRO:
HORA DE LA PRIMERA MUESTRA (GMT)       : 08:18:25.00
EXACTITUD DEL TIEMPO (s)               :     
DURACION DEL REGISTRO (s), C1-C6       : /83.20/83.20/83.20
DURACION DEL REGISTRO (s), C7-C12      :
NUM. TOTAL DE MUESTRAS, C1-C6          : /16640/16640/16640
NUM. TOTAL DE MUESTRAS, C7-C12         :
ACEL. MAX. (Gal), C1-C6                : /1.89211/1.09060/2.04385
ACEL. MAX., C1-C6, EN LA MUESTRA       :
ACEL. MAX. (Gal), C7-C12               :
ACEL. MAX., C7-C12, EN LA MUESTRA      :
UNIDADES DE LOS DATOS                  : Gal (cm/s/s)
FACTOR DE DECIMACION                   : 1
FORMATO DATOS (FORTRAN,10 campos/dato) : 3F10.5


================================================================================
CALIDAD DEL ACELEROGRAMA:
REGISTRO DIGITAL COMPLETO, CARECE DE TIEMPO ABSOLUTO.


================================================================================
COMENTARIOS:














================================================================================
DATOS DE ACELERACION:
---------+---------+---------+---------+---------+---------+---------+---------+
   CANAL-1   CANAL-2   CANAL-3   CANAL-4   CANAL-5   CANAL-6   CANAL-7   CANAL-8
      N00E        +V      N90E
---------+---------+---------+---------+---------+---------+---------+---------+
[...]
  -0.49789  -0.34940   0.10615
  -0.49789  -0.10940   0.10615
  -0.49789  -0.10940   0.10615
  -0.49789  -0.34940   0.10615
  -0.49789  -0.10940   0.10615
  -0.49789  -0.10940   0.10615
  -0.49789  -0.10940   0.34615
  -0.49789  -0.10940   0.10615
  -0.49789  -0.10940   0.10615
  -0.49789  -0.10940   0.34615
  -0.73789  -0.10940   0.34615
  -0.73789  -0.10940   0.34615
  -0.49789   0.13060   0.34615
  -0.73789   0.13060   0.58615
  -0.73789   0.13060   0.34615
  -0.73789   0.13060   0.34615
  -0.73789   0.13060   0.34615
  -0.73789   0.13060   0.58615
  -0.73789   0.13060   0.34615
  -0.73789   0.13060   0.58615
  -0.73789   0.13060   0.34615
  -0.73789   0.13060   0.58615
  -0.73789   0.13060   0.58615
  -0.73789   0.13060   0.58615
  -0.73789   0.13060   0.58615
  -0.73789   0.13060   0.58615
  -0.73789   0.13060   0.58615
  -0.73789   0.13060   0.82615
  -0.73789   0.13060   0.82615
  -0.73789   0.13060   0.82615
  -0.97789   0.13060   0.82615
  -0.97789   0.13060   0.82615
  -0.97789   0.13060   0.82615
  -0.97789   0.13060   1.06615
  -0.97789   0.13060   0.82615
  -0.97789   0.13060   1.06615
  -0.97789   0.13060   1.06615
  -0.97789   0.13060   1.06615
  -1.21789   0.13060   1.06615
  -1.21789   0.13060   1.06615
  -1.21789   0.13060   1.06615
  -1.21789   0.13060   1.30615
  -1.21789   0.13060   1.06615
  -1.21789   0.13060   1.30615
  -1.21789   0.13060   1.30615
  -1.21789   0.37060   1.30615
  -1.21789   0.13060   1.30615
  -1.21789   0.37060   1.30615
  -1.45789   0.13060   1.30615
  -1.45789   0.37060   1.30615
  -1.45789   0.13060   1.30615
  -1.45789   0.37060   1.30615
  -1.45789   0.37060   1.30615
  -1.45789   0.37060   1.54615
  -1.21789   0.13060   1.30615
  -1.21789   0.13060   1.30615
  -1.21789   0.13060   1.30615
  -1.21789   0.13060   1.30615
  -1.21789   0.13060   1.30615
  -1.21789   0.13060   1.30615
  -1.21789   0.13060   1.30615
  -1.21789   0.13060   1.30615
  -1.21789   0.13060   1.30615
  -1.21789   0.13060   1.06615
  -1.21789   0.13060   1.06615
  -1.21789   0.13060   1.06615
  -0.97789   0.13060   1.06615
  -0.97789   0.13060   1.06615
  -0.97789   0.13060   1.06615
  -0.97789   0.13060   0.82615
  -0.97789   0.13060   1.06615
  -0.97789   0.13060   0.82615
  -0.97789  -0.10940   0.82615
  -0.73789  -0.10940   0.82615
  -0.73789  -0.10940   0.58615
  -0.73789  -0.10940   0.58615
  -0.73789  -0.10940   0.58615
  -0.73789  -0.10940   0.58615
  -0.73789  -0.10940   0.34615
  -0.73789  -0.10940   0.34615
  -0.73789  -0.10940   0.34615
  -0.49789  -0.10940   0.10615
  -0.49789  -0.10940   0.34615
  -0.49789  -0.10940   0.10615
  -0.49789  -0.10940   0.10615
  -0.49789  -0.10940   0.34615
  -0.49789  -0.10940   0.10615
  -0.49789  -0.34940   0.10615
  -0.25789  -0.10940   0.10615
  -0.25789  -0.34940  -0.13385
  -0.25789  -0.34940  -0.13385
  -0.25789  -0.34940   0.10615
  -0.25789  -0.34940   0.10615
  -0.25789  -0.34940  -0.13385
  -0.25789  -0.34940  -0.13385
  -0.25789  -0.34940  -0.13385
  -0.01789  -0.34940  -0.13385
  -0.25789  -0.10940  -0.13385
  -0.01789  -0.10940  -0.13385
  -0.01789  -0.10940  -0.13385
  -0.01789  -0.10940  -0.13385
  -0.01789  -0.10940  -0.37385
  -0.01789  -0.10940  -0.37385
  -0.01789  -0.10940  -0.37385
  -0.01789  -0.10940  -0.37385
   0.22211  -0.10940  -0.37385
   0.22211  -0.10940  -0.37385
   0.22211  -0.10940  -0.37385
   0.22211  -0.10940  -0.37385
   0.22211  -0.10940  -0.37385
   0.22211  -0.10940  -0.37385
   0.22211  -0.10940  -0.37385
   0.22211  -0.10940  -0.37385
   0.22211  -0.10940  -0.37385
   0.22211  -0.10940  -0.61385
   0.22211  -0.10940  -0.61385
   0.22211  -0.10940  -0.61385
   0.22211  -0.10940  -0.61385
   0.22211  -0.10940  -0.61385
   0.46211  -0.10940  -0.61385
   0.46211  -0.10940  -0.61385
   0.22211  -0.10940  -0.61385
   0.46211  -0.10940  -0.61385
   0.46211   0.13060  -0.61385
   0.46211  -0.10940  -0.61385
   0.46211  -0.10940  -0.61385
   0.46211  -0.10940  -0.84385
   0.46211  -0.10940  -0.61385
   0.46211  -0.10940  -0.61385
   0.46211  -0.10940  -0.61385
   0.22211  -0.10940  -0.84385
   0.46211  -0.10940  -0.84385
   0.46211   0.13060  -0.84385
   0.46211   0.13060  -0.61385
   0.46211  -0.10940  -0.84385
   0.46211   0.13060  -0.84385
   0.46211   0.13060  -0.84385
   0.46211   0.13060  -0.61385
   0.70211   0.13060  -0.84385
   0.70211   0.13060  -0.84385
   0.70211   0.13060  -0.84385
   0.70211   0.13060  -0.84385
   0.70211   0.13060  -0.61385
   0.70211   0.13060  -0.84385
   0.70211  -0.10940  -0.84385
   0.70211  -0.10940  -0.84385
   0.70211  -0.10940  -0.84385
   0.70211  -0.10940  -0.84385
   0.70211  -0.10940  -0.84385
   0.46211  -0.10940  -0.84385
   0.70211  -0.10940  -0.84385
   0.70211  -0.10940  -0.84385
   0.70211  -0.10940  -0.84385
   0.70211  -0.10940  -0.84385
   0.46211  -0.10940  -0.84385
   0.46211  -0.10940  -0.84385
   0.46211  -0.10940  -0.61385
   0.46211  -0.10940  -0.61385
   0.46211  -0.10940  -0.61385
   0.46211  -0.10940  -0.61385
   0.46211  -0.10940  -0.61385
   0.46211  -0.10940  -0.61385
   0.46211  -0.10940  -0.61385
   0.46211  -0.10940  -0.61385
   0.46211  -0.10940  -0.61385
   0.46211  -0.10940  -0.61385
   0.46211  -0.10940  -0.61385
   0.46211  -0.10940  -0.37385
   0.46211  -0.10940  -0.37385
   0.46211   0.13060  -0.37385
   0.46211   0.13060  -0.37385
   0.46211   0.13060  -0.37385
   0.46211   0.13060  -0.37385
   0.46211   0.13060  -0.37385
   0.70211   0.37060  -0.37385
   0.70211   0.37060  -0.13385
   0.70211   0.37060  -0.37385
   0.70211   0.37060  -0.37385
   0.70211   0.13060  -0.37385
   0.70211   0.37060  -0.37385
   0.70211   0.37060  -0.13385
   0.70211   0.37060  -0.13385
   0.70211   0.37060  -0.13385
   0.70211   0.37060  -0.13385
   0.70211   0.37060   0.10615
   0.70211   0.37060   0.10615
   0.70211   0.37060   0.10615
   0.70211   0.37060   0.10615
   0.70211   0.37060   0.10615
   0.70211   0.13060   0.10615
   0.70211   0.13060   0.34615
   0.70211   0.13060   0.10615
   0.70211   0.13060   0.34615
   0.70211   0.13060   0.34615
   0.70211   0.13060   0.58615
   0.70211   0.13060   0.34615
   0.70211   0.13060   0.58615
   0.70211   0.13060   0.34615
   0.70211   0.13060   0.34615
   0.70211   0.13060   0.34615
   0.70211  -0.10940   0.58615
   0.70211  -0.10940   0.58615
   0.70211  -0.10940   0.58615
   0.70211  -0.10940   0.58615
   0.70211  -0.10940   0.58615
   0.70211  -0.10940   0.58615
   0.94211  -0.10940   0.58615
   0.94211  -0.10940   0.58615
   0.94211  -0.10940   0.58615
   0.94211  -0.34940   0.58615
   0.94211  -0.10940   0.58615
   0.94211  -0.34940   0.58615
   0.94211  -0.34940   0.58615
   0.94211  -0.34940   0.58615
   0.94211  -0.10940   0.34615
   0.70211  -0.34940   0.58615
   0.70211  -0.10940   0.58615
   0.70211  -0.10940   0.58615
   0.70211  -0.10940   0.34615
   0.70211  -0.34940   0.34615
   0.70211  -0.10940   0.34615
   0.70211  -0.10940   0.34615
   0.70211  -0.34940   0.34615
   0.70211  -0.34940   0.34615
   0.70211  -0.34940   0.34615
   0.46211  -0.34940   0.10615
   0.46211  -0.34940   0.10615
   0.46211  -0.34940   0.34615
   0.46211  -0.34940   0.34615
   0.46211  -0.34940   0.34615
   0.46211  -0.34940   0.10615
   0.22211  -0.34940   0.34615
   0.22211  -0.34940   0.34615
   0.22211  -0.34940   0.34615
   0.22211  -0.10940   0.34615
  -0.01789  -0.10940   0.34615
  -0.01789  -0.10940   0.34615
  -0.01789  -0.10940   0.34615
  -0.25789  -0.10940   0.34615
  -0.25789  -0.10940   0.34615
  -0.25789  -0.10940   0.34615
  -0.25789   0.13060   0.34615
  -0.25789   0.13060   0.34615
  -0.49789   0.13060   0.34615
  -0.49789   0.13060   0.34615
  -0.49789   0.13060   0.34615
  -0.49789   0.13060   0.58615
  -0.73789   0.13060   0.34615
  -0.73789   0.13060   0.34615
  -0.73789   0.13060   0.58615
  -0.73789   0.13060   0.34615
  -0.73789   0.37060   0.58615
  -0.73789   0.37060   0.34615
  -0.97789   0.37060   0.34615
  -0.73789   0.37060   0.34615
  -0.73789   0.37060   0.34615
  -0.97789   0.37060   0.34615
  -0.97789   0.37060   0.34615
  -0.97789   0.37060   0.34615
  -0.97789   0.37060   0.58615
  -0.97789   0.37060   0.58615
  -0.97789   0.37060   0.58615
  -0.97789   0.37060   0.34615
  -0.97789   0.37060   0.58615
  -0.97789   0.37060   0.58615
  -0.97789   0.37060   0.58615
  -0.97789   0.37060   0.58615
  -0.97789   0.37060   0.58615
  -0.97789   0.37060   0.58615
  -0.97789   0.37060   0.58615
  -0.97789   0.37060   0.58615
  -0.97789   0.13060   0.58615
  -0.97789   0.13060   0.58615
  -0.97789   0.13060   0.58615
  -0.73789   0.13060   0.58615
  -0.73789  -0.10940   0.58615
  -0.73789   0.13060   0.58615
  -0.97789  -0.10940   0.58615
  -0.73789  -0.10940   0.58615
  -0.73789  -0.10940   0.58615
  -0.73789  -0.10940   0.58615
  -0.73789  -0.10940   0.82615
  -0.73789  -0.10940   0.58615
  -0.73789  -0.10940   0.58615
  -0.73789  -0.10940   0.58615
  -0.73789  -0.10940   0.58615
  -0.73789  -0.10940   0.58615
  -0.73789  -0.10940   0.58615
  -0.73789  -0.10940   0.58615
  -0.49789  -0.10940   0.58615
  -0.49789  -0.10940   0.58615
  -0.49789  -0.10940   0.58615
  -0.49789  -0.10940   0.34615
  -0.49789  -0.10940   0.34615
  -0.49789  -0.34940   0.34615
  -0.49789  -0.34940   0.10615
  -0.49789  -0.34940   0.10615
  -0.25789  -0.34940   0.10615
  -0.25789  -0.34940   0.34615
  -0.25789  -0.34940   0.10615
  -0.25789  -0.34940  -0.13385
  -0.25789  -0.34940   0.10615
  -0.25789  -0.34940   0.10615
  -0.25789  -0.34940  -0.13385
  -0.25789  -0.34940   0.10615
  -0.25789  -0.34940   0.10615
  -0.25789  -0.34940   0.10615
  -0.01789  -0.34940   0.10615
  -0.01789  -0.34940  -0.13385
  -0.01789  -0.34940  -0.13385
  -0.01789  -0.34940  -0.13385
  -0.01789  -0.34940  -0.13385
  -0.01789  -0.34940  -0.37385
   0.22211  -0.34940  -0.37385
   0.22211  -0.34940  -0.37385
   0.22211  -0.34940  -0.37385
   0.22211  -0.10940  -0.61385
   0.22211  -0.10940  -0.61385
   0.46211  -0.10940  -0.84385
   0.46211  -0.10940  -0.61385
   0.46211  -0.10940  -0.61385
   0.70211  -0.10940  -0.84385
   0.46211  -0.10940  -0.84385
   0.46211  -0.10940  -0.61385
   0.70211  -0.10940  -0.84385
   0.70211  -0.10940  -0.84385
   0.70211  -0.10940  -0.84385
   0.70211  -0.10940  -1.08385
   0.70211  -0.10940  -1.08385
   0.70211  -0.10940  -1.32385
   0.70211  -0.10940  -1.32385
   0.94211  -0.10940  -1.32385
   0.94211  -0.10940  -1.32385
   0.94211  -0.10940  -1.32385
   0.94211  -0.10940  -1.56385
   0.94211  -0.10940  -1.56385
   0.94211  -0.10940  -1.56385
   0.94211  -0.10940  -1.56385
   0.94211  -0.10940  -1.80385
   0.94211  -0.10940  -1.80385
   0.94211  -0.10940  -1.80385
   0.94211  -0.10940  -1.80385
   0.94211  -0.10940  -1.80385
   0.94211  -0.10940  -1.80385
   0.94211  -0.10940  -1.80385
   0.94211  -0.10940  -1.80385
   0.94211   0.13060  -1.80385
   0.70211   0.13060  -1.80385
   0.70211   0.13060  -1.80385
   0.70211   0.13060  -2.04385
   0.70211   0.13060  -2.04385
   0.70211   0.13060  -2.04385
   0.70211   0.13060  -2.04385
   0.70211   0.13060  -1.80385
   0.70211   0.13060  -1.80385
   0.70211   0.13060  -1.80385
   0.46211   0.13060  -1.80385
   0.46211   0.13060  -1.80385
   0.46211   0.13060  -1.80385
   0.46211   0.13060  -1.80385
   0.46211   0.37060  -1.56385
   0.46211   0.37060  -1.56385
   0.46211   0.37060  -1.56385
   0.46211   0.37060  -1.56385
   0.46211   0.37060  -1.56385
   0.22211   0.37060  -1.32385
   0.22211   0.37060  -1.32385
   0.22211   0.37060  -1.32385
   0.22211   0.37060  -1.32385
   0.22211   0.37060  -1.32385
   0.22211   0.37060  -1.32385
   0.22211   0.37060  -1.32385
   0.22211   0.61060  -1.08385
  -0.01789   0.37060  -1.08385
  -0.01789   0.61060  -1.08385
  -0.01789   0.61060  -1.08385
  -0.01789   0.37060  -0.84385
  -0.01789   0.61060  -0.84385
  -0.01789   0.37060  -0.84385
  -0.01789   0.61060  -0.61385
  -0.01789   0.61060  -0.61385
  -0.01789   0.37060  -0.61385
  -0.01789   0.37060  -0.61385
  -0.01789   0.37060  -0.37385
  -0.01789   0.37060  -0.37385
  -0.01789   0.37060  -0.37385
  -0.01789   0.37060  -0.13385
  -0.25789   0.37060  -0.13385
  -0.25789   0.37060  -0.13385
  -0.25789   0.37060  -0.13385
  -0.01789   0.37060   0.10615
  -0.01789   0.37060   0.10615
  -0.25789   0.13060   0.10615
  -0.25789   0.13060   0.10615
  -0.25789   0.13060   0.34615
  -0.25789   0.13060   0.34615
  -0.25789   0.13060   0.34615
  -0.25789   0.13060   0.58615
  -0.25789   0.13060   0.34615
  -0.25789  -0.10940   0.58615
  -0.25789  -0.10940   0.58615
  -0.01789  -0.10940   0.58615
  -0.01789  -0.10940   0.82615
  -0.01789  -0.10940   0.58615
  -0.01789  -0.10940   0.58615
  -0.01789  -0.10940   0.82615
  -0.01789  -0.10940   0.82615
  -0.01789  -0.10940   0.82615
  -0.01789  -0.34940   0.82615
  -0.01789  -0.34940   0.82615
  -0.01789  -0.34940   0.82615
  -0.01789  -0.34940   1.06615
  -0.01789  -0.34940   1.06615
  -0.01789  -0.34940   1.06615
  -0.01789  -0.34940   1.06615
  -0.01789  -0.58940   1.06615
  -0.01789  -0.34940   1.30615
   0.22211  -0.34940   1.30615
   0.22211  -0.58940   1.06615
   0.22211  -0.34940   1.30615
   0.22211  -0.58940   1.30615
  -0.01789  -0.58940   1.30615
   0.22211  -0.34940   1.30615
   0.22211  -0.34940   1.30615
   0.22211  -0.34940   1.30615
   0.22211  -0.34940   1.30615
   0.22211  -0.34940   1.30615
   0.22211  -0.34940   1.30615
   0.22211  -0.34940   1.30615
   0.22211  -0.34940   1.54615
   0.22211  -0.34940   1.30615
  -0.01789  -0.10940   1.54615
  -0.01789  -0.34940   1.54615
   0.22211  -0.34940   1.30615
  -0.01789  -0.34940   1.30615
  -0.01789  -0.10940   1.54615
  -0.01789  -0.34940   1.30615
  -0.01789  -0.34940   1.54615
  -0.01789  -0.34940   1.30615
  -0.01789  -0.34940   1.54615
  -0.01789  -0.34940   1.30615
  -0.01789  -0.10940   1.30615
  -0.01789  -0.34940   1.30615
  -0.25789  -0.10940   1.30615
  -0.25789  -0.10940   1.30615
  -0.25789  -0.10940   1.30615
  -0.25789  -0.10940   1.30615
  -0.25789  -0.10940   1.30615
  -0.25789  -0.10940   1.30615
  -0.25789  -0.10940   1.06615
  -0.49789  -0.10940   1.06615
  -0.49789  -0.10940   1.06615
  -0.49789  -0.10940   1.06615
  -0.49789   0.13060   1.06615
  -0.49789   0.13060   0.82615
  -0.49789   0.13060   0.82615
  -0.49789   0.13060   0.82615
  -0.49789   0.13060   0.82615
  -0.73789   0.13060   0.82615
  -0.73789   0.13060   0.82615
  -0.73789   0.13060   0.58615
  -0.73789   0.13060   0.58615
  -0.73789   0.13060   0.58615
  -0.73789   0.13060   0.34615
  -0.73789   0.13060   0.34615
  -0.73789   0.13060   0.34615
  -0.73789   0.13060   0.34615
  -0.73789   0.37060   0.34615
  -0.73789   0.13060   0.10615
  -0.73789   0.37060   0.10615
  -0.73789   0.37060   0.10615
  -0.73789   0.37060   0.10615
  -0.73789   0.37060   0.10615
  -0.49789   0.37060   0.10615
  -0.49789   0.37060   0.10615
  -0.73789   0.37060  -0.13385
  -0.49789   0.37060  -0.13385
  -0.49789   0.37060  -0.13385
  -0.49789   0.37060  -0.13385
  -0.49789   0.37060  -0.13385
  -0.49789   0.37060  -0.37385
  -0.49789   0.37060  -0.13385
  -0.49789   0.37060  -0.37385
  -0.49789   0.37060  -0.37385
  -0.49789   0.37060  -0.37385
  -0.49789   0.37060  -0.37385
  -0.49789   0.37060  -0.37385
  -0.49789   0.37060  -0.61385
  -0.49789   0.37060  -0.61385
  -0.49789   0.37060  -0.61385
  -0.49789   0.37060  -0.61385
  -0.49789   0.37060  -0.61385
  -0.49789   0.37060  -0.61385
  -0.73789   0.37060  -0.61385
  -0.73789   0.37060  -0.61385
  -0.73789   0.37060  -0.61385
  -0.73789   0.37060  -0.61385
  -0.73789   0.37060  -0.61385
  -0.73789   0.37060  -0.61385
