********************************************************************************
              CENTRO DE INSTRUMENTACION Y REGISTRO SISMICO  A.C.

    Anaxagoras 814, Col. Narvarte, Benito Juarez, C.P. 03020 Mexico, D.F.
           Tels. 5687 45 42/ 5687 45  82             Fax. 5669 25 12
********************************************************************************
ARCHIVO ESTANDAR DE ACELERACION:
VERSION DEL FORMATO                    : 2.0
NOMBRE DEL ARCHIVO                     : BA4920130422011634
FECHA Y HORA DE CREACION               : 06/MAY/13, 11:44
REF. CATALOGO ACELEROGRAMAS, SMIS 1996 : REGISTRO No.     /PAG.


================================================================================
DATOS DE LA ESTACION:
NOMBRE DE LA ESTACION                  : BUENOS AIRES
CLAVE DE LA ESTACION                   : BA49
LOCALIZACION DE LA ESTACION            : Del. Cuauhtémoc, Col. Doctores,        
                                       : Av. Lázaro Cárdenas esq. con           
                                       : Calle Dr. Márquez.                     
                                       :                                        
                                       : 
COORDENADAS DE LA ESTACION             : 19.4097 LAT. N
                                       : 99.1450 LONG. W
ALTITUD (msnm)                         : 2233
TIPO DE SUELO                          : Terreno blando, material compresible
                                       : (arcillas)                
                                       : 
INSTITUCION RESPONSABLE                : CIRES
                                       : 

================================================================================
DATOS DEL ACELEROGRAFO:
MODELO DEL ACELEROGRAFO                : RADESD
NUMERO DE SERIE DEL ACELEROGRAFO       : 176
NUMERO DE CANALES                      : 3
ORIENTACION C1-C6 (rumbo;orientacion)  : /N00E/+V/N90W
ORIENTACION C7-C12 (rumbo;orientacion) : 
VEL. DE MUESTREO, C1-C6 (muestras/s)   : /100/100/100
VEL. DE MUESTREO, C7-C12 (muestras/s)  : 
ESC. COMPLETA DE SENSORES, C1-C6, (g)  : /0.5/0.5/0.5
ESC. COMPLETA DE SENSORES, C7-C12, (g) : 
FREC. NAT. DE SENSORES, C1-C6, (Hz)    : /52.99/52.03/52.99
FREC. NAT. DE SENSORES, C7-C12, (Hz)   : 
AMORTIGUAMIENTO DE SENSORES, C1-C6     : /0.5589/0.5469/0.6096
AMORTIGUAMIENTO DE SENSORES, C7-C12    : 
INTERVALO DE MUESTREO, C1-C6, (s)      : /0.01/0.01/0.01
INTERVALO DE MUESTREO, C7-C12, (s)     : 
UMBRAL DE DISPARO, C1-C6, (Gal)        : /15.32/30.65/15.32
UMBRAL DE DISPARO, C7-C12, (Gal)       : 
MEMORIA DE PREEVENTO (s)               : 56.0
TIEMPO DE POSEVENTO (s)                : 80.0


================================================================================
DATOS DEL SISMO:
FECHA DEL SISMO (GMT)                  : 22/ABR/13
HORA EPICENTRO (GMT)                   : 01:16:34.0
MAGNITUD(ES)                           : /Mc=5.8
COORDENADAS DEL EPICENTRO              : 17.87 LAT. N
                                       : 102.19 LONG. W
PROFUNDIDAD FOCAL (km)                 : 10
FUENTE DE LOS DATOS EPICENTRALES       : SSN
                                       : INSTITUTO DE GEOFISICA, UNAM

================================================================================
DATOS DE ESTE REGISTRO:
HORA DE LA PRIMERA MUESTRA (GMT)       : 01:17:44.00
EXACTITUD DEL TIEMPO (s)               : 0.01
DURACION DEL REGISTRO (s), C1-C6       : /330.0/330.0/330.0
DURACION DEL REGISTRO (s), C7-C12      : 
NUM. TOTAL DE MUESTRAS, C1-C6          : /33000/33000/33000
NUM. TOTAL DE MUESTRAS, C7-C12         : 
ACEL. MAX. (Gal), C1-C6                : /9.66149/2.85438/11.26861
ACEL. MAX., C1-C6, EN LA MUESTRA       : /11074/8621/9375
ACEL. MAX. (Gal), C7-C12               : 
ACEL. MAX., C7-C12, EN LA MUESTRA      : 
UNIDADES DE LOS DATOS                  : Gal (cm/s/s)
FACTOR DE DECIMACION                   : 1
FORMATO DATOS (FORTRAN,10 campos/dato) : 3F10.5


================================================================================
CALIDAD DEL ACELEROGRAMA:
REGISTRO DIGITAL COMPLETO CON TIEMPO ABSOLUTO CORRECTO.


================================================================================
COMENTARIOS:














================================================================================
DATOS DE ACELERACION:
---------+---------+---------+---------+---------+---------+---------+---------+
   CANAL-1   CANAL-2   CANAL-3   CANAL-4   CANAL-5   CANAL-6   CANAL-7   CANAL-8
      N00E        +V      N90W
---------+---------+---------+---------+---------+---------+---------+---------+
[...]
   1.04236  -1.67964   6.04446
   1.16207  -1.69460   6.46344
   1.19200  -1.67964   6.88243
   1.23689  -1.61979   7.21163
   1.35660  -1.61979   7.52587
   1.40149  -1.53000   7.82515
   1.46135  -1.47015   8.16931
   1.58106  -1.41029   8.43866
   1.67084  -1.29058   8.60326
   1.76062  -1.20080   8.88757
   1.83544  -1.12598   9.03721
   1.91026  -1.00627   9.17188
   2.07486  -0.88656   9.18685
   2.19457  -0.81174   9.33649
   2.31428  -0.72196   9.41130
   2.47888  -0.66210   9.45620
   2.62852  -0.55736   9.48612
   2.79312  -0.48254   9.50109
   2.94276  -0.39276   9.48612
   3.06247  -0.27305   9.38138
   3.22707  -0.36283   9.32152
   3.37671  -0.22816   9.21678
   3.57124  -0.15334   9.06714
   3.70591  -0.07852   8.94743
   3.82562  -0.03363   8.84268
   4.00519  -0.04859   8.70801
   4.09497   0.10105   8.55837
   4.25957   0.19083   8.39377
   4.33439   0.34047   8.30399
   4.40921   0.44521   8.18428
   4.49899   0.57989   8.01968
   4.55885   0.74449   7.97478
   4.58877   0.83427   7.91493
   4.58877   0.92405   7.82515
   4.63366   1.01384   7.78025
   4.61870   1.16347   7.73536
   4.57381   1.11858   7.73536
   4.48403   1.16347   7.72040
   4.36432   1.16347   7.70544
   4.24461   1.13355   7.76529
   4.10993   1.17844   7.70544
   3.88548   1.26822   7.73536
   3.67598   1.26822   7.70544
   3.42160   1.29815   7.72040
   3.07743   1.32808   7.66054
   2.82305   1.32808   7.66054
   2.52377   1.35800   7.57076
   2.19457   1.38793   7.54083
   1.88033   1.43282   7.52587
   1.49128   1.49268   7.40616
   1.19200   1.46275   7.28645
   0.83287   1.44779   7.21163
   0.47374   1.49268   7.09192
   0.14454   1.49268   7.00214
  -0.18467   1.37297   6.77768
  -0.52883   1.29815   6.62805
  -0.84307   1.29815   6.41855
  -1.12738   1.20837   6.20906
  -1.50148   1.14851   5.96964
  -1.75586   0.95398   5.71526
  -2.07010   0.89413   5.41598
  -2.35441   0.69960   5.17656
  -2.60880   0.62478   4.90721
  -2.89311   0.47514   4.57801
  -3.11756   0.26565   4.30866
  -3.35698   0.13097   3.99442
  -3.59640  -0.06355   3.69515
  -3.82086  -0.16830   3.33602
  -3.98546  -0.39276   3.03674
  -4.16503  -0.57232   2.64769
  -4.26977  -0.73692   2.40826
  -4.43437  -0.87160   2.03417
  -4.53912  -0.99131   1.71993
  -4.68876  -1.06613   1.37577
  -4.80847  -1.15591   1.07649
  -4.89825  -1.36540   0.76225
  -4.97307  -1.39533   0.46298
  -5.04789  -1.50008   0.19363
  -5.10774  -1.57489  -0.10565
  -5.15263  -1.67964  -0.43485
  -5.13767  -1.73950  -0.64434
  -5.10774  -1.75446  -0.89873
  -5.10774  -1.82928  -1.16807
  -5.04789  -1.84424  -1.48231
  -5.00300  -1.91906  -1.61699
  -4.97307  -1.97892  -1.85641
  -4.85336  -1.93402  -2.06590
  -4.77854  -2.03877  -2.20057
  -4.67379  -1.96395  -2.38014
  -4.58401  -1.96395  -2.52978
  -4.52416  -1.96395  -2.67941
  -4.40445  -1.94899  -2.79912
  -4.26977  -2.06870  -2.85898
  -4.19495  -2.06870  -2.99365
  -4.09021  -2.09863  -3.06847
  -3.95553  -2.06870  -3.14329
  -3.91064  -2.03877  -3.21811
  -3.82086  -1.97892  -3.27796
  -3.71611  -1.87417  -3.39767
  -3.65626  -1.81431  -3.45753
  -3.58144  -1.69460  -3.57724
  -3.47669  -1.61979  -3.63709
  -3.40187  -1.50008  -3.77177
  -3.31209  -1.42526  -3.90644
  -3.23727  -1.33547  -4.02615
  -3.13253  -1.23073  -4.20572
  -3.13253  -1.15591  -4.37032
  -3.04274  -1.03620  -4.56485
  -2.98289  -0.91649  -4.71449
  -2.90807  -0.78181  -4.92398
  -2.86318  -0.69203  -5.14843
  -2.78836  -0.51247  -5.31304
  -2.71354  -0.40772  -5.53749
  -2.62376  -0.27305  -5.71706
  -2.56390  -0.18326  -5.92655
  -2.45916  -0.10845  -6.09115
  -2.36937  -0.00370  -6.25575
  -2.27959   0.16090  -6.40539
  -2.15988   0.28061  -6.62985
  -2.07010   0.37039  -6.79445
  -1.96535   0.47514  -6.97401
  -1.90550   0.53500  -7.09372
  -1.75586   0.59485  -7.25832
  -1.66608   0.65471  -7.45285
  -1.54637   0.71456  -7.64738
  -1.45659   0.78938  -7.78206
  -1.36680   0.84924  -7.96162
  -1.32191   0.90909  -8.14119
  -1.21717   0.98391  -8.30579
  -1.15731   1.05873  -8.47039
  -1.08249   1.10362  -8.57514
  -1.06753   1.23829  -8.75470
  -1.03760   1.29815  -8.91930
  -0.99271   1.35800  -9.05398
  -0.96278   1.46275  -9.17369
  -0.94782   1.53757  -9.32332
  -0.97775   1.59742  -9.36821
  -0.99271   1.68721  -9.50289
  -0.97775   1.71713  -9.56274
  -0.97775   1.73210  -9.59267
  -0.96278   1.70217  -9.62260
  -1.03760   1.71713  -9.62260
  -1.03760   1.67224  -9.59267
  -1.08249   1.67224  -9.56274
  -1.14235   1.67224  -9.47296
  -1.26206   1.61239  -9.42807
  -1.29198   1.49268  -9.26347
  -1.41169   1.40289  -9.11383
  -1.44162   1.29815  -8.94923
  -1.50148   1.22333  -8.66492
  -1.59126   1.13355  -8.44046
  -1.75586   1.22333  -8.23097
  -1.84564   1.29815  -8.05140
  -2.04017   1.29815  -7.85687
  -2.17485   1.25326  -7.64738
  -2.29456   1.02880  -7.46782
  -2.41427   0.87916  -7.22840
  -2.54894   0.74449  -6.94409
  -2.68361   0.59485  -6.65977
  -2.77340   0.56492  -6.40539
  -2.89311   0.56492  -6.21086
  -2.98289   0.59485  -6.04626
  -3.08764   0.57989  -5.86669
  -3.13253   0.49010  -5.77691
  -3.13253   0.43025  -5.64224
  -3.13253   0.26565  -5.46267
  -3.05771   0.20579  -5.26814
  -2.93800   0.11601  -5.08858
  -2.78836   0.05616  -4.93894
  -2.69858   0.07112  -4.75938
  -2.51901  -0.01866  -4.65463
  -2.33945  -0.03363  -4.54988
  -2.10003  -0.12341  -4.41521
  -1.83068  -0.30297  -4.20572
  -1.57630  -0.46758  -4.05608
  -1.26206  -0.64714  -3.78673
  -0.93285  -0.75189  -3.56228
  -0.60365  -0.76685  -3.29293
  -0.25948  -0.76685  -3.06847
   0.08468  -0.79678  -2.85898
   0.48870  -0.85663  -2.63452
   0.81791  -0.87160  -2.42503
   1.17704  -0.99131  -2.18561
   1.56609  -1.03620  -1.97612
   1.98508  -1.17087  -1.67684
   2.40406  -1.24569  -1.37757
   2.80809  -1.20080  -1.12318
   3.18218  -1.09605  -0.83887
   3.57124  -1.00627  -0.61441
   3.96030  -0.88656  -0.37499
   4.27453  -0.85663  -0.18047
   4.64863  -0.81174   0.04399
   4.97783  -0.81174   0.31334
   5.35193  -0.78181   0.62758
   5.63624  -0.67707   0.83707
   5.93551  -0.51247   1.09145
   6.18990  -0.45261   1.30095
   6.39939  -0.28801   1.54037
   6.63881  -0.21319   1.79475
   6.84830  -0.07852   1.95935
   7.02787   0.02623   2.18381
   7.20743   0.16090   2.46812
   7.40196   0.28061   2.64769
   7.55160   0.40032   2.93200
   7.68627   0.54996   3.17142
   7.80598   0.60981   3.45573
   7.92569   0.75945   3.68018
   8.00051   0.87916   3.87471
   8.13518   0.95398   4.05428
   8.18008   0.98391   4.30866
   8.25489   1.08866   4.53312
   8.29979   1.11858   4.74261
   8.28482   1.22333   4.92218
   8.28482   1.28318   5.07181
   8.23993   1.31311   5.28131
   8.16511   1.23829   5.44591
   8.06037   1.32808   5.52073
   7.94066   1.32808   5.74518
   7.77605   1.28318   5.83497
   7.56656   1.37297   5.93971
   7.31218   1.40289   6.14920
   7.07276   1.43282   6.16417
   6.83334   1.44779   6.29884
   6.57895   1.37297   6.34373
   6.32457   1.46275   6.40359
   6.02529   1.47771   6.52330
   5.71106   1.46275   6.59812
   5.38185   1.47771   6.68790
   5.11251   1.47771   6.73279
   4.79827   1.43282   6.91236
   4.45410   1.44779   6.95725
   4.16979   1.41786   7.03207
   3.91540   1.29815   7.06199
   3.61613   1.20837   7.18170
   3.34678   1.04376   7.28645
   3.07743   0.78938   7.45105
   2.80809   0.72953   7.54083
   2.49385   0.57989   7.67551
   2.20954   0.47514   7.79522
   1.94019   0.28061   7.91493
   1.64091   0.07112   8.00471
   1.32667  -0.18326   8.15435
   1.05733  -0.36283   8.28902
   0.75805  -0.60225   8.46859
   0.47374  -0.82671   8.61823
   0.23432  -1.00627   8.73794
  -0.10985  -1.11102   8.87261
  -0.37919  -1.29058   9.02225
  -0.73833  -1.39533   9.03721
  -1.03760  -1.53000   9.08210
  -1.32191  -1.70957   9.23174
  -1.62119  -1.70957   9.27663
  -1.92046  -1.87417   9.39634
  -2.14492  -1.90410   9.45620
  -2.41427  -1.93402   9.51605
  -2.62376  -2.03877   9.57591
  -2.86318  -2.09863   9.62080
  -3.05771  -2.11359   9.72554
  -3.26720  -2.08366   9.69562
  -3.44677  -1.99388   9.62080
  -3.68619  -1.96395   9.68065
  -3.83582  -1.96395   9.66569
  -3.94057  -1.96395   9.59087
  -4.04532  -2.00884   9.63576
  -4.16503  -1.96395   9.56094
  -4.28474  -1.93402   9.53101
  -4.35956  -1.94899   9.50109
  -4.43437  -1.88913   9.41130
  -4.50919  -1.76942   9.30656
  -4.56905  -1.72453   9.29159
  -4.61394  -1.61979   9.12699
  -4.61394  -1.53000   8.99232
  -4.58401  -1.58986   8.84268
  -4.59898  -1.44022   8.67808
  -4.62890  -1.32051   8.49852
  -4.56905  -1.29058   8.24413
  -4.53912  -1.18584   8.00471
  -4.52416  -1.08109   7.81018
  -4.40445  -1.05116   7.57076
  -4.29970  -0.91649   7.28645
  -4.15006  -0.88656   7.06199
  -4.04532  -0.76685   6.71783
  -3.89568  -0.70700   6.49337
  -3.76100  -0.67707   6.11928
  -3.52158  -0.66210   5.80504
  -3.34202  -0.57232   5.44591
  -3.07267  -0.52743   5.14663
  -2.84822  -0.40772   4.86232
  -2.66865  -0.28801   4.53312
  -2.42923  -0.22816   4.14406
  -2.18981  -0.18326   3.78493
  -1.95039  -0.06355   3.39587
  -1.75586  -0.04859   3.06667
  -1.51644   0.04119   2.75243
  -1.23213   0.17587   2.43819
  -1.03760   0.14594   2.18381
  -0.84307   0.28061   1.76482
  -0.69343   0.41529   1.40569
  -0.49890   0.47514   1.01664
  -0.36423   0.57989   0.61261
  -0.27445   0.63974   0.26845
  -0.13977   0.77442  -0.12061
  -0.04999   0.84924  -0.46478
  -0.00510   0.98391  -0.85383
  -0.00510   1.08866  -1.21297
  -0.03503   1.17844  -1.63195
  -0.10985   1.31311  -2.06590
  -0.19963   1.40289  -2.45496
  -0.33430   1.52260  -2.85898
  -0.49890   1.58246  -3.20315
  -0.66351   1.64231  -3.56228
  -0.82811   1.67224  -3.89148
  -1.02264   1.71713  -4.28054
  -1.21717   1.70217  -4.65463
  -1.44162   1.77699  -4.99880
  -1.62119   1.70217  -5.29807
  -1.80075   1.70217  -5.61231
  -1.99528   1.64231  -5.92655
  -2.20477   1.58246  -6.19590
  -2.36937   1.47771  -6.49517
  -2.54894   1.40289  -6.79445
  -2.71354   1.29815  -7.07876
  -2.89311   1.14851  -7.36307
  -2.99785   0.98391  -7.63242
  -3.11756   0.83427  -7.90177
  -3.25224   0.69960  -8.14119
  -3.41684   0.54996  -8.39557
  -3.52158   0.41529  -8.62003
  -3.64129   0.23572  -8.87441
  -3.76100   0.08608  -9.09887
  -3.86575  -0.09348  -9.29340
  -3.95553  -0.22816  -9.50289
  -4.12013  -0.31794  -9.74231
  -4.19495  -0.45261  -9.93684
  -4.34459  -0.52743 -10.14633
  -4.41941  -0.61721 -10.38575
  -4.55408  -0.72196 -10.47553
  -4.64387  -0.81174 -10.64013
  -4.76358  -0.94642 -10.75984
  -4.88329  -1.03620 -10.86459
  -4.97307  -1.09605 -10.96934
  -5.04789  -1.20080 -11.04416
  -5.13767  -1.23073 -11.08905
  -5.15263  -1.32051 -11.14890
  -5.16760  -1.36540 -11.22372
  -5.18256  -1.36540 -11.23868
  -5.16760  -1.41029 -11.25365
  -5.09278  -1.38037 -11.26861
  -4.98803  -1.39533 -11.25365
  -4.88329  -1.44022 -11.20876
  -4.77854  -1.47015 -11.16387
  -4.62890  -1.50008 -11.05912
  -4.44934  -1.48511 -11.04416
  -4.26977  -1.48511 -10.96934
  -4.07524  -1.45518 -10.86459
  -3.86575  -1.45518 -10.74488
  -3.67122  -1.48511 -10.62517
  -3.43180  -1.45518 -10.52042
  -3.19238  -1.41029 -10.32590
  -2.96793  -1.33547 -10.14633
  -2.72851  -1.36540 -10.01166
  -2.48909  -1.33547  -9.80216
  -2.24966  -1.27562  -9.60763
  -1.99528  -1.21576  -9.42807
  -1.77082  -1.15591  -9.18865
  -1.50148  -1.08109  -8.93427
  -1.23213  -1.05116  -8.70981
  -1.00767  -0.97634  -8.44046
  -0.75329  -0.85663  -8.18608
  -0.49890  -0.78181  -7.93169
  -0.25948  -0.66210  -7.64738
   0.05475  -0.54239  -7.36307
   0.35403  -0.46758  -7.06380
   0.66827  -0.31794  -6.80941
   0.92265  -0.25808  -6.46525
   1.25186  -0.13837  -6.19590
   1.55113  -0.00370  -5.86669
   1.85041   0.11601  -5.53749
   2.19457   0.17587  -5.20829
   2.50881   0.31054  -4.86412
   2.89787   0.43025  -4.53492
   3.21211   0.56492  -4.23564
   3.55627   0.71456  -3.98126
   3.85555   0.84924  -3.63709
   4.18475   0.96895  -3.38271
   4.54388   1.04376  -3.06847
   4.90301   1.10362  -2.84402
   5.21725   1.17844  -2.57467
   5.48660   1.23829  -2.26043
   5.77091   1.29815  -1.99108
   6.04026   1.28318  -1.76662
   6.23479   1.35800  -1.54217
   6.44428   1.34304  -1.28778
   6.59392   1.38793  -1.07829
   6.77348   1.35800  -0.89873
   6.93808   1.41786  -0.67427
   7.04283   1.49268  -0.49470
   7.14758   1.49268  -0.31514
   7.17750   1.55253  -0.18047
   7.31218   1.56750   0.04399
   7.37203   1.65728   0.20859
   7.40196   1.83684   0.37319
   7.43189   1.82188   0.53779
   7.41692   1.86677   0.68743
   7.38700   1.94159   0.82211
   7.37203   1.98648   1.07649
   7.35707   2.01641   1.18124
   7.31218   2.03137   1.31591
   7.23736   2.13612   1.46555
   7.14758   2.13612   1.52540
   7.02787   2.15108   1.64511
   6.89319   2.09123   1.77979
   6.75852   2.10619   1.88453
   6.57895   2.09123   1.94439
   6.35450   2.07626   2.06410
   6.20486   1.95655   2.19877
   5.98040   1.95655   2.28855
   5.78587   1.86677   2.37834
   5.47164   1.88173   2.51301
   5.21725   1.83684   2.61776
   4.91798   1.77699   2.75243
   4.66359   1.70217   2.81229
   4.31943   1.62735   3.02178
   4.03511   1.55253   3.12653
   3.72088   1.44779   3.24624
   3.42160   1.29815   3.41084
   3.09240   1.13355   3.50062
   2.85298   0.93902   3.62033
   2.50881   0.86420   3.76997
   2.22450   0.68463   3.96450
   1.95515   0.49010   4.05428
   1.68580   0.35543   4.32363
   1.41646   0.17587   4.44334
   1.16207  -0.04859   4.57801
   0.95258  -0.19823   4.75758
   0.78798  -0.31794   4.87729
   0.60841  -0.45261   5.07181
   0.45878  -0.54239   5.29627
   0.30914  -0.73692   5.46087
   0.15950  -0.82671   5.59555
   0.03979  -0.90152   5.77511
  -0.02006  -1.08109   5.99957
  -0.12481  -1.17087   6.14920
  -0.21459  -1.24569   6.40359
  -0.30438  -1.32051   6.56819
  -0.37919  -1.41029   6.74776
  -0.40912  -1.57489   6.94228
  -0.46898  -1.63475   7.15178
  -0.55876  -1.70957   7.33134
  -0.58869  -1.82928   7.49594
  -0.66351  -1.79935   7.63062
  -0.69343  -1.91906   7.81018
  -0.70840  -1.93402   7.87004
  -0.73833  -1.99388   8.06457
  -0.75329  -2.03877   8.19924
  -0.76825  -2.06870   8.36384
  -0.78322  -2.00884   8.42370
  -0.76825  -1.99388   8.60326
  -0.75329  -1.99388   8.69304
  -0.72336  -1.99388   8.82772
  -0.66351  -1.94899   8.97736
  -0.64854  -1.85921   9.03721
  -0.54380  -1.81431   9.12699
  -0.48394  -1.64971   9.23174
  -0.37919  -1.57489   9.29159
  -0.30438  -1.47015   9.41130
  -0.16970  -1.42526   9.45620
  -0.03503  -1.30555   9.50109
   0.11461  -1.15591   9.56094
   0.29417  -1.05116   9.62080
   0.42885  -0.99131   9.66569
   0.54856  -0.85663   9.66569
   0.66827  -0.79678   9.63576
   0.84783  -0.72196   9.62080
   0.98251  -0.60225   9.60583
   1.10222  -0.54239   9.54598
   1.23689  -0.48254   9.53101
   1.32667  -0.43765   9.44123
   1.49128  -0.37779   9.35145
   1.52120  -0.30297   9.23174
   1.61099  -0.22816   9.08210
   1.62595  -0.04859   8.96239
   1.62595   0.05616   8.75290
   1.68580   0.05616   8.55837
   1.67084   0.26565   8.39377
   1.71573   0.40032   8.16931
   1.71573   0.59485   7.88500
   1.67084   0.68463   7.73536
   1.65588   0.74449   7.48098
   1.61099   0.87916   7.18170
   1.61099   0.98391   6.83754
   1.55113   1.02880   6.65797
   1.52120   1.10362   6.32877
   1.44638   1.20837   5.98460
   1.37157   1.29815   5.67036
   1.29675   1.35800   5.31123
