********************************************************************************
              CENTRO DE INSTRUMENTACION Y REGISTRO SISMICO  A.C.

    Anaxagoras 814, Col. Narvarte, Benito Juarez, C.P. 03020 Mexico, D.F.
           Tels. 5687 45 42/ 5687 45  82             Fax. 5669 25 12
********************************************************************************
ARCHIVO ESTANDAR DE ACELERACION:
VERSION DEL FORMATO                    : 2.0
NOMBRE DEL ARCHIVO                     : BA4920180521021519
FECHA Y HORA DE CREACION               : 21/JUN/18, 12:52
REF. CATALOGO ACELEROGRAMAS, SMIS 1996 : REGISTRO No.     /PAG.


================================================================================
DATOS DE LA ESTACION:
NOMBRE DE LA ESTACION                  : BUENOS AIRES
CLAVE DE LA ESTACION                   : BA49
LOCALIZACION DE LA ESTACION            : Del. Cuauhtémoc, Col. Doctores,        
                                       : Av. Lázaro Cárdenas esq. con           
                                       : Calle Dr. Márquez.                     
                                       :                                        
                                       : 
COORDENADAS DE LA ESTACION             : 19.4097 LAT. N
                                       : 99.1450 LONG. W
ALTITUD (msnm)                         : 2233
TIPO DE SUELO                          : Terreno blando, material compresible
                                       : (arcillas)                
                                       : 
INSTITUCION RESPONSABLE                : CIRES
                                       : 

================================================================================
DATOS DEL ACELEROGRAFO:
MODELO DEL ACELEROGRAFO                : RADESD
NUMERO DE SERIE DEL ACELEROGRAFO       : 176
NUMERO DE CANALES                      : 3
ORIENTACION C1-C6 (rumbo;orientacion)  : /S00E/+V/N90W
ORIENTACION C7-C12 (rumbo;orientacion) : 
VEL. DE MUESTREO, C1-C6 (muestras/s)   : /100/100/100
VEL. DE MUESTREO, C7-C12 (muestras/s)  : 
ESC. COMPLETA DE SENSORES, C1-C6, (g)  : /0.5/0.5/0.5
ESC. COMPLETA DE SENSORES, C7-C12, (g) : 
FREC. NAT. DE SENSORES, C1-C6, (Hz)    : /52.99/52.03/52.99
FREC. NAT. DE SENSORES, C7-C12, (Hz)   : 
AMORTIGUAMIENTO DE SENSORES, C1-C6     : /0.5589/0.5469/0.6096
AMORTIGUAMIENTO DE SENSORES, C7-C12    : 
INTERVALO DE MUESTREO, C1-C6, (s)      : /0.01/0.01/0.01
INTERVALO DE MUESTREO, C7-C12, (s)     : 
UMBRAL DE DISPARO, C1-C6, (Gal)        : /0.96/1.92/0.96
UMBRAL DE DISPARO, C7-C12, (Gal)       : 
MEMORIA DE PREEVENTO (s)               : 44.0
TIEMPO DE POSEVENTO (s)                : 530.0


================================================================================
DATOS DEL SISMO:
FECHA DEL SISMO (GMT)                  : 21/MAY/18
HORA EPICENTRO (GMT)                   : 02:15:19.0
MAGNITUD(ES)                           : /Mc=5.1
COORDENADAS DEL EPICENTRO              : 17.08 LAT. N
                                       : 98.68 LONG. W
PROFUNDIDAD FOCAL (km)                 : 45
FUENTE DE LOS DATOS EPICENTRALES       : SSN
                                       : INSTITUTO DE GEOFISICA, UNAM

================================================================================
DATOS DE ESTE REGISTRO:
HORA DE LA PRIMERA MUESTRA (GMT)       : 02:15:54.00
EXACTITUD DEL TIEMPO (s)               : 0.01
DURACION DEL REGISTRO (s), C1-C6       : /132.4/132.4/132.4
DURACION DEL REGISTRO (s), C7-C12      : 
NUM. TOTAL DE MUESTRAS, C1-C6          : /13240/13240/13240
NUM. TOTAL DE MUESTRAS, C7-C12         : 
ACEL. MAX. (Gal), C1-C6                : /1.6434/0.90383/1.39268
ACEL. MAX., C1-C6, EN LA MUESTRA       : /4498/4450/5254
ACEL. MAX. (Gal), C7-C12               : 
ACEL. MAX., C7-C12, EN LA MUESTRA      : 
UNIDADES DE LOS DATOS                  : Gal (cm/s/s)
FACTOR DE DECIMACION                   : 1
FORMATO DATOS (FORTRAN,10 campos/dato) : 3F10.5


================================================================================
CALIDAD DEL ACELEROGRAMA:
REGISTRO DIGITAL COMPLETO CON TIEMPO ABSOLUTO CORRECTO.


================================================================================
COMENTARIOS:














================================================================================
DATOS DE ACELERACION:
---------+---------+---------+---------+---------+---------+---------+---------+
   CANAL-1   CANAL-2   CANAL-3   CANAL-4   CANAL-5   CANAL-6   CANAL-7   CANAL-8
      S00E        +V      N90W
---------+---------+---------+---------+---------+---------+---------+---------+
[...]
   0.34678   0.09578  -0.19348
   0.31686   0.12571  -0.11866
   0.15225   0.24542  -0.05881
   0.04751   0.30528  -0.10370
   0.04751   0.43995  -0.02888
  -0.01235   0.42499  -0.02888
  -0.10213   0.48484  -0.05881
  -0.23680   0.43995   0.10579
  -0.22184   0.39506   0.12076
  -0.29666   0.36513   0.21054
  -0.32659   0.24542   0.18061
  -0.28170   0.15564   0.22550
  -0.29666   0.09578   0.19558
  -0.26673  -0.02393   0.25543
  -0.28170  -0.05385   0.21054
  -0.29666  -0.05385   0.30032
  -0.23680  -0.05385   0.28536
  -0.22184  -0.02393   0.30032
  -0.23680  -0.08378   0.37514
  -0.20688  -0.11371   0.37514
  -0.11709  -0.02393   0.36018
  -0.11709  -0.06882   0.33025
  -0.04227  -0.12867   0.28536
  -0.05724  -0.06882   0.30032
  -0.05724  -0.09874   0.25543
  -0.11709  -0.11371   0.21054
  -0.20688  -0.05385   0.09083
  -0.19191  -0.08378  -0.02888
  -0.28170  -0.05385  -0.14859
  -0.29666  -0.03889  -0.26830
  -0.38644   0.06586  -0.41794
  -0.37148   0.05089  -0.55261
  -0.41637  -0.06882  -0.65736
  -0.53608  -0.00896  -0.74714
  -0.58097  -0.11371  -0.82196
  -0.70068  -0.06882  -0.86685
  -0.79046  -0.11371  -0.83692
  -0.86528  -0.20349  -0.80700
  -0.92514  -0.17356  -0.83692
  -0.98499  -0.15860  -0.77707
  -1.04485  -0.17356  -0.71721
  -0.98499  -0.11371  -0.65736
  -1.02988  -0.12867  -0.64240
  -0.92514  -0.12867  -0.55261
  -0.94010  -0.14364  -0.49276
  -0.88025  -0.15860  -0.38801
  -0.73061  -0.17356  -0.32816
  -0.65579  -0.20349  -0.26830
  -0.52112  -0.18853  -0.11866
  -0.47622  -0.23342  -0.14859
  -0.32659  -0.23342  -0.04384
  -0.19191  -0.29327  -0.01392
  -0.11709  -0.26335   0.06090
   0.01758  -0.27831   0.09083
   0.06247  -0.23342   0.18061
   0.19715  -0.27831   0.22550
   0.25700  -0.18853   0.31529
   0.25700  -0.14364   0.34521
   0.28693  -0.15860   0.40507
   0.34678  -0.08378   0.40507
   0.33182  -0.14364   0.44996
   0.33182  -0.08378   0.46492
   0.31686  -0.09874   0.46492
   0.28693  -0.05385   0.49485
   0.25700  -0.00896   0.47989
   0.24204   0.05089   0.44996
   0.22707   0.15564   0.40507
   0.24204   0.24542   0.33025
   0.24204   0.35017   0.30032
   0.25700   0.35017   0.18061
   0.24204   0.35017   0.16565
   0.21211   0.38010   0.03097
   0.22707   0.30528   0.01601
   0.16722   0.29031  -0.01392
   0.06247   0.32024  -0.10370
  -0.01235   0.26039  -0.11866
  -0.04227   0.24542  -0.11866
  -0.05724   0.32024  -0.08874
   0.00262   0.21549  -0.08874
   0.01758   0.20053   0.00105
   0.01758   0.17060  -0.01392
   0.06247   0.18557   0.06090
   0.10736   0.18557   0.06090
   0.19715   0.14068   0.10579
   0.24204   0.08082   0.07587
   0.28693   0.06586   0.09083
   0.34678  -0.00896   0.07587
   0.39167  -0.02393   0.15068
   0.46649  -0.09874   0.09083
   0.51138  -0.23342   0.07587
   0.57124  -0.33817   0.06090
   0.55628  -0.38306  -0.02888
   0.61613  -0.39802  -0.04384
   0.58620  -0.39802  -0.07377
   0.57124  -0.38306  -0.08874
   0.54131  -0.23342  -0.11866
   0.54131  -0.21846  -0.08874
   0.49642  -0.18853  -0.05881
   0.46649  -0.14364  -0.01392
   0.45153  -0.09874  -0.08874
   0.39167  -0.06882  -0.05881
   0.34678  -0.02393  -0.04384
   0.27196   0.02097   0.01601
   0.21211   0.06586   0.01601
   0.07744   0.06586   0.07587
   0.07744   0.11075  -0.01392
   0.07744   0.14068   0.01601
   0.01758   0.20053  -0.01392
  -0.01235   0.23046  -0.11866
  -0.07220   0.27535   0.01601
  -0.07220   0.33520  -0.14859
  -0.14702   0.45491  -0.11866
  -0.14702   0.43995  -0.05881
  -0.20688   0.49981  -0.11866
  -0.20688   0.54470  -0.10370
  -0.23680   0.61952  -0.05881
  -0.29666   0.61952  -0.14859
  -0.34155   0.54470  -0.05881
  -0.41637   0.51477  -0.01392
  -0.43133   0.49981  -0.10370
  -0.40141   0.35017  -0.04384
  -0.46126   0.27535  -0.02888
  -0.43133   0.11075  -0.19348
  -0.52112   0.05089  -0.11866
  -0.50615  -0.08378  -0.10370
  -0.59593  -0.17356  -0.04384
  -0.49119  -0.18853  -0.14859
  -0.55104  -0.24838  -0.11866
  -0.49119  -0.33817  -0.23837
  -0.41637  -0.32320  -0.19348
  -0.41637  -0.36809  -0.19348
  -0.26673  -0.35313  -0.37305
  -0.17695  -0.24838  -0.32816
  -0.02731  -0.14364  -0.31319
  -0.02731  -0.06882  -0.28326
   0.07744  -0.03889  -0.40297
   0.07744   0.12571  -0.35808
   0.13729  -0.00896  -0.31319
   0.19715  -0.06882  -0.26830
   0.09240  -0.17356  -0.29823
   0.16722  -0.20349  -0.26830
   0.06247  -0.27831  -0.25334
   0.01758  -0.26335  -0.23837
  -0.05724  -0.32320  -0.14859
  -0.22184  -0.35313  -0.08874
  -0.35651  -0.30824  -0.08874
  -0.43133  -0.23342  -0.01392
  -0.47622  -0.26335   0.07587
  -0.52112  -0.09874   0.16565
  -0.65579  -0.12867   0.10579
  -0.64083  -0.12867   0.15068
  -0.58097  -0.17356   0.06090
  -0.59593  -0.18853   0.12076
  -0.52112  -0.09874   0.19558
  -0.53608  -0.06882   0.22550
  -0.35651  -0.11371   0.18061
  -0.26673  -0.00896   0.24047
  -0.10213  -0.08378   0.34521
   0.07744  -0.11371   0.37514
   0.06247  -0.24838   0.47989
   0.25700  -0.24838   0.34521
   0.30189  -0.30824   0.50981
   0.43657  -0.33817   0.65945
   0.43657  -0.35313   0.68938
   0.55628  -0.39802   0.86894
   0.61613  -0.33817   0.82405
   0.66102  -0.26335   0.91384
   0.78073  -0.26335   1.09340
   0.76577  -0.14364   1.18318
   0.84059  -0.15860   1.19815
   0.84059  -0.14364   1.27297
   0.91541  -0.12867   1.19815
   0.88548  -0.09874   1.33282
   0.81066  -0.05385   1.28793
   0.82562  -0.06882   1.33282
   0.73584  -0.02393   1.27297
   0.66102   0.11075   1.19815
   0.60117   0.09578   1.16822
   0.46649   0.21549   1.13829
   0.39167   0.21549   0.95873
   0.31686   0.36513   0.83902
   0.22707   0.38010   0.83902
   0.13729   0.45491   0.61456
   0.12233   0.45491   0.47989
   0.01758   0.49981   0.40507
   0.01758   0.43995   0.03097
   0.06247   0.43995  -0.04384
   0.04751   0.35017  -0.25334
   0.07744   0.23046  -0.31319
   0.07744   0.17060  -0.40297
   0.15225   0.06586  -0.59750
   0.22707  -0.08378  -0.61247
   0.33182  -0.14364  -0.68729
   0.33182  -0.17356  -0.70225
   0.40664  -0.24838  -0.88182
   0.40664  -0.14364  -0.79203
   0.39167  -0.15860  -0.77707
   0.39167  -0.09874  -0.70225
   0.28693  -0.05385  -0.61247
   0.37671   0.06586  -0.58254
   0.37671   0.18557  -0.43290
   0.33182   0.29031  -0.49276
   0.34678   0.23046  -0.40297
   0.36175   0.20053  -0.37305
   0.33182   0.24542  -0.40297
   0.28693   0.24542  -0.31319
   0.28693   0.15564  -0.31319
   0.28693   0.17060  -0.28326
   0.27196   0.14068  -0.29823
   0.27196   0.11075  -0.32816
   0.25700   0.18557  -0.29823
   0.24204   0.14068  -0.29823
   0.21211   0.18557  -0.25334
   0.21211   0.14068  -0.29823
   0.16722   0.17060  -0.32816
   0.21211   0.26039  -0.38801
   0.18218   0.35017  -0.28326
   0.09240   0.30528  -0.32816
   0.07744   0.26039  -0.34312
  -0.01235   0.32024  -0.35808
  -0.07220   0.33520  -0.41794
  -0.10213   0.32024  -0.44787
  -0.20688   0.32024  -0.44787
  -0.26673   0.36513  -0.46283
  -0.35651   0.36513  -0.49276
  -0.47622   0.24542  -0.44787
  -0.59593   0.18557  -0.44787
  -0.73061   0.08082  -0.46283
  -0.85032  -0.00896  -0.46283
  -0.99996  -0.11371  -0.41794
  -1.08974  -0.14364  -0.44787
  -1.20945  -0.29327  -0.32816
  -1.29923  -0.32320  -0.31319
  -1.34412  -0.30824  -0.25334
  -1.44887  -0.27831  -0.26830
  -1.46383  -0.21846  -0.17852
  -1.43390  -0.18853  -0.19348
  -1.41894  -0.12867  -0.20845
  -1.38901  -0.08378  -0.23837
  -1.31419  -0.08378  -0.23837
  -1.28427  -0.11371  -0.34312
  -1.19448  -0.17356  -0.40297
  -1.04485  -0.20349  -0.44787
  -0.92514  -0.29327  -0.55261
  -0.85032  -0.35313  -0.58254
  -0.76054  -0.45788  -0.58254
  -0.58097  -0.44291  -0.61247
  -0.47622  -0.44291  -0.56758
  -0.37148  -0.42795  -0.64240
  -0.23680  -0.42795  -0.59750
  -0.23680  -0.42795  -0.64240
  -0.17695  -0.38306  -0.53765
  -0.19191  -0.36809  -0.46283
  -0.16198  -0.23342  -0.46283
  -0.19191  -0.15860  -0.34312
  -0.19191  -0.08378  -0.38801
  -0.31162  -0.12867  -0.28326
  -0.31162  -0.08378  -0.23837
  -0.35651  -0.08378  -0.26830
  -0.32659   0.03593  -0.19348
  -0.37148   0.05089  -0.22341
  -0.37148   0.09578  -0.10370
  -0.35651   0.18557  -0.10370
  -0.38644   0.21549  -0.04384
  -0.41637   0.20053   0.03097
  -0.44630   0.05089   0.04594
  -0.40141   0.06586   0.10579
  -0.25177   0.02097   0.16565
  -0.17695  -0.02393   0.19558
  -0.04227  -0.15860   0.27039
   0.12233  -0.17356   0.31529
   0.25700  -0.15860   0.36018
   0.42160  -0.23342   0.37514
   0.54131  -0.26335   0.42003
   0.64606  -0.33817   0.46492
   0.72088  -0.41298   0.46492
   0.85555  -0.35313   0.49485
   0.93037  -0.42795   0.47989
   1.03512  -0.44291   0.42003
   1.08001  -0.48780   0.42003
   1.21468  -0.47284   0.40507
   1.25957  -0.32320   0.43500
   1.31943  -0.30824   0.42003
   1.31943  -0.24838   0.36018
   1.33439  -0.09874   0.34521
   1.36432  -0.02393   0.31529
   1.34935   0.14068   0.27039
   1.28950   0.12571   0.28536
   1.18475   0.17060   0.19558
   1.18475   0.00600   0.16565
   1.08001   0.02097   0.16565
   1.00519   0.08082   0.09083
   0.90044   0.23046   0.00105
   0.73584   0.27535  -0.07377
   0.64606   0.43995  -0.17852
   0.51138   0.55966  -0.25334
   0.43657   0.64944  -0.38801
   0.37671   0.78412  -0.41794
   0.36175   0.90383  -0.52269
   0.27196   0.90383  -0.53765
   0.25700   0.73923  -0.62743
   0.21211   0.67937  -0.46283
   0.27196   0.57462  -0.47779
   0.31686   0.45491  -0.46283
   0.31686   0.33520  -0.35808
   0.39167   0.26039  -0.26830
   0.45153   0.26039  -0.23837
   0.51138   0.15564  -0.17852
   0.55628   0.12571  -0.11866
   0.54131  -0.02393   0.00105
   0.61613   0.02097   0.09083
   0.70591   0.08082   0.12076
   0.72088   0.11075   0.18061
   0.66102   0.14068   0.25543
   0.57124   0.14068   0.36018
   0.54131   0.05089   0.40507
   0.49642   0.02097   0.37514
   0.49642  -0.02393   0.49485
   0.37671  -0.02393   0.49485
   0.33182  -0.09874   0.52478
   0.25700  -0.12867   0.56967
   0.22707  -0.18853   0.65945
   0.18218  -0.17356   0.65945
   0.09240  -0.17356   0.65945
  -0.04227  -0.18853   0.76420
  -0.13206  -0.15860   0.80909
  -0.25177  -0.08378   0.80909
  -0.37148  -0.05385   0.77916
  -0.43133   0.00600   0.71931
  -0.52112   0.00600   0.68938
  -0.61090  -0.02393   0.68938
  -0.67075   0.02097   0.64449
  -0.74557   0.00600   0.50981
  -0.79046   0.00600   0.50981
  -0.86528   0.05089   0.40507
  -0.95506  -0.00896   0.33025
  -0.98499   0.00600   0.30032
  -1.10470   0.06586   0.28536
  -1.17952   0.11075   0.25543
  -1.29923  -0.03889   0.21054
  -1.41894  -0.08378   0.15068
  -1.49376  -0.09874   0.10579
  -1.52369  -0.12867   0.15068
  -1.59851  -0.14364   0.16565
  -1.59851  -0.12867   0.15068
  -1.59851  -0.05385   0.21054
  -1.64340  -0.05385   0.10579
  -1.61347  -0.02393   0.13572
  -1.55361  -0.06882   0.01601
  -1.46383  -0.08378  -0.01392
  -1.41894  -0.14364  -0.08874
  -1.34412  -0.17356  -0.17852
  -1.17952  -0.29327  -0.19348
  -1.05981  -0.29327  -0.29823
  -0.91017  -0.24838  -0.34312
  -0.82039  -0.24838  -0.44787
  -0.65579  -0.21846  -0.47779
  -0.52112  -0.17356  -0.61247
  -0.40141  -0.11371  -0.64240
  -0.26673  -0.09874  -0.67232
  -0.17695  -0.06882  -0.62743
  -0.08717  -0.06882  -0.65736
   0.06247  -0.12867  -0.58254
   0.18218  -0.08378  -0.59750
   0.24204  -0.08378  -0.56758
   0.36175  -0.05385  -0.52269
   0.46649  -0.11371  -0.47779
   0.61613  -0.14364  -0.38801
   0.73584  -0.09874  -0.37305
   0.85555  -0.11371  -0.29823
   1.00519  -0.12867  -0.34312
   1.13986  -0.06882  -0.22341
   1.21468  -0.15860  -0.20845
   1.30446  -0.17356  -0.19348
   1.37928  -0.18853  -0.14859
   1.45410  -0.27831  -0.11866
   1.45410  -0.21846  -0.11866
   1.43914  -0.24838  -0.11866
   1.39425  -0.18853  -0.08874
   1.36432  -0.15860  -0.08874
   1.24461  -0.09874  -0.05881
   1.16979  -0.06882  -0.05881
   1.06504  -0.05385  -0.02888
   0.94533   0.03593   0.03097
   0.85555   0.05089   0.04594
   0.73584   0.12571   0.04594
   0.61613   0.20053   0.09083
   0.55628   0.21549   0.09083
   0.45153   0.24542   0.12076
   0.31686   0.23046   0.18061
   0.28693   0.38010   0.19558
   0.18218   0.29031   0.15068
   0.10736   0.49981   0.21054
   0.03254   0.54470   0.18061
  -0.05724   0.55966   0.15068
  -0.07220   0.63448   0.24047
  -0.13206   0.64944   0.22550
  -0.23680   0.70930   0.18061
  -0.20688   0.73923   0.15068
  -0.25177   0.72426   0.24047
  -0.28170   0.66441   0.19558
  -0.32659   0.58959   0.22550
  -0.28170   0.46988   0.21054
  -0.28170   0.41002   0.21054
  -0.28170   0.23046   0.21054
  -0.25177   0.02097   0.22550
  -0.23680  -0.17356   0.21054
  -0.17695  -0.24838   0.19558
  -0.19191  -0.29327   0.22550
  -0.10213  -0.36809   0.22550
  -0.05724  -0.41298   0.21054
  -0.02731  -0.42795   0.21054
  -0.05724  -0.47284   0.18061
  -0.02731  -0.47284   0.24047
  -0.02731  -0.51773   0.15068
  -0.04227  -0.44291   0.09083
  -0.04227  -0.47284   0.07587
  -0.01235  -0.54766  -0.01392
  -0.13206  -0.53269   0.00105
  -0.11709  -0.57759  -0.07377
  -0.13206  -0.48780  -0.02888
  -0.11709  -0.57759  -0.02888
  -0.14702  -0.50277   0.00105
  -0.10213  -0.35313   0.03097
  -0.05724  -0.18853   0.04594
  -0.05724  -0.08378   0.10579
  -0.08717  -0.05385   0.15068
  -0.08717  -0.03889   0.22550
  -0.11709  -0.02393   0.27039
  -0.13206  -0.02393   0.28536
  -0.14702  -0.14364   0.34521
  -0.25177  -0.09874   0.37514
  -0.31162  -0.12867   0.39010
  -0.31162   0.02097   0.39010
  -0.32659   0.08082   0.44996
  -0.34155   0.15564   0.42003
  -0.35651   0.23046   0.44996
  -0.41637   0.26039   0.47989
  -0.44630   0.30528   0.39010
  -0.47622   0.24542   0.43500
  -0.53608   0.24542   0.42003
  -0.52112   0.27535   0.42003
  -0.58097   0.12571   0.44996
  -0.59593   0.03593   0.40507
  -0.61090   0.03593   0.39010
  -0.61090   0.06586   0.34521
  -0.62586  -0.00896   0.33025
  -0.70068  -0.08378   0.30032
  -0.70068  -0.08378   0.31529
  -0.73061   0.05089   0.30032
  -0.71564   0.08082   0.27039
  -0.74557   0.05089   0.30032
  -0.73061   0.09578   0.25543
  -0.67075   0.05089   0.16565
  -0.65579  -0.00896   0.10579
  -0.56601   0.06586   0.07587
  -0.38644   0.12571  -0.02888
  -0.31162   0.11075  -0.04384
  -0.19191   0.05089  -0.10370
  -0.04227   0.15564  -0.13363
   0.12233   0.03593  -0.17852
   0.28693   0.02097  -0.14859
   0.39167  -0.03889  -0.13363
   0.45153  -0.14364  -0.16355
   0.58620  -0.17356  -0.14859
   0.63109  -0.30824  -0.17852
   0.69095  -0.33817  -0.19348
   0.76577  -0.42795  -0.19348
   0.78073  -0.65240  -0.23837
   0.84059  -0.60751  -0.26830
   0.84059  -0.63744  -0.26830
   0.85555  -0.65240  -0.28326
   0.85555  -0.51773  -0.34312
   0.85555  -0.42795  -0.35808
   0.82562  -0.45788  -0.38801
   0.78073  -0.29327  -0.40297
   0.84059  -0.18853  -0.41794
   0.88548  -0.12867  -0.46283
   0.87051  -0.00896  -0.46283
   0.97526   0.11075  -0.44787
   1.00519   0.15564  -0.47779
   0.94533   0.24542  -0.44787
   0.96030   0.20053  -0.41794
   0.97526   0.23046  -0.49276
   1.00519   0.24542  -0.41794
   1.05008   0.27535  -0.38801
   1.05008   0.33520  -0.34312
   0.99022   0.27535  -0.31319
   1.00519   0.38010  -0.32816
   0.97526   0.36513  -0.35808
   0.90044   0.49981  -0.35808
   0.79570   0.45491  -0.35808
   0.75080   0.54470  -0.37305
   0.64606   0.46988  -0.43290
   0.58620   0.46988  -0.43290
   0.58620   0.41002  -0.44787
