********************************************************************************
               CENTRO DE INSTRUMENTACION Y REGISTRO SISMICO  A.C.  
                       Coordinacion de Servicios Tecnicos
     Anaxagoras 814, Col. Narvarte, Benito Juarez, C.P. 03020 Mexico, D.F.
            Tels. 667 45 42/ 687 45  82             Fax. 669 25 12
********************************************************************************
ARCHIVO ESTANDAR DE ACELERACION:
VERSION DEL FORMATO                    : 2.0
NOMBRE DEL ARCHIVO                     : BA499806.071
FECHA Y HORA DE CREACION               : 31/ENERO/2000, 10:10
REF. CATALOGO ACELEROGRAMAS, SMIS 1996 : REGISTRO No.     /PAG.


================================================================================
DATOS DE LA ESTACION:
NOMBRE DE LA ESTACION                  : BUENOS AIRES
CLAVE DE LA ESTACION                   : BA49
LOCALIZACION DE LA ESTACION            : ESCUELA SECUNDARIA 102, DOCTOR MARQUEZ
                                       : Y EJE CENTRAL, BUENOS AIRES.
                                       :
                                       :
                                       :
COORDENADAS DE LA ESTACION             : 19.410 LAT. N 
                                       : 99.145 LONG. W 
ALTITUD (msnm)                         : 2233
TIPO DE SUELO                          : TERRENO BLANDO, MATERIAL COMPRESIBLE
                                       : (ARCILLAS)
                                       : 
INSTITUCION RESPONSABLE                : CIRES 
                                       :

================================================================================
DATOS DEL ACELEROGRAFO:
MODELO DEL ACELEROGRAFO                : SSA-1
NUMERO DE SERIE DEL ACELEROGRAFO       : 176
NUMERO DE CANALES                      : 3
ORIENTACION C1-C6 (rumbo;orientacion)  : /N00E/+V/N90E
ORIENTACION C7-C12 (rumbo;orientacion) :
VEL. DE MUESTREO, C1-C6 (muestras/s)   : /200/200/200
VEL. DE MUESTREO, C7-C12 (muestras/s)  :
ESC. COMPLETA DE SENSORES, C1-C6, (g)  : /2/2/2
ESC. COMPLETA DE SENSORES, C7-C12, (g) :
FREC. NAT. DE SENSORES, C1-C6, (Hz)    : /52.99/52.03/52.99
FREC. NAT. DE SENSORES, C7-C12, (Hz)   :
AMORTIGUAMIENTO DE SENSORES, C1-C6     : /.5589/.5469/.6096
AMORTIGUAMIENTO DE SENSORES, C7-C12    :
INTERVALO DE MUESTREO, C1-C6, (s)      : /0.005/0.005/0.005
INTERVALO DE MUESTREO, C7-C12, (s)     :
UMBRAL DE DISPARO, C1-C6, (Gal)        : /2/2/2
UMBRAL DE DISPARO, C7-C12, (Gal)       :
MEMORIA DE PREEVENTO (s)               : 15
TIEMPO DE POSEVENTO (s)                : 60


================================================================================
DATOS DEL SISMO:
FECHA DEL SISMO (GMT)                  : 07/JUN/98
HORA EPICENTRO (GMT)                   : 23:20:16.1
MAGNITUD(ES)                           : /Mb=5.8/Mc=5.2/Ma=5.6/Me=6.2
COORDENADAS DEL EPICENTRO              : 15.82 LAT. N
                                       : 94.07 LONG. W
PROFUNDIDAD FOCAL (km)                 : 16
FUENTE DE LOS DATOS EPICENTRALES       : SSN
                                       : INSTITUTO DE GEOFISICA, UNAM 

================================================================================
DATOS DE ESTE REGISTRO:
HORA DE LA PRIMERA MUESTRA (GMT)       : 23:23:48.00
EXACTITUD DEL TIEMPO (s)               :     
DURACION DEL REGISTRO (s), C1-C6       : /101.12/101.12/101.12
DURACION DEL REGISTRO (s), C7-C12      :
NUM. TOTAL DE MUESTRAS, C1-C6          : /20224/20224/20224
NUM. TOTAL DE MUESTRAS, C7-C12         :
ACEL. MAX. (Gal), C1-C6                : /2.31450/0.51563/1.78546
ACEL. MAX., C1-C6, EN LA MUESTRA       :
ACEL. MAX. (Gal), C7-C12               :
ACEL. MAX., C7-C12, EN LA MUESTRA      :
UNIDADES DE LOS DATOS                  : Gal (cm/s/s)
FACTOR DE DECIMACION                   : 1
FORMATO DATOS (FORTRAN,10 campos/dato) : 3F10.5


================================================================================
CALIDAD DEL ACELEROGRAMA:
REGISTRO DIGITAL COMPLETO, CARECE DE TIEMPO ABSOLUTO.


================================================================================
COMENTARIOS:














================================================================================
DATOS DE ACELERACION:
---------+---------+---------+---------+---------+---------+---------+---------+
   CANAL-1   CANAL-2   CANAL-3   CANAL-4   CANAL-5   CANAL-6   CANAL-7   CANAL-8
      N00E        +V      N90E
---------+---------+---------+---------+---------+---------+---------+---------+
[...]
  -0.15450  -0.03562  -0.34546
  -0.15450  -0.03562  -0.58546
  -0.15450  -0.03562  -0.58546
  -0.15450  -0.03562  -0.58546
   0.08550  -0.03562  -0.58546
   0.08550  -0.03562  -0.58546
   0.08550  -0.03562  -0.58546
   0.08550  -0.03562  -0.58546
   0.08550  -0.03562  -0.58546
   0.08550  -0.03562  -0.58546
   0.08550  -0.03562  -0.58546
   0.32550  -0.03562  -0.58546
   0.08550  -0.03562  -0.58546
   0.32550  -0.03562  -0.58546
   0.32550  -0.03562  -0.58546
   0.32550  -0.03562  -0.58546
   0.32550  -0.03562  -0.58546
   0.32550  -0.03562  -0.58546
   0.32550  -0.03562  -0.58546
   0.32550  -0.03562  -0.58546
   0.55550   0.20438  -0.82546
   0.55550  -0.03562  -0.82546
   0.55550  -0.03562  -0.82546
   0.55550  -0.03562  -0.82546
   0.55550  -0.03562  -0.82546
   0.55550  -0.03562  -0.82546
   0.79550  -0.03562  -0.58546
   0.79550   0.20438  -0.58546
   0.79550  -0.03562  -0.82546
   0.79550   0.20438  -0.82546
   0.79550   0.20438  -0.58546
   0.79550   0.20438  -0.58546
   0.79550   0.20438  -0.82546
   0.79550   0.20438  -0.82546
   0.79550   0.20438  -0.82546
   0.79550   0.20438  -0.82546
   0.79550   0.20438  -0.82546
   1.03550   0.20438  -0.82546
   1.03550   0.20438  -0.82546
   1.03550   0.20438  -0.82546
   1.03550   0.20438  -0.82546
   1.03550   0.20438  -0.82546
   1.03550   0.20438  -0.82546
   1.03550   0.20438  -0.82546
   1.03550   0.20438  -0.82546
   1.03550   0.20438  -0.82546
   1.03550   0.44438  -0.82546
   1.03550   0.44438  -0.82546
   1.27550   0.44438  -0.82546
   1.27550   0.44438  -0.82546
   1.27550   0.44438  -0.82546
   1.27550   0.44438  -0.82546
   1.27550   0.20438  -0.82546
   1.27550   0.20438  -0.82546
   1.27550   0.20438  -0.82546
   1.27550   0.44438  -0.82546
   1.27550   0.20438  -0.82546
   1.27550   0.20438  -0.82546
   1.27550   0.44438  -0.82546
   1.27550   0.44438  -0.82546
   1.27550   0.44438  -0.82546
   1.51550   0.44438  -1.06546
   1.51550   0.44438  -1.06546
   1.51550   0.44438  -1.06546
   1.27550   0.44438  -0.82546
   1.27550   0.44438  -1.06546
   1.27550   0.44438  -0.82546
   1.51550   0.44438  -1.06546
   1.51550   0.44438  -1.06546
   1.51550   0.44438  -1.06546
   1.27550   0.44438  -1.06546
   1.51550   0.44438  -1.06546
   1.51550   0.44438  -1.06546
   1.51550   0.44438  -1.06546
   1.51550   0.44438  -1.06546
   1.51550   0.44438  -1.06546
   1.51550   0.44438  -0.82546
   1.51550   0.44438  -1.06546
   1.51550   0.44438  -1.06546
   1.51550   0.44438  -1.06546
   1.51550   0.44438  -1.06546
   1.51550   0.44438  -1.30546
   1.51550   0.44438  -1.06546
   1.51550   0.44438  -1.06546
   1.51550   0.44438  -1.06546
   1.51550   0.44438  -1.06546
   1.51550   0.44438  -1.06546
   1.51550   0.44438  -1.06546
   1.51550   0.44438  -1.06546
   1.51550   0.44438  -1.06546
   1.51550   0.44438  -1.06546
   1.27550   0.20438  -1.06546
   1.27550   0.44438  -1.06546
   1.27550   0.44438  -1.06546
   1.27550   0.44438  -1.06546
   1.27550   0.44438  -1.06546
   1.27550   0.44438  -1.06546
   1.27550   0.44438  -1.06546
   1.51550   0.44438  -1.06546
   1.27550   0.20438  -1.06546
   1.27550   0.20438  -1.06546
   1.27550   0.20438  -1.06546
   1.27550   0.20438  -1.06546
   1.27550   0.20438  -1.06546
   1.27550   0.20438  -1.06546
   1.27550   0.20438  -1.06546
   1.27550   0.44438  -1.06546
   1.27550   0.44438  -1.06546
   1.27550   0.20438  -1.06546
   1.27550   0.20438  -1.06546
   1.27550   0.20438  -1.06546
   1.27550   0.20438  -1.06546
   1.27550   0.20438  -1.06546
   1.27550   0.20438  -0.82546
   1.03550   0.20438  -1.06546
   1.03550   0.20438  -0.82546
   1.03550   0.20438  -1.06546
   1.03550   0.20438  -0.82546
   1.03550   0.20438  -1.06546
   1.03550   0.20438  -1.06546
   1.03550   0.20438  -0.82546
   1.03550   0.20438  -1.06546
   1.27550   0.20438  -1.06546
   1.03550   0.20438  -1.06546
   1.03550   0.20438  -0.82546
   1.03550   0.20438  -0.82546
   1.03550  -0.03562  -0.82546
   1.03550  -0.03562  -0.82546
   1.03550  -0.03562  -0.82546
   0.79550  -0.03562  -0.82546
   0.79550  -0.03562  -0.82546
   0.79550  -0.03562  -0.82546
   0.79550  -0.03562  -0.82546
   0.79550  -0.03562  -0.82546
   0.79550  -0.03562  -0.82546
   0.79550  -0.03562  -0.58546
   0.79550  -0.03562  -0.58546
   0.79550  -0.03562  -0.58546
   0.79550  -0.03562  -0.58546
   0.79550  -0.03562  -0.58546
   0.79550  -0.03562  -0.58546
   0.79550  -0.03562  -0.58546
   0.79550  -0.03562  -0.58546
   0.79550  -0.03562  -0.58546
   0.79550  -0.03562  -0.58546
   0.79550  -0.27562  -0.58546
   0.79550  -0.03562  -0.58546
   0.55550  -0.03562  -0.58546
   0.55550  -0.03562  -0.58546
   0.55550  -0.03562  -0.58546
   0.55550  -0.03562  -0.34546
   0.55550  -0.03562  -0.34546
   0.55550  -0.03562  -0.34546
   0.55550  -0.27562  -0.34546
   0.55550  -0.27562  -0.34546
   0.55550  -0.27562  -0.34546
   0.55550  -0.27562  -0.34546
   0.55550  -0.03562  -0.34546
   0.55550  -0.27562  -0.34546
   0.55550  -0.27562  -0.34546
   0.55550  -0.27562  -0.34546
   0.55550  -0.27562  -0.34546
   0.55550  -0.27562  -0.34546
   0.32550  -0.27562  -0.34546
   0.32550  -0.03562  -0.10546
   0.32550  -0.03562  -0.34546
   0.32550  -0.03562  -0.10546
   0.32550  -0.03562  -0.10546
   0.32550  -0.03562  -0.10546
   0.55550  -0.27562  -0.10546
   0.55550  -0.27562  -0.10546
   0.55550  -0.03562  -0.10546
   0.55550  -0.27562  -0.10546
   0.55550  -0.03562  -0.10546
   0.55550  -0.27562  -0.10546
   0.55550  -0.27562  -0.10546
   0.32550  -0.27562  -0.10546
   0.32550  -0.27562  -0.10546
   0.32550  -0.03562  -0.10546
   0.32550  -0.03562   0.13454
   0.32550  -0.03562   0.13454
   0.32550  -0.03562   0.13454
   0.32550  -0.03562  -0.10546
   0.32550  -0.03562   0.13454
   0.32550  -0.03562   0.13454
   0.32550  -0.27562  -0.10546
   0.55550  -0.27562  -0.10546
   0.55550  -0.27562   0.13454
   0.55550  -0.27562   0.13454
   0.55550  -0.27562   0.13454
   0.55550  -0.27562   0.13454
   0.55550  -0.27562   0.13454
   0.32550  -0.27562   0.13454
   0.32550  -0.27562   0.13454
   0.32550  -0.27562   0.13454
   0.32550  -0.03562   0.13454
   0.32550  -0.03562   0.13454
   0.08550  -0.03562   0.13454
   0.32550  -0.03562   0.13454
   0.32550  -0.03562   0.13454
   0.55550  -0.03562   0.13454
   0.55550  -0.03562   0.13454
   0.55550  -0.27562   0.13454
   0.55550  -0.27562   0.13454
   0.55550  -0.27562   0.13454
   0.55550  -0.27562   0.37454
   0.55550  -0.27562   0.37454
   0.55550  -0.27562   0.37454
   0.55550  -0.27562   0.37454
   0.55550  -0.27562   0.37454
   0.32550  -0.03562   0.37454
   0.32550  -0.03562   0.37454
   0.32550  -0.03562   0.37454
   0.55550  -0.03562   0.37454
   0.55550  -0.03562   0.13454
   0.32550  -0.03562   0.37454
   0.55550  -0.03562   0.37454
   0.55550  -0.03562   0.37454
   0.55550  -0.03562   0.37454
   0.55550  -0.03562   0.37454
   0.55550  -0.03562   0.37454
   0.55550  -0.03562   0.37454
   0.55550  -0.03562   0.37454
   0.55550  -0.03562   0.37454
   0.55550  -0.03562   0.61454
   0.55550  -0.03562   0.37454
   0.55550  -0.03562   0.37454
   0.55550  -0.03562   0.61454
   0.55550  -0.03562   0.37454
   0.55550  -0.03562   0.37454
   0.55550  -0.03562   0.61454
   0.55550  -0.03562   0.61454
   0.55550  -0.03562   0.61454
   0.55550  -0.03562   0.61454
   0.55550  -0.27562   0.61454
   0.32550  -0.27562   0.61454
   0.32550  -0.27562   0.61454
   0.32550  -0.03562   0.85454
   0.32550  -0.03562   0.61454
   0.32550  -0.03562   0.61454
   0.55550  -0.03562   0.61454
   0.55550  -0.03562   0.61454
   0.55550  -0.03562   0.61454
   0.55550  -0.03562   0.61454
   0.55550  -0.03562   0.61454
   0.55550  -0.03562   0.85454
   0.55550  -0.03562   0.85454
   0.55550  -0.03562   0.85454
   0.55550  -0.03562   0.85454
   0.55550  -0.27562   0.85454
   0.32550  -0.27562   0.85454
   0.32550  -0.27562   0.85454
   0.32550  -0.03562   0.85454
   0.32550  -0.03562   0.85454
   0.32550  -0.03562   0.85454
   0.32550  -0.03562   1.08454
   0.32550  -0.03562   0.85454
   0.55550   0.20438   0.85454
   0.55550  -0.03562   0.85454
   0.55550  -0.03562   0.85454
   0.55550  -0.03562   0.85454
   0.55550  -0.03562   1.08454
   0.55550  -0.27562   0.85454
   0.55550  -0.27562   1.08454
   0.32550  -0.27562   1.08454
   0.32550  -0.27562   1.08454
   0.32550  -0.27562   1.08454
   0.08550  -0.27562   1.08454
   0.08550  -0.03562   1.08454
   0.08550  -0.03562   1.08454
   0.08550  -0.03562   1.08454
   0.08550  -0.03562   1.08454
   0.08550  -0.03562   1.08454
   0.32550  -0.03562   1.08454
   0.32550  -0.03562   1.08454
   0.32550  -0.03562   1.08454
   0.32550  -0.03562   1.08454
   0.08550  -0.03562   1.08454
   0.08550  -0.03562   1.08454
  -0.15450  -0.03562   1.08454
  -0.15450  -0.03562   1.32454
  -0.15450  -0.03562   1.32454
  -0.15450  -0.03562   1.32454
  -0.15450  -0.03562   1.08454
  -0.15450  -0.03562   1.32454
  -0.15450  -0.03562   1.08454
  -0.15450  -0.03562   1.08454
  -0.15450  -0.03562   1.08454
  -0.15450  -0.03562   1.08454
  -0.15450  -0.03562   1.08454
  -0.15450  -0.03562   1.08454
  -0.39450  -0.03562   1.08454
  -0.39450  -0.03562   1.08454
  -0.63450  -0.03562   1.32454
  -0.63450  -0.03562   1.08454
  -0.63450   0.20438   1.08454
  -0.87450   0.20438   1.32454
  -0.87450   0.20438   1.08454
  -0.63450   0.20438   1.08454
  -0.63450   0.20438   1.08454
  -0.63450  -0.03562   1.08454
  -0.63450  -0.03562   1.08454
  -0.63450  -0.03562   1.08454
  -0.63450  -0.03562   1.08454
  -0.63450  -0.03562   1.08454
  -0.87450  -0.03562   1.08454
  -0.87450  -0.03562   1.08454
  -1.11450  -0.03562   1.08454
  -1.11450  -0.03562   1.08454
  -1.35450  -0.03562   1.08454
  -1.35450  -0.03562   1.08454
  -1.35450  -0.03562   1.08454
  -1.35450   0.20438   1.08454
  -1.35450   0.20438   1.08454
  -1.11450   0.20438   1.08454
  -1.11450   0.20438   0.85454
  -1.11450   0.20438   1.08454
  -1.35450  -0.03562   1.08454
  -1.35450  -0.03562   1.08454
  -1.35450  -0.03562   1.08454
  -1.35450  -0.03562   1.08454
  -1.59450  -0.03562   1.08454
  -1.59450  -0.03562   1.08454
  -1.59450  -0.03562   1.08454
  -1.59450  -0.03562   0.85454
  -1.59450  -0.03562   0.85454
  -1.59450  -0.03562   0.85454
  -1.59450  -0.03562   0.85454
  -1.35450  -0.03562   0.85454
  -1.59450   0.20438   0.85454
  -1.59450   0.20438   0.85454
  -1.83450   0.20438   0.85454
  -1.83450  -0.03562   0.85454
  -1.83450  -0.03562   0.85454
  -2.07450  -0.27562   0.85454
  -2.07450  -0.27562   0.85454
  -2.07450  -0.27562   0.85454
  -2.07450  -0.03562   0.85454
  -1.83450  -0.03562   0.85454
  -1.83450  -0.03562   0.85454
  -1.83450  -0.27562   0.85454
  -1.59450  -0.03562   0.85454
  -1.83450  -0.27562   0.85454
  -1.83450  -0.03562   0.85454
  -1.83450  -0.27562   0.85454
  -1.83450  -0.27562   0.85454
  -2.07450  -0.03562   0.85454
  -2.07450  -0.03562   0.85454
  -2.07450  -0.03562   0.85454
  -2.31450  -0.03562   0.85454
  -2.31450  -0.03562   0.85454
  -2.31450  -0.03562   0.85454
  -2.31450  -0.03562   0.85454
  -2.31450  -0.27562   0.85454
  -2.07450  -0.03562   0.61454
  -2.07450  -0.27562   0.61454
  -2.07450  -0.27562   0.61454
  -1.83450  -0.27562   0.85454
  -1.83450  -0.27562   0.85454
  -1.83450  -0.27562   0.85454
  -2.07450  -0.27562   0.85454
  -2.07450  -0.03562   0.61454
  -2.07450  -0.03562   0.85454
  -2.31450  -0.03562   0.85454
  -2.31450  -0.03562   0.61454
  -2.31450  -0.03562   0.61454
  -2.07450  -0.03562   0.61454
  -2.07450  -0.03562   0.85454
  -2.07450  -0.03562   0.61454
  -2.07450  -0.03562   0.61454
  -2.07450  -0.03562   0.61454
  -2.07450  -0.03562   0.85454
  -2.07450  -0.03562   0.61454
  -2.07450  -0.03562   0.61454
  -2.07450  -0.03562   0.61454
  -2.07450  -0.03562   0.61454
  -2.07450  -0.03562   0.61454
  -2.07450  -0.03562   0.61454
  -1.83450  -0.03562   0.61454
  -1.83450  -0.03562   0.61454
  -1.59450  -0.03562   0.61454
  -1.59450  -0.03562   0.61454
  -1.59450  -0.03562   0.61454
  -1.83450  -0.03562   0.61454
  -2.07450  -0.03562   0.61454
  -2.07450  -0.03562   0.61454
  -2.07450  -0.27562   0.61454
  -2.07450  -0.03562   0.61454
  -1.83450  -0.27562   0.61454
  -1.83450  -0.03562   0.61454
  -1.83450  -0.03562   0.37454
  -1.59450  -0.03562   0.37454
  -1.59450  -0.03562   0.37454
  -1.59450  -0.03562   0.37454
  -1.35450  -0.03562   0.37454
  -1.35450  -0.03562   0.37454
  -1.35450  -0.03562   0.37454
  -1.35450  -0.03562   0.37454
  -1.59450  -0.03562   0.37454
  -1.59450  -0.03562   0.37454
  -1.59450  -0.03562   0.37454
  -1.35450  -0.03562   0.37454
  -1.35450  -0.27562   0.37454
  -1.35450  -0.03562   0.37454
  -1.11450  -0.03562   0.37454
  -1.11450  -0.03562   0.13454
  -1.11450  -0.03562   0.13454
  -1.11450  -0.03562   0.13454
  -1.11450  -0.03562   0.13454
  -1.11450  -0.03562   0.13454
  -1.11450  -0.03562   0.13454
  -1.11450  -0.03562   0.37454
  -0.87450  -0.03562   0.13454
  -0.87450  -0.03562   0.13454
  -0.87450  -0.03562   0.13454
  -0.87450  -0.03562   0.13454
  -0.87450  -0.03562   0.13454
  -0.63450  -0.03562   0.13454
  -0.63450  -0.03562   0.13454
  -0.63450  -0.03562   0.13454
  -0.63450  -0.03562   0.13454
  -0.63450  -0.03562   0.13454
  -0.63450  -0.03562   0.13454
  -0.63450  -0.03562   0.13454
  -0.63450  -0.03562   0.13454
  -0.39450  -0.03562   0.13454
  -0.39450  -0.03562   0.13454
  -0.39450  -0.03562  -0.10546
  -0.39450  -0.03562   0.13454
  -0.15450  -0.03562   0.13454
  -0.15450   0.20438   0.13454
  -0.15450   0.20438  -0.10546
  -0.15450   0.20438   0.13454
  -0.15450   0.20438  -0.10546
  -0.15450   0.20438  -0.10546
  -0.15450  -0.03562  -0.10546
  -0.15450  -0.03562  -0.10546
   0.08550  -0.03562  -0.10546
   0.08550  -0.03562  -0.10546
   0.08550  -0.03562  -0.10546
   0.08550  -0.03562  -0.10546
   0.08550  -0.03562  -0.10546
   0.08550  -0.03562  -0.10546
   0.08550  -0.03562  -0.10546
   0.08550   0.20438  -0.10546
   0.08550   0.20438  -0.10546
   0.32550   0.20438  -0.10546
   0.32550   0.20438  -0.10546
   0.32550   0.20438  -0.10546
   0.32550   0.20438  -0.34546
   0.32550   0.20438  -0.10546
   0.32550   0.20438  -0.10546
   0.32550   0.20438  -0.10546
   0.32550   0.20438  -0.10546
   0.32550   0.20438  -0.10546
   0.55550  -0.03562  -0.10546
   0.55550  -0.03562  -0.10546
   0.55550  -0.03562  -0.10546
   0.55550  -0.03562  -0.34546
   0.55550  -0.03562  -0.34546
   0.55550   0.20438  -0.34546
   0.55550   0.20438  -0.34546
   0.55550   0.20438  -0.34546
   0.55550   0.20438  -0.10546
   0.55550   0.20438  -0.10546
   0.55550   0.20438  -0.34546
   0.55550   0.20438  -0.34546
   0.55550   0.20438  -0.10546
   0.55550   0.20438  -0.10546
   0.55550   0.20438  -0.34546
   0.55550   0.20438  -0.34546
   0.79550   0.20438  -0.34546
   0.55550   0.20438  -0.34546
   0.79550   0.20438  -0.34546
   0.79550  -0.03562  -0.34546
   0.79550  -0.03562  -0.34546
   0.79550  -0.03562  -0.34546
   0.79550  -0.03562  -0.34546
   0.55550   0.20438  -0.34546
   0.79550   0.20438  -0.10546
   0.79550   0.20438  -0.34546
   0.55550   0.20438  -0.34546
   0.55550   0.20438  -0.34546
   0.55550   0.20438  -0.34546
   0.55550   0.20438  -0.34546
   0.55550   0.20438  -0.34546
   0.55550   0.20438  -0.34546
   0.55550   0.20438  -0.34546
   0.55550   0.20438  -0.34546
   0.79550   0.20438  -0.34546
   0.79550  -0.03562  -0.34546
   0.79550   0.20438  -0.34546
   0.79550   0.20438  -0.34546
   0.79550  -0.03562  -0.34546
   0.79550  -0.03562  -0.34546
   0.79550  -0.03562  -0.34546
   0.79550  -0.03562  -0.34546
   0.55550  -0.03562  -0.34546
   0.55550   0.20438  -0.34546
