********************************************************************************
              CENTRO DE INSTRUMENTACION Y REGISTRO SISMICO  A.C.

    Anaxagoras 814, Col. Narvarte, Benito Juarez, C.P. 03020 Mexico, D.F.
           Tels. 5687 45 42/ 5687 45  82             Fax. 5669 25 12
********************************************************************************
ARCHIVO ESTANDAR DE ACELERACION:
VERSION DEL FORMATO                    : 2.0
NOMBRE DEL ARCHIVO                     : BA4920151123204120
FECHA Y HORA DE CREACION               : 17/DIC/15, 11:55
REF. CATALOGO ACELEROGRAMAS, SMIS 1996 : REGISTRO No.     /PAG.


================================================================================
DATOS DE LA ESTACION:
NOMBRE DE LA ESTACION                  : BUENOS AIRES
CLAVE DE LA ESTACION                   : BA49
LOCALIZACION DE LA ESTACION            : Del. Cuauhtémoc, Col. Doctores,        
                                       : Av. Lázaro Cárdenas esq. con           
                                       : Calle Dr. Márquez.                     
                                       :                                        
                                       : 
COORDENADAS DE LA ESTACION             : 19.4097 LAT. N
                                       : 99.1450 LONG. W
ALTITUD (msnm)                         : 2233
TIPO DE SUELO                          : Terreno blando, material compresible
                                       : (arcillas)                
                                       : 
INSTITUCION RESPONSABLE                : CIRES
                                       : 

================================================================================
DATOS DEL ACELEROGRAFO:
MODELO DEL ACELEROGRAFO                : RADESD
NUMERO DE SERIE DEL ACELEROGRAFO       : 176
NUMERO DE CANALES                      : 3
ORIENTACION C1-C6 (rumbo;orientacion)  : /S00E/+V/N90W
ORIENTACION C7-C12 (rumbo;orientacion) : 
VEL. DE MUESTREO, C1-C6 (muestras/s)   : /100/100/100
VEL. DE MUESTREO, C7-C12 (muestras/s)  : 
ESC. COMPLETA DE SENSORES, C1-C6, (g)  : /0.5/0.5/0.5
ESC. COMPLETA DE SENSORES, C7-C12, (g) : 
FREC. NAT. DE SENSORES, C1-C6, (Hz)    : /52.99/52.03/52.99
FREC. NAT. DE SENSORES, C7-C12, (Hz)   : 
AMORTIGUAMIENTO DE SENSORES, C1-C6     : /0.5589/0.5469/0.6096
AMORTIGUAMIENTO DE SENSORES, C7-C12    : 
INTERVALO DE MUESTREO, C1-C6, (s)      : /0.01/0.01/0.01
INTERVALO DE MUESTREO, C7-C12, (s)     : 
UMBRAL DE DISPARO, C1-C6, (Gal)        : /0.96/1.92/0.96
UMBRAL DE DISPARO, C7-C12, (Gal)       : 
MEMORIA DE PREEVENTO (s)               : 44.0
TIEMPO DE POSEVENTO (s)                : 0.0


================================================================================
DATOS DEL SISMO:
FECHA DEL SISMO (GMT)                  : 23/NOV/15
HORA EPICENTRO (GMT)                   : 20:41:20.0
MAGNITUD(ES)                           : /Mc=5.6
COORDENADAS DEL EPICENTRO              : 16.86 LAT. N
                                       : 98.94 LONG. W
PROFUNDIDAD FOCAL (km)                 : 10
FUENTE DE LOS DATOS EPICENTRALES       : SSN
                                       : INSTITUTO DE GEOFISICA, UNAM

================================================================================
DATOS DE ESTE REGISTRO:
HORA DE LA PRIMERA MUESTRA (GMT)       : 20:42:36.00
EXACTITUD DEL TIEMPO (s)               : 0.01
DURACION DEL REGISTRO (s), C1-C6       : /250.4/250.4/250.4
DURACION DEL REGISTRO (s), C7-C12      : 
NUM. TOTAL DE MUESTRAS, C1-C6          : /25040/25040/25040
NUM. TOTAL DE MUESTRAS, C7-C12         : 
ACEL. MAX. (Gal), C1-C6                : /5.96774/2.66672/6.27622
ACEL. MAX., C1-C6, EN LA MUESTRA       : /5854/6539/6103
ACEL. MAX. (Gal), C7-C12               : 
ACEL. MAX., C7-C12, EN LA MUESTRA      : 
UNIDADES DE LOS DATOS                  : Gal (cm/s/s)
FACTOR DE DECIMACION                   : 1
FORMATO DATOS (FORTRAN,10 campos/dato) : 3F10.5


================================================================================
CALIDAD DEL ACELEROGRAMA:
REGISTRO DIGITAL COMPLETO CON TIEMPO ABSOLUTO CORRECTO.


================================================================================
COMENTARIOS:














================================================================================
DATOS DE ACELERACION:
---------+---------+---------+---------+---------+---------+---------+---------+
   CANAL-1   CANAL-2   CANAL-3   CANAL-4   CANAL-5   CANAL-6   CANAL-7   CANAL-8
      S00E        +V      N90W
---------+---------+---------+---------+---------+---------+---------+---------+
[...]
  -1.78349   0.32603  -2.56736
  -1.91816   0.38589  -2.77685
  -1.63385   0.59538  -3.49511
  -1.85831   0.56545  -3.68964
  -2.45686   0.32603  -3.15094
  -2.87584  -0.10792  -2.40276
  -3.19008  -0.46705  -2.37283
  -2.99555  -0.18274  -3.43526
  -2.72620   0.14647  -3.85424
  -3.05541  -0.21266  -2.70203
  -3.81856  -0.58676  -1.72939
  -4.10287  -0.18274  -2.58232
  -3.92331  -0.10792  -3.85424
  -3.71381  -0.39223  -3.37540
  -4.17769  -0.27252  -2.47758
  -4.86602   0.22128  -2.79181
  -4.53682   0.37092  -3.48015
  -3.77367  -0.63165  -3.28562
  -3.86345  -1.14042  -2.85167
  -4.59667  -0.63165  -2.80678
  -4.71638  -0.64661  -3.04620
  -4.20762  -1.00574  -3.48015
  -3.68389  -1.21524  -3.25569
  -3.99812  -1.21524  -2.79181
  -4.28244  -1.03567  -2.73196
  -3.86345  -1.63422  -2.82174
  -3.63899  -1.36487  -2.86663
  -3.66892  -1.31998  -2.83671
  -3.71381  -1.70904  -2.53743
  -3.63899  -2.14299  -2.32794
  -3.62403  -1.72400  -2.37283
  -3.33972  -1.42473  -2.59729
  -3.27986  -1.60429  -2.23816
  -3.50432  -1.82875  -2.04363
  -3.62403  -1.49955  -1.93888
  -3.26490  -1.29005  -1.80421
  -2.98059  -1.72400  -1.25055
  -3.17512  -1.78386  -1.16076
  -3.35468  -1.17034  -1.37026
  -2.98059  -1.14042  -1.13084
  -2.84591  -1.39480  -0.62207
  -3.01052  -0.67654  -0.45747
  -2.74117  -0.45208  -0.44250
  -2.62146  -0.79625  -0.27790
  -2.57657  -0.28748  -0.11330
  -2.59153   0.35596   0.30568
  -2.38204  -0.09295   0.70971
  -2.33715  -0.25756   0.67978
  -2.30722   0.26618   0.41043
  -1.94809   0.50560   0.60496
  -1.70867   0.40085   1.00898
  -1.81342   0.65523   1.20351
  -1.64881   0.90962   0.85934
  -1.19990   0.26618   1.14365
  -0.97544   0.08661   1.65242
  -0.94552   0.35596   1.72724
  -0.63128   0.32603   1.87688
  -0.27215   0.37092   1.86191
   0.05705   0.95451   1.66739
   0.49100   0.89465   1.96666
   0.74539   0.43078   2.68492
   0.76035   1.01436   2.59514
   1.05963   1.58299   1.74220
   1.76292   1.07422   1.80206
   2.07716   0.19136   2.77470
   1.98738   0.70013   2.53528
   2.19687   1.73262   1.23344
   2.79542   1.16400   0.94913
   3.07973   0.26618   1.77213
   2.76550   0.58042   1.71228
   2.75053   1.31364   0.91920
   3.34908   1.05926   0.44036
   3.69325   0.84976   0.67978
   3.52865   1.22386   0.73963
   3.39397   1.40342   0.36554
   3.52865   1.25378  -0.12827
   4.02245   2.64541  -0.12827
   4.21698   0.84976  -0.15819
   4.14216   0.05668   0.24583
   4.23194   1.70270  -0.48740
   3.97756   1.64284  -0.80163
   4.42647   1.44831  -0.69689
   4.71078   1.40342  -0.44250
   4.50129   1.10415  -0.38265
   4.71078   1.52313  -0.75674
   5.05495   1.52313  -1.07098
   4.78560   1.25378  -0.71185
   4.95020   1.25378  -0.57718
   5.26444   1.89723  -0.89142
   5.50386   1.40342  -1.07098
   5.75825   1.31364  -0.68192
   5.81810   0.61034  -0.44250
   5.87796   1.13407  -0.71185
   5.95278   0.58042  -1.07098
   5.89292   0.10157  -0.39761
   5.72832   0.02676  -0.03848
   5.92285  -0.39223  -0.32279
   5.96774  -0.48201  -0.59214
   5.83307  -0.42216  -0.39761
   5.48890  -0.33237   0.06626
   5.18962  -0.73640   0.06626
   5.08488  -0.96085  -0.32279
   4.87539  -0.67654  -0.29287
   4.35165  -0.00317   0.24583
   4.02245  -0.25756   0.33561
   4.12720  -0.70647   0.24583
   4.09727  -0.60172  -0.05345
   3.61843  -0.39223   0.38050
   3.04981  -0.27252   0.64985
   2.90017  -0.36230   0.61992
   2.76550  -0.58676   0.57503
   2.46622  -0.55683   0.53014
   2.09213   0.11654   0.72467
   2.00234   0.25121   0.78452
   2.07716  -0.49698   1.18855
   1.53847  -0.46705   1.29329
   0.89503   0.70013   1.08380
   0.82021   0.58042   1.12869
   1.11948  -0.73640   1.92177
   0.90999  -0.91596   2.41557
   0.26655   0.17639   1.99659
   0.22166   0.44574   1.48782
   0.68553  -0.15281   2.01155
   0.88006  -0.49698   2.87945
   0.44611  -0.61669   3.02909
   0.11691  -0.49698   2.49039
   0.47604  -0.46705   2.71485
   0.92495  -0.79625   3.28347
   0.73042  -0.82618   3.38822
   0.61071  -0.79625   3.20865
   0.71546  -0.85611   3.32836
   1.02970  -0.78129   3.73238
   1.02970  -1.05063   4.01670
   0.71546  -1.06560   3.95684
   0.56582  -0.63165   3.62764
   0.88006  -0.46705   3.86706
   1.01474  -0.90100   4.24115
   0.77532  -1.12545   4.27108
   0.71546  -0.67654   3.98677
   0.92495  -0.31741   4.10648
   1.14941  -0.84114   4.37583
   0.93992  -1.24516   4.48057
   0.77532  -0.73640   4.24115
   1.05963  -0.34734   4.24115
   1.41876  -0.64661   4.42072
   1.41876  -1.17034   4.40575
   1.47861  -0.85611   4.06159
   1.73300  -0.34734   3.88202
   1.73300   0.01179   3.88202
   1.44868   0.14647   3.88202
   1.47861  -0.06303   3.65757
   1.89760  -0.01814   3.35829
   1.85271   0.22128   3.40318
   1.53847   0.53552   3.50793
   1.37387   0.61034   3.23858
   1.40379   0.47567   2.99916
   1.44868   0.74502   2.93931
   1.46365   0.67020   3.16376
   1.34394   0.49063   3.08894
   1.04466   0.77494   2.62507
   0.96984   1.13407   2.19112
   1.07459   1.08918   2.26594
   0.99977   1.41839   2.43054
   0.82021   1.16400   2.05644
   0.46108   1.22386   1.71228
   0.34137   1.49320   1.89184
   0.25158   1.40342   1.69731
   0.11691   1.04429   1.17358
   0.05705   1.02933   1.09876
  -0.39186   1.41839   1.09876
  -0.87070   1.65781   0.72467
  -0.90063   1.25378   0.42539
  -0.84077   0.87969   0.39547
  -1.09515   1.17897   0.03634
  -1.43932   1.58299  -0.18812
  -1.22983   1.07422  -0.17316
  -1.22983   0.70013  -0.33776
  -1.49918   0.46071  -0.84653
  -1.52910   0.80487  -1.16076
  -1.19990   0.86473  -1.29544
  -0.88566   0.17639  -1.25055
  -0.99041  -0.00317  -1.48997
  -1.36450   0.11654  -1.81917
  -0.96048   0.13150  -2.07355
  -0.81084  -0.52690  -2.20823
  -0.87070  -0.66158  -2.28305
  -0.79588  -0.45208  -2.43268
  -1.06523  -1.12545  -2.43268
  -1.19990  -0.76632  -2.74692
  -1.00537   0.26618  -3.45022
  -0.87070  -0.61669  -3.19584
  -1.25976  -1.67911  -2.41772
  -1.85831  -0.85611  -2.80678
  -1.85831   0.01179  -3.42029
  -1.45429  -0.79625  -3.10605
  -1.64881  -1.29005  -2.43268
  -2.39700  -0.27252  -2.64218
  -2.45686  -0.63165  -3.04620
  -2.38204  -1.06560  -2.74692
  -2.86088  -0.24259  -2.41772
  -3.36965  -0.16777  -2.50750
  -3.38461  -0.97582  -2.55239
  -3.63899  -0.93092  -2.31297
  -3.92331  -0.19770  -2.49254
  -4.08791  -0.30245  -2.73196
  -4.16273  -0.81121  -2.47758
  -4.44704  -1.12545  -2.14837
  -4.85106  -1.27509  -2.22319
  -4.97077  -1.11049  -2.65714
  -4.91091  -0.75136  -2.64218
  -5.10544  -0.88603  -2.44765
  -5.41968  -1.00574  -2.32794
  -5.22515  -0.94589  -2.31297
  -4.92588  -0.52690  -2.50750
  -4.77624  -0.55683  -2.58232
  -4.89595  -0.67654  -2.13341
  -5.06055  -0.78129  -1.80421
  -5.09048  -0.52690  -2.05859
  -4.85106  -0.21266  -2.49254
  -4.55178  -0.33237  -2.13341
  -4.62660  -0.31741  -1.54982
  -5.03062  -0.91596  -1.40018
  -5.10544  -0.97582  -1.68450
  -4.47696  -0.55683  -1.92392
  -4.40215  -0.82618  -1.43011
  -4.91091  -1.37984  -0.84653
  -5.18026  -1.11049  -0.98120
  -5.00070  -0.73640  -1.54982
  -4.67149  -0.81121  -1.37026
  -4.49193  -0.87107  -0.96624
  -4.61164  -0.21266  -1.11587
  -4.73135  -0.06303  -1.43011
  -4.73135  -0.06303  -1.53486
  -4.43207   0.32603  -1.32537
  -4.28244   0.29610  -1.35529
  -4.16273   0.19136  -1.51989
  -3.93827   0.28114  -1.53486
  -3.62403   0.29610  -1.47500
  -3.48936   0.10157  -1.50493
  -3.39957   0.26618  -1.83413
  -3.19008   0.56545  -1.89399
  -3.08533   0.31107  -1.87903
  -2.98059   0.26618  -2.04363
  -2.66635   0.23625  -2.02866
  -2.18751   0.23625  -2.04363
  -1.99298   0.26618  -2.25312
  -1.90320   0.58042  -2.43268
  -1.57400   0.34100  -2.32794
  -1.34954  -0.04806  -2.31297
  -1.24479  -0.28748  -2.17830
  -1.09515   0.04172  -2.28305
  -0.85573   0.34100  -2.49254
  -0.52653   0.46071  -2.70203
  -0.21229   0.31107  -2.49254
  -0.22726  -0.00317  -2.25312
  -0.33200   0.43078  -2.25312
  -0.30208   0.68516  -2.32794
   0.19173  -0.03310  -2.32794
   0.23662  -0.52690  -1.77428
  -0.09258  -0.21266  -1.44508
   0.31144   0.44574  -1.74435
   0.88006   0.67020  -2.38779
   0.89503   1.02933  -2.32794
   0.67057   0.80487  -1.77428
   0.88006   0.65523  -1.65457
   1.19430   0.83480  -2.31297
   1.59832   0.90962  -2.64218
   1.67314   0.99940  -2.35787
   1.44868   0.44574  -1.92392
   1.52350   0.43078  -2.28305
   2.16694   0.70013  -2.85167
   2.54104   0.78991  -2.79181
   2.09213   0.35596  -2.46261
   1.52350   0.58042  -2.38779
   1.92752   0.98444  -2.77685
   2.75053   0.38589  -2.62721
   2.63082  -0.43712  -2.29801
   1.89760   0.25121  -2.16334
   1.95745   0.89465  -2.28305
   2.73557   0.16143  -2.23816
   2.79542  -0.18274  -1.86406
   2.27169   0.55049  -1.80421
   2.15198   0.87969  -1.84910
   2.49615   0.52056  -1.77428
   2.79542   0.58042  -1.40018
   2.81039   0.73005  -1.38522
   2.78046   0.20632  -1.53486
   2.73557  -0.19770  -1.01113
   2.40637   0.23625  -0.54725
   2.79542   0.47567  -0.89142
   3.22937  -0.01814  -1.34033
   2.97499   0.10157  -1.02609
   2.27169   0.46071  -0.42754
   2.21184   0.56545  -0.45747
   2.87024   0.13150  -0.57718
   3.01988  -0.10792  -0.36769
   2.21184   0.08661   0.02137
   1.77789   0.32603   0.06626
   2.30162   0.40085   0.12612
   2.73557  -0.01814   0.33561
   2.34651  -0.12288   0.54510
   1.76292   0.19136   0.57503
   1.67314   0.38589   0.82942
   2.28666   0.01179   0.88927
   2.61586   0.62531   0.75460
   2.06220   0.98444   0.87431
   1.53847   0.62531   1.39804
   1.71803  -0.19770   1.99659
   2.12205  -0.33237   1.92177
   2.15198   0.11654   1.63746
   1.49358  -0.03310   2.01155
   1.25416  -0.46705   2.59514
   1.46365  -0.52690   2.66996
   1.86767  -0.16777   2.46047
   1.94249  -0.34734   2.58018
   1.38883  -0.09295   3.10391
   0.96984   0.19136   3.35829
   1.26912  -0.37727   3.47800
   1.83774  -0.67654   3.31340
   1.71803   0.20632   3.20865
   0.99977   0.44574   3.53786
   0.98481  -0.57179   4.09152
   1.35890  -1.23020   4.24115
   1.61329  -0.31741   3.83713
   1.40379   0.38589   3.56778
   0.98481   0.13150   4.04662
   0.96984   0.26618   4.42072
   1.32897   0.16143   4.30101
   1.40379  -0.07799   4.25612
   1.13445   0.52056   4.27108
   1.08955   0.77494   4.39079
   1.22423   0.04172   4.74992
   1.55343  -0.15281   4.88459
   1.76292   0.67020   4.57036
   1.46365   0.87969   4.51050
   1.25416   0.53552   4.89956
   1.61329  -0.04806   5.30358
   2.00234  -0.30245   5.42329
   1.89760   0.47567   5.07912
   1.76292   1.28371   4.37583
   2.15198   0.38589   4.58532
   2.42133  -0.61669   5.90213
   2.28666  -0.16777   6.11162
   2.33155  -0.10792   5.19883
   2.67571  -0.73640   4.74992
   2.88521  -0.57179   5.49811
   2.78046  -0.64661   6.27622
   2.79542  -0.82618   5.81235
   3.21441  -0.49698   4.89956
   3.34908  -0.24259   4.86963
   3.10966  -0.79625   5.55796
   2.97499  -1.30502   5.90213
   3.24434  -0.48201   4.86963
   3.60347  -0.57179   4.07655
   3.43886  -1.43969   4.49554
   2.94506  -1.06560   4.85467
   2.87024  -0.48201   4.28604
   3.22937  -0.60172   3.34333
   3.09470  -1.05063   3.22362
   2.46622  -0.85611   3.64260
   2.31658  -0.13785   3.65757
   2.51111  -0.46705   2.84952
   2.75053  -0.69150   2.19112
   2.39140  -0.64661   2.47543
   1.68810  -0.70647   3.14880
   1.64321  -0.54187   2.47543
   1.91256  -0.19770   1.35315
   1.86767  -0.54187   1.23344
   1.58336  -0.70647   1.90681
   1.34394  -0.10792   1.68235
   1.35890   0.05668   0.84438
   1.58336  -0.81121   0.50021
   1.38883  -0.58676   0.72467
   0.92495   0.13150   0.45532
   0.80524   0.13150  -0.09834
   1.23919  -0.46705  -0.48740
   1.25416  -0.48201  -0.30783
   0.76035  -0.39223  -0.08337
   0.49100  -0.16777  -0.60711
   0.93992   0.20632  -1.29544
   0.92495   0.07165  -1.41515
   0.46108  -0.34734  -1.05602
   0.23662   0.37092  -1.34033
   0.44611   1.31364  -2.02866
   0.58079   0.25121  -2.13341
   0.46108  -0.42216  -1.68450
   0.20669   0.11654  -1.75932
   0.20669   0.47567  -2.26808
   0.04209   0.52056  -2.86663
  -0.06266   0.71509  -2.94145
  -0.03273   0.29610  -2.49254
  -0.36193   0.26618  -2.44765
  -0.69113   0.64027  -2.92649
  -0.58639   0.49063  -3.09109
  -0.40682   0.32603  -2.82174
  -0.81084   0.43078  -2.58232
  -1.21486   0.56545  -2.61225
  -1.27472   0.87969  -2.85167
  -1.18494   0.56545  -2.83671
  -1.30465   0.34100  -2.52247
  -1.48421   0.22128  -2.40276
  -1.55903   0.93955  -2.85167
  -1.54407   1.14904  -3.06116
  -1.45429   0.95451  -2.70203
  -1.72363  -0.04806  -2.17830
  -1.90320   0.08661  -2.25312
  -1.58896   1.04429  -2.85167
  -1.49918   0.29610  -2.76189
  -2.09773  -0.15281  -2.41772
  -2.21744   0.50560  -2.34290
  -1.88823   0.59538  -2.31297
  -2.14262  -0.34734  -2.32794
  -2.57657   0.05668  -2.25312
  -2.38204   0.19136  -2.05859
  -2.27729  -0.42216  -1.57975
  -2.71124  -0.27252  -1.56479
  -2.89081   0.31107  -1.95384
  -2.35211   0.31107  -1.92392
  -2.32218  -0.66158  -1.31040
  -3.08533  -0.24259  -0.96624
  -3.20505   0.05668  -1.25055
  -2.63642  -0.70647  -1.47500
  -2.57657  -0.85611  -1.48997
  -3.17512   0.10157  -1.26551
  -3.47439   0.10157  -1.28047
  -3.01052  -0.69150  -1.35529
  -2.95066  -0.39223  -1.56479
  -3.32476   0.22128  -1.59471
  -3.60907  -0.24259  -1.38522
  -3.48936  -0.52690  -0.96624
  -3.48936  -0.55683  -1.04105
  -3.45943  -0.13785  -1.37026
  -3.24994   0.34100  -1.60968
  -3.26490  -0.12288  -1.31040
  -3.33972  -0.64661  -0.62207
  -3.16015  -0.42216  -0.62207
  -2.92073  -0.00317  -1.60968
  -2.75613  -0.07799  -1.71442
  -2.77110  -0.69150  -1.04105
  -2.86088  -0.24259  -0.77171
  -2.72620   0.07165  -1.20566
  -2.14262  -0.34734  -1.53486
  -1.82838  -0.91596  -1.40018
  -2.18751  -0.87107  -0.89142
  -2.53168  -0.46705  -0.81660
  -1.61889  -0.75136  -1.22062
  -1.06523  -1.23020  -1.57975
  -1.91816  -0.94589  -1.16076
  -2.29226  -0.82618  -0.75674
  -1.37947  -0.97582  -0.93631
  -0.93055  -1.00574  -1.17573
  -1.34954  -0.88603  -1.34033
  -1.72363  -0.54187  -1.17573
  -1.42436  -0.63165  -0.81660
  -1.27472  -0.37727  -0.72682
  -1.36450  -0.64661  -1.26551
  -1.18494  -0.24259  -1.92392
  -0.97544   0.87969  -2.08852
  -1.58896  -0.00317  -1.23558
  -1.66378  -0.78129  -0.62207
  -1.06523  -0.21266  -1.46004
  -1.46925  -0.72143  -1.99874
  -1.93313  -0.36230  -2.22319
  -1.93313   0.52056  -2.07355
  -1.75356   0.70013  -2.10348
  -2.05284   0.34100  -2.67210
  -2.54664   0.41581  -2.98634
  -2.51671   1.01436  -2.67210
  -2.38204   0.81984  -2.56736
  -2.50175   0.59538  -2.95642
  -2.71124   0.77494  -3.21080
  -2.81599   1.31364  -3.16591
  -2.57657   0.98444  -3.03123
  -2.63642   0.74502  -3.03123
  -2.75613   0.96947  -3.07613
  -2.41197   0.99940  -3.24073
  -2.27729   0.81984  -3.52504
  -2.60649   0.80487  -3.34547
  -2.77110   0.83480  -3.13598
  -2.29226   0.73005  -3.22576
  -2.00794   0.61034  -3.25569
  -2.29226   0.67020  -3.45022
  -2.23240   0.68516  -3.36044
  -1.58896  -0.00317  -2.76189
  -1.78349   0.04172  -2.61225
  -2.05284   0.32603  -3.12102
  -1.64881   0.43078  -3.22576
  -1.22983  -0.21266  -2.53743
  -1.42436  -0.45208  -1.93888
  -1.57400   0.01179  -2.32794
  -1.19990  -0.07799  -2.88160
  -0.97544  -0.36230  -2.34290
  -1.27472  -0.12288  -1.69946
  -1.33458   0.29610  -1.93888
  -1.14005   0.02676  -2.11845
  -0.94552  -0.09295  -1.75932
