********************************************************************************
               CENTRO DE INSTRUMENTACION Y REGISTRO SISMICO  A.C.  
                       Coordinacion de Servicios Tecnicos
     Anaxagoras 814, Col. Narvarte, Benito Juarez, C.P. 03020 Mexico, D.F.
            Tels. 687 45 42/ 687 45  82             Fax. 669 25 12
********************************************************************************
ARCHIVO ESTANDAR DE ACELERACION:
VERSION DEL FORMATO                    : 2.0
NOMBRE DEL ARCHIVO                     : BA499303.311
FECHA Y HORA DE CREACION               : 8 de febrero de 1996/17:58
REF. CATALOGO ACELEROGRAMAS, SMIS 1995 : REGISTRO No. 3952 /PAG. 363


================================================================================
DATOS DE LA ESTACION:
NOMBRE DE LA ESTACION                  : BUENOS AIRES
CLAVE DE LA ESTACION                   : BA49
LOCALIZACION DE LA ESTACION            : ESCUELA SECUNDARIA 102, DOCTOR MARQUEZ
                                       : Y EJE CENTRAL, BUENOS AIRES.
                                       :
                                       :
                                       :
COORDENADAS DE LA ESTACION             : 19.410 LAT. N 
                                       : 99.145 LONG. W 
ALTITUD (msnm)                         : 2233
TIPO DE SUELO                          : TERRENO BLANDO, MATERIAL COMPRESIBLE
                                       : (ARCILLAS)
                                       : 
INSTITUCION RESPONSABLE                : CIRES 
                                       :

================================================================================
DATOS DEL ACELEROGRAFO:
MODELO DEL ACELEROGRAFO                : SSA-1
NUMERO DE SERIE DEL ACELEROGRAFO       : 176
NUMERO DE CANALES                      : 3
ORIENTACION C1-C6 (rumbo;orientacion)  : /N00E/+V/N90E
ORIENTACION C7-C12 (rumbo;orientacion) :
VEL. DE MUESTREO, C1-C6 (muestras/s)   : /200/200/200
VEL. DE MUESTREO, C7-C12 (muestras/s)  :
ESC. COMPLETA DE SENSORES, C1-C6, (g)  : /2/2/2
ESC. COMPLETA DE SENSORES, C7-C12, (g) :
FREC. NAT. DE SENSORES, C1-C6, (Hz)    : /50/50/50
FREC. NAT. DE SENSORES, C7-C12, (Hz)   :
AMORTIGUAMIENTO DE SENSORES, C1-C6     : /0.700/0.700/0.700
AMORTIGUAMIENTO DE SENSORES, C7-C12    :
INTERVALO DE MUESTREO, C1-C6, (s)      : /0.005/0.005/0.005
INTERVALO DE MUESTREO, C7-C12, (s)     :
UMBRAL DE DISPARO, C1-C6, (Gal)        : /2/2/2
UMBRAL DE DISPARO, C7-C12, (Gal)       :
MEMORIA DE PREEVENTO (s)               : 15
TIEMPO DE POSEVENTO (s)                : 90


================================================================================
DATOS DEL SISMO:
FECHA DEL SISMO (GMT)                  : 31/MAR/93
HORA EPICENTRO (GMT)                   : 10:18:15,5
MAGNITUD(ES)                           : /Mb=5.30/Ms=5.00/Mc=5.30
COORDENADAS DEL EPICENTRO              : 17.180 LAT. N 
                                       : 101.020 LONG. W
PROFUNDIDAD FOCAL (km)                 : < 5
FUENTE DE LOS DATOS EPICENTRALES       : INSTITUTO DE INGENIERIA UNAM
                                       : INSTITUTO DE GEOFISICA, UNAM

================================================================================
DATOS DE ESTE REGISTRO:
HORA DE LA PRIMERA MUESTRA (GMT)       : 10:18:00.00
EXACTITUD DEL TIEMPO (s)               :     
DURACION DEL REGISTRO (s), C1-C6       : /143.36/143.36/143.36
DURACION DEL REGISTRO (s), C7-C12      :
NUM. TOTAL DE MUESTRAS, C1-C6          : /28672/28672/28672
NUM. TOTAL DE MUESTRAS, C7-C12         :
ACEL. MAX. (Gal), C1-C6                : /3.13272/0.79972/2.22736
ACEL. MAX., C1-C6, EN LA MUESTRA       :
ACEL. MAX. (Gal), C7-C12               :
ACEL. MAX., C7-C12, EN LA MUESTRA      :
UNIDADES DE LOS DATOS                  : Gal (cm/s/s)
FACTOR DE DECIMACION                   : 1
FORMATO DATOS (FORTRAN,10 campos/dato) : 3F10.5


================================================================================
CALIDAD DEL ACELEROGRAMA:
REGISTRO DIGITAL COMPLETO, CARECE DE TIEMPO ABSOLUTO.


================================================================================
COMENTARIOS:
             Los equipos se encontraban con una ganancia de 2 en los ejes
             horizontales y de 4 en el eje vertical, por lo que las escalas
             completas eran de 1 g y 1/2 g respectivamente.











================================================================================
DATOS DE ACELERACION:
---------+---------+---------+---------+---------+---------+---------+---------+
   CANAL-1   CANAL-2   CANAL-3   CANAL-4   CANAL-5   CANAL-6   CANAL-7   CANAL-8
      N00E        +V      N90E
---------+---------+---------+---------+---------+---------+---------+---------+
[...]
   1.65728   0.07972   0.31736
   1.65728   0.07972   0.31736
   1.65728   0.07972   0.31736
   1.65728   0.07972   0.31736
   1.65728   0.07972   0.31736
   1.65728   0.07972  -0.16264
   1.65728   0.07972  -0.16264
   1.65728   0.07972  -0.16264
   1.65728   0.07972  -0.16264
   1.65728   0.07972  -0.16264
   1.65728   0.07972  -0.16264
   1.65728   0.07972  -0.16264
   1.65728   0.07972  -0.16264
   1.65728   0.07972  -0.16264
   1.65728   0.07972  -0.16264
   1.65728   0.07972  -0.16264
   1.65728   0.07972  -0.16264
   1.65728   0.07972  -0.16264
   1.65728   0.07972  -0.16264
   1.65728   0.07972  -0.16264
   1.65728   0.07972  -0.16264
   1.65728   0.07972  -0.64264
   1.65728   0.07972  -0.64264
   1.65728   0.07972  -0.16264
   1.65728   0.07972  -0.64264
   1.65728   0.07972  -0.64264
   1.65728   0.07972  -0.64264
   1.65728   0.07972  -0.64264
   1.65728   0.07972  -0.64264
   1.65728   0.07972  -0.64264
   1.65728   0.07972  -0.64264
   1.65728   0.07972  -0.64264
   1.65728   0.07972  -0.64264
   1.65728   0.07972  -0.64264
   1.65728   0.07972  -0.64264
   1.65728   0.07972  -0.64264
   1.65728   0.07972  -0.64264
   1.65728   0.07972  -0.64264
   1.65728   0.07972  -0.64264
   1.65728   0.07972  -0.64264
   1.65728   0.07972  -0.64264
   1.17728   0.07972  -0.64264
   1.65728   0.07972  -0.64264
   1.17728   0.07972  -0.64264
   1.17728   0.07972  -0.64264
   1.17728   0.07972  -0.64264
   1.17728   0.07972  -0.64264
   1.17728   0.07972  -0.64264
   1.17728   0.07972  -0.64264
   1.17728   0.07972  -0.64264
   1.17728   0.07972  -0.64264
   1.17728   0.07972  -0.64264
   1.17728   0.07972  -0.64264
   1.17728   0.07972  -0.64264
   1.17728   0.07972  -0.64264
   1.17728   0.07972  -0.64264
   1.17728   0.07972  -0.64264
   1.17728   0.07972  -0.64264
   1.17728   0.07972  -0.64264
   1.17728   0.07972  -0.64264
   1.17728   0.07972  -0.64264
   1.17728   0.07972  -0.64264
   1.17728   0.07972  -0.64264
   1.17728   0.07972  -0.64264
   1.17728   0.07972  -0.64264
   1.17728   0.07972  -0.64264
   1.17728   0.07972  -0.64264
   1.17728   0.07972  -0.64264
   1.17728   0.07972  -0.64264
   1.17728   0.07972  -0.64264
   1.17728   0.07972  -0.64264
   1.17728   0.07972  -0.64264
   1.17728   0.07972  -0.64264
   1.17728   0.07972  -0.64264
   1.17728   0.07972  -0.64264
   1.17728   0.07972  -0.64264
   1.17728   0.07972  -0.64264
   1.17728   0.07972  -0.64264
   1.17728   0.07972  -0.64264
   1.17728   0.07972  -0.64264
   1.17728   0.07972  -0.64264
   1.17728   0.07972  -0.64264
   1.17728   0.07972  -0.64264
   1.17728   0.07972  -0.64264
   1.17728   0.07972  -0.64264
   1.17728   0.07972  -0.64264
   1.17728   0.07972  -0.64264
   1.17728   0.07972  -0.16264
   1.17728   0.07972  -0.64264
   1.17728   0.07972  -0.64264
   1.17728   0.07972  -0.64264
   1.17728   0.07972  -0.16264
   1.17728   0.07972  -0.64264
   1.17728   0.07972  -0.16264
   1.17728   0.07972  -0.16264
   1.17728   0.07972  -0.16264
   1.17728   0.07972  -0.16264
   1.17728   0.07972  -0.16264
   1.17728   0.07972  -0.64264
   1.17728   0.07972  -0.16264
   1.17728   0.07972  -0.16264
   1.17728  -0.15028  -0.16264
   1.17728  -0.15028  -0.16264
   1.17728  -0.15028  -0.16264
   1.17728  -0.15028  -0.16264
   1.17728   0.07972  -0.16264
   1.17728  -0.15028  -0.16264
   1.17728  -0.15028  -0.16264
   1.17728  -0.15028  -0.16264
   1.17728  -0.15028  -0.16264
   1.17728  -0.15028  -0.16264
   0.69728  -0.15028   0.31736
   1.17728  -0.15028  -0.16264
   1.17728  -0.15028   0.31736
   1.17728  -0.15028  -0.16264
   1.17728  -0.15028   0.31736
   1.17728  -0.15028   0.31736
   1.17728  -0.15028   0.31736
   1.17728  -0.15028   0.31736
   1.17728  -0.15028   0.31736
   1.17728  -0.15028   0.31736
   1.17728  -0.15028   0.31736
   1.17728  -0.15028   0.31736
   1.17728  -0.15028   0.31736
   1.17728  -0.15028   0.31736
   1.17728  -0.15028   0.31736
   1.17728  -0.15028  -0.16264
   1.17728  -0.15028   0.31736
   1.17728  -0.15028   0.31736
   1.17728  -0.15028   0.31736
   1.17728  -0.15028   0.31736
   1.17728  -0.15028   0.31736
   1.17728  -0.15028   0.31736
   1.17728  -0.15028   0.31736
   1.17728  -0.15028   0.31736
   1.17728  -0.15028   0.31736
   1.17728  -0.15028   0.31736
   1.17728  -0.15028   0.31736
   1.17728  -0.15028   0.31736
   1.17728  -0.15028   0.31736
   1.17728  -0.15028   0.31736
   1.17728  -0.15028   0.31736
   1.17728  -0.15028   0.31736
   1.17728  -0.15028   0.31736
   0.69728  -0.15028   0.31736
   1.17728  -0.15028   0.31736
   1.17728  -0.15028   0.31736
   1.17728  -0.15028   0.31736
   1.17728  -0.15028   0.31736
   1.17728  -0.15028   0.31736
   1.17728  -0.15028   0.31736
   0.69728   0.07972   0.31736
   1.17728   0.07972   0.31736
   1.17728  -0.15028   0.31736
   1.17728   0.07972   0.31736
   0.69728  -0.15028   0.31736
   0.69728   0.07972   0.31736
   0.69728   0.07972   0.31736
   0.69728  -0.15028   0.31736
   0.69728   0.07972   0.31736
   0.69728   0.07972   0.31736
   0.69728   0.07972   0.31736
   0.69728   0.07972   0.31736
   0.69728   0.07972  -0.16264
   0.69728   0.07972  -0.16264
   0.69728   0.07972  -0.16264
   0.69728   0.07972  -0.16264
   0.69728   0.07972  -0.16264
   0.69728  -0.15028  -0.16264
   0.69728   0.07972  -0.16264
   0.69728   0.07972  -0.16264
   0.69728   0.07972  -0.16264
   0.69728   0.07972  -0.16264
   0.69728   0.07972  -0.16264
   0.69728   0.07972  -0.16264
   0.69728   0.07972  -0.16264
   0.69728   0.07972  -0.16264
   0.69728   0.07972  -0.16264
   0.21728   0.07972  -0.16264
   0.69728   0.31972  -0.64264
   0.69728   0.07972  -0.16264
   0.69728   0.31972  -0.64264
   0.69728   0.31972  -0.64264
   0.69728   0.31972  -0.64264
   0.21728   0.31972  -0.64264
   0.21728   0.31972  -0.64264
   0.21728   0.31972  -0.64264
   0.21728   0.31972  -0.64264
   0.21728   0.31972  -0.64264
   0.21728   0.31972  -0.64264
   0.21728   0.31972  -0.64264
   0.21728   0.31972  -0.64264
   0.21728   0.31972  -0.64264
   0.21728   0.31972  -0.64264
   0.21728   0.07972  -0.64264
   0.21728   0.31972  -0.64264
   0.21728   0.31972  -0.64264
   0.21728   0.31972  -0.64264
   0.21728   0.31972  -0.64264
   0.21728   0.31972  -0.64264
   0.21728   0.31972  -0.64264
   0.21728   0.31972  -0.64264
   0.21728   0.31972  -0.64264
   0.21728   0.31972  -1.12264
   0.21728   0.31972  -1.12264
  -0.25272   0.31972  -1.12264
   0.21728   0.31972  -0.64264
   0.21728   0.31972  -1.12264
  -0.25272   0.31972  -1.12264
  -0.25272   0.31972  -1.12264
  -0.25272   0.31972  -1.12264
  -0.25272   0.31972  -1.12264
  -0.25272   0.31972  -1.12264
  -0.25272   0.07972  -1.12264
  -0.25272   0.31972  -1.12264
  -0.25272   0.31972  -1.12264
  -0.25272   0.31972  -1.12264
  -0.25272   0.31972  -1.12264
  -0.25272   0.31972  -1.12264
  -0.25272   0.31972  -1.12264
  -0.25272   0.31972  -1.12264
  -0.25272   0.31972  -1.12264
  -0.25272   0.31972  -1.12264
  -0.25272   0.31972  -1.12264
  -0.25272   0.31972  -1.12264
  -0.25272   0.31972  -1.12264
  -0.25272   0.07972  -1.12264
  -0.25272   0.07972  -1.12264
  -0.25272   0.07972  -1.12264
  -0.73272   0.31972  -1.12264
  -0.73272   0.07972  -1.12264
  -0.73272   0.07972  -1.12264
  -0.73272   0.07972  -1.12264
  -0.73272   0.07972  -1.12264
  -0.73272   0.07972  -1.12264
  -0.25272   0.07972  -1.12264
  -0.73272   0.07972  -1.12264
  -0.73272   0.07972  -1.12264
  -0.73272   0.07972  -1.12264
  -0.73272   0.07972  -1.12264
  -0.73272   0.07972  -1.12264
  -0.73272   0.07972  -1.12264
  -0.73272   0.07972  -1.12264
  -0.73272   0.07972  -1.12264
  -0.73272  -0.15028  -1.12264
  -0.73272   0.07972  -1.12264
  -0.73272  -0.15028  -1.12264
  -1.21272   0.07972  -1.12264
  -1.21272   0.07972  -1.12264
  -1.21272  -0.15028  -1.12264
  -1.21272  -0.15028  -1.12264
  -1.21272   0.07972  -1.12264
  -1.21272  -0.15028  -1.12264
  -1.21272  -0.15028  -1.12264
  -1.21272  -0.15028  -1.12264
  -1.21272  -0.15028  -1.12264
  -1.21272  -0.15028  -1.12264
  -1.21272  -0.15028  -1.12264
  -1.21272  -0.15028  -1.12264
  -1.21272  -0.15028  -1.12264
  -1.21272  -0.15028  -1.12264
  -1.21272  -0.15028  -1.12264
  -1.21272  -0.15028  -1.12264
  -1.21272  -0.15028  -1.12264
  -1.69272  -0.15028  -1.12264
  -1.21272  -0.15028  -1.12264
  -1.69272  -0.15028  -1.12264
  -1.69272  -0.15028  -1.12264
  -1.69272  -0.15028  -1.12264
  -1.69272  -0.15028  -0.64264
  -1.69272  -0.15028  -0.64264
  -1.69272  -0.15028  -0.64264
  -1.69272  -0.15028  -1.12264
  -1.69272  -0.15028  -0.64264
  -1.69272  -0.15028  -0.64264
  -1.69272  -0.15028  -0.64264
  -1.69272  -0.15028  -0.64264
  -1.69272  -0.15028  -0.64264
  -1.69272  -0.15028  -0.64264
  -1.69272  -0.15028  -0.64264
  -2.17272  -0.15028  -0.64264
  -1.69272  -0.15028  -0.64264
  -1.69272  -0.15028  -0.64264
  -2.17272  -0.15028  -0.64264
  -2.17272  -0.15028  -0.64264
  -2.17272  -0.15028  -0.16264
  -2.17272  -0.15028  -0.16264
  -2.17272  -0.15028  -0.16264
  -2.17272  -0.15028  -0.16264
  -2.17272  -0.15028  -0.16264
  -2.17272  -0.15028  -0.16264
  -2.17272  -0.15028  -0.16264
  -2.17272  -0.15028  -0.16264
  -2.17272  -0.15028  -0.16264
  -2.17272  -0.15028  -0.16264
  -2.17272  -0.15028  -0.16264
  -2.17272  -0.15028  -0.16264
  -2.17272  -0.15028  -0.16264
  -2.17272  -0.15028   0.31736
  -2.65272  -0.15028  -0.16264
  -2.65272  -0.15028  -0.16264
  -2.65272  -0.15028  -0.16264
  -2.65272  -0.15028   0.31736
  -2.65272  -0.15028  -0.16264
  -2.65272  -0.15028   0.31736
  -2.65272  -0.15028   0.31736
  -2.65272  -0.15028   0.31736
  -2.65272  -0.15028   0.31736
  -2.65272  -0.15028   0.31736
  -2.65272  -0.15028   0.31736
  -2.65272  -0.15028   0.31736
  -2.65272  -0.15028   0.31736
  -2.65272  -0.15028   0.31736
  -2.65272  -0.15028   0.31736
  -2.65272  -0.39028   0.31736
  -2.65272  -0.39028   0.31736
  -2.65272  -0.39028   0.31736
  -2.65272  -0.39028   0.31736
  -2.65272  -0.39028   0.31736
  -2.65272  -0.39028   0.31736
  -2.65272  -0.39028   0.31736
  -2.65272  -0.39028   0.31736
  -2.65272  -0.39028   0.78736
  -2.65272  -0.39028   0.78736
  -2.65272  -0.39028   0.78736
  -2.65272  -0.39028   0.78736
  -2.65272  -0.39028   0.78736
  -2.65272  -0.39028   0.78736
  -2.65272  -0.39028   0.78736
  -2.65272  -0.39028   0.78736
  -2.65272  -0.39028   0.78736
  -2.65272  -0.39028   0.78736
  -2.65272  -0.63028   0.78736
  -2.65272  -0.39028   0.78736
  -2.65272  -0.39028   0.78736
  -2.65272  -0.39028   0.78736
  -2.65272  -0.63028   0.78736
  -2.65272  -0.39028   0.78736
  -2.65272  -0.39028   0.78736
  -2.65272  -0.63028   0.78736
  -2.65272  -0.39028   0.78736
  -2.65272  -0.39028   0.78736
  -2.65272  -0.39028   0.78736
  -3.13272  -0.39028   0.78736
  -2.65272  -0.39028   0.78736
  -2.65272  -0.39028   0.78736
  -2.65272  -0.39028   0.78736
  -2.65272  -0.39028   0.78736
  -2.65272  -0.63028   0.78736
  -2.65272  -0.39028   0.78736
  -2.65272  -0.39028   0.78736
  -2.65272  -0.39028   0.78736
  -2.65272  -0.39028   0.78736
  -2.65272  -0.39028   0.78736
  -2.65272  -0.39028   0.78736
  -2.65272  -0.39028   0.78736
  -2.65272  -0.15028   0.78736
  -2.65272  -0.15028   0.78736
  -2.65272  -0.15028   0.78736
  -2.65272  -0.15028   0.78736
  -2.65272  -0.15028   0.78736
  -2.65272  -0.15028   0.78736
  -2.65272  -0.15028   0.78736
  -2.65272  -0.15028   0.78736
  -2.65272  -0.15028   0.78736
  -2.65272  -0.15028   0.78736
  -2.65272  -0.15028   0.78736
  -2.65272  -0.15028   0.78736
  -2.65272  -0.15028   0.78736
  -2.17272  -0.15028   0.78736
  -2.17272  -0.15028   0.78736
  -2.17272  -0.15028   0.78736
  -2.17272  -0.15028   0.78736
  -2.17272  -0.15028   0.78736
  -2.17272  -0.15028   0.78736
  -2.17272  -0.15028   0.78736
  -2.17272  -0.15028   0.78736
  -2.17272  -0.15028   0.78736
  -2.17272  -0.15028   0.78736
  -2.17272  -0.15028   0.78736
  -2.17272  -0.15028   0.78736
  -2.17272   0.07972   0.78736
  -2.17272   0.07972   0.78736
  -2.17272   0.07972   0.78736
  -2.17272   0.07972   0.78736
  -2.17272   0.07972   0.78736
  -2.17272   0.07972   0.78736
  -1.69272   0.07972   0.78736
  -1.69272   0.07972   0.78736
  -1.69272   0.07972   0.78736
  -1.69272   0.07972   0.78736
  -1.69272   0.07972   0.78736
  -1.69272   0.07972   0.78736
  -1.69272   0.07972   0.78736
  -1.69272   0.07972   0.78736
  -1.69272   0.07972   0.78736
  -1.69272   0.07972   0.78736
  -1.69272   0.07972   0.31736
  -1.21272  -0.15028   0.78736
  -1.21272   0.07972   0.78736
  -1.21272   0.07972   0.31736
  -1.21272   0.07972   0.31736
  -1.21272   0.07972   0.31736
  -1.21272   0.07972   0.31736
  -1.21272   0.07972   0.31736
  -1.21272   0.07972   0.31736
  -1.21272   0.07972   0.31736
  -1.21272   0.07972   0.31736
  -0.73272   0.07972   0.31736
  -0.73272   0.07972   0.31736
  -0.73272   0.07972   0.31736
  -0.73272   0.07972   0.31736
  -0.73272   0.07972   0.31736
  -0.73272   0.07972   0.31736
  -0.73272   0.07972   0.31736
  -0.25272   0.07972   0.31736
  -0.25272   0.07972   0.31736
  -0.25272   0.07972   0.31736
  -0.25272   0.07972   0.31736
  -0.25272   0.07972   0.31736
  -0.25272   0.31972   0.31736
  -0.25272   0.31972   0.31736
  -0.25272   0.31972   0.31736
  -0.25272   0.31972   0.31736
   0.21728   0.31972   0.31736
  -0.25272   0.07972   0.31736
   0.21728   0.07972   0.31736
   0.21728   0.31972  -0.16264
   0.21728   0.31972  -0.16264
   0.21728   0.07972   0.31736
   0.21728   0.31972   0.31736
   0.21728   0.31972  -0.16264
   0.21728   0.31972  -0.16264
   0.21728   0.31972  -0.16264
   0.69728   0.31972  -0.16264
   0.21728   0.31972  -0.16264
   0.69728   0.31972  -0.16264
   0.69728   0.07972  -0.16264
   0.69728   0.07972  -0.16264
   0.69728   0.07972  -0.16264
   0.69728   0.31972  -0.16264
   0.69728   0.31972  -0.16264
   0.69728   0.07972  -0.16264
   0.69728   0.31972  -0.16264
   1.17728   0.07972  -0.16264
   1.17728   0.07972  -0.16264
   1.17728   0.07972  -0.16264
   1.17728   0.07972  -0.16264
   1.17728   0.07972  -0.16264
   1.17728   0.07972  -0.16264
   1.17728   0.07972  -0.16264
   1.17728   0.07972  -0.16264
   1.17728   0.31972  -0.16264
   1.17728   0.07972  -0.16264
   1.17728   0.07972  -0.16264
   1.17728   0.07972  -0.16264
   1.65728   0.07972  -0.16264
   1.65728   0.07972  -0.16264
   1.65728   0.07972  -0.16264
   1.65728   0.07972  -0.16264
   1.65728   0.07972  -0.16264
   1.65728   0.07972  -0.16264
   1.65728   0.07972  -0.16264
   1.65728   0.07972  -0.16264
   1.65728   0.07972  -0.16264
   1.65728   0.07972  -0.16264
   1.65728   0.07972  -0.16264
   1.65728   0.07972  -0.16264
   1.65728   0.07972  -0.16264
   1.65728   0.07972  -0.16264
   1.65728   0.07972  -0.16264
   1.65728   0.07972  -0.16264
   1.65728   0.07972  -0.16264
   1.65728   0.07972  -0.16264
   1.65728   0.07972  -0.16264
   1.65728   0.07972  -0.16264
   1.65728   0.07972   0.31736
   1.65728   0.07972   0.31736
   1.65728   0.31972  -0.16264
   1.65728   0.07972  -0.16264
   1.65728   0.07972   0.31736
   2.13728   0.31972  -0.16264
   1.65728   0.07972   0.31736
   2.13728   0.31972   0.31736
   2.13728   0.31972   0.31736
   1.65728   0.07972   0.31736
   1.65728   0.07972   0.31736
   1.65728   0.07972   0.31736
   1.65728   0.31972   0.31736
   1.65728   0.07972   0.31736
   1.65728   0.07972   0.31736
