********************************************************************************
               CENTRO DE INSTRUMENTACION Y REGISTRO SISMICO  A.C.  
                       Coordinacion de Servicios Tecnicos
     Anaxagoras 814, Col. Narvarte, Benito Juarez, C.P. 03020 Mexico, D.F.
            Tels. 667 45 42/ 687 45  82             Fax. 669 25 12
********************************************************************************
ARCHIVO ESTANDAR DE ACELERACION:
VERSION DEL FORMATO                    : 2.0
NOMBRE DEL ARCHIVO                     : BA499603.271
FECHA Y HORA DE CREACION               : 27/MAR/98, 3:55
REF. CATALOGO ACELEROGRAMAS, SMIS 1996 : REGISTRO No.     /PAG.


================================================================================
DATOS DE LA ESTACION:
NOMBRE DE LA ESTACION                  : BUENOS AIRES
CLAVE DE LA ESTACION                   : BA49
LOCALIZACION DE LA ESTACION            : ESCUELA SECUNDARIA 102, DOCTOR MARQUEZ
                                       : Y EJE CENTRAL, BUENOS AIRES.
                                       :
                                       :
                                       :
COORDENADAS DE LA ESTACION             : 19.410 LAT. N 
                                       : 99.145 LONG. W 
ALTITUD (msnm)                         : 2233
TIPO DE SUELO                          : TERRENO BLANDO, MATERIAL COMPRESIBLE
                                       : (ARCILLAS)
                                       : 
INSTITUCION RESPONSABLE                : CIRES 
                                       :

================================================================================
DATOS DEL ACELEROGRAFO:
MODELO DEL ACELEROGRAFO                : SSA-1
NUMERO DE SERIE DEL ACELEROGRAFO       : 176
NUMERO DE CANALES                      : 3
ORIENTACION C1-C6 (rumbo;orientacion)  : /N00E/+V/N90E
ORIENTACION C7-C12 (rumbo;orientacion) :
VEL. DE MUESTREO, C1-C6 (muestras/s)   : /200/200/200
VEL. DE MUESTREO, C7-C12 (muestras/s)  :
ESC. COMPLETA DE SENSORES, C1-C6, (g)  : /2/2/2
ESC. COMPLETA DE SENSORES, C7-C12, (g) :
FREC. NAT. DE SENSORES, C1-C6, (Hz)    : /52.99/52.03/52.99
FREC. NAT. DE SENSORES, C7-C12, (Hz)   :
AMORTIGUAMIENTO DE SENSORES, C1-C6     : /0.5589/0.5469/0.6096
AMORTIGUAMIENTO DE SENSORES, C7-C12    :
INTERVALO DE MUESTREO, C1-C6, (s)      : /0.005/0.005/0.005
INTERVALO DE MUESTREO, C7-C12, (s)     : 
UMBRAL DE DISPARO, C1-C6, (Gal)        : /2/2/2
UMBRAL DE DISPARO, C7-C12, (Gal)       :
MEMORIA DE PREEVENTO (s)               : 15
TIEMPO DE POSEVENTO (s)                : 60


================================================================================
DATOS DEL SISMO:
FECHA DEL SISMO (GMT)                  : 27/MAR/96
HORA EPICENTRO (GMT)                   : 12:34:48,2
MAGNITUD(ES)                           : /Mb=5.5/Ms=4.9/Mc=4.6
COORDENADAS DEL EPICENTRO              : 16.210 LAT. N
                                       : 98.250 LONG. W
PROFUNDIDAD FOCAL (km)                 : 7
FUENTE DE LOS DATOS EPICENTRALES       : SSN
                                       : INSTITUTO DE GEOFISICA, UNAM

================================================================================
DATOS DE ESTE REGISTRO:
HORA DE LA PRIMERA MUESTRA (GMT)       : 12:36:30.00
EXACTITUD DEL TIEMPO (s)               :     
DURACION DEL REGISTRO (s), C1-C6       : /130.56/130.56/130.56
DURACION DEL REGISTRO (s), C7-C12      :
NUM. TOTAL DE MUESTRAS, C1-C6          : /26112/26112/26112
NUM. TOTAL DE MUESTRAS, C7-C12         :
ACEL. MAX. (Gal), C1-C6                : /2.96881/1.22415/3.66800
ACEL. MAX., C1-C6, EN LA MUESTRA       :
ACEL. MAX. (Gal), C7-C12               :
ACEL. MAX., C7-C12, EN LA MUESTRA      :
UNIDADES DE LOS DATOS                  : Gal (cm/s/s)
FACTOR DE DECIMACION                   : 1
FORMATO DATOS (FORTRAN,10 campos/dato) : 3F10.5


================================================================================
CALIDAD DEL ACELEROGRAMA:
REGISTRO DIGITAL COMPLETO, CARECE DE TIEMPO ABSOLUTO.


================================================================================
COMENTARIOS:














================================================================================
DATOS DE ACELERACION:
---------+---------+---------+---------+---------+---------+---------+---------+
   CANAL-1   CANAL-2   CANAL-3   CANAL-4   CANAL-5   CANAL-6   CANAL-7   CANAL-8
      N00E        +V      N90E
---------+---------+---------+---------+---------+---------+---------+---------+
[...]
   2.30119  -0.26415   1.26800
   2.30119  -0.02415   1.26800
   2.30119  -0.02415   1.02800
   2.30119  -0.02415   1.02800
   2.30119  -0.02415   1.02800
   2.30119  -0.02415   1.02800
   2.30119  -0.02415   1.02800
   2.30119  -0.02415   1.02800
   2.30119  -0.02415   0.78800
   2.30119  -0.02415   0.78800
   2.30119   0.21585   0.78800
   2.30119   0.21585   0.78800
   2.06119   0.21585   0.54800
   2.06119   0.21585   0.54800
   2.06119   0.21585   0.54800
   2.06119   0.45585   0.30800
   2.06119   0.45585   0.30800
   2.06119   0.45585   0.30800
   2.06119   0.45585   0.06800
   2.06119   0.45585  -0.17200
   2.06119   0.45585   0.06800
   2.06119   0.69585  -0.17200
   1.82119   0.69585  -0.17200
   1.82119   0.69585  -0.41200
   1.82119   0.69585  -0.41200
   1.82119   0.69585  -0.41200
   1.82119   0.69585  -0.41200
   1.82119   0.93585  -0.41200
   1.82119   0.93585  -0.65200
   1.82119   0.93585  -0.88200
   1.82119   0.93585  -0.88200
   1.59119   0.93585  -0.88200
   1.59119   0.93585  -1.12200
   1.59119   1.17585  -1.12200
   1.59119   0.93585  -1.12200
   1.59119   1.17585  -1.36200
   1.59119   1.17585  -1.36200
   1.35119   1.17585  -1.60200
   1.35119   1.17585  -1.60200
   1.35119   1.17585  -1.84200
   1.35119   1.17585  -1.84200
   1.35119   1.17585  -1.84200
   1.35119   1.17585  -1.84200
   1.35119   1.17585  -2.08200
   1.11119   1.17585  -2.08200
   1.11119   1.17585  -2.32200
   1.11119   1.17585  -2.08200
   1.11119   1.17585  -2.32200
   1.11119   1.17585  -2.32200
   0.87119   1.17585  -2.56200
   0.87119   1.17585  -2.32200
   0.87119   1.17585  -2.56200
   0.87119   1.17585  -2.56200
   0.63119   1.17585  -2.56200
   0.63119   1.17585  -2.56200
   0.63119   1.17585  -2.56200
   0.63119   1.17585  -2.80200
   0.63119   1.17585  -2.56200
   0.39119   0.93585  -2.56200
   0.39119   0.93585  -2.56200
   0.39119   0.93585  -2.80200
   0.39119   0.93585  -2.56200
   0.39119   0.93585  -2.56200
   0.39119   0.93585  -2.80200
   0.15119   0.93585  -2.80200
   0.15119   0.93585  -2.80200
   0.15119   0.93585  -2.80200
   0.15119   0.93585  -2.80200
  -0.08881   0.93585  -2.56200
  -0.08881   0.93585  -2.80200
  -0.08881   0.69585  -2.56200
  -0.08881   0.69585  -2.80200
  -0.32881   0.69585  -2.80200
  -0.32881   0.69585  -2.80200
  -0.32881   0.69585  -2.56200
  -0.56881   0.45585  -2.56200
  -0.56881   0.45585  -2.56200
  -0.56881   0.45585  -2.56200
  -0.56881   0.45585  -2.32200
  -0.56881   0.45585  -2.56200
  -0.80881   0.45585  -2.32200
  -0.80881   0.21585  -2.32200
  -0.80881   0.21585  -2.32200
  -0.80881   0.21585  -2.32200
  -1.04881   0.21585  -2.32200
  -1.04881   0.21585  -2.32200
  -1.04881  -0.02415  -2.08200
  -1.04881  -0.02415  -2.08200
  -1.28881  -0.02415  -2.32200
  -1.28881  -0.02415  -2.08200
  -1.28881  -0.02415  -2.08200
  -1.28881  -0.02415  -2.08200
  -1.52881  -0.26415  -1.84200
  -1.52881  -0.26415  -1.84200
  -1.52881  -0.26415  -1.84200
  -1.52881  -0.26415  -1.84200
  -1.52881  -0.26415  -1.60200
  -1.52881  -0.26415  -1.60200
  -1.76881  -0.50415  -1.84200
  -1.76881  -0.50415  -1.60200
  -1.76881  -0.50415  -1.60200
  -1.76881  -0.50415  -1.60200
  -2.00881  -0.50415  -1.36200
  -1.76881  -0.50415  -1.36200
  -2.00881  -0.50415  -1.36200
  -2.00881  -0.50415  -1.36200
  -2.00881  -0.50415  -1.12200
  -2.00881  -0.50415  -1.12200
  -2.00881  -0.50415  -1.12200
  -2.00881  -0.50415  -1.12200
  -2.00881  -0.50415  -1.12200
  -2.00881  -0.50415  -1.12200
  -2.00881  -0.50415  -1.12200
  -2.00881  -0.50415  -0.88200
  -2.00881  -0.50415  -1.12200
  -2.00881  -0.74415  -0.88200
  -2.00881  -0.74415  -0.88200
  -2.00881  -0.50415  -1.12200
  -2.00881  -0.50415  -1.12200
  -2.00881  -0.74415  -0.88200
  -2.00881  -0.74415  -0.88200
  -2.00881  -0.50415  -0.88200
  -2.00881  -0.50415  -0.88200
  -2.00881  -0.50415  -0.65200
  -2.00881  -0.50415  -0.65200
  -2.00881  -0.50415  -0.88200
  -2.24881  -0.50415  -0.65200
  -2.24881  -0.50415  -0.65200
  -2.24881  -0.50415  -0.65200
  -2.24881  -0.50415  -0.65200
  -2.24881  -0.50415  -0.65200
  -2.24881  -0.50415  -0.65200
  -2.24881  -0.50415  -0.65200
  -2.24881  -0.50415  -0.65200
  -2.24881  -0.50415  -0.65200
  -2.00881  -0.50415  -0.65200
  -2.00881  -0.50415  -0.65200
  -2.00881  -0.50415  -0.41200
  -2.00881  -0.50415  -0.41200
  -2.00881  -0.50415  -0.65200
  -2.00881  -0.50415  -0.65200
  -2.24881  -0.26415  -0.41200
  -2.24881  -0.26415  -0.65200
  -2.24881  -0.26415  -0.65200
  -2.24881  -0.26415  -0.41200
  -2.24881  -0.26415  -0.41200
  -2.24881  -0.26415  -0.65200
  -2.24881  -0.26415  -0.65200
  -2.00881  -0.26415  -0.88200
  -2.00881  -0.26415  -0.65200
  -2.00881  -0.26415  -0.65200
  -2.00881  -0.26415  -0.65200
  -2.00881  -0.26415  -0.65200
  -2.24881  -0.26415  -0.65200
  -2.00881  -0.26415  -0.65200
  -2.00881  -0.02415  -0.65200
  -2.00881  -0.02415  -0.65200
  -2.00881  -0.02415  -0.65200
  -2.00881  -0.02415  -0.65200
  -2.00881  -0.02415  -0.41200
  -2.00881  -0.02415  -0.65200
  -2.00881  -0.02415  -0.65200
  -2.00881  -0.26415  -0.41200
  -2.00881  -0.02415  -0.41200
  -1.76881  -0.02415  -0.41200
  -1.76881  -0.02415  -0.41200
  -1.76881  -0.02415  -0.41200
  -1.76881  -0.02415  -0.41200
  -1.76881  -0.02415  -0.41200
  -1.76881  -0.02415  -0.41200
  -1.52881  -0.02415  -0.17200
  -1.52881  -0.02415  -0.17200
  -1.52881  -0.02415  -0.41200
  -1.52881  -0.02415  -0.17200
  -1.52881  -0.02415  -0.17200
  -1.28881  -0.02415  -0.17200
  -1.28881  -0.02415  -0.17200
  -1.28881  -0.02415  -0.17200
  -1.04881  -0.02415  -0.17200
  -1.04881  -0.02415  -0.17200
  -1.04881  -0.02415  -0.17200
  -1.04881  -0.02415  -0.17200
  -0.80881  -0.02415  -0.17200
  -0.80881  -0.02415   0.06800
  -0.80881  -0.02415  -0.17200
  -0.80881  -0.02415   0.06800
  -0.80881  -0.02415   0.06800
  -0.56881   0.21585   0.06800
  -0.56881   0.21585   0.06800
  -0.56881   0.21585   0.06800
  -0.56881   0.21585   0.06800
  -0.32881   0.21585   0.06800
  -0.32881   0.21585   0.30800
  -0.32881   0.21585   0.06800
  -0.08881   0.21585   0.30800
  -0.08881   0.21585   0.06800
  -0.08881  -0.02415   0.30800
  -0.08881  -0.02415   0.30800
   0.15119  -0.02415   0.30800
   0.15119  -0.02415   0.30800
   0.15119  -0.02415   0.30800
   0.15119   0.21585   0.30800
   0.15119   0.21585   0.30800
   0.15119   0.21585   0.30800
   0.39119   0.21585   0.30800
   0.39119   0.21585   0.30800
   0.15119   0.21585   0.54800
   0.39119   0.21585   0.30800
   0.39119   0.21585   0.54800
   0.39119   0.21585   0.30800
   0.63119   0.21585   0.54800
   0.63119   0.21585   0.30800
   0.63119  -0.02415   0.30800
   0.87119  -0.02415   0.30800
   0.87119   0.21585   0.30800
   0.87119   0.21585   0.54800
   0.87119   0.21585   0.54800
   0.87119   0.21585   0.54800
   0.87119   0.21585   0.54800
   0.87119   0.21585   0.54800
   0.87119   0.21585   0.54800
   0.87119   0.21585   0.54800
   0.87119   0.45585   0.30800
   0.87119   0.21585   0.30800
   0.87119   0.45585   0.30800
   0.87119   0.45585   0.30800
   0.87119   0.21585   0.30800
   0.87119   0.21585   0.30800
   0.87119   0.21585   0.30800
   0.87119   0.21585   0.30800
   0.87119   0.21585   0.30800
   1.11119   0.21585   0.06800
   0.87119   0.45585   0.30800
   0.87119   0.45585   0.06800
   0.87119   0.45585   0.30800
   0.87119   0.45585   0.06800
   0.87119   0.45585   0.06800
   0.87119   0.45585   0.06800
   0.87119   0.45585   0.06800
   0.87119   0.45585   0.06800
   0.87119   0.45585  -0.17200
   0.87119   0.45585   0.06800
   0.87119   0.45585   0.06800
   0.87119   0.45585  -0.17200
   0.87119   0.45585   0.06800
   0.87119   0.45585  -0.17200
   0.87119   0.45585  -0.41200
   0.87119   0.45585  -0.17200
   0.87119   0.45585  -0.17200
   0.87119   0.45585  -0.17200
   0.87119   0.45585  -0.41200
   0.87119   0.45585  -0.17200
   0.87119   0.45585  -0.41200
   0.87119   0.45585  -0.41200
   0.87119   0.69585  -0.41200
   0.87119   0.45585  -0.41200
   0.87119   0.45585  -0.41200
   0.87119   0.45585  -0.65200
   0.63119   0.45585  -0.41200
   0.87119   0.45585  -0.41200
   0.87119   0.45585  -0.41200
   0.87119   0.45585  -0.41200
   0.63119   0.45585  -0.41200
   0.63119   0.45585  -0.65200
   0.63119   0.45585  -0.65200
   0.63119   0.45585  -0.41200
   0.63119   0.45585  -0.65200
   0.63119   0.45585  -0.41200
   0.63119   0.21585  -0.41200
   0.63119   0.21585  -0.41200
   0.63119   0.21585  -0.41200
   0.63119   0.21585  -0.65200
   0.63119   0.21585  -0.41200
   0.63119   0.21585  -0.41200
   0.63119   0.21585  -0.41200
   0.63119   0.21585  -0.65200
   0.63119   0.21585  -0.41200
   0.63119  -0.02415  -0.41200
   0.39119  -0.02415  -0.41200
   0.39119  -0.02415  -0.41200
   0.39119  -0.02415  -0.17200
   0.39119  -0.02415  -0.41200
   0.39119  -0.02415  -0.17200
   0.39119  -0.02415  -0.17200
   0.39119  -0.02415  -0.41200
   0.39119  -0.02415  -0.17200
   0.39119  -0.02415  -0.17200
   0.39119  -0.26415  -0.17200
   0.39119  -0.26415   0.06800
   0.39119  -0.26415   0.06800
   0.39119  -0.26415   0.06800
   0.39119  -0.26415   0.06800
   0.39119  -0.26415  -0.17200
   0.39119  -0.26415   0.06800
   0.39119  -0.26415   0.06800
   0.39119  -0.26415   0.06800
   0.39119  -0.26415   0.06800
   0.15119  -0.26415   0.30800
   0.39119  -0.26415   0.30800
   0.39119  -0.26415   0.30800
   0.39119  -0.26415   0.30800
   0.39119  -0.50415   0.30800
   0.39119  -0.50415   0.54800
   0.39119  -0.50415   0.54800
   0.39119  -0.50415   0.54800
   0.15119  -0.50415   0.54800
   0.15119  -0.50415   0.78800
   0.15119  -0.50415   0.78800
   0.15119  -0.50415   0.78800
   0.15119  -0.50415   0.78800
   0.15119  -0.50415   1.02800
   0.15119  -0.50415   1.02800
   0.15119  -0.50415   1.02800
  -0.08881  -0.74415   1.02800
  -0.08881  -0.74415   1.26800
  -0.08881  -0.74415   1.26800
  -0.08881  -0.74415   1.26800
  -0.08881  -0.74415   1.26800
  -0.08881  -0.74415   1.50800
  -0.08881  -0.74415   1.50800
  -0.08881  -0.74415   1.50800
  -0.08881  -0.74415   1.50800
  -0.32881  -0.98415   1.74800
  -0.32881  -0.74415   1.74800
  -0.32881  -0.98415   1.74800
  -0.32881  -0.98415   1.98800
  -0.32881  -0.74415   1.98800
  -0.32881  -0.74415   2.22800
  -0.32881  -0.98415   2.22800
  -0.32881  -0.74415   2.46800
  -0.56881  -0.98415   2.46800
  -0.56881  -0.74415   2.46800
  -0.56881  -0.74415   2.46800
  -0.56881  -0.74415   2.70800
  -0.56881  -0.74415   2.70800
  -0.56881  -0.74415   2.70800
  -0.56881  -0.74415   2.94800
  -0.56881  -0.74415   2.94800
  -0.56881  -0.74415   2.94800
  -0.56881  -0.74415   2.94800
  -0.56881  -0.74415   3.18800
  -0.56881  -0.74415   3.42800
  -0.56881  -0.74415   3.42800
  -0.56881  -0.74415   3.18800
  -0.56881  -0.74415   3.42800
  -0.56881  -0.74415   3.42800
  -0.56881  -0.74415   3.42800
  -0.56881  -0.50415   3.42800
  -0.56881  -0.74415   3.42800
  -0.56881  -0.50415   3.66800
  -0.32881  -0.50415   3.66800
  -0.32881  -0.50415   3.66800
  -0.32881  -0.50415   3.66800
  -0.32881  -0.50415   3.66800
  -0.32881  -0.50415   3.66800
  -0.32881  -0.50415   3.66800
  -0.32881  -0.26415   3.66800
  -0.32881  -0.26415   3.66800
  -0.08881  -0.26415   3.66800
  -0.08881  -0.26415   3.66800
  -0.08881  -0.26415   3.66800
  -0.08881  -0.26415   3.66800
  -0.08881  -0.26415   3.42800
  -0.08881  -0.26415   3.66800
   0.15119  -0.26415   3.42800
   0.15119  -0.26415   3.42800
   0.15119  -0.26415   3.42800
   0.15119  -0.26415   3.42800
   0.15119  -0.02415   3.42800
   0.39119  -0.02415   3.18800
   0.39119  -0.02415   3.18800
   0.39119  -0.02415   3.18800
   0.39119  -0.02415   2.94800
   0.39119  -0.02415   2.94800
   0.39119  -0.02415   2.94800
   0.39119  -0.02415   2.94800
   0.39119  -0.02415   2.70800
   0.39119  -0.02415   2.70800
   0.39119   0.21585   2.70800
   0.39119  -0.02415   2.46800
   0.39119   0.21585   2.46800
   0.63119   0.21585   2.46800
   0.63119   0.21585   2.22800
   0.63119   0.21585   2.22800
   0.63119   0.21585   1.98800
   0.63119   0.21585   1.98800
   0.63119   0.21585   1.98800
   0.63119   0.45585   1.74800
   0.63119   0.45585   1.74800
   0.63119   0.45585   1.74800
   0.63119   0.45585   1.50800
   0.63119   0.45585   1.50800
   0.63119   0.45585   1.50800
   0.63119   0.45585   1.26800
   0.63119   0.45585   1.26800
   0.63119   0.69585   1.02800
   0.63119   0.45585   1.02800
   0.63119   0.69585   1.02800
   0.63119   0.69585   0.78800
   0.63119   0.69585   0.78800
   0.39119   0.69585   0.78800
   0.63119   0.69585   0.54800
   0.63119   0.69585   0.54800
   0.39119   0.69585   0.30800
   0.39119   0.69585   0.30800
   0.39119   0.69585   0.30800
   0.39119   0.69585   0.30800
   0.63119   0.93585   0.06800
   0.63119   0.93585   0.06800
   0.63119   0.93585  -0.17200
   0.63119   0.69585   0.06800
   0.63119   0.69585  -0.17200
   0.63119   0.69585  -0.17200
   0.63119   0.69585  -0.17200
   0.63119   0.69585  -0.17200
   0.63119   0.69585  -0.41200
   0.63119   0.69585  -0.41200
   0.63119   0.69585  -0.41200
   0.63119   0.69585  -0.41200
   0.63119   0.69585  -0.41200
   0.63119   0.69585  -0.65200
   0.63119   0.69585  -0.65200
   0.63119   0.45585  -0.88200
   0.87119   0.45585  -0.65200
   0.87119   0.69585  -0.88200
   0.87119   0.45585  -0.88200
   0.87119   0.45585  -0.88200
   0.87119   0.45585  -0.88200
   0.87119   0.45585  -0.88200
   0.87119   0.45585  -0.88200
   0.87119   0.45585  -0.88200
   0.87119   0.45585  -0.88200
   0.87119   0.45585  -1.12200
   1.11119   0.45585  -1.12200
   1.11119   0.21585  -1.12200
   1.11119   0.21585  -1.12200
   1.11119   0.21585  -1.36200
   1.11119   0.21585  -1.12200
   1.11119   0.21585  -1.36200
   1.11119   0.21585  -1.36200
   1.11119   0.21585  -1.36200
   1.11119   0.21585  -1.36200
   1.35119   0.21585  -1.36200
   1.35119  -0.02415  -1.36200
   1.35119  -0.02415  -1.60200
   1.35119  -0.02415  -1.60200
   1.35119  -0.02415  -1.60200
   1.35119  -0.02415  -1.60200
   1.35119  -0.02415  -1.60200
   1.35119  -0.02415  -1.60200
   1.35119  -0.02415  -1.60200
   1.35119  -0.02415  -1.60200
   1.35119  -0.02415  -1.60200
   1.35119  -0.02415  -1.60200
   1.11119  -0.02415  -1.60200
   1.11119  -0.02415  -1.60200
   1.11119  -0.02415  -1.60200
   1.11119  -0.02415  -1.60200
   1.11119  -0.02415  -1.60200
   1.11119  -0.02415  -1.60200
   1.11119  -0.02415  -1.60200
   1.11119  -0.02415  -1.60200
   0.87119  -0.02415  -1.60200
   0.87119  -0.02415  -1.84200
   0.87119  -0.02415  -1.60200
   0.87119  -0.02415  -1.84200
   0.63119  -0.02415  -1.84200
   0.63119  -0.02415  -1.60200
   0.63119  -0.02415  -1.60200
   0.63119  -0.02415  -1.60200
   0.63119  -0.02415  -1.60200
   0.39119  -0.02415  -1.84200
   0.39119  -0.02415  -1.84200
   0.39119  -0.02415  -1.60200
   0.39119  -0.02415  -1.84200
   0.15119  -0.02415  -1.60200
   0.15119  -0.02415  -1.60200
  -0.08881  -0.02415  -1.60200
  -0.08881  -0.02415  -1.60200
  -0.08881  -0.02415  -1.60200
  -0.08881  -0.02415  -1.60200
  -0.08881  -0.02415  -1.36200
  -0.32881  -0.02415  -1.60200
  -0.32881  -0.02415  -1.36200
  -0.32881  -0.02415  -1.60200
  -0.56881  -0.02415  -1.36200
  -0.56881  -0.02415  -1.60200
  -0.56881  -0.02415  -1.36200
  -0.56881  -0.02415  -1.36200
  -0.56881  -0.02415  -1.36200
  -0.80881  -0.02415  -1.36200
  -0.80881  -0.02415  -1.36200
  -0.80881   0.21585  -1.12200
  -0.80881   0.21585  -1.12200
  -0.80881   0.21585  -1.12200
  -0.80881   0.21585  -1.36200
  -1.04881   0.21585  -1.12200
  -1.04881   0.21585  -1.12200
  -1.04881  -0.02415  -1.12200
