********************************************************************************
               CENTRO DE INSTRUMENTACION Y REGISTRO SISMICO  A.C.  
                       Coordinacion de Servicios Tecnicos
     Anaxagoras 814, Col. Narvarte, Benito Juarez, C.P. 03020 Mexico, D.F.
            Tels. 667 45 42/ 687 45  82             Fax. 669 25 12
********************************************************************************
ARCHIVO ESTANDAR DE ACELERACION:
VERSION DEL FORMATO                    : 2.0
NOMBRE DEL ARCHIVO                     : BA499707.192
FECHA Y HORA DE CREACION               : 18/MAR/98, 13:30
REF. CATALOGO ACELEROGRAMAS, SMIS 1996 : REGISTRO No.     /PAG.


================================================================================
DATOS DE LA ESTACION:
NOMBRE DE LA ESTACION                  : BUENOS AIRES
CLAVE DE LA ESTACION                   : BA49
LOCALIZACION DE LA ESTACION            : ESCUELA SECUNDARIA 102, DOCTOR MARQUEZ
                                       : Y EJE CENTRAL, BUENOS AIRES.
                                       :
                                       :
                                       :
COORDENADAS DE LA ESTACION             : 19.410 LAT. N 
                                       : 99.145 LONG. W 
ALTITUD (msnm)                         : 2233
TIPO DE SUELO                          : TERRENO BLANDO, MATERIAL COMPRESIBLE
                                       : (ARCILLAS)
                                       : 
INSTITUCION RESPONSABLE                : CIRES 
                                       :

================================================================================
DATOS DEL ACELEROGRAFO:
MODELO DEL ACELEROGRAFO                : SSA-1
NUMERO DE SERIE DEL ACELEROGRAFO       : 176
NUMERO DE CANALES                      : 3
ORIENTACION C1-C6 (rumbo;orientacion)  : /N00E/+V/N90E
ORIENTACION C7-C12 (rumbo;orientacion) :
VEL. DE MUESTREO, C1-C6 (muestras/s)   : /200/200/200
VEL. DE MUESTREO, C7-C12 (muestras/s)  :
ESC. COMPLETA DE SENSORES, C1-C6, (g)  : /2/2/2
ESC. COMPLETA DE SENSORES, C7-C12, (g) :
FREC. NAT. DE SENSORES, C1-C6, (Hz)    : /52.99/52.03/52.99
FREC. NAT. DE SENSORES, C7-C12, (Hz)   :
AMORTIGUAMIENTO DE SENSORES, C1-C6     : /.5589/.5469/.6096
AMORTIGUAMIENTO DE SENSORES, C7-C12    :
INTERVALO DE MUESTREO, C1-C6, (s)      : /0.005/0.005/0.005
INTERVALO DE MUESTREO, C7-C12, (s)     :
UMBRAL DE DISPARO, C1-C6, (Gal)        : /2/2/2
UMBRAL DE DISPARO, C7-C12, (Gal)       :
MEMORIA DE PREEVENTO (s)               : 15
TIEMPO DE POSEVENTO (s)                : 60


================================================================================
DATOS DEL SISMO:
FECHA DEL SISMO (GMT)                  : 19/JUL/97
HORA EPICENTRO (GMT)                   : 14:22:04:1
MAGNITUD(ES)                           : /Ms=6.3
COORDENADAS DEL EPICENTRO              : 15.8 LAT. N
                                       : 98.3 LONG. W
PROFUNDIDAD FOCAL (km)                 : 5.0
FUENTE DE LOS DATOS EPICENTRALES       : SSN
                                       : INSTITUTO DE GEOFISICA, UNAM

================================================================================
DATOS DE ESTE REGISTRO:
HORA DE LA PRIMERA MUESTRA (GMT)       : 14:24:12.00
EXACTITUD DEL TIEMPO (s)               :     
DURACION DEL REGISTRO (s), C1-C6       : /163.84/163.84/163.84
DURACION DEL REGISTRO (s), C7-C12      :
NUM. TOTAL DE MUESTRAS, C1-C6          : /32768/32768/32768
NUM. TOTAL DE MUESTRAS, C7-C12         :
ACEL. MAX. (Gal), C1-C6                : /3.62363/0.84702/3.96851
ACEL. MAX., C1-C6, EN LA MUESTRA       :
ACEL. MAX. (Gal), C7-C12               :
ACEL. MAX., C7-C12, EN LA MUESTRA      :
UNIDADES DE LOS DATOS                  : Gal (cm/s/s)
FACTOR DE DECIMACION                   : 1
FORMATO DATOS (FORTRAN,10 campos/dato) : 3F10.5


================================================================================
CALIDAD DEL ACELEROGRAMA:
REGISTRO DIGITAL COMPLETO, CARECE DE TIEMPO ABSOLUTO.


================================================================================
COMENTARIOS:














================================================================================
DATOS DE ACELERACION:
---------+---------+---------+---------+---------+---------+---------+---------+
   CANAL-1   CANAL-2   CANAL-3   CANAL-4   CANAL-5   CANAL-6   CANAL-7   CANAL-8
      N00E        +V      N90E
---------+---------+---------+---------+---------+---------+---------+---------+
[...]
  -1.71363   0.11298   1.53149
  -1.71363   0.11298   1.53149
  -1.71363   0.11298   1.53149
  -1.71363   0.11298   1.77149
  -1.71363   0.11298   1.53149
  -1.47363   0.11298   1.77149
  -1.71363   0.11298   1.77149
  -1.47363   0.11298   1.77149
  -1.47363   0.11298   1.77149
  -1.47363   0.11298   1.77149
  -1.47363   0.11298   1.77149
  -1.23363   0.11298   2.01149
  -1.23363   0.11298   2.01149
  -1.23363   0.11298   2.01149
  -1.23363   0.11298   2.01149
  -1.23363   0.11298   2.01149
  -1.23363   0.11298   2.01149
  -0.99363  -0.12702   2.01149
  -0.99363   0.11298   2.25149
  -0.99363   0.11298   2.01149
  -0.99363   0.11298   2.25149
  -0.99363   0.11298   2.01149
  -0.75363   0.11298   2.25149
  -0.75363   0.11298   2.25149
  -0.75363  -0.12702   2.25149
  -0.75363  -0.12702   2.25149
  -0.75363   0.11298   2.25149
  -0.75363  -0.12702   2.25149
  -0.51363  -0.12702   2.25149
  -0.51363  -0.12702   2.49149
  -0.51363  -0.12702   2.25149
  -0.51363  -0.12702   2.49149
  -0.27363   0.11298   2.49149
  -0.27363  -0.12702   2.49149
  -0.27363  -0.12702   2.49149
  -0.27363  -0.12702   2.49149
  -0.27363  -0.12702   2.49149
  -0.03363  -0.12702   2.73149
  -0.03363  -0.12702   2.73149
  -0.03363  -0.12702   2.73149
  -0.03363  -0.12702   2.73149
  -0.03363  -0.12702   2.73149
   0.20637  -0.12702   2.73149
   0.20637  -0.12702   2.73149
   0.20637  -0.12702   2.73149
   0.20637  -0.12702   2.97149
   0.20637  -0.12702   2.73149
   0.20637  -0.12702   2.97149
   0.44637  -0.12702   2.97149
   0.44637  -0.12702   2.97149
   0.44637  -0.12702   2.97149
   0.44637  -0.12702   2.97149
   0.68637  -0.12702   2.97149
   0.68637  -0.12702   2.97149
   0.68637  -0.12702   2.97149
   0.68637  -0.12702   3.21149
   0.68637  -0.12702   2.97149
   0.68637  -0.12702   3.21149
   0.92637  -0.12702   3.21149
   0.92637  -0.12702   3.21149
   0.92637  -0.12702   3.21149
   0.92637  -0.12702   3.21149
   0.92637  -0.12702   3.21149
   1.16637  -0.12702   3.21149
   1.16637  -0.12702   3.21149
   1.16637  -0.12702   3.45149
   1.16637  -0.12702   3.21149
   1.16637  -0.12702   3.45149
   1.40637  -0.12702   3.45149
   1.40637  -0.12702   3.45149
   1.40637  -0.12702   3.45149
   1.40637  -0.12702   3.45149
   1.64637  -0.12702   3.45149
   1.64637  -0.12702   3.45149
   1.64637  -0.12702   3.45149
   1.64637  -0.12702   3.45149
   1.64637  -0.12702   3.45149
   1.88637  -0.12702   3.45149
   1.88637  -0.12702   3.45149
   1.88637  -0.12702   3.45149
   1.88637  -0.12702   3.45149
   1.88637  -0.12702   3.45149
   1.88637  -0.12702   3.45149
   2.12637  -0.12702   3.45149
   2.12637  -0.12702   3.45149
   2.12637  -0.12702   3.45149
   2.12637  -0.12702   3.45149
   2.12637  -0.12702   3.45149
   2.12637  -0.12702   3.45149
   2.12637  -0.12702   3.45149
   2.12637  -0.12702   3.45149
   2.36637  -0.12702   3.45149
   2.36637  -0.12702   3.45149
   2.36637  -0.12702   3.45149
   2.36637  -0.12702   3.45149
   2.36637  -0.12702   3.21149
   2.36637  -0.12702   3.45149
   2.36637  -0.12702   3.45149
   2.36637  -0.12702   3.21149
   2.36637  -0.12702   3.45149
   2.59637  -0.12702   3.45149
   2.59637  -0.12702   3.45149
   2.59637  -0.12702   3.45149
   2.59637  -0.12702   3.45149
   2.59637  -0.12702   3.45149
   2.59637  -0.12702   3.45149
   2.59637  -0.12702   3.21149
   2.59637  -0.12702   3.21149
   2.59637  -0.12702   3.21149
   2.59637  -0.12702   3.21149
   2.59637   0.11298   3.21149
   2.59637   0.11298   3.21149
   2.59637   0.11298   3.21149
   2.59637   0.11298   3.21149
   2.59637  -0.12702   3.21149
   2.83637   0.11298   3.21149
   2.83637   0.11298   2.97149
   2.83637   0.11298   2.97149
   2.83637   0.11298   2.97149
   2.83637   0.11298   2.97149
   2.83637   0.11298   2.97149
   2.83637   0.11298   2.97149
   2.83637   0.11298   2.97149
   2.83637   0.11298   2.97149
   2.83637   0.11298   2.97149
   2.83637   0.11298   2.97149
   2.83637   0.11298   2.73149
   3.07637   0.11298   2.97149
   3.07637   0.11298   2.73149
   3.07637   0.11298   2.73149
   3.07637   0.11298   2.73149
   3.07637   0.11298   2.73149
   3.07637   0.11298   2.73149
   3.07637   0.11298   2.73149
   3.07637   0.11298   2.73149
   3.07637   0.11298   2.49149
   3.07637   0.11298   2.49149
   3.31637   0.11298   2.49149
   3.31637   0.11298   2.49149
   3.31637   0.11298   2.49149
   3.31637   0.11298   2.49149
   3.31637   0.11298   2.25149
   3.31637   0.11298   2.25149
   3.31637   0.11298   2.25149
   3.31637   0.11298   2.25149
   3.55637   0.11298   2.25149
   3.55637   0.11298   2.25149
   3.55637   0.11298   2.25149
   3.55637   0.11298   2.01149
   3.55637   0.11298   2.25149
   3.55637   0.11298   2.25149
   3.55637   0.11298   2.25149
   3.55637   0.11298   2.25149
   3.55637   0.11298   2.01149
   3.55637   0.11298   2.01149
   3.55637   0.11298   2.01149
   3.55637   0.11298   2.01149
   3.55637   0.11298   2.01149
   3.55637   0.11298   2.01149
   3.55637   0.11298   2.01149
   3.55637   0.11298   2.01149
   3.55637   0.11298   2.01149
   3.55637   0.11298   1.77149
   3.55637   0.11298   1.77149
   3.55637   0.11298   1.77149
   3.55637   0.11298   2.01149
   3.55637   0.11298   1.77149
   3.55637   0.11298   1.77149
   3.55637   0.11298   1.77149
   3.55637   0.11298   1.77149
   3.55637   0.11298   1.77149
   3.55637   0.11298   1.77149
   3.55637   0.11298   1.77149
   3.31637   0.11298   1.77149
   3.31637   0.11298   1.77149
   3.31637   0.11298   1.77149
   3.31637   0.11298   1.53149
   3.31637   0.11298   1.77149
   3.31637   0.11298   1.77149
   3.31637   0.11298   1.77149
   3.31637   0.11298   1.53149
   3.31637   0.11298   1.53149
   3.31637   0.11298   1.53149
   3.31637   0.11298   1.53149
   3.07637   0.11298   1.53149
   3.07637   0.11298   1.53149
   3.07637   0.11298   1.53149
   3.07637   0.11298   1.53149
   3.07637   0.11298   1.29149
   3.07637   0.11298   1.53149
   3.07637   0.11298   1.29149
   3.07637   0.11298   1.29149
   2.83637   0.11298   1.29149
   3.07637   0.11298   1.29149
   3.07637   0.11298   1.29149
   2.83637   0.11298   1.29149
   2.83637   0.11298   1.06149
   2.83637   0.11298   1.29149
   2.83637   0.11298   1.06149
   2.83637   0.11298   1.06149
   2.83637   0.11298   1.06149
   2.83637   0.11298   0.82149
   2.83637   0.11298   0.82149
   2.59637   0.11298   0.82149
   2.59637   0.11298   0.82149
   2.59637   0.11298   0.82149
   2.59637   0.11298   0.82149
   2.59637   0.11298   0.82149
   2.59637   0.11298   0.58149
   2.59637   0.11298   0.58149
   2.59637   0.11298   0.58149
   2.36637   0.11298   0.58149
   2.36637   0.11298   0.58149
   2.36637   0.11298   0.34149
   2.36637   0.11298   0.34149
   2.36637   0.11298   0.34149
   2.36637   0.11298   0.34149
   2.12637   0.11298   0.10149
   2.12637   0.11298   0.10149
   2.12637   0.11298   0.10149
   2.12637   0.11298   0.10149
   2.12637   0.11298  -0.13851
   2.12637   0.34298  -0.13851
   1.88637   0.11298  -0.13851
   1.88637   0.11298  -0.13851
   1.88637   0.11298  -0.37851
   1.88637   0.11298  -0.37851
   1.64637   0.11298  -0.37851
   1.64637   0.11298  -0.37851
   1.64637   0.11298  -0.37851
   1.64637   0.11298  -0.61851
   1.64637   0.34298  -0.61851
   1.40637   0.11298  -0.61851
   1.40637   0.34298  -0.85851
   1.40637   0.34298  -0.61851
   1.40637   0.11298  -0.85851
   1.40637   0.11298  -0.85851
   1.16637   0.34298  -0.85851
   1.16637   0.34298  -0.85851
   1.16637   0.34298  -1.09851
   1.16637   0.34298  -1.09851
   1.16637   0.34298  -1.09851
   0.92637   0.34298  -1.09851
   0.92637   0.34298  -1.09851
   0.92637   0.34298  -1.33851
   0.92637   0.11298  -1.33851
   0.92637   0.34298  -1.33851
   0.68637   0.34298  -1.33851
   0.68637   0.34298  -1.57851
   0.68637   0.34298  -1.57851
   0.68637   0.34298  -1.57851
   0.68637   0.34298  -1.57851
   0.68637   0.34298  -1.81851
   0.68637   0.34298  -1.57851
   0.44637   0.34298  -1.81851
   0.44637   0.11298  -1.81851
   0.44637   0.11298  -1.81851
   0.44637   0.11298  -1.81851
   0.44637   0.34298  -1.81851
   0.44637   0.11298  -2.05851
   0.44637   0.34298  -2.05851
   0.44637   0.34298  -2.05851
   0.44637   0.11298  -2.05851
   0.44637   0.11298  -2.05851
   0.44637   0.11298  -2.05851
   0.44637   0.11298  -2.29851
   0.44637   0.11298  -2.29851
   0.44637   0.11298  -2.29851
   0.44637   0.11298  -2.29851
   0.44637   0.11298  -2.29851
   0.44637   0.11298  -2.53851
   0.44637   0.11298  -2.29851
   0.44637   0.11298  -2.53851
   0.44637   0.11298  -2.53851
   0.44637   0.11298  -2.53851
   0.20637   0.11298  -2.53851
   0.44637   0.11298  -2.53851
   0.20637   0.11298  -2.53851
   0.20637  -0.12702  -2.77851
   0.20637  -0.12702  -2.77851
   0.20637  -0.12702  -2.77851
   0.20637  -0.12702  -2.77851
   0.20637  -0.12702  -2.77851
   0.20637  -0.12702  -2.77851
   0.20637  -0.12702  -2.77851
   0.20637  -0.12702  -2.77851
   0.20637  -0.12702  -3.01851
   0.20637  -0.12702  -3.01851
   0.20637  -0.12702  -3.01851
   0.20637  -0.12702  -3.01851
   0.20637  -0.12702  -3.01851
   0.20637  -0.12702  -3.01851
   0.20637  -0.12702  -3.01851
   0.20637  -0.12702  -3.25851
  -0.03363  -0.12702  -3.01851
  -0.03363  -0.12702  -3.01851
  -0.03363  -0.12702  -3.25851
  -0.03363  -0.12702  -3.25851
  -0.03363  -0.12702  -3.25851
  -0.03363  -0.12702  -3.25851
  -0.03363  -0.12702  -3.25851
  -0.03363  -0.12702  -3.25851
  -0.27363  -0.12702  -3.25851
  -0.27363  -0.12702  -3.25851
  -0.27363  -0.12702  -3.25851
  -0.27363  -0.12702  -3.25851
  -0.27363  -0.12702  -3.25851
  -0.27363  -0.12702  -3.25851
  -0.27363  -0.36702  -3.25851
  -0.51363  -0.12702  -3.49851
  -0.51363  -0.12702  -3.25851
  -0.51363  -0.12702  -3.25851
  -0.51363  -0.12702  -3.49851
  -0.51363  -0.12702  -3.49851
  -0.75363  -0.12702  -3.49851
  -0.75363  -0.12702  -3.25851
  -0.75363   0.11298  -3.25851
  -0.75363  -0.12702  -3.49851
  -0.75363  -0.12702  -3.49851
  -0.75363  -0.12702  -3.49851
  -0.75363  -0.12702  -3.49851
  -0.75363  -0.12702  -3.49851
  -0.75363   0.11298  -3.49851
  -0.99363  -0.12702  -3.49851
  -0.99363   0.11298  -3.49851
  -0.99363   0.11298  -3.49851
  -0.99363   0.11298  -3.73851
  -0.99363   0.11298  -3.49851
  -0.99363  -0.12702  -3.49851
  -0.99363   0.11298  -3.49851
  -0.99363   0.11298  -3.49851
  -0.99363   0.11298  -3.49851
  -1.23363   0.11298  -3.49851
  -1.23363   0.11298  -3.73851
  -1.23363   0.11298  -3.73851
  -1.23363   0.11298  -3.73851
  -1.23363   0.11298  -3.73851
  -1.23363   0.11298  -3.73851
  -1.23363   0.11298  -3.73851
  -1.23363   0.11298  -3.73851
  -1.23363   0.11298  -3.73851
  -1.23363   0.11298  -3.73851
  -1.23363   0.11298  -3.73851
  -1.47363   0.11298  -3.73851
  -1.47363   0.11298  -3.73851
  -1.47363   0.11298  -3.73851
  -1.47363   0.11298  -3.73851
  -1.47363   0.11298  -3.73851
  -1.47363   0.11298  -3.96851
  -1.47363   0.11298  -3.73851
  -1.47363   0.11298  -3.73851
  -1.47363   0.11298  -3.73851
  -1.47363   0.11298  -3.73851
  -1.47363   0.11298  -3.73851
  -1.71363   0.11298  -3.73851
  -1.71363   0.11298  -3.73851
  -1.71363   0.11298  -3.96851
  -1.71363   0.11298  -3.73851
  -1.71363   0.11298  -3.73851
  -1.71363   0.11298  -3.73851
  -1.71363   0.11298  -3.73851
  -1.71363   0.11298  -3.73851
  -1.95363   0.11298  -3.73851
  -1.71363   0.11298  -3.73851
  -1.71363   0.11298  -3.73851
  -1.71363   0.11298  -3.73851
  -1.95363   0.11298  -3.73851
  -1.95363   0.11298  -3.73851
  -1.95363   0.11298  -3.73851
  -1.95363   0.11298  -3.49851
  -1.95363   0.11298  -3.73851
  -1.95363   0.11298  -3.49851
  -1.95363   0.11298  -3.49851
  -1.95363   0.11298  -3.49851
  -1.95363  -0.12702  -3.49851
  -1.95363  -0.12702  -3.49851
  -1.95363  -0.12702  -3.49851
  -2.19363  -0.12702  -3.49851
  -2.19363   0.11298  -3.49851
  -2.19363  -0.12702  -3.49851
  -2.19363  -0.12702  -3.25851
  -2.19363  -0.12702  -3.25851
  -2.19363   0.11298  -3.25851
  -2.19363  -0.12702  -3.25851
  -2.19363  -0.12702  -3.25851
  -2.19363  -0.12702  -3.25851
  -2.19363  -0.12702  -3.25851
  -2.19363  -0.12702  -3.25851
  -2.19363  -0.12702  -3.25851
  -2.19363  -0.12702  -3.25851
  -2.19363  -0.12702  -3.01851
  -2.19363  -0.12702  -3.01851
  -2.19363  -0.12702  -3.01851
  -2.19363  -0.12702  -3.01851
  -2.19363  -0.12702  -3.01851
  -2.19363  -0.12702  -3.01851
  -2.19363  -0.12702  -3.01851
  -2.19363  -0.12702  -3.01851
  -2.19363  -0.12702  -3.01851
  -2.19363  -0.12702  -3.01851
  -2.19363  -0.12702  -2.77851
  -2.19363  -0.12702  -2.77851
  -2.19363  -0.12702  -2.77851
  -2.19363  -0.12702  -2.77851
  -2.19363  -0.12702  -2.77851
  -2.19363  -0.12702  -2.77851
  -2.19363  -0.12702  -2.77851
  -2.19363  -0.12702  -2.77851
  -2.19363  -0.12702  -2.53851
  -2.19363  -0.12702  -2.53851
  -2.19363  -0.36702  -2.53851
  -2.19363  -0.36702  -2.53851
  -2.19363  -0.36702  -2.53851
  -2.19363  -0.36702  -2.53851
  -2.19363  -0.36702  -2.53851
  -2.19363  -0.36702  -2.53851
  -2.19363  -0.36702  -2.29851
  -2.19363  -0.36702  -2.29851
  -2.19363  -0.36702  -2.29851
  -2.19363  -0.36702  -2.29851
  -2.43363  -0.36702  -2.29851
  -2.43363  -0.36702  -2.05851
  -2.43363  -0.36702  -2.05851
  -2.43363  -0.36702  -2.05851
  -2.43363  -0.36702  -2.05851
  -2.43363  -0.36702  -2.05851
  -2.43363  -0.36702  -2.05851
  -2.43363  -0.36702  -1.81851
  -2.43363  -0.36702  -1.81851
  -2.43363  -0.36702  -1.81851
  -2.43363  -0.36702  -1.81851
  -2.43363  -0.36702  -1.57851
  -2.43363  -0.36702  -1.57851
  -2.43363  -0.36702  -1.57851
  -2.43363  -0.36702  -1.57851
  -2.43363  -0.36702  -1.57851
  -2.43363  -0.36702  -1.57851
  -2.43363  -0.36702  -1.57851
  -2.43363  -0.36702  -1.57851
  -2.43363  -0.36702  -1.33851
  -2.43363  -0.36702  -1.33851
  -2.43363  -0.36702  -1.33851
  -2.43363  -0.36702  -1.33851
  -2.43363  -0.36702  -1.33851
  -2.43363  -0.36702  -1.33851
  -2.43363  -0.36702  -1.09851
  -2.43363  -0.36702  -1.09851
  -2.43363  -0.36702  -1.09851
  -2.43363  -0.36702  -1.09851
  -2.43363  -0.36702  -1.09851
  -2.43363  -0.60702  -1.09851
  -2.43363  -0.36702  -1.09851
  -2.43363  -0.36702  -0.85851
  -2.43363  -0.36702  -1.09851
  -2.43363  -0.36702  -0.85851
  -2.43363  -0.36702  -0.85851
  -2.43363  -0.36702  -0.85851
  -2.43363  -0.36702  -0.85851
  -2.43363  -0.36702  -0.85851
  -2.43363  -0.36702  -0.85851
  -2.43363  -0.36702  -0.85851
  -2.43363  -0.36702  -0.61851
  -2.43363  -0.36702  -0.61851
  -2.19363  -0.36702  -0.61851
  -2.43363  -0.36702  -0.61851
  -2.19363  -0.36702  -0.61851
  -2.19363  -0.36702  -0.61851
  -2.19363  -0.12702  -0.61851
  -2.19363  -0.12702  -0.61851
  -2.19363  -0.36702  -0.61851
  -2.19363  -0.12702  -0.61851
  -2.19363  -0.12702  -0.61851
  -2.19363  -0.12702  -0.37851
  -2.19363  -0.12702  -0.37851
  -2.19363  -0.12702  -0.37851
  -2.19363  -0.12702  -0.37851
  -2.19363  -0.12702  -0.37851
  -1.95363  -0.12702  -0.13851
  -1.95363  -0.12702  -0.13851
  -2.19363  -0.12702  -0.13851
  -1.95363  -0.12702  -0.13851
  -1.95363  -0.12702  -0.13851
  -1.95363  -0.12702  -0.13851
  -1.95363  -0.12702  -0.13851
  -1.95363  -0.12702  -0.13851
  -1.95363  -0.12702   0.10149
  -1.95363  -0.12702   0.10149
  -1.95363  -0.12702   0.10149
  -1.95363  -0.12702   0.10149
  -1.95363  -0.12702   0.10149
  -1.95363  -0.12702   0.34149
  -1.71363  -0.12702   0.34149
  -1.71363   0.11298   0.34149
  -1.71363   0.11298   0.34149
  -1.71363   0.11298   0.58149
  -1.71363   0.11298   0.58149
  -1.71363   0.11298   0.58149
  -1.71363   0.11298   0.58149
  -1.71363   0.11298   0.58149
