********************************************************************************
              CENTRO DE INSTRUMENTACION Y REGISTRO SISMICO  A.C.

    Anaxagoras 814, Col. Narvarte, Benito Juarez, C.P. 03020 Mexico, D.F.
           Tels. 5687 45 42/ 5687 45  82             Fax. 5669 25 12
********************************************************************************
ARCHIVO ESTANDAR DE ACELERACION:
VERSION DEL FORMATO                    : 2.0
NOMBRE DEL ARCHIVO                     : BA4920120922122957
FECHA Y HORA DE CREACION               : 05/ABR/13, 18:25
REF. CATALOGO ACELEROGRAMAS, SMIS 1996 : REGISTRO No.     /PAG.


================================================================================
DATOS DE LA ESTACION:
NOMBRE DE LA ESTACION                  : BUENOS AIRES
CLAVE DE LA ESTACION                   : BA49
LOCALIZACION DE LA ESTACION            : Del. Cuauhtémoc, Col. Doctores,        
                                       : Av. Lázaro Cárdenas esq. con           
                                       : Calle Dr. Márquez.                     
                                       :                                        
                                       : 
COORDENADAS DE LA ESTACION             : 19.4097 LAT. N
                                       : 99.1450 LONG. W
ALTITUD (msnm)                         : 2233
TIPO DE SUELO                          : Terreno blando, material compresible
                                       : (arcillas)                
                                       : 
INSTITUCION RESPONSABLE                : CIRES
                                       : 

================================================================================
DATOS DEL ACELEROGRAFO:
MODELO DEL ACELEROGRAFO                : RADESD
NUMERO DE SERIE DEL ACELEROGRAFO       : 176
NUMERO DE CANALES                      : 3
ORIENTACION C1-C6 (rumbo;orientacion)  : /N00E/+V/N90W
ORIENTACION C7-C12 (rumbo;orientacion) : 
VEL. DE MUESTREO, C1-C6 (muestras/s)   : /100/100/100
VEL. DE MUESTREO, C7-C12 (muestras/s)  : 
ESC. COMPLETA DE SENSORES, C1-C6, (g)  : /0.5/0.5/0.5
ESC. COMPLETA DE SENSORES, C7-C12, (g) : 
FREC. NAT. DE SENSORES, C1-C6, (Hz)    : /52.99/52.03/52.99
FREC. NAT. DE SENSORES, C7-C12, (Hz)   : 
AMORTIGUAMIENTO DE SENSORES, C1-C6     : /0.5589/0.5469/0.6096
AMORTIGUAMIENTO DE SENSORES, C7-C12    : 
INTERVALO DE MUESTREO, C1-C6, (s)      : /0.01/0.01/0.01
INTERVALO DE MUESTREO, C7-C12, (s)     : 
UMBRAL DE DISPARO, C1-C6, (Gal)        : /15.32/30.65/15.32
UMBRAL DE DISPARO, C7-C12, (Gal)       : 
MEMORIA DE PREEVENTO (s)               : 56.0
TIEMPO DE POSEVENTO (s)                : 80.0


================================================================================
DATOS DEL SISMO:
FECHA DEL SISMO (GMT)                  : 22/SEP/12
HORA EPICENTRO (GMT)                   : 12:29:57.0
MAGNITUD(ES)                           : /Mc=5.4
COORDENADAS DEL EPICENTRO              : 16.23 LAT. N
                                       : 98.30 LONG. W
PROFUNDIDAD FOCAL (km)                 : 2
FUENTE DE LOS DATOS EPICENTRALES       : SSN
                                       : INSTITUTO DE GEOFISICA, UNAM

================================================================================
DATOS DE ESTE REGISTRO:
HORA DE LA PRIMERA MUESTRA (GMT)       : 12:31:41.00
EXACTITUD DEL TIEMPO (s)               : 0.01
DURACION DEL REGISTRO (s), C1-C6       : /176.8/176.8/176.8
DURACION DEL REGISTRO (s), C7-C12      : 
NUM. TOTAL DE MUESTRAS, C1-C6          : /17680/17680/17680
NUM. TOTAL DE MUESTRAS, C7-C12         : 
ACEL. MAX. (Gal), C1-C6                : /2.46008/0.97863/1.77707
ACEL. MAX., C1-C6, EN LA MUESTRA       : /4921/5418/6031
ACEL. MAX. (Gal), C7-C12               : 
ACEL. MAX., C7-C12, EN LA MUESTRA      : 
UNIDADES DE LOS DATOS                  : Gal (cm/s/s)
FACTOR DE DECIMACION                   : 1
FORMATO DATOS (FORTRAN,10 campos/dato) : 3F10.5


================================================================================
CALIDAD DEL ACELEROGRAMA:
REGISTRO DIGITAL COMPLETO CON TIEMPO ABSOLUTO CORRECTO.


================================================================================
COMENTARIOS:














================================================================================
DATOS DE ACELERACION:
---------+---------+---------+---------+---------+---------+---------+---------+
   CANAL-1   CANAL-2   CANAL-3   CANAL-4   CANAL-5   CANAL-6   CANAL-7   CANAL-8
      N00E        +V      N90W
---------+---------+---------+---------+---------+---------+---------+---------+
[...]
   1.68488  -0.14066   0.09340
   1.66992  -0.05088   0.12332
   1.65495  -0.03591   0.18318
   1.61006  -0.00599   0.18318
   1.61006   0.06883   0.21311
   1.56517   0.08380   0.28792
   1.53524   0.05387   0.30289
   1.55020   0.09876   0.31785
   1.53524   0.11372   0.40763
   1.49035   0.11372   0.40763
   1.47539   0.06883   0.39267
   1.47539   0.15862   0.45253
   1.46042   0.15862   0.43756
   1.43049   0.17358   0.48245
   1.37064   0.14365   0.49742
   1.34071   0.12869   0.52734
   1.34071   0.11372   0.54231
   1.28086   0.08380   0.58720
   1.20604   0.08380   0.61713
   1.16115   0.12869   0.66202
   1.08633   0.03890   0.70691
   0.98158   0.02394   0.72187
   0.92173   0.02394   0.81166
   0.81698   0.02394   0.87151
   0.69727   0.03890   0.90144
   0.56260   0.00898   0.93137
   0.47281  -0.02095   0.97626
   0.33814  -0.08081   0.96129
   0.26332  -0.02095   1.00619
   0.18850   0.05387   1.03611
   0.12865   0.02394   1.02115
   0.05383   0.03890   1.02115
  -0.00603   0.08380   1.05108
  -0.09581   0.05387   1.02115
  -0.12574   0.03890   1.03611
  -0.17063   0.05387   1.02115
  -0.18559   0.03890   1.00619
  -0.26041  -0.02095   0.97626
  -0.26041   0.00898   0.99122
  -0.30530  -0.09577   0.90144
  -0.33523  -0.08081   0.94633
  -0.36516  -0.18555   0.87151
  -0.41005  -0.18555   0.87151
  -0.42501  -0.17059   0.82662
  -0.45494  -0.14066   0.78173
  -0.48487  -0.11073   0.70691
  -0.49983  -0.06584   0.69195
  -0.45494   0.05387   0.64705
  -0.46990   0.00898   0.58720
  -0.43998  -0.02095   0.52734
  -0.42501   0.03890   0.49742
  -0.43998   0.05387   0.39267
  -0.45494   0.15862   0.34778
  -0.48487   0.15862   0.27296
  -0.48487   0.12869   0.24303
  -0.45494   0.14365   0.16821
  -0.43998   0.20351   0.10836
  -0.42501   0.26336   0.07843
  -0.46990   0.23343   0.04850
  -0.48487   0.29329  -0.02631
  -0.51479   0.29329  -0.02631
  -0.55969   0.35314  -0.07121
  -0.55969   0.48782  -0.10113
  -0.57465   0.47285  -0.17595
  -0.58961   0.42796  -0.17595
  -0.63450   0.33818  -0.20588
  -0.58961   0.35314  -0.17595
  -0.60458   0.29329  -0.17595
  -0.58961   0.26336  -0.11610
  -0.57465   0.26336  -0.16099
  -0.52976   0.27833  -0.19092
  -0.48487   0.20351  -0.22084
  -0.41005   0.20351  -0.23581
  -0.36516   0.11372  -0.26573
  -0.29034   0.08380  -0.26573
  -0.20056  -0.02095  -0.25077
  -0.17063  -0.06584  -0.23581
  -0.03595  -0.14066  -0.25077
   0.05383  -0.14066  -0.22084
   0.12865  -0.14066  -0.19092
   0.17354  -0.14066  -0.22084
   0.20347  -0.20052  -0.23581
   0.27829  -0.26037  -0.23581
   0.33814  -0.26037  -0.17595
   0.38303  -0.27533  -0.17595
   0.44289  -0.27533  -0.14602
   0.50274  -0.24541  -0.11610
   0.51771  -0.21548  -0.10113
   0.54763  -0.18555  -0.07121
   0.56260  -0.20052  -0.05624
   0.60749  -0.20052  -0.02631
   0.63742  -0.15562   0.00361
   0.65238  -0.11073   0.06347
   0.63742  -0.09577   0.07843
   0.68231  -0.05088   0.12332
   0.71223  -0.08081   0.16821
   0.71223  -0.08081   0.18318
   0.72720  -0.00599   0.22807
   0.71223  -0.00599   0.28792
   0.68231  -0.06584   0.25800
   0.69727  -0.03591   0.27296
   0.69727  -0.05088   0.30289
   0.68231  -0.08081   0.33282
   0.63742  -0.17059   0.30289
   0.62245  -0.12570   0.33282
   0.59252  -0.08081   0.31785
   0.54763  -0.11073   0.30289
   0.53267  -0.15562   0.27296
   0.45785  -0.11073   0.27296
   0.39800  -0.18555   0.21311
   0.36807  -0.14066   0.25800
   0.30821  -0.09577   0.22807
   0.21843  -0.09577   0.19814
   0.12865  -0.05088   0.21311
   0.05383  -0.02095   0.15325
  -0.05092   0.02394   0.15325
  -0.14070   0.02394   0.10836
  -0.23048   0.12869   0.09340
  -0.33523   0.15862   0.09340
  -0.46990   0.17358   0.03354
  -0.58961   0.11372   0.00361
  -0.67940   0.09876   0.00361
  -0.81407   0.15862  -0.02631
  -0.93378   0.12869  -0.01135
  -1.03853   0.18854  -0.04128
  -1.18816   0.15862  -0.05624
  -1.26298   0.21847  -0.08617
  -1.35276   0.21847  -0.10113
  -1.42758   0.32322  -0.14602
  -1.50240   0.32322  -0.14602
  -1.59218   0.26336  -0.11610
  -1.60715   0.20351  -0.11610
  -1.63708   0.23343  -0.13106
  -1.63708   0.24840  -0.11610
  -1.63708   0.24840  -0.14602
  -1.60715   0.24840  -0.19092
  -1.59218   0.18854  -0.19092
  -1.60715   0.05387  -0.25077
  -1.57722  -0.00599  -0.28070
  -1.53233  -0.09577  -0.28070
  -1.50240  -0.17059  -0.29566
  -1.42758  -0.12570  -0.32559
  -1.44255  -0.12570  -0.35552
  -1.41262  -0.09577  -0.46026
  -1.38269  -0.11073  -0.52012
  -1.32284  -0.09577  -0.60990
  -1.33780  -0.15562  -0.62486
  -1.29291  -0.20052  -0.68472
  -1.24802  -0.24541  -0.65479
  -1.17320  -0.15562  -0.66976
  -1.12831  -0.21548  -0.72961
  -1.08342  -0.18555  -0.71465
  -0.97867  -0.12570  -0.74457
  -0.94874  -0.03591  -0.78947
  -0.90385  -0.08081  -0.81939
  -0.84400  -0.08081  -0.81939
  -0.76918  -0.17059  -0.84932
  -0.69436  -0.20052  -0.81939
  -0.61954  -0.17059  -0.75954
  -0.52976  -0.14066  -0.77450
  -0.45494   0.00898  -0.77450
  -0.38012   0.03890  -0.77450
  -0.33523   0.05387  -0.78947
  -0.26041  -0.05088  -0.74457
  -0.18559  -0.23044  -0.69968
  -0.06588  -0.23044  -0.63983
   0.05383  -0.27533  -0.56501
   0.17354  -0.24541  -0.49019
   0.24836  -0.24541  -0.44530
   0.32318  -0.17059  -0.43034
   0.38303  -0.11073  -0.40041
   0.44289  -0.18555  -0.38544
   0.50274  -0.32023  -0.35552
   0.62245  -0.35015  -0.31063
   0.75713  -0.42497  -0.20588
   0.83194  -0.38008  -0.17595
   0.83194  -0.26037  -0.14602
   0.84691  -0.21548  -0.16099
   0.89180  -0.15562  -0.10113
   0.89180  -0.15562  -0.11610
   0.92173  -0.26037  -0.08617
   0.95165  -0.29030  -0.01135
   0.95165  -0.32023   0.01858
   0.96662  -0.26037   0.09340
   0.93669  -0.18555   0.06347
   0.93669  -0.11073   0.07843
   0.93669  -0.09577   0.10836
   0.92173  -0.15562   0.10836
   0.87684  -0.20052   0.15325
   0.90676  -0.15562   0.19814
   0.84691  -0.17059   0.21311
   0.84691  -0.11073   0.21311
   0.81698  -0.08081   0.18318
   0.80202  -0.00599   0.19814
   0.75713  -0.00599   0.18318
   0.75713   0.02394   0.16821
   0.71223   0.03890   0.16821
   0.69727   0.08380   0.13829
   0.62245   0.08380   0.10836
   0.63742   0.12869   0.09340
   0.62245   0.20351   0.09340
   0.60749   0.20351   0.13829
   0.68231   0.24840   0.16821
   0.69727   0.29329   0.19814
   0.74216   0.33818   0.18318
   0.72720   0.33818   0.15325
   0.75713   0.41300   0.15325
   0.78705   0.36811   0.12332
   0.81698   0.33818   0.13829
   0.87684   0.39804   0.13829
   0.87684   0.36811   0.13829
   0.86187   0.47285   0.12332
   0.87684   0.51775   0.09340
   0.87684   0.56264   0.09340
   0.84691   0.53271   0.10836
   0.81698   0.45789   0.10836
   0.77209   0.42796   0.10836
   0.71223   0.39804   0.13829
   0.69727   0.41300   0.12332
   0.63742   0.36811   0.10836
   0.54763   0.36811   0.09340
   0.50274   0.45789   0.06347
   0.38303   0.50278   0.04850
   0.27829   0.48782   0.00361
   0.23339   0.45789  -0.04128
   0.15858   0.48782  -0.05624
   0.09872   0.42796  -0.10113
  -0.03595   0.45789  -0.13106
  -0.18559   0.50278  -0.16099
  -0.26041   0.54767  -0.20588
  -0.36516   0.54767  -0.25077
  -0.48487   0.45789  -0.32559
  -0.52976   0.47285  -0.32559
  -0.58961   0.47285  -0.32559
  -0.63450   0.38307  -0.34055
  -0.72429   0.24840  -0.31063
  -0.76918   0.33818  -0.32559
  -0.85896   0.27833  -0.29566
  -0.88889   0.26336  -0.28070
  -0.88889   0.24840  -0.31063
  -0.85896   0.11372  -0.31063
  -0.85896   0.08380  -0.26573
  -0.78414  -0.05088  -0.23581
  -0.81407  -0.17059  -0.23581
  -0.78414  -0.17059  -0.22084
  -0.76918  -0.23044  -0.26573
  -0.70932  -0.21548  -0.29566
  -0.66443  -0.26037  -0.29566
  -0.60458  -0.27533  -0.31063
  -0.52976  -0.36512  -0.29566
  -0.46990  -0.45490  -0.31063
  -0.42501  -0.52972  -0.31063
  -0.36516  -0.57461  -0.32559
  -0.27537  -0.54468  -0.32559
  -0.24545  -0.55965  -0.35552
  -0.23048  -0.55965  -0.38544
  -0.18559  -0.57461  -0.40041
  -0.11077  -0.66439  -0.43034
   0.00894  -0.69432  -0.41537
   0.11368  -0.78410  -0.38544
   0.15858  -0.73921  -0.35552
   0.23339  -0.69432  -0.34055
   0.26332  -0.72425  -0.34055
   0.26332  -0.73921  -0.35552
   0.32318  -0.75417  -0.35552
   0.36807  -0.76914  -0.31063
   0.41296  -0.73921  -0.25077
   0.48778  -0.76914  -0.22084
   0.50274  -0.67936  -0.16099
   0.56260  -0.63446  -0.10113
   0.59252  -0.57461  -0.07121
   0.63742  -0.48483  -0.01135
   0.68231  -0.42497   0.06347
   0.69727  -0.39504   0.13829
   0.68231  -0.33519   0.24303
   0.69727  -0.27533   0.33282
   0.71223  -0.27533   0.39267
   0.75713  -0.20052   0.45253
   0.75713  -0.24541   0.52734
   0.81698  -0.12570   0.61713
   0.83194  -0.12570   0.64705
   0.77209  -0.08081   0.67698
   0.71223  -0.06584   0.72187
   0.71223   0.05387   0.82662
   0.66734   0.05387   0.82662
   0.72720   0.14365   0.85655
   0.71223   0.12869   0.82662
   0.77209   0.21847   0.82662
   0.74216   0.26336   0.82662
   0.74216   0.29329   0.82662
   0.72720   0.30825   0.85655
   0.74216   0.30825   0.82662
   0.71223   0.30825   0.79669
   0.75713   0.38307   0.85655
   0.75713   0.38307   0.82662
   0.71223   0.39804   0.81166
   0.75713   0.47285   0.79669
   0.77209   0.44293   0.76676
   0.77209   0.48782   0.76676
   0.78705   0.47285   0.75180
   0.75713   0.39804   0.70691
   0.80202   0.44293   0.72187
   0.78705   0.41300   0.69195
   0.81698   0.47285   0.69195
   0.83194   0.41300   0.66202
   0.89180   0.50278   0.64705
   0.84691   0.45789   0.60216
   0.80202   0.39804   0.52734
   0.81698   0.41300   0.54231
   0.81698   0.38307   0.48245
   0.75713   0.38307   0.46749
   0.77209   0.36811   0.45253
   0.71223   0.39804   0.42260
   0.69727   0.41300   0.42260
   0.60749   0.35314   0.31785
   0.53267   0.38307   0.25800
   0.45785   0.44293   0.25800
   0.36807   0.39804   0.18318
   0.23339   0.44293   0.18318
   0.14361   0.44293   0.13829
  -0.02099   0.45789   0.13829
  -0.08084   0.44293   0.12332
  -0.20056   0.42796   0.07843
  -0.30530   0.48782   0.09340
  -0.42501   0.47285   0.09340
  -0.63450   0.45789   0.10836
  -0.76918   0.45789   0.06347
  -0.90385   0.36811   0.03354
  -1.02356   0.41300   0.06347
  -1.09838   0.29329   0.03354
  -1.20313   0.30825   0.07843
  -1.35276   0.23343   0.04850
  -1.44255   0.15862   0.04850
  -1.56226   0.14365   0.04850
  -1.65204   0.11372   0.04850
  -1.80168  -0.02095   0.04850
  -1.87650  -0.11073   0.01858
  -1.93635  -0.18555   0.03354
  -1.98124  -0.24541   0.03354
  -2.08599  -0.33519   0.04850
  -2.17577  -0.38008   0.06347
  -2.23563  -0.43994   0.01858
  -2.32541  -0.52972   0.00361
  -2.34037  -0.55965   0.01858
  -2.40023  -0.64943  -0.04128
  -2.43016  -0.66439  -0.02631
  -2.46008  -0.63446  -0.02631
  -2.44512  -0.63446  -0.01135
  -2.37030  -0.52972  -0.01135
  -2.31045  -0.54468  -0.04128
  -2.28052  -0.58957  -0.07121
  -2.25059  -0.63446  -0.05624
  -2.20570  -0.63446  -0.05624
  -2.19074  -0.54468  -0.05624
  -2.08599  -0.52972  -0.04128
  -1.99621  -0.48483  -0.07121
  -1.87650  -0.48483  -0.05624
  -1.80168  -0.49979  -0.05624
  -1.72686  -0.46986  -0.07121
  -1.60715  -0.43994   0.00361
  -1.50240  -0.48483   0.04850
  -1.35276  -0.49979   0.03354
  -1.23305  -0.52972   0.01858
  -1.09838  -0.54468   0.03354
  -1.03853  -0.57461   0.03354
  -1.02356  -0.57461   0.03354
  -0.88889  -0.58957   0.06347
  -0.81407  -0.57461   0.04850
  -0.72429  -0.58957   0.00361
  -0.63450  -0.55965  -0.01135
  -0.52976  -0.45490  -0.01135
  -0.46990  -0.45490  -0.02631
  -0.36516  -0.39504  -0.05624
  -0.29034  -0.35015  -0.04128
  -0.18559  -0.24541  -0.10113
  -0.09581  -0.18555  -0.11610
  -0.02099  -0.12570  -0.13106
   0.09872  -0.00599  -0.10113
   0.20347   0.05387  -0.11610
   0.30821   0.17358  -0.11610
   0.39800   0.23343  -0.11610
   0.42792   0.33818  -0.11610
   0.48778   0.47285  -0.05624
   0.54763   0.62249  -0.07121
   0.66734   0.63746  -0.05624
   0.80202   0.62249  -0.02631
   0.92173   0.62249   0.00361
   0.93669   0.66738   0.06347
   0.95165   0.71227   0.12332
   0.98158   0.72724   0.13829
   1.04144   0.71227   0.19814
   1.17611   0.69731   0.16821
   1.25093   0.65242   0.19814
   1.28086   0.63746   0.22807
   1.28086   0.62249   0.30289
   1.28086   0.60753   0.33282
   1.35568   0.56264   0.30289
   1.43049   0.48782   0.30289
   1.50531   0.42796   0.28792
   1.44546   0.38307   0.24303
   1.41553   0.30825   0.25800
   1.41553   0.29329   0.25800
   1.44546   0.23343   0.21311
   1.49035   0.17358   0.24303
   1.52028   0.18854   0.18318
   1.47539   0.18854   0.12332
   1.44546   0.24840   0.07843
   1.46042   0.26336   0.04850
   1.40057   0.20351  -0.04128
   1.35568   0.12869  -0.08617
   1.37064   0.14365  -0.10113
   1.34071   0.15862  -0.13106
   1.35568   0.17358  -0.11610
   1.29582   0.14365  -0.10113
   1.31078   0.18854  -0.13106
   1.25093   0.14365  -0.16099
   1.17611   0.08380  -0.22084
   1.16115   0.12869  -0.22084
   1.17611   0.12869  -0.17595
   1.17611   0.05387  -0.20588
   1.23597   0.03890  -0.19092
   1.25093   0.06883  -0.19092
   1.23597   0.00898  -0.26573
   1.16115   0.02394  -0.29566
   1.11626  -0.00599  -0.31063
   1.10129  -0.02095  -0.29566
   1.07136  -0.03591  -0.31063
   1.05640  -0.02095  -0.34055
   1.02647  -0.03591  -0.37048
   0.90676   0.00898  -0.38544
   0.86187   0.02394  -0.44530
   0.74216  -0.05088  -0.41537
   0.66734  -0.05088  -0.44530
   0.56260  -0.12570  -0.44530
   0.39800  -0.06584  -0.47523
   0.29325   0.02394  -0.52012
   0.18850   0.05387  -0.56501
   0.06879   0.05387  -0.56501
  -0.03595   0.03890  -0.56501
  -0.20056   0.08380  -0.59494
  -0.30530   0.08380  -0.65479
  -0.41005   0.12869  -0.71465
  -0.43998   0.09876  -0.74457
  -0.43998   0.09876  -0.74457
  -0.45494   0.02394  -0.75954
  -0.51479  -0.02095  -0.78947
  -0.55969   0.03890  -0.83436
  -0.61954   0.02394  -0.84932
  -0.63450   0.06883  -0.80443
  -0.61954   0.09876  -0.77450
  -0.55969  -0.03591  -0.78947
  -0.55969  -0.14066  -0.80443
  -0.54472  -0.03591  -0.80443
  -0.52976  -0.06584  -0.80443
  -0.46990  -0.09577  -0.81939
  -0.42501  -0.09577  -0.80443
  -0.36516  -0.11073  -0.75954
  -0.29034  -0.08081  -0.74457
  -0.21552  -0.06584  -0.75954
  -0.17063  -0.06584  -0.75954
  -0.11077  -0.21548  -0.78947
  -0.03595  -0.24541  -0.71465
  -0.03595  -0.29030  -0.72961
  -0.05092  -0.29030  -0.69968
   0.02390  -0.29030  -0.71465
   0.06879  -0.32023  -0.68472
   0.12865  -0.32023  -0.63983
   0.14361  -0.27533  -0.63983
   0.17354  -0.24541  -0.62486
   0.15858  -0.24541  -0.60990
   0.17354  -0.18555  -0.50515
   0.18850  -0.17059  -0.47523
   0.17354  -0.20052  -0.44530
   0.21843  -0.18555  -0.46026
   0.21843  -0.11073  -0.40041
   0.26332  -0.11073  -0.40041
   0.26332  -0.09577  -0.38544
   0.36807  -0.11073  -0.43034
   0.33814  -0.11073  -0.34055
   0.39800  -0.09577  -0.29566
   0.38303  -0.12570  -0.25077
   0.39800  -0.05088  -0.16099
   0.41296  -0.05088  -0.14602
   0.44289  -0.02095  -0.08617
   0.48778   0.03890  -0.08617
   0.45785   0.03890  -0.04128
   0.45785   0.05387   0.03354
   0.45785   0.02394   0.03354
   0.47281   0.00898   0.07843
   0.50274  -0.00599   0.07843
   0.54763  -0.02095   0.13829
   0.50274   0.00898   0.21311
   0.45785   0.02394   0.19814
   0.47281   0.00898   0.28792
   0.47281   0.00898   0.22807
   0.44289   0.03890   0.30289
