********************************************************************************
               CENTRO DE INSTRUMENTACION Y REGISTRO SISMICO  A.C.  
                       Coordinacion de Servicios Tecnicos
     Anaxagoras 814, Col. Narvarte, Benito Juarez, C.P. 03020 Mexico, D.F.
            Tels. 667 45 42/ 687 45  82             Fax. 669 25 12
********************************************************************************
ARCHIVO ESTANDAR DE ACELERACION:
VERSION DEL FORMATO                    : 2.0
NOMBRE DEL ARCHIVO                     : BA499602.251
FECHA Y HORA DE CREACION               : 27/MAR/98, 3:55
REF. CATALOGO ACELEROGRAMAS, SMIS 1996 : REGISTRO No.     /PAG.


================================================================================
DATOS DE LA ESTACION:
NOMBRE DE LA ESTACION                  : BUENOS AIRES
CLAVE DE LA ESTACION                   : BA49
LOCALIZACION DE LA ESTACION            : ESCUELA SECUNDARIA 102, DOCTOR MARQUEZ
                                       : Y EJE CENTRAL, BUENOS AIRES.
                                       :
                                       :
                                       :
COORDENADAS DE LA ESTACION             : 19.410 LAT. N 
                                       : 99.145 LONG. W 
ALTITUD (msnm)                         : 2233
TIPO DE SUELO                          : TERRENO BLANDO, MATERIAL COMPRESIBLE
                                       : (ARCILLAS)
                                       : 
INSTITUCION RESPONSABLE                : CIRES 
                                       :

================================================================================
DATOS DEL ACELEROGRAFO:
MODELO DEL ACELEROGRAFO                : SSA-1
NUMERO DE SERIE DEL ACELEROGRAFO       : 176
NUMERO DE CANALES                      : 3
ORIENTACION C1-C6 (rumbo;orientacion)  : /N00E/+V/N90E
ORIENTACION C7-C12 (rumbo;orientacion) :
VEL. DE MUESTREO, C1-C6 (muestras/s)   : /200/200/200
VEL. DE MUESTREO, C7-C12 (muestras/s)  :
ESC. COMPLETA DE SENSORES, C1-C6, (g)  : /2/2/2
ESC. COMPLETA DE SENSORES, C7-C12, (g) :
FREC. NAT. DE SENSORES, C1-C6, (Hz)    : /52.99/52.03/52.99
FREC. NAT. DE SENSORES, C7-C12, (Hz)   :
AMORTIGUAMIENTO DE SENSORES, C1-C6     : /0.5589/0.5469/0.6096
AMORTIGUAMIENTO DE SENSORES, C7-C12    :
INTERVALO DE MUESTREO, C1-C6, (s)      : /0.005/0.005/0.005
INTERVALO DE MUESTREO, C7-C12, (s)     : 
UMBRAL DE DISPARO, C1-C6, (Gal)        : /2/2/2
UMBRAL DE DISPARO, C7-C12, (Gal)       :
MEMORIA DE PREEVENTO (s)               : 15
TIEMPO DE POSEVENTO (s)                : 60


================================================================================
DATOS DEL SISMO:
FECHA DEL SISMO (GMT)                  : 25/FEB/96
HORA EPICENTRO (GMT)                   : 03:08:13:8
MAGNITUD(ES)                           : /Ms=6.9
COORDENADAS DEL EPICENTRO              : 15.83 LAT. N
                                       : 98.25 LONG. W
PROFUNDIDAD FOCAL (km)                 : 3.0
FUENTE DE LOS DATOS EPICENTRALES       : SSN
                                       : INSTITUTO DE GEOFISICA, UNAM

================================================================================
DATOS DE ESTE REGISTRO:
HORA DE LA PRIMERA MUESTRA (GMT)       : 03:10:19.00
EXACTITUD DEL TIEMPO (s)               :     
DURACION DEL REGISTRO (s), C1-C6       : /198.40/198.40/198.40
DURACION DEL REGISTRO (s), C7-C12      :
NUM. TOTAL DE MUESTRAS, C1-C6          : /39680/39680/39680
NUM. TOTAL DE MUESTRAS, C7-C12         :
ACEL. MAX. (Gal), C1-C6                : /5.31187/1.55983/7.59676
ACEL. MAX., C1-C6, EN LA MUESTRA       :
ACEL. MAX. (Gal), C7-C12               :
ACEL. MAX., C7-C12, EN LA MUESTRA      :
UNIDADES DE LOS DATOS                  : Gal (cm/s/s)
FACTOR DE DECIMACION                   : 1
FORMATO DATOS (FORTRAN,10 campos/dato) : 3F10.5


================================================================================
CALIDAD DEL ACELEROGRAMA:
REGISTRO DIGITAL COMPLETO, CARECE DE TIEMPO ABSOLUTO.


================================================================================
COMENTARIOS:














================================================================================
DATOS DE ACELERACION:
---------+---------+---------+---------+---------+---------+---------+---------+
   CANAL-1   CANAL-2   CANAL-3   CANAL-4   CANAL-5   CANAL-6   CANAL-7   CANAL-8
      N00E        +V      N90E
---------+---------+---------+---------+---------+---------+---------+---------+
[...]
  -4.50813   0.60017   1.50324
  -4.50813   0.60017   1.74324
  -4.50813   0.60017   1.74324
  -4.50813   0.60017   1.98324
  -4.50813   0.60017   1.98324
  -4.74813   0.36017   1.98324
  -4.50813   0.36017   2.22324
  -4.50813   0.36017   2.22324
  -4.50813   0.36017   2.22324
  -4.50813   0.36017   2.22324
  -4.50813   0.36017   2.46324
  -4.50813   0.36017   2.70324
  -4.50813   0.36017   2.70324
  -4.50813   0.36017   2.70324
  -4.50813   0.36017   2.94324
  -4.50813   0.36017   2.94324
  -4.50813   0.36017   2.94324
  -4.26813   0.36017   3.18324
  -4.26813   0.36017   3.18324
  -4.26813   0.36017   3.18324
  -4.26813   0.36017   3.42324
  -4.26813   0.36017   3.65324
  -4.26813   0.12017   3.65324
  -4.26813   0.12017   3.65324
  -4.26813   0.12017   3.89324
  -4.26813   0.12017   3.89324
  -4.26813   0.12017   3.89324
  -4.26813   0.12017   4.13324
  -4.26813   0.12017   4.13324
  -4.02813   0.12017   4.13324
  -4.02813   0.12017   4.37324
  -4.02813   0.12017   4.37324
  -4.02813   0.12017   4.61324
  -4.02813   0.12017   4.61324
  -3.78813   0.12017   4.85324
  -3.78813   0.12017   4.85324
  -3.78813   0.12017   4.85324
  -3.78813   0.12017   5.09324
  -3.78813   0.12017   4.85324
  -3.78813   0.12017   5.09324
  -3.78813   0.12017   5.09324
  -3.78813   0.12017   5.33324
  -3.54813   0.12017   5.33324
  -3.54813   0.12017   5.33324
  -3.54813   0.12017   5.57324
  -3.54813   0.12017   5.57324
  -3.54813   0.12017   5.57324
  -3.54813   0.12017   5.57324
  -3.54813   0.12017   5.81324
  -3.54813   0.12017   5.81324
  -3.54813   0.12017   6.05324
  -3.31813   0.12017   6.05324
  -3.31813   0.12017   6.05324
  -3.31813   0.12017   6.05324
  -3.31813   0.12017   6.05324
  -3.31813   0.12017   6.29324
  -3.31813   0.12017   6.05324
  -3.31813  -0.11983   6.29324
  -3.07813  -0.11983   6.29324
  -3.07813   0.12017   6.29324
  -3.07813   0.12017   6.29324
  -3.07813   0.12017   6.53324
  -3.07813  -0.11983   6.29324
  -3.07813  -0.11983   6.53324
  -3.07813   0.12017   6.53324
  -2.83813   0.12017   6.53324
  -2.83813   0.12017   6.53324
  -3.07813  -0.11983   6.53324
  -2.83813   0.12017   6.53324
  -2.83813  -0.11983   6.53324
  -2.83813  -0.11983   6.53324
  -2.83813  -0.11983   6.53324
  -2.83813  -0.11983   6.53324
  -2.59813  -0.11983   6.53324
  -2.59813   0.12017   6.77324
  -2.59813   0.12017   6.77324
  -2.59813  -0.11983   6.77324
  -2.59813  -0.11983   6.77324
  -2.35813   0.12017   6.77324
  -2.35813  -0.11983   6.77324
  -2.35813  -0.11983   6.77324
  -2.35813  -0.11983   6.77324
  -2.35813  -0.11983   6.77324
  -2.35813  -0.11983   6.77324
  -2.11813  -0.11983   6.77324
  -2.11813  -0.11983   6.53324
  -2.11813  -0.11983   6.77324
  -2.11813  -0.11983   6.77324
  -2.11813  -0.11983   6.77324
  -1.87813  -0.11983   6.77324
  -1.87813  -0.11983   6.53324
  -1.87813  -0.11983   6.77324
  -1.87813  -0.11983   6.53324
  -1.63813  -0.11983   6.53324
  -1.63813  -0.11983   6.77324
  -1.63813  -0.11983   6.53324
  -1.63813  -0.11983   6.53324
  -1.63813  -0.11983   6.53324
  -1.63813  -0.11983   6.53324
  -1.39813  -0.11983   6.53324
  -1.39813  -0.11983   6.53324
  -1.39813  -0.11983   6.53324
  -1.15813  -0.11983   6.53324
  -1.15813  -0.11983   6.53324
  -1.15813  -0.11983   6.53324
  -1.15813  -0.11983   6.53324
  -0.91813  -0.11983   6.53324
  -0.91813  -0.11983   6.53324
  -0.91813  -0.11983   6.53324
  -0.91813  -0.35983   6.53324
  -0.67813  -0.35983   6.29324
  -0.67813  -0.35983   6.29324
  -0.67813  -0.35983   6.29324
  -0.67813  -0.35983   6.29324
  -0.67813  -0.35983   6.29324
  -0.43813  -0.35983   6.29324
  -0.43813  -0.35983   6.29324
  -0.19813  -0.35983   6.29324
  -0.19813  -0.35983   6.29324
  -0.19813  -0.35983   6.29324
   0.04187  -0.35983   6.29324
   0.04187  -0.35983   6.29324
   0.04187  -0.35983   6.29324
   0.28187  -0.59983   6.29324
   0.28187  -0.35983   6.29324
   0.28187  -0.35983   6.29324
   0.52187  -0.59983   6.29324
   0.52187  -0.59983   6.29324
   0.52187  -0.35983   6.29324
   0.76187  -0.59983   6.29324
   0.76187  -0.59983   6.53324
   0.76187  -0.59983   6.29324
   1.00187  -0.59983   6.53324
   1.00187  -0.59983   6.29324
   1.24187  -0.59983   6.29324
   1.24187  -0.59983   6.29324
   1.24187  -0.59983   6.29324
   1.48187  -0.83983   6.29324
   1.48187  -0.83983   6.29324
   1.48187  -0.83983   6.29324
   1.71187  -0.83983   6.29324
   1.71187  -0.83983   6.29324
   1.71187  -0.83983   6.29324
   1.95187  -0.83983   6.29324
   1.95187  -0.83983   6.29324
   1.95187  -0.83983   6.29324
   2.19187  -0.83983   6.29324
   2.19187  -0.83983   6.29324
   2.43187  -0.83983   6.29324
   2.43187  -0.83983   6.29324
   2.43187  -0.83983   6.29324
   2.43187  -0.83983   6.29324
   2.67187  -0.83983   6.29324
   2.67187  -0.83983   6.29324
   2.67187  -0.83983   6.29324
   2.91187  -0.83983   6.29324
   2.91187  -0.83983   6.05324
   2.91187  -0.83983   6.05324
   3.15187  -0.83983   6.05324
   3.15187  -0.83983   6.05324
   3.15187  -0.83983   6.05324
   3.15187  -0.83983   6.05324
   3.15187  -0.83983   6.05324
   3.15187  -0.83983   6.05324
   3.39187  -0.83983   6.05324
   3.39187  -0.83983   6.05324
   3.39187  -0.83983   6.05324
   3.39187  -0.83983   6.05324
   3.39187  -0.83983   5.81324
   3.63187  -0.83983   5.81324
   3.63187  -0.83983   5.81324
   3.63187  -0.83983   5.81324
   3.63187  -0.83983   5.81324
   3.87187  -0.83983   5.57324
   3.87187  -0.83983   5.57324
   3.87187  -0.83983   5.57324
   3.87187  -0.83983   5.57324
   3.87187  -0.83983   5.57324
   3.87187  -0.83983   5.33324
   3.87187  -0.83983   5.33324
   4.11187  -0.83983   5.33324
   4.11187  -0.83983   5.33324
   4.11187  -0.83983   5.33324
   4.11187  -0.83983   5.09324
   4.11187  -0.83983   5.09324
   4.11187  -0.83983   5.09324
   4.11187  -1.07983   4.85324
   4.11187  -1.07983   4.85324
   4.11187  -1.07983   4.85324
   4.35187  -1.07983   4.85324
   4.35187  -1.07983   4.85324
   4.35187  -1.07983   4.61324
   4.35187  -0.83983   4.61324
   4.35187  -0.83983   4.61324
   4.35187  -0.83983   4.61324
   4.35187  -0.83983   4.37324
   4.35187  -0.83983   4.37324
   4.35187  -1.07983   4.37324
   4.35187  -0.83983   4.13324
   4.35187  -0.83983   4.13324
   4.35187  -1.07983   4.13324
   4.59187  -0.83983   4.13324
   4.59187  -0.83983   3.89324
   4.35187  -1.07983   3.89324
   4.35187  -0.83983   3.89324
   4.59187  -0.83983   3.65324
   4.59187  -0.83983   3.65324
   4.59187  -0.83983   3.65324
   4.59187  -0.83983   3.42324
   4.59187  -0.83983   3.42324
   4.59187  -0.83983   3.42324
   4.59187  -0.83983   3.42324
   4.59187  -0.83983   3.18324
   4.59187  -0.83983   3.18324
   4.59187  -0.83983   2.94324
   4.59187  -0.83983   2.94324
   4.59187  -0.83983   2.94324
   4.59187  -0.83983   2.94324
   4.59187  -0.83983   2.70324
   4.59187  -0.83983   2.70324
   4.59187  -0.83983   2.70324
   4.59187  -0.83983   2.46324
   4.59187  -0.83983   2.46324
   4.59187  -0.83983   2.46324
   4.59187  -0.83983   2.46324
   4.59187  -0.83983   2.22324
   4.59187  -0.83983   2.22324
   4.59187  -0.83983   1.98324
   4.59187  -0.83983   2.22324
   4.59187  -0.83983   1.74324
   4.59187  -0.83983   1.98324
   4.59187  -0.83983   1.74324
   4.59187  -0.83983   1.74324
   4.59187  -0.83983   1.74324
   4.59187  -0.83983   1.74324
   4.59187  -0.59983   1.74324
   4.59187  -0.59983   1.50324
   4.59187  -0.59983   1.50324
   4.35187  -0.59983   1.26324
   4.59187  -0.59983   1.26324
   4.59187  -0.59983   1.26324
   4.59187  -0.59983   1.26324
   4.59187  -0.59983   1.02324
   4.59187  -0.59983   1.02324
   4.35187  -0.59983   1.02324
   4.35187  -0.59983   0.78324
   4.35187  -0.59983   0.78324
   4.35187  -0.59983   0.78324
   4.35187  -0.35983   0.78324
   4.35187  -0.59983   0.78324
   4.35187  -0.35983   0.54324
   4.35187  -0.35983   0.54324
   4.35187  -0.35983   0.54324
   4.35187  -0.35983   0.30324
   4.35187  -0.35983   0.30324
   4.35187  -0.35983   0.30324
   4.35187  -0.35983   0.30324
   4.11187  -0.35983   0.06324
   4.11187  -0.35983   0.06324
   4.11187  -0.35983   0.06324
   4.11187  -0.35983  -0.17676
   4.11187  -0.11983  -0.17676
   4.11187  -0.11983  -0.17676
   4.11187  -0.11983  -0.41676
   4.11187  -0.11983  -0.41676
   4.11187  -0.11983  -0.65676
   4.11187  -0.11983  -0.65676
   4.11187  -0.11983  -0.65676
   4.11187  -0.11983  -0.65676
   3.87187  -0.11983  -0.89676
   3.87187  -0.11983  -0.89676
   3.87187   0.12017  -0.89676
   3.87187   0.12017  -1.13676
   3.87187   0.12017  -1.13676
   3.87187   0.12017  -1.36676
   3.87187   0.12017  -1.36676
   3.87187   0.36017  -1.36676
   3.87187   0.12017  -1.60676
   3.63187   0.36017  -1.60676
   3.63187   0.12017  -1.84676
   3.63187   0.36017  -1.84676
   3.63187   0.36017  -2.08676
   3.63187   0.36017  -2.08676
   3.63187   0.36017  -2.08676
   3.63187   0.36017  -2.32676
   3.39187   0.36017  -2.32676
   3.39187   0.60017  -2.56676
   3.39187   0.60017  -2.56676
   3.39187   0.60017  -2.56676
   3.15187   0.60017  -2.80676
   3.15187   0.60017  -2.80676
   3.15187   0.60017  -3.04676
   3.15187   0.60017  -3.04676
   3.15187   0.60017  -3.04676
   2.91187   0.60017  -3.28676
   2.91187   0.60017  -3.28676
   2.91187   0.60017  -3.52676
   2.91187   0.60017  -3.52676
   2.67187   0.60017  -3.76676
   2.67187   0.84017  -3.76676
   2.67187   0.84017  -4.00676
   2.43187   0.84017  -4.00676
   2.43187   0.84017  -4.00676
   2.43187   0.84017  -4.24676
   2.19187   0.84017  -4.24676
   2.19187   1.08017  -4.48676
   2.19187   1.08017  -4.48676
   2.19187   1.08017  -4.72676
   1.95187   1.08017  -4.72676
   1.95187   1.08017  -4.72676
   1.95187   1.08017  -4.96676
   1.71187   1.08017  -4.96676
   1.71187   1.08017  -5.20676
   1.71187   1.08017  -5.20676
   1.48187   1.08017  -5.20676
   1.48187   1.08017  -5.44676
   1.48187   1.08017  -5.44676
   1.24187   1.08017  -5.68676
   1.24187   1.08017  -5.68676
   1.24187   1.08017  -5.92676
   1.00187   1.08017  -5.92676
   1.00187   1.08017  -5.92676
   1.00187   1.08017  -5.92676
   1.00187   1.08017  -6.16676
   0.76187   1.08017  -6.16676
   0.76187   1.08017  -6.16676
   0.76187   1.08017  -6.39676
   0.52187   1.08017  -6.39676
   0.28187   1.08017  -6.63676
   0.28187   1.08017  -6.63676
   0.28187   1.08017  -6.63676
   0.28187   1.08017  -6.63676
   0.28187   1.08017  -6.63676
   0.28187   1.08017  -6.87676
   0.04187   1.08017  -6.87676
   0.04187   1.08017  -6.87676
   0.04187   1.08017  -7.11676
   0.04187   1.08017  -7.11676
  -0.19813   1.08017  -7.11676
  -0.19813   1.08017  -7.11676
  -0.19813   1.08017  -7.35676
  -0.19813   1.08017  -7.11676
  -0.19813   1.08017  -7.35676
  -0.19813   1.08017  -7.35676
  -0.19813   0.84017  -7.35676
  -0.43813   0.84017  -7.35676
  -0.43813   0.84017  -7.35676
  -0.43813   0.84017  -7.35676
  -0.43813   0.84017  -7.35676
  -0.43813   0.84017  -7.59676
  -0.43813   0.84017  -7.59676
  -0.43813   0.84017  -7.35676
  -0.67813   0.84017  -7.59676
  -0.43813   0.84017  -7.59676
  -0.67813   0.84017  -7.35676
  -0.67813   0.84017  -7.59676
  -0.67813   0.84017  -7.59676
  -0.67813   0.84017  -7.59676
  -0.67813   0.84017  -7.59676
  -0.67813   0.84017  -7.59676
  -0.43813   0.60017  -7.59676
  -0.43813   0.84017  -7.59676
  -0.43813   0.84017  -7.59676
  -0.43813   0.60017  -7.59676
  -0.43813   0.60017  -7.59676
  -0.67813   0.84017  -7.59676
  -0.43813   0.60017  -7.59676
  -0.43813   0.60017  -7.59676
  -0.43813   0.84017  -7.59676
  -0.43813   0.60017  -7.59676
  -0.43813   0.60017  -7.59676
  -0.43813   0.60017  -7.59676
  -0.43813   0.60017  -7.59676
  -0.43813   0.60017  -7.59676
  -0.43813   0.60017  -7.59676
  -0.43813   0.60017  -7.59676
  -0.43813   0.60017  -7.35676
  -0.43813   0.60017  -7.35676
  -0.43813   0.60017  -7.59676
  -0.43813   0.60017  -7.35676
  -0.43813   0.60017  -7.35676
  -0.43813   0.60017  -7.35676
  -0.43813   0.60017  -7.35676
  -0.43813   0.60017  -7.35676
  -0.43813   0.60017  -7.35676
  -0.43813   0.60017  -7.35676
  -0.43813   0.60017  -7.35676
  -0.43813   0.60017  -7.35676
  -0.43813   0.60017  -7.35676
  -0.43813   0.60017  -7.35676
  -0.43813   0.36017  -7.35676
  -0.43813   0.36017  -7.35676
  -0.43813   0.36017  -7.35676
  -0.43813   0.60017  -7.11676
  -0.43813   0.36017  -7.11676
  -0.43813   0.36017  -7.11676
  -0.43813   0.36017  -7.11676
  -0.43813   0.36017  -7.11676
  -0.43813   0.36017  -7.11676
  -0.43813   0.36017  -7.11676
  -0.43813   0.36017  -7.11676
  -0.43813   0.36017  -7.11676
  -0.43813   0.36017  -7.11676
  -0.43813   0.36017  -7.11676
  -0.43813   0.36017  -7.11676
  -0.43813   0.36017  -7.11676
  -0.43813   0.36017  -7.11676
  -0.43813   0.36017  -6.87676
  -0.43813   0.36017  -7.11676
  -0.43813   0.12017  -7.11676
  -0.67813   0.36017  -6.87676
  -0.43813   0.36017  -6.87676
  -0.67813   0.12017  -6.87676
  -0.67813   0.36017  -6.87676
  -0.67813   0.12017  -6.87676
  -0.67813   0.12017  -6.87676
  -0.67813   0.36017  -6.87676
  -0.67813   0.36017  -6.87676
  -0.67813   0.12017  -6.87676
  -0.67813   0.12017  -7.11676
  -0.67813   0.36017  -6.87676
  -0.91813   0.12017  -6.87676
  -0.91813   0.36017  -6.87676
  -0.91813   0.12017  -6.87676
  -0.91813   0.36017  -6.87676
  -0.91813   0.36017  -6.87676
  -0.91813   0.12017  -6.87676
  -0.91813   0.36017  -6.87676
  -1.15813   0.36017  -6.87676
  -1.15813   0.36017  -6.87676
  -1.15813   0.36017  -6.63676
  -1.15813   0.36017  -6.87676
  -1.15813   0.36017  -6.63676
  -1.15813   0.36017  -6.63676
  -1.15813   0.36017  -6.63676
  -1.15813   0.12017  -6.63676
  -1.39813   0.36017  -6.39676
  -1.39813   0.36017  -6.63676
  -1.39813   0.36017  -6.39676
  -1.39813   0.36017  -6.63676
  -1.39813   0.36017  -6.39676
  -1.39813   0.36017  -6.39676
  -1.63813   0.36017  -6.39676
  -1.63813   0.36017  -6.16676
  -1.63813   0.36017  -6.39676
  -1.63813   0.36017  -6.16676
  -1.63813   0.36017  -6.16676
  -1.63813   0.36017  -6.16676
  -1.87813   0.36017  -6.16676
  -1.87813   0.36017  -5.92676
  -1.87813   0.36017  -5.92676
  -1.87813   0.36017  -5.92676
  -1.87813   0.36017  -5.92676
  -1.87813   0.36017  -5.68676
  -1.87813   0.36017  -5.68676
  -2.11813   0.36017  -5.68676
  -2.11813   0.36017  -5.44676
  -2.11813   0.36017  -5.44676
  -2.11813   0.36017  -5.44676
  -2.11813   0.36017  -5.44676
  -2.11813   0.36017  -5.44676
  -2.35813   0.36017  -5.20676
  -2.35813   0.36017  -5.20676
  -2.35813   0.36017  -4.96676
  -2.35813   0.36017  -4.96676
  -2.59813   0.36017  -4.96676
  -2.59813   0.36017  -4.72676
  -2.59813   0.36017  -4.72676
  -2.59813   0.36017  -4.72676
  -2.59813   0.36017  -4.48676
  -2.59813   0.36017  -4.48676
  -2.83813   0.36017  -4.48676
  -2.83813   0.36017  -4.24676
  -2.83813   0.36017  -4.24676
  -2.83813   0.36017  -4.24676
  -2.83813   0.36017  -4.00676
  -3.07813   0.36017  -3.76676
  -3.07813   0.36017  -3.76676
  -3.07813   0.36017  -3.52676
  -3.07813   0.36017  -3.76676
  -3.07813   0.36017  -3.52676
  -3.07813   0.36017  -3.52676
  -3.31813   0.36017  -3.28676
  -3.31813   0.36017  -3.28676
  -3.31813   0.36017  -3.04676
  -3.31813   0.36017  -3.04676
  -3.31813   0.36017  -3.04676
  -3.31813   0.36017  -2.80676
  -3.31813   0.36017  -2.80676
  -3.31813   0.36017  -2.56676
  -3.54813   0.36017  -2.56676
  -3.31813   0.36017  -2.56676
  -3.31813   0.36017  -2.32676
  -3.54813   0.36017  -2.32676
  -3.54813   0.36017  -2.08676
  -3.54813   0.36017  -2.08676
  -3.54813   0.36017  -2.08676
  -3.54813   0.36017  -1.84676
  -3.31813   0.36017  -1.84676
