********************************************************************************
              CENTRO DE INSTRUMENTACION Y REGISTRO SISMICO  A.C.

    Anaxagoras 814, Col. Narvarte, Benito Juarez, C.P. 03020 Mexico, D.F.
           Tels. 5687 45 42/ 5687 45  82             Fax. 5669 25 12
********************************************************************************
ARCHIVO ESTANDAR DE ACELERACION:
VERSION DEL FORMATO                    : 2.0
NOMBRE DEL ARCHIVO                     : BA4920130816153259
FECHA Y HORA DE CREACION               : 10/SEP/13, 12:27
REF. CATALOGO ACELEROGRAMAS, SMIS 1996 : REGISTRO No.     /PAG.


================================================================================
DATOS DE LA ESTACION:
NOMBRE DE LA ESTACION                  : BUENOS AIRES
CLAVE DE LA ESTACION                   : BA49
LOCALIZACION DE LA ESTACION            : Del. Cuauhtémoc, Col. Doctores,        
                                       : Av. Lázaro Cárdenas esq. con           
                                       : Calle Dr. Márquez.                     
                                       :                                        
                                       : 
COORDENADAS DE LA ESTACION             : 19.4097 LAT. N
                                       : 99.1450 LONG. W
ALTITUD (msnm)                         : 2233
TIPO DE SUELO                          : Terreno blando, material compresible
                                       : (arcillas)                
                                       : 
INSTITUCION RESPONSABLE                : CIRES
                                       : 

================================================================================
DATOS DEL ACELEROGRAFO:
MODELO DEL ACELEROGRAFO                : RADESD
NUMERO DE SERIE DEL ACELEROGRAFO       : 176
NUMERO DE CANALES                      : 3
ORIENTACION C1-C6 (rumbo;orientacion)  : /N00E/+V/N90W
ORIENTACION C7-C12 (rumbo;orientacion) : 
VEL. DE MUESTREO, C1-C6 (muestras/s)   : /100/100/100
VEL. DE MUESTREO, C7-C12 (muestras/s)  : 
ESC. COMPLETA DE SENSORES, C1-C6, (g)  : /0.5/0.5/0.5
ESC. COMPLETA DE SENSORES, C7-C12, (g) : 
FREC. NAT. DE SENSORES, C1-C6, (Hz)    : /52.99/52.03/52.99
FREC. NAT. DE SENSORES, C7-C12, (Hz)   : 
AMORTIGUAMIENTO DE SENSORES, C1-C6     : /0.5589/0.5469/0.6096
AMORTIGUAMIENTO DE SENSORES, C7-C12    : 
INTERVALO DE MUESTREO, C1-C6, (s)      : /0.01/0.01/0.01
INTERVALO DE MUESTREO, C7-C12, (s)     : 
UMBRAL DE DISPARO, C1-C6, (Gal)        : /15.32/30.65/15.32
UMBRAL DE DISPARO, C7-C12, (Gal)       : 
MEMORIA DE PREEVENTO (s)               : 56.0
TIEMPO DE POSEVENTO (s)                : 80.0


================================================================================
DATOS DEL SISMO:
FECHA DEL SISMO (GMT)                  : 16/AGO/13
HORA EPICENTRO (GMT)                   : 15:32:59.0
MAGNITUD(ES)                           : /Mc=5.1
COORDENADAS DEL EPICENTRO              : 16.54 LAT. N
                                       : 98.59 LONG. W
PROFUNDIDAD FOCAL (km)                 : 20
FUENTE DE LOS DATOS EPICENTRALES       : SSN
                                       : INSTITUTO DE GEOFISICA, UNAM

================================================================================
DATOS DE ESTE REGISTRO:
HORA DE LA PRIMERA MUESTRA (GMT)       : 15:34:35.00
EXACTITUD DEL TIEMPO (s)               : 0.01
DURACION DEL REGISTRO (s), C1-C6       : /184.8/184.8/184.8
DURACION DEL REGISTRO (s), C7-C12      : 
NUM. TOTAL DE MUESTRAS, C1-C6          : /18480/18480/18480
NUM. TOTAL DE MUESTRAS, C7-C12         : 
ACEL. MAX. (Gal), C1-C6                : /1.987/1.13973/2.95465
ACEL. MAX., C1-C6, EN LA MUESTRA       : /5205/4543/4632
ACEL. MAX. (Gal), C7-C12               : 
ACEL. MAX., C7-C12, EN LA MUESTRA      : 
UNIDADES DE LOS DATOS                  : Gal (cm/s/s)
FACTOR DE DECIMACION                   : 1
FORMATO DATOS (FORTRAN,10 campos/dato) : 3F10.5


================================================================================
CALIDAD DEL ACELEROGRAMA:
REGISTRO DIGITAL COMPLETO CON TIEMPO ABSOLUTO CORRECTO.


================================================================================
COMENTARIOS:














================================================================================
DATOS DE ACELERACION:
---------+---------+---------+---------+---------+---------+---------+---------+
   CANAL-1   CANAL-2   CANAL-3   CANAL-4   CANAL-5   CANAL-6   CANAL-7   CANAL-8
      N00E        +V      N90W
---------+---------+---------+---------+---------+---------+---------+---------+
[...]
   0.58041   0.22198   1.81879
   0.55048   0.16212   1.90857
   0.41581   0.14716   1.99835
   0.32602   0.10227   2.01332
   0.29610   0.14716   1.98339
   0.23624   0.10227   1.98339
   0.29610  -0.01744   2.01332
   0.35595  -0.09226   2.11806
   0.40084  -0.04737   2.16296
   0.40084   0.07234   2.17792
   0.32602   0.16212   2.14799
   0.34099   0.17708   2.13303
   0.35595   0.07234   2.10310
   0.41581  -0.01744   2.04325
   0.44573  -0.04737   2.05821
   0.34099   0.01248   2.04325
   0.26617  -0.00248   2.05821
   0.26617   0.05737   2.07317
   0.32602   0.02745   2.04325
   0.41581  -0.00248   1.96843
   0.52055  -0.13715   1.89361
   0.52055  -0.21197   1.87864
   0.52055  -0.21197   1.81879
   0.49063  -0.12219   1.86368
   0.46070  -0.07730   1.86368
   0.46070  -0.06234   1.77390
   0.53552  -0.09226   1.65419
   0.62530  -0.04737   1.56441
   0.68515  -0.07730   1.50455
   0.70012  -0.10723   1.45966
   0.71508  -0.15212   1.47462
   0.73005  -0.12219   1.41477
   0.71508  -0.06234   1.35491
   0.74501  -0.04737   1.28009
   0.75997  -0.13715   1.25017
   0.77494  -0.24190   1.23520
   0.81983  -0.25686   1.19031
   0.80486  -0.18205   1.08556
   0.80486  -0.10723   1.01075
   0.74501  -0.09226   0.95089
   0.74501  -0.04737   0.84614
   0.74501  -0.01744   0.83118
   0.75997  -0.03241   0.75636
   0.80486  -0.07730   0.69651
   0.80486  -0.16708   0.63665
   0.78990  -0.12219   0.57680
   0.75997  -0.04737   0.56183
   0.67019   0.05737   0.57680
   0.62530   0.08730   0.57680
   0.59537   0.02745   0.51694
   0.68515  -0.04737   0.36730
   0.75997  -0.09226   0.14285
   0.84976  -0.07730  -0.02175
   0.80486  -0.07730   0.05307
   0.68515  -0.09226   0.23263
   0.53552  -0.07730   0.29249
   0.53552  -0.03241   0.15781
   0.65523  -0.00248  -0.08161
   0.71508  -0.03241  -0.21628
   0.80486  -0.10723  -0.17139
   0.80486  -0.25686  -0.20132
   0.75997  -0.36161  -0.09657
   0.65523  -0.25686  -0.05168
   0.55048  -0.13715  -0.05168
   0.52055  -0.16708  -0.17139
   0.55048  -0.22694  -0.38088
   0.64026  -0.27183  -0.42577
   0.73005  -0.18205  -0.42577
   0.70012  -0.16708  -0.35096
   0.61034  -0.18205  -0.23125
   0.41581  -0.18205  -0.21628
   0.35595  -0.13715  -0.29110
   0.28113  -0.13715  -0.38088
   0.29610  -0.24190  -0.42577
   0.25121  -0.21197  -0.41081
   0.20631  -0.19701  -0.42577
   0.17639  -0.07730  -0.48563
   0.14646  -0.04737  -0.51556
   0.08660  -0.09226  -0.50059
  -0.07800  -0.12219  -0.41081
  -0.18274  -0.10723  -0.44074
  -0.25756  -0.18205  -0.48563
  -0.27253  -0.16708  -0.60534
  -0.19771  -0.01744  -0.68016
  -0.16778   0.10227  -0.72505
  -0.19771   0.22198  -0.69512
  -0.34734   0.25190  -0.57541
  -0.58676   0.14716  -0.41081
  -0.73640   0.02745  -0.38088
  -0.72144  -0.06234  -0.63527
  -0.51195   0.05737  -0.94951
  -0.27253   0.25190  -1.06922
  -0.24260   0.22198  -0.91958
  -0.42216   0.08730  -0.65023
  -0.72144  -0.00248  -0.45570
  -0.97582   0.08730  -0.54548
  -0.88604   0.19205  -0.84476
  -0.60173   0.20701  -1.06922
  -0.39224   0.08730  -1.03929
  -0.49698   0.05737  -0.78491
  -0.73640   0.05737  -0.63527
  -0.90100   0.10227  -0.72505
  -0.94590   0.22198  -0.85972
  -0.97582   0.19205  -0.90462
  -0.97582   0.08730  -0.91958
  -0.97582   0.01248  -0.90462
  -0.93093   0.04241  -0.93454
  -0.84115   0.17708  -0.99440
  -0.87108   0.26687  -1.06922
  -0.97582   0.29680  -1.12907
  -1.11050   0.29680  -1.12907
  -1.24517   0.28183  -1.02433
  -1.40977   0.28183  -0.99440
  -1.42474   0.20701  -1.05425
  -1.26013   0.22198  -1.24878
  -1.03568   0.23694  -1.42835
  -0.97582   0.29680  -1.53309
  -1.02071   0.28183  -1.45827
  -1.20028   0.19205  -1.39842
  -1.39481   0.14716  -1.27871
  -1.49955   0.02745  -1.30864
  -1.39481   0.04241  -1.53309
  -1.15539   0.04241  -1.77251
  -0.94590   0.10227  -1.84733
  -0.94590   0.13219  -1.71266
  -1.12546   0.20701  -1.54806
  -1.23021   0.13219  -1.56302
  -1.18532  -0.03241  -1.74259
  -1.11050  -0.13715  -1.90719
  -1.05064  -0.07730  -1.98201
  -1.05064   0.08730  -1.87726
  -0.99079   0.19205  -1.78748
  -1.05064   0.25190  -1.72762
  -1.08057   0.10227  -1.81740
  -1.05064   0.04241  -1.90719
  -0.85611  -0.09226  -1.99697
  -0.66158  -0.16708  -2.04186
  -0.52691  -0.16708  -1.98201
  -0.69151  -0.00248  -1.84733
  -0.97582   0.22198  -1.68273
  -1.33495   0.32672  -1.60791
  -1.42474   0.28183  -1.66777
  -1.05064   0.10227  -1.83237
  -0.46705  -0.19701  -1.86230
  -0.12289  -0.37657  -1.87726
  -0.12289  -0.30176  -1.78748
  -0.42216  -0.18205  -1.71266
  -0.75137   0.07234  -1.60791
  -0.99079   0.38658  -1.53309
  -1.12546   0.50629  -1.48820
  -0.97582   0.35665  -1.53309
  -0.60173  -0.00248  -1.63784
  -0.12289  -0.31672  -1.66777
   0.08660  -0.54118  -1.57798
  -0.12289  -0.46636  -1.36849
  -0.49698  -0.13715  -1.30864
  -0.69151   0.20701  -1.33856
  -0.70647   0.22198  -1.36849
  -0.66158  -0.03241  -1.21885
  -0.51195  -0.21197  -1.17396
  -0.34734  -0.30176  -1.15900
  -0.21267  -0.30176  -1.18893
  -0.10792  -0.13715  -1.20389
  -0.12289  -0.01744  -1.18893
  -0.12289   0.01248  -1.06922
  -0.21267  -0.10723  -1.00936
  -0.33238  -0.18205  -0.93454
  -0.48202  -0.19701  -0.82980
  -0.49698  -0.19701  -0.74001
  -0.48202  -0.30176  -0.75498
  -0.27253  -0.39154  -0.75498
   0.07164  -0.34665  -0.84476
   0.43077  -0.30176  -0.81483
   0.49063  -0.36161  -0.71009
   0.13150  -0.52621  -0.59038
  -0.25756  -0.52621  -0.54548
  -0.40720  -0.40650  -0.48563
  -0.27253  -0.21197  -0.44074
  -0.06303  -0.09226  -0.29110
   0.08660  -0.09226  -0.15643
   0.28113  -0.27183  -0.17139
   0.56544  -0.52621  -0.20132
   0.70012  -0.72074  -0.15643
   0.55048  -0.70578  -0.03672
   0.28113  -0.46636   0.06803
   0.14646  -0.12219   0.14285
   0.28113   0.10227   0.27752
   0.38588   0.16212   0.47205
   0.34099  -0.00248   0.65162
   0.29610  -0.24190   0.68154
   0.38588  -0.34665   0.60672
   0.58041  -0.09226   0.65162
   0.75997   0.19205   0.78629
   0.71508   0.28183   0.98082
   0.52055   0.08730   1.05564
   0.26617   0.04241   1.08556
   0.13150   0.17708   1.16038
   0.25121   0.38658   1.31002
   0.50559   0.53622   1.39980
   0.67019   0.55118   1.39980
   0.58041   0.65593   1.45966
   0.34099   0.71578   1.53448
   0.23624   0.71578   1.53448
   0.32602   0.65593   1.54944
   0.44573   0.58111   1.65419
   0.40084   0.59607   1.74397
   0.35595   0.56614   1.86368
   0.41581   0.61103   1.87864
   0.50559   0.64096   1.86368
   0.47566   0.77564   1.83375
   0.41581   0.92527   1.86368
   0.44573   1.01506   1.81879
   0.55048   0.85045   1.83375
   0.56544   0.59607   1.84872
   0.41581   0.41651   1.96843
   0.25121   0.47636   2.02828
   0.34099   0.62600   2.04325
   0.58041   0.67089   1.99835
   0.73005   0.59607   1.96843
   0.73005   0.50629   1.95346
   0.68515   0.41651   1.98339
   0.59537   0.41651   2.01332
   0.56544   0.44643   1.99835
   0.53552   0.47636   1.98339
   0.55048   0.46140   1.95346
   0.58041   0.34169   1.93850
   0.71508   0.20701   1.90857
   0.90961   0.02745   1.90857
   1.11910  -0.12219   1.90857
   1.10414   0.01248   1.92354
   0.83479   0.22198   1.90857
   0.58041   0.38658   1.81879
   0.59537   0.40154   1.69908
   0.81983   0.23694   1.63922
   1.11910  -0.10723   1.65419
   1.20889  -0.39154   1.75893
   1.14903  -0.54118   1.80383
   0.98443  -0.57110   1.81879
   0.93954  -0.48132   1.78886
   1.01436  -0.22694   1.68412
   1.13407  -0.03241   1.62426
   1.25378   0.08730   1.60930
   1.26874  -0.07730   1.65419
   1.10414  -0.42147   1.66915
   0.93954  -0.60103   1.66915
   0.95450  -0.57110   1.62426
   1.23881  -0.49628   1.56441
   1.58298  -0.37657   1.56441
   1.64284  -0.48132   1.62426
   1.44831  -0.67585   1.63922
   1.08918  -0.84045   1.59433
   0.78990  -0.73570   1.54944
   0.74501  -0.52621   1.41477
   0.84976  -0.28679   1.44470
   1.11910  -0.33168   1.42973
   1.43334  -0.63096   1.44470
   1.59794  -0.99009   1.42973
   1.43334  -1.13973   1.45966
   1.02932  -1.13973   1.45966
   0.70012  -0.94520   1.39980
   0.59537  -0.61599   1.23520
   0.65523  -0.34665   1.10053
   0.86472  -0.30176   1.08556
   0.96947  -0.66089   1.17535
   0.96947  -0.96016   1.17535
   0.95450  -0.97512   1.14542
   0.77494  -0.79556   1.04067
   0.59537  -0.60103   0.92096
   0.41581  -0.39154   0.78629
   0.37092  -0.33168   0.71147
   0.46070  -0.42147   0.75636
   0.44573  -0.64592   0.80125
   0.40084  -0.75067   0.74140
   0.26617  -0.72074   0.60672
   0.26617  -0.55614   0.51694
   0.38588  -0.36161   0.47205
   0.53552  -0.22694   0.48701
   0.53552  -0.13715   0.45709
   0.29610  -0.21197   0.30745
  -0.01814  -0.33168   0.21767
  -0.22763  -0.30176   0.12788
  -0.19771  -0.12219   0.05307
  -0.00318   0.05737   0.03810
   0.13150   0.05737   0.03810
   0.10157  -0.13715   0.08299
   0.01179  -0.31672   0.08299
  -0.07800  -0.39154   0.08299
  -0.09296  -0.30176   0.08299
  -0.13785  -0.06234   0.02314
  -0.24260   0.22198  -0.03672
  -0.48202   0.44643  -0.12650
  -0.64662   0.35665  -0.18635
  -0.66158   0.11723  -0.18635
  -0.46705  -0.04737  -0.08161
  -0.12289  -0.03241   0.00817
   0.02675  -0.03241   0.12788
  -0.13785  -0.10723   0.08299
  -0.57180  -0.10723  -0.00679
  -1.09553   0.11723  -0.26117
  -1.34992   0.52125  -0.38088
  -1.26013   0.89535  -0.36592
  -0.90100   0.88038  -0.17139
  -0.48202   0.55118  -0.02175
  -0.33238   0.07234   0.03810
  -0.54187  -0.24190  -0.08161
  -0.87108  -0.13715  -0.26117
  -1.20028   0.25190  -0.38088
  -1.30503   0.77564  -0.42577
  -1.34992   1.03002  -0.42577
  -1.20028   1.00009  -0.38088
  -1.00575   0.76067  -0.41081
  -0.87108   0.40154  -0.42577
  -0.81122   0.25190  -0.42577
  -0.94590   0.19205  -0.47067
  -1.08057   0.16212  -0.56045
  -1.11050   0.29680  -0.72505
  -1.11050   0.47636  -0.76994
  -1.15539   0.64096  -0.78491
  -1.27510   0.61103  -0.79987
  -1.21524   0.59607  -0.93454
  -1.15539   0.56614  -1.11411
  -0.97582   0.58111  -1.24878
  -0.82619   0.55118  -1.30864
  -0.79626   0.38658  -1.27871
  -0.85611   0.25190  -1.30864
  -1.08057   0.34169  -1.41338
  -1.29006   0.37161  -1.62288
  -1.33495   0.32672  -1.80244
  -1.21524   0.31176  -1.93711
  -0.88604   0.29680  -1.96704
  -0.54187   0.26687  -1.92215
  -0.33238   0.14716  -1.87726
  -0.48202  -0.10723  -1.90719
  -0.85611  -0.16708  -2.04186
  -1.09553  -0.07730  -2.26632
  -1.09553   0.19205  -2.55063
  -0.91597   0.53622  -2.68530
  -0.76633   0.68585  -2.70027
  -0.87108   0.58111  -2.76012
  -0.87108   0.17708  -2.71523
  -0.75137  -0.21197  -2.68530
  -0.55684  -0.37657  -2.61048
  -0.34734  -0.36161  -2.50574
  -0.21267  -0.22694  -2.55063
  -0.31742  -0.24190  -2.67034
  -0.54187  -0.24190  -2.83494
  -0.79626  -0.10723  -2.95465
  -0.96086   0.13219  -2.93969
  -0.97582   0.26687  -2.92472
  -0.78129   0.29680  -2.89480
  -0.46705   0.22198  -2.84990
  -0.24260   0.02745  -2.77509
  -0.15282  -0.31672  -2.68530
  -0.28749  -0.55614  -2.65538
  -0.52691  -0.54118  -2.53567
  -0.66158  -0.27183  -2.47581
  -0.63166   0.01248  -2.47581
  -0.52691   0.20701  -2.58056
  -0.36231   0.28183  -2.55063
  -0.22763   0.19205  -2.47581
  -0.19771  -0.04737  -2.37106
  -0.30245  -0.21197  -2.22143
  -0.43713  -0.15212  -2.17653
  -0.46705  -0.13715  -2.22143
  -0.34734  -0.10723  -2.16157
  -0.22763  -0.04737  -2.11668
  -0.24260   0.02745  -2.02690
  -0.31742   0.04241  -1.93711
  -0.36231   0.04241  -1.83237
  -0.28749  -0.01744  -1.69769
  -0.15282  -0.10723  -1.57798
  -0.03311  -0.24190  -1.53309
  -0.04807  -0.30176  -1.51813
  -0.24260  -0.24190  -1.50317
  -0.43713  -0.07730  -1.47324
  -0.46705   0.04241  -1.44331
  -0.48202   0.07234  -1.33856
  -0.36231  -0.01744  -1.15900
  -0.19771   0.01248  -0.97943
  -0.00318   0.07234  -0.87469
   0.05668   0.04241  -0.81483
   0.02675  -0.15212  -0.79987
  -0.04807  -0.28679  -0.72505
  -0.19771  -0.22694  -0.81483
  -0.33238  -0.10723  -0.84476
  -0.39224   0.05737  -0.74001
  -0.30245   0.17708  -0.59038
  -0.12289   0.26687  -0.36592
   0.02675   0.19205  -0.23125
   0.07164  -0.04737  -0.21628
   0.14646  -0.19701  -0.15643
   0.26617  -0.34665  -0.02175
   0.34099  -0.37657  -0.00679
   0.16142  -0.21197  -0.05168
  -0.03311   0.07234  -0.06664
  -0.13785   0.31176   0.02314
  -0.13785   0.32672   0.15781
   0.01179   0.19205   0.27752
   0.20631   0.08730   0.39723
   0.40084  -0.04737   0.45709
   0.58041  -0.12219   0.60672
   0.58041  -0.22694   0.68154
   0.37092  -0.21197   0.71147
   0.14646  -0.15212   0.72643
   0.07164  -0.01744   0.78629
   0.16142   0.14716   0.84614
   0.35595   0.31176   0.96585
   0.49063   0.26687   0.98082
   0.47566   0.19205   1.05564
   0.49063   0.14716   1.11549
   0.50559   0.10227   1.19031
   0.55048   0.02745   1.22024
   0.50559  -0.01744   1.25017
   0.49063   0.02745   1.22024
   0.56544   0.16212   1.28009
   0.62530   0.26687   1.31002
   0.58041   0.26687   1.36988
   0.53552   0.25190   1.38484
   0.52055   0.29680   1.35491
   0.65523   0.31176   1.31002
   0.73005   0.20701   1.31002
   0.73005   0.08730   1.36988
   0.71508   0.11723   1.41477
   0.62530   0.28183   1.44470
   0.50559   0.44643   1.44470
   0.53552   0.41651   1.41477
   0.65523   0.40154   1.38484
   0.83479   0.37161   1.39980
   0.89465   0.32672   1.31002
   0.83479   0.17708   1.36988
   0.62530   0.11723   1.36988
   0.44573  -0.01744   1.33995
   0.37092  -0.10723   1.32499
   0.40084  -0.04737   1.33995
   0.47566   0.10227   1.42973
   0.55048   0.26687   1.42973
   0.53552   0.20701   1.42973
   0.46070   0.13219   1.38484
   0.49063  -0.00248   1.36988
   0.52055  -0.22694   1.45966
   0.47566  -0.31672   1.45966
   0.29610  -0.19701   1.42973
   0.19135   0.05737   1.36988
   0.19135   0.20701   1.33995
   0.19135   0.07234   1.38484
   0.16142  -0.13715   1.41477
   0.19135  -0.24190   1.51951
   0.26617  -0.33168   1.54944
   0.34099  -0.36161   1.57937
   0.40084  -0.30176   1.51951
   0.28113  -0.24190   1.50455
   0.08660  -0.22694   1.56441
  -0.04807  -0.30176   1.62426
   0.01179  -0.34665   1.66915
   0.19135  -0.34665   1.62426
   0.37092  -0.25686   1.60930
   0.38588  -0.31672   1.62426
   0.28113  -0.43643   1.66915
   0.10157  -0.57110   1.75893
   0.02675  -0.52621   1.86368
   0.14646  -0.48132   1.89361
   0.29610  -0.46636   1.83375
   0.46070  -0.54118   1.78886
   0.47566  -0.58607   1.77390
   0.41581  -0.66089   1.84872
   0.34099  -0.69081   1.92354
   0.28113  -0.75067   2.01332
   0.25121  -0.73570   1.99835
   0.28113  -0.67585   1.99835
   0.35595  -0.61599   1.96843
   0.49063  -0.57110   1.93850
   0.47566  -0.55614   1.92354
   0.37092  -0.66089   1.93850
   0.34099  -0.66089   1.96843
   0.37092  -0.63096   1.95346
   0.46070  -0.49628   1.89361
   0.47566  -0.40650   1.81879
   0.37092  -0.28679   1.84872
   0.23624  -0.25686   1.81879
   0.26617  -0.31672   1.75893
   0.32602  -0.36161   1.66915
   0.35595  -0.30176   1.63922
   0.37092  -0.16708   1.68412
   0.28113   0.01248   1.66915
   0.19135   0.14716   1.53448
   0.02675   0.19205   1.41477
   0.02675   0.16212   1.35491
   0.07164   0.05737   1.31002
   0.17639   0.05737   1.26513
   0.20631   0.14716   1.16038
   0.16142   0.22198   1.10053
   0.16142   0.22198   1.10053
   0.13150   0.22198   1.01075
   0.02675   0.26687   0.95089
  -0.04807   0.32672   0.89104
  -0.04807   0.40154   0.77133
