********************************************************************************
               CENTRO DE INSTRUMENTACION Y REGISTRO SISMICO  A.C.  
                       Coordinacion de Servicios Tecnicos
     Anaxagoras 814, Col. Narvarte, Benito Juarez, C.P. 03020 Mexico, D.F.
            Tels. 667 45 42/ 687 45  82             Fax. 669 25 12
********************************************************************************
ARCHIVO ESTANDAR DE ACELERACION:
VERSION DEL FORMATO                    : 2.0
NOMBRE DEL ARCHIVO                     : BA499701.111
FECHA Y HORA DE CREACION               : 18/MAR/98, 13:30
REF. CATALOGO ACELEROGRAMAS, SMIS 1996 : REGISTRO No.     /PAG.


================================================================================
DATOS DE LA ESTACION:
NOMBRE DE LA ESTACION                  : BUENOS AIRES
CLAVE DE LA ESTACION                   : BA49
LOCALIZACION DE LA ESTACION            : ESCUELA SECUNDARIA 102, DOCTOR MARQUEZ
                                       : Y EJE CENTRAL, BUENOS AIRES.
                                       :
                                       :
                                       :
COORDENADAS DE LA ESTACION             : 19.410 LAT. N 
                                       : 99.145 LONG. W 
ALTITUD (msnm)                         : 2233
TIPO DE SUELO                          : TERRENO BLANDO, MATERIAL COMPRESIBLE
                                       : (ARCILLAS)
                                       : 
INSTITUCION RESPONSABLE                : CIRES 
                                       :

================================================================================
DATOS DEL ACELEROGRAFO:
MODELO DEL ACELEROGRAFO                : SSA-1
NUMERO DE SERIE DEL ACELEROGRAFO       : 176
NUMERO DE CANALES                      : 3
ORIENTACION C1-C6 (rumbo;orientacion)  : /N00E/+V/N90E
ORIENTACION C7-C12 (rumbo;orientacion) :
VEL. DE MUESTREO, C1-C6 (muestras/s)   : /200/200/200
VEL. DE MUESTREO, C7-C12 (muestras/s)  :
ESC. COMPLETA DE SENSORES, C1-C6, (g)  : /2/2/2
ESC. COMPLETA DE SENSORES, C7-C12, (g) :
FREC. NAT. DE SENSORES, C1-C6, (Hz)    : /52.99/52.03/52.99
FREC. NAT. DE SENSORES, C7-C12, (Hz)   :
AMORTIGUAMIENTO DE SENSORES, C1-C6     : /.5589/.5469/.6096
AMORTIGUAMIENTO DE SENSORES, C7-C12    :
INTERVALO DE MUESTREO, C1-C6, (s)      : /0.005/0.005/0.005
INTERVALO DE MUESTREO, C7-C12, (s)     :
UMBRAL DE DISPARO, C1-C6, (Gal)        : /2/2/2
UMBRAL DE DISPARO, C7-C12, (Gal)       :
MEMORIA DE PREEVENTO (s)               : 15
TIEMPO DE POSEVENTO (s)                : 60


================================================================================
DATOS DEL SISMO:
FECHA DEL SISMO (GMT)                  : 11/ENE/97
HORA EPICENTRO (GMT)                   : 20:28:27:2
MAGNITUD(ES)                           : /Ms=6.9
COORDENADAS DEL EPICENTRO              : 17.9 LAT. N
                                       : 103.0 LONG. W
PROFUNDIDAD FOCAL (km)                 : 16.0
FUENTE DE LOS DATOS EPICENTRALES       : SSN
                                       : INSTITUTO DE GEOFISICA, UNAM

================================================================================
DATOS DE ESTE REGISTRO:
HORA DE LA PRIMERA MUESTRA (GMT)       : 20:29:59.00
EXACTITUD DEL TIEMPO (s)               :     
DURACION DEL REGISTRO (s), C1-C6       : /288.00/288.00/288.00
DURACION DEL REGISTRO (s), C7-C12      :
NUM. TOTAL DE MUESTRAS, C1-C6          : /57600/57600/57600
NUM. TOTAL DE MUESTRAS, C7-C12         :
ACEL. MAX. (Gal), C1-C6                : /25.37283/5.73778/22.08867
ACEL. MAX., C1-C6, EN LA MUESTRA       :
ACEL. MAX. (Gal), C7-C12               :
ACEL. MAX., C7-C12, EN LA MUESTRA      :
UNIDADES DE LOS DATOS                  : Gal (cm/s/s)
FACTOR DE DECIMACION                   : 1
FORMATO DATOS (FORTRAN,10 campos/dato) : 3F10.5


================================================================================
CALIDAD DEL ACELEROGRAMA:
REGISTRO DIGITAL COMPLETO, CARECE DE TIEMPO ABSOLUTO.


================================================================================
COMENTARIOS:














================================================================================
DATOS DE ACELERACION:
---------+---------+---------+---------+---------+---------+---------+---------+
   CANAL-1   CANAL-2   CANAL-3   CANAL-4   CANAL-5   CANAL-6   CANAL-7   CANAL-8
      N00E        +V      N90E
---------+---------+---------+---------+---------+---------+---------+---------+
[...]
   5.04717  -0.01222  14.18867
   5.28717  -0.01222  14.18867
   5.52717   0.22778  13.94867
   5.52717   0.22778  13.94867
   5.76717   0.22778  13.94867
   6.00717   0.22778  13.94867
   6.24717   0.22778  13.94867
   6.48717   0.22778  13.94867
   6.48717   0.22778  13.94867
   6.72717   0.22778  13.94867
   6.95717   0.22778  13.94867
   7.19717   0.22778  13.70867
   7.43717   0.22778  13.70867
   7.43717   0.22778  13.70867
   7.67717   0.22778  13.70867
   7.67717   0.22778  13.46867
   8.15717   0.22778  13.46867
   8.15717   0.22778  13.46867
   8.39717   0.22778  13.46867
   8.63717   0.22778  13.22867
   8.87717   0.22778  13.22867
   9.11717   0.22778  13.22867
   9.11717   0.22778  13.22867
   9.35717   0.22778  13.22867
   9.59717   0.22778  12.98867
   9.83717   0.22778  12.98867
   9.83717  -0.01222  12.98867
  10.07717  -0.01222  12.74867
  10.31717  -0.01222  12.74867
  10.31717  -0.01222  12.50867
  10.55717  -0.01222  12.50867
  10.79717  -0.01222  12.50867
  11.03717  -0.01222  12.26867
  11.03717  -0.01222  12.26867
  11.27717  -0.01222  12.26867
  11.27717  -0.25222  12.02867
  11.51717  -0.25222  12.02867
  11.51717  -0.25222  11.78867
  11.74717  -0.25222  11.78867
  11.74717  -0.25222  11.54867
  11.98717  -0.25222  11.54867
  11.98717  -0.25222  11.54867
  12.22717  -0.25222  11.30867
  12.22717  -0.48222  11.30867
  12.46717  -0.48222  11.06867
  12.70717  -0.48222  11.06867
  12.70717  -0.48222  10.82867
  12.94717  -0.48222  10.58867
  12.94717  -0.48222  10.58867
  13.18717  -0.48222  10.10867
  13.18717  -0.48222  10.10867
  13.42717  -0.48222  10.10867
  13.42717  -0.48222   9.87867
  13.66717  -0.48222   9.87867
  13.66717  -0.25222   9.63867
  13.90717  -0.25222   9.39867
  13.90717  -0.25222   9.39867
  14.14717  -0.25222   9.15867
  14.14717  -0.25222   8.91867
  14.38717  -0.25222   8.67867
  14.62717  -0.25222   8.67867
  14.62717  -0.01222   8.43867
  14.62717  -0.01222   8.19867
  14.86717  -0.01222   8.19867
  14.86717  -0.01222   7.95867
  14.86717   0.22778   7.71867
  15.10717   0.22778   7.47867
  15.10717   0.22778   7.47867
  15.10717   0.46778   7.23867
  15.34717   0.46778   7.23867
  15.34717   0.70778   6.99867
  15.58717   0.70778   6.75867
  15.82717   0.70778   6.75867
  15.82717   0.70778   6.51867
  15.82717   0.70778   6.27867
  16.06717   0.70778   6.27867
  16.06717   0.94778   6.03867
  16.06717   0.94778   5.79867
  16.06717   0.94778   5.79867
  16.06717   1.18778   5.55867
  16.30717   1.18778   5.55867
  16.30717   1.18778   5.31867
  16.30717   1.18778   5.08867
  16.30717   1.42778   5.08867
  16.53717   1.42778   4.84867
  16.53717   1.42778   4.84867
  16.53717   1.42778   4.60867
  16.53717   1.42778   4.36867
  16.53717   1.42778   4.36867
  16.53717   1.66778   4.12867
  16.53717   1.66778   4.12867
  16.53717   1.66778   3.88867
  16.53717   1.66778   3.88867
  16.53717   1.66778   3.64867
  16.53717   1.90778   3.40867
  16.53717   1.90778   3.40867
  16.53717   1.90778   3.40867
  16.53717   1.90778   3.16867
  16.53717   1.90778   3.16867
  16.53717   1.90778   2.92867
  16.53717   1.90778   2.68867
  16.53717   1.90778   2.68867
  16.53717   1.90778   2.44867
  16.53717   1.90778   2.44867
  16.53717   1.90778   2.20867
  16.53717   1.90778   1.96867
  16.53717   1.90778   1.96867
  16.53717   1.90778   1.72867
  16.53717   1.90778   1.72867
  16.53717   1.90778   1.48867
  16.53717   1.66778   1.24867
  16.53717   1.66778   1.00867
  16.53717   1.66778   1.00867
  16.53717   1.66778   0.76867
  16.30717   1.66778   0.52867
  16.30717   1.66778   0.52867
  16.30717   1.66778   0.29867
  16.30717   1.66778   0.05867
  16.53717   1.66778  -0.18133
  16.30717   1.66778  -0.42133
  16.53717   1.66778  -0.42133
  16.30717   1.66778  -0.66133
  16.30717   1.42778  -0.90133
  16.53717   1.66778  -1.14133
  16.53717   1.42778  -1.38133
  16.53717   1.42778  -1.62133
  16.53717   1.42778  -1.62133
  16.53717   1.42778  -1.86133
  16.53717   1.42778  -1.86133
  16.53717   1.18778  -2.10133
  16.77717   1.18778  -2.10133
  16.77717   1.18778  -2.34133
  16.77717   1.18778  -2.58133
  16.77717   1.18778  -2.82133
  16.77717   0.94778  -3.06133
  16.77717   0.94778  -3.06133
  17.01717   0.94778  -3.30133
  17.01717   0.94778  -3.54133
  17.01717   0.70778  -3.78133
  17.01717   0.70778  -3.78133
  17.01717   0.70778  -4.02133
  17.25717   0.46778  -4.26133
  17.25717   0.46778  -4.50133
  17.25717   0.22778  -4.50133
  17.25717   0.22778  -4.73133
  17.49717   0.22778  -4.97133
  17.49717   0.22778  -5.21133
  17.49717  -0.01222  -5.45133
  17.49717  -0.01222  -5.45133
  17.49717  -0.01222  -5.69133
  17.49717  -0.25222  -5.93133
  17.73717  -0.25222  -6.17133
  17.73717  -0.48222  -6.17133
  17.73717  -0.48222  -6.41133
  17.73717  -0.48222  -6.65133
  17.73717  -0.48222  -6.89133
  17.73717  -0.72222  -6.89133
  17.73717  -0.72222  -7.13133
  17.73717  -0.96222  -7.37133
  17.73717  -0.96222  -7.37133
  17.97717  -0.96222  -7.85133
  17.97717  -1.20222  -7.85133
  17.97717  -1.20222  -7.85133
  17.97717  -1.20222  -8.09133
  17.97717  -1.20222  -8.09133
  17.97717  -1.20222  -8.33133
  17.73717  -1.44222  -8.57133
  17.73717  -1.44222  -8.57133
  17.73717  -1.44222  -8.81133
  17.73717  -1.68222  -9.05133
  17.49717  -1.68222  -9.05133
  17.49717  -1.68222  -9.29133
  17.49717  -1.68222  -9.29133
  17.49717  -1.68222  -9.52133
  17.25717  -1.68222  -9.52133
  17.25717  -1.68222  -9.76133
  17.25717  -1.68222  -9.76133
  17.01717  -1.68222 -10.00133
  17.01717  -1.68222 -10.00133
  16.77717  -1.68222 -10.24133
  16.77717  -1.68222 -10.24133
  16.53717  -1.68222 -10.48133
  16.53717  -1.68222 -10.48133
  16.30717  -1.68222 -10.72133
  16.30717  -1.68222 -10.72133
  16.06717  -1.68222 -10.72133
  15.82717  -1.68222 -10.96133
  15.82717  -1.44222 -10.96133
  15.58717  -1.44222 -11.20133
  15.34717  -1.44222 -11.20133
  15.10717  -1.44222 -11.20133
  14.86717  -1.44222 -11.44133
  14.62717  -1.44222 -11.44133
  14.62717  -1.44222 -11.44133
  14.38717  -1.44222 -11.44133
  14.14717  -1.44222 -11.68133
  13.66717  -1.20222 -11.44133
  13.42717  -1.20222 -11.68133
  13.18717  -1.20222 -11.68133
  12.94717  -1.20222 -11.68133
  12.70717  -1.20222 -11.68133
  12.46717  -1.20222 -11.68133
  11.98717  -1.20222 -11.92133
  11.74717  -1.20222 -11.92133
  11.27717  -1.20222 -11.92133
  11.27717  -0.96222 -11.92133
  11.03717  -0.96222 -11.92133
  10.55717  -1.20222 -12.16133
  10.31717  -0.96222 -12.16133
   9.83717  -0.96222 -12.16133
   9.59717  -0.96222 -12.16133
   9.35717  -0.96222 -12.16133
   8.87717  -0.72222 -12.16133
   8.63717  -0.72222 -12.16133
   8.15717  -0.72222 -12.16133
   7.91717  -0.72222 -12.16133
   7.43717  -0.72222 -12.16133
   7.19717  -0.72222 -12.16133
   6.72717  -0.48222 -12.16133
   6.48717  -0.48222 -12.16133
   6.00717  -0.48222 -12.16133
   5.52717  -0.48222 -12.16133
   5.28717  -0.48222 -12.16133
   4.80717  -0.25222 -12.16133
   4.56717  -0.25222 -11.92133
   4.08717  -0.25222 -11.92133
   3.60717  -0.25222 -11.92133
   3.36717  -0.01222 -11.92133
   2.88717  -0.01222 -11.92133
   2.40717  -0.01222 -11.92133
   1.93717  -0.01222 -12.16133
   1.69717  -0.01222 -11.92133
   1.45717  -0.01222 -12.16133
   0.97717   0.22778 -12.16133
   0.49717   0.22778 -12.16133
   0.25717   0.22778 -12.16133
  -0.22283   0.22778 -11.92133
  -0.70283   0.22778 -11.92133
  -0.94283   0.22778 -12.16133
  -1.42283   0.22778 -12.16133
  -1.66283   0.46778 -12.16133
  -2.14283   0.46778 -12.16133
  -2.38283   0.46778 -12.16133
  -2.86283   0.46778 -12.16133
  -3.09283   0.46778 -12.16133
  -3.57283   0.46778 -12.16133
  -3.81283   0.46778 -12.16133
  -4.29283   0.46778 -12.16133
  -4.53283   0.70778 -12.16133
  -5.01283   0.70778 -12.16133
  -5.25283   0.70778 -12.16133
  -5.49283   0.70778 -12.16133
  -5.97283   0.70778 -12.16133
  -6.45283   0.70778 -12.16133
  -6.45283   0.70778 -12.16133
  -6.93283   0.70778 -12.16133
  -7.17283   0.70778 -12.16133
  -7.41283   0.70778 -12.16133
  -7.88283   0.46778 -12.16133
  -8.12283   0.46778 -12.16133
  -8.36283   0.46778 -12.16133
  -8.84283   0.46778 -12.16133
  -9.08283   0.46778 -12.16133
  -9.32283   0.46778 -12.16133
  -9.56283   0.46778 -12.16133
  -9.80283   0.46778 -12.16133
 -10.28283   0.46778 -12.16133
 -10.52283   0.22778 -12.16133
 -10.76283   0.46778 -12.16133
 -11.00283   0.46778 -12.16133
 -11.24283   0.22778 -12.16133
 -11.48283   0.22778 -12.16133
 -11.72283   0.22778 -12.16133
 -11.96283   0.22778 -12.16133
 -12.20283   0.22778 -12.16133
 -12.44283   0.22778 -11.92133
 -12.67283   0.22778 -12.16133
 -13.15283   0.22778 -11.92133
 -13.15283   0.22778 -11.92133
 -13.39283  -0.01222 -11.92133
 -13.63283  -0.01222 -11.92133
 -13.87283  -0.01222 -11.92133
 -14.11283  -0.01222 -11.92133
 -14.35283  -0.01222 -11.92133
 -14.35283  -0.01222 -11.92133
 -14.59283  -0.01222 -11.92133
 -14.83283  -0.25222 -11.68133
 -15.07283  -0.25222 -11.92133
 -15.07283  -0.25222 -11.68133
 -15.31283  -0.25222 -11.68133
 -15.55283  -0.25222 -11.68133
 -15.79283  -0.25222 -11.68133
 -15.79283  -0.25222 -11.68133
 -16.03283  -0.25222 -11.44133
 -16.27283  -0.48222 -11.44133
 -16.27283  -0.48222 -11.68133
 -16.51283  -0.48222 -11.44133
 -16.75283  -0.48222 -11.44133
 -16.75283  -0.48222 -11.44133
 -16.99283  -0.48222 -11.20133
 -17.23283  -0.48222 -11.20133
 -17.23283  -0.48222 -11.20133
 -17.46283  -0.48222 -11.20133
 -17.70283  -0.48222 -11.20133
 -17.70283  -0.48222 -10.96133
 -17.94283  -0.48222 -10.96133
 -18.18283  -0.48222 -10.96133
 -18.42283  -0.48222 -10.96133
 -18.42283  -0.48222 -10.96133
 -18.66283  -0.72222 -10.72133
 -18.90283  -0.48222 -10.72133
 -19.14283  -0.48222 -10.72133
 -19.38283  -0.48222 -10.72133
 -19.62283  -0.48222 -10.48133
 -19.86283  -0.48222 -10.48133
 -19.86283  -0.48222 -10.48133
 -20.10283  -0.48222 -10.24133
 -20.34283  -0.25222 -10.24133
 -20.34283  -0.48222 -10.24133
 -20.58283  -0.48222 -10.00133
 -20.82283  -0.48222 -10.00133
 -21.06283  -0.48222  -9.76133
 -21.30283  -0.48222  -9.76133
 -21.54283  -0.25222  -9.52133
 -21.78283  -0.25222  -9.52133
 -22.02283  -0.25222  -9.29133
 -22.25283  -0.25222  -9.29133
 -22.49283  -0.25222  -9.05133
 -22.73283  -0.01222  -9.05133
 -22.97283  -0.01222  -8.81133
 -22.97283  -0.01222  -8.81133
 -23.21283  -0.01222  -8.81133
 -23.21283  -0.01222  -8.57133
 -23.45283   0.22778  -8.33133
 -23.69283   0.22778  -8.09133
 -23.69283   0.22778  -8.09133
 -23.93283   0.22778  -8.09133
 -24.17283   0.22778  -7.85133
 -24.41283   0.46778  -7.61133
 -24.65283   0.46778  -7.37133
 -24.65283   0.46778  -7.37133
 -24.65283   0.46778  -7.13133
 -24.65283   0.46778  -7.13133
 -24.89283   0.46778  -6.89133
 -24.89283   0.46778  -6.65133
 -25.13283   0.46778  -6.41133
 -25.13283   0.46778  -6.17133
 -25.13283   0.46778  -6.17133
 -25.37283   0.46778  -5.93133
 -25.37283   0.46778  -5.69133
 -25.37283   0.46778  -5.69133
 -25.37283   0.46778  -5.45133
 -25.37283   0.46778  -5.21133
 -25.37283   0.46778  -5.21133
 -25.37283   0.46778  -4.97133
 -25.37283   0.46778  -4.97133
 -25.13283   0.46778  -4.73133
 -25.13283   0.46778  -4.50133
 -25.13283   0.46778  -4.26133
 -25.13283   0.46778  -4.26133
 -24.89283   0.46778  -4.02133
 -24.89283   0.22778  -4.02133
 -24.89283   0.22778  -3.78133
 -24.89283   0.22778  -3.78133
 -24.65283   0.22778  -3.54133
 -24.65283   0.22778  -3.54133
 -24.41283   0.22778  -3.30133
 -24.41283   0.22778  -3.06133
 -24.17283   0.22778  -3.06133
 -24.17283   0.22778  -2.82133
 -24.17283   0.22778  -2.82133
 -23.93283   0.22778  -2.58133
 -23.93283   0.22778  -2.34133
 -23.69283   0.22778  -2.34133
 -23.69283   0.22778  -2.10133
 -23.45283   0.46778  -1.86133
 -23.21283   0.46778  -1.86133
 -23.21283   0.46778  -1.62133
 -22.97283   0.46778  -1.62133
 -22.97283   0.46778  -1.38133
 -22.73283   0.46778  -1.14133
 -22.49283   0.46778  -0.90133
 -22.49283   0.46778  -0.90133
 -22.25283   0.70778  -0.66133
 -22.02283   0.70778  -0.66133
 -21.78283   0.70778  -0.42133
 -21.78283   0.70778  -0.18133
 -21.54283   0.70778   0.05867
 -21.30283   0.70778   0.29867
 -21.30283   0.94778   0.29867
 -21.06283   0.94778   0.52867
 -20.82283   0.94778   0.76867
 -20.58283   0.94778   1.00867
 -20.34283   0.94778   1.00867
 -20.10283   0.94778   1.24867
 -19.86283   0.94778   1.48867
 -19.86283   0.94778   1.72867
 -19.62283   1.18778   1.72867
 -19.38283   1.18778   1.96867
 -19.14283   1.18778   2.20867
 -18.90283   1.18778   2.44867
 -18.90283   1.18778   2.44867
 -18.66283   1.18778   2.68867
 -18.42283   1.18778   2.92867
 -18.18283   1.18778   2.92867
 -18.18283   1.18778   3.16867
 -17.94283   1.18778   3.40867
 -17.94283   1.18778   3.64867
 -17.70283   1.18778   3.88867
 -17.46283   1.18778   3.88867
 -17.23283   1.18778   4.12867
 -17.23283   1.18778   4.36867
 -16.99283   1.18778   4.36867
 -16.75283   1.18778   4.60867
 -16.51283   1.18778   4.84867
 -16.51283   1.18778   5.08867
 -16.27283   1.18778   5.31867
 -16.03283   1.18778   5.55867
 -15.79283   1.18778   5.55867
 -15.79283   1.18778   5.79867
 -15.55283   1.18778   6.03867
 -15.55283   1.18778   6.27867
 -15.31283   1.18778   6.51867
 -15.07283   1.18778   6.51867
 -14.83283   1.18778   6.75867
 -14.59283   1.18778   6.99867
 -14.59283   1.18778   7.23867
 -14.35283   1.18778   7.47867
 -14.11283   1.18778   7.47867
 -14.11283   1.18778   7.95867
 -13.87283   1.42778   7.95867
 -13.63283   1.42778   8.19867
 -13.63283   1.42778   8.43867
 -13.39283   1.42778   8.67867
 -13.15283   1.42778   8.91867
 -12.91283   1.42778   9.15867
 -12.67283   1.42778   9.39867
 -12.44283   1.42778   9.63867
 -12.44283   1.42778   9.87867
 -12.20283   1.42778   9.87867
 -11.96283   1.42778  10.10867
 -11.72283   1.42778  10.34867
 -11.72283   1.42778  10.58867
 -11.48283   1.42778  10.58867
 -11.24283   1.42778  11.06867
 -11.00283   1.42778  11.30867
 -11.00283   1.42778  11.30867
 -10.76283   1.42778  11.54867
 -10.52283   1.18778  11.78867
 -10.52283   1.42778  11.78867
 -10.28283   1.18778  11.78867
 -10.04283   1.18778  12.02867
 -10.04283   1.18778  12.26867
  -9.80283   1.18778  12.26867
  -9.56283   1.18778  12.50867
  -9.32283   1.18778  12.74867
  -9.32283   1.18778  12.74867
  -9.08283   1.18778  12.74867
  -8.84283   1.18778  12.98867
  -8.84283   1.18778  12.98867
  -8.60283   0.94778  12.98867
  -8.36283   1.18778  13.22867
  -8.36283   0.94778  13.22867
  -8.12283   0.94778  13.22867
  -7.88283   0.94778  13.46867
  -7.65283   0.94778  13.46867
  -7.41283   0.70778  13.46867
  -7.41283   0.70778  13.22867
  -7.17283   0.70778  13.46867
  -6.93283   0.70778  13.46867
  -6.93283   0.70778  13.46867
  -6.69283   0.70778  13.46867
  -6.45283   0.46778  13.46867
  -6.21283   0.46778  13.46867
  -5.97283   0.46778  13.70867
  -5.97283   0.46778  13.46867
  -5.73283   0.46778  13.46867
  -5.49283   0.46778  13.70867
  -5.25283   0.22778  13.70867
  -5.01283   0.22778  13.46867
  -4.77283   0.22778  13.46867
  -4.53283   0.22778  13.46867
  -4.29283   0.22778  13.46867
  -4.29283   0.22778  13.46867
  -4.05283   0.22778  13.46867
  -3.81283  -0.01222  13.46867
  -3.57283  -0.01222  13.46867
  -3.33283  -0.01222  13.46867
  -3.09283  -0.01222  13.46867
  -3.09283  -0.01222  13.46867
  -2.86283  -0.25222  13.46867
  -2.62283  -0.25222  13.46867
  -2.38283  -0.25222  13.46867
  -2.14283  -0.25222  13.22867
  -1.90283  -0.25222  13.46867
  -1.66283  -0.25222  13.22867
  -1.42283  -0.48222  13.22867
  -1.18283  -0.48222  13.22867
  -0.94283  -0.48222  13.22867
