********************************************************************************
               CENTRO DE INSTRUMENTACION Y REGISTRO SISMICO  A.C.  
                       Coordinacion de Servicios Tecnicos
     Anaxagoras 814, Col. Narvarte, Benito Juarez, C.P. 03020 Mexico, D.F.
            Tels. 667 45 42/ 687 45  82             Fax. 669 25 12
********************************************************************************
ARCHIVO ESTANDAR DE ACELERACION:
VERSION DEL FORMATO                    : 2.0
NOMBRE DEL ARCHIVO                     : BA490602.201
FECHA Y HORA DE CREACION               : 23/FEB/06, 10:44
REF. CATALOGO ACELEROGRAMAS, SMIS 1996 : REGISTRO No.     /PAG.


================================================================================
DATOS DE LA ESTACION:
NOMBRE DE LA ESTACION                  : BUENOS AIRES
CLAVE DE LA ESTACION                   : BA49
LOCALIZACION DE LA ESTACION            : ESCUELA SECUNDARIA 102, DOCTOR MARQUEZ
                                       : Y EJE CENTRAL, BUENOS AIRES.
                                       :
                                       :
                                       :
COORDENADAS DE LA ESTACION             : 19.410 LAT. N 
                                       : 99.145 LONG. W 
ALTITUD (msnm)                         : 2233
TIPO DE SUELO                          : TERRENO BLANDO, MATERIAL COMPRESIBLE
                                       : (ARCILLAS)
                                       : 
INSTITUCION RESPONSABLE                : CIRES 
                                       :

================================================================================
DATOS DEL ACELEROGRAFO:
MODELO DEL ACELEROGRAFO                : SSA-1
NUMERO DE SERIE DEL ACELEROGRAFO       : 176
NUMERO DE CANALES                      : 3
ORIENTACION C1-C6 (rumbo;orientacion)  : /N00E/+V/N90E
ORIENTACION C7-C12 (rumbo;orientacion) :
VEL. DE MUESTREO, C1-C6 (muestras/s)   : /200/200/200
VEL. DE MUESTREO, C7-C12 (muestras/s)  :
ESC. COMPLETA DE SENSORES, C1-C6, (g)  : /2/2/2
ESC. COMPLETA DE SENSORES, C7-C12, (g) :
FREC. NAT. DE SENSORES, C1-C6, (Hz)    : /52.99/52.03/52.99
FREC. NAT. DE SENSORES, C7-C12, (Hz)   :
AMORTIGUAMIENTO DE SENSORES, C1-C6     : /.5589/.5469/.6096
AMORTIGUAMIENTO DE SENSORES, C7-C12    :
INTERVALO DE MUESTREO, C1-C6, (s)      : /0.005/0.005/0.005
INTERVALO DE MUESTREO, C7-C12, (s)     :
UMBRAL DE DISPARO, C1-C6, (Gal)        : /2/2/2
UMBRAL DE DISPARO, C7-C12, (Gal)       :
MEMORIA DE PREEVENTO (s)               : 15
TIEMPO DE POSEVENTO (s)                : 60


================================================================================
DATOS DEL SISMO:
FECHA DEL SISMO (GMT)                  : 20/FEB/06
HORA EPICENTRO (GMT)                   : 10:54:23,0
MAGNITUD(ES)                           : /Mc=5.0
COORDENADAS DEL EPICENTRO              : 18.16 LAT. N
                                       : -100.75 LONG. W
PROFUNDIDAD FOCAL (km)                 : 41
FUENTE DE LOS DATOS EPICENTRALES       : SSN
                                       : INSTITUTO DE GEOFISICA, UNAM 

================================================================================
DATOS DE ESTE REGISTRO:
HORA DE LA PRIMERA MUESTRA (GMT)       : 10:55:31.00
EXACTITUD DEL TIEMPO (s)               :     
DURACION DEL REGISTRO (s), C1-C6       : /92.16/92.16/92.16
DURACION DEL REGISTRO (s), C7-C12      :
NUM. TOTAL DE MUESTRAS, C1-C6          : /18432/18432/18432
NUM. TOTAL DE MUESTRAS, C7-C12         :
ACEL. MAX. (Gal), C1-C6                : /-1.45471/-0.97359/-2.16570
ACEL. MAX., C1-C6, EN LA MUESTRA       :
ACEL. MAX. (Gal), C7-C12               :
ACEL. MAX., C7-C12, EN LA MUESTRA      :
UNIDADES DE LOS DATOS                  : Gal (cm/s/s)
FACTOR DE DECIMACION                   : 1
FORMATO DATOS (FORTRAN,10 campos/dato) : 3F10.5


================================================================================
CALIDAD DEL ACELEROGRAMA:
REGISTRO DIGITAL COMPLETO, CARECE DE TIEMPO ABSOLUTO.


================================================================================
COMENTARIOS:














================================================================================
DATOS DE ACELERACION:
---------+---------+---------+---------+---------+---------+---------+---------+
   CANAL-1   CANAL-2   CANAL-3   CANAL-4   CANAL-5   CANAL-6   CANAL-7   CANAL-8
      N00E        +V      N90E
---------+---------+---------+---------+---------+---------+---------+---------+
[...]
  -0.49471   0.45641  -0.24570
  -0.49471   0.45641  -0.24570
  -0.49471   0.45641  -0.48570
  -0.49471   0.45641  -0.48570
  -0.49471   0.21641  -0.48570
  -0.49471   0.45641  -0.48570
  -0.49471   0.45641  -0.48570
  -0.49471   0.21641  -0.48570
  -0.49471   0.21641  -0.48570
  -0.49471   0.21641  -0.48570
  -0.49471   0.21641  -0.48570
  -0.25471   0.21641  -0.48570
  -0.25471   0.21641  -0.48570
  -0.25471   0.21641  -0.48570
  -0.25471   0.21641  -0.24570
  -0.25471   0.21641  -0.24570
  -0.01471   0.21641  -0.24570
  -0.01471  -0.02359  -0.24570
  -0.01471   0.21641  -0.24570
  -0.01471  -0.02359  -0.24570
  -0.01471  -0.02359  -0.24570
   0.22529   0.21641  -0.24570
   0.22529  -0.02359  -0.00570
   0.22529  -0.02359  -0.24570
   0.22529  -0.02359  -0.00570
   0.22529  -0.02359  -0.00570
   0.22529  -0.02359  -0.00570
   0.22529  -0.02359  -0.00570
   0.22529  -0.02359  -0.00570
   0.22529  -0.02359  -0.00570
   0.45529  -0.02359  -0.00570
   0.45529  -0.02359  -0.00570
   0.22529  -0.02359  -0.00570
   0.45529  -0.02359   0.23430
   0.22529  -0.02359   0.23430
   0.22529  -0.02359   0.23430
   0.22529  -0.02359   0.23430
   0.22529   0.21641   0.23430
   0.22529   0.21641   0.23430
   0.22529  -0.02359   0.23430
   0.22529   0.21641   0.23430
   0.22529  -0.02359   0.23430
   0.22529   0.21641   0.47430
   0.22529  -0.02359   0.47430
   0.22529   0.21641   0.47430
   0.22529  -0.02359   0.47430
   0.22529  -0.02359   0.47430
   0.22529  -0.02359   0.47430
   0.22529  -0.02359   0.47430
  -0.01471  -0.02359   0.47430
  -0.01471  -0.02359   0.47430
  -0.01471   0.21641   0.70430
  -0.01471   0.21641   0.47430
  -0.01471  -0.02359   0.47430
  -0.01471  -0.02359   0.47430
  -0.01471  -0.02359   0.70430
  -0.01471  -0.02359   0.70430
  -0.01471   0.21641   0.70430
  -0.01471   0.21641   0.70430
  -0.01471   0.21641   0.70430
  -0.01471   0.21641   0.70430
  -0.01471   0.21641   0.94430
  -0.01471  -0.02359   0.94430
  -0.01471  -0.02359   0.94430
  -0.01471  -0.02359   0.94430
  -0.01471  -0.02359   0.94430
  -0.01471   0.21641   0.94430
  -0.01471  -0.02359   0.94430
  -0.01471  -0.02359   0.94430
  -0.01471  -0.02359   0.94430
  -0.01471  -0.02359   0.94430
  -0.01471  -0.02359   1.18430
  -0.01471  -0.02359   1.18430
  -0.01471  -0.02359   1.18430
  -0.01471  -0.02359   1.18430
  -0.01471  -0.02359   1.18430
  -0.01471  -0.02359   1.18430
  -0.25471  -0.02359   1.18430
  -0.25471  -0.02359   1.18430
  -0.25471  -0.02359   1.18430
  -0.25471   0.21641   1.18430
  -0.25471  -0.02359   1.18430
  -0.25471   0.21641   1.18430
  -0.25471  -0.02359   1.18430
  -0.25471   0.21641   1.18430
  -0.25471   0.21641   1.18430
  -0.49471  -0.02359   1.18430
  -0.25471   0.21641   1.18430
  -0.49471   0.21641   1.18430
  -0.49471   0.21641   1.18430
  -0.49471  -0.02359   0.94430
  -0.49471   0.21641   0.94430
  -0.49471   0.21641   0.94430
  -0.49471   0.21641   0.94430
  -0.49471   0.21641   0.70430
  -0.49471   0.45641   0.70430
  -0.49471   0.45641   0.70430
  -0.49471   0.45641   0.47430
  -0.49471   0.21641   0.47430
  -0.49471   0.45641   0.47430
  -0.25471   0.45641   0.23430
  -0.25471   0.45641   0.23430
  -0.25471   0.45641   0.23430
  -0.25471   0.45641  -0.00570
  -0.25471   0.69641  -0.00570
  -0.25471   0.69641  -0.24570
  -0.25471   0.45641  -0.24570
  -0.25471   0.45641  -0.48570
  -0.25471   0.45641  -0.48570
  -0.25471   0.45641  -0.72570
  -0.25471   0.21641  -0.72570
  -0.25471   0.21641  -0.72570
  -0.25471   0.21641  -0.96570
  -0.25471   0.21641  -0.96570
  -0.25471   0.21641  -0.96570
  -0.25471  -0.02359  -1.20570
  -0.25471  -0.02359  -1.20570
  -0.25471  -0.02359  -1.20570
  -0.25471  -0.02359  -1.20570
  -0.25471  -0.02359  -1.20570
  -0.25471  -0.02359  -1.20570
  -0.25471  -0.02359  -1.44570
  -0.25471  -0.02359  -1.44570
  -0.25471  -0.02359  -1.44570
  -0.25471  -0.02359  -1.44570
  -0.25471  -0.02359  -1.44570
  -0.25471  -0.02359  -1.44570
  -0.25471  -0.02359  -1.44570
  -0.25471  -0.02359  -1.44570
  -0.25471  -0.02359  -1.20570
  -0.25471  -0.02359  -1.20570
  -0.01471  -0.02359  -1.20570
  -0.25471  -0.02359  -1.20570
  -0.25471  -0.02359  -1.20570
  -0.01471  -0.26359  -0.96570
  -0.01471  -0.02359  -0.96570
  -0.01471  -0.26359  -0.96570
  -0.01471  -0.26359  -0.72570
  -0.01471  -0.26359  -0.72570
  -0.01471  -0.50359  -0.72570
  -0.01471  -0.50359  -0.48570
  -0.01471  -0.50359  -0.48570
  -0.01471  -0.50359  -0.48570
  -0.01471  -0.50359  -0.48570
   0.22529  -0.50359  -0.24570
   0.22529  -0.50359  -0.24570
   0.22529  -0.73359  -0.24570
   0.22529  -0.73359  -0.24570
   0.22529  -0.73359  -0.00570
   0.22529  -0.73359   0.23430
   0.22529  -0.73359  -0.00570
   0.45529  -0.73359   0.23430
   0.45529  -0.73359   0.23430
   0.45529  -0.73359   0.23430
   0.45529  -0.73359   0.23430
   0.45529  -0.50359   0.23430
   0.45529  -0.50359   0.23430
   0.69529  -0.73359   0.47430
   0.69529  -0.73359   0.47430
   0.69529  -0.73359   0.47430
   0.69529  -0.73359   0.47430
   0.69529  -0.73359   0.47430
   0.69529  -0.50359   0.47430
   0.69529  -0.73359   0.47430
   0.93529  -0.50359   0.47430
   0.93529  -0.50359   0.47430
   0.93529  -0.50359   0.70430
   0.93529  -0.26359   0.47430
   0.93529  -0.26359   0.70430
   0.93529  -0.26359   0.70430
   0.93529  -0.26359   0.70430
   0.93529  -0.26359   0.70430
   0.93529  -0.02359   0.70430
   0.93529  -0.02359   0.70430
   0.93529  -0.02359   0.70430
   0.93529  -0.02359   0.70430
   0.93529  -0.26359   0.94430
   1.17529  -0.26359   0.94430
   0.93529  -0.02359   0.70430
   0.93529  -0.02359   0.94430
   0.93529  -0.02359   0.70430
   0.93529  -0.02359   0.70430
   0.93529  -0.02359   0.94430
   0.93529  -0.02359   0.70430
   0.93529  -0.02359   0.70430
   0.93529  -0.02359   0.70430
   0.93529  -0.02359   0.70430
   0.93529  -0.02359   0.94430
   0.69529   0.21641   0.94430
   0.69529   0.21641   0.70430
   0.69529  -0.02359   0.70430
   0.69529   0.21641   0.70430
   0.69529   0.21641   0.70430
   0.45529   0.21641   0.70430
   0.45529   0.21641   0.70430
   0.45529   0.45641   0.70430
   0.45529   0.21641   0.70430
   0.45529   0.21641   0.70430
   0.45529   0.21641   0.70430
   0.22529   0.45641   0.70430
   0.22529   0.21641   0.47430
   0.22529   0.45641   0.47430
  -0.01471   0.21641   0.47430
  -0.01471   0.45641   0.47430
  -0.01471   0.45641   0.47430
  -0.01471   0.21641   0.47430
  -0.01471   0.21641   0.47430
  -0.25471   0.21641   0.23430
  -0.25471   0.45641   0.23430
  -0.25471   0.21641   0.23430
  -0.49471   0.45641   0.23430
  -0.49471   0.21641   0.23430
  -0.49471   0.45641   0.23430
  -0.49471   0.45641   0.23430
  -0.73471   0.45641   0.23430
  -0.73471   0.45641  -0.00570
  -0.73471   0.45641  -0.00570
  -0.97471   0.45641  -0.00570
  -0.97471   0.45641  -0.00570
  -0.97471   0.69641  -0.00570
  -0.97471   0.69641  -0.24570
  -0.97471   0.69641  -0.24570
  -0.97471   0.69641  -0.24570
  -0.97471   0.93641  -0.24570
  -0.97471   0.69641  -0.48570
  -0.97471   0.93641  -0.48570
  -0.97471   0.93641  -0.48570
  -0.97471   0.93641  -0.48570
  -0.97471   0.93641  -0.48570
  -0.97471   0.93641  -0.48570
  -0.97471   0.93641  -0.72570
  -0.97471   0.69641  -0.72570
  -0.97471   0.69641  -0.72570
  -0.97471   0.69641  -0.72570
  -0.97471   0.69641  -0.72570
  -0.97471   0.69641  -0.72570
  -0.97471   0.45641  -0.96570
  -0.97471   0.45641  -0.96570
  -0.97471   0.45641  -0.96570
  -0.97471   0.45641  -0.96570
  -0.97471   0.45641  -0.96570
  -0.97471   0.45641  -0.96570
  -0.97471   0.21641  -0.96570
  -0.97471   0.21641  -0.96570
  -0.97471   0.21641  -0.96570
  -0.97471  -0.02359  -0.96570
  -0.97471  -0.02359  -0.96570
  -0.97471  -0.02359  -0.96570
  -0.97471  -0.02359  -0.96570
  -0.97471  -0.02359  -0.96570
  -0.97471  -0.02359  -0.96570
  -0.97471  -0.26359  -0.72570
  -0.97471  -0.26359  -0.72570
  -1.21471  -0.26359  -0.72570
  -1.21471  -0.26359  -0.72570
  -1.21471  -0.26359  -0.48570
  -1.21471  -0.26359  -0.48570
  -1.21471  -0.50359  -0.48570
  -1.21471  -0.26359  -0.48570
  -1.21471  -0.50359  -0.24570
  -0.97471  -0.26359  -0.24570
  -1.21471  -0.50359  -0.24570
  -1.21471  -0.50359  -0.00570
  -1.21471  -0.50359  -0.00570
  -0.97471  -0.26359  -0.00570
  -0.97471  -0.50359   0.23430
  -0.97471  -0.50359   0.23430
  -0.97471  -0.50359   0.23430
  -0.97471  -0.26359   0.23430
  -0.97471  -0.50359   0.47430
  -0.97471  -0.26359   0.47430
  -0.97471  -0.50359   0.47430
  -0.97471  -0.50359   0.47430
  -0.97471  -0.26359   0.47430
  -0.73471  -0.26359   0.70430
  -0.73471  -0.50359   0.70430
  -0.73471  -0.50359   0.70430
  -0.73471  -0.26359   0.70430
  -0.73471  -0.50359   0.70430
  -0.49471  -0.50359   0.70430
  -0.49471  -0.50359   0.70430
  -0.49471  -0.50359   0.70430
  -0.49471  -0.50359   0.70430
  -0.25471  -0.50359   0.70430
  -0.25471  -0.50359   0.94430
  -0.25471  -0.50359   0.94430
  -0.25471  -0.50359   0.70430
  -0.25471  -0.50359   0.94430
  -0.25471  -0.50359   0.94430
  -0.01471  -0.50359   0.70430
  -0.01471  -0.50359   0.94430
  -0.01471  -0.26359   0.70430
  -0.01471  -0.50359   0.70430
  -0.01471  -0.50359   0.94430
   0.22529  -0.50359   0.70430
   0.22529  -0.50359   0.70430
   0.22529  -0.50359   0.70430
   0.22529  -0.26359   0.70430
   0.22529  -0.50359   0.70430
   0.22529  -0.26359   0.70430
   0.22529  -0.26359   0.47430
   0.45529  -0.26359   0.70430
   0.45529  -0.26359   0.47430
   0.45529  -0.26359   0.47430
   0.45529  -0.26359   0.47430
   0.45529  -0.26359   0.47430
   0.69529  -0.50359   0.47430
   0.69529  -0.26359   0.23430
   0.69529  -0.26359   0.23430
   0.69529  -0.26359   0.23430
   0.69529  -0.26359   0.23430
   0.69529  -0.26359   0.23430
   0.69529  -0.26359  -0.00570
   0.69529  -0.26359  -0.00570
   0.69529  -0.26359  -0.24570
   0.93529  -0.02359  -0.24570
   0.69529  -0.02359  -0.24570
   0.69529  -0.02359  -0.24570
   0.93529  -0.02359  -0.24570
   0.69529  -0.02359  -0.48570
   0.69529  -0.02359  -0.48570
   0.69529   0.21641  -0.48570
   0.69529  -0.02359  -0.72570
   0.69529  -0.02359  -0.72570
   0.69529  -0.02359  -0.72570
   0.69529  -0.02359  -0.72570
   0.45529  -0.02359  -0.96570
   0.45529  -0.02359  -0.96570
   0.45529  -0.02359  -0.96570
   0.45529  -0.02359  -0.96570
   0.45529  -0.02359  -1.20570
   0.22529  -0.02359  -1.20570
   0.22529  -0.02359  -1.20570
   0.22529  -0.02359  -1.44570
   0.22529  -0.26359  -1.44570
   0.22529  -0.02359  -1.44570
   0.22529  -0.02359  -1.44570
   0.22529  -0.02359  -1.44570
   0.22529   0.21641  -1.44570
  -0.01471   0.21641  -1.68570
  -0.01471   0.21641  -1.68570
  -0.01471   0.21641  -1.68570
  -0.01471   0.21641  -1.68570
  -0.01471   0.45641  -1.92570
   0.22529   0.45641  -1.92570
  -0.01471   0.45641  -1.92570
  -0.01471   0.69641  -1.92570
   0.22529   0.69641  -1.92570
   0.22529   0.69641  -2.16570
  -0.01471   0.69641  -1.92570
  -0.01471   0.69641  -1.92570
  -0.01471   0.69641  -2.16570
  -0.01471   0.69641  -2.16570
  -0.01471   0.69641  -2.16570
  -0.01471   0.69641  -2.16570
  -0.01471   0.45641  -2.16570
  -0.01471   0.69641  -2.16570
  -0.01471   0.45641  -2.16570
  -0.01471   0.45641  -2.16570
  -0.01471   0.45641  -2.16570
  -0.01471   0.45641  -2.16570
  -0.01471   0.45641  -2.16570
  -0.01471   0.45641  -1.92570
  -0.01471   0.45641  -1.92570
  -0.01471   0.21641  -1.92570
  -0.01471   0.21641  -1.92570
  -0.01471   0.21641  -1.68570
  -0.01471   0.21641  -1.68570
  -0.01471  -0.02359  -1.68570
  -0.01471  -0.02359  -1.68570
  -0.01471  -0.02359  -1.44570
  -0.01471  -0.02359  -1.44570
  -0.01471  -0.02359  -1.44570
  -0.01471  -0.26359  -1.20570
  -0.01471  -0.02359  -0.96570
  -0.01471  -0.26359  -0.96570
  -0.01471  -0.26359  -0.96570
  -0.01471  -0.02359  -0.72570
  -0.01471  -0.26359  -0.72570
  -0.01471  -0.26359  -0.48570
  -0.01471  -0.26359  -0.48570
  -0.01471  -0.26359  -0.48570
  -0.01471  -0.26359  -0.24570
   0.22529  -0.26359  -0.24570
   0.22529  -0.26359  -0.00570
   0.22529  -0.26359  -0.00570
   0.22529  -0.02359   0.23430
   0.22529  -0.26359   0.23430
   0.22529  -0.26359   0.23430
   0.22529  -0.26359   0.47430
   0.22529  -0.26359   0.47430
   0.22529  -0.26359   0.47430
   0.45529  -0.02359   0.70430
   0.22529  -0.26359   0.70430
   0.45529  -0.26359   0.70430
   0.45529  -0.02359   0.94430
   0.45529  -0.02359   0.94430
   0.22529  -0.02359   0.94430
   0.22529  -0.02359   0.94430
   0.22529  -0.02359   0.94430
   0.22529  -0.02359   1.18430
   0.22529  -0.02359   1.18430
   0.22529  -0.02359   1.18430
   0.22529  -0.02359   1.18430
   0.22529  -0.02359   1.18430
   0.22529  -0.02359   1.18430
   0.22529   0.21641   1.18430
   0.22529   0.21641   1.42430
   0.22529   0.21641   1.18430
   0.22529   0.21641   1.18430
   0.22529   0.21641   1.18430
   0.22529   0.21641   1.18430
   0.22529   0.21641   1.42430
   0.22529   0.21641   1.42430
   0.22529   0.21641   1.18430
   0.22529   0.21641   1.18430
   0.22529   0.21641   1.18430
   0.22529   0.21641   1.18430
   0.22529   0.21641   1.18430
   0.22529   0.21641   1.18430
   0.22529   0.21641   1.18430
   0.22529   0.21641   0.94430
   0.22529  -0.02359   0.94430
   0.22529   0.21641   0.94430
   0.22529   0.21641   0.94430
   0.45529   0.21641   0.94430
   0.22529   0.21641   0.94430
   0.22529   0.21641   0.94430
   0.45529   0.21641   0.94430
   0.45529   0.21641   0.94430
   0.45529   0.21641   0.94430
   0.45529   0.21641   0.94430
   0.45529   0.21641   0.70430
   0.45529   0.21641   0.94430
   0.45529  -0.02359   0.70430
   0.45529  -0.02359   0.70430
   0.45529  -0.02359   0.70430
   0.22529  -0.02359   0.70430
   0.22529  -0.02359   0.70430
   0.45529  -0.02359   0.70430
   0.22529  -0.02359   0.47430
   0.22529  -0.02359   0.47430
   0.45529  -0.02359   0.47430
   0.22529  -0.02359   0.47430
   0.22529  -0.02359   0.47430
   0.45529  -0.02359   0.47430
   0.22529  -0.02359   0.47430
   0.22529  -0.02359   0.23430
   0.22529  -0.02359   0.47430
   0.22529  -0.02359   0.23430
   0.22529  -0.02359   0.47430
   0.22529  -0.02359   0.47430
   0.22529  -0.02359   0.23430
   0.22529  -0.02359   0.23430
  -0.01471  -0.02359   0.23430
  -0.01471  -0.02359   0.23430
  -0.01471  -0.02359   0.23430
  -0.01471  -0.02359   0.23430
  -0.01471  -0.02359   0.23430
  -0.25471  -0.02359   0.23430
  -0.25471  -0.02359   0.23430
  -0.25471  -0.02359   0.23430
  -0.25471  -0.02359   0.23430
  -0.25471   0.21641  -0.00570
  -0.25471  -0.02359  -0.00570
  -0.25471   0.21641  -0.00570
  -0.25471   0.21641  -0.00570
  -0.25471   0.21641  -0.00570
  -0.49471   0.21641  -0.00570
  -0.49471   0.45641  -0.00570
  -0.49471   0.45641  -0.00570
  -0.49471   0.45641  -0.24570
  -0.49471   0.21641  -0.24570
  -0.49471   0.45641  -0.24570
  -0.49471   0.45641  -0.24570
  -0.49471   0.45641  -0.24570
  -0.49471   0.45641  -0.48570
  -0.49471   0.45641  -0.48570
  -0.49471   0.45641  -0.48570
  -0.49471   0.45641  -0.48570
  -0.49471   0.45641  -0.48570
  -0.25471   0.45641  -0.48570
  -0.25471   0.45641  -0.48570
  -0.25471   0.45641  -0.48570
  -0.01471   0.45641  -0.72570
  -0.01471   0.45641  -0.72570
  -0.01471   0.45641  -0.72570
  -0.01471   0.45641  -0.72570
   0.22529   0.45641  -0.72570
   0.22529   0.21641  -0.72570
   0.22529   0.21641  -0.72570
   0.22529   0.21641  -0.72570
   0.22529   0.21641  -0.72570
   0.45529   0.21641  -0.72570
   0.45529  -0.02359  -0.72570
   0.45529  -0.02359  -0.72570
   0.45529  -0.02359  -0.48570
   0.45529  -0.02359  -0.48570
   0.45529  -0.02359  -0.48570
