********************************************************************************
               CENTRO DE INSTRUMENTACION Y REGISTRO SISMICO  A.C.  
                       Coordinacion de Servicios Tecnicos
     Anaxagoras 814, Col. Narvarte, Benito Juarez, C.P. 03020 Mexico, D.F.
            Tels. 667 45 42/ 687 45  82             Fax. 669 25 12
********************************************************************************
ARCHIVO ESTANDAR DE ACELERACION:
VERSION DEL FORMATO                    : 2.0
NOMBRE DEL ARCHIVO                     : BA490003.121
FECHA Y HORA DE CREACION               : 02/JUN/04, 12:18
REF. CATALOGO ACELEROGRAMAS, SMIS 1996 : REGISTRO No.     /PAG.


================================================================================
DATOS DE LA ESTACION:
NOMBRE DE LA ESTACION                  : BUENOS AIRES
CLAVE DE LA ESTACION                   : BA49
LOCALIZACION DE LA ESTACION            : ESCUELA SECUNDARIA 102, DOCTOR MARQUEZ
                                       : Y EJE CENTRAL, BUENOS AIRES.
                                       :
                                       :
                                       :
COORDENADAS DE LA ESTACION             : 19.410 LAT. N 
                                       : 99.145 LONG. W 
ALTITUD (msnm)                         : 2233
TIPO DE SUELO                          : TERRENO BLANDO, MATERIAL COMPRESIBLE
                                       : (ARCILLAS)
                                       : 
INSTITUCION RESPONSABLE                : CIRES 
                                       :

================================================================================
DATOS DEL ACELEROGRAFO:
MODELO DEL ACELEROGRAFO                : SSA-1
NUMERO DE SERIE DEL ACELEROGRAFO       : 176
NUMERO DE CANALES                      : 3
ORIENTACION C1-C6 (rumbo;orientacion)  : /N00E/+V/N90E
ORIENTACION C7-C12 (rumbo;orientacion) :
VEL. DE MUESTREO, C1-C6 (muestras/s)   : /200/200/200
VEL. DE MUESTREO, C7-C12 (muestras/s)  :
ESC. COMPLETA DE SENSORES, C1-C6, (g)  : /2/2/2
ESC. COMPLETA DE SENSORES, C7-C12, (g) :
FREC. NAT. DE SENSORES, C1-C6, (Hz)    : /52.99/52.03/52.99
FREC. NAT. DE SENSORES, C7-C12, (Hz)   :
AMORTIGUAMIENTO DE SENSORES, C1-C6     : /.5589/.5469/.6096
AMORTIGUAMIENTO DE SENSORES, C7-C12    :
INTERVALO DE MUESTREO, C1-C6, (s)      : /0.005/0.005/0.005
INTERVALO DE MUESTREO, C7-C12, (s)     :
UMBRAL DE DISPARO, C1-C6, (Gal)        : /2/2/2
UMBRAL DE DISPARO, C7-C12, (Gal)       :
MEMORIA DE PREEVENTO (s)               : 15
TIEMPO DE POSEVENTO (s)                : 60


================================================================================
DATOS DEL SISMO:
FECHA DEL SISMO (GMT)                  : 12/MAR/00
HORA EPICENTRO (GMT)                   : 22:21:32,7
MAGNITUD(ES)                           : /Mb=5.5/Ms=5.8/Mc=5.4/Ma=5.8/Me=5.9
COORDENADAS DEL EPICENTRO              : 14.59 LAT. N
                                       : 92.97 LONG. W
PROFUNDIDAD FOCAL (km)                 : 35
FUENTE DE LOS DATOS EPICENTRALES       : SSN
                                       : INSTITUTO DE GEOFISICA, UNAM 

================================================================================
DATOS DE ESTE REGISTRO:
HORA DE LA PRIMERA MUESTRA (GMT)       : 22:25:44.00
EXACTITUD DEL TIEMPO (s)               :     
DURACION DEL REGISTRO (s), C1-C6       : /102.40/102.40/102.40
DURACION DEL REGISTRO (s), C7-C12      :
NUM. TOTAL DE MUESTRAS, C1-C6          : /20480/20480/20480
NUM. TOTAL DE MUESTRAS, C7-C12         :
ACEL. MAX. (Gal), C1-C6                : /1.80140/-0.36188/-2.33570
ACEL. MAX., C1-C6, EN LA MUESTRA       :
ACEL. MAX. (Gal), C7-C12               :
ACEL. MAX., C7-C12, EN LA MUESTRA      :
UNIDADES DE LOS DATOS                  : Gal (cm/s/s)
FACTOR DE DECIMACION                   : 1
FORMATO DATOS (FORTRAN,10 campos/dato) : 3F10.5


================================================================================
CALIDAD DEL ACELEROGRAMA:
REGISTRO DIGITAL COMPLETO, CARECE DE TIEMPO ABSOLUTO.


================================================================================
COMENTARIOS:














================================================================================
DATOS DE ACELERACION:
---------+---------+---------+---------+---------+---------+---------+---------+
   CANAL-1   CANAL-2   CANAL-3   CANAL-4   CANAL-5   CANAL-6   CANAL-7   CANAL-8
      N00E        +V      N90E
---------+---------+---------+---------+---------+---------+---------+---------+
[...]
  -0.11860   0.11813   1.01430
  -0.11860   0.11813   1.01430
   0.12140   0.11813   1.01430
  -0.11860  -0.12188   1.01430
  -0.11860   0.11813   1.01430
   0.12140   0.11813   1.01430
   0.12140   0.11813   1.01430
   0.12140   0.11813   1.25430
   0.12140   0.11813   1.25430
   0.12140   0.11813   1.25430
   0.12140   0.11813   1.25430
   0.12140   0.11813   1.25430
   0.12140   0.11813   1.25430
   0.12140   0.11813   1.49430
   0.12140   0.11813   1.25430
   0.12140   0.11813   1.25430
   0.12140   0.11813   1.49430
   0.12140   0.11813   1.49430
   0.12140   0.11813   1.49430
   0.12140   0.11813   1.49430
   0.12140   0.11813   1.49430
   0.12140   0.11813   1.49430
   0.12140   0.11813   1.49430
   0.12140   0.11813   1.49430
   0.12140   0.11813   1.49430
   0.12140   0.11813   1.73430
   0.36140   0.11813   1.73430
   0.12140   0.11813   1.73430
   0.36140   0.11813   1.73430
   0.36140   0.11813   1.97430
   0.36140   0.11813   1.97430
   0.36140   0.11813   1.97430
   0.36140   0.11813   1.97430
   0.36140   0.11813   1.97430
   0.12140   0.11813   1.97430
   0.36140   0.11813   1.97430
   0.36140   0.11813   1.97430
   0.36140   0.11813   1.97430
   0.36140   0.11813   1.97430
   0.36140   0.11813   1.97430
   0.36140   0.11813   1.97430
   0.36140   0.11813   1.97430
   0.36140   0.11813   2.21430
   0.36140   0.11813   2.21430
   0.36140   0.11813   2.21430
   0.36140   0.11813   2.21430
   0.36140   0.11813   2.21430
   0.36140   0.11813   2.21430
   0.36140   0.11813   2.21430
   0.36140   0.11813   2.21430
   0.36140   0.11813   2.21430
   0.36140  -0.12188   2.21430
   0.36140  -0.12188   2.21430
   0.36140   0.11813   2.21430
   0.36140   0.11813   2.21430
   0.36140   0.11813   2.21430
   0.36140  -0.12188   2.21430
   0.36140   0.11813   2.21430
   0.36140   0.11813   2.21430
   0.36140   0.11813   2.21430
   0.36140   0.11813   2.21430
   0.36140   0.11813   2.21430
   0.36140   0.11813   2.21430
   0.36140   0.11813   2.21430
   0.36140   0.11813   2.21430
   0.36140  -0.12188   2.21430
   0.36140   0.11813   2.21430
   0.36140   0.11813   2.21430
   0.36140   0.11813   2.21430
   0.36140   0.11813   2.21430
   0.36140   0.11813   2.21430
   0.36140   0.11813   2.21430
   0.36140   0.11813   2.21430
   0.36140   0.11813   2.21430
   0.36140   0.11813   2.21430
   0.36140   0.11813   2.21430
   0.36140   0.11813   2.21430
   0.36140   0.11813   2.21430
   0.36140   0.11813   2.21430
   0.36140   0.11813   2.21430
   0.36140  -0.12188   2.21430
   0.36140   0.11813   1.97430
   0.36140  -0.12188   2.21430
   0.36140  -0.12188   2.21430
   0.36140  -0.12188   1.97430
   0.36140   0.11813   2.21430
   0.36140   0.11813   2.21430
   0.12140  -0.12188   2.21430
   0.12140  -0.12188   1.97430
   0.12140  -0.12188   1.97430
   0.12140   0.11813   1.97430
   0.12140  -0.12188   1.97430
   0.36140  -0.12188   1.97430
   0.12140  -0.12188   1.97430
   0.12140   0.11813   1.97430
   0.12140  -0.12188   1.97430
   0.12140  -0.12188   1.97430
   0.12140  -0.12188   1.97430
   0.12140  -0.12188   1.97430
   0.12140  -0.12188   1.73430
   0.12140  -0.12188   1.73430
   0.12140  -0.12188   1.73430
   0.12140  -0.12188   1.73430
  -0.11860  -0.12188   1.73430
  -0.11860  -0.12188   1.73430
  -0.11860  -0.12188   1.73430
  -0.11860  -0.12188   1.73430
  -0.11860  -0.12188   1.73430
  -0.11860  -0.12188   1.49430
  -0.11860  -0.12188   1.49430
  -0.11860  -0.12188   1.49430
  -0.11860  -0.12188   1.49430
  -0.11860  -0.12188   1.49430
  -0.11860  -0.12188   1.49430
  -0.11860  -0.12188   1.49430
  -0.11860  -0.12188   1.49430
  -0.11860  -0.12188   1.25430
  -0.11860  -0.12188   1.49430
  -0.11860  -0.12188   1.25430
  -0.11860  -0.12188   1.25430
  -0.35860  -0.12188   1.25430
  -0.11860  -0.12188   1.25430
  -0.11860  -0.12188   1.25430
  -0.11860  -0.12188   1.25430
  -0.35860  -0.36188   1.25430
  -0.35860  -0.12188   1.25430
  -0.35860  -0.12188   1.01430
  -0.35860  -0.12188   1.01430
  -0.35860  -0.12188   1.01430
  -0.35860  -0.12188   1.01430
  -0.35860  -0.36188   1.01430
  -0.35860  -0.12188   1.01430
  -0.35860  -0.36188   1.01430
  -0.35860  -0.12188   1.01430
  -0.35860  -0.36188   1.01430
  -0.35860  -0.36188   0.77430
  -0.35860  -0.36188   0.77430
  -0.35860  -0.36188   0.77430
  -0.35860  -0.36188   0.77430
  -0.35860  -0.36188   0.77430
  -0.35860  -0.36188   0.77430
  -0.35860  -0.36188   0.77430
  -0.35860  -0.36188   0.77430
  -0.35860  -0.36188   0.77430
  -0.35860  -0.36188   0.77430
  -0.35860  -0.36188   0.77430
  -0.35860  -0.12188   0.77430
  -0.35860  -0.36188   0.53430
  -0.35860  -0.36188   0.53430
  -0.35860  -0.36188   0.53430
  -0.35860  -0.36188   0.53430
  -0.35860  -0.36188   0.53430
  -0.35860  -0.36188   0.53430
  -0.35860  -0.12188   0.53430
  -0.35860  -0.12188   0.53430
  -0.59860  -0.12188   0.53430
  -0.35860  -0.36188   0.53430
  -0.35860  -0.12188   0.53430
  -0.35860  -0.12188   0.53430
  -0.35860  -0.12188   0.53430
  -0.35860  -0.12188   0.29430
  -0.35860  -0.12188   0.53430
  -0.35860  -0.12188   0.53430
  -0.35860  -0.12188   0.53430
  -0.35860  -0.12188   0.53430
  -0.35860  -0.12188   0.29430
  -0.35860  -0.12188   0.29430
  -0.35860  -0.12188   0.29430
  -0.35860  -0.12188   0.29430
  -0.35860  -0.12188   0.29430
  -0.35860  -0.12188   0.29430
  -0.35860  -0.12188   0.29430
  -0.35860  -0.12188   0.29430
  -0.35860  -0.36188   0.29430
  -0.35860  -0.12188   0.29430
  -0.35860  -0.12188   0.29430
  -0.35860  -0.12188   0.29430
  -0.35860  -0.12188   0.29430
  -0.35860  -0.12188   0.29430
  -0.35860  -0.12188   0.29430
  -0.35860  -0.12188   0.29430
  -0.35860  -0.12188   0.29430
  -0.35860  -0.12188   0.29430
  -0.35860  -0.12188   0.29430
  -0.35860  -0.12188   0.29430
  -0.35860  -0.12188   0.29430
  -0.35860  -0.12188   0.29430
  -0.35860  -0.12188   0.29430
  -0.35860  -0.12188   0.29430
  -0.35860  -0.12188   0.29430
  -0.35860  -0.12188   0.29430
  -0.35860  -0.12188   0.29430
  -0.35860  -0.12188   0.29430
  -0.35860  -0.12188   0.29430
  -0.35860  -0.12188   0.29430
  -0.35860  -0.12188   0.29430
  -0.35860  -0.12188   0.29430
  -0.35860  -0.36188   0.29430
  -0.35860  -0.12188   0.05430
  -0.35860  -0.12188   0.29430
  -0.35860  -0.12188   0.05430
  -0.35860  -0.12188   0.05430
  -0.35860  -0.12188   0.05430
  -0.35860  -0.12188   0.05430
  -0.35860  -0.12188   0.05430
  -0.11860  -0.12188   0.05430
  -0.35860  -0.12188   0.05430
  -0.11860  -0.12188   0.05430
  -0.35860  -0.12188   0.05430
  -0.11860  -0.12188   0.05430
  -0.11860  -0.12188   0.05430
  -0.11860  -0.12188   0.05430
  -0.11860  -0.12188   0.05430
  -0.11860  -0.12188   0.05430
  -0.11860  -0.12188   0.05430
  -0.11860  -0.12188   0.05430
  -0.11860  -0.12188   0.05430
  -0.11860  -0.12188   0.05430
  -0.11860  -0.12188   0.05430
  -0.11860  -0.12188   0.05430
  -0.11860  -0.12188   0.05430
  -0.11860  -0.12188   0.29430
  -0.11860  -0.12188   0.05430
  -0.11860  -0.12188   0.05430
  -0.11860  -0.12188   0.05430
  -0.11860  -0.12188   0.05430
  -0.11860  -0.36188   0.05430
  -0.11860  -0.12188   0.05430
  -0.11860  -0.12188   0.05430
  -0.11860  -0.12188   0.05430
  -0.11860  -0.12188   0.05430
  -0.11860  -0.12188   0.05430
  -0.11860   0.11813   0.05430
  -0.11860  -0.12188   0.05430
  -0.11860   0.11813   0.05430
  -0.11860   0.11813   0.05430
  -0.11860  -0.12188   0.05430
  -0.11860   0.11813   0.05430
  -0.11860  -0.12188   0.05430
  -0.11860  -0.12188   0.05430
  -0.11860  -0.12188   0.05430
  -0.11860   0.11813  -0.18570
  -0.11860   0.11813  -0.18570
  -0.11860  -0.12188  -0.18570
  -0.11860   0.11813  -0.18570
  -0.11860   0.11813  -0.18570
  -0.11860   0.11813  -0.18570
  -0.11860   0.11813  -0.18570
  -0.11860   0.11813  -0.18570
  -0.11860   0.11813  -0.18570
  -0.11860   0.11813  -0.18570
  -0.11860  -0.12188  -0.18570
  -0.11860   0.11813  -0.18570
  -0.11860   0.11813  -0.41570
  -0.11860   0.11813  -0.41570
  -0.11860   0.11813  -0.41570
  -0.11860   0.11813  -0.41570
  -0.11860   0.11813  -0.41570
  -0.11860   0.11813  -0.41570
  -0.11860   0.11813  -0.41570
  -0.11860   0.11813  -0.41570
  -0.11860   0.11813  -0.41570
  -0.11860   0.11813  -0.41570
  -0.11860   0.11813  -0.41570
  -0.11860   0.11813  -0.41570
  -0.11860   0.11813  -0.65570
  -0.11860   0.11813  -0.65570
  -0.11860   0.11813  -0.65570
  -0.11860   0.11813  -0.65570
  -0.11860   0.11813  -0.65570
  -0.11860   0.11813  -0.65570
   0.12140   0.11813  -0.65570
   0.12140   0.11813  -0.89570
   0.12140   0.11813  -0.65570
   0.12140   0.35813  -0.89570
   0.12140   0.35813  -0.89570
   0.12140   0.11813  -0.89570
   0.12140   0.11813  -0.89570
   0.12140   0.11813  -0.89570
   0.12140   0.11813  -0.89570
   0.12140   0.11813  -0.89570
   0.12140   0.11813  -0.89570
  -0.11860   0.11813  -0.89570
   0.12140   0.11813  -0.89570
   0.12140   0.11813  -1.13570
   0.12140   0.11813  -1.13570
   0.12140   0.11813  -1.13570
   0.12140   0.35813  -1.13570
   0.12140   0.11813  -1.13570
   0.12140   0.11813  -1.13570
   0.12140   0.11813  -1.13570
   0.12140   0.11813  -1.13570
   0.12140   0.11813  -1.13570
   0.12140   0.35813  -1.13570
   0.12140   0.11813  -1.37570
   0.12140   0.35813  -1.37570
   0.12140   0.11813  -1.37570
   0.12140   0.11813  -1.37570
   0.12140   0.11813  -1.37570
   0.36140   0.35813  -1.37570
   0.12140   0.11813  -1.61570
   0.36140   0.11813  -1.37570
   0.12140   0.35813  -1.37570
   0.36140   0.35813  -1.37570
   0.12140   0.11813  -1.37570
   0.36140   0.35813  -1.61570
   0.36140   0.35813  -1.61570
   0.36140   0.35813  -1.61570
   0.12140   0.11813  -1.61570
   0.36140   0.11813  -1.61570
   0.36140   0.11813  -1.61570
   0.36140   0.35813  -1.61570
   0.12140   0.35813  -1.61570
   0.36140   0.35813  -1.61570
   0.36140   0.35813  -1.61570
   0.36140   0.35813  -1.61570
   0.36140   0.35813  -1.85570
   0.36140   0.35813  -1.85570
   0.36140   0.35813  -1.85570
   0.36140   0.35813  -1.85570
   0.36140   0.11813  -1.85570
   0.12140   0.35813  -1.85570
   0.36140   0.35813  -1.85570
   0.36140   0.35813  -1.85570
   0.12140   0.35813  -1.85570
   0.36140   0.35813  -2.09570
   0.12140   0.35813  -1.85570
   0.36140   0.35813  -2.09570
   0.36140   0.35813  -1.85570
   0.12140   0.35813  -2.09570
   0.36140   0.35813  -1.85570
   0.12140   0.35813  -2.09570
   0.12140   0.11813  -2.09570
   0.36140   0.35813  -2.09570
   0.36140   0.35813  -2.09570
   0.12140   0.35813  -2.09570
   0.12140   0.35813  -2.09570
   0.12140   0.35813  -2.09570
   0.12140   0.35813  -2.09570
   0.12140   0.35813  -2.09570
   0.12140   0.35813  -2.09570
   0.12140   0.35813  -2.09570
   0.12140   0.35813  -2.09570
   0.12140   0.35813  -2.09570
   0.12140   0.11813  -2.09570
   0.12140   0.11813  -2.09570
   0.12140   0.35813  -2.09570
   0.12140   0.11813  -2.09570
   0.12140   0.35813  -2.33570
   0.12140   0.35813  -2.33570
   0.12140   0.11813  -2.33570
   0.12140   0.11813  -2.33570
   0.12140   0.11813  -2.33570
   0.12140   0.11813  -2.33570
   0.12140   0.35813  -2.33570
   0.12140   0.35813  -2.33570
   0.12140   0.35813  -2.09570
   0.12140   0.35813  -2.33570
   0.12140   0.11813  -2.33570
   0.12140   0.11813  -2.33570
   0.12140   0.11813  -2.09570
   0.12140   0.11813  -2.33570
   0.12140   0.11813  -2.09570
   0.12140   0.11813  -2.09570
   0.12140   0.11813  -2.09570
   0.12140   0.11813  -2.09570
   0.36140   0.11813  -2.09570
   0.12140   0.35813  -2.09570
   0.12140   0.11813  -2.09570
   0.12140   0.11813  -2.09570
   0.12140   0.11813  -2.09570
   0.36140   0.11813  -2.09570
   0.12140   0.11813  -2.09570
   0.12140   0.11813  -2.09570
   0.12140   0.11813  -1.85570
   0.36140   0.11813  -2.09570
   0.36140   0.11813  -2.09570
   0.36140   0.11813  -2.09570
   0.36140   0.11813  -2.09570
   0.36140   0.11813  -2.09570
   0.36140   0.11813  -2.09570
   0.36140   0.11813  -2.09570
   0.36140   0.11813  -1.85570
   0.12140   0.11813  -1.85570
   0.36140  -0.12188  -1.85570
   0.36140   0.11813  -1.85570
   0.36140   0.11813  -1.85570
   0.36140   0.11813  -1.85570
   0.36140   0.11813  -1.85570
   0.36140  -0.12188  -1.85570
   0.36140  -0.12188  -1.85570
   0.36140  -0.12188  -1.85570
   0.36140  -0.12188  -1.61570
   0.36140  -0.12188  -1.61570
   0.36140  -0.12188  -1.61570
   0.36140  -0.12188  -1.61570
   0.36140  -0.12188  -1.61570
   0.36140  -0.12188  -1.61570
   0.36140  -0.12188  -1.61570
   0.36140  -0.12188  -1.37570
   0.36140  -0.12188  -1.37570
   0.36140  -0.12188  -1.37570
   0.36140  -0.12188  -1.37570
   0.36140  -0.12188  -1.37570
   0.36140  -0.12188  -1.37570
   0.36140  -0.12188  -1.37570
   0.36140  -0.12188  -1.13570
   0.36140  -0.12188  -1.13570
   0.36140  -0.12188  -1.13570
   0.36140  -0.12188  -1.13570
   0.36140  -0.12188  -1.13570
   0.36140  -0.12188  -1.13570
   0.36140  -0.12188  -0.89570
   0.36140  -0.12188  -0.89570
   0.36140  -0.12188  -0.89570
   0.36140  -0.12188  -0.89570
   0.36140  -0.12188  -0.89570
   0.36140  -0.12188  -0.89570
   0.36140  -0.12188  -0.89570
   0.36140  -0.12188  -0.65570
   0.36140  -0.12188  -0.65570
   0.36140  -0.12188  -0.65570
   0.36140  -0.12188  -0.65570
   0.36140  -0.12188  -0.65570
   0.36140  -0.12188  -0.65570
   0.36140  -0.12188  -0.41570
   0.36140  -0.12188  -0.41570
   0.36140  -0.12188  -0.41570
   0.36140  -0.12188  -0.41570
   0.36140  -0.12188  -0.41570
   0.36140  -0.12188  -0.41570
   0.36140  -0.12188  -0.18570
   0.36140  -0.12188  -0.18570
   0.36140  -0.36188  -0.18570
   0.36140  -0.12188  -0.18570
   0.36140  -0.12188  -0.18570
   0.36140  -0.12188  -0.18570
   0.36140  -0.12188   0.05430
   0.36140  -0.12188   0.05430
   0.36140  -0.12188   0.05430
   0.36140  -0.12188   0.05430
   0.36140  -0.12188   0.05430
   0.36140  -0.36188   0.05430
   0.36140  -0.12188   0.05430
   0.36140  -0.12188   0.05430
   0.36140  -0.12188   0.05430
   0.36140  -0.12188   0.05430
   0.36140  -0.12188   0.29430
   0.36140  -0.12188   0.29430
   0.36140  -0.12188   0.29430
   0.36140  -0.12188   0.29430
   0.36140  -0.12188   0.29430
   0.36140  -0.36188   0.29430
   0.36140  -0.12188   0.29430
   0.36140  -0.12188   0.29430
   0.36140  -0.12188   0.53430
   0.36140  -0.12188   0.29430
   0.36140  -0.12188   0.53430
   0.36140  -0.12188   0.53430
   0.36140  -0.12188   0.53430
   0.36140  -0.12188   0.53430
   0.36140  -0.12188   0.53430
   0.36140   0.11813   0.53430
   0.36140  -0.12188   0.77430
   0.36140  -0.12188   0.53430
   0.36140  -0.12188   0.77430
   0.36140  -0.12188   0.77430
   0.36140  -0.12188   0.77430
   0.36140  -0.12188   0.77430
   0.12140  -0.12188   0.77430
   0.36140  -0.12188   0.77430
   0.12140  -0.12188   0.77430
   0.12140  -0.12188   0.77430
   0.12140  -0.12188   1.01430
   0.12140  -0.12188   1.01430
   0.12140  -0.12188   1.01430
   0.12140  -0.12188   1.01430
   0.12140  -0.12188   0.77430
   0.12140  -0.12188   1.01430
   0.12140  -0.12188   1.01430
   0.12140  -0.12188   1.01430
   0.12140   0.11813   1.01430
   0.12140  -0.12188   1.01430
   0.12140  -0.12188   1.01430
   0.12140  -0.12188   1.01430
   0.12140  -0.12188   1.01430
   0.12140   0.11813   1.01430
   0.12140  -0.12188   1.01430
  -0.11860   0.11813   1.25430
  -0.11860   0.11813   1.01430
  -0.11860  -0.12188   1.01430
  -0.11860   0.11813   1.25430
  -0.11860  -0.12188   1.25430
  -0.11860   0.11813   1.01430
  -0.11860  -0.12188   1.25430
  -0.11860   0.11813   1.25430
  -0.11860   0.11813   1.25430
  -0.11860   0.11813   1.25430
