********************************************************************************
               CENTRO DE INSTRUMENTACION Y REGISTRO SISMICO  A.C.  
                       Coordinacion de Servicios Tecnicos
     Anaxagoras 814, Col. Narvarte, Benito Juarez, C.P. 03020 Mexico, D.F.
            Tels. 667 45 42/ 687 45  82             Fax. 669 25 12
********************************************************************************
ARCHIVO ESTANDAR DE ACELERACION:
VERSION DEL FORMATO                    : 2.0
NOMBRE DEL ARCHIVO                     : BA490101.131
FECHA Y HORA DE CREACION               : 02/JUN/04, 13:20
REF. CATALOGO ACELEROGRAMAS, SMIS 1996 : REGISTRO No.     /PAG.


================================================================================
DATOS DE LA ESTACION:
NOMBRE DE LA ESTACION                  : BUENOS AIRES
CLAVE DE LA ESTACION                   : BA49
LOCALIZACION DE LA ESTACION            : ESCUELA SECUNDARIA 102, DOCTOR MARQUEZ
                                       : Y EJE CENTRAL, BUENOS AIRES.
                                       :
                                       :
                                       :
COORDENADAS DE LA ESTACION             : 19.410 LAT. N 
                                       : 99.145 LONG. W 
ALTITUD (msnm)                         : 2233
TIPO DE SUELO                          : TERRENO BLANDO, MATERIAL COMPRESIBLE
                                       : (ARCILLAS)
                                       : 
INSTITUCION RESPONSABLE                : CIRES 
                                       :

================================================================================
DATOS DEL ACELEROGRAFO:
MODELO DEL ACELEROGRAFO                : SSA-1
NUMERO DE SERIE DEL ACELEROGRAFO       : 176
NUMERO DE CANALES                      : 3
ORIENTACION C1-C6 (rumbo;orientacion)  : /N00E/+V/N90E
ORIENTACION C7-C12 (rumbo;orientacion) :
VEL. DE MUESTREO, C1-C6 (muestras/s)   : /200/200/200
VEL. DE MUESTREO, C7-C12 (muestras/s)  :
ESC. COMPLETA DE SENSORES, C1-C6, (g)  : /2/2/2
ESC. COMPLETA DE SENSORES, C7-C12, (g) :
FREC. NAT. DE SENSORES, C1-C6, (Hz)    : /52.99/52.03/52.99
FREC. NAT. DE SENSORES, C7-C12, (Hz)   :
AMORTIGUAMIENTO DE SENSORES, C1-C6     : /.5589/.5469/.6096
AMORTIGUAMIENTO DE SENSORES, C7-C12    :
INTERVALO DE MUESTREO, C1-C6, (s)      : /0.005/0.005/0.005
INTERVALO DE MUESTREO, C7-C12, (s)     :
UMBRAL DE DISPARO, C1-C6, (Gal)        : /2/2/2
UMBRAL DE DISPARO, C7-C12, (Gal)       :
MEMORIA DE PREEVENTO (s)               : 15
TIEMPO DE POSEVENTO (s)                : 60


================================================================================
DATOS DEL SISMO:
FECHA DEL SISMO (GMT)                  : 13/ENE/01
HORA EPICENTRO (GMT)                   : 17:33:46,0
MAGNITUD(ES)                           : /Mc=7.6
COORDENADAS DEL EPICENTRO              : 13.15 LAT. N
                                       : 89.94 LONG. W
PROFUNDIDAD FOCAL (km)                 : 10
FUENTE DE LOS DATOS EPICENTRALES       : SSN
                                       : INSTITUTO DE GEOFISICA, UNAM 

================================================================================
DATOS DE ESTE REGISTRO:
HORA DE LA PRIMERA MUESTRA (GMT)       : 17:39:34.00
EXACTITUD DEL TIEMPO (s)               :     
DURACION DEL REGISTRO (s), C1-C6       : /249.60/249.60/249.60
DURACION DEL REGISTRO (s), C7-C12      :
NUM. TOTAL DE MUESTRAS, C1-C6          : /49920/49920/49920
NUM. TOTAL DE MUESTRAS, C7-C12         :
ACEL. MAX. (Gal), C1-C6                : /4.95744/1.07910/6.28837
ACEL. MAX., C1-C6, EN LA MUESTRA       :
ACEL. MAX. (Gal), C7-C12               :
ACEL. MAX., C7-C12, EN LA MUESTRA      :
UNIDADES DE LOS DATOS                  : Gal (cm/s/s)
FACTOR DE DECIMACION                   : 1
FORMATO DATOS (FORTRAN,10 campos/dato) : 3F10.5


================================================================================
CALIDAD DEL ACELEROGRAMA:
REGISTRO DIGITAL COMPLETO, CARECE DE TIEMPO ABSOLUTO.


================================================================================
COMENTARIOS:














================================================================================
DATOS DE ACELERACION:
---------+---------+---------+---------+---------+---------+---------+---------+
   CANAL-1   CANAL-2   CANAL-3   CANAL-4   CANAL-5   CANAL-6   CANAL-7   CANAL-8
      N00E        +V      N90E
---------+---------+---------+---------+---------+---------+---------+---------+
[...]
   2.79744   0.11910  -2.33163
   2.79744   0.11910  -2.33163
   2.79744   0.11910  -2.33163
   2.79744   0.11910  -2.57163
   2.79744   0.11910  -2.57163
   2.79744   0.11910  -2.57163
   2.79744   0.11910  -2.57163
   2.79744   0.11910  -2.57163
   2.79744   0.35910  -2.81163
   2.79744   0.35910  -2.81163
   2.79744   0.11910  -2.81163
   2.79744   0.11910  -2.81163
   2.79744   0.11910  -3.05163
   2.79744   0.11910  -3.05163
   2.79744   0.11910  -3.05163
   2.79744   0.11910  -3.05163
   2.79744   0.11910  -3.05163
   2.79744   0.11910  -3.05163
   2.79744  -0.12090  -3.05163
   2.79744   0.11910  -3.05163
   2.79744   0.11910  -3.29163
   2.79744   0.11910  -3.29163
   2.79744   0.11910  -3.29163
   2.79744   0.11910  -3.29163
   2.79744   0.11910  -3.29163
   2.79744   0.11910  -3.53163
   2.79744   0.11910  -3.53163
   2.79744   0.35910  -3.53163
   3.03744   0.11910  -3.53163
   2.79744   0.11910  -3.53163
   2.79744   0.35910  -3.53163
   3.03744   0.35910  -3.77163
   2.79744   0.11910  -3.77163
   2.79744   0.11910  -3.77163
   2.79744   0.35910  -3.77163
   3.03744   0.11910  -3.77163
   2.79744   0.11910  -3.77163
   3.03744   0.11910  -3.77163
   3.03744   0.11910  -3.77163
   3.03744   0.11910  -4.01163
   3.03744   0.11910  -4.01163
   3.03744   0.11910  -4.01163
   3.03744   0.35910  -4.01163
   3.03744   0.35910  -4.01163
   3.03744   0.35910  -4.25163
   3.03744   0.11910  -4.01163
   2.79744   0.11910  -4.25163
   3.03744   0.11910  -4.25163
   3.03744   0.11910  -4.25163
   3.03744   0.11910  -4.25163
   3.03744   0.35910  -4.25163
   3.03744   0.11910  -4.25163
   3.03744   0.35910  -4.25163
   3.03744   0.11910  -4.25163
   3.03744   0.11910  -4.49163
   3.03744   0.11910  -4.49163
   3.03744   0.35910  -4.49163
   3.03744   0.11910  -4.49163
   3.03744   0.11910  -4.49163
   3.03744   0.11910  -4.49163
   3.03744   0.11910  -4.49163
   3.03744   0.11910  -4.49163
   3.03744   0.11910  -4.49163
   3.03744   0.11910  -4.49163
   3.03744   0.11910  -4.49163
   3.03744   0.11910  -4.49163
   3.03744   0.11910  -4.49163
   3.03744   0.11910  -4.73163
   3.03744   0.11910  -4.73163
   3.03744   0.11910  -4.73163
   3.03744   0.11910  -4.73163
   3.03744   0.11910  -4.73163
   3.03744   0.35910  -4.73163
   2.79744   0.11910  -4.73163
   2.79744   0.11910  -4.73163
   3.03744   0.11910  -4.73163
   3.03744   0.35910  -4.73163
   3.03744   0.35910  -4.73163
   2.79744   0.35910  -4.73163
   3.03744   0.35910  -4.97163
   3.03744   0.11910  -4.97163
   3.03744   0.11910  -4.97163
   3.03744   0.35910  -4.73163
   3.03744   0.35910  -4.73163
   2.79744   0.11910  -4.97163
   3.03744   0.35910  -4.73163
   2.79744   0.11910  -4.97163
   2.79744   0.35910  -4.97163
   2.79744   0.35910  -4.97163
   2.79744   0.35910  -4.97163
   2.79744   0.35910  -4.97163
   2.79744   0.11910  -4.97163
   2.79744   0.35910  -4.97163
   2.79744   0.11910  -4.97163
   2.79744   0.35910  -4.97163
   2.79744   0.35910  -4.97163
   2.79744   0.11910  -4.97163
   2.79744   0.11910  -4.97163
   2.79744   0.35910  -4.97163
   2.79744   0.11910  -4.97163
   2.79744   0.11910  -4.97163
   2.79744   0.11910  -4.97163
   2.79744   0.11910  -4.97163
   2.79744   0.11910  -4.97163
   2.79744   0.35910  -4.97163
   2.79744   0.35910  -4.97163
   2.79744   0.11910  -4.97163
   2.79744   0.11910  -5.21163
   2.79744   0.11910  -4.97163
   2.79744   0.11910  -4.97163
   2.79744   0.11910  -5.21163
   2.79744   0.11910  -4.97163
   2.79744   0.11910  -4.97163
   2.79744   0.11910  -4.97163
   2.79744   0.11910  -4.97163
   2.79744   0.11910  -4.97163
   2.56744   0.11910  -4.97163
   2.56744   0.11910  -4.97163
   2.56744   0.11910  -4.97163
   2.56744   0.35910  -4.97163
   2.56744   0.11910  -4.97163
   2.56744   0.11910  -4.97163
   2.56744   0.11910  -4.97163
   2.56744   0.35910  -4.97163
   2.56744   0.11910  -4.97163
   2.56744   0.35910  -4.97163
   2.56744   0.35910  -4.97163
   2.56744   0.11910  -4.97163
   2.56744   0.35910  -4.97163
   2.56744   0.11910  -4.97163
   2.32744   0.11910  -4.97163
   2.56744   0.11910  -4.97163
   2.32744   0.11910  -4.97163
   2.32744   0.11910  -4.97163
   2.32744   0.11910  -4.97163
   2.32744   0.11910  -4.97163
   2.32744   0.11910  -4.97163
   2.32744   0.11910  -4.73163
   2.32744   0.11910  -4.73163
   2.32744   0.35910  -4.73163
   2.32744   0.35910  -4.73163
   2.32744   0.35910  -4.73163
   2.32744   0.11910  -4.73163
   2.32744   0.35910  -4.73163
   2.08744   0.11910  -4.73163
   2.08744   0.35910  -4.73163
   2.08744   0.11910  -4.73163
   2.08744   0.35910  -4.73163
   2.08744   0.35910  -4.73163
   2.08744   0.11910  -4.73163
   1.84744   0.35910  -4.49163
   2.08744   0.11910  -4.49163
   2.08744   0.11910  -4.49163
   2.08744   0.11910  -4.49163
   2.08744   0.11910  -4.49163
   2.08744   0.11910  -4.49163
   1.84744   0.11910  -4.49163
   1.84744   0.35910  -4.25163
   1.84744   0.11910  -4.25163
   1.84744   0.35910  -4.25163
   1.84744   0.35910  -4.25163
   1.84744   0.11910  -4.25163
   1.84744   0.11910  -4.25163
   1.84744   0.35910  -4.25163
   1.60744   0.35910  -4.01163
   1.60744   0.11910  -4.01163
   1.60744   0.35910  -4.01163
   1.60744   0.11910  -4.01163
   1.60744   0.35910  -4.01163
   1.60744   0.35910  -3.77163
   1.36744   0.35910  -3.77163
   1.36744   0.11910  -3.77163
   1.36744   0.35910  -3.77163
   1.36744   0.35910  -3.77163
   1.36744   0.11910  -3.77163
   1.36744   0.35910  -3.77163
   1.36744   0.35910  -3.53163
   1.36744   0.35910  -3.53163
   1.12744   0.35910  -3.53163
   1.12744   0.11910  -3.53163
   1.12744   0.35910  -3.29163
   1.12744   0.35910  -3.29163
   1.12744   0.35910  -3.29163
   0.88744   0.35910  -3.29163
   0.88744   0.11910  -3.29163
   0.88744   0.35910  -3.29163
   0.88744   0.35910  -3.05163
   0.88744   0.11910  -3.05163
   0.64744   0.11910  -3.05163
   0.64744   0.11910  -3.05163
   0.64744   0.11910  -2.81163
   0.64744   0.11910  -2.81163
   0.64744   0.11910  -2.81163
   0.64744   0.11910  -2.57163
   0.64744   0.35910  -2.57163
   0.40744   0.11910  -2.57163
   0.40744   0.35910  -2.57163
   0.40744   0.35910  -2.57163
   0.40744   0.35910  -2.33163
   0.40744   0.35910  -2.33163
   0.16744   0.35910  -2.33163
   0.16744   0.35910  -2.33163
   0.16744   0.11910  -2.33163
   0.16744   0.35910  -2.09163
  -0.07256   0.35910  -2.09163
  -0.07256   0.11910  -2.09163
  -0.07256   0.11910  -2.09163
  -0.07256   0.35910  -1.85163
  -0.07256   0.11910  -1.85163
  -0.07256   0.11910  -1.85163
  -0.31256   0.35910  -1.61163
  -0.31256   0.35910  -1.61163
  -0.31256   0.35910  -1.61163
  -0.31256   0.35910  -1.61163
  -0.55256   0.35910  -1.61163
  -0.55256   0.11910  -1.38163
  -0.55256   0.35910  -1.38163
  -0.55256   0.35910  -1.38163
  -0.55256   0.35910  -1.14163
  -0.79256   0.11910  -1.14163
  -0.79256   0.11910  -1.14163
  -0.79256   0.35910  -1.14163
  -0.79256   0.35910  -0.90163
  -1.03256   0.11910  -0.90163
  -1.03256   0.35910  -0.90163
  -1.03256   0.35910  -0.90163
  -1.03256   0.11910  -0.66163
  -1.27256   0.11910  -0.66163
  -1.27256   0.11910  -0.42163
  -1.27256   0.11910  -0.42163
  -1.27256   0.11910  -0.42163
  -1.27256   0.11910  -0.42163
  -1.51256   0.11910  -0.18163
  -1.51256  -0.12090  -0.18163
  -1.51256   0.11910  -0.18163
  -1.51256   0.11910   0.05837
  -1.51256   0.11910   0.05837
  -1.51256   0.11910   0.05837
  -1.75256   0.11910   0.29837
  -1.75256   0.11910   0.29837
  -1.75256   0.11910   0.29837
  -1.75256   0.11910   0.29837
  -1.99256   0.11910   0.53837
  -1.99256   0.11910   0.53837
  -1.99256   0.11910   0.53837
  -1.99256  -0.12090   0.77837
  -1.99256   0.11910   0.77837
  -1.99256   0.11910   0.77837
  -2.22256  -0.12090   0.77837
  -2.22256  -0.12090   1.01837
  -2.22256  -0.12090   1.01837
  -2.22256   0.11910   1.01837
  -2.22256   0.11910   1.01837
  -2.46256   0.11910   1.25837
  -2.46256   0.11910   1.25837
  -2.46256  -0.12090   1.25837
  -2.46256  -0.12090   1.49837
  -2.46256  -0.12090   1.49837
  -2.70256  -0.12090   1.73837
  -2.70256   0.11910   1.73837
  -2.70256  -0.12090   1.73837
  -2.70256  -0.12090   1.73837
  -2.70256   0.11910   1.97837
  -2.70256  -0.12090   1.97837
  -2.94256  -0.12090   1.97837
  -2.94256  -0.12090   1.97837
  -2.94256   0.11910   1.97837
  -2.94256  -0.12090   2.21837
  -2.94256  -0.12090   2.21837
  -3.18256  -0.12090   2.21837
  -2.94256  -0.12090   2.45837
  -3.18256  -0.12090   2.45837
  -3.18256  -0.12090   2.45837
  -3.18256  -0.12090   2.69837
  -3.18256  -0.12090   2.69837
  -3.18256  -0.12090   2.69837
  -3.42256  -0.12090   2.93837
  -3.42256  -0.12090   2.93837
  -3.42256  -0.12090   2.93837
  -3.42256  -0.12090   3.17837
  -3.42256  -0.12090   3.17837
  -3.42256   0.11910   3.17837
  -3.42256  -0.12090   3.17837
  -3.66256   0.11910   3.40837
  -3.66256  -0.12090   3.40837
  -3.66256  -0.12090   3.40837
  -3.66256  -0.12090   3.40837
  -3.66256  -0.12090   3.40837
  -3.66256  -0.12090   3.64837
  -3.66256  -0.36090   3.64837
  -3.66256  -0.36090   3.64837
  -3.90256  -0.36090   3.64837
  -3.90256  -0.12090   3.88837
  -3.90256  -0.12090   3.88837
  -3.90256  -0.36090   3.88837
  -3.90256  -0.12090   4.12837
  -3.90256  -0.36090   4.12837
  -4.14256  -0.12090   4.12837
  -3.90256  -0.12090   4.36837
  -3.90256  -0.36090   4.36837
  -3.90256  -0.12090   4.36837
  -4.14256  -0.36090   4.36837
  -4.14256  -0.12090   4.36837
  -4.14256  -0.36090   4.60837
  -4.14256  -0.36090   4.60837
  -4.14256  -0.36090   4.60837
  -4.14256  -0.12090   4.60837
  -4.14256  -0.12090   4.60837
  -4.14256  -0.12090   4.84837
  -4.14256  -0.12090   4.84837
  -4.14256  -0.12090   4.84837
  -4.14256  -0.36090   4.84837
  -4.14256  -0.36090   4.84837
  -4.14256  -0.12090   5.08837
  -4.14256  -0.12090   5.08837
  -4.14256  -0.60090   5.08837
  -4.14256  -0.36090   5.08837
  -4.14256  -0.36090   5.08837
  -4.14256  -0.12090   5.08837
  -4.38256  -0.36090   5.32837
  -4.14256  -0.12090   5.32837
  -4.38256  -0.36090   5.32837
  -4.38256  -0.12090   5.56837
  -4.38256  -0.60090   5.32837
  -4.38256  -0.36090   5.56837
  -4.38256  -0.36090   5.56837
  -4.38256  -0.36090   5.56837
  -4.38256  -0.12090   5.56837
  -4.38256  -0.36090   5.56837
  -4.14256  -0.36090   5.56837
  -4.14256  -0.12090   5.80837
  -4.14256  -0.36090   5.80837
  -4.14256  -0.36090   5.80837
  -4.38256  -0.36090   5.80837
  -4.38256  -0.36090   5.80837
  -4.14256  -0.36090   5.80837
  -4.38256  -0.36090   5.80837
  -4.38256  -0.36090   5.80837
  -4.14256  -0.12090   6.04837
  -4.14256  -0.12090   5.80837
  -4.14256  -0.36090   5.80837
  -4.14256  -0.36090   6.04837
  -4.14256  -0.36090   6.04837
  -4.14256  -0.60090   6.04837
  -4.14256  -0.12090   6.04837
  -4.14256  -0.36090   6.04837
  -4.14256  -0.36090   6.04837
  -4.14256  -0.36090   6.04837
  -4.14256  -0.36090   6.28837
  -4.14256  -0.36090   6.04837
  -3.90256  -0.12090   6.04837
  -4.14256  -0.36090   6.04837
  -3.90256  -0.12090   6.04837
  -3.90256  -0.36090   6.04837
  -3.90256  -0.36090   6.04837
  -3.90256  -0.36090   6.04837
  -3.90256  -0.36090   6.04837
  -3.90256  -0.36090   6.28837
  -3.90256  -0.36090   6.28837
  -3.90256  -0.36090   6.28837
  -3.90256  -0.60090   6.28837
  -3.90256  -0.36090   6.28837
  -3.90256  -0.12090   6.28837
  -3.90256  -0.36090   6.28837
  -3.90256  -0.36090   6.28837
  -3.90256  -0.12090   6.28837
  -3.66256  -0.36090   6.04837
  -3.66256  -0.36090   6.28837
  -3.66256  -0.36090   6.28837
  -3.66256  -0.36090   6.04837
  -3.66256  -0.36090   6.28837
  -3.66256  -0.36090   6.04837
  -3.66256  -0.36090   6.28837
  -3.66256  -0.36090   6.28837
  -3.42256  -0.36090   6.04837
  -3.42256  -0.36090   6.04837
  -3.42256  -0.36090   6.04837
  -3.42256  -0.36090   6.04837
  -3.42256  -0.36090   6.04837
  -3.42256  -0.36090   6.04837
  -3.42256  -0.36090   6.04837
  -3.42256  -0.36090   6.04837
  -3.18256  -0.36090   6.04837
  -3.18256  -0.36090   6.04837
  -3.18256  -0.12090   6.04837
  -3.18256  -0.12090   5.80837
  -3.18256  -0.12090   5.80837
  -3.18256  -0.36090   5.80837
  -3.18256  -0.36090   5.80837
  -2.94256  -0.36090   5.80837
  -3.18256  -0.36090   5.80837
  -2.94256  -0.36090   5.80837
  -2.94256  -0.36090   5.80837
  -2.94256  -0.36090   5.56837
  -2.94256  -0.36090   5.56837
  -2.94256  -0.12090   5.56837
  -2.70256  -0.12090   5.56837
  -2.70256  -0.36090   5.56837
  -2.70256  -0.36090   5.56837
  -2.70256  -0.36090   5.32837
  -2.70256  -0.12090   5.32837
  -2.70256  -0.36090   5.32837
  -2.46256  -0.36090   5.32837
  -2.70256  -0.36090   5.32837
  -2.46256  -0.12090   5.08837
  -2.46256  -0.36090   5.08837
  -2.46256  -0.36090   5.08837
  -2.46256  -0.36090   5.08837
  -2.46256  -0.60090   5.08837
  -2.46256  -0.36090   5.08837
  -2.46256  -0.36090   4.84837
  -2.22256  -0.36090   4.84837
  -2.22256  -0.12090   4.84837
  -2.22256  -0.36090   4.84837
  -2.22256  -0.36090   4.84837
  -1.99256  -0.12090   4.60837
  -1.99256  -0.36090   4.60837
  -1.99256  -0.12090   4.60837
  -1.99256  -0.36090   4.60837
  -1.99256  -0.12090   4.60837
  -1.99256  -0.36090   4.36837
  -1.99256  -0.36090   4.36837
  -1.99256  -0.36090   4.36837
  -1.99256  -0.36090   4.12837
  -1.75256  -0.36090   4.12837
  -1.75256  -0.36090   4.36837
  -1.75256  -0.36090   4.12837
  -1.75256  -0.12090   4.12837
  -1.51256  -0.12090   4.12837
  -1.51256  -0.12090   3.88837
  -1.51256  -0.36090   3.88837
  -1.51256  -0.12090   3.88837
  -1.51256  -0.12090   3.88837
  -1.51256  -0.12090   3.64837
  -1.27256  -0.12090   3.64837
  -1.27256  -0.12090   3.64837
  -1.27256  -0.12090   3.40837
  -1.27256  -0.12090   3.40837
  -1.27256  -0.36090   3.40837
  -1.03256  -0.12090   3.40837
  -1.03256  -0.12090   3.17837
  -1.03256  -0.12090   3.17837
  -1.03256  -0.12090   3.17837
  -1.03256  -0.12090   3.17837
  -1.03256  -0.12090   3.17837
  -0.79256  -0.12090   2.93837
  -0.79256  -0.36090   2.93837
  -0.79256  -0.12090   2.93837
  -0.79256  -0.12090   2.69837
  -0.79256  -0.12090   2.69837
  -0.55256  -0.12090   2.69837
  -0.55256  -0.12090   2.45837
  -0.55256  -0.12090   2.45837
  -0.55256  -0.12090   2.45837
  -0.55256  -0.12090   2.21837
  -0.31256  -0.12090   2.21837
  -0.31256  -0.12090   2.21837
  -0.31256  -0.12090   2.21837
  -0.31256  -0.12090   1.97837
  -0.07256  -0.12090   1.97837
  -0.07256  -0.12090   1.97837
  -0.07256  -0.12090   1.73837
  -0.07256  -0.12090   1.73837
  -0.07256  -0.12090   1.49837
  -0.07256  -0.12090   1.73837
   0.16744  -0.12090   1.49837
   0.16744  -0.12090   1.49837
   0.16744  -0.12090   1.25837
   0.16744  -0.12090   1.49837
   0.40744  -0.12090   1.49837
   0.40744  -0.12090   1.25837
   0.40744  -0.36090   1.25837
   0.40744  -0.12090   1.25837
   0.40744  -0.12090   1.01837
   0.40744  -0.12090   1.01837
   0.64744  -0.12090   1.01837
   0.64744  -0.12090   1.01837
   0.64744  -0.12090   0.77837
   0.64744  -0.12090   0.77837
   0.88744  -0.12090   0.77837
   0.64744  -0.12090   0.77837
   0.88744  -0.12090   0.77837
   0.88744  -0.12090   0.53837
   0.88744  -0.12090   0.53837
   0.88744  -0.12090   0.53837
   1.12744  -0.12090   0.29837
   1.12744  -0.12090   0.29837
   1.12744  -0.12090   0.29837
   1.12744  -0.12090   0.29837
   1.36744  -0.12090   0.05837
   1.36744  -0.12090   0.05837
   1.36744  -0.12090   0.05837
   1.36744  -0.12090   0.05837
   1.60744  -0.12090   0.05837
   1.60744  -0.12090   0.05837
   1.60744  -0.12090  -0.18163
   1.60744  -0.12090  -0.18163
   1.60744  -0.12090  -0.18163
   1.60744  -0.12090  -0.42163
