********************************************************************************
               CENTRO DE INSTRUMENTACION Y REGISTRO SISMICO  A.C.  
                       Coordinacion de Servicios Tecnicos
     Anaxagoras 814, Col. Narvarte, Benito Juarez, C.P. 03020 Mexico, D.F.
            Tels. 687 45 42/ 687 45  82             Fax. 669 25 12
********************************************************************************
ARCHIVO ESTANDAR DE ACELERACION:
VERSION DEL FORMATO                    : 2.0
NOMBRE DEL ARCHIVO                     : BA499509.141
FECHA Y HORA DE CREACION               : 18 de marzo de 1996/14:22
REF. CATALOGO ACELEROGRAMAS, SMIS 1995 : REGISTRO No.     /PAG.


================================================================================
DATOS DE LA ESTACION:
NOMBRE DE LA ESTACION                  : BUENOS AIRES
CLAVE DE LA ESTACION                   : BA49
LOCALIZACION DE LA ESTACION            : ESCUELA SECUNDARIA 102, DOCTOR MARQUEZ
                                       : Y EJE CENTRAL, BUENOS AIRES.
                                       :
                                       :
                                       :
COORDENADAS DE LA ESTACION             : 19.410 LAT. N 
                                       : 99.145 LONG. W 
ALTITUD (msnm)                         : 2233
TIPO DE SUELO                          : TERRENO BLANDO, MATERIAL COMPRESIBLE
                                       : (ARCILLAS)
                                       : 
INSTITUCION RESPONSABLE                : CIRES 
                                       :

================================================================================
DATOS DEL ACELEROGRAFO:
MODELO DEL ACELEROGRAFO                : SSA-1
NUMERO DE SERIE DEL ACELEROGRAFO       : 176
NUMERO DE CANALES                      : 3
ORIENTACION C1-C6 (rumbo;orientacion)  : /N00E/+V/N90E
ORIENTACION C7-C12 (rumbo;orientacion) :
VEL. DE MUESTREO, C1-C6 (muestras/s)   : /200/200/200
VEL. DE MUESTREO, C7-C12 (muestras/s)  :
ESC. COMPLETA DE SENSORES, C1-C6, (g)  : /2/2/2
ESC. COMPLETA DE SENSORES, C7-C12, (g) :
FREC. NAT. DE SENSORES, C1-C6, (Hz)    : /50/50/50
FREC. NAT. DE SENSORES, C7-C12, (Hz)   :
AMORTIGUAMIENTO DE SENSORES, C1-C6     : /0.700/0.700/0.700
AMORTIGUAMIENTO DE SENSORES, C7-C12    :
INTERVALO DE MUESTREO, C1-C6, (s)      : /0.005/0.005/0.005
INTERVALO DE MUESTREO, C7-C12, (s)     :
UMBRAL DE DISPARO, C1-C6, (Gal)        : /2/2/2
UMBRAL DE DISPARO, C7-C12, (Gal)       :
MEMORIA DE PREEVENTO (s)               : 15
TIEMPO DE POSEVENTO (s)                : 60


================================================================================
DATOS DEL SISMO:
FECHA DEL SISMO (GMT)                  : 14/SEP/95
HORA EPICENTRO (GMT)                   : 14:04:30.5
MAGNITUD(ES)                           : /Mc=6.4/Mb=7.2/Me=7.3
COORDENADAS DEL EPICENTRO              : 16.31 LAT. N
                                       : 98.88 LONG. W
PROFUNDIDAD FOCAL (km)                 : 22
FUENTE DE LOS DATOS EPICENTRALES       : SSN
                                       : INSTITUTO DE GEOFISICA, UNAM

================================================================================
DATOS DE ESTE REGISTRO:
HORA DE LA PRIMERA MUESTRA (GMT)       : 14:05:43.00
EXACTITUD DEL TIEMPO (s)               :     
DURACION DEL REGISTRO (s), C1-C6       : /66.56/66.56/66.56
DURACION DEL REGISTRO (s), C7-C12      :
NUM. TOTAL DE MUESTRAS, C1-C6          : /13312/13312/13312
NUM. TOTAL DE MUESTRAS, C7-C12         :
ACEL. MAX. (Gal), C1-C6                : /31.79166/10.69438/39.38945
ACEL. MAX., C1-C6, EN LA MUESTRA       :
ACEL. MAX. (Gal), C7-C12               :
ACEL. MAX., C7-C12, EN LA MUESTRA      :
UNIDADES DE LOS DATOS                  : Gal (cm/s/s)
FACTOR DE DECIMACION                   : 1
FORMATO DATOS (FORTRAN,10 campos/dato) : 3F10.5


================================================================================
CALIDAD DEL ACELEROGRAMA:
REGISTRO DIGITAL COMPLETO, CARECE DE TIEMPO ABSOLUTO.


================================================================================
COMENTARIOS: 
             EL EQUIPO SE ENCONTRABA CON GANANCIAS DE 4 EN TODOS LOS EJES,
             POR LO QUE LAS ESCALAS COMPLETAS ERAN DE 1/2 G.












================================================================================
DATOS DE ACELERACION:
---------+---------+---------+---------+---------+---------+---------+---------+
   CANAL-1   CANAL-2   CANAL-3   CANAL-4   CANAL-5   CANAL-6   CANAL-7   CANAL-8
      N00E        +V      N90E
---------+---------+---------+---------+---------+---------+---------+---------+
[...]
  14.07166  -3.20562 -11.39055
  14.31166  -3.20562 -11.63055
  14.31166  -3.20562 -12.11055
  14.55166  -2.96562 -12.35055
  14.55166  -2.96562 -12.59055
  14.79166  -3.20562 -12.83055
  15.03166  -3.43562 -12.83055
  15.27166  -3.67562 -12.83055
  15.27166  -3.67562 -13.06055
  15.27166  -3.91562 -13.06055
  15.27166  -4.15562 -13.54055
  15.51166  -4.39562 -13.54055
  15.75166  -4.63562 -13.78055
  15.75166  -4.39562 -14.02055
  15.75166  -4.39562 -14.26055
  15.75166  -4.63562 -14.74055
  15.99166  -4.87562 -14.74055
  15.99166  -4.87562 -14.74055
  15.99166  -4.87562 -14.98055
  15.75166  -4.63562 -15.46055
  15.51166  -4.63562 -15.70055
  15.75166  -4.39562 -15.94055
  15.99166  -4.87562 -15.70055
  16.47166  -5.35562 -15.46055
  16.47166  -5.59562 -15.46055
  16.23166  -5.59562 -15.70055
  16.23166  -5.35562 -15.94055
  15.99166  -5.35562 -16.42055
  16.23166  -5.11562 -16.66055
  16.23166  -5.11562 -16.90055
  16.47166  -5.35562 -16.66055
  16.47166  -5.59562 -16.42055
  16.70166  -5.83562 -16.18055
  16.70166  -6.07562 -16.42055
  16.94166  -6.31562 -16.42055
  16.94166  -6.31562 -16.42055
  16.94166  -6.31562 -16.18055
  17.18166  -6.31562 -16.18055
  17.18166  -6.31562 -16.42055
  17.42166  -6.31562 -16.66055
  17.18166  -6.07562 -16.90055
  17.18166  -5.83562 -17.14055
  17.42166  -5.83562 -17.38055
  17.42166  -5.59562 -17.38055
  17.66166  -5.59562 -17.38055
  17.66166  -5.35562 -17.62055
  17.66166  -5.11562 -17.62055
  17.90166  -4.87562 -17.85055
  17.90166  -4.87562 -17.85055
  17.90166  -4.87562 -17.85055
  18.14166  -5.11562 -18.09055
  18.14166  -4.87562 -18.33055
  18.14166  -4.87562 -18.57055
  18.14166  -4.39562 -18.81055
  18.14166  -4.15562 -19.05055
  18.14166  -4.15562 -19.29055
  18.14166  -3.91562 -19.77055
  18.14166  -3.91562 -19.77055
  18.14166  -3.91562 -20.01055
  18.14166  -3.91562 -20.25055
  18.14166  -3.91562 -20.25055
  18.14166  -3.67562 -20.73055
  18.14166  -3.43562 -20.97055
  17.90166  -3.20562 -21.45055
  17.90166  -2.96562 -21.93055
  17.66166  -2.72562 -22.17055
  17.66166  -2.72562 -22.41055
  17.66166  -2.48562 -22.88055
  17.66166  -2.24562 -22.88055
  17.66166  -2.00562 -23.12055
  17.66166  -1.76562 -23.36055
  17.66166  -1.52562 -23.60055
  17.42166  -1.28562 -23.84055
  17.42166  -1.04562 -24.32055
  17.42166  -0.80562 -24.56055
  17.18166  -0.56562 -24.56055
  17.18166  -0.56562 -24.80055
  16.94166  -0.32562 -24.80055
  16.94166  -0.08562 -25.04055
  16.70166   0.15438 -25.28055
  16.47166   0.15438 -25.52055
  16.23166   0.39438 -25.52055
  16.23166   0.63438 -25.76055
  15.99166   0.63438 -26.00055
  15.75166   0.87438 -26.00055
  15.51166   1.11438 -26.24055
  15.27166   1.11438 -26.48055
  15.03166   1.11438 -26.48055
  14.55166   1.11438 -26.72055
  14.31166   1.11438 -26.96055
  14.07166   1.11438 -26.96055
  13.59166   1.35438 -27.20055
  13.35166   1.35438 -27.43055
  13.11166   1.35438 -27.67055
  12.63166   1.59438 -27.91055
  12.15166   1.59438 -28.15055
  11.91166   1.82438 -28.39055
  11.44166   1.82438 -28.63055
  10.96166   2.06438 -28.87055
  10.48166   2.06438 -29.11055
   9.76166   2.30438 -29.11055
   9.52166   2.54438 -29.35055
   9.04166   2.54438 -29.59055
   8.56166   3.02438 -29.83055
   7.84166   3.02438 -30.07055
   7.36166   3.50438 -30.55055
   6.65166   3.50438 -30.55055
   6.17166   3.74438 -30.79055
   5.69166   3.98438 -31.03055
   4.97166   4.22438 -31.51055
   4.49166   4.46438 -31.99055
   4.01166   4.70438 -32.22055
   3.29166   4.94438 -32.46055
   2.81166   5.18438 -32.94055
   2.33166   5.18438 -32.94055
   1.86166   5.18438 -32.94055
   1.38166   5.18438 -33.18055
   0.90166   5.18438 -33.42055
   0.66166   5.42438 -33.90055
   0.18166   5.66438 -34.38055
  -0.05834   5.90438 -34.62055
  -0.53834   5.66438 -34.62055
  -0.77834   5.42438 -34.86055
  -1.01834   5.42438 -35.10055
  -1.25834   5.66438 -35.58055
  -1.49834   5.66438 -35.58055
  -1.73834   5.66438 -35.82055
  -1.97834   5.66438 -36.06055
  -2.21834   5.66438 -36.30055
  -2.21834   5.66438 -36.54055
  -2.45834   5.66438 -36.78055
  -2.45834   5.66438 -37.01055
  -2.69834   5.90438 -37.25055
  -2.92834   5.90438 -37.49055
  -2.92834   5.90438 -37.73055
  -2.92834   5.66438 -37.73055
  -3.16834   5.42438 -37.97055
  -3.16834   5.18438 -37.97055
  -3.16834   5.18438 -38.21055
  -3.16834   5.42438 -38.21055
  -3.40834   5.66438 -38.45055
  -3.16834   5.18438 -38.45055
  -3.16834   4.94438 -38.21055
  -2.92834   4.46438 -37.97055
  -3.16834   4.22438 -37.97055
  -3.16834   4.22438 -37.73055
  -3.16834   3.98438 -37.73055
  -3.16834   3.98438 -37.73055
  -3.16834   3.74438 -37.49055
  -3.40834   3.50438 -37.49055
  -3.40834   3.50438 -37.25055
  -3.16834   3.50438 -37.01055
  -3.16834   3.26438 -36.78055
  -3.16834   2.78438 -36.54055
  -3.16834   2.54438 -36.30055
  -3.16834   2.30438 -36.06055
  -3.16834   2.06438 -35.82055
  -3.16834   1.82438 -35.58055
  -2.92834   1.59438 -35.10055
  -2.92834   1.35438 -34.86055
  -3.16834   1.11438 -34.62055
  -3.16834   0.87438 -34.62055
  -3.16834   0.63438 -34.38055
  -3.16834   0.39438 -34.14055
  -3.16834   0.15438 -33.66055
  -3.16834  -0.08562 -33.42055
  -3.16834  -0.32562 -33.18055
  -3.16834  -0.56562 -32.94055
  -3.16834  -0.56562 -32.70055
  -2.92834  -0.80562 -32.46055
  -2.92834  -1.04562 -31.99055
  -2.92834  -1.28562 -31.75055
  -2.69834  -1.52562 -31.51055
  -2.69834  -1.52562 -31.51055
  -2.69834  -1.52562 -31.27055
  -2.69834  -1.52562 -31.27055
  -2.69834  -1.52562 -31.03055
  -2.45834  -1.76562 -30.79055
  -2.45834  -1.76562 -30.79055
  -2.21834  -2.00562 -30.55055
  -2.21834  -2.00562 -30.31055
  -1.97834  -2.00562 -30.31055
  -1.97834  -2.24562 -30.31055
  -1.97834  -2.24562 -30.31055
  -1.97834  -2.24562 -30.07055
  -1.73834  -2.48562 -30.07055
  -1.49834  -2.72562 -30.07055
  -1.49834  -2.72562 -29.83055
  -1.49834  -2.96562 -30.07055
  -1.49834  -2.96562 -29.83055
  -1.49834  -2.96562 -29.83055
  -1.49834  -2.96562 -30.07055
  -1.25834  -2.96562 -30.07055
  -1.25834  -3.20562 -30.07055
  -1.25834  -3.20562 -30.07055
  -1.25834  -3.20562 -30.07055
  -1.25834  -3.20562 -30.07055
  -1.25834  -3.20562 -30.07055
  -1.25834  -2.96562 -30.31055
  -1.25834  -2.96562 -30.31055
  -1.25834  -2.96562 -30.31055
  -1.25834  -2.96562 -30.31055
  -1.25834  -2.96562 -30.31055
  -1.25834  -2.96562 -30.31055
  -1.25834  -2.72562 -30.31055
  -1.25834  -2.72562 -30.31055
  -1.49834  -2.48562 -30.31055
  -1.25834  -2.48562 -30.31055
  -1.25834  -2.24562 -30.31055
  -1.25834  -2.24562 -30.31055
  -1.25834  -2.24562 -30.07055
  -1.25834  -2.24562 -30.07055
  -1.25834  -2.00562 -30.07055
  -1.25834  -2.00562 -30.07055
  -1.25834  -2.00562 -30.07055
  -1.25834  -2.00562 -29.83055
  -1.25834  -2.00562 -29.83055
  -1.25834  -2.00562 -29.59055
  -1.25834  -2.00562 -29.35055
  -1.25834  -2.00562 -29.11055
  -1.25834  -1.76562 -28.87055
  -1.25834  -1.76562 -28.63055
  -1.25834  -1.76562 -28.39055
  -1.25834  -2.00562 -28.15055
  -1.25834  -2.00562 -27.91055
  -1.25834  -2.00562 -27.67055
  -1.01834  -1.76562 -27.43055
  -1.25834  -1.52562 -27.20055
  -1.25834  -1.52562 -26.96055
  -1.25834  -1.52562 -26.48055
  -1.25834  -1.52562 -26.24055
  -1.25834  -1.52562 -25.76055
  -1.49834  -1.52562 -25.52055
  -1.49834  -1.28562 -25.04055
  -1.49834  -1.04562 -24.56055
  -1.73834  -1.04562 -24.32055
  -1.73834  -0.80562 -23.84055
  -1.73834  -0.80562 -23.12055
  -1.97834  -0.80562 -22.64055
  -1.97834  -0.80562 -22.17055
  -2.21834  -0.56562 -21.45055
  -2.21834  -0.32562 -20.97055
  -2.45834  -0.32562 -20.49055
  -2.45834  -0.08562 -19.77055
  -2.69834   0.15438 -19.05055
  -2.92834   0.39438 -18.57055
  -3.16834   0.63438 -17.85055
  -3.16834   0.63438 -17.38055
  -3.40834   0.63438 -16.66055
  -3.64834   0.87438 -15.70055
  -3.88834   0.87438 -14.98055
  -4.12834   0.87438 -14.26055
  -4.36834   1.11438 -13.54055
  -4.60834   1.11438 -12.59055
  -4.60834   1.35438 -11.87055
  -4.84834   1.35438 -10.91055
  -5.08834   1.35438  -9.95055
  -5.08834   1.35438  -9.23055
  -5.32834   1.35438  -8.04055
  -5.56834   1.35438  -7.08055
  -5.80834   1.35438  -6.12055
  -6.28834   1.35438  -5.16055
  -6.52834   1.59438  -3.96055
  -6.76834   1.59438  -3.01055
  -6.76834   1.82438  -2.29055
  -7.00834   1.82438  -1.33055
  -7.24834   1.82438  -0.37055
  -7.48834   1.82438   0.82945
  -7.71834   1.59438   2.01945
  -7.71834   1.59438   2.97945
  -7.95834   1.59438   4.17945
  -8.19834   1.59438   4.89945
  -8.67834   1.35438   6.09945
  -8.91834   1.35438   7.04945
  -9.15834   1.11438   8.00945
  -9.39834   1.11438   8.96945
  -9.63834   0.87438   9.92945
  -9.87834   0.87438  10.88945
 -10.11834   0.63438  11.83945
 -10.35834   0.63438  12.79945
 -10.59834   0.39438  13.75945
 -11.07834   0.39438  14.71945
 -11.31834   0.15438  15.43945
 -11.55834  -0.08562  16.14945
 -12.03834  -0.08562  16.86945
 -12.27834  -0.32562  17.82945
 -12.50834  -0.56562  18.30945
 -12.74834  -0.56562  19.26945
 -12.98834  -0.56562  19.74945
 -13.46834  -0.80562  20.46945
 -13.70834  -0.80562  21.17945
 -13.94834  -1.04562  21.89945
 -14.18834  -1.04562  22.37945
 -14.42834  -1.28562  22.85945
 -14.90834  -1.28562  23.09945
 -14.90834  -1.28562  23.57945
 -15.38834  -1.52562  24.29945
 -15.62834  -1.52562  24.53945
 -15.86834  -1.76562  25.25945
 -16.10834  -1.76562  25.49945
 -16.58834  -2.00562  26.20945
 -16.82834  -2.24562  26.44945
 -17.06834  -2.48562  26.92945
 -17.29834  -2.48562  27.16945
 -17.53834  -2.48562  27.64945
 -17.77834  -2.48562  27.88945
 -18.01834  -2.48562  28.12945
 -18.25834  -2.24562  28.36945
 -18.49834  -2.24562  28.36945
 -18.73834  -2.24562  28.84945
 -18.97834  -2.24562  29.32945
 -19.21834  -2.00562  29.56945
 -19.45834  -2.00562  30.28945
 -19.69834  -2.00562  30.51945
 -19.93834  -1.76562  30.75945
 -20.17834  -1.52562  30.99945
 -20.41834  -1.28562  31.47945
 -20.65834  -1.04562  31.71945
 -20.89834  -1.04562  32.43945
 -21.13834  -0.80562  32.43945
 -21.37834  -0.56562  32.91945
 -21.37834  -0.56562  33.39945
 -21.61834  -0.08562  33.39945
 -21.61834   0.15438  33.87945
 -21.85834   0.15438  33.87945
 -22.08834   0.15438  34.35945
 -22.08834   0.15438  34.59945
 -22.32834   0.15438  35.07945
 -22.56834   0.39438  35.54945
 -22.56834   0.63438  35.78945
 -22.56834   0.63438  36.26945
 -22.80834   0.63438  36.50945
 -22.80834   0.63438  36.74945
 -23.04834   0.87438  36.74945
 -23.04834   1.11438  37.22945
 -23.04834   1.35438  37.22945
 -23.04834   1.35438  37.46945
 -23.04834   1.59438  37.94945
 -23.04834   1.59438  38.18945
 -23.28834   1.82438  38.18945
 -23.28834   2.06438  38.42945
 -23.52834   2.06438  38.66945
 -23.52834   2.30438  38.66945
 -23.76834   2.06438  38.90945
 -24.00834   2.30438  38.90945
 -24.00834   2.06438  39.14945
 -24.00834   2.30438  39.38945
 -24.24834   2.30438  39.38945
 -24.24834   2.30438  39.38945
 -24.48834   2.30438  39.38945
 -24.48834   2.30438  39.38945
 -24.72834   2.30438  39.14945
 -24.72834   2.30438  39.38945
 -24.96834   2.30438  39.38945
 -24.96834   2.30438  39.38945
 -25.44834   2.30438  39.14945
 -25.68834   2.30438  39.14945
 -25.92834   2.30438  38.90945
 -26.16834   2.30438  38.66945
 -26.40834   2.30438  38.90945
 -26.40834   2.30438  38.66945
 -26.64834   2.30438  38.42945
 -26.87834   2.30438  38.18945
 -27.11834   2.06438  37.94945
 -27.35834   2.30438  37.70945
 -27.35834   2.30438  37.22945
 -27.59834   2.54438  36.98945
 -27.59834   2.54438  36.50945
 -27.59834   2.30438  36.26945
 -27.83834   2.30438  36.02945
 -27.83834   2.30438  35.78945
 -27.83834   2.30438  35.54945
 -28.07834   2.54438  35.30945
 -28.07834   2.54438  35.07945
 -28.07834   2.78438  34.59945
 -28.31834   2.78438  34.11945
 -28.07834   2.78438  33.87945
 -27.83834   2.54438  33.63945
 -27.59834   2.30438  33.39945
 -27.35834   2.30438  33.15945
 -27.35834   2.30438  32.91945
 -27.11834   2.30438  32.67945
 -26.87834   2.06438  32.43945
 -26.40834   2.06438  31.95945
 -25.92834   1.82438  31.47945
 -25.68834   1.82438  31.23945
 -25.20834   1.82438  30.99945
 -24.72834   1.59438  30.75945
 -24.00834   1.59438  30.51945
 -23.52834   1.59438  30.28945
 -23.04834   1.35438  30.04945
 -22.32834   1.35438  29.56945
 -21.85834   1.11438  29.32945
 -21.13834   0.87438  29.32945
 -20.17834   0.63438  29.08945
 -19.21834   0.63438  29.08945
 -18.49834   0.39438  28.60945
 -17.77834   0.39438  28.36945
 -16.82834   0.39438  27.88945
 -15.86834   0.15438  27.64945
 -15.14834  -0.08562  27.64945
 -14.18834  -0.32562  27.64945
 -13.22834  -0.56562  27.40945
 -12.27834  -0.56562  27.16945
 -11.31834  -0.80562  27.16945
 -10.35834  -1.04562  26.92945
  -9.39834  -1.04562  26.68945
  -8.43834  -1.04562  26.44945
  -7.48834  -1.28562  26.20945
  -6.52834  -1.52562  26.20945
  -5.56834  -1.76562  26.20945
  -4.84834  -2.00562  25.96945
  -3.88834  -2.48562  26.20945
  -2.92834  -2.48562  26.20945
  -1.97834  -2.72562  25.96945
  -1.01834  -2.96562  25.72945
  -0.29834  -2.96562  25.72945
   0.66166  -3.43562  25.49945
   1.62166  -3.43562  25.49945
   2.33166  -3.67562  25.49945
   3.05166  -3.67562  25.25945
   4.01166  -3.43562  25.25945
   4.73166  -3.67562  25.01945
   5.45166  -3.91562  25.01945
   6.41166  -3.91562  25.01945
   7.12166  -4.15562  24.77945
   7.60166  -4.15562  24.77945
   8.56166  -4.15562  24.77945
   9.04166  -4.15562  24.29945
  10.00166  -4.39562  24.05945
  10.48166  -4.39562  24.05945
  11.20166  -4.63562  23.81945
  11.68166  -4.63562  23.81945
  12.39166  -4.63562  23.81945
  13.11166  -4.63562  23.57945
  13.59166  -4.63562  23.33945
  14.07166  -4.63562  23.33945
  14.55166  -4.63562  23.33945
  15.03166  -4.63562  22.85945
  15.51166  -4.63562  22.61945
  15.99166  -4.63562  22.37945
  16.47166  -4.63562  22.13945
  16.94166  -4.63562  21.89945
  17.42166  -4.39562  21.41945
  17.66166  -4.39562  21.17945
  18.14166  -4.39562  21.17945
  18.62166  -4.39562  20.93945
  18.86166  -4.39562  20.70945
  19.34166  -3.91562  20.22945
  19.58166  -3.67562  19.74945
  20.06166  -3.43562  19.50945
  20.30166  -3.20562  19.02945
  20.30166  -2.72562  18.78945
  20.54166  -2.24562  18.30945
  20.78166  -2.00562  17.82945
  21.26166  -1.76562  17.58945
  21.73166  -2.00562  17.34945
  21.97166  -1.76562  17.34945
  21.97166  -1.52562  17.34945
  21.97166  -1.04562  16.86945
  21.97166  -0.56562  16.62945
  22.21166  -0.56562  16.14945
  22.21166  -0.32562  15.91945
  22.45166  -0.32562  15.67945
  22.93166  -0.08562  15.67945
  22.93166   0.15438  15.43945
  22.93166   0.39438  15.19945
  22.93166   0.63438  14.47945
  22.93166   0.87438  14.23945
  22.93166   0.87438  13.75945
  22.93166   1.11438  13.51945
  22.93166   1.35438  13.27945
  22.69166   1.59438  13.03945
  22.69166   1.82438  12.79945
  22.45166   2.06438  12.31945
  22.45166   2.06438  12.31945
  22.21166   2.30438  11.59945
  22.21166   2.30438  11.59945
  21.97166   2.54438  11.12945
  21.97166   2.78438  10.88945
  21.73166   3.02438  10.40945
  21.73166   3.26438  10.16945
  21.49166   3.50438   9.92945
  21.26166   3.50438   9.68945
  21.02166   3.74438   9.68945
  21.02166   3.74438   9.44945
  20.78166   3.74438   9.20945
  20.54166   3.98438   8.96945
  20.30166   4.22438   8.72945
  20.06166   4.46438   8.72945
  19.82166   4.70438   8.48945
  19.58166   4.70438   8.24945
  19.34166   4.94438   8.00945
  19.34166   4.94438   7.76945
  19.10166   4.94438   7.76945
