********************************************************************************
              CENTRO DE INSTRUMENTACION Y REGISTRO SISMICO  A.C.

    Anaxagoras 814, Col. Narvarte, Benito Juarez, C.P. 03020 Mexico, D.F.
           Tels. 5687 45 42/ 5687 45  82             Fax. 5669 25 12
********************************************************************************
ARCHIVO ESTANDAR DE ACELERACION:
VERSION DEL FORMATO                    : 2.0
NOMBRE DEL ARCHIVO                     : BA4920130616051902
FECHA Y HORA DE CREACION               : 20/OCT/17, 13:29
REF. CATALOGO ACELEROGRAMAS, SMIS 1996 : REGISTRO No.     /PAG.


================================================================================
DATOS DE LA ESTACION:
NOMBRE DE LA ESTACION                  : BUENOS AIRES
CLAVE DE LA ESTACION                   : BA49
LOCALIZACION DE LA ESTACION            : Del. Cuauhtémoc, Col. Doctores,        
                                       : Av. Lázaro Cárdenas esq. con           
                                       : Calle Dr. Márquez.                     
                                       :                                        
                                       : 
COORDENADAS DE LA ESTACION             : 19.4097 LAT. N
                                       : 99.1450 LONG. W
ALTITUD (msnm)                         : 2233
TIPO DE SUELO                          : Terreno blando, material compresible
                                       : (arcillas)                
                                       : 
INSTITUCION RESPONSABLE                : CIRES
                                       : 

================================================================================
DATOS DEL ACELEROGRAFO:
MODELO DEL ACELEROGRAFO                : RADESD
NUMERO DE SERIE DEL ACELEROGRAFO       : 176
NUMERO DE CANALES                      : 3
ORIENTACION C1-C6 (rumbo;orientacion)  : /S00E/+V/N90W
ORIENTACION C7-C12 (rumbo;orientacion) : 
VEL. DE MUESTREO, C1-C6 (muestras/s)   : /100/100/100
VEL. DE MUESTREO, C7-C12 (muestras/s)  : 
ESC. COMPLETA DE SENSORES, C1-C6, (g)  : /0.5/0.5/0.5
ESC. COMPLETA DE SENSORES, C7-C12, (g) : 
FREC. NAT. DE SENSORES, C1-C6, (Hz)    : /52.99/52.03/52.99
FREC. NAT. DE SENSORES, C7-C12, (Hz)   : 
AMORTIGUAMIENTO DE SENSORES, C1-C6     : /0.5589/0.5469/0.6096
AMORTIGUAMIENTO DE SENSORES, C7-C12    : 
INTERVALO DE MUESTREO, C1-C6, (s)      : /0.01/0.01/0.01
INTERVALO DE MUESTREO, C7-C12, (s)     : 
UMBRAL DE DISPARO, C1-C6, (Gal)        : /0.96/1.92/0.96
UMBRAL DE DISPARO, C7-C12, (Gal)       : 
MEMORIA DE PREEVENTO (s)               : 44.0
TIEMPO DE POSEVENTO (s)                : 44.0


================================================================================
DATOS DEL SISMO:
FECHA DEL SISMO (GMT)                  : 16/JUN/13
HORA EPICENTRO (GMT)                   : 05:19:02.0
MAGNITUD(ES)                           : /Mc=5.8
COORDENADAS DEL EPICENTRO              : 18.11 LAT. N
                                       : 99.22 LONG. W
PROFUNDIDAD FOCAL (km)                 : 55
FUENTE DE LOS DATOS EPICENTRALES       : SSN
                                       : INSTITUTO DE GEOFISICA, UNAM

================================================================================
DATOS DE ESTE REGISTRO:
HORA DE LA PRIMERA MUESTRA (GMT)       : 05:19:23.00
EXACTITUD DEL TIEMPO (s)               : 0.01
DURACION DEL REGISTRO (s), C1-C6       : /287.4/287.4/287.4
DURACION DEL REGISTRO (s), C7-C12      : 
NUM. TOTAL DE MUESTRAS, C1-C6          : /28740/28740/28740
NUM. TOTAL DE MUESTRAS, C7-C12         : 
ACEL. MAX. (Gal), C1-C6                : /21.56928/11.09689/23.61861
ACEL. MAX., C1-C6, EN LA MUESTRA       : /6814/7024/8168
ACEL. MAX. (Gal), C7-C12               : 
ACEL. MAX., C7-C12, EN LA MUESTRA      : 
UNIDADES DE LOS DATOS                  : Gal (cm/s/s)
FACTOR DE DECIMACION                   : 1
FORMATO DATOS (FORTRAN,10 campos/dato) : 3F10.5


================================================================================
CALIDAD DEL ACELEROGRAMA:
REGISTRO DIGITAL COMPLETO CON TIEMPO ABSOLUTO CORRECTO.


================================================================================
COMENTARIOS:














================================================================================
DATOS DE ACELERACION:
---------+---------+---------+---------+---------+---------+---------+---------+
   CANAL-1   CANAL-2   CANAL-3   CANAL-4   CANAL-5   CANAL-6   CANAL-7   CANAL-8
      S00E        +V      N90W
---------+---------+---------+---------+---------+---------+---------+---------+
[...]
   2.14632   0.03867 -15.76601
   1.89193   0.11349 -16.14010
   1.63755   0.11349 -16.63391
   1.32331   0.09852 -17.05289
   1.05396   0.09852 -17.50181
   0.70979   0.09852 -17.83101
   0.39556   0.06860 -18.17518
   0.08132   0.15838 -18.41460
  -0.15810   0.23320 -18.51934
  -0.41249   0.35291 -18.48941
  -0.78658   0.42773 -18.41460
  -1.13075   0.45765 -18.19014
  -1.48988   0.45765 -17.86094
  -1.83405   0.48758 -17.48684
  -2.22310   0.47262 -17.12771
  -2.53734   0.53247 -16.72369
  -2.88151   0.60729 -16.31967
  -3.21071   0.60729 -15.85579
  -3.45013   0.54744 -15.40688
  -3.64466   0.41276 -14.91308
  -3.83919   0.20327 -14.43424
  -3.95890  -0.08104 -13.86561
  -4.06365  -0.42521 -13.32692
  -4.07861  -0.76937 -12.69844
  -4.15343  -1.06865 -12.08493
  -4.10854  -1.27814 -11.59112
  -4.04868  -1.54749 -11.06739
  -3.95890  -1.59238 -10.69330
  -3.82423  -1.63727 -10.28927
  -3.58481  -1.69713  -9.88525
  -3.33042  -1.72705  -9.39145
  -3.04611  -1.63727  -8.92757
  -2.70194  -1.72705  -8.41880
  -2.40267  -1.81684  -7.82025
  -2.13332  -1.92158  -7.28156
  -1.86397  -2.08618  -6.71294
  -1.65448  -2.20589  -6.14431
  -1.41506  -2.34057  -5.66547
  -1.23549  -2.40042  -5.18663
  -1.02600  -2.44531  -4.72275
  -0.89133  -2.53510  -4.25888
  -0.72673  -2.60992  -3.76507
  -0.62198  -2.65481  -3.27127
  -0.59205  -2.69970  -2.76250
  -0.59205  -2.62488  -2.25373
  -0.63694  -2.41539  -1.78986
  -0.78658  -2.20589  -1.28109
  -0.98111  -1.95151  -0.75736
  -1.20557  -1.71209  -0.24859
  -1.38513  -1.50260   0.17039
  -1.60959  -1.32303   0.61931
  -1.77419  -1.14347   1.06822
  -1.95376  -0.96390   1.48721
  -2.14828  -0.70952   1.84634
  -2.32785  -0.36535   2.10072
  -2.52238  -0.00622   2.29525
  -2.71691   0.35291   2.34014
  -2.89647   0.68211   2.44489
  -3.03115   0.93650   2.47481
  -3.09100   1.10110   2.53467
  -3.12093   1.29563   2.59452
  -3.13589   1.41534   2.60949
  -3.21071   1.50512   2.59452
  -3.25560   1.59490   2.54963
  -3.39028   1.68468   2.44489
  -3.49502   1.71461   2.28028
  -3.67459   1.83432   2.17554
  -3.83919   1.86425   2.04086
  -4.04868   1.84928   2.05583
  -4.21328   1.87921   2.16057
  -4.37788   1.90914   2.23539
  -4.54249   1.90914   2.40000
  -4.73701   2.05878   2.50474
  -4.91658   2.17849   2.63942
  -5.06622   2.32812   2.65438
  -5.24578   2.58251   2.74416
  -5.24578   2.83689   2.72920
  -5.27571   3.13617   2.83394
  -5.15600   3.34566   2.90876
  -5.02133   3.60004   3.02847
  -4.73701   3.71975   3.16315
  -4.30307   3.79457   3.26789
  -3.85415   3.88436   3.32775
  -3.37531   3.94421   3.37264
  -2.91144   3.88436   3.38760
  -2.38770   3.77961   3.37264
  -1.92383   3.61501   3.37264
  -1.38513   3.34566   3.38760
  -0.89133   3.07631   3.43249
  -0.38256   2.85186   3.64199
   0.20103   2.56754   3.76170
   0.69483   2.35805   4.01608
   1.24849   2.11863   4.19565
   1.81711   1.93907   4.34528
   2.34084   1.72957   4.53981
   2.86458   1.40037   4.73434
   3.41823   1.10110   4.88398
   3.85218   0.86168   5.19822
   4.24124   0.74197   5.37778
   4.57044   0.57736   5.61720
   4.75001   0.48758   5.75188
   4.95950   0.29305   5.94641
   5.03432   0.17334   6.02123
   5.07921   0.06860   6.08108
   5.07921   0.02371   6.15590
   5.01936   0.03867   6.18583
   4.86972   0.08356   6.26065
   4.73505   0.23320   6.30554
   4.45073   0.41276   6.29057
   4.16642   0.68211   6.32050
   3.95693   0.84671   6.21575
   3.67262   0.98139   6.26065
   3.52298   0.98139   6.21575
   3.40327   0.93650   6.12597
   3.32845   0.78686   6.03619
   3.20874   0.74197   6.03619
   3.11896   0.59233   6.03619
   2.99925   0.53247   6.05115
   2.89450   0.36787   5.97633
   2.69997   0.17334   5.96137
   2.58026  -0.05111   5.82670
   2.40070  -0.35039   5.63217
   2.23610  -0.70952   5.46757
   1.99668  -1.06865   5.28800
   1.74229  -1.51756   5.06354
   1.38316  -1.80187   4.94383
   0.99411  -2.08618   4.79420
   0.64994  -2.29568   4.74931
   0.38059  -2.44531   4.65952
   0.12621  -2.66977   4.67449
  -0.00847  -2.93912   4.65952
  -0.11321  -3.19350   4.62960
  -0.21796  -3.38803   4.61463
  -0.23292  -3.50774   4.56974
  -0.20300  -3.59752   4.62960
  -0.18803  -3.55263   4.65952
  -0.17307  -3.49278   4.68945
  -0.11321  -3.31321   4.70441
  -0.06832  -2.99897   4.85405
  -0.05336  -2.63984   5.03362
  -0.06832  -2.17597   5.19822
  -0.18803  -1.89166   5.33289
  -0.36760  -1.68216   5.51246
  -0.48731  -1.56245   5.76684
  -0.54716  -1.47267   5.91648
  -0.59205  -1.36792   6.15590
  -0.56213  -1.32303   6.32050
  -0.35263  -1.32303   6.36539
  -0.23292  -1.21829   6.55992
  -0.09825  -1.00879   6.76941
   0.08132  -0.78434   7.05372
   0.21599  -0.41024   7.41285
   0.38059  -0.06608   7.81688
   0.53023   0.24816   8.25083
   0.56016   0.45765   8.81945
   0.60505   0.63722   9.40303
   0.69483   0.78686  10.06144
   0.64994   0.90657  10.73481
   0.57512   1.04124  11.30343
   0.45541   1.13102  11.93191
   0.20103   1.20584  12.56039
  -0.08329   1.31059  12.99434
  -0.38256   1.37044  13.29361
  -0.81651   1.47519  13.69763
  -1.10082   1.68468  13.90713
  -1.40010   1.90914  13.98195
  -1.68441   2.05878  13.98195
  -1.96872   2.16352  13.92209
  -2.29792   2.31316  13.89216
  -2.67202   2.55258  13.83231
  -3.01618   2.77704  13.80238
  -3.42020   3.00149  13.57792
  -3.67459   3.15113  13.26369
  -4.03372   3.28581  12.87463
  -4.28810   3.25588  12.33593
  -4.61730   3.36062  11.90198
  -4.97643   3.28581  11.40818
  -5.27571   3.15113  10.88445
  -5.57499   2.88178  10.27093
  -5.91915   2.58251   9.46289
  -6.23339   2.16352   8.56506
  -6.47281   1.89418   7.59242
  -6.63741   1.59490   6.38036
  -6.69727   1.32555   5.12340
  -6.65238   1.11606   3.85148
  -6.60748   0.95146   2.57956
  -6.50274   0.68211   1.39742
  -6.36806   0.44269   0.17039
  -6.20346   0.11349  -1.04167
  -6.00893  -0.17082  -2.19388
  -5.73959  -0.52995  -3.30120
  -5.47024  -0.81426  -4.39355
  -5.21586  -1.11354  -5.51583
  -4.90162  -1.38289  -6.48848
  -4.64723  -1.60734  -7.46112
  -4.43774  -1.83180  -8.46369
  -4.27314  -1.99640  -9.37648
  -4.10854  -2.22086 -10.28927
  -3.91401  -2.43035 -11.11228
  -3.76437  -2.68473 -11.84550
  -3.55488  -3.02890 -12.62362
  -3.36035  -3.41796 -13.25210
  -3.13589  -3.82198 -13.91050
  -2.94136  -4.21104 -14.49409
  -2.70194  -4.49535 -15.01782
  -2.58223  -4.70484 -15.45177
  -2.50741  -4.91434 -15.82587
  -2.34281  -4.98915 -16.11018
  -2.20814  -5.03405 -16.42442
  -2.13332  -4.97419 -16.57405
  -2.02857  -4.85448 -16.72369
  -1.95376  -4.58513 -16.84340
  -1.93879  -4.24097 -16.82844
  -1.90886  -3.82198 -16.84340
  -1.81908  -3.37307 -16.88829
  -1.78915  -2.90919 -16.85836
  -1.68441  -2.52013 -16.82844
  -1.59463  -2.20589 -16.69376
  -1.45995  -1.96647 -16.51420
  -1.23549  -1.80187 -16.33463
  -0.87636  -1.74202 -16.14010
  -0.47234  -1.77195 -15.96054
   0.00650  -1.74202 -15.70616
   0.53023  -1.80187 -15.42184
   1.09885  -1.81684 -14.95797
   1.69740  -1.87669 -14.41927
   2.29595  -1.92158 -13.83568
   2.87954  -1.96647 -13.19224
   3.53794  -1.99640 -12.57873
   4.18139  -2.01137 -11.93529
   4.82483  -1.96647 -11.26192
   5.49820  -1.89166 -10.58855
   6.12668  -1.74202  -9.94511
   6.80004  -1.56245  -9.28670
   7.45845  -1.38289  -8.64326
   8.08693  -1.15843  -7.95493
   8.64059  -0.99383  -7.22170
   9.11943  -0.91901  -6.44359
   9.52345  -0.84419  -5.66547
   9.79280  -0.79930  -4.82750
  10.04718  -0.72448  -4.03442
  10.13696  -0.63470  -3.16652
  10.13696  -0.45513  -2.38841
  10.03222  -0.17082  -1.56540
   9.80776   0.09852  -0.74239
   9.47856   0.44269   0.11054
   9.13439   0.78686   0.97844
   8.67051   1.13102   1.78648
   8.08693   1.47519   2.63942
   7.50334   1.86425   3.35768
   6.82997   2.22338   4.04601
   6.14164   2.62740   4.64456
   5.40841   3.00149   5.16829
   4.73505   3.31573   5.63217
   4.07664   3.60004   5.91648
   3.38831   3.83946   6.20079
   2.78976   3.97414   6.42525
   2.22113   4.12378   6.58985
   1.74229   4.18363   6.66467
   1.23353   4.16867   6.78438
   0.81454   4.12378   6.82927
   0.35066   4.12378   6.81430
  -0.12818   4.06392   6.78438
  -0.56213   3.91428   6.63474
  -0.99607   3.73472   6.45517
  -1.43002   3.51026   6.27561
  -1.80412   3.25588   5.96137
  -2.17821   3.03142   5.51246
  -2.50741   2.91171   5.04858
  -2.83662   2.82193   4.55478
  -3.15086   2.77704   4.01608
  -3.48006   2.68725   3.43249
  -3.71948   2.62740   2.72920
  -4.00379   2.56754   2.02590
  -4.21328   2.55258   1.30764
  -4.45270   2.44783   0.48463
  -4.67716   2.40294  -0.32341
  -4.96147   2.34309  -1.17634
  -5.21586   2.31316  -2.04424
  -5.44031   2.23834  -2.94207
  -5.64980   2.20841  -3.83989
  -5.81441   2.16352  -4.73772
  -5.90419   2.13360  -5.68044
  -5.94908   2.04381  -6.72790
  -5.91915   2.07374  -7.80529
  -5.84433   1.93907  -8.79290
  -5.72462   1.71461  -9.75058
  -5.54506   1.57994 -10.64840
  -5.39542   1.43030 -11.51630
  -5.21586   1.28066 -12.30938
  -4.97643   1.01131 -13.01268
  -4.73701   0.77189 -13.74590
  -4.42278   0.47262 -14.40431
  -4.16839   0.23320 -14.82329
  -3.91401  -0.08104 -15.27221
  -3.65962  -0.33542 -15.73608
  -3.34539  -0.60477 -15.97550
  -3.06107  -0.82923 -16.30471
  -2.74683  -1.08361 -16.33463
  -2.53734  -1.26318 -16.37952
  -2.28296  -1.42778 -16.28974
  -1.99865  -1.54749 -16.14010
  -1.68441  -1.74202 -15.72112
  -1.35520  -1.92158 -15.36199
  -0.95118  -2.11611 -14.91308
  -0.50227  -2.32560 -14.38934
   0.03642  -2.56502 -13.79079
   0.60505  -2.77452 -12.96779
   1.26345  -2.95408 -11.96521
   1.95179  -3.16358 -11.05243
   2.67005  -3.32818  -9.97503
   3.43320  -3.43292  -8.74801
   4.21131  -3.49278  -7.41623
   5.01936  -3.52271  -6.08446
   5.90222  -3.56760  -4.70779
   6.77012  -3.61249  -3.28623
   7.56320  -3.77709  -1.81979
   8.32635  -3.94169  -0.35334
   9.07454  -4.09133   0.91858
   9.79280  -4.25593   2.29525
  10.46617  -4.34571   3.55220
  11.09464  -4.33075   4.89894
  11.70816  -4.21104   6.14094
  12.29174  -4.15118   7.30811
  12.84540  -3.91176   8.49025
  13.33921  -3.64242   9.62749
  13.74323  -3.28329  10.71985
  14.07243  -2.81941  11.75235
  14.23703  -2.40042  12.85966
  14.35674  -1.92158  13.89216
  14.34178  -1.51756  14.92466
  14.22207  -1.08361  15.91227
  14.02754  -0.75441  16.81010
  13.75819  -0.42521  17.61814
  13.42899  -0.14090  18.45611
  12.93519   0.18831  19.11452
  12.42642   0.50255  19.75796
  11.78298   0.93650  20.32658
  11.16946   1.23577  20.94009
  10.46617   1.59490  21.41893
   9.71798   1.98396  21.92770
   9.08950   2.43287  22.25691
   8.34131   2.85186  22.66093
   7.57816   3.31573  23.02006
   6.81501   3.73472  23.28940
   5.99200   4.15370  23.46897
   5.13907   4.58765  23.61861
   4.28613   4.91686  23.57372
   3.40327   5.15628  23.52882
   2.55034   5.44059  23.39415
   1.83208   5.66504  23.28940
   1.05396   5.84461  23.10984
   0.29081   5.93439  22.87042
  -0.42745   5.94935  22.63100
  -1.20557   5.96432  22.27187
  -1.83405   5.94935  21.83792
  -2.40267   5.81468  21.31419
  -2.92640   5.66504  20.88024
  -3.43517   5.45555  20.40140
  -3.91401   5.26102  19.83278
  -4.30307   5.09642  19.18933
  -4.75198   4.94678  18.50100
  -5.15600   4.75225  17.82763
  -5.51513   4.48291  17.09441
  -6.00893   4.21356  16.36118
  -6.50274   3.83946  15.56810
  -7.07136   3.24091  14.77502
  -7.56517   2.61244  13.99691
  -8.05897   1.98396  13.20383
  -8.55277   1.31059  12.36586
  -8.98672   0.77189  11.46803
  -9.37578   0.32298  10.55524
  -9.76484   0.02371   9.52274
 -10.10900  -0.20075   8.46032
 -10.36339  -0.33542   7.36796
 -10.49806  -0.39528   6.29057
 -10.61777  -0.36535   5.18325
 -10.67763  -0.33542   4.07594
 -10.67763  -0.36535   2.93869
 -10.69259  -0.42521   1.77152
 -10.61777  -0.44017   0.61931
 -10.48310  -0.60477  -0.51794
 -10.19879  -0.75441  -1.70008
  -9.94440  -0.84419  -2.92710
  -9.73491  -1.05369  -4.13917
  -9.43564  -1.23325  -5.33627
  -9.12140  -1.54749  -6.48848
  -8.68745  -1.84676  -7.62572
  -8.26846  -2.16100  -8.62830
  -7.83451  -2.44531  -9.67576
  -7.40056  -2.71466 -10.61848
  -6.92172  -2.90919 -11.50134
  -6.50274  -2.99897 -12.23456
  -6.02390  -3.16358 -12.84808
  -5.57499  -3.31321 -13.44663
  -5.21586  -3.43292 -13.98532
  -4.84176  -3.53767 -14.50905
  -4.45270  -3.71723 -14.94300
  -4.03372  -3.83694 -15.28717
  -3.62970  -3.94169 -15.64630
  -3.30049  -4.04644 -15.84083
  -2.98625  -4.03147 -15.99047
  -2.76180  -3.92673 -16.05032
  -2.50741  -3.85191 -15.99047
  -2.25303  -3.73220 -15.82587
  -2.04354  -3.67234 -15.63134
  -1.83405  -3.61249 -15.39192
  -1.59463  -3.59752 -15.04775
  -1.37017  -3.65738 -14.68862
  -1.02600  -3.70227 -14.19482
  -0.72673  -3.74716 -13.62619
  -0.41249  -3.83694 -12.98275
  -0.09825  -3.94169 -12.29442
   0.17110  -3.95665 -11.51630
   0.41052  -4.07636 -10.76811
   0.60505  -4.19607  -9.93014
   0.79958  -4.27089  -9.03232
   0.91929  -4.39060  -8.16442
   1.03900  -4.45046  -7.23667
   1.08389  -4.57017  -6.29395
   1.15871  -4.64499  -5.30634
   1.23353  -4.63002  -4.34866
   1.38316  -4.70484  -3.46580
   1.53280  -4.71981  -2.65776
   1.66747  -4.70484  -1.90957
   1.81711  -4.71981  -1.14642
   1.98171  -4.71981  -0.39823
   2.16128  -4.73477   0.30507
   2.38574  -4.64499   1.02333
   2.59523  -4.58513   1.69670
   2.87954  -4.51031   2.38503
   3.01421  -4.33075   2.98358
   3.13392  -4.07636   3.56717
   3.17881  -3.65738   4.04601
   3.19378  -3.23839   4.42010
   3.19378  -2.77452   4.89894
   3.13392  -2.28071   5.19822
   2.99925  -1.83180   5.49749
   2.84961  -1.35296   5.66209
   2.65508  -0.85916   5.78180
   2.53537  -0.38032   5.91648
   2.25106   0.08356   6.03619
   2.01164   0.56240   6.14094
   1.68244   1.02628   6.18583
   1.24849   1.49015   6.09604
   0.84447   2.02885   5.93144
   0.35066   2.61244   5.72195
  -0.14314   3.24091   5.39275
  -0.66687   3.89932   5.01865
  -1.22053   4.51283   4.47996
  -1.71434   5.09642   3.94126
  -2.22310   5.62015   3.34271
  -2.64209   6.15885   2.71423
  -3.15086   6.63769   1.96605
  -3.58481   7.13149   1.24779
  -4.09357   7.52055   0.43974
  -4.54249   7.93953  -0.39823
  -4.97643   8.14903  -1.25116
  -5.29067   8.35852  -2.10410
  -5.63484   8.46327  -2.94207
  -5.88922   8.37348  -3.76507
  -6.09872   8.20888  -4.60304
  -6.18850   7.95450  -5.42605
  -6.21843   7.61033  -6.24906
  -6.27828   7.23624  -7.02717
  -6.27828   6.89207  -7.76040
  -6.14361   6.42820  -8.53851
  -6.00893   5.88950  -9.36152
  -5.85930   5.36577 -10.12467
  -5.79944   4.78218 -10.85790
  -5.63484   4.13874 -11.60608
  -5.38046   3.52523 -12.32435
  -5.17096   2.95660 -13.19224
  -4.85672   2.50769 -14.07511
  -4.69212   2.07374 -14.91308
  -4.49759   1.68468 -15.70616
  -4.28810   1.32555 -16.43938
  -4.15343   0.98139 -17.17260
  -4.04868   0.77189 -17.89086
  -3.88408   0.47262 -18.62409
  -3.70452   0.23320 -19.25257
  -3.52495   0.09852 -19.82119
  -3.33042  -0.12593 -20.32996
  -3.15086  -0.29053 -20.68909
  -2.95633  -0.42521 -21.03325
  -2.76180  -0.50003 -21.19786
  -2.47749  -0.50003 -21.25771
  -2.20814  -0.54492 -21.24275
  -1.84901  -0.55988 -21.13800
  -1.47491  -0.69455 -20.95843
  -1.02600  -0.78434 -20.67412
  -0.48731  -0.96390 -20.32996
   0.03642  -1.05369 -19.92594
   0.62001  -1.21829 -19.49199
   1.14374  -1.47267 -18.98322
   1.65251  -1.63727 -18.33978
