********************************************************************************
              CENTRO DE INSTRUMENTACION Y REGISTRO SISMICO  A.C.

    Anaxagoras 814, Col. Narvarte, Benito Juarez, C.P. 03020 Mexico, D.F.
           Tels. 5687 45 42/ 5687 45  82             Fax. 5669 25 12
********************************************************************************
ARCHIVO ESTANDAR DE ACELERACION:
VERSION DEL FORMATO                    : 2.0
NOMBRE DEL ARCHIVO                     : AO2420100630072227
FECHA Y HORA DE CREACION               : 20/JUL/10, 12:41
REF. CATALOGO ACELEROGRAMAS, SMIS 1996 : REGISTRO No.     /PAG.


================================================================================
DATOS DE LA ESTACION:
NOMBRE DE LA ESTACION                  : ALBERCA OLÍMPICA
CLAVE DE LA ESTACION                   : AO24
LOCALIZACION DE LA ESTACION            : Del. Benito Juárez, Col. General Pedro 
                                       : María Anaya, Río Churubusco            
                                       : y División del Norte.                  
                                       :                                        
                                       : 
COORDENADAS DE LA ESTACION             : 19.3580 LAT. N
                                       : 99.1539 LONG. W
ALTITUD (msnm)                         : 2235
TIPO DE SUELO                          : Transición                          
                                       :                           
                                       : 
INSTITUCION RESPONSABLE                : CIRES
                                       : 

================================================================================
DATOS DEL ACELEROGRAFO:
MODELO DEL ACELEROGRAFO                : RADESD
NUMERO DE SERIE DEL ACELEROGRAFO       : 257
NUMERO DE CANALES                      : 3
ORIENTACION C1-C6 (rumbo;orientacion)  : /N00E/+V/N90W
ORIENTACION C7-C12 (rumbo;orientacion) : 
VEL. DE MUESTREO, C1-C6 (muestras/s)   : /100/100/100
VEL. DE MUESTREO, C7-C12 (muestras/s)  : 
ESC. COMPLETA DE SENSORES, C1-C6, (g)  : /0.5/0.5/0.5
ESC. COMPLETA DE SENSORES, C7-C12, (g) : 
FREC. NAT. DE SENSORES, C1-C6, (Hz)    : /30/30/30
FREC. NAT. DE SENSORES, C7-C12, (Hz)   : 
AMORTIGUAMIENTO DE SENSORES, C1-C6     : /0.700/0.700/0.700
AMORTIGUAMIENTO DE SENSORES, C7-C12    : 
INTERVALO DE MUESTREO, C1-C6, (s)      : /0.01/0.01/0.01
INTERVALO DE MUESTREO, C7-C12, (s)     : 
UMBRAL DE DISPARO, C1-C6, (Gal)        : /2.15/2.87/2.15
UMBRAL DE DISPARO, C7-C12, (Gal)       : 
MEMORIA DE PREEVENTO (s)               : 56.0
TIEMPO DE POSEVENTO (s)                : 64.0


================================================================================
DATOS DEL SISMO:
FECHA DEL SISMO (GMT)                  : 30/JUN/10
HORA EPICENTRO (GMT)                   : 07:22:27.0
MAGNITUD(ES)                           : /Mc=6.0
COORDENADAS DEL EPICENTRO              : 16.22 LAT. N
                                       : 98.03 LONG. W
PROFUNDIDAD FOCAL (km)                 : 8
FUENTE DE LOS DATOS EPICENTRALES       : SSN
                                       : INSTITUTO DE GEOFISICA, UNAM

================================================================================
DATOS DE ESTE REGISTRO:
HORA DE LA PRIMERA MUESTRA (GMT)       : 07:24:07.00
EXACTITUD DEL TIEMPO (s)               : 0.01
DURACION DEL REGISTRO (s), C1-C6       : /130.25/130.25/130.25
DURACION DEL REGISTRO (s), C7-C12      : 
NUM. TOTAL DE MUESTRAS, C1-C6          : /13025/13025/13025
NUM. TOTAL DE MUESTRAS, C7-C12         : 
ACEL. MAX. (Gal), C1-C6                : /4.74048/1.89496/5.80399
ACEL. MAX., C1-C6, EN LA MUESTRA       : /6317/6849/7399
ACEL. MAX. (Gal), C7-C12               : 
ACEL. MAX., C7-C12, EN LA MUESTRA      : 
UNIDADES DE LOS DATOS                  : Gal (cm/s/s)
FACTOR DE DECIMACION                   : 1
FORMATO DATOS (FORTRAN,10 campos/dato) : 3F10.5


================================================================================
CALIDAD DEL ACELEROGRAMA:
REGISTRO DIGITAL COMPLETO CON TIEMPO ABSOLUTO CORRECTO.


================================================================================
COMENTARIOS:














================================================================================
DATOS DE ACELERACION:
---------+---------+---------+---------+---------+---------+---------+---------+
   CANAL-1   CANAL-2   CANAL-3   CANAL-4   CANAL-5   CANAL-6   CANAL-7   CANAL-8
      N00E        +V      N90W
---------+---------+---------+---------+---------+---------+---------+---------+
[...]
   1.48444   0.25982  -1.61804
   1.72386   0.02040  -1.85746
   1.72386   0.25982  -1.61804
   1.96328   0.02040  -2.09688
   1.96328   0.25982  -1.85746
   1.96328   0.25982  -2.09688
   2.20270   0.25982  -1.85746
   2.20270   0.25982  -1.85746
   2.44212   0.25982  -2.09688
   2.68154   0.25982  -1.85746
   2.68154   0.25982  -2.09688
   2.92096   0.02040  -2.09688
   2.92096   0.02040  -1.85746
   3.39980   0.02040  -2.09688
   3.16038   0.25982  -1.85746
   3.39980   0.02040  -2.09688
   3.63922   0.02040  -1.85746
   3.63922   0.02040  -1.85746
   3.63922  -0.21902  -2.09688
   3.39980   0.02040  -1.85746
   3.39980  -0.21902  -2.09688
   3.39980  -0.21902  -2.09688
   3.16038  -0.21902  -2.09688
   2.92096  -0.45844  -2.09688
   2.92096  -0.45844  -2.09688
   2.68154  -0.45844  -2.09688
   2.68154  -0.69786  -2.09688
   2.44212  -0.45844  -2.09688
   2.20270  -0.69786  -1.85746
   1.96328  -0.69786  -1.85746
   1.72386  -0.69786  -1.85746
   1.48444  -0.69786  -1.61804
   1.24502  -0.69786  -1.85746
   1.00560  -0.69786  -1.61804
   0.76618  -0.69786  -1.61804
   0.76618  -0.69786  -1.37862
   0.28734  -0.45844  -1.13920
   0.28734  -0.45844  -1.13920
  -0.19150  -0.45844  -0.89978
  -0.43092  -0.45844  -0.89978
  -0.67034  -0.45844  -0.89978
  -0.90976  -0.45844  -0.66036
  -1.14918  -0.69786  -0.66036
  -1.62802  -0.45844  -0.18152
  -1.62802  -0.69786  -0.42094
  -1.86744  -0.69786  -0.18152
  -2.10686  -0.69786  -0.18152
  -2.34628  -0.93728   0.05790
  -2.58570  -0.69786   0.29732
  -2.58570  -0.93728   0.29732
  -3.06454  -0.93728   0.53674
  -3.06454  -0.93728   0.53674
  -3.30396  -0.93728   0.77616
  -3.30396  -0.93728   0.77616
  -3.30396  -0.93728   1.01558
  -3.54338  -0.93728   1.25500
  -3.78280  -0.93728   1.73384
  -3.54338  -0.93728   1.73384
  -3.54338  -0.93728   1.73384
  -3.54338  -0.69786   1.97326
  -3.54338  -0.45844   1.97326
  -3.54338  -0.69786   1.97326
  -3.54338  -0.21902   2.21268
  -3.30396  -0.21902   2.21268
  -3.54338  -0.21902   2.21268
  -3.30396   0.02040   1.97326
  -3.30396   0.25982   2.21268
  -3.30396   0.49924   1.97326
  -3.06454   0.49924   1.97326
  -3.06454   0.49924   1.97326
  -2.82512   0.49924   1.49442
  -2.82512   0.73866   1.49442
  -2.34628   0.73866   1.49442
  -2.10686   0.49924   1.25500
  -2.10686   0.73866   1.01558
  -1.62802   0.49924   1.01558
  -1.38860   0.73866   0.77616
  -1.14918   0.73866   0.77616
  -0.90976   0.49924   0.53674
  -0.43092   0.49924   0.53674
  -0.19150   0.25982   0.53674
   0.04792   0.49924   0.29732
   0.52676   0.25982   0.05790
   0.76618   0.25982   0.05790
   1.00560   0.25982  -0.18152
   1.24502   0.25982  -0.18152
   1.48444   0.02040  -0.18152
   1.72386   0.02040  -0.42094
   1.72386   0.25982  -0.42094
   2.20270   0.02040  -0.66036
   2.20270   0.02040  -0.42094
   2.44212   0.25982  -0.66036
   2.68154   0.25982  -0.89978
   2.68154   0.02040  -0.66036
   2.92096   0.25982  -0.89978
   3.16038   0.25982  -0.89978
   3.39980   0.25982  -1.13920
   3.63922   0.02040  -1.13920
   3.63922   0.25982  -0.89978
   3.63922   0.02040  -1.13920
   3.87864   0.25982  -0.89978
   4.11806   0.02040  -0.89978
   4.11806   0.02040  -0.89978
   4.11806   0.02040  -0.66036
   4.35748  -0.21902  -0.66036
   4.11806   0.02040  -0.66036
   4.11806   0.02040  -0.66036
   4.11806  -0.21902  -0.42094
   4.11806   0.02040  -0.18152
   4.11806  -0.21902  -0.18152
   3.87864   0.02040  -0.18152
   3.87864   0.02040  -0.18152
   3.63922   0.02040   0.05790
   3.63922   0.02040   0.29732
   3.63922   0.02040   0.29732
   3.39980   0.02040   0.29732
   3.16038   0.25982   0.53674
   2.92096   0.02040   0.77616
   2.68154   0.25982   1.01558
   2.44212   0.02040   1.01558
   2.20270   0.02040   1.25500
   1.96328   0.02040   1.49442
   1.72386   0.02040   1.49442
   1.48444   0.02040   1.73384
   1.24502   0.02040   1.97326
   1.00560   0.25982   2.21268
   0.76618   0.25982   1.97326
   0.52676   0.25982   2.21268
   0.28734   0.25982   2.21268
   0.04792   0.25982   2.45210
  -0.19150   0.25982   2.45210
  -0.43092   0.49924   2.69152
  -0.43092   0.49924   2.69152
  -0.67034   0.49924   2.69152
  -0.67034   0.25982   2.69152
  -0.90976   0.25982   2.69152
  -0.90976   0.25982   2.93094
  -1.14918   0.25982   2.93094
  -1.14918   0.02040   2.69152
  -1.38860  -0.21902   2.69152
  -1.38860  -0.21902   2.69152
  -1.62802  -0.21902   2.45210
  -1.62802  -0.21902   2.45210
  -1.86744  -0.21902   2.45210
  -2.10686  -0.21902   2.45210
  -2.34628  -0.21902   2.21268
  -2.34628  -0.21902   2.21268
  -2.58570   0.02040   1.97326
  -2.58570  -0.21902   1.73384
  -2.82512   0.02040   1.73384
  -3.06454  -0.21902   1.49442
  -3.06454   0.02040   1.49442
  -3.06454   0.02040   1.25500
  -3.06454   0.25982   1.25500
  -3.30396   0.25982   1.01558
  -3.06454   0.02040   0.77616
  -3.30396   0.25982   0.53674
  -3.30396   0.02040   0.29732
  -3.30396   0.25982   0.05790
  -3.06454   0.02040  -0.42094
  -3.06454   0.02040  -0.42094
  -3.06454   0.25982  -0.66036
  -2.82512   0.02040  -0.89978
  -2.82512   0.25982  -1.13920
  -2.58570   0.02040  -1.37862
  -2.58570   0.25982  -1.37862
  -2.34628   0.25982  -1.85746
  -2.10686   0.25982  -1.85746
  -1.86744   0.49924  -2.09688
  -1.86744   0.25982  -2.33630
  -1.62802   0.49924  -2.33630
  -1.14918   0.49924  -2.57572
  -1.38860   0.49924  -2.57572
  -0.90976   0.49924  -2.81514
  -0.90976   0.49924  -2.81514
  -0.67034   0.49924  -2.81514
  -0.43092   0.49924  -2.81514
  -0.43092   0.49924  -3.05456
   0.04792   0.49924  -3.05456
   0.04792   0.49924  -3.05456
   0.04792   0.49924  -3.05456
   0.28734   0.25982  -3.05456
   0.28734   0.25982  -3.05456
   0.52676   0.25982  -3.29398
   0.52676   0.25982  -3.29398
   1.00560   0.25982  -3.29398
   0.76618   0.02040  -3.29398
   1.00560   0.02040  -3.29398
   1.24502   0.02040  -3.29398
   1.00560   0.02040  -3.29398
   1.24502   0.02040  -3.05456
   1.24502   0.02040  -3.05456
   1.24502   0.02040  -2.81514
   1.24502   0.02040  -2.57572
   1.24502  -0.21902  -2.57572
   1.24502   0.02040  -2.09688
   1.24502   0.02040  -2.09688
   1.24502  -0.21902  -1.85746
   1.24502   0.02040  -1.61804
   1.48444  -0.21902  -1.37862
   1.48444   0.02040  -1.13920
   1.24502  -0.21902  -1.13920
   1.48444  -0.21902  -0.89978
   1.24502  -0.21902  -0.66036
   1.48444  -0.21902  -0.42094
   1.24502  -0.45844  -0.18152
   1.48444  -0.45844   0.05790
   1.24502  -0.45844   0.29732
   1.00560  -0.45844   0.53674
   1.00560  -0.45844   0.77616
   0.76618  -0.45844   1.01558
   1.00560  -0.45844   1.25500
   0.76618  -0.45844   1.49442
   0.76618  -0.21902   1.73384
   0.76618  -0.21902   1.97326
   0.76618  -0.21902   2.21268
   0.76618   0.02040   2.45210
   0.76618   0.02040   2.93094
   0.76618   0.25982   2.93094
   0.76618   0.25982   3.17036
   0.76618   0.25982   3.40978
   0.52676   0.25982   3.40978
   0.52676   0.25982   3.64920
   0.28734   0.49924   3.64920
   0.52676   0.25982   3.88862
   0.04792   0.25982   3.88862
   0.04792   0.25982   3.88862
  -0.19150   0.25982   4.12804
  -0.43092   0.02040   3.88862
  -0.43092   0.02040   3.88862
  -0.67034   0.02040   3.64920
  -0.67034   0.02040   3.64920
  -0.90976   0.02040   3.64920
  -0.90976   0.02040   3.40978
  -1.14918  -0.21902   3.17036
  -1.38860  -0.21902   3.17036
  -1.38860  -0.45844   2.69152
  -1.62802  -0.21902   2.69152
  -1.62802  -0.21902   2.21268
  -2.10686  -0.45844   2.21268
  -2.10686  -0.21902   1.97326
  -2.10686  -0.45844   1.73384
  -2.34628  -0.21902   1.49442
  -2.34628  -0.45844   1.25500
  -2.58570  -0.21902   1.25500
  -2.82512  -0.45844   0.77616
  -2.82512  -0.69786   0.77616
  -2.82512  -0.45844   0.53674
  -3.06454  -0.69786   0.53674
  -3.30396  -0.69786   0.29732
  -3.06454  -0.69786   0.05790
  -3.30396  -0.69786  -0.18152
  -3.30396  -0.93728  -0.18152
  -3.30396  -0.69786  -0.42094
  -3.30396  -0.93728  -0.66036
  -3.30396  -0.93728  -0.66036
  -3.30396  -0.93728  -1.13920
  -3.30396  -0.93728  -1.13920
  -3.54338  -0.93728  -1.37862
  -3.30396  -1.17670  -1.37862
  -3.30396  -0.93728  -1.61804
  -3.06454  -0.93728  -1.61804
  -3.06454  -0.93728  -1.85746
  -2.82512  -0.93728  -2.09688
  -2.82512  -0.93728  -2.09688
  -2.58570  -0.93728  -2.09688
  -2.58570  -0.93728  -2.09688
  -2.34628  -0.69786  -2.09688
  -2.10686  -0.69786  -2.33630
  -1.86744  -0.69786  -2.33630
  -1.62802  -0.45844  -2.57572
  -1.38860  -0.45844  -2.57572
  -1.14918  -0.21902  -2.81514
  -0.90976  -0.21902  -2.81514
  -0.67034   0.02040  -3.05456
  -0.43092   0.02040  -3.05456
  -0.19150   0.25982  -3.29398
   0.28734   0.25982  -3.29398
   0.52676   0.49924  -3.29398
   0.76618   0.49924  -3.53340
   1.00560   0.49924  -3.53340
   1.24502   0.73866  -3.77282
   1.72386   0.49924  -3.77282
   1.96328   0.73866  -3.77282
   2.20270   0.73866  -4.01224
   2.44212   0.73866  -3.77282
   2.44212   0.73866  -4.01224
   2.68154   0.49924  -3.77282
   2.92096   0.73866  -3.53340
   2.92096   0.49924  -3.77282
   3.16038   0.73866  -3.53340
   3.39980   0.73866  -3.53340
   3.39980   0.49924  -3.29398
   3.39980   0.73866  -3.29398
   3.63922   0.73866  -3.29398
   3.63922   0.49924  -3.05456
   3.87864   0.49924  -3.05456
   3.87864   0.49924  -2.81514
   3.87864   0.49924  -2.81514
   3.87864   0.49924  -2.81514
   3.63922   0.49924  -2.57572
   3.87864   0.49924  -2.57572
   3.63922   0.49924  -2.33630
   3.63922   0.49924  -2.33630
   3.63922   0.25982  -2.09688
   3.39980   0.25982  -1.85746
   3.39980   0.02040  -1.85746
   3.16038   0.02040  -1.61804
   2.92096  -0.21902  -1.37862
   2.92096  -0.21902  -1.37862
   2.68154  -0.45844  -0.89978
   2.44212  -0.45844  -0.89978
   2.20270  -0.45844  -0.66036
   1.72386  -0.45844  -0.66036
   1.72386  -0.69786  -0.42094
   1.24502  -0.21902  -0.18152
   1.24502  -0.45844   0.05790
   1.00560  -0.45844   0.05790
   0.52676  -0.45844   0.29732
   0.28734  -0.45844   0.53674
   0.04792  -0.21902   0.77616
  -0.19150  -0.21902   1.01558
  -0.43092  -0.21902   1.25500
  -0.43092  -0.21902   1.25500
  -0.67034  -0.21902   1.49442
  -0.90976   0.25982   1.73384
  -0.90976   0.02040   1.97326
  -1.14918   0.02040   2.21268
  -1.14918   0.02040   2.21268
  -1.14918   0.02040   2.45210
  -1.38860   0.02040   2.45210
  -1.38860   0.02040   2.69152
  -1.62802   0.02040   2.93094
  -1.38860  -0.21902   3.17036
  -1.62802   0.02040   3.40978
  -1.62802  -0.21902   3.64920
  -1.62802  -0.21902   3.88862
  -1.62802   0.02040   4.12804
  -1.62802  -0.21902   4.36746
  -1.62802  -0.21902   4.60689
  -1.62802  -0.21902   4.60689
  -1.38860  -0.21902   5.08573
  -1.62802   0.02040   5.08573
  -1.38860  -0.21902   5.32515
  -1.38860   0.02040   5.56457
  -1.38860   0.02040   5.56457
  -1.38860   0.02040   5.80399
  -1.14918   0.25982   5.56457
  -1.14918   0.02040   5.56457
  -1.14918   0.25982   5.56457
  -0.90976   0.02040   5.32515
  -0.90976   0.02040   5.56457
  -0.90976   0.25982   5.32515
  -0.67034   0.02040   5.32515
  -0.67034   0.02040   5.08573
  -0.43092   0.02040   4.84631
  -0.19150   0.02040   4.60689
  -0.19150   0.02040   4.36746
   0.04792  -0.21902   4.36746
   0.04792  -0.21902   3.88862
   0.28734  -0.21902   3.64920
   0.52676  -0.21902   3.40978
   0.76618  -0.21902   3.17036
   0.76618  -0.45844   2.93094
   1.00560  -0.21902   2.69152
   1.24502  -0.21902   2.45210
   1.24502  -0.21902   2.21268
   1.48444  -0.21902   1.73384
   1.48444  -0.21902   1.49442
   1.48444  -0.21902   1.25500
   1.72386  -0.45844   1.01558
   1.72386  -0.21902   0.77616
   1.96328  -0.21902   0.29732
   1.96328  -0.21902   0.05790
   1.96328  -0.21902  -0.18152
   1.96328   0.02040  -0.42094
   1.96328   0.25982  -0.66036
   2.20270   0.02040  -0.89978
   2.20270   0.25982  -0.89978
   2.44212   0.25982  -1.13920
   2.20270   0.25982  -1.37862
   2.44212   0.49924  -1.37862
   2.44212   0.49924  -1.61804
   2.44212   0.73866  -1.61804
   2.68154   0.73866  -1.85746
   2.68154   0.73866  -2.09688
   2.44212   0.73866  -2.33630
   2.68154   0.73866  -2.33630
   2.44212   0.97808  -2.57572
   2.68154   0.97808  -2.81514
   2.44212   0.97808  -2.81514
   2.20270   0.97808  -3.29398
   2.20270   1.21750  -3.29398
   1.96328   1.21750  -3.29398
   1.96328   1.21750  -3.53340
   1.72386   1.45692  -3.53340
   1.72386   1.21750  -3.77282
   1.48444   1.45692  -3.53340
   1.24502   1.45692  -3.77282
   1.24502   1.45692  -3.53340
   1.00560   1.45692  -3.77282
   1.00560   1.45692  -3.77282
   0.76618   1.45692  -3.53340
   0.52676   1.21750  -3.77282
   0.28734   1.21750  -3.53340
   0.28734   1.21750  -3.53340
   0.04792   0.97808  -3.53340
  -0.19150   0.97808  -3.53340
  -0.19150   0.73866  -3.77282
  -0.67034   0.73866  -3.53340
  -0.67034   0.49924  -3.53340
  -0.90976   0.49924  -3.29398
  -1.14918   0.25982  -3.29398
  -1.38860   0.02040  -3.05456
  -1.62802   0.02040  -3.05456
  -1.62802  -0.21902  -2.81514
  -2.10686  -0.21902  -2.57572
  -2.10686  -0.45844  -2.57572
  -2.34628  -0.45844  -2.33630
  -2.58570  -0.69786  -2.33630
  -2.58570  -0.69786  -2.09688
  -2.82512  -0.69786  -1.85746
  -2.82512  -0.69786  -1.61804
  -3.06454  -0.69786  -1.61804
  -2.82512  -0.69786  -1.37862
  -3.06454  -0.45844  -1.37862
  -3.06454  -0.45844  -1.37862
  -3.06454  -0.45844  -1.13920
  -3.06454  -0.45844  -0.89978
  -2.82512  -0.45844  -0.89978
  -2.82512  -0.45844  -0.66036
  -2.82512  -0.45844  -0.42094
  -2.82512  -0.21902  -0.18152
  -2.82512  -0.21902   0.05790
  -2.82512  -0.21902   0.29732
  -2.82512  -0.21902   0.29732
  -2.82512  -0.21902   0.77616
  -2.82512  -0.21902   0.77616
  -2.82512  -0.45844   1.01558
  -2.82512  -0.21902   1.25500
  -2.82512  -0.21902   1.25500
  -2.82512  -0.21902   1.49442
  -2.82512  -0.21902   1.49442
  -2.58570  -0.21902   1.97326
  -2.58570   0.02040   2.21268
  -2.34628  -0.21902   1.97326
  -2.34628   0.02040   2.45210
  -2.10686   0.02040   2.45210
  -2.10686  -0.21902   2.69152
  -1.86744   0.02040   2.69152
  -1.62802  -0.21902   2.69152
  -1.62802  -0.21902   2.93094
  -1.38860  -0.21902   2.93094
  -1.14918  -0.21902   3.17036
  -0.90976  -0.21902   3.17036
  -0.43092  -0.21902   3.17036
  -0.67034  -0.21902   3.17036
  -0.19150  -0.21902   3.17036
   0.04792  -0.21902   3.17036
   0.04792  -0.21902   3.17036
   0.28734  -0.21902   3.17036
   0.28734  -0.21902   3.17036
   0.52676  -0.21902   2.93094
   0.28734  -0.21902   3.17036
   0.52676   0.02040   2.93094
   0.52676  -0.21902   2.93094
   0.52676   0.02040   2.93094
   0.76618   0.02040   2.69152
   0.52676   0.02040   2.69152
   0.76618   0.02040   2.21268
   0.76618   0.02040   2.21268
   0.76618   0.25982   1.97326
   0.76618   0.25982   1.73384
   0.76618   0.25982   1.73384
   0.76618   0.02040   1.25500
   0.76618   0.25982   1.25500
   0.76618   0.02040   1.01558
   1.00560   0.02040   0.77616
   0.76618   0.02040   0.77616
   1.00560   0.02040   0.53674
   0.76618  -0.21902   0.53674
   1.00560  -0.21902   0.29732
   0.76618  -0.45844   0.29732
   0.76618  -0.21902   0.05790
   0.76618  -0.45844   0.05790
   0.76618  -0.45844   0.05790
   0.76618  -0.45844  -0.18152
   0.76618  -0.45844  -0.18152
   0.76618  -0.45844  -0.42094
   0.76618  -0.69786  -0.42094
   0.76618  -0.69786  -0.42094
   0.76618  -0.69786  -0.66036
   0.76618  -0.69786  -0.66036
   0.76618  -0.69786  -0.66036
   0.76618  -0.69786  -0.66036
   0.76618  -0.69786  -0.66036
