********************************************************************************
               CENTRO DE INSTRUMENTACION Y REGISTRO SISMICO  A.C.  
                       Coordinacion de Servicios Tecnicos
     Anaxagoras 814, Col. Narvarte, Benito Juarez, C.P. 03020 Mexico, D.F.
            Tels. 687 45 42/ 687 45  82             Fax. 669 25 12
********************************************************************************
ARCHIVO ESTANDAR DE ACELERACION:
VERSION DEL FORMATO                    : 2.0
NOMBRE DEL ARCHIVO                     : AO240406.141
FECHA Y HORA DE CREACION               : 09/NOV/04, 09:45
REF. CATALOGO ACELEROGRAMAS, SMIS 1996 : REGISTRO No.     /PAG.


================================================================================
DATOS DE LA ESTACION:
NOMBRE DE LA ESTACION                  : ALBERCA OLIMPICA
CLAVE DE LA ESTACION                   : AO24
LOCALIZACION DE LA ESTACION            : Alberca Olimpica Rio Churubusco y
                                       : Division del Norte, Col Pedro Ma
                                       : Anaya, Benito Juarez
                                       :
                                       :
COORDENADAS DE LA ESTACION             : 19.358 LAT. N 
                                       : 99.154 LONG. W 
ALTITUD (msnm)                         : 2235
TIPO DE SUELO                          : TRANSICION
                                       : 
                                       : 
INSTITUCION RESPONSABLE                : CIRES
                                       :

================================================================================
DATOS DEL ACELEROGRAFO:
MODELO DEL ACELEROGRAFO                : RAD-851
NUMERO DE SERIE DEL ACELEROGRAFO       : 257
NUMERO DE CANALES                      : 3
ORIENTACION C1-C6 (rumbo;orientacion)  : /N00E/+V/N90W
ORIENTACION C7-C12 (rumbo;orientacion) :
VEL. DE MUESTREO, C1-C6 (muestras/s)   : /100/100/100
VEL. DE MUESTREO, C7-C12 (muestras/s)  :
ESC. COMPLETA DE SENSORES, C1-C6, (g)  : /0.5/0.5/0.5
ESC. COMPLETA DE SENSORES, C7-C12, (g) :
FREC. NAT. DE SENSORES, C1-C6, (Hz)    : /30/30/30
FREC. NAT. DE SENSORES, C7-C12, (Hz)   :
AMORTIGUAMIENTO DE SENSORES, C1-C6     : /0.700/0.700/0.700
AMORTIGUAMIENTO DE SENSORES, C7-C12    :
INTERVALO DE MUESTREO, C1-C6, (s)      : /0.01/0.01/0.01
INTERVALO DE MUESTREO, C7-C12, (s)     :
UMBRAL DE DISPARO, C1-C6, (Gal)        : /1.95/2.93/1.95
UMBRAL DE DISPARO, C7-C12, (Gal)       :
MEMORIA DE PREEVENTO (s)               : 24
TIEMPO DE POSEVENTO (s)                : 64


================================================================================
DATOS DEL SISMO:
FECHA DEL SISMO (GMT)                  : 16/DIC/97
HORA EPICENTRO (GMT)                   : 11:48:29:6
MAGNITUD(ES)                           : /Ms=5.5
COORDENADAS DEL EPICENTRO              : 15.7 LAT. N
                                       : 99.0 LONG. W
PROFUNDIDAD FOCAL (km)                 : 16.0
FUENTE DE LOS DATOS EPICENTRALES       : INSTITUTO DE INGENIERIA UNAM
                                       : INSTITUTO DE GEOFISICA, UNAM

================================================================================
DATOS DE ESTE REGISTRO:
HORA DE LA PRIMERA MUESTRA (GMT)       : 22:56:09.00
EXACTITUD DEL TIEMPO (s)               : 0.01
DURACION DEL REGISTRO (s), C1-C6       : /110.75/110.75/110.75
DURACION DEL REGISTRO (s), C7-C12      :
NUM. TOTAL DE MUESTRAS, C1-C6          : /11075/11075/11075
NUM. TOTAL DE MUESTRAS, C7-C12         :
ACEL. MAX. (Gal), C1-C6                : /5.53980/1.08438/3.95473
ACEL. MAX., C1-C6, EN LA MUESTRA       :
ACEL. MAX. (Gal), C7-C12               :
ACEL. MAX., C7-C12, EN LA MUESTRA      :
UNIDADES DE LOS DATOS                  : Gal (cm/s/s)
FACTOR DE DECIMACION                   : 1
FORMATO DATOS (FORTRAN,10 campos/dato) : 3F10.5


================================================================================
CALIDAD DEL ACELEROGRAMA:
REGISTRO DIGITAL COMPLETO CON TIEMPO ABSOLUTO CORRECTO.


================================================================================
COMENTARIOS:














================================================================================
DATOS DE ACELERACION:
---------+---------+---------+---------+---------+---------+---------+---------+
   CANAL-1   CANAL-2   CANAL-3   CANAL-4   CANAL-5   CANAL-6   CANAL-7   CANAL-8
      N00E        +V      N90W
---------+---------+---------+---------+---------+---------+---------+---------+
[...]
  -3.31870   0.60554   0.60286
  -3.07928   0.84496   0.84228
  -2.83987   0.60554   1.08170
  -2.83987   0.60554   1.32112
  -2.60045   0.60554   1.32112
  -2.60045   0.60554   1.08170
  -2.36103   0.60554   1.08170
  -2.36103   0.60554   1.32112
  -2.12161   0.60554   1.32112
  -2.12161   0.60554   1.32112
  -1.88219   0.36612   1.32112
  -1.64277   0.60554   1.32112
  -1.64277   0.36612   1.32112
  -1.40335   0.12670   1.08170
  -1.16393   0.12670   1.08170
  -0.92451   0.12670   0.84228
  -0.44568   0.12670   0.84228
  -0.44568   0.12670   0.84228
   0.03316  -0.11272   0.36344
   0.27258  -0.11272   0.36344
   0.51200   0.12670   0.36344
   0.99084  -0.11272   0.12402
   1.23026  -0.11272   0.12402
   1.46968  -0.11272   0.12402
   1.70909  -0.11272   0.12402
   1.94851   0.12670   0.12402
   1.94851   0.12670   0.12402
   2.18793   0.12670   0.12402
   2.18793   0.12670   0.60286
   2.42735   0.36612   0.36344
   2.42735   0.36612   0.60286
   2.18793   0.36612   0.60286
   2.42735   0.36612   0.60286
   2.42735   0.36612   0.84228
   2.42735   0.36612   0.84228
   2.42735   0.36612   0.60286
   2.42735   0.36612   0.36344
   2.66677   0.60554   0.36344
   2.66677   0.36612   0.12402
   2.90619   0.36612  -0.11540
   2.90619   0.12670  -0.11540
   3.14561   0.12670  -0.11540
   3.14561   0.36612  -0.11540
   3.62445   0.12670  -0.35482
   3.62445   0.12670  -0.35482
   3.62445   0.12670  -0.35482
   3.62445  -0.11272  -0.35482
   3.62445  -0.35214  -0.35482
   3.86387  -0.11272  -0.11540
   3.38503  -0.11272  -0.35482
   3.62445  -0.59155  -0.11540
   3.14561  -0.11272   0.12402
   2.90619  -0.11272  -0.11540
   3.14561  -0.35214   0.12402
   2.42735  -0.35214   0.36344
   2.66677  -0.35214   0.12402
   2.42735  -0.11272   0.12402
   1.94851  -0.35214   0.12402
   2.18793  -0.59155   0.12402
   1.94851  -0.11272  -0.11540
   1.70909  -0.11272  -0.11540
   1.46968  -0.35214   0.12402
   1.46968  -0.11272   0.12402
   1.23026   0.12670   0.12402
   0.75142  -0.11272   0.12402
   0.75142  -0.11272   0.12402
   0.51200   0.36612   0.12402
   0.51200   0.36612   0.36344
   0.27258   0.12670   0.36344
  -0.20626   0.12670   0.36344
  -0.20626   0.36612   0.36344
  -0.44568   0.36612   0.60286
  -0.44568   0.36612   0.60286
  -0.44568   0.36612   0.60286
  -0.68509   0.36612   0.36344
  -0.68509   0.12670   0.60286
  -0.68509   0.12670   0.36344
  -0.92451   0.12670   0.36344
  -1.16393  -0.11272   0.36344
  -1.16393  -0.11272   0.12402
  -1.16393  -0.35214   0.36344
  -1.40335  -0.11272   0.36344
  -1.64277  -0.35214   0.12402
  -1.88219  -0.59155   0.12402
  -2.12161  -0.35214  -0.11540
  -2.36103  -0.35214   0.12402
  -2.60045  -0.59155  -0.11540
  -2.83987  -0.59155  -0.35482
  -2.83987  -0.35214  -0.35482
  -2.83987  -0.35214  -0.35482
  -2.83987  -0.35214  -0.35482
  -3.07928  -0.35214  -0.35482
  -3.07928  -0.35214  -0.59423
  -3.07928  -0.35214  -0.35482
  -3.07928  -0.35214  -0.35482
  -3.07928  -0.11272  -0.35482
  -3.07928  -0.11272  -0.35482
  -2.83987  -0.11272  -0.35482
  -2.83987  -0.11272  -0.35482
  -2.83987   0.12670  -0.35482
  -2.83987  -0.11272  -0.35482
  -2.60045   0.12670  -0.35482
  -2.60045   0.12670  -0.35482
  -2.60045   0.12670  -0.11540
  -2.60045   0.36612   0.12402
  -2.60045   0.12670   0.12402
  -2.60045   0.12670  -0.11540
  -2.36103   0.36612  -0.11540
  -2.12161   0.12670   0.12402
  -2.12161   0.12670  -0.11540
  -1.88219   0.12670  -0.11540
  -1.64277  -0.11272  -0.11540
  -1.40335  -0.11272  -0.11540
  -1.16393  -0.11272  -0.11540
  -1.16393  -0.35214  -0.11540
  -0.68509  -0.35214  -0.11540
  -0.68509  -0.11272  -0.11540
  -0.44568  -0.11272  -0.11540
  -0.20626  -0.11272  -0.11540
  -0.20626  -0.11272  -0.11540
   0.03316   0.12670  -0.11540
   0.27258   0.12670  -0.11540
   0.27258   0.12670  -0.11540
   0.51200   0.12670  -0.11540
   0.51200   0.12670  -0.11540
   0.51200   0.12670  -0.11540
   0.51200   0.36612  -0.11540
   0.75142   0.12670  -0.11540
   0.51200  -0.11272  -0.35482
   0.75142  -0.11272  -0.35482
   0.75142  -0.11272  -0.35482
   0.75142  -0.11272  -0.35482
   0.99084  -0.11272  -0.11540
   0.99084   0.12670  -0.11540
   0.99084   0.12670  -0.11540
   1.23026   0.12670  -0.11540
   1.46968   0.12670   0.12402
   1.46968   0.12670   0.12402
   1.70909   0.36612   0.12402
   1.70909   0.36612   0.36344
   1.94851   0.36612   0.60286
   1.94851   0.36612   0.60286
   2.18793   0.60554   0.60286
   2.18793   0.60554   0.84228
   2.18793   0.60554   0.84228
   1.94851   0.36612   0.84228
   2.18793   0.36612   0.84228
   2.18793   0.36612   0.84228
   2.18793   0.36612   0.84228
   2.18793   0.36612   0.84228
   2.18793   0.36612   0.84228
   2.18793   0.36612   0.60286
   2.18793   0.36612   0.60286
   1.94851   0.36612   0.60286
   1.94851   0.36612   0.60286
   1.94851   0.60554   0.60286
   1.70909   0.60554   0.60286
   1.70909   0.60554   0.60286
   1.70909   0.60554   0.60286
   1.70909   0.84496   0.60286
   1.70909   0.84496   0.84228
   1.46968   0.60554   0.84228
   1.46968   0.60554   0.84228
   1.46968   0.60554   1.08170
   1.70909   0.60554   1.08170
   1.70909   0.36612   1.08170
   1.46968   0.36612   1.08170
   1.46968   0.12670   1.08170
   1.46968   0.12670   1.08170
   1.23026   0.12670   1.08170
   1.23026  -0.11272   0.84228
   0.99084  -0.11272   0.60286
   0.75142  -0.11272   0.60286
   0.75142  -0.11272   0.36344
   0.27258  -0.11272   0.12402
   0.27258   0.12670   0.12402
   0.03316   0.12670  -0.11540
   0.03316   0.36612  -0.11540
  -0.20626   0.36612  -0.35482
  -0.20626   0.12670  -0.59423
  -0.20626   0.36612  -0.83365
  -0.20626   0.36612  -0.83365
  -0.20626   0.12670  -1.07307
   0.03316   0.12670  -1.07307
   0.03316   0.12670  -1.31249
   0.03316  -0.11272  -1.31249
   0.27258  -0.35214  -1.31249
   0.27258  -0.11272  -1.55191
   0.03316  -0.35214  -1.55191
   0.03316  -0.59155  -1.79133
   0.27258  -0.59155  -1.55191
   0.03316  -0.35214  -1.55191
   0.03316  -0.59155  -1.55191
  -0.20626  -0.59155  -1.79133
  -0.20626  -0.59155  -1.79133
  -0.20626  -0.35214  -1.79133
  -0.44568  -0.35214  -1.79133
  -0.68509  -0.35214  -2.03075
  -0.68509  -0.35214  -2.03075
  -0.68509  -0.11272  -2.03075
  -0.92451  -0.35214  -2.03075
  -0.68509   0.12670  -2.03075
  -0.92451   0.12670  -2.03075
  -0.68509   0.12670  -2.03075
  -0.68509   0.12670  -2.03075
  -0.68509   0.12670  -2.03075
  -0.44568   0.12670  -2.03075
  -0.44568  -0.11272  -2.03075
  -0.20626  -0.11272  -1.79133
  -0.20626  -0.11272  -1.79133
   0.03316  -0.35214  -1.79133
   0.03316  -0.59155  -1.79133
   0.27258  -0.59155  -1.55191
   0.27258  -0.59155  -1.55191
   0.51200  -0.83097  -1.55191
   0.27258  -1.07039  -1.31249
   0.27258  -0.83097  -1.31249
   0.27258  -0.83097  -1.31249
   0.27258  -0.59155  -1.07307
   0.03316  -0.83097  -1.07307
   0.27258  -0.83097  -1.07307
   0.03316  -0.59155  -0.83365
   0.27258  -0.83097  -0.59423
   0.03316  -0.59155  -0.59423
   0.27258  -0.59155  -0.59423
   0.27258  -0.35214  -0.35482
   0.51200  -0.11272   0.12402
   0.51200  -0.11272   0.12402
   0.51200  -0.35214   0.12402
   0.51200  -0.35214   0.36344
   0.75142  -0.35214   0.60286
   0.75142  -0.35214   0.84228
   0.75142  -0.35214   0.84228
   0.75142  -0.59155   1.08170
   0.75142  -0.59155   1.32112
   0.75142  -0.59155   1.79995
   0.99084  -0.59155   1.79995
   0.75142  -0.59155   2.03937
   0.99084  -0.59155   2.03937
   0.99084  -0.59155   2.51821
   0.99084  -0.59155   2.27879
   0.99084  -0.59155   2.51821
   0.99084  -0.59155   2.27879
   0.99084  -0.59155   2.51821
   0.99084  -0.59155   2.51821
   0.99084  -0.35214   2.51821
   0.99084  -0.35214   2.51821
   0.99084  -0.11272   2.51821
   0.99084  -0.11272   2.51821
   0.99084   0.12670   2.51821
   0.75142   0.12670   2.51821
   0.51200   0.12670   2.51821
   0.75142   0.36612   2.75763
   0.51200   0.60554   2.51821
   0.27258   0.60554   2.51821
   0.03316   0.60554   2.75763
   0.03316   0.60554   2.75763
   0.03316   0.60554   2.75763
  -0.20626   0.12670   2.75763
  -0.20626   0.12670   2.51821
  -0.44568   0.12670   2.51821
  -0.44568  -0.11272   2.51821
  -0.68509  -0.35214   2.51821
  -0.92451  -0.35214   2.27879
  -0.92451  -0.59155   2.27879
  -1.16393  -0.59155   2.27879
  -1.16393  -0.59155   2.03937
  -1.16393  -0.59155   2.03937
  -1.40335  -0.59155   1.56054
  -1.40335  -0.59155   1.56054
  -1.40335  -0.59155   1.56054
  -1.40335  -0.59155   1.08170
  -1.40335  -0.59155   1.08170
  -1.64277  -0.59155   0.84228
  -1.64277  -0.35214   0.60286
  -1.64277  -0.35214   0.60286
  -1.88219  -0.35214   0.36344
  -2.12161  -0.35214   0.12402
  -2.36103  -0.11272  -0.11540
  -2.36103  -0.11272  -0.11540
  -2.36103  -0.11272  -0.11540
  -2.60045  -0.35214  -0.35482
  -2.60045  -0.11272  -0.35482
  -2.83987  -0.35214  -0.59423
  -2.83987  -0.11272  -0.59423
  -2.83987  -0.11272  -0.59423
  -2.83987  -0.11272  -0.83365
  -2.83987  -0.11272  -1.07307
  -2.83987  -0.35214  -1.31249
  -2.83987  -0.35214  -1.31249
  -3.07928  -0.35214  -1.55191
  -3.31870  -0.35214  -1.79133
  -3.31870  -0.35214  -2.03075
  -3.55812  -0.35214  -2.27017
  -3.55812  -0.35214  -2.27017
  -3.79754  -0.11272  -2.50959
  -3.79754  -0.11272  -2.74901
  -3.79754  -0.11272  -2.98842
  -3.79754   0.12670  -2.98842
  -3.79754   0.12670  -3.22784
  -3.79754   0.12670  -2.98842
  -3.79754   0.12670  -3.22784
  -3.79754   0.36612  -3.22784
  -3.79754   0.12670  -3.22784
  -3.55812   0.12670  -2.98842
  -3.55812   0.12670  -2.98842
  -3.31870   0.12670  -2.98842
  -3.31870  -0.11272  -2.74901
  -3.07928  -0.11272  -2.74901
  -3.07928  -0.11272  -2.50959
  -2.83987   0.12670  -2.50959
  -2.60045  -0.11272  -2.50959
  -2.60045  -0.11272  -2.50959
  -2.36103  -0.11272  -2.27017
  -2.36103   0.12670  -2.27017
  -2.12161   0.36612  -2.27017
  -1.88219   0.12670  -2.27017
  -1.88219   0.36612  -2.27017
  -1.64277   0.36612  -2.27017
  -1.40335   0.36612  -2.03075
  -1.40335   0.36612  -2.03075
  -1.16393   0.36612  -2.03075
  -0.92451   0.36612  -2.03075
  -0.68509   0.60554  -1.79133
  -0.44568   0.36612  -1.79133
  -0.20626   0.36612  -1.79133
   0.03316   0.36612  -1.79133
   0.27258   0.36612  -1.31249
   0.75142   0.36612  -1.31249
   0.99084   0.60554  -1.31249
   1.23026   0.60554  -1.07307
   1.46968   0.36612  -0.83365
   1.94851   0.60554  -0.59423
   2.18793   0.60554  -0.59423
   2.42735   0.60554  -0.35482
   2.66677   0.84496  -0.35482
   3.14561   0.84496  -0.11540
   3.38503   0.84496   0.12402
   3.62445   0.60554   0.36344
   3.86387   0.60554   0.36344
   4.34270   0.84496   0.60286
   4.34270   0.60554   0.84228
   4.58212   0.60554   0.84228
   4.58212   0.60554   1.08170
   5.06096   0.60554   1.08170
   5.06096   0.60554   1.08170
   5.06096   0.60554   1.32112
   5.06096   0.60554   1.56054
   5.30038   0.36612   1.56054
   5.53980   0.60554   1.79995
   5.30038   0.36612   1.79995
   5.53980   0.12670   1.79995
   5.30038   0.36612   2.03937
   5.53980   0.36612   2.27879
   5.30038   0.36612   2.03937
   5.30038   0.36612   2.27879
   5.30038   0.36612   2.27879
   5.06096   0.36612   2.51821
   5.06096   0.36612   2.51821
   5.06096   0.36612   2.51821
   4.82154   0.36612   2.51821
   4.82154   0.60554   2.51821
   4.58212   0.60554   2.27879
   4.34270   0.36612   2.51821
   4.58212   0.60554   2.27879
   4.34270   0.60554   2.27879
   4.10328   0.36612   2.03937
   4.10328   0.36612   2.03937
   4.10328   0.36612   1.79995
   3.86387   0.36612   1.79995
   3.62445   0.12670   1.79995
   3.38503   0.12670   1.56054
   3.38503   0.12670   1.56054
   2.90619   0.12670   1.56054
   2.66677   0.12670   1.32112
   2.42735   0.12670   1.32112
   2.18793   0.12670   1.32112
   1.70909   0.36612   1.32112
   1.46968   0.36612   1.32112
   0.99084   0.36612   1.08170
   0.51200   0.36612   1.08170
   0.27258   0.60554   1.08170
   0.03316   0.60554   0.84228
  -0.20626   0.12670   0.60286
  -0.68509   0.12670   0.36344
  -0.68509  -0.11272   0.36344
  -0.92451  -0.11272   0.12402
  -1.16393  -0.11272   0.12402
  -1.40335  -0.35214  -0.11540
  -1.64277  -0.35214  -0.59423
  -1.88219  -0.35214  -0.59423
  -2.12161  -0.35214  -0.59423
  -2.36103  -0.35214  -0.59423
  -2.36103  -0.59155  -0.83365
  -2.83987  -0.59155  -0.83365
  -2.83987  -0.35214  -0.83365
  -3.07928  -0.35214  -0.83365
  -3.07928  -0.35214  -0.83365
  -3.31870  -0.11272  -0.83365
  -3.55812  -0.11272  -0.83365
  -3.79754   0.12670  -0.83365
  -3.79754   0.12670  -0.83365
  -3.79754   0.12670  -0.83365
  -3.79754   0.12670  -0.83365
  -4.03696   0.12670  -0.83365
  -4.03696   0.12670  -0.83365
  -4.03696   0.12670  -0.83365
  -4.03696   0.12670  -0.83365
  -4.27638   0.12670  -0.83365
  -4.27638   0.12670  -0.83365
  -4.03696   0.12670  -0.83365
  -4.03696   0.12670  -0.59423
  -4.03696   0.12670  -0.59423
  -4.03696  -0.11272  -0.59423
  -3.79754  -0.11272  -0.35482
  -3.79754  -0.35214  -0.35482
  -3.55812  -0.35214  -0.11540
  -3.31870  -0.35214  -0.11540
  -3.07928  -0.59155  -0.11540
  -3.31870  -0.35214  -0.11540
  -3.31870  -0.59155  -0.11540
  -2.83987  -0.59155   0.12402
  -2.60045  -0.35214   0.12402
  -3.07928  -0.59155   0.12402
  -2.83987  -0.83097   0.36344
  -2.83987  -0.59155   0.36344
  -3.07928  -0.59155   0.36344
  -2.83987  -0.59155   0.84228
  -2.83987  -0.59155   0.60286
  -2.60045  -0.35214   0.84228
  -2.60045  -0.59155   1.08170
  -2.12161  -0.59155   1.08170
  -2.12161  -0.35214   1.08170
  -2.12161  -0.59155   1.08170
  -1.88219  -0.35214   1.08170
  -1.64277  -0.35214   1.32112
  -1.16393  -0.35214   1.32112
  -0.92451  -0.35214   1.08170
  -0.68509  -0.11272   1.08170
  -0.44568  -0.11272   1.08170
  -0.20626  -0.11272   1.08170
  -0.20626  -0.11272   0.84228
   0.03316  -0.11272   1.08170
   0.27258  -0.11272   1.08170
   0.27258  -0.11272   1.32112
   0.51200   0.12670   1.56054
   0.51200  -0.11272   1.56054
   0.75142  -0.11272   1.56054
   0.75142  -0.11272   1.56054
   0.99084  -0.11272   1.79995
   0.99084  -0.35214   1.79995
   0.99084  -0.35214   1.56054
   1.23026  -0.35214   1.56054
   0.99084  -0.11272   1.56054
   1.23026  -0.11272   1.56054
   1.46968  -0.11272   1.32112
   1.23026   0.12670   1.32112
   1.23026   0.12670   1.32112
   1.46968   0.12670   1.32112
   1.46968   0.12670   0.84228
   1.46968   0.12670   0.84228
   1.70909   0.12670   0.84228
   1.70909  -0.11272   0.84228
   1.70909  -0.11272   0.60286
   1.94851  -0.35214   0.36344
   1.94851  -0.35214   0.12402
   2.18793  -0.35214   0.12402
   2.18793  -0.59155  -0.11540
   2.18793  -0.59155  -0.35482
   2.18793  -0.83097  -0.35482
   1.94851  -0.83097  -0.11540
   1.94851  -0.83097  -0.35482
   1.94851  -0.59155  -0.59423
   1.70909  -0.83097  -0.59423
   1.70909  -0.83097  -0.59423
   1.70909  -0.59155  -0.59423
   1.70909  -0.59155  -0.59423
   1.46968  -0.59155  -0.83365
   1.70909  -0.35214  -0.83365
   1.70909  -0.35214  -0.83365
   1.70909  -0.35214  -1.07307
   1.70909  -0.11272  -1.31249
   1.94851   0.12670  -1.31249
   1.94851   0.12670  -1.31249
   1.94851   0.12670  -1.55191
   1.94851   0.12670  -1.79133
   1.94851   0.12670  -2.03075
   1.94851   0.12670  -2.03075
   1.94851   0.12670  -2.03075
   1.70909   0.12670  -2.27017
   1.70909   0.12670  -2.27017
   1.70909  -0.11272  -2.50959
   1.70909  -0.11272  -2.50959
   1.46968  -0.11272  -2.50959
   1.23026  -0.35214  -2.50959
   1.70909  -0.59155  -2.74901
   1.23026  -0.35214  -2.74901
   1.23026  -0.35214  -2.74901
   1.23026  -0.35214  -2.74901
