********************************************************************************
               CENTRO DE INSTRUMENTACION Y REGISTRO SISMICO  A.C.  
                       Coordinacion de Servicios Tecnicos
     Anaxagoras 814, Col. Narvarte, Benito Juarez, C.P. 03020 Mexico, D.F.
            Tels. 687 45 42/ 687 45  82             Fax. 669 25 12
********************************************************************************
ARCHIVO ESTANDAR DE ACELERACION:
VERSION DEL FORMATO                    : 2.0
NOMBRE DEL ARCHIVO                     : AO249707.192
FECHA Y HORA DE CREACION               : 19/MAR/98, 10:38
REF. CATALOGO ACELEROGRAMAS, SMIS 1996 : REGISTRO No.     /PAG.


================================================================================
DATOS DE LA ESTACION:
NOMBRE DE LA ESTACION                  : ALBERCA OLIMPICA
CLAVE DE LA ESTACION                   : AO24
LOCALIZACION DE LA ESTACION            : Alberca Olimpica Rio Churubusco y
                                       : Division del Norte, Col Pedro Ma
                                       : Anaya, Benito Juarez
                                       :
                                       :
COORDENADAS DE LA ESTACION             : 19.358 LAT. N 
                                       : 99.154 LONG. W 
ALTITUD (msnm)                         : 2235
TIPO DE SUELO                          : TRANSICION
                                       : 
                                       : 
INSTITUCION RESPONSABLE                : CIRES
                                       :

================================================================================
DATOS DEL ACELEROGRAFO:
MODELO DEL ACELEROGRAFO                : RAD-851
NUMERO DE SERIE DEL ACELEROGRAFO       : 257
NUMERO DE CANALES                      : 3
ORIENTACION C1-C6 (rumbo;orientacion)  : /N00E/+V/N90W
ORIENTACION C7-C12 (rumbo;orientacion) :
VEL. DE MUESTREO, C1-C6 (muestras/s)   : /100/100/100
VEL. DE MUESTREO, C7-C12 (muestras/s)  :
ESC. COMPLETA DE SENSORES, C1-C6, (g)  : /0.5/0.5/0.5
ESC. COMPLETA DE SENSORES, C7-C12, (g) :
FREC. NAT. DE SENSORES, C1-C6, (Hz)    : /30/30/30
FREC. NAT. DE SENSORES, C7-C12, (Hz)   :
AMORTIGUAMIENTO DE SENSORES, C1-C6     : /0.700/0.700/0.700
AMORTIGUAMIENTO DE SENSORES, C7-C12    :
INTERVALO DE MUESTREO, C1-C6, (s)      : /0.01/0.01/0.01
INTERVALO DE MUESTREO, C7-C12, (s)     :
UMBRAL DE DISPARO, C1-C6, (Gal)        : /1.95/2.93/1.95
UMBRAL DE DISPARO, C7-C12, (Gal)       :
MEMORIA DE PREEVENTO (s)               : 16
TIEMPO DE POSEVENTO (s)                : 48


================================================================================
DATOS DEL SISMO:
FECHA DEL SISMO (GMT)                  : 19/JUL/97
HORA EPICENTRO (GMT)                   : 14:22:04:1
MAGNITUD(ES)                           : /Ms=6.3
COORDENADAS DEL EPICENTRO              : 15.8 LAT. N
                                       : 98.3 LONG. W
PROFUNDIDAD FOCAL (km)                 : 5.0
FUENTE DE LOS DATOS EPICENTRALES       : SSN
                                       : INSTITUTO DE GEOFISICA, UNAM

================================================================================
DATOS DE ESTE REGISTRO:
HORA DE LA PRIMERA MUESTRA (GMT)       : 14:24:22.00
EXACTITUD DEL TIEMPO (s)               : 0.01
DURACION DEL REGISTRO (s), C1-C6       : /97.75/97.75/97.75
DURACION DEL REGISTRO (s), C7-C12      :
NUM. TOTAL DE MUESTRAS, C1-C6          : /9775/9775/9775
NUM. TOTAL DE MUESTRAS, C7-C12         :
ACEL. MAX. (Gal), C1-C6                : /2.54801/0.51440/1.84538
ACEL. MAX., C1-C6, EN LA MUESTRA       :
ACEL. MAX. (Gal), C7-C12               :
ACEL. MAX., C7-C12, EN LA MUESTRA      :
UNIDADES DE LOS DATOS                  : Gal (cm/s/s)
FACTOR DE DECIMACION                   : 1
FORMATO DATOS (FORTRAN,10 campos/dato) : 3F10.5


================================================================================
CALIDAD DEL ACELEROGRAMA:
REGISTRO DIGITAL COMPLETO CON TIEMPO ABSOLUTO CORRECTO.


================================================================================
COMENTARIOS:














================================================================================
DATOS DE ACELERACION:
---------+---------+---------+---------+---------+---------+---------+---------+
   CANAL-1   CANAL-2   CANAL-3   CANAL-4   CANAL-5   CANAL-6   CANAL-7   CANAL-8
      N00E        +V      N90W
---------+---------+---------+---------+---------+---------+---------+---------+
[...]
   0.56444   0.27498   0.78823
   0.56444   0.03556   0.78823
   0.56444   0.03556   0.78823
   0.56444   0.27498   0.78823
   0.56444   0.27498   0.78823
   0.56444   0.27498   0.78823
   0.56444   0.27498   0.78823
   0.56444   0.27498   0.78823
   0.56444   0.27498   0.78823
   0.56444   0.27498   0.78823
   0.56444   0.27498   0.54881
   0.56444   0.27498   0.54881
   0.56444   0.27498   0.54881
   0.56444   0.27498   0.54881
   0.56444   0.27498   0.54881
   0.56444   0.27498   0.30940
   0.56444   0.27498   0.30940
   0.56444   0.27498   0.30940
   0.32502   0.27498   0.30940
   0.56444   0.27498   0.06998
   0.32502   0.03556   0.06998
   0.32502   0.03556   0.06998
   0.32502   0.27498   0.06998
   0.32502   0.27498  -0.16944
   0.32502   0.27498  -0.16944
   0.32502   0.03556  -0.16944
   0.32502   0.27498  -0.16944
   0.08560   0.27498  -0.16944
   0.08560   0.03556  -0.40886
  -0.15382   0.27498  -0.40886
  -0.15382   0.03556  -0.64828
   0.08560   0.27498  -0.64828
   0.08560   0.27498  -0.64828
  -0.15382   0.27498  -0.64828
  -0.15382   0.27498  -0.88770
  -0.15382   0.03556  -0.88770
  -0.15382   0.03556  -0.88770
  -0.15382   0.03556  -1.12712
  -0.15382   0.03556  -1.12712
  -0.39323   0.03556  -1.12712
  -0.39323   0.03556  -1.36654
  -0.39323   0.03556  -1.12712
  -0.39323   0.03556  -1.12712
  -0.39323  -0.20386  -1.12712
  -0.39323  -0.20386  -1.36654
  -0.39323   0.03556  -1.36654
  -0.63265  -0.20386  -1.36654
  -0.63265  -0.20386  -1.36654
  -0.39323  -0.20386  -1.36654
  -0.63265  -0.20386  -1.36654
  -0.63265  -0.44327  -1.36654
  -0.63265  -0.20386  -1.36654
  -0.63265  -0.20386  -1.36654
  -0.63265  -0.20386  -1.36654
  -0.63265  -0.20386  -1.36654
  -0.63265   0.03556  -1.36654
  -0.63265   0.03556  -1.36654
  -0.63265  -0.20386  -1.36654
  -0.63265   0.03556  -1.36654
  -0.63265   0.03556  -1.36654
  -0.63265   0.03556  -1.12712
  -0.63265   0.03556  -1.12712
  -0.63265   0.03556  -1.12712
  -0.63265   0.27498  -1.12712
  -0.63265   0.27498  -1.12712
  -0.63265   0.03556  -0.88770
  -0.39323   0.03556  -0.88770
  -0.39323   0.03556  -0.88770
  -0.39323   0.03556  -0.64828
  -0.39323   0.03556  -0.88770
  -0.15382   0.27498  -0.88770
  -0.15382   0.27498  -0.88770
  -0.39323   0.27498  -0.40886
  -0.39323   0.03556  -0.64828
  -0.39323   0.03556  -0.40886
  -0.39323   0.03556  -0.16944
  -0.15382   0.03556  -0.16944
  -0.39323   0.03556  -0.16944
  -0.15382   0.03556  -0.16944
  -0.15382   0.03556   0.06998
  -0.15382   0.03556   0.06998
  -0.15382   0.03556   0.06998
   0.08560   0.03556   0.30940
   0.08560   0.03556   0.30940
  -0.15382   0.03556   0.54881
   0.08560   0.03556   0.54881
   0.32502   0.03556   0.54881
   0.32502   0.03556   0.78823
   0.32502   0.03556   0.78823
   0.32502   0.03556   0.78823
   0.32502   0.03556   0.78823
   0.32502   0.03556   1.02765
   0.32502   0.03556   0.78823
   0.32502   0.03556   0.78823
   0.56444   0.03556   1.02765
   0.32502   0.03556   1.02765
   0.32502   0.03556   1.02765
   0.32502   0.03556   1.02765
   0.32502   0.03556   1.02765
   0.32502   0.03556   1.02765
   0.32502   0.03556   1.02765
   0.32502   0.03556   1.02765
   0.56444   0.03556   1.02765
   0.56444   0.03556   1.26707
   0.32502   0.03556   1.02765
   0.56444   0.03556   1.02765
   0.56444   0.03556   1.02765
   0.32502   0.27498   1.02765
   0.32502   0.03556   0.78823
   0.32502   0.03556   1.02765
   0.56444   0.27498   0.78823
   0.56444   0.27498   0.78823
   0.32502   0.27498   0.78823
   0.56444   0.03556   0.78823
   0.32502   0.03556   0.78823
   0.32502   0.03556   0.54881
   0.32502   0.03556   0.54881
   0.32502   0.03556   0.78823
   0.32502  -0.20386   0.78823
   0.32502  -0.20386   0.54881
   0.32502   0.03556   0.54881
   0.32502  -0.20386   0.54881
   0.32502  -0.20386   0.54881
   0.08560  -0.20386   0.30940
   0.08560  -0.20386   0.30940
   0.08560  -0.20386   0.54881
   0.08560  -0.20386   0.54881
   0.08560   0.03556   0.06998
   0.08560   0.03556   0.06998
   0.08560  -0.20386   0.06998
  -0.15382   0.03556   0.06998
  -0.15382  -0.20386  -0.16944
  -0.15382  -0.20386  -0.16944
  -0.15382  -0.20386  -0.16944
  -0.39323  -0.20386  -0.16944
  -0.15382   0.03556  -0.16944
  -0.15382   0.03556  -0.16944
  -0.39323   0.03556  -0.40886
  -0.39323   0.03556  -0.40886
  -0.15382   0.03556  -0.40886
  -0.15382  -0.20386  -0.16944
  -0.39323   0.03556  -0.40886
  -0.39323   0.03556  -0.40886
  -0.15382   0.03556  -0.40886
  -0.39323   0.03556  -0.40886
  -0.39323   0.03556  -0.40886
  -0.39323   0.03556  -0.64828
  -0.39323   0.03556  -0.40886
  -0.39323   0.03556  -0.40886
  -0.39323  -0.20386  -0.64828
  -0.39323   0.27498  -0.64828
  -0.39323  -0.20386  -0.40886
  -0.39323   0.03556  -0.40886
  -0.39323   0.03556  -0.40886
  -0.39323   0.03556  -0.40886
  -0.39323   0.03556  -0.40886
  -0.39323   0.03556  -0.40886
  -0.39323   0.03556  -0.40886
  -0.15382   0.03556  -0.40886
  -0.15382   0.03556  -0.40886
  -0.15382  -0.20386  -0.40886
  -0.15382   0.03556  -0.64828
  -0.15382   0.03556  -0.40886
  -0.15382  -0.20386  -0.40886
  -0.15382  -0.20386  -0.40886
  -0.15382   0.03556  -0.40886
   0.08560   0.03556  -0.16944
   0.08560  -0.20386  -0.16944
   0.08560   0.03556  -0.40886
   0.08560   0.03556  -0.16944
   0.32502   0.03556  -0.16944
   0.32502  -0.20386  -0.16944
   0.32502   0.03556  -0.16944
   0.32502   0.27498  -0.16944
   0.32502   0.03556  -0.16944
   0.32502   0.03556   0.06998
   0.32502   0.03556  -0.16944
   0.56444   0.03556   0.06998
   0.56444   0.03556   0.06998
   0.32502   0.03556   0.30940
   0.56444   0.27498   0.06998
   0.56444   0.27498   0.30940
   0.56444   0.03556   0.30940
   0.56444   0.03556   0.30940
   0.80386   0.03556   0.30940
   0.80386   0.03556   0.54881
   0.80386   0.03556   0.30940
   0.80386   0.03556   0.54881
   0.80386   0.03556   0.30940
   0.80386   0.03556   0.54881
   0.80386  -0.20386   0.54881
   0.80386   0.03556   0.30940
   1.04328   0.03556   0.54881
   0.80386   0.03556   0.30940
   0.80386   0.03556   0.54881
   0.80386   0.03556   0.30940
   1.04328   0.03556   0.54881
   1.04328   0.03556   0.54881
   0.80386  -0.20386   0.30940
   0.80386   0.03556   0.30940
   0.80386   0.03556   0.54881
   0.80386  -0.20386   0.30940
   0.56444  -0.20386   0.54881
   0.56444   0.03556   0.30940
   0.80386   0.03556   0.30940
   0.56444  -0.20386   0.54881
   0.56444  -0.20386   0.30940
   0.32502  -0.20386   0.30940
   0.32502  -0.20386   0.30940
   0.32502  -0.20386   0.30940
   0.32502  -0.20386   0.30940
   0.32502  -0.20386   0.06998
   0.32502  -0.20386   0.06998
   0.08560  -0.20386   0.06998
  -0.15382   0.03556   0.06998
  -0.15382  -0.20386  -0.16944
  -0.15382  -0.20386   0.06998
  -0.39323  -0.20386  -0.16944
  -0.39323  -0.20386  -0.16944
  -0.39323  -0.20386  -0.16944
  -0.39323   0.03556  -0.16944
  -0.63265  -0.20386  -0.16944
  -0.63265   0.03556  -0.40886
  -0.63265  -0.20386  -0.16944
  -0.63265  -0.20386  -0.40886
  -0.63265  -0.20386  -0.40886
  -0.63265  -0.20386  -0.40886
  -0.63265  -0.20386  -0.16944
  -0.87207  -0.20386  -0.40886
  -0.87207  -0.20386  -0.64828
  -0.87207  -0.20386  -0.40886
  -0.63265  -0.20386  -0.64828
  -0.87207  -0.20386  -0.64828
  -0.87207  -0.20386  -0.64828
  -0.63265  -0.20386  -0.64828
  -0.87207  -0.20386  -0.64828
  -0.87207   0.03556  -0.88770
  -0.87207   0.03556  -0.88770
  -0.87207   0.03556  -0.88770
  -0.87207   0.03556  -0.88770
  -0.87207   0.03556  -1.12712
  -0.87207   0.03556  -1.12712
  -0.87207  -0.20386  -1.12712
  -0.87207  -0.20386  -1.12712
  -0.87207  -0.20386  -1.12712
  -0.87207   0.03556  -0.88770
  -0.87207   0.03556  -0.88770
  -0.87207   0.03556  -1.12712
  -0.39323   0.03556  -1.12712
  -0.87207   0.03556  -0.88770
  -0.87207   0.03556  -0.88770
  -0.87207   0.03556  -0.88770
  -0.63265   0.27498  -0.88770
  -0.63265   0.03556  -0.64828
  -0.63265   0.03556  -0.88770
  -0.63265   0.03556  -0.64828
  -0.63265   0.03556  -0.64828
  -0.63265   0.03556  -0.40886
  -0.63265   0.03556  -0.40886
  -0.39323   0.03556  -0.40886
  -0.39323   0.03556  -0.16944
  -0.39323   0.03556  -0.16944
  -0.15382   0.03556  -0.16944
  -0.15382   0.03556  -0.16944
   0.08560   0.03556   0.06998
  -0.15382   0.03556   0.06998
   0.08560   0.03556   0.06998
   0.32502   0.03556   0.06998
   0.32502   0.03556   0.54881
   0.32502   0.03556   0.30940
   0.56444   0.03556   0.30940
   0.56444   0.03556   0.30940
   0.56444   0.03556   0.54881
   0.56444  -0.20386   0.54881
   1.04328   0.03556   0.54881
   0.80386  -0.20386   0.78823
   0.80386  -0.20386   0.78823
   0.80386   0.03556   0.78823
   0.80386   0.27498   1.02765
   1.04328   0.03556   1.02765
   1.04328   0.03556   1.02765
   0.80386   0.03556   1.02765
   1.04328   0.03556   1.02765
   1.04328   0.27498   1.26707
   1.04328   0.27498   1.26707
   1.04328   0.27498   1.26707
   1.28270   0.27498   1.26707
   1.28270   0.03556   1.26707
   1.28270   0.27498   1.50649
   1.28270   0.03556   1.50649
   1.52212   0.27498   1.50649
   1.52212   0.27498   1.50649
   1.52212   0.27498   1.50649
   1.52212   0.27498   1.50649
   1.52212   0.27498   1.50649
   1.76154   0.27498   1.74591
   1.52212   0.03556   1.50649
   1.52212   0.03556   1.50649
   1.52212   0.27498   1.50649
   1.76154   0.03556   1.50649
   1.52212   0.03556   1.50649
   1.76154   0.03556   1.50649
   1.52212   0.03556   1.26707
   1.52212  -0.20386   1.26707
   1.52212  -0.20386   1.50649
   1.76154   0.03556   1.26707
   1.52212   0.03556   1.26707
   1.52212   0.03556   1.26707
   1.28270  -0.20386   1.26707
   1.28270   0.03556   1.02765
   1.28270   0.03556   1.26707
   1.28270   0.03556   1.02765
   1.04328  -0.20386   0.78823
   1.04328  -0.20386   0.78823
   0.80386   0.03556   0.78823
   0.80386  -0.20386   0.54881
   0.80386  -0.20386   0.54881
   0.56444   0.03556   0.54881
   0.32502   0.03556   0.30940
   0.32502   0.03556   0.30940
   0.08560   0.03556   0.30940
   0.08560   0.03556   0.30940
  -0.15382   0.03556   0.30940
  -0.39323   0.27498   0.06998
  -0.39323   0.27498  -0.16944
  -0.39323   0.03556  -0.16944
  -0.63265   0.03556  -0.16944
  -0.87207   0.03556  -0.40886
  -0.87207   0.27498  -0.64828
  -0.87207   0.27498  -0.64828
  -1.11149   0.03556  -0.40886
  -1.35091   0.03556  -0.64828
  -1.35091   0.03556  -0.88770
  -1.59033   0.27498  -0.88770
  -1.59033   0.27498  -1.12712
  -1.59033   0.27498  -1.12712
  -1.82975   0.27498  -1.12712
  -1.82975   0.27498  -1.36654
  -1.82975   0.27498  -1.36654
  -2.06917   0.51440  -1.36654
  -2.06917   0.27498  -1.36654
  -2.06917   0.27498  -1.60596
  -2.06917   0.27498  -1.60596
  -2.06917   0.27498  -1.60596
  -2.30859   0.03556  -1.60596
  -2.30859   0.27498  -1.60596
  -2.06917   0.27498  -1.60596
  -2.30859   0.03556  -1.84538
  -2.30859   0.27498  -1.60596
  -2.54801   0.27498  -1.84538
  -2.30859   0.03556  -1.84538
  -2.54801   0.03556  -1.60596
  -2.30859   0.03556  -1.60596
  -2.54801   0.03556  -1.60596
  -2.30859   0.03556  -1.60596
  -2.30859   0.27498  -1.60596
  -2.30859   0.03556  -1.36654
  -2.30859   0.27498  -1.36654
  -2.06917   0.27498  -1.36654
  -2.06917   0.27498  -1.36654
  -2.06917   0.03556  -1.36654
  -2.06917   0.03556  -1.36654
  -1.82975   0.03556  -1.12712
  -1.82975   0.27498  -1.12712
  -1.82975   0.27498  -1.12712
  -1.59033   0.27498  -1.12712
  -1.59033   0.27498  -0.88770
  -1.35091   0.27498  -0.64828
  -1.35091   0.27498  -0.64828
  -1.11149   0.27498  -0.64828
  -1.11149   0.27498  -0.40886
  -1.11149   0.03556  -0.40886
  -0.87207   0.03556  -0.40886
  -0.87207   0.03556  -0.16944
  -0.87207   0.03556   0.06998
  -0.63265   0.03556   0.06998
  -0.39323   0.03556   0.06998
  -0.39323   0.03556   0.06998
  -0.15382  -0.20386   0.30940
   0.08560  -0.20386   0.30940
   0.08560   0.03556   0.54881
   0.32502  -0.20386   0.54881
   0.32502  -0.20386   0.54881
   0.56444   0.03556   0.78823
   0.80386  -0.20386   0.78823
   0.80386  -0.20386   0.78823
   0.80386  -0.20386   1.02765
   1.04328  -0.20386   1.02765
   1.04328  -0.20386   1.02765
   1.28270  -0.20386   1.26707
   1.28270  -0.20386   1.26707
   1.28270   0.03556   1.26707
   1.52212   0.03556   1.26707
   1.52212   0.03556   1.50649
   1.52212   0.03556   1.50649
   1.76154   0.03556   1.26707
   1.76154   0.03556   1.50649
   1.76154   0.03556   1.50649
   2.00095  -0.20386   1.74591
   2.00095   0.03556   1.74591
   2.24037   0.03556   1.74591
   2.00095  -0.20386   1.74591
   2.24037  -0.20386   1.74591
   2.24037   0.03556   1.74591
   2.24037   0.03556   1.74591
   2.24037   0.03556   1.74591
   2.24037   0.03556   1.74591
   2.24037   0.03556   1.50649
   2.24037   0.03556   1.74591
   2.24037  -0.20386   1.74591
   2.24037  -0.20386   1.74591
   2.24037  -0.20386   1.74591
   2.24037   0.03556   1.74591
   2.24037  -0.20386   1.50649
   2.00095  -0.20386   1.50649
   2.00095  -0.20386   1.50649
   2.00095  -0.20386   1.50649
   1.76154  -0.20386   1.50649
   1.76154  -0.20386   1.26707
   1.52212  -0.20386   1.26707
   1.52212  -0.20386   1.26707
   1.52212  -0.20386   1.26707
   1.28270  -0.20386   1.26707
   1.28270   0.03556   1.02765
   1.28270   0.03556   1.26707
   1.04328  -0.20386   1.02765
   0.80386   0.03556   1.02765
   0.80386   0.03556   1.02765
   0.56444   0.03556   1.02765
   0.32502  -0.20386   0.78823
   0.32502  -0.20386   0.78823
   0.32502  -0.20386   0.78823
   0.08560  -0.20386   0.78823
  -0.15382  -0.20386   0.78823
  -0.15382  -0.20386   0.54881
  -0.15382  -0.20386   0.54881
  -0.39323  -0.20386   0.54881
  -0.39323  -0.20386   0.54881
  -0.39323   0.03556   0.30940
  -0.63265  -0.20386   0.30940
  -0.87207  -0.20386   0.30940
  -0.87207  -0.20386   0.30940
  -0.87207   0.03556   0.06998
  -1.11149  -0.20386   0.06998
  -1.35091  -0.20386   0.06998
  -1.35091  -0.20386  -0.16944
  -1.35091  -0.20386  -0.16944
  -1.35091  -0.20386  -0.16944
  -1.59033  -0.20386  -0.16944
  -1.59033  -0.20386  -0.16944
  -1.59033  -0.20386  -0.16944
  -1.59033  -0.20386  -0.40886
  -1.59033  -0.44327  -0.40886
  -1.59033  -0.44327  -0.40886
  -1.82975  -0.44327  -0.40886
  -1.82975  -0.44327  -0.40886
  -1.59033  -0.20386  -0.40886
  -1.82975  -0.44327  -0.40886
  -1.82975  -0.44327  -0.64828
  -1.59033  -0.20386  -0.88770
  -1.59033  -0.20386  -0.88770
  -1.59033  -0.44327  -0.64828
  -1.59033  -0.20386  -0.88770
  -1.59033  -0.20386  -0.88770
  -1.59033   0.03556  -0.88770
  -1.59033   0.03556  -0.88770
  -1.59033   0.03556  -1.12712
  -1.59033   0.03556  -1.12712
  -1.35091   0.03556  -1.12712
  -1.35091  -0.20386  -1.12712
  -1.35091  -0.20386  -1.12712
  -1.11149  -0.20386  -1.12712
  -1.11149   0.03556  -1.12712
  -1.11149   0.03556  -1.12712
  -1.11149   0.03556  -1.12712
  -1.11149   0.03556  -1.12712
  -0.87207   0.03556  -1.36654
  -0.87207   0.27498  -1.36654
  -0.87207   0.03556  -1.36654
  -0.63265   0.27498  -1.36654
  -0.63265   0.27498  -1.36654
  -0.39323   0.27498  -1.60596
  -0.63265   0.27498  -1.36654
  -0.63265   0.27498  -1.36654
  -0.39323   0.27498  -1.36654
  -0.15382   0.03556  -1.60596
  -0.15382   0.27498  -1.36654
  -0.15382   0.27498  -1.60596
  -0.15382   0.03556  -1.60596
   0.08560   0.03556  -1.36654
   0.08560   0.03556  -1.36654
   0.08560   0.03556  -1.60596
   0.32502   0.03556  -1.36654
   0.32502   0.03556  -1.36654
   0.32502   0.03556  -1.60596
   0.32502   0.03556  -1.36654
   0.32502   0.03556  -1.36654
   0.32502  -0.20386  -1.36654
   0.32502  -0.20386  -1.36654
   0.56444   0.03556  -1.36654
