********************************************************************************
              CENTRO DE INSTRUMENTACION Y REGISTRO SISMICO  A.C.

    Anaxagoras 814, Col. Narvarte, Benito Juarez, C.P. 03020 Mexico, D.F.
           Tels. 5687 45 42/ 5687 45  82             Fax. 5669 25 12
********************************************************************************
ARCHIVO ESTANDAR DE ACELERACION:
VERSION DEL FORMATO                    : 2.0
NOMBRE DEL ARCHIVO                     : AO2420121115092022
FECHA Y HORA DE CREACION               : 09/JUL/14, 10:42
REF. CATALOGO ACELEROGRAMAS, SMIS 1996 : REGISTRO No.     /PAG.


================================================================================
DATOS DE LA ESTACION:
NOMBRE DE LA ESTACION                  : ALBERCA OLÍMPICA
CLAVE DE LA ESTACION                   : AO24
LOCALIZACION DE LA ESTACION            : Del. Benito Juárez, Col. General Pedro 
                                       : María Anaya, Río Churubusco            
                                       : y División del Norte.                  
                                       :                                        
                                       : 
COORDENADAS DE LA ESTACION             : 19.3580 LAT. N
                                       : 99.1539 LONG. W
ALTITUD (msnm)                         : 2235
TIPO DE SUELO                          : Transición                          
                                       :                           
                                       : 
INSTITUCION RESPONSABLE                : CIRES
                                       : 

================================================================================
DATOS DEL ACELEROGRAFO:
MODELO DEL ACELEROGRAFO                : RADESD
NUMERO DE SERIE DEL ACELEROGRAFO       : 257
NUMERO DE CANALES                      : 3
ORIENTACION C1-C6 (rumbo;orientacion)  : /N00E/+V/N90W
ORIENTACION C7-C12 (rumbo;orientacion) : 
VEL. DE MUESTREO, C1-C6 (muestras/s)   : /100/100/100
VEL. DE MUESTREO, C7-C12 (muestras/s)  : 
ESC. COMPLETA DE SENSORES, C1-C6, (g)  : /0.5/0.5/0.5
ESC. COMPLETA DE SENSORES, C7-C12, (g) : 
FREC. NAT. DE SENSORES, C1-C6, (Hz)    : /30/30/30
FREC. NAT. DE SENSORES, C7-C12, (Hz)   : 
AMORTIGUAMIENTO DE SENSORES, C1-C6     : /0.700/0.700/0.700
AMORTIGUAMIENTO DE SENSORES, C7-C12    : 
INTERVALO DE MUESTREO, C1-C6, (s)      : /0.01/0.01/0.01
INTERVALO DE MUESTREO, C7-C12, (s)     : 
UMBRAL DE DISPARO, C1-C6, (Gal)        : /1.65/3.14/1.95
UMBRAL DE DISPARO, C7-C12, (Gal)       : 
MEMORIA DE PREEVENTO (s)               : 44.0
TIEMPO DE POSEVENTO (s)                : 23.0


================================================================================
DATOS DEL SISMO:
FECHA DEL SISMO (GMT)                  : 15/NOV/12
HORA EPICENTRO (GMT)                   : 09:20:22.0
MAGNITUD(ES)                           : /Mc=6.1
COORDENADAS DEL EPICENTRO              : 18.17 LAT. N
                                       : 100.52 LONG. W
PROFUNDIDAD FOCAL (km)                 : 40
FUENTE DE LOS DATOS EPICENTRALES       : SSN
                                       : INSTITUTO DE GEOFISICA, UNAM

================================================================================
DATOS DE ESTE REGISTRO:
HORA DE LA PRIMERA MUESTRA (GMT)       : 09:21:01.00
EXACTITUD DEL TIEMPO (s)               : 0.01
DURACION DEL REGISTRO (s), C1-C6       : /190.8/190.8/190.8
DURACION DEL REGISTRO (s), C7-C12      : 
NUM. TOTAL DE MUESTRAS, C1-C6          : /19080/19080/19080
NUM. TOTAL DE MUESTRAS, C7-C12         : 
ACEL. MAX. (Gal), C1-C6                : /6.02514/4.46867/6.4593
ACEL. MAX., C1-C6, EN LA MUESTRA       : /6321/4315/5741
ACEL. MAX. (Gal), C7-C12               : 
ACEL. MAX., C7-C12, EN LA MUESTRA      : 
UNIDADES DE LOS DATOS                  : Gal (cm/s/s)
FACTOR DE DECIMACION                   : 1
FORMATO DATOS (FORTRAN,10 campos/dato) : 3F10.5


================================================================================
CALIDAD DEL ACELEROGRAMA:
REGISTRO DIGITAL COMPLETO CON TIEMPO ABSOLUTO CORRECTO.


================================================================================
COMENTARIOS:














================================================================================
DATOS DE ACELERACION:
---------+---------+---------+---------+---------+---------+---------+---------+
   CANAL-1   CANAL-2   CANAL-3   CANAL-4   CANAL-5   CANAL-6   CANAL-7   CANAL-8
      N00E        +V      N90W
---------+---------+---------+---------+---------+---------+---------+---------+
[...]
  -0.17431   0.57809  -1.88039
  -0.39877   0.51824  -1.83550
  -0.62323   0.38356  -1.83550
  -0.90754   0.26385  -1.80557
  -1.26667   0.21896  -1.77565
  -1.61084   0.06932  -1.65594
  -1.94004  -0.09528  -1.49134
  -2.14953  -0.30477  -1.37163
  -2.26924  -0.45441  -1.26688
  -2.23931  -0.45441  -1.11724
  -2.20939  -0.24492  -1.08731
  -2.14953   0.09925  -1.04242
  -2.11960   0.45838  -1.02746
  -2.07471   0.86240  -0.99753
  -1.99989   1.20657  -0.95264
  -1.95500   1.44599  -0.89279
  -1.96997   1.52081  -0.77308
  -2.02982   1.47592  -0.71322
  -2.05975   1.37117  -0.71322
  -2.11960   1.23650  -0.71322
  -2.34406   0.96715  -0.74315
  -2.61341   0.59305  -0.80300
  -2.95757   0.14414  -0.81797
  -3.28678  -0.40952  -0.81797
  -3.58605  -0.96318  -0.80300
  -3.70576  -1.45698  -0.83293
  -3.70576  -1.83107  -0.83293
  -3.60102  -2.05553  -0.72818
  -3.46634  -2.13035  -0.51869
  -3.28678  -2.10042  -0.21942
  -3.16707  -1.98071   0.12475
  -3.03239  -1.92086   0.42403
  -2.94261  -1.89093   0.61855
  -2.88276  -1.89093   0.81308
  -2.85283  -1.84604   0.97768
  -2.70319  -1.74129   1.12732
  -2.43384  -1.56173   1.29192
  -2.16449  -1.44202   1.48645
  -1.82033  -1.36720   1.62113
  -1.52105  -1.26245   1.74084
  -1.29660  -1.12778   1.77076
  -1.04221  -0.93325   1.72587
  -0.77286  -0.66390   1.66602
  -0.48855  -0.46937   1.59120
  -0.20424  -0.33470   1.57624
   0.05014  -0.24492   1.60616
   0.24467  -0.14017   1.63609
   0.33445  -0.12521   1.69595
   0.33445  -0.09528   1.83062
   0.25963  -0.14017   2.05508
   0.12496  -0.21499   2.32442
  -0.03964  -0.31974   2.59377
  -0.15935  -0.37959   2.80326
  -0.18928  -0.37959   2.86312
  -0.18928  -0.27484   2.84815
  -0.06957  -0.17010   2.75837
   0.09503  -0.02046   2.62370
   0.30453   0.15911   2.45910
   0.49905   0.33867   2.23464
   0.66366   0.48831   1.96529
   0.72351   0.59305   1.78573
   0.78337   0.59305   1.74084
   0.78337   0.47334   1.74084
   0.78337   0.24889   1.78573
   0.79833  -0.03542   1.81566
   0.85818  -0.30477   1.84558
   0.84322  -0.61901   1.74084
   0.79833  -0.93325   1.63609
   0.72351  -1.14274   1.48645
   0.70855  -1.29238   1.33682
   0.73847  -1.35223   1.18718
   0.91804  -1.29238   1.03754
   1.17242  -1.14274   0.87294
   1.36695  -0.93325   0.72330
   1.53155  -0.64894   0.64848
   1.66623  -0.28981   0.57366
   1.65126  -0.05039   0.58863
   1.69616   0.21896   0.70834
   1.77097   0.57809   0.91783
   1.87572   0.99708   1.06747
   1.95054   1.35621   1.24703
   2.01039   1.71534   1.32185
   2.01039   2.02958   1.33682
   1.92061   2.29892   1.30689
   1.78594   2.46352   1.20214
   1.66623   2.55331   1.03754
   1.62134   2.58323   0.81308
   1.56148   2.50842   0.52877
   1.48666   2.41863   0.21453
   1.33703   2.31389  -0.12963
   1.06768   2.10439  -0.39898
   0.75344   1.85001  -0.63840
   0.42424   1.59563  -0.81797
   0.13992   1.29635  -0.96760
  -0.08453   0.95218  -1.08731
  -0.27906   0.60802  -1.16213
  -0.32395   0.23392  -1.20702
  -0.26410  -0.11024  -1.14717
  -0.11446  -0.30477  -1.07235
   0.09503  -0.46937  -0.93768
   0.39431  -0.51426  -0.84789
   0.66366  -0.48434  -0.72818
   0.93300  -0.36463  -0.68329
   1.12753  -0.15513  -0.57855
   1.20235   0.08429  -0.35409
   1.24724   0.47334  -0.18949
   1.23228   0.81751  -0.03985
   1.15746   1.17664   0.09482
   1.00782   1.49088   0.07986
   0.81329   1.74526   0.00504
   0.60380   1.92483  -0.15956
   0.30453   2.02958  -0.33913
  -0.03964   2.04454  -0.62344
  -0.35388   2.01461  -0.95264
  -0.56337   1.86497  -1.28184
  -0.62323   1.64052  -1.68586
  -0.60826   1.28139  -2.03003
  -0.48855   0.84744  -2.20960
  -0.44366   0.41349  -2.32931
  -0.32395  -0.02046  -2.31434
  -0.20424  -0.40952  -2.26945
  -0.12942  -0.79858  -2.17967
  -0.08453  -1.21756  -2.14974
  -0.12942  -1.63655  -2.13478
  -0.17431  -2.01064  -2.00010
  -0.21921  -2.36977  -1.83550
  -0.27906  -2.57926  -1.64097
  -0.32395  -2.68401  -1.41652
  -0.41373  -2.65408  -1.22199
  -0.41373  -2.48948  -1.07235
  -0.42870  -2.32488  -1.01250
  -0.32395  -2.05553  -1.10228
  -0.17431  -1.68144  -1.20702
   0.08007  -1.27742  -1.22199
   0.24467  -0.91829  -1.20702
   0.40927  -0.52923  -1.20702
   0.48409  -0.27484  -1.16213
   0.45416  -0.09528  -1.17710
   0.40927   0.03940  -1.16213
   0.31949  -0.00550  -1.13221
   0.19978  -0.11024  -1.08731
   0.08007  -0.31974  -0.99753
   0.05014  -0.55916  -0.86286
   0.11000  -0.72376  -0.74315
   0.30453  -0.88836  -0.56358
   0.45416  -1.08289  -0.36905
   0.52898  -1.27742  -0.15956
   0.58884  -1.42705   0.03497
   0.52898  -1.53180   0.22950
   0.36438  -1.57669   0.27439
   0.22971  -1.57669   0.31928
   0.13992  -1.57669   0.31928
   0.19978  -1.60662   0.31928
   0.25963  -1.65151   0.22950
   0.37934  -1.63655   0.10979
   0.54395  -1.56173  -0.02489
   0.60380  -1.47194  -0.12963
   0.54395  -1.29238  -0.17452
   0.43920  -1.03800  -0.18949
   0.33445  -0.72376  -0.09971
   0.18482  -0.31974   0.06490
   0.08007   0.14414   0.24446
  -0.06957   0.50327   0.46892
  -0.26410   0.66787   0.67841
  -0.51848   0.69780   0.90287
  -0.78783   0.60802   1.14229
  -1.08710   0.41349   1.41163
  -1.41631   0.20400   1.66602
  -1.80536  -0.11024   1.93537
  -2.17946  -0.45441   2.15982
  -2.56852  -0.84347   2.38428
  -2.92765  -1.20260   2.59377
  -3.24189  -1.50187   2.69852
  -3.43641  -1.66647   2.80326
  -3.52620  -1.77122   2.86312
  -3.54116  -1.72633   2.78830
  -3.42145  -1.53180   2.68355
  -3.27181  -1.23252   2.53392
  -3.04736  -0.81354   2.33939
  -2.82290  -0.42448   2.18975
  -2.64333  -0.05039   2.05508
  -2.52362   0.23392   1.87551
  -2.50866   0.50327   1.63609
  -2.58348   0.80255   1.39667
  -2.67326   1.16168   1.11236
  -2.79297   1.40110   0.82805
  -2.94261   1.47592   0.58863
  -3.01743   1.47592   0.45395
  -3.01743   1.50584   0.43899
  -2.97254   1.53577   0.46892
  -2.88276   1.64052   0.52877
  -2.76305   1.86497   0.63352
  -2.61341   2.17921   0.84301
  -2.53859   2.43360   1.11236
  -2.43384   2.61316   1.39667
  -2.41888   2.64309   1.62113
  -2.37399   2.55331   1.77076
  -2.26924   2.44856   1.96529
  -2.11960   2.31389   2.12989
  -2.01486   2.04454   2.27953
  -1.86522   1.77519   2.39924
  -1.65573   1.50584   2.54888
  -1.44623   1.22153   2.63866
  -1.23674   1.02700   2.60873
  -0.93747   0.87737   2.60873
  -0.59330   0.66787   2.51895
  -0.21921   0.42845   2.45910
   0.15489   0.20400   2.36931
   0.58884   0.03940   2.09997
   0.91804  -0.08031   1.80069
   1.17242  -0.11024   1.38171
   1.45674  -0.08031   0.97768
   1.75601  -0.06535   0.55870
   2.11514   0.00947   0.22950
   2.42938   0.17407  -0.12963
   2.78851   0.41349  -0.42891
   3.08779   0.71276  -0.66833
   3.31224   0.98211  -0.84789
   3.50677   1.29635  -0.93768
   3.65641   1.55073  -1.10228
   3.80605   1.73030  -1.20702
   3.95568   1.73030  -1.34170
   4.06043   1.62555  -1.56615
   4.12028   1.37117  -1.79061
   4.15021   1.14671  -2.03003
   4.09036   0.86240  -2.19463
   3.95568   0.48831  -2.37420
   3.67137   0.15911  -2.43405
   3.34217  -0.05039  -2.46398
   3.10275  -0.20003  -2.40412
   2.84837  -0.30477  -2.41909
   2.72866  -0.25988  -2.50887
   2.68376  -0.28981  -2.58369
   2.71369  -0.30477  -2.67347
   2.74362  -0.37959  -2.71836
   2.78851  -0.46937  -2.76326
   2.78851  -0.54419  -2.89793
   2.83340  -0.60405  -3.09246
   2.99800  -0.67887  -3.28699
   3.22246  -0.73872  -3.48152
   3.44692  -0.72376  -3.61619
   3.70130  -0.67887  -3.63115
   3.94072  -0.60405  -3.64612
   4.10532  -0.64894  -3.64612
   4.16518  -0.73872  -3.69101
   4.09036  -0.85843  -3.67604
   3.86590  -0.99310  -3.58626
   3.58159  -1.06792  -3.48152
   3.23742  -1.29238  -3.24210
   2.90822  -1.51684  -3.06253
   2.56405  -1.71136  -2.85304
   2.29471  -1.81611  -2.68844
   2.02536  -1.90589  -2.49391
   1.68119  -2.01064  -2.38916
   1.32206  -2.13035  -2.14974
   0.93300  -2.20517  -1.86543
   0.40927  -2.11539  -1.61105
  -0.05460  -1.84604  -1.37163
  -0.53344  -1.59165  -1.20702
  -1.04221  -1.30734  -1.14717
  -1.50609  -1.11281  -1.07235
  -1.92507  -0.87339  -1.02746
  -2.32910  -0.54419  -0.99753
  -2.58348  -0.15513  -0.90775
  -2.73312   0.18903  -0.78804
  -2.73312   0.47334  -0.62344
  -2.61341   0.60802  -0.32416
  -2.43384   0.75766   0.02000
  -2.20939   0.83247   0.34921
  -1.96997   0.92226   0.66345
  -1.77544   0.96715   0.97768
  -1.67069   0.98211   1.17221
  -1.73055   1.08686   1.27696
  -1.85026   1.10182   1.30689
  -2.02982   1.08686   1.21711
  -2.20939   0.98211   1.11236
  -2.37399   0.87737   0.94776
  -2.56852   0.71276   0.78316
  -2.76305   0.54816   0.64848
  -2.98750   0.35363   0.60359
  -3.30174   0.11421   0.66345
  -3.58605  -0.03542   0.85797
  -3.82547  -0.11024   1.12732
  -3.96015  -0.14017   1.56127
  -4.09482  -0.18506   2.09997
  -4.19957  -0.30477   2.75837
  -4.31928  -0.40952   3.35692
  -4.43899  -0.45441   3.92555
  -4.52877  -0.43945   4.37446
  -4.63352  -0.37959   4.76352
  -4.72330  -0.24492   5.06279
  -4.76819  -0.08031   5.31718
  -4.75323   0.05436   5.55660
  -4.70833   0.17407   5.70623
  -4.63352   0.27882   5.78105
  -4.45395   0.33867   5.78105
  -4.21453   0.42845   5.72120
  -3.97511   0.48831   5.58652
  -3.64591   0.62298   5.43689
  -3.27181   0.72773   5.22739
  -2.86779   0.72773   4.95805
  -2.43384   0.72773   4.70366
  -1.96997   0.68284   4.40439
  -1.53602   0.62298   4.09015
  -1.19185   0.59305   3.80584
  -1.01229   0.63795   3.46167
  -0.99732   0.77262   3.10254
  -1.13200   0.86240   2.75837
  -1.32652   0.95218   2.39924
  -1.53602   1.11679   2.14486
  -1.67069   1.31131   1.90544
  -1.71558   1.52081   1.69595
  -1.68565   1.65548   1.38171
  -1.62580   1.71534   1.11236
  -1.55098   1.79016   0.78316
  -1.44623   1.80512   0.46892
  -1.34149   1.76023   0.15468
  -1.14696   1.58066  -0.09971
  -0.87761   1.23650  -0.27927
  -0.50352   0.84744  -0.38402
  -0.03964   0.44342  -0.45884
   0.40927  -0.02046  -0.50373
   0.87315  -0.42448  -0.47380
   1.36695  -0.76865  -0.38402
   1.78594  -1.05296  -0.18949
   2.14507  -1.27742   0.09482
   2.42938  -1.53180   0.43899
   2.77355  -1.77122   0.75323
   3.05786  -1.98071   0.94776
   3.35713  -2.08546   1.02258
   3.59655  -2.11539   0.93279
   3.76115  -2.07050   0.64848
   3.79108  -1.95078   0.24446
   3.68634  -1.81611  -0.30920
   3.52173  -1.60662  -1.01250
   3.31224  -1.29238  -1.85047
   3.16260  -0.94821  -2.80815
   3.02793  -0.66390  -3.69101
   2.89326  -0.45441  -4.45416
   2.77355  -0.21499  -5.09760
   2.56405   0.11421  -5.60637
   2.36952   0.50327  -5.98046
   2.18996   0.81751  -6.21988
   2.04032   1.16168  -6.39945
   2.01039   1.52081  -6.41441
   2.07025   1.77519  -6.42938
   2.17500   1.83505  -6.45930
   2.36952   1.79016  -6.30967
   2.50420   1.76023  -6.07025
   2.66880   1.71534  -5.72608
   2.78851   1.65548  -5.26220
   2.83340   1.52081  -4.73847
   2.80347   1.34124  -4.18481
   2.74362   1.19160  -3.73590
   2.71369   1.07189  -3.33188
   2.69873   0.89233  -3.04757
   2.75858   0.65291  -2.82311
   2.81844   0.24889  -2.67347
   2.87829  -0.21499  -2.50887
   2.87829  -0.57412  -2.40412
   2.81844  -0.88836  -2.31434
   2.66880  -1.17267  -2.25449
   2.39945  -1.54676  -2.28441
   2.10018  -1.81611  -2.26945
   1.75601  -2.07050  -2.31434
   1.36695  -2.11539  -2.40412
   0.94797  -2.13035  -2.40412
   0.55891  -2.02560  -2.41909
   0.06511  -1.89093  -2.41909
  -0.35388  -1.66647  -2.43405
  -0.75790  -1.47194  -2.47894
  -1.07214  -1.29238  -2.50887
  -1.25171  -1.08289  -2.56873
  -1.31156  -0.81354  -2.67347
  -1.26667  -0.45441  -2.79318
  -1.13200  -0.09528  -2.85304
  -1.02725   0.27882  -2.88297
  -0.86265   0.63795  -2.79318
  -0.77286   0.98211  -2.55376
  -0.68308   1.28139  -2.13478
  -0.69805   1.52081  -1.62601
  -0.74294   1.62555  -1.01250
  -0.90754   1.55073  -0.33913
  -1.17689   1.40110   0.40906
  -1.41631   1.19160   1.15725
  -1.65573   1.02700   1.92040
  -1.85026   0.86240   2.62370
  -1.96997   0.66787   3.11750
  -1.88018   0.50327   3.50656
  -1.67069   0.33867   3.79087
  -1.29660   0.15911   3.97044
  -0.89257  -0.08031   4.06022
  -0.48855  -0.34966   4.10511
  -0.12942  -0.51426   4.16497
   0.18482  -0.67887   4.20986
   0.45416  -0.73872   4.23978
   0.54395  -0.78361   4.15000
   0.54395  -0.78361   4.06022
   0.34942  -0.73872   3.97044
   0.12496  -0.79858   3.86569
  -0.23417  -0.85843   3.74598
  -0.53344  -0.93325   3.56642
  -0.80279  -1.00807   3.41678
  -0.95243  -1.09785   3.26714
  -1.05718  -1.18763   3.14743
  -1.14696  -1.17267   3.05765
  -1.20681  -1.02303   2.96787
  -1.26667  -0.75368   2.96787
  -1.20681  -0.40952   3.05765
  -1.05718  -0.06535   3.20729
  -0.77286   0.35363   3.34196
  -0.41373   0.74269   3.50656
  -0.15935   1.04197   3.58138
  -0.00971   1.35621   3.58138
  -0.00971   1.55073   3.53649
  -0.09950   1.70037   3.37189
  -0.29402   1.85001   3.20729
  -0.39877   1.99965   3.05765
  -0.41373   2.08943   2.93794
  -0.29402   2.10439   2.86312
  -0.09950   2.07447   2.84815
   0.16985   2.01461   2.84815
   0.40927   1.87994   2.92297
   0.58884   1.73030   2.98283
   0.73847   1.52081   3.04268
   0.96293   1.22153   3.04268
   1.15746   0.89233   3.05765
   1.38192   0.50327   2.99779
   1.50163   0.06932   2.89305
   1.47170  -0.37959   2.69852
   1.36695  -0.79858   2.47406
   1.27717  -1.21756   2.15982
   1.09761  -1.63655   1.72587
   0.87315  -2.08546   1.20214
   0.67862  -2.44459   0.54374
   0.48409  -2.66905  -0.24934
   0.30453  -2.75883  -1.13221
   0.18482  -2.60919  -2.01507
   0.06511  -2.41466  -2.79318
  -0.14439  -2.13035  -3.48152
  -0.41373  -1.86100  -4.02021
  -0.62323  -1.51684  -4.45416
  -0.83272  -1.27742  -4.81329
  -0.95243  -1.00807  -5.14249
  -0.93747  -0.87339  -5.30709
  -0.89257  -0.81354  -5.44177
  -0.80279  -0.73872  -5.39688
  -0.66812  -0.57412  -5.27717
  -0.62323  -0.33470  -5.00782
  -0.57834   0.00947  -4.78336
  -0.57834   0.41349  -4.60380
  -0.50352   0.83247  -4.37934
  -0.38381   1.28139  -4.12496
  -0.26410   1.65548  -3.91546
  -0.15935   1.99965  -3.61619
  -0.11446   2.25403  -3.34684
  -0.08453   2.37374  -3.04757
  -0.08453   2.38871  -2.85304
  -0.14439   2.22410  -2.70340
  -0.24913   1.93979  -2.62858
  -0.39877   1.56570  -2.58369
  -0.53344   1.10182  -2.59865
  -0.71301   0.56313  -2.59865
  -0.86265   0.03940  -2.65851
  -0.90754  -0.51426  -2.76326
  -0.99732  -1.03800  -2.88297
  -0.98236  -1.51684  -2.98771
  -0.90754  -1.89093  -3.06253
  -0.75790  -2.17524  -3.12239
  -0.59330  -2.29495  -3.18224
  -0.36884  -2.36977  -3.27202
  -0.12942  -2.42963  -3.21217
   0.09503  -2.50444  -3.16728
   0.30453  -2.57926  -2.97275
   0.48409  -2.53437  -2.73333
   0.58884  -2.26502  -2.40412
   0.69358  -1.92086  -2.03003
   0.70855  -1.50187  -1.59608
   0.67862  -1.05296  -1.11724
   0.64869  -0.57412  -0.72818
   0.61876  -0.00550  -0.36905
   0.63373   0.48831  -0.05481
   0.61876   0.86240   0.22950
   0.61876   1.17664   0.52877
   0.52898   1.32628   0.85797
   0.42424   1.53577   1.18718
   0.36438   1.62555   1.44156
   0.36438   1.59563   1.56127
   0.39431   1.55073   1.59120
   0.43920   1.46095   1.48645
   0.46913   1.44599   1.38171
   0.51402   1.46095   1.26200
   0.57387   1.40110   1.15725
   0.66366   1.25146   1.11236
   0.73847   1.07189   1.14229
   0.90308   0.95218   1.20214
