********************************************************************************
               CENTRO DE INSTRUMENTACION Y REGISTRO SISMICO  A.C.  
                       Coordinacion de Servicios Tecnicos
     Anaxagoras 814, Col. Narvarte, Benito Juarez, C.P. 03020 Mexico, D.F.
            Tels. 687 45 42/ 687 45  82             Fax. 669 25 12
********************************************************************************
ARCHIVO ESTANDAR DE ACELERACION:
VERSION DEL FORMATO                    : 2.0
NOMBRE DEL ARCHIVO                     : AO249906.151
FECHA Y HORA DE CREACION               : 10/FEBRERO/2000 8:55
REF. CATALOGO ACELEROGRAMAS, SMIS 1996 : REGISTRO No.     /PAG.


================================================================================
DATOS DE LA ESTACION:
NOMBRE DE LA ESTACION                  : ALBERCA OLIMPICA
CLAVE DE LA ESTACION                   : AO24
LOCALIZACION DE LA ESTACION            : Alberca Olimpica Rio Churubusco y
                                       : Division del Norte, Col Pedro Ma
                                       : Anaya, Benito Juarez
                                       :
                                       :
COORDENADAS DE LA ESTACION             : 19.358 LAT. N 
                                       : 99.154 LONG. W 
ALTITUD (msnm)                         : 2235
TIPO DE SUELO                          : TRANSICION
                                       : 
                                       : 
INSTITUCION RESPONSABLE                : CIRES
                                       :

================================================================================
DATOS DEL ACELEROGRAFO:
MODELO DEL ACELEROGRAFO                : RAD-851
NUMERO DE SERIE DEL ACELEROGRAFO       : 257
NUMERO DE CANALES                      : 3
ORIENTACION C1-C6 (rumbo;orientacion)  : /N00E/+V/N90W
ORIENTACION C7-C12 (rumbo;orientacion) :
VEL. DE MUESTREO, C1-C6 (muestras/s)   : /100/100/100
VEL. DE MUESTREO, C7-C12 (muestras/s)  :
ESC. COMPLETA DE SENSORES, C1-C6, (g)  : /0.5/0.5/0.5
ESC. COMPLETA DE SENSORES, C7-C12, (g) :
FREC. NAT. DE SENSORES, C1-C6, (Hz)    : /30/30/30
FREC. NAT. DE SENSORES, C7-C12, (Hz)   :
AMORTIGUAMIENTO DE SENSORES, C1-C6     : /0.700/0.700/0.700
AMORTIGUAMIENTO DE SENSORES, C7-C12    :
INTERVALO DE MUESTREO, C1-C6, (s)      : /0.01/0.01/0.01
INTERVALO DE MUESTREO, C7-C12, (s)     :
UMBRAL DE DISPARO, C1-C6, (Gal)        : /1.95/2.93/1.95
UMBRAL DE DISPARO, C7-C12, (Gal)       :
MEMORIA DE PREEVENTO (s)               : 8
TIEMPO DE POSEVENTO (s)                : 8


================================================================================
DATOS DEL SISMO:
FECHA DEL SISMO (GMT)                  : 15/JUN/99
HORA EPICENTRO (GMT)                   : 20:42:07.1
MAGNITUD(ES)                           : /Mb=6.4/Ms=6.5/Me=7.0
COORDENADAS DEL EPICENTRO              : 18.18 LAT. N
                                       : 97.51 LONG. W
PROFUNDIDAD FOCAL (km)                 : 69.0
FUENTE DE LOS DATOS EPICENTRALES       : SSN
                                       : INSTITUTO DE GEOFISICA, UNAM

================================================================================
DATOS DE ESTE REGISTRO:
HORA DE LA PRIMERA MUESTRA (GMT)       : 20:42:45.00
EXACTITUD DEL TIEMPO (s)               : 0.01
DURACION DEL REGISTRO (s), C1-C6       : /221.25/221.25/221.25
DURACION DEL REGISTRO (s), C7-C12      :
NUM. TOTAL DE MUESTRAS, C1-C6          : /22125/22125/22125
NUM. TOTAL DE MUESTRAS, C7-C12         :
ACEL. MAX. (Gal), C1-C6                : /21.88841/14.18724/32.60567
ACEL. MAX., C1-C6, EN LA MUESTRA       :
ACEL. MAX. (Gal), C7-C12               :
ACEL. MAX., C7-C12, EN LA MUESTRA      :
UNIDADES DE LOS DATOS                  : Gal (cm/s/s)
FACTOR DE DECIMACION                   : 1
FORMATO DATOS (FORTRAN,10 campos/dato) : 3F10.5


================================================================================
CALIDAD DEL ACELEROGRAMA:
REGISTRO DIGITAL COMPLETO CON TIEMPO ABSOLUTO CORRECTO.


================================================================================
COMENTARIOS:














================================================================================
DATOS DE ACELERACION:
---------+---------+---------+---------+---------+---------+---------+---------+
   CANAL-1   CANAL-2   CANAL-3   CANAL-4   CANAL-5   CANAL-6   CANAL-7   CANAL-8
      N00E        +V      N90W
---------+---------+---------+---------+---------+---------+---------+---------+
[...]
   8.95979   0.30094  11.92626
   9.43863  -0.17790  12.40509
   9.67804  -0.65674  12.40509
   9.67804  -1.13558  12.40509
   9.43863  -1.37500  12.16567
   8.95979  -1.37500  11.92626
   8.72037  -1.37500  11.44742
   8.24153  -1.37500  10.72916
   7.76269  -1.13558  10.01090
   6.80502  -1.13558   9.29265
   5.84734  -1.37500   8.33497
   4.65025  -2.09325   7.13788
   3.45315  -2.57209   6.41962
   2.01664  -2.57209   5.94078
   1.05896  -2.57209   4.98311
   0.34071  -2.81151   4.26485
  -0.13813  -2.81151   3.30717
  -0.37755  -2.81151   2.82834
  -0.13813  -2.57209   2.34950
   0.10129  -2.33267   1.87066
   0.34071  -2.09325   1.63124
   0.34071  -1.85383   2.11008
   0.58012  -1.61441   2.58892
   0.81954  -1.13558   2.82834
   1.05896  -0.65674   3.06775
   1.05896  -0.17790   3.06775
   1.05896   0.06152   3.06775
   0.81954  -0.17790   3.06775
   0.58012  -0.17790   3.30717
   0.34071   0.30094   3.06775
   0.34071   1.01919   2.58892
   0.34071   1.49803   2.11008
   0.58012   2.21629   1.15240
   1.05896   2.69513  -0.28411
   1.77722   2.93455  -1.72062
   2.73489   3.41338  -3.15714
   3.69257   3.89222  -4.11481
   4.88967   4.13164  -5.31191
   5.84734   4.13164  -6.74842
   6.32618   4.13164  -7.70610
   6.80502   3.89222  -8.90319
   6.80502   3.17396  -9.86087
   6.80502   2.69513 -10.81854
   6.08676   1.97687 -11.53680
   5.36850   1.01919 -12.25506
   4.41083  -0.17790 -12.49448
   3.21373  -1.37500 -12.97331
   1.53780  -2.09325 -13.21273
  -0.61697  -2.81151 -13.93099
  -2.05348  -3.29035 -14.40983
  -3.49000  -3.76918 -14.88867
  -3.96884  -4.00860 -14.88867
  -3.96884  -4.24802 -14.64925
  -3.49000  -4.48744 -14.17041
  -2.53232  -4.48744 -13.45215
  -1.57465  -3.52977 -12.25506
  -0.61697  -2.57209 -10.81854
   0.58012  -1.61441  -9.38203
   1.53780  -0.89616  -7.94552
   2.73489  -0.17790  -5.79075
   3.93199   0.54036  -3.39656
   4.88967   1.73745  -1.24179
   5.60792   2.69513   0.43415
   6.08676   3.65280   2.34950
   6.32618   4.37106   4.02543
   6.32618   4.84990   5.22253
   6.08676   4.84990   5.94078
   5.60792   4.61048   6.18020
   4.65025   4.13164   6.18020
   3.45315   3.41338   5.94078
   1.77722   2.45571   5.22253
  -0.13813   1.73745   4.26485
  -2.29290   0.54036   2.82834
  -4.20825  -0.65674   1.15240
  -6.12361  -1.85383  -0.76295
  -7.79954  -3.29035  -2.43888
  -8.99663  -4.48744  -3.63598
  -9.71489  -5.44512  -5.07249
  -9.71489  -6.16337  -6.50900
  -8.99663  -6.64221  -7.70610
  -8.03896  -6.88163  -8.66377
  -6.84186  -6.64221  -9.38203
  -5.64477  -5.92396  -9.38203
  -4.92651  -5.20570  -9.38203
  -4.20825  -4.24802  -8.42435
  -3.96884  -3.05093  -7.22726
  -3.72942  -1.85383  -5.55133
  -3.72942  -0.17790  -3.15714
  -3.72942   1.01919  -0.52353
  -3.72942   1.97687   2.34950
  -3.96884   2.93455   5.22253
  -4.44767   4.13164   8.09555
  -5.16593   4.61048  10.72916
  -5.88419   5.08932  12.64451
  -6.36303   5.32874  14.32045
  -7.08128   5.56815  15.27812
  -7.32070   5.56815  15.75696
  -7.56012   5.56815  15.75696
  -7.79954   5.80757  14.79928
  -7.56012   5.56815  13.60219
  -7.08128   5.08932  12.16567
  -6.12361   4.13164  10.72916
  -5.40535   3.41338   9.77149
  -4.44767   2.69513   8.57439
  -3.25058   1.97687   6.89846
  -2.05348   1.25861   5.22253
  -0.85639   0.30094   3.78601
   0.10129  -0.65674   2.58892
   1.53780  -1.85383   1.15240
   2.73489  -2.57209  -0.04469
   3.45315  -3.29035  -1.24179
   3.93199  -4.00860  -2.67830
   4.41083  -4.72686  -3.63598
   4.41083  -5.44512  -4.59365
   4.41083  -6.64221  -4.83307
   4.17141  -7.59989  -5.07249
   3.93199  -8.07873  -5.31191
   3.93199  -8.07873  -5.07249
   4.17141  -7.83931  -4.83307
   4.41083  -7.12105  -4.11481
   4.65025  -5.92396  -3.63598
   5.12908  -4.72686  -2.91772
   5.84734  -3.05093  -1.48121
   6.80502  -1.37500  -0.28411
   8.00211   0.30094   1.15240
   9.43863   1.73745   3.06775
  10.63572   3.17396   5.46194
  12.31165   4.84990   8.09555
  13.74817   6.52583  10.25032
  14.94526   7.96234  12.40509
  15.90294   8.92002  14.79928
  16.14236   9.39886  16.95405
  15.66352   9.39886  19.34824
  14.94526   9.15944  20.54534
  14.22700   8.68060  21.50301
  12.79049   7.72292  21.98185
  11.11456   6.04699  21.74243
   9.19921   3.89222  20.30592
   7.04444   1.49803  18.62999
   4.65025  -0.89616  15.99638
   2.73489  -3.29035  12.88393
   0.81954  -5.20570   9.29265
  -0.61697  -6.88163   5.70136
  -1.81407  -8.07873   1.87066
  -2.53232  -8.79698  -1.72062
  -3.25058  -8.55756  -4.83307
  -3.49000  -7.83931  -8.42435
  -3.25058  -6.40279 -11.05796
  -2.77174  -4.96628 -12.97331
  -1.81407  -3.76918 -14.64925
  -0.85639  -2.57209 -15.84634
   0.34071  -1.37500 -16.08576
   1.53780  -0.41732 -15.84634
   2.73489   0.54036 -15.36750
   3.93199   1.49803 -14.64925
   4.41083   2.45571 -13.69157
   4.88967   3.17396 -12.01564
   4.88967   3.41338  -9.86087
   4.88967   3.65280  -7.70610
   4.65025   3.65280  -6.03017
   4.17141   3.65280  -4.35423
   3.21373   3.65280  -2.19946
   2.25606   3.41338  -0.76295
   0.58012   2.93455   0.67357
  -1.33523   2.45571   1.15240
  -2.77174   1.97687   1.39182
  -4.20825   1.49803   1.87066
  -5.40535   1.01919   1.87066
  -6.12361   0.54036   1.63124
  -6.60244   0.06152   0.91298
  -6.84186  -0.41732   0.19473
  -7.08128  -0.41732  -1.00237
  -7.32070  -1.13558  -2.67830
  -7.56012  -1.61441  -4.59365
  -7.79954  -2.33267  -7.22726
  -7.79954  -2.57209  -9.62145
  -8.03896  -2.57209 -11.77622
  -8.27838  -2.57209 -13.93099
  -8.51780  -3.05093 -16.32518
  -9.23605  -3.76918 -18.47995
  -9.95431  -4.24802 -20.15588
 -10.67257  -4.96628 -21.11356
 -10.91199  -5.44512 -21.83182
 -11.15140  -5.92396 -21.83182
 -10.67257  -6.40279 -21.11356
  -9.95431  -6.88163 -19.43763
  -8.99663  -6.64221 -17.04344
  -8.27838  -6.16337 -14.40983
  -7.32070  -4.72686 -11.05796
  -6.60244  -3.29035  -7.22726
  -5.88419  -2.09325  -3.87539
  -5.40535  -0.41732  -0.52353
  -5.16593   1.25861   2.11008
  -5.40535   3.41338   4.50427
  -5.64477   5.56815   6.18020
  -6.84186   7.72292   7.61671
  -8.27838   9.39886   8.81381
 -10.19373  11.07479   9.77149
 -11.86966  12.51130  10.01090
 -13.06676  13.70840  10.25032
 -14.26385  14.18724  10.25032
 -14.98211  14.18724  10.25032
 -15.70036  13.22956  10.01090
 -15.93978  12.03247   9.77149
 -15.70036  10.35653  10.01090
 -14.74269   7.48351  10.01090
 -13.78501   3.89222   9.77149
 -11.86966   0.06152   9.53207
 -10.43315  -3.76918   8.81381
  -8.75721  -7.12105   8.09555
  -6.84186  -9.99408   7.13788
  -5.16593 -12.38827   5.70136
  -3.72942 -13.82478   3.78601
  -2.05348 -14.06420   2.11008
  -1.09581 -13.82478   0.19473
  -0.13813 -12.62769  -1.48121
   0.81954 -10.47292  -2.67830
   1.53780  -7.83931  -3.63598
   2.01664  -4.96628  -4.35423
   2.49548  -2.09325  -5.07249
   2.97431   0.77978  -5.07249
   3.69257   3.41338  -4.83307
   4.41083   5.08932  -3.39656
   5.36850   6.28641  -2.67830
   5.84734   6.76525  -1.72062
   6.08676   6.76525  -0.04469
   6.32618   6.76525   1.15240
   6.56560   6.04699   1.87066
   6.56560   5.08932   1.87066
   6.80502   3.89222   1.87066
   7.04444   2.69513   1.15240
   7.52327   1.49803  -0.28411
   7.52327   0.54036  -2.19946
   8.00211  -0.17790  -3.87539
   8.24153  -0.65674  -5.79075
   8.72037  -1.13558  -7.94552
   8.95979  -1.37500  -9.62145
   8.95979  -1.13558 -11.05796
   8.95979  -0.89616 -11.77622
   9.43863  -0.89616 -12.25506
   9.67804  -0.89616 -12.01564
  10.15688  -0.65674 -11.53680
  10.39630  -0.89616 -11.05796
  10.63572  -1.61441 -10.57913
  11.11456  -2.57209 -10.10029
  11.83281  -3.29035 -10.57913
  12.55107  -4.00860 -10.81854
  13.26933  -4.24802 -10.33971
  14.22700  -4.96628 -10.33971
  14.70584  -5.20570 -10.81854
  14.94526  -5.68454 -11.29738
  14.46642  -6.16337 -11.29738
  13.74817  -6.16337 -11.29738
  13.02991  -5.20570 -11.53680
  11.83281  -3.76918 -11.05796
  10.63572  -2.33267 -10.10029
   9.43863  -1.13558  -8.90319
   8.24153   0.30094  -7.70610
   6.32618   1.97687  -6.03017
   3.93199   3.89222  -3.87539
   1.29838   5.08932  -1.24179
  -1.57465   6.04699   1.15240
  -4.20825   6.76525   2.58892
  -6.12361   6.76525   4.02543
  -7.56012   6.52583   5.22253
  -8.03896   5.56815   5.94078
  -8.03896   4.84990   5.46194
  -7.79954   4.37106   5.22253
  -7.32070   3.41338   4.98311
  -6.60244   2.93455   4.50427
  -5.64477   2.69513   3.78601
  -4.68709   2.45571   3.30717
  -3.72942   1.97687   3.30717
  -2.77174   1.01919   3.06775
  -2.29290   0.30094   3.06775
  -1.57465  -1.13558   2.34950
  -1.09581  -2.09325   1.63124
  -0.85639  -3.29035   1.15240
  -0.85639  -4.48744   1.39182
  -1.09581  -5.92396   1.15240
  -1.81407  -7.12105   1.15240
  -2.77174  -7.59989   1.63124
  -3.72942  -7.83931   2.58892
  -4.44767  -7.36047   3.78601
  -4.92651  -6.64221   5.22253
  -5.40535  -5.68454   6.65904
  -5.64477  -4.24802   8.57439
  -5.88419  -2.33267  10.96858
  -5.64477  -0.17790  12.88393
  -5.40535   1.97687  14.55986
  -4.68709   3.65280  16.47522
  -4.20825   4.84990  18.15115
  -3.49000   5.80757  19.34824
  -3.01116   6.52583  20.06650
  -3.01116   7.24409  20.06650
  -3.25058   7.96234  20.54534
  -3.49000   8.20176  21.02418
  -3.96884   7.96234  21.02418
  -4.44767   7.24409  20.30592
  -5.16593   6.52583  19.58766
  -5.40535   5.08932  19.10882
  -6.12361   2.93455  18.39057
  -6.60244   1.73745  17.67231
  -7.08128   1.01919  17.19347
  -7.56012   0.06152  16.95405
  -7.79954  -1.37500  16.47522
  -7.32070  -3.05093  15.99638
  -7.08128  -4.24802  15.75696
  -5.88419  -5.68454  15.51754
  -4.20825  -6.64221  14.55986
  -3.01116  -7.59989  13.84161
  -1.57465  -8.55756  12.88393
  -0.37755  -9.27582  11.20800
   0.34071  -9.27582   9.29265
   0.81954  -8.55756   7.13788
   0.81954  -7.36047   5.22253
   0.10129  -5.68454   2.82834
  -1.33523  -3.76918   0.67357
  -2.53232  -1.37500  -1.24179
  -4.20825   1.01919  -3.15714
  -6.12361   3.41338  -5.07249
  -7.79954   5.08932  -7.22726
  -8.99663   6.52583  -9.38203
  -9.95431   7.24409 -11.29738
 -10.43315   7.48351 -12.97331
 -10.91199   6.76525 -13.93099
 -10.91199   5.80757 -14.17041
 -10.91199   4.37106 -13.93099
 -10.67257   2.93455 -13.21273
 -10.19373   1.73745 -12.25506
  -9.23605   0.54036 -11.77622
  -7.79954  -0.65674 -11.53680
  -6.12361  -2.09325 -11.05796
  -3.96884  -3.05093 -10.57913
  -1.57465  -4.24802 -10.81854
   0.81954  -4.96628 -11.53680
   2.73489  -5.44512 -12.49448
   4.41083  -5.44512 -13.69157
   5.60792  -5.44512 -15.12809
   6.32618  -4.96628 -16.56460
   6.56560  -4.48744 -18.24053
   6.56560  -4.24802 -19.91646
   6.56560  -3.76918 -21.35298
   6.56560  -3.05093 -23.02891
   5.84734  -2.33267 -24.94426
   5.12908  -2.09325 -26.62019
   4.17141  -2.33267 -28.05671
   3.45315  -2.57209 -29.97206
   2.73489  -2.57209 -31.64799
   2.25606  -2.57209 -32.60567
   2.25606  -2.57209 -31.88741
   2.97431  -2.81151 -30.69032
   4.17141  -2.57209 -29.25380
   5.60792  -2.33267 -27.33845
   7.04444  -1.37500 -24.22601
   8.72037  -0.65674 -20.63472
  10.15688   0.30094 -17.52227
  11.59340   1.49803 -13.93099
  12.79049   2.21629 -10.10029
  13.26933   3.17396  -6.50900
  13.50875   3.89222  -3.15714
  13.26933   4.61048   0.19473
  12.79049   4.84990   2.82834
  12.07223   4.37106   4.74369
  11.11456   3.89222   6.18020
   9.91746   3.41338   6.65904
   8.72037   3.17396   6.41962
   7.76269   3.17396   5.70136
   6.80502   2.93455   4.50427
   6.08676   2.93455   3.54659
   5.60792   2.69513   2.82834
   5.12908   1.97687   1.87066
   4.88967   1.49803   1.15240
   4.17141   1.49803   0.91298
   3.45315   1.01919   1.39182
   2.73489   0.54036   2.11008
   2.01664   0.06152   2.82834
   1.29838  -0.41732   3.54659
   0.81954  -0.41732   4.98311
   0.34071  -1.13558   6.89846
   0.10129  -1.61441   8.81381
  -0.13813  -2.33267  10.72916
  -0.61697  -2.33267  13.12335
  -0.85639  -2.33267  16.47522
  -1.09581  -1.61441  19.34824
  -1.57465  -1.13558  21.26359
  -2.05348  -0.41732  22.93953
  -2.53232   0.30094  24.61546
  -3.01116   1.01919  26.29139
  -3.01116   1.73745  27.48849
  -3.25058   1.97687  28.68558
  -3.01116   2.45571  29.40384
  -2.53232   3.17396  29.88268
  -2.29290   3.41338  29.88268
  -2.05348   3.17396  30.12210
  -2.29290   2.93455  30.36151
  -2.77174   2.93455  30.60093
  -3.72942   2.93455  30.36151
  -4.44767   2.93455  30.36151
  -4.68709   2.45571  29.40384
  -4.92651   1.73745  27.96733
  -5.40535   1.25861  26.05197
  -6.12361   1.01919  24.37604
  -7.08128   0.54036  22.46069
  -8.27838   0.06152  20.30592
 -10.19373  -0.89616  18.15115
 -11.39082  -1.85383  16.47522
 -12.58792  -2.57209  14.79928
 -13.30617  -3.52977  12.64451
 -13.30617  -4.00860  10.01090
 -13.30617  -3.76918   7.85613
 -13.06676  -2.57209   6.65904
 -12.58792  -1.61441   4.74369
 -11.63024  -0.89616   2.82834
 -10.67257  -0.17790   1.63124
  -9.47547   0.77978   0.91298
  -7.79954   2.21629   0.67357
  -6.36303   3.65280   0.19473
  -4.68709   4.84990  -0.28411
  -3.25058   6.04699  -0.52353
  -1.81407   7.00467  -1.00237
  -0.37755   7.72292  -1.48121
   1.53780   7.72292  -2.19946
   2.97431   7.72292  -3.15714
   4.65025   7.72292  -4.35423
   5.84734   7.24409  -5.79075
   6.80502   6.76525  -7.70610
   7.52327   5.80757  -8.90319
   8.00211   4.37106 -10.33971
   8.00211   3.17396 -12.25506
   7.52327   1.97687 -13.45215
   6.80502   1.01919 -14.40983
   6.80502  -0.17790 -15.36750
   6.32618  -1.61441 -17.28286
   6.56560  -3.05093 -19.19821
   6.80502  -4.24802 -20.63472
   7.52327  -5.20570 -21.83182
   8.48095  -6.16337 -23.50775
   9.19921  -6.64221 -25.18368
  10.63572  -6.88163 -26.38078
  11.83281  -6.88163 -27.09903
  13.26933  -6.88163 -27.57787
  14.94526  -6.64221 -28.05671
  16.38177  -6.40279 -27.81729
  17.10003  -5.68454 -26.62019
  17.33945  -5.20570 -25.42310
  17.10003  -4.72686 -24.70484
  16.62119  -4.24802 -23.74717
  15.90294  -3.76918 -22.78949
  14.70584  -3.52977 -21.59240
  13.74817  -3.05093 -20.63472
  12.79049  -3.05093 -19.67705
  11.83281  -2.57209 -18.47995
  10.63572  -2.09325 -17.28286
   9.91746  -1.37500 -16.80402
   9.19921  -0.89616 -16.32518
   8.72037  -0.17790 -15.60692
   8.24153   0.54036 -15.36750
   8.24153   1.73745 -14.88867
   8.48095   2.93455 -13.93099
   8.72037   4.13164 -12.73390
   8.72037   5.32874 -11.05796
   8.24153   6.76525  -9.14261
   7.52327   7.72292  -6.98784
   6.80502   8.20176  -4.59365
   5.84734   8.20176  -2.19946
   4.65025   7.48351  -0.04469
   3.69257   6.28641   2.11008
   2.49548   4.13164   4.26485
   1.05896   1.49803   5.94078
  -0.37755  -1.13558   6.89846
  -2.05348  -3.76918   7.61671
  -3.72942  -6.64221   8.57439
  -5.40535  -9.03640  10.01090
  -7.08128 -10.71233  10.96858
  -8.51780 -11.67001  11.92626
 -10.43315 -11.90943  13.12335
 -12.10908 -11.43059  13.60219
 -13.54559 -10.47292  12.88393
 -14.98211  -8.79698  12.40509
 -16.41862  -6.64221  12.40509
 -16.89746  -4.24802  12.40509
 -17.13688  -2.09325  12.16567
 -17.13688   0.30094  11.92626
 -16.65804   2.21629  11.92626
 -15.93978   4.37106  12.16567
 -15.70036   6.04699  12.64451
 -15.22153   7.72292  13.12335
 -14.98211   8.92002  13.84161
 -14.26385  10.11711  15.51754
 -14.02443  10.83537  16.95405
 -13.06676  11.07479  18.15115
 -12.58792  11.07479  19.34824
 -11.86966  10.35653  20.06650
 -10.91199   9.39886  20.30592
  -9.71489   7.96234  19.58766
  -8.99663   6.76525  18.62999
  -8.03896   5.56815  17.43289
  -6.84186   4.13164  15.99638
