********************************************************************************
              CENTRO DE INSTRUMENTACION Y REGISTRO SISMICO  A.C.

    Anaxagoras 814, Col. Narvarte, Benito Juarez, C.P. 03020 Mexico, D.F.
           Tels. 5687 45 42/ 5687 45  82             Fax. 5669 25 12
********************************************************************************
ARCHIVO ESTANDAR DE ACELERACION:
VERSION DEL FORMATO                    : 2.0
NOMBRE DEL ARCHIVO                     : AO2420130412034509
FECHA Y HORA DE CREACION               : 14/MAY/13, 12:39
REF. CATALOGO ACELEROGRAMAS, SMIS 1996 : REGISTRO No.     /PAG.


================================================================================
DATOS DE LA ESTACION:
NOMBRE DE LA ESTACION                  : ALBERCA OLÍMPICA
CLAVE DE LA ESTACION                   : AO24
LOCALIZACION DE LA ESTACION            : Del. Benito Juárez, Col. General Pedro 
                                       : María Anaya, Río Churubusco            
                                       : y División del Norte.                  
                                       :                                        
                                       : 
COORDENADAS DE LA ESTACION             : 19.3580 LAT. N
                                       : 99.1539 LONG. W
ALTITUD (msnm)                         : 2235
TIPO DE SUELO                          : Transición                          
                                       :                           
                                       : 
INSTITUCION RESPONSABLE                : CIRES
                                       : 

================================================================================
DATOS DEL ACELEROGRAFO:
MODELO DEL ACELEROGRAFO                : RADESD
NUMERO DE SERIE DEL ACELEROGRAFO       : 257
NUMERO DE CANALES                      : 3
ORIENTACION C1-C6 (rumbo;orientacion)  : /N00E/+V/N90W
ORIENTACION C7-C12 (rumbo;orientacion) : 
VEL. DE MUESTREO, C1-C6 (muestras/s)   : /100/100/100
VEL. DE MUESTREO, C7-C12 (muestras/s)  : 
ESC. COMPLETA DE SENSORES, C1-C6, (g)  : /0.5/0.5/0.5
ESC. COMPLETA DE SENSORES, C7-C12, (g) : 
FREC. NAT. DE SENSORES, C1-C6, (Hz)    : /30/30/30
FREC. NAT. DE SENSORES, C7-C12, (Hz)   : 
AMORTIGUAMIENTO DE SENSORES, C1-C6     : /0.700/0.700/0.700
AMORTIGUAMIENTO DE SENSORES, C7-C12    : 
INTERVALO DE MUESTREO, C1-C6, (s)      : /0.01/0.01/0.01
INTERVALO DE MUESTREO, C7-C12, (s)     : 
UMBRAL DE DISPARO, C1-C6, (Gal)        : /26.34/50.28/31.12
UMBRAL DE DISPARO, C7-C12, (Gal)       : 
MEMORIA DE PREEVENTO (s)               : 56.0
TIEMPO DE POSEVENTO (s)                : 80.0


================================================================================
DATOS DEL SISMO:
FECHA DEL SISMO (GMT)                  : 12/ABR/13
HORA EPICENTRO (GMT)                   : 03:45:09.0
MAGNITUD(ES)                           : /Mc=5.2
COORDENADAS DEL EPICENTRO              : 17.78 LAT. N
                                       : 101.58 LONG. W
PROFUNDIDAD FOCAL (km)                 : 35
FUENTE DE LOS DATOS EPICENTRALES       : SSN
                                       : INSTITUTO DE GEOFISICA, UNAM

================================================================================
DATOS DE ESTE REGISTRO:
HORA DE LA PRIMERA MUESTRA (GMT)       : 03:46:43.00
EXACTITUD DEL TIEMPO (s)               : 0.01
DURACION DEL REGISTRO (s), C1-C6       : /107.8/107.8/107.8
DURACION DEL REGISTRO (s), C7-C12      : 
NUM. TOTAL DE MUESTRAS, C1-C6          : /10780/10780/10780
NUM. TOTAL DE MUESTRAS, C7-C12         : 
ACEL. MAX. (Gal), C1-C6                : /1.93442/0.6569/1.46469
ACEL. MAX., C1-C6, EN LA MUESTRA       : /4392/4131/5376
ACEL. MAX. (Gal), C7-C12               : 
ACEL. MAX., C7-C12, EN LA MUESTRA      : 
UNIDADES DE LOS DATOS                  : Gal (cm/s/s)
FACTOR DE DECIMACION                   : 1
FORMATO DATOS (FORTRAN,10 campos/dato) : 3F10.5


================================================================================
CALIDAD DEL ACELEROGRAMA:
REGISTRO DIGITAL COMPLETO CON TIEMPO ABSOLUTO CORRECTO.


================================================================================
COMENTARIOS:














================================================================================
DATOS DE ACELERACION:
---------+---------+---------+---------+---------+---------+---------+---------+
   CANAL-1   CANAL-2   CANAL-3   CANAL-4   CANAL-5   CANAL-6   CANAL-7   CANAL-8
      N00E        +V      N90W
---------+---------+---------+---------+---------+---------+---------+---------+
[...]
  -0.84884   0.02843   0.22622
  -0.92365   0.02843   0.24118
  -0.99847   0.02843   0.27111
  -1.02840  -0.01646   0.31600
  -1.10322   0.02843   0.31600
  -1.10322   0.01346   0.33096
  -1.13315   0.01346   0.33096
  -1.10322   0.02843   0.30104
  -1.11818  -0.01646   0.27111
  -1.08826  -0.00150   0.21125
  -1.07329  -0.01646   0.18133
  -0.98351  -0.00150   0.12147
  -0.99847   0.02843   0.03169
  -0.96855   0.04339  -0.01320
  -0.95358   0.05835  -0.10299
  -0.95358   0.05835  -0.14788
  -0.95358  -0.00150  -0.13291
  -0.92365  -0.04639  -0.20773
  -0.92365  -0.07632  -0.17781
  -0.95358  -0.15114  -0.19277
  -0.93862  -0.22596  -0.16284
  -0.98351  -0.27085  -0.11795
  -1.01344  -0.31574  -0.10299
  -1.07329  -0.33070   0.00176
  -1.08826  -0.27085   0.06162
  -1.13315  -0.25588   0.04665
  -1.13315  -0.19603   0.06162
  -1.14811  -0.15114   0.10651
  -1.16307  -0.07632   0.04665
  -1.13315   0.02843   0.03169
  -1.10322   0.10325   0.03169
  -1.02840   0.10325  -0.02817
  -0.96855   0.14814  -0.11795
  -0.84884   0.11821  -0.13291
  -0.72913   0.08828  -0.17781
  -0.59445   0.01346  -0.25262
  -0.47474  -0.00150  -0.32744
  -0.38496  -0.03143  -0.38730
  -0.28021  -0.10625  -0.43219
  -0.20539  -0.16610  -0.46212
  -0.17547  -0.19603  -0.46212
  -0.10065  -0.22596  -0.43219
  -0.01086  -0.22596  -0.37233
  -0.01086  -0.19603  -0.31248
   0.03403  -0.16610  -0.26759
   0.15374  -0.13617  -0.20773
   0.16870  -0.09128  -0.14788
   0.19863  -0.07632  -0.05809
   0.25848  -0.01646   0.00176
   0.27345   0.05835   0.07658
   0.31834   0.05835   0.12147
   0.39316   0.13317   0.15140
   0.46798   0.19303   0.15140
   0.52783   0.22296   0.15140
   0.58769   0.25288   0.16636
   0.58769   0.29777   0.16636
   0.61761   0.31274   0.19629
   0.63258   0.29777   0.21125
   0.64754   0.28281   0.19629
   0.66250   0.34267   0.25614
   0.67747   0.35763   0.30104
   0.72236   0.31274   0.34593
   0.73732   0.31274   0.36089
   0.75229   0.25288   0.43571
   0.76725   0.25288   0.48060
   0.76725   0.23792   0.54046
   0.78221   0.28281   0.55542
   0.78221   0.26785   0.61527
   0.81214   0.19303   0.60031
   0.79718   0.14814   0.58535
   0.81214   0.07332   0.58535
   0.78221   0.02843   0.55542
   0.75229  -0.00150   0.52549
   0.69243  -0.01646   0.45067
   0.64754  -0.03143   0.43571
   0.61761  -0.04639   0.39082
   0.61761  -0.03143   0.37585
   0.64754   0.07332   0.30104
   0.70740   0.13317   0.27111
   0.73732   0.22296   0.19629
   0.76725   0.28281   0.16636
   0.85703   0.35763   0.13643
   0.88696   0.43245   0.10651
   0.90192   0.55216   0.06162
   0.88696   0.59705   0.03169
   0.87200   0.65690  -0.01320
   0.82711   0.59705  -0.02817
   0.73732   0.53719  -0.04313
   0.66250   0.41748  -0.01320
   0.61761   0.34267   0.00176
   0.54279   0.20799   0.04665
   0.45301   0.11821   0.07658
   0.37819   0.02843   0.06162
   0.28841  -0.06136   0.07658
   0.19863  -0.16610   0.09154
   0.09388  -0.18107   0.04665
   0.00410  -0.16610   0.01672
  -0.07072  -0.06136  -0.05809
  -0.14554  -0.07632  -0.11795
  -0.22036  -0.03143  -0.22270
  -0.29518  -0.09128  -0.26759
  -0.38496  -0.04639  -0.34241
  -0.44481  -0.03143  -0.46212
  -0.50467  -0.00150  -0.55190
  -0.56452   0.04339  -0.62672
  -0.57949   0.05835  -0.68657
  -0.65431   0.04339  -0.73146
  -0.63934   0.02843  -0.70154
  -0.63934   0.04339  -0.70154
  -0.60942   0.02843  -0.70154
  -0.57949   0.04339  -0.71650
  -0.53460   0.01346  -0.68657
  -0.50467  -0.06136  -0.65665
  -0.48971  -0.09128  -0.62672
  -0.48971  -0.12121  -0.56686
  -0.44481  -0.13617  -0.49204
  -0.42985  -0.12121  -0.41723
  -0.44481  -0.13617  -0.32744
  -0.45978  -0.13617  -0.25262
  -0.50467  -0.15114  -0.20773
  -0.54956  -0.16610  -0.13291
  -0.57949  -0.18107  -0.14788
  -0.59445  -0.10625  -0.16284
  -0.60942  -0.13617  -0.19277
  -0.60942  -0.13617  -0.26759
  -0.59445  -0.16610  -0.31248
  -0.56452  -0.19603  -0.37233
  -0.53460  -0.19603  -0.46212
  -0.48971  -0.18107  -0.50701
  -0.47474  -0.16610  -0.59679
  -0.44481  -0.12121  -0.64168
  -0.42985  -0.10625  -0.68657
  -0.42985  -0.07632  -0.68657
  -0.42985  -0.07632  -0.65665
  -0.38496  -0.00150  -0.61175
  -0.34007   0.04339  -0.61175
  -0.31014   0.05835  -0.53694
  -0.25028   0.08828  -0.47708
  -0.14554   0.08828  -0.41723
  -0.02583   0.08828  -0.34241
   0.15374   0.01346  -0.29752
   0.34827  -0.00150  -0.28255
   0.48294  -0.03143  -0.26759
   0.61761  -0.09128  -0.26759
   0.72236  -0.13617  -0.26759
   0.79718  -0.19603  -0.29752
   0.85703  -0.28581  -0.29752
   0.90192  -0.28581  -0.31248
   0.91689  -0.30078  -0.29752
   0.90192  -0.28581  -0.34241
   0.84207  -0.27085  -0.34241
   0.81214  -0.19603  -0.31248
   0.75229  -0.13617  -0.28255
   0.73732  -0.12121  -0.25262
   0.69243  -0.06136  -0.26759
   0.72236  -0.03143  -0.22270
   0.73732  -0.01646  -0.23766
   0.76725   0.02843  -0.20773
   0.82711   0.02843  -0.19277
   0.84207   0.05835  -0.19277
   0.90192   0.02843  -0.16284
   0.87200   0.02843  -0.16284
   0.87200   0.01346  -0.11795
   0.82711  -0.00150  -0.08802
   0.78221  -0.06136  -0.05809
   0.70740  -0.10625  -0.04313
   0.64754  -0.13617   0.03169
   0.54279  -0.18107   0.06162
   0.54279  -0.15114   0.12147
   0.45301  -0.10625   0.18133
   0.40812  -0.10625   0.27111
   0.34827  -0.06136   0.30104
   0.31834  -0.01646   0.31600
   0.24352  -0.04639   0.37585
   0.24352  -0.06136   0.40578
   0.19863  -0.09128   0.40578
   0.16870  -0.10625   0.48060
   0.12381  -0.10625   0.48060
   0.07892  -0.06136   0.49556
   0.04899  -0.07632   0.45067
  -0.01086  -0.10625   0.43571
  -0.05576  -0.10625   0.36089
  -0.08568  -0.13617   0.34593
  -0.14554  -0.16610   0.31600
  -0.22036  -0.16610   0.28607
  -0.26525  -0.16610   0.28607
  -0.31014  -0.12121   0.27111
  -0.42985  -0.10625   0.27111
  -0.50467  -0.07632   0.25614
  -0.54956  -0.12121   0.24118
  -0.68423  -0.15114   0.18133
  -0.74409  -0.22596   0.19629
  -0.84884  -0.28581   0.18133
  -0.93862  -0.33070   0.24118
  -1.01344  -0.37559   0.28607
  -1.11818  -0.40552   0.33096
  -1.16307  -0.42049   0.42075
  -1.22293  -0.42049   0.46564
  -1.19300  -0.36063   0.55542
  -1.17804  -0.36063   0.55542
  -1.10322  -0.33070   0.58535
  -1.08826  -0.30078   0.55542
  -1.02840  -0.25588   0.54046
  -0.96855  -0.22596   0.52549
  -0.90869  -0.19603   0.49556
  -0.84884  -0.09128   0.48060
  -0.81891  -0.00150   0.43571
  -0.78898   0.07332   0.40578
  -0.78898   0.11821   0.40578
  -0.83387   0.17806   0.39082
  -0.84884   0.16310   0.36089
  -0.93862   0.14814   0.34593
  -1.01344   0.16310   0.34593
  -1.07329   0.17806   0.30104
  -1.13315   0.16310   0.25614
  -1.17804   0.08828   0.16636
  -1.17804   0.05835   0.09154
  -1.17804   0.04339  -0.01320
  -1.10322   0.02843  -0.05809
  -1.05833  -0.00150  -0.11795
  -0.96855  -0.06136  -0.17781
  -0.83387  -0.10625  -0.22270
  -0.71416  -0.18107  -0.26759
  -0.59445  -0.19603  -0.28255
  -0.47474  -0.12121  -0.26759
  -0.36999  -0.09128  -0.25262
  -0.26525  -0.09128  -0.19277
  -0.20539  -0.12121  -0.10299
  -0.10065  -0.07632  -0.02817
  -0.04079  -0.03143   0.10651
   0.04899   0.01346   0.21125
   0.10885   0.07332   0.33096
   0.18366   0.11821   0.40578
   0.22856   0.11821   0.48060
   0.27345   0.17806   0.54046
   0.36323   0.26785   0.55542
   0.42308   0.29777   0.54046
   0.51287   0.35763   0.52549
   0.58769   0.43245   0.43571
   0.67747   0.41748   0.40578
   0.76725   0.44741   0.31600
   0.84207   0.47734   0.19629
   0.96178   0.50727   0.13643
   1.03660   0.49230   0.03169
   1.12638   0.50727  -0.02817
   1.21616   0.50727  -0.04313
   1.26105   0.44741  -0.13291
   1.36580   0.37259  -0.19277
   1.38077   0.29777  -0.25262
   1.44062   0.25288  -0.29752
   1.47055   0.17806  -0.29752
   1.47055   0.19303  -0.32744
   1.48551   0.13317  -0.34241
   1.45558   0.11821  -0.35737
   1.48551   0.05835  -0.32744
   1.48551   0.04339  -0.31248
   1.53040   0.04339  -0.25262
   1.54537   0.11821  -0.23766
   1.54537   0.19303  -0.19277
   1.53040   0.25288  -0.16284
   1.51544   0.28281  -0.13291
   1.48551   0.35763  -0.11795
   1.48551   0.37259  -0.10299
   1.45558   0.35763  -0.10299
   1.38077   0.35763  -0.13291
   1.30595   0.34267  -0.16284
   1.18624   0.29777  -0.20773
   1.08149   0.23792  -0.26759
   0.96178   0.16310  -0.34241
   0.84207   0.16310  -0.40226
   0.76725   0.07332  -0.43219
   0.67747  -0.00150  -0.52197
   0.60265  -0.15114  -0.56686
   0.51287  -0.25588  -0.61175
   0.48294  -0.34567  -0.64168
   0.39316  -0.48034  -0.59679
   0.33330  -0.48034  -0.61175
   0.28841  -0.52523  -0.56686
   0.22856  -0.55516  -0.50701
   0.12381  -0.58509  -0.49204
   0.03403  -0.55516  -0.43219
  -0.07072  -0.57012  -0.34241
  -0.17547  -0.52523  -0.31248
  -0.28021  -0.48034  -0.34241
  -0.41489  -0.43545  -0.35737
  -0.56452  -0.33070  -0.34241
  -0.72913  -0.33070  -0.35737
  -0.84884  -0.22596  -0.38730
  -0.95358  -0.16610  -0.44715
  -1.04336  -0.12121  -0.46212
  -1.16307  -0.04639  -0.50701
  -1.23789  -0.00150  -0.52197
  -1.32768  -0.03143  -0.50701
  -1.40249  -0.04639  -0.49204
  -1.46235  -0.07632  -0.44715
  -1.47731  -0.06136  -0.38730
  -1.55213  -0.04639  -0.35737
  -1.55213  -0.09128  -0.31248
  -1.59702  -0.10625  -0.31248
  -1.62695  -0.15114  -0.26759
  -1.70177  -0.22596  -0.22270
  -1.73170  -0.27085  -0.19277
  -1.80652  -0.27085  -0.16284
  -1.80652  -0.24092  -0.13291
  -1.85141  -0.18107  -0.14788
  -1.88133  -0.16610  -0.11795
  -1.85141  -0.16610  -0.10299
  -1.85141  -0.21099  -0.10299
  -1.79155  -0.21099  -0.07306
  -1.74666  -0.21099  -0.02817
  -1.67184  -0.21099   0.06162
  -1.62695  -0.21099   0.13643
  -1.52220  -0.16610   0.22622
  -1.44739  -0.13617   0.34593
  -1.35760  -0.09128   0.43571
  -1.26782  -0.04639   0.52549
  -1.13315  -0.00150   0.57038
  -0.96855   0.05835   0.64520
  -0.86380   0.13317   0.69009
  -0.74409   0.25288   0.70506
  -0.66927   0.29777   0.70506
  -0.57949   0.37259   0.66017
  -0.54956   0.40252   0.61527
  -0.45978   0.40252   0.54046
  -0.35503   0.40252   0.51053
  -0.25028   0.41748   0.46564
  -0.14554   0.41748   0.39082
  -0.05576   0.41748   0.31600
   0.01906   0.38756   0.27111
   0.10885   0.40252   0.21125
   0.19863   0.35763   0.18133
   0.25848   0.29777   0.18133
   0.34827   0.25288   0.21125
   0.46798   0.19303   0.28607
   0.57272   0.14814   0.33096
   0.67747   0.11821   0.40578
   0.78221   0.04339   0.46564
   0.93185   0.01346   0.52549
   1.09645  -0.04639   0.61527
   1.26105  -0.06136   0.70506
   1.41069  -0.07632   0.72002
   1.53040  -0.10625   0.76491
   1.66508  -0.09128   0.77988
   1.75486  -0.15114   0.82477
   1.82968  -0.18107   0.79484
   1.90450  -0.24092   0.74995
   1.93442  -0.24092   0.67513
   1.91946  -0.19603   0.60031
   1.93442  -0.12121   0.52549
   1.85961  -0.07632   0.45067
   1.81471  -0.01646   0.34593
   1.73990   0.05835   0.27111
   1.65011   0.08828   0.16636
   1.63515   0.19303   0.16636
   1.59026   0.31274   0.10651
   1.29098   0.16310  -0.10299
   1.21616   0.17806  -0.14788
   1.23113   0.25288  -0.10299
   1.21616   0.28281  -0.08802
   1.18624   0.26785  -0.10299
   1.15631   0.17806  -0.07306
   1.14134   0.14814  -0.08802
   1.12638   0.05835  -0.10299
   1.08149   0.02843  -0.08802
   1.05156  -0.04639  -0.04313
   0.97674  -0.07632  -0.04313
   0.91689  -0.15114  -0.05809
   0.84207  -0.22596  -0.04313
   0.79718  -0.24092  -0.07306
   0.70740  -0.25588  -0.08802
   0.63258  -0.25588  -0.11795
   0.55776  -0.22596  -0.16284
   0.46798  -0.24092  -0.16284
   0.40812  -0.21099  -0.20773
   0.28841  -0.19603  -0.20773
   0.19863  -0.13617  -0.23766
   0.06395  -0.13617  -0.25262
  -0.04079  -0.12121  -0.29752
  -0.20539  -0.16610  -0.31248
  -0.35503  -0.19603  -0.37233
  -0.50467  -0.19603  -0.40226
  -0.69920  -0.16610  -0.44715
  -0.80394  -0.15114  -0.44715
  -0.95358  -0.12121  -0.49204
  -1.10322  -0.10625  -0.49204
  -1.23789  -0.07632  -0.52197
  -1.31271  -0.09128  -0.53694
  -1.40249  -0.03143  -0.53694
  -1.43242  -0.01646  -0.52197
  -1.47731  -0.00150  -0.53694
  -1.49228  -0.01646  -0.46212
  -1.50724  -0.01646  -0.41723
  -1.50724  -0.00150  -0.35737
  -1.49228   0.01346  -0.31248
  -1.47731   0.01346  -0.23766
  -1.41746   0.01346  -0.17781
  -1.41746   0.01346  -0.11795
  -1.35760  -0.00150  -0.05809
  -1.29775  -0.03143  -0.01320
  -1.26782  -0.06136   0.01672
  -1.20797  -0.04639   0.03169
  -1.16307  -0.07632   0.04665
  -1.07329  -0.06136   0.04665
  -1.02840  -0.06136   0.06162
  -0.98351  -0.06136   0.03169
  -0.92365  -0.06136   0.01672
  -0.87876  -0.07632   0.01672
  -0.86380  -0.03143   0.01672
  -0.86380  -0.04639   0.01672
  -0.86380  -0.01646   0.03169
  -0.89373   0.04339   0.03169
  -0.90869   0.05835   0.06162
  -0.93862   0.10325   0.07658
  -0.99847   0.16310   0.09154
  -1.01344   0.14814   0.10651
  -0.98351   0.14814   0.12147
  -0.99847   0.08828   0.15140
  -0.95358   0.10325   0.18133
  -0.89373   0.11821   0.21125
  -0.83387   0.08828   0.25614
  -0.72913   0.11821   0.27111
  -0.63934   0.11821   0.28607
  -0.53460   0.14814   0.31600
  -0.44481   0.20799   0.33096
  -0.34007   0.23792   0.33096
  -0.25028   0.20799   0.31600
  -0.19043   0.22296   0.31600
  -0.13057   0.17806   0.33096
  -0.07072   0.19303   0.31600
  -0.01086   0.14814   0.31600
   0.06395   0.13317   0.33096
   0.12381   0.10325   0.31600
   0.16870   0.04339   0.28607
   0.19863  -0.01646   0.24118
   0.25848  -0.04639   0.21125
   0.27345  -0.09128   0.15140
   0.30337  -0.13617   0.13643
   0.36323  -0.12121   0.12147
   0.40812  -0.07632   0.12147
   0.46798  -0.00150   0.10651
   0.51287   0.02843   0.12147
   0.55776   0.07332   0.10651
   0.60265   0.08828   0.15140
   0.63258   0.14814   0.15140
   0.67747   0.22296   0.16636
   0.72236   0.25288   0.18133
   0.79718   0.31274   0.15140
   0.82711   0.31274   0.13643
   0.87200   0.26785   0.10651
   0.90192   0.23792   0.07658
   0.91689   0.17806   0.04665
   0.97674   0.11821   0.00176
   1.00667   0.02843  -0.05809
   1.02163  -0.04639  -0.08802
   1.03660  -0.13617  -0.14788
   1.03660  -0.24092  -0.17781
   1.08149  -0.28581  -0.25262
   1.06653  -0.36063  -0.28255
   1.09645  -0.40552  -0.35737
   1.09645  -0.43545  -0.44715
   1.09645  -0.40552  -0.49204
   1.08149  -0.34567  -0.53694
   1.09645  -0.28581  -0.59679
   1.12638  -0.21099  -0.62672
   1.14134  -0.06136  -0.65665
   1.15631  -0.00150  -0.64168
   1.15631   0.07332  -0.64168
   1.11142   0.08828  -0.67161
   1.09645   0.11821  -0.65665
   1.08149   0.16310  -0.64168
   1.08149   0.16310  -0.61175
   1.06653   0.14814  -0.56686
   1.05156   0.11821  -0.52197
   1.02163   0.11821  -0.50701
   0.94682   0.10325  -0.50701
   0.90192   0.07332  -0.50701
   0.82711   0.04339  -0.50701
   0.73732  -0.01646  -0.50701
   0.66250  -0.04639  -0.55190
   0.52783  -0.09128  -0.56686
   0.43805  -0.03143  -0.61175
   0.33330  -0.03143  -0.64168
   0.24352  -0.03143  -0.64168
   0.16870  -0.04639  -0.70154
   0.06395  -0.09128  -0.73146
  -0.02583  -0.07632  -0.74643
  -0.07072  -0.09128  -0.76139
  -0.16050  -0.06136  -0.74643
  -0.20539  -0.06136  -0.74643
  -0.25028  -0.03143  -0.71650
  -0.26525  -0.00150  -0.68657
  -0.28021   0.02843  -0.65665
  -0.29518   0.07332  -0.61175
  -0.31014   0.13317  -0.56686
  -0.34007   0.17806  -0.52197
  -0.36999   0.22296  -0.44715
