********************************************************************************
               CENTRO DE INSTRUMENTACION Y REGISTRO SISMICO  A.C.  
                       Coordinacion de Servicios Tecnicos
     Anaxagoras 814, Col. Narvarte, Benito Juarez, C.P. 03020 Mexico, D.F.
            Tels. 687 45 42/ 687 45  82             Fax. 669 25 12
********************************************************************************
ARCHIVO ESTANDAR DE ACELERACION:
VERSION DEL FORMATO                    : 2.0
NOMBRE DEL ARCHIVO                     : AO249005.111
FECHA Y HORA DE CREACION               : ABRIL 18, 1996/17:02
REF. CATALOGO ACELEROGRAMAS, SMIS 1995 : REGISTRO No. 2031 /PAG. 201


================================================================================
DATOS DE LA ESTACION:
NOMBRE DE LA ESTACION                  : ALBERCA OLIMPICA
CLAVE DE LA ESTACION                   : AO24
LOCALIZACION DE LA ESTACION            : Alberca Olimpica Rio Churubusco y
                                       : Division del Norte, Col Pedro Ma
                                       : Anaya, Benito Juarez
                                       :
                                       :
COORDENADAS DE LA ESTACION             : 19.358 LAT. N 
                                       : 99.154 LONG. W 
ALTITUD (msnm)                         : 2235
TIPO DE SUELO                          : TRANSICION
                                       : 
                                       : 
INSTITUCION RESPONSABLE                : CIRES
                                       :

================================================================================
DATOS DEL ACELEROGRAFO:
MODELO DEL ACELEROGRAFO                : DCA-333
NUMERO DE SERIE DEL ACELEROGRAFO       : 215
NUMERO DE CANALES                      : 3
ORIENTACION C1-C6 (rumbo;orientacion)  : /N00E/+V/N90W
ORIENTACION C7-C12 (rumbo;orientacion) :
VEL. DE MUESTREO, C1-C6 (muestras/s)   : /100/100/100
VEL. DE MUESTREO, C7-C12 (muestras/s)  :
ESC. COMPLETA DE SENSORES, C1-C6, (g)  : /0.5/0.5/0.5
ESC. COMPLETA DE SENSORES, C7-C12, (g) :
FREC. NAT. DE SENSORES, C1-C6, (Hz)    : /30/30/30
FREC. NAT. DE SENSORES, C7-C12, (Hz)   :
AMORTIGUAMIENTO DE SENSORES, C1-C6     : /0.700/0.700/0.700
AMORTIGUAMIENTO DE SENSORES, C7-C12    :
INTERVALO DE MUESTREO, C1-C6, (s)      : /0.01/0.01/0.01
INTERVALO DE MUESTREO, C7-C12, (s)     :
UMBRAL DE DISPARO, C1-C6, (Gal)        : /1.5/1.5/1.5
UMBRAL DE DISPARO, C7-C12, (Gal)       :
MEMORIA DE PREEVENTO (s)               : 4
TIEMPO DE POSEVENTO (s)                : 15


================================================================================
DATOS DEL SISMO:
FECHA DEL SISMO (GMT)                  : 11/MAY/90
HORA EPICENTRO (GMT)                   : 23:43:49,1
MAGNITUD(ES)                           : /Mb=5.30/Ms=4.90/Mc=5.30
COORDENADAS DEL EPICENTRO              : 17.046 LAT. N 
                                       : 100.840 LONG. W
PROFUNDIDAD FOCAL (km)                 : 11.7 
FUENTE DE LOS DATOS EPICENTRALES       : INSTITUTO DE INGENIERIA UNAM
                                       : 

================================================================================
DATOS DE ESTE REGISTRO:
HORA DE LA PRIMERA MUESTRA (GMT)       : 23:45:20.71
EXACTITUD DEL TIEMPO (s)               : 0.01
DURACION DEL REGISTRO (s), C1-C6       : /50.69/50.69/50.69
DURACION DEL REGISTRO (s), C7-C12      :
NUM. TOTAL DE MUESTRAS, C1-C6          : /5069/5069/5069
NUM. TOTAL DE MUESTRAS, C7-C12         :
ACEL. MAX. (Gal), C1-C6                : /3.55/1.31/4.24
ACEL. MAX., C1-C6, EN LA MUESTRA       :
ACEL. MAX. (Gal), C7-C12               :
ACEL. MAX., C7-C12, EN LA MUESTRA      :
UNIDADES DE LOS DATOS                  : Gal (cm/s/s)
FACTOR DE DECIMACION                   : 1
FORMATO DATOS (FORTRAN,10 campos/dato) : 3F10.2


================================================================================
CALIDAD DEL ACELEROGRAMA:
REGISTRO DIGITAL AL QUE FALTA UNA PARTE AL INICIO, CON TIEMPO
ABSOLUTO.

================================================================================
COMENTARIOS:














================================================================================
DATOS DE ACELERACION:
---------+---------+---------+---------+---------+---------+---------+---------+
   CANAL-1   CANAL-2   CANAL-3   CANAL-4   CANAL-5   CANAL-6   CANAL-7   CANAL-8
      N00E        +V      N90W
---------+---------+---------+---------+---------+---------+---------+---------+
[...]
     -1.16     -1.07     -1.26
     -1.16     -1.07     -1.02
     -1.16     -1.31     -1.02
     -1.16     -1.31     -0.78
     -1.16     -1.31     -0.78
     -1.16     -1.31     -0.54
     -1.16     -1.31     -0.54
     -0.92     -1.31     -0.30
     -0.68     -1.31     -0.54
     -0.68     -1.31     -0.30
     -0.68     -1.07     -0.30
     -0.68     -0.59     -0.30
     -0.44     -0.83     -0.30
     -0.44     -0.59     -0.30
     -0.20     -0.59     -0.30
     -0.20     -0.35     -0.30
     -0.20     -0.35     -0.30
      0.04     -0.35     -0.30
     -0.20     -0.11     -0.07
      0.28      0.13     -0.30
      0.28      0.37      0.17
      0.28      0.37      0.17
      0.28      0.37      0.41
      0.52      0.37      0.65
      0.52      0.61      0.65
      0.52      0.61      0.89
      0.52      1.09      0.89
      0.76      0.85      1.13
      0.76      0.85      1.37
      0.52      0.85      1.37
      0.76      0.85      1.61
      0.76      0.85      1.61
      0.76      0.85      1.85
      1.00      0.61      1.85
      0.76      0.61      1.61
      1.00      0.61      1.85
      1.00      0.37      1.85
      1.24      0.37      1.85
      1.00      0.13      1.85
      1.48      0.13      1.85
      1.48     -0.11      1.85
      1.72     -0.11      1.85
      1.96     -0.11      1.85
      1.72     -0.35      1.85
      1.96     -0.11      1.85
      1.96     -0.11      1.85
      2.20     -0.11      1.85
      1.96     -0.11      1.85
      2.20      0.13      1.85
      1.96      0.13      1.85
      1.96      0.13      1.37
      1.72      0.37      1.61
      1.72      0.37      1.61
      1.72      0.37      1.85
      1.48      0.61      1.85
      1.48      0.61      1.37
      1.24      0.85      1.61
      1.24      0.85      1.61
      1.24      0.85      1.61
      1.00      0.85      1.61
      1.00      1.09      1.37
      1.00      1.09      1.61
      0.76      1.09      1.37
      0.76      1.09      1.37
      0.76      1.09      1.37
      0.52      1.09      1.37
      0.52      0.85      1.13
      0.52      0.85      1.13
      0.52      0.61      1.13
      0.52      0.61      1.13
      0.28      0.37      1.13
      0.28      0.13      1.13
      0.04      0.13      0.89
      0.28     -0.11      0.89
      0.28     -0.35      0.65
      0.04     -0.35      0.65
      0.04     -0.59      0.65
      0.04     -0.83      0.41
     -0.20     -0.83      0.41
     -0.20     -0.83      0.17
     -0.44     -0.83     -0.07
     -0.44     -0.83     -0.30
     -0.68     -0.83     -0.30
     -0.68     -0.59     -0.54
     -0.92     -0.59     -0.78
     -0.92     -0.11     -0.78
     -1.16     -0.35     -1.02
     -1.39     -0.35     -1.26
     -1.39     -0.11     -1.26
     -1.63     -0.11     -1.74
     -1.63      0.13     -1.50
     -1.87      0.13     -1.74
     -1.87      0.13     -1.74
     -2.11     -0.11     -1.98
     -2.11     -0.11     -1.98
     -2.11     -0.11     -1.74
     -2.11     -0.11     -1.74
     -2.11     -0.11     -1.74
     -2.11     -0.11     -1.74
     -2.11     -0.11     -1.74
     -2.35     -0.11     -1.74
     -1.87     -0.35     -1.74
     -1.87     -0.35     -1.50
     -1.63     -0.35     -1.50
     -1.63     -0.11     -1.50
     -1.63     -0.35     -1.50
     -1.39     -0.59     -1.50
     -1.87     -0.59     -1.50
     -1.39     -0.59     -1.50
     -1.16     -0.59     -1.74
     -1.39     -0.35     -1.50
     -1.39     -0.35     -1.50
     -1.39     -0.35     -1.74
     -1.16     -0.35     -1.50
     -1.39     -0.35     -1.50
     -1.16     -0.35     -1.50
     -1.16     -0.35     -1.50
     -1.16     -0.35     -1.26
     -1.16     -0.11     -1.26
     -0.92     -0.35     -1.26
     -1.16     -0.59     -1.02
     -0.92     -0.35     -1.02
     -1.16     -0.35     -1.02
     -1.16     -0.35     -1.02
     -1.16     -0.11     -0.78
     -1.16     -0.11     -0.78
     -1.16     -0.11     -0.78
     -1.16     -0.35     -0.78
     -1.16     -0.11     -0.54
     -0.92      0.13     -0.30
     -0.68      0.13     -0.07
     -0.68      0.37     -0.07
     -0.68      0.37      0.17
     -0.68      0.37      0.17
     -0.44      0.37      0.41
     -0.44      0.37      0.65
      0.04      0.37      0.65
      0.04      0.37      0.89
      0.28      0.37      1.13
      0.52      0.37      0.89
      0.76      0.37      1.37
      1.00      0.37      1.37
      1.00      0.37      1.37
      1.24      0.61      1.37
      1.24      0.61      1.61
      1.48      0.61      1.61
      1.48      0.61      1.85
      1.48      0.85      1.85
      1.72      0.61      1.85
      1.72      0.61      1.85
      1.72      0.61      2.09
      1.72      0.61      1.85
      1.96      0.61      1.85
      2.20      0.37      1.85
      2.44      0.37      1.85
      2.44      0.13      1.61
      2.44      0.13      1.61
      2.44     -0.11      1.85
      2.44     -0.11      1.61
      2.44     -0.11      1.61
      2.44     -0.11      1.61
      2.44     -0.11      1.61
      2.44     -0.11      1.37
      2.44     -0.11      1.37
      1.96      0.37      1.37
      2.20      0.13      1.13
      2.20      0.13      0.89
      1.96      0.13      0.89
      1.96      0.37      0.89
      1.72      0.37      0.89
      1.72      0.37      0.65
      1.72      0.61      0.41
      1.48      0.61      0.41
      1.24      0.61      0.41
      1.00      0.85      0.17
      0.76      0.85      0.17
      0.52      0.85     -0.07
      0.52      0.85     -0.07
      0.28      0.61     -0.07
      0.04      0.61     -0.30
      0.04      0.37     -0.30
     -0.20      0.13     -0.30
     -0.20     -0.11     -0.54
     -0.44     -0.11     -0.54
     -0.44     -0.11     -0.54
     -0.68     -0.11     -0.54
     -0.68     -0.35     -1.02
     -0.68     -0.35     -0.78
     -0.68     -0.35     -0.78
     -0.68     -0.35     -0.78
     -0.92     -0.35     -0.78
     -1.16     -0.35     -1.02
     -1.16     -0.35     -1.02
     -1.39     -0.35     -1.26
     -1.39     -0.35     -1.26
     -1.39     -0.35     -1.50
     -1.39     -0.35     -1.50
     -1.63     -0.35     -1.74
     -1.63     -0.35     -1.74
     -1.63     -0.35     -1.98
     -1.63     -0.35     -1.98
     -1.63     -0.11     -2.22
     -1.63     -0.35     -2.22
     -1.63     -0.11     -2.22
     -1.63     -0.35     -2.22
     -1.63     -0.11     -2.22
     -1.63     -0.11     -2.22
     -1.63     -0.11     -2.22
     -1.63     -0.35     -1.98
     -1.39     -0.11     -1.98
     -1.39     -0.11     -1.74
     -1.39     -0.11     -1.74
     -1.16     -0.11     -1.50
     -1.16     -0.35     -1.50
     -0.92     -0.35     -1.50
     -0.68     -0.35     -1.26
     -0.68     -0.59     -1.26
     -0.68     -0.35     -1.02
     -0.44     -0.59     -0.78
     -0.44     -0.59     -0.78
     -0.44     -0.59     -0.30
     -0.20     -0.59     -0.30
     -0.20     -0.83      0.17
     -0.20     -0.59      0.41
     -0.20     -0.59      0.41
      0.04     -0.59      0.89
      0.04     -0.59      1.13
      0.04     -0.59      1.37
      0.04     -0.59      1.61
      0.04     -0.59      1.85
      0.28     -0.35      1.85
      0.28     -0.35      2.09
      0.28     -0.35      2.09
      0.28     -0.35      2.33
      0.52     -0.11      2.33
      0.76     -0.11      2.33
      0.76      0.13      2.33
      0.76      0.13      2.33
      1.00      0.37      2.33
      1.00      0.37      2.33
      1.24      0.37      2.33
      1.00      0.13      2.33
      1.24      0.37      2.33
      1.48      0.37      2.33
      1.48      0.37      2.33
      1.48      0.37      2.09
      1.48      0.37      2.33
      1.48      0.37      1.85
      1.48      0.13      1.85
      1.48      0.37      1.85
      1.48      0.37      1.85
      1.48      0.13      1.85
      1.48      0.13      1.85
      1.72      0.13      1.85
      1.72      0.13      1.85
      1.48      0.13      1.85
      1.48     -0.11      1.85
      1.72      0.13      1.85
      1.72      0.13      1.85
      1.72      0.13      1.85
      1.72      0.13      1.85
      1.72     -0.11      1.85
      1.72     -0.11      1.85
      1.72     -0.11      1.61
      1.48     -0.11      1.61
      1.48     -0.35      1.37
      1.48     -0.35      1.13
      1.24     -0.35      0.89
      1.24     -0.35      0.41
      1.00     -0.35      0.17
      1.00     -0.35     -0.07
      0.76     -0.35     -0.30
      0.52     -0.35     -0.54
      0.52     -0.35     -1.02
      0.28     -0.35     -1.26
      0.04     -0.11     -1.50
      0.04     -0.35     -1.50
     -0.20     -0.11     -1.74
     -0.20      0.13     -1.74
     -0.44     -0.11     -1.98
     -0.44      0.13     -1.98
     -0.68      0.13     -1.98
     -0.68      0.13     -1.98
     -0.92      0.37     -1.98
     -1.16      0.37     -1.98
     -1.39      0.61     -2.22
     -1.39      0.61     -2.22
     -1.63      0.61     -2.22
     -1.87      0.61     -2.22
     -1.87      0.85     -2.46
     -2.11      0.61     -2.70
     -1.87      0.61     -2.46
     -1.87      0.37     -2.70
     -1.87      0.61     -2.70
     -1.87      0.37     -2.94
     -1.63      0.37     -3.18
     -1.63      0.13     -3.18
     -1.39     -0.11     -3.42
     -1.39     -0.11     -3.42
     -1.39     -0.35     -3.66
     -1.39     -0.35     -3.66
     -1.16     -0.59     -3.90
     -1.39     -0.59     -3.66
     -1.16     -0.59     -3.66
     -1.39     -0.59     -3.66
     -1.39     -0.59     -3.66
     -1.39     -0.59     -3.42
     -1.39     -0.35     -3.42
     -1.39     -0.35     -3.18
     -1.39     -0.35     -3.18
     -1.39     -0.11     -2.94
     -1.16     -0.11     -2.70
     -1.39     -0.11     -2.70
     -1.16      0.13     -2.46
     -0.92      0.13     -2.22
     -0.68      0.13     -2.22
     -0.68      0.13     -1.74
     -0.68      0.37     -1.50
     -0.68      0.61     -1.26
     -0.44      0.61     -1.02
     -0.44      0.61     -0.78
     -0.20      0.85     -0.54
     -0.20      0.85     -0.07
     -0.20      1.09      0.17
     -0.20      0.85      0.41
      0.04      1.09      0.65
      0.04      1.09      1.13
      0.28      0.85      1.13
      0.28      0.85      1.37
      0.28      0.85      1.61
      0.52      0.61      1.85
      0.52      0.37      1.85
      0.52      0.37      2.33
      0.52     -0.35      2.33
      0.52     -0.11      2.33
      0.52     -0.35      2.57
      0.76     -0.59      2.57
      0.52     -0.59      2.81
      0.76     -0.59      2.81
      0.76     -0.59      3.05
      0.76     -0.59      3.05
      1.00     -0.59      3.29
      1.00     -0.59      3.29
      1.00     -0.59      3.53
      1.24     -0.59      3.77
      1.24     -0.59      3.77
      1.48     -0.59      4.00
      1.48     -0.35      4.00
      1.48     -0.59      4.00
      1.48     -0.59      4.24
      1.48     -0.35      4.24
      1.48     -0.35      4.00
      1.48     -0.35      4.00
      1.48     -0.35      4.00
      1.48     -0.35      3.77
      1.24     -0.35      3.77
      1.24     -0.11      3.53
      1.24     -0.11      3.29
      1.24      0.13      3.05
      1.24      0.13      2.81
      1.24      0.13      2.57
      1.24      0.13      2.33
      1.00      0.13      2.09
      1.00      0.13      1.85
      1.00      0.13      1.61
      1.00      0.13      1.37
      0.76     -0.11      1.13
      0.76     -0.11      0.89
      0.76     -0.11      0.65
      0.52     -0.11      0.65
      0.28     -0.11      0.41
      0.28     -0.35      0.17
      0.04     -0.11     -0.07
     -0.20     -0.11     -0.07
     -0.20     -0.11     -0.30
     -0.20     -0.11     -0.30
     -0.44     -0.11     -0.78
     -0.68     -0.11     -1.02
     -0.68     -0.11     -1.02
     -0.68     -0.11     -1.26
     -0.68     -0.11     -1.50
     -0.68     -0.11     -1.74
     -0.92     -0.11     -1.98
     -0.92     -0.11     -2.22
     -0.92     -0.35     -2.46
     -1.39     -0.11     -2.70
     -1.16     -0.11     -2.94
     -1.39     -0.11     -2.94
     -1.39     -0.11     -3.18
     -1.39      0.13     -3.18
     -1.63     -0.11     -3.42
     -1.63      0.13     -3.42
     -1.63      0.13     -3.42
     -1.63      0.13     -3.42
     -1.63      0.13     -3.42
     -1.63      0.13     -3.42
     -1.87      0.37     -3.42
     -1.87      0.13     -3.42
     -1.63      0.13     -3.42
     -1.63      0.13     -3.42
     -1.63      0.13     -3.18
     -1.63      0.13     -3.18
     -1.63      0.13     -2.94
     -1.63      0.13     -2.94
     -1.39      0.13     -2.94
     -1.63      0.37     -2.70
     -1.63      0.13     -2.46
     -1.39      0.37     -2.22
     -1.39      0.37     -1.98
     -1.39      0.37     -1.98
     -1.39      0.37     -1.74
     -1.39      0.37     -1.50
     -1.39      0.37     -1.26
     -1.16      0.37     -1.26
     -1.16      0.37     -1.02
     -1.16      0.37     -1.02
     -1.16      0.37     -1.02
     -0.92      0.37     -0.78
     -0.68      0.13     -0.54
     -0.68      0.13     -0.54
     -0.68      0.13     -0.30
     -0.44     -0.11     -0.07
     -0.20     -0.11     -0.07
     -0.20     -0.11      0.17
      0.04     -0.35      0.17
      0.28     -0.11      0.41
      0.52     -0.35      0.65
      0.76     -0.11      0.65
      1.00     -0.11      0.89
      1.24     -0.11      0.89
      1.24     -0.11      1.13
      1.48     -0.11      1.13
      1.72     -0.11      1.37
      1.72      0.13      1.61
      1.96      0.13      1.61
      2.20      0.13      1.61
      2.20      0.37      1.85
      2.44      0.37      1.85
      2.44      0.37      2.09
      2.68      0.61      2.33
      2.44      0.37      2.33
      2.68      0.37      2.33
      2.44      0.37      2.33
      2.91      0.37      2.33
      2.91      0.37      2.33
      2.68      0.37      2.57
      2.91      0.37      2.57
      2.91      0.13      2.57
      2.91      0.13      2.57
      2.68      0.13      2.81
      2.68      0.13      2.57
      2.68      0.13      2.81
      2.68     -0.11      2.81
      2.68     -0.11      2.81
      2.44     -0.11      2.81
      2.44     -0.11      2.81
      2.20     -0.11      2.81
      2.44     -0.35      2.57
      2.44     -0.35      2.57
      2.20     -0.35      2.33
      2.20     -0.35      2.57
      2.20     -0.35      2.57
      1.96     -0.35      2.57
      1.96     -0.59      2.57
      1.72     -0.59      2.33
      1.72     -0.59      2.33
      1.48     -0.35      2.33
      1.24     -0.59      2.09
      1.00     -0.59      2.09
      1.00     -0.35      1.85
      0.76     -0.35      1.61
      0.52     -0.35      1.37
      0.28     -0.35      1.37
      0.04     -0.35      1.13
      0.04     -0.35      0.89
     -0.44     -0.11      0.65
     -0.44     -0.11      0.41
     -0.68     -0.11      0.17
     -0.92     -0.11     -0.07
     -1.16     -0.11     -0.07
     -1.16      0.13     -0.30
     -1.63      0.13     -0.30
     -1.87      0.13     -0.54
     -2.11      0.13     -0.78
     -2.35     -0.11     -0.78
     -2.59     -0.11     -0.78
     -2.83     -0.11     -1.02
     -2.83     -0.11     -1.02
     -3.07     -0.11     -1.26
     -3.31     -0.11     -1.26
     -3.31     -0.11     -1.50
     -3.55     -0.11     -1.74
     -3.55     -0.11     -1.98
     -3.31     -0.11     -1.98
     -3.31     -0.11     -2.46
     -3.31      0.13     -2.46
     -3.31      0.13     -2.70
     -3.31      0.13     -2.70
     -3.31      0.13     -2.94
