********************************************************************************
              CENTRO DE INSTRUMENTACION Y REGISTRO SISMICO  A.C.

    Anaxagoras 814, Col. Narvarte, Benito Juarez, C.P. 03020 Mexico, D.F.
           Tels. 5687 45 42/ 5687 45  82             Fax. 5669 25 12
********************************************************************************
ARCHIVO ESTANDAR DE ACELERACION:
VERSION DEL FORMATO                    : 2.0
NOMBRE DEL ARCHIVO                     : AO2420140510073601
FECHA Y HORA DE CREACION               : 23/MAY/14, 10:30
REF. CATALOGO ACELEROGRAMAS, SMIS 1996 : REGISTRO No.     /PAG.


================================================================================
DATOS DE LA ESTACION:
NOMBRE DE LA ESTACION                  : ALBERCA OLÍMPICA
CLAVE DE LA ESTACION                   : AO24
LOCALIZACION DE LA ESTACION            : Del. Benito Juárez, Col. General Pedro 
                                       : María Anaya, Río Churubusco            
                                       : y División del Norte.                  
                                       :                                        
                                       : 
COORDENADAS DE LA ESTACION             : 19.3580 LAT. N
                                       : 99.1539 LONG. W
ALTITUD (msnm)                         : 2235
TIPO DE SUELO                          : Transición                          
                                       :                           
                                       : 
INSTITUCION RESPONSABLE                : CIRES
                                       : 

================================================================================
DATOS DEL ACELEROGRAFO:
MODELO DEL ACELEROGRAFO                : RADESD
NUMERO DE SERIE DEL ACELEROGRAFO       : 257
NUMERO DE CANALES                      : 3
ORIENTACION C1-C6 (rumbo;orientacion)  : /N00E/+V/N90W
ORIENTACION C7-C12 (rumbo;orientacion) : 
VEL. DE MUESTREO, C1-C6 (muestras/s)   : /100/100/100
VEL. DE MUESTREO, C7-C12 (muestras/s)  : 
ESC. COMPLETA DE SENSORES, C1-C6, (g)  : /0.5/0.5/0.5
ESC. COMPLETA DE SENSORES, C7-C12, (g) : 
FREC. NAT. DE SENSORES, C1-C6, (Hz)    : /30/30/30
FREC. NAT. DE SENSORES, C7-C12, (Hz)   : 
AMORTIGUAMIENTO DE SENSORES, C1-C6     : /0.700/0.700/0.700
AMORTIGUAMIENTO DE SENSORES, C7-C12    : 
INTERVALO DE MUESTREO, C1-C6, (s)      : /0.01/0.01/0.01
INTERVALO DE MUESTREO, C7-C12, (s)     : 
UMBRAL DE DISPARO, C1-C6, (Gal)        : /1.65/3.14/1.95
UMBRAL DE DISPARO, C7-C12, (Gal)       : 
MEMORIA DE PREEVENTO (s)               : 44.0
TIEMPO DE POSEVENTO (s)                : 64.0


================================================================================
DATOS DEL SISMO:
FECHA DEL SISMO (GMT)                  : 10/MAY/14
HORA EPICENTRO (GMT)                   : 07:36:01.0
MAGNITUD(ES)                           : /Mc=6.1
COORDENADAS DEL EPICENTRO              : 17.06 LAT. N
                                       : 100.95 LONG. W
PROFUNDIDAD FOCAL (km)                 : 12
FUENTE DE LOS DATOS EPICENTRALES       : SSN
                                       : INSTITUTO DE GEOFISICA, UNAM

================================================================================
DATOS DE ESTE REGISTRO:
HORA DE LA PRIMERA MUESTRA (GMT)       : 07:36:54.00
EXACTITUD DEL TIEMPO (s)               : 0.01
DURACION DEL REGISTRO (s), C1-C6       : /185.6/185.6/185.6
DURACION DEL REGISTRO (s), C7-C12      : 
NUM. TOTAL DE MUESTRAS, C1-C6          : /18560/18560/18560
NUM. TOTAL DE MUESTRAS, C7-C12         : 
ACEL. MAX. (Gal), C1-C6                : /8.04589/1.91386/7.32525
ACEL. MAX., C1-C6, EN LA MUESTRA       : /9005/3687/8034
ACEL. MAX. (Gal), C7-C12               : 
ACEL. MAX., C7-C12, EN LA MUESTRA      : 
UNIDADES DE LOS DATOS                  : Gal (cm/s/s)
FACTOR DE DECIMACION                   : 1
FORMATO DATOS (FORTRAN,10 campos/dato) : 3F10.5


================================================================================
CALIDAD DEL ACELEROGRAMA:
REGISTRO DIGITAL COMPLETO CON TIEMPO ABSOLUTO CORRECTO.


================================================================================
COMENTARIOS:














================================================================================
DATOS DE ACELERACION:
---------+---------+---------+---------+---------+---------+---------+---------+
   CANAL-1   CANAL-2   CANAL-3   CANAL-4   CANAL-5   CANAL-6   CANAL-7   CANAL-8
      N00E        +V      N90W
---------+---------+---------+---------+---------+---------+---------+---------+
[...]
  -2.81780   0.71976  -3.50852
  -2.80283   0.76465  -3.43370
  -2.72801   0.74969  -3.28406
  -2.60830   0.70480  -3.11946
  -2.50356   0.67487  -2.90997
  -2.35392   0.60005  -2.70047
  -2.18932   0.51027  -2.46105
  -2.02472   0.42048  -2.20667
  -1.86012   0.34567  -1.90739
  -1.69551   0.24092  -1.59315
  -1.54588   0.15114  -1.32381
  -1.36631   0.09128  -1.05446
  -1.17178  -0.01346  -0.80008
  -0.97725  -0.07332  -0.56065
  -0.79769  -0.17807  -0.36613
  -0.61812  -0.22296  -0.17160
  -0.42359  -0.25289   0.00797
  -0.18417  -0.31274   0.14264
  -0.00461  -0.29778   0.30724
   0.18992  -0.28281   0.45688
   0.36948  -0.26785   0.59155
   0.51912  -0.23792   0.71126
   0.65380  -0.20799   0.81601
   0.78847  -0.19303   0.93572
   0.87825  -0.19303   1.08536
   0.93811  -0.14814   1.26492
   0.99796  -0.08828   1.45945
   1.05782  -0.04339   1.65398
   1.14760  -0.04339   1.84851
   1.23738  -0.05836   2.02808
   1.35709  -0.05836   2.23757
   1.44688  -0.07332   2.43210
   1.58155  -0.10325   2.61166
   1.73119  -0.14814   2.76130
   1.89579  -0.17807   2.88101
   2.06039  -0.19303   3.04561
   2.18010  -0.20799   3.13539
   2.31477  -0.20799   3.22518
   2.43448  -0.22296   3.27007
   2.58412  -0.20799   3.32992
   2.68887  -0.19303   3.37481
   2.79361  -0.16310   3.41971
   2.89836  -0.13318   3.44963
   2.97318  -0.10325   3.43467
   3.00311  -0.05836   3.41971
   3.03303  -0.01346   3.40474
   3.10785   0.03143   3.37481
   3.16771   0.06135   3.31496
   3.16771   0.07632   3.25510
   3.21260   0.06135   3.21021
   3.24253   0.07632   3.12043
   3.24253   0.09128   3.06058
   3.24253   0.10625   2.97079
   3.19764   0.15114   2.89597
   3.16771   0.15114   2.80619
   3.10785   0.18106   2.71641
   3.00311   0.21099   2.61166
   2.85347   0.30077   2.50692
   2.70383   0.34567   2.32735
   2.50930   0.40552   2.16275
   2.32974   0.46538   1.95326
   2.09032   0.49530   1.71384
   1.85090   0.45041   1.48938
   1.62644   0.46538   1.19011
   1.37206   0.45041   0.86090
   1.13264   0.45041   0.59155
   0.86329   0.40552   0.26235
   0.57898   0.37559  -0.03692
   0.27970   0.33070  -0.33620
  -0.06446   0.31574  -0.62051
  -0.37870   0.31574  -0.85993
  -0.69294   0.31574  -1.15921
  -0.97725   0.27085  -1.41359
  -1.32142   0.25588  -1.63805
  -1.59077   0.25588  -1.83257
  -1.89004   0.24092  -1.98221
  -2.15939   0.19603  -2.16178
  -2.45867   0.16610  -2.31141
  -2.69809   0.10625  -2.46105
  -2.93751   0.07632  -2.59573
  -3.13204  -0.04339  -2.71544
  -3.34153  -0.14814  -2.83515
  -3.53606  -0.22296  -2.96982
  -3.73059  -0.32770  -3.05960
  -3.88022  -0.43245  -3.13442
  -4.05979  -0.52223  -3.25413
  -4.20943  -0.59705  -3.29902
  -4.37403  -0.67187  -3.35888
  -4.47877  -0.73173  -3.35888
  -4.59848  -0.79158  -3.35888
  -4.68827  -0.85144  -3.35888
  -4.74812  -0.85144  -3.32895
  -4.82294  -0.88136  -3.28406
  -4.85287  -0.85144  -3.22420
  -4.85287  -0.80654  -3.19428
  -4.82294  -0.73173  -3.10449
  -4.80798  -0.67187  -2.98478
  -4.71819  -0.58209  -2.89500
  -4.64337  -0.49231  -2.80522
  -4.55359  -0.41749  -2.67055
  -4.43388  -0.37260  -2.56580
  -4.31417  -0.29778  -2.46105
  -4.14957  -0.20799  -2.34134
  -3.95504  -0.17807  -2.17674
  -3.73059  -0.11821  -2.04207
  -3.46124  -0.08828  -1.86250
  -3.19189  -0.07332  -1.69790
  -2.86269  -0.08828  -1.51834
  -2.56341  -0.07332  -1.35373
  -2.23421  -0.10325  -1.15921
  -1.91997  -0.07332  -0.99460
  -1.57580  -0.05836  -0.81504
  -1.29149  -0.04339  -0.60555
  -0.96229  -0.02843  -0.39605
  -0.66301   0.01646  -0.18656
  -0.40863   0.09128   0.03790
  -0.13928   0.12121   0.27732
   0.11510   0.16610   0.47184
   0.39941   0.16610   0.71126
   0.71365   0.21099   0.93572
   1.01293   0.24092   1.17514
   1.31220   0.27085   1.39960
   1.65637   0.27085   1.65398
   2.00053   0.25588   1.87844
   2.37463   0.24092   2.05800
   2.76369   0.21099   2.22260
   3.10785   0.18106   2.35728
   3.46698   0.13617   2.46202
   3.84108   0.10625   2.58173
   4.17028   0.04639   2.64159
   4.46956  -0.04339   2.68648
   4.72394  -0.04339   2.73137
   4.96336  -0.08828   2.74634
   5.15789  -0.08828   2.76130
   5.35242  -0.08828   2.71641
   5.51702  -0.02843   2.68648
   5.71155   0.01646   2.67152
   5.86118   0.07632   2.55181
   5.98089   0.13617   2.44706
   6.10060   0.19603   2.34231
   6.20535   0.25588   2.22260
   6.32506   0.30077   2.10289
   6.44477   0.33070   1.98318
   6.54952   0.34567   1.83355
   6.62434   0.37559   1.66895
   6.63930   0.40552   1.56420
   6.60937   0.42048   1.45945
   6.51959   0.43545   1.33974
   6.38492   0.46538   1.26492
   6.19039   0.51027   1.22003
   5.98089   0.54019   1.19011
   5.74147   0.54019   1.13025
   5.47213   0.62998   1.02550
   5.18782   0.62998   0.95068
   4.90350   0.64494   0.86090
   4.57430   0.65990   0.74119
   4.23013   0.67487   0.57659
   3.85604   0.67487   0.41199
   3.49691   0.64494   0.18753
   3.15274   0.64494   0.02293
   2.77865   0.60005  -0.20152
   2.40456   0.55516  -0.44094
   2.01550   0.52523  -0.66540
   1.65637   0.46538  -0.88986
   1.23738   0.42048  -1.09935
   0.86329   0.36063  -1.24899
   0.48919   0.33070  -1.39863
   0.08517   0.30077  -1.50337
  -0.31885   0.27085  -1.60812
  -0.69294   0.25588  -1.68294
  -1.06704   0.22596  -1.72783
  -1.51595   0.15114  -1.78768
  -1.89004   0.10625  -1.81761
  -2.27910   0.04639  -1.84754
  -2.68312   0.01646  -1.87747
  -3.04225  -0.05836  -1.87747
  -3.38642  -0.08828  -1.90739
  -3.67073  -0.13318  -1.92236
  -4.01490  -0.17807  -1.93732
  -4.32914  -0.20799  -1.90739
  -4.58352  -0.19303  -1.90739
  -4.79301  -0.19303  -1.89243
  -5.00251  -0.19303  -1.84754
  -5.21200  -0.16310  -1.83257
  -5.39156  -0.14814  -1.78768
  -5.54120  -0.11821  -1.69790
  -5.69084  -0.10325  -1.63805
  -5.79558  -0.08828  -1.53330
  -5.93026  -0.02843  -1.38366
  -6.02004   0.00150  -1.20410
  -6.13975   0.00150  -1.00957
  -6.19961   0.04639  -0.80008
  -6.28939   0.03143  -0.59058
  -6.36421   0.03143  -0.35116
  -6.39413   0.04639  -0.09678
  -6.42406   0.04639   0.11271
  -6.40910   0.01646   0.35213
  -6.37917  -0.01346   0.51674
  -6.28939  -0.01346   0.68134
  -6.16968  -0.04339   0.87587
  -6.03500  -0.04339   1.02550
  -5.87040  -0.01346   1.16018
  -5.66091  -0.01346   1.24996
  -5.42149  -0.01346   1.38463
  -5.16711   0.00150   1.48938
  -4.86783   0.03143   1.59413
  -4.59848   0.06135   1.71384
  -4.29921   0.09128   1.77369
  -3.94008   0.10625   1.90837
  -3.61088   0.13617   1.96822
  -3.31160   0.16610   2.08793
  -2.95247   0.22596   2.17771
  -2.63823   0.28581   2.25253
  -2.27910   0.31574   2.29742
  -1.93493   0.36063   2.32735
  -1.57580   0.36063   2.35728
  -1.21667   0.39056   2.35728
  -0.85754   0.42048   2.28246
  -0.49841   0.39056   2.22260
  -0.10936   0.37559   2.14779
   0.27970   0.34567   2.01311
   0.63883   0.24092   1.96822
   1.04285   0.19603   1.86347
   1.38702   0.04639   1.75873
   1.76111  -0.07332   1.65398
   2.15017  -0.22296   1.53427
   2.53923  -0.34267   1.42953
   2.91332  -0.44741   1.32478
   3.30238  -0.52223   1.20507
   3.69144  -0.58209   1.07040
   4.05057  -0.64194   0.95068
   4.43963  -0.65691   0.83097
   4.76883  -0.61202   0.66637
   5.11300  -0.58209   0.51674
   5.39731  -0.53720   0.35213
   5.69658  -0.41749   0.17257
   5.93600  -0.31274  -0.00700
   6.13053  -0.22296  -0.20152
   6.34003  -0.08828  -0.35116
   6.50463  -0.01346  -0.53073
   6.63930   0.04639  -0.65044
   6.75901   0.13617  -0.75518
   6.83383   0.18106  -0.84497
   6.92361   0.19603  -0.90482
   6.95354   0.21099  -0.96468
   7.01339   0.22596  -1.00957
   7.02836   0.18106  -1.00957
   7.02836   0.13617  -1.00957
   7.02836   0.13617  -1.02453
   7.02836   0.07632  -1.06942
   7.02836   0.07632  -1.11431
   7.01339   0.09128  -1.18913
   6.98347   0.07632  -1.24899
   6.87872   0.09128  -1.36870
   6.75901   0.13617  -1.47344
   6.59441   0.19603  -1.62308
   6.36995   0.25588  -1.80265
   6.10060   0.34567  -1.98221
   5.81629   0.40552  -2.14681
   5.45716   0.49530  -2.32638
   5.06811   0.51027  -2.46105
   4.64912   0.52523  -2.58076
   4.20021   0.54019  -2.68551
   3.73633   0.52523  -2.76033
   3.21260   0.46538  -2.79026
   2.71880   0.42048  -2.79026
   2.18010   0.30077  -2.77529
   1.65637   0.19603  -2.74536
   1.14760   0.09128  -2.62565
   0.63883  -0.01346  -2.49098
   0.14503  -0.13318  -2.29645
  -0.30388  -0.23792  -2.10192
  -0.73783  -0.35763  -1.89243
  -1.18675  -0.40252  -1.68294
  -1.57580  -0.46238  -1.42855
  -1.99479  -0.47734  -1.20410
  -2.35392  -0.47734  -0.99460
  -2.71305  -0.46238  -0.80008
  -3.07218  -0.47734  -0.59058
  -3.38642  -0.43245  -0.44094
  -3.73059  -0.40252  -0.23145
  -4.05979  -0.37260  -0.11174
  -4.38899  -0.35763  -0.00700
  -4.73316  -0.34267   0.09775
  -5.03243  -0.31274   0.23242
  -5.31674  -0.26785   0.33717
  -5.58609  -0.23792   0.44192
  -5.84048  -0.22296   0.60652
  -6.04997  -0.14814   0.72623
  -6.22953  -0.10325   0.84594
  -6.40910  -0.07332   0.98061
  -6.55874   0.00150   1.10032
  -6.67845   0.06135   1.23500
  -6.73830   0.09128   1.33974
  -6.75327   0.12121   1.42953
  -6.78319   0.15114   1.54924
  -6.76823   0.16610   1.65398
  -6.72334   0.19603   1.74376
  -6.66348   0.18106   1.78866
  -6.58866   0.21099   1.80362
  -6.51385   0.21099   1.83355
  -6.39413   0.22596   1.86347
  -6.31932   0.28581   1.87844
  -6.19961   0.36063   1.86347
  -6.06493   0.40552   1.87844
  -5.88537   0.42048   1.86347
  -5.73573   0.42048   1.84851
  -5.55616   0.40552   1.81858
  -5.34667   0.42048   1.81858
  -5.09229   0.40552   1.75873
  -4.77805   0.39056   1.69887
  -4.43388   0.31574   1.66895
  -4.10468   0.25588   1.60909
  -3.74555   0.19603   1.54924
  -3.40138   0.13617   1.48938
  -3.02729   0.09128   1.39960
  -2.60830   0.01646   1.32478
  -2.23421  -0.02843   1.22003
  -1.87508  -0.05836   1.11529
  -1.54588  -0.02843   1.02550
  -1.20171  -0.01346   0.87587
  -0.82762   0.04639   0.74119
  -0.43856   0.07632   0.54666
  -0.03454   0.09128   0.38206
   0.36948   0.09128   0.24739
   0.78847   0.10625   0.08279
   1.22242   0.13617  -0.05189
   1.71622   0.22596  -0.20152
   2.23995   0.28581  -0.32123
   2.80858   0.34567  -0.45591
   3.28742   0.33070  -0.56065
   3.79619   0.34567  -0.57562
   4.26006   0.36063  -0.62051
   4.75387   0.36063  -0.66540
   5.17285   0.37559  -0.71029
   5.59184   0.37559  -0.75518
   5.98089   0.36063  -0.78511
   6.34003   0.34567  -0.83000
   6.68419   0.34567  -0.91979
   6.99843   0.31574  -0.97964
   7.22289   0.30077  -1.08439
   7.50720   0.30077  -1.17417
   7.68676   0.33070  -1.24899
   7.83640   0.34567  -1.33877
   7.95611   0.40552  -1.39863
   8.01597   0.43545  -1.50337
   8.04589   0.45041  -1.57819
   8.00100   0.40552  -1.57819
   7.94115   0.39056  -1.56323
   7.85136   0.37559  -1.53330
   7.71669   0.34567  -1.50337
   7.52216   0.31574  -1.45848
   7.29771   0.31574  -1.41359
   7.05829   0.30077  -1.38366
   6.81887   0.27085  -1.38366
   6.53455   0.25588  -1.38366
   6.23528   0.22596  -1.36870
   5.90608   0.21099  -1.35373
   5.59184   0.21099  -1.27892
   5.26263   0.21099  -1.26395
   4.90350   0.21099  -1.24899
   4.54437   0.25588  -1.20410
   4.17028   0.25588  -1.17417
   3.75129   0.22596  -1.08439
   3.34727   0.27085  -0.96468
   2.89836   0.27085  -0.80008
   2.46441   0.24092  -0.65044
   2.00053   0.25588  -0.48584
   1.52169   0.28581  -0.35116
   1.01293   0.28581  -0.20152
   0.50416   0.24092  -0.08181
  -0.00461   0.18106   0.05286
  -0.48345   0.15114   0.18753
  -0.99222   0.12121   0.36710
  -1.45609   0.12121   0.51674
  -1.97983   0.03143   0.63645
  -2.47363  -0.02843   0.77112
  -2.95247  -0.13318   0.90579
  -3.40138  -0.23792   1.02550
  -3.85030  -0.34267   1.13025
  -4.28424  -0.40252   1.26492
  -4.68827  -0.52223   1.36967
  -5.06236  -0.67187   1.47442
  -5.39156  -0.89633   1.60909
  -5.75069  -1.03100   1.74376
  -6.04997  -1.09086   1.87844
  -6.30435  -1.15071   1.95326
  -6.43903  -1.18064   2.01311
  -6.61859  -1.22553   2.05800
  -6.75327  -1.24049   2.14779
  -6.96276  -1.21057   2.22260
  -7.08247  -1.09086   2.29742
  -7.20218  -0.91129   2.31239
  -7.30692  -0.76165   2.34231
  -7.33685  -0.61202   2.29742
  -7.36678  -0.47734   2.26750
  -7.42663  -0.34267   2.25253
  -7.47153  -0.17807   2.16275
  -7.44160  -0.02843   2.07297
  -7.35182   0.09128   1.96822
  -7.27700   0.10625   1.81858
  -7.17225   0.12121   1.68391
  -7.06750   0.19603   1.54924
  -6.93283   0.27085   1.42953
  -6.75327   0.42048   1.19011
  -6.49888   0.52523   0.96565
  -6.24450   0.51027   0.71126
  -5.96019   0.48034   0.53170
  -5.70580   0.52523   0.36710
  -5.42149   0.58509   0.21746
  -5.13718   0.68983   0.00797
  -4.77805   0.80954  -0.21649
  -4.40395   0.86940  -0.47087
  -4.11964   0.88436  -0.68036
  -3.77548   0.89932  -0.84497
  -3.38642   0.88436  -1.00957
  -2.96743   0.79458  -1.15921
  -2.56341   0.71976  -1.29388
  -2.11450   0.64494  -1.42855
  -1.68055   0.55516  -1.57819
  -1.23164   0.46538  -1.72783
  -0.72287   0.40552  -1.84754
  -0.28892   0.33070  -2.02710
   0.15999   0.22596  -2.17674
   0.65380   0.04639  -2.29645
   1.14760  -0.07332  -2.41616
   1.59651  -0.20799  -2.49098
   2.01550  -0.25289  -2.56580
   2.44945  -0.22296  -2.70047
   2.86843  -0.20799  -2.83515
   3.25749  -0.17807  -2.98478
   3.61662  -0.17807  -3.10449
   3.97575  -0.14814  -3.22420
   4.33488  -0.16310  -3.26910
   4.63416  -0.17807  -3.29902
   4.91847  -0.14814  -3.26910
   5.18782  -0.13318  -3.25413
   5.42724  -0.07332  -3.22420
   5.66666  -0.02843  -3.23917
   5.86118  -0.01346  -3.23917
   6.02579  -0.02843  -3.19428
   6.14550  -0.01346  -3.02968
   6.22032  -0.02843  -2.85011
   6.23528  -0.02843  -2.67055
   6.26521   0.01646  -2.49098
   6.28017   0.06135  -2.34134
   6.26521   0.01646  -2.14681
   6.23528  -0.01346  -1.96725
   6.17542  -0.05836  -1.72783
   6.08564  -0.05836  -1.51834
   5.92104  -0.05836  -1.27892
   5.72651  -0.05836  -1.05446
   5.54695  -0.08828  -0.80008
   5.33745  -0.14814  -0.59058
   5.11300  -0.20799  -0.35116
   4.87358  -0.26785  -0.15663
   4.58927  -0.28281   0.05286
   4.24510  -0.28281   0.23242
   3.93086  -0.31274   0.47184
   3.58669  -0.32770   0.72623
   3.27245  -0.38756   0.96565
   2.91332  -0.43245   1.19011
   2.55419  -0.43245   1.38463
   2.21003  -0.41749   1.53427
   1.86586  -0.34267   1.66895
   1.50673  -0.29778   1.80362
   1.19249  -0.23792   1.98318
   0.81840  -0.17807   2.11786
   0.44430  -0.17807   2.28246
   0.08517  -0.14814   2.43210
  -0.28892  -0.11821   2.58173
  -0.64805  -0.04339   2.67152
  -0.99222   0.01646   2.76130
  -1.32142   0.04639   2.85108
  -1.65062   0.06135   2.95583
  -1.89004   0.07632   3.07554
  -2.15939   0.06135   3.19525
  -2.41377   0.07632   3.30000
  -2.53348   0.10625   3.34489
  -2.68312   0.15114   3.37481
  -2.80283   0.18106   3.38978
  -2.93751   0.18106   3.41971
  -3.01233   0.22596   3.41971
  -3.08714   0.21099   3.37481
  -3.17693   0.21099   3.30000
  -3.19189   0.21099   3.21021
  -3.22182   0.19603   3.10547
  -3.23678   0.19603   3.03065
  -3.22182   0.22596   2.95583
  -3.25175   0.24092   2.83612
  -3.26671   0.27085   2.74634
  -3.28167   0.30077   2.64159
  -3.29664   0.33070   2.53684
  -3.31160   0.31574   2.44706
  -3.26671   0.33070   2.37224
  -3.22182   0.36063   2.29742
