********************************************************************************
              CENTRO DE INSTRUMENTACION Y REGISTRO SISMICO  A.C.

    Anaxagoras 814, Col. Narvarte, Benito Juarez, C.P. 03020 Mexico, D.F.
           Tels. 5687 45 42/ 5687 45  82             Fax. 5669 25 12
********************************************************************************
ARCHIVO ESTANDAR DE ACELERACION:
VERSION DEL FORMATO                    : 2.0
NOMBRE DEL ARCHIVO                     : AO2420090427164627
FECHA Y HORA DE CREACION               : 25/JUN/09, 01:10
REF. CATALOGO ACELEROGRAMAS, SMIS 1996 : REGISTRO No.     /PAG.


================================================================================
DATOS DE LA ESTACION:
NOMBRE DE LA ESTACION                  : ALBERCA OLÍMPICA
CLAVE DE LA ESTACION                   : AO24
LOCALIZACION DE LA ESTACION            : Del. Benito Juárez, Col. General Pedro 
                                       : María Anaya, Río Churubusco            
                                       : y División del Norte.                  
                                       :                                        
                                       : 
COORDENADAS DE LA ESTACION             : 19.3580 LAT. N
                                       : 99.1539 LONG. W
ALTITUD (msnm)                         : 2235
TIPO DE SUELO                          : Transición                          
                                       :                           
                                       : 
INSTITUCION RESPONSABLE                : CIRES
                                       : 

================================================================================
DATOS DEL ACELEROGRAFO:
MODELO DEL ACELEROGRAFO                : RADESD
NUMERO DE SERIE DEL ACELEROGRAFO       : 257
NUMERO DE CANALES                      : 3
ORIENTACION C1-C6 (rumbo;orientacion)  : /N00E/+V/N90W
ORIENTACION C7-C12 (rumbo;orientacion) : 
VEL. DE MUESTREO, C1-C6 (muestras/s)   : /100/100/100
VEL. DE MUESTREO, C7-C12 (muestras/s)  : 
ESC. COMPLETA DE SENSORES, C1-C6, (g)  : /0.5/0.5/0.5
ESC. COMPLETA DE SENSORES, C7-C12, (g) : 
FREC. NAT. DE SENSORES, C1-C6, (Hz)    : /30/30/30
FREC. NAT. DE SENSORES, C7-C12, (Hz)   : 
AMORTIGUAMIENTO DE SENSORES, C1-C6     : /0.700/0.700/0.700
AMORTIGUAMIENTO DE SENSORES, C7-C12    : 
INTERVALO DE MUESTREO, C1-C6, (s)      : /0.01/0.01/0.01
INTERVALO DE MUESTREO, C7-C12, (s)     : 
UMBRAL DE DISPARO, C1-C6, (Gal)        : /2.15/2.87/2.15
UMBRAL DE DISPARO, C7-C12, (Gal)       : 
MEMORIA DE PREEVENTO (s)               : 56.0
TIEMPO DE POSEVENTO (s)                : 64.0


================================================================================
DATOS DEL SISMO:
FECHA DEL SISMO (GMT)                  : 27/ABR/09
HORA EPICENTRO (GMT)                   : 16:46:27.0
MAGNITUD(ES)                           : /Mc=5.7
COORDENADAS DEL EPICENTRO              : 16.90 LAT. N
                                       : 99.58 LONG. W
PROFUNDIDAD FOCAL (km)                 : 7
FUENTE DE LOS DATOS EPICENTRALES       : SSN
                                       : INSTITUTO DE GEOFISICA, UNAM

================================================================================
DATOS DE ESTE REGISTRO:
HORA DE LA PRIMERA MUESTRA (GMT)       : 16:47:48.00
EXACTITUD DEL TIEMPO (s)               : 0.01
DURACION DEL REGISTRO (s), C1-C6       : /130.25/130.25/130.25
DURACION DEL REGISTRO (s), C7-C12      : 
NUM. TOTAL DE MUESTRAS, C1-C6          : /13025/13025/13025
NUM. TOTAL DE MUESTRAS, C7-C12         : 
ACEL. MAX. (Gal), C1-C6                : /5.09475/1.57764/4.12797
ACEL. MAX., C1-C6, EN LA MUESTRA       : /5960/5563/6438
ACEL. MAX. (Gal), C7-C12               : 
ACEL. MAX., C7-C12, EN LA MUESTRA      : 
UNIDADES DE LOS DATOS                  : Gal (cm/s/s)
FACTOR DE DECIMACION                   : 1
FORMATO DATOS (FORTRAN,10 campos/dato) : 3F10.5


================================================================================
CALIDAD DEL ACELEROGRAMA:
REGISTRO DIGITAL COMPLETO CON TIEMPO ABSOLUTO CORRECTO.


================================================================================
COMENTARIOS:














================================================================================
DATOS DE ACELERACION:
---------+---------+---------+---------+---------+---------+---------+---------+
   CANAL-1   CANAL-2   CANAL-3   CANAL-4   CANAL-5   CANAL-6   CANAL-7   CANAL-8
      N00E        +V      N90W
---------+---------+---------+---------+---------+---------+---------+---------+
[...]
   1.13017   0.14112   0.66043
   0.89075   0.14112   0.42101
   0.65133   0.14112   0.42101
   0.41191   0.14112   0.66043
  -0.06693   0.14112   0.66043
  -0.30635   0.38054   0.89985
  -0.54577   0.38054   0.89985
  -0.78519   0.38054   0.89985
  -1.26403   0.38054   1.13927
  -1.50345   0.38054   1.13927
  -1.50345   0.38054   1.37869
  -1.50345   0.14112   1.37869
  -1.50345   0.14112   1.37869
  -1.26403   0.14112   1.61811
  -1.26403  -0.09830   1.61811
  -1.26403  -0.09830   1.61811
  -1.26403  -0.09830   1.85753
  -1.26403  -0.33772   1.85753
  -1.50345  -0.09830   1.85753
  -1.50345  -0.09830   1.61811
  -1.74287   0.14112   1.61811
  -1.98229   0.14112   1.61811
  -2.22171   0.38054   1.61811
  -2.70055   0.38054   1.61811
  -3.17939   0.38054   1.61811
  -3.41881   0.61996   1.61811
  -3.65823   0.61996   1.85753
  -4.13707   0.38054   1.85753
  -4.37649   0.38054   1.85753
  -4.61591   0.38054   2.09695
  -4.61591   0.14112   2.09695
  -4.61591   0.14112   2.33637
  -4.61591   0.14112   2.09695
  -4.61591  -0.09830   2.09695
  -4.37649   0.14112   1.85753
  -4.13707  -0.09830   1.61811
  -3.89765   0.14112   1.37869
  -3.89765   0.14112   1.13927
  -3.65823   0.38054   0.89985
  -3.41881   0.14112   0.66043
  -3.41881   0.14112   0.66043
  -3.41881   0.14112   0.42101
  -3.41881   0.14112   0.42101
  -3.41881   0.38054   0.18159
  -3.41881   0.14112  -0.05783
  -3.41881   0.14112  -0.05783
  -3.41881   0.14112  -0.05783
  -3.17939   0.14112  -0.29725
  -3.17939  -0.09830  -0.29725
  -3.17939  -0.33772  -0.53667
  -3.17939  -0.33772  -0.53667
  -2.93997  -0.57715  -0.77609
  -2.93997  -0.57715  -1.01551
  -2.93997  -0.57715  -1.25493
  -2.70055  -0.57715  -1.25493
  -2.46113  -0.81657  -1.49435
  -2.22171  -0.81657  -1.73377
  -1.74287  -0.57715  -1.73377
  -1.26403  -0.57715  -1.97319
  -0.78519  -0.33772  -1.97319
  -0.30635  -0.33772  -2.21261
  -0.06693  -0.33772  -2.45203
   0.41191  -0.33772  -2.45203
   0.89075  -0.09830  -2.45203
   0.89075  -0.33772  -2.69145
   1.13017  -0.33772  -2.93087
   1.13017  -0.33772  -2.93087
   1.13017  -0.33772  -3.17029
   1.13017  -0.33772  -3.40971
   0.89075  -0.33772  -3.40971
   0.89075  -0.33772  -3.64913
   0.89075  -0.33772  -3.40971
   0.89075  -0.33772  -3.40971
   0.89075  -0.09830  -3.17029
   0.89075  -0.09830  -2.93087
   1.13017  -0.09830  -2.69145
   1.36959  -0.09830  -2.45203
   1.60901  -0.09830  -2.21261
   1.84843  -0.09830  -1.97319
   2.08785  -0.09830  -1.97319
   2.56669  -0.33772  -1.73377
   2.80611  -0.33772  -1.73377
   3.04553  -0.33772  -1.73377
   3.28495  -0.33772  -1.73377
   3.28495  -0.33772  -1.73377
   3.52438  -0.33772  -1.73377
   3.52438  -0.09830  -1.73377
   3.52438  -0.09830  -1.73377
   3.28495  -0.09830  -1.73377
   3.28495  -0.09830  -1.49435
   3.04553  -0.09830  -1.49435
   2.80611   0.14112  -1.25493
   2.80611  -0.09830  -1.25493
   2.56669  -0.09830  -1.25493
   2.32727  -0.09830  -1.01551
   2.08785  -0.09830  -0.77609
   2.08785  -0.33772  -0.77609
   1.84843  -0.33772  -0.53667
   1.60901  -0.33772  -0.29725
   1.60901  -0.57715  -0.05783
   1.60901  -0.57715   0.18159
   1.36959  -0.57715   0.42101
   1.60901  -0.33772   0.66043
   1.60901  -0.57715   0.89985
   1.84843  -0.33772   1.13927
   1.60901  -0.33772   1.13927
   1.84843  -0.09830   1.37869
   1.84843   0.14112   1.61811
   1.84843   0.14112   1.61811
   1.84843   0.38054   1.61811
   1.60901   0.38054   1.61811
   1.36959   0.61996   1.61811
   1.13017   0.61996   1.37869
   0.65133   0.61996   1.61811
   0.17249   0.61996   1.61811
  -0.30635   0.61996   1.61811
  -0.54577   0.61996   1.61811
  -0.78519   0.61996   1.85753
  -1.02461   0.38054   1.85753
  -1.26403   0.38054   2.33637
  -1.50345   0.14112   2.33637
  -1.50345  -0.09830   2.57579
  -1.50345  -0.33772   2.57579
  -1.50345  -0.33772   2.57579
  -1.74287  -0.33772   2.57579
  -1.98229  -0.33772   2.33637
  -1.98229  -0.57715   2.09695
  -1.98229  -0.81657   1.85753
  -1.98229  -0.81657   1.61811
  -2.22171  -1.05599   1.37869
  -2.46113  -1.05599   1.13927
  -2.70055  -0.81657   1.13927
  -2.70055  -0.57715   1.13927
  -2.93997  -0.33772   0.89985
  -2.70055  -0.09830   0.89985
  -2.46113  -0.09830   0.89985
  -2.46113   0.14112   0.89985
  -2.46113   0.38054   1.13927
  -2.46113   0.61996   1.13927
  -2.46113   0.61996   1.13927
  -2.46113   0.85938   1.13927
  -2.22171   0.85938   1.13927
  -2.22171   1.09880   1.13927
  -2.46113   0.85938   1.13927
  -2.22171   0.61996   0.89985
  -2.46113   0.61996   0.89985
  -2.46113   0.38054   0.89985
  -2.46113   0.14112   0.89985
  -2.46113  -0.09830   0.89985
  -2.22171  -0.33772   0.66043
  -2.46113  -0.57715   0.66043
  -2.22171  -0.57715   0.66043
  -2.22171  -0.81657   0.66043
  -1.98229  -1.05599   0.66043
  -1.74287  -1.05599   0.66043
  -1.50345  -1.05599   0.89985
  -1.50345  -1.29541   0.89985
  -1.26403  -1.29541   0.89985
  -1.02461  -1.29541   1.13927
  -0.78519  -1.29541   0.89985
  -0.54577  -1.29541   0.89985
  -0.30635  -1.05599   0.66043
  -0.30635  -0.81657   0.66043
  -0.30635  -0.81657   0.42101
  -0.06693  -0.57715   0.42101
  -0.06693  -0.57715   0.42101
  -0.06693  -0.33772   0.18159
   0.17249  -0.33772  -0.05783
   0.41191  -0.09830  -0.05783
   0.65133   0.14112  -0.29725
   0.89075   0.14112  -0.29725
   0.89075   0.14112  -0.53667
   1.13017   0.38054  -0.53667
   1.36959   0.38054  -0.53667
   1.36959   0.38054  -0.53667
   1.36959   0.38054  -0.53667
   1.60901   0.61996  -0.53667
   1.84843   0.61996  -0.53667
   1.84843   0.61996  -0.53667
   1.84843   0.61996  -0.53667
   2.32727   0.85938  -0.53667
   2.08785   0.61996  -0.29725
   2.32727   0.61996  -0.29725
   2.32727   0.61996  -0.29725
   2.56669   0.38054  -0.05783
   2.80611   0.61996  -0.05783
   2.80611   0.38054  -0.05783
   2.56669   0.38054  -0.05783
   2.80611   0.14112  -0.05783
   2.56669   0.14112  -0.05783
   2.56669  -0.09830  -0.05783
   2.56669   0.14112  -0.29725
   2.56669  -0.09830  -0.29725
   2.56669   0.14112  -0.53667
   2.56669   0.14112  -0.53667
   2.56669   0.38054  -0.77609
   2.56669   0.38054  -1.01551
   2.56669   0.38054  -1.01551
   2.56669   0.38054  -1.01551
   2.80611   0.38054  -1.25493
   2.80611   0.14112  -1.25493
   3.04553   0.38054  -1.25493
   3.04553   0.38054  -1.25493
   3.04553   0.14112  -1.25493
   2.80611   0.14112  -1.01551
   2.56669   0.14112  -1.25493
   2.56669   0.14112  -1.25493
   2.08785  -0.09830  -1.25493
   1.84843   0.14112  -1.01551
   1.84843   0.14112  -1.25493
   1.60901   0.38054  -1.25493
   1.36959   0.38054  -1.25493
   1.13017   0.38054  -1.25493
   0.89075   0.61996  -1.25493
   0.65133   0.61996  -1.01551
   0.41191   0.61996  -1.25493
   0.17249   0.61996  -1.01551
   0.17249   0.61996  -1.01551
  -0.30635   0.61996  -1.01551
  -0.30635   0.61996  -1.01551
  -0.54577   0.38054  -1.01551
  -1.02461   0.38054  -0.77609
  -1.02461   0.14112  -0.77609
  -1.26403   0.14112  -0.53667
  -1.50345   0.14112  -0.29725
  -1.98229  -0.09830  -0.05783
  -2.22171  -0.09830   0.18159
  -2.46113  -0.09830   0.18159
  -2.70055  -0.33772   0.18159
  -2.93997  -0.33772   0.18159
  -2.93997  -0.09830   0.18159
  -3.17939  -0.33772   0.18159
  -3.17939  -0.33772  -0.05783
  -3.17939  -0.33772  -0.05783
  -3.17939  -0.09830  -0.29725
  -3.41881  -0.09830  -0.29725
  -3.41881   0.14112  -0.29725
  -3.41881   0.14112  -0.29725
  -3.65823   0.38054  -0.05783
  -3.65823   0.38054   0.18159
  -3.65823   0.61996   0.42101
  -3.65823   0.61996   0.66043
  -3.65823   0.85938   0.89985
  -3.65823   0.85938   1.13927
  -3.65823   0.85938   1.37869
  -3.65823   0.61996   1.61811
  -3.65823   0.61996   1.85753
  -3.65823   0.61996   2.09695
  -3.41881   0.61996   1.85753
  -3.17939   0.38054   1.85753
  -3.17939   0.14112   1.85753
  -2.93997   0.14112   1.85753
  -2.93997   0.14112   1.61811
  -2.70055   0.14112   1.37869
  -2.46113  -0.09830   1.13927
  -2.22171  -0.09830   1.13927
  -2.22171  -0.09830   1.13927
  -1.50345   0.14112   1.13927
  -1.26403  -0.09830   1.13927
  -1.02461  -0.09830   1.37869
  -0.54577   0.14112   1.37869
  -0.06693   0.14112   1.61811
   0.17249   0.14112   1.85753
   0.41191   0.14112   1.85753
   0.89075  -0.09830   1.85753
   1.13017  -0.09830   1.85753
   1.36959  -0.09830   1.85753
   1.84843  -0.33772   1.85753
   2.08785  -0.33772   1.85753
   2.32727  -0.33772   1.37869
   2.56669  -0.57715   1.37869
   2.56669  -0.57715   0.89985
   2.80611  -0.57715   0.89985
   3.04553  -0.57715   0.66043
   3.28495  -0.57715   0.18159
   3.52438  -0.57715  -0.05783
   3.76380  -0.57715  -0.53667
   3.76380  -0.57715  -0.77609
   4.00322  -0.57715  -1.01551
   4.24264  -0.57715  -1.25493
   4.24264  -0.57715  -1.49435
   4.24264  -0.57715  -1.49435
   4.24264  -0.57715  -1.73377
   4.24264  -0.57715  -1.97319
   4.24264  -0.57715  -1.97319
   4.48206  -0.33772  -1.97319
   4.48206  -0.33772  -2.21261
   4.48206  -0.09830  -1.97319
   4.24264  -0.09830  -2.21261
   4.24264  -0.09830  -1.97319
   4.00322   0.14112  -1.97319
   4.00322   0.14112  -1.97319
   4.00322   0.14112  -1.97319
   3.76380   0.14112  -1.97319
   3.76380  -0.09830  -1.97319
   3.76380  -0.09830  -1.97319
   3.52438  -0.09830  -1.97319
   3.28495  -0.33772  -1.97319
   3.28495  -0.33772  -1.97319
   3.04553  -0.33772  -2.21261
   2.80611  -0.09830  -2.21261
   2.56669  -0.33772  -2.21261
   2.32727  -0.09830  -2.21261
   1.84843  -0.09830  -2.21261
   1.84843  -0.09830  -2.21261
   1.36959  -0.09830  -1.97319
   1.13017  -0.09830  -1.97319
   1.13017  -0.33772  -1.97319
   0.89075  -0.33772  -1.73377
   0.65133  -0.57715  -1.73377
   0.41191  -0.57715  -1.49435
   0.17249  -0.57715  -1.49435
  -0.06693  -0.57715  -1.25493
  -0.06693  -0.33772  -1.01551
  -0.30635  -0.33772  -0.77609
  -0.78519  -0.33772  -0.77609
  -0.54577  -0.33772  -0.53667
  -0.78519  -0.09830  -0.53667
  -1.02461  -0.09830  -0.53667
  -1.26403  -0.09830  -0.29725
  -1.26403  -0.09830  -0.53667
  -1.50345  -0.09830  -0.53667
  -1.74287   0.14112  -0.53667
  -1.74287   0.14112  -0.29725
  -1.98229   0.14112  -0.29725
  -1.98229   0.14112  -0.29725
  -2.22171   0.38054  -0.29725
  -2.22171   0.38054  -0.29725
  -2.22171   0.38054  -0.05783
  -2.46113   0.61996  -0.05783
  -2.46113   0.61996  -0.05783
  -2.22171   0.85938   0.18159
  -2.46113   0.61996  -0.05783
  -2.46113   0.85938   0.18159
  -2.70055   0.61996   0.42101
  -2.70055   0.61996   0.42101
  -3.17939   0.61996   0.66043
  -3.17939   0.38054   0.89985
  -3.41881   0.38054   1.13927
  -3.65823   0.38054   1.37869
  -3.89765   0.14112   1.37869
  -4.13707  -0.09830   1.61811
  -4.37649  -0.09830   1.61811
  -4.37649  -0.33772   1.61811
  -4.85533  -0.33772   1.37869
  -4.85533  -0.57715   1.37869
  -5.09475  -0.33772   1.37869
  -4.85533  -0.33772   1.37869
  -4.85533  -0.33772   1.37869
  -4.61591  -0.33772   1.13927
  -4.37649  -0.57715   1.13927
  -4.13707  -0.33772   1.13927
  -3.65823  -0.33772   1.37869
  -3.41881  -0.33772   1.37869
  -2.93997  -0.33772   1.37869
  -2.46113  -0.57715   1.61811
  -2.22171  -0.57715   1.61811
  -1.98229  -0.57715   1.85753
  -1.74287  -0.57715   1.85753
  -1.50345  -0.57715   2.09695
  -1.50345  -0.57715   2.33637
  -1.26403  -0.57715   2.33637
  -1.26403  -0.33772   2.09695
  -1.02461  -0.33772   2.33637
  -1.02461  -0.33772   2.09695
  -0.78519  -0.33772   1.85753
  -0.78519  -0.09830   1.85753
  -0.54577  -0.33772   1.61811
  -0.06693  -0.33772   1.61811
  -0.06693  -0.33772   1.61811
   0.41191  -0.33772   1.37869
   0.41191  -0.33772   1.37869
   0.89075  -0.57715   1.61811
   1.13017  -0.57715   1.61811
   1.36959  -0.57715   1.85753
   1.60901  -0.57715   1.85753
   1.84843  -0.57715   2.09695
   2.08785  -0.57715   2.09695
   2.32727  -0.81657   2.09695
   2.56669  -0.57715   1.85753
   2.56669  -0.57715   1.85753
   2.80611  -0.57715   1.61811
   2.80611  -0.33772   1.37869
   3.04553  -0.33772   1.13927
   3.04553  -0.33772   0.89985
   3.04553  -0.09830   0.66043
   3.28495  -0.09830   0.18159
   3.28495   0.14112  -0.05783
   3.28495  -0.09830  -0.29725
   3.28495  -0.09830  -0.77609
   3.28495   0.14112  -1.01551
   3.52438   0.14112  -1.01551
   3.52438   0.14112  -1.49435
   3.28495   0.14112  -1.73377
   3.28495   0.14112  -1.73377
   3.04553   0.14112  -1.97319
   3.04553   0.14112  -1.73377
   2.80611   0.14112  -1.97319
   2.80611   0.38054  -1.97319
   2.32727   0.14112  -1.97319
   2.32727   0.14112  -1.97319
   2.08785   0.14112  -1.97319
   2.08785   0.38054  -1.97319
   1.84843   0.14112  -2.21261
   1.84843   0.38054  -2.21261
   1.60901   0.38054  -2.21261
   1.60901   0.61996  -2.45203
   1.36959   0.61996  -2.45203
   1.36959   0.61996  -2.69145
   1.36959   0.85938  -2.93087
   1.36959   0.85938  -2.93087
   1.13017   0.85938  -3.17029
   1.13017   0.85938  -3.17029
   1.13017   1.09880  -3.40971
   0.89075   1.09880  -3.17029
   0.89075   1.09880  -3.17029
   0.89075   1.09880  -3.40971
   0.89075   1.09880  -3.17029
   0.65133   0.85938  -2.93087
   0.65133   0.85938  -2.93087
   0.41191   0.85938  -2.69145
   0.41191   0.85938  -2.45203
   0.17249   0.85938  -2.45203
   0.17249   0.85938  -2.21261
   0.17249   0.85938  -1.97319
  -0.06693   0.85938  -1.73377
  -0.30635   0.85938  -1.73377
  -0.54577   0.85938  -1.49435
  -0.54577   0.85938  -1.49435
  -0.78519   0.85938  -1.25493
  -1.02461   1.09880  -1.25493
  -1.26403   1.09880  -1.25493
  -1.50345   1.09880  -1.25493
  -1.50345   1.09880  -1.25493
  -1.50345   0.85938  -1.01551
  -1.74287   1.09880  -0.77609
  -1.74287   0.85938  -0.53667
  -1.74287   0.85938  -0.29725
  -1.74287   0.61996  -0.05783
  -1.74287   0.38054  -0.05783
  -1.74287   0.14112   0.42101
  -1.74287   0.14112   0.89985
  -1.74287  -0.33772   1.37869
  -1.98229  -0.33772   1.61811
  -1.98229  -0.57715   2.09695
  -2.22171  -0.81657   2.57579
  -2.22171  -0.57715   2.81521
  -2.46113  -0.57715   3.05463
  -2.70055  -0.81657   3.29405
  -2.70055  -0.57715   3.53347
  -2.93997  -0.81657   3.53347
  -2.93997  -0.57715   3.77289
  -2.70055  -0.81657   3.77289
  -2.70055  -0.81657   3.77289
  -2.70055  -0.81657   3.77289
  -2.70055  -0.81657   3.77289
  -2.70055  -0.81657   3.53347
  -2.70055  -0.57715   3.29405
  -2.46113  -0.81657   3.29405
  -2.46113  -0.81657   3.29405
  -2.46113  -0.57715   3.29405
  -2.46113  -0.57715   3.29405
  -2.46113  -0.57715   3.05463
  -2.70055  -0.57715   3.05463
  -2.70055  -0.33772   3.29405
  -2.70055  -0.33772   3.29405
  -2.70055  -0.33772   3.29405
  -2.70055  -0.33772   3.05463
  -2.46113  -0.33772   3.29405
  -2.46113  -0.33772   3.29405
  -2.22171  -0.33772   3.05463
  -1.98229  -0.33772   3.29405
  -1.74287  -0.33772   3.05463
  -1.50345  -0.33772   3.05463
  -1.26403  -0.09830   2.81521
  -0.78519  -0.09830   2.57579
  -0.54577  -0.09830   2.57579
  -0.30635  -0.33772   2.33637
   0.17249  -0.09830   2.09695
   0.41191  -0.33772   1.85753
   0.41191  -0.09830   1.61811
   0.65133   0.14112   1.37869
   0.65133   0.14112   1.37869
   0.89075   0.14112   1.13927
   0.89075   0.14112   1.13927
   1.13017   0.38054   0.89985
   0.89075   0.38054   0.66043
   1.13017   0.61996   0.66043
   1.13017   0.61996   0.18159
   0.89075   0.61996  -0.05783
   0.89075   0.61996  -0.29725
   0.89075   0.61996  -0.53667
   1.13017   0.38054  -1.01551
   0.89075   0.38054  -1.25493
   1.13017   0.14112  -1.49435
   1.36959   0.14112  -1.73377
