********************************************************************************
               CENTRO DE INSTRUMENTACION Y REGISTRO SISMICO  A.C.  
                       Coordinacion de Servicios Tecnicos
     Anaxagoras 814, Col. Narvarte, Benito Juarez, C.P. 03020 Mexico, D.F.
            Tels. 687 45 42/ 687 45  82             Fax. 669 25 12
********************************************************************************
ARCHIVO ESTANDAR DE ACELERACION:
VERSION DEL FORMATO                    : 2.0
NOMBRE DEL ARCHIVO                     : AO249510.091
FECHA Y HORA DE CREACION               : MARZO 14, 1996/17:08
REF. CATALOGO ACELEROGRAMAS, SMIS 1995 : REGISTRO No.     /PAG.


================================================================================
DATOS DE LA ESTACION:
NOMBRE DE LA ESTACION                  : ALBERCA OLIMPICA
CLAVE DE LA ESTACION                   : AO24
LOCALIZACION DE LA ESTACION            : Alberca Olimpica Rio Churubusco y
                                       : Division del Norte, Col Pedro Ma
                                       : Anaya, Benito Juarez
                                       :
                                       :
COORDENADAS DE LA ESTACION             : 19.358 LAT. N 
                                       : 99.154 LONG. W 
ALTITUD (msnm)                         : 2235
TIPO DE SUELO                          : TRANSICION
                                       : 
                                       : 
INSTITUCION RESPONSABLE                : CIRES
                                       :

================================================================================
DATOS DEL ACELEROGRAFO:
MODELO DEL ACELEROGRAFO                : DCA-333
NUMERO DE SERIE DEL ACELEROGRAFO       : 257
NUMERO DE CANALES                      : 3
ORIENTACION C1-C6 (rumbo;orientacion)  : /N00E/+V/N90W
ORIENTACION C7-C12 (rumbo;orientacion) :
VEL. DE MUESTREO, C1-C6 (muestras/s)   : /100/100/100
VEL. DE MUESTREO, C7-C12 (muestras/s)  :
ESC. COMPLETA DE SENSORES, C1-C6, (g)  : /0.5/0.5/0.5
ESC. COMPLETA DE SENSORES, C7-C12, (g) :
FREC. NAT. DE SENSORES, C1-C6, (Hz)    : /30/30/30
FREC. NAT. DE SENSORES, C7-C12, (Hz)   :
AMORTIGUAMIENTO DE SENSORES, C1-C6     : /0.700/0.700/0.700
AMORTIGUAMIENTO DE SENSORES, C7-C12    :
INTERVALO DE MUESTREO, C1-C6, (s)      : /0.01/0.01/0.01
INTERVALO DE MUESTREO, C7-C12, (s)     :
UMBRAL DE DISPARO, C1-C6, (Gal)        : /2/2/2
UMBRAL DE DISPARO, C7-C12, (Gal)       :
MEMORIA DE PREEVENTO (s)               : 4
TIEMPO DE POSEVENTO (s)                : 15


================================================================================
DATOS DEL SISMO:
FECHA DEL SISMO (GMT)                  : 09/OCT/95
HORA EPICENTRO (GMT)                   : 15:35:51.0
MAGNITUD(ES)                           : /Mc=6.5/Mb=7.3/Me=7.5
COORDENADAS DEL EPICENTRO              : 18.74 
                                       : 104.67
PROFUNDIDAD FOCAL (km)                 : 5
FUENTE DE LOS DATOS EPICENTRALES       : INSTITUTO DE INGENIERIA UNAM
                                       : INSTITUTO DE GEOFISICA, UNAM

================================================================================
DATOS DE ESTE REGISTRO:
HORA DE LA PRIMERA MUESTRA (GMT)       : 15:38:33.44
EXACTITUD DEL TIEMPO (s)               : 0.01
DURACION DEL REGISTRO (s), C1-C6       : /132.97/132.97/132.97
DURACION DEL REGISTRO (s), C7-C12      :
NUM. TOTAL DE MUESTRAS, C1-C6          : /13297/13297/13297
NUM. TOTAL DE MUESTRAS, C7-C12         :
ACEL. MAX. (Gal), C1-C6                : /7.54/1.93/5.63
ACEL. MAX., C1-C6, EN LA MUESTRA       :
ACEL. MAX. (Gal), C7-C12               :
ACEL. MAX., C7-C12, EN LA MUESTRA      :
UNIDADES DE LOS DATOS                  : Gal (cm/s/s)
FACTOR DE DECIMACION                   : 1
FORMATO DATOS (FORTRAN,10 campos/dato) : 3F10.2


================================================================================
CALIDAD DEL ACELEROGRAMA:
REGISTRO DIGITAL COMPLETO CON TIEMPO ABSOLUTO CORRECTO.


================================================================================
COMENTARIOS:














================================================================================
DATOS DE ACELERACION:
---------+---------+---------+---------+---------+---------+---------+---------+
   CANAL-1   CANAL-2   CANAL-3   CANAL-4   CANAL-5   CANAL-6   CANAL-7   CANAL-8
      N00E        +V      N90W
---------+---------+---------+---------+---------+---------+---------+---------+
[...]
     -3.00     -0.46      0.12
     -2.52     -0.46      0.12
     -2.52     -0.46      0.12
     -2.52     -0.46      0.12
     -2.52     -0.46      0.12
     -2.52     -0.46      0.12
     -2.52     -0.46      0.60
     -2.04     -0.46      0.12
     -2.04     -0.46      0.12
     -2.04     -0.46      0.12
     -2.04     -0.46      0.12
     -1.56     -0.46      0.60
     -1.56     -0.46      0.60
     -1.56     -0.46      0.12
     -1.08     -0.46      0.12
     -1.08     -0.46      0.12
     -1.08     -0.46      0.12
     -0.60     -0.46      0.12
     -0.60     -0.46      0.12
     -0.60     -0.46      0.12
     -0.60     -0.46      0.12
     -0.12     -0.46      0.12
     -0.12     -0.46      0.12
     -0.12     -0.46      0.12
      0.35     -0.46      0.12
      0.35     -0.46      0.12
      0.35     -0.46      0.12
      0.35     -0.46      0.12
      0.83      0.02      0.12
      0.83      0.02      0.12
      0.83      0.02      0.12
      0.83      0.02      0.12
      1.31      0.02      0.12
      1.31      0.02     -0.36
      1.31      0.02     -0.36
      1.31      0.02     -0.36
      1.31      0.02     -0.36
      1.31      0.50     -0.36
      1.31      0.50     -0.36
      1.31      0.02     -0.36
      1.31      0.02     -0.36
      1.31      0.02     -0.36
      1.31      0.50     -0.36
      1.79      0.50     -0.36
      1.79      0.02     -0.36
      1.79      0.02     -0.84
      1.79      0.02     -0.84
      1.79      0.02     -0.36
      1.79      0.02     -0.36
      1.79      0.02     -0.84
      1.79      0.02     -0.84
      1.79      0.02     -0.84
      1.31      0.02     -0.84
      1.79      0.02     -0.84
      1.79      0.02     -0.84
      1.79      0.02     -0.84
      1.79      0.02     -0.84
      1.79      0.02     -0.84
      1.79      0.02     -0.84
      1.79      0.02     -0.36
      1.31      0.02     -0.84
      1.31      0.02     -0.84
      1.31      0.02     -0.84
      1.31      0.02     -0.84
      1.31      0.02     -0.36
      1.31      0.02     -0.36
      1.31      0.02     -0.36
      1.31      0.02     -0.36
      1.31      0.02     -0.36
      1.31      0.02     -0.36
      1.31      0.02     -0.36
      1.31      0.02     -0.36
      1.31      0.02     -0.36
      1.31      0.02     -0.36
      1.31      0.02     -0.36
      0.83     -0.46     -0.36
      0.83      0.02     -0.36
      0.83      0.02     -0.36
      0.83     -0.46     -0.36
      0.83      0.02      0.12
      0.83      0.02      0.12
      0.83      0.02      0.12
      0.83      0.02      0.12
      0.35      0.02      0.12
      0.35      0.02      0.12
      0.35      0.02      0.60
      0.35      0.02      0.60
      0.35      0.02      0.60
      0.35      0.02      0.60
      0.35      0.02      0.60
      0.35      0.02      0.60
      0.83      0.02      1.07
      0.83      0.02      1.07
      0.35      0.02      1.07
      0.35      0.02      1.07
      0.83      0.02      1.07
      0.83      0.02      1.07
      0.83      0.02      1.07
      0.83      0.02      1.55
      0.83      0.02      1.07
      1.31      0.02      1.55
      0.83      0.02      1.55
      1.31      0.02      1.55
      1.31      0.02      1.55
      1.31      0.02      1.55
      1.31      0.02      1.55
      1.31      0.02      1.55
      1.31      0.02      1.55
      1.31      0.02      1.55
      1.79      0.02      1.55
      1.79      0.02      1.55
      1.79      0.02      1.55
      1.79     -0.46      1.55
      1.79      0.02      1.55
      1.79      0.02      1.55
      1.79      0.02      1.55
      2.27     -0.46      1.55
      2.27      0.02      1.55
      2.27      0.02      1.55
      2.27      0.02      1.55
      2.27      0.02      1.55
      2.27      0.02      1.55
      2.27      0.02      1.55
      2.27      0.02      1.55
      2.27      0.02      1.55
      2.75      0.02      1.55
      2.75      0.02      1.55
      2.75      0.50      1.07
      2.75      0.02      1.07
      2.75      0.02      1.07
      2.75      0.02      1.07
      2.75      0.02      1.07
      2.75      0.02      1.07
      2.75      0.02      1.07
      2.75      0.02      1.07
      2.27      0.02      1.07
      2.27      0.02      0.60
      2.27      0.02      0.60
      2.27      0.02      0.60
      2.27      0.02      0.60
      1.79      0.02      0.60
      1.79      0.02      0.60
      1.79      0.02      0.12
      1.31      0.02      0.12
      1.31      0.02      0.12
      1.31      0.02      0.12
      0.83      0.02      0.12
      0.83      0.02     -0.36
      0.35      0.02     -0.36
      0.35      0.02     -0.36
     -0.12     -0.46     -0.36
     -0.12      0.02     -0.36
     -0.60      0.02     -0.36
     -0.60      0.02     -0.36
     -0.60     -0.46     -0.36
     -1.08      0.02     -0.84
     -1.56      0.02     -0.84
     -1.56      0.02     -0.84
     -2.04      0.02     -0.84
     -2.04      0.02     -0.84
     -2.04      0.02     -1.32
     -2.52      0.02     -1.32
     -3.00      0.02     -1.32
     -3.00      0.02     -1.32
     -3.00      0.02     -1.32
     -3.48      0.02     -1.32
     -3.48      0.02     -1.80
     -3.96      0.02     -1.80
     -3.96      0.02     -1.80
     -4.43      0.50     -1.80
     -4.43      0.02     -1.80
     -4.43      0.50     -1.80
     -4.91      0.50     -1.80
     -4.91      0.50     -2.28
     -4.91      0.50     -2.28
     -5.39      0.02     -2.28
     -5.39      0.02     -2.28
     -5.39      0.50     -2.28
     -5.39      0.50     -2.28
     -5.39      0.50     -2.28
     -5.39      0.02     -2.28
     -5.39      0.50     -2.28
     -5.39      0.50     -2.28
     -5.39      0.02     -2.28
     -5.39      0.02     -2.28
     -5.39      0.02     -2.28
     -5.39      0.02     -2.28
     -5.39      0.02     -2.28
     -5.39      0.02     -2.28
     -5.39      0.02     -2.28
     -4.91      0.02     -2.28
     -4.91      0.02     -2.28
     -4.91      0.02     -1.80
     -4.43      0.02     -1.80
     -4.43      0.02     -1.80
     -4.43      0.02     -1.80
     -4.43      0.02     -1.80
     -4.43      0.02     -1.80
     -3.96     -0.46     -1.80
     -3.48     -0.46     -1.80
     -3.48      0.02     -1.32
     -3.00      0.02     -1.32
     -3.00      0.02     -1.32
     -2.52     -0.46     -1.32
     -2.52      0.02     -1.32
     -2.04     -0.46     -0.84
     -1.56     -0.46     -0.84
     -1.56     -0.46     -0.84
     -1.08     -0.46     -0.36
     -1.08     -0.46     -0.36
     -0.60     -0.46     -0.36
     -0.60     -0.46     -0.36
     -0.12     -0.46     -0.36
     -0.12     -0.46     -0.36
      0.35     -0.46      0.12
      0.83     -0.46      0.12
      1.31     -0.46      0.12
      1.31     -0.46      0.60
      1.31     -0.46      0.60
      1.79     -0.46      0.60
      1.79     -0.46      0.60
      2.27     -0.46      0.60
      2.27     -0.46      0.60
      2.75     -0.46      1.07
      2.75     -0.46      1.07
      3.23     -0.46      1.07
      3.23     -0.46      1.07
      3.23     -0.46      1.07
      3.71     -0.46      1.07
      3.71     -0.46      1.55
      3.71      0.02      1.55
      4.19     -0.46      1.55
      4.19     -0.46      1.55
      4.19     -0.46      1.55
      4.19     -0.46      1.55
      4.19      0.02      1.55
      4.66      0.02      1.55
      4.66      0.02      1.55
      4.66      0.02      1.55
      4.66      0.02      1.07
      4.66      0.02      1.55
      4.66      0.02      1.55
      4.66      0.02      1.55
      4.66      0.02      1.55
      4.66      0.02      1.07
      4.66      0.02      1.07
      4.19      0.02      1.07
      4.19      0.02      1.07
      4.19      0.02      0.60
      4.19      0.02      1.07
      3.71      0.02      0.60
      3.71      0.02      0.60
      3.23      0.02      0.60
      3.23      0.02      0.60
      2.75      0.02      0.12
      2.75      0.02      0.12
      2.27      0.02      0.12
      2.27      0.02      0.12
      1.79      0.02      0.12
      1.31      0.02     -0.36
      1.31      0.02     -0.36
      0.83      0.02     -0.36
      0.83      0.02     -0.36
      0.35      0.02     -0.36
     -0.12     -0.46     -0.36
     -0.12      0.02     -0.84
     -0.60     -0.46     -0.84
     -1.08      0.02     -0.84
     -1.56      0.02     -0.84
     -1.56      0.02     -1.32
     -2.04      0.02     -1.32
     -2.52      0.02     -1.32
     -2.52     -0.46     -1.80
     -3.00      0.02     -1.80
     -3.00     -0.46     -1.80
     -3.48      0.02     -1.80
     -3.48      0.02     -1.80
     -3.96      0.02     -1.80
     -3.96      0.02     -2.28
     -4.43     -0.46     -2.28
     -4.91     -0.46     -2.28
     -4.91      0.02     -2.28
     -4.91      0.02     -2.28
     -5.39     -0.46     -2.28
     -5.87     -0.46     -2.28
     -5.87     -0.46     -2.28
     -5.87     -0.46     -2.28
     -6.35      0.02     -2.28
     -6.35      0.02     -2.28
     -6.35      0.02     -2.28
     -6.83      0.02     -2.28
     -6.83      0.02     -2.28
     -6.83      0.02     -2.28
     -6.83      0.02     -2.28
     -6.83      0.02     -2.28
     -6.83      0.02     -2.28
     -6.83     -0.46     -1.80
     -6.83     -0.46     -1.80
     -6.83     -0.46     -1.80
     -6.83     -0.46     -1.32
     -6.83      0.02     -1.32
     -6.83      0.02     -1.32
     -6.35      0.02     -1.32
     -6.35      0.02     -1.32
     -6.35      0.02     -0.84
     -5.87      0.02     -0.84
     -5.87      0.02     -0.84
     -5.39      0.02     -0.36
     -5.39      0.02     -0.36
     -5.39      0.02     -0.36
     -4.91      0.02     -0.36
     -4.43      0.02     -0.36
     -4.43      0.02     -0.36
     -3.96      0.02      0.12
     -3.96      0.02      0.12
     -3.48      0.02      0.60
     -3.00      0.02      0.60
     -2.52      0.02      0.60
     -2.04      0.02      0.60
     -2.04      0.02      1.07
     -1.56      0.02      1.07
     -1.08      0.02      1.07
     -0.60      0.02      1.07
     -0.60      0.02      1.07
     -0.12      0.02      1.55
      0.35      0.02      1.55
      0.83      0.02      1.55
      1.31      0.02      2.03
      1.31      0.02      2.03
      1.79      0.02      2.03
      2.27      0.02      2.51
      2.27      0.02      2.51
      2.75      0.02      2.51
      3.23      0.02      2.51
      3.71      0.02      2.51
      4.19      0.02      2.99
      4.19      0.02      2.51
      4.66      0.02      2.99
      5.14      0.02      2.99
      5.14      0.50      2.99
      5.62      0.50      2.99
      5.62      0.02      2.99
      6.10      0.02      2.99
      6.10      0.02      2.99
      6.58      0.02      2.99
      6.58      0.02      2.99
      6.58      0.02      2.99
      7.06      0.02      2.51
      7.06      0.02      2.51
      7.54      0.02      2.51
      7.54      0.02      2.51
      7.54      0.02      2.51
      7.54      0.02      2.51
      7.54      0.02      2.51
      7.54      0.02      2.51
      7.54      0.02      2.51
      7.06      0.02      2.03
      7.06      0.02      2.03
      7.06      0.02      1.55
      7.06      0.02      1.55
      7.06      0.02      1.55
      6.58      0.02      1.55
      6.58      0.02      1.07
      6.58      0.02      1.07
      6.10      0.02      1.07
      6.10      0.02      0.60
      5.62      0.02      0.60
      5.14      0.02      0.60
      5.14      0.02      0.12
      4.66      0.02      0.12
      4.66      0.02      0.12
      4.19      0.02      0.12
      3.71      0.02     -0.36
      3.71      0.02     -0.36
      3.23      0.02     -0.36
      2.75      0.02     -0.36
      2.75      0.02     -0.84
      2.27      0.02     -0.84
      1.79      0.02     -1.32
      1.31      0.02     -1.32
      1.31      0.02     -1.32
      0.83      0.02     -1.80
      0.35      0.02     -1.80
     -0.12      0.02     -2.28
     -0.60      0.02     -2.28
     -0.60      0.02     -2.28
     -1.08      0.02     -2.76
     -1.56      0.02     -2.76
     -1.56      0.02     -2.76
     -2.04      0.02     -2.76
     -2.04      0.02     -3.23
     -2.52      0.02     -3.23
     -2.52      0.02     -3.23
     -3.00      0.02     -3.23
     -3.00      0.02     -3.23
     -3.48      0.02     -3.71
     -3.48      0.02     -3.71
     -3.96      0.02     -3.71
     -3.96      0.02     -3.71
     -3.96      0.02     -3.71
     -4.43      0.02     -3.71
     -4.43      0.02     -3.71
     -4.43      0.02     -3.71
     -4.43      0.02     -3.71
     -4.91      0.02     -3.71
     -4.91      0.02     -3.71
     -4.91      0.02     -3.71
     -4.91      0.02     -3.71
     -4.91      0.02     -3.71
     -4.91      0.50     -3.71
     -4.91      0.02     -3.71
     -4.91      0.02     -3.23
     -4.43      0.02     -3.23
     -4.43      0.02     -3.23
     -4.91      0.50     -3.23
     -4.43      0.50     -2.76
     -3.96      0.50     -2.76
     -3.96      0.50     -2.76
     -3.96      0.50     -2.28
     -3.48      0.50     -2.28
     -3.48      0.50     -2.28
     -3.48      0.50     -2.28
     -3.00      0.50     -1.80
     -3.00      0.50     -1.80
     -2.52      0.50     -1.32
     -2.52      0.50     -1.32
     -2.52      0.50     -1.32
     -2.04      0.50     -0.84
     -2.04      0.50     -0.84
     -1.56      0.50     -0.36
     -1.08      0.50     -0.36
     -1.08      0.50     -0.36
     -0.60      0.50     -0.36
     -0.60      0.50      0.12
     -0.12      0.50      0.12
     -0.12      0.50      0.12
      0.35      0.50      0.12
      0.35      0.50      0.60
      0.83      0.50      0.60
      0.83      0.50      0.60
      1.31      0.50      0.60
      1.31      0.50      1.07
      1.79      0.50      1.07
      1.79      0.50      1.07
      1.79      0.50      1.55
      1.79      0.50      1.55
      2.27      0.98      1.55
      2.27      0.98      1.55
      2.75      0.50      1.55
      2.75      0.50      2.03
      2.75      0.50      2.03
      2.75      0.50      2.03
      3.23      0.50      2.03
      3.23      0.50      2.03
      3.23      0.98      2.03
      3.23      0.98      2.03
      3.23      0.98      2.03
      3.23      0.50      2.51
      3.23      0.98      2.51
      3.71      0.98      2.03
      3.71      0.98      2.03
      3.71      0.50      2.03
      3.71      0.98      2.03
      3.71      0.98      2.03
      3.71      0.98      2.03
      3.71      0.98      2.03
      3.23      0.98      2.03
      3.23      0.98      1.55
      3.23      0.98      1.55
      3.23      0.98      1.55
      3.23      0.98      1.55
      3.23      0.98      1.55
      2.75      0.98      1.07
      2.75      1.46      1.07
      2.75      1.46      1.07
      2.75      1.46      1.07
      2.27      1.46      1.07
      2.27      1.46      0.60
      1.79      0.98      0.60
      1.79      0.98      0.60
      1.79      1.46      0.12
      1.79      1.46      0.12
      1.31      1.46      0.12
      1.31      0.98      0.12
      1.31      0.98      0.12
      1.31      0.98      0.12
      1.31      0.98     -0.36
      0.83      0.98      0.12
      0.35      0.98     -0.36
      0.35      0.98     -0.36
      0.35      0.98     -0.36
      0.35      0.98     -0.36
     -0.12      0.98     -0.36
     -0.12      0.98     -0.36
     -0.12      0.98     -0.36
     -0.60      0.98     -0.36
     -0.60      0.98     -0.36
     -0.60      0.98     -0.36
     -0.60      0.98     -0.36
