********************************************************************************
              CENTRO DE INSTRUMENTACION Y REGISTRO SISMICO  A.C.

    Anaxagoras 814, Col. Narvarte, Benito Juarez, C.P. 03020 Mexico, D.F.
           Tels. 5687 45 42/ 5687 45  82             Fax. 5669 25 12
********************************************************************************
ARCHIVO ESTANDAR DE ACELERACION:
VERSION DEL FORMATO                    : 2.0
NOMBRE DEL ARCHIVO                     : AO2420070413054222
FECHA Y HORA DE CREACION               : 24/ABR/07, 13:01
REF. CATALOGO ACELEROGRAMAS, SMIS 1996 : REGISTRO No.     /PAG.


================================================================================
DATOS DE LA ESTACION:
NOMBRE DE LA ESTACION                  : ALBERCA OLÍMPICA
CLAVE DE LA ESTACION                   : AO24
LOCALIZACION DE LA ESTACION            : Del. Benito Juárez, Col. General Pedro 
                                       : María Anaya, Río Churubusco            
                                       : y División del Norte.                  
                                       :                                        
                                       : 
COORDENADAS DE LA ESTACION             : 19.3580 LAT. N
                                       : 99.1539 LONG. W
ALTITUD (msnm)                         : 2235
TIPO DE SUELO                          : Transición                          
                                       :                           
                                       : 
INSTITUCION RESPONSABLE                : CIRES
                                       : 

================================================================================
DATOS DEL ACELEROGRAFO:
MODELO DEL ACELEROGRAFO                : RADESD
NUMERO DE SERIE DEL ACELEROGRAFO       : 257
NUMERO DE CANALES                      : 3
ORIENTACION C1-C6 (rumbo;orientacion)  : /N00E/+V/N90W
ORIENTACION C7-C12 (rumbo;orientacion) : 
VEL. DE MUESTREO, C1-C6 (muestras/s)   : /100/100/100
VEL. DE MUESTREO, C7-C12 (muestras/s)  : 
ESC. COMPLETA DE SENSORES, C1-C6, (g)  : /0.5/0.5/0.5
ESC. COMPLETA DE SENSORES, C7-C12, (g) : 
FREC. NAT. DE SENSORES, C1-C6, (Hz)    : /30/30/30
FREC. NAT. DE SENSORES, C7-C12, (Hz)   : 
AMORTIGUAMIENTO DE SENSORES, C1-C6     : /0.700/0.700/0.700
AMORTIGUAMIENTO DE SENSORES, C7-C12    : 
INTERVALO DE MUESTREO, C1-C6, (s)      : /0.01/0.01/0.01
INTERVALO DE MUESTREO, C7-C12, (s)     : 
UMBRAL DE DISPARO, C1-C6, (Gal)        : /2.15/2.87/2.15
UMBRAL DE DISPARO, C7-C12, (Gal)       : 
MEMORIA DE PREEVENTO (s)               : 56.0
TIEMPO DE POSEVENTO (s)                : 64.0


================================================================================
DATOS DEL SISMO:
FECHA DEL SISMO (GMT)                  : 13/ABR/07
HORA EPICENTRO (GMT)                   : 05:42:22.0
MAGNITUD(ES)                           : /Me=6.3
COORDENADAS DEL EPICENTRO              : 17.09 LAT. N
                                       : 100.44 LONG. W
PROFUNDIDAD FOCAL (km)                 : 41
FUENTE DE LOS DATOS EPICENTRALES       : SSN
                                       : INSTITUTO DE GEOFISICA, UNAM

================================================================================
DATOS DE ESTE REGISTRO:
HORA DE LA PRIMERA MUESTRA (GMT)       : 05:43:26.00
EXACTITUD DEL TIEMPO (s)               : 0.01
DURACION DEL REGISTRO (s), C1-C6       : /143.25/143.25/143.25
DURACION DEL REGISTRO (s), C7-C12      : 
NUM. TOTAL DE MUESTRAS, C1-C6          : /14325/14325/14325
NUM. TOTAL DE MUESTRAS, C7-C12         : 
ACEL. MAX. (Gal), C1-C6                : /11.25275/2.87304/11.73159
ACEL. MAX., C1-C6, EN LA MUESTRA       : /8203/7889/7913
ACEL. MAX. (Gal), C7-C12               : 
ACEL. MAX., C7-C12, EN LA MUESTRA      : 
UNIDADES DE LOS DATOS                  : Gal (cm/s/s)
FACTOR DE DECIMACION                   : 1
FORMATO DATOS (FORTRAN,10 campos/dato) : 3F10.5


================================================================================
CALIDAD DEL ACELEROGRAMA:
REGISTRO DIGITAL COMPLETO CON TIEMPO ABSOLUTO CORRECTO.


================================================================================
COMENTARIOS:














================================================================================
DATOS DE ACELERACION:
---------+---------+---------+---------+---------+---------+---------+---------+
   CANAL-1   CANAL-2   CANAL-3   CANAL-4   CANAL-5   CANAL-6   CANAL-7   CANAL-8
      N00E        +V      N90W
---------+---------+---------+---------+---------+---------+---------+---------+
[...]
   3.83072   1.43652  -1.91536
   3.59130   1.67594  -1.19710
   3.35188   1.67594  -0.71826
   3.11246   1.91536  -0.23942
   2.63362   1.91536   0.47884
   2.39420   1.67594   0.71826
   1.91536   1.43652   1.19710
   1.43652   1.19710   1.67594
   1.19710   0.95768   1.91536
   0.71826   0.71826   2.15478
   0.23942   0.47884   2.63362
  -0.23942   0.23942   2.87304
  -0.47884   0.00000   3.11246
  -0.71826   0.00000   3.59130
  -0.71826  -0.47884   4.07014
  -0.95768  -0.47884   4.07014
  -1.19710  -0.47884   4.54898
  -1.19710  -0.47884   4.78840
  -1.43652  -0.47884   5.26724
  -1.67594  -0.47884   5.26724
  -1.67594  -0.47884   5.26724
  -1.91536  -0.47884   5.50666
  -2.15478  -0.47884   5.50666
  -2.39420  -0.47884   5.26724
  -2.63362  -0.47884   5.50666
  -2.63362  -0.47884   5.26724
  -2.87304  -0.47884   5.26724
  -2.87304  -0.47884   4.78840
  -2.87304  -0.47884   4.54898
  -2.87304  -0.47884   4.07014
  -2.63362  -0.47884   3.83072
  -2.63362  -0.47884   3.59130
  -2.63362  -0.47884   3.35188
  -2.39420  -0.47884   3.35188
  -2.63362  -0.47884   2.87304
  -2.63362  -0.47884   3.11246
  -2.39420  -0.47884   2.63362
  -2.39420  -0.47884   2.63362
  -2.15478  -0.47884   2.63362
  -2.15478  -0.47884   2.63362
  -1.91536  -0.47884   2.63362
  -1.67594  -0.23942   2.63362
  -1.67594   0.00000   2.15478
  -1.19710   0.23942   2.15478
  -1.19710   0.23942   1.91536
  -0.95768   0.47884   1.43652
  -0.71826   0.71826   1.19710
  -0.71826   0.71826   0.95768
  -0.47884   0.95768   0.71826
  -0.47884   1.19710   0.71826
  -0.23942   1.19710   0.71826
  -0.23942   1.67594   0.47884
   0.00000   1.67594   0.00000
   0.00000   1.67594   0.00000
   0.00000   1.43652  -0.23942
   0.23942   1.43652  -0.23942
   0.23942   1.67594  -0.23942
   0.23942   1.43652  -0.23942
   0.47884   1.43652  -0.23942
   0.71826   1.43652  -0.71826
   0.95768   1.19710  -0.71826
   1.19710   1.19710  -1.19710
   1.19710   0.95768  -1.43652
   1.19710   0.71826  -1.67594
   1.19710   0.71826  -1.91536
   1.19710   0.47884  -2.39420
   0.95768   0.23942  -2.63362
   0.71826   0.00000  -3.11246
   0.47884   0.00000  -3.11246
   0.00000  -0.23942  -3.59130
  -0.47884  -0.23942  -3.83072
  -0.71826  -0.23942  -3.83072
  -0.95768  -0.23942  -4.07014
  -0.95768  -0.23942  -4.07014
  -0.95768  -0.23942  -4.54898
  -0.95768  -0.23942  -4.30956
  -0.71826  -0.47884  -4.07014
  -0.47884  -0.47884  -4.07014
  -0.47884  -0.47884  -3.59130
  -0.23942  -0.47884  -3.35188
   0.23942  -0.71826  -3.11246
   0.47884  -0.71826  -2.87304
   0.47884  -0.95768  -2.87304
   0.71826  -0.95768  -2.63362
   0.95768  -0.95768  -2.63362
   0.95768  -1.43652  -2.63362
   0.71826  -1.43652  -2.87304
   0.47884  -1.67594  -2.87304
   0.47884  -1.67594  -3.11246
   0.23942  -1.91536  -3.35188
   0.00000  -1.91536  -3.59130
  -0.23942  -1.67594  -3.59130
  -0.47884  -1.67594  -3.83072
  -0.71826  -1.43652  -3.83072
  -0.71826  -1.19710  -3.83072
  -0.95768  -0.95768  -3.83072
  -1.19710  -0.47884  -3.59130
  -1.19710  -0.23942  -3.59130
  -0.95768   0.23942  -3.35188
  -1.19710   0.47884  -3.11246
  -1.19710   0.47884  -2.63362
  -1.43652   0.71826  -2.39420
  -1.67594   0.95768  -1.91536
  -1.91536   0.95768  -1.43652
  -1.91536   0.95768  -0.95768
  -1.91536   0.95768  -0.71826
  -1.91536   0.71826  -0.47884
  -1.91536   0.71826  -0.23942
  -1.91536   0.71826   0.00000
  -2.15478   0.47884   0.47884
  -2.15478   0.47884   0.71826
  -1.91536   0.47884   0.95768
  -1.91536   0.23942   0.95768
  -1.67594   0.00000   1.19710
  -1.43652   0.00000   1.43652
  -1.19710  -0.23942   1.67594
  -0.95768  -0.47884   1.91536
  -0.71826  -0.47884   2.39420
  -0.71826  -0.71826   2.87304
  -0.71826  -0.95768   3.11246
  -0.71826  -1.19710   3.35188
  -0.71826  -1.19710   3.83072
  -1.19710  -1.43652   4.07014
  -1.43652  -1.43652   4.54898
  -1.91536  -1.43652   4.78840
  -2.39420  -1.43652   5.26724
  -2.63362  -1.43652   5.50666
  -2.87304  -1.43652   5.74608
  -2.87304  -1.19710   5.74608
  -2.87304  -1.43652   5.98550
  -2.87304  -1.19710   5.74608
  -2.63362  -0.95768   5.74608
  -2.63362  -0.95768   5.50666
  -2.15478  -1.19710   5.26724
  -1.91536  -0.95768   5.02782
  -1.43652  -1.19710   4.78840
  -0.95768  -1.19710   4.54898
  -0.71826  -1.19710   4.30956
  -0.47884  -1.19710   4.07014
  -0.23942  -1.19710   3.83072
   0.23942  -1.19710   3.83072
   0.23942  -1.19710   3.35188
   0.47884  -1.43652   3.11246
   0.47884  -1.19710   3.11246
   0.47884  -1.19710   2.87304
   0.47884  -0.71826   2.87304
   0.47884  -0.95768   2.63362
   0.71826  -0.47884   2.15478
   0.95768  -0.23942   2.15478
   0.95768   0.00000   1.67594
   1.19710   0.00000   1.43652
   1.43652   0.00000   1.19710
   1.67594   0.23942   0.95768
   1.91536   0.47884   0.71826
   2.15478   0.23942   0.47884
   2.39420   0.47884   0.00000
   2.63362   0.23942  -0.23942
   2.87304   0.23942  -0.47884
   2.87304   0.00000  -0.71826
   2.87304   0.23942  -0.95768
   2.63362   0.00000  -1.19710
   2.63362  -0.23942  -1.43652
   2.63362  -0.23942  -1.91536
   2.39420  -0.47884  -2.39420
   2.39420  -0.23942  -2.63362
   2.15478  -0.47884  -2.87304
   1.91536  -0.47884  -3.11246
   1.91536  -0.47884  -3.35188
   1.67594  -0.47884  -3.35188
   1.67594  -0.71826  -3.59130
   1.67594  -0.71826  -3.59130
   1.43652  -0.95768  -3.59130
   1.67594  -0.95768  -3.83072
   1.43652  -0.95768  -3.83072
   1.43652  -0.95768  -4.07014
   1.43652  -0.71826  -4.30956
   1.43652  -0.71826  -4.54898
   1.43652  -0.47884  -4.54898
   1.43652  -0.23942  -4.54898
   1.43652   0.00000  -4.78840
   1.19710   0.47884  -4.78840
   1.19710   0.71826  -4.78840
   1.19710   0.71826  -4.78840
   1.19710   0.95768  -4.78840
   1.43652   1.19710  -4.78840
   1.19710   0.95768  -4.78840
   1.43652   0.95768  -4.78840
   1.43652   0.95768  -4.54898
   1.43652   0.95768  -4.54898
   1.67594   0.71826  -4.30956
   1.91536   0.71826  -4.07014
   1.91536   0.47884  -3.59130
   1.91536   0.23942  -3.35188
   1.91536   0.23942  -3.11246
   1.91536   0.00000  -2.63362
   1.91536   0.00000  -2.15478
   1.67594  -0.23942  -1.91536
   1.67594   0.00000  -1.67594
   1.43652  -0.23942  -1.19710
   1.43652   0.00000  -0.95768
   1.43652   0.00000  -0.47884
   1.19710   0.23942   0.00000
   1.19710   0.23942   0.00000
   1.19710   0.47884   0.23942
   1.19710   0.47884   0.23942
   1.43652   0.71826   0.23942
   1.43652   0.71826   0.47884
   1.67594   0.95768   0.47884
   1.67594   0.95768   0.47884
   1.67594   1.19710   0.47884
   1.91536   1.19710   0.71826
   1.67594   1.19710   0.71826
   1.91536   1.19710   0.95768
   1.67594   1.19710   1.19710
   1.43652   1.19710   1.19710
   1.19710   0.95768   1.67594
   0.95768   0.95768   1.91536
   0.71826   0.71826   2.15478
   0.71826   0.47884   2.39420
   0.23942   0.23942   2.63362
   0.00000   0.00000   2.87304
   0.00000   0.00000   3.11246
  -0.23942  -0.23942   3.11246
  -0.47884  -0.23942   3.35188
  -0.47884  -0.23942   3.59130
  -0.47884  -0.23942   3.59130
  -0.47884   0.00000   3.83072
  -0.47884   0.00000   3.83072
  -0.47884   0.23942   4.07014
  -0.71826   0.47884   4.07014
  -0.47884   0.71826   4.07014
  -0.71826   0.71826   4.07014
  -0.71826   0.95768   4.07014
  -0.71826   1.19710   3.83072
  -0.95768   1.19710   3.59130
  -0.95768   1.43652   3.35188
  -1.19710   1.19710   3.11246
  -1.19710   1.19710   3.11246
  -1.19710   1.19710   2.63362
  -1.43652   0.95768   2.39420
  -1.43652   0.71826   2.15478
  -1.67594   0.47884   1.91536
  -1.91536   0.23942   1.67594
  -2.15478   0.00000   1.91536
  -2.15478   0.00000   1.91536
  -2.39420  -0.23942   2.15478
  -2.39420  -0.47884   2.15478
  -2.39420  -0.71826   2.15478
  -2.39420  -0.95768   2.39420
  -2.15478  -1.19710   2.15478
  -2.15478  -1.19710   2.15478
  -2.15478  -1.43652   1.91536
  -1.91536  -1.43652   1.91536
  -1.91536  -1.19710   1.43652
  -1.67594  -1.19710   1.19710
  -1.67594  -0.95768   0.71826
  -1.67594  -0.71826   0.47884
  -1.91536  -0.47884   0.00000
  -2.15478   0.00000  -0.23942
  -2.15478   0.23942  -0.47884
  -2.63362   0.71826  -0.71826
  -2.87304   0.95768  -0.95768
  -2.87304   1.19710  -1.19710
  -3.11246   1.43652  -1.43652
  -3.35188   1.67594  -1.43652
  -3.35188   1.67594  -1.43652
  -3.59130   1.43652  -1.19710
  -3.83072   1.43652  -1.19710
  -3.83072   1.43652  -1.19710
  -4.07014   1.19710  -1.19710
  -4.30956   0.95768  -1.19710
  -4.30956   0.71826  -1.43652
  -4.30956   0.23942  -1.67594
  -4.54898   0.00000  -1.91536
  -4.54898  -0.23942  -1.91536
  -4.78840  -0.47884  -2.15478
  -4.78840  -0.71826  -2.15478
  -4.78840  -0.71826  -2.39420
  -4.78840  -0.71826  -2.87304
  -4.78840  -0.71826  -3.11246
  -4.78840  -0.47884  -3.59130
  -4.54898  -0.47884  -4.07014
  -4.30956  -0.47884  -4.54898
  -4.07014  -0.71826  -5.26724
  -3.83072  -0.71826  -5.50666
  -3.83072  -0.71826  -5.98550
  -3.59130  -0.71826  -6.46434
  -3.59130  -0.71826  -6.94318
  -3.59130  -0.71826  -7.18260
  -3.35188  -0.95768  -7.66145
  -3.35188  -0.95768  -7.90087
  -3.11246  -0.95768  -8.14029
  -2.87304  -0.95768  -8.14029
  -2.63362  -0.95768  -8.14029
  -2.15478  -0.95768  -8.14029
  -1.67594  -0.95768  -7.90087
  -1.19710  -0.95768  -7.66145
  -0.95768  -0.95768  -7.18260
  -0.47884  -0.95768  -6.70376
  -0.23942  -0.95768  -5.98550
   0.23942  -0.95768  -5.50666
   0.47884  -0.95768  -5.02782
   0.71826  -0.71826  -4.54898
   0.95768  -0.71826  -4.07014
   1.19710  -0.71826  -4.07014
   1.43652  -0.71826  -3.59130
   1.67594  -0.71826  -3.11246
   2.15478  -0.71826  -2.87304
   2.39420  -0.47884  -2.39420
   2.87304  -0.47884  -1.91536
   3.35188  -0.47884  -1.43652
   3.83072  -0.47884  -0.95768
   4.30956  -0.47884  -0.47884
   4.78840  -0.71826   0.00000
   5.26724  -0.71826   0.71826
   5.50666  -0.95768   1.19710
   5.98550  -1.19710   1.67594
   6.22492  -1.67594   2.39420
   6.46434  -1.91536   2.87304
   6.70376  -2.15478   3.35188
   6.94318  -2.39420   3.59130
   7.18260  -2.63362   3.83072
   7.42203  -2.87304   4.07014
   7.42203  -2.87304   4.30956
   7.42203  -2.87304   4.54898
   7.42203  -2.63362   4.78840
   7.42203  -2.15478   4.78840
   7.18260  -1.67594   4.78840
   7.18260  -1.43652   5.02782
   7.18260  -0.95768   5.26724
   6.94318  -0.47884   5.50666
   6.70376  -0.23942   5.74608
   6.46434   0.23942   5.98550
   6.22492   0.23942   6.22492
   5.74608   0.47884   6.70376
   5.50666   0.71826   6.94318
   5.02782   0.95768   7.66145
   4.78840   1.19710   7.90087
   4.30956   1.43652   8.37971
   4.07014   1.43652   9.09797
   3.83072   1.43652   9.57681
   3.35188   1.43652  10.05565
   3.11246   1.43652  10.53449
   2.87304   1.19710  10.77391
   2.63362   0.95768  11.01333
   2.39420   0.71826  11.25275
   1.91536   0.71826  11.73159
   1.43652   0.47884  11.49217
   1.19710   0.23942  11.49217
   0.95768   0.23942  11.49217
   0.71826   0.00000  11.25275
   0.23942   0.00000  11.01333
  -0.23942   0.00000  11.25275
  -0.47884   0.00000  10.53449
  -0.71826   0.00000  10.53449
  -1.19710   0.23942  10.05565
  -1.19710   0.23942   9.81623
  -1.43652   0.23942   9.57681
  -1.67594   0.00000   9.33739
  -1.67594   0.23942   8.85855
  -1.67594   0.23942   8.37971
  -1.67594   0.47884   7.90087
  -1.43652   0.47884   7.42203
  -1.43652   0.47884   6.70376
  -1.43652   0.47884   6.22492
  -1.67594   0.47884   5.50666
  -1.91536   0.71826   5.02782
  -2.15478   0.71826   4.07014
  -2.39420   0.71826   3.35188
  -2.87304   0.95768   2.39420
  -3.11246   0.95768   1.67594
  -3.59130   0.95768   0.71826
  -4.30956   0.95768  -0.23942
  -5.02782   1.19710  -1.19710
  -5.50666   1.19710  -1.91536
  -5.98550   1.19710  -2.87304
  -6.70376   1.43652  -3.59130
  -6.94318   1.19710  -4.30956
  -7.42203   1.19710  -5.26724
  -7.66145   1.19710  -5.98550
  -7.66145   0.95768  -6.46434
  -7.66145   0.71826  -7.18260
  -7.66145   0.23942  -7.42203
  -7.42203  -0.23942  -8.14029
  -7.42203  -0.47884  -8.37971
  -7.42203  -0.71826  -8.85855
  -7.42203  -0.95768  -8.85855
  -7.18260  -1.19710  -9.09797
  -7.42203  -1.19710  -9.33739
  -7.18260  -1.67594  -9.57681
  -7.18260  -1.67594  -9.81623
  -6.94318  -1.67594 -10.05565
  -6.94318  -1.91536 -10.05565
  -6.70376  -1.91536 -10.29507
  -6.46434  -1.91536 -10.29507
  -6.46434  -1.91536 -10.29507
  -6.22492  -1.67594 -10.29507
  -5.98550  -1.67594 -10.29507
  -5.74608  -1.67594 -10.05565
  -5.02782  -1.67594  -9.81623
  -4.78840  -1.67594  -9.57681
  -4.07014  -1.67594  -9.33739
  -3.83072  -1.67594  -8.85855
  -3.35188  -1.43652  -8.61913
  -2.87304  -1.19710  -8.37971
  -2.39420  -0.95768  -8.14029
  -1.67594  -0.71826  -7.90087
  -1.19710  -0.47884  -7.66145
  -0.71826  -0.23942  -7.42203
  -0.23942   0.00000  -7.18260
   0.00000   0.47884  -6.94318
   0.47884   0.71826  -6.70376
   0.71826   0.95768  -6.70376
   1.43652   0.95768  -6.46434
   1.91536   1.19710  -6.22492
   2.39420   0.95768  -5.98550
   3.11246   0.95768  -5.74608
   3.59130   0.95768  -5.26724
   4.30956   0.71826  -4.78840
   4.78840   0.71826  -4.30956
   5.26724   0.47884  -4.07014
   5.74608   0.23942  -3.11246
   6.46434   0.47884  -2.39420
   6.70376   0.47884  -1.67594
   7.42203   0.47884  -0.95768
   7.90087   0.47884  -0.23942
   8.14029   0.71826   0.47884
   8.61913   0.95768   1.19710
   8.85855   0.95768   1.43652
   8.85855   1.19710   1.91536
   9.09797   1.19710   2.39420
   9.09797   1.19710   2.87304
   8.61913   1.19710   3.35188
   8.61913   1.19710   3.59130
   8.14029   1.19710   3.59130
   8.14029   0.95768   4.07014
   7.66145   0.71826   4.54898
   7.18260   0.71826   4.78840
   6.70376   0.23942   5.26724
   6.46434   0.00000   5.50666
   6.22492  -0.23942   5.74608
   5.98550  -0.47884   6.22492
   5.74608  -0.47884   6.46434
   5.50666  -0.47884   6.70376
   5.26724  -0.47884   6.70376
   5.02782  -0.47884   6.70376
   4.78840  -0.47884   6.70376
   4.30956  -0.23942   6.70376
   3.83072  -0.23942   6.70376
   3.59130   0.00000   6.70376
   3.35188   0.00000   6.46434
   3.11246   0.00000   6.46434
   2.87304   0.00000   6.46434
   2.39420   0.00000   6.46434
   1.67594   0.00000   6.22492
   1.19710   0.00000   5.98550
   0.71826  -0.23942   5.74608
   0.23942  -0.23942   5.50666
  -0.23942  -0.47884   5.26724
  -0.95768  -0.47884   5.02782
  -1.19710  -0.47884   4.30956
  -1.91536  -0.47884   3.83072
  -2.39420  -0.47884   3.35188
  -2.63362  -0.47884   2.87304
  -3.11246  -0.47884   2.15478
  -3.59130  -0.23942   1.67594
  -4.07014   0.00000   1.19710
  -4.30956   0.00000   0.71826
  -4.54898   0.00000   0.47884
  -5.02782   0.00000   0.23942
  -5.26724   0.00000  -0.23942
  -5.74608   0.23942  -0.47884
  -5.98550   0.00000  -0.71826
  -6.22492   0.00000  -0.95768
  -6.46434   0.00000  -1.43652
  -6.70376   0.00000  -1.43652
  -6.94318  -0.23942  -1.67594
  -7.18260  -0.47884  -1.67594
  -7.18260  -0.47884  -1.91536
  -7.18260  -0.71826  -1.91536
  -7.18260  -0.95768  -2.15478
  -7.18260  -0.95768  -2.39420
  -7.18260  -1.19710  -2.63362
  -7.18260  -1.19710  -2.63362
  -7.18260  -1.19710  -3.11246
  -6.94318  -1.43652  -3.35188
  -6.70376  -1.43652  -3.35188
  -6.70376  -1.43652  -3.35188
  -6.46434  -1.43652  -3.59130
  -6.22492  -1.19710  -3.59130
  -6.22492  -1.19710  -3.59130
  -5.74608  -0.95768  -3.59130
  -5.74608  -0.71826  -3.35188
  -5.50666  -0.47884  -3.35188
  -5.02782   0.00000  -3.35188
  -4.78840   0.23942  -3.11246
