********************************************************************************
              CENTRO DE INSTRUMENTACION Y REGISTRO SISMICO  A.C.

    Anaxagoras 814, Col. Narvarte, Benito Juarez, C.P. 03020 Mexico, D.F.
           Tels. 5687 45 42/ 5687 45  82             Fax. 5669 25 12
********************************************************************************
ARCHIVO ESTANDAR DE ACELERACION:
VERSION DEL FORMATO                    : 2.0
NOMBRE DEL ARCHIVO                     : AO2420121107163551
FECHA Y HORA DE CREACION               : 24/JUL/13, 11:56
REF. CATALOGO ACELEROGRAMAS, SMIS 1996 : REGISTRO No.     /PAG.


================================================================================
DATOS DE LA ESTACION:
NOMBRE DE LA ESTACION                  : ALBERCA OLÍMPICA
CLAVE DE LA ESTACION                   : AO24
LOCALIZACION DE LA ESTACION            : Del. Benito Juárez, Col. General Pedro 
                                       : María Anaya, Río Churubusco            
                                       : y División del Norte.                  
                                       :                                        
                                       : 
COORDENADAS DE LA ESTACION             : 19.3580 LAT. N
                                       : 99.1539 LONG. W
ALTITUD (msnm)                         : 2235
TIPO DE SUELO                          : Transición                          
                                       :                           
                                       : 
INSTITUCION RESPONSABLE                : CIRES
                                       : 

================================================================================
DATOS DEL ACELEROGRAFO:
MODELO DEL ACELEROGRAFO                : RADESD
NUMERO DE SERIE DEL ACELEROGRAFO       : 257
NUMERO DE CANALES                      : 3
ORIENTACION C1-C6 (rumbo;orientacion)  : /N00E/+V/N90W
ORIENTACION C7-C12 (rumbo;orientacion) : 
VEL. DE MUESTREO, C1-C6 (muestras/s)   : /100/100/100
VEL. DE MUESTREO, C7-C12 (muestras/s)  : 
ESC. COMPLETA DE SENSORES, C1-C6, (g)  : /0.5/0.5/0.5
ESC. COMPLETA DE SENSORES, C7-C12, (g) : 
FREC. NAT. DE SENSORES, C1-C6, (Hz)    : /30/30/30
FREC. NAT. DE SENSORES, C7-C12, (Hz)   : 
AMORTIGUAMIENTO DE SENSORES, C1-C6     : /0.700/0.700/0.700
AMORTIGUAMIENTO DE SENSORES, C7-C12    : 
INTERVALO DE MUESTREO, C1-C6, (s)      : /0.01/0.01/0.01
INTERVALO DE MUESTREO, C7-C12, (s)     : 
UMBRAL DE DISPARO, C1-C6, (Gal)        : /26.34/50.28/31.12
UMBRAL DE DISPARO, C7-C12, (Gal)       : 
MEMORIA DE PREEVENTO (s)               : 56.0
TIEMPO DE POSEVENTO (s)                : 80.0


================================================================================
DATOS DEL SISMO:
FECHA DEL SISMO (GMT)                  : 07/NOV/12
HORA EPICENTRO (GMT)                   : 16:35:51.0
MAGNITUD(ES)                           : /Mc=7.3
COORDENADAS DEL EPICENTRO              : 14.08 LAT. N
                                       : 92.32 LONG. W
PROFUNDIDAD FOCAL (km)                 : 16
FUENTE DE LOS DATOS EPICENTRALES       : SSN
                                       : INSTITUTO DE GEOFISICA, UNAM

================================================================================
DATOS DE ESTE REGISTRO:
HORA DE LA PRIMERA MUESTRA (GMT)       : 16:40:16.00
EXACTITUD DEL TIEMPO (s)               : 0.01
DURACION DEL REGISTRO (s), C1-C6       : /111.2/111.2/111.2
DURACION DEL REGISTRO (s), C7-C12      : 
NUM. TOTAL DE MUESTRAS, C1-C6          : /11120/11120/11120
NUM. TOTAL DE MUESTRAS, C7-C12         : 
ACEL. MAX. (Gal), C1-C6                : /1.85403/0.83997/1.94797
ACEL. MAX., C1-C6, EN LA MUESTRA       : /3471/2793/3488
ACEL. MAX. (Gal), C7-C12               : 
ACEL. MAX., C7-C12, EN LA MUESTRA      : 
UNIDADES DE LOS DATOS                  : Gal (cm/s/s)
FACTOR DE DECIMACION                   : 1
FORMATO DATOS (FORTRAN,10 campos/dato) : 3F10.5


================================================================================
CALIDAD DEL ACELEROGRAMA:
REGISTRO DIGITAL COMPLETO CON TIEMPO ABSOLUTO CORRECTO.


================================================================================
COMENTARIOS:














================================================================================
DATOS DE ACELERACION:
---------+---------+---------+---------+---------+---------+---------+---------+
   CANAL-1   CANAL-2   CANAL-3   CANAL-4   CANAL-5   CANAL-6   CANAL-7   CANAL-8
      N00E        +V      N90W
---------+---------+---------+---------+---------+---------+---------+---------+
[...]
  -0.08831  -0.20749  -0.11703
  -0.13320  -0.19253  -0.19185
  -0.17809  -0.25238  -0.23674
  -0.19305  -0.19253  -0.28163
  -0.22298  -0.14764  -0.31156
  -0.23794  -0.08778  -0.37141
  -0.22298  -0.11771  -0.47616
  -0.14816  -0.16260  -0.56594
  -0.17809  -0.19253  -0.61083
  -0.19305  -0.16260  -0.65572
  -0.22298  -0.17756  -0.73054
  -0.25291  -0.11771  -0.82032
  -0.26787  -0.14764  -0.83529
  -0.29780  -0.16260  -0.89514
  -0.26787  -0.22246  -0.91011
  -0.23794  -0.29727  -0.98493
  -0.23794  -0.26735  -0.99989
  -0.31276  -0.17756  -1.04478
  -0.37262  -0.14764  -1.11960
  -0.38758  -0.20749  -1.16449
  -0.34269  -0.23742  -1.16449
  -0.28284  -0.31224  -1.16449
  -0.28284  -0.32720  -1.13456
  -0.28284  -0.31224  -1.08967
  -0.26787  -0.20749  -1.16449
  -0.29780  -0.14764  -1.25427
  -0.25291  -0.16260  -1.31413
  -0.28284  -0.22246  -1.34406
  -0.25291  -0.29727  -1.26924
  -0.28284  -0.37209  -1.20938
  -0.28284  -0.29727  -1.14953
  -0.22298  -0.23742  -1.14953
  -0.17809  -0.19253  -1.19442
  -0.19305  -0.11771  -1.17946
  -0.23794  -0.11771  -1.16449
  -0.23794  -0.19253  -1.11960
  -0.20802  -0.22246  -1.10464
  -0.20802  -0.22246  -1.05975
  -0.17809  -0.13267  -1.01485
  -0.13320  -0.08778  -0.96996
  -0.13320  -0.04289  -0.94003
  -0.10327   0.00200  -0.94003
  -0.10327  -0.05785  -0.95500
  -0.07334  -0.17756  -0.95500
  -0.02845  -0.23742  -0.85025
  -0.02845  -0.23742  -0.77543
  -0.04342  -0.14764  -0.71558
  -0.02845  -0.10275  -0.74551
  -0.01349  -0.08778  -0.70061
   0.07629  -0.19253  -0.64076
   0.10622  -0.28231  -0.58090
   0.12119  -0.22246  -0.50609
   0.12119  -0.10275  -0.49112
   0.15111   0.00200  -0.49112
   0.19601   0.00200  -0.49112
   0.25586  -0.08778  -0.49112
   0.30075  -0.19253  -0.38638
   0.31572  -0.26735  -0.25170
   0.33068  -0.20749  -0.23674
   0.31572  -0.13267  -0.23674
   0.30075  -0.05785  -0.25170
   0.36061  -0.02793  -0.20681
   0.45039  -0.11771  -0.19185
   0.51024  -0.25238  -0.14696
   0.55514  -0.29727  -0.08710
   0.54017  -0.26735  -0.02725
   0.51024  -0.17756   0.00268
   0.49528  -0.13267   0.01765
   0.57010  -0.08778   0.04757
   0.61499  -0.11771   0.07750
   0.64492  -0.17756   0.13736
   0.60003  -0.19253   0.16728
   0.57010  -0.11771   0.16728
   0.55514  -0.05785   0.13736
   0.61499  -0.07282   0.04757
   0.67485  -0.17756   0.09246
   0.70477  -0.22246   0.18225
   0.64492  -0.22246   0.25707
   0.60003  -0.13267   0.25707
   0.60003  -0.02793   0.19721
   0.58506   0.01696   0.12239
   0.57010  -0.04289   0.10743
   0.58506  -0.11771   0.18225
   0.52521  -0.11771   0.27203
   0.49528   0.00200   0.28699
   0.49528   0.15164   0.27203
   0.48032   0.15164   0.22714
   0.43543   0.09178   0.13736
   0.37557  -0.02793   0.15232
   0.33068  -0.10275   0.21217
   0.30075  -0.13267   0.21217
   0.30075  -0.10275   0.27203
   0.27082  -0.05785   0.21217
   0.24090   0.03193   0.18225
   0.21097   0.01696   0.15232
   0.19601  -0.01296   0.15232
   0.13615  -0.05785   0.13736
   0.03140  -0.04289   0.13736
  -0.02845   0.03193   0.10743
  -0.11823   0.07682   0.07750
  -0.17809   0.09178   0.06254
  -0.20802   0.07682   0.06254
  -0.19305   0.07682   0.04757
  -0.20802   0.09178   0.04757
  -0.25291   0.12171   0.12239
  -0.34269   0.13667   0.04757
  -0.43247   0.10675   0.03261
  -0.47736   0.12171   0.00268
  -0.53722   0.13667   0.03261
  -0.56715   0.22646   0.03261
  -0.55218   0.27135   0.03261
  -0.53722   0.24142  -0.01228
  -0.61204   0.16660  -0.04221
  -0.67189   0.10675  -0.05717
  -0.74671   0.06186  -0.02725
  -0.77664   0.10675   0.01765
  -0.74671   0.16660   0.00268
  -0.74671   0.21149   0.00268
  -0.74671   0.19653   0.01765
  -0.77664   0.16660   0.01765
  -0.79160   0.15164   0.01765
  -0.82153   0.13667   0.01765
  -0.85146   0.12171  -0.01228
  -0.82153   0.09178  -0.01228
  -0.77664   0.10675   0.00268
  -0.80657   0.13667   0.04757
  -0.76168   0.13667   0.00268
  -0.79160   0.06186  -0.05717
  -0.79160  -0.01296  -0.08710
  -0.77664  -0.04289  -0.02725
  -0.74671  -0.07282   0.06254
  -0.70182  -0.05785   0.09246
  -0.68686  -0.02793   0.10743
  -0.67189   0.03193   0.04757
  -0.67189   0.06186  -0.01228
  -0.64197   0.01696   0.03261
  -0.59707  -0.01296   0.03261
  -0.58211  -0.01296   0.07750
  -0.52226   0.00200   0.10743
  -0.55218   0.03193   0.12239
  -0.50729   0.06186   0.13736
  -0.43247   0.10675   0.13736
  -0.37262   0.15164   0.09246
  -0.40255   0.15164   0.07750
  -0.43247   0.12171   0.04757
  -0.41751   0.09178   0.06254
  -0.38758   0.06186   0.09246
  -0.32773   0.03193   0.10743
  -0.25291  -0.02793   0.13736
  -0.26787  -0.04289   0.18225
  -0.23794  -0.07282   0.18225
  -0.22298  -0.07282   0.15232
  -0.19305  -0.02793   0.12239
  -0.17809  -0.01296   0.12239
  -0.14816  -0.04289   0.18225
  -0.05838  -0.11771   0.21217
   0.00148  -0.16260   0.24210
   0.01644  -0.17756   0.24210
   0.03140  -0.11771   0.22714
   0.10622  -0.11771   0.16728
   0.18104  -0.13267   0.13736
   0.19601  -0.11771   0.19721
   0.21097  -0.05785   0.27203
   0.24090  -0.01296   0.27203
   0.25586   0.00200   0.31692
   0.27082   0.00200   0.31692
   0.27082  -0.08778   0.27203
   0.31572  -0.17756   0.25707
   0.31572  -0.17756   0.28699
   0.31572  -0.17756   0.36181
   0.36061  -0.14764   0.31692
   0.40550  -0.17756   0.31692
   0.36061  -0.19253   0.34685
   0.39053  -0.20749   0.37678
   0.43543  -0.20749   0.40670
   0.46535  -0.19253   0.36181
   0.46535  -0.11771   0.36181
   0.45039  -0.07282   0.34685
   0.42046  -0.08778   0.37678
   0.39053  -0.16260   0.43663
   0.36061  -0.17756   0.45159
   0.37557  -0.19253   0.43663
   0.37557  -0.19253   0.43663
   0.37557  -0.14764   0.37678
   0.36061  -0.17756   0.39174
   0.33068  -0.19253   0.42167
   0.31572  -0.17756   0.45159
   0.30075  -0.13267   0.42167
   0.27082  -0.10275   0.39174
   0.25586  -0.05785   0.43663
   0.22593  -0.01296   0.43663
   0.16608  -0.02793   0.46656
   0.12119  -0.11771   0.45159
   0.07629  -0.17756   0.46656
   0.04637  -0.19253   0.51145
   0.03140  -0.10275   0.49649
   0.00148  -0.08778   0.54138
  -0.02845  -0.08778   0.54138
  -0.08831  -0.10275   0.51145
  -0.14816  -0.13267   0.48152
  -0.22298  -0.19253   0.49649
  -0.28284  -0.16260   0.48152
  -0.31276  -0.17756   0.55634
  -0.32773  -0.16260   0.55634
  -0.35765  -0.14764   0.57130
  -0.38758  -0.16260   0.60123
  -0.46240  -0.13267   0.63116
  -0.52226  -0.07282   0.64612
  -0.56715  -0.07282   0.61620
  -0.56715  -0.07282   0.63116
  -0.62700  -0.02793   0.64612
  -0.68686  -0.01296   0.72094
  -0.76168   0.03193   0.73591
  -0.80657   0.04689   0.69101
  -0.82153   0.04689   0.63116
  -0.88139   0.06186   0.64612
  -0.94124   0.10675   0.66109
  -1.00110   0.10675   0.64612
  -1.04599   0.07682   0.66109
  -1.06095   0.13667   0.73591
  -1.06095   0.18157   0.70598
  -1.06095   0.18157   0.67605
  -1.12081   0.24142   0.67605
  -1.19562   0.24142   0.66109
  -1.19562   0.30128   0.64612
  -1.18066   0.28631   0.58627
  -1.19562   0.25638   0.55634
  -1.19562   0.19653   0.57130
  -1.22555   0.27135   0.66109
  -1.22555   0.34617   0.67605
  -1.22555   0.33120   0.60123
  -1.22555   0.27135   0.49649
  -1.15073   0.21149   0.46656
  -1.13577   0.21149   0.48152
  -1.10584   0.19653   0.49649
  -1.06095   0.25638   0.46656
  -1.06095   0.36113   0.43663
  -1.04599   0.36113   0.36181
  -1.03102   0.27135   0.36181
  -0.94124   0.15164   0.30196
  -0.88139   0.13667   0.25707
  -0.83649   0.21149   0.22714
  -0.79160   0.24142   0.18225
  -0.76168   0.19653   0.10743
  -0.70182   0.15164   0.07750
  -0.67189   0.09178   0.07750
  -0.59707   0.13667   0.04757
  -0.53722   0.18157   0.01765
  -0.46240   0.22646  -0.08710
  -0.32773   0.18157  -0.16192
  -0.22298   0.09178  -0.19185
  -0.22298   0.09178  -0.14696
  -0.17809   0.15164  -0.17688
  -0.11823   0.21149  -0.22177
  -0.01349   0.16660  -0.28163
   0.07629   0.13667  -0.34148
   0.10622   0.15164  -0.31156
   0.22593   0.16660  -0.31156
   0.31572   0.21149  -0.35645
   0.42046   0.22646  -0.44623
   0.46535   0.15164  -0.47616
   0.52521   0.10675  -0.49112
   0.61499   0.10675  -0.43127
   0.68981   0.09178  -0.47616
   0.74966   0.07682  -0.56594
   0.77959   0.10675  -0.59587
   0.89930   0.07682  -0.64076
   0.97412   0.00200  -0.62580
   1.07887  -0.02793  -0.59587
   1.16865  -0.10275  -0.64076
   1.16865  -0.08778  -0.65572
   1.22850  -0.10275  -0.64076
   1.28836  -0.13267  -0.67069
   1.27340  -0.10275  -0.67069
   1.33325  -0.05785  -0.71558
   1.45296  -0.01296  -0.71558
   1.51282  -0.01296  -0.80536
   1.49785  -0.05785  -0.82032
   1.43800  -0.05785  -0.82032
   1.40807  -0.05785  -0.77543
   1.42303  -0.11771  -0.76047
   1.45296  -0.13267  -0.79040
   1.52778  -0.11771  -0.85025
   1.54274  -0.07282  -0.88018
   1.48289  -0.05785  -0.89514
   1.45296  -0.07282  -0.89514
   1.42303  -0.08778  -0.88018
   1.37814  -0.08778  -0.91011
   1.30332  -0.11771  -0.92507
   1.25843  -0.07282  -0.94003
   1.24347  -0.07282  -0.96996
   1.25843  -0.05785  -0.98493
   1.16865   0.04689  -1.01485
   1.09383   0.04689  -1.02982
   1.01901   0.06186  -0.98493
   0.97412   0.07682  -0.94003
   0.94419   0.03193  -0.96996
   0.83945   0.00200  -0.99989
   0.73470   0.01696  -0.99989
   0.64492   0.01696  -0.98493
   0.58506  -0.01296  -0.96996
   0.51024  -0.02793  -0.92507
   0.39053  -0.05785  -0.88018
   0.28579  -0.01296  -0.85025
   0.15111   0.03193  -0.79040
   0.06133   0.03193  -0.74551
  -0.04342  -0.05785  -0.74551
  -0.10327  -0.16260  -0.71558
  -0.11823  -0.19253  -0.65572
  -0.20802  -0.14764  -0.58090
  -0.29780  -0.14764  -0.55098
  -0.43247  -0.23742  -0.47616
  -0.56715  -0.28231  -0.43127
  -0.64197  -0.23742  -0.34148
  -0.76168  -0.20749  -0.32652
  -0.86642  -0.19253  -0.29659
  -0.89635  -0.17756  -0.22177
  -1.00110  -0.17756  -0.13199
  -1.12081  -0.22246  -0.02725
  -1.24052  -0.22246   0.01765
  -1.33030  -0.25238   0.09246
  -1.33030  -0.20749   0.21217
  -1.39015  -0.14764   0.27203
  -1.45001  -0.13267   0.31692
  -1.50986  -0.14764   0.40670
  -1.56972  -0.19253   0.49649
  -1.67446  -0.26735   0.58627
  -1.73432  -0.28231   0.67605
  -1.80914  -0.22246   0.76583
  -1.85403  -0.14764   0.90051
  -1.79418  -0.10275   0.94540
  -1.76425  -0.10275   1.03518
  -1.71936  -0.13267   1.05015
  -1.77921  -0.20749   1.11000
  -1.83907  -0.22246   1.19978
  -1.85403  -0.19253   1.33446
  -1.82410  -0.22246   1.37935
  -1.76425  -0.20749   1.43920
  -1.67446  -0.11771   1.58884
  -1.68943  -0.05785   1.64870
  -1.85403  -0.19253   1.55891
  -1.67446  -0.13267   1.63373
  -1.53979  -0.10275   1.70855
  -1.46497  -0.10275   1.76841
  -1.42008  -0.07282   1.85819
  -1.37519  -0.02793   1.91804
  -1.30037   0.03193   1.94797
  -1.19562   0.03193   1.85819
  -1.10584   0.01696   1.78337
  -1.03102  -0.04289   1.78337
  -0.97117  -0.02793   1.84322
  -0.88139   0.06186   1.87315
  -0.79160   0.15164   1.79833
  -0.67189   0.13667   1.78337
  -0.50729   0.07682   1.72351
  -0.41751  -0.02793   1.67862
  -0.38758  -0.08778   1.61877
  -0.29780  -0.07282   1.55891
  -0.19305   0.03193   1.51402
  -0.08831   0.07682   1.45417
   0.06133   0.01696   1.37935
   0.21097  -0.08778   1.30453
   0.31572  -0.07282   1.28957
   0.40550  -0.01296   1.22971
   0.42046   0.09178   1.11000
   0.52521   0.16660   0.96036
   0.62995   0.19653   0.82569
   0.74966   0.19653   0.72094
   0.86937   0.13667   0.64612
   0.95916   0.06186   0.54138
   1.00405   0.04689   0.45159
   1.04894   0.07682   0.33188
   1.09383   0.12171   0.19721
   1.12376   0.16660   0.09246
   1.21354   0.19653   0.00268
   1.31829   0.16660  -0.11703
   1.42303   0.07682  -0.28163
   1.48289   0.01696  -0.32652
   1.46792   0.04689  -0.40134
   1.45296   0.10675  -0.43127
   1.49785   0.13667  -0.58090
   1.55771   0.15164  -0.76047
   1.61756   0.10675  -0.88018
   1.63253   0.06186  -0.94003
   1.61756   0.03193  -0.98493
   1.58763   0.06186  -1.02982
   1.52778   0.09178  -1.11960
   1.52778   0.07682  -1.17946
   1.55771   0.12171  -1.22435
   1.61756   0.13667  -1.29917
   1.63253   0.10675  -1.38895
   1.58763   0.10675  -1.47873
   1.54274   0.12171  -1.52362
   1.46792   0.13667  -1.56851
   1.39311   0.12171  -1.55355
   1.42303   0.13667  -1.58348
   1.39311   0.15164  -1.64333
   1.36318   0.15164  -1.65830
   1.28836   0.07682  -1.68822
   1.19858   0.04689  -1.68822
   1.10879   0.13667  -1.67326
   1.09383   0.16660  -1.64333
   1.09383   0.19653  -1.62837
   1.01901   0.16660  -1.59844
   0.94419   0.12171  -1.56851
   0.91427   0.09178  -1.53859
   0.83945   0.10675  -1.52362
   0.76463   0.12171  -1.47873
   0.71974   0.16660  -1.37398
   0.64492   0.22646  -1.29917
   0.60003   0.19653  -1.25427
   0.52521   0.13667  -1.22435
   0.51024   0.10675  -1.16449
   0.43543   0.10675  -1.08967
   0.36061   0.07682  -0.98493
   0.30075   0.09178  -0.98493
   0.22593   0.09178  -0.88018
   0.13615   0.16660  -0.77543
   0.07629   0.15164  -0.70061
   0.07629   0.12171  -0.65572
   0.04637   0.09178  -0.59587
   0.00148   0.07682  -0.50609
  -0.07334   0.04689  -0.44623
  -0.13320  -0.01296  -0.34148
  -0.19305   0.01696  -0.26667
  -0.22298   0.04689  -0.16192
  -0.23794   0.09178  -0.08710
  -0.25291   0.06186  -0.01228
  -0.29780   0.01696   0.09246
  -0.32773  -0.04289   0.13736
  -0.38758  -0.08778   0.16728
  -0.41751  -0.05785   0.25707
  -0.44744   0.00200   0.39174
  -0.43247   0.03193   0.43663
  -0.47736   0.01696   0.49649
  -0.49233   0.03193   0.54138
  -0.52226   0.01696   0.58627
  -0.53722   0.03193   0.63116
  -0.53722   0.00200   0.69101
  -0.49233  -0.01296   0.69101
  -0.50729   0.00200   0.70598
  -0.50729   0.01696   0.76583
  -0.49233   0.07682   0.78080
  -0.53722   0.06186   0.76583
  -0.55218   0.03193   0.78080
  -0.53722  -0.01296   0.82569
  -0.53722  -0.05785   0.84065
  -0.52226  -0.10275   0.88554
  -0.52226  -0.11771   0.87058
  -0.49233  -0.10275   0.82569
  -0.50729  -0.10275   0.79576
  -0.52226  -0.08778   0.82569
  -0.47736  -0.04289   0.82569
  -0.43247  -0.07282   0.73591
  -0.41751  -0.11771   0.67605
  -0.40255  -0.08778   0.64612
  -0.40255  -0.17756   0.61620
  -0.40255  -0.26735   0.54138
  -0.38758  -0.31224   0.51145
  -0.31276  -0.28231   0.46656
  -0.28284  -0.25238   0.43663
  -0.31276  -0.20749   0.39174
  -0.28284  -0.14764   0.30196
  -0.26787  -0.16260   0.28699
  -0.20802  -0.26735   0.19721
  -0.17809  -0.35713   0.09246
  -0.16313  -0.41698   0.01765
  -0.13320  -0.40202  -0.01228
  -0.08831  -0.37209  -0.05717
  -0.02845  -0.34217  -0.11703
   0.01644  -0.28231  -0.19185
   0.01644  -0.26735  -0.26667
  -0.01349  -0.22246  -0.34148
  -0.04342  -0.20749  -0.40134
   0.03140  -0.26735  -0.44623
   0.13615  -0.23742  -0.50609
   0.13615  -0.25238  -0.49112
   0.18104  -0.26735  -0.53601
   0.18104  -0.29727  -0.58090
   0.22593  -0.29727  -0.65572
   0.19601  -0.34217  -0.67069
   0.27082  -0.29727  -0.70061
   0.31572  -0.26735  -0.74551
   0.34564  -0.22246  -0.79040
   0.39053  -0.23742  -0.76047
   0.39053  -0.26735  -0.74551
   0.34564  -0.26735  -0.70061
   0.34564  -0.22246  -0.73054
   0.39053  -0.16260  -0.74551
   0.46535  -0.14764  -0.79040
   0.48032  -0.14764  -0.82032
   0.49528  -0.20749  -0.82032
   0.46535  -0.26735  -0.77543
   0.42046  -0.29727  -0.74551
   0.46535  -0.25238  -0.68565
   0.49528  -0.25238  -0.67069
