********************************************************************************
              CENTRO DE INSTRUMENTACION Y REGISTRO SISMICO  A.C.

    Anaxagoras 814, Col. Narvarte, Benito Juarez, C.P. 03020 Mexico, D.F.
           Tels. 5687 45 42/ 5687 45  82             Fax. 5669 25 12
********************************************************************************
ARCHIVO ESTANDAR DE ACELERACION:
VERSION DEL FORMATO                    : 2.0
NOMBRE DEL ARCHIVO                     : AO2420110505132407
FECHA Y HORA DE CREACION               : 01/JUL/11, 12:12
REF. CATALOGO ACELEROGRAMAS, SMIS 1996 : REGISTRO No.     /PAG.


================================================================================
DATOS DE LA ESTACION:
NOMBRE DE LA ESTACION                  : ALBERCA OLÍMPICA
CLAVE DE LA ESTACION                   : AO24
LOCALIZACION DE LA ESTACION            : Del. Benito Juárez, Col. General Pedro 
                                       : María Anaya, Río Churubusco            
                                       : y División del Norte.                  
                                       :                                        
                                       : 
COORDENADAS DE LA ESTACION             : 19.3580 LAT. N
                                       : 99.1539 LONG. W
ALTITUD (msnm)                         : 2235
TIPO DE SUELO                          : Transición                          
                                       :                           
                                       : 
INSTITUCION RESPONSABLE                : CIRES
                                       : 

================================================================================
DATOS DEL ACELEROGRAFO:
MODELO DEL ACELEROGRAFO                : RADESD
NUMERO DE SERIE DEL ACELEROGRAFO       : 257
NUMERO DE CANALES                      : 3
ORIENTACION C1-C6 (rumbo;orientacion)  : /N00E/+V/N90W
ORIENTACION C7-C12 (rumbo;orientacion) : 
VEL. DE MUESTREO, C1-C6 (muestras/s)   : /100/100/100
VEL. DE MUESTREO, C7-C12 (muestras/s)  : 
ESC. COMPLETA DE SENSORES, C1-C6, (g)  : /0.5/0.5/0.5
ESC. COMPLETA DE SENSORES, C7-C12, (g) : 
FREC. NAT. DE SENSORES, C1-C6, (Hz)    : /30/30/30
FREC. NAT. DE SENSORES, C7-C12, (Hz)   : 
AMORTIGUAMIENTO DE SENSORES, C1-C6     : /0.700/0.700/0.700
AMORTIGUAMIENTO DE SENSORES, C7-C12    : 
INTERVALO DE MUESTREO, C1-C6, (s)      : /0.01/0.01/0.01
INTERVALO DE MUESTREO, C7-C12, (s)     : 
UMBRAL DE DISPARO, C1-C6, (Gal)        : /2.39/3.11/2.39
UMBRAL DE DISPARO, C7-C12, (Gal)       : 
MEMORIA DE PREEVENTO (s)               : 56.0
TIEMPO DE POSEVENTO (s)                : 64.0


================================================================================
DATOS DEL SISMO:
FECHA DEL SISMO (GMT)                  : 05/MAY/11
HORA EPICENTRO (GMT)                   : 13:24:07.0
MAGNITUD(ES)                           : /Mc=5.5
COORDENADAS DEL EPICENTRO              : 16.61 LAT. N
                                       : 98.91 LONG. W
PROFUNDIDAD FOCAL (km)                 : 11
FUENTE DE LOS DATOS EPICENTRALES       : SSN
                                       : INSTITUTO DE GEOFISICA, UNAM

================================================================================
DATOS DE ESTE REGISTRO:
HORA DE LA PRIMERA MUESTRA (GMT)       : 13:25:26.00
EXACTITUD DEL TIEMPO (s)               : 0.01
DURACION DEL REGISTRO (s), C1-C6       : /128.5/128.5/128.5
DURACION DEL REGISTRO (s), C7-C12      : 
NUM. TOTAL DE MUESTRAS, C1-C6          : /12850/12850/12850
NUM. TOTAL DE MUESTRAS, C7-C12         : 
ACEL. MAX. (Gal), C1-C6                : /2.45558/1.09245/3.99986
ACEL. MAX., C1-C6, EN LA MUESTRA       : /6494/5130/5632
ACEL. MAX. (Gal), C7-C12               : 
ACEL. MAX., C7-C12, EN LA MUESTRA      : 
UNIDADES DE LOS DATOS                  : Gal (cm/s/s)
FACTOR DE DECIMACION                   : 1
FORMATO DATOS (FORTRAN,10 campos/dato) : 3F10.5


================================================================================
CALIDAD DEL ACELEROGRAMA:
REGISTRO DIGITAL COMPLETO CON TIEMPO ABSOLUTO CORRECTO.


================================================================================
COMENTARIOS:














================================================================================
DATOS DE ACELERACION:
---------+---------+---------+---------+---------+---------+---------+---------+
   CANAL-1   CANAL-2   CANAL-3   CANAL-4   CANAL-5   CANAL-6   CANAL-7   CANAL-8
      N00E        +V      N90W
---------+---------+---------+---------+---------+---------+---------+---------+
[...]
  -0.30079   0.13476  -2.08450
  -0.54021  -0.10466  -2.32392
  -0.30079   0.13476  -2.08450
  -0.77963  -0.10466  -2.56334
  -0.30079  -0.10466  -2.32392
  -0.54021   0.13476  -2.80276
  -0.77963  -0.10466  -2.80276
  -0.54021   0.37418  -2.80276
  -1.01905   0.13476  -3.28160
  -0.54021   0.37418  -3.04218
  -1.01905   0.13476  -3.28160
  -1.01905   0.13476  -3.28160
  -0.77963   0.37418  -3.04218
  -1.01905   0.13476  -3.52102
  -0.77963   0.37418  -3.04218
  -0.77963   0.37418  -3.04218
  -0.77963   0.13476  -3.04218
  -0.30079   0.13476  -2.56334
  -0.54021  -0.10466  -2.80276
  -0.06137  -0.10466  -2.56334
  -0.06137  -0.10466  -2.56334
  -0.06137  -0.34408  -2.32392
   0.17805  -0.10466  -2.08450
  -0.06137  -0.34408  -2.32392
   0.41747  -0.10466  -1.60566
   0.17805   0.13476  -1.60566
   0.17805  -0.10466  -1.60566
   0.41747   0.37418  -0.88740
   0.17805   0.13476  -0.88740
   0.41747   0.37418  -0.40856
   0.41747   0.37418  -0.16914
   0.41747   0.37418   0.07028
   0.65689   0.61361   0.30970
   0.41747   0.37418   0.30970
   0.65689   0.61361   0.78854
   0.41747   0.61361   1.02796
   0.41747   0.13476   1.02796
   0.89631   0.37418   1.50680
   0.41747   0.13476   1.26738
   0.65689   0.13476   1.50680
   0.17805   0.37418   1.50680
  -0.06137   0.13476   1.26738
   0.17805   0.37418   1.50680
  -0.30079   0.37418   1.50680
  -0.06137   0.37418   1.50680
  -0.30079   0.37418   1.50680
  -0.30079   0.13476   1.50680
   0.17805   0.61361   1.74622
  -0.30079   0.37418   1.50680
   0.17805   0.37418   1.98564
  -0.06137   0.61361   1.74622
  -0.06137   0.37418   1.98564
   0.17805   0.61361   2.22506
  -0.06137   0.13476   1.74622
   0.17805   0.13476   2.22506
   0.17805   0.13476   2.22506
  -0.06137  -0.10466   1.98564
   0.41747   0.13476   2.22506
  -0.06137  -0.10466   1.74622
   0.17805  -0.10466   2.22506
  -0.06137   0.13476   1.98564
  -0.30079  -0.34408   1.74622
   0.17805  -0.10466   1.98564
  -0.30079  -0.34408   1.50680
   0.17805  -0.34408   1.74622
   0.17805  -0.10466   1.50680
  -0.06137  -0.58350   1.26738
   0.17805  -0.34408   1.26738
  -0.30079  -0.58350   0.78854
  -0.06137  -0.34408   1.02796
  -0.06137  -0.10466   0.78854
  -0.54021  -0.34408   0.78854
  -0.06137  -0.10466   1.02796
  -0.54021  -0.10466   0.78854
  -0.06137   0.13476   1.26738
  -0.06137   0.13476   1.26738
  -0.30079  -0.10466   1.02796
   0.41747   0.37418   1.50680
  -0.06137   0.13476   1.26738
   0.17805  -0.10466   1.50680
   0.17805  -0.10466   1.26738
   0.17805  -0.58350   1.02796
   0.65689  -0.34408   1.26738
   0.17805  -0.82292   0.78854
   0.41747  -0.82292   0.78854
   0.41747  -0.82292   0.54912
   0.17805  -0.82292   0.30970
   0.41747  -0.58350   0.30970
  -0.06137  -0.82292  -0.16914
   0.17805  -0.58350   0.07028
   0.17805  -0.34408  -0.16914
  -0.06137  -0.58350  -0.40856
   0.41747  -0.34408  -0.16914
  -0.06137  -0.34408  -0.64798
   0.41747  -0.10466  -0.40856
   0.41747   0.13476  -0.40856
   0.41747  -0.10466  -0.64798
   0.65689   0.37418  -0.40856
   0.41747   0.13476  -0.88740
   0.65689   0.37418  -0.64798
   0.65689   0.37418  -0.64798
   0.41747   0.13476  -0.88740
   0.89631   0.37418  -0.64798
   0.41747   0.13476  -1.12682
   0.65689   0.13476  -0.88740
   0.41747   0.13476  -1.12682
  -0.06137  -0.10466  -1.36624
   0.41747   0.13476  -0.88740
  -0.06137  -0.10466  -1.36624
  -0.06137  -0.10466  -1.12682
  -0.06137  -0.10466  -0.88740
  -0.30079  -0.58350  -1.12682
   0.17805  -0.10466  -0.64798
  -0.06137  -0.34408  -1.12682
   0.41747  -0.34408  -0.88740
   0.65689  -0.34408  -0.88740
   0.17805  -0.58350  -1.12682
   0.65689  -0.34408  -0.88740
   0.41747  -0.34408  -1.36624
   0.65689  -0.10466  -1.12682
   0.65689  -0.10466  -1.12682
   0.65689  -0.10466  -1.36624
   0.89631   0.13476  -1.12682
   0.41747   0.13476  -1.60566
   0.65689   0.13476  -1.36624
   0.89631   0.37418  -1.12682
   0.41747   0.13476  -1.36624
   0.65689   0.61361  -0.88740
   0.41747   0.37418  -1.12682
   0.89631   0.37418  -0.88740
   0.89631   0.37418  -0.88740
   0.41747   0.13476  -0.88740
   0.89631   0.37418  -0.40856
   0.41747   0.37418  -0.64798
   0.65689   0.37418  -0.40856
   0.65689   0.61361  -0.16914
   0.65689   0.37418  -0.40856
   0.89631   0.61361  -0.16914
   0.65689   0.13476  -0.40856
   0.89631   0.13476  -0.16914
   0.65689   0.37418  -0.16914
   0.41747   0.13476  -0.40856
   0.89631   0.37418  -0.16914
   0.41747  -0.10466  -0.40856
   0.41747  -0.10466  -0.16914
   0.65689  -0.10466  -0.16914
   0.17805  -0.34408  -0.40856
   0.41747  -0.10466  -0.16914
  -0.06137  -0.34408  -0.40856
   0.17805  -0.10466  -0.40856
   0.17805   0.13476  -0.40856
  -0.30079  -0.10466  -0.64798
  -0.06137   0.37418  -0.40856
  -0.54021   0.13476  -0.64798
  -0.54021   0.37418  -0.64798
  -0.54021   0.37418  -0.64798
  -0.77963   0.37418  -0.64798
  -0.54021   0.61361  -0.40856
  -0.77963   0.13476  -0.64798
  -0.54021   0.13476  -0.40856
  -0.54021   0.13476  -0.16914
  -0.77963  -0.10466  -0.16914
  -0.30079   0.13476   0.07028
  -0.54021  -0.10466   0.07028
  -0.30079  -0.10466   0.30970
  -0.30079  -0.10466   0.30970
  -0.54021  -0.34408   0.30970
  -0.06137  -0.10466   0.78854
  -0.54021  -0.34408   0.54912
  -0.30079  -0.34408   0.78854
  -0.30079  -0.10466   0.78854
  -0.54021  -0.58350   0.54912
  -0.06137  -0.10466   1.02796
  -0.54021  -0.34408   0.78854
  -0.30079  -0.34408   0.78854
  -0.06137  -0.10466   1.02796
  -0.54021  -0.34408   0.78854
  -0.30079  -0.10466   1.26738
  -0.77963  -0.34408   1.02796
  -0.54021  -0.34408   1.26738
  -0.54021  -0.10466   1.26738
  -1.01905  -0.58350   1.02796
  -0.77963  -0.34408   1.26738
  -1.25847  -0.58350   1.02796
  -1.25847  -0.58350   1.02796
  -1.25847  -0.58350   1.26738
  -1.49789  -0.82292   1.02796
  -1.01905  -0.58350   1.26738
  -1.25847  -0.82292   1.02796
  -1.01905  -0.82292   1.02796
  -0.77963  -0.34408   1.02796
  -1.01905  -0.82292   1.02796
  -0.30079  -0.34408   1.26738
  -0.30079  -0.58350   1.02796
  -0.06137  -0.34408   1.26738
   0.17805  -0.10466   1.26738
  -0.06137  -0.34408   1.02796
   0.41747   0.13476   1.50680
   0.17805   0.13476   1.26738
   0.17805   0.13476   1.50680
   0.17805   0.37418   1.74622
  -0.30079   0.37418   1.50680
  -0.06137   0.85303   1.74622
  -0.30079   0.61361   1.50680
  -0.54021   0.85303   1.74622
  -0.30079   1.09245   1.50680
  -0.54021   0.85303   1.26738
  -0.30079   0.85303   1.26738
  -0.54021   0.85303   1.02796
  -0.30079   0.61361   0.78854
  -0.30079   0.85303   0.78854
  -0.54021   0.13476   0.30970
  -0.06137   0.37418   0.54912
  -0.30079   0.13476   0.07028
  -0.06137  -0.10466   0.07028
   0.17805  -0.10466   0.30970
  -0.06137  -0.34408   0.07028
   0.41747  -0.34408   0.54912
   0.17805  -0.34408   0.07028
   0.41747  -0.58350   0.30970
   0.65689  -0.34408   0.30970
   0.41747  -0.58350   0.07028
   0.89631  -0.34408   0.30970
   0.65689  -0.58350   0.07028
   0.89631  -0.58350   0.07028
   1.13573  -0.34408   0.07028
   0.89631  -0.58350  -0.64798
   1.37515  -0.34408  -0.40856
   1.13573  -0.10466  -1.12682
   1.37515  -0.34408  -1.12682
   1.37515   0.13476  -1.36624
   1.13573  -0.10466  -1.84508
   1.37515   0.37418  -1.84508
   0.89631   0.37418  -2.32392
   0.89631   0.37418  -2.56334
   1.13573   0.61361  -2.56334
   0.65689   0.37418  -2.80276
   0.89631   0.61361  -2.80276
   0.41747   0.61361  -3.04218
   0.65689   0.37418  -3.04218
   0.65689   0.61361  -3.04218
   0.41747   0.61361  -3.28160
   0.65689   0.37418  -3.04218
   0.41747   0.37418  -3.04218
   0.41747   0.13476  -2.80276
   0.65689   0.13476  -2.56334
   0.17805  -0.10466  -2.80276
   0.65689  -0.10466  -2.32392
   0.41747  -0.10466  -2.56334
   0.41747  -0.34408  -2.56334
   0.65689  -0.10466  -2.32392
   0.41747  -0.34408  -2.56334
   0.65689  -0.34408  -2.32392
   0.41747  -0.10466  -2.32392
   0.65689  -0.10466  -2.32392
   0.89631  -0.10466  -2.08450
   0.17805  -0.34408  -2.32392
   0.89631  -0.10466  -1.84508
   0.41747  -0.10466  -2.08450
   0.41747  -0.10466  -1.84508
   0.41747   0.13476  -1.84508
  -0.06137  -0.10466  -2.08450
   0.17805   0.13476  -1.36624
  -0.30079   0.13476  -1.60566
  -0.54021  -0.10466  -1.36624
  -0.30079   0.13476  -0.88740
  -1.01905  -0.10466  -1.12682
  -0.77963   0.13476  -0.64798
  -1.01905  -0.10466  -0.40856
  -1.01905  -0.10466  -0.40856
  -0.77963   0.13476   0.07028
  -1.25847  -0.34408  -0.16914
  -0.77963  -0.10466   0.54912
  -1.25847  -0.10466   0.54912
  -1.01905  -0.34408   0.54912
  -0.77963   0.13476   0.78854
  -1.49789  -0.34408   0.78854
  -1.01905  -0.10466   1.26738
  -1.25847  -0.10466   1.02796
  -1.49789  -0.10466   1.26738
  -1.25847   0.13476   1.74622
  -1.49789  -0.10466   1.50680
  -1.25847  -0.10466   1.98564
  -1.49789   0.13476   1.98564
  -1.25847  -0.10466   2.22506
  -0.77963   0.13476   2.46448
  -1.25847  -0.34408   2.46448
  -0.54021  -0.10466   2.94332
  -0.77963  -0.34408   2.70390
  -0.54021  -0.34408   2.94332
  -0.30079  -0.10466   3.42216
  -0.54021  -0.58350   3.18274
  -0.30079  -0.34408   3.42216
  -0.30079  -0.34408   3.42216
  -0.54021  -0.58350   3.42216
  -0.30079  -0.10466   3.42216
  -0.77963  -0.34408   3.18274
  -0.30079  -0.10466   3.42216
  -0.54021  -0.10466   3.18274
  -0.54021  -0.34408   3.18274
  -0.30079   0.13476   3.42216
  -0.54021  -0.10466   3.18274
  -0.30079   0.13476   3.42216
  -0.30079   0.37418   3.18274
  -0.30079   0.13476   3.18274
  -0.06137   0.61361   3.18274
  -0.54021   0.37418   2.94332
  -0.06137   0.61361   2.94332
  -0.06137   0.61361   2.70390
  -0.30079   0.37418   2.46448
   0.17805   0.61361   2.70390
  -0.30079   0.37418   2.22506
   0.17805   0.37418   2.22506
  -0.06137   0.37418   1.98564
   0.17805   0.37418   1.74622
   0.41747   0.61361   1.98564
  -0.06137   0.37418   1.26738
   0.41747   0.37418   1.50680
   0.41747   0.37418   1.02796
   0.41747   0.13476   0.78854
   0.65689   0.37418   0.78854
   0.17805   0.13476   0.30970
   0.41747   0.13476   0.30970
   0.17805   0.13476  -0.16914
   0.17805  -0.10466  -0.16914
   0.17805   0.13476  -0.16914
  -0.06137  -0.10466  -0.64798
  -0.06137   0.13476  -0.64798
  -0.06137   0.13476  -0.88740
  -0.30079  -0.10466  -1.12682
  -0.06137   0.13476  -1.12682
  -0.30079  -0.10466  -1.60566
   0.17805  -0.10466  -1.60566
  -0.06137  -0.10466  -1.84508
  -0.06137  -0.34408  -2.08450
   0.41747  -0.10466  -2.08450
   0.17805  -0.34408  -2.56334
   0.65689  -0.34408  -2.32392
   0.41747  -0.10466  -2.80276
   0.41747  -0.58350  -3.04218
   0.65689  -0.34408  -2.80276
   0.41747  -0.58350  -3.28160
   0.65689  -0.34408  -3.28160
   0.65689  -0.10466  -3.52102
   0.41747  -0.34408  -3.76044
   0.89631  -0.10466  -3.52102
   0.41747  -0.34408  -3.99986
   0.65689  -0.10466  -3.76044
   0.65689   0.13476  -3.99986
   0.65689  -0.10466  -3.99986
   0.89631   0.37418  -3.76044
   0.65689  -0.10466  -3.99986
   0.65689   0.13476  -3.52102
   0.65689   0.13476  -3.52102
   0.41747  -0.10466  -3.28160
   0.65689   0.13476  -3.04218
   0.17805  -0.10466  -3.28160
   0.41747   0.13476  -2.80276
   0.17805   0.13476  -2.80276
   0.17805  -0.10466  -2.56334
   0.41747   0.13476  -2.08450
   0.17805   0.13476  -2.32392
   0.41747   0.13476  -1.84508
   0.41747   0.37418  -1.60566
   0.17805  -0.10466  -1.60566
   0.65689   0.13476  -1.12682
   0.41747  -0.10466  -1.60566
   0.65689   0.13476  -0.88740
   0.65689  -0.10466  -0.88740
   0.41747  -0.34408  -0.88740
   0.65689  -0.10466  -0.40856
   0.17805  -0.34408  -0.40856
   0.41747  -0.10466  -0.16914
   0.41747  -0.10466   0.07028
   0.17805  -0.34408   0.07028
   0.41747   0.13476   0.30970
  -0.06137  -0.10466   0.07028
   0.17805   0.13476   0.30970
   0.17805   0.37418   0.30970
  -0.06137   0.37418   0.30970
   0.41747   0.61361   0.54912
   0.17805   0.61361   0.30970
   0.17805   0.61361   0.54912
   0.17805   0.85303   0.54912
  -0.06137   0.61361   0.54912
   0.17805   0.85303   1.02796
  -0.30079   0.37418   0.78854
  -0.06137   0.13476   1.02796
  -0.06137   0.13476   1.26738
  -0.54021  -0.10466   1.02796
  -0.06137   0.13476   1.74622
  -0.54021  -0.34408   1.50680
  -0.30079  -0.10466   1.98564
  -0.54021  -0.34408   2.22506
  -0.77963  -0.58350   2.22506
  -0.54021  -0.34408   2.70390
  -1.01905  -0.58350   2.46448
  -0.77963  -0.58350   2.94332
  -0.77963  -0.34408   3.18274
  -0.77963  -0.34408   3.18274
  -0.30079  -0.10466   3.42216
  -0.77963  -0.34408   3.42216
  -0.30079  -0.10466   3.66158
  -0.30079  -0.10466   3.66158
  -0.30079  -0.10466   3.42216
   0.17805   0.13476   3.66158
  -0.30079  -0.34408   3.18274
   0.17805  -0.10466   3.18274
   0.17805   0.13476   2.94332
  -0.06137  -0.34408   2.70390
   0.17805  -0.10466   2.70390
  -0.06137  -0.10466   2.22506
  -0.06137  -0.10466   2.22506
  -0.06137   0.13476   2.22506
  -0.30079  -0.10466   1.74622
  -0.06137   0.13476   1.98564
  -0.54021   0.13476   1.74622
  -0.30079   0.37418   1.74622
  -0.54021   0.61361   1.74622
  -0.77963   0.13476   1.50680
  -0.54021   0.61361   1.74622
  -1.01905   0.37418   1.50680
  -0.54021   0.37418   1.50680
  -0.54021   0.37418   1.50680
  -0.77963  -0.10466   1.26738
  -0.30079   0.13476   1.26738
  -0.54021   0.13476   1.02796
  -0.30079   0.13476   1.02796
  -0.06137   0.13476   0.78854
  -0.54021  -0.34408   0.30970
  -0.06137  -0.10466   0.54912
  -0.54021  -0.10466  -0.16914
  -0.54021  -0.10466  -0.16914
  -0.54021  -0.10466  -0.40856
  -0.77963  -0.34408  -0.88740
  -0.54021  -0.10466  -0.64798
  -0.77963  -0.34408  -1.12682
  -0.77963  -0.34408  -1.12682
  -0.77963  -0.34408  -1.12682
  -1.01905  -0.34408  -1.36624
  -0.54021  -0.10466  -1.12682
  -0.77963  -0.10466  -1.60566
  -0.54021  -0.10466  -1.36624
  -0.06137  -0.10466  -1.36624
  -0.30079  -0.10466  -1.60566
   0.41747   0.13476  -1.36624
  -0.06137   0.13476  -1.60566
   0.41747   0.13476  -1.36624
   0.65689   0.37418  -1.36624
   0.41747   0.13476  -1.60566
   0.89631   0.13476  -1.36624
   0.41747   0.13476  -1.84508
   0.65689   0.13476  -1.36624
   0.65689   0.13476  -1.60566
   0.41747  -0.10466  -2.08450
   0.65689   0.13476  -1.60566
   0.41747   0.13476  -2.08450
   0.65689  -0.10466  -1.84508
   0.65689   0.13476  -1.84508
   0.41747  -0.10466  -2.08450
   0.89631   0.13476  -1.84508
   0.65689   0.13476  -2.08450
   0.89631   0.13476  -1.84508
   1.13573   0.37418  -1.84508
   0.89631   0.13476  -2.08450
   1.13573   0.37418  -1.84508
   0.89631   0.13476  -2.08450
   1.13573   0.13476  -1.60566
   1.13573   0.61361  -1.60566
   0.89631   0.37418  -1.84508
   1.13573   0.61361  -1.36624
   0.89631   0.61361  -1.60566
   1.13573   0.37418  -1.36624
   1.13573   0.85303  -1.12682
   0.65689   0.37418  -1.36624
   0.89631   0.61361  -0.88740
   0.65689   0.37418  -1.12682
   0.65689   0.37418  -0.88740
   0.41747   0.61361  -0.64798
   0.17805   0.13476  -0.88740
   0.41747   0.37418  -0.64798
  -0.06137   0.13476  -1.12682
  -0.06137  -0.10466  -0.64798
  -0.06137   0.13476  -0.64798
  -0.54021  -0.34408  -0.64798
  -0.06137  -0.10466  -0.40856
  -0.54021  -0.10466  -0.40856
  -0.54021  -0.34408   0.07028
  -0.30079  -0.10466   0.07028
  -0.54021  -0.34408   0.07028
  -0.06137  -0.34408   0.78854
  -0.54021  -0.34408   0.54912
  -0.30079  -0.34408   1.02796
  -0.06137  -0.34408   1.50680
  -0.54021  -0.58350   1.26738
  -0.06137  -0.34408   1.74622
