********************************************************************************
              CENTRO DE INSTRUMENTACION Y REGISTRO SISMICO  A.C.

    Anaxagoras 814, Col. Narvarte, Benito Juarez, C.P. 03020 Mexico, D.F.
           Tels. 5687 45 42/ 5687 45  82             Fax. 5669 25 12
********************************************************************************
ARCHIVO ESTANDAR DE ACELERACION:
VERSION DEL FORMATO                    : 2.0
NOMBRE DEL ARCHIVO                     : AO2419890310051951
FECHA Y HORA DE CREACION               : 30/ABR/18, 13:12
REF. CATALOGO ACELEROGRAMAS, SMIS 1996 : REGISTRO No.     /PAG.


================================================================================
DATOS DE LA ESTACION:
NOMBRE DE LA ESTACION                  : ALBERCA OL�MPICA
CLAVE DE LA ESTACION                   : AO24
LOCALIZACION DE LA ESTACION            : Del. Benito Ju�rez, Col. General Pedro 
                                       : Mar�a Anaya, R�o Churubusco            
                                       : y Divisi�n del Norte.                  
                                       :                                        
                                       : 
COORDENADAS DE LA ESTACION             : 19.3580 LAT. N
                                       : 99.1539 LONG. W
ALTITUD (msnm)                         : 2235
TIPO DE SUELO                          : Transici�n                          
                                       :                           
                                       : 
INSTITUCION RESPONSABLE                : CIRES
                                       : 

================================================================================
DATOS DEL ACELEROGRAFO:
MODELO DEL ACELEROGRAFO                : DCA-333
NUMERO DE SERIE DEL ACELEROGRAFO       : 215
NUMERO DE CANALES                      : 3
ORIENTACION C1-C6 (rumbo;orientacion)  : /N00E/+V/N90W
ORIENTACION C7-C12 (rumbo;orientacion) : 
VEL. DE MUESTREO, C1-C6 (muestras/s)   : /100/100/100
VEL. DE MUESTREO, C7-C12 (muestras/s)  : 
ESC. COMPLETA DE SENSORES, C1-C6, (g)  : /0.5/0.5/0.5
ESC. COMPLETA DE SENSORES, C7-C12, (g) : 
FREC. NAT. DE SENSORES, C1-C6, (Hz)    : /30/30/30
FREC. NAT. DE SENSORES, C7-C12, (Hz)   : 
AMORTIGUAMIENTO DE SENSORES, C1-C6     : /0.700/0.700/0.700
AMORTIGUAMIENTO DE SENSORES, C7-C12    : 
INTERVALO DE MUESTREO, C1-C6, (s)      : /0.01/0.01/0.01
INTERVALO DE MUESTREO, C7-C12, (s)     : 
UMBRAL DE DISPARO, C1-C6, (Gal)        : /2.2/2.93/2.2
UMBRAL DE DISPARO, C7-C12, (Gal)       : 
MEMORIA DE PREEVENTO (s)               : 4.0
TIEMPO DE POSEVENTO (s)                : 15.0


================================================================================
DATOS DEL SISMO:
FECHA DEL SISMO (GMT)                  : 10/MAR/89
HORA EPICENTRO (GMT)                   : 05:19:51.0
MAGNITUD(ES)                           : /Mc=5.0
COORDENADAS DEL EPICENTRO              : 17.44 LAT. N
                                       : 101.08 LONG. W
PROFUNDIDAD FOCAL (km)                 : 17
FUENTE DE LOS DATOS EPICENTRALES       : SSN
                                       : INSTITUTO DE GEOFISICA, UNAM

================================================================================
DATOS DE ESTE REGISTRO:
HORA DE LA PRIMERA MUESTRA (GMT)       : 05:21:25.03
EXACTITUD DEL TIEMPO (s)               : 0.01
DURACION DEL REGISTRO (s), C1-C6       : /16.05/16.05/16.05
DURACION DEL REGISTRO (s), C7-C12      : 
NUM. TOTAL DE MUESTRAS, C1-C6          : /1605/1605/1605
NUM. TOTAL DE MUESTRAS, C7-C12         : 
ACEL. MAX. (Gal), C1-C6                : /1.44323/0.76525/1.99472
ACEL. MAX., C1-C6, EN LA MUESTRA       : /400/216/389
ACEL. MAX. (Gal), C7-C12               : 
ACEL. MAX., C7-C12, EN LA MUESTRA      : 
UNIDADES DE LOS DATOS                  : Gal (cm/s/s)
FACTOR DE DECIMACION                   : 1
FORMATO DATOS (FORTRAN,10 campos/dato) : 3F10.5


================================================================================
CALIDAD DEL ACELEROGRAMA:
REGISTRO DIGITAL COMPLETO CON TIEMPO ABSOLUTO CORRECTO.


================================================================================
COMENTARIOS:














================================================================================
DATOS DE ACELERACION:
---------+---------+---------+---------+---------+---------+---------+---------+
   CANAL-1   CANAL-2   CANAL-3   CANAL-4   CANAL-5   CANAL-6   CANAL-7   CANAL-8
      N00E        +V      N90W
---------+---------+---------+---------+---------+---------+---------+---------+
  -0.71155  -0.19243  -0.16006
  -0.71155  -0.67127  -0.16006
  -0.71155  -0.19243  -0.16006
  -0.71155  -0.43185  -0.16006
  -0.71155  -0.19243  -0.16006
  -0.47213  -0.19243  -0.39948
  -0.47213  -0.19243  -0.16006
  -0.47213  -0.19243  -0.16006
  -0.47213   0.04699  -0.16006
  -0.47213   0.04699  -0.16006
  -0.47213   0.04699  -0.16006
  -0.47213   0.04699  -0.16006
  -0.47213   0.28641  -0.16006
  -0.47213   0.28641  -0.16006
  -0.47213   0.28641  -0.16006
  -0.47213   0.28641  -0.16006
  -0.47213   0.28641  -0.16006
  -0.47213   0.28641   0.07936
  -0.47213   0.04699   0.07936
  -0.23271   0.04699   0.07936
  -0.23271  -0.19243   0.07936
  -0.23271  -0.19243   0.07936
  -0.23271  -0.19243   0.07936
  -0.23271  -0.19243   0.07936
  -0.23271  -0.43185   0.07936
  -0.23271  -0.43185   0.31878
  -0.23271  -0.43185   0.31878
  -0.23271  -0.43185   0.31878
  -0.23271  -0.19243   0.31878
  -0.23271  -0.43185   0.31878
  -0.23271  -0.43185   0.55820
  -0.23271  -0.43185   0.55820
  -0.23271  -0.43185   0.55820
  -0.23271  -0.19243   0.55820
   0.00671  -0.43185   0.55820
   0.00671  -0.43185   0.55820
   0.00671  -0.43185   0.55820
   0.24613  -0.43185   0.55820
   0.24613  -0.43185   0.55820
   0.48555  -0.19243   0.55820
   0.48555  -0.19243   0.55820
   0.48555  -0.19243   0.55820
   0.72497  -0.19243   0.55820
   0.72497  -0.19243   0.55820
   0.96439   0.04699   0.31878
   0.96439   0.04699   0.31878
   0.96439   0.28641   0.31878
   0.96439   0.28641   0.31878
   0.72497   0.28641   0.31878
   0.72497   0.28641   0.07936
   0.72497   0.28641   0.07936
   0.48555   0.52583  -0.16006
   0.48555   0.52583  -0.16006
   0.48555   0.28641  -0.16006
   0.48555   0.28641  -0.16006
   0.24613   0.28641  -0.39948
   0.24613   0.28641  -0.39948
   0.24613   0.04699  -0.39948
   0.24613   0.04699  -0.39948
   0.24613   0.04699  -0.39948
   0.24613   0.04699  -0.39948
   0.24613  -0.19243  -0.63890
   0.24613  -0.19243  -0.63890
   0.24613  -0.19243  -0.63890
   0.48555  -0.67127  -0.39948
   0.48555  -0.19243  -0.39948
   0.48555  -0.19243  -0.39948
   0.48555  -0.19243  -0.39948
   0.48555  -0.19243  -0.39948
   0.48555  -0.19243  -0.39948
   0.24613  -0.19243  -0.39948
   0.24613  -0.19243  -0.39948
   0.24613  -0.19243  -0.39948
   0.00671  -0.19243  -0.39948
   0.00671   0.04699  -0.39948
   0.00671  -0.19243  -0.39948
   0.00671   0.04699  -0.39948
   0.00671  -0.19243  -0.39948
   0.00671   0.04699  -0.39948
  -0.23271   0.04699  -0.63890
   0.00671   0.04699  -0.63890
   0.00671   0.04699  -0.63890
   0.24613   0.04699  -0.63890
   0.24613   0.04699  -0.63890
   0.24613   0.04699  -0.63890
   0.24613   0.28641  -0.63890
   0.24613   0.04699  -0.63890
   0.24613   0.04699  -0.63890
   0.24613   0.04699  -0.63890
   0.00671   0.04699  -0.63890
   0.00671   0.04699  -0.63890
   0.00671   0.04699  -0.39948
  -0.23271   0.04699  -0.16006
  -0.47213   0.04699  -0.16006
  -0.47213   0.04699  -0.16006
  -0.47213   0.04699   0.07936
  -0.71155  -0.19243   0.07936
  -0.71155   0.04699   0.07936
  -0.71155   0.04699   0.07936
  -0.71155  -0.19243   0.07936
  -0.71155  -0.19243   0.07936
  -0.71155  -0.19243   0.07936
  -0.71155  -0.19243   0.07936
  -1.19039  -0.19243   0.07936
  -0.95097  -0.19243   0.07936
  -0.95097  -0.19243   0.07936
  -0.95097  -0.19243   0.07936
  -0.95097  -0.19243   0.07936
  -1.42981  -0.19243   0.07936
  -0.95097  -0.19243   0.07936
  -0.95097   0.04699   0.07936
  -0.95097   0.04699   0.07936
  -0.95097   0.04699   0.07936
  -0.95097   0.28641   0.31878
  -0.95097   0.28641   0.31878
  -0.71155   0.28641   0.31878
  -0.71155   0.28641   0.07936
  -0.71155   0.28641   0.55820
  -0.71155   0.04699   0.55820
  -0.47213   0.28641   0.31878
  -0.47213   0.28641   0.55820
  -0.47213   0.52583   0.55820
  -0.23271   0.28641   0.55820
  -0.23271   0.28641   0.55820
  -0.23271   0.28641   0.55820
   0.00671   0.04699   0.55820
   0.00671   0.04699   0.55820
   0.00671   0.04699   0.55820
   0.00671  -0.19243   0.55820
   0.24613  -0.19243   0.31878
   0.24613  -0.19243   0.31878
   0.24613  -0.19243   0.31878
   0.24613  -0.43185   0.31878
   0.48555  -0.43185   0.31878
   0.24613  -0.43185   0.07936
   0.48555  -0.43185   0.07936
   0.48555  -0.43185   0.07936
   0.48555  -0.43185   0.07936
   0.48555  -0.19243   0.07936
   0.72497   0.04699  -0.39948
   0.72497  -0.19243  -0.16006
   0.48555  -0.19243  -0.16006
   0.72497   0.04699  -0.16006
   0.72497   0.04699  -0.16006
   0.72497   0.04699  -0.16006
   0.72497   0.04699   0.07936
   0.72497   0.04699   0.07936
   0.72497  -0.19243   0.07936
   0.72497   0.04699   0.07936
   0.72497  -0.19243   0.31878
   0.72497  -0.19243   0.31878
   0.72497  -0.19243   0.31878
   0.48555  -0.19243   0.31878
   0.48555  -0.19243   0.55820
   0.48555  -0.19243   0.31878
   0.48555  -0.19243   0.31878
   0.48555  -0.19243   0.31878
   0.48555  -0.19243   0.31878
   0.48555   0.04699   0.31878
   0.48555   0.04699   0.31878
   0.48555   0.04699   0.07936
   0.48555   0.28641   0.07936
   0.48555   0.28641   0.07936
   0.48555   0.28641   0.07936
   0.48555   0.28641   0.07936
   0.48555   0.28641   0.07936
   0.48555   0.28641   0.31878
   0.48555   0.04699   0.07936
   0.48555   0.28641   0.31878
   0.48555   0.28641   0.31878
   0.48555   0.28641   0.31878
   0.48555   0.04699   0.31878
   0.24613   0.04699   0.31878
   0.24613   0.04699   0.31878
   0.24613   0.04699   0.31878
   0.24613   0.04699   0.55820
   0.00671   0.04699   0.31878
   0.00671  -0.19243   0.31878
   0.00671   0.04699   0.31878
   0.00671  -0.19243   0.31878
   0.00671  -0.19243   0.31878
   0.00671  -0.19243   0.31878
   0.00671  -0.19243   0.31878
   0.00671  -0.19243   0.07936
   0.00671  -0.19243   0.07936
  -0.23271  -0.43185   0.07936
  -0.23271  -0.19243  -0.16006
  -0.23271  -0.19243  -0.16006
  -0.71155  -0.19243  -0.16006
  -0.71155  -0.19243  -0.16006
  -0.47213  -0.19243  -0.16006
  -0.71155  -0.19243  -0.16006
  -0.71155  -0.19243  -0.16006
  -0.71155   0.04699  -0.16006
  -0.71155   0.04699  -0.16006
  -0.71155  -0.19243  -0.16006
  -0.71155  -0.19243  -0.16006
  -0.71155   0.04699  -0.16006
  -0.71155   0.04699  -0.16006
  -0.71155  -0.19243   0.07936
  -0.47213  -0.19243   0.07936
  -0.47213  -0.19243  -0.16006
  -0.47213  -0.19243   0.07936
  -0.47213  -0.19243   0.07936
  -0.47213  -0.43185   0.07936
  -0.47213  -0.19243  -0.39948
  -0.71155  -0.19243  -0.16006
  -0.71155  -0.19243  -0.16006
  -0.71155  -0.19243  -0.39948
  -0.71155   0.04699  -0.39948
  -0.71155   0.04699  -0.63890
  -0.71155   0.28641  -0.63890
  -0.71155   0.28641  -0.63890
  -0.71155   0.52583  -0.87832
  -0.71155   0.52583  -0.87832
  -0.71155   0.76525  -1.11774
  -0.71155   0.76525  -0.87832
  -0.71155   0.76525  -1.11774
  -0.71155   0.76525  -1.11774
  -0.71155   0.76525  -1.11774
  -0.71155   0.52583  -1.11774
  -0.71155   0.28641  -1.11774
  -0.47213   0.52583  -1.11774
  -0.47213   0.28641  -1.11774
  -0.47213   0.28641  -1.11774
  -0.71155   0.28641  -1.11774
  -0.47213   0.04699  -0.87832
  -0.47213   0.04699  -1.35716
  -0.23271   0.04699  -1.11774
  -0.23271   0.04699  -0.87832
  -0.23271   0.04699  -0.87832
   0.00671  -0.43185  -0.87832
   0.00671  -0.19243  -0.87832
   0.00671  -0.19243  -0.87832
   0.00671  -0.19243  -0.87832
   0.00671  -0.19243  -0.87832
   0.00671  -0.19243  -0.87832
   0.00671  -0.19243  -0.87832
   0.00671  -0.19243  -0.87832
   0.00671  -0.67127  -0.63890
   0.00671  -0.19243  -0.87832
   0.00671  -0.43185  -0.63890
   0.24613  -0.19243  -0.63890
   0.24613  -0.19243  -0.39948
   0.24613  -0.19243  -0.39948
   0.24613  -0.19243  -0.39948
   0.24613  -0.19243  -0.16006
   0.48555  -0.19243  -0.16006
   0.48555  -0.19243  -0.16006
   0.48555   0.04699   0.07936
   0.48555  -0.19243   0.07936
   0.48555  -0.19243   0.31878
   0.24613  -0.19243   0.31878
   0.24613  -0.19243   0.31878
   0.24613  -0.19243   0.31878
   0.24613  -0.19243   0.55820
   0.24613  -0.19243   0.55820
   0.24613  -0.19243   0.55820
   0.24613   0.04699   0.79762
   0.24613   0.04699   0.79762
   0.24613   0.04699   0.79762
   0.24613  -0.19243   0.79762
   0.24613   0.04699   0.55820
   0.24613   0.04699   0.79762
   0.24613   0.04699   0.79762
   0.48555   0.04699   1.03704
   0.24613   0.04699   1.03704
   0.24613   0.04699   1.03704
   0.48555   0.04699   1.03704
   0.48555   0.04699   1.27646
   0.48555  -0.19243   1.27646
   0.48555   0.04699   1.27646
   0.48555   0.04699   1.51588
   0.24613   0.04699   1.51588
   0.00671   0.04699   1.51588
   0.24613   0.28641   1.51588
   0.24613   0.04699   1.75530
   0.00671   0.28641   1.75530
   0.00671   0.28641   1.75530
  -0.23271   0.28641   1.75530
   0.00671   0.28641   1.51588
   0.00671   0.28641   1.51588
  -0.23271   0.28641   1.51588
  -0.23271   0.28641   1.51588
  -0.23271   0.28641   1.51588
  -0.23271   0.28641   1.27646
   0.00671   0.28641   1.27646
   0.00671   0.28641   1.27646
   0.00671   0.28641   1.27646
  -0.23271   0.04699   1.03704
   0.00671   0.04699   0.79762
   0.24613  -0.19243   1.03704
   0.24613  -0.19243   1.03704
   0.24613  -0.19243   1.03704
   0.48555  -0.19243   0.79762
   0.24613  -0.19243   1.03704
   0.48555  -0.19243   0.79762
   0.48555  -0.19243   0.79762
   0.48555  -0.19243   0.79762
   0.00671  -0.19243   0.79762
   0.00671  -0.19243   0.55820
   0.48555  -0.19243   0.55820
   0.24613  -0.19243   0.55820
   0.24613   0.04699   0.55820
   0.24613   0.04699   0.31878
   0.24613  -0.19243   0.31878
   0.24613   0.04699   0.07936
   0.24613  -0.19243  -0.16006
   0.24613   0.04699  -0.16006
   0.24613   0.04699  -0.16006
   0.24613   0.04699  -0.39948
   0.24613   0.04699  -0.39948
   0.24613   0.04699  -0.39948
   0.24613   0.04699  -0.63890
   0.24613   0.28641  -0.63890
   0.24613   0.04699  -0.87832
   0.48555   0.04699  -0.87832
   0.48555   0.04699  -1.11774
   0.48555   0.04699  -1.11774
   0.48555   0.04699  -1.35716
   0.48555   0.04699  -1.35716
   0.48555   0.04699  -1.59658
   0.24613  -0.19243  -1.59658
   0.24613   0.04699  -1.59658
   0.24613  -0.19243  -1.83600
   0.24613  -0.19243  -1.83600
   0.24613  -0.19243  -1.83600
   0.00671  -0.19243  -1.83600
   0.00671  -0.19243  -1.83600
   0.00671  -0.43185  -1.83600
  -0.23271  -0.19243  -1.83600
   0.00671  -0.19243  -1.59658
  -0.23271  -0.67127  -1.59658
  -0.23271  -0.43185  -1.59658
  -0.23271  -0.43185  -1.59658
  -0.23271  -0.43185  -1.59658
  -0.23271  -0.43185  -1.59658
  -0.23271  -0.43185  -1.59658
  -0.23271  -0.43185  -1.59658
  -0.23271  -0.19243  -1.35716
  -0.47213  -0.19243  -1.35716
  -0.47213  -0.19243  -1.35716
  -0.47213   0.04699  -1.59658
  -0.47213   0.04699  -1.35716
  -0.95097   0.04699  -1.35716
  -0.71155   0.04699  -1.35716
  -0.71155   0.28641  -1.35716
  -0.71155   0.28641  -1.11774
  -0.71155   0.04699  -1.35716
  -0.71155   0.28641  -1.35716
  -0.71155   0.28641  -1.35716
  -0.71155   0.28641  -1.35716
  -0.71155   0.28641  -1.11774
  -0.71155   0.28641  -1.11774
  -0.71155   0.28641  -1.11774
  -0.71155   0.28641  -1.35716
  -0.71155   0.28641  -1.11774
  -0.71155   0.28641  -1.11774
  -0.71155   0.28641  -1.11774
  -0.71155   0.28641  -0.87832
  -0.71155   0.28641  -0.87832
  -0.71155   0.04699  -0.63890
  -0.71155   0.28641  -0.63890
  -0.71155   0.28641  -0.39948
  -0.71155   0.28641  -0.39948
  -0.71155   0.28641  -0.16006
  -0.47213   0.28641   0.07936
  -0.47213   0.28641   0.07936
  -0.47213   0.28641   0.07936
  -0.47213   0.28641   0.31878
  -0.47213   0.28641   0.31878
  -0.23271   0.04699   0.31878
  -0.23271   0.28641   0.55820
   0.00671   0.04699   0.55820
   0.00671   0.04699   0.79762
   0.00671   0.04699   0.79762
   0.24613   0.04699   1.03704
   0.24613   0.04699   1.03704
   0.24613  -0.19243   1.03704
   0.24613  -0.19243   1.27646
   0.24613   0.04699   1.27646
   0.48555   0.04699   1.27646
   0.24613  -0.19243   1.51588
   0.48555  -0.19243   1.51588
   0.48555  -0.19243   1.75530
   0.48555  -0.19243   1.75530
   0.48555  -0.19243   1.75530
   0.72497  -0.19243   1.75530
   0.72497   0.04699   1.99472
   0.72497  -0.19243   1.99472
   0.72497  -0.19243   1.99472
   0.72497  -0.43185   1.99472
   0.96439  -0.19243   1.99472
   0.96439   0.04699   1.75530
   0.96439  -0.19243   1.99472
   1.20381  -0.19243   1.99472
   0.96439  -0.19243   1.99472
   1.20381  -0.19243   1.99472
   1.20381  -0.19243   1.75530
   1.44323  -0.19243   1.75530
   1.20381  -0.19243   1.75530
   1.20381  -0.19243   1.75530
   1.20381   0.04699   1.75530
   1.20381   0.04699   1.75530
   0.96439   0.04699   1.51588
   0.96439   0.04699   1.51588
   0.96439   0.04699   1.51588
   0.96439   0.04699   1.51588
   0.72497   0.04699   1.51588
   0.72497   0.28641   1.51588
   0.48555   0.28641   1.27646
   0.48555   0.28641   1.27646
   0.48555   0.28641   1.27646
   0.48555   0.28641   1.03704
   0.24613   0.28641   1.03704
   0.24613   0.28641   1.03704
   0.00671  -0.19243   0.79762
   0.00671   0.04699   0.55820
   0.00671   0.04699   0.55820
   0.00671  -0.19243   0.31878
   0.00671  -0.19243   0.31878
  -0.23271  -0.19243   0.07936
   0.00671  -0.19243  -0.16006
  -0.23271  -0.19243  -0.16006
  -0.23271  -0.19243  -0.39948
  -0.23271  -0.19243  -0.39948
  -0.23271   0.04699  -0.63890
  -0.23271   0.04699  -0.63890
  -0.23271   0.04699  -0.63890
  -0.47213   0.28641  -0.87832
  -0.47213   0.28641  -0.87832
  -0.47213   0.28641  -0.87832
  -0.47213   0.28641  -1.11774
  -0.71155   0.28641  -1.11774
  -0.95097   0.28641  -1.11774
  -0.71155   0.52583  -1.11774
  -0.71155   0.28641  -1.11774
  -0.71155   0.28641  -1.35716
  -0.71155   0.28641  -1.35716
  -0.71155   0.04699  -1.35716
  -0.71155   0.04699  -1.35716
  -0.71155   0.04699  -1.35716
  -0.71155   0.04699  -1.83600
  -0.71155  -0.19243  -1.35716
  -0.71155  -0.43185  -1.35716
  -0.71155  -0.19243  -1.35716
  -0.71155  -0.19243  -1.35716
  -0.71155  -0.19243  -1.35716
  -0.71155  -0.19243  -1.35716
  -0.71155  -0.19243  -1.35716
  -0.71155  -0.19243  -1.35716
  -0.71155  -0.19243  -1.35716
  -0.71155  -0.19243  -1.35716
  -0.71155   0.04699  -1.11774
  -0.71155   0.04699  -1.11774
  -0.95097   0.04699  -1.11774
  -0.71155   0.04699  -1.11774
  -0.71155   0.04699  -1.11774
  -0.71155  -0.19243  -1.11774
  -0.71155   0.04699  -1.11774
  -0.71155   0.04699  -1.11774
  -0.71155   0.04699  -0.87832
  -0.47213  -0.19243  -0.87832
  -0.47213  -0.19243  -0.87832
  -0.47213   0.04699  -0.87832
  -0.47213   0.04699  -0.87832
  -0.23271  -0.19243  -0.87832
  -0.23271  -0.19243  -0.63890
  -0.23271  -0.19243  -0.63890
   0.00671  -0.19243  -0.63890
   0.00671  -0.19243  -0.63890
   0.00671  -0.19243  -0.39948
   0.00671  -0.19243  -0.63890
   0.00671  -0.67127  -0.39948
   0.24613  -0.19243  -0.39948
   0.24613  -0.19243  -0.39948
   0.24613   0.04699  -0.16006
   0.24613   0.04699  -0.16006
   0.00671   0.04699   0.07936
   0.24613   0.04699   0.07936
   0.24613   0.04699   0.07936
   0.00671   0.04699   0.31878
   0.24613   0.04699   0.31878
   0.00671   0.04699   0.55820
   0.00671   0.04699   0.55820
   0.24613   0.04699   0.55820
   0.24613   0.04699   0.79762
   0.24613   0.04699   0.79762
   0.24613   0.04699   0.79762
   0.24613   0.04699   0.79762
   0.48555   0.04699   0.79762
   0.48555   0.04699   0.79762
   0.48555  -0.19243   0.79762
   0.72497  -0.19243   0.79762
   0.72497  -0.19243   0.79762
   0.72497  -0.19243   0.79762
   0.72497  -0.19243   0.79762
