********************************************************************************
               CENTRO DE INSTRUMENTACION Y REGISTRO SISMICO  A.C.  
                       Coordinacion de Servicios Tecnicos
     Anaxagoras 814, Col. Narvarte, Benito Juarez, C.P. 03020 Mexico, D.F.
            Tels. 687 45 42/ 687 45  82             Fax. 669 25 12
********************************************************************************
ARCHIVO ESTANDAR DE ACELERACION:
VERSION DEL FORMATO                    : 2.0
NOMBRE DEL ARCHIVO                     : AO240007.211
FECHA Y HORA DE CREACION               : 12/JUL/04, 9:05
REF. CATALOGO ACELEROGRAMAS, SMIS 1996 : REGISTRO No.     /PAG.


================================================================================
DATOS DE LA ESTACION:
NOMBRE DE LA ESTACION                  : ALBERCA OLIMPICA
CLAVE DE LA ESTACION                   : AO24
LOCALIZACION DE LA ESTACION            : Alberca Olimpica Rio Churubusco y
                                       : Division del Norte, Col Pedro Ma
                                       : Anaya, Benito Juarez
                                       :
                                       :
COORDENADAS DE LA ESTACION             : 19.358 LAT. N 
                                       : 99.154 LONG. W 
ALTITUD (msnm)                         : 2235
TIPO DE SUELO                          : TRANSICION
                                       : 
                                       : 
INSTITUCION RESPONSABLE                : CIRES
                                       :

================================================================================
DATOS DEL ACELEROGRAFO:
MODELO DEL ACELEROGRAFO                : RAD-851
NUMERO DE SERIE DEL ACELEROGRAFO       : 257
NUMERO DE CANALES                      : 3
ORIENTACION C1-C6 (rumbo;orientacion)  : /N00E/+V/N90W
ORIENTACION C7-C12 (rumbo;orientacion) :
VEL. DE MUESTREO, C1-C6 (muestras/s)   : /100/100/100
VEL. DE MUESTREO, C7-C12 (muestras/s)  :
ESC. COMPLETA DE SENSORES, C1-C6, (g)  : /0.5/0.5/0.5
ESC. COMPLETA DE SENSORES, C7-C12, (g) :
FREC. NAT. DE SENSORES, C1-C6, (Hz)    : /30/30/30
FREC. NAT. DE SENSORES, C7-C12, (Hz)   :
AMORTIGUAMIENTO DE SENSORES, C1-C6     : /0.700/0.700/0.700
AMORTIGUAMIENTO DE SENSORES, C7-C12    :
INTERVALO DE MUESTREO, C1-C6, (s)      : /0.01/0.01/0.01
INTERVALO DE MUESTREO, C7-C12, (s)     :
UMBRAL DE DISPARO, C1-C6, (Gal)        : /1.95/2.93/1.95
UMBRAL DE DISPARO, C7-C12, (Gal)       :
MEMORIA DE PREEVENTO (s)               : 24
TIEMPO DE POSEVENTO (s)                : 64


================================================================================
DATOS DEL SISMO:
FECHA DEL SISMO (GMT)                  : 21/JUL/00
HORA EPICENTRO (GMT)                   : 06:13:39:7
MAGNITUD(ES)                           : /Mb=5.4/Ms=5.1/Mc=5.4/Ma=5.5/Me=6.0
COORDENADAS DEL EPICENTRO              : 18.09 LAT. N
                                       : 98.97 LONG. W
PROFUNDIDAD FOCAL (km)                 : 48
FUENTE DE LOS DATOS EPICENTRALES       : SSN
                                       : INSTITUTO DE GEOFISICA, UNAM

================================================================================
DATOS DE ESTE REGISTRO:
HORA DE LA PRIMERA MUESTRA (GMT)       : 06:14:01.00
EXACTITUD DEL TIEMPO (s)               : 0.01
DURACION DEL REGISTRO (s), C1-C6       : /136.75/136.75/136.75
DURACION DEL REGISTRO (s), C7-C12      :
NUM. TOTAL DE MUESTRAS, C1-C6          : /13675/13675/13675
NUM. TOTAL DE MUESTRAS, C7-C12         :
ACEL. MAX. (Gal), C1-C6                : /-10.26597/5.05408/-10.35228
ACEL. MAX., C1-C6, EN LA MUESTRA       :
ACEL. MAX. (Gal), C7-C12               :
ACEL. MAX., C7-C12, EN LA MUESTRA      :
UNIDADES DE LOS DATOS                  : Gal (cm/s/s)
FACTOR DE DECIMACION                   : 1
FORMATO DATOS (FORTRAN,10 campos/dato) : 3F10.5


================================================================================
CALIDAD DEL ACELEROGRAMA:
REGISTRO DIGITAL COMPLETO CON TIEMPO ABSOLUTO CORRECTO.


================================================================================
COMENTARIOS:














================================================================================
DATOS DE ACELERACION:
---------+---------+---------+---------+---------+---------+---------+---------+
   CANAL-1   CANAL-2   CANAL-3   CANAL-4   CANAL-5   CANAL-6   CANAL-7   CANAL-8
      N00E        +V      N90W
---------+---------+---------+---------+---------+---------+---------+---------+
[...]
   3.62033  -0.21314   1.61866
   3.85975   0.02628   1.13983
   4.09917   0.02628   0.66099
   3.85975   0.26570   0.42157
   3.38091   0.26570  -0.05727
   2.18382   0.50512  -0.05727
   0.98672   0.98395  -0.53611
   0.02905   1.22337  -1.01494
  -0.44979   1.22337  -1.73320
  -0.68921   1.22337  -2.21204
  -0.68921   0.98395  -2.93030
  -0.68921   0.50512  -3.16971
  -0.21037   0.50512  -3.40913
   0.26846   0.26570  -3.88797
   0.98672   0.50512  -3.40913
   1.22614   0.50512  -3.16971
   1.22614   0.50512  -2.93030
   0.98672   0.02628  -2.69088
   0.74730   0.02628  -2.45146
   0.50788  -0.21314  -2.45146
   0.74730  -0.21314  -2.45146
   0.50788  -0.45256  -2.45146
   0.02905  -0.45256  -2.69088
  -0.21037  -0.21314  -2.93030
  -0.68921  -0.21314  -3.16971
  -0.92863   0.02628  -3.64855
  -0.92863   0.50512  -3.40913
  -0.68921   0.50512  -2.93030
  -0.44979   0.74454  -2.69088
  -0.21037   1.22337  -2.21204
   0.02905   1.70221  -1.97262
   0.02905   1.70221  -1.97262
   0.02905   1.70221  -1.49378
  -0.21037   1.22337  -1.49378
  -0.21037   0.74454  -1.01494
  -0.21037   0.50512  -0.53611
  -0.44979   0.02628  -0.05727
  -0.68921  -0.21314   0.90041
  -1.16805  -0.45256   1.85808
  -1.64689  -0.69198   2.81576
  -2.12573  -0.69198   3.53402
  -2.36514  -0.45256   4.25227
  -2.12573  -0.21314   4.97053
  -1.88631   0.02628   5.44937
  -1.40747   0.02628   5.68879
  -1.16805   0.02628   5.68879
  -0.92863   0.26570   5.20995
  -0.68921   0.50512   4.73111
  -0.92863   0.98395   4.01285
  -1.16805   1.22337   3.53402
  -1.40747   1.46279   3.29460
  -1.88631   1.70221   3.05518
  -1.88631   1.70221   2.81576
  -2.12573   1.70221   2.33692
  -2.36514   1.46279   2.33692
  -2.60456   0.98395   2.09750
  -2.84398   0.50512   2.09750
  -3.08340   0.02628   2.09750
  -3.08340  -0.69198   1.85808
  -3.32282  -0.93140   1.61866
  -2.84398  -1.17082   1.37925
  -2.36514  -1.41023   0.66099
  -1.88631  -1.64965   0.42157
  -1.64689  -1.88907   0.18215
  -1.64689  -1.88907  -0.05727
  -1.64689  -1.64965  -0.29669
  -1.64689  -1.64965  -0.53611
  -1.64689  -1.41023  -0.77552
  -1.64689  -1.17082  -1.01494
  -1.16805  -0.93140  -1.01494
  -0.68921  -0.69198  -1.01494
  -0.44979  -0.45256  -1.25436
   0.26846  -0.69198  -1.01494
   0.50788  -0.69198  -0.53611
   0.98672  -0.93140  -0.29669
   0.98672  -0.93140  -0.29669
   1.46556  -1.17082  -0.53611
   1.22614  -1.17082  -1.01494
   1.22614  -1.17082  -1.73320
   1.22614  -0.93140  -2.93030
   0.98672  -0.93140  -3.64855
   0.74730  -0.69198  -3.88797
   0.26846  -0.69198  -4.12739
   0.02905  -0.69198  -3.88797
  -0.44979  -0.45256  -3.16971
  -0.92863  -0.21314  -2.69088
  -1.16805   0.26570  -2.21204
  -1.40747   0.50512  -1.73320
  -1.40747   0.74454  -1.49378
  -1.16805   0.98395  -1.25436
  -1.16805   0.98395  -1.25436
  -1.16805   1.22337  -1.73320
  -0.92863   1.22337  -2.21204
  -0.68921   1.22337  -2.45146
  -0.68921   1.22337  -2.93030
  -0.68921   0.98395  -3.40913
  -0.44979   0.50512  -3.64855
  -0.68921   0.26570  -3.64855
  -0.44979   0.26570  -3.40913
  -0.21037   0.02628  -3.16971
   0.02905   0.02628  -2.69088
   0.26846  -0.21314  -2.45146
   0.50788  -0.21314  -2.21204
   0.74730  -0.45256  -2.21204
   0.98672  -0.45256  -2.69088
   1.46556  -0.69198  -3.16971
   1.70498  -0.93140  -3.64855
   1.94440  -1.41023  -3.88797
   2.42323  -1.88907  -3.88797
   2.66265  -2.36791  -3.64855
   3.14149  -2.60733  -3.16971
   3.38091  -2.84675  -2.69088
   3.62033  -2.84675  -2.45146
   3.85975  -2.36791  -1.97262
   3.85975  -1.88907  -1.73320
   3.85975  -1.17082  -1.01494
   3.85975  -0.69198  -0.05727
   3.85975  -0.21314   0.66099
   3.62033   0.26570   1.37925
   3.38091   0.50512   1.85808
   3.14149   0.98395   1.85808
   2.90207   1.22337   1.37925
   2.66265   1.70221   1.13983
   2.18382   1.70221   0.66099
   1.94440   1.70221   0.42157
   1.70498   1.70221   0.42157
   1.46556   1.70221   0.42157
   1.22614   1.46279   0.42157
   1.22614   1.46279   0.66099
   0.98672   1.46279   0.66099
   0.50788   1.46279   0.66099
   0.02905   1.46279   0.90041
  -0.21037   1.70221   0.90041
  -0.21037   1.94163   0.90041
  -0.68921   1.94163   1.13983
  -0.92863   2.18105   1.13983
  -0.68921   1.94163   1.61866
  -0.68921   1.70221   1.85808
  -0.44979   1.22337   1.85808
  -0.21037   0.50512   2.09750
  -0.21037   0.02628   2.09750
  -0.21037  -0.45256   2.33692
  -0.44979  -0.69198   2.81576
  -0.21037  -0.69198   3.53402
  -0.21037  -0.45256   4.25227
   0.02905  -0.21314   4.73111
   0.02905   0.26570   4.97053
  -0.44979   0.98395   5.20995
  -0.92863   1.22337   5.20995
  -1.64689   1.70221   5.44937
  -2.84398   1.70221   5.68879
  -3.80166   1.46279   6.16762
  -4.75933   1.70221   6.64646
  -5.47759   1.46279   6.88588
  -5.71701   1.46279   7.36472
  -5.71701   0.98395   7.60414
  -5.71701   0.74454   7.84356
  -5.71701   0.50512   7.84356
  -5.23817   0.26570   7.84356
  -4.99875   0.02628   7.60414
  -4.51991  -0.21314   7.12530
  -4.04108  -0.69198   6.64646
  -3.56224  -0.93140   5.92821
  -3.08340  -0.93140   5.44937
  -2.84398  -0.93140   5.20995
  -2.60456  -0.93140   4.97053
  -2.36514  -0.69198   4.73111
  -2.36514  -0.69198   4.49169
  -2.36514  -0.45256   4.01285
  -2.60456  -0.21314   3.77344
  -2.36514   0.02628   3.05518
  -2.12573   0.26570   1.85808
  -1.40747   0.74454   1.13983
  -0.92863   1.22337   0.42157
  -0.44979   1.70221  -0.29669
   0.26846   1.94163  -1.25436
   0.74730   1.94163  -1.97262
   1.22614   1.70221  -2.93030
   1.94440   1.70221  -3.64855
   2.18382   1.22337  -4.60623
   2.42323   0.50512  -5.08507
   2.66265  -0.21314  -5.08507
   2.90207  -0.93140  -5.08507
   2.90207  -1.64965  -4.84565
   2.66265  -2.12849  -4.60623
   2.90207  -2.36791  -4.12739
   2.90207  -2.84675  -4.12739
   3.14149  -3.32559  -3.88797
   3.38091  -3.56500  -4.12739
   3.62033  -3.56500  -3.88797
   3.85975  -3.32559  -4.12739
   4.33859  -3.08617  -4.12739
   4.57801  -2.60733  -4.12739
   4.57801  -2.12849  -4.12739
   4.57801  -1.64965  -4.60623
   4.57801  -0.93140  -4.84565
   4.33859  -0.69198  -4.84565
   4.33859  -0.45256  -4.84565
   4.09917  -0.21314  -4.60623
   4.09917  -0.21314  -4.36681
   4.33859   0.02628  -4.12739
   4.09917   0.26570  -3.88797
   3.85975   0.74454  -3.64855
   3.62033   0.98395  -3.40913
   3.38091   0.98395  -3.40913
   3.14149   0.98395  -3.40913
   3.14149   1.22337  -3.16971
   2.90207   1.22337  -3.16971
   2.90207   1.46279  -3.16971
   2.90207   1.46279  -3.16971
   2.66265   1.22337  -3.40913
   2.42323   1.22337  -3.40913
   1.94440   1.22337  -3.40913
   1.70498   1.22337  -3.40913
   1.46556   0.98395  -3.16971
   1.22614   1.22337  -3.16971
   1.22614   0.98395  -3.16971
   1.22614   1.22337  -2.93030
   1.22614   0.98395  -2.69088
   0.98672   0.74454  -2.45146
   0.98672   0.50512  -1.97262
   0.74730   0.02628  -1.73320
   0.98672   0.02628  -1.49378
   0.98672  -0.21314  -1.25436
   0.98672  -0.21314  -1.01494
   0.98672  -0.21314  -0.77552
   0.50788  -0.69198  -0.77552
   0.26846  -0.69198  -0.77552
  -0.44979  -0.93140  -0.77552
  -0.92863  -1.17082  -0.77552
  -1.40747  -1.17082  -0.77552
  -1.88631  -1.17082  -0.77552
  -2.12573  -0.93140  -0.77552
  -2.60456  -1.17082  -0.77552
  -2.84398  -1.17082  -1.01494
  -3.08340  -1.17082  -0.53611
  -3.08340  -1.17082  -0.29669
  -3.08340  -1.41023  -0.05727
  -2.84398  -1.64965   0.18215
  -2.84398  -1.41023   0.18215
  -2.60456  -1.41023   0.18215
  -2.36514  -1.17082  -0.29669
  -2.36514  -0.93140  -0.53611
  -2.12573  -0.93140  -0.53611
  -2.36514  -0.93140  -0.53611
  -2.60456  -0.69198  -0.53611
  -2.60456  -0.45256  -0.29669
  -2.60456   0.02628  -0.05727
  -2.84398   0.50512   0.18215
  -3.08340   0.98395   0.66099
  -3.56224   1.46279   1.13983
  -4.04108   1.46279   1.85808
  -4.51991   1.94163   2.57634
  -4.51991   2.18105   3.29460
  -4.75933   2.18105   4.01285
  -4.75933   2.18105   4.49169
  -4.75933   1.70221   5.20995
  -4.51991   0.98395   5.68879
  -4.75933   0.26570   6.40704
  -4.75933  -0.45256   6.40704
  -4.75933  -0.93140   6.64646
  -4.75933  -1.64965   6.64646
  -4.28050  -1.88907   6.88588
  -4.28050  -2.12849   6.88588
  -3.80166  -2.12849   6.64646
  -3.32282  -1.88907   6.64646
  -3.08340  -1.41023   6.40704
  -2.60456  -0.93140   6.40704
  -2.12573  -0.45256   6.16762
  -1.64689   0.02628   5.92821
  -0.92863   0.26570   5.68879
   0.02905   0.50512   5.44937
   0.74730   0.50512   5.68879
   1.70498   0.50512   5.44937
   2.42323   0.26570   5.20995
   2.66265   0.02628   5.20995
   2.42323  -0.45256   5.20995
   2.66265  -0.93140   5.20995
   2.90207  -0.93140   5.20995
   2.90207  -0.93140   4.97053
   2.90207  -0.93140   4.49169
   3.14149  -0.69198   4.25227
   3.62033  -0.45256   4.01285
   3.85975  -0.21314   3.53402
   4.09917  -0.21314   3.05518
   4.57801  -0.21314   2.57634
   4.81742  -0.21314   2.09750
   5.29626  -0.45256   1.61866
   5.77510  -0.45256   1.37925
   6.01452  -0.93140   0.66099
   6.25394  -0.93140   0.18215
   6.49336  -1.17082  -0.53611
   6.49336  -0.93140  -0.77552
   6.49336  -0.69198  -1.25436
   6.49336  -0.45256  -1.49378
   6.25394   0.02628  -1.73320
   6.01452   0.26570  -1.97262
   5.53568   0.26570  -2.21204
   5.29626   0.50512  -2.45146
   5.05684   0.50512  -2.93030
   4.81742   0.50512  -2.93030
   4.33859   0.26570  -2.93030
   3.85975   0.26570  -2.93030
   3.38091   0.02628  -2.69088
   2.90207  -0.21314  -2.69088
   2.42323  -0.45256  -2.69088
   2.18382  -0.69198  -2.69088
   1.94440  -1.17082  -2.93030
   1.94440  -1.41023  -2.69088
   2.18382  -1.64965  -2.45146
   1.94440  -1.41023  -2.21204
   1.94440  -1.17082  -1.97262
   1.94440  -0.69198  -1.97262
   1.70498   0.02628  -2.21204
   1.70498   0.50512  -2.21204
   1.70498   1.22337  -2.69088
   1.70498   1.94163  -3.16971
   1.94440   2.42047  -3.64855
   1.94440   2.89931  -4.12739
   1.94440   3.37814  -5.08507
   1.70498   3.61756  -5.56390
   1.46556   3.61756  -6.04274
   0.74730   3.61756  -6.76100
   0.02905   3.61756  -6.76100
  -0.68921   3.85698  -7.00042
  -1.40747   3.85698  -7.00042
  -2.36514   4.09640  -7.00042
  -3.08340   4.09640  -6.76100
  -4.04108   3.85698  -6.52158
  -4.75933   3.85698  -6.28216
  -5.23817   3.37814  -5.80332
  -5.71701   2.89931  -5.56390
  -5.95643   2.18105  -4.84565
  -5.95643   1.46279  -4.36681
  -5.95643   0.98395  -4.12739
  -5.47759   0.26570  -3.88797
  -5.23817  -0.45256  -3.88797
  -4.99875  -1.17082  -3.88797
  -4.51991  -2.12849  -3.88797
  -4.51991  -2.60733  -4.12739
  -4.75933  -3.32559  -4.60623
  -4.99875  -3.80442  -4.36681
  -5.23817  -4.04384  -4.36681
  -5.95643  -4.28326  -4.12739
  -6.91410  -4.28326  -3.88797
  -7.87178  -4.28326  -3.16971
  -8.82946  -3.80442  -2.69088
  -9.30829  -3.08617  -1.97262
 -10.02655  -2.36791  -1.25436
 -10.26597  -1.88907  -0.53611
 -10.26597  -1.17082   0.18215
 -10.26597  -0.93140   0.90041
 -10.02655  -0.45256   1.37925
  -9.54771   0.02628   1.85808
  -9.06887   0.26570   2.33692
  -8.59004   0.50512   2.81576
  -7.87178   0.50512   3.05518
  -7.39294   0.26570   3.53402
  -6.91410   0.02628   4.01285
  -6.43527  -0.21314   4.49169
  -5.95643  -0.69198   4.73111
  -5.71701  -0.93140   5.20995
  -4.99875  -1.41023   5.44937
  -4.51991  -1.64965   5.68879
  -4.28050  -1.64965   5.68879
  -3.32282  -1.88907   5.92821
  -2.60456  -1.88907   5.68879
  -1.88631  -1.64965   5.92821
  -0.92863  -1.64965   5.20995
  -0.21037  -1.41023   4.97053
   0.74730  -1.17082   4.01285
   1.46556  -0.93140   3.53402
   2.18382  -0.45256   2.81576
   2.66265   0.02628   2.33692
   2.90207   0.50512   1.85808
   3.14149   0.98395   1.61866
   3.38091   1.22337   1.61866
   3.62033   1.22337   1.61866
   3.85975   1.22337   1.85808
   3.85975   1.22337   2.09750
   4.09917   1.22337   2.09750
   4.33859   0.98395   2.09750
   4.81742   0.74454   1.85808
   5.05684   0.74454   1.61866
   5.53568   0.50512   1.37925
   6.01452   0.50512   1.13983
   6.25394   0.26570   0.66099
   6.49336   0.26570   0.42157
   6.73278   0.26570   0.18215
   6.73278   0.02628  -0.05727
   6.73278   0.02628  -0.53611
   6.73278   0.02628  -0.53611
   6.49336   0.26570  -0.29669
   6.01452   0.26570   0.18215
   6.01452  -0.21314   0.90041
   6.01452  -0.21314   1.61866
   5.77510  -0.21314   2.33692
   5.77510  -0.21314   3.29460
   5.77510  -0.21314   3.77344
   5.77510  -0.21314   4.01285
   5.77510   0.02628   4.49169
   5.77510   0.02628   4.25227
   5.77510   0.26570   4.25227
   6.01452   0.50512   4.01285
   6.01452   0.98395   4.01285
   6.25394   1.22337   3.53402
   6.49336   1.22337   3.05518
   6.49336   1.22337   2.57634
   6.97219   1.22337   1.85808
   6.97219   1.22337   1.37925
   7.21161   0.98395   0.66099
   7.21161   0.74454   0.18215
   7.45103   0.74454  -0.29669
   7.45103   0.50512  -0.53611
   7.45103   0.50512  -1.25436
   7.21161   0.74454  -1.73320
   7.21161   0.74454  -2.21204
   7.21161   0.74454  -2.93030
   7.21161   0.74454  -3.64855
   6.97219   0.74454  -4.12739
   6.49336   0.98395  -5.08507
   5.77510   0.98395  -5.32448
   4.81742   1.22337  -5.32448
   4.09917   1.22337  -5.56390
   2.90207   1.22337  -5.56390
   2.18382   0.98395  -5.32448
   1.22614   0.98395  -5.32448
   0.50788   0.74454  -5.32448
  -0.21037   0.26570  -5.08507
  -1.16805  -0.21314  -5.08507
  -1.88631  -0.45256  -4.60623
  -2.36514  -0.69198  -4.36681
  -2.60456  -0.93140  -4.36681
  -2.84398  -1.17082  -4.36681
  -2.60456  -1.41023  -4.36681
  -2.36514  -1.41023  -4.60623
  -2.36514  -1.41023  -4.60623
  -2.36514  -1.17082  -4.60623
  -2.36514  -1.17082  -4.36681
  -2.60456  -0.69198  -4.12739
  -3.08340  -0.69198  -3.64855
  -3.80166  -0.45256  -2.93030
  -4.28050  -0.45256  -2.45146
  -4.75933  -0.45256  -1.97262
  -5.23817  -0.21314  -1.49378
  -5.47759  -0.45256  -1.25436
  -5.95643  -0.21314  -0.77552
  -6.19585   0.02628  -0.77552
  -6.19585  -0.45256  -0.53611
  -6.67469  -0.45256  -0.53611
  -6.91410  -0.69198  -0.29669
  -7.15352  -0.69198  -0.05727
  -7.63236  -0.69198   0.42157
  -8.11120  -0.69198   0.42157
  -8.35062  -0.69198   0.66099
  -8.35062  -0.45256   0.66099
  -8.59004  -0.69198   0.66099
  -8.59004  -0.69198   0.90041
  -8.82946  -0.45256   0.90041
  -8.59004  -0.21314   0.90041
  -8.35062   0.02628   0.90041
  -8.11120   0.02628   0.90041
  -7.63236   0.02628   0.90041
  -7.15352   0.02628   0.90041
  -6.67469   0.02628   0.90041
  -6.43527   0.02628   0.90041
  -5.95643   0.02628   0.90041
  -5.47759  -0.45256   1.13983
  -4.99875  -0.69198   1.37925
  -4.99875  -1.41023   1.61866
  -4.99875  -1.88907   1.85808
  -5.23817  -2.12849   2.09750
  -5.23817  -2.12849   2.09750
  -5.47759  -1.88907   2.33692
  -5.23817  -1.64965   2.57634
  -5.23817  -1.17082   2.81576
  -4.75933  -0.93140   2.81576
  -4.51991  -0.21314   2.57634
  -4.04108   0.26570   2.57634
  -3.56224   0.50512   2.33692
  -3.32282   0.98395   2.33692
  -2.84398   1.46279   2.57634
  -2.60456   1.70221   2.81576
  -2.12573   1.70221   2.81576
  -1.88631   1.94163   2.81576
  -1.40747   1.70221   3.29460
  -1.16805   1.22337   3.53402
  -0.92863   0.74454   4.01285
  -0.44979   0.26570   4.25227
   0.02905   0.02628   4.73111
   0.50788  -0.21314   4.97053
   0.74730  -0.45256   4.97053
   1.46556  -0.21314   4.97053
   2.18382   0.02628   4.97053
   2.66265   0.50512   4.73111
   3.14149   1.22337   4.73111
   3.85975   1.70221   4.49169
   4.09917   2.18105   4.49169
   4.57801   2.65989   4.25227
