********************************************************************************
              CENTRO DE INSTRUMENTACION Y REGISTRO SISMICO  A.C.

    Anaxagoras 814, Col. Narvarte, Benito Juarez, C.P. 03020 Mexico, D.F.
           Tels. 5687 45 42/ 5687 45  82             Fax. 5669 25 12
********************************************************************************
ARCHIVO ESTANDAR DE ACELERACION:
VERSION DEL FORMATO                    : 2.0
NOMBRE DEL ARCHIVO                     : AO2420130616051902
FECHA Y HORA DE CREACION               : 20/OCT/17, 13:29
REF. CATALOGO ACELEROGRAMAS, SMIS 1996 : REGISTRO No.     /PAG.


================================================================================
DATOS DE LA ESTACION:
NOMBRE DE LA ESTACION                  : ALBERCA OLÍMPICA
CLAVE DE LA ESTACION                   : AO24
LOCALIZACION DE LA ESTACION            : Del. Benito Juárez, Col. General Pedro 
                                       : María Anaya, Río Churubusco            
                                       : y División del Norte.                  
                                       :                                        
                                       : 
COORDENADAS DE LA ESTACION             : 19.3580 LAT. N
                                       : 99.1539 LONG. W
ALTITUD (msnm)                         : 2235
TIPO DE SUELO                          : Transición                          
                                       :                           
                                       : 
INSTITUCION RESPONSABLE                : CIRES
                                       : 

================================================================================
DATOS DEL ACELEROGRAFO:
MODELO DEL ACELEROGRAFO                : RADESD
NUMERO DE SERIE DEL ACELEROGRAFO       : 257
NUMERO DE CANALES                      : 3
ORIENTACION C1-C6 (rumbo;orientacion)  : /N00E/+V/N90W
ORIENTACION C7-C12 (rumbo;orientacion) : 
VEL. DE MUESTREO, C1-C6 (muestras/s)   : /100/100/100
VEL. DE MUESTREO, C7-C12 (muestras/s)  : 
ESC. COMPLETA DE SENSORES, C1-C6, (g)  : /0.5/0.5/0.5
ESC. COMPLETA DE SENSORES, C7-C12, (g) : 
FREC. NAT. DE SENSORES, C1-C6, (Hz)    : /30/30/30
FREC. NAT. DE SENSORES, C7-C12, (Hz)   : 
AMORTIGUAMIENTO DE SENSORES, C1-C6     : /0.700/0.700/0.700
AMORTIGUAMIENTO DE SENSORES, C7-C12    : 
INTERVALO DE MUESTREO, C1-C6, (s)      : /0.01/0.01/0.01
INTERVALO DE MUESTREO, C7-C12, (s)     : 
UMBRAL DE DISPARO, C1-C6, (Gal)        : /1.2/3.14/1.65
UMBRAL DE DISPARO, C7-C12, (Gal)       : 
MEMORIA DE PREEVENTO (s)               : 44.0
TIEMPO DE POSEVENTO (s)                : 123.0


================================================================================
DATOS DEL SISMO:
FECHA DEL SISMO (GMT)                  : 16/JUN/13
HORA EPICENTRO (GMT)                   : 05:19:02.0
MAGNITUD(ES)                           : /Mc=5.8
COORDENADAS DEL EPICENTRO              : 18.11 LAT. N
                                       : 99.22 LONG. W
PROFUNDIDAD FOCAL (km)                 : 55
FUENTE DE LOS DATOS EPICENTRALES       : SSN
                                       : INSTITUTO DE GEOFISICA, UNAM

================================================================================
DATOS DE ESTE REGISTRO:
HORA DE LA PRIMERA MUESTRA (GMT)       : 05:19:14.00
EXACTITUD DEL TIEMPO (s)               : 0.01
DURACION DEL REGISTRO (s), C1-C6       : /207.0/207.0/207.0
DURACION DEL REGISTRO (s), C7-C12      : 
NUM. TOTAL DE MUESTRAS, C1-C6          : /20700/20700/20700
NUM. TOTAL DE MUESTRAS, C7-C12         : 
ACEL. MAX. (Gal), C1-C6                : /26.03005/10.47835/19.64764
ACEL. MAX., C1-C6, EN LA MUESTRA       : /6047/4414/6520
ACEL. MAX. (Gal), C7-C12               : 
ACEL. MAX., C7-C12, EN LA MUESTRA      : 
UNIDADES DE LOS DATOS                  : Gal (cm/s/s)
FACTOR DE DECIMACION                   : 1
FORMATO DATOS (FORTRAN,10 campos/dato) : 3F10.5


================================================================================
CALIDAD DEL ACELEROGRAMA:
REGISTRO DIGITAL COMPLETO CON TIEMPO ABSOLUTO CORRECTO.


================================================================================
COMENTARIOS:














================================================================================
DATOS DE ACELERACION:
---------+---------+---------+---------+---------+---------+---------+---------+
   CANAL-1   CANAL-2   CANAL-3   CANAL-4   CANAL-5   CANAL-6   CANAL-7   CANAL-8
      N00E        +V      N90W
---------+---------+---------+---------+---------+---------+---------+---------+
[...]
   0.96575  -0.13095   0.68855
   1.08546   0.13839   0.86812
   1.23509   0.36285   1.04768
   1.51941   0.55738   1.19732
   1.84861   0.69205   1.25717
   2.14788   0.66213   1.28710
   2.37234   0.54242   1.21228
   2.49205   0.33292   1.10754
   2.56687   0.15336   0.92797
   2.58183   0.01868   0.73344
   2.50701  -0.14592   0.56884
   2.37234  -0.29555   0.44913
   2.16285  -0.43023   0.34439
   1.89350  -0.54994   0.26957
   1.68401  -0.59483   0.17978
   1.54933  -0.49008   2.2E-40
   1.54933  -0.32548  -0.19431
   1.60919  -0.11599  -0.41877
   1.71393   0.06358  -0.65819
   1.77379   0.24314  -0.83775
   1.87854   0.36285  -0.94250
   2.01321   0.39278  -1.00235
   2.13292   0.31796  -0.97243
   2.26759   0.10847  -0.89761
   2.28256  -0.08606  -0.71804
   2.20774  -0.10103  -0.47862
   2.07306   0.04861  -0.19431
   1.80372   0.33292   0.06007
   1.48948   0.49752   0.20971
   1.16028   0.60227   0.32942
   0.86100   0.75191   0.37431
   0.56173   0.94644   0.38928
   0.30734   1.14097   0.38928
   0.03799   1.27564   0.35935
  -0.20143   1.42528   0.34439
  -0.45581   1.57492   0.34439
  -0.74012   1.69463   0.28453
  -1.05436   1.69463   0.14986
  -1.35364   1.55995   0.03015
  -1.59306   1.41031  -0.04467
  -1.80255   1.32053  -0.01474
  -1.99708   1.20082   0.01518
  -2.25146   0.93147   2.2E-40
  -2.44599   0.61723  -0.02971
  -2.59563   0.28803  -0.11949
  -2.68541  -0.04117  -0.17935
  -2.65548  -0.32548  -0.20927
  -2.56570  -0.57987  -0.19431
  -2.44599  -0.71454  -0.10453
  -2.28139  -0.69958   2.2E-40
  -2.13175  -0.63972   0.11993
  -2.04197  -0.52001   0.22468
  -2.07190  -0.37037   0.40424
  -2.13175  -0.10103   0.58381
  -2.29635   0.13839   0.68855
  -2.49088   0.25810   0.71848
  -2.70037   0.30300   0.64366
  -2.86498   0.27307   0.49402
  -3.01461   0.27307   0.32942
  -3.10440   0.15336   0.19475
  -3.19418  -0.01124   0.09000
  -3.19418  -0.19081   0.01518
  -3.05950  -0.35541  -0.07460
  -2.79016  -0.46016  -0.25416
  -2.47592  -0.49008  -0.43373
  -2.08686  -0.50505  -0.58337
  -1.74269  -0.47512  -0.61330
  -1.44342  -0.38534  -0.52351
  -1.30874  -0.20577  -0.22424
  -1.27882  -0.01124   0.29949
  -1.29378   0.15336   0.83819
  -1.33867   0.18329   1.31703
  -1.39853   0.13839   1.61631
  -1.44342   0.06358   1.76594
  -1.47335  -0.11599   1.75098
  -1.47335  -0.25066   1.67616
  -1.44342  -0.35541   1.63127
  -1.39853  -0.40030   1.54149
  -1.33867  -0.38534   1.30207
  -1.24889  -0.32548   1.00279
  -1.11422  -0.28059   0.67359
  -0.94961  -0.16088   0.32942
  -0.74012   0.00372   0.01518
  -0.50070   0.10847  -0.19431
  -0.23135   0.07854  -0.28409
  -0.06675  -0.08606  -0.26913
   0.02303  -0.25066  -0.17935
   0.05296  -0.32548  -0.16438
   0.08288  -0.32548  -0.17935
   0.24749  -0.31052  -0.23920
   0.51683  -0.29555  -0.29906
   0.89093  -0.35541  -0.34395
   1.39970  -0.50505  -0.35891
   1.87854  -0.59483  -0.35891
   2.31249  -0.62476  -0.31402
   2.64169  -0.59483  -0.31402
   2.86614  -0.52001  -0.29906
   2.98585  -0.50505  -0.20927
   2.97089  -0.47512  -0.13445
   2.89607  -0.44519  -0.04467
   2.71651  -0.40030  -0.01474
   2.53694  -0.44519  -0.01474
   2.26759  -0.57987  -0.01474
   1.92343  -0.80432  -0.05964
   1.62415  -0.99885  -0.16438
   1.33984  -1.05871  -0.35891
   1.22013  -0.92403  -0.55344
   1.20517  -0.72950  -0.85272
   1.39970  -0.59483  -1.12206
   1.75883  -0.54994  -1.36148
   2.23767  -0.54994  -1.51112
   2.73147  -0.53497  -1.61587
   3.19535  -0.46016  -1.66076
   3.53951  -0.35541  -1.67572
   3.79390  -0.19081  -1.63083
   3.94353   0.00372  -1.46623
   4.01835   0.15336  -1.19688
   4.04828   0.21321  -0.89761
   3.98843   0.19825  -0.58337
   3.86872   0.07854  -0.34395
   3.68915  -0.02621  -0.10453
   3.37491  -0.07110   0.03015
   2.98585  -0.13095   0.09000
   2.58183  -0.25066   0.03015
   2.19277  -0.44519  -0.10453
   1.84861  -0.68461  -0.28409
   1.51941  -0.78936  -0.38884
   1.25006  -0.86418  -0.44869
   1.05553  -0.89410  -0.53848
   0.89093  -0.93900  -0.62826
   0.80115  -0.84921  -0.68811
   0.69640  -0.66965  -0.76293
   0.57669  -0.38534  -0.77790
   0.38216  -0.10103  -0.74797
   0.21756   0.12343  -0.68811
   0.03799   0.30300  -0.62826
  -0.15654   0.54242  -0.58337
  -0.35106   0.76687  -0.59833
  -0.59048   1.02126  -0.67315
  -0.82990   1.18586  -0.67315
  -1.03940   1.30557  -0.58337
  -1.27882   1.36542  -0.46366
  -1.42846   1.32053  -0.22424
  -1.56313   1.15593   0.09000
  -1.65291   0.87162   0.41920
  -1.72773   0.57234   0.68855
  -1.77262   0.30300   0.92797
  -1.80255   0.00372   1.07761
  -1.83248  -0.26563   1.24221
  -1.86240  -0.46016   1.39185
  -1.84744  -0.49008   1.57141
  -1.80255  -0.37037   1.69112
  -1.71277  -0.10103   1.76594
  -1.59306   0.31796   1.79587
  -1.44342   0.76687   1.73602
  -1.33867   1.35046   1.57141
  -1.23393   1.90412   1.31703
  -1.20400   2.21836   0.98783
  -1.21896   2.27821   0.71848
  -1.33867   2.12857   0.53891
  -1.51824   1.82930   0.47906
  -1.74269   1.44024   0.53891
  -2.01204   1.03622   0.59877
  -2.28139   0.61723   0.61373
  -2.49088   0.19825   0.59877
  -2.68541  -0.08606   0.55388
  -2.77519  -0.19081   0.53891
  -2.76023  -0.10103   0.49402
  -2.73030   0.12343   0.46410
  -2.59563   0.43767   0.41920
  -2.44599   0.75191   0.40424
  -2.23650   1.06615   0.32942
  -1.96715   1.33550   0.23964
  -1.62298   1.53002   0.10497
  -1.30874   1.44024   0.06007
  -1.03940   1.09608   0.06007
  -0.75509   0.49752   0.13489
  -0.47077  -0.22074   0.23964
  -0.11164  -0.98389   0.34439
   0.12778  -1.68718   0.35935
   0.35223  -2.36055   0.26957
   0.48691  -3.00400   0.10497
   0.54676  -3.64744  -0.05964
   0.54676  -4.23102  -0.20927
   0.54676  -4.69490  -0.32898
   0.51683  -5.02410  -0.40380
   0.59165  -5.14381  -0.43373
   0.69640  -5.03907  -0.43373
   0.77122  -4.48541  -0.41877
   0.81611  -3.58758  -0.46366
   0.84604  -2.52515  -0.46366
   0.92086  -1.46273  -0.44869
   0.99567  -0.44519  -0.35891
   1.10042   0.49752  -0.14942
   1.23509   1.44024   0.09000
   1.33984   2.23332   0.29949
   1.39970   2.71216   0.47906
   1.36977   2.81691   0.53891
   1.26502   2.59245   0.49402
   1.11538   2.29318   0.35935
   0.92086   1.87419   0.09000
   0.78618   1.38039  -0.31402
   0.66647   0.85666  -0.74797
   0.53180   0.45263  -1.22681
   0.39712   0.43767  -1.72061
   0.27741   0.97637  -2.21442
   0.15770   1.97894  -2.58851
   0.08288   3.29575  -2.81297
   0.05296   4.73227  -2.85786
   0.08288   6.21368  -2.69326
   0.21756   7.54546  -2.43887
   0.44202   8.60788  -2.09471
   0.72633   9.25132  -1.67572
   0.96575   9.50571  -1.21185
   1.20517   9.26629  -0.71804
   1.33984   8.48817  -0.20927
   1.29495   7.24618   0.29949
   1.07049   5.54031   0.76337
   0.69640   3.52020   1.13746
   0.27741   1.39535   1.39185
  -0.11164  -0.65468   1.48163
  -0.38099  -2.31566   1.42178
  -0.57552  -3.57262   1.13746
  -0.69523  -4.45548   0.61373
  -0.78501  -5.14381   2.2E-40
  -0.84487  -5.53287  -0.76293
  -0.77005  -5.53287  -1.45127
  -0.60545  -5.08396  -2.16953
  -0.29121  -4.29088  -2.79800
   0.20259  -3.27334  -3.29181
   0.75625  -2.28573  -3.65094
   1.30991  -1.23827  -3.74072
   1.78875  -0.16088  -3.56116
   2.10299   0.76687  -3.14217
   2.13292   1.35046  -2.55858
   1.90846   1.51506  -1.82536
   1.50444   1.36542  -0.92753
   0.93582   0.94644  -0.05964
   0.33727   0.45263   0.71848
  -0.26128  -0.11599   1.34696
  -0.78501  -0.78936   1.85573
  -1.11422  -1.50762   2.11011
  -1.32371  -2.30070   2.12507
  -1.33867  -3.13867   1.84076
  -1.11422  -3.94671   1.37688
  -0.72516  -4.63505   0.70352
  -0.08172  -5.00914  -0.04467
   0.77122  -4.87447  -0.70308
   1.65408  -4.26095  -1.15199
   2.50701  -3.30327  -1.30163
   3.19535  -2.24084  -1.15199
   3.65922  -1.19338  -0.68811
   3.89864  -0.16088   0.09000
   4.04828   0.76687   1.15243
   4.07821   1.51506   2.39442
   3.98843   2.08368   3.75612
   3.76397   2.57749   5.02804
   3.50959   2.98151   6.03061
   3.19535   3.13115   6.68902
   2.83622   2.95158   6.95837
   2.38730   2.38296   6.82369
   1.98328   1.70959   6.27003
   1.77379   1.12600   5.32732
   1.77379   0.63220   3.99554
   2.02817   0.31796   2.28967
   2.49205   0.15336   0.38928
   3.07564   0.09350  -1.55601
   3.68915   0.07854  -3.21699
   4.15303  -0.05613  -4.36920
   4.37748  -0.47512  -4.92286
   4.34756  -0.99885  -4.75826
   4.21288  -1.46273  -3.90532
   3.94353  -1.85179  -2.54362
   3.52455  -2.21092  -0.76293
   2.98585  -2.73465   1.40681
   2.22270  -3.40802   3.89080
   1.22013  -4.03649   6.55435
   0.11281  -4.62008   9.08322
  -1.03940  -4.97921  11.17815
  -2.20657  -5.06899  12.61467
  -3.29893  -4.84454  13.09351
  -4.37632  -4.32081  12.59971
  -5.25918  -3.57262  11.34275
  -6.09715  -2.74961   9.59199
  -6.84534  -1.85179   7.34743
  -7.47381  -0.96892   4.89337
  -8.07236  -0.08606   2.24478
  -8.77566   0.63220  -0.44869
  -9.59867   1.08111  -3.05239
 -10.52642   1.44024  -5.46155
 -11.64870   1.69463  -7.46670
 -12.89070   1.66470  -8.97804
 -14.22247   1.17089  -9.50177
 -15.61410   0.09350  -9.12767
 -16.82616  -1.46273  -8.25978
 -17.88859  -2.98903  -6.85318
 -18.66671  -4.33577  -5.41666
 -19.13058  -5.45805  -4.04000
 -19.25029  -6.23617  -2.75311
 -19.05576  -6.62523  -1.66076
 -18.56196  -6.65515  -0.83775
 -17.84370  -5.96682  -0.34395
 -16.87106  -4.67994  -0.04467
 -15.67395  -3.01896   0.10497
 -14.35714  -1.19338   0.04511
 -13.04033   0.61723  -0.25416
 -11.81330   2.29318  -0.77790
 -10.66110   3.68481  -1.57098
  -9.59867   4.58263  -2.64837
  -8.64099   4.74723  -3.87539
  -7.80302   4.49285  -5.29695
  -6.92016   3.84941  -6.77836
  -5.93255   3.17604  -8.27474
  -4.81026   2.68223  -9.59155
  -3.62813   2.41289 -10.47441
  -2.41606   2.33807 -11.14778
  -1.17407   2.45778 -11.47699
   0.12778   2.72713 -11.34231
   1.35480   3.16107 -10.92333
   2.55191   3.71473 -10.20507
   3.62930   4.32825  -9.09775
   4.61690   4.82205  -7.46670
   5.45487   4.91183  -5.59623
   6.26292   4.61256  -3.62101
   6.96621   3.99904  -1.76550
   7.57973   2.96655  -0.31402
   8.07353   1.66470   0.61373
   8.37281   0.19825   0.74841
   8.46259  -1.14849   0.23964
   8.40274  -2.06128  -0.74797
   8.28303  -2.64486  -2.00492
   8.22317  -2.92918  -3.42648
   8.31295  -2.70472  -4.77322
   8.61223  -2.15106  -5.71594
   9.19581  -1.28316  -6.31449
   9.97393  -0.19081  -6.49405
  10.88672   0.91651  -6.17981
  11.99404   1.87419  -5.52141
  13.23603   2.57749  -4.63855
  14.77730   2.98151  -3.56116
  16.69266   3.16107  -2.43887
  18.90730   3.01144  -1.34652
  21.12193   2.44281  -0.37387
  23.23182   1.35046   0.58381
  24.84791  -0.01124   1.54149
  25.79063  -1.49266   2.43931
  26.03005  -2.88429   3.26232
  25.55120  -3.93175   4.11525
  24.48878  -4.42555   4.84848
  22.79787  -4.48541   5.41710
  20.62813  -4.23102   5.91090
  18.05436  -3.88686   6.40471
  15.24117  -3.37809   6.91348
  12.57762  -2.64486   7.42224
  10.10860  -1.79193   7.85619
   7.95382  -0.95396   7.96094
   6.41256  -0.22074   7.70656
   5.57458   0.16832   7.16786
   5.57458   0.09350   6.38974
   6.18810  -0.37037   5.55177
   7.20563  -1.10360   4.77366
   8.35784  -1.79193   4.16014
   9.36042  -2.15106   3.83094
  10.00386  -2.06128   3.74116
  10.21335  -1.52258   3.80101
   9.89911  -0.59483   3.95065
   8.94143   0.64716   4.24993
   7.43009   1.96397   4.77366
   5.40998   3.04136   5.64156
   3.06067   3.74466   6.74887
   0.20259   4.14868   7.99087
  -2.99965   4.41803   9.23286
  -6.29168   4.61256  10.16061
  -9.55378   4.71731  10.57960
 -12.59142   4.59760  10.78909
 -15.19511   4.22350  10.80405
 -17.17033   3.66984  10.54967
 -18.50211   3.04136  10.07083
 -19.19044   2.47274   9.53213
 -19.25029   2.17347   8.91862
 -18.75649   2.06872   8.18540
 -17.78385   2.17347   7.43721
 -16.58674   2.35303   6.94340
 -15.24001   2.47274   6.74887
 -13.86334   2.51763   6.77880
 -12.41186   2.32310   7.01822
 -11.00526   1.67966   7.40728
  -9.71838   0.64716   7.60181
  -8.70084  -0.53497   7.42224
  -8.14718  -1.70215   6.64413
  -8.13222  -2.65983   5.38717
  -8.67092  -3.39305   3.81598
  -9.71838  -3.96168   2.27471
 -11.18483  -4.42555   0.83819
 -12.92062  -4.63505  -0.53848
 -14.70131  -4.51533  -1.70565
 -16.33236  -4.12628  -2.61844
 -17.64917  -3.58758  -3.21699
 -18.35247  -3.10874  -3.39655
 -18.44225  -2.80947  -3.05239
 -17.82874  -2.68976  -2.24435
 -16.60171  -2.67479  -1.22681
 -14.89584  -2.61494  -0.11949
 -12.90566  -2.54012   1.00279
 -10.72095  -2.45034   2.05025
  -8.61106  -2.31566   2.82837
  -6.71066  -1.95653   3.29225
  -5.07961  -1.19338   3.42692
  -3.74784  -0.16088   3.06779
  -2.74527   0.96140   2.02033
  -2.13175   2.03879   0.32942
  -1.77262   3.13115  -1.72061
  -1.60802   4.19357  -3.69583
  -1.66788   5.06147  -5.68601
  -1.71277   5.80966  -7.60137
  -1.65291   6.45310  -9.36709
  -1.30874   6.73741 -10.29485
  -0.59048   6.61770 -10.47441
   0.48691   6.16879 -10.14521
   1.78875   5.52535  -9.33717
   3.22527   4.55270  -8.18496
   4.61690   3.08626  -6.95793
   5.90379   1.26068  -5.82068
   7.11585  -0.69958  -4.78818
   8.38777  -2.70472  -3.90532
   9.62976  -4.54526  -3.26188
  10.72212  -5.90696  -2.73815
  11.54513  -6.65515  -2.40895
  11.97907  -6.58033  -2.19945
  12.02397  -5.84711  -2.18449
  11.73965  -4.72483  -2.33413
  11.18599  -3.43794  -2.78304
  10.51263  -1.92660  -3.42648
  10.01882  -0.26563  -4.26445
   9.73451   1.41031  -5.38673
   9.76444   2.83187  -6.62873
   9.95897   3.86437  -7.63130
  10.22831   4.43299  -8.54409
  10.57248   4.61256  -9.30724
  10.91665   4.34321  -9.54666
  11.35060   3.68481  -9.47184
  11.87433   2.66727  -9.08278
  12.56266   1.50010  -8.45431
  13.43056   0.30300  -7.40684
  14.35831  -0.78936  -6.09003
  15.03168  -1.73208  -4.47395
  15.39081  -2.59997  -2.75311
  15.30103  -3.34816  -1.18192
  14.74737  -3.97664   0.11993
  13.80465  -4.51533   1.09257
  12.50281  -4.97921   1.60134
  10.93161  -5.17374   1.58638
   9.22574  -4.99418   1.24221
   7.38520  -4.57519   0.49402
   5.58955  -4.14124  -0.62826
   3.98843  -3.70729  -2.12463
   2.89607  -3.28831  -3.86043
   2.58183  -2.83939  -5.77579
   3.04571  -2.37552  -7.60137
   4.09317  -1.83682  -9.42695
   5.30524  -1.07367 -10.59412
   6.21803  -0.11599 -10.90836
   6.56219   0.78184 -10.51930
   6.29285   1.51506  -9.53170
   5.63444   2.11361  -7.90065
   4.75158   2.56252  -5.83565
   3.88368   2.74209  -3.83050
   3.22527   2.59245  -1.98996
   2.76140   2.17347  -0.49359
   2.37234   1.67966   0.67359
   1.78875   1.15593   1.52652
   1.01064   0.58731   2.16996
  -0.08172   0.12343   2.66377
  -1.32371  -0.14592   3.08275
  -2.52081   0.12343   3.51670
  -3.55331   0.79680   3.87583
  -4.45113   1.64973   4.22000
  -5.21429   2.42785   4.35467
  -5.93255   2.92165   4.30978
  -6.68073   3.02640   4.22000
  -7.47381   2.75705   4.05540
  -8.25193   2.15850   3.86087
  -9.00012   1.42528   3.83094
  -9.56874   0.54242   4.05540
  -9.79320  -0.41526   4.41453
  -9.74831  -1.34302   4.77366
  -9.52385  -2.07624   4.96819
  -9.14976  -2.59997   5.02804
  -8.76070  -2.95910   5.04301
  -8.47639  -3.19852   5.02804
  -8.38660  -3.39305   5.01308
  -8.56617  -3.34816   5.02804
  -9.10486  -2.89925   5.08790
  -9.94283  -2.21092   5.29739
 -11.08008  -1.47769   5.70141
 -12.41186  -0.68461   6.34485
