********************************************************************************
               CENTRO DE INSTRUMENTACION Y REGISTRO SISMICO  A.C.  
                       Coordinacion de Servicios Tecnicos
     Anaxagoras 814, Col. Narvarte, Benito Juarez, C.P. 03020 Mexico, D.F.
            Tels. 687 45 42/ 687 45  82             Fax. 669 25 12
********************************************************************************
ARCHIVO ESTANDAR DE ACELERACION:
VERSION DEL FORMATO                    : 2.0
NOMBRE DEL ARCHIVO                     : AO240008.091
FECHA Y HORA DE CREACION               : 20/JUL/04, 10:00
REF. CATALOGO ACELEROGRAMAS, SMIS 1996 : REGISTRO No.     /PAG.


================================================================================
DATOS DE LA ESTACION:
NOMBRE DE LA ESTACION                  : ALBERCA OLIMPICA
CLAVE DE LA ESTACION                   : AO24
LOCALIZACION DE LA ESTACION            : Alberca Olimpica Rio Churubusco y
                                       : Division del Norte, Col Pedro Ma
                                       : Anaya, Benito Juarez
                                       :
                                       :
COORDENADAS DE LA ESTACION             : 19.358 LAT. N 
                                       : 99.154 LONG. W 
ALTITUD (msnm)                         : 2235
TIPO DE SUELO                          : TRANSICION
                                       : 
                                       : 
INSTITUCION RESPONSABLE                : CIRES
                                       :

================================================================================
DATOS DEL ACELEROGRAFO:
MODELO DEL ACELEROGRAFO                : RAD-851
NUMERO DE SERIE DEL ACELEROGRAFO       : 257
NUMERO DE CANALES                      : 3
ORIENTACION C1-C6 (rumbo;orientacion)  : /N00E/+V/N90W
ORIENTACION C7-C12 (rumbo;orientacion) :
VEL. DE MUESTREO, C1-C6 (muestras/s)   : /100/100/100
VEL. DE MUESTREO, C7-C12 (muestras/s)  :
ESC. COMPLETA DE SENSORES, C1-C6, (g)  : /0.5/0.5/0.5
ESC. COMPLETA DE SENSORES, C7-C12, (g) :
FREC. NAT. DE SENSORES, C1-C6, (Hz)    : /30/30/30
FREC. NAT. DE SENSORES, C7-C12, (Hz)   :
AMORTIGUAMIENTO DE SENSORES, C1-C6     : /0.700/0.700/0.700
AMORTIGUAMIENTO DE SENSORES, C7-C12    :
INTERVALO DE MUESTREO, C1-C6, (s)      : /0.01/0.01/0.01
INTERVALO DE MUESTREO, C7-C12, (s)     :
UMBRAL DE DISPARO, C1-C6, (Gal)        : /1.95/2.93/1.95
UMBRAL DE DISPARO, C7-C12, (Gal)       :
MEMORIA DE PREEVENTO (s)               : 24
TIEMPO DE POSEVENTO (s)                : 64


================================================================================
DATOS DEL SISMO:
FECHA DEL SISMO (GMT)                  : 09/AGO/00
HORA EPICENTRO (GMT)                   : 11:41:47:7
MAGNITUD(ES)                           : /Mb=6.1/Ms=6.5/Mc=0.0/Ma=6.5/Me=7.0
COORDENADAS DEL EPICENTRO              : 17.99 LAT. N
                                       : 102.66 LONG. W
PROFUNDIDAD FOCAL (km)                 : 16.0
FUENTE DE LOS DATOS EPICENTRALES       : SSN
                                       : INSTITUTO DE GEOFISICA, UNAM

================================================================================
DATOS DE ESTE REGISTRO:
HORA DE LA PRIMERA MUESTRA (GMT)       : 11:43:39.00
EXACTITUD DEL TIEMPO (s)               : 0.01
DURACION DEL REGISTRO (s), C1-C6       : /130.25/130.25/130.25
DURACION DEL REGISTRO (s), C7-C12      :
NUM. TOTAL DE MUESTRAS, C1-C6          : /13025/13025/13025
NUM. TOTAL DE MUESTRAS, C7-C12         :
ACEL. MAX. (Gal), C1-C6                : /-9.50202/-1.72376/-4.83365
ACEL. MAX., C1-C6, EN LA MUESTRA       :
ACEL. MAX. (Gal), C7-C12               :
ACEL. MAX., C7-C12, EN LA MUESTRA      :
UNIDADES DE LOS DATOS                  : Gal (cm/s/s)
FACTOR DE DECIMACION                   : 1
FORMATO DATOS (FORTRAN,10 campos/dato) : 3F10.5


================================================================================
CALIDAD DEL ACELEROGRAMA:
REGISTRO DIGITAL COMPLETO CON TIEMPO ABSOLUTO CORRECTO.


================================================================================
COMENTARIOS:














================================================================================
DATOS DE ACELERACION:
---------+---------+---------+---------+---------+---------+---------+---------+
   CANAL-1   CANAL-2   CANAL-3   CANAL-4   CANAL-5   CANAL-6   CANAL-7   CANAL-8
      N00E        +V      N90W
---------+---------+---------+---------+---------+---------+---------+---------+
[...]
   5.34196  -0.04783   0.67298
   5.34196  -0.04783   0.43356
   5.34196  -0.04783   0.43356
   5.10254  -0.04783   0.43356
   5.10254  -0.28725   0.19415
   4.86312  -0.28725  -0.04527
   4.86312  -0.28725   0.19415
   4.86312  -0.28725  -0.04527
   4.86312  -0.28725  -0.28469
   4.62370  -0.28725  -0.04527
   4.38428  -0.28725  -0.28469
   4.38428  -0.28725  -0.28469
   4.14486  -0.04783  -0.52411
   4.14486  -0.04783  -0.52411
   3.90544  -0.04783  -0.52411
   3.90544   0.19159  -0.52411
   3.66602  -0.04783  -0.52411
   3.42660   0.19159  -0.76353
   3.18719   0.19159  -0.76353
   2.94777   0.19159  -0.76353
   2.94777   0.19159  -0.76353
   2.46893   0.19159  -0.76353
   2.22951   0.19159  -0.76353
   1.99009  -0.04783  -0.76353
   1.75067   0.19159  -0.52411
   1.51125  -0.04783  -0.52411
   1.27183  -0.04783  -0.52411
   0.79300  -0.04783  -0.52411
   0.55358  -0.04783  -0.52411
   0.31416  -0.04783  -0.52411
   0.07474  -0.04783  -0.52411
  -0.40410  -0.28725  -0.52411
  -0.64352  -0.28725  -0.76353
  -0.88294  -0.52667  -0.76353
  -1.36177  -0.52667  -0.76353
  -1.36177  -0.52667  -0.76353
  -1.84061  -0.52667  -1.00295
  -2.08003  -0.52667  -1.24237
  -2.31945  -0.76609  -1.00295
  -2.55887  -0.52667  -1.24237
  -3.03771  -0.52667  -1.24237
  -3.51655  -0.52667  -1.48179
  -3.51655  -0.52667  -1.24237
  -3.75596  -0.52667  -1.72121
  -4.23480  -0.52667  -1.48179
  -4.23480  -0.52667  -1.72121
  -4.47422  -0.28725  -1.96063
  -4.95306  -0.28725  -2.20004
  -4.95306  -0.28725  -2.20004
  -5.43190  -0.04783  -2.43946
  -5.19248  -0.04783  -2.43946
  -5.67132  -0.04783  -2.67888
  -5.67132  -0.04783  -2.91830
  -5.67132  -0.04783  -2.91830
  -5.43190  -0.04783  -3.15772
  -5.67132  -0.04783  -2.91830
  -5.67132  -0.04783  -3.15772
  -5.67132  -0.04783  -3.15772
  -5.67132  -0.04783  -3.15772
  -5.67132  -0.04783  -3.15772
  -5.67132  -0.28725  -3.39714
  -5.67132  -0.28725  -3.15772
  -5.67132  -0.28725  -3.39714
  -5.67132  -0.52667  -3.39714
  -5.67132  -0.28725  -3.63656
  -5.67132  -0.28725  -3.39714
  -5.67132  -0.28725  -3.63656
  -5.67132  -0.52667  -3.39714
  -5.91073  -0.52667  -3.39714
  -5.67132  -0.52667  -3.39714
  -5.91073  -0.28725  -3.39714
  -5.91073  -0.52667  -3.15772
  -5.91073  -0.52667  -3.15772
  -5.91073  -0.76609  -2.91830
  -5.91073  -0.76609  -2.91830
  -5.67132  -0.76609  -2.67888
  -5.91073  -0.76609  -2.67888
  -5.43190  -1.00550  -2.43946
  -5.43190  -1.24492  -2.20004
  -5.19248  -1.24492  -2.20004
  -5.19248  -1.24492  -1.96063
  -4.71364  -1.24492  -1.96063
  -4.71364  -1.24492  -1.72121
  -4.23480  -1.00550  -1.72121
  -3.99538  -1.24492  -1.48179
  -3.75596  -1.00550  -1.48179
  -3.27713  -1.00550  -1.48179
  -3.03771  -0.76609  -1.48179
  -2.55887  -0.76609  -1.48179
  -2.31945  -0.52667  -1.72121
  -1.84061  -0.76609  -1.48179
  -1.84061  -0.52667  -1.48179
  -1.60119  -0.52667  -1.48179
  -1.36177  -0.52667  -1.48179
  -1.12236  -0.52667  -1.48179
  -0.88294  -0.76609  -1.24237
  -0.64352  -0.52667  -1.24237
  -0.40410  -0.52667  -1.00295
  -0.16468  -0.52667  -1.00295
   0.07474  -0.52667  -0.52411
   0.07474  -0.52667  -0.52411
   0.31416  -0.52667  -0.28469
   0.31416  -0.52667  -0.04527
   0.31416  -0.52667   0.19415
   0.31416  -0.52667   0.43356
   0.31416  -0.52667   0.67298
   0.55358  -0.52667   0.91240
   0.55358  -0.28725   0.91240
   0.79300  -0.52667   1.15182
   0.79300  -0.52667   1.15182
   0.79300  -0.52667   1.39124
   0.79300  -0.52667   1.39124
   1.03241  -0.28725   1.39124
   0.79300  -0.52667   1.63066
   0.79300  -0.28725   1.63066
   0.55358  -0.52667   1.63066
   0.31416  -0.28725   1.63066
   0.55358  -0.28725   1.87008
   0.31416  -0.28725   1.87008
   0.31416  -0.28725   2.10950
   0.07474  -0.28725   2.10950
   0.07474  -0.28725   2.10950
   0.07474  -0.28725   2.34892
  -0.16468  -0.28725   2.34892
  -0.16468  -0.04783   2.58833
  -0.40410  -0.04783   2.58833
  -0.16468  -0.04783   2.58833
  -0.40410  -0.04783   2.58833
  -0.40410   0.19159   2.58833
  -0.16468   0.19159   2.58833
  -0.16468   0.19159   2.58833
   0.07474   0.19159   2.58833
  -0.16468   0.43101   2.34892
   0.07474   0.19159   2.34892
   0.07474   0.43101   2.34892
   0.31416   0.43101   2.34892
   0.31416   0.67043   2.34892
   0.31416   0.67043   2.34892
   0.31416   0.67043   2.34892
   0.31416   0.67043   2.34892
   0.31416   0.67043   2.34892
   0.31416   0.67043   2.34892
   0.31416   0.43101   2.34892
   0.31416   0.43101   2.34892
   0.31416   0.19159   2.58833
   0.07474   0.43101   2.58833
   0.07474   0.43101   2.82775
   0.07474   0.19159   2.58833
  -0.16468   0.43101   2.82775
  -0.16468   0.19159   2.82775
  -0.16468   0.19159   2.82775
   0.07474   0.19159   3.06717
  -0.16468   0.19159   2.82775
  -0.16468   0.43101   2.82775
  -0.16468   0.19159   2.82775
  -0.16468   0.19159   2.82775
  -0.16468   0.19159   2.82775
  -0.16468   0.19159   2.58833
  -0.16468   0.19159   2.58833
  -0.40410   0.19159   2.34892
  -0.40410  -0.04783   2.34892
  -0.40410   0.19159   2.10950
  -0.40410  -0.04783   2.10950
  -0.64352  -0.04783   1.87008
  -0.64352  -0.04783   1.39124
  -0.64352  -0.04783   1.15182
  -0.64352  -0.04783   1.15182
  -0.64352  -0.04783   0.91240
  -0.40410   0.19159   0.67298
  -0.40410  -0.04783   0.67298
  -0.40410   0.19159   0.43356
  -0.16468   0.19159   0.43356
   0.07474   0.19159   0.19415
   0.07474   0.19159   0.19415
   0.07474   0.19159  -0.04527
   0.55358   0.19159  -0.04527
   0.55358   0.19159  -0.04527
   0.55358   0.43101  -0.04527
   0.79300   0.19159  -0.04527
   0.79300   0.19159  -0.04527
   1.03241   0.19159  -0.04527
   1.03241   0.43101  -0.04527
   1.27183   0.19159  -0.04527
   1.27183   0.43101  -0.04527
   1.27183   0.19159  -0.04527
   1.27183   0.43101   0.19415
   1.51125   0.43101   0.19415
   1.27183   0.43101   0.19415
   1.51125   0.43101   0.19415
   1.51125   0.43101   0.43356
   1.51125   0.43101   0.67298
   1.75067   0.43101   0.67298
   1.75067   0.43101   0.67298
   1.75067   0.43101   0.91240
   1.75067   0.19159   0.91240
   1.99009   0.19159   0.91240
   1.75067   0.19159   0.91240
   1.75067   0.19159   0.91240
   1.99009  -0.04783   1.15182
   1.75067  -0.04783   0.67298
   1.99009  -0.04783   0.67298
   1.75067  -0.04783   0.67298
   1.75067   0.19159   0.43356
   1.75067  -0.04783   0.43356
   1.75067  -0.04783   0.19415
   1.99009   0.19159   0.19415
   1.75067   0.19159  -0.04527
   1.99009   0.43101  -0.04527
   1.75067   0.43101  -0.04527
   1.75067   0.67043  -0.28469
   1.75067   0.67043  -0.28469
   1.51125   0.67043  -0.52411
   1.51125   0.90985  -0.52411
   1.27183   0.90985  -0.52411
   1.27183   0.67043  -0.76353
   1.03241   0.90985  -0.76353
   1.03241   0.90985  -0.76353
   0.79300   0.90985  -1.00295
   0.55358   0.90985  -1.00295
   0.55358   0.67043  -1.00295
   0.31416   0.90985  -1.00295
   0.31416   0.67043  -1.00295
  -0.16468   0.90985  -1.00295
   0.07474   0.43101  -1.00295
  -0.40410   0.43101  -1.00295
  -0.16468   0.43101  -1.00295
  -0.40410   0.43101  -1.00295
  -0.40410   0.19159  -1.00295
  -0.64352   0.19159  -1.00295
  -0.64352   0.19159  -1.24237
  -0.88294  -0.04783  -1.00295
  -1.12236  -0.04783  -1.24237
  -1.12236  -0.04783  -1.24237
  -1.12236  -0.04783  -1.24237
  -1.12236  -0.04783  -1.24237
  -1.60119  -0.04783  -1.48179
  -1.60119  -0.04783  -1.24237
  -1.60119  -0.04783  -1.48179
  -1.60119   0.19159  -1.48179
  -1.60119   0.19159  -1.48179
  -1.60119   0.19159  -1.48179
  -1.84061   0.43101  -1.48179
  -1.84061   0.43101  -1.48179
  -1.84061   0.43101  -1.48179
  -1.60119   0.67043  -1.48179
  -1.60119   0.43101  -1.48179
  -1.60119   0.43101  -1.24237
  -1.60119   0.43101  -1.48179
  -1.60119   0.43101  -1.24237
  -1.36177   0.43101  -1.24237
  -1.36177   0.43101  -1.00295
  -1.12236   0.43101  -1.00295
  -0.88294   0.19159  -0.76353
  -0.64352  -0.04783  -0.76353
  -0.40410  -0.04783  -0.52411
  -0.40410  -0.04783  -0.52411
  -0.16468  -0.04783  -0.28469
  -0.16468  -0.28725  -0.04527
   0.07474  -0.28725   0.19415
   0.31416  -0.52667   0.43356
   0.55358  -0.52667   0.67298
   0.55358  -0.76609   0.67298
   1.03241  -0.76609   0.91240
   1.27183  -0.52667   1.15182
   1.51125  -0.52667   1.39124
   1.99009  -0.76609   1.39124
   2.22951  -0.52667   1.63066
   2.70835  -0.52667   1.63066
   3.18719  -0.52667   1.87008
   3.66602  -0.28725   1.87008
   3.90544  -0.28725   2.10950
   4.14486  -0.04783   2.10950
   4.62370  -0.04783   2.34892
   4.86312  -0.04783   2.34892
   5.10254   0.43101   2.34892
   5.34196   0.43101   2.58833
   5.34196   0.43101   2.58833
   5.82079   0.67043   2.82775
   5.82079   0.67043   2.58833
   6.06021   0.67043   2.58833
   6.06021   0.67043   2.58833
   6.29963   0.67043   2.58833
   6.53905   0.67043   2.58833
   6.53905   0.67043   2.34892
   7.01789   0.67043   2.34892
   7.01789   0.67043   2.10950
   7.25731   0.67043   2.10950
   7.73615   0.67043   2.10950
   7.73615   0.67043   1.87008
   7.97556   0.67043   1.87008
   7.97556   0.67043   1.63066
   8.21498   0.67043   1.63066
   8.21498   0.43101   1.63066
   8.21498   0.67043   1.63066
   8.21498   0.67043   1.63066
   7.97556   0.67043   1.63066
   8.21498   0.67043   1.63066
   7.97556   0.67043   1.63066
   7.97556   0.67043   1.39124
   7.73615   0.67043   1.39124
   7.73615   0.67043   1.39124
   7.73615   0.90985   1.15182
   7.49673   0.67043   1.15182
   7.49673   0.67043   1.15182
   7.01789   0.67043   1.15182
   7.01789   0.67043   0.91240
   6.77847   0.67043   0.91240
   6.53905   0.43101   0.67298
   6.06021   0.43101   0.43356
   5.82079   0.67043   0.67298
   5.58137   0.43101   0.43356
   5.34196   0.43101   0.19415
   4.86312   0.19159  -0.04527
   4.62370   0.19159  -0.28469
   3.90544  -0.04783  -0.28469
   3.66602   0.19159  -0.52411
   3.18719  -0.04783  -0.76353
   2.70835   0.19159  -1.00295
   2.22951  -0.04783  -1.00295
   1.75067  -0.04783  -1.24237
   1.27183  -0.04783  -1.24237
   0.79300  -0.28725  -1.24237
   0.07474  -0.28725  -1.48179
  -0.40410  -0.28725  -1.48179
  -1.12236  -0.28725  -1.72121
  -1.36177  -0.28725  -1.96063
  -2.08003  -0.28725  -1.96063
  -2.55887  -0.52667  -2.20004
  -3.03771  -0.28725  -2.43946
  -3.51655  -0.52667  -2.67888
  -3.99538  -0.28725  -2.91830
  -4.23480  -0.28725  -2.91830
  -4.95306  -0.28725  -3.15772
  -5.19248  -0.28725  -3.39714
  -5.43190  -0.28725  -3.39714
  -5.91073  -0.28725  -3.63656
  -6.38957  -0.52667  -3.63656
  -6.62899  -0.52667  -3.87598
  -7.10783  -0.52667  -3.63656
  -7.34725  -0.52667  -3.87598
  -7.82609  -0.76609  -3.63656
  -7.82609  -0.76609  -3.63656
  -8.06550  -0.76609  -3.63656
  -8.54434  -0.76609  -3.63656
  -8.54434  -1.00550  -3.39714
  -8.78376  -1.00550  -3.39714
  -9.02318  -1.00550  -3.39714
  -9.26260  -1.00550  -3.15772
  -9.26260  -1.00550  -3.15772
  -9.50202  -1.00550  -3.15772
  -9.50202  -1.24492  -2.91830
  -9.50202  -1.24492  -3.15772
  -9.50202  -1.24492  -2.91830
  -9.50202  -1.00550  -2.67888
  -9.26260  -1.24492  -2.67888
  -9.26260  -1.00550  -2.43946
  -9.02318  -1.24492  -2.20004
  -9.02318  -1.00550  -2.20004
  -8.78376  -0.76609  -1.96063
  -8.54434  -0.76609  -1.72121
  -8.30492  -0.76609  -1.48179
  -8.06550  -0.52667  -1.48179
  -7.82609  -0.52667  -1.00295
  -7.34725  -0.28725  -1.00295
  -7.10783  -0.28725  -0.52411
  -6.86841  -0.28725  -0.52411
  -6.38957  -0.28725  -0.28469
  -6.15015  -0.28725  -0.04527
  -5.67132  -0.28725   0.43356
  -5.43190  -0.04783   0.67298
  -4.95306  -0.28725   0.67298
  -4.71364  -0.28725   0.91240
  -4.23480  -0.04783   1.15182
  -3.75596  -0.28725   1.63066
  -3.51655  -0.04783   1.87008
  -3.03771  -0.28725   2.10950
  -2.55887  -0.04783   2.10950
  -2.08003  -0.04783   2.58833
  -1.60119  -0.04783   2.82775
  -1.12236  -0.04783   2.82775
  -0.64352  -0.04783   3.06717
  -0.16468   0.19159   3.30659
   0.31416  -0.04783   3.54601
   0.79300  -0.04783   3.54601
   1.51125  -0.04783   3.78543
   1.75067  -0.04783   4.02485
   2.22951  -0.04783   4.02485
   2.46893  -0.04783   4.26427
   2.94777  -0.04783   4.26427
   3.18719  -0.28725   4.50369
   3.42660  -0.28725   4.50369
   3.90544  -0.28725   4.50369
   4.14486  -0.28725   4.74311
   4.38428  -0.04783   4.50369
   4.62370  -0.28725   4.74311
   4.86312  -0.04783   4.50369
   5.10254  -0.04783   4.26427
   5.34196  -0.04783   4.26427
   5.34196   0.19159   4.02485
   5.58137   0.19159   3.78543
   5.58137   0.43101   3.54601
   5.82079   0.43101   3.30659
   5.58137   0.43101   3.06717
   5.82079   0.43101   3.06717
   5.82079   0.43101   2.82775
   5.82079   0.43101   2.58833
   5.82079   0.67043   2.34892
   5.58137   0.43101   2.34892
   5.82079   0.43101   2.10950
   5.58137   0.43101   2.10950
   5.58137   0.43101   1.87008
   5.34196   0.43101   1.87008
   5.34196   0.43101   1.39124
   5.10254   0.43101   1.39124
   4.86312   0.43101   1.15182
   4.86312   0.43101   1.15182
   4.62370   0.43101   0.91240
   4.38428   0.43101   0.67298
   4.14486   0.19159   0.43356
   3.66602   0.43101   0.43356
   3.66602   0.43101   0.19415
   3.42660   0.43101  -0.04527
   3.18719   0.67043  -0.28469
   2.94777   0.43101  -0.28469
   2.46893   0.67043  -0.76353
   2.22951   0.43101  -0.76353
   1.75067   0.43101  -1.00295
   1.51125   0.43101  -1.00295
   1.27183   0.43101  -1.24237
   1.03241   0.67043  -1.24237
   0.55358   0.67043  -1.24237
   0.07474   0.67043  -1.72121
  -0.16468   0.67043  -1.48179
  -0.64352   0.67043  -1.72121
  -0.64352   0.67043  -1.72121
  -0.88294   0.67043  -1.96063
  -1.12236   0.67043  -1.96063
  -1.36177   0.67043  -2.20004
  -1.60119   0.67043  -2.43946
  -1.84061   0.67043  -2.43946
  -1.84061   0.67043  -2.67888
  -1.84061   0.43101  -2.67888
  -1.84061   0.67043  -2.91830
  -1.84061   0.43101  -2.91830
  -2.08003   0.43101  -3.15772
  -2.08003   0.19159  -3.15772
  -2.08003   0.19159  -3.39714
  -2.08003   0.19159  -3.15772
  -2.31945   0.19159  -3.15772
  -2.08003   0.19159  -3.15772
  -2.31945  -0.04783  -3.15772
  -2.31945  -0.04783  -3.15772
  -2.31945  -0.04783  -2.91830
  -2.55887  -0.04783  -2.91830
  -2.55887  -0.04783  -2.91830
  -2.79829  -0.04783  -2.91830
  -2.55887  -0.04783  -2.91830
  -2.79829  -0.04783  -2.91830
  -2.79829  -0.04783  -2.67888
  -2.79829  -0.04783  -2.67888
  -2.79829  -0.04783  -2.67888
  -3.03771  -0.28725  -2.43946
  -2.79829  -0.28725  -2.20004
  -3.03771  -0.28725  -2.20004
  -2.79829  -0.28725  -1.96063
  -2.79829  -0.28725  -1.72121
  -3.03771  -0.28725  -1.48179
  -2.79829  -0.52667  -1.24237
  -3.03771  -0.28725  -1.00295
  -2.79829  -0.28725  -0.52411
  -2.79829  -0.28725  -0.28469
  -2.79829  -0.28725   0.43356
  -2.79829  -0.28725   0.43356
  -2.79829  -0.28725   0.67298
  -2.55887  -0.28725   0.91240
  -2.55887  -0.28725   1.15182
  -2.55887  -0.28725   1.39124
  -2.31945  -0.04783   1.39124
  -2.31945  -0.04783   1.63066
  -2.08003  -0.04783   1.39124
  -1.84061  -0.04783   1.63066
  -1.60119   0.19159   1.63066
  -1.36177   0.19159   1.39124
  -1.36177   0.19159   1.39124
  -0.88294   0.19159   1.39124
  -0.88294   0.19159   1.15182
  -0.64352   0.19159   1.15182
  -0.40410  -0.04783   1.15182
  -0.40410   0.19159   1.15182
   0.07474  -0.04783   1.15182
   0.07474  -0.04783   1.15182
   0.31416  -0.04783   1.15182
   0.31416  -0.28725   1.15182
   0.55358  -0.04783   1.39124
   0.79300  -0.28725   1.39124
   1.03241  -0.28725   1.39124
   1.27183  -0.28725   1.63066
   1.27183  -0.28725   1.87008
   1.51125  -0.28725   2.10950
