********************************************************************************
               CENTRO DE INSTRUMENTACION Y REGISTRO SISMICO  A.C.  
                       Coordinacion de Servicios Tecnicos
     Anaxagoras 814, Col. Narvarte, Benito Juarez, C.P. 03020 Mexico, D.F.
            Tels. 687 45 42/ 687 45  82             Fax. 669 25 12
********************************************************************************
ARCHIVO ESTANDAR DE ACELERACION:
VERSION DEL FORMATO                    : 2.0
NOMBRE DEL ARCHIVO                     : AO240301.221
FECHA Y HORA DE CREACION               : 19/JUL/04, 9:00
REF. CATALOGO ACELEROGRAMAS, SMIS 1996 : REGISTRO No.     /PAG.


================================================================================
DATOS DE LA ESTACION:
NOMBRE DE LA ESTACION                  : ALBERCA OLIMPICA
CLAVE DE LA ESTACION                   : AO24
LOCALIZACION DE LA ESTACION            : Alberca Olimpica Rio Churubusco y
                                       : Division del Norte, Col Pedro Ma
                                       : Anaya, Benito Juarez
                                       :
                                       :
COORDENADAS DE LA ESTACION             : 19.358 LAT. N 
                                       : 99.154 LONG. W 
ALTITUD (msnm)                         : 2235
TIPO DE SUELO                          : TRANSICION
                                       : 
                                       : 
INSTITUCION RESPONSABLE                : CIRES
                                       :

================================================================================
DATOS DEL ACELEROGRAFO:
MODELO DEL ACELEROGRAFO                : RAD-851
NUMERO DE SERIE DEL ACELEROGRAFO       : 257
NUMERO DE CANALES                      : 3
ORIENTACION C1-C6 (rumbo;orientacion)  : /N00E/+V/N90W
ORIENTACION C7-C12 (rumbo;orientacion) :
VEL. DE MUESTREO, C1-C6 (muestras/s)   : /100/100/100
VEL. DE MUESTREO, C7-C12 (muestras/s)  :
ESC. COMPLETA DE SENSORES, C1-C6, (g)  : /0.5/0.5/0.5
ESC. COMPLETA DE SENSORES, C7-C12, (g) :
FREC. NAT. DE SENSORES, C1-C6, (Hz)    : /30/30/30
FREC. NAT. DE SENSORES, C7-C12, (Hz)   :
AMORTIGUAMIENTO DE SENSORES, C1-C6     : /0.700/0.700/0.700
AMORTIGUAMIENTO DE SENSORES, C7-C12    :
INTERVALO DE MUESTREO, C1-C6, (s)      : /0.01/0.01/0.01
INTERVALO DE MUESTREO, C7-C12, (s)     :
UMBRAL DE DISPARO, C1-C6, (Gal)        : /1.95/2.93/1.95
UMBRAL DE DISPARO, C7-C12, (Gal)       :
MEMORIA DE PREEVENTO (s)               : 24
TIEMPO DE POSEVENTO (s)                : 64


================================================================================
DATOS DEL SISMO:
FECHA DEL SISMO (GMT)                  : 22/ENE/03
HORA EPICENTRO (GMT)                   : 02:06:34:5
MAGNITUD(ES)                           : /Mb=6.5/Ms=7.6/Mc=0.0/Ma=7.2/Me=7.6
COORDENADAS DEL EPICENTRO              : 18.60 LAT. N
                                       : 104.22 LONG. W
PROFUNDIDAD FOCAL (km)                 : 9.0
FUENTE DE LOS DATOS EPICENTRALES       : SSN
                                       : INSTITUTO DE GEOFISICA, UNAM

================================================================================
DATOS DE ESTE REGISTRO:
HORA DE LA PRIMERA MUESTRA (GMT)       : 02:09:05.00
EXACTITUD DEL TIEMPO (s)               : 0.01
DURACION DEL REGISTRO (s), C1-C6       : /156.00/156.00/156.00
DURACION DEL REGISTRO (s), C7-C12      :
NUM. TOTAL DE MUESTRAS, C1-C6          : /15600/15600/15600
NUM. TOTAL DE MUESTRAS, C7-C12         :
ACEL. MAX. (Gal), C1-C6                : /9.92011/2.27643/9.26528
ACEL. MAX., C1-C6, EN LA MUESTRA       :
ACEL. MAX. (Gal), C7-C12               :
ACEL. MAX., C7-C12, EN LA MUESTRA      :
UNIDADES DE LOS DATOS                  : Gal (cm/s/s)
FACTOR DE DECIMACION                   : 1
FORMATO DATOS (FORTRAN,10 campos/dato) : 3F10.5


================================================================================
CALIDAD DEL ACELEROGRAMA:
REGISTRO DIGITAL COMPLETO CON TIEMPO ABSOLUTO CORRECTO.


================================================================================
COMENTARIOS:














================================================================================
DATOS DE ACELERACION:
---------+---------+---------+---------+---------+---------+---------+---------+
   CANAL-1   CANAL-2   CANAL-3   CANAL-4   CANAL-5   CANAL-6   CANAL-7   CANAL-8
      N00E        +V      N90W
---------+---------+---------+---------+---------+---------+---------+---------+
[...]
  -5.64212   0.60050  -3.42392
  -5.88154   0.83992  -3.42392
  -5.88154   0.60050  -3.18450
  -5.88154   0.60050  -2.94508
  -6.12096   0.60050  -2.94508
  -6.12096   0.36108  -2.70566
  -6.36038   0.36108  -2.46625
  -6.59980   0.60050  -2.46625
  -6.59980   0.36108  -2.46625
  -6.83922   0.36108  -2.46625
  -6.83922   0.36108  -2.22683
  -6.83922   0.36108  -2.22683
  -7.07864   0.36108  -1.98741
  -7.07864   0.12166  -1.98741
  -7.07864   0.12166  -1.98741
  -7.07864   0.12166  -1.74799
  -7.31805  -0.11776  -1.74799
  -7.07864  -0.11776  -1.50857
  -7.07864  -0.11776  -1.50857
  -6.83922  -0.11776  -1.50857
  -6.83922  -0.35718  -1.26915
  -6.83922  -0.35718  -1.26915
  -6.83922  -0.35718  -1.02973
  -6.59980  -0.35718  -0.79031
  -6.36038  -0.35718  -0.79031
  -6.12096  -0.35718  -0.79031
  -6.12096  -0.35718  -0.55089
  -5.64212  -0.35718  -0.31147
  -5.64212  -0.35718  -0.31147
  -5.40270  -0.35718  -0.31147
  -5.16328  -0.35718  -0.07206
  -4.92387  -0.35718  -0.31147
  -4.68445  -0.35718  -0.07206
  -4.20561  -0.35718  -0.07206
  -4.20561  -0.35718  -0.31147
  -3.96619  -0.35718  -0.31147
  -3.48735  -0.35718  -0.31147
  -3.00851  -0.35718  -0.31147
  -3.24793  -0.59660  -0.31147
  -2.52968  -0.35718  -0.55089
  -2.29026  -0.35718  -0.55089
  -2.05084  -0.35718  -0.79031
  -1.81142  -0.35718  -1.02973
  -1.57200  -0.35718  -1.02973
  -1.33258  -0.35718  -1.26915
  -1.09316  -0.35718  -1.26915
  -1.09316  -0.11776  -1.50857
  -0.85374  -0.35718  -1.50857
  -0.37491  -0.35718  -1.98741
  -0.37491  -0.11776  -1.74799
  -0.37491  -0.35718  -1.98741
  -0.13549  -0.11776  -2.22683
  -0.13549  -0.11776  -2.46625
   0.10393  -0.11776  -2.46625
   0.34335  -0.11776  -2.70566
   0.34335   0.12166  -2.70566
   0.58277   0.12166  -2.94508
   0.82219   0.12166  -3.18450
   0.82219   0.12166  -3.18450
   0.58277   0.12166  -3.42392
   0.82219   0.12166  -3.42392
   0.82219  -0.11776  -3.66334
   0.82219   0.12166  -3.66334
   0.82219  -0.11776  -3.90276
   0.82219  -0.11776  -3.90276
   0.82219  -0.11776  -3.90276
   0.58277  -0.35718  -3.90276
   0.82219  -0.11776  -4.14218
   0.82219  -0.35718  -4.14218
   0.58277  -0.35718  -4.14218
   0.58277  -0.35718  -4.14218
   0.34335  -0.35718  -4.14218
   0.58277  -0.35718  -4.14218
   0.34335  -0.11776  -4.14218
   0.10393  -0.35718  -4.14218
  -0.13549  -0.35718  -4.14218
  -0.37491  -0.59660  -4.14218
  -0.37491  -0.35718  -4.14218
  -0.61432  -0.35718  -3.90276
  -0.61432  -0.35718  -3.90276
  -0.85374  -0.35718  -3.90276
  -0.85374  -0.35718  -3.66334
  -1.09316  -0.35718  -3.42392
  -1.09316  -0.35718  -2.94508
  -1.33258  -0.11776  -2.94508
  -1.33258   0.12166  -2.94508
  -1.57200  -0.11776  -2.46625
  -1.57200  -0.11776  -2.46625
  -1.57200   0.12166  -2.22683
  -1.57200   0.12166  -1.74799
  -1.81142   0.12166  -1.50857
  -1.81142   0.36108  -1.02973
  -1.57200   0.36108  -0.79031
  -1.57200   0.36108  -0.55089
  -1.57200   0.36108  -0.07206
  -1.33258   0.36108   0.40678
  -1.33258   0.36108   0.64620
  -1.33258   0.36108   1.12504
  -1.09316   0.60050   1.12504
  -1.09316   0.60050   1.60388
  -0.85374   0.36108   1.84330
  -0.61432   0.36108   2.32213
  -0.37491   0.36108   2.56155
  -0.13549   0.36108   2.80097
   0.10393   0.36108   3.04039
   0.34335   0.36108   3.51923
   0.58277   0.36108   3.75865
   0.82219   0.36108   4.23749
   1.06161   0.36108   4.23749
   1.30103   0.36108   4.47690
   1.54045   0.36108   4.71632
   1.77986   0.60050   4.95574
   2.01928   0.60050   4.95574
   2.25870   0.36108   5.19516
   2.49812   0.12166   5.43458
   2.49812   0.12166   5.67400
   2.73754   0.12166   5.67400
   2.97696   0.12166   5.91342
   2.97696  -0.11776   5.91342
   3.21638  -0.11776   5.91342
   3.45580  -0.11776   6.15284
   3.45580  -0.35718   6.15284
   3.45580  -0.35718   6.15284
   3.45580  -0.35718   6.39226
   3.69522  -0.35718   6.39226
   3.45580  -0.35718   6.15284
   3.69522  -0.59660   6.15284
   3.69522  -0.35718   5.91342
   3.69522  -0.59660   5.91342
   3.69522  -0.59660   6.15284
   3.69522  -0.59660   5.67400
   3.45580  -0.83602   5.67400
   3.45580  -0.59660   5.43458
   3.21638  -0.83602   5.43458
   3.21638  -0.83602   5.19516
   2.97696  -1.07544   4.95574
   2.73754  -0.83602   4.71632
   2.49812  -0.83602   4.47690
   2.25870  -0.83602   4.23749
   1.77986  -0.83602   4.23749
   1.54045  -0.83602   3.75865
   1.30103  -0.83602   3.51923
   1.06161  -0.59660   3.27981
   0.82219  -0.59660   2.80097
   0.34335  -0.35718   2.32213
  -0.13549  -0.35718   2.32213
  -0.37491  -0.35718   2.08271
  -0.85374  -0.35718   1.60388
  -1.09316  -0.35718   1.12504
  -1.57200  -0.11776   0.88562
  -1.81142  -0.11776   0.64620
  -2.29026  -0.11776   0.40678
  -2.52968  -0.11776  -0.07206
  -3.00851   0.12166  -0.31147
  -3.24793   0.12166  -0.79031
  -3.48735   0.12166  -1.02973
  -3.72677   0.12166  -1.26915
  -4.20561   0.12166  -1.74799
  -4.68445   0.12166  -1.98741
  -4.92387  -0.11776  -2.46625
  -5.40270   0.12166  -2.94508
  -5.64212   0.12166  -3.18450
  -5.88154  -0.11776  -3.42392
  -6.12096  -0.11776  -3.66334
  -6.36038  -0.11776  -4.14218
  -6.59980  -0.35718  -4.38160
  -6.83922  -0.35718  -4.62102
  -7.31805  -0.35718  -4.86043
  -7.31805  -0.35718  -5.09985
  -7.55747  -0.59660  -5.33927
  -7.55747  -0.59660  -5.33927
  -7.79689  -0.83602  -5.57869
  -8.03631  -0.83602  -5.57869
  -8.27573  -1.07544  -5.81811
  -8.27573  -1.07544  -6.05753
  -8.51515  -1.07544  -6.05753
  -8.51515  -1.07544  -6.05753
  -8.51515  -1.07544  -6.05753
  -8.75457  -1.07544  -5.81811
  -8.75457  -1.31486  -5.81811
  -8.75457  -1.07544  -5.81811
  -8.75457  -1.31486  -5.81811
  -8.75457  -1.31486  -5.81811
  -8.51515  -1.31486  -5.33927
  -8.27573  -1.55427  -5.33927
  -8.27573  -1.55427  -5.09985
  -8.03631  -1.55427  -5.09985
  -7.79689  -1.55427  -4.62102
  -7.55747  -1.55427  -4.62102
  -7.31805  -1.55427  -4.38160
  -6.83922  -1.55427  -4.14218
  -6.36038  -1.55427  -3.90276
  -6.12096  -1.55427  -3.66334
  -5.64212  -1.55427  -3.66334
  -5.16328  -1.79369  -3.18450
  -4.92387  -1.55427  -2.70566
  -4.44503  -1.31486  -2.70566
  -3.72677  -1.31486  -2.46625
  -3.48735  -1.31486  -2.22683
  -3.00851  -1.31486  -1.98741
  -2.52968  -1.31486  -1.74799
  -2.05084  -1.31486  -1.02973
  -1.57200  -1.31486  -0.79031
  -1.33258  -1.31486  -0.55089
  -0.85374  -1.31486  -0.07206
  -0.37491  -1.31486   0.16736
   0.10393  -1.31486   0.40678
   0.34335  -1.07544   0.88562
   0.82219  -1.07544   1.12504
   1.06161  -0.83602   1.36446
   1.54045  -0.83602   1.84330
   2.01928  -0.83602   2.08271
   2.25870  -0.83602   2.56155
   2.73754  -0.59660   3.04039
   2.97696  -0.59660   3.27981
   3.45580  -0.59660   3.51923
   3.69522  -0.59660   3.75865
   3.93464  -0.59660   4.23749
   4.17405  -0.59660   4.71632
   4.65289  -0.35718   4.95574
   4.65289  -0.35718   5.19516
   4.89231  -0.35718   5.43458
   5.13173  -0.35718   5.67400
   5.37115  -0.35718   5.91342
   5.61057  -0.11776   6.15284
   5.84999  -0.11776   6.63167
   6.08941  -0.11776   6.63167
   6.08941  -0.11776   6.63167
   6.32882  -0.11776   6.87109
   6.32882  -0.11776   6.87109
   6.56824  -0.11776   7.11051
   6.56824  -0.11776   7.11051
   6.80766  -0.11776   7.11051
   6.80766  -0.11776   7.11051
   6.80766  -0.11776   7.11051
   6.80766  -0.11776   7.11051
   6.56824  -0.11776   7.11051
   6.56824   0.12166   6.87109
   6.56824   0.12166   6.87109
   6.56824   0.12166   6.63167
   6.32882   0.12166   6.63167
   6.32882   0.36108   6.39226
   6.08941   0.36108   6.15284
   6.08941   0.60050   5.91342
   5.84999   0.60050   5.67400
   5.37115   0.60050   5.67400
   5.13173   0.60050   5.43458
   4.89231   0.60050   5.19516
   4.65289   0.60050   4.95574
   4.41347   0.60050   4.71632
   4.17405   0.60050   4.47690
   3.93464   0.36108   4.23749
   3.45580   0.60050   3.99807
   3.21638   0.36108   3.75865
   2.97696   0.36108   3.51923
   2.49812   0.36108   3.04039
   2.25870   0.12166   2.80097
   2.01928  -0.11776   2.32213
   1.77986   0.12166   2.08271
   1.54045  -0.11776   1.60388
   1.06161  -0.11776   1.36446
   0.82219  -0.11776   0.88562
   0.58277  -0.35718   0.64620
   0.10393  -0.59660   0.40678
  -0.13549  -0.59660  -0.07206
  -0.61432  -0.59660  -0.55089
  -1.09316  -0.59660  -0.79031
  -1.33258  -0.59660  -1.50857
  -1.57200  -0.59660  -1.74799
  -1.81142  -0.83602  -1.98741
  -2.29026  -0.83602  -2.22683
  -2.52968  -0.83602  -2.46625
  -2.76909  -0.83602  -2.70566
  -3.24793  -0.83602  -2.94508
  -3.24793  -1.07544  -3.42392
  -3.72677  -1.07544  -3.66334
  -3.96619  -0.83602  -3.90276
  -4.20561  -0.83602  -4.38160
  -4.20561  -1.07544  -4.38160
  -4.44503  -0.83602  -4.62102
  -4.68445  -1.07544  -4.62102
  -4.92387  -1.07544  -4.86043
  -5.16328  -0.83602  -4.86043
  -5.40270  -0.83602  -5.09985
  -5.64212  -0.83602  -5.09985
  -5.64212  -0.83602  -5.33927
  -5.88154  -0.83602  -5.33927
  -6.12096  -0.83602  -5.09985
  -6.12096  -0.59660  -5.09985
  -6.36038  -0.83602  -4.86043
  -6.59980  -0.59660  -4.86043
  -6.59980  -0.59660  -4.86043
  -6.59980  -0.59660  -4.86043
  -6.59980  -0.59660  -4.62102
  -6.83922  -0.59660  -4.14218
  -6.83922  -0.59660  -3.90276
  -6.83922  -0.59660  -3.66334
  -6.59980  -0.59660  -3.42392
  -6.59980  -0.59660  -2.94508
  -6.59980  -0.59660  -2.94508
  -6.59980  -0.59660  -2.70566
  -6.36038  -0.59660  -2.46625
  -6.12096  -0.59660  -1.98741
  -6.12096  -0.59660  -1.50857
  -5.88154  -0.83602  -1.26915
  -5.64212  -0.83602  -0.79031
  -5.40270  -0.83602  -0.55089
  -5.16328  -0.83602  -0.31147
  -4.92387  -0.83602  -0.07206
  -4.68445  -0.83602   0.16736
  -4.20561  -0.83602   0.64620
  -3.96619  -0.83602   0.88562
  -3.48735  -0.83602   1.36446
  -3.24793  -0.83602   1.60388
  -2.76909  -0.83602   1.84330
  -2.29026  -0.83602   2.08271
  -1.81142  -0.83602   2.08271
  -1.33258  -0.83602   2.32213
  -0.85374  -0.59660   2.56155
  -0.13549  -0.59660   2.80097
   0.10393  -0.59660   3.04039
   0.58277  -0.59660   3.27981
   1.06161  -0.59660   3.27981
   1.77986  -0.35718   3.51923
   2.01928  -0.35718   3.51923
   2.49812  -0.35718   3.51923
   2.97696  -0.35718   3.75865
   3.45580  -0.11776   3.99807
   3.93464  -0.11776   3.99807
   4.65289   0.12166   3.99807
   5.13173   0.12166   3.99807
   5.61057   0.12166   3.99807
   6.08941   0.12166   3.99807
   6.32882   0.12166   3.99807
   6.80766   0.12166   3.75865
   7.28650   0.12166   3.75865
   7.76534   0.12166   3.75865
   8.00476   0.12166   3.75865
   8.24418   0.36108   3.27981
   8.72301   0.36108   3.04039
   8.96243   0.36108   2.80097
   9.20185   0.12166   2.80097
   9.20185   0.12166   2.56155
   9.44127   0.36108   2.08271
   9.68069   0.36108   1.84330
   9.68069   0.36108   1.36446
   9.68069   0.12166   1.12504
   9.68069   0.36108   0.88562
   9.68069   0.36108   0.64620
   9.92011   0.36108   0.40678
   9.68069   0.36108  -0.07206
   9.68069   0.36108  -0.31147
   9.44127   0.36108  -0.55089
   9.44127   0.36108  -0.79031
   9.44127   0.36108  -1.02973
   9.20185   0.83992  -1.02973
   8.96243   0.60050  -1.50857
   8.72301   0.83992  -1.74799
   8.24418   0.60050  -1.74799
   8.00476   0.83992  -2.22683
   8.00476   0.83992  -2.22683
   8.00476   0.60050  -2.46625
   7.28650   0.60050  -2.70566
   6.80766   0.60050  -2.94508
   6.56824   0.83992  -2.94508
   6.08941   0.83992  -3.18450
   5.84999   0.83992  -3.42392
   5.61057   0.83992  -3.66334
   5.37115   0.60050  -3.42392
   4.89231   0.60050  -3.90276
   4.41347   0.60050  -3.66334
   3.93464   0.60050  -3.66334
   3.69522   0.60050  -3.90276
   3.21638   0.60050  -4.14218
   2.97696   0.36108  -4.14218
   2.49812   0.36108  -4.38160
   2.01928   0.36108  -4.38160
   1.54045   0.60050  -4.38160
   1.06161   0.83992  -4.62102
   0.82219   0.83992  -4.86043
   0.58277   0.83992  -5.09985
   0.10393   0.83992  -5.09985
  -0.37491   0.60050  -4.86043
  -0.85374   0.83992  -4.86043
  -1.09316   1.07933  -4.86043
  -1.33258   1.31875  -5.09985
  -1.81142   1.31875  -5.33927
  -2.05084   1.31875  -5.33927
  -2.29026   1.31875  -5.09985
  -2.52968   1.31875  -5.09985
  -2.52968   1.55817  -4.86043
  -2.76909   1.55817  -5.09985
  -2.76909   1.55817  -4.86043
  -3.00851   1.55817  -4.86043
  -3.24793   1.55817  -4.62102
  -3.48735   1.55817  -4.62102
  -3.48735   1.79759  -4.62102
  -3.48735   1.79759  -4.38160
  -3.48735   1.79759  -4.38160
  -3.48735   1.79759  -4.38160
  -3.48735   1.55817  -4.14218
  -3.72677   1.55817  -3.90276
  -3.72677   1.55817  -3.66334
  -3.72677   1.79759  -3.66334
  -3.72677   1.55817  -3.42392
  -3.48735   1.55817  -3.42392
  -3.48735   1.31875  -3.42392
  -3.24793   1.31875  -2.94508
  -3.24793   1.07933  -2.94508
  -3.00851   1.07933  -2.70566
  -2.76909   1.07933  -2.46625
  -2.76909   0.83992  -2.22683
  -2.76909   0.83992  -1.98741
  -2.76909   0.60050  -1.74799
  -2.52968   0.60050  -1.50857
  -2.29026   0.60050  -1.26915
  -2.05084   0.60050  -1.02973
  -1.81142   0.36108  -1.02973
  -1.81142   0.36108  -0.55089
  -1.81142   0.12166  -0.07206
  -1.57200   0.12166   0.16736
  -1.33258   0.12166   0.16736
  -1.33258   0.12166   0.40678
  -1.09316   0.12166   0.64620
  -1.09316   0.12166   0.88562
  -1.09316   0.12166   1.12504
  -0.85374   0.12166   1.36446
  -0.61432   0.12166   1.60388
  -0.37491   0.12166   1.84330
  -0.37491   0.12166   2.08271
  -0.37491  -0.11776   2.08271
  -0.13549  -0.11776   2.32213
  -0.13549  -0.11776   2.32213
  -0.37491  -0.11776   2.32213
  -0.13549   0.12166   2.56155
  -0.13549   0.12166   2.80097
   0.10393   0.12166   2.80097
   0.10393   0.12166   3.04039
   0.10393  -0.11776   3.27981
  -0.13549  -0.11776   3.51923
  -0.13549  -0.11776   3.51923
  -0.13549  -0.11776   3.51923
  -0.13549  -0.11776   3.75865
  -0.13549  -0.35718   3.75865
  -0.13549  -0.11776   3.99807
  -0.37491  -0.35718   3.75865
  -0.61432  -0.11776   3.75865
  -0.37491  -0.11776   3.75865
  -0.37491  -0.11776   3.75865
  -0.37491  -0.11776   3.75865
  -0.61432  -0.11776   3.75865
  -0.61432  -0.11776   3.51923
  -0.61432   0.12166   3.51923
  -0.61432  -0.11776   3.51923
  -0.85374  -0.11776   3.27981
  -0.85374   0.12166   3.27981
  -0.85374   0.12166   3.51923
  -1.09316   0.12166   3.27981
  -0.85374   0.36108   3.04039
  -1.09316   0.12166   3.04039
  -1.09316   0.12166   3.04039
  -1.09316   0.12166   3.04039
  -1.09316   0.12166   2.80097
  -1.09316   0.12166   2.56155
  -1.33258   0.12166   2.56155
  -1.09316   0.36108   2.32213
  -1.09316   0.36108   2.32213
  -0.85374   0.36108   2.08271
  -0.85374   0.12166   2.08271
  -0.85374   0.12166   2.08271
  -0.61432   0.12166   1.84330
  -0.85374   0.12166   1.84330
  -0.61432   0.12166   1.60388
  -0.61432  -0.11776   1.36446
  -0.37491  -0.11776   1.36446
  -0.37491   0.12166   1.12504
  -0.37491   0.12166   1.12504
  -0.13549  -0.11776   0.88562
  -0.13549  -0.11776   0.88562
   0.10393  -0.11776   0.64620
   0.10393  -0.35718   0.40678
   0.10393  -0.11776   0.40678
   0.34335  -0.11776   0.40678
   0.34335  -0.35718   0.16736
   0.58277  -0.11776  -0.07206
   0.58277  -0.11776  -0.07206
   0.82219  -0.11776  -0.31147
   1.06161  -0.11776  -0.07206
   1.06161  -0.11776  -0.31147
   1.06161  -0.11776  -0.31147
   1.30103  -0.11776  -0.31147
   1.30103  -0.11776  -0.31147
   1.30103  -0.11776  -0.07206
   1.30103  -0.11776  -0.31147
   1.54045  -0.11776  -0.31147
   1.77986  -0.11776  -0.31147
   1.77986  -0.11776  -0.31147
   1.77986  -0.11776  -0.31147
   2.01928  -0.11776  -0.31147
