********************************************************************************
               CENTRO DE INSTRUMENTACION Y REGISTRO SISMICO  A.C.  
                       Coordinacion de Servicios Tecnicos
     Anaxagoras 814, Col. Narvarte, Benito Juarez, C.P. 03020 Mexico, D.F.
            Tels. 687 45 42/ 687 45  82             Fax. 669 25 12
********************************************************************************
ARCHIVO ESTANDAR DE ACELERACION:
VERSION DEL FORMATO                    : 2.0
NOMBRE DEL ARCHIVO                     : AO249909.301
FECHA Y HORA DE CREACION               : 10/FEBRERO/2000 10:55
REF. CATALOGO ACELEROGRAMAS, SMIS 1996 : REGISTRO No.     /PAG.


================================================================================
DATOS DE LA ESTACION:
NOMBRE DE LA ESTACION                  : ALBERCA OLIMPICA
CLAVE DE LA ESTACION                   : AO24
LOCALIZACION DE LA ESTACION            : Alberca Olimpica Rio Churubusco y
                                       : Division del Norte, Col Pedro Ma
                                       : Anaya, Benito Juarez
                                       :
                                       :
COORDENADAS DE LA ESTACION             : 19.358 LAT. N 
                                       : 99.154 LONG. W 
ALTITUD (msnm)                         : 2235
TIPO DE SUELO                          : TRANSICION
                                       : 
                                       : 
INSTITUCION RESPONSABLE                : CIRES
                                       :

================================================================================
DATOS DEL ACELEROGRAFO:
MODELO DEL ACELEROGRAFO                : RAD-851
NUMERO DE SERIE DEL ACELEROGRAFO       : 257
NUMERO DE CANALES                      : 3
ORIENTACION C1-C6 (rumbo;orientacion)  : /N00E/+V/N90W
ORIENTACION C7-C12 (rumbo;orientacion) :
VEL. DE MUESTREO, C1-C6 (muestras/s)   : /100/100/100
VEL. DE MUESTREO, C7-C12 (muestras/s)  :
ESC. COMPLETA DE SENSORES, C1-C6, (g)  : /0.5/0.5/0.5
ESC. COMPLETA DE SENSORES, C7-C12, (g) :
FREC. NAT. DE SENSORES, C1-C6, (Hz)    : /30/30/30
FREC. NAT. DE SENSORES, C7-C12, (Hz)   :
AMORTIGUAMIENTO DE SENSORES, C1-C6     : /0.700/0.700/0.700
AMORTIGUAMIENTO DE SENSORES, C7-C12    :
INTERVALO DE MUESTREO, C1-C6, (s)      : /0.01/0.01/0.01
INTERVALO DE MUESTREO, C7-C12, (s)     :
UMBRAL DE DISPARO, C1-C6, (Gal)        : /1.95/2.93/1.95
UMBRAL DE DISPARO, C7-C12, (Gal)       :
MEMORIA DE PREEVENTO (s)               : 8
TIEMPO DE POSEVENTO (s)                : 8


================================================================================
DATOS DEL SISMO:
FECHA DEL SISMO (GMT)                  : 30/SEP/99
HORA EPICENTRO (GMT)                   : 16:31:14.8
MAGNITUD(ES)                           : /Mb=6.5/Ms=7.5/Mc=5.2/Ma=7.1/Me=7.6
COORDENADAS DEL EPICENTRO              : 15.95 LAT. N
                                       : 97.03 LONG. W
PROFUNDIDAD FOCAL (km)                 : 16.0
FUENTE DE LOS DATOS EPICENTRALES       : SSN
                                       : INSTITUTO DE GEOFISICA, UNAM

================================================================================
DATOS DE ESTE REGISTRO:
HORA DE LA PRIMERA MUESTRA (GMT)       : 16:32:47.00
EXACTITUD DEL TIEMPO (s)               : 0.01
DURACION DEL REGISTRO (s), C1-C6       : /214.75/214.75/214.75
DURACION DEL REGISTRO (s), C7-C12      :
NUM. TOTAL DE MUESTRAS, C1-C6          : /21475/21475/21475
NUM. TOTAL DE MUESTRAS, C7-C12         :
ACEL. MAX. (Gal), C1-C6                : /18.73508/5.63810/14.12962
ACEL. MAX., C1-C6, EN LA MUESTRA       :
ACEL. MAX. (Gal), C7-C12               :
ACEL. MAX., C7-C12, EN LA MUESTRA      :
UNIDADES DE LOS DATOS                  : Gal (cm/s/s)
FACTOR DE DECIMACION                   : 1
FORMATO DATOS (FORTRAN,10 campos/dato) : 3F10.5


================================================================================
CALIDAD DEL ACELEROGRAMA:
REGISTRO DIGITAL COMPLETO CON TIEMPO ABSOLUTO CORRECTO.


================================================================================
COMENTARIOS:














================================================================================
DATOS DE ACELERACION:
---------+---------+---------+---------+---------+---------+---------+---------+
   CANAL-1   CANAL-2   CANAL-3   CANAL-4   CANAL-5   CANAL-6   CANAL-7   CANAL-8
      N00E        +V      N90W
---------+---------+---------+---------+---------+---------+---------+---------+
[...]
  -3.65169  -0.82621  -0.24332
  -4.13053  -1.06563  -0.00390
  -4.84878  -1.06563   0.23552
  -5.08820  -1.30505   0.71435
  -5.32762  -1.30505   0.71435
  -5.80646  -1.54447   0.95377
  -6.28530  -1.54447   1.19319
  -6.52472  -1.78389   1.19319
  -6.76413  -1.78389   1.43261
  -7.48239  -2.02330   1.19319
  -7.72181  -2.02330   0.95377
  -8.20065  -2.26272   0.95377
  -8.67949  -2.26272   0.95377
  -8.91890  -2.26272   0.95377
  -9.63716  -2.50214   0.47494
  -9.87658  -2.26272   0.47494
 -10.35542  -2.26272   0.23552
 -10.59484  -2.26272  -0.00390
 -10.83426  -2.02330  -0.24332
 -10.83426  -2.02330  -0.48274
 -10.83426  -1.78389  -0.72216
 -11.07368  -1.78389  -1.20100
 -11.07368  -1.54447  -1.20100
 -10.83426  -1.06563  -1.20100
 -10.83426  -1.06563  -1.67983
 -10.83426  -0.82621  -1.44042
 -10.35542  -0.82621  -1.44042
 -10.11600  -0.82621  -1.44042
 -10.11600  -0.82621  -1.67983
  -9.87658  -0.82621  -1.44042
  -9.39774  -1.06563  -1.44042
  -9.15832  -1.30505  -1.67983
  -8.67949  -1.30505  -1.67983
  -8.20065  -1.78389  -1.67983
  -7.72181  -2.26272  -1.67983
  -7.24297  -2.50214  -1.67983
  -6.76413  -2.98098  -1.44042
  -6.28530  -2.98098  -1.67983
  -5.80646  -2.98098  -1.67983
  -5.32762  -2.98098  -1.44042
  -5.08820  -2.74156  -1.44042
  -4.84878  -2.26272  -1.20100
  -4.84878  -2.02330  -0.96158
  -4.60936  -1.30505  -0.72216
  -4.60936  -1.06563  -0.72216
  -4.60936  -0.58679  -0.72216
  -4.60936  -0.10795  -0.48274
  -4.60936   0.13147  -0.48274
  -4.36994   0.37088  -0.48274
  -4.36994   0.37088  -0.48274
  -4.13053   0.61030  -0.48274
  -3.89111   0.61030  -0.24332
  -3.41227   0.61030  -0.00390
  -3.17285   0.37088   0.23552
  -2.45459   0.37088   0.47494
  -2.21517  -0.10795   0.71435
  -1.73634  -0.10795   0.95377
  -1.73634  -0.34737   1.43261
  -1.49692  -0.58679   1.91145
  -1.25750  -0.82621   2.39029
  -1.49692  -1.06563   2.62971
  -1.49692  -1.30505   3.10854
  -1.73634  -1.54447   3.58738
  -1.73634  -2.02330   3.82680
  -1.97576  -2.26272   4.06622
  -1.97576  -2.26272   4.30564
  -2.21517  -2.50214   4.30564
  -2.21517  -2.50214   4.30564
  -2.45459  -2.74156   4.30564
  -2.45459  -2.50214   4.78448
  -2.21517  -2.74156   4.78448
  -2.21517  -2.26272   4.78448
  -1.97576  -2.02330   5.02390
  -1.73634  -1.78389   5.02390
  -1.73634  -1.30505   5.02390
  -1.25750  -1.06563   5.26331
  -1.01808  -1.06563   5.50273
  -1.01808  -0.82621   5.74215
  -0.77866  -0.82621   6.22099
  -0.53924  -0.82621   6.46041
  -0.06040  -0.82621   6.69983
   0.17902  -0.82621   7.17867
   0.65785  -0.82621   7.41809
   0.89727  -1.06563   7.41809
   1.13669  -1.06563   7.41809
   1.61553  -1.06563   7.65750
   1.85495  -1.30505   7.41809
   2.09437  -1.30505   7.17867
   2.57320  -1.30505   6.93925
   3.05204  -1.30505   6.46041
   3.05204  -1.30505   5.98157
   3.53088  -1.30505   5.50273
   3.77030  -1.30505   4.78448
   4.00972  -1.06563   4.06622
   4.00972  -1.06563   3.34796
   4.48856  -0.82621   2.62971
   4.48856  -0.82621   1.91145
   4.72798  -0.34737   1.19319
   4.96739  -0.10795   0.47494
   5.44623   0.13147  -0.00390
   5.20681   0.37088  -0.72216
   5.44623   0.37088  -1.20100
   5.44623   0.61030  -1.91925
   5.44623   0.84972  -2.39809
   5.20681   0.84972  -2.87693
   5.20681   1.08914  -3.35577
   4.96739   1.08914  -4.07402
   4.72798   1.08914  -4.55286
   4.48856   1.08914  -4.79228
   4.48856   1.08914  -5.27112
   4.00972   1.08914  -5.74996
   4.00972   1.32856  -5.98938
   4.00972   1.08914  -6.22879
   3.77030   1.32856  -6.46821
   3.77030   1.08914  -6.70763
   4.00972   0.84972  -6.94705
   3.77030   0.84972  -6.94705
   4.00972   0.84972  -6.94705
   4.00972   0.61030  -7.18647
   4.00972   0.84972  -7.18647
   4.00972   0.84972  -7.18647
   4.24914   0.84972  -7.18647
   4.00972   0.61030  -7.18647
   3.77030   1.08914  -6.70763
   3.77030   0.84972  -6.70763
   3.53088   0.61030  -6.46821
   3.29146   0.84972  -6.22879
   3.05204   0.84972  -5.74996
   2.81262   0.61030  -5.03170
   2.33379   0.61030  -5.03170
   1.85495   0.37088  -4.55286
   1.37611   0.13147  -4.07402
   0.89727   0.13147  -3.59519
   0.17902   0.13147  -3.11635
  -0.06040   0.13147  -2.39809
  -1.01808   0.13147  -1.91925
  -1.49692   0.13147  -1.20100
  -1.97576   0.13147  -0.72216
  -2.45459   0.13147  -0.24332
  -2.93343   0.13147  -0.00390
  -3.17285   0.61030   0.71435
  -3.65169   0.37088   0.95377
  -3.89111   0.61030   1.43261
  -4.13053   0.61030   1.91145
  -4.36994   0.37088   2.39029
  -4.84878   0.61030   2.39029
  -5.08820   0.37088   2.62971
  -5.32762   0.37088   3.10854
  -5.80646   0.37088   3.10854
  -6.04588   0.37088   3.10854
  -6.52472   0.13147   3.58738
  -6.52472   0.13147   3.58738
  -6.76413  -0.10795   3.58738
  -7.00355  -0.34737   3.82680
  -7.00355  -0.34737   3.82680
  -7.00355  -0.34737   3.82680
  -7.00355  -0.58679   4.06622
  -6.76413  -0.58679   4.06622
  -6.28530  -0.34737   4.30564
  -6.04588  -0.34737   4.30564
  -5.32762  -0.10795   4.54506
  -4.84878  -0.10795   4.54506
  -4.13053   0.37088   4.78448
  -3.41227   0.61030   4.78448
  -2.69401   1.08914   5.02390
  -2.21517   1.32856   5.26331
  -1.73634   1.32856   5.74215
  -1.25750   1.32856   5.98157
  -1.01808   1.56798   6.22099
  -0.53924   1.56798   6.69983
  -0.29982   1.08914   6.93925
  -0.06040   1.08914   7.41809
   0.17902   0.84972   7.41809
   0.41843   0.61030   7.65750
   0.65785   0.61030   7.65750
   0.89727   0.61030   7.89692
   1.13669   0.37088   7.65750
   1.37611   0.61030   7.65750
   1.37611   0.61030   7.41809
   1.85495   0.84972   7.41809
   2.09437   0.84972   7.17867
   2.33379   1.08914   6.93925
   2.57320   1.32856   6.93925
   3.05204   1.32856   6.69983
   3.29146   1.56798   6.46041
   3.29146   1.56798   6.46041
   4.00972   1.80740   6.46041
   4.00972   1.56798   6.22099
   4.48856   1.80740   6.22099
   4.72798   1.80740   6.22099
   5.20681   1.80740   5.98157
   5.44623   1.56798   5.98157
   5.68565   1.32856   5.98157
   5.68565   1.32856   5.98157
   5.92507   1.32856   5.74215
   6.16449   1.08914   5.50273
   6.40391   1.08914   5.50273
   6.16449   1.08914   5.26331
   6.40391   1.08914   5.02390
   6.64333   0.84972   4.54506
   6.64333   1.08914   4.30564
   6.88275   1.08914   3.82680
   6.88275   1.08914   3.34796
   7.12216   1.08914   2.86913
   7.12216   1.32856   2.39029
   6.88275   1.08914   2.15087
   6.88275   1.08914   1.67203
   6.40391   1.08914   1.19319
   6.16449   1.08914   1.19319
   5.68565   0.61030   0.95377
   4.96739   0.61030   0.71435
   4.48856   0.37088   0.71435
   4.00972   0.13147   0.47494
   3.29146  -0.10795   0.23552
   2.81262  -0.10795   0.23552
   2.09437  -0.10795  -0.00390
   1.61553  -0.10795  -0.24332
   0.65785  -0.10795  -0.48274
  -0.06040   0.13147  -0.48274
  -0.53924   0.13147  -0.72216
  -1.25750   0.61030  -0.72216
  -1.97576   0.84972  -1.20100
  -2.45459   1.32856  -1.44042
  -3.17285   1.56798  -1.91925
  -3.89111   1.80740  -2.15867
  -4.36994   2.28624  -2.63751
  -5.08820   2.52566  -3.11635
  -5.56704   2.76507  -3.59519
  -6.04588   2.76507  -4.07402
  -6.28530   3.00449  -4.31344
  -6.76413   3.24391  -4.79228
  -7.00355   3.24391  -5.27112
  -6.76413   3.24391  -5.98938
  -7.00355   3.24391  -6.46821
  -6.76413   3.24391  -6.70763
  -6.52472   3.00449  -7.18647
  -6.04588   2.76507  -7.18647
  -6.04588   2.52566  -7.18647
  -5.32762   2.52566  -7.18647
  -5.08820   2.52566  -7.18647
  -4.84878   2.28624  -7.18647
  -4.36994   2.28624  -6.94705
  -4.36994   2.04682  -6.94705
  -4.13053   2.04682  -6.94705
  -4.13053   1.80740  -6.94705
  -3.89111   1.80740  -6.94705
  -4.13053   1.56798  -6.94705
  -4.13053   1.56798  -6.94705
  -4.13053   1.56798  -6.94705
  -4.13053   1.56798  -7.18647
  -4.36994   1.32856  -7.42589
  -4.13053   1.32856  -7.66531
  -3.65169   1.32856  -7.90473
  -3.65169   1.32856  -7.66531
  -3.17285   1.56798  -7.66531
  -2.69401   1.56798  -7.66531
  -2.21517   1.80740  -7.42589
  -1.73634   1.80740  -6.94705
  -0.77866   2.04682  -6.70763
  -0.29982   2.04682  -6.22879
   0.65785   2.28624  -5.51054
   1.13669   2.52566  -5.03170
   2.09437   2.52566  -4.31344
   2.57320   2.52566  -3.83461
   3.29146   2.76507  -3.11635
   4.00972   2.52566  -2.63751
   4.72798   2.52566  -2.15867
   5.20681   2.28624  -1.67983
   5.92507   2.28624  -1.20100
   6.40391   2.04682  -1.44042
   6.88275   2.04682  -0.96158
   7.36158   1.56798  -0.48274
   7.60100   1.32856  -0.24332
   7.84042   1.08914  -0.24332
   8.31926   1.08914   0.23552
   8.55868   1.08914   0.23552
   8.79810   0.84972   0.71435
   9.27694   0.84972   1.19319
   9.51635   0.61030   1.67203
   9.75577   0.61030   1.91145
   9.99519   0.37088   2.39029
  10.47403   0.37088   3.10854
  10.95287   0.13147   3.34796
  11.19229   0.13147   3.82680
  11.67112   0.13147   4.30564
  11.91054   0.13147   4.54506
  12.38938  -0.10795   4.78448
  12.86822  -0.10795   5.26331
  13.10764  -0.10795   5.50273
  13.34706  -0.10795   6.22099
  13.58648  -0.10795   6.69983
  13.58648  -0.10795   6.93925
  13.58648  -0.34737   7.41809
  13.58648  -0.58679   7.65750
  13.82590  -0.58679   7.89692
  13.58648  -0.82621   7.89692
  13.58648  -0.82621   7.89692
  13.58648  -1.06563   7.65750
  13.58648  -1.30505   7.41809
  13.34706  -1.06563   7.17867
  13.34706  -1.30505   6.93925
  13.10764  -1.30505   6.46041
  12.38938  -1.30505   5.98157
  12.38938  -1.06563   5.74215
  11.67112  -1.06563   5.02390
  11.19229  -0.82621   4.78448
  10.71345  -0.82621   4.30564
  10.23461  -0.82621   3.82680
   9.51635  -0.58679   3.34796
   9.03752  -0.34737   3.10854
   8.31926  -0.34737   2.62971
   7.60100  -0.34737   2.39029
   6.64333  -0.34737   1.91145
   6.16449  -0.58679   1.91145
   5.20681  -0.82621   1.43261
   4.48856  -0.58679   0.95377
   3.77030  -0.82621   0.95377
   3.05204  -0.82621   0.95377
   1.85495  -1.06563   0.47494
   0.89727  -1.06563   0.71435
  -0.06040  -1.06563   0.71435
  -1.25750  -1.06563   0.71435
  -2.21517  -1.06563   0.71435
  -3.41227  -1.06563   0.95377
  -4.60936  -1.30505   0.71435
  -5.56704  -1.06563   0.71435
  -6.52472  -1.06563   0.47494
  -7.48239  -1.30505   0.47494
  -8.44007  -1.30505  -0.00390
  -9.39774  -1.54447  -0.24332
 -10.11600  -1.54447  -0.48274
 -11.07368  -1.78389  -0.72216
 -11.79193  -2.02330  -0.96158
 -12.51019  -2.26272  -1.20100
 -13.46786  -2.74156  -1.44042
 -14.18612  -2.98098  -1.20100
 -14.66496  -3.45982  -1.44042
 -15.62264  -3.45982  -1.44042
 -16.34089  -3.69924  -1.44042
 -16.58031  -4.17808  -1.44042
 -17.05915  -4.41749  -1.44042
 -17.77741  -4.41749  -1.67983
 -18.01682  -4.41749  -1.44042
 -18.25624  -4.41749  -1.67983
 -18.49566  -4.17808  -1.67983
 -18.49566  -4.17808  -1.91925
 -18.49566  -3.93866  -1.91925
 -18.49566  -3.93866  -1.67983
 -18.73508  -3.93866  -1.67983
 -18.49566  -3.69924  -1.44042
 -18.25624  -3.93866  -1.20100
 -18.01682  -3.69924  -0.96158
 -17.77741  -3.45982  -0.72216
 -17.53799  -3.69924  -0.72216
 -17.05915  -3.45982  -0.72216
 -16.58031  -3.45982  -0.96158
 -15.86205  -3.45982  -0.96158
 -15.38322  -3.45982  -1.20100
 -14.42554  -3.22040  -1.20100
 -13.22845  -2.98098  -1.44042
 -12.27077  -2.98098  -2.15867
 -11.55251  -2.74156  -2.39809
 -10.11600  -2.50214  -2.63751
  -8.91890  -2.26272  -3.11635
  -7.96123  -2.02330  -3.59519
  -6.76413  -1.78389  -3.83461
  -5.56704  -1.54447  -3.83461
  -4.36994  -1.54447  -4.07402
  -3.41227  -1.06563  -4.07402
  -2.45459  -1.06563  -4.31344
  -1.25750  -0.82621  -4.55286
  -0.29982  -0.82621  -4.55286
   0.89727  -0.58679  -4.55286
   1.61553  -0.58679  -4.55286
   2.81262  -0.58679  -4.55286
   3.53088  -0.34737  -4.55286
   4.72798  -0.34737  -4.55286
   5.68565  -0.58679  -4.79228
   6.64333  -0.10795  -4.55286
   7.84042  -0.10795  -4.79228
   8.79810  -0.10795  -4.79228
   9.51635  -0.10795  -4.55286
  10.71345   0.13147  -4.55286
  11.43171   0.13147  -4.79228
  12.14996   0.13147  -4.55286
  12.86822  -0.10795  -4.31344
  13.58648  -0.34737  -4.31344
  14.06531  -0.10795  -4.31344
  14.54415  -0.34737  -4.07402
  15.26241  -0.34737  -3.83461
  15.50183  -0.82621  -3.83461
  15.98067  -0.34737  -3.83461
  16.45950  -0.58679  -3.59519
  16.69892  -0.58679  -3.83461
  16.69892  -0.34737  -3.83461
  16.69892  -0.58679  -3.59519
  16.69892  -0.34737  -3.59519
  16.45950  -0.34737  -3.83461
  16.22008  -0.10795  -3.59519
  16.22008  -0.10795  -3.83461
  15.98067  -0.10795  -3.83461
  15.74125  -0.10795  -3.59519
  15.74125   0.13147  -3.59519
  15.50183   0.37088  -3.59519
  15.26241   0.61030  -3.59519
  14.78357   0.61030  -3.59519
  14.78357   1.08914  -3.83461
  14.30473   1.32856  -3.83461
  14.06531   1.56798  -3.59519
  13.34706   1.80740  -3.59519
  12.86822   2.04682  -3.59519
  12.38938   2.04682  -3.59519
  11.67112   2.28624  -3.59519
  10.95287   2.52566  -3.59519
  10.47403   2.28624  -3.35577
   9.99519   2.28624  -3.35577
   9.27694   2.28624  -3.59519
   8.79810   2.28624  -3.11635
   8.55868   2.04682  -3.11635
   8.07984   2.04682  -3.11635
   7.36158   1.80740  -3.11635
   7.12216   1.80740  -3.11635
   6.40391   1.56798  -3.35577
   5.92507   1.56798  -2.87693
   5.20681   1.56798  -2.63751
   4.48856   1.56798  -2.39809
   3.53088   1.56798  -2.39809
   3.05204   1.80740  -1.91925
   2.09437   1.56798  -1.67983
   1.13669   1.56798  -1.44042
   0.41843   1.32856  -1.20100
  -0.53924   1.32856  -0.72216
  -1.25750   1.08914  -0.48274
  -2.21517   0.84972  -0.24332
  -2.93343   0.84972   0.47494
  -3.65169   0.37088   0.23552
  -4.36994   0.61030   0.71435
  -4.84878   0.37088   0.95377
  -5.32762   0.37088   1.19319
  -6.04588   0.37088   1.19319
  -6.52472   0.37088   1.43261
  -7.00355   0.37088   1.43261
  -7.72181   0.61030   1.67203
  -7.96123   0.61030   1.91145
  -8.67949   0.37088   1.67203
  -9.15832   0.37088   1.67203
  -9.87658   0.37088   1.67203
 -10.59484   0.37088   1.91145
 -11.31309   0.37088   1.91145
 -12.03135   0.37088   1.67203
 -12.51019   0.37088   1.67203
 -13.22845   0.37088   1.67203
 -13.46786   0.61030   1.43261
 -13.94670   0.61030   1.43261
 -14.42554   0.61030   1.43261
 -14.42554   0.61030   0.95377
 -14.66496   1.08914   0.71435
 -14.90438   1.08914   0.71435
 -14.90438   0.84972   0.47494
 -14.90438   1.08914   0.47494
 -15.14380   1.08914   0.23552
 -14.66496   1.08914   0.23552
 -14.66496   1.32856   0.23552
 -14.42554   1.32856   0.23552
 -13.46786   1.32856   0.23552
 -13.22845   1.56798  -0.00390
 -12.98903   1.80740  -0.00390
 -12.51019   1.80740  -0.00390
 -12.27077   2.04682  -0.24332
 -11.79193   2.28624  -0.00390
 -11.31309   2.28624  -0.00390
 -10.83426   2.52566  -0.24332
 -10.35542   2.76507  -0.24332
 -10.11600   3.00449  -0.24332
  -9.63716   3.24391  -0.48274
  -9.39774   3.72275  -0.48274
  -9.15832   3.72275  -0.72216
  -8.67949   3.72275  -0.96158
  -8.20065   3.72275  -0.96158
  -7.96123   3.72275  -0.96158
  -7.72181   3.24391  -0.96158
  -7.00355   3.00449  -0.96158
  -6.76413   2.52566  -0.96158
  -6.28530   2.28624  -0.72216
  -5.80646   1.80740  -0.72216
  -5.32762   1.32856  -0.48274
  -5.08820   0.84972  -0.24332
  -4.60936   0.37088  -0.24332
  -4.13053  -0.10795  -0.24332
  -3.89111  -0.34737  -0.00390
  -3.41227  -0.82621  -0.00390
  -3.17285  -1.06563  -0.48274
  -2.69401  -1.06563  -0.24332
  -2.45459  -1.54447  -0.48274
  -1.97576  -1.54447  -0.72216
  -1.73634  -1.54447  -0.96158
  -1.25750  -1.30505  -0.96158
  -0.77866  -1.30505  -1.44042
