********************************************************************************
               CENTRO DE INSTRUMENTACION Y REGISTRO SISMICO  A.C.  
                       Coordinacion de Servicios Tecnicos
     Anaxagoras 814, Col. Narvarte, Benito Juarez, C.P. 03020 Mexico, D.F.
            Tels. 687 45 42/ 687 45  82             Fax. 669 25 12
********************************************************************************
ARCHIVO ESTANDAR DE ACELERACION:
VERSION DEL FORMATO                    : 2.0
NOMBRE DEL ARCHIVO                     : AO249104.011
FECHA Y HORA DE CREACION               : 18 de enero 1996/17:05
REF. CATALOGO ACELEROGRAMAS, SMIS 1995 : REGISTRO No. 2740 /PAG. 260


================================================================================
DATOS DE LA ESTACION:
NOMBRE DE LA ESTACION                  : ALBERCA OLIMPICA
CLAVE DE LA ESTACION                   : AO24
LOCALIZACION DE LA ESTACION            : Alberca Olimpica Rio Churubusco y
                                       : Division del Norte, Col Pedro Ma
                                       : Anaya, Benito Juarez
                                       :
                                       :
COORDENADAS DE LA ESTACION             : 19.358 LAT. N 
                                       : 99.154 LONG. W 
ALTITUD (msnm)                         : 2235
TIPO DE SUELO                          : TRANSICION
                                       : 
                                       : 
INSTITUCION RESPONSABLE                : CIRES
                                       :

================================================================================
DATOS DEL ACELEROGRAFO:
MODELO DEL ACELEROGRAFO                : DCA-333
NUMERO DE SERIE DEL ACELEROGRAFO       : 215
NUMERO DE CANALES                      : 3
ORIENTACION C1-C6 (rumbo;orientacion)  : /N00E/+V/N90W
ORIENTACION C7-C12 (rumbo;orientacion) :
VEL. DE MUESTREO, C1-C6 (muestras/s)   : /100/100/100
VEL. DE MUESTREO, C7-C12 (muestras/s)  :
ESC. COMPLETA DE SENSORES, C1-C6, (g)  : /0.5/0.5/0.5
ESC. COMPLETA DE SENSORES, C7-C12, (g) :
FREC. NAT. DE SENSORES, C1-C6, (Hz)    : /30/30/30
FREC. NAT. DE SENSORES, C7-C12, (Hz)   : 
AMORTIGUAMIENTO DE SENSORES, C1-C6     : /0.700/0.700/0.700
AMORTIGUAMIENTO DE SENSORES, C7-C12    :
INTERVALO DE MUESTREO, C1-C6, (s)      : /0.01/0.01/0.01
INTERVALO DE MUESTREO, C7-C12, (s)     :
UMBRAL DE DISPARO, C1-C6, (Gal)        : /1.5/1.5/1.5
UMBRAL DE DISPARO, C7-C12, (Gal)       :
MEMORIA DE PREEVENTO (s)               : 4
TIEMPO DE POSEVENTO (s)                : 15


================================================================================
DATOS DEL SISMO:
FECHA DEL SISMO (GMT)                  : 01/ABR/91
HORA EPICENTRO (GMT)                   : 07:34:45,9 
MAGNITUD(ES)                           : /Mb=5.50/Ms=5.40/Mc=5.30
COORDENADAS DEL EPICENTRO              : 16.044 LAT. N 
                                       : 98.387 LONG. W 
PROFUNDIDAD FOCAL (km)                 : 25.6 
FUENTE DE LOS DATOS EPICENTRALES       : INSTITUTO DE INGENIERIA UNAM
                                       : 

================================================================================
DATOS DE ESTE REGISTRO:
HORA DE LA PRIMERA MUESTRA (GMT)       : 07:36:42.83
EXACTITUD DEL TIEMPO (s)               : 0.01
DURACION DEL REGISTRO (s), C1-C6       : /57.49/57.49/57.49
DURACION DEL REGISTRO (s), C7-C12      :
NUM. TOTAL DE MUESTRAS, C1-C6          : /5749/5749/5749
NUM. TOTAL DE MUESTRAS, C7-C12         :
ACEL. MAX. (Gal), C1-C6                : /2.74/1.10/2.92
ACEL. MAX., C1-C6, EN LA MUESTRA       :
ACEL. MAX. (Gal), C7-C12               :
ACEL. MAX., C7-C12, EN LA MUESTRA      :
UNIDADES DE LOS DATOS                  : Gal (cm/s/s)
FACTOR DE DECIMACION                   : 1
FORMATO DATOS (FORTRAN,10 campos/dato) : 3F10.2


================================================================================
CALIDAD DEL ACELEROGRAMA:
REGISTRO DIGITAL AL QUE FALTA UNA PARTE AL INICIO, SIN TIEMPO
ABSOLUTO.

================================================================================
COMENTARIOS:














================================================================================
DATOS DE ACELERACION:
---------+---------+---------+---------+---------+---------+---------+---------+
   CANAL-1   CANAL-2   CANAL-3   CANAL-4   CANAL-5   CANAL-6   CANAL-7   CANAL-8
      N00E        +V      N90W
---------+---------+---------+---------+---------+---------+---------+---------+
[...]
      0.13      0.81      0.52
      0.37      0.33      0.52
      0.37      0.33      0.52
      0.61      0.09      0.52
      0.61     -0.15      0.52
      0.85      0.09      0.28
      1.09     -0.39      0.28
      1.09     -0.15      0.28
      1.33     -0.39      0.28
      1.33     -0.62      0.04
      1.57     -0.39      0.04
      1.57     -0.62      0.04
      1.57     -0.62      0.04
      1.81     -0.39     -0.20
      1.57     -0.39     -0.20
      1.57     -0.39     -0.44
      1.57     -0.39     -0.68
      1.57     -0.39     -0.68
      1.57     -0.15     -0.92
      1.57     -0.15     -0.92
      1.33     -0.15     -1.15
      1.33     -0.15     -1.15
      0.85      0.09     -1.39
      0.85      0.09     -1.39
      0.85     -0.39     -1.63
      0.61     -0.15     -1.87
      0.61     -0.15     -1.63
      0.37     -0.15     -1.63
      0.13     -0.15     -1.87
      0.13     -0.15     -1.87
     -0.11     -0.15     -1.87
     -0.11     -0.15     -1.87
     -0.35     -0.15     -1.87
     -0.35     -0.62     -1.87
     -0.59     -0.15     -1.63
     -0.59     -0.39     -1.39
     -0.59     -0.39     -1.39
     -0.59     -0.62     -1.15
     -0.83     -0.39     -0.92
     -0.83     -0.39     -0.92
     -0.83     -0.39     -0.68
     -0.83     -0.39     -0.44
     -0.83     -0.39     -0.44
     -0.83     -0.39     -0.20
     -0.83     -0.39     -0.20
     -0.83     -0.39     -0.20
     -0.83     -0.39     -0.20
     -0.83     -0.39      0.04
     -1.06     -0.15      0.04
     -1.06     -0.15      0.04
     -1.06     -0.15      0.04
     -1.06     -0.15      0.04
     -1.30      0.09      0.04
     -1.30      0.33      0.04
     -1.30      0.09      0.28
     -1.30      0.33      0.04
     -1.30      0.57      0.28
     -1.30      0.33      0.28
     -1.30      0.33      0.28
     -1.30      0.57      0.28
     -1.30      0.57      0.28
     -1.30      0.57      0.28
     -1.54      0.57      0.28
     -1.54      0.57      0.28
     -1.54      0.57      0.28
     -1.54      0.57      0.28
     -1.54      0.33      0.28
     -1.78      0.57      0.28
     -1.78      0.57      0.28
     -1.78      0.33      0.28
     -1.78      0.57      0.28
     -1.78      0.33      0.04
     -1.78      0.33      0.04
     -1.54      0.33      0.04
     -1.54      0.33      0.04
     -1.54      0.09     -0.20
     -1.30      0.33     -0.20
     -1.30      0.33     -0.20
     -1.06      0.33     -0.20
     -1.06      0.09     -0.20
     -0.83      0.09     -0.20
     -0.83      0.33     -0.20
     -0.83      0.09      0.04
     -0.59      0.09      0.04
     -0.59      0.33      0.04
     -0.35     -0.15      0.04
     -0.35      0.09      0.04
     -0.35      0.09      0.28
     -0.11      0.09      0.04
     -0.35      0.09      0.28
      0.13      0.09      0.04
      0.13     -0.15      0.04
      0.37     -0.15      0.04
      0.37     -0.15     -0.20
      0.37     -0.15     -0.44
      0.61     -0.15     -0.44
      0.61     -0.15     -0.68
      0.61     -0.15     -0.68
      0.61     -0.39     -0.68
      0.85     -0.39     -0.92
      0.85     -0.39     -0.92
      1.09     -0.39     -0.92
      0.85     -0.15     -0.92
      1.09     -0.39     -0.92
      1.09     -0.39     -0.68
      1.09     -0.39     -0.68
      1.33     -0.15     -0.68
      1.33     -0.15     -0.44
      1.33     -0.39     -0.44
      1.33     -0.15     -0.20
      1.33     -0.15     -0.20
      1.33     -0.39      0.04
      1.33     -0.39      0.28
      1.33     -0.15      0.04
      1.33     -0.39      0.28
      1.33     -0.39      0.28
      1.33     -0.39      0.28
      1.33     -0.39      0.28
      1.33     -0.39      0.28
      1.33     -0.39      0.28
      1.33     -0.39      0.28
      1.33     -0.39      0.04
      1.33     -0.39      0.28
      1.33     -0.39      0.04
      1.33     -0.39      0.04
      1.33     -0.39      0.28
      1.09     -0.39      0.28
      1.09     -0.15      0.28
      1.09     -0.15      0.28
      1.09     -0.39      0.52
      0.85     -0.15      0.52
      0.85     -0.15      0.76
      0.61     -0.15      0.76
      0.37      0.09      0.76
      0.37     -0.15      1.00
      0.37      0.09      1.00
      0.37      0.09      1.00
      0.13      0.09      1.24
      0.13      0.09      1.24
     -0.11      0.09      1.24
      0.13      0.09      1.24
      0.13      0.09      1.24
     -0.11      0.09      1.24
     -0.11      0.09      1.24
     -0.11      0.09      1.00
     -0.11      0.33      1.00
     -0.35      0.09      1.00
     -0.35      0.33      1.00
     -0.35      0.09      1.00
     -0.35      0.33      1.00
     -0.35      0.33      1.00
     -0.35      0.33      1.00
     -0.35      0.33      1.00
     -0.35      0.57      1.00
     -0.35      0.57      1.00
     -0.35      0.33      1.00
     -0.35      0.81      1.00
     -0.35      0.81      1.00
     -0.35      0.33      1.00
     -0.35      0.81      0.76
     -0.35      0.57      0.76
     -0.35      0.57      0.76
     -0.35      0.57      0.76
     -0.35      0.33      0.52
     -0.59      0.33      0.52
     -0.59      0.09      0.28
     -0.59      0.09      0.28
     -0.59     -0.15      0.28
     -0.59     -0.15      0.04
     -0.83     -0.39      0.04
     -0.83     -0.39     -0.20
     -0.83     -0.39     -0.20
     -0.83     -0.39     -0.44
     -0.83     -0.39     -0.44
     -0.83     -0.39     -0.44
     -0.83     -0.39     -0.68
     -0.83     -0.39     -0.68
     -0.83     -0.39     -0.68
     -0.83     -0.39     -0.68
     -0.83     -0.39     -0.68
     -0.83     -0.15     -0.68
     -0.83     -0.15     -0.68
     -0.59     -0.15     -0.68
     -0.59     -0.15     -0.68
     -0.59     -0.15     -0.68
     -0.59      0.09     -0.68
     -0.59      0.09     -0.68
     -0.35      0.09     -0.68
     -0.59      0.09     -0.68
     -0.11      0.09     -0.68
     -0.11      0.09     -1.15
      0.13      0.09     -0.68
      0.13      0.09     -0.92
      0.13      0.09     -0.92
      0.37     -0.15     -0.92
      0.37     -0.15     -0.92
      0.61     -0.15     -0.92
      0.61     -0.39     -0.92
      0.61     -0.39     -0.92
      0.37     -0.39     -0.92
      0.85     -0.39     -0.92
      0.85     -0.39     -0.92
      0.85     -0.39     -0.92
      0.85     -0.39     -0.68
      0.85     -0.39     -0.68
      0.85     -0.39     -0.44
      0.85     -0.39     -0.68
      0.85     -0.39     -0.44
      0.85     -0.39     -0.44
      0.85      0.09     -0.44
      0.61      0.09     -0.20
      0.61      0.09     -0.20
      0.61      0.33     -0.20
      0.37      0.33      0.04
      0.61      0.09     -0.20
      0.61      0.33      0.04
      0.37      0.57     -0.20
      0.37      0.81     -0.20
      0.37      0.57     -0.20
      0.37      0.57     -0.20
      0.13      0.57     -0.20
      0.13      0.57     -0.20
      0.13      0.57     -0.20
     -0.11      0.81     -0.20
     -0.11      0.81      0.04
     -0.11      0.57      0.28
     -0.35      0.81      0.28
     -0.35      0.81      0.04
     -0.35      0.81      0.52
     -0.59      0.81      0.52
     -0.59      0.81      0.52
     -0.59      0.57      0.76
     -0.59      0.57      0.76
     -0.59      0.57      0.76
     -0.59      0.57      1.00
     -0.59      0.33      1.00
     -0.59      0.57      1.24
     -0.35      0.33      1.24
     -0.35      0.09      1.24
     -0.35      0.09      1.24
     -0.35      0.09      1.24
     -0.35      0.09      1.48
     -0.59      0.09      1.24
     -0.35     -0.15      1.48
     -0.35     -0.15      1.48
     -0.35     -0.15      1.48
     -0.35     -0.15      1.48
     -0.35     -0.15      1.24
     -0.35     -0.62      1.48
     -0.59     -0.15      1.24
     -0.59     -0.15      1.24
     -0.59     -0.15      1.24
     -0.59     -0.62      1.24
     -0.59     -0.15      1.00
     -0.59      0.09      1.00
     -0.35      0.09      0.76
     -0.35      0.09      0.76
     -0.35     -0.15      0.28
     -0.35      0.09      0.52
     -0.35      0.09      0.28
     -0.11      0.33      0.28
     -0.11      0.09      0.04
     -0.11      0.09      0.04
     -0.11     -0.15      0.04
     -0.11     -0.15     -0.20
     -0.11     -0.15     -0.20
     -0.11     -0.15     -0.20
     -0.11     -0.15     -0.44
     -0.11     -0.15     -0.44
      0.13     -0.15     -0.44
      0.13      0.09     -0.68
      0.13     -0.15     -0.68
      0.13     -0.39     -0.44
      0.37     -0.15     -0.44
      0.37     -0.15     -0.68
      0.37     -0.39     -0.68
      0.37     -0.39     -0.68
      0.37     -0.39     -0.92
      0.37     -0.15     -0.92
      0.61     -0.39     -0.92
      0.61     -0.39     -0.92
      0.61     -0.39     -0.92
      0.61     -0.39     -0.92
      0.85     -0.39     -1.15
      0.85     -0.39     -1.15
      0.85     -0.39     -1.39
      0.85     -0.39     -1.39
      0.85     -0.15     -1.63
      1.09     -0.15     -1.63
      1.09      0.09     -1.63
      1.09      0.09     -2.11
      1.09      0.09     -1.87
      1.09      0.09     -2.11
      1.09      0.09     -2.11
      0.85      0.09     -2.35
      0.85      0.09     -2.35
      0.85      0.09     -2.35
      0.85      0.09     -2.35
      0.85      0.09     -2.35
      0.61      0.09     -2.59
      0.61      0.09     -2.35
      0.61     -0.15     -2.35
      0.37     -0.15     -2.35
      0.37     -0.15     -2.35
      0.37     -0.39     -2.35
      0.13     -0.39     -2.35
      0.13     -0.39     -2.35
     -0.11     -1.10     -2.11
     -0.11     -0.86     -2.11
     -0.11     -0.62     -1.87
     -0.35     -0.62     -2.11
     -0.35     -0.39     -1.63
     -0.35     -0.39     -1.63
     -0.35     -0.39     -1.39
     -0.35     -0.15     -1.39
     -0.59     -0.15     -0.92
     -0.59     -0.15     -0.92
     -0.59     -0.15     -0.68
     -0.59     -0.15     -0.68
     -0.59      0.09     -0.68
     -0.59      0.09     -0.68
     -0.59      0.09     -0.44
     -0.83      0.09     -0.20
     -0.83      0.09     -0.20
     -0.83      0.09      0.04
     -0.83      0.09      0.28
     -0.83     -0.15      0.28
     -0.83     -0.15      0.28
     -0.83     -0.15      0.52
     -0.83     -0.15      0.76
     -0.83     -0.15      0.76
     -1.06     -0.15      1.00
     -1.06     -0.15      1.00
     -1.06     -0.15      1.24
     -1.06     -0.15      1.24
     -0.83     -0.15      1.48
     -0.83      0.09      1.48
     -0.83      0.09      1.72
     -0.83      0.09      1.72
     -0.83      0.09      1.96
     -0.83      0.09      1.96
     -0.83      0.09      2.20
     -0.83      0.09      2.44
     -0.83      0.09      2.44
     -0.83      0.09      2.44
     -0.83     -0.15      2.44
     -1.06     -0.15      2.68
     -1.06     -0.15      2.44
     -0.83     -0.15      2.68
     -1.06     -0.15      2.92
     -0.83     -0.15      2.68
     -0.83     -0.15      2.68
     -0.83     -0.39      2.92
     -0.83     -0.39      2.68
     -0.83     -0.39      2.68
     -0.83     -0.15      2.68
     -0.83     -0.39      2.68
     -0.59     -0.15      2.68
     -0.59     -0.15      2.68
     -0.35     -0.39      2.44
     -0.35     -0.15      2.44
     -0.11     -0.15      2.44
     -0.11      0.09      2.44
     -0.11      0.09      2.20
      0.13      0.09      1.96
      0.37      0.09      1.72
      0.37     -0.15      1.72
      0.37      0.33      1.48
      0.61      0.33      1.24
      0.61      0.33      1.24
      0.61      0.33      1.00
      0.85      0.33      1.00
      0.85      0.09      0.76
      1.09      0.09      0.76
      0.85      0.09      0.76
      1.33      0.09      0.76
      1.33      0.09      0.76
      1.33      0.09      0.76
      1.33      0.33      0.76
      1.33      0.09      0.76
      1.33      0.09      0.76
      1.33      0.09      0.76
      1.33      0.09      0.52
      1.57      0.09      0.52
      1.57     -0.15      0.28
      1.57      0.09      0.28
      1.57     -0.15      0.28
      1.57     -0.15      0.28
      1.57     -0.15     -0.20
      1.57     -0.15     -0.44
      1.33     -0.15     -0.44
      1.57     -0.15     -0.68
      1.57     -0.15     -0.68
      1.57     -0.15     -0.92
      1.57     -0.15     -1.15
      1.57      0.09     -1.15
      1.57      0.09     -1.39
      1.81      0.09     -1.63
      1.81      0.09     -1.63
      1.57     -0.15     -1.63
      1.81      0.33     -1.63
      1.81      0.33     -1.87
      1.81      0.33     -1.87
      1.81      0.09     -1.87
      1.81      0.09     -1.87
      1.81      0.33     -1.87
      1.81      0.09     -1.87
      1.57      0.09     -1.87
      1.57      0.09     -2.11
      1.33      0.09     -2.11
      1.33      0.09     -2.11
      1.09      0.09     -2.11
      0.85      0.33     -2.11
      0.85      0.33     -2.11
      0.61      0.33     -2.35
      0.37      0.57     -2.35
      0.37      0.57     -2.35
      0.13      0.57     -2.35
      0.13      0.81     -2.35
     -0.11      0.81     -2.35
     -0.11      0.81     -2.11
     -0.11      0.81     -2.11
     -0.35      0.81     -2.11
     -0.35      0.81     -1.87
     -0.35      0.57     -1.87
     -0.59      0.57     -1.63
     -0.59      0.33     -1.39
     -0.83      0.33     -1.15
     -0.83      0.09     -1.15
     -0.83      0.33     -0.92
     -1.06     -0.62     -0.92
     -1.30     -0.39     -0.68
     -1.30     -0.15     -0.68
     -1.54     -0.39     -0.68
     -1.78     -0.62     -0.44
     -1.78     -0.62     -0.20
     -2.02     -0.62     -0.20
     -2.02     -0.62     -0.20
     -2.26     -0.62      0.04
     -2.26     -0.62      0.04
     -2.26     -0.62      0.28
     -2.26     -0.86      0.52
     -2.26     -0.62      0.52
     -2.26     -0.62      0.52
     -2.26     -0.62      0.76
     -2.26     -0.39      0.76
     -2.02     -0.39      1.00
     -2.02     -0.15      1.24
     -2.02     -0.15      1.24
     -2.02      0.09      1.24
     -2.02      0.09      1.48
     -2.02      0.09      1.48
     -2.02      0.33      1.48
     -2.02      0.33      1.72
     -2.02      0.33      1.48
     -1.78      0.33      1.72
     -1.78      0.33      1.72
     -1.78      0.33      1.72
     -1.78      0.33      1.48
     -1.54      0.33      1.48
     -1.54      0.33      1.48
     -1.30      0.33      1.48
     -1.06      0.33      1.48
     -1.06      0.33      1.48
     -0.83      0.33      1.24
     -0.83      0.09      1.48
     -0.59      0.09      1.24
     -0.35     -0.15      1.24
     -0.11      0.09      1.24
      0.13      0.09      1.24
      0.37      0.09      1.24
      0.61      0.09      1.24
      0.61      0.09      1.24
      0.85      0.09      1.24
      1.09      0.09      1.24
      1.09      0.09      1.00
      1.09      0.09      1.00
      1.33      0.09      1.00
      1.33     -0.15      0.76
      1.33     -0.15      0.76
      1.33     -0.15      0.76
      1.57     -0.15      0.76
      1.57     -0.15      0.76
      1.57     -0.39      0.52
      1.57     -0.39      0.52
      1.81     -0.39      0.52
      1.81     -0.39      0.28
      1.81     -0.39      0.28
      1.81     -0.39      0.04
      1.81     -0.39      0.04
      1.81     -0.39      0.04
      1.81     -0.39     -0.20
      2.05     -0.39     -0.20
      1.81     -0.39     -0.44
      2.05     -0.39     -0.44
      2.05     -0.39     -0.68
      1.81     -0.39     -0.92
      1.81     -0.39     -0.92
      1.81     -0.39     -1.15
