********************************************************************************
              CENTRO DE INSTRUMENTACION Y REGISTRO SISMICO  A.C.

    Anaxagoras 814, Col. Narvarte, Benito Juarez, C.P. 03020 Mexico, D.F.
           Tels. 5687 45 42/ 5687 45  82             Fax. 5669 25 12
********************************************************************************
ARCHIVO ESTANDAR DE ACELERACION:
VERSION DEL FORMATO                    : 2.0
NOMBRE DEL ARCHIVO                     : AO2420110407131122
FECHA Y HORA DE CREACION               : 15/JUN/11, 12:49
REF. CATALOGO ACELEROGRAMAS, SMIS 1996 : REGISTRO No.     /PAG.


================================================================================
DATOS DE LA ESTACION:
NOMBRE DE LA ESTACION                  : ALBERCA OLÍMPICA
CLAVE DE LA ESTACION                   : AO24
LOCALIZACION DE LA ESTACION            : Del. Benito Juárez, Col. General Pedro 
                                       : María Anaya, Río Churubusco            
                                       : y División del Norte.                  
                                       :                                        
                                       : 
COORDENADAS DE LA ESTACION             : 19.3580 LAT. N
                                       : 99.1539 LONG. W
ALTITUD (msnm)                         : 2235
TIPO DE SUELO                          : Transición                          
                                       :                           
                                       : 
INSTITUCION RESPONSABLE                : CIRES
                                       : 

================================================================================
DATOS DEL ACELEROGRAFO:
MODELO DEL ACELEROGRAFO                : RADESD
NUMERO DE SERIE DEL ACELEROGRAFO       : 257
NUMERO DE CANALES                      : 3
ORIENTACION C1-C6 (rumbo;orientacion)  : /N00E/+V/N90W
ORIENTACION C7-C12 (rumbo;orientacion) : 
VEL. DE MUESTREO, C1-C6 (muestras/s)   : /100/100/100
VEL. DE MUESTREO, C7-C12 (muestras/s)  : 
ESC. COMPLETA DE SENSORES, C1-C6, (g)  : /0.5/0.5/0.5
ESC. COMPLETA DE SENSORES, C7-C12, (g) : 
FREC. NAT. DE SENSORES, C1-C6, (Hz)    : /30/30/30
FREC. NAT. DE SENSORES, C7-C12, (Hz)   : 
AMORTIGUAMIENTO DE SENSORES, C1-C6     : /0.700/0.700/0.700
AMORTIGUAMIENTO DE SENSORES, C7-C12    : 
INTERVALO DE MUESTREO, C1-C6, (s)      : /0.01/0.01/0.01
INTERVALO DE MUESTREO, C7-C12, (s)     : 
UMBRAL DE DISPARO, C1-C6, (Gal)        : /2.39/3.11/2.39
UMBRAL DE DISPARO, C7-C12, (Gal)       : 
MEMORIA DE PREEVENTO (s)               : 56.0
TIEMPO DE POSEVENTO (s)                : 64.0


================================================================================
DATOS DEL SISMO:
FECHA DEL SISMO (GMT)                  : 07/ABR/11
HORA EPICENTRO (GMT)                   : 13:11:22.0
MAGNITUD(ES)                           : /Mc=6.7
COORDENADAS DEL EPICENTRO              : 17.20 LAT. N
                                       : 94.34 LONG. W
PROFUNDIDAD FOCAL (km)                 : 167
FUENTE DE LOS DATOS EPICENTRALES       : SSN
                                       : INSTITUTO DE GEOFISICA, UNAM

================================================================================
DATOS DE ESTE REGISTRO:
HORA DE LA PRIMERA MUESTRA (GMT)       : 13:13:56.00
EXACTITUD DEL TIEMPO (s)               : 0.01
DURACION DEL REGISTRO (s), C1-C6       : /127.0/127.0/127.0
DURACION DEL REGISTRO (s), C7-C12      : 
NUM. TOTAL DE MUESTRAS, C1-C6          : /12700/12700/12700
NUM. TOTAL DE MUESTRAS, C7-C12         : 
ACEL. MAX. (Gal), C1-C6                : /3.20007/1.01972/3.37888
ACEL. MAX., C1-C6, EN LA MUESTRA       : /5592/2593/6195
ACEL. MAX. (Gal), C7-C12               : 
ACEL. MAX., C7-C12, EN LA MUESTRA      : 
UNIDADES DE LOS DATOS                  : Gal (cm/s/s)
FACTOR DE DECIMACION                   : 1
FORMATO DATOS (FORTRAN,10 campos/dato) : 3F10.5


================================================================================
CALIDAD DEL ACELEROGRAMA:
REGISTRO DIGITAL COMPLETO CON TIEMPO ABSOLUTO CORRECTO.


================================================================================
COMENTARIOS:














================================================================================
DATOS DE ACELERACION:
---------+---------+---------+---------+---------+---------+---------+---------+
   CANAL-1   CANAL-2   CANAL-3   CANAL-4   CANAL-5   CANAL-6   CANAL-7   CANAL-8
      N00E        +V      N90W
---------+---------+---------+---------+---------+---------+---------+---------+
[...]
  -1.58834   0.06204  -1.40952
  -1.58834   0.30146  -0.93068
  -1.82776   0.06204  -0.93068
  -1.58834   0.30146  -0.69126
  -1.82776   0.30146  -0.69126
  -1.82776   0.30146  -0.45184
  -1.58834   0.30146  -0.21242
  -1.82776   0.06204  -0.21242
  -1.34892   0.54088   0.26642
  -1.82776   0.30146   0.02700
  -1.58834   0.30146   0.26642
  -1.58834   0.54088   0.50584
  -2.06718   0.30146   0.26642
  -1.58834   0.54088   0.74526
  -2.06718   0.30146   0.74526
  -1.82776   0.30146   1.22410
  -1.82776   0.30146   1.46352
  -2.06718  -0.17738   1.22410
  -1.58834   0.06204   1.70294
  -1.82776  -0.17738   1.70294
  -1.58834  -0.17738   1.94236
  -1.34892   0.06204   2.18178
  -1.58834  -0.17738   2.18178
  -1.34892   0.06204   2.42120
  -1.34892   0.06204   2.42120
  -1.34892   0.06204   2.66062
  -1.10950   0.30146   2.90004
  -1.34892   0.06204   2.66062
  -0.63066   0.54088   3.13946
  -0.87008   0.30146   2.90004
  -0.63066   0.30146   2.90004
  -0.39124   0.54088   2.90004
  -0.63066   0.30146   2.66062
  -0.15182   0.54088   2.90004
  -0.39124   0.30146   2.66062
   0.08761   0.30146   2.66062
   0.08761   0.30146   2.66062
  -0.15182   0.06204   2.42120
   0.32703   0.06204   2.42120
   0.08761   0.06204   1.94236
   0.32703   0.06204   2.18178
   0.56645   0.06204   2.18178
   0.32703  -0.41680   1.70294
   0.56645  -0.17738   1.94236
   0.32703  -0.41680   1.70294
   0.56645  -0.65622   1.70294
   0.80587  -0.65622   1.70294
   0.56645  -0.65622   1.46352
   1.28471  -0.65622   1.46352
   0.80587  -0.65622   1.22410
   1.28471  -0.65622   1.22410
   1.52413  -0.41680   0.98468
   1.52413  -0.65622   0.74526
   2.00297  -0.41680   0.74526
   2.00297  -0.41680   0.26642
   2.00297  -0.17738   0.26642
   2.24239   0.06204   0.02700
   2.00297  -0.17738  -0.21242
   2.48181   0.30146   0.02700
   2.00297   0.06204  -0.45184
   2.24239   0.30146  -0.45184
   2.24239   0.30146  -0.69126
   1.76355   0.06204  -0.93068
   2.24239   0.54088  -0.69126
   1.76355   0.30146  -1.17010
   2.00297   0.30146  -1.17010
   2.00297   0.30146  -1.17010
   1.76355   0.06204  -1.64895
   2.24239   0.30146  -1.40952
   1.76355   0.06204  -1.88837
   2.24239   0.06204  -1.64895
   2.24239   0.06204  -1.64895
   1.76355  -0.17738  -1.88837
   2.24239   0.06204  -1.64895
   1.76355  -0.17738  -1.88837
   1.76355  -0.17738  -1.64895
   1.76355   0.30146  -1.64895
   1.52413  -0.17738  -1.88837
   2.00297   0.06204  -1.64895
   1.52413   0.06204  -1.88837
   1.52413  -0.17738  -1.88837
   1.52413   0.06204  -1.88837
   1.04529  -0.17738  -2.12779
   1.52413   0.06204  -1.88837
   1.04529   0.06204  -2.36721
   1.04529   0.06204  -2.12779
   1.04529   0.30146  -2.12779
   0.56645   0.06204  -2.36721
   0.80587   0.30146  -1.88837
   0.32703   0.30146  -2.36721
   0.32703   0.06204  -2.12779
   0.32703   0.30146  -1.88837
  -0.15182   0.06204  -2.12779
  -0.15182   0.30146  -1.64895
  -0.39124   0.06204  -1.64895
  -0.39124   0.06204  -1.64895
  -0.39124   0.30146  -1.40952
  -0.87008   0.06204  -1.40952
  -0.87008   0.06204  -0.93068
  -1.34892   0.06204  -1.17010
  -1.10950   0.06204  -0.93068
  -1.34892   0.30146  -0.69126
  -1.58834  -0.17738  -0.93068
  -1.34892   0.06204  -0.45184
  -1.82776   0.06204  -0.45184
  -1.82776  -0.17738  -0.45184
  -1.82776   0.06204  -0.21242
  -2.06718  -0.17738  -0.21242
  -1.82776   0.06204   0.02700
  -2.06718  -0.17738   0.02700
  -2.06718  -0.17738   0.26642
  -1.82776   0.06204   0.26642
  -2.30660  -0.41680   0.26642
  -1.82776  -0.17738   0.74526
  -2.30660  -0.17738   0.50584
  -2.30660  -0.17738   0.50584
  -2.06718   0.06204   0.74526
  -2.54602  -0.17738   0.74526
  -2.30660  -0.17738   1.22410
  -2.54602  -0.17738   0.98468
  -2.30660  -0.17738   1.22410
  -2.30660   0.06204   1.46352
  -2.54602  -0.17738   1.22410
  -2.06718   0.06204   1.70294
  -2.30660   0.06204   1.70294
  -2.06718  -0.17738   1.70294
  -2.06718   0.06204   1.94236
  -2.30660   0.06204   1.70294
  -1.58834   0.30146   2.18178
  -1.82776   0.06204   1.94236
  -1.82776   0.06204   1.94236
  -1.58834   0.30146   2.18178
  -1.82776   0.06204   1.94236
  -1.34892   0.06204   2.42120
  -1.58834   0.06204   1.94236
  -1.34892   0.06204   1.94236
  -1.10950   0.30146   2.18178
  -1.34892   0.06204   1.94236
  -0.87008   0.30146   2.42120
  -1.34892   0.06204   1.94236
  -1.10950   0.06204   2.18178
  -0.87008   0.06204   2.18178
  -1.10950  -0.17738   1.94236
  -0.39124   0.06204   2.18178
  -0.63066  -0.17738   1.94236
  -0.39124  -0.17738   2.18178
   0.08761  -0.17738   2.18178
  -0.15182  -0.41680   1.94236
   0.32703   0.06204   2.18178
   0.32703  -0.17738   1.94236
   0.32703  -0.17738   1.70294
   0.80587   0.06204   1.70294
   0.56645  -0.17738   1.46352
   0.80587   0.06204   1.70294
   0.80587   0.06204   0.98468
   1.04529   0.06204   0.98468
   1.04529   0.30146   0.98468
   0.80587   0.06204   0.50584
   1.28471   0.06204   0.50584
   1.04529   0.06204   0.26642
   1.28471   0.06204   0.02700
   1.52413   0.06204   0.02700
   1.28471  -0.17738  -0.45184
   1.76355  -0.17738  -0.21242
   1.52413  -0.17738  -0.45184
   1.52413  -0.41680  -0.45184
   2.00297  -0.17738  -0.45184
   1.52413  -0.41680  -0.93068
   2.00297  -0.17738  -0.69126
   1.76355  -0.17738  -0.93068
   1.76355  -0.41680  -0.93068
   2.00297  -0.17738  -0.93068
   1.76355  -0.41680  -1.17010
   2.00297  -0.17738  -0.93068
   2.00297  -0.17738  -1.40952
   1.76355  -0.41680  -1.40952
   2.00297  -0.17738  -1.40952
   1.76355  -0.41680  -1.88837
   2.00297  -0.17738  -1.40952
   1.76355  -0.17738  -1.88837
   1.76355  -0.41680  -1.88837
   2.00297   0.06204  -1.88837
   1.52413  -0.17738  -2.36721
   1.76355   0.06204  -2.12779
   1.52413   0.06204  -2.36721
   1.28471   0.06204  -2.36721
   1.52413   0.30146  -2.12779
   1.04529   0.06204  -2.60663
   1.28471   0.30146  -2.36721
   0.80587   0.06204  -2.60663
   0.80587   0.06204  -2.36721
   0.80587   0.30146  -2.12779
   0.32703   0.06204  -2.36721
   0.56645   0.30146  -2.12779
   0.08761   0.30146  -2.12779
   0.08761   0.06204  -2.12779
   0.08761   0.30146  -1.64895
  -0.39124   0.06204  -1.88837
  -0.15182   0.06204  -1.64895
  -0.63066   0.30146  -1.64895
  -0.63066   0.06204  -1.64895
  -0.63066   0.30146  -1.40952
  -1.10950   0.30146  -1.40952
  -0.87008   0.54088  -1.17010
  -1.10950   0.54088  -1.40952
  -1.34892   0.30146  -1.17010
  -0.87008   0.54088  -0.93068
  -1.58834   0.30146  -1.17010
  -1.10950   0.30146  -0.69126
  -1.34892   0.30146  -0.93068
  -1.58834   0.06204  -0.93068
  -1.34892   0.30146  -0.45184
  -1.58834   0.06204  -0.69126
  -1.34892   0.06204  -0.45184
  -1.58834   0.06204  -0.45184
  -1.58834  -0.17738  -0.45184
  -1.34892   0.06204   0.02700
  -1.82776  -0.17738  -0.21242
  -1.58834  -0.17738   0.26642
  -1.58834   0.06204   0.26642
  -1.82776  -0.17738   0.26642
  -1.34892   0.06204   0.74526
  -1.82776  -0.17738   0.50584
  -1.34892   0.06204   0.74526
  -1.58834   0.06204   0.74526
  -1.58834  -0.17738   0.74526
  -1.10950   0.06204   1.22410
  -1.34892  -0.17738   0.98468
  -0.87008   0.30146   1.46352
  -1.10950   0.06204   1.22410
  -0.87008  -0.17738   1.22410
  -0.63066   0.06204   1.46352
  -1.10950  -0.17738   1.46352
  -0.63066   0.06204   1.70294
  -0.63066   0.06204   1.70294
  -0.63066  -0.17738   1.70294
  -0.15182   0.06204   1.94236
  -0.63066  -0.17738   1.70294
  -0.15182   0.06204   1.94236
  -0.15182   0.06204   1.94236
  -0.39124  -0.17738   1.94236
   0.08761   0.06204   2.18178
  -0.15182  -0.41680   1.94236
   0.32703  -0.17738   2.18178
   0.32703  -0.17738   2.18178
   0.32703  -0.41680   2.18178
   0.80587   0.06204   2.42120
   0.32703  -0.17738   2.18178
   0.80587  -0.17738   2.42120
   0.80587   0.06204   2.18178
   0.80587  -0.17738   2.18178
   1.28471   0.30146   2.42120
   1.04529  -0.17738   1.94236
   1.28471   0.06204   2.18178
   1.28471   0.30146   1.94236
   1.28471  -0.17738   1.94236
   1.76355   0.30146   1.94236
   1.28471   0.06204   1.46352
   1.76355   0.06204   1.70294
   1.52413   0.06204   1.46352
   1.52413  -0.17738   1.46352
   2.00297   0.06204   1.46352
   1.52413  -0.17738   0.98468
   1.76355   0.06204   1.46352
   1.52413   0.06204   0.98468
   1.28471  -0.17738   0.98468
   1.76355   0.06204   1.22410
   1.28471  -0.17738   0.74526
   1.52413   0.06204   0.98468
   1.52413   0.06204   0.74526
   1.28471  -0.17738   0.50584
   1.52413  -0.17738   0.74526
   1.28471  -0.41680   0.26642
   1.52413  -0.17738   0.50584
   1.28471  -0.17738   0.02700
   1.04529  -0.41680  -0.21242
   1.52413  -0.17738  -0.21242
   1.04529  -0.17738  -0.69126
   1.28471  -0.17738  -0.45184
   1.28471   0.06204  -0.69126
   1.04529   0.06204  -1.17010
   1.28471   0.30146  -0.93068
   0.80587   0.30146  -1.40952
   1.28471   0.30146  -1.40952
   1.04529   0.54088  -1.64895
   0.80587   0.06204  -1.88837
   1.04529   0.30146  -1.64895
   0.56645   0.06204  -2.12779
   0.80587   0.30146  -2.12779
   0.56645   0.30146  -2.12779
   0.56645  -0.17738  -2.36721
   0.56645   0.30146  -2.12779
   0.08761   0.06204  -2.60663
   0.32703   0.06204  -2.36721
   0.32703   0.06204  -2.36721
   0.08761  -0.17738  -2.60663
   0.32703   0.06204  -2.36721
  -0.15182  -0.41680  -2.84605
   0.08761  -0.17738  -2.84605
  -0.39124  -0.17738  -2.84605
  -0.39124  -0.17738  -2.84605
  -0.39124   0.06204  -2.60663
  -0.63066   0.06204  -3.08547
  -0.39124   0.06204  -2.84605
  -0.63066   0.06204  -2.84605
  -0.87008  -0.17738  -3.08547
  -0.63066   0.30146  -2.60663
  -0.87008   0.06204  -2.84605
  -0.87008   0.06204  -2.60663
  -0.87008   0.30146  -2.60663
  -1.10950   0.06204  -2.60663
  -0.87008   0.30146  -2.36721
  -1.34892   0.06204  -2.60663
  -1.10950   0.06204  -2.12779
  -1.10950   0.06204  -2.12779
  -1.34892  -0.17738  -2.12779
  -1.10950   0.06204  -1.88837
  -1.58834   0.06204  -1.88837
  -1.34892   0.06204  -1.64895
  -1.34892   0.30146  -1.40952
  -1.58834  -0.17738  -1.64895
  -1.34892   0.06204  -1.17010
  -1.82776  -0.17738  -1.40952
  -1.58834   0.06204  -0.93068
  -1.82776   0.06204  -0.69126
  -2.06718   0.06204  -0.69126
  -1.82776   0.30146  -0.21242
  -2.30660   0.30146  -0.21242
  -1.82776   0.30146   0.02700
  -2.06718   0.30146   0.26642
  -2.30660   0.06204   0.26642
  -1.82776   0.54088   0.74526
  -2.30660   0.06204   0.74526
  -1.82776   0.30146   0.98468
  -1.82776   0.30146   1.22410
  -2.06718  -0.17738   1.46352
  -1.58834   0.30146   1.94236
  -2.06718  -0.17738   1.70294
  -1.58834  -0.17738   2.18178
  -1.34892   0.06204   2.42120
  -1.58834  -0.17738   2.42120
  -1.10950   0.06204   2.90004
  -1.58834  -0.41680   2.66062
  -1.34892  -0.17738   2.90004
  -1.10950  -0.17738   3.13946
  -1.34892  -0.17738   2.90004
  -0.87008   0.06204   3.37888
  -1.10950  -0.17738   2.90004
  -0.87008  -0.17738   3.37888
  -0.63066   0.06204   3.13946
  -0.63066  -0.17738   2.90004
  -0.39124   0.30146   3.37888
  -0.63066   0.06204   2.90004
  -0.39124   0.06204   3.13946
  -0.39124   0.30146   3.13946
  -0.39124   0.06204   2.90004
   0.08761   0.30146   3.13946
  -0.39124   0.06204   2.90004
   0.08761   0.06204   2.90004
   0.08761   0.06204   2.90004
  -0.15182  -0.17738   2.42120
   0.32703   0.06204   2.66062
   0.08761  -0.17738   2.18178
   0.32703   0.06204   2.18178
   0.56645   0.06204   2.18178
   0.32703  -0.17738   1.94236
   0.80587   0.06204   1.94236
   0.56645  -0.17738   1.46352
   1.04529  -0.17738   1.70294
   1.04529   0.06204   1.46352
   0.80587  -0.17738   1.22410
   1.52413   0.06204   1.46352
   1.28471  -0.17738   0.98468
   1.52413  -0.17738   0.98468
   1.52413   0.06204   0.74526
   1.52413  -0.17738   0.26642
   2.00297   0.06204   0.50584
   1.76355  -0.17738   0.02700
   2.00297  -0.41680   0.02700
   2.00297  -0.17738  -0.21242
   2.00297  -0.41680  -0.69126
   2.24239  -0.17738  -0.45184
   2.00297  -0.41680  -0.93068
   2.24239  -0.17738  -0.69126
   2.24239  -0.17738  -0.93068
   2.00297  -0.41680  -1.17010
   2.48181  -0.17738  -0.93068
   2.00297  -0.17738  -1.40952
   2.24239  -0.17738  -1.17010
   2.24239  -0.17738  -1.17010
   1.76355  -0.17738  -1.64895
   2.48181   0.06204  -1.17010
   2.00297  -0.17738  -1.64895
   2.00297  -0.17738  -1.64895
   2.24239   0.06204  -1.64895
   1.76355  -0.17738  -1.88837
   2.24239   0.30146  -1.64895
   1.76355   0.06204  -1.88837
   1.76355   0.06204  -1.88837
   1.76355   0.30146  -1.88837
   1.28471   0.06204  -2.12779
   1.76355   0.30146  -1.88837
   1.28471   0.06204  -2.12779
   1.28471   0.06204  -2.12779
   1.28471   0.06204  -2.12779
   0.80587   0.06204  -2.36721
   1.04529   0.06204  -1.88837
   0.56645   0.06204  -2.36721
   0.80587   0.06204  -2.12779
   0.80587   0.30146  -2.12779
   0.32703  -0.17738  -2.36721
   0.56645   0.06204  -1.88837
  -0.15182   0.06204  -2.36721
   0.08761   0.06204  -1.88837
   0.08761   0.06204  -1.88837
  -0.39124  -0.17738  -2.12779
  -0.15182   0.06204  -1.64895
  -0.63066   0.06204  -1.88837
  -0.63066   0.06204  -1.64895
  -0.63066   0.30146  -1.40952
  -0.87008  -0.17738  -1.64895
  -0.63066   0.30146  -1.17010
  -1.10950   0.06204  -1.40952
  -0.87008   0.06204  -1.17010
  -0.87008   0.06204  -1.17010
  -1.10950  -0.17738  -1.40952
  -0.87008   0.06204  -0.93068
  -1.34892  -0.17738  -0.93068
  -1.34892  -0.17738  -0.69126
  -1.10950   0.06204  -0.69126
  -1.58834  -0.41680  -0.69126
  -1.34892  -0.17738  -0.21242
  -1.58834  -0.17738  -0.45184
  -1.58834  -0.17738   0.02700
  -1.58834  -0.17738   0.26642
  -1.82776  -0.41680   0.26642
  -1.58834  -0.17738   0.50584
  -1.82776  -0.41680   0.50584
  -1.82776  -0.17738   0.98468
  -1.82776  -0.17738   0.98468
  -2.06718  -0.41680   0.98468
  -1.82776  -0.17738   1.46352
  -2.06718  -0.17738   1.22410
  -1.82776  -0.41680   1.46352
  -1.82776   0.06204   1.46352
  -2.06718  -0.17738   1.46352
  -1.82776  -0.17738   1.70294
  -2.06718  -0.17738   1.46352
  -2.06718  -0.17738   1.70294
  -1.82776   0.06204   1.70294
  -2.06718  -0.41680   1.46352
  -1.58834   0.06204   1.94236
  -1.82776  -0.17738   1.70294
  -1.58834  -0.17738   1.94236
  -1.34892   0.06204   1.94236
  -1.58834  -0.41680   1.94236
  -1.10950   0.06204   2.18178
  -1.34892  -0.17738   2.18178
  -1.10950  -0.17738   2.18178
  -0.87008   0.06204   2.18178
  -1.10950  -0.17738   2.18178
  -0.63066   0.06204   2.42120
  -0.87008   0.06204   2.18178
  -0.63066   0.30146   2.42120
  -0.39124   0.30146   2.42120
  -0.63066   0.06204   1.94236
  -0.15182   0.54088   2.18178
  -0.39124   0.30146   1.94236
  -0.15182   0.30146   1.94236
   0.08761   0.54088   1.94236
  -0.15182   0.30146   1.46352
   0.32703   0.54088   1.70294
   0.08761   0.30146   1.46352
   0.32703   0.30146   1.22410
   0.80587   0.30146   1.22410
   0.56645   0.06204   0.74526
   1.04529   0.30146   1.22410
   0.80587   0.06204   0.74526
   1.04529  -0.17738   0.50584
   1.52413   0.06204   0.74526
   1.04529  -0.17738   0.26642
   1.52413   0.06204   0.50584
   1.52413  -0.17738   0.26642
   1.52413  -0.17738   0.26642
   1.76355   0.06204   0.26642
   1.28471  -0.17738  -0.21242
   1.76355   0.06204   0.02700
   1.52413  -0.17738  -0.21242
   1.52413  -0.17738  -0.45184
   1.76355   0.30146  -0.45184
   1.28471  -0.17738  -0.69126
   1.76355   0.30146  -0.69126
   1.52413   0.30146  -0.93068
   1.52413   0.06204  -0.93068
   1.76355   0.30146  -0.93068
   1.28471   0.06204  -1.40952
