********************************************************************************
              CENTRO DE INSTRUMENTACION Y REGISTRO SISMICO  A.C.

    Anaxagoras 814, Col. Narvarte, Benito Juarez, C.P. 03020 Mexico, D.F.
           Tels. 5687 45 42/ 5687 45  82             Fax. 5669 25 12
********************************************************************************
ARCHIVO ESTANDAR DE ACELERACION:
VERSION DEL FORMATO                    : 2.0
NOMBRE DEL ARCHIVO                     : AO2419870715071613
FECHA Y HORA DE CREACION               : 12/JUN/18, 10:27
REF. CATALOGO ACELEROGRAMAS, SMIS 1996 : REGISTRO No.     /PAG.


================================================================================
DATOS DE LA ESTACION:
NOMBRE DE LA ESTACION                  : ALBERCA OL�MPICA
CLAVE DE LA ESTACION                   : AO24
LOCALIZACION DE LA ESTACION            : Del. Benito Ju�rez, Col. General Pedro 
                                       : Mar�a Anaya, R�o Churubusco            
                                       : y Divisi�n del Norte.                  
                                       :                                        
                                       : 
COORDENADAS DE LA ESTACION             : 19.3580 LAT. N
                                       : 99.1539 LONG. W
ALTITUD (msnm)                         : 2235
TIPO DE SUELO                          : Transici�n                          
                                       :                           
                                       : 
INSTITUCION RESPONSABLE                : CIRES, A. C.
                                       : 

================================================================================
DATOS DEL ACELEROGRAFO:
MODELO DEL ACELEROGRAFO                : RAD_IO14
NUMERO DE SERIE DEL ACELEROGRAFO       : 
NUMERO DE CANALES                      : 3
ORIENTACION C1-C6 (rumbo;orientacion)  : /N00E/+V/N90W
ORIENTACION C7-C12 (rumbo;orientacion) : 
VEL. DE MUESTREO, C1-C6 (muestras/s)   : /100/100/100
VEL. DE MUESTREO, C7-C12 (muestras/s)  : 
ESC. COMPLETA DE SENSORES, C1-C6, (g)  : /2.0/2.0/2.0
ESC. COMPLETA DE SENSORES, C7-C12, (g) : 
FREC. NAT. DE SENSORES, C1-C6, (Hz)    : /30/30/30
FREC. NAT. DE SENSORES, C7-C12, (Hz)   : 
AMORTIGUAMIENTO DE SENSORES, C1-C6     : /0.700/0.700/0.700
AMORTIGUAMIENTO DE SENSORES, C7-C12    : 
INTERVALO DE MUESTREO, C1-C6, (s)      : /0.01/0.01/0.01
INTERVALO DE MUESTREO, C7-C12, (s)     : 
UMBRAL DE DISPARO, C1-C6, (Gal)        : / / /
UMBRAL DE DISPARO, C7-C12, (Gal)       : 
MEMORIA DE PREEVENTO (s)               : 60
TIEMPO DE POSEVENTO (s)                : 90


================================================================================
DATOS DEL SISMO:
FECHA DEL SISMO (GMT)                  : 15/JUL/87
HORA EPICENTRO (GMT)                   : 07:16:13.0
MAGNITUD(ES)                           : /Mb=6.0/Mc=5.7
COORDENADAS DEL EPICENTRO              : 17.39 LAT. N
                                       : 97.26 LONG. W
PROFUNDIDAD FOCAL (km)                 : 68
FUENTE DE LOS DATOS EPICENTRALES       : SSN
                                       : INSTITUTO DE GEOFISICA, UNAM

================================================================================
DATOS DE ESTE REGISTRO:
HORA DE LA PRIMERA MUESTRA (GMT)       : 07:15:42.00
EXACTITUD DEL TIEMPO (s)               : 
DURACION DEL REGISTRO (s), C1-C6       : /50.0/50.0/50.0
DURACION DEL REGISTRO (s), C7-C12      : 
NUM. TOTAL DE MUESTRAS, C1-C6          : /5000/5000/5000
NUM. TOTAL DE MUESTRAS, C7-C12         : 
ACEL. MAX. (Gal), C1-C6                : /1.2287/2.48428/0.03557
ACEL. MAX., C1-C6, EN LA MUESTRA       : /4395/4393/362
ACEL. MAX. (Gal), C7-C12               : 
ACEL. MAX., C7-C12, EN LA MUESTRA      : 
UNIDADES DE LOS DATOS                  : Gal (cm/s/s)
FACTOR DE DECIMACION                   : 1
FORMATO DATOS (FORTRAN,10 campos/dato) : 3F10.5


================================================================================
CALIDAD DEL ACELEROGRAMA:
REGISTRO DIGITAL COMPLETO CON TIEMPO ABSOLUTO CORRECTO.


================================================================================
COMENTARIOS:














================================================================================
DATOS DE ACELERACION:
---------+---------+---------+---------+---------+---------+---------+---------+
   CANAL-1   CANAL-2   CANAL-3   CANAL-4   CANAL-5   CANAL-6   CANAL-7   CANAL-8
      N00E        +V      N90W
---------+---------+---------+---------+---------+---------+---------+---------+
[...]
   4.8E-40  -0.00328   0.00513
   4.8E-40  -8.9E-40   0.00513
   4.8E-40  -8.9E-40   0.00513
   4.8E-40  -8.9E-40   0.00513
   4.8E-40   0.00150   0.00513
   0.00288   0.00150   0.00513
   0.00288   0.00150   0.00513
   4.8E-40   0.00150   0.00513
   0.00527   0.00150   0.00513
   0.00527   0.00150   0.00513
   0.00527   0.00390   0.00513
   0.00527   0.00390   0.00513
   0.00766   0.00390   0.00513
   0.00766   0.00629   0.00513
   0.00527   0.00629   0.00513
   0.00766   0.00629   0.00513
   0.00527   0.00629   0.00513
   0.00527   0.00390   0.00513
   0.00527   0.00390   0.00513
   0.00527   0.00390   0.00513
   0.00527   0.00390   0.00273
   0.00288   0.00390   0.00273
   0.00288   0.00390   0.00273
   0.00288   0.00390   3.4E-40
   0.00288   0.00629   0.00273
   0.00288   0.00390   3.4E-40
   0.00288   0.00150  -0.00206
   0.00288  -8.9E-40  -0.00445
   0.00288   0.00150  -0.00206
   0.00288  -8.9E-40  -0.00206
   0.00288  -8.9E-40  -0.00206
   4.8E-40  -0.00328   3.4E-40
   4.8E-40  -0.00328   3.4E-40
   4.8E-40  -0.00328   0.00273
  -0.00191  -0.00568   0.00273
  -0.00191  -0.00568   0.00273
  -0.00431  -0.00807   0.00273
  -0.00431  -0.01047   0.00513
  -0.00431  -0.00807   0.00513
  -0.00670  -0.00807   0.00513
  -0.00431  -0.00807   0.00273
  -0.00431  -0.00568   3.4E-40
  -0.00431  -0.00568   3.4E-40
  -0.00431  -0.00328   3.4E-40
  -0.00431  -0.00328   3.4E-40
  -0.00431  -8.9E-40   3.4E-40
  -0.00431  -8.9E-40   3.4E-40
  -0.00431  -8.9E-40  -0.00206
  -0.00431   0.00150  -0.00206
  -0.00431   0.00150  -0.00206
  -0.00431   0.00150   3.4E-40
  -0.00670   0.00150   3.4E-40
  -0.00670   0.00150   3.4E-40
  -0.00670  -0.00328   3.4E-40
  -0.00670  -8.9E-40   3.4E-40
  -0.00670  -8.9E-40  -0.00206
  -0.00431  -0.00328   3.4E-40
  -0.00431  -0.00328   3.4E-40
  -0.00431  -0.00568   3.4E-40
  -0.00191  -8.9E-40  -0.00206
  -0.00191  -8.9E-40  -0.00206
   4.8E-40  -0.00328  -0.00206
   0.00288  -0.00328  -0.00445
   0.00288  -0.00328  -0.00445
   0.00288  -0.00328  -0.00445
   0.00288  -8.9E-40  -0.00445
   0.00288  -8.9E-40  -0.00445
   0.00288  -8.9E-40  -0.00684
   0.00288  -8.9E-40  -0.00684
   0.00288   0.00150  -0.00684
   0.00288   0.00150  -0.00684
   0.00288   0.00150  -0.00684
   0.00288   0.00150  -0.00684
   4.8E-40   0.00150  -0.00684
   4.8E-40   0.00150  -0.00684
   4.8E-40   0.00150  -0.00684
  -0.00191   0.00150  -0.00445
  -0.00191   0.00390  -0.00445
  -0.00191   0.00390  -0.00445
  -0.00191   0.00390  -0.00445
  -0.00191   0.00390  -0.00445
  -0.00191   0.00629  -0.00445
  -0.00191   0.00629  -0.00445
   4.8E-40   0.00390  -0.00684
   4.8E-40   0.00390  -0.00445
   4.8E-40   0.00150  -0.00445
   0.00288   0.00150  -0.00684
   0.00288  -8.9E-40  -0.00684
   0.00288  -8.9E-40  -0.00684
   0.00288  -0.00328  -0.00684
   0.00288  -0.00568  -0.00445
   0.00288  -0.00568  -0.00445
   0.00288  -0.00807  -0.00445
   0.00288  -0.01047  -0.00445
   0.00288  -0.00807  -0.00445
   0.00288  -0.00807  -0.00206
   4.8E-40  -0.00568  -0.00206
   4.8E-40  -0.00568  -0.00206
  -0.00191  -0.00568  -0.00206
  -0.00191  -0.00328   3.4E-40
  -0.00431  -8.9E-40   3.4E-40
  -0.00431  -8.9E-40   3.4E-40
  -0.00431  -8.9E-40   3.4E-40
  -0.00670   0.00150   0.00273
  -0.00670   0.00150   0.00273
  -0.00909   0.00390   0.00273
  -0.00909   0.00390   0.00273
  -0.00909   0.00390   0.00273
  -0.01149   0.00390   0.00273
  -0.01149   0.00390   0.00513
  -0.01149   0.00390   0.00513
  -0.01149   0.00150   0.00513
  -0.01149   0.00150   0.00752
  -0.00909   0.00150   0.00752
  -0.00909  -8.9E-40   0.00752
  -0.00909  -8.9E-40   0.00992
  -0.00670  -0.00328   0.00992
  -0.00670  -8.9E-40   0.00992
  -0.00431  -0.00328   0.00992
  -0.00431  -0.00328   0.01231
  -0.00191  -0.00328   0.00992
  -0.00191  -0.00328   0.00992
  -0.00191  -0.00328   0.00992
  -0.00191  -8.9E-40   0.01231
  -0.00191  -8.9E-40   0.00992
  -0.00431   0.00150   0.00992
  -0.00431   0.00150   0.01231
  -0.00431   0.00150   0.00992
  -0.00431   0.00390   0.00992
  -0.00431   0.00390   0.00992
  -0.00670   0.00390   0.00992
  -0.00431   0.00390   0.00992
  -0.00670   0.00390   0.00752
  -0.00670   0.00390   0.00752
  -0.00431   0.00150   0.00752
  -0.00431   0.00150   0.00513
  -0.00431   0.00150   0.00513
  -0.00191   0.00150   0.00513
  -0.00191   0.00150   0.00273
   4.8E-40   0.00150   0.00273
  -0.00191  -8.9E-40   0.00273
   4.8E-40  -0.00328   3.4E-40
   0.00288  -0.00328   3.4E-40
   0.00288  -0.00568   3.4E-40
   0.00288  -0.00568  -0.00206
   0.00288  -0.00568   3.4E-40
   0.00288  -0.00807  -0.00206
   0.00288  -0.00807  -0.00445
   0.00288  -0.00807  -0.00206
   0.00527  -0.00807  -0.00445
   0.00527  -0.00568  -0.00445
   0.00527  -0.00568  -0.00445
   0.00527  -0.00568  -0.00684
   0.00527  -0.00328  -0.00684
   0.00527  -0.00328  -0.00684
   0.00527  -8.9E-40  -0.00684
   0.00766   0.00150  -0.00684
   0.00766   0.00150  -0.00684
   0.00766   0.00150  -0.00445
   0.01006   0.00390  -0.00684
   0.00766   0.00390  -0.00445
   0.01006   0.00390  -0.00445
   0.01006   0.00150  -0.00206
   0.01006   0.00150  -0.00206
   0.01006   0.00150  -0.00206
   0.00766  -8.9E-40  -0.00206
   0.00766  -8.9E-40  -0.00206
   0.00527  -0.00328  -0.00206
   0.00288  -0.00328  -0.00206
   4.8E-40  -0.00328  -0.00445
   4.8E-40  -0.00328  -0.00445
  -0.00191  -0.00328  -0.00445
  -0.00431  -0.00328  -0.00684
  -0.00431  -0.00328  -0.00684
  -0.00431  -0.00328  -0.00684
  -0.00191  -8.9E-40  -0.00684
  -0.00431  -8.9E-40  -0.00924
  -0.00191  -8.9E-40  -0.00924
  -0.00191  -8.9E-40  -0.00924
   4.8E-40   0.00150  -0.00924
   4.8E-40   0.00150  -0.00924
   0.00288   0.00150  -0.00924
   0.00288   0.00150  -0.00924
   0.00288   0.00150  -0.01163
   0.00527   0.00150  -0.00924
   0.00288   0.00150  -0.00924
   0.00288   0.00150  -0.00924
   0.00288   0.00150  -0.00924
   4.8E-40  -8.9E-40  -0.00924
   4.8E-40   0.00150  -0.00684
   4.8E-40   0.00150  -0.00445
   4.8E-40   0.00150  -0.00206
   4.8E-40  -8.9E-40  -0.00206
  -0.00191  -8.9E-40   3.4E-40
  -0.00191  -8.9E-40   0.00273
  -0.00191  -8.9E-40   0.00273
  -0.00191  -8.9E-40   0.00513
  -0.00191  -8.9E-40   0.00752
  -0.00191  -8.9E-40   0.00752
  -0.00191  -8.9E-40   0.00992
  -0.00191  -8.9E-40   0.00992
  -0.00431  -8.9E-40   0.00992
  -0.00431   0.00150   0.01231
  -0.00431  -8.9E-40   0.01231
  -0.00670  -8.9E-40   0.01470
  -0.00909  -8.9E-40   0.01470
  -0.00909   0.00150   0.01470
  -0.01149  -8.9E-40   0.01470
  -0.01149  -8.9E-40   0.01470
  -0.01388  -8.9E-40   0.01470
  -0.01388  -0.00328   0.01231
  -0.01388  -0.00328   0.00992
  -0.01628  -0.00328   0.00992
  -0.01628  -0.00568   0.00752
  -0.01628  -0.00568   0.00513
  -0.01628  -0.00568   0.00513
  -0.01867  -0.00568   0.00273
  -0.01867  -0.00568   0.00273
  -0.01867  -0.00568   0.00273
  -0.01867  -0.00328   0.00273
  -0.01628  -8.9E-40   0.00273
  -0.01628  -8.9E-40   0.00273
  -0.01628   0.00150   0.00273
  -0.01388   0.00390   0.00273
  -0.01149   0.00629   0.00273
  -0.01149   0.00629   0.00273
  -0.00909   0.00869  -0.00206
  -0.00670   0.00869   3.4E-40
  -0.00431   0.00869   3.4E-40
  -0.00431   0.00869   3.4E-40
  -0.00191   0.00869   3.4E-40
   4.8E-40   0.00869  -0.00206
   4.8E-40   0.00629  -0.00445
   4.8E-40   0.00390  -0.00684
   4.8E-40   0.00150  -0.00684
   0.00288  -8.9E-40  -0.00924
   4.8E-40  -8.9E-40  -0.01163
   0.00288  -0.00328  -0.01163
   0.00288  -0.00568  -0.01403
   0.00288  -0.00568  -0.01403
   0.00288  -0.01047  -0.01642
   0.00527  -0.00807  -0.01642
   0.00527  -0.00807  -0.01642
   0.00527  -0.00807  -0.01403
   0.00766  -0.00807  -0.01403
   0.00766  -0.00807  -0.01403
   0.00766  -0.00807  -0.01403
   0.01006  -0.00568  -0.01403
   0.01006  -0.00568  -0.01403
   0.01006  -0.00568  -0.01403
   0.01006  -0.00328  -0.01403
   0.01245  -0.00328  -0.01403
   0.01245  -8.9E-40  -0.01403
   0.01245  -8.9E-40  -0.01403
   0.01245   0.00150  -0.01403
   0.01485   0.00390  -0.01403
   0.01485   0.00390  -0.01642
   0.01485   0.00390  -0.01882
   0.01485   0.00629  -0.01642
   0.01485   0.00629  -0.01642
   0.01485   0.00629  -0.01642
   0.01485   0.00629  -0.01403
   0.01245   0.00629  -0.01403
   0.01485   0.00629  -0.01403
   0.01245   0.00390  -0.01403
   0.01245   0.00390  -0.01163
   0.01245   0.00390  -0.01163
   0.01245   0.00150  -0.00924
   0.01245   0.00150  -0.00924
   0.01245  -8.9E-40  -0.00684
   0.01245  -8.9E-40  -0.00684
   0.01245  -0.00328  -0.00445
   0.01245  -0.00568  -0.00206
   0.01006  -0.00568  -0.00206
   0.01006  -0.00568   3.4E-40
   0.01006  -0.00807   0.00273
   0.00766  -0.00807   0.00513
   0.00527  -0.00807   0.00513
   0.00527  -0.01047   0.00752
   4.8E-40  -0.01047   0.00992
   4.8E-40  -0.01047   0.01231
  -0.00191  -0.00807   0.01470
  -0.00431  -0.00807   0.01710
  -0.00670  -0.00568   0.01949
  -0.00670  -0.00568   0.01949
  -0.00670  -0.00328   0.02189
  -0.00670  -0.00328   0.02428
  -0.00909  -8.9E-40   0.02667
  -0.00909   0.00150   0.02667
  -0.00670   0.00390   0.02667
  -0.00909   0.00629   0.02667
  -0.00909   0.00629   0.02667
  -0.00909   0.00869   0.02667
  -0.00909   0.00869   0.02667
  -0.01149   0.00869   0.02667
  -0.01149   0.01108   0.02667
  -0.01388   0.01108   0.02428
  -0.01388   0.00869   0.02667
  -0.01388   0.00869   0.02667
  -0.01628   0.00869   0.02428
  -0.01388   0.00629   0.02428
  -0.01628   0.00390   0.02189
  -0.01388   0.00390   0.01949
  -0.01388   0.00390   0.02189
  -0.01388   0.00150   0.01949
  -0.01149   0.00150   0.01949
  -0.01149   0.00150   0.01710
  -0.00909  -8.9E-40   0.01470
  -0.00909  -8.9E-40   0.01470
  -0.00670  -8.9E-40   0.01231
  -0.00670   0.00150   0.00992
  -0.00670   0.00150   0.00752
  -0.00670   0.00150   0.00752
  -0.00670   0.00150   0.00752
  -0.00670   0.00150   0.00752
  -0.00909   0.00150   0.00752
  -0.00909   0.00150   0.00752
  -0.00909  -8.9E-40   0.00752
  -0.01149  -8.9E-40   0.00752
  -0.01149  -0.00328   0.00752
  -0.01149  -0.00328   0.00513
  -0.01149  -0.00568   0.00513
  -0.01149  -0.00568   0.00273
  -0.01149  -0.00807   3.4E-40
  -0.00909  -0.00807   3.4E-40
  -0.00909  -0.00568  -0.00206
  -0.00670  -0.00568  -0.00445
  -0.00670  -0.00568  -0.00684
  -0.00431  -0.00568  -0.00684
  -0.00191  -0.00328  -0.00924
   4.8E-40  -0.00328  -0.00924
   0.00288  -0.00328  -0.01163
   0.00527  -0.00328  -0.01403
   0.00527  -0.00328  -0.01642
   0.00527  -8.9E-40  -0.01642
   0.00766  -0.00328  -0.01642
   0.01006  -0.00328  -0.01882
   0.01006  -0.00328  -0.02121
   0.01006  -0.00568  -0.02360
   0.01006  -0.00328  -0.02360
   0.01006  -0.00328  -0.02600
   0.01006  -0.00568  -0.02839
   0.01006  -0.00328  -0.02839
   0.00766  -0.00328  -0.03079
   0.01006  -0.00328  -0.03079
   0.01006  -8.9E-40  -0.03079
   0.01245  -8.9E-40  -0.03079
   0.01245  -8.9E-40  -0.03557
   0.01245  -8.9E-40  -0.03318
   0.01245  -0.00328  -0.03318
   0.01245  -8.9E-40  -0.03318
   0.01006  -8.9E-40  -0.03318
   0.01006   0.00150  -0.03079
   0.01006  -8.9E-40  -0.03079
   0.01006  -8.9E-40  -0.02839
   0.00766  -8.9E-40  -0.02839
   0.00766  -8.9E-40  -0.02839
   0.00527  -8.9E-40  -0.02360
   0.00527   0.00150  -0.02360
   0.00288   0.00150  -0.02121
   0.00288   0.00150  -0.01882
   0.00288   0.00150  -0.01642
   0.00288   0.00150  -0.01403
   0.00288   0.00150  -0.01163
   0.00288   0.00150  -0.00924
   0.00288   0.00390  -0.00684
   0.00288   0.00390  -0.00445
   0.00527   0.00150  -0.00445
   0.00527   0.00150  -0.00206
   0.00527   0.00150  -0.00206
   4.8E-40   0.00150   3.4E-40
   0.00288   0.00150   3.4E-40
   0.00288   0.00150   0.00273
   0.00288   0.00150   0.00273
   0.00288   0.00150   0.00513
   4.8E-40   0.00150   0.00513
  -0.00191   0.00150   0.00513
  -0.00431   0.00150   0.00513
  -0.00670   0.00150   0.00752
  -0.00670   0.00150   0.00752
  -0.01149   0.00150   0.00992
  -0.00909   0.00150   0.00992
  -0.01149   0.00150   0.00992
  -0.01149   0.00150   0.01231
  -0.01149   0.00150   0.01231
  -0.01388  -8.9E-40   0.01470
  -0.01388  -8.9E-40   0.01470
  -0.01388  -8.9E-40   0.01710
  -0.01388  -0.00328   0.01949
  -0.01388  -8.9E-40   0.02189
  -0.01388  -8.9E-40   0.02189
  -0.01388  -0.00328   0.02428
  -0.01628  -8.9E-40   0.02667
  -0.01628  -8.9E-40   0.02667
  -0.01628  -8.9E-40   0.02667
  -0.01628  -8.9E-40   0.02907
  -0.01867  -8.9E-40   0.03146
  -0.01867  -8.9E-40   0.03146
  -0.01867  -0.00328   0.03146
  -0.01867  -8.9E-40   0.03386
  -0.01628  -0.00328   0.03386
  -0.01628  -0.00328   0.03386
  -0.01388  -0.00328   0.03146
  -0.01388  -0.00328   0.03146
  -0.01149  -0.00328   0.03146
  -0.01149  -0.00328   0.02907
  -0.00909  -0.00568   0.02907
  -0.00909  -0.00328   0.02667
  -0.00670  -0.00328   0.02428
  -0.00670  -0.00328   0.02189
  -0.00431  -0.00328   0.01949
  -0.00431  -0.00568   0.01710
  -0.00431  -0.00568   0.01470
  -0.00191  -0.00568   0.01231
  -0.00191  -0.00568   0.01231
  -0.00191  -0.00568   0.00992
   4.8E-40  -0.00328   0.00752
   4.8E-40  -0.00328   0.00513
   4.8E-40  -0.00328   0.00273
   0.00288  -8.9E-40   0.00273
   0.00288  -8.9E-40   3.4E-40
   0.00527   0.00150  -0.00206
   0.00527   0.00390  -0.00445
   0.00766   0.00390  -0.00445
   0.01006   0.00390  -0.00684
   0.01006   0.00390  -0.00684
   0.01245   0.00390  -0.01163
   0.01245   0.00390  -0.00924
   0.01485   0.00390  -0.00924
   0.01485   0.00150  -0.01163
   0.01485   0.00150  -0.01163
   0.01485  -8.9E-40  -0.01163
   0.01485  -0.00328  -0.01163
   0.01485  -0.00568  -0.01163
   0.01724  -0.00328  -0.01403
   0.01724  -0.00328  -0.01403
   0.01724  -0.00568  -0.01403
   0.01724  -0.00568  -0.01403
   0.01724  -0.00568  -0.01642
   0.01724  -0.00568  -0.01882
   0.01964  -0.00568  -0.02121
   0.01964  -0.00568  -0.02121
   0.01964  -0.00568  -0.02360
   0.01964  -0.00328  -0.02600
   0.01964  -0.00328  -0.02600
   0.01724  -8.9E-40  -0.02839
   0.01724  -8.9E-40  -0.02839
   0.01485   0.00150  -0.03079
   0.01485   0.00150  -0.03079
   0.01245   0.00150  -0.03079
   0.01245   0.00150  -0.03318
   0.01006   0.00150  -0.03079
   0.00766   0.00150  -0.03079
   0.00527   0.00150  -0.03318
   0.00527   0.00150  -0.03079
   0.00288   0.00150  -0.03079
   0.00288   0.00150  -0.03079
   4.8E-40   0.00150  -0.03079
   4.8E-40   0.00150  -0.02839
  -0.00191   0.00150  -0.02839
  -0.00431   0.00150  -0.02600
  -0.00670   0.00150  -0.02600
  -0.00670   0.00150  -0.02360
  -0.00670   0.00150  -0.02121
  -0.00909   0.00150  -0.01882
  -0.00909   0.00150  -0.01642
  -0.00909   0.00150  -0.01163
  -0.00909   0.00150  -0.00924
  -0.00909   0.00150  -0.00684
  -0.00909   0.00390  -0.00206
  -0.00909   0.00390   3.4E-40
  -0.00909   0.00390   0.00273
  -0.00909   0.00629   0.00513
  -0.00909   0.00629   0.00752
  -0.01149   0.00629   0.00752
  -0.01149   0.00629   0.00992
  -0.01388   0.00869   0.01231
  -0.01388   0.00629   0.01231
  -0.01388   0.00629   0.01231
  -0.01388   0.00629   0.01470
  -0.01388   0.00390   0.01470
  -0.01628   0.00150   0.01470
  -0.01628  -8.9E-40   0.01710
  -0.01628  -8.9E-40   0.01710
  -0.01388  -0.00328   0.01949
  -0.01388  -0.00568   0.02189
  -0.01388  -0.00568   0.02189
  -0.01388  -0.00807   0.02428
  -0.01388  -0.01047   0.02428
  -0.01149  -0.01047   0.02907
  -0.01149  -0.01047   0.02907
  -0.01388  -0.01047   0.02907
  -0.01149  -0.01047   0.02907
  -0.01149  -0.00807   0.03146
  -0.01149  -0.00807   0.03146
  -0.01149  -0.00568   0.03146
  -0.01149  -0.00328   0.03146
