********************************************************************************
              CENTRO DE INSTRUMENTACION Y REGISTRO SISMICO  A.C.

    Anaxagoras 814, Col. Narvarte, Benito Juarez, C.P. 03020 Mexico, D.F.
           Tels. 5687 45 42/ 5687 45  82             Fax. 5669 25 12
********************************************************************************
ARCHIVO ESTANDAR DE ACELERACION:
VERSION DEL FORMATO                    : 2.0
NOMBRE DEL ARCHIVO                     : AO2420080428000629
FECHA Y HORA DE CREACION               : 15/MAY/08, 11:06
REF. CATALOGO ACELEROGRAMAS, SMIS 1996 : REGISTRO No.     /PAG.


================================================================================
DATOS DE LA ESTACION:
NOMBRE DE LA ESTACION                  : ALBERCA OLÍMPICA
CLAVE DE LA ESTACION                   : AO24
LOCALIZACION DE LA ESTACION            : Del. Benito Juárez, Col. General Pedro 
                                       : María Anaya, Río Churubusco            
                                       : y División del Norte.                  
                                       :                                        
                                       : 
COORDENADAS DE LA ESTACION             : 19.3580 LAT. N
                                       : 99.1539 LONG. W
ALTITUD (msnm)                         : 2235
TIPO DE SUELO                          : Transición                          
                                       :                           
                                       : 
INSTITUCION RESPONSABLE                : CIRES
                                       : 

================================================================================
DATOS DEL ACELEROGRAFO:
MODELO DEL ACELEROGRAFO                : RADESD
NUMERO DE SERIE DEL ACELEROGRAFO       : 257
NUMERO DE CANALES                      : 3
ORIENTACION C1-C6 (rumbo;orientacion)  : /N00E/+V/N90W
ORIENTACION C7-C12 (rumbo;orientacion) : 
VEL. DE MUESTREO, C1-C6 (muestras/s)   : /100/100/100
VEL. DE MUESTREO, C7-C12 (muestras/s)  : 
ESC. COMPLETA DE SENSORES, C1-C6, (g)  : /0.5/0.5/0.5
ESC. COMPLETA DE SENSORES, C7-C12, (g) : 
FREC. NAT. DE SENSORES, C1-C6, (Hz)    : /30/30/30
FREC. NAT. DE SENSORES, C7-C12, (Hz)   : 
AMORTIGUAMIENTO DE SENSORES, C1-C6     : /0.700/0.700/0.700
AMORTIGUAMIENTO DE SENSORES, C7-C12    : 
INTERVALO DE MUESTREO, C1-C6, (s)      : /0.01/0.01/0.01
INTERVALO DE MUESTREO, C7-C12, (s)     : 
UMBRAL DE DISPARO, C1-C6, (Gal)        : /2.15/2.87/2.15
UMBRAL DE DISPARO, C7-C12, (Gal)       : 
MEMORIA DE PREEVENTO (s)               : 56.0
TIEMPO DE POSEVENTO (s)                : 64.0


================================================================================
DATOS DEL SISMO:
FECHA DEL SISMO (GMT)                  : 28/ABR/08
HORA EPICENTRO (GMT)                   : 00:06:29.0
MAGNITUD(ES)                           : /Mc=5.6
COORDENADAS DEL EPICENTRO              : 18.05 LAT. N
                                       : 100.01 LONG. W
PROFUNDIDAD FOCAL (km)                 : 52
FUENTE DE LOS DATOS EPICENTRALES       : SSN
                                       : INSTITUTO DE GEOFISICA, UNAM

================================================================================
DATOS DE ESTE REGISTRO:
HORA DE LA PRIMERA MUESTRA (GMT)       : 00:07:17.00
EXACTITUD DEL TIEMPO (s)               : 0.01
DURACION DEL REGISTRO (s), C1-C6       : /130.25/130.25/130.25
DURACION DEL REGISTRO (s), C7-C12      : 
NUM. TOTAL DE MUESTRAS, C1-C6          : /13025/13025/13025
NUM. TOTAL DE MUESTRAS, C7-C12         : 
ACEL. MAX. (Gal), C1-C6                : /4.7894/2.05991/4.74874
ACEL. MAX., C1-C6, EN LA MUESTRA       : /5652/5317/8802
ACEL. MAX. (Gal), C7-C12               : 
ACEL. MAX., C7-C12, EN LA MUESTRA      : 
UNIDADES DE LOS DATOS                  : Gal (cm/s/s)
FACTOR DE DECIMACION                   : 1
FORMATO DATOS (FORTRAN,10 campos/dato) : 3F10.5


================================================================================
CALIDAD DEL ACELEROGRAMA:
REGISTRO DIGITAL COMPLETO CON TIEMPO ABSOLUTO CORRECTO.


================================================================================
COMENTARIOS:














================================================================================
DATOS DE ACELERACION:
---------+---------+---------+---------+---------+---------+---------+---------+
   CANAL-1   CANAL-2   CANAL-3   CANAL-4   CANAL-5   CANAL-6   CANAL-7   CANAL-8
      N00E        +V      N90W
---------+---------+---------+---------+---------+---------+---------+---------+
[...]
   0.71925  -0.86281  -0.27909
   0.71925  -1.10223  -0.27909
   0.71925  -1.10223  -0.27909
   0.71925  -1.10223  -0.51851
   0.47983  -1.34165  -0.51851
   0.47983  -1.58107  -0.75793
   0.24041  -1.58107  -0.99735
   0.47983  -1.58107  -0.99735
   0.24041  -1.58107  -0.99735
   0.47983  -1.82049  -0.75793
   0.47983  -1.82049  -0.75793
   0.47983  -2.05991  -0.75793
   0.47983  -2.05991  -0.75793
   0.47983  -2.05991  -0.51851
   0.24041  -1.82049  -0.51851
   0.24041  -1.82049  -0.51851
   9.9E-40  -1.82049  -0.27909
   9.9E-40  -1.82049  -0.27909
   9.9E-40  -1.58107  -0.27909
  -0.23843  -1.82049  -0.27909
   9.9E-40  -1.82049  -0.27909
  -0.23843  -1.58107  -0.51851
   9.9E-40  -1.58107  -0.27909
  -0.23843  -1.58107  -0.51851
   9.9E-40  -1.58107  -0.51851
  -0.23843  -1.58107  -0.51851
  -0.23843  -1.58107  -0.51851
   9.9E-40  -1.58107  -0.51851
  -0.23843  -1.58107  -0.27909
  -0.23843  -1.58107  -0.27909
  -0.23843  -1.58107  -0.27909
  -0.23843  -1.58107  -0.51851
  -0.47785  -1.34165  -0.27909
  -0.47785  -1.10223  -0.27909
  -0.47785  -1.10223  -0.27909
  -0.71727  -1.10223  -0.27909
  -0.47785  -0.86281  -0.27909
  -0.47785  -0.86281  -0.27909
  -0.47785  -0.62339  -0.27909
  -0.47785  -0.38397  -0.03967
  -0.23843  -0.38397  -0.03967
  -0.23843  -0.38397  -0.03967
  -0.47785  -0.14455  -0.03967
  -0.23843  -0.14455   0.19975
  -0.23843   0.09487   0.19975
  -0.23843   0.33429   0.43917
  -0.47785   0.33429   0.67859
  -0.47785   0.57371   0.67859
  -0.71727   0.33429   0.67859
  -0.71727   0.57371   0.67859
  -0.71727   0.57371   0.67859
  -0.71727   0.81313   0.67859
  -0.71727   0.81313   0.67859
  -0.71727   0.81313   0.43917
  -0.47785   0.81313   0.43917
  -0.47785   1.05255   0.43917
  -0.47785   1.05255   0.43917
  -0.47785   1.05255   0.43917
  -0.23843   1.29197   0.19975
  -0.23843   1.53139   0.43917
  -0.23843   1.53139   0.43917
  -0.23843   1.53139   0.43917
  -0.23843   1.29197   0.43917
  -0.47785   1.53139   0.43917
  -0.23843   1.53139   0.43917
  -0.23843   1.29197   0.43917
   9.9E-40   1.53139   0.43917
   9.9E-40   1.53139   0.43917
   0.47983   1.53139   0.43917
   0.47983   1.53139   0.19975
   0.71925   1.53139  -0.03967
   0.95867   1.29197  -0.03967
   0.95867   1.29197  -0.27909
   0.95867   1.53139  -0.03967
   0.95867   1.53139  -0.27909
   0.95867   1.53139  -0.03967
   0.95867   1.53139  -0.03967
   0.95867   1.53139  -0.27909
   0.71925   1.29197  -0.03967
   0.71925   1.29197  -0.03967
   0.47983   1.05255   0.19975
   0.47983   0.81313   0.19975
   0.47983   0.57371   0.19975
   0.47983   0.33429  -0.03967
   0.47983   0.09487  -0.03967
   0.71925   0.09487  -0.03967
   0.71925   0.09487  -0.27909
   0.71925  -0.14455  -0.27909
   0.71925  -0.38397  -0.27909
   0.71925  -0.38397  -0.27909
   0.71925  -0.38397  -0.27909
   0.47983  -0.38397  -0.27909
   0.47983  -0.62339  -0.27909
   0.24041  -0.38397  -0.27909
   0.47983  -0.62339  -0.27909
   0.24041  -0.62339  -0.03967
   9.9E-40  -0.62339  -0.03967
   9.9E-40  -0.86281   0.19975
  -0.23843  -0.86281   0.19975
  -0.23843  -0.86281   0.19975
  -0.23843  -0.62339  -0.03967
   9.9E-40  -0.62339   0.19975
   9.9E-40  -0.62339  -0.03967
   9.9E-40  -0.38397  -0.03967
   9.9E-40  -0.14455  -0.03967
  -0.23843  -0.14455   0.19975
  -0.23843   0.09487  -0.03967
  -0.47785   0.33429   0.19975
  -0.47785   0.57371   0.43917
  -0.71727   0.57371   0.43917
  -0.71727   0.81313   0.43917
  -0.71727   0.81313   0.43917
  -0.71727   0.81313   0.67859
  -0.95669   0.57371   0.67859
  -0.95669   0.57371   0.67859
  -1.19611   0.57371   0.67859
  -1.43553   0.57371   0.67859
  -1.43553   0.57371   0.91801
  -1.43553   0.57371   0.67859
  -1.43553   0.57371   0.67859
  -1.43553   0.81313   0.43917
  -1.67495   0.57371   0.67859
  -1.67495   0.81313   0.67859
  -1.67495   0.57371   0.43917
  -1.91437   0.57371   0.43917
  -1.91437   0.57371   0.43917
  -1.91437   0.57371   0.43917
  -1.91437   0.57371   0.43917
  -1.91437   0.33429   0.43917
  -1.91437   0.33429   0.43917
  -1.91437   0.09487   0.43917
  -1.91437   0.09487   0.43917
  -1.67495   0.09487   0.43917
  -1.43553   0.09487   0.43917
  -1.43553   0.09487   0.43917
  -1.43553   0.09487   0.19975
  -1.43553  -0.14455   0.19975
  -1.19611   0.09487   0.19975
  -1.19611  -0.14455   0.19975
  -1.19611   0.09487   0.19975
  -0.71727  -0.14455   0.43917
  -0.71727  -0.14455   0.19975
  -0.47785  -0.14455   0.19975
  -0.47785  -0.14455  -0.03967
  -0.23843  -0.14455  -0.03967
   9.9E-40   0.09487  -0.03967
   0.47983   0.09487  -0.27909
   0.71925   0.09487  -0.27909
   0.95867   0.09487  -0.51851
   0.95867   0.33429  -0.51851
   1.19809   0.33429  -0.75793
   1.19809   0.57371  -0.51851
   1.19809   0.57371  -0.75793
   1.19809   0.81313  -0.75793
   1.19809   0.81313  -0.51851
   1.19809   0.81313  -0.75793
   1.19809   0.57371  -0.75793
   1.19809   0.81313  -0.75793
   1.19809   0.57371  -0.99735
   1.19809   0.57371  -0.99735
   1.43751   0.33429  -0.99735
   1.43751   0.09487  -0.99735
   1.67693  -0.14455  -0.99735
   1.91635  -0.14455  -1.23677
   1.91635  -0.14455  -1.23677
   1.91635  -0.14455  -1.23677
   1.91635  -0.14455  -1.23677
   2.15577  -0.14455  -0.99735
   2.15577  -0.14455  -0.99735
   2.15577  -0.38397  -0.99735
   2.15577  -0.14455  -0.75793
   2.15577   0.09487  -0.75793
   2.15577   0.09487  -0.75793
   2.15577  -0.14455  -0.75793
   1.91635  -0.14455  -0.75793
   1.67693  -0.14455  -0.75793
   1.67693  -0.14455  -0.75793
   1.67693  -0.14455  -0.51851
   1.67693  -0.14455  -0.51851
   1.43751  -0.38397  -0.51851
   1.43751  -0.38397  -0.51851
   1.19809  -0.86281  -0.51851
   1.19809  -0.86281  -0.51851
   0.95867  -0.86281  -0.51851
   0.95867  -1.10223  -0.51851
   0.71925  -1.10223  -0.51851
   0.71925  -0.86281  -0.27909
   0.71925  -1.10223  -0.27909
   0.47983  -1.10223  -0.27909
   0.24041  -1.10223  -0.27909
   9.9E-40  -1.10223  -0.27909
   9.9E-40  -1.10223  -0.03967
  -0.23843  -0.86281  -0.03967
  -0.47785  -0.86281   0.19975
  -0.47785  -0.86281   0.19975
  -0.71727  -0.86281   0.43917
  -0.71727  -0.86281   0.19975
  -0.95669  -0.86281   0.43917
  -0.95669  -1.10223   0.43917
  -0.95669  -1.10223   0.43917
  -1.19611  -1.10223   0.67859
  -1.19611  -1.34165   0.67859
  -1.19611  -1.34165   0.67859
  -1.67495  -1.34165   0.91801
  -1.19611  -1.34165   0.91801
  -1.43553  -1.10223   0.91801
  -1.19611  -1.34165   0.91801
  -1.19611  -1.34165   0.67859
  -1.43553  -1.10223   0.91801
  -1.19611  -1.10223   0.91801
  -1.19611  -1.10223   0.91801
  -1.19611  -0.86281   0.91801
  -1.19611  -1.10223   0.91801
  -1.19611  -0.86281   0.91801
  -1.43553  -0.86281   0.91801
  -1.43553  -0.62339   0.91801
  -1.43553  -0.86281   0.91801
  -1.67495  -0.62339   0.91801
  -1.43553  -0.62339   0.91801
  -1.19611  -0.38397   0.91801
  -1.19611  -0.38397   0.91801
  -0.95669  -0.38397   0.91801
  -0.71727  -0.14455   0.91801
  -0.71727  -0.14455   0.67859
  -0.47785   0.09487   0.91801
  -0.47785   0.33429   0.67859
  -0.23843   0.57371   0.67859
   9.9E-40   0.57371   0.43917
   0.24041   0.57371   0.43917
   0.47983   0.81313   0.43917
   0.47983   0.57371   0.19975
   0.47983   0.57371  -0.27909
   0.71925   0.33429  -0.51851
   0.71925   0.33429  -0.51851
   0.71925   0.33429  -0.51851
   0.95867   0.09487  -0.75793
   0.95867   0.09487  -0.75793
   1.19809   0.09487  -0.75793
   1.19809   0.09487  -0.75793
   1.43751  -0.14455  -0.99735
   1.43751   0.09487  -0.99735
   1.67693   0.09487  -1.23677
   1.91635   0.33429  -1.23677
   1.91635   0.57371  -1.47619
   2.15577   0.81313  -1.23677
   1.91635   1.05255  -1.23677
   1.91635   1.29197  -1.47619
   2.15577   1.29197  -1.23677
   2.15577   1.29197  -1.23677
   2.15577   1.53139  -1.47619
   2.15577   1.77081  -1.23677
   2.15577   1.53139  -1.23677
   1.91635   1.53139  -1.23677
   1.67693   1.29197  -1.23677
   1.67693   1.29197  -1.23677
   1.67693   1.29197  -1.23677
   1.67693   1.29197  -1.23677
   1.43751   1.05255  -0.99735
   1.43751   0.81313  -0.99735
   1.43751   0.57371  -0.99735
   1.43751   0.57371  -0.99735
   1.43751   0.33429  -0.75793
   1.43751   0.09487  -0.51851
   1.19809  -0.38397  -0.51851
   0.95867  -0.38397  -0.27909
   0.95867  -0.62339  -0.03967
   0.71925  -0.62339   0.19975
   0.71925  -0.86281   0.19975
   0.47983  -0.62339   0.67859
   0.47983  -0.38397   0.91801
   0.47983  -0.38397   0.91801
   0.24041  -0.14455   0.91801
   9.9E-40   0.09487   1.15743
  -0.23843   0.09487   1.15743
  -0.47785   0.09487   0.91801
  -0.47785   0.33429   0.91801
  -0.95669   0.33429   0.91801
  -0.95669   0.57371   0.91801
  -1.19611   0.57371   0.91801
  -1.19611   0.33429   0.91801
  -1.43553   0.09487   1.15743
  -1.67495   0.09487   1.39685
  -2.15379  -0.14455   1.39685
  -2.15379  -0.38397   1.63627
  -2.39321  -0.38397   1.87569
  -2.63263  -0.62339   2.11511
  -2.63263  -0.86281   2.11511
  -2.87205  -0.62339   2.11511
  -2.87205  -1.10223   2.35453
  -2.87205  -0.86281   2.35453
  -2.87205  -1.10223   2.11511
  -2.87205  -0.86281   2.11511
  -2.87205  -0.62339   1.87569
  -3.11147  -0.38397   1.87569
  -3.11147  -0.14455   1.87569
  -3.11147   0.33429   1.87569
  -3.35089   0.33429   1.63627
  -3.35089   0.57371   1.63627
  -3.35089   0.81313   1.63627
  -3.35089   0.81313   1.39685
  -3.59031   0.81313   1.39685
  -3.59031   0.33429   1.39685
  -3.59031   0.33429   1.39685
  -3.59031   0.33429   1.39685
  -3.59031   0.33429   1.39685
  -3.59031   0.33429   1.39685
  -3.59031   0.09487   1.39685
  -3.59031   0.09487   1.15743
  -3.35089  -0.14455   1.15743
  -3.11147  -0.14455   1.15743
  -2.87205  -0.14455   0.91801
  -2.63263  -0.14455   0.67859
  -2.63263   0.09487   0.67859
  -2.15379   0.09487   0.43917
  -2.15379   0.09487   0.19975
  -1.67495   0.33429  -0.03967
  -1.43553   0.33429  -0.27909
  -1.19611   0.33429  -0.27909
  -0.95669   0.33429  -0.51851
  -0.71727   0.33429  -0.99735
  -0.23843   0.33429  -1.23677
  -0.23843   0.33429  -1.47619
   9.9E-40   0.33429  -1.71561
   0.24041   0.33429  -1.71561
   0.47983   0.33429  -1.95503
   0.47983   0.09487  -1.95503
   0.95867   0.09487  -1.95503
   0.95867   0.09487  -1.95503
   1.19809  -0.14455  -1.95503
   1.43751  -0.14455  -2.19445
   1.67693  -0.38397  -1.95503
   1.91635  -0.38397  -2.19445
   2.15577  -0.62339  -2.19445
   2.39519  -0.62339  -2.19445
   2.63461  -0.62339  -2.19445
   2.63461  -0.86281  -2.43387
   2.87403  -0.86281  -2.67329
   3.11345  -0.86281  -2.67329
   3.35287  -0.62339  -2.67329
   3.59230  -0.62339  -2.91271
   3.83172  -0.38397  -2.67329
   3.83172  -0.38397  -2.91271
   4.07114  -0.38397  -2.67329
   4.31056  -0.38397  -2.67329
   4.31056  -0.14455  -2.19445
   4.54998   0.09487  -2.19445
   4.78940   0.09487  -1.95503
   4.54998   0.09487  -1.95503
   4.54998   0.33429  -1.47619
   4.54998   0.33429  -1.47619
   4.54998   0.57371  -1.47619
   4.31056   0.81313  -1.47619
   4.07114   1.05255  -0.99735
   4.07114   1.05255  -0.99735
   3.83172   1.05255  -0.99735
   3.83172   1.05255  -0.75793
   3.59230   1.05255  -0.75793
   3.59230   1.05255  -0.75793
   3.35287   0.81313  -0.75793
   3.35287   0.57371  -0.51851
   3.35287   0.33429  -0.27909
   3.35287   0.09487  -0.27909
   3.11345   0.09487  -0.27909
   3.11345   0.09487  -0.03967
   2.87403   0.09487  -0.03967
   2.63461   0.09487   0.19975
   2.39519   0.09487   0.43917
   2.39519   0.09487   0.67859
   1.91635   0.09487   0.67859
   1.67693   0.33429   0.67859
   1.19809   0.57371   0.91801
   0.95867   0.57371   0.91801
   0.71925   0.81313   0.91801
   0.47983   1.05255   1.15743
   9.9E-40   1.05255   1.15743
  -0.23843   1.05255   1.15743
  -0.47785   1.05255   1.15743
  -0.71727   0.81313   1.15743
  -0.95669   0.81313   1.39685
  -1.19611   0.57371   1.39685
  -1.43553   0.33429   1.39685
  -1.43553   0.09487   1.39685
  -1.67495  -0.14455   1.39685
  -1.91437  -0.38397   1.63627
  -1.91437  -0.38397   1.63627
  -2.15379  -0.62339   1.63627
  -2.39321  -0.86281   1.63627
  -2.15379  -0.86281   1.63627
  -2.15379  -0.86281   1.87569
  -2.15379  -0.86281   1.63627
  -1.91437  -0.62339   1.63627
  -1.91437  -0.62339   1.63627
  -1.91437  -0.62339   1.63627
  -1.91437  -0.38397   1.63627
  -1.67495  -0.38397   1.39685
  -1.91437   0.09487   1.15743
  -1.91437   0.09487   1.15743
  -2.15379   0.57371   0.91801
  -2.15379   0.81313   0.91801
  -2.15379   0.81313   0.67859
  -2.63263   0.81313   0.43917
  -2.63263   1.05255   0.67859
  -2.87205   0.81313   0.43917
  -3.11147   0.81313   0.43917
  -3.35089   0.57371   0.43917
  -3.35089   0.33429   0.43917
  -3.59031   0.09487   0.67859
  -3.59031  -0.14455   0.67859
  -3.59031  -0.38397   0.43917
  -3.59031  -0.62339   0.67859
  -3.59031  -0.86281   0.67859
  -3.59031  -1.10223   0.67859
  -3.59031  -1.34165   0.67859
  -3.35089  -1.58107   0.67859
  -3.35089  -1.58107   0.43917
  -3.11147  -1.58107   0.19975
  -2.87205  -1.58107  -0.03967
  -2.87205  -1.58107  -0.03967
  -2.87205  -1.34165  -0.27909
  -2.63263  -1.34165  -0.51851
  -2.63263  -1.10223  -0.51851
  -2.39321  -1.10223  -0.75793
  -2.39321  -0.86281  -0.75793
  -2.15379  -0.86281  -0.75793
  -2.15379  -0.38397  -0.75793
  -1.91437  -0.38397  -0.99735
  -1.67495  -0.14455  -0.75793
  -1.43553  -0.14455  -0.99735
  -1.43553  -0.14455  -0.75793
  -1.19611  -0.14455  -0.99735
  -0.95669   0.09487  -0.99735
  -0.71727   0.09487  -1.23677
  -0.47785   0.33429  -1.23677
  -0.47785   0.33429  -1.23677
  -0.23843   0.33429  -1.23677
   9.9E-40   0.33429  -1.47619
   0.24041   0.09487  -1.23677
   0.47983   0.09487  -1.23677
   0.95867   0.09487  -0.99735
   0.95867  -0.14455  -0.99735
   0.95867  -0.14455  -0.99735
   1.19809  -0.38397  -0.99735
   1.43751  -0.38397  -0.99735
   1.67693  -0.62339  -0.99735
   1.91635  -0.62339  -0.99735
   2.15577  -0.86281  -0.99735
   2.15577  -0.86281  -0.99735
   2.39519  -0.86281  -0.99735
   2.63461  -0.62339  -0.99735
   2.87403  -0.62339  -0.99735
   3.11345  -0.38397  -0.99735
   3.35287  -0.38397  -0.99735
   3.59230  -0.14455  -0.75793
   3.59230  -0.14455  -0.51851
   3.83172  -0.14455  -0.51851
   3.83172   0.09487  -0.51851
   3.83172   0.09487  -0.27909
   3.83172   0.09487  -0.27909
   3.83172   0.33429  -0.51851
   3.83172   0.33429  -0.27909
   3.83172   0.33429  -0.27909
   3.83172   0.33429  -0.03967
   3.83172   0.33429  -0.03967
   3.83172   0.33429  -0.03967
   3.83172   0.33429  -0.03967
   3.83172   0.33429   0.19975
   4.07114   0.57371   0.19975
   4.07114   0.57371   0.19975
   4.07114   0.81313   0.19975
   4.07114   0.81313   0.43917
   4.07114   0.81313   0.67859
   3.83172   0.81313   0.43917
   3.83172   0.81313   0.67859
   3.59230   1.05255   0.43917
   3.59230   1.05255   0.43917
   3.11345   1.05255   0.43917
   2.87403   1.05255   0.19975
   2.63461   0.81313   0.19975
   2.15577   0.57371   0.19975
   1.91635   0.33429  -0.03967
   1.67693   0.09487  -0.27909
   1.19809  -0.14455  -0.27909
   0.95867  -0.14455  -0.27909
   0.71925  -0.38397  -0.51851
   0.71925  -0.62339  -0.51851
   0.47983  -0.62339  -0.51851
   0.47983  -0.62339  -0.51851
   0.24041  -0.62339  -0.27909
   9.9E-40  -0.62339  -0.27909
   9.9E-40  -0.62339  -0.03967
  -0.23843  -0.62339   0.19975
  -0.47785  -0.62339   0.19975
  -0.71727  -0.86281   0.43917
  -0.95669  -0.62339   0.67859
  -1.19611  -0.62339   0.67859
  -1.43553  -0.62339   0.91801
