********************************************************************************
              CENTRO DE INSTRUMENTACION Y REGISTRO SISMICO  A.C.

    Anaxagoras 814, Col. Narvarte, Benito Juarez, C.P. 03020 Mexico, D.F.
           Tels. 5687 45 42/ 5687 45  82             Fax. 5669 25 12
********************************************************************************
ARCHIVO ESTANDAR DE ACELERACION:
VERSION DEL FORMATO                    : 2.0
NOMBRE DEL ARCHIVO                     : AO2420151123204120
FECHA Y HORA DE CREACION               : 17/DIC/15, 11:55
REF. CATALOGO ACELEROGRAMAS, SMIS 1996 : REGISTRO No.     /PAG.


================================================================================
DATOS DE LA ESTACION:
NOMBRE DE LA ESTACION                  : ALBERCA OLÍMPICA
CLAVE DE LA ESTACION                   : AO24
LOCALIZACION DE LA ESTACION            : Del. Benito Juárez, Col. General Pedro 
                                       : María Anaya, Río Churubusco            
                                       : y División del Norte.                  
                                       :                                        
                                       : 
COORDENADAS DE LA ESTACION             : 19.3580 LAT. N
                                       : 99.1539 LONG. W
ALTITUD (msnm)                         : 2235
TIPO DE SUELO                          : Transición                          
                                       :                           
                                       : 
INSTITUCION RESPONSABLE                : CIRES
                                       : 

================================================================================
DATOS DEL ACELEROGRAFO:
MODELO DEL ACELEROGRAFO                : RADESD
NUMERO DE SERIE DEL ACELEROGRAFO       : 257
NUMERO DE CANALES                      : 3
ORIENTACION C1-C6 (rumbo;orientacion)  : /N00E/+V/N90W
ORIENTACION C7-C12 (rumbo;orientacion) : 
VEL. DE MUESTREO, C1-C6 (muestras/s)   : /100/100/100
VEL. DE MUESTREO, C7-C12 (muestras/s)  : 
ESC. COMPLETA DE SENSORES, C1-C6, (g)  : /0.5/0.5/0.5
ESC. COMPLETA DE SENSORES, C7-C12, (g) : 
FREC. NAT. DE SENSORES, C1-C6, (Hz)    : /30/30/30
FREC. NAT. DE SENSORES, C7-C12, (Hz)   : 
AMORTIGUAMIENTO DE SENSORES, C1-C6     : /0.700/0.700/0.700
AMORTIGUAMIENTO DE SENSORES, C7-C12    : 
INTERVALO DE MUESTREO, C1-C6, (s)      : /0.01/0.01/0.01
INTERVALO DE MUESTREO, C7-C12, (s)     : 
UMBRAL DE DISPARO, C1-C6, (Gal)        : /1.65/3.14/1.95
UMBRAL DE DISPARO, C7-C12, (Gal)       : 
MEMORIA DE PREEVENTO (s)               : 44.0
TIEMPO DE POSEVENTO (s)                : 97.0


================================================================================
DATOS DEL SISMO:
FECHA DEL SISMO (GMT)                  : 23/NOV/15
HORA EPICENTRO (GMT)                   : 20:41:20.0
MAGNITUD(ES)                           : /Mc=5.6
COORDENADAS DEL EPICENTRO              : 16.86 LAT. N
                                       : 98.94 LONG. W
PROFUNDIDAD FOCAL (km)                 : 10
FUENTE DE LOS DATOS EPICENTRALES       : SSN
                                       : INSTITUTO DE GEOFISICA, UNAM

================================================================================
DATOS DE ESTE REGISTRO:
HORA DE LA PRIMERA MUESTRA (GMT)       : 20:42:27.00
EXACTITUD DEL TIEMPO (s)               : 0.01
DURACION DEL REGISTRO (s), C1-C6       : /137.8/137.8/137.8
DURACION DEL REGISTRO (s), C7-C12      : 
NUM. TOTAL DE MUESTRAS, C1-C6          : /13780/13780/13780
NUM. TOTAL DE MUESTRAS, C7-C12         : 
ACEL. MAX. (Gal), C1-C6                : /3.21447/1.53503/2.90391
ACEL. MAX., C1-C6, EN LA MUESTRA       : /4796/5754/4593
ACEL. MAX. (Gal), C7-C12               : 
ACEL. MAX., C7-C12, EN LA MUESTRA      : 
UNIDADES DE LOS DATOS                  : Gal (cm/s/s)
FACTOR DE DECIMACION                   : 1
FORMATO DATOS (FORTRAN,10 campos/dato) : 3F10.5


================================================================================
CALIDAD DEL ACELEROGRAMA:
REGISTRO DIGITAL COMPLETO CON TIEMPO ABSOLUTO CORRECTO.


================================================================================
COMENTARIOS:














================================================================================
DATOS DE ACELERACION:
---------+---------+---------+---------+---------+---------+---------+---------+
   CANAL-1   CANAL-2   CANAL-3   CANAL-4   CANAL-5   CANAL-6   CANAL-7   CANAL-8
      N00E        +V      N90W
---------+---------+---------+---------+---------+---------+---------+---------+
[...]
   0.79582  -0.02120  -1.42250
   0.76589  -0.27558  -1.45243
   0.67611  -0.51500  -1.37761
   0.84071  -0.36537  -1.37761
   0.91553  -0.52997  -1.37761
   1.08013  -0.38033  -1.34768
   0.87064  -0.45515  -1.36264
   0.96042  -0.21573  -1.19804
   0.94546  -0.42522  -1.18308
   0.94546  -0.30551  -1.15315
   0.88560  -0.17084  -1.15315
   0.75093  -0.17084  -1.12322
   0.69107   0.06858  -0.88380
   0.69107  -0.14091  -1.03344
   0.61626  -0.27558  -1.06337
   0.54144  -0.17084  -1.19804
   0.42173  -0.12595  -1.30279
   0.48158  -0.33544  -1.46739
   0.27209  -0.48508  -1.36264
   0.18231  -0.35040  -1.48235
   0.09252  -0.03616  -1.63199
  -0.17682  -0.17084  -1.58710
  -0.20675  -0.24566  -1.51228
  -0.19179  -0.00624  -1.36264
  -0.05711   0.06858  -1.15315
   0.01771   0.36786  -1.16812
   0.07756   0.32297  -0.94366
   0.07756   0.44268  -0.65935
   0.10749   0.32297  -0.53964
   0.15238   0.48757  -0.25533
   0.19727   0.45764  -0.10569
   0.27209   0.57735  -0.06080
   0.06260   0.53246   0.23848
   0.01771   0.47260   0.31330
  -0.07208   0.44268   0.41804
  -0.22171   0.18829   0.47790
  -0.29653  -0.05113   0.58264
  -0.37135   0.03865   0.50783
  -0.49106  -0.50004   0.68739
  -0.44617  -0.60479   0.74725
  -0.50603  -0.48508   0.82206
  -0.71552  -0.61975   0.82206
  -0.70055  -0.75442   0.86696
  -0.76041  -0.58982   0.74725
  -0.92501  -0.60479   0.85199
  -1.14947  -0.69457   0.71732
  -0.99983  -0.75442   0.83703
  -1.07465  -0.60479   0.77717
  -1.16443  -0.44019   0.56768
  -1.14947  -0.32048   0.64250
  -1.13450  -0.27558   0.86696
  -0.92501  -0.02120   0.74725
  -0.99983  -0.02120   0.71732
  -1.02976   0.15837   0.86696
  -0.71552   0.14340   1.03156
  -0.74545   0.35289   1.03156
  -0.68559   0.27808   1.18119
  -0.46113   0.24815   1.30090
  -0.19179   0.32297   1.27098
  -0.22171   0.30800   1.15127
  -0.13193   0.26311   1.07645
   0.10749   0.11347   1.00163
   0.13742   0.17333   0.80710
   0.25713   0.12844   0.86696
   0.42173   0.06858   0.67243
   0.30202   0.23318   0.56768
   0.37684   0.20326   0.53775
   0.48158  -0.14091   0.46293
   0.40676   0.06858   0.40308
   0.34691  -0.00624   0.41804
   0.60129  -0.15587   0.62754
   0.60129  -0.15587   0.56768
   0.57136  -0.11098   0.53775
   0.54144   0.06858   0.77717
   0.64618  -0.23069   0.85199
   0.72100  -0.08106   0.88192
   0.67611  -0.52997   1.10638
   0.67611  -0.58982   1.16623
   0.52647  -0.48508   1.09141
   0.31698  -0.67961   1.19616
   0.42173  -0.58982   1.25601
   0.37684  -0.51500   1.13630
   0.10749  -0.50004   1.18119
   0.12245  -0.44019   1.15127
   0.18231  -0.35040   0.92681
   0.06260  -0.39529   0.67243
  -0.05711  -0.32048   0.73228
  -0.04215  -0.41026   0.67243
   0.00274  -0.23069   0.43301
  -0.05711  -0.09602   0.28337
  -0.02719  -0.35040   0.23848
  -0.16186  -0.36537  -0.03087
  -0.13193  -0.26062  -0.15058
  -0.20675  -0.42522  -0.25533
  -0.43121  -0.23069  -0.34511
  -0.52099  -0.17084  -0.21044
  -0.38632   0.03865  -0.25533
  -0.61077   0.21822  -0.16554
  -0.70055   0.06858  -0.19547
  -0.80530   0.32297  -0.25533
  -0.83523   0.35289   0.01402
  -0.93997   0.18829   0.23848
  -0.70055   0.21822   0.43301
  -0.77537   0.27808   0.56768
  -0.67063   0.54742   0.65746
  -0.40128   0.17333   0.80710
  -0.22171   0.24815   0.74725
  -0.13193   0.32297   0.64250
  -0.05711   0.35289   0.76221
   0.04763   0.50253   0.95674
   0.16734   0.32297   0.92681
   0.12245   0.35289   0.83703
   0.13742   0.50253   0.94177
   0.07756   0.35289   0.97170
   0.07756   0.11347   0.91185
   0.00274  -0.06609   0.88192
   0.00274  -0.18580   0.85199
   0.13742  -0.42522   0.77717
   0.00274  -0.36537   0.62754
   0.06260  -0.44019   0.47790
   0.09252  -0.42522   0.19359
   0.24216  -0.38033   0.11877
   0.27209  -0.58982   0.01402
   0.48158  -0.69457  -0.19547
   0.51151  -0.41026  -0.47978
   0.54144  -0.06609  -0.53964
   0.52647  -0.00624  -0.56957
   0.52647  -0.12595  -0.53964
   0.73597   0.32297  -0.65935
   0.51151   0.50253  -0.68928
   0.49655   0.60728  -0.64438
   0.72100   0.74195  -0.76409
   0.72100   0.89159  -0.89877
   0.64618   0.87663  -0.95862
   0.72100   1.07115  -1.27286
   0.64618   1.10108  -1.36264
   0.37684   1.04123  -1.52725
   0.67611   0.89159  -1.64696
   0.36187   1.01130  -2.09587
   0.28705   0.80181  -2.29040
   0.21223   0.80181  -2.52982
   0.06260   0.66713  -2.58967
   0.19727   0.66713  -2.84406
  -0.16186   0.50253  -2.90391
  -0.22171   0.41275  -2.81413
  -0.16186   0.27808  -2.84406
  -0.35639  -0.17084  -2.67946
  -0.20675  -0.26062  -2.67946
  -0.16186  -0.02120  -2.44004
   0.12245  -0.67961  -2.29040
   0.27209  -0.63471  -2.24551
   0.33194  -0.57486  -2.12580
   0.76589  -0.70953  -1.91630
   0.51151  -0.82924  -2.09587
   0.61626  -0.57486  -1.85645
   0.46662  -0.69457  -1.79659
   0.61626  -0.75442  -1.72178
   0.28705  -0.73946  -1.60206
   0.39180  -0.55990  -1.49732
   0.13742  -0.38033  -1.46739
  -0.10200  -0.30551  -1.25790
  -0.16186  -0.33544  -1.01848
  -0.34142  -0.21573  -1.00351
  -0.43121  -0.17084  -0.85388
  -0.68559  -0.27558  -0.53964
  -0.62574  -0.27558  -0.33015
  -0.56588  -0.05113  -0.09073
  -0.70055  -0.23069   0.11877
  -0.67063  -0.14091   0.31330
  -0.73048  -0.03616   0.35819
  -0.76041  -0.14091   0.80710
  -0.62574   0.15837   0.95674
  -0.77537   0.30800   1.18119
  -0.85019   0.39779   1.40565
  -0.82026   0.33793   1.48047
  -0.80530   0.27808   1.70493
  -0.71552   0.56239   1.67500
  -0.65566   0.44268   1.76478
  -0.68559   0.42771   1.85456
  -0.59581   0.36786   1.94435
  -0.43121   0.00873   1.94435
  -0.35639   0.20326   1.82464
  -0.38632   0.05362   1.88449
  -0.20675   0.03865   1.86953
  -0.29653  -0.17084   1.79471
  -0.49106  -0.14091   1.85456
  -0.35639  -0.06609   1.82464
  -0.59581  -0.33544   1.88449
  -0.91005  -0.45515   2.03413
  -0.99983  -0.39529   2.06406
  -1.16443  -0.23069   2.07902
  -1.28414  -0.38033   2.37830
  -1.25421  -0.48508   2.48304
  -1.22429  -0.45515   2.37830
  -1.37392  -0.72450   2.61772
  -1.20932  -0.69457   2.61772
  -1.01479  -0.79932   2.67757
  -0.74545  -0.91903   2.67757
  -0.79034  -0.73946   2.48304
  -0.59581  -0.55990   2.45311
  -0.49106  -0.75442   2.28851
  -0.43121  -0.29055   1.95931
  -0.35639  -0.64968   1.80967
  -0.34142  -0.18580   1.31587
  -0.20675  -0.15587   1.28594
  -0.08704  -0.14091   1.01659
   0.12245   0.36786   0.68739
   0.25713  -0.02120   0.53775
   0.39180   0.32297   0.13373
   0.48158   0.30800  -0.04583
   0.64618   0.47260  -0.28525
   0.91553   0.32297  -0.36007
   0.99035   0.23318  -0.55460
   1.21481   0.17333  -0.61446
   1.27466   0.06858  -0.55460
   1.31955   0.00873  -0.58453
   1.28963   0.06858  -0.46482
   1.36444  -0.26062  -0.44986
   1.36444  -0.12595  -0.39000
   1.48415  -0.09602  -0.36007
   1.25970   0.20326  -0.25533
   1.31955  -0.00624  -0.07576
   1.36444   0.11347  -0.15058
   1.46919   0.21822  -0.12065
   1.49912   0.56239  -0.44986
   1.61883   0.47260  -0.43489
   1.82832   0.63721  -0.73417
   1.73854   0.69706  -1.00351
   1.97796   0.83173  -1.27286
   1.79839   0.74195  -1.37761
   1.96299   0.84670  -1.57214
   1.90314   0.53246  -1.73674
   1.87321   0.72699  -2.06594
   1.67868   0.24815  -2.09587
   1.49912   0.30800  -2.24551
   1.30459   0.09851  -2.35025
   0.97539   0.02369  -2.29040
   0.96042  -0.00624  -2.21558
   0.51151  -0.21573  -2.21558
   0.51151  -0.09602  -2.12580
   0.39180  -0.27558  -2.12580
   0.24216  -0.00624  -1.97616
   0.06260  -0.14091  -1.81156
  -0.02719   0.12844  -1.87141
  -0.31150  -0.06609  -1.75170
  -0.32646   0.17333  -1.72178
  -0.52099   0.17333  -1.76667
  -0.59581   0.27808  -1.81156
  -0.56588   0.33793  -1.82652
  -0.79034   0.50253  -2.03601
  -1.02976   0.78684  -2.08091
  -1.20932   0.48757  -1.97616
  -1.34400   0.62224  -2.09587
  -1.49363   0.62224  -1.87141
  -1.79291   0.48757  -1.70681
  -1.76298   0.44268  -1.66192
  -1.94255   0.51750  -1.48235
  -2.12211   0.18829  -1.12322
  -2.18197   0.17333  -0.89877
  -2.39146   0.11347  -0.68928
  -2.36153  -0.05113  -0.30022
  -2.28671  -0.27558  -0.09073
  -2.33160  -0.18580  -0.04583
  -2.28671  -0.42522   0.25344
  -1.95751  -0.69457   0.44797
  -2.01737  -0.48508   0.31330
  -1.80787  -0.44019   0.43301
  -1.61334  -0.52997   0.44797
  -1.44874  -0.63471   0.41804
  -1.37392  -0.60479   0.62754
  -1.26918  -0.64968   0.70235
  -1.02976  -0.36537   0.80710
  -1.10458  -0.33544   0.73228
  -1.19436  -0.18580   0.98667
  -0.96990  -0.21573   1.10638
  -0.89508  -0.11098   1.25601
  -0.85019  -0.18580   1.49543
  -0.59581  -0.29055   1.68996
  -0.53595  -0.41026   1.83960
  -0.23668  -0.27558   2.03413
  -0.02719  -0.30551   2.12391
   0.16734  -0.11098   2.12391
   0.25713  -0.09602   2.15384
   0.54144  -0.18580   2.31844
   0.90057  -0.00624   2.09398
   1.02028   0.06858   1.98924
   1.05021   0.27808   1.77974
   1.19984   0.30800   1.79471
   1.25970   0.33793   1.63011
   1.48415   0.45764   1.46551
   1.67868   0.57735   1.24105
   1.67868   0.74195   0.95674
   1.79839   1.07115   0.97170
   1.67868   0.87663   0.83703
   1.60386   1.08612   0.80710
   1.54401   0.78684   0.88192
   1.79839   0.96641   0.86696
   1.63379   0.81677   1.07645
   1.69365   0.99634   0.97170
   1.49912   0.69706   1.25601
   1.63379   0.65217   1.07645
   1.37941   0.48757   1.24105
   1.55897   0.35289   1.33083
   1.69365   0.15837   1.19616
   1.60386   0.17333   1.22609
   1.67868  -0.06609   1.19616
   1.93307  -0.18580   1.04652
   1.88818  -0.11098   0.71732
   2.05278  -0.42522   0.58264
   2.21738  -0.35040   0.19359
   2.27723  -0.50004   0.01402
   2.50169  -0.58982  -0.22540
   2.35205  -0.63471  -0.30022
   2.32212  -1.17341  -0.41993
   2.35205  -0.93399  -0.61446
   2.15752  -1.05370  -0.59949
   1.90314  -0.72450  -0.68928
   1.64876  -1.05370  -0.62942
   1.66372  -0.97888  -0.30022
   1.22977  -0.75442  -0.44986
   1.08013  -0.61975  -0.37504
   0.91553  -0.51500  -0.46482
   0.67611  -0.18580  -0.49475
   0.54144  -0.26062  -0.40496
   0.27209   0.48757  -0.64438
   0.01771  -0.03616  -0.55460
  -0.01222  -0.24566  -0.49475
   0.13742  -0.03616  -0.64438
  -0.22171   0.23318  -0.77906
  -0.23668  -0.12595  -0.77906
  -0.34142  -0.24566  -0.86884
  -0.49106  -0.18580  -0.79402
  -0.68559  -0.27558  -0.94366
  -0.50603  -0.41026  -1.00351
  -1.11954   0.02369  -1.16812
  -1.49363   0.02369  -1.28783
  -1.56845  -0.33544  -1.30279
  -1.80787  -0.24566  -1.46739
  -2.15204  -0.09602  -1.57214
  -2.34657  -0.11098  -1.57214
  -2.46628  -0.14091  -1.54221
  -2.52613  -0.02120  -1.67688
  -2.79548   0.08355  -1.64696
  -2.93016  -0.11098  -1.57214
  -2.94512  -0.11098  -1.46739
  -3.03490  -0.05113  -1.54221
  -3.21447  -0.26062  -1.37761
  -2.94512  -0.09602  -1.34768
  -3.00497   0.29304  -1.37761
  -2.76555  -0.17084  -1.03344
  -2.85534  -0.21573  -0.94366
  -2.82541  -0.05113  -0.82395
  -2.78052  -0.17084  -0.68928
  -2.51117   0.20326  -0.71920
  -2.63088   0.24815  -0.56957
  -2.40642   0.12844  -0.47978
  -2.21189   0.33793  -0.44986
  -2.13708   0.41275  -0.41993
  -2.03233   0.56239  -0.33015
  -1.79291   0.72699  -0.07576
  -1.65824   0.59231   0.04395
  -1.68816   0.69706   0.01402
  -1.37392   0.35289   0.29833
  -1.35896   0.42771   0.20855
  -1.37392   0.56239   0.35819
  -1.22429   0.41275   0.68739
  -0.99983   0.41275   0.92681
  -0.99983   0.39779   0.91185
  -0.77537   0.30800   1.18119
  -0.62574   0.38282   1.31587
  -0.53595   0.12844   1.43558
  -0.32646   0.36786   1.34580
  -0.19179   0.56239   1.24105
   0.07756   0.12844   1.48047
   0.24216   0.27808   1.36076
   0.46662   0.54742   1.30090
   0.61626   0.38282   1.27098
   0.88560   0.21822   1.31587
   0.99035   0.08355   1.19616
   1.15495   0.08355   1.21112
   1.30459   0.17333   1.12134
   1.63379   0.09851   0.94177
   1.76847   0.02369   0.88192
   2.03781   0.00873   0.77717
   2.06774   0.12844   0.70235
   2.17249  -0.02120   0.79214
   2.15752   0.06858   0.79214
   2.32212  -0.15587   0.80710
   2.39694  -0.30551   0.85199
   2.54658  -0.32048   0.88192
   2.51665  -0.41026   0.82206
   2.33709  -0.27558   0.86696
   2.21738  -0.44019   0.86696
   2.08270  -0.63471   1.06148
   2.11263  -0.64968   0.98667
   1.97796  -0.54493   0.86696
   1.76847  -0.54493   1.04652
   1.82832  -0.70953   1.04652
   1.82832  -0.69457   0.89688
   1.67868  -0.54493   0.73228
   1.66372  -0.35040   0.64250
   1.51408  -0.23069   0.52279
   1.45423   0.09851   0.47790
   1.48415   0.06858   0.37315
   1.46919   0.03865   0.28337
   1.46919   0.05362   0.16366
   1.39437   0.00873   0.16366
   1.36444   0.09851   0.13373
   1.46919   0.42771   0.05891
   1.12502   0.62224  -0.07576
   1.08013   0.41275  -0.03087
   0.96042   0.41275  -0.25533
   0.70604   0.74195  -0.43489
   0.37684   0.38282  -0.33015
   0.40676   0.32297  -0.19547
   0.30202   0.33793  -0.24036
   0.09252   0.35289  -0.36007
  -0.02719   0.36786  -0.30022
  -0.26661   0.15837  -0.33015
  -0.43121  -0.05113  -0.30022
  -0.37135   0.06858  -0.19547
  -0.50603  -0.17084  -0.21044
  -0.64070   0.17333  -0.41993
  -0.62574   0.00873  -0.31518
  -0.67063   0.11347  -0.24036
  -0.82026  -0.06609  -0.25533
  -0.77537  -0.17084  -0.24036
  -0.77537  -0.00624  -0.31518
  -0.89508   0.05362  -0.24036
  -0.88012  -0.05113  -0.10569
  -0.68559   0.00873  -0.07576
  -0.71552   0.32297  -0.06080
  -0.80530   0.47260  -0.06080
  -0.89508   0.32297   0.16366
  -0.89508   0.09851   0.19359
  -0.71552   0.08355   0.32826
  -0.64070   0.12844   0.46293
  -0.70055   0.12844   0.22351
  -0.73048   0.12844   0.17862
  -0.91005   0.27808   0.04395
  -0.83523   0.05362   0.04395
  -1.01479  -0.18580  -0.03087
  -0.86516  -0.33544  -0.07576
  -0.98487  -0.33544  -0.18051
  -1.02976  -0.52997  -0.40496
  -1.08961  -0.47011  -0.61446
  -1.07465  -0.51500  -0.80899
  -1.02976  -0.30551  -1.04841
  -1.26918  -0.26062  -1.10826
  -1.16443  -0.20077  -1.28783
  -1.11954  -0.21573  -1.19804
  -1.07465  -0.23069  -1.19804
  -0.86516  -0.33544  -1.13819
  -0.70055  -0.02120  -1.22797
  -0.67063  -0.09602  -1.25790
  -0.64070  -0.08106  -1.15315
  -0.58084   0.02369  -1.25790
  -0.61077   0.18829  -1.22797
  -0.46113   0.02369  -1.10826
  -0.28157  -0.03616  -1.06337
  -0.10200   0.23318  -1.22797
  -0.26661  -0.11098  -1.18308
  -0.14690  -0.11098  -1.22797
  -0.14690  -0.32048  -1.06337
  -0.10200  -0.27558  -1.06337
  -0.02719  -0.45515  -0.95862
   0.10749  -0.45515  -1.24293
  -0.02719  -0.27558  -1.21301
   0.16734  -0.69457  -1.00351
   0.21223  -0.70953  -1.15315
   0.24216  -0.54493  -1.18308
   0.40676  -0.72450  -1.04841
   0.36187  -0.78435  -1.00351
   0.40676  -0.96392  -0.98855
   0.57136  -0.72450  -0.94366
   0.64618  -0.57486  -0.86884
   0.51151  -0.52997  -0.58453
   0.60129  -0.44019  -0.52467
   0.70604  -0.30551  -0.43489
   0.78086  -0.02120  -0.36007
   1.33452   0.08355  -0.33015
   0.78086   0.26311  -9.4E-40
   0.78086   0.24815   0.05891
   0.75093   0.32297   0.14870
   0.73597   0.53246   0.20855
   0.61626   1.08612   0.25344
   0.69107   0.65217   0.31330
   0.37684   0.71202   0.28337
   0.07756   0.75692   0.49286
   0.12245   0.69706   0.47790
   0.06260   0.75692   0.38812
  -0.01222   0.81677   0.44797
  -0.10200   0.77188   0.46293
   0.03267   0.59231   0.49286
   0.13742   0.68210   0.38812
   0.06260   0.59231   0.43301
