********************************************************************************
               CENTRO DE INSTRUMENTACION Y REGISTRO SISMICO  A.C.  
                       Coordinacion de Servicios Tecnicos
     Anaxagoras 814, Col. Narvarte, Benito Juarez, C.P. 03020 Mexico, D.F.
            Tels. 687 45 42/ 687 45  82             Fax. 669 25 12
********************************************************************************
ARCHIVO ESTANDAR DE ACELERACION:
VERSION DEL FORMATO                    : 2.0
NOMBRE DEL ARCHIVO                     : AO249305.152
FECHA Y HORA DE CREACION               : 96/01/10  13:17:47
REF. CATALOGO ACELEROGRAMAS, SMIS 1995 : REGISTRO No. 4081 /PAG. 374


================================================================================
DATOS DE LA ESTACION:
NOMBRE DE LA ESTACION                  : ALBERCA OLIMPICA
CLAVE DE LA ESTACION                   : AO24
LOCALIZACION DE LA ESTACION            : Alberca Olimpica Rio Churubusco y
                                       : Division del Norte, Col Pedro Ma
                                       : Anaya, Benito Juarez
                                       :
                                       :
COORDENADAS DE LA ESTACION             : 19.358 LAT. N 
                                       : 99.154 LONG. W 
ALTITUD (msnm)                         : 2235
TIPO DE SUELO                          : TRANSICION
                                       : 
                                       : 
INSTITUCION RESPONSABLE                : CIRES
                                       :

================================================================================
DATOS DEL ACELEROGRAFO:
MODELO DEL ACELEROGRAFO                : DCA-333
NUMERO DE SERIE DEL ACELEROGRAFO       : 257
NUMERO DE CANALES                      : 3
ORIENTACION C1-C6 (rumbo;orientacion)  : /N00E/+V/N90W
ORIENTACION C7-C12 (rumbo;orientacion) :
VEL. DE MUESTREO, C1-C6 (muestras/s)   : /100/100/100
VEL. DE MUESTREO, C7-C12 (muestras/s)  :
ESC. COMPLETA DE SENSORES, C1-C6, (g)  : /0.5/0.5/0.5
ESC. COMPLETA DE SENSORES, C7-C12, (g) :
FREC. NAT. DE SENSORES, C1-C6, (Hz)    : /30/30/30
FREC. NAT. DE SENSORES, C7-C12, (Hz)   :
AMORTIGUAMIENTO DE SENSORES, C1-C6     : /0.700/0.700/0.700
AMORTIGUAMIENTO DE SENSORES, C7-C12    :
INTERVALO DE MUESTREO, C1-C6, (s)      : /0.01/0.01/0.01
INTERVALO DE MUESTREO, C7-C12, (s)     :
UMBRAL DE DISPARO, C1-C6, (Gal)        : /1.5/1.5/1.5
UMBRAL DE DISPARO, C7-C12, (Gal)       :
MEMORIA DE PREEVENTO (s)               : 4
TIEMPO DE POSEVENTO (s)                : 15


================================================================================
DATOS DEL SISMO:
FECHA DEL SISMO (GMT)                  : 15/MAY/93
HORA EPICENTRO (GMT)                   : 3:11:56,0 
MAGNITUD(ES)                           : /Mb=5.90/Ms=5.90/Mc=6.00
COORDENADAS DEL EPICENTRO              : 16.470 LAT. N 
                                       : 98.720 LONG. W 
PROFUNDIDAD FOCAL (km)                 : < 5
FUENTE DE LOS DATOS EPICENTRALES       : SSN
                                       : INSTITUTO DE GEOFISICA, UNAM

================================================================================
DATOS DE ESTE REGISTRO:
HORA DE LA PRIMERA MUESTRA (GMT)       : 03:14:02.80
EXACTITUD DEL TIEMPO (s)               : 0.01
DURACION DEL REGISTRO (s), C1-C6       : /85.71/85.71/85.71
DURACION DEL REGISTRO (s), C7-C12      :
NUM. TOTAL DE MUESTRAS, C1-C6          : /8571/8571/8571
NUM. TOTAL DE MUESTRAS, C7-C12         :
ACEL. MAX. (Gal), C1-C6                : /6.27/1.53/7.46
ACEL. MAX., C1-C6, EN LA MUESTRA       :
ACEL. MAX. (Gal), C7-C12               :
ACEL. MAX., C7-C12, EN LA MUESTRA      :
UNIDADES DE LOS DATOS                  : Gal (cm/s/s)
FACTOR DE DECIMACION                   : 1
FORMATO DATOS (FORTRAN,10 campos/dato) : 3F10.2


================================================================================
CALIDAD DEL ACELEROGRAMA:
REGISTRO DIGITAL COMPLETO, CON TIEMPO ABSOLUTO CORRECTO.


================================================================================
COMENTARIOS:














================================================================================
DATOS DE ACELERACION:
---------+---------+---------+---------+---------+---------+---------+---------+
   CANAL-1   CANAL-2   CANAL-3   CANAL-4   CANAL-5   CANAL-6   CANAL-7   CANAL-8
      N00E        +V      N90W
---------+---------+---------+---------+---------+---------+---------+---------+
[...]
      1.00      0.09     -1.16
      1.00      0.09     -1.16
      1.00      0.09     -1.16
      1.48      0.57     -1.16
      1.48      0.57     -1.16
      1.48      0.57     -1.16
      1.48      0.57     -0.68
      1.96      0.57     -0.68
      1.96      0.57     -0.68
      1.96      1.05     -0.20
      1.96      0.57     -0.20
      1.96      1.05     -0.20
      1.96      0.57     -0.20
      1.96      1.05     -0.20
      1.96      0.57     -0.20
      1.96      0.57     -0.20
      1.96      1.05      0.28
      1.96      0.57     -0.20
      1.96      0.57     -0.20
      1.96      0.57     -0.20
      1.96      0.57     -0.20
      1.96      0.57      0.28
      1.96      0.57     -0.20
      1.96      0.57      0.28
      1.96      0.57      0.28
      1.96      0.09      0.28
      1.48      0.09      0.28
      1.48      0.09      0.28
      1.48      0.09      0.28
      1.48      0.09      0.28
      1.48      0.09      0.28
      1.48      0.09      0.28
      1.48      0.09      0.28
      1.00      0.09      0.76
      1.00      0.09      0.76
      1.00     -0.39      0.76
      1.00      0.09      0.76
      0.52     -0.39      0.76
      0.52     -0.39      1.24
      0.52      0.09      1.24
      0.04     -0.39      1.24
      0.04      0.09      1.24
      0.04      0.09      1.24
     -0.44      0.09      1.24
     -0.44      0.09      1.24
     -0.44      0.09      1.24
     -0.92      0.09      1.24
     -0.92      0.09      1.24
     -1.39      0.57      1.24
     -1.39      0.57      1.24
     -1.39      0.57      1.24
     -1.87      0.57      1.24
     -2.35      1.05      1.24
     -2.35      1.05      1.24
     -2.35      1.05      1.24
     -2.35      1.05      1.24
     -2.83      1.05      1.24
     -2.83      1.05      1.24
     -2.83      1.05      0.76
     -2.83      1.05      0.76
     -3.31      1.05      0.76
     -3.31      1.05      0.76
     -3.31      0.57      0.76
     -3.31      0.57      0.76
     -3.31      0.57      0.76
     -3.31      0.57      0.28
     -3.31      0.57      0.28
     -3.31      0.09      0.28
     -2.83      0.09      0.28
     -2.83      0.09     -0.20
     -2.83      0.09     -0.20
     -2.83      0.09     -0.20
     -2.83     -0.39     -0.20
     -2.35     -0.39     -0.20
     -2.35     -0.39     -0.68
     -2.35     -0.39     -0.20
     -1.87     -0.39     -0.68
     -1.87     -0.39     -0.68
     -1.39     -0.39     -0.68
     -1.39     -0.39     -0.68
     -1.39     -0.39     -0.68
     -0.92     -0.39     -0.68
     -0.92     -0.39     -0.68
     -0.92     -0.39     -0.68
     -0.44     -0.39     -0.68
     -0.44     -0.39     -0.68
      0.04     -0.39     -1.16
      0.04     -0.39     -0.68
      0.52     -0.39     -1.16
      1.00     -0.39     -0.68
      1.00     -0.39     -1.16
      1.00     -0.39     -1.16
      1.00     -0.39     -1.16
      1.48     -0.39     -1.16
      1.48     -0.39     -1.16
      1.96     -0.39     -1.16
      1.96     -0.39     -1.16
      1.96     -0.39     -1.16
      2.44     -0.39     -1.16
      2.44     -0.39     -1.16
      2.44     -0.86     -1.16
      2.44     -0.86     -1.16
      2.44     -0.86     -1.16
      2.44     -0.39     -1.16
      2.44     -0.39     -1.16
      2.91     -0.86     -1.64
      2.91     -0.86     -1.64
      2.91     -0.86     -1.16
      2.44     -0.39     -1.16
      2.44     -0.39     -1.16
      2.44     -0.39     -0.68
      2.44      0.09     -0.68
      2.44      0.09     -0.68
      2.44      0.09     -0.68
      1.96     -0.39     -0.20
      1.96      0.09     -0.20
      1.96      0.09     -0.20
      1.96      0.09     -0.20
      1.48      0.09     -0.20
      1.96      0.09      0.28
      1.96      0.09      0.28
      1.96      0.57      0.28
      1.48      0.57      0.28
      1.48      0.57      0.28
      1.48      0.57      0.76
      1.48      0.57      0.76
      1.48      0.57      0.76
      1.48      0.57      0.76
      1.48      0.57      0.76
      1.48      0.57      0.76
      1.48      0.57      1.24
      1.48      0.57      1.24
      1.48      0.57      1.24
      1.48      0.09      1.72
      1.48      0.09      1.72
      1.00      0.09      1.72
      1.48      0.09      2.19
      1.48      0.09      2.19
      1.48     -0.39      2.19
      1.48     -0.39      2.19
      1.48     -0.39      2.19
      1.48     -0.39      2.67
      1.48      0.09      2.67
      1.48      0.09      2.67
      1.48      0.09      2.67
      1.48      0.09      2.67
      1.48      0.09      2.67
      1.48      0.09      2.67
      1.48      0.09      2.67
      1.48      0.09      2.67
      1.48      0.09      2.19
      1.48      0.09      2.19
      1.48      0.09      2.19
      1.48      0.09      2.19
      1.48      0.09      1.72
      1.48      0.09      1.72
      1.48      0.09      1.72
      1.48      0.09      1.24
      1.48      0.09      1.24
      1.48      0.09      0.76
      1.48      0.09      0.76
      1.00      0.09      0.28
      1.00      0.57      0.28
      1.00      0.09     -0.20
      1.00      0.57     -0.20
      1.00      0.09     -0.20
      0.52      0.57     -0.68
      0.52      0.57     -0.68
      0.04      0.09     -1.16
      0.04      0.57     -1.16
     -0.44      0.57     -1.64
     -0.44      0.57     -1.64
     -0.44      0.57     -2.11
     -0.92      0.09     -2.11
     -0.92      0.09     -2.11
     -0.92      0.09     -2.59
     -0.92      0.09     -2.59
     -1.39      0.09     -2.59
     -1.39     -0.39     -2.59
     -1.39     -0.39     -3.07
     -1.39     -0.86     -3.07
     -1.39     -0.86     -3.07
     -1.39     -0.86     -3.55
     -1.87     -0.86     -3.55
     -1.87     -0.86     -3.55
     -1.87     -0.86     -3.55
     -1.87     -0.86     -3.55
     -2.35     -0.86     -3.55
     -2.35     -0.39     -3.55
     -2.83     -0.39     -3.55
     -2.83     -0.39     -3.55
     -2.83     -0.39     -3.55
     -2.83     -0.39     -3.55
     -2.83     -0.39     -3.55
     -3.31      0.09     -3.55
     -3.31      0.09     -3.55
     -2.83      0.09     -3.07
     -2.83      0.09     -3.07
     -3.31      0.09     -3.07
     -2.83      0.09     -2.59
     -2.83      0.09     -2.59
     -3.31      0.09     -2.11
     -2.83      0.09     -2.11
     -2.83      0.09     -1.64
     -2.83      0.09     -1.64
     -2.83      0.09     -1.16
     -3.31      0.09     -1.16
     -2.83      0.09     -0.68
     -3.31      0.09     -0.20
     -2.83      0.09     -0.20
     -2.83      0.09     -0.20
     -2.83      0.09      0.28
     -2.83      0.09      0.28
     -2.83      0.09      0.76
     -2.83      0.57      0.76
     -2.83      0.57      0.76
     -2.83      0.57      1.24
     -2.35      0.57      1.24
     -2.35      0.57      1.72
     -2.35      0.57      1.72
     -2.35      0.57      1.72
     -2.35      0.57      2.19
     -2.35      0.57      2.19
     -2.35      0.57      2.67
     -2.35      0.09      2.67
     -2.35      0.09      2.67
     -2.35      0.09      3.15
     -2.35      0.09      3.63
     -2.35      0.09      3.63
     -1.87      0.57      4.11
     -1.87      0.57      4.11
     -1.39      0.57      4.11
     -1.39      0.57      4.11
     -0.92      0.09      4.59
     -0.92      0.57      4.59
     -0.44      0.57      4.59
      0.04      0.57      5.07
      0.04      0.57      5.07
      0.52      0.57      4.59
      1.00      0.09      5.07
      1.00      0.57      5.07
      1.00      0.09      5.07
      1.48      0.09      4.59
      1.48      0.09      5.07
      1.96      0.09      4.59
      1.96      0.09      4.59
      1.96      0.09      4.59
      2.44     -0.39      4.11
      2.44     -0.39      4.11
      2.44     -0.86      4.11
      2.44     -0.39      3.63
      2.44     -0.39      3.63
      2.91     -0.39      3.15
      2.91     -0.39      3.15
      2.91     -0.86      2.67
      2.91     -0.86      2.67
      2.91     -0.86      2.19
      3.39     -0.86      1.72
      3.39     -0.86      1.72
      3.87     -0.86      1.24
      3.87     -0.86      0.76
      3.87     -0.86      0.76
      4.35     -0.86      0.28
      4.35     -0.86     -0.20
      4.35     -0.86     -0.20
      4.35     -0.39     -0.68
      4.35     -0.39     -1.16
      4.35     -0.39     -1.16
      4.35     -0.39     -1.64
      4.35      0.09     -2.11
      4.35      0.09     -2.11
      3.87      0.09     -2.59
      3.87      0.09     -3.07
      3.39      0.09     -3.55
      3.39      0.57     -3.55
      2.91      0.57     -4.03
      2.91      0.57     -4.51
      2.44      0.57     -4.51
      2.44      0.57     -4.99
      1.96      0.57     -5.47
      1.96      0.57     -5.47
      1.48      0.57     -5.95
      1.48      0.57     -5.95
      1.00      0.57     -5.95
      1.00      0.09     -6.42
      1.00      0.09     -6.42
      0.52      0.09     -6.42
      0.04      0.09     -6.42
     -0.44      0.09     -6.90
     -0.44     -0.39     -6.90
     -0.92     -0.39     -6.90
     -0.92     -0.39     -6.90
     -1.39     -0.39     -6.90
     -1.39     -0.39     -6.90
     -2.35     -0.39     -6.90
     -1.87      0.09     -6.90
     -2.35      0.09     -6.90
     -2.35     -0.39     -6.90
     -2.83      0.09     -6.90
     -2.83      0.09     -6.90
     -2.83      0.09     -6.90
     -3.31      0.09     -6.90
     -3.31      0.09     -6.90
     -3.31      0.09     -6.90
     -3.79      0.09     -6.42
     -3.79      0.09     -6.42
     -3.79      0.09     -5.95
     -3.79      0.09     -5.95
     -3.79      0.09     -5.47
     -4.27      0.09     -4.99
     -4.27      0.09     -4.99
     -4.27      0.09     -4.51
     -4.27      0.09     -4.51
     -4.27     -0.39     -4.03
     -4.27      0.09     -3.55
     -4.27      0.09     -3.55
     -4.27      0.09     -2.59
     -4.27      0.09     -2.11
     -4.27      0.09     -1.64
     -3.79      0.09     -1.16
     -3.79      0.09     -0.68
     -3.79     -0.39     -0.20
     -3.79     -0.39      0.28
     -3.31     -0.39      0.76
     -3.31     -0.39      1.24
     -3.31     -0.39      1.72
     -2.83     -0.39      2.19
     -2.83     -0.86      2.19
     -2.35     -0.86      2.67
     -2.35     -0.86      3.15
     -1.87     -0.86      3.63
     -1.87     -0.86      4.11
     -1.87     -0.86      4.11
     -1.39     -0.86      4.59
     -1.39     -0.86      5.07
     -1.39     -0.86      5.07
     -0.92     -0.86      5.55
     -0.92     -0.39      5.55
     -0.92     -0.39      6.03
     -0.44     -0.39      6.03
      0.04     -0.39      6.03
      0.04     -0.39      6.50
      0.04     -0.39      6.50
      0.52     -0.39      6.50
      1.00     -0.39      6.50
      1.00      0.09      6.98
      1.00     -0.39      6.98
      1.48      0.09      6.98
      1.48     -0.39      6.98
      1.48     -0.39      7.46
      1.48     -0.39      7.46
      1.96     -0.39      7.46
      2.44     -0.39      7.46
      2.44     -0.39      7.46
      2.44     -0.39      7.46
      2.91     -0.39      7.46
      2.91     -0.39      6.98
      3.39     -0.39      7.46
      3.39     -0.39      6.98
      3.39     -0.39      6.98
      3.87     -0.39      6.98
      3.87     -0.39      6.50
      3.87     -0.39      6.50
      3.87     -0.39      6.50
      4.35     -0.39      6.50
      3.87     -0.39      6.03
      4.35     -0.39      6.03
      4.35     -0.39      5.55
      4.35     -0.39      5.07
      4.35     -0.39      5.07
      4.35      0.09      5.07
      4.35      0.09      4.59
      4.35      0.09      4.11
      4.35      0.09      3.63
      4.35      0.09      3.63
      4.35      0.09      3.15
      4.35      0.09      2.67
      4.35      0.09      2.19
      4.35      0.09      2.19
      3.87      0.09      1.72
      3.87      0.09      1.72
      3.87      0.09      1.24
      3.87      0.09      0.76
      3.87      0.09      0.76
      3.39      0.09      0.28
      3.39      0.09      0.28
      3.39      0.09     -0.20
      3.39     -0.39     -0.20
      3.39      0.09     -0.20
      2.91     -0.39     -0.68
      2.91      0.09     -1.16
      2.91      0.09     -1.16
      2.44      0.09     -1.16
      2.44      0.09     -1.64
      2.44      0.09     -1.64
      1.96      0.09     -2.11
      1.96      0.09     -2.11
      1.96      0.09     -2.11
      1.48      0.09     -2.59
      1.48      0.09     -2.59
      1.00      0.09     -2.59
      1.00      0.09     -3.07
      1.00      0.09     -3.07
      0.52      0.09     -3.07
      0.52      0.09     -3.55
      0.52      0.09     -4.03
      0.04      0.09     -4.03
      0.04      0.09     -4.03
      0.04      0.09     -4.51
     -0.44      0.09     -4.51
     -0.44      0.57     -4.99
     -0.44      0.09     -4.99
     -0.92      0.57     -4.99
     -0.92      0.57     -5.47
     -1.39      0.57     -5.47
     -1.39      0.57     -5.47
     -1.39      0.57     -5.47
     -1.87      0.57     -5.47
     -1.87      0.57     -5.47
     -1.87      0.57     -5.47
     -2.35      0.57     -5.47
     -2.35      0.57     -4.99
     -2.83      0.57     -4.99
     -2.83      0.57     -4.99
     -3.31      0.57     -4.99
     -3.31      0.57     -4.99
     -3.79      0.57     -4.99
     -3.79      0.09     -4.51
     -4.27      0.09     -4.51
     -4.75      0.09     -4.51
     -4.75      0.09     -4.51
     -5.23      0.09     -4.03
     -5.23      0.09     -4.03
     -5.70      0.09     -3.55
     -5.70     -0.39     -3.55
     -5.70     -0.39     -3.07
     -5.70     -0.39     -3.07
     -5.70     -0.39     -3.07
     -5.70     -0.39     -2.59
     -5.70     -0.39     -2.59
     -5.70     -0.86     -2.11
     -5.70     -0.86     -1.64
     -5.23     -0.86     -1.64
     -5.23     -0.86     -1.16
     -5.23     -0.39     -0.68
     -5.23     -0.39     -0.20
     -4.75     -0.39     -0.20
     -4.75     -0.39      0.28
     -4.75     -0.39      0.28
     -4.27     -0.39      0.76
     -4.27     -0.39      0.76
     -4.27     -0.39      1.24
     -3.79      0.09      1.72
     -3.79      0.09      1.72
     -3.31      0.09      1.72
     -3.31      0.09      2.19
     -2.83      0.09      2.19
     -2.83      0.09      2.67
     -2.83      0.09      2.67
     -2.35      0.57      3.15
     -2.35      0.57      3.15
     -1.87      0.57      3.63
     -1.39      0.57      3.63
     -1.39      0.09      3.63
     -0.92      0.57      4.11
     -0.92      0.57      4.11
     -0.44      0.57      4.11
     -0.44      0.57      4.11
      0.04      0.57      4.11
      0.04      0.57      4.11
      0.52      0.57      4.11
      1.00      0.57      4.11
      1.00      0.57      4.11
      1.00      0.57      4.11
      1.48      0.57      4.11
      1.48      0.57      4.11
      1.96      0.57      4.11
      2.44      0.57      4.11
      2.44      0.57      4.11
      2.91      0.57      4.11
      2.91      0.09      4.11
      2.91      0.57      4.11
      3.39      0.57      4.11
      3.39      0.57      4.11
      3.39      0.57      4.11
      3.87      0.09      4.11
      3.87      0.57      4.11
      3.87      0.09      3.63
      3.87      0.09      3.63
      3.87      0.09      3.63
      3.87      0.09      3.15
      3.87      0.09      3.15
      4.35      0.57      2.67
      4.35      0.09      2.67
      4.35      0.09      2.19
      4.35      0.09      1.72
      3.87      0.09      1.24
      3.87      0.57      1.24
      3.87      0.57      0.76
