********************************************************************************
               CENTRO DE INSTRUMENTACION Y REGISTRO SISMICO  A.C.  
                       Coordinacion de Servicios Tecnicos
     Anaxagoras 814, Col. Narvarte, Benito Juarez, C.P. 03020 Mexico, D.F.
            Tels. 687 45 42/ 687 45  82             Fax. 669 25 12
********************************************************************************
ARCHIVO ESTANDAR DE ACELERACION:
VERSION DEL FORMATO                    : 2.0
NOMBRE DEL ARCHIVO                     : AO249603.271
FECHA Y HORA DE CREACION               : 27/MAR/98,12:06
REF. CATALOGO ACELEROGRAMAS, SMIS 1996 : REGISTRO No.     /PAG.


================================================================================
DATOS DE LA ESTACION:
NOMBRE DE LA ESTACION                  : ALBERCA OLIMPICA
CLAVE DE LA ESTACION                   : AO24
LOCALIZACION DE LA ESTACION            : Alberca Olimpica Rio Churubusco y
                                       : Division del Norte, Col Pedro Ma
                                       : Anaya, Benito Juarez
                                       :
                                       :
COORDENADAS DE LA ESTACION             : 19.358 LAT. N 
                                       : 99.154 LONG. W 
ALTITUD (msnm)                         : 2235
TIPO DE SUELO                          : TRANSICION
                                       : 
                                       : 
INSTITUCION RESPONSABLE                : CIRES
                                       :

================================================================================
DATOS DEL ACELEROGRAFO:
MODELO DEL ACELEROGRAFO                : DCA-333
NUMERO DE SERIE DEL ACELEROGRAFO       : 257
NUMERO DE CANALES                      : 3
ORIENTACION C1-C6 (rumbo;orientacion)  : /N00E/+V/N90W
ORIENTACION C7-C12 (rumbo;orientacion) :
VEL. DE MUESTREO, C1-C6 (muestras/s)   : /100/100/100
VEL. DE MUESTREO, C7-C12 (muestras/s)  :
ESC. COMPLETA DE SENSORES, C1-C6, (g)  : /0.5/0.5/0.5
ESC. COMPLETA DE SENSORES, C7-C12, (g) :
FREC. NAT. DE SENSORES, C1-C6, (Hz)    : /30/30/30
FREC. NAT. DE SENSORES, C7-C12, (Hz)   :
AMORTIGUAMIENTO DE SENSORES, C1-C6     : /0.700/0.700/0.700
AMORTIGUAMIENTO DE SENSORES, C7-C12    :
INTERVALO DE MUESTREO, C1-C6, (s)      : /0.01/0.01/0.01
INTERVALO DE MUESTREO, C7-C12, (s)     :
UMBRAL DE DISPARO, C1-C6, (Gal)        : /2/2/2
UMBRAL DE DISPARO, C7-C12, (Gal)       :
MEMORIA DE PREEVENTO (s)               : 4
TIEMPO DE POSEVENTO (s)                : 15


================================================================================
DATOS DEL SISMO:
FECHA DEL SISMO (GMT)                  : 27/MAR/96
HORA EPICENTRO (GMT)                   : 12:34:48,2
MAGNITUD(ES)                           : /Mb=5.5/Ms=4.9/Mc=4.6
COORDENADAS DEL EPICENTRO              : 16.210 LAT. N
                                       : 98.250 LONG. W
PROFUNDIDAD FOCAL (km)                 : 7
FUENTE DE LOS DATOS EPICENTRALES       : SSN
                                       : INSTITUTO DE GEOFISICA, UNAM

================================================================================
DATOS DE ESTE REGISTRO:
HORA DE LA PRIMERA MUESTRA (GMT)       : 12:36:30.10
EXACTITUD DEL TIEMPO (s)               : 0.01
DURACION DEL REGISTRO (s), C1-C6       : /46.97/46.97/46.97
DURACION DEL REGISTRO (s), C7-C12      :
NUM. TOTAL DE MUESTRAS, C1-C6          : /4697/4697/4697
NUM. TOTAL DE MUESTRAS, C7-C12         :
ACEL. MAX. (Gal), C1-C6                : /2.41366/1.13944/3.11484
ACEL. MAX., C1-C6, EN LA MUESTRA       :
ACEL. MAX. (Gal), C7-C12               :
ACEL. MAX., C7-C12, EN LA MUESTRA      :
UNIDADES DE LOS DATOS                  : Gal (cm/s/s)
FACTOR DE DECIMACION                   : 1
FORMATO DATOS (FORTRAN,10 campos/dato) : 3F10.5


================================================================================
CALIDAD DEL ACELEROGRAMA:
REGISTRO DIGITAL COMPLETO CON TIEMPO ABSOLUTO CORRECTO.


================================================================================
COMENTARIOS:














================================================================================
DATOS DE ACELERACION:
---------+---------+---------+---------+---------+---------+---------+---------+
   CANAL-1   CANAL-2   CANAL-3   CANAL-4   CANAL-5   CANAL-6   CANAL-7   CANAL-8
      N00E        +V      N90W
---------+---------+---------+---------+---------+---------+---------+---------+
[...]
  -0.97715  -0.18177   2.15237
  -0.97715  -0.18177   2.15237
  -0.49831  -0.18177   2.15237
  -0.49831  -0.18177   2.15237
  -0.49831  -0.18177   2.15237
  -0.49831   0.29707   2.15237
  -0.01947   0.29707   2.15237
  -0.01947   0.29707   2.15237
  -0.49831   0.29707   2.15237
  -0.01947   0.29707   2.15237
  -0.01947   0.29707   1.67354
  -0.01947   0.29707   1.67354
  -0.01947   0.29707   1.67354
   0.45937   0.29707   1.67354
   0.45937   0.29707   1.67354
   0.45937   0.29707   1.67354
   0.45937   0.29707   1.19470
   0.45937   0.29707   1.19470
  -0.01947   0.29707   1.19470
  -0.01947  -0.18177   1.19470
   0.45937  -0.18177   1.19470
  -0.01947  -0.18177   1.19470
   0.45937  -0.18177   1.19470
  -0.01947  -0.18177   1.19470
   0.45937  -0.18177   1.19470
   0.45937  -0.18177   1.19470
   0.45937  -0.18177   1.19470
   0.45937  -0.18177   1.19470
   0.45937  -0.18177   1.19470
   0.45937  -0.18177   1.19470
   0.93820  -0.18177   0.71586
   0.93820  -0.18177   0.71586
   0.93820  -0.18177   0.71586
   0.93820  -0.18177   0.71586
   0.93820  -0.18177   0.23702
   0.93820  -0.18177   0.23702
   0.93820  -0.18177   0.23702
   0.93820  -0.18177   0.23702
   0.93820  -0.18177  -0.24181
   0.93820  -0.18177  -0.24181
   0.93820  -0.18177  -0.24181
   0.93820  -0.18177  -0.24181
   0.93820  -0.18177  -0.72065
   0.93820  -0.18177  -0.72065
   0.93820  -0.18177  -0.72065
   0.93820  -0.18177  -0.72065
   0.93820  -0.18177  -0.72065
   0.93820  -0.18177  -0.72065
   0.93820  -0.18177  -0.72065
   0.93820  -0.18177  -0.72065
   0.93820  -0.18177  -0.72065
   0.45937   0.29707  -1.19949
   0.45937   0.29707  -1.19949
   0.45937   0.29707  -1.19949
  -0.01947   0.29707  -1.19949
  -0.01947   0.29707  -1.67833
  -0.01947   0.29707  -1.67833
  -0.01947   0.29707  -1.67833
  -0.01947   0.29707  -1.67833
  -0.01947   0.29707  -1.67833
  -0.01947   0.29707  -1.67833
  -0.49831   0.29707  -1.67833
  -0.49831   0.29707  -1.67833
  -0.49831   0.29707  -1.67833
  -0.49831   0.29707  -2.15717
  -0.49831   0.29707  -2.15717
  -0.49831   0.29707  -1.67833
  -0.49831   0.29707  -1.67833
  -0.97715   0.29707  -1.67833
  -0.97715  -0.18177  -1.67833
  -0.97715  -0.18177  -1.67833
  -0.97715  -0.18177  -1.67833
  -1.45599  -0.18177  -1.67833
  -0.97715  -0.18177  -1.67833
  -0.97715  -0.18177  -1.19949
  -0.97715  -0.66061  -1.19949
  -0.97715  -0.18177  -1.19949
  -0.97715  -0.18177  -1.19949
  -0.97715  -0.18177  -1.19949
  -0.97715  -0.18177  -1.19949
  -0.97715  -0.18177  -1.19949
  -0.97715  -0.18177  -1.19949
  -0.97715  -0.18177  -1.19949
  -0.97715  -0.18177  -1.19949
  -0.97715   0.29707  -1.67833
  -0.97715   0.29707  -1.19949
  -0.97715   0.29707  -1.19949
  -0.97715   0.29707  -1.19949
  -0.97715   0.29707  -1.19949
  -0.97715   0.29707  -1.19949
  -0.97715   0.29707  -0.72065
  -0.97715   0.29707  -0.72065
  -0.97715   0.29707  -0.72065
  -0.97715  -0.18177  -0.72065
  -0.49831   0.29707  -0.72065
  -0.49831  -0.18177  -0.72065
  -0.49831  -0.18177  -0.24181
  -0.49831  -0.18177  -0.24181
  -0.49831  -0.18177  -0.24181
  -0.01947  -0.18177  -0.24181
  -0.01947  -0.18177   0.23702
  -0.01947  -0.18177   0.23702
  -0.01947  -0.18177   0.23702
   0.45937  -0.18177   0.23702
   0.45937  -0.18177   0.23702
   0.93820  -0.18177   0.71586
   0.45937  -0.18177   0.71586
   0.93820  -0.18177   0.71586
   0.93820  -0.18177   0.71586
   0.93820  -0.18177   0.71586
   1.41704  -0.18177   0.71586
   1.41704   0.29707   0.71586
   1.41704  -0.18177   0.71586
   1.89588  -0.18177   0.71586
   1.89588  -0.18177   0.71586
   1.89588  -0.18177   0.71586
   1.89588  -0.18177   0.71586
   1.89588  -0.18177   0.71586
   1.89588  -0.18177   0.71586
   1.41704  -0.18177   1.19470
   1.89588  -0.18177   1.19470
   1.89588  -0.18177   1.19470
   1.89588  -0.18177   1.19470
   1.89588  -0.18177   1.67354
   1.89588  -0.18177   1.67354
   1.89588  -0.18177   1.67354
   1.89588   0.29707   1.67354
   2.37472   0.29707   1.67354
   2.37472   0.29707   1.67354
   2.37472   0.29707   1.67354
   2.37472   0.29707   1.67354
   2.37472   0.29707   1.67354
   2.37472   0.29707   1.67354
   1.89588   0.29707   1.67354
   1.89588   0.29707   1.67354
   1.89588   0.29707   1.19470
   1.89588  -0.18177   1.19470
   1.41704  -0.18177   1.19470
   1.41704  -0.18177   1.19470
   1.41704  -0.18177   1.19470
   0.93820  -0.18177   1.19470
   0.93820  -0.18177   1.19470
   0.93820  -0.18177   1.19470
   0.93820  -0.18177   1.19470
   0.93820  -0.18177   1.19470
   0.93820  -0.18177   1.19470
   0.45937  -0.18177   1.19470
   0.45937  -0.18177   0.71586
  -0.01947   0.29707   1.19470
  -0.01947   0.29707   1.19470
  -0.01947  -0.18177   0.71586
  -0.01947  -0.18177   0.71586
  -0.49831  -0.18177   0.71586
  -0.49831  -0.18177   0.71586
  -0.49831  -0.18177   0.71586
  -0.97715  -0.18177   0.71586
  -0.97715  -0.18177   0.71586
  -0.97715  -0.18177   0.23702
  -1.45599  -0.18177   0.71586
  -1.45599  -0.18177   0.23702
  -1.45599  -0.18177   0.23702
  -1.45599  -0.18177   0.23702
  -1.93482  -0.18177   0.23702
  -1.93482  -0.18177   0.23702
  -1.93482  -0.18177  -0.24181
  -1.93482  -0.18177  -0.24181
  -2.41366  -0.18177  -0.24181
  -2.41366  -0.18177  -0.24181
  -2.41366  -0.18177  -0.72065
  -2.41366  -0.18177  -0.72065
  -2.41366  -0.18177  -0.72065
  -2.41366  -0.18177  -0.72065
  -2.41366   0.29707  -0.72065
  -2.41366  -0.18177  -0.72065
  -2.41366   0.29707  -0.72065
  -2.41366   0.29707  -0.72065
  -2.41366   0.29707  -0.72065
  -1.93482   0.29707  -0.72065
  -1.93482   0.29707  -0.72065
  -1.93482   0.29707  -0.72065
  -1.93482   0.29707  -0.72065
  -1.93482   0.29707  -0.72065
  -1.93482   0.29707  -0.72065
  -1.45599   0.29707  -0.72065
  -1.45599  -0.18177  -0.72065
  -1.45599  -0.18177  -0.72065
  -1.45599  -0.18177  -0.72065
  -0.97715  -0.18177  -0.72065
  -0.97715  -0.18177  -0.72065
  -0.97715  -0.18177  -1.19949
  -0.49831  -0.18177  -1.19949
  -0.49831  -0.18177  -0.72065
  -0.49831  -0.18177  -1.67833
  -0.01947  -0.18177  -1.19949
  -0.01947  -0.18177  -1.19949
  -0.01947  -0.18177  -1.19949
  -0.01947   0.29707  -1.19949
  -0.01947   0.29707  -1.67833
  -0.01947   0.29707  -1.67833
   0.45937   0.29707  -1.67833
   0.45937   0.29707  -1.67833
   0.93820   0.29707  -1.67833
   0.93820   0.29707  -1.67833
   0.93820   0.29707  -1.67833
   0.93820   0.29707  -1.19949
   0.93820  -0.18177  -1.19949
   0.93820  -0.18177  -1.19949
   1.41704   0.29707  -1.19949
   1.41704   0.29707  -1.19949
   1.41704  -0.18177  -1.19949
   1.41704   0.29707  -1.19949
   1.41704   0.29707  -0.72065
   1.41704   0.29707  -1.19949
   1.41704   0.29707  -1.19949
   1.41704   0.29707  -1.19949
   1.41704   0.29707  -1.19949
   1.41704   0.29707  -0.72065
   1.41704  -0.18177  -0.72065
   1.41704  -0.18177  -0.72065
   1.41704  -0.18177  -0.72065
   1.41704  -0.18177  -0.72065
   1.41704  -0.18177  -0.72065
   1.41704  -0.18177  -0.72065
   1.41704  -0.18177  -0.24181
   1.41704  -0.18177  -0.24181
   1.41704  -0.18177  -0.24181
   1.41704  -0.18177  -0.24181
   0.93820  -0.18177   0.23702
   0.93820  -0.18177   0.23702
   0.93820  -0.18177   0.23702
   0.93820  -0.18177   0.71586
   0.93820  -0.18177   0.71586
   0.45937  -0.18177   0.71586
   0.45937  -0.18177   0.71586
   0.45937  -0.18177   0.71586
   0.45937  -0.18177   1.19470
  -0.01947  -0.18177   1.19470
  -0.01947  -0.18177   1.19470
  -0.01947  -0.18177   1.19470
  -0.01947  -0.18177   1.67354
  -0.01947  -0.18177   1.67354
  -0.01947  -0.18177   1.67354
  -0.01947  -0.18177   1.67354
  -0.49831  -0.18177   1.67354
  -0.49831  -0.18177   1.67354
  -0.49831  -0.18177   1.67354
  -0.49831  -0.18177   1.67354
  -0.49831  -0.18177   1.67354
  -0.97715  -0.18177   2.15237
  -0.97715  -0.18177   2.15237
  -0.97715  -0.18177   2.15237
  -0.97715  -0.18177   2.15237
  -0.97715  -0.18177   2.15237
  -1.45599  -0.18177   2.15237
  -1.45599  -0.18177   2.15237
  -1.45599  -0.18177   2.15237
  -1.45599  -0.18177   1.67354
  -1.45599  -0.18177   2.15237
  -1.45599  -0.18177   2.15237
  -1.45599  -0.18177   1.67354
  -1.45599  -0.18177   1.67354
  -1.45599  -0.18177   1.67354
  -1.45599  -0.18177   1.67354
  -1.45599   0.29707   1.19470
  -1.45599   0.29707   1.19470
  -1.45599   0.29707   1.19470
  -1.45599   0.29707   1.19470
  -1.45599   0.29707   1.19470
  -1.45599   0.29707   1.19470
  -1.45599   0.29707   0.71586
  -1.45599   0.29707   0.71586
  -1.45599   0.29707   0.71586
  -1.45599   0.29707   0.71586
  -1.45599   0.29707   0.23702
  -0.97715  -0.18177   0.23702
  -0.97715  -0.18177   0.23702
  -0.97715  -0.18177   0.23702
  -0.97715  -0.18177   0.23702
  -0.97715  -0.18177  -0.24181
  -0.97715  -0.18177  -0.24181
  -0.97715  -0.18177  -0.24181
  -0.49831   0.29707  -0.72065
  -0.49831   0.29707  -0.72065
  -0.49831   0.29707  -0.72065
  -0.49831   0.29707  -0.72065
  -0.01947   0.29707  -1.19949
  -0.01947   0.29707  -1.19949
  -0.01947   0.29707  -1.67833
  -0.01947   0.29707  -1.67833
  -0.01947   0.29707  -1.67833
  -0.01947   0.29707  -1.67833
  -0.01947   0.29707  -1.67833
  -0.01947   0.29707  -1.67833
  -0.01947   0.29707  -2.15717
  -0.01947   0.29707  -2.15717
  -0.01947   0.29707  -2.15717
  -0.01947   0.29707  -2.15717
  -0.01947   0.29707  -2.15717
  -0.01947   0.29707  -2.15717
  -0.01947   0.29707  -2.15717
   0.45937   0.29707  -2.15717
   0.45937   0.29707  -2.15717
   0.45937   0.29707  -2.15717
   0.45937   0.29707  -2.63600
   0.45937   0.29707  -2.15717
   0.45937   0.29707  -2.15717
   0.45937   0.29707  -2.15717
   0.45937   0.29707  -2.15717
   0.93820   0.29707  -2.15717
   0.45937   0.29707  -2.15717
   0.93820   0.29707  -2.15717
   0.93820   0.29707  -2.15717
   0.45937  -0.18177  -2.15717
   0.93820   0.29707  -2.15717
   0.93820   0.29707  -2.15717
   0.93820  -0.18177  -2.15717
   0.93820   0.29707  -2.15717
   0.93820   0.29707  -2.15717
   0.93820   0.29707  -2.15717
   0.93820   0.29707  -2.15717
   0.93820   0.29707  -1.67833
   0.93820   0.29707  -1.67833
   0.93820   0.29707  -1.19949
   0.93820   0.29707  -1.19949
   0.93820   0.29707  -0.72065
   0.93820   0.29707  -0.72065
   0.93820   0.29707  -0.72065
   0.93820  -0.18177  -0.72065
   0.93820  -0.18177  -0.24181
   0.93820  -0.18177  -0.24181
   0.93820  -0.18177   0.23702
   0.93820  -0.18177   0.23702
   0.93820  -0.18177   0.23702
   0.45937  -0.18177   0.71586
   0.93820  -0.18177   0.71586
   0.93820  -0.18177   0.71586
   0.93820  -0.18177   0.71586
   0.93820  -0.18177   1.19470
   0.93820  -0.18177   1.19470
   0.93820  -0.18177   1.67354
   0.93820  -0.18177   1.67354
   0.93820  -0.18177   1.67354
   0.93820  -0.18177   2.15237
   0.93820  -0.18177   2.15237
   0.93820  -0.18177   2.15237
   0.93820  -0.18177   2.63121
   0.93820  -0.18177   2.63121
   0.93820  -0.18177   2.63121
   0.93820  -0.18177   2.63121
   0.93820   0.29707   3.11005
   0.93820   0.29707   3.11005
   0.93820   0.29707   3.11005
   0.93820   0.29707   3.11005
   0.93820   0.29707   3.11005
   0.93820   0.29707   3.11005
   0.93820   0.29707   3.11005
   0.93820   0.29707   3.11005
   0.93820   0.29707   3.11005
   0.93820   0.29707   3.11005
   0.93820   0.29707   3.11005
   0.93820   0.29707   2.63121
   0.93820   0.29707   2.63121
   0.93820   0.29707   2.63121
   0.93820   0.29707   2.63121
   0.93820  -0.18177   2.63121
   0.93820  -0.18177   2.63121
   0.93820  -0.18177   2.63121
   0.45937  -0.18177   2.63121
   0.45937  -0.18177   2.63121
   0.45937  -0.18177   2.63121
   0.45937  -0.18177   2.63121
  -0.01947  -0.18177   2.63121
  -0.01947  -0.18177   2.15237
  -0.01947  -0.66061   2.15237
  -0.01947  -0.18177   1.67354
  -0.01947  -0.18177   1.67354
  -0.01947  -0.18177   1.19470
  -0.01947  -0.18177   1.19470
  -0.49831  -0.18177   0.71586
  -0.49831  -0.18177   0.71586
  -0.49831  -0.18177   0.23702
  -0.49831   0.29707   0.23702
  -0.49831   0.29707  -0.24181
  -0.49831   0.29707  -0.24181
  -0.49831   0.29707  -0.72065
  -0.49831  -0.18177  -0.72065
  -0.97715   0.29707  -0.72065
  -0.97715  -0.18177  -0.72065
  -0.97715  -0.18177  -0.72065
  -0.97715  -0.18177  -1.19949
  -0.97715  -0.18177  -1.19949
  -0.97715  -0.18177  -1.19949
  -0.97715  -0.18177  -1.19949
  -1.45599  -0.18177  -1.67833
  -1.45599  -0.18177  -1.67833
  -1.45599  -0.18177  -1.67833
  -1.45599  -0.66061  -2.15717
  -1.45599  -0.18177  -2.15717
  -1.45599  -0.18177  -2.15717
  -1.45599  -0.18177  -2.15717
  -1.45599  -0.18177  -2.15717
  -1.93482  -0.18177  -2.63600
  -1.45599  -0.18177  -2.63600
  -1.45599  -0.18177  -2.63600
  -1.45599  -0.18177  -2.63600
  -1.45599  -0.18177  -2.63600
  -1.93482  -0.66061  -2.63600
  -1.93482  -0.18177  -2.63600
  -1.93482  -0.18177  -2.63600
  -1.93482  -0.18177  -3.11484
  -1.93482  -0.18177  -3.11484
  -1.93482  -0.18177  -3.11484
  -1.93482  -0.18177  -3.11484
  -1.93482  -0.18177  -3.11484
  -1.93482  -0.18177  -2.63600
  -1.45599  -0.18177  -2.63600
  -1.45599  -0.18177  -2.63600
  -1.45599  -0.18177  -2.63600
  -1.45599  -0.18177  -2.15717
  -0.97715  -0.18177  -2.15717
  -0.97715  -0.18177  -1.67833
  -0.49831  -0.18177  -1.67833
  -0.49831  -0.18177  -1.67833
  -0.49831  -0.18177  -1.19949
  -0.49831  -0.18177  -1.19949
  -0.01947  -0.18177  -1.19949
  -0.01947   0.29707  -0.72065
  -0.01947   0.29707  -0.72065
   0.45937   0.29707  -0.72065
   0.45937   0.29707  -0.72065
   0.93820   0.29707  -0.24181
   0.93820   0.29707  -0.24181
   0.93820   0.29707   0.23702
   0.93820   0.29707   0.23702
   0.93820   0.29707   0.23702
   0.93820  -0.18177   0.71586
   0.93820  -0.18177   0.71586
   1.41704  -0.18177   1.19470
   1.41704  -0.18177   1.19470
   1.41704  -0.18177   1.19470
   1.41704  -0.18177   1.67354
   1.41704  -0.18177   1.67354
   1.41704  -0.18177   1.67354
   1.41704  -0.18177   2.15237
   1.41704  -0.18177   2.15237
   1.41704  -0.18177   2.15237
   1.41704  -0.18177   2.15237
   1.41704  -0.18177   2.15237
   1.89588  -0.18177   2.15237
   1.89588   0.29707   2.15237
   1.89588  -0.18177   2.63121
   1.89588   0.29707   2.63121
   1.89588   0.29707   2.15237
   1.89588   0.29707   2.63121
   1.89588   0.29707   2.15237
   1.89588   0.29707   2.15237
   1.89588   0.29707   2.15237
   1.89588   0.29707   2.15237
   1.89588   0.29707   2.15237
   1.89588   0.29707   2.15237
   1.41704   0.29707   2.15237
   1.41704   0.29707   2.15237
   1.41704   0.29707   2.15237
   1.41704   0.29707   1.67354
   1.41704  -0.18177   1.67354
   0.93820  -0.18177   1.19470
   0.93820  -0.18177   1.19470
   0.93820  -0.18177   1.19470
   0.93820  -0.18177   1.19470
   0.93820  -0.18177   0.71586
   0.93820  -0.18177   0.71586
   0.93820  -0.18177   0.71586
   0.93820  -0.18177   0.23702
   0.93820  -0.18177   0.23702
   0.93820   0.29707   0.23702
   0.45937   0.29707  -0.24181
   0.45937   0.29707  -0.24181
   0.45937  -0.18177  -0.24181
  -0.01947   0.29707  -0.72065
  -0.01947   0.29707  -0.72065
  -0.01947  -0.18177  -0.72065
  -0.49831  -0.18177  -0.72065
  -0.49831  -0.18177  -0.72065
  -0.49831  -0.18177  -1.19949
  -0.49831   0.29707  -1.19949
  -0.97715  -0.18177  -1.67833
  -0.97715   0.29707  -1.67833
  -0.97715   0.29707  -1.67833
  -0.97715   0.29707  -1.67833
  -0.97715   0.29707  -1.67833
  -0.97715   0.29707  -1.67833
  -0.97715   0.29707  -1.67833
  -1.45599   0.29707  -2.15717
  -1.45599   0.29707  -2.15717
  -1.45599   0.29707  -2.15717
  -1.45599   0.29707  -2.15717
  -1.45599   0.29707  -2.15717
  -1.45599   0.29707  -2.15717
  -1.45599   0.29707  -2.63600
  -1.45599   0.29707  -2.63600
