********************************************************************************
               CENTRO DE INSTRUMENTACION Y REGISTRO SISMICO  A.C.  
                       Coordinacion de Servicios Tecnicos
     Anaxagoras 814, Col. Narvarte, Benito Juarez, C.P. 03020 Mexico, D.F.
            Tels. 687 45 42/ 687 45  82             Fax. 669 25 12
********************************************************************************
ARCHIVO ESTANDAR DE ACELERACION:
VERSION DEL FORMATO                    : 2.0
NOMBRE DEL ARCHIVO                     : AO249804.201
FECHA Y HORA DE CREACION               : 19/ENERO/2000. 10:15 
REF. CATALOGO ACELEROGRAMAS, SMIS 1996 : REGISTRO No.     /PAG.


================================================================================
DATOS DE LA ESTACION:
NOMBRE DE LA ESTACION                  : ALBERCA OLIMPICA
CLAVE DE LA ESTACION                   : AO24
LOCALIZACION DE LA ESTACION            : Alberca Olimpica Rio Churubusco y
                                       : Division del Norte, Col Pedro Ma
                                       : Anaya, Benito Juarez
                                       :
                                       :
COORDENADAS DE LA ESTACION             : 19.358 LAT. N 
                                       : 99.154 LONG. W 
ALTITUD (msnm)                         : 2235
TIPO DE SUELO                          : TRANSICION
                                       : 
                                       : 
INSTITUCION RESPONSABLE                : CIRES
                                       :

================================================================================
DATOS DEL ACELEROGRAFO:
MODELO DEL ACELEROGRAFO                : RAD-851
NUMERO DE SERIE DEL ACELEROGRAFO       : 257
NUMERO DE CANALES                      : 3
ORIENTACION C1-C6 (rumbo;orientacion)  : /N00E/+V/N90W
ORIENTACION C7-C12 (rumbo;orientacion) :
VEL. DE MUESTREO, C1-C6 (muestras/s)   : /100/100/100
VEL. DE MUESTREO, C7-C12 (muestras/s)  :
ESC. COMPLETA DE SENSORES, C1-C6, (g)  : /0.5/0.5/0.5
ESC. COMPLETA DE SENSORES, C7-C12, (g) :
FREC. NAT. DE SENSORES, C1-C6, (Hz)    : /30/30/30
FREC. NAT. DE SENSORES, C7-C12, (Hz)   :
AMORTIGUAMIENTO DE SENSORES, C1-C6     : /0.700/0.700/0.700
AMORTIGUAMIENTO DE SENSORES, C7-C12    :
INTERVALO DE MUESTREO, C1-C6, (s)      : /0.01/0.01/0.01
INTERVALO DE MUESTREO, C7-C12, (s)     :
UMBRAL DE DISPARO, C1-C6, (Gal)        : /1.95/2.93/1.95
UMBRAL DE DISPARO, C7-C12, (Gal)       :
MEMORIA DE PREEVENTO (s)               : 8
TIEMPO DE POSEVENTO (s)                : 8


================================================================================
DATOS DEL SISMO:
FECHA DEL SISMO (GMT)                  : 20/ABR/98
HORA EPICENTRO (GMT)                   : 22:59:17.00
MAGNITUD(ES)                           : /Mb=5.4/Mc=5.0/Ma=5.5/Me=5.7
COORDENADAS DEL EPICENTRO              : 18.37 LAT. N
                                       : 101.21 LONG. W
PROFUNDIDAD FOCAL (km)                 : 66.0
FUENTE DE LOS DATOS EPICENTRALES       : SSN
                                       : INSTITUTO DE GEOFISICA, UNAM

================================================================================
DATOS DE ESTE REGISTRO:
HORA DE LA PRIMERA MUESTRA (GMT)       : 23:00:23.00
EXACTITUD DEL TIEMPO (s)               : 0.01
DURACION DEL REGISTRO (s), C1-C6       : /110.75/110.75/110.75
DURACION DEL REGISTRO (s), C7-C12      :
NUM. TOTAL DE MUESTRAS, C1-C6          : /11075/11075/11075
NUM. TOTAL DE MUESTRAS, C7-C12         :
ACEL. MAX. (Gal), C1-C6                : /4.78159/1.70775/2.78238
ACEL. MAX., C1-C6, EN LA MUESTRA       :
ACEL. MAX. (Gal), C7-C12               :
ACEL. MAX., C7-C12, EN LA MUESTRA      :
UNIDADES DE LOS DATOS                  : Gal (cm/s/s)
FACTOR DE DECIMACION                   : 1
FORMATO DATOS (FORTRAN,10 campos/dato) : 3F10.5


================================================================================
CALIDAD DEL ACELEROGRAMA:
REGISTRO DIGITAL COMPLETO CON TIEMPO ABSOLUTO CORRECTO.


================================================================================
COMENTARIOS:














================================================================================
DATOS DE ACELERACION:
---------+---------+---------+---------+---------+---------+---------+---------+
   CANAL-1   CANAL-2   CANAL-3   CANAL-4   CANAL-5   CANAL-6   CANAL-7   CANAL-8
      N00E        +V      N90W
---------+---------+---------+---------+---------+---------+---------+---------+
[...]
  -0.96446  -0.20760  -0.86703
  -1.20388  -0.20760  -0.86703
  -1.20388  -0.20760  -1.10645
  -1.68272  -0.20760  -1.34587
  -1.92214  -0.20760  -1.34587
  -2.16156  -0.44702  -1.10645
  -2.40098  -0.44702  -1.10645
  -2.40098  -0.20760  -1.10645
  -2.64040  -0.20760  -0.86703
  -2.64040  -0.20760  -1.10645
  -2.64040  -0.20760  -1.10645
  -2.87982  -0.20760  -1.34587
  -2.87982  -0.20760  -1.34587
  -3.11923   0.03182  -1.34587
  -2.87982   0.27124  -1.58529
  -2.87982   0.27124  -1.58529
  -2.87982   0.27124  -1.58529
  -2.64040   0.03182  -1.58529
  -2.40098   0.03182  -1.58529
  -2.40098  -0.20760  -1.58529
  -2.40098   0.03182  -1.34587
  -2.40098   0.03182  -1.34587
  -2.40098   0.27124  -0.86703
  -2.40098   0.27124  -0.86703
  -2.40098   0.03182  -0.86703
  -2.40098   0.03182  -0.86703
  -2.16156  -0.20760  -0.62761
  -2.16156   0.03182  -0.38819
  -2.16156   0.03182  -0.38819
  -1.92214   0.27124  -0.38819
  -1.68272   0.27124  -0.38819
  -1.44330   0.03182  -0.38819
  -1.20388   0.03182  -0.14877
  -0.96446   0.03182  -0.14877
  -0.96446   0.27124  -0.14877
  -0.72504   0.03182  -0.14877
  -0.48563   0.03182   0.09064
  -0.24621   0.03182   0.09064
  -0.00679  -0.20760   0.09064
  -0.00679  -0.44702   0.09064
   0.23263  -0.44702   0.09064
   0.47205  -0.44702   0.09064
   0.47205  -0.44702   0.09064
   0.71147  -0.20760   0.33006
   0.71147  -0.20760   0.33006
   0.95089  -0.20760   0.56948
   1.19031  -0.20760   0.56948
   1.19031  -0.68644   0.80890
   1.66914  -0.44702   0.80890
   1.90856  -0.44702   1.04832
   1.90856   0.03182   1.28774
   1.90856   0.27124   1.28774
   2.14798   0.27124   1.28774
   2.14798   0.27124   1.28774
   2.14798   0.51066   1.28774
   2.14798   0.51066   1.28774
   2.14798   0.75008   1.28774
   1.90856   0.51066   1.52716
   1.90856   0.27124   1.28774
   1.66914   0.27124   1.28774
   1.90856   0.03182   1.28774
   1.90856   0.03182   1.28774
   1.66914   0.03182   1.04832
   1.66914   0.03182   1.04832
   1.66914  -0.20760   0.80890
   1.66914  -0.20760   0.80890
   1.66914  -0.44702   0.80890
   1.66914  -0.20760   1.04832
   1.66914   0.03182   1.28774
   1.42973   0.27124   1.28774
   1.42973   0.27124   1.28774
   1.42973   0.27124   0.80890
   1.42973   0.27124   0.80890
   1.42973   0.27124   0.80890
   1.19031   0.51066   0.80890
   1.19031   0.75008   1.28774
   0.95089   1.22892   1.28774
   0.95089   1.22892   1.28774
   1.19031   1.22892   1.28774
   0.95089   0.75008   1.04832
   0.95089   0.51066   1.28774
   0.71147   0.27124   1.28774
   0.23263   0.51066   1.52716
   0.23263   0.75008   1.52716
   0.47205   0.98950   1.28774
   0.47205   0.98950   0.80890
   0.47205   0.51066   0.56948
  -0.00679   0.03182   0.33006
  -0.24621   0.03182   0.33006
  -0.24621  -0.20760   0.33006
  -0.48563   0.03182   0.33006
  -0.24621   0.03182   0.09064
  -0.48563   0.03182   0.09064
  -0.72504   0.03182  -0.38819
  -0.96446  -0.44702  -0.38819
  -1.20388  -0.44702  -0.62761
  -1.20388  -0.68644  -0.62761
  -1.20388  -0.68644  -0.38819
  -1.20388  -0.44702  -0.62761
  -1.44330  -0.68644  -0.62761
  -1.44330  -0.68644  -0.86703
  -1.92214  -0.68644  -0.86703
  -1.92214  -0.68644  -1.10645
  -2.16156  -0.68644  -1.10645
  -2.16156  -0.44702  -1.10645
  -2.16156  -0.20760  -0.86703
  -2.16156  -0.20760  -1.10645
  -1.92214   0.03182  -1.10645
  -2.16156   0.03182  -1.34587
  -1.92214   0.03182  -1.58529
  -1.92214   0.03182  -1.58529
  -1.92214   0.27124  -1.58529
  -1.92214   0.27124  -1.82471
  -1.68272   0.27124  -1.58529
  -1.68272   0.27124  -1.82471
  -1.68272   0.03182  -1.82471
  -1.68272   0.03182  -1.82471
  -1.92214   0.03182  -1.82471
  -1.92214  -0.20760  -1.58529
  -1.92214  -0.20760  -1.58529
  -1.68272  -0.44702  -1.34587
  -1.68272  -0.44702  -1.10645
  -1.68272  -0.68644  -0.86703
  -1.44330  -0.68644  -0.86703
  -1.44330  -0.44702  -0.62761
  -1.44330  -0.68644  -0.38819
  -1.20388  -0.44702  -0.14877
  -0.96446  -0.44702  -0.14877
  -0.96446  -0.44702  -0.14877
  -0.72504  -0.68644   0.09064
  -0.48563  -0.68644   0.09064
  -0.48563  -0.44702   0.09064
  -0.24621  -0.68644   0.09064
  -0.24621  -0.68644   0.33006
  -0.00679  -0.68644   0.56948
   0.23263  -0.68644   0.33006
   0.23263  -0.44702   0.56948
   0.47205  -0.44702   0.56948
   0.95089  -0.44702   0.33006
   0.95089  -0.44702   0.33006
   1.19031  -0.20760   0.56948
   1.42973  -0.20760   0.56948
   1.42973  -0.20760   0.33006
   1.66914   0.03182   0.56948
   1.90856   0.03182   0.56948
   1.90856   0.03182   0.56948
   2.14798   0.03182   0.56948
   2.38740   0.03182   0.33006
   2.38740  -0.20760   0.56948
   2.62682   0.03182   0.56948
   2.62682   0.27124   0.56948
   2.86624   0.51066   0.56948
   2.86624   0.51066   0.80890
   3.10566   0.51066   1.04832
   3.10566   0.51066   0.80890
   3.34508   0.51066   1.04832
   3.34508   0.51066   1.04832
   3.58450   0.51066   1.04832
   3.58450   0.51066   0.56948
   3.58450   0.51066   0.80890
   3.58450   0.51066   0.56948
   3.58450   0.51066   0.33006
   3.58450   0.51066   0.33006
   3.34508   0.27124   0.09064
   3.10566   0.03182   0.09064
   2.86624   0.27124   0.33006
   2.86624   0.27124   0.09064
   2.62682   0.03182   0.33006
   2.62682   0.03182   0.33006
   2.38740   0.03182   0.33006
   2.14798   0.27124   0.33006
   1.90856   0.27124   0.56948
   1.66914   0.51066   0.56948
   1.66914   0.27124   0.80890
   1.42973   0.27124   0.80890
   1.19031   0.51066   1.04832
   1.19031   0.27124   1.04832
   0.95089   0.51066   1.04832
   0.71147   0.51066   0.80890
   0.71147   0.51066   0.80890
   0.23263   0.51066   0.80890
  -0.00679   0.51066   0.80890
  -0.00679   0.51066   0.80890
  -0.24621   0.75008   0.80890
  -0.24621   0.51066   0.56948
  -0.48563   0.51066   0.33006
  -0.72504   0.27124   0.33006
  -0.96446   0.27124   0.09064
  -1.20388   0.03182   0.09064
  -1.44330   0.03182   0.09064
  -1.68272  -0.20760  -0.14877
  -1.68272  -0.20760  -0.14877
  -1.92214  -0.20760  -0.14877
  -1.92214  -0.20760  -0.14877
  -2.16156  -0.20760  -0.14877
  -2.40098  -0.20760  -0.14877
  -2.64040   0.03182   0.09064
  -2.87982   0.03182   0.09064
  -3.11923   0.03182   0.09064
  -3.35865   0.27124   0.09064
  -3.59807   0.03182   0.33006
  -3.59807   0.03182   0.33006
  -3.59807   0.27124   0.09064
  -3.59807   0.27124   0.09064
  -3.83749   0.27124  -0.14877
  -3.83749   0.27124  -0.14877
  -3.83749   0.03182  -0.14877
  -3.83749   0.03182  -0.38819
  -3.83749   0.03182  -0.38819
  -3.59807   0.03182  -0.38819
  -3.59807   0.03182  -0.38819
  -3.59807   0.03182  -0.62761
  -3.35865  -0.20760  -0.62761
  -3.35865  -0.20760  -0.38819
  -3.35865  -0.20760  -0.62761
  -3.35865  -0.44702  -0.62761
  -3.11923  -0.44702  -0.86703
  -3.11923  -0.68644  -0.86703
  -3.11923  -0.68644  -0.86703
  -3.11923  -0.92585  -0.62761
  -2.87982  -0.92585  -0.62761
  -2.87982  -0.92585  -0.62761
  -2.64040  -0.92585  -0.62761
  -2.40098  -0.68644  -0.38819
  -2.16156  -0.68644  -0.62761
  -1.92214  -0.68644  -0.62761
  -1.44330  -0.44702  -0.62761
  -1.20388  -0.44702  -0.62761
  -0.96446  -0.20760  -0.38819
  -0.72504   0.03182  -0.38819
  -0.24621   0.27124  -0.62761
  -0.24621   0.27124  -0.62761
   0.23263   0.27124  -0.86703
   0.71147   0.51066  -0.86703
   0.95089   0.51066  -0.86703
   1.42973   0.51066  -0.86703
   1.66914   0.51066  -0.86703
   1.90856   0.27124  -0.62761
   2.14798   0.51066  -0.62761
   2.38740   0.27124  -0.86703
   2.62682   0.27124  -0.86703
   3.10566   0.03182  -0.86703
   3.10566   0.03182  -0.86703
   3.10566   0.03182  -0.86703
   3.34508   0.03182  -0.62761
   3.34508   0.03182  -0.62761
   3.34508  -0.20760  -0.14877
   3.34508  -0.20760  -0.14877
   3.58450  -0.20760   0.09064
   3.58450  -0.20760   0.09064
   3.82392  -0.20760   0.33006
   3.82392  -0.20760   0.33006
   3.82392  -0.20760   0.33006
   3.82392  -0.20760   0.56948
   3.82392  -0.20760   0.56948
   4.06333  -0.20760   0.56948
   4.30275   0.03182   0.56948
   4.54217   0.03182   0.33006
   4.54217   0.03182   0.56948
   4.54217   0.03182   0.56948
   4.54217   0.27124   0.56948
   4.54217   0.27124   0.56948
   4.54217   0.27124   0.56948
   4.30275   0.27124   0.56948
   4.06333   0.27124   0.80890
   3.82392   0.03182   0.80890
   3.58450  -0.20760   0.80890
   3.34508  -0.20760   0.80890
   3.10566  -0.20760   0.80890
   2.62682  -0.44702   0.56948
   2.14798  -0.44702   0.33006
   1.90856  -0.44702   0.56948
   1.66914  -0.44702   0.33006
   1.19031  -0.20760   0.33006
   0.95089  -0.20760   0.33006
   0.71147   0.03182   0.33006
   0.47205  -0.20760   0.09064
   0.23263  -0.20760   0.09064
  -0.00679  -0.20760   0.33006
  -0.24621   0.27124   0.33006
  -0.48563   0.27124   0.56948
  -0.48563   0.27124   0.56948
  -0.72504   0.27124   0.56948
  -0.72504   0.27124   0.56948
  -0.96446   0.27124   0.56948
  -0.96446   0.51066   0.33006
  -1.44330   0.27124   0.33006
  -1.68272   0.27124   0.33006
  -1.92214   0.27124   0.33006
  -2.16156   0.27124   0.33006
  -2.40098   0.03182   0.33006
  -2.40098  -0.20760   0.09064
  -2.64040  -0.20760   0.09064
  -2.87982  -0.20760   0.09064
  -2.87982   0.03182   0.09064
  -3.11923   0.03182   0.09064
  -3.11923   0.03182   0.09064
  -3.11923   0.03182   0.09064
  -3.35865   0.03182  -0.14877
  -3.35865   0.03182  -0.38819
  -3.59807   0.03182  -0.38819
  -3.83749   0.03182  -0.62761
  -3.83749  -0.20760  -0.86703
  -4.07691  -0.20760  -1.10645
  -4.07691  -0.20760  -1.34587
  -4.07691   0.03182  -1.58529
  -4.31633   0.03182  -1.82471
  -4.31633  -0.20760  -1.82471
  -4.31633  -0.20760  -1.82471
  -4.31633  -0.20760  -2.06413
  -4.31633  -0.20760  -1.82471
  -4.07691  -0.20760  -1.82471
  -4.07691  -0.44702  -1.58529
  -4.07691  -0.44702  -1.58529
  -3.83749  -0.20760  -1.34587
  -3.59807  -0.20760  -1.34587
  -3.59807  -0.44702  -0.86703
  -3.35865  -0.44702  -0.86703
  -3.11923  -0.44702  -0.62761
  -2.87982  -0.20760  -0.38819
  -2.64040  -0.20760  -0.38819
  -2.40098   0.03182  -0.14877
  -2.16156   0.03182  -0.38819
  -1.68272   0.03182  -0.38819
  -1.44330   0.03182  -0.38819
  -1.20388   0.03182  -0.38819
  -0.72504   0.27124  -0.38819
  -0.48563   0.27124  -0.14877
  -0.24621   0.27124  -0.14877
  -0.00679   0.27124  -0.38819
   0.47205   0.27124  -0.14877
   0.71147   0.27124  -0.38819
   1.19031   0.27124  -0.14877
   1.42973   0.03182  -0.14877
   1.66914   0.03182   0.09064
   1.90856   0.03182   0.09064
   2.14798   0.03182   0.09064
   2.14798  -0.20760   0.33006
   2.38740  -0.20760   0.56948
   2.62682  -0.20760   0.56948
   2.86624  -0.20760   0.80890
   3.10566  -0.20760   0.80890
   3.34508  -0.20760   1.04832
   3.58450  -0.20760   1.04832
   3.82392   0.03182   1.28774
   4.06333   0.27124   1.28774
   4.30275   0.27124   1.52716
   4.30275   0.51066   1.52716
   4.54217   0.51066   1.28774
   4.78159   0.27124   1.52716
   4.78159   0.27124   1.52716
   4.78159   0.51066   1.52716
   4.78159   0.51066   1.52716
   4.54217   0.51066   1.28774
   4.30275   0.51066   1.28774
   4.30275   0.27124   1.28774
   4.06333   0.27124   1.04832
   3.82392   0.03182   1.04832
   3.58450  -0.20760   1.04832
   3.34508  -0.44702   1.04832
   3.10566  -0.44702   1.04832
   3.10566  -0.44702   1.04832
   2.86624  -0.44702   0.80890
   2.62682  -0.68644   0.80890
   2.62682  -0.68644   0.56948
   2.38740  -0.44702   0.56948
   2.38740  -0.44702   0.33006
   2.14798  -0.20760   0.09064
   1.66914  -0.44702  -0.14877
   1.66914  -0.20760  -0.14877
   1.42973   0.03182  -0.38819
   1.42973   0.03182  -0.62761
   1.19031   0.03182  -0.86703
   0.95089   0.03182  -0.86703
   0.71147   0.03182  -0.86703
   0.71147   0.03182  -0.86703
   0.47205   0.03182  -0.86703
   0.23263   0.03182  -0.86703
  -0.00679   0.03182  -0.86703
  -0.24621  -0.20760  -0.86703
  -0.48563   0.03182  -0.62761
  -0.72504   0.03182  -0.62761
  -0.96446  -0.20760  -0.62761
  -1.20388  -0.20760  -0.62761
  -1.44330  -0.44702  -0.62761
  -1.44330  -0.44702  -0.38819
  -1.68272  -0.44702  -0.38819
  -1.68272  -0.44702  -0.38819
  -1.68272  -0.44702  -0.38819
  -1.92214  -0.44702  -0.38819
  -2.16156  -0.44702  -0.38819
  -2.16156  -0.44702  -0.62761
  -2.40098  -0.20760  -0.38819
  -2.40098  -0.20760  -0.62761
  -2.64040  -0.20760  -0.62761
  -2.64040   0.03182  -0.62761
  -2.87982   0.03182  -0.38819
  -3.11923   0.03182  -0.62761
  -3.35865   0.27124  -0.14877
  -3.35865   0.51066  -0.14877
  -3.59807   0.51066  -0.14877
  -3.59807   0.75008  -0.38819
  -3.59807   0.51066  -0.14877
  -3.59807   0.51066   0.09064
  -3.59807   0.51066   0.09064
  -3.59807   0.51066   0.09064
  -3.59807   0.51066   0.09064
  -3.35865   0.27124   0.33006
  -3.35865   0.27124   0.33006
  -3.11923   0.03182   0.56948
  -3.11923  -0.20760   0.56948
  -3.11923  -0.20760   0.56948
  -2.87982   0.03182   0.56948
  -2.87982   0.03182   0.33006
  -2.64040   0.27124   0.09064
  -2.64040   0.27124   0.09064
  -2.64040   0.03182  -0.14877
  -2.64040   0.27124  -0.14877
  -2.40098   0.27124  -0.14877
  -2.40098   0.27124  -0.38819
  -2.16156   0.27124  -0.38819
  -1.68272   0.27124  -0.62761
  -1.44330   0.27124  -0.62761
  -1.20388   0.03182  -0.62761
  -0.96446   0.03182  -0.62761
  -0.96446  -0.20760  -0.38819
  -0.72504  -0.20760  -0.38819
  -0.48563  -0.20760  -0.14877
  -0.24621  -0.20760   0.09064
  -0.24621  -0.20760  -0.14877
  -0.24621  -0.20760   0.09064
  -0.00679   0.03182  -0.14877
  -0.00679   0.03182  -0.14877
  -0.00679   0.27124   0.09064
   0.23263   0.27124   0.09064
   0.47205   0.51066   0.33006
   0.95089   0.51066   0.09064
   0.95089   0.75008   0.09064
   1.19031   0.51066   0.09064
   1.42973   0.27124   0.33006
   1.66914   0.27124   0.33006
   1.90856   0.03182   0.33006
   2.14798   0.27124   0.56948
   2.38740   0.03182   0.56948
   2.62682   0.03182   0.56948
   2.62682   0.03182   0.56948
   2.62682  -0.20760   0.80890
   2.86624   0.03182   0.80890
   3.10566   0.27124   0.80890
   3.10566   0.27124   0.80890
   3.10566   0.27124   0.80890
   3.34508   0.27124   0.56948
   3.34508   0.03182   0.56948
   3.34508   0.27124   0.33006
   3.34508   0.27124   0.56948
   3.34508   0.27124   0.33006
   3.34508   0.27124   0.09064
   3.10566   0.27124   0.09064
   3.10566   0.03182  -0.14877
   3.10566   0.03182   0.09064
   2.86624  -0.20760   0.09064
   2.86624  -0.20760   0.33006
   2.62682  -0.20760   0.09064
   2.62682  -0.20760   0.33006
   2.38740  -0.20760   0.33006
   2.38740  -0.44702   0.09064
   2.14798  -0.44702   0.09064
   1.66914  -0.44702   0.09064
   1.66914  -0.44702   0.09064
   1.42973  -0.44702   0.33006
   1.42973  -0.44702   0.33006
   1.19031  -0.20760   0.33006
   0.95089  -0.20760   0.33006
   0.71147  -0.44702   0.33006
   0.47205  -0.20760   0.33006
   0.23263  -0.20760   0.33006
  -0.00679  -0.20760   0.33006
  -0.24621  -0.20760   0.33006
  -0.48563  -0.20760   0.33006
  -0.72504  -0.20760   0.09064
  -0.96446  -0.44702   0.09064
  -0.96446  -0.44702   0.09064
  -1.20388  -0.44702   0.09064
  -1.44330  -0.44702   0.09064
  -1.44330  -0.44702   0.09064
  -1.44330  -0.44702   0.09064
  -1.68272  -0.44702   0.09064
  -1.68272  -0.44702   0.09064
  -1.92214  -0.44702   0.33006
  -2.16156  -0.44702   0.33006
  -2.40098  -0.44702   0.33006
  -2.16156  -0.20760   0.09064
  -2.16156  -0.20760   0.09064
  -2.16156  -0.44702   0.09064
  -2.16156  -0.20760   0.09064
  -2.40098  -0.20760   0.09064
  -2.40098  -0.20760  -0.14877
  -2.40098   0.03182  -0.38819
  -2.16156   0.03182  -0.38819
