********************************************************************************
              CENTRO DE INSTRUMENTACION Y REGISTRO SISMICO  A.C.

    Anaxagoras 814, Col. Narvarte, Benito Juarez, C.P. 03020 Mexico, D.F.
           Tels. 5687 45 42/ 5687 45  82             Fax. 5669 25 12
********************************************************************************
ARCHIVO ESTANDAR DE ACELERACION:
VERSION DEL FORMATO                    : 2.0
NOMBRE DEL ARCHIVO                     : AO2420180521021519
FECHA Y HORA DE CREACION               : 21/JUN/18, 12:52
REF. CATALOGO ACELEROGRAMAS, SMIS 1996 : REGISTRO No.     /PAG.


================================================================================
DATOS DE LA ESTACION:
NOMBRE DE LA ESTACION                  : ALBERCA OLÍMPICA
CLAVE DE LA ESTACION                   : AO24
LOCALIZACION DE LA ESTACION            : Del. Benito Juárez, Col. General Pedro 
                                       : María Anaya, Río Churubusco            
                                       : y División del Norte.                  
                                       :                                        
                                       : 
COORDENADAS DE LA ESTACION             : 19.3580 LAT. N
                                       : 99.1539 LONG. W
ALTITUD (msnm)                         : 2235
TIPO DE SUELO                          : Transición                          
                                       :                           
                                       : 
INSTITUCION RESPONSABLE                : CIRES
                                       : 

================================================================================
DATOS DEL ACELEROGRAFO:
MODELO DEL ACELEROGRAFO                : RADESD
NUMERO DE SERIE DEL ACELEROGRAFO       : 257
NUMERO DE CANALES                      : 3
ORIENTACION C1-C6 (rumbo;orientacion)  : /N00E/+V/N90W
ORIENTACION C7-C12 (rumbo;orientacion) : 
VEL. DE MUESTREO, C1-C6 (muestras/s)   : /100/100/100
VEL. DE MUESTREO, C7-C12 (muestras/s)  : 
ESC. COMPLETA DE SENSORES, C1-C6, (g)  : /0.5/0.5/0.5
ESC. COMPLETA DE SENSORES, C7-C12, (g) : 
FREC. NAT. DE SENSORES, C1-C6, (Hz)    : /30/30/30
FREC. NAT. DE SENSORES, C7-C12, (Hz)   : 
AMORTIGUAMIENTO DE SENSORES, C1-C6     : /0.700/0.700/0.700
AMORTIGUAMIENTO DE SENSORES, C7-C12    : 
INTERVALO DE MUESTREO, C1-C6, (s)      : /0.01/0.01/0.01
INTERVALO DE MUESTREO, C7-C12, (s)     : 
UMBRAL DE DISPARO, C1-C6, (Gal)        : /1.05/2.69/1.05
UMBRAL DE DISPARO, C7-C12, (Gal)       : 
MEMORIA DE PREEVENTO (s)               : 44.0
TIEMPO DE POSEVENTO (s)                : 539.0


================================================================================
DATOS DEL SISMO:
FECHA DEL SISMO (GMT)                  : 21/MAY/18
HORA EPICENTRO (GMT)                   : 02:15:19.0
MAGNITUD(ES)                           : /Mc=5.1
COORDENADAS DEL EPICENTRO              : 17.08 LAT. N
                                       : 98.68 LONG. W
PROFUNDIDAD FOCAL (km)                 : 45
FUENTE DE LOS DATOS EPICENTRALES       : SSN
                                       : INSTITUTO DE GEOFISICA, UNAM

================================================================================
DATOS DE ESTE REGISTRO:
HORA DE LA PRIMERA MUESTRA (GMT)       : 02:15:45.00
EXACTITUD DEL TIEMPO (s)               : 0.01
DURACION DEL REGISTRO (s), C1-C6       : /124.0/124.0/124.0
DURACION DEL REGISTRO (s), C7-C12      : 
NUM. TOTAL DE MUESTRAS, C1-C6          : /12400/12400/12400
NUM. TOTAL DE MUESTRAS, C7-C12         : 
ACEL. MAX. (Gal), C1-C6                : /1.42154/0.71143/1.31804
ACEL. MAX., C1-C6, EN LA MUESTRA       : /4382/5084/4439
ACEL. MAX. (Gal), C7-C12               : 
ACEL. MAX., C7-C12, EN LA MUESTRA      : 
UNIDADES DE LOS DATOS                  : Gal (cm/s/s)
FACTOR DE DECIMACION                   : 1
FORMATO DATOS (FORTRAN,10 campos/dato) : 3F10.5


================================================================================
CALIDAD DEL ACELEROGRAMA:
REGISTRO DIGITAL COMPLETO CON TIEMPO ABSOLUTO CORRECTO.


================================================================================
COMENTARIOS:
El dato de la linea 68, referente a la hora corresponde al reloj interno
por lo que dicha hora puede ser suceptible a una deriva de tiempo












================================================================================
DATOS DE ACELERACION:
---------+---------+---------+---------+---------+---------+---------+---------+
   CANAL-1   CANAL-2   CANAL-3   CANAL-4   CANAL-5   CANAL-6   CANAL-7   CANAL-8
      N00E        +V      N90W
---------+---------+---------+---------+---------+---------+---------+---------+
[...]
   0.11970  -0.09791   0.31547
   0.10473  -0.06798   0.33043
   0.13466   0.03676   0.22569
   0.22444   0.11158   0.25562
   0.34415   0.08165   0.27058
   0.32919   0.05173   0.33043
   0.40401   0.21633   0.22569
   0.55365   0.18640   0.24065
   0.47883   0.08165   0.01620
   0.43394   0.18640  -0.02870
   0.40401   0.08165   0.01620
   0.41897   0.02180  -0.25315
   0.28430  -0.03806  -0.38783
   0.11970  -0.18769  -0.40279
   0.14962  -0.05302  -0.22322
  -0.02994  -0.24755  -0.52250
  -0.07483  -0.23259  -0.41775
  -0.10476  -0.20266  -0.43272
  -0.20951  -0.38222  -0.31301
  -0.20951  -0.12784  -0.25315
  -0.13469  -0.12784  -0.31301
  -0.11972  -0.18769  -0.17833
  -0.04490   0.12655  -0.08855
  -0.02994   0.00684  -0.05862
   0.13466   0.06669  -0.02870
   0.13466   0.14151  -0.01373
   0.19452   0.03676  -0.10351
   0.28430   0.06669  -0.10351
   0.28430  -0.02309  -0.05862
   0.41897   0.14151  -0.11848
   0.31423   0.06669  -0.11848
   0.17955  -0.05302  -0.23819
   0.28430   0.09662  -0.26812
   0.17955   0.09662  -0.37286
   0.11970   0.20136  -0.43272
   0.07481   0.23129  -0.46264
  -0.04490   0.18640  -0.35790
  -0.04490   0.30611  -0.40279
  -0.17958   0.32107  -0.44768
  -0.25440   0.20136  -0.46264
  -0.25440   0.05173  -0.26812
  -0.29929   0.05173  -0.29804
  -0.31425   0.03676  -0.17833
  -0.17958   0.08165  -0.22322
  -0.17958   0.12655  -0.10351
  -0.11972   0.02180  -0.07359
  -0.01498   0.03676   0.01620
  -1.0E-50   0.03676  -0.08855
  -0.04490   0.03676  -0.11848
   0.02991  -0.05302  -0.02870
   0.07481   0.20136  -0.02870
  -0.02994   0.08165  -0.11848
   0.05984   0.02180  -0.22322
  -0.04490   0.03676  -0.28308
  -0.08980  -0.14280  -0.37286
  -0.02994   0.02180  -0.43272
  -0.08980  -0.06798  -0.28308
   0.01495  -0.03806  -0.25315
  -0.04490  -0.00813  -0.31301
  -0.19454  -0.05302  -0.25315
  -0.20951  -0.03806  -0.20826
  -0.29929  -0.17273  -0.11848
  -0.40403  -0.12784  -0.02870
  -0.44893  -0.11288  -0.08855
  -0.38907  -0.03806   0.07605
  -0.61353  -0.06798   0.03116
  -0.52374  -0.08295   0.12094
  -0.46389  -0.06798   0.13591
  -0.49382  -0.02309   0.12094
  -0.32922  -0.05302   0.10598
  -0.28432  -0.14280   0.07605
  -0.14965  -0.26251   0.12094
   0.10473  -0.11288   0.09101
   0.17955  -0.08295  -0.01373
   0.28430  -0.18769   0.00123
   0.47883  -0.17273   0.01620
   0.44890   0.00684  -0.11848
   0.56861  -0.12784  -0.05862
   0.46386  -0.17273  -0.23819
   0.38904  -0.03806  -0.23819
   0.41897  -0.09791  -0.11848
   0.43394  -0.05302  -0.16337
   0.41897   0.02180   0.00123
   0.11970  -0.05302   0.09101
   0.19452  -0.05302   0.19576
   0.01495   0.11158   0.28554
  -0.08980   0.15647   0.30051
  -0.05987   0.15647   0.55489
  -0.19454   0.23129   0.42022
  -0.14965   0.41086   0.40525
  -0.13469   0.35100   0.46511
  -0.08980   0.23129   0.33043
  -0.07483   0.23129   0.39029
  -0.04490   0.11158   0.40525
  -0.05987   0.12655   0.31547
  -0.14965   0.35100   0.25562
  -0.13469   0.12655   0.13591
  -0.05987   0.21633   0.19576
  -0.08980   0.20136  -0.01373
   0.20948   0.27618   0.06109
  -0.01498   0.30611   0.07605
  -1.0E-50   0.29115  -0.05862
   0.07481   0.24626  -0.02870
   0.04488   0.30611  -0.14841
   0.10473   0.20136  -0.04366
   0.08977   0.21633  -0.01373
   0.10473   0.18640   0.00123
   0.16459   0.29115   0.03116
   0.25437   0.08165  -0.02870
   0.26933  -0.05302  -0.08855
   0.16459  -0.08295  -0.05862
   0.23941  -0.17273  -0.07359
   0.37408  -0.14280  -0.05862
   0.10473  -0.20266  -0.14841
   0.23941  -0.15777  -0.19330
   0.16459  -0.30740  -0.11848
   0.13466  -0.20266  -0.20826
   0.04488  -0.23259  -0.29804
  -0.01498  -0.14280  -0.22322
  -1.0E-50  -0.17273  -0.31301
  -0.13469  -0.20266  -0.34293
  -0.16461  -0.24755  -0.34293
  -0.20951  -0.23259  -0.34293
  -0.16461  -0.24755  -0.35790
  -0.23943  -0.27748  -0.40279
  -0.14965  -0.27748  -0.19330
  -0.31425  -0.23259  -0.22322
  -0.14965  -0.38222  -0.19330
  -0.20951  -0.29244  -0.05862
  -0.23943  -0.09791   0.04612
  -0.19454  -0.21762   0.01620
  -0.16461  -0.09791   0.03116
  -0.17958  -0.08295   0.09101
  -0.14965  -0.08295   0.00123
  -0.19454   0.14151  -0.04366
  -0.17958   0.02180  -0.07359
  -0.13469   0.12655  -0.16337
  -0.25440   0.14151  -0.17833
  -0.34418   0.12655  -0.25315
  -0.32922   0.21633  -0.23819
  -0.41900   0.24626  -0.35790
  -0.47885   0.30611  -0.46264
  -0.41900   0.27618  -0.31301
  -0.46389   0.30611  -0.28308
  -0.35914   0.20136  -0.13344
  -0.34418   0.18640  -0.23819
  -0.22447   0.09662  -0.14841
  -0.19454   0.03676  -0.04366
  -0.22447   0.08165  -0.04366
  -0.22447   0.02180  -0.10351
  -0.19454  -0.00813   0.01620
  -0.04490  -0.03806  -0.01373
  -0.02994  -0.05302   0.01620
  -0.02994  -0.05302  -0.02870
   0.08977   0.00684   0.04612
   0.01495  -0.09791   0.10598
   0.01495   0.11158   0.10598
   0.08977   0.08165   0.27058
  -0.02994   0.08165   0.21072
   0.11970  -0.02309   0.19576
   0.05984   0.05173   0.18080
  -1.0E-50  -0.00813   0.24065
   0.02991  -0.08295   0.15087
  -0.02994  -0.06798   0.27058
   0.04488  -0.09791   0.18080
  -0.01498  -0.20266   0.21072
   0.04488  -0.17273   0.19576
   0.04488  -0.18769   0.19576
   0.07481  -0.00813   0.25562
   0.04488  -0.02309   0.30051
   0.28430  -0.06798   0.40525
   0.34415  -0.05302   0.36036
   0.31423  -0.09791   0.45014
   0.47883   0.05173   0.55489
   0.50875  -0.06798   0.59978
   0.59854  -0.00813   0.73446
   0.55365  -0.05302   0.77935
   0.52372   0.08165   0.73446
   0.44890   0.05173   0.68957
   0.40401   0.09662   0.77935
   0.26933   0.03676   0.64467
   0.13466   0.08165   0.64467
   0.13466   0.15647   0.51000
   0.01495   0.18640   0.42022
  -0.17958   0.20136   0.34540
  -0.23943   0.15647   0.30051
  -0.31425   0.18640   0.15087
  -0.35914   0.21633   0.22569
  -0.31425   0.06669   0.22569
  -0.23943   0.00684   0.24065
  -0.19454   0.06669   0.22569
  -0.04490  -0.20266   0.16583
   0.04488  -0.24755   0.21072
   0.17955  -0.29244   0.25562
   0.25437  -0.32237   0.16583
   0.34415  -0.20266   0.22569
   0.44890  -0.20266   0.18080
   0.31423  -0.41215   0.16583
   0.25437  -0.27748   0.10598
   0.19452  -0.38222   0.18080
   0.26933  -0.18769   0.21072
   0.20948  -0.20266   0.13591
   0.20948   0.08165   0.06109
   0.11970   0.02180   0.06109
   0.11970   0.33604  -0.05862
   0.23941   0.33604  -0.19330
   0.13466   0.53057  -0.26812
   0.10473   0.39589  -0.47761
   0.22444   0.57546  -0.53746
   0.07481   0.60539  -0.70206
   0.23941   0.66524  -0.80681
   0.01495   0.35100  -0.94148
   0.02991   0.32107  -1.04623
  -1.0E-50   0.27618  -1.10609
  -0.07483   0.08165  -1.09112
  -0.05987   0.09662  -1.09112
  -0.13469  -0.08295  -1.09112
  -0.23943  -0.00813  -1.04623
  -0.32922  -0.35230  -1.07616
  -0.37411  -0.35230  -0.98638
  -0.49382  -0.42711  -1.00134
  -0.43396  -0.36726  -0.95645
  -0.41900  -0.35230  -0.89659
  -0.44893  -0.26251  -0.88163
  -0.41900  -0.36726  -0.89659
  -0.46389  -0.27748  -0.94148
  -0.38907  -0.26251  -0.88163
  -0.38907  -0.24755  -0.91156
  -0.23943  -0.09791  -0.92652
  -0.13469  -0.02309  -0.80681
  -0.10476  -0.02309  -0.79185
   0.04488   0.08165  -0.85170
   0.07481   0.08165  -0.77688
   0.14962   0.14151  -0.74696
   0.29926   0.12655  -0.77688
   0.47883   0.30611  -0.67214
   0.56861   0.24626  -0.73199
   0.67336   0.09662  -0.70206
   0.71825   0.06669  -0.65717
   0.83796   0.33604  -0.61228
   0.74817   0.00684  -0.53746
   0.83796  -0.00813  -0.46264
   0.67336  -0.15777  -0.34293
   0.58357  -0.18769  -0.25315
   0.46386  -0.14280  -0.26812
   0.53868  -0.05302  -0.10351
   0.26933  -0.30740   0.00123
   0.23941  -0.23259   0.03116
   0.28430  -0.08295   0.30051
   0.13466  -0.30740   0.34540
   0.16459  -0.09791   0.52496
   0.25437  -0.06798   0.49504
   0.25437  -0.08295   0.65964
   0.34415  -0.14280   0.53993
   0.38904  -0.05302   0.53993
   0.59854  -0.02309   0.59978
   0.62846  -0.08295   0.48007
   0.52372  -0.00813   0.42022
   0.56861   0.12655   0.49504
   0.55365  -0.05302   0.36036
   0.49379  -0.02309   0.39029
   0.49379   0.00684   0.27058
   0.47883   0.14151   0.25562
   0.37408   0.08165   0.24065
   0.25437   0.15647   0.34540
   0.29926   0.11158   0.48007
   0.14962   0.18640   0.52496
   0.19452   0.11158   0.64467
   0.19452   0.15647   0.65964
   0.14962   0.38093   0.80928
   0.11970   0.17144   0.85417
   0.07481   0.15647   1.00380
   0.10473   0.29115   1.06366
   0.10473   0.17144   1.04870
  -0.08980   0.03676   1.00380
  -0.10476  -0.06798   0.92899
  -0.17958   0.00684   0.88409
  -0.20951  -0.05302   0.86913
  -0.31425  -0.09791   0.65964
  -0.41900  -0.18769   0.67460
  -0.50878  -0.20266   0.56985
  -0.52374  -0.18769   0.48007
  -0.62849  -0.14280   0.45014
  -0.76317  -0.24755   0.39029
  -0.79309  -0.03806   0.31547
  -0.74820  -0.05302   0.31547
  -0.86791  -0.11288   0.40525
  -0.95769  -0.00813   0.36036
  -1.00259  -0.05302   0.36036
  -0.94273   0.02180   0.36036
  -1.00259   0.03676   0.53993
  -1.04748   0.17144   0.45014
  -0.94273   0.09662   0.70453
  -0.91280   0.03676   0.67460
  -0.88288   0.09662   0.71949
  -0.94273   0.00684   0.64467
  -0.82302   0.08165   0.76438
  -0.88288   0.17144   0.56985
  -0.88288   0.21633   0.62971
  -0.91280   0.12655   0.51000
  -0.97266   0.20136   0.42022
  -0.95769   0.17144   0.27058
  -0.94273   0.23129   0.10598
  -0.94273   0.20136  -0.07359
  -0.98762   0.27618  -0.19330
  -1.07740   0.21633  -0.40279
  -1.04748   0.06669  -0.40279
  -1.09237  -0.03806  -0.55243
  -1.03251   0.02180  -0.67214
  -1.00259  -0.18769  -0.52250
  -0.82302  -0.20266  -0.62725
  -0.77813  -0.17273  -0.53746
  -0.65842  -0.27748  -0.52250
  -0.47885  -0.32237  -0.17833
  -0.26936  -0.30740  -0.10351
  -0.23943  -0.23259   0.00123
  -0.02994  -0.32237   0.04612
   0.04488  -0.26251   0.21072
   0.16459  -0.29244   0.18080
   0.32919  -0.18769   0.25562
   0.31423  -0.21762   0.28554
   0.37408  -0.18769   0.21072
   0.41897  -0.08295   0.15087
   0.38904  -0.11288   0.03116
   0.46386   0.08165   0.03116
   0.40401   0.11158  -0.13344
   0.32919   0.23129  -0.28308
   0.31423   0.20136  -0.37286
   0.22444   0.32107  -0.52250
   0.29926   0.44078  -0.70206
   0.34415   0.53057  -0.73199
   0.23941   0.47071  -0.94148
   0.32919   0.47071  -1.03127
   0.23941   0.56049  -1.01630
   0.31423   0.33604  -1.06119
   0.47883   0.42582  -0.97141
   0.49379   0.39589  -0.94148
   0.61350   0.39589  -0.82177
   0.64343   0.20136  -0.85170
   0.79307   0.14151  -0.70206
   0.94270   0.09662  -0.56739
   1.07738   0.08165  -0.47761
   1.16716   0.12655  -0.46264
   1.34673   0.05173  -0.31301
   1.42154   0.14151  -0.28308
   1.39162  -0.05302  -0.26812
   1.37665   0.03676  -0.43272
   1.39162  -0.03806  -0.44768
   1.34673  -0.02309  -0.50754
   1.18212  -0.11288  -0.53746
   1.24198   0.00684  -0.70206
   1.09234  -0.06798  -0.80681
   1.24198   0.05173  -0.80681
   1.06241   0.12655  -0.82177
   0.95767  -0.05302  -0.89659
   0.97263   0.05173  -0.86667
   0.80803  -0.00813  -0.98638
   0.79307   0.11158  -0.91156
   0.80803  -0.02309  -1.04623
   0.80803  -0.11288  -0.83674
   0.77810  -0.17273  -0.88163
   0.76314  -0.15777  -0.86667
   0.71825  -0.21762  -0.83674
   0.56861  -0.32237  -0.52250
   0.46386  -0.26251  -0.58235
   0.40401  -0.02309  -0.55243
   0.26933  -0.18769  -0.46264
  -0.02994  -0.02309  -0.31301
  -0.13469  -0.02309  -0.20826
  -0.31425  -0.09791  -0.10351
  -0.43396   0.09662   0.03116
  -0.49382   0.03676   0.07605
  -0.64345   0.21633   0.16583
  -0.65842   0.08165   0.13591
  -0.67338   0.09662   0.18080
  -0.67338   0.15647   0.21072
  -0.67338   0.03676   0.36036
  -0.70331   0.00684   0.49504
  -0.53871   0.17144   0.36036
  -0.53871   0.20136   0.43518
  -0.32922  -0.15777   0.48007
  -0.38907  -0.24755   0.55489
  -0.38907  -0.39719   0.55489
  -0.43396  -0.33733   0.53993
  -0.41900  -0.51690   0.61475
  -0.55367  -0.42711   0.53993
  -0.61353  -0.51690   0.59978
  -0.70331  -0.60668   0.56985
  -0.68835  -0.63661   0.65964
  -0.80806  -0.27748   0.61475
  -0.76317  -0.41215   0.70453
  -0.79309  -0.39719   0.82424
  -0.91280  -0.11288   0.77935
  -0.91280  -0.12784   0.86913
  -0.89784   0.11158   0.85417
  -0.95769   0.09662   0.88409
  -0.85295   0.23129   1.01877
  -0.79309   0.29115   1.03373
  -0.85295   0.33604   1.12351
  -0.70331   0.45575   1.18337
  -0.74820   0.38093   1.18337
  -0.62849   0.42582   1.31804
  -0.64345   0.48568   1.24322
  -0.65842   0.30611   1.16841
  -0.35914   0.38093   1.19833
  -0.34418   0.30611   1.09359
  -0.40403   0.30611   1.06366
  -0.32922   0.09662   0.95891
  -0.20951   0.20136   0.80928
  -0.16461   0.12655   0.68957
  -0.10476   0.08165   0.56985
  -0.13469   0.17144   0.52496
  -0.01498   0.03676   0.28554
   0.01495   0.09662   0.31547
   0.13466   0.20136   0.24065
   0.16459   0.23129   0.28554
   0.14962   0.05173   0.28554
   0.20948   0.18640   0.25562
   0.28430   0.14151   0.25562
   0.29926   0.18640   0.31547
   0.34415   0.29115   0.34540
   0.41897   0.18640   0.37533
   0.44890   0.05173   0.34540
   0.34415  -0.03806   0.31547
   0.34415  -0.15777   0.25562
   0.38904  -0.14280   0.21072
   0.43394  -0.32237   0.03116
   0.34415  -0.30740  -0.02870
   0.41897  -0.35230  -0.14841
   0.43394  -0.38222  -0.26812
   0.44890  -0.38222  -0.31301
   0.50875  -0.35230  -0.38783
   0.43394  -0.29244  -0.58235
   0.34415  -0.30740  -0.53746
   0.31423  -0.33733  -0.64221
   0.34415  -0.17273  -0.68710
   0.31423  -0.21762  -0.79185
   0.25437  -0.14280  -0.73199
   0.10473  -0.11288  -0.85170
   0.16459  -0.03806  -0.80681
   0.11970  -0.03806  -0.83674
   0.08977   0.12655  -0.92652
   0.01495   0.15647  -0.95645
   0.16459   0.26122  -0.95645
   0.01495   0.33604  -0.95645
  -0.04490   0.23129  -1.13601
   0.04488   0.50064  -1.19587
   0.10473   0.21633  -1.04623
  -0.05987   0.17144  -1.16594
   0.08977   0.17144  -1.12105
   0.10473  -0.00813  -0.98638
   0.22444  -0.15777  -0.76192
   0.20948  -0.21762  -0.67214
   0.23941  -0.35230  -0.47761
   0.22444  -0.44208  -0.41775
   0.19452  -0.54682  -0.31301
   0.08977  -0.59172  -0.25315
   0.17955  -0.47201  -0.02870
   0.13466  -0.48697  -0.05862
   0.16459  -0.38222   0.04612
   0.14962  -0.18769   0.03116
   0.14962  -0.21762   0.00123
   0.13466  -0.11288   0.01620
   0.16459   0.05173   0.04612
   0.04488   0.03676   0.09101
   0.10473   0.17144  -0.02870
   0.07481   0.35100  -0.07359
   0.05984   0.41086  -0.10351
  -1.0E-50   0.41086  -0.08855
   0.01495   0.63531  -0.07359
   0.07481   0.42582  -0.11848
  -1.0E-50   0.54553  -0.20826
   0.08977   0.33604  -0.22322
   0.01495   0.29115  -0.16337
   0.04488   0.23129  -0.17833
   0.17955   0.30611  -0.19330
   0.08977   0.08165  -0.19330
   0.14962   0.14151  -0.08855
   0.10473  -0.08295  -0.04366
   0.13466  -0.14280   0.06109
   0.08977  -0.17273   0.00123
   0.25437  -0.12784   0.21072
   0.20948   0.00684   0.12094
   0.25437  -0.26251   0.25562
   0.28430  -0.11288   0.31547
   0.29926  -0.09791   0.33043
   0.34415  -0.15777   0.34540
   0.43394   0.05173   0.43518
   0.40401   0.02180   0.39029
   0.38904   0.06669   0.40525
   0.44890   0.20136   0.34540
   0.46386   0.15647   0.31547
