********************************************************************************
              CENTRO DE INSTRUMENTACION Y REGISTRO SISMICO  A.C.

    Anaxagoras 814, Col. Narvarte, Benito Juarez, C.P. 03020 Mexico, D.F.
           Tels. 5687 45 42/ 5687 45  82             Fax. 5669 25 12
********************************************************************************
ARCHIVO ESTANDAR DE ACELERACION:
VERSION DEL FORMATO                    : 2.0
NOMBRE DEL ARCHIVO                     : AO2420180216233938
FECHA Y HORA DE CREACION               : 07/MAR/18, 13:24
REF. CATALOGO ACELEROGRAMAS, SMIS 1996 : REGISTRO No.     /PAG.


================================================================================
DATOS DE LA ESTACION:
NOMBRE DE LA ESTACION                  : ALBERCA OLÍMPICA
CLAVE DE LA ESTACION                   : AO24
LOCALIZACION DE LA ESTACION            : Del. Benito Juárez, Col. General Pedro 
                                       : María Anaya, Río Churubusco            
                                       : y División del Norte.                  
                                       :                                        
                                       : 
COORDENADAS DE LA ESTACION             : 19.3580 LAT. N
                                       : 99.1539 LONG. W
ALTITUD (msnm)                         : 2235
TIPO DE SUELO                          : Transición                          
                                       :                           
                                       : 
INSTITUCION RESPONSABLE                : CIRES
                                       : 

================================================================================
DATOS DEL ACELEROGRAFO:
MODELO DEL ACELEROGRAFO                : RADESD
NUMERO DE SERIE DEL ACELEROGRAFO       : 257
NUMERO DE CANALES                      : 3
ORIENTACION C1-C6 (rumbo;orientacion)  : /N00E/+V/N90W
ORIENTACION C7-C12 (rumbo;orientacion) : 
VEL. DE MUESTREO, C1-C6 (muestras/s)   : /100/100/100
VEL. DE MUESTREO, C7-C12 (muestras/s)  : 
ESC. COMPLETA DE SENSORES, C1-C6, (g)  : /0.5/0.5/0.5
ESC. COMPLETA DE SENSORES, C7-C12, (g) : 
FREC. NAT. DE SENSORES, C1-C6, (Hz)    : /30/30/30
FREC. NAT. DE SENSORES, C7-C12, (Hz)   : 
AMORTIGUAMIENTO DE SENSORES, C1-C6     : /0.700/0.700/0.700
AMORTIGUAMIENTO DE SENSORES, C7-C12    : 
INTERVALO DE MUESTREO, C1-C6, (s)      : /0.01/0.01/0.01
INTERVALO DE MUESTREO, C7-C12, (s)     : 
UMBRAL DE DISPARO, C1-C6, (Gal)        : /1.05/2.69/1.05
UMBRAL DE DISPARO, C7-C12, (Gal)       : 
MEMORIA DE PREEVENTO (s)               : 44.0
TIEMPO DE POSEVENTO (s)                : 154.0


================================================================================
DATOS DEL SISMO:
FECHA DEL SISMO (GMT)                  : 16/FEB/18
HORA EPICENTRO (GMT)                   : 23:39:38.0
MAGNITUD(ES)                           : /Mc=7.2
COORDENADAS DEL EPICENTRO              : 16.25 LAT. N
                                       : 98.03 LONG. W
PROFUNDIDAD FOCAL (km)                 : 12
FUENTE DE LOS DATOS EPICENTRALES       : SSN
                                       : INSTITUTO DE GEOFISICA, UNAM

================================================================================
DATOS DE ESTE REGISTRO:
HORA DE LA PRIMERA MUESTRA (GMT)       : 23:40:09.00
EXACTITUD DEL TIEMPO (s)               : 0.01
DURACION DEL REGISTRO (s), C1-C6       : /307.4/307.4/307.4
DURACION DEL REGISTRO (s), C7-C12      : 
NUM. TOTAL DE MUESTRAS, C1-C6          : /30740/30740/30740
NUM. TOTAL DE MUESTRAS, C7-C12         : 
ACEL. MAX. (Gal), C1-C6                : /20.55794/5.82748/14.9615
ACEL. MAX., C1-C6, EN LA MUESTRA       : /8459/8457/9463
ACEL. MAX. (Gal), C7-C12               : 
ACEL. MAX., C7-C12, EN LA MUESTRA      : 
UNIDADES DE LOS DATOS                  : Gal (cm/s/s)
FACTOR DE DECIMACION                   : 1
FORMATO DATOS (FORTRAN,10 campos/dato) : 3F10.5


================================================================================
CALIDAD DEL ACELEROGRAMA:
REGISTRO DIGITAL COMPLETO CON TIEMPO ABSOLUTO CORRECTO.


================================================================================
COMENTARIOS:
El dato de la linea 68, referente a la hora corresponde al reloj interno
por lo que dicha hora puede ser suceptible a una deriva de tiempo












================================================================================
DATOS DE ACELERACION:
---------+---------+---------+---------+---------+---------+---------+---------+
   CANAL-1   CANAL-2   CANAL-3   CANAL-4   CANAL-5   CANAL-6   CANAL-7   CANAL-8
      N00E        +V      N90W
---------+---------+---------+---------+---------+---------+---------+---------+
[...]
   1.49864  -0.23285  -4.38664
   1.04973  -0.44234  -4.34175
   0.75045  -0.74161  -4.13226
   0.34643  -0.86132  -3.93773
   0.06212  -1.05585  -3.60853
  -0.23716  -1.10074  -3.33918
  -0.55140  -1.25038  -3.06983
  -0.83571  -1.25038  -2.66581
  -1.14995  -1.26535  -2.24683
  -1.67368  -1.08578  -1.81288
  -2.06273  -0.95111  -1.33404
  -2.58647  -0.57701  -0.85520
  -3.08027  -0.20292  -0.28657
  -3.61897   0.11132   0.22219
  -4.09781   0.39563   0.70103
  -4.72628   0.41060   1.19484
  -5.04052   0.60512   1.62879
  -5.32483   0.56023   2.13756
  -5.60915   0.41060   2.37698
  -5.95331   0.32081   2.75107
  -6.22266   0.23103   2.97553
  -6.32741   0.14125   3.34962
  -6.56683  -0.09817   3.61897
  -6.77632  -0.21788   3.96313
  -6.92596  -0.39745   4.24745
  -7.01574  -0.47227   4.53176
  -7.16538  -0.47227   4.78614
  -7.34494  -0.48723   4.90585
  -7.49458  -0.53212   5.14527
  -7.62925  -0.45730   5.22009
  -7.71904  -0.29270   5.32484
  -7.76393  -0.08321   5.47447
  -7.67415   0.14125   5.56426
  -7.76393   0.51534   5.57922
  -7.58436   0.67994   5.65404
  -7.44969   0.93433   5.65404
  -7.37487   1.11389   5.66900
  -7.28509   1.38324   5.71389
  -7.27012   1.38324   5.74382
  -7.32998   1.47302   5.74382
  -7.24020   1.56281   5.81864
  -7.46465   1.54784   5.80368
  -7.37487   1.59273   5.92339
  -7.46465   1.63762   5.81864
  -7.64422   1.48799   5.68397
  -7.44969   1.50295   5.62411
  -7.31501   1.42813   5.36973
  -7.15041   1.38324   5.01060
  -6.70150   1.44310   4.66643
  -6.32741   1.63762   4.24745
  -5.72886   1.62266   3.82846
  -5.16023   1.69748   3.39451
  -4.63650   1.65259   2.88574
  -4.20255   1.66755   2.55654
  -3.58904   1.77230   2.10763
  -3.05034   1.68252   1.74850
  -2.63136   1.69748   1.46419
  -2.16748   1.56281   1.12002
  -1.74850   1.48799   1.01527
  -1.40433   1.44310   0.50651
  -1.16491   0.97922   0.32694
  -0.80578   0.76973   0.07256
  -0.35687   0.36570  -0.09204
   0.19679   0.08139  -0.25665
   0.49607  -0.32263  -0.63074
   0.97491  -0.69672  -0.61578
   1.54353  -0.81643  -0.94498
   2.00741  -0.98103  -1.18440
   2.47128  -0.92118  -1.49864
   2.93516  -0.83140  -1.82784
   3.38407  -0.69672  -2.18697
   3.89284  -0.57701  -2.48625
   4.37168  -0.35256  -2.68078
   4.74578   0.17118  -2.95012
   5.23958   0.48541  -3.24940
   5.61367   0.82958  -3.36911
   6.12244   1.15878  -3.56364
   6.48157   1.41317  -3.42896
   6.88559   1.71244  -3.54867
   7.58889   2.01172  -3.36911
   8.08269   2.02668  -3.09976
   8.63635   2.08654  -2.83041
   9.08527   2.22121  -2.68078
   9.47432   2.43070  -2.48625
   9.86338   2.47559  -2.14208
  10.11777   2.32596  -1.88770
  10.55172   2.14639  -1.69317
  10.80610   2.05661  -1.40886
  11.25501   1.72741  -1.39389
  11.46450   1.68252  -1.46871
  11.58421   1.39820  -1.55849
  11.67400   1.27849  -1.87273
  11.77874   1.23360  -2.02237
  11.62911   1.11389  -2.32164
  11.49443   1.35331  -2.47128
  11.22508   1.65259  -2.66581
  11.10537   1.93690  -2.72567
  10.74624   2.16136  -2.84538
  10.46193   2.49056  -2.75559
  10.10280   2.68509  -2.75559
   9.66885   2.71502  -2.51617
   9.08527   2.86465  -2.32164
   8.53161   2.98436  -2.12712
   7.99291   2.74494  -1.87273
   7.24472   2.49056  -1.46871
   6.51150   2.43070  -1.18440
   5.82317   2.14639  -1.06469
   5.03009   1.84712  -0.85520
   4.32679   1.63762  -0.72052
   3.48882   1.51791  -0.51103
   2.77056   1.33835  -0.48110
   2.05230   1.33835  -0.49607
   1.28915   1.14382  -0.46614
   0.58585   1.12886  -0.51103
  -0.20723   1.00915  -0.51103
  -1.01527   0.88944  -0.60081
  -1.71857   0.67994  -0.42125
  -2.54158   0.54527  -0.43621
  -3.30473   0.35074  -0.33146
  -4.17263   0.05147  -0.18183
  -5.11534  -0.23285  -0.07708
  -5.98324  -0.62190  -0.03219
  -6.65661  -0.83140   0.05759
  -7.25516  -0.86132   0.20723
  -7.95846  -0.99600   0.38680
  -8.52708  -1.23542   0.34190
  -8.96103  -1.37009   0.56636
  -9.49972  -1.40002   0.77585
 -10.02346  -1.41498   1.10506
 -10.24791  -1.14564   1.52404
 -10.65193  -1.14564   1.97295
 -10.99610  -0.96607   2.58647
 -11.40012  -0.98103   3.18502
 -11.65451  -0.84636   3.84342
 -11.81911  -0.89125   4.41205
 -12.05853  -0.72665   5.13031
 -12.26802  -0.89125   5.65404
 -12.52240  -0.89125   6.35734
 -12.86657  -0.83140   6.83618
 -13.15088  -1.07082   7.28509
 -13.46512  -1.31024   7.80882
 -13.58483  -1.40002   8.25773
 -13.79432  -1.32520   8.43730
 -13.82425  -1.11571   8.90118
 -13.65965  -0.99600   9.23038
 -13.43519  -0.87629   9.64936
 -13.15088  -0.65183   9.96360
 -12.89650  -0.54708  10.29281
 -12.46255  -0.33759  10.47237
 -12.11838  -0.11314  10.59208
 -11.62458   0.03650  10.71179
 -11.17566   0.18614  10.87639
 -10.69682   0.24599  10.99610
 -10.26288   0.59016  10.86143
  -9.85885   0.47045  10.74172
  -9.26030   0.59016  10.75668
  -8.70664   0.67994  10.62201
  -8.24277   0.53031  10.53223
  -7.58436   0.54527  10.45741
  -6.82121   0.42556  10.33770
  -6.01317   0.39563  10.24791
  -5.17520   0.18614  10.39755
  -4.33723   0.05147  10.20302
  -3.37955  -0.08321  10.21799
  -2.43683  -0.17299  10.23295
  -1.68864  -0.45730  10.14317
  -0.77585  -0.66679   9.97857
  -0.01270  -1.16060   9.81396
   0.69060  -1.35513   9.55958
   1.42382  -1.72922   9.38002
   2.11215  -2.05842   9.11067
   2.77056  -2.19310   8.64679
   3.50378  -2.40259   8.40737
   4.16219  -2.56719   8.12306
   4.89541  -2.65697   7.79386
   5.62864  -2.64201   7.25516
   6.49654  -2.80661   6.94092
   7.19983  -2.77668   6.43215
   8.09766  -2.74676   5.96828
   8.99548  -2.53726   5.36973
  10.02798  -2.37266   4.77118
  11.03056  -2.23799   4.26241
  12.01816  -2.11828   3.69379
  12.88606  -1.83397   2.96056
  13.79885  -1.60951   2.33208
  14.69668  -1.47484   1.70361
  15.38501  -1.29527   0.89556
  15.98356  -0.92118   0.17730
  16.64197  -0.80147  -0.64570
  17.13577  -0.83140  -1.37893
  17.50986  -0.81643  -2.11215
  17.85403  -0.77154  -2.74063
  18.09345  -0.93614  -3.26436
  18.06352  -0.92118  -3.77313
  17.98870  -1.17556  -4.17715
  17.83907  -1.35513  -4.44650
  17.53979  -1.62448  -4.65599
  17.00110  -1.81900  -4.89541
  16.61204  -1.81900  -4.95527
  16.14816  -1.77411  -5.13483
  15.80399  -1.98361  -5.14980
  15.23537  -2.07339  -5.34432
  14.84631  -2.17813  -5.37425
  14.45726  -2.19310  -5.58374
  14.12805  -2.23799  -5.76331
  13.58936  -2.31281  -5.89798
  13.09555  -2.26792  -6.06259
  12.57182  -2.29784  -6.16733
  12.00320  -2.13324  -6.33193
  11.32983  -2.10332  -6.48157
  10.55172  -2.02850  -6.54143
   9.57907  -1.92375  -6.61624
   8.53161  -2.04346  -6.60128
   7.55896  -1.78908  -6.51150
   6.30201  -1.87886  -6.37682
   5.00016  -1.83397  -6.22719
   3.80306  -1.83397  -5.97280
   2.48625  -1.84893  -5.73338
   1.22929  -1.78908  -5.74835
   0.03219  -1.84893  -5.44907
  -1.19484  -1.96864  -5.41914
  -2.28719  -1.99857  -5.26951
  -3.34962  -2.20806  -5.08994
  -4.44197  -2.46245  -4.92534
  -5.29491  -2.35770  -4.76074
  -6.31244  -2.53726  -4.53628
  -7.09056  -2.65697  -4.25197
  -8.03328  -2.65697  -4.02751
  -8.91614  -2.68690  -3.84795
  -9.66433  -2.59712  -3.45889
 -10.41251  -2.53726  -2.98005
 -11.20559  -2.46245  -2.60596
 -11.92385  -2.38763  -2.24683
 -12.61219  -2.34274  -1.79791
 -13.21074  -2.19310  -1.28915
 -13.76440  -2.20806  -0.94498
 -14.40784  -1.98361  -0.63074
 -14.82682  -1.90879  -0.28657
 -15.38048  -1.75915  -0.01723
 -15.73961  -1.60951   0.23716
 -16.41298  -1.45987   0.46161
 -16.84693  -1.17556   0.73096
 -17.32577  -0.98103   0.91053
 -17.66994  -0.53212   1.10506
 -18.02907  -0.26277   1.34448
 -18.23856   0.00657   1.58390
 -18.31338   0.32081   1.80835
 -18.32834   0.59016   2.01785
 -18.19367   0.67994   2.18245
 -17.74476   0.78469   2.24230
 -17.34073   0.85951   2.42187
 -16.68233   1.12886   2.39194
 -15.97903   1.06900   2.34705
 -14.96150   1.24857   2.31712
 -14.07863   1.29346   2.13756
 -13.15088   1.24857   2.06274
 -12.16327   1.38324   1.76346
 -11.23552   1.42813   1.56893
 -10.36762   1.47302   1.37440
  -9.33512   1.38324   1.07513
  -8.54204   1.30842   0.61125
  -7.43472   1.29346   0.23716
  -6.41719   1.36828  -0.34643
  -5.17520   1.18871  -0.87016
  -4.06788   1.12886  -1.33404
  -2.72114   0.72484  -1.93259
  -1.49411   0.51534  -2.32164
  -0.11745   0.23103  -2.72567
   1.19936  -0.03832  -3.32422
   2.63589  -0.18795  -3.78809
   3.78810  -0.57701  -4.20708
   5.04505  -0.83140  -4.68592
   6.18230  -1.14564  -4.91038
   7.24472  -1.34016  -5.11987
   8.14255  -1.51973  -5.32936
   9.05534  -1.63944  -5.47900
   9.80353  -1.90879  -5.61367
  10.38711  -2.02850  -5.86806
  11.18019  -2.04346  -6.09251
  11.77874  -2.02850  -6.36186
  12.40722  -2.14821  -6.60128
  12.97584  -2.26792  -6.81077
  13.55943  -2.32777  -7.06516
  13.99338  -2.38763  -7.34947
  14.32258  -2.43252  -7.67867
  14.65179  -2.44748  -7.84327
  15.20544  -2.55223  -8.08269
  15.60947  -2.64201  -8.26226
  16.08831  -2.74676  -8.44182
  16.46240  -2.88143  -8.51664
  16.82153  -2.80661  -8.57650
  17.22555  -2.85150  -8.57650
  17.56972  -2.83654  -8.39693
  17.68943  -2.58216  -8.27722
  17.98870  -2.38763  -8.21737
  18.30294  -2.01353  -7.99291
  18.55733  -1.54966  -7.78342
  18.60222  -1.16060  -7.54400
  18.61718  -0.69672  -7.37940
  18.60222  -0.23285  -7.08012
  18.48251   0.23103  -6.79581
  18.22812   0.57520  -6.45164
  17.79418   1.08397  -6.18230
  17.42008   1.47302  -5.86806
  16.74671   1.80223  -5.58374
  16.20802   2.07157  -5.40418
  15.44486   2.40078  -5.35929
  14.78646   2.67012  -5.20965
  14.11309   2.99933  -5.14980
  13.20030   3.26867  -5.23958
  12.40722   3.28364  -5.25454
  11.46450   3.58291  -5.14980
  10.44697   3.58291  -5.13483
   9.38454   3.58291  -5.11987
   8.33708   3.41831  -5.08994
   7.18487   3.25371  -4.89541
   5.97280   3.04422  -4.65599
   4.79067   2.98436  -4.62606
   3.50378   2.71502  -4.40161
   2.24683   2.34092  -4.01255
   0.87016   2.11646  -3.68335
  -0.41672   1.96683  -3.27933
  -1.59886   1.95186  -2.84538
  -2.90071   1.83215  -2.41143
  -3.94817   1.78726  -1.84280
  -5.22009   1.98179  -1.39389
  -6.19273   2.26610  -0.85520
  -7.25516   2.47559  -0.31650
  -8.33255   2.64020   0.26709
  -9.39498   2.80480   0.85067
 -10.51726   3.04422   1.38937
 -11.48990   3.47817   1.82332
 -12.53737   3.70262   2.37698
 -13.49505   3.91212   2.81092
 -14.51258   4.09168   3.18502
 -15.48523   4.46578   3.54415
 -16.36809   4.72016   3.93321
 -17.29584   4.94462   4.17263
 -18.19367   5.22893   4.38212
 -18.88200   5.42346   4.56168
 -19.52544   5.57309   4.66643
 -20.12399   5.70777   4.74125
 -20.33349   5.82748   4.77118
 -20.52802   5.82748   4.78614
 -20.55794   5.63295   4.87592
 -20.36341   5.49827   5.08542
 -20.34845   5.12418   5.23505
 -20.01925   4.85483   5.51937
 -19.66012   4.45081   5.78871
 -19.31595   3.95701   5.96828
 -18.77726   3.53802   6.29748
 -18.25352   3.04422   6.74639
 -17.65497   2.44567   6.76136
 -17.07139   1.77230   6.83618
 -16.35313   1.26353   6.97085
 -15.51516   0.78469   7.00078
 -14.84179   0.42556   6.79129
 -14.09360   0.15621   6.43215
 -13.22570  -0.12810   6.22266
 -12.50744  -0.24781   5.78871
 -11.62458  -0.18795   5.36973
 -10.87639  -0.00839   4.87592
 -10.08331   0.27592   4.38212
  -9.30519   0.41060   3.93321
  -8.52708   0.50038   3.45437
  -7.82378   0.67994   3.06531
  -7.13545   0.84455   2.70618
  -6.35733   0.90440   2.22734
  -5.53433   0.79965   1.95799
  -4.68139   0.66498   1.76346
  -3.88831   0.41060   1.55397
  -3.00545   0.29089   1.19484
  -2.24230   0.09636   0.73096
  -1.19484  -0.15803   0.46161
  -0.07255  -0.35256  -0.03219
   0.93002  -0.50219  -0.54096
   1.91763  -0.74161  -1.01980
   2.95012  -0.78650  -1.54353
   3.86291  -0.86132  -2.06726
   4.71585  -1.04089  -2.77056
   5.49396  -1.19053  -3.32422
   6.12244  -1.10074  -3.96766
   6.81078  -1.14564  -4.40161
   7.33451  -1.10074  -4.97023
   7.84327  -0.99600  -5.43411
   8.36701  -0.87629  -5.79324
   8.65132  -0.96607  -6.22719
   9.04038  -0.86132  -6.49653
   9.33965  -0.80147  -6.67610
   9.72871  -0.60694  -6.79581
   9.95316  -0.48723  -6.76588
  10.25244  -0.18795  -6.63121
  10.46193  -0.00839  -6.39179
  10.71632   0.35074  -6.03266
  10.73128   0.62009  -5.80820
  10.83603   0.88944  -5.43411
  10.70135   1.21864  -5.19469
  10.73128   1.51791  -4.71585
  10.52179   1.86208  -4.41657
  10.34222   2.20625  -4.02751
  10.19258   2.59531  -3.69831
   9.83345   2.90954  -3.32422
   9.57907   3.26867  -2.95012
   9.13016   3.43328  -2.71070
   8.78599   3.74751  -2.39646
   8.26226   3.86722  -2.18697
   7.81335   3.83730  -1.87273
   7.40933   3.71759  -1.63331
   6.82574   3.61284  -1.40886
   6.34690   3.37342  -1.21433
   5.86806   3.05918  -0.84023
   5.41915   2.72998  -0.54096
   4.95527   2.32596  -0.22672
   4.59614   1.96683   0.17730
   4.14723   1.44310   0.59629
   3.87788   1.08397   1.00031
   3.65342   0.70987   1.38937
   3.48882   0.47045   1.80835
   3.38407   0.09636   2.30216
   3.36911  -0.12810   2.72114
   3.45889  -0.21788   3.22991
   3.32422  -0.45730   3.66386
   3.18954  -0.62190   4.08284
   3.18954  -0.69672   4.48687
   2.96509  -0.83140   4.90585
   2.78552  -0.92118   5.48944
   2.56107  -0.96607   5.95331
   2.24683  -0.92118   6.29748
   1.84281  -0.84636   6.70150
   1.43879  -0.75658   7.10552
   1.01980  -0.62190   7.49458
   0.58585  -0.56205   7.73400
   0.10701  -0.44234   7.82378
  -0.47658  -0.56205   7.95846
  -0.85067  -0.54708   7.98839
  -1.06016  -0.63687   7.89860
  -1.55397  -0.78650   7.74897
  -1.80835  -0.92118   7.46465
  -1.98792  -0.96607   7.03071
  -2.22734  -1.26535   6.59676
  -2.48172  -1.38506   6.10295
  -2.54158  -1.59455   5.72886
  -2.78100  -1.71426   5.14527
  -2.96056  -1.69929   4.57665
  -2.94560  -1.63944   4.20255
  -3.06531  -1.65440   3.75364
  -3.25984  -1.60951   3.25984
  -3.39451  -1.34016   2.88574
  -3.48429  -1.10074   2.42187
  -3.63393  -0.86132   2.15252
  -3.81349  -0.53212   1.70361
  -3.81349  -0.12810   1.47915
  -3.90328   0.11132   1.16491
  -3.96313   0.32081   0.92549
  -4.00802   0.51534   0.64118
  -4.03795   0.70987   0.40176
  -4.11277   0.73980   0.11745
  -4.23248   0.70987  -0.19679
  -4.21752   0.65002  -0.39132
  -4.23248   0.45549  -0.58585
  -4.26241   0.15621  -0.76541
  -4.32226  -0.00839  -0.94498
  -4.48686  -0.27774  -1.12454
  -4.57665  -0.59198  -1.40886
  -4.68139  -0.99600  -1.66324
  -4.71132  -1.34016  -1.88770
  -4.65147  -1.69929  -1.99244
  -4.74125  -2.05842  -2.33661
  -4.69636  -2.37266  -2.48625
  -4.59161  -2.46245  -2.74063
  -4.48686  -2.67194  -2.98005
  -4.20255  -2.86647  -3.11472
  -3.94817  -2.94129  -3.05487
  -3.64889  -2.95625  -2.99501
  -3.25984  -2.97121  -2.86034
  -2.91567  -2.91136  -2.62092
  -2.45179  -2.64201  -2.38150
  -1.88317  -2.47741  -2.02237
  -1.53900  -2.47741  -1.42382
  -1.22476  -2.32777  -1.24425
  -0.80578  -2.25295  -0.75045
  -0.55140  -2.29784  -0.33146
  -0.40176  -2.32777  -0.15190
  -0.17730  -2.44748   0.14738
  -0.02766  -2.41755   0.37183
   0.00226  -2.43252   0.49154
   0.21176  -2.31281   0.58132
   0.12197  -2.44748   0.67111
   0.06212  -2.46245   0.70103
   0.04716  -2.55223   0.76089
   0.03219  -2.56719   0.79082
   0.09205  -2.64201   0.79082
