********************************************************************************
              CENTRO DE INSTRUMENTACION Y REGISTRO SISMICO  A.C.

    Anaxagoras 814, Col. Narvarte, Benito Juarez, C.P. 03020 Mexico, D.F.
           Tels. 5687 45 42/ 5687 45  82             Fax. 5669 25 12
********************************************************************************
ARCHIVO ESTANDAR DE ACELERACION:
VERSION DEL FORMATO                    : 2.0
NOMBRE DEL ARCHIVO                     : AO2420120402173642
FECHA Y HORA DE CREACION               : 15/MAY/12, 09:41
REF. CATALOGO ACELEROGRAMAS, SMIS 1996 : REGISTRO No.     /PAG.


================================================================================
DATOS DE LA ESTACION:
NOMBRE DE LA ESTACION                  : ALBERCA OLÍMPICA
CLAVE DE LA ESTACION                   : AO24
LOCALIZACION DE LA ESTACION            : Del. Benito Juárez, Col. General Pedro 
                                       : María Anaya, Río Churubusco            
                                       : y División del Norte.                  
                                       :                                        
                                       : 
COORDENADAS DE LA ESTACION             : 19.3580 LAT. N
                                       : 99.1539 LONG. W
ALTITUD (msnm)                         : 2235
TIPO DE SUELO                          : Transición                          
                                       :                           
                                       : 
INSTITUCION RESPONSABLE                : CIRES
                                       : 

================================================================================
DATOS DEL ACELEROGRAFO:
MODELO DEL ACELEROGRAFO                : RADESD
NUMERO DE SERIE DEL ACELEROGRAFO       : 257
NUMERO DE CANALES                      : 3
ORIENTACION C1-C6 (rumbo;orientacion)  : /N00E/+V/N90W
ORIENTACION C7-C12 (rumbo;orientacion) : 
VEL. DE MUESTREO, C1-C6 (muestras/s)   : /100/100/100
VEL. DE MUESTREO, C7-C12 (muestras/s)  : 
ESC. COMPLETA DE SENSORES, C1-C6, (g)  : /0.5/0.5/0.5
ESC. COMPLETA DE SENSORES, C7-C12, (g) : 
FREC. NAT. DE SENSORES, C1-C6, (Hz)    : /30/30/30
FREC. NAT. DE SENSORES, C7-C12, (Hz)   : 
AMORTIGUAMIENTO DE SENSORES, C1-C6     : /0.700/0.700/0.700
AMORTIGUAMIENTO DE SENSORES, C7-C12    : 
INTERVALO DE MUESTREO, C1-C6, (s)      : /0.01/0.01/0.01
INTERVALO DE MUESTREO, C7-C12, (s)     : 
UMBRAL DE DISPARO, C1-C6, (Gal)        : /1.68/3.11/1.92
UMBRAL DE DISPARO, C7-C12, (Gal)       : 
MEMORIA DE PREEVENTO (s)               : 56.0
TIEMPO DE POSEVENTO (s)                : 64.0


================================================================================
DATOS DEL SISMO:
FECHA DEL SISMO (GMT)                  : 02/ABR/12
HORA EPICENTRO (GMT)                   : 17:36:42.0
MAGNITUD(ES)                           : /Mc=6.0
COORDENADAS DEL EPICENTRO              : 16.27 LAT. N
                                       : 98.47 LONG. W
PROFUNDIDAD FOCAL (km)                 : 10
FUENTE DE LOS DATOS EPICENTRALES       : SSN
                                       : INSTITUTO DE GEOFISICA, UNAM

================================================================================
DATOS DE ESTE REGISTRO:
HORA DE LA PRIMERA MUESTRA (GMT)       : 17:38:17.00
EXACTITUD DEL TIEMPO (s)               : 0.01
DURACION DEL REGISTRO (s), C1-C6       : /179.0/179.0/179.0
DURACION DEL REGISTRO (s), C7-C12      : 
NUM. TOTAL DE MUESTRAS, C1-C6          : /17900/17900/17900
NUM. TOTAL DE MUESTRAS, C7-C12         : 
ACEL. MAX. (Gal), C1-C6                : /5.3897/1.93581/4.91647
ACEL. MAX., C1-C6, EN LA MUESTRA       : /6812/5936/6006
ACEL. MAX. (Gal), C7-C12               : 
ACEL. MAX., C7-C12, EN LA MUESTRA      : 
UNIDADES DE LOS DATOS                  : Gal (cm/s/s)
FACTOR DE DECIMACION                   : 1
FORMATO DATOS (FORTRAN,10 campos/dato) : 3F10.5


================================================================================
CALIDAD DEL ACELEROGRAMA:
REGISTRO DIGITAL COMPLETO CON TIEMPO ABSOLUTO CORRECTO.


================================================================================
COMENTARIOS:














================================================================================
DATOS DE ACELERACION:
---------+---------+---------+---------+---------+---------+---------+---------+
   CANAL-1   CANAL-2   CANAL-3   CANAL-4   CANAL-5   CANAL-6   CANAL-7   CANAL-8
      N00E        +V      N90W
---------+---------+---------+---------+---------+---------+---------+---------+
[...]
  -0.83523   0.45839  -0.11135
  -0.83523   0.45839   0.12807
  -0.83523   0.45839   0.12807
  -1.07465   0.21897   0.12807
  -1.07465   0.21897   0.12807
  -1.07465   0.21897   0.12807
  -1.07465   0.21897   0.12807
  -1.07465   0.21897   0.12807
  -1.07465   0.21897   0.12807
  -1.07465   0.21897   0.12807
  -1.07465   0.45839   0.12807
  -1.31407   0.45839  -0.11135
  -1.31407   0.45839  -0.11135
  -1.55349   0.45839   0.12807
  -1.55349   0.45839  -0.11135
  -1.79291   0.69781   0.12807
  -1.79291   0.69781   0.12807
  -2.03233   0.45839   0.12807
  -2.03233   0.45839   0.36749
  -2.03233   0.21897   0.36749
  -2.03233   0.21897   0.36749
  -2.03233   0.45839   0.36749
  -2.03233   0.21897   0.36749
  -1.79291   0.21897   0.36749
  -1.79291   0.21897   0.36749
  -1.79291   0.21897   0.36749
  -1.55349  -0.02045   0.12807
  -1.31407  -0.02045   0.12807
  -1.31407  -0.25987   0.12807
  -1.07465  -0.25987  -0.11135
  -0.83523  -0.49929  -0.11135
  -0.59581  -0.49929  -0.11135
  -0.35639  -0.49929   0.12807
  -0.11697  -0.73871  -0.11135
   0.12245  -0.73871  -0.11135
   0.12245  -0.73871  -0.11135
   0.36187  -0.97813  -0.11135
   0.36187  -0.97813  -0.11135
   0.36187  -0.73871  -0.11135
   0.60129  -0.97813  -0.11135
   0.36187  -0.97813  -0.11135
   0.36187  -0.97813  -0.35077
   0.36187  -0.73871  -0.35077
   0.36187  -0.97813  -0.59019
   0.36187  -0.97813  -0.59019
   0.36187  -0.73871  -0.59019
   0.36187  -0.73871  -0.82961
   0.36187  -0.73871  -0.82961
   0.36187  -0.73871  -0.82961
   0.60129  -0.73871  -0.82961
   0.60129  -0.73871  -0.82961
   0.84071  -0.49929  -0.82961
   1.08013  -0.49929  -0.82961
   1.08013  -0.49929  -0.82961
   1.31955  -0.49929  -0.82961
   1.55897  -0.49929  -0.59019
   1.55897  -0.49929  -0.59019
   1.55897  -0.25987  -0.59019
   1.79839  -0.25987  -0.59019
   1.79839  -0.25987  -0.35077
   2.03781  -0.25987  -0.35077
   2.03781  -0.25987  -0.35077
   2.03781  -0.25987  -0.35077
   2.03781  -0.02045  -0.35077
   2.03781  -0.02045  -0.35077
   1.79839  -0.02045  -0.35077
   1.79839  -0.02045  -0.35077
   1.79839  -0.02045  -0.35077
   1.55897  -0.02045  -0.35077
   1.55897  -0.02045  -0.35077
   1.31955  -0.02045  -0.35077
   1.31955  -0.02045  -0.35077
   1.31955  -0.25987  -0.11135
   1.08013  -0.25987  -0.11135
   1.08013  -0.49929   0.12807
   1.08013  -0.73871   0.12807
   1.08013  -0.73871   0.36749
   1.08013  -0.73871   0.36749
   1.08013  -0.97813   0.36749
   1.08013  -0.73871   0.36749
   1.31955  -0.73871   0.36749
   1.08013  -0.73871   0.36749
   1.08013  -0.73871   0.36749
   1.08013  -0.49929   0.36749
   1.08013  -0.49929   0.12807
   0.84071  -0.25987   0.12807
   0.84071  -0.25987   0.12807
   0.84071  -0.02045  -0.11135
   0.60129  -0.02045  -0.11135
   0.60129  -0.25987  -0.11135
   0.60129  -0.02045  -0.11135
   0.36187  -0.02045  -0.11135
   0.12245   0.21897  -0.11135
  -0.11697  -0.02045  -0.11135
  -0.35639   0.21897   0.12807
  -0.35639   0.21897  -0.11135
  -0.59581   0.21897   0.12807
  -0.59581   0.21897   0.36749
  -0.83523   0.21897   0.36749
  -1.07465   0.21897   0.36749
  -1.07465   0.21897   0.60691
  -1.07465   0.45839   0.60691
  -1.07465   0.45839   0.84633
  -1.07465   0.45839   0.84633
  -1.07465   0.45839   0.84633
  -1.07465   0.45839   1.08575
  -1.07465   0.45839   1.32517
  -1.07465   0.45839   1.32517
  -1.07465   0.45839   1.32517
  -1.07465   0.45839   1.32517
  -1.31407   0.21897   1.32517
  -1.31407   0.21897   1.08575
  -1.55349   0.21897   1.08575
  -1.79291   0.21897   1.08575
  -1.79291  -0.02045   1.08575
  -2.03233  -0.02045   1.08575
  -2.27175  -0.02045   1.08575
  -2.51117  -0.02045   1.08575
  -2.51117  -0.02045   1.08575
  -2.51117  -0.02045   1.32517
  -2.51117  -0.02045   1.08575
  -2.75059  -0.02045   1.08575
  -2.75059  -0.02045   1.08575
  -2.75059  -0.02045   1.08575
  -2.75059   0.21897   0.84633
  -2.75059   0.21897   0.84633
  -2.75059   0.45839   0.84633
  -2.75059   0.69781   0.60691
  -2.51117   0.69781   0.60691
  -2.51117   0.93723   0.36749
  -2.51117   1.17665   0.12807
  -2.51117   1.17665   0.12807
  -2.27175   1.41607   0.12807
  -2.27175   1.17665   0.12807
  -2.03233   1.41607   0.12807
  -1.79291   1.17665   0.12807
  -1.79291   1.17665  -0.11135
  -1.31407   0.93723  -0.11135
  -1.31407   0.69781   0.12807
  -1.07465   0.45839   0.12807
  -1.07465   0.21897   0.12807
  -0.83523  -0.02045  -0.11135
  -0.83523  -0.49929  -0.11135
  -0.59581  -0.49929  -0.11135
  -0.59581  -0.73871  -0.35077
  -0.35639  -0.73871  -0.35077
  -0.35639  -0.73871  -0.35077
  -0.35639  -0.97813  -0.59019
   0.12245  -0.73871  -0.59019
   0.12245  -0.73871  -0.59019
   0.60129  -0.73871  -0.59019
   0.84071  -0.49929  -0.82961
   1.08013  -0.49929  -0.82961
   1.31955  -0.25987  -0.82961
   1.55897  -0.02045  -0.82961
   1.55897  -0.02045  -1.06903
   1.79839  -0.02045  -1.06903
   1.79839   0.21897  -1.06903
   1.79839   0.21897  -0.82961
   1.79839   0.21897  -0.82961
   2.03781   0.21897  -0.59019
   2.03781   0.45839  -0.82961
   2.03781   0.21897  -0.82961
   2.03781   0.21897  -0.82961
   2.03781   0.21897  -0.82961
   2.03781   0.21897  -0.82961
   2.03781   0.21897  -0.82961
   2.03781   0.21897  -0.82961
   2.03781   0.21897  -0.82961
   2.03781   0.21897  -1.06903
   2.03781   0.21897  -1.06903
   2.03781   0.21897  -1.06903
   2.27723   0.21897  -1.30845
   2.03781   0.21897  -1.30845
   2.03781   0.21897  -1.30845
   2.03781   0.21897  -1.30845
   1.79839   0.21897  -1.30845
   1.55897   0.21897  -1.06903
   1.31955   0.21897  -1.06903
   1.31955   0.21897  -1.06903
   1.08013   0.21897  -1.06903
   0.84071   0.21897  -1.06903
   0.60129  -0.02045  -0.82961
   0.36187  -0.02045  -0.82961
   0.12245  -0.25987  -1.06903
   0.12245  -0.25987  -1.06903
   0.12245  -0.25987  -1.06903
  -0.11697  -0.49929  -1.06903
  -0.11697  -0.25987  -1.30845
  -0.35639  -0.25987  -1.30845
  -0.59581  -0.25987  -1.30845
  -0.83523  -0.49929  -1.30845
  -1.07465  -0.25987  -1.30845
  -1.07465  -0.25987  -1.54787
  -1.31407  -0.25987  -1.30845
  -1.31407  -0.02045  -1.30845
  -1.31407  -0.02045  -1.06903
  -1.55349   0.21897  -1.06903
  -1.55349   0.45839  -1.06903
  -1.79291   0.45839  -1.06903
  -2.03233   0.69781  -1.06903
  -2.03233   0.69781  -0.82961
  -2.27175   0.69781  -0.82961
  -2.27175   0.93723  -0.82961
  -2.27175   0.93723  -0.82961
  -2.51117   1.17665  -0.59019
  -2.51117   0.93723  -0.82961
  -2.51117   0.93723  -0.59019
  -2.75059   0.93723  -0.59019
  -2.75059   0.69781  -0.35077
  -2.75059   0.69781  -0.35077
  -2.75059   0.93723  -0.11135
  -2.75059   0.69781   0.12807
  -2.75059   0.69781   0.36749
  -2.51117   0.69781   0.36749
  -2.75059   0.69781   0.60691
  -2.51117   0.69781   0.60691
  -2.51117   0.69781   0.84633
  -2.51117   0.93723   1.08575
  -2.27175   0.69781   1.32517
  -2.27175   0.69781   1.32517
  -2.27175   0.69781   1.56459
  -2.27175   0.69781   1.80401
  -2.03233   0.45839   1.80401
  -1.79291   0.45839   1.80401
  -1.55349   0.45839   2.04343
  -1.31407   0.45839   2.04343
  -1.31407   0.21897   2.28285
  -0.83523   0.45839   2.28285
  -0.83523   0.45839   2.28285
  -0.35639   0.45839   2.52227
  -0.11697   0.21897   2.52227
   0.12245   0.21897   2.52227
   0.36187   0.21897   2.76169
   0.60129  -0.02045   2.76169
   0.84071  -0.02045   3.00111
   1.08013  -0.02045   3.24053
   1.31955  -0.02045   3.24053
   1.55897  -0.02045   3.47995
   1.79839   0.21897   3.47995
   1.79839  -0.02045   3.71937
   2.03781  -0.02045   3.71937
   2.03781  -0.02045   3.95879
   2.27723  -0.02045   3.71937
   2.27723  -0.25987   3.95879
   2.27723  -0.49929   3.95879
   2.27723  -0.49929   3.95879
   2.51665  -0.73871   3.95879
   2.75607  -0.73871   3.95879
   2.75607  -0.97813   3.95879
   2.99549  -0.97813   3.71937
   2.99549  -0.97813   3.71937
   2.99549  -0.97813   3.47995
   3.23491  -0.97813   3.47995
   3.23491  -0.97813   3.24053
   3.47433  -0.73871   3.24053
   3.47433  -0.49929   3.24053
   3.47433  -0.49929   3.24053
   3.71375  -0.49929   3.00111
   3.71375  -0.25987   3.00111
   3.71375  -0.25987   2.76169
   3.71375  -0.02045   2.76169
   3.71375  -0.02045   2.76169
   3.71375  -0.02045   2.52227
   3.47433  -0.02045   2.52227
   3.47433  -0.02045   2.28285
   3.23491  -0.02045   2.28285
   2.99549  -0.02045   2.04343
   2.75607  -0.02045   1.80401
   2.51665  -0.02045   1.56459
   2.27723  -0.02045   1.56459
   2.03781   0.21897   1.32517
   1.79839   0.21897   0.84633
   1.55897   0.45839   0.60691
   1.31955   0.45839   0.60691
   1.08013   0.69781   0.12807
   0.84071   0.69781  -0.11135
   0.60129   0.69781  -0.35077
   0.36187   0.69781  -0.59019
   0.12245   0.69781  -1.06903
   0.12245   0.69781  -1.30845
   0.12245   0.93723  -1.78729
  -0.11697   0.69781  -2.02671
  -0.35639   0.93723  -2.26613
  -0.59581   0.69781  -2.50555
  -0.59581   0.69781  -2.74497
  -1.07465   0.69781  -2.98439
  -1.31407   0.45839  -3.22381
  -1.55349   0.21897  -3.46323
  -1.55349   0.21897  -3.70265
  -2.03233   0.21897  -3.94207
  -2.27175  -0.02045  -4.18149
  -2.51117  -0.02045  -4.42091
  -2.75059  -0.02045  -4.42091
  -2.99001  -0.25987  -4.66033
  -3.22943  -0.25987  -4.66033
  -3.46885  -0.25987  -4.66033
  -3.46885  -0.25987  -4.66033
  -3.46885  -0.49929  -4.66033
  -3.46885  -0.49929  -4.66033
  -3.46885  -0.25987  -4.66033
  -3.46885  -0.25987  -4.42091
  -3.46885  -0.25987  -4.42091
  -3.46885  -0.25987  -4.18149
  -3.46885  -0.49929  -4.18149
  -3.46885  -0.49929  -4.18149
  -3.46885  -0.49929  -4.18149
  -3.22943  -0.49929  -3.94207
  -3.22943  -0.49929  -3.94207
  -2.99001  -0.25987  -3.94207
  -2.99001  -0.25987  -3.70265
  -2.75059  -0.25987  -3.70265
  -2.51117  -0.25987  -3.46323
  -2.51117  -0.02045  -3.46323
  -2.51117  -0.02045  -3.22381
  -2.27175   0.21897  -3.22381
  -2.03233   0.21897  -2.98439
  -2.03233   0.45839  -2.98439
  -1.79291   0.45839  -2.74497
  -1.79291   0.45839  -2.50555
  -1.55349   0.45839  -2.50555
  -1.31407   0.45839  -2.26613
  -1.31407   0.69781  -2.02671
  -1.07465   0.69781  -1.78729
  -0.59581   0.45839  -1.54787
  -0.35639   0.45839  -1.30845
  -0.11697   0.45839  -1.06903
   0.36187   0.21897  -1.06903
   0.60129   0.21897  -0.82961
   0.84071  -0.25987  -0.59019
   1.31955  -0.25987  -0.35077
   1.55897  -0.25987  -0.11135
   1.79839  -0.49929  -0.11135
   2.27723  -0.49929   0.12807
   2.51665  -0.97813   0.36749
   2.75607  -0.73871   0.36749
   2.99549  -0.97813   0.36749
   3.47433  -1.45697   0.60691
   3.47433  -1.45697   0.60691
   3.71375  -1.69639   0.84633
   4.19259  -1.69639   0.84633
   4.43202  -1.69639   1.08575
   4.43202  -1.69639   1.32517
   4.67144  -1.69639   1.32517
   4.91086  -1.69639   1.80401
   5.15028  -1.69639   1.80401
   5.38970  -1.45697   2.04343
   5.38970  -1.21755   2.04343
   5.38970  -1.21755   2.28285
   5.38970  -0.97813   2.52227
   5.38970  -0.73871   2.52227
   5.15028  -0.49929   2.76169
   5.15028  -0.49929   3.00111
   4.91086  -0.25987   3.00111
   4.67144  -0.25987   3.24053
   4.67144  -0.02045   3.47995
   4.43202   0.21897   3.47995
   4.19259   0.21897   3.47995
   4.19259   0.21897   3.47995
   3.95317   0.45839   3.71937
   3.71375   0.45839   3.47995
   3.47433   0.69781   3.47995
   3.23491   0.69781   3.47995
   2.99549   0.69781   3.47995
   2.75607   0.45839   3.24053
   2.27723   0.45839   3.24053
   2.03781   0.45839   3.24053
   1.55897   0.45839   3.00111
   1.31955   0.21897   3.00111
   1.08013   0.21897   2.76169
   0.84071   0.21897   2.52227
   0.60129   0.21897   2.52227
   0.36187   0.21897   2.28285
  -0.11697   0.21897   2.04343
  -0.35639   0.21897   1.80401
  -0.35639  -0.02045   1.80401
  -0.59581   0.21897   1.56459
  -0.83523   0.21897   1.32517
  -1.07465   0.45839   1.32517
  -1.07465   0.21897   1.08575
  -1.31407   0.45839   0.84633
  -1.55349   0.21897   0.60691
  -1.79291   0.21897   0.36749
  -2.03233   0.21897   0.12807
  -2.27175  -0.02045  -0.11135
  -2.51117  -0.02045  -0.35077
  -2.75059  -0.02045  -0.35077
  -2.75059  -0.02045  -0.59019
  -2.99001  -0.02045  -0.82961
  -3.46885  -0.02045  -1.06903
  -3.22943  -0.02045  -1.06903
  -3.46885  -0.25987  -1.30845
  -3.70827  -0.25987  -1.54787
  -3.70827  -0.02045  -1.78729
  -3.94769  -0.25987  -2.02671
  -3.94769  -0.25987  -2.02671
  -4.18711  -0.25987  -2.02671
  -4.18711  -0.25987  -2.26613
  -4.42653  -0.25987  -2.26613
  -4.42653  -0.25987  -2.26613
  -4.42653  -0.25987  -2.26613
  -4.42653  -0.25987  -2.50555
  -4.42653  -0.25987  -2.50555
  -4.66595  -0.02045  -2.74497
  -4.42653   0.21897  -2.74497
  -4.42653   0.21897  -2.98439
  -4.42653   0.45839  -3.22381
  -4.42653   0.69781  -3.22381
  -4.18711   0.69781  -3.22381
  -4.18711   0.69781  -3.46323
  -3.94769   0.69781  -3.46323
  -3.94769   0.69781  -3.46323
  -3.94769   0.69781  -3.46323
  -3.70827   0.45839  -3.46323
  -3.70827   0.45839  -3.46323
  -3.46885   0.21897  -3.46323
  -3.22943   0.21897  -3.46323
  -2.99001  -0.02045  -3.22381
  -2.75059  -0.25987  -3.22381
  -2.27175  -0.49929  -3.22381
  -2.03233  -0.49929  -2.98439
  -1.79291  -0.49929  -2.98439
  -1.55349  -0.73871  -2.98439
  -1.31407  -0.73871  -2.98439
  -1.07465  -0.73871  -2.74497
  -0.83523  -0.73871  -2.74497
  -0.35639  -0.49929  -2.74497
  -0.11697  -0.49929  -2.50555
   0.12245  -0.49929  -2.50555
   0.36187  -0.49929  -2.26613
   0.60129  -0.49929  -2.26613
   0.84071  -0.25987  -2.02671
   1.08013  -0.25987  -1.78729
   1.31955  -0.25987  -1.78729
   1.79839  -0.25987  -1.54787
   1.79839  -0.02045  -1.30845
   2.03781  -0.25987  -1.06903
   2.51665  -0.25987  -0.82961
   2.75607  -0.25987  -0.59019
   2.75607  -0.25987  -0.35077
   2.99549  -0.25987  -0.11135
   3.23491  -0.25987   0.12807
   3.23491  -0.49929   0.12807
   3.47433  -0.25987   0.36749
   3.47433  -0.49929   0.60691
   3.47433  -0.49929   0.84633
   3.47433  -0.73871   1.08575
   3.47433  -0.73871   1.32517
   3.47433  -0.73871   1.56459
   3.47433  -0.73871   1.56459
   3.47433  -0.73871   1.80401
   3.47433  -0.73871   2.04343
   3.47433  -0.73871   2.04343
   3.47433  -0.49929   2.28285
   3.47433  -0.49929   2.52227
   3.47433  -0.49929   2.52227
   3.47433  -0.25987   2.52227
   3.47433  -0.02045   2.76169
   3.47433  -0.02045   2.76169
   3.47433  -0.02045   2.76169
   3.23491   0.21897   2.76169
   3.47433   0.45839   2.76169
   3.23491   0.45839   2.76169
   2.99549   0.69781   2.52227
   2.99549   0.69781   2.52227
   2.75607   0.93723   2.52227
   2.51665   0.93723   2.52227
   2.27723   0.93723   2.52227
   2.03781   0.93723   2.28285
   1.79839   1.17665   2.28285
   1.79839   1.17665   2.28285
   1.31955   0.93723   2.28285
   1.08013   1.17665   2.04343
   0.84071   1.17665   2.04343
   0.84071   0.93723   2.04343
   0.60129   0.93723   1.80401
   0.60129   0.93723   1.80401
   0.36187   0.69781   1.56459
   0.12245   0.69781   1.56459
  -0.11697   0.45839   1.56459
  -0.35639   0.45839   1.32517
  -0.59581   0.45839   1.32517
  -0.59581   0.21897   1.08575
  -0.83523   0.21897   1.08575
  -0.83523   0.21897   0.84633
  -1.07465  -0.02045   0.60691
  -1.31407  -0.02045   0.60691
  -1.31407  -0.02045   0.60691
  -1.31407  -0.02045   0.36749
  -1.55349  -0.02045   0.12807
  -1.55349  -0.02045  -0.11135
  -1.55349  -0.02045  -0.11135
  -1.55349  -0.02045  -0.35077
  -1.55349  -0.02045  -0.35077
  -1.31407  -0.02045  -0.59019
  -1.31407  -0.02045  -0.82961
