********************************************************************************
              CENTRO DE INSTRUMENTACION Y REGISTRO SISMICO  A.C.

    Anaxagoras 814, Col. Narvarte, Benito Juarez, C.P. 03020 Mexico, D.F.
           Tels. 5687 45 42/ 5687 45  82             Fax. 5669 25 12
********************************************************************************
ARCHIVO ESTANDAR DE ACELERACION:
VERSION DEL FORMATO                    : 2.0
NOMBRE DEL ARCHIVO                     : AO2420160508073359
FECHA Y HORA DE CREACION               : 31/MAY/16, 11:10
REF. CATALOGO ACELEROGRAMAS, SMIS 1996 : REGISTRO No.     /PAG.


================================================================================
DATOS DE LA ESTACION:
NOMBRE DE LA ESTACION                  : ALBERCA OLÍMPICA
CLAVE DE LA ESTACION                   : AO24
LOCALIZACION DE LA ESTACION            : Del. Benito Juárez, Col. General Pedro 
                                       : María Anaya, Río Churubusco            
                                       : y División del Norte.                  
                                       :                                        
                                       : 
COORDENADAS DE LA ESTACION             : 19.3580 LAT. N
                                       : 99.1539 LONG. W
ALTITUD (msnm)                         : 2235
TIPO DE SUELO                          : Transición                          
                                       :                           
                                       : 
INSTITUCION RESPONSABLE                : CIRES
                                       : 

================================================================================
DATOS DEL ACELEROGRAFO:
MODELO DEL ACELEROGRAFO                : RADESD
NUMERO DE SERIE DEL ACELEROGRAFO       : 257
NUMERO DE CANALES                      : 3
ORIENTACION C1-C6 (rumbo;orientacion)  : /N00E/+V/N90W
ORIENTACION C7-C12 (rumbo;orientacion) : 
VEL. DE MUESTREO, C1-C6 (muestras/s)   : /100/100/100
VEL. DE MUESTREO, C7-C12 (muestras/s)  : 
ESC. COMPLETA DE SENSORES, C1-C6, (g)  : /0.5/0.5/0.5
ESC. COMPLETA DE SENSORES, C7-C12, (g) : 
FREC. NAT. DE SENSORES, C1-C6, (Hz)    : /30/30/30
FREC. NAT. DE SENSORES, C7-C12, (Hz)   : 
AMORTIGUAMIENTO DE SENSORES, C1-C6     : /0.700/0.700/0.700
AMORTIGUAMIENTO DE SENSORES, C7-C12    : 
INTERVALO DE MUESTREO, C1-C6, (s)      : /0.01/0.01/0.01
INTERVALO DE MUESTREO, C7-C12, (s)     : 
UMBRAL DE DISPARO, C1-C6, (Gal)        : /1.65/3.14/1.95
UMBRAL DE DISPARO, C7-C12, (Gal)       : 
MEMORIA DE PREEVENTO (s)               : 44.0
TIEMPO DE POSEVENTO (s)                : 260.0


================================================================================
DATOS DEL SISMO:
FECHA DEL SISMO (GMT)                  : 08/MAY/16
HORA EPICENTRO (GMT)                   : 07:33:59.0
MAGNITUD(ES)                           : /Mc=6.0
COORDENADAS DEL EPICENTRO              : 16.25 LAT. N
                                       : 97.98 LONG. W
PROFUNDIDAD FOCAL (km)                 : 35
FUENTE DE LOS DATOS EPICENTRALES       : SSN
                                       : INSTITUTO DE GEOFISICA, UNAM

================================================================================
DATOS DE ESTE REGISTRO:
HORA DE LA PRIMERA MUESTRA (GMT)       : 07:35:30.00
EXACTITUD DEL TIEMPO (s)               : 0.01
DURACION DEL REGISTRO (s), C1-C6       : /144.0/144.0/144.0
DURACION DEL REGISTRO (s), C7-C12      : 
NUM. TOTAL DE MUESTRAS, C1-C6          : /14400/14400/14400
NUM. TOTAL DE MUESTRAS, C7-C12         : 
ACEL. MAX. (Gal), C1-C6                : /2.32527/0.85958/3.05269
ACEL. MAX., C1-C6, EN LA MUESTRA       : /4872/4950/4841
ACEL. MAX. (Gal), C7-C12               : 
ACEL. MAX., C7-C12, EN LA MUESTRA      : 
UNIDADES DE LOS DATOS                  : Gal (cm/s/s)
FACTOR DE DECIMACION                   : 1
FORMATO DATOS (FORTRAN,10 campos/dato) : 3F10.5


================================================================================
CALIDAD DEL ACELEROGRAMA:
REGISTRO DIGITAL COMPLETO CON TIEMPO ABSOLUTO CORRECTO.


================================================================================
COMENTARIOS:














================================================================================
DATOS DE ACELERACION:
---------+---------+---------+---------+---------+---------+---------+---------+
   CANAL-1   CANAL-2   CANAL-3   CANAL-4   CANAL-5   CANAL-6   CANAL-7   CANAL-8
      N00E        +V      N90W
---------+---------+---------+---------+---------+---------+---------+---------+
[...]
   1.41567   0.27600   0.52365
   1.44559   0.02161   0.55357
   1.34085  -0.03824   0.71818
   1.26603  -0.03824   0.65832
   1.22114  -0.12802   0.71818
   1.19121   0.12636   0.64336
   1.13135  -0.12802   0.80796
   1.02661  -0.26270   0.98752
   1.02661  -0.21781   1.01745
   0.93682  -0.23277   1.16709
   0.92186  -0.23277   1.39155
   0.86201  -0.24773   1.54118
   0.80215  -0.29262   1.58607
   0.80215  -0.08313   1.79557
   0.84704  -0.05320   1.85542
   0.75726  -0.03824   2.02002
   0.71237  -0.08313   2.07988
   0.65251   0.05154   2.13973
   0.50288   0.03658   2.12477
   0.47295   0.06651   2.16966
   0.29338   0.26103   2.10981
   0.18864   0.23111   2.07988
   0.26346   0.23111   2.06491
  -0.11064   0.20118   2.06491
  -0.30517   0.24607   2.16966
  -0.43984   0.23111   1.96017
  -0.58948   0.20118   1.90031
  -0.73912   0.21614   1.79557
  -0.91868   0.18622   1.78060
  -0.97854   0.18622   1.69082
  -1.08328   0.20118   1.58607
  -1.08328   0.21614   1.43644
  -1.14314   0.21614   1.39155
  -1.18803   0.15629   1.24191
  -1.24788   0.21614   1.19702
  -1.23292   0.23111   1.10723
  -1.33767   0.23111   0.91271
  -1.33767   0.23111   0.83789
  -1.44241   0.23111   1.01745
  -1.29278   0.20118   0.67329
  -1.47234   0.36578   0.62839
  -1.47234   0.20118   0.61343
  -1.51723   0.29096   0.43386
  -1.48730   0.33585   0.46379
  -1.45738   0.42564   0.19444
  -1.47234   0.39571   0.05977
  -1.41249   0.33585  -0.03001
  -1.26285   0.32089  -0.20958
  -1.26285   0.48549  -0.41907
  -1.17307   0.30593  -0.55374
  -1.12817   0.30593  -0.64353
  -1.06832   0.26103  -0.73331
  -0.94861   0.23111  -0.83805
  -0.94861   0.50045  -0.95776
  -0.90372   0.11140  -1.12237
  -0.84386   0.09643  -1.16726
  -0.75408   0.09643  -1.24208
  -0.79897  -0.05320  -1.30193
  -0.76904  -0.02328  -1.45157
  -0.73912   0.06651  -1.54135
  -0.69422   0.05154  -1.54135
  -0.66430   0.12636  -1.75084
  -0.60444   0.11140  -1.79574
  -0.45480   0.26103  -1.82566
  -0.61941   0.42564  -1.97530
  -0.48473   0.47053  -2.02019
  -0.48473   0.63513  -1.99026
  -0.48473   0.66506  -2.09501
  -0.49970   0.66506  -2.15487
  -0.48473   0.66506  -2.18479
  -0.46977   0.76980  -2.25961
  -0.33509   0.56031  -2.22968
  -0.27524   0.57527  -2.27458
  -0.20042   0.44060  -2.16983
  -0.08071   0.30593  -2.09501
  -0.06575   0.24607  -2.03516
   0.09885   0.12636  -1.96034
   0.26346  -0.08313  -1.84063
   0.30835  -0.08313  -1.72092
   0.39813  -0.32255  -1.55632
   0.45798  -0.23277  -1.33186
   0.51784  -0.41233  -1.19719
   0.65251  -0.42730  -1.03258
   0.66748  -0.36744  -0.89791
   0.63755  -0.27766  -0.74827
   0.62259  -0.42730  -0.55374
   0.65251  -0.18788  -0.44900
   0.57769  -0.32255  -0.35921
   0.59266  -0.15795  -0.25447
   0.63755  -0.06817  -0.17965
   0.74230  -0.03824   0.02984
   0.65251   0.15629   0.13459
   0.68244   0.15629   0.11963
   0.72733   0.23111   0.25430
   0.77222   0.35082   0.35905
   0.81711   0.30593   0.49372
   0.98172   0.27600   0.64336
   0.87697   0.32089   0.67329
   0.90690   0.27600   0.82292
   0.93682   0.27600   0.91271
   0.86201   0.36578   1.00249
   0.83208   0.20118   1.06234
   0.89193   0.15629   1.10723
   0.83208   0.20118   1.30176
   0.89193   0.24607   1.30176
   0.69740   0.26103   1.31673
   0.62259   0.21614   1.28680
   0.63755   0.24607   1.42147
   0.53280   0.18622   1.36162
   0.42806   0.21614   1.43644
   0.48791   0.29096   1.58607
   0.53280   0.23111   1.43644
   0.42806   0.32089   1.45140
   0.35324   0.24607   1.40651
   0.29338   0.14132   1.45140
   0.24849   0.06651   1.45140
   0.20360   0.06651   1.43644
   0.21856   0.03658   1.42147
   0.23353  -0.05320   1.45140
   0.15871  -0.08313   1.45140
   0.15871  -0.15795   1.39155
   0.15871  -0.09810   1.37658
   0.06893  -0.17291   1.24191
   0.05396  -0.20284   1.22694
  -0.02086  -0.26270   1.15213
  -0.09567  -0.14299   1.03242
  -0.12560  -0.32255   1.00249
  -0.12560  -0.35248   0.94263
  -0.20042  -0.36744   0.88278
  -0.15553  -0.36744   0.95760
  -0.29020  -0.42730   0.79300
  -0.32013  -0.51708   0.80796
  -0.42488  -0.48715   0.64336
  -0.49970  -0.54701   0.53861
  -0.55955  -0.44226   0.38897
  -0.57451  -0.50212   0.40394
  -0.76904  -0.48715   0.35905
  -0.75408  -0.33752   0.29919
  -0.87379   0.06651   0.20941
  -0.99350   0.26103   0.14955
  -1.06832  -0.05320   0.14955
  -1.15810   0.30593   0.10466
  -1.27781   0.45556   0.01488
  -1.36759   0.48549  -0.04498
  -1.50227   0.56031  -0.11979
  -1.41249   0.41067  -0.23950
  -1.54716   0.47053  -0.26943
  -1.71176   0.33585  -0.34425
  -1.77162   0.27600  -0.25447
  -1.78658   0.26103  -0.41907
  -1.86140   0.11140  -0.47892
  -1.83147   0.02161  -0.50885
  -1.66687   0.11140  -0.55374
  -1.63694  -0.12802  -0.35921
  -1.68183  -0.12802  -0.49389
  -1.60701  -0.29262  -0.37418
  -1.47234  -0.09810  -0.32929
  -1.45738  -0.14299  -0.34425
  -1.30774  -0.15795  -0.38914
  -1.26285  -0.15795  -0.34425
  -1.14314  -0.18788  -0.40411
  -1.02343   0.18622  -0.32929
  -0.97854  -0.15795  -0.37418
  -0.94861  -0.15795  -0.40411
  -0.85883   0.00665  -0.38914
  -0.73912  -0.09810  -0.32929
  -0.78401   0.03658  -0.26943
  -0.72415   0.03658  -0.32929
  -0.57451   0.00665  -0.22454
  -0.58948   0.06651  -0.26943
  -0.55955  -0.05320  -0.22454
  -0.48473  -0.06817  -0.22454
  -0.37999  -0.02328  -0.16469
  -0.30517  -0.11306  -0.23950
  -0.24531  -0.18788  -0.13476
  -0.09567  -0.27766  -0.16469
  -0.02086  -0.32255  -0.11979
   0.08389  -0.27766  -0.20958
   0.11382  -0.29262  -0.05994
   0.27842  -0.30759  -0.19461
   0.41309  -0.38241  -0.13476
   0.53280  -0.35248  -0.13476
   0.53280  -0.26270  -0.07490
   0.65251  -0.35248   0.05977
   0.68244  -0.33752  -0.04498
   0.84704  -0.24773  -0.04498
   0.84704  -0.27766  -8.0E-50
   0.95179  -0.32255   0.10466
   1.05654  -0.29262   0.13459
   1.14632  -0.29262   0.10466
   1.26603  -0.15795   0.13459
   1.22114  -0.05320   0.19444
   1.29596  -0.18788   0.34408
   1.47552  -0.03824   0.35905
   1.52041   0.00665   0.49372
   1.52041   0.02161   0.61343
   1.65509   0.17125   0.68825
   1.75983   0.02161   0.76307
   1.78976   0.14132   0.77803
   1.80472   0.08147   0.76307
   1.90947   0.11140   0.91271
   1.95436  -0.09810   0.94263
   2.01422  -0.02328   0.82292
   2.01422  -0.26270   0.92767
   2.11896  -0.23277   0.95760
   2.13393  -0.23277   0.91271
   2.13393  -0.24773   0.94263
   2.14889  -0.33752   0.88278
   2.07407  -0.30759   0.94263
   2.14889  -0.38241   0.85285
   2.05911  -0.41233   0.91271
   2.04414  -0.32255   0.89774
   1.90947  -0.33752   0.92767
   1.84961  -0.24773   0.91271
   1.65509  -0.21781   0.91271
   1.61019  -0.21781   0.95760
   1.49048  -0.12802   0.91271
   1.35581  -0.12802   0.86781
   1.31092  -0.09810   0.82292
   1.16128   0.00665   0.68825
   1.08646  -0.08313   0.58350
   0.99668  -0.06817   0.43386
   0.96675  -0.11306   0.25430
   0.95179  -0.06817   0.11963
   0.87697  -0.03824   0.07473
   0.84704   0.02161  -0.14972
   0.80215   0.05154  -0.29936
   0.72733  -0.02328  -0.53878
   0.68244  -0.08313  -0.55374
   0.66748  -0.08313  -0.56871
   0.63755  -0.15795  -0.65849
   0.51784  -0.12802  -0.77820
   0.44302  -0.24773  -0.74827
   0.35324  -0.32255  -0.79316
   0.35324  -0.39737  -0.82309
   0.24849  -0.38241  -0.83805
   0.14375  -0.54701  -0.92784
   0.08389  -0.24773  -0.94280
   0.17367  -0.39737  -1.01762
   0.00907  -0.51708  -0.98769
  -0.02086  -0.56197  -1.01762
  -0.06575  -0.48715  -1.09244
  -0.06575  -0.53204  -1.12237
  -0.12560  -0.56197  -1.13733
  -0.17049  -0.50212  -1.21215
  -0.17049  -0.47219  -1.21215
  -0.32013  -0.36744  -1.24208
  -0.32013  -0.36744  -1.21215
  -0.43984  -0.33752  -1.30193
  -0.49970  -0.35248  -1.37675
  -0.60444  -0.21781  -1.46653
  -0.63437  -0.12802  -1.52639
  -0.81394  -0.02328  -1.63113
  -0.81394   0.02161  -1.70595
  -0.94861   0.06651  -1.81070
  -1.00846   0.09643  -1.84063
  -0.88875   0.18622  -1.90048
  -1.05336   0.26103  -1.85559
  -1.23292   0.51542  -1.88552
  -1.32270   0.26103  -1.91545
  -1.27781   0.39571  -1.85559
  -1.35263   0.44060  -1.66106
  -1.36759   0.45556  -1.64610
  -1.36759   0.36578  -1.70595
  -1.41249   0.45556  -1.51142
  -1.36759   0.42564  -1.39171
  -1.36759   0.50045  -1.40668
  -1.47234   0.39571  -1.25704
  -1.42745   0.33585  -1.00266
  -1.41249   0.33585  -0.94280
  -1.47234   0.21614  -0.77820
  -1.42745   0.15629  -0.53878
  -1.44241   0.15629  -0.34425
  -1.57709   0.15629  -0.19461
  -1.53220   0.06651   0.04481
  -1.47234   0.06651   0.20941
  -1.44241   0.15629   0.44883
  -1.33767   0.27600   0.56854
  -1.41249   0.06651   0.76307
  -1.26285   0.09643   0.92767
  -1.29278   0.23111   1.06234
  -1.24788   0.09643   1.22694
  -1.23292   0.06651   1.46636
  -1.14314   0.11140   1.46636
  -1.18803   0.18622   1.66089
  -1.09825   0.06651   1.79557
  -1.03839   0.09643   1.85542
  -1.05336   0.06651   1.94520
  -1.00846   0.05154   2.13973
  -1.03839   0.03658   2.15470
  -1.03839   0.03658   2.31930
  -0.97854   0.03658   2.42405
  -0.94861   0.03658   2.40908
  -0.82890   0.08147   2.55872
  -0.76904   0.24607   2.73828
  -0.75408   0.18622   2.67843
  -0.64933   0.20118   2.81310
  -0.57451   0.18622   2.84303
  -0.48473   0.26103   2.84303
  -0.32013   0.29096   2.79814
  -0.29020   0.32089   2.81310
  -0.23035   0.45556   2.84303
  -0.00589   0.42564   2.97770
   0.05396   0.50045   2.96274
   0.08389   0.48549   2.87296
   0.27842   0.57527   2.82807
   0.29338   0.44060   2.76821
   0.35324   0.57527   2.76821
   0.48791   0.60520   2.63354
   0.54777   0.47053   2.48390
   0.56273   0.47053   2.25944
   0.78719   0.38074   2.15470
   0.83208   0.42564   1.93024
   1.02661   0.53038   1.72075
   1.11639   0.32089   1.51126
   1.22114   0.32089   1.22694
   1.44559   0.29096   1.07731
   1.46056   0.27600   0.82292
   1.65509   0.38074   0.65832
   1.67005   0.18622   0.40394
   1.84961   0.12636   0.25430
   1.89451   0.18622   0.13459
   1.86458   0.20118  -8.0E-50
   1.90947   0.08147  -0.14972
   1.89451   0.11140  -0.26943
   1.86458   0.11140  -0.50885
   1.87954  -0.06817  -0.65849
   1.77480  -0.00831  -0.80813
   1.75983   0.02161  -0.98769
   1.65509  -0.08313  -1.18222
   1.58027  -0.15795  -1.34682
   1.55034  -0.18788  -1.49646
   1.46056  -0.18788  -1.73588
   1.38574  -0.18788  -1.90048
   1.34085  -0.24773  -1.96034
   1.31092  -0.21781  -2.15487
   1.29596  -0.23277  -2.27458
   1.29596  -0.18788  -2.37932
   1.25106  -0.24773  -2.43918
   1.34085  -0.29262  -2.60378
   1.23610  -0.26270  -2.61874
   1.37077  -0.21781  -2.64867
   1.26603  -0.17291  -2.73845
   1.23610  -0.21781  -2.81327
   1.16128  -0.17291  -2.79831
   1.16128  -0.23277  -2.93298
   1.11639  -0.17291  -3.05269
   1.01164  -0.18788  -2.99284
   1.01164  -0.17291  -2.94794
   0.96675  -0.24773  -3.03773
   0.89193  -0.23277  -2.99284
   0.74230  -0.27766  -3.00780
   0.69740  -0.29262  -3.02276
   0.57769  -0.35248  -2.97787
   0.45798  -0.35248  -2.93298
   0.36820  -0.29262  -2.90305
   0.24849  -0.20284  -2.85816
  -0.00589  -0.33752  -2.90305
  -0.12560  -0.27766  -2.82823
  -0.30517  -0.26270  -2.76838
  -0.45480  -0.15795  -2.61874
  -0.78401  -0.18788  -2.63371
  -0.85883   0.00665  -2.51400
  -1.02343  -0.08313  -2.34939
  -1.17307  -0.05320  -2.30450
  -1.44241   0.05154  -2.16983
  -1.62198   0.12636  -1.99026
  -1.68183   0.08147  -1.81070
  -1.84643   0.20118  -1.63113
  -1.92125   0.05154  -1.34682
  -2.10082   0.03658  -1.13733
  -2.11578   0.03658  -0.95776
  -2.13075  -0.02328  -0.79316
  -2.25046   0.02161  -0.65849
  -2.25046   0.05154  -0.46396
  -2.22053   0.06651  -0.35921
  -2.29535  -0.05320  -0.23950
  -2.32527  -0.06817  -0.03001
  -2.29535  -0.02328   0.07473
  -2.28038  -0.06817   0.16452
  -2.17564   0.08147   0.32912
  -2.26542  -0.08313   0.41890
  -2.19060  -0.05320   0.58350
  -2.10082   0.00665   0.62839
  -2.05593   0.00665   0.80796
  -1.99607  -0.08313   0.95760
  -1.98111  -0.08313   1.06234
  -1.90629  -0.06817   1.25687
  -1.87636  -0.12802   1.31673
  -1.74169  -0.06817   1.54118
  -1.71176  -0.12802   1.64593
  -1.71176  -0.15795   1.82549
  -1.57709  -0.12802   1.88535
  -1.59205  -0.15795   1.99010
  -1.53220   0.00665   2.13973
  -1.53220   0.00665   2.24448
  -1.36759   0.14132   2.34923
  -1.38256   0.03658   2.36419
  -1.30774   0.18622   2.34923
  -1.21796   0.14132   2.40908
  -1.02343   0.27600   2.45397
  -1.08328   0.11140   2.39412
  -0.93365   0.09643   2.39412
  -0.87379   0.27600   2.37915
  -0.79897   0.12636   2.40908
  -0.63437   0.11140   2.30433
  -0.61941   0.00665   2.31930
  -0.63437  -0.06817   2.27441
  -0.36502  -0.06817   2.28937
  -0.36502  -0.17291   2.28937
  -0.29020  -0.17291   2.21455
  -0.24531  -0.12802   2.12477
  -0.02086  -0.17291   2.13973
  -0.11064  -0.14299   1.94520
  -0.03582  -0.18788   1.99010
   0.17367  -0.02328   1.97513
   0.27842   0.05154   1.90031
   0.39813   0.03658   1.78060
   0.45798   0.03658   1.70578
   0.65251   0.03658   1.66089
   0.77222   0.11140   1.48133
   0.80215   0.17125   1.24191
   0.95179   0.15629   1.09227
   1.08646   0.02161   0.98752
   1.17625   0.02161   0.77803
   1.19121   0.03658   0.55357
   1.20617  -0.00831   0.46379
   1.35581  -0.11306   0.20941
   1.38574   0.02161   0.05977
   1.47552  -0.06817  -0.17965
   1.49048  -0.02328  -0.25447
   1.53538  -0.08313  -0.43403
   1.49048  -0.05320  -0.59863
   1.56530  -0.09810  -0.73331
   1.68501  -0.08313  -0.76324
   1.64012   0.00665  -0.89791
   1.64012  -0.08313  -0.98769
   1.67005  -0.06817  -1.03258
   1.68501  -0.21781  -1.12237
   1.78976  -0.02328  -1.09244
   1.69998  -0.14299  -1.27200
   1.72990  -0.11306  -1.28697
   1.83465   0.00665  -1.19719
   1.84961   0.09643  -1.30193
   1.80472   0.24607  -1.42164
   1.81969   0.21614  -1.43661
   1.78976   0.27600  -1.48150
   1.71494   0.29096  -1.61617
   1.75983   0.44060  -1.60121
   1.74487   0.38074  -1.61617
   1.68501   0.42564  -1.54135
   1.64012   0.38074  -1.57128
   1.53538   0.39571  -1.52639
   1.59523   0.45556  -1.52639
   1.64012   0.39571  -1.49646
   1.67005   0.85958  -1.28697
   1.65509   0.62016  -1.30193
   1.68501   0.44060  -1.31690
   1.67005   0.38074  -1.15229
   1.69998   0.42564  -1.09244
   1.80472   0.35082  -1.06251
   1.81969   0.50045  -1.03258
   1.74487   0.27600  -0.94280
   1.80472   0.20118  -0.95776
   1.71494   0.20118  -0.97273
   1.67005   0.09643  -0.88295
   1.65509   0.09643  -0.80813
   1.68501   0.14132  -0.89791
   1.44559   0.57527  -0.89791
   1.32588   0.15629  -0.94280
   1.26603   0.17125  -0.88295
   1.16128   0.27600  -0.89791
   1.02661   0.38074  -0.85302
   0.89193   0.24607  -0.88295
   0.90690   0.38074  -0.83805
   0.68244   0.35082  -0.92784
   0.60762   0.32089  -0.83805
   0.60762   0.38074  -0.77820
   0.45798   0.33585  -0.83805
   0.35324   0.44060  -0.68842
   0.27842   0.42564  -0.65849
   0.21856   0.33585  -0.61360
   0.08389   0.33585  -0.55374
  -0.05078   0.18622  -0.40411
  -0.20042   0.15629  -0.37418
  -0.24531   0.02161  -0.28440
  -0.40991   0.11140  -0.10483
  -0.54459  -0.08313  -0.05994
  -0.64933  -0.17291   0.11963
  -0.75408  -0.14299   0.19444
  -0.88875  -0.33752   0.32912
  -0.96357  -0.39737   0.37401
  -1.08328  -0.45723   0.50868
  -1.24788  -0.50212   0.53861
  -1.35263  -0.69665   0.67329
  -1.36759  -0.59190   0.82292
