********************************************************************************
              CENTRO DE INSTRUMENTACION Y REGISTRO SISMICO  A.C.

    Anaxagoras 814, Col. Narvarte, Benito Juarez, C.P. 03020 Mexico, D.F.
           Tels. 5687 45 42/ 5687 45  82             Fax. 5669 25 12
********************************************************************************
ARCHIVO ESTANDAR DE ACELERACION:
VERSION DEL FORMATO                    : 2.0
NOMBRE DEL ARCHIVO                     : AO2420120320180250
FECHA Y HORA DE CREACION               : 04/ABR/12, 11:14
REF. CATALOGO ACELEROGRAMAS, SMIS 1996 : REGISTRO No.     /PAG.


================================================================================
DATOS DE LA ESTACION:
NOMBRE DE LA ESTACION                  : ALBERCA OLÍMPICA
CLAVE DE LA ESTACION                   : AO24
LOCALIZACION DE LA ESTACION            : Del. Benito Juárez, Col. General Pedro 
                                       : María Anaya, Río Churubusco            
                                       : y División del Norte.                  
                                       :                                        
                                       : 
COORDENADAS DE LA ESTACION             : 19.3580 LAT. N
                                       : 99.1539 LONG. W
ALTITUD (msnm)                         : 2235
TIPO DE SUELO                          : Transición                          
                                       :                           
                                       : 
INSTITUCION RESPONSABLE                : CIRES
                                       : 

================================================================================
DATOS DEL ACELEROGRAFO:
MODELO DEL ACELEROGRAFO                : RADESD
NUMERO DE SERIE DEL ACELEROGRAFO       : 257
NUMERO DE CANALES                      : 3
ORIENTACION C1-C6 (rumbo;orientacion)  : /N00E/+V/N90W
ORIENTACION C7-C12 (rumbo;orientacion) : 
VEL. DE MUESTREO, C1-C6 (muestras/s)   : /100/100/100
VEL. DE MUESTREO, C7-C12 (muestras/s)  : 
ESC. COMPLETA DE SENSORES, C1-C6, (g)  : /0.5/0.5/0.5
ESC. COMPLETA DE SENSORES, C7-C12, (g) : 
FREC. NAT. DE SENSORES, C1-C6, (Hz)    : /30/30/30
FREC. NAT. DE SENSORES, C7-C12, (Hz)   : 
AMORTIGUAMIENTO DE SENSORES, C1-C6     : /0.700/0.700/0.700
AMORTIGUAMIENTO DE SENSORES, C7-C12    : 
INTERVALO DE MUESTREO, C1-C6, (s)      : /0.01/0.01/0.01
INTERVALO DE MUESTREO, C7-C12, (s)     : 
UMBRAL DE DISPARO, C1-C6, (Gal)        : /1.68/3.11/1.92
UMBRAL DE DISPARO, C7-C12, (Gal)       : 
MEMORIA DE PREEVENTO (s)               : 56.0
TIEMPO DE POSEVENTO (s)                : 64.0


================================================================================
DATOS DEL SISMO:
FECHA DEL SISMO (GMT)                  : 20/MAR/12
HORA EPICENTRO (GMT)                   : 18:02:50.0
MAGNITUD(ES)                           : /Mc=7.4
COORDENADAS DEL EPICENTRO              : 16.42 LAT. N
                                       : 98.36 LONG. W
PROFUNDIDAD FOCAL (km)                 : 15
FUENTE DE LOS DATOS EPICENTRALES       : SSN
                                       : INSTITUTO DE GEOFISICA, UNAM

================================================================================
DATOS DE ESTE REGISTRO:
HORA DE LA PRIMERA MUESTRA (GMT)       : 18:03:46.00
EXACTITUD DEL TIEMPO (s)               : 0.01
DURACION DEL REGISTRO (s), C1-C6       : /317.75/317.75/317.75
DURACION DEL REGISTRO (s), C7-C12      : 
NUM. TOTAL DE MUESTRAS, C1-C6          : /31775/31775/31775
NUM. TOTAL DE MUESTRAS, C7-C12         : 
ACEL. MAX. (Gal), C1-C6                : /25.22897/7.45441/21.21917
ACEL. MAX., C1-C6, EN LA MUESTRA       : /8549/9114/9380
ACEL. MAX. (Gal), C7-C12               : 
ACEL. MAX., C7-C12, EN LA MUESTRA      : 
UNIDADES DE LOS DATOS                  : Gal (cm/s/s)
FACTOR DE DECIMACION                   : 1
FORMATO DATOS (FORTRAN,10 campos/dato) : 3F10.5


================================================================================
CALIDAD DEL ACELEROGRAMA:
REGISTRO DIGITAL COMPLETO CON TIEMPO ABSOLUTO CORRECTO.


================================================================================
COMENTARIOS:














================================================================================
DATOS DE ACELERACION:
---------+---------+---------+---------+---------+---------+---------+---------+
   CANAL-1   CANAL-2   CANAL-3   CANAL-4   CANAL-5   CANAL-6   CANAL-7   CANAL-8
      N00E        +V      N90W
---------+---------+---------+---------+---------+---------+---------+---------+
[...]
  -2.72348  -1.94775  -0.80749
  -2.48405  -1.70833  -0.80749
  -2.24463  -1.46891  -0.80749
  -2.00521  -0.99007  -0.80749
  -2.00521  -0.75065  -0.56807
  -2.00521  -0.51123  -0.32865
  -2.00521  -0.27180  -0.32865
  -2.24463  -0.03238  -0.32865
  -2.24463  -0.03238  -0.08923
  -2.24463   0.20704  -0.08923
  -2.48405   0.20704   0.15019
  -2.48405   0.44646   0.38961
  -2.48405   0.44646   0.38961
  -2.48405   0.68588   0.62903
  -2.24463   0.92530   0.62903
  -2.00521   1.16472   0.62903
  -1.76579   1.64356   0.86845
  -1.52637   1.64356   1.10787
  -1.28695   2.12240   1.10787
  -1.04753   2.36182   1.10787
  -0.56869   2.36182   1.34729
  -0.32927   2.60124   1.34729
  -0.08985   2.60124   1.34729
   0.14957   2.60124   1.10787
   0.38899   2.36182   1.10787
   0.62841   2.36182   0.86845
   1.10725   2.36182   0.86845
   1.34667   2.36182   0.62903
   1.58609   2.12240   0.38961
   1.82551   2.12240   0.38961
   1.82551   2.12240  -0.08923
   1.82551   1.88298  -0.08923
   1.82551   1.40414  -0.08923
   1.58609   1.40414  -0.08923
   1.58609   0.92530  -0.08923
   1.34667   0.44646   0.15019
   1.10725   0.20704   0.15019
   1.10725  -0.03238   0.15019
   0.86783  -0.27180   0.15019
   0.86783  -0.51123   0.15019
   0.86783  -0.27180   0.15019
   0.86783  -0.51123   0.15019
   0.86783  -0.27180   0.15019
   1.10725  -0.27180   0.15019
   1.10725  -0.27180   0.15019
   1.34667  -0.03238   0.15019
   1.34667  -0.03238   0.15019
   1.34667  -0.03238   0.15019
   1.34667  -0.27180   0.15019
   1.34667  -0.27180   0.15019
   1.10725  -0.51123   0.15019
   1.10725  -0.75065   0.38961
   1.10725  -0.75065   0.62903
   1.10725  -0.99007   0.62903
   1.10725  -1.22949   0.62903
   1.10725  -1.22949   0.86845
   1.10725  -1.46891   0.86845
   1.34667  -1.46891   0.86845
   1.10725  -1.46891   0.86845
   1.10725  -1.46891   0.86845
   1.34667  -1.46891   0.86845
   1.58609  -1.46891   0.62903
   1.58609  -1.22949   0.62903
   1.58609  -1.22949   0.62903
   1.34667  -0.99007   0.62903
   1.10725  -0.99007   0.62903
   0.86783  -0.75065   0.38961
   0.62841  -0.75065   0.38961
   0.38899  -0.75065   0.38961
   0.38899  -0.75065   0.62903
   0.14957  -0.75065   0.62903
  -0.08985  -0.99007   0.38961
  -0.08985  -1.22949   0.86845
   0.14957  -1.46891   0.86845
   0.14957  -1.46891   0.86845
   0.38899  -1.46891   1.34729
   0.62841  -1.70833   1.34729
   0.62841  -1.94775   1.82613
   0.86783  -2.18717   2.06555
   1.10725  -2.18717   2.30497
   1.34667  -1.94775   2.78381
   1.58609  -1.94775   3.02323
   1.34667  -1.70833   3.50207
   1.34667  -1.46891   3.74149
   1.34667  -1.46891   4.22034
   1.10725  -1.22949   4.22034
   1.10725  -0.99007   4.45976
   0.86783  -0.51123   4.69918
   0.62841  -0.27180   4.69918
   0.38899  -0.03238   4.69918
  -0.08985   0.20704   4.45976
  -0.32927   0.44646   4.45976
  -0.56869   0.44646   4.22034
  -0.80811   0.68588   3.74149
  -1.04753   0.68588   3.50207
  -1.04753   0.92530   3.02323
  -1.04753   0.68588   2.54439
  -0.80811   0.68588   2.06555
  -0.56869   0.44646   1.58671
  -0.08985   0.44646   1.34729
  -0.08985   0.44646   0.86845
   0.14957   0.20704   0.62903
   0.38899  -0.03238   0.38961
   0.62841  -0.27180   0.15019
   0.62841  -0.51123  -0.32865
   0.86783  -0.99007  -0.32865
   0.86783  -0.99007  -0.56807
   0.86783  -0.99007  -0.80749
   0.62841  -0.75065  -0.80749
   0.38899  -0.51123  -1.04691
   0.38899  -0.03238  -1.28633
   0.14957   0.20704  -1.28633
  -0.08985   0.68588  -1.52575
  -0.32927   1.16472  -1.52575
  -0.56869   1.40414  -1.52575
  -1.04753   1.64356  -1.76517
  -1.28695   1.40414  -1.76517
  -1.28695   1.40414  -2.00459
  -1.28695   1.40414  -2.00459
  -1.28695   1.16472  -2.48343
  -1.52637   0.92530  -2.72285
  -1.28695   0.44646  -3.20169
  -1.28695  -0.03238  -3.44111
  -1.28695  -0.27180  -3.91995
  -1.04753  -0.51123  -4.15937
  -1.28695  -0.51123  -4.63821
  -1.28695  -0.51123  -4.87763
  -1.28695  -0.51123  -5.11705
  -1.28695  -0.27180  -5.11705
  -1.52637  -0.27180  -5.11705
  -1.28695  -0.03238  -4.87763
  -1.28695  -0.03238  -4.63821
  -1.28695   0.20704  -4.39879
  -1.28695   0.20704  -4.15937
  -1.04753   0.20704  -4.15937
  -1.04753  -0.03238  -3.91995
  -0.80811   0.20704  -3.91995
  -0.56869   0.20704  -3.91995
  -0.32927   0.20704  -3.91995
  -0.08985   0.44646  -3.91995
   0.14957   0.68588  -4.15937
   0.38899   0.68588  -4.39879
   0.62841   1.16472  -4.63821
   0.86783   1.40414  -4.87763
   1.34667   1.64356  -5.11705
   1.58609   1.64356  -5.35647
   1.82551   1.64356  -5.35647
   2.06493   1.64356  -5.35647
   2.06493   1.40414  -5.11705
   2.30435   1.16472  -5.11705
   2.30435   0.68588  -4.63821
   2.06493   0.44646  -4.39879
   2.06493  -0.03238  -4.15937
   2.06493  -0.27180  -3.68053
   2.06493  -0.75065  -3.20169
   1.82551  -0.99007  -2.72285
   2.06493  -1.46891  -2.24401
   2.06493  -1.46891  -1.76517
   2.06493  -1.46891  -1.04691
   2.30435  -0.99007  -0.56807
   2.54377  -0.75065  -0.08923
   2.78319  -0.27180   0.38961
   3.26203   0.20704   1.10787
   3.74087   0.68588   1.34729
   3.98029   1.16472   1.58671
   4.69855   1.40414   1.82613
   5.17739   1.64356   2.06555
   5.41681   1.64356   2.06555
   5.89565   1.64356   2.30497
   6.13507   1.64356   2.06555
   6.37449   1.64356   2.30497
   6.37449   1.40414   2.54439
   6.61391   1.40414   2.54439
   6.37449   1.40414   2.78381
   6.37449   1.40414   3.02323
   6.13507   1.40414   3.26265
   5.89565   1.16472   3.74149
   5.41681   1.16472   3.98092
   5.17739   1.16472   4.45976
   4.93797   0.92530   4.69918
   4.69855   0.68588   5.17802
   4.21971   0.20704   5.65686
   3.98029  -0.27180   6.13570
   3.74087  -0.51123   6.61454
   3.74087  -0.75065   7.09338
   3.50145  -0.99007   7.57222
   3.50145  -0.99007   8.05106
   3.26203  -0.99007   8.29048
   3.02261  -0.99007   8.76932
   2.78319  -0.99007   9.00874
   2.78319  -0.75065   9.48758
   2.78319  -0.51123   9.72700
   2.54377  -0.27180   9.96642
   2.54377   0.20704  10.20584
   2.54377   0.44646  10.20584
   2.54377   0.92530  10.44526
   2.54377   1.16472  10.68468
   2.30435   1.40414  10.92410
   2.30435   1.64356  10.92410
   1.82551   1.88298  11.16352
   1.58609   1.64356  11.40294
   1.34667   1.64356  11.40294
   0.86783   1.40414  11.64236
   0.38899   1.16472  11.40294
  -0.08985   0.92530  11.40294
  -0.56869   0.68588  11.16352
  -1.04753   0.68588  11.16352
  -1.52637   0.20704  10.68468
  -1.76579   0.20704  10.20584
  -1.76579  -0.03238   9.72700
  -2.00521   0.20704   9.00874
  -2.00521  -0.03238   8.29048
  -2.00521   0.20704   7.33280
  -2.00521   0.44646   6.37512
  -2.00521   0.68588   5.65686
  -2.00521   0.92530   4.69918
  -2.00521   1.16472   3.74149
  -2.24463   1.16472   3.02323
  -2.24463   1.40414   2.06555
  -2.24463   1.16472   1.34729
  -2.48405   0.92530   0.86845
  -2.48405   0.68588   0.38961
  -2.72348   0.44646  -0.08923
  -2.96290   0.20704  -0.32865
  -3.20232  -0.03238  -0.56807
  -3.44174  -0.27180  -0.56807
  -3.44174  -0.27180  -0.56807
  -3.44174  -0.51123  -0.80749
  -3.44174  -0.51123  -0.80749
  -3.20232  -0.75065  -0.80749
  -3.20232  -0.51123  -0.80749
  -2.96290  -0.51123  -1.28633
  -3.20232  -0.27180  -1.52575
  -3.20232  -0.27180  -1.76517
  -3.44174  -0.27180  -2.24401
  -3.68116  -0.03238  -2.96227
  -4.16000  -0.03238  -3.44111
  -4.39942  -0.03238  -4.15937
  -4.87826   0.20704  -4.63821
  -5.11768   0.44646  -5.35647
  -5.11768   0.44646  -6.07473
  -5.35710   0.44646  -6.55357
  -5.59652   0.68588  -7.27183
  -5.59652   0.92530  -7.75067
  -5.59652   1.16472  -7.99009
  -5.35710   1.16472  -8.46893
  -5.11768   0.92530  -8.70835
  -4.63884   1.16472  -8.70835
  -4.16000   0.92530  -8.94777
  -3.68116   0.92530  -8.94777
  -2.96290   0.68588  -9.18719
  -2.72348   0.68588  -8.94777
  -2.24463   0.68588  -9.18719
  -1.52637   0.68588  -8.94777
  -1.04753   0.68588  -9.18719
  -0.56869   0.68588  -9.18719
  -0.08985   0.68588  -9.18719
   0.38899   0.68588  -9.18719
   0.62841   0.68588  -9.18719
   0.86783   0.92530  -8.94777
   0.86783   1.16472  -8.70835
   0.86783   1.40414  -8.70835
   0.86783   1.64356  -8.46893
   1.10725   1.88298  -7.99009
   0.86783   1.88298  -7.75067
   0.86783   1.88298  -7.27183
   1.10725   1.88298  -7.03241
   1.10725   1.64356  -6.55357
   1.34667   1.40414  -6.07473
   1.58609   0.92530  -5.83531
   1.82551   0.68588  -5.11705
   2.54377   0.44646  -4.63821
   3.26203   0.20704  -4.39879
   3.74087   0.20704  -3.91995
   4.45913  -0.03238  -3.68053
   4.93797  -0.03238  -3.20169
   5.41681   0.20704  -2.72285
   5.89565   0.20704  -2.48343
   6.37449   0.20704  -2.24401
   6.85333   0.44646  -2.00459
   7.33217   0.44646  -1.52575
   7.57159   0.44646  -1.28633
   7.81101   0.44646  -1.04691
   8.05043   0.44646  -0.80749
   8.52927   0.44646  -0.32865
   8.76869   0.44646  -0.08923
   9.00811   0.68588   0.38961
   9.48695   0.68588   0.86845
   9.96579   0.68588   1.34729
  10.44463   0.92530   1.82613
  10.68405   0.92530   2.30497
  10.92347   1.16472   2.54439
  11.40231   1.16472   3.02323
  11.40231   1.40414   3.50207
  11.64173   1.64356   3.98092
  11.40231   1.64356   4.22034
  11.16289   1.64356   4.69918
  10.92347   1.64356   4.93860
  10.44463   1.64356   5.17802
   9.96579   1.40414   5.41744
   9.48695   1.40414   5.65686
   9.00811   1.16472   5.89628
   8.28985   1.16472   6.13570
   7.81101   1.16472   6.37512
   7.33217   1.16472   6.61454
   6.61391   0.68588   6.85396
   5.89565   0.68588   7.09338
   5.41681   0.20704   7.09338
   4.93797  -0.03238   7.33280
   4.21971  -0.51123   7.57222
   3.74087  -0.75065   7.57222
   3.50145  -0.99007   7.57222
   3.02261  -1.46891   7.33280
   2.54377  -1.94775   7.33280
   2.06493  -2.42659   7.09338
   1.58609  -2.66601   6.85396
   1.10725  -2.90543   6.61454
   0.62841  -3.14485   6.37512
  -0.08985  -2.90543   6.13570
  -0.56869  -2.66601   5.89628
  -1.28695  -2.42659   5.65686
  -1.76579  -2.18717   5.41744
  -2.72348  -1.70833   5.17802
  -3.44174  -1.46891   4.93860
  -4.39942  -0.99007   4.45976
  -5.59652  -0.75065   4.22034
  -6.55420  -0.75065   3.98092
  -7.75130  -0.75065   3.74149
  -8.94840  -0.75065   3.50207
 -10.14550  -0.75065   3.26265
 -11.34260  -0.99007   3.26265
 -12.30028  -0.99007   3.26265
 -13.49738  -1.22949   3.26265
 -14.45506  -1.46891   3.02323
 -15.65216  -1.70833   3.02323
 -16.60984  -1.94775   2.78381
 -17.80695  -1.94775   2.78381
 -18.76463  -1.94775   2.30497
 -19.72231  -2.18717   2.30497
 -20.67999  -2.18717   1.82613
 -21.39825  -2.18717   1.58671
 -22.35593  -2.42659   1.10787
 -23.07419  -2.66601   0.62903
 -23.79245  -2.66601   0.15019
 -24.27129  -2.66601  -0.32865
 -24.75013  -2.66601  -1.04691
 -25.22897  -2.42659  -1.52575
 -25.22897  -1.94775  -2.00459
 -25.22897  -1.70833  -2.72285
 -24.98955  -1.46891  -2.96227
 -24.75013  -1.22949  -3.44111
 -24.51071  -0.99007  -3.68053
 -24.27129  -0.99007  -3.91995
 -23.79245  -0.99007  -4.15937
 -23.55303  -1.22949  -4.39879
 -23.07419  -1.22949  -4.39879
 -22.83477  -1.46891  -4.63821
 -22.59535  -1.46891  -4.63821
 -22.11651  -1.46891  -4.87763
 -21.63767  -1.46891  -5.11705
 -21.15883  -1.22949  -5.59589
 -20.67999  -0.99007  -5.83531
 -20.20115  -0.75065  -6.31415
 -19.72231  -0.51123  -6.79299
 -18.76463  -0.27180  -7.27183
 -18.04637  -0.03238  -7.99009
 -17.08868  -0.03238  -8.46893
 -16.37042  -0.03238  -8.94777
 -15.41274  -0.27180  -9.42661
 -14.21564  -0.51123  -9.90545
 -13.25796  -0.51123 -10.14487
 -12.06086  -0.75065 -10.38429
 -10.86376  -0.99007 -10.62372
  -9.66666  -0.99007 -10.86314
  -8.46956  -1.22949 -11.10256
  -7.27246  -1.22949 -11.10256
  -6.07536  -1.22949 -11.34198
  -4.63884  -1.46891 -11.58140
  -3.44174  -1.22949 -11.82082
  -2.00521  -1.22949 -12.06024
  -0.56869  -1.22949 -12.29966
   0.86783  -0.99007 -12.29966
   2.54377  -0.99007 -12.29966
   3.74087  -0.99007 -12.29966
   5.17739  -0.99007 -12.06024
   6.61391  -1.22949 -12.06024
   7.81101  -1.22949 -11.82082
   9.00811  -1.46891 -11.58140
  10.20521  -1.94775 -11.34198
  11.16289  -2.18717 -11.10256
  12.12058  -2.66601 -11.10256
  13.07826  -2.90543 -10.86314
  14.03594  -3.14485 -10.86314
  14.99362  -3.38427 -10.86314
  15.71188  -3.38427 -10.86314
  16.66956  -3.38427 -10.86314
  17.62724  -3.14485 -10.86314
  18.58492  -3.14485 -10.62372
  19.30318  -2.90543 -10.62372
  20.02144  -2.42659 -10.38429
  20.50028  -2.18717 -10.14487
  20.97912  -1.94775  -9.66603
  21.21854  -1.46891  -9.42661
  21.45796  -1.46891  -8.94777
  21.69738  -1.46891  -8.22951
  21.93680  -1.46891  -7.75067
  21.93680  -1.46891  -7.27183
  21.93680  -1.46891  -6.79299
  22.17622  -1.70833  -6.07473
  22.41564  -1.94775  -5.83531
  22.41564  -2.18717  -5.35647
  22.41564  -2.18717  -5.11705
  22.41564  -2.18717  -4.87763
  22.41564  -2.66601  -4.39879
  22.41564  -2.66601  -4.15937
  22.17622  -2.90543  -3.91995
  21.93680  -2.90543  -3.44111
  21.45796  -3.14485  -2.96227
  20.73970  -3.14485  -2.24401
  20.26086  -3.14485  -1.76517
  19.30318  -3.14485  -0.80749
  18.58492  -3.14485  -0.08923
  17.62724  -3.14485   0.62903
  16.90898  -2.90543   1.34729
  15.95130  -2.66601   2.06555
  15.23304  -2.66601   2.78381
  14.27536  -2.66601   3.50207
  13.31768  -2.42659   3.98092
  12.36000  -2.18717   4.69918
  11.64173  -1.94775   4.93860
  10.44463  -1.70833   5.17802
   9.72637  -1.70833   5.41744
   8.76869  -1.70833   5.65686
   7.81101  -1.46891   5.65686
   6.85333  -1.22949   5.65686
   5.65623  -1.22949   5.41744
   4.93797  -0.75065   5.41744
   3.74087  -0.51123   5.17802
   2.54377  -0.27180   4.93860
   1.58609  -0.03238   4.69918
   0.38899   0.20704   4.45976
  -0.56869   0.20704   4.22034
  -1.76579   0.20704   4.22034
  -2.72348   0.68588   4.22034
  -3.68116   0.92530   4.22034
  -4.39942   1.16472   4.69918
  -5.35710   1.40414   4.93860
  -6.07536   1.40414   5.41744
  -6.55420   1.64356   5.65686
  -7.27246   1.64356   6.37512
  -7.99072   1.64356   6.61454
  -8.70898   1.64356   7.09338
  -8.94840   1.64356   7.57222
  -9.66666   1.64356   7.57222
 -10.14550   1.88298   7.57222
 -10.62434   2.12240   7.81164
 -11.10318   1.88298   7.57222
 -11.34260   1.88298   7.33280
 -11.58202   1.88298   7.33280
 -12.06086   1.64356   7.09338
 -12.30028   1.16472   6.61454
 -12.30028   0.68588   6.37512
 -12.53970   0.68588   5.89628
 -12.53970   0.20704   5.65686
 -12.53970  -0.27180   5.17802
 -12.30028  -0.75065   4.69918
 -12.06086  -0.99007   4.22034
 -11.82144  -1.22949   3.74149
 -11.34260  -1.70833   3.26265
 -10.86376  -1.70833   3.02323
 -10.38492  -1.70833   2.54439
  -9.66666  -1.70833   2.06555
  -9.18782  -1.46891   1.58671
  -8.46956  -1.22949   1.34729
  -7.99072  -0.75065   1.10787
  -7.27246  -0.51123   0.86845
  -6.79362  -0.27180   0.62903
  -6.31478  -0.03238   0.38961
  -5.83594   0.20704   0.38961
  -5.35710   0.44646   0.38961
  -5.11768   0.68588   0.38961
  -4.87826   1.16472   0.15019
  -4.87826   1.40414   0.15019
  -4.63884   1.64356   0.15019
  -4.39942   1.88298  -0.08923
  -4.16000   2.12240  -0.32865
  -3.92058   2.36182  -0.56807
  -3.44174   2.84066  -0.80749
  -2.96290   3.31950  -1.04691
  -2.24463   3.55892  -1.28633
  -1.76579   3.79834  -1.76517
  -1.04753   4.03776  -1.76517
  -0.56869   4.03776  -1.76517
   0.14957   4.03776  -1.76517
   0.62841   3.55892  -1.52575
   0.86783   3.08008  -1.76517
