********************************************************************************
              CENTRO DE INSTRUMENTACION Y REGISTRO SISMICO  A.C.

    Anaxagoras 814, Col. Narvarte, Benito Juarez, C.P. 03020 Mexico, D.F.
           Tels. 5687 45 42/ 5687 45  82             Fax. 5669 25 12
********************************************************************************
ARCHIVO ESTANDAR DE ACELERACION:
VERSION DEL FORMATO                    : 2.0
NOMBRE DEL ARCHIVO                     : AO2419941210161740
FECHA Y HORA DE CREACION               : 05/MAR/18, 11:03
REF. CATALOGO ACELEROGRAMAS, SMIS 1996 : REGISTRO No.     /PAG.


================================================================================
DATOS DE LA ESTACION:
NOMBRE DE LA ESTACION                  : ALBERCA OLÍMPICA
CLAVE DE LA ESTACION                   : AO24
LOCALIZACION DE LA ESTACION            : Del. Benito Juárez, Col. General Pedro 
                                       : María Anaya, Río Churubusco            
                                       : y División del Norte.                  
                                       :                                        
                                       : 
COORDENADAS DE LA ESTACION             : 19.3580 LAT. N
                                       : 99.1539 LONG. W
ALTITUD (msnm)                         : 2235
TIPO DE SUELO                          : Transición                          
                                       :                           
                                       : 
INSTITUCION RESPONSABLE                : CIRES
                                       : 

================================================================================
DATOS DEL ACELEROGRAFO:
MODELO DEL ACELEROGRAFO                : DCA-333
NUMERO DE SERIE DEL ACELEROGRAFO       : 257
NUMERO DE CANALES                      : 3
ORIENTACION C1-C6 (rumbo;orientacion)  : /N00E/+V/N90W
ORIENTACION C7-C12 (rumbo;orientacion) : 
VEL. DE MUESTREO, C1-C6 (muestras/s)   : /100/100/100
VEL. DE MUESTREO, C7-C12 (muestras/s)  : 
ESC. COMPLETA DE SENSORES, C1-C6, (g)  : /0.5/0.5/0.5
ESC. COMPLETA DE SENSORES, C7-C12, (g) : 
FREC. NAT. DE SENSORES, C1-C6, (Hz)    : /30/30/30
FREC. NAT. DE SENSORES, C7-C12, (Hz)   : 
AMORTIGUAMIENTO DE SENSORES, C1-C6     : /0.700/0.700/0.700
AMORTIGUAMIENTO DE SENSORES, C7-C12    : 
INTERVALO DE MUESTREO, C1-C6, (s)      : /0.01/0.01/0.01
INTERVALO DE MUESTREO, C7-C12, (s)     : 
UMBRAL DE DISPARO, C1-C6, (Gal)        : /2.2/2.93/2.2
UMBRAL DE DISPARO, C7-C12, (Gal)       : 
MEMORIA DE PREEVENTO (s)               : 4.0
TIEMPO DE POSEVENTO (s)                : 0.0


================================================================================
DATOS DEL SISMO:
FECHA DEL SISMO (GMT)                  : 10/DIC/94
HORA EPICENTRO (GMT)                   : 16:17:40.0
MAGNITUD(ES)                           : /Mc=6.6
COORDENADAS DEL EPICENTRO              : 17.98 LAT. N
                                       : 101.52 LONG. W
PROFUNDIDAD FOCAL (km)                 : 53
FUENTE DE LOS DATOS EPICENTRALES       : SSN
                                       : INSTITUTO DE GEOFISICA, UNAM

================================================================================
DATOS DE ESTE REGISTRO:
HORA DE LA PRIMERA MUESTRA (GMT)       : 16:18:38.03
EXACTITUD DEL TIEMPO (s)               : 0.01
DURACION DEL REGISTRO (s), C1-C6       : /113.88/113.88/113.88
DURACION DEL REGISTRO (s), C7-C12      : 
NUM. TOTAL DE MUESTRAS, C1-C6          : /11388/11388/11388
NUM. TOTAL DE MUESTRAS, C7-C12         : 
ACEL. MAX. (Gal), C1-C6                : /10.83185/3.40242/8.62825
ACEL. MAX., C1-C6, EN LA MUESTRA       : /3948/3407/4338
ACEL. MAX. (Gal), C7-C12               : 
ACEL. MAX., C7-C12, EN LA MUESTRA      : 
UNIDADES DE LOS DATOS                  : Gal (cm/s/s)
FACTOR DE DECIMACION                   : 1
FORMATO DATOS (FORTRAN,10 campos/dato) : 3F10.5


================================================================================
CALIDAD DEL ACELEROGRAMA:
REGISTRO DIGITAL COMPLETO CON TIEMPO ABSOLUTO CORRECTO.


================================================================================
COMENTARIOS:














================================================================================
DATOS DE ACELERACION:
---------+---------+---------+---------+---------+---------+---------+---------+
   CANAL-1   CANAL-2   CANAL-3   CANAL-4   CANAL-5   CANAL-6   CANAL-7   CANAL-8
      N00E        +V      N90W
---------+---------+---------+---------+---------+---------+---------+---------+
[...]
  -2.09684   0.42830  -4.77928
  -2.09684   0.42830  -4.77928
  -2.09684   0.90714  -4.77928
  -2.09684   0.90714  -4.77928
  -2.09684   0.90714  -4.30044
  -2.09684   0.90714  -4.30044
  -2.09684   0.90714  -3.82160
  -1.61800   0.90714  -3.82160
  -1.61800   0.90714  -3.34276
  -1.61800   0.90714  -3.34276
  -1.61800   0.90714  -2.86392
  -1.13916   0.90714  -2.86392
  -1.13916   0.90714  -2.38508
  -0.66032   0.90714  -2.38508
  -0.66032   0.90714  -1.90624
  -0.66032   0.90714  -1.42740
  -0.18148   1.38598  -1.42740
  -0.18148   1.38598  -1.42740
   0.29736   1.38598  -0.94856
   0.29736   1.38598  -0.46972
   0.29736   1.38598  -0.46972
   0.77620   1.38598   0.00912
   0.77620   1.38598   0.00912
   0.77620   1.86482   0.00912
   1.25504   1.86482   0.00912
   1.25504   1.86482   0.00912
   1.25504   1.86482   0.00912
   1.25504   1.86482   0.48796
   1.25504   1.86482   0.00912
   1.25504   1.86482   0.48796
   1.25504   1.86482   0.48796
   1.73388   1.86482   0.48796
   1.73388   1.38598   0.48796
   1.73388   1.38598   0.48796
   2.21272   0.90714   0.48796
   2.21272   0.90714   0.48796
   2.69156   0.42830   0.48796
   2.69156  -0.05054   0.48796
   2.69156  -0.05054   0.48796
   2.69156  -0.05054   0.48796
   2.69156  -0.52938   0.48796
   3.17040  -0.52938   0.48796
   3.17040  -0.52938   0.48796
   3.17040  -0.05054   0.48796
   3.17040  -0.05054   0.96681
   3.17040  -0.05054   0.96681
   2.69156  -0.05054   0.96681
   2.69156   0.42830   0.96681
   2.69156   0.42830   0.96681
   2.69156   0.90714   0.96681
   2.21272   0.90714   1.44565
   2.21272   0.90714   1.44565
   2.69156   0.90714   1.44565
   2.69156   0.90714   1.44565
   2.69156   0.90714   1.44565
   2.69156   0.42830   1.44565
   3.17040   0.42830   1.44565
   3.17040  -0.05054   1.44565
   3.17040  -0.05054   1.44565
   3.17040  -0.52938   1.44565
   3.64924  -0.52938   1.44565
   3.64924  -1.00822   1.44565
   3.64924  -1.00822   0.96681
   3.17040  -1.00822   0.96681
   3.17040  -1.00822   0.48796
   3.17040  -1.00822   0.48796
   2.69156  -1.00822   0.00912
   2.21272  -1.00822   0.00912
   2.21272  -1.00822  -0.46972
   1.73388  -1.48706  -0.94856
   1.73388  -1.48706  -1.42740
   1.25504  -1.48706  -1.42740
   1.25504  -1.48706  -1.90624
   0.77620  -1.96590  -1.90624
   0.29736  -1.48706  -1.90624
  -0.18148  -1.48706  -1.90624
  -0.18148  -1.48706  -2.38508
  -0.66032  -1.48706  -2.38508
  -0.66032  -1.00822  -2.38508
  -1.13916  -1.00822  -2.38508
  -1.61800  -1.00822  -2.86392
  -1.61800  -0.52938  -2.86392
  -1.61800  -0.52938  -2.86392
  -1.61800  -0.52938  -2.86392
  -2.09684  -0.05054  -3.34276
  -2.09684  -0.05054  -3.34276
  -2.09684   0.42830  -3.34276
  -2.09684   0.42830  -3.34276
  -2.57568   0.42830  -3.82160
  -2.09684   0.42830  -3.82160
  -2.09684   0.42830  -4.30044
  -2.09684   0.42830  -4.30044
  -2.57568   0.42830  -4.77928
  -2.57568  -0.05054  -4.77928
  -2.57568  -0.05054  -4.77928
  -2.57568  -0.52938  -4.77928
  -2.09684  -0.52938  -4.77928
  -2.09684  -1.00822  -4.77928
  -2.09684  -1.00822  -4.77928
  -1.61800  -1.00822  -4.30044
  -1.13916  -1.00822  -4.30044
  -1.13916  -1.00822  -3.82160
  -1.13916  -1.00822  -3.34276
  -0.66032  -1.00822  -3.34276
  -0.18148  -0.52938  -2.86392
   0.29736  -0.52938  -2.38508
   0.29736  -0.52938  -1.90624
   0.77620  -0.05054  -1.42740
   1.25504  -0.05054  -1.42740
   1.25504   0.42830  -0.94856
   1.25504   0.42830  -0.46972
   1.25504   0.90714  -0.46972
   1.25504   0.90714   0.00912
   1.73388   0.90714   0.00912
   1.73388   1.38598   0.00912
   1.73388   1.38598   0.00912
   1.73388   1.38598   0.48796
   2.21272   1.38598   0.48796
   2.21272   1.38598   0.96681
   2.21272   1.86482   1.44565
   2.21272   1.86482   1.92449
   2.69156   1.86482   2.40333
   2.69156   1.86482   2.88217
   2.69156   1.86482   3.36101
   3.17040   1.86482   3.83985
   3.17040   1.86482   4.31869
   3.17040   1.86482   4.79753
   3.17040   1.86482   5.27637
   3.17040   1.86482   5.27637
   3.64924   1.86482   5.75521
   3.64924   1.86482   5.75521
   3.17040   1.86482   6.23405
   3.17040   1.38598   6.23405
   3.17040   1.38598   6.23405
   3.17040   1.38598   6.23405
   2.69156   0.90714   6.23405
   2.69156   0.90714   6.23405
   2.69156   0.42830   6.23405
   2.21272   0.42830   6.23405
   2.21272  -0.05054   6.23405
   2.21272  -0.52938   6.23405
   1.73388  -0.52938   5.75521
   1.73388  -1.00822   5.75521
   1.73388  -1.00822   5.75521
   1.73388  -1.00822   5.27637
   1.25504  -1.00822   5.27637
   1.25504  -1.48706   4.79753
   1.25504  -1.48706   4.79753
   0.29736  -1.48706   4.79753
   0.77620  -1.00822   4.79753
   0.29736  -1.00822   4.79753
  -0.18148  -1.00822   4.31869
  -0.18148  -1.00822   4.31869
  -0.66032  -1.00822   4.31869
  -1.13916  -1.00822   4.31869
  -1.13916  -1.00822   4.31869
  -1.61800  -1.00822   3.83985
  -2.09684  -1.48706   3.83985
  -2.09684  -1.00822   3.83985
  -2.09684  -1.00822   3.36101
  -2.09684  -1.00822   3.36101
  -2.57568  -1.00822   2.88217
  -2.57568  -0.52938   2.40333
  -2.57568  -0.52938   1.92449
  -2.57568  -0.52938   1.92449
  -2.57568  -0.52938   1.44565
  -2.57568  -0.05054   0.96681
  -3.05452  -0.05054   0.48796
  -3.05452  -0.05054   0.00912
  -3.05452  -0.05054   0.00912
  -3.05452  -0.05054   0.00912
  -3.53336  -0.05054  -0.46972
  -3.53336  -0.05054  -0.46972
  -3.53336  -0.05054  -0.94856
  -3.53336  -0.52938  -0.94856
  -4.01220  -0.52938  -0.94856
  -4.01220  -0.52938  -1.42740
  -4.01220  -1.00822  -1.42740
  -4.01220  -1.00822  -1.42740
  -4.01220  -1.00822  -1.90624
  -4.01220  -1.00822  -2.38508
  -4.01220  -1.00822  -2.38508
  -4.01220  -1.48706  -2.86392
  -4.01220  -1.48706  -2.86392
  -4.01220  -1.48706  -3.34276
  -4.01220  -1.00822  -3.34276
  -4.01220  -1.00822  -3.34276
  -4.01220  -1.00822  -3.82160
  -4.01220  -1.00822  -3.82160
  -4.01220  -1.00822  -3.82160
  -4.01220  -0.52938  -4.30044
  -4.01220  -0.52938  -4.30044
  -4.01220  -0.52938  -4.30044
  -4.01220  -0.52938  -4.30044
  -4.01220  -0.52938  -4.30044
  -4.49104  -0.52938  -4.30044
  -4.49104  -0.52938  -3.82160
  -4.49104  -0.52938  -3.82160
  -4.49104  -0.52938  -3.34276
  -4.49104  -0.52938  -3.34276
  -4.49104  -0.52938  -2.86392
  -4.49104  -0.52938  -2.86392
  -4.01220  -0.52938  -2.38508
  -4.01220  -0.52938  -1.90624
  -3.53336  -0.52938  -1.90624
  -3.05452  -0.52938  -1.42740
  -2.57568  -0.52938  -0.94856
  -2.57568  -1.00822  -0.46972
  -2.09684  -1.00822  -0.46972
  -1.61800  -0.52938   0.00912
  -1.13916  -0.52938   0.00912
  -0.66032  -0.52938   0.48796
  -0.18148  -0.52938   0.48796
   0.29736  -0.52938   0.96681
   0.29736  -0.05054   0.96681
   0.77620  -0.05054   1.44565
   0.77620  -0.05054   1.44565
   1.25504  -0.05054   1.44565
   1.25504   0.42830   1.92449
   1.25504   0.42830   2.40333
   1.73388   0.42830   2.40333
   2.21272   0.42830   2.88217
   2.21272   0.42830   2.88217
   2.69156   0.42830   3.36101
   3.17040   0.42830   3.83985
   3.17040   0.42830   3.83985
   3.64924   0.90714   4.31869
   3.64924   0.90714   4.31869
   3.64924   0.90714   4.31869
   3.64924   0.90714   4.31869
   4.12808   1.38598   4.79753
   4.12808   1.38598   4.79753
   4.12808   1.86482   5.27637
   4.12808   1.86482   5.27637
   4.12808   1.86482   5.27637
   4.60693   2.34366   5.27637
   4.60693   2.34366   4.79753
   4.60693   2.34366   4.79753
   4.60693   2.82250   4.31869
   4.60693   2.82250   4.31869
   5.08577   2.82250   3.83985
   5.08577   2.34366   3.83985
   5.08577   2.34366   3.36101
   5.08577   2.34366   2.88217
   5.08577   2.34366   2.40333
   4.60693   2.34366   1.92449
   4.60693   1.86482   1.44565
   4.60693   1.86482   1.44565
   4.12808   1.38598   0.96681
   4.12808   1.38598   0.96681
   3.64924   0.90714   0.48796
   3.64924   0.90714   0.48796
   3.17040   0.42830   0.48796
   3.17040   0.42830   0.48796
   2.69156  -0.05054   0.00912
   2.69156  -0.05054   0.00912
   2.69156  -0.05054   0.00912
   2.21272  -0.05054   0.00912
   1.73388  -0.52938  -0.46972
   1.73388  -0.05054  -0.94856
   1.25504  -0.05054  -0.94856
   0.77620  -0.05054  -1.42740
   0.29736  -0.05054  -1.90624
  -0.18148  -0.05054  -2.38508
  -1.13916   0.42830  -3.34276
  -1.61800   0.42830  -3.34276
  -2.09684   0.42830  -3.82160
  -2.57568   0.90714  -4.30044
  -3.05452   0.90714  -4.77928
  -3.53336   0.90714  -5.25812
  -4.01220   0.90714  -5.73696
  -4.49104   0.90714  -6.21580
  -4.49104   0.42830  -6.21580
  -4.96988   0.90714  -6.21580
  -4.96988   0.90714  -6.21580
  -4.96988   0.42830  -6.21580
  -5.44872   0.42830  -5.73696
  -5.44872   0.42830  -5.73696
  -5.44872   0.42830  -5.25812
  -5.92756   0.42830  -5.25812
  -5.92756   0.42830  -4.77928
  -6.40640   0.42830  -4.30044
  -6.40640   0.90714  -4.30044
  -6.40640   0.90714  -4.30044
  -6.40640   0.90714  -4.30044
  -6.40640   0.90714  -4.30044
  -6.40640   0.90714  -4.77928
  -5.92756   0.90714  -4.77928
  -5.92756   0.42830  -5.25812
  -5.92756   0.42830  -5.25812
  -5.44872   0.42830  -5.73696
  -5.44872  -0.05054  -5.73696
  -5.44872  -0.05054  -5.73696
  -5.44872  -0.52938  -6.21580
  -5.44872  -0.52938  -5.73696
  -5.44872  -1.00822  -5.73696
  -5.44872  -1.00822  -5.25812
  -5.92756  -1.00822  -5.25812
  -6.40640  -1.48706  -4.77928
  -5.92756  -1.48706  -4.30044
  -5.92756  -1.48706  -3.82160
  -5.92756  -1.48706  -3.82160
  -5.92756  -1.48706  -3.34276
  -5.92756  -1.48706  -3.34276
  -5.92756  -1.48706  -2.86392
  -5.44872  -1.48706  -2.86392
  -4.96988  -1.00822  -2.38508
  -4.49104  -1.00822  -2.38508
  -4.01220  -1.00822  -2.38508
  -3.53336  -1.00822  -2.38508
  -3.05452  -1.00822  -1.90624
  -2.57568  -1.00822  -1.90624
  -2.09684  -1.00822  -1.90624
  -1.61800  -1.00822  -1.42740
  -1.13916  -1.48706  -1.42740
  -1.13916  -1.48706  -1.42740
  -0.66032  -1.48706  -0.94856
  -0.18148  -1.48706  -0.46972
   0.29736  -1.48706   0.00912
   1.25504  -1.48706   0.00912
   1.73388  -1.48706   0.00912
   2.21272  -1.48706   0.48796
   2.69156  -1.00822   0.48796
   3.64924  -1.00822   0.96681
   4.12808  -1.00822   0.96681
   4.60693  -1.00822   0.96681
   5.56461  -0.52938   1.44565
   6.04345  -0.52938   1.44565
   6.52229  -0.05054   1.44565
   7.00113  -0.05054   1.44565
   7.47997  -0.05054   1.92449
   7.95881  -0.05054   1.92449
   7.95881  -0.05054   1.92449
   8.43765  -0.05054   1.92449
   8.43765  -0.05054   1.92449
   8.91649  -0.05054   1.92449
   8.91649  -0.05054   2.40333
   9.39533  -0.05054   2.40333
   9.39533  -0.05054   2.40333
   9.39533  -0.05054   2.40333
   9.87417  -0.05054   2.40333
   9.87417  -0.05054   2.40333
   9.87417  -0.05054   2.40333
  10.35301   0.42830   2.88217
  10.35301   0.42830   2.88217
  10.35301   0.42830   2.88217
  10.83185   0.42830   3.36101
  10.35301   0.42830   3.36101
  10.83185   0.42830   3.83985
  10.83185   0.42830   3.83985
  10.83185   0.42830   3.83985
  10.83185   0.42830   3.83985
  10.83185   0.42830   3.83985
  10.35301   0.42830   3.83985
  10.35301   0.42830   3.83985
  10.35301   0.42830   3.83985
  10.35301   0.42830   3.83985
   9.87417   0.42830   3.36101
   9.39533   0.42830   3.36101
   9.39533   0.42830   3.36101
   8.91649   0.42830   3.36101
   8.43765   0.42830   3.36101
   8.43765  -0.05054   3.36101
   7.95881  -0.05054   3.36101
   7.47997  -0.05054   3.36101
   7.00113  -0.52938   3.36101
   6.52229  -0.52938   3.36101
   5.56461  -1.00822   3.36101
   5.08577  -1.00822   3.36101
   4.60693  -1.00822   2.88217
   3.64924  -1.48706   2.88217
   3.17040  -1.48706   2.40333
   2.21272  -1.48706   2.40333
   1.25504  -1.00822   1.92449
   0.77620  -1.00822   1.44565
  -0.18148  -1.00822   1.44565
  -1.13916  -1.00822   0.96681
  -1.61800  -0.52938   0.48796
  -2.57568  -0.05054   0.48796
  -3.05452  -0.05054   0.48796
  -4.01220   0.42830   0.00912
  -4.49104   0.42830   0.00912
  -4.96988   0.90714   0.00912
  -5.44872   0.90714   0.00912
  -5.92756   1.38598   0.00912
  -6.40640   1.38598   0.00912
  -6.40640   1.38598  -0.46972
  -6.88524   1.38598  -0.46972
  -6.88524   1.38598  -0.94856
  -7.36408   0.90714  -0.94856
  -7.36408   0.90714  -0.94856
  -7.36408   0.90714  -1.42740
  -7.36408   0.42830  -1.42740
  -7.84292   0.42830  -1.90624
  -7.84292   0.42830  -1.90624
  -7.84292  -0.05054  -2.38508
  -7.84292  -0.05054  -2.38508
  -7.84292  -0.05054  -2.86392
  -8.32176  -0.52938  -2.86392
  -8.32176  -0.52938  -2.86392
  -8.32176  -0.52938  -2.86392
  -8.32176  -0.52938  -2.86392
  -8.32176  -0.52938  -2.38508
  -8.32176  -0.52938  -2.38508
  -8.80060  -0.52938  -2.38508
  -8.32176  -0.52938  -1.90624
  -8.32176  -0.52938  -1.90624
  -8.32176  -0.52938  -1.42740
  -8.32176  -0.52938  -0.94856
  -7.84292  -1.00822  -0.94856
  -7.84292  -1.00822  -0.46972
  -7.36408  -1.00822  -0.46972
  -6.88524  -1.00822   0.00912
  -6.40640  -1.00822  -0.46972
  -6.40640  -1.00822   0.00912
  -5.92756  -1.00822  -0.46972
  -5.44872  -1.00822  -0.46972
  -4.96988  -1.00822  -0.46972
  -4.96988  -0.52938  -0.46972
  -4.49104  -0.52938  -0.46972
  -4.49104  -0.52938  -0.46972
  -4.01220  -0.52938  -0.46972
  -3.53336  -0.05054  -0.46972
  -3.53336  -0.05054   0.00912
  -3.05452   0.42830  -0.46972
  -3.05452   0.42830   0.00912
  -2.57568   0.90714   0.00912
  -2.09684   0.90714   0.00912
  -1.61800   0.90714   0.00912
  -1.13916   0.90714   0.48796
  -0.66032   0.90714   0.48796
  -0.18148   0.90714   0.48796
   0.29736   0.90714   0.96681
   0.77620   0.90714   0.96681
   1.25504   0.90714   1.44565
   1.73388   0.42830   1.44565
   1.73388   0.42830   1.44565
   2.21272   0.42830   1.92449
   2.21272  -0.05054   1.92449
   2.69156  -0.05054   1.92449
   2.69156  -0.05054   1.92449
   2.69156  -0.52938   1.92449
   2.69156  -0.52938   2.40333
   2.69156  -1.00822   1.92449
   2.69156  -0.52938   1.92449
   3.17040  -0.52938   1.92449
   3.17040  -0.52938   1.92449
   3.17040  -0.05054   2.40333
   3.17040  -0.05054   1.92449
   2.69156   0.42830   1.92449
   3.17040   0.42830   2.40333
   2.69156   0.90714   1.92449
   2.69156   0.90714   1.92449
   2.69156   0.90714   1.92449
   2.69156   1.38598   1.92449
   2.69156   1.38598   1.92449
   3.17040   1.38598   1.44565
   3.17040   1.38598   0.96681
   3.17040   1.38598   0.96681
   3.17040   1.38598   0.96681
   3.17040   1.38598   0.48796
   3.17040   1.38598   0.48796
   2.69156   0.90714   0.48796
   2.69156   0.90714   0.48796
   2.69156   0.90714   0.48796
   2.69156   0.90714   0.48796
   2.69156   0.90714   0.48796
   2.69156   0.90714   0.48796
   2.21272   0.90714   0.96681
   2.21272   0.90714   1.44565
   2.21272   0.42830   1.44565
   1.73388   0.42830   1.44565
   1.73388  -0.05054   1.44565
   1.25504  -0.05054   1.44565
   1.25504  -0.52938   1.44565
   1.25504  -0.52938   1.44565
   0.77620  -1.00822   1.44565
   1.25504  -1.00822   1.44565
   0.77620  -1.00822   0.96681
   0.77620  -1.48706   0.96681
   0.29736  -1.48706   0.48796
   0.29736  -1.48706   0.00912
  -0.18148  -1.48706   0.00912
   0.29736  -1.48706  -0.46972
  -0.18148  -1.00822  -0.46972
  -0.18148  -1.00822  -0.46972
  -0.18148  -0.52938  -0.94856
  -0.66032  -0.52938  -0.94856
  -0.66032  -0.52938  -1.42740
  -1.13916  -0.05054  -1.42740
  -1.61800  -0.05054  -1.42740
  -1.61800  -0.05054  -1.42740
  -2.09684   0.42830  -1.90624
  -2.57568   0.42830  -1.90624
  -3.05452   0.90714  -1.90624
  -3.53336   0.90714  -2.38508
