********************************************************************************
               CENTRO DE INSTRUMENTACION Y REGISTRO SISMICO  A.C.  
                       Coordinacion de Servicios Tecnicos
     Anaxagoras 814, Col. Narvarte, Benito Juarez, C.P. 03020 Mexico, D.F.
            Tels. 687 45 42/ 687 45  82             Fax. 669 25 12
********************************************************************************
ARCHIVO ESTANDAR DE ACELERACION:
VERSION DEL FORMATO                    : 2.0
NOMBRE DEL ARCHIVO                     : AO240401.012
FECHA Y HORA DE CREACION               : 08/NOV/04, 12:00
REF. CATALOGO ACELEROGRAMAS, SMIS 1996 : REGISTRO No.     /PAG.


================================================================================
DATOS DE LA ESTACION:
NOMBRE DE LA ESTACION                  : ALBERCA OLIMPICA
CLAVE DE LA ESTACION                   : AO24
LOCALIZACION DE LA ESTACION            : Alberca Olimpica Rio Churubusco y
                                       : Division del Norte, Col Pedro Ma
                                       : Anaya, Benito Juarez
                                       :
                                       :
COORDENADAS DE LA ESTACION             : 19.358 LAT. N 
                                       : 99.154 LONG. W 
ALTITUD (msnm)                         : 2235
TIPO DE SUELO                          : TRANSICION
                                       : 
                                       : 
INSTITUCION RESPONSABLE                : CIRES
                                       :

================================================================================
DATOS DEL ACELEROGRAFO:
MODELO DEL ACELEROGRAFO                : RAD-851
NUMERO DE SERIE DEL ACELEROGRAFO       : 257
NUMERO DE CANALES                      : 3
ORIENTACION C1-C6 (rumbo;orientacion)  : /N00E/+V/N90W
ORIENTACION C7-C12 (rumbo;orientacion) :
VEL. DE MUESTREO, C1-C6 (muestras/s)   : /100/100/100
VEL. DE MUESTREO, C7-C12 (muestras/s)  :
ESC. COMPLETA DE SENSORES, C1-C6, (g)  : /0.5/0.5/0.5
ESC. COMPLETA DE SENSORES, C7-C12, (g) :
FREC. NAT. DE SENSORES, C1-C6, (Hz)    : /30/30/30
FREC. NAT. DE SENSORES, C7-C12, (Hz)   :
AMORTIGUAMIENTO DE SENSORES, C1-C6     : /0.700/0.700/0.700
AMORTIGUAMIENTO DE SENSORES, C7-C12    :
INTERVALO DE MUESTREO, C1-C6, (s)      : /0.01/0.01/0.01
INTERVALO DE MUESTREO, C7-C12, (s)     :
UMBRAL DE DISPARO, C1-C6, (Gal)        : /1.95/2.93/1.95
UMBRAL DE DISPARO, C7-C12, (Gal)       :
MEMORIA DE PREEVENTO (s)               : 24
TIEMPO DE POSEVENTO (s)                : 64


================================================================================
DATOS DEL SISMO:
FECHA DEL SISMO (GMT)                  : 01/ENE/04
HORA EPICENTRO (GMT)                   : 23:57:56,0
MAGNITUD(ES)                           : /Mc=5.8
COORDENADAS DEL EPICENTRO              : 16.97 LAT. N
                                       : 98.97 LONG. W
PROFUNDIDAD FOCAL (km)                 : 10
FUENTE DE LOS DATOS EPICENTRALES       : SSN
                                       : INSTITUTO DE GEOFISICA, UNAM 

================================================================================
DATOS DE ESTE REGISTRO:
HORA DE LA PRIMERA MUESTRA (GMT)       : 23:59:45.00
EXACTITUD DEL TIEMPO (s)               : 0.01
DURACION DEL REGISTRO (s), C1-C6       : /110.75/110.75/110.75
DURACION DEL REGISTRO (s), C7-C12      :
NUM. TOTAL DE MUESTRAS, C1-C6          : /11075/11075/11075
NUM. TOTAL DE MUESTRAS, C7-C12         :
ACEL. MAX. (Gal), C1-C6                : /-2.42439/-0.61494/1.73839
ACEL. MAX., C1-C6, EN LA MUESTRA       :
ACEL. MAX. (Gal), C7-C12               :
ACEL. MAX., C7-C12, EN LA MUESTRA      :
UNIDADES DE LOS DATOS                  : Gal (cm/s/s)
FACTOR DE DECIMACION                   : 1
FORMATO DATOS (FORTRAN,10 campos/dato) : 3F10.5


================================================================================
CALIDAD DEL ACELEROGRAMA:
REGISTRO DIGITAL COMPLETO CON TIEMPO ABSOLUTO CORRECTO.


================================================================================
COMENTARIOS:














================================================================================
DATOS DE ACELERACION:
---------+---------+---------+---------+---------+---------+---------+---------+
   CANAL-1   CANAL-2   CANAL-3   CANAL-4   CANAL-5   CANAL-6   CANAL-7   CANAL-8
      N00E        +V      N90W
---------+---------+---------+---------+---------+---------+---------+---------+
[...]
   0.20922   0.10331   0.06245
   0.20922  -0.13611   0.06245
   0.44864  -0.13611   0.06245
   0.44864  -0.13611   0.06245
   0.20922  -0.13611   0.06245
   0.44864   0.10331   0.06245
   0.44864  -0.13611   0.06245
   0.44864  -0.13611   0.06245
   0.44864  -0.13611   0.06245
   0.20922  -0.13611   0.06245
   0.20922   0.10331   0.06245
   0.44864   0.10331   0.06245
   0.44864   0.10331  -0.17696
   0.44864   0.10331  -0.17696
   0.44864   0.10331  -0.17696
   0.44864   0.10331  -0.17696
   0.44864   0.10331  -0.17696
   0.44864   0.10331  -0.17696
   0.44864   0.10331   0.06245
   0.44864   0.10331  -0.17696
   0.20922   0.10331   0.06245
   0.20922   0.10331   0.06245
   0.20922   0.10331   0.06245
   0.20922   0.10331   0.06245
  -0.03020   0.10331   0.06245
   0.20922   0.10331   0.06245
   0.20922   0.10331   0.30187
  -0.03020  -0.13611   0.30187
  -0.03020  -0.13611   0.30187
  -0.03020  -0.13611   0.30187
  -0.03020  -0.13611   0.30187
  -0.03020  -0.13611   0.06245
  -0.03020  -0.13611   0.06245
  -0.26962  -0.13611   0.06245
  -0.26962  -0.37553   0.06245
  -0.26962  -0.13611   0.06245
  -0.26962  -0.37553   0.06245
  -0.26962  -0.13611   0.06245
  -0.50904  -0.13611  -0.17696
  -0.50904  -0.13611   0.06245
  -0.50904  -0.13611  -0.17696
  -0.50904  -0.13611  -0.17696
  -0.50904   0.10331  -0.17696
  -0.74846   0.10331  -0.17696
  -0.50904   0.10331   0.06245
  -0.50904   0.10331  -0.17696
  -0.74846   0.10331  -0.17696
  -0.50904   0.10331   0.06245
  -0.74846   0.10331   0.06245
  -0.50904   0.10331   0.06245
  -0.50904   0.10331   0.06245
  -0.50904   0.10331   0.06245
  -0.74846  -0.13611   0.06245
  -0.74846  -0.13611   0.06245
  -0.74846  -0.37553   0.06245
  -0.74846  -0.13611   0.30187
  -0.74846  -0.13611   0.06245
  -0.98788  -0.13611   0.06245
  -0.74846  -0.13611   0.30187
  -0.74846  -0.13611   0.30187
  -0.74846  -0.13611   0.30187
  -0.98788  -0.13611   0.30187
  -0.98788  -0.13611   0.30187
  -0.98788  -0.13611   0.54129
  -0.74846  -0.13611   0.54129
  -0.74846  -0.13611   0.54129
  -0.74846  -0.13611   0.54129
  -0.74846  -0.13611   0.54129
  -0.50904  -0.13611   0.54129
  -0.74846  -0.13611   0.54129
  -0.74846  -0.13611   0.54129
  -0.50904   0.10331   0.54129
  -0.50904   0.10331   0.30187
  -0.50904   0.10331   0.30187
  -0.50904   0.10331   0.30187
  -0.50904   0.10331   0.06245
  -0.50904   0.10331   0.30187
  -0.50904   0.10331   0.06245
  -0.50904   0.10331  -0.17696
  -0.26962   0.10331  -0.17696
  -0.26962  -0.13611  -0.17696
  -0.26962  -0.13611  -0.17696
  -0.03020  -0.13611  -0.17696
  -0.03020  -0.13611  -0.17696
  -0.03020  -0.13611  -0.17696
   0.20922  -0.13611  -0.17696
   0.20922   0.10331  -0.17696
   0.20922   0.10331  -0.17696
   0.20922   0.10331  -0.17696
   0.44864  -0.13611  -0.17696
   0.20922   0.10331  -0.17696
   0.44864   0.10331  -0.17696
   0.68806   0.10331  -0.41638
   0.44864   0.10331  -0.41638
   0.68806   0.10331  -0.41638
   0.68806   0.10331  -0.41638
   0.92748   0.10331  -0.41638
   0.92748   0.10331  -0.41638
   0.68806   0.10331  -0.41638
   0.92748   0.10331  -0.65580
   0.92748   0.10331  -0.65580
   0.92748  -0.13611  -0.65580
   1.16689   0.10331  -0.65580
   1.16689  -0.13611  -0.41638
   1.16689  -0.13611  -0.65580
   1.16689  -0.13611  -0.65580
   1.16689  -0.13611  -0.65580
   1.16689  -0.13611  -0.41638
   1.16689  -0.13611  -0.65580
   1.16689  -0.13611  -0.65580
   1.16689  -0.13611  -0.41638
   1.16689   0.10331  -0.65580
   1.16689   0.10331  -0.41638
   1.16689  -0.13611  -0.41638
   0.92748  -0.13611  -0.65580
   1.16689   0.10331  -0.41638
   0.92748  -0.13611  -0.41638
   0.92748   0.10331  -0.41638
   1.16689   0.10331  -0.41638
   0.92748   0.10331  -0.41638
   0.92748   0.10331  -0.41638
   0.92748   0.10331  -0.41638
   0.92748   0.10331  -0.41638
   0.92748   0.10331  -0.41638
   0.92748  -0.13611  -0.41638
   0.92748   0.10331  -0.17696
   0.92748   0.10331  -0.17696
   0.68806   0.10331  -0.17696
   0.68806   0.10331   0.06245
   0.44864   0.10331  -0.17696
   0.44864   0.10331   0.06245
   0.44864   0.10331   0.06245
   0.20922   0.10331   0.06245
   0.20922   0.10331   0.30187
  -0.03020   0.10331   0.30187
  -0.03020   0.10331   0.30187
  -0.26962   0.10331   0.30187
  -0.26962   0.10331   0.30187
  -0.26962   0.10331   0.30187
  -0.26962   0.10331   0.54129
  -0.26962  -0.13611   0.30187
  -0.26962   0.10331   0.30187
  -0.26962   0.10331   0.30187
  -0.26962   0.10331   0.54129
  -0.26962   0.10331   0.54129
  -0.50904   0.10331   0.30187
  -0.50904   0.10331   0.54129
  -0.50904   0.10331   0.54129
  -0.50904   0.10331   0.54129
  -0.50904   0.34273   0.30187
  -0.50904   0.10331   0.54129
  -0.50904   0.10331   0.54129
  -0.50904   0.10331   0.54129
  -0.50904   0.10331   0.54129
  -0.50904   0.10331   0.54129
  -0.50904   0.10331   0.54129
  -0.50904   0.10331   0.54129
  -0.50904   0.10331   0.54129
  -0.74846   0.10331   0.54129
  -0.50904   0.10331   0.30187
  -0.50904   0.10331   0.54129
  -0.74846   0.10331   0.30187
  -0.50904   0.10331   0.30187
  -0.50904   0.10331   0.30187
  -0.50904   0.10331   0.30187
  -0.26962   0.34273   0.30187
  -0.26962   0.10331   0.30187
  -0.26962   0.34273   0.30187
  -0.26962   0.34273   0.30187
  -0.26962   0.10331   0.30187
  -0.03020   0.10331   0.06245
  -0.03020   0.10331   0.06245
  -0.03020   0.10331   0.06245
  -0.03020  -0.13611   0.30187
  -0.03020  -0.13611   0.30187
  -0.03020  -0.13611   0.06245
   0.20922  -0.13611   0.06245
   0.20922  -0.13611   0.06245
   0.44864  -0.13611   0.06245
   0.20922  -0.13611   0.06245
   0.44864  -0.13611  -0.17696
   0.44864  -0.13611  -0.17696
   0.68806  -0.13611  -0.17696
   0.68806  -0.13611   0.06245
   0.68806  -0.13611  -0.17696
   0.68806  -0.13611  -0.17696
   0.68806   0.10331  -0.17696
   0.68806  -0.13611  -0.41638
   0.92748  -0.13611  -0.41638
   0.68806  -0.13611  -0.41638
   0.68806  -0.13611  -0.41638
   0.68806   0.10331  -0.41638
   0.92748  -0.13611  -0.65580
   0.92748  -0.13611  -0.65580
   0.92748   0.10331  -0.65580
   0.92748   0.10331  -0.41638
   0.92748   0.10331  -0.65580
   0.68806   0.10331  -0.41638
   0.92748   0.10331  -0.65580
   0.92748   0.34273  -0.65580
   0.92748   0.10331  -0.41638
   0.92748   0.10331  -0.41638
   0.68806   0.10331  -0.41638
   0.92748   0.10331  -0.65580
   0.68806   0.10331  -0.41638
   0.68806   0.10331  -0.65580
   0.68806   0.10331  -0.65580
   0.68806   0.10331  -0.65580
   0.68806   0.10331  -0.41638
   0.68806   0.10331  -0.65580
   0.68806   0.10331  -0.65580
   0.68806   0.10331  -0.65580
   0.68806   0.10331  -0.65580
   0.68806   0.10331  -0.65580
   0.68806   0.10331  -0.65580
   0.68806   0.10331  -0.65580
   0.44864   0.10331  -0.41638
   0.44864  -0.13611  -0.41638
   0.20922  -0.13611  -0.41638
   0.20922   0.10331  -0.41638
   0.20922  -0.13611  -0.41638
   0.20922  -0.13611  -0.17696
  -0.03020  -0.13611  -0.17696
  -0.03020  -0.13611  -0.17696
  -0.26962  -0.13611   0.06245
  -0.26962  -0.13611   0.06245
  -0.26962  -0.13611   0.06245
  -0.50904   0.10331   0.30187
  -0.50904   0.10331   0.30187
  -0.50904   0.10331   0.30187
  -0.50904   0.10331   0.54129
  -0.74846   0.10331   0.54129
  -0.74846   0.10331   0.54129
  -0.98788   0.10331   0.54129
  -0.98788   0.10331   0.54129
  -0.98788   0.10331   0.78071
  -0.98788  -0.13611   0.54129
  -0.98788   0.10331   0.78071
  -0.98788   0.10331   0.78071
  -1.22730  -0.13611   0.78071
  -1.22730  -0.13611   0.78071
  -1.22730   0.10331   0.54129
  -1.22730   0.10331   0.78071
  -1.22730   0.10331   0.78071
  -1.46671   0.10331   0.54129
  -1.46671  -0.13611   0.54129
  -1.46671  -0.13611   0.54129
  -1.70613   0.10331   0.54129
  -1.70613   0.10331   0.54129
  -1.70613   0.10331   0.54129
  -1.70613  -0.13611   0.30187
  -1.70613  -0.13611   0.30187
  -1.70613  -0.13611   0.30187
  -1.70613  -0.13611   0.30187
  -1.70613  -0.13611   0.30187
  -1.70613  -0.13611   0.30187
  -1.46671  -0.13611   0.06245
  -1.46671  -0.13611   0.06245
  -1.46671  -0.13611   0.06245
  -1.46671  -0.13611   0.06245
  -1.46671  -0.13611   0.06245
  -1.22730  -0.13611  -0.17696
  -1.22730  -0.13611  -0.17696
  -1.22730  -0.13611  -0.17696
  -0.98788  -0.13611  -0.17696
  -0.98788  -0.13611  -0.17696
  -0.98788  -0.13611  -0.41638
  -0.74846  -0.13611  -0.17696
  -0.74846  -0.13611  -0.41638
  -0.74846  -0.13611  -0.41638
  -0.74846  -0.13611  -0.41638
  -0.50904  -0.13611  -0.41638
  -0.50904  -0.13611  -0.41638
  -0.50904  -0.13611  -0.41638
  -0.26962  -0.13611  -0.41638
  -0.03020  -0.13611  -0.41638
  -0.03020  -0.13611  -0.41638
  -0.03020   0.10331  -0.41638
   0.20922   0.10331  -0.41638
   0.44864   0.10331  -0.41638
   0.44864   0.10331  -0.41638
   0.44864   0.10331  -0.41638
   0.44864   0.10331  -0.41638
   0.68806   0.10331  -0.17696
   0.68806   0.10331  -0.17696
   0.68806   0.10331  -0.17696
   0.92748   0.10331  -0.17696
   0.92748  -0.13611  -0.17696
   1.16689  -0.13611  -0.17696
   1.16689  -0.13611  -0.17696
   1.40631   0.10331   0.06245
   1.40631  -0.13611   0.06245
   1.64573  -0.13611   0.30187
   1.64573  -0.13611   0.54129
   1.88515  -0.13611   0.54129
   1.88515  -0.13611   0.54129
   1.88515  -0.13611   0.78071
   1.88515   0.10331   0.78071
   2.12457   0.10331   1.02013
   2.12457   0.10331   1.02013
   2.12457   0.10331   1.02013
   2.12457   0.10331   1.02013
   2.12457   0.10331   1.02013
   1.88515   0.10331   1.02013
   1.88515   0.10331   1.02013
   1.88515   0.10331   1.02013
   1.88515   0.34273   0.78071
   1.88515   0.34273   0.78071
   1.64573   0.34273   0.78071
   1.88515   0.10331   0.78071
   1.88515   0.10331   0.78071
   1.64573   0.10331   0.78071
   1.64573   0.10331   0.78071
   1.64573   0.10331   0.78071
   1.64573   0.10331   0.78071
   1.64573   0.10331   0.78071
   1.40631   0.10331   0.78071
   1.40631   0.10331   0.78071
   1.40631   0.10331   0.78071
   1.16689   0.10331   0.54129
   0.92748   0.10331   0.54129
   0.92748   0.10331   0.54129
   0.68806   0.10331   0.54129
   0.44864   0.10331   0.54129
   0.44864   0.10331   0.54129
   0.20922   0.10331   0.54129
  -0.03020   0.10331   0.54129
  -0.03020   0.10331   0.30187
  -0.26962   0.10331   0.30187
  -0.50904   0.10331   0.30187
  -0.50904  -0.13611   0.30187
  -0.74846   0.10331   0.06245
  -0.74846  -0.13611   0.06245
  -0.98788  -0.13611   0.06245
  -0.98788   0.10331   0.06245
  -1.22730   0.10331  -0.17696
  -1.22730   0.10331   0.06245
  -1.22730   0.10331  -0.17696
  -1.46671   0.10331  -0.17696
  -1.46671  -0.13611  -0.17696
  -1.70613  -0.13611  -0.17696
  -1.70613  -0.13611  -0.17696
  -1.70613  -0.13611  -0.17696
  -1.94555  -0.13611  -0.41638
  -1.94555  -0.13611  -0.17696
  -2.18497  -0.13611  -0.41638
  -2.18497  -0.13611  -0.41638
  -2.18497  -0.13611  -0.41638
  -2.18497  -0.37553  -0.65580
  -2.42439  -0.37553  -0.41638
  -2.42439  -0.37553  -0.41638
  -2.18497  -0.37553  -0.41638
  -2.42439  -0.37553  -0.41638
  -2.18497  -0.37553  -0.41638
  -2.18497  -0.37553  -0.41638
  -2.18497  -0.37553  -0.41638
  -2.18497  -0.37553  -0.41638
  -2.18497  -0.13611  -0.17696
  -1.94555  -0.13611  -0.17696
  -1.94555  -0.13611  -0.17696
  -1.94555  -0.13611  -0.41638
  -1.94555   0.10331  -0.41638
  -1.94555  -0.13611  -0.41638
  -1.94555   0.10331  -0.65580
  -1.94555   0.10331  -0.65580
  -1.94555   0.10331  -0.65580
  -1.70613   0.10331  -0.65580
  -1.70613   0.10331  -0.65580
  -1.46671   0.10331  -0.89522
  -1.46671   0.10331  -0.89522
  -1.22730   0.10331  -0.89522
  -1.22730   0.10331  -1.13464
  -0.98788   0.10331  -1.13464
  -0.74846   0.10331  -1.13464
  -0.74846   0.10331  -1.13464
  -0.50904   0.10331  -1.13464
  -0.26962   0.34273  -1.13464
  -0.26962   0.34273  -1.13464
  -0.03020   0.10331  -0.89522
   0.20922   0.34273  -0.89522
   0.20922   0.10331  -0.89522
   0.44864   0.34273  -0.41638
   0.68806   0.34273  -0.65580
   0.68806   0.34273  -0.65580
   0.68806   0.34273  -0.65580
   0.68806   0.34273  -0.65580
   0.92748   0.34273  -0.65580
   0.92748   0.34273  -0.41638
   1.16689   0.34273  -0.41638
   1.16689   0.34273  -0.41638
   1.40631   0.34273  -0.41638
   1.40631   0.34273  -0.41638
   1.40631   0.34273  -0.41638
   1.64573   0.34273  -0.17696
   1.88515   0.34273  -0.17696
   1.88515   0.34273  -0.17696
   2.12457   0.34273   0.06245
   2.12457   0.10331   0.06245
   2.12457   0.10331   0.06245
   2.12457   0.10331   0.30187
   2.12457   0.10331   0.30187
   2.12457  -0.13611   0.30187
   1.88515   0.10331   0.54129
   1.88515   0.10331   0.30187
   1.88515   0.10331   0.54129
   1.88515   0.10331   0.30187
   1.64573   0.10331   0.30187
   1.64573   0.10331   0.30187
   1.64573   0.10331   0.30187
   1.64573  -0.13611   0.30187
   1.64573   0.10331   0.06245
   1.64573   0.10331   0.06245
   1.64573   0.10331   0.06245
   1.64573  -0.13611   0.06245
   1.64573   0.10331   0.06245
   1.64573  -0.13611   0.06245
   1.64573  -0.13611   0.06245
   1.64573  -0.13611   0.06245
   1.64573  -0.13611   0.06245
   1.64573   0.10331   0.30187
   1.64573  -0.13611   0.30187
   1.64573   0.10331   0.30187
   1.64573   0.10331   0.54129
   1.40631  -0.13611   0.54129
   1.40631   0.10331   0.54129
   1.40631   0.10331   0.54129
   1.16689   0.10331   0.54129
   0.92748  -0.13611   0.54129
   0.92748  -0.13611   0.54129
   0.68806  -0.13611   0.54129
   0.68806  -0.37553   0.54129
   0.20922  -0.13611   0.30187
   0.20922  -0.37553   0.30187
   0.20922  -0.13611   0.30187
  -0.03020  -0.13611   0.30187
  -0.26962  -0.13611   0.30187
  -0.26962  -0.13611   0.30187
  -0.50904  -0.13611   0.30187
  -0.50904  -0.13611   0.30187
  -0.50904  -0.13611   0.30187
  -0.50904  -0.37553   0.06245
  -0.50904  -0.13611   0.06245
  -0.74846  -0.37553   0.06245
  -0.74846  -0.37553   0.06245
  -0.74846  -0.37553   0.06245
  -0.74846  -0.37553   0.06245
  -0.74846  -0.37553   0.06245
  -0.98788  -0.37553   0.06245
  -0.98788  -0.37553   0.06245
  -1.22730  -0.13611   0.06245
  -1.22730  -0.13611   0.06245
  -1.46671  -0.13611   0.06245
  -1.46671  -0.13611   0.06245
  -1.46671  -0.13611   0.30187
  -1.46671   0.10331   0.06245
  -1.46671  -0.13611   0.06245
  -1.22730   0.10331   0.06245
  -1.22730   0.10331   0.06245
  -1.22730   0.10331   0.06245
  -1.22730   0.34273   0.06245
  -1.22730   0.10331   0.30187
  -0.98788   0.34273   0.06245
  -0.98788   0.10331   0.06245
  -0.98788   0.34273   0.06245
  -0.74846   0.10331   0.06245
  -0.74846   0.10331   0.06245
  -0.74846   0.10331   0.30187
  -0.50904   0.10331   0.06245
  -0.50904  -0.13611  -0.17696
  -0.26962  -0.13611   0.06245
  -0.26962  -0.13611   0.06245
  -0.03020  -0.13611   0.06245
  -0.03020  -0.13611   0.06245
  -0.03020  -0.13611   0.06245
   0.20922  -0.13611   0.06245
   0.20922  -0.13611   0.06245
   0.20922  -0.13611   0.06245
   0.20922  -0.13611   0.06245
   0.20922  -0.13611   0.06245
   0.20922  -0.13611   0.06245
   0.44864  -0.13611   0.06245
   0.44864   0.10331   0.06245
   0.44864   0.10331   0.06245
   0.44864   0.10331   0.06245
   0.68806   0.10331   0.06245
   0.68806   0.10331   0.06245
   0.68806   0.10331   0.30187
   0.68806   0.10331   0.06245
   0.68806   0.10331   0.06245
   0.92748   0.10331   0.06245
   0.92748   0.10331   0.30187
   0.92748   0.10331   0.06245
   0.92748  -0.13611   0.06245
   1.16689   0.10331   0.06245
   1.16689  -0.13611   0.06245
   1.16689   0.10331   0.06245
   1.16689   0.10331   0.06245
   1.16689   0.10331   0.06245
   0.92748  -0.13611   0.06245
   1.16689  -0.13611   0.06245
