********************************************************************************
              CENTRO DE INSTRUMENTACION Y REGISTRO SISMICO  A.C.

    Anaxagoras 814, Col. Narvarte, Benito Juarez, C.P. 03020 Mexico, D.F.
           Tels. 5687 45 42/ 5687 45  82             Fax. 5669 25 12
********************************************************************************
ARCHIVO ESTANDAR DE ACELERACION:
VERSION DEL FORMATO                    : 2.0
NOMBRE DEL ARCHIVO                     : AO2420170923125259
FECHA Y HORA DE CREACION               : 20/OCT/17, 12:49
REF. CATALOGO ACELEROGRAMAS, SMIS 1996 : REGISTRO No.     /PAG.


================================================================================
DATOS DE LA ESTACION:
NOMBRE DE LA ESTACION                  : ALBERCA OLÍMPICA
CLAVE DE LA ESTACION                   : AO24
LOCALIZACION DE LA ESTACION            : Del. Benito Juárez, Col. General Pedro 
                                       : María Anaya, Río Churubusco            
                                       : y División del Norte.                  
                                       :                                        
                                       : 
COORDENADAS DE LA ESTACION             : 19.3580 LAT. N
                                       : 99.1539 LONG. W
ALTITUD (msnm)                         : 2235
TIPO DE SUELO                          : Transición                          
                                       :                           
                                       : 
INSTITUCION RESPONSABLE                : CIRES
                                       : 

================================================================================
DATOS DEL ACELEROGRAFO:
MODELO DEL ACELEROGRAFO                : RADESD
NUMERO DE SERIE DEL ACELEROGRAFO       : 257
NUMERO DE CANALES                      : 3
ORIENTACION C1-C6 (rumbo;orientacion)  : /N00E/+V/N90W
ORIENTACION C7-C12 (rumbo;orientacion) : 
VEL. DE MUESTREO, C1-C6 (muestras/s)   : /100/100/100
VEL. DE MUESTREO, C7-C12 (muestras/s)  : 
ESC. COMPLETA DE SENSORES, C1-C6, (g)  : /0.5/0.5/0.5
ESC. COMPLETA DE SENSORES, C7-C12, (g) : 
FREC. NAT. DE SENSORES, C1-C6, (Hz)    : /30/30/30
FREC. NAT. DE SENSORES, C7-C12, (Hz)   : 
AMORTIGUAMIENTO DE SENSORES, C1-C6     : /0.700/0.700/0.700
AMORTIGUAMIENTO DE SENSORES, C7-C12    : 
INTERVALO DE MUESTREO, C1-C6, (s)      : /0.01/0.01/0.01
INTERVALO DE MUESTREO, C7-C12, (s)     : 
UMBRAL DE DISPARO, C1-C6, (Gal)        : /1.05/2.69/1.05
UMBRAL DE DISPARO, C7-C12, (Gal)       : 
MEMORIA DE PREEVENTO (s)               : 44.0
TIEMPO DE POSEVENTO (s)                : 113.0


================================================================================
DATOS DEL SISMO:
FECHA DEL SISMO (GMT)                  : 23/SEP/17
HORA EPICENTRO (GMT)                   : 12:52:59.0
MAGNITUD(ES)                           : /Mc=6.1
COORDENADAS DEL EPICENTRO              : 16.48 LAT. N
                                       : 94.90 LONG. W
PROFUNDIDAD FOCAL (km)                 : 75
FUENTE DE LOS DATOS EPICENTRALES       : SSN
                                       : INSTITUTO DE GEOFISICA, UNAM

================================================================================
DATOS DE ESTE REGISTRO:
HORA DE LA PRIMERA MUESTRA (GMT)       : 12:55:40.00
EXACTITUD DEL TIEMPO (s)               : 0.01
DURACION DEL REGISTRO (s), C1-C6       : /158.0/158.0/158.0
DURACION DEL REGISTRO (s), C7-C12      : 
NUM. TOTAL DE MUESTRAS, C1-C6          : /15800/15800/15800
NUM. TOTAL DE MUESTRAS, C7-C12         : 
ACEL. MAX. (Gal), C1-C6                : /1.90471/1.11875/2.42579
ACEL. MAX., C1-C6, EN LA MUESTRA       : /7512/5497/5524
ACEL. MAX. (Gal), C7-C12               : 
ACEL. MAX., C7-C12, EN LA MUESTRA      : 
UNIDADES DE LOS DATOS                  : Gal (cm/s/s)
FACTOR DE DECIMACION                   : 1
FORMATO DATOS (FORTRAN,10 campos/dato) : 3F10.5


================================================================================
CALIDAD DEL ACELEROGRAMA:
REGISTRO DIGITAL COMPLETO CON TIEMPO ABSOLUTO CORRECTO.


================================================================================
COMENTARIOS:














================================================================================
DATOS DE ACELERACION:
---------+---------+---------+---------+---------+---------+---------+---------+
   CANAL-1   CANAL-2   CANAL-3   CANAL-4   CANAL-5   CANAL-6   CANAL-7   CANAL-8
      N00E        +V      N90W
---------+---------+---------+---------+---------+---------+---------+---------+
[...]
  -0.04921  -0.09331  -0.24108
   0.01065  -0.07835  -0.33087
   0.01065  -0.04842  -0.45058
   0.04058  -0.04842  -0.45058
   0.07050   0.02640  -0.46554
   0.20518   0.04136  -0.52539
   0.11540  -0.03346  -0.58525
   0.22014   0.02640  -0.64510
   0.30992  -0.00353  -0.80971
   0.26503  -0.01849  -0.79474
   0.33985  -0.01849  -0.85460
   0.41467   0.08625  -0.95934
   0.41467   0.08625  -0.97431
   0.44460   0.08625  -1.22869
   0.41467   0.11618  -1.15387
   0.44460   0.04136  -1.19876
   0.45956   0.11618  -1.25862
   0.54934   0.14611  -1.27358
   0.53438   0.16107  -1.36337
   0.68402   0.08625  -1.28855
   0.69898  -0.03346  -1.33344
   0.74387  -0.01849  -1.33344
   0.68402  -0.13820  -1.30351
   0.71395  -0.07835  -1.40826
   0.69898  -0.24295  -1.31847
   0.77380  -0.28784  -1.25862
   0.75884  -0.25791  -1.27358
   0.81869  -0.19806  -1.18380
   0.84862  -0.22799  -1.18380
   0.84862  -0.31777  -1.16884
   0.92344  -0.27288  -1.12395
   0.86358  -0.25791  -1.13891
   0.87855  -0.19806  -1.00424
   1.01322  -0.27288  -0.97431
   1.08804  -0.24295  -0.95934
   1.11797  -0.25791  -0.89949
   1.14789  -0.33273  -0.85460
   1.13293  -0.21302  -0.79474
   1.29753  -0.27288  -0.77978
   1.25264  -0.28784  -0.77978
   1.37235  -0.18309  -0.57029
   1.29753  -0.31777  -0.69000
   1.34242  -0.24295  -0.61518
   1.41724  -0.22799  -0.49547
   1.41724  -0.01849  -0.51043
   1.46213  -0.15317  -0.49547
   1.38731  -0.12324  -0.33087
   1.41724  -0.03346  -0.30094
   1.32746  -0.12324  -0.34583
   1.44717  -0.04842  -0.15130
   1.50702  -0.00353  -0.16626
   1.44717  -0.01849  -0.04655
   1.38731   0.01143   0.02826
   1.44717  -0.01849   0.22279
   1.49206   0.01143   0.28265
   1.43221   0.17604   0.44725
   1.35739   0.02640   0.52207
   1.41724  -0.00353   0.62681
   1.37235   0.05633   0.74652
   1.35739   0.07129   0.94105
   1.38731   0.05633   1.00091
   1.40228   0.02640   1.16551
   1.26760  -0.03346   1.22537
   1.25264   0.05633   1.22537
   1.23768   0.04136   1.30018
   1.22271   0.04136   1.38997
   1.22271   0.17604   1.49471
   1.23768   0.04136   1.47975
   1.04315  -0.09331   1.67428
   1.11797  -0.04842   1.71917
   0.90847  -0.04842   1.70421
   1.05811   0.08625   1.73413
   0.78876  -0.04842   1.85384
   0.63913  -0.09331   1.79399
   0.59424  -0.10828   1.80895
   0.51942  -0.03346   1.80895
   0.33985  -0.07835   1.86881
   0.17525  -0.04842   1.86881
   0.10043  -0.03346   1.82392
  -0.04921   0.02640   1.80895
  -0.13899   0.02640   1.88377
  -0.28863   0.04136   2.03341
  -0.30359   0.08625   1.70421
  -0.46819   0.43042   1.58450
  -0.54301   0.07129   1.68924
  -0.57294   0.11618   1.55457
  -0.69265   0.22093   1.50968
  -0.69265   0.14611   1.43486
  -0.78243   0.10122   1.25529
  -0.82732   0.07129   1.21040
  -0.91710   0.08625   1.25529
  -0.82732   0.17604   1.03084
  -0.99192   0.11618   1.01587
  -1.12660   0.05633   0.94105
  -1.14156   0.17604   0.80638
  -1.30616  -0.03346   0.68667
  -1.21638  -0.06338   0.62681
  -1.30616   0.07129   0.38739
  -1.38098  -0.09331   0.41732
  -1.29120  -0.10828   0.26768
  -1.51565   0.13115   0.11805
  -1.53062  -0.10828   0.01330
  -1.53062  -0.12324  -0.10641
  -1.57551   0.08625  -0.22612
  -1.66529  -0.06338  -0.34583
  -1.65033   0.02640  -0.39072
  -1.56055  -0.03346  -0.48050
  -1.59047  -0.09331  -0.48050
  -1.56055   0.10122  -0.69000
  -1.57551  -0.07835  -0.73489
  -1.50069  -0.16813  -0.79474
  -1.59047  -0.03346  -1.03416
  -1.44084  -0.13820  -0.94438
  -1.30616  -0.00353  -1.09402
  -1.26127  -0.10828  -1.15387
  -1.11163  -0.03346  -1.24366
  -1.05178  -0.07835  -1.39329
  -0.90214  -0.16813  -1.45315
  -0.90214   0.04136  -1.52797
  -0.78243  -0.16813  -1.55789
  -0.67768  -0.01849  -1.73746
  -0.73754  -0.21302  -1.81228
  -0.49812   0.07129  -1.76739
  -0.48316  -0.13820  -1.79731
  -0.43826  -0.06338  -1.82724
  -0.46819  -0.12324  -1.88710
  -0.37841  -0.00353  -1.84221
  -0.33352  -0.03346  -1.81228
  -0.30359  -0.00353  -1.82724
  -0.27366  -0.12324  -1.70753
  -0.18388   0.10122  -1.69257
  -0.12402   0.04136  -1.67760
  -0.00431   0.25086  -1.49804
  -0.10906  -0.00353  -1.55789
   0.04058   0.07129  -1.46811
  -0.01928   0.13115  -1.39329
   0.04058   0.05633  -1.27358
   0.04058  -0.01849  -1.19876
   0.10043   0.10122  -1.13891
   0.16029   0.04136  -1.00424
   0.14532   0.10122  -0.98927
   0.11540  -0.03346  -0.83963
   0.16029   0.01143  -0.79474
   0.16029  -0.10828  -0.67503
   0.19021  -0.03346  -0.58525
   0.23511  -0.03346  -0.40568
   0.17525  -0.10828  -0.30094
   0.25007  -0.09331  -0.19619
   0.25007  -0.16813  -0.04655
   0.22014  -0.18309  -0.01663
   0.26503   0.05633   0.08812
   0.25007  -0.00353   0.23776
   0.14532  -0.01849   0.34250
   0.19021   0.04136   0.38739
   0.16029   0.13115   0.44725
   0.20518   0.11618   0.52207
   0.10043   0.05633   0.71660
  -0.04921   0.13115   0.73156
   0.04058   0.08625   0.79142
  -0.04921   0.19100   0.97098
  -0.18388   0.19100   0.95602
  -0.25870   0.07129   1.04580
  -0.30359   0.29575   1.07573
  -0.33352   0.25086   1.16551
  -0.39337   0.14611   1.22537
  -0.39337   0.19100   1.30018
  -0.57294   0.17604   1.33011
  -0.54301   0.17604   1.34508
  -0.75250   0.11618   1.43486
  -0.78243  -0.00353   1.52464
  -0.75250   0.01143   1.55457
  -0.91710   0.04136   1.64435
  -1.00689  -0.04842   1.55457
  -0.91710  -0.06338   1.64435
  -0.96200  -0.07835   1.74910
  -0.91710  -0.01849   1.77902
  -1.06674  -0.00353   1.61442
  -0.93207  -0.01849   1.70421
  -0.97696  -0.07835   1.62939
  -1.03681  -0.12324   1.61442
  -0.94703  -0.09331   1.64435
  -0.96200  -0.07835   1.55457
  -0.93207  -0.12324   1.55457
  -0.91710  -0.10828   1.44982
  -0.79739  -0.16813   1.47975
  -0.75250  -0.10828   1.33011
  -0.58790   0.02640   1.43486
  -0.63279  -0.13820   1.30018
  -0.55797  -0.04842   1.16551
  -0.52805  -0.01849   1.07573
  -0.36345   0.02640   1.21040
  -0.37841  -0.06338   1.07573
  -0.27366   0.23589   0.86624
  -0.30359   0.01143   0.88120
  -0.09410   0.14611   0.82134
  -0.12402  -0.00353   0.74652
  -0.10906  -0.04842   0.74652
   0.04058   0.23589   0.62681
   0.08547   0.07129   0.59689
   0.13036   0.14611   0.43229
   0.28000   0.08625   0.43229
   0.53438   0.01143   0.29761
   0.16029   0.31071   0.13301
   0.25007   0.11618   0.08812
   0.28000   0.02640  -0.00166
   0.33985   0.11618  -0.12137
   0.38474   0.11618  -0.27101
   0.51942   0.07129  -0.22612
   0.57927   0.14611  -0.46554
   0.60920   0.29575  -0.60021
   0.57927   0.22093  -0.73489
   0.69898   0.01143  -0.80971
   0.74387   0.11618  -0.88452
   0.87855   0.04136  -1.00424
   0.83366   0.01143  -1.04913
   0.96833   0.07129  -1.21373
   1.05811   0.02640  -1.22869
   1.05811   0.05633  -1.13891
   1.14789   0.07129  -1.27358
   1.20775   0.04136  -1.43818
   1.22271   0.08625  -1.51300
   1.29753   0.07129  -1.55789
   1.29753   0.10122  -1.58782
   1.26760   0.37057  -1.70753
   1.28257   0.34064  -1.67760
   1.43221   0.04136  -1.66264
   1.40228   0.34064  -1.75242
   1.46213   0.17604  -1.64768
   1.43221   0.10122  -1.73746
   1.50702   0.38553  -1.76739
   1.46213   0.46035  -1.75242
   1.61177   0.14611  -1.69257
   1.55192   0.02640  -1.70753
   1.62674   0.16107  -1.73746
   1.61177   0.31071  -1.66264
   1.70155   0.05633  -1.55789
   1.50702  -0.06338  -1.48308
   1.59681  -0.01849  -1.45315
   1.62674  -0.01849  -1.57286
   1.44717  -0.04842  -1.51300
   1.44717  -0.04842  -1.48308
   1.41724   0.10122  -1.43818
   1.43221  -0.18309  -1.39329
   1.26760  -0.15317  -1.31847
   1.26760  -0.15317  -1.22869
   1.01322  -0.18309  -1.24366
   1.32746  -0.12324  -1.15387
   0.93840  -0.22799  -1.00424
   0.89351  -0.25791  -0.91445
   0.72891  -0.09331  -0.86956
   0.72891  -0.22799  -0.85460
   0.66905  -0.24295  -0.55532
   0.53438  -0.24295  -0.54036
   0.53438  -0.12324  -0.42065
   0.32489  -0.22799  -0.34583
   0.26503  -0.04842  -0.31590
   0.13036  -0.19806  -0.12137
   0.05554  -0.28784  -0.04655
   0.22014  -0.09331  -0.00166
  -0.15395  -0.27288   0.04323
  -0.19884  -0.13820   0.16294
  -0.27366  -0.19806   0.19287
  -0.39337  -0.15317   0.31258
  -0.28863  -0.22799   0.43229
  -0.54301  -0.07835   0.40236
  -0.66272  -0.16813   0.50710
  -0.67768  -0.06338   0.58192
  -0.79739  -0.16813   0.61185
  -0.93207  -0.24295   0.62681
  -0.97696  -0.12324   0.77645
  -1.06674  -0.09331   0.88120
  -1.21638  -0.18309   0.86624
  -1.26127  -0.22799   0.97098
  -1.24631   0.07129   1.01587
  -1.38098  -0.03346   1.13558
  -1.42587  -0.07835   1.22537
  -1.60544  -0.21302   1.30018
  -1.44084  -0.06338   1.46479
  -1.57551  -0.12324   1.46479
  -1.63536  -0.01849   1.46479
  -1.59047  -0.13820   1.62939
  -1.62040  -0.19806   1.67428
  -1.57551  -0.01849   1.70421
  -1.59047  -0.16813   1.74910
  -1.42587  -0.07835   1.92866
  -1.60544  -0.12324   1.73413
  -1.54558  -0.10828   1.88377
  -1.53062  -0.12324   1.86881
  -1.47076  -0.00353   1.86881
  -1.47076   0.31071   1.77902
  -1.41091   0.19100   1.88377
  -1.09667  -0.06338   1.88377
  -1.12660  -0.09331   1.88377
  -1.27623  -0.00353   2.03341
  -1.26127  -0.09331   1.89873
  -1.23134  -0.04842   1.89873
  -1.14156  -0.09331   1.91370
  -1.08171  -0.10828   1.98852
  -0.94703  -0.03346   1.95859
  -0.91710  -0.16813   1.92866
  -0.75250  -0.13820   1.88377
  -0.46819  -0.03346   1.80895
  -0.72258  -0.04842   1.80895
  -0.60287   0.05633   1.67428
  -0.55797  -0.04842   1.77902
  -0.40834  -0.04842   1.67428
  -0.40834   0.02640   1.53960
  -0.51308   0.04136   1.58450
  -0.45323   0.14611   1.52464
  -0.40834   0.40049   1.46479
  -0.40834   0.05633   1.37500
  -0.28863   0.55013   1.30018
  -0.25870  -0.01849   1.19544
  -0.16892   0.16107   1.09069
  -0.12402   0.16107   0.97098
  -0.00431   0.07129   0.83631
   0.10043   0.11618   0.68667
   0.08547   0.16107   0.70163
   0.25007   0.11618   0.41732
   0.28000   1.11875   0.20783
   0.30992   0.11618   0.17790
   0.33985   0.19100  -0.13634
   0.35482   0.13115  -0.10641
   0.54934   0.16107  -0.24108
   0.51942   0.16107  -0.43561
   0.48949   0.13115  -0.57029
   0.60920   0.13115  -0.48050
   0.60920   0.17604  -0.85460
   0.63913   0.10122  -0.94438
   0.71395   0.07129  -0.92942
   0.80373   0.14611  -1.18380
   0.75884   0.19100  -1.30351
   0.75884   0.08625  -1.36337
   0.90847   0.13115  -1.61775
   0.86358   0.07129  -1.66264
   0.90847   0.25086  -1.76739
   0.84862   0.16107  -1.88710
   0.83366   0.11618  -1.81228
   0.90847  -0.01849  -1.96192
   0.95337   0.17604  -2.09659
   1.02818   0.02640  -2.17141
   1.02818   0.13115  -2.26119
   1.10300   0.01143  -2.24623
   1.08804   0.13115  -2.26119
   1.04315   0.11618  -2.33601
   1.05811   0.04136  -2.33601
   1.10300   0.16107  -2.42579
   1.20775   0.14611  -2.39586
   1.13293  -0.01849  -2.38090
   1.17782   0.16107  -2.38090
   1.14789   0.02640  -2.38090
   1.13293   0.22093  -2.39586
   1.25264   0.19100  -2.35097
   1.22271  -0.01849  -2.26119
   1.10300   0.01143  -2.29112
   1.13293   0.16107  -2.15644
   1.08804   0.04136  -2.12652
   0.99826  -0.04842  -2.00681
   1.10300  -0.10828  -1.94695
   1.01322   0.13115  -1.94695
   0.84862   0.01143  -1.81228
   0.95337   0.13115  -1.78235
   0.92344   0.19100  -1.64768
   0.83366   0.05633  -1.54293
   0.69898   0.14611  -1.48308
   0.63913   0.17604  -1.37833
   0.62416  -0.01849  -1.18380
   0.66905   0.19100  -1.06409
   0.47453  -0.03346  -0.94438
   0.45956   0.22093  -0.88452
   0.41467   0.02640  -0.73489
   0.48949   0.02640  -0.67503
   0.28000  -0.07835  -0.64510
   0.29496   0.01143  -0.46554
   0.30992  -0.00353  -0.36079
   0.26503  -0.01849  -0.30094
   0.29496  -0.12324  -0.12137
   0.14532  -0.16813  -0.09145
   0.14532  -0.15317  -0.00166
   0.29496  -0.10828   0.07316
   0.02561  -0.04842   0.16294
   0.07050  -0.19806   0.37243
  -0.00431   0.04136   0.38739
  -0.00431  -0.13820   0.50710
   0.02561  -0.22799   0.85127
   0.08547   0.02640   0.70163
  -0.06417  -0.12324   0.89616
  -0.03424  -0.16813   1.13558
  -0.00431   0.01143   1.03084
  -0.00431  -0.07835   1.25529
  -0.01928  -0.12324   1.30018
  -0.03424  -0.09331   1.50968
  -0.03424  -0.09331   1.53960
  -0.04921   0.02640   1.67428
  -0.07913  -0.04842   1.74910
  -0.06417  -0.10828   2.07830
   0.04058  -0.09331   2.15312
  -0.06417   0.38553   2.06334
  -0.07913  -0.15317   2.22794
  -0.04921  -0.12324   2.18305
   0.17525  -0.04842   2.15312
  -0.04921   0.01143   2.30276
  -0.00431  -0.12324   2.18305
   0.02561  -0.12324   2.13815
   0.13036  -0.04842   2.24290
   0.07050   0.35560   2.10823
   0.11540   0.05633   2.12319
   0.10043   0.05633   2.00348
   0.16029   0.01143   2.01844
   0.16029   0.04136   1.97355
   0.11540   0.02640   2.09326
   0.16029   0.11618   2.03341
   0.35482   0.17604   1.85384
   0.17525   0.37057   1.85384
   0.10043   0.52020   1.76406
  -0.01928   0.16107   1.67428
  -0.01928   0.16107   1.76406
  -0.06417   0.14611   1.70421
  -0.10906   0.20596   1.56953
  -0.19884   0.20596   1.56953
  -0.15395   0.20596   1.56953
  -0.22877   0.16107   1.52464
  -0.30359   0.23589   1.33011
  -0.37841   0.14611   1.30018
  -0.31855   0.23589   1.21040
  -0.37841   0.20596   1.18047
  -0.40834   0.20596   1.09069
  -0.37841   0.37057   0.95602
  -0.46819   0.50524   0.82134
  -0.21381   0.19100   0.74652
  -0.19884   0.10122   0.53703
  -0.39337   0.01143   0.53703
  -0.42330   0.05633   0.47718
  -0.39337  -0.07835   0.29761
  -0.34848   0.10122   0.17790
  -0.37841  -0.12324   0.05819
  -0.31855  -0.09331   0.04323
  -0.37841  -0.13820  -0.21116
  -0.39337  -0.15317  -0.25605
  -0.19884  -0.13820  -0.33087
  -0.19884  -0.19806  -0.37576
  -0.37841  -0.22799  -0.46554
  -0.31855  -0.27288  -0.58525
  -0.34848  -0.03346  -0.61518
  -0.24374  -0.24295  -0.76481
  -0.25870  -0.18309  -0.77978
  -0.13899  -0.22799  -0.82467
  -0.37841  -0.24295  -0.98927
  -0.25870  -0.13820  -0.98927
  -0.15395  -0.06338  -1.06409
  -0.27366  -0.22799  -1.19876
  -0.18388  -0.03346  -1.21373
  -0.27366  -0.22799  -1.28855
  -0.09410  -0.16813  -1.34840
  -0.18388  -0.04842  -1.51300
  -0.22877  -0.16813  -1.45315
  -0.10906  -0.15317  -1.52797
  -0.12402  -0.07835  -1.54293
  -0.16892  -0.16813  -1.57286
  -0.06417  -0.04842  -1.63271
  -0.13899  -0.21302  -1.58782
  -0.07913  -0.12324  -1.52797
  -0.12402  -0.07835  -1.49804
  -0.03424  -0.21302  -1.46811
   0.04058  -0.34770  -1.39329
  -0.10906  -0.24295  -1.42322
  -0.07913  -0.27288  -1.39329
  -0.00431  -0.10828  -1.30351
  -0.01928  -0.09331  -1.34840
   0.01065  -0.12324  -1.24366
   0.07050  -0.12324  -1.21373
   0.01065  -0.13820  -1.19876
   0.02561  -0.10828  -1.22869
  -0.04921  -0.03346  -1.10898
  -0.09410  -0.12324  -1.07905
   0.02561   0.02640  -1.01920
  -0.00431  -0.04842  -1.01920
  -0.12402  -0.09331  -0.94438
  -0.04921   0.14611  -0.94438
  -0.07913  -0.01849  -0.82467
  -0.18388   0.14611  -0.85460
  -0.07913  -0.00353  -0.69000
  -0.18388  -0.06338  -0.67503
  -0.18388  -0.01849  -0.67503
  -0.21381   0.10122  -0.57029
  -0.04921  -0.04842  -0.43561
  -0.25870  -0.04842  -0.49547
  -0.28863  -0.04842  -0.37576
  -0.31855  -0.03346  -0.25605
  -0.33352  -0.04842  -0.24108
  -0.34848  -0.04842  -0.16626
  -0.42330  -0.03346  -0.09145
  -0.36345   0.07129   0.01330
  -0.42330   0.10122   0.02826
  -0.43826   0.05633   0.14797
  -0.39337   0.14611   0.19287
