********************************************************************************
              CENTRO DE INSTRUMENTACION Y REGISTRO SISMICO  A.C.

    Anaxagoras 814, Col. Narvarte, Benito Juarez, C.P. 03020 Mexico, D.F.
           Tels. 5687 45 42/ 5687 45  82             Fax. 5669 25 12
********************************************************************************
ARCHIVO ESTANDAR DE ACELERACION:
VERSION DEL FORMATO                    : 2.0
NOMBRE DEL ARCHIVO                     : AO2420130422011634
FECHA Y HORA DE CREACION               : 06/MAY/13, 11:44
REF. CATALOGO ACELEROGRAMAS, SMIS 1996 : REGISTRO No.     /PAG.


================================================================================
DATOS DE LA ESTACION:
NOMBRE DE LA ESTACION                  : ALBERCA OLÍMPICA
CLAVE DE LA ESTACION                   : AO24
LOCALIZACION DE LA ESTACION            : Del. Benito Juárez, Col. General Pedro 
                                       : María Anaya, Río Churubusco            
                                       : y División del Norte.                  
                                       :                                        
                                       : 
COORDENADAS DE LA ESTACION             : 19.3580 LAT. N
                                       : 99.1539 LONG. W
ALTITUD (msnm)                         : 2235
TIPO DE SUELO                          : Transición                          
                                       :                           
                                       : 
INSTITUCION RESPONSABLE                : CIRES
                                       : 

================================================================================
DATOS DEL ACELEROGRAFO:
MODELO DEL ACELEROGRAFO                : RADESD
NUMERO DE SERIE DEL ACELEROGRAFO       : 257
NUMERO DE CANALES                      : 3
ORIENTACION C1-C6 (rumbo;orientacion)  : /N00E/+V/N90W
ORIENTACION C7-C12 (rumbo;orientacion) : 
VEL. DE MUESTREO, C1-C6 (muestras/s)   : /100/100/100
VEL. DE MUESTREO, C7-C12 (muestras/s)  : 
ESC. COMPLETA DE SENSORES, C1-C6, (g)  : /0.5/0.5/0.5
ESC. COMPLETA DE SENSORES, C7-C12, (g) : 
FREC. NAT. DE SENSORES, C1-C6, (Hz)    : /30/30/30
FREC. NAT. DE SENSORES, C7-C12, (Hz)   : 
AMORTIGUAMIENTO DE SENSORES, C1-C6     : /0.700/0.700/0.700
AMORTIGUAMIENTO DE SENSORES, C7-C12    : 
INTERVALO DE MUESTREO, C1-C6, (s)      : /0.01/0.01/0.01
INTERVALO DE MUESTREO, C7-C12, (s)     : 
UMBRAL DE DISPARO, C1-C6, (Gal)        : /26.34/50.28/31.12
UMBRAL DE DISPARO, C7-C12, (Gal)       : 
MEMORIA DE PREEVENTO (s)               : 56.0
TIEMPO DE POSEVENTO (s)                : 80.0


================================================================================
DATOS DEL SISMO:
FECHA DEL SISMO (GMT)                  : 22/ABR/13
HORA EPICENTRO (GMT)                   : 01:16:34.0
MAGNITUD(ES)                           : /Mc=5.8
COORDENADAS DEL EPICENTRO              : 17.87 LAT. N
                                       : 102.19 LONG. W
PROFUNDIDAD FOCAL (km)                 : 10
FUENTE DE LOS DATOS EPICENTRALES       : SSN
                                       : INSTITUTO DE GEOFISICA, UNAM

================================================================================
DATOS DE ESTE REGISTRO:
HORA DE LA PRIMERA MUESTRA (GMT)       : 01:18:11.00
EXACTITUD DEL TIEMPO (s)               : 0.01
DURACION DEL REGISTRO (s), C1-C6       : /165.6/165.6/165.6
DURACION DEL REGISTRO (s), C7-C12      : 
NUM. TOTAL DE MUESTRAS, C1-C6          : /16560/16560/16560
NUM. TOTAL DE MUESTRAS, C7-C12         : 
ACEL. MAX. (Gal), C1-C6                : /4.31239/1.70668/4.75249
ACEL. MAX., C1-C6, EN LA MUESTRA       : /5873/5413/5535
ACEL. MAX. (Gal), C7-C12               : 
ACEL. MAX., C7-C12, EN LA MUESTRA      : 
UNIDADES DE LOS DATOS                  : Gal (cm/s/s)
FACTOR DE DECIMACION                   : 1
FORMATO DATOS (FORTRAN,10 campos/dato) : 3F10.5


================================================================================
CALIDAD DEL ACELEROGRAMA:
REGISTRO DIGITAL COMPLETO CON TIEMPO ABSOLUTO CORRECTO.


================================================================================
COMENTARIOS:














================================================================================
DATOS DE ACELERACION:
---------+---------+---------+---------+---------+---------+---------+---------+
   CANAL-1   CANAL-2   CANAL-3   CANAL-4   CANAL-5   CANAL-6   CANAL-7   CANAL-8
      N00E        +V      N90W
---------+---------+---------+---------+---------+---------+---------+---------+
[...]
  -1.60395  -0.09060  -3.20823
  -1.67876  -0.07563  -3.07356
  -1.73862  -0.04571  -2.90896
  -1.82840  -8.1E-40  -2.71443
  -1.91819  -0.01578  -2.50493
  -2.00797  -8.1E-40  -2.35530
  -2.12768   0.01415  -2.17573
  -2.26235  -0.01578  -2.05602
  -2.35213  -0.04571  -1.89142
  -2.41199  -0.12052  -1.74178
  -2.50177  -0.13549  -1.57718
  -2.53170  -0.13549  -1.36769
  -2.56163  -0.12052  -1.15820
  -2.53170  -0.09060  -0.91878
  -2.47184  -0.09060  -0.69432
  -2.42695  -0.10556  -0.42497
  -2.36710  -0.13549  -0.15562
  -2.20250  -0.16542   0.15861
  -2.09775  -0.16542   0.44293
  -1.97804  -0.19534   0.72724
  -1.82840  -0.22527   0.98162
  -1.67876  -0.31505   1.23601
  -1.54409  -0.38987   1.49039
  -1.42438  -0.43476   1.77470
  -1.28971  -0.46469   2.04405
  -1.18496  -0.46469   2.35829
  -1.05029  -0.47965   2.64260
  -0.90065  -0.47965   2.92691
  -0.75101  -0.52455   3.18129
  -0.58641  -0.52455   3.40575
  -0.45174  -0.50958   3.64517
  -0.28714  -0.49462   3.85466
  -0.09261  -0.44973   3.98934
   0.08696  -0.41980   4.10905
   0.28149  -0.38987   4.21379
   0.50594  -0.31505   4.28861
   0.70047  -0.28513   4.28861
   0.92493  -0.24023   4.24372
   1.13442  -0.22527   4.19883
   1.32895  -0.19534   4.16890
   1.53844  -0.21031   4.09408
   1.73297  -0.19534   4.03423
   1.92750  -0.16542   3.98934
   2.10707  -0.09060   3.88459
   2.22678  -0.03074   3.82474
   2.36145   0.01415   3.77984
   2.40634   0.04408   3.73495
   2.45123   0.02911   3.66013
   2.52605  -0.06067   3.61524
   2.61583  -0.13549   3.55539
   2.66073  -0.19534   3.52546
   2.69065  -0.16542   3.48057
   2.78044  -0.16542   3.37582
   2.81036  -0.18038   3.24115
   2.82533  -0.19534   3.10648
   2.88518  -0.21031   2.94187
   2.96000  -0.21031   2.74735
   2.98993  -0.22527   2.52289
   3.09467  -0.19534   2.23858
   3.16949  -0.16542   1.99916
   3.13957  -0.10556   1.75974
   3.12460   0.01415   1.52032
   3.09467   0.10393   1.17615
   3.03482   0.22364   0.83198
   2.98993   0.26853   0.54767
   2.90015   0.29846   0.24840
   2.76547   0.34335  -0.00599
   2.64576   0.37328  -0.29030
   2.52605   0.32839  -0.54468
   2.40634   0.34335  -0.79907
   2.22678   0.35832  -1.02352
   2.06218   0.35832  -1.21805
   1.94247   0.35832  -1.45747
   1.80779   0.43313  -1.59215
   1.67312   0.52292  -1.74178
   1.56837   0.58277  -1.87646
   1.49355   0.56781  -2.02609
   1.40377   0.52292  -2.22062
   1.31399   0.49299  -2.38522
   1.26910   0.47803  -2.53486
   1.20924   0.49299  -2.68450
   1.19428   0.53788  -2.87903
   1.19428   0.55284  -3.07356
   1.20924   0.52292  -3.19327
   1.23917   0.46306  -3.31298
   1.26910   0.46306  -3.43269
   1.28406   0.41817  -3.55240
   1.31399   0.43313  -3.65714
   1.31399   0.47803  -3.74693
   1.28406   0.50795  -3.80678
   1.23917   0.50795  -3.83671
   1.14939   0.44810  -3.85167
   1.04464   0.41817  -3.83671
   0.88004   0.44810  -3.77685
   0.70047   0.43313  -3.68707
   0.49098   0.38824  -3.61225
   0.28149   0.29846  -3.47758
   0.08696   0.23861  -3.37283
  -0.16743   0.23861  -3.14838
  -0.37692   0.23861  -2.96881
  -0.58641   0.25357  -2.84910
  -0.79590   0.25357  -2.72939
  -0.96050   0.28350  -2.59472
  -1.12511   0.28350  -2.47501
  -1.28971   0.26853  -2.34033
  -1.37949   0.22364  -2.19070
  -1.51416   0.23861  -2.02609
  -1.61891   0.23861  -1.87646
  -1.75358   0.20868  -1.72682
  -1.87329   0.10393  -1.57718
  -1.99300  -0.03074  -1.39762
  -2.09775  -0.13549  -1.18812
  -2.23242  -0.21031  -0.94870
  -2.32221  -0.30009  -0.76914
  -2.47184  -0.40484  -0.52972
  -2.59155  -0.47965  -0.29030
  -2.72623  -0.56944  -0.03591
  -2.84594  -0.59936   0.21847
  -2.90579  -0.65922   0.47285
  -2.96565  -0.70411   0.66738
  -3.07039  -0.73404   0.87688
  -3.10032  -0.76397   1.08637
  -3.13025  -0.80886   1.32579
  -3.14521  -0.82382   1.56521
  -3.13025  -0.86871   1.80463
  -3.08536  -0.91360   2.05901
  -3.05543  -0.94353   2.31340
  -2.99558  -0.98842   2.56778
  -2.93572  -1.00339   2.80720
  -2.89083  -0.92857   3.04662
  -2.80105  -0.89864   3.28604
  -2.69630  -0.85375   3.42071
  -2.59155  -0.79389   3.55539
  -2.50177  -0.76397   3.64517
  -2.36710  -0.71907   3.70503
  -2.29228  -0.61433   3.73495
  -2.20250  -0.50958   3.74992
  -2.02293  -0.46469   3.73495
  -1.87329  -0.44973   3.74992
  -1.72366  -0.43476   3.70503
  -1.58898  -0.38987   3.70503
  -1.45431  -0.30009   3.67510
  -1.33460  -0.24023   3.66013
  -1.18496  -0.15045   3.63021
  -1.02036  -0.07563   3.63021
  -0.88569  -8.1E-40   3.60028
  -0.78094   0.07400   3.57035
  -0.66123   0.13386   3.55539
  -0.58641   0.22364   3.51050
  -0.51159   0.29846   3.45064
  -0.45174   0.40321   3.37582
  -0.42181   0.49299   3.31597
  -0.39188   0.53788   3.19626
  -0.36195   0.62766   3.04662
  -0.28714   0.71745   2.89698
  -0.24224   0.77730   2.65756
  -0.10757   0.77730   2.43311
   0.02710   0.77730   2.16376
   0.17674   0.82219   1.93930
   0.34134   0.85212   1.71485
   0.47602   0.91198   1.44550
   0.64062   0.97183   1.16119
   0.74536   1.01672   0.89184
   0.86507   1.07658   0.62249
   0.98478   1.15140   0.36811
   1.07457   1.18132   0.15861
   1.14939   1.16636  -0.06584
   1.22420   1.15140  -0.26037
   1.25413   1.13643  -0.42497
   1.29902   1.06161  -0.54468
   1.31399   1.00176  -0.64943
   1.29902   0.94190  -0.73921
   1.29902   0.92694  -0.82899
   1.34391   0.91198  -0.91878
   1.35888   0.89701  -1.03849
   1.38881   0.89701  -1.11330
   1.38881   0.91198  -1.20309
   1.41873   0.94190  -1.32280
   1.47859   1.00176  -1.45747
   1.53844   0.98679  -1.59215
   1.59830   1.00176  -1.72682
   1.65815   0.95687  -1.87646
   1.73297   0.94190  -1.99617
   1.83772   0.91198  -2.14580
   1.91254   0.85212  -2.35530
   1.97239   0.79227  -2.47501
   2.03225   0.73241  -2.62464
   2.12203   0.67256  -2.74435
   2.15196   0.62766  -2.84910
   2.18189   0.56781  -2.93888
   2.21181   0.50795  -3.04363
   2.19685   0.46306  -3.13341
   2.18189   0.41817  -3.20823
   2.16692   0.34335  -3.28305
   2.18189   0.31342  -3.31298
   2.13699   0.25357  -3.32794
   2.15196   0.16379  -3.31298
   2.15196   0.07400  -3.19327
   2.18189   0.04408  -3.08852
   2.16692   0.02911  -2.96881
   2.16692  -8.1E-40  -2.81917
   2.18189  -0.06067  -2.69946
   2.19685  -0.10556  -2.56479
   2.16692  -0.15045  -2.44508
   2.19685  -0.19534  -2.31041
   2.15196  -0.27016  -2.23559
   2.09210  -0.37491  -2.13084
   2.03225  -0.49462  -2.05602
   1.94247  -0.62929  -1.95128
   1.85268  -0.79389  -1.86149
   1.74794  -0.88368  -1.75675
   1.61326  -0.98842  -1.68193
   1.44866  -1.06324  -1.59215
   1.31399  -1.10813  -1.53229
   1.16435  -1.15302  -1.44251
   0.99975  -1.22784  -1.35272
   0.85011  -1.27273  -1.23301
   0.70047  -1.34755  -1.11330
   0.55084  -1.43734  -0.93374
   0.41616  -1.51215  -0.73921
   0.28149  -1.54208  -0.51475
   0.16178  -1.58697  -0.29030
  -0.00282  -1.64683  -0.06584
  -0.12253  -1.67676   0.12869
  -0.25721  -1.70668   0.33818
  -0.39188  -1.70668   0.53271
  -0.52656  -1.70668   0.69731
  -0.66123  -1.67676   0.83198
  -0.78094  -1.70668   0.95169
  -0.88569  -1.66179   1.07140
  -0.97547  -1.63186   1.17615
  -1.03532  -1.54208   1.26593
  -1.08021  -1.46726   1.35572
  -1.08021  -1.42237   1.43053
  -1.12511  -1.34755   1.50535
  -1.14007  -1.28770   1.64003
  -1.18496  -1.21288   1.72981
  -1.21489  -1.16799   1.84952
  -1.22985  -1.12310   1.95427
  -1.24482  -1.09317   2.01412
  -1.30467  -1.06324   2.10390
  -1.33460  -1.03331   2.20865
  -1.39445  -1.03331   2.29843
  -1.43934  -0.97346   2.40318
  -1.42438  -0.88368   2.43311
  -1.43934  -0.79389   2.50793
  -1.42438  -0.68915   2.53785
  -1.43934  -0.52455   2.53785
  -1.43934  -0.37491   2.52289
  -1.43934  -0.22527   2.53785
  -1.45431  -0.10556   2.50793
  -1.40942   0.05904   2.50793
  -1.37949   0.19371   2.49296
  -1.34956   0.34335   2.41814
  -1.31963   0.47803   2.35829
  -1.30467   0.58277   2.31340
  -1.28971   0.65759   2.26851
  -1.30467   0.73241   2.19369
  -1.30467   0.71745   2.13383
  -1.25978   0.73241   2.05901
  -1.22985   0.70248   2.01412
  -1.18496   0.65759   1.93930
  -1.18496   0.58277   1.83456
  -1.18496   0.53788   1.71485
  -1.19992   0.49299   1.61010
  -1.27474   0.47803   1.46046
  -1.31963   0.49299   1.32579
  -1.34956   0.50795   1.19111
  -1.40942   0.58277   1.04148
  -1.46927   0.64263   0.86191
  -1.52913   0.67256   0.63746
  -1.52913   0.68752   0.42796
  -1.54409   0.70248   0.23343
  -1.55905   0.70248   0.00898
  -1.54409   0.73241  -0.20052
  -1.49920   0.74737  -0.46986
  -1.43934   0.76234  -0.70928
  -1.37949   0.82219  -0.93374
  -1.31963   0.86708  -1.17316
  -1.21489   0.86708  -1.41258
  -1.11014   0.91198  -1.62207
  -0.97547   0.95687  -1.89142
  -0.85576   0.98679  -2.13084
  -0.76598   1.00176  -2.34033
  -0.66123   0.98679  -2.51990
  -0.55648   1.04665  -2.65457
  -0.42181   1.06161  -2.80421
  -0.31706   1.09154  -2.95385
  -0.19735   1.09154  -3.11845
  -0.10757   1.06161  -3.23816
   0.05703   1.01672  -3.35787
   0.23660   0.97183  -3.44765
   0.34134   0.95687  -3.49254
   0.50594   0.94190  -3.56736
   0.65558   0.89701  -3.64218
   0.79026   0.85212  -3.70204
   0.89500   0.79227  -3.73196
   0.96982   0.74737  -3.74693
   1.10449   0.71745  -3.74693
   1.19428   0.71745  -3.73196
   1.26910   0.71745  -3.67211
   1.31399   0.70248  -3.64218
   1.32895   0.61270  -3.58233
   1.35888   0.55284  -3.52247
   1.38881   0.46306  -3.43269
   1.46362   0.44810  -3.34290
   1.52348   0.38824  -3.17830
   1.55341   0.32839  -3.05859
   1.56837   0.17875  -2.90896
   1.61326   0.02911  -2.77428
   1.62823  -0.10556  -2.56479
   1.68808  -0.25520  -2.37026
   1.71801  -0.35994  -2.16077
   1.71801  -0.49462  -1.93631
   1.67312  -0.59936  -1.68193
   1.64319  -0.64426  -1.42754
   1.62823  -0.67418  -1.20309
   1.59830  -0.74900  -0.93374
   1.59830  -0.80886  -0.69432
   1.59830  -0.82382  -0.42497
   1.61326  -0.82382  -0.15562
   1.62823  -0.83878   0.11372
   1.64319  -0.77893   0.36811
   1.70304  -0.77893   0.65242
   1.76290  -0.70411   0.92177
   1.80779  -0.64426   1.19111
   1.85268  -0.61433   1.46046
   1.89757  -0.55447   1.72981
   1.94247  -0.58440   2.01412
   1.97239  -0.56944   2.29843
   1.97239  -0.55447   2.59771
   1.95743  -0.50958   2.86706
   1.92750  -0.44973   3.07655
   1.88261  -0.46469   3.31597
   1.80779  -0.46469   3.51050
   1.73297  -0.47965   3.66013
   1.61326  -0.47965   3.86963
   1.50852  -0.47965   4.01927
   1.32895  -0.43476   4.18387
   1.25413  -0.40484   4.27365
   1.07457  -0.38987   4.37840
   0.90997  -0.38987   4.45321
   0.73040  -0.38987   4.52803
   0.53587  -0.34498   4.55796
   0.28149  -0.33002   4.63278
   0.07200  -0.27016   4.70760
  -0.16743  -0.24023   4.75249
  -0.39188  -0.18038   4.75249
  -0.57145  -0.13549   4.75249
  -0.73605  -0.10556   4.67767
  -0.88569  -0.12052   4.55796
  -1.00540  -0.12052   4.46818
  -1.11014  -0.10556   4.37840
  -1.17000  -0.09060   4.25869
  -1.27474  -0.07563   4.12401
  -1.36453  -0.01578   3.97437
  -1.42438   0.04408   3.85466
  -1.48424   0.10393   3.71999
  -1.55905   0.19371   3.57035
  -1.61891   0.23861   3.40575
  -1.70869   0.28350   3.22619
  -1.79848   0.35832   3.01669
  -1.90322   0.41817   2.82216
  -1.96308   0.49299   2.62764
  -2.06782   0.53788   2.43311
  -2.17257   0.56781   2.23858
  -2.23242   0.61270   2.01412
  -2.27732   0.62766   1.80463
  -2.32221   0.61270   1.56521
  -2.41199   0.58277   1.35572
  -2.48681   0.53788   1.16119
  -2.56163   0.49299   0.92177
  -2.63645   0.44810   0.69731
  -2.69630   0.43313   0.45789
  -2.75616   0.47803   0.23343
  -2.84594   0.50795   0.00898
  -2.93572   0.55284  -0.23044
  -2.99558   0.58277  -0.45490
  -3.07039   0.59774  -0.67936
  -3.11529   0.62766  -0.90381
  -3.19010   0.64263  -1.14323
  -3.24996   0.61270  -1.35272
  -3.24996   0.56781  -1.56222
  -3.29485   0.52292  -1.77171
  -3.29485   0.46306  -1.95128
  -3.29485   0.35832  -2.08595
  -3.26492   0.29846  -2.25055
  -3.19010   0.17875  -2.37026
  -3.11529   0.07400  -2.53486
  -3.02550  -8.1E-40  -2.59472
  -2.89083  -0.10556  -2.69946
  -2.77112  -0.13549  -2.80421
  -2.60652  -0.16542  -2.90896
  -2.44192  -0.25520  -2.96881
  -2.21746  -0.30009  -3.05859
  -2.03790  -0.31505  -3.08852
  -1.84337  -0.30009  -3.16334
  -1.69373  -0.34498  -3.19327
  -1.49920  -0.35994  -3.20823
  -1.31963  -0.34498  -3.26809
  -1.11014  -0.33002  -3.26809
  -0.94554  -0.34498  -3.25312
  -0.79590  -0.35994  -3.25312
  -0.63130  -0.40484  -3.22319
  -0.45174  -0.41980  -3.17830
  -0.24224  -0.40484  -3.14838
  -0.07764  -0.38987  -3.08852
   0.07200  -0.37491  -2.99874
   0.20667  -0.40484  -2.96881
   0.37127  -0.41980  -2.89399
   0.56580  -0.40484  -2.80421
   0.77529  -0.37491  -2.72939
   0.98478  -0.34498  -2.63961
   1.16435  -0.31505  -2.53486
   1.35888  -0.25520  -2.35530
   1.53844  -0.21031  -2.16077
   1.74794  -0.15045  -1.99617
   1.91254  -0.12052  -1.80164
   2.09210  -0.09060  -1.59215
   2.25670  -0.06067  -1.39762
   2.45123  -0.07563  -1.12827
   2.60087  -0.01578  -0.88885
   2.73554   0.01415  -0.63446
   2.90015   0.02911  -0.45490
   3.06475  -8.1E-40  -0.24541
   3.16949  -0.03074  -0.06584
   3.33409  -0.04571   0.09876
   3.46877  -0.03074   0.32322
   3.55855  -0.03074   0.41300
   3.64833  -0.03074   0.56264
   3.70819  -0.01578   0.66738
   3.79797  -0.04571   0.74220
   3.81294  -0.03074   0.83198
   3.84286  -0.01578   0.92177
   3.88775   0.02911   1.02651
   3.90272   0.08897   1.14622
   3.82790   0.08897   1.25097
   3.75308   0.07400   1.32579
   3.66330   0.01415   1.41557
   3.54359  -8.1E-40   1.46046
   3.43884   0.02911   1.53528
   3.28920   0.02911   1.56521
   3.12460   0.08897   1.59514
   2.96000   0.11890   1.62506
   2.81036   0.11890   1.64003
   2.66073   0.10393   1.65499
   2.48116   0.10393   1.62506
   2.36145   0.08897   1.59514
   2.19685   0.10393   1.58017
   2.01728   0.08897   1.50535
   1.85268   0.10393   1.49039
   1.70304   0.04408   1.43053
   1.47859   0.02911   1.38564
   1.23917  -0.01578   1.31082
   1.01471  -0.10556   1.25097
   0.80522  -0.12052   1.20608
   0.52091  -0.13549   1.16119
   0.28149  -0.09060   1.10133
  -0.01779  -0.04571   1.02651
  -0.27217  -8.1E-40   0.95169
  -0.60137  -8.1E-40   0.86191
  -0.87072  -8.1E-40   0.74220
  -1.17000   0.01415   0.63746
  -1.40942   0.02911   0.53271
  -1.66380   0.11890   0.39804
  -1.88826   0.17875   0.27833
  -2.08279   0.25357   0.15861
  -2.27732   0.26853   0.00898
  -2.44192   0.26853  -0.12570
  -2.62148   0.28350  -0.29030
  -2.74119   0.22364  -0.46986
  -2.87587   0.13386  -0.61950
  -2.99558   0.08897  -0.78410
  -3.16018   0.05904  -0.90381
  -3.26492  -0.03074  -0.99359
  -3.36967  -0.03074  -1.11330
  -3.45945  -0.04571  -1.21805
  -3.56420  -0.04571  -1.30783
  -3.62405  -0.07563  -1.39762
  -3.69887  -0.15045  -1.47243
  -3.75873  -0.18038  -1.53229
  -3.77369  -0.19534  -1.57718
  -3.78866  -0.19534  -1.60711
  -3.78866  -0.18038  -1.59215
  -3.75873  -0.13549  -1.59215
  -3.74376  -0.12052  -1.59215
  -3.72880  -0.13549  -1.59215
  -3.65398  -0.19534  -1.59215
  -3.53427  -0.19534  -1.56222
  -3.44449  -0.21031  -1.56222
  -3.29485  -0.19534  -1.48740
  -3.14521  -0.16542  -1.48740
  -2.99558  -0.15045  -1.47243
  -2.78608  -0.13549  -1.42754
  -2.57659  -0.15045  -1.42754
  -2.36710  -0.13549  -1.38265
