********************************************************************************
              CENTRO DE INSTRUMENTACION Y REGISTRO SISMICO  A.C.

    Anaxagoras 814, Col. Narvarte, Benito Juarez, C.P. 03020 Mexico, D.F.
           Tels. 5687 45 42/ 5687 45  82             Fax. 5669 25 12
********************************************************************************
ARCHIVO ESTANDAR DE ACELERACION:
VERSION DEL FORMATO                    : 2.0
NOMBRE DEL ARCHIVO                     : AO2420130816153259
FECHA Y HORA DE CREACION               : 10/SEP/13, 11:47
REF. CATALOGO ACELEROGRAMAS, SMIS 1996 : REGISTRO No.     /PAG.


================================================================================
DATOS DE LA ESTACION:
NOMBRE DE LA ESTACION                  : ALBERCA OLÍMPICA
CLAVE DE LA ESTACION                   : AO24
LOCALIZACION DE LA ESTACION            : Del. Benito Juárez, Col. General Pedro 
                                       : María Anaya, Río Churubusco            
                                       : y División del Norte.                  
                                       :                                        
                                       : 
COORDENADAS DE LA ESTACION             : 19.3580 LAT. N
                                       : 99.1539 LONG. W
ALTITUD (msnm)                         : 2235
TIPO DE SUELO                          : Transición                          
                                       :                           
                                       : 
INSTITUCION RESPONSABLE                : CIRES
                                       : 

================================================================================
DATOS DEL ACELEROGRAFO:
MODELO DEL ACELEROGRAFO                : RADESD
NUMERO DE SERIE DEL ACELEROGRAFO       : 257
NUMERO DE CANALES                      : 3
ORIENTACION C1-C6 (rumbo;orientacion)  : /N00E/+V/N90W
ORIENTACION C7-C12 (rumbo;orientacion) : 
VEL. DE MUESTREO, C1-C6 (muestras/s)   : /100/100/100
VEL. DE MUESTREO, C7-C12 (muestras/s)  : 
ESC. COMPLETA DE SENSORES, C1-C6, (g)  : /0.5/0.5/0.5
ESC. COMPLETA DE SENSORES, C7-C12, (g) : 
FREC. NAT. DE SENSORES, C1-C6, (Hz)    : /30/30/30
FREC. NAT. DE SENSORES, C7-C12, (Hz)   : 
AMORTIGUAMIENTO DE SENSORES, C1-C6     : /0.700/0.700/0.700
AMORTIGUAMIENTO DE SENSORES, C7-C12    : 
INTERVALO DE MUESTREO, C1-C6, (s)      : /0.01/0.01/0.01
INTERVALO DE MUESTREO, C7-C12, (s)     : 
UMBRAL DE DISPARO, C1-C6, (Gal)        : /19.15/50.28/26.34
UMBRAL DE DISPARO, C7-C12, (Gal)       : 
MEMORIA DE PREEVENTO (s)               : 56.0
TIEMPO DE POSEVENTO (s)                : 80.0


================================================================================
DATOS DEL SISMO:
FECHA DEL SISMO (GMT)                  : 16/AGO/13
HORA EPICENTRO (GMT)                   : 15:32:59.0
MAGNITUD(ES)                           : /Mc=5.1
COORDENADAS DEL EPICENTRO              : 16.54 LAT. N
                                       : 98.59 LONG. W
PROFUNDIDAD FOCAL (km)                 : 20
FUENTE DE LOS DATOS EPICENTRALES       : SSN
                                       : INSTITUTO DE GEOFISICA, UNAM

================================================================================
DATOS DE ESTE REGISTRO:
HORA DE LA PRIMERA MUESTRA (GMT)       : 15:34:38.00
EXACTITUD DEL TIEMPO (s)               : 0.01
DURACION DEL REGISTRO (s), C1-C6       : /137.4/137.4/137.4
DURACION DEL REGISTRO (s), C7-C12      : 
NUM. TOTAL DE MUESTRAS, C1-C6          : /13740/13740/13740
NUM. TOTAL DE MUESTRAS, C7-C12         : 
ACEL. MAX. (Gal), C1-C6                : /1.8134/0.60023/1.44962
ACEL. MAX., C1-C6, EN LA MUESTRA       : /4629/3991/4949
ACEL. MAX. (Gal), C7-C12               : 
ACEL. MAX., C7-C12, EN LA MUESTRA      : 
UNIDADES DE LOS DATOS                  : Gal (cm/s/s)
FACTOR DE DECIMACION                   : 1
FORMATO DATOS (FORTRAN,10 campos/dato) : 3F10.5


================================================================================
CALIDAD DEL ACELEROGRAMA:
REGISTRO DIGITAL COMPLETO CON TIEMPO ABSOLUTO CORRECTO.


================================================================================
COMENTARIOS:














================================================================================
DATOS DE ACELERACION:
---------+---------+---------+---------+---------+---------+---------+---------+
   CANAL-1   CANAL-2   CANAL-3   CANAL-4   CANAL-5   CANAL-6   CANAL-7   CANAL-8
      N00E        +V      N90W
---------+---------+---------+---------+---------+---------+---------+---------+
[...]
  -1.02972  -0.03161   0.35727
  -1.07461  -0.03161   0.43209
  -1.05965  -0.00168   0.50690
  -1.07461   0.05817   0.59669
  -1.07461   0.07314   0.68647
  -1.11950   0.11803   0.70143
  -1.14943   0.10306   0.74632
  -1.14943   0.07314   0.76129
  -1.14943   0.04321   0.77625
  -1.10454   0.04321   0.77625
  -1.04468   0.02825   0.80618
  -0.99979   0.08810   0.82114
  -0.99979   0.13299   0.83611
  -0.98483   0.13299   0.88100
  -0.98483   0.07314   0.86603
  -0.92497   0.02825   0.82114
  -0.85015   0.04321   0.80618
  -0.79030   0.05817   0.74632
  -0.77533   0.01328   0.71640
  -0.73044  -0.04657   0.71640
  -0.74541  -0.09146   0.74632
  -0.74541  -0.10643   0.74632
  -0.68555  -0.10643   0.68647
  -0.65562  -0.10643   0.64158
  -0.59577  -0.09146   0.58172
  -0.56584  -0.15132   0.59669
  -0.53591  -0.16628   0.59669
  -0.49102  -0.18125   0.56676
  -0.52095  -0.21117   0.56676
  -0.49102  -0.24110   0.55180
  -0.44613  -0.25607   0.50690
  -0.38628  -0.27103   0.43209
  -0.32642  -0.25607   0.40216
  -0.28153  -0.21117   0.37223
  -0.25160  -0.19621   0.32734
  -0.16182  -0.16628   0.26748
  -0.08700  -0.16628   0.22259
  -0.08700  -0.18125   0.20763
  -0.08700  -0.09146   0.17770
  -0.05707   0.02825   0.08792
   0.03271   0.10306  -0.01683
   0.07760   0.14796  -0.18143
   0.13746   0.13299  -0.22632
   0.18235   0.11803  -0.28617
   0.21227   0.07314  -0.30114
   0.27213   0.11803  -0.33107
   0.30206   0.11803  -0.36099
   0.34695   0.14796  -0.45078
   0.42177   0.13299  -0.48070
   0.55644   0.04321  -0.55552
   0.69111   0.01328  -0.57049
   0.75097   0.02825  -0.61538
   0.84075   0.02825  -0.64531
   0.91557   0.04321  -0.61538
   0.96046   0.02825  -0.60041
   1.03528   0.08810  -0.57049
   1.11010   0.22277  -0.52560
   1.12506   0.32752  -0.52560
   1.15499   0.32752  -0.55552
   1.15499   0.25270  -0.57049
   1.18492   0.16292  -0.54056
   1.16995   0.04321  -0.49567
   1.19988   0.02825  -0.43581
   1.18492  -0.00168  -0.42085
   1.15499   0.02825  -0.45078
   1.11010   0.07314  -0.52560
   1.06521   0.10306  -0.52560
   1.02032   0.07314  -0.54056
   1.03528   0.05817  -0.55552
   0.99039   0.07314  -0.60041
   0.93053   0.04321  -0.57049
   0.85572   0.01328  -0.57049
   0.78090   0.02825  -0.55552
   0.73601   0.10306  -0.54056
   0.69111   0.13299  -0.52560
   0.64622   0.17788  -0.55552
   0.63126   0.22277  -0.49567
   0.55644   0.22277  -0.42085
   0.46666   0.22277  -0.37596
   0.43673   0.22277  -0.30114
   0.42177   0.23774  -0.25625
   0.37688   0.20781  -0.22632
   0.31702   0.26767  -0.24128
   0.21227   0.35745  -0.18143
   0.12249   0.41730  -0.10661
   0.07760   0.43227  -0.07668
   0.06264   0.37241  -0.00186
   0.04767   0.38738   0.14777
  -0.02715   0.34248   0.17770
  -0.11693   0.20781   0.19267
  -0.20671   0.11803   0.19267
  -0.29649   0.20781   0.25252
  -0.31146   0.19285   0.31238
  -0.37131   0.14796   0.31238
  -0.47606   0.14796   0.37223
  -0.53591   0.10306   0.40216
  -0.65562   0.01328   0.44705
  -0.79030  -0.01665   0.52187
  -0.83519  -0.03161   0.49194
  -0.96986   0.01328   0.50690
  -1.05965   0.04321   0.50690
  -1.14943   0.07314   0.50690
  -1.22425   0.05817   0.55180
  -1.32899   0.02825   0.58172
  -1.38885  -0.00168   0.59669
  -1.47863   0.02825   0.56676
  -1.50856   0.04321   0.61165
  -1.55345   0.04321   0.59669
  -1.53849   0.01328   0.56676
  -1.53849  -0.06154   0.58172
  -1.49359  -0.10643   0.61165
  -1.46367  -0.13636   0.70143
  -1.44870  -0.04657   0.71640
  -1.40381   0.02825   0.71640
  -1.25417   0.10306   0.65654
  -1.10454   0.13299   0.65654
  -1.10454   0.05817   0.64158
  -1.14943   0.04321   0.68647
  -1.11950  -0.00168   0.64158
  -1.07461  -0.04657   0.61165
  -0.86512  -0.00168   0.65654
  -0.68555   0.01328   0.62661
  -0.50599  -0.01665   0.53683
  -0.38628  -0.06154   0.52187
  -0.34139  -0.06154   0.47698
  -0.22167  -0.01665   0.47698
  -0.13189  -0.03161   0.47698
  -0.02715  -0.13636   0.43209
   0.16738  -0.19621   0.38719
   0.27213  -0.18125   0.38719
   0.28709  -0.09146   0.31238
   0.34695   0.05817   0.23756
   0.46666   0.04321   0.10288
   0.60133  -0.06154   0.04303
   0.69111  -0.12139  -0.00186
   0.72104  -0.09146   0.04303
   0.72104  -0.01665   0.08792
   0.76593   0.02825   0.01310
   0.87068  -0.01665  -0.09165
   0.99039  -0.07650  -0.13654
   1.02032  -0.15132  -0.18143
   1.08017  -0.13636  -0.16646
   1.08017  -0.04657  -0.18143
   1.11010  -0.01665  -0.21136
   1.15499  -0.06154  -0.27121
   1.19988  -0.09146  -0.24128
   1.21485  -0.21117  -0.27121
   1.19988  -0.30096  -0.25625
   1.16995  -0.25607  -0.24128
   1.15499  -0.16628  -0.24128
   1.12506  -0.19621  -0.27121
   1.11010  -0.22614  -0.31610
   1.06521  -0.24110  -0.31610
   1.02032  -0.30096  -0.28617
   0.96046  -0.27103  -0.33107
   0.91557  -0.18125  -0.33107
   0.85572  -0.10643  -0.36099
   0.81082  -0.03161  -0.39092
   0.78090  -0.04657  -0.40588
   0.75097  -0.04657  -0.45078
   0.67615  -0.06154  -0.54056
   0.67615  -0.09146  -0.54056
   0.64622  -0.03161  -0.52560
   0.61630   0.07314  -0.49567
   0.60133   0.08810  -0.49567
   0.58637   0.11803  -0.51063
   0.60133   0.16292  -0.46574
   0.57140   0.19285  -0.45078
   0.54148   0.22277  -0.43581
   0.48162   0.19285  -0.40588
   0.43673   0.14796  -0.37596
   0.37688   0.08810  -0.39092
   0.34695   0.05817  -0.37596
   0.33198   0.02825  -0.33107
   0.27213  -0.01665  -0.37596
   0.22724  -0.03161  -0.36099
   0.19731  -0.07650  -0.33107
   0.09256  -0.07650  -0.37596
  -0.01218  -0.09146  -0.36099
  -0.05707  -0.10643  -0.34603
  -0.13189  -0.09146  -0.31610
  -0.17678  -0.07650  -0.31610
  -0.23664  -0.03161  -0.33107
  -0.31146   0.05817  -0.34603
  -0.38628   0.08810  -0.36099
  -0.44613   0.14796  -0.34603
  -0.52095   0.14796  -0.27121
  -0.58081   0.13299  -0.22632
  -0.64066   0.08810  -0.18143
  -0.65562   0.13299  -0.15150
  -0.70052   0.10306  -0.15150
  -0.73044   0.08810  -0.15150
  -0.79030   0.11803  -0.15150
  -0.77533   0.02825  -0.09165
  -0.76037  -0.07650  -0.10661
  -0.76037  -0.10643  -0.13654
  -0.79030  -0.13636  -0.12157
  -0.82023  -0.15132  -0.07668
  -0.80526  -0.13636  -0.04675
  -0.77533  -0.19621  -0.03179
  -0.74541  -0.25607  -0.04675
  -0.71548  -0.25607  -0.04675
  -0.68555  -0.25607  -0.01683
  -0.74541  -0.25607  -0.04675
  -0.77533  -0.25607  -0.06172
  -0.74541  -0.25607  -0.03179
  -0.73044  -0.30096  -0.04675
  -0.71548  -0.25607  -0.04675
  -0.73044  -0.16628   0.02806
  -0.71548  -0.03161   0.07296
  -0.68555   0.01328   0.05799
  -0.68555   0.01328   0.07296
  -0.68555  -0.00168   0.10288
  -0.71548  -0.04657   0.14777
  -0.68555  -0.12139   0.16274
  -0.67059  -0.15132   0.19267
  -0.65562  -0.15132   0.16274
  -0.61073  -0.13636   0.13281
  -0.55088  -0.19621   0.14777
  -0.49102  -0.18125   0.20763
  -0.43117  -0.19621   0.20763
  -0.35635  -0.12139   0.20763
  -0.34139  -0.04657   0.19267
  -0.25160  -0.06154   0.20763
  -0.16182  -0.10643   0.23756
  -0.08700  -0.15132   0.22259
   0.00278  -0.18125   0.22259
   0.07760  -0.13636   0.25252
   0.18235  -0.10643   0.25252
   0.28709  -0.04657   0.28245
   0.39184  -0.03161   0.31238
   0.46666  -0.01665   0.32734
   0.55644  -0.03161   0.37223
   0.64622  -0.03161   0.40216
   0.72104   0.04321   0.41712
   0.79586   0.16292   0.44705
   0.91557   0.13299   0.43209
   0.99039   0.16292   0.43209
   1.06521   0.20781   0.41712
   1.09514   0.25270   0.40216
   1.09514   0.17788   0.37223
   1.09514   0.11803   0.38719
   0.99039   0.08810   0.37223
   1.03528   0.01328   0.34230
   1.08017   0.01328   0.28245
   1.16995   0.02825   0.26748
   1.15499   0.05817   0.22259
   1.19988   0.02825   0.23756
   1.16995   0.08810   0.17770
   1.12506   0.07314   0.16274
   1.12506   0.01328   0.17770
   1.12506   0.05817   0.11785
   1.09514   0.05817   0.13281
   1.08017   0.07314   0.14777
   1.11010   0.08810   0.16274
   1.11010   0.05817   0.16274
   1.11010  -0.04657   0.16274
   1.06521  -0.03161   0.17770
   1.00535  -0.06154   0.17770
   0.96046  -0.03161   0.13281
   0.87068   0.01328   0.11785
   0.81082  -0.01665   0.04303
   0.79586   0.02825  -0.03179
   0.70608   0.05817  -0.09165
   0.66119   0.01328  -0.12157
   0.49659  -0.00168  -0.22632
   0.37688  -0.04657  -0.34603
   0.28709  -0.07650  -0.37596
   0.15242  -0.07650  -0.42085
   0.09256  -0.01665  -0.51063
   0.04767   0.02825  -0.57049
  -0.04211   0.11803  -0.61538
  -0.10196   0.13299  -0.63034
  -0.17678   0.08810  -0.64531
  -0.25160   0.10306  -0.63034
  -0.34139   0.11803  -0.63034
  -0.37131   0.10306  -0.61538
  -0.41620   0.14796  -0.63034
  -0.50599   0.16292  -0.66027
  -0.55088   0.17788  -0.66027
  -0.62570   0.14796  -0.64531
  -0.73044   0.11803  -0.61538
  -0.80526   0.13299  -0.63034
  -0.86512   0.13299  -0.63034
  -0.96986   0.13299  -0.61538
  -0.99979   0.11803  -0.60041
  -1.07461   0.07314  -0.63034
  -1.19432   0.01328  -0.61538
  -1.26914  -0.00168  -0.58545
  -1.34396  -0.01665  -0.54056
  -1.43374  -0.03161  -0.51063
  -1.55345  -0.10643  -0.46574
  -1.61330  -0.12139  -0.42085
  -1.64323  -0.09146  -0.39092
  -1.62827  -0.13636  -0.37596
  -1.65820  -0.16628  -0.33107
  -1.74798  -0.09146  -0.25625
  -1.76294  -0.07650  -0.13654
  -1.77791  -0.03161  -0.07668
  -1.79287  -0.03161  -0.00186
  -1.77791  -0.09146   0.05799
  -1.76294  -0.07650   0.16274
  -1.73301  -0.03161   0.23756
  -1.65820  -0.07650   0.31238
  -1.59834  -0.09146   0.34230
  -1.56841  -0.10643   0.40216
  -1.49359  -0.10643   0.46201
  -1.46367  -0.07650   0.50690
  -1.37388  -0.06154   0.56676
  -1.28410  -0.06154   0.58172
  -1.17936  -0.12139   0.58172
  -1.10454  -0.15132   0.64158
  -1.07461  -0.06154   0.70143
  -1.02972   0.04321   0.74632
  -0.92497   0.08810   0.80618
  -0.80526   0.14796   0.86603
  -0.74541   0.13299   0.91093
  -0.61073   0.04321   0.95582
  -0.53591   0.11803   1.03064
  -0.46110   0.23774   1.10545
  -0.34139   0.35745   1.10545
  -0.22167   0.40234   1.10545
  -0.07204   0.34248   1.16531
   0.09256   0.17788   1.19524
   0.21227   0.13299   1.24013
   0.31702   0.07314   1.29998
   0.37688   0.04321   1.25509
   0.48162   0.07314   1.19524
   0.60133  -0.01665   1.16531
   0.70608  -0.07650   1.15035
   0.84075  -0.09146   1.18027
   0.90061  -0.09146   1.19524
   0.96046  -0.04657   1.15035
   1.06521  -0.01665   1.09049
   1.12506  -0.03161   1.01567
   1.21485  -0.06154   0.97078
   1.27470  -0.07650   0.86603
   1.36448  -0.09146   0.79122
   1.43930  -0.04657   0.74632
   1.46923  -0.03161   0.68647
   1.48419  -0.04657   0.64158
   1.51412   0.01328   0.56676
   1.55901   0.05817   0.47698
   1.63383   0.08810   0.41712
   1.69369   0.11803   0.32734
   1.76851   0.11803   0.22259
   1.81340   0.11803   0.16274
   1.81340   0.13299   0.08792
   1.73858   0.22277   0.05799
   1.70865   0.29759  -0.04675
   1.72361   0.31256  -0.13654
   1.78347   0.26767  -0.25625
   1.79843   0.16292  -0.36099
   1.78347   0.11803  -0.46574
   1.75354   0.11803  -0.52560
   1.69369   0.13299  -0.58545
   1.61887   0.14796  -0.63034
   1.52909   0.19285  -0.67523
   1.45427   0.11803  -0.73509
   1.42434   0.02825  -0.79494
   1.33456  -0.04657  -0.86976
   1.22981  -0.10643  -0.92962
   1.12506  -0.16628  -0.94458
   1.00535  -0.22614  -0.98947
   0.87068  -0.25607  -1.03436
   0.76593  -0.28599  -1.03436
   0.66119  -0.28599  -1.07925
   0.60133  -0.33088  -1.10918
   0.49659  -0.34585  -1.19896
   0.45169  -0.30096  -1.27378
   0.39184  -0.22614  -1.27378
   0.31702  -0.15132  -1.28875
   0.22724  -0.04657  -1.30371
   0.18235  -0.01665  -1.33364
   0.16738  -0.15132  -1.37853
   0.15242  -0.16628  -1.43838
   0.06264  -0.10643  -1.40846
  -0.05707  -0.01665  -1.37853
  -0.07204   0.05817  -1.33364
  -0.11693   0.17788  -1.33364
  -0.17678   0.13299  -1.22889
  -0.23664   0.05817  -1.12415
  -0.34139   0.08810  -1.07925
  -0.44613   0.01328  -1.00444
  -0.50599   0.04321  -0.95954
  -0.58081   0.08810  -0.94458
  -0.64066  -0.00168  -0.86976
  -0.74541   0.05817  -0.76502
  -0.86512   0.13299  -0.69020
  -0.98483   0.14796  -0.66027
  -1.05965   0.13299  -0.61538
  -1.11950   0.10306  -0.58545
  -1.16439   0.02825  -0.52560
  -1.22425   0.01328  -0.46574
  -1.28410   0.07314  -0.42085
  -1.34396   0.07314  -0.36099
  -1.38885   0.11803  -0.31610
  -1.41878   0.19285  -0.28617
  -1.41878   0.13299  -0.25625
  -1.41878   0.07314  -0.15150
  -1.43374  -0.00168  -0.07668
  -1.47863  -0.06154   0.02806
  -1.49359   0.01328   0.10288
  -1.46367   0.19285   0.14777
  -1.37388   0.32752   0.17770
  -1.25417   0.38738   0.23756
  -1.19432   0.31256   0.29741
  -1.11950   0.17788   0.37223
  -1.07461   0.02825   0.44705
  -1.07461  -0.04657   0.49194
  -1.02972  -0.03161   0.58172
  -0.95490   0.02825   0.67151
  -0.86512   0.13299   0.68647
  -0.77533   0.07314   0.67151
  -0.67059   0.02825   0.67151
  -0.61073  -0.01665   0.70143
  -0.56584  -0.04657   0.77625
  -0.47606  -0.07650   0.80618
  -0.35635  -0.03161   0.86603
  -0.23664   0.01328   0.88100
  -0.19175  -0.01665   0.88100
  -0.14686  -0.12139   0.80618
  -0.16182  -0.21117   0.77625
  -0.16182  -0.21117   0.80618
  -0.16182  -0.13636   0.85107
  -0.08700  -0.03161   0.97078
   0.00278  -0.00168   1.01567
   0.09256  -0.09146   1.03064
   0.19731  -0.19621   0.98574
   0.24220  -0.28599   0.95582
   0.27213  -0.31592   0.88100
   0.30206  -0.25607   0.86603
   0.40680  -0.10643   0.92589
   0.51155   0.01328   0.92589
   0.58637   0.02825   0.88100
   0.60133  -0.07650   0.83611
   0.60133  -0.22614   0.79122
   0.64622  -0.27103   0.80618
   0.69111  -0.24110   0.76129
   0.76593  -0.21117   0.76129
   0.79586  -0.15132   0.73136
   0.78090  -0.12139   0.74632
   0.76593  -0.24110   0.70143
   0.78090  -0.36081   0.71640
   0.78090  -0.37578   0.67151
   0.82579  -0.34585   0.61165
   0.87068  -0.27103   0.59669
   0.90061  -0.18125   0.55180
   0.93053  -0.18125   0.56676
   0.88564  -0.25607   0.61165
   0.84075  -0.34585   0.55180
   0.81082  -0.40570   0.52187
   0.82579  -0.33088   0.49194
   0.81082  -0.24110   0.44705
   0.84075  -0.19621   0.41712
   0.81082  -0.10643   0.43209
   0.73601  -0.07650   0.41712
   0.69111  -0.07650   0.41712
   0.64622  -0.07650   0.44705
   0.60133  -0.06154   0.41712
   0.54148  -0.09146   0.40216
   0.52651  -0.09146   0.35727
   0.48162  -0.07650   0.37223
   0.42177  -0.07650   0.41712
   0.39184  -0.00168   0.44705
   0.36191   0.07314   0.41712
   0.31702   0.11803   0.34230
   0.28709   0.13299   0.25252
   0.28709   0.10306   0.22259
   0.19731   0.10306   0.20763
   0.07760   0.17788   0.20763
  -0.01218   0.22277   0.19267
   0.00278   0.28263   0.08792
   0.01775   0.32752  -0.00186
   0.04767   0.31256  -0.12157
  -0.01218   0.32752  -0.16646
  -0.05707   0.35745  -0.16646
  -0.10196   0.40234  -0.19639
  -0.08700   0.40234  -0.22632
  -0.08700   0.35745  -0.25625
  -0.08700   0.37241  -0.31610
  -0.11693   0.37241  -0.37596
  -0.10196   0.38738  -0.43581
  -0.10196   0.38738  -0.54056
  -0.11693   0.32752  -0.64531
  -0.14686   0.32752  -0.70516
  -0.28153   0.31256  -0.72012
  -0.37131   0.32752  -0.75005
  -0.41620   0.34248  -0.75005
  -0.44613   0.34248  -0.80991
  -0.46110   0.29759  -0.91465
  -0.55088   0.22277  -1.03436
  -0.64066   0.22277  -1.07925
  -0.73044   0.29759  -1.07925
  -0.79030   0.28263  -1.12415
  -0.82023   0.17788  -1.13911
