********************************************************************************
              CENTRO DE INSTRUMENTACION Y REGISTRO SISMICO  A.C.

    Anaxagoras 814, Col. Narvarte, Benito Juarez, C.P. 03020 Mexico, D.F.
           Tels. 5687 45 42/ 5687 45  82             Fax. 5669 25 12
********************************************************************************
ARCHIVO ESTANDAR DE ACELERACION:
VERSION DEL FORMATO                    : 2.0
NOMBRE DEL ARCHIVO                     : AO2420170908044918
FECHA Y HORA DE CREACION               : 08/SEP/17, 16:12
REF. CATALOGO ACELEROGRAMAS, SMIS 1996 : REGISTRO No.     /PAG.


================================================================================
DATOS DE LA ESTACION:
NOMBRE DE LA ESTACION                  : ALBERCA OLÍMPICA
CLAVE DE LA ESTACION                   : AO24
LOCALIZACION DE LA ESTACION            : Del. Benito Juárez, Col. General Pedro 
                                       : María Anaya, Río Churubusco            
                                       : y División del Norte.                  
                                       :                                        
                                       : 
COORDENADAS DE LA ESTACION             : 19.3580 LAT. N
                                       : 99.1539 LONG. W
ALTITUD (msnm)                         : 2235
TIPO DE SUELO                          : Transición                          
                                       :                           
                                       : 
INSTITUCION RESPONSABLE                : CIRES
                                       : 

================================================================================
DATOS DEL ACELEROGRAFO:
MODELO DEL ACELEROGRAFO                : RADESD
NUMERO DE SERIE DEL ACELEROGRAFO       : 257
NUMERO DE CANALES                      : 3
ORIENTACION C1-C6 (rumbo;orientacion)  : /N00E/+V/N90W
ORIENTACION C7-C12 (rumbo;orientacion) : 
VEL. DE MUESTREO, C1-C6 (muestras/s)   : /100/100/100
VEL. DE MUESTREO, C7-C12 (muestras/s)  : 
ESC. COMPLETA DE SENSORES, C1-C6, (g)  : /0.5/0.5/0.5
ESC. COMPLETA DE SENSORES, C7-C12, (g) : 
FREC. NAT. DE SENSORES, C1-C6, (Hz)    : /30/30/30
FREC. NAT. DE SENSORES, C7-C12, (Hz)   : 
AMORTIGUAMIENTO DE SENSORES, C1-C6     : /0.700/0.700/0.700
AMORTIGUAMIENTO DE SENSORES, C7-C12    : 
INTERVALO DE MUESTREO, C1-C6, (s)      : /0.01/0.01/0.01
INTERVALO DE MUESTREO, C7-C12, (s)     : 
UMBRAL DE DISPARO, C1-C6, (Gal)        : /1.35/3.14/1.5
UMBRAL DE DISPARO, C7-C12, (Gal)       : 
MEMORIA DE PREEVENTO (s)               : 44.0
TIEMPO DE POSEVENTO (s)                : 64.0


================================================================================
DATOS DEL SISMO:
FECHA DEL SISMO (GMT)                  : 08/SEP/17
HORA EPICENTRO (GMT)                   : 04:49:18.0
MAGNITUD(ES)                           : /Mc=8.2
COORDENADAS DEL EPICENTRO              : 14.85 LAT. N
                                       : 94.11 LONG. W
PROFUNDIDAD FOCAL (km)                 : 58
FUENTE DE LOS DATOS EPICENTRALES       : SSN
                                       : INSTITUTO DE GEOFISICA, UNAM

================================================================================
DATOS DE ESTE REGISTRO:
HORA DE LA PRIMERA MUESTRA (GMT)       : 04:51:41.00
EXACTITUD DEL TIEMPO (s)               : 0.01
DURACION DEL REGISTRO (s), C1-C6       : /324.6/324.6/324.6
DURACION DEL REGISTRO (s), C7-C12      : 
NUM. TOTAL DE MUESTRAS, C1-C6          : /32460/32460/32460
NUM. TOTAL DE MUESTRAS, C7-C12         : 
ACEL. MAX. (Gal), C1-C6                : /28.08598/5.91864/19.53614
ACEL. MAX., C1-C6, EN LA MUESTRA       : /9611/9408/10706
ACEL. MAX. (Gal), C7-C12               : 
ACEL. MAX., C7-C12, EN LA MUESTRA      : 
UNIDADES DE LOS DATOS                  : Gal (cm/s/s)
FACTOR DE DECIMACION                   : 1
FORMATO DATOS (FORTRAN,10 campos/dato) : 3F10.5


================================================================================
CALIDAD DEL ACELEROGRAMA:
REGISTRO DIGITAL COMPLETO CON TIEMPO ABSOLUTO CORRECTO.


================================================================================
COMENTARIOS:














================================================================================
DATOS DE ACELERACION:
---------+---------+---------+---------+---------+---------+---------+---------+
   CANAL-1   CANAL-2   CANAL-3   CANAL-4   CANAL-5   CANAL-6   CANAL-7   CANAL-8
      N00E        +V      N90W
---------+---------+---------+---------+---------+---------+---------+---------+
[...]
   5.11661  -0.29227  -0.81457
   4.57791  -0.14263  -0.75472
   4.32353   0.21650  -0.64997
   3.75490   0.35118  -0.70983
   3.33592   0.74023  -0.76968
   2.88701   0.85994  -0.75472
   2.25853   1.05447  -0.88939
   1.74976   0.94973  -0.87443
   1.13625   1.03951  -1.11385
   0.50777   1.03951  -1.29341
  -0.00100   0.84498  -1.36823
  -0.62948   0.78513  -1.65254
  -1.15321   0.66542  -1.87700
  -1.76672   0.45592  -2.20620
  -2.26053   0.33621  -2.53540
  -2.85908   0.17161  -2.90950
  -3.39777   0.00701  -3.10403
  -3.83172   0.15665  -3.40330
  -4.20582   0.17161  -3.82229
  -4.52006   0.09679  -3.85222
  -4.93904   0.08183  -3.95696
  -5.05875   0.35118  -4.07667
  -5.31313   0.26139  -4.07667
  -5.38795   0.36614  -4.00185
  -5.52263   0.45592  -4.10660
  -5.71716   0.42600  -4.01682
  -5.85183   0.42600  -4.06171
  -6.00147   0.60556  -4.15149
  -5.92665   0.59060  -4.13653
  -6.16607   0.69534  -4.22631
  -6.27082   0.80009  -4.25624
  -6.48031   0.97965  -4.42084
  -6.57009   1.24900  -4.49566
  -6.79455   1.57820  -4.76501
  -6.82447   1.89244  -4.83982
  -6.92922   2.04208  -4.92961
  -7.03397   2.22165  -5.04932
  -7.04893   2.47603  -5.18399
  -7.19857   2.52092  -5.40845
  -7.13871   2.53589  -5.49823
  -7.03397   2.47603  -5.51319
  -7.03397   2.40121  -5.72269
  -6.80951   2.35632  -5.84240
  -6.79455   2.20668  -5.94714
  -6.67484   2.05704  -6.24642
  -6.58505   1.90741  -6.51577
  -6.48031   1.81762  -6.78511
  -6.34563   1.78770  -6.97964
  -6.18103   1.60813  -7.20410
  -6.09125   1.53331  -7.47345
  -5.94161   1.33878  -7.71287
  -5.62737   1.32382  -7.86250
  -5.34306   1.15922  -7.75776
  -5.04379   1.02455  -7.93732
  -4.63977   0.88987  -7.90739
  -4.20582   0.65045  -7.86250
  -3.71201   0.38110  -7.78768
  -3.27806   0.33621  -7.75776
  -2.69448   0.11176  -7.57819
  -2.32038   0.00701  -7.30884
  -1.91636  -0.21745  -7.03950
  -1.57219  -0.29227  -6.90482
  -1.19810  -0.21745  -6.63548
  -0.86890  -0.42694  -6.33620
  -0.55466  -0.32219  -5.96211
  -0.22546  -0.35212  -5.52816
   0.14864  -0.26234  -5.12414
   0.53770  -0.17256  -4.80990
   0.98661  -0.15759  -4.19638
   1.42056  -0.29227  -3.85222
   2.06400  -0.41198  -3.17885
   2.48298  -0.53169  -2.67008
   3.00672  -0.45687  -2.11642
   3.45563  -0.33716  -1.66751
   4.08411  -0.48679  -1.06896
   4.54798  -0.77111  -0.54522
   5.13157  -0.51672   0.05333
   5.50566  -0.66636   0.56209
   6.13414  -0.63643   0.89130
   6.61298  -0.54665   1.32525
   7.09182  -0.51672   1.71430
   7.69037  -0.38205   2.14825
   8.16921  -0.39701   2.43256
   8.67798  -0.23241   2.74680
   9.24660  -0.06781   3.04608
   9.86012   0.06686   3.30046
  10.44371   0.23147   3.53988
  10.90758   0.33621   3.76434
  11.10211   0.53074   4.10850
  11.22182   0.59060   4.42274
  11.22182   0.72527   4.67713
  11.31160   0.91980   4.99137
  11.11707   0.93476   5.35050
  10.90758   0.90484   5.63481
  10.66816   0.97965   6.00890
  10.30903   0.91980   6.36803
   9.87508   0.93476   6.56256
   9.50099   1.05447   6.72716
   9.23164   1.05447   6.93666
   8.99222   1.03951   7.16111
   8.66302   1.05447   7.32571
   8.43856   1.23404   7.37060
   8.24403   1.09936   7.47535
   8.07943   1.24900   7.52024
   8.04950   1.23404   7.72973
   7.81008   1.39864   7.68484
   7.76519   1.36871   7.84944
   7.43599   1.42857   7.89434
   7.22650   1.26397   8.10383
   6.83744   1.35375   8.20857
   6.43342   1.35375   8.29836
   6.02940   1.30886   8.52281
   5.61041   1.27893   8.67245
   5.14653   1.20411   8.74727
   4.69762   1.17418   8.94180
   4.18885   1.17418   9.00165
   3.60527   0.96469   9.06151
   3.11146   0.75520   9.09144
   2.52788   0.56067   9.00165
   1.95925   0.36614   8.77720
   1.40559   0.21650   8.64252
   0.89683  -0.06781   8.41807
   0.20849  -0.26234   8.13376
  -0.39006  -0.51672   7.80455
  -0.97364  -0.72621   7.47535
  -1.58716  -0.90578   7.08629
  -2.23060  -1.02549   6.75709
  -2.82915  -1.05542   6.41292
  -3.48756  -1.35469   5.96401
  -4.13100  -1.68390   5.61984
  -4.63977  -1.98317   5.36546
  -5.23832  -2.38719   4.90158
  -5.79197  -2.70143   4.57238
  -6.31571  -3.10545   4.22821
  -6.67484  -3.61422   4.00376
  -7.24346  -4.07810   3.73441
  -7.55770  -4.51205   3.62966
  -7.91683  -4.88614   3.27053
  -8.11136  -5.15549   3.07601
  -8.21610  -5.39491   2.88148
  -8.21610  -5.64929   2.79169
  -8.14129  -5.81389   2.50738
  -8.20114  -5.84382   2.37271
  -8.09639  -5.91864   2.25300
  -7.97668  -5.82886   1.92380
  -7.87194  -5.72411   1.72927
  -7.70734  -5.40987   1.53474
  -7.55770  -5.17045   1.41503
  -7.34821  -4.78139   1.26539
  -7.24346  -4.51205   1.13072
  -7.16864  -4.13795   1.02597
  -7.01900  -3.50947   1.02597
  -6.97411  -3.04560   0.87633
  -6.91426  -2.59668   0.74166
  -6.97411  -2.19266   0.60698
  -6.76462  -1.62404   0.48727
  -6.91426  -1.29484   0.35260
  -6.79455  -0.95067   0.38253
  -6.79455  -0.78607   0.27778
  -6.80951  -0.44190   0.18800
  -6.76462  -0.33716   0.14311
  -6.70476  -0.24737   0.17304
  -6.70476  -0.23241   0.08325
  -6.80951  -0.35212   0.05333
  -6.68980  -0.29227   0.02340
  -6.73469  -0.36708   0.05333
  -6.68980  -0.42694  -0.09631
  -6.52520  -0.50176  -0.08135
  -6.55513  -0.48679  -0.26091
  -6.51024  -0.56161  -0.44048
  -6.49527  -0.54665  -0.59012
  -6.48031  -0.45687  -0.78465
  -6.36060  -0.24737  -0.88939
  -6.40549  -0.14263  -1.15874
  -6.43542   0.20154  -1.24852
  -6.42045   0.26139  -1.32334
  -6.46534   0.54571  -1.45801
  -6.60002   0.90484  -1.66751
  -6.57009   1.15922  -1.69743
  -6.73469   1.44353  -1.83211
  -6.79455   1.83259  -1.95182
  -6.91426   1.98223  -2.08649
  -6.95915   2.23661  -2.28102
  -7.04893   2.31143  -2.44562
  -7.27339   2.53589  -2.58030
  -7.33324   2.55085  -2.65512
  -7.49784   2.76034  -2.83468
  -7.51281   2.92494  -2.96935
  -7.49784   2.89502  -3.01425
  -7.48288   2.79027  -3.04417
  -7.61755   2.90998  -3.17885
  -7.57266   2.88005  -3.14892
  -7.43799   2.74538  -3.05914
  -7.33324   2.79027  -2.95439
  -7.16864   2.62567  -2.83468
  -6.79455   2.47603  -2.58030
  -6.57009   2.35632  -2.37080
  -6.13614   2.23661  -2.19124
  -5.79197   1.92237  -2.04160
  -5.20839   1.66799  -1.86204
  -4.74451   1.36871  -1.62262
  -4.13100   1.32382  -1.48794
  -3.36785   1.15922  -1.20363
  -2.75433   0.88987  -1.05399
  -2.17074   0.80009  -0.78465
  -1.60212   0.72527  -0.63501
  -0.97364   0.66542  -0.36566
  -0.34517   0.65045  -0.03646
   0.11871   0.57563   0.17304
   0.71726   0.51578   0.47231
   1.34574   0.47089   0.75662
   2.07896   0.38110   0.93619
   2.60269   0.45592   1.14568
   3.32096   0.38110   1.40006
   4.15893   0.33621   1.53474
   4.93704   0.30629   1.56467
   5.58048   0.03694   1.60956
   6.47831   0.05190   1.59459
   7.24146  -0.08277   1.53474
   8.07943   0.00701   1.50481
   8.84258  -0.08277   1.50481
   9.56084   0.00701   1.59459
  10.24918  -0.11270   1.60956
  10.93751  -0.12766   1.65445
  11.41635  -0.11270   1.63948
  11.91015  -0.02292   1.89387
  12.35907  -0.09774   1.92380
  12.83791  -0.05285   2.02854
  13.31675  -0.12766   2.05847
  13.61602  -0.24737   1.99861
  14.10983  -0.17256   1.90883
  14.48392  -0.12766   1.83401
  14.84305   0.00701   1.68438
  15.21714   0.00701   1.34021
  15.53138   0.12672   1.22050
  15.72591   0.29132   1.07086
  15.99526   0.41103   0.81648
  16.30950   0.59060   0.60698
  16.63870   0.72527   0.48727
  17.08761   0.91980   0.32267
  16.96790   0.85994   0.33764
  16.96790   0.87491   0.14311
  16.83323   0.83002   0.18800
  16.72848   0.81505   0.20296
  16.44417   0.83002   0.20296
  16.11497   0.87491   0.11318
  15.60620   0.81505  -0.02149
  15.17225   1.09936  -0.14120
  14.58867   0.99462  -0.35070
  14.10983   1.06944  -0.48537
  13.18207   1.00958  -0.59012
  12.50870   1.15922  -0.75472
  11.74555   1.15922  -0.96421
  10.72802   1.14426  -1.17370
   9.80026   1.18915  -1.23356
   8.97726   1.15922  -1.35327
   8.10936   1.09936  -1.36823
   7.15168   0.97965  -1.48794
   6.25385   0.84498  -1.44305
   5.26624   0.68038  -1.60765
   4.27864   0.44096  -1.71240
   3.35088   0.26139  -1.71240
   2.25853   0.11176  -1.81714
   1.18114  -0.03788  -1.86204
   0.10375  -0.08277  -1.87700
  -1.09335  -0.09774  -1.99671
  -2.20067  -0.03788  -2.13138
  -3.35288   0.06686  -2.17627
  -4.44524   0.21650  -2.23613
  -5.50766   0.27636  -2.17627
  -6.61498   0.09679  -2.31095
  -7.66244  -0.09774  -2.26606
  -8.72487  -0.03788  -2.26606
  -9.78730  -0.20248  -2.11642
 -10.89462  -0.24737  -2.16131
 -11.91215  -0.48679  -2.04160
 -12.86983  -0.51672  -2.01167
 -13.81255  -0.62147  -2.08649
 -14.78519  -0.68132  -2.10146
 -15.65309  -0.74118  -2.14635
 -16.41624  -0.72621  -2.14635
 -17.35896  -0.71125  -2.23613
 -18.16700  -0.74118  -2.35584
 -18.91519  -0.69629  -2.46059
 -19.55863  -0.60650  -2.49051
 -20.09733  -0.48679  -2.52044
 -20.78566  -0.35212  -2.80475
 -21.17472  -0.21745  -2.81972
 -21.54881  -0.24737  -2.72993
 -21.84809  -0.36708  -2.84964
 -22.02765  -0.44190  -2.81972
 -22.25211  -0.39701  -3.02921
 -22.34189  -0.38205  -3.07410
 -22.35686  -0.56161  -3.19381
 -22.38678  -0.51672  -3.31352
 -22.22218  -0.54665  -3.38834
 -22.02765  -0.45687  -3.56790
 -21.71342  -0.36708  -3.88214
 -21.23458  -0.27730  -4.09164
 -20.74077  -0.18752  -4.51062
 -20.18711  -0.05285  -4.86975
 -19.58856   0.12672  -5.18399
 -18.97505   0.38110  -5.70772
 -18.19693   0.59060  -6.09678
 -17.34400   1.02455  -6.47087
 -16.68559   1.12929  -6.77015
 -15.72791   1.24900  -7.11432
 -14.80016   1.45849  -7.38366
 -13.73773   1.71288  -7.60812
 -12.79501   1.65302  -7.72783
 -11.85230   1.72784  -7.92236
 -10.59534   1.87748  -8.04207
  -9.45810   1.80266  -8.04207
  -8.18618   1.77273  -8.16178
  -6.88433   1.77273  -8.17674
  -5.47774   1.71288  -8.19171
  -4.05618   1.56324  -8.25156
  -2.60469   1.33878  -8.43113
  -1.04846   1.11433  -8.52091
   0.52273   1.11433  -8.56580
   2.07896   0.94973  -8.73040
   3.73994   0.66542  -8.93989
   5.35603   0.42600  -9.05960
   7.00204   0.33621  -9.13442
   8.52834   0.15665  -9.23917
  10.14443   0.14168  -9.23917
  11.71562  -0.05285  -9.08953
  13.12222  -0.14263  -8.95486
  14.54378  -0.06781  -8.71544
  16.11497  -0.00795  -8.32638
  17.38689   0.05190  -8.01214
  18.83837   0.11176  -7.59316
  20.15519   0.20154  -7.03950
  21.27747   0.27636  -6.47087
  22.30997   0.18657  -5.91721
  23.29758   0.33621  -5.33363
  24.24029   0.42600  -4.60040
  25.19797   0.59060  -3.82229
  25.82645   0.48585  -3.20877
  26.32026   0.53074  -2.65512
  26.78413   0.57563  -2.08649
  27.18815   0.56067  -1.53283
  27.54728   0.66542  -0.99414
  27.75678   0.80009  -0.44048
  28.02612   0.78513  -0.03646
  28.05605   0.93476   0.41246
  28.08598   0.99462   0.77159
  28.07102   1.14426   1.13072
  27.98123   1.08440   1.47488
  27.80167   1.12929   1.81905
  27.50239   1.17418   2.10336
  27.18815   1.21907   2.59716
  26.73924   1.27893   2.94133
  26.29033   1.18915   3.37528
  25.64689   1.03951   3.86908
  25.09323   1.06944   4.36289
  24.40489   0.80009   4.93151
  23.56692   0.80009   5.41035
  22.81874   0.60556   5.91912
  22.02566   0.44096   6.47278
  21.17272   0.29132   7.07133
  20.18511   0.29132   7.63995
  19.37707   0.18657   8.16368
  18.44932   0.02197   8.61260
  17.47667  -0.08277   9.13633
  16.59381   0.09679   9.48049
  15.74088   0.24643   9.89948
  14.87298   0.36614  10.21372
  13.96019   0.45592  10.52796
  12.97258   0.60556  10.61774
  12.10468   0.77016  10.94694
  11.04226   1.08440  11.00680
  10.00976   1.29389  11.05169
   8.94733   1.44353  11.23125
   7.89987   1.63806  11.29111
   6.86737   1.86252  11.15644
   5.68523   1.95230  11.15644
   4.62280   2.08697  11.12651
   3.53045   2.19172  11.08162
   2.46802   2.22165  11.05169
   1.36070   2.32639  10.82723
   0.25338   2.26654  10.75241
  -0.71926   2.23661  10.66263
  -1.76672   2.28150  10.60278
  -2.78426   2.26654  10.43818
  -3.84669   2.13186  10.18379
  -4.83429   2.11690  10.04912
  -5.74708   1.99719   9.85459
  -6.73469   1.90741   9.60020
  -7.63252   1.96726   9.30093
  -8.51538   1.83259   8.83705
  -9.41320   1.78770   8.44800
 -10.20628   1.81762   7.96915
 -11.01433   1.84755   7.47535
 -11.88223   1.87748   6.86184
 -12.52567   2.04208   6.36803
 -13.22896   1.99719   5.64977
 -13.79759   2.11690   4.97640
 -14.30635   2.17676   4.30303
 -14.91987   2.07201   3.52492
 -15.26404   2.22165   2.80666
 -15.74288   2.17676   1.89387
 -15.99726   2.05704   1.34021
 -16.11697   2.08697   0.53217
 -16.38632   2.10194  -0.30580
 -16.40128   1.92237  -0.90436
 -16.61077   1.78770  -1.72736
 -16.58085   1.50339  -2.20620
 -16.55092   1.38368  -2.83468
 -16.41624   1.27893  -3.35841
 -16.28157   1.23404  -3.80732
 -16.05711   0.88987  -4.40588
 -15.75784   0.81505  -4.91464
 -15.30893   0.83002  -5.46830
 -14.99469   0.59060  -5.82743
 -14.47096   0.57563  -6.45591
 -13.88737   0.39607  -6.96468
 -13.34867   0.36614  -7.48841
 -12.58552   0.45592  -7.93732
 -11.77748   0.42600  -8.46105
 -10.87965   0.33621  -9.05960
 -10.10154   0.47089  -9.59830
  -9.35335   0.48585 -10.00232
  -8.44056   0.50081 -10.43627
  -7.57266   0.48585 -10.88518
  -6.60002   0.48585 -11.27424
  -5.50766   0.75520 -11.46877
  -4.60984   0.68038 -11.63337
  -3.81676   0.59060 -11.64834
  -2.96382   0.62052 -11.54359
  -2.27549   0.60556 -11.67826
  -1.54227   0.47089 -11.61841
  -0.73422   0.54571 -11.28920
  -0.04589   0.50081 -11.12460
   0.56762   0.56067 -10.90015
   1.24099   0.72527 -10.66073
   1.92933   0.77016 -10.37642
   2.46802   0.90484 -10.10707
   3.03664   1.00958  -9.95743
   3.57534   1.26397  -9.74794
   3.96440   1.45849  -9.53844
   4.39835   1.69791  -9.34392
   4.86222   1.98223  -9.19428
   5.28121   2.10194  -9.07457
   5.65530   2.28150  -8.85011
   5.99947   2.41618  -8.62566
   6.41845   2.43114  -8.38624
   6.77758   2.59574  -8.19171
   6.97211   2.64063  -7.89243
   7.34621   2.83516  -7.65301
   7.63052   2.71545  -7.21906
   7.86994   2.79027  -6.68037
   8.18418   2.74538  -6.27635
   8.34878   2.65560  -5.60298
   8.42360   2.62567  -5.09421
   8.75280   2.46107  -4.30113
   8.76776   2.29647  -3.58287
   8.78273   2.13186  -2.98432
   8.88747   1.95230  -2.14635
   8.76776   1.63806  -1.44305
   8.66302   1.45849  -0.54522
   8.39367   1.30886   0.08325
   8.16921   1.06944   0.86137
   7.57066   0.69534   1.48985
   7.21153   0.72527   2.11832
   6.70277   0.35118   2.85155
   6.14911   0.21650   3.31543
   5.64034   0.05190   3.73441
   5.17646  -0.00795   3.85412
   4.62280  -0.14263   4.25814
   4.08411  -0.20248   4.57238
   3.45563  -0.30723   4.78187
   2.70744  -0.20248   4.88662
   2.21364  -0.38205   5.12604
   1.36070  -0.53169   5.32057
   0.68733  -0.42694   5.39539
  -0.10575  -0.33716   5.69466
  -0.82401  -0.32219   6.03883
  -1.66198  -0.39701   6.30818
  -2.38024  -0.26234   6.66731
  -3.15835  -0.30723   7.05637
  -3.89158  -0.39701   7.29579
  -4.72955  -0.38205   7.52024
  -5.49270  -0.36708   8.04397
  -6.21096  -0.24737   8.17865
  -6.94418  -0.24737   8.20857
  -7.61755  -0.39701   8.28339
  -8.14129  -0.29227   8.35821
  -8.78473  -0.26234   8.38814
  -9.50299  -0.17256   8.10383
 -10.11650  -0.12766   7.95419
 -10.64023  -0.00795   7.81952
 -11.28367   0.17161   7.47535
 -11.91215   0.18657   7.11622
 -12.27128   0.41103   6.89176
 -12.72020   0.27636   6.62242
