********************************************************************************
               CENTRO DE INSTRUMENTACION Y REGISTRO SISMICO  A.C.  
                       Coordinacion de Servicios Tecnicos
     Anaxagoras 814, Col. Narvarte, Benito Juarez, C.P. 03020 Mexico, D.F.
            Tels. 687 45 42/ 687 45  82             Fax. 669 25 12
********************************************************************************
ARCHIVO ESTANDAR DE ACELERACION:
VERSION DEL FORMATO                    : 2.0
NOMBRE DEL ARCHIVO                     : AO249802.031
FECHA Y HORA DE CREACION               : 18/ENERO/2000
REF. CATALOGO ACELEROGRAMAS, SMIS 1996 : REGISTRO No.     /PAG.


================================================================================
DATOS DE LA ESTACION:
NOMBRE DE LA ESTACION                  : ALBERCA OLIMPICA
CLAVE DE LA ESTACION                   : AO24
LOCALIZACION DE LA ESTACION            : Alberca Olimpica Rio Churubusco y
                                       : Division del Norte, Col Pedro Ma
                                       : Anaya, Benito Juarez
                                       :
                                       :
COORDENADAS DE LA ESTACION             : 19.358 LAT. N 
                                       : 99.154 LONG. W 
ALTITUD (msnm)                         : 2235
TIPO DE SUELO                          : TRANSICION
                                       : 
                                       : 
INSTITUCION RESPONSABLE                : CIRES
                                       :

================================================================================
DATOS DEL ACELEROGRAFO:
MODELO DEL ACELEROGRAFO                : RAD-851
NUMERO DE SERIE DEL ACELEROGRAFO       : 257
NUMERO DE CANALES                      : 3
ORIENTACION C1-C6 (rumbo;orientacion)  : /N00E/+V/N90W
ORIENTACION C7-C12 (rumbo;orientacion) :
VEL. DE MUESTREO, C1-C6 (muestras/s)   : /100/100/100
VEL. DE MUESTREO, C7-C12 (muestras/s)  :
ESC. COMPLETA DE SENSORES, C1-C6, (g)  : /0.5/0.5/0.5
ESC. COMPLETA DE SENSORES, C7-C12, (g) :
FREC. NAT. DE SENSORES, C1-C6, (Hz)    : /30/30/30
FREC. NAT. DE SENSORES, C7-C12, (Hz)   :
AMORTIGUAMIENTO DE SENSORES, C1-C6     : /0.700/0.700/0.700
AMORTIGUAMIENTO DE SENSORES, C7-C12    :
INTERVALO DE MUESTREO, C1-C6, (s)      : /0.01/0.01/0.01
INTERVALO DE MUESTREO, C7-C12, (s)     :
UMBRAL DE DISPARO, C1-C6, (Gal)        : /1.95/2.93/1.95
UMBRAL DE DISPARO, C7-C12, (Gal)       :
MEMORIA DE PREEVENTO (s)               : 8
TIEMPO DE POSEVENTO (s)                : 8


================================================================================
DATOS DEL SISMO:
FECHA DEL SISMO (GMT)                  : 03/FEB/98
HORA EPICENTRO (GMT)                   : 03:02:01.1
MAGNITUD(ES)                           : /Mb=6.0,Ms=6.2,Mc=6.4,Ma=6.4
COORDENADAS DEL EPICENTRO              : 15.69 LAT. N
                                       : 96.37 LONG. W
PROFUNDIDAD FOCAL (km)                 : 33.0
FUENTE DE LOS DATOS EPICENTRALES       : SSN
                                       : INSTITUTO DE GEOFISICA, UNAM

================================================================================
DATOS DE ESTE REGISTRO:
HORA DE LA PRIMERA MUESTRA (GMT)       : 03:04:23.00
EXACTITUD DEL TIEMPO (s)               : 0.01
DURACION DEL REGISTRO (s), C1-C6       : /110.75/110.75/110.75
DURACION DEL REGISTRO (s), C7-C12      :
NUM. TOTAL DE MUESTRAS, C1-C6          : /11075/11075/11075
NUM. TOTAL DE MUESTRAS, C7-C12         :
ACEL. MAX. (Gal), C1-C6                : /4.10542/1.12299/4.91941
ACEL. MAX., C1-C6, EN LA MUESTRA       :
ACEL. MAX. (Gal), C7-C12               :
ACEL. MAX., C7-C12, EN LA MUESTRA      :
UNIDADES DE LOS DATOS                  : Gal (cm/s/s)
FACTOR DE DECIMACION                   : 1
FORMATO DATOS (FORTRAN,10 campos/dato) : 3F10.5


================================================================================
CALIDAD DEL ACELEROGRAMA:
REGISTRO DIGITAL COMPLETO CON TIEMPO ABSOLUTO CORRECTO.


================================================================================
COMENTARIOS:














================================================================================
DATOS DE ACELERACION:
---------+---------+---------+---------+---------+---------+---------+---------+
   CANAL-1   CANAL-2   CANAL-3   CANAL-4   CANAL-5   CANAL-6   CANAL-7   CANAL-8
      N00E        +V      N90W
---------+---------+---------+---------+---------+---------+---------+---------+
[...]
  -1.88005   0.31353  -2.98142
  -1.88005   0.31353  -2.74200
  -1.64063   0.31353  -2.74200
  -1.64063   0.07411  -2.74200
  -1.40121   0.07411  -2.74200
  -1.16179   0.07411  -2.74200
  -0.92237   0.07411  -2.50258
  -0.92237  -0.16531  -2.26316
  -0.44354  -0.16531  -2.74200
  -0.44354   0.07411  -2.74200
  -0.20412  -0.16531  -1.78433
   0.03530  -0.40473  -2.02374
   0.03530  -0.16531  -2.02374
   0.27472  -0.40473  -1.78433
   0.51414  -0.16531  -2.02374
   0.75356  -0.16531  -1.54491
   0.99298  -0.16531  -1.06607
   0.75356  -0.16531  -1.30549
   0.99298  -0.40473  -1.30549
   0.99298  -0.16531  -1.06607
   0.99298  -0.16531  -0.82665
   1.23240  -0.16531  -0.58723
   1.23240  -0.16531  -0.34781
   1.47182   0.07411  -0.10839
   1.47182  -0.16531  -0.10839
   1.47182  -0.16531   0.13103
   1.71123  -0.16531   0.37045
   1.71123  -0.16531   0.37045
   2.19007  -0.16531   0.60986
   1.95065  -0.16531   0.60986
   2.19007  -0.16531   1.08870
   2.42949  -0.16531   1.32812
   2.66891  -0.40473   0.60986
   2.66891  -0.40473   1.08870
   2.66891  -0.40473   1.56754
   2.90833  -0.16531   1.56754
   3.14775  -0.40473   1.56754
   3.14775  -0.40473   1.80696
   3.14775  -0.40473   1.80696
   3.14775  -0.40473   2.04638
   3.14775  -0.40473   2.28580
   3.14775  -0.40473   2.04638
   3.14775  -0.40473   2.04638
   3.14775  -0.40473   2.04638
   3.14775  -0.16531   2.28580
   2.90833  -0.40473   2.76463
   2.90833  -0.16531   2.28580
   2.90833   0.07411   2.28580
   2.66891   0.07411   2.52522
   2.66891   0.07411   2.28580
   2.42949   0.07411   2.28580
   2.19007   0.31353   2.28580
   1.95065   0.55294   2.04638
   1.71123   0.55294   2.04638
   1.47182   0.79236   2.28580
   1.23240   0.55294   2.04638
   0.99298   0.55294   1.80696
   0.99298   0.31353   1.56754
   0.75356   0.31353   1.56754
   0.51414   0.07411   1.32812
   0.51414   0.31353   1.56754
   0.03530   0.07411   1.32812
   0.03530   0.07411   1.08870
   0.03530   0.07411   0.84928
  -0.20412  -0.16531   1.08870
  -0.44354   0.07411   1.08870
  -0.44354  -0.16531   0.84928
  -0.68295  -0.16531   0.84928
  -0.92237  -0.16531   0.84928
  -1.16179  -0.16531   0.60986
  -1.40121  -0.16531   0.60986
  -1.40121  -0.40473   0.37045
  -1.64063  -0.16531   0.60986
  -1.88005  -0.16531   0.37045
  -1.88005  -0.16531   0.37045
  -1.88005  -0.40473   0.13103
  -1.88005  -0.40473   0.13103
  -2.11947  -0.40473   0.13103
  -2.35889  -0.40473  -0.10839
  -2.35889  -0.40473  -0.10839
  -2.35889  -0.40473  -0.34781
  -2.35889  -0.16531  -0.34781
  -2.59831  -0.40473  -0.34781
  -2.35889  -0.40473  -0.58723
  -2.59831  -0.40473  -0.82665
  -2.59831  -0.40473  -0.58723
  -2.59831  -0.40473  -0.82665
  -2.59831  -0.40473  -1.06607
  -2.59831  -0.40473  -1.06607
  -2.59831  -0.16531  -1.30549
  -2.35889  -0.16531  -1.30549
  -2.35889  -0.16531  -1.30549
  -2.35889  -0.16531  -1.54491
  -2.35889  -0.16531  -1.78433
  -2.11947  -0.16531  -1.54491
  -1.88005   0.07411  -1.78433
  -1.88005   0.07411  -2.02374
  -1.88005  -0.16531  -1.54491
  -1.88005  -0.16531  -1.78433
  -1.64063   0.07411  -1.78433
  -1.64063  -0.16531  -1.78433
  -1.64063   0.07411  -1.78433
  -1.64063   0.07411  -1.78433
  -1.40121  -0.16531  -1.78433
  -1.40121   0.07411  -1.78433
  -1.40121  -0.16531  -1.78433
  -1.16179  -0.16531  -1.78433
  -1.16179  -0.16531  -1.78433
  -0.92237  -0.16531  -1.78433
  -0.92237  -0.16531  -1.54491
  -0.68295  -0.16531  -1.54491
  -0.68295  -0.16531  -1.78433
  -0.44354  -0.16531  -1.54491
  -0.44354  -0.16531  -1.54491
  -0.20412  -0.16531  -1.30549
  -0.20412  -0.16531  -1.30549
   0.03530  -0.16531  -1.30549
   0.03530  -0.16531  -1.06607
   0.03530   0.07411  -0.82665
   0.51414   0.07411  -0.82665
   0.75356   0.07411  -0.58723
   0.75356   0.07411  -0.34781
   0.99298   0.07411  -0.34781
   0.99298   0.07411  -0.10839
   1.23240   0.31353  -0.10839
   1.47182   0.31353   0.13103
   1.47182   0.31353   0.37045
   1.71123   0.07411   0.37045
   1.71123   0.31353   0.60986
   1.71123   0.31353   0.84928
   1.95065   0.07411   1.08870
   1.95065   0.31353   1.08870
   1.95065   0.31353   1.32812
   2.19007   0.31353   1.32812
   2.19007   0.55294   1.32812
   1.95065   0.55294   1.56754
   2.19007   0.55294   1.56754
   2.19007   0.55294   1.56754
   2.19007   0.55294   1.80696
   2.19007   0.55294   1.80696
   2.42949   0.55294   1.80696
   2.42949   0.55294   1.80696
   2.42949   0.31353   1.80696
   2.42949   0.31353   2.04638
   2.42949   0.31353   2.04638
   2.42949   0.31353   2.04638
   2.42949   0.31353   2.04638
   2.42949   0.31353   2.28580
   2.42949   0.07411   2.28580
   2.42949   0.07411   2.04638
   2.42949   0.07411   2.28580
   2.19007  -0.16531   2.28580
   2.19007  -0.16531   2.28580
   2.19007   0.07411   2.04638
   1.95065  -0.16531   2.04638
   1.95065  -0.16531   1.80696
   1.95065  -0.16531   1.80696
   1.95065  -0.40473   1.56754
   1.71123  -0.16531   1.56754
   1.47182  -0.16531   1.32812
   1.71123  -0.40473   1.08870
   1.47182  -0.16531   0.84928
   1.71123  -0.16531   0.84928
   1.23240  -0.16531   0.84928
   1.23240   0.07411   0.60986
   1.23240   0.07411   0.60986
   0.99298   0.07411   0.60986
   0.99298   0.07411   0.37045
   0.75356   0.07411   0.13103
   0.75356   0.07411   0.13103
   0.75356   0.31353  -0.10839
   0.51414   0.31353  -0.34781
   0.27472   0.31353  -0.34781
   0.03530   0.31353  -0.58723
   0.03530   0.31353  -0.82665
  -0.20412   0.07411  -0.82665
  -0.44354   0.07411  -1.30549
  -0.44354   0.07411  -1.54491
  -0.68295   0.07411  -1.30549
  -0.92237   0.07411  -1.54491
  -0.92237  -0.16531  -1.78433
  -1.16179  -0.16531  -1.78433
  -1.16179   0.07411  -2.02374
  -1.40121  -0.16531  -2.26316
  -1.40121  -0.16531  -2.26316
  -1.40121   0.07411  -2.50258
  -1.64063   0.07411  -2.74200
  -1.64063   0.07411  -2.74200
  -1.64063   0.07411  -2.74200
  -1.88005  -0.16531  -2.74200
  -1.88005  -0.16531  -2.98142
  -1.64063  -0.16531  -2.98142
  -1.88005  -0.16531  -2.74200
  -1.88005  -0.40473  -2.98142
  -1.88005  -0.40473  -2.74200
  -1.88005  -0.40473  -2.98142
  -1.88005  -0.16531  -2.74200
  -1.88005  -0.16531  -2.74200
  -1.88005  -0.16531  -2.74200
  -1.88005  -0.16531  -2.50258
  -1.88005  -0.16531  -2.74200
  -1.88005  -0.16531  -2.50258
  -1.88005   0.07411  -2.26316
  -1.64063   0.31353  -2.26316
  -1.88005   0.07411  -2.50258
  -1.64063   0.07411  -2.26316
  -1.64063   0.31353  -2.02374
  -1.40121   0.31353  -2.02374
  -1.40121   0.31353  -1.78433
  -1.40121   0.31353  -1.78433
  -1.40121   0.31353  -1.54491
  -1.16179   0.31353  -1.30549
  -0.92237   0.31353  -1.30549
  -0.92237   0.31353  -0.82665
  -0.68295   0.31353  -0.58723
  -0.68295   0.55294  -0.58723
  -0.44354   0.31353  -0.34781
  -0.44354   0.55294  -0.10839
  -0.20412   0.55294   0.13103
  -0.20412   0.31353   0.13103
   0.03530   0.07411   0.60986
   0.03530   0.31353   0.60986
   0.03530   0.31353   0.84928
   0.27472   0.31353   1.32812
   0.27472   0.31353   1.32812
   0.27472   0.07411   1.56754
   0.51414   0.07411   1.80696
   0.51414   0.07411   2.04638
   0.75356  -0.16531   2.28580
   0.99298   0.07411   2.52522
   0.75356  -0.16531   2.76463
   0.99298  -0.40473   2.76463
   1.23240  -0.16531   2.76463
   1.23240  -0.40473   3.00405
   1.23240  -0.40473   3.00405
   1.23240  -0.40473   2.76463
   1.23240  -0.40473   3.24347
   1.47182  -0.40473   3.24347
   1.47182  -0.40473   3.24347
   1.47182  -0.40473   3.48289
   1.47182  -0.40473   3.24347
   1.47182  -0.40473   3.24347
   1.23240  -0.40473   3.48289
   1.23240  -0.40473   3.48289
   1.23240  -0.40473   3.24347
   1.23240  -0.40473   3.48289
   0.99298  -0.16531   3.24347
   0.99298  -0.40473   3.00405
   0.75356  -0.16531   3.00405
   0.75356  -0.40473   2.76463
   0.75356  -0.40473   2.52522
   0.75356  -0.16531   2.52522
   0.75356  -0.16531   2.28580
   0.75356  -0.40473   2.04638
   0.51414  -0.16531   1.80696
   0.51414  -0.16531   1.56754
   0.27472  -0.16531   1.56754
   0.27472  -0.16531   1.08870
   0.27472  -0.16531   0.84928
   0.03530  -0.16531   0.60986
   0.03530  -0.16531   0.60986
   0.03530  -0.16531   0.37045
  -0.20412  -0.16531   0.37045
  -0.44354  -0.16531   0.13103
  -0.44354  -0.16531  -0.10839
  -0.44354   0.07411  -0.10839
  -0.68295   0.07411  -0.10839
  -0.68295  -0.16531  -0.10839
  -0.68295   0.07411  -0.34781
  -0.92237   0.07411  -0.34781
  -0.92237  -0.16531  -0.34781
  -0.92237   0.07411  -0.82665
  -0.92237   0.31353  -0.58723
  -0.92237   0.31353  -0.82665
  -0.68295   0.31353  -1.06607
  -0.68295   0.31353  -1.06607
  -0.92237   0.31353  -1.06607
  -0.68295   0.31353  -1.54491
  -0.92237   0.31353  -1.54491
  -0.68295   0.31353  -1.78433
  -0.68295   0.55294  -2.02374
  -0.92237   0.55294  -2.02374
  -0.68295   0.55294  -2.26316
  -0.92237   0.31353  -2.50258
  -0.92237   0.31353  -2.26316
  -0.92237   0.31353  -2.74200
  -0.92237   0.31353  -2.74200
  -0.92237   0.31353  -2.74200
  -0.68295   0.31353  -2.98142
  -0.68295   0.31353  -2.98142
  -0.92237   0.07411  -2.98142
  -0.68295   0.07411  -2.98142
  -0.68295   0.07411  -2.98142
  -0.68295   0.07411  -3.22084
  -0.68295   0.07411  -3.22084
  -0.68295   0.07411  -3.22084
  -0.68295  -0.16531  -2.98142
  -0.44354  -0.16531  -2.98142
  -0.44354  -0.16531  -2.98142
  -0.44354  -0.16531  -2.98142
  -0.44354  -0.16531  -2.98142
  -0.44354  -0.16531  -2.98142
  -0.44354  -0.16531  -2.98142
  -0.20412  -0.16531  -2.74200
  -0.20412  -0.16531  -2.74200
  -0.20412   0.07411  -2.98142
  -0.20412  -0.16531  -2.74200
   0.03530  -0.16531  -2.74200
   0.03530  -0.16531  -2.74200
   0.03530  -0.16531  -2.50258
   0.03530  -0.16531  -2.50258
   0.03530   0.07411  -2.26316
   0.27472   0.07411  -2.02374
   0.27472   0.07411  -1.78433
   0.27472   0.07411  -1.78433
   0.27472   0.07411  -1.54491
   0.27472   0.07411  -1.30549
   0.51414   0.07411  -1.06607
   0.51414   0.31353  -0.58723
   0.51414   0.07411  -0.58723
   0.51414   0.31353  -0.34781
   0.75356   0.31353  -0.10839
   0.75356   0.31353   0.13103
   0.75356   0.31353   0.37045
   0.75356   0.31353   0.60986
   0.75356   0.31353   0.60986
   0.99298   0.31353   0.84928
   0.99298   0.07411   1.08870
   1.23240   0.07411   1.32812
   1.23240   0.07411   1.32812
   1.23240   0.07411   1.80696
   1.23240   0.07411   1.80696
   1.47182   0.07411   2.04638
   1.47182   0.07411   2.28580
   1.47182   0.07411   2.52522
   1.47182   0.07411   2.76463
   1.47182   0.07411   3.00405
   1.47182   0.07411   3.24347
   1.47182   0.07411   3.24347
   1.47182   0.07411   3.48289
   1.47182  -0.16531   3.72231
   1.47182   0.07411   3.96173
   1.23240  -0.16531   4.20115
   1.47182  -0.16531   4.20115
   1.23240  -0.16531   4.20115
   1.23240  -0.16531   4.44057
   0.99298  -0.16531   4.67999
   0.99298   0.07411   4.67999
   0.99298   0.07411   4.67999
   0.99298   0.07411   4.91941
   0.99298   0.07411   4.91941
   0.75356   0.07411   4.91941
   0.99298   0.07411   4.67999
   0.75356   0.07411   4.67999
   0.75356   0.31353   4.67999
   0.99298   0.31353   4.44057
   0.75356   0.31353   4.20115
   0.75356   0.31353   4.20115
   0.75356   0.31353   4.20115
   0.75356   0.31353   3.96173
   0.75356   0.31353   3.72231
   0.51414   0.31353   3.48289
   0.51414   0.31353   3.24347
   0.51414   0.07411   3.24347
   0.51414   0.07411   3.00405
   0.27472   0.07411   2.76463
   0.27472   0.07411   2.52522
   0.27472   0.07411   2.28580
   0.27472   0.07411   1.80696
   0.03530  -0.16531   1.56754
   0.03530  -0.16531   1.32812
   0.03530  -0.16531   0.84928
   0.03530   0.07411   0.60986
  -0.20412   0.07411   0.13103
  -0.20412   0.31353  -0.10839
  -0.20412   0.07411  -0.34781
  -0.44354   0.07411  -0.58723
  -0.44354   0.07411  -0.82665
  -0.68295  -0.16531  -0.82665
  -0.44354   0.07411  -1.30549
  -0.68295  -0.16531  -1.30549
  -0.68295  -0.16531  -1.54491
  -0.68295  -0.16531  -1.78433
  -0.68295  -0.16531  -1.78433
  -0.92237  -0.40473  -2.02374
  -0.92237  -0.40473  -2.50258
  -0.92237  -0.40473  -2.50258
  -1.16179  -0.40473  -2.50258
  -0.92237  -0.16531  -2.74200
  -0.92237  -0.40473  -2.74200
  -1.16179  -0.40473  -2.74200
  -1.16179  -0.40473  -3.22084
  -1.16179  -0.40473  -2.98142
  -1.16179  -0.16531  -2.98142
  -1.16179  -0.16531  -3.22084
  -1.40121  -0.40473  -3.22084
  -1.16179  -0.16531  -3.22084
  -1.16179  -0.16531  -3.22084
  -1.16179  -0.16531  -3.22084
  -1.16179  -0.16531  -3.46026
  -1.16179  -0.16531  -3.46026
  -1.40121   0.07411  -3.46026
  -1.16179  -0.16531  -3.46026
  -1.40121   0.07411  -3.46026
  -1.40121   0.07411  -3.69968
  -1.40121   0.07411  -3.46026
  -1.40121   0.07411  -3.69968
  -1.64063   0.07411  -3.46026
  -1.40121   0.07411  -3.46026
  -1.64063   0.07411  -3.46026
  -1.40121   0.07411  -3.46026
  -1.40121   0.07411  -3.22084
  -1.40121   0.07411  -3.22084
  -1.40121   0.07411  -2.98142
  -1.40121   0.31353  -2.98142
  -1.16179   0.07411  -2.74200
  -1.16179   0.07411  -2.74200
  -1.16179   0.31353  -2.26316
  -0.92237   0.07411  -2.26316
  -0.92237   0.31353  -2.02374
  -0.92237   0.31353  -2.02374
  -0.68295   0.31353  -1.78433
  -0.44354   0.31353  -1.54491
  -0.68295   0.31353  -1.54491
  -0.68295   0.31353  -1.30549
  -0.44354   0.31353  -1.30549
  -0.44354   0.31353  -1.30549
  -0.20412   0.31353  -1.06607
  -0.20412   0.07411  -0.82665
  -0.20412   0.07411  -0.82665
   0.03530   0.07411  -0.82665
   0.03530   0.07411  -0.58723
   0.27472   0.07411  -0.58723
   0.27472   0.07411  -0.34781
   0.27472  -0.16531  -0.10839
   0.51414  -0.16531   0.13103
   0.75356  -0.16531  -0.10839
   0.75356  -0.16531   0.13103
   0.99298  -0.16531   0.37045
   0.99298  -0.16531   0.60986
   0.99298  -0.16531   0.84928
   0.99298  -0.16531   1.08870
   1.23240  -0.16531   1.08870
   1.23240  -0.16531   1.32812
   1.23240  -0.16531   1.32812
   1.47182  -0.16531   1.56754
   1.23240  -0.16531   1.80696
   1.23240  -0.16531   1.80696
   1.47182   0.07411   2.04638
   1.47182   0.07411   2.28580
   1.47182  -0.16531   2.28580
   1.47182   0.07411   2.28580
   1.47182   0.07411   2.04638
   1.47182   0.07411   2.28580
   1.47182   0.07411   2.28580
   1.47182   0.07411   2.28580
   1.23240   0.07411   2.04638
   1.47182   0.31353   2.28580
   1.47182   0.31353   2.28580
   1.23240   0.07411   2.28580
   1.23240   0.31353   2.28580
   1.23240   0.31353   2.28580
   1.23240   0.31353   2.52522
   0.99298   0.31353   2.52522
   0.99298   0.07411   2.28580
   0.75356   0.07411   2.52522
   0.75356   0.07411   2.52522
   0.51414   0.07411   2.52522
   0.27472   0.07411   2.52522
   0.03530   0.07411   2.28580
   0.03530   0.07411   2.28580
   0.03530  -0.16531   2.28580
   0.03530   0.07411   2.28580
  -0.20412  -0.16531   2.04638
  -0.44354   0.07411   2.28580
  -0.20412   0.07411   2.04638
  -0.44354   0.07411   2.04638
  -0.44354  -0.16531   2.04638
  -0.44354  -0.16531   1.80696
  -0.20412  -0.16531   1.80696
  -0.44354  -0.16531   1.80696
  -0.44354  -0.16531   1.80696
  -0.44354  -0.16531   1.56754
  -0.44354  -0.16531   1.32812
  -0.44354  -0.16531   1.32812
  -0.44354  -0.16531   1.08870
  -0.44354  -0.16531   1.08870
  -0.20412  -0.16531   1.08870
  -0.44354   0.07411   0.84928
  -0.44354  -0.16531   0.60986
  -0.44354  -0.16531   0.60986
  -0.44354   0.07411   0.37045
  -0.44354   0.07411   0.13103
  -0.68295   0.31353  -0.10839
  -0.68295   0.07411  -0.34781
  -0.68295   0.07411  -0.34781
  -0.68295   0.07411  -0.58723
  -0.68295   0.07411  -0.82665
  -0.92237   0.31353  -0.82665
