********************************************************************************
              CENTRO DE INSTRUMENTACION Y REGISTRO SISMICO  A.C.

    Anaxagoras 814, Col. Narvarte, Benito Juarez, C.P. 03020 Mexico, D.F.
           Tels. 5687 45 42/ 5687 45  82             Fax. 5669 25 12
********************************************************************************
ARCHIVO ESTANDAR DE ACELERACION:
VERSION DEL FORMATO                    : 2.0
NOMBRE DEL ARCHIVO                     : AO2420160627205033
FECHA Y HORA DE CREACION               : 15/SEP/16, 10:43
REF. CATALOGO ACELEROGRAMAS, SMIS 1996 : REGISTRO No.     /PAG.


================================================================================
DATOS DE LA ESTACION:
NOMBRE DE LA ESTACION                  : ALBERCA OLÍMPICA
CLAVE DE LA ESTACION                   : AO24
LOCALIZACION DE LA ESTACION            : Del. Benito Juárez, Col. General Pedro 
                                       : María Anaya, Río Churubusco            
                                       : y División del Norte.                  
                                       :                                        
                                       : 
COORDENADAS DE LA ESTACION             : 19.3580 LAT. N
                                       : 99.1539 LONG. W
ALTITUD (msnm)                         : 2235
TIPO DE SUELO                          : Transición                          
                                       :                           
                                       : 
INSTITUCION RESPONSABLE                : CIRES
                                       : 

================================================================================
DATOS DEL ACELEROGRAFO:
MODELO DEL ACELEROGRAFO                : RADESD
NUMERO DE SERIE DEL ACELEROGRAFO       : 257
NUMERO DE CANALES                      : 3
ORIENTACION C1-C6 (rumbo;orientacion)  : /N00E/+V/N90W
ORIENTACION C7-C12 (rumbo;orientacion) : 
VEL. DE MUESTREO, C1-C6 (muestras/s)   : /100/100/100
VEL. DE MUESTREO, C7-C12 (muestras/s)  : 
ESC. COMPLETA DE SENSORES, C1-C6, (g)  : /0.5/0.5/0.5
ESC. COMPLETA DE SENSORES, C7-C12, (g) : 
FREC. NAT. DE SENSORES, C1-C6, (Hz)    : /30/30/30
FREC. NAT. DE SENSORES, C7-C12, (Hz)   : 
AMORTIGUAMIENTO DE SENSORES, C1-C6     : /0.700/0.700/0.700
AMORTIGUAMIENTO DE SENSORES, C7-C12    : 
INTERVALO DE MUESTREO, C1-C6, (s)      : /0.01/0.01/0.01
INTERVALO DE MUESTREO, C7-C12, (s)     : 
UMBRAL DE DISPARO, C1-C6, (Gal)        : /1.65/3.14/1.95
UMBRAL DE DISPARO, C7-C12, (Gal)       : 
MEMORIA DE PREEVENTO (s)               : 44.0
TIEMPO DE POSEVENTO (s)                : 79.0


================================================================================
DATOS DEL SISMO:
FECHA DEL SISMO (GMT)                  : 27/JUN/16
HORA EPICENTRO (GMT)                   : 20:50:33.0
MAGNITUD(ES)                           : /Mc=5.7
COORDENADAS DEL EPICENTRO              : 16.20 LAT. N
                                       : 97.93 LONG. W
PROFUNDIDAD FOCAL (km)                 : 20
FUENTE DE LOS DATOS EPICENTRALES       : SSN
                                       : INSTITUTO DE GEOFISICA, UNAM

================================================================================
DATOS DE ESTE REGISTRO:
HORA DE LA PRIMERA MUESTRA (GMT)       : 20:52:20.00
EXACTITUD DEL TIEMPO (s)               : 0.01
DURACION DEL REGISTRO (s), C1-C6       : /130.6/130.6/130.6
DURACION DEL REGISTRO (s), C7-C12      : 
NUM. TOTAL DE MUESTRAS, C1-C6          : /13060/13060/13060
NUM. TOTAL DE MUESTRAS, C7-C12         : 
ACEL. MAX. (Gal), C1-C6                : /3.20853/0.84814/2.09534
ACEL. MAX., C1-C6, EN LA MUESTRA       : /4403/4531/4842
ACEL. MAX. (Gal), C7-C12               : 
ACEL. MAX., C7-C12, EN LA MUESTRA      : 
UNIDADES DE LOS DATOS                  : Gal (cm/s/s)
FACTOR DE DECIMACION                   : 1
FORMATO DATOS (FORTRAN,10 campos/dato) : 3F10.5


================================================================================
CALIDAD DEL ACELEROGRAMA:
REGISTRO DIGITAL COMPLETO CON TIEMPO ABSOLUTO CORRECTO.


================================================================================
COMENTARIOS:














================================================================================
DATOS DE ACELERACION:
---------+---------+---------+---------+---------+---------+---------+---------+
   CANAL-1   CANAL-2   CANAL-3   CANAL-4   CANAL-5   CANAL-6   CANAL-7   CANAL-8
      N00E        +V      N90W
---------+---------+---------+---------+---------+---------+---------+---------+
[...]
   0.12839  -0.17477  -0.14922
   0.12839  -0.35433  -0.20908
   0.15831  -0.26455  -0.25397
   0.11342  -0.15981  -0.35872
   0.12839  -0.11491  -0.49339
  -0.06614   0.04969  -0.59814
  -0.11103   0.01976  -0.67295
  -0.11103  -0.01017  -0.64303
  -0.29060   0.06465  -0.79266
  -0.26067   0.27414  -0.89741
  -0.30556   0.21429  -0.86748
  -0.29060   0.25918  -0.89741
  -0.35045   0.21429  -0.85252
  -0.35045   0.18436  -0.82259
  -0.54498   0.18436  -0.94230
  -0.41031   0.31904  -0.83756
  -0.53002   0.36393  -0.89741
  -0.54498   0.13947  -0.79266
  -0.64973   0.33400  -0.86748
  -0.57491   0.12451  -0.98719
  -0.69462   0.06465  -1.01712
  -0.61980   0.16940  -0.97223
  -0.72455   0.00480  -0.77770
  -0.75448   0.04969  -1.09194
  -0.72455   0.25918  -1.19669
  -0.66469   0.03472  -1.10690
  -0.73951   0.00480  -1.13683
  -0.58987  -0.11491  -1.18172
  -0.63477   0.03472  -1.16676
  -0.61980   0.22925  -1.12187
  -0.47016  -0.02513  -1.04705
  -0.55995  -0.05506  -0.98719
  -0.53002  -0.04010  -1.01712
  -0.67966  -0.05506  -0.95727
  -0.63477  -0.04010  -0.79266
  -0.53002  -0.21966  -0.74777
  -0.70958  -0.30944  -0.58317
  -0.75448  -0.35433  -0.53828
  -0.72455  -0.02513  -0.47843
  -0.78440  -0.12988  -0.28390
  -0.79937  -0.01017  -0.20908
  -0.78440  -0.09995  -0.02951
  -0.87419  -0.12988  -0.10433
  -0.82929   0.09458   4.1E-40
  -0.75448  -0.17477   0.07523
  -0.81433  -0.12988   0.31465
  -0.75448  -0.07002   0.29969
  -0.81433   0.09458   0.41940
  -0.70958  -0.02513   0.50918
  -0.63477  -0.02513   0.53911
  -0.61980  -0.14484   0.55407
  -0.55995  -0.04010   0.68875
  -0.50009  -0.14484   0.65882
  -0.35045   0.10954   0.80846
  -0.38038   0.12451   0.77853
  -0.30556  -0.07002   0.94313
  -0.26067   0.12451   0.97306
  -0.23074   0.04969   0.95810
  -0.15593   0.06465   1.01795
  -0.15593   0.06465   1.12270
  -0.15593   0.03472   1.15262
  -0.15593   0.15443   1.27233
  -0.12600  -0.02513   1.31723
  -0.06614   0.18436   1.31723
  -0.05118   0.22925   1.37708
  -0.02125   0.09458   1.42197
  -0.02125   0.24422   1.43694
   0.02364   0.10954   1.43694
   0.05357   0.15443   1.51175
   0.15831   0.25918   1.45190
   0.02364   0.31904   1.51175
   0.17328   0.45371   1.48183
   0.17328   0.49860   1.45190
   0.26306   0.39385   1.45190
   0.26306   0.39385   1.42197
   0.41270   0.45371   1.42197
   0.41270   0.37889   1.40701
   0.39773   0.36393   1.34715
   0.54737   0.37889   1.27233
   0.51744   0.18436   1.21248
   0.66708   0.16940   1.13766
   0.66708   0.06465   1.01795
   0.75686   0.25918   0.85335
   0.78679   0.03472   0.77853
   0.84665  -0.05506   0.71868
   0.84665  -0.05506   0.71868
   0.84665  -0.17477   0.47926
   0.90650  -0.09995   0.35955
   0.92147   0.06465   0.29969
   0.93643  -0.26455   0.17998
   0.81672  -0.26455   4.1E-40
   0.83168  -0.29448  -0.10433
   0.89154  -0.23462  -0.16419
   0.93643  -0.23462  -0.22404
   0.90650  -0.20470  -0.47843
   1.02621  -0.02513  -0.46346
   1.01125  -0.09995  -0.80763
   1.14592  -0.04010  -0.88245
   1.14592   0.04969  -0.91237
   1.19081   0.25918  -0.98719
   1.19081   0.12451  -1.06201
   1.29556   0.01976  -1.24158
   1.31052   0.13947  -1.22661
   1.22074   0.07961  -1.27150
   1.16089   0.15443  -1.37625
   1.10103   0.15443  -1.42114
   0.96636   0.42378  -1.55582
   0.84665   0.07961  -1.51093
   0.83168  -0.01017  -1.55582
   0.62219   0.21429  -1.63064
   0.44262   0.01976  -1.64560
   0.33788  -0.21966  -1.76531
   0.32291  -0.11491  -1.66056
   0.15831  -0.36930  -1.69049
   0.18824  -0.38426  -1.82516
  -0.08111  -0.24959  -1.72042
  -0.24571  -0.57879  -1.81020
  -0.15593  -0.32441  -1.75035
  -0.24571  -0.33937  -1.69049
  -0.27564  -0.35433  -1.67553
  -0.42527  -0.35433  -1.52589
  -0.38038  -0.35433  -1.46603
  -0.53002  -0.24959  -1.39121
  -0.58987  -0.26455  -1.40618
  -0.50009  -0.11491  -1.45107
  -0.61980   0.01976  -1.33136
  -0.57491  -0.14484  -1.24158
  -0.67966  -0.20470  -1.09194
  -0.78440   0.00480  -1.06201
  -0.82929   0.00480  -0.85252
  -0.97893  -0.11491  -0.85252
  -1.02382  -0.07002  -0.76274
  -1.15850  -0.12988  -0.70288
  -1.26324  -0.27952  -0.52332
  -1.39792  -0.17477  -0.34375
  -1.42785  -0.05506  -0.40361
  -1.56252  -0.20470  -0.32879
  -1.47274  -0.17477  -0.08937
  -1.59245  -0.12988  -0.01455
  -1.59245  -0.29448   0.12012
  -1.60741  -0.27952   0.07523
  -1.68223  -0.11491   0.15005
  -1.68223  -0.09995   0.47926
  -1.87676   0.00480   0.47926
  -1.77201   0.01976   0.58400
  -1.84683   0.13947   0.76357
  -1.81690   0.06465   0.83839
  -1.86179   0.15443   0.86831
  -1.81690   0.16940   0.95810
  -1.75705   0.24422   1.16759
  -1.69719   0.16940   1.16759
  -1.72712  -0.02513   1.25737
  -1.57748   0.25918   1.27233
  -1.44281   0.04969   1.37708
  -1.32310   0.00480   1.37708
  -1.32310   0.06465   1.34715
  -1.08368   0.24422   1.60154
  -0.96397  -0.02513   1.49679
  -0.82929   0.03472   1.45190
  -0.76944   0.13947   1.64643
  -0.81433   0.03472   1.73621
  -0.55995   0.18436   1.78110
  -0.47016   0.15443   1.84096
  -0.39535   0.18436   1.96067
  -0.27564   0.19933   1.94570
  -0.20082   0.12451   2.02052
  -0.02125   0.37889   1.94570
   0.11342   0.25918   2.02052
   0.20320   0.33400   2.05045
   0.30795   0.37889   2.02052
   0.47255   0.21429   1.99059
   0.50248   0.16940   1.87088
   0.53241   0.12451   1.88585
   0.71197   0.16940   1.87088
   0.77183   0.36393   1.70628
   0.89154   0.24422   1.48183
   0.98132   0.19933   1.34715
   1.10103   0.22925   1.15262
   1.11599   0.13947   1.06284
   1.25067   0.22925   0.98802
   1.23570   0.06465   0.86831
   1.26563  -0.02513   0.64386
   1.37038  -0.02513   0.59897
   1.44520  -0.01017   0.40444
   1.50505  -0.24959   0.25480
   1.59483  -0.35433   0.20991
   1.69958  -0.44412   0.17998
   1.78936  -0.30944   0.09020
   1.87915  -0.42915   0.04531
   1.81929  -0.39923  -0.08937
   1.93900  -0.32441  -0.20908
   1.86418  -0.08499  -0.01455
   1.84922  -0.07002  -0.11930
   1.83425   0.04969  -0.25397
   1.78936  -0.07002  -0.23901
   1.75944  -0.04010  -0.31382
   1.63973   0.15443  -0.50835
   1.59483   0.10954  -0.40361
   1.53498   0.22925  -0.62806
   1.38534   0.07961  -0.71785
   1.44520   0.16940  -0.74777
   1.32549   0.22925  -0.94230
   1.28060   0.36393  -1.06201
   1.28060   0.33400  -1.24158
   1.13096   0.25918  -1.25654
   1.10103   0.21429  -1.33136
   1.02621   0.12451  -1.34632
   1.01125   0.15443  -1.42114
   0.90650   0.06465  -1.49596
   0.84665   0.16940  -1.63064
   0.89154   0.06465  -1.57078
   0.78679  -0.21966  -1.54085
   0.78679   0.04969  -1.52589
   0.80176  -0.12988  -1.57078
   0.80176  -0.04010  -1.61567
   0.57730  -0.20470  -1.54085
   0.42766  -0.15981  -1.61567
   0.44262  -0.26455  -1.57078
   0.30795   0.00480  -1.52589
   0.12839  -0.26455  -1.48100
  -0.06614  -0.09995  -1.55582
  -0.11103  -0.18973  -1.49596
  -0.09607  -0.08499  -1.43611
  -0.26067  -0.05506  -1.39121
  -0.44024   0.01976  -1.45107
  -0.67966   0.03472  -1.37625
  -0.81433   0.06465  -1.39121
  -0.87419   0.01976  -1.39121
  -1.06871   0.18436  -1.42114
  -1.09864   0.39385  -1.31640
  -1.24828   0.42378  -1.24158
  -1.17346   0.16940  -1.18172
  -1.11361   0.12451  -1.18172
  -1.36799   0.18436  -1.03208
  -1.30814   0.10954  -0.89741
  -1.36799   0.16940  -0.82259
  -1.29317   0.09458  -0.73281
  -1.29317   0.03472  -0.61310
  -1.27821   0.06465  -0.55324
  -1.32310   0.10954  -0.43353
  -1.27821   0.04969  -0.38864
  -1.21835   0.16940  -0.31382
  -1.26324   0.03472  -0.28390
  -1.21835   0.10954  -0.25397
  -1.30814   0.04969  -0.16419
  -1.30814   0.01976  -0.32879
  -1.30814   0.01976  -0.28390
  -1.26324   0.00480  -0.26893
  -1.29317  -0.12988  -0.20908
  -1.23332  -0.05506  -0.16419
  -1.29317  -0.04010  -0.20908
  -1.26324  -0.15981  -0.07440
  -1.21835  -0.11491  -0.07440
  -1.12857  -0.14484   0.06027
  -1.02382  -0.21966   0.17998
  -1.02382  -0.18973   0.23983
  -0.97893  -0.14484   0.38947
  -0.96397  -0.18973   0.52415
  -0.85922  -0.33937   0.65882
  -0.78440  -0.24959   0.62889
  -0.67966  -0.26455   0.89824
  -0.69462  -0.33937   0.86831
  -0.60484  -0.24959   0.88328
  -0.44024  -0.20470   0.97306
  -0.35045  -0.20470   1.04788
  -0.27564  -0.21966   1.06284
  -0.11103  -0.14484   0.97306
   0.11342   0.12451   1.03291
   0.12839   0.04969   0.95810
   0.32291   0.00480   0.98802
   0.41270   0.00480   0.89824
   0.53241   0.24422   0.97306
   0.68204   0.06465   0.94313
   0.81672  -0.01017   1.03291
   0.95139  -0.15981   1.10773
   0.98132  -0.20470   1.15262
   1.10103  -0.23462   1.34715
   1.22074  -0.35433   1.21248
   1.44520  -0.44412   1.24241
   1.47512  -0.44412   1.19752
   1.57987  -0.38426   1.27233
   1.65469  -0.56383   1.28730
   1.62476  -0.29448   1.24241
   1.89411  -0.50397   1.18255
   1.86418  -0.69850   1.19752
   1.78936  -0.47404   1.15262
   1.84922  -0.48901   1.18255
   1.75944  -0.50397   0.94313
   1.75944  -0.36930   0.83839
   1.71454  -0.33937   0.79349
   1.72951  -0.33937   0.68875
   1.75944  -0.30944   0.62889
   1.78936  -0.30944   0.56904
   1.56491  -0.09995   0.37451
   1.54994  -0.07002   0.31465
   1.56491  -0.08499   0.26976
   1.46016   0.04969   0.20991
   1.46016   0.00480   0.22487
   1.63973  -0.01017   0.17998
   1.47512  -0.02513   0.12012
   1.37038  -0.11491   0.15005
   1.38534  -0.09995   0.13509
   1.40031   0.09458   0.13509
   1.46016  -0.18973   0.16502
   1.37038  -0.07002   0.13509
   1.26563  -0.09995   0.03034
   1.17585  -0.04010   0.20991
   1.10103  -0.09995   0.09020
   1.07110  -0.12988   0.10516
   0.93643  -0.17477   0.10516
   0.80176  -0.15981   0.17998
   0.68204  -0.08499   0.09020
   0.65212  -0.21966   4.1E-40
   0.39773  -0.09995  -0.05944
   0.27802   0.04969  -0.07440
   0.12839  -0.05506  -0.04448
   0.02364  -0.11491  -0.17915
  -0.06614  -0.12988  -0.16419
  -0.24571  -0.04010  -0.10433
  -0.29060  -0.01017  -0.23901
  -0.42527   0.00480  -0.34375
  -0.63477   0.22925  -0.28390
  -0.66469   0.16940  -0.26893
  -0.84426   0.27414  -0.31382
  -0.84426   0.10954  -0.41857
  -1.03879   0.31904  -0.40361
  -1.06871   0.15443  -0.46346
  -1.09864   0.19933  -0.58317
  -1.24828   0.28911  -0.46346
  -1.38295   0.15443  -0.47843
  -1.54756   0.06465  -0.56821
  -1.63734  -0.01017  -0.49339
  -1.78698   0.21429  -0.44850
  -1.92165  -0.02513  -0.58317
  -1.99647  -0.04010  -0.55324
  -2.17603  -0.05506  -0.65799
  -2.28078  -0.04010  -0.53828
  -2.46034  -0.08499  -0.58317
  -2.44538  -0.01017  -0.52332
  -2.68480   0.04969  -0.53828
  -2.78955  -0.01017  -0.65799
  -2.86437   0.06465  -0.62806
  -2.98408   0.04969  -0.62806
  -2.87933   0.19933  -0.65799
  -2.98408   0.00480  -0.73281
  -3.14868  -0.08499  -0.53828
  -3.20853  -0.14484  -0.53828
  -3.17861  -0.07002  -0.44850
  -3.08882  -0.27952  -0.52332
  -3.11875  -0.17477  -0.46346
  -3.07386  -0.42915  -0.46346
  -2.98408  -0.35433  -0.49339
  -2.81947  -0.38426  -0.44850
  -2.78955  -0.47404  -0.38864
  -2.58005  -0.50397  -0.44850
  -2.37056  -0.38426  -0.49339
  -2.43042  -0.41419  -0.49339
  -2.17603  -0.39923  -0.50835
  -1.99647  -0.41419  -0.53828
  -1.90669  -0.35433  -0.47843
  -1.83187  -0.21966  -0.34375
  -1.74208  -0.27952  -0.43353
  -1.56252  -0.18973  -0.46346
  -1.48770  -0.14484  -0.40361
  -1.36799  -0.18973  -0.41857
  -1.21835  -0.05506  -0.28390
  -1.14353  -0.01017  -0.44850
  -0.97893  -0.11491  -0.44850
  -0.85922  -0.01017  -0.37368
  -0.75448  -0.09995  -0.38864
  -0.64973   0.03472  -0.34375
  -0.47016   0.00480  -0.37368
  -0.35045  -0.07002  -0.28390
  -0.14096  -0.15981  -0.32879
  -0.00629   0.25918  -0.41857
   0.14335  -0.02513  -0.41857
   0.39773  -0.11491  -0.43353
   0.53241  -0.17477  -0.26893
   0.75686  -0.11491  -0.34375
   0.95139  -0.02513  -0.37368
   1.11599  -0.05506  -0.43353
   1.23570  -0.04010  -0.46346
   1.38534  -0.18973  -0.41857
   1.54994  -0.20470  -0.49339
   1.78936  -0.08499  -0.44850
   1.89411  -0.08499  -0.32879
   2.05871  -0.04010  -0.43353
   2.29813   0.00480  -0.35872
   2.32806   0.06465  -0.26893
   2.44777   0.09458  -0.32879
   2.50762   0.09458  -0.28390
   2.50762   0.13947  -0.13426
   2.67223   0.18436  -0.10433
   2.67223   0.22925  -0.11930
   2.67223   0.31904   4.1E-40
   2.64230   0.12451   4.1E-40
   2.65726   0.09458   0.09020
   2.67223   0.12451   0.17998
   2.61237   0.18436   0.09020
   2.73208   0.28911   0.15005
   2.53755   0.27414   0.29969
   2.61237   0.27414   0.20991
   2.49266   0.25918   0.23983
   2.40288   0.48364   0.29969
   2.28317   0.69313   0.22487
   2.14849   0.36393   0.26976
   2.22331   0.51356   0.22487
   2.02878   0.49860   0.20991
   2.01382   0.61831   0.17998
   1.86418   0.55846   0.22487
   1.75944   0.51356   0.23983
   1.75944   0.57342   0.20991
   1.74447   0.55846   0.22487
   1.65469   0.61831   0.15005
   1.60980   0.61831   0.22487
   1.69958   0.46867   0.16502
   1.34045   0.43875   0.26976
   1.28060   0.48364   0.23983
   1.19081   0.55846   0.26976
   1.10103   0.34896   0.17998
   0.96636   0.31904   0.20991
   0.95139   0.21429   0.32962
   0.90650   0.33400   0.31465
   0.72694   0.19933   0.29969
   0.69701   0.28911   0.46429
   0.65212   0.13947   0.46429
   0.45759   0.04969   0.52415
   0.30795   0.21429   0.58400
   0.26306   0.07961   0.62889
   0.17328   0.19933   0.62889
   0.21817   0.22925   0.64386
   0.02364   0.24422   0.77853
  -0.06614   0.10954   0.79349
  -0.15593   0.33400   0.71868
  -0.21578   0.16940   0.83839
  -0.41031   0.07961   0.83839
  -0.38038   0.10954   0.88328
  -0.44024   0.21429   0.82342
  -0.48513   0.09458   0.76357
  -0.63477  -0.12988   0.67378
  -0.66469  -0.08499   0.74860
  -0.72455  -0.04010   0.73364
  -0.91908  -0.11491   0.55407
  -0.93404  -0.09995   0.62889
  -0.90411  -0.20470   0.52415
  -0.99390  -0.05506   0.44933
  -1.05375  -0.09995   0.44933
  -1.06871  -0.04010   0.50918
  -1.14353  -0.17477   0.34458
  -1.15850  -0.20470   0.41940
  -1.24828  -0.23462   0.34458
  -1.18843  -0.32441   0.31465
  -1.08368  -0.12988   0.35955
  -1.26324  -0.05506   0.19494
  -1.20339  -0.08499   0.16502
  -1.17346  -0.09995   0.17998
  -1.06871  -0.04010   0.12012
  -1.21835   0.16940   0.07523
  -1.15850   0.12451   0.03034
  -1.12857   0.09458  -0.04448
  -1.12857   0.15443   0.01538
  -1.15850   0.13947  -0.08937
  -1.14353   0.15443  -0.05944
  -1.17346   0.06465  -0.14922
  -1.15850  -0.07002  -0.08937
  -1.17346  -0.01017  -0.17915
  -1.14353  -0.36930  -0.14922
  -1.09864  -0.27952  -0.19411
  -1.09864  -0.50397  -0.05944
  -1.06871  -0.45908  -0.19411
  -1.08368  -0.68354  -0.14922
  -1.00886  -0.65361  -0.20908
  -0.91908  -0.44412  -0.10433
  -0.90411  -0.72843  -0.29886
  -0.97893  -0.84814  -0.23901
  -0.76944  -0.65361  -0.08937
  -0.63477  -0.42915  -0.17915
  -0.51506  -0.53390  -0.10433
  -0.53002  -0.33937  -0.11930
  -0.51506  -0.41419  -0.08937
  -0.42527  -0.26455  -0.05944
  -0.38038  -0.26455  -0.16419
  -0.24571  -0.23462  -0.04448
  -0.29060  -0.02513  -0.05944
  -0.30556   0.00480   0.10516
  -0.32053   0.03472   0.06027
  -0.30556   0.07961   0.19494
  -0.27564   0.12451   0.16502
  -0.29060   0.06465   0.17998
  -0.27564   0.27414   0.23983
  -0.32053  -0.02513   0.22487
  -0.36542   0.01976   0.25480
  -0.32053  -0.01017   0.26976
  -0.33549   0.07961   0.32962
  -0.36542   0.28911   0.20991
  -0.36542   0.30407   0.22487
