********************************************************************************
              CENTRO DE INSTRUMENTACION Y REGISTRO SISMICO  A.C.

    Anaxagoras 814, Col. Narvarte, Benito Juarez, C.P. 03020 Mexico, D.F.
           Tels. 5687 45 42/ 5687 45  82             Fax. 5669 25 12
********************************************************************************
ARCHIVO ESTANDAR DE ACELERACION:
VERSION DEL FORMATO                    : 2.0
NOMBRE DEL ARCHIVO                     : AO2420120929071110
FECHA Y HORA DE CREACION               : 11/ABR/13, 12:20
REF. CATALOGO ACELEROGRAMAS, SMIS 1996 : REGISTRO No.     /PAG.


================================================================================
DATOS DE LA ESTACION:
NOMBRE DE LA ESTACION                  : ALBERCA OLÍMPICA
CLAVE DE LA ESTACION                   : AO24
LOCALIZACION DE LA ESTACION            : Del. Benito Juárez, Col. General Pedro 
                                       : María Anaya, Río Churubusco            
                                       : y División del Norte.                  
                                       :                                        
                                       : 
COORDENADAS DE LA ESTACION             : 19.3580 LAT. N
                                       : 99.1539 LONG. W
ALTITUD (msnm)                         : 2235
TIPO DE SUELO                          : Transición                          
                                       :                           
                                       : 
INSTITUCION RESPONSABLE                : CIRES
                                       : 

================================================================================
DATOS DEL ACELEROGRAFO:
MODELO DEL ACELEROGRAFO                : RADESD
NUMERO DE SERIE DEL ACELEROGRAFO       : 257
NUMERO DE CANALES                      : 3
ORIENTACION C1-C6 (rumbo;orientacion)  : /N00E/+V/N90W
ORIENTACION C7-C12 (rumbo;orientacion) : 
VEL. DE MUESTREO, C1-C6 (muestras/s)   : /100/100/100
VEL. DE MUESTREO, C7-C12 (muestras/s)  : 
ESC. COMPLETA DE SENSORES, C1-C6, (g)  : /0.5/0.5/0.5
ESC. COMPLETA DE SENSORES, C7-C12, (g) : 
FREC. NAT. DE SENSORES, C1-C6, (Hz)    : /30/30/30
FREC. NAT. DE SENSORES, C7-C12, (Hz)   : 
AMORTIGUAMIENTO DE SENSORES, C1-C6     : /0.700/0.700/0.700
AMORTIGUAMIENTO DE SENSORES, C7-C12    : 
INTERVALO DE MUESTREO, C1-C6, (s)      : /0.01/0.01/0.01
INTERVALO DE MUESTREO, C7-C12, (s)     : 
UMBRAL DE DISPARO, C1-C6, (Gal)        : /1.68/3.11/1.92
UMBRAL DE DISPARO, C7-C12, (Gal)       : 
MEMORIA DE PREEVENTO (s)               : 56.0
TIEMPO DE POSEVENTO (s)                : 64.0


================================================================================
DATOS DEL SISMO:
FECHA DEL SISMO (GMT)                  : 29/SEP/12
HORA EPICENTRO (GMT)                   : 07:11:10.0
MAGNITUD(ES)                           : /Mc=5.5
COORDENADAS DEL EPICENTRO              : 15.89 LAT. N
                                       : 98.67 LONG. W
PROFUNDIDAD FOCAL (km)                 : 15
FUENTE DE LOS DATOS EPICENTRALES       : SSN
                                       : INSTITUTO DE GEOFISICA, UNAM

================================================================================
DATOS DE ESTE REGISTRO:
HORA DE LA PRIMERA MUESTRA (GMT)       : 07:12:34.00
EXACTITUD DEL TIEMPO (s)               : 0.01
DURACION DEL REGISTRO (s), C1-C6       : /127.25/127.25/127.25
DURACION DEL REGISTRO (s), C7-C12      : 
NUM. TOTAL DE MUESTRAS, C1-C6          : /12725/12725/12725
NUM. TOTAL DE MUESTRAS, C7-C12         : 
ACEL. MAX. (Gal), C1-C6                : /2.17004/0.64116/1.92157
ACEL. MAX., C1-C6, EN LA MUESTRA       : /5641/5202/6144
ACEL. MAX. (Gal), C7-C12               : 
ACEL. MAX., C7-C12, EN LA MUESTRA      : 
UNIDADES DE LOS DATOS                  : Gal (cm/s/s)
FACTOR DE DECIMACION                   : 1
FORMATO DATOS (FORTRAN,10 campos/dato) : 3F10.5


================================================================================
CALIDAD DEL ACELEROGRAMA:
REGISTRO DIGITAL COMPLETO CON TIEMPO ABSOLUTO CORRECTO.


================================================================================
COMENTARIOS:














================================================================================
DATOS DE ACELERACION:
---------+---------+---------+---------+---------+---------+---------+---------+
   CANAL-1   CANAL-2   CANAL-3   CANAL-4   CANAL-5   CANAL-6   CANAL-7   CANAL-8
      N00E        +V      N90W
---------+---------+---------+---------+---------+---------+---------+---------+
[...]
  -0.49410   0.07710  -1.20331
  -0.49410   0.07710  -1.20331
  -0.49410   0.31652  -1.20331
  -0.49410   0.31652  -1.20331
  -0.49410   0.31652  -1.44273
  -0.49410   0.31652  -1.44273
  -0.49410   0.31652  -1.44273
  -0.49410   0.31652  -1.44273
  -0.49410   0.31652  -1.44273
  -0.49410   0.31652  -1.68215
  -0.49410   0.31652  -1.68215
  -0.49410   0.31652  -1.44273
  -0.49410   0.31652  -1.44273
  -0.49410   0.31652  -1.44273
  -0.49410   0.07710  -1.68215
  -0.49410   0.07710  -1.44273
  -0.49410   0.07710  -1.44273
  -0.49410   0.07710  -1.44273
  -0.49410   0.07710  -1.44273
  -0.49410   0.07710  -1.44273
  -0.49410   0.07710  -1.20331
  -0.25468   0.07710  -1.44273
  -0.49410   0.07710  -1.20331
  -0.25468   0.07710  -1.20331
  -0.25468   0.07710  -0.96389
  -0.25468   0.07710  -0.96389
  -0.25468   0.07710  -0.96389
  -0.25468   0.07710  -0.96389
  -0.01526   0.07710  -0.72447
  -0.01526   0.07710  -0.72447
  -0.01526   0.07710  -0.48505
  -0.01526   0.07710  -0.48505
  -0.01526   0.07710  -0.24563
   0.22416  -0.16232  -0.24563
   0.22416  -0.16232  -0.24563
   0.22416  -0.16232  -0.24563
   0.22416  -0.16232  -0.00621
   0.22416  -0.16232  -0.00621
   0.46358  -0.16232   0.23321
   0.46358  -0.16232   0.23321
   0.22416  -0.16232   0.23321
   0.46358  -0.16232   0.23321
   0.46358   0.07710   0.47263
   0.46358  -0.16232   0.47263
   0.70300  -0.16232   0.47263
   0.70300  -0.16232   0.71205
   0.70300   0.07710   0.71205
   0.70300  -0.16232   0.71205
   0.70300  -0.16232   0.71205
   0.70300  -0.16232   0.71205
   0.70300  -0.16232   0.95147
   0.70300  -0.16232   0.95147
   0.70300  -0.16232   0.95147
   0.70300  -0.16232   0.95147
   0.70300  -0.16232   1.19089
   0.70300  -0.16232   1.19089
   0.70300  -0.16232   1.19089
   0.70300  -0.16232   1.19089
   0.70300  -0.16232   1.19089
   0.70300  -0.16232   1.19089
   0.70300  -0.16232   1.19089
   0.70300  -0.16232   1.19089
   0.70300  -0.16232   1.43031
   0.46358  -0.16232   1.19089
   0.70300  -0.16232   1.43031
   0.70300  -0.16232   1.19089
   0.70300  -0.16232   1.19089
   0.70300  -0.16232   1.19089
   0.70300  -0.16232   1.19089
   0.70300  -0.16232   1.19089
   0.70300  -0.16232   1.19089
   0.70300  -0.16232   0.95147
   0.70300  -0.16232   0.95147
   0.70300   0.07710   0.95147
   0.46358  -0.16232   0.95147
   0.46358   0.07710   0.71205
   0.46358   0.07710   0.71205
   0.46358   0.07710   0.47263
   0.46358   0.07710   0.47263
   0.46358  -0.16232   0.47263
   0.46358  -0.16232   0.47263
   0.22416   0.07710   0.23321
   0.22416   0.07710   0.23321
   0.22416   0.07710  -0.00621
  -0.01526   0.07710  -0.00621
  -0.01526   0.07710  -0.00621
  -0.25468   0.07710  -0.24563
  -0.25468   0.07710  -0.00621
  -0.25468   0.07710  -0.24563
  -0.25468   0.07710  -0.24563
  -0.49410   0.07710  -0.24563
  -0.49410   0.07710  -0.24563
  -0.49410   0.07710  -0.24563
  -0.73352   0.07710  -0.48505
  -0.73352   0.07710  -0.48505
  -0.73352   0.07710  -0.48505
  -0.73352   0.07710  -0.48505
  -0.97294   0.07710  -0.48505
  -0.97294   0.07710  -0.48505
  -0.97294   0.07710  -0.72447
  -0.97294   0.07710  -0.72447
  -0.97294   0.07710  -0.72447
  -0.97294   0.07710  -0.72447
  -0.97294   0.07710  -0.72447
  -0.97294   0.07710  -0.72447
  -1.21236   0.07710  -0.72447
  -1.21236   0.07710  -0.72447
  -1.21236   0.07710  -0.72447
  -1.21236   0.07710  -0.72447
  -1.21236   0.07710  -0.72447
  -1.21236   0.07710  -0.72447
  -1.21236   0.07710  -0.72447
  -1.21236   0.07710  -0.72447
  -1.21236   0.07710  -0.72447
  -1.21236   0.07710  -0.72447
  -1.45178   0.07710  -0.48505
  -1.45178   0.07710  -0.48505
  -1.21236   0.07710  -0.48505
  -1.21236   0.07710  -0.48505
  -1.21236   0.07710  -0.48505
  -1.21236   0.07710  -0.48505
  -1.21236   0.07710  -0.24563
  -1.21236   0.07710  -0.24563
  -0.97294  -0.16232  -0.00621
  -0.97294   0.07710  -0.24563
  -0.97294   0.07710  -0.24563
  -0.73352   0.07710  -0.00621
  -0.73352   0.07710  -0.00621
  -0.49410   0.07710  -0.00621
  -0.49410   0.07710  -0.00621
  -0.49410   0.07710   0.23321
  -0.25468   0.07710   0.23321
  -0.25468   0.07710   0.23321
  -0.25468   0.07710   0.23321
  -0.01526   0.07710   0.23321
  -0.01526   0.07710   0.23321
  -0.01526   0.07710   0.23321
   0.22416   0.07710   0.47263
   0.22416   0.07710   0.47263
   0.22416   0.07710   0.47263
   0.46358   0.07710   0.47263
   0.46358   0.07710   0.47263
   0.46358   0.07710   0.47263
   0.46358   0.07710   0.47263
   0.46358   0.07710   0.47263
   0.70300   0.07710   0.47263
   0.70300   0.07710   0.47263
   0.70300   0.07710   0.47263
   0.94242   0.07710   0.71205
   0.94242   0.07710   0.47263
   0.94242   0.07710   0.47263
   0.94242   0.07710   0.47263
   0.94242   0.07710   0.47263
   1.18184   0.07710   0.47263
   0.94242   0.07710   0.47263
   1.18184   0.07710   0.47263
   1.18184   0.07710   0.23321
   1.18184   0.07710   0.47263
   1.18184   0.07710   0.23321
   1.18184   0.07710   0.23321
   1.18184   0.07710   0.23321
   0.94242   0.07710   0.23321
   1.18184  -0.16232   0.23321
   1.18184  -0.16232  -0.00621
   0.94242  -0.16232  -0.00621
   0.94242  -0.16232   0.23321
   0.94242  -0.16232  -0.00621
   0.94242  -0.16232  -0.00621
   0.94242  -0.16232  -0.00621
   0.94242  -0.16232  -0.24563
   0.94242  -0.16232  -0.00621
   0.94242  -0.16232  -0.24563
   0.94242  -0.16232  -0.24563
   0.94242  -0.40174  -0.24563
   0.94242  -0.40174  -0.24563
   0.94242  -0.40174  -0.48505
   0.70300  -0.16232  -0.48505
   0.70300  -0.16232  -0.48505
   0.70300  -0.16232  -0.48505
   0.70300  -0.16232  -0.48505
   0.46358  -0.16232  -0.48505
   0.46358  -0.16232  -0.48505
   0.46358  -0.16232  -0.48505
   0.22416  -0.40174  -0.72447
   0.22416  -0.16232  -0.72447
  -0.01526  -0.16232  -0.72447
  -0.01526  -0.16232  -0.72447
  -0.01526  -0.16232  -0.72447
  -0.25468  -0.16232  -0.72447
  -0.25468  -0.16232  -0.72447
  -0.25468  -0.16232  -0.48505
  -0.49410  -0.16232  -0.72447
  -0.49410  -0.16232  -0.72447
  -0.49410  -0.16232  -0.48505
  -0.49410  -0.16232  -0.48505
  -0.73352  -0.16232  -0.48505
  -0.49410   0.07710  -0.48505
  -0.73352  -0.16232  -0.48505
  -0.73352  -0.16232  -0.48505
  -0.73352  -0.16232  -0.48505
  -0.73352   0.07710  -0.48505
  -0.73352  -0.16232  -0.48505
  -0.73352  -0.16232  -0.48505
  -0.73352  -0.16232  -0.48505
  -0.73352   0.07710  -0.48505
  -0.73352   0.07710  -0.48505
  -0.73352  -0.16232  -0.48505
  -0.73352   0.07710  -0.48505
  -0.73352  -0.16232  -0.24563
  -0.73352  -0.16232  -0.48505
  -0.73352   0.07710  -0.24563
  -0.73352  -0.16232  -0.24563
  -0.73352   0.07710  -0.48505
  -0.73352   0.07710  -0.24563
  -0.73352  -0.16232  -0.24563
  -0.49410  -0.16232  -0.24563
  -0.49410   0.07710  -0.24563
  -0.49410  -0.16232  -0.24563
  -0.49410   0.07710  -0.24563
  -0.49410   0.07710  -0.00621
  -0.25468   0.07710  -0.24563
  -0.25468   0.07710  -0.00621
  -0.25468   0.07710  -0.00621
  -0.01526   0.07710  -0.00621
  -0.01526   0.07710  -0.00621
  -0.01526   0.07710  -0.00621
  -0.01526   0.07710  -0.00621
  -0.01526   0.07710   0.23321
   0.22416   0.07710   0.23321
   0.22416  -0.16232   0.23321
   0.22416   0.07710   0.23321
   0.22416   0.07710   0.23321
   0.46358   0.07710   0.47263
   0.46358   0.07710   0.47263
   0.46358   0.07710   0.47263
   0.70300  -0.16232   0.47263
   0.70300  -0.16232   0.71205
   0.70300   0.07710   0.71205
   0.70300   0.07710   0.71205
   0.70300   0.07710   0.71205
   0.70300   0.07710   0.95147
   0.94242   0.07710   0.95147
   0.94242   0.07710   0.95147
   0.94242   0.07710   0.95147
   0.94242   0.07710   0.71205
   0.94242   0.07710   0.95147
   0.94242   0.07710   0.95147
   0.94242   0.07710   0.95147
   1.18184   0.07710   0.95147
   1.18184   0.07710   0.95147
   1.18184   0.07710   0.95147
   0.94242   0.07710   0.95147
   0.94242   0.07710   0.95147
   0.94242  -0.16232   0.95147
   0.94242   0.07710   0.95147
   0.94242  -0.16232   0.95147
   0.70300  -0.16232   0.95147
   0.70300  -0.16232   0.95147
   0.70300  -0.16232   0.95147
   0.70300  -0.16232   0.95147
   0.70300  -0.16232   0.95147
   0.46358  -0.16232   0.95147
   0.46358  -0.16232   0.95147
   0.46358  -0.16232   0.95147
   0.22416  -0.16232   0.95147
   0.22416  -0.16232   0.95147
   0.22416  -0.16232   0.71205
  -0.01526  -0.16232   0.71205
  -0.01526  -0.16232   0.71205
  -0.25468   0.07710   0.47263
  -0.25468  -0.16232   0.47263
  -0.25468   0.07710   0.47263
  -0.25468   0.07710   0.47263
  -0.49410   0.07710   0.23321
  -0.49410   0.07710   0.23321
  -0.49410   0.07710   0.23321
  -0.73352   0.07710  -0.00621
  -0.73352   0.07710  -0.00621
  -0.73352   0.07710  -0.00621
  -0.97294   0.07710  -0.24563
  -0.97294   0.07710  -0.24563
  -0.97294   0.07710  -0.24563
  -1.21236   0.07710  -0.24563
  -1.21236   0.07710  -0.24563
  -1.21236   0.07710  -0.48505
  -1.45178   0.07710  -0.48505
  -1.45178   0.31652  -0.48505
  -1.45178   0.07710  -0.72447
  -1.45178   0.07710  -0.72447
  -1.69120   0.31652  -0.72447
  -1.69120   0.31652  -0.72447
  -1.69120   0.31652  -0.72447
  -1.69120   0.31652  -0.72447
  -1.69120   0.31652  -0.72447
  -1.69120   0.31652  -0.72447
  -1.69120   0.31652  -0.96389
  -1.69120   0.31652  -0.96389
  -1.69120   0.31652  -0.96389
  -1.69120   0.31652  -0.96389
  -1.69120   0.31652  -0.96389
  -1.45178   0.31652  -0.96389
  -1.45178   0.31652  -0.96389
  -1.45178   0.07710  -0.96389
  -1.21236   0.07710  -0.96389
  -1.21236   0.07710  -0.96389
  -1.21236   0.07710  -0.96389
  -1.21236   0.07710  -0.96389
  -0.97294   0.07710  -0.96389
  -0.97294   0.07710  -0.96389
  -0.97294   0.07710  -0.96389
  -0.73352   0.07710  -0.96389
  -0.73352   0.07710  -0.72447
  -0.49410   0.07710  -0.96389
  -0.49410   0.07710  -0.96389
  -0.49410   0.07710  -0.96389
  -0.25468  -0.16232  -0.72447
  -0.25468   0.07710  -0.96389
  -0.01526   0.07710  -0.96389
  -0.01526   0.07710  -0.72447
  -0.01526   0.07710  -0.72447
   0.22416   0.07710  -0.72447
   0.22416   0.07710  -0.72447
   0.22416   0.07710  -0.72447
   0.46358   0.07710  -0.48505
   0.46358   0.07710  -0.72447
   0.46358   0.07710  -0.48505
   0.70300   0.07710  -0.48505
   0.94242   0.07710  -0.24563
   0.94242   0.07710  -0.24563
   0.94242   0.07710  -0.24563
   0.94242   0.07710  -0.24563
   1.18184   0.07710  -0.00621
   1.18184   0.07710  -0.00621
   1.42126   0.07710   0.23321
   1.42126   0.07710   0.23321
   1.42126   0.07710   0.47263
   1.42126   0.07710   0.47263
   1.66068   0.07710   0.47263
   1.66068   0.07710   0.71205
   1.66068  -0.16232   0.71205
   1.90010  -0.16232   0.71205
   1.90010   0.07710   0.71205
   1.90010  -0.16232   0.71205
   1.90010  -0.16232   0.95147
   1.90010  -0.16232   0.95147
   1.90010  -0.16232   0.95147
   2.13952  -0.16232   1.19089
   2.13952  -0.16232   1.19089
   2.13952  -0.16232   1.19089
   1.90010  -0.16232   1.19089
   2.13952  -0.16232   1.19089
   1.90010   0.07710   1.19089
   1.90010  -0.16232   1.19089
   1.90010  -0.16232   1.19089
   1.90010  -0.16232   1.19089
   1.90010  -0.16232   1.19089
   1.66068  -0.16232   1.19089
   1.66068  -0.16232   1.19089
   1.66068  -0.16232   1.19089
   1.66068  -0.16232   1.19089
   1.42126   0.07710   1.19089
   1.42126  -0.16232   1.19089
   1.18184   0.07710   0.95147
   1.18184   0.07710   0.95147
   1.18184   0.07710   0.95147
   1.18184   0.07710   0.71205
   0.94242   0.07710   0.71205
   0.94242   0.07710   0.71205
   0.70300   0.07710   0.71205
   0.70300   0.07710   0.71205
   0.46358   0.07710   0.47263
   0.46358   0.07710   0.47263
   0.46358   0.07710   0.47263
   0.22416   0.07710   0.47263
   0.22416   0.07710   0.23321
  -0.01526   0.07710   0.23321
  -0.01526   0.07710   0.23321
  -0.25468   0.07710  -0.00621
  -0.25468  -0.16232  -0.00621
  -0.49410  -0.16232  -0.00621
  -0.49410  -0.16232  -0.00621
  -0.49410  -0.16232  -0.24563
  -0.97294  -0.16232  -0.24563
  -0.97294  -0.16232  -0.24563
  -0.97294  -0.16232  -0.48505
  -1.21236  -0.16232  -0.48505
  -1.21236  -0.16232  -0.48505
  -1.45178  -0.16232  -0.48505
  -1.45178  -0.16232  -0.72447
  -1.45178  -0.16232  -0.72447
  -1.69120  -0.16232  -0.72447
  -1.69120   0.07710  -0.96389
  -1.69120  -0.16232  -0.96389
  -1.93062   0.07710  -0.96389
  -1.93062   0.07710  -0.96389
  -1.93062   0.07710  -1.20331
  -1.93062   0.07710  -1.20331
  -1.93062   0.07710  -1.20331
  -1.93062   0.07710  -1.20331
  -2.17004   0.07710  -1.20331
  -2.17004   0.07710  -1.20331
  -2.17004   0.07710  -1.20331
  -2.17004   0.07710  -1.20331
  -2.17004   0.07710  -1.20331
  -2.17004  -0.16232  -1.20331
  -2.17004   0.07710  -1.20331
  -2.17004   0.07710  -1.20331
  -2.17004  -0.16232  -1.20331
  -2.17004  -0.16232  -1.20331
  -2.17004  -0.16232  -1.20331
  -1.93062  -0.16232  -1.20331
  -1.93062  -0.16232  -1.20331
  -1.69120  -0.16232  -1.20331
  -1.69120  -0.16232  -0.96389
  -1.69120  -0.16232  -0.96389
  -1.69120  -0.16232  -0.96389
  -1.45178  -0.16232  -0.96389
  -1.45178  -0.16232  -0.96389
  -1.21236  -0.40174  -0.72447
  -1.21236  -0.40174  -0.72447
  -0.97294  -0.40174  -0.72447
  -0.97294  -0.40174  -0.48505
  -0.73352  -0.40174  -0.48505
  -0.49410  -0.16232  -0.48505
  -0.49410  -0.40174  -0.48505
  -0.25468  -0.16232  -0.24563
  -0.01526  -0.16232  -0.24563
  -0.01526  -0.40174  -0.24563
   0.22416  -0.16232  -0.00621
   0.22416  -0.16232  -0.00621
   0.46358  -0.16232  -0.00621
   0.46358  -0.16232  -0.00621
   0.46358  -0.16232   0.23321
   0.94242  -0.16232   0.23321
   0.94242  -0.16232   0.23321
   1.18184  -0.16232   0.23321
   1.18184  -0.16232   0.47263
   1.18184   0.07710   0.47263
   1.42126  -0.16232   0.71205
   1.42126   0.07710   0.47263
   1.66068  -0.16232   0.71205
   1.66068   0.07710   0.71205
   1.66068   0.07710   0.71205
   1.66068   0.07710   0.71205
   1.90010  -0.16232   0.71205
   1.90010   0.07710   0.71205
   1.90010   0.07710   0.95147
   1.90010   0.07710   0.95147
   1.90010  -0.16232   0.95147
   1.90010   0.07710   0.95147
   1.90010  -0.16232   0.95147
   1.90010   0.07710   0.95147
   1.90010  -0.16232   0.95147
   1.90010  -0.16232   0.95147
   1.90010  -0.16232   0.71205
   1.90010  -0.16232   0.95147
   1.90010   0.07710   0.71205
   1.90010  -0.16232   0.95147
   1.90010  -0.16232   0.95147
   1.66068   0.07710   0.95147
   1.66068   0.07710   0.71205
   1.66068   0.07710   0.71205
   1.66068   0.07710   0.71205
   1.66068   0.07710   0.71205
   1.66068   0.07710   0.71205
   1.42126   0.07710   0.71205
   1.42126   0.07710   0.71205
   1.18184   0.07710   0.71205
   1.18184   0.07710   0.71205
   0.94242   0.07710   0.71205
   0.94242   0.07710   0.71205
   0.70300   0.07710   0.71205
   0.70300   0.07710   0.47263
   0.46358   0.07710   0.47263
   0.22416   0.07710   0.47263
   0.22416   0.07710   0.47263
   0.22416   0.07710   0.47263
  -0.01526   0.31652   0.47263
  -0.25468   0.07710   0.47263
  -0.25468   0.31652   0.23321
  -0.49410   0.31652   0.23321
  -0.49410   0.31652   0.23321
  -0.73352   0.31652   0.23321
  -0.73352   0.07710  -0.00621
  -0.97294   0.31652  -0.00621
  -1.21236   0.31652  -0.00621
  -1.21236   0.31652  -0.00621
  -1.21236   0.31652  -0.24563
  -1.21236   0.31652  -0.24563
  -1.45178   0.31652  -0.48505
  -1.45178   0.31652  -0.24563
  -1.69120   0.31652  -0.48505
  -1.69120   0.31652  -0.48505
  -1.69120   0.31652  -0.48505
  -1.93062   0.31652  -0.72447
  -1.93062   0.31652  -0.72447
