********************************************************************************
              CENTRO DE INSTRUMENTACION Y REGISTRO SISMICO  A.C.

    Anaxagoras 814, Col. Narvarte, Benito Juarez, C.P. 03020 Mexico, D.F.
           Tels. 5687 45 42/ 5687 45  82             Fax. 5669 25 12
********************************************************************************
ARCHIVO ESTANDAR DE ACELERACION:
VERSION DEL FORMATO                    : 2.0
NOMBRE DEL ARCHIVO                     : AO2420180219065657
FECHA Y HORA DE CREACION               : 07/MAR/18, 13:39
REF. CATALOGO ACELEROGRAMAS, SMIS 1996 : REGISTRO No.     /PAG.


================================================================================
DATOS DE LA ESTACION:
NOMBRE DE LA ESTACION                  : ALBERCA OLÍMPICA
CLAVE DE LA ESTACION                   : AO24
LOCALIZACION DE LA ESTACION            : Del. Benito Juárez, Col. General Pedro 
                                       : María Anaya, Río Churubusco            
                                       : y División del Norte.                  
                                       :                                        
                                       : 
COORDENADAS DE LA ESTACION             : 19.3580 LAT. N
                                       : 99.1539 LONG. W
ALTITUD (msnm)                         : 2235
TIPO DE SUELO                          : Transición                          
                                       :                           
                                       : 
INSTITUCION RESPONSABLE                : CIRES
                                       : 

================================================================================
DATOS DEL ACELEROGRAFO:
MODELO DEL ACELEROGRAFO                : RADESD
NUMERO DE SERIE DEL ACELEROGRAFO       : 257
NUMERO DE CANALES                      : 3
ORIENTACION C1-C6 (rumbo;orientacion)  : /N00E/+V/N90W
ORIENTACION C7-C12 (rumbo;orientacion) : 
VEL. DE MUESTREO, C1-C6 (muestras/s)   : /100/100/100
VEL. DE MUESTREO, C7-C12 (muestras/s)  : 
ESC. COMPLETA DE SENSORES, C1-C6, (g)  : /0.5/0.5/0.5
ESC. COMPLETA DE SENSORES, C7-C12, (g) : 
FREC. NAT. DE SENSORES, C1-C6, (Hz)    : /30/30/30
FREC. NAT. DE SENSORES, C7-C12, (Hz)   : 
AMORTIGUAMIENTO DE SENSORES, C1-C6     : /0.700/0.700/0.700
AMORTIGUAMIENTO DE SENSORES, C7-C12    : 
INTERVALO DE MUESTREO, C1-C6, (s)      : /0.01/0.01/0.01
INTERVALO DE MUESTREO, C7-C12, (s)     : 
UMBRAL DE DISPARO, C1-C6, (Gal)        : /1.05/2.69/1.05
UMBRAL DE DISPARO, C7-C12, (Gal)       : 
MEMORIA DE PREEVENTO (s)               : 44.0
TIEMPO DE POSEVENTO (s)                : 70.0


================================================================================
DATOS DEL SISMO:
FECHA DEL SISMO (GMT)                  : 19/FEB/18
HORA EPICENTRO (GMT)                   : 06:56:57.0
MAGNITUD(ES)                           : /Mc=6.0
COORDENADAS DEL EPICENTRO              : 16.25 LAT. N
                                       : 97.77 LONG. W
PROFUNDIDAD FOCAL (km)                 : 10
FUENTE DE LOS DATOS EPICENTRALES       : SSN
                                       : INSTITUTO DE GEOFISICA, UNAM

================================================================================
DATOS DE ESTE REGISTRO:
HORA DE LA PRIMERA MUESTRA (GMT)       : 06:57:55.00
EXACTITUD DEL TIEMPO (s)               : 0.01
DURACION DEL REGISTRO (s), C1-C6       : /161.6/161.6/161.6
DURACION DEL REGISTRO (s), C7-C12      : 
NUM. TOTAL DE MUESTRAS, C1-C6          : /16160/16160/16160
NUM. TOTAL DE MUESTRAS, C7-C12         : 
ACEL. MAX. (Gal), C1-C6                : /3.41659/1.1486/3.9866
ACEL. MAX., C1-C6, EN LA MUESTRA       : /6213/4826/5037
ACEL. MAX. (Gal), C7-C12               : 
ACEL. MAX., C7-C12, EN LA MUESTRA      : 
UNIDADES DE LOS DATOS                  : Gal (cm/s/s)
FACTOR DE DECIMACION                   : 1
FORMATO DATOS (FORTRAN,10 campos/dato) : 3F10.5


================================================================================
CALIDAD DEL ACELEROGRAMA:
REGISTRO DIGITAL COMPLETO CON TIEMPO ABSOLUTO CORRECTO.


================================================================================
COMENTARIOS:
El dato de la linea 68, referente a la hora corresponde al reloj interno
por lo que dicha hora puede ser suceptible a una deriva de tiempo












================================================================================
DATOS DE ACELERACION:
---------+---------+---------+---------+---------+---------+---------+---------+
   CANAL-1   CANAL-2   CANAL-3   CANAL-4   CANAL-5   CANAL-6   CANAL-7   CANAL-8
      N00E        +V      N90W
---------+---------+---------+---------+---------+---------+---------+---------+
[...]
   1.30670  -0.49741   1.72956
   1.21691  -0.45252   1.95401
   1.29173  -0.55727   2.05876
   1.20195  -0.51238   2.14854
   1.21691  -0.40763   2.32811
   1.17202  -0.40763   2.46278
   1.20195  -0.22806   2.67227
   1.05231  -0.21310   2.67227
   1.15706  -0.09339   2.79198
   1.00742   0.16099   2.77702
   1.09720   0.29567   2.91169
   1.05231   0.46027   2.86680
   0.87275   0.60991   2.88177
   0.78297   0.71465   2.85184
   0.79793   0.71465   2.89673
   0.73807   0.95407   2.89673
   0.58844   0.78947   2.77702
   0.45376   0.71465   2.76206
   0.27420   0.66976   2.65731
   0.07967   0.55005   2.67227
   0.00485   0.56502   2.56753
  -0.11486   0.56502   2.50767
  -0.17471   0.50516   2.35803
  -0.33932   0.32560   2.38796
  -0.51888   0.26574   2.19343
  -0.60866   0.16099   2.07372
  -0.59370   0.10114   1.96898
  -0.63859  -0.04850   1.75948
  -0.54881  -0.01857   1.62481
  -0.56377   0.08617   1.50510
  -0.45903  -0.10835   1.32553
  -0.41414   0.01136   1.16093
  -0.42910  -0.06346   0.90655
  -0.33932  -0.03354   0.81677
  -0.27946   0.02632   0.63720
  -0.32435  -0.03354   0.45764
  -0.18968  -0.00361   0.44267
  -0.18968   0.08617   0.32296
  -0.23457   0.05625   0.08354
  -0.17471   0.11610   0.05361
  -0.17471   0.08617  -0.12595
  -0.23457   0.19092  -0.30552
  -0.18968   0.14603  -0.32048
  -0.20464   0.13107  -0.60479
  -0.12982   0.13107  -0.58983
  -0.02508   0.17596  -0.78436
  -0.05500   0.02632  -0.85917
   0.03478  -0.00361  -0.91903
   0.04974   0.01136  -1.11356
   0.04974  -0.04850  -1.27816
   0.15449   0.04128  -1.27816
   0.18442  -0.06346  -1.27816
   0.34902  -0.06346  -1.35298
   0.31909   0.14603  -1.41283
   0.39391  -0.00361  -1.51758
   0.49865   0.04128  -1.56247
   0.55851  -0.00361  -1.78693
   0.58844  -0.01857  -1.98146
   0.58844  -0.04850  -2.10117
   0.55851  -0.01857  -2.19095
   0.60340  -0.03354  -2.37051
   0.58844   0.02632  -2.50519
   0.66326   0.01136  -2.59497
   0.69318   0.02632  -2.74461
   0.69318  -0.04850  -2.66979
   0.70815   0.10114  -2.80446
   0.85778   0.05625  -2.74461
   0.78297   0.22085  -2.68475
   0.76800   0.01136  -2.62490
   0.84282   0.08617  -2.59497
   0.82786   0.02632  -2.47526
   0.85778  -0.03354  -2.40044
   0.84282  -0.00361  -2.20591
   0.82786  -0.03354  -2.16102
   0.93260  -0.06346  -1.98146
   1.00742  -0.06346  -1.87671
   1.02239   0.14603  -1.78693
   1.09720   0.08617  -1.63729
   1.08224   0.25078  -1.57743
   1.15706   0.10114  -1.35298
   1.24684   0.22085  -1.20334
   1.11217   0.22085  -1.23327
   1.24684   0.26574  -0.96392
   1.24684   0.19092  -0.90407
   1.03735   0.31063  -0.87414
   0.94757   0.13107  -0.78436
   0.82786  -0.06346  -0.58983
   0.57347  -0.22806  -0.54494
   0.61836  -0.15325  -0.33544
   0.40887  -0.31785  -0.30552
   0.28916  -0.52734  -0.24566
   0.06471  -0.37770  -0.23070
  -0.14479  -0.55727  -0.27559
  -0.15975  -0.58719  -0.06610
  -0.29442  -0.42259  -0.02120
  -0.59370  -0.33281   0.11347
  -0.69845  -0.43756   0.17332
  -0.74334  -0.22806   0.26311
  -0.98276  -0.25799   0.41275
  -0.92290  -0.04850   0.39778
  -1.11743   0.02632   0.50253
  -1.11743   0.20589   0.69706
  -1.10247   0.10114   0.74195
  -1.10247   0.19092   0.84669
  -1.10247   0.19092   0.90655
  -1.11743   0.17596   1.01130
  -1.11743   0.20589   1.01130
  -1.04261   0.26574   1.07115
  -1.07254   0.31063   1.10108
  -1.01269   0.25078   1.08611
  -1.07254   0.29567   1.13101
  -1.07254   0.31063   1.26568
  -1.10247   0.78947   1.34050
  -1.25211   0.46027   1.28064
  -1.29700   0.23581   1.37043
  -1.31196   0.23581   1.46021
  -1.37182   0.07121   1.54999
  -1.05758  -0.00361   1.52006
  -1.46160  -0.03354   1.50510
  -1.65613  -0.13828   1.53503
  -1.71598  -0.27296   1.65474
  -1.71598  -0.28792   1.49014
  -1.74591  -0.34777   1.38539
  -1.70102  -0.31785   1.16093
  -1.77584  -0.22806   1.04122
  -1.91051  -0.24303   0.90655
  -1.86562  -0.07843   0.86166
  -1.85066   0.11610   0.66713
  -1.67109   0.14603   0.44267
  -1.68605   0.26574   0.39778
  -1.68605   0.35552   0.26311
  -1.76087   0.80444   0.12843
  -1.61124   1.08875   0.06858
  -1.59627   1.14860  -0.06610
  -1.34189   0.98400  -0.03617
  -1.31196   0.65480  -0.12595
  -1.13240   0.56502  -0.08106
  -0.95283   0.49020  -0.05113
  -0.80319   0.49020   0.03865
  -0.60866   0.41538  -0.08106
  -0.50392   0.57998  -0.14091
  -0.33932   0.20589  -0.15588
  -0.23457   0.11610  -0.00624
   0.01981   0.17596  -0.05113
   0.09463   0.02632  -0.12595
   0.22931   0.02632  -0.03617
   0.25923  -0.00361  -0.21573
   0.34902  -0.04850  -0.12595
   0.39391  -0.09339  -0.27559
   0.51362  -0.13828  -0.33544
   0.55851  -0.15325  -0.30552
   0.58844  -0.25799  -0.50004
   0.55851  -0.22806  -0.48508
   0.55851  -0.25799  -0.58983
   0.73807  -0.12332  -0.57486
   0.72311  -0.19814  -0.64968
   0.84282  -0.13828  -0.63472
   0.93260  -0.10835  -0.61975
   0.90268  -0.21310  -0.54494
   1.03735  -0.10835  -0.57486
   1.02239  -0.07843  -0.50004
   1.17202  -0.04850  -0.35041
   1.33662  -0.07843  -0.21573
   1.36655  -0.12332  -0.09602
   1.42641  -0.09339   0.00872
   1.65086  -0.09339   0.12843
   1.66583  -0.07843   0.12843
   1.89028   0.01136   0.26311
   1.95014  -0.06346   0.15836
   2.06985  -0.03354   0.20325
   2.12970   0.01136   0.21822
   2.26438   0.04128   0.27807
   2.18956  -0.00361   0.24814
   2.20452   0.02632   0.24814
   2.11474  -0.12332   0.23318
   2.36912   0.04128   0.32296
   2.18956   0.02632   0.20325
   2.26438  -0.04850   0.20325
   2.17460   0.04128   0.15836
   2.03992   0.07121   0.21822
   2.02496  -0.00361   0.15836
   1.95014   0.04128   0.11347
   1.89028  -0.01857   0.14340
   1.98007  -0.00361   0.09851
   1.95014   0.13107   0.08354
   1.92021   0.11610   0.18829
   1.83043  -0.04850   0.17332
   1.86036  -0.00361   0.14340
   1.80050  -0.06346   0.20325
   1.81547  -0.01857   0.24814
   1.75561   0.04128   0.24814
   1.74065  -0.15325   0.27807
   1.71072  -0.16821   0.36785
   1.66583  -0.22806   0.36785
   1.54612  -0.13828   0.36785
   1.51619  -0.21310   0.35289
   1.32166  -0.31785   0.30800
   1.30670  -0.33281   0.41275
   1.21691  -0.33281   0.35289
   1.09720  -0.48245   0.36785
   0.82786  -0.46748   0.21822
   0.79793  -0.39267   0.18829
   0.57347  -0.36274   0.18829
   0.51362  -0.25799   0.12843
   0.19938  -0.43756   0.12843
   0.03478  -0.43756   0.06858
  -0.14479  -0.27296   0.06858
  -0.27946  -0.22806   0.03865
  -0.50392  -0.25799   0.00872
  -0.53385  -0.28792  -0.02120
  -0.66852  -0.39267  -0.02120
  -0.77327  -0.46748  -0.08106
  -0.75830  -0.37770  -0.12595
  -0.89298  -0.43756  -0.17084
  -1.02765  -0.54230  -0.27559
  -1.07254  -0.40763  -0.32048
  -1.13240  -0.43756  -0.41026
  -1.14736  -0.28792  -0.42523
  -1.28203  -0.21310  -0.45515
  -1.32692  -0.33281  -0.57486
  -1.47656  -0.10835  -0.58983
  -1.56634  -0.06346  -0.76939
  -1.70102  -0.15325  -0.75443
  -1.83569  -0.13828  -0.91903
  -1.82073  -0.04850  -1.03874
  -2.01526  -0.15325  -1.06867
  -2.06015  -0.00361  -1.08363
  -2.19482   0.08617  -1.24823
  -2.31453   0.02632  -1.35298
  -2.32950   0.10114  -1.39787
  -2.22475   0.13107  -1.36794
  -2.23971   0.20589  -1.50262
  -2.31453   0.25078  -1.47269
  -2.29957   0.38545  -1.54751
  -2.20979   0.37049  -1.53254
  -2.28461   0.32560  -1.47269
  -2.28461   0.35552  -1.56247
  -2.17986   0.32560  -1.48765
  -2.32950   0.31063  -1.60736
  -2.19482   0.20589  -1.59240
  -2.19482   0.16099  -1.57743
  -2.32950   0.22085  -1.66722
  -2.35942   0.11610  -1.71211
  -2.32950   0.07121  -1.63729
  -2.35942   0.02632  -1.63729
  -2.41928   0.01136  -1.62233
  -2.47913   0.05625  -1.50262
  -2.46417   0.01136  -1.53254
  -2.46417   0.11610  -1.53254
  -2.38935   0.23581  -1.24823
  -2.35942   0.16099  -1.12852
  -2.43424   0.20589  -1.17341
  -2.32950   0.20589  -1.03874
  -2.20979   0.29567  -0.84421
  -2.06015   0.38545  -0.69457
  -1.94044   0.32560  -0.55990
  -1.85066   0.23581  -0.48508
  -1.74591   0.32560  -0.32048
  -1.70102   0.25078  -0.12595
  -1.61124   0.23581  -0.18581
  -1.47656   0.22085   0.06858
  -1.41671   0.26574   0.21822
  -1.31196   0.19092   0.21822
  -1.20721   0.13107   0.44267
  -0.95283   0.20589   0.48756
  -0.93787   0.11610   0.44267
  -0.84808   0.02632   0.57735
  -0.57874   0.10114   0.83173
  -0.45903  -0.00361   0.89159
  -0.33932   0.29567   0.89159
  -0.11486   0.01136   0.99633
   0.09463   0.10114   1.16093
   0.27420   0.07121   1.40035
   0.40887   0.07121   1.44524
   0.60340   0.16099   1.52006
   0.79793   0.35552   1.77445
   0.84282   0.19092   1.89416
   1.02239   0.25078   2.08869
   1.03735   0.05625   2.25329
   1.17202   0.07121   2.40293
   1.23188  -0.00361   2.47774
   1.39648  -0.19814   2.59745
   1.45634  -0.24303   2.76206
   1.54612  -0.28792   2.85184
   1.60597  -0.21310   2.86680
   1.66583  -0.49741   3.04637
   1.68079  -0.48245   2.98651
   1.81547  -0.49741   3.22593
   1.83043  -0.49741   3.22593
   1.83043  -0.46748   3.10622
   1.75561  -0.48245   3.06133
   1.78554  -0.34777   3.15111
   1.83043  -0.36274   3.03140
   1.75561  -0.27296   3.13615
   1.71072  -0.18317   2.97155
   1.78554  -0.01857   3.06133
   1.77057   0.10114   2.95658
   1.80050   0.05625   2.97155
   1.81547   0.17596   2.89673
   2.02496   0.41538   2.83687
   1.95014   0.14603   2.73213
   2.05489   0.41538   2.55256
   2.20452   0.28070   2.53760
   2.35416   0.29567   2.49271
   2.32423   0.26574   2.29818
   2.42898   0.25078   2.16351
   2.42898   0.17596   1.98394
   2.63847   0.26574   1.83430
   2.65344   0.19092   1.65474
   2.63847   0.20589   1.47517
   2.65344   0.31063   1.25072
   2.71329   0.28070   0.98137
   2.57862   0.22085   0.75691
   2.53373   0.28070   0.65217
   2.51876   0.44531   0.29304
   2.32423   0.23581   0.12843
   2.26438   0.26574  -0.09602
   2.12970   0.20589  -0.32048
   1.95014   0.22085  -0.60479
   1.83043   0.14603  -0.60479
   1.62094   0.07121  -0.85917
   1.50123   0.07121  -1.05370
   1.21691  -0.03354  -1.32305
   0.96253  -0.01857  -1.45772
   0.84282  -0.07843  -1.57743
   0.58844  -0.27296  -1.77196
   0.48369  -0.13828  -1.93657
   0.27420  -0.15325  -2.14606
   0.10960  -0.18317  -2.35555
   0.04974  -0.16821  -2.52015
   0.07967  -0.07843  -2.69972
   0.06471   0.02632  -2.95410
   0.09463   0.10114  -3.04388
   0.06471   0.04128  -3.22345
   0.03478   0.13107  -3.37309
   0.09463   0.34056  -3.49280
   0.06471   0.35552  -3.50776
  -0.04004   0.46027  -3.67236
   0.03478   0.32560  -3.76214
  -0.12982   0.25078  -3.88185
  -0.12982   0.57998  -3.88185
  -0.18968   0.34056  -3.89682
  -0.42910   0.26574  -3.97164
  -0.57874   0.19092  -3.88185
  -0.72837   0.22085  -3.98660
  -0.86305   0.28070  -3.94171
  -0.93787   0.10114  -3.80704
  -1.02765   0.11610  -3.70229
  -1.17729  -0.07843  -3.64243
  -1.28203  -0.15325  -3.52272
  -1.31196  -0.09339  -3.43294
  -1.35685  -0.25799  -3.22345
  -1.46160   0.17596  -3.05885
  -1.58131  -0.27296  -2.96906
  -1.32692  -0.34777  -2.83439
  -1.64116  -0.36274  -2.46030
  -1.71598  -0.45252  -2.26577
  -1.77584  -0.40763  -2.37051
  -1.85066  -0.43756  -2.13109
  -1.89555  -0.45252  -2.02635
  -2.04518  -0.33281  -1.90664
  -2.13497  -0.28792  -1.78693
  -2.16489   0.07121  -1.74204
  -2.19482   0.10114  -1.51758
  -2.10504   0.43034  -1.36794
  -2.13497   0.19092  -1.26320
  -2.09008   0.29567  -1.08363
  -2.01526   0.17596  -0.90407
  -1.97037   0.60991  -0.72450
  -1.83569   0.04128  -0.48508
  -1.73095  -0.06346  -0.26062
  -1.53642  -0.09339  -0.23070
  -1.44663  -0.06346   0.09851
  -0.95283  -0.07843   0.29304
  -0.96779  -0.03354   0.50253
  -0.84808  -0.09339   0.68209
  -0.74334  -0.21310   0.84669
  -0.51888  -0.24303   1.14597
  -0.15975  -0.24303   1.29561
  -0.29442  -0.25799   1.49014
  -0.20464  -0.34777   1.63977
  -0.12982  -0.31785   1.93905
  -0.01011  -0.16821   2.04380
   0.06471  -0.24303   2.13358
  -0.01011  -0.31785   2.34307
  -0.01011  -0.09339   2.56753
  -0.04004  -0.27296   2.76206
  -0.01011  -0.16821   2.98651
  -0.15975  -0.10835   3.00148
   0.01981   0.01136   3.21097
   0.00485  -0.06346   3.27082
  -0.14479  -0.00361   3.30075
   0.09463   0.11610   3.61499
   0.09463   0.10114   3.65988
   0.09463   0.04128   3.64492
   0.09463   0.19092   3.76463
   0.10960   0.07121   3.86937
   0.04974   0.11610   3.79455
   0.10960   0.13107   3.80952
   0.07967   0.14603   3.79455
  -0.08493  -0.03354   3.83945
  -0.12982   0.01136   3.71974
  -0.17471  -0.09339   3.71974
  -0.41414  -0.21310   3.57010
  -0.36924  -0.27296   3.54017
  -0.56377  -0.22806   3.51024
  -0.63859  -0.37770   3.37557
  -0.60866  -0.30288   3.25586
  -0.45903  -0.31785   3.07629
  -0.72837  -0.42259   2.94162
  -0.66852  -0.37770   2.76206
  -0.63859  -0.45252   2.59745
  -0.54881  -0.39267   2.49271
  -0.50392  -0.39267   2.31314
  -0.51888  -0.40763   2.08869
  -0.47399  -0.37770   1.68466
  -0.45903  -0.34777   1.60985
  -0.50392  -0.42259   1.32553
  -0.53385  -0.43756   1.19086
  -0.63859  -0.37770   0.96640
  -0.63859  -0.34777   0.75691
  -0.69845  -0.42259   0.60727
  -0.80319  -0.24303   0.42771
  -0.95283  -0.25799   0.24814
  -1.02765  -0.27296   0.26311
  -1.16232  -0.24303  -0.06610
  -1.26707  -0.33281  -0.15588
  -1.23714  -0.21310  -0.32048
  -1.31196  -0.22806  -0.45515
  -1.28203  -0.27296  -0.52997
  -1.37182  -0.34777  -0.63472
  -1.26707  -0.36274  -0.67961
  -1.29700  -0.33281  -0.93399
  -1.17729  -0.34777  -1.11356
  -1.10247  -0.30288  -1.14349
  -1.07254  -0.40763  -1.23327
  -1.07254  -0.22806  -1.42780
  -0.95283  -0.19814  -1.44276
  -0.84808  -0.09339  -1.50262
  -0.68348  -0.10835  -1.60736
  -0.44406   0.01136  -1.72707
  -0.47399  -0.01857  -1.77196
  -0.18968   0.19092  -1.86175
  -0.09990   0.17596  -1.77196
   0.03478   0.25078  -1.75700
   0.31909   0.28070  -1.71211
   0.58844   0.44531  -1.69715
   0.60340   0.25078  -1.66722
   0.76800   0.28070  -1.56247
   1.02239   0.38545  -1.50262
   1.11217   0.69969  -1.59240
   1.27677   0.43034  -1.45772
   1.50123   0.50516  -1.42780
   1.50123   0.49020  -1.53254
   1.68079   0.60991  -1.29312
   1.83043   0.63983  -1.24823
   2.03992   0.59494  -1.27816
   2.06985   0.77451  -1.30809
   2.15963   0.65480  -1.33801
   2.17460   0.53509  -1.24823
   2.36912   0.46027  -1.12852
   2.51876   0.46027  -1.09859
   2.62351   0.46027  -1.02378
   2.75818   0.38545  -0.94896
   2.74322   0.20589  -0.99385
   2.74322   0.20589  -0.96392
   2.83300   0.08617  -0.84421
   3.05746   0.05625  -0.75443
   2.90782   0.02632  -0.73946
   2.86293  -0.00361  -0.61975
   2.72825  -0.04850  -0.51501
   2.99760  -0.00361  -0.30552
   2.51876  -0.03354  -0.21573
   2.47387  -0.00361  -0.05113
   2.41402  -0.01857   0.12843
   2.42898   0.04128  -0.00624
   2.30927  -0.04850   0.12843
   2.23445  -0.00361   0.20325
   2.24941   0.08617   0.29304
   2.15963   0.46027   0.23318
   2.09978   0.13107   0.32296
   1.96510   0.11610   0.26311
   1.83043   0.04128   0.27807
   1.89028   0.20589   0.14340
   1.62094   0.16099   0.14340
   1.51619   0.17596   0.15836
   1.56108   0.17596   0.06858
   1.27677   0.11610   0.06858
   1.20195   0.07121   0.08354
   1.15706   0.05625   0.08354
   0.99246   0.05625   0.02369
   0.94757  -0.07843   0.09851
