********************************************************************************
              CENTRO DE INSTRUMENTACION Y REGISTRO SISMICO  A.C.

    Anaxagoras 814, Col. Narvarte, Benito Juarez, C.P. 03020 Mexico, D.F.
           Tels. 5687 45 42/ 5687 45  82             Fax. 5669 25 12
********************************************************************************
ARCHIVO ESTANDAR DE ACELERACION:
VERSION DEL FORMATO                    : 2.0
NOMBRE DEL ARCHIVO                     : AO2419890502093016
FECHA Y HORA DE CREACION               : 04/MAY/18, 10:44
REF. CATALOGO ACELEROGRAMAS, SMIS 1996 : REGISTRO No.     /PAG.


================================================================================
DATOS DE LA ESTACION:
NOMBRE DE LA ESTACION                  : ALBERCA OLÍMPICA
CLAVE DE LA ESTACION                   : AO24
LOCALIZACION DE LA ESTACION            : Del. Benito Juárez, Col. General Pedro 
                                       : María Anaya, Río Churubusco            
                                       : y División del Norte.                  
                                       :                                        
                                       : 
COORDENADAS DE LA ESTACION             : 19.3580 LAT. N
                                       : 99.1539 LONG. W
ALTITUD (msnm)                         : 2235
TIPO DE SUELO                          : Transición                          
                                       :                           
                                       : 
INSTITUCION RESPONSABLE                : CIRES
                                       : 

================================================================================
DATOS DEL ACELEROGRAFO:
MODELO DEL ACELEROGRAFO                : DCA-333
NUMERO DE SERIE DEL ACELEROGRAFO       : 215
NUMERO DE CANALES                      : 3
ORIENTACION C1-C6 (rumbo;orientacion)  : /N00E/+V/N90W
ORIENTACION C7-C12 (rumbo;orientacion) : 
VEL. DE MUESTREO, C1-C6 (muestras/s)   : /100/100/100
VEL. DE MUESTREO, C7-C12 (muestras/s)  : 
ESC. COMPLETA DE SENSORES, C1-C6, (g)  : /0.5/0.5/0.5
ESC. COMPLETA DE SENSORES, C7-C12, (g) : 
FREC. NAT. DE SENSORES, C1-C6, (Hz)    : /30/30/30
FREC. NAT. DE SENSORES, C7-C12, (Hz)   : 
AMORTIGUAMIENTO DE SENSORES, C1-C6     : /0.700/0.700/0.700
AMORTIGUAMIENTO DE SENSORES, C7-C12    : 
INTERVALO DE MUESTREO, C1-C6, (s)      : /0.01/0.01/0.01
INTERVALO DE MUESTREO, C7-C12, (s)     : 
UMBRAL DE DISPARO, C1-C6, (Gal)        : /2.2/2.93/2.2
UMBRAL DE DISPARO, C7-C12, (Gal)       : 
MEMORIA DE PREEVENTO (s)               : 4.0
TIEMPO DE POSEVENTO (s)                : 0.0


================================================================================
DATOS DEL SISMO:
FECHA DEL SISMO (GMT)                  : 02/MAY/89
HORA EPICENTRO (GMT)                   : 09:30:16.0
MAGNITUD(ES)                           : /Mc=5.1
COORDENADAS DEL EPICENTRO              : 16.63 LAT. N
                                       : 99.51 LONG. W
PROFUNDIDAD FOCAL (km)                 : 13
FUENTE DE LOS DATOS EPICENTRALES       : SSN
                                       : INSTITUTO DE GEOFISICA, UNAM

================================================================================
DATOS DE ESTE REGISTRO:
HORA DE LA PRIMERA MUESTRA (GMT)       : 09:31:46.05
EXACTITUD DEL TIEMPO (s)               : 0.01
DURACION DEL REGISTRO (s), C1-C6       : /61.01/61.01/61.01
DURACION DEL REGISTRO (s), C7-C12      : 
NUM. TOTAL DE MUESTRAS, C1-C6          : /6101/6101/6101
NUM. TOTAL DE MUESTRAS, C7-C12         : 
ACEL. MAX. (Gal), C1-C6                : /2.79675/1.21653/3.15618
ACEL. MAX., C1-C6, EN LA MUESTRA       : /1250/711/1464
ACEL. MAX. (Gal), C7-C12               : 
ACEL. MAX., C7-C12, EN LA MUESTRA      : 
UNIDADES DE LOS DATOS                  : Gal (cm/s/s)
FACTOR DE DECIMACION                   : 1
FORMATO DATOS (FORTRAN,10 campos/dato) : 3F10.5


================================================================================
CALIDAD DEL ACELEROGRAMA:
REGISTRO DIGITAL COMPLETO CON TIEMPO ABSOLUTO CORRECTO.


================================================================================
COMENTARIOS:














================================================================================
DATOS DE ACELERACION:
---------+---------+---------+---------+---------+---------+---------+---------+
   CANAL-1   CANAL-2   CANAL-3   CANAL-4   CANAL-5   CANAL-6   CANAL-7   CANAL-8
      N00E        +V      N90W
---------+---------+---------+---------+---------+---------+---------+---------+
[...]
  -0.88139   0.25885  -0.76198
  -0.88139   0.49827  -0.76198
  -1.12081   0.25885  -0.76198
  -1.12081   0.25885  -0.76198
  -1.12081   0.25885  -0.76198
  -1.36023   0.49827  -0.76198
  -1.36023   0.25885  -0.76198
  -1.59965   0.25885  -0.76198
  -1.59965   0.25885  -0.76198
  -1.83907   0.25885  -0.76198
  -1.83907   0.25885  -0.76198
  -1.83907   0.25885  -0.76198
  -2.07849   0.25885  -0.52256
  -2.07849   0.25885  -0.52256
  -2.07849   0.25885  -0.52256
  -1.83907   0.25885  -0.52256
  -2.07849   0.25885  -0.28314
  -1.83907   0.25885  -0.28314
  -1.83907   0.25885  -0.28314
  -1.59965   0.25885  -0.04372
  -1.59965   0.25885  -0.04372
  -1.59965   0.25885  -0.04372
  -1.36023   0.49827  -0.04372
  -1.36023   0.49827   0.19570
  -1.12081   0.49827   0.19570
  -1.12081   0.25885   0.19570
  -1.12081   0.49827   0.43512
  -0.88139   0.49827   0.43512
  -0.88139   0.25885   0.43512
  -0.64197   0.25885   0.43512
  -0.64197   0.25885   0.67454
  -0.64197   0.01943   0.67454
  -0.64197   0.01943   0.67454
  -0.64197   0.01943   0.91396
  -0.64197  -0.21999   0.91396
  -0.64197  -0.21999   1.15338
  -0.64197  -0.45942   1.15338
  -0.64197  -0.45942   1.15338
  -0.64197  -0.45942   1.15338
  -0.64197  -0.45942   1.39280
  -0.64197  -0.45942   1.39280
  -0.64197  -0.69884   1.39280
  -0.64197  -0.45942   1.39280
  -0.64197  -0.69884   1.39280
  -0.64197  -0.69884   1.63222
  -0.64197  -0.69884   1.39280
  -0.40255  -0.69884   1.39280
  -0.40255  -0.45942   1.39280
  -0.40255  -0.45942   1.39280
  -0.16313  -0.45942   1.15338
  -0.16313  -0.45942   1.15338
   0.31571  -0.45942   0.91396
   0.31571  -0.21999   0.91396
   0.55513  -0.21999   0.67454
   0.79455   0.01943   0.91396
   0.79455   0.01943   0.91396
   1.03397  -0.21999   0.67454
   1.27339   0.01943   0.67454
   1.51281   0.01943   0.43512
   1.75223   0.25885   0.67454
   1.75223   0.25885   0.67454
   1.99165   0.25885   0.67454
   1.99165   0.25885   0.67454
   2.23107   0.49827   0.67454
   2.23107   0.49827   0.91396
   2.23107   0.49827   0.91396
   2.23107   0.49827   0.67454
   2.47049   0.49827   0.91396
   2.23107   0.49827   0.67454
   2.47049   0.49827   0.91396
   2.47049   0.49827   0.67454
   2.23107   0.25885   0.67454
   2.23107   0.25885   0.67454
   2.23107   0.25885   0.67454
   2.23107   0.25885  -0.04372
   2.23107   0.25885   0.43512
   2.23107   0.01943   0.19570
   1.99165   0.01943   0.19570
   2.23107   0.01943   0.19570
   1.99165   0.01943  -0.04372
   1.99165   0.01943  -0.04372
   1.99165   0.01943  -0.28314
   1.99165   0.01943  -0.28314
   1.99165   0.01943  -0.28314
   1.99165   0.25885  -0.28314
   1.99165   0.25885  -0.28314
   1.99165   0.25885  -0.28314
   2.23107   0.49827  -0.52256
   2.23107   0.01943  -0.28314
   2.23107   0.25885  -0.52256
   2.23107   0.25885  -0.52256
   2.23107   0.25885  -0.52256
   2.23107   0.25885  -0.52256
   2.23107   0.25885  -0.52256
   2.23107   0.49827  -0.76198
   1.99165   0.49827  -0.76198
   1.75223   0.25885  -1.00140
   1.51281   0.49827  -1.00140
   1.27339   0.25885  -1.00140
   1.03397   0.25885  -1.00140
   0.79455   0.25885  -1.00140
   0.79455   0.01943  -1.24082
   0.55513  -0.21999  -1.24082
   0.07629  -0.21999  -1.24082
   0.07629  -0.21999  -1.24082
  -0.40255  -0.21999  -1.00140
  -0.40255  -0.45942  -1.00140
  -0.40255  -0.45942  -1.00140
  -0.64197  -0.45942  -1.00140
  -0.88139  -0.45942  -1.00140
  -0.88139  -0.45942  -1.00140
  -1.12081  -0.45942  -1.00140
  -1.12081  -0.45942  -0.76198
  -1.12081  -0.45942  -1.00140
  -1.12081  -0.21999  -0.76198
  -1.12081   0.01943  -1.00140
  -1.36023  -0.21999  -0.76198
  -1.36023   0.25885  -1.00140
  -1.36023   0.25885  -1.00140
  -1.59965   0.25885  -0.76198
  -1.59965   0.25885  -0.76198
  -1.59965   0.25885  -0.76198
  -1.59965   0.25885  -0.76198
  -1.59965   0.49827  -0.76198
  -1.83907   0.49827  -0.76198
  -1.83907   0.49827  -0.52256
  -2.31791   0.49827  -0.52256
  -2.07849   0.49827  -0.52256
  -2.31791   0.49827  -0.28314
  -2.31791   0.25885  -0.28314
  -2.31791   0.25885  -0.28314
  -2.55733   0.25885  -0.04372
  -2.55733   0.25885  -0.28314
  -2.79675   0.25885  -0.04372
  -2.55733   0.25885  -0.04372
  -2.79675   0.25885  -0.04372
  -2.55733   0.01943  -0.04372
  -2.31791   0.01943  -0.04372
  -2.31791   0.25885  -0.04372
  -2.31791   0.01943  -0.28314
  -2.31791   0.01943  -0.04372
  -2.07849   0.01943  -0.52256
  -2.07849  -0.21999  -0.28314
  -1.83907  -0.21999  -0.04372
  -1.83907   0.01943  -0.28314
  -1.83907  -0.21999  -0.04372
  -1.59965   0.01943  -0.04372
  -1.59965  -0.21999  -0.04372
  -1.36023  -0.21999   0.19570
  -1.36023  -0.21999  -0.04372
  -1.12081  -0.45942   0.19570
  -1.12081  -0.21999   0.19570
  -1.12081  -0.21999   0.19570
  -0.88139  -0.21999   0.19570
  -0.88139  -0.21999   0.19570
  -0.64197  -0.21999   0.43512
  -0.64197  -0.21999   0.43512
  -0.40255  -0.45942   0.43512
  -0.64197  -0.45942   0.43512
  -0.40255  -0.45942   0.19570
  -0.16313  -0.45942   0.43512
  -0.16313  -0.45942   0.19570
   0.07629  -0.45942   0.43512
   0.07629  -0.21999   0.43512
   0.07629  -0.21999   0.19570
   0.07629  -0.21999   0.43512
   0.31571  -0.21999   0.43512
   0.31571  -0.21999   0.43512
   0.31571  -0.21999   0.43512
   0.55513   0.01943   0.67454
   0.55513   0.01943   0.67454
   0.55513   0.01943   0.91396
   0.55513   0.01943   0.91396
   0.55513   0.01943   0.91396
   0.79455   0.01943   0.91396
   0.79455   0.01943   1.15338
   0.79455   0.25885   1.15338
   0.79455   0.01943   1.15338
   0.79455   0.01943   1.15338
   1.03397   0.01943   1.15338
   1.03397   0.01943   1.15338
   1.03397   0.25885   1.15338
   1.27339   0.25885   1.15338
   1.51281   0.25885   1.15338
   1.51281   0.25885   1.15338
   1.51281   0.25885   1.15338
   1.75223   0.25885   1.15338
   1.99165   0.01943   1.15338
   1.99165   0.01943   1.15338
   2.23107   0.01943   1.15338
   2.23107   0.01943   1.39280
   2.23107   0.25885   0.91396
   2.47049   0.01943   1.15338
   2.23107   0.01943   0.91396
   2.23107   0.01943   1.15338
   1.99165  -0.21999   1.15338
   1.99165  -0.21999   1.15338
   1.99165  -0.21999   0.91396
   1.99165  -0.21999   0.91396
   1.75223  -0.21999   0.67454
   1.75223  -0.21999   0.43512
   1.51281  -0.45942   0.43512
   1.51281  -0.45942  -0.04372
   1.27339  -0.45942   0.19570
   1.27339  -0.21999  -0.04372
   1.27339  -0.45942  -0.28314
   1.03397  -0.45942  -0.28314
   1.03397  -0.45942  -0.52256
   0.79455  -0.45942  -0.76198
   0.79455  -0.21999  -0.76198
   0.55513  -0.21999  -1.00140
   0.55513  -0.21999  -1.00140
   0.55513  -0.21999  -1.00140
   0.31571  -0.45942  -1.00140
   0.31571  -0.21999  -1.00140
   0.31571  -0.21999  -1.00140
   0.07629  -0.21999  -1.00140
   0.07629  -0.21999  -1.00140
   0.07629  -0.21999  -1.00140
  -0.40255  -0.21999  -1.00140
  -0.16313  -0.21999  -1.00140
  -0.40255   0.01943  -1.00140
  -0.40255  -0.21999  -1.00140
  -0.64197  -0.21999  -1.24082
  -0.64197   0.01943  -1.00140
  -0.64197   0.01943  -1.00140
  -0.64197  -0.21999  -1.00140
  -0.64197  -0.21999  -1.00140
  -0.88139  -0.21999  -1.24082
  -0.64197  -0.21999  -1.48024
  -0.64197  -0.21999  -1.24082
  -0.64197  -0.21999  -1.24082
  -0.40255  -0.45942  -1.48024
  -0.40255  -0.45942  -1.48024
  -0.40255  -0.45942  -1.48024
  -0.16313  -0.93826  -1.48024
  -0.16313  -0.69884  -1.48024
   0.07629  -0.69884  -1.48024
  -0.16313  -0.69884  -1.48024
  -0.16313  -0.69884  -1.48024
  -0.16313  -0.69884  -1.48024
  -0.16313  -0.69884  -1.48024
  -0.16313  -0.69884  -1.48024
  -0.40255  -0.69884  -1.24082
  -0.40255  -0.45942  -1.24082
  -0.40255  -0.45942  -1.24082
  -0.40255  -0.21999  -1.24082
  -0.64197   0.01943  -1.24082
  -0.64197   0.01943  -1.00140
  -0.64197   0.25885  -1.24082
  -0.64197   0.25885  -1.24082
  -0.64197   0.49827  -1.24082
  -0.64197   0.49827  -1.24082
  -0.64197   0.49827  -1.24082
  -0.64197   0.49827  -1.24082
  -0.64197   0.73769  -1.24082
  -0.64197   0.49827  -1.24082
  -0.64197   0.49827  -1.00140
  -0.64197   0.49827  -1.00140
  -0.40255   0.25885  -1.00140
  -0.40255   0.49827  -1.00140
  -0.40255   0.25885  -0.76198
  -0.40255   0.25885  -0.76198
  -0.40255   0.25885  -1.00140
  -0.16313   0.25885  -0.52256
  -0.16313   0.25885  -0.28314
  -0.16313   0.25885  -0.04372
  -0.16313   0.25885   0.19570
  -0.16313   0.25885   0.19570
  -0.16313   0.01943   0.43512
  -0.16313   0.49827   0.43512
  -0.16313   0.25885   0.91396
  -0.16313   0.49827   0.91396
  -0.16313   0.25885   0.91396
  -0.16313   0.25885   1.15338
   0.07629   0.25885   1.15338
  -0.16313   0.49827   1.39280
  -0.16313   0.25885   1.39280
  -0.16313   0.49827   1.39280
   0.07629   0.49827   1.39280
  -0.40255   0.49827   1.39280
   0.07629   0.49827   1.63222
   0.07629   0.49827   1.63222
   0.07629   0.49827   1.63222
   0.07629   0.49827   1.63222
   0.07629   0.49827   1.63222
  -0.40255   0.49827   1.87164
  -0.16313   0.73769   1.87164
  -0.16313   0.73769   1.87164
  -0.16313   0.73769   2.11107
   0.07629   0.73769   2.11107
   0.07629   0.73769   2.11107
   0.07629   0.73769   2.11107
   0.07629   0.73769   2.11107
   0.31571   0.49827   2.35049
   0.31571   0.49827   2.35049
   0.31571   0.49827   2.35049
   0.31571   0.49827   2.58991
   0.31571   0.25885   2.58991
   0.55513   0.25885   2.58991
   0.55513   0.25885   2.58991
   0.31571   0.01943   2.58991
   0.55513   0.01943   2.58991
   0.31571   0.01943   2.58991
   0.31571  -0.21999   2.35049
   0.07629  -0.21999   2.58991
   0.07629  -0.21999   2.35049
   0.07629  -0.21999   2.35049
  -0.16313  -0.21999   2.35049
  -0.16313  -0.21999   2.35049
  -0.16313  -0.21999   2.11107
  -0.40255  -0.21999   2.11107
  -0.64197  -0.21999   2.11107
  -0.64197  -0.21999   1.87164
  -0.64197   0.01943   1.87164
  -0.88139   0.01943   1.63222
  -1.12081   0.01943   1.39280
  -1.12081   0.01943   1.39280
  -1.12081   0.01943   1.15338
  -1.12081   0.01943   0.91396
  -1.36023   0.25885   0.91396
  -1.36023   0.25885   0.67454
  -1.36023   0.25885   0.43512
  -1.59965   0.49827   0.19570
  -1.59965   0.49827   0.19570
  -1.59965   0.49827  -0.04372
  -1.59965   0.25885  -0.28314
  -1.59965   0.49827  -0.28314
  -1.59965   0.25885  -0.52256
  -1.59965   0.73769  -0.76198
  -1.59965   0.25885  -0.76198
  -1.36023   0.25885  -0.76198
  -1.36023   0.25885  -1.00140
  -1.12081   0.25885  -1.00140
  -1.12081   0.25885  -1.00140
  -1.12081   0.01943  -1.24082
  -1.12081   0.01943  -1.48024
  -1.12081  -0.21999  -1.48024
  -0.88139  -0.21999  -1.71966
  -0.88139  -0.21999  -1.71966
  -0.88139  -0.21999  -1.95908
  -0.64197  -0.21999  -1.95908
  -0.64197  -0.45942  -2.19850
  -0.40255  -0.45942  -2.43792
  -0.40255  -0.45942  -2.43792
  -0.40255  -0.45942  -2.67734
  -0.16313  -0.45942  -2.67734
  -0.16313  -0.21999  -3.15618
  -0.16313  -0.21999  -2.91676
   0.07629  -0.21999  -2.91676
  -0.16313  -0.21999  -3.15618
   0.07629  -0.21999  -3.15618
   0.07629   0.01943  -3.15618
   0.07629   0.01943  -3.15618
   0.31571   0.01943  -3.15618
   0.31571   0.01943  -3.15618
   0.31571   0.01943  -3.15618
   0.31571   0.01943  -3.15618
   0.31571   0.01943  -3.15618
   0.55513   0.01943  -2.91676
   0.55513   0.01943  -2.91676
   0.55513   0.01943  -2.91676
   0.55513   0.01943  -2.67734
   0.79455  -0.21999  -2.43792
   0.79455  -0.21999  -2.19850
   0.79455  -0.45942  -2.19850
   0.79455  -0.45942  -1.95908
   0.79455  -0.45942  -1.71966
   0.79455  -0.45942  -1.48024
   1.03397  -0.45942  -1.48024
   0.79455  -0.45942  -1.24082
   0.79455  -0.45942  -1.00140
   0.79455  -0.45942  -1.00140
   0.79455  -0.45942  -0.76198
   1.03397  -0.45942  -0.52256
   0.79455  -0.45942  -0.28314
   0.79455  -0.45942  -0.28314
   1.03397  -0.45942  -0.04372
   1.03397  -0.45942   0.19570
   1.03397  -0.45942   0.19570
   1.03397  -0.69884   0.43512
   1.03397  -0.45942   0.19570
   1.03397  -0.45942   0.67454
   1.03397  -0.45942   0.91396
   1.03397  -0.45942   0.91396
   1.03397  -0.45942   0.91396
   1.03397  -0.45942   1.15338
   1.03397  -0.45942   1.39280
   1.03397  -0.45942   1.39280
   1.03397  -0.45942   1.39280
   1.03397  -0.45942   1.63222
   1.03397  -0.45942   1.63222
   1.03397  -0.45942   1.63222
   1.03397  -0.21999   1.63222
   1.03397  -0.21999   1.87164
   0.79455  -0.21999   1.87164
   0.79455  -0.21999   1.63222
   0.79455   0.01943   1.63222
   0.79455   0.01943   1.87164
   0.55513   0.25885   1.63222
   0.55513   0.25885   1.87164
   0.55513   0.25885   1.63222
   0.31571   0.49827   1.87164
   0.31571   0.49827   1.87164
   0.31571   0.49827   1.39280
   0.07629   0.49827   1.63222
  -0.16313   0.49827   1.63222
  -0.16313   0.25885   1.63222
  -0.40255   0.49827   1.63222
  -0.40255   0.49827   1.63222
  -0.64197   0.49827   1.63222
  -0.64197   0.25885   1.63222
  -0.64197   0.25885   1.39280
  -0.64197   0.25885   1.39280
  -0.64197   0.01943   1.39280
  -0.64197   0.01943   1.15338
  -0.64197  -0.45942   1.15338
  -0.64197  -0.21999   1.15338
  -0.88139  -0.45942   1.15338
  -0.64197  -0.45942   0.91396
  -0.88139  -0.45942   0.91396
  -0.64197  -0.45942   0.91396
  -0.64197  -0.45942   0.67454
  -0.40255  -0.69884   0.67454
  -0.40255  -0.69884   0.43512
  -0.40255  -0.69884   0.43512
  -0.40255  -0.69884   0.19570
  -0.40255  -0.45942   0.19570
  -0.40255  -0.45942   0.19570
  -0.40255  -0.45942  -0.04372
  -0.16313  -0.21999  -0.28314
  -0.16313  -0.45942  -0.28314
  -0.16313   0.01943  -0.52256
  -0.16313  -0.21999  -0.76198
   0.07629  -0.21999  -1.00140
  -0.16313   0.01943  -0.76198
   0.07629   0.25885  -1.00140
   0.07629   0.01943  -1.00140
   0.07629   0.25885  -1.00140
   0.07629   0.01943  -1.24082
   0.31571   0.01943  -1.24082
   0.07629   0.01943  -1.24082
   0.31571   0.25885  -1.48024
   0.55513   0.01943  -1.48024
   0.55513   0.01943  -1.48024
   0.79455   0.25885  -1.48024
   1.03397   0.25885  -1.48024
   1.03397   0.01943  -1.71966
   1.27339   0.01943  -1.95908
   1.03397   0.25885  -1.48024
   1.27339   0.01943  -1.71966
   1.27339   0.01943  -1.48024
   1.27339   0.01943  -1.48024
   1.51281   0.01943  -1.48024
   1.27339   0.01943  -1.48024
   1.27339   0.01943  -1.48024
   1.27339   0.01943  -1.48024
   1.27339   0.01943  -1.48024
   1.27339   0.01943  -1.24082
   1.03397   0.01943  -1.24082
   1.03397   0.01943  -1.24082
   1.03397   0.01943  -1.24082
   1.03397   0.01943  -1.00140
   0.79455   0.01943  -0.76198
   0.79455   0.25885  -0.76198
   0.79455   0.25885  -0.76198
   0.55513   0.25885  -0.76198
   0.55513   0.49827  -0.52256
   0.55513   0.49827  -0.52256
   0.31571   0.73769  -0.52256
   0.31571   0.73769  -0.28314
   0.31571   0.49827  -0.28314
   0.07629   0.73769  -0.28314
   0.07629   0.73769  -0.28314
   0.07629   0.97711  -0.04372
  -0.16313   0.97711  -0.04372
  -0.40255   0.97711  -0.04372
  -0.40255   0.97711  -0.04372
  -0.40255   0.97711  -0.04372
  -0.64197   0.73769  -0.28314
  -0.64197   0.97711  -0.04372
  -0.88139   0.97711   0.19570
  -0.88139   0.73769   0.19570
  -1.12081   0.73769   0.19570
  -1.12081   0.49827   0.19570
  -1.12081   0.73769   0.19570
  -1.12081   0.49827   0.43512
  -1.12081   0.25885   0.43512
  -1.12081   0.25885   0.43512
  -1.12081   0.25885   0.43512
  -1.12081   0.01943   0.67454
  -1.12081   0.01943   0.67454
  -1.12081  -0.21999   0.67454
  -1.12081  -0.21999   0.67454
  -1.12081  -0.45942   0.91396
  -1.36023  -0.21999   0.91396
  -1.36023  -0.21999   0.91396
