********************************************************************************
               CENTRO DE INSTRUMENTACION Y REGISTRO SISMICO  A.C.  
                       Coordinacion de Servicios Tecnicos
     Anaxagoras 814, Col. Narvarte, Benito Juarez, C.P. 03020 Mexico, D.F.
            Tels. 687 45 42/ 687 45  82             Fax. 669 25 12
********************************************************************************
ARCHIVO ESTANDAR DE ACELERACION:
VERSION DEL FORMATO                    : 2.0
NOMBRE DEL ARCHIVO                     : AO249607.151
FECHA Y HORA DE CREACION               : 27/MAR/98,12:06
REF. CATALOGO ACELEROGRAMAS, SMIS 1996 : REGISTRO No.     /PAG.


================================================================================
DATOS DE LA ESTACION:
NOMBRE DE LA ESTACION                  : ALBERCA OLIMPICA
CLAVE DE LA ESTACION                   : AO24
LOCALIZACION DE LA ESTACION            : Alberca Olimpica Rio Churubusco y
                                       : Division del Norte, Col Pedro Ma
                                       : Anaya, Benito Juarez
                                       :
                                       :
COORDENADAS DE LA ESTACION             : 19.358 LAT. N 
                                       : 99.154 LONG. W 
ALTITUD (msnm)                         : 2235
TIPO DE SUELO                          : TRANSICION
                                       : 
                                       : 
INSTITUCION RESPONSABLE                : CIRES
                                       :

================================================================================
DATOS DEL ACELEROGRAFO:
MODELO DEL ACELEROGRAFO                : DCA-333
NUMERO DE SERIE DEL ACELEROGRAFO       : 257
NUMERO DE CANALES                      : 3
ORIENTACION C1-C6 (rumbo;orientacion)  : /N00E/+V/N90W
ORIENTACION C7-C12 (rumbo;orientacion) :
VEL. DE MUESTREO, C1-C6 (muestras/s)   : /100/100/100
VEL. DE MUESTREO, C7-C12 (muestras/s)  :
ESC. COMPLETA DE SENSORES, C1-C6, (g)  : /0.5/0.5/0.5
ESC. COMPLETA DE SENSORES, C7-C12, (g) :
FREC. NAT. DE SENSORES, C1-C6, (Hz)    : /30/30/30
FREC. NAT. DE SENSORES, C7-C12, (Hz)   :
AMORTIGUAMIENTO DE SENSORES, C1-C6     : /0.700/0.700/0.700
AMORTIGUAMIENTO DE SENSORES, C7-C12    :
INTERVALO DE MUESTREO, C1-C6, (s)      : /0.01/0.01/0.01
INTERVALO DE MUESTREO, C7-C12, (s)     :
UMBRAL DE DISPARO, C1-C6, (Gal)        : /2/2/2
UMBRAL DE DISPARO, C7-C12, (Gal)       :
MEMORIA DE PREEVENTO (s)               : 4
TIEMPO DE POSEVENTO (s)                : 15


================================================================================
DATOS DEL SISMO:
FECHA DEL SISMO (GMT)                  : 15/JUL/96
HORA EPICENTRO (GMT)                   : 21:23:38:5
MAGNITUD(ES)                           : /Ms=6.5
COORDENADAS DEL EPICENTRO              : 17.4 LAT. N
                                       : 101.1 LONG. W
PROFUNDIDAD FOCAL (km)                 : 20.0
FUENTE DE LOS DATOS EPICENTRALES       : SSN
                                       : INSTITUTO DE GEOFISICA, UNAM

================================================================================
DATOS DE ESTE REGISTRO:
HORA DE LA PRIMERA MUESTRA (GMT)       : 21:25:00.03
EXACTITUD DEL TIEMPO (s)               : 0.01
DURACION DEL REGISTRO (s), C1-C6       : /69.01/69.01/69.01
DURACION DEL REGISTRO (s), C7-C12      :
NUM. TOTAL DE MUESTRAS, C1-C6          : /6901/6901/6901
NUM. TOTAL DE MUESTRAS, C7-C12         :
ACEL. MAX. (Gal), C1-C6                : /5.12622/2.69318/6.72739
ACEL. MAX., C1-C6, EN LA MUESTRA       :
ACEL. MAX. (Gal), C7-C12               :
ACEL. MAX., C7-C12, EN LA MUESTRA      :
UNIDADES DE LOS DATOS                  : Gal (cm/s/s)
FACTOR DE DECIMACION                   : 1
FORMATO DATOS (FORTRAN,10 campos/dato) : 3F10.5


================================================================================
CALIDAD DEL ACELEROGRAMA:
REGISTRO DIGITAL AL QUE FALTA UNA PARTE AL FINAL, TIEMPO ABSOLUTO
CORRECTO.

================================================================================
COMENTARIOS:














================================================================================
DATOS DE ACELERACION:
---------+---------+---------+---------+---------+---------+---------+---------+
   CANAL-1   CANAL-2   CANAL-3   CANAL-4   CANAL-5   CANAL-6   CANAL-7   CANAL-8
      N00E        +V      N90W
---------+---------+---------+---------+---------+---------+---------+---------+
[...]
  -1.09867  -0.29899  -1.93901
  -1.09867  -0.29899  -2.41785
  -1.57751  -0.29899  -1.93901
  -1.57751  -0.29899  -2.41785
  -2.05635  -0.29899  -2.41785
  -2.05635  -0.29899  -2.41785
  -2.05635  -0.29899  -2.89669
  -2.05635   0.17985  -2.89669
  -2.05635   0.17985  -2.89669
  -2.05635   0.17985  -2.89669
  -2.05635   0.17985  -2.89669
  -2.05635   0.17985  -3.37553
  -2.05635   0.17985  -3.37553
  -2.05635   0.17985  -3.37553
  -2.05635   0.17985  -3.37553
  -2.53518   0.17985  -3.37553
  -2.53518   0.17985  -3.37553
  -2.53518   0.17985  -3.37553
  -2.53518   0.17985  -3.37553
  -2.53518   0.17985  -3.37553
  -3.01402   0.17985  -2.89669
  -3.01402   0.17985  -2.89669
  -3.01402   0.65869  -2.89669
  -3.01402   0.65869  -2.89669
  -3.01402   0.65869  -2.41785
  -3.01402   0.65869  -2.41785
  -3.01402   1.13753  -2.41785
  -3.01402   1.13753  -2.41785
  -3.01402   1.13753  -2.41785
  -3.01402   1.13753  -2.41785
  -3.01402   1.13753  -2.41785
  -3.01402   1.13753  -2.41785
  -3.01402   1.61636  -2.41785
  -2.53518   1.61636  -2.41785
  -2.53518   1.13753  -1.93901
  -2.53518   1.13753  -1.93901
  -2.05635   1.13753  -1.93901
  -2.05635   1.13753  -1.93901
  -1.57751   0.65869  -1.46017
  -1.09867   0.65869  -0.98134
  -0.61983   0.65869  -0.50250
  -0.61983   0.17985  -0.50250
  -0.14099   0.17985  -0.02366
   0.33784  -0.77783  -0.02366
   0.81668  -0.29899  -0.02366
   1.29552  -0.77783  -0.02366
   1.77436  -0.77783  -0.02366
   1.77436  -0.77783  -0.02366
   2.25320  -0.77783  -0.50250
   2.25320  -0.77783  -0.50250
   2.73203  -0.77783  -0.50250
   2.73203  -0.77783  -0.98134
   2.25320  -0.77783  -1.46017
   2.73203  -0.29899  -1.46017
   2.25320  -0.29899  -1.46017
   2.25320  -0.29899  -1.46017
   2.25320  -0.29899  -1.46017
   2.25320  -0.29899  -1.46017
   2.73203  -0.29899  -0.98134
   2.73203  -0.29899  -0.50250
   2.73203  -0.29899  -0.02366
   3.21087  -0.29899  -0.02366
   3.68971  -0.29899   0.45518
   3.21087  -0.29899   0.93401
   4.16855  -0.29899   0.93401
   4.16855  -0.29899   0.93401
   4.64739  -0.29899   0.93401
   4.64739  -0.29899   0.93401
   4.64739  -0.29899   0.93401
   4.64739  -0.29899   0.93401
   5.12622  -0.29899   0.93401
   5.12622  -0.29899   0.45518
   5.12622  -0.29899   0.45518
   5.12622  -0.29899   0.45518
   5.12622  -0.29899   0.45518
   5.12622  -0.29899  -0.02366
   4.64739  -0.77783  -0.02366
   4.64739  -0.77783  -0.02366
   4.16855  -0.77783  -0.02366
   3.68971  -1.25666  -0.02366
   3.68971  -1.25666  -0.02366
   3.21087  -0.77783  -0.02366
   2.73203  -0.77783  -0.02366
   2.73203  -0.77783  -0.02366
   2.25320  -0.77783  -0.02366
   1.77436  -0.77783  -0.02366
   1.77436  -0.29899   0.45518
   1.29552  -0.29899   0.45518
   1.29552  -0.29899   0.45518
   1.29552  -0.29899   0.45518
   0.33784   0.17985   0.93401
   0.33784   0.17985   0.93401
  -0.14099   0.17985   0.93401
  -0.61983   0.17985   0.93401
  -1.09867   0.65869   0.45518
  -1.57751   0.65869   0.45518
  -1.57751   0.65869   0.45518
  -2.05635   0.65869  -0.02366
  -2.53518   0.65869  -0.02366
  -2.53518   1.13753  -0.02366
  -3.01402   1.13753   0.45518
  -3.01402   1.13753   0.45518
  -3.01402   0.65869   0.45518
  -3.01402   0.65869   0.93401
  -3.01402   0.65869   0.93401
  -3.01402   0.65869   1.41285
  -3.01402   0.17985   1.89169
  -3.01402   0.17985   1.89169
  -3.01402   0.17985   2.37053
  -3.01402   0.17985   2.37053
  -3.01402  -0.29899   2.37053
  -3.01402  -0.29899   2.37053
  -3.01402  -0.29899   2.37053
  -3.01402  -0.29899   2.37053
  -3.01402  -0.77783   1.89169
  -3.01402  -0.77783   1.89169
  -3.01402  -0.77783   1.41285
  -3.01402  -0.77783   1.41285
  -3.01402  -0.29899   1.41285
  -3.01402  -0.29899   0.93401
  -3.01402  -0.29899   0.93401
  -2.53518  -0.29899   0.45518
  -2.53518  -0.29899   0.45518
  -2.53518  -0.29899   0.45518
  -2.53518  -0.29899   0.45518
  -2.53518   0.17985  -0.02366
  -2.53518   0.17985  -0.02366
  -2.53518   0.17985  -0.50250
  -2.05635   0.17985  -0.50250
  -2.05635   0.17985  -0.98134
  -2.05635   0.65869  -0.98134
  -2.05635   0.65869  -1.46017
  -2.05635   0.65869  -1.46017
  -2.05635   0.65869  -1.46017
  -1.57751   0.65869  -1.46017
  -1.57751   1.13753  -1.46017
  -1.09867   1.13753  -1.46017
  -0.61983   0.65869  -1.46017
  -0.61983   0.65869  -1.46017
  -0.14099   0.65869  -0.98134
   0.33784   0.65869  -0.98134
   1.29552   0.65869  -0.98134
   1.29552   0.65869  -0.98134
   1.77436   0.65869  -1.46017
   2.25320   0.65869  -1.46017
   2.73203   0.65869  -1.46017
   3.68971   0.65869  -1.46017
   3.68971   0.65869  -1.46017
   4.16855   1.13753  -1.46017
   4.64739   1.13753  -1.46017
   5.12622   1.13753  -1.93901
   5.12622   1.13753  -1.46017
   5.12622   1.13753  -1.46017
   5.12622   0.65869  -1.46017
   5.12622   0.65869  -1.46017
   4.64739   0.17985  -1.46017
   4.64739   0.17985  -0.98134
   4.16855  -0.29899  -0.50250
   3.68971  -0.77783  -0.50250
   3.21087  -1.25666  -0.50250
   3.21087  -1.25666  -0.02366
   2.73203  -1.73550  -0.02366
   2.73203  -1.73550  -0.02366
   2.73203  -1.73550  -0.02366
   2.73203  -1.73550   0.45518
   2.73203  -1.73550   0.45518
   3.21087  -1.73550   0.93401
   3.21087  -1.25666   0.93401
   3.21087  -1.25666   1.41285
   3.21087  -1.25666   1.41285
   3.68971  -1.25666   1.89169
   3.21087  -1.25666   1.89169
   3.21087  -1.25666   1.89169
   3.21087  -1.25666   2.37053
   3.21087  -1.25666   2.37053
   3.21087  -1.25666   2.37053
   2.73203  -1.25666   2.37053
   2.73203  -0.77783   2.37053
   2.73203  -0.77783   2.37053
   2.25320  -0.29899   1.89169
   2.25320  -0.29899   1.89169
   2.25320  -0.29899   1.89169
   1.77436   0.17985   1.89169
   1.77436   0.17985   1.89169
   1.77436   0.65869   1.89169
   1.29552   0.65869   1.89169
   1.29552   0.65869   1.89169
   0.33784   1.13753   1.41285
  -0.14099   1.13753   1.41285
  -0.61983   1.13753   1.41285
  -0.61983   1.13753   1.41285
  -1.57751   1.13753   0.93401
  -1.57751   0.65869   0.45518
  -2.05635   0.65869   0.45518
  -2.53518   0.65869  -0.02366
  -3.01402   0.65869  -0.50250
  -3.01402   0.65869  -0.50250
  -3.49286   0.65869  -0.50250
  -3.49286   0.65869  -0.98134
  -3.49286   0.65869  -0.98134
  -3.97170   0.65869  -0.98134
  -3.97170   0.65869  -0.98134
  -3.97170   0.17985  -0.50250
  -3.97170   0.65869  -0.50250
  -4.45053   0.65869  -0.50250
  -4.45053   0.65869  -0.50250
  -4.45053   0.17985  -0.50250
  -4.45053  -0.29899  -0.50250
  -4.45053   0.17985  -0.50250
  -4.45053   0.17985  -0.50250
  -4.45053   0.17985  -0.50250
  -3.97170   0.17985  -0.50250
  -3.97170   0.17985  -0.50250
  -3.97170   0.17985  -0.50250
  -3.97170   0.65869  -0.50250
  -3.97170   0.65869  -0.50250
  -3.97170   0.65869  -0.02366
  -3.97170   0.65869  -0.02366
  -4.45053   1.13753  -0.02366
  -4.45053   0.65869   0.45518
  -4.92937   1.13753   0.45518
  -4.92937   0.65869   0.45518
  -4.92937   0.65869   0.45518
  -4.92937   0.65869   0.45518
  -4.92937   0.17985   0.45518
  -4.92937   0.65869   0.45518
  -4.92937   0.17985   0.45518
  -4.92937   0.17985   0.45518
  -4.92937   0.17985   0.45518
  -4.45053   0.17985   0.45518
  -4.45053  -0.29899   0.45518
  -4.45053   0.17985   0.93401
  -3.97170  -0.29899   0.93401
  -3.97170  -0.29899   1.41285
  -3.49286  -0.29899   1.41285
  -3.01402  -0.29899   1.89169
  -3.01402  -0.77783   1.89169
  -2.53518  -0.77783   2.37053
  -2.05635  -1.25666   2.37053
  -1.57751  -1.25666   2.84937
  -1.09867  -1.25666   2.84937
  -0.61983  -1.25666   2.84937
  -0.61983  -1.25666   2.84937
  -0.14099  -1.73550   2.37053
   0.33784  -1.73550   2.37053
   0.33784  -1.73550   1.89169
   0.81668  -1.25666   1.89169
   0.81668  -1.25666   1.41285
   1.29552  -1.25666   1.41285
   1.29552  -1.25666   1.41285
   1.29552  -1.25666   1.41285
   1.29552  -0.77783   0.93401
   1.77436  -0.77783   0.93401
   1.77436  -0.77783   0.93401
   1.77436  -0.77783   0.93401
   2.25320  -1.25666   0.45518
   2.73203  -0.77783   0.45518
   2.73203  -1.25666   0.45518
   3.21087  -0.77783   0.45518
   3.21087  -0.77783  -0.02366
   3.68971  -0.77783  -0.02366
   3.68971  -0.77783  -0.50250
   3.68971  -0.77783  -0.50250
   3.68971  -0.29899  -0.98134
   3.68971  -0.29899  -1.46017
   3.21087  -0.29899  -1.46017
   3.21087   0.17985  -1.93901
   3.21087   0.17985  -2.41785
   3.21087   0.65869  -2.41785
   3.21087   0.65869  -2.41785
   3.21087   1.13753  -2.41785
   3.21087   1.13753  -2.41785
   3.21087   1.13753  -2.41785
   3.21087   1.61636  -2.41785
   3.21087   1.61636  -2.41785
   3.21087   1.13753  -2.41785
   3.21087   1.13753  -2.41785
   2.73203   1.13753  -2.89669
   2.73203   1.13753  -2.89669
   2.73203   1.13753  -2.41785
   2.73203   1.13753  -2.41785
   2.25320   1.13753  -2.41785
   2.25320   1.13753  -2.41785
   1.77436   1.13753  -1.93901
   1.77436   1.13753  -1.93901
   1.77436   1.13753  -1.46017
   1.77436   1.13753  -0.98134
   1.29552   1.13753  -0.50250
   1.29552   1.13753  -0.50250
   1.29552   0.65869  -0.50250
   1.29552   0.65869  -0.02366
   1.29552   0.65869   0.45518
   0.81668   0.17985   0.45518
   0.81668   0.17985   0.93401
   0.33784  -0.29899   1.41285
   0.33784  -0.29899   1.41285
  -0.14099  -0.29899   1.89169
  -0.14099  -0.29899   1.89169
  -0.61983  -0.29899   2.37053
  -0.61983  -0.29899   2.37053
  -1.09867  -0.29899   2.37053
  -1.09867  -0.29899   2.84937
  -1.09867   0.17985   2.84937
  -1.09867   0.17985   2.84937
  -1.09867   0.17985   3.32820
  -1.57751   0.17985   3.32820
  -1.57751   0.17985   3.32820
  -1.57751   0.17985   3.32820
  -1.57751  -0.29899   2.84937
  -1.57751  -0.29899   2.84937
  -1.57751  -0.29899   2.84937
  -1.57751  -0.29899   2.37053
  -1.57751  -0.29899   2.37053
  -2.05635  -0.29899   1.89169
  -1.57751  -0.29899   1.89169
  -2.05635  -0.29899   1.89169
  -2.05635   0.17985   1.89169
  -2.05635   0.17985   1.89169
  -2.05635   0.17985   1.89169
  -2.05635   0.65869   1.89169
  -2.53518   0.65869   1.89169
  -2.05635   0.65869   1.89169
  -2.53518   0.65869   1.89169
  -2.53518   0.17985   1.89169
  -2.53518  -0.29899   1.89169
  -3.01402  -0.29899   1.89169
  -3.01402  -0.29899   1.89169
  -3.01402  -0.77783   1.41285
  -3.01402  -1.25666   1.41285
  -3.01402  -1.25666   0.93401
  -3.01402  -1.25666   0.93401
  -3.01402  -1.25666   0.45518
  -3.01402  -1.25666   0.45518
  -3.01402  -1.25666  -0.02366
  -3.01402  -1.25666  -0.02366
  -3.01402  -0.77783  -0.50250
  -2.53518  -0.29899  -0.50250
  -2.53518  -0.29899  -0.98134
  -2.53518  -0.29899  -1.46017
  -2.53518  -0.29899  -1.93901
  -2.53518   0.17985  -2.89669
  -2.53518   0.17985  -3.37553
  -2.53518   0.17985  -3.85436
  -2.05635   0.17985  -4.33320
  -2.05635   0.17985  -5.29088
  -1.57751   0.17985  -5.76972
  -1.57751   0.17985  -6.24855
  -1.09867   0.17985  -6.24855
  -1.09867   0.17985  -6.24855
  -0.61983   0.17985  -6.72739
  -0.61983   0.17985  -6.72739
  -0.14099   0.17985  -6.72739
  -0.14099   0.17985  -6.72739
  -0.14099   0.17985  -6.72739
  -0.14099   0.65869  -6.72739
  -0.14099   0.65869  -6.24855
   0.33784   0.65869  -6.24855
   0.33784   0.65869  -6.24855
   0.33784   0.65869  -5.76972
   0.33784   1.13753  -5.76972
   0.81668   0.65869  -5.29088
   0.81668   1.13753  -4.81204
   1.29552   1.13753  -4.33320
   1.29552   0.65869  -4.33320
   1.77436   0.65869  -3.85436
   1.77436   0.65869  -3.37553
   2.25320   0.17985  -2.41785
   2.25320  -0.29899  -1.93901
   2.73203  -0.77783  -1.93901
   2.73203  -0.77783  -1.46017
   3.21087  -1.25666  -0.98134
   3.21087  -1.73550  -0.50250
   3.21087  -1.73550  -0.50250
   3.68971  -1.73550  -0.50250
   3.68971  -2.21434  -0.50250
   4.16855  -2.21434  -0.02366
   4.16855  -1.73550  -0.02366
   4.64739  -1.25666  -0.02366
   4.64739  -1.25666  -0.02366
   4.64739  -0.77783  -0.02366
   4.64739  -0.29899  -0.02366
   4.64739   0.17985  -0.02366
   5.12622   0.65869  -0.02366
   5.12622   0.65869  -0.02366
   5.12622   1.13753  -0.02366
   4.64739   1.13753   0.45518
   4.64739   1.61636   0.45518
   4.64739   1.61636   0.45518
   4.16855   1.61636   0.45518
   3.68971   1.61636   0.93401
   3.68971   1.61636   0.93401
   3.21087   1.61636   0.93401
   2.73203   1.61636   0.93401
   2.25320   1.61636   1.41285
   2.25320   1.61636   1.89169
   1.77436   1.61636   1.89169
   1.29552   1.61636   2.37053
   1.29552   1.61636   2.37053
   1.29552   1.61636   2.37053
   0.81668   1.61636   2.37053
   0.81668   1.13753   2.37053
   0.33784   1.13753   2.37053
  -0.14099   0.65869   2.37053
  -0.14099   0.17985   2.37053
  -0.14099  -0.29899   2.37053
  -0.61983  -0.29899   1.89169
  -0.61983  -0.77783   1.89169
  -0.61983  -1.25666   1.89169
  -1.09867  -1.73550   1.89169
  -1.09867  -1.73550   1.89169
  -1.09867  -1.73550   1.89169
  -1.57751  -2.21434   1.89169
  -1.57751  -2.21434   1.41285
  -1.57751  -2.21434   1.89169
  -1.57751  -2.21434   1.89169
  -1.57751  -2.21434   1.89169
  -1.57751  -2.21434   1.89169
  -1.57751  -1.73550   1.89169
  -1.57751  -1.73550   1.89169
  -1.57751  -1.73550   1.89169
  -1.57751  -1.25666   1.41285
  -1.57751  -1.25666   1.41285
  -1.57751  -0.77783   0.93401
  -1.57751  -0.77783   0.45518
  -1.57751  -0.77783   0.45518
  -2.05635  -0.29899   0.45518
  -2.05635  -0.29899  -0.02366
  -2.05635  -0.29899  -0.02366
  -2.05635  -0.29899  -0.02366
  -2.53518   0.17985  -0.50250
  -2.53518  -0.29899  -0.50250
  -2.05635   0.17985  -0.50250
  -2.05635   0.17985  -0.50250
  -2.05635   0.17985  -0.50250
  -2.05635   0.17985  -0.02366
  -1.57751   0.17985  -0.02366
  -1.57751   0.17985  -0.02366
  -1.57751   0.17985  -0.02366
  -1.09867  -0.29899  -0.02366
  -1.09867  -0.77783  -0.02366
  -0.61983  -0.29899  -0.02366
  -1.09867  -0.77783   0.45518
  -0.61983  -0.77783   0.45518
  -0.61983  -0.77783   0.45518
  -0.61983  -0.77783   0.45518
  -0.61983  -0.77783   0.45518
  -0.61983  -0.77783   0.45518
  -0.61983  -0.77783  -0.02366
  -0.61983  -0.77783   0.45518
  -0.61983  -0.77783  -0.02366
  -1.09867  -0.29899  -0.02366
  -1.09867  -0.29899  -0.02366
  -1.09867  -0.77783  -0.02366
  -0.61983  -0.29899  -0.02366
  -0.61983  -0.29899  -0.02366
  -0.61983  -0.29899  -0.50250
  -0.61983  -0.29899  -0.50250
  -0.61983  -0.29899  -0.50250
  -0.14099   0.17985  -0.50250
  -0.14099   0.17985  -0.98134
   0.33784   0.65869  -0.98134
   0.33784   0.65869  -1.46017
   0.33784   0.65869  -1.46017
   0.81668   1.13753  -1.46017
   1.29552   1.61636  -1.93901
   1.29552   1.61636  -1.46017
   1.29552   1.61636  -1.93901
   1.77436   1.61636  -1.46017
   1.77436   1.61636  -1.46017
   1.77436   1.61636  -1.46017
   2.25320   1.61636  -0.98134
   2.25320   1.61636  -0.50250
   2.25320   1.13753  -0.50250
   2.25320   1.13753  -0.02366
   2.25320   1.13753  -0.02366
   2.25320   1.13753   0.45518
   2.25320   0.65869   0.45518
   1.77436   0.65869   0.45518
   1.77436   0.65869   0.45518
   1.77436   0.65869   0.93401
   1.77436   0.17985   0.93401
   2.25320   0.17985   0.93401
   2.25320   0.17985   0.93401
   2.25320   0.17985   0.93401
   2.25320  -0.29899   0.93401
   2.25320  -0.29899   0.93401
   2.25320  -0.29899   0.93401
   2.25320  -0.77783   0.93401
   2.25320  -0.77783   0.93401
   2.25320  -0.77783   0.93401
   2.25320  -0.77783   0.93401
   2.25320  -0.77783   0.93401
   1.77436  -0.29899   0.93401
   1.77436  -0.29899   0.45518
   1.77436   0.17985   0.45518
   1.29552   0.17985   0.45518
   1.29552   0.65869   0.45518
   0.81668   0.65869   0.45518
   0.81668   0.65869   0.45518
   0.33784   1.13753   0.45518
