********************************************************************************
              CENTRO DE INSTRUMENTACION Y REGISTRO SISMICO  A.C.

    Anaxagoras 814, Col. Narvarte, Benito Juarez, C.P. 03020 Mexico, D.F.
           Tels. 5687 45 42/ 5687 45  82             Fax. 5669 25 12
********************************************************************************
ARCHIVO ESTANDAR DE ACELERACION:
VERSION DEL FORMATO                    : 2.0
NOMBRE DEL ARCHIVO                     : AO2420090522192418
FECHA Y HORA DE CREACION               : 24/JUN/09, 01:39
REF. CATALOGO ACELEROGRAMAS, SMIS 1996 : REGISTRO No.     /PAG.


================================================================================
DATOS DE LA ESTACION:
NOMBRE DE LA ESTACION                  : ALBERCA OLÍMPICA
CLAVE DE LA ESTACION                   : AO24
LOCALIZACION DE LA ESTACION            : Del. Benito Juárez, Col. General Pedro 
                                       : María Anaya, Río Churubusco            
                                       : y División del Norte.                  
                                       :                                        
                                       : 
COORDENADAS DE LA ESTACION             : 19.3580 LAT. N
                                       : 99.1539 LONG. W
ALTITUD (msnm)                         : 2235
TIPO DE SUELO                          : Transición                          
                                       :                           
                                       : 
INSTITUCION RESPONSABLE                : CIRES
                                       : 

================================================================================
DATOS DEL ACELEROGRAFO:
MODELO DEL ACELEROGRAFO                : RADESD
NUMERO DE SERIE DEL ACELEROGRAFO       : 257
NUMERO DE CANALES                      : 3
ORIENTACION C1-C6 (rumbo;orientacion)  : /N00E/+V/N90W
ORIENTACION C7-C12 (rumbo;orientacion) : 
VEL. DE MUESTREO, C1-C6 (muestras/s)   : /100/100/100
VEL. DE MUESTREO, C7-C12 (muestras/s)  : 
ESC. COMPLETA DE SENSORES, C1-C6, (g)  : /0.5/0.5/0.5
ESC. COMPLETA DE SENSORES, C7-C12, (g) : 
FREC. NAT. DE SENSORES, C1-C6, (Hz)    : /30/30/30
FREC. NAT. DE SENSORES, C7-C12, (Hz)   : 
AMORTIGUAMIENTO DE SENSORES, C1-C6     : /0.700/0.700/0.700
AMORTIGUAMIENTO DE SENSORES, C7-C12    : 
INTERVALO DE MUESTREO, C1-C6, (s)      : /0.01/0.01/0.01
INTERVALO DE MUESTREO, C7-C12, (s)     : 
UMBRAL DE DISPARO, C1-C6, (Gal)        : /2.15/2.87/2.15
UMBRAL DE DISPARO, C7-C12, (Gal)       : 
MEMORIA DE PREEVENTO (s)               : 56.0
TIEMPO DE POSEVENTO (s)                : 64.0


================================================================================
DATOS DEL SISMO:
FECHA DEL SISMO (GMT)                  : 22/MAY/09
HORA EPICENTRO (GMT)                   : 19:24:18.0
MAGNITUD(ES)                           : /Mc=5.7
COORDENADAS DEL EPICENTRO              : 18.13 LAT. N
                                       : 98.44 LONG. W
PROFUNDIDAD FOCAL (km)                 : 45
FUENTE DE LOS DATOS EPICENTRALES       : SSN
                                       : INSTITUTO DE GEOFISICA, UNAM

================================================================================
DATOS DE ESTE REGISTRO:
HORA DE LA PRIMERA MUESTRA (GMT)       : 19:24:42.00
EXACTITUD DEL TIEMPO (s)               : 0.01
DURACION DEL REGISTRO (s), C1-C6       : /130.25/130.25/130.25
DURACION DEL REGISTRO (s), C7-C12      : 
NUM. TOTAL DE MUESTRAS, C1-C6          : /13025/13025/13025
NUM. TOTAL DE MUESTRAS, C7-C12         : 
ACEL. MAX. (Gal), C1-C6                : /17.8245/15.07204/16.86091
ACEL. MAX., C1-C6, EN LA MUESTRA       : /7433/7525/7488
ACEL. MAX. (Gal), C7-C12               : 
ACEL. MAX., C7-C12, EN LA MUESTRA      : 
UNIDADES DE LOS DATOS                  : Gal (cm/s/s)
FACTOR DE DECIMACION                   : 1
FORMATO DATOS (FORTRAN,10 campos/dato) : 3F10.5


================================================================================
CALIDAD DEL ACELEROGRAMA:
REGISTRO DIGITAL COMPLETO CON TIEMPO ABSOLUTO CORRECTO.


================================================================================
COMENTARIOS:














================================================================================
DATOS DE ACELERACION:
---------+---------+---------+---------+---------+---------+---------+---------+
   CANAL-1   CANAL-2   CANAL-3   CANAL-4   CANAL-5   CANAL-6   CANAL-7   CANAL-8
      N00E        +V      N90W
---------+---------+---------+---------+---------+---------+---------+---------+
[...]
  -0.37144  -0.25085  -0.58034
  -0.37144   0.22799  -0.58034
  -0.37144   0.46741  -0.81976
  -0.37144   0.70683  -0.81976
  -0.13202   0.94625  -0.58034
  -0.37144   0.94625  -0.81976
  -0.37144   0.94625  -0.81976
  -0.13202   0.94625  -0.58034
   0.10740   0.70683  -0.58034
   0.10740   0.70683  -0.58034
   0.10740   0.46741  -0.34092
   0.10740  -0.01143  -0.10150
  -0.13202  -0.25085  -0.10150
  -0.37144  -0.72969   0.13792
  -0.61086  -0.72969  -0.10150
  -0.61086  -0.96911  -0.34092
  -0.61086  -0.72969  -0.34092
  -0.85028  -0.72969  -0.58034
  -1.08970  -0.72969  -0.81976
  -1.32912  -0.96911  -0.81976
  -1.32912  -0.72969  -0.81976
  -1.56854  -0.49027  -1.05918
  -1.56854  -0.49027  -1.29860
  -1.08970  -0.25085  -1.29860
  -1.08970  -0.25085  -1.53802
  -1.08970  -0.49027  -1.53802
  -1.08970  -0.01143  -1.53802
  -1.08970  -0.01143  -1.53802
  -1.32912   0.22799  -1.29860
  -1.32912   0.46741  -1.29860
  -1.08970   0.94625  -0.81976
  -1.08970   1.18567  -0.58034
  -1.32912   1.18567  -0.34092
  -1.08970   1.18567  -0.10150
  -1.08970   0.94625  -0.10150
  -1.08970   0.70683   0.13792
  -0.85028   0.70683   0.37734
  -0.85028   0.22799   0.37734
  -0.85028  -0.01143   0.37734
  -0.61086  -0.25085   0.85618
  -0.61086  -0.25085   0.61676
  -0.37144  -0.49027   0.61676
  -0.37144  -0.49027   0.61676
  -0.13202  -0.49027   0.61676
  -0.37144  -0.96911   0.61676
  -0.13202  -0.96911   0.61676
  -0.13202  -1.20853   0.61676
  -0.13202  -0.96911   0.61676
   0.10740  -0.96911   0.61676
   0.34682  -0.96911   0.37734
   0.34682  -1.20853   0.37734
   0.34682  -0.96911   0.13792
   0.34682  -0.72969   0.13792
   0.34682  -0.25085   0.37734
   0.10740  -0.25085   0.37734
   0.34682  -0.01143   0.37734
   0.34682  -0.01143   0.61676
   0.34682  -0.01143   0.37734
   0.34682   0.22799   0.61676
   0.58624   0.46741   0.61676
   0.34682   0.46741   0.61676
   0.34682   0.46741   0.61676
   0.58624   0.46741   0.85618
   0.58624   0.46741   0.85618
   0.82566   0.22799   0.61676
   0.82566  -0.01143   0.85618
   1.06508  -0.01143   0.85618
   1.06508  -0.25085   0.85618
   1.30450  -0.72969   0.85618
   1.54392  -0.72969   1.09560
   1.54392  -0.72969   0.85618
   1.54392  -0.72969   0.85618
   1.78334  -0.72969   0.85618
   1.54392  -0.49027   1.09560
   1.54392  -0.49027   0.85618
   1.30450  -0.49027   0.61676
   1.54392  -0.25085   0.61676
   1.30450  -0.01143   0.61676
   1.30450  -0.01143   0.37734
   1.30450   0.22799   0.37734
   1.30450   0.46741   0.13792
   1.30450   0.70683  -0.10150
   1.30450   0.94625  -0.10150
   1.54392   1.42509  -0.10150
   1.30450   1.90393  -0.34092
   1.30450   1.90393  -0.10150
   1.30450   1.90393  -0.10150
   1.06508   1.90393  -0.10150
   1.06508   1.66451  -0.34092
   0.82566   1.66451  -0.10150
   0.82566   1.66451  -0.10150
   0.34682   1.42509  -0.34092
   0.34682   0.94625  -0.34092
   0.10740   0.46741  -0.34092
   0.10740  -0.01143  -0.34092
   0.10740  -0.49027  -0.10150
   0.10740  -0.96911  -0.10150
   0.10740  -1.20853  -0.10150
  -0.13202  -1.44795  -0.34092
  -0.13202  -1.44795  -0.34092
  -0.13202  -1.44795  -0.34092
  -0.13202  -1.44795  -0.34092
  -0.13202  -1.44795  -0.34092
  -0.13202  -1.20853  -0.10150
  -0.13202  -0.96911  -0.10150
  -0.13202  -0.72969  -0.10150
  -0.13202  -0.49027  -0.10150
  -0.13202  -0.49027  -0.34092
  -0.37144  -0.25085  -0.34092
  -0.37144  -0.25085  -0.34092
  -0.61086  -0.01143  -0.34092
  -0.61086  -0.01143  -0.34092
  -0.61086   0.22799  -0.34092
  -0.85028  -0.01143  -0.34092
  -1.08970  -0.01143  -0.34092
  -1.56854  -0.01143  -0.34092
  -1.56854   0.46741  -0.34092
  -2.04738   0.46741  -0.58034
  -2.04738   0.46741  -0.34092
  -2.28680   0.70683  -0.58034
  -2.28680   0.94625  -0.34092
  -2.28680   1.42509  -0.58034
  -2.04738   1.90393  -0.58034
  -2.04738   2.14335  -0.81976
  -2.04738   2.38277  -0.81976
  -1.80796   2.86161  -0.58034
  -1.56854   2.86161  -0.58034
  -1.32912   2.86161  -0.34092
  -1.08970   2.86161  -0.10150
  -1.08970   2.62219  -0.10150
  -1.08970   2.14335  -0.10150
  -0.85028   1.90393   0.13792
  -1.08970   1.42509   0.13792
  -1.56854   0.94625   0.13792
  -1.56854   0.22799   0.13792
  -1.56854  -0.25085   0.13792
  -1.80796  -0.96911   0.13792
  -1.56854  -1.68737   0.13792
  -1.56854  -2.16621   0.13792
  -1.56854  -2.40564   0.13792
  -1.32912  -2.64506  -0.10150
  -1.32912  -2.64506  -0.10150
  -1.08970  -2.64506  -0.34092
  -1.08970  -2.40564  -0.34092
  -0.61086  -2.16621  -0.34092
  -0.37144  -1.92679  -0.34092
  -0.13202  -1.92679  -0.34092
   0.10740  -1.92679  -0.10150
   0.10740  -1.44795  -0.10150
   0.10740  -1.20853  -0.34092
   0.10740  -0.72969  -0.10150
   0.10740  -0.25085  -0.34092
   0.34682  -0.25085  -0.34092
   0.58624  -0.25085  -0.34092
   0.82566  -0.49027  -0.10150
   1.06508  -0.72969  -0.10150
   1.06508  -0.72969  -0.34092
   1.06508  -0.72969  -0.10150
   1.30450  -0.72969  -0.34092
   1.06508  -0.96911  -0.10150
   1.06508  -0.96911   0.13792
   1.30450  -0.72969   0.13792
   1.30450  -0.96911   0.13792
   1.54392  -0.96911  -0.10150
   1.78334  -0.96911   0.13792
   1.78334  -0.96911  -0.10150
   2.02276  -0.72969   0.13792
   2.26219  -0.25085   0.13792
   2.50161   0.22799   0.13792
   2.98045   0.70683   0.13792
   3.45929   1.18567   0.13792
   3.93813   2.38277   0.37734
   3.93813   3.10103   0.13792
   4.17755   4.05871   0.13792
   4.41697   4.77697  -0.10150
   4.41697   5.49523  -0.10150
   4.41697   6.21349  -0.34092
   4.41697   6.45291  -0.34092
   4.41697   6.45291  -0.34092
   4.17755   5.97407  -0.58034
   3.93813   5.01639  -0.81976
   3.69871   3.81929  -0.81976
   3.21987   2.62219  -1.05918
   2.98045   1.18567  -1.53802
   2.98045  -0.01143  -1.53802
   2.98045  -1.44795  -2.01686
   2.74103  -2.88448  -2.25628
   2.98045  -4.08158  -2.25628
   2.98045  -4.56042  -2.25628
   2.98045  -5.27868  -2.01686
   2.98045  -5.27868  -2.01686
   2.98045  -5.27868  -2.01686
   2.98045  -4.79984  -1.53802
   2.74103  -4.32100  -1.29860
   2.74103  -3.84216  -0.81976
   2.26219  -3.60274  -0.58034
   1.78334  -3.36332  -0.34092
   1.06508  -3.12390   0.13792
   0.10740  -2.40564   0.61676
  -0.85028  -1.92679   0.85618
  -1.80796  -1.20853   1.09560
  -3.00506  -0.49027   1.57444
  -3.96274   0.22799   1.81386
  -4.92042   0.94625   2.29270
  -5.87810   1.42509   2.77154
  -6.59636   1.90393   3.01096
  -7.31462   1.90393   3.25038
  -7.79346   1.90393   3.72922
  -7.79346   2.14335   3.72922
  -8.03288   2.14335   3.96864
  -7.55404   2.14335   4.44748
  -7.07520   1.90393   4.68690
  -6.59636   1.66451   4.92632
  -5.87810   1.18567   5.40516
  -4.92042   0.70683   5.40516
  -4.44158   0.22799   5.40516
  -3.48390  -0.01143   5.16574
  -3.00506  -0.25085   4.92632
  -2.52622  -0.25085   4.44748
  -2.28680  -0.49027   3.96864
  -1.80796  -0.25085   3.25038
  -1.80796  -0.25085   2.29270
  -2.04738   0.22799   1.33502
  -2.28680   0.70683   0.13792
  -2.28680   1.18567  -1.05918
  -2.52622   1.42509  -2.01686
  -2.52622   1.66451  -2.49570
  -2.52622   1.90393  -3.21397
  -2.28680   2.14335  -3.45339
  -2.04738   2.62219  -3.21397
  -1.80796   2.86161  -2.97455
  -1.56854   2.62219  -2.01686
  -1.32912   2.38277  -1.29860
  -1.08970   1.90393  -0.34092
  -0.85028   1.18567   0.61676
  -0.37144   0.46741   1.57444
   0.10740  -0.72969   2.29270
   0.34682  -1.92679   2.77154
   1.30450  -2.64506   3.01096
   1.78334  -3.36332   3.01096
   2.50161  -3.60274   2.53212
   3.21987  -3.60274   1.81386
   3.93813  -2.88448   1.09560
   4.17755  -2.40564   0.13792
   4.41697  -1.44795  -1.05918
   4.65639  -0.72969  -2.25628
   4.65639   0.22799  -3.93223
   4.17755   1.18567  -5.36875
   3.93813   1.90393  -6.56585
   3.45929   2.38277  -7.28411
   3.21987   2.38277  -8.00237
   2.74103   1.66451  -8.24179
   2.26219   1.42509  -8.00237
   2.02276   0.70683  -7.52353
   1.78334   0.22799  -6.56585
   1.54392  -0.49027  -5.36875
   1.54392  -0.96911  -3.45339
   1.30450  -1.92679  -1.77744
   1.30450  -2.40564   0.37734
   1.30450  -3.36332   2.77154
   1.30450  -4.08158   4.68690
   1.06508  -4.79984   6.60226
   0.82566  -4.79984   8.03878
   0.34682  -5.03926   9.47530
   0.10740  -4.79984  10.19356
  -0.13202  -4.56042  10.67240
  -0.37144  -4.08158  10.67240
  -0.61086  -3.12390   9.95414
  -0.61086  -1.92679   8.51762
  -0.61086  -0.72969   6.84168
  -0.37144   0.70683   4.44748
  -0.13202   2.14335   1.81386
  -0.13202   3.34045  -0.81976
   0.34682   4.53755  -3.45339
   0.58624   5.25581  -5.60817
   0.82566   5.49523  -6.80527
   1.30450   5.25581  -7.04469
   1.30450   4.53755  -6.80527
   1.06508   3.34045  -5.60817
   0.82566   2.14335  -3.93223
   0.34682   0.70683  -1.77744
  -0.37144  -0.72969   0.61676
  -1.08970  -2.40564   3.01096
  -2.04738  -3.60274   5.40516
  -3.00506  -4.79984   7.08110
  -3.72332  -5.99694   8.27820
  -4.20216  -6.71520   8.51762
  -4.68100  -7.19404   7.79936
  -4.92042  -6.95462   6.12342
  -4.68100  -6.47578   3.72922
  -4.44158  -5.51810   0.61676
  -4.44158  -3.60274  -2.73512
  -4.20216  -1.92679  -6.08701
  -3.72332   0.22799  -9.43889
  -3.48390   1.90393 -12.07251
  -3.24448   3.81929 -13.50903
  -3.24448   5.25581 -14.46671
  -3.48390   6.45291 -14.22729
  -3.48390   7.65001 -13.26961
  -3.96274   8.12885 -12.07251
  -4.68100   7.88943 -10.63599
  -4.92042   7.17117  -8.72063
  -5.39926   6.21349  -7.04469
  -6.11752   4.53755  -5.60817
  -6.83578   3.10103  -4.17165
  -7.55404   1.66451  -3.69281
  -8.51172  -0.01143  -3.45339
  -8.99056  -1.20853  -3.69281
  -9.22998  -1.92679  -4.65049
  -8.99056  -2.40564  -5.84759
  -7.79346  -2.40564  -7.04469
  -6.59636  -2.16621  -8.48121
  -4.92042  -1.92679  -9.67831
  -3.24448  -1.20853 -10.63599
  -1.80796  -0.25085 -11.59367
  -0.37144   0.22799 -11.83309
   1.06508   0.70683 -11.83309
   2.50161   0.70683 -11.35425
   3.69871   0.46741 -10.39657
   4.65639  -0.01143  -9.19947
   5.13523  -0.72969  -8.00237
   4.89581  -1.68737  -6.56585
   4.17755  -2.16621  -5.36875
   3.21987  -2.88448  -3.93223
   2.02276  -3.36332  -2.73512
   0.58624  -3.12390  -1.53802
  -0.61086  -2.40564  -0.34092
  -1.80796  -1.68737   0.13792
  -2.76564  -0.96911   0.61676
  -3.00506  -0.01143   1.33502
  -3.24448   0.94625   1.81386
  -3.00506   1.90393   1.81386
  -2.28680   2.38277   2.29270
  -1.08970   2.62219   2.77154
   0.10740   2.62219   2.77154
   1.78334   2.38277   3.25038
   3.69871   2.14335   3.72922
   5.85349   1.42509   4.20806
   7.52943  -0.01143   4.44748
   9.20537  -0.72969   5.40516
  10.64189  -1.44795   6.36284
  12.07841  -1.92679   7.32052
  13.51493  -2.16621   8.99646
  14.71203  -2.40564  10.67240
  15.90913  -3.12390  12.34835
  17.10624  -3.36332  14.02429
  17.82450  -3.12390  15.22139
  17.82450  -2.40564  16.17907
  17.58508  -1.68737  16.65791
  16.86682  -0.96911  16.65791
  15.66971  -0.49027  16.41849
  14.23319  -0.01143  15.93965
  12.55725   0.70683  15.22139
  10.88131   1.42509  14.74255
   8.96595   1.90393  14.02429
   6.81117   2.14335  13.30603
   4.65639   1.90393  12.34835
   3.21987   1.66451  11.39066
   1.78334   1.42509  10.43298
   0.82566   0.70683   9.47530
   0.58624   0.22799   8.75704
   0.58624  -0.25085   8.27820
   0.82566  -0.72969   8.27820
   1.06508  -1.20853   8.51762
   1.30450  -1.20853   9.23588
   1.54392  -1.44795   9.71472
   1.54392  -1.68737  10.67240
   1.54392  -1.92679  11.63009
   1.78334  -2.16621  12.34835
   1.78334  -2.64506  12.82719
   1.78334  -2.64506  12.82719
   1.54392  -2.40564  12.34835
   0.82566  -1.92679  11.15124
   0.10740  -1.20853   9.95414
  -1.08970  -0.49027   8.75704
  -2.28680   0.46741   7.32052
  -3.24448   0.94625   5.64458
  -4.20216   1.90393   4.20806
  -5.15984   2.86161   2.53212
  -6.11752   3.34045   0.61676
  -6.83578   4.05871  -1.29860
  -7.55404   4.29813  -3.21397
  -8.03288   5.01639  -4.65049
  -8.51172   5.73465  -5.84759
  -8.99056   5.97407  -6.80527
  -8.75114   5.73465  -7.28411
  -8.51172   5.25581  -7.52353
  -8.27230   4.77697  -7.52353
  -8.27230   4.29813  -7.28411
  -8.27230   3.81929  -7.04469
  -8.03288   2.86161  -6.80527
  -7.79346   1.66451  -6.80527
  -7.31462   0.46741  -7.04469
  -6.35694  -0.72969  -7.76295
  -5.15984  -1.44795  -8.96005
  -4.44158  -2.16621 -10.39657
  -3.72332  -2.40564 -11.83309
  -3.72332  -2.16621 -13.26961
  -3.96274  -1.92679 -14.70613
  -4.68100  -1.92679 -15.66381
  -5.15984  -1.68737 -16.38207
  -6.11752  -1.68737 -16.86091
  -6.83578  -2.16621 -16.62149
  -7.79346  -2.16621 -16.14265
  -8.51172  -2.40564 -14.94555
  -8.99056  -2.40564 -13.74845
  -8.99056  -2.16621 -12.31193
  -8.99056  -2.40564 -10.87541
  -8.03288  -2.64506  -9.43889
  -6.83578  -2.64506  -8.24179
  -5.39926  -2.88448  -7.04469
  -3.48390  -2.64506  -6.32643
  -2.04738  -2.64506  -6.08701
  -0.61086  -2.88448  -6.32643
   0.34682  -2.64506  -6.80527
   0.82566  -2.40564  -7.52353
   1.30450  -2.16621  -8.72063
   1.54392  -1.92679  -9.19947
   1.78334  -2.40564  -9.19947
   1.30450  -2.40564  -9.67831
   0.58624  -3.12390  -9.43889
  -0.37144  -3.36332  -9.19947
  -1.56854  -4.32100  -9.43889
  -3.00506  -5.27868  -9.19947
  -4.20216  -5.99694  -8.48121
  -5.15984  -6.47578  -7.52353
  -5.63868  -6.47578  -6.08701
  -5.87810  -5.99694  -4.65049
  -5.39926  -5.03926  -3.21397
  -4.44158  -3.84216  -1.77744
  -3.24448  -1.68737  -0.58034
  -1.56854   0.70683  -0.10150
   0.34682   3.57987   0.37734
   2.26219   6.45291   0.85618
   4.41697   9.08653   1.09560
   5.85349  11.48073   1.33502
   7.05059  13.39610   1.81386
   7.52943  14.59320   2.29270
   7.76885  15.07204   3.01096
   7.29001  14.35378   3.48980
   6.81117  12.67784   4.44748
   6.33233  10.52305   5.16574
   5.61407   7.65001   5.88400
   4.65639   4.29813   6.60226
   4.17755   0.94625   6.84168
   3.45929  -2.16621   7.08110
   2.50161  -4.56042   7.32052
   1.78334  -6.23636   7.55994
   1.06508  -7.19404   8.03878
   0.58624  -7.19404   8.51762
   0.34682  -6.47578   8.27820
   0.58624  -4.79984   8.27820
   1.30450  -2.88448   8.03878
   2.02276  -0.96911   7.79936
   2.50161   1.18567   7.79936
   3.21987   2.86161   7.55994
   4.41697   4.29813   7.55994
   5.61407   5.25581   7.55994
   6.81117   5.97407   7.55994
   8.00827   6.45291   7.79936
   9.20537   6.45291   8.27820
   9.92363   5.73465   8.75704
  10.64189   4.53755   8.99646
  11.36015   3.10103   9.71472
  11.36015   1.42509  10.43298
  11.12073  -0.49027  10.67240
  10.40247  -2.40564  11.15124
   8.96595  -3.84216  11.39066
   7.05059  -4.56042  11.39066
   5.13523  -5.27868  11.39066
   3.21987  -5.51810  11.15124
   1.78334  -5.75752  11.15124
   0.34682  -6.23636  10.91182
  -0.61086  -6.47578  10.43298
  -1.32912  -6.47578   9.47530
  -1.56854  -6.23636   8.27820
  -1.32912  -5.27868   6.60226
  -0.37144  -4.56042   4.68690
   0.58624  -3.60274   3.01096
   1.78334  -2.64506   1.57444
   2.98045  -1.68737   0.61676
   3.45929  -0.49027  -0.10150
   3.69871   0.70683  -0.58034
   3.45929   1.42509  -0.58034
   2.50161   2.38277  -0.34092
   1.06508   2.62219  -0.34092
  -0.37144   2.62219  -0.34092
  -2.04738   2.38277  -0.10150
  -3.72332   1.90393  -0.10150
  -4.92042   0.94625  -0.10150
  -5.63868  -0.25085  -0.58034
  -6.35694  -1.44795  -1.05918
  -6.35694  -2.64506  -1.53802
  -6.35694  -3.60274  -2.73512
  -6.11752  -4.08158  -3.93223
  -5.63868  -4.08158  -5.60817
