********************************************************************************
              CENTRO DE INSTRUMENTACION Y REGISTRO SISMICO  A.C.

    Anaxagoras 814, Col. Narvarte, Benito Juarez, C.P. 03020 Mexico, D.F.
           Tels. 5687 45 42/ 5687 45  82             Fax. 5669 25 12
********************************************************************************
ARCHIVO ESTANDAR DE ACELERACION:
VERSION DEL FORMATO                    : 2.0
NOMBRE DEL ARCHIVO                     : AO2420140418142723
FECHA Y HORA DE CREACION               : 13/MAY/14, 13:00
REF. CATALOGO ACELEROGRAMAS, SMIS 1996 : REGISTRO No.     /PAG.


================================================================================
DATOS DE LA ESTACION:
NOMBRE DE LA ESTACION                  : ALBERCA OLÍMPICA
CLAVE DE LA ESTACION                   : AO24
LOCALIZACION DE LA ESTACION            : Del. Benito Juárez, Col. General Pedro 
                                       : María Anaya, Río Churubusco            
                                       : y División del Norte.                  
                                       :                                        
                                       : 
COORDENADAS DE LA ESTACION             : 19.3580 LAT. N
                                       : 99.1539 LONG. W
ALTITUD (msnm)                         : 2235
TIPO DE SUELO                          : Transición                          
                                       :                           
                                       : 
INSTITUCION RESPONSABLE                : CIRES
                                       : 

================================================================================
DATOS DEL ACELEROGRAFO:
MODELO DEL ACELEROGRAFO                : RADESD
NUMERO DE SERIE DEL ACELEROGRAFO       : 257
NUMERO DE CANALES                      : 3
ORIENTACION C1-C6 (rumbo;orientacion)  : /N00E/+V/N90W
ORIENTACION C7-C12 (rumbo;orientacion) : 
VEL. DE MUESTREO, C1-C6 (muestras/s)   : /100/100/100
VEL. DE MUESTREO, C7-C12 (muestras/s)  : 
ESC. COMPLETA DE SENSORES, C1-C6, (g)  : /0.5/0.5/0.5
ESC. COMPLETA DE SENSORES, C7-C12, (g) : 
FREC. NAT. DE SENSORES, C1-C6, (Hz)    : /30/30/30
FREC. NAT. DE SENSORES, C7-C12, (Hz)   : 
AMORTIGUAMIENTO DE SENSORES, C1-C6     : /0.700/0.700/0.700
AMORTIGUAMIENTO DE SENSORES, C7-C12    : 
INTERVALO DE MUESTREO, C1-C6, (s)      : /0.01/0.01/0.01
INTERVALO DE MUESTREO, C7-C12, (s)     : 
UMBRAL DE DISPARO, C1-C6, (Gal)        : /1.65/3.14/1.95
UMBRAL DE DISPARO, C7-C12, (Gal)       : 
MEMORIA DE PREEVENTO (s)               : 44.0
TIEMPO DE POSEVENTO (s)                : 64.0


================================================================================
DATOS DEL SISMO:
FECHA DEL SISMO (GMT)                  : 18/ABR/14
HORA EPICENTRO (GMT)                   : 14:27:23.0
MAGNITUD(ES)                           : /Mc=7.2
COORDENADAS DEL EPICENTRO              : 17.18 LAT. N
                                       : 101.19 LONG. W
PROFUNDIDAD FOCAL (km)                 : 10
FUENTE DE LOS DATOS EPICENTRALES       : SSN
                                       : INSTITUTO DE GEOFISICA, UNAM

================================================================================
DATOS DE ESTE REGISTRO:
HORA DE LA PRIMERA MUESTRA (GMT)       : 14:28:04.00
EXACTITUD DEL TIEMPO (s)               : 0.01
DURACION DEL REGISTRO (s), C1-C6       : /265.8/265.8/265.8
DURACION DEL REGISTRO (s), C7-C12      : 
NUM. TOTAL DE MUESTRAS, C1-C6          : /26580/26580/26580
NUM. TOTAL DE MUESTRAS, C7-C12         : 
ACEL. MAX. (Gal), C1-C6                : /23.27661/6.56406/22.10704
ACEL. MAX., C1-C6, EN LA MUESTRA       : /8145/8526/9484
ACEL. MAX. (Gal), C7-C12               : 
ACEL. MAX., C7-C12, EN LA MUESTRA      : 
UNIDADES DE LOS DATOS                  : Gal (cm/s/s)
FACTOR DE DECIMACION                   : 1
FORMATO DATOS (FORTRAN,10 campos/dato) : 3F10.5


================================================================================
CALIDAD DEL ACELEROGRAMA:
REGISTRO DIGITAL COMPLETO CON TIEMPO ABSOLUTO CORRECTO.


================================================================================
COMENTARIOS:














================================================================================
DATOS DE ACELERACION:
---------+---------+---------+---------+---------+---------+---------+---------+
   CANAL-1   CANAL-2   CANAL-3   CANAL-4   CANAL-5   CANAL-6   CANAL-7   CANAL-8
      N00E        +V      N90W
---------+---------+---------+---------+---------+---------+---------+---------+
[...]
   1.48841  -2.62859  12.21983
   0.60555  -2.31435  12.38443
  -0.44191  -1.89536  12.45925
  -1.57916  -1.43149  12.44428
  -2.71640  -0.87783  12.35450
  -3.79379  -0.29424  12.20486
  -4.81133   0.22949  11.98041
  -5.75405   0.64848  11.65120
  -6.59202   0.99264  11.21726
  -7.41502   1.26199  10.66360
  -8.17818   1.39666  10.09497
  -8.83658   1.45652   9.45153
  -9.45010   1.44155   8.76320
 -10.01872   1.35177   8.10479
 -10.51252   1.17221   7.31171
 -10.90158   0.93279   6.41389
 -11.27567   0.58862   5.48614
 -11.57495   0.16963   4.52845
 -11.76948  -0.30921   3.63063
 -11.88919  -0.84790   2.71784
 -11.93408  -1.46141   1.79009
 -11.91912  -2.07493   0.86233
 -11.91912  -2.50888  -0.11031
 -11.88919  -2.77823  -1.14281
 -11.84430  -2.83808  -2.26509
 -11.81437  -2.74830  -3.32752
 -11.78444  -2.52384  -4.33009
 -11.72459  -2.22457  -5.33266
 -11.64977  -1.83551  -6.35020
 -11.50013  -1.44645  -7.30788
 -11.30560  -1.04243  -8.41520
 -11.00633  -0.68330  -9.46266
 -10.67712  -0.38402 -10.39041
 -10.31799  -0.24935 -11.31817
 -10.00376  -0.15957 -12.17110
  -9.67455  -0.09971 -13.00907
  -9.40520  -0.12964 -13.80215
  -9.21068  -0.23439 -14.52041
  -9.03111  -0.29424 -15.14889
  -8.92636  -0.30921 -15.70255
  -8.70191  -0.18950 -16.18139
  -8.41760  -0.02489 -16.49563
  -7.98365   0.12474 -16.70512
  -7.44495   0.21453 -16.66023
  -6.81647   0.28934 -16.46570
  -6.15807   0.37913 -16.16643
  -5.42484   0.48387 -15.79233
  -4.63177   0.54373 -15.40327
  -3.71898   0.61855 -14.99925
  -2.73137   0.69337 -14.59523
  -1.66894   0.79811 -14.22114
  -0.47184   0.94775 -13.75726
   0.77015   1.11235 -13.32331
   1.99718   1.30688 -12.88936
   3.17932   1.53134 -12.45541
   4.27167   1.80068 -12.05139
   5.43885   2.08500 -11.70723
   6.57609   2.42916 -11.36306
   7.62355   2.72844 -11.00393
   8.65605   2.99779 -10.61487
   9.55388   3.23721 -10.18092
  10.37689   3.41677  -9.68712
  11.08018   3.53648  -9.13346
  11.64881   3.53648  -8.66958
  12.06779   3.46166  -8.11592
  12.38203   3.31202  -7.50241
  12.66634   3.19231  -6.96371
  12.90576   3.07260  -6.41005
  13.14518   2.95289  -5.72172
  13.35467   2.71347  -5.07828
  13.59409   2.47405  -4.50966
  13.86344   2.23463  -3.95600
  14.07294   2.11492  -3.46219
  14.20761   2.02514  -3.01328
  14.26746   1.89047  -2.66911
  14.23754   1.80068  -2.44466
  14.19265   1.68097  -2.26509
  14.16272   1.39666  -1.98078
  14.14775   0.91782  -1.62165
  14.08790   0.25942  -1.09792
  13.93826  -0.45884  -0.40959
  13.68388  -1.02747   0.45831
  13.33971  -1.47638   1.53570
  12.95065  -1.74573   2.73280
  12.57656  -1.89536   4.04961
  12.26232  -2.01507   5.39635
  12.00794  -2.01507   6.71316
  11.81341  -1.74573   8.01501
  11.64881  -1.19207   9.16722
  11.48420  -0.42892  10.10994
  11.25975   0.42402  10.88805
  10.94551   1.32184  11.53149
  10.64623   2.20471  12.07019
  10.28710   2.93793  12.62385
   9.92797   3.50655  13.17751
   9.58381   3.79086  13.80599
   9.19475   3.74597  14.47936
   8.73087   3.47663  15.09287
   8.26700   3.02771  15.69142
   7.66845   2.41420  16.15530
   6.93522   1.68097  16.46954
   6.06732   0.96271  16.66406
   5.12461   0.34920  16.73888
   4.22678  -0.15957  16.75385
   3.37385  -0.54863  16.85859
   2.56580  -0.95265  16.97830
   1.83258  -1.25192  17.02319
   1.09936  -1.41652  17.05312
   0.38109  -1.37163  17.06809
  -0.41198  -1.20703  17.11298
  -1.26492  -0.99754  17.12794
  -2.07296  -0.80301  17.21772
  -2.89597  -0.71323  17.24765
  -3.68905  -0.72819  17.18780
  -4.49709  -0.77308  17.03816
  -5.36499  -0.83294  16.88852
  -6.29274  -0.90776  16.66406
  -7.23546  -0.96761  16.27501
  -8.26796  -0.99754  15.70638
  -9.25557  -1.01250  15.06294
 -10.24318  -1.04243  14.26986
 -11.18589  -1.08732  13.32715
 -12.09868  -1.07236  12.32457
 -12.95162  -1.01250  11.35193
 -13.74470  -0.89279  10.34936
 -14.49288  -0.77308   9.37671
 -15.16625  -0.54863   8.44896
 -15.71991  -0.36906   7.55113
 -16.10897  -0.26431   6.57849
 -16.31846  -0.21942   5.54599
 -16.30350  -0.26431   4.49853
 -16.12393  -0.26431   3.49596
 -15.79473  -0.32417   2.44849
 -15.36078  -0.36906   1.32621
 -14.76223  -0.44388   0.17400
 -14.01404  -0.54863  -1.00814
 -13.22096  -0.57855  -2.19027
 -12.36803  -0.53366  -3.40234
 -11.50013  -0.35410  -4.56951
 -10.63223  -0.06979  -5.63194
  -9.79426   0.24445  -6.64947
  -9.00118   0.63351  -7.53234
  -8.23803   1.12732  -8.54987
  -7.54970   1.68097  -9.41777
  -6.89129   2.20471 -10.10610
  -6.32267   2.66858 -10.86925
  -5.79894   3.05764 -11.48277
  -5.36499   3.40181 -11.99154
  -5.02082   3.65619 -12.39556
  -4.75148   3.77590 -12.75469
  -4.46716   3.79086 -13.06893
  -4.13796   3.85072 -13.41309
  -3.71898   3.98539 -13.77222
  -3.27006   4.16496 -14.16128
  -2.74633   4.32956 -14.58027
  -2.16274   4.41934 -15.01422
  -1.62405   4.47920 -15.46313
  -1.14521   4.47920 -15.83722
  -0.66637   4.47920 -16.06168
  -0.15760   4.40438 -16.18139
   0.36613   4.16496 -16.15146
   0.93475   3.76094 -16.06168
   1.44352   3.28210 -15.89708
   1.96725   2.57880 -15.77737
   2.46106   1.77076 -15.79233
   2.96983   0.88790 -15.91204
   3.44867  -0.00993 -16.04672
   3.86765  -0.86286 -16.21132
   4.19685  -1.53623 -16.37592
   4.46620  -2.04500 -16.54052
   4.63080  -2.35924 -16.67519
   4.69066  -2.55377 -16.76498
   4.61584  -2.59866 -16.76498
   4.48116  -2.59866 -16.55548
   4.24174  -2.53881 -16.21132
   4.06218  -2.53881 -15.70255
   3.86765  -2.52384 -14.98429
   3.76290  -2.58370 -14.11639
   3.70305  -2.70341 -13.05396
   3.65816  -2.85304 -11.93168
   3.62823  -3.03261 -10.79444
   3.68809  -3.31692  -9.65719
   3.85269  -3.63116  -8.59476
   4.12203  -3.97533  -7.50241
   4.43627  -4.24467  -6.64947
   4.88519  -4.45417  -6.02100
   5.37899  -4.60380  -5.45237
   5.90272  -4.64870  -4.86879
   6.44142  -4.66366  -4.30016
   6.96515  -4.67862  -3.67169
   7.39910  -4.63373  -3.01328
   7.80312  -4.64870  -2.26509
   8.13232  -4.61877  -1.42712
   8.43160  -4.49906  -0.46944
   8.71591  -4.31949   0.68277
   8.97029  -4.13993   1.89483
   9.14986  -3.97533   3.12186
   9.28453  -3.81073   4.40874
   9.32942  -3.66109   5.62081
   9.28453  -3.54138   6.72813
   9.16482  -3.48152   7.73070
   8.94037  -3.39174   8.67342
   8.62613  -3.27203   9.60117
   8.19218  -3.16728  10.52892
   7.63852  -2.97275  11.47164
   6.98011  -2.70341  12.44428
   6.29178  -2.41910  13.38700
   5.60345  -2.07493  14.25490
   4.91511  -1.70084  15.04798
   4.30160  -1.29681  15.87099
   3.73298  -0.90776  16.57428
   3.19428  -0.63841  17.18780
   2.59573  -0.48877  17.62175
   2.02711  -0.45884  17.96591
   1.35374  -0.45884  18.16044
   0.56066  -0.50373  18.22030
  -0.32220  -0.62344  18.16044
  -1.29485  -0.69826  18.05569
  -2.32735  -0.69826  17.96591
  -3.40474  -0.59352  17.92102
  -4.51206  -0.44388  17.92102
  -5.61937  -0.17453  17.95095
  -6.69676   0.19956  17.87613
  -7.71430   0.64848  17.81627
  -8.59716   1.09739  17.71153
  -9.42017   1.45652  17.57685
 -10.15339   1.69594  17.35240
 -10.72202   1.80068  17.02319
 -11.18589   1.72587  16.55932
 -11.54502   1.50141  15.94580
 -11.75452   1.17221  15.07791
 -11.90415   0.79811  14.03044
 -12.02386   0.42402  12.86327
 -12.00890   0.12474  11.63624
 -12.00890  -0.05482  10.28950
 -12.03883  -0.15957   8.88291
 -12.05379  -0.14460   7.44639
 -12.08372   0.00503   6.09965
 -12.03883   0.30431   4.85766
 -11.91912   0.70833   3.70545
 -11.69466   1.12732   2.65798
 -11.36546   1.62112   1.80505
 -10.87165   2.08500   1.04190
 -10.27310   2.44413   0.35357
  -9.61470   2.68355  -0.28988
  -8.91140   2.81822  -0.84353
  -8.20810   2.84815  -1.32238
  -7.59459   2.81822  -1.78625
  -7.08582   2.83318  -2.28006
  -6.60698   2.87808  -2.81875
  -6.17303   2.99779  -3.41730
  -5.72412   3.20728  -4.12060
  -5.29017   3.53648  -4.89871
  -4.82629   3.88065  -5.72172
  -4.25767   4.19489  -6.61955
  -3.55437   4.40438  -7.51737
  -2.68648   4.53905  -8.62469
  -1.62405   4.62884  -9.77690
  -0.38206   4.64380 -10.82436
   1.03950   4.65876 -11.82694
   2.40120   4.50913 -12.76965
   3.68809   4.26971 -13.54777
   4.97497   4.03029 -14.16128
   6.03740   3.77590 -14.64012
   6.95019   3.50655 -15.01422
   7.71334   3.37188 -15.28356
   8.23707   3.31202 -15.41824
   8.55131   3.28210 -15.37335
   8.62613   3.23721 -15.26860
   8.53634   3.20728 -15.01422
   8.34182   3.08757 -14.69998
   8.07247   2.93793 -14.29596
   7.89290   2.65362 -13.86201
   7.78816   2.23463 -13.48791
   7.83305   1.66601 -13.14375
   8.13232   1.02257 -12.79958
   8.58124   0.28934 -12.56016
   9.16482  -0.45884 -12.38059
   9.73344  -1.14718 -12.17110
  10.28710  -1.77565 -12.00650
  10.87069  -2.31435 -11.78204
  11.42435  -2.73333 -11.51270
  11.88823  -3.03261 -11.12364
  12.35210  -3.22714 -10.54005
  12.74116  -3.27203  -9.92654
  13.14518  -3.24210  -9.22324
  13.42949  -3.10743  -8.46009
  13.69884  -3.00268  -7.57723
  13.93826  -2.85304  -6.63451
  14.20761  -2.64355  -5.78158
  14.40214  -2.29939  -4.85382
  14.62659  -1.98515  -3.86621
  14.83609  -1.74573  -2.83372
  14.89594  -1.58113  -1.78625
  14.86601  -1.47638  -0.67893
  14.70141  -1.46141   0.44335
  14.38717  -1.47638   1.46088
  13.98315  -1.52127   2.43353
  13.53424  -1.52127   3.31639
  13.14518  -1.47638   4.19925
  12.69627  -1.40156   5.02226
  12.32218  -1.26689   5.80037
  11.96305  -1.08732   6.56353
  11.58895  -0.98257   7.26682
  11.21486  -0.92272   7.86537
  10.76594  -0.93768   8.47889
  10.25718  -0.95265   9.04751
   9.74841  -0.98257   9.52635
   9.19475  -0.90776   9.96030
   8.52138  -0.72819  10.42418
   7.69837  -0.57855  10.85813
   6.74069  -0.41395  11.17236
   5.64834  -0.29424  11.47164
   4.40635  -0.35410  11.78588
   2.99975  -0.54863  12.05523
   1.50338  -0.93768  12.20486
   0.06686  -1.31178  12.23479
  -1.35470  -1.67091  12.18990
  -2.76130  -2.01507  12.02530
  -4.12300  -2.31435  11.71106
  -5.42484  -2.53881  11.38186
  -6.66684  -2.79319  11.08258
  -7.86394  -3.01765  10.76834
  -8.92636  -3.19721  10.46907
  -9.83915  -3.28699  10.18476
 -10.60231  -3.30196   9.85555
 -11.24575  -3.24210   9.48146
 -11.78444  -3.06254   9.09240
 -12.26328  -2.71837   8.71831
 -12.68227  -2.31435   8.34421
 -13.08629  -1.85047   7.92523
 -13.47535  -1.34170   7.56610
 -13.89433  -0.83294   7.17704
 -14.40310  -0.30921   6.77302
 -15.00165   0.16963   6.30914
 -15.70495   0.54373   5.75548
 -16.49803   0.81308   5.23175
 -17.39585   1.00761   4.72298
 -18.32361   1.17221   4.27407
 -19.26632   1.23206   3.85509
 -20.19408   1.15724   3.54085
 -20.98716   1.11235   3.28646
 -21.64556   1.03753   3.06201
 -22.33389   0.99264   2.95726
 -22.85763   0.94775   2.85251
 -23.15690   0.94775   2.68791
 -23.27661   0.93279   2.40360
 -23.17186   1.00761   2.05943
 -22.87259   1.15724   1.61052
 -22.37878   1.32184   0.96708
 -21.79520   1.42659   0.18896
 -20.92730   1.51637  -0.66397
 -19.99955   1.63608  -1.51690
 -19.22143   1.72587  -2.23516
 -18.45828   1.81565  -2.86364
 -17.69513   1.90543  -3.46219
 -16.82723   2.05507  -4.10563
 -15.92940   2.23463  -4.65929
 -14.98669   2.48902  -5.22792
 -13.99908   2.71347  -5.91625
 -13.04140   2.93793  -6.60458
 -12.00890   3.13246  -7.32284
 -10.91654   3.26713  -7.96628
  -9.70448   3.43173  -8.66958
  -8.37271   3.59634  -9.16339
  -6.90626   3.79086  -9.58237
  -5.37995   3.91057 -10.06121
  -3.76387   3.95547 -10.28567
  -2.13282   3.89561 -10.37545
  -0.50177   3.71605 -10.42034
   1.08439   3.43173 -10.36049
   2.62566   3.08757 -10.28567
   4.06218   2.66858 -10.27070
   5.37899   2.20471 -10.27070
   6.51624   1.80068 -10.31560
   7.47392   1.41163 -10.33056
   8.17721   1.06746 -10.40538
   8.70095   0.85797 -10.45027
   9.09000   0.76819 -10.49516
   9.47906   0.84300 -10.58494
   9.85315   0.96271 -10.76451
  10.31703   1.11235 -10.98896
  10.87069   1.17221 -11.22838
  11.54406   1.15724 -11.49773
  12.24736   1.02257 -11.63241
  12.96562   0.82804 -11.63241
  13.65395   0.49884 -11.55759
  14.34228   0.16963 -11.33313
  15.01565  -0.11468 -10.98896
  15.70399  -0.27928 -10.51012
  16.37735  -0.39899  -9.91157
  17.08065  -0.44388  -9.22324
  17.75402  -0.42892  -8.50498
  18.42739  -0.42892  -7.71190
  19.08580  -0.36906  -6.91882
  19.71427  -0.24935  -6.14071
  20.23800  -0.15957  -5.33266
  20.68692  -0.09971  -4.46476
  21.03108   0.00503  -3.55198
  21.25554   0.10978  -2.51948
  21.37525   0.19956  -1.51690
  21.42014   0.30431  -0.54426
  21.34532   0.42402   0.32364
  21.12087   0.57366   1.08679
  20.82159   0.70833   1.77512
  20.37268   0.72329   2.32878
  19.80406   0.52877   2.68791
  19.07083   0.19956   2.92733
  18.17301  -0.18950   3.06201
  17.20036  -0.51870   3.18172
  16.09304  -0.83294   3.30143
  14.91091  -1.22199   3.39121
  13.72877  -1.58113   3.48099
  12.57656  -1.85047   3.66056
  11.45428  -2.10486   3.85509
  10.34696  -2.38917   4.09451
   9.37431  -2.62859   4.42371
   8.44656  -2.83808   4.70802
   7.60859  -2.82312   5.09708
   6.86040  -2.70341   5.56095
   6.08229  -2.65852   5.96498
   5.31914  -2.56873   6.21936
   4.49613  -2.49391   6.51864
   3.62823  -2.47895   6.80295
   2.59573  -2.46399   6.90769
   1.60812  -2.47895   7.01244
   0.47088  -2.61362   7.07229
  -0.75615  -2.77823   7.01244
  -1.90836  -2.98772   6.93762
  -3.10546  -3.21217   6.90769
  -4.30256  -3.46656   6.89273
  -5.52959  -3.81073   6.84784
  -6.69676  -4.11000   6.71316
  -7.77415  -4.43920   6.54856
  -8.79169  -4.72351   6.36900
  -9.71944  -4.91804   6.09965
 -10.57238  -5.02279   5.80037
 -11.35049  -5.06768   5.41132
 -12.17350  -5.03775   4.96240
 -13.02643  -5.02279   4.52845
 -13.95419  -4.96293   4.09451
 -14.92683  -4.76841   3.64559
 -15.89948  -4.49906   3.25654
 -16.75241  -4.16986   2.80762
 -17.51556  -3.75087   2.37367
 -18.15900  -3.16728   1.92476
 -18.66777  -2.50888   1.46088
 -18.98201  -1.86544   1.01197
 -19.17654  -1.23696   0.59299
 -19.20647  -0.72819   0.27875
 -19.11669  -0.17453   0.06925
 -18.95208   0.27438  -0.00556
 -18.68274   0.67840  -0.08038
 -18.35353   1.02257  -0.09535
 -18.00937   1.35177  -0.11031
 -17.76995   1.62112  -0.03549
 -17.56045   1.86054   0.11415
 -17.33600   2.02514   0.24882
 -17.09658   2.24960   0.38349
 -16.76737   2.48902   0.54809
 -16.31846   2.68355   0.65284
 -15.68998   2.87808   0.68277
 -14.88194   3.01275   0.59299
 -13.93922   3.16239   0.38349
 -12.80198   3.31202   0.09918
 -11.55999   3.52152  -0.25995
 -10.22821   3.77590  -0.72382
  -8.80665   4.03029  -1.15777
  -7.38510   4.35949  -1.59172
  -6.03836   4.61387  -1.93589
  -4.79637   4.86826  -2.22020
  -3.67408   5.06278  -2.42969
  -2.68648   5.15257  -2.51948
  -1.89340   5.01789  -2.53444
  -1.23499   4.79344  -2.45962
  -0.68133   4.40438  -2.33991
  -0.24738   3.95547  -2.17531
   0.14167   3.41677  -1.99574
   0.44095   2.81822  -1.77129
   0.71030   2.15982  -1.47201
   0.91979   1.53134  -1.14281
   1.11432   1.00761  -0.78368
   1.23403   0.54373  -0.42455
   1.38367   0.19956   0.02436
   1.57820   0.16963   0.50320
   1.78769   0.30431   1.01197
   1.96725   0.54373   1.56563
   2.26653   0.88790   2.07440
   2.59573   1.26199   2.47842
   2.95486   1.60616   2.67295
   3.46363   1.86054   2.76273
   4.12203   1.99521   2.77770
   4.94504   2.02514   2.70288
   5.99250   1.98025   2.58317
   7.18961   1.84558   2.38864
   8.52138   1.62112   2.16418
