********************************************************************************
              CENTRO DE INSTRUMENTACION Y REGISTRO SISMICO  A.C.

    Anaxagoras 814, Col. Narvarte, Benito Juarez, C.P. 03020 Mexico, D.F.
           Tels. 5687 45 42/ 5687 45  82             Fax. 5669 25 12
********************************************************************************
ARCHIVO ESTANDAR DE ACELERACION:
VERSION DEL FORMATO                    : 2.0
NOMBRE DEL ARCHIVO                     : AO2420120411225510
FECHA Y HORA DE CREACION               : 15/MAY/12, 09:49
REF. CATALOGO ACELEROGRAMAS, SMIS 1996 : REGISTRO No.     /PAG.


================================================================================
DATOS DE LA ESTACION:
NOMBRE DE LA ESTACION                  : ALBERCA OLÍMPICA
CLAVE DE LA ESTACION                   : AO24
LOCALIZACION DE LA ESTACION            : Del. Benito Juárez, Col. General Pedro 
                                       : María Anaya, Río Churubusco            
                                       : y División del Norte.                  
                                       :                                        
                                       : 
COORDENADAS DE LA ESTACION             : 19.3580 LAT. N
                                       : 99.1539 LONG. W
ALTITUD (msnm)                         : 2235
TIPO DE SUELO                          : Transición                          
                                       :                           
                                       : 
INSTITUCION RESPONSABLE                : CIRES
                                       : 

================================================================================
DATOS DEL ACELEROGRAFO:
MODELO DEL ACELEROGRAFO                : RADESD
NUMERO DE SERIE DEL ACELEROGRAFO       : 257
NUMERO DE CANALES                      : 3
ORIENTACION C1-C6 (rumbo;orientacion)  : /N00E/+V/N90W
ORIENTACION C7-C12 (rumbo;orientacion) : 
VEL. DE MUESTREO, C1-C6 (muestras/s)   : /100/100/100
VEL. DE MUESTREO, C7-C12 (muestras/s)  : 
ESC. COMPLETA DE SENSORES, C1-C6, (g)  : /0.5/0.5/0.5
ESC. COMPLETA DE SENSORES, C7-C12, (g) : 
FREC. NAT. DE SENSORES, C1-C6, (Hz)    : /30/30/30
FREC. NAT. DE SENSORES, C7-C12, (Hz)   : 
AMORTIGUAMIENTO DE SENSORES, C1-C6     : /0.700/0.700/0.700
AMORTIGUAMIENTO DE SENSORES, C7-C12    : 
INTERVALO DE MUESTREO, C1-C6, (s)      : /0.01/0.01/0.01
INTERVALO DE MUESTREO, C7-C12, (s)     : 
UMBRAL DE DISPARO, C1-C6, (Gal)        : /1.68/3.11/1.92
UMBRAL DE DISPARO, C7-C12, (Gal)       : 
MEMORIA DE PREEVENTO (s)               : 56.0
TIEMPO DE POSEVENTO (s)                : 64.0


================================================================================
DATOS DEL SISMO:
FECHA DEL SISMO (GMT)                  : 11/ABR/12
HORA EPICENTRO (GMT)                   : 22:55:10.0
MAGNITUD(ES)                           : /Mc=6.4
COORDENADAS DEL EPICENTRO              : 17.90 LAT. N
                                       : 103.06 LONG. W
PROFUNDIDAD FOCAL (km)                 : 16
FUENTE DE LOS DATOS EPICENTRALES       : SSN
                                       : INSTITUTO DE GEOFISICA, UNAM

================================================================================
DATOS DE ESTE REGISTRO:
HORA DE LA PRIMERA MUESTRA (GMT)       : 22:57:14.00
EXACTITUD DEL TIEMPO (s)               : 0.01
DURACION DEL REGISTRO (s), C1-C6       : /159.75/159.75/159.75
DURACION DEL REGISTRO (s), C7-C12      : 
NUM. TOTAL DE MUESTRAS, C1-C6          : /15975/15975/15975
NUM. TOTAL DE MUESTRAS, C7-C12         : 
ACEL. MAX. (Gal), C1-C6                : /4.6938/1.47517/3.80064
ACEL. MAX., C1-C6, EN LA MUESTRA       : /6783/7186/6923
ACEL. MAX. (Gal), C7-C12               : 
ACEL. MAX., C7-C12, EN LA MUESTRA      : 
UNIDADES DE LOS DATOS                  : Gal (cm/s/s)
FACTOR DE DECIMACION                   : 1
FORMATO DATOS (FORTRAN,10 campos/dato) : 3F10.5


================================================================================
CALIDAD DEL ACELEROGRAMA:
REGISTRO DIGITAL COMPLETO CON TIEMPO ABSOLUTO CORRECTO.


================================================================================
COMENTARIOS:














================================================================================
DATOS DE ACELERACION:
---------+---------+---------+---------+---------+---------+---------+---------+
   CANAL-1   CANAL-2   CANAL-3   CANAL-4   CANAL-5   CANAL-6   CANAL-7   CANAL-8
      N00E        +V      N90W
---------+---------+---------+---------+---------+---------+---------+---------+
[...]
   2.24938   0.03865  -0.26950
   2.24938   0.03865  -0.26950
   2.00996   0.03865  -0.26950
   2.00996   0.03865  -0.26950
   2.00996   0.03865  -0.26950
   1.77054   0.03865  -0.26950
   1.53112   0.03865  -0.26950
   1.53112   0.03865  -0.26950
   1.53112   0.03865  -0.26950
   1.29170   0.03865  -0.26950
   1.29170   0.27807  -0.26950
   1.05228   0.27807  -0.26950
   0.81286   0.27807  -0.26950
   0.57344   0.27807  -0.26950
   0.57344   0.27807  -0.50892
   0.33402   0.27807  -0.50892
   0.09460   0.27807  -0.26950
  -0.14482   0.51749  -0.50892
  -0.38424   0.27807  -0.50892
  -0.38424   0.51749  -0.50892
  -0.62366   0.51749  -0.50892
  -0.86308   0.51749  -0.74834
  -1.10250   0.51749  -0.74834
  -1.34192   0.51749  -0.74834
  -1.58134   0.51749  -0.74834
  -1.82076   0.51749  -0.74834
  -1.82076   0.27807  -0.74834
  -2.06018   0.27807  -0.98776
  -2.29960   0.27807  -0.98776
  -2.29960   0.27807  -1.22718
  -2.53902   0.51749  -0.98776
  -2.53902   0.51749  -1.22718
  -2.53902   0.27807  -1.22718
  -2.53902   0.27807  -1.22718
  -2.77844   0.27807  -1.22718
  -2.77844   0.03865  -1.22718
  -2.77844   0.03865  -1.46660
  -2.77844   0.27807  -1.46660
  -2.77844   0.03865  -1.46660
  -2.77844   0.03865  -1.46660
  -2.77844   0.03865  -1.46660
  -2.77844  -0.20077  -1.46660
  -2.77844  -0.20077  -1.46660
  -2.53902   0.03865  -1.46660
  -2.53902   0.03865  -1.46660
  -2.29960   0.03865  -1.46660
  -2.29960   0.03865  -1.46660
  -2.29960   0.03865  -1.46660
  -2.29960   0.03865  -1.46660
  -2.29960   0.03865  -1.46660
  -2.06018   0.27807  -1.22718
  -1.82076   0.27807  -1.46660
  -1.82076   0.51749  -1.22718
  -1.58134   0.51749  -1.22718
  -1.58134   0.75691  -0.98776
  -1.34192   0.51749  -0.98776
  -1.34192   0.75691  -0.98776
  -1.10250   0.75691  -0.74834
  -0.86308   0.51749  -0.74834
  -0.62366   0.51749  -0.50892
  -0.62366   0.51749  -0.50892
  -0.38424   0.51749  -0.26950
  -0.14482   0.51749  -0.26950
   0.09460   0.27807  -0.26950
   0.33402   0.27807  -0.26950
   0.57344   0.27807  -0.03008
   0.81286   0.03865  -0.03008
   1.05228   0.03865  -0.03008
   1.29170   0.03865  -0.03008
   1.53112   0.03865  -0.03008
   1.77054   0.03865  -0.03008
   2.00996   0.03865  -0.26950
   2.24938  -0.20077  -0.26950
   2.48880  -0.20077  -0.03008
   2.48880  -0.20077  -0.03008
   2.72822  -0.20077  -0.03008
   2.96764  -0.20077  -0.26950
   2.96764  -0.44019  -0.26950
   2.96764  -0.44019  -0.03008
   2.96764  -0.44019  -0.03008
   3.20706  -0.44019  -0.26950
   3.20706  -0.20077  -0.03008
   3.20706  -0.20077  -0.03008
   3.44648  -0.20077  -0.03008
   3.44648  -0.20077  -0.03008
   3.44648  -0.20077  -0.03008
   3.44648  -0.20077   0.20934
   3.20706   0.03865  -0.03008
   3.20706   0.03865  -0.03008
   3.20706   0.03865   0.20934
   3.20706   0.27807  -0.03008
   2.96764   0.03865   0.20934
   2.96764   0.03865   0.20934
   2.72822   0.03865   0.20934
   2.72822   0.03865   0.20934
   2.72822   0.03865   0.20934
   2.72822   0.03865   0.44876
   2.72822  -0.20077   0.20934
   2.48880  -0.20077   0.20934
   2.48880  -0.20077   0.44876
   2.24938  -0.44019   0.44876
   2.24938  -0.44019   0.20934
   2.24938  -0.44019   0.20934
   2.00996  -0.44019   0.20934
   2.00996  -0.44019   0.20934
   1.77054  -0.20077  -0.03008
   1.53112  -0.20077  -0.03008
   1.53112  -0.44019  -0.03008
   1.29170  -0.44019  -0.26950
   1.05228  -0.44019  -0.26950
   0.81286  -0.44019  -0.50892
   0.57344  -0.20077  -0.50892
   0.57344  -0.20077  -0.50892
   0.33402   0.03865  -0.74834
   0.09460  -0.20077  -0.74834
  -0.14482  -0.20077  -0.74834
  -0.38424  -0.20077  -0.98776
  -0.62366  -0.20077  -0.98776
  -0.86308  -0.20077  -0.98776
  -1.10250  -0.20077  -0.98776
  -1.34192  -0.20077  -1.22718
  -1.58134  -0.20077  -1.22718
  -1.82076  -0.44019  -1.22718
  -2.06018  -0.20077  -1.22718
  -2.29960  -0.20077  -1.22718
  -2.29960  -0.20077  -1.22718
  -2.53902  -0.44019  -1.22718
  -2.77844  -0.44019  -1.22718
  -3.01786  -0.20077  -1.22718
  -3.01786  -0.20077  -1.22718
  -3.25728  -0.20077  -1.46660
  -3.49670  -0.20077  -1.22718
  -3.49670  -0.20077  -1.22718
  -3.73612  -0.20077  -1.22718
  -3.73612  -0.20077  -1.22718
  -3.73612  -0.20077  -1.22718
  -3.73612  -0.20077  -1.22718
  -3.73612  -0.20077  -0.98776
  -3.73612  -0.20077  -1.22718
  -3.73612  -0.20077  -0.98776
  -3.49670   0.03865  -0.98776
  -3.49670   0.03865  -0.98776
  -3.49670   0.03865  -0.74834
  -3.49670   0.03865  -0.74834
  -3.25728   0.03865  -0.74834
  -3.01786   0.03865  -0.74834
  -3.01786   0.03865  -0.50892
  -2.77844  -0.20077  -0.50892
  -2.77844  -0.20077  -0.50892
  -2.53902  -0.20077  -0.50892
  -2.53902  -0.20077  -0.26950
  -2.29960  -0.20077  -0.26950
  -2.29960   0.03865  -0.26950
  -2.06018   0.03865  -0.26950
  -2.06018   0.03865  -0.26950
  -1.82076   0.27807  -0.03008
  -1.82076   0.03865  -0.03008
  -1.58134   0.27807   0.20934
  -1.34192   0.03865   0.20934
  -1.34192   0.03865   0.20934
  -1.10250   0.03865   0.44876
  -1.10250   0.03865   0.44876
  -0.86308   0.03865   0.68818
  -0.62366  -0.20077   0.68818
  -0.38424  -0.20077   0.92760
  -0.38424  -0.44019   1.16702
  -0.14482  -0.20077   1.16702
   0.09460  -0.44019   1.40644
   0.33402  -0.20077   1.64586
   0.33402  -0.44019   1.88528
   0.57344  -0.44019   2.12470
   0.81286  -0.44019   2.12470
   1.05228  -0.44019   2.36412
   1.29170  -0.44019   2.36412
   1.29170  -0.44019   2.60354
   1.53112  -0.44019   2.60354
   2.00996  -0.44019   2.60354
   2.00996  -0.44019   2.60354
   2.24938  -0.44019   2.84296
   2.24938  -0.44019   2.84296
   2.48880  -0.44019   2.60354
   2.72822  -0.20077   2.60354
   2.72822  -0.20077   2.60354
   2.96764  -0.20077   2.36412
   2.96764  -0.20077   2.36412
   2.96764  -0.20077   2.12470
   3.20706  -0.20077   2.12470
   3.20706  -0.20077   1.88528
   3.20706   0.03865   1.64586
   3.20706   0.03865   1.64586
   3.20706   0.03865   1.40644
   3.20706   0.03865   1.16702
   3.20706   0.03865   1.16702
   3.44648   0.03865   0.68818
   3.20706   0.03865   0.68818
   3.20706   0.03865   0.44876
   3.20706   0.03865   0.20934
   3.20706   0.27807   0.20934
   3.20706   0.27807  -0.26950
   3.20706   0.27807  -0.26950
   3.20706   0.27807  -0.26950
   3.20706   0.27807  -0.50892
   2.96764   0.27807  -0.50892
   2.96764   0.27807  -0.74834
   2.72822   0.27807  -0.98776
   2.72822   0.27807  -1.22718
   2.72822   0.27807  -1.22718
   2.72822   0.27807  -1.46660
   2.48880   0.27807  -1.46660
   2.48880   0.27807  -1.70602
   2.24938   0.27807  -1.70602
   2.24938   0.27807  -1.94544
   2.24938   0.27807  -1.94544
   2.00996   0.27807  -1.94544
   2.00996   0.27807  -2.18486
   1.77054   0.03865  -2.18486
   1.77054   0.03865  -2.18486
   1.53112   0.27807  -1.94544
   1.29170   0.27807  -2.18486
   1.05228   0.27807  -1.94544
   1.05228   0.27807  -1.94544
   0.81286   0.27807  -1.94544
   0.57344   0.27807  -1.94544
   0.33402   0.51749  -1.70602
   0.33402   0.27807  -1.46660
   0.09460   0.51749  -1.46660
  -0.14482   0.51749  -1.22718
  -0.38424   0.51749  -1.22718
  -0.38424   0.75691  -0.98776
  -0.62366   0.75691  -0.98776
  -0.86308   0.75691  -0.74834
  -0.86308   0.75691  -0.74834
  -1.10250   0.75691  -0.50892
  -1.34192   0.75691  -0.50892
  -1.58134   0.75691  -0.26950
  -1.82076   0.75691  -0.26950
  -2.06018   0.75691  -0.03008
  -2.29960   0.75691  -0.03008
  -2.29960   0.51749   0.20934
  -2.53902   0.51749   0.44876
  -2.77844   0.51749   0.44876
  -3.01786   0.51749   0.68818
  -3.01786   0.27807   0.68818
  -3.01786   0.27807   0.92760
  -3.25728   0.27807   1.16702
  -3.25728   0.27807   1.16702
  -3.25728   0.27807   1.40644
  -3.49670   0.03865   1.40644
  -3.49670   0.27807   1.40644
  -3.73612   0.03865   1.64586
  -3.73612   0.03865   1.64586
  -3.73612  -0.20077   1.88528
  -3.73612  -0.20077   1.88528
  -3.73612  -0.20077   1.88528
  -3.73612  -0.20077   2.12470
  -3.49670  -0.44019   2.12470
  -3.49670  -0.44019   2.12470
  -3.25728  -0.44019   2.12470
  -3.25728  -0.44019   2.12470
  -3.25728  -0.20077   2.12470
  -3.25728  -0.20077   2.12470
  -3.25728  -0.20077   2.12470
  -3.01786  -0.20077   2.12470
  -2.77844  -0.20077   2.12470
  -2.77844  -0.20077   2.12470
  -2.53902   0.03865   2.12470
  -2.29960   0.03865   2.12470
  -2.06018   0.03865   2.12470
  -1.82076   0.03865   2.12470
  -1.58134   0.03865   2.12470
  -1.34192   0.27807   2.12470
  -1.10250   0.27807   2.12470
  -0.86308   0.27807   2.12470
  -0.62366   0.27807   2.12470
  -0.14482   0.27807   2.12470
   0.09460   0.27807   2.12470
   0.33402   0.27807   1.88528
   0.57344   0.27807   1.88528
   0.81286   0.27807   1.64586
   1.05228   0.27807   1.64586
   1.29170   0.27807   1.88528
   1.53112   0.27807   1.64586
   1.77054   0.27807   1.64586
   2.00996   0.27807   1.40644
   2.24938   0.27807   1.40644
   2.48880   0.27807   1.40644
   2.72822   0.27807   1.16702
   2.96764   0.27807   1.16702
   3.20706   0.27807   0.92760
   3.20706   0.27807   0.68818
   3.44648   0.27807   0.68818
   3.68590   0.27807   0.44876
   3.68590   0.27807   0.20934
   3.92532   0.27807   0.20934
   3.92532   0.51749   0.20934
   3.92532   0.51749  -0.03008
   3.92532   0.75691  -0.03008
   3.92532   0.75691  -0.03008
   3.92532   0.75691  -0.26950
   3.92532   0.75691  -0.26950
   3.68590   0.75691  -0.26950
   3.68590   0.99633  -0.50892
   3.44648   0.75691  -0.50892
   3.44648   0.75691  -0.50892
   3.20706   0.75691  -0.74834
   2.96764   0.51749  -0.74834
   2.96764   0.51749  -0.74834
   2.72822   0.51749  -0.74834
   2.48880   0.51749  -0.98776
   2.24938   0.51749  -0.98776
   1.77054   0.27807  -0.74834
   1.53112   0.03865  -0.98776
   1.29170   0.03865  -0.74834
   1.05228   0.03865  -0.74834
   0.81286   0.03865  -0.98776
   0.57344  -0.20077  -0.98776
   0.33402  -0.20077  -0.74834
   0.09460  -0.20077  -0.98776
   0.09460  -0.44019  -0.98776
  -0.14482  -0.44019  -0.98776
  -0.38424  -0.67961  -0.74834
  -0.62366  -0.67961  -0.98776
  -0.86308  -0.67961  -0.98776
  -0.86308  -0.67961  -0.98776
  -1.10250  -0.44019  -0.98776
  -1.10250  -0.67961  -0.98776
  -1.34192  -0.44019  -0.98776
  -1.58134  -0.44019  -0.98776
  -1.82076  -0.44019  -0.98776
  -2.06018  -0.44019  -1.22718
  -2.06018  -0.44019  -1.22718
  -2.29960  -0.44019  -1.22718
  -2.53902  -0.67961  -1.46660
  -2.77844  -0.67961  -1.46660
  -3.01786  -0.91903  -1.46660
  -3.25728  -0.67961  -1.22718
  -3.25728  -0.67961  -1.46660
  -3.49670  -0.67961  -1.46660
  -3.73612  -0.91903  -1.46660
  -3.97554  -0.91903  -1.46660
  -3.97554  -0.67961  -1.46660
  -4.21496  -0.67961  -1.46660
  -4.21496  -0.91903  -1.46660
  -4.45438  -0.67961  -1.46660
  -4.45438  -0.67961  -1.46660
  -4.45438  -0.67961  -1.46660
  -4.69380  -0.44019  -1.46660
  -4.45438  -0.44019  -1.46660
  -4.45438  -0.44019  -1.46660
  -4.45438  -0.44019  -1.46660
  -4.45438  -0.44019  -1.46660
  -4.45438  -0.20077  -1.46660
  -4.21496  -0.44019  -1.70602
  -4.21496  -0.44019  -1.70602
  -3.97554  -0.20077  -1.70602
  -3.97554  -0.44019  -1.46660
  -3.97554  -0.20077  -1.46660
  -3.73612  -0.20077  -1.70602
  -3.25728  -0.20077  -1.46660
  -3.25728  -0.20077  -1.46660
  -3.01786  -0.20077  -1.46660
  -3.01786  -0.20077  -1.46660
  -2.53902  -0.20077  -1.46660
  -2.29960   0.03865  -1.46660
  -2.06018   0.03865  -1.46660
  -1.82076   0.03865  -1.46660
  -1.58134   0.03865  -1.22718
  -1.34192   0.03865  -1.22718
  -1.10250   0.03865  -1.22718
  -0.86308   0.03865  -1.22718
  -0.62366   0.03865  -0.98776
  -0.38424   0.03865  -0.74834
  -0.14482   0.03865  -0.74834
  -0.14482   0.03865  -0.74834
   0.33402   0.03865  -0.50892
   0.33402   0.27807  -0.50892
   0.57344   0.03865  -0.26950
   0.81286   0.03865  -0.26950
   0.81286   0.03865  -0.03008
   1.05228   0.03865   0.20934
   1.29170   0.27807   0.20934
   1.53112   0.27807   0.20934
   1.53112   0.27807   0.44876
   1.77054   0.03865   0.44876
   2.00996   0.03865   0.68818
   2.00996   0.03865   0.68818
   2.24938   0.03865   0.68818
   2.48880   0.27807   0.92760
   2.48880   0.03865   0.92760
   2.72822   0.03865   1.16702
   2.72822   0.03865   1.16702
   2.96764   0.03865   1.16702
   2.96764   0.27807   1.16702
   3.20706   0.03865   1.40644
   3.20706   0.03865   1.40644
   3.20706   0.03865   1.40644
   3.20706   0.03865   1.40644
   3.44648   0.27807   1.40644
   3.44648   0.03865   1.40644
   3.44648   0.27807   1.40644
   3.20706   0.03865   1.40644
   3.20706   0.03865   1.40644
   3.20706   0.03865   1.40644
   3.20706   0.03865   1.40644
   2.96764   0.03865   1.16702
   2.96764  -0.20077   1.16702
   2.96764  -0.20077   1.16702
   2.96764  -0.20077   1.16702
   2.72822  -0.20077   0.92760
   2.72822   0.03865   0.92760
   2.48880   0.03865   0.92760
   2.48880   0.03865   0.68818
   2.24938   0.03865   0.68818
   2.00996   0.03865   0.44876
   2.00996   0.03865   0.44876
   1.77054   0.03865   0.20934
   1.53112   0.03865  -0.03008
   1.29170   0.27807  -0.03008
   1.29170   0.03865  -0.26950
   1.05228   0.03865  -0.26950
   1.05228   0.03865  -0.26950
   0.81286   0.03865  -0.50892
   0.57344   0.03865  -0.50892
   0.57344   0.03865  -0.50892
   0.33402   0.03865  -0.74834
   0.09460   0.03865  -0.74834
   0.09460   0.03865  -0.98776
  -0.14482  -0.20077  -0.98776
  -0.14482  -0.20077  -1.22718
  -0.14482  -0.20077  -1.22718
  -0.38424  -0.20077  -1.22718
  -0.38424  -0.20077  -1.22718
  -0.62366  -0.20077  -1.46660
  -0.62366  -0.20077  -1.46660
  -0.62366  -0.20077  -1.46660
  -0.62366  -0.20077  -1.46660
  -0.86308  -0.20077  -1.46660
  -0.62366  -0.20077  -1.46660
  -0.62366  -0.44019  -1.46660
  -0.62366  -0.20077  -1.70602
  -0.62366  -0.20077  -1.46660
  -0.62366  -0.20077  -1.46660
  -0.62366  -0.20077  -1.46660
  -0.38424  -0.20077  -1.22718
  -0.38424  -0.20077  -1.22718
  -0.38424  -0.20077  -1.22718
  -0.38424  -0.20077  -1.22718
  -0.14482  -0.20077  -1.22718
  -0.14482   0.03865  -0.98776
  -0.14482   0.03865  -0.74834
  -0.14482   0.03865  -0.74834
  -0.14482   0.03865  -0.50892
  -0.14482  -0.20077  -0.50892
  -0.14482   0.03865  -0.26950
  -0.14482   0.03865  -0.26950
  -0.14482   0.03865  -0.03008
  -0.14482   0.03865  -0.03008
  -0.14482   0.03865   0.20934
  -0.14482   0.03865   0.44876
  -0.14482   0.03865   0.44876
  -0.14482   0.03865   0.68818
  -0.14482   0.03865   0.68818
  -0.14482   0.03865   0.92760
  -0.14482  -0.20077   0.92760
  -0.14482  -0.20077   1.16702
   0.09460  -0.20077   1.40644
  -0.14482  -0.20077   1.40644
   0.09460  -0.20077   1.64586
   0.09460  -0.20077   1.64586
   0.09460  -0.20077   1.88528
   0.09460  -0.20077   2.12470
   0.09460  -0.20077   2.12470
   0.09460  -0.20077   2.36412
   0.09460  -0.20077   2.36412
   0.09460  -0.20077   2.60354
   0.09460  -0.20077   2.60354
   0.33402  -0.20077   2.84296
   0.33402  -0.20077   2.84296
   0.33402  -0.20077   3.08238
   0.33402   0.03865   3.08238
   0.57344  -0.20077   3.08238
   0.57344  -0.20077   3.32180
   0.57344   0.03865   3.32180
   0.57344   0.03865   3.56122
   0.81286   0.03865   3.56122
   0.81286   0.03865   3.56122
   0.81286   0.03865   3.80064
   0.81286   0.27807   3.80064
   1.05228   0.27807   3.80064
   0.81286   0.27807   3.56122
   1.05228   0.27807   3.56122
   1.05228   0.27807   3.56122
   1.05228   0.27807   3.56122
   1.29170   0.27807   3.56122
   1.29170   0.27807   3.32180
   1.29170   0.27807   3.32180
