********************************************************************************
               CENTRO DE INSTRUMENTACION Y REGISTRO SISMICO  A.C.  
                       Coordinacion de Servicios Tecnicos
     Anaxagoras 814, Col. Narvarte, Benito Juarez, C.P. 03020 Mexico, D.F.
            Tels. 687 45 42/ 687 45  82             Fax. 669 25 12
********************************************************************************
ARCHIVO ESTANDAR DE ACELERACION:
VERSION DEL FORMATO                    : 2.0
NOMBRE DEL ARCHIVO                     : AO249701.111
FECHA Y HORA DE CREACION               : 19/MAR/98, 10:38
REF. CATALOGO ACELEROGRAMAS, SMIS 1996 : REGISTRO No.     /PAG.


================================================================================
DATOS DE LA ESTACION:
NOMBRE DE LA ESTACION                  : ALBERCA OLIMPICA
CLAVE DE LA ESTACION                   : AO24
LOCALIZACION DE LA ESTACION            : Alberca Olimpica Rio Churubusco y
                                       : Division del Norte, Col Pedro Ma
                                       : Anaya, Benito Juarez
                                       :
                                       :
COORDENADAS DE LA ESTACION             : 19.358 LAT. N 
                                       : 99.154 LONG. W 
ALTITUD (msnm)                         : 2235
TIPO DE SUELO                          : TRANSICION
                                       : 
                                       : 
INSTITUCION RESPONSABLE                : CIRES
                                       :

================================================================================
DATOS DEL ACELEROGRAFO:
MODELO DEL ACELEROGRAFO                : RAD-851
NUMERO DE SERIE DEL ACELEROGRAFO       : 257
NUMERO DE CANALES                      : 3
ORIENTACION C1-C6 (rumbo;orientacion)  : /N00E/+V/N90W
ORIENTACION C7-C12 (rumbo;orientacion) :
VEL. DE MUESTREO, C1-C6 (muestras/s)   : /100/100/100
VEL. DE MUESTREO, C7-C12 (muestras/s)  :
ESC. COMPLETA DE SENSORES, C1-C6, (g)  : /0.5/0.5/0.5
ESC. COMPLETA DE SENSORES, C7-C12, (g) :
FREC. NAT. DE SENSORES, C1-C6, (Hz)    : /30/30/30
FREC. NAT. DE SENSORES, C7-C12, (Hz)   :
AMORTIGUAMIENTO DE SENSORES, C1-C6     : /0.700/0.700/0.700
AMORTIGUAMIENTO DE SENSORES, C7-C12    :
INTERVALO DE MUESTREO, C1-C6, (s)      : /0.01/0.01/0.01
INTERVALO DE MUESTREO, C7-C12, (s)     :
UMBRAL DE DISPARO, C1-C6, (Gal)        : /1.95/2.93/1.95
UMBRAL DE DISPARO, C7-C12, (Gal)       :
MEMORIA DE PREEVENTO (s)               : 8
TIEMPO DE POSEVENTO (s)                : 8


================================================================================
DATOS DEL SISMO:
FECHA DEL SISMO (GMT)                  : 11/ENE/97
HORA EPICENTRO (GMT)                   : 20:28:27:2
MAGNITUD(ES)                           : /Ms=6.9
COORDENADAS DEL EPICENTRO              : 17.9 LAT. N
                                       : 103.0 LONG. W
PROFUNDIDAD FOCAL (km)                 : 16.0
FUENTE DE LOS DATOS EPICENTRALES       : SSN
                                       : INSTITUTO DE GEOFISICA, UNAM

================================================================================
DATOS DE ESTE REGISTRO:
HORA DE LA PRIMERA MUESTRA (GMT)       : 20:29:49.00
EXACTITUD DEL TIEMPO (s)               : 0.01
DURACION DEL REGISTRO (s), C1-C6       : /130.24/130.24/130.24
DURACION DEL REGISTRO (s), C7-C12      :
NUM. TOTAL DE MUESTRAS, C1-C6          : /13024/13024/13024
NUM. TOTAL DE MUESTRAS, C7-C12         :
ACEL. MAX. (Gal), C1-C6                : /13.06191/3.64840/8.91473
ACEL. MAX., C1-C6, EN LA MUESTRA       :
ACEL. MAX. (Gal), C7-C12               :
ACEL. MAX., C7-C12, EN LA MUESTRA      :
UNIDADES DE LOS DATOS                  : Gal (cm/s/s)
FACTOR DE DECIMACION                   : 1
FORMATO DATOS (FORTRAN,10 campos/dato) : 3F10.5


================================================================================
CALIDAD DEL ACELEROGRAMA:
REGISTRO DIGITAL COMPLETO CON TIEMPO ABSOLUTO CORRECTO.


================================================================================
COMENTARIOS:














================================================================================
DATOS DE ACELERACION:
---------+---------+---------+---------+---------+---------+---------+---------+
   CANAL-1   CANAL-2   CANAL-3   CANAL-4   CANAL-5   CANAL-6   CANAL-7   CANAL-8
      N00E        +V      N90W
---------+---------+---------+---------+---------+---------+---------+---------+
[...]
  -4.89451  -0.90056   0.29565
  -4.65509  -0.90056   0.05623
  -4.65509  -0.66115  -0.18319
  -4.41568  -0.42173  -0.42261
  -4.17626  -0.42173  -0.66203
  -3.93684  -0.18231  -0.90145
  -3.69742  -0.18231  -0.90145
  -3.45800   0.05711  -1.14087
  -3.21858   0.05711  -1.38028
  -2.97916   0.29653  -1.61970
  -2.50032   0.53595  -1.61970
  -2.26091   0.29653  -1.61970
  -1.78207   0.53595  -1.85912
  -1.54265   0.29653  -1.85912
  -1.06381   0.53595  -2.09854
  -0.82439   0.53595  -2.09854
  -0.34555   0.53595  -2.09854
  -0.10613   0.53595  -2.09854
   0.13328   0.53595  -2.09854
   0.61212   0.29653  -2.09854
   0.85154   0.53595  -2.33796
   1.09096   0.53595  -2.33796
   1.33038   0.29653  -2.57738
   1.33038   0.29653  -2.57738
   1.56980   0.29653  -2.57738
   1.80922   0.05711  -2.81680
   2.04864   0.29653  -2.81680
   2.04864   0.29653  -2.81680
   2.04864   0.29653  -3.05622
   2.04864   0.29653  -2.81680
   2.28805   0.53595  -2.57738
   2.28805   0.29653  -2.33796
   2.52747   0.53595  -2.33796
   2.76689   0.53595  -2.09854
   3.00631   0.77537  -1.61970
   3.00631   0.77537  -1.38028
   3.24573   0.77537  -0.90145
   3.48515   0.53595  -0.42261
   3.72457   1.01479   0.05623
   3.96399   0.77537   0.29565
   4.20341   0.77537   0.53507
   4.44283   0.77537   0.77449
   4.68224   1.01479   0.77449
   4.68224   0.77537   1.01390
   4.92166   0.77537   1.25332
   4.92166   0.77537   1.49274
   4.92166   0.77537   1.49274
   4.92166   1.01479   1.49274
   4.92166   0.77537   1.73216
   4.92166   0.77537   1.73216
   4.68224   0.77537   1.97158
   4.68224   0.77537   2.21100
   4.68224   0.77537   2.45042
   4.44283   0.77537   2.45042
   4.20341   0.53595   2.92926
   4.20341   0.53595   3.16868
   3.96399   0.53595   3.16868
   3.72457   0.29653   3.40809
   3.48515   0.29653   3.40809
   3.24573   0.05711   3.40809
   3.00631   0.05711   3.40809
   2.76689  -0.42173   3.64751
   2.52747  -0.42173   3.40809
   2.28805  -0.66115   3.40809
   2.04864  -0.66115   3.40809
   1.80922  -0.66115   3.40809
   1.33038  -0.66115   3.40809
   1.09096  -0.90056   3.40809
   0.85154  -0.90056   3.40809
   0.61212  -0.90056   3.16868
   0.13328  -0.90056   2.92926
  -0.10613  -0.90056   2.68984
  -0.34555  -0.66115   2.21100
  -0.82439  -0.90056   1.97158
  -1.30323  -0.90056   1.49274
  -1.54265  -0.90056   1.25332
  -1.78207  -0.90056   0.77449
  -2.02149  -0.66115   0.29565
  -2.26091  -0.66115   0.05623
  -2.73974  -0.66115  -0.18319
  -2.73974  -0.66115  -0.66203
  -2.97916  -0.42173  -0.90145
  -3.21858  -0.42173  -1.14087
  -3.45800  -0.18231  -1.61970
  -3.69742   0.05711  -1.85912
  -3.69742   0.05711  -2.09854
  -3.93684   0.05711  -2.33796
  -4.17626   0.05711  -2.57738
  -4.17626   0.29653  -2.81680
  -4.41568   0.29653  -3.05622
  -4.65509   0.29653  -3.05622
  -4.89451   0.05711  -3.29564
  -4.89451   0.05711  -3.53506
  -5.13393   0.05711  -3.53506
  -5.13393  -0.18231  -3.53506
  -5.13393  -0.42173  -3.53506
  -5.13393  -0.66115  -3.53506
  -4.89451  -0.66115  -3.29564
  -4.89451  -0.66115  -3.05622
  -4.65509  -0.66115  -3.05622
  -4.41568  -0.90056  -2.81680
  -4.17626  -0.90056  -2.81680
  -3.93684  -1.13998  -2.57738
  -3.93684  -0.90056  -2.33796
  -3.69742  -1.13998  -2.33796
  -3.45800  -1.13998  -2.09854
  -3.21858  -1.13998  -1.85912
  -3.21858  -1.37940  -1.61970
  -2.97916  -1.37940  -1.38028
  -2.97916  -1.37940  -1.38028
  -2.50032  -1.13998  -1.14087
  -2.50032  -1.37940  -0.90145
  -2.02149  -1.37940  -0.90145
  -1.78207  -1.13998  -0.66203
  -1.30323  -1.13998  -0.42261
  -0.82439  -1.13998  -0.18319
  -0.58497  -1.13998   0.05623
  -0.10613  -0.90056   0.53507
   0.37270  -0.90056   0.77449
   0.85154  -0.90056   0.77449
   1.09096  -0.66115   1.01390
   1.56980  -0.42173   1.01390
   1.80922  -0.42173   1.49274
   2.28805  -0.42173   1.49274
   2.52747  -0.18231   1.49274
   2.76689  -0.18231   1.25332
   3.24573  -0.18231   1.49274
   3.48515   0.05711   1.25332
   3.72457   0.05711   1.01390
   3.72457   0.05711   1.01390
   3.96399   0.05711   0.77449
   3.96399   0.05711   1.01390
   4.20341  -0.18231   0.77449
   4.44283  -0.18231   0.77449
   4.44283  -0.42173   0.77449
   4.68224  -0.42173   0.77449
   4.68224  -0.42173   0.77449
   4.92166  -0.42173   1.01390
   5.16108  -0.66115   1.01390
   5.16108  -0.66115   1.25332
   5.16108  -0.90056   1.49274
   5.40050  -1.13998   1.49274
   5.40050  -1.13998   1.49274
   5.63992  -1.13998   1.73216
   5.87934  -1.13998   1.73216
   5.87934  -1.13998   1.73216
   5.87934  -1.13998   1.97158
   5.87934  -0.90056   1.97158
   6.11876  -0.90056   1.97158
   6.11876  -0.90056   1.97158
   6.35818  -0.66115   1.97158
   6.11876  -0.66115   1.97158
   6.35818  -0.66115   1.73216
   6.11876  -0.42173   1.73216
   6.11876  -0.66115   1.73216
   6.11876  -0.66115   1.49274
   5.87934  -0.66115   1.49274
   5.87934  -0.90056   1.25332
   5.87934  -0.90056   1.01390
   5.63992  -0.90056   0.77449
   5.63992  -1.13998   0.53507
   5.40050  -1.13998   0.29565
   5.16108  -1.13998   0.05623
   4.92166  -1.13998  -0.18319
   4.68224  -1.37940  -0.42261
   4.20341  -1.13998  -0.42261
   3.72457  -1.13998  -0.90145
   3.24573  -0.90056  -1.14087
   2.76689  -0.90056  -1.38028
   2.04864  -0.66115  -1.61970
   1.80922  -0.66115  -1.85912
   1.09096  -0.66115  -2.09854
   0.61212  -0.42173  -2.33796
  -0.10613  -0.42173  -2.57738
  -0.58497  -0.18231  -3.05622
  -1.06381  -0.18231  -3.29564
  -1.54265  -0.18231  -3.29564
  -1.78207   0.05711  -3.53506
  -2.26091   0.05711  -3.77447
  -2.50032   0.29653  -3.77447
  -2.97916   0.29653  -3.53506
  -3.21858   0.53595  -3.53506
  -3.45800   0.77537  -3.53506
  -3.69742   0.77537  -3.53506
  -3.93684   1.01479  -3.29564
  -4.17626   1.01479  -3.29564
  -4.41568   1.01479  -2.81680
  -4.65509   1.01479  -2.57738
  -4.89451   1.01479  -2.33796
  -4.89451   1.01479  -2.09854
  -5.37335   1.25421  -1.85912
  -5.37335   1.01479  -1.61970
  -5.61277   1.01479  -1.38028
  -5.61277   1.01479  -1.14087
  -5.61277   1.01479  -1.14087
  -5.85219   0.77537  -0.90145
  -5.85219   0.77537  -0.66203
  -5.85219   0.77537  -0.66203
  -5.85219   0.77537  -0.66203
  -6.09161   1.01479  -0.42261
  -5.85219   1.25421  -0.18319
  -5.85219   1.25421   0.05623
  -5.85219   1.25421   0.29565
  -5.61277   1.49362   0.53507
  -5.61277   1.49362   0.77449
  -5.61277   1.73304   1.25332
  -5.37335   1.97246   1.73216
  -5.13393   1.97246   1.97158
  -5.13393   1.97246   2.45042
  -4.65509   1.97246   2.45042
  -4.65509   1.97246   2.92926
  -4.41568   1.97246   2.92926
  -4.17626   1.97246   3.40809
  -3.93684   1.97246   3.64751
  -3.69742   1.97246   3.88693
  -3.45800   1.97246   3.88693
  -3.21858   1.97246   4.12635
  -2.97916   1.73304   4.12635
  -2.97916   1.49362   4.12635
  -2.73974   1.49362   4.12635
  -2.26091   1.49362   4.12635
  -2.02149   1.25421   4.12635
  -1.78207   1.25421   4.12635
  -1.54265   1.25421   4.12635
  -1.06381   1.01479   3.88693
  -0.82439   1.01479   3.88693
  -0.58497   0.77537   3.88693
  -0.10613   0.77537   3.88693
   0.13328   0.53595   3.88693
   0.61212   0.53595   3.88693
   1.09096   0.29653   3.88693
   1.56980   0.29653   3.88693
   1.80922   0.05711   3.88693
   2.28805  -0.18231   3.88693
   2.76689  -0.18231   3.88693
   3.24573  -0.18231   4.12635
   3.72457  -0.18231   4.12635
   3.96399  -0.18231   4.12635
   4.44283  -0.18231   4.12635
   4.92166  -0.18231   4.12635
   5.16108  -0.42173   4.12635
   5.40050  -0.18231   4.12635
   5.63992  -0.18231   4.12635
   5.63992  -0.18231   3.88693
   6.11876   0.29653   3.64751
   5.87934   0.29653   3.40809
   5.87934   0.53595   3.40809
   5.87934   0.77537   3.16868
   5.63992   1.01479   2.68984
   5.87934   1.25421   2.68984
   5.87934   1.49362   1.97158
   5.87934   1.49362   1.73216
   5.87934   1.97246   1.25332
   5.63992   1.97246   1.01390
   5.87934   2.21188   0.53507
   5.87934   1.97246   0.29565
   5.87934   1.97246   0.05623
   5.63992   1.97246  -0.18319
   5.63992   1.97246  -0.66203
   5.40050   1.73304  -0.90145
   5.16108   1.49362  -1.14087
   4.68224   1.49362  -1.38028
   4.44283   1.01479  -1.61970
   3.96399   1.01479  -1.85912
   3.48515   0.77537  -2.33796
   3.00631   0.77537  -2.57738
   2.28805   0.53595  -2.81680
   1.80922   0.29653  -3.05622
   1.33038   0.05711  -3.29564
   0.85154   0.05711  -3.53506
   0.37270   0.05711  -3.77447
  -0.10613   0.05711  -4.25331
  -0.58497   0.05711  -4.25331
  -1.30323   0.05711  -4.25331
  -1.78207   0.05711  -4.49273
  -2.26091  -0.18231  -4.73215
  -2.73974  -0.18231  -4.73215
  -3.45800  -0.18231  -4.73215
  -3.93684  -0.18231  -4.73215
  -4.41568  -0.42173  -4.97157
  -4.89451  -0.42173  -4.97157
  -5.37335  -0.42173  -4.97157
  -5.85219  -0.18231  -4.97157
  -6.09161  -0.18231  -4.73215
  -6.57045  -0.18231  -4.73215
  -6.80987  -0.18231  -4.97157
  -7.28870   0.05711  -4.73215
  -7.52812  -0.18231  -4.25331
  -8.00696  -0.18231  -4.25331
  -8.24638  -0.18231  -4.01389
  -8.48580  -0.18231  -3.77447
  -8.72522  -0.18231  -3.77447
  -9.20405   0.05711  -3.53506
  -9.44347  -0.18231  -3.05622
  -9.68289  -0.18231  -3.05622
  -9.92231  -0.18231  -2.81680
 -10.16173  -0.18231  -2.57738
  -9.92231  -0.42173  -2.33796
 -10.16173  -0.66115  -2.09854
 -10.16173  -0.66115  -2.09854
 -10.16173  -0.42173  -1.85912
 -10.16173  -0.66115  -1.85912
  -9.92231  -0.66115  -1.61970
  -9.68289  -0.42173  -1.38028
  -9.68289  -0.66115  -1.14087
  -9.68289  -0.66115  -0.90145
  -9.20405  -0.66115  -0.66203
  -8.96464  -0.66115  -0.42261
  -8.72522  -0.42173  -0.18319
  -8.72522  -0.66115   0.05623
  -8.24638  -0.66115   0.29565
  -7.76754  -0.66115   0.53507
  -7.52812  -0.66115   0.53507
  -7.28870  -0.66115   0.77449
  -6.80987  -0.90056   1.01390
  -6.33103  -0.90056   1.25332
  -5.85219  -0.90056   1.49274
  -5.37335  -0.90056   1.49274
  -4.65509  -0.90056   1.73216
  -4.17626  -0.66115   1.97158
  -3.45800  -0.66115   2.21100
  -2.73974  -0.42173   2.45042
  -2.02149  -0.42173   2.45042
  -1.54265  -0.18231   2.45042
  -0.82439  -0.18231   2.68984
   0.13328   0.05711   2.68984
   0.61212   0.05711   2.92926
   1.33038   0.05711   2.92926
   1.80922   0.05711   3.16868
   2.76689  -0.18231   3.16868
   3.48515  -0.18231   3.16868
   4.20341  -0.18231   3.16868
   4.68224  -0.42173   3.40809
   5.40050  -0.42173   3.40809
   6.11876  -0.66115   3.64751
   6.59760  -0.66115   3.64751
   7.31585  -0.90056   3.88693
   7.79469  -1.13998   3.88693
   8.51295  -1.13998   3.88693
   9.23120  -1.13998   3.88693
   9.71004  -1.37940   3.88693
  10.18888  -1.37940   3.88693
  10.66772  -1.37940   3.64751
  11.14656  -1.37940   3.40809
  11.62539  -1.37940   3.40809
  12.10423  -1.37940   3.16868
  12.34365  -1.37940   2.68984
  12.58307  -1.13998   2.21100
  12.82249  -1.13998   1.97158
  13.06191  -1.13998   1.73216
  13.06191  -0.90056   1.01390
  13.06191  -0.90056   0.77449
  12.82249  -0.90056   0.53507
  12.82249  -0.90056   0.29565
  12.58307  -0.90056  -0.42261
  12.58307  -0.90056  -0.66203
  12.34365  -0.90056  -0.90145
  11.86481  -1.13998  -1.61970
  11.62539  -1.13998  -1.85912
  11.14656  -1.13998  -2.33796
  10.66772  -1.13998  -2.57738
  10.18888  -1.13998  -3.05622
   9.71004  -1.37940  -3.53506
   9.23120  -1.37940  -3.77447
   8.75237  -1.13998  -4.25331
   8.03411  -1.13998  -4.49273
   7.55527  -0.90056  -4.97157
   6.59760  -0.90056  -5.21099
   5.87934  -0.66115  -5.45041
   5.16108  -0.42173  -5.68983
   4.44283  -0.66115  -5.92924
   3.96399  -0.66115  -6.16866
   3.00631  -0.66115  -6.40808
   2.04864  -0.42173  -6.40808
   1.56980  -0.66115  -6.64750
   0.61212  -0.90056  -6.88692
   0.13328  -1.13998  -6.88692
  -0.58497  -1.13998  -7.12634
  -1.30323  -1.37940  -7.12634
  -1.78207  -1.37940  -7.12634
  -2.26091  -1.61882  -7.36576
  -2.73974  -1.61882  -7.36576
  -3.45800  -1.61882  -7.36576
  -3.93684  -1.61882  -7.36576
  -4.65509  -1.85824  -7.60518
  -4.89451  -1.85824  -7.60518
  -5.37335  -1.85824  -7.60518
  -6.09161  -1.85824  -7.36576
  -6.80987  -1.85824  -7.12634
  -7.28870  -1.85824  -7.12634
  -7.76754  -1.85824  -7.12634
  -8.24638  -1.85824  -6.88692
  -8.72522  -1.85824  -6.64750
  -9.20405  -1.85824  -6.64750
  -9.44347  -1.85824  -6.16866
  -9.68289  -1.85824  -6.16866
 -10.16173  -1.85824  -5.68983
 -10.40115  -1.61882  -5.45041
 -10.40115  -1.61882  -5.21099
 -10.40115  -1.61882  -4.97157
 -10.64057  -1.61882  -4.49273
 -10.64057  -1.37940  -4.25331
 -10.40115  -1.37940  -3.77447
 -10.40115  -1.37940  -3.53506
 -10.16173  -1.13998  -3.05622
  -9.92231  -1.13998  -2.57738
  -9.92231  -1.13998  -2.09854
  -9.44347  -1.13998  -1.61970
  -9.20405  -0.90056  -1.14087
  -9.20405  -0.90056  -0.66203
  -8.72522  -0.90056  -0.18319
  -8.48580  -0.90056   0.29565
  -8.00696  -0.90056   0.29565
  -7.52812  -0.66115   0.77449
  -7.04928  -0.66115   1.25332
  -6.80987  -0.42173   1.73216
  -6.33103  -0.42173   1.73216
  -5.61277  -0.18231   1.97158
  -5.13393  -0.18231   2.21100
  -4.65509   0.05711   2.45042
  -4.17626   0.29653   2.68984
  -3.45800   0.53595   2.92926
  -2.97916   0.53595   3.16868
  -2.26091   0.53595   3.40809
  -1.78207   0.77537   3.40809
  -1.30323   0.77537   3.88693
  -0.58497   1.01479   3.88693
   0.13328   1.25421   4.12635
   0.61212   1.25421   4.36577
   1.09096   1.25421   4.36577
   1.56980   1.01479   4.36577
   2.28805   1.25421   4.36577
   3.00631   1.25421   4.36577
   3.48515   1.25421   4.36577
   4.20341   1.25421   4.36577
   4.68224   1.25421   4.36577
   5.16108   1.01479   4.12635
   5.87934   0.77537   4.12635
   6.35818   0.77537   4.12635
   6.83701   0.77537   3.88693
   7.31585   0.77537   3.88693
   7.55527   0.77537   4.12635
   7.79469   0.77537   3.88693
   8.03411   1.01479   3.88693
   8.27353   0.77537   3.88693
   8.51295   1.01479   3.88693
   8.51295   1.01479   3.64751
   8.75237   1.01479   3.40809
   8.75237   1.01479   3.16868
   8.75237   1.25421   3.16868
   8.75237   1.01479   2.92926
   8.75237   1.01479   2.92926
   8.51295   0.77537   2.68984
   8.51295   0.77537   2.45042
   8.51295   0.77537   2.21100
   8.51295   0.77537   1.97158
   8.27353   0.77537   1.73216
   8.03411   0.77537   1.73216
   8.03411   0.77537   1.49274
   7.79469   0.77537   1.25332
   7.55527   0.77537   1.01390
   7.31585   0.77537   0.77449
   6.83701   0.77537   0.53507
   6.35818   0.77537   0.29565
   5.87934   1.01479   0.29565
   5.63992   0.77537   0.29565
   4.92166   1.01479   0.05623
   4.44283   1.01479   0.05623
   3.72457   1.01479  -0.18319
   3.24573   1.01479  -0.18319
   2.52747   1.25421  -0.18319
   1.80922   1.49362  -0.18319
   1.09096   1.25421  -0.18319
   0.13328   1.49362  -0.42261
  -0.34555   1.49362  -0.42261
  -1.30323   1.49362  -0.66203
  -1.78207   1.73304  -0.90145
  -2.50032   1.73304  -0.90145
  -3.21858   1.73304  -1.14087
  -3.93684   1.73304  -1.38028
  -4.41568   1.97246  -1.38028
  -5.13393   1.97246  -1.61970
  -5.61277   1.73304  -1.61970
  -6.09161   1.73304  -1.61970
  -6.80987   1.73304  -1.61970
  -7.28870   1.73304  -1.61970
  -7.76754   1.49362  -1.38028
  -8.24638   1.25421  -1.14087
  -8.72522   1.25421  -1.14087
  -8.96464   1.25421  -1.14087
  -9.44347   1.01479  -0.90145
  -9.44347   0.77537  -0.66203
  -9.68289   0.53595  -0.42261
  -9.92231   0.29653  -0.42261
 -10.16173   0.05711  -0.18319
 -10.16173  -0.18231  -0.18319
 -10.16173  -0.42173   0.05623
 -10.16173  -0.42173   0.05623
 -10.16173  -0.42173   0.05623
 -10.40115  -0.66115   0.29565
