********************************************************************************
              CENTRO DE INSTRUMENTACION Y REGISTRO SISMICO  A.C.

    Anaxagoras 814, Col. Narvarte, Benito Juarez, C.P. 03020 Mexico, D.F.
           Tels. 5687 45 42/ 5687 45  82             Fax. 5669 25 12
********************************************************************************
ARCHIVO ESTANDAR DE ACELERACION:
VERSION DEL FORMATO                    : 2.0
NOMBRE DEL ARCHIVO                     : AO2420140508170016
FECHA Y HORA DE CREACION               : 22/MAY/14, 13:42
REF. CATALOGO ACELEROGRAMAS, SMIS 1996 : REGISTRO No.     /PAG.


================================================================================
DATOS DE LA ESTACION:
NOMBRE DE LA ESTACION                  : ALBERCA OLÍMPICA
CLAVE DE LA ESTACION                   : AO24
LOCALIZACION DE LA ESTACION            : Del. Benito Juárez, Col. General Pedro 
                                       : María Anaya, Río Churubusco            
                                       : y División del Norte.                  
                                       :                                        
                                       : 
COORDENADAS DE LA ESTACION             : 19.3580 LAT. N
                                       : 99.1539 LONG. W
ALTITUD (msnm)                         : 2235
TIPO DE SUELO                          : Transición                          
                                       :                           
                                       : 
INSTITUCION RESPONSABLE                : CIRES
                                       : 

================================================================================
DATOS DEL ACELEROGRAFO:
MODELO DEL ACELEROGRAFO                : RADESD
NUMERO DE SERIE DEL ACELEROGRAFO       : 257
NUMERO DE CANALES                      : 3
ORIENTACION C1-C6 (rumbo;orientacion)  : /N00E/+V/N90W
ORIENTACION C7-C12 (rumbo;orientacion) : 
VEL. DE MUESTREO, C1-C6 (muestras/s)   : /100/100/100
VEL. DE MUESTREO, C7-C12 (muestras/s)  : 
ESC. COMPLETA DE SENSORES, C1-C6, (g)  : /0.5/0.5/0.5
ESC. COMPLETA DE SENSORES, C7-C12, (g) : 
FREC. NAT. DE SENSORES, C1-C6, (Hz)    : /30/30/30
FREC. NAT. DE SENSORES, C7-C12, (Hz)   : 
AMORTIGUAMIENTO DE SENSORES, C1-C6     : /0.700/0.700/0.700
AMORTIGUAMIENTO DE SENSORES, C7-C12    : 
INTERVALO DE MUESTREO, C1-C6, (s)      : /0.01/0.01/0.01
INTERVALO DE MUESTREO, C7-C12, (s)     : 
UMBRAL DE DISPARO, C1-C6, (Gal)        : /1.65/3.14/1.95
UMBRAL DE DISPARO, C7-C12, (Gal)       : 
MEMORIA DE PREEVENTO (s)               : 44.0
TIEMPO DE POSEVENTO (s)                : 64.0


================================================================================
DATOS DEL SISMO:
FECHA DEL SISMO (GMT)                  : 08/MAY/14
HORA EPICENTRO (GMT)                   : 17:00:16.0
MAGNITUD(ES)                           : /Mc=6.4
COORDENADAS DEL EPICENTRO              : 17.11 LAT. N
                                       : 100.87 LONG. W
PROFUNDIDAD FOCAL (km)                 : 17
FUENTE DE LOS DATOS EPICENTRALES       : SSN
                                       : INSTITUTO DE GEOFISICA, UNAM

================================================================================
DATOS DE ESTE REGISTRO:
HORA DE LA PRIMERA MUESTRA (GMT)       : 17:01:04.00
EXACTITUD DEL TIEMPO (s)               : 0.01
DURACION DEL REGISTRO (s), C1-C6       : /255.6/255.6/255.6
DURACION DEL REGISTRO (s), C7-C12      : 
NUM. TOTAL DE MUESTRAS, C1-C6          : /25560/25560/25560
NUM. TOTAL DE MUESTRAS, C7-C12         : 
ACEL. MAX. (Gal), C1-C6                : /21.36448/5.02022/14.38492
ACEL. MAX., C1-C6, EN LA MUESTRA       : /7895/8335/8869
ACEL. MAX. (Gal), C7-C12               : 
ACEL. MAX., C7-C12, EN LA MUESTRA      : 
UNIDADES DE LOS DATOS                  : Gal (cm/s/s)
FACTOR DE DECIMACION                   : 1
FORMATO DATOS (FORTRAN,10 campos/dato) : 3F10.5


================================================================================
CALIDAD DEL ACELEROGRAMA:
REGISTRO DIGITAL COMPLETO CON TIEMPO ABSOLUTO CORRECTO.


================================================================================
COMENTARIOS:














================================================================================
DATOS DE ACELERACION:
---------+---------+---------+---------+---------+---------+---------+---------+
   CANAL-1   CANAL-2   CANAL-3   CANAL-4   CANAL-5   CANAL-6   CANAL-7   CANAL-8
      N00E        +V      N90W
---------+---------+---------+---------+---------+---------+---------+---------+
[...]
   0.50500  -0.33656  -4.35920
   0.69953  -0.77051  -4.20956
   0.86413  -1.21943  -3.97014
   1.02873  -1.50374  -3.70079
   1.07362  -1.65337  -3.50626
   1.07362  -1.78805  -3.28181
   0.98384  -1.83294  -3.17706
   0.78931  -1.72819  -3.05735
   0.54989  -1.50374  -2.89275
   0.28054  -1.23439  -2.74311
   0.10098  -0.92015  -2.57851
   0.04112  -0.63584  -2.30916
   0.05609  -0.47124  -2.14456
   0.13090  -0.41138  -1.92011
   0.25061  -0.29167  -1.66572
   0.43018  -0.18693  -1.41134
   0.62471  -0.05225  -1.18688
   0.86413   0.05249  -0.94746
   1.07362   0.03753  -0.76790
   1.29808  -0.11211  -0.52848
   1.50757  -0.39642  -0.25913
   1.65721  -0.75555   0.02518
   1.82181  -1.00993   0.35439
   1.86670  -1.21943   0.63870
   1.89663  -1.41395   0.86315
   1.89663  -1.56359   1.08761
   1.88166  -1.87783   1.25221
   1.82181  -2.20703   1.40185
   1.80685  -2.41653   1.62631
   1.76195  -2.65595   1.77594
   1.80685  -2.83551   1.91062
   1.77692  -2.92529   1.94054
   1.71706  -2.85048   1.98544
   1.59735  -2.77566   1.95551
   1.55246  -2.56616   1.92558
   1.53750  -2.35667   1.92558
   1.50757  -2.02747   1.86573
   1.50757  -1.65337   1.86573
   1.52253  -1.11468   1.97047
   1.61232  -0.48620   2.13507
   1.74699   0.08242   2.40442
   1.88166   0.59119   2.73362
   2.01634   0.99521   3.18254
   2.09116   1.26456   3.67634
   2.13605   1.41420   4.20007
   2.22583   1.50398   4.66395
   2.34554   1.53391   4.99315
   2.34554   1.39923   5.24754
   2.39043   1.24959   5.39717
   2.45029   1.05507   5.39717
   2.51014   0.75579   5.24754
   2.54007   0.48644   5.00812
   2.65978   0.18717   4.78366
   2.77949  -0.08218   4.49935
   2.94409  -0.26175   4.11029
   3.12366  -0.35153   3.72123
   3.31819  -0.38146   3.36210
   3.52768  -0.38146   3.07779
   3.64739  -0.33656   2.82341
   3.82695  -0.11211   2.62888
   4.03645   0.09739   2.47924
   4.27587   0.17220   2.37449
   4.39558   0.12731   2.28471
   4.51529   0.06746   2.13507
   4.56018   0.12731   2.01536
   4.59010   0.20213   2.01536
   4.56018   0.32184   1.98544
   4.42550   0.50141   1.88069
   4.29083   0.65104   1.77594
   4.12623   0.83061   1.61134
   3.93170   0.92039   1.46170
   3.69228   1.11492   1.43178
   3.42293   1.30945   1.38689
   3.13862   1.47405   1.34199
   2.94409   1.68354   1.26718
   2.80942   1.77333   1.20732
   2.73460   1.80325   1.16243
   2.64482   1.65362   1.16243
   2.52511   1.47405   1.13250
   2.45029   1.21967   0.99783
   2.43532   0.90543   0.75841
   2.42036   0.69594   0.44417
   2.39043   0.51637   0.01022
   2.39043   0.32184  -0.45366
   2.40540   0.14228  -0.88761
   2.45029   0.00760  -1.27666
   2.49518  -0.00736  -1.66572
   2.59992   0.11235  -1.93507
   2.73460   0.32184  -2.15953
   2.94409   0.57623  -2.32413
   3.10869   0.81565  -2.42887
   3.28826   1.08499  -2.53362
   3.51271   1.36930  -2.65333
   3.70724   1.51894  -2.80297
   3.90177   1.63865  -3.02742
   4.08134   1.78829  -3.20699
   4.36565   1.89304  -3.43145
   4.57514   2.02771  -3.62597
   4.79960   2.26713  -3.82050
   5.02405   2.47662  -4.07489
   5.20362   2.68612  -4.32927
   5.36822   2.91057  -4.50884
   5.50289   3.07517  -4.64351
   5.59268   3.13503  -4.70337
   5.63757   3.10510  -4.77818
   5.68246   2.98539  -4.79315
   5.69742   2.83575  -4.76322
   5.68246   2.58137  -4.77818
   5.68246   2.29706  -4.70337
   5.66750   1.98282  -4.62855
   5.65253   1.63865  -4.49387
   5.56275   1.27952  -4.28438
   5.50289   1.11492  -4.10481
   5.48793   1.04010  -3.86539
   5.51786   0.96528  -3.59605
   5.59268   1.04010  -3.41648
   5.72735   1.18974  -3.26684
   5.86202   1.30945  -3.05735
   5.96677   1.44412  -2.92268
   6.14634   1.60872  -2.75808
   6.29597   1.77333  -2.71319
   6.40072   1.83318  -2.68326
   6.52043   1.87807  -2.62340
   6.56532   1.92296  -2.56355
   6.58028   1.89304  -2.51866
   6.59525   1.83318  -2.53362
   6.56532   1.80325  -2.56355
   6.46057   1.71347  -2.66829
   6.25108   1.57880  -2.77304
   6.02663   1.44412  -2.80297
   5.71239   1.29449  -2.92268
   5.41311   1.05507  -2.87779
   5.08391   0.87550  -2.69822
   4.75471   0.77075  -2.51866
   4.39558   0.63608  -2.24931
   4.06637   0.45652  -1.90514
   3.72221   0.26199  -1.41134
   3.36308   0.05249  -0.85768
   2.98898  -0.12707  -0.19927
   2.61489  -0.30664   0.44417
   2.25576  -0.45627   1.08761
   1.83677  -0.53109   1.64127
   1.49261  -0.59095   2.17996
   1.23822  -0.71066   2.67377
   1.02873  -0.84533   3.12268
   0.80427  -0.92015   3.48181
   0.59478  -0.90519   3.76612
   0.32543  -0.87526   3.96065
   0.07105  -0.84533   4.18511
  -0.22823  -0.83037   4.33475
  -0.55743  -0.80044   4.45446
  -0.90160  -0.75555   4.63402
  -1.24576  -0.68073   4.81359
  -1.72460  -0.50117   4.90337
  -2.23337  -0.24678   4.97819
  -2.75710   0.00760   5.06797
  -3.22098   0.24702   5.14279
  -3.66989   0.41162   5.14279
  -4.04398   0.63608   5.08293
  -4.40312   0.87550   5.03804
  -4.67246   1.02514   5.02308
  -4.98670   1.14485   4.96322
  -5.28598   1.17478   4.91833
  -5.66007   1.18974   4.79862
  -6.04913   1.20470   4.67891
  -6.43819   1.23463   4.55920
  -6.85717   1.29449   4.42453
  -7.23127   1.27952   4.27489
  -7.65025   1.35434   4.17014
  -8.09916   1.36930   4.17014
  -8.56304   1.38427   4.21504
  -9.04188   1.39923   4.27489
  -9.49079   1.45909   4.36467
 -10.07438   1.47405   4.45446
 -10.64300   1.45909   4.51431
 -11.24155   1.51894   4.55920
 -11.89996   1.57880   4.57417
 -12.57333   1.62369   4.58913
 -13.18684   1.68354   4.57417
 -13.84525   1.74340   4.64899
 -14.50365   1.81822   4.76870
 -15.14710   1.89304   4.90337
 -15.77557   1.98282   5.09790
 -16.43398   1.96786   5.30739
 -17.03253   1.98282   5.47199
 -17.61612   2.05764   5.63659
 -18.16977   1.99778   5.83112
 -18.61869   1.87807   5.92090
 -18.97782   1.66858   6.02565
 -19.24717   1.30945   6.05558
 -19.42673   0.89046   6.04061
 -19.47162   0.48644   6.01069
 -19.47162   0.06746   5.93587
 -19.47162  -0.36649   5.84609
 -19.44169  -0.74059   5.69645
 -19.42673  -1.14461   5.56177
 -19.53148  -1.54863   5.39717
 -19.68111  -1.69827   5.21761
 -19.84572  -1.81798   5.08293
 -19.99535  -1.98258   4.88841
 -20.14499  -2.13222   4.64899
 -20.21981  -2.26689   4.30482
 -20.11506  -2.44645   4.00554
 -19.92053  -2.62602   3.64641
 -19.60630  -2.80558   3.24239
 -19.11249  -2.92529   2.82341
 -18.54387  -3.00011   2.29967
 -17.88546  -3.11982   1.79091
 -17.16720  -3.25450   1.22228
 -16.43398  -3.35924   0.60877
 -15.64090  -3.43406   0.01022
 -14.77300  -3.44903  -0.61826
 -13.89014  -3.47895  -1.23177
 -12.97735  -3.40413  -1.80040
 -12.03463  -3.31435  -2.32413
 -11.07695  -3.23953  -2.78800
 -10.05942  -3.14975  -3.35663
  -9.04188  -3.04500  -3.85043
  -7.94953  -2.95522  -4.35920
  -6.81228  -2.89537  -4.80811
  -5.69000  -2.86544  -5.30192
  -4.47793  -2.83551  -5.79572
  -3.20601  -2.80558  -6.24463
  -1.91913  -2.76069  -6.66362
  -0.64721  -2.74573  -6.96289
   0.69953  -2.70084  -7.21728
   1.95648  -2.70084  -7.35195
   3.19848  -2.79062  -7.45670
   4.39558  -2.94026  -7.50159
   5.54779  -3.13479  -7.56144
   6.65510  -3.28442  -7.65123
   7.71753  -3.43406  -7.75597
   8.75003  -3.43406  -7.89065
   9.70771  -3.32932  -8.02532
  10.65043  -3.16471  -8.15999
  11.53329  -2.88040  -8.21985
  12.35630  -2.62602  -8.33956
  13.25412  -2.25193  -8.45927
  14.09209  -1.89280  -8.60891
  14.78043  -1.57856  -8.75854
  15.43883  -1.20446  -8.86329
  15.97753  -0.87526  -8.95307
  16.35162  -0.65080  -9.08775
  16.54615  -0.53109  -9.17753
  16.60600  -0.48620  -9.31220
  16.57608  -0.44131  -9.40199
  16.41148  -0.47124  -9.43191
  16.11220  -0.62088  -9.46184
  15.76803  -0.75555  -9.41695
  15.30416  -0.86030  -9.35709
  14.81035  -1.02490  -9.31220
  14.28662  -1.21943  -9.19249
  13.71800  -1.33914  -8.93811
  13.14938  -1.42892  -8.59394
  12.65557  -1.47381  -8.08517
  12.11688  -1.54863  -7.47166
  11.47343  -1.59352  -6.84318
  10.78510  -1.63841  -6.05010
  10.03691  -1.59352  -5.25702
   9.21391  -1.53366  -4.50884
   8.37594  -1.45885  -3.85043
   7.56789  -1.36906  -3.20699
   6.74489  -1.20446  -2.56355
   5.89195  -0.96504  -1.99492
   5.02405  -0.68073  -1.41134
   4.15616  -0.36649  -0.81279
   3.31819  -0.03729  -0.09453
   2.49518   0.30688   0.71352
   1.61232   0.59119   1.55149
   0.74442   0.80068   2.44931
  -0.15341   0.96528   3.33217
  -1.08116   1.12988   4.18511
  -2.00891   1.18974   5.02308
  -2.83192   1.21967   5.87601
  -3.62500   1.15981   6.60924
  -4.41808   1.05507   7.23772
  -5.19619   0.99521   7.83627
  -5.94438   0.96528   8.33007
  -6.55790   1.09996   8.61438
  -7.14148   1.21967   8.97351
  -7.71011   1.30945   9.34761
  -8.21887   1.42916   9.64688
  -8.57800   1.53391   9.82645
  -9.01195   1.75836  10.11076
  -9.41597   1.78829  10.51478
  -9.74518   1.77333  10.94873
 -10.07438   1.78829  11.29289
 -10.40358   1.87807  11.65202
 -10.79264   1.84815  12.13087
 -11.10688   1.68354  12.54985
 -11.34630   1.50398  12.93891
 -11.61565   1.38427  13.34293
 -11.78025   1.21967  13.68710
 -11.88500   1.07003  13.97141
 -11.89996   0.93536  14.16594
 -11.87003   0.80068  14.25572
 -11.73536   0.72586  14.30061
 -11.42112   0.66601  14.28565
 -11.04702   0.62112  14.18090
 -10.58315   0.71090  14.01630
 -10.16416   0.86054  13.73199
  -9.67036   1.04010  13.41775
  -9.17655   1.20470  13.01373
  -8.75757   1.33938  12.46007
  -8.36851   1.36930  11.83159
  -7.94953   1.38427  11.08340
  -7.44076   1.41420  10.29032
  -6.91703   1.39923   9.39250
  -6.31848   1.41420   8.53956
  -5.67503   1.47405   7.77641
  -5.04656   1.53391   7.07311
  -4.35822   1.53391   6.41471
  -3.61004   1.44412   5.74134
  -2.83192   1.36930   5.14279
  -1.90417   1.32441   4.60409
  -0.90160   1.23463   4.00554
   0.19076   1.12988   3.46685
   1.46268   0.96528   2.98801
   2.76453   0.72586   2.44931
   4.17112   0.47148   1.95551
   5.45800   0.24702   1.44674
   6.77481   0.02257   1.02776
   8.06170  -0.09714   0.48906
   9.19894  -0.14204  -0.13942
  10.30626  -0.29167  -0.81279
  11.26394  -0.41138  -1.65076
  12.11688  -0.39642  -2.48873
  12.89499  -0.47124  -3.34166
  13.55340  -0.45627  -4.10481
  14.10706  -0.38146  -4.94279
  14.58590  -0.20189  -5.82565
  14.94503   0.02257  -6.54391
  15.28919   0.27695  -7.26217
  15.64832   0.51637  -7.95050
  16.08227   0.65104  -8.62387
  16.57608   0.80068  -9.26731
  17.14470   0.86054  -9.67133
  17.71332   0.89046 -10.13521
  18.31187   0.92039 -10.61405
  18.83560   0.98025 -11.06296
  19.35934   1.04010 -11.51188
  19.85314   1.05507 -11.88597
  20.28709   1.09996 -12.28999
  20.67615   1.26456 -12.64912
  20.97542   1.45909 -12.97832
  21.22981   1.63865 -13.30753
  21.36448   1.80325 -13.60680
  21.34952   1.96786 -13.86119
  21.27470   2.07260 -13.99586
  21.14002   2.16238 -14.01082
  20.99039   2.14742 -13.98090
  20.84075   2.10253 -13.89111
  20.70607   1.99778 -13.74148
  20.58636   1.90800 -13.53198
  20.43673   1.75836 -13.29256
  20.10752   1.56383 -13.12796
  19.76336   1.45909 -12.99329
  19.31445   1.36930 -12.85861
  18.70093   1.29449 -12.84365
  17.92282   1.20470 -12.93343
  17.06988   1.18974 -13.09803
  16.05235   1.20470 -13.24767
  14.90014   1.23463 -13.26264
  13.62822   1.33938 -13.17285
  12.20666   1.45909 -12.94840
  10.69532   1.47405 -12.63416
   9.12412   1.44412 -12.27503
   7.59782   1.42916 -11.85604
   6.10144   1.33938 -11.33231
   4.72478   1.20470 -10.88340
   3.57257   1.01017 -10.35967
   2.49518   0.89046  -9.85090
   1.47764   0.81565  -9.28228
   0.60974   0.66601  -8.68373
  -0.25815   0.51637  -8.02532
  -1.11109   0.41162  -7.32202
  -1.90417   0.30688  -6.64865
  -2.68228   0.29191  -5.84061
  -3.40054   0.26199  -4.97271
  -4.08888   0.20213  -4.04496
  -4.79217   0.14228  -3.08728
  -5.45058  -0.00736  -2.09967
  -6.07906  -0.11211  -1.11206
  -6.72250  -0.21685  -0.16935
  -7.42579  -0.30664   0.72848
  -8.15902  -0.44131   1.52156
  -8.96706  -0.53109   2.16500
  -9.89482  -0.62088   2.73362
 -10.71782  -0.66577   3.18254
 -11.49594  -0.71066   3.46685
 -12.24413  -0.71066   3.75116
 -12.97735  -0.71066   3.87087
 -13.65072  -0.63584   3.94569
 -14.20438  -0.60591   4.05043
 -14.62336  -0.63584   4.12525
 -14.90767  -0.66577   4.27489
 -15.02739  -0.68073   4.48438
 -15.01242  -0.72562   4.73877
 -14.86278  -0.72562   5.06797
 -14.60840  -0.80044   5.45703
 -14.29416  -0.86030   5.87601
 -13.94999  -1.02490   6.32493
 -13.53101  -1.21943   6.69902
 -13.14195  -1.39899   7.07311
 -12.73793  -1.54863   7.35743
 -12.30398  -1.74316   7.59685
 -11.94485  -1.95265   7.76145
 -11.51090  -2.23696   7.86619
 -11.09192  -2.47638   7.88116
 -10.64300  -2.59609   7.80634
 -10.14920  -2.67091   7.77641
  -9.65540  -2.79062   7.68663
  -8.98203  -2.92529   7.49210
  -8.21887  -3.01508   7.10304
  -7.39587  -2.98515   6.72895
  -6.40826  -2.91033   6.38478
  -5.40569  -2.71580   6.01069
  -4.43304  -2.50631   5.68148
  -3.53522  -2.34171   5.41214
  -2.63739  -2.11725   5.26250
  -1.76949  -1.92272   5.08293
  -0.97641  -1.65337   4.97819
  -0.27312  -1.30921   4.90337
   0.40025  -0.99497   4.75373
   0.98384  -0.75555   4.66395
   1.50757  -0.71066   4.52928
   2.03130  -0.71066   4.33475
   2.54007  -0.75555   4.08036
   3.06380  -0.89022   3.85591
   3.60250  -0.99497   3.60152
   4.12623  -1.15957   3.31721
   4.72478  -1.33914   3.06283
   5.33829  -1.51870   3.00297
   5.93684  -1.69827   2.91319
   6.47554  -1.77309   2.89823
   6.96934  -1.68330   2.98801
   7.41826  -1.53366   3.18254
   7.76242  -1.38403   3.37707
   8.16644  -1.21943   3.48181
   8.52557  -0.96504   3.58656
   8.94456  -0.59095   3.63145
   9.36354  -0.23182   3.66138
   9.75260   0.08242   3.61649
  10.11173   0.32184   3.54167
  10.44094   0.51637   3.48181
  10.77014   0.71090   3.45188
  11.06941   0.99521   3.36210
  11.35372   1.27952   3.30225
  11.59314   1.41420   3.25736
  11.77271   1.53391   3.15261
  11.83256   1.63865   2.95808
  11.74278   1.68354   2.83837
  11.54825   1.68354   2.73362
  11.17416   1.59376   2.61391
  10.69532   1.50398   2.40442
  10.21648   1.35434   2.20989
   9.63289   1.11492   2.00040
   9.04931   0.78572   1.74602
   8.52557   0.44155   1.52156
   8.01681   0.06746   1.25221
   7.56789  -0.33656   0.96790
   7.13394  -0.75555   0.72848
   6.62518  -1.11468   0.45913
   6.13137  -1.38403   0.23468
   5.62260  -1.57856   0.02518
   5.00909  -1.69827  -0.19927
   4.38061  -1.77309  -0.45366
   3.67732  -1.75812  -0.61826
   2.95905  -1.66834  -0.97739
   2.24079  -1.45885  -1.45623
   1.53750  -1.23439  -1.93507
   0.75938  -1.02490  -2.56355
  -0.01873  -0.75555  -3.28181
  -0.78189  -0.32160  -3.94021
  -1.58993   0.11235  -4.56869
  -2.30819   0.47148  -5.19717
  -3.01149   0.84557  -5.81068
  -3.72975   1.14485  -6.27456
  -4.41808   1.42916  -6.64865
  -5.10641   1.60872  -6.85815
  -5.76482   1.65362  -6.91800
  -6.40826   1.54887  -6.90304
  -7.08163   1.33938  -6.78333
  -7.79989   0.92039  -6.61873
  -8.57800   0.60615  -6.42420
  -9.37108   0.36673  -6.18478
 -10.16416   0.11235  -5.93039
 -10.83753  -0.17196  -5.67601
 -11.40616  -0.45627  -5.48148
 -11.91492  -0.66577  -5.28695
 -12.36384  -0.81540  -5.16724
 -12.70800  -0.84533  -5.10739
 -13.05217  -0.78548  -4.97271
 -13.38137  -0.62088  -4.82308
 -13.72554  -0.38146  -4.65847
 -14.03978  -0.15700  -4.38913
