********************************************************************************
               CENTRO DE INSTRUMENTACION Y REGISTRO SISMICO  A.C.  
                       Coordinacion de Servicios Tecnicos
     Anaxagoras 814, Col. Narvarte, Benito Juarez, C.P. 03020 Mexico, D.F.
            Tels. 687 45 42/ 687 45  82             Fax. 669 25 12
********************************************************************************
ARCHIVO ESTANDAR DE ACELERACION:
VERSION DEL FORMATO                    : 2.0
NOMBRE DEL ARCHIVO                     : AO249906.211
FECHA Y HORA DE CREACION               : 10/FEBRERO/2000 11:55
REF. CATALOGO ACELEROGRAMAS, SMIS 1996 : REGISTRO No.     /PAG.


================================================================================
DATOS DE LA ESTACION:
NOMBRE DE LA ESTACION                  : ALBERCA OLIMPICA
CLAVE DE LA ESTACION                   : AO24
LOCALIZACION DE LA ESTACION            : Alberca Olimpica Rio Churubusco y
                                       : Division del Norte, Col Pedro Ma
                                       : Anaya, Benito Juarez
                                       :
                                       :
COORDENADAS DE LA ESTACION             : 19.358 LAT. N 
                                       : 99.154 LONG. W 
ALTITUD (msnm)                         : 2235
TIPO DE SUELO                          : TRANSICION
                                       : 
                                       : 
INSTITUCION RESPONSABLE                : CIRES
                                       :

================================================================================
DATOS DEL ACELEROGRAFO:
MODELO DEL ACELEROGRAFO                : RAD-851
NUMERO DE SERIE DEL ACELEROGRAFO       : 257
NUMERO DE CANALES                      : 3
ORIENTACION C1-C6 (rumbo;orientacion)  : /N00E/+V/N90W
ORIENTACION C7-C12 (rumbo;orientacion) :
VEL. DE MUESTREO, C1-C6 (muestras/s)   : /100/100/100
VEL. DE MUESTREO, C7-C12 (muestras/s)  :
ESC. COMPLETA DE SENSORES, C1-C6, (g)  : /0.5/0.5/0.5
ESC. COMPLETA DE SENSORES, C7-C12, (g) :
FREC. NAT. DE SENSORES, C1-C6, (Hz)    : /30/30/30
FREC. NAT. DE SENSORES, C7-C12, (Hz)   :
AMORTIGUAMIENTO DE SENSORES, C1-C6     : /0.700/0.700/0.700
AMORTIGUAMIENTO DE SENSORES, C7-C12    :
INTERVALO DE MUESTREO, C1-C6, (s)      : /0.01/0.01/0.01
INTERVALO DE MUESTREO, C7-C12, (s)     :
UMBRAL DE DISPARO, C1-C6, (Gal)        : /1.95/2.93/1.95
UMBRAL DE DISPARO, C7-C12, (Gal)       :
MEMORIA DE PREEVENTO (s)               : 8
TIEMPO DE POSEVENTO (s)                : 8


================================================================================
DATOS DEL SISMO:
FECHA DEL SISMO (GMT)                  : 21/JUN/99
HORA EPICENTRO (GMT)                   : 17:43:05.5
MAGNITUD(ES)                           : /Mc=6.0/Ms=5.8/Mc=5.8/Me=6.2
COORDENADAS DEL EPICENTRO              : 17.99 LAT. N
                                       : 101.72 LONG. W
PROFUNDIDAD FOCAL (km)                 : 54.0
FUENTE DE LOS DATOS EPICENTRALES       : SSN
                                       : INSTITUTO DE GEOFISICA, UNAM

================================================================================
DATOS DE ESTE REGISTRO:
HORA DE LA PRIMERA MUESTRA (GMT)       : 17:44:35.00
EXACTITUD DEL TIEMPO (s)               : 0.01
DURACION DEL REGISTRO (s), C1-C6       : /110.50/110.50/110.50
DURACION DEL REGISTRO (s), C7-C12      :
NUM. TOTAL DE MUESTRAS, C1-C6          : /11050/11050/11050
NUM. TOTAL DE MUESTRAS, C7-C12         :
ACEL. MAX. (Gal), C1-C6                : /4.42338/1.51508/4.04018
ACEL. MAX., C1-C6, EN LA MUESTRA       :
ACEL. MAX. (Gal), C7-C12               :
ACEL. MAX., C7-C12, EN LA MUESTRA      :
UNIDADES DE LOS DATOS                  : Gal (cm/s/s)
FACTOR DE DECIMACION                   : 1
FORMATO DATOS (FORTRAN,10 campos/dato) : 3F10.5


================================================================================
CALIDAD DEL ACELEROGRAMA:
REGISTRO DIGITAL COMPLETO CON TIEMPO ABSOLUTO CORRECTO.


================================================================================
COMENTARIOS:














================================================================================
DATOS DE ACELERACION:
---------+---------+---------+---------+---------+---------+---------+---------+
   CANAL-1   CANAL-2   CANAL-3   CANAL-4   CANAL-5   CANAL-6   CANAL-7   CANAL-8
      N00E        +V      N90W
---------+---------+---------+---------+---------+---------+---------+---------+
[...]
  -0.12558  -0.31798  -2.18471
  -0.12558  -0.31798  -2.18471
   0.11384  -0.31798  -2.18471
  -0.12558  -0.31798  -2.18471
  -0.12558  -0.31798  -2.18471
  -0.36500  -0.07856  -2.18471
  -0.36500  -0.07856  -2.18471
  -0.60442  -0.31798  -1.94530
  -0.60442  -0.07856  -1.94530
  -0.60442  -0.07856  -1.70588
  -0.84384  -0.07856  -1.70588
  -0.84384   0.16085  -1.70588
  -0.84384  -0.07856  -1.70588
  -0.84384   0.16085  -1.46646
  -0.84384   0.16085  -1.46646
  -0.60442   0.16085  -1.22704
  -0.60442   0.16085  -0.98762
  -0.60442  -0.07856  -0.74820
  -0.60442  -0.07856  -0.74820
  -0.60442  -0.07856  -0.74820
  -0.60442  -0.31798  -0.50878
  -0.60442  -0.07856  -0.50878
  -0.60442  -0.07856  -0.26936
  -0.60442  -0.07856  -0.26936
  -0.60442  -0.31798  -0.02994
  -0.84384  -0.31798  -0.02994
  -0.84384  -0.31798  -0.02994
  -0.84384  -0.07856   0.20948
  -1.08326  -0.07856   0.44889
  -0.84384  -0.07856   0.44889
  -0.84384  -0.07856   0.44889
  -0.84384  -0.31798   0.68831
  -0.60442  -0.07856   0.68831
  -0.36500  -0.31798   0.68831
  -0.12558  -0.07856   0.68831
   0.11384  -0.07856   0.68831
   0.35326  -0.31798   0.68831
   0.35326  -0.31798   0.68831
   0.35326  -0.31798   0.68831
   0.59268  -0.31798   0.68831
   0.59268  -0.07856   0.68831
   0.59268   0.16085   0.92773
   0.59268  -0.07856   0.92773
   0.59268  -0.07856   0.92773
   0.35326  -0.31798   0.92773
   0.35326  -0.31798   1.16715
   0.35326  -0.31798   0.92773
   0.35326  -0.07856   0.92773
   0.35326  -0.07856   0.92773
   0.35326   0.16085   1.16715
   0.35326   0.40027   1.16715
   0.35326   0.40027   1.16715
   0.11384   0.40027   1.16715
   0.11384   0.40027   1.16715
   0.11384   0.40027   1.16715
  -0.12558   0.63969   0.92773
  -0.12558   0.40027   0.92773
  -0.12558   0.40027   0.68831
  -0.12558   0.16085   0.68831
  -0.12558   0.16085   0.44889
  -0.12558  -0.07856   0.20948
  -0.12558  -0.07856   0.44889
  -0.12558   0.16085   0.44889
  -0.12558  -0.07856   0.20948
  -0.36500  -0.07856   0.20948
  -0.36500  -0.07856   0.20948
  -0.36500  -0.07856   0.20948
  -0.36500  -0.07856   0.20948
  -0.60442  -0.07856   0.20948
  -0.60442  -0.07856   0.20948
  -0.36500  -0.31798   0.20948
  -0.36500  -0.07856   0.44889
  -0.60442   0.16085   0.44889
  -0.60442   0.16085   0.44889
  -0.60442   0.16085   0.68831
  -0.60442   0.40027   0.68831
  -0.60442   0.40027   0.68831
  -0.60442   0.16085   0.68831
  -0.60442   0.40027   0.68831
  -0.60442   0.16085   0.44889
  -0.36500   0.16085   0.20948
  -0.36500   0.16085   0.20948
  -0.36500   0.16085   0.20948
  -0.36500   0.16085  -0.02994
  -0.12558  -0.07856  -0.26936
  -0.12558  -0.07856  -0.50878
  -0.12558   0.16085  -0.50878
  -0.12558   0.16085  -0.50878
   0.11384   0.16085  -0.50878
   0.11384   0.16085  -0.50878
   0.11384   0.16085  -0.50878
   0.35326   0.16085  -0.26936
   0.59268   0.16085  -0.26936
   0.83209  -0.07856  -0.50878
   0.83209  -0.31798  -0.26936
   0.83209  -0.31798  -0.02994
   1.07151  -0.31798  -0.26936
   1.07151  -0.31798  -0.26936
   1.07151  -0.31798  -0.02994
   1.07151  -0.31798  -0.26936
   1.07151  -0.07856  -0.26936
   0.83209  -0.07856  -0.26936
   0.83209  -0.07856  -0.50878
   0.59268   0.16085  -0.50878
   0.59268   0.16085  -0.50878
   0.59268   0.16085  -0.50878
   0.35326   0.16085  -0.50878
   0.35326   0.16085  -0.50878
   0.59268  -0.07856  -0.74820
   0.35326   0.16085  -0.74820
   0.35326   0.16085  -0.74820
   0.35326   0.16085  -0.74820
   0.35326  -0.07856  -0.74820
   0.35326  -0.07856  -0.74820
   0.35326   0.16085  -0.50878
   0.35326   0.16085  -0.50878
   0.35326   0.40027  -0.50878
   0.11384   0.40027  -0.50878
   0.11384   0.40027  -0.50878
  -0.12558   0.40027  -0.50878
  -0.12558   0.40027  -0.50878
  -0.12558   0.40027  -0.50878
  -0.12558   0.40027  -0.50878
  -0.36500   0.40027  -0.50878
  -0.36500   0.40027  -0.50878
  -0.60442   0.40027  -0.50878
  -0.60442   0.40027  -0.50878
  -0.60442   0.40027  -0.74820
  -0.60442   0.40027  -0.74820
  -0.60442   0.40027  -0.50878
  -0.60442   0.16085  -0.74820
  -0.60442   0.16085  -0.74820
  -0.84384   0.16085  -0.74820
  -0.84384  -0.07856  -0.74820
  -0.84384  -0.07856  -0.74820
  -0.84384  -0.07856  -0.50878
  -1.08326  -0.07856  -0.26936
  -0.84384  -0.07856  -0.26936
  -0.84384  -0.31798  -0.02994
  -0.84384  -0.31798   0.20948
  -0.84384  -0.55740   0.20948
  -0.84384  -0.55740   0.44889
  -0.84384  -0.55740   0.44889
  -0.60442  -0.55740   0.68831
  -0.60442  -0.79682   0.68831
  -0.60442  -0.79682   0.68831
  -0.60442  -0.79682   0.92773
  -0.60442  -0.55740   0.92773
  -0.60442  -0.55740   0.92773
  -0.36500  -0.31798   0.92773
  -0.12558  -0.07856   0.92773
  -0.12558  -0.31798   0.92773
   0.11384  -0.07856   1.16715
   0.11384  -0.07856   1.16715
   0.35326  -0.07856   1.40657
   0.35326  -0.07856   1.40657
   0.59268  -0.07856   1.64599
   0.83209   0.16085   1.88541
   0.83209   0.16085   1.88541
   0.83209   0.16085   1.88541
   0.83209  -0.07856   1.88541
   0.83209   0.16085   1.88541
   0.83209  -0.07856   2.12483
   0.83209  -0.07856   2.12483
   0.83209  -0.31798   2.12483
   0.59268  -0.07856   2.12483
   0.35326  -0.07856   2.12483
   0.35326  -0.07856   1.88541
   0.35326   0.16085   1.88541
   0.35326   0.16085   1.88541
   0.35326   0.40027   1.88541
   0.35326   0.63969   1.88541
   0.59268   0.87911   1.88541
   0.59268   0.87911   1.64599
   0.59268   1.11853   1.64599
   0.35326   1.11853   1.64599
   0.35326   1.11853   1.64599
   0.35326   1.11853   1.64599
   0.35326   1.11853   1.88541
   0.11384   0.87911   1.88541
  -0.12558   0.87911   1.88541
  -0.12558   0.40027   1.88541
  -0.36500   0.40027   1.88541
  -0.60442  -0.07856   1.88541
  -0.60442  -0.31798   1.64599
  -0.84384  -0.31798   1.40657
  -1.08326  -0.31798   1.40657
  -1.08326  -0.55740   1.16715
  -1.56209  -0.55740   0.92773
  -1.80151  -0.55740   0.68831
  -1.80151  -0.55740   0.44889
  -2.04093  -0.55740  -0.02994
  -2.28035  -0.55740  -0.26936
  -2.04093  -0.55740  -0.50878
  -2.28035  -0.55740  -0.74820
  -2.04093  -0.31798  -0.98762
  -2.04093  -0.31798  -1.22704
  -2.04093  -0.07856  -1.46646
  -1.80151  -0.07856  -1.46646
  -1.80151  -0.07856  -1.46646
  -1.56209  -0.07856  -1.70588
  -1.56209   0.16085  -1.46646
  -1.56209   0.16085  -1.70588
  -1.32268   0.16085  -1.70588
  -1.32268   0.16085  -1.70588
  -1.08326  -0.07856  -1.94530
  -1.08326  -0.07856  -1.94530
  -1.08326  -0.07856  -2.18471
  -1.08326  -0.07856  -2.18471
  -1.08326  -0.31798  -2.42413
  -1.08326  -0.31798  -2.66355
  -0.84384  -0.55740  -2.66355
  -0.84384  -0.79682  -2.66355
  -0.60442  -0.79682  -2.90297
  -0.36500  -0.79682  -2.90297
  -0.36500  -0.55740  -2.90297
  -0.12558  -0.55740  -3.14239
   0.11384  -0.79682  -3.14239
   0.35326  -0.79682  -3.38181
   0.35326  -0.79682  -3.38181
   0.59268  -0.55740  -3.38181
   0.83209  -0.55740  -3.14239
   0.83209  -0.55740  -2.90297
   1.07151  -0.31798  -2.66355
   1.07151  -0.07856  -2.42413
   1.07151  -0.07856  -2.42413
   1.07151  -0.07856  -2.42413
   1.07151  -0.07856  -2.18471
   1.07151   0.16085  -1.94530
   1.07151   0.16085  -1.94530
   1.07151   0.16085  -1.70588
   1.07151   0.16085  -1.46646
   1.07151   0.16085  -1.22704
   1.07151   0.16085  -1.22704
   0.83209   0.16085  -0.74820
   0.83209   0.40027  -0.74820
   1.07151   0.40027  -0.50878
   1.07151   0.16085  -0.26936
   1.07151   0.16085  -0.02994
   1.07151   0.16085   0.20948
   1.07151   0.16085   0.44889
   1.31093   0.16085   0.68831
   1.31093   0.16085   0.68831
   1.31093   0.16085   0.92773
   1.55035   0.40027   0.92773
   1.55035   0.40027   1.16715
   1.78977   0.40027   1.16715
   1.78977   0.63969   1.40657
   1.78977   0.40027   1.64599
   1.78977   0.40027   1.64599
   1.78977   0.40027   1.88541
   1.78977   0.40027   1.88541
   1.78977   0.40027   2.12483
   1.78977   0.40027   2.12483
   1.78977   0.16085   2.36425
   1.78977   0.40027   2.36425
   1.78977   0.16085   2.12483
   1.78977   0.16085   2.36425
   1.78977   0.16085   2.36425
   1.78977   0.16085   2.36425
   1.78977   0.16085   2.36425
   1.78977   0.16085   2.36425
   1.78977   0.16085   2.36425
   1.78977   0.16085   2.36425
   1.55035   0.16085   2.12483
   1.55035   0.16085   2.12483
   1.31093  -0.07856   2.12483
   1.31093  -0.31798   2.12483
   1.31093  -0.31798   1.88541
   1.07151  -0.55740   1.88541
   0.83209  -0.55740   1.64599
   0.83209  -0.55740   1.64599
   0.83209  -0.79682   1.40657
   0.35326  -0.55740   1.16715
   0.35326  -0.31798   1.16715
   0.11384  -0.31798   0.92773
  -0.12558  -0.31798   0.68831
  -0.36500  -0.31798   0.44889
  -0.84384  -0.31798   0.44889
  -0.84384  -0.07856   0.44889
  -1.08326  -0.07856   0.20948
  -1.08326  -0.07856  -0.02994
  -1.08326   0.16085  -0.02994
  -1.32268   0.16085  -0.26936
  -1.56209   0.40027  -0.26936
  -1.56209   0.40027  -0.26936
  -1.80151   0.40027  -0.26936
  -1.80151   0.40027  -0.50878
  -2.04093   0.40027  -0.74820
  -2.04093   0.40027  -0.74820
  -2.28035   0.16085  -0.74820
  -2.28035   0.16085  -0.98762
  -2.28035  -0.07856  -0.98762
  -2.28035  -0.07856  -0.98762
  -2.51977  -0.31798  -1.22704
  -2.51977  -0.31798  -1.22704
  -2.51977  -0.31798  -1.22704
  -2.51977  -0.55740  -1.22704
  -2.75919  -0.55740  -1.22704
  -2.51977  -0.55740  -1.22704
  -2.75919  -0.55740  -0.98762
  -2.51977  -0.55740  -0.98762
  -2.75919  -0.55740  -0.98762
  -2.51977  -0.55740  -0.98762
  -2.51977  -0.55740  -1.22704
  -2.51977  -0.31798  -1.22704
  -2.51977  -0.31798  -1.22704
  -2.28035  -0.07856  -1.22704
  -2.04093  -0.07856  -1.22704
  -2.04093   0.16085  -0.98762
  -1.80151   0.16085  -0.98762
  -1.80151   0.16085  -1.22704
  -1.80151   0.16085  -1.22704
  -1.80151   0.16085  -1.22704
  -1.80151   0.16085  -1.22704
  -1.56209   0.16085  -0.98762
  -1.56209   0.16085  -1.22704
  -1.32268   0.16085  -0.98762
  -1.32268   0.16085  -0.98762
  -1.32268   0.16085  -0.98762
  -1.08326   0.16085  -0.74820
  -1.08326  -0.07856  -0.50878
  -0.84384  -0.07856  -0.50878
  -0.60442  -0.07856  -0.26936
  -0.36500  -0.31798  -0.26936
  -0.12558  -0.31798  -0.02994
   0.11384  -0.31798  -0.02994
   0.35326  -0.31798  -0.02994
   0.59268  -0.07856   0.20948
   0.83209  -0.07856   0.20948
   1.31093  -0.07856   0.20948
   1.31093   0.16085   0.20948
   1.55035   0.16085   0.20948
   2.02919   0.16085   0.20948
   2.26861   0.40027   0.20948
   2.26861   0.40027   0.20948
   2.74745   0.63969   0.20948
   2.74745   0.63969  -0.02994
   2.98687   0.63969  -0.02994
   3.22628   0.63969  -0.02994
   3.22628   0.40027  -0.26936
   3.46570   0.40027  -0.26936
   3.70512   0.40027  -0.26936
   3.70512   0.40027  -0.02994
   3.94454   0.40027   0.20948
   3.94454   0.40027   0.20948
   4.18396   0.40027   0.20948
   4.18396   0.16085   0.20948
   4.18396   0.16085   0.20948
   4.42338   0.16085   0.20948
   4.42338  -0.07856   0.20948
   4.42338  -0.07856   0.20948
   4.42338  -0.07856   0.20948
   4.18396  -0.07856   0.20948
   4.18396  -0.07856   0.20948
   3.94454  -0.07856   0.20948
   3.94454  -0.07856   0.20948
   3.70512  -0.31798  -0.02994
   3.70512  -0.31798  -0.02994
   3.46570  -0.31798  -0.02994
   3.46570  -0.55740  -0.26936
   3.22628  -0.31798  -0.02994
   3.22628  -0.55740  -0.02994
   2.98687  -0.55740  -0.02994
   2.74745  -0.55740  -0.02994
   2.50803  -0.55740   0.20948
   2.26861  -0.55740   0.20948
   2.02919  -0.31798   0.20948
   1.78977  -0.55740  -0.02994
   1.55035  -0.31798   0.20948
   1.31093  -0.55740   0.20948
   0.83209  -0.31798   0.44889
   0.59268  -0.55740   0.44889
   0.11384  -0.55740   0.44889
  -0.12558  -0.55740   0.68831
  -0.36500  -0.55740   0.68831
  -0.36500  -0.79682   0.68831
  -0.60442  -0.79682   0.44889
  -0.84384  -0.79682   0.68831
  -0.84384  -0.55740   0.68831
  -1.08326  -0.55740   0.92773
  -1.08326  -0.31798   0.92773
  -1.32268  -0.07856   0.92773
  -1.32268  -0.07856   0.92773
  -1.32268  -0.07856   0.92773
  -1.56209   0.16085   0.92773
  -1.56209   0.16085   0.92773
  -1.80151   0.40027   0.92773
  -2.04093   0.40027   1.16715
  -2.04093   0.40027   1.16715
  -1.80151   0.63969   1.40657
  -2.04093   0.63969   1.16715
  -2.04093   0.63969   1.16715
  -2.28035   0.63969   1.16715
  -2.28035   0.63969   1.16715
  -2.28035   0.63969   1.40657
  -2.28035   0.63969   1.16715
  -2.51977   0.63969   1.16715
  -2.51977   0.40027   1.16715
  -2.51977   0.40027   1.16715
  -2.51977   0.40027   1.16715
  -2.28035   0.40027   1.16715
  -2.28035   0.63969   1.16715
  -2.51977   0.63969   1.16715
  -2.51977   0.63969   1.16715
  -2.51977   0.63969   1.16715
  -2.51977   0.63969   1.16715
  -2.51977   0.40027   1.40657
  -2.28035   0.40027   1.16715
  -2.28035   0.16085   1.16715
  -2.28035   0.16085   1.16715
  -2.28035  -0.07856   1.16715
  -2.28035  -0.31798   0.92773
  -2.28035  -0.31798   0.68831
  -2.28035  -0.55740   0.44889
  -2.28035  -0.55740   0.44889
  -2.28035  -0.79682   0.20948
  -2.28035  -0.79682   0.20948
  -2.51977  -0.79682   0.20948
  -2.28035  -0.79682  -0.02994
  -2.04093  -0.79682  -0.02994
  -2.04093  -0.79682  -0.02994
  -2.04093  -0.79682  -0.26936
  -1.80151  -0.79682  -0.26936
  -2.04093  -0.79682  -0.26936
  -2.04093  -0.55740  -0.26936
  -2.04093  -0.55740  -0.26936
  -2.04093  -0.55740  -0.26936
  -1.80151  -0.55740  -0.26936
  -1.80151  -0.55740  -0.50878
  -1.56209  -0.31798  -0.50878
  -1.56209  -0.31798  -0.98762
  -1.32268  -0.07856  -0.74820
  -1.08326   0.16085  -0.74820
  -1.08326   0.16085  -0.98762
  -0.84384   0.16085  -1.22704
  -0.60442   0.16085  -0.98762
  -0.36500   0.16085  -1.22704
  -0.12558   0.16085  -0.98762
  -0.12558   0.16085  -1.22704
   0.11384  -0.07856  -0.98762
   0.35326  -0.07856  -0.98762
   0.59268  -0.07856  -0.98762
   0.59268  -0.07856  -0.74820
   0.59268  -0.07856  -0.74820
   0.83209  -0.31798  -0.74820
   0.83209  -0.31798  -0.74820
   1.07151  -0.31798  -0.74820
   1.31093  -0.31798  -0.74820
   1.31093  -0.31798  -0.74820
   1.55035  -0.31798  -0.74820
   1.78977  -0.07856  -0.74820
   1.78977  -0.07856  -0.50878
   2.02919   0.16085  -0.50878
   2.26861   0.40027  -0.74820
   2.26861   0.40027  -0.74820
   2.50803   0.40027  -0.50878
   2.26861   0.63969  -0.50878
   2.50803   0.63969  -0.50878
   2.50803   0.63969  -0.50878
   2.26861   0.63969  -0.50878
   2.26861   0.63969  -0.26936
   2.26861   0.40027  -0.26936
   2.02919   0.63969  -0.26936
   2.02919   0.40027  -0.26936
   1.78977   0.40027  -0.26936
   1.78977   0.40027  -0.50878
   1.78977   0.40027  -0.26936
   1.55035   0.40027  -0.26936
   1.55035   0.40027  -0.50878
   1.31093   0.40027  -0.50878
   1.31093   0.40027  -0.74820
   1.07151   0.40027  -0.74820
   0.83209   0.40027  -0.74820
   0.83209   0.40027  -0.74820
   0.83209   0.40027  -0.74820
   0.83209   0.40027  -0.74820
   0.83209   0.16085  -0.74820
   0.83209   0.16085  -0.74820
   0.59268   0.16085  -0.74820
   0.35326  -0.07856  -0.74820
   0.35326   0.16085  -0.74820
   0.35326   0.16085  -0.50878
   0.35326   0.16085  -0.50878
   0.35326   0.16085  -0.50878
   0.11384  -0.07856  -0.26936
   0.35326   0.16085  -0.26936
   0.11384   0.16085  -0.02994
   0.11384   0.16085  -0.02994
   0.35326   0.16085  -0.02994
   0.35326   0.16085  -0.02994
   0.35326   0.40027   0.20948
   0.35326   0.40027   0.20948
   0.35326   0.16085  -0.02994
   0.35326   0.16085  -0.02994
   0.11384   0.16085   0.20948
   0.11384   0.40027   0.20948
   0.11384   0.40027   0.20948
  -0.12558   0.40027   0.20948
