********************************************************************************
              CENTRO DE INSTRUMENTACION Y REGISTRO SISMICO  A.C.

    Anaxagoras 814, Col. Narvarte, Benito Juarez, C.P. 03020 Mexico, D.F.
           Tels. 5687 45 42/ 5687 45  82             Fax. 5669 25 12
********************************************************************************
ARCHIVO ESTANDAR DE ACELERACION:
VERSION DEL FORMATO                    : 2.0
NOMBRE DEL ARCHIVO                     : AO2420130405015848
FECHA Y HORA DE CREACION               : 14/MAY/13, 11:10
REF. CATALOGO ACELEROGRAMAS, SMIS 1996 : REGISTRO No.     /PAG.


================================================================================
DATOS DE LA ESTACION:
NOMBRE DE LA ESTACION                  : ALBERCA OLÍMPICA
CLAVE DE LA ESTACION                   : AO24
LOCALIZACION DE LA ESTACION            : Del. Benito Juárez, Col. General Pedro 
                                       : María Anaya, Río Churubusco            
                                       : y División del Norte.                  
                                       :                                        
                                       : 
COORDENADAS DE LA ESTACION             : 19.3580 LAT. N
                                       : 99.1539 LONG. W
ALTITUD (msnm)                         : 2235
TIPO DE SUELO                          : Transición                          
                                       :                           
                                       : 
INSTITUCION RESPONSABLE                : CIRES
                                       : 

================================================================================
DATOS DEL ACELEROGRAFO:
MODELO DEL ACELEROGRAFO                : RADESD
NUMERO DE SERIE DEL ACELEROGRAFO       : 257
NUMERO DE CANALES                      : 3
ORIENTACION C1-C6 (rumbo;orientacion)  : /N00E/+V/N90W
ORIENTACION C7-C12 (rumbo;orientacion) : 
VEL. DE MUESTREO, C1-C6 (muestras/s)   : /100/100/100
VEL. DE MUESTREO, C7-C12 (muestras/s)  : 
ESC. COMPLETA DE SENSORES, C1-C6, (g)  : /0.5/0.5/0.5
ESC. COMPLETA DE SENSORES, C7-C12, (g) : 
FREC. NAT. DE SENSORES, C1-C6, (Hz)    : /30/30/30
FREC. NAT. DE SENSORES, C7-C12, (Hz)   : 
AMORTIGUAMIENTO DE SENSORES, C1-C6     : /0.700/0.700/0.700
AMORTIGUAMIENTO DE SENSORES, C7-C12    : 
INTERVALO DE MUESTREO, C1-C6, (s)      : /0.01/0.01/0.01
INTERVALO DE MUESTREO, C7-C12, (s)     : 
UMBRAL DE DISPARO, C1-C6, (Gal)        : /26.34/50.28/31.12
UMBRAL DE DISPARO, C7-C12, (Gal)       : 
MEMORIA DE PREEVENTO (s)               : 56.0
TIEMPO DE POSEVENTO (s)                : 80.0


================================================================================
DATOS DEL SISMO:
FECHA DEL SISMO (GMT)                  : 05/ABR/13
HORA EPICENTRO (GMT)                   : 01:58:48.0
MAGNITUD(ES)                           : /Mc=5.3
COORDENADAS DEL EPICENTRO              : 17.08 LAT. N
                                       : 100.82 LONG. W
PROFUNDIDAD FOCAL (km)                 : 17
FUENTE DE LOS DATOS EPICENTRALES       : SSN
                                       : INSTITUTO DE GEOFISICA, UNAM

================================================================================
DATOS DE ESTE REGISTRO:
HORA DE LA PRIMERA MUESTRA (GMT)       : 02:00:14.00
EXACTITUD DEL TIEMPO (s)               : 0.01
DURACION DEL REGISTRO (s), C1-C6       : /120.2/120.2/120.2
DURACION DEL REGISTRO (s), C7-C12      : 
NUM. TOTAL DE MUESTRAS, C1-C6          : /12020/12020/12020
NUM. TOTAL DE MUESTRAS, C7-C12         : 
ACEL. MAX. (Gal), C1-C6                : /2.76353/0.78967/2.34763
ACEL. MAX., C1-C6, EN LA MUESTRA       : /4546/4268/4395
ACEL. MAX. (Gal), C7-C12               : 
ACEL. MAX., C7-C12, EN LA MUESTRA      : 
UNIDADES DE LOS DATOS                  : Gal (cm/s/s)
FACTOR DE DECIMACION                   : 1
FORMATO DATOS (FORTRAN,10 campos/dato) : 3F10.5


================================================================================
CALIDAD DEL ACELEROGRAMA:
REGISTRO DIGITAL COMPLETO CON TIEMPO ABSOLUTO CORRECTO.


================================================================================
COMENTARIOS:














================================================================================
DATOS DE ACELERACION:
---------+---------+---------+---------+---------+---------+---------+---------+
   CANAL-1   CANAL-2   CANAL-3   CANAL-4   CANAL-5   CANAL-6   CANAL-7   CANAL-8
      N00E        +V      N90W
---------+---------+---------+---------+---------+---------+---------+---------+
[...]
  -1.20186   0.08637  -1.36002
  -1.20186   0.13126  -1.36002
  -1.11208   0.19112  -1.33010
  -1.02230   0.19112  -1.31513
  -0.91755   0.20608  -1.34506
  -0.84273   0.22104  -1.36002
  -0.76791   0.20608  -1.31513
  -0.70806   0.19112  -1.27024
  -0.64820   0.14623  -1.28521
  -0.61828   0.11630  -1.22535
  -0.55842   0.08637  -1.16550
  -0.54346  -0.00341  -1.10564
  -0.54346  -0.12312  -1.03082
  -0.55842  -0.22787  -0.95600
  -0.58835  -0.30269  -0.85126
  -0.63324  -0.34758  -0.73155
  -0.66317  -0.43736  -0.65673
  -0.72302  -0.51218  -0.56694
  -0.73799  -0.54211  -0.53702
  -0.72302  -0.58700  -0.50709
  -0.72302  -0.60196  -0.50709
  -0.69309  -0.55707  -0.47716
  -0.61828  -0.52714  -0.44723
  -0.57338  -0.46729  -0.41731
  -0.48360  -0.37751  -0.41731
  -0.36389  -0.28772  -0.37242
  -0.30404  -0.22787  -0.31256
  -0.25915  -0.21290  -0.23774
  -0.21425  -0.18298  -0.13300
  -0.21425  -0.12312  -0.01329
  -0.24418  -0.07823   0.12139
  -0.31900   0.02652   0.25606
  -0.34893   0.05644   0.45059
  -0.39382   0.08637   0.60023
  -0.39382   0.08637   0.76483
  -0.40878   0.02652   0.92943
  -0.42375   0.02652   1.06411
  -0.42375   0.05644   1.21374
  -0.33396   0.04148   1.34842
  -0.27411   0.07141   1.40827
  -0.15440   0.05644   1.48309
  -0.04965   0.01155   1.55791
   0.07006  -0.07823   1.54295
   0.17480  -0.16801   1.58784
   0.29451  -0.25780   1.58784
   0.36933  -0.27276   1.60280
   0.50401  -0.30269   1.57287
   0.56386  -0.31765   1.54295
   0.60875  -0.28772   1.52798
   0.66861  -0.27276   1.45316
   0.71350  -0.25780   1.42324
   0.75839  -0.19794   1.39331
   0.75839  -0.16801   1.39331
   0.77335  -0.10816   1.36338
   0.80328  -0.04830   1.34842
   0.83321   0.02652   1.31849
   0.84817   0.11630   1.28856
   0.83321   0.19112   1.25863
   0.84817   0.28090   1.21374
   0.83321   0.35572   1.13892
   0.83321   0.43054   1.10900
   0.81825   0.49039   1.12396
   0.72846   0.55025   1.10900
   0.66861   0.64003   1.04914
   0.63868   0.71485   1.03418
   0.59379   0.69988   0.91447
   0.56386   0.72981   0.88454
   0.51897   0.75974   0.85461
   0.48904   0.78967   0.82468
   0.47408   0.74478   0.76483
   0.41422   0.69988   0.67505
   0.36933   0.62507   0.57030
   0.33940   0.53528   0.49548
   0.27955   0.37068   0.34584
   0.21969   0.25097   0.22613
   0.14488   0.16119   0.07650
   0.09998   0.01155  -0.10307
   0.02517  -0.09319  -0.23774
  -0.04965  -0.15305  -0.38738
  -0.18433  -0.24283  -0.50709
  -0.33396  -0.28772  -0.70162
  -0.48360  -0.33262  -0.89615
  -0.54346  -0.34758  -1.03082
  -0.63324  -0.37751  -1.16550
  -0.72302  -0.33262  -1.25528
  -0.82777  -0.30269  -1.30017
  -0.93251  -0.34758  -1.34506
  -1.00733  -0.39247  -1.40492
  -1.12704  -0.43736  -1.40492
  -1.17194  -0.43736  -1.41988
  -1.14201  -0.43736  -1.43484
  -1.11208  -0.39247  -1.44981
  -1.06719  -0.34758  -1.46477
  -1.03726  -0.28772  -1.43484
  -0.97741  -0.19794  -1.43484
  -0.93251  -0.09319  -1.43484
  -0.88762   0.04148  -1.46477
  -0.79784   0.16119  -1.53959
  -0.72302   0.29586  -1.61441
  -0.63324   0.38565  -1.62937
  -0.57338   0.52032  -1.64434
  -0.49857   0.55025  -1.65930
  -0.42375   0.62507  -1.65930
  -0.30404   0.64003  -1.64434
  -0.22922   0.56521  -1.64434
  -0.10951   0.49039  -1.64434
  -0.04965   0.46046  -1.56952
   0.02517   0.41557  -1.49470
   0.11495   0.35572  -1.41988
   0.17480   0.29586  -1.33010
   0.21969   0.23601  -1.21039
   0.26459   0.25097  -1.07571
   0.30948   0.22104  -0.97097
   0.39926   0.14623  -0.86622
   0.51897   0.04148  -0.80636
   0.62372  -0.07823  -0.68665
   0.71350  -0.12312  -0.58191
   0.78832  -0.10816  -0.49213
   0.89306  -0.16801  -0.40234
   0.95292  -0.25780  -0.34249
   1.04270  -0.33262  -0.28263
   1.08759  -0.40743  -0.25271
   1.08759  -0.45233  -0.19285
   1.07263  -0.42240  -0.14796
   1.07263  -0.31765  -0.14796
   1.07263  -0.31765  -0.07314
   1.08759  -0.33262  -0.02825
   1.08759  -0.34758   0.03161
   1.08759  -0.31765   0.12139
   1.08759  -0.24283   0.21117
   1.10256  -0.19794   0.30095
   1.10256  -0.12312   0.39074
   1.10256  -0.03334   0.51045
   1.13248   0.01155   0.63016
   1.16241   0.01155   0.73490
   1.14745   0.04148   0.91447
   1.08759   0.10133   1.07907
   1.02774   0.16119   1.19878
   0.95292   0.23601   1.31849
   0.89306   0.31083   1.37834
   0.83321   0.32579   1.40827
   0.81825   0.23601   1.48309
   0.75839   0.10133   1.54295
   0.66861   0.02652   1.63273
   0.63868  -0.01838   1.64769
   0.59379  -0.01838   1.66266
   0.59379   0.01155   1.64769
   0.57882   0.05644   1.61776
   0.60875   0.02652   1.61776
   0.65364  -0.07823   1.61776
   0.69853  -0.15305   1.63273
   0.72846  -0.21290   1.64769
   0.69853  -0.28772   1.72251
   0.65364  -0.24283   1.79733
   0.62372  -0.19794   1.78237
   0.56386  -0.13809   1.72251
   0.51897  -0.12312   1.67762
   0.42919  -0.15305   1.60280
   0.33940  -0.16801   1.55791
   0.24962  -0.18298   1.52798
   0.12991  -0.15305   1.51302
   0.05509  -0.12312   1.48309
  -0.03469  -0.10816   1.42324
  -0.07958  -0.10816   1.27360
  -0.15440  -0.12312   1.12396
  -0.21425  -0.09319   0.95936
  -0.30404  -0.10816   0.83965
  -0.37886  -0.12312   0.71994
  -0.45367  -0.13809   0.66008
  -0.55842  -0.12312   0.63016
  -0.63324  -0.06327   0.58526
  -0.72302  -0.06327   0.43563
  -0.81280  -0.06327   0.28599
  -0.84273  -0.04830   0.13635
  -0.88762  -0.01838   0.00168
  -0.97741  -0.00341  -0.02825
  -1.09712   0.04148  -0.05818
  -1.18690   0.10133  -0.10307
  -1.24675   0.14623  -0.19285
  -1.29165   0.14623  -0.31256
  -1.32157   0.14623  -0.43227
  -1.39639   0.19112  -0.59687
  -1.47121   0.28090  -0.70162
  -1.54603   0.34075  -0.85126
  -1.60588   0.35572  -1.00089
  -1.66574   0.31083  -1.12060
  -1.74056   0.26594  -1.24031
  -1.80041   0.22104  -1.41988
  -1.78545   0.17615  -1.61441
  -1.83034   0.19112  -1.76405
  -1.81538   0.20608  -1.92865
  -1.78545   0.25097  -2.07828
  -1.77049   0.20608  -2.18303
  -1.77049   0.17615  -2.28778
  -1.77049   0.08637  -2.33267
  -1.74056  -0.00341  -2.34763
  -1.72559  -0.06327  -2.34763
  -1.66574  -0.04830  -2.25785
  -1.59092   0.01155  -2.16807
  -1.60588  -0.06327  -2.18303
  -1.62085  -0.04830  -2.13814
  -1.60588  -0.13809  -2.00347
  -1.56099  -0.19794  -1.92865
  -1.38143  -0.16801  -1.79397
  -1.23179  -0.13809  -1.71915
  -1.12704  -0.15305  -1.64434
  -1.02230  -0.13809  -1.55455
  -0.90259  -0.10816  -1.46477
  -0.75295  -0.06327  -1.37499
  -0.58835   0.02652  -1.25528
  -0.45367   0.07141  -1.15053
  -0.31900   0.11630  -1.01586
  -0.19929   0.16119  -0.86622
  -0.07958   0.19112  -0.70162
   0.01020   0.22104  -0.55198
   0.12991   0.28090  -0.40234
   0.23466   0.34075  -0.29760
   0.33940   0.35572  -0.14796
   0.42919   0.34075  -0.05818
   0.53393   0.32579   0.01664
   0.71350   0.32579   0.12139
   0.80328   0.35572   0.19621
   0.95292   0.38565   0.27103
   1.05767   0.44550   0.34584
   1.19234   0.46046   0.42066
   1.28212   0.46046   0.52541
   1.41680   0.47543   0.58526
   1.52154   0.43054   0.69001
   1.58140   0.38565   0.82468
   1.67118   0.31083   0.95936
   1.71607   0.22104   1.12396
   1.79089   0.13126   1.27360
   1.83578  -0.00341   1.39331
   1.92556  -0.15305   1.51302
   2.00038  -0.25780   1.61776
   2.04527  -0.36254   1.64769
   2.10513  -0.43736   1.73747
   2.15002  -0.48225   1.76740
   2.22484  -0.49722   1.78237
   2.23980  -0.52714   1.84222
   2.25477  -0.51218   1.87215
   2.26973  -0.51218   1.90208
   2.28469  -0.51218   1.90208
   2.26973  -0.48225   1.91704
   2.23980  -0.43736   1.91704
   2.23980  -0.42240   1.96193
   2.17995  -0.42240   1.97689
   2.13506  -0.46729   1.99186
   2.07520  -0.45233   2.00682
   2.00038  -0.39247   1.97689
   1.95549  -0.33262   1.93200
   1.89564  -0.25780   1.81229
   1.79089  -0.19794   1.73747
   1.70111  -0.15305   1.64769
   1.61132  -0.07823   1.55791
   1.47665  -0.00341   1.43820
   1.34198   0.10133   1.28856
   1.20730   0.19112   1.15389
   1.13248   0.25097   1.01921
   0.99781   0.29586   0.86958
   0.89306   0.35572   0.70497
   0.74343   0.38565   0.51045
   0.62372   0.38565   0.31592
   0.50401   0.35572   0.12139
   0.38430   0.28090  -0.04321
   0.32444   0.20608  -0.22278
   0.24962   0.11630  -0.35745
   0.17480   0.07141  -0.46220
   0.09998   0.07141  -0.59687
  -0.00476   0.05644  -0.68665
  -0.04965  -0.03334  -0.73155
  -0.13944  -0.09319  -0.77644
  -0.24418  -0.10816  -0.79140
  -0.33396  -0.09319  -0.80636
  -0.43871  -0.07823  -0.82133
  -0.49857  -0.09319  -0.83629
  -0.57338  -0.10816  -0.85126
  -0.66317  -0.12312  -0.89615
  -0.79784  -0.13809  -0.94104
  -0.90259  -0.16801  -1.04579
  -1.02230  -0.18298  -1.15053
  -1.15697  -0.22787  -1.24031
  -1.30661  -0.24283  -1.30017
  -1.45625  -0.25780  -1.37499
  -1.57596  -0.19794  -1.43484
  -1.74056  -0.18298  -1.44981
  -1.87523  -0.15305  -1.46477
  -1.97998  -0.12312  -1.44981
  -2.09969  -0.06327  -1.43484
  -2.20443  -0.07823  -1.43484
  -2.29422  -0.10816  -1.44981
  -2.35407  -0.09319  -1.40492
  -2.36904  -0.10816  -1.36002
  -2.39896  -0.07823  -1.27024
  -2.39896  -0.09319  -1.24031
  -2.39896  -0.07823  -1.19542
  -2.36904  -0.15305  -1.16550
  -2.35407  -0.18298  -1.12060
  -2.27925  -0.15305  -1.07571
  -2.24933  -0.15305  -1.06075
  -2.21940  -0.12312  -0.98593
  -2.20443  -0.07823  -0.92608
  -2.18947  -0.01838  -0.86622
  -2.17451   0.07141  -0.83629
  -2.18947   0.13126  -0.79140
  -2.18947   0.26594  -0.74651
  -2.14458   0.35572  -0.74651
  -2.11465   0.41557  -0.68665
  -2.03983   0.40061  -0.67169
  -1.96501   0.37068  -0.62680
  -1.87523   0.34075  -0.55198
  -1.74056   0.32579  -0.46220
  -1.63581   0.29586  -0.41731
  -1.50114   0.25097  -0.37242
  -1.35150   0.17615  -0.32752
  -1.18690   0.07141  -0.25271
  -1.02230   0.05644  -0.20781
  -0.85770  -0.00341  -0.19285
  -0.67813  -0.01838  -0.19285
  -0.51353  -0.10816  -0.22278
  -0.37886  -0.15305  -0.23774
  -0.22922  -0.21290  -0.23774
  -0.10951  -0.25780  -0.23774
   0.02517  -0.30269  -0.26767
   0.18977  -0.31765  -0.28263
   0.35437  -0.33262  -0.29760
   0.50401  -0.39247  -0.25271
   0.66861  -0.39247  -0.16292
   0.83321  -0.42240  -0.08810
   1.02774  -0.43736   0.00168
   1.20730  -0.43736   0.15132
   1.37190  -0.37751   0.27103
   1.53651  -0.27276   0.40570
   1.71607  -0.28772   0.49548
   1.88067  -0.28772   0.60023
   2.00038  -0.25780   0.70497
   2.07520  -0.19794   0.80972
   2.19491  -0.16801   0.88454
   2.28469  -0.13809   0.95936
   2.37448  -0.10816   0.98929
   2.43433  -0.07823   1.03418
   2.49419  -0.06327   1.09403
   2.58397  -0.04830   1.10900
   2.62886  -0.03334   1.13892
   2.68872  -0.01838   1.18382
   2.73361  -0.00341   1.16885
   2.76353  -0.01838   1.16885
   2.74857  -0.04830   1.15389
   2.71864  -0.09319   1.15389
   2.70368  -0.09319   1.06411
   2.62886  -0.07823   1.04914
   2.56901  -0.06327   1.03418
   2.47922  -0.04830   1.00425
   2.38944  -0.01838   1.01921
   2.26973   0.04148   1.03418
   2.15002   0.04148   1.04914
   2.06024   0.07141   1.09403
   2.00038   0.13126   1.10900
   1.89564   0.16119   1.18382
   1.80585   0.14623   1.22871
   1.73103   0.11630   1.25863
   1.62629   0.11630   1.28856
   1.50658   0.11630   1.30353
   1.35694   0.14623   1.30353
   1.22227   0.19112   1.24367
   1.02774   0.19112   1.18382
   0.83321   0.22104   1.10900
   0.62372   0.19112   1.01921
   0.38430   0.23601   0.95936
   0.14488   0.29586   0.83965
  -0.09454   0.35572   0.71994
  -0.30404   0.41557   0.64512
  -0.52849   0.50536   0.58526
  -0.69309   0.58017   0.48052
  -0.85770   0.58017   0.42066
  -1.00733   0.56521   0.37577
  -1.12704   0.53528   0.33088
  -1.26172   0.47543   0.28599
  -1.41136   0.38565   0.25606
  -1.50114   0.32579   0.16628
  -1.62085   0.19112   0.09146
  -1.74056   0.10133   0.00168
  -1.81538   0.08637  -0.08810
  -1.90516   0.05644  -0.22278
  -1.95005   0.02652  -0.32752
  -2.05480   0.01155  -0.44723
  -2.09969   0.01155  -0.56694
  -2.14458   0.01155  -0.67169
  -2.23436   0.04148  -0.74651
  -2.32414   0.07141  -0.89615
  -2.33911   0.10133  -1.03082
  -2.36904   0.11630  -1.13557
  -2.39896   0.13126  -1.24031
  -2.39896   0.10133  -1.34506
  -2.38400   0.05644  -1.44981
  -2.30918   0.02652  -1.52463
  -2.26429   0.02652  -1.61441
  -2.15954  -0.00341  -1.65930
  -2.09969  -0.06327  -1.68923
  -2.03983  -0.15305  -1.70419
  -1.93509  -0.22787  -1.64434
  -1.81538  -0.25780  -1.55455
  -1.71063  -0.25780  -1.47973
  -1.60588  -0.33262  -1.40492
  -1.53107  -0.30269  -1.30017
  -1.45625  -0.30269  -1.15053
  -1.38143  -0.28772  -1.09068
  -1.35150  -0.28772  -1.01586
  -1.30661  -0.36254  -0.91111
  -1.21683  -0.42240  -0.85126
  -1.15697  -0.45233  -0.82133
  -1.09712  -0.45233  -0.76147
  -0.96244  -0.48225  -0.71658
  -0.84273  -0.49722  -0.68665
  -0.73799  -0.42240  -0.62680
  -0.55842  -0.36254  -0.58191
  -0.39382  -0.28772  -0.56694
  -0.22922  -0.21290  -0.52205
  -0.04965  -0.22787  -0.49213
   0.11495  -0.13809  -0.44723
   0.29451  -0.06327  -0.35745
   0.45911   0.02652  -0.25271
   0.60875   0.05644  -0.16292
   0.72846   0.05644  -0.07314
   0.84817   0.02652   0.03161
   0.92299   0.05644   0.12139
   1.05767   0.08637   0.18124
   1.14745   0.11630   0.28599
   1.20730   0.10133   0.34584
   1.23723   0.13126   0.39074
   1.28212   0.17615   0.45059
   1.34198   0.13126   0.49548
   1.37190   0.13126   0.57030
   1.43176   0.19112   0.61519
   1.49161   0.16119   0.69001
   1.56643   0.16119   0.71994
   1.70111   0.10133   0.73490
   1.79089   0.01155   0.79476
   1.88067  -0.04830   0.85461
   1.95549  -0.12312   0.86958
   2.00038  -0.13809   0.89950
   2.06024  -0.21290   0.95936
   2.09016  -0.30269   0.98929
   2.06024  -0.39247   1.06411
   1.98542  -0.45233   1.12396
   1.92556  -0.51218   1.13892
   1.82082  -0.49722   1.16885
   1.67118  -0.45233   1.16885
   1.49161  -0.36254   1.15389
   1.29709  -0.31765   1.16885
   1.10256  -0.24283   1.15389
   0.90803  -0.12312   1.12396
   0.74343  -0.03334   1.09403
   0.57882   0.07141   1.04914
   0.41422   0.16119   0.97432
   0.21969   0.26594   0.88454
   0.08502   0.35572   0.82468
  -0.04965   0.41557   0.74987
  -0.12447   0.44550   0.67505
  -0.19929   0.53528   0.57030
  -0.28907   0.56521   0.46555
  -0.34893   0.55025   0.39074
  -0.39382   0.53528   0.33088
  -0.49857   0.47543   0.27103
  -0.54346   0.40061   0.19621
  -0.61828   0.32579   0.15132
  -0.66317   0.26594   0.09146
  -0.69309   0.20608   0.09146
  -0.75295   0.16119   0.04657
  -0.81280   0.16119   0.00168
  -0.87266   0.13126  -0.02825
  -0.90259   0.13126  -0.04321
  -0.94748   0.16119  -0.05818
  -1.02230   0.22104  -0.07314
  -1.08215   0.25097  -0.07314
  -1.09712   0.26594  -0.05818
  -1.15697   0.22104  -0.04321
  -1.14201   0.17615  -0.05818
  -1.14201   0.11630  -0.04321
  -1.14201   0.10133  -0.04321
  -1.12704   0.10133  -0.04321
  -1.11208   0.08637  -0.01329
  -1.06719   0.10133  -0.02825
  -0.99237   0.10133  -0.02825
  -0.97741   0.13126  -0.02825
  -0.94748   0.11630  -0.07314
  -0.91755   0.11630  -0.11803
  -0.85770   0.11630  -0.19285
  -0.82777   0.14623  -0.23774
  -0.76791   0.20608  -0.29760
  -0.75295   0.20608  -0.37242
  -0.70806   0.20608  -0.40234
  -0.64820   0.22104  -0.46220
  -0.55842   0.23601  -0.56694
  -0.49857   0.19112  -0.62680
  -0.43871   0.20608  -0.68665
