********************************************************************************
              CENTRO DE INSTRUMENTACION Y REGISTRO SISMICO  A.C.

    Anaxagoras 814, Col. Narvarte, Benito Juarez, C.P. 03020 Mexico, D.F.
           Tels. 5687 45 42/ 5687 45  82             Fax. 5669 25 12
********************************************************************************
ARCHIVO ESTANDAR DE ACELERACION:
VERSION DEL FORMATO                    : 2.0
NOMBRE DEL ARCHIVO                     : AO2420170919181440
FECHA Y HORA DE CREACION               : 25/SEP/17, 11:23
REF. CATALOGO ACELEROGRAMAS, SMIS 1996 : REGISTRO No.     /PAG.


================================================================================
DATOS DE LA ESTACION:
NOMBRE DE LA ESTACION                  : ALBERCA OLÍMPICA
CLAVE DE LA ESTACION                   : AO24
LOCALIZACION DE LA ESTACION            : Del. Benito Juárez, Col. General Pedro 
                                       : María Anaya, Río Churubusco            
                                       : y División del Norte.                  
                                       :                                        
                                       : 
COORDENADAS DE LA ESTACION             : 19.3580 LAT. N
                                       : 99.1539 LONG. W
ALTITUD (msnm)                         : 2235
TIPO DE SUELO                          : Transición                          
                                       :                           
                                       : 
INSTITUCION RESPONSABLE                : CIRES
                                       : 

================================================================================
DATOS DEL ACELEROGRAFO:
MODELO DEL ACELEROGRAFO                : RADESD
NUMERO DE SERIE DEL ACELEROGRAFO       : 257
NUMERO DE CANALES                      : 3
ORIENTACION C1-C6 (rumbo;orientacion)  : /N00E/+V/N90W
ORIENTACION C7-C12 (rumbo;orientacion) : 
VEL. DE MUESTREO, C1-C6 (muestras/s)   : /100/100/100
VEL. DE MUESTREO, C7-C12 (muestras/s)  : 
ESC. COMPLETA DE SENSORES, C1-C6, (g)  : /0.5/0.5/0.5
ESC. COMPLETA DE SENSORES, C7-C12, (g) : 
FREC. NAT. DE SENSORES, C1-C6, (Hz)    : /30/30/30
FREC. NAT. DE SENSORES, C7-C12, (Hz)   : 
AMORTIGUAMIENTO DE SENSORES, C1-C6     : /0.700/0.700/0.700
AMORTIGUAMIENTO DE SENSORES, C7-C12    : 
INTERVALO DE MUESTREO, C1-C6, (s)      : /0.01/0.01/0.01
INTERVALO DE MUESTREO, C7-C12, (s)     : 
UMBRAL DE DISPARO, C1-C6, (Gal)        : /1.2/2.99/1.2
UMBRAL DE DISPARO, C7-C12, (Gal)       : 
MEMORIA DE PREEVENTO (s)               : 44.0
TIEMPO DE POSEVENTO (s)                : 64.0


================================================================================
DATOS DEL SISMO:
FECHA DEL SISMO (GMT)                  : 19/SEP/17
HORA EPICENTRO (GMT)                   : 18:14:40.0
MAGNITUD(ES)                           : /Mc=7.1
COORDENADAS DEL EPICENTRO              : 18.40 LAT. N
                                       : 98.72 LONG. W
PROFUNDIDAD FOCAL (km)                 : 57
FUENTE DE LOS DATOS EPICENTRALES       : SSN
                                       : INSTITUTO DE GEOFISICA, UNAM

================================================================================
DATOS DE ESTE REGISTRO:
HORA DE LA PRIMERA MUESTRA (GMT)       : 18:14:54.00
EXACTITUD DEL TIEMPO (s)               : 0.01
DURACION DEL REGISTRO (s), C1-C6       : /318.4/318.4/318.4
DURACION DEL REGISTRO (s), C7-C12      : 
NUM. TOTAL DE MUESTRAS, C1-C6          : /31840/31840/31840
NUM. TOTAL DE MUESTRAS, C7-C12         : 
ACEL. MAX. (Gal), C1-C6                : /106.39447/47.91651/119.65177
ACEL. MAX., C1-C6, EN LA MUESTRA       : /6397/6553/7595
ACEL. MAX. (Gal), C7-C12               : 
ACEL. MAX., C7-C12, EN LA MUESTRA      : 
UNIDADES DE LOS DATOS                  : Gal (cm/s/s)
FACTOR DE DECIMACION                   : 1
FORMATO DATOS (FORTRAN,10 campos/dato) : 3F10.5


================================================================================
CALIDAD DEL ACELEROGRAMA:
REGISTRO DIGITAL COMPLETO CON TIEMPO ABSOLUTO CORRECTO.


================================================================================
COMENTARIOS:














================================================================================
DATOS DE ACELERACION:
---------+---------+---------+---------+---------+---------+---------+---------+
   CANAL-1   CANAL-2   CANAL-3   CANAL-4   CANAL-5   CANAL-6   CANAL-7   CANAL-8
      N00E        +V      N90W
---------+---------+---------+---------+---------+---------+---------+---------+
[...]
 -48.67498  -5.47928 -38.90424
 -48.24103  -4.61138 -42.36087
 -48.06146  -3.92305 -44.81492
 -48.25599  -3.59385 -46.47590
 -48.24103  -3.24968 -47.08941
 -48.24103  -2.66609 -46.93978
 -48.00161  -2.21718 -46.99963
 -48.37570  -1.79820 -47.86753
 -48.77972  -1.52885 -48.76535
 -48.94432  -2.09747 -49.93253
 -49.06403  -3.27961 -51.05481
 -48.74980  -5.04533 -51.96760
 -47.73226  -7.75377 -52.08731
 -45.74208 -10.50710 -51.42890
 -43.37781 -12.82649 -50.77050
 -40.71426 -14.63710 -50.56101
 -37.88611 -16.26815 -50.42633
 -35.34227 -17.04627 -50.42633
 -33.42691 -17.03130 -50.71064
 -31.61629 -17.24080 -50.71064
 -29.89546 -16.94152 -50.11209
 -28.20455 -15.62471 -49.51354
 -26.22934 -13.45496 -48.95988
 -24.08952 -10.53703 -48.10695
 -21.66539  -6.87091 -46.35619
 -19.39090  -3.04019 -44.09666
 -17.23612   0.79053 -41.74735
 -15.44047   4.45666 -39.14366
 -13.30065   8.07789 -36.28558
 -10.27797  10.99582 -32.94866
  -6.70163  13.13564 -30.43475
  -2.55667  14.48238 -28.35479
   1.69304  15.14078 -26.30475
   6.13728  15.00611 -23.67113
  10.02785  13.50973 -20.81305
  13.45456  10.87611 -18.31410
  16.62687   8.31731 -15.88997
  19.99372   6.68626 -13.57059
  23.52517   5.98296 -11.92458
  27.28107   4.95046 -10.59280
  31.12676   3.69350  -9.50045
  34.58339   3.24459  -8.66248
  37.90534   4.54644  -8.00407
  40.59882   6.95560  -7.57012
  42.45432   9.96332  -7.33070
  43.02295  12.47723  -7.07632
  42.94813  14.55719  -6.59748
  42.45432  16.66708  -5.55002
  42.11016  17.95397  -3.73940
  42.27476  18.25324  -1.65944
  42.69374  17.46016   0.89937
  43.11273  15.72437   3.92205
  42.76856  13.01593   6.57063
  42.25979   9.51441   8.50096
  41.72110   5.80339   9.32396
  40.92802   1.74822   9.38382
  40.46414  -2.44164   9.05462
  39.97034  -6.37711   8.30643
  39.65610  -9.02569   8.08197
  39.80574 -10.70163   8.39621
  40.04516 -11.76406   9.00972
  40.17983 -12.21297  10.10208
  40.09005 -11.89873  11.19443
  39.65610 -10.62681  13.06490
  39.59625  -9.35489  15.24961
  39.11741  -8.41218  17.68870
  38.38418  -7.57421  20.06794
  37.39657  -6.30229  22.49207
  36.12465  -4.44678  24.45232
  34.37389  -2.44164  25.79906
  31.85998  -0.93030  26.38265
  28.28364   0.17702  26.48740
  24.19854   1.70332  26.08337
  20.42767   4.39680  25.09577
  17.33017   7.25488  24.22787
  15.29510   9.69397  23.16544
  14.27756  11.69912  21.62417
  14.23267  13.18053  19.73874
  14.74144  14.10828  17.41936
  15.01079  14.19806  15.48903
  14.89108  13.06082  13.97769
  14.17282  10.72647  12.88534
  13.15528   7.53919  12.36161
  12.07789   4.12745  11.73313
  11.06035   0.64090  11.17947
  10.13260  -2.57631  10.50610
   9.30959  -4.91066   9.95244
   8.12746  -6.04790   9.65317
   6.64605  -7.15522   8.89001
   5.29931  -8.03808   8.35132
   3.99746  -7.24500   7.69291
   2.68065  -5.26979   6.89983
   1.42369  -3.68363   5.77755
   0.24156  -2.00769   4.70016
  -0.71612   0.08724   3.98190
  -1.49424   2.34677   3.27860
  -2.19754   5.35448   3.14393
  -2.97565   8.55673   3.78737
  -3.85851  10.96589   5.17900
  -4.90598  13.15060   6.81005
  -5.98337  15.03603   8.71045
  -7.04580  16.41270  10.55099
  -8.06333  16.42766  12.42146
  -9.36518  15.61962  14.15726
 -10.98126  13.98857  15.39925
 -12.58239  12.38745  16.55146
 -14.36307  10.48705  17.62885
 -16.27844   7.49430  18.55660
 -18.19380   3.87307  19.28983
 -19.88470   0.25184  19.70881
 -21.36611  -2.90551  19.67888
 -22.57818  -5.34461  19.31975
 -22.66796  -6.48185  18.84091
 -22.02452  -6.48185  18.15258
 -20.46829  -6.04790  17.41936
 -18.16387  -5.65885  16.46168
 -15.48536  -4.92562  15.20472
 -12.86670  -4.10261  13.57367
 -10.62213  -3.66867  11.62838
  -8.82648  -3.66867   9.93748
  -7.88377  -4.44678   8.44110
  -7.36003  -4.88073   6.69034
  -7.15054  -4.53656   4.61038
  -6.62681  -3.33946   2.73991
  -6.26768  -2.05258   0.73476
  -5.51949  -1.10986  -1.53973
  -4.57678  -0.15218  -3.45509
  -3.40960   0.85039  -4.47262
  -1.98804   1.67340  -4.38284
  -0.88073   2.46648  -3.12589
   0.21163   3.78329  -1.42002
   1.13938   5.39937   0.51031
   2.12699   6.92568   2.63516
   3.08467   8.07789   4.95454
   4.22192   8.57169   7.40860
   5.47887   8.13774   9.30900
   6.76576   7.44941  10.53603
   8.15738   6.37202  11.02983
   9.07017   4.63622  10.43128
   9.17492   2.48144   8.42614
   8.81579   0.83543   6.30128
   8.21724  -0.33175   4.14650
   7.34934  -1.52885   1.72237
   6.52634  -2.57631  -0.76161
   6.06246  -2.87559  -3.18574
   5.73326  -2.62120  -5.46023
   5.50880  -1.54381  -8.31831
   5.16463   0.04235 -11.80487
   4.98507   1.92778 -15.75530
   4.89529   3.46905 -20.16961
   4.56608   4.33695 -25.07772
   4.16206   4.18731 -29.62671
   3.78797   2.51137 -33.74174
   3.38395  -0.48138 -37.22830
   2.93503  -4.25225 -39.86192
   2.23174  -7.96326 -41.85210
   1.09449 -10.76149 -43.27365
  -0.16247 -12.40750 -44.17148
  -1.53913 -13.05094 -44.51565
  -2.70631 -13.81410 -44.44083
  -3.79866 -14.39768 -44.12659
  -4.74138 -14.29294 -43.43826
  -5.60927 -13.42504 -42.52547
  -6.82134 -12.33268 -41.43311
  -8.61699 -11.56953 -40.28090
 -10.66703 -10.89616 -39.24840
 -13.27072  -9.05562 -38.35058
 -16.02405  -6.33222 -37.43779
 -18.37336  -3.68363 -36.62975
 -20.12412  -1.37921 -36.55493
 -21.12669   0.47630 -37.36297
 -21.18655   2.15224 -39.02395
 -20.78253   3.79825 -41.20866
 -20.36354   5.17492 -43.82731
 -20.43836   6.44684 -46.93978
 -21.05188   7.56912 -50.09713
 -22.26394   8.58665 -52.80557
 -23.96981   8.60162 -54.39173
 -25.81035   7.74868 -55.30452
 -27.74068   6.16252 -55.33445
 -29.77575   3.78329 -54.72093
 -31.63125   0.59601 -53.50887
 -33.11267  -2.59127 -51.59351
 -34.36962  -5.25482 -49.12449
 -35.26745  -7.20011 -45.84742
 -35.92585  -8.74138 -42.00174
 -36.44958 -10.17790 -37.81188
 -36.29995 -11.03084 -33.17312
 -35.64154 -11.25529 -28.22011
 -34.39955 -11.13558 -23.22222
 -32.64879 -10.59689 -18.47870
 -30.44912  -9.74395 -14.43849
 -27.90528  -8.57678 -11.28114
 -25.66071  -7.31982  -9.79972
 -23.76032  -5.82345  -9.30592
 -22.21905  -4.43182  -9.69498
 -20.70771  -3.11501  -9.99425
 -19.72010  -1.70841  -9.70994
 -19.15148  -0.63102  -8.58766
 -18.59782  -0.03247  -7.01646
 -17.92445   0.58104  -5.41534
 -17.49050   1.49383  -3.81422
 -17.17626   2.64604  -1.79411
 -17.13137   3.27452   0.42053
 -17.17626   3.64861   2.73991
 -17.68503   3.81321   5.85237
 -17.99927   3.51394  10.04222
 -18.19380   2.66100  14.62113
 -18.14891   1.41901  19.64896
 -17.65510   0.01242  24.66182
 -17.13137  -1.69345  29.15095
 -16.14376  -3.47414  32.92181
 -14.60249  -4.70117  35.54047
 -12.29808  -5.15008  37.41094
  -9.29036  -4.62635  39.10185
  -5.90855  -3.53399  40.80771
  -2.12272  -1.99272  42.43876
   2.09706  -0.31678  44.12967
   6.49641   1.23945  46.00014
  10.77604   2.52633  47.90054
  14.74144   3.45408  49.63633
  18.09332   4.42673  51.43198
  20.45760   5.47419  53.73640
  21.75944   5.68368  56.35506
  22.19339   4.80082  59.52738
  21.93901   3.07999  63.10372
  21.40031   1.01499  66.53042
  20.99629  -1.06497  69.88230
  20.93644  -3.12997  73.54842
  21.29557  -5.00044  76.88534
  22.16346  -6.10776  79.36933
  23.37553  -5.55410  81.12009
  24.99162  -3.42925  82.39200
  26.83216  -0.45146  83.37961
  28.74752   2.70590  83.94824
  30.63295   5.99792  84.20262
  32.59321   9.31988  84.65153
  34.50857  12.32759  85.39972
  36.39400  14.81158  85.87856
  37.95023  16.51745  86.37236
  38.95280  17.56491  86.80631
  39.25208  17.72951  87.27019
  38.87798  16.71198  87.73407
  38.09987  14.39259  88.10816
  37.00751  11.87868  87.82385
  35.81041   9.58923  87.28515
  34.59835   7.61401  86.52200
  33.34139   6.16252  85.08548
  32.51839   5.30959  82.99056
  31.78516   4.71104  79.96788
  30.90230   3.96285  76.45139
  30.15411   3.25956  72.38125
  29.36103   3.09495  68.10161
  28.49314   3.25956  63.85191
  27.81977   3.36430  59.75184
  27.08654   3.37927  55.48716
  26.39821   3.36430  51.04293
  25.66498   3.13985  46.17970
  24.93176   2.58619  40.70297
  23.97408   1.53872  34.52294
  22.76202   0.58104  27.86406
  21.16089   0.04235  20.86102
  19.03604  -0.31678  13.69338
  16.52213  -0.63102   6.83998
  13.97829  -0.82555   0.36067
  11.29977  -1.18468  -6.28324
   8.68112  -1.43907 -13.06182
   6.01757  -1.70841 -19.22689
   3.26424  -2.32193 -24.97298
   0.27148  -3.11501 -30.50957
  -2.96069  -3.90809 -35.52243
  -5.93848  -4.35700 -39.78710
  -8.85641  -4.77598 -43.52804
 -11.44514  -5.37453 -46.83503
 -14.01891  -5.85337 -50.14202
 -16.17369  -6.61653 -53.53879
 -18.23869  -7.17019 -56.99542
 -20.01938  -7.96326 -60.58673
 -21.42597  -8.98080 -64.80651
 -22.59314  -9.84870 -69.02629
 -23.56579 -10.62681 -73.48549
 -24.44865 -10.95602 -78.51331
 -25.03224 -11.00091 -83.45135
 -25.09209 -10.74652 -88.28465
 -25.13698 -10.37243 -93.11794
 -24.85267  -9.98337 -97.95124
 -24.53843  -9.07058-102.27576
 -24.14937  -7.27493-106.06159
 -23.82017  -5.00044-109.06931
 -23.47600  -2.78580-111.44855
 -23.35629  -0.49635-113.24420
 -23.35629   1.98764-113.99239
 -23.31140   4.54644-113.55844
 -23.34133   6.20742-112.27155
 -23.01213   7.29977-109.93721
 -22.71285   8.13774-106.74993
 -22.87745   8.31731-102.73964
 -23.98477   7.76365 -97.77167
 -25.88517   7.01546 -92.60917
 -28.18959   6.64137 -87.97041
 -30.34437   6.26727 -83.81048
 -32.06520   5.83332 -79.94983
 -33.15756   5.83332 -75.16143
 -33.41194   5.32455 -70.44784
 -33.02288   4.78586 -66.37770
 -31.81082   4.56140 -62.96596
 -29.44654   4.92053 -59.76372
 -26.49868   4.51651 -57.33959
 -22.92235   3.15481 -56.21731
 -18.47811   1.41901 -55.39430
 -14.12365  -0.34671 -54.12238
 -10.24804  -2.45660 -51.95264
  -6.71659  -4.61138 -48.82521
  -3.79866  -6.49682 -44.88974
  -2.49681  -8.14283 -40.46047
  -2.16761  -9.57935 -35.07351
  -2.60156 -10.74652 -29.07305
  -3.61909 -11.76406 -22.72841
  -5.19029 -12.73670 -16.14436
  -6.61185 -13.75424  -8.91686
  -7.73413 -14.09841  -2.27295
  -7.79398 -13.67942   4.25125
  -6.19286 -12.40750  10.71559
  -3.23004 -10.44725  16.80584
   0.72040  -7.52932  22.65667
   5.41902  -4.74606  27.81917
  10.32713  -1.85805  32.98167
  15.38488   1.17959  38.03942
  20.12839   4.02271  42.28913
  24.70730   6.77604  46.44905
  28.61285   9.21513  50.74365
  32.18918  10.90604  54.96343
  35.34654  11.33999  60.02118
  37.95023  10.87611  65.48296
  39.29697   9.72390  71.16918
  39.49150   8.30234  77.28936
  38.77324   7.28481  83.39458
  37.80059   6.52166  89.32023
  36.70824   5.60887  94.82689
  35.79545   4.68111 100.31859
  35.61589   3.81321 105.31649
  35.91516   3.21466 109.50634
  36.42393   3.51394 113.17246
  37.11226   3.79825 116.09039
  38.18965   3.93292 118.12546
  39.01266   4.24716 119.38242
  39.13237   3.99278 119.65177
  38.75827   2.73582 119.20286
  38.06994   0.85039 117.75137
  37.48636  -1.07994 115.38710
  36.67831  -2.68106 112.60384
  35.52610  -4.43182 109.40159
  33.95491  -6.37711 105.88511
  32.00962  -8.18772 101.74015
  30.01944 -10.07316  96.86196
  28.26868 -11.53960  91.20566
  26.89201 -13.29036  85.33987
  26.06901 -14.99623  78.96530
  25.65002 -15.54989  72.27650
  25.38067 -15.32544  65.66252
  25.06643 -15.07105  59.33285
  24.10875 -14.26301  53.24260
  22.83683 -12.76663  47.55637
  21.20578 -10.07316  42.00482
  18.97618  -6.25740  37.33612
  16.88126  -2.27704  33.11634
  14.84619   1.19456  28.85167
  13.45456   4.14242  24.73664
  12.16767   6.38698  21.11541
  11.10525   7.97314  17.79345
  10.25231   8.97571  14.08244
   9.29463  10.24763  10.14697
   8.42673  11.26517   6.19654
   7.15481  11.35495   1.21360
   5.34420  10.66662  -4.06860
   2.92007   9.12535 -10.14389
   0.21163   7.04539 -16.35385
  -2.57163   4.08256 -22.69848
  -5.90855   1.07485 -29.11794
  -9.48489  -1.70841 -35.58228
 -13.07619  -3.98290 -41.97181
 -16.90691  -5.79352 -48.51097
 -20.55807  -6.36214 -54.70597
 -24.13441  -6.57164 -60.57176
 -27.15709  -7.05048 -66.16821
 -29.55129  -7.06544 -71.24092
 -31.78089  -6.88587 -75.56545
 -33.44187  -7.08040 -79.71041
 -34.84846  -6.52674 -84.09479
 -36.13535  -5.31468 -88.37443
 -37.42223  -4.22232 -92.41464
 -38.76897  -3.24968 -95.88624
 -40.31023  -2.69602 -98.99870
 -41.82157  -1.99272-101.61736
 -43.51248  -0.76570-103.74221
 -45.29317   0.19198-105.32837
 -47.19356   0.91024-106.21123
 -49.67755   1.40405-106.51051
 -51.90715   2.13727-106.01670
 -54.36121   2.75079-105.19370
 -56.62073   3.46905-103.35315
 -58.17696   4.65119-100.67464
 -59.20946   6.34209 -97.00852
 -59.86787   7.97314 -92.07048
 -59.86787   8.55673 -86.36928
 -59.44888   7.94321 -80.39874
 -58.71566   6.55158 -74.12893
 -57.41381   4.62126 -67.47006
 -55.69298   2.49640 -61.03564
 -53.53820   0.59601 -54.75086
 -51.47320  -0.82555 -48.63068
 -50.24617  -2.02265 -42.60029
 -49.31842  -2.95041 -36.65967
 -48.89943  -4.34203 -31.61689
 -49.10893  -6.43696 -27.24747
 -48.95929  -7.81363 -22.99776
 -48.57023  -8.81620 -19.15207
 -47.52277  -9.45964 -15.87501
 -45.81690  -9.95345 -12.65780
 -43.75190  -9.81877  -9.91943
 -41.46244  -8.84613  -7.24092
 -39.26277  -7.27493  -4.75694
 -37.06310  -5.58403  -2.19813
 -34.75868  -3.81830   0.60009
 -32.55901  -1.40914   3.47313
 -30.17977   1.31427   6.92976
 -27.69578   4.29205  10.59588
 -25.03224   7.58408  14.51639
 -22.38365  10.11296  18.88581
 -19.22630  12.67176  22.95595
 -15.94923  15.09589  26.72682
 -12.74699  16.62219  31.09623
  -9.36518  17.53498  36.00435
  -5.81877  17.93900  40.70297
  -1.71870  19.04632  45.23699
   2.83029  20.22846  49.77101
   7.72344  21.09636  54.43970
  13.03557  21.44052  59.03357
  17.59952  20.70730  63.02890
  21.80433  19.30071  66.23114
  25.73980  17.34045  69.19397
  29.33111  14.85647  72.08197
  32.60817  12.28270  74.50610
  35.84034  10.09799  76.28679
  38.62360   8.07789  77.25943
  41.39190   5.60887  78.08244
  43.77113   2.96028  78.11237
  46.16534   0.91024  77.22951
  48.37997  -1.13979  76.33168
  50.56468  -2.65113  75.05976
  52.39026  -4.62635  74.28165
  54.38044  -6.40703  73.15936
  56.35566  -7.58917  71.88744
  58.43562  -7.78370  71.04947
  60.82982  -8.05305  70.18158
  63.65797  -8.47203  69.40346
  66.56094  -8.95087  68.62535
  69.31427  -9.41475  67.47314
  71.27453 -10.16294  65.99172
  72.96543 -10.47718  63.97162
  74.11764 -10.05819  61.15843
  74.58152  -9.32497  57.92626
  74.20742  -8.42714  54.18532
  73.15996  -7.18515  49.81590
  71.57380  -6.25740  44.96764
  69.53873  -5.67381  39.71536
  67.68322  -4.83584  34.46308
  65.70801  -4.64131  29.03124
  64.18170  -4.76102  23.30011
  62.35613  -5.18001  17.47921
  60.42580  -5.94316  12.27182
  58.43562  -5.98805   7.28889
  56.63997  -5.32964   2.65013
  54.84432  -4.83584  -1.53973
  53.70707  -4.74606  -5.43030
  53.03370  -4.98548  -9.39570
  52.74939  -4.49167 -13.49577
  52.18077  -2.93544 -17.65570
  51.04352  -1.10986 -21.69591
  49.30773   0.47630 -26.09526
  46.49454   1.35916 -30.24022
  42.87331   1.38909 -34.20562
  38.99770   1.10477 -38.39547
  35.39143   0.43140 -42.28605
  31.96473  -0.88541 -45.74268
  28.52306  -2.42667 -48.94492
  24.96169  -3.80334 -51.62343
  21.65470  -4.62635 -53.86800
  17.89879  -4.43182 -55.87314
  13.54434  -4.07269 -57.87829
   9.41434  -3.78838 -59.15020
   5.40405  -2.89055 -59.86847
   1.21420  -1.78323 -60.87104
  -2.94573  -1.00512 -61.99332
  -6.83630   0.55111 -62.59187
 -10.59221   1.92778 -62.27763
