********************************************************************************
               CENTRO DE INSTRUMENTACION Y REGISTRO SISMICO  A.C.  
                       Coordinacion de Servicios Tecnicos
     Anaxagoras 814, Col. Narvarte, Benito Juarez, C.P. 03020 Mexico, D.F.
            Tels. 687 45 42/ 687 45  82             Fax. 669 25 12
********************************************************************************
ARCHIVO ESTANDAR DE ACELERACION:
VERSION DEL FORMATO                    : 2.0
NOMBRE DEL ARCHIVO                     : AO240110.081
FECHA Y HORA DE CREACION               : 06/JUL/04, 11:20
REF. CATALOGO ACELEROGRAMAS, SMIS 1996 : REGISTRO No.     /PAG.


================================================================================
DATOS DE LA ESTACION:
NOMBRE DE LA ESTACION                  : ALBERCA OLIMPICA
CLAVE DE LA ESTACION                   : AO24
LOCALIZACION DE LA ESTACION            : Alberca Olimpica Rio Churubusco y
                                       : Division del Norte, Col Pedro Ma
                                       : Anaya, Benito Juarez
                                       :
                                       :
COORDENADAS DE LA ESTACION             : 19.358 LAT. N 
                                       : 99.154 LONG. W 
ALTITUD (msnm)                         : 2235
TIPO DE SUELO                          : TRANSICION
                                       : 
                                       : 
INSTITUCION RESPONSABLE                : CIRES
                                       :

================================================================================
DATOS DEL ACELEROGRAFO:
MODELO DEL ACELEROGRAFO                : RAD-851
NUMERO DE SERIE DEL ACELEROGRAFO       : 257
NUMERO DE CANALES                      : 3
ORIENTACION C1-C6 (rumbo;orientacion)  : /N00E/+V/N90W
ORIENTACION C7-C12 (rumbo;orientacion) :
VEL. DE MUESTREO, C1-C6 (muestras/s)   : /100/100/100
VEL. DE MUESTREO, C7-C12 (muestras/s)  :
ESC. COMPLETA DE SENSORES, C1-C6, (g)  : /0.5/0.5/0.5
ESC. COMPLETA DE SENSORES, C7-C12, (g) :
FREC. NAT. DE SENSORES, C1-C6, (Hz)    : /30/30/30
FREC. NAT. DE SENSORES, C7-C12, (Hz)   :
AMORTIGUAMIENTO DE SENSORES, C1-C6     : /0.700/0.700/0.700
AMORTIGUAMIENTO DE SENSORES, C7-C12    :
INTERVALO DE MUESTREO, C1-C6, (s)      : /0.01/0.01/0.01
INTERVALO DE MUESTREO, C7-C12, (s)     :
UMBRAL DE DISPARO, C1-C6, (Gal)        : /1.95/2.93/1.95
UMBRAL DE DISPARO, C7-C12, (Gal)       :
MEMORIA DE PREEVENTO (s)               : 24
TIEMPO DE POSEVENTO (s)                : 64


================================================================================
DATOS DEL SISMO:
FECHA DEL SISMO (GMT)                  : 08/OCT/01
HORA EPICENTRO (GMT)                   : 03:39:19:3
MAGNITUD(ES)                           : /Mb=5.6/Ms=5.4/Mc=5.5/Ma=7.6/Me=6.1
COORDENADAS DEL EPICENTRO              : 16.94 LAT. N
                                       : 100.14 LONG. W
PROFUNDIDAD FOCAL (km)                 : 4.0
FUENTE DE LOS DATOS EPICENTRALES       : SSN
                                       : INSTITUTO DE GEOFISICA, UNAM

================================================================================
DATOS DE ESTE REGISTRO:
HORA DE LA PRIMERA MUESTRA (GMT)       : 03:40:39.00
EXACTITUD DEL TIEMPO (s)               : 0.01
DURACION DEL REGISTRO (s), C1-C6       : /110.75/110.75/110.75
DURACION DEL REGISTRO (s), C7-C12      :
NUM. TOTAL DE MUESTRAS, C1-C6          : /11075/11075/11075
NUM. TOTAL DE MUESTRAS, C7-C12         :
ACEL. MAX. (Gal), C1-C6                : /5.10126/-2.27516/6.00960
ACEL. MAX., C1-C6, EN LA MUESTRA       :
ACEL. MAX. (Gal), C7-C12               :
ACEL. MAX., C7-C12, EN LA MUESTRA      :
UNIDADES DE LOS DATOS                  : Gal (cm/s/s)
FACTOR DE DECIMACION                   : 1
FORMATO DATOS (FORTRAN,10 campos/dato) : 3F10.5


================================================================================
CALIDAD DEL ACELEROGRAMA:
REGISTRO DIGITAL COMPLETO CON TIEMPO ABSOLUTO CORRECTO.


================================================================================
COMENTARIOS:














================================================================================
DATOS DE ACELERACION:
---------+---------+---------+---------+---------+---------+---------+---------+
   CANAL-1   CANAL-2   CANAL-3   CANAL-4   CANAL-5   CANAL-6   CANAL-7   CANAL-8
      N00E        +V      N90W
---------+---------+---------+---------+---------+---------+---------+---------+
[...]
   1.98881  -0.59923  -0.21529
   1.98881  -0.35981  -0.45471
   1.98881  -0.35981  -0.45471
   2.22823  -0.35981  -0.69413
   2.22823  -0.35981  -0.93355
   2.22823  -0.35981  -1.17297
   1.98881  -0.35981  -1.65181
   1.98881  -0.35981  -1.65181
   1.50997  -0.59923  -1.89123
   1.27055  -0.35981  -1.89123
   1.03113  -0.12039  -1.89123
   0.79171  -0.35981  -2.13064
   0.55230  -0.12039  -2.13064
   0.55230  -0.12039  -1.89123
   0.07346  -0.12039  -1.89123
  -0.16596  -0.12039  -1.65181
  -0.40538  -0.35981  -1.41239
  -0.64480  -0.35981  -1.41239
  -0.88422  -0.35981  -1.17297
  -0.88422  -0.35981  -0.93355
  -1.12364  -0.35981  -0.93355
  -0.88422  -0.35981  -0.93355
  -0.88422  -0.12039  -0.69413
  -0.64480   0.11903  -0.93355
  -0.40538   0.11903  -0.69413
  -0.40538  -0.12039  -0.69413
  -0.40538  -0.12039  -0.69413
  -0.16596  -0.12039  -0.45471
  -0.40538  -0.35981  -0.45471
  -0.40538  -0.12039  -0.21529
  -0.40538  -0.35981   0.26354
  -0.40538  -0.59923   0.26354
  -0.40538  -0.59923   0.50296
  -0.40538  -0.59923   0.98180
  -0.40538  -0.35981   0.98180
  -0.16596  -0.35981   1.22122
   0.07346  -0.35981   1.22122
   0.07346   0.11903   1.22122
   0.31288   0.35845   1.46064
   0.55230   0.59787   1.46064
   0.55230   0.83729   1.22122
   0.55230   1.07670   1.46064
   0.55230   1.07670   1.46064
   0.55230   1.55554   1.46064
   0.55230   1.79496   1.46064
   0.31288   1.79496   1.22122
   0.31288   1.79496   0.98180
   0.31288   1.55554   0.98180
  -0.16596   1.31612   0.74238
  -0.16596   1.07670   0.74238
  -0.16596   0.59787   0.74238
  -0.40538   0.35845   0.74238
  -0.64480  -0.12039   0.98180
  -0.40538  -0.35981   0.98180
  -0.64480  -0.59923   0.98180
  -0.64480  -0.83865   0.98180
  -0.40538  -0.83865   0.74238
  -0.40538  -0.83865   0.74238
  -0.16596  -0.59923   0.98180
  -0.16596  -0.59923   0.98180
   0.07346   0.11903   1.22122
   0.07346   0.35845   1.46064
   0.07346   0.59787   1.93948
   0.31288   1.07670   2.17890
   0.31288   1.07670   2.41832
   0.07346   1.31612   2.41832
  -0.16596   1.07670   2.65773
  -0.40538   1.07670   2.41832
  -0.64480   0.83729   2.17890
  -0.88422   0.83729   1.93948
  -1.12364   0.59787   1.46064
  -1.36306   0.59787   1.22122
  -1.84189   0.35845   0.74238
  -2.08131   0.35845   0.26354
  -2.32073   0.11903   0.02413
  -2.56015   0.11903  -0.21529
  -2.79957   0.11903  -0.45471
  -3.03899   0.11903  -0.21529
  -3.03899   0.11903  -0.21529
  -2.79957   0.11903  -0.21529
  -2.79957   0.11903  -0.21529
  -2.56015   0.11903  -0.21529
  -2.32073  -0.12039  -0.21529
  -2.08131  -0.35981  -0.21529
  -2.08131  -0.59923  -0.45471
  -1.84189  -0.83865  -0.45471
  -1.84189  -1.31749  -0.69413
  -2.08131  -1.07807  -1.17297
  -1.84189  -1.07807  -1.17297
  -2.08131  -1.07807  -1.65181
  -2.08131  -0.83865  -1.89123
  -2.08131  -0.83865  -2.13064
  -2.08131  -0.59923  -2.60948
  -2.08131  -0.35981  -2.84890
  -1.84189  -0.12039  -2.84890
  -1.36306   0.11903  -2.84890
  -1.12364   0.59787  -2.84890
  -0.88422   0.35845  -2.84890
  -0.64480   0.35845  -2.84890
  -0.16596   0.35845  -2.37006
   0.07346   0.11903  -2.13064
   0.07346  -0.12039  -2.13064
   0.31288  -0.35981  -1.89123
   0.31288  -0.59923  -1.89123
   0.31288  -0.59923  -2.13064
   0.31288  -0.59923  -2.13064
   0.31288  -0.59923  -2.60948
   0.07346  -0.35981  -2.60948
  -0.16596  -0.59923  -2.84890
  -0.64480  -0.12039  -3.08832
  -0.64480   0.11903  -3.08832
  -0.88422   0.11903  -3.08832
  -0.88422   0.11903  -3.32774
  -0.64480   0.11903  -3.08832
  -0.40538  -0.12039  -3.08832
  -0.16596  -0.12039  -2.60948
   0.07346  -0.35981  -2.37006
   0.07346  -0.35981  -1.89123
   0.31288  -0.35981  -1.41239
   0.79171  -0.35981  -0.93355
   0.79171  -0.35981  -0.69413
   1.03113  -0.12039   0.02413
   1.27055  -0.35981   0.50296
   1.50997  -0.12039   0.74238
   1.74939  -0.12039   1.22122
   1.98881   0.11903   1.70006
   2.22823   0.35845   1.70006
   2.46765   0.59787   1.93948
   2.46765   0.59787   1.93948
   2.70707   0.83729   1.93948
   2.70707   0.83729   2.17890
   2.46765   0.59787   2.17890
   2.46765   0.35845   2.17890
   2.46765   0.11903   2.17890
   2.22823  -0.35981   2.17890
   2.22823  -0.35981   1.93948
   2.22823  -0.59923   1.93948
   2.22823  -0.59923   2.17890
   2.22823  -0.83865   2.17890
   2.46765  -0.59923   2.17890
   2.22823  -0.59923   2.41832
   2.22823  -0.35981   2.65773
   2.22823  -0.35981   2.89715
   2.22823  -0.35981   3.13657
   2.22823  -0.12039   3.37599
   2.46765   0.11903   3.61541
   2.22823   0.11903   4.09425
   2.22823   0.11903   4.09425
   2.22823  -0.12039   4.33367
   2.22823  -0.12039   4.57309
   1.98881  -0.12039   4.81250
   1.98881  -0.12039   4.81250
   1.98881  -0.35981   5.05192
   1.98881  -0.35981   4.57309
   1.98881  -0.35981   4.57309
   2.22823  -0.12039   4.33367
   2.22823   0.11903   3.85483
   2.46765   0.35845   3.85483
   2.70707   0.35845   3.37599
   2.70707   0.59787   3.13657
   2.70707   0.83729   2.89715
   2.70707   0.83729   2.41832
   2.46765   1.07670   1.93948
   2.46765   0.83729   1.70006
   1.74939   0.83729   1.22122
   1.50997   0.83729   0.98180
   1.50997   0.83729   0.74238
   0.79171   0.83729   0.26354
   0.55230   0.83729   0.02413
   0.07346   0.59787  -0.21529
  -0.40538   0.59787  -0.45471
  -0.64480   0.59787  -0.69413
  -0.88422   0.59787  -0.93355
  -1.12364   0.59787  -0.93355
  -1.12364   0.59787  -0.93355
  -1.60247   0.59787  -0.93355
  -1.60247   0.59787  -1.17297
  -1.84189   0.35845  -1.17297
  -2.32073   0.35845  -1.41239
  -2.08131   0.35845  -1.65181
  -2.32073   0.11903  -1.65181
  -2.32073  -0.12039  -2.13064
  -2.32073  -0.35981  -2.13064
  -2.32073  -0.83865  -2.37006
  -2.08131  -0.83865  -2.60948
  -2.08131  -1.07807  -2.84890
  -2.32073  -1.31749  -3.08832
  -2.32073  -1.31749  -3.32774
  -2.32073  -1.31749  -3.32774
  -2.08131  -1.31749  -3.32774
  -2.32073  -1.31749  -3.32774
  -2.32073  -1.31749  -3.08832
  -2.08131  -1.31749  -3.08832
  -2.08131  -1.07807  -2.84890
  -2.08131  -0.83865  -2.60948
  -1.84189  -0.83865  -2.60948
  -1.60247  -0.35981  -2.37006
  -1.60247  -0.12039  -2.37006
  -1.12364   0.11903  -2.37006
  -0.88422   0.11903  -2.37006
  -0.88422   0.35845  -2.37006
  -0.64480   0.35845  -2.37006
  -0.40538   0.11903  -2.60948
  -0.40538  -0.12039  -2.60948
  -0.40538  -0.12039  -2.60948
  -0.64480  -0.35981  -2.84890
  -0.64480  -0.59923  -3.08832
  -0.64480  -0.59923  -3.08832
  -0.64480  -0.83865  -3.32774
  -0.64480  -0.83865  -3.08832
  -0.88422  -1.07807  -2.84890
  -0.88422  -0.83865  -2.84890
  -0.88422  -0.83865  -2.60948
  -0.88422  -0.59923  -2.60948
  -0.88422  -0.35981  -2.13064
  -0.64480   0.11903  -1.65181
  -0.64480   0.11903  -1.41239
  -0.40538   0.59787  -1.17297
  -0.16596   0.83729  -0.45471
   0.07346   0.83729  -0.21529
   0.31288   1.07670   0.02413
   0.31288   1.31612   0.50296
   0.31288   1.31612   0.50296
   0.31288   1.55554   0.50296
   0.31288   1.31612   0.74238
   0.31288   1.31612   0.74238
   0.07346   1.07670   0.74238
   0.07346   1.07670   0.98180
  -0.16596   0.83729   0.98180
  -0.16596   0.83729   1.22122
  -0.16596   0.59787   1.22122
  -0.16596   0.35845   1.22122
   0.07346   0.11903   1.22122
   0.07346  -0.12039   1.22122
  -0.16596  -0.12039   1.22122
  -0.16596  -0.12039   1.70006
  -0.16596  -0.35981   1.70006
  -0.40538  -0.12039   2.17890
  -0.16596   0.11903   2.41832
  -0.16596   0.35845   2.89715
   0.07346   0.59787   3.13657
   0.31288   0.59787   3.61541
   0.55230   0.59787   3.85483
   1.03113   0.59787   4.09425
   1.27055   0.59787   4.09425
   1.27055   0.59787   4.33367
   1.27055   0.59787   4.33367
   1.27055   0.35845   4.33367
   1.27055   0.11903   4.09425
   1.03113   0.11903   3.85483
   0.79171   0.11903   3.37599
   0.31288   0.11903   3.37599
   0.31288   0.11903   2.89715
  -0.16596  -0.12039   2.41832
  -0.40538  -0.12039   1.93948
  -0.40538   0.11903   1.46064
  -0.40538   0.35845   1.22122
  -0.16596   0.35845   1.22122
   0.07346   0.59787   0.98180
   0.31288   0.83729   0.74238
   0.79171   1.07670   0.74238
   1.27055   1.31612   0.50296
   1.74939   1.07670   0.50296
   1.98881   1.07670   0.50296
   2.22823   1.07670   0.26354
   2.22823   0.83729   0.26354
   2.22823   0.59787   0.26354
   1.74939   0.35845   0.26354
   1.27055  -0.12039   0.26354
   1.03113  -0.35981   0.02413
   0.55230  -0.59923   0.02413
   0.07346  -0.83865  -0.45471
   0.07346  -0.83865  -0.45471
   0.07346  -1.07807  -0.69413
   0.07346  -0.83865  -0.93355
   0.31288  -0.59923  -0.93355
   0.31288  -0.35981  -0.93355
   0.79171  -0.12039  -1.17297
   1.03113  -0.12039  -0.93355
   0.79171  -0.12039  -0.93355
   1.03113   0.11903  -1.17297
   1.27055  -0.12039  -0.93355
   1.03113  -0.12039  -0.93355
   1.27055  -0.12039  -0.93355
   1.03113  -0.35981  -0.69413
   1.03113  -0.35981  -0.69413
   1.03113  -0.12039  -0.69413
   1.27055  -0.12039  -0.69413
   1.03113  -0.12039  -0.93355
   1.27055   0.11903  -1.17297
   1.03113   0.11903  -1.17297
   0.79171   0.11903  -1.41239
   0.55230   0.35845  -1.41239
   0.31288   0.35845  -1.65181
  -0.16596   0.59787  -1.65181
  -0.40538   0.35845  -1.65181
  -0.88422   0.35845  -1.89123
  -1.36306   0.35845  -1.89123
  -1.60247   0.11903  -1.89123
  -2.08131  -0.35981  -2.37006
  -2.08131  -0.35981  -2.60948
  -2.08131  -0.59923  -3.08832
  -2.08131  -0.83865  -3.32774
  -1.84189  -0.59923  -3.56716
  -1.84189  -0.83865  -3.80658
  -1.60247  -0.59923  -4.04600
  -1.36306  -0.35981  -3.80658
  -1.36306  -0.35981  -3.80658
  -1.36306  -0.12039  -3.56716
  -1.60247  -0.12039  -3.08832
  -1.84189  -0.12039  -2.84890
  -1.84189   0.11903  -2.37006
  -2.08131   0.35845  -2.13064
  -2.08131   0.11903  -1.89123
  -2.08131  -0.12039  -1.65181
  -2.08131  -0.35981  -1.41239
  -2.32073  -0.59923  -1.65181
  -2.32073  -0.83865  -1.41239
  -2.32073  -1.31749  -1.41239
  -2.32073  -1.31749  -1.41239
  -2.32073  -1.31749  -1.41239
  -2.32073  -1.31749  -1.65181
  -2.08131  -1.07807  -1.89123
  -1.84189  -0.83865  -1.89123
  -1.84189  -0.59923  -1.89123
  -1.60247  -0.35981  -1.65181
  -1.60247  -0.12039  -1.17297
  -1.60247   0.11903  -0.93355
  -1.36306   0.35845  -0.45471
  -1.60247   0.35845  -0.21529
  -1.36306   0.59787   0.02413
  -1.12364   0.59787   0.50296
  -1.36306   0.59787   0.74238
  -1.12364   0.83729   0.98180
  -1.12364   0.83729   1.22122
  -1.36306   0.83729   1.46064
  -1.12364   0.83729   1.70006
  -1.12364   0.59787   1.93948
  -1.12364   0.83729   2.17890
  -0.64480   0.83729   2.41832
  -0.64480   0.59787   2.89715
  -0.40538   0.59787   3.13657
  -0.16596   0.59787   3.61541
   0.07346   0.11903   3.85483
   0.31288  -0.12039   4.33367
   1.03113  -0.35981   4.81250
   1.50997  -0.59923   5.29134
   2.22823  -1.07807   5.53076
   2.70707  -1.07807   5.77018
   3.18590  -1.31749   6.00960
   3.42532  -1.31749   6.00960
   3.66474  -1.31749   5.77018
   3.66474  -1.07807   5.77018
   3.42532  -1.07807   5.53076
   3.42532  -0.83865   5.05192
   3.18590  -0.35981   4.81250
   2.70707  -0.12039   4.33367
   2.70707   0.11903   3.85483
   2.46765  -0.12039   3.61541
   2.22823   0.11903   3.13657
   2.22823   0.35845   2.89715
   1.98881   0.11903   3.13657
   2.22823   0.11903   2.89715
   2.22823   0.11903   2.89715
   2.22823  -0.12039   2.65773
   1.98881  -0.12039   2.41832
   1.98881  -0.12039   2.17890
   1.98881  -0.35981   2.17890
   1.74939  -0.35981   1.93948
   1.50997  -0.35981   1.70006
   1.50997  -0.12039   1.70006
   1.27055   0.11903   1.46064
   1.27055   0.59787   1.46064
   1.27055   0.59787   1.22122
   1.27055   0.83729   0.98180
   1.27055   0.83729   0.74238
   1.27055   1.07670   0.50296
   1.27055   1.07670   0.50296
   1.03113   0.83729   0.26354
   0.79171   0.59787   0.26354
   0.79171   0.35845   0.02413
   0.31288   0.11903  -0.21529
   0.07346  -0.35981  -0.45471
  -0.16596  -0.59923  -0.93355
  -0.40538  -0.83865  -1.41239
  -0.88422  -1.07807  -1.89123
  -1.12364  -1.07807  -2.37006
  -1.36306  -1.31749  -2.60948
  -1.60247  -1.07807  -2.84890
  -1.84189  -1.07807  -3.08832
  -2.08131  -0.83865  -3.08832
  -2.08131  -0.59923  -3.32774
  -2.08131  -0.35981  -3.08832
  -2.08131  -0.12039  -3.08832
  -1.84189   0.11903  -3.08832
  -1.60247   0.35845  -3.08832
  -1.84189   0.35845  -3.08832
  -1.60247   0.59787  -3.08832
  -1.84189   0.35845  -3.08832
  -2.32073   0.35845  -3.08832
  -2.56015   0.35845  -3.08832
  -3.03899   0.11903  -3.08832
  -3.27841   0.11903  -3.08832
  -3.75725   0.11903  -3.08832
  -3.99666   0.11903  -3.32774
  -3.75725   0.35845  -3.32774
  -3.99666   0.35845  -3.32774
  -3.51783   0.59787  -3.32774
  -3.03899   0.59787  -3.08832
  -2.79957   0.83729  -2.84890
  -2.08131   1.07670  -2.84890
  -1.60247   1.07670  -2.37006
  -1.36306   1.07670  -2.13064
  -1.36306   1.07670  -1.65181
  -1.12364   1.07670  -1.41239
  -1.36306   0.83729  -0.93355
  -1.60247   0.59787  -0.69413
  -1.60247   0.11903  -0.45471
  -1.84189  -0.12039  -0.21529
  -1.60247  -0.35981  -0.21529
  -1.60247  -0.83865  -0.45471
  -1.36306  -1.31749  -0.45471
  -1.12364  -1.79632  -0.45471
  -1.36306  -2.03574  -0.45471
  -0.88422  -2.03574  -0.45471
  -1.12364  -2.27516  -0.45471
  -0.88422  -2.27516  -0.69413
  -0.88422  -2.03574  -0.69413
  -0.64480  -1.79632  -0.69413
  -0.64480  -1.31749  -0.69413
  -0.64480  -1.07807  -0.45471
  -0.88422  -0.59923  -0.21529
  -0.88422  -0.35981   0.26354
  -1.12364   0.11903   0.50296
  -1.12364   0.35845   0.74238
  -0.88422   0.59787   0.98180
  -0.40538   0.59787   0.98180
  -0.16596   0.83729   0.98180
   0.31288   1.07670   0.98180
   1.03113   1.07670   0.98180
   1.50997   1.07670   0.98180
   1.98881   1.07670   0.74238
   2.46765   1.07670   0.74238
   2.94649   0.83729   0.74238
   3.18590   0.83729   0.74238
   3.42532   0.59787   0.74238
   3.42532   0.35845   0.98180
   3.42532   0.11903   0.98180
   3.18590   0.11903   1.22122
   2.94649   0.11903   1.22122
   3.18590   0.11903   1.46064
   3.18590   0.11903   1.46064
   3.18590   0.11903   1.46064
   3.42532   0.11903   1.46064
   3.42532   0.11903   1.46064
   3.42532  -0.12039   0.98180
   3.66474  -0.12039   0.50296
   3.66474  -0.12039   0.26354
   3.42532  -0.35981  -0.21529
   3.42532  -0.12039  -0.69413
   3.42532  -0.35981  -1.17297
   3.42532  -0.35981  -1.41239
   3.18590  -0.12039  -1.89123
   3.18590  -0.35981  -2.13064
   2.70707  -0.35981  -2.13064
   2.70707  -0.35981  -2.60948
   2.70707  -0.35981  -2.37006
   2.70707  -0.35981  -2.37006
   2.70707  -0.12039  -2.37006
   2.70707  -0.35981  -2.37006
   2.70707  -0.35981  -2.13064
   2.70707  -0.35981  -2.13064
   2.70707  -0.35981  -2.13064
   2.46765  -0.59923  -2.13064
   2.46765  -0.35981  -1.89123
   2.46765  -0.35981  -1.65181
   2.22823  -0.12039  -1.65181
   1.98881   0.11903  -1.41239
   1.74939   0.11903  -1.17297
   1.50997   0.35845  -1.17297
   1.27055   0.83729  -1.17297
   0.79171   0.83729  -1.41239
   0.55230   1.07670  -1.41239
   0.31288   1.07670  -1.41239
   0.07346   0.83729  -1.65181
  -0.16596   0.83729  -1.65181
  -0.16596   0.83729  -1.65181
  -0.40538   0.59787  -1.65181
  -0.40538   0.59787  -1.65181
  -0.64480   0.35845  -1.41239
  -0.88422   0.35845  -1.41239
  -1.36306   0.59787  -1.17297
  -1.60247   0.59787  -0.69413
  -1.84189   0.83729  -0.69413
  -1.84189   0.83729  -0.21529
  -2.08131   0.59787   0.50296
  -2.32073   0.59787   0.74238
  -2.32073   0.59787   1.46064
  -2.32073   0.59787   1.93948
