********************************************************************************
              CENTRO DE INSTRUMENTACION Y REGISTRO SISMICO  A.C.

    Anaxagoras 814, Col. Narvarte, Benito Juarez, C.P. 03020 Mexico, D.F.
           Tels. 5687 45 42/ 5687 45  82             Fax. 5669 25 12
********************************************************************************
ARCHIVO ESTANDAR DE ACELERACION:
VERSION DEL FORMATO                    : 2.0
NOMBRE DEL ARCHIVO                     : AO2419880208135129
FECHA Y HORA DE CREACION               : 30/ABR/18, 12:26
REF. CATALOGO ACELEROGRAMAS, SMIS 1996 : REGISTRO No.     /PAG.


================================================================================
DATOS DE LA ESTACION:
NOMBRE DE LA ESTACION                  : ALBERCA OL�MPICA
CLAVE DE LA ESTACION                   : AO24
LOCALIZACION DE LA ESTACION            : Del. Benito Ju�rez, Col. General Pedro 
                                       : Mar�a Anaya, R�o Churubusco            
                                       : y Divisi�n del Norte.                  
                                       :                                        
                                       : 
COORDENADAS DE LA ESTACION             : 19.3580 LAT. N
                                       : 99.1539 LONG. W
ALTITUD (msnm)                         : 2235
TIPO DE SUELO                          : Transici�n                          
                                       :                           
                                       : 
INSTITUCION RESPONSABLE                : CIRES
                                       : 

================================================================================
DATOS DEL ACELEROGRAFO:
MODELO DEL ACELEROGRAFO                : DCA-333
NUMERO DE SERIE DEL ACELEROGRAFO       : 215
NUMERO DE CANALES                      : 3
ORIENTACION C1-C6 (rumbo;orientacion)  : /N00E/+V/N90W
ORIENTACION C7-C12 (rumbo;orientacion) : 
VEL. DE MUESTREO, C1-C6 (muestras/s)   : /100/100/100
VEL. DE MUESTREO, C7-C12 (muestras/s)  : 
ESC. COMPLETA DE SENSORES, C1-C6, (g)  : /0.5/0.5/0.5
ESC. COMPLETA DE SENSORES, C7-C12, (g) : 
FREC. NAT. DE SENSORES, C1-C6, (Hz)    : /30/30/30
FREC. NAT. DE SENSORES, C7-C12, (Hz)   : 
AMORTIGUAMIENTO DE SENSORES, C1-C6     : /0.700/0.700/0.700
AMORTIGUAMIENTO DE SENSORES, C7-C12    : 
INTERVALO DE MUESTREO, C1-C6, (s)      : /0.01/0.01/0.01
INTERVALO DE MUESTREO, C7-C12, (s)     : 
UMBRAL DE DISPARO, C1-C6, (Gal)        : /2.2/2.93/2.2
UMBRAL DE DISPARO, C7-C12, (Gal)       : 
MEMORIA DE PREEVENTO (s)               : 4.0
TIEMPO DE POSEVENTO (s)                : 15.0


================================================================================
DATOS DEL SISMO:
FECHA DEL SISMO (GMT)                  : 08/FEB/88
HORA EPICENTRO (GMT)                   : 13:51:29.0
MAGNITUD(ES)                           : /Mc=5.0
COORDENADAS DEL EPICENTRO              : 17.49 LAT. N
                                       : 101.15 LONG. W
PROFUNDIDAD FOCAL (km)                 : 19
FUENTE DE LOS DATOS EPICENTRALES       : SSN
                                       : INSTITUTO DE GEOFISICA, UNAM

================================================================================
DATOS DE ESTE REGISTRO:
HORA DE LA PRIMERA MUESTRA (GMT)       : 13:53:13.39
EXACTITUD DEL TIEMPO (s)               : 0.01
DURACION DEL REGISTRO (s), C1-C6       : /37.81/37.81/37.81
DURACION DEL REGISTRO (s), C7-C12      : 
NUM. TOTAL DE MUESTRAS, C1-C6          : /3781/3781/3781
NUM. TOTAL DE MUESTRAS, C7-C12         : 
ACEL. MAX. (Gal), C1-C6                : /4.46166/1.59324/4.32052
ACEL. MAX., C1-C6, EN LA MUESTRA       : /870/2/258
ACEL. MAX. (Gal), C7-C12               : 
ACEL. MAX., C7-C12, EN LA MUESTRA      : 
UNIDADES DE LOS DATOS                  : Gal (cm/s/s)
FACTOR DE DECIMACION                   : 1
FORMATO DATOS (FORTRAN,10 campos/dato) : 3F10.5


================================================================================
CALIDAD DEL ACELEROGRAMA:
REGISTRO DIGITAL COMPLETO CON TIEMPO ABSOLUTO CORRECTO.


================================================================================
COMENTARIOS:














================================================================================
DATOS DE ACELERACION:
---------+---------+---------+---------+---------+---------+---------+---------+
   CANAL-1   CANAL-2   CANAL-3   CANAL-4   CANAL-5   CANAL-6   CANAL-7   CANAL-8
      N00E        +V      N90W
---------+---------+---------+---------+---------+---------+---------+---------+
[...]
  -2.00268   0.80096  -3.58035
  -1.76326   0.56154  -3.34093
  -1.76326   0.80096  -3.10151
  -1.52384   0.56154  -2.86209
  -1.52384   0.32212  -2.86209
  -1.28442   0.32212  -2.62267
  -1.28442   0.08270  -2.38325
  -1.04500   0.32212  -2.14383
  -1.04500   0.32212  -1.90441
  -0.80558   0.32212  -1.66499
  -0.80558   0.32212  -1.42557
  -0.80558   0.32212  -1.18615
  -0.56616   0.32212  -0.94673
  -0.32674   0.32212  -0.46789
  -0.32674   0.32212  -0.22847
  -0.08732   0.32212   0.01095
   0.15210   0.32212   0.48980
   0.15210   0.32212   0.72922
   0.39152   0.08270   0.96864
   0.39152   0.08270   1.20806
   0.87036  -0.15672   1.68690
   0.87036  -0.39614   1.92632
   1.10978  -0.39614   2.16574
   1.10978  -0.39614   2.40516
   1.34920  -0.63556   2.64458
   1.58862  -0.63556   2.88400
   1.58862  -0.63556   3.12342
   1.82804  -0.63556   3.36284
   2.06746  -0.63556   3.60226
   2.06746  -0.87498   3.60226
   2.06746  -0.87498   3.84168
   2.30688  -0.63556   3.84168
   2.30688  -0.63556   4.08110
   2.54630  -0.63556   4.08110
   2.54630  -0.63556   4.08110
   2.54630  -0.39614   4.08110
   2.54630  -0.39614   4.08110
   2.54630  -0.15672   4.08110
   2.54630  -0.15672   3.84168
   2.54630  -0.15672   3.84168
   2.54630   0.08270   3.84168
   2.54630   0.08270   3.84168
   2.54630   0.08270   3.60226
   2.54630   0.32212   3.60226
   2.54630   0.32212   3.36284
   2.54630   0.32212   3.36284
   2.54630   0.56154   3.36284
   2.06746   0.56154   3.12342
   2.30688   0.56154   3.12342
   2.06746   0.56154   2.88400
   2.30688   0.56154   2.64458
   2.06746   0.32212   2.64458
   2.06746   0.32212   2.16574
   1.82804   0.08270   2.16574
   1.58862   0.08270   1.92632
   1.58862   0.08270   1.92632
   1.58862  -0.15672   1.68690
   1.34920  -0.15672   1.44748
   1.10978  -0.63556   1.20806
   0.87036  -0.39614   0.96864
   0.87036  -0.39614   0.72922
   0.63094  -0.39614   0.48980
   0.63094  -0.39614   0.25037
   0.39152  -0.15672   0.01095
   0.39152  -0.15672  -0.22847
   0.15210  -0.15672  -0.46789
  -0.32674  -0.15672  -0.70731
  -0.32674   0.08270  -0.94673
  -0.56616   0.08270  -1.18615
  -0.80558   0.08270  -1.18615
  -1.04500   0.08270  -1.66499
  -1.28442   0.08270  -1.66499
  -1.28442   0.08270  -1.90441
  -1.52384   0.08270  -1.90441
  -1.76326   0.32212  -2.14383
  -1.76326   0.08270  -2.14383
  -1.76326   0.08270  -2.38325
  -2.00268   0.08270  -2.38325
  -2.00268   0.32212  -2.38325
  -2.00268   0.32212  -2.38325
  -2.00268   0.08270  -2.62267
  -2.24210   0.08270  -2.62267
  -2.00268   0.32212  -2.62267
  -2.24210  -0.15672  -2.62267
  -2.00268   0.08270  -2.62267
  -2.24210   0.08270  -2.62267
  -2.00268   0.08270  -2.62267
  -2.00268   0.08270  -2.86209
  -2.00268  -0.15672  -2.62267
  -2.24210  -0.15672  -2.86209
  -2.24210  -0.15672  -2.86209
  -2.00268  -0.15672  -2.86209
  -2.00268  -0.63556  -2.86209
  -2.00268  -0.63556  -2.86209
  -2.00268  -0.63556  -2.86209
  -2.00268  -0.63556  -2.62267
  -2.00268  -0.87498  -2.62267
  -1.76326  -0.87498  -2.62267
  -1.76326  -0.87498  -2.38325
  -1.76326  -0.87498  -2.38325
  -1.76326  -0.87498  -2.14383
  -1.76326  -0.87498  -1.90441
  -1.76326  -0.87498  -1.90441
  -1.76326  -0.87498  -1.66499
  -1.52384  -0.63556  -1.66499
  -1.52384  -0.63556  -1.42557
  -1.52384  -0.39614  -1.18615
  -1.52384  -0.39614  -1.18615
  -1.28442  -0.15672  -0.94673
  -1.28442  -0.15672  -0.70731
  -1.28442   0.08270  -0.46789
  -1.04500   0.08270  -0.22847
  -1.04500   0.32212   0.01095
  -0.80558   0.32212   0.25037
  -0.80558   0.32212   0.48980
  -0.32674   0.32212   0.72922
  -0.32674   0.32212   0.72922
   0.15210   0.32212   0.96864
   0.15210   0.32212   1.20806
   0.39152  -0.15672   1.20806
   0.63094   0.08270   1.44748
   0.87036  -0.15672   1.44748
   1.10978  -0.15672   1.44748
   1.34920  -0.15672   1.44748
   1.58862  -0.39614   1.44748
   1.58862  -0.15672   1.44748
   1.82804  -0.15672   1.68690
   1.82804  -0.39614   1.68690
   2.06746  -0.15672   1.68690
   2.30688  -0.15672   1.68690
   2.30688  -0.15672   1.68690
   2.54630  -0.15672   1.68690
   2.54630  -0.15672   1.92632
   2.78572   0.08270   1.92632
   3.02514   0.08270   1.92632
   3.02514   0.08270   2.16574
   3.02514   0.08270   2.16574
   3.26456   0.08270   2.16574
   3.26456   0.32212   2.16574
   3.26456   0.32212   2.16574
   3.26456   0.32212   1.92632
   3.02514   0.32212   1.92632
   3.26456   0.08270   1.92632
   3.02514   0.08270   1.92632
   2.78572   0.08270   1.68690
   2.78572   0.08270   1.68690
   2.54630   0.08270   1.68690
   2.30688   0.08270   1.44748
   2.06746  -0.15672   1.20806
   1.82804  -0.15672   1.44748
   1.58862  -0.15672   0.96864
   1.34920  -0.15672   1.20806
   1.10978  -0.15672   0.96864
   0.87036  -0.15672   1.20806
   0.87036  -0.15672   0.96864
   0.63094   0.08270   0.96864
   0.39152   0.08270   0.96864
   0.15210   0.08270   0.72922
   0.15210   0.08270   0.72922
  -0.08732   0.08270   0.48980
  -0.32674   0.08270   0.48980
  -0.56616   0.08270   0.25037
  -0.80558   0.08270   0.25037
  -0.80558   0.08270  -0.22847
  -1.04500   0.08270  -0.22847
  -1.04500   0.08270  -0.70731
  -1.28442   0.08270  -0.70731
  -1.28442   0.08270  -0.70731
  -1.28442   0.08270  -0.94673
  -1.28442   0.08270  -0.94673
  -1.52384   0.08270  -0.94673
  -1.52384  -0.39614  -1.18615
  -1.52384  -0.15672  -1.18615
  -2.00268  -0.15672  -1.18615
  -1.76326   0.08270  -1.42557
  -2.00268   0.08270  -1.42557
  -2.24210   0.08270  -1.18615
  -2.24210   0.08270  -1.42557
  -2.48152   0.08270  -1.42557
  -2.72094   0.08270  -1.42557
  -2.72094   0.08270  -1.42557
  -2.96036   0.08270  -1.42557
  -2.96036   0.08270  -1.42557
  -2.96036   0.08270  -1.18615
  -2.96036   0.08270  -1.42557
  -3.19978   0.32212  -1.18615
  -2.96036   0.08270  -1.18615
  -2.96036   0.08270  -1.18615
  -2.96036   0.08270  -1.18615
  -2.72094   0.08270  -1.18615
  -2.72094  -0.15672  -0.94673
  -2.48152  -0.15672  -0.70731
  -2.24210  -0.15672  -0.70731
  -2.24210  -0.15672  -0.70731
  -2.24210  -0.15672  -0.70731
  -2.24210  -0.39614  -0.70731
  -2.00268  -0.15672  -0.46789
  -2.00268  -0.15672  -0.70731
  -1.76326  -0.15672  -0.46789
  -1.76326  -0.15672  -0.46789
  -1.52384   0.08270  -0.46789
  -1.28442   0.08270  -0.46789
  -1.28442   0.08270  -0.46789
  -1.28442   0.08270  -0.46789
  -1.04500   0.08270  -0.46789
  -1.04500   0.08270  -0.22847
  -1.04500   0.08270   0.01095
  -0.80558   0.08270   0.01095
  -0.80558  -0.15672   0.25037
  -0.56616  -0.15672   0.25037
  -0.32674   0.08270   0.48980
  -0.32674  -0.15672   0.48980
  -0.08732  -0.15672   0.48980
   0.15210  -0.15672   0.72922
   0.39152  -0.15672   0.72922
   0.39152  -0.15672   0.72922
   0.63094  -0.39614   0.72922
   0.63094  -0.39614   0.72922
   1.10978  -0.39614   0.72922
   1.10978  -0.39614   0.72922
   1.34920  -0.39614   0.72922
   1.58862  -0.39614   0.72922
   1.58862  -0.15672   0.72922
   1.58862  -0.15672   0.72922
   1.82804  -0.15672   0.72922
   1.82804  -0.15672   0.48980
   2.06746  -0.15672   0.48980
   2.06746   0.08270   0.48980
   2.06746   0.08270   0.48980
   2.30688   0.08270   0.48980
   2.54630   0.32212   0.48980
   2.54630   0.32212   0.48980
   2.78572   0.32212   0.48980
   3.02514   0.32212   0.48980
   3.02514   0.56154   0.48980
   3.26456   0.56154   0.72922
   3.50398   0.56154   0.25037
   3.26456   0.56154   0.48980
   3.50398   0.56154   0.25037
   3.50398   0.32212   0.25037
   3.50398   0.56154   0.25037
   3.74340   0.56154   0.25037
   3.50398   0.32212   0.25037
   3.50398   0.56154   0.01095
   3.50398   0.56154   0.01095
   3.26456   0.56154   0.01095
   3.26456   0.56154  -0.22847
   3.26456   0.32212   0.01095
   3.26456   0.32212  -0.22847
   3.02514   0.56154  -0.22847
   3.02514   0.32212  -0.22847
   2.78572   0.32212  -0.22847
   2.54630   0.32212  -0.22847
   2.54630   0.32212  -0.22847
   2.30688   0.08270  -0.22847
   2.06746   0.08270  -0.22847
   1.82804   0.08270  -0.22847
   1.58862   0.08270  -0.22847
   1.34920   0.08270  -0.46789
   1.10978  -0.15672  -0.46789
   0.87036   0.08270  -0.46789
   0.63094  -0.15672  -0.70731
   0.63094  -0.15672  -0.70731
   0.39152  -0.15672  -0.70731
   0.39152  -0.15672  -0.70731
   0.15210  -0.15672  -0.70731
   0.15210  -0.15672  -0.70731
   0.15210  -0.15672  -0.70731
  -0.08732  -0.15672  -0.70731
  -0.08732   0.08270  -0.46789
  -0.08732   0.08270  -0.46789
  -0.32674   0.08270  -0.70731
  -0.32674   0.32212  -0.46789
  -0.56616   0.32212  -0.46789
  -0.80558   0.32212  -0.46789
  -0.80558   0.32212  -0.22847
  -1.04500   0.32212  -0.22847
  -1.04500   0.32212  -0.22847
  -1.28442   0.32212  -0.22847
  -1.28442   0.32212  -0.22847
  -1.52384   0.56154  -0.22847
  -1.52384   0.56154   0.01095
  -2.00268   0.56154   0.01095
  -2.00268   0.32212   0.01095
  -2.00268   0.32212  -0.22847
  -2.24210   0.32212   0.01095
  -2.24210   0.32212   0.01095
  -2.48152   0.08270   0.25037
  -2.48152   0.08270   0.25037
  -2.72094   0.08270   0.25037
  -2.72094  -0.15672   0.25037
  -2.96036  -0.15672   0.25037
  -2.96036  -0.15672   0.48980
  -3.19978  -0.15672   0.48980
  -3.19978  -0.15672   0.48980
  -3.19978  -0.15672   0.48980
  -3.19978  -0.15672   0.25037
  -3.19978  -0.15672   0.48980
  -3.19978  -0.15672   0.72922
  -3.19978  -0.15672   0.01095
  -3.19978  -0.15672   0.25037
  -2.96036  -0.15672   0.25037
  -3.19978  -0.15672   0.01095
  -3.19978  -0.39614   0.25037
  -3.19978  -0.39614   0.01095
  -3.19978  -0.39614   0.25037
  -3.43920  -0.39614   0.01095
  -3.19978  -0.39614   0.25037
  -3.19978  -0.39614   0.25037
  -3.19978  -0.39614   0.25037
  -3.19978  -0.39614   0.25037
  -2.96036  -0.39614   0.25037
  -2.96036  -0.39614   0.48980
  -2.72094  -0.39614   0.48980
  -2.72094  -0.15672   0.25037
  -2.48152  -0.39614   0.48980
  -2.24210  -0.39614   0.48980
  -2.00268  -0.63556   0.48980
  -1.76326  -0.39614   0.48980
  -1.52384  -0.39614   0.48980
  -1.28442  -0.39614   0.48980
  -1.04500  -0.39614   0.48980
  -1.04500  -0.39614   0.72922
  -0.80558  -0.63556   0.72922
  -0.32674  -0.39614   0.72922
  -0.08732  -0.39614   0.72922
   0.15210  -0.39614   0.72922
   0.39152  -0.39614   0.72922
   0.63094  -0.39614   0.72922
   0.87036  -0.39614   0.72922
   1.10978  -0.39614   0.72922
   1.58862  -0.15672   0.72922
   1.82804  -0.15672   0.72922
   2.06746  -0.15672   0.72922
   2.30688   0.08270   0.72922
   2.54630   0.08270   0.48980
   2.54630   0.08270   0.72922
   2.78572   0.08270   0.48980
   3.02514   0.32212   0.48980
   3.26456   0.32212   0.48980
   3.50398   0.56154   0.48980
   3.50398   0.32212   0.25037
   3.74340   0.56154   0.25037
   3.98282   0.56154   0.01095
   3.98282   0.56154   0.01095
   4.22224   0.56154   0.01095
   4.22224   0.56154  -0.22847
   4.46166   0.32212  -0.22847
   4.46166   0.56154  -0.46789
   4.46166   0.56154  -0.46789
   4.46166   0.32212  -0.46789
   4.46166   0.32212  -0.22847
   4.22224   0.32212  -0.46789
   4.22224   0.08270  -0.46789
   3.98282   0.32212  -0.46789
   3.98282   0.32212  -0.46789
   3.74340   0.32212  -0.46789
   3.50398   0.08270  -0.70731
   3.50398   0.08270  -0.94673
   3.26456   0.08270  -0.94673
   3.02514   0.08270  -0.94673
   3.02514   0.08270  -0.94673
   2.78572   0.08270  -1.18615
   2.54630   0.08270  -1.18615
   2.30688   0.08270  -1.42557
   2.30688  -0.15672  -1.42557
   2.06746  -0.15672  -1.42557
   1.58862  -0.15672  -1.42557
   1.58862  -0.15672  -1.42557
   1.34920  -0.39614  -1.42557
   0.87036  -0.39614  -1.42557
   0.87036  -0.39614  -1.42557
   0.63094  -0.39614  -1.18615
   0.15210  -0.15672  -0.94673
  -0.08732  -0.39614  -0.94673
  -0.08732  -0.39614  -0.70731
  -0.56616  -0.15672  -0.70731
  -0.56616  -0.15672  -0.70731
  -0.80558  -0.15672  -0.46789
  -1.04500   0.08270  -0.46789
  -1.28442  -0.15672  -0.46789
  -1.28442   0.08270  -0.46789
  -1.52384   0.08270  -0.46789
  -1.76326   0.08270  -0.22847
  -2.00268   0.08270  -0.46789
  -2.24210   0.08270  -0.46789
  -2.24210   0.08270  -0.46789
  -2.48152   0.32212  -0.46789
  -2.72094   0.32212  -0.46789
  -2.96036   0.32212  -0.46789
  -2.96036   0.32212  -0.46789
  -2.96036   0.32212  -0.46789
  -3.19978   0.32212  -0.22847
  -3.19978   0.32212  -0.22847
  -3.19978   0.08270   0.01095
  -3.19978   0.08270   0.25037
  -3.19978   0.08270   0.25037
  -3.19978   0.08270   0.48980
  -3.19978  -0.15672   0.48980
  -2.96036  -0.15672   0.72922
  -2.96036  -0.39614   0.72922
  -2.96036  -0.39614   0.96864
  -2.96036  -0.39614   0.96864
  -2.72094  -0.39614   0.96864
  -2.72094  -0.63556   1.20806
  -2.48152  -0.63556   1.20806
  -2.48152  -0.39614   1.20806
  -2.48152  -0.39614   1.20806
  -2.24210  -0.39614   1.20806
  -2.00268  -0.15672   0.96864
  -2.00268   0.08270   0.96864
  -2.00268   0.08270   0.96864
  -1.76326   0.08270   0.96864
  -1.52384   0.32212   0.96864
  -1.52384   0.56154   0.72922
  -1.28442   0.56154   0.72922
  -1.28442   0.56154   0.72922
  -1.28442   0.56154   0.72922
  -1.04500   0.56154   0.72922
  -1.04500   0.56154   0.72922
  -0.80558   0.56154   0.72922
  -0.56616   0.56154   0.72922
  -0.32674   0.56154   0.72922
  -0.32674   0.56154   0.72922
  -0.08732   0.56154   0.72922
   0.15210   0.32212   0.72922
   0.15210   0.32212   0.48980
   0.39152   0.32212   0.48980
   0.39152   0.08270   0.48980
   0.63094   0.08270   0.01095
   0.63094   0.08270   0.25037
   0.63094   0.08270   0.25037
   0.87036   0.08270   0.25037
   0.87036   0.08270   0.01095
   0.87036  -0.15672   0.25037
   1.10978  -0.15672   0.01095
   1.10978  -0.15672   0.25037
   1.10978  -0.15672   0.01095
   1.34920  -0.15672   0.01095
   1.34920  -0.15672   0.01095
   1.58862  -0.15672   0.01095
   1.58862  -0.15672   0.01095
   1.58862  -0.39614   0.01095
   1.82804  -0.39614  -0.22847
   1.82804  -0.39614   0.01095
   1.82804  -0.39614   0.01095
   1.82804  -0.15672   0.01095
   1.82804  -0.15672   0.01095
   2.06746   0.08270   0.01095
   1.82804  -0.15672  -0.22847
   2.06746  -0.15672  -0.22847
   1.82804   0.08270  -0.22847
   2.06746  -0.15672  -0.46789
   2.06746   0.08270  -0.46789
   2.06746   0.08270  -0.46789
   2.06746   0.08270  -0.46789
   2.06746   0.08270  -0.46789
   1.82804   0.08270  -0.46789
   1.82804   0.08270  -0.46789
   1.82804   0.08270  -0.46789
   1.82804   0.08270  -0.46789
   1.58862   0.08270  -0.22847
   1.58862   0.32212  -0.46789
   1.58862   0.32212  -0.22847
   1.34920   0.32212  -0.22847
   1.34920   0.32212  -0.46789
   1.10978   0.32212  -0.46789
   1.10978   0.32212  -0.46789
   1.10978   0.32212  -0.46789
   0.87036   0.32212  -0.46789
   0.87036   0.32212  -0.22847
   0.63094   0.32212  -0.46789
   0.63094   0.08270  -0.22847
   0.39152   0.08270  -0.46789
   0.39152   0.08270  -0.46789
   0.15210   0.08270  -0.46789
   0.15210  -0.15672  -0.46789
  -0.08732  -0.15672  -0.46789
  -0.32674  -0.15672  -0.46789
  -0.56616  -0.15672  -0.46789
  -0.80558  -0.15672  -0.46789
  -0.80558  -0.15672  -0.46789
  -1.04500  -0.15672  -0.46789
  -1.04500  -0.15672  -0.46789
  -1.28442  -0.15672  -0.22847
  -1.28442  -0.15672  -0.22847
  -1.28442   0.08270  -0.22847
  -1.28442   0.08270  -0.22847
  -1.28442  -0.15672  -0.22847
  -1.28442  -0.15672   0.01095
  -1.28442  -0.15672   0.01095
  -1.28442  -0.15672   0.25037
  -1.28442  -0.15672   0.25037
  -1.28442  -0.15672   0.25037
  -1.28442  -0.39614   0.25037
  -1.28442  -0.39614   0.48980
  -1.28442  -0.39614   0.48980
