********************************************************************************
               CENTRO DE INSTRUMENTACION Y REGISTRO SISMICO  A.C.  
                       Coordinacion de Servicios Tecnicos
     Anaxagoras 814, Col. Narvarte, Benito Juarez, C.P. 03020 Mexico, D.F.
            Tels. 687 45 42/ 687 45  82             Fax. 669 25 12
********************************************************************************
ARCHIVO ESTANDAR DE ACELERACION:
VERSION DEL FORMATO                    : 2.0
NOMBRE DEL ARCHIVO                     : AO249509.141
FECHA Y HORA DE CREACION               : MARZO 14, 1996/17:05
REF. CATALOGO ACELEROGRAMAS, SMIS 1995 : REGISTRO No.     /PAG.


================================================================================
DATOS DE LA ESTACION:
NOMBRE DE LA ESTACION                  : ALBERCA OLIMPICA
CLAVE DE LA ESTACION                   : AO24
LOCALIZACION DE LA ESTACION            : Alberca Olimpica Rio Churubusco y
                                       : Division del Norte, Col Pedro Ma
                                       : Anaya, Benito Juarez
                                       :
                                       :
COORDENADAS DE LA ESTACION             : 19.358 LAT. N 
                                       : 99.154 LONG. W 
ALTITUD (msnm)                         : 2235
TIPO DE SUELO                          : TRANSICION
                                       : 
                                       : 
INSTITUCION RESPONSABLE                : CIRES
                                       :

================================================================================
DATOS DEL ACELEROGRAFO:
MODELO DEL ACELEROGRAFO                : DCA-333
NUMERO DE SERIE DEL ACELEROGRAFO       : 257
NUMERO DE CANALES                      : 3
ORIENTACION C1-C6 (rumbo;orientacion)  : /N00E/+V/N90E
ORIENTACION C7-C12 (rumbo;orientacion) :
VEL. DE MUESTREO, C1-C6 (muestras/s)   : /100/100/100
VEL. DE MUESTREO, C7-C12 (muestras/s)  :
ESC. COMPLETA DE SENSORES, C1-C6, (g)  : /0.5/0.5/0.5
ESC. COMPLETA DE SENSORES, C7-C12, (g) :
FREC. NAT. DE SENSORES, C1-C6, (Hz)    : /30/30/30
FREC. NAT. DE SENSORES, C7-C12, (Hz)   :
AMORTIGUAMIENTO DE SENSORES, C1-C6     : /0.700/0.700/0.700
AMORTIGUAMIENTO DE SENSORES, C7-C12    :
INTERVALO DE MUESTREO, C1-C6, (s)      : /0.01/0.01/0.01
INTERVALO DE MUESTREO, C7-C12, (s)     :
UMBRAL DE DISPARO, C1-C6, (Gal)        : /2/2/2
UMBRAL DE DISPARO, C7-C12, (Gal)       :
MEMORIA DE PREEVENTO (s)               : 4
TIEMPO DE POSEVENTO (s)                : 15


================================================================================
DATOS DEL SISMO:
FECHA DEL SISMO (GMT)                  : 14/SEP/95
HORA EPICENTRO (GMT)                   : 14:04:30.5
MAGNITUD(ES)                           : /Mc=6.4/Mb=7.2/Me=7.3
COORDENADAS DEL EPICENTRO              : 16.31 LAT. N
                                       : 98.88 LONG. W
PROFUNDIDAD FOCAL (km)                 : 22
FUENTE DE LOS DATOS EPICENTRALES       : SSN
                                       : INSTITUTO DE GEOFISICA, UNAM

================================================================================
DATOS DE ESTE REGISTRO:
HORA DE LA PRIMERA MUESTRA (GMT)       : 14:05:43.00
EXACTITUD DEL TIEMPO (s)               : 0.01
DURACION DEL REGISTRO (s), C1-C6       : /139.45/139.45/139.45
DURACION DEL REGISTRO (s), C7-C12      :
NUM. TOTAL DE MUESTRAS, C1-C6          : /13945/13945/13945
NUM. TOTAL DE MUESTRAS, C7-C12         :
ACEL. MAX. (Gal), C1-C6                : /26.07/5.17/31.27
ACEL. MAX., C1-C6, EN LA MUESTRA       :
ACEL. MAX. (Gal), C7-C12               :
ACEL. MAX., C7-C12, EN LA MUESTRA      :
UNIDADES DE LOS DATOS                  : Gal (cm/s/s)
FACTOR DE DECIMACION                   : 1
FORMATO DATOS (FORTRAN,10 campos/dato) : 3F10.2


================================================================================
CALIDAD DEL ACELEROGRAMA:
REGISTRO DIGITAL COMPLETO CON TIEMPO ABSOLUTO CORRECTO.


================================================================================
COMENTARIOS:














================================================================================
DATOS DE ACELERACION:
---------+---------+---------+---------+---------+---------+---------+---------+
   CANAL-1   CANAL-2   CANAL-3   CANAL-4   CANAL-5   CANAL-6   CANAL-7   CANAL-8
      N00E        +V      N90E
---------+---------+---------+---------+---------+---------+---------+---------+
[...]
      5.05      2.78      0.33
      4.10      2.78     -0.14
      3.62      2.78     -0.62
      2.66      2.78     -0.62
      1.70      2.30     -1.10
      1.22      2.30     -1.58
      0.74      2.30     -2.06
     -0.21      1.82     -2.06
     -0.69      1.34     -2.06
     -0.69      0.87     -2.54
     -1.65      0.39     -2.54
     -2.13     -0.09     -3.02
     -2.61     -0.57     -3.50
     -3.09     -1.05     -3.50
     -3.57     -1.53     -3.97
     -4.04     -1.53     -4.45
     -4.52     -2.01     -4.45
     -5.00     -2.01     -4.93
     -5.48     -2.49     -5.41
     -5.96     -2.49     -5.89
     -6.44     -2.97     -6.37
     -7.40     -3.44     -6.85
     -7.87     -3.44     -7.33
     -8.35     -3.44     -7.33
     -8.83     -3.92     -7.81
     -8.83     -3.92     -7.81
     -9.31     -3.92     -8.28
     -9.31     -4.40     -8.28
     -9.31     -4.88     -8.76
     -9.31     -4.88     -8.76
     -9.31     -4.88     -8.76
     -9.31     -4.88     -8.76
     -8.83     -4.88     -8.76
     -8.35     -4.88     -9.24
     -8.35     -4.40     -9.24
     -7.87     -4.40     -9.24
     -7.87     -3.92     -9.24
     -7.40     -3.92     -9.24
     -7.40     -3.44     -9.24
     -6.92     -3.44     -8.76
     -6.44     -3.44     -8.76
     -5.96     -2.97     -8.76
     -5.96     -2.97     -8.28
     -5.48     -2.49     -7.81
     -5.00     -2.49     -7.33
     -4.52     -2.01     -7.33
     -4.04     -2.01     -6.85
     -4.04     -2.01     -6.37
     -3.09     -2.01     -5.89
     -2.61     -2.01     -5.89
     -2.13     -2.01     -5.41
     -1.65     -2.01     -4.93
     -1.65     -1.53     -4.93
     -1.17     -1.53     -4.45
     -0.69     -2.01     -4.45
     -0.21     -2.01     -3.97
     -0.21     -2.01     -3.50
      0.27     -2.01     -3.50
      0.27     -1.53     -3.02
      0.74     -2.01     -2.54
      1.22     -2.01     -2.06
      1.22     -1.53     -2.06
      1.22     -1.53     -1.58
      1.22     -1.05     -1.10
      1.22     -1.05     -0.62
      1.22     -1.05     -0.62
      0.74     -0.57     -0.14
      0.74     -0.57     -0.14
      0.27     -0.09      0.33
      0.27      0.39      0.33
     -0.21      0.87      0.81
     -0.69      1.34      0.81
     -0.69      1.82      0.81
     -1.17      2.30      0.81
     -1.65      2.78      0.81
     -1.65      3.26      1.29
     -1.65      3.74      1.29
     -1.65      4.22      1.29
     -1.65      4.22      1.29
     -1.65      4.22      1.29
     -1.65      4.22      1.77
     -1.65      3.74      1.77
     -1.65      3.74      2.25
     -1.65      3.74      2.25
     -1.65      3.26      2.25
     -1.65      2.78      2.25
     -1.65      2.30      2.73
     -1.65      1.82      2.73
     -1.65      1.82      2.73
     -1.17      1.34      2.73
     -1.17      0.87      2.73
     -1.17      0.87      2.73
     -1.17      0.39      2.25
     -0.69     -0.09      2.25
     -0.69     -0.09      2.25
     -0.69     -0.57      2.25
     -0.69     -0.57      2.25
     -0.69     -1.05      1.77
     -0.69     -1.05      1.29
     -0.69     -1.53      1.29
     -0.69     -1.53      0.81
     -1.17     -1.53      0.81
     -1.17     -2.01      0.33
     -1.65     -2.01     -0.14
     -1.65     -2.01     -0.14
     -1.65     -2.01     -0.62
     -2.13     -2.01     -0.62
     -2.13     -1.53     -1.10
     -2.13     -1.53     -1.58
     -2.61     -1.53     -1.58
     -2.61     -1.53     -2.06
     -2.61     -1.53     -2.54
     -2.61     -1.53     -2.54
     -3.09     -1.53     -3.02
     -3.09     -1.53     -3.50
     -3.57     -2.01     -3.50
     -3.57     -1.53     -3.97
     -3.57     -1.53     -4.45
     -4.04     -2.01     -4.93
     -4.04     -2.01     -4.93
     -4.52     -2.01     -5.41
     -4.52     -2.01     -5.41
     -4.52     -2.01     -5.89
     -4.04     -2.01     -5.89
     -4.04     -2.01     -6.37
     -4.04     -2.49     -6.37
     -3.57     -2.49     -6.37
     -3.09     -2.97     -6.37
     -2.61     -2.97     -6.85
     -2.13     -2.97     -6.85
     -1.65     -2.97     -6.85
     -1.17     -2.97     -6.37
     -0.69     -2.97     -6.37
      0.27     -2.97     -6.37
      0.74     -2.97     -5.89
      1.22     -2.97     -5.89
      1.70     -2.49     -5.89
      1.70     -2.49     -5.41
      2.18     -2.49     -5.41
      2.66     -2.49     -4.93
      3.14     -2.01     -4.45
      3.14     -2.01     -3.97
      3.62     -2.01     -3.50
      3.62     -1.53     -3.02
      3.62     -1.53     -2.54
      4.10     -1.53     -2.54
      4.10     -1.05     -1.58
      4.10     -0.57     -1.10
      4.10     -0.09     -0.62
      4.58      0.39     -0.14
      4.58      0.87     -0.14
      4.58      1.34      0.81
      5.05      1.82      0.81
      5.05      2.30      1.29
      5.05      2.78      1.77
      5.53      3.26      2.25
      5.53      3.74      2.73
      6.01      3.74      3.21
      6.01      3.74      3.69
      6.49      3.74      4.17
      6.49      3.74      4.64
      6.97      3.74      5.12
      6.97      3.26      6.08
      6.97      2.78      6.56
      6.97      2.30      7.04
      6.97      2.30      7.52
      6.97      1.82      8.00
      6.49      1.34      8.95
      6.49      1.34      9.43
      6.49      0.87      9.91
      6.49      0.39     10.87
      6.01      0.39     11.35
      6.01     -0.09     11.83
      6.01     -0.09     12.78
      6.01     -0.57     13.26
      6.01     -0.57     13.74
      6.01     -1.05     14.22
      6.49     -1.05     14.70
      6.49     -1.05     15.18
      6.49     -1.05     15.66
      6.49     -1.05     16.14
      6.49     -0.57     16.14
      6.49     -0.57     16.62
      6.49     -0.09     17.09
      6.49      0.39     17.09
      6.49      0.39     17.09
      6.49      0.87     17.09
      6.49      1.34     17.57
      6.49      1.82     17.09
      6.49      1.82     17.09
      6.49      2.30     17.09
      6.49      2.30     17.09
      6.49      2.78     17.09
      6.49      2.78     16.62
      6.49      2.78     16.14
      6.49      2.78     15.66
      6.49      3.26     15.18
      6.01      3.74     14.70
      6.01      3.74     14.22
      6.01      3.74     13.26
      5.53      3.26     12.78
      5.05      3.74     11.83
      5.05      3.74     10.87
      4.58      3.74     10.39
      4.10      3.74      8.95
      3.62      3.74      8.00
      3.14      3.74      7.04
      2.66      3.74      5.60
      2.18      3.74      4.64
      2.18      3.26      3.21
      1.70      3.74      1.77
      1.22      3.74      0.33
      0.27      3.74     -1.10
     -0.21      3.74     -2.54
     -1.17      4.22     -3.50
     -1.65      4.22     -4.93
     -2.61      4.22     -6.37
     -3.57      4.22     -7.33
     -4.04      4.22     -8.28
     -5.00      4.22     -9.72
     -5.96      4.22    -10.68
     -6.44      3.74    -11.64
     -7.40      3.74    -12.59
     -8.35      3.74    -14.03
     -8.83      3.74    -14.99
     -9.31      3.74    -16.42
    -10.27      3.74    -17.38
    -10.75      3.74    -18.82
    -11.23      3.74    -19.78
    -11.71      3.74    -21.21
    -12.66      3.74    -22.17
    -13.14      3.74    -23.13
    -14.10      3.74    -24.09
    -15.06      3.74    -24.56
    -15.54      3.74    -25.04
    -16.01      3.74    -25.52
    -16.49      3.26    -26.00
    -16.97      2.78    -26.00
    -16.97      2.78    -26.00
    -17.45      2.30    -26.00
    -16.97      2.30    -26.00
    -16.97      1.82    -26.00
    -16.97      1.34    -25.52
    -16.49      0.87    -25.04
    -16.49      0.87    -24.56
    -16.01      0.39    -24.09
    -15.54     -0.09    -23.61
    -15.54     -0.09    -23.13
    -15.06     -0.09    -22.17
    -14.58     -0.57    -21.69
    -14.58     -0.09    -20.26
    -14.10     -0.09    -19.30
    -13.62     -0.09    -18.34
    -13.14     -0.09    -17.38
    -12.18     -0.09    -16.42
    -11.71      0.39    -15.47
    -11.23      0.39    -14.03
    -10.27      0.39    -12.59
     -9.31      0.39    -11.16
     -8.83      0.39     -9.72
     -7.87      0.87     -8.28
     -6.92      0.87     -6.37
     -5.96      0.87     -4.93
     -5.48      0.39     -3.02
     -4.52      0.39     -1.10
     -4.04      0.39      0.81
     -3.57     -0.09      2.73
     -2.61     -0.09      4.64
     -2.13     -0.09      6.56
     -1.17     -0.09      8.47
     -0.21     -0.09     10.39
      0.27     -0.09     11.83
      1.22     -0.09     13.74
      2.18     -0.09     15.18
      2.66      0.39     16.62
      3.62      0.39     18.05
      4.10      0.87     19.49
      4.58      0.87     20.45
      5.05      0.87     21.88
      5.53      0.87     23.32
      6.01      0.87     24.28
      6.97      0.87     25.23
      7.45      0.39     26.19
      7.93      0.39     27.15
      8.41     -0.09     28.11
      8.88     -0.57     28.59
      9.84     -1.05     29.06
     10.32     -1.53     29.54
     10.80     -1.53     29.54
     11.28     -2.01     30.02
     11.76     -2.49     30.02
     12.24     -2.97     29.54
     12.24     -2.97     29.54
     12.72     -2.97     29.06
     12.72     -3.44     29.06
     12.72     -3.44     28.59
     12.72     -3.44     27.63
     12.72     -3.44     27.15
     12.72     -3.44     26.19
     12.72     -3.44     25.23
     13.19     -3.44     24.76
     13.19     -3.44     23.80
     13.19     -3.44     22.36
     13.19     -3.44     21.40
     13.19     -2.97     20.45
     12.72     -2.97     19.01
     12.72     -2.97     17.57
     12.72     -2.97     16.14
     12.24     -2.49     14.70
     12.24     -2.49     13.26
     12.24     -2.49     11.83
     11.76     -2.01     10.39
     11.28     -2.01      8.47
     10.80     -2.01      7.04
     10.80     -2.01      5.60
      9.84     -2.01      4.17
      9.36     -2.01      2.25
      8.88     -1.53      0.81
      8.41     -1.53     -0.62
      7.93     -1.53     -2.54
      6.97     -1.53     -4.45
      6.49     -1.53     -6.37
      5.53     -1.53     -8.28
      4.58     -1.53    -10.20
      4.10     -1.05    -12.12
      2.66     -1.05    -13.55
      1.70     -1.05    -15.47
      1.22     -1.05    -16.90
     -0.21     -1.05    -18.34
     -1.17     -1.05    -19.78
     -2.13     -1.53    -20.73
     -3.09     -1.53    -22.17
     -4.04     -2.01    -23.13
     -5.00     -2.01    -24.09
     -5.96     -2.49    -25.04
     -6.44     -2.49    -25.52
     -7.40     -2.97    -26.48
     -8.35     -2.97    -27.44
     -9.31     -2.97    -27.92
    -10.27     -2.97    -28.40
    -10.75     -2.97    -28.87
    -11.71     -2.97    -29.35
    -12.66     -2.97    -29.83
    -13.14     -2.49    -30.31
    -13.62     -2.49    -30.31
    -14.58     -2.49    -30.79
    -14.58     -2.01    -30.79
    -15.06     -2.01    -30.79
    -15.06     -2.01    -30.79
    -15.06     -2.01    -31.27
    -15.06     -2.01    -30.79
    -15.54     -2.49    -30.31
    -15.06     -2.01    -29.83
    -15.06     -2.01    -28.87
    -15.06     -2.49    -28.40
    -15.06     -2.01    -27.92
    -15.06     -2.49    -26.96
    -15.06     -2.49    -26.00
    -15.06     -2.97    -25.04
    -15.54     -2.97    -24.09
    -15.06     -2.97    -22.65
    -15.06     -2.49    -21.69
    -15.06     -2.97    -20.26
    -15.06     -2.49    -18.82
    -14.58     -2.49    -17.38
    -14.10     -2.49    -16.42
    -13.62     -2.49    -14.99
    -13.14     -2.49    -13.55
    -12.66     -2.49    -11.64
    -11.71     -2.01    -10.68
    -11.23     -2.01     -9.24
    -10.27     -1.53     -7.33
     -9.79     -1.05     -5.89
     -8.83     -1.05     -4.45
     -7.87     -0.57     -3.02
     -6.92     -0.57     -1.58
     -5.96     -0.09     -0.14
     -5.00     -0.09      1.77
     -3.57      0.39      3.21
     -2.61      0.87      4.64
     -1.65      0.87      6.08
     -0.21      1.34      7.04
      0.74      1.34      8.47
      2.18      1.34      9.91
      3.14      1.34     10.87
      4.10      1.34     12.31
      5.05      1.34     13.74
      5.53      1.82     14.70
      6.49      1.82     16.14
      7.45      1.82     17.09
      7.93      1.82     18.05
      8.88      1.82     19.01
      9.36      1.82     19.49
      9.84      2.30     20.45
     10.80      1.82     20.92
     11.28      2.30     21.40
     11.76      2.30     21.88
     12.24      2.30     21.88
     12.72      2.30     22.36
     13.19      2.30     22.36
     13.67      2.30     22.36
     14.15      2.30     22.36
     14.63      2.30     22.36
     15.11      2.30     22.36
     15.11      1.82     22.36
     15.59      1.82     22.36
     15.59      1.82     21.88
     15.59      1.34     22.36
     16.07      1.34     21.88
     15.59      1.34     21.88
     15.59      1.34     21.88
     15.59      1.34     21.40
     15.59      1.34     21.40
     15.11      1.34     20.92
     15.11      1.34     19.97
     14.63      0.87     19.49
     14.63      0.87     19.01
     14.15      0.87     18.05
     14.15      0.39     17.09
     13.67      0.39     16.62
     13.19      0.39     15.66
     13.19      0.39     14.70
     12.72      0.87     14.22
     12.24      1.34     13.26
     11.76      1.34     12.31
     11.28      1.34     11.35
     10.80      1.82     10.39
     10.32      1.82      9.91
      9.36      2.30      8.95
      8.88      2.30      8.47
      8.41      2.30      8.00
      7.45      2.30      7.04
      6.97      2.30      6.56
      6.49      2.30      5.60
      6.01      1.82      5.12
      5.53      1.82      4.17
      4.58      1.82      3.69
      4.10      1.82      2.73
      3.62      1.82      2.25
      3.14      1.82      1.29
      2.18      1.34      0.33
      1.70      1.34     -0.62
      1.22      1.34     -1.58
      0.74      1.34     -2.06
     -0.21      1.34     -3.02
     -0.69      1.34     -3.50
     -1.17      0.87     -4.45
     -1.65      0.87     -4.93
     -2.13      0.87     -5.41
     -2.61      0.39     -6.37
     -3.09      0.39     -6.85
     -3.57      0.39     -7.33
     -4.04     -0.09     -7.81
     -4.52     -0.09     -7.81
     -5.00     -0.57     -8.28
     -5.00     -0.57     -8.28
     -5.48     -0.57     -8.28
     -5.96     -1.05     -8.28
     -5.96     -1.05     -8.28
     -5.96     -1.05     -8.28
     -6.44     -1.05     -8.28
     -5.96     -1.05     -7.81
     -5.96     -1.05     -7.33
     -5.96     -0.57     -7.33
     -5.96     -0.57     -6.85
     -5.96     -0.57     -6.37
     -5.96     -0.57     -6.37
     -5.48     -0.57     -5.89
     -5.48     -0.09     -5.89
     -5.48     -0.57     -5.89
     -5.48     -0.09     -6.37
     -5.48     -0.57     -5.89
     -5.48     -0.09     -6.37
     -5.48     -0.09     -6.37
     -5.96     -0.57     -6.37
     -5.96     -0.09     -5.89
     -5.96     -0.09     -6.37
     -6.44     -0.09     -5.89
     -6.44     -0.09     -5.89
     -6.44     -0.09     -5.41
     -6.92     -0.09     -5.41
     -6.92     -0.09     -4.93
     -6.92     -0.09     -4.45
     -6.92     -0.57     -4.45
     -6.92     -0.57     -3.97
     -6.92     -0.57     -3.97
     -6.92     -0.57     -3.50
     -6.92     -0.57     -3.02
     -6.44     -0.57     -2.54
     -6.44     -0.09     -2.54
     -6.44     -0.09     -2.06
     -6.44     -0.09     -1.58
     -6.44     -0.09     -1.10
     -5.96      0.39     -0.62
     -5.96      0.39      0.33
     -6.44      0.39      0.81
     -6.44      0.87      1.29
     -6.44      0.87      2.25
     -6.44      0.87      2.73
     -6.44      0.87      3.21
