********************************************************************************
              CENTRO DE INSTRUMENTACION Y REGISTRO SISMICO  A.C.

    Anaxagoras 814, Col. Narvarte, Benito Juarez, C.P. 03020 Mexico, D.F.
           Tels. 5687 45 42/ 5687 45  82             Fax. 5669 25 12
********************************************************************************
ARCHIVO ESTANDAR DE ACELERACION:
VERSION DEL FORMATO                    : 2.0
NOMBRE DEL ARCHIVO                     : AO2420130821123830
FECHA Y HORA DE CREACION               : 11/SEP/13, 15:00
REF. CATALOGO ACELEROGRAMAS, SMIS 1996 : REGISTRO No.     /PAG.


================================================================================
DATOS DE LA ESTACION:
NOMBRE DE LA ESTACION                  : ALBERCA OLÍMPICA
CLAVE DE LA ESTACION                   : AO24
LOCALIZACION DE LA ESTACION            : Del. Benito Juárez, Col. General Pedro 
                                       : María Anaya, Río Churubusco            
                                       : y División del Norte.                  
                                       :                                        
                                       : 
COORDENADAS DE LA ESTACION             : 19.3580 LAT. N
                                       : 99.1539 LONG. W
ALTITUD (msnm)                         : 2235
TIPO DE SUELO                          : Transición                          
                                       :                           
                                       : 
INSTITUCION RESPONSABLE                : CIRES
                                       : 

================================================================================
DATOS DEL ACELEROGRAFO:
MODELO DEL ACELEROGRAFO                : RADESD
NUMERO DE SERIE DEL ACELEROGRAFO       : 257
NUMERO DE CANALES                      : 3
ORIENTACION C1-C6 (rumbo;orientacion)  : /N00E/+V/N90W
ORIENTACION C7-C12 (rumbo;orientacion) : 
VEL. DE MUESTREO, C1-C6 (muestras/s)   : /100/100/100
VEL. DE MUESTREO, C7-C12 (muestras/s)  : 
ESC. COMPLETA DE SENSORES, C1-C6, (g)  : /0.5/0.5/0.5
ESC. COMPLETA DE SENSORES, C7-C12, (g) : 
FREC. NAT. DE SENSORES, C1-C6, (Hz)    : /30/30/30
FREC. NAT. DE SENSORES, C7-C12, (Hz)   : 
AMORTIGUAMIENTO DE SENSORES, C1-C6     : /0.700/0.700/0.700
AMORTIGUAMIENTO DE SENSORES, C7-C12    : 
INTERVALO DE MUESTREO, C1-C6, (s)      : /0.01/0.01/0.01
INTERVALO DE MUESTREO, C7-C12, (s)     : 
UMBRAL DE DISPARO, C1-C6, (Gal)        : /19.15/50.28/26.34
UMBRAL DE DISPARO, C7-C12, (Gal)       : 
MEMORIA DE PREEVENTO (s)               : 56.0
TIEMPO DE POSEVENTO (s)                : 80.0


================================================================================
DATOS DEL SISMO:
FECHA DEL SISMO (GMT)                  : 21/AGO/13
HORA EPICENTRO (GMT)                   : 12:38:30.0
MAGNITUD(ES)                           : /Mc=6.0
COORDENADAS DEL EPICENTRO              : 16.79 LAT. N
                                       : 99.56 LONG. W
PROFUNDIDAD FOCAL (km)                 : 20
FUENTE DE LOS DATOS EPICENTRALES       : SSN
                                       : INSTITUTO DE GEOFISICA, UNAM

================================================================================
DATOS DE ESTE REGISTRO:
HORA DE LA PRIMERA MUESTRA (GMT)       : 12:39:31.00
EXACTITUD DEL TIEMPO (s)               : 0.01
DURACION DEL REGISTRO (s), C1-C6       : /205.6/205.6/205.6
DURACION DEL REGISTRO (s), C7-C12      : 
NUM. TOTAL DE MUESTRAS, C1-C6          : /20560/20560/20560
NUM. TOTAL DE MUESTRAS, C7-C12         : 
ACEL. MAX. (Gal), C1-C6                : /6.19812/1.75746/5.324
ACEL. MAX., C1-C6, EN LA MUESTRA       : /7905/7700/8499
ACEL. MAX. (Gal), C7-C12               : 
ACEL. MAX., C7-C12, EN LA MUESTRA      : 
UNIDADES DE LOS DATOS                  : Gal (cm/s/s)
FACTOR DE DECIMACION                   : 1
FORMATO DATOS (FORTRAN,10 campos/dato) : 3F10.5


================================================================================
CALIDAD DEL ACELEROGRAMA:
REGISTRO DIGITAL COMPLETO CON TIEMPO ABSOLUTO CORRECTO.


================================================================================
COMENTARIOS:














================================================================================
DATOS DE ACELERACION:
---------+---------+---------+---------+---------+---------+---------+---------+
   CANAL-1   CANAL-2   CANAL-3   CANAL-4   CANAL-5   CANAL-6   CANAL-7   CANAL-8
      N00E        +V      N90W
---------+---------+---------+---------+---------+---------+---------+---------+
[...]
   0.92463  -1.60939   1.94839
   0.74507  -1.63932   2.15788
   0.56550  -1.63932   2.33745
   0.32608  -1.60939   2.50205
   0.16148  -1.50464   2.77140
  -0.10787  -1.35500   2.96593
  -0.34729  -1.22033   3.13053
  -0.58671  -1.02580   3.28017
  -0.91591  -0.75645   3.44477
  -1.26008  -0.48711   3.53455
  -1.57432  -0.18783   3.53455
  -1.91848   0.08152   3.53455
  -2.17287   0.30597   3.45973
  -2.47214   0.53043   3.35499
  -2.74149   0.69503   3.23528
  -2.98091   0.87460   3.05571
  -3.19040   0.91949   2.84622
  -3.38493   0.97934   2.60680
  -3.53457   0.94941   2.42723
  -3.68421   0.91949   2.26263
  -3.86377   0.93445   2.05314
  -3.96852   0.88956   1.90350
  -4.08823   0.91949   1.73890
  -4.13312   0.94941   1.60423
  -4.20794   1.00927   1.51444
  -4.25283   1.09905   1.43962
  -4.32765   1.23373   1.37977
  -4.38750   1.30855   1.33488
  -4.40247   1.29358   1.27502
  -4.43239   1.35344   1.23013
  -4.44736   1.38336   1.21517
  -4.44736   1.39833   1.18524
  -4.43239   1.35344   1.15531
  -4.43239   1.38336   1.06553
  -4.47729   1.29358   0.99071
  -4.53714   1.17387   0.88597
  -4.58203   1.03920   0.79618
  -4.58203   0.90452   0.66151
  -4.61196   0.82970   0.61662
  -4.58203   0.69503   0.49691
  -4.59700   0.57532   0.45202
  -4.56707   0.45561   0.42209
  -4.55210   0.33590   0.42209
  -4.47729   0.23115   0.45202
  -4.32765   0.14137   0.46698
  -4.07326   0.03663   0.54180
  -3.78895  -0.05316   0.58669
  -3.38493  -0.12798   0.67647
  -2.98091  -0.21776   0.73633
  -2.47214  -0.30754   0.79618
  -1.97834  -0.32250   0.84107
  -1.49950  -0.42725   0.87100
  -1.00569  -0.53200   0.90093
  -0.51189  -0.54696   0.88597
  -0.06298  -0.54696   0.87100
   0.40090  -0.54696   0.82611
   0.87974  -0.59185   0.76626
   1.28376  -0.56192   0.66151
   1.64289  -0.62178   0.54180
   1.97209  -0.60682   0.39216
   2.27137  -0.60682   0.24252
   2.51079  -0.53200   0.07792
   2.79510  -0.44221  -0.04179
   3.00459  -0.38236  -0.13157
   3.15423  -0.32250  -0.19143
   3.25898  -0.30754  -0.20639
   3.33380  -0.26265  -0.17646
   3.43854  -0.27761  -0.11661
   3.51336  -0.23272  -0.02682
   3.58818  -0.20279   0.04799
   3.64804  -0.20279   0.10785
   3.69293  -0.20279   0.21260
   3.78271  -0.21776   0.34727
   3.93235  -0.20279   0.42209
   4.08199  -0.21776   0.48194
   4.23162  -0.21776   0.52683
   4.41119  -0.23272   0.52683
   4.60572  -0.18783   0.45202
   4.80025  -0.17287   0.39216
   5.00974  -0.18783   0.22756
   5.15938  -0.14294   0.10785
   5.30901  -0.09805   0.00310
   5.45865  -0.05316  -0.11661
   5.48858   0.03663  -0.20639
   5.53347   0.06655  -0.25128
   5.48858   0.08152  -0.26624
   5.41376  -0.02323  -0.22135
   5.26412  -0.02323  -0.20639
   5.11448  -0.12798  -0.14653
   4.94988  -0.20279  -0.13157
   4.69550  -0.32250  -0.11661
   4.47104  -0.42725  -0.11661
   4.17177  -0.50207  -0.10164
   3.85753  -0.51703  -0.13157
   3.46847  -0.53200  -0.17646
   3.13927  -0.51703  -0.20639
   2.75021  -0.51703  -0.26624
   2.37612  -0.47214  -0.31114
   2.03195  -0.44221  -0.38595
   1.68778  -0.38236  -0.49070
   1.34362  -0.26265  -0.58048
   1.01441  -0.15790  -0.65530
   0.71514  -0.05316  -0.71516
   0.46075   0.06655  -0.77501
   0.20637   0.09648  -0.81990
   0.01184   0.09648  -0.81990
  -0.10787   0.09648  -0.81990
  -0.19765   0.09648  -0.83487
  -0.30240   0.11144  -0.77501
  -0.37722   0.11144  -0.70019
  -0.45203   0.17130  -0.58048
  -0.52685   0.21619  -0.37099
  -0.66153   0.26108  -0.20639
  -0.76627   0.30597   0.00310
  -0.85606   0.35086   0.21260
  -0.97577   0.41072   0.37720
  -1.12540   0.42568   0.51187
  -1.21519   0.41072   0.67647
  -1.31993   0.39576   0.76626
  -1.45461   0.32094   0.81115
  -1.55935   0.27605   0.85604
  -1.66410   0.14137   0.82611
  -1.73892   0.09648   0.82611
  -1.84366   0.02166   0.81115
  -1.96337  -0.02323   0.72136
  -2.03819  -0.08308   0.67647
  -2.11301  -0.12798   0.63158
  -2.21776  -0.17287   0.60165
  -2.29258  -0.17287   0.57173
  -2.38236  -0.09805   0.58669
  -2.48711   0.03663   0.63158
  -2.62178   0.23115   0.64655
  -2.68163   0.41072   0.66151
  -2.75645   0.62021   0.66151
  -2.84624   0.84467   0.63158
  -2.93602   1.09905   0.52683
  -3.04076   1.29358   0.34727
  -3.13055   1.45818   0.19763
  -3.23529   1.56293   0.00310
  -3.29515   1.66768  -0.19143
  -3.39990   1.74249  -0.34106
  -3.45975   1.75746  -0.49070
  -3.53457   1.72753  -0.62537
  -3.60939   1.66768  -0.80494
  -3.62435   1.53300  -0.95458
  -3.66924   1.38336  -1.10421
  -3.65428   1.20380  -1.23889
  -3.62435   0.99431  -1.35860
  -3.54953   0.82970  -1.50824
  -3.47471   0.70999  -1.64291
  -3.36997   0.54539  -1.74766
  -3.25026   0.47057  -1.88233
  -3.13055   0.36583  -2.00204
  -2.95098   0.36583  -2.09182
  -2.81631   0.30597  -2.15168
  -2.68163   0.27605  -2.24146
  -2.51703   0.30597  -2.31628
  -2.38236   0.36583  -2.34621
  -2.21776   0.42568  -2.37613
  -2.06812   0.53043  -2.39110
  -1.93345   0.63518  -2.40606
  -1.78381   0.76985  -2.40606
  -1.64914   0.87460  -2.40606
  -1.52943   0.99431  -2.43599
  -1.42468   1.09905  -2.42103
  -1.31993   1.18884  -2.42103
  -1.20022   1.20380  -2.46592
  -1.09548   1.18884  -2.52577
  -0.96080   1.11402  -2.60059
  -0.85606   0.96438  -2.69037
  -0.70642   0.90452  -2.79512
  -0.67649   0.82970  -2.89987
  -0.58671   0.65014  -2.98965
  -0.51189   0.42568  -3.01958
  -0.45203   0.29101  -3.01958
  -0.40714   0.12641  -3.00461
  -0.36225  -0.03819  -2.97468
  -0.22758  -0.17287  -2.94476
  -0.12283  -0.30754  -2.94476
  -0.04801  -0.42725  -2.94476
   0.02681  -0.51703  -2.92979
   0.14652  -0.60682  -2.88490
   0.28119  -0.63674  -2.89987
   0.41586  -0.63674  -2.79512
   0.56550  -0.66667  -2.69037
   0.65528  -0.66667  -2.57066
   0.71514  -0.65171  -2.40606
   0.74507  -0.66667  -2.12175
   0.73010  -0.69660  -1.88233
   0.76003  -0.69660  -1.59802
   0.78996  -0.75645  -1.22392
   0.81989  -0.86120  -0.83487
   0.90967  -0.87616  -0.49070
   1.01441  -0.89113  -0.14653
   1.11916  -0.93602   0.24252
   1.26880  -1.01084   0.60165
   1.41844  -0.98091   0.90093
   1.59800  -0.98091   1.23013
   1.79253  -0.99587   1.52941
   2.00202  -0.90609   1.75386
   2.22648  -0.84624   1.90350
   2.42101  -0.77142   2.08307
   2.64546  -0.69660   2.26263
   2.79510  -0.59185   2.38234
   2.97467  -0.50207   2.51702
   3.10934  -0.41229   2.68162
   3.24401  -0.32250   2.83125
   3.34876  -0.24769   2.90607
   3.39365  -0.20279   2.99586
   3.45351  -0.14294   3.10060
   3.46847  -0.06812   3.16046
   3.43854  -0.05316   3.23528
   3.39365  -0.05316   3.31009
   3.34876  -0.05316   3.41484
   3.27394  -0.06812   3.47470
   3.13927  -0.09805   3.54951
   3.03452  -0.12798   3.56448
   2.95970  -0.14294   3.60937
   2.82503  -0.20279   3.62433
   2.72028  -0.26265   3.66922
   2.61554  -0.27761   3.66922
   2.52575  -0.38236   3.71412
   2.40604  -0.48711   3.71412
   2.31626  -0.56192   3.69915
   2.24144  -0.62178   3.63930
   2.13670  -0.72653   3.60937
   2.03195  -0.74149   3.51959
   1.91224  -0.75645   3.44477
   1.80749  -0.75645   3.35499
   1.65786  -0.68163   3.26520
   1.47829  -0.59185   3.17542
   1.28376  -0.48711   3.05571
   1.02938  -0.36740   2.93600
   0.76003  -0.24769   2.84622
   0.50565  -0.11301   2.68162
   0.23630  -0.00827   2.50205
  -0.01809   0.00670   2.32249
  -0.21261   0.00670   2.12796
  -0.43707  -0.05316   1.90350
  -0.64656  -0.14294   1.64912
  -0.84109  -0.29258   1.39473
  -1.02066  -0.39732   1.12539
  -1.18526  -0.48711   0.82611
  -1.30497  -0.66667   0.57173
  -1.42468  -0.83127   0.31734
  -1.51446  -0.93602   0.03303
  -1.60424  -1.08566  -0.19143
  -1.70899  -1.13055  -0.43085
  -1.78381  -1.17544  -0.62537
  -1.84366  -1.19040  -0.74508
  -1.94841  -1.17544  -0.84983
  -2.06812  -1.11558  -0.92465
  -2.17287  -1.02580  -0.95458
  -2.26265  -0.87616  -0.96954
  -2.35243  -0.77142  -0.93961
  -2.44221  -0.60682  -0.90969
  -2.48711  -0.44221  -0.87976
  -2.59185  -0.26265  -0.78998
  -2.65171  -0.14294  -0.78998
  -2.71156  -0.06812  -0.77501
  -2.72653  -0.00827  -0.78998
  -2.68163  -0.02323  -0.76005
  -2.63674  -0.03819  -0.80494
  -2.53200  -0.09805  -0.83487
  -2.41229  -0.18783  -0.92465
  -2.26265  -0.29258  -0.99947
  -2.11301  -0.39732  -1.08925
  -1.94841  -0.54696  -1.11918
  -1.75388  -0.68163  -1.17903
  -1.54439  -0.68163  -1.23889
  -1.33490  -0.71156  -1.26882
  -1.05058  -0.78638  -1.31371
  -0.76627  -0.78638  -1.34364
  -0.51189  -0.69660  -1.35860
  -0.27247  -0.63674  -1.31371
  -0.03305  -0.57689  -1.28378
   0.23630  -0.50207  -1.26882
   0.50565  -0.39732  -1.23889
   0.74507  -0.26265  -1.17903
   1.01441  -0.09805  -1.13414
   1.26880  -0.05316  -1.07429
   1.50822   0.05159  -1.07429
   1.79253   0.12641  -1.08925
   2.01699   0.23115  -1.11918
   2.19655   0.21619  -1.13414
   2.36115   0.21619  -1.20896
   2.48086   0.20123  -1.31371
   2.57065   0.26108  -1.38853
   2.64546   0.23115  -1.40349
   2.73525   0.26108  -1.47831
   2.76517   0.29101  -1.50824
   2.78014   0.30597  -1.56809
   2.85496   0.30597  -1.58306
   2.86992   0.27605  -1.59802
   2.89985   0.26108  -1.55313
   2.94474   0.24612  -1.50824
   3.01956   0.23115  -1.46335
   3.06445   0.18626  -1.38853
   3.10934   0.20123  -1.32867
   3.13927   0.23115  -1.23889
   3.24401   0.27605  -1.08925
   3.24401   0.29101  -0.99947
   3.27394   0.32094  -0.83487
   3.31883   0.47057  -0.73012
   3.31883   0.53043  -0.62537
   3.31883   0.60525  -0.53559
   3.31883   0.68007  -0.49070
   3.31883   0.70999  -0.43085
   3.24401   0.72496  -0.32610
   3.16920   0.73992  -0.26624
   3.03452   0.75489  -0.20639
   2.88488   0.72496  -0.17646
   2.75021   0.65014  -0.07172
   2.55568   0.62021   0.03303
   2.40604   0.59028   0.13778
   2.22648   0.53043   0.31734
   2.09180   0.53043   0.43705
   1.88231   0.48554   0.54180
   1.70275   0.44065   0.63158
   1.49325   0.35086   0.66151
   1.28376   0.27605   0.73633
   1.10420   0.20123   0.75129
   0.84981   0.11144   0.73633
   0.58047  -0.00827   0.78122
   0.29615  -0.12798   0.78122
  -0.00312  -0.21776   0.76626
  -0.33232  -0.30754   0.79618
  -0.69145  -0.41229   0.81115
  -1.08051  -0.51703   0.81115
  -1.45461  -0.60682   0.78122
  -1.82870  -0.63674   0.75129
  -2.21776  -0.65171   0.73633
  -2.57689  -0.63674   0.69144
  -3.01084  -0.60682   0.66151
  -3.39990  -0.56192   0.64655
  -3.78895  -0.44221   0.63158
  -4.13312  -0.32250   0.63158
  -4.49225  -0.12798   0.63158
  -4.79152   0.02166   0.63158
  -5.09080   0.18626   0.63158
  -5.36015   0.36583   0.63158
  -5.62950   0.50050   0.61662
  -5.80906   0.51547   0.69144
  -5.94373   0.59028   0.67647
  -6.09337   0.65014   0.72136
  -6.16819   0.68007   0.79618
  -6.19812   0.69503   0.84107
  -6.16819   0.60525   0.91589
  -6.06344   0.50050   0.94582
  -5.92877   0.39576   0.99071
  -5.76417   0.26108   1.02064
  -5.53971   0.08152   1.11042
  -5.27037  -0.05316   1.11042
  -5.00102  -0.15790   1.09546
  -4.79152  -0.24769   1.11042
  -4.58203  -0.24769   0.99071
  -4.35758  -0.20279   0.90093
  -4.13312  -0.09805   0.75129
  -3.84881   0.08152   0.57173
  -3.57946   0.20123   0.39216
  -3.32508   0.30597   0.19763
  -3.02580   0.39576   0.03303
  -2.75645   0.51547  -0.14653
  -2.39732   0.60525  -0.28121
  -2.02323   0.63518  -0.44581
  -1.67906   0.62021  -0.64034
  -1.34986   0.62021  -0.73012
  -1.03562   0.60525  -0.76005
  -0.72138   0.51547  -0.78998
  -0.42211   0.45561  -0.87976
  -0.13780   0.36583  -0.89472
   0.07170   0.29101  -0.93961
   0.29615   0.20123  -0.96954
   0.46075   0.18626  -1.01443
   0.68521   0.21619  -1.07429
   0.84981   0.23115  -1.17903
   0.98449   0.24612  -1.23889
   1.16405   0.29101  -1.25385
   1.32865   0.33590  -1.22392
   1.50822   0.42568  -1.35860
   1.73267   0.59028  -1.41845
   1.94217   0.72496  -1.44838
   2.21151   0.76985  -1.41845
   2.37612   0.76985  -1.32867
   2.58561   0.84467  -1.23889
   2.82503   0.79978  -1.04436
   3.03452   0.73992  -0.92465
   3.24401   0.57532  -0.76005
   3.42358   0.41072  -0.62537
   3.60314   0.21619  -0.44581
   3.81264   0.02166  -0.37099
   3.94731  -0.17287  -0.32610
   4.11191  -0.36740  -0.28121
   4.18673  -0.54696  -0.28121
   4.27651  -0.69660  -0.26624
   4.38126  -0.80135  -0.29617
   4.44112  -0.87616  -0.40092
   4.45608  -0.95098  -0.50566
   4.39622  -1.01084  -0.59545
   4.27651  -1.01084  -0.68523
   4.08199  -1.04077  -0.74508
   3.87249  -0.99587  -0.81990
   3.63307  -0.99587  -0.81990
   3.31883  -1.04077  -0.77501
   3.03452  -1.05573  -0.71516
   2.69036  -1.02580  -0.70019
   2.30130  -0.99587  -0.65530
   1.97209  -0.95098  -0.55056
   1.64289  -0.86120  -0.46077
   1.31369  -0.77142  -0.37099
   1.04434  -0.69660  -0.22135
   0.80492  -0.62178  -0.05675
   0.58047  -0.51703   0.09289
   0.34104  -0.38236   0.22756
   0.13155  -0.27761   0.36223
  -0.01809  -0.21776   0.51187
  -0.15276  -0.20279   0.66151
  -0.24254  -0.21776   0.84107
  -0.31736  -0.23272   1.00568
  -0.37722  -0.26265   1.11042
  -0.39218  -0.27761   1.21517
  -0.40714  -0.33747   1.34984
  -0.37722  -0.39732   1.43962
  -0.39218  -0.45718   1.48452
  -0.36225  -0.48711   1.54437
  -0.28743  -0.50207   1.60423
  -0.21261  -0.56192   1.60423
  -0.13780  -0.54696   1.63415
  -0.10787  -0.45718   1.58926
  -0.07794  -0.33747   1.52941
  -0.06298  -0.12798   1.39473
  -0.07794   0.05159   1.28999
  -0.13780   0.20123   1.21517
  -0.22758   0.35086   1.08049
  -0.34729   0.48554   0.94582
  -0.48196   0.60525   0.90093
  -0.67649   0.69503   0.81115
  -0.87102   0.82970   0.66151
  -1.14037   0.87460   0.57173
  -1.37979   0.88956   0.54180
  -1.66410   0.82970   0.51187
  -1.85863   0.81474   0.51187
  -2.08308   0.85963   0.55676
  -2.21776   0.85963   0.61662
  -2.35243   0.82970   0.64655
  -2.44221   0.76985   0.76626
  -2.51703   0.72496   0.88597
  -2.59185   0.68007   1.00568
  -2.57689   0.63518   1.14035
  -2.60682   0.56036   1.24510
  -2.57689   0.51547   1.34984
  -2.56192   0.50050   1.39473
  -2.48711   0.38079   1.48452
  -2.42725   0.30597   1.52941
  -2.33747   0.26108   1.51444
  -2.23272   0.18626   1.46955
  -2.14294   0.14137   1.40970
  -2.06812   0.05159   1.34984
  -1.93345  -0.00827   1.23013
  -1.79877  -0.03819   1.15531
  -1.69403  -0.08308   1.05057
  -1.57432  -0.08308   0.91589
  -1.43964  -0.12798   0.84107
  -1.30497  -0.20279   0.75129
  -1.15533  -0.18783   0.60165
  -1.05058  -0.14294   0.52683
  -0.93087  -0.12798   0.46698
  -0.82613  -0.06812   0.42209
  -0.69145   0.00670   0.36223
  -0.55678   0.06655   0.27245
  -0.43707   0.02166   0.22756
  -0.31736   0.05159   0.12281
  -0.25751   0.06655   0.06296
  -0.16772   0.11144   0.00310
  -0.06298   0.11144  -0.07172
  -0.00312   0.11144  -0.11661
   0.10162   0.12641  -0.19143
   0.17644   0.05159  -0.20639
   0.32608   0.00670  -0.19143
   0.41586  -0.00827  -0.22135
   0.53557  -0.00827  -0.26624
   0.70018  -0.03819  -0.29617
   0.90967  -0.03819  -0.38595
   1.08923  -0.03819  -0.52063
   1.23887  -0.06812  -0.61041
   1.43340  -0.06812  -0.71516
   1.56807  -0.05316  -0.86479
   1.70275  -0.06812  -0.98450
   1.83742  -0.08308  -1.16407
   2.00202  -0.11301  -1.32867
   2.09180  -0.12798  -1.47831
   2.18159  -0.14294  -1.65787
   2.21151  -0.17287  -1.80751
   2.22648  -0.15790  -1.94219
   2.21151  -0.18783  -2.07686
   2.18159  -0.23272  -2.12175
