********************************************************************************
               CENTRO DE INSTRUMENTACION Y REGISTRO SISMICO  A.C.  
                       Coordinacion de Servicios Tecnicos
     Anaxagoras 814, Col. Narvarte, Benito Juarez, C.P. 03020 Mexico, D.F.
            Tels. 687 45 42/ 687 45  82             Fax. 669 25 12
********************************************************************************
ARCHIVO ESTANDAR DE ACELERACION:
VERSION DEL FORMATO                    : 2.0
NOMBRE DEL ARCHIVO                     : AO240508.141
FECHA Y HORA DE CREACION               : 24/AGO/05, 10:52
REF. CATALOGO ACELEROGRAMAS, SMIS 1996 : REGISTRO No.     /PAG.


================================================================================
DATOS DE LA ESTACION:
NOMBRE DE LA ESTACION                  : ALBERCA OLIMPICA
CLAVE DE LA ESTACION                   : AO24
LOCALIZACION DE LA ESTACION            : Alberca Olimpica Rio Churubusco y
                                       : Division del Norte, Col Pedro Ma
                                       : Anaya, Benito Juarez
                                       :
                                       :
COORDENADAS DE LA ESTACION             : 19.358 LAT. N 
                                       : 99.154 LONG. W 
ALTITUD (msnm)                         : 2235
TIPO DE SUELO                          : TRANSICION
                                       : 
                                       : 
INSTITUCION RESPONSABLE                : CIRES
                                       :

================================================================================
DATOS DEL ACELEROGRAFO:
MODELO DEL ACELEROGRAFO                : RAD-851
NUMERO DE SERIE DEL ACELEROGRAFO       : 257
NUMERO DE CANALES                      : 3
ORIENTACION C1-C6 (rumbo;orientacion)  : /N00E/+V/N90W
ORIENTACION C7-C12 (rumbo;orientacion) :
VEL. DE MUESTREO, C1-C6 (muestras/s)   : /100/100/100
VEL. DE MUESTREO, C7-C12 (muestras/s)  :
ESC. COMPLETA DE SENSORES, C1-C6, (g)  : /0.5/0.5/0.5
ESC. COMPLETA DE SENSORES, C7-C12, (g) :
FREC. NAT. DE SENSORES, C1-C6, (Hz)    : /30/30/30
FREC. NAT. DE SENSORES, C7-C12, (Hz)   :
AMORTIGUAMIENTO DE SENSORES, C1-C6     : /0.700/0.700/0.700
AMORTIGUAMIENTO DE SENSORES, C7-C12    :
INTERVALO DE MUESTREO, C1-C6, (s)      : /0.01/0.01/0.01
INTERVALO DE MUESTREO, C7-C12, (s)     :
UMBRAL DE DISPARO, C1-C6, (Gal)        : /1.95/2.93/1.95
UMBRAL DE DISPARO, C7-C12, (Gal)       :
MEMORIA DE PREEVENTO (s)               : 24
TIEMPO DE POSEVENTO (s)                : 64


================================================================================
DATOS DEL SISMO:
FECHA DEL SISMO (GMT)                  : 14/AGO/05
HORA EPICENTRO (GMT)                   : 02:51:56,0
MAGNITUD(ES)                           : /Mc=5.8
COORDENADAS DEL EPICENTRO              : 15.94 LAT. N
                                       : 97.93 LONG. W
PROFUNDIDAD FOCAL (km)                 : 9
FUENTE DE LOS DATOS EPICENTRALES       : SSN
                                       : INSTITUTO DE GEOFISICA, UNAM 

================================================================================
DATOS DE ESTE REGISTRO:
HORA DE LA PRIMERA MUESTRA (GMT)       : 02:53:52.00
EXACTITUD DEL TIEMPO (s)               : 0.01
DURACION DEL REGISTRO (s), C1-C6       : /130.25/130.25/130.25
DURACION DEL REGISTRO (s), C7-C12      :
NUM. TOTAL DE MUESTRAS, C1-C6          : /13025/13025/13025
NUM. TOTAL DE MUESTRAS, C7-C12         :
ACEL. MAX. (Gal), C1-C6                : /-2.46525/1.02071/2.80066
ACEL. MAX., C1-C6, EN LA MUESTRA       :
ACEL. MAX. (Gal), C7-C12               :
ACEL. MAX., C7-C12, EN LA MUESTRA      :
UNIDADES DE LOS DATOS                  : Gal (cm/s/s)
FACTOR DE DECIMACION                   : 1
FORMATO DATOS (FORTRAN,10 campos/dato) : 3F10.5


================================================================================
CALIDAD DEL ACELEROGRAMA:
REGISTRO DIGITAL COMPLETO CON TIEMPO ABSOLUTO CORRECTO.


================================================================================
COMENTARIOS:














================================================================================
DATOS DE ACELERACION:
---------+---------+---------+---------+---------+---------+---------+---------+
   CANAL-1   CANAL-2   CANAL-3   CANAL-4   CANAL-5   CANAL-6   CANAL-7   CANAL-8
      N00E        +V      N90W
---------+---------+---------+---------+---------+---------+---------+---------+
[...]
   0.40778   0.30245  -0.31179
   0.40778   0.54187  -0.31179
   0.40778   0.54187  -0.31179
   0.40778   0.54187  -0.07237
   0.40778   0.30245  -0.31179
   0.64719   0.30245  -0.07237
   0.40778   0.54187  -0.07237
   0.64719   0.30245  -0.07237
   0.40778   0.30245  -0.07237
   0.40778   0.30245  -0.07237
   0.64719   0.30245   0.16705
   0.40778   0.30245   0.16705
   0.64719   0.06303   0.16705
   0.64719   0.06303   0.16705
   0.88661   0.06303   0.16705
   0.88661   0.06303   0.40647
   0.88661   0.06303   0.40647
   0.88661  -0.17639   0.16705
   0.88661  -0.17639   0.40647
   0.88661  -0.17639   0.40647
   0.88661  -0.17639   0.64589
   0.88661   0.06303   0.64589
   0.88661  -0.17639   0.40647
   0.88661  -0.17639   0.64589
   0.64719  -0.17639   0.64589
   0.64719  -0.17639   0.88531
   0.40778   0.06303   0.88531
   0.40778  -0.17639   0.88531
   0.16836   0.06303   1.12473
   0.16836   0.06303   1.12473
  -0.07106   0.06303   1.12473
  -0.07106   0.30245   1.12473
  -0.07106   0.06303   1.12473
  -0.07106   0.06303   1.12473
  -0.07106   0.06303   1.12473
  -0.07106   0.06303   1.36415
   0.16836   0.06303   1.36415
  -0.07106   0.06303   1.36415
  -0.07106   0.06303   1.36415
   0.16836   0.06303   1.36415
   0.16836   0.06303   1.36415
  -0.07106   0.30245   1.60356
   0.40778   0.06303   1.60356
   0.16836   0.30245   1.60356
   0.16836   0.30245   1.84298
   0.16836   0.30245   2.08240
  -0.07106   0.30245   2.08240
   0.16836   0.30245   2.08240
  -0.07106   0.30245   2.32182
  -0.07106   0.30245   2.32182
  -0.07106   0.30245   2.32182
  -0.07106   0.30245   2.32182
  -0.07106   0.06303   2.08240
  -0.07106   0.06303   2.08240
  -0.07106   0.06303   1.84298
  -0.07106   0.06303   1.60356
  -0.07106   0.06303   1.36415
  -0.07106   0.06303   1.12473
  -0.07106   0.06303   1.12473
  -0.31048   0.30245   0.64589
  -0.31048   0.06303   0.64589
  -0.31048   0.06303   0.40647
  -0.31048   0.06303   0.16705
  -0.31048   0.06303   0.16705
  -0.31048   0.06303  -0.07237
  -0.31048   0.06303  -0.07237
  -0.54990   0.06303  -0.31179
  -0.54990  -0.17639  -0.55121
  -0.31048  -0.17639  -0.55121
  -0.54990  -0.17639  -0.55121
  -0.54990  -0.17639  -0.55121
  -0.54990  -0.17639  -0.79062
  -0.54990  -0.17639  -1.03004
  -0.54990  -0.17639  -1.03004
  -0.54990  -0.41581  -1.03004
  -0.54990  -0.17639  -1.03004
  -0.54990  -0.17639  -1.03004
  -0.31048  -0.41581  -1.26946
  -0.54990  -0.41581  -1.26946
  -0.31048  -0.41581  -1.26946
  -0.07106  -0.41581  -1.26946
  -0.07106  -0.17639  -1.26946
  -0.07106  -0.41581  -1.50888
  -0.07106  -0.41581  -1.26946
  -0.07106  -0.41581  -1.26946
   0.16836  -0.41581  -1.26946
   0.16836  -0.17639  -1.26946
   0.16836  -0.41581  -1.26946
   0.16836  -0.17639  -1.26946
   0.16836  -0.17639  -1.26946
   0.40778  -0.17639  -1.26946
   0.16836  -0.17639  -1.26946
   0.40778   0.06303  -1.26946
   0.16836   0.06303  -1.26946
   0.16836   0.06303  -1.26946
   0.40778   0.06303  -1.26946
   0.16836   0.30245  -1.26946
   0.16836   0.30245  -1.26946
   0.16836   0.30245  -1.26946
   0.16836   0.54187  -1.50888
   0.16836   0.30245  -1.50888
  -0.07106   0.30245  -1.26946
  -0.07106   0.30245  -1.26946
  -0.07106   0.30245  -1.50888
  -0.07106   0.30245  -1.50888
  -0.31048   0.30245  -1.50888
  -0.31048   0.30245  -1.26946
  -0.54990   0.06303  -1.50888
  -0.54990   0.06303  -1.26946
  -0.54990   0.06303  -1.26946
  -0.54990  -0.17639  -1.03004
  -0.78932  -0.17639  -1.03004
  -0.78932  -0.17639  -1.03004
  -0.54990  -0.17639  -0.79062
  -0.54990  -0.17639  -0.55121
  -0.31048  -0.17639  -0.55121
  -0.54990  -0.17639  -0.31179
  -0.31048  -0.17639  -0.31179
  -0.31048  -0.17639  -0.07237
  -0.31048  -0.17639   0.16705
  -0.31048  -0.17639   0.16705
  -0.07106   0.06303   0.16705
  -0.07106   0.06303   0.40647
  -0.07106   0.06303   0.40647
  -0.07106   0.30245   0.64589
  -0.07106   0.06303   0.64589
  -0.07106   0.06303   0.64589
  -0.07106   0.30245   0.88531
  -0.07106   0.30245   0.88531
  -0.07106   0.30245   0.88531
  -0.07106   0.30245   0.88531
  -0.07106   0.06303   0.88531
  -0.07106   0.30245   0.88531
  -0.07106   0.06303   0.88531
  -0.07106   0.06303   0.88531
  -0.07106   0.06303   0.88531
  -0.07106   0.06303   0.88531
  -0.07106   0.06303   0.88531
  -0.07106  -0.17639   0.64589
  -0.07106   0.06303   0.88531
  -0.07106   0.06303   0.88531
  -0.07106  -0.17639   0.88531
  -0.07106   0.06303   0.88531
   0.16836   0.06303   0.88531
  -0.07106   0.06303   1.12473
   0.16836   0.06303   1.12473
  -0.07106   0.06303   1.12473
  -0.07106   0.30245   1.12473
  -0.07106   0.06303   1.36415
  -0.07106   0.30245   1.36415
  -0.07106   0.30245   1.36415
   0.16836   0.30245   1.36415
  -0.07106   0.30245   1.36415
   0.16836   0.30245   1.36415
   0.16836   0.30245   1.36415
   0.40778   0.30245   1.36415
   0.40778   0.30245   1.12473
   0.40778   0.30245   1.12473
   0.64719   0.06303   1.12473
   0.64719   0.06303   1.12473
   0.64719   0.06303   0.88531
   0.88661  -0.17639   1.12473
   0.64719  -0.17639   0.88531
   0.88661  -0.17639   0.64589
   0.88661  -0.17639   0.64589
   0.88661  -0.41581   0.40647
   0.88661  -0.41581   0.64589
   0.88661  -0.41581   0.40647
   1.12603  -0.41581  -0.07237
   0.88661  -0.41581  -0.07237
   0.88661  -0.17639  -0.31179
   0.88661  -0.17639  -0.31179
   0.88661  -0.41581  -0.31179
   0.88661  -0.41581  -0.55121
   0.88661  -0.41581  -0.55121
   0.88661  -0.17639  -0.79062
   0.64719  -0.41581  -0.79062
   0.64719  -0.17639  -0.79062
   0.64719  -0.41581  -1.03004
   0.64719  -0.17639  -1.03004
   0.40778  -0.17639  -1.03004
   0.40778  -0.41581  -1.03004
  -0.07106  -0.17639  -1.03004
  -0.07106  -0.17639  -1.03004
  -0.07106  -0.17639  -1.03004
  -0.07106   0.06303  -1.03004
  -0.07106  -0.17639  -1.26946
  -0.31048  -0.17639  -1.03004
  -0.31048   0.06303  -1.03004
  -0.07106   0.06303  -1.03004
  -0.07106   0.06303  -1.03004
  -0.07106   0.06303  -1.03004
  -0.07106   0.06303  -1.03004
  -0.07106   0.06303  -1.03004
  -0.07106   0.06303  -1.26946
  -0.07106   0.06303  -1.26946
   0.16836   0.06303  -1.26946
  -0.07106   0.06303  -1.26946
  -0.07106   0.06303  -1.26946
   0.16836   0.06303  -1.26946
   0.16836   0.06303  -1.26946
   0.16836  -0.17639  -1.50888
   0.16836  -0.17639  -1.50888
   0.16836  -0.17639  -1.50888
   0.40778  -0.17639  -1.26946
   0.16836  -0.17639  -1.26946
   0.40778  -0.17639  -1.26946
   0.40778  -0.17639  -1.26946
   0.40778  -0.17639  -1.03004
   0.40778  -0.17639  -1.03004
   0.40778  -0.17639  -0.79062
   0.40778  -0.17639  -0.79062
   0.40778  -0.17639  -0.79062
   0.40778   0.06303  -0.55121
   0.64719   0.06303  -0.31179
   0.40778   0.06303  -0.31179
   0.40778   0.06303  -0.07237
   0.40778   0.30245  -0.07237
   0.40778   0.30245  -0.07237
   0.40778   0.30245   0.16705
   0.16836   0.30245   0.40647
   0.16836   0.30245   0.40647
  -0.07106   0.06303   0.64589
  -0.07106   0.54187   0.64589
  -0.31048   0.06303   0.64589
  -0.31048   0.06303   0.88531
  -0.31048  -0.17639   0.88531
  -0.54990  -0.17639   1.12473
  -0.78932  -0.17639   1.12473
  -0.78932  -0.41581   1.12473
  -0.78932  -0.41581   1.36415
  -0.78932  -0.41581   1.36415
  -1.02874  -0.41581   1.36415
  -1.02874  -0.41581   1.60356
  -1.02874  -0.65523   1.60356
  -1.26816  -0.41581   1.84298
  -1.02874  -0.41581   1.84298
  -1.02874  -0.41581   1.84298
  -1.02874  -0.17639   2.08240
  -0.78932  -0.17639   2.08240
  -1.02874  -0.17639   2.08240
  -0.78932   0.06303   2.08240
  -0.78932   0.06303   2.08240
  -0.78932   0.30245   2.08240
  -0.78932   0.30245   1.84298
  -0.78932   0.54187   1.84298
  -0.54990   0.54187   1.84298
  -0.54990   0.54187   1.60356
  -0.54990   0.54187   1.60356
  -0.54990   0.78129   1.36415
  -0.78932   0.78129   1.36415
  -0.54990   0.78129   1.36415
  -0.78932   0.78129   1.12473
  -0.78932   1.02071   1.12473
  -0.78932   0.78129   0.88531
  -0.78932   0.78129   1.12473
  -0.78932   0.78129   0.88531
  -0.78932   0.78129   0.88531
  -0.78932   0.78129   0.88531
  -0.78932   0.54187   0.88531
  -0.78932   0.54187   0.64589
  -0.78932   0.54187   0.64589
  -0.78932   0.30245   0.64589
  -0.78932   0.30245   0.64589
  -0.78932   0.06303   0.64589
  -0.78932   0.06303   0.64589
  -0.78932   0.06303   0.40647
  -0.78932  -0.17639   0.40647
  -0.78932  -0.17639   0.40647
  -0.78932  -0.17639   0.16705
  -0.78932  -0.17639  -0.07237
  -0.54990  -0.41581  -0.31179
  -0.54990  -0.41581  -0.31179
  -0.54990  -0.41581  -0.55121
  -0.54990  -0.65523  -0.55121
  -0.54990  -0.41581  -1.03004
  -0.31048  -0.65523  -1.03004
  -0.31048  -0.65523  -1.26946
  -0.07106  -0.65523  -1.26946
  -0.07106  -0.65523  -1.50888
   0.40778  -0.65523  -1.74830
   0.40778  -0.65523  -1.74830
   0.40778  -0.65523  -1.74830
   0.40778  -0.65523  -1.74830
   0.64719  -0.41581  -1.98772
   0.64719  -0.41581  -1.98772
   0.88661  -0.17639  -1.98772
   1.12603  -0.41581  -1.98772
   0.88661  -0.17639  -1.98772
   1.12603  -0.17639  -1.98772
   1.12603  -0.17639  -1.98772
   1.12603   0.06303  -1.98772
   1.36545   0.06303  -1.98772
   1.36545   0.30245  -1.98772
   1.60487   0.30245  -1.98772
   1.36545   0.30245  -1.98772
   1.60487   0.30245  -1.98772
   1.60487   0.30245  -1.74830
   1.60487   0.30245  -1.74830
   1.60487   0.30245  -1.74830
   1.60487   0.30245  -1.74830
   1.60487   0.30245  -1.74830
   1.60487   0.30245  -1.50888
   1.60487   0.30245  -1.50888
   1.60487   0.30245  -1.74830
   1.60487   0.30245  -1.50888
   1.60487   0.30245  -1.50888
   1.36545   0.06303  -1.74830
   1.36545   0.06303  -1.50888
   1.36545   0.06303  -1.50888
   1.36545   0.06303  -1.50888
   1.12603   0.06303  -1.50888
   1.12603   0.06303  -1.50888
   1.12603   0.06303  -1.50888
   1.12603   0.06303  -1.26946
   1.12603  -0.17639  -1.50888
   0.88661   0.06303  -1.26946
   0.88661   0.06303  -1.26946
   0.88661  -0.17639  -1.03004
   0.88661   0.06303  -0.79062
   0.88661   0.06303  -0.79062
   0.88661   0.06303  -0.79062
   0.88661   0.30245  -0.55121
   0.88661   0.30245  -0.31179
   0.88661   0.30245  -0.07237
   0.88661   0.30245  -0.07237
   0.64719   0.30245   0.16705
   0.64719   0.30245   0.40647
   0.64719   0.30245   0.64589
   0.40778   0.54187   0.88531
   0.40778   0.30245   0.88531
   0.16836   0.30245   1.12473
   0.16836   0.30245   1.36415
  -0.07106   0.30245   1.60356
  -0.07106   0.30245   1.60356
  -0.31048   0.30245   1.84298
  -0.54990   0.30245   1.84298
  -0.54990   0.30245   2.08240
  -0.54990   0.06303   2.08240
  -0.78932   0.06303   2.32182
  -0.78932   0.06303   2.32182
  -1.02874  -0.17639   2.32182
  -1.02874  -0.17639   2.56124
  -1.26816  -0.17639   2.32182
  -1.26816  -0.17639   2.56124
  -1.50758  -0.17639   2.56124
  -1.50758  -0.41581   2.56124
  -1.98641  -0.41581   2.56124
  -1.98641  -0.17639   2.56124
  -1.98641  -0.41581   2.80066
  -1.98641  -0.17639   2.80066
  -1.98641  -0.17639   2.80066
  -2.22583  -0.17639   2.80066
  -1.98641  -0.17639   2.80066
  -1.98641  -0.41581   2.56124
  -1.98641  -0.17639   2.56124
  -1.74700  -0.17639   2.56124
  -1.74700  -0.17639   2.56124
  -1.74700  -0.17639   2.32182
  -1.50758  -0.17639   2.32182
  -1.50758  -0.17639   2.32182
  -1.26816  -0.17639   1.84298
  -1.26816   0.06303   1.84298
  -1.26816   0.06303   1.60356
  -1.02874  -0.17639   1.60356
  -1.02874   0.06303   1.36415
  -0.78932   0.06303   1.12473
  -1.02874   0.30245   1.12473
  -0.78932   0.30245   0.88531
  -0.54990   0.30245   0.40647
  -0.78932   0.54187   0.40647
  -0.54990   0.54187   0.16705
  -0.54990   0.30245  -0.07237
  -0.54990   0.54187  -0.31179
  -0.31048   0.30245  -0.55121
  -0.31048   0.30245  -0.55121
  -0.31048   0.30245  -0.55121
  -0.31048   0.06303  -0.55121
  -0.31048   0.06303  -0.79062
  -0.07106  -0.17639  -1.03004
  -0.07106  -0.17639  -1.03004
  -0.07106  -0.17639  -1.26946
  -0.07106  -0.41581  -1.26946
   0.16836  -0.41581  -1.26946
   0.16836  -0.41581  -1.50888
   0.16836  -0.41581  -1.50888
   0.40778  -0.65523  -1.74830
   0.40778  -0.65523  -1.50888
   0.40778  -0.41581  -1.74830
   0.40778  -0.65523  -1.74830
   0.64719  -0.41581  -1.74830
   0.64719  -0.41581  -1.74830
   0.64719  -0.41581  -1.74830
   0.88661  -0.41581  -1.98772
   0.88661  -0.41581  -1.74830
   0.88661  -0.17639  -1.74830
   0.88661  -0.17639  -1.74830
   1.12603  -0.17639  -1.98772
   0.88661  -0.17639  -1.74830
   1.12603  -0.17639  -1.74830
   1.12603  -0.17639  -1.74830
   1.12603   0.06303  -1.74830
   1.12603   0.06303  -1.74830
   0.88661   0.06303  -1.74830
   0.88661   0.06303  -1.74830
   0.88661   0.06303  -1.74830
   0.88661   0.30245  -1.74830
   0.88661   0.06303  -1.74830
   0.88661   0.06303  -1.50888
   0.88661   0.06303  -1.50888
   0.88661   0.06303  -1.50888
   0.88661   0.30245  -1.26946
   1.12603   0.30245  -1.50888
   0.88661   0.30245  -1.26946
   0.88661   0.30245  -1.26946
   0.88661   0.30245  -1.03004
   0.88661   0.30245  -1.03004
   0.88661   0.30245  -0.79062
   1.12603   0.30245  -0.55121
   1.12603   0.30245  -0.55121
   0.88661   0.30245  -0.31179
   0.88661   0.30245  -0.31179
   1.12603   0.06303  -0.07237
   0.88661   0.06303  -0.07237
   0.64719   0.06303   0.16705
   0.88661  -0.17639   0.40647
   0.64719  -0.17639   0.40647
   0.64719  -0.17639   0.40647
   0.64719  -0.17639   0.64589
   0.64719  -0.41581   0.64589
   0.64719  -0.41581   0.88531
   0.64719  -0.41581   1.12473
   0.64719  -0.65523   1.12473
   0.40778  -0.65523   1.12473
   0.64719  -0.65523   1.12473
   0.40778  -0.41581   1.12473
   0.40778  -0.65523   1.12473
   0.40778  -0.65523   1.36415
   0.40778  -0.65523   1.36415
   0.40778  -0.41581   1.36415
   0.40778  -0.41581   1.36415
   0.64719  -0.41581   1.36415
   0.40778  -0.65523   1.36415
   0.64719  -0.41581   1.12473
   0.64719  -0.17639   1.36415
   0.64719  -0.17639   1.12473
   0.64719  -0.17639   1.12473
   0.64719   0.06303   1.36415
   0.64719   0.06303   1.12473
   0.64719   0.30245   1.12473
   0.64719   0.30245   1.12473
   0.64719   0.30245   0.88531
   0.40778   0.54187   0.88531
   0.40778   0.30245   0.88531
   0.16836   0.30245   0.88531
   0.16836   0.54187   0.88531
   0.16836   0.30245   0.64589
  -0.07106   0.54187   0.64589
  -0.31048   0.54187   0.64589
  -0.31048   0.30245   0.64589
  -0.54990   0.30245   0.40647
  -0.54990   0.30245   0.40647
  -0.78932   0.30245   0.40647
  -0.78932   0.30245   0.40647
  -0.78932   0.06303   0.40647
  -1.02874   0.06303   0.16705
  -1.02874  -0.17639   0.16705
  -1.02874   0.06303   0.16705
  -1.26816  -0.17639   0.16705
  -1.02874  -0.17639  -0.07237
  -1.26816  -0.17639   0.16705
  -1.02874  -0.17639  -0.07237
  -1.26816  -0.17639  -0.07237
  -1.02874  -0.17639  -0.31179
  -1.02874  -0.41581  -0.07237
  -1.02874  -0.17639  -0.31179
  -1.02874  -0.41581  -0.31179
  -1.02874  -0.17639  -0.31179
  -1.02874  -0.41581  -0.31179
  -1.02874  -0.41581  -0.31179
  -1.02874  -0.41581  -0.31179
  -0.78932  -0.41581  -0.31179
  -0.78932  -0.17639  -0.07237
  -1.02874  -0.17639  -0.07237
  -0.78932  -0.41581  -0.07237
  -1.02874  -0.17639  -0.07237
  -0.78932  -0.17639  -0.07237
  -1.02874  -0.17639   0.16705
  -0.78932  -0.17639   0.16705
  -0.78932   0.06303   0.16705
  -0.78932   0.06303   0.16705
  -0.54990   0.06303  -0.07237
  -0.78932   0.06303  -0.07237
  -0.54990   0.06303  -0.07237
  -0.54990   0.06303  -0.07237
  -0.54990   0.06303  -0.31179
  -0.31048   0.06303  -0.31179
  -0.31048   0.30245  -0.31179
  -0.31048   0.06303  -0.55121
  -0.31048   0.06303  -0.55121
