********************************************************************************
               CENTRO DE INSTRUMENTACION Y REGISTRO SISMICO  A.C.  
                       Coordinacion de Servicios Tecnicos
     Anaxagoras 814, Col. Narvarte, Benito Juarez, C.P. 03020 Mexico, D.F.
            Tels. 687 45 42/ 687 45  82             Fax. 669 25 12
********************************************************************************
ARCHIVO ESTANDAR DE ACELERACION:
VERSION DEL FORMATO                    : 2.0
NOMBRE DEL ARCHIVO                     : AO249912.291
FECHA Y HORA DE CREACION               : 10/FEBRERO/2000 10:55
REF. CATALOGO ACELEROGRAMAS, SMIS 1996 : REGISTRO No.     /PAG.


================================================================================
DATOS DE LA ESTACION:
NOMBRE DE LA ESTACION                  : ALBERCA OLIMPICA
CLAVE DE LA ESTACION                   : AO24
LOCALIZACION DE LA ESTACION            : Alberca Olimpica Rio Churubusco y
                                       : Division del Norte, Col Pedro Ma
                                       : Anaya, Benito Juarez
                                       :
                                       :
COORDENADAS DE LA ESTACION             : 19.358 LAT. N 
                                       : 99.154 LONG. W 
ALTITUD (msnm)                         : 2235
TIPO DE SUELO                          : TRANSICION
                                       : 
                                       : 
INSTITUCION RESPONSABLE                : CIRES
                                       :

================================================================================
DATOS DEL ACELEROGRAFO:
MODELO DEL ACELEROGRAFO                : RAD-851
NUMERO DE SERIE DEL ACELEROGRAFO       : 257
NUMERO DE CANALES                      : 3
ORIENTACION C1-C6 (rumbo;orientacion)  : /N00E/+V/N90W
ORIENTACION C7-C12 (rumbo;orientacion) :
VEL. DE MUESTREO, C1-C6 (muestras/s)   : /100/100/100
VEL. DE MUESTREO, C7-C12 (muestras/s)  :
ESC. COMPLETA DE SENSORES, C1-C6, (g)  : /0.5/0.5/0.5
ESC. COMPLETA DE SENSORES, C7-C12, (g) :
FREC. NAT. DE SENSORES, C1-C6, (Hz)    : /30/30/30
FREC. NAT. DE SENSORES, C7-C12, (Hz)   :
AMORTIGUAMIENTO DE SENSORES, C1-C6     : /0.700/0.700/0.700
AMORTIGUAMIENTO DE SENSORES, C7-C12    :
INTERVALO DE MUESTREO, C1-C6, (s)      : /0.01/0.01/0.01
INTERVALO DE MUESTREO, C7-C12, (s)     :
UMBRAL DE DISPARO, C1-C6, (Gal)        : /1.95/2.93/1.95
UMBRAL DE DISPARO, C7-C12, (Gal)       :
MEMORIA DE PREEVENTO (s)               : 8
TIEMPO DE POSEVENTO (s)                : 8


================================================================================
DATOS DEL SISMO:
FECHA DEL SISMO (GMT)                  : 29/DIC/99
HORA EPICENTRO (GMT)                   : 05:19:46.0
MAGNITUD(ES)                           : /Mb=6.1/Ms=5.4/Mc=5.1/Ma=5.6/Me=5.9
COORDENADAS DEL EPICENTRO              : 18.02 LAT. N
                                       : 101.68 LONG. W
PROFUNDIDAD FOCAL (km)                 : 82.0
FUENTE DE LOS DATOS EPICENTRALES       : SSN
                                       : INSTITUTO DE GEOFISICA, UNAM

================================================================================
DATOS DE ESTE REGISTRO:
HORA DE LA PRIMERA MUESTRA (GMT)       : 05:21:22.00
EXACTITUD DEL TIEMPO (s)               : 0.01
DURACION DEL REGISTRO (s), C1-C6       : /110.75/110.75/110.75
DURACION DEL REGISTRO (s), C7-C12      :
NUM. TOTAL DE MUESTRAS, C1-C6          : /11075/11075/11075
NUM. TOTAL DE MUESTRAS, C7-C12         :
ACEL. MAX. (Gal), C1-C6                : /3.10886/0.90471/2.36680
ACEL. MAX., C1-C6, EN LA MUESTRA       :
ACEL. MAX. (Gal), C7-C12               :
ACEL. MAX., C7-C12, EN LA MUESTRA      :
UNIDADES DE LOS DATOS                  : Gal (cm/s/s)
FACTOR DE DECIMACION                   : 1
FORMATO DATOS (FORTRAN,10 campos/dato) : 3F10.5


================================================================================
CALIDAD DEL ACELEROGRAMA:
REGISTRO DIGITAL COMPLETO CON TIEMPO ABSOLUTO CORRECTO.


================================================================================
COMENTARIOS:














================================================================================
DATOS DE ACELERACION:
---------+---------+---------+---------+---------+---------+---------+---------+
   CANAL-1   CANAL-2   CANAL-3   CANAL-4   CANAL-5   CANAL-6   CANAL-7   CANAL-8
      N00E        +V      N90W
---------+---------+---------+---------+---------+---------+---------+---------+
[...]
  -0.72185   0.42587   0.50623
  -0.48243   0.42587   0.50623
  -0.48243   0.42587   0.50623
  -0.48243   0.42587   0.50623
  -0.48243   0.42587   0.50623
  -0.48243   0.42587   0.50623
  -0.48243   0.18645   0.50623
  -0.48243   0.18645   0.74565
  -0.24301   0.18645   0.50623
  -0.24301   0.18645   0.74565
  -0.24301  -0.05296   0.50623
  -0.48243  -0.05296   0.50623
  -0.24301  -0.05296   0.50623
  -0.24301  -0.05296   0.50623
  -0.24301  -0.05296   0.50623
  -0.24301  -0.05296   0.50623
  -0.48243  -0.05296   0.26681
  -0.48243  -0.05296   0.26681
  -0.24301  -0.05296   0.26681
  -0.48243   0.18645   0.26681
  -0.48243  -0.05296   0.02739
  -0.48243   0.18645   0.02739
  -0.48243  -0.05296   0.02739
  -0.48243  -0.05296   0.02739
  -0.48243  -0.05296   0.02739
  -0.24301  -0.05296  -0.21203
  -0.24301  -0.05296  -0.21203
  -0.24301  -0.29238  -0.21203
  -0.24301  -0.29238  -0.21203
  -0.24301  -0.29238  -0.45145
  -0.24301  -0.29238  -0.45145
  -0.24301  -0.29238  -0.69087
  -0.48243  -0.05296  -0.69087
  -0.48243  -0.05296  -0.69087
  -0.48243  -0.05296  -0.93029
  -0.48243  -0.05296  -0.93029
  -0.48243   0.18645  -0.93029
  -0.48243   0.18645  -1.16970
  -0.48243   0.18645  -1.16970
  -0.24301   0.18645  -1.16970
  -0.24301   0.18645  -1.16970
  -0.00359   0.18645  -1.40912
  -0.00359   0.18645  -1.40912
  -0.00359   0.18645  -1.40912
  -0.00359  -0.05296  -1.16970
   0.23583  -0.05296  -1.16970
   0.23583  -0.05296  -1.16970
   0.47525  -0.05296  -0.93029
   0.47525  -0.05296  -1.16970
   0.47525  -0.05296  -1.16970
   0.71467  -0.05296  -1.16970
   0.71467  -0.05296  -0.93029
   0.95409   0.18645  -1.16970
   0.71467   0.18645  -0.93029
   0.95409   0.18645  -1.16970
   0.95409   0.18645  -1.16970
   0.95409   0.18645  -1.16970
   0.95409   0.42587  -0.93029
   0.95409   0.18645  -1.16970
   1.19351   0.18645  -1.16970
   1.19351   0.18645  -1.16970
   1.19351   0.18645  -1.16970
   1.19351  -0.05296  -1.16970
   1.19351  -0.05296  -1.40912
   1.19351  -0.05296  -1.64854
   1.19351  -0.05296  -1.40912
   1.19351  -0.29238  -1.40912
   0.95409  -0.05296  -1.64854
   1.19351  -0.05296  -1.64854
   1.19351  -0.29238  -1.64854
   1.19351  -0.29238  -1.64854
   1.19351  -0.29238  -1.64854
   1.19351  -0.29238  -1.40912
   1.43293  -0.29238  -1.40912
   1.43293  -0.29238  -1.16970
   1.19351  -0.29238  -0.93029
   1.19351  -0.29238  -0.69087
   1.19351  -0.29238  -0.45145
   1.19351  -0.29238  -0.45145
   1.19351  -0.53180  -0.21203
   1.19351  -0.53180  -0.21203
   1.19351  -0.53180   0.02739
   0.95409  -0.53180   0.02739
   0.95409  -0.29238   0.02739
   0.95409  -0.29238   0.26681
   0.95409  -0.29238   0.26681
   0.95409  -0.29238   0.26681
   0.71467  -0.05296   0.26681
   0.71467  -0.05296   0.26681
   0.71467  -0.05296   0.50623
   0.47525  -0.05296   0.50623
   0.23583  -0.05296   0.50623
  -0.00359   0.18645   0.74565
  -0.00359   0.18645   0.74565
  -0.24301   0.18645   0.74565
  -0.24301   0.18645   0.98507
  -0.48243   0.18645   0.98507
  -0.72185   0.18645   0.98507
  -0.72185   0.18645   0.98507
  -0.72185  -0.05296   1.22448
  -0.72185  -0.05296   1.22448
  -0.72185  -0.05296   1.22448
  -0.72185  -0.05296   1.22448
  -0.72185  -0.05296   1.46390
  -0.48243  -0.05296   1.22448
  -0.48243  -0.29238   1.22448
  -0.48243  -0.29238   1.22448
  -0.48243  -0.05296   1.22448
  -0.24301  -0.29238   1.22448
  -0.24301  -0.05296   1.22448
  -0.00359  -0.05296   1.22448
  -0.24301  -0.05296   1.22448
  -0.00359  -0.05296   0.98507
  -0.24301  -0.05296   1.22448
  -0.24301  -0.05296   0.98507
  -0.24301  -0.05296   0.98507
  -0.48243  -0.05296   0.98507
  -0.48243   0.18645   0.98507
  -0.48243  -0.05296   0.98507
  -0.72185  -0.05296   1.22448
  -0.72185  -0.05296   1.22448
  -0.72185   0.18645   0.98507
  -0.72185   0.18645   0.98507
  -0.72185   0.18645   0.74565
  -0.96126   0.18645   0.50623
  -0.72185   0.18645   0.50623
  -0.96126   0.18645   0.50623
  -0.96126   0.18645   0.50623
  -0.72185   0.18645   0.26681
  -0.72185  -0.05296   0.02739
  -0.72185  -0.05296   0.02739
  -0.72185  -0.05296   0.02739
  -0.72185  -0.29238   0.02739
  -0.72185  -0.29238  -0.21203
  -0.72185  -0.29238  -0.21203
  -0.72185  -0.29238   0.02739
  -0.72185  -0.29238  -0.21203
  -0.48243  -0.29238   0.02739
  -0.48243  -0.29238  -0.21203
  -0.72185  -0.29238  -0.21203
  -0.72185  -0.53180  -0.21203
  -0.72185  -0.29238  -0.45145
  -0.72185  -0.29238  -0.45145
  -0.72185  -0.29238  -0.69087
  -0.72185  -0.29238  -0.69087
  -0.72185  -0.05296  -0.69087
  -0.72185  -0.05296  -0.93029
  -0.72185  -0.05296  -0.93029
  -0.96126   0.18645  -1.16970
  -0.96126  -0.05296  -0.93029
  -0.96126  -0.05296  -1.16970
  -1.20068   0.18645  -1.16970
  -1.20068   0.18645  -1.16970
  -1.20068  -0.05296  -0.93029
  -1.20068   0.18645  -1.16970
  -0.96126   0.18645  -0.93029
  -0.96126   0.18645  -0.93029
  -0.72185   0.18645  -0.93029
  -0.72185   0.18645  -0.93029
  -0.72185   0.18645  -0.93029
  -0.72185   0.18645  -0.93029
  -0.48243   0.42587  -0.93029
  -0.48243   0.18645  -0.93029
  -0.48243   0.42587  -0.69087
  -0.24301   0.42587  -0.93029
  -0.24301   0.42587  -0.69087
  -0.24301   0.42587  -0.93029
  -0.24301   0.42587  -0.69087
  -0.24301   0.42587  -0.69087
  -0.24301   0.42587  -0.69087
  -0.24301   0.42587  -0.69087
  -0.24301   0.18645  -0.69087
  -0.24301   0.18645  -0.69087
  -0.24301  -0.05296  -0.69087
  -0.24301  -0.05296  -0.69087
  -0.24301  -0.05296  -0.69087
  -0.00359  -0.05296  -0.45145
  -0.00359  -0.05296  -0.45145
  -0.24301  -0.29238  -0.45145
  -0.00359  -0.29238  -0.45145
  -0.00359  -0.29238  -0.21203
  -0.00359  -0.29238   0.02739
  -0.00359  -0.29238   0.02739
  -0.00359  -0.29238   0.26681
   0.23583  -0.29238   0.26681
  -0.00359  -0.05296   0.50623
   0.23583  -0.29238   0.50623
   0.23583  -0.29238   0.74565
   0.23583  -0.05296   0.74565
   0.23583  -0.05296   0.98507
   0.23583  -0.05296   0.98507
   0.23583  -0.05296   0.98507
   0.47525   0.18645   0.98507
   0.47525   0.18645   0.98507
   0.71467   0.18645   1.22448
   0.71467   0.42587   1.22448
   0.71467   0.66529   1.22448
   0.71467   0.42587   0.98507
   0.71467   0.42587   1.22448
   0.71467   0.42587   1.22448
   0.71467   0.42587   0.98507
   0.71467   0.42587   0.98507
   0.71467   0.42587   0.74565
   0.71467   0.42587   0.74565
   0.47525   0.42587   0.74565
   0.47525   0.42587   0.74565
   0.47525   0.18645   0.74565
   0.47525   0.18645   0.74565
   0.47525   0.18645   0.74565
   0.47525   0.18645   0.98507
   0.47525   0.18645   0.98507
   0.47525   0.18645   1.22448
   0.47525   0.18645   1.22448
   0.47525   0.18645   1.46390
   0.47525  -0.05296   1.46390
   0.47525  -0.05296   1.70332
   0.47525  -0.29238   1.70332
   0.71467  -0.29238   1.70332
   0.71467  -0.29238   1.46390
   0.71467  -0.29238   1.70332
   0.71467  -0.29238   1.46390
   0.71467  -0.29238   1.46390
   0.95409  -0.29238   1.22448
   0.71467  -0.29238   1.22448
   0.71467  -0.29238   0.98507
   0.71467  -0.29238   0.98507
   0.71467  -0.29238   0.98507
   0.71467  -0.29238   0.98507
   0.95409  -0.29238   0.98507
   0.95409  -0.29238   0.98507
   0.95409  -0.29238   0.98507
   1.19351  -0.29238   1.22448
   1.19351  -0.53180   1.22448
   1.43293  -0.53180   1.22448
   1.43293  -0.53180   0.98507
   1.43293  -0.29238   0.98507
   1.43293  -0.29238   0.98507
   1.43293  -0.29238   0.74565
   1.43293  -0.29238   0.74565
   1.67234  -0.05296   0.50623
   1.67234  -0.05296   0.26681
   1.67234   0.18645   0.02739
   1.43293   0.18645  -0.21203
   1.43293   0.18645  -0.21203
   1.43293   0.18645  -0.45145
   1.19351   0.42587  -0.69087
   1.19351   0.42587  -0.69087
   0.95409   0.42587  -0.69087
   0.95409   0.42587  -0.69087
   0.71467   0.66529  -0.93029
   0.71467   0.42587  -0.93029
   0.71467   0.42587  -0.69087
   0.47525   0.42587  -0.69087
   0.71467   0.42587  -0.69087
   0.71467   0.42587  -0.69087
   0.71467   0.42587  -0.45145
   0.47525   0.42587  -0.45145
   0.71467   0.42587  -0.45145
   0.71467   0.42587  -0.45145
   0.71467   0.42587  -0.45145
   0.71467   0.66529  -0.45145
   0.47525   0.42587  -0.45145
   0.47525   0.42587  -0.45145
   0.47525   0.42587  -0.45145
   0.23583   0.42587  -0.45145
   0.23583   0.42587  -0.69087
   0.23583   0.42587  -0.69087
  -0.00359   0.42587  -0.69087
  -0.00359   0.42587  -0.69087
  -0.00359   0.42587  -0.69087
  -0.24301   0.42587  -0.69087
  -0.24301   0.42587  -0.69087
  -0.24301   0.42587  -0.69087
  -0.48243   0.42587  -0.69087
  -0.48243   0.18645  -0.69087
  -0.48243   0.18645  -0.69087
  -0.72185   0.18645  -0.69087
  -0.72185   0.18645  -0.45145
  -0.96126  -0.05296  -0.21203
  -0.96126  -0.05296  -0.21203
  -1.20068  -0.05296  -0.21203
  -1.20068  -0.05296   0.02739
  -1.44010  -0.05296   0.02739
  -1.44010  -0.05296   0.02739
  -1.67952  -0.05296   0.26681
  -1.67952  -0.05296   0.02739
  -1.91894  -0.05296   0.26681
  -1.91894  -0.05296   0.26681
  -1.91894  -0.05296   0.26681
  -2.15836  -0.29238   0.26681
  -2.15836  -0.29238   0.26681
  -2.15836  -0.05296   0.26681
  -2.15836  -0.29238   0.26681
  -1.91894  -0.29238   0.26681
  -2.15836  -0.29238   0.26681
  -2.15836  -0.29238   0.26681
  -2.15836  -0.29238   0.02739
  -2.15836  -0.29238   0.02739
  -2.39778  -0.05296   0.02739
  -2.63720  -0.05296  -0.21203
  -2.39778  -0.05296  -0.21203
  -2.39778  -0.05296  -0.21203
  -2.63720  -0.05296  -0.21203
  -2.63720  -0.05296  -0.45145
  -2.63720  -0.05296  -0.21203
  -2.63720  -0.05296  -0.45145
  -2.87662  -0.05296  -0.21203
  -2.87662  -0.05296  -0.21203
  -2.87662  -0.05296  -0.21203
  -2.63720  -0.29238  -0.21203
  -2.63720  -0.05296   0.02739
  -2.63720  -0.05296   0.02739
  -2.39778  -0.05296   0.02739
  -2.39778  -0.05296   0.26681
  -2.15836  -0.29238   0.26681
  -2.15836  -0.05296   0.02739
  -1.91894  -0.29238   0.26681
  -1.67952  -0.29238   0.26681
  -1.67952  -0.29238   0.26681
  -1.67952  -0.29238   0.26681
  -1.67952  -0.53180   0.26681
  -1.44010  -0.53180   0.26681
  -1.20068  -0.53180   0.26681
  -1.20068  -0.53180   0.26681
  -0.96126  -0.77122   0.26681
  -0.96126  -0.77122   0.26681
  -0.72185  -0.77122   0.02739
  -0.72185  -0.77122   0.02739
  -0.24301  -0.77122   0.02739
  -0.24301  -0.77122  -0.21203
  -0.00359  -0.77122  -0.21203
   0.47525  -0.53180  -0.21203
   0.47525  -0.53180  -0.45145
   0.71467  -0.53180  -0.45145
   0.95409  -0.29238  -0.45145
   1.19351  -0.29238  -0.45145
   1.43293  -0.29238  -0.69087
   1.67234  -0.05296  -0.69087
   1.67234  -0.05296  -0.69087
   1.91176   0.18645  -0.69087
   1.91176   0.18645  -0.69087
   2.15118   0.18645  -0.69087
   2.15118   0.18645  -0.69087
   2.39060   0.18645  -0.93029
   2.63002   0.18645  -0.69087
   2.63002   0.18645  -0.69087
   2.63002   0.18645  -0.69087
   2.86944   0.18645  -0.69087
   2.86944   0.42587  -0.45145
   3.10886   0.42587  -0.45145
   3.10886   0.42587  -0.45145
   3.10886   0.42587  -0.45145
   3.10886   0.42587  -0.45145
   3.10886   0.66529  -0.45145
   3.10886   0.66529  -0.69087
   3.10886   0.66529  -0.69087
   3.10886   0.66529  -0.69087
   3.10886   0.66529  -0.69087
   3.10886   0.66529  -0.69087
   3.10886   0.90471  -0.69087
   3.10886   0.90471  -0.93029
   2.86944   0.66529  -0.69087
   2.86944   0.66529  -0.69087
   2.63002   0.66529  -0.69087
   2.63002   0.90471  -0.69087
   2.39060   0.66529  -0.69087
   2.39060   0.66529  -0.69087
   2.39060   0.66529  -0.69087
   2.15118   0.66529  -0.69087
   1.91176   0.66529  -0.69087
   2.15118   0.42587  -0.45145
   1.91176   0.42587  -0.45145
   1.91176   0.42587  -0.45145
   1.67234   0.42587  -0.45145
   1.67234   0.42587  -0.45145
   1.43293   0.18645  -0.45145
   1.19351   0.18645  -0.69087
   0.95409   0.18645  -0.45145
   0.71467   0.18645  -0.69087
   0.71467  -0.05296  -0.69087
   0.47525  -0.05296  -0.69087
   0.23583  -0.05296  -0.69087
  -0.00359  -0.29238  -0.69087
  -0.24301  -0.29238  -0.69087
  -0.24301  -0.53180  -0.69087
  -0.48243  -0.53180  -0.69087
  -0.72185  -0.53180  -0.45145
  -0.72185  -0.77122  -0.69087
  -0.96126  -0.53180  -0.69087
  -0.96126  -0.53180  -0.45145
  -0.96126  -0.53180  -0.45145
  -0.96126  -0.53180  -0.45145
  -0.96126  -0.53180  -0.45145
  -0.96126  -0.53180  -0.21203
  -0.96126  -0.53180  -0.21203
  -0.72185  -0.53180  -0.21203
  -0.72185  -0.53180   0.02739
  -0.96126  -0.53180   0.02739
  -0.72185  -0.53180   0.02739
  -0.72185  -0.53180   0.02739
  -0.72185  -0.29238   0.02739
  -0.48243  -0.29238   0.26681
  -0.72185  -0.53180   0.26681
  -0.72185  -0.29238   0.26681
  -0.72185  -0.29238   0.26681
  -0.72185  -0.29238   0.26681
  -0.72185  -0.53180   0.26681
  -0.72185  -0.29238   0.26681
  -0.72185  -0.29238   0.26681
  -0.72185  -0.29238   0.26681
  -0.96126  -0.29238   0.26681
  -0.96126  -0.05296   0.26681
  -1.20068  -0.05296   0.26681
  -1.20068  -0.05296   0.26681
  -1.20068   0.18645   0.26681
  -1.20068   0.18645   0.50623
  -1.20068   0.18645   0.26681
  -1.20068   0.18645   0.50623
  -1.20068   0.18645   0.50623
  -1.20068   0.18645   0.50623
  -1.20068   0.18645   0.50623
  -1.20068   0.42587   0.50623
  -0.96126   0.18645   0.26681
  -0.96126   0.18645   0.26681
  -0.48243   0.18645   0.26681
  -0.48243   0.18645   0.26681
  -0.24301   0.18645   0.26681
  -0.00359   0.18645   0.26681
  -0.00359   0.42587   0.26681
  -0.00359   0.42587   0.26681
  -0.00359   0.18645   0.26681
   0.23583   0.42587   0.50623
   0.23583   0.18645   0.50623
   0.23583   0.42587   0.50623
   0.47525   0.42587   0.50623
   0.47525   0.42587   0.74565
   0.47525   0.42587   0.74565
   0.71467   0.42587   0.74565
   0.71467   0.42587   0.74565
   0.71467   0.42587   0.74565
   0.71467   0.42587   0.74565
   0.71467   0.42587   0.74565
   0.95409   0.42587   0.74565
   0.95409   0.42587   0.74565
   0.95409   0.42587   0.98507
   1.19351   0.42587   0.98507
   1.19351   0.42587   0.98507
   1.43293   0.42587   0.98507
   1.43293   0.42587   0.98507
   1.43293   0.18645   1.22448
   1.43293   0.18645   1.22448
   1.43293   0.18645   1.22448
   1.67234  -0.05296   1.22448
   1.67234  -0.05296   1.22448
   1.67234  -0.05296   1.22448
   1.91176  -0.29238   0.98507
   1.91176  -0.29238   0.74565
   1.67234  -0.29238   0.74565
   1.67234  -0.29238   0.74565
   1.67234  -0.29238   0.50623
   1.43293  -0.29238   0.50623
   1.43293  -0.29238   0.50623
   1.43293  -0.29238   0.26681
   1.19351  -0.29238   0.26681
   1.19351  -0.29238   0.26681
   1.19351  -0.29238   0.26681
   1.19351  -0.29238   0.02739
   1.19351  -0.29238   0.02739
   1.19351  -0.53180  -0.21203
   0.95409  -0.53180  -0.45145
   0.95409  -0.53180  -0.21203
   1.19351  -0.53180  -0.45145
   0.95409  -0.53180  -0.45145
   0.95409  -0.53180  -0.45145
   0.95409  -0.53180  -0.45145
   0.71467  -0.53180  -0.45145
   0.47525  -0.53180  -0.69087
   0.23583  -0.53180  -0.69087
   0.23583  -0.53180  -0.69087
  -0.00359  -0.29238  -0.69087
  -0.24301  -0.29238  -0.69087
  -0.24301  -0.29238  -0.69087
  -0.48243  -0.29238  -0.69087
  -0.72185  -0.05296  -0.69087
  -0.96126  -0.29238  -0.69087
  -0.96126  -0.05296  -0.69087
  -0.96126  -0.29238  -0.69087
  -1.20068  -0.05296  -0.69087
  -1.20068  -0.05296  -0.69087
  -1.20068  -0.05296  -0.69087
  -1.20068  -0.29238  -0.69087
  -1.20068  -0.29238  -0.69087
  -1.44010  -0.05296  -0.45145
  -1.44010  -0.29238  -0.45145
  -1.44010  -0.29238  -0.45145
  -1.44010  -0.05296  -0.21203
  -1.67952  -0.29238  -0.21203
  -1.67952  -0.29238   0.02739
  -1.67952  -0.29238   0.02739
