********************************************************************************
               CENTRO DE INSTRUMENTACION Y REGISTRO SISMICO  A.C.  
                       Coordinacion de Servicios Tecnicos
     Anaxagoras 814, Col. Narvarte, Benito Juarez, C.P. 03020 Mexico, D.F.
            Tels. 687 45 42/ 687 45  82             Fax. 669 25 12
********************************************************************************
ARCHIVO ESTANDAR DE ACELERACION:
VERSION DEL FORMATO                    : 2.0
NOMBRE DEL ARCHIVO                     : AO2419971216114829
FECHA Y HORA DE CREACION               : 26/MAR/18, 11:40
REF. CATALOGO ACELEROGRAMAS, SMIS 1996 : REGISTRO No.     /PAG.


================================================================================
DATOS DE LA ESTACION:
NOMBRE DE LA ESTACION                  : ALBERCA OLIMPICA
CLAVE DE LA ESTACION                   : AO24
LOCALIZACION DE LA ESTACION            : Alberca Olimpica Rio Churubusco y
                                       : Division del Norte, Col Pedro Ma
                                       : Anaya, Benito Juarez
                                       :
                                       :
COORDENADAS DE LA ESTACION             : 19.358 LAT. N 
                                       : 99.154 LONG. W 
ALTITUD (msnm)                         : 2235
TIPO DE SUELO                          : TRANSICION
                                       : 
                                       : 
INSTITUCION RESPONSABLE                : CIRES
                                       :

================================================================================
DATOS DEL ACELEROGRAFO:
MODELO DEL ACELEROGRAFO                : RAD-851
NUMERO DE SERIE DEL ACELEROGRAFO       : 257
NUMERO DE CANALES                      : 3
ORIENTACION C1-C6 (rumbo;orientacion)  : /N00E/+V/N90W
ORIENTACION C7-C12 (rumbo;orientacion) : 
VEL. DE MUESTREO, C1-C6 (muestras/s)   : /100/100/100
VEL. DE MUESTREO, C7-C12 (muestras/s)  : 
ESC. COMPLETA DE SENSORES, C1-C6, (g)  : /0.5/0.5/0.5
ESC. COMPLETA DE SENSORES, C7-C12, (g) : 
FREC. NAT. DE SENSORES, C1-C6, (Hz)    : /30/30/30
FREC. NAT. DE SENSORES, C7-C12, (Hz)   : 
AMORTIGUAMIENTO DE SENSORES, C1-C6     : /0.700/0.700/0.700
AMORTIGUAMIENTO DE SENSORES, C7-C12    : 
INTERVALO DE MUESTREO, C1-C6, (s)      : /0.01/0.01/0.01
INTERVALO DE MUESTREO, C7-C12, (s)     : 
UMBRAL DE DISPARO, C1-C6, (Gal)        : /1.95/2.93/1.95
UMBRAL DE DISPARO, C7-C12, (Gal)       :
MEMORIA DE PREEVENTO (s)               : 24
TIEMPO DE POSEVENTO (s)                : 64


================================================================================
DATOS DEL SISMO:
FECHA DEL SISMO (GMT)                  : 16/DIC/97
HORA EPICENTRO (GMT)                   : 11:48:29,0
MAGNITUD(ES)                           : /Mc=6.0
COORDENADAS DEL EPICENTRO              : 15.70 LAT. N
                                       : 99.04 LONG. W
PROFUNDIDAD FOCAL (km)                 : 16
FUENTE DE LOS DATOS EPICENTRALES       : SSN
                                       : INSTITUTO DE GEOFISICA, UNAM

================================================================================
DATOS DE ESTE REGISTRO:
HORA DE LA PRIMERA MUESTRA (GMT)       : 11:50:25.00
EXACTITUD DEL TIEMPO (s)               : 0.01
DURACION DEL REGISTRO (s), C1-C6       : /97.75/97.75/97.75
DURACION DEL REGISTRO (s), C7-C12      :
NUM. TOTAL DE MUESTRAS, C1-C6          : /9775/9775/9775
NUM. TOTAL DE MUESTRAS, C7-C12         :
ACEL. MAX. (Gal), C1-C6                : /1.70638/0.66587/2.70986
ACEL. MAX., C1-C6, EN LA MUESTRA       : /3288/1867/2448
ACEL. MAX. (Gal), C7-C12               :
ACEL. MAX., C7-C12, EN LA MUESTRA      :
UNIDADES DE LOS DATOS                  : Gal (cm/s/s)
FACTOR DE DECIMACION                   : 1
FORMATO DATOS (FORTRAN,10 campos/dato) : 3F10.5


================================================================================
CALIDAD DEL ACELEROGRAMA:
REGISTRO DIGITAL COMPLETO CON TIEMPO ABSOLUTO CORRECTO.


================================================================================
COMENTARIOS:














================================================================================
DATOS DE ACELERACION:
---------+---------+---------+---------+---------+---------+---------+---------+
   CANAL-1   CANAL-2   CANAL-3   CANAL-4   CANAL-5   CANAL-6   CANAL-7   CANAL-8
      N00E        +V      N90W
---------+---------+---------+---------+---------+---------+---------+---------+
[...]
  -0.98812   0.29181  -1.12085
  -0.98812   0.05239  -0.88143
  -0.98812   0.05239  -0.64201
  -0.98812   0.29181  -0.64201
  -0.98812   0.05239  -0.64201
  -0.74870   0.05239  -0.64201
  -0.74870  -0.18703  -0.40259
  -0.74870  -0.18703  -0.40259
  -0.74870  -0.18703  -0.40259
  -0.74870  -0.18703  -0.16317
  -0.74870  -0.18703  -0.16317
  -0.50928  -0.42645  -0.16317
  -0.74870  -0.42645  -0.16317
  -0.74870  -0.42645   0.07625
  -0.50928  -0.42645   0.31567
  -0.74870  -0.42645   0.31567
  -0.26986  -0.42645   0.31567
  -0.26986  -0.42645   0.31567
  -0.26986  -0.42645   0.55508
  -0.26986  -0.18703   0.55508
  -0.03044  -0.18703   0.79450
  -0.03044  -0.18703   0.79450
   0.20897  -0.18703   1.03392
   0.20897  -0.18703   1.03392
   0.20897   0.05239   1.03392
   0.20897   0.05239   1.27334
   0.44839   0.05239   1.27334
   0.44839   0.05239   1.27334
   0.44839   0.05239   1.51276
   0.44839   0.29181   1.51276
   0.44839   0.29181   1.51276
   0.68781   0.05239   1.51276
   0.68781   0.05239   1.51276
   0.68781   0.29181   1.75218
   0.68781   0.29181   1.51276
   0.92723   0.29181   1.75218
   0.92723   0.05239   1.75218
   0.92723   0.05239   1.75218
   0.92723   0.29181   1.75218
   0.92723   0.29181   1.75218
   1.16665   0.05239   1.75218
   1.16665   0.05239   1.75218
   1.16665   0.05239   1.75218
   1.40607   0.05239   1.75218
   1.40607   0.05239   1.75218
   1.40607   0.05239   1.75218
   1.40607   0.05239   1.75218
   1.40607   0.05239   1.51276
   1.40607   0.05239   1.51276
   1.64549   0.29181   1.51276
   1.64549   0.05239   1.51276
   1.64549   0.05239   1.51276
   1.64549   0.05239   1.51276
   1.40607   0.29181   1.27334
   1.64549   0.29181   1.27334
   1.64549   0.29181   1.03392
   1.40607   0.29181   1.03392
   1.40607   0.29181   1.03392
   1.40607   0.29181   1.03392
   1.40607   0.29181   0.79450
   1.40607   0.29181   0.79450
   1.40607   0.05239   0.79450
   1.40607   0.29181   0.55508
   1.16665   0.29181   0.55508
   1.16665   0.05239   0.55508
   1.16665   0.05239   0.31567
   1.16665   0.05239   0.31567
   0.92723   0.05239   0.07625
   0.92723   0.05239   0.07625
   0.92723   0.05239  -0.16317
   0.92723   0.05239  -0.16317
   0.92723  -0.18703  -0.16317
   0.92723   0.05239  -0.16317
   0.68781   0.05239  -0.40259
   0.92723   0.05239  -0.40259
   0.68781   0.05239  -0.64201
   0.44839  -0.18703  -0.64201
   0.44839   0.05239  -0.64201
   0.44839   0.29181  -0.88143
   0.44839   0.05239  -0.88143
   0.20897   0.05239  -0.88143
   0.20897   0.29181  -0.88143
  -0.03044   0.29181  -0.88143
  -0.03044   0.29181  -1.12085
  -0.03044   0.29181  -1.12085
  -0.03044   0.29181  -1.12085
  -0.26986   0.05239  -1.36027
  -0.50928   0.29181  -1.12085
  -0.50928   0.29181  -1.36027
  -0.50928   0.05239  -1.36027
  -0.50928   0.05239  -1.36027
  -0.74870   0.05239  -1.12085
  -0.74870   0.05239  -1.12085
  -0.98812   0.05239  -1.12085
  -0.74870   0.05239  -1.12085
  -0.98812   0.05239  -1.12085
  -0.98812  -0.18703  -0.88143
  -0.98812   0.05239  -0.88143
  -0.98812   0.05239  -0.88143
  -0.98812   0.05239  -0.64201
  -0.98812  -0.18703  -0.64201
  -1.22754  -0.18703  -0.40259
  -1.22754   0.05239  -0.64201
  -1.22754   0.05239  -0.64201
  -1.22754   0.05239  -0.64201
  -1.22754   0.05239  -0.40259
  -0.98812   0.05239  -0.40259
  -1.22754   0.05239  -0.40259
  -0.98812   0.05239  -0.40259
  -1.22754   0.05239  -0.40259
  -1.22754   0.05239  -0.64201
  -1.22754  -0.18703  -0.40259
  -1.22754   0.05239  -0.40259
  -1.22754   0.05239  -0.40259
  -1.22754   0.05239  -0.64201
  -0.98812   0.05239  -0.64201
  -0.98812   0.05239  -0.40259
  -0.98812  -0.18703  -0.40259
  -1.22754  -0.18703  -0.16317
  -0.98812   0.05239  -0.40259
  -1.22754  -0.18703  -0.16317
  -1.22754  -0.18703  -0.16317
  -1.22754  -0.18703  -0.16317
  -1.22754  -0.18703  -0.16317
  -1.22754  -0.18703  -0.16317
  -0.98812   0.05239  -0.16317
  -0.98812  -0.18703  -0.16317
  -0.98812  -0.18703   0.07625
  -0.98812  -0.18703   0.07625
  -0.98812   0.05239   0.07625
  -0.98812  -0.18703   0.07625
  -0.74870  -0.18703   0.07625
  -0.74870  -0.18703   0.07625
  -0.74870   0.05239   0.07625
  -0.74870   0.05239   0.07625
  -0.74870   0.05239   0.07625
  -0.50928   0.05239   0.07625
  -0.50928  -0.18703   0.07625
  -0.26986   0.05239   0.07625
  -0.26986   0.29181   0.31567
  -0.03044   0.05239   0.07625
   0.20897   0.05239   0.31567
   0.20897   0.05239   0.31567
   0.44839   0.05239   0.55508
   0.44839   0.29181   0.55508
   0.68781   0.05239   0.55508
   0.68781   0.05239   0.55508
   0.92723  -0.18703   0.55508
   0.92723   0.05239   0.55508
   0.92723   0.05239   0.55508
   1.16665  -0.18703   0.55508
   1.16665  -0.18703   0.55508
   1.16665  -0.18703   0.55508
   1.16665   0.05239   0.55508
   1.16665   0.05239   0.31567
   1.40607  -0.18703   0.31567
   1.40607  -0.18703   0.31567
   1.40607  -0.18703   0.55508
   1.16665  -0.18703   0.31567
   1.16665   0.05239   0.31567
   1.40607   0.29181   0.31567
   1.40607  -0.18703   0.31567
   1.16665   0.05239   0.07625
   1.16665   0.05239   0.31567
   1.40607   0.05239   0.31567
   1.16665   0.05239   0.31567
   1.40607   0.05239   0.31567
   1.16665   0.05239   0.31567
   1.16665   0.05239   0.31567
   1.16665   0.05239   0.31567
   1.16665  -0.18703   0.31567
   0.92723  -0.18703   0.31567
   0.92723   0.05239   0.31567
   0.92723  -0.18703   0.31567
   0.92723  -0.18703   0.55508
   0.68781  -0.18703   0.55508
   0.68781  -0.18703   0.55508
   0.68781  -0.18703   0.55508
   0.68781   0.05239   0.55508
   0.68781   0.05239   0.55508
   0.68781   0.05239   0.55508
   0.68781   0.05239   0.55508
   0.44839   0.29181   0.55508
   0.44839   0.29181   0.55508
   0.44839   0.29181   0.55508
   0.20897   0.29181   0.55508
   0.20897   0.29181   0.55508
  -0.03044   0.29181   0.55508
  -0.03044   0.29181   0.79450
  -0.03044   0.29181   0.55508
  -0.03044   0.29181   0.31567
  -0.26986   0.29181   0.55508
  -0.26986   0.29181   0.55508
  -0.50928   0.29181   0.31567
  -0.26986   0.29181   0.31567
  -0.50928   0.29181   0.31567
  -0.50928   0.29181   0.31567
  -0.74870   0.29181   0.31567
  -0.50928   0.05239   0.07625
  -0.50928   0.05239   0.07625
  -0.50928   0.05239   0.07625
  -0.74870   0.29181   0.07625
  -0.74870   0.29181   0.07625
  -0.74870   0.29181  -0.16317
  -0.74870   0.05239  -0.16317
  -0.74870   0.05239  -0.40259
  -0.74870   0.05239  -0.16317
  -0.50928   0.05239  -0.16317
  -0.50928  -0.18703  -0.40259
  -0.50928  -0.18703  -0.40259
  -0.74870  -0.18703  -0.40259
  -0.50928  -0.18703  -0.64201
  -0.74870  -0.18703  -0.40259
  -0.50928  -0.18703  -0.64201
  -0.50928  -0.18703  -0.40259
  -0.50928  -0.18703  -0.40259
  -0.50928  -0.42645  -0.40259
  -0.50928  -0.42645  -0.40259
  -0.50928  -0.42645  -0.40259
  -0.50928  -0.42645  -0.40259
  -0.50928  -0.42645  -0.40259
  -0.50928  -0.42645  -0.40259
  -0.50928  -0.42645  -0.40259
  -0.50928  -0.42645  -0.16317
  -0.26986  -0.42645  -0.16317
  -0.26986  -0.42645  -0.16317
  -0.26986  -0.42645  -0.16317
  -0.26986  -0.42645  -0.16317
  -0.26986  -0.42645  -0.16317
  -0.03044  -0.18703  -0.16317
  -0.03044  -0.18703  -0.16317
  -0.03044  -0.18703  -0.16317
  -0.03044  -0.18703  -0.16317
  -0.03044  -0.18703  -0.40259
  -0.03044  -0.18703  -0.40259
  -0.03044  -0.18703  -0.40259
  -0.03044  -0.18703  -0.40259
  -0.03044  -0.18703  -0.40259
  -0.03044   0.05239  -0.64201
   0.20897   0.05239  -0.64201
   0.20897   0.05239  -0.64201
   0.20897   0.05239  -0.64201
   0.20897   0.05239  -0.88143
   0.20897   0.29181  -0.88143
   0.44839   0.05239  -0.88143
   0.44839   0.05239  -0.64201
   0.44839   0.29181  -0.88143
   0.44839   0.29181  -0.64201
   0.68781   0.29181  -0.88143
   0.68781   0.29181  -0.88143
   0.68781   0.29181  -0.88143
   0.68781   0.29181  -0.88143
   0.68781   0.29181  -0.88143
   0.68781   0.29181  -0.88143
   0.92723   0.29181  -0.88143
   0.68781   0.29181  -0.88143
   0.44839   0.29181  -0.88143
   0.68781   0.29181  -0.88143
   0.68781   0.29181  -0.88143
   0.68781   0.29181  -0.88143
   0.44839   0.29181  -0.64201
   0.68781   0.29181  -0.64201
   0.68781   0.05239  -0.64201
   0.68781   0.05239  -0.64201
   0.68781   0.05239  -0.40259
   0.44839   0.05239  -0.40259
   0.44839   0.05239  -0.40259
   0.44839   0.29181  -0.40259
   0.68781   0.05239  -0.16317
   0.68781   0.05239  -0.16317
   0.68781   0.05239   0.07625
   0.44839   0.05239  -0.16317
   0.44839   0.05239  -0.16317
   0.68781   0.05239   0.07625
   0.68781   0.05239   0.07625
   0.68781   0.29181   0.07625
   0.44839   0.29181   0.31567
   0.44839   0.29181   0.31567
   0.44839   0.05239   0.31567
   0.44839   0.29181   0.55508
   0.20897   0.29181   0.55508
   0.20897   0.53123   0.55508
   0.44839   0.29181   0.79450
   0.20897   0.29181   0.79450
   0.20897   0.29181   0.79450
  -0.03044   0.29181   1.03392
  -0.03044   0.29181   1.03392
  -0.03044   0.29181   1.27334
  -0.03044   0.05239   1.27334
  -0.26986   0.05239   1.27334
  -0.03044   0.05239   1.27334
  -0.26986   0.05239   1.51276
  -0.03044  -0.18703   1.51276
  -0.03044  -0.18703   1.75218
  -0.26986  -0.18703   1.75218
  -0.26986  -0.18703   1.75218
  -0.26986  -0.18703   1.99160
  -0.26986  -0.18703   1.75218
  -0.26986  -0.18703   1.75218
  -0.50928  -0.42645   1.99160
  -0.50928  -0.18703   1.99160
  -0.26986  -0.18703   1.99160
  -0.26986  -0.42645   1.75218
  -0.26986  -0.18703   1.99160
  -0.50928  -0.18703   1.99160
  -0.50928  -0.18703   1.75218
  -0.50928  -0.18703   1.75218
  -0.50928  -0.18703   1.75218
  -0.50928  -0.18703   1.75218
  -0.50928  -0.18703   1.75218
  -0.50928  -0.18703   1.75218
  -0.50928  -0.18703   1.51276
  -0.50928  -0.18703   1.51276
  -0.50928  -0.18703   1.51276
  -0.50928  -0.18703   1.51276
  -0.50928   0.05239   1.27334
  -0.50928  -0.18703   1.27334
  -0.50928  -0.18703   1.51276
  -0.50928  -0.18703   1.27334
  -0.50928   0.05239   1.27334
  -0.50928  -0.18703   1.03392
  -0.26986   0.05239   1.03392
  -0.50928  -0.18703   0.79450
  -0.50928  -0.18703   0.79450
  -0.50928   0.05239   0.55508
  -0.26986   0.05239   0.55508
  -0.50928  -0.18703   0.31567
  -0.50928  -0.18703   0.31567
  -0.50928   0.05239   0.07625
  -0.74870  -0.18703   0.07625
  -0.50928  -0.18703  -0.16317
  -0.74870   0.05239  -0.40259
  -0.74870  -0.18703  -0.40259
  -0.74870   0.05239  -0.64201
  -0.98812   0.05239  -0.64201
  -0.74870   0.05239  -0.88143
  -0.74870   0.05239  -0.88143
  -0.98812   0.05239  -0.88143
  -0.98812   0.05239  -1.12085
  -0.98812   0.29181  -1.12085
  -0.74870   0.29181  -1.36027
  -0.74870   0.29181  -1.59969
  -0.98812   0.29181  -1.36027
  -0.98812   0.29181  -1.83910
  -0.74870   0.53123  -2.07852
  -0.74870   0.53123  -2.07852
  -0.74870   0.53123  -2.07852
  -0.74870   0.29181  -2.31794
  -0.50928   0.53123  -2.31794
  -0.74870   0.53123  -2.55736
  -0.50928   0.53123  -2.55736
  -0.50928   0.29181  -2.55736
  -0.50928   0.53123  -2.55736
  -0.50928   0.53123  -2.55736
  -0.50928   0.29181  -2.55736
  -0.50928   0.29181  -2.55736
  -0.50928   0.05239  -2.55736
  -0.26986   0.05239  -2.55736
  -0.26986   0.05239  -2.31794
  -0.26986   0.05239  -2.31794
  -0.03044   0.05239  -2.31794
  -0.03044  -0.18703  -2.07852
  -0.03044  -0.18703  -2.07852
  -0.03044   0.05239  -1.83910
  -0.03044  -0.18703  -1.83910
   0.20897  -0.18703  -1.83910
   0.44839  -0.18703  -1.83910
   0.20897   0.05239  -1.83910
   0.44839  -0.18703  -1.59969
   0.44839  -0.18703  -1.36027
   0.68781   0.05239  -1.36027
   0.68781  -0.18703  -1.12085
   0.68781  -0.18703  -1.12085
   0.92723   0.05239  -0.88143
   0.92723   0.05239  -0.88143
   0.92723  -0.18703  -0.64201
   1.16665  -0.18703  -0.64201
   0.92723  -0.18703  -0.40259
   0.92723  -0.18703  -0.16317
   1.16665  -0.18703  -0.16317
   1.16665  -0.18703  -0.16317
   0.92723  -0.18703   0.07625
   0.92723  -0.18703   0.31567
   0.92723  -0.18703   0.31567
   1.16665  -0.18703   0.55508
   1.16665  -0.18703   0.79450
   1.16665  -0.18703   1.03392
   0.92723  -0.18703   1.03392
   0.92723  -0.18703   1.03392
   0.92723  -0.42645   1.27334
   1.16665  -0.18703   1.27334
   0.68781  -0.18703   1.51276
   0.92723  -0.18703   1.51276
   0.92723   0.05239   1.51276
   0.92723  -0.18703   1.75218
   0.92723  -0.18703   1.99160
   0.68781  -0.18703   1.99160
   0.68781   0.05239   1.99160
   0.68781   0.05239   2.23102
   0.68781   0.05239   2.23102
   0.44839   0.05239   2.47044
   0.44839   0.05239   2.47044
   0.44839   0.05239   2.47044
   0.68781   0.05239   2.47044
   0.44839   0.05239   2.47044
   0.44839   0.05239   2.70986
   0.44839   0.05239   2.47044
   0.44839   0.05239   2.70986
   0.20897  -0.18703   2.70986
   0.20897   0.05239   2.47044
   0.20897   0.05239   2.70986
   0.20897   0.05239   2.47044
   0.20897   0.05239   2.47044
   0.20897   0.05239   2.47044
  -0.03044   0.05239   2.47044
  -0.03044   0.05239   2.23102
  -0.03044   0.05239   2.23102
  -0.03044   0.05239   2.23102
  -0.03044   0.05239   1.99160
  -0.26986   0.05239   1.99160
  -0.26986   0.05239   1.99160
  -0.26986   0.05239   1.75218
  -0.26986   0.05239   1.75218
  -0.26986   0.05239   1.51276
  -0.50928   0.29181   1.51276
  -0.50928   0.29181   1.27334
  -0.50928   0.29181   1.27334
  -0.26986   0.05239   1.03392
  -0.26986   0.05239   0.79450
  -0.26986   0.29181   1.03392
  -0.50928   0.05239   0.55508
  -0.50928   0.05239   0.55508
  -0.26986   0.05239   0.31567
  -0.26986   0.05239   0.07625
  -0.26986   0.05239   0.07625
  -0.26986   0.29181  -0.16317
  -0.26986   0.05239  -0.40259
  -0.03044   0.05239  -0.40259
  -0.26986  -0.18703  -0.64201
  -0.26986  -0.18703  -0.64201
  -0.26986   0.05239  -0.88143
  -0.03044  -0.18703  -1.12085
  -0.03044  -0.18703  -1.12085
  -0.26986  -0.18703  -1.12085
  -0.26986  -0.18703  -1.12085
  -0.26986   0.05239  -1.59969
  -0.03044   0.05239  -1.59969
  -0.03044  -0.18703  -1.83910
  -0.03044  -0.18703  -1.59969
  -0.03044  -0.18703  -1.83910
  -0.03044  -0.18703  -2.07852
  -0.03044  -0.18703  -2.07852
  -0.03044  -0.18703  -2.07852
  -0.03044  -0.18703  -2.07852
  -0.03044  -0.18703  -2.07852
  -0.03044  -0.18703  -2.31794
  -0.03044  -0.18703  -2.31794
  -0.03044  -0.18703  -2.07852
  -0.03044  -0.18703  -2.31794
  -0.03044   0.05239  -2.31794
  -0.03044   0.05239  -2.31794
  -0.03044   0.05239  -2.55736
  -0.03044  -0.18703  -2.31794
  -0.03044   0.05239  -2.31794
  -0.03044   0.05239  -2.31794
  -0.03044   0.29181  -2.31794
  -0.03044   0.05239  -2.31794
  -0.03044   0.05239  -2.31794
  -0.03044   0.05239  -2.07852
   0.20897   0.05239  -2.07852
   0.20897   0.29181  -2.07852
   0.20897   0.05239  -1.83910
   0.20897   0.05239  -1.83910
  -0.03044   0.05239  -1.83910
   0.20897   0.29181  -1.59969
   0.20897   0.05239  -1.59969
   0.20897   0.05239  -1.59969
  -0.03044   0.05239  -1.36027
  -0.03044   0.29181  -1.36027
  -0.03044   0.05239  -1.36027
  -0.03044   0.05239  -1.12085
  -0.03044  -0.18703  -1.12085
  -0.26986   0.05239  -0.88143
  -0.26986   0.05239  -0.88143
  -0.26986  -0.18703  -0.88143
  -0.26986   0.05239  -0.88143
  -0.26986   0.05239  -0.64201
  -0.26986   0.05239  -0.40259
  -0.26986   0.05239  -0.40259
  -0.26986   0.29181  -0.16317
  -0.26986   0.05239   0.07625
  -0.26986   0.05239   0.07625
  -0.26986   0.05239   0.31567
  -0.50928   0.05239   0.55508
  -0.50928   0.05239   0.55508
  -0.50928   0.05239   0.55508
  -0.26986  -0.18703   1.03392
  -0.50928   0.05239   1.03392
  -0.50928   0.05239   1.27334
