********************************************************************************
               CENTRO DE INSTRUMENTACION Y REGISTRO SISMICO  A.C.  
                       Coordinacion de Servicios Tecnicos
     Anaxagoras 814, Col. Narvarte, Benito Juarez, C.P. 03020 Mexico, D.F.
            Tels. 687 45 42/ 687 45  82             Fax. 669 25 12
********************************************************************************
ARCHIVO ESTANDAR DE ACELERACION:
VERSION DEL FORMATO                    : 2.0
NOMBRE DEL ARCHIVO                     : AO249602.251
FECHA Y HORA DE CREACION               : 27/MAR/98,12:06
REF. CATALOGO ACELEROGRAMAS, SMIS 1996 : REGISTRO No.     /PAG.


================================================================================
DATOS DE LA ESTACION:
NOMBRE DE LA ESTACION                  : ALBERCA OLIMPICA
CLAVE DE LA ESTACION                   : AO24
LOCALIZACION DE LA ESTACION            : Alberca Olimpica Rio Churubusco y
                                       : Division del Norte, Col Pedro Ma
                                       : Anaya, Benito Juarez
                                       :
                                       :
COORDENADAS DE LA ESTACION             : 19.358 LAT. N 
                                       : 99.154 LONG. W 
ALTITUD (msnm)                         : 2235
TIPO DE SUELO                          : TRANSICION
                                       : 
                                       : 
INSTITUCION RESPONSABLE                : CIRES
                                       :

================================================================================
DATOS DEL ACELEROGRAFO:
MODELO DEL ACELEROGRAFO                : DCA-333
NUMERO DE SERIE DEL ACELEROGRAFO       : 257
NUMERO DE CANALES                      : 3
ORIENTACION C1-C6 (rumbo;orientacion)  : /N00E/+V/N90W
ORIENTACION C7-C12 (rumbo;orientacion) :
VEL. DE MUESTREO, C1-C6 (muestras/s)   : /100/100/100
VEL. DE MUESTREO, C7-C12 (muestras/s)  :
ESC. COMPLETA DE SENSORES, C1-C6, (g)  : /0.5/0.5/0.5
ESC. COMPLETA DE SENSORES, C7-C12, (g) :
FREC. NAT. DE SENSORES, C1-C6, (Hz)    : /30/30/30
FREC. NAT. DE SENSORES, C7-C12, (Hz)   :
AMORTIGUAMIENTO DE SENSORES, C1-C6     : /0.700/0.700/0.700
AMORTIGUAMIENTO DE SENSORES, C7-C12    :
INTERVALO DE MUESTREO, C1-C6, (s)      : /0.01/0.01/0.01
INTERVALO DE MUESTREO, C7-C12, (s)     :
UMBRAL DE DISPARO, C1-C6, (Gal)        : /2/2/2
UMBRAL DE DISPARO, C7-C12, (Gal)       :
MEMORIA DE PREEVENTO (s)               : 4
TIEMPO DE POSEVENTO (s)                : 15


================================================================================
DATOS DEL SISMO:
FECHA DEL SISMO (GMT)                  : 25/FEB/96
HORA EPICENTRO (GMT)                   : 03:08:13:8
MAGNITUD(ES)                           : /Ms=6.9
COORDENADAS DEL EPICENTRO              : 15.83 LAT. N
                                       : 98.25 LONG. W
PROFUNDIDAD FOCAL (km)                 : 3.0
FUENTE DE LOS DATOS EPICENTRALES       : SSN
                                       : INSTITUTO DE GEOFISICA, UNAM

================================================================================
DATOS DE ESTE REGISTRO:
HORA DE LA PRIMERA MUESTRA (GMT)       : 03:10:17.85
EXACTITUD DEL TIEMPO (s)               : 0.01
DURACION DEL REGISTRO (s), C1-C6       : /47.12/47.12/47.12
DURACION DEL REGISTRO (s), C7-C12      :
NUM. TOTAL DE MUESTRAS, C1-C6          : /4712/4712/4712
NUM. TOTAL DE MUESTRAS, C7-C12         :
ACEL. MAX. (Gal), C1-C6                : /2.76175/1.09243/2.85768
ACEL. MAX., C1-C6, EN LA MUESTRA       :
ACEL. MAX. (Gal), C7-C12               :
ACEL. MAX., C7-C12, EN LA MUESTRA      :
UNIDADES DE LOS DATOS                  : Gal (cm/s/s)
FACTOR DE DECIMACION                   : 1
FORMATO DATOS (FORTRAN,10 campos/dato) : 3F10.5


================================================================================
CALIDAD DEL ACELEROGRAMA:
REGISTRO DIGITAL COMPLETO CON TIEMPO ABSOLUTO CORRECTO.


================================================================================
COMENTARIOS:














================================================================================
DATOS DE ACELERACION:
---------+---------+---------+---------+---------+---------+---------+---------+
   CANAL-1   CANAL-2   CANAL-3   CANAL-4   CANAL-5   CANAL-6   CANAL-7   CANAL-8
      N00E        +V      N90W
---------+---------+---------+---------+---------+---------+---------+---------+
[...]
  -0.36756  -0.13475   1.93070
  -0.84640  -0.13475   1.93070
  -0.84640  -0.13475   1.93070
  -0.84640  -0.13475   1.45186
  -0.84640  -0.13475   1.45186
  -0.84640  -0.13475   1.45186
  -0.84640  -0.13475   1.45186
  -0.84640  -0.13475   0.97302
  -1.32524  -0.13475   0.97302
  -1.32524  -0.13475   0.97302
  -1.32524  -0.13475   0.97302
  -1.32524  -0.13475   0.97302
  -1.32524   0.34409   0.97302
  -1.32524   0.34409   0.49418
  -1.80408  -0.13475   0.49418
  -1.80408  -0.13475   0.49418
  -1.80408  -0.13475   0.49418
  -1.80408   0.34409   0.01534
  -1.80408   0.34409   0.49418
  -1.80408   0.34409   0.01534
  -1.80408   0.34409   0.01534
  -1.80408   0.34409   0.01534
  -1.80408   0.34409   0.01534
  -2.28291   0.34409  -0.46349
  -2.28291  -0.13475  -0.46349
  -2.28291  -0.13475  -0.46349
  -2.28291  -0.13475  -0.46349
  -2.28291  -0.13475  -0.46349
  -2.28291  -0.13475  -0.46349
  -2.28291  -0.13475  -0.46349
  -2.28291  -0.13475  -0.46349
  -2.28291  -0.13475  -0.46349
  -2.28291  -0.13475  -0.46349
  -2.28291  -0.13475  -0.46349
  -2.28291  -0.13475  -0.46349
  -2.28291  -0.13475  -0.46349
  -2.28291  -0.13475  -0.46349
  -2.28291  -0.13475  -0.46349
  -2.28291  -0.13475  -0.46349
  -2.28291  -0.13475  -0.46349
  -2.28291  -0.61359  -0.46349
  -2.28291  -0.13475  -0.46349
  -2.28291  -0.61359  -0.46349
  -2.28291  -0.13475  -0.46349
  -2.28291  -0.13475  -0.46349
  -2.28291  -0.13475  -0.46349
  -2.28291  -0.13475  -0.46349
  -1.80408  -0.13475  -0.46349
  -1.80408  -0.13475  -0.46349
  -1.80408  -0.13475  -0.46349
  -1.80408  -0.13475  -0.46349
  -1.80408  -0.13475   0.01534
  -1.80408  -0.13475   0.01534
  -1.32524  -0.13475   0.01534
  -1.32524  -0.13475   0.01534
  -1.32524  -0.13475   0.01534
  -0.84640  -0.13475   0.01534
  -0.84640  -0.13475   0.01534
  -0.84640  -0.13475   0.01534
  -0.84640  -0.13475   0.01534
  -0.36756  -0.13475   0.01534
  -0.36756  -0.13475   0.01534
  -0.36756  -0.13475   0.01534
   0.11127  -0.13475   0.01534
   0.11127  -0.13475   0.01534
   0.11127  -0.13475   0.01534
   0.59011  -0.13475   0.01534
   0.59011  -0.13475   0.01534
   0.59011  -0.13475   0.49418
   0.59011  -0.13475   0.49418
   1.06895  -0.13475   0.49418
   1.06895   0.34409   0.49418
   1.06895  -0.13475   0.49418
   1.06895   0.34409   0.49418
   1.06895  -0.13475   0.49418
   1.06895   0.34409   0.49418
   1.54779   0.34409   0.49418
   1.54779   0.34409   0.49418
   1.54779   0.34409   0.97302
   1.54779   0.34409   0.49418
   1.54779   0.34409   0.49418
   1.54779   0.34409   0.49418
   2.02663   0.34409   0.49418
   2.02663   0.34409   0.49418
   1.54779   0.34409   0.49418
   1.54779   0.34409   0.49418
   1.54779   0.34409   0.49418
   1.54779   0.34409   0.49418
   1.54779   0.34409   0.49418
   1.54779   0.34409   0.49418
   1.54779   0.34409   0.49418
   1.54779   0.34409   0.01534
   1.54779   0.34409   0.01534
   1.54779   0.34409   0.01534
   1.54779   0.34409   0.01534
   1.06895   0.34409   0.01534
   1.06895   0.34409   0.01534
   1.06895   0.34409  -0.46349
   1.06895   0.34409   0.01534
   1.06895   0.34409  -0.46349
   1.06895   0.34409  -0.46349
   1.06895   0.34409  -0.46349
   1.06895   0.34409  -0.46349
   0.59011   0.34409  -0.46349
   0.59011   0.34409  -0.46349
   0.59011   0.34409  -0.46349
   0.59011   0.34409  -0.94233
   0.11127   0.34409  -0.94233
   0.11127   0.34409  -0.94233
   0.11127  -0.13475  -0.94233
  -0.36756   0.34409  -0.94233
  -0.36756   0.34409  -0.94233
  -0.36756   0.34409  -0.94233
  -0.36756  -0.13475  -1.42117
  -0.36756  -0.13475  -1.42117
  -0.36756  -0.13475  -1.42117
  -0.84640  -0.13475  -1.42117
  -0.84640  -0.13475  -1.42117
  -0.84640  -0.13475  -1.42117
  -0.84640  -0.13475  -1.42117
  -0.84640  -0.13475  -1.90001
  -0.84640  -0.13475  -1.90001
  -1.32524  -0.13475  -1.90001
  -1.32524  -0.13475  -1.90001
  -1.32524  -0.13475  -1.90001
  -1.32524  -0.13475  -1.90001
  -1.32524  -0.13475  -1.90001
  -1.32524  -0.13475  -1.90001
  -1.32524  -0.13475  -1.90001
  -1.32524   0.34409  -1.90001
  -1.32524  -0.13475  -1.90001
  -1.32524   0.34409  -1.90001
  -1.32524   0.34409  -2.37884
  -1.32524  -0.13475  -2.37884
  -1.32524   0.34409  -1.90001
  -1.32524   0.34409  -1.90001
  -1.32524   0.34409  -1.90001
  -1.32524   0.34409  -1.90001
  -1.32524   0.34409  -1.90001
  -1.32524   0.34409  -1.90001
  -1.32524   0.34409  -1.90001
  -1.32524   0.34409  -1.90001
  -1.32524   0.34409  -1.90001
  -0.84640   0.34409  -1.90001
  -0.84640   0.34409  -1.90001
  -0.84640   0.34409  -1.90001
  -0.84640   0.34409  -1.90001
  -0.84640   0.34409  -1.90001
  -0.84640   0.34409  -1.90001
  -0.36756   0.34409  -1.90001
  -0.36756   0.34409  -1.90001
  -0.36756   0.34409  -1.90001
  -0.36756   0.34409  -1.90001
   0.11127   0.34409  -1.90001
   0.11127   0.34409  -1.42117
   0.11127   0.34409  -1.42117
   0.11127   0.34409  -1.42117
   0.11127   0.34409  -1.42117
   0.59011   0.34409  -0.94233
   0.59011   0.34409  -0.94233
   1.06895   0.34409  -0.94233
   1.06895   0.34409  -0.46349
   1.06895   0.34409  -0.46349
   1.06895   0.34409  -0.46349
   1.06895   0.34409  -0.46349
   1.06895   0.34409  -0.46349
   1.54779   0.34409   0.01534
   1.54779   0.34409   0.01534
   1.54779   0.34409   0.01534
   1.54779   0.34409   0.01534
   1.54779   0.34409   0.49418
   1.54779   0.34409   0.49418
   1.54779   0.34409   0.49418
   1.54779   0.34409   0.49418
   1.54779   0.34409   0.97302
   1.54779   0.34409   0.97302
   2.02663   0.34409   0.97302
   1.54779   0.34409   0.97302
   1.54779   0.34409   0.97302
   2.02663   0.34409   0.97302
   2.02663  -0.13475   1.45186
   2.02663   0.34409   1.45186
   2.02663   0.34409   1.45186
   1.54779   0.34409   1.45186
   2.02663  -0.13475   1.45186
   1.54779  -0.13475   1.93070
   1.54779  -0.13475   1.93070
   1.54779  -0.13475   1.93070
   1.54779  -0.13475   1.93070
   1.54779  -0.13475   1.93070
   1.54779  -0.13475   2.40953
   1.54779  -0.13475   2.40953
   1.54779  -0.13475   2.40953
   1.54779  -0.13475   2.40953
   1.54779  -0.13475   2.40953
   1.06895  -0.13475   2.40953
   1.06895  -0.13475   2.40953
   1.06895  -0.13475   2.40953
   1.06895  -0.13475   2.40953
   1.06895  -0.13475   2.40953
   1.06895  -0.13475   2.40953
   1.06895  -0.13475   2.40953
   0.59011  -0.13475   2.40953
   0.59011  -0.13475   2.40953
   0.59011  -0.13475   2.40953
   0.59011  -0.13475   2.40953
   0.11127  -0.13475   2.40953
   0.11127  -0.13475   2.40953
   0.11127  -0.13475   2.40953
   0.11127  -0.13475   2.40953
  -0.36756  -0.13475   2.40953
  -0.36756  -0.13475   2.40953
  -0.36756  -0.13475   2.40953
  -0.36756  -0.13475   1.93070
  -0.36756  -0.13475   1.93070
  -0.36756  -0.13475   1.93070
  -0.84640  -0.13475   1.93070
  -0.84640  -0.13475   1.93070
  -0.84640  -0.13475   1.93070
  -0.84640  -0.13475   1.45186
  -0.84640  -0.13475   1.45186
  -0.84640  -0.13475   1.45186
  -0.84640  -0.13475   1.45186
  -1.32524  -0.13475   1.45186
  -0.84640  -0.13475   1.45186
  -1.32524  -0.13475   0.97302
  -1.32524  -0.13475   0.97302
  -1.32524  -0.13475   0.97302
  -1.32524  -0.13475   0.97302
  -1.32524  -0.13475   0.97302
  -1.32524  -0.13475   0.49418
  -1.32524  -0.13475   0.49418
  -1.32524  -0.13475   0.49418
  -1.32524  -0.13475   0.49418
  -1.32524  -0.13475   0.49418
  -1.32524  -0.13475   0.01534
  -1.32524  -0.13475   0.01534
  -1.32524  -0.13475   0.01534
  -0.84640  -0.13475   0.01534
  -1.32524  -0.13475  -0.46349
  -0.84640  -0.13475   0.01534
  -0.84640  -0.13475  -0.46349
  -1.32524  -0.13475  -0.46349
  -0.84640  -0.13475  -0.46349
  -0.84640  -0.13475  -0.46349
  -0.84640  -0.13475  -0.46349
  -0.36756  -0.61359  -0.46349
  -0.36756  -0.13475  -0.46349
  -0.36756  -0.13475  -0.94233
  -0.36756  -0.13475  -0.94233
  -0.36756  -0.13475  -0.94233
  -0.36756  -0.13475  -0.94233
  -0.36756  -0.13475  -0.94233
   0.11127  -0.13475  -0.94233
   0.11127  -0.13475  -0.94233
   0.11127  -0.13475  -0.94233
   0.11127  -0.13475  -0.94233
   0.11127  -0.13475  -0.94233
   0.11127  -0.13475  -1.42117
   0.11127  -0.13475  -1.42117
   0.59011  -0.13475  -1.42117
   0.59011  -0.13475  -0.94233
   0.59011  -0.13475  -1.42117
   0.59011  -0.13475  -0.94233
   0.59011  -0.13475  -0.94233
   1.06895  -0.13475  -0.94233
   1.06895  -0.13475  -0.94233
   1.06895  -0.13475  -0.94233
   1.06895  -0.13475  -0.94233
   1.06895  -0.13475  -0.94233
   1.06895  -0.13475  -0.94233
   1.06895  -0.13475  -0.46349
   1.06895  -0.13475  -0.46349
   1.06895  -0.13475  -0.46349
   1.06895  -0.13475  -0.46349
   1.06895  -0.13475  -0.46349
   1.06895  -0.13475  -0.46349
   1.06895  -0.13475  -0.46349
   1.06895  -0.13475  -0.46349
   1.06895  -0.13475  -0.46349
   1.06895  -0.13475   0.01534
   1.06895  -0.13475   0.01534
   1.06895  -0.13475   0.01534
   1.06895  -0.13475   0.01534
   1.06895  -0.13475   0.01534
   1.06895  -0.13475   0.01534
   1.06895  -0.13475   0.01534
   1.06895  -0.13475   0.49418
   1.06895  -0.13475   0.01534
   1.06895  -0.13475   0.49418
   1.06895  -0.13475   0.49418
   1.06895  -0.13475   0.49418
   0.59011  -0.13475   0.49418
   0.59011  -0.13475   0.49418
   0.59011  -0.13475   0.01534
   0.59011  -0.13475   0.49418
   0.59011  -0.13475   0.49418
   0.11127  -0.13475   0.49418
   0.11127  -0.13475   0.49418
   0.11127  -0.13475   0.49418
   0.11127  -0.13475   0.49418
   0.11127  -0.13475   0.49418
  -0.36756  -0.13475   0.49418
  -0.36756  -0.13475   0.49418
  -0.36756  -0.13475   0.49418
  -0.36756  -0.13475   0.49418
  -0.36756  -0.13475   0.49418
  -0.36756  -0.13475   0.49418
  -0.36756  -0.13475   0.49418
  -0.84640  -0.13475   0.49418
  -0.84640  -0.13475   0.49418
  -0.84640  -0.61359   0.49418
  -0.84640  -0.13475   0.01534
  -0.84640  -0.13475   0.01534
  -0.84640  -0.13475   0.01534
  -0.84640  -0.13475   0.01534
  -0.84640  -0.13475   0.01534
  -0.84640  -0.13475   0.01534
  -1.32524  -0.13475   0.01534
  -1.32524  -0.13475  -0.46349
  -1.32524  -0.13475  -0.46349
  -1.32524  -0.13475  -0.46349
  -1.32524  -0.13475  -0.46349
  -1.32524  -0.13475  -0.94233
  -1.32524  -0.13475  -1.42117
  -1.80408  -0.13475  -0.94233
  -1.80408  -0.13475  -0.94233
  -1.80408  -0.13475  -1.42117
  -1.80408  -0.13475  -1.42117
  -1.80408  -0.13475  -1.42117
  -1.80408  -0.13475  -1.42117
  -1.80408  -0.13475  -1.90001
  -1.80408  -0.13475  -1.90001
  -1.80408  -0.13475  -1.90001
  -1.80408  -0.13475  -1.90001
  -1.80408  -0.13475  -1.90001
  -1.80408  -0.13475  -1.90001
  -1.80408  -0.13475  -1.90001
  -1.80408  -0.13475  -1.90001
  -1.80408  -0.13475  -2.37884
  -1.80408  -0.13475  -2.37884
  -1.80408  -0.13475  -2.37884
  -1.80408  -0.13475  -2.37884
  -1.80408  -0.13475  -2.37884
  -1.80408  -0.13475  -2.37884
  -1.80408  -0.13475  -2.37884
  -1.80408  -0.13475  -2.37884
  -1.80408  -0.13475  -2.37884
  -1.80408  -0.13475  -2.37884
  -1.80408  -0.13475  -2.85768
  -1.32524  -0.13475  -2.85768
  -1.32524  -0.13475  -2.85768
  -1.32524  -0.13475  -2.85768
  -1.32524  -0.13475  -2.85768
  -1.32524  -0.13475  -2.85768
  -1.32524  -0.13475  -2.85768
  -1.32524  -0.13475  -2.37884
  -1.32524  -0.61359  -2.37884
  -1.32524  -0.61359  -2.85768
  -0.84640  -0.61359  -2.37884
  -0.84640  -0.61359  -2.37884
  -0.84640  -0.61359  -2.85768
  -0.84640  -0.61359  -2.37884
  -0.84640  -0.61359  -2.37884
  -0.84640  -0.61359  -1.90001
  -0.84640  -0.61359  -1.90001
  -0.84640  -0.61359  -1.90001
  -0.84640  -0.61359  -1.90001
  -0.36756  -0.61359  -1.42117
  -0.84640  -0.61359  -1.42117
  -0.36756  -0.61359  -1.42117
  -0.36756  -0.61359  -1.42117
  -0.36756  -0.61359  -1.42117
  -0.36756  -0.61359  -0.94233
   0.11127  -0.61359  -0.94233
   0.11127  -0.61359  -0.46349
   0.11127  -0.61359  -0.46349
   0.11127  -0.13475  -0.46349
   0.11127  -0.61359   0.01534
   0.11127  -0.13475   0.01534
   0.59011  -0.13475   0.01534
   0.59011  -0.13475   0.01534
   0.59011  -0.13475   0.49418
   0.59011  -0.13475   0.49418
   0.59011  -0.13475   0.49418
   1.06895  -0.13475   0.97302
   1.06895  -0.61359   0.97302
   1.06895  -0.13475   0.97302
   1.06895  -0.13475   1.45186
   1.06895  -0.13475   1.45186
   1.06895  -0.13475   1.45186
   1.06895  -0.13475   1.45186
   1.06895  -0.13475   1.45186
   1.06895  -0.13475   1.93070
   1.06895  -0.13475   1.93070
   1.06895  -0.13475   1.93070
   1.06895  -0.13475   1.93070
   1.06895  -0.13475   1.93070
   1.06895  -0.13475   2.40953
   1.54779  -0.13475   2.40953
   1.54779  -0.13475   1.93070
   1.54779  -0.13475   2.40953
   1.54779  -0.13475   2.40953
   1.54779   0.34409   2.40953
   1.54779   0.34409   2.40953
   1.54779   0.34409   2.40953
   1.54779   0.34409   2.40953
   1.54779   0.34409   2.40953
   1.54779   0.34409   2.40953
   1.54779   0.34409   2.40953
   1.54779   0.34409   2.40953
   1.54779   0.34409   1.93070
   1.06895   0.34409   1.93070
   1.06895   0.34409   1.93070
   1.06895   0.34409   1.93070
   1.06895   0.34409   1.93070
   1.06895   0.34409   1.45186
   1.54779   0.34409   1.45186
   1.06895   0.34409   1.45186
   1.06895   0.34409   1.45186
   1.06895   0.34409   1.45186
   1.06895   0.34409   0.97302
   1.06895   0.34409   0.97302
   1.06895   0.34409   0.49418
   1.06895   0.34409   0.49418
   1.06895   0.34409   0.49418
   1.06895   0.34409   0.49418
   1.06895   0.34409   0.01534
   1.06895   0.34409   0.01534
   1.06895   0.34409   0.01534
   1.06895   0.34409   0.01534
   1.06895   0.34409  -0.46349
   1.06895   0.34409   0.01534
   1.06895   0.34409  -0.46349
   1.06895   0.34409  -0.46349
   0.59011   0.34409  -0.46349
   1.06895   0.34409  -0.46349
   1.06895   0.34409  -0.46349
   0.59011   0.34409  -0.46349
   0.59011   0.34409  -0.46349
   0.59011   0.34409  -0.46349
   0.59011   0.34409  -0.46349
   0.59011   0.34409  -0.94233
   0.59011  -0.13475  -0.94233
   0.59011   0.34409  -0.94233
   0.59011   0.34409  -0.94233
   0.59011   0.34409  -0.94233
   0.59011   0.34409  -0.94233
   0.59011   0.34409  -0.94233
   0.59011   0.34409  -0.94233
   0.59011   0.34409  -0.94233
   0.59011   0.34409  -0.94233
   0.59011   0.34409  -0.94233
   0.11127   0.34409  -0.94233
   0.11127   0.34409  -0.94233
   0.11127   0.34409  -0.94233
   0.11127   0.34409  -0.94233
   0.11127   0.34409  -0.94233
   0.11127   0.34409  -0.94233
   0.11127   0.34409  -0.94233
   0.11127   0.34409  -0.94233
   0.11127   0.34409  -0.94233
   0.11127   0.34409  -0.46349
   0.11127   0.34409  -0.46349
   0.11127   0.34409  -0.46349
   0.11127   0.34409  -0.46349
   0.11127   0.34409  -0.46349
   0.11127   0.34409  -0.46349
   0.11127   0.34409  -0.46349
  -0.36756   0.34409  -0.46349
  -0.36756   0.34409  -0.46349
  -0.36756   0.34409   0.01534
  -0.36756   0.34409   0.01534
  -0.36756   0.34409   0.01534
  -0.36756   0.34409   0.01534
  -0.36756   0.34409   0.49418
  -0.36756   0.34409   0.49418
  -0.36756   0.34409   0.49418
  -0.36756   0.34409   0.49418
  -0.36756   0.34409   0.49418
  -0.36756   0.34409   0.97302
  -0.36756   0.34409   0.97302
  -0.36756   0.34409   0.97302
  -0.36756   0.34409   0.97302
  -0.36756   0.34409   0.97302
  -0.36756   0.34409   1.45186
   0.11127   0.34409   1.45186
   0.11127   0.34409   1.45186
   0.11127   0.34409   1.45186
   0.11127   0.34409   1.45186
  -0.36756   0.34409   1.45186
   0.11127   0.34409   1.45186
   0.11127   0.34409   1.45186
   0.11127   0.34409   1.45186
   0.11127   0.34409   1.45186
   0.11127   0.34409   1.45186
   0.11127   0.34409   1.45186
   0.11127   0.34409   1.45186
   0.11127   0.34409   1.45186
   0.11127   0.34409   1.45186
