********************************************************************************
               CENTRO DE INSTRUMENTACION Y REGISTRO SISMICO  A.C.  
                       Coordinacion de Servicios Tecnicos
     Anaxagoras 814, Col. Narvarte, Benito Juarez, C.P. 03020 Mexico, D.F.
            Tels. 687 45 42/ 687 45  82             Fax. 669 25 12
********************************************************************************
ARCHIVO ESTANDAR DE ACELERACION:
VERSION DEL FORMATO                    : 2.0
NOMBRE DEL ARCHIVO                     : AO240401.011
FECHA Y HORA DE CREACION               : 08/NOV/04, 10:00
REF. CATALOGO ACELEROGRAMAS, SMIS 1996 : REGISTRO No.     /PAG.


================================================================================
DATOS DE LA ESTACION:
NOMBRE DE LA ESTACION                  : ALBERCA OLIMPICA
CLAVE DE LA ESTACION                   : AO24
LOCALIZACION DE LA ESTACION            : Alberca Olimpica Rio Churubusco y
                                       : Division del Norte, Col Pedro Ma
                                       : Anaya, Benito Juarez
                                       :
                                       :
COORDENADAS DE LA ESTACION             : 19.358 LAT. N 
                                       : 99.154 LONG. W 
ALTITUD (msnm)                         : 2235
TIPO DE SUELO                          : TRANSICION
                                       : 
                                       : 
INSTITUCION RESPONSABLE                : CIRES
                                       :

================================================================================
DATOS DEL ACELEROGRAFO:
MODELO DEL ACELEROGRAFO                : RAD-851
NUMERO DE SERIE DEL ACELEROGRAFO       : 257
NUMERO DE CANALES                      : 3
ORIENTACION C1-C6 (rumbo;orientacion)  : /N00E/+V/N90W
ORIENTACION C7-C12 (rumbo;orientacion) :
VEL. DE MUESTREO, C1-C6 (muestras/s)   : /100/100/100
VEL. DE MUESTREO, C7-C12 (muestras/s)  :
ESC. COMPLETA DE SENSORES, C1-C6, (g)  : /0.5/0.5/0.5
ESC. COMPLETA DE SENSORES, C7-C12, (g) :
FREC. NAT. DE SENSORES, C1-C6, (Hz)    : /30/30/30
FREC. NAT. DE SENSORES, C7-C12, (Hz)   :
AMORTIGUAMIENTO DE SENSORES, C1-C6     : /0.700/0.700/0.700
AMORTIGUAMIENTO DE SENSORES, C7-C12    :
INTERVALO DE MUESTREO, C1-C6, (s)      : /0.01/0.01/0.01
INTERVALO DE MUESTREO, C7-C12, (s)     :
UMBRAL DE DISPARO, C1-C6, (Gal)        : /1.95/2.93/1.95
UMBRAL DE DISPARO, C7-C12, (Gal)       :
MEMORIA DE PREEVENTO (s)               : 24
TIEMPO DE POSEVENTO (s)                : 64


================================================================================
DATOS DEL SISMO:
FECHA DEL SISMO (GMT)                  : 01/ENE/04
HORA EPICENTRO (GMT)                   : 23:31:49:0
MAGNITUD(ES)                           : /Ms=6.3
COORDENADAS DEL EPICENTRO              : 17.31 LAT. N
                                       : -101.42 LONG. W
PROFUNDIDAD FOCAL (km)                 : 10.0
FUENTE DE LOS DATOS EPICENTRALES       : SSN
                                       : INSTITUTO DE GEOFISICA, UNAM

================================================================================
DATOS DE ESTE REGISTRO:
HORA DE LA PRIMERA MUESTRA (GMT)       : 23:33:26.00
EXACTITUD DEL TIEMPO (s)               : 0.01
DURACION DEL REGISTRO (s), C1-C6       : /110.75/110.75/110.75
DURACION DEL REGISTRO (s), C7-C12      :
NUM. TOTAL DE MUESTRAS, C1-C6          : /11075/11075/11075
NUM. TOTAL DE MUESTRAS, C7-C12         :
ACEL. MAX. (Gal), C1-C6                : /-4.09954/1.30670/3.17624
ACEL. MAX., C1-C6, EN LA MUESTRA       :
ACEL. MAX. (Gal), C7-C12               :
ACEL. MAX., C7-C12, EN LA MUESTRA      :
UNIDADES DE LOS DATOS                  : Gal (cm/s/s)
FACTOR DE DECIMACION                   : 1
FORMATO DATOS (FORTRAN,10 campos/dato) : 3F10.5


================================================================================
CALIDAD DEL ACELEROGRAMA:
REGISTRO DIGITAL COMPLETO CON TIEMPO ABSOLUTO CORRECTO.


================================================================================
COMENTARIOS:














================================================================================
DATOS DE ACELERACION:
---------+---------+---------+---------+---------+---------+---------+---------+
   CANAL-1   CANAL-2   CANAL-3   CANAL-4   CANAL-5   CANAL-6   CANAL-7   CANAL-8
      N00E        +V      N90W
---------+---------+---------+---------+---------+---------+---------+---------+
[...]
  -1.70535   0.10960  -1.37272
  -1.46594  -0.12982  -1.61214
  -1.46594   0.10960  -1.61214
  -1.46594  -0.12982  -1.61214
  -1.22652  -0.12982  -1.85156
  -1.22652  -0.12982  -1.61214
  -0.98710  -0.12982  -1.61214
  -1.22652  -0.36923  -1.85156
  -1.22652  -0.36923  -1.85156
  -0.74768  -0.36923  -1.85156
  -0.98710  -0.60865  -1.61214
  -0.98710  -0.60865  -1.61214
  -0.74768  -0.60865  -1.37272
  -0.74768  -0.36923  -1.37272
  -0.74768  -0.60865  -1.61214
  -0.74768  -0.36923  -1.37272
  -0.74768  -0.36923  -1.37272
  -0.74768  -0.36923  -1.37272
  -0.74768  -0.12982  -1.37272
  -0.74768  -0.12982  -1.13330
  -0.74768  -0.12982  -1.13330
  -0.74768  -0.12982  -0.89388
  -0.50826  -0.36923  -0.89388
  -0.74768  -0.12982  -0.89388
  -0.50826  -0.12982  -0.65446
  -0.50826  -0.12982  -0.65446
  -0.50826  -0.36923  -0.41504
  -0.50826  -0.36923  -0.41504
  -0.50826  -0.12982  -0.17562
  -0.50826  -0.12982   0.06379
  -0.50826  -0.36923   0.06379
  -0.26884  -0.12982   0.06379
  -0.26884  -0.12982   0.30321
  -0.02942  -0.12982   0.54263
  -0.02942   0.10960   0.54263
   0.21000  -0.12982   0.78205
   0.44942   0.10960   0.78205
   0.44942   0.10960   1.02147
   0.68883  -0.12982   1.02147
   0.68883  -0.12982   1.02147
   0.92825   0.10960   1.26089
   1.40709   0.10960   1.26089
   1.64651  -0.12982   1.50031
   1.64651  -0.12982   1.73973
   1.88593  -0.12982   1.50031
   2.12535  -0.12982   1.50031
   2.36477  -0.36923   1.73973
   2.60419  -0.36923   1.50031
   2.60419  -0.12982   1.73973
   2.84361  -0.36923   1.50031
   2.84361  -0.36923   1.50031
   2.84361  -0.12982   1.73973
   3.08302  -0.12982   1.50031
   2.84361  -0.12982   1.50031
   2.84361   0.10960   1.50031
   2.84361   0.10960   1.26089
   2.60419   0.34902   1.26089
   2.60419   0.34902   1.50031
   2.60419   0.34902   1.26089
   2.36477   0.58844   1.50031
   2.36477   0.34902   1.26089
   2.36477   0.58844   1.26089
   2.12535   0.58844   1.26089
   2.36477   0.58844   1.50031
   2.36477   0.82786   1.50031
   2.12535   0.58844   1.50031
   2.12535   0.58844   1.26089
   2.12535   0.58844   1.26089
   2.12535   0.34902   1.26089
   2.12535   0.58844   1.02147
   2.12535   0.58844   1.02147
   2.12535   0.34902   0.78205
   2.12535   0.34902   0.54263
   1.88593   0.34902   0.78205
   1.88593   0.34902   0.54263
   1.64651   0.34902   0.30321
   1.64651   0.10960   0.30321
   1.64651   0.10960   0.30321
   1.40709   0.34902   0.06379
   1.16767   0.10960   0.06379
   0.92825   0.10960  -0.17562
   0.68883   0.34902  -0.17562
   0.44942   0.10960  -0.41504
   0.21000   0.10960  -0.41504
  -0.02942   0.10960  -0.41504
  -0.02942   0.10960  -0.65446
  -0.50826   0.10960  -0.89388
  -0.74768   0.10960  -0.65446
  -0.74768   0.10960  -0.89388
  -0.98710   0.34902  -0.89388
  -1.22652   0.34902  -0.89388
  -1.22652   0.34902  -1.13330
  -1.46594   0.34902  -0.89388
  -1.46594   0.58844  -0.89388
  -1.70535   0.58844  -0.89388
  -1.46594   0.58844  -0.89388
  -1.70535   0.58844  -0.89388
  -1.94477   0.58844  -0.65446
  -1.94477   0.34902  -0.89388
  -2.18419   0.34902  -0.65446
  -2.18419   0.10960  -0.65446
  -2.42361   0.10960  -0.89388
  -2.66303   0.10960  -0.65446
  -2.66303   0.10960  -0.65446
  -2.90245  -0.12982  -0.65446
  -2.90245  -0.36923  -0.65446
  -2.90245  -0.36923  -0.65446
  -2.90245  -0.36923  -0.41504
  -2.66303  -0.36923  -0.65446
  -2.66303  -0.36923  -0.41504
  -2.66303  -0.36923  -0.41504
  -2.66303  -0.36923  -0.65446
  -2.66303  -0.36923  -0.41504
  -2.42361  -0.60865  -0.41504
  -2.42361  -0.60865  -0.41504
  -2.42361  -0.60865  -0.41504
  -2.42361  -0.60865  -0.65446
  -2.42361  -0.60865  -0.65446
  -2.18419  -0.60865  -0.65446
  -2.18419  -0.60865  -0.65446
  -2.18419  -0.60865  -0.65446
  -2.18419  -0.36923  -0.65446
  -2.18419  -0.36923  -0.65446
  -1.94477  -0.36923  -0.89388
  -1.94477  -0.36923  -0.89388
  -1.94477  -0.36923  -0.89388
  -1.70535  -0.36923  -0.89388
  -1.46594  -0.12982  -1.13330
  -1.46594  -0.36923  -1.13330
  -1.22652  -0.36923  -1.13330
  -0.98710  -0.36923  -1.13330
  -0.98710  -0.36923  -1.13330
  -0.74768  -0.36923  -1.13330
  -0.74768  -0.36923  -1.13330
  -0.50826  -0.36923  -0.89388
  -0.50826  -0.36923  -0.89388
  -0.26884  -0.60865  -0.65446
  -0.02942  -0.36923  -0.65446
  -0.02942  -0.36923  -0.65446
   0.21000  -0.60865  -0.65446
   0.21000  -0.60865  -0.65446
   0.44942  -0.36923  -0.65446
   0.68883  -0.36923  -0.65446
   0.92825  -0.36923  -0.65446
   0.92825  -0.36923  -0.41504
   1.16767  -0.36923  -0.65446
   1.16767  -0.36923  -0.41504
   1.40709  -0.60865  -0.65446
   1.64651  -0.36923  -0.65446
   1.64651  -0.36923  -0.65446
   1.88593  -0.36923  -0.65446
   2.12535  -0.12982  -0.65446
   1.88593  -0.12982  -0.41504
   2.12535  -0.12982  -0.65446
   2.36477  -0.12982  -0.41504
   2.36477  -0.12982  -0.41504
   2.60419  -0.12982  -0.65446
   2.36477   0.10960  -0.41504
   2.36477  -0.12982  -0.41504
   2.60419   0.34902  -0.41504
   2.36477   0.34902  -0.41504
   2.60419   0.34902  -0.41504
   2.60419   0.34902  -0.41504
   2.60419   0.34902  -0.17562
   2.60419   0.34902  -0.17562
   2.36477   0.34902  -0.17562
   2.36477   0.58844   0.06379
   2.36477   0.58844   0.06379
   2.36477   0.82786   0.30321
   2.36477   0.58844   0.30321
   2.36477   0.82786   0.54263
   2.12535   1.06728   0.54263
   2.12535   0.82786   0.54263
   1.88593   1.06728   0.54263
   2.12535   0.82786   0.78205
   1.88593   0.82786   0.78205
   1.88593   0.82786   1.26089
   1.88593   0.58844   1.26089
   1.64651   0.58844   1.02147
   1.64651   0.58844   1.26089
   1.64651   0.34902   1.26089
   1.40709   0.34902   1.26089
   1.16767   0.34902   1.50031
   1.16767   0.10960   1.50031
   0.92825   0.34902   1.50031
   0.92825   0.10960   1.50031
   0.92825   0.10960   1.26089
   0.68883   0.34902   1.50031
   0.68883   0.10960   1.50031
   0.68883   0.34902   1.50031
   0.44942   0.34902   1.73973
   0.68883   0.10960   1.50031
   0.44942   0.34902   1.73973
   0.44942   0.10960   1.73973
   0.44942   0.34902   1.73973
   0.21000   0.34902   1.73973
   0.21000   0.34902   1.73973
  -0.02942   0.58844   1.73973
  -0.26884   0.34902   1.73973
  -0.26884   0.58844   1.73973
  -0.50826   0.58844   1.50031
  -0.50826   0.58844   1.50031
  -0.26884   0.58844   1.50031
  -0.50826   0.58844   1.50031
  -0.50826   0.58844   1.26089
  -0.50826   0.58844   1.02147
  -0.50826   0.58844   1.26089
  -0.50826   0.58844   1.02147
  -0.50826   0.58844   1.02147
  -0.26884   0.34902   1.02147
  -0.50826   0.34902   1.02147
  -0.50826   0.10960   1.02147
  -0.50826   0.10960   0.78205
  -0.50826   0.10960   0.78205
  -0.74768  -0.12982   0.54263
  -0.50826  -0.12982   0.54263
  -0.74768  -0.12982   0.54263
  -0.74768  -0.12982   0.30321
  -0.98710  -0.36923   0.06379
  -0.98710  -0.12982   0.06379
  -0.98710  -0.36923  -0.17562
  -0.98710  -0.12982  -0.17562
  -0.98710  -0.36923  -0.41504
  -0.98710  -0.36923  -0.41504
  -1.22652  -0.12982  -0.65446
  -1.22652  -0.36923  -0.65446
  -1.22652  -0.12982  -0.89388
  -1.22652  -0.36923  -0.89388
  -1.22652  -0.36923  -1.13330
  -1.46594  -0.36923  -1.13330
  -1.46594  -0.36923  -1.13330
  -1.46594  -0.36923  -1.37272
  -1.46594  -0.36923  -1.13330
  -1.46594  -0.36923  -1.37272
  -1.46594  -0.36923  -1.37272
  -1.46594  -0.36923  -1.13330
  -1.46594  -0.36923  -1.37272
  -1.70535  -0.36923  -1.37272
  -1.70535  -0.36923  -1.37272
  -1.70535  -0.36923  -1.37272
  -1.70535  -0.60865  -1.13330
  -1.70535  -0.36923  -1.13330
  -1.94477  -0.36923  -1.13330
  -1.70535  -0.36923  -1.13330
  -1.70535  -0.12982  -1.13330
  -1.70535  -0.12982  -1.13330
  -1.46594  -0.36923  -1.13330
  -1.46594  -0.12982  -1.13330
  -1.22652  -0.36923  -0.89388
  -1.22652  -0.12982  -1.13330
  -1.22652  -0.36923  -0.89388
  -0.98710  -0.36923  -1.13330
  -0.98710  -0.36923  -1.13330
  -0.98710  -0.36923  -0.89388
  -0.74768  -0.36923  -1.13330
  -0.74768  -0.12982  -0.89388
  -0.74768  -0.36923  -1.13330
  -0.74768  -0.12982  -0.89388
  -0.74768  -0.36923  -1.13330
  -0.50826  -0.36923  -0.89388
  -0.74768  -0.12982  -0.89388
  -0.50826  -0.12982  -0.89388
  -0.26884  -0.12982  -1.13330
  -0.50826  -0.12982  -0.89388
  -0.50826  -0.12982  -0.89388
  -0.50826   0.10960  -1.13330
  -0.50826  -0.12982  -0.65446
  -0.50826   0.10960  -0.65446
  -0.50826   0.10960  -0.65446
  -0.50826   0.10960  -0.41504
  -0.50826   0.34902  -0.41504
  -0.50826   0.10960  -0.17562
  -0.50826   0.10960  -0.17562
  -0.50826   0.10960  -0.17562
  -0.26884  -0.12982   0.06379
  -0.02942   0.10960   0.06379
  -0.02942   0.10960   0.30321
   0.21000  -0.12982   0.06379
   0.21000  -0.12982   0.30321
   0.44942  -0.12982   0.30321
   0.68883  -0.12982   0.30321
   0.92825  -0.12982   0.54263
   0.92825  -0.36923   0.54263
   1.16767  -0.36923   0.54263
   1.40709  -0.36923   0.78205
   1.64651  -0.36923   0.78205
   1.64651  -0.36923   0.78205
   1.88593  -0.12982   0.78205
   1.64651  -0.36923   1.02147
   1.88593  -0.12982   1.02147
   1.88593  -0.12982   1.02147
   1.88593  -0.12982   1.02147
   1.88593  -0.12982   1.02147
   2.12535  -0.12982   1.02147
   2.12535   0.10960   1.02147
   2.12535   0.10960   1.02147
   2.12535   0.10960   1.02147
   2.36477   0.34902   1.02147
   2.36477   0.10960   1.02147
   2.36477   0.10960   1.02147
   2.60419   0.34902   1.26089
   2.84361   0.34902   1.02147
   2.60419   0.34902   1.26089
   2.84361   0.34902   1.26089
   2.84361   0.34902   1.02147
   2.84361   0.34902   1.02147
   2.84361   0.10960   1.26089
   3.08302   0.10960   1.26089
   2.84361   0.10960   1.02147
   2.84361   0.10960   1.02147
   2.60419   0.10960   1.02147
   2.60419   0.10960   1.02147
   2.36477   0.10960   1.02147
   2.12535   0.10960   1.02147
   1.88593   0.10960   1.02147
   1.64651   0.10960   0.78205
   1.40709   0.10960   1.02147
   1.16767   0.10960   0.78205
   1.16767   0.10960   0.78205
   0.68883   0.10960   0.78205
   0.68883   0.10960   0.78205
   0.44942   0.10960   0.78205
   0.21000   0.10960   0.78205
   0.21000   0.10960   0.78205
  -0.02942   0.34902   0.78205
  -0.26884   0.34902   0.78205
  -0.26884   0.34902   0.54263
  -0.50826   0.34902   0.54263
  -0.74768   0.34902   0.30321
  -0.98710   0.34902   0.30321
  -1.22652   0.34902   0.30321
  -1.22652   0.34902   0.06379
  -1.46594   0.34902   0.06379
  -1.70535   0.34902   0.06379
  -1.94477   0.34902  -0.17562
  -2.18419   0.34902  -0.17562
  -2.18419   0.34902  -0.17562
  -2.66303   0.34902  -0.17562
  -2.66303   0.10960  -0.17562
  -2.90245   0.10960   0.06379
  -3.14187   0.10960  -0.41504
  -3.14187   0.10960  -0.41504
  -3.38129   0.10960  -0.41504
  -3.62071   0.10960  -0.65446
  -3.62071   0.10960  -0.65446
  -3.86013   0.10960  -0.65446
  -3.86013   0.10960  -0.89388
  -3.86013   0.10960  -0.65446
  -4.09954   0.10960  -0.89388
  -4.09954   0.10960  -0.89388
  -4.09954   0.10960  -0.89388
  -4.09954   0.10960  -0.89388
  -4.09954  -0.12982  -0.89388
  -4.09954  -0.12982  -0.65446
  -3.86013  -0.12982  -0.65446
  -3.86013  -0.12982  -0.65446
  -3.62071  -0.36923  -0.65446
  -3.62071  -0.12982  -0.41504
  -3.38129  -0.36923  -0.41504
  -3.38129  -0.36923  -0.17562
  -3.14187  -0.84807  -0.17562
  -2.90245  -0.60865   0.06379
  -2.90245  -0.60865   0.30321
  -2.90245  -0.84807   0.30321
  -2.66303  -0.84807   0.54263
  -2.42361  -0.84807   0.54263
  -2.18419  -0.84807   0.54263
  -2.42361  -0.84807   0.78205
  -1.94477  -0.84807   0.78205
  -1.70535  -0.84807   1.02147
  -1.46594  -0.84807   1.02147
  -0.98710  -0.60865   1.02147
  -0.98710  -0.36923   1.02147
  -0.50826  -0.60865   1.02147
  -0.50826  -0.36923   1.02147
  -0.26884  -0.36923   1.26089
  -0.02942  -0.36923   1.02147
   0.21000  -0.12982   1.02147
   0.44942  -0.36923   1.26089
   0.68883  -0.12982   1.02147
   0.68883  -0.12982   1.26089
   1.16767  -0.12982   1.26089
   1.40709  -0.12982   1.02147
   1.40709  -0.12982   1.26089
   1.64651  -0.36923   1.02147
   1.88593  -0.12982   1.02147
   2.12535  -0.36923   1.02147
   2.36477  -0.36923   0.78205
   2.60419  -0.36923   0.78205
   2.84361  -0.36923   0.78205
   2.84361  -0.36923   0.54263
   3.08302  -0.36923   0.54263
   3.32244  -0.60865   0.30321
   3.32244  -0.36923   0.30321
   3.56186  -0.36923   0.30321
   3.56186  -0.36923  -0.17562
   3.56186  -0.12982  -0.17562
   3.56186   0.10960  -0.17562
   3.56186   0.10960  -0.41504
   3.56186   0.34902  -0.65446
   3.56186   0.10960  -0.41504
   3.56186   0.34902  -0.65446
   3.32244   0.34902  -0.65446
   3.32244   0.34902  -0.65446
   3.32244   0.34902  -0.65446
   3.32244   0.34902  -0.65446
   3.08302   0.34902  -0.89388
   3.08302   0.34902  -0.89388
   2.84361   0.34902  -0.89388
   2.60419   0.10960  -1.13330
   2.60419   0.10960  -1.13330
   2.36477   0.10960  -1.13330
   2.12535   0.10960  -1.13330
   2.12535   0.10960  -1.13330
   1.88593   0.10960  -1.37272
   1.88593   0.10960  -1.37272
   1.64651   0.10960  -1.61214
   1.64651   0.10960  -1.61214
   1.40709   0.10960  -1.61214
   1.40709   0.10960  -1.85156
   1.16767   0.10960  -1.85156
   1.16767   0.10960  -1.85156
   0.92825   0.10960  -2.09098
   0.68883  -0.12982  -2.09098
   0.68883  -0.12982  -2.09098
   0.44942   0.10960  -2.09098
  -0.02942  -0.12982  -2.09098
  -0.02942  -0.12982  -1.85156
  -0.50826  -0.12982  -1.85156
  -0.50826  -0.12982  -1.85156
  -0.74768   0.10960  -1.61214
  -0.98710   0.10960  -1.61214
  -0.98710   0.10960  -1.37272
  -1.22652   0.34902  -1.37272
  -1.46594   0.10960  -1.37272
  -1.46594   0.10960  -1.37272
  -1.70535   0.34902  -1.13330
  -1.70535   0.10960  -1.13330
  -1.94477   0.10960  -1.13330
  -1.94477   0.10960  -1.13330
  -1.94477   0.10960  -1.37272
  -1.94477   0.10960  -1.37272
  -1.94477  -0.12982  -1.37272
  -1.94477   0.10960  -1.37272
  -1.94477   0.10960  -1.37272
  -1.70535   0.10960  -1.37272
  -1.94477   0.10960  -1.37272
  -1.70535   0.10960  -1.37272
  -1.70535   0.34902  -1.37272
  -1.70535   0.34902  -1.37272
  -1.46594   0.10960  -1.37272
  -1.46594   0.34902  -1.13330
  -1.22652   0.34902  -0.89388
  -1.22652   0.34902  -0.89388
  -0.98710   0.58844  -0.65446
  -0.98710   0.34902  -0.65446
  -0.74768   0.34902  -0.65446
  -0.98710   0.34902  -0.41504
  -0.50826   0.34902  -0.17562
  -0.50826   0.34902   0.06379
  -0.50826   0.34902   0.06379
  -0.50826   0.34902   0.06379
  -0.50826   0.10960   0.30321
  -0.26884   0.10960   0.30321
  -0.26884   0.34902   0.54263
  -0.02942   0.10960   0.78205
   0.21000   0.10960   0.54263
   0.21000   0.10960   0.78205
   0.44942   0.10960   0.78205
   0.44942   0.10960   0.78205
   0.68883   0.10960   0.78205
   0.68883   0.10960   0.78205
   0.92825   0.10960   1.02147
   1.16767   0.10960   1.02147
   1.16767   0.10960   1.02147
   1.16767  -0.12982   1.02147
   1.40709   0.10960   1.02147
   1.40709   0.10960   1.02147
   1.40709  -0.12982   1.26089
   1.64651  -0.12982   1.26089
   1.64651  -0.12982   1.26089
   1.64651  -0.12982   1.26089
   1.64651  -0.12982   1.50031
   1.64651  -0.12982   1.50031
   1.64651  -0.12982   1.50031
   1.64651  -0.12982   1.50031
   1.64651  -0.12982   1.73973
   1.40709  -0.12982   1.73973
   1.40709  -0.12982   1.73973
   1.40709  -0.12982   1.73973
   1.40709  -0.12982   1.73973
   1.16767   0.10960   1.73973
   1.16767  -0.12982   1.73973
   1.16767   0.10960   1.73973
   1.16767   0.10960   1.97915
   0.92825   0.10960   1.73973
   0.68883  -0.12982   1.73973
   0.92825  -0.12982   1.97915
   0.68883   0.10960   1.73973
