********************************************************************************
              CENTRO DE INSTRUMENTACION Y REGISTRO SISMICO  A.C.

    Anaxagoras 814, Col. Narvarte, Benito Juarez, C.P. 03020 Mexico, D.F.
           Tels. 5687 45 42/ 5687 45  82             Fax. 5669 25 12
********************************************************************************
ARCHIVO ESTANDAR DE ACELERACION:
VERSION DEL FORMATO                    : 2.0
NOMBRE DEL ARCHIVO                     : AU1120130821123830
FECHA Y HORA DE CREACION               : 17/SEP/13, 12:38
REF. CATALOGO ACELEROGRAMAS, SMIS 1996 : REGISTRO No.     /PAG.


================================================================================
DATOS DE LA ESTACION:
NOMBRE DE LA ESTACION                  : AUTÓDROMO
CLAVE DE LA ESTACION                   : AU11
LOCALIZACION DE LA ESTACION            : Del. Iztacalco, Cd. Deportiva          
                                       : Magdalena Mixhuca,                     
                                       : Col. Granjas México                    
                                       :                                        
                                       : 
COORDENADAS DE LA ESTACION             : 19.3919 LAT. N
                                       : 99.0869 LONG. W
ALTITUD (msnm)                         : 2234
TIPO DE SUELO                          : Terreno blando, material compresible
                                       : (arcillas)                
                                       : 
INSTITUCION RESPONSABLE                : CIRES
                                       : 

================================================================================
DATOS DEL ACELEROGRAFO:
MODELO DEL ACELEROGRAFO                : RADESD
NUMERO DE SERIE DEL ACELEROGRAFO       : 157
NUMERO DE CANALES                      : 3
ORIENTACION C1-C6 (rumbo;orientacion)  : /N00E/+V/N90W
ORIENTACION C7-C12 (rumbo;orientacion) : 
VEL. DE MUESTREO, C1-C6 (muestras/s)   : /100/100/100
VEL. DE MUESTREO, C7-C12 (muestras/s)  : 
ESC. COMPLETA DE SENSORES, C1-C6, (g)  : /0.5/0.5/0.5
ESC. COMPLETA DE SENSORES, C7-C12, (g) : 
FREC. NAT. DE SENSORES, C1-C6, (Hz)    : /51.77/52.56/52.29
FREC. NAT. DE SENSORES, C7-C12, (Hz)   : 
AMORTIGUAMIENTO DE SENSORES, C1-C6     : /0.5912/0.6083/0.6067
AMORTIGUAMIENTO DE SENSORES, C7-C12    : 
INTERVALO DE MUESTREO, C1-C6, (s)      : /0.01/0.01/0.01
INTERVALO DE MUESTREO, C7-C12, (s)     : 
UMBRAL DE DISPARO, C1-C6, (Gal)        : /11.49/30.65/11.49
UMBRAL DE DISPARO, C7-C12, (Gal)       : 
MEMORIA DE PREEVENTO (s)               : 56.0
TIEMPO DE POSEVENTO (s)                : 80.0


================================================================================
DATOS DEL SISMO:
FECHA DEL SISMO (GMT)                  : 21/AGO/13
HORA EPICENTRO (GMT)                   : 12:38:30.0
MAGNITUD(ES)                           : /Mc=6.0
COORDENADAS DEL EPICENTRO              : 16.79 LAT. N
                                       : 99.56 LONG. W
PROFUNDIDAD FOCAL (km)                 : 20
FUENTE DE LOS DATOS EPICENTRALES       : SSN
                                       : INSTITUTO DE GEOFISICA, UNAM

================================================================================
DATOS DE ESTE REGISTRO:
HORA DE LA PRIMERA MUESTRA (GMT)       : 12:39:47.00
EXACTITUD DEL TIEMPO (s)               : 0.01
DURACION DEL REGISTRO (s), C1-C6       : /360.2/360.2/360.2
DURACION DEL REGISTRO (s), C7-C12      : 
NUM. TOTAL DE MUESTRAS, C1-C6          : /36020/36020/36020
NUM. TOTAL DE MUESTRAS, C7-C12         : 
ACEL. MAX. (Gal), C1-C6                : /7.17006/2.0595/4.91196
ACEL. MAX., C1-C6, EN LA MUESTRA       : /7468/6419/6144
ACEL. MAX. (Gal), C7-C12               : 
ACEL. MAX., C7-C12, EN LA MUESTRA      : 
UNIDADES DE LOS DATOS                  : Gal (cm/s/s)
FACTOR DE DECIMACION                   : 1
FORMATO DATOS (FORTRAN,10 campos/dato) : 3F10.5


================================================================================
CALIDAD DEL ACELEROGRAMA:
REGISTRO DIGITAL COMPLETO CON TIEMPO ABSOLUTO CORRECTO.


================================================================================
COMENTARIOS:














================================================================================
DATOS DE ACELERACION:
---------+---------+---------+---------+---------+---------+---------+---------+
   CANAL-1   CANAL-2   CANAL-3   CANAL-4   CANAL-5   CANAL-6   CANAL-7   CANAL-8
      N00E        +V      N90W
---------+---------+---------+---------+---------+---------+---------+---------+
[...]
  -2.34689   0.82850   1.05131
  -2.39178   0.91829   0.84182
  -2.40675   0.93325   0.82685
  -2.46660   0.90332   0.61736
  -2.33193   0.76865   0.64729
  -2.42171   0.70879   0.57247
  -2.43667   0.75369   0.49765
  -2.46660   0.66390   0.52758
  -2.37682   0.54419   0.37794
  -2.43667   0.51427   0.33305
  -2.48156   0.46937   0.25823
  -2.51149   0.45441   0.22830
  -2.52646   0.42448   0.06370
  -2.58631   0.43945   0.07867
  -2.55638   0.36463   0.01881
  -2.57135   0.31974  -0.11586
  -2.63120   0.45441  -0.29543
  -2.52646   0.25988  -0.29543
  -2.54142   0.25988  -0.50492
  -2.66113   0.34966  -0.62463
  -2.52646   0.25988  -0.74434
  -2.45164   0.24492  -0.89398
  -2.34689   0.21499  -0.96880
  -2.24214   0.21499  -1.14836
  -2.07754   0.15514  -1.25311
  -1.95783   0.08032  -1.35785
  -1.71841   0.06535  -1.50749
  -1.55381   0.02046  -1.49253
  -1.40417   0.02046  -1.58231
  -1.31439   0.14017  -1.64217
  -1.14979   0.21499  -1.55238
  -1.06001   0.27485  -1.52246
  -1.04504   0.28981  -1.65713
  -1.06001   0.37959  -1.62720
  -0.94030   0.34966  -1.73195
  -0.94030   0.39456  -1.73195
  -0.92533   0.43945  -1.73195
  -0.83555   0.39456  -1.73195
  -0.92533   0.40952  -1.74691
  -0.97022   0.45441  -1.77684
  -1.01512   0.51427  -1.67209
  -1.00015   0.52923  -1.61224
  -1.04504   0.46937  -1.49253
  -1.01512   0.55916  -1.46260
  -1.10490   0.54419  -1.44764
  -1.10490   0.54419  -1.38778
  -1.14979   0.58908  -1.29800
  -1.17972   0.60405  -1.13340
  -1.23957   0.67887  -1.07354
  -1.17972   0.66390  -0.93887
  -1.17972   0.72376  -0.80419
  -1.11986   0.67887  -0.62463
  -1.16475   0.79858  -0.50492
  -1.08993   0.69383  -0.22061
  -0.98519   0.76865  -0.17572
  -0.91037   0.73872   0.04874
  -0.88044   0.76865   0.07867
  -0.70088   0.79858   0.18341
  -0.68591   0.79858   0.30312
  -0.50635   0.81354   0.28816
  -0.37167   0.85843   0.49765
  -0.19211   0.84347   0.51262
  -0.02751   0.82850   0.54254
   0.06228   0.93325   0.57247
   0.28673   0.79858   0.64729
   0.37651   0.90332   0.78196
   0.64586   0.70879   0.88671
   0.76557   0.75369   0.85678
   0.91521   0.66390   0.84182
   1.06485   0.57412   0.81189
   1.21448   0.45441   0.81189
   1.33419   0.43945   0.87175
   1.34916   0.40952   0.85678
   1.52872   0.28981   0.82685
   1.61851   0.15514   0.79693
   1.72325   0.05039   0.79693
   1.87289   0.03543   0.72211
   1.88785   0.00550   0.75204
   2.06742  -0.12918   0.63233
   2.12727  -0.14414   0.52758
   2.20209  -0.18903   0.51262
   2.29188  -0.26385   0.22830
   2.23202  -0.27881   0.21334
   2.41159  -0.44342   0.10859
   2.42655  -0.53320   0.07867
   2.44151  -0.51823  -0.02608
   2.56122  -0.74269  -0.01112
   2.54626  -0.74269  -0.22061
   2.53130  -0.81751  -0.26550
   2.69590  -0.95218  -0.26550
   2.71086  -0.98211  -0.43010
   2.81561  -1.05693  -0.54981
   2.84553  -1.13175  -0.59470
   2.87546  -1.26642  -0.68448
   2.87546  -1.25146  -0.99872
   3.01014  -1.35620  -1.04362
   2.93532  -1.41606  -1.40275
   2.99517  -1.46095  -1.52246
   3.01014  -1.47591  -1.74691
   3.05503  -1.43102  -1.95640
   3.05503  -1.46095  -2.18086
   3.08495  -1.43102  -2.19582
   3.04006  -1.40110  -2.31553
   3.06999  -1.37117  -2.52503
   3.11488  -1.31131  -2.49510
   3.05503  -1.37117  -2.53999
   3.01014  -1.32628  -2.58488
   3.04006  -1.40110  -2.46517
   2.89043  -1.29635  -2.55495
   2.87546  -1.29635  -2.53999
   2.86050  -1.19160  -2.42028
   2.71086  -1.11678  -2.25568
   2.65101  -1.10182  -2.18086
   2.62108  -0.93722  -1.97137
   2.38166  -0.86240  -1.95640
   2.29188  -0.72773  -1.83669
   2.17217  -0.69780  -1.61224
   1.97764  -0.60802  -1.38778
   1.75318  -0.59305  -1.23814
   1.63347  -0.48831  -1.04362
   1.36412  -0.35363  -0.87901
   1.15463  -0.33867  -0.81916
   1.01996  -0.30874  -0.60967
   0.91521  -0.20399  -0.34032
   0.70572  -0.03939  -0.28046
   0.55608   0.00550  -0.11586
   0.46630   0.09528   0.00385
   0.34659   0.14017   0.10859
   0.19695   0.17010   0.10859
   0.06228   0.21499   0.10859
  -0.01254   0.22995   0.07867
  -0.14722   0.25988   0.09363
  -0.23700   0.21499  -0.08593
  -0.34175   0.24492  -0.07097
  -0.40160   0.20003  -0.22061
  -0.53628   0.22995  -0.23557
  -0.53628   0.25988  -0.37025
  -0.62606   0.22995  -0.50492
  -0.65599   0.22995  -0.51988
  -0.79066   0.25988  -0.63959
  -0.83555   0.20003  -0.74434
  -0.85051   0.05039  -0.75930
  -0.79066   0.02046  -0.74434
  -0.77570   0.06535  -0.83412
  -0.73080   0.05039  -0.93887
  -0.77570   0.02046  -0.89398
  -0.58117   0.00550  -0.89398
  -0.43153  -0.02443  -0.90894
  -0.41656   0.00550  -0.93887
  -0.23700   0.00550  -1.01369
  -0.08736   0.05039  -0.99872
   0.06228   0.05039  -0.96880
   0.18199  -0.00947  -0.99872
   0.33162  -0.05436  -0.90894
   0.46630  -0.02443  -0.89398
   0.61593  -0.06932  -0.80419
   0.51119   0.00550  -0.68448
   0.78054  -0.08428  -0.71441
   0.87032  -0.05436  -0.56477
   0.90025  -0.06932  -0.53485
   0.93017  -0.17407  -0.34032
   0.91521   0.02046  -0.38521
   0.97506  -0.06932  -0.11586
   1.03492   0.06535  -0.14579
   1.00499   0.09528  -0.04104
   0.97506   0.09528   0.16845
   0.91521   0.20003   0.31809
   0.97506   0.22995   0.22830
   0.82543   0.25988   0.40787
   0.72068   0.42448   0.39291
   0.67579   0.40952   0.49765
   0.55608   0.46937   0.57247
   0.46630   0.45441   0.67722
   0.34659   0.39456   0.79693
   0.22688   0.52923   0.72211
   0.15206   0.42448   0.90167
  -0.02751   0.54419   0.97649
  -0.07240   0.54419   0.88671
  -0.16218   0.46937   0.96153
  -0.26693   0.52923   0.96153
  -0.29685   0.42448   0.94657
  -0.31182   0.34966   0.88671
  -0.35671   0.30477   0.84182
  -0.34175   0.25988   0.73707
  -0.34175   0.17010   0.67722
  -0.37167   0.24492   0.49765
  -0.26693   0.14017   0.48269
  -0.20707   0.30477   0.19838
  -0.13225   0.33470   0.19838
  -0.14722   0.45441  -0.11586
  -0.11729   0.51427  -0.26550
  -0.08736   0.55916  -0.29543
  -0.10233   0.64894  -0.43010
  -0.01254   0.60405  -0.57974
  -0.01254   0.67887  -0.68448
   0.12213   0.67887  -0.74434
   0.15206   0.63398  -0.78923
   0.16702   0.82850  -0.93887
   0.30170   0.73872  -0.78923
   0.37651   0.72376  -0.87901
   0.57104   0.81354  -0.99872
   0.61593   0.75369  -0.86405
   0.69075   0.90332  -0.78923
   0.79550   0.91829  -0.77427
   0.94514   0.85843  -0.71441
   0.99003   0.93325  -0.56477
   1.16959   0.91829  -0.41514
   1.16959   0.99311  -0.41514
   1.25938   0.76865  -0.10090
   1.39405   0.73872  -0.17572
   1.28930   0.75369   0.00385
   1.31923   0.69383  -0.07097
   1.28930   0.63398   0.21334
   1.19952   0.66390   0.36298
   1.24441   0.54419   0.33305
   1.07981   0.49930   0.51262
   0.99003   0.57412   0.54254
   0.88528   0.48434   0.61736
   0.85535   0.36463   0.78196
   0.73564   0.43945   0.90167
   0.82543   0.21499   0.85678
   0.76557   0.17010   0.90167
   0.67579   0.22995   0.87175
   0.70572   0.08032   0.93160
   0.72068   0.12521   0.97649
   0.73564   0.09528   1.11117
   0.69075   0.09528   1.14109
   0.79550   0.00550   1.30570
   0.82543   0.00550   1.35059
   0.84039  -0.02443   1.42541
   0.96010  -0.05436   1.69475
   0.93017  -0.12918   1.76957
   0.90025  -0.09925   1.84439
   0.93017  -0.12918   2.02396
   0.93017  -0.20399   2.21848
   0.90025  -0.15910   2.32323
   0.91521  -0.17407   2.44294
   0.90025  -0.21896   2.54769
   0.94514  -0.26385   2.81704
   0.94514  -0.32370   2.95171
   0.94514  -0.36860   2.93675
   0.97506  -0.35363   3.10135
   0.91521  -0.41349   3.23602
   0.91521  -0.48831   3.17617
   0.87032  -0.50327   3.25098
   0.82543  -0.54816   3.14624
   0.78054  -0.63794   3.16120
   0.73564  -0.62298   3.01156
   0.67579  -0.65291   2.92178
   0.67579  -0.68284   2.83200
   0.52615  -0.65291   2.63747
   0.37651  -0.68284   2.47287
   0.37651  -0.68284   2.41301
   0.22688  -0.71276   2.12870
   0.04731  -0.62298   1.90425
  -0.07240  -0.63794   1.70972
  -0.31182  -0.57809   1.44037
  -0.58117  -0.51823   1.17102
  -0.83555  -0.41349   0.87175
  -1.08993  -0.44342   0.58743
  -1.46403  -0.35363   0.18341
  -1.82316  -0.30874  -0.13083
  -1.98776  -0.26385  -0.34032
  -2.21222  -0.26385  -0.59470
  -2.40675  -0.29378  -0.87901
  -2.69106  -0.29378  -1.10347
  -2.94544  -0.26385  -1.47756
  -3.12501  -0.23392  -1.50749
  -3.36443  -0.29378  -1.92648
  -3.36443  -0.26385  -1.92648
  -3.61881  -0.24889  -2.28561
  -3.61881  -0.38356  -2.22575
  -3.67866  -0.32370  -2.33050
  -3.73852  -0.33867  -2.27064
  -3.84327  -0.33867  -2.43524
  -3.85823  -0.35363  -2.45021
  -3.75348  -0.33867  -2.28561
  -3.79837  -0.39852  -2.24072
  -3.73852  -0.39852  -2.21079
  -3.57392  -0.45838  -2.00130
  -3.45421  -0.53320  -1.89655
  -3.43924  -0.47334  -1.80677
  -3.34946  -0.45838  -1.59727
  -3.22975  -0.47334  -1.44764
  -3.12501  -0.47334  -1.49253
  -2.90055  -0.45838  -1.28304
  -2.91551  -0.42845  -1.17829
  -2.81077  -0.32370  -1.11843
  -2.76588  -0.39852  -1.10347
  -2.72098  -0.26385  -0.98376
  -2.73595  -0.27881  -0.84909
  -2.60127  -0.30874  -0.78923
  -2.55638  -0.41349  -0.65456
  -2.46660  -0.36860  -0.47499
  -2.55638  -0.24889  -0.53485
  -2.51149  -0.30874  -0.47499
  -2.45164  -0.24889  -0.26550
  -2.54142  -0.23392  -0.23557
  -2.48156  -0.27881  -0.11586
  -2.39178  -0.33867   0.10859
  -2.43667  -0.24889   0.27320
  -2.40675  -0.29378   0.34801
  -2.46660  -0.21896   0.40787
  -2.40675  -0.26385   0.63233
  -2.45164  -0.15910   0.66225
  -2.40675  -0.09925   0.58743
  -2.31696  -0.00947   0.72211
  -2.25711   0.05039   0.87175
  -2.16732   0.00550   0.91664
  -2.12243   0.05039   1.02138
  -1.98776  -0.02443   1.17102
  -2.01769   0.08032   1.11117
  -1.92790   0.05039   1.12613
  -1.77827  -0.02443   1.17102
  -1.73338   0.02046   1.26080
  -1.50892  -0.02443   1.35059
  -1.46403  -0.00947   1.29073
  -1.23957  -0.00947   1.30570
  -1.07497  -0.02443   1.38051
  -0.89541  -0.00947   1.26080
  -0.67095   0.00550   1.32066
  -0.46146   0.05039   1.23088
  -0.19211  -0.02443   1.35059
   0.21191   0.02046   1.23088
   0.51119   0.15514   1.21591
   0.93017   0.09528   1.21591
   1.33419   0.18506   1.03635
   1.75318   0.11024   1.08124
   2.15720   0.24492   0.99146
   2.53130   0.25988   0.97649
   2.92035   0.33470   0.84182
   3.27948   0.33470   0.67722
   3.62365   0.37959   0.72211
   3.96782   0.46937   0.55751
   4.40177   0.49930   0.42283
   4.74593   0.55916   0.31809
   5.06017   0.66390   0.18341
   5.46419   0.64894  -0.02608
   5.80836   0.66390  -0.07097
   6.00289   0.78361  -0.28046
   6.24231   0.75369  -0.47499
   6.52662   0.87340  -0.65456
   6.79597   0.76865  -0.87901
   6.79597   1.03800  -1.13340
   7.00546   0.99311  -1.41771
   7.12517   1.00807  -1.55238
   7.17006   1.14274  -1.86662
   7.03539   1.09785  -1.91151
   6.91568   1.20260  -2.16590
   6.82590   1.09785  -2.33050
   6.64633   1.06792  -2.40532
   6.46676   1.08289  -2.33050
   6.19742   1.05296  -2.51006
   5.92807   0.96318  -2.36043
   5.50908   1.05296  -2.28561
   5.09010   1.03800  -2.24072
   4.80579   0.94821  -2.10604
   4.43169   0.99311  -1.92648
   4.05760   0.88836  -1.79180
   3.72840   0.90332  -1.76188
   3.27948   0.75369  -1.41771
   3.02510   0.67887  -1.26807
   2.81561   0.55916  -1.23814
   2.42655   0.51427  -0.89398
   2.11231   0.46937  -0.83412
   1.72325   0.52923  -0.69945
   1.42398   0.40952  -0.53485
   1.12470   0.46937  -0.47499
   0.76557   0.30477  -0.13083
   0.57104   0.20003  -0.11586
   0.30170   0.25988  -0.19068
  -0.02751   0.18506   0.18341
  -0.04247  -0.03939   0.24327
  -0.35671   0.11024   0.28816
  -0.67095   0.06535   0.52758
  -0.76073   0.05039   0.58743
  -0.98519   0.09528   0.72211
  -1.08993  -0.11421   0.90167
  -1.20964  -0.00947   0.85678
  -1.52388   0.00550   1.09620
  -1.52388  -0.05436   1.03635
  -1.70345   0.06535   0.97649
  -1.74834  -0.09925   1.14109
  -1.86805   0.14017   0.94657
  -2.15236   0.08032   1.18599
  -2.10747  -0.12918   1.15606
  -2.18229   0.03543   0.97649
  -2.28704  -0.15910   1.14109
  -2.46660  -0.03939   1.11117
  -2.52646  -0.06932   1.12613
  -2.52646  -0.21896   1.24584
  -2.55638  -0.29378   1.41044
  -2.64617  -0.29378   1.48526
  -2.63120  -0.38356   1.72468
  -2.67609  -0.32370   1.70972
  -2.61624  -0.50327   2.00899
  -2.57135  -0.50327   1.97906
  -2.69106  -0.44342   2.17359
  -2.54142  -0.72773   2.48783
  -2.54142  -0.63794   2.18856
  -2.58631  -0.75765   2.54769
  -2.55638  -0.71276   2.30827
  -2.63120  -0.93722   2.57761
  -2.52646  -1.04197   2.39805
  -2.61624  -0.87736   2.20352
  -2.70602  -0.99707   2.39805
  -2.79580  -0.92226   2.23345
  -2.84069  -1.01204   2.32323
  -2.90055  -0.95218   2.15863
  -2.94544  -0.99707   2.06885
  -2.99033  -1.11678   2.15863
  -3.13997  -1.04197   2.00899
  -3.19982  -0.99707   1.85935
  -3.15493  -1.14671   1.81446
  -3.22975  -1.13175   1.72468
  -3.21479  -1.13175   1.61993
  -3.16990  -1.07189   1.47030
  -3.13997  -1.07189   1.38051
  -3.12501  -1.08686   1.21591
  -3.09508  -1.07189   0.99146
  -3.03522  -0.92226   0.76700
  -2.96040  -0.98211   0.55751
  -2.90055  -0.92226   0.37794
  -2.79580  -0.99707   0.16845
  -2.75091  -0.90729  -0.13083
  -2.75091  -0.92226  -0.32535
  -2.67609  -0.95218  -0.48996
  -2.57135  -0.84744  -0.65456
  -2.54142  -0.75765  -0.86405
  -2.55638  -0.66787  -0.95383
  -2.52646  -0.62298  -1.04362
  -2.36185  -0.53320  -1.19325
  -2.39178  -0.47334  -1.08851
  -2.37682  -0.36860  -1.28304
  -2.30200  -0.24889  -1.28304
  -2.27207  -0.17407  -1.25311
  -2.21222  -0.12918  -1.22318
  -2.19725   0.02046  -1.16333
  -2.25711   0.08032  -1.11843
  -2.19725   0.12521  -1.10347
  -2.24214   0.22995  -1.10347
  -2.24214   0.22995  -1.08851
  -2.15236   0.22995  -1.16333
  -2.13740   0.24492  -1.13340
  -2.07754   0.24492  -1.16333
  -2.09251   0.25988  -1.35785
  -2.03265   0.22995  -1.26807
  -2.00272   0.24492  -1.25311
  -2.03265   0.22995  -1.38778
  -1.97280   0.17010  -1.40275
  -1.86805   0.08032  -1.41771
  -1.80819   0.14017  -1.43267
  -1.79323   0.15514  -1.43267
  -1.49396   0.02046  -1.44764
  -1.43410   0.02046  -1.37282
  -1.16475  -0.03939  -1.55238
  -0.98519  -0.08428  -1.38778
  -0.74577  -0.14414  -1.44764
  -0.38664  -0.12918  -1.41771
  -0.01254  -0.23392  -1.35785
   0.15206  -0.15910  -1.37282
   0.49622  -0.14414  -1.53742
   0.82543  -0.15910  -1.44764
   1.18456  -0.11421  -1.40275
   1.43894  -0.14414  -1.35785
   1.69333  -0.09925  -1.47756
   2.05246  -0.08428  -1.44764
   2.24698  -0.08428  -1.31296
   2.56122  -0.03939  -1.19325
   2.81561  -0.03939  -1.05858
   3.04006   0.00550  -1.02865
   3.21963   0.09528  -0.89398
   3.33934   0.08032  -0.78923
   3.47401   0.12521  -0.69945
   3.54883   0.24492  -0.46003
   3.69847   0.18506  -0.26550
   3.69847   0.28981  -0.28046
   3.77329   0.33470  -0.19068
   3.83314   0.37959   0.07867
   3.87803   0.42448   0.16845
   3.89300   0.45441   0.34801
   3.75832   0.60405   0.34801
   3.78825   0.66390   0.46772
   3.66854   0.72376   0.61736
   3.65358   0.73872   0.64729
   3.50394   0.81354   0.69218
   3.50394   0.76865   0.73707
   3.44409   0.78361   0.73707
   3.30941   0.75369   0.78196
   3.26452   0.72376   0.78196
   3.17474   0.73872   0.76700
   3.09992   0.78361   0.72211
   3.01014   0.82850   0.69218
   2.96524   0.85843   0.69218
   2.92035   0.84347   0.60240
   2.86050   0.72376   0.57247
