********************************************************************************
               CENTRO DE INSTRUMENTACION Y REGISTRO SISMICO  A.C.  
                       Coordinacion de Servicios Tecnicos
     Anaxagoras 814, Col. Narvarte, Benito Juarez, C.P. 03020 Mexico, D.F.
            Tels. 667 45 42/ 687 45  82             Fax. 669 25 12
********************************************************************************
ARCHIVO ESTANDAR DE ACELERACION:
VERSION DEL FORMATO                    : 2.0
NOMBRE DEL ARCHIVO                     : AU119712.221
FECHA Y HORA DE CREACION               : 18/MAR/98, 13:30
REF. CATALOGO ACELEROGRAMAS, SMIS 1996 : REGISTRO No.     /PAG.


================================================================================
DATOS DE LA ESTACION:
NOMBRE DE LA ESTACION                  : AUTODROMO
CLAVE DE LA ESTACION                   : AU11
LOCALIZACION DE LA ESTACION            : AUTODROMO HERMANOS RODRIGUEZ,
                                       : CHURUBUSCO, CD. DEPORTIVA
                                       :
                                       :
                                       :
COORDENADAS DE LA ESTACION             : 19.392 LAT. N 
                                       : 99.087 LONG. W 
ALTITUD (msnm)                         : 2234
TIPO DE SUELO                          : TERRENO BLANDO, MATERIAL COMPRESIBLE
                                       : (ARCILLAS)
                                       : 
INSTITUCION RESPONSABLE                : CIRES 
                                       :

================================================================================
DATOS DEL ACELEROGRAFO:
MODELO DEL ACELEROGRAFO                : SSA-1
NUMERO DE SERIE DEL ACELEROGRAFO       : 157
NUMERO DE CANALES                      : 3
ORIENTACION C1-C6 (rumbo;orientacion)  : /N00E/+V/N90E
ORIENTACION C7-C12 (rumbo;orientacion) :
VEL. DE MUESTREO, C1-C6 (muestras/s)   : /200/200/200
VEL. DE MUESTREO, C7-C12 (muestras/s)  :
ESC. COMPLETA DE SENSORES, C1-C6, (g)  : /2/2/2
ESC. COMPLETA DE SENSORES, C7-C12, (g) :
FREC. NAT. DE SENSORES, C1-C6, (Hz)    : /51.77/52.56/52.29
FREC. NAT. DE SENSORES, C7-C12, (Hz)   :
AMORTIGUAMIENTO DE SENSORES, C1-C6     : /.5912/.6083/.6067
AMORTIGUAMIENTO DE SENSORES, C7-C12    :
INTERVALO DE MUESTREO, C1-C6, (s)      : /0.005/0.005/0.005
INTERVALO DE MUESTREO, C7-C12, (s)     :
UMBRAL DE DISPARO, C1-C6, (Gal)        : /2/2/2
UMBRAL DE DISPARO, C7-C12, (Gal)       :
MEMORIA DE PREEVENTO (s)               : 15
TIEMPO DE POSEVENTO (s)                : 60


================================================================================
DATOS DEL SISMO:
FECHA DEL SISMO (GMT)                  : 22/DIC/97
HORA EPICENTRO (GMT)                   : 05:22:07:8
MAGNITUD(ES)                           : /Ms=5.0
COORDENADAS DEL EPICENTRO              : 17.1 LAT. N
                                       : 101.2 LONG. W
PROFUNDIDAD FOCAL (km)                 : 5.0
FUENTE DE LOS DATOS EPICENTRALES       : SSN
                                       : INSTITUTO DE GEOFISICA, UNAM

================================================================================
DATOS DE ESTE REGISTRO:
HORA DE LA PRIMERA MUESTRA (GMT)       : 05:23:50.00
EXACTITUD DEL TIEMPO (s)               :     
DURACION DEL REGISTRO (s), C1-C6       : /83.20/83.20/83.20
DURACION DEL REGISTRO (s), C7-C12      :
NUM. TOTAL DE MUESTRAS, C1-C6          : /16640/16640/16640
NUM. TOTAL DE MUESTRAS, C7-C12         :
ACEL. MAX. (Gal), C1-C6                : /2.44039/0.91643/1.48069
ACEL. MAX., C1-C6, EN LA MUESTRA       :
ACEL. MAX. (Gal), C7-C12               :
ACEL. MAX., C7-C12, EN LA MUESTRA      :
UNIDADES DE LOS DATOS                  : Gal (cm/s/s)
FACTOR DE DECIMACION                   : 1
FORMATO DATOS (FORTRAN,10 campos/dato) : 3F10.5


================================================================================
CALIDAD DEL ACELEROGRAMA:
REGISTRO DIGITAL COMPLETO, CARECE DE TIEMPO ABSOLUTO.


================================================================================
COMENTARIOS:














================================================================================
DATOS DE ACELERACION:
---------+---------+---------+---------+---------+---------+---------+---------+
   CANAL-1   CANAL-2   CANAL-3   CANAL-4   CANAL-5   CANAL-6   CANAL-7   CANAL-8
      N00E        +V      N90E
---------+---------+---------+---------+---------+---------+---------+---------+
[...]
   1.00039  -0.19643   0.76069
   1.00039  -0.19643   0.76069
   1.00039  -0.19643   0.76069
   1.24039  -0.19643   0.76069
   1.24039  -0.19643   0.76069
   1.24039  -0.19643   0.76069
   1.24039  -0.19643   0.76069
   1.24039  -0.19643   0.76069
   1.48039  -0.19643   0.76069
   1.48039  -0.19643   0.76069
   1.48039  -0.19643   0.76069
   1.48039  -0.19643   0.76069
   1.48039  -0.19643   0.76069
   1.48039  -0.19643   0.76069
   1.48039  -0.19643   0.76069
   1.48039  -0.19643   0.52069
   1.48039  -0.19643   0.76069
   1.72039  -0.19643   0.76069
   1.48039  -0.19643   0.52069
   1.48039  -0.19643   0.76069
   1.48039  -0.19643   0.52069
   1.48039  -0.19643   0.52069
   1.72039  -0.19643   0.52069
   1.72039  -0.19643   0.52069
   1.48039  -0.19643   0.52069
   1.72039  -0.19643   0.52069
   1.72039  -0.19643   0.52069
   1.72039  -0.19643   0.52069
   1.72039  -0.19643   0.52069
   1.72039  -0.19643   0.52069
   1.72039  -0.19643   0.52069
   1.72039  -0.19643   0.52069
   1.72039  -0.19643   0.52069
   1.72039  -0.19643   0.52069
   1.72039  -0.19643   0.52069
   1.72039  -0.19643   0.52069
   1.72039  -0.19643   0.52069
   1.72039  -0.19643   0.52069
   1.72039  -0.19643   0.52069
   1.72039  -0.19643   0.52069
   1.72039  -0.19643   0.28069
   1.72039  -0.19643   0.28069
   1.72039  -0.19643   0.28069
   1.72039  -0.19643   0.28069
   1.72039  -0.43643   0.28069
   1.48039  -0.19643   0.28069
   1.48039  -0.19643   0.28069
   1.48039  -0.19643   0.28069
   1.48039  -0.19643   0.28069
   1.48039  -0.19643   0.28069
   1.48039  -0.19643   0.28069
   1.48039  -0.19643   0.28069
   1.48039  -0.19643   0.28069
   1.48039  -0.19643   0.28069
   1.48039  -0.19643   0.04069
   1.48039  -0.19643   0.04069
   1.48039   0.04357   0.04069
   1.48039  -0.19643   0.04069
   1.48039  -0.19643   0.04069
   1.48039  -0.19643   0.04069
   1.48039  -0.19643   0.04069
   1.48039  -0.19643   0.04069
   1.48039  -0.19643   0.04069
   1.48039  -0.19643   0.04069
   1.72039   0.04357  -0.19931
   1.72039  -0.19643   0.04069
   1.48039  -0.19643   0.04069
   1.72039  -0.19643   0.04069
   1.72039  -0.19643   0.04069
   1.72039  -0.19643  -0.19931
   1.72039  -0.19643  -0.19931
   1.72039  -0.19643  -0.19931
   1.72039  -0.19643  -0.19931
   1.72039  -0.19643  -0.19931
   1.72039   0.04357  -0.19931
   1.72039  -0.19643  -0.19931
   1.72039   0.04357  -0.19931
   1.72039   0.04357  -0.19931
   1.72039   0.04357  -0.19931
   1.72039   0.04357  -0.19931
   1.72039   0.04357  -0.19931
   1.72039   0.04357  -0.43931
   1.72039   0.04357  -0.43931
   1.72039   0.04357  -0.43931
   1.72039   0.04357  -0.43931
   1.72039   0.04357  -0.43931
   1.72039   0.04357  -0.43931
   1.72039   0.04357  -0.43931
   1.72039   0.04357  -0.43931
   1.48039   0.04357  -0.67931
   1.48039   0.04357  -0.67931
   1.48039   0.04357  -0.67931
   1.48039   0.04357  -0.67931
   1.48039   0.04357  -0.67931
   1.48039   0.04357  -0.67931
   1.24039   0.04357  -0.67931
   1.24039   0.04357  -0.67931
   1.24039   0.04357  -0.67931
   1.24039   0.04357  -0.67931
   1.24039   0.04357  -0.67931
   1.24039   0.04357  -0.67931
   1.00039   0.04357  -0.67931
   1.24039   0.04357  -0.91931
   1.00039   0.04357  -0.67931
   1.00039   0.04357  -0.91931
   1.00039   0.04357  -0.67931
   1.00039   0.04357  -0.91931
   1.00039   0.04357  -0.67931
   1.00039   0.04357  -0.67931
   1.00039   0.04357  -0.67931
   1.00039   0.04357  -0.67931
   0.76039   0.04357  -0.67931
   0.76039   0.04357  -0.67931
   0.76039   0.04357  -0.67931
   0.76039   0.04357  -0.67931
   0.76039   0.04357  -0.67931
   0.52039   0.04357  -0.67931
   0.52039   0.04357  -0.67931
   0.52039   0.04357  -0.67931
   0.52039   0.04357  -0.67931
   0.28039   0.04357  -0.43931
   0.28039   0.04357  -0.43931
   0.28039   0.04357  -0.43931
   0.28039   0.04357  -0.43931
   0.04039   0.04357  -0.43931
   0.04039   0.04357  -0.43931
   0.04039   0.04357  -0.43931
  -0.19961   0.28357  -0.43931
  -0.19961   0.04357  -0.43931
  -0.19961   0.04357  -0.43931
  -0.19961   0.28357  -0.43931
  -0.42961   0.04357  -0.43931
  -0.42961   0.28357  -0.43931
  -0.42961   0.28357  -0.43931
  -0.42961   0.04357  -0.19931
  -0.42961   0.28357  -0.43931
  -0.42961   0.04357  -0.43931
  -0.66961   0.28357  -0.43931
  -0.66961   0.04357  -0.43931
  -0.66961   0.28357  -0.43931
  -0.90961   0.28357  -0.43931
  -0.90961   0.28357  -0.43931
  -0.90961   0.28357  -0.19931
  -0.90961   0.28357  -0.19931
  -0.90961   0.28357  -0.43931
  -0.90961   0.28357  -0.19931
  -0.90961   0.28357  -0.43931
  -1.14961   0.28357  -0.43931
  -1.14961   0.28357  -0.43931
  -1.14961   0.04357  -0.43931
  -1.14961   0.04357  -0.43931
  -1.14961   0.04357  -0.43931
  -1.14961   0.28357  -0.43931
  -1.14961   0.04357  -0.43931
  -1.14961   0.04357  -0.43931
  -1.38961   0.28357  -0.43931
  -1.38961   0.28357  -0.43931
  -1.38961   0.28357  -0.43931
  -1.38961   0.28357  -0.43931
  -1.38961   0.28357  -0.43931
  -1.38961   0.28357  -0.43931
  -1.38961   0.28357  -0.43931
  -1.62961   0.28357  -0.43931
  -1.38961   0.28357  -0.43931
  -1.62961   0.28357  -0.67931
  -1.62961   0.28357  -0.43931
  -1.62961   0.28357  -0.43931
  -1.62961   0.28357  -0.67931
  -1.62961   0.28357  -0.67931
  -1.62961   0.28357  -0.67931
  -1.62961   0.28357  -0.67931
  -1.86961   0.28357  -0.67931
  -1.86961   0.52357  -0.67931
  -1.86961   0.28357  -0.67931
  -1.86961   0.52357  -0.67931
  -1.86961   0.52357  -0.67931
  -1.86961   0.28357  -0.67931
  -2.10961   0.52357  -0.67931
  -2.10961   0.52357  -0.43931
  -2.10961   0.52357  -0.43931
  -2.10961   0.28357  -0.43931
  -2.10961   0.52357  -0.43931
  -2.10961   0.52357  -0.43931
  -2.10961   0.52357  -0.43931
  -2.10961   0.52357  -0.43931
  -2.10961   0.52357  -0.43931
  -2.10961   0.52357  -0.43931
  -2.34961   0.52357  -0.43931
  -2.10961   0.52357  -0.19931
  -2.10961   0.52357  -0.19931
  -2.34961   0.52357  -0.19931
  -2.34961   0.52357  -0.19931
  -2.34961   0.52357  -0.19931
  -2.34961   0.52357  -0.19931
  -2.34961   0.52357  -0.19931
  -2.34961   0.52357  -0.19931
  -2.34961   0.52357  -0.19931
  -2.34961   0.28357  -0.19931
  -2.34961   0.28357  -0.19931
  -2.34961   0.28357  -0.19931
  -2.34961   0.28357  -0.19931
  -2.34961   0.28357  -0.19931
  -2.34961   0.28357   0.04069
  -2.34961   0.28357   0.04069
  -2.34961   0.28357  -0.19931
  -2.34961   0.28357  -0.19931
  -2.10961   0.28357  -0.19931
  -2.34961   0.28357  -0.19931
  -2.34961   0.28357   0.04069
  -2.34961   0.28357  -0.19931
  -2.10961   0.28357  -0.19931
  -2.10961   0.28357  -0.19931
  -2.10961   0.28357   0.04069
  -2.10961   0.28357  -0.19931
  -2.10961   0.28357  -0.19931
  -2.10961   0.28357  -0.19931
  -2.10961   0.28357  -0.19931
  -2.10961   0.28357  -0.19931
  -1.86961   0.28357  -0.19931
  -2.10961   0.28357  -0.19931
  -2.10961   0.28357  -0.19931
  -2.10961   0.28357  -0.19931
  -2.10961   0.28357  -0.19931
  -1.86961   0.28357  -0.19931
  -1.86961   0.28357  -0.19931
  -2.10961   0.28357  -0.19931
  -1.86961   0.28357  -0.19931
  -1.86961   0.28357  -0.19931
  -1.86961   0.28357  -0.19931
  -1.86961   0.04357  -0.19931
  -1.86961   0.04357  -0.43931
  -1.86961   0.28357   0.04069
  -1.86961   0.04357   0.04069
  -1.86961   0.04357   0.04069
  -1.86961   0.28357   0.04069
  -1.86961   0.28357   0.04069
  -1.86961   0.04357   0.04069
  -1.86961   0.04357   0.04069
  -1.86961   0.28357   0.04069
  -1.86961   0.28357   0.04069
  -1.62961   0.28357   0.04069
  -1.62961   0.04357   0.04069
  -1.62961   0.04357   0.04069
  -1.62961   0.28357   0.04069
  -1.62961   0.04357   0.04069
  -1.62961   0.04357   0.04069
  -1.62961   0.04357   0.04069
  -1.62961   0.28357   0.04069
  -1.62961   0.28357   0.04069
  -1.62961   0.04357   0.04069
  -1.38961   0.28357   0.04069
  -1.38961   0.04357   0.04069
  -1.38961   0.28357   0.04069
  -1.38961   0.04357   0.04069
  -1.38961   0.04357   0.04069
  -1.38961   0.04357   0.04069
  -1.62961   0.04357   0.04069
  -1.14961   0.04357   0.04069
  -1.14961   0.04357   0.04069
  -1.14961   0.04357   0.04069
  -1.14961   0.04357  -0.19931
  -1.14961   0.04357  -0.19931
  -1.14961   0.04357  -0.19931
  -0.90961   0.04357  -0.19931
  -0.90961   0.04357  -0.19931
  -0.90961   0.04357  -0.19931
  -0.66961   0.04357  -0.19931
  -0.66961   0.04357  -0.19931
  -0.66961   0.04357  -0.19931
  -0.66961   0.04357  -0.19931
  -0.66961   0.04357  -0.19931
  -0.42961   0.28357  -0.19931
  -0.42961   0.04357  -0.19931
  -0.42961   0.04357  -0.19931
  -0.42961   0.04357  -0.19931
  -0.42961   0.04357  -0.19931
  -0.42961   0.04357  -0.19931
  -0.42961   0.04357  -0.19931
  -0.19961   0.04357  -0.19931
  -0.19961   0.04357  -0.19931
  -0.19961   0.04357  -0.19931
  -0.19961   0.04357  -0.19931
  -0.19961   0.04357  -0.19931
  -0.19961   0.04357  -0.19931
  -0.19961   0.04357  -0.19931
  -0.19961   0.04357  -0.19931
  -0.19961   0.04357  -0.19931
   0.04039   0.04357  -0.19931
   0.04039   0.04357  -0.19931
   0.04039   0.04357  -0.19931
   0.04039  -0.19643   0.04069
   0.04039   0.04357   0.04069
   0.04039  -0.19643   0.04069
   0.04039  -0.19643   0.04069
   0.04039  -0.19643   0.04069
   0.28039  -0.19643   0.04069
   0.28039  -0.19643   0.04069
   0.28039  -0.19643   0.04069
   0.28039  -0.19643   0.04069
   0.28039  -0.19643   0.04069
   0.28039  -0.19643   0.04069
   0.52039  -0.19643   0.04069
   0.52039  -0.19643   0.04069
   0.52039  -0.19643   0.28069
   0.52039  -0.19643   0.28069
   0.52039  -0.19643   0.04069
   0.52039  -0.19643   0.04069
   0.52039  -0.19643   0.04069
   0.76039  -0.19643   0.28069
   0.76039  -0.43643   0.28069
   0.76039  -0.19643   0.28069
   0.76039  -0.19643   0.04069
   1.00039  -0.19643   0.28069
   1.00039  -0.19643   0.28069
   1.00039  -0.19643   0.28069
   1.00039  -0.19643   0.28069
   1.00039  -0.43643   0.28069
   1.24039  -0.19643   0.04069
   1.24039  -0.19643   0.28069
   1.24039  -0.43643   0.28069
   1.24039  -0.43643   0.28069
   1.24039  -0.43643   0.28069
   1.48039  -0.43643   0.28069
   1.48039  -0.43643   0.04069
   1.48039  -0.43643   0.28069
   1.48039  -0.43643   0.28069
   1.48039  -0.43643   0.04069
   1.72039  -0.43643   0.04069
   1.72039  -0.43643   0.04069
   1.72039  -0.43643   0.04069
   1.96039  -0.43643   0.04069
   1.96039  -0.43643   0.04069
   1.96039  -0.43643   0.04069
   1.96039  -0.91643   0.04069
   1.96039  -0.43643   0.04069
   1.96039  -0.43643   0.04069
   1.96039  -0.43643   0.04069
   1.96039  -0.43643  -0.19931
   2.20039  -0.43643   0.04069
   1.96039  -0.43643   0.04069
   2.20039  -0.43643   0.04069
   2.20039  -0.43643   0.04069
   2.20039  -0.43643   0.04069
   2.20039  -0.43643   0.04069
   2.20039  -0.43643   0.04069
   2.20039  -0.43643   0.04069
   2.20039  -0.43643   0.04069
   2.20039  -0.43643   0.04069
   2.20039  -0.43643   0.04069
   2.44039  -0.43643   0.04069
   2.44039  -0.43643   0.04069
   2.44039  -0.43643   0.04069
   2.44039  -0.43643   0.04069
   2.44039  -0.43643   0.04069
   2.44039  -0.43643   0.04069
   2.44039  -0.43643   0.04069
   2.44039  -0.43643   0.28069
   2.44039  -0.43643   0.28069
   2.44039  -0.43643   0.28069
   2.44039  -0.43643   0.28069
   2.44039  -0.43643   0.28069
   2.44039  -0.43643   0.28069
   2.44039  -0.43643   0.28069
   2.44039  -0.43643   0.28069
   2.44039  -0.43643   0.28069
   2.44039  -0.43643   0.28069
   2.44039  -0.43643   0.28069
   2.44039  -0.19643   0.52069
   2.44039  -0.19643   0.52069
   2.44039  -0.43643   0.52069
   2.44039  -0.43643   0.52069
   2.44039  -0.43643   0.52069
   2.44039  -0.43643   0.52069
   2.20039  -0.43643   0.52069
   2.20039  -0.43643   0.52069
   2.20039  -0.43643   0.52069
   2.20039  -0.43643   0.52069
   2.20039  -0.43643   0.52069
   2.20039  -0.43643   0.52069
   2.20039  -0.19643   0.52069
   1.96039  -0.43643   0.52069
   1.96039  -0.43643   0.76069
   1.96039  -0.43643   0.52069
   1.96039  -0.43643   0.52069
   1.96039  -0.43643   0.52069
   1.96039  -0.43643   0.52069
   1.96039  -0.19643   0.52069
   1.96039  -0.19643   0.52069
   1.96039  -0.19643   0.52069
   1.96039  -0.19643   0.52069
   1.72039  -0.19643   0.52069
   1.96039  -0.19643   0.52069
   1.72039  -0.19643   0.52069
   1.72039  -0.19643   0.52069
   1.72039  -0.19643   0.52069
   1.72039  -0.19643   0.52069
   1.72039  -0.19643   0.52069
   1.48039  -0.19643   0.28069
   1.72039  -0.19643   0.28069
   1.72039  -0.19643   0.28069
   1.72039  -0.19643   0.28069
   1.72039  -0.19643   0.28069
   1.48039  -0.19643   0.28069
   1.72039  -0.19643   0.28069
   1.48039  -0.19643   0.04069
   1.72039  -0.19643   0.04069
   1.48039  -0.19643   0.04069
   1.48039  -0.19643   0.04069
   1.48039  -0.19643  -0.19931
   1.48039  -0.19643  -0.19931
   1.48039   0.04357  -0.19931
   1.48039  -0.19643  -0.19931
   1.48039  -0.19643  -0.19931
   1.48039   0.04357  -0.43931
   1.24039   0.04357  -0.43931
   1.48039   0.04357  -0.43931
   1.24039   0.04357  -0.43931
   1.48039   0.04357  -0.43931
   1.24039   0.04357  -0.43931
   1.24039   0.04357  -0.43931
   1.24039   0.04357  -0.43931
   1.24039   0.04357  -0.43931
   1.24039   0.04357  -0.67931
   1.24039   0.04357  -0.67931
   1.24039   0.04357  -0.67931
   1.24039   0.04357  -0.91931
   1.24039   0.04357  -0.67931
   1.00039   0.04357  -0.67931
   1.00039   0.04357  -0.67931
   1.00039   0.04357  -0.67931
   1.00039   0.04357  -0.67931
   1.00039   0.04357  -0.67931
   1.00039   0.04357  -0.67931
   1.00039   0.04357  -0.67931
   0.76039   0.04357  -0.67931
   0.76039   0.28357  -0.67931
   0.76039   0.04357  -0.67931
   0.76039   0.28357  -0.67931
   0.76039   0.28357  -0.67931
   0.76039   0.28357  -0.67931
   0.76039   0.28357  -0.67931
   0.52039   0.28357  -0.67931
   0.52039   0.28357  -0.67931
   0.52039   0.28357  -0.43931
   0.52039   0.28357  -0.43931
   0.52039   0.28357  -0.43931
   0.52039   0.04357  -0.43931
   0.52039   0.28357  -0.43931
   0.28039   0.28357  -0.43931
   0.28039   0.28357  -0.43931
   0.28039   0.28357  -0.43931
   0.28039   0.28357  -0.43931
   0.28039   0.28357  -0.19931
   0.28039   0.28357  -0.19931
   0.04039   0.52357  -0.67931
   0.28039   0.52357  -0.19931
   0.04039   0.52357  -0.19931
   0.04039   0.52357  -0.19931
   0.04039   0.52357  -0.19931
   0.04039   0.52357  -0.19931
  -0.19961   0.52357  -0.19931
  -0.19961   0.52357  -0.19931
  -0.19961   0.52357   0.04069
  -0.19961   0.52357   0.04069
  -0.19961   0.52357   0.04069
  -0.19961   0.04357   0.04069
  -0.19961   0.52357   0.04069
  -0.42961   0.28357   0.28069
  -0.42961   0.52357   0.28069
  -0.42961   0.52357   0.28069
  -0.42961   0.52357   0.28069
  -0.42961   0.52357   0.28069
  -0.42961   0.52357   0.28069
  -0.42961   0.28357   0.28069
  -0.66961   0.28357   0.28069
  -0.66961   0.28357   0.52069
  -0.66961   0.28357   0.52069
  -0.66961   0.28357   0.52069
  -0.66961   0.28357   0.52069
  -0.66961   0.28357   0.52069
  -0.66961   0.28357   0.52069
  -0.90961   0.28357   0.76069
  -0.90961   0.28357   0.52069
  -0.90961   0.28357   0.76069
  -0.90961   0.28357   0.76069
  -0.90961   0.28357   0.76069
  -0.90961   0.28357   0.76069
  -1.14961   0.28357   0.76069
  -0.90961   0.28357   0.76069
  -1.14961   0.28357   0.76069
  -1.14961   0.28357   1.00069
  -1.14961   0.28357   1.00069
  -1.38961   0.28357   1.00069
  -1.14961   0.28357   1.00069
  -1.14961   0.28357   1.00069
  -1.14961   0.28357   1.00069
  -1.14961   0.28357   1.00069
  -1.14961   0.28357   1.00069
  -1.14961   0.28357   1.00069
  -1.38961   0.28357   1.00069
