********************************************************************************
              CENTRO DE INSTRUMENTACION Y REGISTRO SISMICO  A.C.

    Anaxagoras 814, Col. Narvarte, Benito Juarez, C.P. 03020 Mexico, D.F.
           Tels. 5687 45 42/ 5687 45  82             Fax. 5669 25 12
********************************************************************************
ARCHIVO ESTANDAR DE ACELERACION:
VERSION DEL FORMATO                    : 2.0
NOMBRE DEL ARCHIVO                     : AU1120130220212311
FECHA Y HORA DE CREACION               : 11/MAR/13, 10:48
REF. CATALOGO ACELEROGRAMAS, SMIS 1996 : REGISTRO No.     /PAG.


================================================================================
DATOS DE LA ESTACION:
NOMBRE DE LA ESTACION                  : AUTÓDROMO
CLAVE DE LA ESTACION                   : AU11
LOCALIZACION DE LA ESTACION            : Del. Iztacalco, Cd. Deportiva          
                                       : Magdalena Mixhuca,                     
                                       : Col. Granjas México                    
                                       :                                        
                                       : 
COORDENADAS DE LA ESTACION             : 19.3919 LAT. N
                                       : 99.0869 LONG. W
ALTITUD (msnm)                         : 2234
TIPO DE SUELO                          : Terreno blando, material compresible
                                       : (arcillas)                
                                       : 
INSTITUCION RESPONSABLE                : CIRES
                                       : 

================================================================================
DATOS DEL ACELEROGRAFO:
MODELO DEL ACELEROGRAFO                : RADESD
NUMERO DE SERIE DEL ACELEROGRAFO       : 157
NUMERO DE CANALES                      : 3
ORIENTACION C1-C6 (rumbo;orientacion)  : /N00E/+V/N90W
ORIENTACION C7-C12 (rumbo;orientacion) : 
VEL. DE MUESTREO, C1-C6 (muestras/s)   : /100/100/100
VEL. DE MUESTREO, C7-C12 (muestras/s)  : 
ESC. COMPLETA DE SENSORES, C1-C6, (g)  : /0.5/0.5/0.5
ESC. COMPLETA DE SENSORES, C7-C12, (g) : 
FREC. NAT. DE SENSORES, C1-C6, (Hz)    : /51.77/52.56/52.29
FREC. NAT. DE SENSORES, C7-C12, (Hz)   : 
AMORTIGUAMIENTO DE SENSORES, C1-C6     : /0.5912/0.6083/0.6067
AMORTIGUAMIENTO DE SENSORES, C7-C12    : 
INTERVALO DE MUESTREO, C1-C6, (s)      : /0.01/0.01/0.01
INTERVALO DE MUESTREO, C7-C12, (s)     : 
UMBRAL DE DISPARO, C1-C6, (Gal)        : /11.49/30.65/11.49
UMBRAL DE DISPARO, C7-C12, (Gal)       : 
MEMORIA DE PREEVENTO (s)               : 56.0
TIEMPO DE POSEVENTO (s)                : 80.0


================================================================================
DATOS DEL SISMO:
FECHA DEL SISMO (GMT)                  : 20/FEB/13
HORA EPICENTRO (GMT)                   : 21:23:11.0
MAGNITUD(ES)                           : /Mc=5.6
COORDENADAS DEL EPICENTRO              : 18.60 LAT. N
                                       : 104.04 LONG. W
PROFUNDIDAD FOCAL (km)                 : 5
FUENTE DE LOS DATOS EPICENTRALES       : SSN
                                       : INSTITUTO DE GEOFISICA, UNAM

================================================================================
DATOS DE ESTE REGISTRO:
HORA DE LA PRIMERA MUESTRA (GMT)       : 21:25:50.00
EXACTITUD DEL TIEMPO (s)               : 0.01
DURACION DEL REGISTRO (s), C1-C6       : /168.2/168.2/168.2
DURACION DEL REGISTRO (s), C7-C12      : 
NUM. TOTAL DE MUESTRAS, C1-C6          : /16820/16820/16820
NUM. TOTAL DE MUESTRAS, C7-C12         : 
ACEL. MAX. (Gal), C1-C6                : /1.08417/0.48241/0.91553
ACEL. MAX., C1-C6, EN LA MUESTRA       : /5469/6472/5930
ACEL. MAX. (Gal), C7-C12               : 
ACEL. MAX., C7-C12, EN LA MUESTRA      : 
UNIDADES DE LOS DATOS                  : Gal (cm/s/s)
FACTOR DE DECIMACION                   : 1
FORMATO DATOS (FORTRAN,10 campos/dato) : 3F10.5


================================================================================
CALIDAD DEL ACELEROGRAMA:
REGISTRO DIGITAL COMPLETO CON TIEMPO ABSOLUTO CORRECTO.


================================================================================
COMENTARIOS:














================================================================================
DATOS DE ACELERACION:
---------+---------+---------+---------+---------+---------+---------+---------+
   CANAL-1   CANAL-2   CANAL-3   CANAL-4   CANAL-5   CANAL-6   CANAL-7   CANAL-8
      N00E        +V      N90W
---------+---------+---------+---------+---------+---------+---------+---------+
[...]
  -0.26257  -0.04846   0.02718
  -0.18775  -0.03350   0.04215
  -0.24760  -0.06343   0.01222
  -0.27753  -0.09336   0.02718
  -0.29250  -0.13825   0.04215
  -0.27753  -0.10832   0.05711
  -0.33739  -0.12328   0.02718
  -0.30746  -0.01854   0.02718
  -0.35235  -0.01854   0.02718
  -0.33739  -0.04846   0.04215
  -0.35235  -0.07839   0.01222
  -0.38228  -0.28789  -0.03267
  -0.44213  -0.16818   0.05711
  -0.38228  -0.19810   0.02718
  -0.38228  -0.19810   0.02718
  -0.39724  -0.13825   0.02718
  -0.38228  -0.03350  -0.01771
  -0.41221  -0.12328  -0.01771
  -0.38228  -0.12328  -0.03267
  -0.38228  -0.13825  -0.00275
  -0.42717  -0.22803  -0.03267
  -0.50199  -0.21307  -0.03267
  -0.41221  -0.15321  -0.09253
  -0.45710  -0.21307  -0.16735
  -0.42717  -0.19810  -0.04764
  -0.39724  -0.21307  -0.21224
  -0.38228  -0.12328  -0.13742
  -0.38228  -0.19810  -0.15238
  -0.36731  -0.12328  -0.22720
  -0.38228  -0.33278  -0.45166
  -0.38228  -0.12328  -0.18231
  -0.35235  -0.21307  -0.40677
  -0.30746  -0.24299  -0.45166
  -0.26257  -0.21307  -0.51151
  -0.20271  -0.12328  -0.42173
  -0.20271  -0.25796  -0.40677
  -0.15782  -0.21307  -0.43669
  -0.17279  -0.19810  -0.39180
  -0.12789  -0.19810  -0.52648
  -0.18775  -0.13825  -0.22720
  -0.12789  -0.15321  -0.19727
  -0.09797  -0.13825  -0.24217
  -0.03811  -0.21307  -0.43669
   0.09656  -0.18314  -0.33195
   0.03671  -0.22803  -0.45166
   0.06663  -0.22803  -0.48159
   0.11153  -0.18314  -0.46662
   0.17138  -0.19810  -0.40677
   0.23124  -0.09336  -0.39180
   0.30606  -0.01854  -0.36188
   0.35095   0.02635  -0.27209
   0.32102  -0.04846  -0.18231
   0.27613   0.04132  -0.13742
   0.38087  -0.03350  -0.24217
   0.42577   0.01139  -0.10749
   0.42577   0.14606  -0.03267
   0.48562   0.07125  -0.21224
   0.48562   0.11614  -0.28706
   0.54548   0.10117  -0.21224
   0.51555   0.19096  -0.15238
   0.53051   0.10117  -0.07756
   0.53051   0.10117  -0.07756
   0.56044   0.11614  -0.18231
   0.60533   0.17599  -0.03267
   0.56044   0.23585  -0.10749
   0.56044   0.19096   0.01222
   0.59037   0.19096  -0.01771
   0.60533   0.22088  -0.09253
   0.60533   0.14606  -0.19727
   0.63526   0.20592  -0.16735
   0.60533   0.20592  -0.01771
   0.63526   0.14606  -0.15238
   0.72504   0.17599  -0.19727
   0.63526   0.19096  -0.04764
   0.63526   0.10117  -0.15238
   0.63526   0.22088  -0.18231
   0.60533   0.08621  -0.31698
   0.62029   0.20592  -0.37684
   0.66519   0.16103  -0.25713
   0.66519   0.10117  -0.31698
   0.62029   0.22088  -0.24217
   0.62029   0.16103  -0.18231
   0.59037   0.16103  -0.19727
   0.57540   0.07125  -0.34691
   0.57540   0.11614  -0.34691
   0.56044   0.13110  -0.25713
   0.51555   0.14606  -0.19727
   0.54548   0.10117  -0.33195
   0.48562   0.07125  -0.40677
   0.50058   0.17599  -0.21224
   0.51555   0.10117  -0.37684
   0.41080   0.07125  -0.30202
   0.48562   0.05628  -0.12246
   0.36591   0.07125  -0.22720
   0.24620   0.05628  -0.18231
   0.39584   0.14606  -0.24217
   0.24620   0.11614  -0.25713
   0.21627  -0.01854  -0.27209
   0.17138   0.10117  -0.21224
   0.05167  -0.00357  -0.15238
   0.03671  -0.03350  -0.19727
   0.05167  -0.00357  -0.18231
  -0.02315  -0.18314  -0.28706
  -0.06804  -0.21307  -0.13742
  -0.05308  -0.18314  -0.09253
  -0.11293  -0.21307  -0.15238
  -0.17279  -0.21307  -0.18231
  -0.20271  -0.16818  -0.15238
  -0.20271  -0.22803   0.01222
  -0.20271  -0.27292  -0.01771
  -0.18775  -0.19810  -0.00275
  -0.26257  -0.15321   0.02718
  -0.20271  -0.21307   0.01222
  -0.26257  -0.18314   0.05711
  -0.29250  -0.16818   0.04215
  -0.30746  -0.24299  -0.00275
  -0.30746  -0.24299  -0.03267
  -0.35235  -0.22803   0.05711
  -0.35235  -0.18314   0.04215
  -0.33739  -0.12328   0.05711
  -0.36731  -0.15321  -0.00275
  -0.38228  -0.13825   0.07207
  -0.35235  -0.18314   0.05711
  -0.35235  -0.01854   0.04215
  -0.41221  -0.09336   0.07207
  -0.36731  -0.00357   0.08704
  -0.36731   0.01139   0.02718
  -0.39724   0.04132   0.08704
  -0.42717   0.05628   0.08704
  -0.45710  -0.00357   0.08704
  -0.47206  -0.00357   0.08704
  -0.39724  -0.01854  -0.00275
  -0.51695  -0.00357   0.07207
  -0.42717   0.01139   0.04215
  -0.45710   0.04132   0.07207
  -0.39724   0.10117   0.05711
  -0.44213   0.04132   0.04215
  -0.48702  -0.03350  -0.03267
  -0.50199   0.01139   0.05711
  -0.50199   0.01139   0.02718
  -0.45710   0.01139  -0.15238
  -0.48702   0.07125   0.01222
  -0.45710   0.05628  -0.06260
  -0.44213  -0.00357  -0.01771
  -0.50199   0.10117   0.05711
  -0.42717   0.01139  -0.09253
  -0.48702   0.04132   0.02718
  -0.47206   0.02635  -0.06260
  -0.47206   0.08621  -0.13742
  -0.54688   0.01139  -0.04764
  -0.42717  -0.00357  -0.19727
  -0.41221   0.04132  -0.04764
  -0.41221   0.04132  -0.04764
  -0.41221   0.02635  -0.19727
  -0.38228   0.02635  -0.22720
  -0.36731   0.07125  -0.03267
  -0.39724   0.04132  -0.09253
  -0.41221   0.04132  -0.03267
  -0.38228  -0.04846  -0.18231
  -0.35235   0.07125  -0.04764
  -0.35235   0.02635  -0.00275
  -0.42717   0.01139   0.01222
  -0.35235  -0.00357  -0.01771
  -0.26257  -0.03350  -0.06260
  -0.29250  -0.04846  -0.09253
  -0.27753   0.04132  -0.00275
  -0.17279   0.07125   0.02718
  -0.21768   0.04132  -0.04764
  -0.17279   0.05628  -0.04764
  -0.12789   0.05628  -0.01771
  -0.06804   0.07125   0.02718
  -0.09797   0.10117  -0.01771
   0.00678   0.10117  -0.01771
  -0.03811   0.02635  -0.13742
   0.00678   0.10117  -0.04764
   0.02174   0.01139  -0.10749
   0.02174   0.07125  -0.04764
   0.06663   0.05628  -0.03267
   0.24620   0.07125  -0.10749
   0.27613   0.04132  -0.13742
   0.39584   0.16103  -0.01771
   0.39584   0.10117  -0.13742
   0.38087   0.02635  -0.16735
   0.39584   0.07125  -0.13742
   0.45569   0.07125  -0.27209
   0.44073   0.14606  -0.04764
   0.45569   0.10117  -0.10749
   0.45569   0.17599  -0.00275
   0.51555   0.16103   0.02718
   0.54548   0.23585   0.02718
   0.57540   0.16103  -0.03267
   0.53051  -0.04846  -0.16735
   0.54548   0.13110  -0.12246
   0.56044   0.14606  -0.13742
   0.53051  -0.04846  -0.24217
   0.56044  -0.12328  -0.16735
   0.53051   0.10117  -0.03267
   0.56044   0.04132  -0.01771
   0.59037  -0.04846  -0.01771
   0.53051  -0.03350  -0.01771
   0.56044  -0.00357  -0.00275
   0.57540   0.02635   0.01222
   0.54548   0.10117   0.02718
   0.56044   0.01139  -0.04764
   0.54548   0.05628   0.01222
   0.57540  -0.06343  -0.06260
   0.56044  -0.06343   0.02718
   0.57540  -0.12328  -0.09253
   0.53051  -0.09336  -0.10749
   0.57540  -0.01854  -0.01771
   0.56044  -0.04846  -0.06260
   0.53051  -0.10832   0.01222
   0.51555   0.01139  -0.04764
   0.48562  -0.07839   0.05711
   0.54548  -0.10832  -0.01771
   0.47066  -0.10832   0.07207
   0.45569  -0.18314  -0.03267
   0.51555  -0.07839  -0.00275
   0.44073  -0.03350  -0.01771
   0.44073  -0.04846  -0.00275
   0.44073  -0.12328   0.05711
   0.38087  -0.13825   0.01222
   0.36591  -0.15321  -0.01771
   0.29109  -0.27292   0.04215
   0.26116  -0.19810   0.04215
   0.23124  -0.16818   0.04215
   0.15642  -0.09336   0.04215
   0.11153  -0.16818   0.04215
   0.05167  -0.19810   0.01222
   0.09656  -0.09336   0.07207
   0.02174  -0.15321   0.07207
  -0.03811  -0.09336   0.07207
  -0.00818  -0.16818   0.02718
  -0.05308  -0.09336   0.08704
  -0.09797  -0.06343   0.10200
  -0.20271  -0.10832   0.07207
  -0.14286   0.05628   0.07207
  -0.21768  -0.01854   0.05711
  -0.23264  -0.01854   0.10200
  -0.21768   0.07125   0.11696
  -0.24760   0.11614   0.11696
  -0.30746  -0.01854   0.14689
  -0.24760   0.11614   0.20675
  -0.29250  -0.00357   0.14689
  -0.29250   0.01139   0.11696
  -0.35235   0.10117   0.17682
  -0.41221   0.08621   0.22171
  -0.41221   0.08621   0.19178
  -0.38228   0.02635   0.19178
  -0.41221   0.05628   0.16186
  -0.39724   0.14606   0.19178
  -0.47206   0.14606   0.26660
  -0.47206   0.17599   0.20675
  -0.39724   0.22088   0.17682
  -0.42717   0.13110   0.20675
  -0.47206   0.11614   0.19178
  -0.51695   0.13110   0.25164
  -0.57681   0.14606   0.28157
  -0.56184   0.07125   0.16186
  -0.56184   0.05628   0.10200
  -0.56184   0.10117   0.22171
  -0.54688   0.01139   0.13193
  -0.65163   0.16103   0.20675
  -0.59177   0.08621   0.22171
  -0.77134   0.14606   0.22171
  -0.75637   0.08621   0.23667
  -0.72644   0.07125   0.26660
  -0.63666  -0.00357   0.19178
  -0.69652   0.14606   0.32646
  -0.72644   0.10117   0.23667
  -0.72644  -0.01854   0.14689
  -0.77134   0.04132   0.25164
  -0.83119   0.08621   0.25164
  -0.65163   0.19096   0.20675
  -0.75637  -0.06343   0.16186
  -0.78630   0.05628   0.29653
  -0.74141   0.05628   0.19178
  -0.74141  -0.04846   0.23667
  -0.63666  -0.06343   0.22171
  -0.65163  -0.12328   0.14689
  -0.74141   0.04132   0.25164
  -0.80126   0.05628   0.23667
  -0.80126   0.01139   0.28157
  -0.72644   0.01139   0.16186
  -0.72644   0.01139   0.26660
  -0.62170   0.07125   0.22171
  -0.44213   0.07125   0.16186
  -0.51695  -0.09336   0.23667
  -0.42717  -0.07839   0.13193
  -0.53192  -0.06343   0.23667
  -0.47206  -0.00357   0.16186
  -0.57681   0.01139   0.25164
  -0.48702  -0.01854   0.25164
  -0.41221   0.01139   0.14689
  -0.44213   0.04132   0.20675
  -0.39724  -0.00357   0.16186
  -0.38228  -0.00357   0.20675
  -0.39724   0.01139   0.23667
  -0.36731  -0.06343   0.16186
  -0.33739  -0.09336   0.23667
  -0.29250  -0.00357   0.23667
  -0.29250  -0.01854   0.28157
  -0.17279  -0.09336   0.13193
  -0.23264  -0.15321   0.22171
  -0.08300   0.04132   0.16186
  -0.11293  -0.04846   0.26660
  -0.02315   0.01139   0.25164
  -0.09797  -0.04846   0.25164
  -0.00818  -0.15321   0.14689
   0.12649   0.02635   0.22171
   0.15642  -0.06343   0.16186
   0.06663  -0.07839   0.22171
   0.17138  -0.10832   0.11696
   0.20131  -0.03350   0.16186
   0.26116  -0.03350   0.14689
   0.24620  -0.07839   0.13193
   0.36591  -0.07839   0.10200
   0.35095  -0.10832   0.19178
   0.24620  -0.10832   0.22171
   0.45569  -0.09336   0.10200
   0.44073  -0.09336   0.14689
   0.53051  -0.04846   0.10200
   0.56044  -0.06343   0.08704
   0.51555  -0.06343   0.10200
   0.56044   0.02635   0.08704
   0.51555   0.01139   0.11696
   0.59037   0.08621   0.08704
   0.53051   0.05628   0.13193
   0.60533   0.07125   0.05711
   0.60533   0.13110   0.14689
   0.65022  -0.06343   0.07207
   0.60533  -0.00357   0.11696
   0.69511  -0.07839   0.05711
   0.74000   0.10117   0.07207
   0.72504   0.14606   0.11696
   0.79986   0.17599   0.10200
   0.81482   0.22088   0.08704
   0.91957   0.22088   0.05711
   0.91957   0.22088   0.04215
   0.96446   0.11614   0.05711
   0.84475   0.11614   0.14689
   1.05424   0.10117   0.05711
   0.87468   0.25081   0.13193
   0.97942   0.20592   0.07207
   0.93453   0.20592   0.11696
   0.99439   0.20592   0.04215
   1.08417   0.20592   0.05711
   1.05424   0.17599   0.05711
   0.94950   0.25081   0.07207
   0.97942   0.11614   0.05711
   0.87468   0.16103   0.07207
   1.02432   0.04132   0.07207
   0.91957   0.07125   0.05711
   0.90461   0.07125   0.07207
   0.91957   0.14606   0.02718
   0.88964   0.08621   0.04215
   0.87468   0.05628   0.04215
   0.85971   0.02635  -0.01771
   0.88964   0.07125   0.04215
   0.85971   0.04132  -0.00275
   0.79986  -0.00357  -0.00275
   0.76993  -0.01854   0.02718
   0.72504  -0.09336  -0.00275
   0.69511  -0.06343   0.04215
   0.69511   0.02635   0.05711
   0.63526  -0.09336   0.01222
   0.62029  -0.12328  -0.04764
   0.57540  -0.06343  -0.00275
   0.59037  -0.00357   0.02718
   0.56044  -0.01854   0.05711
   0.53051  -0.01854   0.02718
   0.48562  -0.03350  -0.00275
   0.56044  -0.03350   0.04215
   0.35095  -0.10832  -0.04764
   0.29109  -0.06343   0.02718
   0.30606  -0.09336   0.01222
   0.27613  -0.15321  -0.01771
   0.14145  -0.21307  -0.04764
   0.02174  -0.19810  -0.01771
   0.06663  -0.09336  -0.00275
  -0.05308  -0.21307  -0.03267
  -0.03811  -0.27292   0.02718
  -0.06804  -0.24299  -0.09253
  -0.09797  -0.27292  -0.12246
  -0.20271  -0.24299  -0.01771
  -0.18775  -0.15321  -0.06260
  -0.27753  -0.19810  -0.18231
  -0.27753  -0.22803  -0.09253
  -0.33739  -0.15321  -0.06260
  -0.35235  -0.18314  -0.03267
  -0.35235  -0.22803  -0.13742
  -0.35235  -0.16818  -0.07756
  -0.41221  -0.16818  -0.04764
  -0.41221  -0.18314   0.01222
  -0.44213  -0.18314  -0.06260
  -0.39724  -0.15321  -0.00275
  -0.42717  -0.18314  -0.03267
  -0.48702  -0.13825   0.01222
  -0.53192  -0.10832  -0.10749
  -0.54688  -0.15321  -0.04764
  -0.47206  -0.19810  -0.00275
  -0.53192  -0.15321  -0.07756
  -0.50199  -0.18314  -0.07756
  -0.59177  -0.22803   0.05711
  -0.60673  -0.12328   0.05711
  -0.62170  -0.07839  -0.06260
  -0.74141  -0.15321  -0.06260
  -0.80126  -0.21307  -0.01771
  -0.83119  -0.18314  -0.03267
  -0.72644  -0.19810  -0.03267
  -0.80126  -0.01854   0.01222
  -0.77134  -0.04846  -0.09253
  -0.81623  -0.10832  -0.03267
  -0.80126   0.07125   0.01222
  -0.93594  -0.00357  -0.07756
  -0.90601  -0.07839   0.02718
  -0.95090  -0.12328   0.01222
  -0.89105  -0.12328  -0.09253
  -0.87608  -0.19810  -0.01771
  -0.86112  -0.16818  -0.00275
  -0.92097  -0.06343   0.07207
  -0.95090  -0.01854  -0.00275
  -0.84615  -0.03350   0.05711
  -0.89105   0.02635  -0.01771
  -0.90601   0.05628  -0.01771
  -0.81623   0.05628   0.04215
  -0.75637   0.01139   0.07207
  -0.77134   0.04132   0.02718
  -0.68155  -0.01854  -0.01771
  -0.65163   0.01139  -0.03267
  -0.57681   0.13110   0.05711
  -0.56184   0.13110   0.01222
  -0.51695   0.16103  -0.04764
  -0.48702   0.07125   0.01222
  -0.45710   0.05628  -0.00275
  -0.45710   0.17599   0.05711
  -0.47206   0.10117   0.02718
  -0.41221   0.14606   0.02718
  -0.41221  -0.00357  -0.07756
  -0.38228   0.14606  -0.06260
  -0.32242   0.22088  -0.00275
  -0.36731   0.16103   0.05711
  -0.35235   0.13110  -0.01771
  -0.29250   0.19096   0.02718
  -0.27753   0.14606  -0.00275
  -0.21768   0.13110  -0.00275
  -0.15782   0.08621  -0.04764
  -0.15782   0.20592   0.02718
  -0.18775   0.10117  -0.07756
  -0.06804   0.10117  -0.12246
  -0.03811   0.16103   0.01222
   0.03671   0.11614  -0.04764
   0.03671   0.08621  -0.07756
   0.05167   0.17599  -0.00275
   0.00678   0.13110  -0.01771
   0.24620   0.22088  -0.04764
   0.30606   0.17599  -0.07756
   0.23124   0.16103  -0.09253
   0.23124   0.17599  -0.10749
   0.15642   0.20592  -0.06260
   0.30606   0.14606  -0.04764
   0.27613   0.17599  -0.06260
   0.47066   0.17599  -0.07756
   0.41080   0.11614  -0.18231
   0.44073   0.10117   0.01222
   0.50058   0.19096   0.05711
   0.48562   0.14606  -0.03267
   0.41080   0.08621  -0.09253
   0.50058   0.08621  -0.04764
   0.50058   0.22088  -0.04764
   0.50058   0.19096  -0.04764
   0.51555   0.11614  -0.06260
   0.57540   0.08621  -0.04764
   0.57540   0.11614  -0.13742
   0.53051   0.07125  -0.03267
   0.56044   0.02635  -0.03267
   0.60533  -0.09336  -0.06260
   0.60533   0.05628  -0.07756
   0.56044  -0.09336  -0.07756
   0.56044   0.01139  -0.09253
   0.54548  -0.01854  -0.04764
   0.56044  -0.01854  -0.06260
   0.56044  -0.03350  -0.03267
   0.60533   0.04132  -0.01771
   0.60533  -0.04846  -0.01771
   0.62029   0.01139   0.04215
   0.69511  -0.01854  -0.07756
   0.65022  -0.07839  -0.06260
   0.68015   0.08621  -0.00275
   0.65022  -0.13825  -0.01771
   0.63526  -0.06343  -0.09253
   0.69511  -0.01854  -0.03267
   0.72504  -0.00357  -0.04764
   0.68015  -0.10832  -0.10749
   0.63526  -0.09336   0.02718
   0.71008  -0.15321  -0.31698
