********************************************************************************
               CENTRO DE INSTRUMENTACION Y REGISTRO SISMICO  A.C.  
                       Coordinacion de Servicios Tecnicos
     Anaxagoras 814, Col. Narvarte, Benito Juarez, C.P. 03020 Mexico, D.F.
            Tels. 667 45 42/ 687 45  82             Fax. 669 25 12
********************************************************************************
ARCHIVO ESTANDAR DE ACELERACION:
VERSION DEL FORMATO                    : 2.0
NOMBRE DEL ARCHIVO                     : AU119602.251
FECHA Y HORA DE CREACION               : 27/MAR/98, 3:55
REF. CATALOGO ACELEROGRAMAS, SMIS 1996 : REGISTRO No.     /PAG.


================================================================================
DATOS DE LA ESTACION:
NOMBRE DE LA ESTACION                  : AUTODROMO
CLAVE DE LA ESTACION                   : AU11
LOCALIZACION DE LA ESTACION            : AUTODROMO HERMANOS RODRIGUEZ,
                                       : CHURUBUSCO, CD. DEPORTIVA
                                       :
                                       :
                                       :
COORDENADAS DE LA ESTACION             : 19.392 LAT. N 
                                       : 99.087 LONG. W 
ALTITUD (msnm)                         : 2234
TIPO DE SUELO                          : TERRENO BLANDO, MATERIAL COMPRESIBLE
                                       : (ARCILLAS)
                                       : 
INSTITUCION RESPONSABLE                : CIRES 
                                       :

================================================================================
DATOS DEL ACELEROGRAFO:
MODELO DEL ACELEROGRAFO                : SSA-1
NUMERO DE SERIE DEL ACELEROGRAFO       : 157
NUMERO DE CANALES                      : 3
ORIENTACION C1-C6 (rumbo;orientacion)  : /N00E/+V/N90E
ORIENTACION C7-C12 (rumbo;orientacion) :
VEL. DE MUESTREO, C1-C6 (muestras/s)   : /200/200/200
VEL. DE MUESTREO, C7-C12 (muestras/s)  :
ESC. COMPLETA DE SENSORES, C1-C6, (g)  : /2/2/2
ESC. COMPLETA DE SENSORES, C7-C12, (g) :
FREC. NAT. DE SENSORES, C1-C6, (Hz)    : /51.77/52.56/52.29
FREC. NAT. DE SENSORES, C7-C12, (Hz)   :
AMORTIGUAMIENTO DE SENSORES, C1-C6     : /0.5912/0.6083/0.6067
AMORTIGUAMIENTO DE SENSORES, C7-C12    :
INTERVALO DE MUESTREO, C1-C6, (s)      : /0.005/0.005/0.005
INTERVALO DE MUESTREO, C7-C12, (s)     : 
UMBRAL DE DISPARO, C1-C6, (Gal)        : /2/2/2
UMBRAL DE DISPARO, C7-C12, (Gal)       :
MEMORIA DE PREEVENTO (s)               : 15
TIEMPO DE POSEVENTO (s)                : 60


================================================================================
DATOS DEL SISMO:
FECHA DEL SISMO (GMT)                  : 25/FEB/96
HORA EPICENTRO (GMT)                   : 03:08:13:8
MAGNITUD(ES)                           : /Ms=6.9
COORDENADAS DEL EPICENTRO              : 15.83 LAT. N
                                       : 98.25 LONG. W
PROFUNDIDAD FOCAL (km)                 : 3.0
FUENTE DE LOS DATOS EPICENTRALES       : SSN
                                       : INSTITUTO DE GEOFISICA, UNAM

================================================================================
DATOS DE ESTE REGISTRO:
HORA DE LA PRIMERA MUESTRA (GMT)       : 03:10:17.00
EXACTITUD DEL TIEMPO (s)               :     
DURACION DEL REGISTRO (s), C1-C6       : /193.28/193.28/193.28
DURACION DEL REGISTRO (s), C7-C12      :
NUM. TOTAL DE MUESTRAS, C1-C6          : /38656/38656/38656
NUM. TOTAL DE MUESTRAS, C7-C12         :
ACEL. MAX. (Gal), C1-C6                : /7.90/1.68/5.27
ACEL. MAX., C1-C6, EN LA MUESTRA       :
ACEL. MAX. (Gal), C7-C12               :
ACEL. MAX., C7-C12, EN LA MUESTRA      :
UNIDADES DE LOS DATOS                  : Gal (cm/s/s)
FACTOR DE DECIMACION                   : 1
FORMATO DATOS (FORTRAN,10 campos/dato) : 3F10.2


================================================================================
CALIDAD DEL ACELEROGRAMA:
REGISTRO DIGITAL COMPLETO, CARECE DE TIEMPO ABSOLUTO.


================================================================================
COMENTARIOS:














================================================================================
DATOS DE ACELERACION:
---------+---------+---------+---------+---------+---------+---------+---------+
   CANAL-1   CANAL-2   CANAL-3   CANAL-4   CANAL-5   CANAL-6   CANAL-7   CANAL-8
      N00E        +V      N90E
---------+---------+---------+---------+---------+---------+---------+---------+
[...]
     -4.79     -0.48      4.55
     -4.79     -0.48      4.79
     -4.55     -0.48      4.55
     -4.55     -0.48      4.55
     -4.55     -0.72      4.55
     -4.55     -0.48      4.55
     -4.55     -0.72      4.55
     -4.55     -0.48      4.55
     -4.55     -0.48      4.55
     -4.31     -0.48      4.55
     -4.31     -0.72      4.55
     -4.31     -0.72      4.55
     -4.31     -0.48      4.55
     -4.31     -0.72      4.55
     -4.31     -0.72      4.55
     -4.07     -0.72      4.55
     -4.07     -0.72      4.31
     -4.07     -0.72      4.31
     -4.07     -0.48      4.31
     -4.07     -0.48      4.31
     -4.07     -0.48      4.31
     -4.07     -0.48      4.31
     -4.07     -0.48      4.31
     -3.83     -0.48      4.31
     -3.83     -0.72      4.07
     -3.83     -0.72      4.07
     -3.83     -0.72      4.07
     -3.83     -0.48      4.07
     -3.83     -0.48      4.07
     -3.59     -0.48      4.07
     -4.07     -0.48      4.07
     -3.59     -0.72      4.07
     -3.59     -0.48      4.07
     -3.59     -0.48      3.83
     -3.59     -0.48      3.83
     -3.59     -0.48      3.83
     -3.59     -0.48      3.83
     -3.59     -0.48      3.83
     -3.59     -0.48      3.83
     -3.59     -0.48      3.83
     -3.59     -0.48      3.59
     -3.35     -0.48      3.59
     -3.35     -0.48      3.59
     -3.35     -0.48      3.59
     -3.35     -0.48      3.59
     -3.35     -0.48      3.59
     -3.35     -0.48      3.59
     -3.35     -0.48      3.59
     -3.35     -0.48      3.59
     -3.35     -0.48      3.59
     -3.35     -0.48      3.35
     -3.35     -0.48      3.35
     -3.35     -0.48      3.35
     -3.35     -0.48      3.35
     -3.35     -0.48      3.35
     -3.11     -0.24      3.35
     -3.11     -0.24      3.35
     -3.11     -0.48      3.35
     -3.11     -0.24      3.11
     -3.11     -0.24      3.11
     -3.11     -0.24      3.11
     -3.11     -0.24      3.11
     -3.11     -0.24      3.11
     -3.11     -0.24      3.11
     -3.11     -0.24      3.11
     -3.11     -0.24      3.11
     -3.11     -0.24      3.11
     -3.11     -0.24      2.87
     -3.11     -0.24      2.87
     -3.11     -0.24      2.87
     -3.11     -0.24      2.87
     -3.11     -0.24      2.87
     -3.11     -0.24      2.87
     -3.11     -0.24      2.87
     -2.87     -0.24      2.63
     -3.11     -0.24      2.87
     -3.11     -0.24      2.63
     -3.11     -0.24      2.63
     -2.87     -0.24      2.63
     -2.87     -0.24      2.63
     -2.87     -0.24      2.63
     -2.87      0.00      2.63
     -3.11     -0.24      2.63
     -2.87     -0.24      2.63
     -2.87      0.00      2.63
     -2.87      0.00      2.63
     -2.87      0.00      2.63
     -2.87      0.00      2.63
     -2.87      0.00      2.40
     -2.87      0.00      2.40
     -2.87      0.00      2.40
     -2.87      0.00      2.40
     -2.87     -0.24      2.40
     -2.87      0.00      2.40
     -2.87      0.00      2.40
     -2.87      0.00      2.40
     -2.87      0.24      2.40
     -2.87      0.24      2.40
     -2.87      0.00      2.16
     -2.87      0.00      2.40
     -2.87      0.24      2.16
     -2.87      0.24      2.16
     -2.87      0.24      2.16
     -2.87      0.24      2.16
     -2.87      0.24      2.16
     -2.87      0.24      2.16
     -2.87      0.24      2.16
     -2.87      0.24      2.16
     -2.87      0.24      2.16
     -2.87      0.24      2.16
     -2.87      0.24      2.16
     -2.87      0.24      1.92
     -2.87      0.24      2.16
     -2.87      0.24      2.16
     -2.87      0.24      1.92
     -2.87      0.24      1.92
     -2.87      0.24      1.92
     -2.87      0.24      1.92
     -2.87      0.24      1.92
     -2.87      0.24      1.92
     -2.87      0.24      1.92
     -2.87      0.24      1.92
     -2.87      0.24      1.92
     -2.87      0.24      1.92
     -2.87      0.24      1.92
     -2.87      0.24      1.92
     -2.87      0.24      1.92
     -2.87      0.24      1.68
     -2.87      0.24      1.92
     -2.87      0.24      1.68
     -2.87      0.48      1.68
     -2.87      0.48      1.68
     -2.87      0.48      1.68
     -2.87      0.24      1.68
     -2.63      0.24      1.68
     -2.87      0.48      1.68
     -2.63      0.48      1.68
     -2.63      0.48      1.68
     -2.63      0.48      1.68
     -2.63      0.48      1.68
     -2.63      0.48      1.68
     -2.63      0.48      1.68
     -2.63      0.48      1.68
     -2.63      0.48      1.68
     -2.63      0.24      1.68
     -2.63      0.48      1.68
     -2.63      0.48      1.68
     -2.63      0.48      1.68
     -2.63      0.24      1.68
     -2.63      0.48      1.68
     -2.63      0.24      1.68
     -2.63      0.48      1.68
     -2.63      0.48      1.68
     -2.63      0.48      1.44
     -2.63      0.48      1.68
     -2.40      0.48      1.20
     -2.40      0.48      1.68
     -2.40      0.48      1.68
     -2.40      0.48      1.68
     -2.40      0.48      1.68
     -2.40      0.24      1.68
     -2.40      0.48      1.68
     -2.40      0.24      1.68
     -2.16      0.24      1.68
     -2.40      0.24      1.68
     -2.16      0.48      1.68
     -2.16      0.24      1.68
     -2.16      0.24      1.68
     -2.16      0.24      1.68
     -2.16      0.24      1.68
     -2.16      0.24      1.68
     -1.92      0.24      1.68
     -1.92      0.24      1.68
     -1.92      0.24      1.68
     -1.92      0.24      1.68
     -1.92      0.48      1.68
     -1.92      0.24      1.68
     -1.92      0.24      1.68
     -1.92      0.24      1.68
     -1.92      0.24      1.68
     -1.68      0.24      1.68
     -1.68      0.24      1.68
     -1.92      0.24      1.92
     -1.68      0.24      1.92
     -1.68      0.24      1.92
     -1.68      0.24      1.92
     -1.44      0.24      1.92
     -1.68      0.24      1.92
     -1.44      0.24      1.92
     -1.44      0.24      1.92
     -1.44      0.24      1.92
     -1.44      0.24      1.92
     -1.20      0.24      1.92
     -1.20      0.24      1.92
     -1.20      0.24      1.92
     -1.20      0.24      1.92
     -1.20      0.24      1.92
     -1.20      0.24      1.92
     -1.20      0.24      1.92
     -0.96      0.24      1.92
     -0.96      0.24      1.92
     -0.96      0.24      1.92
     -0.96      0.24      1.92
     -0.96      0.24      1.92
     -0.72      0.24      1.92
     -0.72      0.24      1.92
     -0.72      0.24      1.92
     -0.72      0.24      1.92
     -0.72      0.24      1.92
     -0.72      0.00      1.92
     -0.48      0.24      1.92
     -0.48      0.24      1.92
     -0.48      0.00      1.92
     -0.48      0.00      1.92
     -0.48      0.24      1.92
     -0.24      0.00      1.92
     -0.24      0.00      1.92
     -0.24      0.00      1.92
     -0.24      0.00      1.92
     -0.24      0.00      1.92
     -0.24      0.00      1.92
      0.00      0.00      1.92
      0.00      0.00      1.92
      0.00      0.00      1.92
      0.00      0.00      1.92
      0.24      0.00      1.92
      0.24      0.00      2.16
      0.24      0.00      1.92
      0.24      0.00      1.92
      0.24      0.00      1.92
      0.48     -0.24      1.92
      0.48     -0.24      1.92
      0.48     -0.24      1.92
      0.48     -0.24      1.92
      0.72     -0.24      1.92
      0.72     -0.24      1.92
      0.72     -0.24      1.92
      0.72     -0.24      1.92
      0.96     -0.24      1.92
      0.96     -0.24      1.92
      0.96     -0.24      1.92
      1.20     -0.24      2.16
      1.20     -0.24      1.92
      1.20     -0.24      2.16
      1.20     -0.24      1.92
      1.44     -0.24      2.16
      1.44     -0.24      1.92
      1.44     -0.24      1.92
      1.44     -0.24      1.92
      1.68     -0.24      1.92
      1.68     -0.24      1.92
      1.68     -0.24      2.16
      1.92     -0.24      1.92
      1.92     -0.24      1.92
      1.92     -0.24      1.92
      2.16     -0.24      1.92
      2.16     -0.48      1.92
      2.16     -0.48      2.16
      2.16     -0.48      1.92
      2.40     -0.48      1.92
      2.40     -0.48      1.92
      2.40     -0.48      1.92
      2.63     -0.48      1.92
      2.63     -0.48      1.92
      2.63     -0.48      1.92
      2.63     -0.48      2.16
      2.87     -0.48      1.92
      2.87     -0.72      1.92
      2.87     -0.48      1.92
      3.11     -0.48      1.92
      3.11     -0.72      1.92
      3.11     -0.48      1.92
      3.35     -0.72      1.92
      3.35     -0.72      1.92
      3.35     -0.72      1.92
      3.59     -0.72      1.92
      3.59     -0.72      1.92
      3.59     -0.72      1.92
      3.59     -0.72      1.92
      3.83     -0.72      1.92
      3.83     -0.72      1.92
      3.83     -0.72      1.92
      4.07     -0.72      1.92
      4.07     -0.72      1.92
      4.07     -0.72      1.92
      4.31     -0.72      1.92
      4.31     -0.72      1.92
      4.31     -0.72      1.92
      4.55     -0.72      1.68
      4.55     -0.72      1.92
      4.55     -0.72      1.68
      4.55     -0.96      1.68
      4.79     -0.96      1.68
      4.79     -0.72      1.68
      4.79     -0.96      1.68
      5.03     -0.72      1.68
      5.03     -0.96      1.68
      5.03     -0.96      1.68
      5.03     -0.96      1.68
      5.27     -0.96      1.68
      5.27     -0.96      1.44
      5.27     -0.96      1.44
      5.51     -0.96      1.44
      5.51     -0.96      1.44
      5.51     -1.20      1.44
      5.51     -0.96      1.44
      5.75     -0.96      1.44
      5.75     -0.96      1.20
      5.75     -0.96      1.20
      5.99     -1.20      1.20
      5.99     -0.96      1.20
      5.99     -1.20      1.20
      5.99     -1.20      1.20
      5.99     -0.96      1.20
      6.23     -0.96      1.20
      6.23     -0.96      1.20
      6.23     -0.96      0.96
      6.47     -0.96      0.96
      6.47     -1.20      0.96
      6.47     -1.20      0.96
      6.47     -1.20      0.72
      6.47     -1.20      0.72
      6.71     -0.96      0.72
      6.71     -1.20      0.72
      6.71     -1.20      0.72
      6.71     -1.20      0.72
      6.95     -1.20      0.48
      6.95     -1.20      0.48
      6.95     -1.20      0.48
      6.95     -1.20      0.48
      6.95     -1.20      0.48
      7.19     -1.20      0.48
      7.19     -1.20      0.24
      7.19     -1.20      0.24
      7.19     -1.20      0.24
      7.19     -1.20      0.24
      7.19     -1.20      0.00
      7.42     -0.96      0.00
      7.42     -0.96      0.00
      7.42     -1.20      0.00
      7.42     -1.20      0.00
      7.42     -1.20     -0.24
      7.66     -1.20     -0.24
      7.66     -1.20     -0.24
      7.66     -0.96     -0.24
      7.66     -0.96     -0.24
      7.66     -0.96     -0.48
      7.66     -0.96     -0.48
      7.66     -0.96     -0.48
      7.90     -0.96     -0.48
      7.90     -0.96     -0.72
      7.90     -0.96     -0.72
      7.90     -0.96     -0.72
      7.90     -0.96     -0.72
      7.90     -0.96     -0.72
      7.90     -0.96     -0.96
      7.90     -0.96     -0.96
      7.90     -0.96     -0.96
      7.90     -0.96     -0.96
      7.90     -0.96     -1.20
      7.90     -0.96     -1.20
      7.90     -0.96     -1.20
      7.90     -0.96     -1.44
      7.90     -0.96     -1.44
      7.90     -0.96     -1.44
      7.90     -0.96     -1.44
      7.90     -0.72     -1.68
      7.90     -0.96     -1.68
      7.90     -0.96     -1.68
      7.90     -0.96     -1.68
      7.90     -0.72     -1.68
      7.90     -0.96     -1.68
      7.90     -0.72     -1.92
      7.90     -0.72     -1.92
      7.90     -0.72     -1.92
      7.90     -0.72     -1.92
      7.90     -0.72     -2.16
      7.90     -0.72     -2.16
      7.90     -0.72     -2.16
      7.90     -0.72     -2.16
      7.66     -0.72     -2.40
      7.66     -0.72     -2.40
      7.66     -0.72     -2.40
      7.66     -0.72     -2.40
      7.66     -0.72     -2.63
      7.66     -0.72     -2.63
      7.66     -0.72     -2.63
      7.66     -0.72     -2.63
      7.42     -0.72     -2.63
      7.42     -0.72     -2.63
      7.42     -0.72     -2.87
      7.42     -0.72     -2.87
      7.42     -0.72     -2.87
      7.42     -0.72     -2.87
      7.42     -0.72     -3.11
      7.42     -0.72     -3.11
      7.19     -0.48     -3.11
      7.19     -0.48     -3.11
      7.19     -0.48     -3.11
      7.19     -0.48     -3.35
      7.19     -0.72     -3.35
      7.19     -0.48     -3.35
      6.95     -0.48     -3.35
      6.95     -0.48     -3.35
      6.95     -0.48     -3.59
      6.95     -0.48     -3.59
      6.71     -0.48     -3.59
      6.71     -0.48     -3.59
      6.71     -0.48     -3.59
      6.71     -0.48     -3.59
      6.71     -0.48     -3.59
      6.47     -0.72     -3.83
      6.47     -0.48     -3.83
      6.47     -0.48     -3.83
      6.47     -0.48     -3.83
      6.23     -0.48     -3.83
      5.99     -0.48     -3.83
      6.23     -0.48     -3.83
      6.23     -0.48     -4.07
      6.23     -0.48     -4.07
      5.99     -0.48     -4.07
      5.99     -0.48     -4.07
      5.99     -0.48     -4.07
      5.99     -0.48     -4.31
      5.75     -0.48     -4.07
      5.75     -0.48     -4.31
      5.75     -0.48     -4.31
      5.75     -0.48     -4.31
      5.75     -0.48     -4.31
      5.51     -0.48     -4.31
      5.51     -0.48     -4.31
      5.27     -0.48     -4.31
      5.27     -0.48     -4.55
      5.27     -0.48     -4.55
      5.27     -0.48     -4.55
      5.03     -0.48     -4.55
      5.03     -0.48     -4.55
      5.03     -0.48     -4.55
      5.03     -0.48     -4.55
      4.79     -0.48     -4.55
      4.79     -0.48     -4.55
      4.79     -0.48     -4.55
      4.79     -0.48     -4.55
      4.55     -0.48     -4.55
      4.55     -0.48     -4.79
      4.55     -0.48     -4.79
      4.55     -0.48     -4.79
      4.55     -0.48     -4.79
      4.55     -0.48     -4.79
      4.31     -0.48     -4.79
      4.31     -0.48     -4.79
      4.31     -0.48     -4.79
      4.07     -0.48     -4.79
      4.07     -0.48     -4.79
      4.07     -0.48     -4.79
      4.07     -0.48     -4.79
      4.07     -0.48     -4.79
      3.83     -0.48     -4.79
      3.83     -0.48     -4.79
      3.83     -0.48     -4.79
      3.83     -0.48     -4.79
      3.59     -0.48     -4.79
      3.59     -0.48     -4.79
      3.59     -0.72     -4.79
      3.59     -0.48     -4.79
      3.59     -0.48     -4.79
      3.59     -0.48     -4.79
      3.35     -0.48     -4.79
      3.35     -0.72     -4.79
      3.35     -0.72     -4.79
      3.35     -0.72     -4.79
      3.35     -0.72     -4.79
      3.11     -0.72     -4.79
      3.11     -0.72     -4.79
      3.11     -0.72     -4.79
      3.11     -0.72     -4.79
      3.11     -0.96     -4.79
      2.87     -0.72     -4.79
      2.87     -0.72     -4.79
      2.87     -0.72     -4.79
      2.87     -0.72     -4.79
      2.87     -0.72     -4.79
      2.87     -0.72     -4.79
      2.63     -0.72     -4.79
      2.63     -0.72     -4.79
      2.63     -0.72     -4.79
      2.63     -0.72     -4.55
      2.63     -0.72     -4.79
      2.63     -0.72     -4.79
      2.63     -0.72     -4.79
      2.40     -0.72     -4.79
      2.40     -0.96     -4.79
      2.40     -0.72     -4.79
      2.40     -0.96     -4.79
      2.16     -0.72     -4.79
      2.40     -0.96     -4.79
      2.16     -0.96     -4.79
      2.16     -0.96     -4.79
      2.16     -0.96     -4.79
      2.16     -0.96     -4.55
