********************************************************************************
               CENTRO DE INSTRUMENTACION Y REGISTRO SISMICO  A.C.  
                       Coordinacion de Servicios Tecnicos
     Anaxagoras 814, Col. Narvarte, Benito Juarez, C.P. 03020 Mexico, D.F.
            Tels. 667 45 42/ 687 45  82             Fax. 669 25 12
********************************************************************************
ARCHIVO ESTANDAR DE ACELERACION:
VERSION DEL FORMATO                    : 2.0
NOMBRE DEL ARCHIVO                     : AU119403.141
FECHA Y HORA DE CREACION               : 13 de febrero de1996/18:57
REF. CATALOGO ACELEROGRAMAS, SMIS 1995 : REGISTRO No.     /PAG.


================================================================================
DATOS DE LA ESTACION:
NOMBRE DE LA ESTACION                  : AUTODROMO
CLAVE DE LA ESTACION                   : AU11
LOCALIZACION DE LA ESTACION            : AUTODROMO HERMANOS RODRIGUEZ,
                                       : CHURUBUSCO, CD. DEPORTIVA
                                       :
                                       :
                                       :
COORDENADAS DE LA ESTACION             : 19.392 LAT. N 
                                       : 99.087 LONG. W 
ALTITUD (msnm)                         : 2234
TIPO DE SUELO                          : TERRENO BLANDO, MATERIAL COMPRESIBLE
                                       : (ARCILLAS)
                                       : 
INSTITUCION RESPONSABLE                : CIRES 
                                       :

================================================================================
DATOS DEL ACELEROGRAFO:
MODELO DEL ACELEROGRAFO                : SSA-1
NUMERO DE SERIE DEL ACELEROGRAFO       : 157
NUMERO DE CANALES                      : 3
ORIENTACION C1-C6 (rumbo;orientacion)  : /N00E/+V/N90E
ORIENTACION C7-C12 (rumbo;orientacion) :
VEL. DE MUESTREO, C1-C6 (muestras/s)   : /200/200/200
VEL. DE MUESTREO, C7-C12 (muestras/s)  :
ESC. COMPLETA DE SENSORES, C1-C6, (g)  : /2/2/2
ESC. COMPLETA DE SENSORES, C7-C12, (g) :
FREC. NAT. DE SENSORES, C1-C6, (Hz)    : /50/50/50
FREC. NAT. DE SENSORES, C7-C12, (Hz)   :
AMORTIGUAMIENTO DE SENSORES, C1-C6     : /0.700/0.700/0.700
AMORTIGUAMIENTO DE SENSORES, C7-C12    :
INTERVALO DE MUESTREO, C1-C6, (s)      : /0.005/0.005/0.005
INTERVALO DE MUESTREO, C7-C12, (s)     :
UMBRAL DE DISPARO, C1-C6, (Gal)        : /1/1/1
UMBRAL DE DISPARO, C7-C12, (Gal)       :
MEMORIA DE PREEVENTO (s)               : 15
TIEMPO DE POSEVENTO (s)                : 90


================================================================================
DATOS DEL SISMO:
FECHA DEL SISMO (GMT)                  : 14/MAR/94
HORA EPICENTRO (GMT)                   : 20:51:32,5
MAGNITUD(ES)                           : /Mc=6.50
COORDENADAS DEL EPICENTRO              : 15.670 LAT. N 
                                       : 93.010 LONG. W 
PROFUNDIDAD FOCAL (km)                 : 95 
FUENTE DE LOS DATOS EPICENTRALES       : SSN
                                       : INSTITUTO DE GEOFISICA, UNAM

================================================================================
DATOS DE ESTE REGISTRO:
HORA DE LA PRIMERA MUESTRA (GMT)       : 20:54:00.00
EXACTITUD DEL TIEMPO (s)               :     
DURACION DEL REGISTRO (s), C1-C6       : /203.52/203.52/203.52
DURACION DEL REGISTRO (s), C7-C12      :
NUM. TOTAL DE MUESTRAS, C1-C6          : /40704/40704/40704
NUM. TOTAL DE MUESTRAS, C7-C12         :
ACEL. MAX. (Gal), C1-C6                : /2.46065/0.75674/2.51746
ACEL. MAX., C1-C6, EN LA MUESTRA       :
ACEL. MAX. (Gal), C7-C12               :
ACEL. MAX., C7-C12, EN LA MUESTRA      :
UNIDADES DE LOS DATOS                  : Gal (cm/s/s)
FACTOR DE DECIMACION                   : 1
FORMATO DATOS (FORTRAN,10 campos/dato) : 3F10.5


================================================================================
CALIDAD DEL ACELEROGRAMA:
REGISTRO DIGITAL COMPLETO, CARECE DE TIEMPO ABSOLUTO.


================================================================================
COMENTARIOS: 
             El equipo se encontraba con ganancias de 4 en todos los ejes,
             por lo que las escalas completas eran de 1/2 g.












================================================================================
DATOS DE ACELERACION:
---------+---------+---------+---------+---------+---------+---------+---------+
   CANAL-1   CANAL-2   CANAL-3   CANAL-4   CANAL-5   CANAL-6   CANAL-7   CANAL-8
      N00E        +V      N90E
---------+---------+---------+---------+---------+---------+---------+---------+
[...]
   0.16935  -0.27674   0.11254
   0.16935  -0.27674   0.11254
   0.16935  -0.27674   0.11254
  -0.07065  -0.27674   0.11254
  -0.07065  -0.27674   0.11254
  -0.07065  -0.03674   0.11254
  -0.07065  -0.27674   0.11254
  -0.07065  -0.27674   0.11254
  -0.07065  -0.03674   0.11254
  -0.07065  -0.27674   0.11254
  -0.07065  -0.27674   0.11254
  -0.31065  -0.27674   0.11254
  -0.31065  -0.27674   0.11254
  -0.31065  -0.03674   0.11254
  -0.31065  -0.03674   0.11254
  -0.31065  -0.03674   0.11254
  -0.31065  -0.03674   0.11254
  -0.31065  -0.03674   0.11254
  -0.31065  -0.03674   0.11254
  -0.79065  -0.03674   0.35254
  -0.31065  -0.03674   0.35254
  -0.31065  -0.03674   0.35254
  -0.31065  -0.03674   0.11254
  -0.31065  -0.03674   0.35254
  -0.31065  -0.03674   0.35254
  -0.31065  -0.03674   0.35254
  -0.31065  -0.03674   0.35254
  -0.31065  -0.03674   0.35254
  -0.31065  -0.03674   0.35254
  -0.55065  -0.03674   0.35254
  -0.55065  -0.03674   0.35254
  -0.55065  -0.03674   0.35254
  -0.55065  -0.03674   0.35254
  -0.55065  -0.03674   0.35254
  -0.55065   0.20326   0.35254
  -0.55065   0.20326   0.35254
  -0.55065   0.20326   0.35254
  -0.55065   0.20326   0.35254
  -0.55065  -0.03674   0.35254
  -0.55065   0.20326   0.35254
  -0.55065   0.20326   0.35254
  -0.55065   0.20326   0.35254
  -0.55065   0.20326   0.35254
  -0.55065   0.20326   0.35254
  -0.55065   0.20326   0.35254
  -0.79065   0.20326   0.11254
  -0.55065  -0.03674   0.35254
  -0.55065   0.20326   0.35254
  -0.55065   0.20326   0.11254
  -0.55065   0.20326   0.35254
  -0.55065   0.20326   0.35254
  -0.55065  -0.03674   0.35254
  -0.79065   0.20326   0.35254
  -0.55065   0.20326   0.35254
  -0.55065   0.20326   0.11254
  -0.55065   0.20326   0.35254
  -0.55065   0.20326   0.11254
  -0.55065   0.20326   0.11254
  -0.55065   0.20326   0.35254
  -0.55065   0.20326   0.11254
  -0.55065   0.20326   0.35254
  -0.55065   0.20326   0.35254
  -0.55065   0.20326   0.35254
  -0.55065   0.20326   0.35254
  -0.55065   0.20326   0.35254
  -0.55065   0.20326   0.35254
  -0.55065   0.20326   0.35254
  -0.55065   0.20326   0.35254
  -0.55065   0.20326   0.35254
  -0.55065   0.20326   0.35254
  -0.55065   0.20326   0.35254
  -0.55065   0.20326   0.35254
  -0.55065   0.20326   0.35254
  -0.55065   0.20326   0.35254
  -0.79065   0.20326   0.35254
  -0.55065   0.20326   0.35254
  -0.55065   0.20326   0.35254
  -0.55065   0.20326   0.59254
  -0.55065   0.20326   0.59254
  -0.55065   0.44326   0.35254
  -0.55065   0.20326   0.59254
  -0.55065   0.20326   0.59254
  -0.55065   0.44326   0.59254
  -0.55065   0.44326   0.59254
  -0.55065   0.20326   0.59254
  -0.79065   0.44326   0.59254
  -0.55065   0.44326   0.59254
  -0.79065   0.44326   0.59254
  -0.55065   0.44326   0.59254
  -0.55065   0.44326   0.59254
  -0.79065   0.44326   0.59254
  -0.79065   0.44326   0.59254
  -0.79065   0.44326   0.59254
  -0.79065   0.44326   0.59254
  -0.79065   0.44326   0.59254
  -0.79065   0.44326   0.59254
  -0.79065   0.44326   0.59254
  -0.55065   0.44326   0.59254
  -0.79065   0.44326   0.59254
  -0.79065   0.44326   0.59254
  -0.55065   0.44326   0.59254
  -0.55065   0.44326   0.59254
  -0.55065   0.44326   0.59254
  -0.55065   0.44326   0.59254
  -0.55065   0.44326   0.83254
  -0.55065   0.44326   0.83254
  -0.55065   0.44326   0.83254
  -0.55065   0.44326   0.83254
  -0.55065   0.44326   0.83254
  -0.55065   0.44326   0.83254
  -0.55065   0.20326   0.83254
  -0.55065   0.20326   0.83254
  -0.55065   0.20326   0.83254
  -0.55065   0.44326   1.07254
  -0.55065   0.44326   0.83254
  -0.55065   0.44326   1.07254
  -0.31065   0.20326   1.07254
  -0.31065   0.20326   1.07254
  -0.31065   0.20326   1.07254
  -0.31065   0.44326   1.07254
  -0.31065   0.20326   1.07254
  -0.31065   0.20326   1.07254
  -0.31065   0.44326   1.07254
  -0.31065   0.20326   1.07254
  -0.31065   0.20326   1.07254
  -0.31065   0.44326   1.07254
  -0.31065   0.44326   1.07254
  -0.31065   0.20326   1.07254
  -0.07065   0.20326   1.31254
  -0.07065   0.20326   1.31254
  -0.07065   0.20326   1.31254
  -0.07065   0.20326   1.31254
  -0.07065   0.20326   1.31254
  -0.07065   0.20326   1.31254
  -0.07065   0.20326   1.31254
  -0.07065   0.20326   1.31254
  -0.07065   0.20326   1.31254
  -0.07065   0.20326   1.31254
   0.16935   0.20326   1.31254
   0.16935   0.20326   1.31254
   0.16935   0.20326   1.31254
   0.16935   0.20326   1.31254
   0.16935   0.20326   1.31254
   0.16935   0.44326   1.31254
   0.16935   0.20326   1.31254
   0.16935   0.20326   1.31254
   0.16935   0.20326   1.07254
   0.16935   0.20326   1.31254
   0.16935   0.20326   1.07254
   0.16935   0.20326   1.31254
   0.16935   0.20326   1.07254
   0.16935   0.20326   1.07254
   0.16935   0.20326   1.07254
   0.16935   0.20326   1.07254
   0.40935   0.20326   1.07254
   0.40935   0.20326   1.07254
   0.40935   0.20326   1.07254
   0.40935   0.20326   1.07254
   0.40935   0.20326   1.07254
   0.40935   0.20326   0.83254
   0.40935   0.20326   1.07254
   0.40935   0.20326   1.07254
   0.40935   0.20326   0.83254
   0.40935   0.20326   0.83254
   0.40935   0.20326   0.83254
   0.40935   0.20326   0.83254
   0.40935   0.20326   0.83254
   0.40935  -0.03674   0.83254
   0.40935   0.20326   0.83254
   0.64935   0.20326   0.83254
   0.64935   0.20326   0.83254
   0.64935   0.20326   0.83254
   0.64935   0.20326   0.59254
   0.64935   0.20326   0.83254
   0.64935   0.20326   0.83254
   0.64935   0.20326   0.83254
   0.64935   0.20326   0.59254
   0.64935   0.20326   0.59254
   0.64935   0.20326   0.59254
   0.64935   0.20326   0.59254
   0.64935   0.20326   0.59254
   0.64935   0.20326   0.59254
   0.64935  -0.03674   0.59254
   0.64935  -0.03674   0.59254
   0.88935  -0.03674   0.59254
   0.64935  -0.03674   0.59254
   0.88935  -0.03674   0.59254
   0.88935  -0.03674   0.59254
   0.88935  -0.03674   0.59254
   0.88935  -0.03674   0.59254
   0.88935  -0.03674   0.35254
   0.88935  -0.03674   0.35254
   0.88935  -0.03674   0.35254
   0.88935  -0.03674   0.35254
   0.88935  -0.03674   0.35254
   0.88935  -0.03674   0.35254
   0.88935  -0.03674   0.35254
   0.88935  -0.03674   0.35254
   0.88935  -0.03674   0.35254
   0.88935  -0.03674   0.35254
   0.88935  -0.03674   0.35254
   0.88935  -0.03674   0.35254
   0.88935  -0.03674   0.35254
   0.88935  -0.03674   0.35254
   0.88935  -0.03674   0.35254
   0.88935  -0.03674   0.35254
   0.88935  -0.03674   0.35254
   0.88935  -0.03674   0.35254
   0.88935  -0.03674   0.35254
   0.88935  -0.03674   0.35254
   0.88935  -0.03674   0.35254
   0.88935  -0.03674   0.35254
   0.88935  -0.03674   0.35254
   0.88935  -0.03674   0.59254
   0.88935  -0.03674   0.35254
   0.88935  -0.03674   0.59254
   0.88935  -0.27674   0.59254
   0.88935  -0.27674   0.59254
   0.88935  -0.27674   0.59254
   0.64935  -0.27674   0.59254
   0.64935  -0.27674   0.59254
   0.64935  -0.27674   0.59254
   0.64935  -0.27674   0.59254
   0.64935  -0.27674   0.59254
   0.64935  -0.27674   0.59254
   0.64935  -0.27674   0.59254
   0.64935  -0.27674   0.59254
   0.64935  -0.51674   0.59254
   0.64935  -0.27674   0.59254
   0.64935  -0.27674   0.59254
   0.40935  -0.27674   0.59254
   0.64935  -0.27674   0.59254
   0.40935  -0.27674   0.59254
   0.40935  -0.27674   0.35254
   0.40935  -0.27674   0.35254
   0.40935  -0.27674   0.59254
   0.40935  -0.27674   0.59254
   0.16935  -0.27674   0.59254
   0.16935  -0.27674   0.59254
   0.16935  -0.27674   0.59254
   0.16935  -0.27674   0.35254
   0.16935  -0.27674   0.35254
   0.16935  -0.27674   0.35254
   0.16935  -0.27674   0.35254
   0.16935  -0.27674   0.35254
   0.16935  -0.27674   0.35254
   0.16935  -0.27674   0.35254
   0.16935  -0.27674   0.35254
   0.16935  -0.27674   0.35254
   0.16935  -0.27674   0.35254
   0.16935  -0.27674   0.35254
   0.16935  -0.27674   0.35254
   0.16935  -0.27674   0.35254
   0.16935  -0.51674   0.35254
  -0.07065  -0.27674   0.35254
  -0.07065  -0.27674   0.35254
  -0.07065  -0.27674   0.35254
  -0.07065  -0.27674   0.11254
  -0.07065  -0.51674   0.11254
  -0.07065  -0.51674   0.35254
  -0.07065  -0.27674   0.11254
  -0.07065  -0.27674   0.11254
  -0.07065  -0.27674   0.11254
  -0.07065  -0.27674   0.11254
  -0.31065  -0.27674   0.11254
  -0.31065  -0.27674   0.11254
  -0.31065  -0.27674   0.11254
  -0.31065  -0.27674   0.11254
  -0.31065  -0.27674   0.11254
  -0.31065  -0.27674   0.11254
  -0.31065  -0.27674   0.35254
  -0.31065  -0.27674   0.11254
  -0.31065  -0.27674   0.11254
  -0.31065  -0.27674   0.11254
  -0.31065  -0.27674   0.11254
  -0.55065  -0.27674   0.11254
  -0.55065  -0.27674   0.11254
  -0.55065  -0.27674   0.11254
  -0.55065  -0.27674   0.11254
  -0.55065  -0.27674   0.11254
  -0.55065  -0.27674   0.11254
  -0.55065  -0.27674   0.35254
  -0.55065  -0.27674   0.35254
  -0.79065  -0.27674   0.11254
  -0.79065  -0.27674   0.35254
  -0.79065  -0.27674   0.35254
  -0.79065  -0.27674   0.35254
  -0.79065  -0.27674   0.35254
  -0.79065  -0.27674   0.11254
  -0.79065  -0.27674   0.11254
  -0.79065  -0.27674   0.11254
  -0.79065  -0.27674   0.11254
  -1.03065  -0.27674   0.11254
  -1.03065  -0.27674   0.11254
  -1.03065  -0.27674   0.11254
  -1.03065  -0.27674   0.11254
  -1.27065  -0.27674   0.11254
  -1.27065  -0.27674   0.11254
  -1.27065  -0.03674   0.11254
  -1.27065  -0.27674   0.11254
  -1.27065  -0.27674   0.11254
  -1.27065  -0.27674   0.11254
  -1.27065  -0.03674   0.11254
  -1.75065  -0.03674   0.11254
  -1.27065  -0.03674   0.11254
  -1.51065  -0.03674   0.11254
  -1.51065  -0.03674   0.11254
  -1.51065  -0.03674   0.11254
  -1.51065  -0.03674   0.35254
  -1.51065  -0.03674   0.11254
  -1.51065  -0.03674   0.11254
  -1.75065  -0.03674   0.11254
  -1.75065  -0.03674   0.11254
  -1.75065  -0.03674   0.11254
  -1.75065  -0.03674   0.11254
  -1.75065  -0.03674   0.11254
  -1.75065  -0.03674   0.11254
  -1.75065  -0.03674   0.11254
  -1.75065  -0.03674   0.11254
  -1.75065  -0.03674   0.11254
  -1.99065  -0.03674   0.11254
  -1.99065  -0.03674   0.11254
  -1.99065  -0.03674   0.11254
  -1.99065  -0.03674   0.11254
  -1.99065  -0.03674   0.11254
  -1.99065  -0.03674   0.11254
  -1.99065  -0.03674   0.11254
  -1.99065  -0.03674   0.11254
  -1.99065  -0.03674   0.11254
  -1.99065  -0.03674   0.11254
  -1.99065  -0.03674   0.11254
  -1.99065  -0.03674   0.11254
  -2.22065   0.20326   0.11254
  -2.22065  -0.03674   0.11254
  -2.22065  -0.03674   0.11254
  -2.22065   0.20326   0.11254
  -2.22065  -0.03674   0.11254
  -2.22065  -0.03674   0.11254
  -2.22065   0.20326  -0.12746
  -2.22065   0.20326   0.11254
  -2.22065   0.20326  -0.12746
  -2.22065   0.20326  -0.12746
  -2.22065   0.20326   0.11254
  -2.22065   0.20326  -0.12746
  -2.22065   0.20326  -0.12746
  -2.22065   0.20326  -0.12746
  -2.46065   0.20326  -0.12746
  -2.22065   0.20326  -0.12746
  -2.22065   0.20326  -0.12746
  -2.22065   0.20326  -0.12746
  -2.22065   0.20326  -0.12746
  -2.22065   0.20326  -0.12746
  -1.99065   0.20326  -0.12746
  -2.22065   0.20326  -0.12746
  -1.99065   0.20326  -0.12746
  -1.99065   0.20326  -0.36746
  -1.99065   0.20326  -0.36746
  -1.99065   0.20326  -0.36746
  -1.99065   0.20326  -0.36746
  -1.99065   0.20326  -0.36746
  -1.99065   0.20326  -0.36746
  -1.99065   0.20326  -0.36746
  -1.99065   0.20326  -0.36746
  -1.99065   0.20326  -0.36746
  -1.99065   0.20326  -0.36746
  -1.99065   0.20326  -0.60746
  -1.99065   0.20326  -0.36746
  -1.99065   0.20326  -0.36746
  -1.75065  -0.03674  -0.36746
  -1.75065   0.20326  -0.60746
  -1.75065  -0.03674  -0.60746
  -1.75065  -0.03674  -0.60746
  -1.75065  -0.03674  -0.36746
  -1.75065   0.20326  -0.60746
  -1.75065   0.20326  -0.60746
  -1.75065   0.20326  -0.60746
  -1.75065  -0.03674  -0.60746
  -1.75065   0.20326  -0.60746
  -1.75065   0.20326  -0.60746
  -1.51065   0.20326  -0.60746
  -1.51065   0.20326  -0.84746
  -1.51065   0.20326  -0.60746
  -1.51065   0.20326  -0.60746
  -1.51065   0.20326  -0.60746
  -1.51065   0.20326  -0.60746
  -1.27065   0.20326  -0.84746
  -1.51065   0.20326  -0.84746
  -1.27065   0.20326  -0.84746
  -1.27065   0.20326  -0.84746
  -1.27065   0.20326  -0.84746
  -1.27065   0.20326  -0.84746
  -1.27065   0.20326  -0.84746
  -1.27065   0.20326  -0.84746
  -1.27065   0.20326  -0.84746
  -1.27065   0.20326  -0.84746
  -1.03065   0.20326  -0.84746
  -1.03065   0.20326  -0.84746
  -1.03065  -0.03674  -1.07746
  -1.03065   0.20326  -0.84746
  -1.03065   0.20326  -0.84746
  -0.79065   0.20326  -0.84746
  -1.03065   0.20326  -0.84746
  -0.79065   0.20326  -0.84746
  -0.79065   0.20326  -0.84746
  -0.79065  -0.03674  -0.84746
  -0.79065   0.20326  -0.84746
  -0.79065  -0.03674  -0.84746
  -0.79065  -0.03674  -0.84746
  -0.79065   0.20326  -0.84746
  -0.79065  -0.03674  -0.84746
  -0.55065   0.20326  -0.84746
  -0.79065   0.20326  -0.84746
  -0.55065   0.20326  -0.84746
  -0.55065  -0.03674  -0.84746
  -0.55065  -0.03674  -0.84746
  -0.55065  -0.03674  -0.84746
  -0.55065  -0.03674  -0.84746
  -0.55065  -0.03674  -0.84746
  -0.55065  -0.03674  -0.60746
  -0.55065  -0.03674  -0.84746
  -0.55065  -0.03674  -0.60746
  -0.55065   0.20326  -0.84746
  -0.31065  -0.03674  -0.60746
  -0.31065   0.20326  -0.84746
  -0.31065   0.20326  -0.60746
  -0.79065  -0.03674  -0.60746
  -0.31065  -0.03674  -0.60746
  -0.31065   0.20326  -0.60746
  -0.31065   0.20326  -0.60746
  -0.31065   0.20326  -0.60746
  -0.31065   0.20326  -0.60746
  -0.31065   0.20326  -0.60746
  -0.31065   0.20326  -0.60746
  -0.31065   0.20326  -0.60746
  -0.31065  -0.03674  -0.60746
  -0.31065   0.20326  -0.36746
  -0.31065   0.20326  -0.60746
  -0.07065   0.20326  -0.60746
  -0.07065   0.20326  -0.60746
  -0.07065   0.20326  -0.36746
  -0.07065   0.20326  -0.36746
  -0.07065   0.20326  -0.36746
  -0.07065   0.20326  -0.36746
   0.16935   0.20326  -0.36746
   0.16935   0.20326  -0.36746
   0.16935   0.20326  -0.36746
   0.16935   0.20326  -0.36746
   0.16935   0.20326  -0.36746
   0.16935   0.20326  -0.36746
   0.16935   0.20326  -0.36746
   0.16935   0.20326  -0.36746
   0.40935   0.20326  -0.36746
   0.40935   0.20326  -0.36746
   0.40935   0.20326  -0.36746
   0.40935   0.20326  -0.36746
   0.40935   0.20326  -0.36746
   0.40935   0.20326  -0.36746
   0.64935   0.20326  -0.36746
   0.64935   0.20326  -0.36746
   0.64935   0.20326  -0.36746
   0.64935   0.20326  -0.12746
   0.64935   0.20326  -0.36746
   0.64935   0.20326  -0.36746
   0.64935   0.20326  -0.36746
   0.64935   0.20326  -0.36746
   0.88935   0.20326  -0.36746
   0.88935   0.20326  -0.36746
   0.88935   0.20326  -0.12746
   0.88935   0.20326  -0.12746
   0.88935   0.20326  -0.12746
   0.88935   0.20326  -0.12746
   0.88935   0.20326  -0.12746
   0.88935   0.20326  -0.12746
   0.88935   0.20326  -0.12746
   0.88935   0.20326  -0.12746
   0.88935   0.20326  -0.12746
   1.12935   0.20326  -0.12746
   1.12935   0.20326  -0.36746
   1.12935   0.20326  -0.12746
   1.12935   0.20326  -0.36746
   1.12935   0.20326  -0.12746
   1.12935   0.20326  -0.36746
   1.12935   0.20326  -0.36746
   1.12935   0.20326  -0.12746
   1.12935   0.20326  -0.12746
   1.12935  -0.03674  -0.36746
   1.12935   0.20326  -0.36746
   1.12935  -0.03674  -0.36746
   1.12935  -0.03674  -0.36746
   1.12935  -0.03674  -0.36746
   1.12935  -0.03674  -0.36746
   1.12935  -0.03674  -0.36746
   1.12935  -0.03674  -0.12746
   1.12935  -0.03674  -0.36746
   0.88935  -0.03674  -0.36746
