********************************************************************************
               CENTRO DE INSTRUMENTACION Y REGISTRO SISMICO  A.C.  
                       Coordinacion de Servicios Tecnicos
     Anaxagoras 814, Col. Narvarte, Benito Juarez, C.P. 03020 Mexico, D.F.
            Tels. 667 45 42/ 687 45  82             Fax. 669 25 12
********************************************************************************
ARCHIVO ESTANDAR DE ACELERACION:
VERSION DEL FORMATO                    : 2.0
NOMBRE DEL ARCHIVO                     : AU119405.231
FECHA Y HORA DE CREACION               : 13 de febrero de 1996/19:00
REF. CATALOGO ACELEROGRAMAS, SMIS 1995 : REGISTRO No.     /PAG.


================================================================================
DATOS DE LA ESTACION:
NOMBRE DE LA ESTACION                  : AUTODROMO
CLAVE DE LA ESTACION                   : AU11
LOCALIZACION DE LA ESTACION            : AUTODROMO HERMANOS RODRIGUEZ,
                                       : CHURUBUSCO, CD. DEPORTIVA
                                       :
                                       :
                                       :
COORDENADAS DE LA ESTACION             : 19.392 LAT. N 
                                       : 99.087 LONG. W 
ALTITUD (msnm)                         : 2234
TIPO DE SUELO                          : TERRENO BLANDO, MATERIAL COMPRESIBLE
                                       : (ARCILLAS)
                                       : 
INSTITUCION RESPONSABLE                : CIRES 
                                       :

================================================================================
DATOS DEL ACELEROGRAFO:
MODELO DEL ACELEROGRAFO                : SSA-1
NUMERO DE SERIE DEL ACELEROGRAFO       : 157
NUMERO DE CANALES                      : 3
ORIENTACION C1-C6 (rumbo;orientacion)  : /N00E/+V/N90E
ORIENTACION C7-C12 (rumbo;orientacion) :
VEL. DE MUESTREO, C1-C6 (muestras/s)   : /200/200/200
VEL. DE MUESTREO, C7-C12 (muestras/s)  :
ESC. COMPLETA DE SENSORES, C1-C6, (g)  : /2/2/2
ESC. COMPLETA DE SENSORES, C7-C12, (g) :
FREC. NAT. DE SENSORES, C1-C6, (Hz)    : /50/50/50
FREC. NAT. DE SENSORES, C7-C12, (Hz)   :
AMORTIGUAMIENTO DE SENSORES, C1-C6     : /0.700/0.700/0.700
AMORTIGUAMIENTO DE SENSORES, C7-C12    :
INTERVALO DE MUESTREO, C1-C6, (s)      : /0.005/0.005/0.005
INTERVALO DE MUESTREO, C7-C12, (s)     :
UMBRAL DE DISPARO, C1-C6, (Gal)        : /1/1/1
UMBRAL DE DISPARO, C7-C12, (Gal)       :
MEMORIA DE PREEVENTO (s)               : 15
TIEMPO DE POSEVENTO (s)                : 90


================================================================================
DATOS DEL SISMO:
FECHA DEL SISMO (GMT)                  : 23/MAY/94
HORA EPICENTRO (GMT)                   : 01:41:46,0
MAGNITUD(ES)                           : /Mc=5.60
COORDENADAS DEL EPICENTRO              : 18.030 LAT. N
                                       : 100.570 LONG. W
PROFUNDIDAD FOCAL (km)                 : 23
FUENTE DE LOS DATOS EPICENTRALES       : SSN
                                       : INSTITUTO DE GEOFISICA, UNAM

================================================================================
DATOS DE ESTE REGISTRO:
HORA DE LA PRIMERA MUESTRA (GMT)       : 01:42:00.00
EXACTITUD DEL TIEMPO (s)               :     
DURACION DEL REGISTRO (s), C1-C6       : /238.085/238.085/238.085
DURACION DEL REGISTRO (s), C7-C12      :
NUM. TOTAL DE MUESTRAS, C1-C6          : /47617/47617/47617
NUM. TOTAL DE MUESTRAS, C7-C12         :
ACEL. MAX. (Gal), C1-C6                : /5.79782/2.24731/4.75829
ACEL. MAX., C1-C6, EN LA MUESTRA       :
ACEL. MAX. (Gal), C7-C12               :
ACEL. MAX., C7-C12, EN LA MUESTRA      :
UNIDADES DE LOS DATOS                  : Gal (cm/s/s)
FACTOR DE DECIMACION                   : 1
FORMATO DATOS (FORTRAN,10 campos/dato) : 3F10.5


================================================================================
CALIDAD DEL ACELEROGRAMA:
REGISTRO DIGITAL COMPLETO, CARECE DE TIEMPO ABSOLUTO.


================================================================================
COMENTARIOS: 
             El equipo se encontraba con ganancias de 4 en todos los ejes,
             por lo que las escalas completas eran de 1/2 g.












================================================================================
DATOS DE ACELERACION:
---------+---------+---------+---------+---------+---------+---------+---------+
   CANAL-1   CANAL-2   CANAL-3   CANAL-4   CANAL-5   CANAL-6   CANAL-7   CANAL-8
      N00E        +V      N90E
---------+---------+---------+---------+---------+---------+---------+---------+
[...]
   1.87218   0.08731   0.20829
   1.87218   0.08731   0.44829
   1.63218   0.08731   0.44829
   1.63218   0.08731   0.44829
   1.39218   0.08731   0.68829
   1.15218   0.08731   0.68829
   1.15218   0.08731   0.92829
   1.15218   0.08731   0.92829
   1.15218  -0.15269   0.92829
   0.91218  -0.39269   0.92829
   0.43218  -0.39269   0.92829
   0.67218  -0.63269   0.92829
   0.67218  -0.63269   0.92829
   0.43218  -0.63269   0.92829
   0.43218  -0.87269   0.92829
   0.19218  -0.87269   0.92829
   0.19218  -0.87269   1.16829
   0.19218  -0.87269   1.16829
   0.19218  -0.87269   0.92829
   0.19218  -0.87269   0.92829
   0.19218  -0.87269   1.16829
   0.19218  -0.87269   1.16829
   0.19218  -0.63269   1.16829
  -0.04782  -0.63269   1.16829
  -0.04782  -0.63269   1.16829
  -0.04782  -0.39269   1.16829
  -0.04782  -0.15269   1.16829
  -0.04782  -0.15269   1.16829
  -0.04782   0.08731   1.16829
  -0.28782   0.32731   1.16829
  -0.28782   0.32731   1.16829
  -0.28782   0.32731   0.92829
  -0.52782   0.56731   0.92829
  -0.52782   0.56731   0.92829
  -0.52782   0.80731   0.92829
  -0.76782   0.80731   0.92829
  -1.00782   0.80731   0.92829
  -1.24782   0.80731   0.92829
  -1.24782   0.80731   0.92829
  -1.48782   1.04731   0.92829
  -1.48782   0.80731   0.92829
  -1.72782   1.04731   0.92829
  -1.96782   1.04731   0.92829
  -1.96782   1.04731   0.92829
  -2.19782   1.04731   0.92829
  -2.19782   1.04731   0.92829
  -2.43782   1.04731   0.92829
  -2.43782   1.04731   0.92829
  -2.43782   0.80731   0.92829
  -2.67782   0.80731   0.68829
  -2.67782   0.80731   0.68829
  -2.67782   0.56731   0.44829
  -2.91782   0.80731   0.68829
  -2.91782   0.80731   0.44829
  -3.15782   0.80731   0.44829
  -3.15782   0.80731   0.44829
  -3.39782   0.80731   0.44829
  -3.39782   0.56731   0.20829
  -3.63782   0.56731   0.20829
  -3.63782   0.56731   0.20829
  -3.63782   0.56731  -0.03171
  -3.87782   0.56731  -0.03171
  -3.87782   0.56731  -0.03171
  -4.11782   0.56731  -0.03171
  -4.11782   0.32731  -0.27171
  -4.11782   0.32731  -0.27171
  -4.11782   0.32731  -0.27171
  -4.11782   0.08731  -0.27171
  -4.11782   0.08731  -0.51171
  -4.11782   0.08731  -0.51171
  -4.35782  -0.15269  -0.51171
  -4.11782  -0.15269  -0.51171
  -4.11782  -0.15269  -0.51171
  -4.35782  -0.15269  -0.51171
  -4.11782  -0.15269  -0.51171
  -4.11782  -0.39269  -0.51171
  -4.11782  -0.39269  -0.51171
  -4.11782  -0.39269  -0.27171
  -4.11782  -0.39269  -0.27171
  -4.35782  -0.39269  -0.27171
  -4.11782  -0.15269  -0.03171
  -4.11782  -0.15269  -0.03171
  -4.11782  -0.15269   0.20829
  -4.11782   0.08731   0.20829
  -4.11782   0.08731   0.44829
  -3.87782   0.08731   0.44829
  -3.87782   0.32731   0.68829
  -3.63782   0.32731   0.68829
  -3.63782   0.32731   0.92829
  -3.39782   0.32731   1.16829
  -3.39782   0.32731   1.16829
  -3.15782   0.32731   1.40829
  -3.15782   0.32731   1.40829
  -2.91782   0.08731   1.64829
  -2.67782  -0.15269   1.88829
  -2.67782  -0.15269   1.88829
  -2.67782  -0.15269   1.88829
  -2.43782  -0.15269   1.88829
  -2.43782  -0.39269   2.12829
  -2.43782  -0.39269   2.12829
  -2.43782  -0.63269   2.12829
  -2.19782  -0.63269   2.12829
  -2.19782  -0.63269   2.36829
  -2.19782  -0.87269   2.36829
  -2.19782  -0.87269   2.36829
  -2.43782  -0.63269   2.36829
  -2.43782  -0.87269   2.36829
  -2.43782  -0.63269   2.36829
  -2.67782  -0.63269   2.12829
  -2.67782  -0.63269   2.12829
  -2.67782  -0.39269   2.12829
  -2.67782  -0.15269   2.12829
  -2.67782  -0.15269   1.88829
  -2.67782   0.08731   1.88829
  -2.67782   0.08731   1.88829
  -2.91782   0.08731   1.64829
  -2.67782   0.32731   1.64829
  -2.67782   0.32731   1.64829
  -2.67782   0.56731   1.40829
  -2.67782   0.56731   1.40829
  -2.43782   0.56731   1.40829
  -2.43782   0.56731   1.16829
  -2.43782   0.56731   1.16829
  -2.19782   0.56731   0.92829
  -2.19782   0.56731   0.92829
  -2.19782   0.56731   0.92829
  -1.96782   0.56731   0.92829
  -1.72782   0.32731   0.92829
  -1.72782   0.32731   0.92829
  -1.48782   0.32731   0.92829
  -1.48782   0.08731   0.92829
  -1.24782  -0.15269   0.92829
  -1.00782  -0.15269   0.92829
  -0.52782  -0.15269   0.92829
  -0.28782  -0.39269   1.16829
  -0.28782  -0.39269   1.16829
   0.19218  -0.39269   1.16829
   0.19218  -0.39269   1.40829
   0.43218  -0.39269   1.40829
   0.67218  -0.39269   1.40829
   0.91218  -0.39269   1.40829
   1.15218  -0.63269   1.64829
   1.15218  -0.63269   1.64829
   1.15218  -0.63269   1.64829
   1.39218  -0.63269   1.88829
   1.39218  -0.63269   1.88829
   1.39218  -0.63269   1.88829
   1.39218  -0.63269   1.88829
   1.39218  -0.63269   2.12829
   1.39218  -0.39269   1.88829
   1.39218  -0.39269   1.88829
   1.39218  -0.15269   1.88829
   1.39218  -0.15269   1.88829
   1.15218   0.08731   1.64829
   1.39218   0.32731   1.64829
   1.15218   0.32731   1.64829
   1.15218   0.56731   1.40829
   1.15218   0.56731   1.40829
   1.15218   0.80731   1.40829
   1.15218   0.80731   1.16829
   1.15218   0.80731   1.16829
   0.91218   0.80731   0.92829
   0.91218   0.80731   0.92829
   0.91218   0.80731   0.68829
   0.91218   0.80731   0.44829
   0.67218   0.80731   0.44829
   0.67218   0.80731   0.20829
   0.67218   0.80731   0.20829
   0.67218   0.56731  -0.03171
   0.67218   0.56731  -0.03171
   0.67218   0.80731  -0.03171
   0.19218   0.80731  -0.03171
   0.67218   0.80731  -0.03171
   0.67218   0.80731  -0.03171
   0.67218   0.80731  -0.03171
   0.67218   0.80731  -0.03171
   0.67218   0.56731  -0.03171
   0.91218   0.56731  -0.03171
   0.91218   0.32731  -0.03171
   1.15218   0.32731  -0.03171
   1.15218   0.32731  -0.03171
   1.39218   0.32731   0.20829
   1.63218   0.32731  -0.03171
   1.63218   0.32731   0.20829
   1.63218   0.32731  -0.03171
   1.87218   0.32731  -0.03171
   1.87218   0.32731  -0.03171
   1.87218   0.32731  -0.03171
   2.11218   0.08731  -0.03171
   2.11218   0.08731  -0.27171
   2.11218  -0.15269  -0.27171
   2.11218  -0.15269  -0.27171
   2.11218  -0.39269  -0.51171
   2.11218  -0.39269  -0.75171
   2.11218  -0.63269  -0.75171
   2.11218  -0.63269  -0.99171
   2.11218  -0.63269  -0.99171
   1.87218  -0.63269  -1.22171
   1.87218  -0.63269  -1.46171
   1.87218  -0.63269  -1.46171
   1.87218  -0.63269  -1.70171
   1.87218  -0.63269  -1.94171
   1.87218  -0.63269  -2.18171
   1.87218  -0.63269  -2.18171
   1.87218  -0.63269  -2.42171
   1.87218  -0.63269  -2.66171
   2.11218  -0.63269  -2.90171
   2.11218  -0.63269  -2.90171
   2.11218  -0.63269  -3.14171
   2.11218  -0.63269  -3.38171
   2.11218  -0.39269  -3.38171
   2.35218  -0.39269  -3.38171
   2.35218  -0.39269  -3.38171
   2.35218  -0.15269  -3.62171
   2.35218  -0.15269  -3.38171
   2.59218  -0.15269  -3.38171
   2.59218  -0.15269  -3.38171
   2.59218   0.08731  -3.38171
   2.83218   0.08731  -3.38171
   2.83218   0.08731  -3.14171
   3.06218   0.08731  -3.14171
   3.06218   0.08731  -3.14171
   3.30218   0.08731  -2.90171
   3.30218  -0.15269  -2.90171
   3.54218  -0.15269  -2.66171
   3.54218  -0.39269  -2.66171
   3.78218  -0.63269  -2.42171
   4.02218  -0.87269  -2.18171
   4.02218  -0.87269  -2.18171
   4.02218  -0.87269  -2.18171
   4.26218  -0.87269  -1.94171
   4.26218  -0.63269  -1.94171
   4.50218  -0.63269  -1.94171
   4.50218  -0.63269  -1.70171
   4.50218  -0.63269  -1.70171
   4.50218  -0.63269  -1.70171
   4.74218  -0.63269  -1.46171
   4.74218  -0.63269  -1.46171
   4.74218  -0.63269  -1.46171
   4.74218  -0.39269  -1.22171
   4.74218  -0.39269  -1.22171
   4.74218  -0.39269  -1.22171
   4.50218  -0.15269  -1.22171
   4.50218  -0.15269  -0.99171
   4.50218  -0.15269  -0.99171
   4.50218  -0.15269  -0.99171
   4.50218   0.08731  -0.99171
   4.50218   0.08731  -0.99171
   4.26218   0.08731  -0.99171
   4.26218   0.32731  -0.99171
   4.26218   0.32731  -0.99171
   4.02218   0.32731  -0.99171
   4.02218   0.08731  -0.99171
   4.02218   0.08731  -0.99171
   4.02218   0.08731  -0.99171
   4.02218   0.08731  -1.22171
   4.02218   0.08731  -0.99171
   4.02218   0.08731  -0.99171
   4.02218   0.08731  -0.99171
   4.02218   0.08731  -0.99171
   4.02218   0.08731  -0.99171
   4.02218   0.08731  -0.75171
   4.02218   0.08731  -0.75171
   4.02218   0.08731  -0.75171
   4.02218   0.08731  -0.51171
   4.02218   0.08731  -0.51171
   4.26218   0.08731  -0.51171
   4.26218   0.08731  -0.51171
   4.26218   0.32731  -0.27171
   4.50218   0.08731  -0.27171
   4.50218   0.08731  -0.27171
   4.50218   0.08731  -0.27171
   4.74218  -0.15269  -0.27171
   4.74218  -0.15269  -0.27171
   4.74218  -0.39269  -0.27171
   4.98218  -0.39269  -0.27171
   4.74218  -0.63269  -0.03171
   4.74218  -0.63269  -0.27171
   4.98218  -0.63269  -0.27171
   4.74218  -0.63269  -0.27171
   4.74218  -0.87269  -0.27171
   4.74218  -0.87269  -0.27171
   4.74218  -0.87269  -0.27171
   4.74218  -0.87269  -0.27171
   4.50218  -1.11269  -0.27171
   4.50218  -0.87269  -0.27171
   4.50218  -0.87269  -0.27171
   4.50218  -0.87269  -0.03171
   4.02218  -0.87269  -0.03171
   4.26218  -0.87269  -0.03171
   4.02218  -0.87269  -0.03171
   4.02218  -0.87269  -0.03171
   4.02218  -0.87269  -0.03171
   3.78218  -0.87269  -0.03171
   3.78218  -0.87269  -0.03171
   3.54218  -0.87269  -0.03171
   3.54218  -0.63269   0.20829
   3.30218  -0.63269   0.20829
   3.06218  -0.63269   0.20829
   3.06218  -0.63269   0.20829
   2.59218  -0.63269   0.20829
   2.59218  -0.63269   0.44829
   2.59218  -0.63269   0.44829
   2.35218  -0.87269   0.44829
   2.11218  -0.87269   0.44829
   1.87218  -0.87269   0.44829
   1.87218  -0.87269   0.68829
   1.63218  -0.63269   0.68829
   1.39218  -0.63269   0.68829
   1.39218  -0.63269   0.68829
   1.15218  -0.39269   0.68829
   1.15218  -0.39269   0.92829
   0.91218  -0.15269   0.92829
   0.67218  -0.15269   0.92829
   0.67218   0.08731   0.68829
   0.43218   0.08731   0.68829
   0.43218   0.08731   0.68829
   0.19218   0.32731   0.68829
   0.19218   0.32731   0.68829
   0.19218   0.32731   0.44829
  -0.04782   0.32731   0.44829
  -0.28782   0.32731   0.44829
  -0.28782   0.32731   0.44829
  -0.52782   0.32731   0.20829
  -0.76782   0.32731   0.20829
  -1.00782   0.32731   0.20829
  -1.24782   0.32731   0.20829
  -1.48782   0.32731   0.20829
  -1.72782   0.32731   0.20829
  -1.96782   0.32731   0.20829
  -2.19782   0.32731   0.20829
  -2.43782   0.56731   0.44829
  -2.67782   0.56731   0.44829
  -2.91782   0.56731   0.44829
  -3.15782   0.56731   0.44829
  -3.39782   0.56731   0.44829
  -3.63782   0.32731   0.44829
  -3.87782   0.32731   0.44829
  -4.11782   0.32731   0.44829
  -4.35782   0.32731   0.44829
  -4.59782   0.56731   0.44829
  -4.83782   0.56731   0.44829
  -5.07782   0.56731   0.44829
  -5.07782   0.80731   0.44829
  -5.31782   0.80731   0.44829
  -5.55782   0.80731   0.44829
  -5.79782   1.04731   0.68829
  -5.55782   0.80731   0.68829
  -5.79782   1.04731   0.92829
  -5.79782   1.04731   0.92829
  -5.79782   0.56731   0.92829
  -5.79782   0.80731   0.92829
  -5.79782   0.80731   1.16829
  -5.79782   0.80731   1.16829
  -5.55782   0.80731   1.40829
  -5.55782   0.80731   1.40829
  -5.31782   0.80731   1.64829
  -5.07782   0.80731   1.64829
  -5.07782   0.80731   1.64829
  -4.83782   0.56731   1.88829
  -4.59782   0.80731   2.12829
  -4.59782   0.80731   2.12829
  -4.35782   0.80731   2.12829
  -4.11782   0.80731   2.36829
  -4.11782   0.56731   2.36829
  -3.87782   0.56731   2.60829
  -3.63782   0.56731   2.60829
  -3.63782   0.56731   2.84829
  -3.39782   0.32731   2.84829
  -3.39782   0.32731   3.08829
  -3.39782   0.32731   3.08829
  -3.39782   0.32731   3.08829
  -3.15782   0.32731   3.08829
  -3.15782   0.32731   3.32829
  -3.15782   0.32731   3.32829
  -3.15782   0.56731   3.32829
  -3.15782   0.56731   3.32829
  -3.15782   0.80731   3.32829
  -3.15782   0.80731   3.32829
  -3.15782   0.80731   3.08829
  -3.15782   0.80731   3.08829
  -3.15782   0.80731   3.08829
  -3.15782   0.80731   2.84829
  -3.15782   0.80731   2.84829
  -3.15782   0.80731   2.60829
  -3.15782   0.56731   2.36829
  -3.15782   0.56731   2.36829
  -3.15782   0.56731   2.12829
  -3.15782   0.32731   1.88829
  -3.39782   0.32731   1.88829
  -3.39782   0.32731   1.64829
  -3.39782   0.32731   1.64829
  -3.39782   0.08731   1.40829
  -3.39782   0.08731   1.40829
  -3.63782  -0.15269   1.40829
  -3.63782  -0.15269   1.16829
  -3.63782  -0.15269   1.16829
  -3.63782  -0.39269   1.16829
  -3.63782  -0.63269   1.16829
  -3.63782  -0.63269   1.16829
  -3.63782  -0.63269   1.16829
  -3.63782  -0.63269   1.16829
  -3.63782  -0.63269   1.16829
  -3.63782  -0.39269   1.40829
  -4.11782  -0.39269   1.16829
  -3.63782  -0.39269   1.16829
  -3.63782  -0.39269   1.40829
  -3.63782  -0.39269   1.40829
  -3.63782  -0.39269   1.40829
  -3.63782  -0.39269   1.40829
  -3.39782  -0.39269   1.40829
  -3.39782  -0.39269   1.40829
  -3.39782  -0.39269   1.40829
  -3.39782  -0.39269   1.40829
  -3.39782  -0.39269   1.40829
  -3.39782  -0.39269   1.16829
  -3.39782  -0.39269   1.16829
  -3.39782  -0.39269   0.92829
  -3.39782  -0.15269   0.92829
  -3.39782  -0.15269   0.92829
  -3.15782  -0.15269   0.68829
  -3.15782   0.08731   0.68829
  -3.15782   0.08731   0.44829
  -3.15782   0.32731   0.20829
  -3.15782   0.32731  -0.03171
  -2.91782   0.32731  -0.03171
  -2.91782   0.32731  -0.27171
  -2.67782   0.32731  -0.51171
  -2.67782   0.32731  -0.75171
  -2.67782   0.32731  -0.99171
  -2.67782   0.32731  -0.99171
  -2.67782   0.32731  -1.22171
  -2.43782   0.32731  -1.46171
  -2.43782   0.32731  -1.46171
  -2.43782   0.32731  -1.70171
  -2.43782   0.32731  -1.94171
  -2.43782   0.32731  -1.94171
  -2.43782   0.32731  -2.18171
  -2.43782   0.32731  -2.42171
  -2.43782   0.32731  -2.42171
  -2.43782   0.32731  -2.42171
  -2.43782   0.32731  -2.42171
  -2.43782   0.32731  -2.42171
  -2.43782   0.32731  -2.42171
  -2.67782   0.08731  -2.66171
  -2.19782   0.32731  -2.42171
  -2.19782   0.32731  -2.42171
  -2.19782   0.32731  -2.42171
  -1.96782   0.32731  -2.42171
  -1.72782   0.32731  -2.42171
  -1.72782   0.32731  -2.42171
  -1.48782   0.32731  -2.42171
  -1.24782   0.32731  -2.18171
  -1.24782   0.32731  -2.18171
  -1.00782   0.56731  -1.94171
  -1.00782   0.56731  -1.94171
  -0.76782   0.32731  -1.70171
  -0.76782   0.32731  -1.70171
  -0.52782   0.32731  -1.46171
  -0.52782   0.32731  -1.46171
  -0.52782   0.32731  -1.46171
  -0.28782   0.32731  -1.22171
  -0.28782   0.32731  -1.22171
  -0.28782   0.32731  -1.22171
  -0.28782   0.32731  -0.99171
  -0.04782   0.32731  -0.99171
  -0.04782   0.32731  -0.99171
  -0.04782   0.32731  -0.99171
  -0.04782   0.32731  -0.99171
   0.19218   0.32731  -0.99171
   0.19218   0.32731  -0.99171
   0.19218   0.08731  -1.22171
   0.19218   0.08731  -1.22171
   0.19218   0.08731  -1.22171
   0.19218  -0.15269  -1.22171
   0.19218  -0.15269  -1.46171
   0.19218  -0.15269  -1.46171
   0.19218  -0.39269  -1.46171
   0.19218  -0.39269  -1.46171
   0.19218  -0.63269  -1.70171
   0.19218  -0.63269  -1.70171
   0.19218  -0.63269  -1.70171
   0.19218  -0.63269  -1.94171
   0.19218  -0.63269  -1.94171
  -0.04782  -0.39269  -1.94171
  -0.04782  -0.39269  -2.18171
  -0.04782  -0.15269  -2.18171
  -0.04782  -0.15269  -2.18171
  -0.04782  -0.15269  -2.18171
  -0.04782  -0.15269  -2.18171
  -0.04782  -0.15269  -2.18171
   0.19218  -0.15269  -2.18171
  -0.04782  -0.15269  -2.18171
   0.19218  -0.15269  -2.18171
   0.19218  -0.15269  -2.18171
