********************************************************************************
              CENTRO DE INSTRUMENTACION Y REGISTRO SISMICO  A.C.

    Anaxagoras 814, Col. Narvarte, Benito Juarez, C.P. 03020 Mexico, D.F.
           Tels. 5687 45 42/ 5687 45  82             Fax. 5669 25 12
********************************************************************************
ARCHIVO ESTANDAR DE ACELERACION:
VERSION DEL FORMATO                    : 2.0
NOMBRE DEL ARCHIVO                     : AU1120120402173642
FECHA Y HORA DE CREACION               : 15/MAY/12, 09:41
REF. CATALOGO ACELEROGRAMAS, SMIS 1996 : REGISTRO No.     /PAG.


================================================================================
DATOS DE LA ESTACION:
NOMBRE DE LA ESTACION                  : AUTÓDROMO
CLAVE DE LA ESTACION                   : AU11
LOCALIZACION DE LA ESTACION            : Del. Iztacalco, Cd. Deportiva          
                                       : Magdalena Mixhuca,                     
                                       : Col. Granjas México                    
                                       :                                        
                                       : 
COORDENADAS DE LA ESTACION             : 19.3919 LAT. N
                                       : 99.0869 LONG. W
ALTITUD (msnm)                         : 2234
TIPO DE SUELO                          : Terreno blando, material compresible
                                       : (arcillas)                
                                       : 
INSTITUCION RESPONSABLE                : CIRES
                                       : 

================================================================================
DATOS DEL ACELEROGRAFO:
MODELO DEL ACELEROGRAFO                : RADESD
NUMERO DE SERIE DEL ACELEROGRAFO       : 157
NUMERO DE CANALES                      : 3
ORIENTACION C1-C6 (rumbo;orientacion)  : /N00E/+V/N90W
ORIENTACION C7-C12 (rumbo;orientacion) : 
VEL. DE MUESTREO, C1-C6 (muestras/s)   : /100/100/100
VEL. DE MUESTREO, C7-C12 (muestras/s)  : 
ESC. COMPLETA DE SENSORES, C1-C6, (g)  : /0.5/0.5/0.5
ESC. COMPLETA DE SENSORES, C7-C12, (g) : 
FREC. NAT. DE SENSORES, C1-C6, (Hz)    : /51.77/52.56/52.29
FREC. NAT. DE SENSORES, C7-C12, (Hz)   : 
AMORTIGUAMIENTO DE SENSORES, C1-C6     : /0.5912/0.6083/0.6067
AMORTIGUAMIENTO DE SENSORES, C7-C12    : 
INTERVALO DE MUESTREO, C1-C6, (s)      : /0.01/0.01/0.01
INTERVALO DE MUESTREO, C7-C12, (s)     : 
UMBRAL DE DISPARO, C1-C6, (Gal)        : /0.72/1.92/0.72
UMBRAL DE DISPARO, C7-C12, (Gal)       : 
MEMORIA DE PREEVENTO (s)               : 56.0
TIEMPO DE POSEVENTO (s)                : 64.0


================================================================================
DATOS DEL SISMO:
FECHA DEL SISMO (GMT)                  : 02/ABR/12
HORA EPICENTRO (GMT)                   : 17:36:42.0
MAGNITUD(ES)                           : /Mc=6.0
COORDENADAS DEL EPICENTRO              : 16.27 LAT. N
                                       : 98.47 LONG. W
PROFUNDIDAD FOCAL (km)                 : 10
FUENTE DE LOS DATOS EPICENTRALES       : SSN
                                       : INSTITUTO DE GEOFISICA, UNAM

================================================================================
DATOS DE ESTE REGISTRO:
HORA DE LA PRIMERA MUESTRA (GMT)       : 17:38:11.00
EXACTITUD DEL TIEMPO (s)               : 0.01
DURACION DEL REGISTRO (s), C1-C6       : /476.75/476.75/476.75
DURACION DEL REGISTRO (s), C7-C12      : 
NUM. TOTAL DE MUESTRAS, C1-C6          : /47675/47675/47675
NUM. TOTAL DE MUESTRAS, C7-C12         : 
ACEL. MAX. (Gal), C1-C6                : /8.03867/1.36384/8.58374
ACEL. MAX., C1-C6, EN LA MUESTRA       : /13552/9630/13266
ACEL. MAX. (Gal), C7-C12               : 
ACEL. MAX., C7-C12, EN LA MUESTRA      : 
UNIDADES DE LOS DATOS                  : Gal (cm/s/s)
FACTOR DE DECIMACION                   : 1
FORMATO DATOS (FORTRAN,10 campos/dato) : 3F10.5


================================================================================
CALIDAD DEL ACELEROGRAMA:
REGISTRO DIGITAL COMPLETO CON TIEMPO ABSOLUTO CORRECTO.


================================================================================
COMENTARIOS:














================================================================================
DATOS DE ACELERACION:
---------+---------+---------+---------+---------+---------+---------+---------+
   CANAL-1   CANAL-2   CANAL-3   CANAL-4   CANAL-5   CANAL-6   CANAL-7   CANAL-8
      N00E        +V      N90W
---------+---------+---------+---------+---------+---------+---------+---------+
[...]
   4.41118   0.07268  -5.95011
   4.41118   0.31210  -5.47127
   4.65060   0.07268  -5.23185
   4.65060   0.07268  -5.23185
   4.89002   0.31210  -5.23185
   4.89002   0.07268  -5.23185
   5.12944   0.31210  -5.23185
   5.12944   0.07268  -5.23185
   5.36886   0.07268  -4.99243
   5.36886   0.31210  -4.75301
   5.36886   0.31210  -4.99243
   5.60828   0.07268  -4.51359
   5.60828   0.07268  -4.75301
   5.60828   0.07268  -4.75301
   5.60828   0.07268  -4.27417
   5.84770   0.07268  -4.27417
   5.84770   0.07268  -4.03475
   5.84770  -0.16674  -4.03475
   5.84770  -0.16674  -4.27417
   6.08712   0.07268  -4.03475
   6.08712   0.07268  -4.27417
   6.08712   0.07268  -3.79533
   6.08712   0.07268  -3.55591
   6.08712  -0.16674  -3.79533
   6.32654   0.07268  -3.55591
   6.32654  -0.16674  -3.31649
   6.56596  -0.16674  -3.31649
   6.32654  -0.16674  -3.31649
   6.56596  -0.16674  -3.07707
   6.32654  -0.16674  -3.07707
   6.08712  -0.16674  -2.83765
   6.56596  -0.16674  -3.07707
   6.56596  -0.16674  -2.83765
   6.56596  -0.16674  -2.59823
   6.32654  -0.16674  -2.59823
   6.32654  -0.40616  -2.59823
   6.56596  -0.16674  -2.59823
   6.56596  -0.16674  -2.59823
   6.56596  -0.16674  -2.35881
   6.32654  -0.16674  -2.11939
   6.32654  -0.16674  -2.11939
   6.56596  -0.16674  -2.11939
   6.32654  -0.16674  -1.87997
   6.32654  -0.16674  -1.64055
   6.32654  -0.16674  -1.64055
   6.56596  -0.16674  -1.64055
   6.32654  -0.40616  -1.64055
   6.56596  -0.16674  -1.40113
   6.32654  -0.16674  -1.40113
   6.32654  -0.16674  -1.16171
   6.32654  -0.16674  -1.16171
   6.32654  -0.16674  -0.92229
   6.32654  -0.16674  -0.92229
   6.32654   0.07268  -0.68287
   6.32654  -0.16674  -0.92229
   6.32654   0.07268  -0.92229
   6.08712  -0.16674  -0.44345
   6.32654  -0.16674  -0.92229
   6.08712  -0.16674  -0.68287
   6.08712  -0.16674  -0.44345
   6.08712  -0.16674  -0.20403
   6.08712   0.07268  -0.20403
   6.08712  -0.16674   0.03539
   6.32654  -0.16674   0.03539
   6.08712  -0.16674   0.03539
   5.84770  -0.40616   0.27481
   6.08712   0.07268   0.27481
   6.08712   0.07268   0.27481
   5.84770   0.07268   0.27481
   6.08712   0.07268   0.51423
   5.84770   0.07268   0.75365
   5.84770  -0.16674   0.51423
   5.84770  -0.16674   0.75365
   5.84770  -0.16674   0.75365
   5.84770  -0.16674   0.99307
   5.60828  -0.16674   0.99307
   5.84770  -0.16674   0.99307
   5.36886  -0.16674   0.99307
   5.60828  -0.16674   1.23249
   5.60828   0.07268   1.23249
   5.60828   0.07268   1.47191
   5.60828   0.07268   1.71133
   5.60828  -0.16674   1.71133
   5.60828  -0.16674   1.71133
   5.60828   0.31210   1.95075
   5.36886   0.07268   1.95075
   5.36886   0.31210   1.95075
   5.36886   0.31210   1.95075
   5.60828   0.31210   2.19017
   5.60828   0.31210   2.19017
   5.36886   0.31210   2.42959
   5.36886   0.31210   2.42959
   5.36886   0.31210   2.66901
   5.36886   0.31210   2.90843
   5.12944   0.31210   2.90843
   5.12944   0.31210   3.14785
   5.12944   0.55152   3.14785
   5.12944   0.55152   3.38727
   4.89002   0.31210   3.38727
   4.89002   0.31210   3.62669
   4.89002   0.31210   3.86611
   5.12944   0.31210   3.86611
   4.89002   0.07268   3.86611
   4.89002   0.31210   3.86611
   4.89002   0.31210   4.10553
   4.89002   0.31210   4.34495
   4.65060   0.31210   4.34495
   4.41118   0.07268   4.34495
   4.65060   0.07268   4.34495
   4.17176   0.07268   4.58437
   4.41118   0.31210   4.82379
   4.41118   0.31210   5.06321
   4.17176   0.31210   4.82379
   4.17176   0.31210   5.06321
   4.41118   0.07268   5.06321
   4.17176   0.07268   5.30263
   4.17176   0.07268   5.30263
   3.93234   0.31210   5.54205
   3.93234  -0.16674   5.54205
   3.69292   0.31210   6.02089
   3.93234   0.07268   5.54205
   3.69292   0.07268   5.78147
   3.69292   0.07268   5.78147
   3.45350  -0.16674   6.02089
   3.45350   0.07268   6.02089
   3.45350   0.07268   6.02089
   3.45350  -0.16674   6.02089
   3.45350   0.07268   6.26031
   3.21408   0.07268   6.49973
   3.45350  -0.16674   6.26031
   2.97466  -0.16674   6.49973
   2.97466  -0.16674   6.49973
   2.97466  -0.16674   6.73915
   2.73524  -0.40616   6.73915
   2.73524  -0.16674   6.97857
   2.73524  -0.16674   6.73915
   2.49582  -0.16674   6.73915
   2.49582  -0.16674   6.97857
   2.49582  -0.16674   6.73915
   2.25640  -0.16674   6.97857
   2.01697  -0.16674   7.21799
   2.25640  -0.16674   7.21799
   2.01697  -0.16674   6.97857
   2.01697  -0.40616   7.21799
   1.77755  -0.40616   6.97857
   2.01697  -0.40616   6.97857
   1.53813  -0.40616   7.21799
   1.53813  -0.40616   7.45741
   1.77755  -0.40616   7.21799
   1.29871  -0.40616   7.21799
   1.29871  -0.40616   7.21799
   1.29871  -0.40616   7.21799
   1.05929  -0.64558   7.45741
   1.05929  -0.64558   7.21799
   1.05929  -0.40616   7.45741
   0.58045  -0.64558   7.45741
   0.58045  -0.40616   7.69683
   0.34103  -0.40616   7.45741
   0.34103  -0.40616   7.69683
   0.10161  -0.40616   7.69683
   0.10161  -0.40616   7.45741
  -0.13781  -0.40616   7.69683
  -0.13781  -0.40616   7.69683
  -0.13781  -0.40616   7.45741
  -0.37723  -0.16674   7.45741
  -0.61665  -0.16674   7.69683
  -0.85607  -0.16674   7.93625
  -0.85607  -0.40616   7.69683
  -1.33491  -0.40616   7.69683
  -1.09549  -0.40616   7.69683
  -1.33491  -0.16674   7.69683
  -1.33491  -0.16674   7.45741
  -1.57433  -0.40616   7.45741
  -1.81375  -0.16674   7.45741
  -1.81375  -0.16674   7.45741
  -2.05317  -0.16674   7.69683
  -2.05317  -0.16674   7.45741
  -2.05317  -0.16674   7.21799
  -2.53201  -0.40616   7.45741
  -2.53201  -0.16674   7.69683
  -2.53201  -0.16674   7.45741
  -2.77143  -0.16674   7.21799
  -2.77143   0.07268   7.21799
  -3.01085   0.07268   7.21799
  -3.01085   0.07268   7.21799
  -3.48969  -0.16674   7.21799
  -3.25027   0.07268   7.21799
  -3.48969   0.07268   6.97857
  -3.48969   0.07268   7.21799
  -3.48969   0.07268   6.97857
  -3.72911   0.07268   6.97857
  -3.72911   0.07268   6.49973
  -4.20795  -0.16674   6.73915
  -3.96853   0.07268   6.97857
  -3.96853   0.31210   6.97857
  -4.20795  -0.16674   6.49973
  -4.44737   0.07268   6.73915
  -4.20795   0.07268   6.49973
  -4.44737   0.07268   6.26031
  -4.44737  -0.16674   6.02089
  -4.68679  -0.16674   6.26031
  -4.92621   0.07268   6.02089
  -4.92621  -0.16674   5.78147
  -4.68679  -0.16674   5.78147
  -4.92621  -0.16674   5.54205
  -4.92621   0.07268   5.30263
  -4.92621  -0.16674   5.30263
  -5.16563  -0.16674   5.30263
  -5.16563   0.07268   5.06321
  -5.40505  -0.16674   4.82379
  -5.16563   0.07268   4.58437
  -5.16563   0.07268   4.58437
  -5.40505  -0.16674   4.58437
  -5.64447  -0.16674   4.34495
  -5.40505  -0.16674   4.34495
  -5.40505  -0.16674   4.34495
  -5.64447  -0.16674   4.10553
  -5.88389  -0.16674   3.86611
  -5.88389  -0.16674   3.86611
  -5.64447   0.07268   3.86611
  -5.88389   0.07268   3.62669
  -5.88389   0.07268   3.62669
  -5.88389   0.07268   3.38727
  -6.12331   0.07268   3.38727
  -6.36273  -0.16674   3.14785
  -6.36273   0.07268   2.90843
  -6.36273   0.07268   2.90843
  -6.36273   0.07268   2.66901
  -6.36273   0.07268   2.42959
  -6.36273   0.07268   2.66901
  -6.36273   0.07268   2.42959
  -6.36273  -0.16674   2.19017
  -6.36273   0.07268   2.42959
  -6.60215  -0.16674   1.95075
  -6.36273   0.07268   1.71133
  -6.36273   0.07268   1.95075
  -6.60215   0.07268   1.95075
  -6.84157  -0.16674   1.47191
  -6.60215   0.07268   1.23249
  -6.60215   0.07268   0.99307
  -6.60215  -0.16674   1.23249
  -6.84157   0.07268   0.99307
  -6.60215   0.07268   0.99307
  -6.84157  -0.16674   0.75365
  -6.60215  -0.16674   0.51423
  -6.60215  -0.16674   0.51423
  -6.60215  -0.16674   0.27481
  -6.60215  -0.16674   0.27481
  -6.60215  -0.40616   0.27481
  -6.84157  -0.40616   0.03539
  -6.60215  -0.16674   0.03539
  -6.60215  -0.16674  -0.20403
  -6.60215  -0.40616  -0.20403
  -6.84157  -0.40616  -0.44345
  -6.60215  -0.40616  -0.68287
  -6.60215  -0.16674  -0.68287
  -6.60215  -0.16674  -0.68287
  -6.60215  -0.16674  -0.92229
  -6.36273   0.31210  -0.68287
  -6.60215  -0.16674  -1.16171
  -6.60215  -0.16674  -1.16171
  -6.60215  -0.16674  -1.40113
  -6.36273   0.07268  -1.40113
  -6.36273  -0.16674  -1.64055
  -6.36273   0.07268  -1.64055
  -6.36273   0.07268  -1.64055
  -6.12331   0.07268  -1.87997
  -6.12331   0.07268  -1.87997
  -6.12331   0.07268  -2.35881
  -6.12331   0.07268  -2.11939
  -6.12331   0.07268  -2.35881
  -5.88389   0.07268  -2.35881
  -6.12331   0.07268  -2.35881
  -5.88389   0.07268  -2.59823
  -5.88389   0.07268  -2.59823
  -5.64447  -0.16674  -2.83765
  -5.64447   0.07268  -3.07707
  -5.64447   0.07268  -3.07707
  -5.64447   0.31210  -3.07707
  -5.64447   0.07268  -3.31649
  -5.64447   0.07268  -3.31649
  -5.64447   0.31210  -3.31649
  -5.40505   0.31210  -3.31649
  -5.40505   0.07268  -3.55591
  -5.40505   0.07268  -3.79533
  -5.16563   0.31210  -3.79533
  -5.40505   0.31210  -3.79533
  -5.16563   0.31210  -4.03475
  -5.16563   0.31210  -4.03475
  -5.16563   0.07268  -4.27417
  -4.92621   0.07268  -4.27417
  -4.68679   0.31210  -4.27417
  -4.92621   0.07268  -4.51359
  -4.68679   0.31210  -4.75301
  -4.92621   0.07268  -4.75301
  -4.44737   0.07268  -4.99243
  -4.92621   0.07268  -4.99243
  -4.44737   0.31210  -5.23185
  -4.68679   0.31210  -4.99243
  -4.44737   0.07268  -4.99243
  -4.44737   0.07268  -5.23185
  -4.20795   0.31210  -5.47127
  -4.44737   0.07268  -5.23185
  -4.20795   0.31210  -5.23185
  -4.20795   0.07268  -5.71069
  -4.20795   0.07268  -5.47127
  -3.96853   0.07268  -5.95011
  -4.20795   0.07268  -5.95011
  -4.20795   0.07268  -5.95011
  -3.96853   0.31210  -5.95011
  -4.20795   0.07268  -6.18953
  -3.96853   0.31210  -6.18953
  -3.72911   0.31210  -6.42895
  -3.72911   0.07268  -6.42895
  -3.72911   0.07268  -6.18953
  -3.48969   0.07268  -6.66838
  -3.48969   0.07268  -6.42895
  -3.48969   0.07268  -6.66838
  -3.25027   0.07268  -6.42895
  -3.25027   0.07268  -6.90780
  -3.48969   0.07268  -7.14722
  -3.01085   0.07268  -7.14722
  -3.01085   0.31210  -7.14722
  -3.01085  -0.16674  -7.14722
  -3.01085   0.31210  -7.14722
  -3.01085   0.07268  -7.14722
  -2.77143   0.31210  -7.62606
  -2.77143  -0.16674  -7.14722
  -2.53201   0.07268  -7.38664
  -2.53201   0.07268  -7.62606
  -2.53201   0.07268  -7.62606
  -2.29259   0.07268  -7.86548
  -2.29259   0.07268  -7.62606
  -2.05317   0.07268  -7.62606
  -2.05317   0.07268  -7.86548
  -2.05317   0.07268  -8.10490
  -2.05317   0.31210  -7.86548
  -1.57433   0.31210  -8.10490
  -1.81375   0.07268  -8.10490
  -1.57433   0.07268  -8.34432
  -1.57433  -0.16674  -8.34432
  -1.33491  -0.16674  -8.34432
  -1.09549   0.07268  -8.34432
  -1.33491   0.31210  -8.34432
  -1.09549   0.07268  -8.34432
  -1.09549   0.07268  -8.34432
  -0.61665   0.07268  -8.58374
  -0.85607   0.31210  -8.58374
  -0.61665   0.07268  -8.34432
  -0.61665   0.07268  -8.58374
  -0.37723   0.07268  -8.58374
  -0.37723   0.31210  -8.58374
  -0.13781   0.31210  -8.34432
  -0.13781   0.07268  -8.58374
   0.10161   0.07268  -8.34432
   0.34103   0.31210  -8.58374
   0.34103   0.31210  -8.58374
   0.58045   0.31210  -8.34432
   0.58045   0.31210  -8.58374
   0.81987   0.31210  -8.34432
   0.81987   0.31210  -8.34432
   1.05929   0.31210  -8.34432
   1.05929   0.31210  -8.10490
   1.29871   0.31210  -8.10490
   1.29871   0.31210  -7.86548
   1.53813   0.07268  -7.86548
   1.77755   0.31210  -7.86548
   1.77755   0.31210  -8.10490
   2.01697   0.31210  -7.86548
   2.25640   0.31210  -7.38664
   2.25640   0.07268  -7.62606
   2.25640   0.31210  -7.38664
   2.49582   0.31210  -7.62606
   2.49582   0.31210  -7.38664
   2.73524   0.07268  -7.38664
   2.97466   0.31210  -7.38664
   3.21408   0.31210  -7.38664
   3.21408   0.31210  -7.14722
   3.21408   0.31210  -6.90780
   3.69292   0.31210  -6.90780
   3.69292   0.07268  -6.90780
   3.69292   0.07268  -6.66838
   3.93234   0.07268  -6.66838
   4.17176   0.07268  -6.66838
   4.17176   0.07268  -6.18953
   4.41118   0.07268  -6.42895
   4.41118   0.07268  -6.18953
   4.65060   0.07268  -6.18953
   5.12944   0.07268  -6.18953
   4.89002   0.07268  -5.95011
   5.36886   0.07268  -5.95011
   5.12944   0.07268  -5.71069
   5.36886   0.07268  -5.47127
   5.60828   0.07268  -5.47127
   5.60828   0.07268  -5.47127
   5.60828   0.07268  -5.23185
   5.84770   0.07268  -5.23185
   5.84770   0.07268  -4.99243
   5.84770   0.07268  -4.99243
   6.08712  -0.16674  -4.75301
   6.32654  -0.16674  -4.51359
   6.08712   0.07268  -4.51359
   6.32654   0.07268  -4.51359
   6.32654   0.31210  -4.27417
   6.56596   0.07268  -4.03475
   6.56596   0.31210  -4.03475
   6.56596   0.07268  -3.79533
   6.80538   0.07268  -3.79533
   6.56596   0.07268  -3.55591
   6.80538   0.07268  -3.55591
   6.56596   0.07268  -3.31649
   6.80538   0.07268  -3.55591
   6.80538   0.07268  -3.31649
   6.80538   0.07268  -3.07707
   7.04480   0.07268  -2.83765
   7.04480   0.31210  -2.83765
   7.04480   0.07268  -2.59823
   7.04480   0.07268  -2.59823
   7.52364   0.07268  -2.83765
   7.28422   0.07268  -2.59823
   7.28422   0.31210  -2.35881
   7.28422   0.07268  -2.35881
   7.52364   0.07268  -2.11939
   7.28422   0.31210  -2.11939
   7.28422   0.07268  -1.87997
   7.52364   0.07268  -1.64055
   7.52364   0.07268  -1.64055
   7.28422   0.07268  -1.40113
   7.28422   0.07268  -1.40113
   7.28422   0.07268  -1.40113
   7.28422   0.31210  -1.16171
   7.28422   0.07268  -0.92229
   7.52364   0.07268  -0.92229
   7.28422   0.31210  -0.44345
   7.52364   0.31210  -0.20403
   7.52364   0.31210  -0.44345
   7.28422   0.07268  -0.44345
   7.52364   0.07268  -0.20403
   7.28422   0.31210   0.03539
   7.28422   0.07268  -0.20403
   7.28422   0.31210   0.03539
   7.28422   0.31210   0.27481
   7.28422   0.07268   0.27481
   7.04480   0.07268   0.51423
   7.04480   0.07268   0.51423
   7.04480   0.07268   0.51423
   6.80538   0.07268   0.75365
   6.80538   0.07268   0.75365
   6.80538   0.07268   0.75365
   6.80538  -0.16674   0.99307
   6.56596  -0.16674   0.99307
   6.80538   0.07268   1.23249
   6.56596   0.07268   1.47191
   6.56596   0.07268   1.47191
   6.56596   0.07268   1.47191
   6.32654   0.07268   1.71133
   6.32654   0.07268   1.71133
   6.32654  -0.16674   1.71133
   6.08712  -0.16674   1.95075
   5.84770  -0.16674   1.95075
   5.84770   0.07268   2.19017
   5.84770  -0.16674   2.42959
   5.60828  -0.40616   2.42959
   5.60828  -0.16674   2.42959
   5.60828  -0.16674   2.42959
   5.12944  -0.16674   2.66901
   5.36886  -0.16674   2.66901
   5.12944  -0.40616   2.66901
   5.12944  -0.16674   3.14785
   5.12944  -0.16674   3.14785
   4.89002  -0.16674   3.14785
   4.89002  -0.16674   3.38727
   4.65060  -0.16674   3.62669
   4.41118  -0.16674   3.62669
   4.41118   0.07268   3.86611
   4.17176  -0.16674   3.86611
   4.17176   0.07268   4.10553
   3.93234  -0.40616   4.10553
   3.93234   0.07268   4.10553
   3.93234   0.07268   4.34495
   3.93234  -0.16674   4.34495
   3.69292  -0.16674   4.10553
   3.69292  -0.16674   4.34495
   3.45350  -0.16674   4.82379
   3.45350  -0.16674   4.82379
   3.21408   0.07268   4.82379
   3.21408  -0.16674   4.82379
   2.97466  -0.16674   5.06321
   2.73524  -0.16674   5.06321
   2.73524  -0.16674   5.30263
   2.49582  -0.16674   5.54205
   2.73524  -0.16674   5.30263
   2.49582   0.07268   5.54205
   2.49582  -0.16674   5.78147
   2.49582  -0.16674   5.78147
   2.49582  -0.16674   5.78147
