********************************************************************************
               CENTRO DE INSTRUMENTACION Y REGISTRO SISMICO  A.C.  
                       Coordinacion de Servicios Tecnicos
     Anaxagoras 814, Col. Narvarte, Benito Juarez, C.P. 03020 Mexico, D.F.
            Tels. 667 45 42/ 687 45  82             Fax. 669 25 12
********************************************************************************
ARCHIVO ESTANDAR DE ACELERACION:
VERSION DEL FORMATO                    : 2.0
NOMBRE DEL ARCHIVO                     : AU110110.081
FECHA Y HORA DE CREACION               : 06/JUL/04, 09:10
REF. CATALOGO ACELEROGRAMAS, SMIS 1996 : REGISTRO No.     /PAG.


================================================================================
DATOS DE LA ESTACION:
NOMBRE DE LA ESTACION                  : AUTODROMO
CLAVE DE LA ESTACION                   : AU11
LOCALIZACION DE LA ESTACION            : AUTODROMO HERMANOS RODRIGUEZ,
                                       : CHURUBUSCO, CD. DEPORTIVA
                                       :
                                       :
                                       :
COORDENADAS DE LA ESTACION             : 19.392 LAT. N 
                                       : 99.087 LONG. W 
ALTITUD (msnm)                         : 2234
TIPO DE SUELO                          : TERRENO BLANDO, MATERIAL COMPRESIBLE
                                       : (ARCILLAS)
                                       : 
INSTITUCION RESPONSABLE                : CIRES 
                                       :

================================================================================
DATOS DEL ACELEROGRAFO:
MODELO DEL ACELEROGRAFO                : SSA-1
NUMERO DE SERIE DEL ACELEROGRAFO       : 157
NUMERO DE CANALES                      : 3
ORIENTACION C1-C6 (rumbo;orientacion)  : /N00E/+V/N90E
ORIENTACION C7-C12 (rumbo;orientacion) :
VEL. DE MUESTREO, C1-C6 (muestras/s)   : /200/200/200
VEL. DE MUESTREO, C7-C12 (muestras/s)  :
ESC. COMPLETA DE SENSORES, C1-C6, (g)  : /2/2/2
ESC. COMPLETA DE SENSORES, C7-C12, (g) :
FREC. NAT. DE SENSORES, C1-C6, (Hz)    : /51.77/52.56/52.29
FREC. NAT. DE SENSORES, C7-C12, (Hz)   :
AMORTIGUAMIENTO DE SENSORES, C1-C6     : /.5912/.6083/.6067
AMORTIGUAMIENTO DE SENSORES, C7-C12    :
INTERVALO DE MUESTREO, C1-C6, (s)      : /0.005/0.005/0.005
INTERVALO DE MUESTREO, C7-C12, (s)     :
UMBRAL DE DISPARO, C1-C6, (Gal)        : /2/2/2
UMBRAL DE DISPARO, C7-C12, (Gal)       :
MEMORIA DE PREEVENTO (s)               : 15
TIEMPO DE POSEVENTO (s)                : 60


================================================================================
DATOS DEL SISMO:
FECHA DEL SISMO (GMT)                  : 08/OCT/01
HORA EPICENTRO (GMT)                   : 03:39:19:3
MAGNITUD(ES)                           : /Mb=5.6/Ms=5.4/Mc=5.5/Ma=7.6/Me=6.1
COORDENADAS DEL EPICENTRO              : 16.94 LAT. N
                                       : 100.14 LONG. W
PROFUNDIDAD FOCAL (km)                 : 4.0
FUENTE DE LOS DATOS EPICENTRALES       : SSN
                                       : INSTITUTO DE GEOFISICA, UNAM

================================================================================
DATOS DE ESTE REGISTRO:
HORA DE LA PRIMERA MUESTRA (GMT)       : 03:40:38.00
EXACTITUD DEL TIEMPO (s)               :     
DURACION DEL REGISTRO (s), C1-C6       : /151.04/151.04/151.04
DURACION DEL REGISTRO (s), C7-C12      :
NUM. TOTAL DE MUESTRAS, C1-C6          : /30208/30208/30208
NUM. TOTAL DE MUESTRAS, C7-C12         :
ACEL. MAX. (Gal), C1-C6                : /5.14147/1.70788/4.28651
ACEL. MAX., C1-C6, EN LA MUESTRA       :
ACEL. MAX. (Gal), C7-C12               :
ACEL. MAX., C7-C12, EN LA MUESTRA      :
UNIDADES DE LOS DATOS                  : Gal (cm/s/s)
FACTOR DE DECIMACION                   : 1
FORMATO DATOS (FORTRAN,10 campos/dato) : 3F10.5


================================================================================
CALIDAD DEL ACELEROGRAMA:
REGISTRO DIGITAL COMPLETO, CARECE DE TIEMPO ABSOLUTO.


================================================================================
COMENTARIOS:














================================================================================
DATOS DE ACELERACION:
---------+---------+---------+---------+---------+---------+---------+---------+
   CANAL-1   CANAL-2   CANAL-3   CANAL-4   CANAL-5   CANAL-6   CANAL-7   CANAL-8
      N00E        +V      N90E
---------+---------+---------+---------+---------+---------+---------+---------+
[...]
   0.11147   0.03788   1.40651
   0.11147   0.27788   1.40651
   0.35147   0.27788   1.16651
   0.35147   0.27788   0.92651
   0.59147   0.27788   0.69651
   0.59147   0.03788   0.45651
   0.59147   0.27788   0.45651
   0.83147   0.27788   0.21651
   0.83147   0.27788  -0.02349
   1.07147   0.03788  -0.26349
   1.07147   0.27788  -0.50349
   1.07147   0.27788  -0.74349
   1.31147   0.27788  -0.98349
   1.31147   0.27788  -0.98349
   1.31147   0.27788  -1.22349
   1.54147   0.27788  -1.22349
   1.54147   0.27788  -1.46349
   1.78147   0.27788  -1.70349
   1.78147   0.03788  -1.70349
   2.02147   0.03788  -1.94349
   2.02147   0.03788  -1.94349
   2.26147   0.03788  -1.94349
   2.26147  -0.20212  -2.18349
   2.50147  -0.20212  -2.18349
   2.50147  -0.20212  -2.42349
   2.74147  -0.20212  -2.42349
   2.98147  -0.20212  -2.66349
   2.98147  -0.20212  -2.66349
   2.98147  -0.20212  -2.66349
   3.22147  -0.20212  -2.90349
   3.22147  -0.20212  -2.90349
   3.22147  -0.20212  -2.90349
   3.46147  -0.20212  -3.14349
   3.46147  -0.20212  -3.14349
   3.46147  -0.20212  -3.38349
   3.46147  -0.20212  -3.38349
   3.46147  -0.20212  -3.38349
   3.46147  -0.20212  -3.38349
   3.46147  -0.20212  -3.38349
   3.46147  -0.20212  -3.62349
   3.46147  -0.20212  -3.38349
   3.46147  -0.20212  -3.62349
   3.22147  -0.44212  -3.62349
   2.98147  -0.20212  -3.38349
   2.98147  -0.20212  -3.62349
   2.98147  -0.20212  -3.38349
   2.74147  -0.20212  -3.38349
   2.74147  -0.44212  -3.38349
   2.74147  -0.20212  -3.38349
   2.50147  -0.20212  -3.38349
   2.50147  -0.44212  -3.38349
   2.50147  -0.20212  -3.38349
   2.26147  -0.20212  -3.14349
   2.26147  -0.20212  -3.14349
   2.02147  -0.20212  -3.14349
   2.02147  -0.20212  -3.14349
   2.02147  -0.20212  -3.14349
   1.78147  -0.20212  -3.14349
   1.78147  -0.20212  -2.90349
   1.78147  -0.20212  -3.14349
   1.54147  -0.20212  -3.14349
   1.54147  -0.44212  -3.14349
   1.31147  -0.20212  -3.14349
   1.31147  -0.20212  -3.14349
   1.31147  -0.44212  -3.14349
   1.07147  -0.44212  -3.14349
   1.07147  -0.44212  -3.14349
   1.07147  -0.68212  -3.14349
   1.07147  -0.68212  -3.14349
   1.07147  -0.68212  -3.14349
   0.83147  -0.68212  -3.14349
   1.07147  -0.92212  -3.14349
   1.07147  -0.68212  -3.14349
   1.07147  -0.44212  -3.14349
   1.07147  -0.44212  -3.14349
   1.07147  -0.44212  -3.14349
   0.83147  -0.44212  -3.14349
   0.83147  -0.20212  -3.38349
   1.07147  -0.20212  -3.38349
   0.83147  -0.20212  -3.38349
   1.07147  -0.20212  -3.38349
   0.83147   0.03788  -3.38349
   0.83147   0.03788  -3.38349
   0.83147   0.03788  -3.38349
   0.83147   0.03788  -3.38349
   0.83147   0.03788  -3.38349
   0.59147   0.03788  -3.62349
   0.59147   0.03788  -3.38349
   0.83147  -0.20212  -3.62349
   0.59147  -0.20212  -3.62349
   0.59147  -0.20212  -3.38349
   0.59147  -0.20212  -3.62349
   0.59147  -0.20212  -3.38349
   0.59147  -0.20212  -3.38349
   0.59147  -0.20212  -3.38349
   0.59147  -0.20212  -3.38349
   0.59147  -0.20212  -3.38349
   0.59147  -0.20212  -3.38349
   0.59147  -0.20212  -3.38349
   0.59147  -0.20212  -3.14349
   0.59147  -0.20212  -3.14349
   0.59147  -0.20212  -3.14349
   0.83147  -0.20212  -2.90349
   0.83147  -0.20212  -2.90349
   0.83147  -0.68212  -2.66349
   0.83147  -0.20212  -2.66349
   0.83147  -0.20212  -2.42349
   1.07147  -0.20212  -2.42349
   1.07147  -0.20212  -2.42349
   1.07147  -0.20212  -2.18349
   1.07147  -0.20212  -2.18349
   1.07147  -0.20212  -1.94349
   1.07147  -0.20212  -1.94349
   1.07147  -0.20212  -1.94349
   1.07147  -0.20212  -1.70349
   1.07147  -0.20212  -1.70349
   1.07147  -0.20212  -1.70349
   1.07147  -0.20212  -1.46349
   1.07147  -0.20212  -1.46349
   1.07147  -0.20212  -1.22349
   1.31147  -0.20212  -1.22349
   1.07147  -0.20212  -0.98349
   1.31147  -0.20212  -0.98349
   1.31147   0.03788  -0.74349
   1.31147   0.03788  -0.74349
   1.31147   0.03788  -0.50349
   1.31147   0.03788  -0.50349
   1.31147   0.03788  -0.50349
   1.31147   0.03788  -0.26349
   1.07147   0.03788  -0.26349
   1.07147   0.03788  -0.02349
   1.07147   0.03788  -0.02349
   0.83147   0.27788  -0.02349
   0.83147   0.27788   0.21651
   0.59147   0.27788   0.21651
   0.35147   0.27788   0.21651
   0.35147   0.27788   0.45651
   0.11147   0.27788   0.45651
   0.11147   0.27788   0.45651
  -0.12853   0.27788   0.69651
  -0.36853   0.27788   0.69651
  -0.36853   0.27788   0.92651
  -0.60853   0.03788   0.92651
  -0.60853   0.03788   1.16651
  -0.84853   0.27788   1.40651
  -0.84853   0.27788   1.40651
  -1.08853   0.27788   1.64651
  -1.32853   0.27788   1.64651
  -1.32853   0.27788   1.64651
  -1.56853   0.27788   1.64651
  -1.56853   0.27788   1.88651
  -1.56853   0.27788   2.12651
  -1.80853   0.27788   2.36651
  -1.80853   0.51788   2.36651
  -1.80853   0.51788   2.60651
  -2.04853   0.51788   2.60651
  -2.04853   0.51788   2.60651
  -2.04853   0.51788   2.84651
  -2.28853   0.75788   2.84651
  -2.04853   0.75788   3.08651
  -2.28853   0.51788   3.08651
  -2.28853   0.51788   3.08651
  -2.28853   0.51788   3.32651
  -2.28853   0.51788   3.32651
  -2.04853   0.27788   3.32651
  -2.04853   0.27788   3.56651
  -2.04853   0.27788   3.56651
  -2.04853   0.51788   3.56651
  -2.04853   0.27788   3.80651
  -2.04853   0.27788   3.80651
  -2.28853   0.27788   4.04651
  -2.28853   0.27788   4.04651
  -2.28853   0.27788   4.04651
  -2.28853   0.27788   4.04651
  -2.28853   0.27788   4.04651
  -2.28853   0.27788   4.04651
  -2.52853   0.27788   4.28651
  -2.52853   0.27788   4.28651
  -2.52853   0.27788   4.28651
  -2.76853   0.27788   4.28651
  -2.76853   0.27788   4.28651
  -2.76853   0.51788   4.28651
  -2.76853   0.51788   4.04651
  -3.00853   0.51788   3.80651
  -3.00853   0.51788   4.04651
  -3.00853   0.51788   4.04651
  -3.00853   0.51788   3.80651
  -3.00853   0.51788   3.80651
  -3.00853   0.51788   3.56651
  -3.00853   0.51788   3.56651
  -3.00853   0.51788   3.56651
  -3.00853   0.51788   3.56651
  -3.00853   0.51788   3.32651
  -3.00853   0.51788   3.32651
  -3.00853   0.51788   3.32651
  -3.00853   0.51788   3.08651
  -3.24853   0.51788   3.08651
  -3.00853   0.51788   3.08651
  -3.00853   0.27788   3.08651
  -3.00853   0.27788   3.08651
  -3.00853   0.27788   3.08651
  -3.00853   0.27788   3.08651
  -3.00853   0.27788   3.08651
  -3.00853   0.27788   3.08651
  -3.24853   0.27788   3.08651
  -3.00853   0.27788   3.32651
  -2.76853   0.27788   3.08651
  -3.00853   0.27788   3.32651
  -3.00853   0.27788   3.32651
  -2.76853   0.27788   3.08651
  -3.00853   0.27788   3.08651
  -3.00853   0.27788   3.08651
  -3.00853   0.27788   3.08651
  -3.00853   0.27788   3.08651
  -3.00853   0.27788   2.84651
  -3.00853   0.51788   2.84651
  -3.00853   0.51788   2.84651
  -3.24853   0.51788   2.60651
  -3.24853   0.51788   2.60651
  -3.24853   0.75788   2.60651
  -3.24853   0.75788   2.36651
  -3.24853   0.75788   2.36651
  -3.24853   0.75788   2.36651
  -3.24853   0.75788   2.12651
  -3.24853   0.75788   2.12651
  -3.24853   0.75788   1.88651
  -3.00853   0.75788   1.88651
  -3.00853   0.75788   1.88651
  -3.00853   0.75788   1.64651
  -3.00853   0.75788   1.64651
  -2.76853   0.75788   1.64651
  -2.76853   0.75788   1.40651
  -2.76853   0.75788   1.40651
  -2.52853   0.75788   1.40651
  -2.52853   0.75788   1.16651
  -2.28853   0.75788   1.16651
  -2.28853   0.51788   1.16651
  -2.04853   0.51788   0.92651
  -2.04853   0.51788   0.92651
  -1.80853   0.51788   0.92651
  -1.80853   0.51788   0.69651
  -1.56853   0.51788   0.69651
  -1.32853   0.51788   0.69651
  -1.32853   0.51788   0.69651
  -1.08853   0.51788   0.69651
  -1.08853   0.51788   0.45651
  -0.84853   0.51788   0.45651
  -0.84853   0.51788   0.45651
  -0.60853   0.51788   0.69651
  -0.36853   0.51788   0.69651
  -0.36853   0.51788   0.69651
  -0.36853   0.51788   0.69651
  -0.12853   0.51788   0.69651
  -0.12853   0.51788   0.69651
  -0.12853   0.51788   0.92651
   0.11147   0.27788   0.92651
   0.11147   0.27788   0.92651
   0.11147   0.27788   0.92651
   0.11147   0.27788   0.92651
   0.11147   0.27788   0.69651
   0.11147   0.03788   0.69651
   0.11147   0.03788   0.69651
   0.11147   0.03788   0.69651
   0.11147  -0.20212   0.69651
   0.11147  -0.20212   0.69651
   0.11147  -0.20212   0.69651
   0.11147  -0.20212   0.69651
   0.11147  -0.20212   0.45651
   0.11147  -0.20212   0.45651
   0.11147  -0.20212   0.45651
   0.11147  -0.20212   0.45651
   0.11147  -0.44212   0.45651
   0.11147  -0.44212   0.45651
   0.11147  -0.44212   0.45651
   0.11147  -0.44212   0.45651
   0.11147  -0.44212   0.45651
   0.11147  -0.20212   0.45651
   0.11147  -0.44212   0.45651
   0.11147  -0.44212   0.45651
   0.11147  -0.44212   0.69651
   0.11147  -0.44212   0.45651
  -0.12853  -0.44212   0.45651
  -0.12853  -0.44212   0.69651
  -0.12853  -0.44212   0.69651
  -0.12853  -0.44212   0.69651
   0.11147  -0.44212   0.69651
   0.11147  -0.44212   0.69651
   0.11147  -0.20212   0.69651
   0.11147  -0.44212   0.69651
   0.11147  -0.20212   0.69651
   0.11147  -0.20212   0.92651
   0.11147  -0.20212   0.92651
   0.11147  -0.20212   0.92651
   0.11147  -0.20212   0.92651
  -0.12853  -0.20212   0.69651
  -0.12853  -0.20212   0.92651
  -0.12853  -0.20212   0.69651
  -0.12853  -0.44212   0.69651
  -0.12853  -0.44212   0.92651
  -0.12853  -0.44212   0.69651
  -0.12853  -0.20212   0.69651
  -0.36853  -0.20212   0.69651
  -0.36853  -0.20212   0.69651
  -0.36853  -0.20212   0.69651
  -0.36853  -0.20212   0.45651
  -0.36853  -0.20212   0.45651
  -0.36853  -0.20212   0.45651
  -0.36853  -0.20212   0.45651
  -0.36853  -0.20212   0.21651
  -0.36853  -0.20212   0.21651
  -0.12853  -0.20212   0.21651
  -0.12853  -0.20212   0.21651
  -0.12853  -0.20212  -0.02349
   0.11147  -0.20212  -0.02349
   0.11147  -0.20212  -0.26349
   0.11147  -0.20212  -0.26349
   0.35147  -0.20212  -0.26349
   0.59147  -0.20212  -0.50349
   0.59147  -0.20212  -0.50349
   0.83147  -0.20212  -0.50349
   1.07147  -0.20212  -0.50349
   1.07147  -0.44212  -0.74349
   1.31147  -0.44212  -0.74349
   1.54147  -0.44212  -0.74349
   1.54147  -0.44212  -0.98349
   1.78147  -0.44212  -0.98349
   2.02147  -0.44212  -0.98349
   2.02147  -0.68212  -0.98349
   2.26147  -0.68212  -0.98349
   2.50147  -0.68212  -0.98349
   2.50147  -0.68212  -0.98349
   2.74147  -0.68212  -0.98349
   2.98147  -0.68212  -1.22349
   2.98147  -0.68212  -1.22349
   3.22147  -0.68212  -1.22349
   3.46147  -0.68212  -1.22349
   3.46147  -0.68212  -1.46349
   3.94147  -0.68212  -1.46349
   3.94147  -0.44212  -1.46349
   3.94147  -0.44212  -1.70349
   4.18147  -0.44212  -1.70349
   4.42147  -0.44212  -1.94349
   4.42147  -0.44212  -1.94349
   4.66147  -0.44212  -1.94349
   4.66147  -0.44212  -1.94349
   4.90147  -0.44212  -1.94349
   4.90147  -0.44212  -1.94349
   4.90147  -0.44212  -1.94349
   4.90147  -0.44212  -2.18349
   5.14147  -0.44212  -1.94349
   5.14147  -0.68212  -1.94349
   5.14147  -0.68212  -1.94349
   5.14147  -0.68212  -1.94349
   5.14147  -0.68212  -1.94349
   5.14147  -0.68212  -1.94349
   4.90147  -0.68212  -1.70349
   4.90147  -0.68212  -1.70349
   4.90147  -0.68212  -1.46349
   4.66147  -0.68212  -1.46349
   4.66147  -0.68212  -1.22349
   4.66147  -0.68212  -1.22349
   4.42147  -0.68212  -0.98349
   4.18147  -0.68212  -0.98349
   4.18147  -0.68212  -0.74349
   3.94147  -0.68212  -0.74349
   3.70147  -0.68212  -0.74349
   3.46147  -0.44212  -0.74349
   3.22147  -0.44212  -0.50349
   3.22147  -0.44212  -0.50349
   2.98147  -0.44212  -0.50349
   2.74147  -0.20212  -0.26349
   2.50147  -0.20212  -0.26349
   2.26147  -0.20212  -0.26349
   2.02147  -0.20212  -0.26349
   2.02147  -0.20212  -0.02349
   1.78147  -0.20212  -0.02349
   1.54147  -0.20212  -0.02349
   1.31147  -0.20212  -0.02349
   1.07147  -0.44212  -0.02349
   1.07147  -0.20212   0.21651
   0.83147  -0.20212   0.21651
   0.59147  -0.20212   0.21651
   0.59147  -0.20212   0.21651
   0.35147  -0.20212   0.21651
   0.35147  -0.20212   0.21651
   0.11147  -0.20212   0.21651
   0.11147  -0.20212   0.21651
  -0.12853   0.03788   0.21651
  -0.12853  -0.20212   0.21651
  -0.36853  -0.20212   0.21651
  -0.36853   0.03788   0.21651
  -0.36853  -0.20212   0.21651
  -0.36853   0.03788   0.21651
  -0.36853  -0.20212   0.21651
  -0.60853  -0.20212   0.21651
  -0.60853  -0.20212   0.21651
  -0.60853  -0.20212   0.21651
  -0.60853  -0.20212   0.21651
  -0.84853  -0.20212   0.21651
  -0.84853  -0.20212  -0.02349
  -0.84853  -0.20212  -0.02349
  -0.60853  -0.44212  -0.02349
  -0.84853  -0.44212  -0.02349
  -0.84853  -0.44212  -0.02349
  -0.60853  -0.44212  -0.02349
  -0.60853  -0.44212  -0.02349
  -0.60853  -0.44212  -0.02349
  -0.60853  -0.44212  -0.02349
  -0.60853  -0.44212  -0.02349
  -0.60853  -0.44212  -0.02349
  -0.60853  -0.44212  -0.02349
  -0.60853  -0.44212  -0.02349
  -0.60853  -0.44212  -0.02349
  -0.60853  -0.44212  -0.02349
  -0.36853  -0.44212  -0.02349
  -0.36853  -0.20212  -0.26349
  -0.36853  -0.20212  -0.26349
  -0.36853  -0.20212  -0.26349
  -0.36853  -0.20212  -0.26349
  -0.36853  -0.20212  -0.26349
  -0.36853  -0.20212  -0.50349
  -0.36853  -0.20212  -0.50349
  -0.36853  -0.20212  -0.50349
  -0.36853   0.03788  -0.50349
  -0.36853   0.03788  -0.74349
  -0.36853   0.03788  -0.74349
  -0.12853   0.03788  -0.74349
  -0.12853   0.27788  -0.74349
  -0.12853   0.27788  -0.98349
  -0.12853   0.27788  -0.98349
  -0.12853   0.27788  -0.98349
  -0.12853   0.27788  -0.74349
  -0.12853   0.27788  -0.74349
  -0.12853   0.27788  -0.74349
  -0.12853   0.27788  -0.74349
  -0.12853   0.51788  -0.50349
  -0.12853   0.27788  -0.50349
  -0.12853   0.27788  -0.50349
  -0.12853   0.51788  -0.50349
  -0.12853   0.51788  -0.50349
  -0.12853   0.27788  -0.50349
  -0.12853   0.51788  -0.26349
  -0.36853   0.51788  -0.26349
  -0.36853   0.51788  -0.26349
  -0.36853   0.51788  -0.02349
  -0.36853   0.51788  -0.02349
  -0.36853   0.51788  -0.02349
  -0.36853   0.75788   0.21651
  -0.36853   0.75788   0.45651
  -0.60853   0.75788   0.45651
  -0.60853   0.75788   0.45651
  -0.60853   0.99788   0.69651
  -0.60853   0.99788   0.69651
  -0.84853   0.99788   0.92651
  -0.84853   0.75788   0.92651
  -0.84853   0.99788   1.16651
  -1.08853   0.99788   1.16651
  -0.84853   0.99788   1.40651
  -1.08853   0.99788   1.40651
  -1.08853   0.99788   1.40651
  -1.08853   0.99788   1.64651
  -1.08853   0.75788   1.64651
  -1.32853   0.75788   1.64651
  -1.32853   0.99788   1.88651
  -1.32853   0.75788   1.88651
  -1.32853   0.75788   1.88651
  -1.32853   0.99788   1.88651
  -1.32853   0.99788   1.88651
  -1.56853   0.99788   2.12651
  -1.56853   0.99788   1.88651
  -1.56853   0.99788   2.12651
  -1.56853   0.99788   2.12651
  -1.56853   0.99788   2.12651
  -1.80853   0.75788   2.12651
  -1.80853   0.75788   2.12651
  -1.80853   0.75788   2.12651
  -1.80853   0.75788   2.12651
  -2.04853   0.51788   2.36651
  -2.04853   0.51788   2.36651
  -2.04853   0.51788   2.12651
  -2.28853   0.27788   2.36651
  -2.28853   0.27788   2.36651
  -2.28853   0.51788   2.36651
  -2.28853   0.51788   2.36651
  -2.52853   0.51788   2.36651
  -2.52853   0.51788   2.36651
  -2.52853   0.75788   2.36651
  -2.76853   0.75788   2.36651
  -2.76853   0.75788   2.36651
  -2.76853   0.75788   2.12651
  -2.76853   0.75788   2.12651
  -2.76853   0.75788   2.12651
  -2.76853   0.75788   2.12651
  -2.76853   0.99788   2.12651
  -2.76853   0.99788   1.88651
  -2.76853   0.99788   1.88651
  -2.76853   0.99788   1.88651
  -2.76853   0.99788   1.88651
  -2.76853   0.99788   1.64651
