********************************************************************************
              CENTRO DE INSTRUMENTACION Y REGISTRO SISMICO  A.C.

    Anaxagoras 814, Col. Narvarte, Benito Juarez, C.P. 03020 Mexico, D.F.
           Tels. 5687 45 42/ 5687 45  82             Fax. 5669 25 12
********************************************************************************
ARCHIVO ESTANDAR DE ACELERACION:
VERSION DEL FORMATO                    : 2.0
NOMBRE DEL ARCHIVO                     : AU1120140418142723
FECHA Y HORA DE CREACION               : 13/MAY/14, 13:00
REF. CATALOGO ACELEROGRAMAS, SMIS 1996 : REGISTRO No.     /PAG.


================================================================================
DATOS DE LA ESTACION:
NOMBRE DE LA ESTACION                  : AUTÓDROMO
CLAVE DE LA ESTACION                   : AU11
LOCALIZACION DE LA ESTACION            : Del. Iztacalco, Cd. Deportiva          
                                       : Magdalena Mixhuca,                     
                                       : Col. Granjas México                    
                                       :                                        
                                       : 
COORDENADAS DE LA ESTACION             : 19.3919 LAT. N
                                       : 99.0869 LONG. W
ALTITUD (msnm)                         : 2234
TIPO DE SUELO                          : Terreno blando, material compresible
                                       : (arcillas)                
                                       : 
INSTITUCION RESPONSABLE                : CIRES
                                       : 

================================================================================
DATOS DEL ACELEROGRAFO:
MODELO DEL ACELEROGRAFO                : RADESD
NUMERO DE SERIE DEL ACELEROGRAFO       : 157
NUMERO DE CANALES                      : 3
ORIENTACION C1-C6 (rumbo;orientacion)  : /S00E/+V/N90W
ORIENTACION C7-C12 (rumbo;orientacion) : 
VEL. DE MUESTREO, C1-C6 (muestras/s)   : /100/100/100
VEL. DE MUESTREO, C7-C12 (muestras/s)  : 
ESC. COMPLETA DE SENSORES, C1-C6, (g)  : /0.5/0.5/0.5
ESC. COMPLETA DE SENSORES, C7-C12, (g) : 
FREC. NAT. DE SENSORES, C1-C6, (Hz)    : /51.77/52.56/52.29
FREC. NAT. DE SENSORES, C7-C12, (Hz)   : 
AMORTIGUAMIENTO DE SENSORES, C1-C6     : /0.5912/0.6083/0.6067
AMORTIGUAMIENTO DE SENSORES, C7-C12    : 
INTERVALO DE MUESTREO, C1-C6, (s)      : /0.01/0.01/0.01
INTERVALO DE MUESTREO, C7-C12, (s)     : 
UMBRAL DE DISPARO, C1-C6, (Gal)        : /0.72/1.92/0.72
UMBRAL DE DISPARO, C7-C12, (Gal)       : 
MEMORIA DE PREEVENTO (s)               : 44.0
TIEMPO DE POSEVENTO (s)                : 64.0


================================================================================
DATOS DEL SISMO:
FECHA DEL SISMO (GMT)                  : 18/ABR/14
HORA EPICENTRO (GMT)                   : 14:27:23.0
MAGNITUD(ES)                           : /Mc=7.2
COORDENADAS DEL EPICENTRO              : 17.18 LAT. N
                                       : 101.19 LONG. W
PROFUNDIDAD FOCAL (km)                 : 10
FUENTE DE LOS DATOS EPICENTRALES       : SSN
                                       : INSTITUTO DE GEOFISICA, UNAM

================================================================================
DATOS DE ESTE REGISTRO:
HORA DE LA PRIMERA MUESTRA (GMT)       : 14:28:00.00
EXACTITUD DEL TIEMPO (s)               : 0.01
DURACION DEL REGISTRO (s), C1-C6       : /610.2/610.2/610.2
DURACION DEL REGISTRO (s), C7-C12      : 
NUM. TOTAL DE MUESTRAS, C1-C6          : /61020/61020/61020
NUM. TOTAL DE MUESTRAS, C7-C12         : 
ACEL. MAX. (Gal), C1-C6                : /29.26004/8.33166/24.08282
ACEL. MAX., C1-C6, EN LA MUESTRA       : /9448/10510/15164
ACEL. MAX. (Gal), C7-C12               : 
ACEL. MAX., C7-C12, EN LA MUESTRA      : 
UNIDADES DE LOS DATOS                  : Gal (cm/s/s)
FACTOR DE DECIMACION                   : 1
FORMATO DATOS (FORTRAN,10 campos/dato) : 3F10.5


================================================================================
CALIDAD DEL ACELEROGRAMA:
REGISTRO DIGITAL COMPLETO CON TIEMPO ABSOLUTO CORRECTO.


================================================================================
COMENTARIOS:














================================================================================
DATOS DE ACELERACION:
---------+---------+---------+---------+---------+---------+---------+---------+
   CANAL-1   CANAL-2   CANAL-3   CANAL-4   CANAL-5   CANAL-6   CANAL-7   CANAL-8
      S00E        +V      N90W
---------+---------+---------+---------+---------+---------+---------+---------+
[...]
   7.06879   2.52572 -10.61814
   6.61987   2.33119  -9.89988
   6.11111   2.15163  -9.18162
   5.58737   2.09177  -8.46336
   5.03371   2.07681  -7.71517
   4.50998   2.12170  -6.95202
   4.04611   2.22645  -6.18887
   3.53734   2.28630  -5.53046
   3.08843   2.33119  -4.93191
   2.59462   2.24141  -4.49796
   2.10082   1.89725  -4.13883
   1.60701   1.49322  -3.83956
   1.08328   0.84978  -3.65999
   0.48473   0.29612  -3.43553
  -0.08389  -0.19768  -3.19611
  -0.74230  -0.57178  -2.91180
  -1.26603  -0.82616  -2.61253
  -1.77480  -0.84112  -2.26836
  -1.99925  -0.64659  -1.89427
  -2.25364  -0.31739  -1.59499
  -2.38831  -0.01812  -1.25082
  -2.37335   0.22130  -0.98148
  -2.32846   0.29612  -0.56249
  -2.23867   0.40087  -0.24825
  -2.14889   0.55051   0.06599
  -2.08904   0.73007   0.39519
  -1.93940   0.93956   0.70943
  -1.80472   1.23884   1.02367
  -1.59523   1.55308   1.15834
  -1.20617   1.94214   1.33791
  -0.83208   2.42098   1.51747
  -0.38317   2.72025   1.69704
   0.11064   2.76514   1.78682
   0.51466   2.69032   1.92149
   0.96357   2.37609   2.16091
   1.30774   2.00199   2.37041
   1.54716   1.55308   2.54997
   1.74169   1.02935   2.78939
   1.86140   0.59540   3.04377
   1.86140   0.17641   3.29816
   1.86140  -0.15279   3.55254
   1.80154  -0.46703   3.83685
   1.75665  -0.73638   4.09124
   1.62198  -1.00572   4.31569
   1.62198  -1.20025   4.54015
   1.71176  -1.36485   4.70475
   1.68183  -1.42471   4.83943
   1.81651  -1.43967   4.85439
   1.90629  -1.36485   4.88432
   1.87636  -1.15536   4.92921
   1.89133  -1.00572   5.06388
   1.72672  -0.81120   5.28834
   1.51723  -0.63163   5.37812
   1.20299  -0.64659   5.55769
   0.84386  -0.73638   5.76718
   0.49970  -0.91594   6.03653
   0.05078  -1.08054   6.18616
  -0.41309  -1.36485   6.32084
  -0.87697  -1.67909   6.36573
  -1.31092  -1.94844   6.45551
  -1.84961  -2.00830   6.38069
  -2.29853  -2.06815   6.24602
  -2.65766  -1.97837   6.12631
  -3.00182  -1.82873   5.97667
  -3.18139  -1.55938   5.88689
  -3.36095  -1.34989   5.84200
  -3.36095  -1.17033   5.75222
  -3.31606  -1.02069   5.61754
  -3.16643  -1.03565   5.42301
  -2.97190  -1.14040   5.25841
  -2.83722  -1.30500   5.06388
  -2.68759  -1.55938   4.83943
  -2.62773  -1.73895   4.58504
  -2.64269  -2.03822   4.31569
  -2.80730  -2.27764   4.03138
  -3.03175  -2.48714   3.68722
  -3.33103  -2.63677   3.37298
  -3.72008  -2.65174   3.10363
  -4.06425  -2.62181   2.63975
  -4.40842  -2.56196   2.26566
  -4.67777  -2.53203   1.87660
  -4.81244  -2.47217   1.42769
  -4.82740  -2.50210   0.97878
  -4.70769  -2.57692   0.51490
  -4.48324  -2.69663   0.09591
  -4.16900  -2.86123  -0.20336
  -3.72008  -3.07072  -0.56249
  -3.24124  -3.28022  -0.80191
  -2.74744  -3.41489  -0.96651
  -2.17882  -3.45978  -1.13111
  -1.59523  -3.51964  -1.26579
  -0.89193  -3.63935  -1.38550
  -0.29338  -3.77402  -1.52017
   0.27524  -3.99848  -1.71470
   0.60444  -4.10322  -1.95412
   0.88875  -4.16308  -2.22347
   0.99350  -4.23790  -2.59756
   0.93364  -4.22293  -2.92677
   0.75408  -4.08826  -3.25597
   0.43984  -3.92366  -3.54028
  -0.02404  -3.71416  -3.71985
  -0.48791  -3.42985  -3.88445
  -0.96675  -3.11561  -3.91437
  -1.47552  -2.75648  -3.89941
  -1.89451  -2.32254  -3.74977
  -2.28356  -1.93348  -3.73481
  -2.56788  -1.55938  -3.58517
  -2.85219  -1.12543  -3.51035
  -3.03175  -0.90098  -3.33079
  -3.07664  -0.70645  -3.06144
  -3.12153  -0.63163  -2.86691
  -3.10657  -0.64659  -2.50778
  -3.03175  -0.49696  -2.23843
  -2.95693  -0.22761  -1.77456
  -2.85219   0.16145  -1.35557
  -2.82226   0.67022  -0.90666
  -2.68759   1.22388  -0.41285
  -2.59780   1.62790   0.09591
  -2.53795   1.89725   0.54483
  -2.56788   1.98703   0.99374
  -2.58284   1.92717   1.33791
  -2.79233   1.92717   1.74193
  -3.06168   2.01696   1.96638
  -3.46570   2.27134   2.14595
  -3.91461   2.63047   2.28062
  -4.39345   2.98960   2.29559
  -4.87229   3.36369   2.28062
  -5.39603   3.67793   2.13099
  -5.91976   3.85750   1.81675
  -6.42853   3.84253   1.42769
  -6.86247   3.75275   0.91892
  -7.26650   3.60311   0.38023
  -7.56577   3.33377  -0.11358
  -7.90994   3.10931  -0.59242
  -8.14936   2.83996  -1.07126
  -8.37381   2.66040  -1.29572
  -8.58331   2.45090  -1.38550
  -8.68805   2.42098  -1.53514
  -8.91251   2.30127  -1.43039
  -9.07711   2.24141  -1.31068
  -9.27164   2.31623  -0.96651
  -9.45121   2.33119  -0.78695
  -9.66070   2.33119  -0.41285
  -9.79537   2.28630   0.03606
  -9.95997   2.27134   0.49994
 -10.10961   1.98703   0.96381
 -10.21436   1.67279   1.44265
 -10.30414   1.26877   2.05617
 -10.36399   0.87971   2.66968
 -10.60341   0.56547   3.31312
 -10.79794   0.29612   3.94160
 -11.03736   0.11656   4.68979
 -11.29175   0.02678   5.43798
 -11.60599  -0.07797   6.12631
 -11.86037  -0.04804   6.78471
 -12.12972  -0.12286   7.41319
 -12.36914   0.04174   7.99678
 -12.54870   0.34101   8.46066
 -12.71330   0.61036   8.86468
 -12.83302   0.89467   9.14899
 -12.87791   1.04431   9.47819
 -12.92280   1.14906   9.59790
 -12.93776   1.05927   9.74754
 -12.98265   0.90964   9.85229
 -12.96769   0.61036   9.74754
 -12.98265   0.32605   9.62783
 -12.86294   0.04174   9.41834
 -12.78812  -0.04804   9.16395
 -12.63849  -0.07797   8.84971
 -12.51878   0.02678   8.56540
 -12.33921   0.25123   8.34095
 -12.20454   0.50562   8.05663
 -11.99504   0.68518   7.87707
 -11.80052   0.87971   7.81721
 -11.57606   1.11913   7.63765
 -11.33664   1.28373   7.69750
 -11.00744   1.52315   7.81721
 -10.58845   1.79250   7.93692
 -10.19939   2.16659   8.29605
  -9.55595   2.48083   8.68511
  -8.82273   2.82500   9.11906
  -7.99972   3.12427   9.50812
  -7.13182   3.27391   9.95703
  -6.21903   3.28888  10.31616
  -5.33617   3.16917  10.57055
  -4.45331   2.97464  10.75011
  -3.58541   2.83996  10.73515
  -2.73248   2.55565  10.72018
  -1.90947   2.28630  10.58551
  -1.08646   1.92717  10.33113
  -0.30835   1.65783  10.01689
   0.45480   1.29870   9.73258
   1.11321   1.04431   9.28366
   1.74169   0.64029   8.95446
   2.35520   0.32605   8.50555
   2.89390  -0.03308   8.08656
   3.34281  -0.39221   7.63765
   3.67201  -0.75134   7.23363
   3.91143  -1.02069   6.82961
   4.06107  -1.12543   6.50040
   4.16582  -1.21522   6.23106
   4.13589  -1.30500   6.03653
   4.06107  -1.36485   5.96171
   3.98625  -1.48456   5.85696
   3.89647  -1.60427   5.90185
   3.70194  -1.78384   5.99164
   3.50741  -1.90355   6.08142
   3.26799  -1.97837   6.24602
   2.95375  -1.96340   6.51537
   2.66944  -1.94844   6.75479
   2.32527  -1.76888   6.93435
   1.99607  -1.54442   7.15881
   1.65190  -1.26011   7.30845
   1.27781  -0.99076   7.38327
   0.93364  -0.76630   7.35334
   0.60444  -0.55681   7.24859
   0.35006  -0.42214   7.11392
   0.03582  -0.19768   6.94932
  -0.15871   0.05670   6.66500
  -0.38317   0.26620   6.42558
  -0.54777   0.46072   6.21609
  -0.60762   0.58043   5.90185
  -0.53280   0.61036   5.70732
  -0.36820   0.64029   5.48287
  -0.20360   0.62533   5.30330
   0.17049   0.61036   5.07885
   0.51466   0.58043   4.89928
   0.91868   0.50562   4.65986
   1.36759   0.37094   4.48030
   1.75665   0.08663   4.24088
   2.14571  -0.16775   3.98649
   2.44498  -0.46703   3.65729
   2.71433  -0.78127   3.31312
   2.81908  -1.02069   2.84925
   2.87893  -1.20025   2.40033
   2.86397  -1.27507   1.89156
   2.69937  -1.29004   1.50251
   2.53477  -1.17033   1.08352
   2.16067  -1.14040   0.79921
   1.77162  -1.11047   0.45504
   1.27781  -1.00572   0.35030
   0.75408  -0.78127   0.27548
   0.18546  -0.57178   0.33533
  -0.44302  -0.19768   0.36526
  -1.07150   0.11656   0.54483
  -1.80472   0.44576   0.66454
  -2.58284   0.61036   0.85907
  -3.40585   0.68518   1.11345
  -4.39345   0.67022   1.30798
  -5.47084   0.64029   1.48754
  -6.51831   0.59540   1.60725
  -7.58074   0.55051   1.66711
  -8.62820   0.58043   1.66711
  -9.49610   0.73007   1.63718
 -10.27421   0.96949   1.54740
 -10.91765   1.37351   1.38280
 -11.38153   1.82243   1.18827
 -11.71073   2.22645   0.90396
 -11.89030   2.66040   0.55979
 -11.93519   2.98960   0.14081
 -11.95015   3.30384  -0.14351
 -11.80052   3.51333  -0.44278
 -11.62095   3.76772  -0.57746
 -11.47131   3.96224  -0.63731
 -11.23189   3.99217  -0.57746
 -11.00744   3.97721  -0.53256
 -10.82787   3.90239  -0.45775
 -10.69320   3.78268  -0.29314
 -10.58845   3.73779  -0.24825
 -10.61838   3.73779  -0.17343
 -10.66327   3.87246  -0.11358
 -10.76802   3.94728  -0.18840
 -10.85780   4.06699  -0.20336
 -11.03736   4.00714  -0.32307
 -11.24686   3.85750  -0.35300
 -11.50124   3.76772  -0.56249
 -11.72570   3.58815  -0.68220
 -11.87533   3.36369  -0.90666
 -11.89030   3.18413  -1.08622
 -11.83044   3.03449  -1.25082
 -11.71073   2.98960  -1.38550
 -11.54613   3.00456  -1.49024
 -11.39649   3.12427  -1.58003
 -11.17204   3.27391  -1.60995
 -11.09722   3.31880  -1.52017
 -11.02240   3.40859  -1.46032
 -11.08226   3.40859  -1.29572
 -11.11218   3.39362  -1.07126
 -11.27678   3.30384  -0.74206
 -11.36657   3.10931  -0.42782
 -11.38153   2.95967  -0.11358
 -11.36657   2.83996   0.33533
 -11.38153   2.69032   0.76928
 -11.29175   2.46587   1.27805
 -11.05233   2.15163   1.81675
 -10.81291   1.86732   2.41530
 -10.46874   1.61293   3.05874
 -10.07968   1.35855   3.64232
  -9.60084   1.22388   4.30073
  -9.15193   1.19395   5.00403
  -8.65813   1.26877   5.66243
  -7.96979   1.49322   6.26098
  -7.20664   1.83739   6.72486
  -6.38363   2.15163   7.17377
  -5.54566   2.43594   7.45808
  -4.63287   2.55565   7.71247
  -3.75001   2.51076   7.84714
  -2.79233   2.36112   7.83218
  -1.87954   2.10674   7.78729
  -0.89193   1.79250   7.59276
   0.02086   1.55308   7.38327
   1.06832   1.23884   6.96428
   2.10082   1.05927   6.50040
   3.23806   0.92460   5.93178
   4.58480   0.77496   5.28834
   6.03629   0.74504   4.51022
   7.63741   0.86475   3.67225
   9.26846   1.07424   2.56493
  11.01922   1.34359   1.48754
  12.81487   1.41841   0.29044
  14.47585   1.46330  -0.80191
  16.15179   1.43337  -1.89427
  17.61824   1.22388  -2.85195
  19.06972   0.98446  -3.74977
  20.34164   0.68518  -4.36329
  21.46392   0.41583  -4.91695
  22.40664   0.25123  -5.29104
  23.19972   0.10159  -5.48557
  23.84316   0.11656  -5.60528
  24.41178   0.19138  -5.68010
  24.77091   0.16145  -5.73995
  25.04026  -0.04804  -5.76988
  25.26472  -0.37725  -5.68010
  25.41436  -0.82616  -5.53046
  25.59392  -1.29004  -5.23118
  25.78845  -1.82873  -5.06658
  25.93809  -2.39735  -4.93191
  26.13262  -2.90612  -4.84213
  26.40196  -3.37000  -4.73738
  26.70124  -3.75906  -4.52789
  27.19504  -4.13315  -4.36329
  27.62899  -4.37257  -4.10890
  28.06294  -4.62695  -3.85452
  28.54178  -4.80652  -3.64503
  28.81113  -4.98608  -3.48042
  29.03559  -5.06090  -3.25597
  29.26004  -5.15069  -3.12129
  29.26004  -5.24047  -2.89684
  29.15530  -5.42003  -2.58260
  29.00566  -5.58463  -2.38807
  28.75128  -5.71931  -2.13369
  28.33229  -5.92880  -2.01398
  27.82352  -6.07844  -1.95412
  27.29979  -6.06348  -2.04390
  26.71620  -6.00362  -2.25340
  26.26729  -5.86895  -2.61253
  25.80341  -5.67442  -3.03151
  25.51910  -5.55471  -3.49539
  25.29465  -5.39011  -3.91437
  25.11508  -5.21054  -4.43811
  25.10012  -5.03098  -4.91695
  25.05523  -4.82148  -5.48557
  25.10012  -4.62695  -6.03923
  25.15997  -4.40250  -6.47318
  25.30961  -4.19301  -6.81734
  25.47421  -4.05833  -7.20640
  25.66874  -3.95358  -7.50568
  25.75852  -3.92366  -7.86481
  25.81838  -4.02840  -8.13415
  25.89320  -4.19301  -8.41847
  25.86327  -4.20797  -8.71774
  25.81838  -4.25286  -9.00205
  25.71363  -4.14811  -9.31629
  25.63881  -4.01344  -9.76520
  25.57896  -4.01344 -10.19915
  25.45925  -3.84884 -10.70792
  25.44428  -3.63935 -11.26158
  25.42932  -3.41489 -11.84517
  25.42932  -3.14554 -12.32401
  25.45925  -2.89116 -12.84774
  25.45925  -2.62181 -13.37147
  25.45925  -2.48714 -13.65578
  25.48918  -2.32254 -14.05980
  25.38443  -2.26268 -14.29922
  25.23479  -2.32254 -14.43390
  25.01033  -2.33750 -14.52368
  24.68113  -2.39735 -14.56857
  24.21726  -2.45721 -14.50872
  23.64863  -2.42728 -14.37404
  23.00519  -2.44225 -14.23937
  22.31686  -2.27764 -13.97002
  21.49385  -1.99333 -13.73060
  20.59603  -1.55938 -13.43133
  19.59345  -1.23018 -13.11709
  18.59088  -0.81120 -12.69810
  17.48356  -0.33235 -12.18933
  16.30143   0.16145 -11.69553
  15.11929   0.65525 -11.11194
  13.90722   1.14906 -10.45354
  12.68020   1.64286  -9.76520
  11.49806   2.15163  -8.98709
  10.30096   2.61551  -8.19401
   9.29839   2.98960  -7.35604
   8.13121   3.27391  -6.60785
   7.00893   3.40859  -5.91952
   5.81183   3.52830  -5.24615
   4.53991   3.66297  -4.78227
   3.07346   3.69290  -4.36329
   1.59205   3.64801  -4.09394
   0.06575   3.60311  -3.98919
  -1.43063   3.52830  -3.98919
  -2.88211   3.48340  -4.00416
  -4.27374   3.39362  -4.10890
  -5.59056   3.18413  -4.28847
  -6.80262   2.92974  -4.36329
  -8.01468   2.61551  -4.57278
  -9.13697   2.28630  -4.72242
 -10.18443   1.94214  -4.88702
 -11.12715   1.65783  -5.06658
 -11.95015   1.47826  -5.12644
 -12.74323   1.41841  -5.11147
 -13.25200   1.44833  -5.09651
 -13.80566   1.61293  -4.93191
 -14.17975   2.00199  -4.79724
 -14.62867   2.48083  -4.63263
 -15.07758   2.92974  -4.46803
 -15.57138   3.36369  -4.18372
 -16.14001   3.66297  -3.86948
 -16.70863   3.84253  -3.54028
 -17.29222   3.87246  -3.25597
 -17.86084   3.93232  -2.92677
 -18.33968   3.82757  -2.65742
 -18.75866   3.64801  -2.53771
 -18.99808   3.64801  -2.50778
 -19.19261   3.51333  -2.46289
 -19.07290   3.45348  -2.43296
 -18.89334   3.30384  -2.40303
 -18.57910   3.19909  -2.22347
 -18.20501   2.94471  -2.02894
 -17.65135   2.85493  -1.69974
 -17.15754   2.89982  -1.49024
 -16.67870   2.91478  -1.20593
 -16.15497   2.85493  -0.90666
 -15.76591   2.83996  -0.50264
 -15.49656   2.82500   0.08095
 -15.37685   2.85493   0.76928
 -15.24218   2.76514   1.54740
 -15.18233   2.51076   2.32551
 -15.04765   2.13667   3.22334
 -15.00276   1.67279   3.92664
 -14.80823   1.11913   4.57008
 -14.65859   0.58043   5.13870
 -14.52392   0.01181   5.61754
 -14.38925  -0.48199   6.06645
 -14.16479  -1.05062   6.39566
 -13.86551  -1.58931   6.60515
 -13.46149  -2.14297   6.63508
 -12.95273  -2.53203   6.56026
 -12.41403  -2.87619   6.14127
 -11.83044  -3.07072   5.57265
 -11.23189  -3.38496   4.85439
 -10.75305  -3.51964   4.12117
 -10.24428  -3.66927   3.28319
  -9.79537  -3.89373   2.43026
  -9.43624  -3.99848   1.90653
  -9.15193  -4.04337   1.33791
  -8.83769  -4.02840   0.72439
  -8.74791  -3.96855   0.26052
  -8.55338  -3.84884  -0.23329
  -8.35885  -3.81891  -0.63731
  -8.25410  -3.81891  -0.99644
  -7.99972  -3.95358  -1.41543
  -7.71541  -4.16308  -1.84938
  -7.40117  -4.46235  -2.50778
  -7.08693  -4.68681  -3.01655
  -6.65298  -4.86637  -3.74977
  -6.26392  -4.95616  -4.46803
  -5.94969  -5.03098  -5.02169
  -5.53070  -5.04594  -5.56039
  -5.20150  -5.06090  -6.06916
  -4.88726  -5.00105  -6.57792
  -4.63287  -5.04594  -7.20640
  -4.37849  -5.13572  -7.77502
  -4.00440  -5.28536  -8.34365
  -3.76498  -5.49485  -8.92723
  -3.42081  -5.62953  -9.28636
  -3.00182  -5.70434  -9.69039
  -2.65766  -5.76420  -9.84002
  -2.34342  -5.77916  -9.91484
  -2.05911  -5.76420  -9.91484
  -1.90947  -5.80909  -9.79513
  -1.86458  -5.77916  -9.63053
  -1.96933  -5.79413  -9.52578
  -2.07407  -5.70434  -9.39111
  -2.28356  -5.61456  -9.31629
  -2.52298  -5.56967  -9.19658
