********************************************************************************
               CENTRO DE INSTRUMENTACION Y REGISTRO SISMICO  A.C.  
                       Coordinacion de Servicios Tecnicos
     Anaxagoras 814, Col. Narvarte, Benito Juarez, C.P. 03020 Mexico, D.F.
            Tels. 667 45 42/ 687 45  82             Fax. 669 25 12
********************************************************************************
ARCHIVO ESTANDAR DE ACELERACION:
VERSION DEL FORMATO                    : 2.0
NOMBRE DEL ARCHIVO                     : AU119804.201
FECHA Y HORA DE CREACION               : 31/ENERO/2000, 10:10
REF. CATALOGO ACELEROGRAMAS, SMIS 1996 : REGISTRO No.     /PAG.


================================================================================
DATOS DE LA ESTACION:
NOMBRE DE LA ESTACION                  : AUTODROMO
CLAVE DE LA ESTACION                   : AU11
LOCALIZACION DE LA ESTACION            : AUTODROMO HERMANOS RODRIGUEZ,
                                       : CHURUBUSCO, CD. DEPORTIVA
                                       :
                                       :
                                       :
COORDENADAS DE LA ESTACION             : 19.392 LAT. N 
                                       : 99.087 LONG. W 
ALTITUD (msnm)                         : 2234
TIPO DE SUELO                          : TERRENO BLANDO, MATERIAL COMPRESIBLE
                                       : (ARCILLAS)
                                       : 
INSTITUCION RESPONSABLE                : CIRES 
                                       :

================================================================================
DATOS DEL ACELEROGRAFO:
MODELO DEL ACELEROGRAFO                : SSA-1
NUMERO DE SERIE DEL ACELEROGRAFO       : 157
NUMERO DE CANALES                      : 3
ORIENTACION C1-C6 (rumbo;orientacion)  : /N00E/+V/N90E
ORIENTACION C7-C12 (rumbo;orientacion) :
VEL. DE MUESTREO, C1-C6 (muestras/s)   : /200/200/200
VEL. DE MUESTREO, C7-C12 (muestras/s)  :
ESC. COMPLETA DE SENSORES, C1-C6, (g)  : /2/2/2
ESC. COMPLETA DE SENSORES, C7-C12, (g) :
FREC. NAT. DE SENSORES, C1-C6, (Hz)    : /51.77/52.56/52.29
FREC. NAT. DE SENSORES, C7-C12, (Hz)   :
AMORTIGUAMIENTO DE SENSORES, C1-C6     : /.5912/.6083/.6067
AMORTIGUAMIENTO DE SENSORES, C7-C12    :
INTERVALO DE MUESTREO, C1-C6, (s)      : /0.005/0.005/0.005
INTERVALO DE MUESTREO, C7-C12, (s)     :
UMBRAL DE DISPARO, C1-C6, (Gal)        : /2/2/2
UMBRAL DE DISPARO, C7-C12, (Gal)       :
MEMORIA DE PREEVENTO (s)               : 15
TIEMPO DE POSEVENTO (s)                : 60


================================================================================
DATOS DEL SISMO:
FECHA DEL SISMO (GMT)                  : 20/ABR/98
HORA EPICENTRO (GMT)                   : 22:59:17.00
MAGNITUD(ES)                           : /Mb=5.4/Mc=5.0/Ma=5.5/Me=5.7
COORDENADAS DEL EPICENTRO              : 18.37 LAT. N
                                       : 101.21 LONG. W
PROFUNDIDAD FOCAL (km)                 : 66.0
FUENTE DE LOS DATOS EPICENTRALES       : SSN
                                       : INSTITUTO DE GEOFISICA, UNAM

================================================================================
DATOS DE ESTE REGISTRO:
HORA DE LA PRIMERA MUESTRA (GMT)       : 23:00:35.00
EXACTITUD DEL TIEMPO (s)               :     
DURACION DEL REGISTRO (s), C1-C6       : /104.96/104.96/104.96
DURACION DEL REGISTRO (s), C7-C12      :
NUM. TOTAL DE MUESTRAS, C1-C6          : /20992/20992/20992
NUM. TOTAL DE MUESTRAS, C7-C12         :
ACEL. MAX. (Gal), C1-C6                : /2.62285/0.92295/2.87553
ACEL. MAX., C1-C6, EN LA MUESTRA       :
ACEL. MAX. (Gal), C7-C12               :
ACEL. MAX., C7-C12, EN LA MUESTRA      :
UNIDADES DE LOS DATOS                  : Gal (cm/s/s)
FACTOR DE DECIMACION                   : 1
FORMATO DATOS (FORTRAN,10 campos/dato) : 3F10.5


================================================================================
CALIDAD DEL ACELEROGRAMA:
REGISTRO DIGITAL COMPLETO, CARECE DE TIEMPO ABSOLUTO.


================================================================================
COMENTARIOS:














================================================================================
DATOS DE ACELERACION:
---------+---------+---------+---------+---------+---------+---------+---------+
   CANAL-1   CANAL-2   CANAL-3   CANAL-4   CANAL-5   CANAL-6   CANAL-7   CANAL-8
      N00E        +V      N90E
---------+---------+---------+---------+---------+---------+---------+---------+
[...]
  -0.24715   0.26705  -1.91447
  -0.24715   0.26705  -1.91447
  -0.00715   0.26705  -1.91447
  -0.00715   0.26705  -1.91447
  -0.00715   0.26705  -1.91447
  -0.00715   0.50705  -1.91447
  -0.00715   0.50705  -1.91447
  -0.00715   0.26705  -1.91447
  -0.00715   0.26705  -1.67447
  -0.00715   0.50705  -1.67447
  -0.00715   0.50705  -1.67447
  -0.00715   0.50705  -1.67447
  -0.00715   0.26705  -1.67447
  -0.00715   0.26705  -1.67447
  -0.00715   0.50705  -1.67447
  -0.00715   0.26705  -1.67447
  -0.00715   0.26705  -1.43447
  -0.00715   0.26705  -1.43447
  -0.00715   0.26705  -1.43447
  -0.00715   0.26705  -1.43447
  -0.00715   0.26705  -1.43447
  -0.00715   0.26705  -1.43447
  -0.00715   0.26705  -1.19447
  -0.00715   0.50705  -1.19447
  -0.24715   0.26705  -1.19447
  -0.24715   0.26705  -1.19447
  -0.00715   0.26705  -1.19447
  -0.24715   0.26705  -1.19447
  -0.24715   0.26705  -1.19447
  -0.24715   0.26705  -0.95447
  -0.24715   0.26705  -0.95447
  -0.24715   0.26705  -0.95447
  -0.24715   0.26705  -0.95447
  -0.24715   0.26705  -0.95447
  -0.24715   0.26705  -0.71447
  -0.24715   0.26705  -0.71447
  -0.48715   0.26705  -0.71447
  -0.24715   0.26705  -0.71447
  -0.24715   0.26705  -0.71447
  -0.24715   0.26705  -0.71447
  -0.24715   0.26705  -0.71447
  -0.24715   0.26705  -0.71447
  -0.24715   0.26705  -0.47447
  -0.24715   0.26705  -0.71447
  -0.24715   0.26705  -0.47447
  -0.24715   0.26705  -0.47447
  -0.24715   0.26705  -0.47447
  -0.24715   0.26705  -0.47447
  -0.00715   0.26705  -0.47447
  -0.00715   0.26705  -0.47447
  -0.00715   0.26705  -0.47447
  -0.00715   0.02705  -0.24447
  -0.00715   0.02705  -0.24447
   0.23285   0.02705  -0.24447
   0.23285   0.02705  -0.24447
   0.23285   0.02705  -0.24447
   0.23285   0.02705  -0.24447
   0.23285   0.02705  -0.24447
   0.23285   0.02705  -0.24447
   0.23285   0.02705  -0.24447
   0.23285  -0.21295  -0.24447
   0.47285  -0.21295  -0.24447
   0.47285  -0.21295  -0.24447
   0.47285  -0.21295  -0.24447
   0.47285  -0.21295  -0.24447
   0.71285  -0.21295  -0.24447
   0.71285  -0.21295  -0.24447
   0.71285  -0.21295  -0.24447
   0.71285  -0.21295  -0.24447
   0.71285  -0.21295  -0.24447
   0.71285  -0.21295  -0.24447
   0.71285  -0.21295  -0.24447
   0.71285  -0.21295  -0.24447
   0.95285  -0.21295  -0.24447
   0.95285  -0.21295  -0.24447
   0.71285  -0.21295  -0.24447
   0.95285  -0.21295  -0.24447
   0.95285  -0.21295  -0.24447
   0.95285  -0.21295  -0.24447
   0.95285  -0.21295  -0.47447
   0.95285  -0.21295  -0.24447
   0.95285  -0.21295  -0.47447
   0.95285  -0.21295  -0.47447
   0.95285  -0.21295  -0.47447
   0.95285  -0.21295  -0.47447
   0.95285  -0.21295  -0.47447
   0.95285  -0.21295  -0.24447
   0.95285  -0.21295  -0.47447
   0.71285  -0.44295  -0.47447
   0.71285  -0.44295  -0.47447
   0.71285  -0.44295  -0.47447
   0.71285  -0.21295  -0.47447
   0.71285  -0.44295  -0.47447
   0.71285  -0.44295  -0.47447
   0.71285  -0.21295  -0.47447
   0.71285  -0.44295  -0.47447
   0.71285  -0.44295  -0.47447
   0.71285  -0.44295  -0.24447
   0.71285  -0.44295  -0.47447
   0.71285  -0.44295  -0.47447
   0.71285  -0.44295  -0.24447
   0.71285  -0.21295  -0.24447
   0.71285  -0.21295  -0.24447
   0.71285  -0.21295  -0.24447
   0.71285  -0.21295  -0.24447
   0.71285  -0.21295  -0.24447
   0.71285  -0.21295  -0.24447
   0.71285  -0.21295  -0.24447
   0.71285  -0.21295  -0.24447
   0.71285  -0.21295  -0.24447
   0.71285  -0.21295  -0.24447
   0.47285  -0.21295  -0.24447
   0.47285   0.02705  -0.24447
   0.47285   0.02705  -0.24447
   0.47285   0.02705  -0.24447
   0.47285   0.02705  -0.24447
   0.47285   0.02705  -0.24447
   0.47285   0.02705  -0.24447
   0.47285   0.02705  -0.24447
   0.47285   0.02705  -0.24447
   0.23285   0.26705  -0.24447
   0.47285   0.26705  -0.24447
   0.47285   0.26705  -0.24447
   0.23285   0.26705  -0.24447
   0.23285   0.26705  -0.00447
   0.23285   0.50705  -0.24447
   0.23285   0.26705  -0.24447
   0.23285   0.50705  -0.00447
   0.23285   0.50705  -0.24447
   0.23285   0.50705  -0.24447
   0.23285   0.50705  -0.00447
  -0.00715   0.50705  -0.00447
  -0.00715   0.50705  -0.00447
  -0.00715   0.26705  -0.00447
  -0.00715   0.50705  -0.00447
  -0.00715   0.50705  -0.00447
  -0.00715   0.50705  -0.00447
  -0.24715   0.50705  -0.00447
  -0.24715   0.26705  -0.00447
  -0.24715   0.26705  -0.00447
  -0.24715   0.26705  -0.00447
  -0.72715   0.26705  -0.00447
  -0.24715   0.26705  -0.00447
  -0.24715   0.50705  -0.00447
  -0.24715   0.50705  -0.00447
  -0.24715   0.50705  -0.00447
  -0.24715   0.50705  -0.00447
  -0.24715   0.50705  -0.00447
  -0.24715   0.26705  -0.00447
  -0.24715   0.26705  -0.00447
  -0.24715   0.26705  -0.00447
  -0.48715   0.26705  -0.00447
  -0.48715   0.26705  -0.00447
  -0.48715   0.26705  -0.00447
  -0.48715   0.26705  -0.00447
  -0.48715   0.26705  -0.00447
  -0.48715   0.26705  -0.00447
  -0.48715   0.26705  -0.00447
  -0.48715   0.02705  -0.00447
  -0.48715   0.02705  -0.00447
  -0.48715   0.02705  -0.00447
  -0.48715   0.02705  -0.00447
  -0.48715   0.02705  -0.00447
  -0.48715   0.02705  -0.00447
  -0.48715   0.02705  -0.00447
  -0.48715   0.02705  -0.00447
  -0.48715   0.02705   0.23553
  -0.48715  -0.21295  -0.00447
  -0.48715   0.02705   0.23553
  -0.48715  -0.21295  -0.00447
  -0.48715  -0.21295  -0.00447
  -0.48715  -0.21295  -0.00447
  -0.48715  -0.21295   0.23553
  -0.48715  -0.21295   0.23553
  -0.24715   0.02705   0.23553
  -0.48715  -0.21295   0.23553
  -0.24715  -0.21295   0.23553
  -0.24715  -0.21295   0.23553
  -0.24715  -0.21295   0.23553
  -0.24715  -0.21295   0.23553
  -0.24715  -0.21295   0.23553
  -0.24715  -0.44295   0.23553
  -0.24715  -0.21295   0.23553
  -0.00715  -0.21295   0.23553
  -0.00715   0.02705   0.23553
  -0.00715  -0.21295   0.23553
  -0.00715   0.02705   0.23553
   0.23285   0.02705   0.23553
   0.23285   0.02705   0.23553
   0.23285   0.02705   0.23553
   0.23285   0.02705  -0.00447
   0.47285   0.02705  -0.00447
   0.47285   0.02705  -0.00447
   0.71285   0.02705  -0.00447
   0.71285   0.02705  -0.00447
   0.95285   0.02705  -0.00447
   0.95285   0.02705  -0.00447
   0.95285   0.02705  -0.00447
   1.19285   0.02705  -0.00447
   1.19285   0.02705  -0.00447
   1.19285  -0.21295  -0.00447
   1.43285   0.02705  -0.00447
   1.43285   0.02705  -0.00447
   1.66285   0.02705  -0.00447
   1.66285   0.02705   0.23553
   1.66285   0.02705  -0.00447
   1.90285   0.02705  -0.00447
   1.90285   0.02705   0.23553
   1.90285   0.02705   0.23553
   2.14285   0.02705   0.23553
   2.14285   0.02705   0.23553
   2.14285   0.02705   0.23553
   2.14285   0.02705   0.23553
   2.14285   0.02705   0.23553
   2.38285   0.02705   0.23553
   2.38285   0.02705   0.23553
   2.38285   0.02705   0.23553
   2.38285   0.02705   0.23553
   2.38285   0.02705   0.23553
   2.38285   0.02705   0.23553
   2.62285   0.02705   0.47553
   2.62285   0.02705   0.47553
   2.62285   0.02705   0.47553
   2.62285   0.02705   0.47553
   2.38285   0.02705   0.47553
   2.62285   0.02705   0.47553
   2.38285   0.02705   0.47553
   2.38285   0.02705   0.47553
   2.62285   0.02705   0.47553
   2.38285   0.02705   0.47553
   2.38285   0.02705   0.47553
   2.38285   0.26705   0.47553
   2.38285   0.02705   0.47553
   2.38285   0.02705   0.47553
   2.38285   0.02705   0.47553
   2.38285   0.02705   0.47553
   2.14285   0.02705   0.71553
   2.14285   0.26705   0.71553
   1.90285   0.26705   0.71553
   2.14285   0.26705   0.71553
   1.90285   0.26705   0.71553
   1.90285   0.26705   0.71553
   1.90285   0.26705   0.71553
   1.90285   0.26705   0.71553
   1.90285   0.26705   0.71553
   1.66285   0.26705   0.71553
   1.66285   0.26705   0.71553
   1.66285   0.26705   0.95553
   1.66285   0.26705   0.95553
   1.66285   0.26705   0.95553
   1.66285   0.02705   0.95553
   1.66285   0.02705   0.95553
   1.43285   0.02705   0.95553
   1.43285   0.26705   0.95553
   1.43285   0.26705   0.95553
   1.43285   0.26705   1.19553
   1.19285   0.02705   1.19553
   1.19285   0.02705   1.19553
   1.19285   0.26705   1.19553
   1.19285   0.26705   1.19553
   0.95285   0.26705   1.19553
   0.95285   0.26705   1.19553
   0.95285   0.26705   1.19553
   0.71285   0.26705   0.95553
   0.71285   0.02705   0.95553
   0.71285   0.02705   0.95553
   0.71285   0.26705   0.71553
   0.47285   0.26705   0.95553
   0.47285   0.26705   0.95553
   0.47285   0.02705   0.95553
   0.47285   0.02705   0.95553
   0.23285   0.02705   0.71553
   0.23285   0.02705   0.71553
   0.23285   0.02705   0.71553
   0.23285  -0.21295   0.71553
  -0.00715   0.02705   0.71553
  -0.00715  -0.21295   0.71553
  -0.00715  -0.21295   0.71553
  -0.24715  -0.21295   0.47553
  -0.24715  -0.21295   0.47553
  -0.24715  -0.21295   0.71553
  -0.24715  -0.21295   0.47553
  -0.24715  -0.21295   0.47553
  -0.48715  -0.21295   0.47553
  -0.24715  -0.21295   0.47553
  -0.48715  -0.21295   0.47553
  -0.48715  -0.21295   0.47553
  -0.48715  -0.21295   0.47553
  -0.48715  -0.44295   0.47553
  -0.48715  -0.44295   0.47553
  -0.48715  -0.21295   0.47553
  -0.48715  -0.44295   0.47553
  -0.48715  -0.21295   0.47553
  -0.48715  -0.21295   0.47553
  -0.48715  -0.44295   0.47553
  -0.48715  -0.21295   0.47553
  -0.48715  -0.44295   0.71553
  -0.48715  -0.44295   0.71553
  -0.24715  -0.21295   0.71553
  -0.24715  -0.44295   0.71553
  -0.24715  -0.44295   0.71553
  -0.24715  -0.21295   0.71553
  -0.24715  -0.44295   0.71553
  -0.24715  -0.44295   0.71553
  -0.24715  -0.44295   0.71553
  -0.24715  -0.44295   0.71553
  -0.24715  -0.21295   0.95553
  -0.24715  -0.21295   0.95553
  -0.24715  -0.21295   0.95553
  -0.24715  -0.21295   0.95553
  -0.24715  -0.21295   0.95553
  -0.24715  -0.21295   0.95553
  -0.24715  -0.21295   0.95553
  -0.24715  -0.21295   0.95553
  -0.24715  -0.21295   1.19553
  -0.24715  -0.21295   1.19553
  -0.24715  -0.21295   1.19553
  -0.24715  -0.21295   1.19553
  -0.24715   0.02705   1.19553
  -0.24715  -0.21295   1.19553
  -0.24715   0.02705   1.43553
  -0.24715   0.02705   1.43553
  -0.24715  -0.21295   1.43553
  -0.48715   0.02705   1.43553
  -0.24715  -0.21295   1.43553
  -0.24715  -0.21295   1.67553
  -0.24715   0.02705   1.67553
  -0.24715  -0.21295   1.67553
  -0.24715  -0.21295   1.91553
  -0.24715   0.02705   1.91553
  -0.24715   0.02705   1.91553
  -0.24715  -0.21295   1.91553
  -0.24715   0.02705   2.15553
  -0.24715   0.02705   2.15553
  -0.48715   0.02705   2.15553
  -0.48715   0.02705   2.15553
  -0.48715   0.02705   2.39553
  -0.48715   0.26705   2.15553
  -0.48715   0.02705   2.39553
  -0.48715   0.02705   2.39553
  -0.48715   0.26705   2.39553
  -0.48715   0.02705   2.39553
  -0.48715   0.02705   2.39553
  -0.48715   0.02705   2.63553
  -0.48715   0.02705   2.63553
  -0.48715   0.02705   2.63553
  -0.48715   0.02705   2.63553
  -0.48715   0.02705   2.63553
  -0.48715   0.02705   2.63553
  -0.48715   0.02705   2.87553
  -0.48715   0.02705   2.63553
  -0.48715  -0.21295   2.63553
  -0.48715  -0.21295   2.63553
  -0.48715  -0.21295   2.63553
  -0.48715  -0.21295   2.63553
  -0.48715  -0.21295   2.63553
  -0.48715  -0.21295   2.63553
  -0.48715  -0.21295   2.63553
  -0.48715  -0.21295   2.63553
  -0.48715  -0.21295   2.39553
  -0.48715  -0.21295   2.39553
  -0.48715  -0.21295   2.39553
  -0.48715  -0.21295   2.39553
  -0.48715  -0.21295   2.39553
  -0.48715   0.02705   2.39553
  -0.48715   0.02705   2.39553
  -0.48715  -0.21295   2.39553
  -0.48715   0.02705   2.15553
  -0.48715   0.02705   2.15553
  -0.48715   0.02705   2.15553
  -0.48715   0.02705   2.15553
  -0.48715   0.02705   2.15553
  -0.48715   0.02705   2.15553
  -0.48715   0.02705   2.15553
  -0.48715   0.02705   2.15553
  -0.48715   0.02705   2.15553
  -0.48715   0.02705   2.15553
  -0.48715   0.02705   2.15553
  -0.48715   0.02705   1.91553
  -0.48715   0.02705   2.15553
  -0.48715   0.02705   1.91553
  -0.48715   0.02705   1.91553
  -0.48715   0.02705   1.91553
  -0.48715   0.02705   1.91553
  -0.48715  -0.21295   1.91553
  -0.48715   0.02705   1.91553
  -0.48715   0.02705   1.67553
  -0.48715  -0.21295   1.67553
  -0.48715  -0.21295   1.67553
  -0.48715  -0.21295   1.67553
  -0.48715  -0.21295   1.67553
  -0.48715  -0.21295   1.43553
  -0.48715  -0.21295   1.67553
  -0.48715  -0.21295   1.43553
  -0.48715  -0.21295   1.67553
  -0.48715  -0.21295   1.43553
  -0.48715  -0.21295   1.19553
  -0.48715   0.02705   1.43553
  -0.48715   0.02705   1.43553
  -0.48715   0.02705   1.43553
  -0.48715   0.02705   1.43553
  -0.48715   0.02705   1.43553
  -0.48715   0.02705   1.43553
  -0.48715   0.02705   1.43553
  -0.48715   0.02705   1.43553
  -0.72715  -0.21295   1.43553
  -0.72715   0.02705   1.43553
  -0.72715  -0.21295   1.19553
  -0.72715  -0.21295   1.19553
  -0.72715   0.02705   1.19553
  -0.72715   0.02705   1.19553
  -0.72715   0.02705   1.19553
  -0.96715   0.02705   1.19553
  -0.96715   0.02705   1.19553
  -0.96715   0.02705   1.43553
  -0.96715   0.02705   1.43553
  -0.96715   0.02705   1.43553
  -1.20715   0.02705   1.43553
  -0.96715   0.02705   1.43553
  -0.96715   0.02705   1.43553
  -1.20715   0.02705   1.43553
  -1.20715   0.02705   1.43553
  -1.20715   0.02705   1.43553
  -1.20715   0.02705   1.43553
  -1.20715   0.02705   1.43553
  -1.20715   0.02705   1.67553
  -1.20715   0.02705   1.67553
  -1.20715   0.02705   1.67553
  -1.20715   0.02705   1.67553
  -1.20715   0.02705   1.67553
  -1.20715   0.02705   1.67553
  -1.44715   0.02705   1.67553
  -1.44715   0.02705   1.67553
  -1.44715   0.02705   1.67553
  -1.44715   0.02705   1.67553
  -1.20715   0.02705   1.67553
  -1.44715   0.02705   1.67553
  -1.44715   0.02705   1.67553
  -1.44715   0.02705   1.67553
  -1.44715   0.02705   1.67553
  -1.44715   0.02705   1.67553
  -1.20715   0.02705   1.67553
  -1.20715   0.26705   1.67553
  -1.20715   0.26705   1.67553
  -1.20715   0.26705   1.67553
  -1.20715   0.26705   1.67553
  -1.20715   0.26705   1.43553
  -1.20715   0.02705   1.43553
  -1.20715   0.26705   1.43553
  -1.20715   0.26705   1.43553
  -1.20715   0.02705   1.43553
  -0.96715   0.02705   1.43553
  -0.96715   0.02705   1.19553
  -0.96715   0.02705   1.19553
  -0.96715   0.02705   1.19553
  -0.96715   0.02705   1.19553
  -0.96715   0.02705   1.19553
  -0.96715   0.02705   0.95553
  -0.72715   0.02705   0.95553
  -0.72715   0.02705   0.95553
  -0.72715   0.02705   0.95553
  -0.48715   0.02705   0.95553
  -0.48715  -0.21295   0.71553
  -0.48715  -0.21295   0.71553
  -0.48715  -0.21295   0.71553
  -0.48715  -0.21295   0.71553
  -0.24715  -0.21295   0.71553
  -0.24715  -0.21295   0.71553
  -0.24715  -0.21295   0.47553
  -0.24715  -0.21295   0.47553
  -0.24715  -0.21295   0.47553
  -0.24715  -0.21295   0.23553
  -0.00715  -0.21295   0.23553
  -0.00715  -0.21295   0.23553
  -0.24715  -0.21295   0.23553
  -0.00715  -0.21295   0.23553
  -0.00715  -0.21295  -0.00447
  -0.00715  -0.21295  -0.00447
  -0.00715  -0.21295  -0.00447
  -0.00715  -0.21295  -0.00447
  -0.00715   0.02705  -0.24447
  -0.00715  -0.21295  -0.24447
  -0.00715  -0.21295  -0.24447
  -0.00715  -0.21295  -0.24447
  -0.00715   0.02705  -0.24447
  -0.00715  -0.21295  -0.24447
  -0.00715   0.02705  -0.47447
  -0.00715   0.02705  -0.47447
  -0.00715   0.02705  -0.47447
  -0.00715   0.02705  -0.47447
  -0.00715   0.02705  -0.47447
  -0.24715   0.02705  -0.71447
  -0.00715   0.02705  -0.71447
  -0.24715   0.02705  -0.71447
  -0.24715   0.02705  -0.71447
  -0.24715   0.02705  -0.71447
  -0.24715   0.02705  -0.71447
  -0.24715   0.02705  -0.95447
  -0.24715   0.02705  -0.95447
