********************************************************************************
               CENTRO DE INSTRUMENTACION Y REGISTRO SISMICO  A.C.  
                       Coordinacion de Servicios Tecnicos
     Anaxagoras 814, Col. Narvarte, Benito Juarez, C.P. 03020 Mexico, D.F.
            Tels. 687 45 42/ 687 45  82             Fax. 669 25 12
********************************************************************************
ARCHIVO ESTANDAR DE ACELERACION:
VERSION DEL FORMATO                    : 2.0
NOMBRE DEL ARCHIVO                     : AU119305.151
FECHA Y HORA DE CREACION               : 8 de febrero de 1996/17:41
REF. CATALOGO ACELEROGRAMAS, SMIS 1995 : REGISTRO No. 4083 /PAG. 374


================================================================================
DATOS DE LA ESTACION:
NOMBRE DE LA ESTACION                  : AUTODROMO
CLAVE DE LA ESTACION                   : AU11
LOCALIZACION DE LA ESTACION            : AUTODROMO HERMANOS RODRIGUEZ,
                                       : CHURUBUSCO, CD. DEPORTIVA
                                       :
                                       :
                                       :
COORDENADAS DE LA ESTACION             : 19.392 LAT. N 
                                       : 99.087 LONG. W 
ALTITUD (msnm)                         : 2234
TIPO DE SUELO                          : TERRENO BLANDO, MATERIAL COMPRESIBLE
                                       : (ARCILLAS)
                                       : 
INSTITUCION RESPONSABLE                : CIRES 
                                       :

================================================================================
DATOS DEL ACELEROGRAFO:
MODELO DEL ACELEROGRAFO                : SSA-1
NUMERO DE SERIE DEL ACELEROGRAFO       : 157
NUMERO DE CANALES                      : 3
ORIENTACION C1-C6 (rumbo;orientacion)  : /N00E/+V/N90E
ORIENTACION C7-C12 (rumbo;orientacion) :
VEL. DE MUESTREO, C1-C6 (muestras/s)   : /200/200/200
VEL. DE MUESTREO, C7-C12 (muestras/s)  :
ESC. COMPLETA DE SENSORES, C1-C6, (g)  : /2/2/2
ESC. COMPLETA DE SENSORES, C7-C12, (g) :
FREC. NAT. DE SENSORES, C1-C6, (Hz)    : /50/50/50
FREC. NAT. DE SENSORES, C7-C12, (Hz)   :
AMORTIGUAMIENTO DE SENSORES, C1-C6     : /0.700/0.700/0.700
AMORTIGUAMIENTO DE SENSORES, C7-C12    :
INTERVALO DE MUESTREO, C1-C6, (s)      : /0.005/0.005/0.005
INTERVALO DE MUESTREO, C7-C12, (s)     :
UMBRAL DE DISPARO, C1-C6, (Gal)        : /2/1/2
UMBRAL DE DISPARO, C7-C12, (Gal)       :
MEMORIA DE PREEVENTO (s)               : 15
TIEMPO DE POSEVENTO (s)                : 90


================================================================================
DATOS DEL SISMO:
FECHA DEL SISMO (GMT)                  : 15/MAY/93
HORA EPICENTRO (GMT)                   : 03:09:39,4 
MAGNITUD(ES)                           : /Mb=5.80/Ms=5.80/Mc=5.80
COORDENADAS DEL EPICENTRO              : 16.430 LAT. N 
                                       : 98.740 LONG. W 
PROFUNDIDAD FOCAL (km)                 : < 5
FUENTE DE LOS DATOS EPICENTRALES       : INSTITUTO DE INGENIERIA UNAM
                                       : INSTITUTO DE GEOFISICA, UNAM

================================================================================
DATOS DE ESTE REGISTRO:
HORA DE LA PRIMERA MUESTRA (GMT)       : 03:13:00.00
EXACTITUD DEL TIEMPO (s)               :     
DURACION DEL REGISTRO (s), C1-C6       : /120.32/120.32/120.32
DURACION DEL REGISTRO (s), C7-C12      :
NUM. TOTAL DE MUESTRAS, C1-C6          : /24064/24064/24064
NUM. TOTAL DE MUESTRAS, C7-C12         :
ACEL. MAX. (Gal), C1-C6                : /2.69657/0.96677/2.61277
ACEL. MAX., C1-C6, EN LA MUESTRA       :
ACEL. MAX. (Gal), C7-C12               :
ACEL. MAX., C7-C12, EN LA MUESTRA      :
UNIDADES DE LOS DATOS                  : Gal (cm/s/s)
FACTOR DE DECIMACION                   : 1
FORMATO DATOS (FORTRAN,10 campos/dato) : 3F10.5


================================================================================
CALIDAD DEL ACELEROGRAMA:
REGISTRO DIGITAL COMPLETO, CARECE DE TIEMPO ABSOLUTO.


================================================================================
COMENTARIOS:
             Los equipos se encontraban con una ganancia de 2 en los ejes 
             horizontales y de 4 en el vertical, por lo que las escalas
             completas eran de 1 g y de 1/2 g respectivamente.











================================================================================
DATOS DE ACELERACION:
---------+---------+---------+---------+---------+---------+---------+---------+
   CANAL-1   CANAL-2   CANAL-3   CANAL-4   CANAL-5   CANAL-6   CANAL-7   CANAL-8
      N00E        +V      N90E
---------+---------+---------+---------+---------+---------+---------+---------+
[...]
   0.77657   0.22323  -0.21277
   0.77657   0.22323  -0.21277
   0.77657   0.22323   0.25723
   0.77657   0.22323   0.25723
   0.77657   0.22323   0.25723
   0.77657   0.22323   0.25723
   0.77657   0.22323   0.25723
   0.77657   0.22323   0.25723
   0.77657   0.22323   0.25723
   0.77657   0.22323   0.25723
   0.77657  -0.01677   0.25723
   0.77657  -0.01677   0.25723
   0.77657  -0.01677   0.25723
   0.77657  -0.01677   0.25723
   0.77657  -0.01677   0.73723
   0.77657  -0.01677   0.73723
   0.77657  -0.01677   0.73723
   0.77657  -0.01677   0.73723
   0.77657  -0.01677   0.73723
   0.77657  -0.01677   0.73723
   0.77657  -0.01677   0.73723
   0.77657  -0.01677   0.73723
   0.29657  -0.25677   0.73723
   0.77657  -0.01677   0.73723
   0.77657  -0.01677   0.73723
   0.77657  -0.01677   0.73723
   0.77657  -0.01677   0.73723
   0.77657  -0.01677   0.73723
   0.77657  -0.01677   0.73723
   0.77657  -0.01677   0.73723
   0.77657  -0.01677   0.73723
   0.77657  -0.01677   0.73723
   0.77657  -0.01677   1.21723
   0.77657  -0.01677   0.73723
   0.77657  -0.01677   0.73723
   0.77657  -0.01677   0.73723
   0.77657  -0.01677   0.73723
   0.77657   0.22323   0.73723
   0.77657   0.22323   0.73723
   0.77657  -0.01677   0.73723
   0.77657  -0.01677   0.73723
   0.77657   0.22323   0.73723
   0.77657  -0.01677   0.73723
   0.77657   0.22323   0.73723
   0.77657  -0.01677   0.25723
   0.77657   0.22323   0.25723
   0.77657   0.22323   0.25723
   0.77657   0.22323   0.25723
   0.77657   0.22323   0.25723
   0.77657   0.22323   0.25723
   0.77657   0.22323   0.25723
   0.77657   0.22323   0.25723
   0.77657   0.22323   0.25723
   0.77657   0.22323   0.25723
   0.77657   0.22323   0.25723
   0.77657   0.22323   0.25723
   0.77657   0.22323   0.25723
   0.77657   0.22323   0.25723
   0.77657   0.22323   0.25723
   0.77657   0.22323   0.25723
   0.77657   0.22323   0.25723
   0.77657   0.22323   0.25723
   0.77657   0.22323   0.73723
   0.77657   0.22323   0.73723
   0.77657   0.22323   0.73723
   0.77657   0.22323   0.73723
   0.77657   0.22323   0.73723
   0.77657   0.22323   0.73723
   0.77657   0.22323   0.73723
   0.77657   0.22323   0.73723
   0.29657   0.22323   0.73723
   0.77657   0.22323   0.73723
   0.77657   0.22323   0.73723
   0.77657   0.22323   0.73723
   0.77657   0.22323   0.73723
   0.77657   0.22323   0.73723
   0.77657   0.22323   0.73723
   0.77657   0.22323   0.73723
   0.29657   0.22323   0.73723
   0.77657   0.22323   0.73723
   0.77657   0.22323   0.73723
   0.77657   0.22323   0.73723
   0.77657   0.22323   0.73723
   0.77657   0.22323   0.73723
   0.77657   0.22323   0.73723
   0.77657   0.22323   0.73723
   0.77657   0.22323   0.73723
   0.29657   0.22323   0.73723
   0.77657   0.22323   0.73723
   0.77657   0.22323   0.73723
   0.29657   0.22323   0.73723
   0.77657   0.22323   0.73723
   0.77657   0.22323   0.73723
   0.29657   0.22323   0.73723
   0.29657   0.22323   0.73723
   0.29657   0.22323   0.73723
   0.77657   0.22323   0.73723
   0.29657  -0.01677   0.73723
   0.29657  -0.01677   0.25723
   0.29657  -0.01677   0.73723
   0.29657   0.22323   0.25723
   0.29657   0.22323   0.25723
   0.29657   0.22323   0.73723
   0.29657   0.22323   0.25723
   0.29657   0.22323   0.25723
   0.29657   0.22323   0.25723
   0.29657   0.22323   0.25723
   0.29657   0.22323   0.25723
   0.29657   0.22323   0.25723
   0.29657   0.22323   0.73723
  -0.18343   0.46323   0.25723
  -0.18343   0.22323   0.25723
  -0.18343   0.22323   0.73723
  -0.18343   0.46323   0.25723
  -0.18343   0.46323   0.73723
  -0.18343   0.46323   0.73723
  -0.18343   0.46323   0.73723
  -0.18343   0.46323   0.25723
  -0.18343   0.46323   0.73723
  -0.18343   0.46323   0.73723
  -0.18343   0.46323   0.73723
  -0.18343   0.46323   0.73723
  -0.18343   0.46323   0.73723
  -0.18343   0.46323   0.73723
  -0.18343   0.46323   0.73723
  -0.18343   0.46323   0.73723
  -0.18343  -0.25677   0.73723
  -0.18343   0.22323   0.73723
  -0.18343   0.22323   0.73723
  -0.18343   0.22323   0.73723
  -0.18343   0.22323   0.73723
  -0.18343   0.22323   0.73723
  -0.18343   0.22323   0.25723
  -0.18343   0.22323   0.73723
  -0.18343   0.22323   0.73723
  -0.18343   0.22323   0.73723
  -0.18343   0.22323   0.73723
  -0.18343  -0.01677   0.73723
  -0.18343  -0.01677   0.73723
  -0.18343  -0.01677   0.73723
  -0.66343  -0.01677   0.73723
  -0.66343  -0.01677   0.25723
  -0.66343  -0.01677   0.73723
  -0.66343  -0.01677   0.25723
  -0.66343  -0.01677   0.25723
  -0.66343  -0.25677   0.25723
  -0.66343  -0.25677   0.25723
  -0.66343  -0.25677   0.25723
  -1.14343  -0.25677   0.25723
  -0.66343  -0.25677   0.25723
  -1.14343  -0.25677  -0.21277
  -1.14343  -0.48677   0.25723
  -1.14343  -0.48677   0.25723
  -1.14343  -0.48677   0.25723
  -1.14343  -0.48677   0.25723
  -1.14343  -0.48677   0.25723
  -1.14343  -0.48677  -0.21277
  -1.14343  -0.48677  -0.21277
  -1.14343  -0.48677  -0.21277
  -1.62343  -0.48677  -0.21277
  -1.62343  -0.48677  -0.21277
  -1.62343  -0.48677  -0.21277
  -1.62343  -0.48677  -0.21277
  -1.62343  -0.25677  -0.21277
  -1.62343  -0.48677  -0.21277
  -1.62343  -0.25677  -0.21277
  -1.62343  -0.25677  -0.21277
  -1.62343  -0.25677  -0.21277
  -1.62343  -0.25677  -0.21277
  -1.62343  -0.25677  -0.21277
  -1.62343  -0.25677  -0.21277
  -1.62343  -0.25677  -0.21277
  -1.62343  -0.25677  -0.69277
  -1.62343  -0.25677  -0.69277
  -1.62343  -0.25677  -0.69277
  -1.62343  -0.25677  -0.69277
  -1.62343  -0.25677  -0.69277
  -1.14343  -0.25677  -0.69277
  -1.62343  -0.25677  -0.69277
  -1.14343  -0.25677  -0.69277
  -1.14343  -0.25677  -0.69277
  -1.14343  -0.25677  -0.69277
  -1.14343  -0.25677  -0.69277
  -1.14343  -0.25677  -0.69277
  -1.14343  -0.25677  -0.69277
  -1.14343  -0.25677  -0.69277
  -1.14343  -0.25677  -0.69277
  -1.14343  -0.25677  -0.69277
  -1.14343  -0.25677  -0.69277
  -1.14343  -0.25677  -0.69277
  -1.14343  -0.25677  -0.69277
  -0.66343  -0.25677  -0.69277
  -0.66343  -0.25677  -0.69277
  -0.66343  -0.25677  -0.69277
  -0.66343  -0.01677  -0.69277
  -0.66343  -0.25677  -0.69277
  -0.66343  -0.25677  -0.69277
  -0.66343  -0.25677  -0.21277
  -0.66343  -0.01677  -0.21277
  -0.66343  -0.01677  -0.21277
  -0.18343  -0.01677  -0.21277
  -0.18343  -0.01677  -0.21277
  -0.66343  -0.01677  -0.21277
  -0.66343  -0.01677  -0.21277
  -0.66343   0.22323   0.25723
  -0.66343  -0.01677   0.25723
  -0.66343   0.22323   0.25723
  -0.66343   0.22323   0.25723
  -0.66343  -0.01677   0.25723
  -0.66343   0.22323   0.25723
  -0.66343   0.22323   0.25723
  -0.66343   0.22323   0.25723
  -0.66343   0.22323   0.25723
  -0.66343   0.22323   0.73723
  -0.66343   0.22323   0.73723
  -0.66343   0.22323   0.25723
  -0.66343   0.22323   0.25723
  -0.66343   0.22323   0.73723
  -0.66343   0.22323   0.73723
  -0.66343   0.22323   0.73723
  -0.66343   0.22323   0.73723
  -0.66343  -0.01677   0.25723
  -0.66343   0.22323   0.73723
  -1.14343   0.22323   0.73723
  -1.14343   0.22323   0.25723
  -1.14343  -0.01677   0.25723
  -1.14343  -0.01677   0.25723
  -1.14343  -0.01677   0.25723
  -1.14343  -0.01677   0.25723
  -1.14343  -0.01677   0.25723
  -1.14343  -0.01677   0.25723
  -1.14343  -0.01677   0.25723
  -1.14343  -0.01677  -0.21277
  -1.14343  -0.01677  -0.21277
  -1.14343  -0.01677  -0.21277
  -1.14343  -0.01677  -0.21277
  -1.14343  -0.01677  -0.21277
  -1.14343  -0.01677  -0.69277
  -1.14343  -0.01677  -0.69277
  -1.14343  -0.01677  -0.69277
  -1.14343  -0.01677  -0.69277
  -1.62343  -0.01677  -0.69277
  -1.14343   0.22323  -1.17277
  -1.14343   0.22323  -1.17277
  -1.62343   0.22323  -1.17277
  -1.14343   0.22323  -1.17277
  -1.62343   0.22323  -1.17277
  -2.10343   0.22323  -1.17277
  -1.62343   0.22323  -1.17277
  -1.62343   0.22323  -1.17277
  -1.62343   0.22323  -1.17277
  -1.62343   0.22323  -1.17277
  -1.62343   0.22323  -1.17277
  -2.10343   0.22323  -1.17277
  -2.10343   0.22323  -1.17277
  -2.10343   0.22323  -1.17277
  -2.10343   0.22323  -1.17277
  -2.10343   0.22323  -1.17277
  -2.10343   0.22323  -1.17277
  -2.10343   0.22323  -1.17277
  -2.10343   0.22323  -1.17277
  -2.10343   0.22323  -1.17277
  -2.10343   0.22323  -1.17277
  -2.10343  -0.01677  -1.17277
  -2.10343  -0.01677  -1.17277
  -2.10343   0.22323  -1.17277
  -2.10343   0.22323  -1.17277
  -2.10343  -0.01677  -1.17277
  -2.10343  -0.01677  -1.17277
  -2.10343  -0.01677  -1.17277
  -2.10343   0.22323  -1.17277
  -2.10343  -0.01677  -1.17277
  -2.10343  -0.01677  -1.17277
  -2.10343  -0.01677  -1.17277
  -1.62343  -0.01677  -0.69277
  -1.62343  -0.01677  -0.69277
  -1.62343  -0.01677  -1.17277
  -1.62343  -0.01677  -1.17277
  -1.62343  -0.01677  -0.69277
  -1.62343  -0.25677  -0.69277
  -1.62343  -0.25677  -0.69277
  -1.62343  -0.25677  -0.69277
  -1.62343  -0.25677  -1.17277
  -1.62343  -0.25677  -0.69277
  -1.62343  -0.25677  -0.69277
  -1.62343  -0.25677  -0.69277
  -1.62343  -0.25677  -0.69277
  -1.62343  -0.48677  -0.69277
  -1.62343  -0.25677  -0.69277
  -1.62343  -0.48677  -0.69277
  -1.62343  -0.48677  -0.69277
  -1.62343  -0.48677  -0.69277
  -1.62343  -0.48677  -0.69277
  -1.62343  -0.48677  -0.69277
  -1.62343  -0.48677  -0.69277
  -1.62343  -0.48677  -0.69277
  -1.62343  -0.48677  -0.21277
  -1.62343  -0.48677  -0.21277
  -1.62343  -0.48677  -0.21277
  -1.62343  -0.48677  -0.21277
  -1.62343  -0.48677  -0.21277
  -1.14343  -0.48677  -0.21277
  -1.14343  -0.48677  -0.21277
  -1.14343  -0.48677  -0.21277
  -1.14343  -0.48677   0.25723
  -1.14343  -0.48677   0.25723
  -1.14343  -0.25677   0.25723
  -0.66343  -0.25677   0.25723
  -0.66343  -0.25677   0.25723
  -0.66343  -0.25677   0.25723
  -0.18343  -0.25677   0.73723
  -0.18343  -0.25677   0.73723
  -0.18343  -0.25677   0.73723
  -0.18343  -0.25677   0.73723
  -0.18343  -0.25677   0.73723
  -0.18343  -0.25677   0.73723
   0.29657  -0.25677   0.73723
   0.29657  -0.25677   1.21723
   0.29657  -0.25677   1.21723
   0.77657  -0.72677   1.21723
   0.77657  -0.25677   1.21723
   0.77657  -0.25677   1.21723
   0.77657  -0.25677   1.21723
   1.25657  -0.25677   1.21723
   1.25657  -0.25677   1.21723
   1.25657  -0.25677   1.21723
   1.25657  -0.48677   1.21723
   1.25657  -0.25677   1.21723
   1.25657  -0.25677   1.21723
   1.73657  -0.25677   1.21723
   1.73657  -0.25677   1.21723
   1.73657  -0.25677   1.21723
   1.73657  -0.25677   1.21723
   1.73657  -0.25677   1.21723
   2.21657  -0.25677   1.21723
   2.21657  -0.25677   1.21723
   2.21657  -0.25677   1.21723
   2.21657  -0.25677   1.21723
   2.21657  -0.25677   1.21723
   2.21657  -0.25677   1.21723
   2.21657  -0.25677   1.21723
   2.21657  -0.25677   1.21723
   2.21657  -0.25677   1.21723
   2.69657  -0.25677   1.21723
   2.21657  -0.25677   1.21723
   2.21657  -0.25677   0.73723
   2.69657  -0.25677   1.21723
   2.21657  -0.25677   0.73723
   2.21657  -0.25677   0.73723
   2.21657  -0.01677   0.73723
   2.21657  -0.25677   0.73723
   2.21657  -0.25677   0.73723
   2.21657  -0.25677   0.73723
   2.21657  -0.25677   0.73723
   2.21657  -0.25677   0.73723
   2.21657  -0.25677   0.73723
   2.21657  -0.25677   0.73723
   2.21657  -0.25677   0.73723
   2.69657  -0.25677   0.73723
   2.21657  -0.25677   0.73723
   2.21657  -0.25677   0.73723
   2.21657  -0.25677   0.73723
   2.21657  -0.25677   0.73723
   2.21657  -0.25677   0.25723
   2.21657  -0.25677   0.73723
   2.21657  -0.25677   0.73723
   2.21657  -0.25677   0.25723
   2.21657  -0.25677   0.25723
   2.21657  -0.25677   0.25723
   2.69657  -0.25677   0.73723
   2.21657  -0.25677   0.25723
   2.21657  -0.25677   0.25723
   2.21657  -0.25677   0.25723
   2.69657  -0.25677   0.25723
   2.69657  -0.25677   0.25723
   2.21657  -0.25677   0.25723
   2.21657  -0.25677   0.25723
   2.21657  -0.25677   0.25723
   2.21657  -0.01677   0.25723
   2.21657  -0.01677   0.25723
   2.69657  -0.01677   0.25723
   2.21657  -0.01677   0.25723
   2.69657  -0.01677   0.25723
   2.21657  -0.01677   0.25723
   2.21657  -0.01677   0.25723
   2.21657  -0.01677   0.25723
   1.73657  -0.01677   0.25723
   2.21657  -0.01677  -0.21277
   2.21657  -0.01677   0.25723
   2.21657  -0.01677   0.25723
   2.21657  -0.01677   0.25723
   2.21657   0.22323  -0.21277
   2.21657  -0.01677   0.25723
   1.73657   0.22323   0.25723
   1.73657   0.22323   0.25723
   1.73657   0.22323  -0.21277
   1.73657  -0.01677  -0.21277
   1.73657  -0.01677  -0.21277
   1.73657   0.22323  -0.21277
   1.73657   0.22323  -0.21277
   1.25657   0.22323  -0.21277
   1.25657   0.22323  -0.21277
   1.25657   0.22323  -0.21277
   1.25657   0.22323  -0.21277
   1.25657   0.22323  -0.21277
   0.77657   0.22323   0.25723
   0.77657  -0.01677  -0.21277
   0.77657   0.22323  -0.21277
   0.77657   0.22323  -0.21277
   0.77657  -0.01677  -0.21277
   0.77657  -0.01677  -0.21277
   0.77657  -0.01677  -0.21277
   0.77657  -0.01677  -0.21277
   0.77657  -0.01677  -0.21277
   0.77657  -0.01677  -0.21277
   0.77657  -0.01677   0.25723
   0.29657  -0.01677  -0.21277
   0.29657  -0.01677  -0.21277
  -0.18343  -0.01677   0.25723
   0.29657  -0.01677  -0.21277
   0.29657  -0.01677   0.25723
   0.29657  -0.01677   0.25723
   0.29657  -0.01677   0.25723
   0.29657  -0.01677   0.25723
   0.29657  -0.01677   0.25723
   0.29657  -0.01677  -0.21277
   0.29657  -0.01677   0.25723
   0.29657  -0.01677   0.25723
   0.29657  -0.01677  -0.21277
  -0.18343  -0.01677   0.25723
   0.29657  -0.01677   0.25723
   0.29657  -0.01677  -0.21277
  -0.18343  -0.01677  -0.21277
  -0.18343  -0.01677  -0.21277
  -0.18343  -0.01677  -0.21277
  -0.18343  -0.01677  -0.21277
  -0.18343  -0.01677   0.25723
  -0.18343   0.22323   0.25723
  -0.18343   0.22323   0.25723
  -0.18343   0.22323   0.25723
  -0.18343   0.22323   0.25723
  -0.18343   0.22323   0.25723
  -0.18343   0.22323   0.25723
  -0.18343   0.22323   0.25723
  -0.18343   0.22323   0.25723
  -0.18343   0.22323   0.25723
  -0.18343   0.22323   0.25723
  -0.18343   0.22323   0.25723
  -0.18343   0.22323   0.25723
  -0.18343   0.22323   0.25723
  -0.18343   0.22323   0.25723
  -0.18343   0.22323   0.25723
  -0.18343   0.22323   0.25723
  -0.18343   0.22323   0.25723
  -0.18343   0.22323   0.25723
  -0.18343   0.22323   0.25723
  -0.18343   0.22323   0.25723
  -0.18343   0.46323   0.25723
  -0.18343   0.46323   0.25723
  -0.18343   0.46323   0.25723
  -0.18343   0.22323   0.25723
  -0.18343   0.46323   0.25723
  -0.18343   0.46323   0.25723
  -0.18343   0.46323   0.25723
  -0.18343   0.46323   0.25723
  -0.18343   0.22323   0.25723
  -0.18343   0.22323   0.25723
  -0.18343   0.22323   0.25723
  -0.18343   0.22323   0.25723
  -0.18343   0.22323   0.25723
  -0.18343   0.22323   0.25723
  -0.18343   0.22323   0.25723
  -0.18343   0.22323   0.25723
  -0.18343   0.22323  -0.21277
  -0.18343   0.22323  -0.69277
  -0.18343   0.22323  -0.21277
  -0.18343  -0.01677  -0.21277
  -0.18343  -0.01677  -0.21277
  -0.18343  -0.01677  -0.21277
  -0.18343  -0.01677  -0.21277
  -0.18343  -0.01677  -0.21277
  -0.18343  -0.01677  -0.21277
  -0.18343  -0.01677  -0.21277
  -0.18343  -0.25677  -0.21277
  -0.18343  -0.25677  -0.21277
  -0.18343  -0.25677  -0.69277
  -0.18343  -0.25677  -0.69277
  -0.18343  -0.25677  -0.69277
  -0.18343  -0.25677  -0.69277
  -0.18343  -0.25677  -0.69277
  -0.18343  -0.25677  -0.69277
