********************************************************************************
              CENTRO DE INSTRUMENTACION Y REGISTRO SISMICO  A.C.

    Anaxagoras 814, Col. Narvarte, Benito Juarez, C.P. 03020 Mexico, D.F.
           Tels. 5687 45 42/ 5687 45  82             Fax. 5669 25 12
********************************************************************************
ARCHIVO ESTANDAR DE ACELERACION:
VERSION DEL FORMATO                    : 2.0
NOMBRE DEL ARCHIVO                     : AU1120130821130218
FECHA Y HORA DE CREACION               : 17/SEP/13, 14:53
REF. CATALOGO ACELEROGRAMAS, SMIS 1996 : REGISTRO No.     /PAG.


================================================================================
DATOS DE LA ESTACION:
NOMBRE DE LA ESTACION                  : AUTÓDROMO
CLAVE DE LA ESTACION                   : AU11
LOCALIZACION DE LA ESTACION            : Del. Iztacalco, Cd. Deportiva          
                                       : Magdalena Mixhuca,                     
                                       : Col. Granjas México                    
                                       :                                        
                                       : 
COORDENADAS DE LA ESTACION             : 19.3919 LAT. N
                                       : 99.0869 LONG. W
ALTITUD (msnm)                         : 2234
TIPO DE SUELO                          : Terreno blando, material compresible
                                       : (arcillas)                
                                       : 
INSTITUCION RESPONSABLE                : CIRES
                                       : 

================================================================================
DATOS DEL ACELEROGRAFO:
MODELO DEL ACELEROGRAFO                : RADESD
NUMERO DE SERIE DEL ACELEROGRAFO       : 157
NUMERO DE CANALES                      : 3
ORIENTACION C1-C6 (rumbo;orientacion)  : /N00E/+V/N90W
ORIENTACION C7-C12 (rumbo;orientacion) : 
VEL. DE MUESTREO, C1-C6 (muestras/s)   : /100/100/100
VEL. DE MUESTREO, C7-C12 (muestras/s)  : 
ESC. COMPLETA DE SENSORES, C1-C6, (g)  : /0.5/0.5/0.5
ESC. COMPLETA DE SENSORES, C7-C12, (g) : 
FREC. NAT. DE SENSORES, C1-C6, (Hz)    : /51.77/52.56/52.29
FREC. NAT. DE SENSORES, C7-C12, (Hz)   : 
AMORTIGUAMIENTO DE SENSORES, C1-C6     : /0.5912/0.6083/0.6067
AMORTIGUAMIENTO DE SENSORES, C7-C12    : 
INTERVALO DE MUESTREO, C1-C6, (s)      : /0.01/0.01/0.01
INTERVALO DE MUESTREO, C7-C12, (s)     : 
UMBRAL DE DISPARO, C1-C6, (Gal)        : /11.49/30.65/11.49
UMBRAL DE DISPARO, C7-C12, (Gal)       : 
MEMORIA DE PREEVENTO (s)               : 56.0
TIEMPO DE POSEVENTO (s)                : 80.0


================================================================================
DATOS DEL SISMO:
FECHA DEL SISMO (GMT)                  : 21/AGO/13
HORA EPICENTRO (GMT)                   : 13:02:18.0
MAGNITUD(ES)                           : /Mc=5.0
COORDENADAS DEL EPICENTRO              : 16.73 LAT. N
                                       : 99.70 LONG. W
PROFUNDIDAD FOCAL (km)                 : 11
FUENTE DE LOS DATOS EPICENTRALES       : SSN
                                       : INSTITUTO DE GEOFISICA, UNAM

================================================================================
DATOS DE ESTE REGISTRO:
HORA DE LA PRIMERA MUESTRA (GMT)       : 13:03:58.00
EXACTITUD DEL TIEMPO (s)               : 0.01
DURACION DEL REGISTRO (s), C1-C6       : /134.6/134.6/134.6
DURACION DEL REGISTRO (s), C7-C12      : 
NUM. TOTAL DE MUESTRAS, C1-C6          : /13460/13460/13460
NUM. TOTAL DE MUESTRAS, C7-C12         : 
ACEL. MAX. (Gal), C1-C6                : /1.17928/0.44075/1.02374
ACEL. MAX., C1-C6, EN LA MUESTRA       : /4601/5891/6709
ACEL. MAX. (Gal), C7-C12               : 
ACEL. MAX., C7-C12, EN LA MUESTRA      : 
UNIDADES DE LOS DATOS                  : Gal (cm/s/s)
FACTOR DE DECIMACION                   : 1
FORMATO DATOS (FORTRAN,10 campos/dato) : 3F10.5


================================================================================
CALIDAD DEL ACELEROGRAMA:
REGISTRO DIGITAL COMPLETO CON TIEMPO ABSOLUTO CORRECTO.


================================================================================
COMENTARIOS:














================================================================================
DATOS DE ACELERACION:
---------+---------+---------+---------+---------+---------+---------+---------+
   CANAL-1   CANAL-2   CANAL-3   CANAL-4   CANAL-5   CANAL-6   CANAL-7   CANAL-8
      N00E        +V      N90W
---------+---------+---------+---------+---------+---------+---------+---------+
[...]
   0.63134   0.14148  -0.23322
   0.69119   0.02177  -0.29307
   0.69119   0.17140  -0.33796
   0.66126   0.14148  -0.29307
   0.57148   0.14148  -0.30803
   0.64630   0.15644  -0.35293
   0.63134   0.08162  -0.44271
   0.58644   0.09659  -0.39782
   0.60141   0.02177  -0.41278
   0.57148   0.05169  -0.47264
   0.60141  -0.05305  -0.35293
   0.64630  -0.00816  -0.62227
   0.57148   0.09659  -0.39782
   0.46673   0.02177  -0.39782
   0.51162  -0.06802  -0.36789
   0.49666  -0.00816  -0.24818
   0.34702   0.02177  -0.38285
   0.31710   0.06666  -0.33796
   0.18242   0.05169  -0.21825
   0.15249   0.09659  -0.24818
   0.07768   0.11155  -0.14343
   0.16746   0.08162  -0.17336
   0.07768   0.15644  -0.05365
   0.10760   0.03673  -0.02372
   0.09264   0.15644  -0.02372
   0.04775   0.05169  -0.03869
  -0.02707   0.11155   0.06606
  -0.04203   0.12651   0.03613
   0.01782   0.05169   0.23066
  -0.04203   0.00680   0.14088
  -0.08693  -0.03809   0.11095
  -0.07196  -0.00816   0.24562
  -0.13182   0.00680   0.20073
  -0.10189  -0.02312   0.15584
  -0.05700  -0.03809   0.29052
  -0.11685   0.02177   0.27555
  -0.08693   0.02177   0.30548
  -0.04203  -0.03809   0.30548
  -0.02707   0.09659   0.30548
  -0.13182   0.00680   0.23066
  -0.05700   0.00680   0.35037
  -0.04203   0.03673   0.23066
  -0.04203  -0.00816   0.32044
  -0.08693  -0.08298   0.23066
  -0.05700   0.00680   0.27555
  -0.13182  -0.06802   0.26059
  -0.10189  -0.00816   0.17081
  -0.08693   0.02177   0.21570
  -0.13182   0.03673   0.02117
  -0.13182   0.02177   0.15584
  -0.10189   0.06666   0.02117
  -0.16174   0.05169   0.03613
  -0.20664   0.02177  -0.03869
  -0.20664   0.00680   0.05110
  -0.16174   0.03673   0.03613
  -0.19167   0.00680   0.09599
  -0.20664   0.15644   0.00620
  -0.20664   0.06666   0.03613
  -0.20664   0.00680   0.15584
  -0.26649   0.12651   0.08102
  -0.26649   0.11155   0.14088
  -0.32635   0.08162   0.15584
  -0.28145   0.14148   0.18577
  -0.40116   0.11155   0.24562
  -0.37124   0.06666   0.20073
  -0.44606   0.06666   0.26059
  -0.43109  -0.05305   0.17081
  -0.49095   0.00680   0.23066
  -0.53584  -0.03809   0.30548
  -0.62562  -0.09794   0.12591
  -0.61066  -0.08298   0.21570
  -0.68548  -0.08298   0.08102
  -0.67051  -0.21765   0.21570
  -0.77526  -0.08298   0.00620
  -0.71540  -0.17276   0.03613
  -0.74533  -0.17276  -0.00876
  -0.73037  -0.11291  -0.00876
  -0.86504  -0.09794  -0.15840
  -0.80519  -0.09794  -0.12847
  -0.74533  -0.02312  -0.12847
  -0.74533  -0.06802  -0.11351
  -0.77526   0.08162  -0.02372
  -0.70044  -0.03809  -0.03869
  -0.76029   0.03673  -0.02372
  -0.73037  -0.12787  -0.00876
  -0.68548  -0.05305  -0.00876
  -0.70044  -0.06802  -0.14343
  -0.74533  -0.05305   0.03613
  -0.68548  -0.06802  -0.03869
  -0.74533  -0.02312  -0.05365
  -0.76029  -0.02312   0.00620
  -0.77526  -0.03809  -0.03869
  -0.68548  -0.00816  -0.00876
  -0.82015   0.00680  -0.06861
  -0.79022   0.03673  -0.02372
  -0.73037   0.15644  -0.11351
  -0.76029   0.08162  -0.03869
  -0.67051   0.05169  -0.09854
  -0.71540   0.12651  -0.05365
  -0.59569   0.09659  -0.14343
  -0.56577   0.08162  -0.00876
  -0.52087   0.14148  -0.08358
  -0.44606   0.05169  -0.03869
  -0.38620   0.15644  -0.03869
  -0.26649  -0.02312  -0.00876
  -0.25153   0.05169   0.03613
  -0.23656  -0.03809   0.03613
  -0.11685  -0.05305   0.11095
  -0.04203  -0.17276   0.00620
  -0.02707  -0.14283  -0.00876
   0.01782  -0.03809  -0.03869
   0.06271  -0.14283  -0.03869
   0.13753  -0.17276  -0.11351
   0.13753  -0.05305  -0.18832
   0.24228  -0.05305  -0.30803
   0.34702   0.00680  -0.30803
   0.40688  -0.03809  -0.20329
   0.48170   0.08162  -0.32300
   0.52659  -0.03809  -0.36789
   0.55652   0.02177  -0.35293
   0.60141  -0.05305  -0.33796
   0.69119  -0.06802  -0.38285
   0.75105  -0.09794  -0.48760
   0.72112  -0.03809  -0.38285
   0.75105  -0.05305  -0.38285
   0.75105  -0.09794  -0.44271
   0.76601  -0.09794  -0.38285
   0.84083  -0.06802  -0.45767
   0.73608  -0.11291  -0.38285
   0.82586  -0.03809  -0.38285
   0.76601  -0.06802  -0.36789
   0.85579  -0.11291  -0.53249
   0.81090   0.02177  -0.38285
   0.85579  -0.02312  -0.24818
   0.79594   0.00680  -0.41278
   0.82586   0.14148  -0.24818
   0.76601   0.02177  -0.29307
   0.76601   0.00680  -0.29307
   0.76601   0.02177  -0.29307
   0.78097  -0.06802  -0.23322
   0.82586  -0.14283  -0.14343
   0.81090  -0.00816  -0.18832
   0.70615  -0.08298  -0.09854
   0.66126  -0.08298  -0.05365
   0.64630  -0.05305  -0.06861
   0.72112  -0.08298  -0.06861
   0.64630  -0.14283  -0.20329
   0.64630  -0.05305  -0.09854
   0.63134  -0.03809  -0.11351
   0.63134  -0.06802  -0.12847
   0.67623  -0.08298  -0.18832
   0.66126  -0.09794   0.02117
   0.57148   0.00680  -0.06861
   0.64630   0.00680   0.02117
   0.60141   0.06666   0.00620
   0.63134   0.00680   0.09599
   0.54155   0.00680   0.14088
   0.58644   0.09659   0.09599
   0.55652   0.02177   0.20073
   0.42184   0.11155   0.18577
   0.43681   0.09659   0.23066
   0.39191  -0.00816   0.30548
   0.39191  -0.02312   0.33541
   0.33206   0.11155   0.29052
   0.22731   0.02177   0.39526
   0.18242   0.02177   0.42519
   0.06271   0.18637   0.39526
  -0.04203   0.26119   0.36533
   0.00286   0.21630   0.33541
  -0.01211   0.27615   0.35037
  -0.13182   0.38090   0.39526
  -0.02707   0.30608   0.36533
  -0.04203   0.27615   0.30548
  -0.02707   0.32104   0.39526
  -0.08693   0.27615   0.36533
  -0.11685   0.33601   0.36533
  -0.11685   0.27615   0.44015
  -0.02707   0.17140   0.38030
  -0.08693   0.17140   0.44015
  -0.13182   0.24622   0.35037
  -0.14678   0.17140   0.41023
  -0.11685   0.11155   0.50001
  -0.23656   0.15644   0.50001
  -0.29642   0.12651   0.39526
  -0.23656  -0.05305   0.47008
  -0.35627   0.06666   0.58979
  -0.29642  -0.11291   0.51497
  -0.40116  -0.06802   0.55986
  -0.40116  -0.15780   0.41023
  -0.47598  -0.06802   0.42519
  -0.47598  -0.18773   0.50001
  -0.62562  -0.02312   0.41023
  -0.58073  -0.29247   0.51497
  -0.58073  -0.24758   0.38030
  -0.62562  -0.20269   0.33541
  -0.56577  -0.24758   0.30548
  -0.53584  -0.29247   0.42519
  -0.53584  -0.29247   0.32044
  -0.50591  -0.17276   0.15584
  -0.35627  -0.41218   0.24562
  -0.40116  -0.21765   0.24562
  -0.38620  -0.18773   0.11095
  -0.29642  -0.36729   0.24562
  -0.34131  -0.09794   0.17081
  -0.26649  -0.12787   0.17081
  -0.31138  -0.09794   0.20073
  -0.34131  -0.03809   0.20073
  -0.32635  -0.08298   0.15584
  -0.46102   0.02177   0.20073
  -0.43109  -0.02312   0.26059
  -0.46102   0.00680   0.24562
  -0.50591  -0.02312   0.14088
  -0.50591  -0.06802   0.23066
  -0.58073  -0.00816   0.15584
  -0.52087  -0.06802   0.09599
  -0.58073  -0.03809   0.09599
  -0.56577   0.00680   0.05110
  -0.58073   0.00680   0.17081
  -0.55080  -0.00816   0.11095
  -0.62562   0.00680   0.18577
  -0.61066   0.00680   0.15584
  -0.59569  -0.00816   0.14088
  -0.62562   0.02177   0.14088
  -0.61066   0.05169   0.17081
  -0.56577  -0.02312   0.11095
  -0.50591   0.02177   0.03613
  -0.59569   0.00680   0.06606
  -0.56577   0.05169   0.00620
  -0.62562   0.12651   0.05110
  -0.56577   0.08162   0.03613
  -0.62562   0.15644  -0.05365
  -0.64058   0.21630  -0.02372
  -0.67051   0.26119  -0.08358
  -0.62562   0.26119  -0.12847
  -0.61066   0.20133  -0.12847
  -0.65555   0.32104  -0.15840
  -0.59569   0.26119  -0.18832
  -0.55080   0.24622  -0.15840
  -0.49095   0.32104  -0.15840
  -0.50591   0.23126  -0.09854
  -0.41613   0.26119  -0.11351
  -0.43109   0.20133  -0.08358
  -0.43109   0.20133  -0.18832
  -0.38620   0.05169  -0.06861
  -0.41613   0.02177  -0.17336
  -0.37124  -0.05305  -0.18832
  -0.34131   0.03673  -0.20329
  -0.31138  -0.06802  -0.29307
  -0.25153  -0.05305  -0.27811
  -0.20664  -0.11291  -0.35293
  -0.13182  -0.03809  -0.39782
  -0.02707  -0.18773  -0.41278
   0.01782  -0.12787  -0.35293
   0.16746  -0.15780  -0.42774
   0.18242  -0.15780  -0.42774
   0.30213  -0.17276  -0.36789
   0.36199  -0.11291  -0.32300
   0.39191  -0.14283  -0.35293
   0.40688  -0.23262  -0.24818
   0.49666  -0.15780  -0.30803
   0.57148  -0.20269  -0.27811
   0.46673  -0.15780  -0.11351
   0.57148  -0.21765  -0.15840
   0.52659  -0.15780  -0.12847
   0.52659  -0.27751  -0.05365
   0.49666  -0.27751  -0.06861
   0.48170  -0.20269  -0.06861
   0.46673  -0.14283  -0.08358
   0.39191  -0.12787  -0.06861
   0.31710  -0.08298  -0.14343
   0.30213  -0.09794  -0.08358
   0.27220  -0.08298  -0.09854
   0.33206  -0.12787  -0.12847
   0.33206  -0.03809  -0.14343
   0.36199  -0.03809  -0.18832
   0.42184   0.02177  -0.15840
   0.46673   0.02177  -0.14343
   0.57148   0.05169  -0.14343
   0.54155   0.12651  -0.14343
   0.61637   0.12651  -0.11351
   0.63134   0.03673  -0.06861
   0.64630   0.09659  -0.00876
   0.66126   0.12651  -0.03869
   0.72112   0.08162  -0.09854
   0.81090   0.18637  -0.12847
   0.78097   0.18637  -0.20329
   0.82586   0.11155  -0.08358
   0.81090   0.21630  -0.12847
   0.79594   0.23126  -0.20329
   0.81090   0.21630  -0.20329
   0.79594   0.30608  -0.23322
   0.73608   0.35097  -0.30803
   0.79594   0.23126  -0.26314
   0.81090   0.33601  -0.30803
   0.79594   0.33601  -0.27811
   0.70615   0.27615  -0.27811
   0.76601   0.20133  -0.33796
   0.64630   0.30608  -0.20329
   0.69119   0.23126  -0.15840
   0.70615   0.24622  -0.12847
   0.70615   0.17140  -0.18832
   0.70615   0.11155  -0.12847
   0.70615   0.15644  -0.08358
   0.73608   0.03673  -0.00876
   0.67623  -0.06802   0.11095
   0.61637  -0.14283   0.08102
   0.69119  -0.12787   0.11095
   0.51162  -0.12787   0.24562
   0.49666  -0.21765   0.11095
   0.54155  -0.26255   0.20073
   0.39191  -0.20269   0.20073
   0.24228  -0.18773   0.11095
   0.18242  -0.11291   0.20073
   0.22731  -0.12787   0.12591
   0.09264  -0.08298   0.02117
   0.07768  -0.05305  -0.03869
   0.09264  -0.06802  -0.03869
   0.00286   0.00680  -0.09854
   0.01782  -0.00816  -0.08358
  -0.05700   0.03673  -0.11351
  -0.05700   0.06666  -0.14343
   0.04775   0.06666  -0.11351
   0.06271  -0.03809  -0.09854
   0.04775  -0.02312  -0.15840
   0.00286  -0.03809  -0.03869
   0.01782  -0.09794  -0.09854
  -0.04203  -0.15780   0.00620
  -0.02707  -0.11291   0.06606
  -0.13182  -0.14283   0.11095
  -0.23656  -0.17276   0.18577
  -0.25153  -0.18773   0.17081
  -0.44606  -0.08298   0.29052
  -0.55080  -0.15780   0.18577
  -0.55080  -0.11291   0.23066
  -0.58073  -0.08298   0.27555
  -0.67051  -0.03809   0.18577
  -0.74533  -0.06802   0.23066
  -0.76029   0.02177   0.27555
  -0.86504  -0.03809   0.24562
  -0.96979  -0.02312   0.39526
  -0.98475   0.02177   0.21570
  -1.04461   0.06666   0.30548
  -0.93986   0.05169   0.32044
  -1.10446   0.06666   0.29052
  -1.11942   0.03673   0.20073
  -1.10446   0.06666   0.12591
  -1.17928   0.18637   0.21570
  -1.08950   0.12651   0.09599
  -1.11942   0.11155   0.18577
  -1.07453   0.09659   0.21570
  -1.08950   0.09659   0.11095
  -1.04461   0.02177   0.15584
  -1.14935   0.09659   0.09599
  -1.08950   0.09659   0.00620
  -1.01468   0.08162  -0.08358
  -1.07453   0.05169  -0.14343
  -1.02964  -0.02312  -0.08358
  -1.05957   0.06666  -0.14343
  -0.96979  -0.08298  -0.14343
  -0.89497  -0.12787  -0.15840
  -0.79022  -0.11291  -0.20329
  -0.74533  -0.12787  -0.21825
  -0.73037  -0.11291  -0.24818
  -0.61066  -0.12787  -0.18832
  -0.52087  -0.15780  -0.23322
  -0.44606  -0.12787  -0.21825
  -0.37124  -0.18773  -0.21825
  -0.38620  -0.17276  -0.21825
  -0.32635  -0.15780  -0.12847
  -0.23656  -0.20269  -0.15840
  -0.20664  -0.24758  -0.17336
  -0.19167  -0.06802  -0.15840
  -0.11685  -0.05305  -0.21825
  -0.08693  -0.06802  -0.24818
  -0.05700  -0.05305  -0.12847
  -0.10189   0.05169  -0.09854
  -0.01211   0.09659  -0.20329
   0.06271   0.09659  -0.18832
   0.04775   0.09659  -0.08358
   0.12257   0.14148  -0.18832
   0.09264   0.12651  -0.18832
   0.19739   0.03673  -0.15840
   0.27220   0.09659  -0.24818
   0.33206   0.00680  -0.09854
   0.30213   0.05169  -0.09854
   0.33206  -0.00816  -0.12847
   0.40688   0.00680  -0.17336
   0.45177  -0.05305  -0.21825
   0.46673   0.00680  -0.18832
   0.49666  -0.08298  -0.24818
   0.54155  -0.03809  -0.20329
   0.46673  -0.09794  -0.29307
   0.49666  -0.05305  -0.26314
   0.40688   0.02177  -0.24818
   0.60141  -0.14283  -0.29307
   0.45177  -0.06802  -0.26314
   0.49666   0.02177  -0.35293
   0.45177  -0.06802  -0.14343
   0.42184   0.08162  -0.38285
   0.48170   0.00680  -0.35293
   0.37695   0.12651  -0.42774
   0.55652   0.03673  -0.54745
   0.55652   0.00680  -0.36789
   0.55652   0.03673  -0.42774
   0.54155   0.08162  -0.50256
   0.57148   0.05169  -0.39782
   0.42184   0.18637  -0.35293
   0.55652   0.08162  -0.30803
   0.48170   0.15644  -0.42774
   0.52659   0.09659  -0.33796
   0.45177   0.15644  -0.21825
   0.57148   0.08162  -0.27811
   0.48170   0.05169  -0.09854
   0.48170   0.14148  -0.20329
   0.49666  -0.06802  -0.02372
   0.39191   0.05169   0.11095
   0.43681   0.02177  -0.00876
   0.37695  -0.00816   0.26059
   0.34702   0.06666   0.15584
   0.19739   0.12651   0.24562
   0.15249   0.09659   0.24562
   0.21235   0.03673   0.17081
   0.19739   0.14148   0.24562
   0.16746  -0.00816   0.23066
   0.13753   0.11155   0.15584
   0.15249  -0.00816   0.17081
   0.18242  -0.11291   0.15584
   0.18242  -0.09794   0.11095
   0.19739  -0.11291   0.12591
   0.19739  -0.05305   0.17081
   0.25724  -0.12787   0.09599
   0.22731  -0.08298   0.12591
   0.25724  -0.15780   0.18577
   0.25724  -0.08298   0.17081
   0.22731  -0.08298   0.18577
   0.31710  -0.12787   0.18577
   0.36199  -0.18773   0.23066
   0.37695  -0.11291   0.15584
   0.39191  -0.12787   0.17081
   0.42184  -0.06802   0.15584
   0.31710  -0.06802   0.27555
   0.37695  -0.17276   0.14088
   0.33206   0.05169   0.20073
   0.27220  -0.03809   0.17081
   0.36199   0.06666   0.05110
   0.30213   0.14148   0.08102
   0.27220   0.12651   0.05110
   0.28717   0.15644  -0.02372
   0.39191   0.14148  -0.02372
   0.25724   0.12651   0.05110
   0.30213   0.05169   0.06606
   0.28717   0.11155   0.03613
   0.28717   0.00680   0.06606
   0.27220  -0.05305   0.12591
   0.27220   0.02177   0.15584
   0.27220  -0.02312   0.17081
   0.30213  -0.06802   0.29052
   0.27220  -0.06802   0.21570
   0.27220  -0.11291   0.38030
   0.22731   0.00680   0.32044
   0.19739  -0.03809   0.33541
   0.09264  -0.00816   0.36533
   0.04775   0.06666   0.29052
   0.06271   0.05169   0.42519
   0.03278   0.14148   0.29052
  -0.05700   0.17140   0.36533
  -0.02707   0.20133   0.33541
  -0.11685   0.15644   0.26059
  -0.05700   0.14148   0.30548
  -0.11685   0.14148   0.30548
  -0.08693   0.15644   0.30548
  -0.10189   0.09659   0.27555
  -0.11685   0.21630   0.33541
  -0.11685   0.11155   0.30548
  -0.10189   0.06666   0.29052
  -0.11685   0.12651   0.33541
  -0.07196   0.12651   0.35037
  -0.10189   0.12651   0.27555
  -0.11685   0.12651   0.42519
  -0.16174   0.14148   0.32044
  -0.14678   0.08162   0.35037
  -0.23656   0.06666   0.32044
  -0.23656  -0.02312   0.30548
  -0.26649  -0.06802   0.39526
  -0.26649  -0.08298   0.17081
  -0.35627   0.00680   0.20073
  -0.38620  -0.03809   0.17081
  -0.43109  -0.02312   0.11095
  -0.46102   0.03673   0.18577
  -0.50591   0.03673   0.06606
  -0.50591  -0.05305   0.11095
  -0.50591   0.00680   0.05110
  -0.56577  -0.03809   0.00620
  -0.58073  -0.12787   0.03613
  -0.59569  -0.06802   0.06606
  -0.58073  -0.05305   0.02117
