********************************************************************************
              CENTRO DE INSTRUMENTACION Y REGISTRO SISMICO  A.C.                

    Anaxagoras 814, Col. Narvarte, Benito Juarez, C.P. 03020 Mexico, D.F.       
           Tels. 5687 45 42/ 5687 45  82             Fax. 5669 25 12            
********************************************************************************
ARCHIVO ESTANDAR DE ACELERACION:
VERSION DEL FORMATO                    : 2.0
NOMBRE DEL ARCHIVO                     : AU1119890502093016
FECHA Y HORA DE CREACION               : 04/MAY/18, 10:29
REF. CATALOGO ACELEROGRAMAS, SMIS 1996 : REGISTRO No.     /PAG.


================================================================================
DATOS DE LA ESTACION:
NOMBRE DE LA ESTACION                  : AUTÓDROMO
CLAVE DE LA ESTACION                   : AU11
LOCALIZACION DE LA ESTACION            : Del. Iztacalco, Cd. Deportiva          
                                       : Magdalena Mixhuca,                     
                                       : Col. Granjas México                    
                                       :                                        
                                       : 
COORDENADAS DE LA ESTACION             : 19.3919 LAT. N
                                       : 99.0869 LONG. W
ALTITUD (msnm)                         : 2234
TIPO DE SUELO                          : Terreno blando, material compresible
                                       : (arcillas)                
                                       : 
INSTITUCION RESPONSABLE                : CIRES


================================================================================
DATOS DEL ACELEROGRAFO:
MODELO DEL ACELEROGRAFO                : SSA-1
NUMERO DE SERIE DEL ACELEROGRAFO       : 157
NUMERO DE CANALES                      : 3
ORIENTACION C1-C6 (rumbo;orientacion)  : /S00E/+V/N90W
ORIENTACION C7-C12 (rumbo;orientacion) : 
VEL. DE MUESTREO, C1-C6 (muestras/s)   : /200/200/200
VEL. DE MUESTREO, C7-C12 (muestras/s)  : 
ESC. COMPLETA DE SENSORES, C1-C6, (g)  : /1.0/1.0/1.0
ESC. COMPLETA DE SENSORES, C7-C12, (g) : 
FREC. NAT. DE SENSORES, C1-C6, (Hz)    : /51.77/52.56/52.29
FREC. NAT. DE SENSORES, C7-C12, (Hz)   : 
AMORTIGUAMIENTO DE SENSORES, C1-C6     : /0.5912/0.6083/0.6067
AMORTIGUAMIENTO DE SENSORES, C7-C12    : 
INTERVALO DE MUESTREO, C1-C6, (s)      : /0.005/0.005/0.005
INTERVALO DE MUESTREO, C7-C12, (s)     : 
UMBRAL DE DISPARO, C1-C6, (Gal)        : /1.0/1.5/1.0
UMBRAL DE DISPARO, C7-C12, (Gal)       : 
MEMORIA DE PREEVENTO (s)               : 15.36
TIEMPO DE POSEVENTO (s)                : 0.0


================================================================================
DATOS DEL SISMO:
FECHA DEL SISMO (GMT)                  : 02/MAY/89
HORA EPICENTRO (GMT)                   : 09:30:16.0
MAGNITUD(ES)                           : /Mc=5.1
COORDENADAS DEL EPICENTRO              : 16.63 LAT. N
                                       : -99.51 LONG. W
PROFUNDIDAD FOCAL (km)                 : 13
FUENTE DE LOS DATOS EPICENTRALES       : SSN
                                       : INSTITUTO DE GEOFISICA, UNAM

================================================================================
DATOS DE ESTE REGISTRO:
HORA DE LA PRIMERA MUESTRA (GMT)       : 9:27:55.07
EXACTITUD DEL TIEMPO (s)               : 0.005
DURACION DEL REGISTRO (s), C1-C6       : /106.24/106.24/106.24
DURACION DEL REGISTRO (s), C7-C12      : 
NUM. TOTAL DE MUESTRAS, C1-C6          : /21248/21248/21248
NUM. TOTAL DE MUESTRAS, C7-C12         : 
ACEL. MAX. (Gal), C1-C6                : /1.54803/0.84367/1.23494
ACEL. MAX., C1-C6, EN LA MUESTRA       : /7005/8327/4117
ACEL. MAX. (Gal), C7-C12               : 
ACEL. MAX., C7-C12, EN LA MUESTRA      : 
UNIDADES DE LOS DATOS                  : Gal (cm/s/s)
FACTOR DE DECIMACION                   : 1
FORMATO DATOS (FORTRAN,10 campos/dato) : 3F10.5


================================================================================
CALIDAD DEL ACELEROGRAMA:
REGISTRO DIGITAL COMPLETO CON TIEMPO ABSOLUTO CORRECTO.


================================================================================
COMENTARIOS:














================================================================================
DATOS DE ACELERACION:
---------+---------+---------+---------+---------+---------+---------+---------+
   CANAL-1   CANAL-2   CANAL-3   CANAL-4   CANAL-5   CANAL-6   CANAL-7   CANAL-8
      N00E        +V      N90W
---------+---------+---------+---------+---------+---------+---------+---------+
[...]
  -0.59035   0.11401  -0.27726
  -0.35093   0.11401  -0.03784
  -0.35093   0.11401  -0.27726
  -0.35093   0.11401  -0.27726
  -0.35093   0.11401  -0.27726
  -0.35093   0.11401  -0.27726
  -0.35093   0.11401  -0.03784
  -0.35093   0.11401  -0.03784
  -0.35093  -0.12541  -0.27726
  -0.59035  -0.12541  -0.27726
  -0.35093   0.11401  -0.27726
  -0.35093  -0.12541  -0.03784
  -0.59035  -0.12541  -0.27726
  -0.35093   0.11401  -0.03784
  -0.59035   0.11401  -0.03784
  -0.35093  -0.12541  -0.27726
  -0.59035  -0.12541  -0.27726
  -0.59035   0.11401  -0.03784
  -0.59035   0.11401  -0.03784
  -0.59035   0.11401  -0.27726
  -0.59035   0.11401  -0.27726
  -0.59035  -0.12541  -0.27726
  -0.59035   0.11401  -0.27726
  -0.59035   0.11401  -0.03784
  -0.59035   0.11401  -0.03784
  -0.59035  -0.12541  -0.27726
  -0.59035  -0.12541  -0.27726
  -0.59035  -0.12541  -0.27726
  -0.59035   0.11401  -0.27726
  -0.59035   0.11401  -0.03784
  -0.59035  -0.12541  -0.27726
  -0.59035  -0.12541  -0.27726
  -0.59035   0.11401  -0.03784
  -0.59035  -0.12541  -0.27726
  -0.59035  -0.12541  -0.27726
  -0.59035  -0.12541  -0.27726
  -0.59035  -0.12541  -0.27726
  -0.59035  -0.12541  -0.03784
  -0.59035  -0.12541  -0.27726
  -0.59035  -0.12541  -0.27726
  -0.59035  -0.12541  -0.27726
  -0.59035  -0.12541  -0.27726
  -0.59035   0.11401  -0.03784
  -0.59035  -0.12541  -0.27726
  -0.59035  -0.12541  -0.03784
  -0.59035  -0.12541  -0.27726
  -0.59035  -0.12541  -0.03784
  -0.59035  -0.12541  -0.03784
  -0.59035   0.11401  -0.51668
  -0.59035  -0.12541  -0.03784
  -0.59035  -0.12541  -0.03784
  -0.59035   0.11401  -0.27726
  -0.59035  -0.12541  -0.03784
  -0.59035  -0.12541  -0.51668
  -0.59035  -0.12541  -0.03784
  -0.59035  -0.12541  -0.27726
  -0.59035  -0.12541  -0.03784
  -0.59035  -0.12541  -0.03784
  -0.59035   0.11401  -0.27726
  -0.59035  -0.12541  -0.03784
  -0.59035  -0.12541  -0.03784
  -0.59035   0.11401  -0.27726
  -0.59035  -0.12541  -0.03784
  -0.59035   0.11401  -0.27726
  -0.59035  -0.12541  -0.27726
  -0.59035  -0.12541  -0.27726
  -0.59035   0.11401  -0.27726
  -0.59035  -0.12541  -0.27726
  -0.59035  -0.12541  -0.27726
  -0.59035   0.11401  -0.51668
  -0.59035   0.11401  -0.51668
  -0.59035   0.11401  -0.27726
  -0.35093  -0.12541  -0.27726
  -0.59035  -0.12541  -0.27726
  -0.35093  -0.12541  -0.51668
  -0.59035   0.11401  -0.51668
  -0.59035   0.11401  -0.27726
  -0.35093  -0.12541  -0.27726
  -0.59035   0.11401  -0.51668
  -0.35093  -0.12541  -0.27726
  -0.35093  -0.12541  -0.27726
  -0.35093  -0.12541  -0.27726
  -0.35093   0.11401  -0.51668
  -0.35093   0.11401  -0.51668
  -0.35093  -0.12541  -0.27726
  -0.35093   0.11401  -0.51668
  -0.11151  -0.12541  -0.27726
  -0.11151  -0.12541  -0.51668
  -0.11151  -0.12541  -0.27726
  -0.11151  -0.12541  -0.27726
  -0.11151   0.11401  -0.51668
  -0.35093   0.11401  -0.51668
  -0.11151  -0.12541  -0.51668
  -0.11151  -0.12541  -0.51668
  -0.11151  -0.12541  -0.51668
  -0.11151  -0.12541  -0.51668
  -0.11151   0.11401  -0.51668
  -0.11151   0.11401  -0.51668
  -0.11151   0.11401  -0.51668
  -0.11151   0.11401  -0.51668
  -0.11151   0.11401  -0.51668
  -0.11151   0.11401  -0.51668
   0.12791   0.11401  -0.51668
   0.12791   0.11401  -0.51668
   0.12791   0.11401  -0.51668
   0.12791   0.11401  -0.51668
   0.12791   0.11401  -0.51668
   0.12791   0.11401  -0.51668
   0.12791   0.11401  -0.51668
   0.12791   0.11401  -0.51668
   0.36733   0.11401  -0.51668
   0.36733   0.11401  -0.51668
  -0.11151   0.11401  -0.51668
   0.36733   0.11401  -0.51668
   0.36733   0.11401  -0.75610
   0.36733   0.11401  -0.51668
   0.36733   0.11401  -0.51668
   0.36733   0.11401  -0.51668
   0.36733   0.11401  -0.51668
   0.36733   0.11401  -0.75610
   0.60675  -0.12541  -0.75610
   0.36733   0.11401  -0.51668
   0.36733   0.11401  -0.51668
   0.36733   0.11401  -0.51668
   0.60675   0.11401  -0.51668
   0.60675   0.11401  -0.51668
   0.60675   0.11401  -0.75610
   0.60675   0.11401  -0.51668
   0.60675   0.11401  -0.51668
   0.60675   0.11401  -0.51668
   0.84617  -0.12541  -0.51668
   0.60675   0.11401  -0.51668
   0.60675   0.11401  -0.51668
   0.60675  -0.12541  -0.51668
   0.84617   0.11401  -0.51668
   0.84617  -0.12541  -0.51668
   0.60675  -0.12541  -0.51668
   0.60675   0.11401  -0.51668
   0.60675   0.11401  -0.51668
   0.60675  -0.12541  -0.51668
   0.84617  -0.12541  -0.51668
   0.60675  -0.12541  -0.51668
   0.84617  -0.12541  -0.51668
   0.84617  -0.12541  -0.51668
   0.84617  -0.12541  -0.51668
   0.84617  -0.12541  -0.51668
   0.84617  -0.12541  -0.51668
   0.84617  -0.12541  -0.51668
   0.84617  -0.12541  -0.51668
   0.84617  -0.12541  -0.27726
   0.84617  -0.12541  -0.51668
   0.84617  -0.12541  -0.51668
   0.84617  -0.12541  -0.51668
   0.84617  -0.36483  -0.51668
   0.84617  -0.12541  -0.27726
   0.84617  -0.12541  -0.27726
   0.84617  -0.12541  -0.27726
   0.84617  -0.12541  -0.27726
   0.84617  -0.12541  -0.27726
   0.84617  -0.12541  -0.27726
   0.84617  -0.12541  -0.27726
   0.84617  -0.12541  -0.27726
   0.84617  -0.12541  -0.03784
   0.60675  -0.12541  -0.03784
   0.84617  -0.12541  -0.03784
   0.84617  -0.12541  -0.03784
   0.84617  -0.12541  -0.27726
   0.84617  -0.36483  -0.03784
   0.60675  -0.36483  -0.03784
   0.84617  -0.36483  -0.03784
   0.84617  -0.12541  -0.03784
   0.84617  -0.12541   0.20158
   0.84617  -0.36483  -0.03784
   0.84617  -0.36483  -0.03784
   0.84617  -0.12541   0.20158
   0.84617  -0.12541   0.20158
   0.60675  -0.12541   0.20158
   0.60675  -0.12541   0.20158
   0.84617  -0.12541   0.20158
   0.84617  -0.36483   0.20158
   0.84617  -0.12541   0.20158
   0.84617  -0.12541   0.20158
   0.60675  -0.36483   0.20158
   0.60675  -0.12541   0.20158
   0.84617  -0.12541   0.20158
   0.84617  -0.12541   0.20158
   0.60675  -0.36483   0.20158
   0.60675  -0.12541   0.20158
   0.60675  -0.12541   0.20158
   0.60675  -0.12541   0.44100
   0.60675  -0.12541   0.44100
   0.84617  -0.12541   0.44100
   0.60675  -0.12541   0.20158
   0.60675  -0.12541   0.44100
   0.60675  -0.12541   0.20158
   0.60675  -0.12541   0.20158
   0.60675  -0.12541   0.44100
   0.60675  -0.36483   0.20158
   0.84617  -0.12541   0.44100
   0.84617  -0.12541   0.20158
   0.84617  -0.12541   0.44100
   0.84617  -0.12541   0.20158
   0.84617  -0.12541   0.44100
   0.84617  -0.12541   0.44100
   0.60675  -0.36483   0.20158
   0.84617   0.11401   0.44100
   0.84617   0.11401   0.44100
   0.60675  -0.12541   0.44100
   0.60675  -0.12541   0.44100
   0.84617  -0.12541   0.44100
   0.84617   0.11401   0.68042
   0.84617   0.11401   0.44100
   0.84617   0.11401   0.44100
   0.84617  -0.12541   0.44100
   0.84617   0.11401   0.44100
   0.60675  -0.12541   0.44100
   0.84617   0.11401   0.68042
   0.84617   0.11401   0.44100
   0.84617   0.11401   0.44100
   0.84617   0.11401   0.68042
   0.84617   0.11401   0.68042
   0.84617   0.11401   0.44100
   0.84617   0.11401   0.68042
   0.84617   0.11401   0.68042
   0.84617   0.11401   0.68042
   0.84617   0.11401   0.68042
   0.84617   0.11401   0.68042
   0.84617   0.11401   0.68042
   0.84617   0.11401   0.68042
   0.84617   0.11401   0.68042
   0.84617   0.35343   0.91984
   0.84617   0.11401   0.68042
   0.84617   0.35343   0.91984
   0.84617   0.35343   0.91984
   0.84617   0.35343   0.91984
   0.84617   0.11401   0.91984
   0.84617   0.11401   0.91984
   0.84617   0.35343   0.91984
   0.84617   0.35343   0.91984
   0.84617   0.11401   0.91984
   0.84617   0.11401   0.91984
   0.84617   0.11401   0.91984
   0.84617   0.11401   0.91984
   0.84617   0.35343   1.15926
   0.60675   0.35343   0.91984
   0.84617   0.35343   1.15926
   0.84617   0.35343   1.15926
   0.60675   0.35343   0.91984
   0.84617   0.35343   0.91984
   0.84617   0.35343   1.15926
   0.60675   0.35343   0.91984
   0.60675   0.35343   0.91984
   0.60675   0.35343   0.91984
   0.60675   0.35343   1.15926
   0.60675   0.35343   1.15926
   0.60675   0.35343   0.91984
   0.60675   0.11401   0.91984
   0.60675   0.11401   0.91984
   0.60675   0.35343   0.91984
   0.60675   0.35343   0.68042
   0.36733   0.35343   0.68042
   0.60675   0.11401   0.91984
   0.36733   0.35343   0.68042
   0.36733   0.35343   0.91984
   0.36733   0.35343   0.91984
   0.36733   0.35343   0.68042
   0.36733   0.35343   0.68042
   0.36733   0.35343   0.68042
   0.36733   0.11401   0.68042
   0.36733   0.35343   0.68042
   0.36733   0.11401   0.68042
   0.36733   0.35343   0.68042
   0.36733   0.11401   0.68042
   0.12791   0.11401   0.44100
   0.36733   0.11401   0.68042
   0.12791   0.11401   0.68042
   0.12791   0.35343   0.68042
   0.12791   0.11401   0.44100
   0.12791   0.35343   0.44100
   0.12791   0.11401   0.44100
   0.12791   0.11401   0.44100
   0.12791   0.11401   0.44100
   0.12791   0.11401   0.44100
  -0.11151   0.35343   0.20158
  -0.11151   0.11401   0.44100
  -0.11151   0.11401   0.44100
  -0.11151   0.11401   0.44100
   0.12791   0.11401   0.44100
  -0.11151   0.11401   0.20158
  -0.11151   0.11401   0.44100
  -0.11151   0.11401   0.20158
  -0.35093   0.11401   0.20158
  -0.35093   0.11401   0.20158
  -0.11151   0.11401   0.44100
  -0.11151   0.11401   0.20158
  -0.35093  -0.12541   0.20158
  -0.35093   0.11401   0.20158
  -0.35093   0.11401  -0.03784
  -0.35093   0.11401   0.20158
  -0.35093   0.11401  -0.03784
  -0.59035   0.11401   0.20158
  -0.35093   0.11401   0.20158
  -0.59035   0.11401   0.20158
  -0.59035   0.11401  -0.03784
  -0.59035   0.11401  -0.03784
  -0.59035   0.11401  -0.03784
  -0.59035   0.11401  -0.03784
  -0.59035   0.11401  -0.03784
  -0.59035   0.11401  -0.03784
  -0.59035  -0.12541  -0.03784
  -0.59035   0.11401  -0.03784
  -0.59035  -0.12541  -0.27726
  -0.59035  -0.12541  -0.03784
  -0.82977  -0.12541  -0.27726
  -0.82977  -0.12541  -0.03784
  -0.82977  -0.36483  -0.03784
  -0.82977   0.11401  -0.27726
  -0.82977  -0.12541  -0.27726
  -1.06919  -0.12541  -0.27726
  -1.06919   0.11401  -0.27726
  -1.06919  -0.12541  -0.51668
  -1.06919  -0.12541  -0.27726
  -1.06919  -0.12541  -0.27726
  -1.06919  -0.12541  -0.27726
  -1.06919  -0.12541  -0.27726
  -1.06919  -0.12541  -0.27726
  -1.06919  -0.12541  -0.27726
  -1.06919  -0.12541  -0.51668
  -1.06919  -0.12541  -0.51668
  -1.30861  -0.36483  -0.27726
  -1.30861  -0.36483  -0.27726
  -1.06919  -0.12541  -0.51668
  -1.30861  -0.36483  -0.51668
  -1.30861  -0.36483  -0.27726
  -1.30861  -0.36483  -0.27726
  -1.30861  -0.36483  -0.51668
  -1.30861  -0.36483  -0.51668
  -1.30861  -0.36483  -0.27726
  -1.30861  -0.36483  -0.51668
  -1.06919  -0.36483  -0.51668
  -1.30861  -0.36483  -0.51668
  -1.30861  -0.60425  -0.51668
  -1.30861  -0.36483  -0.51668
  -1.30861  -0.36483  -0.27726
  -1.30861  -0.36483  -0.51668
  -1.30861  -0.36483  -0.27726
  -1.54803  -0.60425  -0.27726
  -1.54803  -0.36483  -0.27726
  -1.54803  -0.60425  -0.27726
  -1.30861  -0.36483  -0.27726
  -1.30861  -0.36483  -0.27726
  -1.54803  -0.60425  -0.27726
  -1.30861  -0.36483  -0.27726
  -1.54803  -0.60425  -0.27726
  -1.30861  -0.36483  -0.27726
  -1.30861  -0.36483  -0.27726
  -1.54803  -0.60425  -0.27726
  -1.30861  -0.60425  -0.27726
  -1.54803  -0.60425  -0.27726
  -1.30861  -0.36483  -0.27726
  -1.30861  -0.36483  -0.27726
  -1.30861  -0.60425  -0.27726
  -1.30861  -0.60425  -0.27726
  -1.30861  -0.36483  -0.27726
  -1.30861  -0.36483  -0.27726
  -1.30861  -0.60425  -0.27726
  -1.30861  -0.36483  -0.27726
  -1.30861  -0.36483  -0.27726
  -1.30861  -0.36483  -0.27726
  -1.30861  -0.60425  -0.27726
  -1.30861  -0.60425  -0.27726
  -1.30861  -0.36483  -0.27726
  -1.30861  -0.60425  -0.27726
  -1.06919  -0.36483  -0.51668
  -1.30861  -0.60425  -0.27726
  -1.06919  -0.36483  -0.27726
  -1.06919  -0.36483  -0.27726
  -1.06919  -0.36483  -0.27726
  -1.06919  -0.36483  -0.27726
  -1.06919  -0.36483  -0.27726
  -1.06919  -0.36483  -0.27726
  -0.82977  -0.36483  -0.51668
  -0.82977  -0.36483  -0.27726
  -1.06919  -0.36483  -0.27726
  -0.82977  -0.60425  -0.27726
  -0.82977  -0.36483  -0.27726
  -0.82977  -0.36483  -0.27726
  -0.82977  -0.36483  -0.27726
  -0.82977  -0.36483  -0.27726
  -0.82977  -0.36483  -0.27726
  -0.82977  -0.36483  -0.27726
  -0.59035  -0.36483  -0.27726
  -0.59035  -0.36483  -0.51668
  -0.59035  -0.12541  -0.27726
  -0.59035  -0.36483  -0.51668
  -0.59035  -0.36483  -0.51668
  -0.59035  -0.36483  -0.51668
  -0.59035  -0.12541  -0.27726
  -0.35093  -0.12541  -0.27726
  -0.35093  -0.12541  -0.27726
  -0.35093  -0.12541  -0.27726
  -0.35093  -0.12541  -0.51668
  -0.11151  -0.12541  -0.51668
  -0.35093  -0.12541  -0.27726
  -0.35093  -0.12541  -0.27726
  -0.35093  -0.12541  -0.27726
  -0.35093  -0.12541  -0.27726
  -0.11151  -0.12541  -0.51668
  -0.11151   0.11401  -0.27726
  -0.11151  -0.12541  -0.51668
  -0.11151  -0.12541  -0.51668
  -0.11151  -0.12541  -0.51668
  -0.11151   0.11401  -0.27726
  -0.11151   0.11401  -0.27726
  -0.11151   0.11401  -0.27726
  -0.11151   0.11401  -0.27726
  -0.11151   0.11401  -0.27726
  -0.11151  -0.12541  -0.51668
  -0.11151  -0.12541  -0.51668
   0.12791   0.11401  -0.27726
   0.12791   0.11401  -0.27726
  -0.11151   0.11401  -0.27726
  -0.11151   0.11401  -0.51668
   0.12791   0.11401  -0.27726
   0.12791   0.11401  -0.27726
   0.12791   0.11401  -0.51668
   0.12791   0.11401  -0.27726
   0.12791   0.11401  -0.27726
   0.12791  -0.12541  -0.27726
   0.12791   0.11401  -0.27726
   0.36733   0.11401  -0.27726
   0.12791   0.11401  -0.27726
   0.12791   0.11401  -0.27726
   0.12791   0.11401  -0.51668
   0.36733   0.11401  -0.27726
   0.36733   0.35343  -0.27726
   0.36733   0.35343  -0.27726
   0.36733   0.11401  -0.27726
   0.12791   0.35343  -0.27726
   0.36733   0.35343  -0.27726
   0.36733   0.11401  -0.03784
   0.36733   0.35343  -0.27726
   0.36733   0.11401  -0.27726
   0.36733   0.35343  -0.27726
   0.36733   0.35343  -0.03784
   0.36733   0.35343  -0.03784
   0.36733   0.35343  -0.27726
   0.36733   0.35343  -0.27726
   0.36733   0.35343  -0.27726
   0.36733   0.35343  -0.51668
   0.60675   0.35343  -0.27726
   0.60675   0.35343  -0.27726
   0.36733   0.35343  -0.27726
   0.36733   0.35343  -0.51668
   0.60675   0.35343  -0.27726
   0.60675   0.59285  -0.27726
   0.60675   0.35343  -0.27726
   0.36733   0.35343  -0.27726
   0.60675   0.35343  -0.27726
   0.60675   0.35343  -0.27726
   0.60675   0.35343  -0.51668
   0.84617   0.35343  -0.27726
   0.60675   0.35343  -0.27726
   0.60675   0.35343  -0.51668
   0.60675   0.35343  -0.27726
   0.60675   0.35343  -0.27726
   0.60675   0.35343  -0.27726
   0.60675   0.59285  -0.51668
   0.60675   0.35343  -0.51668
   0.84617   0.35343  -0.27726
   0.84617   0.35343  -0.51668
   0.60675   0.35343  -0.27726
   0.84617   0.35343  -0.27726
   0.60675   0.35343  -0.27726
   0.84617   0.35343  -0.27726
   0.84617   0.35343  -0.51668
   0.84617   0.35343  -0.03784
   0.84617   0.35343  -0.27726
   0.84617   0.35343  -0.27726
   0.84617   0.35343  -0.03784
   0.84617   0.35343  -0.03784
   0.84617   0.35343  -0.27726
   0.84617   0.35343  -0.03784
   0.84617   0.35343  -0.03784
   0.84617   0.35343  -0.03784
   0.84617   0.35343  -0.27726
   0.84617   0.35343  -0.27726
   0.84617   0.35343  -0.27726
   0.84617   0.35343  -0.27726
   0.84617   0.35343  -0.03784
   0.84617   0.35343  -0.03784
   1.08559   0.11401  -0.03784
   0.84617   0.35343  -0.27726
   0.84617   0.35343  -0.27726
   0.84617   0.35343  -0.03784
   0.84617   0.35343  -0.27726
