********************************************************************************
              CENTRO DE INSTRUMENTACION Y REGISTRO SISMICO  A.C.

    Anaxagoras 814, Col. Narvarte, Benito Juarez, C.P. 03020 Mexico, D.F.
           Tels. 5687 45 42/ 5687 45  82             Fax. 5669 25 12
********************************************************************************
ARCHIVO ESTANDAR DE ACELERACION:
VERSION DEL FORMATO                    : 2.0
NOMBRE DEL ARCHIVO                     : AU1120090427164627
FECHA Y HORA DE CREACION               : 25/JUN/09, 01:10
REF. CATALOGO ACELEROGRAMAS, SMIS 1996 : REGISTRO No.     /PAG.


================================================================================
DATOS DE LA ESTACION:
NOMBRE DE LA ESTACION                  : AUTÓDROMO
CLAVE DE LA ESTACION                   : AU11
LOCALIZACION DE LA ESTACION            : Del. Iztacalco, Cd. Deportiva          
                                       : Magdalena Mixhuca,                     
                                       : Col. Granjas México                    
                                       :                                        
                                       : 
COORDENADAS DE LA ESTACION             : 19.3919 LAT. N
                                       : 99.0869 LONG. W
ALTITUD (msnm)                         : 2234
TIPO DE SUELO                          : Terreno blando, material compresible
                                       : (arcillas)                
                                       : 
INSTITUCION RESPONSABLE                : CIRES
                                       : 

================================================================================
DATOS DEL ACELEROGRAFO:
MODELO DEL ACELEROGRAFO                : RADESD
NUMERO DE SERIE DEL ACELEROGRAFO       : 157
NUMERO DE CANALES                      : 3
ORIENTACION C1-C6 (rumbo;orientacion)  : /N00E/+V/N90W
ORIENTACION C7-C12 (rumbo;orientacion) : 
VEL. DE MUESTREO, C1-C6 (muestras/s)   : /100/100/100
VEL. DE MUESTREO, C7-C12 (muestras/s)  : 
ESC. COMPLETA DE SENSORES, C1-C6, (g)  : /0.5/0.5/0.5
ESC. COMPLETA DE SENSORES, C7-C12, (g) : 
FREC. NAT. DE SENSORES, C1-C6, (Hz)    : /51.77/52.56/52.29
FREC. NAT. DE SENSORES, C7-C12, (Hz)   : 
AMORTIGUAMIENTO DE SENSORES, C1-C6     : /0.5912/0.6083/0.6067
AMORTIGUAMIENTO DE SENSORES, C7-C12    : 
INTERVALO DE MUESTREO, C1-C6, (s)      : /0.01/0.01/0.01
INTERVALO DE MUESTREO, C7-C12, (s)     : 
UMBRAL DE DISPARO, C1-C6, (Gal)        : /0.72/1.92/0.72
UMBRAL DE DISPARO, C7-C12, (Gal)       : 
MEMORIA DE PREEVENTO (s)               : 56.0
TIEMPO DE POSEVENTO (s)                : 64.0


================================================================================
DATOS DEL SISMO:
FECHA DEL SISMO (GMT)                  : 27/ABR/09
HORA EPICENTRO (GMT)                   : 16:46:27.0
MAGNITUD(ES)                           : /Mc=5.7
COORDENADAS DEL EPICENTRO              : 16.90 LAT. N
                                       : 99.58 LONG. W
PROFUNDIDAD FOCAL (km)                 : 7
FUENTE DE LOS DATOS EPICENTRALES       : SSN
                                       : INSTITUTO DE GEOFISICA, UNAM

================================================================================
DATOS DE ESTE REGISTRO:
HORA DE LA PRIMERA MUESTRA (GMT)       : 16:47:31.00
EXACTITUD DEL TIEMPO (s)               : 0.01
DURACION DEL REGISTRO (s), C1-C6       : /222.5/222.5/222.5
DURACION DEL REGISTRO (s), C7-C12      : 
NUM. TOTAL DE MUESTRAS, C1-C6          : /22250/22250/22250
NUM. TOTAL DE MUESTRAS, C7-C12         : 
ACEL. MAX. (Gal), C1-C6                : /4.34061/1.62077/4.35075
ACEL. MAX., C1-C6, EN LA MUESTRA       : /8559/9798/7923
ACEL. MAX. (Gal), C7-C12               : 
ACEL. MAX., C7-C12, EN LA MUESTRA      : 
UNIDADES DE LOS DATOS                  : Gal (cm/s/s)
FACTOR DE DECIMACION                   : 1
FORMATO DATOS (FORTRAN,10 campos/dato) : 3F10.5


================================================================================
CALIDAD DEL ACELEROGRAMA:
REGISTRO DIGITAL COMPLETO CON TIEMPO ABSOLUTO CORRECTO.


================================================================================
COMENTARIOS:














================================================================================
DATOS DE ACELERACION:
---------+---------+---------+---------+---------+---------+---------+---------+
   CANAL-1   CANAL-2   CANAL-3   CANAL-4   CANAL-5   CANAL-6   CANAL-7   CANAL-8
      N00E        +V      N90W
---------+---------+---------+---------+---------+---------+---------+---------+
[...]
  -1.88432   0.29459   1.87417
  -1.88432   0.29459   1.87417
  -1.88432  -0.18425   1.63475
  -1.64490   0.05517   1.39533
  -1.64490   0.05517   1.15591
  -1.64490  -0.18425   0.91649
  -1.64490  -0.18425   0.67707
  -1.64490  -0.18425   0.43765
  -1.64490  -0.42367  -0.04119
  -1.64490  -0.18425  -0.04119
  -1.64490  -0.42367  -0.52003
  -1.64490  -0.42367  -0.52003
  -1.64490  -0.42367  -0.75945
  -1.64490  -0.42367  -0.75945
  -1.64490  -0.42367  -0.75945
  -1.40548  -0.66309  -0.75945
  -1.40548  -0.42367  -0.75945
  -1.16606  -0.42367  -0.75945
  -1.16606  -0.66309  -0.75945
  -0.92664  -0.66309  -0.75945
  -0.68722  -0.66309  -0.75945
  -0.68722  -0.90251  -0.75945
  -0.68722  -0.90251  -0.75945
  -0.68722  -0.90251  -0.75945
  -0.68722  -0.90251  -0.75945
  -0.68722  -0.90251  -0.52003
  -0.68722  -0.66309  -0.75945
  -0.92664  -0.90251  -0.75945
  -0.92664  -0.66309  -0.75945
  -0.92664  -0.66309  -0.75945
  -1.16606  -0.66309  -0.75945
  -1.40548  -0.42367  -0.75945
  -1.40548  -0.42367  -0.75945
  -1.64490  -0.66309  -0.75945
  -1.64490  -0.42367  -0.52003
  -1.64490  -0.18425  -0.28061
  -1.40548  -0.18425  -0.28061
  -1.16606  -0.18425  -0.04119
  -1.16606   0.05517   0.19823
  -0.92664  -0.18425   0.43765
  -0.68722  -0.18425   0.43765
  -0.68722  -0.18425   0.67707
  -0.44780  -0.18425   0.67707
  -0.20838   0.29459   0.67707
  -0.20838   0.29459   0.91649
   0.03104   0.53401   0.67707
   0.03104   0.53401   0.91649
   0.03104   0.77343   0.67707
   0.03104   0.77343   0.67707
   0.03104   1.01285   0.67707
  -0.20838   1.01285   0.67707
  -0.44780   1.01285   0.67707
  -0.68722   1.01285   0.67707
  -0.92664   0.77343   0.67707
  -1.16606   1.01285   0.91649
  -1.40548   1.01285   0.91649
  -1.88432   1.01285   0.91649
  -2.12374   1.01285   0.91649
  -2.12374   0.77343   1.15591
  -2.36316   0.77343   1.15591
  -2.60258   0.53401   1.15591
  -2.84200   0.53401   1.15591
  -3.08142   0.53401   1.15591
  -3.08142   0.53401   1.39533
  -3.32084   0.29459   1.15591
  -3.32084   0.53401   0.91649
  -3.32084   0.53401   0.91649
  -3.32084   0.53401   0.91649
  -3.08142   0.53401   0.91649
  -3.08142   0.29459   0.43765
  -3.08142   0.29459   0.43765
  -2.84200   0.53401   0.43765
  -2.60258   0.29459   0.43765
  -2.36316  -0.18425   0.19823
  -2.12374   0.29459   0.19823
  -1.88432   0.05517   0.19823
  -1.40548   0.29459  -0.04119
  -1.16606   0.05517   0.19823
  -0.68722   0.05517  -0.04119
  -0.44780   0.29459  -0.04119
  -0.20838   0.05517  -0.04119
   0.27046   0.05517  -0.04119
   0.50988   0.05517  -0.04119
   0.74930   0.05517  -0.04119
   1.22814   0.05517  -0.28061
   1.46756   0.29459  -0.28061
   1.70699   0.05517  -0.52003
   1.94641  -0.18425  -0.75945
   2.18583   0.05517  -0.75945
   2.18583   0.05517  -0.75945
   2.42525   0.05517  -1.23829
   2.66467   0.05517  -1.47771
   2.66467  -0.18425  -1.47771
   2.66467  -0.18425  -1.71713
   2.66467  -0.18425  -1.95655
   2.90409  -0.18425  -2.19597
   2.90409  -0.42367  -2.19597
   3.14351  -0.42367  -2.19597
   2.90409  -0.42367  -2.19597
   2.90409  -0.42367  -2.19597
   2.90409  -0.18425  -1.95655
   2.66467  -0.18425  -1.95655
   2.90409  -0.18425  -1.71713
   2.90409  -0.18425  -1.71713
   2.66467  -0.66309  -1.95655
   2.66467   0.05517  -1.95655
   2.42525   0.05517  -1.71713
   2.42525   0.05517  -1.71713
   2.18583   0.05517  -1.71713
   2.18583   0.29459  -1.71713
   1.94641   0.29459  -1.71713
   1.94641   0.29459  -1.71713
   1.46756   0.29459  -1.71713
   1.22814   0.29459  -1.71713
   1.22814   0.29459  -1.95655
   0.98872   0.53401  -1.95655
   0.50988   0.29459  -1.95655
   0.50988   0.29459  -1.95655
   0.27046   0.29459  -1.95655
  -0.20838   0.29459  -1.71713
  -0.44780   0.53401  -1.95655
  -0.68722   0.53401  -1.71713
  -0.92664   0.53401  -1.71713
  -0.92664   0.53401  -1.71713
  -1.16606   0.53401  -1.71713
  -1.16606   0.29459  -1.71713
  -1.40548   0.29459  -1.47771
  -1.88432   0.29459  -1.47771
  -1.88432   0.29459  -1.47771
  -1.88432   0.29459  -1.47771
  -1.88432   0.29459  -1.47771
  -1.88432   0.29459  -1.71713
  -1.88432   0.29459  -1.47771
  -1.88432   0.29459  -1.47771
  -1.88432   0.29459  -1.71713
  -1.88432   0.29459  -1.47771
  -1.64490   0.29459  -1.95655
  -1.64490   0.29459  -1.71713
  -1.40548   0.05517  -1.47771
  -1.16606   0.05517  -1.71713
  -0.92664   0.29459  -1.71713
  -0.68722   0.29459  -1.47771
  -0.68722   0.29459  -1.47771
  -0.68722   0.29459  -1.23829
  -0.44780   0.05517  -1.23829
  -0.20838   0.05517  -1.23829
  -0.20838   0.05517  -0.99887
  -0.20838  -0.18425  -0.75945
  -0.20838  -0.42367  -0.75945
  -0.20838  -0.42367  -0.75945
  -0.20838  -0.42367  -0.52003
  -0.44780  -0.42367  -0.52003
  -0.20838  -0.42367  -0.28061
  -0.20838  -0.42367  -0.28061
  -0.44780  -0.42367  -0.28061
  -0.20838  -0.42367  -0.28061
  -0.44780  -0.18425  -0.04119
  -0.44780   0.05517  -0.04119
  -0.20838   0.05517  -0.04119
  -0.44780  -0.18425   0.19823
  -0.68722  -0.18425   0.19823
  -0.20838  -0.18425   0.19823
  -0.20838   0.05517   0.43765
   0.03104   0.05517   0.43765
   0.27046   0.05517   0.43765
   0.27046   0.05517   0.67707
   0.50988   0.29459   0.67707
   0.74930   0.05517   0.43765
   0.98872   0.05517   0.43765
   1.22814   0.05517   0.43765
   0.98872   0.05517   0.43765
   0.98872  -0.18425   0.19823
   1.22814  -0.18425   0.19823
   1.22814   0.05517   0.19823
   1.22814   0.05517   0.19823
   1.46756   0.05517  -0.04119
   1.46756   0.05517  -0.04119
   1.46756   0.29459  -0.04119
   1.46756   0.29459  -0.04119
   1.70699   0.29459  -0.04119
   1.70699   0.29459   0.19823
   1.70699   0.05517   0.19823
   1.70699   0.29459   0.19823
   1.70699   0.05517   0.43765
   1.70699   0.29459   0.67707
   1.70699   0.29459   0.67707
   1.70699   0.29459   0.91649
   1.94641   0.29459   0.91649
   1.70699   0.29459   0.91649
   1.70699   0.29459   0.91649
   1.70699   0.53401   0.91649
   1.46756   0.53401   1.15591
   1.70699   0.29459   0.91649
   1.70699   0.53401   0.91649
   1.70699   0.05517   1.15591
   1.46756   0.05517   1.15591
   1.46756   0.05517   0.91649
   1.46756   0.05517   0.91649
   1.70699   0.05517   0.91649
   1.70699   0.05517   0.91649
   1.70699  -0.18425   0.67707
   1.70699  -0.18425   0.91649
   1.70699  -0.18425   0.91649
   1.70699  -0.42367   1.15591
   1.70699   0.05517   1.15591
   1.70699  -0.18425   1.15591
   1.46756  -0.18425   1.15591
   1.46756  -0.18425   1.39533
   1.22814  -0.18425   1.39533
   0.98872  -0.18425   1.39533
   0.74930  -0.42367   1.63475
   0.50988  -0.42367   1.63475
   0.27046  -0.42367   1.87417
   0.03104  -0.42367   1.87417
   0.03104  -0.66309   1.87417
  -0.20838  -1.14193   2.11359
  -0.20838  -0.90251   2.35301
  -0.20838  -0.90251   2.11359
  -0.44780  -0.90251   2.11359
  -0.68722  -1.14193   2.11359
  -0.68722  -1.14193   2.35301
  -0.92664  -1.14193   2.11359
  -1.16606  -1.14193   2.11359
  -0.92664  -0.90251   2.35301
  -1.16606  -0.90251   2.35301
  -1.16606  -0.90251   2.11359
  -1.40548  -0.66309   2.35301
  -1.40548  -0.66309   2.35301
  -1.64490  -0.66309   2.59243
  -1.88432  -0.66309   2.59243
  -1.88432  -0.42367   2.83185
  -1.88432  -0.42367   3.07127
  -2.12374  -0.42367   3.07127
  -2.12374  -0.42367   3.07127
  -1.88432  -0.42367   3.31069
  -1.88432  -0.66309   3.07127
  -1.64490  -0.42367   3.07127
  -1.64490  -0.42367   3.31069
  -1.16606  -0.66309   2.83185
  -0.92664  -0.42367   2.83185
  -0.44780  -0.66309   2.59243
  -0.20838  -0.66309   2.35301
   0.03104  -0.42367   2.11359
   0.50988  -0.66309   1.87417
   0.74930  -0.66309   1.63475
   0.98872  -0.42367   1.39533
   0.98872  -0.42367   1.63475
   1.22814  -0.42367   1.39533
   1.22814  -0.18425   1.15591
   1.70699  -0.18425   1.15591
   1.70699  -0.42367   0.91649
   1.70699  -0.18425   0.67707
   1.94641  -0.18425   0.67707
   1.70699  -0.18425   0.43765
   1.70699  -0.18425   0.43765
   1.70699  -0.18425   0.19823
   1.70699  -0.18425  -0.04119
   1.94641  -0.18425  -0.04119
   1.94641  -0.18425  -0.28061
   1.94641   0.05517  -0.52003
   1.94641   0.05517  -0.75945
   1.94641   0.05517  -0.99887
   1.94641   0.29459  -1.23829
   1.94641   0.53401  -1.71713
   1.94641   0.29459  -1.71713
   1.94641   0.29459  -1.95655
   1.94641   0.53401  -1.95655
   1.94641   0.53401  -1.95655
   1.70699   0.53401  -2.43539
   1.70699   0.53401  -2.43539
   2.18583   0.53401  -2.67481
   1.70699   0.53401  -2.67481
   1.94641   0.77343  -2.67481
   1.70699   0.77343  -2.91423
   2.18583   0.77343  -2.91423
   2.18583   0.77343  -2.91423
   2.42525   0.29459  -2.91423
   2.18583   0.77343  -3.15365
   2.42525   0.77343  -2.67481
   2.42525   0.77343  -2.67481
   2.66467   0.77343  -2.43539
   2.66467   0.77343  -2.43539
   2.66467   0.77343  -2.43539
   2.66467   0.53401  -2.43539
   2.90409   0.77343  -2.43539
   2.66467   0.77343  -2.19597
   2.90409   0.77343  -2.43539
   2.66467   0.77343  -2.19597
   2.42525   0.77343  -2.19597
   2.42525   1.01285  -2.19597
   2.18583   1.01285  -2.19597
   2.18583   1.01285  -1.95655
   1.94641   1.01285  -1.95655
   1.94641   0.77343  -1.95655
   1.46756   0.77343  -1.71713
   1.22814   0.77343  -1.47771
   1.22814   0.77343  -1.23829
   0.98872   0.77343  -0.99887
   0.98872   0.53401  -0.75945
   0.50988   0.53401  -0.52003
   0.27046   0.53401  -0.28061
   0.27046   0.29459  -0.04119
   0.03104   0.29459   0.43765
  -0.20838  -0.18425   0.67707
  -0.44780  -0.18425   0.91649
  -0.68722  -0.42367   1.15591
  -0.68722  -0.42367   1.39533
  -1.16606  -0.42367   1.63475
  -1.16606  -0.42367   1.87417
  -1.40548  -0.42367   1.87417
  -1.40548  -0.42367   1.87417
  -1.64490  -0.18425   1.87417
  -1.88432  -0.18425   1.87417
  -1.88432  -0.18425   1.87417
  -1.88432  -0.18425   1.87417
  -1.88432   0.05517   1.87417
  -1.88432  -0.18425   1.87417
  -1.88432  -0.42367   1.87417
  -1.88432  -0.42367   1.87417
  -1.40548  -0.42367   1.87417
  -1.40548  -0.66309   1.87417
  -1.16606  -0.42367   1.63475
  -1.16606  -0.42367   1.39533
  -1.16606  -0.42367   1.39533
  -0.68722  -0.42367   1.15591
  -0.68722  -0.66309   0.91649
  -0.44780  -0.42367   0.67707
  -0.20838  -0.66309   0.43765
  -0.20838  -0.66309   0.19823
   0.03104  -0.66309   0.19823
   0.27046  -0.66309  -0.04119
   0.50988  -0.66309  -0.28061
   0.74930  -0.66309  -0.28061
   0.98872  -0.42367  -0.28061
   1.22814  -0.42367  -0.28061
   1.46756  -0.42367  -0.28061
   1.70699  -0.42367  -0.52003
   1.94641  -0.42367  -0.52003
   2.42525  -0.42367  -0.28061
   2.66467  -0.42367  -0.28061
   3.14351  -0.42367  -0.28061
   3.62235  -0.42367  -0.04119
   3.62235  -0.42367  -0.04119
   3.86177  -0.42367   0.19823
   4.10119  -0.42367   0.19823
   4.10119  -0.18425   0.19823
   4.34061  -0.18425   0.43765
   4.10119  -0.42367   0.43765
   4.10119  -0.42367   0.19823
   3.86177  -0.42367   0.19823
   3.86177  -0.66309   0.19823
   3.62235  -0.66309   0.19823
   3.38293  -0.66309   0.19823
   2.90409  -0.66309   0.19823
   2.66467  -0.66309   0.19823
   2.18583  -0.90251   0.19823
   1.94641  -0.90251   0.19823
   1.70699  -0.90251   0.19823
   1.22814  -0.66309   0.19823
   0.74930  -0.66309   0.19823
   0.74930  -0.66309   0.19823
   0.50988  -0.18425   0.43765
   0.27046  -0.18425   0.43765
   0.03104  -0.42367   0.43765
  -0.20838  -0.42367   0.67707
  -0.44780  -0.18425   0.67707
  -0.44780  -0.18425   0.67707
  -0.68722  -0.42367   0.67707
  -0.92664  -0.42367   0.91649
  -1.16606  -0.18425   1.15591
  -1.16606  -0.18425   1.15591
  -1.40548   0.05517   1.15591
  -1.64490   0.05517   1.39533
  -1.88432   0.29459   1.39533
  -1.88432   0.29459   1.63475
  -2.12374   0.29459   1.39533
  -2.36316   0.29459   1.63475
  -2.60258   0.29459   1.39533
  -2.60258   0.53401   1.39533
  -2.84200   0.53401   1.63475
  -2.84200   0.77343   1.63475
  -2.84200   0.77343   1.39533
  -3.08142   0.77343   1.39533
  -3.08142   1.01285   1.63475
  -3.08142   0.77343   1.39533
  -3.08142   0.77343   1.39533
  -3.08142   0.77343   1.15591
  -3.32084   0.77343   1.15591
  -3.32084   0.53401   0.91649
  -3.32084   0.53401   0.91649
  -3.08142   0.53401   0.67707
  -3.32084   0.53401   0.67707
  -3.32084   0.53401   0.43765
  -3.08142   0.77343   0.19823
  -3.32084   0.77343  -0.04119
  -3.32084   1.01285  -0.28061
  -3.08142   1.01285  -0.52003
  -3.08142   1.01285  -0.75945
  -2.84200   1.01285  -0.99887
  -2.84200   1.01285  -1.23829
  -2.84200   1.01285  -1.47771
  -2.60258   1.01285  -1.71713
  -2.60258   0.77343  -1.71713
  -2.12374   0.53401  -1.95655
  -2.12374   0.53401  -2.19597
  -2.12374   0.53401  -2.19597
  -1.64490   0.29459  -2.43539
  -1.64490   0.05517  -2.67481
  -1.64490   0.29459  -2.67481
  -1.64490   0.29459  -2.67481
  -1.64490   0.29459  -2.67481
  -1.64490   0.29459  -2.67481
  -1.64490   0.29459  -2.67481
  -1.64490   0.29459  -2.91423
  -1.64490   0.29459  -3.15365
  -1.64490   0.53401  -3.15365
  -1.40548   0.53401  -3.15365
  -1.40548   0.29459  -3.39307
  -1.40548   0.29459  -3.39307
  -1.16606   0.29459  -3.63249
  -1.16606   0.53401  -3.63249
  -0.92664   0.53401  -3.63249
  -0.92664   0.53401  -3.63249
  -0.68722   0.53401  -3.63249
  -0.68722   0.53401  -3.39307
  -0.68722   0.53401  -3.39307
  -0.44780   0.53401  -3.15365
  -0.44780   0.53401  -2.67481
  -0.20838   0.53401  -2.43539
   0.03104   0.53401  -2.19597
   0.03104   0.53401  -1.95655
   0.03104   0.29459  -1.47771
   0.27046   0.53401  -1.23829
   0.27046   0.53401  -0.75945
   0.50988   0.53401  -0.75945
   0.74930   0.53401  -0.52003
   0.50988   0.53401  -0.52003
   0.74930   0.53401  -0.52003
   0.74930   0.29459  -0.52003
   0.74930   0.29459  -0.52003
   0.74930   0.05517  -0.75945
   0.74930  -0.18425  -0.99887
   0.74930  -0.42367  -0.99887
   0.74930  -0.18425  -1.23829
   0.27046  -0.18425  -1.23829
   0.27046  -0.18425  -1.23829
   0.03104  -0.18425  -1.23829
  -0.20838  -0.18425  -1.23829
  -0.44780  -0.18425  -1.23829
  -0.68722  -0.18425  -0.99887
  -0.92664  -0.42367  -0.99887
  -0.92664  -0.42367  -0.75945
  -1.16606  -0.42367  -0.75945
  -1.64490  -0.42367  -0.75945
  -1.40548  -0.42367  -0.75945
  -1.40548  -0.42367  -0.52003
  -1.88432  -0.42367  -0.28061
  -1.88432  -0.66309  -0.04119
  -2.12374  -0.66309  -0.04119
  -2.36316  -0.42367   0.19823
  -2.36316  -0.42367   0.19823
  -2.84200  -0.42367   0.67707
  -2.84200  -0.18425   0.43765
  -2.84200  -0.18425   0.67707
  -2.84200  -0.42367   0.91649
  -3.08142  -0.18425   0.91649
  -3.08142  -0.18425   1.15591
  -3.32084   0.05517   1.39533
  -3.08142  -0.18425   1.63475
  -3.08142   0.05517   1.87417
  -3.08142   0.05517   1.87417
  -3.08142   0.05517   2.35301
  -2.84200   0.05517   2.59243
  -2.60258   0.29459   2.59243
  -2.36316   0.05517   2.83185
  -2.36316   0.05517   2.83185
  -2.36316  -0.18425   2.83185
  -2.12374  -0.18425   2.83185
  -1.88432  -0.18425   2.59243
  -1.88432  -0.42367   2.35301
  -1.64490  -0.42367   2.35301
  -1.40548  -0.42367   2.11359
  -1.40548  -0.42367   1.87417
  -1.16606  -0.42367   1.39533
  -1.16606  -0.42367   1.39533
  -0.92664  -0.42367   1.15591
  -0.92664  -0.42367   1.15591
  -0.92664  -0.42367   0.91649
  -0.92664  -0.18425   1.15591
  -0.68722  -0.42367   1.15591
  -0.68722  -0.42367   1.15591
  -0.68722  -0.42367   1.15591
  -0.44780  -0.42367   1.39533
  -0.44780  -0.42367   1.39533
  -0.20838  -0.42367   1.39533
  -0.20838  -0.66309   1.63475
