********************************************************************************
               CENTRO DE INSTRUMENTACION Y REGISTRO SISMICO  A.C.  
                       Coordinacion de Servicios Tecnicos
     Anaxagoras 814, Col. Narvarte, Benito Juarez, C.P. 03020 Mexico, D.F.
            Tels. 687 45 42/ 687 45  82             Fax. 669 25 12
********************************************************************************
ARCHIVO ESTANDAR DE ACELERACION:
VERSION DEL FORMATO                    : 2.0
NOMBRE DEL ARCHIVO                     : AU119310.241
FECHA Y HORA DE CREACION               : 8 de febrero de 1996/17:50
REF. CATALOGO ACELEROGRAMAS, SMIS 1995 : REGISTRO No. 4908 /PAG. 443


================================================================================
DATOS DE LA ESTACION:
NOMBRE DE LA ESTACION                  : AUTODROMO
CLAVE DE LA ESTACION                   : AU11
LOCALIZACION DE LA ESTACION            : AUTODROMO HERMANOS RODRIGUEZ,
                                       : CHURUBUSCO, CD. DEPORTIVA
                                       :
                                       :
                                       :
COORDENADAS DE LA ESTACION             : 19.392 LAT. N 
                                       : 99.087 LONG. W 
ALTITUD (msnm)                         : 2234
TIPO DE SUELO                          : TERRENO BLANDO, MATERIAL COMPRESIBLE
                                       : (ARCILLAS)
                                       : 
INSTITUCION RESPONSABLE                : CIRES 
                                       :

================================================================================
DATOS DEL ACELEROGRAFO:
MODELO DEL ACELEROGRAFO                : SSA-1
NUMERO DE SERIE DEL ACELEROGRAFO       : 157
NUMERO DE CANALES                      : 3
ORIENTACION C1-C6 (rumbo;orientacion)  : /N00E/+V/N90E
ORIENTACION C7-C12 (rumbo;orientacion) :
VEL. DE MUESTREO, C1-C6 (muestras/s)   : /200/200/200
VEL. DE MUESTREO, C7-C12 (muestras/s)  :
ESC. COMPLETA DE SENSORES, C1-C6, (g)  : /2/2/2
ESC. COMPLETA DE SENSORES, C7-C12, (g) :
FREC. NAT. DE SENSORES, C1-C6, (Hz)    : /50/50/50
FREC. NAT. DE SENSORES, C7-C12, (Hz)   :
AMORTIGUAMIENTO DE SENSORES, C1-C6     : /0.700/0.700/0.700
AMORTIGUAMIENTO DE SENSORES, C7-C12    :
INTERVALO DE MUESTREO, C1-C6, (s)      : /0.005/0.005/0.005
INTERVALO DE MUESTREO, C7-C12, (s)     :
UMBRAL DE DISPARO, C1-C6, (Gal)        : /2/1/2
UMBRAL DE DISPARO, C7-C12, (Gal)       :
MEMORIA DE PREEVENTO (s)               : 15
TIEMPO DE POSEVENTO (s)                : 90


================================================================================
DATOS DEL SISMO:
FECHA DEL SISMO (GMT)                  : 24/OCT/93
HORA EPICENTRO (GMT)                   : 07:52:18,2 
MAGNITUD(ES)                           : /Mb=6.20/Ms=6.60/Mc=6.50
COORDENADAS DEL EPICENTRO              : 16.540 LAT. N 
                                       : 98.980 LONG. W 
PROFUNDIDAD FOCAL (km)                 : < 5
FUENTE DE LOS DATOS EPICENTRALES       : SSN
                                       : INSTITUTO DE GEOFISICA, UNAM

================================================================================
DATOS DE ESTE REGISTRO:
HORA DE LA PRIMERA MUESTRA (GMT)       : 07:54:13.00
EXACTITUD DEL TIEMPO (s)               :     
DURACION DEL REGISTRO (s), C1-C6       : /328.965/328.965/328.965
DURACION DEL REGISTRO (s), C7-C12      :
NUM. TOTAL DE MUESTRAS, C1-C6          : /65793/65793/65793
NUM. TOTAL DE MUESTRAS, C7-C12         :
ACEL. MAX. (Gal), C1-C6                : /8.29083/2.09089/7.52145
ACEL. MAX., C1-C6, EN LA MUESTRA       :
ACEL. MAX. (Gal), C7-C12               :
ACEL. MAX., C7-C12, EN LA MUESTRA      :
UNIDADES DE LOS DATOS                  : Gal (cm/s/s)
FACTOR DE DECIMACION                   : 1
FORMATO DATOS (FORTRAN,10 campos/dato) : 3F10.5


================================================================================
CALIDAD DEL ACELEROGRAMA:
REGISTRO DIGITAL COMPLETO, CARECE DE TIEMPO ABSOLUTO.


================================================================================
COMENTARIOS: 
             Los equipos se encontraban con una ganancia de 2 en los
             ejes horizontales y de 4 en el eje vertical, por lo que
             la escala completa era de 1 g y 1/2 g respectivamente.











================================================================================
DATOS DE ACELERACION:
---------+---------+---------+---------+---------+---------+---------+---------+
   CANAL-1   CANAL-2   CANAL-3   CANAL-4   CANAL-5   CANAL-6   CANAL-7   CANAL-8
      N00E        +V      N90E
---------+---------+---------+---------+---------+---------+---------+---------+
[...]
  -5.90083  -0.77911   3.01855
  -6.38083  -0.77911   3.01855
  -6.38083  -0.77911   3.01855
  -6.38083  -0.77911   3.01855
  -6.38083  -0.77911   3.01855
  -6.86083  -0.77911   3.01855
  -6.86083  -0.77911   3.01855
  -6.86083  -0.77911   2.53855
  -6.86083  -0.77911   2.53855
  -7.33083  -0.77911   2.53855
  -7.33083  -0.77911   2.53855
  -6.86083  -0.77911   2.05855
  -7.33083  -0.77911   2.53855
  -7.33083  -0.77911   2.53855
  -7.33083  -0.77911   2.53855
  -7.33083  -0.54911   2.53855
  -7.33083  -0.77911   2.53855
  -7.33083  -0.77911   2.53855
  -7.33083  -0.77911   2.53855
  -7.81083  -0.54911   2.05855
  -7.81083  -0.54911   2.05855
  -7.81083  -0.54911   2.05855
  -7.81083  -0.54911   2.05855
  -7.81083  -0.54911   2.05855
  -7.81083  -0.54911   2.05855
  -7.81083  -0.54911   2.05855
  -7.81083  -0.30911   2.05855
  -7.81083  -0.30911   2.05855
  -7.81083  -0.30911   2.05855
  -7.81083  -0.06911   2.05855
  -7.81083  -0.06911   1.57855
  -7.33083  -0.06911   1.57855
  -7.33083  -0.06911   1.57855
  -7.33083  -0.06911   1.57855
  -7.33083  -0.06911   1.57855
  -7.33083  -0.06911   1.57855
  -7.33083  -0.06911   1.57855
  -7.33083  -0.06911   1.57855
  -6.86083  -0.06911   1.09855
  -6.86083  -0.06911   1.09855
  -6.86083  -0.06911   1.09855
  -6.86083  -0.06911   1.09855
  -6.86083  -0.06911   1.09855
  -6.86083  -0.06911   1.09855
  -6.86083  -0.06911   0.61855
  -6.86083  -0.06911   0.61855
  -6.86083  -0.06911   0.61855
  -6.38083   0.17089   0.61855
  -6.38083   0.17089   0.13855
  -6.38083   0.17089   0.13855
  -6.38083   0.17089   0.13855
  -6.38083   0.17089   0.13855
  -6.38083   0.17089  -0.33145
  -5.90083   0.17089  -0.33145
  -6.38083   0.17089  -0.33145
  -5.90083   0.17089  -0.81145
  -5.90083   0.17089  -0.81145
  -5.90083   0.17089  -0.81145
  -5.90083   0.17089  -0.81145
  -5.42083   0.41089  -1.29145
  -5.42083   0.41089  -1.29145
  -5.42083   0.41089  -1.29145
  -5.42083   0.41089  -1.77145
  -5.42083   0.41089  -1.77145
  -4.94083   0.41089  -1.77145
  -4.94083   0.41089  -1.77145
  -4.94083   0.41089  -2.25145
  -4.94083   0.41089  -2.25145
  -4.46083   0.41089  -2.25145
  -4.46083   0.41089  -2.73145
  -4.46083   0.41089  -2.73145
  -4.46083   0.41089  -2.73145
  -3.98083   0.41089  -2.73145
  -3.98083   0.41089  -2.73145
  -3.98083   0.41089  -3.21145
  -3.50083   0.41089  -3.21145
  -3.50083   0.41089  -3.21145
  -3.50083   0.41089  -3.21145
  -3.50083   0.41089  -3.21145
  -3.02083   0.41089  -3.21145
  -3.02083   0.41089  -3.21145
  -3.02083   0.41089  -3.21145
  -3.02083   0.41089  -3.69145
  -3.02083   0.41089  -3.69145
  -3.02083   0.41089  -3.69145
  -2.54083   0.41089  -3.69145
  -2.54083   0.41089  -3.69145
  -2.54083   0.41089  -3.69145
  -2.07083   0.65089  -4.17145
  -2.07083   0.65089  -3.69145
  -2.07083   0.65089  -4.17145
  -2.07083   0.65089  -4.17145
  -1.59083   0.65089  -4.17145
  -1.59083   0.65089  -4.17145
  -1.59083   0.65089  -4.17145
  -1.59083   0.65089  -4.17145
  -1.59083   0.65089  -4.17145
  -1.11083   0.65089  -4.17145
  -1.11083   0.65089  -4.17145
  -1.11083   0.65089  -4.17145
  -1.11083   0.65089  -4.17145
  -0.63083   0.65089  -4.17145
  -0.63083   0.65089  -4.17145
  -0.63083   0.65089  -4.17145
  -0.63083   0.65089  -4.17145
  -0.15083   0.65089  -4.17145
  -0.15083   0.89089  -4.17145
  -0.15083   0.65089  -4.17145
  -0.15083   0.89089  -4.17145
  -0.15083   0.89089  -4.17145
   0.32917   0.89089  -4.17145
   0.32917   0.89089  -4.17145
   0.32917   0.89089  -4.17145
   0.32917   0.89089  -4.17145
   0.80917   0.89089  -4.17145
   0.80917   0.89089  -4.17145
   0.80917   0.89089  -4.17145
   0.80917   0.89089  -3.69145
   0.80917   0.89089  -3.69145
   1.28917   0.89089  -3.69145
   1.28917   0.41089  -3.69145
   1.28917   0.65089  -3.69145
   1.28917   0.89089  -3.69145
   1.76917   0.65089  -3.69145
   1.76917   0.65089  -3.21145
   1.76917   0.89089  -3.21145
   1.76917   0.65089  -3.21145
   1.76917   0.65089  -3.21145
   2.24917   0.89089  -3.21145
   2.24917   0.89089  -3.21145
   2.24917   0.89089  -3.21145
   2.24917   0.89089  -3.21145
   2.24917   0.89089  -2.73145
   2.72917   0.89089  -2.73145
   2.72917   0.89089  -2.73145
   2.72917   0.89089  -2.73145
   2.72917   0.89089  -2.73145
   2.72917   0.89089  -2.25145
   2.72917   0.89089  -2.73145
   2.72917   0.65089  -2.73145
   2.72917   0.89089  -2.25145
   3.19917   0.89089  -2.25145
   3.19917   0.89089  -2.25145
   3.19917   0.89089  -2.25145
   3.19917   0.89089  -2.25145
   3.19917   0.89089  -2.25145
   3.19917   0.89089  -1.77145
   3.19917   0.89089  -1.77145
   3.67917   0.89089  -1.77145
   3.67917   0.89089  -1.77145
   3.67917   0.89089  -1.77145
   3.67917   0.89089  -1.29145
   3.67917   0.89089  -1.29145
   3.67917   0.89089  -1.29145
   3.67917   0.89089  -1.29145
   4.15917   0.89089  -1.29145
   4.15917   0.89089  -1.29145
   4.15917   0.89089  -1.29145
   4.15917   0.89089  -1.29145
   4.15917   0.89089  -1.29145
   4.15917   0.89089  -0.81145
   4.15917   0.89089  -0.81145
   4.15917   0.89089  -0.81145
   4.15917   0.89089  -0.81145
   4.15917   0.89089  -0.81145
   4.15917   0.89089  -0.81145
   4.15917   0.89089  -0.81145
   4.15917   0.89089  -0.81145
   4.15917   0.89089  -0.33145
   4.15917   0.89089  -0.33145
   4.15917   0.89089  -0.33145
   3.67917   0.89089  -0.33145
   3.67917   0.89089  -0.33145
   3.67917   0.89089  -0.33145
   3.67917   0.89089  -0.33145
   3.67917   0.89089  -0.33145
   3.67917   0.89089  -0.33145
   3.67917   0.89089  -0.33145
   3.67917   0.65089  -0.33145
   3.67917   0.65089   0.13855
   3.67917   0.65089   0.13855
   3.67917   0.65089   0.13855
   3.67917   0.65089   0.13855
   3.67917   0.65089   0.13855
   3.19917   0.65089   0.13855
   3.19917   0.41089   0.13855
   3.19917   0.41089   0.61855
   3.19917   0.41089   0.61855
   3.19917   0.41089   0.61855
   3.19917   0.41089   0.61855
   3.19917   0.41089   0.61855
   3.19917   0.41089   0.61855
   3.19917   0.17089   1.09855
   2.72917   0.17089   1.09855
   3.19917   0.17089   1.09855
   3.19917  -0.06911   1.09855
   3.19917  -0.06911   1.09855
   2.72917  -0.06911   1.09855
   3.19917  -0.06911   1.09855
   2.72917  -0.06911   1.09855
   2.72917  -0.06911   1.09855
   2.72917  -0.06911   1.09855
   2.72917  -0.06911   1.09855
   2.72917  -0.06911   1.09855
   2.72917  -0.06911   1.09855
   2.72917  -0.30911   1.09855
   2.72917  -0.30911   1.09855
   2.72917  -0.06911   1.09855
   2.72917  -0.30911   1.09855
   2.72917  -0.30911   1.09855
   2.72917  -0.30911   1.09855
   2.72917  -0.30911   0.61855
   2.72917  -0.30911   0.61855
   2.72917  -0.54911   0.61855
   2.72917  -0.30911   0.61855
   2.72917  -0.30911   0.61855
   2.72917  -0.30911   0.61855
   2.72917  -0.54911   0.13855
   2.72917  -0.30911   0.13855
   2.72917  -0.54911   0.13855
   2.72917  -0.54911   0.13855
   2.72917  -0.54911   0.13855
   2.72917  -0.54911   0.13855
   2.72917  -0.54911  -0.33145
   2.72917  -0.54911  -0.33145
   2.72917  -0.54911  -0.33145
   2.72917  -0.54911  -0.33145
   2.72917  -0.54911  -0.33145
   2.72917  -0.54911  -0.33145
   2.72917  -0.54911  -0.33145
   2.72917  -0.54911  -0.33145
   2.72917  -0.54911  -0.81145
   2.72917  -0.54911  -0.81145
   2.72917  -0.54911  -0.81145
   3.19917  -0.54911  -0.81145
   2.72917  -0.54911  -0.81145
   2.72917  -0.54911  -0.81145
   2.72917  -0.54911  -0.81145
   3.19917  -0.54911  -1.29145
   2.72917  -0.54911  -1.29145
   3.19917  -0.54911  -1.29145
   3.19917  -0.54911  -1.29145
   2.72917  -0.54911  -1.29145
   3.19917  -0.54911  -1.29145
   3.19917  -0.54911  -1.29145
   3.19917  -0.54911  -1.29145
   3.19917  -1.01911  -1.77145
   3.19917  -0.54911  -1.29145
   3.19917  -0.54911  -1.77145
   3.19917  -0.54911  -1.77145
   3.19917  -0.54911  -1.77145
   3.19917  -0.54911  -1.77145
   3.19917  -0.54911  -1.77145
   3.19917  -0.54911  -2.25145
   3.67917  -0.54911  -1.77145
   3.19917  -0.54911  -1.77145
   3.19917  -0.54911  -1.77145
   3.19917  -0.54911  -1.77145
   3.67917  -0.54911  -1.77145
   3.19917  -0.54911  -1.77145
   3.19917  -0.54911  -1.77145
   3.19917  -0.30911  -1.77145
   3.19917  -0.54911  -1.77145
   3.19917  -0.30911  -1.77145
   3.19917  -0.30911  -1.77145
   3.19917  -0.30911  -1.77145
   3.19917  -0.30911  -1.77145
   3.19917  -0.30911  -1.77145
   3.19917  -0.30911  -1.77145
   3.19917  -0.30911  -1.29145
   3.19917  -0.30911  -1.29145
   3.19917  -0.30911  -1.29145
   2.72917  -0.30911  -1.29145
   2.72917  -0.30911  -1.29145
   2.72917  -0.30911  -1.29145
   2.72917  -0.30911  -1.29145
   2.72917  -0.30911  -0.81145
   2.72917  -0.30911  -0.81145
   2.72917  -0.06911  -0.81145
   2.24917  -0.30911  -0.81145
   2.24917  -0.30911  -0.33145
   2.24917  -0.30911  -0.33145
   1.76917  -0.30911  -0.33145
   1.76917  -0.06911  -0.33145
   1.76917  -0.06911   0.13855
   1.76917  -0.06911  -0.33145
   1.28917  -0.06911   0.13855
   1.28917  -0.06911   0.13855
   1.28917  -0.06911   0.13855
   0.80917  -0.06911   0.61855
   0.80917   0.17089   0.61855
   0.80917   0.17089   0.61855
   0.80917   0.17089   0.61855
   0.32917   0.17089   0.61855
   0.32917   0.41089   0.61855
   0.32917   0.17089   1.09855
  -0.15083   0.17089   1.09855
  -0.15083   0.41089   1.09855
  -0.15083   0.17089   1.09855
  -0.15083   0.41089   1.09855
  -0.63083   0.41089   1.09855
  -0.63083   0.41089   1.09855
  -1.11083   0.41089   1.57855
  -1.11083   0.41089   1.57855
  -1.59083   0.41089   1.57855
  -1.59083   0.41089   1.57855
  -1.59083   0.41089   1.57855
  -2.07083   0.41089   1.57855
  -2.07083   0.41089   1.57855
  -2.07083   0.41089   1.57855
  -2.54083   0.41089   2.05855
  -2.54083   0.17089   2.05855
  -3.02083   0.41089   2.05855
  -3.02083   0.41089   2.05855
  -3.02083   0.41089   2.05855
  -3.50083   0.41089   2.05855
  -3.50083   0.41089   2.53855
  -3.98083   0.41089   2.53855
  -3.98083   0.41089   2.53855
  -4.46083   0.41089   2.53855
  -4.46083   0.17089   2.53855
  -4.94083   0.17089   2.53855
  -4.94083   0.41089   2.53855
  -4.94083   0.41089   2.53855
  -5.42083   0.41089   2.53855
  -5.42083   0.41089   2.53855
  -5.90083   0.41089   3.01855
  -5.90083   0.41089   3.01855
  -5.90083   0.17089   3.01855
  -6.38083   0.41089   3.01855
  -6.38083   0.41089   3.01855
  -6.86083   0.41089   3.01855
  -6.86083   0.41089   3.01855
  -6.86083   0.41089   3.01855
  -6.86083   0.41089   3.01855
  -7.33083   0.41089   3.01855
  -7.33083   0.41089   3.01855
  -7.33083   0.41089   3.01855
  -7.33083   0.41089   3.01855
  -7.81083   0.17089   3.01855
  -7.81083   0.17089   3.01855
  -7.81083   0.17089   3.01855
  -7.81083   0.17089   2.53855
  -7.81083   0.17089   3.01855
  -8.29083   0.17089   3.01855
  -8.29083   0.17089   3.01855
  -8.29083   0.17089   3.01855
  -8.29083   0.17089   3.01855
  -8.29083  -0.06911   3.01855
  -8.29083  -0.06911   3.01855
  -8.29083  -0.06911   3.01855
  -8.29083  -0.06911   3.01855
  -8.29083  -0.06911   3.49855
  -8.29083  -0.06911   3.01855
  -8.29083  -0.06911   3.49855
  -8.29083  -0.06911   3.49855
  -8.29083  -0.06911   3.01855
  -8.29083  -0.06911   3.01855
  -7.81083  -0.06911   3.01855
  -7.81083  -0.06911   3.49855
  -7.81083  -0.06911   3.01855
  -7.81083  -0.06911   3.01855
  -7.33083  -0.06911   3.01855
  -7.33083  -0.06911   3.49855
  -7.33083  -0.06911   3.01855
  -7.33083   0.17089   3.01855
  -6.86083   0.17089   3.49855
  -6.86083   0.17089   3.01855
  -6.86083   0.17089   3.01855
  -6.86083  -0.06911   3.01855
  -6.38083  -0.06911   3.01855
  -6.38083  -0.06911   3.01855
  -6.38083  -0.06911   3.01855
  -5.90083  -0.06911   3.01855
  -5.90083  -0.06911   3.01855
  -5.90083  -0.06911   3.01855
  -5.42083  -0.06911   3.01855
  -5.42083  -0.06911   3.01855
  -5.42083  -0.06911   3.01855
  -4.94083  -0.06911   3.01855
  -4.94083  -0.06911   2.53855
  -4.94083  -0.06911   2.53855
  -4.46083  -0.06911   2.53855
  -4.46083  -0.06911   2.53855
  -4.46083   0.17089   2.53855
  -4.46083   0.17089   2.05855
  -3.98083   0.17089   2.53855
  -3.98083  -0.06911   2.05855
  -3.98083   0.17089   2.05855
  -3.50083   0.17089   2.05855
  -3.50083   0.41089   2.05855
  -3.50083   0.41089   2.05855
  -3.02083   0.41089   2.05855
  -3.02083   0.41089   1.57855
  -3.02083   0.41089   1.57855
  -3.02083   0.41089   1.57855
  -2.54083   0.41089   1.57855
  -2.54083   0.41089   1.57855
  -2.54083   0.41089   1.09855
  -2.07083   0.41089   1.09855
  -2.54083   0.41089   1.09855
  -2.07083   0.41089   1.09855
  -2.07083   0.41089   0.61855
  -2.07083   0.41089   0.61855
  -1.59083   0.41089   0.61855
  -1.59083   0.41089   0.61855
  -1.59083   0.41089   0.13855
  -1.59083   0.41089   0.13855
  -1.11083   0.41089   0.13855
  -1.11083   0.41089   0.13855
  -1.11083   0.41089  -0.33145
  -1.11083   0.41089  -0.33145
  -1.11083   0.41089  -0.33145
  -1.11083   0.41089  -0.33145
  -0.63083   0.41089  -0.33145
  -0.63083   0.41089  -0.81145
  -0.15083   0.41089  -0.81145
  -0.15083   0.41089  -0.81145
  -0.15083   0.41089  -0.81145
  -0.15083   0.41089  -1.29145
   0.32917   0.17089  -1.29145
   0.32917   0.41089  -1.29145
   0.32917   0.41089  -1.29145
   0.80917   0.41089  -1.29145
   0.80917   0.41089  -1.77145
   0.80917   0.41089  -1.77145
   0.80917   0.41089  -1.77145
   1.28917   0.41089  -1.77145
   1.28917   0.41089  -1.77145
   1.76917   0.41089  -2.25145
   1.76917   0.41089  -2.25145
   1.76917   0.41089  -2.25145
   2.24917   0.41089  -2.25145
   2.24917   0.41089  -2.73145
   2.72917   0.41089  -2.73145
   2.72917   0.41089  -2.73145
   2.72917   0.17089  -2.73145
   2.72917   0.41089  -2.73145
   3.19917   0.41089  -3.21145
   3.19917   0.17089  -3.21145
   3.19917   0.17089  -3.21145
   3.67917   0.17089  -3.21145
   3.67917   0.17089  -3.21145
   3.67917   0.17089  -3.21145
   4.15917   0.17089  -3.21145
   3.67917   0.17089  -3.21145
   4.15917   0.17089  -3.21145
   4.63917   0.17089  -3.21145
   4.63917   0.17089  -3.21145
   4.63917  -0.06911  -3.21145
   4.63917   0.17089  -3.21145
   5.11917   0.17089  -3.21145
   5.11917   0.17089  -3.21145
   5.11917  -0.06911  -3.21145
   5.11917  -0.06911  -3.69145
   5.59917  -0.06911  -3.21145
   5.59917  -0.06911  -3.21145
   5.59917  -0.06911  -3.21145
   5.59917  -0.06911  -3.21145
   5.59917  -0.06911  -3.21145
   6.07917  -0.30911  -3.21145
   6.07917  -0.30911  -3.21145
   6.07917  -0.30911  -3.21145
   6.07917  -0.30911  -3.21145
   6.55917  -0.30911  -3.21145
   6.55917  -0.30911  -3.21145
   6.55917  -0.30911  -3.21145
   6.55917  -0.30911  -3.21145
   6.55917  -0.30911  -3.21145
   6.55917  -0.30911  -3.21145
   7.03917  -0.30911  -3.21145
   7.03917  -0.30911  -3.21145
   7.03917  -0.30911  -3.21145
   7.03917  -0.30911  -3.21145
   7.03917  -0.30911  -3.21145
   7.03917  -0.30911  -3.21145
   7.03917  -0.30911  -3.21145
   7.03917  -0.30911  -3.21145
   7.03917  -0.30911  -3.21145
   7.03917  -0.30911  -3.21145
   7.03917  -0.30911  -2.73145
   7.03917  -0.30911  -3.21145
   7.03917  -0.30911  -2.73145
   7.03917  -0.30911  -2.73145
   7.03917  -0.30911  -2.73145
   7.03917  -0.30911  -2.73145
   7.03917  -0.54911  -2.73145
   6.55917  -0.54911  -2.73145
   6.55917  -0.54911  -2.73145
   6.55917  -0.54911  -2.73145
   6.55917  -0.54911  -2.73145
   6.55917  -0.54911  -2.73145
