********************************************************************************
              CENTRO DE INSTRUMENTACION Y REGISTRO SISMICO  A.C.

    Anaxagoras 814, Col. Narvarte, Benito Juarez, C.P. 03020 Mexico, D.F.
           Tels. 5687 45 42/ 5687 45  82             Fax. 5669 25 12
********************************************************************************
ARCHIVO ESTANDAR DE ACELERACION:
VERSION DEL FORMATO                    : 2.0
NOMBRE DEL ARCHIVO                     : AU1120110505132407
FECHA Y HORA DE CREACION               : 01/JUL/11, 12:12
REF. CATALOGO ACELEROGRAMAS, SMIS 1996 : REGISTRO No.     /PAG.


================================================================================
DATOS DE LA ESTACION:
NOMBRE DE LA ESTACION                  : AUTÓDROMO
CLAVE DE LA ESTACION                   : AU11
LOCALIZACION DE LA ESTACION            : Del. Iztacalco, Cd. Deportiva          
                                       : Magdalena Mixhuca,                     
                                       : Col. Granjas México                    
                                       :                                        
                                       : 
COORDENADAS DE LA ESTACION             : 19.3919 LAT. N
                                       : 99.0869 LONG. W
ALTITUD (msnm)                         : 2234
TIPO DE SUELO                          : Terreno blando, material compresible
                                       : (arcillas)                
                                       : 
INSTITUCION RESPONSABLE                : CIRES
                                       : 

================================================================================
DATOS DEL ACELEROGRAFO:
MODELO DEL ACELEROGRAFO                : RADESD
NUMERO DE SERIE DEL ACELEROGRAFO       : 157
NUMERO DE CANALES                      : 3
ORIENTACION C1-C6 (rumbo;orientacion)  : /N00E/+V/N90W
ORIENTACION C7-C12 (rumbo;orientacion) : 
VEL. DE MUESTREO, C1-C6 (muestras/s)   : /100/100/100
VEL. DE MUESTREO, C7-C12 (muestras/s)  : 
ESC. COMPLETA DE SENSORES, C1-C6, (g)  : /0.5/0.5/0.5
ESC. COMPLETA DE SENSORES, C7-C12, (g) : 
FREC. NAT. DE SENSORES, C1-C6, (Hz)    : /51.77/52.56/52.29
FREC. NAT. DE SENSORES, C7-C12, (Hz)   : 
AMORTIGUAMIENTO DE SENSORES, C1-C6     : /0.5912/0.6083/0.6067
AMORTIGUAMIENTO DE SENSORES, C7-C12    : 
INTERVALO DE MUESTREO, C1-C6, (s)      : /0.01/0.01/0.01
INTERVALO DE MUESTREO, C7-C12, (s)     : 
UMBRAL DE DISPARO, C1-C6, (Gal)        : /0.72/1.92/0.72
UMBRAL DE DISPARO, C7-C12, (Gal)       : 
MEMORIA DE PREEVENTO (s)               : 56.0
TIEMPO DE POSEVENTO (s)                : 64.0


================================================================================
DATOS DEL SISMO:
FECHA DEL SISMO (GMT)                  : 05/MAY/11
HORA EPICENTRO (GMT)                   : 13:24:07.0
MAGNITUD(ES)                           : /Mc=5.5
COORDENADAS DEL EPICENTRO              : 16.61 LAT. N
                                       : 98.91 LONG. W
PROFUNDIDAD FOCAL (km)                 : 11
FUENTE DE LOS DATOS EPICENTRALES       : SSN
                                       : INSTITUTO DE GEOFISICA, UNAM

================================================================================
DATOS DE ESTE REGISTRO:
HORA DE LA PRIMERA MUESTRA (GMT)       : 13:25:28.00
EXACTITUD DEL TIEMPO (s)               : 0.01
DURACION DEL REGISTRO (s), C1-C6       : /221.75/221.75/221.75
DURACION DEL REGISTRO (s), C7-C12      : 
NUM. TOTAL DE MUESTRAS, C1-C6          : /22175/22175/22175
NUM. TOTAL DE MUESTRAS, C7-C12         : 
ACEL. MAX. (Gal), C1-C6                : /2.20513/1.07732/2.66592
ACEL. MAX., C1-C6, EN LA MUESTRA       : /6076/6173/6660
ACEL. MAX. (Gal), C7-C12               : 
ACEL. MAX., C7-C12, EN LA MUESTRA      : 
UNIDADES DE LOS DATOS                  : Gal (cm/s/s)
FACTOR DE DECIMACION                   : 1
FORMATO DATOS (FORTRAN,10 campos/dato) : 3F10.5


================================================================================
CALIDAD DEL ACELEROGRAMA:
REGISTRO DIGITAL COMPLETO CON TIEMPO ABSOLUTO CORRECTO.


================================================================================
COMENTARIOS:














================================================================================
DATOS DE ACELERACION:
---------+---------+---------+---------+---------+---------+---------+---------+
   CANAL-1   CANAL-2   CANAL-3   CANAL-4   CANAL-5   CANAL-6   CANAL-7   CANAL-8
      N00E        +V      N90W
---------+---------+---------+---------+---------+---------+---------+---------+
[...]
  -0.05035   0.11978   0.92539
   0.18907   0.35920   1.16481
  -0.05035   0.35920   0.92539
  -0.52919   0.35920   1.16481
  -0.28977   0.35920   1.16481
  -0.76861   0.35920   1.40423
  -1.00803   0.35920   0.92539
  -1.00803   0.35920   0.92539
  -1.24745   0.35920   0.92539
  -1.24745   0.11978   0.68597
  -1.48687   0.11978   0.44655
  -1.72629  -0.11964   0.44655
  -1.48687   0.11978   0.44655
  -1.72629  -0.11964   0.44655
  -1.48687   0.11978   0.44655
  -1.72629   0.11978  -0.03229
  -1.96571   0.35920   0.20713
  -1.96571   0.11978  -0.03229
  -1.96571   0.11978   0.20713
  -1.72629   0.35920   0.68597
  -1.72629   0.11978   0.20713
  -1.72629   0.35920   0.20713
  -1.96571   0.35920   0.20713
  -1.96571   0.35920   0.20713
  -1.96571   0.11978   0.44655
  -1.72629   0.11978   0.20713
  -1.72629   0.11978  -0.03229
  -1.48687   0.11978  -0.27171
  -1.48687   0.11978  -0.27171
  -1.24745  -0.11964  -0.27171
  -1.48687   0.11978  -0.27171
  -1.24745   0.11978  -0.27171
  -1.00803   0.11978  -0.27171
  -1.00803   0.11978  -0.27171
  -0.76861   0.35920  -0.51113
  -0.76861   0.35920  -0.51113
  -0.52919   0.59862  -0.27171
  -0.52919   0.59862  -0.27171
  -0.52919   0.35920  -0.27171
  -0.52919   0.59862  -0.03229
  -0.28977   0.35920   0.20713
  -0.52919   0.11978  -0.27171
  -0.28977   0.35920   0.20713
  -0.52919   0.35920   0.20713
  -0.76861   0.35920   0.20713
  -0.52919   0.11978   0.44655
  -0.76861   0.35920   0.20713
  -0.52919   0.59862   0.20713
  -1.00803   0.35920   0.20713
  -0.76861   0.11978   0.20713
  -0.52919   0.11978   0.44655
  -0.76861   0.11978  -0.03229
  -0.52919  -0.11964  -0.03229
  -0.28977   0.35920  -0.03229
  -0.52919   0.11978  -0.03229
  -0.52919   0.11978  -0.27171
  -0.28977   0.11978  -0.27171
  -0.28977  -0.11964  -0.51113
  -0.05035   0.11978  -0.27171
  -0.05035  -0.11964  -0.51113
  -0.05035  -0.11964  -0.51113
  -0.05035  -0.35906  -0.27171
  -0.05035  -0.11964  -0.51113
   0.42849  -0.59848  -0.51113
   0.42849  -0.11964  -0.27171
   0.66791  -0.35906  -0.27171
   0.66791  -0.35906  -0.03229
   0.66791  -0.35906  -0.27171
   0.66791  -0.35906  -0.03229
   0.90733  -0.59848  -0.03229
   0.90733  -0.11964  -0.27171
   1.14676  -0.35906  -0.03229
   1.14676  -0.35906  -0.03229
   1.14676  -0.11964   0.20713
   1.62560  -0.11964   0.20713
   1.62560  -0.11964   0.20713
   1.86502   0.11978   0.44655
   1.86502  -0.11964   0.20713
   1.86502  -0.11964   0.20713
   1.62560   0.11978   0.20713
   2.10444   0.11978   0.20713
   1.86502  -0.11964  -0.03229
   1.86502  -0.11964  -0.03229
   2.10444  -0.11964  -0.03229
   2.10444  -0.11964  -0.03229
   2.10444  -0.11964  -0.27171
   2.10444  -0.35906  -0.27171
   2.10444  -0.35906  -0.51113
   1.86502  -0.59848  -0.75055
   1.86502  -0.59848  -0.27171
   1.62560  -0.35906  -0.51113
   1.62560  -0.35906  -0.51113
   1.62560  -0.35906  -0.51113
   1.38618  -0.35906  -0.75055
   1.38618  -0.35906  -0.51113
   1.38618  -0.35906  -0.51113
   1.14676  -0.35906  -0.75055
   1.14676  -0.35906  -0.75055
   1.14676  -0.11964  -0.75055
   0.90733  -0.35906  -0.98997
   0.66791  -0.35906  -0.98997
   0.66791  -0.35906  -0.98997
   0.42849  -0.11964  -1.22939
   0.18907  -0.11964  -1.22939
   0.42849  -0.11964  -1.22939
   0.18907  -0.35906  -1.46881
  -0.05035  -0.59848  -1.46881
  -0.05035  -0.11964  -1.22939
  -0.05035  -0.35906  -1.22939
  -0.28977  -0.35906  -1.22939
  -0.28977  -0.11964  -1.22939
  -0.28977   0.11978  -0.75055
  -0.28977  -0.11964  -0.51113
  -0.52919  -0.11964  -0.75055
  -0.52919  -0.11964  -0.51113
  -0.52919  -0.11964  -0.51113
  -0.76861   0.11978  -0.27171
  -0.52919   0.11978  -0.27171
  -0.52919   0.35920  -0.03229
  -0.52919   0.35920   0.20713
  -0.52919   0.35920   0.20713
  -0.76861   0.35920   0.44655
  -0.52919   0.11978   0.68597
  -0.76861  -0.11964   0.44655
  -1.00803   0.11978   0.44655
  -0.76861   0.11978   0.44655
  -0.76861   0.35920   0.68597
  -1.00803   0.35920   0.44655
  -1.00803   0.35920   0.44655
  -1.00803   0.11978   0.44655
  -1.00803   0.35920   0.44655
  -1.00803   0.11978   0.20713
  -1.00803   0.35920   0.20713
  -1.00803   0.35920   0.20713
  -1.24745   0.35920   0.20713
  -1.24745   0.35920   0.20713
  -1.00803   0.11978   0.20713
  -1.24745   0.11978  -0.27171
  -1.24745  -0.11964  -0.03229
  -1.48687  -0.11964  -0.03229
  -1.48687   0.11978  -0.03229
  -1.48687   0.11978   0.20713
  -1.48687  -0.11964   0.44655
  -1.24745  -0.11964   0.44655
  -1.24745  -0.35906   0.20713
  -1.24745  -0.35906   0.44655
  -1.24745  -0.35906   0.68597
  -1.24745  -0.35906   0.44655
  -1.00803  -0.35906   0.44655
  -0.76861  -0.11964   0.68597
  -0.52919  -0.35906   0.68597
  -0.52919  -0.11964   0.92539
  -0.28977  -0.11964   0.92539
  -0.05035  -0.11964   0.68597
  -0.05035  -0.11964   0.68597
   0.18907  -0.11964   0.92539
   0.42849  -0.11964   0.68597
   0.66791   0.11978   0.44655
   0.66791   0.11978   0.44655
   0.90733   0.11978   0.20713
   0.90733  -0.11964   0.20713
   1.14676  -0.11964  -0.03229
   1.14676   0.11978   0.20713
   1.38618  -0.11964   0.20713
   1.38618  -0.11964   0.20713
   1.38618  -0.11964   0.44655
   1.62560  -0.11964   0.20713
   1.38618  -0.11964   0.44655
   1.62560   0.11978   0.68597
   1.86502   0.11978   0.68597
   1.86502   0.11978   0.68597
   1.62560  -0.11964   0.44655
   1.62560   0.11978   0.44655
   1.62560   0.11978   0.68597
   1.38618  -0.11964   0.20713
   1.62560   0.11978   0.20713
   1.38618   0.11978   0.20713
   1.38618   0.35920   0.20713
   1.38618   0.11978   0.20713
   1.62560   0.11978   0.20713
   1.38618   0.11978  -0.03229
   1.14676   0.35920  -0.27171
   1.14676   0.11978  -0.27171
   0.90733   0.11978  -0.27171
   0.90733   0.11978  -0.27171
   0.66791   0.35920  -0.27171
   0.66791   0.35920  -0.03229
   0.42849   0.35920  -0.27171
   0.66791   0.35920  -0.03229
   0.18907   0.11978   0.20713
   0.42849   0.11978   0.20713
  -0.05035  -0.11964  -0.03229
  -0.28977   0.11978   0.20713
  -0.28977  -0.11964   0.44655
  -0.52919   0.11978   0.44655
  -0.52919   0.11978   0.44655
  -0.52919  -0.11964   0.68597
  -0.76861   0.11978   0.44655
  -1.00803  -0.11964   0.44655
  -0.76861  -0.11964   0.68597
  -1.00803  -0.11964   0.44655
  -1.24745  -0.11964   0.44655
  -1.00803  -0.11964   0.44655
  -1.24745   0.11978   0.68597
  -1.24745   0.11978   0.44655
  -1.24745   0.11978   0.44655
  -1.24745  -0.11964   0.44655
  -1.24745  -0.11964   0.44655
  -1.24745  -0.35906   0.44655
  -1.24745  -0.11964   0.68597
  -1.24745   0.11978   0.68597
  -1.24745  -0.11964   0.68597
  -1.00803  -0.35906   0.68597
  -1.00803  -0.11964   0.68597
  -0.76861  -0.11964   0.68597
  -1.00803  -0.35906   0.44655
  -0.76861  -0.11964   0.68597
  -0.76861  -0.35906   0.44655
  -0.52919  -0.11964   0.44655
  -0.28977  -0.11964   0.20713
  -0.05035  -0.11964  -0.03229
  -0.05035  -0.11964  -0.27171
   0.18907   0.11978  -0.03229
  -0.05035  -0.11964  -0.27171
   0.18907  -0.11964  -0.27171
   0.42849  -0.11964  -0.27171
   0.42849  -0.11964  -0.27171
   0.66791   0.11978  -0.51113
   0.66791   0.11978  -0.27171
   0.42849   0.11978  -0.51113
   0.66791   0.11978  -0.27171
   1.14676   0.11978  -0.27171
   0.66791  -0.11964  -0.51113
   1.14676   0.11978  -0.27171
   0.90733  -0.11964  -0.51113
   1.14676  -0.11964  -0.75055
   1.14676  -0.35906  -0.27171
   1.14676  -0.11964  -0.51113
   0.90733  -0.11964  -0.51113
   1.14676  -0.35906  -0.51113
   1.14676  -0.11964  -0.75055
   1.14676  -0.35906  -0.98997
   1.14676  -0.35906  -0.98997
   1.14676  -0.35906  -0.98997
   1.14676  -0.35906  -0.75055
   1.14676  -0.11964  -0.98997
   1.14676  -0.35906  -1.22939
   1.14676  -0.11964  -0.75055
   1.38618  -0.11964  -0.98997
   1.14676  -0.11964  -0.51113
   1.14676   0.11978  -0.75055
   0.90733   0.11978  -0.75055
   1.14676  -0.11964  -0.75055
   1.38618   0.11978  -0.51113
   0.90733   0.11978  -0.75055
   0.66791   0.11978  -0.51113
   0.90733   0.11978  -0.27171
   0.90733  -0.11964  -0.51113
   0.66791   0.35920  -0.51113
   0.66791   0.35920  -0.27171
   0.42849   0.35920  -0.51113
   0.66791   0.11978  -0.27171
   0.42849   0.35920  -0.03229
   0.18907   0.35920  -0.27171
   0.42849   0.35920  -0.03229
   0.18907   0.11978  -0.03229
   0.42849   0.35920   0.20713
   0.42849   0.35920   0.20713
   0.42849   0.35920   0.20713
   0.42849   0.35920   0.44655
   0.18907   0.35920   0.68597
   0.42849   0.35920   0.92539
   0.66791   0.59862   0.92539
   0.42849   0.59862   0.68597
   0.42849   0.59862   0.92539
   0.42849   0.35920   0.92539
   0.42849   0.59862   0.92539
   0.18907   0.59862   0.92539
   0.18907   0.59862   0.68597
  -0.05035   0.35920   0.92539
   0.18907   0.35920   0.92539
   0.18907   0.35920   0.68597
  -0.05035   0.59862   0.68597
  -0.28977   0.35920   0.68597
  -0.52919   0.35920   0.68597
  -0.52919   0.35920   0.68597
  -0.52919   0.11978   0.44655
  -0.76861  -0.11964   0.44655
  -0.76861  -0.11964   0.68597
  -0.76861  -0.11964   0.44655
  -1.00803   0.11978   0.68597
  -1.00803  -0.11964   0.44655
  -1.24745  -0.11964   0.92539
  -1.24745  -0.11964   0.68597
  -1.48687  -0.11964   0.92539
  -1.48687  -0.11964   0.68597
  -1.72629  -0.11964   0.92539
  -1.72629  -0.11964   1.16481
  -1.72629  -0.11964   1.16481
  -1.96571  -0.11964   0.92539
  -1.96571  -0.35906   0.92539
  -2.20513  -0.35906   0.92539
  -1.72629  -0.35906   1.16481
  -1.72629  -0.11964   0.92539
  -1.48687   0.11978   0.92539
  -1.48687  -0.11964   0.68597
  -1.00803  -0.11964   0.68597
  -1.24745  -0.11964   0.44655
  -0.76861   0.11978   0.68597
  -0.76861  -0.35906   0.44655
  -0.52919  -0.11964   0.44655
  -0.28977  -0.11964   0.44655
  -0.28977  -0.11964   0.20713
  -0.05035  -0.11964   0.44655
  -0.05035   0.11978   0.20713
  -0.28977   0.11978   0.20713
  -0.05035   0.11978   0.20713
   0.18907   0.11978   0.44655
   0.18907  -0.11964   0.44655
   0.18907   0.35920   0.44655
  -0.05035   0.35920   0.20713
  -0.05035   0.11978   0.44655
  -0.05035   0.11978   0.44655
   0.18907   0.11978   0.44655
   0.18907  -0.11964   0.44655
   0.18907  -0.11964   0.68597
   0.18907  -0.11964   0.44655
  -0.05035  -0.11964   0.44655
  -0.05035  -0.11964   0.68597
   0.18907  -0.11964   0.68597
   0.18907  -0.11964   0.68597
   0.18907   0.11978   0.44655
   0.18907  -0.11964   0.20713
  -0.05035  -0.11964   0.44655
  -0.05035  -0.35906   0.20713
  -0.05035  -0.11964  -0.03229
   0.18907  -0.11964  -0.03229
   0.18907  -0.11964  -0.51113
   0.18907  -0.35906  -0.51113
   0.18907  -0.35906  -0.98997
   0.18907  -0.11964  -1.46881
   0.18907  -0.35906  -1.46881
  -0.05035  -0.35906  -1.94765
   0.42849  -0.11964  -1.94765
   0.18907  -0.11964  -2.18707
   0.18907  -0.35906  -2.42650
   0.18907  -0.35906  -2.66592
   0.18907  -0.35906  -2.66592
   0.18907  -0.11964  -2.66592
   0.18907  -0.35906  -2.42650
   0.18907  -0.35906  -2.42650
   0.18907  -0.35906  -2.42650
   0.66791  -0.35906  -2.18707
   0.42849  -0.11964  -1.70823
   0.42849  -0.11964  -1.70823
   0.66791  -0.35906  -1.46881
   0.66791  -0.11964  -1.46881
   0.90733  -0.11964  -1.22939
   0.90733   0.11978  -0.75055
   0.66791  -0.11964  -0.51113
   0.66791   0.11978  -0.51113
   0.66791   0.11978  -0.27171
   0.66791   0.11978  -0.03229
   0.18907   0.11978  -0.03229
   0.18907   0.35920   0.44655
  -0.05035   0.35920   0.68597
  -0.05035   0.35920   0.68597
  -0.52919   0.35920   0.68597
  -0.76861   0.35920   0.92539
  -1.00803   0.11978   1.16481
  -1.24745   0.11978   1.40423
  -1.24745   0.35920   1.16481
  -1.48687  -0.11964   1.40423
  -1.72629  -0.11964   1.40423
  -1.96571  -0.11964   1.40423
  -1.72629  -0.11964   1.64365
  -1.72629   0.11978   1.64365
  -1.72629  -0.11964   1.40423
  -1.96571  -0.11964   1.40423
  -1.72629  -0.11964   1.16481
  -1.72629   0.11978   0.92539
  -1.72629   0.35920   1.16481
  -1.48687   0.35920   0.68597
  -1.48687   0.11978   0.68597
  -1.72629   0.11978   0.44655
  -1.48687   0.35920   0.44655
  -1.48687   0.11978  -0.03229
  -1.48687   0.35920  -0.03229
  -1.24745   0.35920  -0.27171
  -1.48687   0.35920  -0.27171
  -1.24745   0.59862  -0.51113
  -1.00803   0.59862  -0.27171
  -0.76861   0.35920  -0.27171
  -0.52919   0.11978  -0.51113
  -0.28977   0.11978  -0.75055
  -0.28977   0.11978  -0.75055
  -0.05035   0.35920  -0.75055
   0.18907   0.11978  -0.51113
   0.42849  -0.11964  -0.75055
   0.90733   0.11978  -0.51113
   0.90733   0.11978  -0.27171
   0.90733  -0.11964  -0.51113
   1.38618   0.11978  -0.27171
   1.14676  -0.11964  -0.51113
   1.62560   0.11978  -0.27171
   1.62560  -0.11964  -0.51113
   1.86502  -0.11964  -0.51113
   1.86502   0.11978  -0.27171
   2.10444   0.11978  -0.27171
   1.86502   0.11978  -0.27171
   2.10444   0.11978  -0.27171
   2.10444  -0.11964  -0.27171
   2.10444  -0.11964  -0.03229
   1.86502  -0.11964  -0.27171
   1.86502  -0.35906  -0.03229
   1.86502  -0.35906  -0.27171
   1.86502  -0.11964   0.20713
   1.62560  -0.11964  -0.03229
   1.62560  -0.11964  -0.03229
   1.38618  -0.11964   0.20713
   1.14676  -0.11964  -0.03229
   1.14676   0.11978  -0.03229
   0.90733  -0.11964  -0.27171
   0.66791  -0.11964  -0.51113
   0.66791  -0.11964  -0.51113
   0.66791   0.11978  -0.75055
   0.42849   0.11978  -0.75055
   0.66791   0.11978  -0.75055
   0.18907   0.11978  -0.98997
   0.18907   0.35920  -1.22939
   0.18907   0.11978  -1.22939
  -0.05035  -0.11964  -1.46881
  -0.05035  -0.11964  -1.46881
  -0.28977  -0.11964  -1.46881
  -0.52919  -0.11964  -1.46881
  -0.28977   0.11978  -1.22939
  -0.52919  -0.35906  -1.46881
  -0.52919   0.11978  -1.22939
  -0.52919  -0.11964  -0.98997
  -0.76861   0.11978  -0.98997
  -1.00803  -0.11964  -0.75055
  -1.00803  -0.11964  -0.51113
  -1.00803  -0.35906  -0.27171
  -1.24745  -0.11964  -0.03229
  -1.72629  -0.11964  -0.03229
  -1.48687  -0.11964   0.44655
  -1.72629  -0.11964   0.44655
  -1.96571  -0.11964   0.92539
  -1.72629   0.11978   1.16481
  -1.72629   0.11978   1.16481
  -1.72629   0.35920   1.40423
  -2.20513   0.35920   1.64365
  -1.96571   0.35920   1.64365
  -1.96571   0.35920   1.88307
  -2.20513   0.35920   1.64365
  -2.20513   0.35920   1.64365
  -2.20513   0.35920   1.88307
  -2.20513   0.35920   1.88307
  -1.96571   0.11978   1.64365
  -1.96571   0.11978   1.40423
  -2.20513   0.35920   1.16481
  -1.96571   0.35920   1.40423
  -1.72629   0.11978   1.16481
  -1.48687  -0.11964   0.92539
  -1.48687   0.11978   0.68597
  -1.24745   0.11978   0.68597
  -1.48687   0.11978   0.44655
  -1.00803  -0.11964   0.44655
  -0.76861  -0.11964   0.20713
  -0.52919  -0.11964   0.20713
  -0.52919  -0.11964  -0.27171
  -0.52919  -0.11964  -0.27171
  -0.28977  -0.35906  -0.27171
  -0.28977  -0.35906  -0.51113
  -0.05035  -0.35906  -0.75055
   0.18907  -0.35906  -0.51113
   0.18907  -0.59848  -0.75055
   0.42849  -0.59848  -0.75055
   0.42849  -0.59848  -0.98997
   0.42849  -0.59848  -0.98997
   0.66791  -0.83790  -0.98997
   0.66791  -0.35906  -0.98997
   1.14676  -0.83790  -0.98997
   0.90733  -0.83790  -1.22939
   1.14676  -0.35906  -0.98997
   1.14676  -0.59848  -0.98997
   1.14676  -0.35906  -0.98997
   1.38618  -0.35906  -0.98997
   1.38618  -0.35906  -0.98997
   1.62560  -0.59848  -0.98997
   1.38618  -0.11964  -0.75055
   1.86502  -0.11964  -0.75055
   1.62560   0.11978  -0.75055
   1.38618   0.11978  -0.75055
   1.38618   0.11978  -0.75055
   1.62560   0.11978  -0.75055
