********************************************************************************
              CENTRO DE INSTRUMENTACION Y REGISTRO SISMICO  A.C.

    Anaxagoras 814, Col. Narvarte, Benito Juarez, C.P. 03020 Mexico, D.F.
           Tels. 5687 45 42/ 5687 45  82             Fax. 5669 25 12
********************************************************************************
ARCHIVO ESTANDAR DE ACELERACION:
VERSION DEL FORMATO                    : 2.0
NOMBRE DEL ARCHIVO                     : AU1120090327084816
FECHA Y HORA DE CREACION               : 29/JUL/14, 18:16
REF. CATALOGO ACELEROGRAMAS, SMIS 1996 : REGISTRO No.     /PAG.


================================================================================
DATOS DE LA ESTACION:
NOMBRE DE LA ESTACION                  : AUTÓDROMO
CLAVE DE LA ESTACION                   : AU11
LOCALIZACION DE LA ESTACION            : Del. Iztacalco, Cd. Deportiva          
                                       : Magdalena Mixhuca,                     
                                       : Col. Granjas México                    
                                       :                                        
                                       : 
COORDENADAS DE LA ESTACION             : 19.3919 LAT. N
                                       : 99.0869 LONG. W
ALTITUD (msnm)                         : 2234
TIPO DE SUELO                          : Terreno blando, material compresible
                                       : (arcillas)                
                                       : 
INSTITUCION RESPONSABLE                : CIRES
                                       : 

================================================================================
DATOS DEL ACELEROGRAFO:
MODELO DEL ACELEROGRAFO                : RADESD
NUMERO DE SERIE DEL ACELEROGRAFO       : 157
NUMERO DE CANALES                      : 3
ORIENTACION C1-C6 (rumbo;orientacion)  : /S00E/+V/N90W
ORIENTACION C7-C12 (rumbo;orientacion) : 
VEL. DE MUESTREO, C1-C6 (muestras/s)   : /100/100/100
VEL. DE MUESTREO, C7-C12 (muestras/s)  : 
ESC. COMPLETA DE SENSORES, C1-C6, (g)  : /0.5/0.5/0.5
ESC. COMPLETA DE SENSORES, C7-C12, (g) : 
FREC. NAT. DE SENSORES, C1-C6, (Hz)    : /51.77/52.56/52.29
FREC. NAT. DE SENSORES, C7-C12, (Hz)   : 
AMORTIGUAMIENTO DE SENSORES, C1-C6     : /0.5912/0.6083/0.6067
AMORTIGUAMIENTO DE SENSORES, C7-C12    : 
INTERVALO DE MUESTREO, C1-C6, (s)      : /0.01/0.01/0.01
INTERVALO DE MUESTREO, C7-C12, (s)     : 
UMBRAL DE DISPARO, C1-C6, (Gal)        : /0.72/1.92/0.72
UMBRAL DE DISPARO, C7-C12, (Gal)       : 
MEMORIA DE PREEVENTO (s)               : 56.0
TIEMPO DE POSEVENTO (s)                : 30.0


================================================================================
DATOS DEL SISMO:
FECHA DEL SISMO (GMT)                  : 27/MAR/09
HORA EPICENTRO (GMT)                   : 08:48:16.0
MAGNITUD(ES)                           : /Mc=5.3
COORDENADAS DEL EPICENTRO              : 17.35 LAT. N
                                       : 100.82 LONG. W
PROFUNDIDAD FOCAL (km)                 : 30
FUENTE DE LOS DATOS EPICENTRALES       : SSN
                                       : INSTITUTO DE GEOFISICA, UNAM

================================================================================
DATOS DE ESTE REGISTRO:
HORA DE LA PRIMERA MUESTRA (GMT)       : 08:49:38.00
EXACTITUD DEL TIEMPO (s)               : 0.01
DURACION DEL REGISTRO (s), C1-C6       : /120.0/120.0/120.0
DURACION DEL REGISTRO (s), C7-C12      : 
NUM. TOTAL DE MUESTRAS, C1-C6          : /12000/12000/12000
NUM. TOTAL DE MUESTRAS, C7-C12         : 
ACEL. MAX. (Gal), C1-C6                : /1.93216/0.72762/1.2072
ACEL. MAX., C1-C6, EN LA MUESTRA       : /7070/3161/5892
ACEL. MAX. (Gal), C7-C12               : 
ACEL. MAX., C7-C12, EN LA MUESTRA      : 
UNIDADES DE LOS DATOS                  : Gal (cm/s/s)
FACTOR DE DECIMACION                   : 1
FORMATO DATOS (FORTRAN,10 campos/dato) : 3F10.5


================================================================================
CALIDAD DEL ACELEROGRAMA:
REGISTRO DIGITAL COMPLETO CON TIEMPO ABSOLUTO CORRECTO.


================================================================================
COMENTARIOS:














================================================================================
DATOS DE ACELERACION:
---------+---------+---------+---------+---------+---------+---------+---------+
   CANAL-1   CANAL-2   CANAL-3   CANAL-4   CANAL-5   CANAL-6   CANAL-7   CANAL-8
      S00E        +V      N90W
---------+---------+---------+---------+---------+---------+---------+---------+
[...]
   0.46204  -0.24878   0.72836
   0.46204   0.23006   0.72836
   0.46204  -0.00936   0.48894
   0.46204  -0.00936   0.48894
   0.22262  -0.00936   0.48894
  -0.01680  -0.00936   0.24952
   0.22262  -0.00936   0.24952
  -0.01680  -0.00936   0.24952
  -0.01680   0.23006   0.24952
  -0.01680  -0.00936   0.24952
  -0.01680  -0.00936   0.01010
   0.46204  -0.00936   0.01010
  -0.01680  -0.00936   0.01010
  -0.01680  -0.00936   0.01010
   0.22262  -0.00936   0.01010
   0.22262  -0.00936  -0.22932
   0.22262  -0.00936   0.01010
  -0.01680  -0.00936  -0.22932
   0.22262  -0.00936  -0.22932
   0.22262  -0.24878  -0.46874
   0.46204  -0.00936  -0.46874
   0.46204  -0.00936  -0.46874
   0.22262  -0.24878  -0.46874
   0.22262  -0.00936  -0.22932
   0.22262  -0.00936  -0.22932
   0.22262  -0.24878  -0.22932
   0.22262  -0.00936  -0.22932
  -0.01680  -0.00936  -0.46874
  -0.01680  -0.00936  -0.22932
  -0.25622  -0.00936  -0.22932
  -0.25622  -0.00936  -0.22932
  -0.25622   0.23006   0.01010
  -0.49564  -0.00936  -0.22932
  -0.49564  -0.00936   0.01010
  -0.49564   0.23006  -0.22932
  -0.49564   0.23006  -0.22932
  -0.73506   0.23006   0.01010
  -0.73506   0.23006   0.01010
  -0.97448   0.23006   0.01010
  -0.73506   0.23006   0.01010
  -0.73506   0.46948  -0.22932
  -0.97448   0.46948  -0.22932
  -0.97448   0.23006  -0.22932
  -0.73506   0.23006  -0.22932
  -0.73506   0.23006  -0.22932
  -0.73506   0.23006  -0.22932
  -0.73506   0.46948  -0.22932
  -0.97448   0.23006  -0.46874
  -0.73506   0.23006  -0.22932
  -0.73506   0.23006  -0.22932
  -0.73506   0.46948  -0.46874
  -0.73506   0.23006  -0.46874
  -0.73506   0.23006  -0.46874
  -0.73506   0.23006  -0.46874
  -0.73506  -0.24878  -0.46874
  -0.73506   0.23006  -0.46874
  -0.73506   0.23006  -0.70816
  -0.73506   0.46948  -0.70816
  -0.73506   0.23006  -0.70816
  -0.73506   0.46948  -0.94759
  -0.73506   0.23006  -0.94759
  -0.73506   0.23006  -0.94759
  -0.73506   0.23006  -0.94759
  -0.73506   0.23006  -0.70816
  -0.97448  -0.00936  -0.94759
  -0.97448   0.23006  -0.70816
  -0.97448   0.23006  -0.70816
  -1.21390  -0.00936  -0.70816
  -0.97448  -0.00936  -0.70816
  -1.21390  -0.24878  -0.46874
  -0.97448  -0.00936  -0.46874
  -1.21390  -0.00936  -0.46874
  -1.21390  -0.24878  -0.22932
  -1.21390  -0.24878  -0.22932
  -1.21390  -0.24878  -0.22932
  -1.21390  -0.24878   0.01010
  -1.21390  -0.24878   0.01010
  -1.21390  -0.24878   0.01010
  -0.97448  -0.24878   0.01010
  -0.97448  -0.24878   0.24952
  -0.97448  -0.24878   0.24952
  -0.97448  -0.24878   0.01010
  -0.97448  -0.24878   0.24952
  -0.97448  -0.24878   0.24952
  -0.97448  -0.24878   0.24952
  -0.73506  -0.24878   0.24952
  -0.73506  -0.24878   0.24952
  -0.49564  -0.24878   0.24952
  -0.49564  -0.24878   0.24952
  -0.73506  -0.24878   0.24952
  -0.49564  -0.00936   0.24952
  -0.49564  -0.24878   0.24952
  -0.25622  -0.24878   0.01010
  -0.25622  -0.24878   0.01010
  -0.01680  -0.24878   0.01010
  -0.01680  -0.00936   0.24952
  -0.01680  -0.00936   0.01010
  -0.01680   0.23006   0.01010
   0.22262   0.23006   0.01010
   0.22262   0.23006   0.01010
   0.22262   0.23006  -0.22932
   0.22262   0.23006   0.01010
   0.22262  -0.00936   0.01010
   0.22262  -0.00936   0.01010
   0.46204  -0.00936   0.01010
   0.22262   0.23006   0.01010
   0.22262  -0.00936   0.01010
   0.22262  -0.00936   0.01010
   0.22262  -0.00936   0.01010
   0.22262  -0.00936   0.01010
   0.22262  -0.00936   0.24952
  -0.01680  -0.24878   0.01010
   0.22262  -0.24878   0.24952
   0.22262  -0.24878   0.24952
   0.22262  -0.00936   0.24952
   0.22262  -0.24878   0.24952
   0.22262  -0.24878   0.24952
   0.22262  -0.00936   0.24952
   0.22262  -0.00936   0.24952
  -0.01680  -0.00936   0.48894
   0.22262  -0.24878   0.24952
   0.22262  -0.24878   0.24952
   0.46204  -0.00936   0.24952
   0.22262  -0.00936   0.48894
   0.46204  -0.00936   0.24952
   0.46204  -0.00936   0.48894
   0.46204  -0.00936   0.48894
   0.46204   0.23006   0.48894
   0.46204  -0.00936   0.48894
   0.70146  -0.00936   0.24952
   0.46204  -0.00936   0.24952
   0.70146   0.23006   0.48894
   0.94088  -0.00936   0.48894
   0.94088  -0.00936   0.48894
   0.94088  -0.00936   0.48894
   1.18030  -0.00936   0.48894
   1.18030   0.23006   0.24952
   1.18030  -0.00936   0.48894
   1.18030   0.23006   0.48894
   1.18030   0.23006   0.48894
   1.18030  -0.00936   0.48894
   1.18030   0.23006   0.24952
   1.41972  -0.00936   0.24952
   1.41972   0.23006   0.24952
   1.41972  -0.00936   0.24952
   1.41972   0.23006   0.24952
   1.41972   0.23006   0.24952
   1.41972  -0.00936   0.24952
   1.41972  -0.00936   0.24952
   1.41972  -0.00936   0.01010
   1.41972  -0.00936   0.01010
   1.65914  -0.24878   0.01010
   1.41972  -0.24878   0.01010
   1.41972  -0.24878   0.01010
   1.65914  -0.24878   0.01010
   1.41972  -0.24878   0.01010
   1.41972  -0.24878   0.01010
   1.41972  -0.24878   0.01010
   1.41972  -0.24878   0.01010
   1.41972  -0.00936   0.01010
   1.41972  -0.00936   0.01010
   1.18030  -0.00936  -0.22932
   1.18030  -0.00936  -0.22932
   1.18030  -0.00936  -0.22932
   0.94088  -0.24878  -0.46874
   0.94088  -0.24878  -0.46874
   0.94088  -0.24878  -0.46874
   0.70146  -0.24878  -0.46874
   0.70146  -0.24878  -0.46874
   0.70146  -0.24878  -0.70816
   0.46204  -0.24878  -0.46874
   0.46204  -0.24878  -0.46874
   0.46204  -0.00936  -0.70816
   0.22262  -0.24878  -0.46874
   0.22262  -0.00936  -0.70816
   0.22262  -0.00936  -0.46874
   0.22262  -0.00936  -0.46874
  -0.01680  -0.00936  -0.46874
  -0.25622  -0.00936  -0.46874
  -0.25622  -0.00936  -0.46874
  -0.25622  -0.00936  -0.46874
  -0.49564  -0.00936  -0.46874
  -0.25622   0.23006  -0.46874
  -0.49564   0.23006  -0.46874
  -0.49564  -0.00936  -0.46874
  -0.49564  -0.00936  -0.46874
  -0.73506  -0.00936  -0.22932
  -0.73506  -0.00936  -0.22932
  -0.73506  -0.00936  -0.22932
  -0.73506  -0.00936   0.01010
  -0.73506  -0.00936  -0.22932
  -0.97448  -0.00936   0.01010
  -0.97448  -0.00936   0.01010
  -0.97448  -0.00936   0.01010
  -0.97448  -0.00936   0.01010
  -1.21390  -0.00936   0.01010
  -1.21390  -0.00936   0.24952
  -1.45332  -0.00936   0.01010
  -1.45332  -0.00936   0.01010
  -1.45332  -0.24878   0.01010
  -1.45332  -0.00936   0.01010
  -1.69274  -0.00936   0.01010
  -1.45332  -0.00936   0.01010
  -1.45332  -0.00936  -0.22932
  -1.45332  -0.00936  -0.22932
  -1.45332  -0.00936  -0.22932
  -1.45332  -0.00936  -0.46874
  -1.21390  -0.00936  -0.46874
  -1.21390  -0.00936  -0.70816
  -1.21390  -0.00936  -0.70816
  -0.97448  -0.24878  -0.94759
  -0.97448  -0.00936  -0.94759
  -1.21390   0.23006  -0.94759
  -0.97448  -0.00936  -0.94759
  -0.97448  -0.00936  -1.18701
  -0.73506  -0.00936  -1.18701
  -0.97448  -0.00936  -1.18701
  -0.73506  -0.00936  -1.18701
  -0.73506   0.23006  -1.18701
  -0.49564  -0.00936  -1.18701
  -0.49564  -0.00936  -1.18701
  -0.49564  -0.00936  -1.18701
  -0.49564  -0.00936  -0.94759
  -0.49564  -0.00936  -0.94759
  -0.49564  -0.00936  -0.94759
  -0.49564  -0.00936  -0.70816
  -0.25622  -0.00936  -0.70816
  -0.25622  -0.00936  -0.70816
  -0.25622  -0.00936  -0.46874
  -0.25622  -0.00936  -0.46874
  -0.25622  -0.00936  -0.46874
  -0.25622  -0.00936  -0.22932
  -0.25622  -0.00936  -0.46874
  -0.25622  -0.00936   0.01010
  -0.25622  -0.00936  -0.22932
  -0.25622  -0.00936   0.01010
  -0.01680  -0.00936   0.01010
  -0.25622  -0.00936   0.01010
  -0.01680  -0.00936   0.24952
  -0.01680  -0.00936   0.24952
  -0.01680  -0.00936   0.24952
  -0.01680  -0.00936   0.24952
  -0.01680  -0.00936   0.24952
  -0.01680  -0.00936   0.24952
   0.46204  -0.00936   0.48894
   0.22262   0.23006   0.24952
   0.46204  -0.00936   0.24952
   0.46204   0.23006   0.24952
   0.46204   0.23006   0.24952
   0.46204   0.23006   0.24952
   0.70146   0.23006   0.24952
   0.70146  -0.00936   0.01010
   0.70146   0.23006   0.01010
   0.70146  -0.00936   0.01010
   0.46204  -0.00936  -0.22932
   0.70146  -0.00936  -0.22932
   0.70146  -0.00936  -0.46874
   0.46204  -0.00936  -0.22932
   0.46204  -0.00936  -0.46874
   0.46204  -0.00936  -0.46874
   0.46204  -0.00936  -0.46874
   0.46204   0.23006  -0.22932
   0.46204  -0.00936  -0.46874
   0.46204   0.23006  -0.22932
   0.46204  -0.00936  -0.22932
   0.46204  -0.00936  -0.22932
   0.46204  -0.00936   0.01010
   0.46204   0.23006   0.01010
   0.46204   0.23006   0.01010
   0.46204   0.23006   0.24952
   0.70146   0.23006   0.24952
   0.70146  -0.24878   0.24952
   0.70146  -0.00936   0.24952
   0.94088  -0.00936   0.48894
   0.94088   0.23006   0.48894
   0.94088  -0.00936   0.48894
   0.94088   0.23006   0.48894
   0.94088  -0.00936   0.48894
   0.94088   0.23006   0.48894
   1.18030   0.23006   0.72836
   0.94088  -0.00936   0.48894
   1.18030   0.23006   0.48894
   1.18030   0.23006   0.48894
   1.18030  -0.00936   0.48894
   1.18030   0.23006   0.48894
   1.18030   0.23006   0.48894
   1.41972   0.23006   0.48894
   1.18030  -0.00936   0.24952
   1.18030  -0.00936   0.24952
   1.18030  -0.00936   0.24952
   1.18030  -0.00936   0.24952
   1.18030  -0.00936   0.24952
   1.18030  -0.00936   0.01010
   0.94088  -0.00936   0.24952
   0.94088  -0.00936   0.01010
   0.94088  -0.00936   0.01010
   0.94088  -0.00936   0.01010
   0.94088  -0.00936   0.01010
   0.94088  -0.00936  -0.22932
   0.70146  -0.00936  -0.22932
   0.94088  -0.00936  -0.22932
   0.70146  -0.00936  -0.22932
   0.70146  -0.00936  -0.22932
   0.70146  -0.24878  -0.22932
   0.46204  -0.24878   0.01010
   0.70146  -0.00936   0.01010
   0.70146  -0.24878   0.01010
   0.46204  -0.24878   0.01010
   0.46204  -0.00936   0.01010
   0.70146  -0.00936   0.01010
   0.70146  -0.24878   0.24952
   0.46204  -0.00936   0.24952
   0.46204  -0.00936   0.24952
   0.46204  -0.00936   0.48894
   0.46204  -0.00936   0.24952
   0.46204  -0.00936   0.24952
   0.22262  -0.00936   0.48894
   0.22262  -0.00936   0.48894
   0.22262  -0.00936   0.48894
   0.22262  -0.00936   0.48894
   0.22262  -0.00936   0.48894
  -0.01680  -0.00936   0.72836
  -0.25622  -0.00936   0.48894
  -0.25622  -0.00936   0.72836
  -0.25622  -0.00936   0.48894
  -0.49564  -0.00936   0.48894
  -0.49564  -0.00936   0.48894
  -0.73506  -0.00936   0.48894
  -0.73506  -0.00936   0.48894
  -0.97448  -0.00936   0.48894
  -0.97448  -0.00936   0.48894
  -0.97448  -0.00936   0.48894
  -0.97448  -0.00936   0.48894
  -0.97448  -0.00936   0.48894
  -0.97448  -0.00936   0.48894
  -1.21390  -0.00936   0.24952
  -1.21390  -0.00936   0.24952
  -1.21390  -0.00936   0.48894
  -1.21390  -0.00936   0.24952
  -1.45332  -0.00936   0.24952
  -1.21390  -0.24878   0.24952
  -1.21390  -0.00936   0.24952
  -1.45332  -0.24878   0.24952
  -1.45332  -0.00936   0.24952
  -1.69274  -0.24878   0.24952
  -1.69274  -0.24878   0.24952
  -1.93216  -0.24878   0.48894
  -1.69274  -0.00936   0.48894
  -1.93216  -0.24878   0.72836
  -1.69274  -0.00936   0.48894
  -1.69274  -0.24878   0.48894
  -1.69274  -0.24878   0.72836
  -1.93216  -0.24878   0.48894
  -1.69274  -0.00936   0.72836
  -1.69274  -0.00936   0.72836
  -1.69274   0.23006   0.72836
  -1.69274  -0.00936   0.72836
  -1.69274   0.23006   0.72836
  -1.69274   0.23006   0.48894
  -1.45332  -0.00936   0.48894
  -1.93216   0.23006   0.48894
  -1.45332   0.23006   0.48894
  -1.45332   0.23006   0.24952
  -0.97448  -0.00936   0.48894
  -1.21390   0.23006   0.24952
  -0.97448  -0.00936   0.01010
  -0.97448   0.23006   0.24952
  -0.73506   0.23006   0.24952
  -0.97448   0.23006   0.24952
  -0.73506   0.23006   0.24952
  -0.73506   0.23006   0.24952
  -0.73506   0.46948   0.01010
  -0.73506   0.23006   0.24952
  -0.49564   0.23006   0.24952
  -0.49564  -0.00936   0.01010
  -0.49564   0.23006   0.01010
  -0.49564   0.23006   0.24952
  -0.49564   0.23006   0.01010
  -0.49564  -0.00936   0.01010
  -0.49564   0.23006   0.01010
  -0.49564  -0.00936   0.24952
  -0.49564  -0.00936   0.01010
  -0.49564  -0.00936   0.24952
  -0.49564  -0.00936   0.01010
  -0.49564  -0.00936   0.24952
  -0.25622  -0.00936   0.01010
  -0.49564  -0.00936   0.24952
  -0.25622  -0.00936   0.24952
  -0.49564  -0.00936   0.24952
  -0.25622  -0.00936   0.24952
  -0.25622  -0.00936   0.24952
  -0.25622  -0.00936   0.24952
  -0.01680  -0.00936   0.24952
   0.22262  -0.00936   0.24952
  -0.01680  -0.00936   0.24952
   0.22262  -0.00936   0.24952
   0.22262  -0.00936   0.24952
   0.46204  -0.00936   0.24952
   0.70146  -0.00936   0.01010
   0.46204  -0.00936   0.01010
   0.70146  -0.00936   0.01010
   0.70146  -0.00936   0.24952
   0.70146  -0.00936   0.01010
   0.94088   0.23006   0.01010
   0.94088  -0.00936   0.01010
   0.94088   0.23006   0.01010
   0.94088  -0.00936   0.01010
   0.94088  -0.00936  -0.22932
   0.94088  -0.00936  -0.22932
   1.18030  -0.00936  -0.22932
   1.18030  -0.00936  -0.46874
   1.18030  -0.00936  -0.46874
   1.18030  -0.00936  -0.22932
   1.18030  -0.00936  -0.22932
   1.18030  -0.00936  -0.22932
   1.18030  -0.24878  -0.22932
   1.18030  -0.24878  -0.22932
   1.18030  -0.00936  -0.22932
   1.18030  -0.00936  -0.22932
   1.18030  -0.24878   0.01010
   1.18030  -0.24878   0.01010
   1.18030  -0.24878   0.01010
   1.18030  -0.24878   0.01010
   1.18030  -0.24878   0.01010
   1.18030  -0.00936   0.24952
   1.18030  -0.00936   0.24952
   1.18030  -0.24878   0.24952
   1.18030  -0.24878   0.24952
   0.94088  -0.24878   0.24952
   0.94088  -0.24878   0.24952
   0.94088  -0.24878   0.48894
   0.94088  -0.24878   0.24952
   0.70146  -0.24878   0.48894
   0.70146  -0.24878   0.48894
   0.70146  -0.00936   0.48894
   0.70146  -0.00936   0.48894
   0.46204  -0.00936   0.48894
   0.46204  -0.00936   0.48894
   0.46204  -0.00936   0.48894
   0.46204  -0.00936   0.24952
   0.22262  -0.00936   0.48894
   0.22262  -0.00936   0.48894
  -0.01680  -0.00936   0.48894
  -0.01680  -0.00936   0.24952
  -0.01680  -0.00936   0.48894
  -0.01680   0.23006   0.24952
  -0.25622  -0.00936   0.24952
  -0.01680  -0.00936   0.24952
  -0.25622   0.23006   0.24952
  -0.25622  -0.00936   0.01010
  -0.25622   0.23006   0.01010
  -0.25622   0.23006   0.01010
  -0.25622  -0.00936  -0.22932
  -0.25622  -0.00936  -0.22932
  -0.49564   0.23006  -0.22932
  -0.25622  -0.00936  -0.22932
  -0.49564  -0.00936  -0.22932
  -0.25622  -0.00936  -0.22932
  -0.49564  -0.00936  -0.22932
  -0.25622  -0.00936  -0.22932
  -0.25622  -0.00936  -0.22932
  -0.25622  -0.00936  -0.22932
  -0.25622  -0.00936  -0.22932
  -0.01680  -0.00936  -0.22932
  -0.01680  -0.00936  -0.22932
  -0.01680  -0.00936   0.01010
  -0.01680  -0.00936  -0.22932
  -0.01680  -0.00936   0.01010
   0.22262  -0.00936   0.01010
  -0.01680  -0.00936   0.01010
  -0.01680  -0.00936   0.01010
  -0.01680  -0.00936   0.01010
  -0.01680  -0.00936   0.01010
  -0.01680  -0.00936   0.01010
  -0.01680  -0.00936   0.01010
  -0.01680  -0.00936   0.01010
  -0.01680  -0.00936   0.01010
  -0.01680  -0.00936  -0.22932
  -0.01680   0.23006  -0.22932
  -0.01680  -0.00936  -0.22932
  -0.01680  -0.00936  -0.22932
  -0.25622  -0.00936  -0.22932
  -0.25622  -0.00936  -0.22932
  -0.25622  -0.00936  -0.22932
  -0.25622   0.23006  -0.22932
  -0.25622  -0.00936  -0.46874
  -0.25622  -0.00936  -0.70816
  -0.25622  -0.00936  -0.46874
  -0.49564  -0.00936  -0.70816
  -0.49564  -0.00936  -0.46874
  -0.73506  -0.00936  -0.46874
  -0.73506  -0.00936  -0.46874
  -0.73506  -0.00936  -0.46874
  -0.73506  -0.24878  -0.46874
  -0.97448  -0.00936  -0.46874
  -0.97448  -0.00936  -0.46874
