********************************************************************************
               CENTRO DE INSTRUMENTACION Y REGISTRO SISMICO  A.C.  
                       Coordinacion de Servicios Tecnicos
     Anaxagoras 814, Col. Narvarte, Benito Juarez, C.P. 03020 Mexico, D.F.
            Tels. 667 45 42/ 687 45  82             Fax. 669 25 12
********************************************************************************
ARCHIVO ESTANDAR DE ACELERACION:
VERSION DEL FORMATO                    : 2.0
NOMBRE DEL ARCHIVO                     : AU119407.041
FECHA Y HORA DE CREACION               : 13 de febrero de 1996/19:10
REF. CATALOGO ACELEROGRAMAS, SMIS 1995 : REGISTRO No.     /PAG.


================================================================================
DATOS DE LA ESTACION:
NOMBRE DE LA ESTACION                  : AUTODROMO
CLAVE DE LA ESTACION                   : AU11
LOCALIZACION DE LA ESTACION            : AUTODROMO HERMANOS RODRIGUEZ,
                                       : CHURUBUSCO, CD. DEPORTIVA
                                       :
                                       :
                                       :
COORDENADAS DE LA ESTACION             : 19.392 LAT. N 
                                       : 99.087 LONG. W 
ALTITUD (msnm)                         : 2234
TIPO DE SUELO                          : TERRENO BLANDO, MATERIAL COMPRESIBLE
                                       : (ARCILLAS)
                                       : 
INSTITUCION RESPONSABLE                : CIRES 
                                       :

================================================================================
DATOS DEL ACELEROGRAFO:
MODELO DEL ACELEROGRAFO                : SSA-1
NUMERO DE SERIE DEL ACELEROGRAFO       : 157
NUMERO DE CANALES                      : 3
ORIENTACION C1-C6 (rumbo;orientacion)  : /N00E/+V/N90E
ORIENTACION C7-C12 (rumbo;orientacion) :
VEL. DE MUESTREO, C1-C6 (muestras/s)   : /200/200/200
VEL. DE MUESTREO, C7-C12 (muestras/s)  :
ESC. COMPLETA DE SENSORES, C1-C6, (g)  : /2/2/2
ESC. COMPLETA DE SENSORES, C7-C12, (g) :
FREC. NAT. DE SENSORES, C1-C6, (Hz)    : /50/50/50
FREC. NAT. DE SENSORES, C7-C12, (Hz)   :
AMORTIGUAMIENTO DE SENSORES, C1-C6     : /0.700/0.700/0.700
AMORTIGUAMIENTO DE SENSORES, C7-C12    :
INTERVALO DE MUESTREO, C1-C6, (s)      : /0.005/0.005/0.005
INTERVALO DE MUESTREO, C7-C12, (s)     :
UMBRAL DE DISPARO, C1-C6, (Gal)        : /1/1/1
UMBRAL DE DISPARO, C7-C12, (Gal)       :
MEMORIA DE PREEVENTO (s)               : 15
TIEMPO DE POSEVENTO (s)                : 90


================================================================================
DATOS DEL SISMO:
FECHA DEL SISMO (GMT)                  : 04/JUL/94
HORA EPICENTRO (GMT)                   : 21:36:43,8
MAGNITUD(ES)                           : /Mc=5.90
COORDENADAS DEL EPICENTRO              : 14.830 LAT. N 
                                       : 97.290 LONG. W 
PROFUNDIDAD FOCAL (km)                 : 31 
FUENTE DE LOS DATOS EPICENTRALES       : SSN
                                       : INSTITUTO DE GEOFISICA, UNAM

================================================================================
DATOS DE ESTE REGISTRO:
HORA DE LA PRIMERA MUESTRA (GMT)       : 21:39:00.00
EXACTITUD DEL TIEMPO (s)               :     
DURACION DEL REGISTRO (s), C1-C6       : /120.32/120.32/120.32
DURACION DEL REGISTRO (s), C7-C12      :
NUM. TOTAL DE MUESTRAS, C1-C6          : /24064/24064/24064
NUM. TOTAL DE MUESTRAS, C7-C12         :
ACEL. MAX. (Gal), C1-C6                : /1.72986/0.76053/1.28094
ACEL. MAX., C1-C6, EN LA MUESTRA       :
ACEL. MAX. (Gal), C7-C12               :
ACEL. MAX., C7-C12, EN LA MUESTRA      :
UNIDADES DE LOS DATOS                  : Gal (cm/s/s)
FACTOR DE DECIMACION                   : 1
FORMATO DATOS (FORTRAN,10 campos/dato) : 3F10.5


================================================================================
CALIDAD DEL ACELEROGRAMA:
REGISTRO DIGITAL COMPLETO, CARECE DE TIEMPO ABSOLUTO.


================================================================================
COMENTARIOS: 
             El equipo se encontraba con ganancias de 4 en todos los ejes, 
             por lo que las escalas completas eran de 1/2 g.












================================================================================
DATOS DE ACELERACION:
---------+---------+---------+---------+---------+---------+---------+---------+
   CANAL-1   CANAL-2   CANAL-3   CANAL-4   CANAL-5   CANAL-6   CANAL-7   CANAL-8
      N00E        +V      N90E
---------+---------+---------+---------+---------+---------+---------+---------+
[...]
   0.04986  -0.04053  -0.09094
   0.04986  -0.04053  -0.09094
   0.04986  -0.04053  -0.09094
   0.04986  -0.04053   0.14906
   0.04986  -0.04053   0.14906
   0.04986  -0.04053   0.14906
   0.04986  -0.04053   0.14906
   0.04986  -0.04053   0.14906
   0.04986  -0.04053   0.14906
   0.04986  -0.04053   0.14906
   0.04986  -0.04053   0.14906
   0.04986  -0.04053   0.14906
  -0.19014  -0.04053  -0.33094
  -0.19014  -0.04053   0.14906
  -0.19014  -0.04053   0.14906
   0.04986  -0.04053   0.14906
  -0.19014  -0.04053   0.14906
  -0.19014  -0.04053   0.14906
  -0.19014  -0.04053   0.14906
  -0.19014  -0.04053   0.14906
  -0.19014  -0.04053   0.14906
  -0.19014  -0.04053   0.14906
   0.04986  -0.04053   0.14906
   0.04986  -0.04053   0.14906
  -0.19014  -0.04053   0.14906
  -0.19014  -0.04053   0.14906
  -0.19014  -0.04053   0.14906
  -0.19014  -0.04053   0.14906
  -0.19014  -0.04053   0.14906
  -0.19014  -0.04053   0.14906
  -0.19014  -0.04053   0.14906
  -0.19014  -0.04053  -0.09094
  -0.19014  -0.04053   0.14906
   0.04986  -0.04053   0.38906
  -0.19014  -0.04053   0.14906
  -0.19014  -0.04053   0.14906
   0.04986  -0.04053   0.38906
   0.04986  -0.04053   0.14906
   0.04986  -0.04053   0.14906
   0.04986  -0.04053   0.38906
  -0.19014  -0.04053   0.38906
   0.04986  -0.04053   0.38906
  -0.19014  -0.04053   0.14906
   0.04986  -0.04053   0.38906
  -0.19014  -0.04053   0.14906
  -0.19014  -0.04053   0.38906
   0.04986  -0.04053   0.14906
  -0.19014  -0.04053   0.14906
  -0.19014  -0.04053   0.14906
   0.04986   0.19947   0.14906
   0.04986   0.19947   0.14906
   0.04986   0.19947   0.14906
   0.04986   0.19947   0.14906
   0.04986   0.19947   0.14906
   0.04986   0.19947   0.14906
   0.04986   0.19947   0.14906
   0.04986   0.19947   0.14906
   0.04986   0.19947  -0.09094
   0.04986   0.19947  -0.09094
   0.04986   0.19947  -0.09094
   0.04986   0.19947  -0.09094
   0.04986   0.19947  -0.09094
   0.04986  -0.04053  -0.09094
   0.04986   0.19947  -0.09094
   0.04986   0.19947  -0.09094
   0.04986  -0.04053  -0.09094
   0.04986   0.19947  -0.09094
   0.04986   0.19947  -0.09094
   0.04986   0.19947  -0.09094
   0.04986   0.19947  -0.09094
   0.04986   0.19947  -0.33094
   0.04986   0.19947  -0.33094
   0.04986   0.19947  -0.33094
   0.04986   0.19947  -0.33094
   0.04986   0.19947  -0.33094
   0.28986   0.19947  -0.33094
   0.28986   0.19947  -0.33094
   0.28986  -0.04053  -0.33094
   0.28986   0.19947  -0.33094
   0.04986   0.19947  -0.33094
   0.04986   0.19947  -0.33094
   0.04986   0.19947  -0.33094
   0.28986   0.19947  -0.33094
   0.04986   0.19947  -0.57094
   0.04986   0.19947  -0.57094
   0.04986   0.19947  -0.33094
   0.28986  -0.04053  -0.57094
   0.28986  -0.04053  -0.57094
   0.28986  -0.04053  -0.57094
   0.28986  -0.04053  -0.57094
   0.28986   0.19947  -0.57094
   0.28986   0.19947  -0.57094
   0.28986   0.19947  -0.57094
   0.28986  -0.04053  -0.57094
   0.28986  -0.04053  -0.57094
   0.28986  -0.04053  -0.57094
   0.28986  -0.04053  -0.57094
   0.28986  -0.04053  -0.57094
   0.28986  -0.04053  -0.81094
   0.28986  -0.04053  -0.81094
   0.28986  -0.04053  -0.81094
   0.28986  -0.04053  -0.81094
   0.28986  -0.04053  -0.81094
   0.04986  -0.04053  -0.81094
   0.28986  -0.04053  -0.81094
   0.28986  -0.04053  -0.81094
   0.28986  -0.04053  -0.81094
   0.28986  -0.04053  -0.81094
   0.28986  -0.04053  -0.81094
   0.28986  -0.04053  -0.81094
   0.28986  -0.04053  -0.81094
   0.28986  -0.28053  -0.81094
   0.28986  -0.04053  -0.81094
   0.28986  -0.04053  -0.81094
   0.28986  -0.04053  -0.81094
   0.52986  -0.04053  -0.81094
   0.52986  -0.04053  -0.81094
   0.28986  -0.04053  -0.81094
   0.52986  -0.04053  -0.81094
   0.52986  -0.04053  -0.81094
   0.28986  -0.04053  -0.81094
   0.52986  -0.04053  -0.81094
   0.52986  -0.04053  -0.81094
   0.52986  -0.04053  -0.81094
   0.52986  -0.04053  -0.81094
   0.52986  -0.04053  -0.57094
   0.52986  -0.04053  -0.57094
   0.28986  -0.28053  -0.57094
   0.28986  -0.04053  -0.57094
   0.52986  -0.04053  -0.57094
   0.28986  -0.04053  -0.57094
   0.28986  -0.04053  -0.57094
   0.28986  -0.04053  -0.57094
   0.28986  -0.04053  -0.33094
   0.28986  -0.04053  -0.33094
   0.28986  -0.04053  -0.33094
   0.28986  -0.04053  -0.33094
   0.28986  -0.04053  -0.33094
   0.28986  -0.04053  -0.33094
   0.28986  -0.04053  -0.33094
   0.28986  -0.04053  -0.33094
   0.28986  -0.04053  -0.09094
   0.28986  -0.04053  -0.33094
   0.28986  -0.04053  -0.09094
   0.28986  -0.04053  -0.09094
   0.28986  -0.04053  -0.09094
   0.28986  -0.04053  -0.09094
   0.28986  -0.04053  -0.09094
   0.28986  -0.04053  -0.09094
   0.28986  -0.04053  -0.09094
   0.28986  -0.04053  -0.09094
   0.28986  -0.04053   0.14906
   0.28986  -0.04053   0.14906
   0.28986  -0.04053   0.14906
   0.28986  -0.04053   0.14906
   0.28986  -0.04053   0.14906
   0.28986  -0.04053   0.14906
   0.28986  -0.04053   0.14906
   0.28986   0.19947   0.14906
   0.28986   0.19947   0.14906
   0.28986   0.19947   0.38906
   0.28986   0.19947   0.38906
   0.28986   0.19947   0.38906
   0.28986   0.19947   0.38906
   0.28986   0.19947   0.38906
   0.04986   0.19947   0.38906
   0.04986   0.19947   0.62906
   0.04986   0.19947   0.62906
   0.04986   0.19947   0.62906
   0.04986   0.19947   0.62906
   0.04986   0.19947   0.62906
   0.04986   0.19947   0.62906
   0.04986   0.19947   0.62906
   0.04986   0.19947   0.62906
   0.04986   0.19947   0.62906
   0.04986   0.19947   0.62906
   0.04986   0.19947   0.62906
   0.04986   0.19947   0.62906
   0.04986   0.19947   0.62906
   0.04986   0.19947   0.62906
  -0.19014   0.19947   0.62906
   0.04986   0.19947   0.62906
   0.04986   0.19947   0.62906
   0.04986   0.19947   0.62906
   0.04986   0.19947   0.62906
   0.04986   0.19947   0.62906
   0.04986   0.19947   0.62906
   0.04986   0.19947   0.62906
  -0.19014   0.19947   0.62906
  -0.19014   0.19947   0.62906
  -0.19014   0.19947   0.62906
  -0.19014   0.19947   0.62906
  -0.19014  -0.04053   0.38906
  -0.19014   0.19947   0.38906
  -0.19014   0.19947   0.38906
  -0.19014  -0.04053   0.38906
  -0.19014   0.19947   0.38906
  -0.19014  -0.04053   0.38906
  -0.19014  -0.04053   0.38906
  -0.19014   0.19947   0.14906
  -0.19014   0.19947   0.38906
  -0.19014   0.19947   0.14906
  -0.19014  -0.04053   0.38906
  -0.19014  -0.04053   0.14906
  -0.19014  -0.04053   0.14906
  -0.19014   0.19947   0.14906
  -0.19014   0.19947   0.14906
  -0.19014  -0.04053   0.14906
  -0.19014  -0.04053   0.14906
  -0.19014   0.19947   0.14906
  -0.19014  -0.04053   0.14906
  -0.19014  -0.04053   0.14906
  -0.19014  -0.04053   0.14906
  -0.19014  -0.04053   0.14906
  -0.19014  -0.04053   0.14906
  -0.19014  -0.04053   0.14906
  -0.19014  -0.04053   0.14906
  -0.19014  -0.04053   0.14906
  -0.19014  -0.04053   0.14906
  -0.19014  -0.04053   0.14906
  -0.19014  -0.04053   0.14906
  -0.19014  -0.04053   0.14906
  -0.19014  -0.04053   0.14906
  -0.19014  -0.04053   0.14906
  -0.19014  -0.04053   0.14906
  -0.19014  -0.04053   0.38906
  -0.19014  -0.04053   0.14906
  -0.19014  -0.04053   0.14906
  -0.19014  -0.04053   0.38906
  -0.19014  -0.04053   0.38906
  -0.19014  -0.04053   0.38906
  -0.19014  -0.04053   0.38906
  -0.19014  -0.04053   0.38906
  -0.19014  -0.04053   0.38906
  -0.19014  -0.04053   0.38906
   0.04986  -0.04053   0.38906
  -0.19014  -0.04053   0.38906
  -0.19014  -0.04053   0.62906
  -0.19014  -0.28053   0.38906
   0.04986  -0.04053   0.62906
   0.04986  -0.28053   0.62906
   0.04986  -0.04053   0.62906
   0.04986  -0.28053   0.62906
   0.04986  -0.28053   0.62906
   0.04986  -0.28053   0.62906
   0.04986  -0.28053   0.62906
   0.04986  -0.04053   0.62906
   0.04986  -0.28053   0.62906
   0.04986  -0.04053   0.62906
   0.04986  -0.04053   0.62906
   0.04986  -0.04053   0.62906
   0.04986  -0.04053   0.62906
   0.04986  -0.04053   0.62906
   0.04986  -0.04053   0.62906
   0.28986  -0.04053   0.62906
   0.28986  -0.04053   0.62906
   0.28986  -0.04053   0.62906
   0.28986  -0.04053   0.62906
   0.28986  -0.04053   0.62906
   0.28986  -0.04053   0.62906
   0.28986  -0.04053   0.62906
   0.28986  -0.04053   0.62906
   0.28986  -0.04053   0.62906
   0.28986  -0.04053   0.62906
   0.52986  -0.04053   0.62906
   0.52986  -0.04053   0.62906
   0.52986  -0.04053   0.62906
   0.52986  -0.04053   0.62906
   0.52986  -0.04053   0.38906
   0.52986  -0.04053   0.38906
   0.52986  -0.04053   0.38906
   0.52986  -0.04053   0.38906
   0.52986  -0.04053   0.38906
   0.52986  -0.04053   0.38906
   0.52986  -0.04053   0.38906
   0.52986  -0.04053   0.14906
   0.52986  -0.04053   0.38906
   0.52986  -0.04053   0.14906
   0.52986  -0.04053   0.14906
   0.52986  -0.04053   0.14906
   0.52986  -0.04053   0.14906
   0.52986  -0.04053   0.14906
   0.52986  -0.04053   0.14906
   0.52986  -0.04053   0.14906
   0.52986  -0.04053   0.14906
   0.52986  -0.04053   0.14906
   0.52986  -0.04053   0.14906
   0.52986  -0.04053  -0.09094
   0.28986  -0.04053  -0.09094
   0.52986  -0.04053  -0.09094
   0.52986  -0.04053  -0.09094
   0.52986  -0.04053  -0.09094
   0.52986  -0.04053  -0.09094
   0.52986  -0.04053  -0.09094
   0.52986  -0.04053  -0.33094
   0.52986  -0.04053  -0.33094
   0.52986  -0.04053  -0.33094
   0.52986  -0.04053  -0.33094
   0.52986  -0.04053  -0.33094
   0.52986  -0.04053  -0.33094
   0.28986  -0.04053  -0.33094
   0.28986  -0.04053  -0.33094
   0.28986  -0.04053  -0.33094
   0.28986  -0.04053  -0.33094
   0.28986  -0.04053  -0.33094
   0.28986   0.19947  -0.33094
   0.28986  -0.04053  -0.33094
   0.28986   0.19947  -0.33094
   0.28986   0.19947  -0.33094
   0.28986   0.19947  -0.33094
   0.04986   0.19947  -0.33094
   0.04986   0.19947  -0.33094
   0.04986  -0.04053  -0.09094
   0.04986   0.19947  -0.09094
   0.04986   0.19947  -0.33094
   0.04986   0.19947  -0.09094
  -0.19014   0.19947  -0.09094
  -0.19014   0.19947  -0.09094
  -0.19014   0.19947  -0.09094
  -0.19014   0.19947  -0.09094
  -0.19014   0.19947  -0.09094
  -0.43014   0.19947  -0.09094
  -0.43014   0.19947  -0.09094
  -0.43014   0.19947  -0.09094
  -0.43014   0.19947  -0.09094
  -0.67014   0.19947  -0.09094
  -0.67014   0.19947  -0.09094
  -0.67014   0.19947   0.14906
  -0.67014   0.19947  -0.09094
  -0.91014   0.19947  -0.09094
  -0.91014   0.19947   0.14906
  -0.91014   0.19947   0.14906
  -0.91014   0.19947   0.14906
  -0.91014   0.19947   0.14906
  -1.15014   0.19947   0.14906
  -1.15014   0.19947   0.14906
  -1.15014   0.19947   0.14906
  -1.15014   0.19947   0.14906
  -1.39014   0.19947   0.14906
  -1.39014   0.19947   0.14906
  -1.39014   0.19947   0.14906
  -1.39014   0.19947   0.14906
  -1.39014   0.19947   0.14906
  -1.39014   0.19947   0.14906
  -1.39014   0.19947   0.14906
  -1.39014   0.19947   0.14906
  -1.63014   0.19947   0.14906
  -1.63014   0.19947   0.14906
  -1.63014   0.19947   0.38906
  -1.63014   0.19947   0.38906
  -1.63014   0.19947   0.38906
  -1.63014   0.19947   0.38906
  -1.63014   0.19947   0.38906
  -1.63014   0.19947   0.38906
  -1.63014  -0.04053   0.38906
  -1.63014  -0.04053   0.38906
  -1.63014  -0.04053   0.38906
  -1.63014  -0.04053   0.38906
  -1.63014  -0.04053   0.38906
  -1.63014  -0.04053   0.38906
  -1.39014  -0.04053   0.38906
  -1.63014  -0.04053   0.38906
  -1.39014  -0.04053   0.62906
  -1.39014  -0.28053   0.38906
  -1.39014  -0.04053   0.38906
  -1.39014  -0.04053   0.38906
  -1.39014  -0.04053   0.38906
  -1.39014  -0.28053   0.38906
  -1.39014  -0.04053   0.38906
  -1.15014  -0.28053   0.38906
  -1.39014  -0.04053   0.38906
  -1.15014  -0.28053   0.38906
  -1.15014  -0.28053   0.38906
  -1.15014  -0.28053   0.38906
  -1.15014  -0.28053   0.38906
  -1.15014  -0.28053   0.38906
  -1.15014  -0.28053   0.38906
  -1.15014  -0.28053   0.38906
  -0.91014  -0.28053   0.38906
  -0.91014  -0.28053   0.38906
  -0.91014  -0.28053   0.38906
  -0.91014  -0.28053   0.38906
  -0.91014  -0.04053   0.14906
  -0.91014  -0.28053   0.38906
  -0.91014  -0.28053   0.14906
  -0.91014  -0.28053  -0.09094
  -0.67014  -0.28053   0.14906
  -0.67014  -0.28053   0.14906
  -0.67014  -0.28053   0.14906
  -0.67014  -0.04053   0.14906
  -0.67014  -0.28053   0.14906
  -0.67014  -0.28053   0.14906
  -0.67014  -0.28053   0.14906
  -0.67014  -0.28053   0.14906
  -0.43014  -0.28053   0.14906
  -0.43014  -0.28053  -0.09094
  -0.43014  -0.28053  -0.09094
  -0.43014  -0.28053  -0.09094
  -0.43014  -0.28053  -0.09094
  -0.43014  -0.28053  -0.09094
  -0.43014  -0.28053  -0.09094
  -0.43014  -0.28053  -0.09094
  -0.19014  -0.28053  -0.09094
  -0.19014  -0.28053  -0.33094
  -0.19014  -0.28053  -0.33094
  -0.19014  -0.28053  -0.33094
  -0.19014  -0.28053  -0.33094
  -0.19014  -0.28053  -0.33094
  -0.19014  -0.28053  -0.33094
   0.04986  -0.28053  -0.33094
   0.04986  -0.28053  -0.33094
   0.04986  -0.04053  -0.33094
   0.04986  -0.04053  -0.33094
   0.04986  -0.28053  -0.33094
   0.04986  -0.04053  -0.33094
   0.28986  -0.04053  -0.33094
   0.28986  -0.04053  -0.57094
   0.28986  -0.04053  -0.33094
   0.28986  -0.04053  -0.57094
   0.28986  -0.04053  -0.57094
   0.28986  -0.04053  -0.57094
   0.52986  -0.04053  -0.57094
   0.52986  -0.04053  -0.57094
   0.52986  -0.04053  -0.57094
   0.52986  -0.04053  -0.57094
   0.52986  -0.04053  -0.57094
   0.52986  -0.04053  -0.57094
   0.52986  -0.04053  -0.57094
   0.52986  -0.04053  -0.57094
   0.52986  -0.04053  -0.57094
   0.52986  -0.04053  -0.57094
   0.52986  -0.04053  -0.57094
   0.52986   0.19947  -0.57094
   0.52986  -0.04053  -0.57094
   0.52986   0.19947  -0.57094
   0.76986  -0.04053  -0.57094
   0.76986   0.19947  -0.57094
   0.76986   0.19947  -0.33094
   0.76986   0.19947  -0.33094
   0.76986   0.19947  -0.33094
   0.76986   0.19947  -0.33094
   0.76986   0.19947  -0.33094
   0.76986   0.19947  -0.33094
   0.52986   0.19947  -0.33094
   0.52986   0.19947  -0.33094
   0.52986   0.19947  -0.33094
   0.52986   0.19947  -0.09094
   0.76986   0.19947  -0.09094
   0.76986  -0.04053  -0.09094
   0.76986   0.19947  -0.09094
   0.52986   0.19947  -0.09094
   0.76986   0.19947  -0.09094
   0.76986   0.19947  -0.09094
   0.52986   0.19947   0.14906
   0.52986   0.19947   0.14906
   0.52986   0.19947   0.14906
   0.52986   0.19947   0.14906
   0.52986   0.19947   0.14906
   0.52986   0.19947   0.14906
   0.52986   0.19947   0.14906
   0.52986   0.19947   0.14906
   0.52986   0.19947   0.14906
   0.52986   0.19947   0.14906
   0.52986   0.19947   0.14906
   0.52986   0.19947   0.14906
   0.52986   0.19947   0.14906
   0.52986   0.19947  -0.09094
   0.52986   0.19947   0.14906
   0.52986   0.19947   0.14906
   0.52986   0.19947   0.14906
   0.52986   0.19947   0.14906
   0.52986   0.19947   0.14906
   0.52986  -0.04053   0.14906
   0.52986  -0.04053   0.14906
   0.52986  -0.04053   0.14906
   0.52986   0.19947   0.14906
   0.52986  -0.04053   0.14906
   0.52986  -0.04053   0.14906
   0.52986  -0.04053  -0.09094
   0.52986  -0.04053  -0.33094
   0.52986  -0.04053  -0.09094
   0.76986  -0.04053  -0.09094
   0.76986  -0.04053  -0.09094
   0.52986  -0.04053  -0.09094
   0.52986  -0.04053  -0.09094
   0.52986  -0.04053  -0.09094
   0.52986  -0.04053  -0.09094
   0.52986  -0.04053  -0.09094
   0.52986  -0.04053  -0.09094
   0.52986  -0.04053  -0.09094
   0.52986  -0.04053  -0.09094
   0.52986  -0.04053  -0.09094
   0.52986  -0.04053  -0.09094
   0.52986  -0.04053  -0.09094
   0.52986  -0.04053  -0.09094
