********************************************************************************
              CENTRO DE INSTRUMENTACION Y REGISTRO SISMICO  A.C.

    Anaxagoras 814, Col. Narvarte, Benito Juarez, C.P. 03020 Mexico, D.F.
           Tels. 5687 45 42/ 5687 45  82             Fax. 5669 25 12
********************************************************************************
ARCHIVO ESTANDAR DE ACELERACION:
VERSION DEL FORMATO                    : 2.0
NOMBRE DEL ARCHIVO                     : AU1120120413101003
FECHA Y HORA DE CREACION               : 15/MAY/12, 09:55
REF. CATALOGO ACELEROGRAMAS, SMIS 1996 : REGISTRO No.     /PAG.


================================================================================
DATOS DE LA ESTACION:
NOMBRE DE LA ESTACION                  : AUTÓDROMO
CLAVE DE LA ESTACION                   : AU11
LOCALIZACION DE LA ESTACION            : Del. Iztacalco, Cd. Deportiva          
                                       : Magdalena Mixhuca,                     
                                       : Col. Granjas México                    
                                       :                                        
                                       : 
COORDENADAS DE LA ESTACION             : 19.3919 LAT. N
                                       : 99.0869 LONG. W
ALTITUD (msnm)                         : 2234
TIPO DE SUELO                          : Terreno blando, material compresible
                                       : (arcillas)                
                                       : 
INSTITUCION RESPONSABLE                : CIRES
                                       : 

================================================================================
DATOS DEL ACELEROGRAFO:
MODELO DEL ACELEROGRAFO                : RADESD
NUMERO DE SERIE DEL ACELEROGRAFO       : 157
NUMERO DE CANALES                      : 3
ORIENTACION C1-C6 (rumbo;orientacion)  : /N00E/+V/N90W
ORIENTACION C7-C12 (rumbo;orientacion) : 
VEL. DE MUESTREO, C1-C6 (muestras/s)   : /100/100/100
VEL. DE MUESTREO, C7-C12 (muestras/s)  : 
ESC. COMPLETA DE SENSORES, C1-C6, (g)  : /0.5/0.5/0.5
ESC. COMPLETA DE SENSORES, C7-C12, (g) : 
FREC. NAT. DE SENSORES, C1-C6, (Hz)    : /51.77/52.56/52.29
FREC. NAT. DE SENSORES, C7-C12, (Hz)   : 
AMORTIGUAMIENTO DE SENSORES, C1-C6     : /0.5912/0.6083/0.6067
AMORTIGUAMIENTO DE SENSORES, C7-C12    : 
INTERVALO DE MUESTREO, C1-C6, (s)      : /0.01/0.01/0.01
INTERVALO DE MUESTREO, C7-C12, (s)     : 
UMBRAL DE DISPARO, C1-C6, (Gal)        : /0.72/1.92/0.72
UMBRAL DE DISPARO, C7-C12, (Gal)       : 
MEMORIA DE PREEVENTO (s)               : 56.0
TIEMPO DE POSEVENTO (s)                : 64.0


================================================================================
DATOS DEL SISMO:
FECHA DEL SISMO (GMT)                  : 13/ABR/12
HORA EPICENTRO (GMT)                   : 10:10:03.0
MAGNITUD(ES)                           : /Mc=5.2
COORDENADAS DEL EPICENTRO              : 16.11 LAT. N
                                       : 98.34 LONG. W
PROFUNDIDAD FOCAL (km)                 : 14
FUENTE DE LOS DATOS EPICENTRALES       : SSN
                                       : INSTITUTO DE GEOFISICA, UNAM

================================================================================
DATOS DE ESTE REGISTRO:
HORA DE LA PRIMERA MUESTRA (GMT)       : 10:11:52.00
EXACTITUD DEL TIEMPO (s)               : 0.01
DURACION DEL REGISTRO (s), C1-C6       : /199.5/199.5/199.5
DURACION DEL REGISTRO (s), C7-C12      : 
NUM. TOTAL DE MUESTRAS, C1-C6          : /19950/19950/19950
NUM. TOTAL DE MUESTRAS, C7-C12         : 
ACEL. MAX. (Gal), C1-C6                : /1.60143/0.76826/1.96392
ACEL. MAX., C1-C6, EN LA MUESTRA       : /5978/8527/5594
ACEL. MAX. (Gal), C7-C12               : 
ACEL. MAX., C7-C12, EN LA MUESTRA      : 
UNIDADES DE LOS DATOS                  : Gal (cm/s/s)
FACTOR DE DECIMACION                   : 1
FORMATO DATOS (FORTRAN,10 campos/dato) : 3F10.5


================================================================================
CALIDAD DEL ACELEROGRAMA:
REGISTRO DIGITAL COMPLETO CON TIEMPO ABSOLUTO CORRECTO.


================================================================================
COMENTARIOS:














================================================================================
DATOS DE ACELERACION:
---------+---------+---------+---------+---------+---------+---------+---------+
   CANAL-1   CANAL-2   CANAL-3   CANAL-4   CANAL-5   CANAL-6   CANAL-7   CANAL-8
      N00E        +V      N90W
---------+---------+---------+---------+---------+---------+---------+---------+
[...]
   0.16491   0.18942   0.43028
   0.16491  -0.05000   0.43028
   0.16491   0.18942   0.43028
   0.16491  -0.05000   0.43028
   0.16491  -0.05000   0.43028
  -0.07451   0.18942   0.43028
   0.40433  -0.05000   0.19086
   0.16491  -0.05000   0.43028
   0.16491  -0.05000   0.19086
   0.40433  -0.05000   0.19086
   0.16491  -0.05000   0.43028
   0.16491  -0.05000   0.19086
   0.40433  -0.28942   0.43028
   0.16491  -0.05000   0.43028
   0.40433   0.18942   0.43028
   0.16491  -0.05000   0.19086
   0.16491  -0.05000   0.19086
   0.16491  -0.05000   0.19086
   0.40433  -0.05000   0.43028
   0.16491  -0.05000   0.43028
   0.16491  -0.05000   0.43028
   0.16491   0.18942  -0.04856
  -0.07451  -0.05000   0.19086
   0.16491  -0.05000   0.19086
   0.16491  -0.05000   0.19086
  -0.07451  -0.05000   0.43028
  -0.07451   0.18942   0.19086
  -0.07451  -0.05000   0.19086
  -0.07451  -0.05000   0.19086
  -0.07451   0.18942   0.19086
  -0.07451   0.18942   0.43028
  -0.07451   0.18942  -0.04856
  -0.31393   0.18942   0.19086
  -0.07451   0.18942   0.19086
  -0.07451   0.18942   0.19086
  -0.07451   0.18942   0.19086
  -0.07451   0.42884   0.19086
   0.16491   0.18942   0.43028
   0.16491   0.18942   0.19086
  -0.07451  -0.05000   0.19086
   0.16491   0.18942   0.43028
   0.16491  -0.05000   0.19086
   0.40433  -0.05000   0.19086
   0.16491   0.18942   0.19086
   0.40433  -0.05000  -0.04856
   0.16491  -0.05000   0.19086
   0.40433  -0.05000  -0.04856
   0.16491  -0.28942  -0.04856
   0.16491  -0.05000  -0.04856
   0.16491  -0.05000  -0.04856
   0.64375  -0.05000  -0.28798
   0.40433  -0.05000  -0.28798
   0.40433  -0.05000  -0.28798
   0.40433  -0.05000  -0.28798
   0.64375   0.18942  -0.28798
   0.64375  -0.05000  -0.28798
   0.40433  -0.05000  -0.04856
   0.40433   0.18942  -0.04856
   0.64375  -0.05000  -0.04856
   0.64375   0.18942  -0.04856
   0.64375   0.18942  -0.04856
   0.88317   0.18942  -0.28798
   0.64375  -0.05000  -0.04856
   0.64375  -0.05000  -0.04856
   0.64375  -0.05000  -0.04856
   0.64375  -0.05000  -0.04856
   0.64375  -0.05000  -0.28798
   0.64375  -0.05000   0.19086
   0.88317   0.18942  -0.04856
   0.88317  -0.05000  -0.04856
   0.88317  -0.05000  -0.28798
   0.64375  -0.28942   0.19086
   0.40433  -0.05000   0.19086
   0.40433  -0.05000  -0.04856
   0.64375  -0.05000   0.19086
   0.40433  -0.28942  -0.04856
   0.64375  -0.05000  -0.04856
   0.64375  -0.05000  -0.04856
   0.40433  -0.28942   0.19086
   0.40433  -0.05000  -0.04856
   0.40433  -0.05000  -0.28798
   0.40433  -0.05000  -0.52740
   0.40433  -0.05000  -0.28798
   0.40433  -0.28942  -0.28798
   0.40433  -0.05000  -0.52740
   0.40433  -0.05000  -0.52740
   0.16491  -0.05000  -0.28798
   0.16491  -0.05000  -0.52740
   0.16491  -0.05000  -0.52740
  -0.07451  -0.05000  -0.52740
   0.16491  -0.28942  -0.76682
   0.16491  -0.05000  -1.00624
  -0.07451   0.18942  -0.76682
  -0.07451   0.18942  -0.76682
  -0.07451  -0.05000  -0.76682
  -0.31393   0.18942  -1.00624
  -0.31393   0.18942  -1.00624
  -0.55335  -0.05000  -1.00624
  -0.31393  -0.05000  -1.00624
  -0.31393  -0.05000  -1.00624
  -0.31393   0.18942  -1.00624
  -0.31393   0.18942  -1.00624
  -0.55335  -0.05000  -1.00624
  -0.31393   0.18942  -1.00624
  -0.55335  -0.05000  -1.00624
  -0.31393   0.18942  -1.00624
  -0.55335   0.18942  -0.76682
  -0.79277  -0.05000  -0.76682
  -0.55335  -0.05000  -0.76682
  -0.79277  -0.05000  -0.76682
  -0.55335  -0.05000  -0.76682
  -0.55335  -0.05000  -0.76682
  -0.79277  -0.05000  -0.52740
  -0.55335  -0.05000  -0.52740
  -0.55335  -0.05000  -0.52740
  -0.55335  -0.05000  -0.52740
  -0.79277  -0.05000  -0.52740
  -0.55335   0.18942  -0.76682
  -0.55335  -0.05000  -0.52740
  -0.55335  -0.05000  -0.28798
  -0.79277  -0.28942  -0.28798
  -0.79277  -0.05000  -0.28798
  -0.79277  -0.28942  -0.28798
  -0.79277  -0.05000  -0.04856
  -0.79277  -0.05000  -0.04856
  -1.03219  -0.05000  -0.04856
  -0.79277  -0.05000   0.19086
  -0.79277  -0.05000   0.19086
  -0.55335  -0.05000   0.43028
  -0.55335   0.18942   0.43028
  -0.55335  -0.05000   0.43028
  -0.31393  -0.05000   0.43028
  -0.31393  -0.05000   0.66970
  -0.31393  -0.05000   0.66970
  -0.07451   0.18942   0.66970
  -0.31393  -0.05000   0.66970
  -0.07451   0.18942   0.66970
   0.16491   0.18942   0.66970
   0.16491   0.18942   0.66970
   0.40433   0.18942   0.66970
   0.40433  -0.05000   0.43028
   0.64375   0.18942   0.43028
   0.40433  -0.05000   0.66970
   0.64375  -0.05000   0.43028
   0.64375   0.18942   0.43028
   0.40433   0.18942   0.66970
   0.64375  -0.05000   0.90912
   0.40433   0.18942   0.66970
   0.64375  -0.28942   0.66970
   0.64375  -0.05000   0.66970
   0.64375  -0.05000   0.66970
   0.64375  -0.05000   0.66970
   0.64375  -0.05000   0.43028
   0.64375  -0.05000   0.43028
   0.64375  -0.05000   0.43028
   0.40433  -0.05000   0.43028
   0.64375  -0.05000   0.66970
   0.64375  -0.05000   0.43028
   0.40433  -0.05000   0.66970
   0.40433  -0.05000   0.66970
   0.40433  -0.05000   0.43028
   0.40433  -0.05000   0.43028
   0.40433  -0.05000   0.66970
   0.16491  -0.05000   0.43028
   0.40433  -0.05000   0.43028
   0.40433  -0.05000   0.19086
   0.16491  -0.28942   0.43028
   0.16491  -0.28942   0.43028
   0.16491  -0.05000   0.19086
   0.16491  -0.05000   0.43028
  -0.07451  -0.28942   0.43028
   0.16491  -0.05000   0.66970
   0.16491  -0.05000   0.43028
   0.16491  -0.05000   0.19086
   0.16491  -0.05000   0.19086
  -0.07451  -0.28942   0.19086
   0.16491  -0.28942   0.43028
   0.16491  -0.05000   0.43028
   0.40433  -0.05000  -0.04856
   0.16491  -0.05000   0.19086
   0.40433  -0.05000   0.19086
   0.40433  -0.05000   0.19086
   0.40433  -0.28942  -0.04856
   0.40433   0.18942  -0.04856
   0.40433  -0.05000  -0.04856
   0.40433  -0.05000  -0.28798
   0.40433   0.18942  -0.28798
   0.16491  -0.05000  -0.04856
   0.40433   0.18942  -0.28798
   0.16491   0.18942  -0.52740
   0.16491  -0.05000  -0.04856
  -0.07451   0.18942  -0.28798
   0.16491  -0.05000  -0.04856
  -0.07451   0.18942  -0.28798
  -0.07451  -0.05000  -0.28798
  -0.31393  -0.05000  -0.04856
  -0.31393  -0.05000  -0.04856
  -0.31393  -0.05000  -0.04856
  -0.31393  -0.05000  -0.04856
  -0.31393  -0.05000  -0.04856
  -0.55335  -0.28942  -0.28798
  -0.31393  -0.05000  -0.28798
  -0.55335  -0.05000  -0.28798
  -0.79277  -0.05000  -0.28798
  -0.55335  -0.05000  -0.04856
  -0.79277  -0.05000  -0.52740
  -0.55335   0.18942  -0.28798
  -0.79277   0.18942  -0.52740
  -0.79277   0.18942  -0.52740
  -1.03219  -0.05000  -0.52740
  -0.79277  -0.05000  -0.28798
  -0.79277  -0.05000  -0.52740
  -0.55335  -0.05000  -0.28798
  -0.79277  -0.05000  -0.28798
  -1.03219  -0.05000  -0.28798
  -0.55335  -0.05000  -0.04856
  -0.79277  -0.05000  -0.28798
  -0.55335  -0.05000  -0.76682
  -0.55335  -0.05000  -0.52740
  -0.55335  -0.05000  -0.04856
  -0.55335  -0.28942  -0.04856
  -0.55335  -0.05000  -0.04856
  -0.31393  -0.05000  -0.28798
  -0.31393  -0.05000   0.19086
  -0.31393  -0.05000  -0.04856
  -0.31393  -0.05000  -0.04856
  -0.31393  -0.05000  -0.04856
  -0.07451   0.18942  -0.28798
  -0.31393   0.18942   0.19086
  -0.07451   0.18942  -0.04856
  -0.07451  -0.05000  -0.04856
  -0.07451   0.18942  -0.04856
  -0.07451   0.18942  -0.04856
  -0.07451  -0.05000  -0.04856
  -0.07451  -0.05000  -0.04856
  -0.07451  -0.05000   0.19086
  -0.07451  -0.05000   0.19086
  -0.07451   0.18942   0.19086
  -0.07451   0.18942  -0.04856
   0.16491  -0.05000  -0.04856
  -0.07451   0.18942  -0.04856
   0.16491  -0.05000  -0.04856
   0.16491  -0.05000  -0.04856
   0.16491   0.18942  -0.04856
   0.16491   0.18942  -0.28798
  -0.07451   0.18942  -0.28798
  -0.07451  -0.05000  -0.28798
  -0.07451  -0.05000  -0.28798
   0.16491  -0.05000  -0.28798
  -0.07451   0.18942  -0.28798
  -0.07451  -0.05000  -0.28798
   0.16491  -0.05000  -0.28798
  -0.07451  -0.05000  -0.04856
  -0.07451  -0.05000  -0.04856
  -0.07451  -0.28942   0.19086
  -0.31393  -0.28942  -0.04856
  -0.07451  -0.05000   0.19086
  -0.07451  -0.28942   0.19086
   0.16491  -0.28942   0.19086
   0.16491  -0.28942   0.19086
  -0.07451  -0.05000   0.19086
  -0.07451  -0.05000   0.19086
  -0.07451  -0.28942   0.19086
   0.16491  -0.05000   0.19086
   0.40433  -0.05000   0.43028
   0.40433   0.18942   0.19086
   0.40433   0.18942   0.19086
   0.40433   0.18942   0.19086
   0.16491   0.18942   0.43028
   0.16491   0.18942   0.43028
   0.16491   0.18942   0.43028
   0.16491   0.18942   0.66970
  -0.07451   0.18942   0.43028
  -0.07451  -0.05000   0.66970
  -0.31393   0.18942   0.66970
  -0.55335  -0.05000   0.66970
  -0.55335   0.18942   0.43028
  -0.55335   0.18942   0.66970
  -0.55335  -0.05000   0.66970
  -0.79277   0.18942   0.66970
  -0.79277   0.18942   0.43028
  -0.55335  -0.05000   0.43028
  -0.55335  -0.05000   0.43028
  -0.55335  -0.05000   0.43028
  -0.55335  -0.05000   0.66970
  -0.79277   0.18942   0.66970
  -0.31393   0.18942   0.43028
  -0.31393   0.18942   0.43028
  -0.31393  -0.05000   0.43028
  -0.07451   0.18942   0.43028
  -0.31393  -0.05000   0.66970
  -0.31393  -0.05000   0.90912
  -0.31393   0.18942   0.90912
  -0.07451  -0.05000   0.66970
  -0.07451   0.18942   0.90912
  -0.07451  -0.05000   0.90912
  -0.07451   0.18942   0.66970
   0.16491  -0.05000   0.66970
  -0.07451   0.18942   0.90912
   0.16491   0.18942   0.90912
  -0.07451   0.18942   1.14854
  -0.07451  -0.05000   1.14854
  -0.07451  -0.05000   1.14854
  -0.07451   0.18942   0.90912
   0.16491   0.18942   1.14854
   0.16491   0.18942   1.14854
  -0.07451   0.18942   1.14854
   0.16491   0.18942   1.14854
   0.16491  -0.05000   1.14854
   0.16491   0.18942   0.90912
   0.40433  -0.05000   0.90912
   0.16491   0.18942   0.66970
   0.40433   0.18942   0.66970
   0.40433   0.18942   0.66970
   0.16491   0.18942   0.66970
   0.16491  -0.05000   0.66970
   0.40433  -0.05000   0.66970
   0.16491   0.18942   0.43028
   0.40433  -0.05000   0.43028
   0.40433  -0.05000   0.43028
   0.40433  -0.05000   0.19086
   0.40433  -0.05000   0.43028
   0.40433  -0.05000   0.43028
   0.40433  -0.05000   0.19086
   0.40433  -0.05000   0.43028
   0.16491  -0.05000   0.19086
   0.40433  -0.05000  -0.04856
   0.40433  -0.05000  -0.04856
   0.40433   0.18942  -0.28798
   0.40433  -0.05000  -0.28798
   0.40433  -0.05000  -0.28798
   0.40433  -0.05000  -0.52740
   0.40433  -0.05000  -0.76682
   0.16491  -0.05000  -0.76682
   0.40433   0.18942  -1.00624
   0.40433  -0.05000  -0.52740
   0.16491  -0.05000  -1.00624
   0.40433  -0.05000  -1.24566
   0.16491  -0.05000  -1.24566
   0.40433  -0.05000  -1.24566
   0.40433  -0.05000  -1.24566
   0.40433  -0.05000  -1.48508
   0.40433  -0.05000  -1.48508
   0.40433  -0.28942  -1.48508
   0.40433  -0.05000  -1.48508
   0.16491  -0.28942  -1.72450
   0.40433  -0.05000  -1.96392
   0.40433  -0.28942  -1.72450
   0.16491  -0.28942  -1.72450
   0.16491  -0.05000  -1.72450
   0.16491  -0.05000  -1.72450
   0.16491  -0.28942  -1.72450
  -0.07451  -0.28942  -1.72450
  -0.07451  -0.05000  -1.48508
  -0.07451  -0.05000  -1.72450
  -0.07451  -0.28942  -1.48508
  -0.31393   0.18942  -1.48508
  -0.31393  -0.05000  -1.72450
  -0.31393  -0.05000  -1.72450
  -0.55335  -0.05000  -1.48508
  -0.55335  -0.05000  -1.48508
  -0.79277   0.18942  -1.48508
  -0.55335  -0.05000  -1.48508
  -0.55335  -0.05000  -1.48508
  -0.79277  -0.05000  -1.48508
  -0.79277   0.18942  -1.72450
  -0.79277  -0.05000  -1.72450
  -0.79277   0.18942  -1.48508
  -0.79277  -0.05000  -1.48508
  -0.79277  -0.05000  -1.24566
  -0.79277   0.18942  -1.24566
  -0.79277  -0.05000  -1.48508
  -0.79277   0.18942  -1.24566
  -0.79277  -0.05000  -1.00624
  -0.55335  -0.05000  -1.00624
  -0.55335  -0.05000  -0.76682
  -0.55335  -0.05000  -0.76682
  -0.55335   0.18942  -1.00624
  -0.55335  -0.05000  -0.76682
  -0.55335  -0.05000  -0.76682
  -0.31393   0.18942  -0.76682
  -0.31393  -0.05000  -0.52740
  -0.31393  -0.05000  -0.52740
  -0.07451  -0.05000  -0.76682
  -0.07451   0.18942  -0.52740
  -0.07451  -0.05000  -0.28798
  -0.07451   0.18942  -0.28798
  -0.07451  -0.05000  -0.04856
  -0.07451   0.18942  -0.04856
   0.16491  -0.05000  -0.04856
   0.16491   0.18942   0.19086
   0.16491   0.18942   0.19086
   0.16491   0.18942   0.43028
   0.40433   0.18942   0.43028
   0.16491   0.18942   0.66970
   0.40433   0.18942   0.66970
   0.40433   0.18942   0.90912
   0.64375   0.18942   0.90912
   0.16491  -0.05000   1.14854
   0.40433   0.18942   0.90912
   0.40433  -0.05000   1.14854
   0.16491  -0.05000   1.14854
   0.40433  -0.05000   1.14854
   0.40433  -0.05000   1.14854
   0.40433  -0.28942   0.90912
   0.40433  -0.28942   0.90912
   0.40433  -0.28942   0.90912
   0.64375  -0.28942   0.90912
   0.64375  -0.28942   0.66970
   0.64375  -0.05000   0.66970
   0.64375  -0.28942   0.66970
   0.88317  -0.05000   0.66970
   1.12259  -0.28942   0.66970
   1.12259  -0.05000   0.66970
   1.36201  -0.28942   0.66970
   1.12259  -0.05000   0.66970
   1.36201  -0.28942   0.66970
   1.12259  -0.05000   0.66970
   1.36201  -0.28942   0.90912
   1.36201  -0.28942   0.90912
   1.12259  -0.28942   0.66970
   0.88317  -0.28942   0.66970
   1.12259  -0.28942   0.90912
   0.88317  -0.28942   0.90912
   0.64375  -0.28942   0.66970
   0.64375  -0.28942   0.90912
   0.88317  -0.05000   0.66970
   0.88317  -0.05000   0.66970
   0.64375  -0.05000   0.66970
   0.64375  -0.05000   0.43028
   0.40433  -0.05000   0.90912
   0.40433  -0.28942   0.90912
   0.40433  -0.28942   0.66970
   0.40433  -0.05000   0.90912
   0.40433   0.18942   0.66970
   0.40433  -0.05000   0.43028
   0.40433   0.18942   0.19086
   0.16491  -0.05000   0.19086
   0.16491   0.18942   0.19086
   0.40433  -0.05000   0.19086
   0.16491  -0.05000   0.19086
   0.16491  -0.05000   0.19086
   0.16491  -0.05000   0.19086
   0.16491  -0.05000   0.19086
  -0.07451  -0.05000   0.19086
   0.16491  -0.28942  -0.04856
   0.16491  -0.05000   0.19086
   0.16491  -0.05000   0.19086
  -0.07451   0.18942   0.19086
  -0.07451  -0.05000  -0.04856
  -0.31393  -0.05000   0.19086
  -0.31393   0.18942   0.43028
  -0.31393  -0.05000   0.19086
  -0.07451   0.18942   0.19086
  -0.31393  -0.05000   0.19086
  -0.31393   0.18942   0.43028
  -0.31393   0.18942   0.19086
  -0.07451   0.18942   0.19086
  -0.31393   0.18942   0.19086
  -0.31393  -0.05000   0.19086
  -0.31393   0.18942   0.19086
  -0.31393   0.18942   0.19086
  -0.31393   0.18942   0.19086
  -0.07451   0.18942  -0.04856
  -0.31393  -0.05000  -0.04856
  -0.31393   0.18942   0.19086
  -0.31393   0.18942   0.19086
  -0.31393   0.18942  -0.04856
  -0.07451   0.18942  -0.28798
  -0.31393   0.18942  -0.04856
  -0.31393   0.18942  -0.04856
  -0.31393   0.18942  -0.28798
  -0.07451   0.18942  -0.04856
  -0.07451   0.18942  -0.28798
  -0.07451   0.18942  -0.28798
  -0.07451   0.18942  -0.28798
  -0.07451   0.18942  -0.28798
  -0.07451   0.42884  -0.52740
   0.16491   0.18942  -0.28798
   0.16491   0.18942  -0.04856
   0.16491   0.42884  -0.28798
   0.16491   0.18942  -0.28798
   0.16491  -0.05000  -0.28798
   0.16491  -0.05000  -0.04856
   0.16491   0.18942  -0.28798
  -0.07451  -0.05000  -0.28798
  -0.07451  -0.05000  -0.28798
  -0.07451  -0.05000  -0.28798
  -0.07451  -0.05000  -0.04856
  -0.31393  -0.05000  -0.28798
  -0.31393  -0.05000  -0.28798
  -0.07451  -0.05000  -0.04856
  -0.07451  -0.05000  -0.28798
  -0.07451  -0.05000  -0.28798
  -0.31393   0.18942  -0.28798
  -0.31393   0.18942  -0.28798
