********************************************************************************
              CENTRO DE INSTRUMENTACION Y REGISTRO SISMICO  A.C.

    Anaxagoras 814, Col. Narvarte, Benito Juarez, C.P. 03020 Mexico, D.F.
           Tels. 5687 45 42/ 5687 45  82             Fax. 5669 25 12
********************************************************************************
ARCHIVO ESTANDAR DE ACELERACION:
VERSION DEL FORMATO                    : 2.0
NOMBRE DEL ARCHIVO                     : AU1120180521021519
FECHA Y HORA DE CREACION               : 21/JUN/18, 12:52
REF. CATALOGO ACELEROGRAMAS, SMIS 1996 : REGISTRO No.     /PAG.


================================================================================
DATOS DE LA ESTACION:
NOMBRE DE LA ESTACION                  : AUTÓDROMO
CLAVE DE LA ESTACION                   : AU11
LOCALIZACION DE LA ESTACION            : Del. Iztacalco, Cd. Deportiva          
                                       : Magdalena Mixhuca,                     
                                       : Col. Granjas México                    
                                       :                                        
                                       : 
COORDENADAS DE LA ESTACION             : 19.3919 LAT. N
                                       : 99.0869 LONG. W
ALTITUD (msnm)                         : 2234
TIPO DE SUELO                          : Terreno blando, material compresible
                                       : (arcillas)                
                                       : 
INSTITUCION RESPONSABLE                : CIRES
                                       : 

================================================================================
DATOS DEL ACELEROGRAFO:
MODELO DEL ACELEROGRAFO                : RADESD
NUMERO DE SERIE DEL ACELEROGRAFO       : 157
NUMERO DE CANALES                      : 3
ORIENTACION C1-C6 (rumbo;orientacion)  : /S00E/+V/N90W
ORIENTACION C7-C12 (rumbo;orientacion) : 
VEL. DE MUESTREO, C1-C6 (muestras/s)   : /100/100/100
VEL. DE MUESTREO, C7-C12 (muestras/s)  : 
ESC. COMPLETA DE SENSORES, C1-C6, (g)  : /0.5/0.5/0.5
ESC. COMPLETA DE SENSORES, C7-C12, (g) : 
FREC. NAT. DE SENSORES, C1-C6, (Hz)    : /51.77/52.56/52.29
FREC. NAT. DE SENSORES, C7-C12, (Hz)   : 
AMORTIGUAMIENTO DE SENSORES, C1-C6     : /0.5912/0.6083/0.6067
AMORTIGUAMIENTO DE SENSORES, C7-C12    : 
INTERVALO DE MUESTREO, C1-C6, (s)      : /0.01/0.01/0.01
INTERVALO DE MUESTREO, C7-C12, (s)     : 
UMBRAL DE DISPARO, C1-C6, (Gal)        : /0.72/1.92/0.72
UMBRAL DE DISPARO, C7-C12, (Gal)       : 
MEMORIA DE PREEVENTO (s)               : 44.0
TIEMPO DE POSEVENTO (s)                : 538.0


================================================================================
DATOS DEL SISMO:
FECHA DEL SISMO (GMT)                  : 21/MAY/18
HORA EPICENTRO (GMT)                   : 02:15:19.0
MAGNITUD(ES)                           : /Mc=5.1
COORDENADAS DEL EPICENTRO              : 17.08 LAT. N
                                       : 98.68 LONG. W
PROFUNDIDAD FOCAL (km)                 : 45
FUENTE DE LOS DATOS EPICENTRALES       : SSN
                                       : INSTITUTO DE GEOFISICA, UNAM

================================================================================
DATOS DE ESTE REGISTRO:
HORA DE LA PRIMERA MUESTRA (GMT)       : 02:15:57.00
EXACTITUD DEL TIEMPO (s)               : 0.01
DURACION DEL REGISTRO (s), C1-C6       : /124.4/124.4/124.4
DURACION DEL REGISTRO (s), C7-C12      : 
NUM. TOTAL DE MUESTRAS, C1-C6          : /12440/12440/12440
NUM. TOTAL DE MUESTRAS, C7-C12         : 
ACEL. MAX. (Gal), C1-C6                : /1.26259/0.74546/1.71036
ACEL. MAX., C1-C6, EN LA MUESTRA       : /5075/4339/4303
ACEL. MAX. (Gal), C7-C12               : 
ACEL. MAX., C7-C12, EN LA MUESTRA      : 
UNIDADES DE LOS DATOS                  : Gal (cm/s/s)
FACTOR DE DECIMACION                   : 1
FORMATO DATOS (FORTRAN,10 campos/dato) : 3F10.5


================================================================================
CALIDAD DEL ACELEROGRAMA:
REGISTRO DIGITAL COMPLETO CON TIEMPO ABSOLUTO CORRECTO.


================================================================================
COMENTARIOS:














================================================================================
DATOS DE ACELERACION:
---------+---------+---------+---------+---------+---------+---------+---------+
   CANAL-1   CANAL-2   CANAL-3   CANAL-4   CANAL-5   CANAL-6   CANAL-7   CANAL-8
      S00E        +V      N90W
---------+---------+---------+---------+---------+---------+---------+---------+
[...]
   0.02059   0.06258   0.13018
  -0.03926  -0.01223   0.11521
  -0.05422   0.03266   0.17507
  -0.09912   0.09251   0.16011
  -0.05422   0.01769   0.14514
  -0.05422  -0.02720   0.13018
  -0.06919   0.00273   0.08529
  -0.09912  -0.08705  -0.00450
  -0.11408  -0.04216  -0.06435
  -0.05422  -0.07209  -0.09428
  -0.00933  -0.11698  -0.13917
  -0.03926  -0.08705  -0.12421
  -0.02430  -0.04216  -0.12421
  -0.00933   0.00273  -0.04939
   0.05052  -0.02720  -0.06435
   0.06549  -0.05713  -0.01946
  -0.02430  -0.04216  -0.04939
  -0.03926  -0.08705   0.02543
  -0.12904  -0.05713  -0.03442
  -0.09912  -0.10202  -0.09428
  -0.11408  -0.05713  -0.09428
  -0.06919   0.00273  -0.03442
   0.03556  -0.01223  -0.12421
   0.08045  -0.01223  -0.09428
   0.11038  -0.14691  -0.09428
   0.14030  -0.14691  -0.09428
   0.06549  -0.23669  -0.10924
   0.06549  -0.20676  -0.10924
   0.11038  -0.26662  -0.16910
   0.05052  -0.22173  -0.06435
   0.03556  -0.22173  -0.07931
  -0.03926  -0.26662  -0.13917
  -0.06919  -0.14691  -0.12421
  -0.08415  -0.16187  -0.07931
  -0.12904  -0.10202  -0.09428
  -0.17393  -0.02720  -0.10924
  -0.15897  -0.17684  -0.06435
  -0.24875  -0.05713  -0.00450
  -0.17393  -0.07209   0.04040
  -0.17393  -0.10202   0.05536
  -0.21883  -0.05713   0.08529
  -0.15897   0.00273   0.16011
  -0.17393   0.04762   0.11521
  -0.14401   0.06258   0.05536
  -0.14401  -0.01223   0.02543
  -0.00933   0.01769  -0.03442
   0.00563  -0.08705   0.01047
   0.00563  -0.20676   0.01047
   0.02059  -0.10202  -0.00450
  -0.11408  -0.19180   0.04040
  -0.15897  -0.23669   0.13018
  -0.27868  -0.16187   0.19003
  -0.38343  -0.16187   0.24989
  -0.51810  -0.16187   0.17507
  -0.63781  -0.08705   0.19003
  -0.75752  -0.20676   0.13018
  -0.75752  -0.13194   0.10025
  -0.90716  -0.08705   0.11521
  -0.93709  -0.07209   0.11521
  -0.99694  -0.01223   0.05536
  -0.96701  -0.05713   0.13018
  -1.02687  -0.11698   0.13018
  -1.01191  -0.04216   0.07032
  -0.95205   0.00273   0.16011
  -0.93709  -0.02720   0.02543
  -0.86227  -0.02720  -0.04939
  -0.75752   0.10748  -0.19902
  -0.56299   0.01769  -0.16910
  -0.42832  -0.11698  -0.36363
  -0.32357  -0.17684  -0.42348
  -0.15897  -0.23669  -0.49830
  -0.00933  -0.46115  -0.46837
  -0.03926  -0.44618  -0.48334
   0.06549  -0.44618  -0.42348
   0.03556  -0.47611  -0.40852
   0.09541  -0.40129  -0.31873
   0.09541  -0.28158  -0.24392
   0.02059  -0.16187  -0.24392
   0.05052  -0.28158  -0.16910
   0.02059  -0.22173  -0.07931
  -0.08415  -0.10202  -0.03442
  -0.15897  -0.16187   0.14514
  -0.21883  -0.08705   0.08529
  -0.35350  -0.05713   0.24989
  -0.41335  -0.04216   0.32471
  -0.50314   0.03266   0.29478
  -0.57796  -0.02720   0.35464
  -0.57796   0.16733   0.32471
  -0.59292   0.24215   0.29478
  -0.62285   0.07755   0.13018
  -0.54803   0.13740   0.23493
  -0.45825   0.12244   0.27982
  -0.23379  -0.28158   0.23493
  -0.15897  -0.25165   0.36960
   0.05052  -0.32647   0.59406
   0.06549  -0.17684   0.51924
   0.18520  -0.07209   0.51924
   0.27498  -0.13194   0.48931
   0.31987  -0.13194   0.45938
   0.33483  -0.19180   0.32471
   0.34980  -0.07209   0.30974
   0.45454  -0.20676   0.19003
   0.36476  -0.07209   0.10025
   0.33483  -0.14691  -0.06435
   0.34980  -0.01223  -0.21399
   0.28994  -0.02720  -0.37859
   0.37972  -0.08705  -0.39355
   0.31987   0.03266  -0.46837
   0.33483   0.01769  -0.63297
   0.36476   0.03266  -0.57312
   0.36476   0.06258  -0.63297
   0.36476  -0.01223  -0.63297
   0.55929  -0.17684  -0.54319
   0.52936  -0.35640  -0.48334
   0.61914  -0.38633  -0.39355
   0.67900  -0.56589  -0.31873
   0.79871  -0.70057  -0.30377
   0.85856  -0.56589  -0.30377
   0.90346  -0.65568  -0.31873
   0.96331  -0.56589  -0.27384
   0.93338  -0.50604  -0.21399
   0.91842  -0.43122  -0.21399
   0.78375  -0.29655  -0.25888
   0.67900  -0.44618  -0.30377
   0.61914  -0.34144  -0.24392
   0.54433  -0.22173  -0.09428
   0.37972  -0.16187  -0.15413
   0.31987  -0.02720   0.01047
   0.21512   0.07755  -0.01946
   0.28994   0.25711   0.17507
   0.27498   0.16733   0.27982
   0.30491   0.24215   0.36960
   0.28994   0.24215   0.47435
   0.36476   0.21222   0.45938
   0.34980   0.16733   0.51924
   0.30491   0.09251   0.47435
   0.37972   0.07755   0.50427
   0.31987  -0.22173   0.38456
   0.39469  -0.35640   0.29478
   0.33483  -0.31151   0.21996
   0.45454  -0.43122   0.11521
   0.43958  -0.23669  -0.01946
   0.36476  -0.31151  -0.16910
   0.46951  -0.22173  -0.16910
   0.43958  -0.20676  -0.19902
   0.49943  -0.17684  -0.16910
   0.37972  -0.16187  -0.18406
   0.39469  -0.10202   0.01047
   0.28994  -0.19180  -0.03442
   0.26001  -0.26662  -0.01946
   0.23009  -0.23669   0.07032
   0.18520  -0.35640   0.21996
   0.15527  -0.41626   0.29478
   0.14030  -0.28158   0.33967
   0.05052  -0.25165   0.39953
  -0.03926  -0.28158   0.33967
  -0.08415  -0.17684   0.33967
  -0.20386  -0.17684   0.23493
  -0.24875  -0.11698   0.23493
  -0.38343  -0.13194   0.11521
  -0.47321  -0.14691   0.02543
  -0.48817  -0.04216  -0.10924
  -0.50314   0.03266  -0.15413
  -0.53306   0.01769  -0.22895
  -0.59292   0.07755  -0.25888
  -0.62285   0.18229  -0.34866
  -0.65277   0.28704  -0.37859
  -0.60788   0.30200  -0.39355
  -0.60788   0.36186  -0.30377
  -0.59292   0.33193  -0.27384
  -0.60788   0.36186  -0.18406
  -0.60788   0.28704  -0.09428
  -0.66774   0.18229  -0.00450
  -0.63781   0.07755   0.07032
  -0.63781   0.01769   0.08529
  -0.74256  -0.04216   0.16011
  -0.77248  -0.16187   0.11521
  -0.80241  -0.17684   0.11521
  -0.87723  -0.14691   0.04040
  -0.81738  -0.20676  -0.06435
  -0.87723  -0.14691  -0.15413
  -0.90716  -0.17684  -0.25888
  -0.90716  -0.25165  -0.42348
  -0.87723  -0.13194  -0.46837
  -0.68270  -0.08705  -0.49830
  -0.62285  -0.08705  -0.63297
  -0.48817  -0.02720  -0.66290
  -0.36846   0.03266  -0.67786
  -0.32357   0.04762  -0.75268
  -0.17393   0.01769  -0.63297
  -0.14401   0.01769  -0.61801
  -0.09912   0.09251  -0.58808
  -0.06919  -0.10202  -0.54319
  -0.03926  -0.11698  -0.43844
  -0.02430  -0.19180  -0.22895
  -0.12904  -0.22173  -0.18406
  -0.11408  -0.10202  -0.07931
  -0.14401  -0.11698   0.04040
  -0.17393   0.00273   0.10025
  -0.24875  -0.04216   0.17507
  -0.39839   0.00273   0.10025
  -0.36846  -0.05713   0.17507
  -0.45825  -0.07209   0.20500
  -0.50314  -0.08705   0.10025
  -0.47321  -0.10202   0.19003
  -0.51810  -0.25165   0.13018
  -0.41335  -0.34144   0.13018
  -0.36846  -0.35640   0.19003
  -0.23379  -0.40129   0.21996
  -0.14401  -0.44618   0.21996
  -0.03926  -0.41626   0.26485
   0.05052  -0.40129   0.26485
   0.11038  -0.34144   0.19003
   0.20016  -0.38633   0.19003
   0.34980  -0.46115   0.19003
   0.39469  -0.47611   0.17507
   0.42462  -0.61078   0.14514
   0.39469  -0.55093   0.11521
   0.43958  -0.44618   0.11521
   0.51440  -0.31151   0.04040
   0.52936  -0.26662  -0.06435
   0.54433  -0.10202  -0.03442
   0.63411   0.04762  -0.09428
   0.66404   0.10748  -0.12421
   0.69396   0.19726  -0.10924
   0.64907   0.27208  -0.10924
   0.64907   0.22719  -0.16910
   0.64907   0.24215  -0.07931
   0.66404   0.19726  -0.04939
   0.67900   0.25711   0.08529
   0.64907   0.24215   0.11521
   0.64907   0.13740   0.11521
   0.60418   0.31697   0.27982
   0.61914   0.28704   0.38456
   0.54433   0.25711   0.36960
   0.45454   0.25711   0.47435
   0.43958   0.18229   0.54916
   0.30491   0.18229   0.47435
   0.21512   0.06258   0.48931
   0.20016  -0.07209   0.38456
   0.06549  -0.04216   0.33967
   0.03556  -0.11698   0.30974
   0.00563  -0.10202   0.23493
  -0.00933  -0.01223   0.13018
   0.03556   0.03266   0.05536
   0.05052   0.04762   0.05536
   0.00563   0.03266  -0.00450
   0.11038   0.00273  -0.06435
   0.09541   0.06258  -0.12421
   0.09541   0.00273  -0.10924
   0.11038  -0.11698  -0.15413
   0.09541   0.03266  -0.12421
   0.11038  -0.17684  -0.07931
   0.15527  -0.22173  -0.06435
   0.15527  -0.13194   0.07032
   0.15527  -0.26662   0.13018
   0.17023  -0.22173   0.17507
   0.15527  -0.43122   0.13018
   0.12534  -0.35640   0.26485
  -0.00933  -0.50604   0.26485
  -0.05422  -0.55093   0.27982
  -0.17393  -0.50604   0.32471
  -0.24875  -0.53597   0.38456
  -0.32357  -0.52100   0.21996
  -0.41335  -0.41626   0.29478
  -0.35350  -0.40129   0.30974
  -0.35350  -0.26662   0.33967
  -0.33854  -0.29655   0.33967
  -0.14401  -0.26662   0.26485
  -0.09912  -0.08705   0.29478
  -0.03926  -0.13194   0.32471
   0.05052  -0.02720   0.27982
   0.08045   0.13740   0.11521
   0.09541   0.03266   0.08529
   0.20016   0.13740   0.11521
   0.20016   0.28704   0.04040
   0.27498   0.25711   0.11521
   0.24505   0.24215  -0.04939
   0.30491   0.30200  -0.04939
   0.27498   0.22719  -0.04939
   0.26001   0.19726  -0.12421
   0.28994   0.09251  -0.09428
   0.12534   0.01769  -0.19902
   0.23009  -0.01223  -0.13917
   0.17023  -0.10202  -0.04939
   0.09541  -0.20676  -0.10924
   0.17023  -0.19180  -0.01946
   0.08045  -0.32647   0.01047
   0.18520  -0.35640   0.14514
   0.18520  -0.41626   0.26485
   0.24505  -0.46115   0.39953
   0.31987  -0.49107   0.47435
   0.21512  -0.32647   0.45938
   0.24505  -0.41626   0.45938
   0.33483  -0.46115   0.69880
   0.15527  -0.28158   0.59406
   0.17023  -0.16187   0.47435
   0.12534  -0.13194   0.59406
   0.03556  -0.10202   0.51924
  -0.06919   0.10748   0.44442
  -0.11408   0.04762   0.39953
  -0.23379   0.07755   0.24989
  -0.24875   0.24215   0.26485
  -0.32357   0.19726   0.10025
  -0.30861   0.30200   0.01047
  -0.29364   0.24215  -0.00450
  -0.30861   0.19726  -0.18406
  -0.27868   0.16733  -0.22895
  -0.30861   0.22719  -0.30377
  -0.20386   0.24215  -0.21399
  -0.17393   0.10748  -0.15413
  -0.11408   0.27208  -0.16910
  -0.06919   0.12244  -0.03442
   0.11038   0.15237   0.08529
   0.09541   0.06258  -0.00450
   0.26001   0.07755   0.16011
   0.30491  -0.01223   0.26485
   0.42462   0.00273   0.30974
   0.33483  -0.07209   0.29478
   0.31987  -0.01223   0.30974
   0.27498  -0.05713   0.29478
   0.12534   0.01769   0.35464
   0.08045  -0.10202   0.41449
  -0.02430   0.03266   0.38456
  -0.15897  -0.10202   0.27982
  -0.17393  -0.11698   0.26485
  -0.32357  -0.28158   0.17507
  -0.41335  -0.05713   0.14514
  -0.45825  -0.13194   0.10025
  -0.57796  -0.01223   0.02543
  -0.75752  -0.05713   0.04040
  -0.74256   0.03266  -0.01946
  -0.84730   0.09251  -0.01946
  -0.90716   0.06258  -0.04939
  -0.90716   0.12244  -0.06435
  -0.93709   0.09251  -0.13917
  -0.95205   0.21222  -0.19902
  -0.87723   0.04762  -0.37859
  -0.75752   0.01769  -0.49830
  -0.66774   0.13740  -0.55815
  -0.57796   0.00273  -0.87239
  -0.42832   0.01769  -1.06692
  -0.29364   0.15237  -1.17167
  -0.21883   0.10748  -1.36620
  -0.02430   0.13740  -1.51583
   0.05052   0.21222  -1.60562
   0.08045   0.15237  -1.71036
   0.24505   0.10748  -1.69540
   0.21512   0.00273  -1.69540
   0.27498  -0.10202  -1.60562
   0.31987  -0.16187  -1.45598
   0.28994  -0.11698  -1.35123
   0.31987  -0.11698  -1.12678
   0.26001  -0.16187  -0.97714
   0.24505  -0.20676  -0.72276
   0.36476  -0.23669  -0.40852
   0.28994  -0.26662  -0.22895
   0.31987  -0.28158  -0.00450
   0.37972  -0.34144   0.11521
   0.36476  -0.37136   0.19003
   0.36476  -0.28158   0.21996
   0.33483  -0.23669   0.14514
   0.33483  -0.10202   0.11521
   0.33483  -0.05713   0.07032
   0.28994   0.03266  -0.09428
   0.26001   0.12244  -0.19902
   0.18520   0.19726  -0.34866
   0.05052   0.18229  -0.45341
  -0.00933   0.21222  -0.49830
  -0.00933   0.06258  -0.43844
  -0.17393   0.07755  -0.45341
  -0.18890   0.07755  -0.36363
  -0.26372  -0.17684  -0.28881
  -0.26372  -0.16187  -0.21399
  -0.33854  -0.22173  -0.12421
  -0.18890  -0.35640   0.10025
  -0.09912  -0.38633   0.05536
   0.02059  -0.41626   0.21996
   0.18520  -0.62575   0.38456
   0.36476  -0.59582   0.54916
   0.51440  -0.71553   0.54916
   0.64907  -0.71553   0.59406
   0.81367  -0.74546   0.51924
   0.91842  -0.73049   0.51924
   1.00820  -0.62575   0.47435
   1.08302  -0.55093   0.39953
   1.09799  -0.47611   0.29478
   1.15784  -0.37136   0.23493
   1.08302  -0.17684   0.07032
   1.00820  -0.14691   0.07032
   0.93338  -0.02720  -0.01946
   0.78375   0.03266   0.13018
   0.66404   0.06258   0.10025
   0.40965   0.09251   0.21996
   0.24505   0.12244   0.29478
   0.08045   0.16733   0.39953
  -0.05422   0.15237   0.42945
  -0.23379   0.28704   0.51924
  -0.27868   0.21222   0.51924
  -0.36846   0.22719   0.51924
  -0.41335   0.21222   0.59406
  -0.47321   0.19726   0.56413
  -0.53306   0.16733   0.47435
  -0.59292   0.12244   0.47435
  -0.54803   0.12244   0.39953
  -0.42832   0.12244   0.32471
  -0.50314   0.13740   0.16011
  -0.44328   0.13740   0.08529
  -0.38343   0.10748  -0.03442
  -0.42832   0.12244  -0.10924
  -0.33854   0.07755  -0.24392
  -0.27868   0.04762  -0.27384
  -0.23379   0.06258  -0.25888
  -0.21883   0.00273  -0.24392
  -0.08415  -0.04216  -0.12421
  -0.03926  -0.04216  -0.06435
   0.02059  -0.10202  -0.00450
   0.06549  -0.16187   0.05536
   0.06549  -0.20676   0.16011
   0.09541  -0.14691   0.17507
   0.08045  -0.10202   0.17507
   0.09541  -0.16187   0.23493
   0.00563  -0.07209   0.20500
  -0.11408  -0.10202   0.16011
  -0.15897  -0.10202   0.13018
  -0.26372  -0.02720   0.05536
  -0.41335   0.01769   0.04040
  -0.53306   0.06258  -0.04939
  -0.74256   0.03266  -0.07931
  -0.90716   0.09251  -0.09428
  -0.86227   0.00273  -0.15413
  -0.93709   0.12244  -0.07931
  -1.05680   0.03266  -0.13917
  -1.01191  -0.10202  -0.12421
  -1.08672  -0.07209  -0.06435
  -1.01191  -0.10202   0.08529
  -0.98198  -0.07209   0.14514
  -0.98198  -0.13194   0.20500
  -0.87723  -0.19180   0.36960
  -0.78745  -0.17684   0.39953
  -0.68270  -0.04216   0.56413
  -0.51810  -0.19180   0.54916
  -0.45825  -0.20676   0.54916
  -0.42832  -0.10202   0.56413
  -0.32357   0.03266   0.51924
  -0.29364   0.01769   0.50427
  -0.21883  -0.02720   0.36960
  -0.21883   0.09251   0.27982
  -0.33854   0.12244   0.11521
  -0.29364   0.12244   0.01047
  -0.06919   0.18229   0.20500
  -0.09912   0.13740   0.17507
  -0.00933   0.03266   0.07032
  -0.11408   0.09251  -0.06435
  -0.03926  -0.01223  -0.10924
   0.03556  -0.02720  -0.16910
   0.26001  -0.14691   0.14514
   0.27498  -0.13194   0.04040
   0.33483  -0.13194   0.04040
   0.26001  -0.05713   0.07032
   0.31987  -0.13194  -0.04939
   0.31987  -0.14691  -0.01946
   0.18520  -0.10202  -0.01946
   0.24505  -0.14691  -0.04939
  -0.02430  -0.08705  -0.48334
   0.03556  -0.05713  -0.34866
   0.05052  -0.26662  -0.39355
   0.00563  -0.25165  -0.33370
   0.02059  -0.22173  -0.25888
  -0.08415  -0.20676  -0.24392
  -0.11408  -0.19180  -0.12421
  -0.03926  -0.10202  -0.03442
  -0.12904  -0.19180  -0.00450
  -0.05422  -0.19180   0.10025
   0.03556  -0.23669   0.19003
   0.15527  -0.08705   0.23493
   0.21512  -0.11698   0.33967
   0.31987  -0.20676   0.30974
   0.39469  -0.20676   0.17507
   0.37972  -0.22173   0.01047
   0.36476  -0.22173  -0.07931
   0.52936  -0.29655   0.13018
   0.58922  -0.31151   0.04040
   0.49943  -0.28158  -0.43844
   0.64907  -0.31151  -0.42348
   0.60418  -0.29655  -0.57312
   0.54433  -0.28158  -0.72276
   0.55929  -0.32647  -0.73772
   0.51440  -0.14691  -0.78261
   0.45454  -0.16187  -0.88736
   0.39469  -0.05713  -0.87239
   0.27498   0.00273  -0.84247
   0.20016   0.12244  -0.82750
   0.15527   0.19726  -0.72276
   0.06549   0.13740  -0.75268
  -0.12904   0.24215  -0.66290
