********************************************************************************
               CENTRO DE INSTRUMENTACION Y REGISTRO SISMICO  A.C.  
                       Coordinacion de Servicios Tecnicos
     Anaxagoras 814, Col. Narvarte, Benito Juarez, C.P. 03020 Mexico, D.F.
            Tels. 667 45 42/ 687 45  82             Fax. 669 25 12
********************************************************************************
ARCHIVO ESTANDAR DE ACELERACION:
VERSION DEL FORMATO                    : 2.0
NOMBRE DEL ARCHIVO                     : AU119402.231
FECHA Y HORA DE CREACION               : 13 de febrero de 1996/18:55
REF. CATALOGO ACELEROGRAMAS, SMIS 1995 : REGISTRO No.     /PAG.


================================================================================
DATOS DE LA ESTACION:
NOMBRE DE LA ESTACION                  : AUTODROMO
CLAVE DE LA ESTACION                   : AU11
LOCALIZACION DE LA ESTACION            : AUTODROMO HERMANOS RODRIGUEZ,
                                       : CHURUBUSCO, CD. DEPORTIVA
                                       :
                                       :
                                       :
COORDENADAS DE LA ESTACION             : 19.392 LAT. N 
                                       : 99.087 LONG. W 
ALTITUD (msnm)                         : 2234
TIPO DE SUELO                          : TERRENO BLANDO, MATERIAL COMPRESIBLE
                                       : (ARCILLAS)
                                       : 
INSTITUCION RESPONSABLE                : CIRES 
                                       :

================================================================================
DATOS DEL ACELEROGRAFO:
MODELO DEL ACELEROGRAFO                : SSA-1
NUMERO DE SERIE DEL ACELEROGRAFO       : 157
NUMERO DE CANALES                      : 3
ORIENTACION C1-C6 (rumbo;orientacion)  : /N00E/+V/N90E
ORIENTACION C7-C12 (rumbo;orientacion) :
VEL. DE MUESTREO, C1-C6 (muestras/s)   : /200/200/200
VEL. DE MUESTREO, C7-C12 (muestras/s)  :
ESC. COMPLETA DE SENSORES, C1-C6, (g)  : /2/2/2
ESC. COMPLETA DE SENSORES, C7-C12, (g) :
FREC. NAT. DE SENSORES, C1-C6, (Hz)    : /50/50/50
FREC. NAT. DE SENSORES, C7-C12, (Hz)   :
AMORTIGUAMIENTO DE SENSORES, C1-C6     : /0.700/0.700/0.700
AMORTIGUAMIENTO DE SENSORES, C7-C12    :
INTERVALO DE MUESTREO, C1-C6, (s)      : /0.005/0.005/0.005
INTERVALO DE MUESTREO, C7-C12, (s)     :
UMBRAL DE DISPARO, C1-C6, (Gal)        : /1/1/1
UMBRAL DE DISPARO, C7-C12, (Gal)       :
MEMORIA DE PREEVENTO (s)               : 15
TIEMPO DE POSEVENTO (s)                : 90


================================================================================
DATOS DEL SISMO:
FECHA DEL SISMO (GMT)                  : 23/FEB/94
HORA EPICENTRO (GMT)                   : 14:13:51,0
MAGNITUD(ES)                           : /Mb=5.40/Mc=5.00
COORDENADAS DEL EPICENTRO              : 17.820 LAT. N 
                                       : 97.300 LONG. W 
PROFUNDIDAD FOCAL (km)                 : 53 
FUENTE DE LOS DATOS EPICENTRALES       : SSN
                                       : INSTITUTO DE GEOFISICA, UNAM

================================================================================
DATOS DE ESTE REGISTRO:
HORA DE LA PRIMERA MUESTRA (GMT)       : 14:14:00.00
EXACTITUD DEL TIEMPO (s)               :     
DURACION DEL REGISTRO (s), C1-C6       : /113.92/113.92/113.92
DURACION DEL REGISTRO (s), C7-C12      :
NUM. TOTAL DE MUESTRAS, C1-C6          : /22784/22784/22784
NUM. TOTAL DE MUESTRAS, C7-C12         :
ACEL. MAX. (Gal), C1-C6                : /1.30948/0.88312/1.20180
ACEL. MAX., C1-C6, EN LA MUESTRA       :
ACEL. MAX. (Gal), C7-C12               :
ACEL. MAX., C7-C12, EN LA MUESTRA      :
UNIDADES DE LOS DATOS                  : Gal (cm/s/s)
FACTOR DE DECIMACION                   : 1
FORMATO DATOS (FORTRAN,10 campos/dato) : 3F10.5


================================================================================
CALIDAD DEL ACELEROGRAMA:
REGISTRO DIGITAL COMPLETO, CARECE DE TIEMPO ABSOLUTO.


================================================================================
COMENTARIOS:
             El equipo se encontraba con ganancias de 4 en todos los ejes,
             por lo que las escalas completas eran de 1/2 g.












================================================================================
DATOS DE ACELERACION:
---------+---------+---------+---------+---------+---------+---------+---------+
   CANAL-1   CANAL-2   CANAL-3   CANAL-4   CANAL-5   CANAL-6   CANAL-7   CANAL-8
      N00E        +V      N90E
---------+---------+---------+---------+---------+---------+---------+---------+
[...]
   0.13052   0.06688  -0.23820
   0.13052   0.06688  -0.46820
   0.13052   0.06688  -0.46820
   0.13052   0.06688  -0.46820
   0.13052   0.06688  -0.46820
   0.13052   0.06688  -0.46820
   0.13052   0.06688  -0.46820
   0.13052   0.06688  -0.46820
   0.13052   0.06688  -0.46820
   0.13052   0.06688  -0.46820
   0.13052   0.06688  -0.46820
   0.13052   0.06688  -0.46820
   0.13052   0.06688  -0.46820
   0.13052   0.06688  -0.46820
   0.13052  -0.17312  -0.46820
   0.13052  -0.17312  -0.46820
   0.13052  -0.17312  -0.46820
   0.37052  -0.17312  -0.46820
   0.37052  -0.17312  -0.23820
   0.37052  -0.17312  -0.23820
   0.37052  -0.17312  -0.23820
   0.37052  -0.17312  -0.23820
   0.37052   0.06688  -0.23820
   0.37052   0.06688  -0.23820
   0.37052   0.06688  -0.23820
   0.61052   0.06688  -0.23820
   0.61052   0.06688  -0.23820
   0.61052   0.06688   0.00180
   0.61052   0.06688   0.00180
   0.61052   0.06688   0.00180
   0.85052   0.06688   0.00180
   0.85052   0.06688   0.00180
   0.61052   0.06688   0.00180
   0.61052   0.06688   0.00180
   0.61052  -0.17312   0.00180
   0.61052   0.06688   0.00180
   0.85052   0.06688   0.00180
   0.61052   0.06688   0.00180
   0.85052   0.06688   0.00180
   0.61052   0.06688   0.00180
   0.61052   0.06688   0.00180
   0.61052   0.06688   0.00180
   0.61052   0.06688   0.00180
   0.61052   0.06688   0.00180
   0.37052   0.06688   0.00180
   0.37052  -0.17312   0.00180
   0.37052  -0.17312   0.00180
   0.37052  -0.17312   0.00180
   0.37052  -0.17312   0.00180
   0.37052  -0.17312   0.00180
   0.37052  -0.17312   0.00180
   0.37052  -0.17312   0.24180
   0.37052  -0.17312   0.24180
   0.37052  -0.17312   0.24180
   0.37052  -0.17312   0.24180
   0.37052  -0.17312   0.24180
   0.37052  -0.17312   0.24180
   0.37052  -0.17312   0.00180
   0.37052   0.06688   0.24180
   0.37052  -0.17312   0.24180
   0.37052  -0.17312   0.24180
   0.37052  -0.17312   0.24180
   0.37052  -0.17312   0.24180
   0.13052  -0.17312   0.48180
   0.37052  -0.17312   0.48180
   0.37052  -0.17312   0.48180
   0.13052  -0.17312   0.48180
   0.37052  -0.17312   0.48180
   0.37052  -0.17312   0.48180
   0.37052  -0.41312   0.48180
   0.37052  -0.41312   0.48180
   0.37052  -0.41312   0.48180
   0.37052  -0.41312   0.48180
   0.37052  -0.41312   0.48180
   0.37052  -0.41312   0.48180
   0.37052  -0.41312   0.48180
   0.37052  -0.41312   0.48180
   0.13052  -0.41312   0.48180
   0.37052  -0.41312   0.48180
   0.13052  -0.41312   0.48180
   0.13052  -0.41312   0.48180
   0.13052  -0.41312   0.48180
   0.13052  -0.41312   0.48180
   0.13052  -0.17312   0.24180
   0.13052  -0.17312   0.24180
   0.13052  -0.41312   0.24180
   0.13052  -0.17312   0.24180
   0.13052  -0.17312   0.24180
  -0.10948  -0.17312   0.00180
  -0.10948  -0.17312   0.00180
  -0.10948  -0.17312   0.00180
  -0.10948  -0.17312   0.00180
  -0.10948  -0.17312  -0.23820
  -0.10948  -0.17312  -0.23820
  -0.10948  -0.17312  -0.23820
  -0.10948   0.06688  -0.23820
  -0.10948   0.06688  -0.23820
  -0.10948   0.06688  -0.46820
  -0.10948   0.06688  -0.46820
  -0.10948   0.06688  -0.46820
   0.13052   0.06688  -0.46820
  -0.10948   0.06688  -0.46820
   0.13052   0.06688  -0.46820
   0.13052   0.06688  -0.46820
   0.13052   0.06688  -0.46820
   0.13052   0.06688  -0.46820
   0.13052   0.06688  -0.23820
   0.13052   0.06688  -0.46820
   0.13052   0.06688  -0.46820
   0.13052   0.06688  -0.46820
   0.13052   0.06688  -0.46820
   0.13052   0.06688  -0.46820
  -0.10948   0.06688  -0.46820
  -0.10948   0.06688  -0.46820
  -0.10948   0.30688  -0.46820
  -0.10948   0.30688  -0.46820
  -0.10948   0.30688  -0.46820
  -0.10948   0.06688  -0.46820
  -0.10948   0.30688  -0.46820
  -0.10948   0.30688  -0.46820
  -0.34948   0.30688  -0.70820
  -0.34948   0.30688  -0.70820
  -0.34948   0.30688  -0.70820
  -0.34948   0.30688  -0.70820
  -0.58948   0.30688  -0.70820
  -0.58948   0.30688  -0.70820
  -0.58948   0.30688  -0.70820
  -0.58948   0.30688  -0.70820
  -0.58948   0.30688  -0.70820
  -0.58948   0.30688  -0.70820
  -0.58948   0.06688  -0.70820
  -0.82948   0.06688  -0.70820
  -0.58948   0.06688  -0.70820
  -0.82948   0.06688  -0.70820
  -0.58948   0.06688  -0.70820
  -0.58948   0.06688  -0.70820
  -0.58948   0.06688  -0.70820
  -0.58948   0.06688  -0.70820
  -0.58948   0.06688  -0.70820
  -0.58948  -0.17312  -0.70820
  -0.58948   0.06688  -0.70820
  -0.58948   0.06688  -0.46820
  -0.58948   0.06688  -0.70820
  -0.58948   0.06688  -0.46820
  -0.58948   0.06688  -0.46820
  -0.58948   0.06688  -0.46820
  -0.58948   0.06688  -0.46820
  -0.58948   0.06688  -0.23820
  -0.58948   0.06688  -0.23820
  -0.58948   0.06688  -0.23820
  -0.58948   0.06688  -0.23820
  -0.58948   0.06688  -0.23820
  -0.58948   0.06688  -0.23820
  -0.58948   0.06688  -0.23820
  -0.58948   0.06688  -0.23820
  -0.58948   0.06688  -0.23820
  -0.58948   0.06688  -0.23820
  -0.58948   0.06688  -0.23820
  -0.58948   0.06688  -0.23820
  -0.58948   0.06688  -0.23820
  -0.58948  -0.17312  -0.23820
  -0.58948   0.06688  -0.23820
  -0.58948  -0.17312  -0.23820
  -0.58948  -0.17312  -0.23820
  -0.58948  -0.17312  -0.23820
  -0.58948  -0.17312  -0.23820
  -0.58948  -0.17312  -0.23820
  -0.58948   0.06688  -0.23820
  -0.58948   0.06688  -0.23820
  -0.58948   0.06688  -0.23820
  -0.58948   0.06688  -0.23820
  -0.58948   0.06688  -0.23820
  -0.58948   0.30688  -0.23820
  -0.58948   0.30688  -0.23820
  -0.58948   0.30688  -0.23820
  -0.58948   0.30688  -0.23820
  -0.58948   0.30688  -0.23820
  -0.58948   0.30688  -0.23820
  -0.58948   0.30688  -0.23820
  -0.58948   0.30688  -0.23820
  -0.58948   0.30688  -0.23820
  -0.58948   0.30688  -0.23820
  -0.58948   0.30688  -0.23820
  -0.58948   0.30688  -0.23820
  -0.58948   0.30688  -0.23820
  -0.58948   0.30688  -0.23820
  -0.58948   0.06688  -0.23820
  -0.58948   0.06688  -0.23820
  -0.58948   0.06688  -0.23820
  -0.34948   0.06688  -0.23820
  -0.58948   0.06688  -0.23820
  -0.34948   0.06688  -0.23820
  -0.34948   0.06688  -0.23820
  -0.34948   0.06688  -0.23820
  -0.34948   0.06688  -0.23820
  -0.34948  -0.17312  -0.23820
  -0.34948  -0.17312  -0.23820
  -0.34948  -0.17312  -0.23820
  -0.34948  -0.17312  -0.23820
  -0.34948  -0.17312   0.00180
  -0.10948  -0.17312   0.00180
  -0.10948  -0.17312   0.00180
  -0.10948  -0.17312   0.00180
  -0.10948   0.06688   0.00180
  -0.10948   0.06688   0.00180
   0.13052   0.06688   0.00180
   0.13052   0.06688   0.00180
   0.13052   0.06688   0.00180
   0.13052   0.06688   0.00180
   0.13052   0.06688   0.00180
   0.13052   0.06688  -0.23820
   0.37052   0.06688   0.00180
   0.37052   0.06688   0.00180
   0.37052   0.06688   0.00180
   0.37052  -0.17312   0.00180
   0.37052  -0.17312  -0.23820
   0.61052  -0.17312  -0.23820
   0.61052  -0.17312  -0.23820
   0.61052  -0.17312  -0.23820
   0.85052  -0.17312  -0.23820
   0.61052  -0.41312  -0.23820
   0.61052  -0.41312  -0.23820
   0.85052  -0.41312  -0.23820
   0.85052  -0.41312  -0.23820
   0.85052  -0.41312  -0.23820
   0.85052  -0.41312  -0.23820
   0.85052  -0.41312  -0.46820
   0.85052  -0.17312  -0.46820
   0.85052  -0.17312  -0.46820
   0.85052  -0.17312  -0.46820
   0.85052  -0.17312  -0.46820
   0.85052  -0.17312  -0.46820
   0.85052  -0.17312  -0.46820
   0.85052  -0.17312  -0.46820
   0.85052  -0.17312  -0.46820
   0.85052  -0.17312  -0.46820
   0.61052  -0.17312  -0.46820
   0.61052  -0.17312  -0.46820
   0.61052  -0.17312  -0.46820
   0.61052  -0.17312  -0.23820
   0.61052  -0.17312  -0.23820
   0.61052  -0.17312  -0.23820
   0.61052  -0.41312  -0.23820
   0.61052  -0.17312  -0.23820
   0.37052  -0.17312  -0.23820
   0.37052  -0.17312  -0.23820
   0.37052  -0.17312  -0.23820
   0.37052  -0.17312   0.00180
   0.37052   0.06688   0.00180
   0.37052   0.06688   0.00180
   0.37052   0.06688   0.00180
   0.37052   0.06688   0.00180
   0.37052   0.06688   0.00180
   0.37052   0.06688   0.00180
   0.37052   0.06688   0.00180
   0.37052   0.06688   0.00180
   0.37052   0.06688   0.00180
   0.37052   0.06688   0.00180
   0.37052   0.06688   0.24180
   0.13052   0.06688   0.24180
   0.13052   0.06688   0.24180
   0.13052   0.06688   0.24180
   0.13052   0.06688   0.24180
   0.13052   0.06688   0.24180
   0.13052   0.06688   0.24180
   0.13052   0.06688   0.24180
  -0.10948   0.06688   0.24180
  -0.10948   0.06688   0.24180
  -0.10948   0.06688   0.24180
  -0.10948   0.06688   0.24180
  -0.10948   0.06688   0.24180
  -0.10948   0.30688   0.24180
  -0.34948   0.30688   0.24180
  -0.34948   0.30688   0.24180
  -0.34948   0.30688   0.24180
  -0.34948   0.30688   0.24180
  -0.34948   0.30688   0.24180
  -0.58948   0.30688   0.24180
  -0.58948   0.30688   0.24180
  -0.58948   0.30688   0.24180
  -0.58948   0.30688   0.24180
  -0.58948   0.30688   0.24180
  -0.82948   0.30688   0.24180
  -0.82948   0.06688   0.24180
  -0.82948   0.06688   0.24180
  -0.82948   0.06688   0.24180
  -0.82948   0.06688   0.24180
  -0.82948   0.06688   0.00180
  -1.06948   0.06688   0.00180
  -0.82948   0.06688   0.24180
  -1.06948  -0.17312   0.00180
  -1.06948  -0.17312   0.00180
  -1.06948  -0.17312   0.24180
  -1.06948  -0.17312   0.00180
  -1.06948  -0.17312   0.24180
  -1.06948  -0.17312   0.24180
  -1.06948  -0.17312   0.24180
  -0.82948  -0.17312   0.24180
  -0.82948  -0.17312   0.24180
  -0.82948  -0.17312   0.24180
  -0.82948  -0.17312   0.00180
  -0.82948  -0.17312   0.00180
  -0.82948  -0.17312   0.00180
  -0.58948  -0.17312   0.00180
  -0.58948  -0.17312   0.00180
  -0.58948  -0.17312   0.00180
  -0.58948  -0.17312   0.00180
  -0.58948  -0.17312   0.00180
  -0.34948  -0.17312   0.00180
  -0.34948  -0.17312  -0.23820
  -0.34948  -0.17312  -0.23820
  -0.34948  -0.17312  -0.23820
  -0.10948  -0.17312  -0.23820
  -0.10948  -0.17312  -0.23820
  -0.10948  -0.17312  -0.23820
  -0.10948  -0.17312  -0.23820
  -0.10948  -0.17312  -0.23820
  -0.10948  -0.17312  -0.23820
   0.13052   0.06688  -0.23820
   0.13052  -0.17312  -0.23820
   0.13052   0.06688  -0.23820
   0.13052   0.06688  -0.23820
   0.13052   0.06688  -0.23820
   0.13052   0.06688  -0.23820
   0.13052   0.06688  -0.23820
   0.13052   0.06688  -0.23820
   0.13052   0.06688  -0.23820
   0.37052  -0.17312  -0.23820
   0.37052  -0.17312  -0.23820
   0.37052  -0.17312  -0.23820
   0.37052  -0.17312  -0.23820
   0.37052  -0.17312  -0.23820
   0.37052  -0.17312  -0.23820
   0.37052  -0.17312  -0.23820
   0.61052  -0.17312  -0.23820
   0.61052  -0.17312   0.00180
   0.61052  -0.17312   0.00180
   0.61052  -0.17312   0.00180
   0.61052  -0.17312   0.00180
   0.61052  -0.17312   0.00180
   0.85052  -0.17312   0.24180
   0.85052  -0.17312   0.24180
   0.85052  -0.17312   0.24180
   0.85052  -0.17312   0.24180
   0.85052  -0.17312   0.24180
   0.85052  -0.17312   0.24180
   1.09052  -0.17312   0.24180
   1.09052  -0.17312   0.24180
   1.09052  -0.17312   0.24180
   1.09052  -0.17312   0.24180
   1.09052  -0.17312   0.24180
   1.09052  -0.17312   0.24180
   1.09052  -0.17312   0.24180
   1.09052  -0.17312   0.24180
   1.09052  -0.17312   0.24180
   1.09052  -0.17312   0.24180
   1.09052  -0.17312   0.24180
   1.09052  -0.17312   0.24180
   0.85052  -0.17312   0.24180
   0.85052  -0.17312   0.24180
   0.85052  -0.17312   0.24180
   0.85052  -0.17312   0.24180
   0.61052  -0.17312   0.24180
   0.85052  -0.17312   0.24180
   0.85052  -0.17312   0.24180
   0.61052   0.06688   0.24180
   0.61052  -0.17312   0.24180
   0.61052  -0.17312   0.24180
   0.61052   0.06688   0.48180
   0.61052   0.06688   0.48180
   0.37052   0.06688   0.48180
   0.37052   0.06688   0.48180
   0.37052   0.06688   0.48180
   0.37052   0.06688   0.48180
   0.37052   0.06688   0.48180
   0.37052   0.06688   0.48180
   0.13052   0.06688   0.48180
   0.37052   0.06688   0.48180
   0.13052   0.06688   0.48180
   0.13052   0.06688   0.48180
   0.13052   0.06688   0.48180
   0.13052   0.06688   0.48180
   0.13052   0.06688   0.48180
   0.13052   0.06688   0.48180
   0.13052   0.06688   0.48180
   0.13052   0.30688   0.48180
   0.13052   0.06688   0.48180
   0.13052   0.30688   0.48180
   0.13052   0.30688   0.24180
   0.13052   0.06688   0.48180
   0.13052   0.06688   0.48180
   0.13052   0.06688   0.48180
   0.13052   0.06688   0.48180
   0.13052   0.06688   0.48180
   0.13052   0.06688   0.48180
   0.13052   0.06688   0.48180
   0.13052   0.06688   0.48180
   0.37052   0.06688   0.48180
   0.37052   0.06688   0.48180
   0.37052   0.06688   0.48180
   0.37052   0.06688   0.48180
   0.37052   0.06688   0.48180
   0.37052   0.06688   0.48180
   0.37052   0.06688   0.48180
   0.37052   0.06688   0.48180
   0.37052   0.06688   0.48180
   0.37052   0.06688   0.48180
   0.37052   0.06688   0.48180
   0.37052   0.30688   0.24180
   0.61052   0.30688   0.24180
   0.37052   0.30688   0.24180
   0.61052   0.30688   0.24180
   0.61052   0.30688   0.24180
   0.61052   0.30688   0.00180
   0.61052   0.30688   0.00180
   0.61052   0.30688   0.00180
   0.61052   0.30688  -0.23820
   0.61052   0.30688  -0.23820
   0.85052   0.06688  -0.23820
   0.85052   0.30688  -0.23820
   0.85052   0.06688  -0.23820
   0.85052   0.06688  -0.46820
   0.85052   0.06688  -0.46820
   0.85052   0.06688  -0.46820
   0.85052   0.06688  -0.46820
   0.85052   0.06688  -0.70820
   0.85052   0.06688  -0.70820
   0.85052   0.06688  -0.70820
   0.85052   0.06688  -0.70820
   0.61052   0.06688  -0.70820
   0.61052   0.06688  -0.70820
   0.61052   0.06688  -0.70820
   0.61052   0.06688  -0.70820
   0.61052   0.06688  -0.70820
   0.61052   0.06688  -0.70820
   0.61052   0.06688  -0.70820
   0.61052   0.06688  -0.70820
   0.61052   0.06688  -0.70820
   0.61052  -0.17312  -0.70820
   0.37052  -0.17312  -0.70820
   0.37052  -0.17312  -0.70820
   0.37052  -0.17312  -0.46820
   0.37052  -0.17312  -0.46820
   0.37052  -0.17312  -0.46820
   0.37052  -0.17312  -0.46820
   0.13052  -0.17312  -0.23820
   0.13052  -0.17312  -0.23820
   0.13052  -0.17312  -0.23820
   0.13052  -0.17312  -0.23820
  -0.10948  -0.17312  -0.23820
  -0.10948  -0.17312   0.00180
  -0.10948   0.06688   0.00180
  -0.34948   0.06688   0.00180
  -0.34948   0.06688   0.00180
  -0.34948   0.06688   0.24180
  -0.58948   0.06688   0.24180
  -0.58948   0.06688   0.24180
  -0.58948   0.06688   0.24180
  -0.58948   0.06688   0.24180
  -0.58948   0.06688   0.24180
  -0.58948   0.06688   0.24180
  -0.82948   0.06688   0.24180
  -0.82948   0.06688   0.24180
  -0.82948   0.06688   0.48180
  -0.82948   0.06688   0.48180
  -0.82948   0.06688   0.48180
  -0.82948   0.06688   0.48180
  -1.06948   0.06688   0.48180
  -1.06948   0.06688   0.48180
  -1.06948   0.06688   0.48180
  -1.06948   0.06688   0.48180
  -1.06948   0.06688   0.48180
  -1.06948   0.06688   0.48180
  -1.06948   0.06688   0.48180
  -1.06948   0.06688   0.48180
  -1.06948   0.06688   0.48180
  -1.06948   0.06688   0.48180
  -1.06948   0.06688   0.48180
  -1.06948   0.06688   0.48180
  -1.06948   0.06688   0.48180
  -1.06948   0.06688   0.48180
  -1.06948   0.30688   0.48180
  -1.06948   0.30688   0.24180
  -1.06948   0.30688   0.24180
  -1.06948   0.30688   0.24180
  -1.06948   0.30688   0.24180
  -1.06948   0.30688   0.24180
  -1.06948   0.30688   0.24180
  -1.06948   0.30688   0.24180
  -1.06948   0.30688   0.24180
  -1.06948   0.06688   0.24180
  -1.06948   0.06688   0.00180
  -1.06948   0.06688   0.00180
  -1.06948   0.06688   0.00180
  -1.06948   0.06688   0.00180
