********************************************************************************
              CENTRO DE INSTRUMENTACION Y REGISTRO SISMICO  A.C.

    Anaxagoras 814, Col. Narvarte, Benito Juarez, C.P. 03020 Mexico, D.F.
           Tels. 5687 45 42/ 5687 45  82             Fax. 5669 25 12
********************************************************************************
ARCHIVO ESTANDAR DE ACELERACION:
VERSION DEL FORMATO                    : 2.0
NOMBRE DEL ARCHIVO                     : AU1120130816153259
FECHA Y HORA DE CREACION               : 03/SEP/13, 13:44
REF. CATALOGO ACELEROGRAMAS, SMIS 1996 : REGISTRO No.     /PAG.


================================================================================
DATOS DE LA ESTACION:
NOMBRE DE LA ESTACION                  : AUTÓDROMO
CLAVE DE LA ESTACION                   : AU11
LOCALIZACION DE LA ESTACION            : Del. Iztacalco, Cd. Deportiva          
                                       : Magdalena Mixhuca,                     
                                       : Col. Granjas México                    
                                       :                                        
                                       : 
COORDENADAS DE LA ESTACION             : 19.3919 LAT. N
                                       : 99.0869 LONG. W
ALTITUD (msnm)                         : 2234
TIPO DE SUELO                          : Terreno blando, material compresible
                                       : (arcillas)                
                                       : 
INSTITUCION RESPONSABLE                : CIRES
                                       : 

================================================================================
DATOS DEL ACELEROGRAFO:
MODELO DEL ACELEROGRAFO                : RADESD
NUMERO DE SERIE DEL ACELEROGRAFO       : 157
NUMERO DE CANALES                      : 3
ORIENTACION C1-C6 (rumbo;orientacion)  : /N00E/+V/N90W
ORIENTACION C7-C12 (rumbo;orientacion) : 
VEL. DE MUESTREO, C1-C6 (muestras/s)   : /100/100/100
VEL. DE MUESTREO, C7-C12 (muestras/s)  : 
ESC. COMPLETA DE SENSORES, C1-C6, (g)  : /0.5/0.5/0.5
ESC. COMPLETA DE SENSORES, C7-C12, (g) : 
FREC. NAT. DE SENSORES, C1-C6, (Hz)    : /51.77/52.56/52.29
FREC. NAT. DE SENSORES, C7-C12, (Hz)   : 
AMORTIGUAMIENTO DE SENSORES, C1-C6     : /0.5912/0.6083/0.6067
AMORTIGUAMIENTO DE SENSORES, C7-C12    : 
INTERVALO DE MUESTREO, C1-C6, (s)      : /0.01/0.01/0.01
INTERVALO DE MUESTREO, C7-C12, (s)     : 
UMBRAL DE DISPARO, C1-C6, (Gal)        : /11.49/30.65/11.49
UMBRAL DE DISPARO, C7-C12, (Gal)       : 
MEMORIA DE PREEVENTO (s)               : 56.0
TIEMPO DE POSEVENTO (s)                : 80.0


================================================================================
DATOS DEL SISMO:
FECHA DEL SISMO (GMT)                  : 16/AGO/13
HORA EPICENTRO (GMT)                   : 15:32:59.0
MAGNITUD(ES)                           : /Mc=5.1
COORDENADAS DEL EPICENTRO              : 16.54 LAT. N
                                       : 98.59 LONG. W
PROFUNDIDAD FOCAL (km)                 : 20
FUENTE DE LOS DATOS EPICENTRALES       : SSN
                                       : INSTITUTO DE GEOFISICA, UNAM

================================================================================
DATOS DE ESTE REGISTRO:
HORA DE LA PRIMERA MUESTRA (GMT)       : 15:34:45.00
EXACTITUD DEL TIEMPO (s)               : 0.01
DURACION DEL REGISTRO (s), C1-C6       : /178.4/178.4/178.4
DURACION DEL REGISTRO (s), C7-C12      : 
NUM. TOTAL DE MUESTRAS, C1-C6          : /17840/17840/17840
NUM. TOTAL DE MUESTRAS, C7-C12         : 
ACEL. MAX. (Gal), C1-C6                : /1.87987/0.56495/1.30393
ACEL. MAX., C1-C6, EN LA MUESTRA       : /3674/3644/4153
ACEL. MAX. (Gal), C7-C12               : 
ACEL. MAX., C7-C12, EN LA MUESTRA      : 
UNIDADES DE LOS DATOS                  : Gal (cm/s/s)
FACTOR DE DECIMACION                   : 1
FORMATO DATOS (FORTRAN,10 campos/dato) : 3F10.5


================================================================================
CALIDAD DEL ACELEROGRAMA:
REGISTRO DIGITAL COMPLETO CON TIEMPO ABSOLUTO CORRECTO.


================================================================================
COMENTARIOS:














================================================================================
DATOS DE ACELERACION:
---------+---------+---------+---------+---------+---------+---------+---------+
   CANAL-1   CANAL-2   CANAL-3   CANAL-4   CANAL-5   CANAL-6   CANAL-7   CANAL-8
      N00E        +V      N90W
---------+---------+---------+---------+---------+---------+---------+---------+
[...]
  -0.33477   0.03360   0.58567
  -0.28988   0.03360   0.52581
  -0.30484   0.04856   0.54078
  -0.21506   0.10842   0.46596
  -0.18513   0.07849   0.42107
  -0.17017   0.00367   0.46596
  -0.11031  -0.02626   0.42107
  -0.12528   0.10842   0.33129
  -0.00557   0.06353   0.27143
  -0.05046   0.12338   0.39114
  -0.03549   0.13834   0.22654
  -0.00557   0.15331   0.19661
   0.08422   0.15331   0.12179
   0.05429   0.07849   0.25647
   0.05429   0.12338   0.21158
   0.15904   0.03360   0.13676
   0.12911  -0.08611   0.28639
   0.09918   0.04856   0.09187
   0.08422   0.00367   0.31632
   0.18896  -0.04122   0.21158
   0.08422   0.10842   0.24150
   0.11414   0.12338   0.33129
   0.09918   0.16827   0.33129
   0.18896   0.15331   0.30136
   0.06925   0.12338   0.49589
   0.29371   0.10842   0.37618
   0.18896   0.25805   0.40610
   0.30867   0.18324   0.27143
   0.29371   0.13834   0.43603
   0.41342   0.15331   0.19661
   0.42838   0.15331   0.18165
   0.36853   0.07849   0.46596
   0.59299  -0.05618   0.28639
   0.63788  -0.01129   0.13676
   0.62291   0.01863  -0.04281
   0.54809   0.00367   0.12179
   0.47328   0.01863   0.24150
   0.65284  -0.07115   0.21158
   0.63788  -0.04122   0.03201
   0.59299  -0.11604   0.06194
   0.62291  -0.01129  -0.05777
   0.51817  -0.05618   0.13676
   0.66780  -0.10108   0.00208
   0.57802  -0.02626   0.18165
   0.63788  -0.13100   0.27143
   0.78751  -0.11604  -0.02784
   0.66780  -0.02626   0.03201
   0.65284  -0.02626   0.10683
   0.90722  -0.22079   0.15172
   0.87730  -0.17589   0.00208
   0.99701  -0.22079  -0.05777
   0.89226  -0.13100   0.04697
   1.11672  -0.25071  -0.07274
   1.13168  -0.20582  -0.08770
   1.20650  -0.16093  -0.13259
   1.26635  -0.22079  -0.25230
   1.23643  -0.22079  -0.26727
   1.29628  -0.14597  -0.35705
   1.22146  -0.13100  -0.29719
   1.20650  -0.08611  -0.38698
   1.16161  -0.04122  -0.49172
   1.16161  -0.07115  -0.41690
   1.04190  -0.01129  -0.37201
   1.04190   0.01863  -0.37201
   0.90722  -0.04122  -0.14755
   0.92219  -0.05618  -0.17748
   0.81744   0.01863  -0.17748
   0.90722  -0.08611  -0.32712
   0.78751   0.04856  -0.40194
   0.57802   0.16827  -0.34208
   0.68277  -0.01129  -0.35705
   0.48824   0.09345  -0.32712
   0.56306  -0.02626  -0.31216
   0.36853  -0.11604  -0.35705
   0.27875   0.06353  -0.50669
   0.39846   0.01863  -0.47676
   0.26378   0.13834  -0.50669
   0.33860   0.01863  -0.43187
   0.26378  -0.04122  -0.41690
   0.05429   0.07849  -0.17748
   0.08422   0.18324  -0.34208
  -0.00557  -0.04122  -0.23734
  -0.06542  -0.10108  -0.11763
  -0.21506  -0.01129  -0.07274
  -0.30484  -0.04122   0.01705
  -0.34973   0.03360   0.04697
  -0.51433   0.22813  -0.08770
  -0.31980   0.13834  -0.08770
  -0.31980   0.01863  -0.07274
  -0.37966   0.01863   0.10683
  -0.54426   0.12338   0.03201
  -0.43951   0.04856   0.13676
  -0.63404   0.34784   0.03201
  -0.42455   0.27302   0.00208
  -0.45448   0.31791   0.06194
  -0.61908   0.30295   0.13676
  -0.52930   0.30295   0.09187
  -0.43951   0.07849   0.22654
  -0.66397   0.18324   0.28639
  -0.58915   0.31791   0.07690
  -0.45448   0.13834   0.12179
  -0.43951   0.10842   0.22654
  -0.52930   0.13834   0.37618
  -0.69390   0.24309   0.21158
  -0.49937   0.09345   0.31632
  -0.54426   0.09345   0.45100
  -0.52930   0.04856   0.30136
  -0.48441   0.07849   0.45100
  -0.49937   0.03360   0.60063
  -0.63404   0.15331   0.37618
  -0.48441  -0.08611   0.69042
  -0.49937   0.03360   0.64552
  -0.42455  -0.11604   0.70538
  -0.36470  -0.10108   0.75027
  -0.48441  -0.20582   0.92984
  -0.49937   0.00367   0.76523
  -0.51433  -0.07115   0.92984
  -0.60412  -0.01129   0.76523
  -0.58915  -0.04122   0.79516
  -0.57419  -0.16093   0.92984
  -0.78368  -0.07115   1.03458
  -0.72383   0.06353   0.82509
  -0.76872  -0.17589   0.78020
  -0.79864   0.01863   0.82509
  -0.73879  -0.08611   0.69042
  -0.91835  -0.11604   0.81013
  -0.87346   0.06353   0.55574
  -0.85850  -0.16093   0.60063
  -0.90339   0.03360   0.43603
  -0.81361  -0.22079   0.46596
  -0.87346  -0.05618   0.22654
  -0.73879  -0.28064   0.34625
  -0.85850  -0.10108   0.04697
  -0.67893  -0.22079   0.16668
  -0.87346  -0.13100   0.13676
  -0.73879  -0.17589  -0.08770
  -0.67893  -0.14597  -0.02784
  -0.60412  -0.16093  -0.02784
  -0.54426  -0.19086  -0.11763
  -0.57419  -0.08611  -0.19245
  -0.54426  -0.20582  -0.20741
  -0.55922  -0.10108  -0.28223
  -0.63404  -0.04122  -0.32712
  -0.43951  -0.13100  -0.04281
  -0.40959  -0.08611  -0.19245
  -0.28988  -0.10108  -0.05777
  -0.30484   0.01863  -0.11763
  -0.33477  -0.11604   0.01705
  -0.23002   0.01863  -0.11763
  -0.28988   0.04856  -0.10266
  -0.12528   0.03360  -0.19245
  -0.14024   0.06353   0.00208
  -0.08038   0.16827  -0.31216
   0.08422  -0.01129  -0.20741
  -0.02053   0.06353  -0.10266
   0.03933   0.12338  -0.47676
   0.09918  -0.01129  -0.35705
   0.09918   0.04856  -0.38698
  -0.00557   0.16827  -0.46179
  -0.03549   0.00367  -0.28223
  -0.00557   0.07849  -0.52165
  -0.14024   0.22813  -0.40194
  -0.11031   0.03360  -0.25230
  -0.02053   0.03360  -0.25230
   0.11414   0.00367  -0.38698
  -0.12528   0.13834  -0.43187
  -0.14024  -0.01129  -0.08770
  -0.08038  -0.01129  -0.04281
   0.00940  -0.07115  -0.08770
   0.11414  -0.14597  -0.25230
   0.02436   0.04856  -0.26727
   0.11414  -0.16093  -0.01288
   0.38349  -0.20582  -0.29719
   0.39846  -0.19086  -0.34208
   0.44335  -0.07115  -0.40194
   0.41342  -0.14597  -0.10266
   0.47328  -0.23575  -0.13259
   0.59299  -0.28064  -0.04281
   0.66780  -0.11604  -0.19245
   0.68277  -0.19086  -0.16252
   0.93715  -0.26568  -0.23734
   0.93715  -0.11604  -0.28223
   1.01197  -0.22079  -0.11763
   1.11672  -0.31057  -0.17748
   1.20650  -0.17589  -0.14755
   1.23643  -0.17589  -0.11763
   1.23643  -0.08611  -0.17748
   1.19154  -0.07115  -0.23734
   1.23643   0.00367  -0.23734
   1.29628  -0.16093  -0.19245
   1.23643  -0.22079  -0.20741
   1.16161   0.00367  -0.31216
   1.04190   0.00367  -0.17748
   1.16161  -0.11604  -0.34208
   1.13168   0.00367  -0.41690
   1.01197   0.06353  -0.37201
   0.96708  -0.01129  -0.31216
   1.08679  -0.04122  -0.40194
   1.11672  -0.01129  -0.59647
   1.01197  -0.14597  -0.35705
   1.01197  -0.14597  -0.28223
   0.86233  -0.02626  -0.35705
   0.87730   0.03360  -0.46179
   0.92219  -0.01129  -0.62640
   0.77255   0.06353  -0.76107
   0.77255   0.10842  -0.73114
   0.72766   0.01863  -0.76107
   0.66780  -0.01129  -0.74611
   0.44335   0.04856  -0.64136
   0.48824  -0.26568  -0.59647
   0.39846  -0.13100  -0.68625
   0.29371  -0.07115  -0.80596
   0.24882  -0.16093  -0.77603
   0.17400  -0.16093  -0.73114
   0.09918  -0.23575  -0.79100
   0.06925  -0.22079  -0.62640
  -0.03549  -0.22079  -0.64136
  -0.05046  -0.13100  -0.67129
  -0.02053  -0.11604  -0.59647
  -0.11031   0.01863  -0.70121
  -0.14024  -0.11604  -0.29719
  -0.09535  -0.19086  -0.50669
  -0.12528  -0.05618  -0.47676
  -0.20009   0.13834  -0.52165
  -0.15520   0.00367  -0.38698
  -0.09535   0.06353  -0.41690
  -0.03549   0.09345  -0.46179
  -0.00557  -0.01129  -0.32712
  -0.00557  -0.07115  -0.29719
  -0.03549  -0.02626  -0.14755
  -0.24499   0.06353  -0.16252
  -0.21506   0.13834  -0.34208
  -0.15520   0.13834  -0.19245
  -0.11031   0.15331  -0.17748
  -0.28988   0.18324   0.01705
  -0.15520   0.03360   0.18165
  -0.15520   0.15331  -0.02784
  -0.23002   0.13834   0.06194
  -0.30484   0.25805   0.03201
  -0.30484   0.16827   0.21158
  -0.42455   0.19820   0.37618
  -0.58915   0.30295   0.39114
  -0.40959   0.27302   0.19661
  -0.43951   0.10842   0.22654
  -0.46944   0.12338   0.24150
  -0.40959   0.06353   0.28639
  -0.58915   0.12338   0.43603
  -0.55922  -0.01129   0.39114
  -0.52930   0.03360   0.24150
  -0.46944   0.06353   0.19661
  -0.52930   0.07849   0.15172
  -0.58915   0.07849   0.19661
  -0.54426   0.13834   0.09187
  -0.48441  -0.05618   0.24150
  -0.67893   0.00367   0.31632
  -0.78368   0.19820   0.36121
  -0.72383   0.24309   0.21158
  -0.69390   0.12338   0.16668
  -0.67893   0.03360   0.28639
  -0.82857   0.13834   0.45100
  -0.87346   0.12338   0.40610
  -1.02310   0.22813   0.37618
  -0.99317   0.21316   0.33129
  -0.93332   0.18324   0.18165
  -0.97821   0.16827   0.19661
  -0.94828  -0.01129   0.16668
  -1.06799   0.00367   0.28639
  -1.08296   0.04856   0.18165
  -1.17274   0.06353   0.34625
  -1.06799   0.10842   0.19661
  -1.05303   0.00367   0.16668
  -1.06799   0.09345   0.16668
  -1.06799  -0.02626   0.21158
  -1.03806   0.06353   0.39114
  -0.99317   0.16827   0.04697
  -0.91835   0.03360   0.24150
  -0.99317   0.04856   0.39114
  -0.93332   0.19820   0.45100
  -0.85850   0.30295   0.12179
  -0.79864   0.10842   0.15172
  -0.73879   0.01863   0.27143
  -0.93332   0.25805   0.18165
  -0.75375   0.15331   0.07690
  -0.82857  -0.02626   0.12179
  -0.87346   0.07849   0.30136
  -0.90339   0.28798   0.13676
  -0.88843   0.22813  -0.13259
  -0.91835   0.22813  -0.07274
  -0.84354   0.06353   0.07690
  -1.05303   0.28798   0.07690
  -0.93332   0.27302  -0.13259
  -0.99317   0.19820  -0.11763
  -0.81361   0.10842  -0.10266
  -0.94828   0.22813  -0.05777
  -0.88843   0.19820  -0.28223
  -0.84354   0.18324   0.01705
  -0.70886   0.19820  -0.19245
  -0.70886  -0.01129   0.09187
  -0.57419   0.13834   0.01705
  -0.58915  -0.02626  -0.02784
  -0.51433  -0.20582   0.04697
  -0.43951   0.00367   0.04697
  -0.33477  -0.11604  -0.10266
  -0.24499  -0.22079   0.13676
  -0.25995  -0.23575   0.25647
  -0.21506  -0.05618  -0.05777
  -0.11031  -0.19086  -0.11763
  -0.03549  -0.32553   0.24150
  -0.11031  -0.14597   0.00208
   0.09918  -0.35546   0.06194
  -0.03549  -0.40035   0.15172
   0.08422  -0.28064   0.07690
   0.09918  -0.37042  -0.07274
   0.17400  -0.43028   0.03201
   0.08422  -0.28064  -0.11763
   0.30867  -0.44524  -0.11763
   0.26378  -0.56495   0.06194
   0.18896  -0.38539  -0.14755
   0.26378  -0.32553  -0.25230
   0.42838  -0.28064  -0.38698
   0.45831  -0.31057  -0.43187
   0.38349  -0.29560  -0.22237
   0.50320  -0.16093  -0.17748
   0.72766  -0.29560  -0.43187
   0.83241  -0.22079  -0.37201
   0.84737  -0.17589  -0.17748
   0.98204  -0.23575  -0.22237
   0.96708  -0.11604  -0.05777
   0.90722   0.04856  -0.17748
   1.13168  -0.05618  -0.13259
   1.11672  -0.14597  -0.01288
   1.04190  -0.01129  -0.16252
   1.35614  -0.14597  -0.05777
   1.25139  -0.04122   0.07690
   1.31125   0.04856  -0.14755
   1.43096   0.06353  -0.10266
   1.40103   0.22813  -0.13259
   1.37110   0.06353  -0.10266
   1.47585   0.16827  -0.13259
   1.64045   0.09345   0.03201
   1.59556   0.15331  -0.05777
   1.61052   0.04856   0.09187
   1.80505   0.06353   0.09187
   1.71527   0.10842   0.18165
   1.79009   0.22813   0.09187
   1.68534   0.12338   0.21158
   1.87987   0.12338   0.21158
   1.70030   0.01863   0.39114
   1.82001   0.18324   0.25647
   1.65541   0.21316   0.34625
   1.67038  -0.01129   0.36121
   1.76016   0.09345   0.45100
   1.61052   0.06353   0.40610
   1.67038   0.04856   0.34625
   1.64045  -0.11604   0.64552
   1.43096   0.03360   0.34625
   1.47585   0.00367   0.25647
   1.46088  -0.02626   0.57071
   1.34117  -0.05618   0.45100
   1.37110  -0.13100   0.28639
   1.23643  -0.01129   0.21158
   1.14664  -0.14597   0.40610
   1.19154  -0.13100   0.19661
   1.05686  -0.07115   0.13676
   0.96708  -0.05618   0.04697
   0.98204  -0.05618   0.13676
   0.78751  -0.07115   0.31632
   0.56306   0.06353   0.18165
   0.56306   0.12338  -0.01288
   0.51817   0.01863   0.00208
   0.48824  -0.10108  -0.04281
   0.41342  -0.13100   0.03201
   0.29371  -0.04122  -0.02784
   0.27875  -0.01129  -0.04281
   0.24882  -0.07115  -0.17748
   0.27875  -0.05618  -0.11763
   0.03933   0.03360  -0.16252
   0.06925   0.12338  -0.26727
  -0.11031   0.18324  -0.16252
  -0.12528   0.07849  -0.23734
  -0.14024   0.12338  -0.14755
  -0.11031   0.10842  -0.20741
  -0.21506   0.16827  -0.26727
  -0.23002   0.07849  -0.17748
  -0.27491   0.10842  -0.16252
  -0.34973   0.03360  -0.14755
  -0.31980   0.03360  -0.13259
  -0.49937   0.10842  -0.05777
  -0.51433   0.15331  -0.14755
  -0.55922   0.15331  -0.11763
  -0.55922   0.12338  -0.08770
  -0.66397   0.31791  -0.10266
  -0.81361   0.33287   0.01705
  -0.81361   0.36280   0.06194
  -0.72383   0.43762  -0.01288
  -0.70886   0.40769  -0.07274
  -0.84354   0.36280   0.10683
  -0.87346   0.30295   0.28639
  -0.87346   0.37776   0.19661
  -0.76872   0.19820   0.43603
  -0.70886   0.19820   0.40610
  -0.69390   0.18324   0.18165
  -0.72383   0.27302   0.28639
  -0.82857   0.19820   0.39114
  -0.70886   0.13834   0.57071
  -0.78368   0.10842   0.36121
  -0.82857   0.19820   0.37618
  -0.91835   0.07849   0.61560
  -0.96325   0.07849   0.63056
  -1.00814   0.10842   0.49589
  -1.00814   0.01863   0.69042
  -0.87346  -0.01129   0.40610
  -0.87346   0.01863   0.39114
  -1.00814   0.13834   0.34625
  -1.02310   0.16827   0.24150
  -0.94828   0.03360   0.31632
  -0.99317  -0.08611   0.52581
  -1.03806   0.00367   0.43603
  -1.09792  -0.01129   0.52581
  -1.03806  -0.01129   0.40610
  -1.09792  -0.05618   0.49589
  -0.87346  -0.17589   0.37618
  -0.91835  -0.16093   0.25647
  -0.87346  -0.07115   0.24150
  -0.85850  -0.05618   0.21158
  -0.88843   0.04856   0.18165
  -0.84354   0.10842   0.12179
  -0.85850   0.06353   0.21158
  -0.88843   0.07849   0.31632
  -0.87346  -0.02626   0.42107
  -0.78368  -0.05618   0.42107
  -0.66397  -0.10108   0.39114
  -0.57419  -0.11604   0.15172
  -0.51433  -0.04122   0.12179
  -0.49937   0.06353   0.01705
  -0.52930  -0.05618  -0.01288
  -0.40959   0.00367  -0.08770
  -0.46944  -0.05618   0.13676
  -0.42455  -0.02626   0.16668
  -0.34973   0.04856  -0.01288
  -0.23002   0.00367  -0.22237
  -0.03549  -0.07115  -0.19245
  -0.11031   0.01863  -0.25230
  -0.08038  -0.02626  -0.31216
  -0.05046  -0.02626  -0.22237
   0.02436  -0.02626  -0.31216
   0.02436  -0.16093  -0.37201
   0.08422  -0.10108  -0.29719
  -0.03549   0.03360  -0.32712
  -0.05046  -0.05618  -0.20741
  -0.00557  -0.19086  -0.16252
   0.05429  -0.10108  -0.23734
   0.11414  -0.07115  -0.40194
   0.15904  -0.04122  -0.37201
   0.18896  -0.14597  -0.28223
   0.23385  -0.14597  -0.11763
   0.20393  -0.13100  -0.17748
   0.35356  -0.10108  -0.35705
   0.44335  -0.19086  -0.38698
   0.39846  -0.25071  -0.26727
   0.33860  -0.13100  -0.17748
   0.50320  -0.20582  -0.25230
   0.50320  -0.23575  -0.19245
   0.44335  -0.25071  -0.13259
   0.38349  -0.13100  -0.19245
   0.44335  -0.23575  -0.20741
   0.30867  -0.16093   0.01705
   0.24882  -0.05618  -0.07274
   0.17400  -0.01129  -0.02784
   0.32364  -0.04122  -0.04281
   0.36853  -0.17589  -0.19245
   0.27875  -0.02626  -0.19245
   0.27875   0.07849  -0.25230
   0.33860   0.13834  -0.38698
   0.38349   0.04856  -0.29719
   0.38349   0.00367  -0.25230
   0.53313  -0.16093  -0.13259
   0.51817  -0.08611  -0.22237
   0.50320  -0.02626  -0.28223
   0.57802  -0.04122  -0.28223
   0.56306  -0.01129  -0.16252
   0.57802   0.01863  -0.13259
   0.62291   0.01863  -0.05777
   0.72766  -0.13100  -0.10266
   0.68277  -0.14597  -0.04281
   0.71270  -0.13100   0.01705
   0.75759  -0.16093  -0.04281
   0.87730  -0.28064   0.00208
   0.86233  -0.20582  -0.01288
   0.87730  -0.26568  -0.04281
   0.81744  -0.23575   0.03201
   0.60795  -0.16093   0.13676
   0.47328  -0.07115   0.00208
   0.63788  -0.17589  -0.01288
   0.72766  -0.25071  -0.08770
   0.68277  -0.17589  -0.17748
