********************************************************************************
               CENTRO DE INSTRUMENTACION Y REGISTRO SISMICO  A.C.  
                       Coordinacion de Servicios Tecnicos
     Anaxagoras 814, Col. Narvarte, Benito Juarez, C.P. 03020 Mexico, D.F.
            Tels. 667 45 42/ 687 45  82             Fax. 669 25 12
********************************************************************************
ARCHIVO ESTANDAR DE ACELERACION:
VERSION DEL FORMATO                    : 2.0
NOMBRE DEL ARCHIVO                     : AU119707.192
FECHA Y HORA DE CREACION               : 18/MAR/98, 13:30
REF. CATALOGO ACELEROGRAMAS, SMIS 1996 : REGISTRO No.     /PAG.


================================================================================
DATOS DE LA ESTACION:
NOMBRE DE LA ESTACION                  : AUTODROMO
CLAVE DE LA ESTACION                   : AU11
LOCALIZACION DE LA ESTACION            : AUTODROMO HERMANOS RODRIGUEZ,
                                       : CHURUBUSCO, CD. DEPORTIVA
                                       :
                                       :
                                       :
COORDENADAS DE LA ESTACION             : 19.392 LAT. N 
                                       : 99.087 LONG. W 
ALTITUD (msnm)                         : 2234
TIPO DE SUELO                          : TERRENO BLANDO, MATERIAL COMPRESIBLE
                                       : (ARCILLAS)
                                       : 
INSTITUCION RESPONSABLE                : CIRES 
                                       :

================================================================================
DATOS DEL ACELEROGRAFO:
MODELO DEL ACELEROGRAFO                : SSA-1
NUMERO DE SERIE DEL ACELEROGRAFO       : 157
NUMERO DE CANALES                      : 3
ORIENTACION C1-C6 (rumbo;orientacion)  : /N00E/+V/N90E
ORIENTACION C7-C12 (rumbo;orientacion) :
VEL. DE MUESTREO, C1-C6 (muestras/s)   : /200/200/200
VEL. DE MUESTREO, C7-C12 (muestras/s)  :
ESC. COMPLETA DE SENSORES, C1-C6, (g)  : /2/2/2
ESC. COMPLETA DE SENSORES, C7-C12, (g) :
FREC. NAT. DE SENSORES, C1-C6, (Hz)    : /51.77/52.56/52.29
FREC. NAT. DE SENSORES, C7-C12, (Hz)   :
AMORTIGUAMIENTO DE SENSORES, C1-C6     : /.5912/.6083/.6067
AMORTIGUAMIENTO DE SENSORES, C7-C12    :
INTERVALO DE MUESTREO, C1-C6, (s)      : /0.005/0.005/0.005
INTERVALO DE MUESTREO, C7-C12, (s)     :
UMBRAL DE DISPARO, C1-C6, (Gal)        : /2/2/2
UMBRAL DE DISPARO, C7-C12, (Gal)       :
MEMORIA DE PREEVENTO (s)               : 15
TIEMPO DE POSEVENTO (s)                : 60


================================================================================
DATOS DEL SISMO:
FECHA DEL SISMO (GMT)                  : 19/JUL/97
HORA EPICENTRO (GMT)                   : 14:22:04:1
MAGNITUD(ES)                           : /Ms=6.3
COORDENADAS DEL EPICENTRO              : 15.8 LAT. N
                                       : 98.3 LONG. W
PROFUNDIDAD FOCAL (km)                 : 5.0
FUENTE DE LOS DATOS EPICENTRALES       : SSN
                                       : INSTITUTO DE GEOFISICA, UNAM

================================================================================
DATOS DE ESTE REGISTRO:
HORA DE LA PRIMERA MUESTRA (GMT)       : 14:22:00.00
EXACTITUD DEL TIEMPO (s)               :     
DURACION DEL REGISTRO (s), C1-C6       : /130.56/130.56/130.56
DURACION DEL REGISTRO (s), C7-C12      :
NUM. TOTAL DE MUESTRAS, C1-C6          : /26112/26112/26112
NUM. TOTAL DE MUESTRAS, C7-C12         :
ACEL. MAX. (Gal), C1-C6                : /2.57649/0.83402/3.34914
ACEL. MAX., C1-C6, EN LA MUESTRA       :
ACEL. MAX. (Gal), C7-C12               :
ACEL. MAX., C7-C12, EN LA MUESTRA      :
UNIDADES DE LOS DATOS                  : Gal (cm/s/s)
FACTOR DE DECIMACION                   : 1
FORMATO DATOS (FORTRAN,10 campos/dato) : 3F10.5


================================================================================
CALIDAD DEL ACELEROGRAMA:
REGISTRO DIGITAL COMPLETO, CARECE DE TIEMPO ABSOLUTO.


================================================================================
COMENTARIOS:














================================================================================
DATOS DE ACELERACION:
---------+---------+---------+---------+---------+---------+---------+---------+
   CANAL-1   CANAL-2   CANAL-3   CANAL-4   CANAL-5   CANAL-6   CANAL-7   CANAL-8
      N00E        +V      N90E
---------+---------+---------+---------+---------+---------+---------+---------+
[...]
  -0.18649   0.11402  -2.40086
  -0.18649   0.11402  -2.40086
  -0.18649   0.11402  -2.40086
  -0.18649   0.11402  -2.16086
  -0.18649   0.11402  -2.16086
  -0.18649   0.11402  -2.16086
  -0.18649   0.11402  -2.16086
  -0.18649   0.11402  -2.16086
  -0.18649   0.11402  -2.16086
  -0.18649   0.11402  -2.16086
  -0.18649  -0.12598  -2.16086
  -0.18649  -0.12598  -2.16086
  -0.18649  -0.12598  -2.16086
  -0.18649  -0.12598  -2.16086
  -0.18649  -0.12598  -2.16086
  -0.18649  -0.12598  -2.16086
  -0.18649  -0.12598  -1.92086
  -0.18649  -0.12598  -1.92086
  -0.18649  -0.12598  -1.92086
  -0.18649  -0.12598  -1.92086
  -0.18649  -0.12598  -1.92086
  -0.18649  -0.12598  -1.92086
  -0.18649  -0.12598  -1.92086
  -0.18649  -0.12598  -1.92086
  -0.18649  -0.12598  -1.92086
   0.05351  -0.12598  -1.92086
   0.05351  -0.12598  -1.92086
   0.05351  -0.12598  -1.92086
   0.05351  -0.12598  -1.92086
   0.05351  -0.12598  -1.92086
   0.05351  -0.12598  -1.92086
   0.05351  -0.12598  -1.92086
   0.05351  -0.12598  -1.92086
   0.05351  -0.12598  -1.92086
   0.05351  -0.12598  -1.92086
  -0.18649  -0.12598  -1.92086
   0.05351  -0.12598  -1.68086
   0.05351  -0.12598  -1.68086
   0.05351  -0.12598  -1.68086
  -0.18649  -0.12598  -1.68086
   0.05351  -0.12598  -1.68086
   0.05351  -0.12598  -1.68086
   0.05351  -0.12598  -1.68086
   0.05351  -0.12598  -1.92086
   0.05351  -0.12598  -1.68086
   0.05351  -0.12598  -1.68086
   0.05351  -0.12598  -1.68086
   0.05351  -0.12598  -1.68086
  -0.18649  -0.12598  -1.68086
  -0.18649  -0.12598  -1.68086
  -0.18649  -0.12598  -1.68086
   0.05351  -0.12598  -1.68086
  -0.18649  -0.12598  -1.68086
   0.05351  -0.12598  -1.68086
   0.05351  -0.12598  -1.68086
   0.05351  -0.12598  -1.68086
   0.05351  -0.12598  -1.68086
   0.05351  -0.12598  -1.44086
  -0.18649  -0.12598  -1.44086
   0.05351  -0.12598  -1.44086
   0.05351  -0.12598  -1.44086
   0.05351  -0.12598  -1.44086
   0.05351  -0.12598  -1.44086
   0.05351  -0.12598  -1.44086
   0.05351  -0.12598  -1.44086
   0.05351  -0.12598  -1.44086
  -0.18649  -0.12598  -1.44086
   0.05351  -0.12598  -1.44086
  -0.18649  -0.12598  -1.44086
  -0.18649  -0.12598  -1.44086
  -0.18649  -0.12598  -1.44086
  -0.18649  -0.12598  -1.44086
  -0.18649  -0.12598  -1.20086
  -0.18649  -0.12598  -1.20086
  -0.18649  -0.12598  -1.44086
  -0.18649  -0.12598  -1.20086
  -0.18649  -0.12598  -1.44086
  -0.18649  -0.12598  -1.20086
  -0.18649  -0.12598  -1.20086
  -0.18649  -0.12598  -1.20086
  -0.18649  -0.12598  -1.20086
  -0.18649  -0.12598  -1.20086
  -0.18649  -0.12598  -1.20086
  -0.18649  -0.12598  -1.20086
  -0.18649  -0.12598  -1.20086
  -0.18649  -0.12598  -0.96086
  -0.18649  -0.12598  -0.96086
  -0.18649  -0.12598  -0.96086
  -0.18649  -0.12598  -1.20086
  -0.18649  -0.12598  -1.20086
  -0.18649  -0.12598  -1.20086
  -0.18649  -0.12598  -1.20086
  -0.18649  -0.12598  -1.20086
  -0.18649  -0.12598  -0.96086
  -0.18649  -0.12598  -0.96086
  -0.18649  -0.12598  -0.96086
  -0.18649  -0.12598  -0.96086
  -0.42649  -0.12598  -0.96086
  -0.42649  -0.12598  -0.96086
  -0.42649  -0.12598  -0.96086
  -0.18649  -0.12598  -0.96086
  -0.18649  -0.12598  -0.96086
  -0.42649   0.11402  -0.96086
  -0.42649   0.11402  -0.96086
  -0.42649  -0.12598  -0.96086
  -0.42649  -0.12598  -0.96086
  -0.42649  -0.12598  -0.96086
  -0.42649  -0.12598  -0.96086
  -0.42649  -0.12598  -0.96086
  -0.42649  -0.12598  -0.96086
  -0.42649  -0.12598  -0.96086
  -0.42649  -0.12598  -0.96086
  -0.42649  -0.12598  -0.96086
  -0.42649  -0.12598  -0.96086
  -0.42649  -0.12598  -0.96086
  -0.42649  -0.12598  -0.96086
  -0.66649  -0.12598  -0.72086
  -0.66649  -0.12598  -0.96086
  -0.42649   0.11402  -0.72086
  -0.42649  -0.12598  -0.96086
  -0.42649  -0.12598  -0.72086
  -0.66649  -0.12598  -0.72086
  -0.66649  -0.12598  -0.72086
  -0.66649  -0.12598  -0.72086
  -0.66649  -0.12598  -0.72086
  -0.66649  -0.12598  -0.72086
  -0.66649  -0.12598  -0.72086
  -0.66649  -0.12598  -0.72086
  -0.66649  -0.12598  -0.72086
  -0.66649  -0.12598  -0.72086
  -0.66649  -0.12598  -0.72086
  -0.66649  -0.12598  -0.72086
  -0.66649  -0.12598  -0.72086
  -0.66649   0.11402  -0.72086
  -0.66649   0.11402  -0.72086
  -0.66649   0.11402  -0.48086
  -0.66649   0.11402  -0.48086
  -0.66649  -0.12598  -0.48086
  -0.66649  -0.12598  -0.48086
  -0.66649  -0.12598  -0.48086
  -0.66649  -0.12598  -0.48086
  -0.66649  -0.12598  -0.48086
  -0.66649  -0.12598  -0.48086
  -0.66649  -0.12598  -0.48086
  -0.66649  -0.12598  -0.48086
  -0.66649  -0.12598  -0.48086
  -0.66649  -0.12598  -0.48086
  -0.66649  -0.12598  -0.24086
  -0.66649  -0.12598  -0.24086
  -0.66649  -0.12598  -0.24086
  -0.66649   0.11402  -0.24086
  -0.66649   0.11402  -0.24086
  -0.66649   0.11402  -0.24086
  -0.66649   0.11402  -0.24086
  -0.66649   0.11402  -0.24086
  -0.66649   0.11402  -0.24086
  -0.66649   0.11402  -0.24086
  -0.66649   0.11402  -0.24086
  -0.66649  -0.12598  -0.24086
  -0.66649  -0.12598  -0.24086
  -0.66649  -0.12598  -0.24086
  -0.66649   0.11402  -0.00086
  -0.66649  -0.12598  -0.00086
  -0.66649  -0.12598  -0.00086
  -0.66649  -0.12598  -0.00086
  -0.66649   0.11402  -0.00086
  -0.66649  -0.12598  -0.00086
  -0.66649   0.11402  -0.00086
  -0.66649   0.11402  -0.00086
  -0.66649   0.11402  -0.00086
  -0.66649   0.11402  -0.00086
  -0.66649   0.11402  -0.00086
  -0.66649   0.11402  -0.00086
  -0.66649   0.11402  -0.00086
  -0.66649   0.11402  -0.00086
  -0.66649   0.11402  -0.00086
  -0.66649   0.11402  -0.00086
  -0.66649   0.11402  -0.00086
  -0.66649   0.11402  -0.00086
  -0.66649   0.11402   0.23914
  -0.66649   0.11402  -0.00086
  -0.66649   0.11402   0.23914
  -0.66649   0.11402   0.23914
  -0.66649   0.11402   0.23914
  -0.90649   0.35402   0.23914
  -0.90649   0.11402   0.23914
  -0.90649   0.11402   0.23914
  -0.90649   0.11402   0.23914
  -0.90649   0.11402   0.23914
  -0.90649   0.11402   0.23914
  -0.90649   0.11402   0.23914
  -0.90649   0.11402   0.23914
  -0.90649   0.11402   0.23914
  -0.90649   0.11402   0.23914
  -0.90649   0.11402   0.47914
  -0.90649   0.11402   0.47914
  -0.90649   0.11402   0.47914
  -0.90649   0.11402   0.23914
  -1.14649   0.11402   0.47914
  -1.14649   0.11402   0.47914
  -1.14649   0.11402   0.47914
  -0.90649   0.11402   0.71914
  -0.90649   0.11402   0.47914
  -0.90649   0.11402   0.47914
  -0.90649   0.11402   0.47914
  -0.90649   0.11402   0.47914
  -0.90649   0.11402   0.47914
  -0.90649   0.11402   0.47914
  -0.90649   0.11402   0.71914
  -0.90649   0.11402   0.71914
  -0.90649   0.11402   0.71914
  -0.90649   0.11402   0.71914
  -0.90649   0.11402   0.47914
  -0.90649  -0.12598   0.71914
  -1.14649   0.11402   0.71914
  -0.90649  -0.12598   0.71914
  -0.90649   0.11402   0.71914
  -0.90649   0.11402   0.95914
  -0.90649   0.11402   0.71914
  -0.90649   0.11402   0.95914
  -0.90649   0.11402   0.71914
  -0.90649   0.11402   0.95914
  -0.90649   0.11402   0.95914
  -0.90649   0.11402   0.95914
  -0.90649   0.11402   0.95914
  -0.90649   0.11402   0.95914
  -0.90649   0.11402   0.95914
  -0.90649   0.11402   0.95914
  -0.90649   0.11402   0.95914
  -0.90649   0.11402   0.95914
  -0.90649   0.11402   0.95914
  -1.14649   0.11402   0.95914
  -0.90649  -0.12598   0.95914
  -0.90649   0.11402   0.95914
  -0.90649   0.11402   0.95914
  -0.90649   0.11402   0.95914
  -0.90649   0.11402   0.95914
  -0.90649   0.11402   1.19914
  -0.90649   0.11402   0.95914
  -0.90649   0.11402   1.19914
  -0.90649   0.11402   0.95914
  -0.90649   0.11402   1.19914
  -0.90649  -0.12598   1.19914
  -0.90649  -0.12598   1.19914
  -0.90649  -0.12598   1.19914
  -0.90649  -0.12598   1.19914
  -0.90649  -0.12598   1.19914
  -0.90649  -0.12598   1.19914
  -0.90649  -0.12598   1.19914
  -0.90649  -0.12598   1.42914
  -0.90649   0.11402   1.42914
  -0.90649   0.11402   1.42914
  -0.90649   0.11402   1.42914
  -0.90649   0.11402   1.42914
  -0.90649  -0.12598   1.42914
  -0.90649  -0.12598   1.42914
  -0.90649  -0.12598   1.42914
  -0.90649  -0.12598   1.42914
  -0.90649  -0.12598   1.42914
  -0.90649  -0.12598   1.42914
  -0.90649  -0.12598   1.42914
  -0.90649  -0.12598   1.42914
  -0.90649  -0.12598   1.42914
  -0.90649  -0.12598   1.42914
  -0.90649  -0.12598   1.66914
  -0.90649  -0.12598   1.66914
  -0.90649  -0.12598   1.66914
  -0.66649  -0.12598   1.66914
  -0.90649  -0.12598   1.66914
  -0.90649  -0.12598   1.90914
  -0.90649  -0.12598   1.66914
  -0.90649  -0.12598   1.90914
  -0.90649  -0.12598   1.90914
  -0.90649  -0.12598   1.90914
  -0.90649  -0.12598   1.90914
  -0.66649  -0.12598   1.90914
  -0.66649  -0.12598   1.90914
  -0.66649  -0.12598   1.90914
  -0.66649  -0.12598   1.90914
  -0.66649  -0.12598   1.90914
  -0.90649   0.11402   2.14914
  -0.90649   0.11402   2.14914
  -0.90649   0.11402   2.14914
  -0.66649  -0.12598   2.14914
  -0.66649  -0.12598   2.14914
  -0.66649  -0.12598   2.14914
  -0.66649  -0.12598   2.14914
  -0.66649  -0.12598   2.14914
  -0.90649  -0.12598   2.14914
  -0.90649  -0.12598   2.14914
  -0.66649  -0.12598   2.14914
  -0.66649  -0.12598   2.38914
  -0.66649  -0.12598   2.38914
  -0.66649  -0.12598   2.38914
  -0.66649  -0.12598   2.38914
  -0.66649  -0.12598   2.38914
  -0.66649  -0.12598   2.38914
  -0.66649  -0.12598   2.38914
  -0.66649  -0.12598   2.38914
  -0.66649  -0.12598   2.38914
  -0.66649  -0.12598   2.38914
  -0.66649  -0.12598   2.38914
  -0.66649  -0.12598   2.38914
  -0.66649  -0.12598   2.62914
  -0.66649  -0.12598   2.38914
  -0.66649  -0.12598   2.38914
  -0.66649  -0.12598   2.62914
  -0.66649  -0.12598   2.62914
  -0.66649  -0.12598   2.62914
  -0.66649  -0.12598   2.62914
  -0.66649  -0.12598   2.62914
  -0.66649  -0.12598   2.62914
  -0.66649  -0.12598   2.62914
  -0.66649  -0.12598   2.62914
  -0.66649  -0.12598   2.62914
  -0.42649   0.11402   2.62914
  -0.42649  -0.12598   2.62914
  -0.42649  -0.12598   2.62914
  -0.66649  -0.12598   2.86914
  -0.66649  -0.12598   2.86914
  -0.42649   0.11402   2.86914
  -0.66649  -0.12598   2.86914
  -0.66649  -0.12598   2.86914
  -0.66649  -0.12598   2.86914
  -0.42649  -0.12598   2.86914
  -0.42649  -0.12598   2.86914
  -0.66649  -0.12598   2.86914
  -0.66649   0.11402   2.86914
  -0.42649  -0.12598   2.86914
  -0.42649  -0.12598   2.86914
  -0.42649  -0.12598   2.86914
  -0.66649  -0.12598   2.86914
  -0.42649  -0.12598   2.86914
  -0.42649   0.11402   2.86914
  -0.42649   0.11402   2.86914
  -0.42649   0.11402   3.10914
  -0.42649   0.11402   3.10914
  -0.42649   0.11402   3.10914
  -0.42649   0.11402   3.10914
  -0.42649   0.11402   3.10914
  -0.18649  -0.12598   3.10914
  -0.42649   0.11402   3.10914
  -0.42649   0.11402   3.10914
  -0.42649   0.11402   3.10914
  -0.42649   0.11402   3.10914
  -0.42649   0.11402   3.10914
  -0.42649   0.11402   3.10914
  -0.18649   0.11402   3.10914
  -0.18649   0.35402   3.10914
  -0.18649   0.35402   3.34914
  -0.18649   0.11402   3.34914
  -0.18649   0.11402   3.34914
  -0.18649   0.11402   3.34914
  -0.18649   0.35402   3.34914
  -0.18649   0.11402   3.34914
  -0.18649   0.35402   3.34914
  -0.18649   0.11402   3.34914
  -0.18649   0.11402   3.34914
  -0.18649   0.11402   3.34914
  -0.18649   0.11402   3.34914
  -0.18649   0.11402   3.34914
  -0.18649   0.11402   3.34914
  -0.18649   0.11402   3.34914
  -0.18649   0.11402   3.34914
  -0.18649   0.11402   3.34914
  -0.18649   0.11402   3.34914
  -0.18649   0.11402   3.34914
   0.05351   0.11402   3.34914
  -0.18649   0.11402   3.34914
  -0.18649   0.11402   3.34914
   0.05351   0.11402   3.34914
   0.05351   0.11402   3.34914
   0.05351   0.11402   3.34914
   0.05351   0.11402   3.34914
   0.05351   0.11402   3.34914
   0.05351   0.35402   3.34914
   0.05351   0.35402   3.34914
   0.05351   0.35402   3.34914
  -0.18649   0.11402   3.34914
   0.05351   0.35402   3.34914
   0.05351   0.35402   3.34914
   0.05351   0.11402   3.34914
   0.05351   0.11402   3.34914
   0.05351   0.35402   3.34914
   0.05351   0.35402   3.34914
   0.05351   0.35402   3.34914
   0.05351   0.11402   3.34914
   0.05351   0.11402   3.34914
   0.05351   0.11402   3.34914
   0.05351   0.11402   3.34914
   0.05351   0.11402   3.34914
   0.05351   0.11402   3.34914
   0.05351   0.11402   3.10914
   0.05351   0.11402   3.34914
   0.05351   0.11402   3.10914
   0.05351   0.11402   3.10914
   0.05351   0.11402   3.10914
   0.05351   0.11402   3.10914
   0.05351   0.11402   3.10914
   0.05351   0.11402   3.10914
   0.05351   0.11402   3.10914
   0.05351   0.11402   3.10914
   0.05351   0.11402   3.10914
   0.05351   0.11402   3.10914
   0.05351  -0.12598   3.10914
   0.05351   0.11402   3.10914
   0.29351  -0.12598   3.10914
   0.29351   0.11402   3.10914
   0.29351   0.11402   3.10914
   0.29351   0.11402   3.10914
   0.29351   0.11402   2.86914
   0.29351   0.11402   3.10914
   0.29351   0.11402   2.86914
   0.29351   0.11402   2.86914
   0.29351   0.11402   2.86914
   0.29351   0.11402   2.86914
   0.29351   0.11402   3.10914
   0.29351   0.11402   2.86914
   0.29351   0.11402   2.86914
   0.29351   0.11402   2.86914
   0.29351   0.11402   2.86914
   0.29351   0.11402   2.86914
   0.05351   0.11402   2.86914
   0.29351   0.35402   2.86914
   0.29351   0.11402   2.86914
   0.29351   0.35402   2.86914
   0.29351   0.11402   2.86914
   0.29351   0.35402   2.86914
   0.29351   0.35402   2.86914
   0.29351  -0.12598   2.62914
   0.29351   0.11402   2.62914
   0.29351   0.35402   2.62914
   0.29351   0.35402   2.86914
   0.29351   0.35402   2.62914
   0.29351   0.35402   2.62914
   0.29351   0.35402   2.62914
   0.29351   0.11402   2.62914
   0.05351   0.11402   2.62914
   0.29351   0.11402   2.62914
   0.29351   0.11402   2.62914
   0.05351   0.11402   2.62914
   0.29351   0.11402   2.62914
   0.29351   0.11402   2.62914
   0.29351   0.11402   2.62914
   0.29351   0.11402   2.62914
   0.05351   0.35402   2.62914
   0.29351   0.35402   2.62914
   0.29351   0.35402   2.62914
   0.29351   0.35402   2.62914
   0.29351   0.11402   2.62914
   0.29351   0.11402   2.62914
   0.29351   0.11402   2.62914
   0.29351   0.11402   2.62914
   0.05351   0.11402   2.62914
   0.29351   0.35402   2.38914
   0.29351   0.35402   2.62914
   0.29351   0.35402   2.62914
   0.29351   0.35402   2.62914
   0.29351   0.35402   2.38914
   0.29351   0.35402   2.38914
   0.29351   0.35402   2.38914
   0.29351   0.35402   2.38914
   0.29351   0.35402   2.38914
   0.29351   0.35402   2.38914
   0.05351   0.35402   2.38914
   0.05351   0.35402   2.38914
   0.05351   0.35402   2.38914
   0.05351   0.35402   2.38914
   0.05351   0.35402   2.38914
   0.05351   0.35402   2.38914
   0.05351   0.35402   2.38914
   0.05351   0.35402   2.38914
   0.05351   0.35402   2.38914
   0.05351   0.35402   2.38914
   0.05351   0.35402   2.38914
   0.05351   0.35402   2.38914
   0.05351   0.35402   2.38914
   0.05351   0.35402   2.38914
   0.05351   0.35402   2.14914
   0.05351   0.35402   2.38914
   0.05351   0.11402   2.38914
  -0.18649   0.35402   2.38914
  -0.18649   0.35402   2.14914
  -0.18649   0.35402   2.14914
   0.05351   0.35402   2.14914
  -0.18649   0.35402   2.14914
  -0.18649   0.35402   2.14914
   0.05351   0.11402   2.14914
  -0.18649   0.11402   2.14914
  -0.18649   0.35402   2.14914
  -0.18649   0.11402   2.14914
   0.05351   0.11402   2.14914
  -0.18649   0.11402   2.14914
  -0.18649   0.11402   1.90914
  -0.18649   0.11402   1.90914
  -0.18649   0.11402   1.90914
  -0.18649   0.11402   1.90914
  -0.18649   0.11402   1.90914
  -0.18649   0.11402   1.90914
  -0.18649   0.11402   1.90914
