********************************************************************************
              CENTRO DE INSTRUMENTACION Y REGISTRO SISMICO  A.C.

    Anaxagoras 814, Col. Narvarte, Benito Juarez, C.P. 03020 Mexico, D.F.
           Tels. 5687 45 42/ 5687 45  82             Fax. 5669 25 12
********************************************************************************
ARCHIVO ESTANDAR DE ACELERACION:
VERSION DEL FORMATO                    : 2.0
NOMBRE DEL ARCHIVO                     : AU1120120411225510
FECHA Y HORA DE CREACION               : 15/MAY/12, 09:49
REF. CATALOGO ACELEROGRAMAS, SMIS 1996 : REGISTRO No.     /PAG.


================================================================================
DATOS DE LA ESTACION:
NOMBRE DE LA ESTACION                  : AUTÓDROMO
CLAVE DE LA ESTACION                   : AU11
LOCALIZACION DE LA ESTACION            : Del. Iztacalco, Cd. Deportiva          
                                       : Magdalena Mixhuca,                     
                                       : Col. Granjas México                    
                                       :                                        
                                       : 
COORDENADAS DE LA ESTACION             : 19.3919 LAT. N
                                       : 99.0869 LONG. W
ALTITUD (msnm)                         : 2234
TIPO DE SUELO                          : Terreno blando, material compresible
                                       : (arcillas)                
                                       : 
INSTITUCION RESPONSABLE                : CIRES
                                       : 

================================================================================
DATOS DEL ACELEROGRAFO:
MODELO DEL ACELEROGRAFO                : RADESD
NUMERO DE SERIE DEL ACELEROGRAFO       : 157
NUMERO DE CANALES                      : 3
ORIENTACION C1-C6 (rumbo;orientacion)  : /N00E/+V/N90W
ORIENTACION C7-C12 (rumbo;orientacion) : 
VEL. DE MUESTREO, C1-C6 (muestras/s)   : /100/100/100
VEL. DE MUESTREO, C7-C12 (muestras/s)  : 
ESC. COMPLETA DE SENSORES, C1-C6, (g)  : /0.5/0.5/0.5
ESC. COMPLETA DE SENSORES, C7-C12, (g) : 
FREC. NAT. DE SENSORES, C1-C6, (Hz)    : /51.77/52.56/52.29
FREC. NAT. DE SENSORES, C7-C12, (Hz)   : 
AMORTIGUAMIENTO DE SENSORES, C1-C6     : /0.5912/0.6083/0.6067
AMORTIGUAMIENTO DE SENSORES, C7-C12    : 
INTERVALO DE MUESTREO, C1-C6, (s)      : /0.01/0.01/0.01
INTERVALO DE MUESTREO, C7-C12, (s)     : 
UMBRAL DE DISPARO, C1-C6, (Gal)        : /0.72/1.92/0.72
UMBRAL DE DISPARO, C7-C12, (Gal)       : 
MEMORIA DE PREEVENTO (s)               : 56.0
TIEMPO DE POSEVENTO (s)                : 64.0


================================================================================
DATOS DEL SISMO:
FECHA DEL SISMO (GMT)                  : 11/ABR/12
HORA EPICENTRO (GMT)                   : 22:55:10.0
MAGNITUD(ES)                           : /Mc=6.4
COORDENADAS DEL EPICENTRO              : 17.90 LAT. N
                                       : 103.06 LONG. W
PROFUNDIDAD FOCAL (km)                 : 16
FUENTE DE LOS DATOS EPICENTRALES       : SSN
                                       : INSTITUTO DE GEOFISICA, UNAM

================================================================================
DATOS DE ESTE REGISTRO:
HORA DE LA PRIMERA MUESTRA (GMT)       : 22:57:13.00
EXACTITUD DEL TIEMPO (s)               : 0.01
DURACION DEL REGISTRO (s), C1-C6       : /458.25/458.25/458.25
DURACION DEL REGISTRO (s), C7-C12      : 
NUM. TOTAL DE MUESTRAS, C1-C6          : /45825/45825/45825
NUM. TOTAL DE MUESTRAS, C7-C12         : 
ACEL. MAX. (Gal), C1-C6                : /5.09591/1.40033/4.10433
ACEL. MAX., C1-C6, EN LA MUESTRA       : /6875/6882/9650
ACEL. MAX. (Gal), C7-C12               : 
ACEL. MAX., C7-C12, EN LA MUESTRA      : 
UNIDADES DE LOS DATOS                  : Gal (cm/s/s)
FACTOR DE DECIMACION                   : 1
FORMATO DATOS (FORTRAN,10 campos/dato) : 3F10.5


================================================================================
CALIDAD DEL ACELEROGRAMA:
REGISTRO DIGITAL COMPLETO CON TIEMPO ABSOLUTO CORRECTO.


================================================================================
COMENTARIOS:














================================================================================
DATOS DE ACELERACION:
---------+---------+---------+---------+---------+---------+---------+---------+
   CANAL-1   CANAL-2   CANAL-3   CANAL-4   CANAL-5   CANAL-6   CANAL-7   CANAL-8
      N00E        +V      N90W
---------+---------+---------+---------+---------+---------+---------+---------+
[...]
   0.65017   0.20323   0.20524
   0.88959   0.44265  -0.03418
   0.88959   0.44265  -0.03418
   1.12901   0.44265  -0.03418
   1.36843   0.44265  -0.27361
   1.36843   0.44265  -0.27361
   1.36843   0.44265  -0.27361
   1.36843   0.68207  -0.51303
   1.60785   0.68207  -0.75245
   1.84727   0.68207  -0.75245
   2.08669   0.68207  -0.75245
   2.08669   0.68207  -0.99187
   2.32611   0.68207  -0.99187
   2.32611   0.44265  -1.23129
   2.56553   0.44265  -1.23129
   2.56553   0.68207  -1.23129
   2.80495   0.68207  -1.23129
   2.80495   0.92149  -1.47071
   3.28379   0.92149  -1.71013
   3.28379   0.68207  -1.47071
   3.28379   0.68207  -1.71013
   3.28379   0.68207  -1.71013
   3.52321   0.68207  -1.71013
   3.52321   0.68207  -1.71013
   3.76263   0.68207  -1.94955
   3.76263   0.68207  -1.71013
   3.76263   0.68207  -1.94955
   3.76263   0.68207  -1.94955
   4.00206   0.68207  -2.18897
   4.00206   0.92149  -1.94955
   3.76263   0.68207  -1.94955
   4.00206   0.68207  -1.94955
   4.00206   0.68207  -1.94955
   3.76263   0.68207  -1.71013
   4.00206   0.68207  -1.71013
   3.76263   0.68207  -1.71013
   3.76263   0.68207  -1.71013
   3.76263   0.68207  -1.71013
   3.76263   0.68207  -1.71013
   3.76263   0.92149  -1.71013
   3.28379   0.68207  -1.47071
   3.76263   0.68207  -1.47071
   3.28379   0.68207  -1.71013
   3.28379   0.68207  -1.47071
   3.04437   0.44265  -1.47071
   3.28379   0.68207  -1.71013
   3.28379   0.44265  -1.71013
   3.04437   0.44265  -1.47071
   2.80495   0.44265  -1.71013
   2.80495   0.44265  -1.71013
   2.80495   0.44265  -1.71013
   2.56553   0.20323  -1.71013
   2.56553   0.44265  -1.71013
   2.56553   0.20323  -1.71013
   2.56553   0.20323  -1.71013
   2.56553   0.20323  -1.94955
   2.80495   0.20323  -1.94955
   2.32611   0.20323  -1.94955
   2.32611   0.20323  -1.94955
   2.32611   0.20323  -2.18897
   2.32611   0.20323  -2.42839
   2.08669   0.20323  -2.42839
   2.32611   0.20323  -2.66781
   2.08669  -0.03619  -2.66781
   1.84727   0.20323  -2.42839
   1.84727   0.20323  -2.66781
   1.84727   0.20323  -2.90723
   1.84727  -0.03619  -2.66781
   1.36843  -0.03619  -2.66781
   1.36843  -0.03619  -2.66781
   1.36843  -0.03619  -2.90723
   1.12901  -0.03619  -2.66781
   1.12901   0.20323  -3.14665
   0.65017  -0.03619  -3.14665
   0.65017   0.20323  -2.90723
   0.65017   0.20323  -2.90723
   0.41075   0.20323  -2.90723
   0.17133   0.20323  -2.90723
  -0.06809  -0.03619  -3.14665
  -0.06809   0.20323  -2.90723
  -0.06809  -0.03619  -2.90723
  -0.30751   0.20323  -2.90723
  -0.06809   0.20323  -3.14665
  -0.78635  -0.03619  -2.90723
  -0.54693   0.20323  -2.66781
  -0.54693   0.20323  -2.66781
  -0.54693  -0.03619  -2.66781
  -0.78635  -0.03619  -2.42839
  -0.78635  -0.03619  -2.66781
  -1.02577  -0.27561  -2.42839
  -1.02577  -0.03619  -2.42839
  -1.02577  -0.03619  -2.66781
  -1.26519  -0.27561  -2.42839
  -1.26519  -0.27561  -2.18897
  -1.26519  -0.27561  -2.42839
  -1.26519  -0.51503  -2.18897
  -1.50461  -0.51503  -2.18897
  -1.50461  -0.51503  -1.94955
  -1.50461  -0.51503  -2.18897
  -1.74403  -0.75445  -1.94955
  -1.74403  -0.75445  -1.47071
  -1.74403  -0.75445  -1.94955
  -1.98345  -0.51503  -1.71013
  -1.98345  -0.75445  -1.71013
  -1.98345  -0.51503  -1.47071
  -1.98345  -0.75445  -1.71013
  -2.22287  -0.75445  -1.47071
  -2.46229  -0.75445  -1.47071
  -2.22287  -0.99387  -1.23129
  -2.22287  -0.75445  -1.47071
  -2.46229  -0.99387  -1.23129
  -2.46229  -0.99387  -1.23129
  -2.70171  -0.75445  -1.23129
  -2.70171  -0.99387  -0.99187
  -2.70171  -0.99387  -0.99187
  -2.94113  -0.99387  -0.99187
  -2.70171  -0.75445  -0.75245
  -2.94113  -0.99387  -0.75245
  -3.18055  -0.99387  -0.51303
  -3.18055  -0.99387  -0.51303
  -3.41997  -0.99387  -0.27361
  -3.41997  -0.99387  -0.27361
  -3.41997  -0.99387  -0.27361
  -3.41997  -0.99387  -0.03418
  -3.65939  -1.23329  -0.03418
  -3.41997  -1.23329  -0.03418
  -3.65939  -1.23329   0.44466
  -3.65939  -0.99387   0.20524
  -3.89881  -1.23329   0.20524
  -3.89881  -0.99387   0.20524
  -3.89881  -1.23329   0.44466
  -3.65939  -0.99387   0.20524
  -3.89881  -0.99387   0.44466
  -3.89881  -0.99387   0.68408
  -3.89881  -0.99387   0.68408
  -3.89881  -0.99387   0.68408
  -3.89881  -0.99387   0.68408
  -3.89881  -0.99387   0.92350
  -3.89881  -0.99387   0.68408
  -3.89881  -0.75445   0.92350
  -3.89881  -0.51503   0.92350
  -3.89881  -0.75445   0.92350
  -3.89881  -0.51503   0.92350
  -3.89881  -0.75445   1.16292
  -3.65939  -0.75445   1.16292
  -3.65939  -0.51503   1.16292
  -3.41997  -0.75445   0.92350
  -3.41997  -0.51503   0.92350
  -3.41997  -0.51503   1.16292
  -3.18055  -0.75445   1.16292
  -3.41997  -0.51503   1.16292
  -3.18055  -0.51503   1.40234
  -2.94113  -0.51503   1.40234
  -2.94113  -0.51503   1.40234
  -2.70171  -0.51503   1.40234
  -2.70171  -0.51503   1.64176
  -2.46229  -0.51503   1.88118
  -2.46229  -0.27561   1.64176
  -2.22287  -0.51503   2.12060
  -2.22287  -0.51503   1.88118
  -2.46229  -0.51503   2.12060
  -2.22287  -0.51503   2.12060
  -1.98345  -0.27561   2.36002
  -1.98345  -0.51503   2.36002
  -1.74403  -0.27561   2.36002
  -1.50461  -0.27561   2.36002
  -1.50461  -0.27561   2.36002
  -1.50461  -0.27561   2.59944
  -1.50461  -0.03619   2.36002
  -1.26519  -0.27561   2.59944
  -1.26519  -0.27561   2.36002
  -1.26519  -0.03619   2.59944
  -1.26519  -0.03619   2.36002
  -0.78635  -0.03619   2.59944
  -0.78635  -0.03619   2.59944
  -0.78635  -0.03619   2.59944
  -0.54693  -0.03619   2.59944
  -0.54693  -0.03619   2.36002
  -0.54693  -0.03619   2.59944
  -0.54693  -0.03619   2.36002
  -0.54693  -0.03619   2.59944
  -0.54693   0.20323   2.59944
  -0.30751  -0.03619   2.36002
  -0.30751   0.20323   2.12060
  -0.30751   0.44265   1.88118
  -0.30751  -0.03619   2.12060
  -0.06809   0.20323   2.12060
  -0.06809   0.44265   1.88118
  -0.06809   0.44265   2.12060
  -0.06809   0.44265   1.88118
  -0.06809   0.20323   1.88118
  -0.06809   0.44265   1.64176
  -0.06809   0.44265   1.64176
   0.17133   0.44265   1.40234
   0.17133   0.44265   1.64176
  -0.06809   0.44265   1.40234
  -0.06809   0.44265   1.40234
  -0.06809   0.44265   1.40234
  -0.30751   0.44265   0.92350
  -0.06809   0.68207   0.92350
  -0.06809   0.68207   0.92350
  -0.06809   0.68207   0.68408
  -0.30751   0.44265   0.92350
  -0.30751   0.68207   0.92350
  -0.54693   0.44265   0.68408
  -0.54693   0.68207   0.68408
  -0.54693   0.44265   0.68408
  -0.54693   0.68207   0.68408
  -0.54693   0.44265   0.92350
  -0.78635   0.68207   0.68408
  -0.78635   0.68207   0.68408
  -0.78635   0.92149   0.68408
  -1.02577   0.68207   0.68408
  -0.78635   0.92149   0.44466
  -1.26519   0.92149   0.68408
  -1.02577   0.68207   0.68408
  -1.26519   0.68207   0.68408
  -1.02577   0.92149   0.68408
  -1.26519   0.92149   0.44466
  -1.26519   0.68207   0.44466
  -1.26519   0.68207   0.44466
  -1.50461   0.68207   0.44466
  -1.50461   0.68207   0.44466
  -1.50461   0.68207   0.44466
  -1.50461   0.68207   0.20524
  -1.50461   0.68207   0.20524
  -1.74403   0.68207  -0.03418
  -1.74403   0.68207  -0.03418
  -1.50461   1.16091  -0.03418
  -1.50461   0.92149  -0.27361
  -1.74403   0.68207  -0.27361
  -1.98345   0.68207  -0.27361
  -1.74403   0.68207  -0.51303
  -1.74403   0.68207  -0.27361
  -1.74403   0.68207  -0.51303
  -1.98345   0.92149  -0.75245
  -1.74403   0.68207  -0.75245
  -1.74403   0.68207  -0.75245
  -1.74403   0.68207  -0.75245
  -1.74403   0.44265  -0.99187
  -1.50461   0.68207  -0.75245
  -1.74403   0.68207  -0.99187
  -1.74403   0.68207  -0.99187
  -1.74403   0.68207  -0.99187
  -1.50461   0.68207  -1.23129
  -1.50461   0.68207  -0.99187
  -1.50461   0.68207  -1.23129
  -1.50461   0.44265  -0.99187
  -1.26519   0.44265  -0.99187
  -1.50461   0.44265  -0.99187
  -1.26519   0.44265  -0.99187
  -1.50461   0.44265  -0.75245
  -1.50461   0.20323  -0.99187
  -1.50461   0.20323  -0.75245
  -1.26519   0.44265  -0.75245
  -1.26519   0.20323  -0.75245
  -1.02577   0.20323  -0.51303
  -1.26519   0.44265  -0.51303
  -1.02577   0.20323  -0.51303
  -1.02577   0.20323  -0.51303
  -0.78635   0.20323  -0.51303
  -1.02577   0.20323  -0.51303
  -0.78635   0.20323  -0.51303
  -0.54693  -0.03619  -0.51303
  -0.54693   0.44265  -0.51303
  -0.06809   0.44265  -0.51303
  -0.06809   0.20323  -0.27361
  -0.06809   0.20323  -0.27361
  -0.06809  -0.03619  -0.51303
   0.17133   0.44265  -0.51303
   0.17133   0.20323  -0.51303
   0.17133   0.20323  -0.03418
   0.41075   0.20323  -0.75245
   0.17133  -0.03619  -0.51303
   0.65017  -0.03619  -0.27361
   0.41075  -0.03619  -0.51303
   0.65017   0.20323  -0.27361
   0.41075  -0.03619  -0.75245
   0.41075   0.20323  -0.51303
   0.88959  -0.03619  -0.51303
   0.88959  -0.03619  -0.51303
   1.12901  -0.03619  -0.51303
   0.88959  -0.27561  -0.51303
   0.88959  -0.03619  -0.51303
   0.88959  -0.27561  -0.51303
   1.12901  -0.27561  -0.51303
   1.12901  -0.27561  -0.51303
   1.36843  -0.27561  -0.51303
   1.12901  -0.51503  -0.51303
   1.36843  -0.51503  -0.27361
   1.36843  -0.27561  -0.27361
   1.60785  -0.27561  -0.51303
   1.60785  -0.51503  -0.27361
   1.84727  -0.51503  -0.03418
   1.84727  -0.27561  -0.27361
   1.84727  -0.27561  -0.03418
   1.84727  -0.51503  -0.27361
   1.84727  -0.27561   0.20524
   2.08669  -0.27561  -0.03418
   2.08669  -0.27561  -0.03418
   2.32611  -0.27561   0.20524
   2.08669  -0.27561  -0.03418
   2.32611  -0.27561   0.20524
   2.56553  -0.27561   0.20524
   2.56553  -0.03619   0.20524
   2.32611  -0.03619   0.20524
   2.32611  -0.27561   0.20524
   2.56553  -0.03619   0.44466
   2.56553  -0.03619  -0.03418
   2.56553  -0.03619   0.20524
   2.56553  -0.03619   0.20524
   2.80495  -0.03619   0.44466
   2.80495   0.20323   0.20524
   2.56553  -0.03619   0.44466
   2.80495   0.20323   0.44466
   2.80495  -0.03619   0.68408
   2.80495  -0.03619   0.44466
   2.80495   0.20323   0.44466
   3.28379  -0.03619   0.44466
   3.04437  -0.03619   0.44466
   3.04437  -0.03619   0.44466
   3.28379   0.20323   0.20524
   3.28379  -0.03619   0.44466
   3.28379  -0.03619   0.20524
   3.52321  -0.03619   0.44466
   3.52321  -0.03619   0.44466
   3.52321  -0.03619   0.44466
   3.76263  -0.03619   0.20524
   3.76263  -0.03619   0.44466
   3.76263  -0.03619   0.44466
   3.76263  -0.03619   0.68408
   4.00206  -0.03619   0.44466
   4.24148  -0.03619   0.44466
   4.00206  -0.27561   0.68408
   4.24148  -0.27561   0.68408
   4.24148  -0.27561   0.92350
   4.24148  -0.27561   0.68408
   4.48090  -0.27561   0.68408
   4.24148  -0.27561   0.44466
   4.48090  -0.27561   0.68408
   4.24148  -0.27561   0.68408
   4.48090  -0.27561   0.68408
   4.72032  -0.51503   0.68408
   4.48090  -0.51503   0.44466
   4.72032  -0.51503   0.20524
   4.72032  -0.51503   0.68408
   4.95974  -0.51503   0.20524
   4.72032  -0.51503   0.20524
   4.48090  -0.51503   0.20524
   4.48090  -0.75445   0.44466
   4.48090  -0.75445  -0.03418
   4.48090  -0.75445  -0.03418
   4.48090  -0.75445  -0.03418
   4.48090  -0.75445  -0.03418
   4.48090  -0.99387  -0.03418
   4.48090  -0.99387  -0.27361
   4.48090  -0.99387  -0.27361
   4.48090  -0.99387  -0.27361
   4.24148  -0.99387  -0.27361
   3.76263  -0.99387  -0.27361
   4.00206  -0.75445  -0.27361
   4.00206  -0.99387  -0.27361
   3.76263  -0.99387  -0.27361
   3.52321  -0.99387  -0.51303
   3.52321  -0.75445  -0.51303
   3.52321  -0.99387  -0.27361
   3.28379  -0.75445  -0.51303
   3.28379  -0.75445  -0.27361
   2.80495  -0.99387  -0.27361
   2.80495  -0.99387  -0.27361
   2.80495  -0.75445  -0.27361
   2.56553  -0.75445  -0.27361
   2.56553  -0.75445  -0.27361
   2.08669  -0.75445  -0.27361
   2.32611  -0.75445  -0.27361
   2.08669  -0.75445  -0.03418
   2.08669  -0.51503  -0.27361
   1.84727  -0.51503  -0.27361
   1.84727  -0.51503  -0.27361
   1.36843  -0.75445  -0.03418
   1.36843  -0.51503  -0.03418
   1.12901  -0.51503  -0.03418
   1.12901  -0.75445  -0.03418
   0.88959  -0.51503   0.20524
   0.88959  -0.75445   0.20524
   0.65017  -0.75445   0.20524
   0.65017  -0.75445   0.44466
   0.41075  -0.51503   0.44466
   0.17133  -0.75445   0.20524
  -0.06809  -0.51503   0.20524
   0.17133  -0.51503   0.44466
  -0.06809  -0.75445   0.44466
  -0.06809  -0.51503   0.68408
  -0.30751  -0.27561   0.44466
  -0.30751  -0.27561   0.68408
  -0.30751  -0.51503   0.92350
  -0.54693  -0.51503   0.92350
  -0.54693  -0.27561   0.92350
  -0.78635  -0.27561   0.92350
  -0.78635  -0.03619   0.92350
  -0.78635  -0.03619   1.16292
  -1.02577  -0.03619   1.16292
  -1.02577  -0.03619   1.16292
  -0.78635  -0.03619   0.92350
  -1.02577  -0.27561   1.16292
  -1.02577  -0.03619   1.16292
  -1.02577  -0.03619   1.40234
  -1.26519  -0.03619   1.16292
  -1.26519  -0.03619   1.16292
  -1.50461  -0.27561   1.16292
  -1.50461   0.20323   1.16292
  -1.50461  -0.03619   1.16292
  -1.50461  -0.03619   1.16292
  -1.26519   0.20323   0.92350
  -1.26519   0.20323   1.16292
  -1.50461  -0.03619   1.16292
  -1.50461  -0.03619   1.16292
  -1.50461   0.20323   0.92350
  -1.50461   0.20323   1.40234
  -1.50461   0.20323   1.16292
  -1.74403   0.44265   0.92350
  -1.74403   0.20323   0.92350
  -1.50461   0.20323   0.68408
  -1.98345   0.20323   0.92350
  -1.74403   0.20323   0.68408
  -1.98345   0.20323   0.68408
  -1.98345   0.44265   0.44466
  -1.74403   0.44265   0.20524
  -1.98345   0.44265   0.20524
  -2.22287   0.44265   0.20524
  -1.98345   0.44265   0.20524
  -2.22287   0.20323   0.20524
  -1.98345   0.44265   0.20524
  -2.22287   0.44265  -0.03418
  -2.22287   0.44265  -0.03418
  -2.22287   0.44265  -0.27361
  -2.22287   0.44265  -0.03418
  -2.46229   0.44265  -0.27361
  -2.46229   0.44265  -0.51303
  -2.46229   0.68207  -0.27361
  -2.22287   0.44265  -0.51303
  -2.22287   0.68207  -0.75245
  -2.46229   0.44265  -0.75245
  -2.46229   0.68207  -0.75245
  -2.46229   0.68207  -0.75245
  -2.46229   0.68207  -0.99187
  -2.46229   0.68207  -0.99187
  -2.46229   0.68207  -0.99187
  -2.46229   0.44265  -0.99187
  -2.46229   0.44265  -0.99187
  -2.70171   0.44265  -1.23129
  -2.46229   0.68207  -0.99187
  -2.70171   0.68207  -1.23129
  -2.46229   0.68207  -1.23129
  -2.46229   0.44265  -1.47071
  -2.22287   0.68207  -1.47071
  -2.46229   0.68207  -1.47071
  -2.22287   0.68207  -1.71013
  -2.22287   0.68207  -1.47071
  -1.98345   0.68207  -1.71013
  -1.98345   0.68207  -1.71013
  -1.98345   0.44265  -1.71013
  -1.98345   0.44265  -1.71013
  -1.74403   0.68207  -1.94955
  -1.98345   0.68207  -1.71013
  -1.74403   0.44265  -1.94955
  -1.74403   0.44265  -1.94955
  -1.74403   0.44265  -1.94955
  -1.50461   0.44265  -1.94955
  -1.74403   0.44265  -1.94955
  -1.74403   0.44265  -1.94955
  -1.74403   0.20323  -2.18897
  -1.74403   0.20323  -1.94955
  -1.74403   0.20323  -2.18897
  -1.50461   0.20323  -2.18897
  -1.26519   0.20323  -2.42839
  -1.74403   0.20323  -2.18897
  -1.74403  -0.03619  -2.18897
  -1.74403  -0.03619  -2.18897
  -1.74403  -0.03619  -2.18897
  -1.74403  -0.03619  -2.18897
  -1.74403  -0.03619  -2.42839
  -1.74403  -0.27561  -2.42839
  -1.74403  -0.27561  -2.18897
  -1.74403  -0.27561  -2.18897
  -1.98345  -0.27561  -2.42839
  -1.98345  -0.27561  -2.42839
  -1.98345  -0.27561  -2.42839
  -1.98345  -0.27561  -2.42839
  -1.98345  -0.27561  -2.42839
  -1.98345  -0.27561  -2.66781
  -1.98345  -0.51503  -2.42839
  -2.22287  -0.51503  -2.66781
  -2.22287  -0.51503  -2.66781
  -2.22287  -0.27561  -2.66781
  -1.98345  -0.27561  -2.66781
