********************************************************************************
              CENTRO DE INSTRUMENTACION Y REGISTRO SISMICO  A.C.                

    Anaxagoras 814, Col. Narvarte, Benito Juarez, C.P. 03020 Mexico, D.F.       
           Tels. 5687 45 42/ 5687 45  82             Fax. 5669 25 12            
********************************************************************************
ARCHIVO ESTANDAR DE ACELERACION:
VERSION DEL FORMATO                    : 2.0
NOMBRE DEL ARCHIVO                     : AU1120060811143041
FECHA Y HORA DE CREACION               : 21/JUN/09, 23:40
REF. CATALOGO ACELEROGRAMAS, SMIS 1996 : REGISTRO No.     /PAG.


================================================================================
DATOS DE LA ESTACION:
NOMBRE DE LA ESTACION                  : AUTÓDROMO
CLAVE DE LA ESTACION                   : AU11
LOCALIZACION DE LA ESTACION            : Del. Iztacalco, Cd. Deportiva          
                                       : Magdalena Mixhuca,                     
                                       : Col. Granjas México                    
                                       :                                        
                                       : 
COORDENADAS DE LA ESTACION             : 19.3919 LAT. N
                                       : 99.0869 LONG. W
ALTITUD (msnm)                         : 2234
TIPO DE SUELO                          : Terreno blando, material compresible
                                       : (arcillas)                
                                       : 
INSTITUCION RESPONSABLE                : CIRES


================================================================================
DATOS DEL ACELEROGRAFO:
MODELO DEL ACELEROGRAFO                : SSA-1
NUMERO DE SERIE DEL ACELEROGRAFO       : 157
NUMERO DE CANALES                      : 3
ORIENTACION C1-C6 (rumbo;orientacion)  : /N00E/+V/N90W
ORIENTACION C7-C12 (rumbo;orientacion) : 
VEL. DE MUESTREO, C1-C6 (muestras/s)   : /200/200/200
VEL. DE MUESTREO, C7-C12 (muestras/s)  : 
ESC. COMPLETA DE SENSORES, C1-C6, (g)  : /2.0/2.0/2.0
ESC. COMPLETA DE SENSORES, C7-C12, (g) : 
FREC. NAT. DE SENSORES, C1-C6, (Hz)    : /51.77/52.56/52.29
FREC. NAT. DE SENSORES, C7-C12, (Hz)   : 
AMORTIGUAMIENTO DE SENSORES, C1-C6     : /0.5912/0.6083/0.6067
AMORTIGUAMIENTO DE SENSORES, C7-C12    : 
INTERVALO DE MUESTREO, C1-C6, (s)      : /0.005/0.005/0.005
INTERVALO DE MUESTREO, C7-C12, (s)     : 
UMBRAL DE DISPARO, C1-C6, (Gal)        : /1.5/2.5/1.5
UMBRAL DE DISPARO, C7-C12, (Gal)       : 
MEMORIA DE PREEVENTO (s)               : 15.36
TIEMPO DE POSEVENTO (s)                : 60.0


================================================================================
DATOS DEL SISMO:
FECHA DEL SISMO (GMT)                  : 11/AGO/06
HORA EPICENTRO (GMT)                   : 14:30:41.0
MAGNITUD(ES)                           : /Mc=5.9
COORDENADAS DEL EPICENTRO              : 18.32 LAT. N
                                       : -101.27 LONG. W
PROFUNDIDAD FOCAL (km)                 : 51
FUENTE DE LOS DATOS EPICENTRALES       : SSN
                                       : INSTITUTO DE GEOFISICA, UNAM

================================================================================
DATOS DE ESTE REGISTRO:
HORA DE LA PRIMERA MUESTRA (GMT)       : 14:31:51.58
EXACTITUD DEL TIEMPO (s)               : 0.005
DURACION DEL REGISTRO (s), C1-C6       : /161.28/161.28/161.28
DURACION DEL REGISTRO (s), C7-C12      : 
NUM. TOTAL DE MUESTRAS, C1-C6          : /32256/32256/32256
NUM. TOTAL DE MUESTRAS, C7-C12         : 
ACEL. MAX. (Gal), C1-C6                : /4.69385/1.45347/3.27006
ACEL. MAX., C1-C6, EN LA MUESTRA       : /8733/11661/10233
ACEL. MAX. (Gal), C7-C12               : 
ACEL. MAX., C7-C12, EN LA MUESTRA      : 
UNIDADES DE LOS DATOS                  : Gal (cm/s/s)
FACTOR DE DECIMACION                   : 1
FORMATO DATOS (FORTRAN,10 campos/dato) : 3F10.5


================================================================================
CALIDAD DEL ACELEROGRAMA:
REGISTRO DIGITAL COMPLETO CON TIEMPO ABSOLUTO CORRECTO.


================================================================================
COMENTARIOS:














================================================================================
DATOS DE ACELERACION:
---------+---------+---------+---------+---------+---------+---------+---------+
   CANAL-1   CANAL-2   CANAL-3   CANAL-4   CANAL-5   CANAL-6   CANAL-7   CANAL-8
      N00E        +V      N90W
---------+---------+---------+---------+---------+---------+---------+---------+
[...]
  -0.09456  -0.01695   0.80008
   0.14486  -0.01695   0.80008
   0.14486  -0.01695   0.56066
   0.14486  -0.25637   0.56066
   0.38429  -0.01695   0.56066
   0.38429  -0.01695   0.32124
   0.62371  -0.01695   0.32124
   0.62371  -0.01695   0.32124
   0.62371  -0.01695   0.08182
   0.86313  -0.01695  -0.15760
   0.86313  -0.01695  -0.15760
   0.86313  -0.01695  -0.15760
   1.10255   0.22247  -0.15760
   1.10255   0.22247  -0.39702
   1.10255   0.22247  -0.39702
   1.34197   0.22247  -0.63644
   1.34197   0.22247  -0.63644
   1.34197   0.22247  -0.63644
   1.58139   0.46189  -0.87586
   1.58139   0.46189  -0.87586
   1.82081   0.46189  -0.87586
   1.82081   0.46189  -0.87586
   1.82081   0.46189  -1.11528
   2.06023   0.70131  -1.11528
   2.06023   0.46189  -1.11528
   2.06023   0.46189  -1.35470
   2.29965   0.46189  -1.35470
   2.29965   0.70131  -1.35470
   2.29965   0.70131  -1.35470
   2.53907   0.70131  -1.59412
   2.53907   0.70131  -1.59412
   2.53907   0.46189  -1.59412
   2.77849   0.70131  -1.59412
   2.77849   0.70131  -1.83354
   2.77849   0.46189  -1.83354
   3.01791   0.70131  -1.83354
   3.01791   0.70131  -1.83354
   3.01791   0.70131  -1.83354
   3.01791   0.70131  -1.83354
   3.01791   0.70131  -2.07296
   3.25733   0.70131  -2.07296
   3.25733   0.70131  -2.07296
   3.25733   0.46189  -2.07296
   3.49675   0.70131  -2.07296
   3.49675   0.70131  -2.07296
   3.49675   0.70131  -2.07296
   3.49675   0.46189  -2.07296
   3.49675   0.46189  -2.07296
   3.49675   0.46189  -2.07296
   3.49675   0.46189  -2.07296
   3.49675   0.46189  -2.07296
   3.49675   0.46189  -2.07296
   3.49675   0.46189  -2.07296
   3.49675   0.46189  -2.07296
   3.49675   0.46189  -1.83354
   3.49675   0.46189  -2.07296
   3.49675   0.46189  -1.83354
   3.49675   0.46189  -1.83354
   3.25733   0.46189  -1.83354
   3.25733   0.46189  -1.83354
   3.25733   0.46189  -1.83354
   3.25733   0.46189  -1.83354
   3.25733   0.46189  -1.83354
   3.01791   0.46189  -1.59412
   3.01791   0.46189  -1.59412
   3.01791   0.46189  -1.59412
   3.01791   0.46189  -1.59412
   2.77849   0.46189  -1.59412
   2.77849   0.46189  -1.35470
   2.77849   0.46189  -1.35470
   2.77849   0.22247  -1.35470
   2.53907   0.46189  -1.35470
   2.53907   0.46189  -1.35470
   2.53907   0.22247  -1.35470
   2.29965   0.22247  -1.35470
   2.29965   0.22247  -1.35470
   2.29965   0.22247  -1.11528
   2.06023   0.22247  -1.11528
   2.06023   0.22247  -1.11528
   2.06023   0.22247  -1.35470
   2.06023   0.22247  -1.11528
   1.82081   0.22247  -1.35470
   1.82081   0.22247  -1.11528
   1.82081   0.22247  -1.11528
   1.58139   0.22247  -1.11528
   1.58139  -0.01695  -1.11528
   1.58139   0.22247  -1.11528
   1.58139  -0.01695  -1.11528
   1.34197   0.22247  -1.11528
   1.34197  -0.01695  -1.35470
   1.10255  -0.01695  -1.11528
   1.10255  -0.01695  -1.11528
   1.10255   0.22247  -1.11528
   1.10255   0.22247  -1.11528
   0.86313   0.22247  -1.11528
   0.86313   0.22247  -1.11528
   0.86313   0.22247  -1.11528
   0.62371   0.22247  -1.11528
   0.62371   0.22247  -1.11528
   0.62371  -0.01695  -1.35470
   0.62371   0.22247  -1.35470
   0.38429   0.22247  -1.35470
   0.38429   0.22247  -1.35470
   0.38429   0.22247  -1.35470
   0.14486   0.22247  -1.35470
   0.14486   0.22247  -1.35470
   0.14486   0.46189  -1.35470
  -0.09456   0.46189  -1.35470
  -0.09456   0.46189  -1.35470
  -0.09456   0.46189  -1.35470
  -0.09456   0.46189  -1.35470
  -0.33398   0.22247  -1.35470
  -0.33398   0.46189  -1.35470
  -0.33398   0.22247  -1.35470
  -0.33398   0.22247  -1.35470
  -0.33398   0.22247  -1.35470
  -0.57340   0.22247  -1.11528
  -0.57340   0.22247  -1.35470
  -0.57340   0.22247  -1.11528
  -0.57340   0.22247  -1.11528
  -0.57340  -0.01695  -1.11528
  -0.81282  -0.01695  -1.11528
  -0.81282  -0.01695  -1.11528
  -0.81282  -0.01695  -1.11528
  -0.81282  -0.01695  -0.87586
  -1.05224  -0.01695  -0.87586
  -1.05224  -0.01695  -0.87586
  -1.05224  -0.01695  -0.87586
  -1.05224  -0.01695  -0.87586
  -1.05224  -0.01695  -0.87586
  -1.29166  -0.25637  -0.87586
  -1.29166  -0.01695  -0.63644
  -1.29166  -0.01695  -0.63644
  -1.29166  -0.01695  -0.87586
  -1.29166  -0.01695  -0.63644
  -1.29166  -0.01695  -0.63644
  -1.29166  -0.01695  -0.63644
  -1.53108  -0.01695  -0.63644
  -1.53108  -0.01695  -0.63644
  -1.53108  -0.01695  -0.63644
  -1.53108  -0.01695  -0.63644
  -1.53108  -0.01695  -0.63644
  -1.53108  -0.01695  -0.63644
  -1.53108  -0.01695  -0.63644
  -1.77050  -0.01695  -0.63644
  -1.77050  -0.01695  -0.63644
  -1.77050  -0.01695  -0.63644
  -1.77050  -0.01695  -0.63644
  -1.77050  -0.01695  -0.87586
  -1.77050  -0.01695  -0.87586
  -1.77050  -0.01695  -0.87586
  -1.77050  -0.01695  -0.87586
  -2.00992  -0.01695  -0.87586
  -1.77050  -0.01695  -0.87586
  -1.77050  -0.25637  -0.87586
  -2.00992  -0.25637  -0.87586
  -2.00992  -0.25637  -1.11528
  -2.00992  -0.25637  -1.11528
  -2.00992  -0.25637  -1.11528
  -2.00992  -0.49579  -1.11528
  -2.00992  -0.49579  -1.11528
  -2.00992  -0.49579  -1.11528
  -2.00992  -0.49579  -1.11528
  -2.00992  -0.49579  -1.11528
  -2.24934  -0.49579  -1.11528
  -2.24934  -0.49579  -1.11528
  -2.24934  -0.49579  -1.11528
  -2.24934  -0.49579  -1.11528
  -2.24934  -0.49579  -1.11528
  -2.24934  -0.49579  -1.11528
  -2.48876  -0.49579  -1.11528
  -2.48876  -0.25637  -1.11528
  -2.48876  -0.25637  -1.11528
  -2.48876  -0.49579  -1.11528
  -2.48876  -0.49579  -1.11528
  -2.72818  -0.49579  -1.11528
  -2.72818  -0.25637  -1.11528
  -2.72818  -0.25637  -1.11528
  -2.72818  -0.25637  -1.11528
  -2.72818  -0.25637  -1.11528
  -2.72818  -0.25637  -1.11528
  -2.96760  -0.25637  -1.11528
  -2.96760  -0.25637  -1.11528
  -2.96760  -0.25637  -1.11528
  -2.96760  -0.25637  -1.11528
  -3.20702  -0.25637  -1.11528
  -3.20702  -0.25637  -1.11528
  -3.20702  -0.25637  -1.11528
  -3.20702  -0.25637  -1.11528
  -3.20702  -0.25637  -1.11528
  -3.20702  -0.25637  -0.87586
  -3.44644  -0.25637  -0.87586
  -3.44644  -0.25637  -0.87586
  -3.44644  -0.25637  -0.87586
  -3.44644  -0.25637  -1.11528
  -3.68586  -0.25637  -0.87586
  -3.68586  -0.25637  -0.87586
  -3.68586  -0.25637  -0.87586
  -3.68586  -0.25637  -0.63644
  -3.68586  -0.25637  -0.63644
  -3.68586  -0.01695  -0.63644
  -3.68586  -0.01695  -0.63644
  -3.68586  -0.25637  -0.63644
  -3.68586  -0.01695  -0.63644
  -3.68586  -0.01695  -0.63644
  -3.68586  -0.01695  -0.39702
  -3.68586  -0.01695  -0.39702
  -3.68586  -0.01695  -0.39702
  -3.68586  -0.01695  -0.39702
  -3.68586  -0.01695  -0.39702
  -3.68586  -0.01695  -0.39702
  -3.68586  -0.01695  -0.39702
  -3.68586  -0.01695  -0.39702
  -3.68586  -0.01695  -0.39702
  -3.68586  -0.01695  -0.39702
  -3.68586  -0.01695  -0.39702
  -3.68586  -0.01695  -0.15760
  -3.68586  -0.01695  -0.15760
  -3.68586  -0.01695  -0.15760
  -3.68586   0.22247  -0.39702
  -3.44644  -0.01695  -0.15760
  -3.68586   0.22247  -0.15760
  -3.44644   0.22247  -0.15760
  -3.44644   0.22247  -0.15760
  -3.44644   0.22247  -0.15760
  -3.44644   0.22247  -0.15760
  -3.44644   0.22247  -0.15760
  -3.20702   0.22247  -0.15760
  -3.20702   0.22247  -0.15760
  -3.20702   0.22247  -0.15760
  -3.20702   0.22247  -0.15760
  -3.20702   0.22247  -0.15760
  -2.96760   0.22247  -0.15760
  -2.96760   0.22247  -0.15760
  -2.96760   0.22247   0.08182
  -2.96760   0.22247   0.08182
  -2.72818   0.22247  -0.15760
  -2.72818   0.22247   0.08182
  -2.72818   0.22247  -0.15760
  -2.48876   0.22247   0.08182
  -2.48876   0.46189   0.08182
  -2.24934   0.46189   0.08182
  -2.24934   0.46189   0.08182
  -2.24934   0.46189  -0.15760
  -2.24934   0.46189   0.08182
  -2.00992   0.46189   0.08182
  -1.77050   0.46189   0.08182
  -1.77050   0.46189   0.08182
  -1.77050   0.46189   0.08182
  -1.53108   0.46189   0.08182
  -1.53108  -0.01695   0.08182
  -1.29166   0.46189   0.08182
  -1.29166   0.22247   0.08182
  -1.05224   0.22247   0.08182
  -1.05224   0.22247   0.08182
  -0.81282   0.22247   0.08182
  -0.81282   0.22247   0.08182
  -0.81282   0.22247   0.32124
  -0.57340   0.46189   0.08182
  -0.33398   0.46189   0.08182
  -0.33398   0.46189   0.08182
  -0.09456   0.46189   0.08182
  -0.09456   0.46189   0.08182
   0.14486   0.46189   0.08182
   0.14486   0.46189   0.08182
   0.38429   0.46189   0.08182
   0.38429   0.46189   0.08182
   0.38429   0.46189   0.08182
   0.62371   0.46189   0.08182
   0.62371   0.46189   0.08182
   0.62371   0.46189   0.08182
   0.86313   0.22247   0.08182
   0.86313   0.46189   0.08182
   0.86313   0.46189  -0.15760
   1.10255   0.46189  -0.15760
   1.10255   0.46189  -0.15760
   1.34197   0.46189  -0.15760
   1.10255   0.46189  -0.15760
   1.34197   0.46189  -0.39702
   1.34197   0.46189  -0.15760
   1.58139   0.46189  -0.15760
   1.58139   0.46189  -0.39702
   1.58139   0.46189  -0.39702
   1.82081   0.46189  -0.39702
   1.82081   0.46189  -0.39702
   2.06023   0.46189  -0.39702
   2.06023   0.46189  -0.39702
   2.06023   0.46189  -0.39702
   2.06023   0.46189  -0.39702
   2.06023   0.46189  -0.39702
   2.29965   0.70131  -0.39702
   2.29965   0.70131  -0.63644
   2.29965   0.46189  -0.39702
   2.53907   0.46189  -0.63644
   2.53907   0.46189  -0.63644
   2.53907   0.46189  -0.39702
   2.53907   0.46189  -0.63644
   2.53907   0.46189  -0.63644
   2.53907   0.46189  -0.63644
   2.77849   0.46189  -0.63644
   2.77849   0.46189  -0.63644
   2.77849   0.46189  -0.63644
   2.77849   0.46189  -0.63644
   2.77849   0.46189  -0.87586
   2.77849   0.46189  -0.87586
   3.01791   0.46189  -0.87586
   3.01791   0.46189  -0.87586
   3.01791   0.46189  -0.87586
   3.01791   0.22247  -0.87586
   3.01791   0.22247  -0.87586
   3.01791   0.22247  -0.87586
   3.01791   0.22247  -0.87586
   3.01791   0.22247  -0.87586
   3.01791   0.22247  -0.87586
   3.01791  -0.01695  -1.11528
   3.01791  -0.01695  -1.11528
   3.01791  -0.01695  -1.11528
   3.25733  -0.01695  -0.87586
   3.25733  -0.01695  -1.11528
   3.25733  -0.01695  -1.11528
   3.25733  -0.01695  -1.11528
   3.25733  -0.01695  -1.11528
   3.49675  -0.01695  -1.11528
   3.49675  -0.01695  -1.35470
   3.49675  -0.25637  -1.35470
   3.49675  -0.25637  -1.35470
   3.49675  -0.25637  -1.35470
   3.49675  -0.25637  -1.35470
   3.73617  -0.25637  -1.35470
   3.73617  -0.25637  -1.35470
   3.73617  -0.25637  -1.35470
   3.97559  -0.25637  -1.59412
   3.97559  -0.25637  -1.59412
   3.97559  -0.25637  -1.59412
   3.97559  -0.25637  -1.59412
   3.97559  -0.25637  -1.83354
   4.21501  -0.25637  -1.83354
   4.21501  -0.25637  -1.83354
   4.21501  -0.25637  -2.07296
   4.21501  -0.25637  -1.83354
   4.45443  -0.25637  -1.83354
   4.45443  -0.25637  -2.07296
   4.45443  -0.25637  -2.07296
   4.45443  -0.25637  -2.07296
   4.45443  -0.25637  -2.07296
   4.45443  -0.25637  -2.07296
   4.69385  -0.25637  -2.31238
   4.69385  -0.25637  -2.31238
   4.69385  -0.25637  -2.31238
   4.69385  -0.49579  -2.31238
   4.69385  -0.25637  -2.07296
   4.69385  -0.25637  -2.31238
   4.69385  -0.25637  -2.31238
   4.69385  -0.25637  -2.07296
   4.69385  -0.25637  -2.31238
   4.69385  -0.25637  -2.31238
   4.69385  -0.25637  -2.31238
   4.69385  -0.25637  -2.55180
   4.69385  -0.25637  -2.31238
   4.69385  -0.25637  -2.31238
   4.69385  -0.25637  -2.07296
   4.69385  -0.25637  -2.07296
   4.69385  -0.25637  -2.07296
   4.45443  -0.25637  -2.07296
   4.45443  -0.25637  -2.07296
   4.45443  -0.25637  -2.07296
   4.45443  -0.01695  -2.07296
   4.45443  -0.01695  -2.07296
   4.45443  -0.25637  -2.07296
   4.45443  -0.25637  -2.07296
   4.45443  -0.25637  -2.07296
   4.21501  -0.25637  -1.83354
   4.21501  -0.01695  -1.83354
   4.21501  -0.25637  -1.83354
   3.97559  -0.25637  -1.83354
   3.97559  -0.01695  -1.83354
   3.97559  -0.01695  -1.83354
   3.73617  -0.25637  -1.59412
   3.73617  -0.25637  -1.83354
   3.73617  -0.25637  -1.59412
   3.49675  -0.25637  -1.35470
   3.49675  -0.25637  -1.35470
   3.49675  -0.25637  -1.35470
   3.25733  -0.25637  -1.35470
   3.25733  -0.25637  -1.35470
   3.01791  -0.25637  -1.11528
   3.01791  -0.25637  -1.11528
   3.01791  -0.25637  -0.87586
   2.77849  -0.25637  -1.11528
   2.77849  -0.25637  -0.87586
   2.77849  -0.25637  -0.87586
   2.53907  -0.25637  -0.87586
   2.29965  -0.25637  -0.87586
   2.29965  -0.49579  -0.63644
   2.29965  -0.49579  -0.63644
   2.06023  -0.49579  -0.63644
   2.06023  -0.49579  -0.39702
   2.06023  -0.49579  -0.39702
   1.82081  -0.49579  -0.39702
   1.82081  -0.49579  -0.39702
   1.58139  -0.73521  -0.39702
   1.58139  -0.49579  -0.39702
   1.34197  -0.73521  -0.15760
   1.34197  -0.73521  -0.15760
   1.34197  -0.73521  -0.15760
   1.10255  -0.73521  -0.15760
   1.10255  -0.73521  -0.15760
   1.10255  -0.73521   0.08182
   0.86313  -0.73521   0.08182
   0.86313  -0.73521   0.08182
   0.62371  -0.73521   0.08182
   0.62371  -0.73521   0.08182
   0.62371  -0.73521   0.08182
   0.38429  -0.73521   0.08182
   0.38429  -0.73521   0.08182
   0.14486  -0.73521   0.08182
   0.14486  -0.73521   0.08182
   0.14486  -0.73521   0.08182
  -0.09456  -0.73521   0.32124
  -0.09456  -0.73521   0.32124
  -0.33398  -0.97463   0.32124
  -0.33398  -0.73521   0.32124
  -0.57340  -0.73521   0.32124
  -0.57340  -0.49579   0.32124
  -0.81282  -0.73521   0.32124
  -0.81282  -0.49579   0.56066
  -1.05224  -0.49579   0.56066
  -1.29166  -0.49579   0.56066
  -1.29166  -0.49579   0.56066
  -1.53108  -0.49579   0.56066
  -1.53108  -0.49579   0.56066
  -1.77050  -0.73521   0.80008
  -1.77050  -0.49579   0.80008
  -1.77050  -0.73521   0.80008
  -2.00992  -0.73521   0.80008
  -2.00992  -0.73521   0.80008
  -2.00992  -0.73521   0.80008
  -2.24934  -0.73521   1.03950
  -2.24934  -0.73521   1.03950
  -2.24934  -0.73521   1.03950
  -2.48876  -0.49579   1.03950
  -2.48876  -0.49579   1.03950
  -2.48876  -0.49579   1.27892
  -2.48876  -0.49579   1.27892
  -2.72818  -0.49579   1.27892
  -2.72818  -0.49579   1.27892
  -2.72818  -0.49579   1.27892
  -2.72818  -0.49579   1.51834
  -2.96760  -0.49579   1.51834
  -2.96760  -0.49579   1.27892
  -2.96760  -0.49579   1.51834
  -2.96760  -0.49579   1.51834
  -2.96760  -0.25637   1.51834
  -2.96760  -0.25637   1.51834
  -3.20702  -0.25637   1.51834
  -3.20702  -0.25637   1.51834
  -3.20702  -0.25637   1.51834
  -3.20702  -0.01695   1.51834
  -3.20702  -0.01695   1.51834
  -3.20702  -0.01695   1.51834
  -3.44644  -0.01695   1.51834
  -3.44644  -0.01695   1.51834
  -3.44644  -0.01695   1.75776
  -3.44644  -0.01695   1.75776
  -3.44644  -0.01695   1.75776
  -3.44644  -0.01695   1.75776
  -3.44644  -0.01695   1.75776
  -3.44644  -0.01695   1.75776
  -3.68586  -0.01695   1.75776
  -3.68586  -0.01695   1.75776
  -3.44644  -0.01695   1.75776
  -3.68586  -0.01695   1.75776
  -3.68586  -0.01695   1.75776
  -3.68586  -0.01695   1.75776
  -3.68586   0.22247   1.51834
  -3.68586   0.22247   1.51834
  -3.68586   0.22247   1.75776
  -3.68586   0.22247   1.51834
  -3.68586   0.22247   1.51834
  -3.68586   0.22247   1.75776
  -3.68586   0.22247   1.51834
  -3.68586   0.22247   1.75776
  -3.68586   0.22247   1.75776
  -3.44644   0.22247   1.75776
  -3.44644   0.22247   1.75776
  -3.44644   0.22247   1.75776
  -3.44644   0.22247   1.75776
  -3.44644  -0.01695   1.75776
  -3.44644  -0.01695   1.75776
  -3.44644  -0.01695   1.75776
  -3.44644  -0.01695   1.75776
  -3.44644  -0.01695   1.75776
  -3.44644  -0.01695   1.75776
  -3.20702  -0.01695   1.75776
  -3.44644  -0.01695   1.75776
  -3.20702  -0.01695   1.75776
