********************************************************************************
              CENTRO DE INSTRUMENTACION Y REGISTRO SISMICO  A.C.

    Anaxagoras 814, Col. Narvarte, Benito Juarez, C.P. 03020 Mexico, D.F.
           Tels. 5687 45 42/ 5687 45  82             Fax. 5669 25 12
********************************************************************************
ARCHIVO ESTANDAR DE ACELERACION:
VERSION DEL FORMATO                    : 2.0
NOMBRE DEL ARCHIVO                     : AU1120130422011634
FECHA Y HORA DE CREACION               : 03/MAY/13, 10:36
REF. CATALOGO ACELEROGRAMAS, SMIS 1996 : REGISTRO No.     /PAG.


================================================================================
DATOS DE LA ESTACION:
NOMBRE DE LA ESTACION                  : AUTÓDROMO
CLAVE DE LA ESTACION                   : AU11
LOCALIZACION DE LA ESTACION            : Del. Iztacalco, Cd. Deportiva          
                                       : Magdalena Mixhuca,                     
                                       : Col. Granjas México                    
                                       :                                        
                                       : 
COORDENADAS DE LA ESTACION             : 19.3919 LAT. N
                                       : 99.0869 LONG. W
ALTITUD (msnm)                         : 2234
TIPO DE SUELO                          : Terreno blando, material compresible
                                       : (arcillas)                
                                       : 
INSTITUCION RESPONSABLE                : CIRES
                                       : 

================================================================================
DATOS DEL ACELEROGRAFO:
MODELO DEL ACELEROGRAFO                : RADESD
NUMERO DE SERIE DEL ACELEROGRAFO       : 157
NUMERO DE CANALES                      : 3
ORIENTACION C1-C6 (rumbo;orientacion)  : /N00E/+V/N90W
ORIENTACION C7-C12 (rumbo;orientacion) : 
VEL. DE MUESTREO, C1-C6 (muestras/s)   : /100/100/100
VEL. DE MUESTREO, C7-C12 (muestras/s)  : 
ESC. COMPLETA DE SENSORES, C1-C6, (g)  : /0.5/0.5/0.5
ESC. COMPLETA DE SENSORES, C7-C12, (g) : 
FREC. NAT. DE SENSORES, C1-C6, (Hz)    : /51.77/52.56/52.29
FREC. NAT. DE SENSORES, C7-C12, (Hz)   : 
AMORTIGUAMIENTO DE SENSORES, C1-C6     : /0.5912/0.6083/0.6067
AMORTIGUAMIENTO DE SENSORES, C7-C12    : 
INTERVALO DE MUESTREO, C1-C6, (s)      : /0.01/0.01/0.01
INTERVALO DE MUESTREO, C7-C12, (s)     : 
UMBRAL DE DISPARO, C1-C6, (Gal)        : /11.49/30.65/11.49
UMBRAL DE DISPARO, C7-C12, (Gal)       : 
MEMORIA DE PREEVENTO (s)               : 56.0
TIEMPO DE POSEVENTO (s)                : 80.0


================================================================================
DATOS DEL SISMO:
FECHA DEL SISMO (GMT)                  : 22/ABR/13
HORA EPICENTRO (GMT)                   : 01:16:34.0
MAGNITUD(ES)                           : /Mc=5.8
COORDENADAS DEL EPICENTRO              : 17.87 LAT. N
                                       : 102.19 LONG. W
PROFUNDIDAD FOCAL (km)                 : 10
FUENTE DE LOS DATOS EPICENTRALES       : SSN
                                       : INSTITUTO DE GEOFISICA, UNAM

================================================================================
DATOS DE ESTE REGISTRO:
HORA DE LA PRIMERA MUESTRA (GMT)       : 01:17:53.00
EXACTITUD DEL TIEMPO (s)               : 0.01
DURACION DEL REGISTRO (s), C1-C6       : /374.6/374.6/374.6
DURACION DEL REGISTRO (s), C7-C12      : 
NUM. TOTAL DE MUESTRAS, C1-C6          : /37460/37460/37460
NUM. TOTAL DE MUESTRAS, C7-C12         : 
ACEL. MAX. (Gal), C1-C6                : /7.35955/1.64457/5.82724
ACEL. MAX., C1-C6, EN LA MUESTRA       : /6365/8239/8383
ACEL. MAX. (Gal), C7-C12               : 
ACEL. MAX., C7-C12, EN LA MUESTRA      : 
UNIDADES DE LOS DATOS                  : Gal (cm/s/s)
FACTOR DE DECIMACION                   : 1
FORMATO DATOS (FORTRAN,10 campos/dato) : 3F10.5


================================================================================
CALIDAD DEL ACELEROGRAMA:
REGISTRO DIGITAL COMPLETO CON TIEMPO ABSOLUTO CORRECTO.


================================================================================
COMENTARIOS:














================================================================================
DATOS DE ACELERACION:
---------+---------+---------+---------+---------+---------+---------+---------+
   CANAL-1   CANAL-2   CANAL-3   CANAL-4   CANAL-5   CANAL-6   CANAL-7   CANAL-8
      N00E        +V      N90W
---------+---------+---------+---------+---------+---------+---------+---------+
[...]
   0.19191  -0.24087   0.11108
   0.11709  -0.25583   0.17094
  -0.01759  -0.24087   0.18590
  -0.13730  -0.27079   0.23079
  -0.37672  -0.24087   0.29065
  -0.49643  -0.27079   0.29065
  -0.63110  -0.27079   0.26072
  -0.67599  -0.21094   0.33554
  -0.76577  -0.19598   0.33554
  -0.87052  -0.18101   0.26072
  -0.94534  -0.21094   0.23079
  -1.15483  -0.16605   0.30561
  -1.24461  -0.12116   0.17094
  -1.48403  -0.10619   0.12605
  -1.55885  -0.03137   0.09612
  -1.69353  -0.01641   0.09612
  -1.73842   0.04344   0.05123
  -1.78331   0.10330   0.03626
  -1.97784   0.11826  -0.11338
  -2.12748   0.10330  -0.17323
  -2.21726   0.14819  -0.21812
  -2.45668   0.19308  -0.45754
  -2.57639   0.22301  -0.56229
  -2.62128   0.23797  -0.75682
  -2.71106   0.26790  -0.87653
  -2.72603   0.35768  -0.87653
  -2.81581   0.44747  -0.95135
  -2.75595   0.41754  -1.13091
  -2.84574   0.59710  -1.26558
  -2.92056   0.46243  -1.51997
  -2.98041   0.65696  -1.66961
  -3.05523   0.67192  -1.75939
  -3.05523   0.50732  -1.83421
  -3.07019   0.61207  -1.84917
  -3.14501   0.55221  -1.83421
  -3.08516   0.65696  -2.04370
  -3.07019   0.67192  -2.10356
  -3.11508   0.55221  -2.37290
  -3.01034   0.65696  -2.43276
  -2.96545   0.70185  -2.56743
  -2.92056   0.70185  -2.68714
  -2.92056   0.71681  -2.74700
  -2.80085   0.65696  -2.82182
  -2.78588   0.76170  -2.79189
  -2.71106   0.74674  -2.86671
  -2.68114   0.76170  -2.95649
  -2.65121   0.74674  -3.25576
  -2.54646   0.76170  -3.43533
  -2.47164   0.79163  -3.48022
  -2.35193   0.77667  -3.59993
  -2.26215   0.79163  -3.65979
  -2.03769   0.79163  -3.71964
  -1.84316   0.80660  -3.73461
  -1.79827   0.79163  -3.74957
  -1.72345   0.77667  -3.77950
  -1.67856   0.77667  -3.74957
  -1.63367   0.79163  -3.74957
  -1.54389   0.77667  -3.76453
  -1.48403   0.77667  -3.79446
  -1.33440   0.76170  -3.77950
  -1.28951   0.74674  -3.74957
  -1.21469   0.77667  -3.76453
  -1.13987   0.76170  -3.74957
  -1.02016   0.76170  -3.74957
  -0.90045   0.79163  -3.74957
  -0.79570   0.77667  -3.73461
  -0.81067   0.77667  -3.73461
  -0.78074   0.77667  -3.74957
  -0.75081   0.76170  -3.74957
  -0.73585   0.77667  -3.74957
  -0.64606   0.61207  -3.77950
  -0.51139   0.64199  -3.73461
  -0.42161   0.52228  -3.70468
  -0.31686   0.49236  -3.65979
  -0.10737   0.37265  -3.65979
  -0.00262   0.31279  -3.55504
   0.16198   0.20805  -3.43533
   0.20687   0.25294  -3.31562
   0.29665   0.32776  -3.03131
   0.47622   0.31279  -2.85174
   0.62586   0.28286  -2.79189
   0.92513   0.26790  -2.77692
   1.04484   0.20805  -2.70211
   1.13462   0.11826  -2.62729
   1.25433   0.25294  -2.41779
   1.35908   0.17812  -2.20830
   1.52368   0.08834  -2.02874
   1.64339   0.07337  -1.89406
   1.85288  -0.07627  -1.83421
   2.03245  -0.09123  -1.81924
   2.10727  -0.15108  -1.77435
   2.12223  -0.15108  -1.66961
   2.19705  -0.18101  -1.62471
   2.36165  -0.16605  -1.46011
   2.51129  -0.19598  -1.46011
   2.63100  -0.19598  -1.26558
   2.94524  -0.18101  -1.28055
   3.06495  -0.22590  -1.07106
   3.07991  -0.19598  -0.98127
   3.18466  -0.21094  -0.92142
   3.28940  -0.28576  -0.87653
   3.39415  -0.25583  -0.81667
   3.66350  -0.34561  -0.75682
   3.79817  -0.45036  -0.56229
   3.94781  -0.45036  -0.44258
   4.02263  -0.58503  -0.24805
   4.05256  -0.74964  -0.11338
   4.12738  -0.79453   0.00634
   4.27701  -0.85438   0.08115
   4.41169  -0.92920   0.09612
   4.59125  -0.89927   0.12605
   4.84564  -0.86935   0.17094
   4.98031  -0.88431   0.23079
   4.99527  -0.85438   0.33554
   5.10002  -0.76460   0.54503
   5.38433  -0.64489   0.63481
   5.51901  -0.55511   0.84431
   5.83324  -0.49525   0.91912
   5.93799  -0.34561   0.99394
   6.04274  -0.33065   1.06876
   6.16245  -0.31569   1.15854
   6.46172  -0.28576   1.36804
   6.67121  -0.33065   1.42789
   6.86574  -0.31569   1.75709
   6.85078  -0.40547   1.80199
   6.92560  -0.36058   1.95162
   6.98545  -0.48029   1.96659
   7.10516  -0.49525   1.96659
   7.16502  -0.51022   2.01148
   7.29969  -0.37554   1.99652
   7.31466  -0.45036   2.01148
   7.31466  -0.36058   2.01148
   7.35955  -0.39051   2.01148
   7.29969  -0.39051   1.99652
   7.22487  -0.30072   1.98155
   7.17998  -0.33065   1.96659
   7.13509  -0.39051   1.99652
   7.06027  -0.30072   1.99652
   6.94056  -0.40547   1.93666
   6.92560  -0.48029   1.96659
   6.89567  -0.39051   1.96659
   6.83582  -0.33065   1.96659
   6.70114  -0.40547   1.96659
   6.58143  -0.45036   1.93666
   6.32705  -0.48029   1.92170
   6.23727  -0.57007   1.93666
   6.05770  -0.64489   1.93666
   5.98288  -0.52518   1.96659
   5.87814  -0.62993   1.92170
   5.83324  -0.54014   1.84688
   5.57886  -0.43540   1.81695
   5.35440  -0.21094   1.92170
   5.10002  -0.28576   1.72717
   4.98031  -0.31569   1.62242
   4.89053  -0.25583   1.54760
   4.53140  -0.18101   1.59249
   4.30694  -0.19598   1.51767
   4.03759  -0.18101   1.62242
   3.90292  -0.12116   1.66731
   3.57372  -0.10619   1.63738
   3.36422  -0.07627   1.69724
   3.12480  -0.00145   1.57753
   3.06495   0.01352   1.44286
   2.85546   0.02848   1.39796
   2.58611   0.04344   1.42789
   2.39158   0.02848   1.29322
   2.24194   0.05841   1.21840
   2.16712   0.10330   1.14358
   2.09230   0.10330   1.05380
   1.97259   0.11826   1.03883
   1.79303   0.10330   1.00891
   1.53864   0.11826   0.94905
   1.34412   0.17812   0.85927
   1.16455   0.11826   0.60489
   1.05980   0.19308   0.64978
   0.82038   0.22301   0.48518
   0.59593   0.19308   0.50014
   0.38644   0.28286   0.50014
   0.20687   0.34272   0.51510
   0.19191   0.49236   0.75452
   0.02731   0.52228   0.75452
  -0.22708   0.59710   0.90416
  -0.42161   0.68689   1.00891
  -0.58621   0.62703   1.00891
  -0.70592   0.71681   1.02387
  -0.70592   0.64199   1.03883
  -0.76577   0.70185   1.00891
  -0.78074   0.73178   1.03883
  -0.81067   0.74674   1.03883
  -0.81067   0.68689   1.03883
  -0.82563   0.74674   1.03883
  -0.90045   0.76170   0.99394
  -0.79570   0.77667   1.03883
  -1.00519   0.74674   1.03883
  -1.09498   0.79163   1.03883
  -1.06505   0.77667   0.99394
  -1.18476   0.79163   0.93409
  -1.30447   0.79163   0.94905
  -1.37929   0.79163   0.91912
  -1.30447   0.80660   0.99394
  -1.30447   0.77667   0.87423
  -1.19972   0.79163   0.97898
  -1.06505   0.79163   0.93409
  -0.87052   0.74674   0.87423
  -0.82563   0.74674   0.91912
  -0.76577   0.77667   0.93409
  -0.70592   0.76170   0.78445
  -0.63110   0.77667   0.81438
  -0.48146   0.79163   0.76949
  -0.33183   0.79163   0.69467
  -0.15226   0.82156   0.61985
  -0.04751   0.85149   0.57496
  -0.00262   0.83652   0.44028
   0.11709   0.89638   0.44028
   0.13205   0.92631   0.36547
   0.19191   0.88141   0.29065
   0.17694   0.88141   0.32057
   0.19191   0.88141   0.24576
   0.22183   0.89638   0.32057
   0.23680   0.89638   0.38043
   0.26673   0.83652   0.32057
   0.26673   0.82156   0.35050
   0.35651   0.80660   0.51510
   0.41636   0.77667   0.53007
   0.46125   0.73178   0.55999
   0.52111   0.71681   0.60489
   0.52111   0.56718   0.69467
   0.67075   0.52228   0.79941
   0.76053   0.26790   0.87423
   0.82038   0.14819   0.99394
   0.92513   0.11826   1.00891
   1.04484   0.04344   1.00891
   1.04484   0.02848   1.03883
   1.14959  -0.04634   1.05380
   1.16455  -0.12116   1.08373
   1.16455  -0.15108   1.09869
   1.17951  -0.16605   1.15854
   1.19448  -0.19598   1.11365
   1.25433  -0.19598   1.17351
   1.22441  -0.27079   1.20344
   1.23937  -0.34561   1.23336
   1.28426  -0.42043   1.26329
   1.34412  -0.57007   1.35307
   1.32915  -0.57007   1.38300
   1.32915  -0.64489   1.48775
   1.26930  -0.61496   1.44286
   1.25433  -0.71971   1.39796
   1.26930  -0.79453   1.35307
   1.22441  -0.85438   1.38300
   1.26930  -0.91424   1.45782
   1.20944  -0.97409   1.35307
   1.14959  -0.98906   1.41293
   1.16455  -1.01898   1.45782
   1.14959  -1.03395   1.53264
   1.14959  -1.10877   1.51767
   1.11966  -1.13869   1.74213
   1.02988  -1.15366   1.63738
   1.02988  -1.15366   1.78702
   1.01491  -1.13869   1.77206
   0.97002  -1.16862   1.81695
   0.74557  -1.15366   1.84688
   0.73060  -1.16862   1.80199
   0.64082  -1.19855   1.80199
   0.53607  -1.16862   1.95162
   0.47622  -1.13869   1.77206
   0.47622  -1.16862   1.75709
   0.35651  -1.18358   1.75709
   0.34154  -1.16862   1.83191
   0.25176  -1.16862   1.65235
   0.22183  -1.19855   1.60746
   0.22183  -1.13869   1.45782
   0.20687  -1.22848   1.50271
   0.19191  -1.19855   1.45782
   0.19191  -1.22848   1.53264
   0.16198  -1.13869   1.59249
   0.16198  -1.24344   1.60746
  -0.18219  -1.21351   1.72717
  -0.27197  -1.21351   1.71220
  -0.43657  -1.13869   1.92170
  -0.60117  -1.21351   1.92170
  -0.75081  -1.16862   1.84688
  -0.76577  -1.16862   1.72717
  -0.87052  -1.13869   1.74213
  -1.12490  -1.10877   1.66731
  -1.31943  -1.04891   1.39796
  -1.46907  -1.01898   1.24833
  -1.66360  -0.97409   1.18847
  -1.69353  -0.92920   1.08373
  -1.76835  -0.82445   1.03883
  -1.84316  -0.73467   0.99394
  -2.05266  -0.64489   0.88920
  -2.17237  -0.51022   0.66474
  -2.45668  -0.45036   0.48518
  -2.56143  -0.25583   0.36547
  -2.63624  -0.19598   0.35050
  -2.74099  -0.19598   0.36547
  -2.78588  -0.15108   0.38043
  -2.92056  -0.13612   0.32057
  -3.08516  -0.09123   0.39539
  -3.15998  -0.04634   0.38043
  -3.42932  -0.03137   0.47021
  -3.41436   0.02848   0.54503
  -3.54903   0.04344   0.50014
  -3.60889   0.11826   0.55999
  -3.65378   0.20805   0.60489
  -3.69867   0.19308   0.45525
  -3.80342   0.22301   0.38043
  -3.81838   0.37265   0.35050
  -3.84831   0.26790   0.30561
  -3.96802   0.44747   0.32057
  -4.17751   0.53725   0.26072
  -4.17751   0.67192   0.20086
  -4.28226   0.77667   0.21583
  -4.44686   0.77667   0.20086
  -4.56657   0.76170   0.14101
  -4.64139   0.79163   0.12605
  -4.70124   0.82156   0.11108
  -4.88081   0.79163   0.08115
  -5.10526   0.79163   0.09612
  -5.28483   0.77667   0.05123
  -5.41950   0.77667   0.03626
  -5.50929   0.77667   0.05123
  -5.55418   0.77667   0.05123
  -5.55418   0.80660   0.03626
  -5.58411   0.79163  -0.05352
  -5.77863   0.79163  -0.11338
  -5.91331   0.74674  -0.23309
  -6.06295   0.77667  -0.23309
  -6.16769   0.76170  -0.36776
  -6.22755   0.79163  -0.26301
  -6.37718   0.77667  -0.33783
  -6.42208   0.77667  -0.26301
  -6.49689   0.80660  -0.26301
  -6.49689   0.83652  -0.03856
  -6.55675   0.82156  -0.05352
  -6.58668   0.85149  -0.06848
  -6.57171   0.80660   0.02130
  -6.70639   0.79163   0.03626
  -6.72135   0.79163   0.06619
  -6.78121   0.79163   0.08115
  -6.99070   0.74674   0.05123
  -6.96077   0.74674   0.08115
  -7.11041   0.74674   0.08115
  -7.14034   0.73178   0.09612
  -7.14034   0.67192   0.09612
  -7.18523   0.67192   0.05123
  -7.21515   0.59710   0.06619
  -7.18523   0.67192   0.08115
  -7.20019   0.52228   0.02130
  -7.15530   0.44747   0.02130
  -7.15530   0.40257   0.00634
  -7.03559   0.38761  -0.02359
  -6.99070   0.31279   0.00634
  -6.76624   0.35768  -0.00863
  -6.58668   0.34272   0.00634
  -6.54179   0.28286   0.00634
  -6.42208   0.29783   0.02130
  -6.22755   0.32776  -0.00863
  -5.83849   0.47739   0.02130
  -5.59907   0.29783  -0.00863
  -5.53921   0.49236   0.03626
  -5.37461   0.37265   0.00634
  -5.15016   0.44747   0.08115
  -4.95563   0.29783  -0.12834
  -4.62642   0.44747   0.02130
  -4.49175   0.35768  -0.06848
  -4.31219   0.37265  -0.15827
  -3.92313   0.28286  -0.08345
  -3.65378   0.14819  -0.12834
  -3.57896   0.16315  -0.14330
  -3.39940   0.13323  -0.06848
  -2.95048   0.19308  -0.00863
  -2.78588   0.26790  -0.03856
  -2.65121   0.14819  -0.03856
  -2.44172   0.22301  -0.00863
  -2.02273   0.32776   0.00634
  -1.76835   0.26790   0.00634
  -1.69353   0.26790  -0.03856
  -1.54389   0.16315   0.02130
  -1.19972   0.23797  -0.06848
  -0.97527   0.14819  -0.12834
  -0.79570   0.16315  -0.23309
  -0.70592   0.16315  -0.33783
  -0.54132   0.13323  -0.39769
  -0.28693   0.14819  -0.51740
  -0.21212   0.16315  -0.69696
  -0.04751   0.14819  -0.77178
   0.14702   0.25294  -0.78674
   0.19191   0.37265  -0.87653
   0.29665   0.29783  -0.87653
   0.44629   0.29783  -0.92142
   0.55104   0.32776  -1.10098
   0.73060   0.32776  -1.23566
   0.94009   0.41754  -1.28055
   1.08973   0.38761  -1.43019
   1.16455   0.29783  -1.54990
   1.28426   0.55221  -1.57982
   1.37404   0.56718  -1.62471
   1.59850   0.52228  -1.66961
   1.62843   0.55221  -1.62471
   1.77807   0.55221  -1.65464
   1.86785   0.50732  -1.63968
   1.89778   0.56718  -1.65464
   2.07734   0.47739  -1.60975
   2.09230   0.46243  -1.57982
   2.10727   0.43250  -1.50500
   2.09230   0.29783  -1.49004
   2.12223   0.32776  -1.40026
   2.12223   0.23797  -1.31048
   2.10727   0.28286  -1.02616
   2.10727   0.26790  -0.95135
   2.09230   0.37265  -0.90645
   2.07734   0.31279  -0.89149
   2.07734   0.32776  -0.83164
   2.10727   0.32776  -0.81667
   2.10727   0.43250  -0.74185
   2.04741   0.37265  -0.68200
   2.01749   0.40257  -0.62214
   1.98756   0.40257  -0.60718
   1.98756   0.47739  -0.54732
   1.98756   0.46243  -0.54732
   1.89778   0.31279  -0.56229
   1.88281   0.31279  -0.54732
   1.92770   0.38761  -0.41265
   1.83792   0.32776  -0.54732
   1.70325   0.26790  -0.48747
   1.76310   0.38761  -0.44258
   1.70325   0.37265  -0.48747
   1.71821   0.34272  -0.44258
   1.56857   0.40257  -0.47251
   1.53864   0.32776  -0.51740
   1.52368   0.41754  -0.54732
   1.44886   0.41754  -0.51740
   1.37404   0.43250  -0.62214
   1.35908   0.47739  -0.66703
   1.29922   0.43250  -0.74185
   1.23937   0.50732  -0.74185
   1.16455   0.41754  -0.81667
   1.14959   0.37265  -0.86156
   1.14959   0.29783  -0.89149
   1.10470   0.17812  -0.93638
   1.11966   0.13323  -0.92142
   1.11966   0.07337  -1.04113
   1.10470  -0.00145  -1.14587
   1.07477  -0.01641  -1.26558
   1.08973  -0.03137  -1.40026
   1.07477  -0.03137  -1.54990
   1.04484  -0.03137  -1.60975
   1.14959  -0.03137  -1.63968
   1.07477   0.01352  -1.69953
   0.97002   0.02848  -1.65464
   1.10470  -0.00145  -1.69953
   0.97002   0.07337  -1.69953
   0.91017   0.01352  -1.71450
   0.91017   0.02848  -1.72946
   0.86528   0.08834  -1.66961
   0.73060   0.11826  -1.63968
   0.80542   0.13323  -1.60975
   0.67075   0.13323  -1.57982
   0.79046   0.14819  -1.54990
   0.62586   0.19308  -1.43019
   0.58096   0.16315  -1.46011
   0.56600   0.10330  -1.29551
   0.55104   0.19308  -1.23566
   0.50615   0.19308  -1.22069
   0.44629   0.19308  -1.10098
   0.37147   0.17812  -1.05609
   0.26673   0.11826  -1.04113
   0.22183   0.02848  -1.05609
   0.19191   0.02848  -1.04113
   0.19191   0.04344  -0.98127
   0.14702  -0.01641  -0.93638
   0.11709  -0.01641  -0.99624
  -0.00262  -0.12116  -1.02616
  -0.03255  -0.10619  -0.93638
  -0.04751  -0.15108  -0.90645
  -0.21212  -0.16605  -0.98127
  -0.28693  -0.19598  -1.02616
  -0.33183  -0.22590  -0.98127
  -0.33183  -0.21094  -1.04113
  -0.30190  -0.21094  -1.10098
  -0.33183  -0.21094  -1.01120
  -0.33183  -0.24087  -1.05609
  -0.30190  -0.27079  -1.04113
  -0.33183  -0.27079  -1.04113
  -0.25701  -0.25583  -1.01120
  -0.22708  -0.28576  -0.98127
  -0.19715  -0.21094  -1.05609
  -0.24204  -0.33065  -1.05609
  -0.21212  -0.33065  -1.08602
  -0.13730  -0.25583  -1.22069
  -0.07744  -0.27079  -1.26558
   0.04227  -0.36058  -1.25062
   0.08716  -0.30072  -1.37033
   0.04227  -0.24087  -1.46011
   0.13205  -0.25583  -1.51997
