********************************************************************************
              CENTRO DE INSTRUMENTACION Y REGISTRO SISMICO  A.C.

    Anaxagoras 814, Col. Narvarte, Benito Juarez, C.P. 03020 Mexico, D.F.
           Tels. 5687 45 42/ 5687 45  82             Fax. 5669 25 12
********************************************************************************
ARCHIVO ESTANDAR DE ACELERACION:
VERSION DEL FORMATO                    : 2.0
NOMBRE DEL ARCHIVO                     : AU1120170923125259
FECHA Y HORA DE CREACION               : 25/SEP/17, 12:55
REF. CATALOGO ACELEROGRAMAS, SMIS 1996 : REGISTRO No.     /PAG.


================================================================================
DATOS DE LA ESTACION:
NOMBRE DE LA ESTACION                  : AUTÓDROMO
CLAVE DE LA ESTACION                   : AU11
LOCALIZACION DE LA ESTACION            : Del. Iztacalco, Cd. Deportiva          
                                       : Magdalena Mixhuca,                     
                                       : Col. Granjas México                    
                                       :                                        
                                       : 
COORDENADAS DE LA ESTACION             : 19.3919 LAT. N
                                       : 99.0869 LONG. W
ALTITUD (msnm)                         : 2234
TIPO DE SUELO                          : Terreno blando, material compresible
                                       : (arcillas)                
                                       : 
INSTITUCION RESPONSABLE                : CIRES
                                       : 

================================================================================
DATOS DEL ACELEROGRAFO:
MODELO DEL ACELEROGRAFO                : RADESD
NUMERO DE SERIE DEL ACELEROGRAFO       : 157
NUMERO DE CANALES                      : 3
ORIENTACION C1-C6 (rumbo;orientacion)  : /S00E/+V/N90W
ORIENTACION C7-C12 (rumbo;orientacion) : 
VEL. DE MUESTREO, C1-C6 (muestras/s)   : /100/100/100
VEL. DE MUESTREO, C7-C12 (muestras/s)  : 
ESC. COMPLETA DE SENSORES, C1-C6, (g)  : /0.5/0.5/0.5
ESC. COMPLETA DE SENSORES, C7-C12, (g) : 
FREC. NAT. DE SENSORES, C1-C6, (Hz)    : /51.77/52.56/52.29
FREC. NAT. DE SENSORES, C7-C12, (Hz)   : 
AMORTIGUAMIENTO DE SENSORES, C1-C6     : /0.5912/0.6083/0.6067
AMORTIGUAMIENTO DE SENSORES, C7-C12    : 
INTERVALO DE MUESTREO, C1-C6, (s)      : /0.01/0.01/0.01
INTERVALO DE MUESTREO, C7-C12, (s)     : 
UMBRAL DE DISPARO, C1-C6, (Gal)        : /0.72/1.92/0.72
UMBRAL DE DISPARO, C7-C12, (Gal)       : 
MEMORIA DE PREEVENTO (s)               : 44.0
TIEMPO DE POSEVENTO (s)                : 31.0


================================================================================
DATOS DEL SISMO:
FECHA DEL SISMO (GMT)                  : 23/SEP/17
HORA EPICENTRO (GMT)                   : 12:52:59.0
MAGNITUD(ES)                           : /Mc=6.1
COORDENADAS DEL EPICENTRO              : 16.48 LAT. N
                                       : 94.90 LONG. W
PROFUNDIDAD FOCAL (km)                 : 75
FUENTE DE LOS DATOS EPICENTRALES       : SSN
                                       : INSTITUTO DE GEOFISICA, UNAM

================================================================================
DATOS DE ESTE REGISTRO:
HORA DE LA PRIMERA MUESTRA (GMT)       : 12:55:36.00
EXACTITUD DEL TIEMPO (s)               : 0.01
DURACION DEL REGISTRO (s), C1-C6       : /319.8/319.8/319.8
DURACION DEL REGISTRO (s), C7-C12      : 
NUM. TOTAL DE MUESTRAS, C1-C6          : /31980/31980/31980
NUM. TOTAL DE MUESTRAS, C7-C12         : 
ACEL. MAX. (Gal), C1-C6                : /2.20715/0.75397/2.81483
ACEL. MAX., C1-C6, EN LA MUESTRA       : /5295/7418/7702
ACEL. MAX. (Gal), C7-C12               : 
ACEL. MAX., C7-C12, EN LA MUESTRA      : 
UNIDADES DE LOS DATOS                  : Gal (cm/s/s)
FACTOR DE DECIMACION                   : 1
FORMATO DATOS (FORTRAN,10 campos/dato) : 3F10.5


================================================================================
CALIDAD DEL ACELEROGRAMA:
REGISTRO DIGITAL COMPLETO CON TIEMPO ABSOLUTO CORRECTO.


================================================================================
COMENTARIOS:














================================================================================
DATOS DE ACELERACION:
---------+---------+---------+---------+---------+---------+---------+---------+
   CANAL-1   CANAL-2   CANAL-3   CANAL-4   CANAL-5   CANAL-6   CANAL-7   CANAL-8
      S00E        +V      N90W
---------+---------+---------+---------+---------+---------+---------+---------+
[...]
   0.81552  -0.29350   0.40566
   0.81552  -0.12890   0.51041
   0.77063  -0.21868   0.55530
   0.86041  -0.08400   0.61516
   0.86041  -0.26357   0.55530
   0.95019  -0.12890   0.67501
   1.01005  -0.24861   0.68998
   1.09983  -0.12890   0.71990
   1.06990  -0.15882   0.67501
   1.09983  -0.15882   0.76479
   1.18961  -0.09897   0.70494
   1.23450  -0.18875   0.77976
   1.26443  -0.15882   0.79472
   1.30932  -0.27853   0.80969
   1.36918  -0.32342   0.76479
   1.45896  -0.21868   0.80969
   1.41407  -0.27853   0.77976
   1.41407  -0.15882   0.77976
   1.47392  -0.17379   0.70494
   1.54874  -0.15882   0.76479
   1.56370  -0.08400   0.70494
   1.60860  -0.17379   0.70494
   1.68341  -0.05408   0.70494
   1.71334  -0.08400   0.70494
   1.65349  -0.05408   0.70494
   1.66845  -0.00919   0.74983
   1.72831   0.03571   0.66005
   1.75823   0.03571   0.63012
   1.69838  -0.00919   0.57027
   1.71334  -0.03911   0.58523
   1.72831  -0.03911   0.54034
   1.75823   0.02074   0.58523
   1.71334  -0.05408   0.52537
   1.63852   0.02074   0.52537
   1.68341   0.03571   0.48048
   1.63852  -0.02415   0.46552
   1.62356   0.02074   0.43559
   1.56370   0.08060   0.34581
   1.51881   0.03571   0.39070
   1.50385   0.03571   0.36077
   1.36918   0.21527   0.36077
   1.27939   0.17038   0.25603
   1.24947   0.24520   0.30092
   1.23450   0.18534   0.27099
   1.17465   0.11053   0.21114
   0.99508   0.20031   0.30092
   0.99508   0.18534   0.27099
   0.93523   0.17038   0.13632
   0.87537   0.14045   0.16624
   0.80055   0.18534   0.15128
   0.71077   0.24520   0.15128
   0.60602   0.27513   0.06150
   0.54617   0.27513   0.06150
   0.54617   0.23024   0.00164
   0.41149   0.32002  -0.05821
   0.39653   0.29009  -0.04325
   0.38157   0.29009  -0.10310
   0.26186   0.46966  -0.08814
   0.11222   0.54447  -0.17792
   0.09726   0.43973  -0.16296
   0.09726   0.48462  -0.26770
  -0.08231   0.64922  -0.16296
  -0.17209   0.75397  -0.25274
  -0.21698   0.69411  -0.25274
  -0.27684   0.61929  -0.35749
  -0.33669   0.63426  -0.26770
  -0.48633   0.70908  -0.43231
  -0.59108   0.73900  -0.44727
  -0.62100   0.58937  -0.41734
  -0.65093   0.72404  -0.49216
  -0.65093   0.63426  -0.53705
  -0.74071   0.66418  -0.56698
  -0.78561   0.57440  -0.56698
  -0.92028   0.67915  -0.61187
  -0.83050   0.61929  -0.62684
  -0.92028   0.63426  -0.61187
  -0.92028   0.70908  -0.64180
  -0.98013   0.66418  -0.62684
  -1.03999   0.63426  -0.70165
  -0.99510   0.58937  -0.65676
  -0.99510   0.63426  -0.64180
  -1.05495   0.64922  -0.65676
  -1.01006   0.60433  -0.68669
  -1.12977   0.61929  -0.77647
  -1.02503   0.51455  -0.77647
  -1.06992   0.48462  -0.80640
  -1.03999   0.48462  -0.76151
  -1.08488   0.40980  -0.77647
  -1.15970   0.54447  -0.77647
  -1.08488   0.49958  -0.88122
  -1.01006   0.40980  -0.92611
  -1.01006   0.37987  -0.85129
  -1.03999   0.46966  -0.89618
  -0.99510   0.39484  -0.95604
  -0.92028   0.32002  -0.92611
  -0.90532   0.39484  -0.97100
  -0.92028   0.32002  -0.95604
  -0.93524   0.40980  -1.01589
  -0.87539   0.33498  -0.98597
  -0.80057   0.27513  -1.03086
  -0.84546   0.36491  -1.06078
  -0.68086   0.30505  -1.12064
  -0.74071   0.24520  -1.12064
  -0.77064   0.40980  -1.09071
  -0.75568   0.32002  -1.21042
  -0.75568   0.29009  -1.24035
  -0.75568   0.42476  -1.18049
  -0.78561   0.30505  -1.28524
  -0.69582   0.26016  -1.31517
  -0.77064   0.32002  -1.43488
  -0.72575   0.23024  -1.40495
  -0.78561   0.29009  -1.50970
  -0.69582   0.24520  -1.55459
  -0.69582   0.23024  -1.67430
  -0.78561   0.17038  -1.74912
  -0.77064   0.20031  -1.68926
  -0.86042   0.21527  -1.56955
  -0.86042   0.17038  -1.68926
  -0.89035   0.14045  -1.71919
  -0.93524   0.18534  -1.71919
  -0.84546   0.27513  -1.77904
  -0.95021   0.14045  -1.77904
  -0.89035   0.06563  -1.92868
  -0.90532   0.15542  -2.03343
  -1.02503   0.00578  -1.98854
  -0.83050  -0.08400  -2.13817
  -0.81553   0.06563  -2.10825
  -0.86042   0.05067  -2.21299
  -0.98013  -0.09897  -2.21299
  -0.87539   0.02074  -2.25788
  -0.87539  -0.03911  -2.27285
  -0.93524  -0.08400  -2.33270
  -0.83050  -0.00919  -2.48234
  -0.77064   0.00578  -2.45241
  -0.77064  -0.09897  -2.46738
  -0.62100  -0.21868  -2.57212
  -0.72575  -0.03911  -2.69183
  -0.65093  -0.03911  -2.54220
  -0.60604  -0.14386  -2.67687
  -0.56115   0.00578  -2.60205
  -0.59108  -0.12890  -2.58709
  -0.51626  -0.12890  -2.64694
  -0.41151  -0.15882  -2.48234
  -0.45640  -0.00919  -2.64694
  -0.33669  -0.05408  -2.49731
  -0.33669  -0.18875  -2.54220
  -0.38158  -0.00919  -2.36263
  -0.17209  -0.11393  -2.46738
  -0.20202  -0.11393  -2.37760
  -0.05238  -0.12890  -2.33270
  -0.06735  -0.02415  -2.28781
  -0.03742  -0.03911  -2.18307
   0.00747  -0.27853  -2.21299
   0.02244  -0.06904  -1.95861
   0.15711   0.00578  -2.10825
   0.11222  -0.17379  -2.04839
   0.15711  -0.08400  -1.91372
   0.21697  -0.00919  -1.89875
   0.33668   0.03571  -1.89875
   0.26186  -0.12890  -1.83890
   0.20200   0.00578  -1.80897
   0.35164  -0.02415  -1.73415
   0.44142  -0.00919  -1.77904
   0.42646  -0.00919  -1.64437
   0.33668   0.02074  -1.61444
   0.42646   0.11053  -1.64437
   0.44142   0.05067  -1.59948
   0.50128   0.08060  -1.61444
   0.53121   0.06563  -1.59948
   0.47135   0.06563  -1.59948
   0.48631   0.05067  -1.59948
   0.45639   0.20031  -1.55459
   0.45639   0.11053  -1.58452
   0.45639   0.32002  -1.58452
   0.47135   0.29009  -1.53962
   0.45639   0.26016  -1.56955
   0.51624   0.23024  -1.58452
   0.41149   0.21527  -1.58452
   0.48631   0.43973  -1.62941
   0.42646   0.37987  -1.55459
   0.45639   0.49958  -1.44984
   0.42646   0.40980  -1.50970
   0.39653   0.37987  -1.53962
   0.41149   0.40980  -1.46481
   0.24689   0.60433  -1.62941
   0.32171   0.43973  -1.44984
   0.39653   0.39484  -1.53962
   0.33668   0.60433  -1.33013
   0.27682   0.58937  -1.31517
   0.21697   0.46966  -1.36006
   0.17207   0.57440  -1.31517
   0.18704   0.61929  -1.34510
   0.12718   0.52951  -1.24035
   0.11222   0.63426  -1.18049
   0.11222   0.66418  -1.30020
   0.15711   0.64922  -1.12064
   0.05236   0.46966  -1.16553
   0.05236   0.70908  -1.09071
   0.11222   0.63426  -1.01589
  -0.02245   0.54447  -0.94107
   0.02244   0.49958  -0.89618
  -0.05238   0.63426  -0.83633
  -0.06735   0.58937  -0.80640
  -0.12720   0.60433  -0.65676
  -0.08231   0.67915  -0.65676
  -0.21698   0.40980  -0.65676
  -0.30677   0.55944  -0.49216
  -0.41151   0.52951  -0.44727
  -0.45640   0.52951  -0.38741
  -0.51626   0.60433  -0.41734
  -0.63597   0.37987  -0.35749
  -0.72575   0.61929  -0.25274
  -0.80057   0.52951  -0.19289
  -0.84546   0.58937  -0.22281
  -0.99510   0.45469  -0.19289
  -0.96517   0.46966  -0.23778
  -1.12977   0.60433  -0.11807
  -1.06992   0.54447  -0.04325
  -1.17466   0.33498  -0.08814
  -1.18963   0.46966  -0.14799
  -1.29437   0.43973  -0.01332
  -1.32430   0.46966  -0.05821
  -1.38416   0.51455   0.07646
  -1.42905   0.49958  -0.02828
  -1.47394   0.43973   0.04653
  -1.45898   0.36491   0.07646
  -1.42905   0.29009   0.01661
  -1.51883   0.36491   0.04653
  -1.50387   0.32002  -0.01332
  -1.54876   0.30505   0.09143
  -1.53379   0.23024   0.03157
  -1.59365   0.27513   0.03157
  -1.53379   0.26016   0.25603
  -1.56372   0.18534   0.15128
  -1.60861   0.21527   0.19617
  -1.62358   0.11053   0.27099
  -1.54876   0.18534   0.30092
  -1.56372   0.24520   0.25603
  -1.54876   0.21527   0.28595
  -1.50387   0.12549   0.36077
  -1.53379   0.23024   0.51041
  -1.41408   0.20031   0.42063
  -1.45898   0.23024   0.48048
  -1.39912   0.09556   0.43559
  -1.38416   0.11053   0.52537
  -1.35423   0.14045   0.54034
  -1.18963   0.05067   0.57027
  -1.17466  -0.02415   0.63012
  -1.11481  -0.03911   0.74983
  -1.09984   0.12549   0.70494
  -1.02503   0.03571   0.79472
  -0.89035  -0.02415   0.85458
  -0.96517  -0.00919   0.83961
  -0.78561  -0.06904   0.82465
  -0.77064   0.08060   0.86954
  -0.69582  -0.00919   0.89947
  -0.68086  -0.00919   0.95932
  -0.56115  -0.03911   0.98925
  -0.54619   0.00578   0.83961
  -0.47137  -0.02415   0.94436
  -0.39655  -0.05408   0.92940
  -0.29180  -0.00919   1.07903
  -0.20202  -0.03911   0.91443
  -0.11224  -0.08400   0.98925
  -0.09727  -0.08400   0.91443
  -0.02245   0.03571   1.01918
   0.08229  -0.11393   1.01918
   0.12718  -0.02415   0.97429
   0.08229  -0.09897   0.98925
   0.20200   0.02074   1.07903
   0.24689  -0.05408   1.09400
   0.24689   0.00578   1.13889
   0.18704   0.09556   1.13889
   0.33668  -0.02415   1.07903
   0.38157  -0.03911   1.13889
   0.47135  -0.06904   1.18378
   0.41149   0.02074   1.04911
   0.50128   0.02074   1.15385
   0.48631   0.05067   1.13889
   0.51624  -0.03911   1.12392
   0.62099  -0.02415   1.09400
   0.66588   0.02074   1.09400
   0.72573  -0.00919   1.13889
   0.68084   0.00578   1.09400
   0.71077   0.08060   1.10896
   0.75566  -0.00919   1.04911
   0.78559   0.09556   1.13889
   0.74070   0.05067   1.06407
   0.72573   0.05067   0.97429
   0.80055   0.11053   1.03414
   0.78559   0.06563   1.00421
   0.77063   0.17038   1.06407
   0.81552   0.20031   1.03414
   0.78559   0.17038   1.06407
   0.83048   0.21527   1.04911
   0.77063   0.20031   1.07903
   0.80055   0.30505   1.12392
   0.74070   0.34995   1.16882
   0.75566   0.30505   1.15385
   0.74070   0.24520   1.10896
   0.71077   0.24520   1.12392
   0.78559   0.26016   1.19874
   0.65092   0.33498   1.19874
   0.60602   0.34995   1.21371
   0.74070   0.27513   1.22867
   0.69581   0.33498   1.36335
   0.75566   0.33498   1.31845
   0.59106   0.34995   1.28853
   0.56113   0.33498   1.31845
   0.65092   0.40980   1.43816
   0.57610   0.37987   1.40824
   0.66588   0.46966   1.49802
   0.63595   0.45469   1.54291
   0.62099   0.46966   1.55787
   0.74070   0.48462   1.58780
   0.77063   0.48462   1.63269
   0.68084   0.42476   1.69255
   0.72573   0.48462   1.69255
   0.72573   0.43973   1.81226
   0.78559   0.48462   1.84219
   0.81552   0.42476   1.91700
   0.80055   0.55944   1.91700
   0.77063   0.46966   2.03671
   0.83048   0.58937   2.02175
   0.83048   0.49958   2.11153
   0.93523   0.57440   2.14146
   0.90530   0.46966   2.18635
   0.90530   0.52951   2.27613
   0.89034   0.49958   2.27613
   0.86041   0.58937   2.36592
   0.87537   0.51455   2.38088
   0.83048   0.61929   2.39584
   0.83048   0.52951   2.42577
   0.83048   0.52951   2.48563
   0.81552   0.57440   2.50059
   0.69581   0.37987   2.53052
   0.68084   0.57440   2.54548
   0.66588   0.51455   2.65023
   0.65092   0.42476   2.68016
   0.62099   0.61929   2.56045
   0.56113   0.49958   2.72505
   0.59106   0.54447   2.72505
   0.53121   0.55944   2.75497
   0.45639   0.36491   2.78490
   0.48631   0.55944   2.72505
   0.45639   0.54447   2.76994
   0.36660   0.48462   2.81483
   0.42646   0.49958   2.79987
   0.29178   0.37987   2.81483
   0.36660   0.40980   2.76994
   0.29178   0.51455   2.74001
   0.26186   0.43973   2.78490
   0.26186   0.52951   2.72505
   0.15711   0.36491   2.75497
   0.20200   0.37987   2.68016
   0.20200   0.54447   2.54548
   0.14215   0.34995   2.60534
   0.20200   0.43973   2.53052
   0.12718   0.26016   2.53052
  -0.00749   0.21527   2.53052
   0.14215   0.30505   2.47066
   0.06733   0.33498   2.39584
  -0.02245   0.33498   2.39584
   0.08229   0.34995   2.33599
   0.02244   0.33498   2.33599
  -0.06735   0.26016   2.27613
   0.02244   0.30505   2.23124
  -0.06735   0.26016   2.17139
  -0.08231   0.24520   2.15642
  -0.11224   0.18534   2.09657
  -0.12720   0.15542   2.03671
  -0.17209   0.14045   1.93197
  -0.15713   0.09556   1.88708
  -0.20202   0.14045   1.93197
  -0.17209   0.08060   1.81226
  -0.29180   0.18534   1.79729
  -0.24691   0.09556   1.76737
  -0.30677   0.05067   1.73744
  -0.30677   0.03571   1.76737
  -0.23195   0.18534   1.70751
  -0.33669   0.11053   1.69255
  -0.27684   0.11053   1.58780
  -0.29180  -0.02415   1.54291
  -0.23195   0.12549   1.61773
  -0.29180   0.05067   1.52795
  -0.29180   0.11053   1.49802
  -0.24691   0.17038   1.46809
  -0.24691   0.08060   1.43816
  -0.23195   0.17038   1.31845
  -0.30677   0.08060   1.37831
  -0.26187   0.24520   1.28853
  -0.20202   0.06563   1.22867
  -0.15713   0.08060   1.21371
  -0.17209   0.05067   1.10896
  -0.14216   0.02074   1.01918
  -0.17209   0.09556   0.95932
  -0.09727  -0.06904   0.91443
  -0.11224   0.08060   0.88450
  -0.09727   0.00578   0.91443
  -0.05238   0.15542   0.79472
  -0.05238   0.02074   0.67501
  -0.06735   0.02074   0.64508
   0.05236   0.02074   0.54034
  -0.03742   0.02074   0.45056
   0.11222   0.03571   0.40566
   0.03740  -0.11393   0.33085
   0.06733   0.06563   0.25603
   0.05236  -0.06904   0.18121
   0.15711   0.08060   0.06150
   0.24689   0.00578   0.03157
   0.27682   0.14045  -0.05821
   0.27682  -0.02415  -0.13303
   0.26186   0.23024   0.04653
   0.38157   0.15542  -0.31260
   0.32171   0.20031  -0.25274
   0.42646   0.17038  -0.41734
   0.51624   0.17038  -0.43231
   0.48631   0.12549  -0.50713
   0.54617   0.05067  -0.55202
   0.57610   0.15542  -0.59691
   0.68084   0.06563  -0.68669
   0.72573   0.21527  -0.65676
   0.74070   0.12549  -0.88122
   0.80055   0.21527  -0.82136
   0.90530   0.20031  -0.97100
   0.92026   0.27513  -0.88122
   0.95019   0.15542  -0.92611
   1.03997   0.17038  -1.04582
   1.11479   0.15542  -0.94107
   1.08486   0.15542  -1.00093
   1.06990   0.21527  -1.10568
   1.18961   0.11053  -1.10568
   1.20457   0.05067  -1.09071
   1.29436   0.15542  -1.10568
   1.24947   0.12549  -1.16553
   1.32428   0.08060  -1.21042
   1.33925   0.09556  -1.27028
   1.33925   0.08060  -1.22539
   1.30932   0.11053  -1.31517
   1.29436   0.12549  -1.28524
   1.35421   0.03571  -1.34510
   1.35421   0.00578  -1.37502
   1.32428   0.08060  -1.40495
   1.33925   0.12549  -1.38999
   1.32428   0.03571  -1.44984
   1.24947   0.05067  -1.49473
   1.21954   0.11053  -1.44984
   1.26443   0.08060  -1.44984
   1.18961   0.00578  -1.50970
   1.17465   0.05067  -1.52466
   1.11479   0.06563  -1.53962
   1.08486   0.06563  -1.47977
   1.03997   0.20031  -1.58452
   1.01005   0.15542  -1.61444
   0.86041   0.14045  -1.58452
   0.89034   0.14045  -1.59948
   0.81552   0.08060  -1.58452
   0.71077   0.17038  -1.55459
   0.72573   0.11053  -1.52466
   0.60602   0.18534  -1.52466
   0.53121   0.23024  -1.52466
   0.45639   0.20031  -1.50970
   0.39653   0.17038  -1.53962
   0.32171   0.11053  -1.46481
   0.23193   0.18534  -1.41991
   0.17207   0.14045  -1.41991
   0.08229   0.06563  -1.46481
  -0.05238   0.24520  -1.40495
  -0.03742   0.24520  -1.31517
  -0.12720   0.27513  -1.31517
  -0.23195   0.21527  -1.30020
  -0.15713   0.18534  -1.22539
  -0.30677   0.24520  -1.19546
  -0.33669   0.17038  -1.25531
  -0.53122   0.21527  -1.18049
  -0.50129   0.17038  -1.16553
  -0.45640   0.17038  -1.10568
  -0.53122   0.14045  -1.06078
  -0.62100   0.12549  -1.12064
  -0.75568   0.20031  -1.06078
  -0.71079   0.06563  -1.06078
  -0.83050   0.11053  -1.00093
  -0.83050   0.09556  -0.98597
  -0.89035   0.09556  -1.07575
  -0.89035   0.08060  -0.95604
  -0.98013   0.06563  -1.04582
  -1.05495   0.09556  -1.07575
  -1.11481   0.06563  -1.12064
  -1.14474   0.02074  -1.06078
  -1.18963   0.14045  -1.09071
  -1.14474   0.00578  -1.13560
  -1.12977   0.00578  -1.12064
  -1.23452   0.06563  -1.13560
  -1.23452   0.06563  -1.15057
  -1.20459   0.03571  -1.24035
  -1.24948   0.00578  -1.15057
