********************************************************************************
              CENTRO DE INSTRUMENTACION Y REGISTRO SISMICO  A.C.

    Anaxagoras 814, Col. Narvarte, Benito Juarez, C.P. 03020 Mexico, D.F.
           Tels. 5687 45 42/ 5687 45  82             Fax. 5669 25 12
********************************************************************************
ARCHIVO ESTANDAR DE ACELERACION:
VERSION DEL FORMATO                    : 2.0
NOMBRE DEL ARCHIVO                     : AU1120121107163551
FECHA Y HORA DE CREACION               : 11/ABR/13, 13:51
REF. CATALOGO ACELEROGRAMAS, SMIS 1996 : REGISTRO No.     /PAG.


================================================================================
DATOS DE LA ESTACION:
NOMBRE DE LA ESTACION                  : AUTÓDROMO
CLAVE DE LA ESTACION                   : AU11
LOCALIZACION DE LA ESTACION            : Del. Iztacalco, Cd. Deportiva          
                                       : Magdalena Mixhuca,                     
                                       : Col. Granjas México                    
                                       :                                        
                                       : 
COORDENADAS DE LA ESTACION             : 19.3919 LAT. N
                                       : 99.0869 LONG. W
ALTITUD (msnm)                         : 2234
TIPO DE SUELO                          : Terreno blando, material compresible
                                       : (arcillas)                
                                       : 
INSTITUCION RESPONSABLE                : CIRES
                                       : 

================================================================================
DATOS DEL ACELEROGRAFO:
MODELO DEL ACELEROGRAFO                : RADESD
NUMERO DE SERIE DEL ACELEROGRAFO       : 157
NUMERO DE CANALES                      : 3
ORIENTACION C1-C6 (rumbo;orientacion)  : /N00E/+V/N90W
ORIENTACION C7-C12 (rumbo;orientacion) : 
VEL. DE MUESTREO, C1-C6 (muestras/s)   : /100/100/100
VEL. DE MUESTREO, C7-C12 (muestras/s)  : 
ESC. COMPLETA DE SENSORES, C1-C6, (g)  : /0.5/0.5/0.5
ESC. COMPLETA DE SENSORES, C7-C12, (g) : 
FREC. NAT. DE SENSORES, C1-C6, (Hz)    : /51.77/52.56/52.29
FREC. NAT. DE SENSORES, C7-C12, (Hz)   : 
AMORTIGUAMIENTO DE SENSORES, C1-C6     : /0.5912/0.6083/0.6067
AMORTIGUAMIENTO DE SENSORES, C7-C12    : 
INTERVALO DE MUESTREO, C1-C6, (s)      : /0.01/0.01/0.01
INTERVALO DE MUESTREO, C7-C12, (s)     : 
UMBRAL DE DISPARO, C1-C6, (Gal)        : /11.49/30.65/11.49
UMBRAL DE DISPARO, C7-C12, (Gal)       : 
MEMORIA DE PREEVENTO (s)               : 56.0
TIEMPO DE POSEVENTO (s)                : 80.0


================================================================================
DATOS DEL SISMO:
FECHA DEL SISMO (GMT)                  : 07/NOV/12
HORA EPICENTRO (GMT)                   : 16:35:51.0
MAGNITUD(ES)                           : /Mc=7.3
COORDENADAS DEL EPICENTRO              : 14.08 LAT. N
                                       : 92.32 LONG. W
PROFUNDIDAD FOCAL (km)                 : 16
FUENTE DE LOS DATOS EPICENTRALES       : SSN
                                       : INSTITUTO DE GEOFISICA, UNAM

================================================================================
DATOS DE ESTE REGISTRO:
HORA DE LA PRIMERA MUESTRA (GMT)       : 16:39:54.00
EXACTITUD DEL TIEMPO (s)               : 0.01
DURACION DEL REGISTRO (s), C1-C6       : /430.4/430.4/430.4
DURACION DEL REGISTRO (s), C7-C12      : 
NUM. TOTAL DE MUESTRAS, C1-C6          : /43040/43040/43040
NUM. TOTAL DE MUESTRAS, C7-C12         : 
ACEL. MAX. (Gal), C1-C6                : /3.64269/0.69603/2.64741
ACEL. MAX., C1-C6, EN LA MUESTRA       : /12778/8856/13679
ACEL. MAX. (Gal), C7-C12               : 
ACEL. MAX., C7-C12, EN LA MUESTRA      : 
UNIDADES DE LOS DATOS                  : Gal (cm/s/s)
FACTOR DE DECIMACION                   : 1
FORMATO DATOS (FORTRAN,10 campos/dato) : 3F10.5


================================================================================
CALIDAD DEL ACELEROGRAMA:
REGISTRO DIGITAL COMPLETO CON TIEMPO ABSOLUTO CORRECTO.


================================================================================
COMENTARIOS:














================================================================================
DATOS DE ACELERACION:
---------+---------+---------+---------+---------+---------+---------+---------+
   CANAL-1   CANAL-2   CANAL-3   CANAL-4   CANAL-5   CANAL-6   CANAL-7   CANAL-8
      N00E        +V      N90W
---------+---------+---------+---------+---------+---------+---------+---------+
[...]
   1.77222   0.15690  -1.18332
   1.83208   0.24669  -1.12346
   1.86200   0.30654  -1.15339
   1.86200   0.29158  -1.15339
   1.89193   0.32150  -1.12346
   1.99668   0.27661  -1.13842
   2.02661   0.30654  -1.12346
   2.01164   0.30654  -1.15339
   2.13135   0.32150  -1.10850
   2.13135   0.32150  -1.12346
   2.22114   0.33647  -1.07857
   2.40070   0.33647  -1.07857
   2.43063   0.33647  -1.09353
   2.52041   0.32150  -1.07857
   2.53537   0.30654  -1.06361
   2.56530   0.33647  -1.06361
   2.69998   0.36640  -1.01871
   2.71494   0.33647  -1.03368
   2.75983   0.33647  -0.98879
   2.81969   0.33647  -0.91397
   2.83465   0.29158  -0.92893
   2.86458   0.30654  -0.89900
   2.89450   0.24669  -0.89900
   2.96932   0.24669  -0.88404
   2.98429   0.26165  -0.80922
   3.01421   0.15690  -0.80922
   3.01421   0.24669  -0.73440
   3.02918   0.20179  -0.65958
   3.08903   0.27661  -0.61469
   3.13392   0.24669  -0.62966
   3.08903   0.15690  -0.45009
   3.16385   0.20179  -0.42016
   3.16385   0.17187  -0.31542
   3.14889   0.15690  -0.25556
   3.16385   0.24669  -0.19571
   3.11896   0.29158  -0.25556
   3.16385   0.23172  -0.19571
   3.14889   0.26165  -0.13585
   3.14889   0.21676  -0.15082
   3.08903   0.17187  -0.15082
   3.08903   0.24669  -0.09096
   3.11896   0.18683  -0.09096
   3.05911   0.24669  -0.06103
   3.05911   0.27661  -0.00118
   3.05911   0.14194   0.04371
   3.01421   0.32150   0.10357
   2.96932   0.14194   0.13350
   2.92443   0.24669   0.16342
   2.81969   0.18683   0.23824
   2.86458   0.23172   0.26817
   2.83465   0.27661   0.34299
   2.80472   0.23172   0.32802
   2.78976   0.24669   0.50759
   2.75983   0.24669   0.41781
   2.64012   0.29158   0.53752
   2.62516   0.23172   0.56744
   2.55034   0.20179   0.62730
   2.41566   0.26165   0.65723
   2.37077   0.26165   0.74701
   2.29595   0.12698   0.73205
   2.22114   0.18683   0.77694
   2.11639   0.20179   0.70212
   2.07150   0.17187   0.79190
   1.96675   0.09705   0.80686
   1.84704   0.02223   0.80686
   1.84704   0.02223   0.80686
   1.78719   0.03719   0.85176
   1.68244   0.15690   0.86672
   1.66748   0.09705   0.89665
   1.47295   0.17187   0.95650
   1.33827   0.20179   0.98643
   1.21856   0.24669   1.00139
   1.09885   0.18683   1.01636
   1.00907   0.24669   1.06125
   0.94922   0.20179   1.16600
   0.90432   0.24669   1.18096
   0.82951   0.15690   1.18096
   0.78461   0.24669   1.25578
   0.62001   0.24669   1.24081
   0.54519   0.24669   1.40542
   0.42548   0.21676   1.34556
   0.18606   0.24669   1.42038
   0.06635   0.20179   1.52513
   0.02146   0.20179   1.52513
  -0.05336   0.24669   1.52513
  -0.15810   0.23172   1.61491
  -0.23292   0.17187   1.61491
  -0.29278   0.14194   1.64484
  -0.56212   0.24669   1.71965
  -0.65191   0.26165   1.68973
  -0.81651   0.18683   1.64484
  -0.92125   0.17187   1.74958
  -0.99607   0.18683   1.73462
  -1.05593   0.24669   1.74958
  -1.14571   0.18683   1.73462
  -1.31031   0.15690   1.77951
  -1.44499   0.21676   1.77951
  -1.62455   0.17187   1.76455
  -1.71433   0.08208   1.80944
  -1.81908   0.23172   1.79447
  -1.87894   0.32150   1.85433
  -1.99865   0.24669   1.83936
  -2.02857   0.17187   1.83936
  -2.04354   0.18683   1.82440
  -2.16325   0.26165   1.86929
  -2.25303   0.24669   1.89922
  -2.26799   0.21676   1.86929
  -2.49245   0.30654   1.91418
  -2.59720   0.24669   1.85433
  -2.65705   0.29158   1.89922
  -2.76180   0.30654   1.85433
  -2.80669   0.30654   1.89922
  -2.82165   0.30654   1.94411
  -2.86654   0.32150   1.92915
  -2.91143   0.33647   1.91418
  -2.95633   0.30654   1.88426
  -3.00122   0.32150   1.91418
  -3.03114   0.33647   1.88426
  -3.04611   0.30654   1.86929
  -3.07604   0.32150   1.89922
  -3.18078   0.30654   1.86929
  -3.09100   0.33647   1.89922
  -3.22567   0.30654   1.83936
  -3.19575   0.32150   1.82440
  -3.37531   0.36640   1.82440
  -3.25560   0.35143   1.79447
  -3.21071   0.36640   1.79447
  -3.40524   0.35143   1.77951
  -3.34538   0.33647   1.77951
  -3.31546   0.32150   1.77951
  -3.39027   0.33647   1.74958
  -3.36035   0.33647   1.71965
  -3.36035   0.32150   1.74958
  -3.40524   0.38136   1.70469
  -3.37531   0.35143   1.67476
  -3.37531   0.36640   1.73462
  -3.34538   0.33647   1.70469
  -3.37531   0.38136   1.64484
  -3.31546   0.35143   1.68973
  -3.36035   0.35143   1.57002
  -3.34538   0.35143   1.57002
  -3.18078   0.33647   1.52513
  -3.15085   0.35143   1.49520
  -3.12093   0.33647   1.55505
  -3.09100   0.30654   1.46527
  -3.12093   0.33647   1.34556
  -3.06107   0.33647   1.31563
  -3.09100   0.35143   1.24081
  -3.04611   0.27661   1.27074
  -2.95633   0.32150   1.16600
  -2.98625   0.33647   1.16600
  -2.92640   0.32150   1.19592
  -2.95633   0.35143   1.15103
  -2.89647   0.32150   1.15103
  -2.89647   0.30654   1.06125
  -2.83662   0.32150   1.07621
  -2.83662   0.30654   1.03132
  -2.76180   0.32150   1.07621
  -2.77676   0.32150   1.06125
  -2.68698   0.30654   1.00139
  -2.64209   0.24669   1.00139
  -2.59720   0.30654   0.98643
  -2.52238   0.21676   0.95650
  -2.49245   0.15690   0.92657
  -2.47749   0.24669   0.94154
  -2.29792   0.24669   0.97147
  -2.31288   0.29158   0.94154
  -2.10339   0.24669   0.92657
  -2.26799   0.18683   0.92657
  -2.17821   0.23172   0.97147
  -2.10339   0.08208   0.88168
  -2.05850   0.06712   0.94154
  -1.99865   0.21676   0.97147
  -1.96872   0.02223   0.94154
  -1.93879   0.06712   0.94154
  -1.95375  -0.00770   0.97147
  -1.92383   0.03719   0.95650
  -1.87894   0.12698   0.95650
  -1.89390   0.00726   0.98643
  -1.84901   0.00726   0.97147
  -1.83404   0.09705   1.01636
  -1.80412  -0.15734   0.94154
  -1.74426  -0.12741   0.97147
  -1.71433  -0.06755   0.98643
  -1.62455   0.03719   1.03132
  -1.60959  -0.00770   1.07621
  -1.62455  -0.14237   1.00139
  -1.60959  -0.09748   1.01636
  -1.50484  -0.08252   1.03132
  -1.47491  -0.26208   1.01636
  -1.50484  -0.26208   1.00139
  -1.40009  -0.24712   1.06125
  -1.38513  -0.30697   1.01636
  -1.31031  -0.20223   1.01636
  -1.29535  -0.29201   1.07621
  -1.29535  -0.35187   1.06125
  -1.23549  -0.30697   1.09118
  -1.25046  -0.35187   1.04628
  -1.14571  -0.33690   1.03132
  -1.11578  -0.39676   1.00139
  -1.13075  -0.39676   1.00139
  -1.13075  -0.41172   0.97147
  -1.13075  -0.36683   1.04628
  -1.07089  -0.39676   1.00139
  -1.08586  -0.36683   1.01636
  -1.04096  -0.42668   0.97147
  -1.05593  -0.35187   1.00139
  -1.11578  -0.36683   0.95650
  -1.05593  -0.38179   0.89665
  -1.10082  -0.44165   0.88168
  -1.04096  -0.36683   0.89665
  -1.11578  -0.38179   0.86672
  -1.07089  -0.38179   0.89665
  -1.05593  -0.44165   0.86672
  -1.10082  -0.30697   0.85176
  -1.05593  -0.35187   0.85176
  -1.07089  -0.29201   0.85176
  -1.07089  -0.29201   0.79190
  -1.08586  -0.32194   0.79190
  -1.11578  -0.30697   0.76197
  -1.13075  -0.30697   0.76197
  -1.14571  -0.20223   0.74701
  -1.16067  -0.11245   0.74701
  -1.16067  -0.23216   0.74701
  -1.17564  -0.26208   0.68715
  -1.08586  -0.20223   0.67219
  -1.19060  -0.15734   0.68715
  -1.20557  -0.23216   0.56744
  -1.19060  -0.17230   0.53752
  -1.19060  -0.26208   0.44773
  -1.23549  -0.18726   0.40284
  -1.29535  -0.20223   0.35795
  -1.19060  -0.20223   0.29810
  -1.17564  -0.20223   0.20831
  -1.23549  -0.23216   0.13350
  -1.11578  -0.15734   0.16342
  -1.20557  -0.23216   0.08860
  -1.25046  -0.15734   0.02875
  -1.19060  -0.17230   0.02875
  -1.17564  -0.12741  -0.06103
  -1.14571  -0.20223  -0.06103
  -1.16067  -0.11245  -0.06103
  -1.23549  -0.09748  -0.12089
  -1.16067  -0.08252  -0.13585
  -1.13075  -0.00770  -0.15082
  -1.10082  -0.02266  -0.16578
  -1.10082  -0.06755  -0.21067
  -1.11578   0.02223  -0.21067
  -1.14571  -0.02266  -0.24060
  -1.05593   0.02223  -0.19571
  -1.10082   0.02223  -0.22563
  -1.10082   0.08208  -0.30045
  -1.04096   0.14194  -0.30045
  -1.04096   0.12698  -0.31542
  -1.04096   0.17187  -0.36031
  -1.02600   0.12698  -0.39024
  -1.01104   0.18683  -0.45009
  -0.96615   0.15690  -0.50995
  -0.95118   0.03719  -0.68951
  -0.92125   0.15690  -0.56980
  -0.90629   0.11201  -0.61469
  -0.83147   0.15690  -0.68951
  -0.77162   0.09705  -0.76433
  -0.77162   0.15690  -0.77929
  -0.71176   0.21676  -0.76433
  -0.62198   0.12698  -0.77929
  -0.56212   0.05216  -0.85411
  -0.42745   0.06712  -0.86908
  -0.48731   0.12698  -0.86908
  -0.29278   0.03719  -0.92893
  -0.33767   0.08208  -0.91397
  -0.21796   0.06712  -0.95886
  -0.20299   0.09705  -0.95886
  -0.12818   0.05216  -1.00375
  -0.09825   0.05216  -0.98879
  -0.08328   0.06712  -1.03368
  -0.08328   0.09705  -1.04864
  -0.03839   0.00726  -1.07857
  -0.02343   0.14194  -1.09353
   0.08132   0.05216  -1.07857
   0.15614   0.09705  -1.12346
   0.17110   0.14194  -1.07857
   0.29081   0.14194  -1.12346
   0.36563   0.08208  -1.13842
   0.38059   0.15690  -1.19828
   0.53023   0.08208  -1.13842
   0.63498   0.06712  -1.13842
   0.70980  -0.00770  -1.19828
   0.82951   0.15690  -1.15339
   0.87440   0.08208  -1.19828
   0.88936   0.17187  -1.21324
   0.93425   0.14194  -1.21324
   1.00907   0.09705  -1.30303
   1.03900   0.03719  -1.45266
   1.11382   0.06712  -1.33295
   1.23353  -0.00770  -1.39281
   1.36820   0.09705  -1.31799
   1.44302   0.14194  -1.46763
   1.57769   0.05216  -1.39281
   1.71237   0.12698  -1.57237
   1.80215   0.02223  -1.61726
   1.78719   0.02223  -1.66216
   1.80215   0.03719  -1.75194
   1.84704  -0.08252  -1.78187
   1.92186  -0.03763  -1.87165
   2.01164  -0.03763  -1.88661
   2.05653   0.00726  -1.82676
   2.14632   0.05216  -1.88661
   2.19121  -0.15734  -1.91654
   2.23610  -0.06755  -1.91654
   2.38574  -0.05259  -2.00632
   2.41566  -0.09748  -1.99136
   2.59523  -0.15734  -2.02129
   2.65508  -0.15734  -2.00632
   2.68501  -0.12741  -2.02129
   2.72990  -0.17230  -2.05121
   2.80472  -0.15734  -2.03625
   2.80472  -0.20223  -2.05121
   2.87954  -0.18726  -2.06618
   2.92443  -0.12741  -2.06618
   2.95436  -0.18726  -2.02129
   2.99925  -0.12741  -2.02129
   3.04414  -0.18726  -2.00632
   3.08903  -0.09748  -2.06618
   3.10400  -0.14237  -2.05121
   3.14889  -0.11245  -2.02129
   3.19378  -0.18726  -2.03625
   3.25363  -0.20223  -2.06618
   3.34342  -0.08252  -2.05121
   3.31349  -0.09748  -2.03625
   3.32845  -0.14237  -1.97639
   3.40327  -0.14237  -2.02129
   3.47809  -0.14237  -1.97639
   3.61276  -0.15734  -1.99136
   3.49305  -0.12741  -1.97639
   3.53795  -0.17230  -1.96143
   3.43320  -0.21719  -1.99136
   3.58284  -0.20223  -1.97639
   3.58284  -0.12741  -1.90158
   3.55291  -0.27705  -1.88661
   3.56787  -0.24712  -1.85668
   3.53795  -0.27705  -1.87165
   3.59780  -0.14237  -1.78187
   3.59780  -0.21719  -1.79683
   3.52298  -0.27705  -1.82676
   3.46313  -0.17230  -1.79683
   3.64269  -0.23216  -1.75194
   3.50802  -0.21719  -1.61726
   3.49305  -0.23216  -1.64719
   3.47809  -0.23216  -1.64719
   3.38831  -0.26208  -1.55741
   3.37334  -0.20223  -1.52748
   3.43320  -0.15734  -1.51252
   3.26860  -0.12741  -1.42274
   3.28356  -0.20223  -1.45266
   3.29853  -0.06755  -1.39281
   3.28356  -0.20223  -1.33295
   3.16385  -0.20223  -1.46763
   3.13392  -0.12741  -1.37784
   3.08903  -0.12741  -1.39281
   3.07407  -0.03763  -1.24317
   2.99925  -0.12741  -1.19828
   2.92443  -0.15734  -1.21324
   2.90947  -0.17230  -1.21324
   2.86458  -0.17230  -1.28806
   2.83465  -0.18726  -1.16835
   2.81969  -0.03763  -1.21324
   2.77479  -0.15734  -1.19828
   2.71494  -0.17230  -1.21324
   2.71494  -0.15734  -1.24317
   2.64012  -0.15734  -1.15339
   2.49048  -0.09748  -1.12346
   2.49048  -0.18726  -1.12346
   2.35581  -0.18726  -1.18332
   2.26603  -0.23216  -1.24317
   2.20617  -0.15734  -1.24317
   2.16128  -0.14237  -1.15339
   2.10143  -0.17230  -1.15339
   2.01164  -0.23216  -1.15339
   1.92186  -0.15734  -1.15339
   1.92186  -0.21719  -1.15339
   1.84704  -0.12741  -1.19828
   1.81711  -0.12741  -1.18332
   1.74229  -0.11245  -1.15339
   1.62258  -0.05259  -1.21324
   1.57769  -0.06755  -1.15339
   1.56273  -0.08252  -1.19828
   1.41309  -0.09748  -1.12346
   1.35324   0.00726  -1.10850
   1.23353   0.02223  -1.16835
   1.14374  -0.05259  -1.12346
   1.08389   0.06712  -1.18332
   1.05396  -0.05259  -1.12346
   1.00907  -0.05259  -1.15339
   0.93425   0.06712  -1.10850
   0.88936   0.00726  -1.12346
   0.87440  -0.00770  -1.13842
   0.85943   0.03719  -1.10850
   0.84447   0.09705  -1.09353
   0.70980   0.05216  -1.13842
   0.63498   0.14194  -1.07857
   0.62001   0.15690  -1.12346
   0.47038   0.11201  -1.09353
   0.53023   0.11201  -1.07857
   0.33570   0.08208  -1.07857
   0.26088   0.17187  -1.03368
   0.27585   0.18683  -0.98879
   0.18606   0.15690  -1.01871
   0.15614   0.29158  -0.95886
   0.05139   0.17187  -1.00375
   0.03643   0.15690  -0.94390
  -0.02343   0.17187  -0.88404
  -0.06832   0.17187  -0.85411
  -0.08328   0.20179  -0.82419
  -0.08328   0.14194  -0.82419
  -0.08328   0.20179  -0.76433
  -0.14314   0.14194  -0.74937
  -0.17307   0.11201  -0.65958
  -0.24789   0.17187  -0.64462
  -0.21796   0.20179  -0.55484
  -0.29278   0.15690  -0.56980
  -0.42745   0.21676  -0.49498
  -0.44241   0.17187  -0.42016
  -0.45738   0.08208  -0.31542
  -0.48731   0.11201  -0.31542
  -0.59205   0.21676  -0.22563
  -0.56212   0.21676  -0.21067
  -0.63694   0.20179  -0.16578
  -0.57709   0.17187  -0.16578
  -0.69680   0.11201  -0.21067
  -0.65191   0.17187  -0.15082
  -0.66687   0.24669  -0.15082
  -0.62198   0.20179  -0.10592
  -0.72673   0.11201   0.01379
  -0.72673   0.18683   0.01379
  -0.69680   0.20179   0.08860
  -0.77162   0.17187   0.07364
  -0.77162   0.17187   0.20831
  -0.78658   0.11201   0.25321
  -0.75665   0.21676   0.28313
  -0.80154   0.27661   0.41781
  -0.72673   0.27661   0.50759
  -0.83147   0.17187   0.59737
  -0.80154   0.18683   0.70212
  -0.77162   0.18683   0.71708
  -0.81651   0.11201   0.79190
  -0.83147   0.15690   0.79190
  -0.87636   0.23172   0.80686
  -0.84644   0.21676   0.82183
  -0.83147   0.12698   0.85176
  -0.89133   0.06712   0.86672
  -0.89133   0.17187   0.91161
  -0.87636   0.00726   0.94154
  -0.92125   0.15690   0.97147
  -0.95118   0.09705   1.01636
  -0.90629   0.27661   1.03132
  -0.93622   0.21676   1.09118
  -0.90629   0.17187   1.12110
  -0.95118   0.15690   1.24081
  -0.92125   0.18683   1.28571
  -0.90629   0.24669   1.25578
  -0.92125   0.14194   1.36052
  -0.98111   0.21676   1.40542
  -0.95118   0.14194   1.40542
  -0.99607   0.15690   1.37549
  -0.93622   0.12698   1.57002
  -0.95118   0.15690   1.57002
  -0.98111   0.08208   1.54009
  -1.02600   0.08208   1.65980
  -0.99607   0.21676   1.67476
  -1.01104   0.08208   1.59994
  -0.99607   0.11201   1.73462
  -1.02600   0.06712   1.70469
  -1.01104   0.11201   1.71965
  -1.02600   0.11201   1.70469
  -1.01104   0.12698   1.70469
  -0.99607   0.02223   1.73462
  -1.08586   0.08208   1.73462
  -1.05593   0.03719   1.65980
  -1.04096   0.00726   1.73462
  -1.05593   0.05216   1.70469
  -1.05593   0.08208   1.71965
  -1.07089   0.00726   1.71965
  -1.08586  -0.02266   1.73462
  -1.07089   0.06712   1.73462
  -1.08586   0.20179   1.76455
  -1.08586   0.15690   1.74958
  -1.11578   0.11201   1.76455
  -1.13075   0.05216   1.74958
  -1.16067   0.12698   1.76455
  -1.11578   0.12698   1.77951
  -1.16067   0.11201   1.76455
  -1.17564   0.05216   1.76455
  -1.14571   0.03719   1.73462
  -1.25046   0.12698   1.79447
  -1.31031   0.20179   1.88426
