********************************************************************************
              CENTRO DE INSTRUMENTACION Y REGISTRO SISMICO  A.C.                

    Anaxagoras 814, Col. Narvarte, Benito Juarez, C.P. 03020 Mexico, D.F.       
           Tels. 5687 45 42/ 5687 45  82             Fax. 5669 25 12            
********************************************************************************
ARCHIVO ESTANDAR DE ACELERACION:
VERSION DEL FORMATO                    : 2.0
NOMBRE DEL ARCHIVO                     : AU1120080428000629
FECHA Y HORA DE CREACION               : 15/MAY/08, 11:06
REF. CATALOGO ACELEROGRAMAS, SMIS 1996 : REGISTRO No.     /PAG.


================================================================================
DATOS DE LA ESTACION:
NOMBRE DE LA ESTACION                  : AUTÓDROMO
CLAVE DE LA ESTACION                   : AU11
LOCALIZACION DE LA ESTACION            : Del. Iztacalco, Cd. Deportiva          
                                       : Magdalena Mixhuca,                     
                                       : Col. Granjas México                    
                                       :                                        
                                       : 
COORDENADAS DE LA ESTACION             : 19.3919 LAT. N
                                       : 99.0869 LONG. W
ALTITUD (msnm)                         : 2234
TIPO DE SUELO                          : Terreno blando, material compresible
                                       : (arcillas)                
                                       : 
INSTITUCION RESPONSABLE                : CIRES


================================================================================
DATOS DEL ACELEROGRAFO:
MODELO DEL ACELEROGRAFO                : SSA-1
NUMERO DE SERIE DEL ACELEROGRAFO       : 157
NUMERO DE CANALES                      : 3
ORIENTACION C1-C6 (rumbo;orientacion)  : /N00E/+V/N90W
ORIENTACION C7-C12 (rumbo;orientacion) : 
VEL. DE MUESTREO, C1-C6 (muestras/s)   : /200/200/200
VEL. DE MUESTREO, C7-C12 (muestras/s)  : 
ESC. COMPLETA DE SENSORES, C1-C6, (g)  : /2.0/2.0/2.0
ESC. COMPLETA DE SENSORES, C7-C12, (g) : 
FREC. NAT. DE SENSORES, C1-C6, (Hz)    : /51.77/52.56/52.29
FREC. NAT. DE SENSORES, C7-C12, (Hz)   : 
AMORTIGUAMIENTO DE SENSORES, C1-C6     : /0.5912/0.6083/0.6067
AMORTIGUAMIENTO DE SENSORES, C7-C12    : 
INTERVALO DE MUESTREO, C1-C6, (s)      : /0.005/0.005/0.005
INTERVALO DE MUESTREO, C7-C12, (s)     : 
UMBRAL DE DISPARO, C1-C6, (Gal)        : /2.0/2.5/1.5
UMBRAL DE DISPARO, C7-C12, (Gal)       : 
MEMORIA DE PREEVENTO (s)               : 15.36
TIEMPO DE POSEVENTO (s)                : 60.0


================================================================================
DATOS DEL SISMO:
FECHA DEL SISMO (GMT)                  : 28/ABR/08
HORA EPICENTRO (GMT)                   : 00:06:29.0
MAGNITUD(ES)                           : /Mc=5.6
COORDENADAS DEL EPICENTRO              : 18.05 LAT. N
                                       : -100.01 LONG. W
PROFUNDIDAD FOCAL (km)                 : 52
FUENTE DE LOS DATOS EPICENTRALES       : SSN
                                       : INSTITUTO DE GEOFISICA, UNAM

================================================================================
DATOS DE ESTE REGISTRO:
HORA DE LA PRIMERA MUESTRA (GMT)       : 0:07:14.66
EXACTITUD DEL TIEMPO (s)               : 0.005
DURACION DEL REGISTRO (s), C1-C6       : /161.28/161.28/161.28
DURACION DEL REGISTRO (s), C7-C12      : 
NUM. TOTAL DE MUESTRAS, C1-C6          : /32256/32256/32256
NUM. TOTAL DE MUESTRAS, C7-C12         : 
ACEL. MAX. (Gal), C1-C6                : /5.15587/3.21824/4.06757
ACEL. MAX., C1-C6, EN LA MUESTRA       : /8890/2729/12853
ACEL. MAX. (Gal), C7-C12               : 
ACEL. MAX., C7-C12, EN LA MUESTRA      : 
UNIDADES DE LOS DATOS                  : Gal (cm/s/s)
FACTOR DE DECIMACION                   : 1
FORMATO DATOS (FORTRAN,10 campos/dato) : 3F10.5


================================================================================
CALIDAD DEL ACELEROGRAMA:
REGISTRO DIGITAL COMPLETO CON TIEMPO ABSOLUTO CORRECTO.


================================================================================
COMENTARIOS:














================================================================================
DATOS DE ACELERACION:
---------+---------+---------+---------+---------+---------+---------+---------+
   CANAL-1   CANAL-2   CANAL-3   CANAL-4   CANAL-5   CANAL-6   CANAL-7   CANAL-8
      N00E        +V      N90W
---------+---------+---------+---------+---------+---------+---------+---------+
[...]
  -0.36747  -0.13364   0.24200
  -0.36747  -0.37306   0.24200
  -0.36747  -0.37306   0.24200
  -0.36747  -0.37306   0.24200
  -0.36747  -0.37306   0.24200
  -0.36747  -0.37306   0.24200
  -0.36747  -0.37306   0.24200
  -0.36747  -0.61248   0.24200
  -0.36747  -0.61248   0.24200
  -0.36747  -0.61248   0.24200
  -0.36747  -0.61248   0.48142
  -0.36747  -0.61248   0.48142
  -0.36747  -0.61248   0.48142
  -0.36747  -0.61248   0.48142
  -0.36747  -0.37306   0.48142
  -0.36747  -0.37306   0.48142
  -0.36747  -0.37306   0.48142
  -0.36747  -0.13364   0.72084
  -0.36747  -0.13364   0.72084
  -0.36747   0.10578   0.72084
  -0.36747   0.10578   0.48142
  -0.36747   0.34520   0.48142
  -0.36747   0.34520   0.48142
  -0.36747   0.34520   0.72084
  -0.36747   0.34520   0.48142
  -0.36747   0.58462   0.48142
  -0.36747   0.34520   0.48142
  -0.36747   0.34520   0.48142
  -0.36747   0.34520   0.24200
  -0.36747   0.58462   0.24200
  -0.36747   0.34520   0.24200
  -0.36747   0.58462   0.00258
  -0.36747   0.34520   0.00258
  -0.36747   0.34520   0.00258
  -0.60689   0.34520   0.00258
  -0.36747   0.34520   0.00258
  -0.60689   0.34520  -0.23684
  -0.60689   0.34520  -0.23684
  -0.60689   0.34520  -0.23684
  -0.60689   0.34520  -0.23684
  -0.60689   0.34520  -0.47626
  -0.60689   0.34520  -0.47626
  -0.60689   0.34520  -0.71568
  -0.60689   0.34520  -0.71568
  -0.60689   0.34520  -0.71568
  -0.84631   0.34520  -0.95511
  -0.84631   0.10578  -0.95511
  -0.84631   0.34520  -1.19453
  -0.84631   0.34520  -1.67337
  -0.84631   0.34520  -1.19453
  -0.84631   0.34520  -1.43395
  -0.84631   0.34520  -1.43395
  -0.84631   0.34520  -1.67337
  -0.84631   0.34520  -1.67337
  -0.84631   0.34520  -1.67337
  -0.84631   0.34520  -1.67337
  -0.84631   0.34520  -1.67337
  -0.84631   0.34520  -1.67337
  -0.84631   0.34520  -1.67337
  -0.84631   0.34520  -1.67337
  -0.84631   0.34520  -1.67337
  -0.84631   0.10578  -1.67337
  -0.84631   0.10578  -1.67337
  -0.84631   0.10578  -1.67337
  -0.84631   0.10578  -1.67337
  -0.84631   0.10578  -1.67337
  -0.84631   0.10578  -1.67337
  -0.84631   0.10578  -1.67337
  -0.84631   0.10578  -1.67337
  -0.84631   0.10578  -1.67337
  -0.84631   0.10578  -1.67337
  -0.84631   0.10578  -1.67337
  -0.84631   0.10578  -1.67337
  -0.84631   0.10578  -1.67337
  -0.84631   0.10578  -1.67337
  -0.84631   0.10578  -1.67337
  -0.84631   0.10578  -1.67337
  -0.84631   0.10578  -1.67337
  -0.84631   0.10578  -1.67337
  -1.08573   0.10578  -1.67337
  -1.08573  -0.13364  -1.67337
  -1.08573   0.10578  -1.67337
  -1.08573   0.10578  -1.67337
  -1.32515   0.10578  -1.67337
  -1.32515   0.10578  -1.43395
  -1.32515   0.10578  -1.43395
  -1.32515   0.10578  -1.43395
  -1.56457   0.10578  -1.43395
  -1.56457   0.34520  -1.43395
  -1.56457   0.34520  -1.43395
  -1.56457   0.34520  -1.43395
  -1.56457   0.34520  -1.43395
  -1.56457   0.34520  -1.43395
  -1.80399   0.34520  -1.43395
  -1.80399   0.34520  -1.43395
  -1.80399   0.34520  -1.43395
  -1.80399   0.34520  -1.43395
  -1.80399   0.34520  -1.43395
  -1.80399   0.34520  -1.43395
  -1.80399   0.34520  -1.67337
  -1.80399   0.10578  -1.67337
  -1.80399   0.10578  -1.91279
  -1.80399   0.10578  -1.91279
  -1.80399   0.10578  -1.91279
  -1.56457   0.10578  -1.91279
  -1.56457   0.10578  -1.91279
  -1.56457  -0.13364  -2.15221
  -1.56457  -0.13364  -2.15221
  -1.32515  -0.13364  -2.15221
  -1.32515  -0.37306  -2.15221
  -1.56457  -0.37306  -2.15221
  -1.08573  -0.37306  -2.15221
  -1.08573  -0.37306  -2.15221
  -1.08573  -0.37306  -2.15221
  -1.08573  -0.37306  -2.15221
  -0.84631  -0.61248  -2.39163
  -1.08573  -0.61248  -2.39163
  -0.84631  -0.61248  -2.39163
  -0.84631  -0.61248  -2.39163
  -0.84631  -0.61248  -2.15221
  -0.84631  -0.85190  -2.15221
  -0.84631  -0.85190  -2.15221
  -0.60689  -0.85190  -2.15221
  -0.60689  -0.85190  -2.15221
  -0.60689  -0.85190  -2.15221
  -0.60689  -0.85190  -1.91279
  -0.60689  -0.85190  -2.15221
  -0.60689  -0.85190  -1.91279
  -0.60689  -0.85190  -1.91279
  -0.60689  -0.85190  -1.67337
  -0.36747  -0.85190  -1.67337
  -0.36747  -0.85190  -1.67337
  -0.36747  -0.85190  -1.43395
  -0.36747  -0.85190  -1.43395
  -0.36747  -0.85190  -1.19453
  -0.36747  -0.85190  -1.19453
  -0.36747  -0.85190  -0.95511
  -0.36747  -0.85190  -0.71568
  -0.36747  -0.85190  -0.71568
  -0.36747  -0.85190  -0.47626
  -0.36747  -0.85190  -0.47626
  -0.36747  -0.85190  -0.23684
  -0.36747  -0.85190  -0.23684
  -0.36747  -1.09132   0.00258
  -0.36747  -1.09132   0.00258
  -0.36747  -1.09132   0.24200
  -0.36747  -0.85190   0.24200
  -0.36747  -0.85190   0.24200
  -0.36747  -0.85190   0.48142
  -0.36747  -0.85190   0.48142
  -0.36747  -0.61248   0.48142
  -0.36747  -0.85190   0.72084
  -0.36747  -0.85190   0.72084
  -0.60689  -0.61248   0.72084
  -0.60689  -0.61248   0.72084
  -0.60689  -0.61248   0.96026
  -0.60689  -0.61248   0.96026
  -0.60689  -0.61248   0.96026
  -0.60689  -0.37306   0.96026
  -0.60689  -0.37306   0.96026
  -0.60689  -0.37306   1.19968
  -1.08573  -0.37306   1.19968
  -0.84631  -0.37306   1.19968
  -0.84631  -0.37306   1.19968
  -0.84631  -0.37306   1.19968
  -0.84631  -0.37306   1.19968
  -0.84631  -0.37306   1.19968
  -0.84631  -0.13364   1.19968
  -0.84631  -0.13364   1.19968
  -0.84631  -0.13364   1.19968
  -0.84631  -0.13364   1.19968
  -0.84631  -0.13364   1.19968
  -0.84631  -0.13364   1.19968
  -0.84631   0.10578   1.19968
  -0.84631   0.10578   0.96026
  -0.60689  -0.13364   0.72084
  -0.60689   0.10578   0.72084
  -0.60689   0.10578   0.72084
  -0.60689   0.34520   0.48142
  -0.60689   0.34520   0.48142
  -0.36747   0.34520   0.48142
  -0.36747   0.34520   0.24200
  -0.36747   0.34520   0.24200
  -0.36747   0.58462   0.00258
  -0.36747   0.58462   0.00258
  -0.12805   0.58462  -0.23684
  -0.12805   0.58462  -0.23684
  -0.12805   0.58462  -0.23684
   0.11137   0.58462  -0.47626
   0.11137   0.58462  -0.47626
   0.11137   0.58462  -0.47626
   0.11137   0.58462  -0.47626
   0.35079   0.58462  -0.47626
   0.35079   0.58462  -0.47626
   0.35079   0.58462  -0.47626
   0.35079   0.58462  -0.23684
   0.35079   0.58462  -0.23684
   0.35079   0.58462  -0.23684
   0.35079   0.58462  -0.23684
   0.35079   0.34520  -0.23684
   0.35079   0.34520  -0.23684
   0.35079   0.34520   0.00258
   0.35079   0.34520   0.00258
   0.35079   0.34520   0.00258
   0.35079   0.34520   0.24200
   0.59021   0.34520   0.24200
   0.35079   0.34520   0.24200
   0.35079   0.58462   0.48142
   0.35079   0.58462   0.48142
   0.35079   0.58462   0.48142
   0.35079   0.58462   0.48142
   0.35079   0.58462   0.72084
   0.35079   0.58462   0.72084
   0.11137   0.58462   0.72084
   0.11137   0.58462   0.72084
   0.11137   0.58462   0.72084
   0.11137   0.82404   0.72084
  -0.12805   0.82404   0.96026
  -0.12805   0.58462   0.96026
  -0.12805   0.82404   0.96026
  -0.36747   0.58462   0.96026
  -0.36747   0.58462   0.96026
  -0.36747   0.58462   0.96026
  -0.36747   0.58462   0.96026
  -0.36747   0.58462   0.96026
  -0.60689   0.58462   0.96026
  -0.60689   0.34520   0.72084
  -0.60689   0.34520   0.72084
  -0.60689   0.34520   0.72084
  -0.84631   0.34520   0.72084
  -0.84631   0.34520   0.72084
  -0.84631   0.34520   0.72084
  -0.84631   0.34520   0.72084
  -0.84631   0.34520   0.72084
  -0.84631   0.34520   0.72084
  -1.08573   0.34520   0.72084
  -1.08573   0.34520   0.72084
  -1.08573   0.10578   0.72084
  -1.08573   0.10578   0.72084
  -1.32515   0.10578   0.72084
  -1.32515   0.10578   0.72084
  -1.32515  -0.13364   0.72084
  -1.32515  -0.13364   0.96026
  -1.56457  -0.13364   0.72084
  -1.56457  -0.37306   0.96026
  -1.56457  -0.37306   0.96026
  -1.56457  -0.37306   0.96026
  -1.56457  -0.37306   0.72084
  -1.80399  -0.37306   0.72084
  -1.80399  -0.37306   0.72084
  -1.80399  -0.37306   0.72084
  -2.04341  -0.37306   0.72084
  -2.04341  -0.37306   0.72084
  -2.04341  -0.13364   0.48142
  -2.04341  -0.13364   0.48142
  -2.04341  -0.13364   0.48142
  -2.04341  -0.13364   0.00258
  -2.28283   0.10578   0.24200
  -2.28283   0.10578   0.00258
  -2.28283   0.10578   0.00258
  -2.28283   0.10578  -0.23684
  -2.28283   0.34520  -0.47626
  -2.28283   0.10578  -0.47626
  -2.28283   0.34520  -0.71568
  -2.28283   0.34520  -0.95511
  -2.28283   0.34520  -0.95511
  -2.28283   0.34520  -1.19453
  -2.28283   0.34520  -1.19453
  -2.28283   0.34520  -1.43395
  -2.28283   0.34520  -1.43395
  -2.28283   0.10578  -1.67337
  -2.52225   0.10578  -1.67337
  -2.52225   0.10578  -1.91279
  -2.52225   0.10578  -1.91279
  -2.52225   0.10578  -2.15221
  -2.28283   0.10578  -2.15221
  -2.28283   0.10578  -2.15221
  -2.28283   0.10578  -2.15221
  -2.28283   0.10578  -2.15221
  -2.28283   0.34520  -2.15221
  -2.04341   0.34520  -2.39163
  -2.04341   0.34520  -2.39163
  -2.04341   0.34520  -2.39163
  -1.80399   0.58462  -2.39163
  -1.80399   0.58462  -2.39163
  -1.80399   0.58462  -2.39163
  -1.56457   0.58462  -2.39163
  -1.56457   0.58462  -2.63105
  -1.56457   0.58462  -2.39163
  -1.32515   0.58462  -2.39163
  -1.32515   0.58462  -2.39163
  -1.32515   0.58462  -2.39163
  -1.32515   0.58462  -2.39163
  -1.32515   0.58462  -2.39163
  -1.32515   0.58462  -2.39163
  -1.32515   0.58462  -2.39163
  -1.32515   0.58462  -2.15221
  -1.32515   0.58462  -2.15221
  -1.32515   0.58462  -2.15221
  -1.32515   0.34520  -2.15221
  -1.32515   0.34520  -2.15221
  -1.32515   0.34520  -1.91279
  -1.32515   0.10578  -1.91279
  -1.32515   0.10578  -1.91279
  -1.56457   0.10578  -1.91279
  -1.56457   0.10578  -1.67337
  -1.56457   0.10578  -1.67337
  -1.56457  -0.13364  -1.67337
  -1.80399  -0.13364  -1.43395
  -1.80399  -0.13364  -1.43395
  -1.80399  -0.13364  -1.19453
  -2.04341  -0.13364  -1.19453
  -2.04341  -0.13364  -0.95511
  -2.28283  -0.13364  -0.95511
  -2.28283  -0.13364  -0.71568
  -2.52225  -0.13364  -1.19453
  -2.52225  -0.37306  -0.47626
  -2.52225  -0.37306  -0.47626
  -2.76167  -0.37306  -0.23684
  -2.76167  -0.37306  -0.23684
  -3.00109  -0.37306   0.00258
  -3.00109  -0.37306   0.00258
  -3.24051  -0.13364   0.24200
  -3.24051  -0.37306   0.24200
  -3.24051  -0.13364   0.48142
  -3.47993  -0.13364   0.48142
  -3.47993  -0.13364   0.72084
  -3.71935  -0.13364   0.72084
  -3.71935  -0.13364   0.96026
  -3.71935   0.10578   0.96026
  -3.95877   0.10578   0.96026
  -3.95877   0.10578   1.19968
  -4.19819  -0.13364   1.19968
  -4.19819  -0.13364   1.19968
  -4.19819  -0.13364   1.43910
  -4.43761  -0.13364   1.43910
  -4.43761  -0.13364   1.43910
  -4.43761  -0.37306   1.43910
  -4.67703  -0.37306   1.43910
  -4.67703  -0.37306   1.43910
  -4.67703  -0.37306   1.67852
  -4.91645  -0.37306   1.43910
  -4.91645  -0.37306   1.67852
  -4.91645  -0.37306   1.67852
  -4.91645  -0.37306   1.43910
  -4.91645  -0.37306   1.43910
  -5.15587  -0.37306   1.43910
  -5.15587  -0.37306   1.43910
  -5.15587  -0.37306   1.43910
  -5.15587  -0.13364   1.19968
  -5.15587  -0.37306   1.19968
  -5.15587  -0.13364   1.19968
  -5.15587  -0.13364   1.19968
  -5.15587  -0.13364   0.96026
  -5.15587  -0.13364   0.96026
  -5.15587  -0.13364   0.72084
  -5.15587  -0.37306   0.72084
  -4.91645  -0.37306   0.48142
  -4.91645  -0.37306   0.48142
  -4.91645  -0.37306   0.24200
  -4.91645  -0.61248   0.24200
  -4.67703  -0.37306   0.00258
  -4.67703  -0.61248   0.00258
  -4.67703  -0.61248  -0.23684
  -4.67703  -0.61248  -0.23684
  -4.43761  -0.61248  -0.47626
  -4.43761  -0.61248  -0.47626
  -4.43761  -0.61248  -0.47626
  -4.19819  -0.61248  -0.71568
  -4.19819  -0.37306  -0.71568
  -4.19819  -0.37306  -0.71568
  -4.19819  -0.37306  -0.95511
  -3.95877  -0.37306  -0.95511
  -3.95877  -0.37306  -0.95511
  -3.95877  -0.37306  -0.95511
  -3.71935  -0.37306  -1.19453
  -3.71935  -0.37306  -1.19453
  -3.71935  -0.13364  -1.19453
  -3.47993  -0.13364  -1.43395
  -3.47993  -0.13364  -1.43395
  -3.24051  -0.13364  -1.43395
  -3.24051  -0.13364  -1.43395
  -3.24051  -0.13364  -1.67337
  -3.00109  -0.13364  -1.43395
  -3.00109  -0.13364  -1.67337
  -3.00109   0.10578  -1.67337
  -2.76167   0.10578  -1.67337
  -2.76167   0.10578  -1.67337
  -2.52225   0.10578  -1.67337
  -2.52225   0.10578  -1.67337
  -2.28283   0.10578  -1.67337
  -2.28283   0.10578  -1.67337
  -2.04341   0.10578  -1.67337
  -2.04341   0.10578  -1.67337
  -2.04341   0.10578  -1.67337
  -1.80399   0.10578  -1.67337
  -1.80399   0.10578  -1.67337
  -1.80399   0.10578  -1.67337
  -1.56457  -0.13364  -1.67337
  -1.56457  -0.13364  -1.67337
  -1.56457  -0.13364  -1.67337
  -1.32515  -0.13364  -1.67337
  -1.32515  -0.13364  -1.91279
  -1.08573  -0.13364  -1.91279
  -1.08573   0.10578  -1.91279
  -0.84631   0.10578  -1.67337
  -0.84631  -0.13364  -1.67337
  -0.60689  -0.13364  -1.67337
  -0.60689   0.10578  -1.67337
  -0.36747   0.10578  -1.67337
  -0.36747   0.10578  -1.67337
  -0.36747   0.10578  -1.67337
  -0.36747   0.10578  -1.43395
  -0.12805   0.10578  -1.43395
  -0.12805   0.10578  -1.19453
   0.11137  -0.13364  -1.19453
   0.11137   0.10578  -1.19453
   0.35079   0.10578  -0.95511
   0.35079  -0.13364  -0.71568
   0.59021   0.10578  -0.71568
   0.59021  -0.13364  -0.47626
   0.59021  -0.13364  -0.47626
   0.59021  -0.13364  -0.47626
   0.82964  -0.13364  -0.23684
   0.82964  -0.13364  -0.23684
   1.06906  -0.13364  -0.23684
   1.06906   0.10578   0.00258
   1.06906   0.10578   0.00258
   1.06906   0.10578   0.00258
   1.06906   0.10578   0.24200
   1.06906   0.10578   0.24200
   1.06906   0.10578   0.24200
   1.30848   0.34520   0.24200
   1.30848   0.34520   0.24200
   1.30848   0.10578   0.24200
   1.30848   0.10578   0.24200
   1.30848   0.10578   0.24200
   1.30848   0.10578   0.24200
   1.30848   0.10578   0.00258
   1.30848  -0.37306   0.00258
   1.30848   0.10578   0.00258
   1.30848   0.10578   0.00258
   1.30848  -0.13364   0.00258
   1.06906  -0.13364   0.00258
   1.30848  -0.13364   0.00258
   1.30848  -0.37306   0.00258
   1.30848  -0.37306   0.00258
   1.30848  -0.37306   0.00258
   1.30848  -0.37306   0.00258
   1.30848  -0.37306   0.00258
   1.30848  -0.37306   0.00258
   1.54790  -0.37306  -0.23684
   1.54790  -0.37306   0.00258
   1.54790  -0.37306  -0.23684
   1.54790  -0.37306   0.00258
   1.78732  -0.37306   0.00258
   1.78732  -0.37306   0.00258
   1.78732  -0.37306   0.00258
   2.02674  -0.37306   0.00258
   2.02674  -0.37306   0.00258
   2.26616  -0.37306   0.24200
   2.26616  -0.13364   0.24200
   2.26616  -0.37306   0.24200
   2.50558  -0.13364   0.24200
   2.50558  -0.13364   0.48142
   2.74500  -0.13364   0.48142
   2.74500  -0.13364   0.48142
   2.74500  -0.13364   0.72084
   2.98442  -0.13364   0.72084
   2.98442  -0.13364   0.72084
   2.98442   0.10578   0.96026
   2.98442   0.10578   0.96026
   2.98442   0.10578   1.19968
   3.22384   0.10578   0.96026
   3.22384   0.10578   1.19968
   3.22384   0.10578   1.19968
   3.46326   0.34520   1.43910
   3.46326   0.10578   1.43910
   3.46326   0.34520   1.43910
   3.46326   0.34520   1.43910
   3.46326   0.10578   1.43910
   3.46326   0.34520   1.43910
   3.46326   0.34520   1.67852
   3.46326   0.34520   1.67852
   3.46326   0.34520   1.67852
   3.46326   0.34520   1.67852
   3.46326   0.34520   1.67852
   3.46326   0.34520   1.67852
   3.22384   0.34520   1.67852
   3.22384   0.34520   1.91794
   3.22384   0.34520   1.91794
   3.22384   0.34520   1.91794
   3.22384   0.58462   1.91794
   2.98442   0.58462   1.91794
   2.98442   0.58462   1.91794
   2.98442   0.58462   1.91794
