********************************************************************************
              CENTRO DE INSTRUMENTACION Y REGISTRO SISMICO  A.C.

    Anaxagoras 814, Col. Narvarte, Benito Juarez, C.P. 03020 Mexico, D.F.
           Tels. 5687 45 42/ 5687 45  82             Fax. 5669 25 12
********************************************************************************
ARCHIVO ESTANDAR DE ACELERACION:
VERSION DEL FORMATO                    : 2.0
NOMBRE DEL ARCHIVO                     : AU1120180219065657
FECHA Y HORA DE CREACION               : 07/MAR/18, 13:39
REF. CATALOGO ACELEROGRAMAS, SMIS 1996 : REGISTRO No.     /PAG.


================================================================================
DATOS DE LA ESTACION:
NOMBRE DE LA ESTACION                  : AUTÓDROMO
CLAVE DE LA ESTACION                   : AU11
LOCALIZACION DE LA ESTACION            : Del. Iztacalco, Cd. Deportiva          
                                       : Magdalena Mixhuca,                     
                                       : Col. Granjas México                    
                                       :                                        
                                       : 
COORDENADAS DE LA ESTACION             : 19.3919 LAT. N
                                       : 99.0869 LONG. W
ALTITUD (msnm)                         : 2234
TIPO DE SUELO                          : Terreno blando, material compresible
                                       : (arcillas)                
                                       : 
INSTITUCION RESPONSABLE                : CIRES
                                       : 

================================================================================
DATOS DEL ACELEROGRAFO:
MODELO DEL ACELEROGRAFO                : RADESD
NUMERO DE SERIE DEL ACELEROGRAFO       : 157
NUMERO DE CANALES                      : 3
ORIENTACION C1-C6 (rumbo;orientacion)  : /S00E/+V/N90W
ORIENTACION C7-C12 (rumbo;orientacion) : 
VEL. DE MUESTREO, C1-C6 (muestras/s)   : /100/100/100
VEL. DE MUESTREO, C7-C12 (muestras/s)  : 
ESC. COMPLETA DE SENSORES, C1-C6, (g)  : /0.5/0.5/0.5
ESC. COMPLETA DE SENSORES, C7-C12, (g) : 
FREC. NAT. DE SENSORES, C1-C6, (Hz)    : /51.77/52.56/52.29
FREC. NAT. DE SENSORES, C7-C12, (Hz)   : 
AMORTIGUAMIENTO DE SENSORES, C1-C6     : /0.5912/0.6083/0.6067
AMORTIGUAMIENTO DE SENSORES, C7-C12    : 
INTERVALO DE MUESTREO, C1-C6, (s)      : /0.01/0.01/0.01
INTERVALO DE MUESTREO, C7-C12, (s)     : 
UMBRAL DE DISPARO, C1-C6, (Gal)        : /0.72/1.92/0.72
UMBRAL DE DISPARO, C7-C12, (Gal)       : 
MEMORIA DE PREEVENTO (s)               : 44.0
TIEMPO DE POSEVENTO (s)                : 0.0


================================================================================
DATOS DEL SISMO:
FECHA DEL SISMO (GMT)                  : 19/FEB/18
HORA EPICENTRO (GMT)                   : 06:56:57.0
MAGNITUD(ES)                           : /Mc=6.0
COORDENADAS DEL EPICENTRO              : 16.25 LAT. N
                                       : 97.77 LONG. W
PROFUNDIDAD FOCAL (km)                 : 10
FUENTE DE LOS DATOS EPICENTRALES       : SSN
                                       : INSTITUTO DE GEOFISICA, UNAM

================================================================================
DATOS DE ESTE REGISTRO:
HORA DE LA PRIMERA MUESTRA (GMT)       : 06:58:00.00
EXACTITUD DEL TIEMPO (s)               : 0.01
DURACION DEL REGISTRO (s), C1-C6       : /277.2/277.2/277.2
DURACION DEL REGISTRO (s), C7-C12      : 
NUM. TOTAL DE MUESTRAS, C1-C6          : /27720/27720/27720
NUM. TOTAL DE MUESTRAS, C7-C12         : 
ACEL. MAX. (Gal), C1-C6                : /4.75982/0.97406/3.45877
ACEL. MAX., C1-C6, EN LA MUESTRA       : /4999/7648/6802
ACEL. MAX. (Gal), C7-C12               : 
ACEL. MAX., C7-C12, EN LA MUESTRA      : 
UNIDADES DE LOS DATOS                  : Gal (cm/s/s)
FACTOR DE DECIMACION                   : 1
FORMATO DATOS (FORTRAN,10 campos/dato) : 3F10.5


================================================================================
CALIDAD DEL ACELEROGRAMA:
REGISTRO DIGITAL COMPLETO CON TIEMPO ABSOLUTO CORRECTO.


================================================================================
COMENTARIOS:














================================================================================
DATOS DE ACELERACION:
---------+---------+---------+---------+---------+---------+---------+---------+
   CANAL-1   CANAL-2   CANAL-3   CANAL-4   CANAL-5   CANAL-6   CANAL-7   CANAL-8
      S00E        +V      N90W
---------+---------+---------+---------+---------+---------+---------+---------+
[...]
  -1.83920   0.12112   0.91065
  -1.86913   0.21091   0.77597
  -1.83920   0.24083   0.68619
  -1.76438   0.22587   0.52159
  -1.74942   0.24083   0.38692
  -1.68956   0.19594   0.16246
  -1.64467   0.28572   0.05771
  -1.77935   0.27076  -0.18171
  -1.76438   0.31565  -0.36127
  -1.73445   0.18098  -0.55580
  -1.85416   0.16601  -0.76529
  -1.88409   0.07623  -0.95982
  -1.92898  -0.08837  -1.19924
  -1.95891  -0.05844  -1.25910
  -1.95891  -0.02851  -1.45363
  -1.95891  -0.13326  -1.51348
  -1.92898  -0.28290  -1.57334
  -1.97387  -0.19312  -1.75290
  -1.82424  -0.28290  -1.79779
  -1.80927  -0.26793  -1.75290
  -1.64467  -0.32779  -1.75290
  -1.59978  -0.23801  -1.81276
  -1.51000  -0.37268  -1.88757
  -1.45014  -0.17815  -1.79779
  -1.34540  -0.22304  -1.88757
  -1.30051  -0.19312  -1.81276
  -1.13590  -0.34275  -1.85765
  -1.06108  -0.34275  -1.85765
  -0.88152  -0.43254  -1.78283
  -0.97130  -0.32779  -1.78283
  -0.71692  -0.44750  -1.76786
  -0.68699  -0.43254  -1.81276
  -0.44757  -0.47743  -1.81276
  -0.40268  -0.32779  -1.90254
  -0.23808  -0.44750  -1.85765
  -0.02859  -0.34275  -1.87261
   0.01631  -0.25297  -1.82772
   0.15098  -0.32779  -1.79779
   0.46522  -0.41757  -1.72297
   0.58493  -0.46246  -1.63319
   0.65975  -0.37268  -1.57334
   0.86924  -0.47743  -1.49852
   0.97399  -0.50735  -1.40873
   1.04881  -0.40261  -1.37881
   1.30319  -0.44750  -1.25910
   1.48275  -0.47743  -1.09450
   1.55757  -0.41757  -1.07953
   1.75210  -0.44750  -0.92989
   1.91670  -0.40261  -0.92989
   2.17109  -0.52232  -0.78026
   2.20101  -0.49239  -0.64558
   2.41051  -0.50735  -0.67551
   2.42547  -0.47743  -0.43609
   2.53022  -0.47743  -0.46602
   2.45540  -0.37268  -0.30142
   2.60504  -0.29786  -0.36127
   2.64993  -0.23801  -0.28645
   2.51525  -0.19312  -0.21163
   2.51525  -0.14822  -0.13681
   2.59007  -0.17815  -0.16674
   2.50029  -0.04348  -0.16674
   2.47036   0.01638  -0.01710
   2.56015  -0.01355  -0.03207
   2.51525   0.07623  -0.09192
   2.42547   0.09120   0.10261
   2.41051   0.03134   0.14750
   2.29080   0.04630   0.17742
   2.15612   0.10616   0.38692
   2.15612   0.04630   0.29713
   2.11123   0.12112   0.46174
   2.02145   0.09120   0.46174
   2.11123  -0.01355   0.47670
   2.06634  -0.04348   0.59641
   1.99152  -0.10333   0.62634
   1.97656  -0.07341   0.64130
   1.82692  -0.02851   0.80590
   1.79699  -0.11830   0.82087
   1.76707  -0.13326   0.98547
   1.58750  -0.02851   0.91065
   1.60246  -0.05844   1.13510
   1.55757   0.03134   1.09021
   1.57254   0.01638   1.23985
   1.52765   0.07623   1.34460
   1.67728   0.12112   1.43438
   1.73714   0.09120   1.58402
   1.87181  -0.01355   1.50920
   2.00649  -0.02851   1.56905
   2.02145  -0.05844   1.70373
   2.24591  -0.07341   1.71869
   2.32072  -0.11830   1.71869
   2.35065  -0.19312   1.85337
   2.53022  -0.14822   1.65884
   2.56015  -0.13326   1.67380
   2.67986  -0.20808   1.62891
   2.76964  -0.11830   1.64387
   2.73971  -0.10333   1.67380
   2.70978  -0.16319   1.55409
   2.60504  -0.13326   1.59898
   2.56015  -0.20808   1.56905
   2.35065  -0.10333   1.50920
   2.15612  -0.10333   1.55409
   1.97656  -0.13326   1.67380
   1.93167  -0.02851   1.43438
   1.63239   0.07623   1.50920
   1.49772   0.10616   1.38949
   1.21341   0.24083   1.55409
   1.04881   0.22587   1.47927
   0.76449   0.27076   1.25481
   0.59989   0.30069   1.38949
   0.40536   0.31565   1.32963
   0.27069   0.36054   1.12014
   0.07616   0.36054   1.09021
  -0.07348   0.25580   1.00043
  -0.28297   0.24083   1.00043
  -0.37275   0.21091   0.76101
  -0.58224   0.33062   0.79094
  -0.71692   0.30069   0.67123
  -0.85159   0.33062   0.68619
  -1.01619   0.31565   0.70116
  -1.13590   0.33062   0.41684
  -1.22569   0.31565   0.56648
  -1.34540   0.42040   0.46174
  -1.49503   0.36054   0.38692
  -1.64467   0.28572   0.38692
  -1.74942   0.27076   0.46174
  -1.89906   0.19594   0.32706
  -2.03373   0.21091   0.34203
  -2.12351   0.18098   0.40188
  -2.22826   0.19594   0.32706
  -2.31804   0.21091   0.25224
  -2.48264   0.22587   0.32706
  -2.54250   0.13609   0.35699
  -2.69213   0.09120   0.49166
  -2.73703   0.07623   0.46174
  -2.72206   0.01638   0.46174
  -2.90163  -0.08837   0.44677
  -2.94652  -0.04348   0.52159
  -3.17098  -0.04348   0.79094
  -3.12608  -0.11830   0.58145
  -3.30565  -0.11830   0.61137
  -3.36550  -0.04348   0.77597
  -3.41040  -0.13326   0.70116
  -3.67974  -0.07341   0.62634
  -3.84434  -0.07341   0.85079
  -3.81442  -0.01355   0.82087
  -3.91916  -0.04348   0.86576
  -4.08376   0.06127   0.82087
  -4.06880   0.12112   0.77597
  -4.09873   0.03134   0.85079
  -4.14362   0.03134   0.76101
  -4.17355   0.13609   0.77597
  -4.15858   0.03134   0.56648
  -4.15858   0.07623   0.53655
  -4.20347   0.03134   0.49166
  -4.11369  -0.04348   0.35699
  -4.02391  -0.10333   0.35699
  -4.06880  -0.14822   0.23728
  -3.94909  -0.16319   0.05771
  -3.81442  -0.23801  -0.09192
  -3.72463  -0.26793  -0.13681
  -3.72463  -0.26793  -0.24156
  -3.58996  -0.38764  -0.42113
  -3.44032  -0.31283  -0.42113
  -3.21587  -0.43254  -0.58573
  -3.08119  -0.44750  -0.57076
  -2.88666  -0.49239  -0.51091
  -2.75199  -0.40261  -0.61566
  -2.43775  -0.52232  -0.67551
  -2.19833  -0.50735  -0.60069
  -1.97387  -0.52232  -0.64558
  -1.71949  -0.43254  -0.58573
  -1.61474  -0.37268  -0.81018
  -1.22569  -0.35772  -0.76529
  -1.09101  -0.34275  -0.75033
  -0.86656  -0.26793  -0.78026
  -0.61217  -0.41757  -0.87004
  -0.34282  -0.35772  -0.94486
  -0.22311  -0.38764  -0.94486
  -0.01362  -0.34275  -1.00471
   0.16594  -0.28290  -1.01968
   0.31558  -0.28290  -1.06457
   0.42033  -0.19312  -1.22917
   0.58493  -0.08837  -1.15435
   0.70464   0.03134  -1.15435
   0.86924   0.06127  -1.16931
   1.10866  -0.07341  -1.21421
   1.16852   0.07623  -1.22917
   1.40794  -0.08837  -1.25910
   1.43786  -0.08837  -1.19924
   1.67728  -0.22304  -1.30399
   1.73714  -0.10333  -1.33392
   1.91670  -0.10333  -1.34888
   2.03641  -0.13326  -1.30399
   2.20101  -0.11830  -1.28902
   2.29080  -0.17815  -1.31895
   2.45540  -0.13326  -1.33392
   2.47036   0.04630  -1.18428
   2.50029  -0.07341  -1.18428
   2.57511   0.04630  -1.07953
   2.59007  -0.02851  -1.00471
   2.57511  -0.02851  -1.00471
   2.53022   0.06127  -0.89997
   2.66489   0.10616  -0.81018
   2.57511   0.12112  -0.73537
   2.60504   0.25580  -0.60069
   2.60504   0.21091  -0.67551
   2.47036   0.36054  -0.55580
   2.50029   0.45033  -0.43609
   2.50029   0.42040  -0.31638
   2.45540   0.36054  -0.37623
   2.42547   0.40543  -0.36127
   2.48533   0.31565  -0.30142
   2.42547   0.46529  -0.13681
   2.36562   0.34558  -0.07696
   2.39554   0.40543  -0.07696
   2.42547   0.31565   0.16246
   2.44043   0.30069   0.25224
   2.33569   0.24083   0.35699
   2.27583   0.25580   0.52159
   2.23094   0.21091   0.59641
   2.14116   0.18098   0.74605
   2.20101   0.03134   0.80590
   2.14116   0.09120   0.88072
   2.03641   0.10616   1.03036
   2.00649   0.03134   1.15007
   1.85685   0.19594   1.12014
   1.87181   0.10616   1.16503
   1.73714   0.01638   1.18000
   1.55757   0.18098   1.16503
   1.43786   0.06127   1.09021
   1.34808   0.10616   1.22489
   1.37801   0.19594   1.19496
   1.31815   0.16601   1.20992
   1.24333   0.16601   1.15007
   1.16852   0.22587   1.13510
   1.10866   0.13609   1.19496
   1.10866   0.19594   1.20992
   1.06377   0.19594   1.18000
   0.98895   0.25580   1.20992
   0.88420   0.33062   1.20992
   0.94406   0.30069   1.18000
   0.73457   0.39047   1.06029
   0.68967   0.31565   1.07525
   0.74953   0.25580   1.00043
   0.64478   0.24083   0.95554
   0.65975   0.24083   0.85079
   0.61486   0.19594   0.77597
   0.54004   0.25580   0.70116
   0.54004   0.03134   0.47670
   0.43529   0.18098   0.52159
   0.43529   0.09120   0.26721
   0.31558   0.10616   0.26721
   0.19587   0.07623   0.19239
   0.25573   0.04630  -0.01710
  -0.04355   0.10616   0.11757
  -0.10340   0.01638  -0.10689
  -0.17822  -0.01355  -0.09192
  -0.38772  -0.10333  -0.10689
  -0.46253  -0.14822  -0.25652
  -0.64210  -0.14822  -0.09192
  -0.77677  -0.16319  -0.19667
  -0.91145  -0.20808   0.04275
  -0.95634  -0.31283  -0.18171
  -1.07605  -0.28290  -0.15178
  -1.13590  -0.29786  -0.18171
  -1.28554  -0.25297  -0.18171
  -1.36036  -0.32779  -0.27149
  -1.49503  -0.31283  -0.24156
  -1.46511  -0.37268  -0.28645
  -1.55489  -0.41757  -0.25652
  -1.52496  -0.46246  -0.22660
  -1.56985  -0.44750  -0.37623
  -1.59978  -0.53728  -0.33134
  -1.70453  -0.61210  -0.40616
  -1.76438  -0.64203  -0.33134
  -1.83920  -0.53728  -0.48098
  -1.94395  -0.58217  -0.51091
  -1.95891  -0.50735  -0.67551
  -2.04869  -0.56721  -0.72040
  -2.21329  -0.46246  -0.54084
  -2.25819  -0.40261  -0.63062
  -2.24322  -0.35772  -0.81018
  -2.34797  -0.32779  -0.81018
  -2.57242  -0.13326  -0.91493
  -2.51257  -0.13326  -1.00471
  -2.64724  -0.10333  -1.00471
  -2.78192  -0.14822  -1.06457
  -2.85674  -0.11830  -1.16931
  -3.00637  -0.08837  -1.24413
  -3.18594   0.00141  -1.16931
  -3.33558   0.09120  -1.09450
  -3.38047   0.00141  -1.19924
  -3.39543   0.07623  -1.16931
  -3.58996   0.13609  -1.18428
  -3.66478   0.21091  -1.19924
  -3.66478   0.27076  -1.16931
  -3.78449   0.30069  -1.27406
  -3.79945   0.37551  -1.21421
  -3.90420   0.43536  -1.22917
  -3.87427   0.42040  -1.30399
  -3.93413   0.49522  -1.24413
  -3.88924   0.39047  -1.28902
  -3.79945   0.37551  -1.33392
  -3.72463   0.40543  -1.40873
  -3.61989   0.28572  -1.37881
  -3.41040   0.34558  -1.43866
  -3.36550   0.22587  -1.39377
  -3.11112   0.09120  -1.46859
  -2.81184   0.09120  -1.54341
  -2.64724  -0.01355  -1.54341
  -2.33300  -0.05844  -1.60326
  -2.01877   0.00141  -1.70801
  -1.62971  -0.08837  -1.60326
  -1.28554  -0.14822  -1.81276
  -0.91145  -0.17815  -1.87261
  -0.58224  -0.22304  -1.85765
  -0.23808  -0.23801  -1.84268
   0.15098  -0.28290  -2.02225
   0.48018  -0.23801  -2.03721
   0.73457  -0.17815  -2.18685
   1.09370  -0.23801  -2.17189
   1.28823  -0.14822  -2.35145
   1.66232  -0.16319  -2.62080
   1.82692  -0.11830  -2.47116
   2.08130  -0.01355  -2.53102
   2.32072  -0.01355  -2.57591
   2.57511   0.07623  -2.71058
   2.66489   0.03134  -2.57591
   2.79957   0.09120  -2.57591
   2.91928   0.28572  -2.65073
   3.14373   0.22587  -2.54598
   3.38315   0.28572  -2.38138
   3.44301   0.18098  -2.14196
   3.63754   0.24083  -1.99232
   3.77221   0.24083  -1.84268
   3.89192   0.15105  -1.61823
   4.05652   0.13609  -1.46859
   4.07148   0.22587  -1.01968
   4.37076   0.16601  -0.98975
   4.47551   0.16601  -0.70544
   4.47551   0.15105  -0.48098
   4.59522   0.22587  -0.30142
   4.69996   0.27076  -0.09192
   4.72989   0.34558  -0.00214
   4.71493   0.28572   0.11757
   4.68500   0.39047   0.26721
   4.75982   0.42040   0.23728
   4.62514   0.45033   0.47670
   4.50543   0.51018   0.40188
   4.43062   0.49522   0.46174
   4.35580   0.40543   0.49166
   4.17623   0.58500   0.56648
   4.01163   0.40543   0.62634
   3.83206   0.51018   0.74605
   3.80214   0.43536   0.73108
   3.66746   0.30069   0.77597
   3.45797   0.22587   0.86576
   3.32330   0.30069   1.01539
   3.17366   0.24083   1.07525
   3.05395   0.24083   1.13510
   2.90431   0.18098   1.26978
   2.78460   0.12112   1.26978
   2.69482   0.07623   1.32963
   2.67986   0.00141   1.46431
   2.50029   0.07623   1.53913
   2.32072   0.15105   1.58402
   2.15612   0.12112   1.73366
   2.14116  -0.05844   1.77855
   1.88678   0.16601   1.92818
   1.69225   0.16601   1.98804
   1.55757   0.01638   2.10775
   1.37801   0.04630   2.28731
   1.24333  -0.08837   2.42199
   1.10866  -0.05844   2.54170
   0.94406  -0.16319   2.58659
   0.92910  -0.32779   2.72126
   0.67471  -0.29786   2.82601
   0.59989  -0.32779   2.91579
   0.39040  -0.34275   2.93076
   0.42033  -0.44750   3.06543
   0.25573  -0.46246   3.15521
   0.10609  -0.46246   3.14025
  -0.11837  -0.40261   3.15521
  -0.35779  -0.38764   3.09536
  -0.44757  -0.25297   3.21507
  -0.58224  -0.40261   3.14025
  -0.73188  -0.25297   3.06543
  -0.97130  -0.14822   2.94572
  -1.12094  -0.10333   2.90083
  -1.39029   0.03134   2.82601
  -1.55489   0.12112   2.82601
  -1.74942   0.24083   2.67637
  -2.00380   0.22587   2.58659
  -2.09358   0.18098   2.42199
  -2.19833   0.31565   2.28731
  -2.36293   0.25580   2.01797
  -2.43775   0.16601   1.89826
  -2.49761   0.21091   1.74862
  -2.55746   0.18098   1.50920
  -2.64724   0.15105   1.43438
  -2.67717   0.16601   1.20992
  -2.70710   0.15105   0.95554
  -2.76695  -0.07341   0.82087
  -2.88666   0.04630   0.62634
  -2.78192  -0.02851   0.49166
  -2.85674  -0.11830   0.35699
  -2.78192  -0.13326   0.35699
  -2.82681  -0.08837   0.14750
  -2.81184  -0.14822   0.07268
  -2.79688  -0.22304  -0.01710
  -2.76695  -0.26793  -0.09192
  -2.67717  -0.25297  -0.19667
  -2.76695  -0.28290  -0.18171
  -2.76695  -0.20808  -0.30142
  -2.69213  -0.26793  -0.36127
  -2.63228  -0.28290  -0.43609
  -2.66221  -0.25297  -0.48098
  -2.63228  -0.19312  -0.43609
  -2.63228  -0.25297  -0.46602
  -2.61732  -0.28290  -0.51091
  -2.72206  -0.19312  -0.60069
  -2.64724  -0.20808  -0.58573
  -2.72206   0.06127  -0.60069
  -2.79688   0.00141  -0.67551
  -2.76695   0.04630  -0.67551
  -2.79688   0.13609  -0.58573
  -2.85674   0.09120  -0.66055
  -2.90163   0.04630  -0.72040
  -2.94652   0.09120  -0.69047
  -2.97645   0.12112  -0.78026
  -2.93156   0.18098  -0.72040
  -2.94652   0.18098  -0.82515
  -2.99141   0.21091  -0.89997
  -2.82681   0.18098  -0.98975
  -2.91659   0.24083  -1.10946
  -2.79688   0.27076  -1.09450
  -2.72206   0.18098  -1.18428
  -2.57242   0.13609  -1.18428
  -2.42279   0.09120  -1.27406
  -2.25819   0.04630  -1.30399
  -2.10855   0.06127  -1.22917
  -1.92898  -0.01355  -1.28902
  -1.80927   0.07623  -1.25910
  -1.64467  -0.05844  -1.36384
  -1.43518  -0.16319  -1.39377
  -1.28554  -0.01355  -1.36384
  -1.13590   0.01638  -1.34888
  -0.98627   0.04630  -1.31895
  -0.74685  -0.01355  -1.33392
  -0.64210  -0.05844  -1.22917
  -0.47750  -0.01355  -1.00471
  -0.28297  -0.05844  -0.88500
  -0.16326  -0.11830  -1.04960
   0.07616  -0.04348  -0.82515
   0.28565  -0.14822  -0.73537
   0.46522  -0.16319  -0.76529
   0.54004  -0.07341  -0.60069
   0.79442  -0.10333  -0.58573
   0.94406  -0.13326  -0.52587
   1.18348  -0.07341  -0.58573
   1.30319  -0.07341  -0.58573
   1.42290  -0.08837  -0.55580
   1.52765  -0.04348  -0.69047
   1.73714  -0.05844  -0.61566
   1.81196   0.00141  -0.67551
   1.97656  -0.10333  -0.66055
   2.06634  -0.10333  -0.84011
   2.20101  -0.17815  -0.84011
   2.30576  -0.23801  -0.92989
   2.48533  -0.22304  -1.04960
   2.50029  -0.22304  -0.92989
   2.54518  -0.32779  -1.00471
   2.69482  -0.25297  -1.04960
   2.69482  -0.26793  -1.00471
   2.75467  -0.34275  -0.91493
   2.76964  -0.28290  -0.95982
   2.93424  -0.41757  -0.94486
   2.81453  -0.31283  -0.81018
   2.78460  -0.20808  -0.87004
   2.78460  -0.26793  -0.67551
   2.84446  -0.10333  -0.51091
   3.02402  -0.10333  -0.60069
   3.03899   0.00141  -0.52587
   3.02402  -0.01355  -0.28645
   3.11380   0.03134  -0.22660
   3.14373   0.06127  -0.16674
   3.20359   0.03134  -0.01710
   3.29337  -0.02851   0.22232
   3.36819   0.06127   0.22232
   3.45797  -0.04348   0.29713
   3.45797   0.00141   0.43181
   3.57768  -0.07341   0.62634
   3.66746  -0.08837   0.82087
   3.65250  -0.02851   0.98547
   3.62257  -0.07341   1.04532
   3.69739  -0.11830   1.25481
