********************************************************************************
              CENTRO DE INSTRUMENTACION Y REGISTRO SISMICO  A.C.

    Anaxagoras 814, Col. Narvarte, Benito Juarez, C.P. 03020 Mexico, D.F.
           Tels. 5687 45 42/ 5687 45  82             Fax. 5669 25 12
********************************************************************************
ARCHIVO ESTANDAR DE ACELERACION:
VERSION DEL FORMATO                    : 2.0
NOMBRE DEL ARCHIVO                     : AU1120120320180250
FECHA Y HORA DE CREACION               : 04/ABR/12, 11:14
REF. CATALOGO ACELEROGRAMAS, SMIS 1996 : REGISTRO No.     /PAG.


================================================================================
DATOS DE LA ESTACION:
NOMBRE DE LA ESTACION                  : AUTÓDROMO
CLAVE DE LA ESTACION                   : AU11
LOCALIZACION DE LA ESTACION            : Del. Iztacalco, Cd. Deportiva          
                                       : Magdalena Mixhuca,                     
                                       : Col. Granjas México                    
                                       :                                        
                                       : 
COORDENADAS DE LA ESTACION             : 19.3919 LAT. N
                                       : 99.0869 LONG. W
ALTITUD (msnm)                         : 2234
TIPO DE SUELO                          : Terreno blando, material compresible
                                       : (arcillas)                
                                       : 
INSTITUCION RESPONSABLE                : CIRES
                                       : 

================================================================================
DATOS DEL ACELEROGRAFO:
MODELO DEL ACELEROGRAFO                : RADESD
NUMERO DE SERIE DEL ACELEROGRAFO       : 157
NUMERO DE CANALES                      : 3
ORIENTACION C1-C6 (rumbo;orientacion)  : /N00E/+V/N90W
ORIENTACION C7-C12 (rumbo;orientacion) : 
VEL. DE MUESTREO, C1-C6 (muestras/s)   : /100/100/100
VEL. DE MUESTREO, C7-C12 (muestras/s)  : 
ESC. COMPLETA DE SENSORES, C1-C6, (g)  : /0.5/0.5/0.5
ESC. COMPLETA DE SENSORES, C7-C12, (g) : 
FREC. NAT. DE SENSORES, C1-C6, (Hz)    : /51.77/52.56/52.29
FREC. NAT. DE SENSORES, C7-C12, (Hz)   : 
AMORTIGUAMIENTO DE SENSORES, C1-C6     : /0.5912/0.6083/0.6067
AMORTIGUAMIENTO DE SENSORES, C7-C12    : 
INTERVALO DE MUESTREO, C1-C6, (s)      : /0.01/0.01/0.01
INTERVALO DE MUESTREO, C7-C12, (s)     : 
UMBRAL DE DISPARO, C1-C6, (Gal)        : /0.72/1.92/0.72
UMBRAL DE DISPARO, C7-C12, (Gal)       : 
MEMORIA DE PREEVENTO (s)               : 56.0
TIEMPO DE POSEVENTO (s)                : 64.0


================================================================================
DATOS DEL SISMO:
FECHA DEL SISMO (GMT)                  : 20/MAR/12
HORA EPICENTRO (GMT)                   : 18:02:50.0
MAGNITUD(ES)                           : /Mc=7.4
COORDENADAS DEL EPICENTRO              : 16.42 LAT. N
                                       : 98.36 LONG. W
PROFUNDIDAD FOCAL (km)                 : 15
FUENTE DE LOS DATOS EPICENTRALES       : SSN
                                       : INSTITUTO DE GEOFISICA, UNAM

================================================================================
DATOS DE ESTE REGISTRO:
HORA DE LA PRIMERA MUESTRA (GMT)       : 18:03:44.00
EXACTITUD DEL TIEMPO (s)               : 0.01
DURACION DEL REGISTRO (s), C1-C6       : /768.75/768.75/768.75
DURACION DEL REGISTRO (s), C7-C12      : 
NUM. TOTAL DE MUESTRAS, C1-C6          : /76875/76875/76875
NUM. TOTAL DE MUESTRAS, C7-C12         : 
ACEL. MAX. (Gal), C1-C6                : /34.19867/6.65033/27.29729
ACEL. MAX., C1-C6, EN LA MUESTRA       : /10027/11372/10259
ACEL. MAX. (Gal), C7-C12               : 
ACEL. MAX., C7-C12, EN LA MUESTRA      : 
UNIDADES DE LOS DATOS                  : Gal (cm/s/s)
FACTOR DE DECIMACION                   : 1
FORMATO DATOS (FORTRAN,10 campos/dato) : 3F10.5


================================================================================
CALIDAD DEL ACELEROGRAMA:
REGISTRO DIGITAL COMPLETO CON TIEMPO ABSOLUTO CORRECTO.


================================================================================
COMENTARIOS:














================================================================================
DATOS DE ACELERACION:
---------+---------+---------+---------+---------+---------+---------+---------+
   CANAL-1   CANAL-2   CANAL-3   CANAL-4   CANAL-5   CANAL-6   CANAL-7   CANAL-8
      N00E        +V      N90W
---------+---------+---------+---------+---------+---------+---------+---------+
[...]
  -6.26334   2.68706  11.49556
  -6.74218   2.68706  12.21382
  -6.50276   2.92648  12.93208
  -6.26334   2.92648  13.65034
  -6.50276   3.40532  14.60802
  -6.02392   3.40532  15.32629
  -6.02392   3.64474  16.04455
  -6.02392   3.64474  16.76281
  -5.30566   3.64474  17.48107
  -5.30566   3.16590  18.19933
  -4.82682   2.44764  18.43875
  -4.34798   2.20822  18.91759
  -4.10856   1.96880  19.39643
  -3.39030   1.72938  19.39643
  -3.15088   1.72938  19.63585
  -2.43262   1.48996  19.63585
  -1.95378   1.48996  19.63585
  -1.23552   1.72938  19.39643
  -0.75668   1.72938  18.91759
  -0.03842   1.72938  18.43875
   0.67984   1.72938  17.95991
   1.15868   1.48996  17.24165
   1.63752   1.96880  16.76281
   2.35579   1.96880  16.28397
   2.83463   1.96880  15.56571
   3.31347   2.20822  15.32629
   3.79231   2.44764  14.84744
   4.27115   2.44764  14.60802
   4.51057   2.68706  13.88976
   5.22883   2.92648  13.41092
   5.46825   2.68706  12.93208
   6.42593   2.68706  12.45324
   6.66535   2.44764  11.73498
   7.14419   2.20822  11.01672
   7.62303   1.96880  10.53788
   7.86245   1.72938  10.05904
   8.10187   1.48996   9.58020
   8.34129   1.01112   8.86194
   8.58071   1.01112   8.38310
   8.58071   0.77170   8.62252
   8.34129   0.53228   8.14368
   8.58071   0.53228   7.90426
   8.34129   0.53228   7.66484
   8.34129   0.77170   6.94658
   8.34129   1.25054   6.46774
   8.10187   1.25054   5.98890
   8.10187   1.25054   5.51006
   7.86245   1.01112   5.03122
   7.86245   0.77170   4.55238
   7.86245   0.77170   3.59470
   7.62303   0.77170   3.35528
   7.38361   0.53228   2.39760
   7.14419   0.77170   1.91876
   7.14419   1.01112   1.20050
   7.14419   1.48996   0.24281
   6.90477   1.72938  -0.47545
   7.38361   1.48996  -0.95429
   7.38361   1.72938  -1.91197
   7.62303   1.72938  -2.39081
   7.86245   1.48996  -3.34849
   7.86245   1.25054  -3.34849
   8.10187   1.25054  -3.82733
   7.86245   1.25054  -4.06675
   7.86245   1.25054  -4.30617
   7.86245   1.25054  -3.82733
   8.10187   1.48996  -4.06675
   8.10187   1.25054  -3.82733
   8.10187   1.25054  -3.58791
   8.34129   0.77170  -3.34849
   8.82013   0.53228  -3.10907
   8.82013   0.29286  -3.10907
   9.05955   0.29286  -2.63023
   9.05955   0.05344  -1.91197
   9.29897  -0.18598  -1.91197
   9.53839   0.05344  -1.43313
   9.53839   0.05344  -1.19371
   9.29897   0.29286  -0.47545
   9.53839   0.53228   0.00339
   9.29897   0.53228   0.24281
   9.29897   0.53228   0.48224
   9.05955   0.29286   0.72166
   9.05955   0.77170   0.48224
   8.82013   0.53228   0.24281
   8.34129   0.29286   0.00339
   7.86245   0.77170  -0.47545
   6.90477   1.01112  -0.71487
   6.18651   1.25054  -0.95429
   5.46825   1.48996  -1.43313
   4.51057   1.72938  -1.91197
   3.79231   1.72938  -1.91197
   3.31347   1.72938  -2.63023
   2.35579   1.48996  -2.86965
   1.87695   1.48996  -3.10907
   1.39810   1.48996  -3.10907
   0.91926   1.48996  -3.58791
   0.44042   1.01112  -3.82733
  -0.03842   1.01112  -3.82733
  -0.51726   0.77170  -3.82733
  -0.99610   0.77170  -4.06675
  -1.47494   0.29286  -4.06675
  -2.19320   0.05344  -4.06675
  -2.67204  -0.18598  -4.06675
  -2.91146  -0.90424  -4.06675
  -3.39030  -1.14366  -4.30617
  -3.86914  -1.38308  -4.54559
  -4.34798  -1.62250  -4.78501
  -4.82682  -1.86192  -5.02443
  -5.30566  -1.62250  -5.26385
  -5.78450  -1.62250  -5.26385
  -6.26334  -1.38308  -5.02443
  -6.50276  -1.14366  -5.26385
  -6.98160  -0.90424  -5.02443
  -7.46044  -1.14366  -5.02443
  -7.93928  -0.66482  -4.54559
  -8.17870  -1.14366  -4.54559
  -8.41812  -1.38308  -4.30617
  -8.65754  -1.38308  -4.30617
  -8.89696  -1.86192  -4.06675
  -8.89696  -1.62250  -3.82733
  -9.13638  -1.86192  -3.58791
  -9.37580  -1.62250  -3.34849
  -9.61522  -1.38308  -2.86965
  -9.61522  -1.14366  -2.39081
  -9.85464  -1.14366  -1.67255
 -10.33348  -0.66482  -1.19371
 -10.57290  -0.66482  -0.71487
 -10.57290  -0.42540  -0.23603
 -10.81232  -0.42540   0.00339
 -10.81232  -0.18598   0.24281
 -10.33348   0.05344   0.24281
 -10.09406   0.05344   0.24281
  -9.61522   0.05344   0.24281
  -9.13638   0.05344   0.24281
  -8.89696  -0.18598  -0.23603
  -8.17870  -0.42540  -0.47545
  -7.46044  -0.66482  -0.95429
  -7.22102  -0.90424  -1.43313
  -6.26334  -1.38308  -1.91197
  -5.54508  -1.86192  -2.39081
  -5.06624  -2.58018  -2.86965
  -4.10856  -3.05903  -3.10907
  -3.86914  -3.29845  -3.10907
  -3.15088  -3.05903  -3.58791
  -2.67204  -2.81960  -4.06675
  -2.43262  -2.81960  -3.82733
  -2.19320  -2.34076  -3.82733
  -1.71436  -2.10134  -4.06675
  -1.71436  -1.62250  -3.82733
  -1.71436  -1.62250  -3.58791
  -1.71436  -1.86192  -3.58791
  -1.71436  -1.62250  -3.34849
  -1.95378  -1.86192  -3.34849
  -1.95378  -2.10134  -3.10907
  -2.43262  -2.10134  -2.86965
  -2.19320  -1.86192  -2.86965
  -2.67204  -1.38308  -2.63023
  -2.67204  -1.14366  -2.39081
  -2.67204  -0.90424  -1.91197
  -2.91146  -0.66482  -1.43313
  -2.91146  -0.42540  -0.95429
  -3.39030  -0.42540   0.00339
  -3.62972  -0.66482   0.96108
  -3.62972  -0.66482   1.67934
  -3.86914  -1.14366   2.63702
  -3.86914  -1.38308   3.83412
  -3.86914  -1.14366   4.55238
  -3.86914  -1.14366   5.03122
  -3.62972  -0.90424   5.74948
  -3.86914  -0.66482   6.22832
  -3.39030  -0.42540   6.70716
  -3.39030  -0.18598   6.70716
  -3.15088  -0.42540   6.46774
  -2.91146  -0.18598   5.98890
  -2.67204  -0.66482   5.51006
  -2.19320  -0.90424   4.55238
  -1.95378  -0.90424   3.83412
  -1.71436  -1.14366   2.87644
  -0.75668  -1.14366   1.67934
  -0.51726  -1.14366   0.48224
  -0.03842  -1.14366  -0.47545
   0.67984  -1.14366  -1.67255
   1.39810  -1.14366  -2.39081
   2.11637  -1.14366  -3.34849
   2.59521  -1.14366  -4.06675
   3.07405  -1.38308  -4.78501
   3.55289  -1.62250  -5.50327
   4.03173  -2.10134  -5.98211
   4.74999  -2.10134  -6.93979
   5.46825  -2.58018  -7.17921
   5.94709  -2.58018  -7.65805
   6.42593  -2.34076  -8.13689
   7.14419  -2.58018  -8.37631
   7.86245  -2.34076  -9.09457
   8.34129  -2.58018  -9.33399
   8.58071  -2.81960  -9.33399
   9.05955  -3.05903  -9.33399
   9.29897  -3.05903  -9.57341
   9.77781  -3.53787 -10.29167
  10.01723  -3.53787 -10.53109
  10.25665  -3.29845 -10.53109
  10.49607  -3.77729 -11.00993
  10.49607  -3.77729 -11.24935
  10.73549  -3.53787 -12.20703
  10.73549  -3.53787 -12.44645
  10.73549  -3.53787 -13.16471
  10.49607  -3.29845 -13.16471
  10.01723  -3.53787 -13.40413
   9.77781  -3.53787 -13.88297
   9.29897  -3.53787 -13.88297
   8.82013  -3.53787 -13.40413
   8.34129  -3.29845 -13.64355
   8.10187  -2.81960 -13.40413
   7.62303  -2.10134 -13.16471
   7.38361  -2.10134 -13.16471
   7.14419  -1.86192 -12.44645
   6.90477  -1.38308 -12.20703
   6.66535  -1.38308 -11.72819
   6.42593  -1.14366 -11.24935
   5.94709  -1.14366 -10.53109
   5.70767  -0.90424 -10.05225
   5.22883  -0.90424  -9.09457
   4.74999  -0.90424  -8.37631
   4.03173  -0.90424  -7.65805
   3.79231  -0.66482  -7.17921
   3.07405  -0.42540  -6.70037
   2.59521   0.05344  -5.98211
   1.63752   0.05344  -5.50327
   0.67984   0.53228  -5.02443
  -0.27784   1.01112  -3.82733
  -0.75668   1.25054  -2.86965
  -1.95378   1.72938  -1.91197
  -2.67204   1.72938  -0.95429
  -3.39030   1.96880  -0.23603
  -4.10856   2.20822   0.72166
  -4.58740   2.20822   1.20050
  -5.30566   2.92648   1.67934
  -5.78450   3.16590   2.39760
  -6.50276   3.64474   2.87644
  -6.98160   3.64474   3.11586
  -7.22102   3.64474   3.11586
  -7.69986   3.64474   3.59470
  -8.17870   3.64474   3.83412
  -8.65754   3.40532   3.83412
  -9.37580   3.40532   3.83412
 -10.09406   3.40532   3.83412
 -10.33348   3.40532   3.83412
 -10.81232   3.64474   3.35528
 -11.53058   3.88416   3.35528
 -12.00942   3.88416   3.35528
 -12.24884   4.36300   2.87644
 -12.96711   4.12358   2.39760
 -13.20653   4.12358   2.63702
 -13.92479   3.88416   2.39760
 -14.40363   3.40532   2.63702
 -14.88247   3.16590   2.87644
 -15.60073   2.92648   3.11586
 -16.07957   2.68706   3.59470
 -16.31899   2.92648   4.31296
 -16.31899   2.92648   4.31296
 -16.79783   3.16590   5.27064
 -16.79783   3.40532   5.51006
 -16.79783   3.64474   5.74948
 -16.55841   3.64474   5.74948
 -16.55841   3.40532   6.22832
 -16.55841   3.64474   6.46774
 -16.31899   3.40532   6.70716
 -16.79783   3.40532   6.94658
 -16.55841   2.92648   7.18600
 -16.79783   2.68706   7.18600
 -16.55841   2.44764   7.42542
 -16.79783   2.44764   6.94658
 -16.55841   2.44764   6.70716
 -16.79783   2.44764   6.46774
 -17.03725   2.68706   6.22832
 -16.79783   3.16590   5.51006
 -17.03725   3.16590   5.27064
 -17.03725   3.40532   5.03122
 -17.27667   3.40532   4.79180
 -17.27667   3.40532   4.55238
 -17.51609   3.40532   4.31296
 -17.51609   3.16590   4.79180
 -17.51609   2.68706   4.79180
 -17.51609   2.44764   4.79180
 -17.51609   2.20822   5.03122
 -17.51609   1.72938   5.51006
 -17.51609   1.25054   5.51006
 -17.51609   1.01112   5.51006
 -17.51609   0.77170   5.98890
 -17.75551   0.77170   5.98890
 -17.75551   0.29286   6.22832
 -17.51609   0.53228   6.22832
 -17.75551   0.05344   6.22832
 -17.75551  -0.18598   6.22832
 -17.75551  -0.42540   6.46774
 -17.75551  -0.42540   6.46774
 -17.51609  -0.90424   6.46774
 -17.27667  -0.90424   6.46774
 -17.03725  -1.38308   6.22832
 -16.55841  -1.86192   6.22832
 -15.84015  -2.34076   5.98890
 -15.36131  -2.34076   6.22832
 -14.64305  -2.58018   5.98890
 -13.68537  -2.34076   5.98890
 -13.20653  -2.34076   5.98890
 -12.48826  -2.34076   6.22832
 -11.53058  -1.86192   6.22832
 -10.57290  -1.62250   6.46774
  -9.61522  -1.62250   6.46774
  -8.65754  -1.14366   6.46774
  -7.69986  -0.90424   6.22832
  -6.74218  -0.42540   6.22832
  -6.02392  -0.42540   6.46774
  -4.82682  -0.18598   6.22832
  -4.10856   0.05344   6.46774
  -3.15088   0.05344   6.46774
  -1.95378   0.05344   6.46774
  -0.99610   0.05344   6.46774
   0.44042  -0.18598   6.46774
   1.63752  -0.42540   6.46774
   3.31347  -0.90424   6.70716
   4.74999  -1.38308   6.70716
   6.18651  -1.62250   6.94658
   7.86245  -1.86192   6.94658
   9.53839  -2.10134   6.94658
  10.97491  -2.58018   6.94658
  12.65085  -2.34076   6.70716
  14.08737  -2.34076   6.46774
  15.52389  -2.34076   5.98890
  16.72100  -2.34076   5.51006
  18.15752  -2.81960   5.27064
  19.59404  -2.58018   4.55238
  20.79114  -2.58018   3.83412
  21.50940  -2.58018   3.35528
  22.70650  -2.58018   2.63702
  23.66418  -2.58018   1.91876
  24.38244  -2.58018   1.20050
  25.34012  -2.58018   0.48224
  26.05838  -2.34076   0.00339
  27.01606  -2.58018  -0.71487
  27.73432  -2.34076  -1.43313
  28.69200  -2.34076  -2.15139
  29.88910  -2.34076  -2.63023
  30.60737  -2.10134  -3.34849
  31.56505  -2.10134  -3.82733
  32.28331  -1.86192  -4.06675
  33.00157  -1.62250  -4.54559
  33.71983  -1.38308  -5.02443
  34.19867  -1.14366  -5.50327
  34.19867  -0.90424  -5.74269
  34.19867  -0.42540  -6.22153
  33.95925   0.05344  -6.70037
  33.71983   0.53228  -6.93979
  33.24099   0.77170  -7.17921
  32.76215   0.77170  -7.41863
  32.04389   0.77170  -7.65805
  31.80447   1.01112  -7.65805
  31.08621   0.53228  -7.89747
  30.60737   0.53228  -8.13689
  29.88910   0.53228  -8.13689
  29.17084   0.77170  -8.13689
  28.45258   0.77170  -8.13689
  27.73432   1.01112  -7.65805
  27.01606   1.25054  -7.65805
  26.29780   1.48996  -7.65805
  25.57954   1.72938  -7.41863
  25.10070   1.96880  -7.41863
  24.38244   2.20822  -7.65805
  23.90360   2.44764  -7.65805
  23.18534   2.20822  -7.65805
  22.70650   2.68706  -7.65805
  22.22766   2.44764  -7.65805
  21.50940   2.68706  -7.89747
  21.26998   2.44764  -8.13689
  20.55172   2.44764  -7.89747
  20.07288   2.44764  -8.37631
  19.35462   2.44764  -8.37631
  18.87578   2.44764  -8.61573
  18.39694   2.44764  -8.85515
  17.91810   2.44764  -9.33399
  17.67868   2.44764 -10.05225
  17.43926   2.44764 -10.53109
  16.96042   2.44764 -11.24935
  16.72100   2.68706 -11.48877
  16.48158   2.68706 -11.96761
  16.00273   2.68706 -12.44645
  15.52389   2.68706 -13.16471
  15.28447   2.44764 -13.88297
  14.56621   2.44764 -14.36182
  13.84795   2.44764 -14.84066
  13.12969   2.20822 -15.08008
  12.41143   1.72938 -15.55892
  11.69317   1.96880 -15.79834
  10.73549   1.48996 -16.03776
   9.53839   1.25054 -16.03776
   8.34129   1.25054 -16.03776
   7.14419   1.01112 -16.03776
   5.70767   1.01112 -15.79834
   4.74999   1.01112 -15.55892
   3.31347   1.01112 -14.84066
   1.87695   1.25054 -14.60124
   0.91926   1.25054 -14.12240
  -0.27784   1.01112 -13.64355
  -1.47494   1.25054 -12.68587
  -2.67204   1.48996 -12.20703
  -3.39030   1.48996 -11.72819
  -4.34798   1.48996 -10.53109
  -5.30566   1.48996  -9.81283
  -5.78450   1.48996  -8.85515
  -6.74218   1.48996  -7.89747
  -6.98160   1.48996  -6.93979
  -7.69986   1.25054  -6.22153
  -8.17870   1.01112  -5.02443
  -8.65754   0.53228  -4.06675
  -9.13638   0.53228  -3.10907
  -9.61522   0.05344  -1.67255
 -10.09406   0.05344  -0.47545
 -10.81232   0.05344   0.72166
 -11.05174   0.29286   1.91876
 -11.53058   0.29286   3.11586
 -12.24884   0.77170   4.07354
 -12.72769   1.01112   5.03122
 -13.20653   1.01112   5.98890
 -13.68537   1.01112   6.46774
 -13.92479   1.01112   6.46774
 -14.40363   0.77170   6.94658
 -14.64305   0.77170   6.94658
 -14.88247   0.53228   6.46774
 -14.88247   0.77170   6.46774
 -14.88247   0.53228   5.74948
 -15.12189   0.29286   5.74948
 -14.88247   0.05344   5.03122
 -14.64305  -0.18598   4.31296
 -14.64305  -0.18598   3.59470
 -14.64305  -0.42540   3.35528
 -14.16421  -0.66482   2.63702
 -14.16421  -0.90424   1.91876
 -13.92479  -0.90424   1.20050
 -13.44595  -0.66482   0.72166
 -13.20653  -0.66482   0.24281
 -12.48826  -0.18598  -0.47545
 -12.00942  -0.18598  -0.23603
 -11.29116   0.05344  -0.95429
 -10.57290   0.29286  -1.43313
  -9.61522   0.29286  -1.43313
  -8.89696  -0.18598  -1.91197
  -7.69986  -0.90424  -2.39081
  -6.98160  -1.14366  -2.63023
  -6.02392  -1.62250  -3.10907
  -5.30566  -1.86192  -3.34849
  -4.10856  -2.10134  -3.82733
  -3.39030  -1.86192  -4.06675
  -2.43262  -1.86192  -4.30617
  -1.71436  -1.62250  -4.30617
  -0.75668  -1.38308  -4.54559
  -0.27784  -1.38308  -4.54559
   0.20100  -1.62250  -4.54559
   0.91926  -1.86192  -4.54559
   1.39810  -2.10134  -4.30617
   1.63752  -2.34076  -4.30617
   2.11637  -2.58018  -4.06675
   2.11637  -2.58018  -3.82733
   2.35579  -2.58018  -3.58791
   2.59521  -2.34076  -3.34849
   2.83463  -2.34076  -2.86965
   3.07405  -2.34076  -2.86965
   3.31347  -2.58018  -2.63023
   3.31347  -2.81960  -2.15139
   3.31347  -3.05903  -1.67255
   3.31347  -3.29845  -1.43313
   3.07405  -3.53787  -0.95429
   3.07405  -3.77729  -0.71487
   3.07405  -3.53787  -0.47545
   2.83463  -3.53787   0.00339
   2.59521  -3.05903   0.00339
   2.35579  -2.58018   0.48224
   2.11637  -2.34076   0.72166
   2.11637  -1.86192   0.72166
   1.87695  -2.10134   0.72166
   1.87695  -2.10134   0.96108
   1.87695  -1.86192   0.72166
   2.11637  -1.14366   0.48224
   1.87695  -0.90424   0.48224
   2.11637  -0.42540   0.24281
   2.35579   0.05344   0.48224
   2.83463   0.29286   0.48224
   2.83463   0.77170   0.72166
   3.31347   1.01112   0.96108
   3.55289   1.25054   1.20050
   3.55289   1.01112   1.43992
   3.79231   1.25054   1.67934
   4.51057   1.72938   1.67934
   4.51057   1.96880   2.15818
   4.98941   1.96880   2.15818
   5.22883   2.44764   2.15818
   5.94709   2.44764   1.91876
   6.18651   2.68706   1.67934
