********************************************************************************
               CENTRO DE INSTRUMENTACION Y REGISTRO SISMICO  A.C.  
                       Coordinacion de Servicios Tecnicos
     Anaxagoras 814, Col. Narvarte, Benito Juarez, C.P. 03020 Mexico, D.F.
            Tels. 667 45 42/ 687 45  82             Fax. 669 25 12
********************************************************************************
ARCHIVO ESTANDAR DE ACELERACION:
VERSION DEL FORMATO                    : 2.0
NOMBRE DEL ARCHIVO                     : AU119906.211
FECHA Y HORA DE CREACION               : 31/ENERO/2000, 10:10
REF. CATALOGO ACELEROGRAMAS, SMIS 1996 : REGISTRO No.     /PAG.


================================================================================
DATOS DE LA ESTACION:
NOMBRE DE LA ESTACION                  : AUTODROMO
CLAVE DE LA ESTACION                   : AU11
LOCALIZACION DE LA ESTACION            : AUTODROMO HERMANOS RODRIGUEZ,
                                       : CHURUBUSCO, CD. DEPORTIVA
                                       :
                                       :
                                       :
COORDENADAS DE LA ESTACION             : 19.392 LAT. N 
                                       : 99.087 LONG. W 
ALTITUD (msnm)                         : 2234
TIPO DE SUELO                          : TERRENO BLANDO, MATERIAL COMPRESIBLE
                                       : (ARCILLAS)
                                       : 
INSTITUCION RESPONSABLE                : CIRES 
                                       :

================================================================================
DATOS DEL ACELEROGRAFO:
MODELO DEL ACELEROGRAFO                : SSA-1
NUMERO DE SERIE DEL ACELEROGRAFO       : 157
NUMERO DE CANALES                      : 3
ORIENTACION C1-C6 (rumbo;orientacion)  : /N00E/+V/N90E
ORIENTACION C7-C12 (rumbo;orientacion) :
VEL. DE MUESTREO, C1-C6 (muestras/s)   : /200/200/200
VEL. DE MUESTREO, C7-C12 (muestras/s)  :
ESC. COMPLETA DE SENSORES, C1-C6, (g)  : /2/2/2
ESC. COMPLETA DE SENSORES, C7-C12, (g) :
FREC. NAT. DE SENSORES, C1-C6, (Hz)    : /51.77/52.56/52.29
FREC. NAT. DE SENSORES, C7-C12, (Hz)   :
AMORTIGUAMIENTO DE SENSORES, C1-C6     : /.5912/.6083/.6067
AMORTIGUAMIENTO DE SENSORES, C7-C12    :
INTERVALO DE MUESTREO, C1-C6, (s)      : /0.005/0.005/0.005
INTERVALO DE MUESTREO, C7-C12, (s)     :
UMBRAL DE DISPARO, C1-C6, (Gal)        : /2/2/2
UMBRAL DE DISPARO, C7-C12, (Gal)       :
MEMORIA DE PREEVENTO (s)               : 15
TIEMPO DE POSEVENTO (s)                : 60


================================================================================
DATOS DEL SISMO:
FECHA DEL SISMO (GMT)                  : 21/JUN/99
HORA EPICENTRO (GMT)                   : 17:43:05.5
MAGNITUD(ES)                           : /Mc=6.0/Ms=5.8/Mc=5.8/Me=6.2
COORDENADAS DEL EPICENTRO              : 17.99 LAT. N
                                       : 101.72 LONG. W
PROFUNDIDAD FOCAL (km)                 : 54.0
FUENTE DE LOS DATOS EPICENTRALES       : SSN
                                       : INSTITUTO DE GEOFISICA, UNAM

================================================================================
DATOS DE ESTE REGISTRO:
HORA DE LA PRIMERA MUESTRA (GMT)       : 17:44:37.00
EXACTITUD DEL TIEMPO (s)               :     
DURACION DEL REGISTRO (s), C1-C6       : /113.92/113.92/113.92
DURACION DEL REGISTRO (s), C7-C12      :
NUM. TOTAL DE MUESTRAS, C1-C6          : /22784/22784/22784
NUM. TOTAL DE MUESTRAS, C7-C12         :
ACEL. MAX. (Gal), C1-C6                : /3.59368/1.44801/3.49139
ACEL. MAX., C1-C6, EN LA MUESTRA       :
ACEL. MAX. (Gal), C7-C12               :
ACEL. MAX., C7-C12, EN LA MUESTRA      :
UNIDADES DE LOS DATOS                  : Gal (cm/s/s)
FACTOR DE DECIMACION                   : 1
FORMATO DATOS (FORTRAN,10 campos/dato) : 3F10.5


================================================================================
CALIDAD DEL ACELEROGRAMA:
REGISTRO DIGITAL COMPLETO, CARECE DE TIEMPO ABSOLUTO.


================================================================================
COMENTARIOS:














================================================================================
DATOS DE ACELERACION:
---------+---------+---------+---------+---------+---------+---------+---------+
   CANAL-1   CANAL-2   CANAL-3   CANAL-4   CANAL-5   CANAL-6   CANAL-7   CANAL-8
      N00E        +V      N90E
---------+---------+---------+---------+---------+---------+---------+---------+
[...]
   0.95632  -0.01801   0.33861
   0.95632   0.22199   0.33861
   0.95632  -0.01801   0.57861
   0.95632   0.22199   0.57861
   0.95632   0.22199   0.33861
   0.95632  -0.01801   0.33861
   0.71632   0.22199   0.57861
   0.71632   0.22199   0.57861
   0.71632   0.22199   0.57861
   0.71632   0.22199   0.57861
   0.71632   0.22199   0.57861
   0.71632   0.22199   0.57861
   0.71632   0.22199   0.57861
   0.47632   0.22199   0.57861
   0.47632   0.22199   0.57861
   0.47632   0.22199   0.57861
   0.23632   0.22199   0.81861
   0.23632   0.22199   0.81861
   0.23632   0.22199   0.81861
  -0.00368   0.22199   0.81861
  -0.00368   0.22199   0.81861
  -0.00368   0.46199   0.81861
  -0.24368   0.46199   0.81861
  -0.24368   0.46199   0.81861
  -0.24368   0.22199   0.81861
  -0.48368   0.46199   0.81861
  -0.48368   0.22199   1.05861
  -0.48368   0.22199   1.05861
  -0.48368   0.22199   1.05861
  -0.72368   0.22199   1.05861
  -0.72368   0.22199   1.05861
  -0.72368   0.22199   1.05861
  -0.72368   0.22199   1.29861
  -0.96368  -0.01801   1.29861
  -0.96368  -0.01801   1.29861
  -0.96368  -0.01801   1.53861
  -0.96368  -0.01801   1.53861
  -1.20368  -0.25801   1.53861
  -1.20368  -0.25801   1.53861
  -1.20368  -0.25801   1.77861
  -1.20368  -0.25801   1.77861
  -1.20368  -0.25801   1.77861
  -1.20368  -0.01801   1.77861
  -1.20368  -0.01801   1.77861
  -1.20368  -0.25801   1.77861
  -1.20368  -0.01801   2.00861
  -1.20368  -0.01801   2.00861
  -1.20368  -0.01801   2.00861
  -1.20368   0.22199   2.00861
  -1.20368   0.22199   2.00861
  -1.20368   0.22199   2.00861
  -1.20368   0.22199   1.77861
  -1.20368   0.22199   1.77861
  -1.20368  -0.01801   1.77861
  -1.20368  -0.01801   1.77861
  -1.20368  -0.01801   1.77861
  -1.20368  -0.01801   1.77861
  -1.20368  -0.01801   1.77861
  -1.20368  -0.01801   1.77861
  -1.20368  -0.01801   1.77861
  -0.96368  -0.01801   1.77861
  -0.96368  -0.01801   1.77861
  -0.96368  -0.01801   1.77861
  -0.96368  -0.01801   1.53861
  -0.96368  -0.01801   1.53861
  -0.96368  -0.01801   1.53861
  -0.96368  -0.01801   1.53861
  -0.72368   0.22199   1.53861
  -0.72368   0.22199   1.53861
  -0.72368   0.22199   1.53861
  -0.48368   0.22199   1.53861
  -0.48368   0.22199   1.53861
  -0.48368   0.22199   1.29861
  -0.48368   0.22199   1.29861
  -0.24368   0.22199   1.29861
  -0.24368   0.22199   1.29861
  -0.24368   0.22199   1.05861
  -0.24368   0.22199   1.05861
  -0.24368   0.22199   1.05861
  -0.24368   0.22199   1.05861
  -0.24368   0.22199   1.05861
  -0.24368   0.22199   1.05861
  -0.24368   0.22199   1.05861
  -0.24368   0.22199   0.81861
  -0.24368   0.22199   0.81861
  -0.24368  -0.01801   1.05861
  -0.24368  -0.01801   0.81861
  -0.24368  -0.01801   0.81861
  -0.00368  -0.01801   0.81861
  -0.00368  -0.01801   0.81861
  -0.00368  -0.01801   0.81861
  -0.24368  -0.01801   0.81861
  -0.00368  -0.25801   0.81861
  -0.00368  -0.25801   0.81861
  -0.00368  -0.25801   0.81861
  -0.00368  -0.25801   0.81861
  -0.00368  -0.25801   0.81861
  -0.00368  -0.25801   0.81861
  -0.00368  -0.49801   0.81861
  -0.00368  -0.49801   0.81861
  -0.24368  -0.49801   0.81861
  -0.00368  -0.49801   0.81861
  -0.00368  -0.49801   0.81861
  -0.00368  -0.49801   1.05861
  -0.00368  -0.49801   1.05861
  -0.00368  -0.49801   1.05861
  -0.00368  -0.49801   1.05861
  -0.00368  -0.25801   1.05861
  -0.00368  -0.25801   1.05861
   0.23632  -0.73801   1.05861
   0.23632  -0.25801   1.05861
   0.23632  -0.25801   1.05861
   0.47632  -0.25801   1.05861
   0.47632  -0.25801   1.05861
   0.47632  -0.25801   1.29861
   0.71632  -0.25801   1.05861
   0.71632  -0.25801   1.05861
   0.71632  -0.25801   1.05861
   0.71632  -0.25801   1.05861
   0.71632  -0.25801   1.05861
   0.71632  -0.25801   1.05861
   0.71632  -0.25801   1.05861
   0.71632  -0.25801   1.05861
   0.71632  -0.25801   1.05861
   0.95632  -0.25801   1.29861
   0.95632  -0.25801   1.05861
   0.95632  -0.25801   1.05861
   0.95632  -0.25801   1.05861
   0.95632  -0.25801   1.29861
   0.71632  -0.25801   1.29861
   0.95632  -0.25801   1.29861
   0.95632  -0.25801   1.29861
   0.95632  -0.25801   1.29861
   0.95632  -0.25801   1.29861
   0.71632  -0.01801   1.29861
   0.95632  -0.25801   1.29861
   0.71632  -0.25801   1.53861
   0.95632  -0.01801   1.53861
   0.71632  -0.25801   1.53861
   0.71632  -0.25801   1.53861
   0.71632  -0.25801   1.77861
   0.71632  -0.25801   1.77861
   0.71632  -0.25801   1.77861
   0.71632  -0.25801   2.00861
   0.71632  -0.25801   2.00861
   0.71632  -0.25801   2.00861
   0.71632  -0.01801   2.24861
   0.71632  -0.25801   2.24861
   0.47632  -0.01801   2.48861
   0.47632  -0.01801   2.48861
   0.47632  -0.01801   2.48861
   0.47632  -0.01801   2.48861
   0.47632  -0.25801   2.72861
   0.23632  -0.25801   2.72861
   0.23632  -0.25801   2.72861
   0.23632  -0.25801   2.72861
   0.23632  -0.25801   2.72861
  -0.00368  -0.25801   2.72861
  -0.00368  -0.25801   2.96861
  -0.00368  -0.01801   2.72861
  -0.24368  -0.25801   2.96861
  -0.24368  -0.01801   2.96861
  -0.48368  -0.01801   2.72861
  -0.48368  -0.01801   2.72861
  -0.72368  -0.01801   2.72861
  -0.72368  -0.01801   2.72861
  -0.72368   0.22199   2.72861
  -0.96368   0.22199   2.72861
  -0.96368   0.22199   2.48861
  -1.20368   0.22199   2.48861
  -1.20368   0.22199   2.48861
  -1.44368   0.22199   2.48861
  -1.44368   0.46199   2.24861
  -1.44368   0.46199   2.24861
  -1.67368   0.46199   2.00861
  -1.67368   0.46199   2.00861
  -1.67368   0.46199   2.00861
  -1.91368   0.46199   1.77861
  -1.91368   0.46199   1.53861
  -1.91368   0.46199   1.53861
  -1.91368   0.46199   1.29861
  -2.15368   0.22199   1.05861
  -2.39368   0.22199   1.05861
  -2.15368   0.22199   1.05861
  -2.15368   0.22199   0.57861
  -2.15368   0.22199   0.57861
  -2.15368   0.22199   0.57861
  -2.15368   0.22199   0.33861
  -2.15368   0.22199   0.33861
  -2.15368   0.46199   0.09861
  -2.15368   0.46199   0.09861
  -2.15368   0.46199   0.09861
  -2.15368   0.46199  -0.14139
  -2.15368   0.46199  -0.14139
  -2.15368   0.46199  -0.38139
  -1.91368   0.46199  -0.38139
  -1.91368   0.46199  -0.38139
  -1.91368   0.46199  -0.38139
  -1.91368   0.46199  -0.62139
  -1.91368   0.46199  -0.86139
  -1.91368   0.46199  -0.62139
  -1.91368   0.46199  -0.86139
  -1.91368   0.46199  -0.86139
  -1.91368   0.46199  -0.86139
  -1.91368   0.46199  -0.86139
  -1.91368   0.46199  -0.86139
  -1.91368   0.46199  -1.10139
  -1.91368   0.46199  -0.86139
  -1.91368   0.46199  -0.86139
  -1.91368   0.22199  -0.86139
  -1.91368   0.22199  -0.86139
  -1.91368   0.46199  -0.86139
  -2.15368   0.22199  -0.86139
  -2.15368   0.22199  -0.86139
  -2.15368   0.22199  -0.86139
  -2.15368   0.22199  -0.86139
  -2.15368   0.22199  -0.86139
  -2.15368   0.22199  -0.86139
  -2.39368   0.22199  -0.62139
  -2.39368   0.22199  -0.62139
  -2.39368   0.22199  -0.62139
  -2.39368   0.22199  -0.62139
  -2.63368   0.22199  -0.62139
  -2.63368   0.22199  -0.62139
  -2.63368   0.46199  -0.38139
  -2.63368   0.46199  -0.38139
  -2.63368   0.46199  -0.38139
  -2.63368   0.46199  -0.38139
  -2.63368   0.46199  -0.38139
  -2.63368   0.46199  -0.38139
  -2.63368   0.46199  -0.38139
  -2.63368   0.46199  -0.38139
  -2.63368   0.46199  -0.14139
  -2.63368   0.46199  -0.14139
  -2.63368   0.46199  -0.14139
  -2.63368   0.46199  -0.14139
  -2.63368   0.22199  -0.14139
  -2.63368   0.22199  -0.14139
  -2.39368   0.22199   0.09861
  -2.39368   0.22199  -0.14139
  -2.39368   0.22199   0.09861
  -2.15368   0.22199   0.09861
  -2.15368  -0.01801   0.09861
  -2.15368  -0.01801   0.09861
  -1.91368  -0.01801   0.33861
  -1.91368  -0.25801   0.09861
  -1.67368  -0.25801   0.33861
  -1.67368  -0.25801   0.33861
  -1.67368  -0.25801   0.33861
  -1.67368  -0.25801   0.09861
  -1.44368  -0.49801   0.33861
  -1.44368  -0.25801   0.33861
  -1.44368  -0.49801   0.33861
  -1.20368  -0.25801   0.09861
  -1.20368  -0.49801   0.33861
  -1.20368  -0.25801   0.33861
  -1.44368  -0.25801   0.33861
  -1.20368  -0.25801   0.09861
  -1.20368  -0.25801   0.09861
  -1.20368  -0.25801   0.33861
  -1.20368  -0.25801   0.09861
  -1.20368  -0.01801   0.09861
  -0.96368  -0.01801   0.09861
  -1.20368  -0.01801   0.09861
  -0.96368  -0.01801   0.09861
  -1.20368  -0.01801   0.09861
  -0.96368  -0.01801   0.09861
  -0.96368   0.22199   0.09861
  -0.96368   0.22199   0.09861
  -0.96368   0.22199   0.09861
  -0.96368   0.22199   0.09861
  -0.96368   0.22199   0.09861
  -0.96368   0.22199   0.33861
  -0.96368   0.22199   0.33861
  -0.96368   0.22199   0.33861
  -1.20368   0.22199   0.33861
  -0.96368   0.22199   0.33861
  -0.96368   0.22199   0.33861
  -0.96368   0.22199   0.57861
  -0.96368   0.22199   0.57861
  -0.96368   0.22199   0.57861
  -0.96368   0.22199   0.57861
  -0.96368   0.22199   0.57861
  -0.72368   0.22199   0.57861
  -0.72368   0.22199   0.81861
  -0.72368   0.22199   0.57861
  -0.72368   0.22199   0.57861
  -0.48368   0.22199   0.81861
  -0.48368   0.22199   0.57861
  -0.48368   0.22199   0.81861
  -0.48368  -0.01801   0.57861
  -0.24368  -0.01801   0.57861
  -0.24368  -0.01801   0.81861
  -0.24368  -0.01801   0.81861
  -0.00368  -0.01801   0.57861
  -0.00368  -0.01801   0.57861
  -0.00368  -0.01801   0.81861
   0.23632  -0.01801   0.81861
   0.23632  -0.01801   0.81861
   0.23632  -0.01801   0.57861
   0.23632  -0.01801   0.57861
   0.47632  -0.01801   0.57861
   0.47632  -0.01801   0.57861
   0.47632  -0.01801   0.57861
   0.47632  -0.01801   0.33861
   0.71632  -0.01801   0.33861
   0.71632  -0.01801   0.33861
   0.71632  -0.01801   0.09861
   0.71632  -0.01801   0.09861
   0.71632  -0.01801   0.09861
   0.71632  -0.01801  -0.14139
   0.71632  -0.01801  -0.14139
   0.95632  -0.01801  -0.38139
   0.95632  -0.01801  -0.38139
   0.95632  -0.01801  -0.38139
   0.95632  -0.01801  -0.62139
   1.19632  -0.01801  -0.62139
   1.19632  -0.01801  -0.86139
   1.19632  -0.01801  -0.86139
   1.19632  -0.01801  -0.86139
   1.19632   0.22199  -0.86139
   1.43632   0.22199  -1.10139
   1.43632   0.22199  -1.10139
   1.43632   0.22199  -1.34139
   1.43632   0.22199  -1.34139
   1.67632   0.22199  -1.34139
   1.67632   0.22199  -1.58139
   1.67632   0.22199  -1.58139
   1.67632   0.22199  -1.82139
   1.67632   0.22199  -1.82139
   1.67632   0.22199  -1.82139
   1.91632   0.22199  -2.06139
   1.91632   0.22199  -2.06139
   1.91632   0.22199  -2.30139
   1.91632   0.22199  -2.30139
   1.91632   0.22199  -2.30139
   1.91632   0.22199  -2.30139
   1.91632  -0.01801  -2.54139
   1.91632  -0.01801  -2.54139
   1.91632  -0.01801  -2.78139
   1.91632  -0.01801  -2.78139
   1.91632  -0.01801  -2.78139
   1.91632   0.22199  -3.02139
   1.91632  -0.01801  -3.02139
   1.67632  -0.01801  -3.02139
   1.67632  -0.01801  -3.25139
   1.67632  -0.01801  -3.25139
   1.43632  -0.01801  -3.25139
   1.43632  -0.01801  -3.25139
   1.43632  -0.01801  -3.49139
   1.19632  -0.01801  -3.49139
   1.19632  -0.01801  -3.49139
   0.95632  -0.01801  -3.49139
   0.95632  -0.01801  -3.49139
   0.71632  -0.01801  -3.49139
   0.71632  -0.01801  -3.49139
   0.71632  -0.01801  -3.49139
   0.47632  -0.01801  -3.49139
   0.47632  -0.01801  -3.49139
   0.23632   0.22199  -3.49139
   0.23632   0.22199  -3.49139
   0.23632   0.22199  -3.49139
  -0.00368   0.22199  -3.25139
  -0.00368   0.22199  -3.25139
  -0.00368   0.22199  -3.25139
  -0.00368   0.22199  -3.02139
  -0.24368   0.46199  -3.02139
  -0.24368   0.46199  -2.78139
  -0.24368   0.46199  -2.78139
  -0.24368   0.22199  -2.54139
  -0.24368   0.22199  -2.30139
  -0.24368   0.22199  -2.30139
  -0.24368   0.22199  -2.06139
  -0.24368  -0.25801  -2.06139
  -0.24368   0.22199  -1.82139
  -0.24368  -0.01801  -1.82139
  -0.24368  -0.01801  -1.58139
  -0.24368  -0.01801  -1.34139
  -0.24368  -0.25801  -1.34139
  -0.24368  -0.01801  -1.10139
  -0.00368  -0.01801  -1.10139
  -0.00368  -0.01801  -0.86139
  -0.00368  -0.01801  -0.86139
  -0.00368  -0.01801  -0.86139
   0.23632   0.22199  -0.86139
   0.23632   0.22199  -0.86139
   0.23632   0.22199  -0.86139
   0.23632   0.22199  -0.86139
   0.23632   0.22199  -0.86139
   0.23632   0.22199  -0.86139
   0.47632   0.22199  -0.86139
   0.71632   0.22199  -0.86139
   0.71632   0.22199  -0.86139
   0.71632  -0.01801  -0.86139
   0.71632   0.22199  -0.86139
   0.71632   0.22199  -0.86139
   0.95632   0.22199  -0.86139
   0.95632   0.46199  -1.10139
   1.19632   0.46199  -0.86139
   0.95632   0.46199  -1.10139
   1.19632   0.46199  -0.86139
   1.19632   0.46199  -0.86139
   0.95632   0.46199  -1.10139
   0.95632   0.46199  -0.86139
   1.19632   0.46199  -0.86139
   0.95632   0.46199  -0.86139
   0.95632   0.46199  -0.86139
   0.95632   0.22199  -0.86139
   0.95632   0.22199  -0.86139
   0.95632   0.22199  -0.86139
   0.71632  -0.01801  -0.86139
   0.95632  -0.01801  -0.86139
   0.95632  -0.01801  -0.86139
   0.71632  -0.01801  -0.86139
   0.71632  -0.25801  -0.86139
   0.71632  -0.25801  -0.86139
   0.71632  -0.25801  -0.62139
   0.71632  -0.25801  -0.62139
   0.71632  -0.25801  -0.62139
   0.71632  -0.25801  -0.62139
   0.71632  -0.25801  -0.62139
   0.71632  -0.49801  -0.38139
   0.71632  -0.49801  -0.38139
   0.71632  -0.49801  -0.38139
   0.71632  -0.49801  -0.38139
   0.71632  -0.49801  -0.14139
   0.71632  -0.73801  -0.14139
   0.71632  -0.73801  -0.14139
   0.71632  -0.73801   0.09861
   0.71632  -0.73801   0.09861
   0.71632  -0.97801   0.09861
   0.71632  -0.97801   0.09861
   0.71632  -1.21801   0.09861
   0.71632  -1.21801   0.33861
   0.71632  -1.21801   0.33861
   0.71632  -1.21801   0.33861
   0.71632  -1.21801   0.33861
   0.71632  -1.21801   0.33861
   0.95632  -1.21801   0.33861
   0.95632  -1.21801   0.33861
   0.95632  -1.21801   0.33861
   0.95632  -1.21801   0.57861
   0.95632  -1.21801   0.33861
   0.95632  -1.21801   0.57861
   0.95632  -1.21801   0.57861
   0.95632  -1.21801   0.57861
   0.95632  -0.97801   0.57861
   0.95632  -0.97801   0.57861
   0.95632  -0.97801   0.33861
   0.95632  -0.97801   0.33861
   0.47632  -0.73801   0.33861
   0.71632  -0.73801   0.33861
   0.71632  -0.73801   0.33861
   0.71632  -0.73801   0.33861
   0.71632  -0.73801   0.09861
   0.47632  -0.73801   0.09861
   0.47632  -0.73801   0.09861
   0.47632  -0.73801   0.09861
   0.23632  -0.73801   0.09861
   0.23632  -0.73801   0.09861
  -0.24368  -0.49801  -0.14139
  -0.00368  -0.49801  -0.14139
  -0.00368  -0.49801  -0.14139
  -0.00368  -0.49801  -0.38139
  -0.24368  -0.49801  -0.38139
  -0.24368  -0.49801  -0.38139
  -0.24368  -0.49801  -0.38139
  -0.48368  -0.49801  -0.38139
  -0.48368  -0.49801  -0.62139
  -0.48368  -0.49801  -0.62139
  -0.48368  -0.25801  -0.62139
  -0.72368  -0.25801  -0.62139
  -0.72368  -0.25801  -0.62139
  -0.72368  -0.25801  -0.62139
  -1.20368  -0.25801  -0.62139
  -0.96368  -0.25801  -0.62139
  -0.96368  -0.25801  -0.62139
  -0.96368  -0.01801  -0.62139
  -0.96368  -0.01801  -0.38139
  -0.96368  -0.01801  -0.38139
  -0.96368  -0.01801  -0.62139
  -1.20368   0.22199  -0.38139
  -1.20368   0.22199  -0.38139
  -1.20368   0.22199  -0.14139
  -1.20368   0.22199  -0.14139
  -1.20368   0.22199  -0.14139
  -1.20368   0.22199  -0.14139
  -1.20368   0.22199  -0.14139
  -1.20368   0.22199  -0.14139
  -1.20368  -0.01801  -0.14139
  -1.20368   0.22199  -0.14139
  -1.20368  -0.01801   0.09861
  -1.20368   0.22199   0.09861
  -1.20368  -0.01801   0.09861
  -1.20368   0.22199   0.09861
  -1.20368   0.22199   0.09861
  -1.20368   0.22199   0.09861
  -1.20368  -0.01801   0.09861
  -0.96368  -0.01801   0.33861
