********************************************************************************
               CENTRO DE INSTRUMENTACION Y REGISTRO SISMICO  A.C.  
                       Coordinacion de Servicios Tecnicos
     Anaxagoras 814, Col. Narvarte, Benito Juarez, C.P. 03020 Mexico, D.F.
            Tels. 667 45 42/ 687 45  82             Fax. 669 25 12
********************************************************************************
ARCHIVO ESTANDAR DE ACELERACION:
VERSION DEL FORMATO                    : 2.0
NOMBRE DEL ARCHIVO                     : AU110209.271
FECHA Y HORA DE CREACION               : 16/JUl/04, 09:02
REF. CATALOGO ACELEROGRAMAS, SMIS 1996 : REGISTRO No.     /PAG.


================================================================================
DATOS DE LA ESTACION:
NOMBRE DE LA ESTACION                  : AUTODROMO
CLAVE DE LA ESTACION                   : AU11
LOCALIZACION DE LA ESTACION            : AUTODROMO HERMANOS RODRIGUEZ,
                                       : CHURUBUSCO, CD. DEPORTIVA
                                       :
                                       :
                                       :
COORDENADAS DE LA ESTACION             : 19.392 LAT. N 
                                       : 99.087 LONG. W 
ALTITUD (msnm)                         : 2234
TIPO DE SUELO                          : TERRENO BLANDO, MATERIAL COMPRESIBLE
                                       : (ARCILLAS)
                                       : 
INSTITUCION RESPONSABLE                : CIRES 
                                       :

================================================================================
DATOS DEL ACELEROGRAFO:
MODELO DEL ACELEROGRAFO                : SSA-1
NUMERO DE SERIE DEL ACELEROGRAFO       : 157
NUMERO DE CANALES                      : 3
ORIENTACION C1-C6 (rumbo;orientacion)  : /N00E/+V/N90E
ORIENTACION C7-C12 (rumbo;orientacion) :
VEL. DE MUESTREO, C1-C6 (muestras/s)   : /200/200/200
VEL. DE MUESTREO, C7-C12 (muestras/s)  :
ESC. COMPLETA DE SENSORES, C1-C6, (g)  : /2/2/2
ESC. COMPLETA DE SENSORES, C7-C12, (g) :
FREC. NAT. DE SENSORES, C1-C6, (Hz)    : /51.77/52.56/52.29
FREC. NAT. DE SENSORES, C7-C12, (Hz)   :
AMORTIGUAMIENTO DE SENSORES, C1-C6     : /.5912/.6083/.6067
AMORTIGUAMIENTO DE SENSORES, C7-C12    :
INTERVALO DE MUESTREO, C1-C6, (s)      : /0.005/0.005/0.005
INTERVALO DE MUESTREO, C7-C12, (s)     :
UMBRAL DE DISPARO, C1-C6, (Gal)        : /2/2/2
UMBRAL DE DISPARO, C7-C12, (Gal)       :
MEMORIA DE PREEVENTO (s)               : 15
TIEMPO DE POSEVENTO (s)                : 60


================================================================================
DATOS DEL SISMO:
FECHA DEL SISMO (GMT)                  : 27/SEP/02
HORA EPICENTRO (GMT)                   : 07:04:58,0
MAGNITUD(ES)                           : /Mb=5.2/Ms=4.6/Mc=4.9Ma=5.1/Me=5.4
COORDENADAS DEL EPICENTRO              : 17.16 LAT. N
                                       : 100.59 LONG. W
PROFUNDIDAD FOCAL (km)                 : 37
FUENTE DE LOS DATOS EPICENTRALES       : SSN
                                       : INSTITUTO DE GEOFISICA, UNAM 

================================================================================
DATOS DE ESTE REGISTRO:
HORA DE LA PRIMERA MUESTRA (GMT)       : 07:06:16.00
EXACTITUD DEL TIEMPO (s)               :     
DURACION DEL REGISTRO (s), C1-C6       : /106.24/106.24/106.24
DURACION DEL REGISTRO (s), C7-C12      :
NUM. TOTAL DE MUESTRAS, C1-C6          : /21248/21248/21248
NUM. TOTAL DE MUESTRAS, C7-C12         :
ACEL. MAX. (Gal), C1-C6                : /1.93145/0.73821/-1.70649
ACEL. MAX., C1-C6, EN LA MUESTRA       :
ACEL. MAX. (Gal), C7-C12               :
ACEL. MAX., C7-C12, EN LA MUESTRA      :
UNIDADES DE LOS DATOS                  : Gal (cm/s/s)
FACTOR DE DECIMACION                   : 1
FORMATO DATOS (FORTRAN,10 campos/dato) : 3F10.5


================================================================================
CALIDAD DEL ACELEROGRAMA:
REGISTRO DIGITAL COMPLETO, CARECE DE TIEMPO ABSOLUTO.


================================================================================
COMENTARIOS:














================================================================================
DATOS DE ACELERACION:
---------+---------+---------+---------+---------+---------+---------+---------+
   CANAL-1   CANAL-2   CANAL-3   CANAL-4   CANAL-5   CANAL-6   CANAL-7   CANAL-8
      N00E        +V      N90E
---------+---------+---------+---------+---------+---------+---------+---------+
[...]
  -0.21855   0.25821  -0.50649
  -0.21855   0.25821  -0.50649
  -0.21855   0.25821  -0.50649
  -0.45855   0.25821  -0.50649
  -0.21855   0.25821  -0.50649
  -0.45855   0.25821  -0.50649
  -0.45855   0.25821  -0.50649
  -0.45855   0.25821  -0.50649
  -0.45855   0.25821  -0.26649
  -0.45855   0.25821  -0.26649
  -0.45855   0.25821  -0.26649
  -0.45855   0.25821  -0.26649
  -0.45855   0.25821  -0.26649
  -0.45855   0.01821  -0.26649
  -0.45855   0.25821  -0.02649
  -0.45855   0.25821  -0.02649
  -0.69855   0.25821  -0.02649
  -0.69855   0.25821  -0.02649
  -0.69855   0.25821  -0.02649
  -0.69855   0.25821  -0.02649
  -0.69855   0.01821  -0.02649
  -0.69855   0.25821  -0.02649
  -0.69855   0.25821   0.21351
  -0.69855   0.01821   0.21351
  -0.69855   0.25821   0.21351
  -0.69855   0.01821   0.21351
  -0.69855   0.25821   0.21351
  -0.69855   0.01821   0.21351
  -0.69855   0.01821   0.21351
  -0.69855   0.01821   0.45351
  -0.69855   0.01821   0.45351
  -0.69855   0.01821   0.45351
  -0.93855   0.01821   0.45351
  -0.69855   0.01821   0.45351
  -0.69855   0.01821   0.45351
  -0.69855   0.01821   0.45351
  -0.69855   0.01821   0.45351
  -0.93855   0.25821   0.45351
  -0.69855   0.01821   0.45351
  -0.69855   0.01821   0.45351
  -0.93855   0.01821   0.45351
  -0.93855   0.25821   0.45351
  -0.93855   0.25821   0.45351
  -0.93855   0.25821   0.45351
  -0.93855   0.25821   0.45351
  -0.93855   0.25821   0.45351
  -0.93855   0.25821   0.45351
  -0.93855   0.25821   0.45351
  -0.69855   0.25821   0.45351
  -0.93855   0.25821   0.45351
  -0.93855   0.25821   0.45351
  -0.93855   0.25821   0.45351
  -0.93855   0.01821   0.45351
  -0.93855   0.25821   0.45351
  -0.93855   0.25821   0.45351
  -0.93855   0.25821   0.45351
  -0.93855   0.01821   0.21351
  -0.93855   0.25821   0.45351
  -0.93855   0.25821   0.21351
  -0.93855   0.01821   0.21351
  -0.93855   0.25821   0.21351
  -1.17855   0.01821   0.21351
  -0.93855   0.01821   0.21351
  -1.17855   0.01821   0.21351
  -0.93855   0.01821  -0.02649
  -1.17855   0.01821  -0.02649
  -0.93855   0.01821  -0.02649
  -0.93855   0.01821  -0.02649
  -0.93855   0.01821  -0.02649
  -0.93855   0.01821  -0.02649
  -0.93855   0.01821  -0.02649
  -0.93855   0.01821  -0.02649
  -0.93855   0.01821  -0.02649
  -0.93855   0.01821  -0.02649
  -0.93855   0.01821  -0.02649
  -0.93855   0.01821  -0.02649
  -0.93855   0.01821  -0.02649
  -0.69855   0.01821  -0.02649
  -0.69855   0.01821  -0.02649
  -0.69855   0.01821  -0.02649
  -0.69855   0.01821  -0.02649
  -0.69855   0.01821  -0.26649
  -0.69855   0.01821  -0.02649
  -0.69855   0.01821  -0.26649
  -0.69855   0.01821  -0.02649
  -0.45855   0.01821  -0.26649
  -0.45855   0.01821  -0.26649
  -0.45855   0.01821  -0.02649
  -0.45855   0.01821  -0.02649
  -0.45855   0.01821  -0.02649
  -0.45855   0.01821  -0.02649
  -0.45855   0.01821  -0.02649
  -0.45855   0.01821  -0.02649
  -0.45855   0.01821  -0.02649
  -0.45855   0.01821  -0.02649
  -0.45855   0.01821  -0.02649
  -0.45855   0.25821  -0.02649
  -0.45855   0.01821  -0.02649
  -0.45855   0.25821  -0.02649
  -0.45855   0.25821  -0.02649
  -0.45855   0.25821  -0.02649
  -0.45855   0.25821  -0.02649
  -0.45855   0.25821  -0.02649
  -0.45855   0.01821  -0.02649
  -0.45855   0.25821  -0.02649
  -0.45855   0.01821  -0.02649
  -0.45855   0.01821  -0.02649
  -0.45855   0.01821  -0.50649
  -0.45855   0.01821  -0.02649
  -0.45855   0.01821  -0.02649
  -0.45855   0.01821  -0.02649
  -0.21855   0.01821  -0.02649
  -0.45855   0.01821  -0.02649
  -0.21855   0.01821  -0.02649
  -0.45855   0.01821  -0.02649
  -0.45855   0.01821  -0.02649
  -0.21855   0.01821  -0.02649
  -0.21855   0.01821  -0.02649
  -0.21855   0.01821   0.21351
  -0.21855  -0.22179   0.21351
  -0.21855  -0.22179   0.21351
   0.02145  -0.22179   0.21351
  -0.21855  -0.22179   0.21351
   0.02145  -0.22179   0.21351
   0.02145  -0.22179   0.21351
   0.02145  -0.22179   0.21351
   0.02145  -0.22179   0.21351
   0.02145  -0.22179   0.21351
   0.02145  -0.22179   0.21351
   0.02145  -0.22179   0.21351
   0.02145  -0.22179   0.21351
   0.26145  -0.22179   0.21351
   0.26145  -0.22179   0.21351
   0.26145  -0.22179   0.21351
   0.26145  -0.22179   0.21351
   0.26145  -0.22179   0.21351
   0.26145  -0.22179   0.21351
   0.26145  -0.22179   0.21351
   0.26145  -0.22179   0.45351
   0.26145  -0.22179   0.21351
   0.26145  -0.22179   0.45351
   0.26145  -0.22179   0.21351
   0.26145  -0.22179   0.45351
   0.26145  -0.22179   0.45351
   0.50145  -0.22179   0.45351
   0.26145  -0.22179   0.45351
   0.26145  -0.22179   0.21351
   0.26145  -0.22179   0.45351
   0.26145  -0.22179   0.21351
   0.26145  -0.22179   0.21351
   0.26145  -0.22179   0.21351
   0.50145  -0.70179   0.21351
   0.26145  -0.22179   0.21351
   0.50145  -0.22179   0.45351
   0.50145   0.01821   0.21351
   0.50145   0.01821   0.21351
   0.50145   0.01821   0.21351
   0.50145   0.01821   0.21351
   0.50145   0.01821   0.21351
   0.50145   0.01821   0.21351
   0.50145   0.01821   0.21351
   0.50145   0.01821   0.21351
   0.50145   0.01821   0.21351
   0.73145   0.01821   0.21351
   0.73145   0.01821   0.21351
   0.73145   0.01821   0.21351
   0.73145   0.01821   0.21351
   0.97145   0.25821   0.45351
   0.97145   0.01821   0.45351
   0.97145   0.01821   0.45351
   0.97145   0.01821   0.45351
   0.97145   0.25821   0.45351
   1.21145   0.25821   0.45351
   1.21145   0.25821   0.45351
   1.21145   0.25821   0.45351
   1.45145   0.25821   0.45351
   1.45145   0.01821   0.45351
   1.45145   0.01821   0.45351
   1.45145   0.01821   0.45351
   1.45145   0.01821   0.45351
   1.45145   0.01821   0.45351
   1.45145   0.01821   0.45351
   1.69145   0.01821   0.45351
   1.69145   0.01821   0.45351
   1.69145   0.01821   0.45351
   1.69145   0.01821   0.45351
   1.69145   0.01821   0.45351
   1.69145   0.01821   0.45351
   1.69145   0.01821   0.45351
   1.69145   0.01821   0.69351
   1.69145   0.01821   0.45351
   1.69145   0.01821   0.45351
   1.69145   0.01821   0.45351
   1.93145   0.01821   0.45351
   1.69145   0.01821   0.45351
   1.69145   0.01821   0.45351
   1.69145   0.01821   0.45351
   1.69145   0.01821   0.45351
   1.69145   0.01821   0.45351
   1.69145   0.01821   0.45351
   1.69145   0.01821   0.45351
   1.69145   0.01821   0.45351
   1.69145   0.01821   0.45351
   1.69145   0.01821   0.45351
   1.69145   0.01821   0.45351
   1.69145   0.01821   0.45351
   1.45145   0.01821   0.45351
   1.45145   0.01821   0.45351
   1.45145   0.01821   0.45351
   1.45145   0.01821   0.45351
   1.45145   0.01821   0.45351
   1.45145   0.01821   0.45351
   1.45145   0.01821   0.45351
   1.21145  -0.22179   0.45351
   1.21145   0.01821   0.45351
   1.21145   0.01821   0.45351
   1.21145   0.01821   0.45351
   1.21145   0.01821   0.45351
   1.21145   0.01821   0.45351
   0.97145   0.01821   0.45351
   0.97145   0.01821   0.45351
   0.97145   0.01821   0.45351
   0.97145   0.01821   0.45351
   0.97145  -0.22179   0.45351
   0.73145   0.01821   0.45351
   0.73145   0.01821   0.45351
   0.73145   0.01821   0.45351
   0.73145   0.01821   0.45351
   0.73145   0.01821   0.45351
   0.50145  -0.22179   0.45351
   0.50145  -0.22179   0.45351
   0.50145  -0.22179   0.21351
   0.50145  -0.22179   0.45351
   0.50145  -0.22179   0.45351
   0.50145  -0.22179   0.45351
   0.50145  -0.22179   0.21351
   0.50145  -0.22179   0.21351
   0.50145  -0.22179   0.21351
   0.26145  -0.22179   0.21351
   0.26145  -0.22179   0.21351
   0.26145  -0.22179   0.21351
   0.26145  -0.22179   0.21351
   0.26145  -0.22179   0.21351
   0.26145  -0.22179   0.21351
   0.26145  -0.22179   0.21351
   0.26145  -0.22179   0.21351
   0.26145  -0.22179   0.21351
   0.02145  -0.22179  -0.02649
   0.26145  -0.22179  -0.02649
   0.02145  -0.22179  -0.02649
   0.02145  -0.22179  -0.02649
   0.02145  -0.22179  -0.02649
   0.02145  -0.22179  -0.02649
   0.02145  -0.22179  -0.02649
   0.02145  -0.22179  -0.02649
   0.02145  -0.22179  -0.02649
   0.02145  -0.22179  -0.02649
   0.02145  -0.22179  -0.02649
   0.02145  -0.22179  -0.02649
   0.02145  -0.22179  -0.02649
   0.02145  -0.22179  -0.02649
   0.02145  -0.22179  -0.26649
   0.02145  -0.22179  -0.26649
   0.02145  -0.22179  -0.26649
   0.02145  -0.22179  -0.26649
   0.26145   0.01821  -0.26649
   0.02145  -0.22179  -0.26649
   0.26145  -0.22179  -0.50649
   0.26145  -0.22179  -0.26649
   0.26145  -0.22179  -0.50649
   0.26145   0.01821  -0.26649
   0.26145   0.01821  -0.50649
   0.26145   0.01821  -0.50649
   0.26145   0.01821  -0.50649
   0.26145   0.01821  -0.50649
   0.26145   0.01821  -0.50649
   0.26145   0.01821  -0.50649
   0.26145   0.01821  -0.50649
   0.26145   0.01821  -0.50649
   0.26145   0.01821  -0.50649
   0.26145   0.01821  -0.50649
   0.26145   0.01821  -0.50649
   0.26145   0.25821  -0.50649
   0.26145   0.01821  -0.50649
   0.26145   0.01821  -0.50649
   0.26145   0.01821  -0.50649
   0.26145   0.25821  -0.50649
   0.26145   0.25821  -0.50649
   0.02145   0.25821  -0.74649
   0.02145   0.25821  -0.50649
   0.02145   0.25821  -0.50649
   0.02145   0.25821  -0.50649
   0.02145   0.25821  -0.50649
   0.02145   0.25821  -0.50649
   0.02145   0.25821  -0.50649
   0.02145   0.25821  -0.50649
   0.02145   0.25821  -0.50649
   0.02145   0.25821  -0.50649
   0.02145   0.25821  -0.50649
  -0.21855   0.25821  -0.50649
  -0.21855   0.25821  -0.50649
  -0.21855   0.25821  -0.50649
  -0.21855   0.25821  -0.50649
  -0.21855   0.25821  -0.50649
  -0.21855   0.25821  -0.26649
  -0.45855   0.25821  -0.50649
  -0.45855   0.25821  -0.26649
  -0.45855   0.25821  -0.26649
  -0.45855   0.25821  -0.26649
  -0.45855   0.01821  -0.26649
  -0.45855   0.25821  -0.26649
  -0.69855   0.25821  -0.26649
  -0.45855   0.25821  -0.26649
  -0.69855   0.25821  -0.26649
  -0.69855   0.25821  -0.26649
  -0.69855   0.01821  -0.26649
  -0.69855   0.01821  -0.26649
  -0.69855   0.01821  -0.26649
  -0.69855   0.01821  -0.26649
  -0.69855   0.01821  -0.26649
  -0.93855   0.01821  -0.26649
  -0.93855   0.01821  -0.26649
  -0.93855   0.01821  -0.26649
  -0.93855   0.01821  -0.26649
  -0.93855   0.01821  -0.26649
  -0.93855   0.01821  -0.26649
  -1.17855   0.01821  -0.26649
  -1.17855  -0.22179  -0.26649
  -1.17855  -0.22179  -0.26649
  -1.17855  -0.22179  -0.26649
  -1.17855  -0.22179  -0.26649
  -1.17855  -0.22179  -0.26649
  -1.17855   0.01821  -0.26649
  -1.41855  -0.22179  -0.26649
  -1.41855  -0.22179  -0.26649
  -1.41855  -0.22179  -0.26649
  -1.41855  -0.22179  -0.26649
  -1.41855  -0.22179  -0.26649
  -1.41855  -0.22179  -0.26649
  -1.65855  -0.22179  -0.26649
  -1.65855  -0.22179  -0.26649
  -1.65855  -0.22179  -0.26649
  -1.65855  -0.22179  -0.26649
  -1.65855  -0.22179  -0.26649
  -1.65855  -0.22179  -0.26649
  -1.65855  -0.22179  -0.26649
  -1.65855  -0.22179  -0.26649
  -1.65855  -0.22179  -0.26649
  -1.65855  -0.22179  -0.26649
  -1.89855  -0.22179  -0.26649
  -1.89855  -0.22179  -0.02649
  -1.89855  -0.22179  -0.26649
  -1.89855  -0.22179  -0.02649
  -1.89855  -0.22179  -0.02649
  -1.89855  -0.22179  -0.02649
  -1.65855  -0.22179  -0.26649
  -1.65855  -0.22179  -0.02649
  -1.89855  -0.22179  -0.02649
  -1.65855  -0.22179  -0.02649
  -1.65855  -0.22179  -0.02649
  -1.65855  -0.22179  -0.02649
  -1.65855  -0.22179  -0.02649
  -1.65855   0.01821  -0.02649
  -1.65855   0.01821  -0.02649
  -1.65855   0.01821  -0.02649
  -1.65855   0.01821  -0.02649
  -1.41855   0.01821  -0.02649
  -1.65855   0.01821  -0.02649
  -1.41855   0.01821  -0.02649
  -1.41855   0.01821  -0.02649
  -1.41855   0.01821  -0.02649
  -1.41855   0.01821  -0.50649
  -1.41855   0.01821  -0.02649
  -1.41855   0.01821  -0.26649
  -1.17855   0.01821  -0.02649
  -1.17855   0.25821  -0.26649
  -1.17855   0.25821  -0.26649
  -1.17855   0.25821  -0.26649
  -1.17855   0.25821  -0.26649
  -0.93855   0.25821  -0.26649
  -0.93855   0.25821  -0.50649
  -0.93855   0.25821  -0.26649
  -0.93855   0.25821  -0.26649
  -0.69855   0.25821  -0.26649
  -0.69855   0.25821  -0.02649
  -0.69855   0.25821  -0.02649
  -0.69855   0.25821  -0.02649
  -0.69855   0.25821  -0.26649
  -0.45855   0.25821  -0.02649
  -0.45855   0.25821  -0.02649
  -0.45855   0.25821  -0.26649
  -0.45855   0.25821  -0.02649
  -0.45855   0.25821  -0.02649
  -0.45855   0.25821  -0.02649
  -0.45855   0.25821  -0.02649
  -0.21855   0.25821  -0.02649
  -0.21855   0.25821  -0.02649
  -0.21855   0.25821  -0.02649
  -0.21855   0.25821  -0.02649
  -0.21855   0.25821  -0.02649
   0.02145   0.25821  -0.02649
   0.02145   0.25821  -0.02649
   0.02145   0.25821  -0.02649
   0.02145   0.25821  -0.02649
   0.02145   0.25821   0.21351
   0.02145   0.25821   0.21351
   0.26145   0.25821   0.21351
   0.26145  -0.22179  -0.02649
   0.26145   0.25821   0.21351
   0.26145   0.25821   0.21351
   0.26145   0.25821   0.21351
   0.26145   0.25821   0.21351
   0.50145   0.25821   0.45351
   0.50145   0.25821   0.45351
   0.50145   0.25821   0.21351
   0.50145   0.01821   0.45351
   0.50145   0.01821   0.45351
   0.50145   0.01821   0.45351
   0.50145   0.01821   0.45351
   0.50145   0.01821   0.45351
   0.50145   0.01821   0.45351
   0.50145   0.01821   0.45351
   0.50145   0.01821   0.45351
   0.50145   0.01821   0.45351
   0.50145   0.01821   0.45351
   0.50145   0.01821   0.45351
   0.50145   0.01821   0.45351
   0.50145  -0.22179   0.45351
   0.50145   0.01821   0.45351
   0.73145   0.01821   0.45351
   0.73145  -0.22179   0.45351
   0.73145   0.01821   0.45351
   0.73145  -0.22179   0.45351
   0.73145  -0.22179   0.45351
   0.73145   0.01821   0.69351
   0.73145   0.01821   0.45351
   0.73145   0.01821   0.45351
   0.50145   0.01821   0.45351
   0.73145  -0.22179   0.45351
   0.73145   0.01821   0.45351
   0.73145   0.01821   0.45351
   0.73145   0.01821   0.45351
   0.50145  -0.22179   0.45351
   0.73145  -0.22179   0.45351
   0.73145  -0.22179   0.45351
   0.73145  -0.22179   0.45351
   0.73145  -0.22179   0.45351
   0.73145  -0.22179   0.45351
   0.73145  -0.22179   0.45351
   0.73145  -0.22179   0.45351
   0.73145  -0.22179   0.45351
   0.73145  -0.22179   0.45351
   0.73145  -0.22179   0.45351
   0.73145  -0.22179   0.45351
   0.73145  -0.22179   0.45351
   0.73145  -0.22179   0.45351
   0.73145  -0.22179   0.21351
   0.73145  -0.22179   0.21351
   0.73145  -0.22179   0.21351
   0.73145   0.01821   0.21351
   0.73145   0.01821   0.21351
   0.73145  -0.22179   0.21351
   0.73145  -0.22179  -0.02649
   0.73145  -0.22179  -0.02649
   0.73145   0.01821  -0.02649
   0.50145   0.01821  -0.02649
   0.73145   0.01821  -0.02649
   0.73145   0.01821  -0.02649
   0.50145   0.01821  -0.02649
   0.50145   0.01821  -0.02649
   0.50145   0.01821  -0.26649
   0.50145   0.01821  -0.26649
   0.50145   0.01821  -0.26649
   0.50145   0.01821  -0.26649
   0.50145   0.01821  -0.26649
   0.50145   0.01821  -0.26649
   0.73145   0.01821  -0.26649
   0.50145   0.01821  -0.26649
   0.73145   0.01821  -0.26649
   0.73145   0.01821  -0.50649
   0.73145   0.01821  -0.26649
   0.73145   0.01821  -0.26649
   0.73145   0.01821  -0.26649
   0.73145   0.01821  -0.26649
   0.73145   0.01821  -0.26649
   0.73145   0.01821  -0.26649
   0.73145   0.01821  -0.26649
   0.97145   0.01821  -0.26649
   0.97145   0.01821  -0.26649
   0.97145   0.01821  -0.26649
   0.97145  -0.22179  -0.26649
   0.97145   0.01821  -0.26649
   0.97145  -0.22179  -0.26649
   1.21145   0.01821  -0.26649
   1.21145   0.01821  -0.26649
   1.21145   0.01821  -0.26649
   1.21145   0.01821  -0.26649
   1.21145   0.01821  -0.26649
   1.21145   0.01821  -0.26649
