********************************************************************************
              CENTRO DE INSTRUMENTACION Y REGISTRO SISMICO  A.C.

    Anaxagoras 814, Col. Narvarte, Benito Juarez, C.P. 03020 Mexico, D.F.
           Tels. 5687 45 42/ 5687 45  82             Fax. 5669 25 12
********************************************************************************
ARCHIVO ESTANDAR DE ACELERACION:
VERSION DEL FORMATO                    : 2.0
NOMBRE DEL ARCHIVO                     : AU1120130616051902
FECHA Y HORA DE CREACION               : 20/OCT/17, 13:29
REF. CATALOGO ACELEROGRAMAS, SMIS 1996 : REGISTRO No.     /PAG.


================================================================================
DATOS DE LA ESTACION:
NOMBRE DE LA ESTACION                  : AUTÓDROMO
CLAVE DE LA ESTACION                   : AU11
LOCALIZACION DE LA ESTACION            : Del. Iztacalco, Cd. Deportiva          
                                       : Magdalena Mixhuca,                     
                                       : Col. Granjas México                    
                                       :                                        
                                       : 
COORDENADAS DE LA ESTACION             : 19.3919 LAT. N
                                       : 99.0869 LONG. W
ALTITUD (msnm)                         : 2234
TIPO DE SUELO                          : Terreno blando, material compresible
                                       : (arcillas)                
                                       : 
INSTITUCION RESPONSABLE                : CIRES
                                       : 

================================================================================
DATOS DEL ACELEROGRAFO:
MODELO DEL ACELEROGRAFO                : RADESD
NUMERO DE SERIE DEL ACELEROGRAFO       : 157
NUMERO DE CANALES                      : 3
ORIENTACION C1-C6 (rumbo;orientacion)  : /S00E/+V/N90W
ORIENTACION C7-C12 (rumbo;orientacion) : 
VEL. DE MUESTREO, C1-C6 (muestras/s)   : /100/100/100
VEL. DE MUESTREO, C7-C12 (muestras/s)  : 
ESC. COMPLETA DE SENSORES, C1-C6, (g)  : /0.5/0.5/0.5
ESC. COMPLETA DE SENSORES, C7-C12, (g) : 
FREC. NAT. DE SENSORES, C1-C6, (Hz)    : /51.77/52.56/52.29
FREC. NAT. DE SENSORES, C7-C12, (Hz)   : 
AMORTIGUAMIENTO DE SENSORES, C1-C6     : /0.5912/0.6083/0.6067
AMORTIGUAMIENTO DE SENSORES, C7-C12    : 
INTERVALO DE MUESTREO, C1-C6, (s)      : /0.01/0.01/0.01
INTERVALO DE MUESTREO, C7-C12, (s)     : 
UMBRAL DE DISPARO, C1-C6, (Gal)        : /0.72/1.92/0.72
UMBRAL DE DISPARO, C7-C12, (Gal)       : 
MEMORIA DE PREEVENTO (s)               : 44.0
TIEMPO DE POSEVENTO (s)                : 0.0


================================================================================
DATOS DEL SISMO:
FECHA DEL SISMO (GMT)                  : 16/JUN/13
HORA EPICENTRO (GMT)                   : 05:19:02.0
MAGNITUD(ES)                           : /Mc=5.8
COORDENADAS DEL EPICENTRO              : 18.11 LAT. N
                                       : 99.22 LONG. W
PROFUNDIDAD FOCAL (km)                 : 55
FUENTE DE LOS DATOS EPICENTRALES       : SSN
                                       : INSTITUTO DE GEOFISICA, UNAM

================================================================================
DATOS DE ESTE REGISTRO:
HORA DE LA PRIMERA MUESTRA (GMT)       : 05:19:23.00
EXACTITUD DEL TIEMPO (s)               : 0.01
DURACION DEL REGISTRO (s), C1-C6       : /348.4/348.4/348.4
DURACION DEL REGISTRO (s), C7-C12      : 
NUM. TOTAL DE MUESTRAS, C1-C6          : /34840/34840/34840
NUM. TOTAL DE MUESTRAS, C7-C12         : 
ACEL. MAX. (Gal), C1-C6                : /16.80015/6.36413/13.82321
ACEL. MAX., C1-C6, EN LA MUESTRA       : /6165/4425/6641
ACEL. MAX. (Gal), C7-C12               : 
ACEL. MAX., C7-C12, EN LA MUESTRA      : 
UNIDADES DE LOS DATOS                  : Gal (cm/s/s)
FACTOR DE DECIMACION                   : 1
FORMATO DATOS (FORTRAN,10 campos/dato) : 3F10.5


================================================================================
CALIDAD DEL ACELEROGRAMA:
REGISTRO DIGITAL COMPLETO CON TIEMPO ABSOLUTO CORRECTO.


================================================================================
COMENTARIOS:














================================================================================
DATOS DE ACELERACION:
---------+---------+---------+---------+---------+---------+---------+---------+
   CANAL-1   CANAL-2   CANAL-3   CANAL-4   CANAL-5   CANAL-6   CANAL-7   CANAL-8
      S00E        +V      N90W
---------+---------+---------+---------+---------+---------+---------+---------+
[...]
   2.35346  -0.28885   0.35582
   2.21879  -0.19906   0.31093
   2.17390  -0.19906   0.20619
   2.15893  -0.12425   0.10144
   2.02426  -0.22899  -0.13798
   1.97937  -0.39359  -0.18287
   1.75491  -0.45345  -0.30258
   1.60527  -0.46841  -0.34747
   1.42571  -0.36367  -0.45222
   1.32096  -0.06439  -0.45222
   1.27607   0.27978  -0.40733
   1.09651   0.48927  -0.30258
   0.94687   0.39949  -0.13798
   0.63263   0.18999   0.05655
   0.39321  -0.12425   0.16129
   0.25854  -0.39359   0.11640
  -0.10060  -0.46841  -0.04820
  -0.44476  -0.63301  -0.21280
  -0.63929  -0.72280  -0.36244
  -0.92360  -0.63301  -0.40733
  -1.25280  -0.48338  -0.39237
  -1.52215  -0.42352  -0.34747
  -1.59697  -0.30381  -0.24273
  -1.62690  -0.19906  -0.22776
  -1.59697  -0.15417  -0.27266
  -1.59697  -0.33374  -0.43726
  -1.56704  -0.46841  -0.57193
  -1.55208  -0.51330  -0.58689
  -1.38748  -0.45345  -0.81135
  -1.28273  -0.30381  -1.00588
  -1.07324  -0.01950  -0.99092
  -0.96849   0.38452  -0.97595
  -0.84878   0.59402  -0.75150
  -0.75900   0.80351  -0.66171
  -0.87871   0.92322  -0.67668
  -0.96849   0.71373  -0.67668
  -1.08820   0.48927  -0.64675
  -1.02835   0.02539  -0.64675
  -0.87871  -0.31877  -0.61682
  -0.75900  -0.52827  -0.67668
  -0.68418  -0.90236  -0.60186
  -0.68418  -0.79761  -0.55697
  -0.63929  -0.49834  -0.45222
  -0.65425  -0.15417  -0.46718
  -0.66922   0.29474  -0.45222
  -0.60936   0.53416  -0.48215
  -0.54951   0.68380  -0.49711
  -0.50462   0.65387  -0.49711
  -0.54951   0.54912  -0.39237
  -0.56447   0.32467  -0.40733
  -0.60936   0.04036  -0.30258
  -0.62433  -0.07935  -0.01827
  -0.63929  -0.06439   0.02662
  -0.65425   0.26481   0.10144
  -0.68418   0.54912   0.17626
  -0.98346   0.87833   0.16129
  -1.20791   0.96811   0.32590
  -1.38748   0.98307   0.32590
  -1.46230   0.90825   0.34086
  -1.46230   0.63891   0.37079
  -1.44733   0.24985   0.38575
  -1.40244  -0.33374   0.38575
  -1.34259  -0.70783   0.40071
  -1.23784  -1.11185   0.41568
  -1.02835  -0.99214   0.47553
  -0.68418  -0.54323   0.41568
  -0.48965  -0.37863   0.44561
  -0.22031  -0.10928   0.43064
   0.21364   0.29474   0.38575
   0.30343   0.29474   0.37079
   0.37825   0.20496   0.34086
   0.36328  -0.10928   0.37079
   0.37825  -0.57316   0.34086
   0.37825  -1.09689   0.28100
   0.43810  -1.39616   0.19122
   0.42314  -1.51587  -0.01827
   0.39321  -1.39616  -0.24273
   0.42314  -1.03703  -0.33251
   0.48299  -0.43848  -0.46718
   0.46803   0.13014  -0.55697
   0.51292   0.51920  -0.57193
   0.52788   0.53416  -0.55697
   0.43810   0.45934  -0.46718
   0.31839   0.16007  -0.16791
   0.27350  -0.28885   0.08647
   0.28846  -0.51330   0.32590
   0.25854  -0.87243   0.40071
   0.33335  -1.08193   0.47553
   0.40817  -1.12682   0.56532
   0.51292  -1.09689   0.62517
   0.70745  -0.94725   0.67006
   0.75234  -0.55819   0.72992
   0.69248  -0.36367   0.83466
   0.58774  -0.22899   0.93941
   0.46803  -0.22899   0.98430
   0.36328  -0.34870   0.96934
   0.30343  -0.54323   0.69999
   0.27350  -0.91732   0.41568
   0.24357  -1.06696   0.31093
   0.31839  -1.14178   0.04158
   0.33335  -1.06696  -0.18287
   0.34832  -0.91732  -0.21280
   0.42314  -0.60309  -0.22776
   0.34832  -0.46841  -0.19784
   0.24357  -0.45345  -0.13798
  -0.07067  -0.42352  -0.10805
  -0.45973  -0.31877   0.01166
  -0.63929  -0.12425   0.02662
  -0.69915   0.18999   0.07151
  -0.80389   0.21992   0.14633
  -0.86375   0.18999   0.29597
  -0.86375   0.08525   0.34086
  -0.96849   0.18999   0.35582
  -1.08820   0.30970   0.40071
  -1.11813   0.26481   0.43064
  -1.23784   0.08525   0.50546
  -1.35755  -0.09432   0.62517
  -1.37251  -0.33374   0.68503
  -1.38748  -0.42352   0.83466
  -1.50719  -0.42352   0.93941
  -1.47726  -0.18410   0.96934
  -1.46230   0.33963   0.81970
  -1.37251   0.95315   0.55035
  -1.25280   1.70133   0.37079
  -1.11813   2.43456  -0.03324
  -0.93857   2.85354  -0.36244
  -0.77396   2.86851  -0.43726
  -0.75900   2.46449  -0.49711
  -0.89367   1.68637  -0.54200
  -0.78893   0.86336  -0.55697
  -0.90864   0.30970  -0.54200
  -0.81886   0.04036  -0.54200
  -0.72907   0.13014  -0.55697
  -0.53454   0.59402  -0.54200
  -0.25023   1.23746  -0.40733
   0.24357   1.55170  -0.25769
   0.42314   1.61155   0.05655
   0.63263   1.47688   0.34086
   0.70745   0.98307   0.37079
   0.82716   0.57905   0.38575
   0.79723   0.45934   0.38575
   0.81219   0.41445   0.37079
   0.88701   0.44438   0.32590
   1.06658   0.53416   0.34086
   1.14140   0.57905   0.34086
   1.21622   0.53416   0.37079
   1.21622   0.27978   0.34086
   1.18629  -0.19906   0.29597
   1.12643  -0.54323   0.04158
   0.91694  -1.08193  -0.16791
   0.69248  -1.47098  -0.39237
   0.76730  -1.71040  -0.49711
   0.58774  -1.63558  -0.49711
   0.61767  -1.35127  -0.43726
   0.46803  -0.85747  -0.31755
   0.39321  -0.42352  -0.10805
   0.31839  -0.25892   0.11640
   0.16875  -0.09432   0.16129
  -0.02578  -0.04943  -0.06316
  -0.22031  -0.25892  -0.33251
  -0.28016  -0.46841  -0.43726
  -0.31009  -0.52827  -0.52704
  -0.29512  -0.51330  -0.55697
  -0.38491  -0.37863  -0.58689
  -0.45973   0.08525  -0.60186
  -0.56447   0.60898  -0.70660
  -0.60936   1.22249  -0.70660
  -0.60936   1.58162  -0.90113
  -0.62433   2.03054  -1.11063
  -0.60936   2.37470  -1.30515
  -0.59440   2.38967  -1.39494
  -0.56447   2.13528  -1.43983
  -0.54951   1.64148  -1.45479
  -0.47469   1.17760  -1.42486
  -0.38491   0.42941  -1.45479
  -0.34002  -0.30381  -1.35005
  -0.22031  -0.96222  -1.33508
   0.07897  -1.38120  -1.24530
  -0.02578  -1.65055  -0.96099
   0.04904  -1.86004  -0.72157
   0.06401  -1.90493  -0.57193
   0.01911  -1.78522  -0.42229
   0.01911  -1.87501  -0.33251
  -0.07067  -2.03961  -0.28762
  -0.31009  -2.27903  -0.34747
  -0.47469  -2.39874  -0.43726
  -0.60936  -2.36881  -0.52704
  -0.74404  -2.11443  -0.54200
  -0.95353  -1.42609  -0.55697
  -1.10317  -0.67790  -0.52704
  -1.16302   0.14510  -0.51208
  -1.22288   0.78854  -0.58689
  -1.26777   1.53673  -0.69164
  -1.34259   2.24003  -1.05077
  -1.44733   2.43456  -1.36501
  -1.50719   2.43456  -1.51465
  -1.53712   2.07543  -1.55954
  -1.52215   1.50680  -1.49968
  -1.52215   0.87833  -1.42486
  -1.53712   0.42941  -1.23034
  -1.50719   0.07028  -1.02084
  -1.52215   0.33963  -0.82631
  -1.49222   1.02796  -0.90113
  -1.41741   2.13528  -1.12559
  -1.41741   3.37727  -1.15552
  -1.38748   4.20028  -1.29019
  -1.28273   4.54445  -1.27523
  -1.22288   4.24517  -1.11063
  -1.25280   3.36231  -0.72157
  -1.26777   2.09039  -0.54200
  -1.34259   0.81847  -0.13798
  -1.49222  -0.22899   0.16129
  -1.49222  -0.93229   0.37079
  -1.46230  -1.38120   0.52042
  -1.38748  -1.50091   0.67006
  -1.22288  -1.57573   0.93941
  -1.07324  -1.41113   1.14890
  -0.86375  -1.20164   1.29854
  -0.71411  -0.76769   1.40329
  -0.63929  -0.54323   1.53796
  -0.51958  -0.48338   1.76242
  -0.31009  -0.64798   1.92702
  -0.19038  -0.61805   2.10658
   0.10890  -0.46841   1.95695
   0.19868  -0.43848   1.76242
   0.33335  -0.39359   1.53796
   0.46803  -0.61805   1.34343
   0.67752  -1.26149   1.23868
   0.96183  -1.78522   1.04416
   0.85709  -2.20421   0.69999
   0.78227  -2.21917   0.50546
   0.64759  -2.18924   0.41568
   0.43810  -2.08450   0.43064
   0.27350  -1.69544   0.52042
   0.07897  -1.09689   0.65510
  -0.34002  -0.60309   1.07408
  -0.56447   0.02539   1.28358
  -0.75900   0.54912   1.35839
  -0.99842   0.81847   1.38832
  -1.28273   0.93818   1.37336
  -1.50719   0.59402   1.31350
  -1.67179   0.27978   1.29854
  -1.85136  -0.19906   1.32847
  -2.16559  -0.39359   1.32847
  -2.34516  -0.39359   1.26861
  -2.52472  -0.40856   1.32847
  -2.65940  -0.37863   1.23868
  -3.00356  -0.25892   0.93941
  -3.43751   0.02539   0.44561
  -3.94628   0.33963  -0.09309
  -4.51490   0.66883  -0.72157
  -5.09849   1.49184  -1.39494
  -5.50251   2.46449  -1.84385
  -5.81675   3.42217  -2.29276
  -6.04121   4.21525  -2.44240
  -6.01128   4.40977  -2.50226
  -5.95143   4.51452  -2.50226
  -5.81675   4.55941  -2.53218
  -5.56237   4.60430  -2.50226
  -5.41273   4.48459  -2.48729
  -5.08353   4.29006  -2.33765
  -4.33534   3.66159  -2.05334
  -3.52730   3.21267  -1.64932
  -2.58458   2.76376  -1.32012
  -1.67179   2.47945  -0.93106
  -0.66922   2.40463  -0.60186
   0.24357   2.07543  -0.45222
   1.18629   1.56666  -0.27266
   1.91951   0.66883  -0.16791
   2.62281  -0.57316  -0.04820
   3.29618  -1.91990  -0.06316
   3.96955  -2.81772   0.01166
   4.50824  -3.07211  -0.12302
   5.04694  -2.56334  -0.46718
   5.45096  -1.75530  -0.76646
   6.06447  -0.58812  -1.35005
   6.76777   0.54912  -1.60443
   7.41121   1.26738  -2.26284
   8.20429   1.26738  -2.48729
   9.02730   0.26481  -2.51722
   9.83534  -1.24653  -2.54715
  10.61346  -2.96736  -2.47233
  11.37661  -4.37395  -2.12816
  11.88538  -5.33163  -1.55954
  12.48393  -5.90026  -0.94602
  12.85802  -5.81047  -0.30258
  13.26204  -5.03236   0.38575
  13.60621  -4.11957   0.96934
  13.72592  -3.31153   1.38832
  13.72592  -2.77283   2.10658
  13.72592  -2.54837   2.52557
  13.53139  -2.54837   3.12412
  12.94780  -2.50348   3.61792
  12.60364  -2.36881   3.99202
  11.96020  -2.11443   4.17158
  11.58610  -1.50091   3.91720
  11.01748  -1.18667   3.46828
  10.74813  -0.66294   2.94455
  10.22440  -0.36367   2.21133
   9.97002  -0.27388   1.37336
   9.89520  -0.22899   0.41568
   9.89520  -0.36367  -0.60186
   9.89520  -0.43848  -1.64932
   9.82038  -0.67790  -2.71175
   9.74556  -0.93229  -3.45994
   9.38643  -1.11185  -4.37273
   9.04226  -1.00711  -4.97128
   8.81781  -0.72280  -5.37530
   8.32400  -0.51330  -5.83917
   7.97984  -0.09432  -6.30305
   7.69552   0.57905  -6.67714
   7.38128   1.20753  -6.94649
   7.05208   1.49184  -6.88664
   6.52835   1.56666  -6.49758
   5.85498   1.74622  -6.22823
   4.64292   1.98565  -5.62968
   3.07172   2.47945  -5.19573
   1.39578   2.83858  -4.49244
  -0.22031   2.88347  -4.25302
  -1.68675   2.64405  -3.96870
  -2.86889   2.28492  -3.69936
  -3.90139   1.59659  -3.81907
  -4.72440   1.43199  -3.83403
  -5.39777   1.47688  -3.69936
  -6.11603   2.18017  -3.47490
  -6.57990   3.10793  -3.04095
  -7.10364   4.14043  -2.39751
  -7.43284   4.42474  -1.60443
  -7.94161   4.34992  -0.67668
  -8.22592   3.61669   0.25108
  -8.36059   2.19514   1.37336
  -8.64490   0.62394   2.55550
  -8.95914  -0.84251   3.76756
  -9.06389  -1.83011   4.87488
  -9.10878  -2.27903   6.05702
  -9.16863  -1.99472   6.96980
  -9.21353  -1.26149   7.77785
  -9.25842  -0.27388   8.27165
  -9.27338   0.69876   8.79538
  -9.75222   1.44695   8.98991
 -10.36573   1.77615   9.06473
 -11.44313   1.79112   9.12459
 -12.64023   1.53673   9.18444
 -14.04682   0.84840   9.19941
 -15.31874   0.33963   9.09466
 -16.24649  -0.15417   8.98991
 -16.80015  -0.33374   8.48114
 -16.75526  -0.39359   8.09209
 -16.15671  -0.43848   7.64317
 -15.37859  -1.03703   7.14937
 -14.54062  -1.81515   7.07455
 -13.67273  -3.01225   7.04462
 -12.86468  -3.95497   7.05959
 -11.86211  -4.83783   7.11944
 -10.76976  -5.39149   7.10448
  -9.51280  -5.81047   6.82017
  -8.03139  -5.75062   6.11687
  -6.46019  -5.12214   5.08437
  -4.94885  -4.31410   3.94713
  -3.54226  -3.38634   2.89966
  -2.31523  -2.45859   2.07666
  -1.44733  -1.45602   1.19379
  -0.60936  -0.45345   0.22115
  -0.05570   0.29474  -0.70660
   0.40817   0.75862  -1.69421
   0.88701   1.19257  -2.77160
   1.15636   1.47688  -3.80410
   1.32096   1.44695  -4.71689
   1.60527   1.16264  -5.53990
   2.05419   0.65387  -6.13845
   2.24872   0.14510  -6.31801
   2.81734  -0.51330  -6.37787
   3.43085  -1.17171  -6.36291
   4.44839  -1.50091  -6.46765
   5.55571  -1.91990  -6.88664
   6.69295  -1.84508  -7.12606
   7.91998  -1.45602  -7.26073
   8.92255  -1.09689  -7.29066
   9.71563  -0.40856  -7.20088
  10.07476   0.27978  -6.75196
  10.29922   0.66883  -6.28809
  10.52367   1.17760  -5.62968
  10.38900   1.52177  -5.01617
  10.32915   1.94075  -4.28294
  10.22440   2.37470  -3.38512
   9.98498   2.32981  -2.42744
   9.77549   1.73126  -1.12559
   9.08715   1.38709   0.23611
   8.21926   0.84840   1.55292
   7.05208   0.54912   2.69017
   5.85498   0.20496   3.54310
   4.76263   0.01043   4.18655
   3.77502   0.30970   4.47086
   3.08669   0.69876   4.65042
   2.41332   1.29731   4.77013
   2.14397   1.65644   4.68035
   1.71002   1.83601   4.53071
   1.62024   1.98565   4.41100
   1.47060   1.82104   4.26136
   1.30600   1.58162   3.90223
   1.14140   1.43199   3.36354
   0.84212   1.41702   2.97448
   0.64759   1.34220   2.46571
   0.45306   1.46191   2.25622
   0.28846   1.43199   1.94198
  -0.17541   1.04293   1.53796
  -0.69915   0.54912   1.34343
  -1.38748  -0.15417   0.93941
  -2.10574  -0.87243   0.49050
  -3.03349  -1.72537   0.32590
  -4.00614  -2.35385   0.26604
  -4.78425  -2.65312   0.19122
  -5.42769  -2.50348   0.47553
  -5.93646  -2.05457   1.11897
  -6.31056  -1.23156   1.86716
  -6.43027  -0.36367   2.64528
  -6.43027   0.42941   3.28872
  -6.32552   1.31228   3.60296
  -6.07114   2.24003   3.78252
  -5.50251   2.71887   3.66281
  -4.93389   3.04807   3.36354
  -4.18570   2.85354   3.25879
  -3.43751   2.50938   2.83981
  -2.83896   1.95572   2.46571
  -2.52472   1.41702   2.24126
  -2.37509   0.66883   1.83723
  -2.27034   0.45934   1.46314
  -2.30027   0.08525   1.22372
  -2.39005  -0.13921   0.58028
  -2.47983  -0.33374   0.29597
  -2.67436  -0.46841  -0.09309
  -3.09335  -0.63301  -0.21280
  -3.54226  -1.08193   0.01166
  -4.09592  -1.35127   0.37079
  -4.75432  -1.38120   0.74488
  -5.60726  -1.15674   1.32847
  -6.38537  -0.46841   1.91205
  -7.16349   0.05532   2.45075
  -7.73211   0.48927   3.04930
  -8.15110   0.42941   3.45332
  -8.24088  -0.21403   3.90223
  -8.12117  -0.84251   3.99202
  -8.07628  -1.77026   4.00698
  -7.92664  -2.41370   3.75260
  -7.73211  -2.77283   3.69274
  -7.40291  -2.39874   3.60296
  -7.31313  -2.09946   3.54310
  -7.05874  -1.30638   3.46828
  -6.62479  -0.45345   3.39347
  -6.38537   0.07028   3.22886
  -6.35545   0.10021   2.86973
  -6.35545  -0.33374   2.25622
  -6.38537  -0.55819   1.59781
  -6.41530  -1.05200   0.96934
  -6.31056  -1.15674   0.07151
  -6.01128  -1.08193  -0.58689
  -5.50251  -0.63301  -1.27523
  -5.11345  -0.28885  -1.58947
  -4.64958   0.04036  -1.79896
  -4.48498  -0.19906  -2.09823
  -4.51490  -0.58812  -2.27780
  -4.54483  -1.23156  -2.41247
  -4.64958  -1.47098  -2.50226
  -4.75432  -1.91990  -2.72671
  -4.49994  -2.06953  -2.96613
  -4.17074  -2.18924  -3.16066
  -3.33277  -2.12939  -3.13073
  -2.30027  -1.74033  -3.02599
  -1.17799  -1.21660  -3.07088
  -0.04074  -0.42352  -3.26541
   0.99176   0.51920  -3.32526
   1.90455   1.34220  -3.35519
   2.68266   1.94075  -3.40008
   3.31114   2.16521  -3.31030
   3.78998   2.16521  -3.17562
   4.07429   1.65644  -2.99606
   4.01444   1.32724  -2.63693
   3.83487   0.68380  -2.50226
   3.67027   0.47431  -2.11320
   3.68524   0.42941  -1.43983
   4.13415   0.53416  -0.57193
   4.50824   0.69876   0.32590
   5.06190   0.90825   1.31350
   5.46592   0.90825   2.19637
   5.84002   0.71373   2.91463
   5.73527   0.53416   3.34857
   5.42103   0.41445   3.87231
   5.15168   0.23489   4.12669
   5.04694   0.05532   4.21647
   5.01701  -0.04943   4.15662
   5.06190   0.02539   3.43836
   5.07687   0.26481   2.49564
   5.09183   0.51920   1.16387
   4.83745   0.47431  -0.15295
   4.26882   0.29474  -1.42486
   3.53560   0.02539  -2.27780
