********************************************************************************
              CENTRO DE INSTRUMENTACION Y REGISTRO SISMICO  A.C.

    Anaxagoras 814, Col. Narvarte, Benito Juarez, C.P. 03020 Mexico, D.F.
           Tels. 5687 45 42/ 5687 45  82             Fax. 5669 25 12
********************************************************************************
ARCHIVO ESTANDAR DE ACELERACION:
VERSION DEL FORMATO                    : 2.0
NOMBRE DEL ARCHIVO                     : AU1120140508170016
FECHA Y HORA DE CREACION               : 22/MAY/14, 13:42
REF. CATALOGO ACELEROGRAMAS, SMIS 1996 : REGISTRO No.     /PAG.


================================================================================
DATOS DE LA ESTACION:
NOMBRE DE LA ESTACION                  : AUTÓDROMO
CLAVE DE LA ESTACION                   : AU11
LOCALIZACION DE LA ESTACION            : Del. Iztacalco, Cd. Deportiva          
                                       : Magdalena Mixhuca,                     
                                       : Col. Granjas México                    
                                       :                                        
                                       : 
COORDENADAS DE LA ESTACION             : 19.3919 LAT. N
                                       : 99.0869 LONG. W
ALTITUD (msnm)                         : 2234
TIPO DE SUELO                          : Terreno blando, material compresible
                                       : (arcillas)                
                                       : 
INSTITUCION RESPONSABLE                : CIRES
                                       : 

================================================================================
DATOS DEL ACELEROGRAFO:
MODELO DEL ACELEROGRAFO                : RADESD
NUMERO DE SERIE DEL ACELEROGRAFO       : 157
NUMERO DE CANALES                      : 3
ORIENTACION C1-C6 (rumbo;orientacion)  : /S00E/+V/N90W
ORIENTACION C7-C12 (rumbo;orientacion) : 
VEL. DE MUESTREO, C1-C6 (muestras/s)   : /100/100/100
VEL. DE MUESTREO, C7-C12 (muestras/s)  : 
ESC. COMPLETA DE SENSORES, C1-C6, (g)  : /0.5/0.5/0.5
ESC. COMPLETA DE SENSORES, C7-C12, (g) : 
FREC. NAT. DE SENSORES, C1-C6, (Hz)    : /51.77/52.56/52.29
FREC. NAT. DE SENSORES, C7-C12, (Hz)   : 
AMORTIGUAMIENTO DE SENSORES, C1-C6     : /0.5912/0.6083/0.6067
AMORTIGUAMIENTO DE SENSORES, C7-C12    : 
INTERVALO DE MUESTREO, C1-C6, (s)      : /0.01/0.01/0.01
INTERVALO DE MUESTREO, C7-C12, (s)     : 
UMBRAL DE DISPARO, C1-C6, (Gal)        : /0.72/1.92/0.72
UMBRAL DE DISPARO, C7-C12, (Gal)       : 
MEMORIA DE PREEVENTO (s)               : 44.0
TIEMPO DE POSEVENTO (s)                : 64.0


================================================================================
DATOS DEL SISMO:
FECHA DEL SISMO (GMT)                  : 08/MAY/14
HORA EPICENTRO (GMT)                   : 17:00:16.0
MAGNITUD(ES)                           : /Mc=6.4
COORDENADAS DEL EPICENTRO              : 17.11 LAT. N
                                       : 100.87 LONG. W
PROFUNDIDAD FOCAL (km)                 : 17
FUENTE DE LOS DATOS EPICENTRALES       : SSN
                                       : INSTITUTO DE GEOFISICA, UNAM

================================================================================
DATOS DE ESTE REGISTRO:
HORA DE LA PRIMERA MUESTRA (GMT)       : 17:00:51.00
EXACTITUD DEL TIEMPO (s)               : 0.01
DURACION DEL REGISTRO (s), C1-C6       : /497.2/497.2/497.2
DURACION DEL REGISTRO (s), C7-C12      : 
NUM. TOTAL DE MUESTRAS, C1-C6          : /49720/49720/49720
NUM. TOTAL DE MUESTRAS, C7-C12         : 
ACEL. MAX. (Gal), C1-C6                : /28.47801/5.37173/18.68104
ACEL. MAX., C1-C6, EN LA MUESTRA       : /10119/7898/8221
ACEL. MAX. (Gal), C7-C12               : 
ACEL. MAX., C7-C12, EN LA MUESTRA      : 
UNIDADES DE LOS DATOS                  : Gal (cm/s/s)
FACTOR DE DECIMACION                   : 1
FORMATO DATOS (FORTRAN,10 campos/dato) : 3F10.5


================================================================================
CALIDAD DEL ACELEROGRAMA:
REGISTRO DIGITAL COMPLETO CON TIEMPO ABSOLUTO CORRECTO.


================================================================================
COMENTARIOS:














================================================================================
DATOS DE ACELERACION:
---------+---------+---------+---------+---------+---------+---------+---------+
   CANAL-1   CANAL-2   CANAL-3   CANAL-4   CANAL-5   CANAL-6   CANAL-7   CANAL-8
      S00E        +V      N90W
---------+---------+---------+---------+---------+---------+---------+---------+
[...]
  14.70741  -0.02966   5.55783
  14.67748  -0.02966   5.90199
  14.63259  -0.08952   6.20127
  14.64755  -0.08952   6.53047
  14.63259  -0.08952   6.88960
  14.67748  -0.17930   7.23377
  14.72237  -0.31398   7.57793
  14.76726  -0.44865   7.83232
  14.79719  -0.53843   8.17648
  14.85704  -0.65814   8.50569
  14.96179  -0.77785   8.68525
  15.00668  -0.86764   8.95460
  15.09646  -0.89756   9.14913
  15.09646  -1.01727   9.26884
  15.17128  -1.04720   9.40351
  15.23114  -1.13698   9.58308
  15.29099  -1.13698   9.65790
  15.29099  -1.30158   9.74768
  15.33588  -1.33151   9.83746
  15.30596  -1.46619   9.85242
  15.27603  -1.58590   9.82250
  15.29099  -1.69064   9.79257
  15.21617  -1.76546   9.76264
  15.18625  -1.78042   9.65790
  15.09646  -1.82532   9.52322
  14.96179  -1.94503   9.37358
  14.84208  -1.95999   9.23891
  14.63259  -2.04977   9.07431
  14.42309  -2.12459   8.86482
  14.09389  -2.24430   8.68525
  13.77965  -2.28919   8.53561
  13.37563  -2.34905   8.35605
  12.91175  -2.46876   8.13159
  12.43291  -2.43883   7.95203
  11.87926  -2.46876   7.74253
  11.37049  -2.45379   7.53304
  10.74201  -2.48372   7.26369
  10.18835  -2.49868   7.08413
   9.54491  -2.49868   6.85967
   9.02118  -2.48372   6.65018
   8.42263  -2.46876   6.38083
   7.88393  -2.49868   6.14141
   7.34524  -2.45379   5.81221
   6.86640  -2.48372   5.58775
   6.35763  -2.46876   5.22862
   5.89375  -2.43883   4.92935
   5.44484  -2.39394   4.63007
   4.98096  -2.30416   4.31583
   4.51709  -2.27423   4.00159
   4.15795  -2.16948   3.76217
   3.67911  -2.07970   3.49283
   3.23020  -1.98992   3.29830
   2.84114  -1.90013   3.07384
   2.39223  -1.76546   2.90924
   1.98821  -1.54100   2.80449
   1.58419  -1.45122   2.63989
   1.19513  -1.21180   2.50522
   0.80607  -1.03224   2.43040
   0.47687  -0.88260   2.32565
   0.14767  -0.73296   2.25083
  -0.19650  -0.61325   2.16105
  -0.48081  -0.47858   2.10120
  -0.79505  -0.37383   2.04134
  -1.07936  -0.35887   1.92163
  -1.39360  -0.28405   1.86178
  -1.64798  -0.23916   1.77199
  -1.96222  -0.22419   1.72710
  -2.20164  -0.17930   1.53257
  -2.56077  -0.14937   1.48768
  -2.81516  -0.07456   1.36797
  -3.11443  -0.02966   1.29315
  -3.38378   0.06012   1.08366
  -3.68306   0.16486   1.05373
  -3.99729   0.23968   0.94899
  -4.28161   0.29954   0.81431
  -4.58088   0.35939   0.72453
  -4.82030   0.47910   0.51504
  -4.99987   0.53896   0.36540
  -5.17943   0.58385   0.14094
  -5.28418   0.71852  -0.03862
  -5.47871   0.77838  -0.27804
  -5.64331   0.77838  -0.56235
  -5.71813   0.80831  -0.78681
  -5.82287   0.80831  -1.13098
  -5.82287   0.82327  -1.34047
  -5.86776   0.86816  -1.68464
  -5.86776   0.86816  -1.95398
  -5.86776   0.88312  -2.22333
  -5.83784   0.91305  -2.38793
  -5.83784   0.92802  -2.61239
  -5.74805   0.94298  -2.71713
  -5.62834   0.98787  -2.89670
  -5.53856   1.04773  -2.89670
  -5.41885   1.04773  -2.97152
  -5.25425   1.04773  -2.92663
  -5.02979   1.06269  -2.79195
  -4.71555   1.04773  -2.64232
  -4.41628   1.04773  -2.40290
  -4.04219   1.12255  -2.14851
  -3.57831   1.12255  -1.66967
  -3.11443   1.15247  -1.34047
  -2.59070   1.15247  -0.84666
  -2.05201   1.15247  -0.38279
  -1.48338   1.16744   0.09605
  -0.85490   1.18240   0.58986
  -0.19650   1.25722   1.23330
   0.49183   1.22729   1.78696
   1.16520   1.28715   2.32565
   1.85354   1.33204   2.95413
   2.61669   1.34700   3.50779
   3.27509   1.37693   4.18116
   4.02328   1.40686   4.71985
   4.69665   1.39189   5.28848
   5.42987   1.40686   5.78228
   6.19303   1.31707   6.26112
   6.89632   1.22729   6.65018
   7.58466   1.12255   6.99435
   8.24306   1.01780   7.29362
   8.91643   0.91305   7.48815
   9.50002   0.85320   7.68268
  10.12850   0.73349   7.75750
  10.71208   0.62874   7.72757
  11.23581   0.55392   7.63779
  11.71465   0.46414   7.57793
  12.26831   0.40428   7.39837
  12.68730   0.28457   7.14398
  13.06139   0.13494   6.79982
  13.39060   0.04515   6.45565
  13.73476  -0.01470   6.08156
  14.06396  -0.08952   5.70746
  14.36324  -0.14937   5.25855
  14.58770  -0.19427   4.88446
  14.78222  -0.23916   4.33080
  14.94683  -0.29901   3.88188
  15.11143  -0.32894   3.38808
  15.26107  -0.37383   2.89428
  15.33588  -0.47858   2.37054
  15.38078  -0.49354   1.90667
  15.42567  -0.56836   1.38294
  15.45559  -0.62821   0.85920
  15.48552  -0.65814   0.35044
  15.44063  -0.70303  -0.27804
  15.35085  -0.68807  -0.78681
  15.24610  -0.76289  -1.34047
  15.12639  -0.68807  -1.95398
  14.94683  -0.73296  -2.64232
  14.76726  -0.71800  -3.25583
  14.49791  -0.74792  -3.82445
  14.19864  -0.79282  -4.33322
  13.89936  -0.82274  -4.70731
  13.49534  -0.91253  -5.12630
  13.15117  -0.94245  -5.50039
  12.70226  -1.04720  -5.88945
  12.28328  -1.09209  -6.17376
  11.77451  -1.16691  -6.39822
  11.22085  -1.24173  -6.44311
  10.59237  -1.30158  -6.45807
   9.87411  -1.40633  -6.38326
   9.12592  -1.54100  -6.35333
   8.39270  -1.63079  -6.27851
   7.58466  -1.70561  -6.17376
   6.79158  -1.84028  -6.20369
   6.02843  -1.85524  -6.17376
   5.13060  -1.93006  -6.17376
   4.30759  -1.94503  -6.21865
   3.42473  -2.00488  -6.27851
   2.54187  -2.03481  -6.33836
   1.73383  -2.06474  -6.59275
   0.88089  -2.10963  -6.75735
  -0.06183  -2.19941  -6.96684
  -0.89980  -2.18445  -7.26612
  -1.75273  -2.22934  -7.43072
  -2.62063  -2.27423  -7.77489
  -3.48853  -2.27423  -8.01431
  -4.26664  -2.36401  -8.28365
  -5.07469  -2.34905  -8.53804
  -5.89769  -2.42387  -8.68767
  -6.64588  -2.49868  -8.92710
  -7.42400  -2.54358  -9.15155
  -8.14226  -2.57350  -9.27126
  -8.84555  -2.58847  -9.42090
  -9.47403  -2.57350  -9.58550
 -10.13244  -2.57350  -9.76507
 -10.74595  -2.60343  -9.95959
 -11.26968  -2.55854 -10.06434
 -11.88320  -2.52861 -10.19901
 -12.45182  -2.52861 -10.40851
 -13.02044  -2.45379 -10.61800
 -13.55914  -2.42387 -10.78260
 -14.09783  -2.25926 -10.96217
 -14.65149  -2.18445 -11.11180
 -15.11537  -2.03481 -11.29137
 -15.66903  -1.94503 -11.41108
 -16.10298  -1.76546 -11.62057
 -16.55189  -1.67568 -11.72532
 -16.94095  -1.54100 -11.83006
 -17.35993  -1.39137 -11.88992
 -17.71906  -1.28662 -11.96474
 -17.97345  -1.16691 -12.00963
 -18.34754  -1.06216 -12.03956
 -18.52711  -0.88260 -12.05452
 -18.76653  -0.70303 -12.06948
 -18.97602  -0.61325 -12.08445
 -19.05084  -0.53843 -12.11438
 -19.14062  -0.43369 -12.17423
 -19.14062  -0.29901 -12.24905
 -19.15558  -0.20923 -12.33883
 -19.11069  -0.08952 -12.44358
 -19.06580   0.04515 -12.53336
 -18.99098   0.16486 -12.62314
 -18.87127   0.25465 -12.80271
 -18.75156   0.43421 -12.86256
 -18.63185   0.55392 -13.04213
 -18.48221   0.70356 -13.19177
 -18.27272   0.83823 -13.26659
 -18.12308   0.92802 -13.41622
 -17.88366   1.12255 -13.49104
 -17.65921   1.24226 -13.55090
 -17.35993   1.42182 -13.59579
 -17.03073   1.48168 -13.58082
 -16.68656   1.57146 -13.55090
 -16.32743   1.58642 -13.56586
 -15.93838   1.61635 -13.49104
 -15.48946   1.66124 -13.35637
 -15.02559   1.60139 -13.29651
 -14.53178   1.63131 -13.11695
 -14.03798   1.54153 -12.93738
 -13.54417   1.52657 -12.69796
 -13.00548   1.42182 -12.50343
 -12.48175   1.34700 -12.27898
 -11.94305   1.31707 -11.99467
 -11.35946   1.24226 -11.72532
 -10.82077   1.18240 -11.50086
 -10.23718   1.16744 -11.20159
  -9.68352   1.18240 -10.87238
  -9.04008   1.18240 -10.46836
  -8.42657   1.15247 -10.10923
  -7.84298   1.16744  -9.78003
  -7.19954   1.19736  -9.39097
  -6.52617   1.24226  -8.98695
  -5.83784   1.18240  -8.56796
  -5.17943   1.13751  -8.10409
  -4.46117   1.07765  -7.75992
  -3.74291   1.03276  -7.35590
  -3.02465   0.98787  -6.92195
  -2.27646   0.85320  -6.53289
  -1.54324   0.80831  -6.14384
  -0.78009   0.79334  -5.69492
  -0.04686   0.71852  -5.38068
   0.76118   0.70356  -4.93177
   1.44951   0.64370  -4.57264
   2.22763   0.68860  -4.16862
   2.99078   0.70356  -3.73467
   3.69408   0.70356  -3.39050
   4.39738   0.73349  -3.00145
   5.14556   0.79334  -2.64232
   5.78900   0.86816  -2.25326
   6.46237   0.89809  -1.93902
   7.12078   1.00283  -1.60982
   7.71933   1.00283  -1.34047
   8.30292   1.03276  -1.07112
   8.85658   1.10758  -0.89156
   9.39527   1.09262  -0.69703
   9.94893   1.07765  -0.56235
  10.48763   1.07765  -0.45761
  10.96647   1.06269  -0.36782
  11.47523   1.09262  -0.27804
  11.90918   1.04773  -0.29301
  12.37306   1.03276  -0.20322
  12.77708   1.00283  -0.21819
  13.19607   1.01780  -0.17330
  13.57016   1.04773  -0.20322
  13.88440   1.03276  -0.21819
  14.18367   0.97291  -0.24811
  14.42309   1.01780  -0.24811
  14.60266   1.04773  -0.23315
  14.75230   1.01780  -0.20322
  14.82712   0.98787  -0.24811
  14.90193   0.92802  -0.27804
  14.85704   0.89809  -0.24811
  14.70741   0.82327  -0.23315
  14.54280   0.79334  -0.21819
  14.33331   0.74845  -0.15833
  14.04900   0.70356  -0.15833
  13.71980   0.70356  -0.12840
  13.30081   0.67363  -0.06855
  12.86686   0.64370   0.00627
  12.38802   0.62874   0.09605
  11.89422   0.59881   0.18584
  11.29567   0.55392   0.27562
  10.77194   0.58385   0.35044
  10.18835   0.55392   0.42526
   9.55987   0.53896   0.57489
   8.88650   0.53896   0.63475
   8.19817   0.53896   0.78439
   7.46495   0.61378   0.79935
   6.73172   0.59881   0.76942
   5.98353   0.62874   0.78439
   5.22038   0.61378   0.76942
   4.38241   0.58385   0.73949
   3.66415   0.65867   0.64971
   2.87107   0.61378   0.54497
   2.06303   0.56889   0.35044
   1.21009   0.49407   0.18584
   0.37212   0.41925  -0.00869
  -0.40599   0.40428  -0.18826
  -1.25893   0.32947  -0.36782
  -2.12682   0.31450  -0.57732
  -2.96479   0.28457  -0.92148
  -3.78780   0.23968  -1.10105
  -4.62577   0.16486  -1.43025
  -5.37396   0.14990  -1.60982
  -6.31668   0.03019  -1.87916
  -7.09479  -0.02966  -1.99887
  -7.93276  -0.14937  -2.25326
  -8.80066  -0.31398  -2.44779
  -9.59374  -0.34390  -2.52261
 -10.49157  -0.50850  -2.68721
 -11.41932  -0.59829  -2.83684
 -12.30218  -0.68807  -2.88174
 -13.20001  -0.85267  -2.94159
 -14.03798  -0.94245  -3.00145
 -14.96573  -1.04720  -3.09123
 -15.87852  -1.12202  -3.01641
 -16.79131  -1.21180  -3.03137
 -17.65921  -1.21180  -2.97152
 -18.48221  -1.28662  -2.85181
 -19.33515  -1.33151  -2.80692
 -20.17312  -1.33151  -2.59742
 -20.93627  -1.31655  -2.47771
 -21.71439  -1.27166  -2.25326
 -22.46257  -1.24173  -2.07369
 -23.09105  -1.13698  -1.78938
 -23.77939  -1.12202  -1.60982
 -24.42283  -0.97238  -1.28061
 -25.03634  -0.86764  -1.01127
 -25.59000  -0.79282  -0.63717
 -26.09877  -0.68807  -0.33790
 -26.56265  -0.53843   0.02123
 -26.95170  -0.43369   0.42526
 -27.37069  -0.28405   0.75446
 -27.75975  -0.14937   1.17344
 -27.98420   2.6E-40   1.57746
 -28.23859   0.17983   1.98149
 -28.34333   0.38932   2.41544
 -28.44808   0.53896   2.77457
 -28.47801   0.74845   3.23844
 -28.29844   0.95794   3.68735
 -28.13384   1.12255   4.22605
 -27.84953   1.22729   4.73482
 -27.53529   1.30211   5.13884
 -27.17616   1.46671   5.43811
 -26.66739   1.60139   5.88703
 -26.08380   1.76599   6.27609
 -25.39547   1.91562   6.82974
 -24.70714   1.99044   7.23377
 -24.01881   2.12512   7.62282
 -23.22573   2.17001   7.95203
 -22.50747   2.28972   8.28123
 -21.65453   2.31965   8.53561
 -20.75671   2.37950   8.79000
 -19.72421   2.42439   9.07431
 -18.67674   2.42439   9.29877
 -17.61432   2.39446   9.62797
 -16.49203   2.31965   9.82250
 -15.26501   2.24483  10.10681
 -14.08287   2.22986  10.34623
 -12.82591   2.17001  10.66047
 -11.50910   2.12512  10.85500
 -10.20725   2.09519  11.16924
  -8.83059   2.08023  11.42362
  -7.48385   2.00541  11.67800
  -6.16704   1.99044  11.90246
  -4.82030   1.94555  12.09699
  -3.45860   1.96052  12.30648
  -2.17172   1.94555  12.48605
  -0.88483   1.93059  12.71050
   0.40205   1.85577  12.97985
   1.65901   1.79591  13.14445
   2.88604   1.78095  13.39884
   4.06817   1.67620  13.62329
   5.16053   1.52657  13.84775
   6.19303   1.51160  14.02731
   7.24049   1.40686  14.23681
   8.25803   1.31707  14.40141
   9.23067   1.16744  14.62586
  10.15842   1.06269  14.79047
  11.05625   0.91305  14.91018
  11.96904   0.82327  15.07478
  12.79204   0.65867  15.23938
  13.63002   0.50903  15.29923
  14.42309   0.41925  15.40398
  15.18625   0.28457  15.44887
  15.87458   0.11997  15.50873
  16.56291  -0.01470  15.47880
  17.20635  -0.17930  15.46383
  17.80490  -0.32894  15.41894
  18.35856  -0.44865  15.32916
  18.85237  -0.59829  15.26931
  19.37610  -0.76289  15.19449
  19.76516  -0.91253  15.04485
  20.16918  -1.07713  14.91018
  20.45349  -1.19684  14.71565
  20.75277  -1.31655  14.59594
  20.87248  -1.52604  14.47623
  21.05204  -1.66071  14.22184
  21.24657  -1.78042  14.13206
  21.29146  -1.90013  13.92257
  21.35132  -1.98992  13.75797
  21.35132  -2.04977  13.56344
  21.33635  -2.13955  13.53351
  21.33635  -2.18445  13.23423
  21.30642  -2.15452  13.18934
  21.18671  -2.24430  13.06963
  20.97722  -2.25926  12.90503
  20.76773  -2.27423  12.68057
  20.52831  -2.21437  12.59079
  20.10932  -2.25926  12.39626
  19.78012  -2.16948  12.36634
  19.28632  -2.03481  12.23166
  18.76259  -1.98992  12.23166
  18.22389  -1.88517  12.11195
  17.74505  -1.82532  11.99224
  17.05672  -1.73553  11.78275
  16.38335  -1.60086  11.76779
  15.75487  -1.48115  11.72289
  14.91690  -1.36144  11.52837
  14.22857  -1.22677  11.52837
  13.45045  -1.06216  11.39369
  12.70226  -0.94245  11.30391
  11.93911  -0.76289  11.25902
  11.14603  -0.65814  11.18420
  10.36792  -0.47858  11.12434
   9.66462  -0.31398  11.04953
   8.94636  -0.19427  11.00463
   8.24306  -0.01470  10.92981
   7.52480   0.10501  10.85500
   6.77661   0.22472  10.75025
   6.11821   0.37436  10.63054
   5.41491   0.49407  10.45097
   4.68169   0.59881  10.28637
   4.00832   0.74845  10.03199
   3.37984   0.89809   9.76264
   2.69151   1.00283   9.46337
   2.10792   1.07765   9.07431
   1.49441   1.18240   8.74511
   0.91082   1.34700   8.34108
   0.32723   1.34700   7.86224
  -0.25635   1.45175   7.45822
  -0.78009   1.48168   6.90456
  -1.33375   1.58642   6.42572
  -1.87244   1.63131   5.87206
  -2.38121   1.78095   5.28848
  -2.96479   1.79591   4.70489
  -3.48853   1.88570   4.15123
  -4.01226   1.90066   3.52275
  -4.61081   1.91562   2.92420
  -5.11958   2.02037   2.25083
  -5.64331   2.02037   1.59243
  -6.24186   1.93059   0.91906
  -6.73566   2.06526   0.30555
  -7.36414   2.06526  -0.33790
  -7.91780   2.12512  -1.10105
  -8.47146   2.12512  -1.72953
  -9.08497   2.09519  -2.40290
  -9.63863   2.09519  -3.10619
 -10.13244   2.05030  -3.67482
 -10.68610   2.05030  -4.21351
 -11.13501   2.02037  -4.78213
 -11.59888   1.96052  -5.26097
 -11.97298   1.88570  -5.69492
 -12.33211   1.79591  -6.06902
 -12.61642   1.76599  -6.36829
 -12.91570   1.69117  -6.60771
 -13.14015   1.54153  -6.90699
 -13.24490   1.54153  -7.10152
 -13.33468   1.36197  -7.25115
 -13.34964   1.25722  -7.37086
 -13.22993   1.12255  -7.46065
 -13.11022   1.00283  -7.55043
 -12.94562   0.82327  -7.59532
 -12.67628   0.71852  -7.49057
 -12.40693   0.61378  -7.47561
 -12.04780   0.47910  -7.35590
 -11.64378   0.32947  -7.26612
 -11.22479   0.22472  -7.08655
 -10.71602   0.10501  -6.87706
 -10.16236   0.01523  -6.68253
  -9.57878  -0.17930  -6.36829
  -8.96526  -0.29901  -6.11391
  -8.30686  -0.49354  -5.73981
  -7.54371  -0.65814  -5.36572
  -6.75063  -0.86764  -4.96170
  -5.88273  -1.01727  -4.63250
  -5.04476  -1.22677  -4.24344
  -4.07211  -1.40633  -3.85438
