********************************************************************************
               CENTRO DE INSTRUMENTACION Y REGISTRO SISMICO  A.C.  
                       Coordinacion de Servicios Tecnicos
     Anaxagoras 814, Col. Narvarte, Benito Juarez, C.P. 03020 Mexico, D.F.
            Tels. 687 45 42/ 687 45  82             Fax. 669 25 12
********************************************************************************
ARCHIVO ESTANDAR DE ACELERACION:
VERSION DEL FORMATO                    : 2.0
NOMBRE DEL ARCHIVO                     : AU119305.152
FECHA Y HORA DE CREACION               : 8 de febrero de 1996/17:45
REF. CATALOGO ACELEROGRAMAS, SMIS 1995 : REGISTRO No. 4229 /PAG. 386


================================================================================
DATOS DE LA ESTACION:
NOMBRE DE LA ESTACION                  : AUTODROMO
CLAVE DE LA ESTACION                   : AU11
LOCALIZACION DE LA ESTACION            : AUTODROMO HERMANOS RODRIGUEZ,
                                       : CHURUBUSCO, CD. DEPORTIVA
                                       :
                                       :
                                       :
COORDENADAS DE LA ESTACION             : 19.392 LAT. N 
                                       : 99.087 LONG. W 
ALTITUD (msnm)                         : 2234
TIPO DE SUELO                          : TERRENO BLANDO, MATERIAL COMPRESIBLE
                                       : (ARCILLAS)
                                       : 
INSTITUCION RESPONSABLE                : CIRES 
                                       :

================================================================================
DATOS DEL ACELEROGRAFO:
MODELO DEL ACELEROGRAFO                : SSA-1
NUMERO DE SERIE DEL ACELEROGRAFO       : 157
NUMERO DE CANALES                      : 3
ORIENTACION C1-C6 (rumbo;orientacion)  : /N00E/+V/N90E
ORIENTACION C7-C12 (rumbo;orientacion) :
VEL. DE MUESTREO, C1-C6 (muestras/s)   : /200/200/200
VEL. DE MUESTREO, C7-C12 (muestras/s)  :
ESC. COMPLETA DE SENSORES, C1-C6, (g)  : /2/2/2
ESC. COMPLETA DE SENSORES, C7-C12, (g) :
FREC. NAT. DE SENSORES, C1-C6, (Hz)    : /50/50/50
FREC. NAT. DE SENSORES, C7-C12, (Hz)   :
AMORTIGUAMIENTO DE SENSORES, C1-C6     : /0.700/0.700/0.700
AMORTIGUAMIENTO DE SENSORES, C7-C12    :
INTERVALO DE MUESTREO, C1-C6, (s)      : /0.005/0.005/0.005
INTERVALO DE MUESTREO, C7-C12, (s)     :
UMBRAL DE DISPARO, C1-C6, (Gal)        : /2/1/2
UMBRAL DE DISPARO, C7-C12, (Gal)       :
MEMORIA DE PREEVENTO (s)               : 15
TIEMPO DE POSEVENTO (s)                : 90


================================================================================
DATOS DEL SISMO:
FECHA DEL SISMO (GMT)                  : 15/MAY/93
HORA EPICENTRO (GMT)                   : 3:11:56,0 
MAGNITUD(ES)                           : /Mb=5.90/Ms=5.90/Mc=6.00
COORDENADAS DEL EPICENTRO              : 16.470 LAT. N 
                                       : 98.720 LONG. W 
PROFUNDIDAD FOCAL (km)                 : < 5
FUENTE DE LOS DATOS EPICENTRALES       : SSN
                                       : INSTITUTO DE GEOFISICA, UNAM

================================================================================
DATOS DE ESTE REGISTRO:
HORA DE LA PRIMERA MUESTRA (GMT)       : 03:13:00.00
EXACTITUD DEL TIEMPO (s)               :     
DURACION DEL REGISTRO (s), C1-C6       : /186.88/186.88/186.88
DURACION DEL REGISTRO (s), C7-C12      :
NUM. TOTAL DE MUESTRAS, C1-C6          : /37376/37376/37376
NUM. TOTAL DE MUESTRAS, C7-C12         :
ACEL. MAX. (Gal), C1-C6                : /6.04460/1.90115/4.05596
ACEL. MAX., C1-C6, EN LA MUESTRA       :
ACEL. MAX. (Gal), C7-C12               :
ACEL. MAX., C7-C12, EN LA MUESTRA      :
UNIDADES DE LOS DATOS                  : Gal (cm/s/s)
FACTOR DE DECIMACION                   : 1
FORMATO DATOS (FORTRAN,10 campos/dato) : 3F10.5


================================================================================
CALIDAD DEL ACELEROGRAMA:
REGISTRO DIGITAL COMPLETO, CARECE DE TIEMPO ABSOLUTO.


================================================================================
COMENTARIOS: 
             Los equipos se encontraban con una ganancia de 4 en el
             eje vertical y de 2 en los ejes horizontales, por lo que
             las escalas completas del equipo eran de 1/2 g y 1 g
             respectivamente.










================================================================================
DATOS DE ACELERACION:
---------+---------+---------+---------+---------+---------+---------+---------+
   CANAL-1   CANAL-2   CANAL-3   CANAL-4   CANAL-5   CANAL-6   CANAL-7   CANAL-8
      N00E        +V      N90E
---------+---------+---------+---------+---------+---------+---------+---------+
[...]
   2.21460  -0.01885   1.69404
   2.21460  -0.01885   2.17404
   2.21460  -0.01885   2.17404
   2.21460  -0.01885   2.17404
   2.21460  -0.01885   2.17404
   2.21460  -0.01885   2.17404
   2.21460  -0.01885   2.17404
   2.21460  -0.01885   2.65404
   2.21460   0.22115   2.65404
   2.21460   0.22115   2.65404
   2.21460   0.22115   2.65404
   2.21460   0.22115   2.65404
   2.21460   0.22115   2.65404
   2.21460   0.22115   2.65404
   2.21460   0.22115   3.13404
   2.21460   0.22115   3.13404
   2.21460   0.22115   3.13404
   1.73460   0.22115   3.13404
   1.73460   0.46115   3.13404
   1.73460   0.22115   3.13404
   1.73460   0.46115   3.13404
   1.73460   0.46115   3.13404
   1.73460   0.46115   3.13404
   1.73460   0.46115   3.13404
   1.73460   0.46115   3.61404
   1.25460   0.46115   3.13404
   1.25460   0.46115   3.61404
   1.25460   0.46115   3.61404
   1.25460   0.46115   3.61404
   1.25460   0.46115   3.61404
   1.25460   0.70115   3.61404
   1.25460   0.70115   3.61404
   1.25460   0.70115   3.61404
   0.77460   0.70115   3.61404
   0.77460   0.70115   3.61404
   0.77460   0.70115   3.61404
   0.77460   0.70115   3.61404
   0.77460   0.70115   3.61404
   0.77460   0.70115   3.61404
   0.77460   0.94115   3.61404
   0.77460   0.70115   3.13404
   0.77460   0.94115   2.65404
   0.77460   0.94115   3.61404
   0.77460   0.94115   3.61404
   0.77460   0.94115   3.13404
   0.77460   0.94115   3.13404
   0.77460   0.94115   3.13404
   0.77460   1.18115   3.13404
   0.77460   1.18115   3.13404
   0.77460   1.18115   2.65404
   0.77460   1.18115   3.13404
   0.77460   1.18115   2.65404
   0.77460   1.18115   2.65404
   0.77460   1.18115   2.65404
   0.77460   1.18115   1.69404
   0.77460   1.18115   2.17404
   0.77460   1.18115   2.65404
   1.25460   1.18115   2.17404
   1.25460   1.18115   2.17404
   1.25460   1.18115   2.17404
   1.25460   1.18115   1.69404
   1.25460   1.18115   1.69404
   1.25460   1.18115   1.69404
   1.25460   1.18115   1.69404
   1.25460   1.18115   1.69404
   1.25460   1.18115   1.69404
   1.73460   1.18115   1.21404
   1.73460   0.94115   1.21404
   1.73460   0.94115   1.21404
   1.73460   0.94115   0.73404
   1.73460   1.18115   0.73404
   1.73460   0.94115   0.73404
   1.73460   0.94115   0.73404
   1.73460   0.94115   0.73404
   1.73460   0.94115   0.73404
   2.21460   0.94115   0.25404
   1.73460   0.94115   0.25404
   1.73460   0.94115   0.25404
   2.21460   0.94115   0.25404
   2.21460   0.94115   0.25404
   2.21460   0.94115   0.25404
   2.21460   0.94115   0.25404
   2.21460   0.70115  -0.21596
   1.73460   0.70115   0.25404
   2.21460   0.70115  -0.21596
   2.21460   0.70115  -0.21596
   2.21460   0.70115   0.25404
   2.21460   0.70115   0.25404
   2.21460   0.70115   0.25404
   2.21460   0.70115  -0.21596
   1.73460   0.70115  -0.21596
   1.73460   0.70115  -0.21596
   1.73460   0.46115   0.25404
   1.73460   0.46115  -0.21596
   1.73460   0.46115   0.25404
   1.73460   0.46115   0.25404
   1.25460   0.46115   0.25404
   1.73460   0.22115   0.25404
   1.25460   0.22115   0.25404
   1.25460   0.22115   0.25404
   1.25460   0.22115  -0.21596
   0.77460   0.22115   0.25404
   0.77460   0.22115   0.25404
   0.77460  -0.01885   0.25404
   0.77460  -0.01885   0.25404
   0.29460  -0.01885   0.25404
   0.29460  -0.01885   0.25404
   0.29460  -0.01885   0.25404
  -0.18540  -0.01885  -0.21596
  -0.18540  -0.01885   0.25404
  -0.18540  -0.25885   0.25404
  -0.18540  -0.25885   0.25404
  -0.66540  -0.25885  -0.21596
  -0.66540  -0.25885   0.25404
  -0.66540  -0.72885  -0.21596
  -1.14540  -0.25885  -0.21596
  -1.14540  -0.25885  -0.21596
  -1.14540  -0.25885  -0.21596
  -1.14540  -0.25885  -0.21596
  -1.62540  -0.25885  -0.21596
  -1.62540  -0.25885  -0.21596
  -2.10540  -0.25885  -0.21596
  -2.10540  -0.25885  -0.21596
  -2.10540  -0.25885  -0.21596
  -2.10540  -0.25885  -0.69596
  -2.57540  -0.25885  -0.21596
  -2.57540  -0.25885  -0.21596
  -2.57540  -0.25885  -0.21596
  -3.05540  -0.25885  -0.21596
  -3.05540  -0.25885  -0.21596
  -3.05540  -0.25885  -0.21596
  -3.05540  -0.25885  -0.21596
  -3.53540  -0.25885  -0.21596
  -3.53540  -0.25885  -0.21596
  -3.53540  -0.25885  -0.21596
  -3.53540  -0.25885  -0.21596
  -3.53540  -0.25885  -0.69596
  -4.01540  -0.25885  -0.21596
  -4.01540  -0.25885  -0.21596
  -4.01540  -0.25885  -0.21596
  -4.01540  -0.25885  -0.21596
  -4.49540  -0.25885  -0.69596
  -4.49540  -0.25885  -0.69596
  -4.49540  -0.25885  -0.21596
  -4.49540  -0.25885  -0.21596
  -4.49540  -0.25885  -0.69596
  -4.97540  -0.25885  -0.69596
  -4.97540  -0.25885  -0.69596
  -4.97540  -0.25885  -0.69596
  -4.97540  -0.25885  -0.21596
  -4.97540  -0.25885  -0.69596
  -4.97540  -0.25885  -0.69596
  -4.97540  -0.25885  -0.69596
  -5.45540  -0.25885  -0.69596
  -5.45540  -0.25885  -0.69596
  -5.45540  -0.25885  -0.69596
  -5.45540  -0.25885  -0.69596
  -5.45540  -0.25885  -0.69596
  -5.45540  -0.25885  -0.69596
  -5.45540  -0.48885  -0.69596
  -5.93540  -0.25885  -0.69596
  -5.93540  -0.25885  -0.69596
  -5.93540  -0.25885  -0.69596
  -5.93540  -0.25885  -0.69596
  -5.93540  -0.25885  -0.69596
  -5.93540  -0.25885  -0.69596
  -5.93540  -0.25885  -0.69596
  -5.93540  -0.25885  -0.69596
  -5.93540  -0.25885  -0.69596
  -5.93540  -0.25885  -0.21596
  -5.45540  -0.25885  -0.69596
  -5.93540  -0.25885  -0.69596
  -5.93540  -0.25885  -0.69596
  -5.45540  -0.25885  -0.21596
  -5.45540  -0.25885  -0.21596
  -5.45540  -0.25885  -0.69596
  -5.45540  -0.25885  -0.21596
  -5.45540  -0.48885  -0.21596
  -5.45540  -0.48885  -0.21596
  -5.45540  -0.48885  -0.21596
  -4.97540  -0.48885  -0.21596
  -4.97540  -0.48885  -0.21596
  -4.97540  -0.48885  -0.21596
  -4.49540  -0.48885  -0.21596
  -4.49540  -0.48885  -0.21596
  -4.49540  -0.48885  -0.21596
  -4.49540  -0.72885  -0.21596
  -4.01540  -0.48885  -0.21596
  -4.01540  -0.72885   0.25404
  -4.01540  -0.72885   0.25404
  -3.53540  -0.72885   0.25404
  -3.53540  -0.72885   0.25404
  -3.53540  -0.72885   0.25404
  -3.53540  -0.72885   0.25404
  -3.05540  -0.72885   0.25404
  -3.05540  -0.72885   0.25404
  -3.05540  -0.72885   0.25404
  -3.05540  -0.72885   0.73404
  -2.57540  -0.72885   0.73404
  -2.57540  -0.72885   0.73404
  -2.57540  -0.96885   0.73404
  -2.57540  -0.96885   0.73404
  -2.10540  -0.96885   0.73404
  -2.10540  -0.96885   0.73404
  -2.10540  -0.96885   0.73404
  -2.10540  -0.96885   0.73404
  -2.10540  -0.96885   0.73404
  -2.10540  -0.96885   0.73404
  -1.62540  -0.96885   0.73404
  -1.62540  -0.96885   0.73404
  -1.62540  -0.96885   0.73404
  -1.14540  -0.96885   0.73404
  -1.14540  -0.96885   0.73404
  -1.14540  -0.96885   0.73404
  -1.14540  -0.96885   0.73404
  -1.14540  -0.96885   0.73404
  -1.14540  -0.72885   0.25404
  -1.14540  -0.72885   0.73404
  -0.66540  -0.96885   0.73404
  -0.66540  -0.72885   0.73404
  -0.66540  -0.72885   0.73404
  -0.66540  -0.72885   0.73404
  -0.66540  -0.72885   0.73404
  -0.18540  -0.72885   0.73404
  -0.18540  -0.72885   0.73404
  -0.18540  -0.72885   0.73404
  -0.18540  -0.72885   0.73404
  -0.18540  -0.72885   0.73404
  -0.18540  -0.72885   0.73404
  -0.18540  -0.72885   0.73404
  -0.18540  -0.72885   0.73404
  -0.18540  -0.72885   0.25404
  -0.18540  -0.72885   0.25404
  -0.18540  -0.72885   0.25404
  -0.18540  -0.72885   0.25404
  -0.18540  -0.72885   0.25404
  -0.18540  -0.72885   0.25404
  -0.18540  -0.72885   0.25404
  -0.18540  -0.48885   0.25404
  -0.18540  -0.48885  -0.21596
  -0.18540  -0.48885  -0.21596
  -0.18540  -0.48885  -0.21596
  -0.18540  -0.48885  -0.21596
  -0.18540  -0.25885  -0.21596
  -0.66540  -0.48885  -0.21596
  -0.66540  -0.48885  -0.21596
  -0.66540  -0.25885  -0.21596
  -0.66540  -0.25885  -0.69596
  -0.66540  -0.25885  -0.69596
  -0.66540  -0.25885  -0.69596
  -0.66540  -0.25885  -0.69596
  -1.14540  -0.25885  -0.69596
  -1.14540  -0.25885  -1.17596
  -1.14540  -0.25885  -1.17596
  -1.14540  -0.01885  -1.17596
  -1.14540  -0.01885  -1.17596
  -1.14540  -0.01885  -1.17596
  -1.14540  -0.01885  -1.17596
  -1.14540  -0.01885  -1.17596
  -1.62540  -0.01885  -1.65596
  -1.62540  -0.01885  -1.65596
  -1.62540  -0.01885  -1.65596
  -1.62540   0.22115  -1.65596
  -1.62540   0.22115  -1.65596
  -1.62540   0.22115  -1.65596
  -1.62540   0.22115  -1.65596
  -1.62540   0.22115  -1.65596
  -1.62540   0.22115  -1.65596
  -1.62540   0.22115  -1.65596
  -1.62540   0.22115  -1.65596
  -2.10540   0.22115  -1.65596
  -2.10540   0.22115  -1.65596
  -2.10540   0.46115  -1.65596
  -1.62540   0.46115  -1.65596
  -1.62540   0.46115  -1.65596
  -1.62540   0.22115  -2.13596
  -1.62540   0.46115  -1.65596
  -1.62540   0.46115  -1.65596
  -1.62540   0.46115  -1.65596
  -1.62540   0.46115  -1.65596
  -1.62540   0.46115  -1.65596
  -1.62540   0.46115  -1.65596
  -1.62540   0.46115  -1.65596
  -1.62540   0.46115  -1.65596
  -1.62540   0.46115  -1.17596
  -1.62540   0.70115  -1.17596
  -1.62540   0.46115  -1.17596
  -1.14540   0.70115  -1.17596
  -1.14540   0.70115  -1.17596
  -1.14540   0.70115  -1.17596
  -1.14540   0.70115  -1.17596
  -1.14540   0.70115  -1.17596
  -1.14540   0.70115  -1.17596
  -0.66540   0.70115  -1.17596
  -0.66540   0.70115  -1.17596
  -0.66540   0.70115  -1.17596
  -0.18540   0.70115  -1.17596
  -0.18540   0.70115  -1.17596
  -0.18540   0.70115  -1.17596
  -0.18540   0.70115  -1.17596
  -0.18540   0.70115  -1.17596
  -0.18540   0.70115  -1.17596
  -0.18540   0.70115  -1.17596
   0.29460   0.46115  -1.17596
   0.29460   0.70115  -1.17596
   0.77460   0.46115  -1.17596
   0.77460   0.46115  -1.17596
   0.77460   0.46115  -1.17596
   1.25460   0.46115  -1.17596
   1.25460   0.46115  -1.17596
   1.73460   0.46115  -1.65596
   1.73460   0.46115  -1.17596
   1.73460   0.46115  -1.17596
   1.73460   0.46115  -1.17596
   2.21460   0.22115  -1.17596
   2.21460   0.46115  -1.17596
   1.73460   0.22115  -1.17596
   2.69460   0.22115  -1.17596
   2.69460   0.22115  -1.17596
   2.69460   0.22115  -1.17596
   3.16460   0.22115  -1.17596
   3.16460   0.22115  -1.17596
   3.64460   0.22115  -1.17596
   3.64460  -0.01885  -1.17596
   3.64460   0.22115  -1.17596
   4.12460   0.22115  -1.17596
   4.12460  -0.01885  -1.17596
   4.12460   0.22115  -1.17596
   4.12460   0.22115  -1.17596
   4.60460  -0.01885  -1.17596
   4.60460  -0.01885  -1.17596
   4.60460  -0.01885  -1.17596
   4.60460  -0.01885  -1.17596
   5.08460  -0.01885  -1.17596
   5.08460  -0.01885  -0.69596
   5.08460  -0.01885  -0.69596
   5.08460  -0.01885  -0.69596
   5.08460  -0.01885  -0.69596
   5.56460  -0.01885  -0.69596
   5.56460  -0.01885  -0.69596
   5.56460  -0.01885  -0.69596
   5.56460  -0.01885  -0.69596
   5.56460  -0.01885  -0.21596
   5.56460  -0.01885  -0.21596
   6.04460  -0.01885  -0.21596
   6.04460  -0.01885  -0.21596
   6.04460  -0.01885  -0.21596
   6.04460  -0.01885  -0.21596
   6.04460  -0.01885  -0.21596
   6.04460  -0.01885  -0.21596
   6.04460   0.22115   0.25404
   6.04460  -0.01885  -0.21596
   6.04460   0.22115   0.25404
   6.04460   0.22115   0.25404
   6.04460   0.22115   0.25404
   6.04460  -0.01885   0.25404
   6.04460   0.22115   0.25404
   6.04460   0.22115   0.25404
   6.04460   0.22115   0.25404
   6.04460   0.22115   0.25404
   6.04460   0.22115   0.73404
   6.04460   0.22115   0.25404
   6.04460   0.22115   0.73404
   6.04460   0.22115   0.73404
   6.04460   0.22115   0.25404
   6.04460   0.22115   0.73404
   5.56460   0.46115   0.73404
   5.56460   0.46115   0.73404
   5.56460   0.46115   0.73404
   5.56460   0.46115   0.73404
   5.56460   0.46115   0.73404
   5.56460   0.46115   0.73404
   5.56460   0.46115   0.73404
   5.56460   0.46115   0.73404
   5.56460   0.46115   0.73404
   5.56460   0.46115   0.73404
   5.08460   0.46115   0.73404
   5.08460   0.46115   0.73404
   5.08460   0.46115   0.73404
   5.08460   0.46115   0.73404
   5.08460   0.46115   0.73404
   5.08460   0.70115   0.73404
   5.08460   0.70115   0.73404
   5.08460   0.70115   0.73404
   4.60460   0.70115   0.73404
   4.60460   0.70115   0.73404
   4.60460   0.70115   0.73404
   4.60460   0.70115   0.73404
   4.60460   0.70115   0.73404
   4.60460   0.70115   0.73404
   4.60460   0.70115   0.73404
   4.60460   0.70115   0.73404
   4.12460   0.70115   0.73404
   4.12460   0.70115   0.73404
   4.12460   0.22115   0.73404
   3.64460   0.70115   0.73404
   4.12460   0.70115   0.73404
   3.64460   0.70115   0.73404
   3.64460   0.70115   0.73404
   3.64460   0.70115   0.73404
   3.64460   0.70115   0.73404
   3.64460   0.70115   0.25404
   3.64460   0.70115   0.25404
   3.16460   0.70115   0.25404
   3.16460   0.70115   0.73404
   3.16460   0.70115   0.73404
   3.16460   0.70115   0.73404
   2.69460   0.70115   0.73404
   2.69460   0.70115   0.73404
   2.69460   0.70115   0.73404
   2.69460   0.70115   0.73404
   2.69460   0.46115   0.73404
   2.69460   0.46115   0.73404
   2.21460   0.46115   0.73404
   2.21460   0.46115   0.73404
   2.21460   0.46115   0.73404
   2.21460   0.46115   0.73404
   1.73460   0.46115   0.73404
   1.73460   0.46115   0.73404
   1.73460   0.22115   0.73404
   1.73460   0.46115   0.73404
   1.73460   0.22115   0.73404
   1.25460   0.22115   0.73404
   1.25460   0.22115   0.73404
   1.25460   0.22115   0.73404
   0.77460   0.22115   0.73404
   0.77460   0.22115   0.73404
   0.77460   0.22115   0.73404
   0.77460   0.22115   0.73404
   0.77460   0.22115   0.73404
   0.29460   0.22115   0.73404
   0.29460   0.22115   0.73404
   0.29460   0.22115   0.73404
   0.29460  -0.01885   0.73404
  -0.18540   0.22115   0.73404
  -0.18540   0.22115   0.73404
  -0.18540   0.22115   0.73404
  -0.18540   0.22115   0.73404
  -0.18540   0.22115   0.73404
  -0.18540   0.22115   0.73404
  -0.66540   0.22115   0.73404
  -0.66540   0.22115   0.25404
  -0.66540   0.22115   0.25404
  -0.66540   0.22115   0.25404
  -0.66540   0.22115   0.25404
  -1.14540   0.22115   0.25404
  -1.14540   0.22115   0.25404
  -1.14540   0.22115   0.25404
  -1.14540   0.22115   0.25404
  -1.14540   0.22115  -0.21596
  -1.14540   0.22115  -0.21596
  -1.14540   0.22115  -0.21596
  -1.14540   0.22115  -0.21596
  -1.14540   0.22115  -0.21596
  -1.14540   0.22115  -0.21596
  -1.14540   0.22115  -0.21596
  -1.14540   0.22115  -0.21596
  -1.14540   0.22115  -0.21596
  -1.62540   0.22115  -0.21596
  -1.62540   0.22115  -0.21596
  -1.62540   0.22115  -1.17596
  -1.14540   0.22115  -0.69596
  -1.14540   0.22115  -0.69596
  -1.14540   0.22115  -0.69596
  -1.62540   0.22115  -0.69596
  -1.14540   0.22115  -0.69596
  -1.14540  -0.01885  -0.69596
  -1.14540   0.22115  -0.69596
  -1.14540  -0.01885  -0.69596
  -1.14540   0.22115  -0.69596
  -1.14540  -0.01885  -1.17596
  -1.14540   0.22115  -1.17596
  -1.14540   0.22115  -1.17596
  -1.14540   0.22115  -1.17596
  -1.14540  -0.01885  -1.17596
  -1.14540  -0.01885  -1.17596
  -1.14540  -0.01885  -1.17596
  -1.14540  -0.01885  -1.17596
  -1.14540   0.22115  -1.17596
  -1.14540  -0.01885  -1.17596
  -1.14540  -0.01885  -1.17596
  -0.66540  -0.01885  -1.17596
  -1.14540  -0.01885  -1.65596
  -1.14540  -0.01885  -1.17596
  -1.14540  -0.01885  -1.17596
  -1.14540  -0.01885  -1.17596
  -0.66540  -0.01885  -1.17596
  -0.66540  -0.01885  -1.17596
  -0.66540  -0.01885  -1.17596
  -0.66540  -0.01885  -1.17596
  -0.66540  -0.01885  -1.17596
  -0.66540  -0.01885  -1.17596
