********************************************************************************
               CENTRO DE INSTRUMENTACION Y REGISTRO SISMICO  A.C.  
                              FUNDACION ICA, A.C.
     Anaxagoras 814, Col. Narvarte, Benito Juarez, C.P. 03020 Mexico, D.F.
            Tels. 687 45 42/ 687 45  82             Fax. 669 25 12
********************************************************************************
ARCHIVO ESTANDAR DE ACELERACION:
VERSION DEL FORMATO                    : 2.0
NOMBRE DEL ARCHIVO                     : AU119005.311
FECHA Y HORA DE CREACION               : ABRIL 16, 1996/19:47
REF. CATALOGO ACELEROGRAMAS, SMIS 1995 : REGISTRO No. 2190 /PAG. 214


================================================================================
DATOS DE LA ESTACION:
NOMBRE DE LA ESTACION                  : AUTODROMO
CLAVE DE LA ESTACION                   : AU11
LOCALIZACION DE LA ESTACION            : AUTODROMO HERMANOS RODRIGUEZ,
                                       : CHURUBUSCO, CD. DEPORTIVA
                                       :
                                       :
                                       :
COORDENADAS DE LA ESTACION             : 19.392 LAT. N 
                                       : 99.087 LONG. W 
ALTITUD (msnm)                         : 2234
TIPO DE SUELO                          : TERRENO BLANDO, MATERIAL COMPRESIBLE
                                       : (ARCILLAS)
                                       : 
INSTITUCION RESPONSABLE                : FICA
                                       :

================================================================================
DATOS DEL ACELEROGRAFO:
MODELO DEL ACELEROGRAFO                : SSA-1
NUMERO DE SERIE DEL ACELEROGRAFO       : 157
NUMERO DE CANALES                      : 3
ORIENTACION C1-C6 (rumbo;orientacion)  : /N00E/+V/N90E
ORIENTACION C7-C12 (rumbo;orientacion) :
VEL. DE MUESTREO, C1-C6 (muestras/s)   : /200/200/200
VEL. DE MUESTREO, C7-C12 (muestras/s)  :
ESC. COMPLETA DE SENSORES, C1-C6, (g)  : /2/2/2
ESC. COMPLETA DE SENSORES, C7-C12, (g) :
FREC. NAT. DE SENSORES, C1-C6, (Hz)    : /50/50/50
FREC. NAT. DE SENSORES, C7-C12, (Hz)   :
AMORTIGUAMIENTO DE SENSORES, C1-C6     : /0.700/0.700/0.700
AMORTIGUAMIENTO DE SENSORES, C7-C12    :
INTERVALO DE MUESTREO, C1-C6, (s)      : /0.005/0.005/0.005
INTERVALO DE MUESTREO, C7-C12, (s)     :
UMBRAL DE DISPARO, C1-C6, (Gal)        : /2/1/2
UMBRAL DE DISPARO, C7-C12, (Gal)       :
MEMORIA DE PREEVENTO (s)               : 15
TIEMPO DE POSEVENTO (s)                : 90


================================================================================
DATOS DEL SISMO:
FECHA DEL SISMO (GMT)                  : 31/MAY/90
HORA EPICENTRO (GMT)                   : 07:35:26,9 
MAGNITUD(ES)                           : /Mb=5.80/Ms=5.90/Mc=5.50
COORDENADAS DEL EPICENTRO              : 17.106 LAT. N 
                                       : 100.893 LONG. W
PROFUNDIDAD FOCAL (km)                 : 15.8 
FUENTE DE LOS DATOS EPICENTRALES       : INSTITUTO DE INGENIERIA UNAM
                                       : 

================================================================================
DATOS DE ESTE REGISTRO:
HORA DE LA PRIMERA MUESTRA (GMT)       : 07:35:27.00
EXACTITUD DEL TIEMPO (s)               :     
DURACION DEL REGISTRO (s), C1-C6       : /177.92/177.92/177.92
DURACION DEL REGISTRO (s), C7-C12      :
NUM. TOTAL DE MUESTRAS, C1-C6          : /35584/35584/35584
NUM. TOTAL DE MUESTRAS, C7-C12         :
ACEL. MAX. (Gal), C1-C6                : /11.08565/2.48843/7.06651
ACEL. MAX., C1-C6, EN LA MUESTRA       :
ACEL. MAX. (Gal), C7-C12               :
ACEL. MAX., C7-C12, EN LA MUESTRA      :
UNIDADES DE LOS DATOS                  : Gal (cm/s/s)
FACTOR DE DECIMACION                   : 1
FORMATO DATOS (FORTRAN,10 campos/dato) : 3F10.5


================================================================================
CALIDAD DEL ACELEROGRAMA:
REGISTRO DIGITAL COMPLETO, CARECE DE TIEMPO ABSOLUTO.


================================================================================
COMENTARIOS:














================================================================================
DATOS DE ACELERACION:
---------+---------+---------+---------+---------+---------+---------+---------+
   CANAL-1   CANAL-2   CANAL-3   CANAL-4   CANAL-5   CANAL-6   CANAL-7   CANAL-8
      N00E        +V      N90E
---------+---------+---------+---------+---------+---------+---------+---------+
[...]
  -3.42565   0.09843  -4.43349
  -3.42565   0.09843  -4.43349
  -3.90565   0.57843  -4.43349
  -3.90565   0.09843  -4.43349
  -4.38565   0.09843  -4.91349
  -3.90565   0.09843  -4.43349
  -3.90565   0.09843  -4.91349
  -4.38565  -0.38157  -4.91349
  -4.38565   0.57843  -4.91349
  -4.38565   0.09843  -4.91349
  -4.38565   0.09843  -4.91349
  -4.38565   0.09843  -4.91349
  -4.38565   0.09843  -4.91349
  -4.85565   0.09843  -4.91349
  -4.38565   0.09843  -4.91349
  -4.38565   0.09843  -4.91349
  -4.38565   0.09843  -4.91349
  -4.38565   0.09843  -4.91349
  -4.38565   0.09843  -4.91349
  -4.85565   0.09843  -4.43349
  -4.85565   0.09843  -4.91349
  -4.85565   0.09843  -4.91349
  -4.85565   0.09843  -4.91349
  -4.85565   0.09843  -4.91349
  -4.85565   0.09843  -4.43349
  -4.85565   0.09843  -4.43349
  -4.85565   0.09843  -4.43349
  -4.85565   0.09843  -4.43349
  -4.85565   0.57843  -4.43349
  -4.85565   0.09843  -4.91349
  -4.85565   0.09843  -4.43349
  -4.85565   0.09843  -4.43349
  -5.33565  -0.38157  -4.43349
  -4.85565   0.09843  -4.43349
  -5.33565  -0.38157  -4.43349
  -5.33565  -0.38157  -4.43349
  -5.33565  -0.38157  -4.43349
  -5.33565   0.09843  -4.43349
  -5.33565   0.09843  -3.95349
  -5.33565  -0.38157  -3.95349
  -5.33565  -0.38157  -3.95349
  -5.33565  -0.38157  -3.95349
  -5.33565  -0.38157  -3.95349
  -5.33565  -0.38157  -3.95349
  -5.81565  -0.38157  -3.95349
  -5.33565  -0.38157  -3.95349
  -5.33565  -0.38157  -3.95349
  -5.33565  -0.38157  -3.95349
  -5.33565  -0.38157  -3.95349
  -5.81565  -0.38157  -3.95349
  -5.81565  -0.38157  -3.95349
  -5.81565  -0.38157  -3.95349
  -5.81565  -0.38157  -3.95349
  -5.33565  -0.38157  -3.95349
  -5.81565  -0.38157  -3.95349
  -5.81565  -0.38157  -3.95349
  -5.81565  -0.38157  -3.47349
  -5.33565  -0.38157  -3.95349
  -5.33565  -0.38157  -3.95349
  -5.81565   0.09843  -3.95349
  -5.81565   0.09843  -3.95349
  -5.33565   0.09843  -4.43349
  -5.33565  -0.38157  -3.95349
  -5.81565   0.09843  -3.95349
  -5.81565   0.09843  -3.95349
  -5.33565   0.09843  -3.95349
  -5.33565   0.09843  -3.47349
  -5.81565   0.09843  -3.47349
  -5.33565   0.09843  -3.47349
  -5.33565   0.09843  -3.47349
  -5.33565   0.09843  -3.47349
  -5.33565   0.57843  -3.47349
  -5.33565   0.57843  -3.47349
  -5.33565   0.57843  -3.47349
  -5.33565   0.57843  -2.99349
  -5.33565   0.57843  -2.99349
  -4.85565   0.57843  -2.99349
  -4.85565   0.57843  -2.99349
  -4.85565   0.57843  -2.51349
  -4.85565   0.57843  -2.51349
  -4.85565   0.57843  -2.51349
  -4.38565   0.57843  -2.51349
  -4.38565   0.57843  -2.03349
  -4.38565   0.57843  -2.03349
  -4.38565   0.57843  -2.03349
  -4.38565   0.57843  -1.55349
  -3.90565   0.57843  -1.55349
  -3.90565   0.57843  -1.55349
  -3.90565   0.09843  -1.07349
  -3.90565   0.57843  -1.07349
  -3.42565   0.57843  -1.07349
  -3.42565   0.09843  -0.59349
  -3.42565   0.57843  -0.59349
  -3.42565   0.57843  -0.12349
  -3.42565   0.57843  -0.12349
  -2.94565   0.57843  -0.12349
  -2.94565   0.57843   0.35651
  -2.46565   0.57843   0.35651
  -2.46565   0.57843   0.83651
  -2.46565   0.57843   0.83651
  -2.46565   0.57843   1.31651
  -2.46565   0.57843   1.31651
  -2.46565   0.57843   1.79651
  -1.98565   0.57843   1.31651
  -1.98565   0.57843   1.79651
  -1.98565   0.57843   1.79651
  -1.98565   0.57843   2.27651
  -1.98565   0.57843   2.27651
  -1.50565   0.57843   2.27651
  -1.50565   0.57843   2.27651
  -1.50565   0.57843   2.75651
  -1.02565   0.57843   2.75651
  -1.02565   0.57843   2.75651
  -1.02565   0.57843   3.23651
  -1.02565   0.57843   3.23651
  -1.02565   0.57843   3.23651
  -0.54565   0.57843   3.71651
  -0.54565   0.57843   3.71651
  -0.06565   0.57843   3.71651
  -0.06565   0.57843   3.71651
  -0.06565   0.57843   3.71651
  -0.06565   0.57843   3.71651
  -0.06565   0.57843   3.71651
   0.41435   0.57843   3.71651
   0.41435   0.57843   4.19651
   0.41435   0.57843   3.71651
   0.88435   0.57843   4.19651
   0.88435   0.57843   3.71651
   1.36435   0.57843   3.71651
   1.36435   0.57843   3.71651
   1.36435   0.57843   3.71651
   1.36435   0.57843   3.71651
   1.36435   0.57843   3.23651
   1.84435   0.57843   3.71651
   1.84435   0.57843   3.71651
   1.84435   0.57843   3.23651
   2.32435   0.09843   3.23651
   2.32435   0.09843   3.23651
   2.32435   0.09843   2.75651
   2.80435   0.09843   2.75651
   2.80435   0.57843   2.75651
   2.32435   0.09843   2.75651
   2.80435   0.09843   2.75651
   3.28435   0.57843   2.27651
   3.28435   0.09843   2.27651
   3.28435   0.57843   1.79651
   3.28435   0.57843   1.79651
   3.28435   0.57843   2.27651
   3.76435   0.57843   1.79651
   3.76435   0.57843   1.79651
   3.76435   0.57843   1.31651
   3.76435   0.57843   1.31651
   3.76435   0.57843   0.83651
   3.76435   0.57843   0.83651
   3.76435   0.57843   0.83651
   3.76435   0.57843   0.83651
   3.28435   0.09843   0.83651
   3.76435   0.57843   0.83651
   3.76435   0.57843   0.83651
   4.24435   0.09843   0.83651
   4.24435   0.57843   0.83651
   4.24435   0.09843   0.35651
   4.24435   0.57843   0.35651
   4.24435   0.57843   0.35651
   4.24435   0.57843   0.35651
   4.24435   0.09843   0.83651
   4.24435   0.57843   0.35651
   4.24435   0.09843   0.35651
   4.72435   0.09843   0.35651
   4.72435   0.09843   0.35651
   4.72435   0.09843   0.35651
   4.72435   0.09843   0.35651
   4.72435   0.09843   0.35651
   4.72435   0.09843   0.35651
   4.72435   0.09843   0.35651
   4.72435   0.09843   0.35651
   5.20435   0.09843   0.83651
   4.72435   0.09843   0.35651
   4.72435  -0.38157   0.35651
   4.72435  -0.38157   0.35651
   5.20435  -0.38157   0.83651
   5.20435   0.09843   0.83651
   5.20435  -0.38157   0.83651
   5.20435  -0.38157   0.83651
   5.20435   0.09843   0.83651
   5.20435  -0.38157   0.83651
   5.20435  -0.38157   0.83651
   5.67435  -0.38157   1.31651
   5.67435  -0.38157   0.83651
   5.67435  -0.38157   1.31651
   5.67435  -0.38157   1.31651
   6.15435  -0.38157   1.31651
   6.15435  -0.38157   1.31651
   6.15435  -0.86157   1.31651
   6.15435  -0.86157   1.31651
   6.15435  -0.86157   1.31651
   6.63435  -0.86157   1.31651
   6.63435  -0.38157   1.79651
   6.63435  -0.38157   1.31651
   7.11435  -0.38157   1.31651
   6.63435  -0.38157   1.79651
   7.11435  -0.38157   1.79651
   7.11435  -0.86157   1.79651
   7.11435  -0.38157   1.79651
   7.11435  -0.86157   1.79651
   7.11435  -0.86157   1.79651
   7.59435  -0.86157   1.79651
   7.59435  -0.86157   1.79651
   7.59435  -0.86157   1.79651
   8.07435  -0.86157   1.79651
   8.07435  -0.86157   1.79651
   8.07435  -0.86157   1.79651
   8.55435  -0.86157   1.79651
   8.07435  -0.86157   1.79651
   8.55435  -0.86157   1.79651
   8.55435  -0.86157   2.27651
   9.03435  -0.38157   1.79651
   9.03435  -0.86157   1.79651
   9.03435  -0.86157   1.79651
   9.03435  -0.86157   2.27651
   9.03435  -0.86157   1.79651
   9.51435  -0.86157   2.27651
   9.03435  -0.86157   2.27651
   9.03435  -0.86157   2.27651
   9.51435  -0.86157   2.27651
   9.51435  -0.86157   2.27651
   9.51435  -0.86157   2.27651
   9.51435  -0.86157   2.27651
   9.51435  -0.86157   2.27651
   9.51435  -0.86157   2.27651
   9.51435  -0.38157   2.27651
   9.51435  -0.38157   2.75651
   9.51435  -0.38157   2.75651
   9.51435  -0.38157   2.75651
   9.03435  -0.38157   2.75651
   9.03435  -0.38157   2.75651
   9.03435  -0.38157   2.75651
   9.03435  -0.38157   2.75651
   9.03435  -0.38157   2.75651
   9.03435  -0.38157   3.23651
   9.03435  -0.38157   3.23651
   9.03435  -0.38157   3.23651
   8.55435  -0.38157   3.23651
   9.03435  -0.38157   3.23651
   8.55435  -0.38157   2.75651
   8.55435  -0.86157   3.23651
   8.07435  -0.86157   3.23651
   8.07435  -0.86157   3.23651
   8.07435  -0.86157   2.75651
   8.07435  -0.86157   3.23651
   8.07435  -0.86157   2.75651
   7.59435  -0.86157   2.75651
   7.59435  -0.86157   2.75651
   7.59435  -0.86157   2.75651
   7.59435  -0.86157   2.75651
   7.11435  -0.86157   2.75651
   7.11435  -0.86157   2.27651
   7.11435  -0.86157   2.27651
   6.63435  -0.86157   2.27651
   7.11435  -0.38157   2.27651
   6.63435  -0.86157   2.27651
   6.63435  -0.38157   1.79651
   6.63435  -0.38157   1.79651
   6.15435  -0.38157   1.31651
   6.15435  -0.38157   1.79651
   5.67435  -0.38157   1.31651
   5.67435  -0.38157   1.31651
   5.20435  -0.86157   1.31651
   5.20435  -0.38157   0.83651
   4.72435  -0.38157   0.83651
   4.72435  -0.38157   0.35651
   4.24435  -0.38157   0.35651
   4.24435  -0.38157  -0.12349
   4.24435  -0.38157  -0.12349
   3.76435  -0.38157  -0.12349
   3.76435  -0.38157  -0.59349
   3.28435  -0.38157  -0.59349
   2.80435  -0.38157  -1.07349
   2.80435  -0.38157  -0.59349
   2.32435  -0.38157  -1.07349
   2.32435  -0.38157  -1.07349
   1.84435  -0.38157  -1.07349
   1.84435   0.09843  -1.07349
   1.84435  -0.38157  -1.07349
   1.36435  -0.38157  -1.55349
   1.36435  -0.38157  -1.55349
   0.88435   0.09843  -1.07349
   0.88435   0.09843  -1.55349
   0.41435  -0.38157  -1.55349
   0.41435   0.09843  -1.55349
  -0.06565   0.09843  -1.55349
  -0.06565   0.09843  -1.55349
  -0.06565  -0.38157  -1.55349
  -0.54565   0.09843  -1.55349
  -0.54565   0.09843  -1.55349
  -1.02565   0.09843  -1.55349
  -1.02565   0.09843  -1.55349
  -1.02565   0.09843  -1.55349
  -1.50565   0.09843  -1.55349
  -1.50565   0.09843  -1.55349
  -1.98565   0.09843  -1.55349
  -1.98565   0.57843  -1.55349
  -1.98565   0.57843  -1.55349
  -1.98565   0.09843  -1.55349
  -2.46565   0.57843  -1.55349
  -2.46565   0.57843  -1.55349
  -2.46565   0.57843  -1.55349
  -2.94565   0.57843  -1.55349
  -2.94565   0.57843  -1.07349
  -3.42565   0.57843  -1.55349
  -3.42565   0.57843  -1.07349
  -3.42565   1.05843  -1.55349
  -3.90565   0.57843  -1.55349
  -3.90565   0.57843  -1.55349
  -4.38565   0.57843  -1.55349
  -4.38565   1.05843  -1.07349
  -4.85565   1.05843  -1.07349
  -4.38565   1.05843  -1.07349
  -4.85565   0.57843  -1.07349
  -5.33565   0.57843  -1.07349
  -5.33565   1.05843  -1.07349
  -6.29565   1.05843  -1.07349
  -5.81565   0.57843  -1.07349
  -5.81565   1.05843  -1.07349
  -6.29565   0.57843  -1.07349
  -6.29565   0.57843  -1.07349
  -7.25565   0.57843  -1.07349
  -7.25565   1.05843  -1.07349
  -7.25565   0.57843  -1.07349
  -7.73565   0.57843  -0.59349
  -7.73565   0.57843  -0.59349
  -8.21565   0.57843  -0.59349
  -8.69565   0.57843  -0.59349
  -8.69565   0.57843  -0.59349
  -9.17565   0.57843  -0.59349
  -9.17565   0.57843  -0.59349
  -9.17565   0.57843  -0.59349
  -9.17565   0.57843  -0.59349
  -9.64565   1.05843  -0.59349
 -10.12565   1.05843  -0.59349
 -10.12565   1.05843  -0.59349
 -10.12565   0.57843  -0.59349
 -10.12565   1.05843  -0.59349
 -10.60565   1.05843  -0.59349
 -10.60565   1.05843  -0.59349
 -10.60565   1.05843  -0.59349
 -10.60565   1.05843  -0.59349
 -10.60565   1.05843  -0.59349
 -11.08565   0.57843  -1.07349
 -11.08565   0.57843  -1.07349
 -11.08565   1.05843  -1.07349
 -11.08565   0.57843  -1.07349
 -11.08565   1.05843  -1.07349
 -11.08565   0.57843  -1.07349
 -11.08565   0.57843  -1.07349
 -11.08565   0.57843  -1.07349
 -11.08565   0.57843  -1.55349
 -10.60565   0.57843  -1.55349
 -10.60565   0.57843  -1.55349
 -10.60565   0.57843  -1.55349
 -10.60565   0.09843  -1.55349
 -10.60565   0.09843  -2.03349
 -10.12565   0.57843  -2.03349
 -10.12565   0.09843  -2.03349
 -10.12565   0.09843  -1.55349
 -10.12565   0.09843  -2.03349
  -9.64565   0.09843  -2.03349
  -9.64565   0.09843  -2.03349
  -9.64565   0.09843  -2.51349
  -9.64565   0.09843  -2.51349
  -9.17565   0.09843  -2.51349
  -9.17565   0.09843  -2.51349
  -9.17565   0.09843  -2.51349
  -9.17565   0.09843  -2.51349
  -9.17565   0.57843  -2.51349
  -9.17565   0.57843  -2.51349
  -8.69565   0.57843  -2.51349
  -8.69565   0.09843  -2.51349
  -8.69565   0.57843  -2.51349
  -8.69565   0.57843  -2.51349
  -8.21565   0.09843  -2.99349
  -8.69565   0.09843  -2.99349
  -9.17565   0.09843  -2.99349
  -8.21565   0.09843  -2.51349
  -8.21565   0.57843  -2.99349
  -8.21565   0.09843  -2.99349
  -8.21565   0.57843  -2.99349
  -7.73565   0.09843  -2.99349
  -7.73565   0.57843  -2.51349
  -7.73565   0.57843  -2.51349
  -7.25565   0.57843  -2.51349
  -7.25565   0.57843  -2.51349
  -7.25565   0.57843  -2.51349
  -7.25565   0.57843  -2.51349
  -6.77565   0.57843  -2.51349
  -6.77565   1.05843  -2.51349
  -6.77565   0.57843  -2.51349
  -6.29565   0.57843  -2.51349
  -6.29565   0.57843  -2.51349
  -6.29565   0.57843  -2.99349
  -5.81565   0.57843  -2.51349
  -5.81565   0.57843  -2.51349
  -5.33565   0.57843  -2.51349
  -5.33565   0.57843  -2.51349
  -4.85565   0.57843  -2.51349
  -4.85565   0.57843  -2.51349
  -4.85565   0.57843  -2.51349
  -4.38565   0.57843  -2.51349
  -4.38565   0.57843  -2.51349
  -4.38565   0.57843  -2.51349
  -3.90565   0.57843  -2.03349
  -3.90565   0.57843  -2.03349
  -3.90565   0.57843  -2.03349
  -3.42565   0.57843  -2.03349
  -3.42565   0.57843  -2.03349
  -2.94565   0.57843  -1.55349
  -2.94565   0.57843  -1.55349
  -2.94565   0.57843  -1.55349
  -2.46565   0.57843  -1.55349
  -2.46565   0.57843  -1.55349
  -2.46565   0.57843  -1.55349
  -1.98565   0.57843  -1.07349
  -1.98565   0.57843  -1.07349
  -1.98565   0.57843  -1.07349
  -1.50565   1.05843  -1.07349
  -1.50565   0.57843  -1.07349
  -1.50565   0.57843  -1.07349
  -1.02565   1.05843  -1.07349
  -1.02565   0.57843  -0.59349
  -1.02565   0.57843  -0.59349
  -0.54565   0.57843  -0.59349
  -0.54565   0.57843  -0.59349
  -0.06565   0.57843  -0.59349
  -0.06565   0.57843  -0.59349
  -0.06565   0.57843  -0.59349
   0.41435   0.57843  -0.59349
   0.41435   0.57843  -0.59349
   0.41435   0.57843  -0.59349
   0.88435   0.57843  -0.59349
   0.88435   0.57843  -0.59349
   0.88435   0.09843  -0.59349
   1.36435   0.09843  -0.59349
   1.36435   0.09843  -0.12349
   1.36435   0.09843  -0.59349
   1.36435   0.57843  -0.59349
   1.84435   0.09843  -0.59349
   1.84435   0.57843  -0.59349
   2.32435   0.09843  -0.59349
   2.32435   0.09843  -0.59349
   2.32435   0.09843  -0.59349
   2.80435   0.09843  -0.59349
   2.80435   0.09843  -0.59349
   3.28435   0.09843  -0.59349
   3.28435   0.09843  -0.59349
   3.28435   0.09843  -0.59349
   3.76435   0.09843  -0.59349
   3.76435   0.09843  -0.59349
   3.76435   0.09843  -0.59349
   3.76435   0.09843  -0.59349
   4.24435   0.09843  -0.59349
   4.24435   0.09843  -0.59349
   4.24435  -0.38157  -0.59349
   4.72435  -0.38157  -0.59349
   4.72435  -0.38157  -0.59349
   4.24435  -0.38157  -0.59349
   4.72435  -0.38157  -0.59349
   4.72435  -0.38157  -0.59349
   4.72435  -0.38157  -0.59349
   4.72435  -0.38157  -0.59349
   4.72435  -0.38157  -0.59349
   5.20435  -0.38157  -0.12349
   4.72435  -0.38157  -0.59349
   4.72435  -0.38157  -0.59349
   4.72435  -0.38157  -0.59349
   5.20435  -0.38157  -0.59349
   4.72435  -0.38157  -0.12349
   4.72435  -0.38157  -0.12349
   4.72435  -0.38157  -0.59349
   4.72435  -0.38157  -0.12349
   4.72435  -0.38157  -0.12349
   4.72435  -0.38157  -0.12349
   4.72435  -0.38157   0.35651
   4.72435  -0.38157   0.35651
   4.72435  -0.86157  -0.12349
   4.72435  -0.38157  -0.12349
   4.72435  -0.38157   0.35651
   4.72435  -0.38157   0.35651
   4.72435  -0.38157  -0.12349
   4.72435  -0.86157   0.35651
   4.72435  -0.86157   0.35651
   4.72435  -0.86157   0.35651
   4.72435  -0.86157   0.35651
   4.24435  -0.86157   0.35651
   4.72435  -0.86157   0.83651
   4.72435  -0.86157   0.83651
   5.20435  -0.86157   0.83651
   4.72435  -0.86157   0.83651
   5.20435  -0.86157   0.83651
   5.20435  -1.34157   0.83651
