********************************************************************************
              CENTRO DE INSTRUMENTACION Y REGISTRO SISMICO  A.C.                

    Anaxagoras 814, Col. Narvarte, Benito Juarez, C.P. 03020 Mexico, D.F.       
           Tels. 5687 45 42/ 5687 45  82             Fax. 5669 25 12            
********************************************************************************
ARCHIVO ESTANDAR DE ACELERACION:
VERSION DEL FORMATO                    : 2.0
NOMBRE DEL ARCHIVO                     : AU1120070413084350
FECHA Y HORA DE CREACION               : 24/ABR/07, 13:34
REF. CATALOGO ACELEROGRAMAS, SMIS 1996 : REGISTRO No.     /PAG.


================================================================================
DATOS DE LA ESTACION:
NOMBRE DE LA ESTACION                  : AUTÓDROMO
CLAVE DE LA ESTACION                   : AU11
LOCALIZACION DE LA ESTACION            : Del. Iztacalco, Cd. Deportiva          
                                       : Magdalena Mixhuca,                     
                                       : Col. Granjas México                    
                                       :                                        
                                       : 
COORDENADAS DE LA ESTACION             : 19.3919 LAT. N
                                       : 99.0869 LONG. W
ALTITUD (msnm)                         : 2234
TIPO DE SUELO                          : Terreno blando, material compresible
                                       : (arcillas)                
                                       : 
INSTITUCION RESPONSABLE                : CIRES


================================================================================
DATOS DEL ACELEROGRAFO:
MODELO DEL ACELEROGRAFO                : SSA-1
NUMERO DE SERIE DEL ACELEROGRAFO       : 157
NUMERO DE CANALES                      : 3
ORIENTACION C1-C6 (rumbo;orientacion)  : /N00E/+V/N90W
ORIENTACION C7-C12 (rumbo;orientacion) : 
VEL. DE MUESTREO, C1-C6 (muestras/s)   : /200/200/200
VEL. DE MUESTREO, C7-C12 (muestras/s)  : 
ESC. COMPLETA DE SENSORES, C1-C6, (g)  : /2.0/2.0/2.0
ESC. COMPLETA DE SENSORES, C7-C12, (g) : 
FREC. NAT. DE SENSORES, C1-C6, (Hz)    : /51.77/52.56/52.29
FREC. NAT. DE SENSORES, C7-C12, (Hz)   : 
AMORTIGUAMIENTO DE SENSORES, C1-C6     : /0.5912/0.6083/0.6067
AMORTIGUAMIENTO DE SENSORES, C7-C12    : 
INTERVALO DE MUESTREO, C1-C6, (s)      : /0.005/0.005/0.005
INTERVALO DE MUESTREO, C7-C12, (s)     : 
UMBRAL DE DISPARO, C1-C6, (Gal)        : /1.5/2.5/1.5
UMBRAL DE DISPARO, C7-C12, (Gal)       : 
MEMORIA DE PREEVENTO (s)               : 15.36
TIEMPO DE POSEVENTO (s)                : 60.0


================================================================================
DATOS DEL SISMO:
FECHA DEL SISMO (GMT)                  : 13/ABR/07
HORA EPICENTRO (GMT)                   : 08:43:50.0
MAGNITUD(ES)                           : /Me=5.4
COORDENADAS DEL EPICENTRO              : 16.97 LAT. N
                                       : -100.27 LONG. W
PROFUNDIDAD FOCAL (km)                 : 10
FUENTE DE LOS DATOS EPICENTRALES       : SSN
                                       : INSTITUTO DE GEOFISICA, UNAM

================================================================================
DATOS DE ESTE REGISTRO:
HORA DE LA PRIMERA MUESTRA (GMT)       : 8:44:58.61
EXACTITUD DEL TIEMPO (s)               : 0.005
DURACION DEL REGISTRO (s), C1-C6       : /110.08/110.08/110.08
DURACION DEL REGISTRO (s), C7-C12      : 
NUM. TOTAL DE MUESTRAS, C1-C6          : /22016/22016/22016
NUM. TOTAL DE MUESTRAS, C7-C12         : 
ACEL. MAX. (Gal), C1-C6                : /2.63362/0.95768/2.3942
ACEL. MAX., C1-C6, EN LA MUESTRA       : /6151/6769/7314
ACEL. MAX. (Gal), C7-C12               : 
ACEL. MAX., C7-C12, EN LA MUESTRA      : 
UNIDADES DE LOS DATOS                  : Gal (cm/s/s)
FACTOR DE DECIMACION                   : 1
FORMATO DATOS (FORTRAN,10 campos/dato) : 3F10.5


================================================================================
CALIDAD DEL ACELEROGRAMA:
REGISTRO DIGITAL COMPLETO CON TIEMPO ABSOLUTO CORRECTO.


================================================================================
COMENTARIOS:














================================================================================
DATOS DE ACELERACION:
---------+---------+---------+---------+---------+---------+---------+---------+
   CANAL-1   CANAL-2   CANAL-3   CANAL-4   CANAL-5   CANAL-6   CANAL-7   CANAL-8
      N00E        +V      N90W
---------+---------+---------+---------+---------+---------+---------+---------+
[...]
  -1.43652   0.00000   0.23942
  -1.43652   0.00000   0.23942
  -1.67594   0.00000   0.23942
  -1.67594   0.00000   0.23942
  -1.91536   0.00000   0.23942
  -1.91536   0.00000   0.23942
  -1.91536   0.00000   0.23942
  -1.91536   0.00000   0.23942
  -2.15478   0.00000   0.23942
  -1.91536   0.00000   0.00000
  -2.15478  -0.23942   0.23942
  -2.15478   0.00000   0.23942
  -2.15478   0.00000   0.00000
  -2.39420  -0.23942   0.23942
  -2.39420  -0.23942   0.23942
  -2.39420  -0.23942   0.00000
  -2.39420  -0.23942   0.23942
  -2.39420  -0.23942   0.23942
  -2.39420  -0.23942   0.00000
  -2.39420  -0.23942   0.23942
  -2.39420  -0.23942   0.00000
  -2.39420  -0.23942   0.00000
  -2.39420  -0.23942   0.00000
  -2.39420  -0.23942   0.00000
  -2.39420  -0.23942   0.00000
  -2.39420  -0.23942   0.00000
  -2.39420  -0.23942   0.00000
  -2.39420  -0.23942   0.00000
  -2.39420  -0.23942   0.00000
  -2.39420  -0.23942   0.00000
  -2.39420  -0.23942   0.00000
  -2.39420  -0.23942   0.00000
  -2.15478  -0.23942   0.00000
  -2.15478  -0.23942   0.00000
  -2.15478  -0.23942   0.00000
  -2.15478  -0.23942   0.00000
  -2.15478  -0.23942   0.00000
  -2.15478  -0.23942   0.00000
  -2.15478  -0.23942   0.00000
  -2.15478  -0.23942  -0.23942
  -2.15478  -0.23942  -0.23942
  -1.91536  -0.23942  -0.23942
  -1.91536  -0.23942  -0.23942
  -1.91536  -0.23942  -0.23942
  -1.91536  -0.23942  -0.23942
  -1.91536  -0.23942  -0.23942
  -1.91536  -0.23942  -0.23942
  -1.91536  -0.23942  -0.47884
  -1.91536  -0.23942  -0.47884
  -1.91536  -0.23942  -0.47884
  -1.91536  -0.23942  -0.47884
  -1.67594  -0.23942  -0.47884
  -1.67594  -0.23942  -0.47884
  -1.67594  -0.23942  -0.47884
  -1.67594  -0.23942  -0.47884
  -1.67594  -0.23942  -0.47884
  -1.67594  -0.23942  -0.47884
  -1.43652  -0.23942  -0.71826
  -1.43652  -0.23942  -0.47884
  -1.43652  -0.23942  -0.71826
  -1.43652  -0.23942  -0.71826
  -1.43652  -0.47884  -0.71826
  -1.43652  -0.47884  -0.71826
  -1.43652  -0.47884  -0.71826
  -1.43652  -0.47884  -0.71826
  -1.43652  -0.47884  -0.71826
  -1.19710  -0.47884  -0.71826
  -1.19710  -0.47884  -0.95768
  -1.19710  -0.47884  -0.71826
  -1.19710  -0.47884  -0.95768
  -1.19710  -0.71826  -0.71826
  -0.95768  -0.47884  -0.71826
  -0.95768  -0.47884  -0.71826
  -0.95768  -0.47884  -0.71826
  -0.95768  -0.47884  -0.95768
  -0.95768  -0.47884  -0.95768
  -0.95768  -0.47884  -0.95768
  -0.95768  -0.47884  -0.71826
  -0.71826  -0.47884  -0.95768
  -0.95768  -0.47884  -0.95768
  -0.71826  -0.47884  -0.95768
  -0.71826  -0.47884  -0.95768
  -0.71826  -0.47884  -0.95768
  -0.71826  -0.47884  -0.95768
  -0.47884  -0.47884  -0.95768
  -0.47884  -0.47884  -0.71826
  -0.47884  -0.47884  -0.95768
  -0.47884  -0.47884  -0.71826
  -0.47884  -0.47884  -0.71826
  -0.47884  -0.47884  -0.71826
  -0.47884  -0.47884  -0.71826
  -0.47884  -0.47884  -0.71826
  -0.47884  -0.47884  -0.71826
  -0.47884  -0.23942  -0.71826
  -0.47884  -0.23942  -0.71826
  -0.47884  -0.23942  -0.47884
  -0.47884  -0.23942  -0.47884
  -0.47884  -0.23942  -0.47884
  -0.47884  -0.47884  -0.47884
  -0.47884  -0.23942  -0.47884
  -0.47884  -0.23942  -0.47884
  -0.47884  -0.23942  -0.47884
  -0.47884  -0.47884  -0.23942
  -0.47884  -0.23942  -0.47884
  -0.47884  -0.47884  -0.23942
  -0.23942  -0.71826  -0.23942
  -0.23942  -0.23942  -0.23942
  -0.23942  -0.23942  -0.23942
  -0.23942  -0.47884  -0.23942
  -0.23942  -0.23942  -0.23942
  -0.23942  -0.23942  -0.23942
  -0.23942  -0.23942   0.00000
  -0.23942  -0.23942  -0.23942
  -0.23942  -0.23942   0.00000
  -0.23942  -0.23942   0.00000
   0.00000  -0.23942   0.00000
   0.00000  -0.23942   0.00000
   0.00000  -0.23942   0.00000
   0.00000  -0.23942   0.00000
   0.00000  -0.23942   0.00000
   0.00000  -0.23942   0.23942
   0.00000  -0.23942   0.00000
   0.00000  -0.23942   0.00000
   0.00000  -0.23942   0.23942
   0.00000  -0.23942   0.23942
   0.23942  -0.23942   0.23942
   0.23942  -0.23942   0.23942
   0.23942  -0.23942   0.23942
   0.23942  -0.23942   0.23942
   0.23942  -0.23942   0.23942
   0.23942  -0.23942   0.23942
   0.23942  -0.23942   0.23942
   0.23942  -0.23942   0.23942
   0.23942  -0.23942   0.23942
   0.23942  -0.23942   0.23942
   0.23942  -0.23942   0.23942
   0.47884  -0.23942   0.23942
   0.47884  -0.23942   0.23942
   0.47884  -0.23942   0.23942
   0.47884  -0.23942   0.23942
   0.47884  -0.23942   0.23942
   0.47884  -0.23942   0.47884
   0.47884  -0.23942   0.23942
   0.47884  -0.23942   0.23942
   0.47884  -0.23942   0.23942
   0.47884  -0.23942   0.23942
   0.47884  -0.23942   0.47884
   0.47884  -0.23942   0.47884
   0.47884  -0.23942   0.47884
   0.47884  -0.23942   0.47884
   0.47884  -0.23942   0.47884
   0.47884  -0.23942   0.47884
   0.47884  -0.23942   0.47884
   0.47884  -0.23942   0.47884
   0.71826   0.00000   0.47884
   0.47884  -0.23942   0.47884
   0.71826   0.00000   0.47884
   0.71826   0.00000   0.47884
   0.71826   0.00000   0.47884
   0.71826   0.00000   0.47884
   0.71826   0.00000   0.47884
   0.95768   0.00000   0.47884
   0.71826   0.00000   0.47884
   0.95768   0.00000   0.23942
   0.95768   0.00000   0.47884
   0.95768   0.00000   0.23942
   0.95768   0.00000   0.47884
   0.95768   0.00000   0.23942
   0.95768   0.00000   0.23942
   0.95768   0.00000   0.23942
   0.95768   0.00000   0.23942
   0.95768   0.00000   0.23942
   0.95768   0.00000   0.23942
   0.95768   0.00000   0.23942
   0.95768   0.00000   0.23942
   0.95768   0.00000   0.23942
   0.95768   0.00000   0.00000
   0.95768   0.00000   0.00000
   0.95768   0.00000   0.00000
   0.71826   0.00000   0.00000
   0.95768   0.23942   0.00000
   0.95768   0.23942   0.00000
   0.95768   0.23942   0.00000
   0.95768   0.23942   0.00000
   0.95768   0.23942   0.00000
   0.95768   0.23942   0.00000
   0.95768   0.23942   0.00000
   0.95768   0.23942   0.00000
   0.95768   0.23942   0.00000
   0.95768   0.23942   0.00000
   0.95768   0.23942   0.00000
   0.95768   0.23942   0.00000
   0.95768   0.23942   0.00000
   0.95768   0.23942   0.23942
   0.95768   0.23942   0.23942
   0.95768   0.23942   0.23942
   0.95768   0.23942   0.23942
   0.95768   0.23942   0.23942
   0.95768   0.23942   0.23942
   0.95768   0.23942   0.23942
   0.95768   0.23942   0.23942
   0.95768   0.23942   0.47884
   1.19710   0.23942   0.47884
   0.95768   0.23942   0.47884
   1.19710   0.23942   0.47884
   1.19710   0.23942   0.47884
   1.19710   0.00000   0.47884
   1.19710   0.00000   0.47884
   1.19710   0.00000   0.47884
   1.19710   0.00000   0.47884
   1.19710   0.00000   0.47884
   1.19710   0.00000   0.47884
   1.19710   0.23942   0.47884
   1.19710   0.23942   0.47884
   1.19710   0.00000   0.47884
   1.19710   0.00000   0.47884
   0.95768   0.23942   0.47884
   1.19710   0.23942   0.47884
   1.19710   0.23942   0.47884
   1.19710   0.23942   0.47884
   1.19710   0.23942   0.47884
   1.19710   0.23942   0.47884
   1.19710   0.23942   0.47884
   1.19710   0.23942   0.47884
   1.19710   0.23942   0.47884
   1.19710   0.23942   0.47884
   1.19710   0.23942   0.47884
   1.19710   0.23942   0.47884
   1.19710   0.23942   0.47884
   1.19710   0.23942   0.47884
   1.19710   0.23942   0.23942
   1.19710   0.23942   0.23942
   1.19710   0.23942   0.23942
   1.19710   0.23942   0.23942
   1.19710   0.23942   0.23942
   1.19710   0.23942   0.23942
   1.19710   0.23942   0.23942
   1.19710   0.23942   0.23942
   1.19710   0.23942   0.23942
   1.19710   0.23942   0.23942
   1.19710   0.23942   0.23942
   0.95768   0.23942   0.23942
   1.19710   0.23942   0.23942
   1.19710   0.23942   0.00000
   1.43652   0.23942   0.00000
   1.19710   0.23942   0.00000
   1.19710   0.23942   0.00000
   1.19710   0.23942  -0.47884
   1.19710   0.00000   0.00000
   1.19710   0.23942   0.00000
   1.19710   0.23942   0.00000
   1.19710   0.00000  -0.23942
   1.19710   0.00000  -0.23942
   1.19710   0.00000  -0.23942
   1.19710   0.00000  -0.23942
   1.19710   0.00000  -0.23942
   1.19710   0.00000  -0.47884
   1.19710   0.00000  -0.47884
   1.19710   0.00000  -0.47884
   1.19710   0.00000  -0.47884
   1.19710   0.00000  -0.71826
   1.19710   0.00000  -0.71826
   0.95768   0.00000  -0.71826
   1.19710   0.00000  -0.71826
   1.19710   0.00000  -0.71826
   0.95768   0.00000  -0.95768
   0.95768  -0.23942  -0.95768
   0.95768  -0.23942  -0.95768
   0.95768   0.00000  -0.95768
   0.95768   0.00000  -0.95768
   0.95768   0.00000  -0.95768
   0.95768   0.00000  -0.95768
   0.95768   0.00000  -0.95768
   0.95768  -0.23942  -0.95768
   0.95768  -0.23942  -1.19710
   0.95768  -0.23942  -1.19710
   0.95768  -0.23942  -1.19710
   0.71826  -0.23942  -1.19710
   0.71826  -0.23942  -1.19710
   0.71826   0.00000  -1.19710
   0.71826  -0.23942  -1.19710
   0.71826  -0.23942  -1.19710
   0.71826  -0.23942  -1.19710
   0.71826  -0.23942  -1.19710
   0.47884  -0.23942  -1.19710
   0.47884   0.00000  -1.19710
   0.47884   0.00000  -1.19710
   0.47884   0.00000  -1.19710
   0.47884   0.00000  -1.19710
   0.23942   0.00000  -0.95768
   0.23942   0.00000  -1.19710
   0.23942   0.00000  -0.95768
   0.00000   0.00000  -0.95768
   0.00000   0.00000  -1.19710
   0.00000   0.00000  -0.95768
   0.00000   0.00000  -0.95768
   0.00000   0.00000  -0.95768
  -0.23942   0.00000  -0.95768
  -0.23942   0.23942  -0.95768
  -0.47884   0.00000  -0.95768
  -0.47884   0.00000  -0.95768
  -0.47884   0.00000  -0.95768
  -0.47884   0.00000  -0.71826
  -0.47884   0.00000  -0.71826
  -0.71826  -0.23942  -0.95768
  -0.71826   0.00000  -0.71826
  -0.71826   0.00000  -0.71826
  -0.95768   0.23942  -0.71826
  -0.95768   0.23942  -0.71826
  -0.95768   0.23942  -0.71826
  -0.95768   0.00000  -0.71826
  -1.19710   0.00000  -0.47884
  -1.19710   0.00000  -0.47884
  -1.19710   0.23942  -0.47884
  -1.19710   0.00000  -0.47884
  -1.19710   0.23942  -0.47884
  -1.43652   0.00000  -0.23942
  -1.43652   0.00000  -0.47884
  -1.43652   0.00000  -0.23942
  -1.43652   0.00000  -0.23942
  -1.43652   0.00000  -0.23942
  -1.43652   0.00000  -0.23942
  -1.67594   0.00000   0.00000
  -1.67594   0.00000   0.00000
  -1.67594   0.00000   0.00000
  -1.67594   0.00000   0.00000
  -1.67594   0.00000   0.00000
  -1.67594   0.00000   0.00000
  -1.91536   0.00000   0.00000
  -1.91536   0.00000   0.00000
  -1.91536   0.00000   0.23942
  -1.91536   0.00000   0.00000
  -1.91536   0.00000   0.00000
  -1.91536   0.00000   0.23942
  -1.91536   0.00000   0.23942
  -2.15478   0.00000   0.23942
  -2.15478   0.00000   0.23942
  -2.15478   0.00000   0.23942
  -2.15478   0.00000   0.23942
  -2.39420   0.00000   0.23942
  -2.39420   0.00000   0.23942
  -2.39420   0.00000   0.23942
  -2.39420   0.00000   0.23942
  -2.39420   0.00000   0.23942
  -2.39420   0.00000   0.23942
  -2.39420   0.00000   0.23942
  -2.63362   0.00000   0.23942
  -2.63362   0.00000   0.23942
  -2.63362   0.00000   0.23942
  -2.63362   0.00000   0.23942
  -2.39420   0.00000   0.00000
  -2.63362   0.00000   0.00000
  -2.63362   0.00000   0.00000
  -2.63362   0.00000   0.00000
  -2.63362   0.00000  -0.47884
  -2.63362   0.00000   0.00000
  -2.63362   0.00000   0.00000
  -2.63362   0.00000   0.00000
  -2.63362   0.00000   0.00000
  -2.63362   0.00000  -0.23942
  -2.63362   0.00000  -0.23942
  -2.39420   0.00000  -0.23942
  -2.63362  -0.23942  -0.23942
  -2.63362   0.00000  -0.23942
  -2.39420  -0.23942  -0.23942
  -2.39420  -0.23942  -0.23942
  -2.39420  -0.23942  -0.23942
  -2.39420  -0.23942  -0.47884
  -2.39420  -0.23942  -0.47884
  -2.39420  -0.23942  -0.47884
  -2.15478  -0.23942  -0.47884
  -2.15478  -0.23942  -0.47884
  -2.15478  -0.23942  -0.71826
  -2.15478  -0.23942  -0.71826
  -2.15478  -0.23942  -0.95768
  -2.15478  -0.23942  -0.71826
  -1.91536  -0.23942  -0.71826
  -1.91536  -0.23942  -0.71826
  -1.91536  -0.23942  -0.71826
  -1.91536  -0.23942  -0.71826
  -1.91536  -0.23942  -0.71826
  -1.91536  -0.23942  -0.71826
  -1.91536  -0.23942  -0.71826
  -1.67594  -0.23942  -0.71826
  -1.67594  -0.47884  -0.71826
  -1.67594  -0.47884  -0.71826
  -1.67594  -0.47884  -0.95768
  -1.67594  -0.23942  -0.71826
  -1.67594  -0.47884  -0.71826
  -1.43652  -0.47884  -0.71826
  -1.43652  -0.47884  -0.71826
  -1.43652  -0.47884  -0.71826
  -1.43652  -0.47884  -0.71826
  -1.43652  -0.47884  -0.71826
  -1.43652  -0.47884  -0.71826
  -1.43652  -0.47884  -0.71826
  -1.43652  -0.47884  -0.71826
  -1.43652  -0.47884  -0.71826
  -1.19710  -0.47884  -0.47884
  -1.19710  -0.47884  -0.47884
  -1.19710  -0.47884  -0.47884
  -1.19710  -0.71826  -0.47884
  -1.19710  -0.71826  -0.47884
  -0.95768  -0.47884  -0.47884
  -0.95768  -0.47884  -0.47884
  -0.95768  -0.47884  -0.47884
  -0.95768  -0.47884  -0.23942
  -0.71826  -0.47884  -0.23942
  -0.71826  -0.47884  -0.23942
  -0.71826  -0.47884  -0.23942
  -0.71826  -0.47884  -0.23942
  -0.47884  -0.47884  -0.23942
  -0.47884  -0.47884  -0.23942
  -0.47884  -0.47884  -0.23942
  -0.47884  -0.47884   0.00000
  -0.47884  -0.47884  -0.23942
  -0.47884  -0.47884   0.00000
  -0.23942  -0.47884   0.00000
  -0.23942  -0.47884   0.00000
  -0.23942  -0.47884   0.00000
  -0.23942  -0.47884   0.00000
   0.00000  -0.47884   0.00000
   0.00000  -0.47884   0.00000
   0.00000  -0.47884   0.00000
   0.00000  -0.47884   0.00000
   0.23942  -0.47884   0.00000
   0.23942  -0.47884   0.00000
   0.47884  -0.47884   0.00000
   0.47884  -0.47884   0.23942
   0.47884  -0.47884   0.23942
   0.47884  -0.47884   0.23942
   0.47884  -0.47884   0.00000
   0.71826  -0.47884   0.23942
   0.71826  -0.47884   0.23942
   0.71826  -0.47884   0.23942
   0.95768  -0.47884   0.23942
   0.95768  -0.47884   0.23942
   0.95768  -0.47884   0.47884
   0.95768  -0.47884   0.47884
   1.19710  -0.47884   0.47884
   1.19710  -0.47884   0.47884
   1.19710  -0.47884   0.47884
   1.43652  -0.47884   0.47884
   1.43652  -0.47884   0.47884
   1.43652  -0.47884   0.47884
   1.43652  -0.47884   0.47884
   1.43652  -0.47884   0.47884
   1.67594  -0.47884   0.47884
   1.67594  -0.23942   0.47884
   1.67594  -0.23942   0.47884
   1.67594  -0.23942   0.47884
   1.67594  -0.23942   0.47884
   1.91536  -0.23942   0.47884
   1.91536  -0.23942   0.47884
   1.91536  -0.23942   0.47884
   1.91536  -0.23942   0.47884
   1.91536  -0.23942   0.47884
   1.91536  -0.23942   0.47884
   1.91536  -0.23942   0.47884
   1.91536  -0.23942   0.47884
   1.91536  -0.23942   0.47884
   1.91536  -0.23942   0.47884
   1.91536  -0.23942   0.47884
   1.91536  -0.23942   0.47884
   1.91536  -0.23942   0.47884
   1.91536  -0.23942   0.47884
   1.91536  -0.23942   0.47884
   1.91536   0.00000   0.47884
   1.91536  -0.23942   0.47884
   1.91536   0.00000   0.47884
   1.91536   0.00000   0.47884
   1.67594   0.00000   0.47884
   1.91536   0.00000   0.71826
   1.67594   0.00000   0.47884
   1.67594   0.00000   0.71826
   1.67594   0.00000   0.71826
   1.67594   0.00000   0.71826
   1.67594   0.23942   0.71826
   1.43652   0.00000   0.71826
   1.43652   0.23942   0.71826
   1.43652   0.23942   0.95768
   1.43652   0.23942   0.95768
   1.43652   0.23942   0.95768
   1.43652   0.23942   0.95768
   1.43652   0.23942   0.95768
   1.43652   0.23942   0.95768
   1.43652   0.23942   0.95768
   1.43652   0.23942   1.19710
   1.19710   0.23942   1.19710
   1.19710   0.23942   1.19710
   1.19710   0.23942   1.19710
   1.19710   0.23942   1.19710
   1.19710   0.23942   1.19710
   1.19710   0.23942   1.19710
   1.19710   0.23942   1.19710
   1.19710   0.23942   1.19710
