********************************************************************************
               CENTRO DE INSTRUMENTACION Y REGISTRO SISMICO  A.C.  
                       Coordinacion de Servicios Tecnicos
     Anaxagoras 814, Col. Narvarte, Benito Juarez, C.P. 03020 Mexico, D.F.
            Tels. 667 45 42/ 687 45  82             Fax. 669 25 12
********************************************************************************
ARCHIVO ESTANDAR DE ACELERACION:
VERSION DEL FORMATO                    : 2.0
NOMBRE DEL ARCHIVO                     : AU110410.281
FECHA Y HORA DE CREACION               : 02/JUN/04, 12:18
REF. CATALOGO ACELEROGRAMAS, SMIS 1996 : REGISTRO No.     /PAG.


================================================================================
DATOS DE LA ESTACION:
NOMBRE DE LA ESTACION                  : AUTODROMO
CLAVE DE LA ESTACION                   : AU11
LOCALIZACION DE LA ESTACION            : AUTODROMO HERMANOS RODRIGUEZ,
                                       : CHURUBUSCO, CD. DEPORTIVA
                                       :
                                       :
                                       :
COORDENADAS DE LA ESTACION             : 19.392 LAT. N 
                                       : 99.087 LONG. W 
ALTITUD (msnm)                         : 2234
TIPO DE SUELO                          : TERRENO BLANDO, MATERIAL COMPRESIBLE
                                       : (ARCILLAS)
                                       : 
INSTITUCION RESPONSABLE                : CIRES 
                                       :

================================================================================
DATOS DEL ACELEROGRAFO:
MODELO DEL ACELEROGRAFO                : SSA-1
NUMERO DE SERIE DEL ACELEROGRAFO       : 157
NUMERO DE CANALES                      : 3
ORIENTACION C1-C6 (rumbo;orientacion)  : /N00E/+V/N90E
ORIENTACION C7-C12 (rumbo;orientacion) :
VEL. DE MUESTREO, C1-C6 (muestras/s)   : /200/200/200
VEL. DE MUESTREO, C7-C12 (muestras/s)  :
ESC. COMPLETA DE SENSORES, C1-C6, (g)  : /2/2/2
ESC. COMPLETA DE SENSORES, C7-C12, (g) :
FREC. NAT. DE SENSORES, C1-C6, (Hz)    : /51.77/52.56/52.29
FREC. NAT. DE SENSORES, C7-C12, (Hz)   :
AMORTIGUAMIENTO DE SENSORES, C1-C6     : /.5912/.6083/.6067
AMORTIGUAMIENTO DE SENSORES, C7-C12    :
INTERVALO DE MUESTREO, C1-C6, (s)      : /0.005/0.005/0.005
INTERVALO DE MUESTREO, C7-C12, (s)     :
UMBRAL DE DISPARO, C1-C6, (Gal)        : /2/2/2
UMBRAL DE DISPARO, C7-C12, (Gal)       :
MEMORIA DE PREEVENTO (s)               : 15
TIEMPO DE POSEVENTO (s)                : 60


================================================================================
DATOS DEL SISMO:
FECHA DEL SISMO (GMT)                  : 28/OCT/04
HORA EPICENTRO (GMT)                   : 20:30:02,0
MAGNITUD(ES)                           : /Mc=4.6
COORDENADAS DEL EPICENTRO              : 18.34 LAT. N
                                       : -99.74 LONG. W
PROFUNDIDAD FOCAL (km)                 : 46
FUENTE DE LOS DATOS EPICENTRALES       : SSN
                                       : INSTITUTO DE GEOFISICA, UNAM 

================================================================================
DATOS DE ESTE REGISTRO:
HORA DE LA PRIMERA MUESTRA (GMT)       : 20:30:37.00
EXACTITUD DEL TIEMPO (s)               :     
DURACION DEL REGISTRO (s), C1-C6       : /78.08/78.08/78.08
DURACION DEL REGISTRO (s), C7-C12      :
NUM. TOTAL DE MUESTRAS, C1-C6          : /15616/15616/15616
NUM. TOTAL DE MUESTRAS, C7-C12         :
ACEL. MAX. (Gal), C1-C6                : /-1.35360/1.42832/1.26255
ACEL. MAX., C1-C6, EN LA MUESTRA       :
ACEL. MAX. (Gal), C7-C12               :
ACEL. MAX., C7-C12, EN LA MUESTRA      :
UNIDADES DE LOS DATOS                  : Gal (cm/s/s)
FACTOR DE DECIMACION                   : 1
FORMATO DATOS (FORTRAN,10 campos/dato) : 3F10.5


================================================================================
CALIDAD DEL ACELEROGRAMA:
REGISTRO DIGITAL COMPLETO, CARECE DE TIEMPO ABSOLUTO.


================================================================================
COMENTARIOS:














================================================================================
DATOS DE ACELERACION:
---------+---------+---------+---------+---------+---------+---------+---------+
   CANAL-1   CANAL-2   CANAL-3   CANAL-4   CANAL-5   CANAL-6   CANAL-7   CANAL-8
      N00E        +V      N90E
---------+---------+---------+---------+---------+---------+---------+---------+
[...]
   0.07640  -0.25168   0.06255
   0.07640  -0.01168   0.06255
   0.07640  -0.25168   0.06255
   0.31640  -0.25168   0.06255
   0.07640  -0.01168   0.06255
   0.31640  -0.01168   0.06255
   0.07640  -0.01168   0.06255
   0.31640  -0.01168   0.06255
   0.07640  -0.01168   0.06255
   0.07640  -0.01168   0.06255
   0.31640  -0.01168   0.06255
   0.31640  -0.01168   0.06255
   0.31640  -0.01168   0.06255
   0.31640  -0.01168   0.06255
   0.31640  -0.01168   0.06255
   0.07640  -0.01168  -0.17745
   0.07640  -0.01168  -0.17745
   0.07640  -0.01168  -0.17745
   0.07640  -0.01168  -0.17745
  -0.40360  -0.01168  -0.17745
   0.07640  -0.01168  -0.17745
   0.07640  -0.01168  -0.17745
   0.07640  -0.01168  -0.17745
   0.07640  -0.01168  -0.17745
   0.07640  -0.01168  -0.17745
   0.07640  -0.01168  -0.17745
   0.07640  -0.01168   0.06255
   0.07640  -0.01168  -0.17745
   0.07640  -0.01168  -0.17745
   0.07640  -0.01168  -0.17745
   0.07640  -0.01168   0.06255
   0.07640  -0.01168   0.06255
   0.07640  -0.01168  -0.17745
   0.07640  -0.01168   0.06255
   0.07640  -0.01168  -0.17745
   0.07640  -0.01168   0.06255
   0.07640  -0.25168   0.06255
   0.07640  -0.25168   0.06255
   0.07640  -0.25168   0.06255
   0.07640  -0.25168   0.06255
   0.07640  -0.25168  -0.17745
   0.07640  -0.25168  -0.17745
   0.07640  -0.01168   0.06255
  -0.16360  -0.01168  -0.17745
   0.07640  -0.01168  -0.17745
   0.07640  -0.01168  -0.17745
   0.07640  -0.01168   0.06255
   0.07640   0.22832   0.06255
   0.07640   0.22832  -0.17745
   0.07640   0.22832  -0.17745
   0.07640   0.22832  -0.17745
   0.07640   0.46832  -0.17745
   0.07640   0.46832  -0.17745
   0.07640   0.22832  -0.17745
   0.07640   0.22832   0.06255
   0.07640   0.22832  -0.17745
  -0.16360  -0.01168  -0.17745
  -0.16360  -0.01168  -0.17745
  -0.16360  -0.01168  -0.17745
  -0.16360  -0.01168   0.06255
  -0.16360  -0.25168  -0.17745
  -0.16360  -0.25168   0.06255
  -0.16360  -0.25168  -0.17745
  -0.16360  -0.49168  -0.17745
  -0.16360  -0.25168   0.06255
  -0.16360  -0.25168   0.06255
  -0.16360  -0.25168   0.06255
  -0.16360  -0.25168   0.06255
  -0.16360  -0.25168   0.06255
  -0.16360  -0.25168   0.06255
  -0.16360  -0.01168   0.06255
  -0.16360  -0.01168   0.06255
  -0.16360  -0.01168   0.06255
  -0.16360  -0.01168   0.30255
  -0.16360  -0.01168   0.06255
  -0.16360   0.22832   0.06255
  -0.16360   0.22832   0.30255
  -0.16360   0.22832   0.06255
   0.07640   0.46832   0.30255
   0.07640   0.46832   0.06255
   0.07640   0.46832   0.06255
   0.07640   0.46832   0.06255
   0.07640   0.22832   0.06255
   0.07640   0.22832   0.06255
   0.07640   0.22832   0.06255
   0.07640   0.22832   0.06255
   0.07640  -0.01168   0.06255
   0.07640  -0.01168   0.06255
  -0.16360  -0.01168   0.06255
  -0.16360  -0.01168   0.06255
  -0.16360  -0.01168   0.06255
  -0.16360  -0.01168   0.06255
  -0.16360  -0.01168   0.06255
  -0.16360  -0.01168   0.06255
  -0.16360  -0.01168   0.06255
  -0.16360  -0.01168   0.06255
  -0.16360  -0.01168   0.06255
  -0.16360  -0.01168   0.06255
  -0.16360   0.22832   0.06255
  -0.16360   0.22832   0.06255
  -0.16360  -0.01168   0.06255
  -0.16360   0.22832   0.06255
  -0.16360   0.22832   0.06255
  -0.16360  -0.01168   0.06255
  -0.16360  -0.01168  -0.17745
  -0.16360   0.22832   0.06255
  -0.16360   0.22832   0.06255
  -0.16360   0.22832  -0.17745
  -0.16360  -0.01168  -0.17745
  -0.16360   0.22832  -0.17745
  -0.16360   0.22832   0.06255
  -0.40360   0.22832  -0.17745
  -0.16360   0.22832   0.06255
  -0.16360   0.22832   0.06255
  -0.16360   0.22832   0.06255
  -0.16360   0.22832   0.06255
  -0.16360   0.22832   0.06255
  -0.16360   0.22832   0.06255
  -0.16360   0.22832   0.06255
  -0.16360  -0.01168   0.06255
  -0.16360  -0.01168   0.06255
  -0.16360  -0.01168   0.06255
  -0.16360  -0.01168   0.06255
   0.07640  -0.01168   0.06255
   0.07640  -0.25168   0.06255
   0.07640  -0.25168   0.30255
   0.07640  -0.49168   0.06255
   0.07640  -0.49168   0.06255
  -0.16360  -0.49168   0.06255
   0.07640  -0.49168   0.06255
   0.07640  -0.73168   0.06255
   0.07640  -0.73168   0.06255
   0.07640  -0.49168   0.06255
   0.07640  -0.49168   0.06255
   0.07640  -0.49168   0.06255
   0.07640  -0.25168   0.06255
   0.07640  -0.01168   0.06255
   0.07640  -0.01168   0.06255
   0.07640   0.22832   0.06255
   0.07640   0.46832  -0.17745
   0.07640   0.46832  -0.17745
   0.07640   0.70832  -0.17745
   0.07640   0.70832  -0.17745
   0.07640   0.94832  -0.17745
   0.07640   0.94832  -0.17745
   0.31640   0.94832  -0.40745
   0.31640   0.94832  -0.40745
   0.07640   0.70832  -0.40745
   0.31640   0.46832  -0.40745
   0.07640   0.46832  -0.17745
   0.07640   0.22832  -0.17745
   0.07640  -0.01168  -0.17745
   0.07640  -0.01168  -0.17745
   0.07640  -0.01168  -0.17745
   0.07640  -0.25168  -0.17745
   0.07640  -0.49168  -0.17745
   0.07640  -0.49168  -0.17745
   0.07640  -0.49168  -0.17745
   0.07640  -0.73168  -0.17745
   0.07640  -0.73168  -0.17745
   0.07640  -0.73168   0.06255
   0.07640  -0.73168   0.06255
   0.07640  -0.73168   0.06255
   0.07640  -0.73168   0.06255
   0.07640  -0.73168   0.06255
   0.07640  -0.73168   0.06255
   0.07640  -0.25168   0.06255
   0.07640  -0.25168   0.06255
   0.07640  -0.01168   0.06255
   0.07640  -0.01168   0.06255
   0.31640   0.22832   0.06255
   0.31640   0.22832   0.06255
   0.31640   0.46832   0.06255
   0.31640   0.46832   0.06255
   0.31640   0.22832   0.06255
   0.31640   0.22832   0.06255
   0.31640   0.22832   0.06255
   0.31640  -0.01168   0.06255
   0.07640  -0.01168   0.06255
   0.07640  -0.01168   0.06255
   0.07640  -0.25168   0.06255
   0.07640  -0.25168   0.06255
   0.07640  -0.25168   0.06255
   0.07640  -0.25168   0.06255
   0.07640  -0.25168   0.06255
   0.07640  -0.25168   0.06255
   0.07640  -0.25168   0.06255
   0.07640  -0.25168   0.06255
   0.07640  -0.01168   0.06255
   0.07640  -0.01168   0.06255
   0.07640  -0.01168   0.06255
   0.07640  -0.01168   0.06255
   0.07640   0.22832   0.06255
   0.07640   0.22832   0.06255
   0.07640   0.22832   0.06255
   0.07640   0.46832   0.06255
   0.07640   0.46832   0.06255
   0.07640   0.22832   0.06255
  -0.16360   0.22832   0.06255
  -0.16360  -0.01168  -0.17745
  -0.16360  -0.01168  -0.17745
  -0.16360  -0.01168  -0.17745
  -0.16360  -0.25168  -0.17745
  -0.40360  -0.25168  -0.17745
  -0.40360  -0.49168  -0.17745
  -0.40360  -0.49168  -0.17745
  -0.40360  -0.49168  -0.17745
  -0.40360  -0.49168  -0.17745
  -0.40360  -0.49168  -0.17745
  -0.40360  -0.73168  -0.17745
  -0.40360  -0.49168  -0.17745
  -0.16360  -0.49168  -0.17745
  -0.16360  -0.49168  -0.17745
  -0.16360  -0.25168  -0.17745
  -0.16360  -0.01168   0.06255
  -0.16360  -0.01168   0.06255
  -0.16360   0.22832   0.06255
  -0.16360   0.22832   0.06255
  -0.16360   0.46832   0.06255
  -0.16360   0.46832   0.06255
  -0.16360   0.70832   0.06255
  -0.16360   0.70832   0.06255
   0.07640   0.70832   0.06255
   0.07640   0.46832   0.06255
   0.07640   0.46832   0.30255
   0.07640   0.22832   0.30255
   0.07640   0.22832   0.30255
   0.07640   0.22832   0.30255
   0.07640   0.22832   0.30255
   0.07640   0.22832   0.30255
   0.07640   0.22832   0.30255
   0.07640   0.22832   0.30255
   0.07640   0.46832   0.30255
   0.07640   0.46832   0.30255
  -0.16360   0.70832   0.30255
   0.07640   0.70832   0.54255
   0.07640   0.70832   0.30255
   0.07640   0.70832   0.54255
   0.07640   0.46832   0.30255
  -0.16360   0.46832   0.30255
   0.07640   0.22832   0.30255
   0.07640   0.22832   0.30255
   0.07640  -0.01168   0.30255
   0.07640  -0.01168   0.30255
   0.07640  -0.25168   0.06255
   0.07640  -0.49168   0.06255
   0.07640  -0.49168   0.06255
   0.07640  -0.49168  -0.17745
   0.07640  -0.73168  -0.17745
   0.07640  -0.49168  -0.17745
   0.07640  -0.49168  -0.17745
   0.07640  -0.49168  -0.17745
   0.07640  -0.25168  -0.17745
   0.07640  -0.01168  -0.17745
   0.31640  -0.01168  -0.17745
   0.31640  -0.01168  -0.17745
   0.31640   0.22832  -0.17745
   0.31640   0.22832  -0.17745
   0.31640   0.46832  -0.17745
   0.55640   0.22832  -0.17745
   0.55640   0.22832  -0.17745
   0.31640   0.22832  -0.17745
   0.55640  -0.01168  -0.17745
   0.55640  -0.01168  -0.17745
   0.55640  -0.01168  -0.17745
   0.55640  -0.25168  -0.17745
   0.55640  -0.25168   0.06255
   0.55640  -0.49168   0.06255
   0.55640  -0.49168   0.06255
   0.31640  -0.49168   0.06255
   0.31640  -0.25168   0.06255
   0.55640  -0.25168   0.06255
   0.55640  -0.01168   0.30255
   0.55640  -0.01168   0.06255
   0.55640  -0.01168   0.30255
   0.55640   0.22832   0.30255
   0.55640   0.22832   0.30255
   0.31640   0.22832   0.30255
   0.55640   0.22832   0.30255
   0.31640  -0.01168   0.30255
   0.31640  -0.01168   0.30255
   0.31640  -0.01168   0.30255
   0.31640  -0.01168   0.30255
   0.31640  -0.25168   0.30255
   0.31640  -0.49168   0.30255
   0.07640  -0.49168   0.30255
   0.07640  -0.49168   0.30255
   0.07640  -0.73168   0.06255
   0.07640  -0.73168   0.30255
   0.07640  -0.73168   0.30255
   0.07640  -0.73168   0.30255
   0.31640  -0.73168   0.30255
   0.31640  -0.49168   0.30255
   0.31640  -0.49168   0.30255
   0.31640  -0.25168   0.30255
   0.31640  -0.01168   0.30255
   0.55640  -0.01168   0.30255
   0.55640   0.22832   0.30255
   0.55640   0.46832   0.30255
   0.55640   0.46832   0.30255
   0.55640   0.46832   0.30255
   0.55640   0.46832   0.30255
   0.79640   0.46832   0.30255
   0.79640   0.46832   0.30255
   0.79640   0.46832   0.30255
   0.79640   0.46832   0.30255
   0.79640   0.46832   0.30255
   0.79640   0.46832   0.30255
   0.79640   0.22832   0.30255
   1.03640   0.22832   0.30255
   0.79640   0.22832   0.30255
   0.79640  -0.01168   0.30255
   0.79640  -0.01168   0.30255
   0.79640  -0.01168   0.30255
   0.79640  -0.01168   0.30255
   0.79640  -0.01168   0.30255
   0.79640  -0.01168   0.30255
   0.55640  -0.01168   0.30255
   0.55640  -0.01168   0.06255
   0.55640  -0.01168   0.06255
   0.55640  -0.01168   0.06255
   0.31640  -0.01168   0.06255
   0.31640  -0.01168   0.06255
   0.31640  -0.01168   0.06255
   0.31640  -0.01168  -0.17745
   0.07640  -0.01168  -0.17745
   0.07640  -0.01168  -0.17745
   0.07640  -0.25168  -0.17745
   0.07640  -0.49168  -0.17745
  -0.16360  -0.49168  -0.40745
  -0.16360  -0.73168  -0.40745
  -0.16360  -0.73168  -0.40745
  -0.40360  -0.73168  -0.40745
  -0.40360  -0.73168  -0.64745
  -0.40360  -0.97168  -0.64745
  -0.64360  -0.97168  -0.64745
  -0.64360  -0.97168  -0.64745
  -0.64360  -0.73168  -0.64745
  -0.64360  -0.49168  -0.88745
  -0.64360  -0.49168  -0.64745
  -0.87360  -0.25168  -0.64745
  -0.87360  -0.01168  -0.64745
  -0.87360   0.22832  -0.64745
  -0.87360   0.46832  -0.64745
  -0.87360   0.70832  -0.64745
  -0.87360   0.94832  -0.64745
  -0.87360   1.18832  -0.64745
  -0.64360   1.18832  -0.64745
  -0.64360   1.18832  -0.64745
  -0.64360   1.42832  -0.40745
  -0.64360   1.18832  -0.40745
  -0.64360   1.18832  -0.40745
  -0.87360   0.94832  -0.40745
  -0.87360   0.94832  -0.40745
  -0.87360   0.70832  -0.40745
  -0.87360   0.46832  -0.40745
  -0.87360   0.46832  -0.40745
  -1.11360  -0.01168  -0.40745
  -1.11360  -0.01168  -0.40745
  -1.11360  -0.49168  -0.40745
  -1.35360  -0.49168  -0.17745
  -1.35360  -0.73168  -0.17745
  -1.35360  -0.97168  -0.17745
  -1.35360  -1.21168  -0.17745
  -1.35360  -1.21168  -0.17745
  -1.35360  -0.97168   0.06255
  -1.35360  -0.97168   0.06255
  -1.35360  -0.97168   0.06255
  -1.35360  -0.49168   0.06255
  -1.35360  -0.49168   0.06255
  -1.35360  -0.01168   0.06255
  -1.35360  -0.01168   0.06255
  -1.35360   0.22832   0.30255
  -1.11360   0.46832   0.06255
  -1.11360   0.70832   0.06255
  -1.11360   0.94832   0.30255
  -0.87360   0.94832   0.30255
  -1.11360   0.94832   0.06255
  -0.87360   0.94832   0.30255
  -0.87360   0.94832   0.06255
  -0.87360   0.94832   0.30255
  -0.64360   0.70832   0.30255
  -0.64360   0.70832   0.30255
  -0.64360   0.46832   0.30255
  -0.64360   0.22832   0.30255
  -0.64360  -0.01168   0.30255
  -0.64360  -0.01168   0.30255
  -0.64360  -0.01168   0.30255
  -0.64360  -0.25168   0.30255
  -0.64360  -0.25168   0.30255
  -0.40360  -0.25168   0.06255
  -0.40360  -0.49168   0.06255
  -0.40360  -0.49168   0.06255
  -0.16360  -0.49168   0.06255
  -0.16360  -0.49168   0.06255
  -0.16360  -0.49168   0.06255
   0.07640  -0.49168   0.06255
   0.07640  -0.49168   0.06255
   0.07640  -0.49168   0.06255
   0.07640  -0.25168   0.06255
   0.07640  -0.25168   0.06255
   0.07640  -0.01168   0.06255
   0.07640  -0.01168   0.06255
   0.07640  -0.01168   0.06255
   0.31640  -0.01168   0.30255
   0.31640   0.22832   0.30255
   0.31640   0.22832   0.06255
   0.31640   0.22832   0.30255
   0.07640   0.22832   0.30255
   0.07640   0.46832   0.06255
   0.07640   0.46832   0.30255
   0.07640   0.46832   0.30255
   0.07640   0.46832   0.30255
   0.07640   0.46832   0.54255
   0.07640   0.46832   0.30255
   0.07640   0.46832   0.54255
  -0.16360   0.46832   0.54255
   0.07640   0.22832   0.54255
   0.07640   0.22832   0.54255
   0.07640  -0.01168   0.54255
  -0.16360  -0.01168   0.54255
  -0.16360  -0.25168   0.30255
  -0.16360  -0.25168   0.30255
  -0.16360  -0.25168   0.06255
  -0.40360  -0.49168   0.06255
  -0.40360  -0.49168   0.06255
  -0.40360  -0.49168   0.06255
  -0.40360  -0.49168  -0.17745
  -0.40360  -0.25168  -0.17745
  -0.16360  -0.25168  -0.17745
  -0.16360  -0.01168  -0.17745
  -0.16360  -0.01168  -0.17745
  -0.16360  -0.01168  -0.40745
  -0.16360   0.22832  -0.40745
  -0.16360   0.46832  -0.40745
   0.07640   0.46832  -0.40745
   0.07640   0.46832  -0.40745
   0.07640   0.70832  -0.40745
   0.07640   0.70832  -0.40745
   0.07640   0.70832  -0.40745
   0.07640   0.70832  -0.40745
   0.07640   0.46832  -0.40745
   0.07640   0.46832  -0.40745
   0.07640   0.22832  -0.40745
   0.07640  -0.01168  -0.40745
   0.07640  -0.01168  -0.64745
   0.07640  -0.25168  -0.64745
   0.07640  -0.49168  -0.40745
   0.07640  -0.73168  -0.40745
   0.07640  -0.97168  -0.40745
   0.31640  -0.97168  -0.40745
   0.31640  -0.97168  -0.17745
   0.31640  -0.97168  -0.17745
   0.31640  -0.97168  -0.17745
   0.55640  -0.73168   0.06255
   0.55640  -0.73168  -0.17745
   0.55640  -0.49168   0.06255
   0.55640  -0.49168   0.06255
   0.55640  -0.01168   0.06255
   0.55640  -0.01168   0.30255
   0.31640   0.22832   0.06255
   0.31640   0.46832   0.06255
   0.31640   0.46832   0.06255
   0.31640   0.70832   0.06255
   0.31640   0.70832   0.06255
   0.31640   0.70832   0.06255
   0.07640   0.70832  -0.17745
   0.07640   0.70832  -0.17745
   0.07640   0.46832  -0.17745
   0.07640   0.46832   0.06255
   0.07640   0.22832  -0.17745
   0.07640  -0.01168  -0.17745
   0.07640  -0.01168  -0.17745
  -0.16360  -0.01168  -0.17745
  -0.16360  -0.25168  -0.17745
  -0.16360  -0.49168  -0.17745
  -0.16360  -0.25168   0.06255
  -0.16360  -0.49168   0.06255
  -0.40360  -0.25168   0.06255
  -0.40360  -0.25168   0.06255
  -0.40360  -0.49168   0.06255
  -0.40360  -0.25168   0.30255
  -0.40360  -0.49168   0.30255
  -0.16360  -0.49168   0.30255
  -0.16360  -0.49168   0.30255
  -0.16360  -0.49168   0.30255
   0.07640  -0.49168   0.30255
   0.07640  -0.49168   0.30255
   0.07640  -0.25168   0.30255
  -0.40360  -0.25168   0.30255
   0.07640  -0.25168   0.30255
   0.07640  -0.01168   0.30255
   0.31640  -0.25168   0.30255
   0.31640  -0.01168   0.30255
   0.31640  -0.01168   0.30255
   0.31640   0.22832   0.30255
   0.31640   0.22832   0.30255
   0.31640   0.22832   0.30255
   0.31640   0.46832   0.30255
   0.31640   0.46832   0.30255
