********************************************************************************
               CENTRO DE INSTRUMENTACION Y REGISTRO SISMICO  A.C.  
                       Coordinacion de Servicios Tecnicos
     Anaxagoras 814, Col. Narvarte, Benito Juarez, C.P. 03020 Mexico, D.F.
            Tels. 667 45 42/ 687 45  82             Fax. 669 25 12
********************************************************************************
ARCHIVO ESTANDAR DE ACELERACION:
VERSION DEL FORMATO                    : 2.0
NOMBRE DEL ARCHIVO                     : AU110301.221
FECHA Y HORA DE CREACION               : 15/JUL/04, 09:15
REF. CATALOGO ACELEROGRAMAS, SMIS 1996 : REGISTRO No.     /PAG.


================================================================================
DATOS DE LA ESTACION:
NOMBRE DE LA ESTACION                  : AUTODROMO
CLAVE DE LA ESTACION                   : AU11
LOCALIZACION DE LA ESTACION            : AUTODROMO HERMANOS RODRIGUEZ,
                                       : CHURUBUSCO, CD. DEPORTIVA
                                       :
                                       :
                                       :
COORDENADAS DE LA ESTACION             : 19.392 LAT. N 
                                       : 99.087 LONG. W 
ALTITUD (msnm)                         : 2234
TIPO DE SUELO                          : TERRENO BLANDO, MATERIAL COMPRESIBLE
                                       : (ARCILLAS)
                                       : 
INSTITUCION RESPONSABLE                : CIRES 
                                       :

================================================================================
DATOS DEL ACELEROGRAFO:
MODELO DEL ACELEROGRAFO                : SSA-1
NUMERO DE SERIE DEL ACELEROGRAFO       : 157
NUMERO DE CANALES                      : 3
ORIENTACION C1-C6 (rumbo;orientacion)  : /N00E/+V/N90E
ORIENTACION C7-C12 (rumbo;orientacion) :
VEL. DE MUESTREO, C1-C6 (muestras/s)   : /200/200/200
VEL. DE MUESTREO, C7-C12 (muestras/s)  :
ESC. COMPLETA DE SENSORES, C1-C6, (g)  : /2/2/2
ESC. COMPLETA DE SENSORES, C7-C12, (g) :
FREC. NAT. DE SENSORES, C1-C6, (Hz)    : /51.77/52.56/52.29
FREC. NAT. DE SENSORES, C7-C12, (Hz)   :
AMORTIGUAMIENTO DE SENSORES, C1-C6     : /.5912/.6083/.6067
AMORTIGUAMIENTO DE SENSORES, C7-C12    :
INTERVALO DE MUESTREO, C1-C6, (s)      : /0.005/0.005/0.005
INTERVALO DE MUESTREO, C7-C12, (s)     :
UMBRAL DE DISPARO, C1-C6, (Gal)        : /2/2/2
UMBRAL DE DISPARO, C7-C12, (Gal)       :
MEMORIA DE PREEVENTO (s)               : 15
TIEMPO DE POSEVENTO (s)                : 60


================================================================================
DATOS DEL SISMO:
FECHA DEL SISMO (GMT)                  : 22/ENE/03
HORA EPICENTRO (GMT)                   : 02:06:34:5
MAGNITUD(ES)                           : /Mb=6.5/Ms=7.6/Mc=0.0/Ma=7.2/Me=7.6
COORDENADAS DEL EPICENTRO              : 18.60 LAT. N
                                       : 104.22 LONG. W
PROFUNDIDAD FOCAL (km)                 : 9.0
FUENTE DE LOS DATOS EPICENTRALES       : SSN
                                       : INSTITUTO DE GEOFISICA, UNAM

================================================================================
DATOS DE ESTE REGISTRO:
HORA DE LA PRIMERA MUESTRA (GMT)       : 02:08:40.00
EXACTITUD DEL TIEMPO (s)               :     
DURACION DEL REGISTRO (s), C1-C6       : /432.64/432.64/432.64
DURACION DEL REGISTRO (s), C7-C12      :
NUM. TOTAL DE MUESTRAS, C1-C6          : /86528/86528/86528
NUM. TOTAL DE MUESTRAS, C7-C12         :
ACEL. MAX. (Gal), C1-C6                : /-24.59371/2.71316/17.09747
ACEL. MAX., C1-C6, EN LA MUESTRA       :
ACEL. MAX. (Gal), C7-C12               :
ACEL. MAX., C7-C12, EN LA MUESTRA      :
UNIDADES DE LOS DATOS                  : Gal (cm/s/s)
FACTOR DE DECIMACION                   : 1
FORMATO DATOS (FORTRAN,10 campos/dato) : 3F10.5


================================================================================
CALIDAD DEL ACELEROGRAMA:
REGISTRO DIGITAL COMPLETO, CARECE DE TIEMPO ABSOLUTO.


================================================================================
COMENTARIOS:














================================================================================
DATOS DE ACELERACION:
---------+---------+---------+---------+---------+---------+---------+---------+
   CANAL-1   CANAL-2   CANAL-3   CANAL-4   CANAL-5   CANAL-6   CANAL-7   CANAL-8
      N00E        +V      N90E
---------+---------+---------+---------+---------+---------+---------+---------+
[...]
  13.24629  -0.87684  -1.59253
  13.24629  -0.64684  -1.59253
  13.00629  -0.64684  -1.59253
  12.76629  -0.64684  -1.59253
  12.52629  -0.64684  -1.59253
  12.52629  -0.64684  -1.59253
  12.28629  -0.64684  -1.59253
  12.28629  -0.64684  -1.59253
  12.04629  -0.64684  -1.59253
  11.80629  -0.64684  -1.59253
  11.80629  -0.64684  -1.59253
  11.56629  -0.64684  -1.59253
  11.32629  -0.64684  -1.59253
  11.32629  -0.40684  -1.59253
  11.08629  -0.40684  -1.59253
  10.84629  -0.40684  -1.59253
  10.84629  -0.40684  -1.59253
  10.60629  -0.40684  -1.59253
  10.60629  -0.40684  -1.59253
  10.36629  -0.40684  -1.59253
  10.36629  -0.40684  -1.59253
  10.13629  -0.40684  -1.59253
   9.89629  -0.40684  -1.59253
   9.89629  -0.40684  -1.83253
   9.65629  -0.16684  -1.83253
   9.41629  -0.16684  -1.83253
   9.41629  -0.16684  -1.83253
   9.17629  -0.16684  -1.83253
   9.17629  -0.16684  -1.83253
   8.93629  -0.16684  -1.83253
   8.93629  -0.16684  -1.83253
   8.69629  -0.16684  -1.83253
   8.69629  -0.16684  -1.83253
   8.69629  -0.16684  -1.83253
   8.45629  -0.16684  -1.83253
   8.45629   0.07316  -1.83253
   8.21629   0.07316  -1.83253
   8.21629   0.07316  -1.83253
   8.21629   0.07316  -1.83253
   7.97629   0.07316  -1.83253
   7.97629   0.07316  -1.83253
   7.97629   0.07316  -1.83253
   7.73629   0.31316  -1.83253
   7.73629   0.07316  -1.83253
   7.73629   0.07316  -1.83253
   7.73629   0.07316  -1.83253
   7.49629   0.31316  -1.83253
   7.49629   0.31316  -1.83253
   7.49629   0.07316  -1.59253
   7.49629   0.31316  -1.59253
   7.49629   0.31316  -1.59253
   7.49629   0.31316  -1.59253
   7.25629   0.31316  -1.59253
   7.25629   0.31316  -1.59253
   7.25629   0.31316  -1.35253
   7.25629   0.31316  -1.35253
   7.25629   0.31316  -1.35253
   7.25629   0.31316  -1.35253
   7.25629   0.31316  -1.35253
   7.25629   0.55316  -1.35253
   7.01629   0.31316  -1.11253
   7.25629   0.55316  -1.11253
   7.01629   0.55316  -1.11253
   7.01629   0.55316  -0.87253
   7.01629   0.55316  -0.87253
   7.01629   0.31316  -0.87253
   7.01629   0.55316  -0.87253
   7.25629   0.55316  -0.87253
   7.25629   0.55316  -0.63253
   7.01629   0.55316  -0.63253
   7.01629   0.55316  -0.63253
   7.01629   0.55316  -0.39253
   7.01629   0.55316  -0.39253
   7.01629   0.31316  -0.39253
   7.01629   0.31316  -0.39253
   6.77629   0.31316  -0.15253
   7.01629   0.31316  -0.15253
   7.01629   0.31316  -0.15253
   7.01629   0.31316  -0.15253
   7.01629   0.31316   0.08747
   7.25629   0.31316   0.08747
   7.01629   0.31316   0.32747
   7.01629   0.31316   0.32747
   7.01629   0.31316   0.32747
   7.01629   0.31316   0.32747
   7.01629   0.31316   0.32747
   7.01629   0.31316   0.56747
   7.01629   0.31316   0.56747
   7.01629   0.31316   0.56747
   7.01629   0.31316   0.80747
   7.01629   0.31316   0.80747
   7.01629   0.31316   0.80747
   7.01629   0.31316   1.04747
   7.01629   0.31316   1.04747
   7.01629   0.31316   1.04747
   7.01629   0.31316   1.28747
   7.01629   0.07316   1.28747
   7.01629   0.07316   1.28747
   7.01629   0.07316   1.28747
   7.01629   0.07316   1.52747
   7.01629   0.07316   1.52747
   7.01629   0.07316   1.52747
   7.01629   0.31316   1.76747
   7.01629   0.07316   1.76747
   7.01629   0.07316   1.76747
   7.01629   0.07316   2.00747
   7.01629   0.07316   2.00747
   7.01629   0.07316   2.00747
   7.01629   0.07316   2.24747
   7.01629   0.07316   2.24747
   7.01629   0.07316   2.48747
   7.01629   0.07316   2.48747
   7.01629   0.07316   2.48747
   7.01629   0.07316   2.72747
   7.01629   0.07316   2.72747
   7.01629   0.07316   2.72747
   7.01629   0.07316   2.72747
   7.01629   0.07316   2.96747
   7.01629   0.07316   2.96747
   7.25629   0.07316   2.96747
   7.01629   0.07316   3.19747
   7.01629   0.07316   3.19747
   7.01629   0.07316   3.19747
   7.01629   0.07316   3.43747
   7.01629   0.07316   3.43747
   7.01629   0.07316   3.43747
   7.01629   0.07316   3.67747
   7.01629   0.07316   3.67747
   7.01629   0.07316   3.67747
   7.01629   0.07316   3.91747
   7.01629   0.07316   3.91747
   7.01629   0.07316   4.15747
   6.77629   0.07316   4.15747
   7.01629   0.07316   4.15747
   6.77629   0.07316   4.15747
   6.77629   0.07316   4.39747
   6.77629   0.07316   4.39747
   6.77629  -0.16684   4.63747
   6.77629   0.07316   4.63747
   6.77629   0.07316   4.63747
   6.77629   0.07316   4.63747
   6.77629   0.07316   4.87747
   6.77629   0.07316   4.87747
   6.77629   0.07316   4.87747
   6.77629   0.07316   5.11747
   6.53629   0.07316   5.11747
   6.53629   0.07316   5.11747
   6.53629   0.07316   5.35747
   6.53629   0.07316   5.35747
   6.53629  -0.16684   5.35747
   6.53629   0.07316   5.59747
   6.53629  -0.16684   5.59747
   6.53629  -0.16684   5.59747
   6.29629  -0.16684   5.83747
   6.29629  -0.16684   5.83747
   6.29629  -0.16684   5.83747
   6.29629  -0.16684   5.83747
   6.29629  -0.16684   5.83747
   6.05629  -0.16684   6.07747
   6.05629  -0.16684   6.07747
   6.05629  -0.16684   6.07747
   6.05629  -0.16684   6.31747
   5.81629  -0.16684   6.31747
   5.81629  -0.16684   6.31747
   5.81629  -0.16684   6.55747
   5.81629  -0.16684   6.55747
   5.81629  -0.16684   6.55747
   5.57629  -0.16684   6.55747
   5.57629  -0.16684   6.55747
   5.57629  -0.16684   6.55747
   5.34629  -0.16684   6.55747
   5.34629  -0.16684   6.55747
   5.34629  -0.16684   6.55747
   5.34629  -0.40684   6.79747
   5.10629  -0.40684   6.79747
   5.10629  -0.40684   6.79747
   5.10629  -0.40684   6.79747
   5.10629  -0.40684   6.79747
   4.86629  -0.40684   6.79747
   4.86629  -0.64684   6.79747
   4.86629  -0.40684   6.79747
   4.86629  -0.64684   7.03747
   4.86629  -0.64684   6.79747
   4.62629  -0.64684   6.79747
   4.62629  -0.64684   6.79747
   4.62629  -0.64684   6.79747
   4.62629  -0.64684   6.79747
   4.62629  -0.64684   6.79747
   4.62629  -0.64684   7.03747
   4.38629  -0.64684   7.03747
   4.38629  -0.87684   7.03747
   4.38629  -0.87684   7.03747
   4.38629  -0.87684   7.03747
   4.38629  -0.87684   7.03747
   4.38629  -0.87684   7.03747
   4.38629  -0.87684   7.03747
   4.38629  -0.87684   7.03747
   4.38629  -0.87684   7.03747
   4.38629  -1.11684   7.03747
   4.14629  -1.11684   7.03747
   4.38629  -1.11684   7.03747
   4.38629  -1.11684   7.03747
   4.38629  -1.11684   7.03747
   4.38629  -1.11684   7.03747
   4.14629  -1.11684   7.03747
   4.14629  -1.11684   7.03747
   4.14629  -1.11684   7.03747
   4.14629  -1.35684   7.03747
   4.14629  -1.11684   7.03747
   4.14629  -1.11684   7.03747
   4.14629  -1.35684   7.03747
   4.14629  -1.35684   7.03747
   4.14629  -1.35684   7.03747
   4.14629  -1.35684   7.03747
   4.14629  -1.35684   7.03747
   4.14629  -1.35684   7.03747
   4.14629  -1.35684   7.03747
   4.14629  -1.35684   7.03747
   4.14629  -1.59684   7.03747
   4.14629  -1.59684   7.03747
   4.14629  -1.59684   7.03747
   4.14629  -1.59684   7.03747
   4.14629  -1.59684   7.03747
   4.14629  -1.59684   7.03747
   4.14629  -1.59684   7.03747
   4.14629  -1.59684   7.03747
   4.14629  -1.59684   7.03747
   4.14629  -1.59684   7.03747
   3.90629  -1.59684   7.03747
   3.90629  -1.59684   6.79747
   3.90629  -1.59684   6.79747
   3.90629  -1.59684   6.79747
   3.90629  -1.83684   6.79747
   3.90629  -1.83684   6.79747
   3.90629  -1.83684   6.79747
   3.66629  -1.83684   6.79747
   3.66629  -1.83684   6.55747
   3.66629  -1.83684   6.55747
   3.66629  -1.83684   6.55747
   3.42629  -1.83684   6.55747
   3.42629  -1.83684   6.31747
   2.70629  -1.83684   6.31747
   3.18629  -1.83684   6.31747
   3.18629  -2.07684   6.31747
   3.18629  -1.83684   6.31747
   2.94629  -1.83684   6.07747
   2.94629  -1.83684   6.07747
   2.70629  -1.83684   5.83747
   2.70629  -2.07684   5.83747
   2.70629  -2.07684   5.59747
   2.46629  -1.83684   5.59747
   2.22629  -1.83684   5.59747
   2.22629  -1.83684   5.35747
   1.98629  -1.83684   5.35747
   1.74629  -1.83684   5.35747
   1.74629  -1.83684   5.11747
   1.50629  -1.83684   5.11747
   1.26629  -1.83684   4.87747
   1.02629  -1.59684   4.87747
   1.02629  -1.59684   4.63747
   0.54629  -1.59684   4.63747
   0.31629  -1.59684   4.63747
   0.07629  -1.59684   4.39747
  -0.16371  -1.35684   4.39747
  -0.40371  -1.35684   4.15747
  -0.64371  -1.35684   4.15747
  -0.88371  -1.35684   4.15747
  -1.12371  -1.11684   3.91747
  -1.36371  -1.11684   3.91747
  -1.60371  -1.11684   3.67747
  -2.08371  -1.11684   3.67747
  -2.32371  -1.11684   3.67747
  -2.56371  -1.11684   3.67747
  -3.04371  -1.11684   3.43747
  -3.28371  -0.87684   3.43747
  -3.76371  -0.87684   3.43747
  -4.00371  -0.87684   3.19747
  -4.47371  -0.87684   3.19747
  -4.71371  -0.87684   3.19747
  -5.19371  -0.64684   3.19747
  -5.43371  -0.64684   3.19747
  -5.67371  -0.64684   3.19747
  -6.15371  -0.64684   3.19747
  -6.63371  -0.64684   2.96747
  -6.87371  -0.40684   2.96747
  -7.35371  -0.40684   2.96747
  -7.83371  -0.40684   2.96747
  -8.07371  -0.40684   2.96747
  -8.55371  -0.40684   2.96747
  -8.79371  -0.40684   2.96747
  -9.26371  -0.16684   2.96747
  -9.74371  -0.16684   2.96747
  -9.98371  -0.16684   2.72747
 -10.46371  -0.16684   2.72747
 -10.70371  -0.16684   2.96747
 -11.18371  -0.16684   2.96747
 -11.66371   0.07316   2.72747
 -12.14371   0.07316   2.96747
 -12.38371   0.07316   2.72747
 -12.62371   0.07316   2.96747
 -13.10371   0.07316   2.72747
 -13.82371   0.07316   2.96747
 -14.05371   0.31316   2.96747
 -14.29371   0.31316   2.96747
 -14.77371   0.31316   2.96747
 -15.25371   0.31316   2.96747
 -15.49371   0.31316   2.96747
 -15.97371   0.31316   3.19747
 -16.21371   0.31316   2.96747
 -16.69371   0.31316   3.19747
 -16.93371   0.31316   3.19747
 -17.41371   0.31316   3.19747
 -17.65371   0.55316   3.19747
 -18.13371   0.55316   3.19747
 -18.37371   0.55316   3.43747
 -18.61371   0.55316   3.43747
 -19.08371   0.55316   3.43747
 -19.32371   0.55316   3.43747
 -19.80371   0.55316   3.67747
 -19.80371   0.55316   3.67747
 -20.28371   0.55316   3.67747
 -20.52371   0.55316   3.67747
 -20.76371   0.55316   3.91747
 -21.00371   0.55316   3.91747
 -21.24371   0.55316   3.91747
 -21.48371   0.31316   3.91747
 -21.72371   0.55316   4.15747
 -21.96371   0.55316   4.15747
 -22.20371   0.55316   4.15747
 -22.44371   0.55316   4.15747
 -22.68371   0.55316   4.15747
 -22.68371   0.55316   4.39747
 -22.92371   0.55316   4.39747
 -23.16371   0.55316   4.39747
 -23.40371   0.55316   4.39747
 -23.40371   0.55316   4.63747
 -23.63371   0.55316   4.63747
 -23.63371   0.55316   4.63747
 -23.87371   0.55316   4.63747
 -23.87371   0.55316   4.63747
 -24.11371   0.55316   4.63747
 -24.11371   0.55316   4.63747
 -24.11371   0.55316   4.87747
 -24.11371   0.55316   4.87747
 -24.35371   0.55316   4.87747
 -24.35371   0.55316   4.87747
 -24.35371   0.55316   4.87747
 -24.35371   0.55316   4.87747
 -24.35371   0.31316   4.87747
 -24.59371   0.31316   4.87747
 -24.59371   0.31316   5.11747
 -24.59371   0.31316   5.11747
 -24.59371   0.31316   5.11747
 -24.59371   0.31316   5.11747
 -24.59371   0.31316   5.11747
 -24.35371   0.31316   5.11747
 -24.35371   0.31316   5.11747
 -24.35371   0.31316   5.11747
 -24.35371   0.31316   5.11747
 -24.35371   0.31316   5.11747
 -24.35371   0.31316   5.11747
 -24.35371   0.31316   4.87747
 -24.11371   0.31316   4.87747
 -24.11371   0.07316   4.87747
 -24.11371   0.31316   4.87747
 -24.11371   0.07316   4.87747
 -23.87371   0.07316   4.87747
 -23.87371   0.07316   4.87747
 -23.87371   0.07316   4.87747
 -23.63371   0.07316   4.87747
 -23.63371   0.07316   4.63747
 -23.63371   0.07316   4.63747
 -23.40371   0.07316   4.63747
 -23.40371   0.07316   4.63747
 -23.40371   0.07316   4.63747
 -23.16371   0.07316   4.63747
 -23.16371  -0.16684   4.63747
 -22.92371  -0.16684   4.63747
 -22.92371  -0.16684   4.39747
 -22.68371  -0.16684   4.39747
 -22.68371  -0.16684   4.39747
 -22.44371  -0.16684   4.39747
 -22.20371  -0.16684   4.39747
 -22.20371  -0.16684   4.39747
 -22.20371  -0.16684   4.15747
 -21.96371  -0.16684   4.15747
 -21.72371  -0.40684   4.15747
 -21.72371  -0.40684   4.15747
 -21.48371  -0.40684   4.15747
 -21.48371  -0.40684   4.15747
 -21.24371  -0.16684   4.15747
 -21.24371  -0.40684   3.91747
 -20.76371  -0.40684   3.91747
 -20.76371  -0.40684   3.91747
 -20.52371  -0.40684   3.91747
 -20.52371  -0.40684   3.91747
 -20.28371  -0.40684   3.91747
 -20.04371  -0.40684   3.91747
 -20.04371  -0.40684   3.67747
 -19.80371  -0.40684   3.67747
 -19.56371  -0.40684   3.67747
 -19.56371  -0.40684   3.67747
 -19.32371  -0.40684   3.67747
 -19.08371  -0.40684   3.67747
 -19.08371  -0.40684   3.67747
 -18.84371  -0.40684   3.67747
 -18.61371  -0.40684   3.67747
 -18.61371  -0.40684   3.67747
 -18.37371  -0.40684   3.43747
 -18.13371  -0.40684   3.43747
 -17.89371  -0.40684   3.43747
 -17.89371  -0.40684   3.43747
 -17.65371  -0.40684   3.43747
 -17.41371  -0.40684   3.43747
 -17.41371  -0.40684   3.43747
 -17.41371  -0.40684   3.43747
 -16.93371  -0.40684   3.43747
 -16.93371  -0.40684   3.43747
 -16.69371  -0.16684   3.43747
 -16.45371  -0.16684   3.19747
 -16.21371  -0.16684   3.19747
 -16.21371  -0.16684   3.19747
 -15.97371  -0.64684   3.19747
 -15.73371  -0.16684   3.19747
 -15.49371  -0.16684   3.19747
 -15.49371  -0.16684   3.19747
 -15.25371  -0.16684   3.19747
 -15.01371  -0.16684   3.19747
 -15.01371  -0.16684   3.19747
 -14.77371  -0.16684   3.19747
 -14.53371  -0.16684   3.19747
 -14.29371  -0.16684   3.19747
 -14.29371  -0.16684   3.19747
 -14.05371  -0.16684   3.19747
 -13.82371  -0.16684   3.19747
 -13.58371  -0.16684   3.19747
 -13.58371  -0.16684   2.96747
 -13.34371  -0.16684   2.96747
 -13.10371  -0.16684   2.96747
 -12.86371  -0.16684   2.96747
 -12.86371   0.07316   2.96747
 -12.62371   0.07316   2.96747
 -12.38371   0.07316   2.96747
 -12.38371   0.07316   2.96747
 -12.14371   0.07316   2.96747
 -12.14371   0.07316   2.96747
 -11.90371   0.07316   2.72747
 -11.66371   0.07316   2.72747
 -11.66371   0.07316   2.96747
 -11.42371   0.07316   2.96747
 -11.18371   0.07316   2.72747
 -11.18371   0.31316   2.72747
 -10.94371   0.31316   2.72747
 -10.94371   0.31316   2.72747
 -10.70371   0.31316   2.72747
 -10.70371   0.31316   2.72747
 -10.46371   0.31316   2.72747
 -10.46371   0.31316   2.72747
 -10.22371   0.31316   2.72747
 -10.22371   0.31316   2.72747
  -9.98371   0.55316   2.72747
  -9.98371   0.55316   2.72747
  -9.98371   0.55316   2.72747
  -9.74371   0.55316   2.72747
  -9.74371   0.55316   2.72747
  -9.50371   0.55316   2.72747
  -9.50371   0.55316   2.72747
  -9.26371   0.79316   2.72747
  -9.26371   0.79316   2.72747
  -9.26371   0.79316   2.72747
  -9.26371   0.79316   2.72747
  -9.03371   0.79316   2.72747
  -9.03371   0.79316   2.72747
  -8.79371   0.79316   2.72747
  -8.79371   0.79316   2.72747
  -8.79371   0.79316   2.72747
  -8.79371   0.79316   2.72747
  -8.79371   0.79316   2.72747
  -8.55371   1.03316   2.72747
  -8.55371   1.03316   2.72747
  -8.55371   1.03316   2.72747
  -8.31371   1.03316   2.72747
  -8.31371   1.03316   2.72747
  -8.31371   1.03316   2.72747
  -8.31371   0.79316   2.24747
  -8.07371   1.03316   2.48747
  -8.07371   1.03316   2.48747
  -8.07371   1.03316   2.48747
  -8.07371   1.03316   2.48747
  -8.07371   1.03316   2.48747
  -7.83371   1.03316   2.48747
  -7.83371   1.03316   2.48747
  -7.83371   1.03316   2.48747
  -7.83371   1.27316   2.48747
  -7.83371   1.27316   2.48747
  -7.83371   1.27316   2.72747
  -7.83371   1.27316   2.72747
  -7.83371   1.27316   2.72747
  -7.59371   1.27316   2.72747
