********************************************************************************
               CENTRO DE INSTRUMENTACION Y REGISTRO SISMICO  A.C.  
                       Coordinacion de Servicios Tecnicos
     Anaxagoras 814, Col. Narvarte, Benito Juarez, C.P. 03020 Mexico, D.F.
            Tels. 667 45 42/ 687 45  82             Fax. 669 25 12
********************************************************************************
ARCHIVO ESTANDAR DE ACELERACION:
VERSION DEL FORMATO                    : 2.0
NOMBRE DEL ARCHIVO                     : AU119701.111
FECHA Y HORA DE CREACION               : 18/MAR/98, 13:30
REF. CATALOGO ACELEROGRAMAS, SMIS 1996 : REGISTRO No.     /PAG.


================================================================================
DATOS DE LA ESTACION:
NOMBRE DE LA ESTACION                  : AUTODROMO
CLAVE DE LA ESTACION                   : AU11
LOCALIZACION DE LA ESTACION            : AUTODROMO HERMANOS RODRIGUEZ,
                                       : CHURUBUSCO, CD. DEPORTIVA
                                       :
                                       :
                                       :
COORDENADAS DE LA ESTACION             : 19.392 LAT. N 
                                       : 99.087 LONG. W 
ALTITUD (msnm)                         : 2234
TIPO DE SUELO                          : TERRENO BLANDO, MATERIAL COMPRESIBLE
                                       : (ARCILLAS)
                                       : 
INSTITUCION RESPONSABLE                : CIRES 
                                       :

================================================================================
DATOS DEL ACELEROGRAFO:
MODELO DEL ACELEROGRAFO                : SSA-1
NUMERO DE SERIE DEL ACELEROGRAFO       : 157
NUMERO DE CANALES                      : 3
ORIENTACION C1-C6 (rumbo;orientacion)  : /N00E/+V/N90E
ORIENTACION C7-C12 (rumbo;orientacion) :
VEL. DE MUESTREO, C1-C6 (muestras/s)   : /200/200/200
VEL. DE MUESTREO, C7-C12 (muestras/s)  :
ESC. COMPLETA DE SENSORES, C1-C6, (g)  : /2/2/2
ESC. COMPLETA DE SENSORES, C7-C12, (g) :
FREC. NAT. DE SENSORES, C1-C6, (Hz)    : /51.77/52.56/52.29
FREC. NAT. DE SENSORES, C7-C12, (Hz)   :
AMORTIGUAMIENTO DE SENSORES, C1-C6     : /.5912/.6083/.6067
AMORTIGUAMIENTO DE SENSORES, C7-C12    :
INTERVALO DE MUESTREO, C1-C6, (s)      : /0.005/0.005/0.005
INTERVALO DE MUESTREO, C7-C12, (s)     :
UMBRAL DE DISPARO, C1-C6, (Gal)        : /2/2/2
UMBRAL DE DISPARO, C7-C12, (Gal)       :
MEMORIA DE PREEVENTO (s)               : 15
TIEMPO DE POSEVENTO (s)                : 60


================================================================================
DATOS DEL SISMO:
FECHA DEL SISMO (GMT)                  : 11/ENE/97
HORA EPICENTRO (GMT)                   : 20:28:27:2
MAGNITUD(ES)                           : /Ms=6.9
COORDENADAS DEL EPICENTRO              : 17.9 LAT. N
                                       : 103.0 LONG. W
PROFUNDIDAD FOCAL (km)                 : 16.0
FUENTE DE LOS DATOS EPICENTRALES       : SSN
                                       : INSTITUTO DE GEOFISICA, UNAM

================================================================================
DATOS DE ESTE REGISTRO:
HORA DE LA PRIMERA MUESTRA (GMT)       : 20:29:55.00
EXACTITUD DEL TIEMPO (s)               :     
DURACION DEL REGISTRO (s), C1-C6       : /294.40/294.40/294.40
DURACION DEL REGISTRO (s), C7-C12      :
NUM. TOTAL DE MUESTRAS, C1-C6          : /58880/58880/58880
NUM. TOTAL DE MUESTRAS, C7-C12         :
ACEL. MAX. (Gal), C1-C6                : /22.65415/2.82771/18.12530
ACEL. MAX., C1-C6, EN LA MUESTRA       :
ACEL. MAX. (Gal), C7-C12               :
ACEL. MAX., C7-C12, EN LA MUESTRA      :
UNIDADES DE LOS DATOS                  : Gal (cm/s/s)
FACTOR DE DECIMACION                   : 1
FORMATO DATOS (FORTRAN,10 campos/dato) : 3F10.5


================================================================================
CALIDAD DEL ACELEROGRAMA:
REGISTRO DIGITAL COMPLETO, CARECE DE TIEMPO ABSOLUTO.


================================================================================
COMENTARIOS:














================================================================================
DATOS DE ACELERACION:
---------+---------+---------+---------+---------+---------+---------+---------+
   CANAL-1   CANAL-2   CANAL-3   CANAL-4   CANAL-5   CANAL-6   CANAL-7   CANAL-8
      N00E        +V      N90E
---------+---------+---------+---------+---------+---------+---------+---------+
[...]
 -16.62585   0.66771   8.93470
 -16.62585   0.66771   8.93470
 -16.62585   0.66771   9.17470
 -16.62585   0.66771   9.17470
 -16.38585   0.66771   9.17470
 -16.38585   0.66771   9.17470
 -16.38585   0.66771   9.17470
 -16.38585   0.90771   9.17470
 -16.38585   0.90771   9.17470
 -16.38585   0.90771   9.41470
 -16.14585   0.90771   9.41470
 -16.62585   0.90771   9.41470
 -16.14585   0.90771   9.41470
 -16.14585   1.14771   9.41470
 -15.90585   1.14771   9.41470
 -15.90585   1.14771   9.41470
 -15.90585   1.14771   9.65470
 -15.90585   1.14771   9.65470
 -15.90585   1.14771   9.65470
 -15.66585   1.14771   9.65470
 -15.66585   1.14771   9.65470
 -15.66585   1.14771   9.65470
 -15.66585   1.14771   9.65470
 -15.42585   1.14771   9.65470
 -15.42585   1.38771   9.65470
 -15.42585   1.38771   9.65470
 -15.42585   1.38771   9.65470
 -15.18585   1.38771   9.65470
 -14.94585   1.38771   9.65470
 -14.94585   1.38771   9.89470
 -14.94585   1.38771   9.65470
 -14.70585   1.38771   9.65470
 -14.70585   1.62771   9.65470
 -14.70585   1.62771   9.89470
 -14.47585   1.62771   9.89470
 -14.47585   1.62771   9.89470
 -14.23585   1.62771   9.89470
 -14.23585   1.62771   9.89470
 -13.99585   1.62771   9.65470
 -13.99585   1.62771   9.41470
 -13.75585   1.62771   9.89470
 -13.99585   1.62771   9.65470
 -13.75585   1.62771   9.17470
 -13.51585   1.62771   9.65470
 -13.51585   1.62771   9.65470
 -13.27585   1.62771   9.65470
 -13.27585   1.62771   9.65470
 -13.03585   1.62771   9.65470
 -13.03585   1.62771   9.65470
 -12.79585   1.62771   9.65470
 -12.79585   1.62771   9.65470
 -12.55585   1.86771   9.65470
 -12.55585   1.86771   9.65470
 -12.31585   1.62771   9.41470
 -12.31585   1.62771   9.65470
 -12.07585   1.62771   9.65470
 -12.07585   1.62771   9.65470
 -11.83585   1.62771   9.65470
 -11.83585   1.62771   9.41470
 -11.59585   1.62771   9.41470
 -11.59585   1.62771   9.41470
 -11.59585   1.38771   9.41470
 -11.35585   1.38771   9.41470
 -11.11585   1.62771   9.41470
 -11.11585   1.38771   9.17470
 -10.87585   1.38771   9.17470
 -10.87585   1.38771   9.17470
 -10.87585   1.38771   9.17470
 -10.63585   1.38771   9.17470
 -10.63585   1.14771   8.93470
 -10.39585   1.14771   8.93470
 -10.39585   1.14771   8.93470
 -10.39585   1.14771   8.93470
 -10.15585   1.14771   8.69470
 -10.15585   1.14771   8.69470
  -9.91585   1.14771   8.69470
  -9.91585   1.14771   8.45470
  -9.91585   0.90771   8.45470
  -9.68585   1.14771   8.45470
  -9.68585   0.66771   8.21470
  -9.44585   1.14771   8.21470
  -9.44585   0.90771   8.21470
  -9.44585   0.90771   7.97470
  -9.20585   0.90771   7.97470
  -9.20585   0.90771   7.97470
  -8.96585   0.90771   7.73470
  -8.96585   0.66771   7.73470
  -8.96585   0.66771   7.73470
  -8.72585   0.42771   7.49470
  -8.72585   0.66771   7.49470
  -8.72585   0.66771   7.25470
  -8.48585   0.42771   7.25470
  -8.48585   0.42771   7.02470
  -8.48585   0.42771   7.02470
  -8.48585   0.42771   7.02470
  -8.24585   0.42771   6.78470
  -8.24585   0.42771   6.78470
  -8.24585   0.42771   6.54470
  -8.00585   0.18771   6.54470
  -8.00585   0.18771   6.30470
  -8.00585   0.18771   6.30470
  -7.76585   0.18771   6.30470
  -7.76585   0.18771   6.06470
  -7.76585  -0.05229   6.06470
  -7.52585   0.18771   5.82470
  -7.52585  -0.05229   5.82470
  -7.52585  -0.05229   5.58470
  -7.52585  -0.05229   5.58470
  -7.52585  -0.05229   5.58470
  -7.28585  -0.05229   5.34470
  -7.28585  -0.05229   5.10470
  -7.28585  -0.29229   5.10470
  -7.28585  -0.29229   4.86470
  -7.04585  -0.29229   4.62470
  -7.04585  -0.29229   4.86470
  -7.04585  -0.29229   4.62470
  -7.04585  -0.29229   4.38470
  -7.04585  -0.29229   4.38470
  -7.04585  -0.29229   4.14470
  -6.80585  -0.29229   4.14470
  -6.80585  -0.29229   3.90470
  -6.80585  -0.29229   3.90470
  -6.80585  -0.29229   3.66470
  -6.80585  -0.29229   3.66470
  -6.80585  -0.29229   3.42470
  -6.56585  -0.29229   3.42470
  -6.56585  -0.29229   3.18470
  -6.56585  -0.29229   2.94470
  -6.56585  -0.29229   2.94470
  -6.56585  -0.53229   2.70470
  -6.56585  -0.53229   2.70470
  -6.56585  -0.53229   2.46470
  -6.56585  -0.53229   2.46470
  -6.32585  -0.53229   2.23470
  -6.56585  -0.53229   1.99470
  -6.32585  -0.53229   1.99470
  -6.32585  -0.29229   1.99470
  -6.32585  -0.53229   1.75470
  -6.32585  -0.53229   1.75470
  -6.32585  -0.53229   1.51470
  -6.08585  -0.53229   1.27470
  -6.08585  -0.53229   1.27470
  -6.08585  -0.53229   1.03470
  -6.08585  -0.53229   1.03470
  -6.08585  -0.53229   0.79470
  -6.08585  -0.53229   0.79470
  -5.84585  -0.53229   0.55470
  -5.84585  -0.53229   0.55470
  -5.84585  -0.53229   0.31470
  -5.84585  -0.53229   0.31470
  -5.84585  -0.77229   0.07470
  -5.84585  -0.53229   0.07470
  -5.60585  -0.53229   0.07470
  -5.60585  -0.53229  -0.16530
  -5.60585  -0.53229  -0.40530
  -5.60585  -0.53229  -0.40530
  -5.60585  -0.53229  -0.40530
  -5.36585  -0.77229  -0.64530
  -5.36585  -0.77229  -0.64530
  -5.36585  -0.53229  -0.88530
  -5.36585  -0.77229  -0.88530
  -5.36585  -0.77229  -0.88530
  -5.12585  -0.53229  -0.88530
  -5.12585  -0.53229  -1.12530
  -5.12585  -0.53229  -1.36530
  -5.12585  -0.53229  -1.36530
  -5.12585  -0.53229  -1.36530
  -4.89585  -0.53229  -1.60530
  -4.89585  -0.53229  -1.60530
  -4.89585  -0.53229  -1.84530
  -4.89585  -0.53229  -1.84530
  -4.65585  -0.53229  -1.84530
  -4.65585  -0.53229  -1.84530
  -4.65585  -0.53229  -2.08530
  -4.65585  -0.53229  -2.08530
  -4.65585  -0.53229  -2.08530
  -4.41585  -0.53229  -2.32530
  -4.41585  -0.53229  -2.32530
  -4.17585  -0.77229  -2.32530
  -4.17585  -0.53229  -2.56530
  -4.17585  -0.53229  -2.56530
  -4.17585  -0.53229  -2.56530
  -4.17585  -0.53229  -2.79530
  -3.93585  -0.53229  -2.79530
  -3.93585  -0.53229  -2.79530
  -3.69585  -0.53229  -2.79530
  -3.69585  -0.53229  -3.03530
  -3.69585  -0.53229  -3.03530
  -3.45585  -0.53229  -3.03530
  -3.45585  -0.53229  -3.27530
  -3.21585  -0.53229  -3.27530
  -3.21585  -0.53229  -3.27530
  -2.97585  -0.53229  -3.27530
  -2.97585  -0.29229  -3.27530
  -2.97585  -0.29229  -3.27530
  -2.73585  -0.53229  -3.51530
  -2.73585  -0.29229  -3.51530
  -2.49585  -0.29229  -3.51530
  -2.49585  -0.29229  -3.51530
  -2.25585  -0.29229  -4.23530
  -2.25585  -0.29229  -3.75530
  -2.01585  -0.29229  -3.75530
  -1.77585  -0.29229  -4.23530
  -1.77585  -0.29229  -3.75530
  -1.53585  -0.29229  -3.99530
  -1.53585  -0.29229  -3.99530
  -1.29585  -0.29229  -3.99530
  -1.29585  -0.29229  -3.99530
  -1.05585  -0.29229  -3.99530
  -0.81585  -0.05229  -4.23530
  -0.81585  -0.05229  -4.23530
  -0.57585  -0.05229  -4.23530
  -0.33585  -0.05229  -4.23530
  -0.33585  -0.05229  -4.47530
  -0.10585  -0.05229  -4.47530
   0.13415  -0.05229  -4.47530
   0.37415  -0.05229  -4.47530
   0.37415  -0.05229  -4.47530
   0.61415   0.18771  -4.71530
   0.85415   0.18771  -4.71530
   1.09415   0.18771  -4.71530
   1.09415   0.18771  -4.71530
   1.33415   0.18771  -4.71530
   1.57415   0.18771  -4.71530
   1.81415   0.18771  -4.95530
   2.05415   0.18771  -4.95530
   2.05415   0.18771  -4.95530
   2.29415   0.18771  -4.95530
   2.53415   0.18771  -4.95530
   2.77415   0.42771  -4.95530
   3.01415   0.42771  -4.95530
   3.25415   0.42771  -5.19530
   3.49415   0.42771  -5.19530
   3.49415   0.42771  -5.19530
   3.73415   0.42771  -5.19530
   3.97415   0.42771  -5.19530
   4.21415   0.42771  -5.19530
   4.45415   0.66771  -5.19530
   4.69415   0.66771  -5.19530
   4.92415   0.66771  -5.19530
   5.16415   0.66771  -5.43530
   5.40415   0.66771  -5.43530
   5.64415   0.66771  -5.43530
   5.88415   0.66771  -5.43530
   6.12415   0.66771  -5.43530
   6.36415   0.66771  -5.67530
   6.60415   0.66771  -5.43530
   6.84415   0.66771  -5.67530
   7.08415   0.66771  -5.67530
   7.32415   0.66771  -5.67530
   7.56415   0.90771  -5.67530
   7.80415   0.90771  -5.67530
   8.04415   0.90771  -5.67530
   8.28415   0.90771  -5.67530
   8.52415   0.90771  -5.91530
   8.76415   0.90771  -5.91530
   9.00415   0.90771  -5.91530
   9.24415   0.90771  -5.91530
   9.48415   0.90771  -5.91530
   9.71415   0.90771  -5.91530
  10.19415   0.90771  -5.91530
  10.19415   1.14771  -5.91530
  10.67415   0.90771  -6.15530
  10.91415   1.14771  -6.15530
  10.91415   1.14771  -6.15530
  11.15415   1.14771  -6.15530
  11.39415   0.90771  -6.15530
  11.87415   1.14771  -6.15530
  12.11415   1.14771  -6.15530
  12.35415   1.14771  -6.15530
  12.59415   1.14771  -6.15530
  12.83415   1.14771  -6.15530
  13.07415   1.14771  -6.39530
  13.07415   1.14771  -6.39530
  13.31415   1.14771  -6.39530
  13.79415   1.14771  -6.39530
  13.79415   1.14771  -6.39530
  14.03415   1.14771  -6.39530
  14.27415   1.14771  -6.39530
  14.50415   1.14771  -6.39530
  14.74415   1.14771  -6.39530
  14.98415   1.14771  -6.39530
  15.22415   0.90771  -6.39530
  15.46415   1.14771  -6.15530
  15.70415   0.90771  -6.39530
  15.94415   1.14771  -6.39530
  16.18415   0.90771  -6.39530
  16.42415   0.90771  -6.39530
  16.66415   0.90771  -6.39530
  16.66415   0.90771  -6.15530
  16.90415   1.14771  -6.39530
  17.38415   0.90771  -6.39530
  17.38415   0.90771  -6.39530
  17.62415   0.90771  -6.39530
  17.86415   0.90771  -6.15530
  18.10415   1.14771  -6.15530
  18.10415   0.90771  -6.39530
  18.34415   0.90771  -6.39530
  18.58415   0.90771  -6.15530
  18.82415   0.90771  -6.15530
  18.82415   0.90771  -6.15530
  19.06415   0.90771  -6.15530
  19.29415   0.90771  -6.15530
  19.53415   0.90771  -6.15530
  19.53415   0.90771  -6.15530
  19.77415   0.90771  -6.15530
  20.01415   0.90771  -6.15530
  20.01415   0.66771  -6.15530
  20.25415   0.66771  -6.15530
  20.25415   0.66771  -6.15530
  20.49415   0.66771  -6.15530
  20.49415   0.66771  -6.15530
  20.73415   0.66771  -6.15530
  20.73415   0.66771  -6.15530
  20.97415   0.66771  -6.15530
  20.97415   0.66771  -6.15530
  21.21415   0.66771  -6.15530
  21.21415   0.66771  -6.15530
  21.21415   0.66771  -6.15530
  21.45415   0.66771  -6.15530
  21.45415   0.42771  -6.15530
  21.45415   0.42771  -6.15530
  21.69415   0.42771  -6.15530
  21.69415   0.42771  -6.15530
  21.69415   0.42771  -6.15530
  21.69415   0.42771  -6.15530
  21.69415   0.42771  -6.15530
  21.93415   0.18771  -6.39530
  21.93415   0.18771  -6.15530
  21.93415   0.18771  -6.15530
  21.93415   0.18771  -6.15530
  22.17415   0.18771  -6.39530
  22.17415   0.18771  -6.39530
  22.17415   0.18771  -6.39530
  22.17415   0.18771  -6.39530
  22.17415   0.18771  -6.39530
  22.41415   0.18771  -6.39530
  22.41415   0.18771  -6.39530
  22.41415   0.18771  -6.39530
  22.41415  -0.05229  -6.39530
  22.41415  -0.05229  -6.39530
  22.41415  -0.05229  -6.39530
  22.41415  -0.05229  -6.39530
  22.41415  -0.05229  -6.39530
  22.41415  -0.05229  -6.63530
  22.41415  -0.05229  -6.63530
  22.41415  -0.05229  -6.63530
  22.41415  -0.29229  -6.63530
  22.41415  -0.29229  -6.63530
  22.65415  -0.29229  -6.63530
  22.65415  -0.29229  -6.63530
  22.41415  -0.29229  -6.63530
  22.65415  -0.29229  -6.87530
  22.65415  -0.29229  -6.87530
  22.65415  -0.29229  -6.87530
  22.65415  -0.29229  -6.87530
  22.65415  -0.29229  -6.87530
  22.65415  -0.29229  -7.11530
  22.65415  -0.29229  -7.11530
  22.65415  -0.53229  -7.11530
  22.65415  -0.29229  -7.11530
  22.65415  -0.53229  -7.35530
  22.65415  -0.29229  -7.35530
  22.65415  -0.77229  -7.35530
  22.65415  -0.53229  -7.35530
  22.65415  -0.53229  -7.58530
  22.65415  -0.53229  -7.58530
  22.65415  -0.53229  -7.58530
  22.65415  -0.53229  -7.58530
  22.65415  -0.53229  -7.58530
  22.65415  -0.77229  -7.82530
  22.41415  -0.77229  -7.82530
  22.41415  -0.77229  -8.06530
  22.41415  -0.77229  -8.06530
  22.41415  -0.77229  -8.06530
  22.41415  -0.77229  -8.06530
  22.41415  -0.77229  -8.30530
  22.41415  -0.77229  -8.30530
  22.41415  -1.01229  -8.30530
  22.41415  -1.01229  -8.30530
  22.41415  -1.01229  -8.54530
  22.41415  -0.77229  -8.54530
  22.17415  -1.01229  -8.54530
  22.17415  -1.01229  -8.54530
  22.17415  -1.01229  -8.54530
  22.17415  -1.01229  -8.54530
  22.17415  -1.01229  -8.54530
  21.93415  -1.01229  -8.78530
  21.93415  -1.24229  -8.78530
  21.93415  -1.24229  -8.78530
  21.69415  -1.24229  -8.78530
  21.69415  -1.24229  -8.78530
  21.69415  -1.24229  -8.78530
  21.45415  -1.24229  -9.02530
  21.45415  -1.24229  -9.02530
  21.45415  -1.24229  -9.02530
  21.21415  -1.24229  -9.02530
  21.21415  -1.24229  -9.02530
  21.21415  -1.48229  -9.02530
  20.97415  -1.24229  -9.02530
  20.97415  -1.24229  -9.02530
  20.73415  -1.48229  -9.02530
  20.73415  -1.48229  -9.02530
  20.73415  -1.48229  -9.02530
  20.49415  -1.48229  -9.02530
  20.49415  -1.48229  -9.02530
  20.25415  -1.48229  -9.02530
  20.25415  -1.48229  -9.02530
  20.01415  -1.72229  -9.02530
  19.77415  -1.48229  -9.02530
  19.77415  -1.48229  -9.02530
  19.53415  -1.48229  -9.02530
  19.53415  -1.48229  -9.02530
  19.53415  -1.48229  -9.02530
  19.29415  -1.48229  -9.02530
  19.06415  -1.48229  -9.02530
  19.06415  -1.48229  -9.02530
  18.82415  -1.48229  -8.78530
  18.58415  -1.48229  -8.78530
  18.58415  -1.48229  -8.78530
  18.58415  -1.48229  -8.78530
  18.34415  -1.48229  -8.78530
  18.34415  -1.48229  -8.78530
  18.10415  -1.48229  -8.54530
  17.86415  -1.48229  -8.54530
  17.86415  -1.48229  -8.54530
  17.62415  -1.48229  -8.54530
  17.62415  -1.48229  -8.54530
  17.38415  -1.48229  -8.54530
  17.38415  -1.48229  -8.54530
  17.14415  -1.48229  -8.30530
  16.90415  -1.48229  -8.30530
  16.66415  -1.48229  -8.30530
  16.66415  -1.48229  -8.06530
  16.42415  -1.24229  -8.30530
  16.18415  -1.48229  -8.06530
  16.18415  -1.48229  -8.06530
  16.18415  -1.48229  -8.06530
  15.94415  -1.48229  -7.82530
  15.70415  -1.48229  -7.82530
  15.70415  -1.48229  -7.82530
  15.46415  -1.48229  -7.82530
  15.22415  -1.48229  -7.82530
  15.22415  -1.48229  -7.58530
  14.98415  -1.48229  -7.58530
  14.74415  -1.48229  -7.58530
  14.74415  -1.48229  -7.58530
  14.50415  -1.48229  -7.58530
  14.50415  -1.48229  -7.58530
  14.27415  -1.48229  -7.35530
  14.03415  -1.24229  -7.35530
  14.03415  -1.48229  -7.35530
  13.79415  -1.24229  -7.35530
  13.55415  -1.24229  -7.11530
  13.55415  -1.48229  -7.11530
  13.31415  -1.24229  -7.11530
  13.31415  -1.48229  -7.11530
  13.07415  -1.24229  -6.87530
  13.07415  -1.24229  -6.87530
  12.83415  -1.24229  -6.87530
  12.59415  -1.24229  -6.87530
  12.59415  -1.24229  -6.63530
  12.35415  -1.24229  -6.63530
  12.11415  -1.24229  -6.63530
  12.11415  -1.24229  -6.63530
  11.87415  -1.24229  -6.39530
  11.63415  -1.24229  -6.39530
  11.63415  -1.24229  -6.39530
  11.39415  -1.24229  -6.39530
  11.15415  -1.24229  -6.15530
  11.15415  -1.24229  -6.15530
  10.91415  -1.01229  -6.15530
  10.91415  -1.01229  -6.15530
  10.67415  -1.01229  -5.91530
  10.67415  -1.24229  -5.91530
  10.43415  -1.24229  -5.91530
  10.19415  -1.24229  -5.67530
  10.19415  -1.24229  -5.67530
   9.95415  -1.24229  -5.67530
   9.71415  -1.01229  -5.67530
   9.71415  -1.01229  -5.43530
   9.48415  -1.01229  -5.43530
   9.24415  -1.01229  -5.43530
   9.24415  -1.01229  -5.43530
   9.00415  -1.01229  -5.19530
   8.76415  -1.01229  -5.19530
   8.76415  -1.01229  -5.19530
   8.52415  -1.01229  -4.95530
   8.52415  -1.01229  -4.95530
   8.28415  -1.01229  -4.95530
   8.04415  -1.01229  -4.71530
   8.04415  -1.01229  -4.71530
   7.80415  -1.01229  -4.71530
   7.80415  -1.01229  -4.47530
   7.56415  -1.01229  -4.47530
   7.32415  -0.77229  -4.47530
   7.32415  -0.77229  -4.23530
   7.08415  -0.77229  -4.23530
   6.84415  -0.77229  -4.23530
   6.84415  -0.77229  -4.23530
