********************************************************************************
               CENTRO DE INSTRUMENTACION Y REGISTRO SISMICO  A.C.  
                       Coordinacion de Servicios Tecnicos
     Anaxagoras 814, Col. Narvarte, Benito Juarez, C.P. 03020 Mexico, D.F.
            Tels. 667 45 42/ 687 45  82             Fax. 669 25 12
********************************************************************************
ARCHIVO ESTANDAR DE ACELERACION:
VERSION DEL FORMATO                    : 2.0
NOMBRE DEL ARCHIVO                     : AU110401.011
FECHA Y HORA DE CREACION               : 27/OCT/04, 10:13
REF. CATALOGO ACELEROGRAMAS, SMIS 1996 : REGISTRO No.     /PAG.


================================================================================
DATOS DE LA ESTACION:
NOMBRE DE LA ESTACION                  : AUTODROMO
CLAVE DE LA ESTACION                   : AU11
LOCALIZACION DE LA ESTACION            : AUTODROMO HERMANOS RODRIGUEZ,
                                       : CHURUBUSCO, CD. DEPORTIVA
                                       :
                                       :
                                       :
COORDENADAS DE LA ESTACION             : 19.392 LAT. N 
                                       : 99.087 LONG. W 
ALTITUD (msnm)                         : 2234
TIPO DE SUELO                          : TERRENO BLANDO, MATERIAL COMPRESIBLE
                                       : (ARCILLAS)
                                       : 
INSTITUCION RESPONSABLE                : CIRES 
                                       :

================================================================================
DATOS DEL ACELEROGRAFO:
MODELO DEL ACELEROGRAFO                : SSA-1
NUMERO DE SERIE DEL ACELEROGRAFO       : 157
NUMERO DE CANALES                      : 3
ORIENTACION C1-C6 (rumbo;orientacion)  : /N00E/+V/N90E
ORIENTACION C7-C12 (rumbo;orientacion) :
VEL. DE MUESTREO, C1-C6 (muestras/s)   : /200/200/200
VEL. DE MUESTREO, C7-C12 (muestras/s)  :
ESC. COMPLETA DE SENSORES, C1-C6, (g)  : /2/2/2
ESC. COMPLETA DE SENSORES, C7-C12, (g) :
FREC. NAT. DE SENSORES, C1-C6, (Hz)    : /51.77/52.56/52.29
FREC. NAT. DE SENSORES, C7-C12, (Hz)   :
AMORTIGUAMIENTO DE SENSORES, C1-C6     : /.5912/.6083/.6067
AMORTIGUAMIENTO DE SENSORES, C7-C12    :
INTERVALO DE MUESTREO, C1-C6, (s)      : /0.005/0.005/0.005
INTERVALO DE MUESTREO, C7-C12, (s)     :
UMBRAL DE DISPARO, C1-C6, (Gal)        : /2/2/2
UMBRAL DE DISPARO, C7-C12, (Gal)       :
MEMORIA DE PREEVENTO (s)               : 15
TIEMPO DE POSEVENTO (s)                : 60


================================================================================
DATOS DEL SISMO:
FECHA DEL SISMO (GMT)                  : 01/ENE/04
HORA EPICENTRO (GMT)                   : 23:31:49:0
MAGNITUD(ES)                           : /Ms=6.3
COORDENADAS DEL EPICENTRO              : 17.31 LAT. N
                                       : -101.42 LONG. W
PROFUNDIDAD FOCAL (km)                 : 10.0
FUENTE DE LOS DATOS EPICENTRALES       : SSN
                                       : INSTITUTO DE GEOFISICA, UNAM

================================================================================
DATOS DE ESTE REGISTRO:
HORA DE LA PRIMERA MUESTRA (GMT)       : 23:33:18.00
EXACTITUD DEL TIEMPO (s)               :     
DURACION DEL REGISTRO (s), C1-C6       : /177.92/177.92/177.92
DURACION DEL REGISTRO (s), C7-C12      :
NUM. TOTAL DE MUESTRAS, C1-C6          : /35584/35584/35584
NUM. TOTAL DE MUESTRAS, C7-C12         :
ACEL. MAX. (Gal), C1-C6                : /-5.41130/-1.65331/3.79473
ACEL. MAX., C1-C6, EN LA MUESTRA       :
ACEL. MAX. (Gal), C7-C12               :
ACEL. MAX., C7-C12, EN LA MUESTRA      :
UNIDADES DE LOS DATOS                  : Gal (cm/s/s)
FACTOR DE DECIMACION                   : 1
FORMATO DATOS (FORTRAN,10 campos/dato) : 3F10.5


================================================================================
CALIDAD DEL ACELEROGRAMA:
REGISTRO DIGITAL COMPLETO, CARECE DE TIEMPO ABSOLUTO.


================================================================================
COMENTARIOS:














================================================================================
DATOS DE ACELERACION:
---------+---------+---------+---------+---------+---------+---------+---------+
   CANAL-1   CANAL-2   CANAL-3   CANAL-4   CANAL-5   CANAL-6   CANAL-7   CANAL-8
      N00E        +V      N90E
---------+---------+---------+---------+---------+---------+---------+---------+
[...]
  -1.10130  -0.21331  -0.27527
  -1.10130  -0.21331  -0.27527
  -0.86130  -0.21331  -0.27527
  -0.86130  -0.21331  -0.27527
  -0.86130   0.02669  -0.51527
  -0.86130  -0.21331  -0.27527
  -0.62130   0.02669  -0.27527
  -0.62130   0.02669  -0.27527
  -0.62130   0.02669  -0.51527
  -0.62130   0.02669  -0.27527
  -0.62130  -0.21331  -0.51527
  -0.62130   0.02669  -0.51527
  -0.38130   0.02669  -0.51527
  -0.38130   0.02669  -0.51527
  -0.38130   0.26669  -0.27527
  -0.38130   0.02669  -0.51527
  -0.14130   0.02669  -0.51527
  -0.14130   0.02669  -0.27527
  -0.14130   0.26669  -0.51527
  -0.14130   0.26669  -0.51527
  -0.14130   0.26669  -0.51527
  -0.14130   0.26669  -0.51527
  -0.14130   0.26669  -0.51527
   0.09870   0.26669  -0.51527
   0.09870   0.26669  -0.51527
   0.09870   0.26669  -0.51527
   0.09870   0.26669  -0.51527
   0.09870   0.26669  -0.51527
   0.09870   0.26669  -0.51527
   0.33870   0.26669  -0.51527
   0.33870   0.26669  -0.51527
   0.33870   0.26669  -0.51527
   0.33870   0.26669  -0.51527
   0.33870   0.26669  -0.51527
   0.33870   0.26669  -0.51527
   0.33870   0.26669  -0.51527
   0.33870   0.26669  -0.51527
   0.33870   0.26669  -0.51527
   0.33870   0.26669  -0.51527
   0.33870   0.26669  -0.51527
   0.33870   0.50669  -0.27527
   0.33870   0.26669  -0.51527
   0.33870   0.50669  -0.51527
   0.33870   0.50669  -0.51527
   0.56870   0.50669  -0.51527
   0.56870   0.50669  -0.51527
   0.33870   0.50669  -0.51527
   0.56870   0.50669  -0.27527
   0.56870   0.50669  -0.51527
   0.56870   0.50669  -0.27527
   0.56870   0.50669  -0.27527
   0.56870   0.50669  -0.27527
   0.56870   0.50669  -0.27527
   0.33870   0.50669  -0.27527
   0.56870   0.50669  -0.27527
   0.33870   0.50669  -0.27527
   0.33870   0.50669  -0.27527
   0.33870   0.50669  -0.27527
   0.56870   0.50669  -0.27527
   0.33870   0.50669  -0.27527
   0.33870   0.50669  -0.27527
   0.33870   0.50669  -0.27527
   0.33870   0.50669  -0.27527
   0.33870   0.50669  -0.27527
   0.33870   0.50669  -0.27527
   0.33870   0.50669  -0.27527
   0.33870   0.50669  -0.27527
   0.33870   0.50669  -0.27527
   0.33870   0.50669  -0.27527
   0.33870   0.50669  -0.27527
   0.33870   0.50669  -0.27527
   0.33870   0.50669  -0.27527
   0.33870   0.50669  -0.27527
   0.33870   0.50669  -0.27527
   0.33870   0.50669  -0.27527
   0.33870   0.50669  -0.27527
   0.33870   0.50669  -0.27527
   0.33870   0.50669  -0.27527
   0.09870   0.50669  -0.27527
   0.09870   0.50669  -0.27527
   0.09870   0.50669  -0.27527
   0.33870   0.50669  -0.27527
   0.09870   0.50669  -0.27527
   0.09870   0.50669  -0.27527
   0.09870   0.50669  -0.27527
   0.09870   0.50669  -0.51527
   0.09870   0.50669  -0.27527
  -0.14130   0.50669  -0.27527
  -0.14130   0.50669  -0.27527
  -0.14130   0.50669  -0.27527
  -0.14130   0.50669  -0.27527
  -0.14130   0.50669  -0.27527
  -0.14130   0.50669  -0.27527
  -0.14130   0.50669  -0.27527
  -0.14130   0.50669  -0.27527
  -0.14130   0.50669  -0.27527
  -0.14130   0.50669  -0.27527
  -0.38130   0.50669  -0.27527
  -0.38130   0.50669  -0.27527
  -0.38130   0.50669  -0.27527
  -0.38130   0.50669  -0.27527
  -0.38130   0.50669  -0.27527
  -0.62130   0.50669  -0.27527
  -0.62130   0.50669  -0.51527
  -0.62130   0.26669  -0.27527
  -0.62130   0.26669  -0.27527
  -0.62130   0.02669  -0.27527
  -0.62130   0.50669  -0.27527
  -0.86130   0.26669  -0.27527
  -0.86130   0.26669  -0.27527
  -0.86130   0.26669  -0.27527
  -0.86130   0.26669  -0.27527
  -0.86130   0.26669  -0.27527
  -0.86130   0.02669  -0.27527
  -1.10130   0.26669  -0.27527
  -1.10130   0.26669  -0.27527
  -1.10130   0.26669  -0.27527
  -1.10130   0.26669  -0.27527
  -1.10130   0.26669  -0.51527
  -1.10130   0.26669  -0.27527
  -1.10130   0.26669  -0.27527
  -1.34130   0.26669  -0.27527
  -1.34130   0.26669  -0.51527
  -1.34130   0.26669  -0.27527
  -1.34130   0.26669  -0.51527
  -1.34130   0.26669  -0.51527
  -1.58130   0.26669  -0.51527
  -1.58130   0.26669  -0.51527
  -1.58130   0.26669  -0.51527
  -1.58130   0.26669  -0.51527
  -1.58130   0.26669  -0.51527
  -1.58130   0.26669  -0.27527
  -1.82130   0.26669  -0.51527
  -1.82130   0.26669  -0.51527
  -1.82130   0.02669  -0.51527
  -1.82130   0.02669  -0.51527
  -1.82130   0.02669  -0.51527
  -1.82130   0.26669  -0.51527
  -1.82130   0.02669  -0.51527
  -1.82130   0.02669  -0.27527
  -1.82130   0.02669  -0.51527
  -2.06130   0.02669  -0.51527
  -2.06130   0.02669  -0.27527
  -2.06130   0.02669  -0.51527
  -2.06130   0.02669  -0.51527
  -2.06130   0.02669  -0.51527
  -2.06130   0.02669  -0.27527
  -2.06130   0.02669  -0.51527
  -2.06130   0.02669  -0.51527
  -2.06130   0.02669  -0.51527
  -2.06130   0.02669  -0.51527
  -2.06130   0.02669  -0.51527
  -2.06130   0.02669  -0.51527
  -2.06130   0.02669  -0.51527
  -2.06130   0.02669  -0.51527
  -2.06130   0.02669  -0.51527
  -2.06130   0.02669  -0.51527
  -2.06130   0.02669  -0.51527
  -2.06130   0.02669  -0.51527
  -2.06130   0.02669  -0.51527
  -2.06130   0.02669  -0.51527
  -2.06130   0.02669  -0.51527
  -2.06130   0.02669  -0.51527
  -2.06130   0.02669  -0.51527
  -2.06130   0.02669  -0.51527
  -2.06130   0.02669  -0.51527
  -2.06130   0.02669  -0.51527
  -2.06130  -0.21331  -0.51527
  -2.06130   0.02669  -0.51527
  -2.06130   0.02669  -0.51527
  -2.06130  -0.21331  -0.51527
  -2.06130  -0.21331  -0.51527
  -2.06130  -0.21331  -0.51527
  -2.06130  -0.21331  -0.51527
  -2.06130  -0.21331  -0.51527
  -2.06130  -0.21331  -0.51527
  -2.06130  -0.21331  -0.51527
  -1.82130  -0.21331  -0.51527
  -1.82130  -0.21331  -0.75527
  -2.06130   0.02669  -0.75527
  -1.82130  -0.21331  -0.75527
  -1.82130  -0.21331  -0.75527
  -1.82130  -0.21331  -0.75527
  -1.82130  -0.21331  -0.75527
  -1.82130  -0.21331  -0.75527
  -1.82130  -0.21331  -0.75527
  -1.82130  -0.21331  -0.75527
  -1.82130  -0.21331  -0.75527
  -1.82130  -0.21331  -0.75527
  -1.82130  -0.21331  -0.75527
  -1.58130  -0.21331  -0.99527
  -1.58130  -0.21331  -0.75527
  -1.58130  -0.21331  -0.99527
  -1.58130  -0.21331  -0.99527
  -1.58130  -0.21331  -0.99527
  -1.58130  -0.21331  -0.99527
  -1.58130  -0.21331  -0.99527
  -1.58130  -0.21331  -0.99527
  -1.58130  -0.21331  -1.23527
  -1.58130  -0.21331  -1.23527
  -1.58130  -0.21331  -1.23527
  -1.58130  -0.21331  -1.23527
  -1.58130  -0.21331  -1.23527
  -1.58130  -0.21331  -1.23527
  -1.58130  -0.21331  -1.23527
  -1.34130  -0.21331  -1.23527
  -1.34130  -0.21331  -1.23527
  -1.34130  -0.21331  -1.47527
  -1.34130  -0.21331  -1.47527
  -1.34130  -0.21331  -1.47527
  -1.34130  -0.21331  -1.47527
  -1.34130  -0.45331  -1.47527
  -1.10130  -0.45331  -1.47527
  -1.10130  -0.45331  -1.47527
  -1.10130  -0.45331  -1.71527
  -1.10130  -0.45331  -1.71527
  -1.10130  -0.45331  -1.71527
  -1.10130  -0.45331  -1.71527
  -1.10130  -0.45331  -1.71527
  -1.10130  -0.45331  -1.71527
  -0.86130  -0.69331  -1.71527
  -1.10130  -0.45331  -1.71527
  -0.86130  -0.45331  -1.71527
  -0.86130  -0.45331  -1.71527
  -0.86130  -0.45331  -1.71527
  -0.86130  -0.45331  -1.71527
  -0.86130  -0.45331  -1.71527
  -0.86130  -0.45331  -1.71527
  -0.62130  -0.45331  -1.95527
  -0.62130  -0.45331  -1.95527
  -0.62130  -0.45331  -1.95527
  -0.62130  -0.45331  -1.95527
  -0.62130  -0.45331  -1.95527
  -0.62130  -0.45331  -1.95527
  -0.38130  -0.45331  -1.95527
  -0.62130  -0.69331  -1.95527
  -0.38130  -0.69331  -1.95527
  -0.14130  -0.69331  -1.95527
  -0.14130  -0.69331  -1.95527
  -0.14130  -0.45331  -1.95527
  -0.14130  -0.69331  -1.95527
  -0.14130  -0.69331  -1.95527
  -0.14130  -0.69331  -1.95527
  -0.14130  -0.69331  -1.95527
   0.09870  -0.45331  -1.95527
   0.09870  -0.69331  -1.71527
   0.09870  -0.69331  -1.71527
   0.09870  -0.69331  -1.95527
   0.33870  -0.69331  -1.95527
   0.33870  -0.69331  -1.71527
   0.33870  -0.69331  -1.71527
   0.33870  -0.69331  -1.71527
   0.56870  -0.69331  -1.71527
   0.56870  -0.69331  -1.71527
   0.56870  -0.69331  -1.71527
   0.56870  -0.69331  -1.71527
   0.56870  -0.45331  -1.71527
   0.80870  -0.45331  -1.71527
   0.80870  -0.45331  -1.71527
   0.80870  -0.45331  -1.71527
   0.80870  -0.69331  -1.71527
   1.04870  -0.45331  -1.71527
   1.04870  -0.45331  -1.71527
   1.04870  -0.45331  -1.71527
   1.28870  -0.45331  -1.71527
   1.28870  -0.45331  -1.71527
   1.28870  -0.45331  -1.71527
   1.28870  -0.45331  -1.71527
   1.28870  -0.45331  -1.71527
   1.28870  -0.45331  -1.71527
   1.52870  -0.45331  -1.71527
   1.52870  -0.45331  -1.71527
   1.76870  -0.45331  -1.71527
   1.76870  -0.45331  -1.71527
   1.28870  -0.45331  -1.71527
   1.76870  -0.45331  -1.47527
   2.00870  -0.45331  -1.71527
   2.00870  -0.45331  -1.71527
   2.00870  -0.45331  -1.47527
   2.00870  -0.45331  -1.71527
   2.00870  -0.45331  -1.47527
   2.24870  -0.45331  -1.47527
   2.24870  -0.45331  -1.71527
   2.24870  -0.45331  -1.71527
   2.48870  -0.21331  -1.47527
   2.48870  -0.45331  -1.71527
   2.48870  -0.21331  -1.71527
   2.48870  -0.21331  -1.71527
   2.72870  -0.45331  -1.71527
   2.72870  -0.45331  -1.71527
   2.72870  -0.21331  -1.71527
   2.72870  -0.21331  -1.47527
   2.96870  -0.21331  -1.71527
   2.96870  -0.21331  -1.71527
   2.96870  -0.21331  -1.71527
   2.96870  -0.21331  -1.71527
   2.96870  -0.21331  -1.71527
   3.20870  -0.21331  -1.71527
   3.20870  -0.21331  -1.71527
   3.20870  -0.21331  -1.71527
   3.20870  -0.21331  -1.71527
   3.20870  -0.21331  -1.71527
   3.44870  -0.21331  -1.71527
   3.44870  -0.21331  -1.71527
   3.44870  -0.21331  -1.71527
   3.44870  -0.21331  -1.71527
   3.68870  -0.21331  -1.71527
   3.68870  -0.21331  -1.71527
   3.68870   0.02669  -1.71527
   3.68870  -0.21331  -1.71527
   3.68870  -0.21331  -1.71527
   3.68870  -0.21331  -1.71527
   3.92870  -0.21331  -1.71527
   3.92870   0.02669  -1.71527
   3.92870   0.02669  -1.71527
   3.92870   0.02669  -1.71527
   3.92870   0.02669  -1.71527
   4.16870   0.02669  -1.71527
   3.92870   0.02669  -1.71527
   3.92870   0.02669  -1.71527
   4.16870   0.02669  -1.71527
   4.16870   0.02669  -1.71527
   4.16870   0.02669  -1.71527
   3.92870   0.02669  -1.71527
   4.16870   0.02669  -1.71527
   4.16870   0.02669  -1.71527
   4.40870   0.02669  -1.71527
   4.40870   0.02669  -1.71527
   4.40870   0.26669  -1.71527
   4.40870   0.26669  -1.71527
   4.40870   0.26669  -1.71527
   4.64870   0.26669  -1.71527
   4.64870   0.26669  -1.47527
   4.64870   0.26669  -1.47527
   4.64870   0.26669  -1.47527
   4.64870   0.26669  -1.47527
   4.64870   0.26669  -1.47527
   4.64870   0.02669  -1.47527
   4.88870   0.26669  -1.47527
   4.64870   0.26669  -1.47527
   4.88870   0.02669  -1.47527
   4.88870   0.26669  -1.47527
   4.88870   0.26669  -1.23527
   4.88870   0.26669  -1.23527
   4.88870   0.26669  -1.23527
   4.88870   0.26669  -1.23527
   4.88870   0.26669  -1.23527
   4.88870   0.26669  -1.23527
   4.88870   0.26669  -1.23527
   5.12870   0.26669  -1.23527
   4.88870   0.26669  -1.23527
   4.88870   0.26669  -0.99527
   4.88870   0.26669  -0.99527
   5.12870   0.26669  -0.99527
   5.12870   0.26669  -0.99527
   4.88870   0.26669  -0.99527
   4.88870   0.50669  -0.99527
   5.12870   0.50669  -0.99527
   4.88870   0.26669  -0.99527
   4.88870   0.50669  -0.75527
   4.88870   0.26669  -0.75527
   4.88870   0.50669  -0.75527
   4.88870   0.50669  -0.75527
   4.88870   0.50669  -0.75527
   4.88870   0.50669  -0.75527
   4.64870   0.50669  -0.75527
   4.64870   0.50669  -0.75527
   4.64870   0.50669  -0.75527
   4.64870   0.50669  -0.75527
   4.40870   0.50669  -0.51527
   4.64870   0.50669  -0.51527
   4.64870   0.50669  -0.51527
   4.40870   0.50669  -0.51527
   4.40870   0.50669  -0.51527
   4.40870   0.50669  -0.51527
   4.40870   0.50669  -0.27527
   4.16870   0.50669  -0.27527
   4.40870   0.50669  -0.27527
   4.16870   0.50669  -0.27527
   4.16870   0.50669  -0.27527
   4.16870   0.50669  -0.27527
   4.16870   0.50669  -0.27527
   4.16870   0.50669  -0.27527
   3.92870   0.50669  -0.27527
   3.92870   0.50669  -0.27527
   3.92870   0.50669  -0.27527
   3.92870   0.50669  -0.27527
   3.92870   0.50669  -0.27527
   3.68870   0.50669  -0.27527
   3.68870   0.50669  -0.27527
   3.68870   0.50669  -0.27527
   3.68870   0.50669  -0.03527
   3.68870   0.50669  -0.03527
   3.44870   0.50669  -0.03527
   3.44870   0.50669  -0.03527
   3.44870   0.50669  -0.03527
   3.44870   0.50669  -0.03527
   3.20870   0.26669  -0.03527
   3.20870   0.50669  -0.03527
   3.20870   0.50669  -0.03527
   3.20870   0.26669  -0.03527
   3.20870   0.50669  -0.03527
   2.96870   0.26669  -0.03527
   2.96870   0.26669  -0.03527
   2.96870   0.26669  -0.03527
   2.96870   0.26669  -0.03527
   2.72870   0.26669  -0.27527
   2.72870   0.26669  -0.03527
   2.72870   0.26669  -0.03527
   2.72870   0.26669  -0.03527
   2.72870   0.26669  -0.03527
   2.48870   0.26669   0.20473
   2.48870   0.02669  -0.03527
   2.48870   0.26669   0.20473
   2.48870   0.26669  -0.03527
   2.24870   0.26669  -0.03527
   2.24870   0.26669   0.20473
   2.24870   0.26669  -0.27527
   2.24870   0.26669   0.20473
   2.24870   0.26669   0.20473
   2.00870   0.26669   0.20473
   2.00870   0.26669   0.20473
   2.00870   0.26669   0.20473
   2.00870   0.02669   0.20473
   1.76870   0.02669   0.20473
   1.28870   0.02669   0.20473
   1.76870   0.02669   0.20473
   1.76870   0.02669   0.20473
   1.52870  -0.21331   0.20473
   1.52870   0.02669   0.20473
   1.52870   0.02669   0.20473
   1.52870   0.02669   0.20473
   1.28870   0.02669   0.20473
   1.28870   0.02669   0.20473
   1.28870  -0.21331   0.20473
   1.28870   0.02669   0.20473
   1.04870  -0.21331   0.20473
   1.04870  -0.21331   0.20473
   1.04870  -0.21331   0.20473
   0.80870  -0.21331   0.44473
   0.80870  -0.21331   0.44473
   0.80870  -0.21331   0.44473
   0.80870  -0.21331   0.44473
   0.56870  -0.21331   0.44473
   0.56870  -0.21331   0.44473
   0.56870  -0.21331   0.44473
   0.56870  -0.21331   0.44473
   0.33870  -0.21331   0.44473
   0.33870  -0.21331   0.44473
   0.33870  -0.21331   0.44473
   0.33870  -0.21331   0.68473
   0.09870  -0.45331   0.68473
   0.09870  -0.21331   0.68473
   0.09870  -0.45331   0.68473
   0.09870  -0.21331   0.68473
  -0.14130  -0.45331   0.68473
  -0.14130  -0.21331   0.68473
  -0.14130  -0.45331   0.68473
  -0.14130  -0.45331   0.68473
  -0.14130  -0.45331   0.68473
  -0.38130  -0.45331   0.68473
  -0.38130  -0.45331   0.68473
  -0.38130  -0.45331   0.68473
  -0.38130  -0.45331   0.92473
  -0.38130  -0.45331   0.68473
  -0.62130  -0.45331   0.92473
  -0.62130  -0.45331   0.68473
  -0.62130  -0.45331   0.68473
  -0.62130  -0.45331   0.92473
  -0.62130  -0.45331   0.92473
  -0.62130  -0.45331   0.92473
  -0.86130  -0.45331   0.92473
  -0.86130  -0.45331   0.92473
  -0.86130  -0.45331   0.92473
  -0.86130  -0.45331   0.92473
  -0.86130  -0.45331   0.92473
  -0.86130  -0.45331   0.92473
  -1.10130  -0.45331   0.92473
  -0.86130  -0.45331   0.92473
  -1.10130  -0.45331   0.92473
  -1.10130  -0.45331   0.92473
  -1.10130  -0.45331   0.92473
  -1.10130  -0.45331   0.92473
  -1.10130  -0.45331   0.92473
  -1.10130  -0.45331   0.92473
  -1.10130  -0.45331   0.92473
  -1.10130  -0.45331   1.16473
  -1.10130  -0.45331   0.92473
  -1.10130  -0.45331   0.92473
  -1.10130  -0.45331   1.16473
  -1.58130  -0.45331   0.92473
  -1.34130  -0.45331   0.92473
  -1.34130  -0.45331   1.16473
  -1.34130  -0.45331   0.92473
  -1.34130  -0.21331   0.92473
  -1.34130  -0.45331   0.92473
  -1.34130  -0.45331   1.16473
  -1.34130  -0.45331   0.92473
  -1.34130  -0.45331   1.16473
  -1.34130  -0.45331   0.92473
