********************************************************************************
              CENTRO DE INSTRUMENTACION Y REGISTRO SISMICO  A.C.

    Anaxagoras 814, Col. Narvarte, Benito Juarez, C.P. 03020 Mexico, D.F.
           Tels. 5687 45 42/ 5687 45  82             Fax. 5669 25 12
********************************************************************************
ARCHIVO ESTANDAR DE ACELERACION:
VERSION DEL FORMATO                    : 2.0
NOMBRE DEL ARCHIVO                     : AU1120110426110728
FECHA Y HORA DE CREACION               : 30/JUN/11, 11:42
REF. CATALOGO ACELEROGRAMAS, SMIS 1996 : REGISTRO No.     /PAG.


================================================================================
DATOS DE LA ESTACION:
NOMBRE DE LA ESTACION                  : AUTÓDROMO
CLAVE DE LA ESTACION                   : AU11
LOCALIZACION DE LA ESTACION            : Del. Iztacalco, Cd. Deportiva          
                                       : Magdalena Mixhuca,                     
                                       : Col. Granjas México                    
                                       :                                        
                                       : 
COORDENADAS DE LA ESTACION             : 19.3919 LAT. N
                                       : 99.0869 LONG. W
ALTITUD (msnm)                         : 2234
TIPO DE SUELO                          : Terreno blando, material compresible
                                       : (arcillas)                
                                       : 
INSTITUCION RESPONSABLE                : CIRES
                                       : 

================================================================================
DATOS DEL ACELEROGRAFO:
MODELO DEL ACELEROGRAFO                : RADESD
NUMERO DE SERIE DEL ACELEROGRAFO       : 157
NUMERO DE CANALES                      : 3
ORIENTACION C1-C6 (rumbo;orientacion)  : /N00E/+V/N90W
ORIENTACION C7-C12 (rumbo;orientacion) : 
VEL. DE MUESTREO, C1-C6 (muestras/s)   : /100/100/100
VEL. DE MUESTREO, C7-C12 (muestras/s)  : 
ESC. COMPLETA DE SENSORES, C1-C6, (g)  : /0.5/0.5/0.5
ESC. COMPLETA DE SENSORES, C7-C12, (g) : 
FREC. NAT. DE SENSORES, C1-C6, (Hz)    : /51.77/52.56/52.29
FREC. NAT. DE SENSORES, C7-C12, (Hz)   : 
AMORTIGUAMIENTO DE SENSORES, C1-C6     : /0.5912/0.6083/0.6067
AMORTIGUAMIENTO DE SENSORES, C7-C12    : 
INTERVALO DE MUESTREO, C1-C6, (s)      : /0.01/0.01/0.01
INTERVALO DE MUESTREO, C7-C12, (s)     : 
UMBRAL DE DISPARO, C1-C6, (Gal)        : /0.72/1.92/0.72
UMBRAL DE DISPARO, C7-C12, (Gal)       : 
MEMORIA DE PREEVENTO (s)               : 56.0
TIEMPO DE POSEVENTO (s)                : 64.0


================================================================================
DATOS DEL SISMO:
FECHA DEL SISMO (GMT)                  : 26/ABR/11
HORA EPICENTRO (GMT)                   : 11:07:28.0
MAGNITUD(ES)                           : /Mc=5.5
COORDENADAS DEL EPICENTRO              : 16.71 LAT. N
                                       : 99.69 LONG. W
PROFUNDIDAD FOCAL (km)                 : 7
FUENTE DE LOS DATOS EPICENTRALES       : SSN
                                       : INSTITUTO DE GEOFISICA, UNAM

================================================================================
DATOS DE ESTE REGISTRO:
HORA DE LA PRIMERA MUESTRA (GMT)       : 11:08:53.00
EXACTITUD DEL TIEMPO (s)               : 0.01
DURACION DEL REGISTRO (s), C1-C6       : /231.25/231.25/231.25
DURACION DEL REGISTRO (s), C7-C12      : 
NUM. TOTAL DE MUESTRAS, C1-C6          : /23125/23125/23125
NUM. TOTAL DE MUESTRAS, C7-C12         : 
ACEL. MAX. (Gal), C1-C6                : /1.8668/0.59961/1.24583
ACEL. MAX., C1-C6, EN LA MUESTRA       : /6367/1198/5402
ACEL. MAX. (Gal), C7-C12               : 
ACEL. MAX., C7-C12, EN LA MUESTRA      : 
UNIDADES DE LOS DATOS                  : Gal (cm/s/s)
FACTOR DE DECIMACION                   : 1
FORMATO DATOS (FORTRAN,10 campos/dato) : 3F10.5


================================================================================
CALIDAD DEL ACELEROGRAMA:
REGISTRO DIGITAL COMPLETO CON TIEMPO ABSOLUTO CORRECTO.


================================================================================
COMENTARIOS:














================================================================================
DATOS DE ACELERACION:
---------+---------+---------+---------+---------+---------+---------+---------+
   CANAL-1   CANAL-2   CANAL-3   CANAL-4   CANAL-5   CANAL-6   CANAL-7   CANAL-8
      N00E        +V      N90W
---------+---------+---------+---------+---------+---------+---------+---------+
[...]
  -0.19086   0.11865   0.04873
  -0.19086   0.11865   0.28815
  -0.66970   0.35807  -0.19069
  -0.43028   0.11865   0.04873
  -0.19086   0.11865   0.04873
  -0.43028   0.11865   0.04873
  -0.43028   0.11865  -0.19069
  -0.19086   0.11865   0.04873
  -0.43028   0.11865   0.04873
  -0.19086  -0.12077  -0.19069
  -0.19086  -0.12077   0.04873
   0.04856  -0.12077   0.04873
  -0.19086   0.11865   0.04873
  -0.19086  -0.12077   0.04873
  -0.19086   0.11865   0.04873
   0.04856   0.11865   0.04873
   0.04856   0.11865  -0.19069
   0.04856  -0.12077   0.28815
  -0.19086   0.35807   0.28815
  -0.19086   0.35807   0.28815
  -0.19086   0.11865   0.28815
  -0.19086  -0.12077   0.28815
  -0.19086  -0.12077   0.28815
  -0.19086   0.11865   0.52757
  -0.43028  -0.12077   0.28815
  -0.43028  -0.12077   0.28815
   0.04856  -0.36019   0.52757
  -0.19086  -0.12077   0.52757
  -0.19086  -0.12077   0.52757
   0.04856  -0.12077   0.28815
  -0.19086  -0.36019   0.28815
   0.04856  -0.12077   0.28815
  -0.19086  -0.12077   0.28815
   0.04856  -0.36019   0.04873
  -0.19086  -0.12077   0.04873
  -0.19086  -0.12077   0.04873
   0.04856  -0.12077  -0.19069
   0.28798  -0.36019  -0.19069
   0.04856  -0.12077  -0.19069
   0.52740  -0.12077  -0.19069
   0.04856  -0.36019  -0.43011
   0.04856  -0.12077  -0.43011
   0.28798  -0.36019  -0.19069
   0.04856  -0.36019  -0.19069
   0.28798  -0.36019  -0.19069
   0.04856  -0.36019  -0.19069
   0.04856  -0.36019  -0.19069
   0.04856  -0.12077   0.28815
   0.28798  -0.12077   0.52757
   0.04856  -0.12077   0.52757
   0.28798  -0.12077   0.52757
   0.04856  -0.12077   0.28815
   0.04856   0.11865   0.76699
   0.04856   0.11865   0.76699
  -0.19086   0.11865   0.52757
  -0.19086   0.11865   0.76699
  -0.19086   0.11865   0.76699
   0.04856  -0.12077   0.76699
  -0.19086   0.11865   0.76699
  -0.19086   0.11865   0.76699
  -0.43028   0.11865   0.52757
  -0.19086   0.11865   0.76699
  -0.43028   0.35807   0.76699
  -0.43028   0.11865   0.76699
  -0.43028   0.11865   0.52757
  -0.43028   0.11865   0.76699
  -0.43028   0.11865   0.52757
  -0.43028   0.35807   0.52757
  -0.19086   0.11865   0.52757
  -0.19086   0.11865   0.52757
  -0.19086   0.11865   0.28815
  -0.19086   0.11865   0.28815
  -0.43028   0.11865   0.04873
  -0.19086  -0.12077   0.04873
  -0.43028  -0.12077   0.04873
  -0.66970  -0.12077   0.04873
  -0.66970  -0.12077  -0.19069
  -0.66970  -0.12077  -0.19069
  -0.66970  -0.12077  -0.43011
  -0.66970  -0.12077  -0.19069
  -0.66970  -0.12077  -0.43011
  -0.90912  -0.12077  -0.43011
  -0.43028   0.11865  -0.19069
  -0.66970  -0.12077  -0.19069
  -0.43028   0.11865  -0.19069
  -0.43028   0.11865  -0.19069
  -0.43028   0.11865   0.04873
  -0.19086   0.11865  -0.19069
  -0.43028  -0.12077   0.04873
  -0.19086  -0.12077   0.04873
  -0.19086  -0.12077   0.28815
  -0.43028  -0.12077   0.28815
  -0.43028  -0.12077   0.28815
  -0.66970   0.11865   0.28815
  -0.66970  -0.12077   0.28815
  -0.66970  -0.12077   0.28815
  -0.66970  -0.12077   0.04873
  -0.66970   0.11865   0.04873
  -0.66970   0.11865   0.28815
  -0.90912   0.35807  -0.19069
  -0.66970   0.11865  -0.19069
  -0.66970  -0.12077  -0.19069
  -0.66970  -0.12077   0.04873
  -0.66970   0.11865  -0.19069
  -0.43028  -0.12077  -0.19069
  -0.66970   0.11865  -0.43011
  -0.43028   0.11865  -0.43011
  -0.43028   0.11865  -0.43011
   0.04856  -0.12077   0.04873
   0.04856   0.11865  -0.43011
   0.04856   0.35807  -0.43011
   0.28798   0.35807  -0.66953
   0.52740  -0.12077  -0.19069
   0.52740   0.11865  -0.19069
   0.52740   0.35807  -0.19069
   0.76682   0.35807  -0.19069
   0.76682   0.35807  -0.43011
   0.76682   0.11865  -0.19069
   1.00624   0.35807   0.04873
   1.24566   0.11865  -0.19069
   1.48508  -0.12077   0.04873
   1.24566   0.11865  -0.19069
   1.48508   0.11865  -0.19069
   1.48508   0.11865  -0.43011
   1.48508   0.11865  -0.43011
   1.72450  -0.12077  -0.19069
   1.72450   0.11865  -0.43011
   1.48508   0.11865  -0.19069
   1.48508   0.11865  -0.43011
   1.72450  -0.12077  -0.19069
   1.24566   0.11865  -0.43011
   1.72450   0.11865  -0.19069
   1.48508   0.35807  -0.43011
   1.24566   0.11865  -0.43011
   1.00624   0.11865  -0.19069
   1.24566   0.11865   0.04873
   1.00624   0.11865  -0.19069
   1.00624  -0.12077  -0.19069
   1.00624  -0.12077   0.04873
   0.76682  -0.12077  -0.19069
   1.00624  -0.36019   0.04873
   0.76682  -0.12077  -0.19069
   0.76682  -0.12077  -0.19069
   0.52740   0.11865  -0.19069
   0.52740  -0.12077  -0.19069
   0.52740   0.11865  -0.66953
   0.52740  -0.12077  -0.43011
   0.76682  -0.12077  -0.43011
   0.52740  -0.12077  -0.43011
   0.28798   0.11865  -0.66953
   0.28798  -0.12077  -0.43011
   0.28798   0.11865  -0.43011
   0.28798   0.11865  -0.66953
   0.28798  -0.12077  -0.66953
   0.28798  -0.12077  -0.19069
   0.04856  -0.12077  -0.43011
   0.28798  -0.12077  -0.43011
   0.04856   0.11865  -0.43011
   0.04856  -0.12077  -0.19069
  -0.19086  -0.36019  -0.43011
  -0.19086  -0.12077  -0.19069
   0.28798  -0.36019  -0.19069
   0.04856  -0.12077  -0.43011
   0.28798  -0.12077  -0.19069
   0.04856  -0.12077  -0.19069
   0.28798   0.11865  -0.19069
   0.52740  -0.36019  -0.19069
   0.28798   0.11865  -0.43011
   0.28798  -0.12077   0.04873
   0.52740   0.11865   0.04873
   0.52740  -0.12077   0.28815
   0.52740  -0.12077   0.52757
   0.28798  -0.12077   0.04873
   0.28798  -0.12077   0.52757
   0.28798  -0.12077   0.76699
   0.04856  -0.12077   0.76699
  -0.19086  -0.12077   0.76699
   0.04856  -0.12077   1.00641
   0.04856  -0.36019   0.76699
  -0.19086  -0.36019   0.76699
  -0.19086  -0.36019   1.00641
  -0.43028  -0.36019   1.00641
  -0.43028  -0.36019   0.76699
  -0.43028  -0.36019   0.52757
  -0.19086  -0.36019   0.52757
  -0.19086  -0.36019   0.28815
  -0.43028  -0.12077   0.28815
  -0.19086  -0.12077   0.04873
  -0.43028   0.11865   0.04873
  -0.43028   0.11865  -0.43011
  -0.43028   0.11865  -0.19069
  -0.19086   0.11865  -0.19069
  -0.43028   0.11865  -0.19069
  -0.66970   0.11865  -0.43011
  -0.43028  -0.12077  -0.19069
  -0.66970  -0.12077  -0.43011
  -0.66970   0.11865  -0.19069
  -0.66970   0.11865   0.28815
  -0.90912  -0.12077  -0.19069
  -0.66970   0.11865   0.04873
  -0.66970  -0.12077   0.04873
  -0.90912   0.35807   0.04873
  -0.66970  -0.12077   0.28815
  -0.43028  -0.12077   0.28815
  -0.66970   0.11865   0.28815
  -0.43028   0.11865   0.28815
  -0.19086   0.35807   0.52757
   0.04856   0.11865   0.52757
   0.04856   0.35807   0.04873
   0.04856   0.35807   0.28815
   0.28798   0.11865   0.28815
   0.04856   0.35807   0.04873
   0.28798   0.35807   0.28815
   0.52740   0.35807   0.28815
   0.52740   0.35807  -0.19069
   0.28798   0.35807  -0.19069
   0.52740   0.35807   0.04873
   0.52740   0.35807   0.04873
   0.52740   0.35807  -0.19069
   0.52740   0.35807  -0.19069
   0.52740   0.59749  -0.43011
   0.52740   0.11865  -0.43011
   0.52740   0.35807  -0.43011
   0.52740   0.11865  -0.43011
   0.52740   0.35807  -0.43011
   0.28798   0.11865  -0.66953
   0.52740   0.35807  -0.66953
   0.28798   0.11865  -0.66953
   0.04856   0.11865  -0.66953
   0.28798   0.11865  -0.66953
  -0.19086  -0.12077  -0.90895
   0.04856   0.11865  -0.90895
   0.04856   0.11865  -0.43011
   0.04856  -0.12077  -0.90895
   0.04856  -0.12077  -0.90895
  -0.19086  -0.12077  -0.66953
  -0.43028   0.11865  -0.66953
  -0.19086   0.11865  -0.43011
  -0.43028   0.11865  -0.43011
  -0.43028  -0.12077  -0.19069
  -0.43028  -0.12077  -0.43011
  -0.43028  -0.12077  -0.19069
  -0.43028  -0.36019   0.04873
  -0.43028  -0.12077   0.04873
  -0.43028  -0.36019   0.04873
  -0.66970  -0.36019   0.04873
  -0.43028  -0.36019   0.04873
  -0.66970  -0.12077   0.04873
  -0.43028  -0.36019   0.28815
  -0.43028  -0.12077   0.28815
  -0.43028  -0.12077   0.52757
  -0.66970  -0.12077   0.52757
  -0.43028  -0.12077   0.52757
  -0.66970  -0.12077   0.52757
  -0.43028   0.11865   0.76699
  -0.43028   0.11865   0.52757
  -0.43028   0.11865   0.52757
  -0.19086   0.11865   0.76699
  -0.19086   0.11865   0.76699
  -0.19086   0.11865   0.76699
  -0.19086   0.11865   0.52757
   0.04856   0.11865   0.52757
  -0.19086   0.11865   0.52757
   0.04856  -0.12077   0.52757
   0.28798  -0.36019   0.28815
   0.28798  -0.12077   0.28815
   0.28798   0.11865   0.04873
   0.28798   0.11865  -0.19069
   0.04856   0.11865  -0.19069
   0.04856  -0.12077  -0.43011
   0.28798  -0.12077  -0.43011
   0.52740  -0.12077  -0.19069
   0.52740   0.11865  -0.66953
   0.52740   0.11865  -0.66953
   0.76682   0.11865  -0.66953
   0.52740   0.11865  -0.66953
   0.76682  -0.12077  -0.66953
   0.52740   0.11865  -0.90895
   0.52740  -0.12077  -0.90895
   0.52740   0.11865  -0.90895
   0.52740  -0.12077  -0.66953
   0.52740  -0.12077  -0.66953
   0.52740   0.11865  -0.66953
   0.52740  -0.12077  -0.66953
   0.28798  -0.12077  -0.66953
   0.28798  -0.12077  -0.66953
   0.28798  -0.12077  -0.66953
   0.04856  -0.12077  -0.43011
   0.28798  -0.12077  -0.19069
   0.04856  -0.36019  -0.19069
   0.28798  -0.12077   0.04873
   0.04856  -0.12077   0.04873
   0.04856  -0.12077   0.28815
   0.04856  -0.12077   0.28815
   0.04856  -0.36019   0.28815
   0.04856  -0.12077   0.52757
  -0.19086  -0.12077   0.52757
   0.04856  -0.36019   0.76699
   0.04856  -0.36019   0.76699
   0.28798  -0.36019   1.00641
   0.28798  -0.12077   0.76699
   0.04856  -0.12077   0.76699
   0.28798  -0.12077   0.76699
   0.28798  -0.36019   0.76699
   0.04856  -0.12077   0.76699
   0.28798  -0.12077   0.76699
   0.28798  -0.36019   0.52757
   0.28798  -0.36019   0.52757
   0.28798  -0.36019   0.52757
   0.52740  -0.36019   0.52757
   0.52740  -0.12077   0.52757
   0.76682  -0.36019   0.52757
   1.00624  -0.36019   0.52757
   0.76682  -0.12077   0.76699
   1.00624  -0.12077   0.52757
   0.76682   0.11865   0.28815
   1.00624  -0.12077   0.28815
   0.76682  -0.12077   0.28815
   0.76682  -0.12077   0.28815
   0.76682   0.11865   0.52757
   0.52740   0.11865   0.28815
   0.28798   0.11865   0.28815
   0.52740  -0.12077   0.28815
   0.28798  -0.12077   0.28815
   0.04856  -0.12077   0.28815
   0.28798  -0.12077   0.28815
  -0.19086   0.11865   0.04873
  -0.19086   0.11865   0.28815
  -0.43028   0.11865   0.04873
  -0.43028  -0.12077   0.28815
  -0.43028   0.11865   0.28815
  -0.66970   0.11865   0.52757
  -0.43028  -0.36019   0.28815
  -0.66970  -0.12077   0.28815
  -0.66970  -0.12077   0.28815
  -0.90912  -0.12077   0.04873
  -0.90912   0.11865   0.28815
  -0.90912   0.11865   0.28815
  -1.38796  -0.12077   0.04873
  -1.38796   0.11865   0.28815
  -1.38796  -0.12077   0.04873
  -1.62738   0.35807   0.28815
  -1.38796   0.35807   0.28815
  -1.62738   0.35807   0.28815
  -1.62738   0.11865   0.28815
  -1.62738  -0.12077   0.28815
  -1.86680   0.11865   0.04873
  -1.62738   0.11865   0.28815
  -1.62738   0.11865   0.04873
  -1.38796   0.11865   0.28815
  -1.62738   0.11865   0.04873
  -1.62738   0.11865   0.28815
  -1.62738   0.11865   0.04873
  -1.38796   0.11865   0.28815
  -1.38796   0.11865   0.04873
  -1.14854   0.11865   0.04873
  -1.14854   0.11865  -0.19069
  -1.14854   0.11865   0.04873
  -0.90912   0.35807   0.04873
  -0.90912   0.11865  -0.19069
  -0.66970   0.11865   0.04873
  -0.66970   0.11865   0.04873
  -0.66970   0.11865   0.04873
  -0.43028   0.11865   0.04873
  -0.43028   0.11865   0.04873
  -0.43028   0.11865  -0.19069
  -0.43028  -0.12077  -0.19069
  -0.43028  -0.12077   0.04873
  -0.19086  -0.12077   0.04873
  -0.19086  -0.12077   0.04873
  -0.19086   0.11865  -0.19069
  -0.19086  -0.12077  -0.19069
  -0.19086   0.11865  -0.19069
  -0.19086  -0.12077  -0.19069
   0.04856  -0.12077  -0.19069
  -0.19086   0.11865  -0.19069
   0.04856   0.11865  -0.43011
  -0.19086   0.11865  -0.19069
   0.04856   0.11865  -0.43011
   0.04856  -0.12077  -0.43011
   0.04856   0.11865  -0.19069
   0.04856   0.11865  -0.43011
   0.04856   0.11865  -0.43011
   0.04856   0.35807  -0.19069
   0.28798   0.11865  -0.19069
   0.04856   0.35807  -0.19069
   0.28798   0.11865  -0.19069
   0.28798   0.11865  -0.19069
   0.52740   0.11865   0.04873
   0.52740   0.35807   0.04873
   0.28798   0.35807   0.04873
   0.52740  -0.12077   0.28815
   0.76682  -0.12077   0.04873
   0.52740   0.11865   0.04873
   0.76682  -0.12077   0.04873
   0.76682   0.35807   0.04873
   0.76682   0.35807   0.04873
   0.76682   0.11865  -0.19069
   1.00624  -0.12077   0.28815
   1.00624   0.11865  -0.19069
   1.00624   0.11865   0.28815
   0.76682   0.11865  -0.19069
   1.00624   0.11865  -0.19069
   1.00624   0.11865   0.04873
   0.76682   0.11865   0.28815
   0.76682   0.11865  -0.19069
   0.76682   0.11865   0.04873
   0.76682   0.11865   0.28815
   0.52740   0.11865   0.04873
   0.28798  -0.12077   0.28815
   0.52740  -0.12077   0.28815
   0.28798   0.11865   0.28815
   0.04856   0.11865   0.04873
  -0.19086  -0.12077   0.28815
  -0.19086  -0.12077   0.52757
  -0.43028  -0.12077   0.28815
  -0.43028  -0.12077   0.28815
  -0.66970   0.11865   0.04873
  -0.66970   0.11865   0.04873
  -0.66970  -0.12077   0.04873
  -0.90912   0.11865   0.04873
  -0.66970  -0.12077   0.04873
  -0.66970  -0.12077   0.04873
  -0.66970  -0.12077   0.04873
  -0.66970  -0.12077   0.04873
  -0.66970  -0.12077  -0.19069
  -0.66970   0.11865  -0.19069
  -0.66970   0.11865  -0.19069
  -0.66970  -0.12077  -0.19069
  -0.43028  -0.12077  -0.19069
  -0.43028  -0.12077  -0.19069
  -0.43028  -0.36019  -0.43011
   0.04856  -0.12077  -0.19069
  -0.19086   0.11865  -0.19069
   0.04856   0.11865   0.04873
   0.04856  -0.36019  -0.43011
  -0.19086  -0.12077  -0.66953
   0.04856   0.11865  -0.43011
  -0.19086   0.11865  -0.43011
   0.04856   0.11865  -0.43011
   0.04856   0.11865  -0.66953
   0.04856   0.11865  -0.43011
   0.28798   0.11865  -0.43011
   0.04856   0.11865  -0.66953
   0.28798   0.11865  -0.66953
   0.04856   0.11865  -0.66953
   0.04856  -0.12077  -0.66953
   0.52740  -0.36019  -0.66953
   0.28798  -0.12077  -0.66953
   0.28798  -0.12077  -0.43011
   0.28798  -0.12077  -0.43011
   0.28798  -0.36019  -0.66953
   0.28798  -0.36019  -0.43011
   0.28798  -0.36019  -0.43011
   0.28798  -0.36019  -0.43011
   0.04856  -0.36019  -0.66953
   0.04856  -0.36019  -0.43011
   0.28798  -0.36019  -0.66953
   0.04856  -0.59961  -0.43011
   0.28798  -0.36019  -0.43011
  -0.19086  -0.36019  -0.66953
  -0.19086  -0.12077  -0.43011
  -0.43028  -0.36019  -0.43011
  -0.19086  -0.36019  -0.43011
  -0.19086  -0.36019  -0.43011
   0.04856  -0.36019  -0.19069
  -0.19086  -0.36019  -0.43011
  -0.43028  -0.12077  -0.19069
  -0.19086  -0.12077  -0.19069
  -0.19086  -0.12077  -0.19069
   0.04856  -0.36019   0.28815
  -0.19086  -0.12077   0.04873
  -0.19086  -0.12077   0.28815
  -0.19086  -0.12077   0.28815
  -0.19086  -0.12077   0.28815
  -0.19086  -0.12077   0.28815
  -0.43028  -0.12077   0.28815
  -0.19086  -0.12077   0.52757
  -0.43028  -0.12077   0.52757
  -0.43028  -0.12077   0.52757
  -0.19086  -0.12077   0.52757
  -0.19086  -0.12077   0.52757
  -0.19086  -0.12077   0.28815
  -0.19086  -0.12077   0.52757
  -0.43028  -0.12077   0.52757
  -0.19086   0.11865   0.52757
  -0.43028   0.11865   0.52757
  -0.43028   0.11865   0.52757
  -0.19086   0.11865   0.52757
  -0.19086   0.11865   0.52757
   0.04856   0.11865   0.52757
  -0.43028   0.11865   0.28815
  -0.19086   0.11865   0.76699
   0.04856   0.11865   0.52757
   0.04856   0.35807   0.52757
  -0.19086   0.11865   0.52757
