********************************************************************************
              CENTRO DE INSTRUMENTACION Y REGISTRO SISMICO  A.C.

    Anaxagoras 814, Col. Narvarte, Benito Juarez, C.P. 03020 Mexico, D.F.
           Tels. 5687 45 42/ 5687 45  82             Fax. 5669 25 12
********************************************************************************
ARCHIVO ESTANDAR DE ACELERACION:
VERSION DEL FORMATO                    : 2.0
NOMBRE DEL ARCHIVO                     : AU1120110407131122
FECHA Y HORA DE CREACION               : 15/JUN/11, 12:49
REF. CATALOGO ACELEROGRAMAS, SMIS 1996 : REGISTRO No.     /PAG.


================================================================================
DATOS DE LA ESTACION:
NOMBRE DE LA ESTACION                  : AUTÓDROMO
CLAVE DE LA ESTACION                   : AU11
LOCALIZACION DE LA ESTACION            : Del. Iztacalco, Cd. Deportiva          
                                       : Magdalena Mixhuca,                     
                                       : Col. Granjas México                    
                                       :                                        
                                       : 
COORDENADAS DE LA ESTACION             : 19.3919 LAT. N
                                       : 99.0869 LONG. W
ALTITUD (msnm)                         : 2234
TIPO DE SUELO                          : Terreno blando, material compresible
                                       : (arcillas)                
                                       : 
INSTITUCION RESPONSABLE                : CIRES
                                       : 

================================================================================
DATOS DEL ACELEROGRAFO:
MODELO DEL ACELEROGRAFO                : RADESD
NUMERO DE SERIE DEL ACELEROGRAFO       : 157
NUMERO DE CANALES                      : 3
ORIENTACION C1-C6 (rumbo;orientacion)  : /N00E/+V/N90W
ORIENTACION C7-C12 (rumbo;orientacion) : 
VEL. DE MUESTREO, C1-C6 (muestras/s)   : /100/100/100
VEL. DE MUESTREO, C7-C12 (muestras/s)  : 
ESC. COMPLETA DE SENSORES, C1-C6, (g)  : /0.5/0.5/0.5
ESC. COMPLETA DE SENSORES, C7-C12, (g) : 
FREC. NAT. DE SENSORES, C1-C6, (Hz)    : /51.77/52.56/52.29
FREC. NAT. DE SENSORES, C7-C12, (Hz)   : 
AMORTIGUAMIENTO DE SENSORES, C1-C6     : /0.5912/0.6083/0.6067
AMORTIGUAMIENTO DE SENSORES, C7-C12    : 
INTERVALO DE MUESTREO, C1-C6, (s)      : /0.01/0.01/0.01
INTERVALO DE MUESTREO, C7-C12, (s)     : 
UMBRAL DE DISPARO, C1-C6, (Gal)        : /0.72/1.92/0.72
UMBRAL DE DISPARO, C7-C12, (Gal)       : 
MEMORIA DE PREEVENTO (s)               : 56.0
TIEMPO DE POSEVENTO (s)                : 64.0


================================================================================
DATOS DEL SISMO:
FECHA DEL SISMO (GMT)                  : 07/ABR/11
HORA EPICENTRO (GMT)                   : 13:11:22.0
MAGNITUD(ES)                           : /Mc=6.7
COORDENADAS DEL EPICENTRO              : 17.20 LAT. N
                                       : 94.34 LONG. W
PROFUNDIDAD FOCAL (km)                 : 167
FUENTE DE LOS DATOS EPICENTRALES       : SSN
                                       : INSTITUTO DE GEOFISICA, UNAM

================================================================================
DATOS DE ESTE REGISTRO:
HORA DE LA PRIMERA MUESTRA (GMT)       : 13:13:25.00
EXACTITUD DEL TIEMPO (s)               : 0.01
DURACION DEL REGISTRO (s), C1-C6       : /259.25/259.25/259.25
DURACION DEL REGISTRO (s), C7-C12      : 
NUM. TOTAL DE MUESTRAS, C1-C6          : /25925/25925/25925
NUM. TOTAL DE MUESTRAS, C7-C12         : 
ACEL. MAX. (Gal), C1-C6                : /2.27115/0.7473/2.00305
ACEL. MAX., C1-C6, EN LA MUESTRA       : /10410/4345/6667
ACEL. MAX. (Gal), C7-C12               : 
ACEL. MAX., C7-C12, EN LA MUESTRA      : 
UNIDADES DE LOS DATOS                  : Gal (cm/s/s)
FACTOR DE DECIMACION                   : 1
FORMATO DATOS (FORTRAN,10 campos/dato) : 3F10.5


================================================================================
CALIDAD DEL ACELEROGRAMA:
REGISTRO DIGITAL COMPLETO CON TIEMPO ABSOLUTO CORRECTO.


================================================================================
COMENTARIOS:














================================================================================
DATOS DE ACELERACION:
---------+---------+---------+---------+---------+---------+---------+---------+
   CANAL-1   CANAL-2   CANAL-3   CANAL-4   CANAL-5   CANAL-6   CANAL-7   CANAL-8
      N00E        +V      N90W
---------+---------+---------+---------+---------+---------+---------+---------+
[...]
   0.60189   0.02904   0.56653
   0.60189   0.02904   0.56653
   0.36247   0.02904   0.56653
   0.60189   0.02904   0.56653
   0.36247   0.02904   0.32711
   0.36247   0.02904   0.56653
   0.12305   0.02904   0.80595
   0.36247   0.02904   0.32711
   0.12305   0.26846   0.32711
   0.12305   0.02904   0.56653
   0.12305   0.02904   0.32711
   0.12305   0.02904   0.56653
   0.12305  -0.21038   0.32711
  -0.11637   0.02904   0.32711
   0.12305  -0.21038   0.56653
  -0.11637   0.02904   0.32711
  -0.35579   0.26846   0.32711
  -0.11637   0.02904   0.08769
  -0.35579   0.26846   0.32711
  -0.35579  -0.21038   0.08769
  -0.11637   0.26846   0.32711
  -0.35579   0.02904   0.08769
  -0.35579   0.26846   0.08769
  -0.59521   0.26846   0.08769
  -0.59521   0.26846   0.08769
  -0.35579   0.50788   0.08769
  -0.59521   0.26846   0.08769
  -0.83463   0.26846  -0.15173
  -0.83463   0.26846  -0.39115
  -0.83463   0.26846  -0.15173
  -0.83463   0.02904  -0.39115
  -0.59521   0.02904  -0.39115
  -0.83463   0.26846  -0.15173
  -0.83463   0.02904  -0.39115
  -0.83463   0.26846  -0.39115
  -0.83463   0.02904  -0.39115
  -1.07405   0.26846  -0.39115
  -1.07405   0.26846  -0.39115
  -1.07405   0.26846  -0.63057
  -1.31347   0.02904  -0.39115
  -1.55289   0.02904  -0.39115
  -1.07405   0.26846  -0.39115
  -1.31347   0.26846  -0.15173
  -1.55289   0.02904  -0.39115
  -1.31347   0.26846  -0.39115
  -1.31347   0.02904  -0.39115
  -1.55289   0.02904  -0.39115
  -1.55289   0.02904  -0.15173
  -1.55289   0.02904  -0.39115
  -1.55289   0.02904  -0.15173
  -1.79231   0.02904  -0.39115
  -1.79231   0.02904  -0.63057
  -1.79231   0.02904  -0.39115
  -1.55289   0.26846  -0.63057
  -1.31347   0.02904  -0.39115
  -1.31347   0.02904  -0.39115
  -1.55289   0.02904  -0.15173
  -1.31347  -0.21038  -0.39115
  -1.31347   0.02904  -0.39115
  -1.31347   0.02904  -0.39115
  -1.07405   0.02904  -0.39115
  -1.07405   0.02904  -0.39115
  -1.07405   0.02904  -0.39115
  -1.31347   0.02904  -0.15173
  -1.07405  -0.21038  -0.39115
  -0.83463   0.02904  -0.39115
  -0.83463  -0.21038  -0.63057
  -0.83463   0.02904  -0.39115
  -0.83463  -0.21038  -0.63057
  -0.83463  -0.21038  -0.63057
  -0.59521   0.02904  -0.63057
  -0.35579  -0.21038  -0.39115
  -0.59521  -0.21038  -0.63057
  -0.59521  -0.21038  -0.39115
  -0.35579   0.02904  -0.86999
  -0.59521  -0.21038  -0.86999
  -0.59521   0.02904  -0.86999
  -0.35579   0.02904  -0.86999
  -0.59521   0.02904  -0.86999
  -0.35579  -0.21038  -1.10941
  -0.35579  -0.21038  -0.86999
  -0.35579   0.26846  -0.86999
  -0.35579   0.02904  -0.86999
  -0.11637   0.02904  -0.86999
  -0.35579   0.02904  -1.10941
   0.12305   0.26846  -1.10941
  -0.11637   0.26846  -0.86999
   0.12305   0.02904  -1.10941
  -0.11637   0.02904  -0.86999
  -0.11637   0.02904  -1.10941
   0.12305   0.26846  -0.86999
   0.12305   0.02904  -0.86999
   0.36247   0.02904  -0.86999
   0.12305   0.26846  -0.63057
   0.36247   0.02904  -0.63057
   0.36247  -0.21038  -1.10941
   0.36247   0.26846  -0.86999
   0.60189   0.02904  -1.10941
   0.36247   0.02904  -0.86999
   0.60189  -0.21038  -0.63057
   0.60189  -0.21038  -0.86999
   0.36247   0.02904  -0.86999
   0.84131   0.02904  -0.86999
   0.84131  -0.21038  -0.63057
   0.84131   0.02904  -0.63057
   0.84131  -0.21038  -0.63057
   1.08073   0.02904  -0.63057
   0.84131  -0.21038  -0.86999
   1.08073   0.02904  -0.63057
   1.08073   0.02904  -0.63057
   1.08073   0.02904  -0.86999
   1.32015   0.02904  -0.86999
   1.08073   0.02904  -0.86999
   1.08073  -0.21038  -1.10941
   1.08073   0.02904  -0.63057
   1.08073  -0.21038  -0.63057
   1.08073  -0.21038  -0.63057
   1.08073  -0.21038  -0.63057
   1.32015  -0.21038  -0.86999
   1.32015  -0.21038  -0.86999
   1.08073  -0.21038  -0.63057
   1.08073  -0.21038  -0.63057
   1.08073   0.02904  -0.63057
   1.08073  -0.21038  -0.63057
   1.08073  -0.44981  -0.63057
   1.08073  -0.44981  -0.63057
   1.32015   0.02904  -0.63057
   1.55957   0.02904  -0.39115
   1.32015  -0.21038  -0.39115
   1.32015  -0.21038  -0.39115
   1.32015  -0.21038  -0.39115
   1.32015  -0.21038  -0.15173
   1.55957  -0.21038  -0.39115
   1.32015  -0.21038  -0.39115
   1.32015   0.02904  -0.15173
   1.08073  -0.21038  -0.39115
   1.32015  -0.21038  -0.15173
   1.08073   0.02904  -0.15173
   1.32015   0.02904  -0.39115
   1.08073  -0.21038  -0.15173
   1.08073   0.02904   0.08769
   1.08073  -0.21038  -0.15173
   1.08073   0.02904  -0.15173
   1.08073  -0.21038  -0.15173
   1.08073   0.02904  -0.15173
   1.08073   0.02904  -0.39115
   0.84131  -0.21038  -0.15173
   1.08073   0.26846   0.08769
   0.84131   0.02904  -0.15173
   0.84131   0.02904  -0.15173
   0.84131  -0.21038  -0.15173
   0.60189   0.02904   0.08769
   0.60189  -0.21038  -0.15173
   0.36247   0.02904   0.08769
   0.36247   0.02904   0.32711
   0.36247   0.02904   0.08769
   0.36247   0.26846   0.32711
   0.12305   0.02904   0.08769
   0.12305  -0.21038   0.08769
   0.36247  -0.21038   0.08769
  -0.11637   0.02904   0.08769
   0.12305   0.02904   0.32711
  -0.11637  -0.21038   0.08769
  -0.11637  -0.21038   0.08769
  -0.35579   0.02904   0.32711
  -0.11637   0.02904   0.08769
  -0.59521  -0.21038   0.32711
  -0.35579   0.02904   0.32711
  -0.35579  -0.21038   0.32711
  -0.59521  -0.21038   0.08769
  -0.83463  -0.21038   0.08769
  -1.07405   0.02904   0.08769
  -0.83463   0.02904   0.32711
  -0.83463   0.02904   0.08769
  -1.07405  -0.21038   0.08769
  -1.07405   0.02904   0.32711
  -1.07405  -0.21038   0.08769
  -1.31347  -0.21038   0.08769
  -1.31347   0.02904  -0.15173
  -1.31347  -0.21038   0.32711
  -1.31347   0.02904  -0.15173
  -1.55289   0.02904  -0.15173
  -1.31347   0.02904  -0.15173
  -1.55289   0.02904  -0.15173
  -1.55289   0.26846   0.08769
  -1.55289   0.02904  -0.15173
  -1.79231   0.02904   0.08769
  -1.79231   0.26846   0.08769
  -1.79231   0.02904   0.08769
  -2.03173   0.02904   0.08769
  -2.03173  -0.21038   0.08769
  -1.79231  -0.21038   0.08769
  -2.03173  -0.21038  -0.15173
  -1.79231  -0.21038  -0.15173
  -2.03173  -0.21038  -0.15173
  -1.79231  -0.21038   0.08769
  -2.03173  -0.21038   0.08769
  -1.79231   0.02904   0.08769
  -2.03173  -0.21038  -0.15173
  -2.03173  -0.21038   0.08769
  -2.03173  -0.21038   0.08769
  -1.79231  -0.21038   0.08769
  -1.79231  -0.21038   0.32711
  -1.55289   0.02904  -0.15173
  -1.55289  -0.21038   0.08769
  -1.55289   0.02904   0.32711
  -1.31347   0.02904   0.08769
  -1.55289   0.02904  -0.15173
  -1.55289   0.02904   0.08769
  -1.31347   0.02904   0.08769
  -1.07405   0.02904  -0.15173
  -1.07405   0.02904   0.08769
  -1.07405   0.02904   0.08769
  -0.83463   0.02904   0.08769
  -0.83463   0.02904  -0.15173
  -0.83463   0.26846  -0.15173
  -0.59521   0.26846   0.08769
  -0.35579   0.26846  -0.15173
  -0.59521   0.26846   0.08769
  -0.35579   0.26846  -0.39115
  -0.35579   0.26846  -0.15173
  -0.35579   0.26846  -0.15173
  -0.11637   0.26846  -0.15173
  -0.11637   0.26846   0.08769
   0.12305   0.26846  -0.39115
   0.12305   0.26846  -0.15173
  -0.11637   0.26846  -0.39115
   0.12305   0.26846  -0.15173
   0.36247   0.26846  -0.39115
   0.36247   0.26846  -0.39115
   0.60189   0.26846  -0.15173
   0.36247   0.02904  -0.63057
   0.60189   0.26846  -0.63057
   0.60189   0.02904  -0.39115
   0.60189   0.02904  -0.15173
   0.84131   0.02904  -0.39115
   0.84131   0.26846  -0.15173
   0.84131   0.26846  -0.39115
   0.84131   0.02904  -0.39115
   0.84131   0.02904  -0.15173
   1.08073  -0.21038  -0.15173
   0.84131   0.02904  -0.15173
   1.08073   0.02904  -0.15173
   1.32015   0.26846   0.08769
   1.08073  -0.21038  -0.15173
   1.32015   0.02904  -0.15173
   1.32015   0.02904   0.08769
   1.55957   0.02904   0.08769
   1.55957   0.02904   0.08769
   1.79899  -0.21038  -0.15173
   1.55957   0.02904   0.08769
   1.55957   0.26846   0.32711
   1.79899   0.02904   0.08769
   1.79899   0.02904   0.32711
   1.79899   0.02904   0.32711
   1.79899   0.02904   0.08769
   2.03841   0.02904   0.32711
   1.55957  -0.21038   0.08769
   2.03841   0.02904   0.08769
   2.03841   0.02904   0.08769
   1.79899   0.02904   0.32711
   2.03841   0.02904   0.32711
   1.79899   0.02904   0.08769
   2.03841   0.02904   0.08769
   1.79899   0.02904   0.32711
   2.03841   0.02904   0.32711
   1.79899   0.02904   0.08769
   1.79899   0.02904   0.32711
   1.79899   0.02904   0.32711
   1.55957  -0.21038   0.08769
   1.79899   0.02904   0.08769
   1.55957   0.02904   0.32711
   1.55957   0.02904   0.32711
   1.55957  -0.21038   0.32711
   1.79899   0.02904   0.08769
   1.55957  -0.21038   0.32711
   1.55957   0.02904   0.56653
   1.32015  -0.21038   0.56653
   1.32015  -0.21038   0.32711
   1.55957   0.02904   0.56653
   1.32015  -0.21038   0.56653
   1.32015  -0.21038   0.56653
   1.08073  -0.21038   0.56653
   1.08073  -0.21038   0.56653
   1.08073  -0.21038   1.04537
   1.08073   0.02904   1.04537
   0.84131   0.02904   1.04537
   0.84131   0.02904   1.04537
   0.84131   0.02904   1.28479
   1.08073   0.02904   1.04537
   0.60189  -0.21038   1.28479
   0.84131  -0.21038   1.28479
   0.60189  -0.21038   1.28479
   0.84131  -0.21038   1.04537
   0.60189  -0.21038   1.04537
   0.60189  -0.21038   1.52421
   0.60189   0.26846   1.52421
   0.60189  -0.21038   1.28479
   0.60189  -0.21038   1.28479
   0.36247  -0.21038   1.28479
   0.36247  -0.21038   1.28479
   0.60189  -0.21038   1.28479
   0.12305  -0.21038   1.28479
   0.12305  -0.21038   1.28479
   0.12305  -0.21038   1.28479
  -0.11637  -0.21038   1.28479
   0.12305  -0.21038   1.04537
  -0.11637  -0.21038   1.28479
  -0.11637   0.02904   1.28479
  -0.35579   0.02904   1.28479
  -0.35579   0.02904   1.04537
  -0.35579   0.02904   0.80595
  -0.35579   0.02904   1.28479
  -0.59521  -0.21038   1.28479
  -0.83463   0.02904   1.04537
  -0.59521   0.02904   1.04537
  -0.83463  -0.21038   0.80595
  -0.83463  -0.21038   0.56653
  -0.83463  -0.21038   0.80595
  -0.83463   0.02904   0.80595
  -0.83463   0.02904   0.80595
  -1.07405   0.02904   0.32711
  -1.07405  -0.21038   0.32711
  -1.31347   0.02904   0.56653
  -1.31347   0.02904   0.56653
  -1.31347   0.02904   0.32711
  -1.31347   0.02904   0.56653
  -1.31347   0.02904   0.32711
  -1.31347  -0.21038   0.08769
  -1.31347  -0.21038   0.32711
  -1.55289  -0.21038   0.08769
  -1.79231   0.02904   0.08769
  -1.55289   0.02904   0.08769
  -1.79231   0.02904   0.08769
  -1.79231   0.02904   0.08769
  -1.79231   0.02904   0.08769
  -1.79231   0.02904   0.08769
  -1.79231   0.02904  -0.15173
  -2.03173   0.02904   0.08769
  -2.03173   0.26846   0.08769
  -1.79231   0.02904   0.08769
  -2.03173   0.26846   0.08769
  -2.03173   0.02904   0.08769
  -2.03173   0.26846   0.08769
  -2.03173   0.26846  -0.39115
  -2.03173   0.50788   0.08769
  -2.27115   0.26846   0.08769
  -2.03173   0.26846   0.08769
  -1.79231   0.26846  -0.15173
  -2.03173   0.26846  -0.15173
  -2.03173   0.26846  -0.15173
  -1.79231   0.26846  -0.15173
  -1.79231   0.26846   0.08769
  -1.79231   0.26846  -0.15173
  -2.03173   0.26846  -0.15173
  -1.79231   0.02904  -0.15173
  -2.03173   0.26846   0.08769
  -1.79231   0.26846  -0.15173
  -1.79231   0.02904  -0.15173
  -1.55289   0.26846   0.08769
  -1.79231   0.26846   0.08769
  -1.79231   0.02904   0.08769
  -1.55289   0.02904   0.32711
  -1.55289   0.26846   0.08769
  -1.55289   0.02904   0.08769
  -1.31347   0.26846   0.32711
  -1.31347   0.26846   0.32711
  -1.07405   0.02904   0.08769
  -1.31347   0.26846   0.08769
  -0.83463   0.02904   0.08769
  -0.83463   0.02904   0.32711
  -0.83463   0.02904  -0.15173
  -0.59521   0.26846   0.08769
  -0.59521   0.26846   0.08769
  -0.59521   0.02904   0.32711
  -0.11637   0.02904   0.32711
  -0.35579  -0.21038   0.08769
  -0.11637   0.02904   0.08769
  -0.11637   0.02904   0.32711
   0.12305   0.02904   0.32711
   0.36247   0.02904   0.32711
   0.36247   0.02904   0.32711
   0.36247   0.02904   0.08769
   0.60189   0.02904   0.08769
   0.60189   0.02904   0.08769
   0.84131   0.02904   0.32711
   0.84131  -0.21038   0.08769
   0.84131  -0.21038   0.08769
   1.08073  -0.21038   0.08769
   1.08073   0.02904  -0.15173
   1.32015   0.02904  -0.15173
   1.08073   0.02904  -0.15173
   1.32015  -0.21038   0.08769
   1.32015   0.02904   0.32711
   1.32015   0.02904   0.32711
   1.55957   0.02904   0.08769
   1.55957   0.02904   0.08769
   1.55957   0.02904  -0.15173
   1.55957   0.02904   0.08769
   1.79899   0.02904  -0.15173
   1.79899  -0.21038   0.08769
   1.79899   0.02904   0.32711
   1.79899   0.02904   0.08769
   1.79899   0.02904   0.08769
   1.79899   0.02904   0.08769
   1.79899   0.02904   0.08769
   1.79899   0.02904   0.08769
   1.79899   0.02904   0.32711
   1.79899  -0.21038   0.08769
   1.55957   0.02904   0.08769
   1.55957   0.02904   0.32711
   1.55957   0.02904   0.08769
   1.55957   0.26846  -0.15173
   1.55957   0.02904   0.08769
   1.32015   0.02904   0.08769
   1.32015  -0.21038   0.08769
   1.32015  -0.21038   0.08769
   1.55957  -0.21038  -0.15173
   1.55957   0.02904  -0.39115
   1.32015   0.02904  -0.15173
   1.08073  -0.21038  -0.15173
   1.08073  -0.21038  -0.15173
   1.08073  -0.21038  -0.15173
   1.08073  -0.21038  -0.39115
   0.84131  -0.21038  -0.15173
   1.08073  -0.21038  -0.15173
   0.84131  -0.21038  -0.15173
   0.84131  -0.21038  -0.15173
   0.84131   0.02904  -0.39115
   0.84131  -0.21038  -0.39115
   0.60189  -0.21038  -0.39115
   0.60189   0.02904  -0.15173
   0.60189   0.02904  -0.39115
   0.84131  -0.21038  -0.15173
   0.60189  -0.21038  -0.39115
   0.60189   0.02904  -0.63057
   0.60189   0.02904  -0.15173
   0.60189   0.02904  -0.39115
   0.60189   0.02904  -0.39115
   0.36247   0.02904  -0.15173
   0.12305  -0.21038  -0.39115
   0.36247   0.02904  -0.39115
   0.36247   0.02904  -0.39115
   0.36247   0.02904  -0.39115
   0.36247   0.02904  -0.63057
   0.12305   0.26846  -0.15173
  -0.11637   0.02904  -0.39115
   0.12305   0.02904  -0.39115
   0.12305   0.02904  -0.39115
  -0.35579   0.02904  -0.39115
  -0.11637   0.26846  -0.39115
  -0.35579   0.02904  -0.39115
  -0.11637   0.50788  -0.15173
  -0.11637   0.26846  -0.15173
  -0.35579   0.02904  -0.15173
  -0.35579   0.26846  -0.39115
  -0.35579   0.26846  -0.39115
  -0.59521   0.02904  -0.39115
  -0.35579   0.26846  -0.39115
  -0.59521   0.02904  -0.39115
  -0.35579   0.26846  -0.39115
  -0.59521   0.26846  -0.63057
  -0.59521   0.02904  -0.86999
  -0.59521   0.02904  -0.63057
  -0.83463   0.26846  -0.63057
  -0.59521   0.26846  -0.63057
  -0.59521   0.02904  -0.63057
  -0.59521   0.26846  -0.63057
  -1.07405   0.02904  -0.86999
  -0.59521   0.26846  -0.86999
  -0.83463   0.02904  -0.63057
  -1.07405   0.02904  -0.86999
  -0.83463   0.26846  -0.86999
  -1.07405   0.26846  -0.63057
  -1.07405   0.02904  -0.86999
  -1.07405   0.02904  -0.86999
  -1.07405   0.02904  -0.86999
  -1.31347   0.26846  -0.63057
  -1.31347   0.26846  -0.86999
  -1.31347   0.02904  -1.10941
  -1.31347   0.26846  -0.86999
  -1.31347   0.02904  -0.86999
  -1.07405   0.26846  -1.10941
  -1.31347   0.26846  -0.86999
  -1.31347   0.02904  -0.86999
  -1.31347   0.26846  -0.86999
  -1.31347   0.26846  -0.86999
  -1.31347   0.02904  -1.10941
  -1.55289   0.02904  -0.86999
  -1.31347   0.02904  -0.86999
  -1.31347   0.02904  -1.10941
  -1.31347   0.02904  -0.86999
  -1.31347   0.26846  -0.63057
  -1.55289  -0.21038  -0.86999
  -1.07405   0.26846  -0.86999
  -1.31347   0.26846  -0.86999
