********************************************************************************
              CENTRO DE INSTRUMENTACION Y REGISTRO SISMICO  A.C.                

    Anaxagoras 814, Col. Narvarte, Benito Juarez, C.P. 03020 Mexico, D.F.       
           Tels. 5687 45 42/ 5687 45  82             Fax. 5669 25 12            
********************************************************************************
ARCHIVO ESTANDAR DE ACELERACION:
VERSION DEL FORMATO                    : 2.0
NOMBRE DEL ARCHIVO                     : AU1120080212125018
FECHA Y HORA DE CREACION               : 05/MAR/08, 12:58
REF. CATALOGO ACELEROGRAMAS, SMIS 1996 : REGISTRO No.     /PAG.


================================================================================
DATOS DE LA ESTACION:
NOMBRE DE LA ESTACION                  : AUTÓDROMO
CLAVE DE LA ESTACION                   : AU11
LOCALIZACION DE LA ESTACION            : Del. Iztacalco, Cd. Deportiva          
                                       : Magdalena Mixhuca,                     
                                       : Col. Granjas México                    
                                       :                                        
                                       : 
COORDENADAS DE LA ESTACION             : 19.3919 LAT. N
                                       : 99.0869 LONG. W
ALTITUD (msnm)                         : 2234
TIPO DE SUELO                          : Terreno blando, material compresible
                                       : (arcillas)                
                                       : 
INSTITUCION RESPONSABLE                : CIRES


================================================================================
DATOS DEL ACELEROGRAFO:
MODELO DEL ACELEROGRAFO                : SSA-1
NUMERO DE SERIE DEL ACELEROGRAFO       : 157
NUMERO DE CANALES                      : 3
ORIENTACION C1-C6 (rumbo;orientacion)  : /N00E/+V/N90W
ORIENTACION C7-C12 (rumbo;orientacion) : 
VEL. DE MUESTREO, C1-C6 (muestras/s)   : /200/200/200
VEL. DE MUESTREO, C7-C12 (muestras/s)  : 
ESC. COMPLETA DE SENSORES, C1-C6, (g)  : /2.0/2.0/2.0
ESC. COMPLETA DE SENSORES, C7-C12, (g) : 
FREC. NAT. DE SENSORES, C1-C6, (Hz)    : /51.77/52.56/52.29
FREC. NAT. DE SENSORES, C7-C12, (Hz)   : 
AMORTIGUAMIENTO DE SENSORES, C1-C6     : /0.5912/0.6083/0.6067
AMORTIGUAMIENTO DE SENSORES, C7-C12    : 
INTERVALO DE MUESTREO, C1-C6, (s)      : /0.005/0.005/0.005
INTERVALO DE MUESTREO, C7-C12, (s)     : 
UMBRAL DE DISPARO, C1-C6, (Gal)        : /2.0/2.5/1.5
UMBRAL DE DISPARO, C7-C12, (Gal)       : 
MEMORIA DE PREEVENTO (s)               : 15.36
TIEMPO DE POSEVENTO (s)                : 60.0


================================================================================
DATOS DEL SISMO:
FECHA DEL SISMO (GMT)                  : 12/FEB/08
HORA EPICENTRO (GMT)                   : 12:50:18.0
MAGNITUD(ES)                           : /Mc=6.6
COORDENADAS DEL EPICENTRO              : 16.19 LAT. N
                                       : -94.54 LONG. W
PROFUNDIDAD FOCAL (km)                 : 90
FUENTE DE LOS DATOS EPICENTRALES       : SSN
                                       : INSTITUTO DE GEOFISICA, UNAM

================================================================================
DATOS DE ESTE REGISTRO:
HORA DE LA PRIMERA MUESTRA (GMT)       : 12:53:13.27
EXACTITUD DEL TIEMPO (s)               : 0.005
DURACION DEL REGISTRO (s), C1-C6       : /113.92/113.92/113.92
DURACION DEL REGISTRO (s), C7-C12      : 
NUM. TOTAL DE MUESTRAS, C1-C6          : /22784/22784/22784
NUM. TOTAL DE MUESTRAS, C7-C12         : 
ACEL. MAX. (Gal), C1-C6                : /2.21172/0.847/2.06147
ACEL. MAX., C1-C6, EN LA MUESTRA       : /3082/1250/5262
ACEL. MAX. (Gal), C7-C12               : 
ACEL. MAX., C7-C12, EN LA MUESTRA      : 
UNIDADES DE LOS DATOS                  : Gal (cm/s/s)
FACTOR DE DECIMACION                   : 1
FORMATO DATOS (FORTRAN,10 campos/dato) : 3F10.5


================================================================================
CALIDAD DEL ACELEROGRAMA:
REGISTRO DIGITAL COMPLETO CON TIEMPO ABSOLUTO CORRECTO.


================================================================================
COMENTARIOS:














================================================================================
DATOS DE ACELERACION:
---------+---------+---------+---------+---------+---------+---------+---------+
   CANAL-1   CANAL-2   CANAL-3   CANAL-4   CANAL-5   CANAL-6   CANAL-7   CANAL-8
      N00E        +V      N90W
---------+---------+---------+---------+---------+---------+---------+---------+
[...]
   0.77519   0.11068  -0.38553
   0.77519   0.11068  -0.38553
   0.77519   0.11068  -0.38553
   0.77519   0.11068  -0.38553
   0.77519   0.11068  -0.38553
   0.77519   0.11068  -0.38553
   0.77519   0.11068  -0.38553
   0.77519   0.35010  -0.38553
   0.77519   0.35010  -0.38553
   0.77519   0.35010  -0.62495
   1.01461   0.35010  -0.62495
   0.77519   0.11068  -0.38553
   0.77519   0.35010  -0.62495
   0.77519   0.35010  -0.62495
   0.77519   0.35010  -0.62495
   0.77519   0.35010  -0.86437
   0.77519   0.35010  -0.62495
   0.77519   0.35010  -0.62495
   0.77519   0.35010  -0.86437
   0.77519   0.35010  -0.86437
   0.77519   0.35010  -0.86437
   0.77519   0.35010  -0.86437
   0.77519   0.35010  -0.86437
   0.77519   0.35010  -0.86437
   0.77519   0.35010  -0.86437
   0.77519   0.35010  -0.86437
   0.77519   0.35010  -0.86437
   0.77519   0.35010  -0.86437
   0.77519   0.35010  -1.10379
   0.77519   0.35010  -1.10379
   0.77519   0.35010  -1.10379
   0.77519   0.35010  -1.10379
   0.77519   0.35010  -1.10379
   0.77519   0.35010  -1.10379
   0.77519   0.35010  -1.10379
   0.77519   0.35010  -1.10379
   0.53577   0.35010  -1.10379
   0.53577   0.35010  -1.10379
   0.53577   0.35010  -1.10379
   0.53577   0.35010  -1.10379
   0.53577   0.35010  -1.10379
   0.53577   0.35010  -1.10379
   0.53577   0.35010  -1.10379
   0.77519   0.35010  -1.10379
   0.53577   0.35010  -1.10379
   0.53577   0.35010  -1.10379
   0.53577   0.35010  -1.10379
   0.53577   0.35010  -1.10379
   0.53577   0.35010  -1.10379
   0.53577   0.35010  -1.10379
   0.53577   0.35010  -1.10379
   0.53577   0.35010  -1.10379
   0.53577   0.35010  -1.10379
   0.53577   0.35010  -1.10379
   0.53577   0.35010  -1.10379
   0.53577   0.35010  -1.10379
   0.53577   0.35010  -1.10379
   0.53577   0.35010  -0.86437
   0.53577   0.35010  -1.34321
   0.29635   0.35010  -0.86437
   0.29635   0.35010  -0.86437
   0.29635   0.35010  -0.86437
   0.29635   0.35010  -0.86437
   0.29635   0.35010  -0.86437
   0.29635   0.35010  -0.86437
   0.29635   0.35010  -0.86437
   0.29635   0.35010  -0.86437
   0.29635   0.35010  -0.86437
   0.29635   0.35010  -0.86437
   0.29635   0.11068  -0.86437
   0.29635   0.35010  -0.86437
   0.05693   0.11068  -0.86437
   0.05693   0.35010  -0.86437
   0.05693   0.35010  -0.86437
   0.05693   0.11068  -0.86437
   0.05693   0.11068  -0.86437
   0.05693   0.11068  -0.86437
   0.05693   0.11068  -0.86437
   0.05693   0.11068  -0.86437
   0.05693   0.11068  -0.86437
   0.05693  -0.36816  -0.86437
   0.05693   0.11068  -0.86437
   0.05693   0.11068  -0.86437
   0.05693   0.11068  -0.86437
   0.05693   0.11068  -0.86437
  -0.18249   0.11068  -0.86437
  -0.18249   0.11068  -0.86437
  -0.18249   0.11068  -0.86437
  -0.18249   0.11068  -0.86437
  -0.18249   0.11068  -0.86437
  -0.18249   0.11068  -0.86437
  -0.18249   0.11068  -0.86437
  -0.18249   0.11068  -0.86437
  -0.18249   0.11068  -0.86437
  -0.18249   0.11068  -0.86437
  -0.18249   0.11068  -0.86437
  -0.18249   0.11068  -0.86437
  -0.18249   0.11068  -0.86437
  -0.18249   0.11068  -0.86437
  -0.18249   0.11068  -1.10379
  -0.18249   0.11068  -1.10379
  -0.18249   0.11068  -1.10379
  -0.18249   0.11068  -1.10379
  -0.18249   0.11068  -1.10379
  -0.18249   0.11068  -1.10379
  -0.18249   0.11068  -1.10379
  -0.18249  -0.12874  -1.10379
  -0.18249  -0.12874  -1.10379
  -0.18249  -0.12874  -1.10379
  -0.18249  -0.12874  -1.10379
  -0.18249  -0.12874  -1.34321
  -0.18249  -0.12874  -1.34321
  -0.18249  -0.12874  -1.34321
  -0.18249  -0.12874  -1.34321
  -0.18249  -0.12874  -1.34321
  -0.18249  -0.12874  -1.34321
   0.05693  -0.12874  -1.34321
   0.05693  -0.12874  -1.34321
   0.05693  -0.12874  -1.34321
   0.05693  -0.36816  -1.34321
   0.05693  -0.12874  -1.34321
   0.05693  -0.36816  -1.34321
   0.05693  -0.36816  -1.34321
   0.05693  -0.36816  -1.34321
   0.05693  -0.36816  -1.34321
   0.05693  -0.36816  -1.34321
   0.05693  -0.36816  -1.34321
   0.05693  -0.36816  -1.34321
   0.05693  -0.36816  -1.34321
   0.05693  -0.36816  -1.34321
   0.05693  -0.36816  -1.34321
   0.05693  -0.36816  -1.34321
   0.05693  -0.36816  -1.34321
   0.05693  -0.36816  -1.34321
   0.05693  -0.36816  -1.34321
   0.05693  -0.36816  -1.34321
   0.05693  -0.36816  -1.34321
   0.05693  -0.36816  -1.34321
   0.05693  -0.36816  -1.34321
   0.05693  -0.36816  -1.34321
   0.05693  -0.36816  -1.34321
   0.05693  -0.84700  -1.34321
   0.05693  -0.36816  -1.34321
   0.05693  -0.36816  -1.34321
   0.05693  -0.36816  -1.34321
   0.05693  -0.36816  -1.10379
   0.05693  -0.36816  -1.10379
   0.05693  -0.36816  -1.10379
   0.05693  -0.36816  -1.10379
   0.05693  -0.36816  -1.10379
   0.05693  -0.36816  -1.10379
   0.05693  -0.36816  -1.10379
   0.05693  -0.36816  -1.10379
   0.05693  -0.36816  -1.10379
   0.05693  -0.36816  -1.10379
   0.05693  -0.36816  -1.10379
   0.05693  -0.36816  -1.10379
   0.05693  -0.36816  -1.10379
   0.05693  -0.36816  -0.86437
   0.05693  -0.36816  -0.86437
   0.05693  -0.36816  -0.86437
   0.05693  -0.36816  -0.86437
   0.05693  -0.36816  -0.86437
  -0.18249  -0.36816  -0.86437
  -0.18249  -0.36816  -0.86437
   0.05693  -0.36816  -0.86437
  -0.18249  -0.36816  -0.86437
  -0.18249  -0.36816  -0.86437
  -0.18249  -0.36816  -0.86437
   0.05693  -0.36816  -0.86437
  -0.18249  -0.36816  -0.86437
  -0.18249  -0.12874  -0.86437
  -0.18249  -0.12874  -0.86437
  -0.18249  -0.12874  -0.86437
  -0.18249  -0.12874  -0.86437
  -0.18249  -0.12874  -0.62495
  -0.18249  -0.12874  -0.62495
  -0.18249  -0.12874  -0.62495
  -0.18249  -0.12874  -0.62495
  -0.18249  -0.36816  -0.62495
  -0.18249  -0.12874  -0.62495
  -0.18249  -0.12874  -0.62495
  -0.18249  -0.12874  -0.62495
  -0.18249  -0.12874  -0.62495
  -0.18249  -0.12874  -0.62495
  -0.18249  -0.12874  -0.62495
  -0.18249  -0.12874  -0.62495
  -0.18249   0.11068  -0.62495
  -0.18249  -0.12874  -0.62495
  -0.42191  -0.12874  -0.38553
  -0.42191  -0.12874  -0.38553
  -0.42191  -0.12874  -0.38553
  -0.42191   0.11068  -0.38553
  -0.42191   0.11068  -0.38553
  -0.42191  -0.12874  -0.38553
  -0.42191   0.11068  -0.38553
  -0.42191   0.11068  -0.38553
  -0.42191   0.11068  -0.38553
  -0.42191   0.11068  -0.38553
  -0.42191   0.11068  -0.38553
  -0.42191   0.11068  -0.38553
  -0.66133   0.11068  -0.38553
  -0.66133   0.11068  -0.38553
  -0.66133   0.11068  -0.38553
  -0.66133   0.11068  -0.38553
  -0.66133   0.11068  -0.38553
  -0.66133   0.11068  -0.38553
  -0.66133   0.11068  -0.38553
  -0.90075   0.11068  -0.38553
  -0.90075   0.11068  -0.14611
  -0.90075   0.11068  -0.14611
  -0.90075   0.11068  -0.14611
  -0.90075   0.11068  -0.14611
  -0.90075   0.11068  -0.14611
  -0.90075   0.11068  -0.14611
  -0.90075   0.11068  -0.14611
  -0.90075   0.11068  -0.14611
  -0.90075   0.11068  -0.14611
  -0.90075   0.11068   0.09331
  -0.90075   0.11068   0.09331
  -0.90075   0.11068   0.09331
  -0.90075   0.11068   0.09331
  -1.14017   0.11068   0.09331
  -1.14017   0.11068   0.09331
  -1.14017   0.11068   0.09331
  -1.14017   0.11068   0.09331
  -1.14017   0.11068   0.09331
  -1.14017   0.11068   0.33273
  -1.14017   0.11068   0.33273
  -1.14017   0.11068   0.33273
  -1.14017  -0.12874   0.33273
  -1.14017   0.11068   0.33273
  -1.14017   0.11068   0.33273
  -1.14017   0.11068   0.57215
  -1.14017   0.11068   0.33273
  -1.14017   0.11068   0.33273
  -1.37959   0.11068   0.57215
  -1.14017   0.11068   0.57215
  -1.14017   0.11068   0.57215
  -1.14017   0.11068   0.57215
  -1.14017   0.11068   0.57215
  -1.14017   0.11068   0.57215
  -1.14017   0.11068   0.57215
  -1.14017   0.11068   0.57215
  -1.14017   0.11068   0.57215
  -1.14017   0.11068   0.81157
  -1.14017   0.11068   0.81157
  -1.14017   0.11068   0.81157
  -1.14017   0.11068   0.81157
  -1.14017   0.11068   0.81157
  -1.14017   0.11068   0.81157
  -1.14017   0.11068   0.81157
  -1.14017   0.11068   0.81157
  -1.14017   0.11068   0.81157
  -1.14017   0.11068   0.81157
  -1.14017   0.11068   1.05099
  -0.90075   0.11068   1.05099
  -0.90075   0.11068   1.05099
  -0.90075   0.11068   1.05099
  -0.90075   0.11068   1.05099
  -0.90075   0.11068   1.05099
  -0.90075   0.11068   1.05099
  -0.90075   0.11068   1.05099
  -0.90075   0.11068   1.05099
  -0.90075   0.11068   1.05099
  -0.90075   0.11068   1.05099
  -0.90075   0.11068   1.05099
  -0.90075   0.11068   1.29041
  -0.90075   0.11068   1.29041
  -0.90075   0.11068   1.29041
  -0.90075   0.11068   1.05099
  -0.66133   0.11068   1.29041
  -0.66133   0.11068   1.29041
  -0.66133   0.11068   1.05099
  -0.66133   0.11068   1.05099
  -0.66133   0.11068   1.29041
  -0.66133   0.11068   1.29041
  -0.66133   0.11068   0.81157
  -0.66133  -0.12874   1.05099
  -0.42191   0.11068   1.05099
  -0.42191  -0.12874   1.05099
  -0.42191  -0.12874   1.05099
  -0.42191  -0.12874   1.05099
  -0.42191  -0.12874   1.05099
  -0.42191  -0.12874   1.05099
  -0.42191  -0.12874   1.05099
  -0.42191   0.11068   1.05099
  -0.42191  -0.12874   1.05099
  -0.18249  -0.12874   1.05099
  -0.18249   0.11068   1.05099
  -0.18249   0.11068   1.05099
  -0.18249   0.11068   1.05099
  -0.18249   0.11068   1.05099
  -0.18249   0.11068   1.05099
   0.05693  -0.12874   1.05099
   0.05693   0.11068   1.05099
   0.05693  -0.12874   1.05099
   0.05693  -0.12874   1.05099
   0.05693  -0.12874   1.05099
   0.05693   0.11068   1.05099
   0.29635  -0.12874   1.05099
   0.29635  -0.12874   1.05099
   0.29635  -0.12874   1.05099
   0.29635  -0.12874   1.05099
   0.29635  -0.12874   1.05099
   0.53577  -0.12874   1.05099
   0.53577  -0.12874   1.05099
   0.53577  -0.12874   1.05099
   0.53577  -0.12874   1.05099
   0.53577  -0.12874   0.81157
   0.53577  -0.12874   0.81157
   0.77519  -0.12874   0.81157
   0.77519  -0.12874   0.81157
   0.77519  -0.12874   0.81157
   0.77519  -0.12874   0.81157
   1.01461  -0.12874   0.81157
   1.01461  -0.12874   0.81157
   1.01461  -0.12874   0.81157
   1.01461  -0.12874   0.81157
   1.25403  -0.12874   0.81157
   1.25403  -0.12874   0.57215
   1.25403  -0.12874   0.81157
   1.25403  -0.12874   0.81157
   1.25403  -0.12874   0.81157
   1.49345  -0.12874   0.81157
   1.49345  -0.12874   0.81157
   1.49345  -0.12874   0.81157
   1.49345  -0.12874   0.81157
   1.49345  -0.12874   0.57215
   1.73287  -0.12874   0.57215
   1.73287  -0.12874   0.57215
   1.73287  -0.12874   0.57215
   1.73287  -0.12874   0.57215
   1.73287  -0.12874   0.57215
   1.73287  -0.12874   0.57215
   1.97230  -0.12874   0.57215
   1.97230  -0.12874   0.57215
   1.97230  -0.12874   0.57215
   1.97230  -0.36816   0.57215
   1.97230  -0.12874   0.57215
   1.97230  -0.12874   0.57215
   1.97230  -0.12874   0.57215
   1.97230  -0.12874   0.81157
   1.97230  -0.12874   0.81157
   1.97230  -0.12874   0.81157
   1.97230  -0.12874   0.81157
   2.21172  -0.12874   0.81157
   2.21172  -0.12874   0.81157
   2.21172  -0.12874   0.81157
   2.21172  -0.12874   0.81157
   2.21172  -0.12874   0.81157
   2.21172  -0.12874   0.81157
   2.21172  -0.12874   0.81157
   2.21172  -0.12874   0.81157
   2.21172  -0.36816   0.81157
   2.21172  -0.12874   0.81157
   2.21172  -0.12874   0.81157
   1.97230  -0.12874   0.81157
   1.97230  -0.12874   0.81157
   1.97230  -0.12874   0.81157
   1.97230  -0.12874   0.81157
   1.97230  -0.12874   0.81157
   1.97230  -0.12874   0.81157
   1.97230  -0.12874   0.81157
   1.97230  -0.12874   0.81157
   1.97230  -0.12874   0.81157
   1.97230  -0.12874   0.81157
   1.73287  -0.12874   0.81157
   1.73287  -0.12874   0.81157
   1.73287  -0.12874   0.81157
   1.73287  -0.12874   0.81157
   1.73287  -0.12874   0.81157
   1.49345  -0.12874   0.81157
   1.49345  -0.12874   0.81157
   1.49345  -0.12874   0.81157
   1.49345  -0.12874   0.81157
   1.25403  -0.12874   0.81157
   1.25403  -0.12874   0.81157
   1.25403  -0.12874   0.81157
   1.25403   0.11068   1.05099
   1.25403  -0.12874   0.81157
   1.01461  -0.12874   1.05099
   1.01461  -0.12874   1.05099
   1.01461  -0.12874   1.05099
   0.77519  -0.12874   1.05099
   0.77519  -0.12874   1.05099
   0.77519  -0.12874   1.05099
   0.77519  -0.12874   1.05099
   0.53577  -0.12874   1.05099
   0.53577  -0.12874   1.05099
   0.53577  -0.12874   1.05099
   0.29635  -0.12874   1.05099
   0.29635  -0.12874   1.05099
   0.29635  -0.12874   1.05099
   0.29635  -0.12874   1.05099
   0.05693  -0.12874   1.05099
   0.05693  -0.12874   1.05099
   0.05693  -0.12874   1.05099
   0.05693  -0.12874   1.05099
  -0.18249  -0.12874   1.05099
  -0.18249  -0.12874   1.05099
  -0.18249  -0.12874   1.05099
  -0.18249  -0.12874   1.05099
  -0.18249  -0.12874   1.05099
  -0.18249  -0.12874   0.81157
  -0.42191  -0.12874   1.05099
  -0.42191  -0.12874   0.81157
  -0.42191  -0.12874   0.81157
  -0.42191  -0.12874   0.81157
  -0.42191  -0.12874   0.81157
  -0.42191  -0.12874   0.81157
  -0.42191  -0.12874   0.81157
  -0.66133  -0.12874   0.81157
  -0.66133  -0.12874   0.81157
  -0.66133  -0.12874   0.81157
  -0.66133  -0.12874   0.81157
  -0.66133  -0.12874   0.81157
  -0.66133  -0.12874   0.81157
  -0.66133  -0.12874   0.81157
  -0.66133  -0.12874   0.81157
  -0.90075  -0.12874   0.81157
  -0.90075  -0.12874   0.81157
  -0.90075  -0.12874   0.81157
  -0.90075  -0.12874   0.81157
  -0.90075  -0.12874   0.81157
  -0.90075  -0.12874   0.81157
  -0.90075  -0.12874   0.81157
  -0.90075   0.11068   0.81157
  -0.90075  -0.12874   0.81157
  -0.90075  -0.12874   0.81157
  -0.90075  -0.12874   0.81157
  -0.90075  -0.12874   0.81157
  -0.90075  -0.12874   0.57215
  -0.90075  -0.12874   0.81157
  -0.90075  -0.12874   0.57215
  -0.90075  -0.12874   0.57215
  -0.90075  -0.12874   0.57215
  -0.90075  -0.12874   0.57215
  -0.90075  -0.12874   0.57215
  -0.90075  -0.12874   0.57215
  -0.90075  -0.12874   0.57215
  -0.90075  -0.12874   0.57215
  -0.90075  -0.12874   0.57215
  -0.90075  -0.12874   0.57215
  -0.90075  -0.12874   0.57215
  -0.90075  -0.12874   0.57215
  -0.90075  -0.12874   0.57215
  -0.90075  -0.12874   0.57215
  -0.90075  -0.12874   0.33273
  -0.90075  -0.12874   0.57215
  -0.90075  -0.12874   0.57215
  -0.90075  -0.12874   0.33273
  -0.90075  -0.12874   0.33273
  -0.90075  -0.12874   0.33273
  -0.90075  -0.12874   0.33273
  -0.90075  -0.12874   0.33273
  -0.90075  -0.12874   0.33273
  -0.90075  -0.12874   0.33273
  -0.90075  -0.12874   0.33273
  -0.90075  -0.12874   0.33273
  -0.90075  -0.12874   0.33273
  -0.90075  -0.12874   0.33273
  -0.66133  -0.12874   0.33273
  -0.90075  -0.12874   0.33273
  -0.90075  -0.12874   0.33273
  -0.66133  -0.12874   0.33273
  -0.66133  -0.12874   0.33273
  -0.66133  -0.12874   0.33273
  -0.66133  -0.12874   0.33273
  -0.66133  -0.12874   0.33273
  -0.66133  -0.12874   0.33273
  -0.66133  -0.12874   0.33273
  -0.66133  -0.12874   0.33273
  -0.42191  -0.12874   0.33273
  -0.42191   0.11068   0.33273
  -0.42191  -0.12874   0.09331
  -0.42191   0.11068   0.33273
  -0.42191   0.11068   0.33273
  -0.42191  -0.12874   0.33273
  -0.42191   0.11068   0.09331
  -0.42191   0.11068   0.33273
  -0.42191   0.11068   0.33273
  -0.42191   0.11068   0.33273
  -0.18249   0.11068   0.33273
  -0.18249   0.11068  -0.38553
  -0.18249   0.11068   0.33273
  -0.18249   0.11068   0.33273
  -0.18249   0.11068   0.33273
  -0.18249   0.11068   0.33273
  -0.18249  -0.12874   0.33273
  -0.18249  -0.12874   0.33273
  -0.18249   0.11068   0.33273
   0.05693   0.11068   0.33273
  -0.18249   0.11068   0.33273
   0.05693   0.11068   0.33273
   0.05693   0.11068   0.33273
