********************************************************************************
              CENTRO DE INSTRUMENTACION Y REGISTRO SISMICO  A.C.

    Anaxagoras 814, Col. Narvarte, Benito Juarez, C.P. 03020 Mexico, D.F.
           Tels. 5687 45 42/ 5687 45  82             Fax. 5669 25 12
********************************************************************************
ARCHIVO ESTANDAR DE ACELERACION:
VERSION DEL FORMATO                    : 2.0
NOMBRE DEL ARCHIVO                     : AU1120130412034509
FECHA Y HORA DE CREACION               : 14/MAY/13, 12:39
REF. CATALOGO ACELEROGRAMAS, SMIS 1996 : REGISTRO No.     /PAG.


================================================================================
DATOS DE LA ESTACION:
NOMBRE DE LA ESTACION                  : AUTÓDROMO
CLAVE DE LA ESTACION                   : AU11
LOCALIZACION DE LA ESTACION            : Del. Iztacalco, Cd. Deportiva          
                                       : Magdalena Mixhuca,                     
                                       : Col. Granjas México                    
                                       :                                        
                                       : 
COORDENADAS DE LA ESTACION             : 19.3919 LAT. N
                                       : 99.0869 LONG. W
ALTITUD (msnm)                         : 2234
TIPO DE SUELO                          : Terreno blando, material compresible
                                       : (arcillas)                
                                       : 
INSTITUCION RESPONSABLE                : CIRES
                                       : 

================================================================================
DATOS DEL ACELEROGRAFO:
MODELO DEL ACELEROGRAFO                : RADESD
NUMERO DE SERIE DEL ACELEROGRAFO       : 157
NUMERO DE CANALES                      : 3
ORIENTACION C1-C6 (rumbo;orientacion)  : /N00E/+V/N90W
ORIENTACION C7-C12 (rumbo;orientacion) : 
VEL. DE MUESTREO, C1-C6 (muestras/s)   : /100/100/100
VEL. DE MUESTREO, C7-C12 (muestras/s)  : 
ESC. COMPLETA DE SENSORES, C1-C6, (g)  : /0.5/0.5/0.5
ESC. COMPLETA DE SENSORES, C7-C12, (g) : 
FREC. NAT. DE SENSORES, C1-C6, (Hz)    : /51.77/52.56/52.29
FREC. NAT. DE SENSORES, C7-C12, (Hz)   : 
AMORTIGUAMIENTO DE SENSORES, C1-C6     : /0.5912/0.6083/0.6067
AMORTIGUAMIENTO DE SENSORES, C7-C12    : 
INTERVALO DE MUESTREO, C1-C6, (s)      : /0.01/0.01/0.01
INTERVALO DE MUESTREO, C7-C12, (s)     : 
UMBRAL DE DISPARO, C1-C6, (Gal)        : /11.49/30.65/11.49
UMBRAL DE DISPARO, C7-C12, (Gal)       : 
MEMORIA DE PREEVENTO (s)               : 56.0
TIEMPO DE POSEVENTO (s)                : 80.0


================================================================================
DATOS DEL SISMO:
FECHA DEL SISMO (GMT)                  : 12/ABR/13
HORA EPICENTRO (GMT)                   : 03:45:09.0
MAGNITUD(ES)                           : /Mc=5.2
COORDENADAS DEL EPICENTRO              : 17.78 LAT. N
                                       : 101.58 LONG. W
PROFUNDIDAD FOCAL (km)                 : 35
FUENTE DE LOS DATOS EPICENTRALES       : SSN
                                       : INSTITUTO DE GEOFISICA, UNAM

================================================================================
DATOS DE ESTE REGISTRO:
HORA DE LA PRIMERA MUESTRA (GMT)       : 03:46:37.00
EXACTITUD DEL TIEMPO (s)               : 0.01
DURACION DEL REGISTRO (s), C1-C6       : /186.0/186.0/186.0
DURACION DEL REGISTRO (s), C7-C12      : 
NUM. TOTAL DE MUESTRAS, C1-C6          : /18600/18600/18600
NUM. TOTAL DE MUESTRAS, C7-C12         : 
ACEL. MAX. (Gal), C1-C6                : /2.19645/0.62679/1.52373
ACEL. MAX., C1-C6, EN LA MUESTRA       : /5511/5724/5146
ACEL. MAX. (Gal), C7-C12               : 
ACEL. MAX., C7-C12, EN LA MUESTRA      : 
UNIDADES DE LOS DATOS                  : Gal (cm/s/s)
FACTOR DE DECIMACION                   : 1
FORMATO DATOS (FORTRAN,10 campos/dato) : 3F10.5


================================================================================
CALIDAD DEL ACELEROGRAMA:
REGISTRO DIGITAL COMPLETO CON TIEMPO ABSOLUTO CORRECTO.


================================================================================
COMENTARIOS:














================================================================================
DATOS DE ACELERACION:
---------+---------+---------+---------+---------+---------+---------+---------+
   CANAL-1   CANAL-2   CANAL-3   CANAL-4   CANAL-5   CANAL-6   CANAL-7   CANAL-8
      N00E        +V      N90W
---------+---------+---------+---------+---------+---------+---------+---------+
[...]
   0.48207   0.25607   0.97007
   0.49703   0.36081   0.92518
   0.54192   0.37578   0.95510
   0.60178   0.33089   0.92518
   0.54192   0.37578   0.79050
   0.51199   0.36081   0.73065
   0.57185   0.37578   0.65583
   0.69156   0.36081   0.61094
   0.58681   0.34585   0.58101
   0.64667   0.36081   0.56605
   0.67660   0.34585   0.56605
   0.72149   0.37578   0.46130
   0.72149   0.33089   0.31166
   0.72149   0.28599   0.22188
   0.72149   0.25607   0.07224
   0.75141   0.16628   0.07224
   0.76638   0.21118  -0.03251
   0.78134   0.24110  -0.04747
   0.73645   0.16628   0.02735
   0.67660   0.16628   0.01239
   0.64667   0.25607   0.01239
   0.58681   0.12139   0.11713
   0.55689   0.22614  -0.03251
   0.48207   0.12139   0.19195
   0.43718   0.00168   0.25181
   0.45214   0.00168   0.08720
   0.37732   0.00168   0.08720
   0.30250   0.01665   0.17699
   0.22768  -0.07314   0.07224
   0.27257  -0.13299   0.05728
   0.27257   0.03161  -0.03251
   0.19776  -0.04321  -0.00258
   0.22768  -0.04321  -0.12229
   0.21272  -0.04321  -0.07740
   0.21272  -0.01328  -0.09236
   0.15286   0.04657  -0.13725
   0.10797  -0.07314  -0.10732
   0.07805  -0.01328  -0.15222
   0.06308  -0.01328  -0.15222
   0.04812  -0.02824  -0.10732
   0.06308   0.01665  -0.13725
   0.06308  -0.10306  -0.16718
   0.03315  -0.10306  -0.18214
   0.04812  -0.10306  -0.18214
   0.09301  -0.08810  -0.21207
   0.10797  -0.10306  -0.25696
   0.07805  -0.07314  -0.30185
   0.16783  -0.07314  -0.30185
   0.15286  -0.16292  -0.33178
   0.22768  -0.08810  -0.34674
   0.16783  -0.08810  -0.39164
   0.18279  -0.07314  -0.37667
   0.21272   0.00168  -0.42156
   0.15286   0.00168  -0.39164
   0.15286   0.04657  -0.39164
   0.13790   0.03161  -0.42156
   0.09301   0.01665  -0.43653
   0.04812   0.15132  -0.48142
  -0.05663   0.07650  -0.39164
  -0.11648   0.03161  -0.43653
  -0.14641   0.04657  -0.39164
  -0.16137   0.00168  -0.39164
  -0.19130   0.03161  -0.37667
  -0.23619   0.01665  -0.34674
  -0.31101   0.09147  -0.25696
  -0.37087   0.07650  -0.25696
  -0.37087  -0.04321  -0.07740
  -0.40079   0.00168  -0.06243
  -0.38583   0.01665   0.07224
  -0.53547   0.00168   0.14706
  -0.61029  -0.14795   0.11713
  -0.65518  -0.05817   0.26677
  -0.55043  -0.07314   0.05728
  -0.61029   0.03161   0.23684
  -0.44569   0.10643   0.14706
  -0.65518   0.15132   0.08720
  -0.61029   0.10643  -0.03251
  -0.62525   0.10643   0.02735
  -0.59532   0.06154  -0.04747
  -0.68511   0.00168   0.04231
  -0.68511   0.00168  -0.01754
  -0.73000   0.04657  -0.06243
  -0.71503  -0.01328   0.02735
  -0.74496  -0.04321  -0.07740
  -0.84971  -0.10306   0.07224
  -0.87963  -0.10306   0.05728
  -0.81978  -0.10306   0.20692
  -0.92453  -0.08810   0.23684
  -0.96942  -0.11803   0.32663
  -0.99935  -0.17788   0.28173
  -1.04424  -0.16292   0.38648
  -1.05920  -0.19285   0.46130
  -1.05920  -0.23774   0.46130
  -1.04424  -0.20781   0.44634
  -1.05920  -0.20781   0.50619
  -1.02927  -0.17788   0.56605
  -0.99935  -0.16292   0.56605
  -0.87963  -0.20781   0.53612
  -0.84971  -0.11803   0.56605
  -0.75992  -0.04321   0.56605
  -0.68511   0.01665   0.58101
  -0.52050   0.06154   0.58101
  -0.52050   0.13636   0.56605
  -0.52050   0.18125   0.56605
  -0.31101   0.13636   0.56605
  -0.26612   0.22614   0.56605
  -0.29605   0.21118   0.52115
  -0.22123   0.15132   0.55108
  -0.22123   0.28599   0.56605
  -0.23619   0.10643   0.56605
  -0.20627   0.09147   0.53612
  -0.19130   0.16628   0.41641
  -0.17634   0.07650   0.29670
  -0.14641   0.06154   0.41641
  -0.11648  -0.02824   0.44634
  -0.11648  -0.08810   0.44634
  -0.07159  -0.10306   0.49123
  -0.07159  -0.08810   0.47626
   0.07805  -0.11803   0.52115
   0.13790  -0.05817   0.47626
   0.18279  -0.13299   0.53612
   0.25761   0.00168   0.56605
   0.42221  -0.04321   0.56605
   0.46710  -0.07314   0.47626
   0.55689  -0.07314   0.56605
   0.63170  -0.01328   0.53612
   0.63170   0.00168   0.47626
   0.54192   0.00168   0.49123
   0.64667   0.09147   0.38648
   0.67660  -0.01328   0.40144
   0.76638   0.03161   0.32663
   0.73645   0.07650   0.35655
   0.73645   0.01665   0.26677
   0.73645  -0.02824   0.11713
   0.78134   0.03161   0.13210
   0.81127   0.00168   0.26677
   0.79631  -0.08810   0.08720
   0.84120  -0.10306   0.02735
   0.84120  -0.04321   0.07224
   0.85616  -0.14795   0.02735
   0.91602  -0.19285  -0.03251
   0.94594  -0.17788  -0.01754
   0.90105  -0.22277  -0.07740
   0.91602  -0.25270  -0.10732
   0.88609  -0.28263  -0.12229
   0.94594  -0.20781  -0.10732
   0.90105  -0.26766  -0.10732
   0.90105  -0.31256  -0.09236
   0.96091  -0.25270  -0.01754
   0.85616  -0.29759   0.16202
   0.88609  -0.25270   0.19195
   0.85616  -0.23774   0.23684
   0.82623  -0.25270   0.41641
   0.76638  -0.25270   0.47626
   0.78134  -0.20781   0.28173
   0.79631  -0.17788   0.40144
   0.81127  -0.11803   0.43137
   0.79631  -0.16292   0.50619
   0.78134  -0.17788   0.44634
   0.76638  -0.13299   0.23684
   0.73645  -0.10306   0.34159
   0.79631  -0.05817   0.17699
   0.75141  -0.04321   0.25181
   0.72149  -0.02824   0.05728
   0.73645   0.10643   0.02735
   0.67660   0.03161   0.01239
   0.61674   0.03161  -0.03251
   0.63170   0.06154  -0.09236
   0.40725   0.04657  -0.19711
   0.31747   0.07650  -0.15222
   0.19776   0.10643  -0.19711
   0.07805  -0.02824  -0.21207
   0.03315   0.07650  -0.24200
  -0.02670  -0.02824  -0.25696
  -0.08656   0.12139  -0.31682
  -0.11648   0.09147  -0.30185
  -0.17634   0.00168  -0.30185
  -0.16137   0.12139  -0.33178
  -0.26612   0.16628  -0.34674
  -0.25116   0.07650  -0.40660
  -0.25116   0.16628  -0.36171
  -0.34094   0.19621  -0.37667
  -0.37087   0.18125  -0.40660
  -0.35590   0.15132  -0.39164
  -0.47561   0.15132  -0.42156
  -0.56540   0.19621  -0.46645
  -0.61029   0.21118  -0.43653
  -0.64021   0.24110  -0.42156
  -0.71503   0.24110  -0.48142
  -0.78985   0.27103  -0.43653
  -0.77489   0.22614  -0.48142
  -0.77489   0.22614  -0.42156
  -0.80482   0.21118  -0.42156
  -0.81978   0.19621  -0.42156
  -0.84971   0.12139  -0.42156
  -0.78985   0.12139  -0.43653
  -0.75992   0.01665  -0.39164
  -0.75992  -0.02824  -0.42156
  -0.77489  -0.04321  -0.37667
  -0.61029  -0.10306  -0.39164
  -0.56540  -0.05817  -0.42156
  -0.44569  -0.01328  -0.42156
  -0.50554  -0.02824  -0.39164
  -0.38583  -0.08810  -0.42156
  -0.34094  -0.11803  -0.40660
  -0.34094  -0.20781  -0.39164
  -0.31101  -0.19285  -0.39164
  -0.34094  -0.23774  -0.33178
  -0.31101  -0.26766  -0.39164
  -0.31101  -0.26766  -0.39164
  -0.25116  -0.25270  -0.39164
  -0.29605  -0.23774  -0.40660
  -0.34094  -0.22277  -0.39164
  -0.35590  -0.17788  -0.39164
  -0.34094  -0.14795  -0.39164
  -0.34094  -0.16292  -0.33178
  -0.38583  -0.11803  -0.31682
  -0.49058  -0.14795  -0.24200
  -0.43072  -0.11803  -0.18214
  -0.50554  -0.13299  -0.09236
  -0.59532  -0.05817  -0.00258
  -0.65518  -0.11803  -0.01754
  -0.58036  -0.14795   0.22188
  -0.67014  -0.05817   0.38648
  -0.71503  -0.10306   0.44634
  -0.70007  -0.11803   0.50619
  -0.71503  -0.07314   0.53612
  -0.70007  -0.01328   0.56605
  -0.62525  -0.01328   0.52115
  -0.53547   0.04657   0.59597
  -0.46065   0.04657   0.56605
  -0.37087   0.15132   0.55108
  -0.32598   0.13636   0.59597
  -0.26612   0.12139   0.56605
  -0.17634   0.12139   0.58101
  -0.19130   0.21118   0.56605
  -0.19130   0.18125   0.56605
  -0.19130   0.31592   0.56605
  -0.14641   0.25607   0.56605
  -0.13145   0.24110   0.55108
  -0.14641   0.25607   0.53612
  -0.14641   0.25607   0.53612
  -0.16137   0.28599   0.53612
  -0.17634   0.30096   0.50619
  -0.14641   0.30096   0.47626
  -0.16137   0.28599   0.40144
  -0.14641   0.33089   0.46130
  -0.16137   0.22614   0.50619
  -0.13145   0.31592   0.47626
  -0.08656   0.28599   0.47626
  -0.08656   0.24110   0.52115
  -0.05663   0.13636   0.53612
   0.03315   0.16628   0.56605
   0.07805   0.09147   0.59597
   0.12294   0.10643   0.61094
   0.22768   0.16628   0.59597
   0.25761   0.07650   0.64086
   0.28754  -0.02824   0.67079
   0.33243   0.06154   0.67079
   0.34739   0.01665   0.73065
   0.34739   0.03161   0.73065
   0.37732  -0.02824   0.71568
   0.40725  -0.01328   0.74561
   0.34739  -0.02824   0.68576
   0.45214  -0.08810   0.65583
   0.39228   0.00168   0.62590
   0.46710  -0.02824   0.59597
   0.49703  -0.07314   0.56605
   0.55689  -0.05817   0.58101
   0.76638  -0.14795   0.55108
   0.78134  -0.19285   0.56605
   0.81127  -0.17788   0.50619
   0.87112  -0.20781   0.52115
   0.90105  -0.25270   0.53612
   0.99084  -0.19285   0.53612
   1.00580  -0.20781   0.41641
   1.06565  -0.23774   0.41641
   1.14047  -0.19285   0.38648
   1.11055  -0.25270   0.37152
   1.11055  -0.13299   0.11713
   1.03573  -0.23774   0.05728
   1.09558  -0.19285   0.05728
   1.00580  -0.25270  -0.07740
   1.05069  -0.25270  -0.07740
   1.00580  -0.20781  -0.10732
   0.97587  -0.22277  -0.19711
   1.00580  -0.20781  -0.18214
   1.03573  -0.20781  -0.18214
   1.03573  -0.20781  -0.21207
   1.08062  -0.19285  -0.28689
   1.11055  -0.11803  -0.31682
   1.12551  -0.14795  -0.33178
   1.20033  -0.10306  -0.34674
   1.34997  -0.05817  -0.34674
   1.26018  -0.14795  -0.36171
   1.36493  -0.11803  -0.37667
   1.24522  -0.11803  -0.36171
   1.21529  -0.17788  -0.39164
   1.21529  -0.11803  -0.42156
   1.15544  -0.04321  -0.42156
   1.09558  -0.08810  -0.39164
   1.00580  -0.04321  -0.42156
   0.87112  -0.11803  -0.42156
   0.84120   0.00168  -0.46645
   0.79631  -0.02824  -0.55624
   0.78134  -0.08810  -0.55624
   0.73645  -0.01328  -0.66098
   0.51199  -0.11803  -0.63106
   0.46710  -0.05817  -0.78069
   0.36236  -0.07314  -0.72084
   0.43718   0.06154  -0.72084
   0.36236  -0.01328  -0.76573
   0.25761   0.01665  -0.75077
   0.22768   0.06154  -0.84055
   0.27257   0.10643  -0.63106
   0.09301   0.00168  -0.67595
   0.00323   0.00168  -0.58616
  -0.04166   0.10643  -0.70587
  -0.11648   0.15132  -0.61609
  -0.14641   0.15132  -0.54127
  -0.22123   0.18125  -0.45149
  -0.32598   0.30096  -0.42156
  -0.59532   0.28599  -0.42156
  -0.75992   0.33089  -0.46645
  -0.87963   0.36081  -0.39164
  -0.95445   0.28599  -0.39164
  -1.02927   0.36081  -0.39164
  -1.10409   0.37578  -0.39164
  -1.14898   0.33089  -0.42156
  -1.19387   0.31592  -0.42156
  -1.17891   0.36081  -0.39164
  -1.17891   0.40570  -0.40660
  -1.20884   0.40570  -0.42156
  -1.22380   0.37578  -0.40660
  -1.29862   0.39074  -0.40660
  -1.47819   0.40570  -0.40660
  -1.50811   0.37578  -0.40660
  -1.67271   0.36081  -0.39164
  -1.71761   0.37578  -0.39164
  -1.77746   0.36081  -0.40660
  -1.89717   0.36081  -0.39164
  -1.97199   0.31592  -0.39164
  -2.04681   0.37578  -0.39164
  -2.06177   0.36081  -0.37667
  -2.10666   0.40570  -0.34674
  -2.13659   0.40570  -0.37667
  -2.19645   0.36081  -0.37667
  -2.19645   0.37578  -0.39164
  -2.16652   0.40570  -0.37667
  -2.18148   0.40570  -0.39164
  -2.19645   0.37578  -0.39164
  -2.09170   0.31592  -0.43653
  -2.06177   0.37578  -0.40660
  -2.04681   0.34585  -0.42156
  -1.98695   0.33089  -0.42156
  -1.91213   0.40570  -0.43653
  -1.83732   0.40570  -0.42156
  -1.65775   0.30096  -0.42156
  -1.59790   0.34585  -0.39164
  -1.37344   0.30096  -0.39164
  -1.37344   0.27103  -0.42156
  -1.19387   0.25607  -0.42156
  -1.26869   0.01665  -0.37667
  -1.17891   0.13636  -0.36171
  -1.10409   0.03161  -0.34674
  -1.08913   0.00168  -0.30185
  -1.11906   0.01665  -0.30185
  -1.04424  -0.02824  -0.27193
  -1.01431  -0.11803  -0.28689
  -0.93949  -0.08810  -0.24200
  -0.90956  -0.10306  -0.19711
  -0.83474  -0.20781  -0.19711
  -0.83474  -0.23774  -0.15222
  -0.77489  -0.22277  -0.06243
  -0.71503  -0.19285   0.01239
  -0.61029  -0.26766  -0.09236
  -0.56540  -0.25270  -0.00258
  -0.43072  -0.34248   0.02735
  -0.38583  -0.28263   0.10217
  -0.29605  -0.31256   0.23684
  -0.20627  -0.29759   0.26677
  -0.17634  -0.23774   0.23684
  -0.13145  -0.25270   0.41641
  -0.13145  -0.23774   0.37152
  -0.08656  -0.20781   0.40144
  -0.02670  -0.25270   0.41641
   0.03315  -0.29759   0.49123
   0.15286  -0.34248   0.53612
   0.19776  -0.32752   0.49123
   0.28754  -0.28263   0.50619
   0.40725  -0.35745   0.53612
   0.63170  -0.31256   0.53612
   0.73645  -0.31256   0.46130
   0.81127  -0.32752   0.46130
   0.84120  -0.32752   0.41641
   0.90105  -0.38737   0.40144
   1.02076  -0.38737   0.32663
   1.11055  -0.37241   0.20692
   1.20033  -0.35745   0.17699
   1.34997  -0.37241   0.02735
   1.34997  -0.41730   0.07224
   1.55946  -0.38737  -0.04747
   1.60435  -0.40234  -0.03251
   1.60435  -0.41730  -0.09236
   1.63428  -0.40234  -0.10732
   1.64924  -0.43227  -0.03251
   1.73902  -0.41730  -0.04747
   1.67917  -0.41730  -0.00258
   1.66420  -0.41730  -0.00258
   1.69413  -0.43227   0.11713
   1.58939  -0.38737   0.13210
   1.66420  -0.40234   0.31166
   1.57442  -0.37241   0.28173
   1.48464  -0.34248   0.38648
   1.42478  -0.35745   0.28173
   1.51457  -0.32752   0.31166
   1.43975  -0.26766   0.34159
   1.40982  -0.28263   0.31166
   1.46968  -0.25270   0.22188
   1.46968  -0.26766   0.16202
   1.48464  -0.20781   0.01239
   1.48464  -0.20781  -0.00258
   1.55946  -0.19285  -0.13725
   1.57442  -0.20781  -0.18214
   1.57442  -0.20781  -0.22703
   1.64924  -0.23774  -0.24200
   1.73902  -0.20781  -0.30185
   1.66420  -0.25270  -0.31682
   1.73902  -0.22277  -0.33178
   1.72406  -0.26766  -0.34674
   1.73902  -0.26766  -0.34674
   1.64924  -0.22277  -0.37667
   1.64924  -0.22277  -0.42156
   1.63428  -0.20781  -0.37667
   1.60435  -0.10306  -0.39164
   1.34997  -0.17788  -0.39164
   1.27515  -0.04321  -0.40660
   1.18536  -0.04321  -0.37667
   1.11055  -0.04321  -0.39164
   1.00580  -0.10306  -0.37667
   0.91602  -0.11803  -0.39164
   0.90105  -0.05817  -0.37667
   0.87112  -0.08810  -0.36171
   0.82623  -0.10306  -0.33178
   0.85616  -0.10306  -0.30185
   0.84120  -0.14795  -0.28689
   0.87112  -0.04321  -0.18214
   0.87112  -0.11803  -0.13725
   0.85616  -0.07314  -0.06243
   0.87112  -0.05817  -0.00258
   0.84120  -0.14795   0.04231
   0.85616  -0.07314   0.13210
   0.82623  -0.04321   0.11713
   0.84120  -0.02824   0.26677
   0.81127  -0.02824   0.19195
   0.78134   0.15132   0.19195
   0.73645   0.16628   0.17699
   0.58681   0.25607   0.14706
   0.51199   0.28599   0.13210
   0.42221   0.36081   0.20692
   0.30250   0.33089   0.04231
   0.10797   0.34585   0.07224
   0.07805   0.33089   0.08720
   0.01819   0.34585   0.01239
  -0.05663   0.30096   0.13210
  -0.07159   0.37578   0.04231
  -0.14641   0.34585   0.08720
  -0.16137   0.30096   0.02735
  -0.16137   0.33089   0.10217
  -0.14641   0.37578   0.10217
  -0.28108   0.40570   0.13210
  -0.40079   0.31592   0.26677
  -0.55043   0.31592   0.25181
  -0.73000   0.36081   0.23684
  -0.77489   0.39074   0.20692
  -0.83474   0.39074   0.22188
  -0.96942   0.40570   0.38648
  -1.04424   0.42067   0.37152
  -1.05920   0.43563   0.40144
  -1.07416   0.45060   0.50619
  -1.14898   0.46556   0.47626
  -1.13402   0.46556   0.49123
  -1.19387   0.49549   0.49123
  -1.17891   0.52541   0.56605
  -1.28366   0.54038   0.50619
  -1.32855   0.51045   0.56605
  -1.43329   0.49549   0.53612
  -1.43329   0.51045   0.53612
  -1.55300   0.51045   0.58101
  -1.58293   0.46556   0.59597
  -1.70264   0.46556   0.59597
  -1.74753   0.43563   0.59597
  -1.82235   0.43563   0.59597
  -1.85228   0.40570   0.56605
  -1.94206   0.39074   0.56605
  -1.94206   0.39074   0.59597
