********************************************************************************
               CENTRO DE INSTRUMENTACION Y REGISTRO SISMICO  A.C.  
                       Coordinacion de Servicios Tecnicos
     Anaxagoras 814, Col. Narvarte, Benito Juarez, C.P. 03020 Mexico, D.F.
            Tels. 667 45 42/ 687 45  82             Fax. 669 25 12
********************************************************************************
ARCHIVO ESTANDAR DE ACELERACION:
VERSION DEL FORMATO                    : 2.0
NOMBRE DEL ARCHIVO                     : AU110401.012
FECHA Y HORA DE CREACION               : 27/OCT/04, 12:05
REF. CATALOGO ACELEROGRAMAS, SMIS 1996 : REGISTRO No.     /PAG.


================================================================================
DATOS DE LA ESTACION:
NOMBRE DE LA ESTACION                  : AUTODROMO
CLAVE DE LA ESTACION                   : AU11
LOCALIZACION DE LA ESTACION            : AUTODROMO HERMANOS RODRIGUEZ,
                                       : CHURUBUSCO, CD. DEPORTIVA
                                       :
                                       :
                                       :
COORDENADAS DE LA ESTACION             : 19.392 LAT. N 
                                       : 99.087 LONG. W 
ALTITUD (msnm)                         : 2234
TIPO DE SUELO                          : TERRENO BLANDO, MATERIAL COMPRESIBLE
                                       : (ARCILLAS)
                                       : 
INSTITUCION RESPONSABLE                : CIRES 
                                       :

================================================================================
DATOS DEL ACELEROGRAFO:
MODELO DEL ACELEROGRAFO                : SSA-1
NUMERO DE SERIE DEL ACELEROGRAFO       : 157
NUMERO DE CANALES                      : 3
ORIENTACION C1-C6 (rumbo;orientacion)  : /N00E/+V/N90E
ORIENTACION C7-C12 (rumbo;orientacion) :
VEL. DE MUESTREO, C1-C6 (muestras/s)   : /200/200/200
VEL. DE MUESTREO, C7-C12 (muestras/s)  :
ESC. COMPLETA DE SENSORES, C1-C6, (g)  : /2/2/2
ESC. COMPLETA DE SENSORES, C7-C12, (g) :
FREC. NAT. DE SENSORES, C1-C6, (Hz)    : /51.77/52.56/52.29
FREC. NAT. DE SENSORES, C7-C12, (Hz)   :
AMORTIGUAMIENTO DE SENSORES, C1-C6     : /.5912/.6083/.6067
AMORTIGUAMIENTO DE SENSORES, C7-C12    :
INTERVALO DE MUESTREO, C1-C6, (s)      : /0.005/0.005/0.005
INTERVALO DE MUESTREO, C7-C12, (s)     :
UMBRAL DE DISPARO, C1-C6, (Gal)        : /2/2/2
UMBRAL DE DISPARO, C7-C12, (Gal)       :
MEMORIA DE PREEVENTO (s)               : 15
TIEMPO DE POSEVENTO (s)                : 60


================================================================================
DATOS DEL SISMO:
FECHA DEL SISMO (GMT)                  : 01/ENE/04
HORA EPICENTRO (GMT)                   : 23:57:56,0
MAGNITUD(ES)                           : /Mc=5.8
COORDENADAS DEL EPICENTRO              : 16.97 LAT. N
                                       : 98.97 LONG. W
PROFUNDIDAD FOCAL (km)                 : 10
FUENTE DE LOS DATOS EPICENTRALES       : SSN
                                       : INSTITUTO DE GEOFISICA, UNAM 

================================================================================
DATOS DE ESTE REGISTRO:
HORA DE LA PRIMERA MUESTRA (GMT)       : 23:59:39.00
EXACTITUD DEL TIEMPO (s)               :     
DURACION DEL REGISTRO (s), C1-C6       : /135.68/135.68/135.68
DURACION DEL REGISTRO (s), C7-C12      :
NUM. TOTAL DE MUESTRAS, C1-C6          : /27136/27136/27136
NUM. TOTAL DE MUESTRAS, C7-C12         :
ACEL. MAX. (Gal), C1-C6                : /-2.08359/-0.70221/-1.72004
ACEL. MAX., C1-C6, EN LA MUESTRA       :
ACEL. MAX. (Gal), C7-C12               :
ACEL. MAX., C7-C12, EN LA MUESTRA      :
UNIDADES DE LOS DATOS                  : Gal (cm/s/s)
FACTOR DE DECIMACION                   : 1
FORMATO DATOS (FORTRAN,10 campos/dato) : 3F10.5


================================================================================
CALIDAD DEL ACELEROGRAMA:
REGISTRO DIGITAL COMPLETO, CARECE DE TIEMPO ABSOLUTO.


================================================================================
COMENTARIOS:














================================================================================
DATOS DE ACELERACION:
---------+---------+---------+---------+---------+---------+---------+---------+
   CANAL-1   CANAL-2   CANAL-3   CANAL-4   CANAL-5   CANAL-6   CANAL-7   CANAL-8
      N00E        +V      N90E
---------+---------+---------+---------+---------+---------+---------+---------+
[...]
  -0.64359  -0.22221  -0.28004
  -0.64359  -0.22221  -0.28004
  -0.64359  -0.22221  -0.28004
  -0.64359  -0.22221  -0.28004
  -0.64359  -0.22221  -0.28004
  -0.64359  -0.22221  -0.28004
  -0.88359  -0.22221  -0.28004
  -0.64359  -0.22221  -0.04004
  -0.88359  -0.22221  -0.04004
  -0.88359  -0.22221  -0.28004
  -0.88359  -0.22221  -0.04004
  -0.88359  -0.22221  -0.04004
  -0.88359   0.01779  -0.04004
  -1.12359  -0.22221  -0.04004
  -0.88359  -0.22221  -0.04004
  -0.88359   0.01779  -0.04004
  -1.12359   0.01779  -0.04004
  -1.12359   0.01779  -0.04004
  -1.12359   0.01779  -0.04004
  -1.12359   0.01779  -0.04004
  -1.12359   0.01779   0.19996
  -1.12359   0.01779   0.19996
  -1.12359   0.01779  -0.04004
  -1.12359   0.01779   0.19996
  -1.12359   0.01779   0.19996
  -1.12359   0.01779   0.19996
  -1.12359   0.01779   0.19996
  -1.12359   0.01779   0.19996
  -1.12359   0.01779   0.19996
  -1.12359   0.01779   0.43996
  -1.12359   0.01779   0.43996
  -1.12359   0.01779   0.43996
  -1.12359   0.01779   0.43996
  -1.12359   0.01779   0.43996
  -1.12359   0.01779   0.43996
  -1.12359   0.01779   0.43996
  -1.12359   0.25779   0.67996
  -1.12359   0.01779   0.67996
  -1.12359   0.01779   0.67996
  -1.12359   0.01779   0.67996
  -1.12359   0.25779   0.67996
  -1.12359   0.01779   0.67996
  -1.12359   0.01779   0.67996
  -1.12359   0.01779   0.91996
  -1.12359   0.01779   0.67996
  -0.88359   0.25779   0.67996
  -0.88359   0.01779   0.91996
  -0.88359   0.01779   0.91996
  -0.88359   0.01779   0.91996
  -0.88359   0.01779   0.91996
  -0.88359   0.01779   0.91996
  -0.88359   0.01779   0.91996
  -0.64359   0.01779   0.91996
  -0.64359   0.25779   0.91996
  -0.64359   0.01779   1.15996
  -0.64359   0.01779   0.91996
  -0.64359   0.25779   1.15996
  -0.64359   0.25779   1.15996
  -0.64359  -0.22221   1.15996
  -0.64359   0.25779   1.15996
  -0.40359   0.01779   1.15996
  -0.40359   0.25779   1.15996
  -0.40359   0.25779   1.15996
  -0.40359   0.25779   1.15996
  -0.40359   0.25779   1.15996
  -0.40359   0.25779   1.15996
  -0.16359   0.25779   1.15996
  -0.16359   0.25779   1.15996
  -0.16359   0.25779   1.15996
  -0.16359   0.25779   1.15996
  -0.16359   0.01779   1.15996
  -0.16359   0.25779   1.15996
  -0.16359   0.25779   1.15996
  -0.16359   0.25779   1.15996
   0.07641   0.25779   1.15996
  -0.16359   0.25779   1.15996
  -0.16359   0.25779   1.15996
   0.07641   0.25779   1.15996
   0.07641   0.25779   1.15996
   0.07641   0.25779   1.15996
   0.07641   0.25779   1.15996
   0.07641   0.25779   1.15996
   0.07641   0.25779   1.15996
   0.07641   0.25779   1.15996
   0.07641   0.25779   1.15996
   0.07641   0.25779   1.15996
   0.31641   0.25779   1.15996
   0.31641   0.25779   1.15996
   0.07641   0.25779   1.15996
   0.07641   0.25779   1.15996
   0.31641   0.25779   1.15996
   0.31641   0.25779   1.15996
   0.31641   0.25779   1.15996
   0.31641   0.01779   1.15996
   0.07641   0.25779   1.15996
   0.31641   0.25779   1.15996
   0.31641   0.25779   0.91996
   0.31641   0.25779   1.15996
   0.31641   0.25779   0.91996
   0.31641   0.25779   0.91996
   0.31641   0.25779   0.91996
   0.31641   0.25779   0.91996
   0.31641   0.25779   0.91996
   0.31641   0.25779   0.91996
   0.31641   0.25779   0.91996
   0.31641   0.25779   0.91996
   0.31641   0.25779   0.67996
   0.31641   0.01779   0.67996
   0.31641   0.01779   0.67996
   0.31641   0.01779   0.67996
   0.31641   0.01779   0.67996
   0.31641   0.01779   0.67996
   0.31641   0.01779   0.67996
   0.31641   0.01779   0.67996
   0.31641   0.01779   0.43996
   0.31641  -0.22221   0.43996
   0.31641   0.01779   0.43996
   0.31641   0.01779   0.43996
   0.07641   0.01779   0.43996
   0.07641   0.01779   0.43996
   0.07641   0.01779   0.43996
   0.07641   0.01779   0.19996
   0.31641   0.01779   0.19996
   0.07641   0.01779   0.19996
   0.07641   0.01779   0.19996
   0.07641   0.01779   0.19996
   0.07641   0.01779   0.19996
   0.07641   0.01779  -0.04004
   0.07641   0.01779  -0.04004
   0.07641   0.01779  -0.04004
   0.07641   0.01779  -0.04004
   0.07641   0.01779  -0.28004
   0.07641   0.01779  -0.28004
   0.07641   0.01779  -0.28004
   0.07641   0.01779  -0.28004
   0.07641   0.01779  -0.28004
   0.07641   0.01779  -0.28004
   0.07641  -0.22221  -0.28004
   0.07641  -0.22221  -0.52004
   0.07641   0.01779  -0.52004
   0.07641   0.01779  -0.52004
   0.07641   0.01779  -0.52004
   0.07641  -0.22221  -0.52004
   0.07641   0.01779  -0.76004
   0.07641   0.01779  -0.76004
   0.07641  -0.22221  -0.76004
   0.07641  -0.22221  -0.76004
   0.07641   0.01779  -0.76004
   0.07641  -0.22221  -0.76004
  -0.16359  -0.22221  -0.76004
   0.07641  -0.22221  -0.76004
  -0.16359  -0.22221  -1.00004
  -0.16359  -0.22221  -1.00004
  -0.16359  -0.22221  -0.76004
  -0.16359  -0.22221  -1.00004
   0.07641  -0.22221  -1.00004
  -0.16359  -0.22221  -1.00004
  -0.16359  -0.22221  -1.00004
  -0.16359  -0.22221  -1.00004
  -0.16359  -0.22221  -1.00004
  -0.16359  -0.22221  -1.00004
  -0.16359  -0.22221  -1.00004
  -0.16359  -0.22221  -1.00004
  -0.16359  -0.22221  -1.00004
  -0.16359  -0.22221  -1.00004
  -0.16359  -0.22221  -1.00004
  -0.16359  -0.22221  -1.00004
  -0.16359  -0.22221  -1.00004
  -0.16359  -0.22221  -1.00004
  -0.16359  -0.22221  -1.00004
  -0.16359  -0.22221  -1.00004
  -0.16359  -0.22221  -1.00004
  -0.16359  -0.22221  -1.00004
  -0.16359  -0.22221  -1.00004
  -0.16359  -0.22221  -1.00004
  -0.16359  -0.22221  -1.00004
  -0.16359  -0.22221  -1.00004
  -0.16359  -0.22221  -1.00004
  -0.16359  -0.22221  -1.00004
  -0.16359  -0.22221  -1.00004
  -0.16359  -0.22221  -1.00004
  -0.16359  -0.22221  -0.76004
  -0.16359  -0.22221  -0.76004
  -0.16359  -0.22221  -0.76004
  -0.40359  -0.22221  -0.76004
  -0.16359  -0.70221  -0.76004
  -0.16359  -0.22221  -0.76004
  -0.16359  -0.22221  -0.76004
  -0.16359  -0.22221  -0.76004
  -0.16359  -0.22221  -0.76004
  -0.16359  -0.22221  -0.76004
  -0.16359  -0.22221  -0.76004
  -0.16359  -0.22221  -0.76004
  -0.16359   0.01779  -0.76004
  -0.16359  -0.22221  -0.76004
  -0.16359  -0.22221  -0.76004
  -0.16359  -0.22221  -0.76004
  -0.16359  -0.22221  -0.76004
  -0.16359   0.01779  -0.76004
  -0.16359  -0.22221  -0.52004
  -0.16359   0.01779  -0.52004
  -0.16359   0.01779  -0.52004
  -0.16359   0.01779  -0.52004
  -0.16359  -0.22221  -0.52004
  -0.16359   0.01779  -0.52004
  -0.16359   0.01779  -0.52004
  -0.16359   0.01779  -0.52004
  -0.16359   0.01779  -0.52004
  -0.16359   0.01779  -0.52004
  -0.16359   0.01779  -0.52004
   0.07641   0.01779  -0.52004
   0.07641   0.01779  -0.52004
   0.07641   0.01779  -0.52004
   0.07641   0.01779  -0.52004
   0.07641   0.01779  -0.52004
   0.07641   0.01779  -0.52004
   0.07641   0.01779  -0.52004
   0.07641   0.01779  -0.52004
   0.07641   0.01779  -0.52004
   0.31641   0.01779  -0.52004
   0.07641   0.01779  -0.28004
   0.31641   0.01779  -0.52004
   0.31641   0.01779  -0.52004
   0.31641   0.01779  -0.28004
   0.31641   0.01779  -0.28004
   0.31641   0.01779  -0.28004
   0.31641   0.01779  -0.28004
   0.31641   0.01779  -0.28004
   0.31641   0.01779  -0.28004
   0.31641   0.01779  -0.28004
   0.54641   0.01779  -0.28004
   0.54641   0.01779  -0.28004
   0.54641   0.01779  -0.28004
   0.54641   0.01779  -0.28004
   0.54641   0.01779  -0.28004
   0.54641   0.01779  -0.28004
   0.54641   0.01779  -0.28004
   0.54641   0.01779  -0.04004
   0.78641   0.01779  -0.04004
   0.78641   0.01779  -0.04004
   0.78641  -0.22221  -0.04004
   0.78641   0.01779  -0.04004
   0.78641   0.01779  -0.04004
   0.78641   0.01779  -0.04004
   0.78641   0.01779  -0.04004
   1.02641   0.01779  -0.04004
   1.02641   0.01779  -0.04004
   1.02641   0.01779  -0.04004
   1.02641   0.01779  -0.04004
   1.02641   0.01779  -0.04004
   1.02641   0.01779   0.19996
   1.26641   0.01779   0.19996
   1.26641   0.01779   0.19996
   1.26641   0.01779   0.19996
   1.26641   0.01779   0.19996
   1.26641   0.01779   0.19996
   1.26641   0.01779   0.19996
   1.26641   0.01779   0.19996
   1.26641   0.01779   0.19996
   1.26641   0.01779   0.19996
   1.26641   0.01779   0.19996
   1.26641   0.01779   0.19996
   1.26641   0.01779   0.19996
   1.26641   0.01779   0.19996
   1.26641   0.01779   0.43996
   1.26641   0.01779   0.43996
   1.26641   0.01779   0.43996
   1.26641   0.01779   0.43996
   1.02641   0.01779   0.43996
   1.02641   0.01779   0.43996
   1.02641   0.01779   0.43996
   1.02641   0.01779   0.43996
   1.26641   0.01779   0.43996
   1.02641  -0.22221   0.67996
   1.02641   0.01779   0.67996
   1.02641   0.01779   0.67996
   0.78641   0.01779   0.67996
   0.78641   0.01779   0.67996
   0.78641   0.01779   0.67996
   0.78641   0.01779   0.67996
   0.78641   0.01779   0.91996
   0.78641   0.01779   0.91996
   0.78641   0.01779   0.91996
   0.54641   0.01779   0.91996
   0.54641   0.01779   0.91996
   0.54641   0.01779   0.91996
   0.31641   0.01779   0.91996
   0.31641   0.01779   0.91996
   0.31641   0.01779   0.91996
   0.31641   0.01779   0.91996
   0.31641   0.01779   0.91996
   0.07641   0.01779   0.91996
   0.07641   0.01779   0.91996
   0.07641   0.01779   1.15996
   0.07641   0.01779   0.91996
  -0.16359   0.01779   0.91996
  -0.16359   0.01779   1.15996
  -0.16359   0.01779   1.15996
  -0.16359   0.01779   1.15996
  -0.16359   0.01779   1.15996
  -0.40359   0.01779   1.15996
  -0.40359   0.01779   1.15996
  -0.40359   0.01779   1.15996
  -0.40359   0.25779   1.15996
  -0.64359   0.01779   1.15996
  -0.64359   0.25779   1.15996
  -0.64359   0.01779   1.15996
  -0.64359   0.25779   1.15996
  -0.64359   0.01779   1.15996
  -0.88359   0.01779   1.15996
  -0.88359   0.25779   1.15996
  -0.88359   0.25779   1.15996
  -0.88359   0.25779   1.15996
  -0.88359   0.01779   1.15996
  -0.88359   0.25779   1.15996
  -0.88359   0.01779   1.15996
  -1.12359   0.25779   0.91996
  -1.12359   0.01779   0.91996
  -1.12359   0.01779   0.91996
  -1.12359   0.25779   0.91996
  -1.12359   0.25779   0.91996
  -1.12359   0.01779   0.91996
  -1.12359   0.01779   0.91996
  -1.36359   0.01779   0.91996
  -1.36359   0.25779   0.91996
  -1.36359   0.01779   0.91996
  -1.36359   0.01779   0.91996
  -1.36359   0.01779   0.67996
  -1.36359   0.25779   0.67996
  -1.36359   0.01779   0.91996
  -1.60359   0.01779   0.67996
  -1.60359   0.01779   0.67996
  -1.60359   0.25779   0.67996
  -1.60359   0.01779   0.67996
  -1.60359   0.25779   0.67996
  -1.60359   0.25779   0.67996
  -1.60359   0.25779   0.67996
  -1.60359   0.25779   0.67996
  -1.60359   0.25779   0.67996
  -1.60359   0.25779   0.67996
  -1.84359   0.25779   0.67996
  -1.84359   0.25779   0.67996
  -1.84359   0.25779   0.67996
  -1.84359   0.25779   0.67996
  -1.84359   0.25779   0.67996
  -1.84359   0.25779   0.67996
  -1.84359   0.25779   0.67996
  -1.84359   0.25779   0.67996
  -1.84359   0.25779   0.67996
  -2.08359   0.25779   0.67996
  -2.08359   0.25779   0.67996
  -2.08359   0.01779   0.67996
  -2.08359   0.25779   0.67996
  -2.08359   0.25779   0.67996
  -2.08359   0.25779   0.91996
  -2.08359   0.25779   0.91996
  -2.08359   0.25779   0.91996
  -2.08359   0.25779   0.67996
  -2.08359   0.25779   0.67996
  -2.08359   0.25779   0.91996
  -2.08359   0.25779   0.91996
  -2.08359   0.25779   0.91996
  -2.08359   0.25779   0.67996
  -2.08359   0.01779   0.67996
  -2.08359   0.25779   0.67996
  -2.08359   0.25779   0.67996
  -1.84359   0.01779   0.67996
  -2.08359   0.01779   0.67996
  -1.84359   0.01779   0.67996
  -1.84359   0.01779   0.19996
  -1.84359   0.01779   0.67996
  -1.84359   0.25779   0.67996
  -1.84359   0.01779   0.67996
  -1.84359   0.01779   0.67996
  -1.84359   0.01779   0.67996
  -1.60359   0.01779   0.67996
  -1.60359   0.01779   0.67996
  -1.60359   0.01779   0.67996
  -2.08359   0.25779   0.67996
  -1.60359   0.01779   0.67996
  -1.60359   0.01779   0.67996
  -1.60359   0.25779   0.67996
  -1.60359   0.01779   0.43996
  -1.60359   0.01779   0.43996
  -1.36359   0.25779   0.43996
  -1.36359   0.25779   0.43996
  -1.36359   0.25779   0.43996
  -1.36359   0.25779   0.43996
  -1.36359   0.25779   0.43996
  -1.36359   0.25779   0.43996
  -1.12359   0.25779   0.43996
  -1.12359   0.01779   0.43996
  -1.12359   0.25779   0.43996
  -1.12359   0.25779   0.43996
  -1.12359   0.25779   0.19996
  -1.12359   0.01779   0.19996
  -0.88359   0.25779   0.43996
  -0.88359   0.25779   0.19996
  -0.88359   0.25779   0.19996
  -0.88359   0.25779   0.19996
  -0.88359   0.25779   0.19996
  -0.64359   0.25779  -0.04004
  -0.64359   0.25779  -0.04004
  -0.64359   0.25779  -0.04004
  -0.64359   0.25779  -0.04004
  -0.64359   0.25779  -0.04004
  -0.64359   0.25779  -0.04004
  -0.40359   0.25779  -0.28004
  -0.40359   0.25779  -0.28004
  -0.64359   0.25779  -0.28004
  -0.40359   0.25779  -0.28004
  -0.40359   0.25779  -0.28004
  -0.16359   0.25779  -0.28004
  -0.16359   0.25779  -0.52004
  -0.16359   0.25779  -0.52004
  -0.16359   0.25779  -0.52004
   0.07641   0.25779  -0.52004
   0.07641   0.25779  -0.76004
   0.07641   0.25779  -0.76004
   0.07641   0.25779  -0.76004
   0.31641   0.25779  -0.76004
   0.31641   0.01779  -0.76004
   0.31641   0.01779  -0.76004
   0.31641   0.01779  -0.76004
   0.31641   0.01779  -1.00004
   0.31641   0.01779  -1.00004
   0.54641   0.01779  -1.00004
   0.31641   0.01779  -1.00004
   0.54641   0.25779  -1.00004
   0.54641   0.01779  -1.00004
   0.54641   0.01779  -1.00004
   0.54641   0.01779  -1.00004
   0.54641   0.01779  -1.00004
   0.78641   0.01779  -1.24004
   0.78641   0.01779  -1.00004
   0.78641   0.01779  -1.24004
   0.78641   0.01779  -1.24004
   0.78641  -0.22221  -1.00004
   0.78641   0.01779  -1.24004
   0.78641   0.01779  -1.24004
   0.78641   0.01779  -1.24004
   0.78641  -0.22221  -1.72004
   1.02641   0.01779  -1.24004
   1.02641  -0.22221  -1.24004
   1.02641  -0.22221  -1.24004
   1.02641  -0.22221  -1.24004
   1.02641  -0.22221  -1.24004
   1.02641  -0.22221  -1.00004
   1.02641  -0.22221  -1.24004
   1.02641  -0.22221  -1.24004
   1.02641  -0.22221  -1.00004
   1.02641  -0.70221  -1.00004
   1.26641  -0.22221  -1.00004
   1.02641  -0.22221  -1.00004
   1.02641  -0.22221  -1.00004
   1.02641  -0.22221  -1.00004
   1.02641  -0.22221  -1.00004
   1.02641  -0.22221  -1.00004
   1.02641  -0.22221  -1.00004
   1.02641  -0.22221  -1.00004
   1.02641  -0.22221  -1.00004
   1.02641  -0.22221  -1.00004
   1.02641  -0.22221  -1.00004
   1.02641  -0.22221  -1.00004
   1.02641  -0.22221  -0.76004
   1.02641  -0.22221  -1.00004
   1.02641  -0.22221  -0.76004
   1.02641  -0.22221  -1.00004
   1.02641  -0.22221  -0.76004
   1.02641  -0.22221  -0.76004
   1.02641  -0.22221  -0.76004
   1.02641  -0.22221  -0.76004
   1.02641  -0.22221  -0.76004
   1.02641  -0.22221  -0.76004
   1.02641  -0.22221  -0.76004
   1.02641  -0.22221  -0.76004
   1.02641  -0.22221  -0.76004
   0.78641  -0.22221  -0.76004
   1.02641  -0.22221  -0.76004
   0.78641  -0.22221  -0.76004
   1.02641  -0.22221  -0.76004
   0.78641  -0.22221  -0.76004
   0.78641  -0.22221  -0.76004
   0.78641  -0.22221  -0.76004
   0.78641  -0.22221  -0.76004
   0.78641  -0.22221  -0.76004
   0.78641  -0.22221  -0.76004
   0.78641  -0.22221  -0.76004
   0.78641  -0.22221  -0.76004
   0.78641  -0.22221  -0.76004
   0.78641  -0.22221  -0.76004
   0.78641  -0.22221  -0.76004
   0.78641  -0.22221  -0.76004
   0.78641  -0.22221  -0.76004
   0.78641  -0.22221  -0.76004
   0.78641  -0.22221  -0.76004
   0.78641  -0.22221  -0.76004
   0.78641  -0.22221  -0.76004
   0.78641  -0.22221  -0.76004
   0.78641  -0.22221  -0.76004
