********************************************************************************
              CENTRO DE INSTRUMENTACION Y REGISTRO SISMICO  A.C.

    Anaxagoras 814, Col. Narvarte, Benito Juarez, C.P. 03020 Mexico, D.F.
           Tels. 5687 45 42/ 5687 45  82             Fax. 5669 25 12
********************************************************************************
ARCHIVO ESTANDAR DE ACELERACION:
VERSION DEL FORMATO                    : 2.0
NOMBRE DEL ARCHIVO                     : AU1120090815132245
FECHA Y HORA DE CREACION               : 08/OCT/09, 00:53
REF. CATALOGO ACELEROGRAMAS, SMIS 1996 : REGISTRO No.     /PAG.


================================================================================
DATOS DE LA ESTACION:
NOMBRE DE LA ESTACION                  : AUTÓDROMO
CLAVE DE LA ESTACION                   : AU11
LOCALIZACION DE LA ESTACION            : Del. Iztacalco, Cd. Deportiva          
                                       : Magdalena Mixhuca,                     
                                       : Col. Granjas México                    
                                       :                                        
                                       : 
COORDENADAS DE LA ESTACION             : 19.3919 LAT. N
                                       : 99.0869 LONG. W
ALTITUD (msnm)                         : 2234
TIPO DE SUELO                          : Terreno blando, material compresible
                                       : (arcillas)                
                                       : 
INSTITUCION RESPONSABLE                : CIRES
                                       : 

================================================================================
DATOS DEL ACELEROGRAFO:
MODELO DEL ACELEROGRAFO                : RADESD
NUMERO DE SERIE DEL ACELEROGRAFO       : 157
NUMERO DE CANALES                      : 3
ORIENTACION C1-C6 (rumbo;orientacion)  : /N00E/+V/N90W
ORIENTACION C7-C12 (rumbo;orientacion) : 
VEL. DE MUESTREO, C1-C6 (muestras/s)   : /100/100/100
VEL. DE MUESTREO, C7-C12 (muestras/s)  : 
ESC. COMPLETA DE SENSORES, C1-C6, (g)  : /0.5/0.5/0.5
ESC. COMPLETA DE SENSORES, C7-C12, (g) : 
FREC. NAT. DE SENSORES, C1-C6, (Hz)    : /51.77/52.56/52.29
FREC. NAT. DE SENSORES, C7-C12, (Hz)   : 
AMORTIGUAMIENTO DE SENSORES, C1-C6     : /0.5912/0.6083/0.6067
AMORTIGUAMIENTO DE SENSORES, C7-C12    : 
INTERVALO DE MUESTREO, C1-C6, (s)      : /0.01/0.01/0.01
INTERVALO DE MUESTREO, C7-C12, (s)     : 
UMBRAL DE DISPARO, C1-C6, (Gal)        : /0.72/1.92/0.72
UMBRAL DE DISPARO, C7-C12, (Gal)       : 
MEMORIA DE PREEVENTO (s)               : 56.0
TIEMPO DE POSEVENTO (s)                : 64.0


================================================================================
DATOS DEL SISMO:
FECHA DEL SISMO (GMT)                  : 15/AGO/09
HORA EPICENTRO (GMT)                   : 13:22:45.0
MAGNITUD(ES)                           : /Mc=5.4
COORDENADAS DEL EPICENTRO              : 18.06 LAT. N
                                       : 100.67 LONG. W
PROFUNDIDAD FOCAL (km)                 : 55
FUENTE DE LOS DATOS EPICENTRALES       : SSN
                                       : INSTITUTO DE GEOFISICA, UNAM

================================================================================
DATOS DE ESTE REGISTRO:
HORA DE LA PRIMERA MUESTRA (GMT)       : 13:23:59.00
EXACTITUD DEL TIEMPO (s)               : 0.01
DURACION DEL REGISTRO (s), C1-C6       : /193.0/193.0/193.0
DURACION DEL REGISTRO (s), C7-C12      : 
NUM. TOTAL DE MUESTRAS, C1-C6          : /19300/19300/19300
NUM. TOTAL DE MUESTRAS, C7-C12         : 
ACEL. MAX. (Gal), C1-C6                : /1.84465/0.83395/1.29784
ACEL. MAX., C1-C6, EN LA MUESTRA       : /8884/6095/6585
ACEL. MAX. (Gal), C7-C12               : 
ACEL. MAX., C7-C12, EN LA MUESTRA      : 
UNIDADES DE LOS DATOS                  : Gal (cm/s/s)
FACTOR DE DECIMACION                   : 1
FORMATO DATOS (FORTRAN,10 campos/dato) : 3F10.5


================================================================================
CALIDAD DEL ACELEROGRAMA:
REGISTRO DIGITAL COMPLETO CON TIEMPO ABSOLUTO CORRECTO.


================================================================================
COMENTARIOS:














================================================================================
DATOS DE ACELERACION:
---------+---------+---------+---------+---------+---------+---------+---------+
   CANAL-1   CANAL-2   CANAL-3   CANAL-4   CANAL-5   CANAL-6   CANAL-7   CANAL-8
      N00E        +V      N90W
---------+---------+---------+---------+---------+---------+---------+---------+
[...]
   0.78897   0.11569  -0.37810
   1.26781   0.11569  -0.13868
   0.78897   0.11569  -0.13868
   0.78897   0.11569  -0.37810
   0.78897   0.11569  -0.37810
   0.78897   0.11569  -0.37810
   0.78897   0.11569  -0.13868
   0.54955  -0.12373  -0.37810
   0.54955  -0.12373  -0.37810
   0.78897  -0.12373  -0.13868
   0.54955   0.11569  -0.37810
   0.54955   0.11569  -0.13868
   0.54955  -0.12373  -0.37810
   0.54955   0.11569  -0.13868
   0.31013   0.11569  -0.13868
   0.31013  -0.12373  -0.13868
   0.31013  -0.12373  -0.13868
   0.31013  -0.12373  -0.13868
   0.31013  -0.12373  -0.13868
   0.31013  -0.12373  -0.13868
   0.07071  -0.12373  -0.13868
   0.31013  -0.36315  -0.13868
   0.07071  -0.12373  -0.13868
   0.07071  -0.12373  -0.13868
   0.07071  -0.12373  -0.13868
   0.07071  -0.36315  -0.13868
   0.07071  -0.36315   0.10074
  -0.16871  -0.36315   0.10074
   0.07071  -0.60257   0.10074
   0.07071  -0.36315   0.10074
  -0.16871  -0.12373   0.10074
  -0.16871  -0.12373   0.34016
  -0.16871  -0.12373   0.10074
   0.07071  -0.12373   0.34016
  -0.16871  -0.12373   0.34016
   0.07071  -0.12373   0.34016
  -0.16871  -0.36315   0.34016
   0.07071  -0.36315   0.34016
  -0.16871  -0.36315   0.34016
  -0.16871  -0.36315   0.34016
  -0.16871  -0.36315   0.34016
  -0.16871  -0.12373   0.34016
  -0.16871  -0.12373   0.34016
  -0.16871  -0.12373   0.34016
  -0.16871  -0.12373   0.34016
  -0.40813  -0.12373   0.34016
  -0.16871  -0.12373   0.34016
  -0.16871  -0.12373   0.34016
  -0.16871  -0.12373   0.10074
  -0.16871  -0.12373   0.34016
  -0.16871   0.11569   0.34016
  -0.40813  -0.12373   0.34016
  -0.16871   0.11569   0.10074
  -0.40813   0.11569   0.34016
  -0.40813  -0.12373   0.10074
  -0.40813   0.11569   0.10074
  -0.40813  -0.12373   0.10074
  -0.64755   0.11569   0.10074
  -0.40813  -0.12373   0.10074
  -0.40813  -0.12373   0.10074
  -0.40813  -0.12373  -0.13868
  -0.40813  -0.12373   0.10074
  -0.64755  -0.12373  -0.13868
  -0.64755  -0.12373   0.10074
  -0.64755  -0.12373  -0.13868
  -0.64755  -0.12373  -0.13868
  -0.64755  -0.12373  -0.13868
  -0.64755  -0.12373  -0.13868
  -0.88697  -0.12373  -0.13868
  -0.64755  -0.12373  -0.13868
  -0.88697  -0.12373  -0.13868
  -0.88697  -0.12373  -0.13868
  -0.88697  -0.12373  -0.13868
  -0.88697  -0.12373  -0.13868
  -0.88697  -0.12373  -0.13868
  -1.12639  -0.12373  -0.13868
  -1.12639  -0.12373  -0.13868
  -1.12639  -0.12373   0.10074
  -1.12639  -0.12373  -0.13868
  -1.12639  -0.12373  -0.13868
  -1.12639  -0.12373  -0.13868
  -1.12639   0.11569  -0.13868
  -1.12639   0.11569  -0.13868
  -1.12639   0.11569  -0.13868
  -1.12639   0.11569  -0.13868
  -1.12639   0.11569  -0.13868
  -0.88697   0.11569   0.10074
  -0.88697   0.11569  -0.13868
  -0.88697   0.11569   0.10074
  -0.88697   0.11569   0.10074
  -0.88697   0.11569   0.10074
  -0.88697  -0.36315   0.10074
  -0.88697   0.11569   0.10074
  -0.64755   0.11569   0.10074
  -0.64755   0.11569   0.10074
  -0.64755   0.11569   0.10074
  -0.88697   0.11569   0.10074
  -0.64755  -0.12373   0.10074
  -0.64755   0.11569   0.10074
  -0.40813   0.11569   0.10074
  -0.40813   0.11569   0.10074
  -0.40813   0.11569   0.10074
  -0.40813   0.11569   0.10074
  -0.16871   0.11569   0.10074
  -0.40813   0.35511   0.10074
  -0.16871   0.35511  -0.13868
  -0.16871   0.35511  -0.13868
  -0.16871   0.11569   0.10074
  -0.16871   0.35511   0.10074
   0.07071   0.11569  -0.13868
   0.07071   0.11569  -0.13868
   0.07071   0.35511   0.10074
   0.07071   0.11569   0.10074
   0.07071   0.11569   0.10074
   0.31013   0.11569   0.10074
   0.31013   0.35511   0.10074
   0.31013   0.11569   0.10074
   0.54955   0.11569   0.10074
   0.31013   0.11569   0.10074
   0.31013   0.35511   0.10074
   0.54955   0.35511   0.10074
   0.54955   0.11569  -0.13868
   0.54955   0.35511  -0.13868
   0.78897   0.35511   0.34016
   0.78897   0.11569  -0.13868
   0.31013   0.11569  -0.13868
   0.78897   0.11569  -0.13868
   0.78897   0.11569  -0.13868
   0.78897   0.11569  -0.13868
   0.78897   0.11569  -0.37810
   1.02839   0.11569  -0.13868
   1.02839   0.11569  -0.37810
   1.02839   0.11569  -0.13868
   1.02839  -0.12373  -0.37810
   1.02839   0.11569  -0.13868
   1.02839  -0.12373  -0.13868
   1.02839  -0.12373  -0.13868
   1.02839  -0.12373  -0.37810
   1.02839  -0.12373  -0.13868
   1.02839  -0.12373  -0.37810
   1.02839  -0.12373  -0.13868
   1.02839  -0.12373  -0.37810
   0.78897  -0.36315  -0.37810
   1.02839   0.11569  -0.13868
   1.02839   0.11569  -0.37810
   0.78897  -0.12373  -0.37810
   0.78897  -0.12373  -0.37810
   0.78897  -0.12373  -0.37810
   0.78897  -0.12373  -0.37810
   0.78897  -0.12373  -0.37810
   1.02839  -0.12373  -0.37810
   1.02839  -0.12373  -0.37810
   1.02839  -0.12373  -0.37810
   1.02839  -0.12373  -0.37810
   0.78897  -0.12373  -0.37810
   0.78897  -0.12373  -0.37810
   0.78897  -0.12373  -0.37810
   0.78897  -0.12373  -0.37810
   1.02839  -0.12373  -0.37810
   1.02839  -0.12373  -0.13868
   0.78897  -0.12373  -0.37810
   0.78897  -0.12373  -0.37810
   0.78897  -0.12373  -0.37810
   0.78897  -0.12373  -0.61752
   0.78897  -0.36315  -0.37810
   0.78897  -0.12373  -0.37810
   0.78897  -0.12373  -0.37810
   0.78897  -0.12373  -0.37810
   0.54955  -0.12373  -0.37810
   0.54955  -0.12373  -0.37810
   0.54955  -0.12373  -0.13868
   0.54955  -0.12373  -0.13868
   0.31013  -0.36315  -0.37810
   0.54955  -0.12373  -0.37810
   0.31013  -0.12373  -0.13868
   0.31013   0.35511  -0.13868
   0.07071  -0.12373   0.10074
   0.07071  -0.12373  -0.13868
  -0.16871  -0.12373   0.10074
  -0.16871  -0.12373   0.10074
  -0.16871  -0.12373   0.10074
  -0.16871  -0.12373   0.10074
  -0.16871  -0.12373   0.10074
  -0.40813  -0.12373   0.10074
  -0.40813  -0.12373   0.10074
  -0.40813  -0.12373   0.10074
  -0.64755  -0.12373   0.10074
  -0.64755   0.11569   0.10074
  -0.88697   0.11569   0.10074
  -0.64755   0.11569   0.10074
  -0.88697   0.11569   0.10074
  -0.88697  -0.12373   0.10074
  -0.88697  -0.12373  -0.37810
  -0.88697   0.11569   0.10074
  -0.88697   0.11569   0.10074
  -0.88697   0.11569   0.10074
  -0.88697   0.11569   0.10074
  -0.88697  -0.12373   0.10074
  -0.88697   0.11569   0.10074
  -0.88697   0.11569   0.10074
  -0.88697   0.11569   0.10074
  -0.88697   0.11569   0.10074
  -0.88697   0.11569   0.10074
  -0.64755   0.11569   0.10074
  -0.88697   0.11569   0.10074
  -0.64755   0.11569   0.10074
  -0.64755   0.11569   0.10074
  -0.88697  -0.12373   0.10074
  -0.64755   0.11569   0.10074
  -0.88697   0.11569   0.10074
  -0.64755   0.11569   0.10074
  -0.64755  -0.12373   0.10074
  -0.64755  -0.12373   0.10074
  -0.64755  -0.12373   0.10074
  -0.40813   0.11569   0.10074
  -0.64755   0.11569   0.10074
  -0.64755  -0.12373   0.10074
  -0.64755  -0.12373   0.10074
  -0.40813  -0.12373   0.10074
  -0.64755  -0.12373   0.34016
  -0.64755  -0.12373   0.10074
  -0.40813  -0.12373   0.34016
  -0.64755  -0.36315   0.34016
  -0.40813   0.11569   0.34016
  -0.40813   0.11569   0.34016
  -0.40813   0.11569   0.34016
  -0.40813   0.11569   0.10074
  -0.40813   0.11569   0.34016
  -0.40813  -0.12373   0.34016
  -0.40813  -0.12373   0.34016
  -0.40813   0.11569   0.34016
  -0.16871   0.11569   0.34016
  -0.16871   0.11569   0.34016
  -0.16871   0.11569   0.34016
  -0.16871   0.11569   0.34016
  -0.16871   0.11569   0.34016
   0.07071   0.11569   0.34016
  -0.16871  -0.12373   0.34016
   0.07071   0.11569   0.34016
   0.07071   0.11569   0.10074
   0.07071  -0.12373   0.10074
   0.07071   0.11569   0.10074
   0.07071   0.11569   0.10074
   0.31013   0.11569   0.10074
   0.07071   0.11569   0.10074
   0.31013   0.11569   0.10074
   0.31013   0.11569   0.10074
   0.31013   0.11569   0.10074
   0.31013   0.11569   0.10074
   0.31013   0.11569   0.10074
   0.31013  -0.12373  -0.13868
   0.31013   0.11569  -0.13868
   0.31013   0.11569   0.10074
   0.31013   0.11569  -0.13868
   0.31013   0.11569  -0.13868
   0.31013   0.11569  -0.37810
   0.31013   0.11569  -0.13868
   0.31013   0.11569  -0.13868
   0.31013   0.35511  -0.13868
   0.31013   0.11569  -0.13868
   0.31013   0.11569  -0.13868
   0.31013   0.11569  -0.13868
   0.31013   0.11569  -0.37810
   0.31013   0.11569  -0.13868
   0.31013   0.11569  -0.13868
   0.31013   0.11569  -0.13868
   0.31013  -0.12373  -0.13868
   0.31013  -0.12373   0.10074
   0.54955   0.11569  -0.13868
   0.31013  -0.12373  -0.13868
   0.31013  -0.12373  -0.13868
   0.31013   0.11569   0.10074
   0.31013  -0.12373   0.10074
   0.31013   0.11569   0.10074
   0.54955  -0.12373   0.10074
   0.54955  -0.12373   0.10074
   0.54955  -0.12373   0.10074
   0.54955  -0.12373   0.10074
   0.54955   0.11569   0.10074
   0.54955   0.11569   0.34016
   0.54955  -0.36315   0.10074
   0.78897  -0.12373   0.34016
   0.78897  -0.12373   0.34016
   0.78897   0.11569   0.34016
   0.78897   0.11569   0.10074
   0.78897   0.11569   0.34016
   0.78897  -0.12373   0.34016
   0.78897  -0.12373   0.34016
   0.78897   0.35511   0.34016
   0.78897  -0.12373   0.34016
   0.78897  -0.12373   0.34016
   0.78897  -0.12373   0.34016
   0.78897   0.11569   0.34016
   0.78897   0.11569   0.34016
   0.78897  -0.12373   0.34016
   0.78897  -0.12373   0.10074
   0.78897  -0.36315   0.10074
   0.78897  -0.12373   0.10074
   0.78897  -0.12373   0.10074
   0.78897  -0.12373   0.34016
   0.78897  -0.12373   0.10074
   0.78897  -0.12373   0.10074
   0.78897   0.11569   0.10074
   0.78897  -0.12373   0.10074
   0.78897  -0.12373   0.10074
   0.78897  -0.12373   0.10074
   0.78897  -0.12373  -0.13868
   0.78897  -0.12373  -0.13868
   0.78897  -0.12373   0.10074
   0.54955   0.11569   0.10074
   0.78897  -0.12373  -0.13868
   0.54955  -0.12373   0.10074
   0.54955  -0.36315   0.10074
   0.54955  -0.12373   0.10074
   0.54955  -0.12373   0.10074
   0.54955   0.11569   0.10074
   0.31013   0.11569  -0.13868
   0.54955  -0.12373   0.10074
   0.31013  -0.12373   0.10074
   0.07071  -0.12373   0.10074
   0.07071  -0.12373  -0.13868
   0.07071   0.11569   0.10074
   0.07071  -0.12373   0.10074
   0.07071   0.11569   0.10074
  -0.16871  -0.12373   0.10074
  -0.16871  -0.12373  -0.13868
  -0.16871  -0.12373   0.10074
  -0.16871  -0.12373   0.10074
  -0.16871  -0.12373  -0.13868
  -0.16871  -0.12373   0.10074
  -0.40813  -0.12373   0.10074
  -0.40813  -0.12373   0.10074
  -0.64755  -0.12373   0.10074
  -0.64755  -0.12373   0.10074
  -0.64755  -0.12373   0.10074
  -0.88697  -0.12373   0.10074
  -0.88697  -0.12373   0.10074
  -0.88697  -0.12373  -0.13868
  -0.88697   0.11569   0.10074
  -0.88697   0.11569   0.10074
  -1.12639  -0.12373   0.10074
  -1.12639   0.11569   0.10074
  -1.12639   0.11569  -0.13868
  -1.12639  -0.12373   0.10074
  -1.12639  -0.12373  -0.13868
  -1.12639  -0.12373   0.10074
  -1.84465   0.11569   0.10074
  -1.36581  -0.12373   0.10074
  -1.36581   0.11569   0.10074
  -1.36581   0.11569   0.10074
  -1.36581  -0.12373   0.34016
  -1.36581  -0.12373   0.10074
  -1.36581   0.11569   0.10074
  -1.36581  -0.12373   0.34016
  -1.36581  -0.12373   0.34016
  -1.60523  -0.12373   0.34016
  -1.36581  -0.12373   0.34016
  -1.36581  -0.12373   0.10074
  -1.36581  -0.12373   0.34016
  -1.36581  -0.12373   0.34016
  -1.36581  -0.12373   0.34016
  -1.36581  -0.12373   0.34016
  -1.36581  -0.12373   0.34016
  -1.12639  -0.12373   0.34016
  -1.12639  -0.12373   0.57958
  -1.12639  -0.12373   0.34016
  -1.12639  -0.12373   0.57958
  -1.12639  -0.12373   0.57958
  -1.12639  -0.12373   0.57958
  -1.12639   0.11569   0.34016
  -0.88697   0.11569   0.57958
  -0.88697  -0.12373   0.57958
  -0.88697   0.11569   0.57958
  -0.88697   0.11569   0.57958
  -0.64755   0.11569   0.57958
  -0.88697   0.11569   0.57958
  -0.64755   0.11569   0.57958
  -0.64755   0.11569   0.34016
  -0.64755   0.11569   0.34016
  -0.40813   0.35511   0.34016
  -0.64755   0.11569   0.34016
  -0.40813   0.11569   0.34016
  -0.40813   0.35511   0.34016
  -0.40813   0.35511   0.10074
  -0.16871   0.11569   0.10074
  -0.16871   0.35511   0.34016
  -0.16871   0.35511   0.10074
  -0.16871   0.35511   0.10074
  -0.16871   0.35511  -0.13868
   0.07071   0.11569   0.10074
   0.07071   0.35511  -0.13868
   0.07071   0.35511  -0.13868
   0.31013   0.11569  -0.13868
   0.31013   0.11569  -0.13868
   0.31013   0.11569  -0.13868
   0.31013   0.83395  -0.13868
   0.31013   0.11569  -0.13868
   0.31013   0.11569  -0.13868
   0.54955   0.35511  -0.13868
   0.31013   0.11569  -0.13868
   0.54955   0.11569  -0.37810
   0.54955   0.11569  -0.13868
   0.54955   0.11569  -0.13868
   0.54955   0.11569  -0.13868
   0.78897   0.11569  -0.13868
   0.78897   0.11569  -0.13868
   0.54955   0.11569  -0.13868
   0.78897   0.11569  -0.13868
   0.78897   0.11569  -0.13868
   0.78897   0.11569  -0.13868
   0.54955   0.11569  -0.13868
   0.78897  -0.12373  -0.13868
   0.78897   0.11569  -0.13868
   0.78897   0.11569  -0.13868
   0.78897   0.11569  -0.13868
   0.78897   0.11569  -0.13868
   0.78897   0.11569  -0.13868
   0.78897   0.11569  -0.13868
   0.78897   0.11569  -0.13868
   0.78897   0.11569  -0.13868
   0.78897   0.11569  -0.13868
   0.54955   0.11569  -0.13868
   0.78897   0.11569  -0.13868
   0.54955   0.11569  -0.13868
   0.54955   0.11569  -0.13868
   0.54955  -0.12373  -0.13868
   0.54955   0.11569  -0.13868
   0.54955  -0.12373  -0.37810
   0.54955  -0.12373  -0.37810
   0.31013  -0.12373  -0.13868
   0.54955  -0.12373  -0.13868
   0.31013  -0.12373  -0.13868
   0.31013  -0.36315  -0.13868
   0.31013  -0.12373  -0.13868
   0.31013  -0.12373  -0.13868
   0.31013  -0.12373  -0.13868
   0.54955  -0.12373  -0.37810
   0.31013  -0.12373  -0.37810
   0.31013  -0.12373  -0.37810
   0.31013  -0.12373  -0.37810
   0.31013  -0.12373  -0.37810
   0.31013  -0.12373   0.10074
   0.31013  -0.12373  -0.37810
   0.31013  -0.12373  -0.37810
   0.07071   0.11569  -0.37810
   0.07071  -0.12373  -0.37810
   0.07071   0.11569  -0.37810
   0.07071  -0.12373  -0.37810
   0.07071  -0.12373  -0.61752
  -0.16871  -0.12373  -0.37810
   0.07071  -0.12373  -0.37810
   0.07071  -0.12373  -0.37810
   0.07071   0.11569  -0.37810
  -0.16871  -0.12373  -0.37810
  -0.16871  -0.12373  -0.37810
  -0.16871  -0.12373  -0.37810
  -0.16871  -0.12373  -0.37810
  -0.16871  -0.12373  -0.37810
  -0.16871  -0.12373  -0.61752
  -0.16871  -0.12373  -0.37810
  -0.16871  -0.12373  -0.37810
  -0.16871   0.11569  -0.37810
  -0.16871  -0.12373  -0.37810
  -0.16871  -0.12373  -0.37810
  -0.16871  -0.12373  -0.37810
  -0.40813  -0.12373  -0.37810
  -0.16871  -0.12373  -0.37810
  -0.40813   0.11569  -0.37810
  -0.16871  -0.12373  -0.37810
  -0.16871  -0.12373  -0.13868
  -0.40813  -0.12373  -0.37810
  -0.40813  -0.12373  -0.13868
  -0.40813   0.11569  -0.13868
  -0.40813  -0.12373  -0.37810
  -0.88697  -0.12373  -0.13868
  -0.40813  -0.12373  -0.37810
  -0.40813  -0.12373  -0.37810
  -0.40813  -0.12373  -0.13868
  -0.64755  -0.12373  -0.13868
  -0.64755  -0.12373  -0.13868
  -0.64755  -0.12373  -0.13868
  -0.64755  -0.12373  -0.13868
  -0.64755  -0.12373  -0.13868
  -0.64755  -0.12373  -0.13868
  -0.64755  -0.36315  -0.13868
  -0.64755  -0.12373  -0.13868
  -0.64755  -0.12373  -0.13868
  -0.64755  -0.12373  -0.13868
  -0.64755  -0.12373  -0.13868
  -0.64755  -0.12373  -0.13868
  -0.64755  -0.12373  -0.13868
  -0.64755  -0.12373  -0.13868
  -0.64755  -0.12373  -0.13868
  -0.64755  -0.12373   0.10074
  -0.64755  -0.12373  -0.13868
  -0.88697  -0.12373   0.10074
