********************************************************************************
               CENTRO DE INSTRUMENTACION Y REGISTRO SISMICO  A.C.  
                       Coordinacion de Servicios Tecnicos
     Anaxagoras 814, Col. Narvarte, Benito Juarez, C.P. 03020 Mexico, D.F.
            Tels. 667 45 42/ 687 45  82             Fax. 669 25 12
********************************************************************************
ARCHIVO ESTANDAR DE ACELERACION:
VERSION DEL FORMATO                    : 2.0
NOMBRE DEL ARCHIVO                     : AU110110.291
FECHA Y HORA DE CREACION               : 07/JUL/04, 09:35
REF. CATALOGO ACELEROGRAMAS, SMIS 1996 : REGISTRO No.     /PAG.


================================================================================
DATOS DE LA ESTACION:
NOMBRE DE LA ESTACION                  : AUTODROMO
CLAVE DE LA ESTACION                   : AU11
LOCALIZACION DE LA ESTACION            : AUTODROMO HERMANOS RODRIGUEZ,
                                       : CHURUBUSCO, CD. DEPORTIVA
                                       :
                                       :
                                       :
COORDENADAS DE LA ESTACION             : 19.392 LAT. N 
                                       : 99.087 LONG. W 
ALTITUD (msnm)                         : 2234
TIPO DE SUELO                          : TERRENO BLANDO, MATERIAL COMPRESIBLE
                                       : (ARCILLAS)
                                       : 
INSTITUCION RESPONSABLE                : CIRES 
                                       :

================================================================================
DATOS DEL ACELEROGRAFO:
MODELO DEL ACELEROGRAFO                : SSA-1
NUMERO DE SERIE DEL ACELEROGRAFO       : 157
NUMERO DE CANALES                      : 3
ORIENTACION C1-C6 (rumbo;orientacion)  : /N00E/+V/N90E
ORIENTACION C7-C12 (rumbo;orientacion) :
VEL. DE MUESTREO, C1-C6 (muestras/s)   : /200/200/200
VEL. DE MUESTREO, C7-C12 (muestras/s)  :
ESC. COMPLETA DE SENSORES, C1-C6, (g)  : /2/2/2
ESC. COMPLETA DE SENSORES, C7-C12, (g) :
FREC. NAT. DE SENSORES, C1-C6, (Hz)    : /51.77/52.56/52.29
FREC. NAT. DE SENSORES, C7-C12, (Hz)   :
AMORTIGUAMIENTO DE SENSORES, C1-C6     : /.5912/.6083/.6067
AMORTIGUAMIENTO DE SENSORES, C7-C12    :
INTERVALO DE MUESTREO, C1-C6, (s)      : /0.005/0.005/0.005
INTERVALO DE MUESTREO, C7-C12, (s)     :
UMBRAL DE DISPARO, C1-C6, (Gal)        : /2/2/2
UMBRAL DE DISPARO, C7-C12, (Gal)       :
MEMORIA DE PREEVENTO (s)               : 15
TIEMPO DE POSEVENTO (s)                : 60


================================================================================
DATOS DEL SISMO:
FECHA DEL SISMO (GMT)                  : 29/OCT/01
HORA EPICENTRO (GMT)                   : 05:23:12,3
MAGNITUD(ES)                           : /Mb=5.0/Ms=4.5/Mc=5.1/Ma=5.1/Me=5.4
COORDENADAS DEL EPICENTRO              : 17.00 LAT. N
                                       : 100.19 LONG. W
PROFUNDIDAD FOCAL (km)                 : 4
FUENTE DE LOS DATOS EPICENTRALES       : SSN
                                       : INSTITUTO DE GEOFISICA, UNAM 

================================================================================
DATOS DE ESTE REGISTRO:
HORA DE LA PRIMERA MUESTRA (GMT)       : 05:24:43.00
EXACTITUD DEL TIEMPO (s)               :     
DURACION DEL REGISTRO (s), C1-C6       : /78.08/78.08/78.08
DURACION DEL REGISTRO (s), C7-C12      :
NUM. TOTAL DE MUESTRAS, C1-C6          : /15616/15616/15616
NUM. TOTAL DE MUESTRAS, C7-C12         :
ACEL. MAX. (Gal), C1-C6                : /-1.58917/-0.49472/-1.15881
ACEL. MAX., C1-C6, EN LA MUESTRA       :
ACEL. MAX. (Gal), C7-C12               :
ACEL. MAX., C7-C12, EN LA MUESTRA      :
UNIDADES DE LOS DATOS                  : Gal (cm/s/s)
FACTOR DE DECIMACION                   : 1
FORMATO DATOS (FORTRAN,10 campos/dato) : 3F10.5


================================================================================
CALIDAD DEL ACELEROGRAMA:
REGISTRO DIGITAL COMPLETO, CARECE DE TIEMPO ABSOLUTO.


================================================================================
COMENTARIOS:














================================================================================
DATOS DE ACELERACION:
---------+---------+---------+---------+---------+---------+---------+---------+
   CANAL-1   CANAL-2   CANAL-3   CANAL-4   CANAL-5   CANAL-6   CANAL-7   CANAL-8
      N00E        +V      N90E
---------+---------+---------+---------+---------+---------+---------+---------+
[...]
  -0.14917   0.22528   0.28119
  -0.14917  -0.01472   0.28119
  -0.38917   0.22528   0.28119
  -0.14917   0.22528   0.28119
  -0.14917   0.22528   0.28119
  -0.14917   0.22528   0.28119
  -0.38917  -0.01472   0.28119
  -0.38917  -0.01472   0.28119
  -0.38917   0.22528   0.28119
  -0.38917   0.22528   0.04119
  -0.62917  -0.01472   0.28119
  -0.38917  -0.01472   0.04119
  -0.38917  -0.01472   0.04119
  -0.62917  -0.01472   0.04119
  -0.62917  -0.01472   0.04119
  -0.62917  -0.01472   0.04119
  -0.62917  -0.01472   0.04119
  -0.62917  -0.01472   0.04119
  -0.62917  -0.01472   0.04119
  -0.62917  -0.01472   0.04119
  -0.62917  -0.01472   0.04119
  -0.62917  -0.01472  -0.19881
  -0.62917  -0.01472   0.04119
  -0.62917  -0.01472   0.04119
  -0.86917  -0.01472   0.04119
  -0.62917  -0.01472  -0.19881
  -0.62917  -0.01472  -0.19881
  -0.62917  -0.01472  -0.19881
  -0.62917  -0.01472  -0.19881
  -0.62917  -0.01472  -0.19881
  -0.62917  -0.01472   0.04119
  -0.62917  -0.01472  -0.19881
  -0.62917  -0.01472  -0.19881
  -0.62917   0.22528   0.04119
  -0.62917  -0.01472  -0.19881
  -0.62917  -0.01472  -0.19881
  -0.62917  -0.01472   0.04119
  -0.86917  -0.01472  -0.19881
  -0.62917  -0.01472  -0.19881
  -0.62917  -0.01472  -0.19881
  -0.62917  -0.01472  -0.19881
  -0.62917  -0.01472  -0.19881
  -0.62917  -0.01472  -0.19881
  -0.62917  -0.01472  -0.19881
  -0.62917  -0.01472  -0.19881
  -0.62917  -0.01472  -0.19881
  -0.62917  -0.01472  -0.19881
  -0.86917  -0.01472  -0.19881
  -0.62917  -0.01472   0.04119
  -0.62917  -0.01472   0.04119
  -0.62917  -0.01472   0.04119
  -0.62917  -0.01472   0.04119
  -0.86917  -0.01472   0.04119
  -0.86917  -0.01472   0.04119
  -0.86917  -0.01472   0.04119
  -0.86917  -0.01472   0.04119
  -0.86917  -0.01472   0.04119
  -0.86917  -0.01472  -0.19881
  -0.86917  -0.01472   0.04119
  -0.86917  -0.25472  -0.19881
  -0.86917  -0.01472  -0.19881
  -0.86917  -0.01472  -0.19881
  -0.86917  -0.01472  -0.19881
  -0.86917  -0.01472   0.04119
  -0.86917  -0.01472   0.04119
  -0.86917  -0.01472  -0.19881
  -1.10917  -0.01472  -0.19881
  -1.10917  -0.01472   0.04119
  -1.10917  -0.01472   0.04119
  -1.10917  -0.01472   0.04119
  -1.10917  -0.01472   0.04119
  -1.10917  -0.01472   0.04119
  -1.10917  -0.01472   0.04119
  -1.10917  -0.01472   0.04119
  -1.10917  -0.01472   0.04119
  -1.10917  -0.01472   0.04119
  -1.10917  -0.01472   0.04119
  -1.10917  -0.01472   0.04119
  -1.10917  -0.01472   0.04119
  -1.10917  -0.01472   0.04119
  -0.86917  -0.01472   0.28119
  -1.10917  -0.01472   0.28119
  -0.86917  -0.01472   0.04119
  -0.86917  -0.01472   0.04119
  -1.10917  -0.01472   0.28119
  -0.86917  -0.49472   0.28119
  -0.86917  -0.01472   0.28119
  -0.86917  -0.01472   0.04119
  -0.86917  -0.01472   0.28119
  -0.86917  -0.01472   0.28119
  -0.86917  -0.01472   0.28119
  -1.10917  -0.01472   0.28119
  -0.86917  -0.01472   0.28119
  -0.86917  -0.01472   0.28119
  -1.10917  -0.01472   0.28119
  -0.86917  -0.01472   0.28119
  -0.86917  -0.01472   0.28119
  -0.86917  -0.01472   0.28119
  -0.86917  -0.01472   0.28119
  -0.86917  -0.01472   0.28119
  -0.86917  -0.01472   0.28119
  -0.86917  -0.01472   0.04119
  -0.86917   0.22528   0.04119
  -0.86917   0.22528   0.04119
  -0.62917  -0.01472   0.04119
  -0.62917  -0.01472   0.04119
  -0.62917  -0.01472   0.04119
  -0.62917   0.22528   0.04119
  -0.62917  -0.01472   0.04119
  -0.38917   0.22528   0.04119
  -0.38917  -0.01472   0.04119
  -0.38917  -0.01472   0.04119
  -0.38917  -0.01472   0.04119
  -0.14917   0.22528   0.04119
  -0.14917   0.22528   0.04119
  -0.14917   0.22528   0.04119
   0.09083   0.22528  -0.19881
   0.09083   0.22528  -0.19881
   0.09083   0.22528  -0.19881
   0.09083   0.22528  -0.19881
   0.33083   0.22528  -0.19881
   0.33083   0.22528  -0.19881
   0.33083   0.22528  -0.19881
   0.33083   0.22528  -0.19881
   0.33083   0.22528  -0.19881
   0.33083   0.22528  -0.19881
   0.33083   0.46528  -0.19881
   0.33083   0.22528  -0.19881
   0.33083   0.22528  -0.19881
   0.57083   0.22528  -0.19881
   0.57083   0.22528  -0.19881
   0.33083   0.22528  -0.19881
   0.57083   0.22528  -0.19881
   0.57083   0.22528  -0.19881
   0.57083   0.22528  -0.19881
   0.57083   0.22528  -0.19881
   0.33083   0.22528  -0.19881
   0.57083   0.22528  -0.19881
   0.57083   0.22528  -0.19881
   0.33083   0.22528  -0.19881
   0.33083   0.22528  -0.19881
   0.33083   0.22528  -0.19881
   0.33083   0.22528  -0.19881
   0.33083   0.22528  -0.19881
   0.33083   0.22528  -0.19881
   0.33083   0.22528  -0.19881
   0.33083   0.22528  -0.19881
   0.33083   0.22528  -0.19881
  -0.14917   0.22528  -0.19881
   0.33083   0.22528  -0.19881
   0.33083   0.22528  -0.19881
   0.33083   0.22528  -0.19881
   0.33083   0.22528  -0.19881
   0.33083   0.22528  -0.19881
   0.33083  -0.01472  -0.19881
   0.33083  -0.01472  -0.19881
   0.33083  -0.01472  -0.19881
   0.33083  -0.01472  -0.19881
   0.33083  -0.01472  -0.19881
   0.33083  -0.01472  -0.19881
   0.33083  -0.01472  -0.19881
   0.33083  -0.01472  -0.19881
   0.33083  -0.01472  -0.19881
   0.33083  -0.01472  -0.19881
   0.33083  -0.01472  -0.19881
   0.33083  -0.01472  -0.19881
   0.33083  -0.01472  -0.19881
   0.33083  -0.01472  -0.19881
   0.33083  -0.01472  -0.19881
   0.33083  -0.01472  -0.19881
   0.33083  -0.01472  -0.19881
   0.33083  -0.01472  -0.19881
   0.33083  -0.01472  -0.19881
   0.33083  -0.01472  -0.19881
   0.33083  -0.01472  -0.19881
   0.33083  -0.01472  -0.19881
   0.33083  -0.01472  -0.19881
   0.33083  -0.01472   0.04119
   0.33083  -0.01472   0.04119
   0.33083  -0.01472   0.04119
   0.33083  -0.25472   0.04119
   0.33083  -0.01472   0.04119
   0.33083  -0.01472   0.04119
   0.33083  -0.01472   0.04119
   0.33083  -0.01472   0.04119
   0.33083  -0.01472   0.04119
   0.33083  -0.01472   0.04119
   0.33083  -0.01472  -0.19881
   0.33083  -0.01472   0.28119
   0.33083  -0.01472   0.28119
   0.33083  -0.01472   0.28119
   0.33083  -0.01472   0.28119
   0.33083  -0.01472   0.28119
   0.33083  -0.01472   0.28119
   0.33083  -0.25472   0.28119
   0.33083  -0.01472   0.28119
   0.33083  -0.01472   0.28119
   0.33083  -0.01472   0.28119
   0.33083  -0.01472   0.28119
   0.33083  -0.01472   0.04119
   0.33083  -0.25472   0.04119
   0.33083  -0.25472   0.04119
   0.33083  -0.25472   0.04119
   0.33083  -0.25472   0.04119
   0.33083  -0.25472   0.04119
   0.33083  -0.25472   0.04119
   0.33083  -0.25472   0.04119
   0.33083  -0.25472   0.04119
   0.33083  -0.25472   0.04119
   0.57083  -0.25472   0.04119
   0.57083  -0.49472   0.04119
   0.57083  -0.49472   0.04119
   0.57083  -0.25472   0.04119
   0.57083  -0.49472   0.04119
   0.57083  -0.49472   0.04119
   0.57083  -0.25472   0.04119
   0.57083  -0.25472  -0.19881
   0.57083  -0.25472   0.04119
   0.57083  -0.25472  -0.19881
   0.81083  -0.25472  -0.19881
   0.81083  -0.25472  -0.19881
   0.81083  -0.25472  -0.19881
   0.81083  -0.25472  -0.19881
   0.81083  -0.25472  -0.19881
   0.81083  -0.25472  -0.19881
   0.81083  -0.25472  -0.19881
   0.81083  -0.25472  -0.19881
   0.81083  -0.01472  -0.19881
   0.81083  -0.01472  -0.19881
   0.81083  -0.01472  -0.19881
   0.81083  -0.01472  -0.19881
   0.81083  -0.01472  -0.19881
   1.05083  -0.01472  -0.19881
   1.05083  -0.01472  -0.19881
   1.05083  -0.01472  -0.19881
   1.05083  -0.01472  -0.19881
   1.05083  -0.01472  -0.19881
   1.05083  -0.01472  -0.19881
   1.05083  -0.01472  -0.19881
   1.05083  -0.01472  -0.19881
   1.05083  -0.01472  -0.19881
   1.05083  -0.01472  -0.43881
   1.05083  -0.01472  -0.19881
   1.05083  -0.01472  -0.43881
   1.05083  -0.01472  -0.43881
   1.05083  -0.01472  -0.43881
   1.05083  -0.25472  -0.43881
   1.05083  -0.01472  -0.43881
   1.05083  -0.01472  -0.43881
   1.05083  -0.01472  -0.43881
   1.05083  -0.01472  -0.43881
   1.05083  -0.01472  -0.43881
   1.05083  -0.01472  -0.43881
   1.05083  -0.01472  -0.43881
   1.29083  -0.01472  -0.43881
   1.05083  -0.01472  -0.43881
   1.05083  -0.01472  -0.19881
   1.05083  -0.01472  -0.43881
   1.05083  -0.01472  -0.19881
   1.05083  -0.01472  -0.19881
   1.05083  -0.01472  -0.19881
   1.05083  -0.01472  -0.19881
   1.05083  -0.01472  -0.19881
   1.05083  -0.01472  -0.19881
   1.05083  -0.01472  -0.19881
   1.05083  -0.01472  -0.19881
   1.05083  -0.01472  -0.19881
   1.05083  -0.01472  -0.19881
   1.05083  -0.01472  -0.19881
   1.05083  -0.01472  -0.19881
   1.05083  -0.01472  -0.19881
   1.05083  -0.01472  -0.19881
   0.81083  -0.01472   0.04119
   0.81083  -0.01472   0.04119
   0.81083  -0.01472   0.04119
   0.81083  -0.01472   0.04119
   0.81083  -0.01472   0.04119
   0.81083  -0.01472   0.04119
   0.81083  -0.01472   0.04119
   0.81083  -0.01472   0.04119
   0.81083  -0.01472   0.04119
   0.57083  -0.01472   0.04119
   0.57083  -0.01472   0.04119
   0.57083  -0.01472   0.04119
   0.57083  -0.01472   0.04119
   0.57083  -0.01472   0.04119
   0.33083  -0.01472   0.04119
   0.33083   0.22528   0.28119
   0.33083  -0.01472   0.04119
   0.33083  -0.01472   0.04119
   0.33083  -0.01472   0.04119
   0.33083  -0.01472   0.04119
   0.33083  -0.01472   0.28119
   0.09083  -0.01472   0.28119
   0.09083  -0.01472   0.04119
   0.09083  -0.01472   0.04119
   0.09083  -0.01472   0.28119
   0.09083  -0.01472   0.04119
  -0.14917  -0.01472   0.28119
  -0.14917  -0.01472   0.04119
  -0.14917  -0.01472   0.04119
  -0.14917  -0.01472   0.04119
  -0.14917  -0.01472   0.04119
  -0.38917  -0.01472   0.04119
  -0.38917  -0.01472   0.04119
  -0.38917  -0.01472   0.04119
  -0.38917  -0.01472   0.04119
  -0.38917  -0.01472   0.04119
  -0.38917  -0.01472   0.04119
  -0.38917  -0.01472  -0.19881
  -0.62917  -0.01472  -0.19881
  -0.62917  -0.01472  -0.19881
  -0.62917  -0.01472  -0.19881
  -0.62917   0.22528  -0.19881
  -0.62917  -0.01472  -0.19881
  -0.62917  -0.01472  -0.19881
  -0.62917  -0.01472  -0.19881
  -0.62917  -0.01472  -0.19881
  -0.62917  -0.01472  -0.19881
  -0.62917  -0.01472  -0.43881
  -0.86917  -0.01472  -0.43881
  -0.86917  -0.01472  -0.43881
  -0.86917  -0.01472  -0.43881
  -0.86917  -0.01472  -0.43881
  -0.86917  -0.01472  -0.43881
  -0.86917  -0.01472  -0.43881
  -0.86917  -0.01472  -0.43881
  -0.86917  -0.01472  -0.43881
  -1.10917  -0.01472  -0.43881
  -1.10917  -0.01472  -0.43881
  -1.10917  -0.01472  -0.43881
  -1.10917  -0.01472  -0.43881
  -1.10917   0.22528  -0.43881
  -1.10917  -0.01472  -0.67881
  -1.10917  -0.01472  -0.67881
  -1.10917   0.22528  -0.67881
  -1.10917  -0.01472  -0.67881
  -1.34917  -0.01472  -0.67881
  -1.10917  -0.01472  -0.67881
  -1.34917  -0.01472  -0.67881
  -1.34917  -0.01472  -0.67881
  -1.10917  -0.01472  -0.67881
  -1.34917  -0.01472  -0.67881
  -1.10917  -0.01472  -0.67881
  -1.34917  -0.01472  -0.43881
  -1.34917  -0.01472  -0.43881
  -1.34917   0.22528  -0.43881
  -1.34917   0.22528  -0.43881
  -1.34917  -0.01472  -0.43881
  -1.58917   0.22528  -0.43881
  -1.58917   0.22528  -0.43881
  -1.58917   0.22528  -0.19881
  -1.58917   0.22528  -0.19881
  -1.58917   0.22528  -0.19881
  -1.58917   0.22528  -0.19881
  -1.58917   0.22528  -0.19881
  -1.58917   0.22528  -0.19881
  -1.58917   0.22528  -0.19881
  -1.58917  -0.01472   0.04119
  -1.58917   0.22528   0.04119
  -1.58917   0.22528   0.04119
  -1.58917  -0.01472   0.04119
  -1.58917  -0.01472   0.04119
  -1.58917   0.22528   0.04119
  -1.58917  -0.01472   0.04119
  -1.58917  -0.01472   0.04119
  -1.58917  -0.01472   0.28119
  -1.58917  -0.01472   0.28119
  -1.58917   0.22528   0.28119
  -1.58917  -0.01472   0.28119
  -1.58917   0.22528   0.28119
  -1.58917   0.22528   0.28119
  -1.58917  -0.01472   0.28119
  -1.58917  -0.01472   0.28119
  -1.58917   0.22528   0.28119
  -1.58917  -0.01472   0.28119
  -1.58917  -0.01472   0.28119
  -1.34917  -0.25472   0.28119
  -1.34917  -0.01472   0.28119
  -1.34917  -0.01472   0.28119
  -1.34917  -0.01472   0.28119
  -1.34917  -0.01472   0.28119
  -1.34917  -0.01472   0.28119
  -1.34917  -0.01472   0.28119
  -1.34917  -0.01472   0.28119
  -1.34917  -0.01472   0.28119
  -1.10917  -0.01472   0.28119
  -1.10917  -0.01472   0.28119
  -1.10917  -0.01472   0.28119
  -1.10917  -0.01472   0.04119
  -1.10917  -0.01472   0.28119
  -1.10917  -0.01472   0.28119
  -1.10917  -0.01472   0.28119
  -0.86917  -0.01472   0.28119
  -0.86917  -0.01472   0.28119
  -0.86917  -0.01472   0.28119
  -0.86917  -0.01472   0.28119
  -0.86917  -0.01472   0.28119
  -0.86917  -0.01472   0.28119
  -0.86917  -0.01472   0.28119
  -0.62917  -0.01472   0.52119
  -0.62917  -0.01472   0.52119
  -0.62917  -0.01472   0.52119
  -0.62917  -0.25472   0.52119
  -0.62917  -0.01472   0.52119
  -0.62917  -0.01472   0.52119
  -0.62917  -0.01472   0.52119
  -0.62917   0.22528   0.52119
  -0.62917  -0.01472   0.52119
  -0.62917  -0.01472   0.52119
  -0.38917  -0.01472   0.52119
  -0.38917  -0.01472   0.52119
  -0.38917  -0.01472   0.52119
  -0.38917  -0.01472   0.52119
  -0.38917  -0.01472   0.76119
  -0.38917  -0.01472   0.52119
  -0.38917  -0.01472   0.76119
  -0.38917  -0.01472   0.52119
  -0.14917  -0.01472   0.52119
  -0.38917  -0.01472   0.76119
  -0.14917  -0.01472   0.52119
  -0.14917  -0.01472   0.52119
  -0.14917  -0.01472   0.52119
  -0.14917  -0.01472   0.52119
  -0.14917  -0.01472   0.52119
  -0.14917  -0.01472   0.52119
  -0.14917  -0.01472   0.52119
  -0.14917  -0.01472   0.52119
  -0.14917  -0.01472   0.52119
  -0.14917  -0.01472   0.52119
  -0.14917  -0.01472   0.52119
  -0.14917  -0.01472   0.52119
  -0.14917  -0.01472   0.52119
   0.09083  -0.01472   0.52119
   0.09083  -0.01472   0.52119
  -0.14917  -0.25472   0.52119
   0.09083  -0.01472   0.52119
   0.09083  -0.01472   0.52119
   0.09083  -0.01472   0.52119
   0.09083  -0.01472   0.52119
   0.09083  -0.01472   0.52119
   0.09083  -0.01472   0.52119
   0.09083  -0.01472   0.52119
   0.09083  -0.25472   0.52119
   0.33083  -0.01472   0.76119
   0.09083  -0.25472   0.76119
   0.33083  -0.01472   0.76119
   0.33083  -0.25472   0.76119
   0.33083  -0.01472   0.76119
   0.33083  -0.25472   0.76119
   0.33083  -0.01472   0.76119
   0.33083  -0.01472   0.52119
   0.33083  -0.01472   0.76119
   0.33083  -0.01472   0.76119
   0.33083  -0.01472   0.76119
   0.33083  -0.01472   0.76119
   0.33083  -0.01472   0.76119
   0.33083  -0.01472   0.76119
   0.09083  -0.01472   0.76119
   0.33083  -0.01472   0.52119
   0.33083  -0.01472   0.76119
   0.33083  -0.01472   0.76119
   0.33083  -0.01472   0.76119
   0.33083  -0.01472   0.76119
   0.33083  -0.01472   0.76119
   0.33083  -0.01472   0.76119
   0.33083  -0.01472   0.52119
   0.33083  -0.01472   0.52119
   0.33083  -0.25472   0.52119
   0.33083  -0.01472   0.52119
   0.33083  -0.01472   0.28119
   0.33083  -0.01472   0.52119
   0.33083  -0.01472   0.52119
   0.33083  -0.01472   0.52119
   0.33083  -0.25472   0.52119
   0.33083  -0.01472   0.52119
   0.33083  -0.01472   0.52119
   0.33083  -0.01472   0.52119
   0.33083  -0.01472   0.52119
   0.33083  -0.01472   0.28119
   0.33083  -0.01472   0.52119
   0.57083  -0.25472   0.28119
   0.33083  -0.01472   0.28119
   0.33083  -0.01472   0.28119
   0.57083  -0.01472   0.28119
   0.33083  -0.01472   0.28119
   0.57083  -0.01472   0.28119
   0.57083  -0.01472   0.28119
   0.57083  -0.01472   0.04119
   0.33083  -0.01472   0.28119
   0.57083  -0.01472   0.04119
   0.57083  -0.01472   0.04119
   0.57083  -0.01472   0.04119
   0.57083  -0.01472   0.04119
   0.57083  -0.01472   0.04119
   0.57083  -0.01472  -0.19881
   0.57083  -0.01472  -0.19881
   0.57083  -0.01472  -0.19881
   0.81083  -0.01472  -0.19881
