********************************************************************************
              CENTRO DE INSTRUMENTACION Y REGISTRO SISMICO  A.C.                

    Anaxagoras 814, Col. Narvarte, Benito Juarez, C.P. 03020 Mexico, D.F.       
           Tels. 5687 45 42/ 5687 45  82             Fax. 5669 25 12            
********************************************************************************
ARCHIVO ESTANDAR DE ACELERACION:
VERSION DEL FORMATO                    : 2.0
NOMBRE DEL ARCHIVO                     : AU1119890425142900
FECHA Y HORA DE CREACION               : 03/MAY/18, 13:20
REF. CATALOGO ACELEROGRAMAS, SMIS 1996 : REGISTRO No.     /PAG.


================================================================================
DATOS DE LA ESTACION:
NOMBRE DE LA ESTACION                  : AUTÓDROMO
CLAVE DE LA ESTACION                   : AU11
LOCALIZACION DE LA ESTACION            : Del. Iztacalco, Cd. Deportiva          
                                       : Magdalena Mixhuca,                     
                                       : Col. Granjas México                    
                                       :                                        
                                       : 
COORDENADAS DE LA ESTACION             : 19.3919 LAT. N
                                       : 99.0869 LONG. W
ALTITUD (msnm)                         : 2234
TIPO DE SUELO                          : Terreno blando, material compresible
                                       : (arcillas)                
                                       : 
INSTITUCION RESPONSABLE                : CIRES


================================================================================
DATOS DEL ACELEROGRAFO:
MODELO DEL ACELEROGRAFO                : SSA-1
NUMERO DE SERIE DEL ACELEROGRAFO       : 157
NUMERO DE CANALES                      : 3
ORIENTACION C1-C6 (rumbo;orientacion)  : /S00E/+V/N90W
ORIENTACION C7-C12 (rumbo;orientacion) : 
VEL. DE MUESTREO, C1-C6 (muestras/s)   : /200/200/200
VEL. DE MUESTREO, C7-C12 (muestras/s)  : 
ESC. COMPLETA DE SENSORES, C1-C6, (g)  : /1.0/1.0/1.0
ESC. COMPLETA DE SENSORES, C7-C12, (g) : 
FREC. NAT. DE SENSORES, C1-C6, (Hz)    : /51.77/52.56/52.29
FREC. NAT. DE SENSORES, C7-C12, (Hz)   : 
AMORTIGUAMIENTO DE SENSORES, C1-C6     : /0.5912/0.6083/0.6067
AMORTIGUAMIENTO DE SENSORES, C7-C12    : 
INTERVALO DE MUESTREO, C1-C6, (s)      : /0.005/0.005/0.005
INTERVALO DE MUESTREO, C7-C12, (s)     : 
UMBRAL DE DISPARO, C1-C6, (Gal)        : /1.0/1.5/1.0
UMBRAL DE DISPARO, C7-C12, (Gal)       : 
MEMORIA DE PREEVENTO (s)               : 15.36
TIEMPO DE POSEVENTO (s)                : 0.0


================================================================================
DATOS DEL SISMO:
FECHA DEL SISMO (GMT)                  : 25/ABR/89
HORA EPICENTRO (GMT)                   : 14:29:00.0
MAGNITUD(ES)                           : /Mc=6.5
COORDENADAS DEL EPICENTRO              : 16.60 LAT. N
                                       : -99.40 LONG. W
PROFUNDIDAD FOCAL (km)                 : 19
FUENTE DE LOS DATOS EPICENTRALES       : SSN
                                       : INSTITUTO DE GEOFISICA, UNAM

================================================================================
DATOS DE ESTE REGISTRO:
HORA DE LA PRIMERA MUESTRA (GMT)       : 14:28:37.18
EXACTITUD DEL TIEMPO (s)               : 0.005
DURACION DEL REGISTRO (s), C1-C6       : /316.16/316.16/316.16
DURACION DEL REGISTRO (s), C7-C12      : 
NUM. TOTAL DE MUESTRAS, C1-C6          : /63232/63232/63232
NUM. TOTAL DE MUESTRAS, C7-C12         : 
ACEL. MAX. (Gal), C1-C6                : /9.74848/3.17812/10.1437
ACEL. MAX., C1-C6, EN LA MUESTRA       : /15464/10372/11331
ACEL. MAX. (Gal), C7-C12               : 
ACEL. MAX., C7-C12, EN LA MUESTRA      : 
UNIDADES DE LOS DATOS                  : Gal (cm/s/s)
FACTOR DE DECIMACION                   : 1
FORMATO DATOS (FORTRAN,10 campos/dato) : 3F10.5


================================================================================
CALIDAD DEL ACELEROGRAMA:
REGISTRO DIGITAL COMPLETO CON TIEMPO ABSOLUTO CORRECTO.


================================================================================
COMENTARIOS:














================================================================================
DATOS DE ACELERACION:
---------+---------+---------+---------+---------+---------+---------+---------+
   CANAL-1   CANAL-2   CANAL-3   CANAL-4   CANAL-5   CANAL-6   CANAL-7   CANAL-8
      N00E        +V      N90W
---------+---------+---------+---------+---------+---------+---------+---------+
[...]
   5.19950   0.41318  -1.58789
   5.43892   0.41318  -1.58789
   5.19950   0.41318  -1.58789
   5.19950   0.41318  -1.58789
   5.19950   0.41318  -1.58789
   5.19950   0.41318  -1.58789
   5.19950   0.41318  -1.82731
   5.19950   0.41318  -1.58789
   4.96008   0.41318  -1.82731
   4.96008   0.41318  -1.82731
   4.96008   0.17376  -1.82731
   4.72066   0.17376  -1.82731
   4.72066   0.41318  -2.06673
   4.72066   0.41318  -2.06673
   4.72066   0.41318  -2.06673
   4.48124   0.17376  -2.06673
   4.48124   0.17376  -2.06673
   4.48124   0.41318  -2.06673
   4.24182   0.17376  -2.30615
   4.24182   0.41318  -2.30615
   4.00240   0.41318  -2.30615
   4.00240   0.41318  -2.30615
   4.00240   0.41318  -2.54557
   3.76298   0.41318  -2.30615
   3.76298   0.41318  -2.54557
   3.52356   0.41318  -2.54557
   3.52356   0.41318  -2.54557
   3.52356   0.41318  -2.54557
   3.52356   0.65260  -2.54557
   3.28414   0.41318  -2.54557
   3.28414   0.65260  -2.54557
   3.28414   0.41318  -2.54557
   3.04472   0.65260  -2.54557
   3.04472   0.65260  -2.54557
   2.80530   0.41318  -2.54557
   2.80530   0.41318  -2.54557
   2.56588   0.65260  -2.54557
   2.56588   0.65260  -2.54557
   2.56588   0.65260  -2.54557
   2.32646   0.65260  -2.54557
   2.32646   0.65260  -2.54557
   2.32646   0.89202  -2.54557
   2.08704   0.89202  -2.54557
   2.08704   0.89202  -2.30615
   1.84762   0.89202  -2.06673
   1.60820   0.89202  -2.30615
   1.60820   0.89202  -2.06673
   1.60820   0.89202  -2.06673
   1.36878   0.89202  -2.06673
   1.36878   0.89202  -2.06673
   1.12936   0.89202  -2.06673
   1.12936   0.89202  -2.06673
   0.88994   0.89202  -2.06673
   0.88994   0.89202  -2.06673
   0.65052   0.89202  -2.06673
   0.41110   1.13145  -2.06673
   0.41110   0.89202  -2.06673
   0.17168   1.13145  -2.06673
   0.17168   1.13145  -2.06673
  -0.06774   1.13145  -1.82731
  -0.06774   1.13145  -2.06673
  -0.30716   1.13145  -2.06673
  -0.54658   1.13145  -2.06673
  -0.54658   1.13145  -2.06673
  -0.78600   1.37087  -2.06673
  -1.02542   1.37087  -2.06673
  -1.02542   1.37087  -2.06673
  -1.50426   1.37087  -2.30615
  -1.50426   1.37087  -2.06673
  -1.74368   1.37087  -2.30615
  -1.98310   1.37087  -2.30615
  -2.22252   1.37087  -2.30615
  -2.46194   1.37087  -2.30615
  -2.46194   1.37087  -2.54557
  -2.70136   1.61029  -2.30615
  -2.94078   1.37087  -2.54557
  -2.94078   1.37087  -2.54557
  -3.41962   1.37087  -2.54557
  -3.41962   1.37087  -2.54557
  -3.65904   1.37087  -2.78499
  -3.89846   1.37087  -2.78499
  -4.13788   1.37087  -2.54557
  -4.13788   1.37087  -2.78499
  -4.37731   1.13145  -2.78499
  -4.61673   1.13145  -2.78499
  -4.61673   1.13145  -2.78499
  -4.85615   1.13145  -2.54557
  -4.85615   1.13145  -2.78499
  -5.09557   1.13145  -2.78499
  -5.09557   1.13145  -2.54557
  -5.33499   1.13145  -2.78499
  -5.33499   1.13145  -2.54557
  -5.57441   1.13145  -2.54557
  -5.57441   0.89202  -2.54557
  -5.57441   1.13145  -2.54557
  -5.57441   0.89202  -2.54557
  -5.57441   0.89202  -2.54557
  -5.81383   0.89202  -2.30615
  -5.81383   0.89202  -2.54557
  -5.81383   0.41318  -2.54557
  -5.81383   0.65260  -2.30615
  -5.81383   0.65260  -2.30615
  -5.81383   0.41318  -2.30615
  -5.81383   0.65260  -2.30615
  -5.81383   0.65260  -2.30615
  -5.81383   0.41318  -2.30615
  -5.81383   0.65260  -2.30615
  -5.81383   0.41318  -2.30615
  -5.81383   0.41318  -2.06673
  -5.57441   0.41318  -2.06673
  -5.57441   0.41318  -2.30615
  -5.57441   0.41318  -2.06673
  -5.57441   0.41318  -2.30615
  -5.57441   0.41318  -2.06673
  -5.57441   0.17376  -2.30615
  -5.57441   0.17376  -2.30615
  -5.57441   0.17376  -2.30615
  -5.33499   0.17376  -2.30615
  -5.33499  -0.06566  -2.30615
  -5.33499   0.17376  -2.06673
  -5.33499  -0.06566  -2.06673
  -5.09557  -0.06566  -2.06673
  -5.09557  -0.06566  -2.06673
  -5.09557  -0.06566  -2.06673
  -5.09557  -0.06566  -1.82731
  -5.09557  -0.06566  -1.82731
  -4.85615  -0.06566  -1.82731
  -4.85615  -0.06566  -1.82731
  -4.85615  -0.30508  -1.58789
  -4.61673  -0.30508  -1.58789
  -4.61673  -0.30508  -1.58789
  -4.61673  -0.06566  -1.58789
  -4.37731  -0.30508  -1.58789
  -4.13788  -0.30508  -1.34847
  -4.13788  -0.30508  -1.34847
  -4.13788  -0.30508  -1.34847
  -3.89846  -0.30508  -1.34847
  -3.89846  -0.30508  -1.10905
  -3.65904  -0.30508  -1.10905
  -3.65904  -0.30508  -1.10905
  -3.65904  -0.54450  -0.86963
  -3.41962  -0.54450  -0.86963
  -3.41962  -0.54450  -0.86963
  -3.41962  -0.54450  -0.86963
  -3.18020  -0.30508  -0.86963
  -2.94078  -0.30508  -0.86963
  -2.94078  -0.54450  -1.10905
  -2.70136  -0.54450  -0.86963
  -2.70136  -0.54450  -0.86963
  -2.46194  -0.30508  -0.86963
  -2.22252  -0.30508  -0.86963
  -2.22252  -0.30508  -1.10905
  -1.98310  -0.54450  -1.10905
  -1.98310  -0.54450  -1.34847
  -1.74368  -0.30508  -1.34847
  -1.50426  -0.30508  -1.34847
  -1.26484  -0.30508  -1.34847
  -1.26484  -0.54450  -1.58789
  -1.02542  -0.54450  -1.58789
  -0.78600  -0.54450  -1.82731
  -0.78600  -0.54450  -1.82731
  -0.54658  -0.30508  -2.06673
  -0.30716  -0.54450  -2.06673
  -0.30716  -0.54450  -2.06673
  -0.06774  -0.54450  -2.30615
   0.17168  -0.54450  -2.54557
   0.41110  -0.54450  -2.54557
   0.41110  -0.54450  -2.54557
   0.65052  -0.30508  -2.78499
   0.88994  -0.54450  -2.78499
   1.12936  -0.30508  -3.02441
   1.12936  -0.30508  -3.02441
   1.60820  -0.30508  -3.02441
   1.60820  -0.06566  -3.26383
   1.84762  -0.30508  -3.50325
   2.08704  -0.30508  -3.50325
   2.32646  -0.30508  -3.50325
   2.32646  -0.30508  -3.74267
   2.56588  -0.30508  -3.98209
   2.80530  -0.30508  -3.98209
   2.80530  -0.30508  -4.22151
   3.04472  -0.30508  -4.22151
   3.04472  -0.30508  -4.46093
   3.28414  -0.30508  -4.46093
   3.28414  -0.30508  -4.46093
   3.28414  -0.30508  -4.70035
   3.52356  -0.54450  -4.70035
   3.52356  -0.54450  -4.93978
   3.52356  -0.54450  -4.93978
   3.76298  -0.54450  -4.93978
   3.76298  -0.54450  -5.17920
   3.76298  -0.78392  -5.41862
   3.76298  -0.78392  -5.41862
   3.76298  -1.02334  -5.65804
   3.76298  -1.02334  -5.65804
   4.00240  -1.02334  -5.89746
   3.76298  -1.02334  -5.89746
   3.76298  -1.02334  -6.13688
   3.76298  -1.02334  -6.13688
   3.76298  -1.02334  -6.37630
   3.76298  -1.26276  -6.37630
   3.76298  -1.26276  -6.61572
   3.76298  -1.26276  -6.61572
   3.52356  -1.26276  -6.61572
   3.52356  -1.50218  -6.85514
   3.52356  -1.50218  -6.85514
   3.52356  -1.50218  -6.85514
   3.28414  -1.50218  -6.85514
   3.28414  -1.50218  -7.09456
   3.04472  -1.50218  -7.09456
   3.04472  -1.50218  -7.09456
   2.80530  -1.50218  -7.09456
   2.56588  -1.50218  -7.09456
   2.56588  -1.50218  -7.09456
   2.56588  -1.50218  -7.09456
   2.08704  -1.74160  -7.33398
   2.08704  -1.50218  -7.33398
   1.84762  -1.50218  -7.33398
   1.84762  -1.50218  -7.33398
   1.60820  -1.50218  -7.33398
   1.60820  -1.50218  -7.33398
   1.36878  -1.50218  -7.33398
   1.36878  -1.50218  -7.33398
   1.12936  -1.50218  -7.33398
   0.88994  -1.26276  -7.33398
   0.65052  -1.26276  -7.09456
   0.65052  -1.50218  -7.09456
   0.41110  -1.50218  -7.09456
   0.17168  -1.26276  -7.09456
   0.17168  -1.50218  -6.85514
  -0.30716  -1.50218  -6.85514
  -0.30716  -1.26276  -6.85514
  -0.54658  -1.26276  -6.85514
  -0.54658  -1.26276  -6.61572
  -0.78600  -1.50218  -6.61572
  -0.78600  -1.50218  -6.61572
  -1.02542  -1.26276  -6.37630
  -1.26484  -1.26276  -6.37630
  -1.26484  -1.26276  -6.37630
  -1.74368  -1.26276  -6.13688
  -1.74368  -1.26276  -5.89746
  -1.98310  -1.26276  -5.89746
  -2.22252  -1.26276  -5.65804
  -2.22252  -1.26276  -5.65804
  -2.46194  -1.26276  -5.41862
  -2.70136  -1.26276  -5.41862
  -2.70136  -1.26276  -5.17920
  -2.94078  -1.50218  -5.17920
  -2.94078  -1.26276  -4.93978
  -3.18020  -1.26276  -4.70035
  -3.18020  -1.26276  -4.70035
  -3.41962  -1.26276  -4.46093
  -3.41962  -1.26276  -4.22151
  -3.65904  -1.26276  -3.98209
  -3.65904  -1.50218  -3.74267
  -3.65904  -1.50218  -3.74267
  -3.89846  -1.26276  -3.50325
  -3.89846  -1.50218  -3.26383
  -4.13788  -1.50218  -3.26383
  -4.13788  -1.50218  -2.78499
  -4.13788  -1.50218  -2.54557
  -4.13788  -1.50218  -2.30615
  -4.13788  -1.50218  -2.30615
  -4.13788  -1.74160  -2.06673
  -4.13788  -1.50218  -1.82731
  -4.37731  -1.74160  -1.58789
  -4.37731  -1.74160  -1.34847
  -4.13788  -1.74160  -1.58789
  -4.37731  -1.50218  -0.86963
  -4.13788  -1.74160  -0.86963
  -4.37731  -1.50218  -0.63021
  -4.13788  -1.50218  -0.15137
  -4.13788  -1.74160   0.08805
  -4.13788  -1.74160   0.08805
  -4.13788  -1.98102   0.56689
  -4.13788  -1.98102   0.80631
  -4.13788  -1.74160   0.80631
  -4.13788  -1.74160   1.28515
  -4.13788  -1.74160   1.52457
  -4.13788  -1.74160   1.76399
  -3.89846  -1.98102   2.00341
  -3.89846  -1.74160   2.24283
  -3.89846  -1.98102   2.24283
  -3.89846  -1.74160   2.48225
  -3.65904  -1.98102   2.72167
  -3.65904  -1.98102   3.20051
  -3.41962  -1.98102   3.20051
  -3.41962  -1.74160   3.43993
  -3.41962  -1.74160   3.67935
  -3.18020  -1.74160   4.15819
  -3.18020  -1.74160   4.15819
  -3.18020  -1.74160   4.39761
  -2.94078  -1.74160   4.63703
  -2.70136  -1.74160   4.87645
  -2.70136  -1.74160   4.87645
  -2.46194  -1.50218   5.11587
  -2.46194  -1.50218   5.35529
  -2.22252  -1.74160   5.35529
  -1.98310  -1.74160   5.59471
  -1.98310  -1.74160   5.83413
  -1.98310  -1.74160   5.83413
  -1.74368  -1.74160   6.07355
  -1.50426  -1.74160   6.31297
  -1.50426  -1.50218   6.31297
  -1.26484  -1.74160   6.55239
  -1.26484  -1.74160   6.79181
  -1.02542  -1.74160   6.79181
  -0.78600  -1.50218   6.79181
  -0.78600  -1.50218   7.03123
  -0.78600  -1.74160   7.03123
  -0.78600  -1.50218   7.27065
  -0.54658  -1.74160   7.27065
  -0.30716  -1.50218   7.51007
  -0.30716  -1.50218   7.51007
  -0.30716  -1.50218   7.74949
  -0.06774  -1.50218   7.74949
   0.17168  -1.50218   7.98891
   0.17168  -1.50218   7.98891
   0.17168  -1.26276   8.22833
   0.41110  -1.26276   8.22833
   0.41110  -1.50218   8.46775
   0.65052  -1.26276   8.46775
   0.65052  -1.26276   8.70717
   0.65052  -1.50218   8.70717
   0.65052  -1.26276   8.94659
   0.65052  -1.26276   8.94659
   0.65052  -1.26276   8.94659
   0.88994  -1.02334   9.18601
   0.88994  -1.02334   9.18601
   0.88994  -1.02334   9.42543
   0.88994  -1.02334   9.42543
   0.88994  -1.02334   9.42543
   0.88994  -1.02334   9.66486
   0.88994  -0.78392   9.66486
   0.88994  -0.78392   9.66486
   0.88994  -0.54450   9.66486
   0.88994  -0.54450   9.90428
   0.88994  -0.54450   9.90428
   0.65052  -0.54450   9.90428
   0.65052  -0.54450   9.90428
   0.65052  -0.30508   9.90428
   0.65052  -0.30508   9.90428
   0.65052  -0.30508   9.90428
   0.65052  -0.30508   9.90428
   0.65052  -0.06566   9.90428
   0.41110  -0.06566   9.90428
   0.41110  -0.06566  10.14370
   0.41110  -0.06566   9.90428
   0.41110  -0.06566   9.90428
   0.41110   0.17376   9.90428
   0.17168   0.17376   9.90428
   0.17168   0.17376   9.90428
   0.17168   0.17376   9.90428
   0.17168   0.17376   9.90428
  -0.06774   0.41318   9.90428
  -0.06774   0.41318   9.66486
  -0.06774   0.41318   9.66486
  -0.30716   0.41318   9.66486
  -0.30716   0.41318   9.66486
  -0.30716   0.65260   9.66486
  -0.30716   0.65260   9.42543
  -0.30716   0.41318   9.42543
  -0.30716   0.65260   9.42543
  -0.30716   0.89202   9.42543
  -0.30716   0.89202   9.18601
  -0.30716   0.89202   9.18601
  -0.30716   0.89202   9.18601
  -0.30716   0.89202   9.18601
  -0.30716   1.13145   8.94659
  -0.30716   0.89202   8.94659
  -0.30716   1.13145   9.18601
  -0.30716   1.13145   8.94659
  -0.30716   1.13145   8.70717
  -0.30716   1.37087   8.70717
  -0.30716   1.37087   8.70717
  -0.30716   1.37087   8.46775
  -0.30716   1.37087   8.46775
  -0.30716   1.37087   8.46775
  -0.06774   1.37087   8.46775
  -0.06774   1.37087   8.22833
  -0.06774   1.37087   8.22833
  -0.30716   1.61029   7.98891
  -0.06774   1.84971   7.98891
  -0.06774   1.61029   7.98891
  -0.06774   1.61029   7.74949
  -0.06774   1.61029   7.74949
  -0.06774   1.84971   7.74949
  -0.06774   1.84971   7.51007
  -0.06774   1.84971   7.27065
  -0.06774   1.84971   7.27065
  -0.06774   1.84971   7.03123
  -0.06774   1.84971   7.03123
  -0.06774   1.84971   6.79181
  -0.30716   1.84971   6.55239
  -0.30716   2.08913   6.55239
  -0.30716   2.08913   6.31297
  -0.30716   2.08913   6.31297
  -0.06774   1.84971   6.07355
  -0.30716   2.08913   5.83413
  -0.30716   2.08913   5.59471
  -0.30716   1.84971   5.59471
  -0.54658   1.84971   5.35529
  -0.54658   2.08913   5.35529
  -0.54658   1.84971   5.11587
  -0.54658   2.08913   5.11587
  -0.54658   1.84971   4.87645
  -0.78600   1.84971   4.63703
  -0.78600   1.84971   4.39761
  -0.78600   1.84971   4.39761
  -0.78600   1.84971   4.39761
  -0.78600   1.84971   4.15819
  -1.02542   1.84971   4.15819
  -1.02542   1.61029   3.91877
  -1.02542   1.61029   3.91877
  -1.26484   1.61029   3.67935
  -1.26484   1.61029   3.67935
  -1.26484   1.84971   3.43993
  -1.26484   1.61029   3.67935
  -1.50426   1.61029   3.43993
  -1.50426   1.61029   3.43993
  -1.74368   1.61029   3.20051
  -1.74368   1.37087   3.20051
  -1.74368   1.61029   3.20051
  -1.74368   1.37087   2.96109
  -1.98310   1.61029   2.96109
  -1.98310   1.61029   2.96109
  -2.22252   1.61029   2.72167
  -2.22252   1.61029   2.72167
  -2.46194   1.61029   2.72167
  -2.46194   1.61029   2.72167
  -2.46194   1.61029   2.72167
  -2.46194   1.37087   2.72167
  -2.70136   1.61029   2.72167
  -2.94078   1.61029   2.72167
  -2.94078   1.61029   2.72167
  -3.18020   1.61029   2.72167
  -3.18020   1.61029   2.72167
  -3.18020   1.61029   2.48225
  -3.41962   1.61029   2.48225
  -3.41962   1.37087   2.48225
  -3.41962   1.37087   2.72167
  -3.65904   1.61029   2.48225
  -3.65904   1.61029   2.48225
  -3.65904   1.61029   2.48225
  -3.89846   1.61029   2.48225
  -3.89846   1.37087   2.48225
  -3.89846   1.37087   2.48225
  -4.13788   1.37087   2.48225
  -3.89846   1.37087   2.48225
  -4.13788   1.37087   2.48225
  -4.13788   1.37087   2.48225
  -4.13788   1.37087   2.24283
  -4.13788   1.37087   2.24283
  -4.13788   1.37087   2.24283
  -4.37731   1.37087   2.24283
  -4.37731   1.37087   2.00341
  -4.37731   1.37087   2.24283
  -4.37731   1.37087   2.00341
  -4.61673   1.37087   2.00341
  -4.61673   1.37087   2.00341
  -4.61673   1.37087   2.00341
  -4.61673   1.13145   1.76399
  -4.61673   1.13145   1.76399
  -4.61673   1.13145   1.76399
  -4.61673   1.37087   1.52457
  -4.61673   1.37087   1.52457
  -4.61673   1.13145   1.52457
  -4.61673   1.13145   1.52457
  -4.61673   1.13145   1.52457
  -4.61673   1.13145   1.28515
  -4.85615   1.13145   1.28515
  -4.61673   1.13145   1.28515
  -4.85615   1.13145   1.04573
  -4.61673   1.13145   1.04573
  -5.09557   1.13145   1.04573
  -4.85615   1.13145   0.80631
  -4.85615   1.13145   1.04573
  -4.85615   1.13145   0.80631
  -4.85615   0.89202   0.80631
  -4.85615   0.89202   0.80631
  -4.85615   0.89202   0.56689
  -4.85615   0.89202   0.56689
  -4.85615   0.89202   0.32747
  -4.85615   0.89202   0.32747
  -4.85615   0.89202   0.32747
  -4.85615   0.89202   0.32747
  -4.85615   0.89202   0.08805
  -4.85615   0.89202   0.08805
  -4.85615   0.89202   0.08805
  -4.85615   0.89202  -0.15137
  -4.85615   0.89202  -0.15137
  -4.85615   0.89202  -0.15137
  -4.61673   0.89202  -0.39079
  -4.61673   0.89202  -0.39079
  -4.61673   0.89202  -0.39079
  -4.61673   0.89202  -0.63021
