********************************************************************************
               CENTRO DE INSTRUMENTACION Y REGISTRO SISMICO  A.C.  
                       Coordinacion de Servicios Tecnicos
     Anaxagoras 814, Col. Narvarte, Benito Juarez, C.P. 03020 Mexico, D.F.
            Tels. 667 45 42/ 687 45  82             Fax. 669 25 12
********************************************************************************
ARCHIVO ESTANDAR DE ACELERACION:
VERSION DEL FORMATO                    : 2.0
NOMBRE DEL ARCHIVO                     : AU119906.151
FECHA Y HORA DE CREACION               : 16/FEBRERO/2000, 10:10
REF. CATALOGO ACELEROGRAMAS, SMIS 1996 : REGISTRO No.     /PAG.


================================================================================
DATOS DE LA ESTACION:
NOMBRE DE LA ESTACION                  : AUTODROMO
CLAVE DE LA ESTACION                   : AU11
LOCALIZACION DE LA ESTACION            : AUTODROMO HERMANOS RODRIGUEZ,
                                       : CHURUBUSCO, CD. DEPORTIVA
                                       :
                                       :
                                       :
COORDENADAS DE LA ESTACION             : 19.392 LAT. N 
                                       : 99.087 LONG. W 
ALTITUD (msnm)                         : 2234
TIPO DE SUELO                          : TERRENO BLANDO, MATERIAL COMPRESIBLE
                                       : (ARCILLAS)
                                       : 
INSTITUCION RESPONSABLE                : CIRES 
                                       :

================================================================================
DATOS DEL ACELEROGRAFO:
MODELO DEL ACELEROGRAFO                : SSA-1
NUMERO DE SERIE DEL ACELEROGRAFO       : 157
NUMERO DE CANALES                      : 3
ORIENTACION C1-C6 (rumbo;orientacion)  : /N00E/+V/N90E
ORIENTACION C7-C12 (rumbo;orientacion) :
VEL. DE MUESTREO, C1-C6 (muestras/s)   : /200/200/200
VEL. DE MUESTREO, C7-C12 (muestras/s)  :
ESC. COMPLETA DE SENSORES, C1-C6, (g)  : /2/2/2
ESC. COMPLETA DE SENSORES, C7-C12, (g) :
FREC. NAT. DE SENSORES, C1-C6, (Hz)    : /51.77/52.56/52.29
FREC. NAT. DE SENSORES, C7-C12, (Hz)   :
AMORTIGUAMIENTO DE SENSORES, C1-C6     : /.5912/.6083/.6067
AMORTIGUAMIENTO DE SENSORES, C7-C12    :
INTERVALO DE MUESTREO, C1-C6, (s)      : /0.005/0.005/0.005
INTERVALO DE MUESTREO, C7-C12, (s)     :
UMBRAL DE DISPARO, C1-C6, (Gal)        : /2/2/2
UMBRAL DE DISPARO, C7-C12, (Gal)       :
MEMORIA DE PREEVENTO (s)               : 15
TIEMPO DE POSEVENTO (s)                : 60


================================================================================
DATOS DEL SISMO:
FECHA DEL SISMO (GMT)                  : 15/JUN/99
HORA EPICENTRO (GMT)                   : 20:42:07.1
MAGNITUD(ES)                           : /Mb=6.4/Ms=6.5/Me=7.0
COORDENADAS DEL EPICENTRO              : 18.18 LAT. N
                                       : 97.51 LONG. W
PROFUNDIDAD FOCAL (km)                 : 69.0
FUENTE DE LOS DATOS EPICENTRALES       : SSN
                                       : INSTITUTO DE GEOFISICA, UNAM

================================================================================
DATOS DE ESTE REGISTRO:
HORA DE LA PRIMERA MUESTRA (GMT)       : 22:42:55.00
EXACTITUD DEL TIEMPO (s)               :     
DURACION DEL REGISTRO (s), C1-C6       : /277.76/277.76/277.76
DURACION DEL REGISTRO (s), C7-C12      :
NUM. TOTAL DE MUESTRAS, C1-C6          : /55552/55552/55552
NUM. TOTAL DE MUESTRAS, C7-C12         :
ACEL. MAX. (Gal), C1-C6                : /21.72395/6.33434/17.69330
ACEL. MAX., C1-C6, EN LA MUESTRA       :
ACEL. MAX. (Gal), C7-C12               :
ACEL. MAX., C7-C12, EN LA MUESTRA      :
UNIDADES DE LOS DATOS                  : Gal (cm/s/s)
FACTOR DE DECIMACION                   : 1
FORMATO DATOS (FORTRAN,10 campos/dato) : 3F10.5


================================================================================
CALIDAD DEL ACELEROGRAMA:
REGISTRO DIGITAL COMPLETO, CARECE DE TIEMPO ABSOLUTO.


================================================================================
COMENTARIOS:














================================================================================
DATOS DE ACELERACION:
---------+---------+---------+---------+---------+---------+---------+---------+
   CANAL-1   CANAL-2   CANAL-3   CANAL-4   CANAL-5   CANAL-6   CANAL-7   CANAL-8
      N00E        +V      N90E
---------+---------+---------+---------+---------+---------+---------+---------+
[...]
   6.87395   0.34434   3.62670
   6.87395   0.34434   3.38670
   6.87395   0.10434   3.38670
   7.11395  -0.13566   3.14670
   7.11395  -0.13566   2.90670
   7.11395  -0.37566   2.66670
   7.11395  -0.61566   2.66670
   7.11395  -0.61566   2.42670
   7.11395  -0.61566   2.18670
   7.11395  -0.85566   2.18670
   7.11395  -0.85566   1.94670
   6.87395  -0.85566   1.70670
   6.87395  -0.85566   1.70670
   6.87395  -0.85566   1.47670
   6.87395  -0.85566   1.47670
   6.63395  -0.85566   1.23670
   6.39395  -1.09566   1.23670
   6.39395  -1.09566   0.99670
   6.15395  -1.33566   0.99670
   5.91395  -1.33566   0.75670
   5.91395  -1.33566   0.75670
   5.67395  -1.57566   0.75670
   5.43395  -1.57566   0.75670
   5.19395  -1.57566   0.51670
   4.95395  -1.57566   0.51670
   4.95395  -1.57566   0.27670
   4.71395  -1.33566   0.27670
   4.47395  -1.33566   0.27670
   4.47395  -1.33566   0.27670
   4.23395  -1.33566   0.27670
   3.99395  -1.09566   0.27670
   3.99395  -1.09566   0.03670
   3.75395  -1.09566   0.03670
   3.51395  -0.85566   0.03670
   3.51395  -0.85566   0.03670
   3.27395  -0.85566   0.03670
   3.03395  -0.85566   0.03670
   3.03395  -0.85566   0.03670
   2.80395  -0.61566   0.03670
   2.56395  -0.61566   0.03670
   2.56395  -0.61566   0.03670
   2.56395  -0.61566   0.03670
   2.32395  -0.61566   0.03670
   2.32395  -0.61566   0.27670
   2.08395  -0.61566   0.27670
   1.84395  -0.61566   0.27670
   1.84395  -0.85566   0.27670
   1.84395  -0.85566   0.51670
   1.60395  -0.85566   0.51670
   1.12395  -1.09566   0.51670
   1.36395  -1.09566   0.75670
   1.36395  -0.85566   0.51670
   1.12395  -0.85566   0.75670
   1.12395  -0.85566   0.75670
   0.88395  -0.85566   0.75670
   0.88395  -0.85566   0.75670
   0.64395  -0.85566   0.75670
   0.64395  -0.85566   0.75670
   0.40395  -0.61566   0.75670
   0.40395  -0.61566   0.51670
   0.16395  -0.61566   0.51670
   0.16395  -0.61566   0.51670
  -0.07605  -0.61566   0.27670
  -0.31605  -0.61566   0.27670
  -0.31605  -0.61566   0.27670
  -0.55605  -0.61566   0.03670
  -0.55605  -0.61566   0.03670
  -0.79605  -0.61566  -0.20330
  -1.03605  -0.61566  -0.20330
  -1.27605  -0.61566  -0.44330
  -1.27605  -0.61566  -0.44330
  -1.75605  -0.61566  -0.68330
  -1.99605  -0.85566  -0.68330
  -2.22605  -0.85566  -0.92330
  -2.46605  -0.85566  -1.16330
  -2.70605  -0.85566  -1.16330
  -2.94605  -1.09566  -1.40330
  -2.94605  -1.09566  -1.64330
  -3.42605  -1.09566  -1.64330
  -3.66605  -1.33566  -1.88330
  -3.66605  -1.33566  -2.12330
  -3.90605  -1.33566  -2.12330
  -4.14605  -1.57566  -2.36330
  -4.38605  -1.57566  -2.60330
  -4.62605  -1.57566  -2.60330
  -4.86605  -1.80566  -2.60330
  -4.86605  -1.80566  -2.84330
  -5.10605  -1.80566  -3.08330
  -5.34605  -1.80566  -3.08330
  -5.58605  -1.80566  -3.32330
  -5.82605  -1.80566  -3.32330
  -6.06605  -1.80566  -3.55330
  -6.06605  -1.80566  -3.55330
  -6.30605  -1.80566  -3.79330
  -6.54605  -2.04566  -3.79330
  -6.78605  -2.04566  -4.03330
  -7.01605  -2.04566  -4.03330
  -7.25605  -2.04566  -4.27330
  -7.25605  -2.28566  -4.27330
  -7.49605  -2.28566  -4.51330
  -7.73605  -2.28566  -4.75330
  -7.97605  -2.52566  -4.99330
  -7.97605  -2.28566  -4.99330
  -8.21605  -2.28566  -5.23330
  -8.45605  -2.28566  -5.47330
  -8.69605  -2.28566  -5.71330
  -8.93605  -2.28566  -5.95330
  -8.93605  -2.04566  -6.19330
  -9.17605  -2.04566  -6.43330
  -9.41605  -2.04566  -6.67330
  -9.65605  -2.28566  -6.67330
  -9.89605  -2.04566  -6.91330
  -9.89605  -2.28566  -7.15330
 -10.37605  -2.28566  -7.39330
 -10.61605  -2.28566  -7.87330
 -10.61605  -2.52566  -7.87330
 -10.85605  -2.52566  -7.87330
 -11.09605  -2.52566  -8.11330
 -11.33605  -2.76566  -8.34330
 -11.33605  -2.76566  -8.34330
 -11.57605  -2.76566  -8.34330
 -11.57605  -2.76566  -8.58330
 -11.80605  -2.76566  -8.58330
 -11.80605  -2.76566  -8.82330
 -12.04605  -2.76566  -8.82330
 -12.04605  -2.76566  -8.82330
 -12.04605  -3.00566  -9.06330
 -12.28605  -2.52566  -9.06330
 -12.04605  -2.52566  -9.06330
 -12.28605  -2.28566  -9.06330
 -12.28605  -2.28566  -9.06330
 -12.28605  -2.04566  -9.06330
 -12.28605  -2.04566  -9.06330
 -12.28605  -2.04566  -9.06330
 -12.28605  -2.04566  -9.06330
 -12.04605  -1.80566  -9.06330
 -12.04605  -1.57566  -9.06330
 -12.04605  -1.57566  -9.06330
 -12.04605  -1.57566  -9.06330
 -12.04605  -1.33566  -9.06330
 -12.04605  -1.33566  -8.82330
 -12.04605  -1.33566  -8.82330
 -12.04605  -1.09566  -9.06330
 -12.04605  -1.09566  -8.82330
 -12.04605  -1.09566  -8.82330
 -12.04605  -1.09566  -8.82330
 -12.04605  -1.09566  -8.82330
 -12.04605  -1.33566  -8.82330
 -12.04605  -1.33566  -8.58330
 -12.04605  -1.33566  -8.58330
 -12.04605  -1.33566  -8.58330
 -12.04605  -1.33566  -8.58330
 -12.04605  -1.33566  -8.58330
 -12.28605  -1.33566  -8.34330
 -12.28605  -1.33566  -8.34330
 -12.28605  -1.09566  -8.34330
 -12.28605  -1.33566  -8.34330
 -12.52605  -1.09566  -8.34330
 -12.52605  -1.09566  -8.34330
 -12.52605  -1.09566  -8.11330
 -12.52605  -1.09566  -8.11330
 -12.52605  -1.09566  -8.11330
 -12.52605  -0.85566  -8.11330
 -12.52605  -0.85566  -7.87330
 -12.76605  -0.61566  -7.87330
 -12.52605  -0.61566  -7.87330
 -12.52605  -0.61566  -7.63330
 -12.52605  -0.61566  -7.63330
 -12.52605  -0.37566  -7.63330
 -12.28605  -0.37566  -7.39330
 -12.28605  -0.37566  -7.15330
 -12.04605  -0.13566  -7.15330
 -12.04605  -0.13566  -6.91330
 -11.80605  -0.13566  -6.91330
 -11.80605  -0.13566  -6.67330
 -11.57605  -0.13566  -6.43330
 -11.57605  -0.37566  -6.19330
 -11.33605  -0.37566  -5.95330
 -11.33605  -0.37566  -5.95330
 -11.33605  -0.37566  -5.71330
 -10.85605  -0.37566  -5.47330
 -10.85605  -0.37566  -5.23330
 -10.61605  -0.61566  -4.99330
 -10.61605  -0.61566  -4.99330
 -10.37605  -0.61566  -4.51330
 -10.13605  -0.61566  -4.51330
 -10.13605  -0.61566  -4.27330
  -9.89605  -0.61566  -4.27330
  -9.89605  -0.61566  -4.03330
  -9.65605  -0.61566  -4.03330
  -9.41605  -0.61566  -3.79330
  -9.41605  -0.61566  -3.79330
  -9.17605  -0.61566  -3.79330
  -8.93605  -0.61566  -3.55330
  -8.93605  -0.61566  -3.55330
  -8.69605  -0.61566  -3.55330
  -8.69605  -0.85566  -3.55330
  -8.45605  -0.61566  -3.55330
  -8.45605  -0.61566  -3.55330
  -8.21605  -0.61566  -3.55330
  -8.21605  -0.61566  -3.55330
  -7.97605  -0.85566  -3.55330
  -7.97605  -0.85566  -3.55330
  -7.97605  -0.85566  -3.55330
  -7.97605  -0.85566  -3.79330
  -7.97605  -0.85566  -3.79330
  -7.97605  -0.85566  -3.79330
  -7.97605  -0.85566  -3.79330
  -7.73605  -0.85566  -4.03330
  -7.97605  -0.85566  -4.03330
  -7.73605  -0.85566  -4.27330
  -7.73605  -0.61566  -4.03330
  -7.73605  -0.61566  -4.03330
  -7.73605  -0.61566  -4.03330
  -7.49605  -0.37566  -4.27330
  -7.49605  -0.37566  -4.27330
  -7.49605  -0.37566  -4.27330
  -7.49605  -0.37566  -4.27330
  -7.49605  -0.13566  -4.51330
  -7.49605  -0.13566  -4.27330
  -7.25605  -0.13566  -4.27330
  -7.25605  -0.13566  -4.27330
  -7.25605  -0.13566  -4.03330
  -7.25605  -0.13566  -4.03330
  -7.25605  -0.13566  -4.03330
  -7.25605   0.10434  -4.03330
  -7.01605   0.10434  -3.79330
  -7.01605   0.10434  -3.79330
  -7.01605   0.34434  -3.55330
  -7.01605   0.34434  -3.55330
  -6.78605   0.34434  -3.32330
  -6.78605   0.34434  -3.32330
  -6.78605   0.58434  -3.08330
  -6.54605   0.58434  -3.55330
  -6.30605   0.58434  -3.08330
  -6.30605   0.82434  -2.84330
  -6.30605   0.82434  -2.84330
  -6.06605   0.82434  -2.60330
  -6.06605   1.06434  -2.60330
  -5.82605   1.06434  -2.60330
  -5.58605   1.06434  -2.36330
  -5.58605   1.06434  -2.36330
  -5.34605   1.06434  -2.36330
  -5.10605   1.30434  -2.12330
  -4.86605   1.30434  -2.12330
  -4.86605   1.30434  -2.12330
  -4.62605   1.54434  -2.12330
  -4.38605   1.54434  -2.12330
  -4.38605   1.78434  -2.12330
  -4.14605   1.78434  -1.88330
  -3.90605   2.02434  -1.88330
  -3.66605   2.02434  -1.88330
  -3.66605   2.02434  -1.88330
  -3.42605   2.26434  -1.88330
  -3.18605   2.26434  -1.88330
  -3.18605   2.26434  -1.64330
  -2.94605   2.50434  -1.64330
  -2.70605   2.50434  -1.64330
  -2.46605   2.74434  -1.64330
  -2.46605   2.74434  -1.40330
  -2.22605   2.74434  -1.40330
  -1.99605   2.98434  -1.40330
  -1.99605   2.98434  -1.40330
  -1.75605   2.98434  -1.16330
  -1.51605   2.98434  -1.16330
  -1.27605   3.21434  -1.16330
  -1.27605   3.21434  -1.16330
  -1.03605   3.21434  -1.16330
  -0.79605   3.21434  -1.16330
  -0.55605   3.45434  -1.16330
  -0.31605   3.45434  -1.16330
  -0.07605   3.45434  -1.16330
   0.16395   3.45434  -1.16330
   0.16395   3.21434  -1.16330
   0.64395   3.21434  -1.16330
   0.64395   3.21434  -1.16330
   0.88395   3.21434  -1.16330
   1.36395   3.21434  -1.16330
   1.60395   3.21434  -1.16330
   1.84395   3.21434  -1.16330
   2.08395   3.21434  -1.40330
   2.32395   2.98434  -1.40330
   2.56395   2.98434  -1.64330
   2.80395   2.98434  -1.64330
   3.27395   2.98434  -1.64330
   3.51395   2.98434  -1.88330
   3.51395   2.74434  -1.88330
   3.99395   2.98434  -1.88330
   4.23395   2.74434  -2.12330
   4.47395   2.74434  -2.12330
   4.95395   2.50434  -2.36330
   5.19395   2.50434  -2.36330
   5.43395   2.26434  -2.60330
   5.67395   2.26434  -2.60330
   5.91395   2.02434  -2.84330
   6.39395   2.02434  -2.84330
   6.63395   2.02434  -2.84330
   7.11395   2.02434  -3.08330
   7.35395   1.78434  -3.08330
   7.82395   1.78434  -3.32330
   8.06395   1.78434  -3.32330
   8.30395   1.78434  -3.55330
   8.78395   1.78434  -3.55330
   9.02395   1.78434  -3.55330
   9.26395   1.78434  -3.55330
   9.74395   1.54434  -3.55330
   9.98395   1.54434  -3.55330
  10.46395   1.54434  -3.79330
  10.70395   1.54434  -3.79330
  11.18395   1.54434  -3.79330
  11.42395   1.30434  -4.03330
  11.66395   1.30434  -3.79330
  12.14395   1.30434  -3.79330
  12.38395   1.30434  -4.03330
  12.61395   1.06434  -4.03330
  13.09395   1.30434  -4.03330
  13.33395   1.06434  -4.03330
  13.81395   1.06434  -4.03330
  14.05395   1.06434  -4.27330
  14.29395   1.06434  -4.27330
  14.77395   0.82434  -4.27330
  15.01395   0.82434  -4.51330
  15.25395   0.82434  -4.51330
  15.73395   0.58434  -4.51330
  15.97395   0.58434  -4.75330
  16.21395   0.34434  -4.75330
  16.45395   0.34434  -4.99330
  16.93395   0.34434  -4.99330
  17.17395   0.10434  -4.99330
  17.40395   0.10434  -5.23330
  17.64395  -0.13566  -5.23330
  17.88395  -0.13566  -5.23330
  18.36395  -0.37566  -5.47330
  18.60395  -0.37566  -5.47330
  18.84395  -0.37566  -5.47330
  19.08395  -0.61566  -5.71330
  19.32395  -0.61566  -5.71330
  19.56395  -0.61566  -5.71330
  19.80395  -0.85566  -5.95330
  20.04395  -0.85566  -5.95330
  20.28395  -0.85566  -5.95330
  20.28395  -0.85566  -5.95330
  20.52395  -0.85566  -5.95330
  20.76395  -0.85566  -5.95330
  21.00395  -0.85566  -6.19330
  21.00395  -0.85566  -6.19330
  21.24395  -0.85566  -6.19330
  21.48395  -0.85566  -6.19330
  21.48395  -0.85566  -6.43330
  21.72395  -0.85566  -6.43330
  21.72395  -0.85566  -6.43330
  21.72395  -0.85566  -6.43330
  21.72395  -0.61566  -6.43330
  21.72395  -0.85566  -6.67330
  21.72395  -0.61566  -6.19330
  21.72395  -0.61566  -6.19330
  21.72395  -0.61566  -6.19330
  21.72395  -0.61566  -6.19330
  21.72395  -0.61566  -6.19330
  21.48395  -0.85566  -6.19330
  21.48395  -0.85566  -6.19330
  21.24395  -0.85566  -5.95330
  21.00395  -0.85566  -5.95330
  20.76395  -1.09566  -5.95330
  20.76395  -1.09566  -5.95330
  20.28395  -1.09566  -5.95330
  20.04395  -1.33566  -5.95330
  19.80395  -1.33566  -5.95330
  19.56395  -1.57566  -5.95330
  19.32395  -1.57566  -5.95330
  18.84395  -1.57566  -5.71330
  18.60395  -1.57566  -5.71330
  18.36395  -1.57566  -5.71330
  17.88395  -1.57566  -5.71330
  17.64395  -1.33566  -5.71330
  17.17395  -1.09566  -5.71330
  16.93395  -1.09566  -5.47330
  16.45395  -1.09566  -5.47330
  15.97395  -0.85566  -5.47330
  15.73395  -0.85566  -5.47330
  15.25395  -0.61566  -5.47330
  15.01395  -0.61566  -5.23330
  14.53395  -0.61566  -5.23330
  14.05395  -0.61566  -5.23330
  13.81395  -0.85566  -5.23330
  13.33395  -0.85566  -5.23330
  13.09395  -0.85566  -5.23330
  12.61395  -0.85566  -5.23330
  12.38395  -1.09566  -5.23330
  12.14395  -1.09566  -5.23330
  11.66395  -1.09566  -5.23330
  11.42395  -1.09566  -4.99330
  10.94395  -1.09566  -4.99330
  10.70395  -1.09566  -4.99330
  10.22395  -1.09566  -4.75330
   9.98395  -1.09566  -4.75330
   9.74395  -1.09566  -4.51330
   9.26395  -1.09566  -4.51330
   8.78395  -1.09566  -4.27330
   8.54395  -1.09566  -4.27330
   8.30395  -1.09566  -4.03330
   7.82395  -1.09566  -3.79330
   7.35395  -0.85566  -3.79330
   6.87395  -0.85566  -3.55330
   6.63395  -0.85566  -3.55330
   6.39395  -0.85566  -3.32330
   5.91395  -0.85566  -3.32330
   5.43395  -0.85566  -3.08330
   5.19395  -0.85566  -3.08330
   4.71395  -1.09566  -3.08330
   4.23395  -1.09566  -2.84330
   3.99395  -1.09566  -2.84330
   3.51395  -1.09566  -2.84330
   3.03395  -1.09566  -2.60330
   2.80395  -0.85566  -2.60330
   2.56395  -0.85566  -2.60330
   2.08395  -0.85566  -2.60330
   1.84395  -0.85566  -2.36330
   1.60395  -0.61566  -2.36330
   1.12395  -0.61566  -2.36330
   0.88395  -0.61566  -2.36330
   0.64395  -0.37566  -2.12330
   0.40395  -0.37566  -2.12330
   0.16395  -0.13566  -2.12330
  -0.07605  -0.13566  -2.12330
  -0.31605   0.10434  -2.12330
  -0.55605   0.10434  -1.88330
  -0.79605   0.34434  -1.88330
  -0.79605   0.34434  -1.88330
  -1.03605   0.34434  -1.88330
  -1.27605   0.58434  -1.64330
  -1.27605   0.58434  -1.64330
  -1.27605   0.82434  -1.64330
  -1.27605   0.82434  -1.40330
  -1.27605   0.82434  -1.40330
  -1.27605   0.82434  -1.40330
  -1.27605   0.82434  -1.40330
  -1.27605   0.82434  -1.16330
  -1.27605   1.06434  -1.16330
  -1.27605   1.06434  -1.16330
  -1.03605   1.06434  -0.92330
  -1.03605   1.06434  -0.92330
  -1.03605   1.30434  -0.92330
  -0.79605   1.30434  -0.68330
  -0.79605   1.30434  -0.68330
  -0.55605   1.30434  -0.68330
  -0.55605   1.30434  -0.44330
  -0.55605   1.30434  -0.44330
  -0.31605   1.30434  -0.44330
  -0.31605   1.54434  -0.44330
  -0.31605   1.54434  -0.44330
  -0.31605   1.78434  -0.44330
  -0.07605   1.78434  -0.20330
  -0.07605   2.02434  -0.44330
   0.16395   2.02434  -0.44330
   0.16395   2.26434  -0.20330
   0.16395   2.26434  -0.44330
   0.16395   2.26434  -0.44330
   0.16395   2.26434  -0.44330
   0.40395   2.26434  -0.44330
   0.40395   2.26434  -0.44330
   0.40395   2.26434  -0.44330
   0.64395   2.26434  -0.44330
   0.64395   2.26434  -0.68330
   0.64395   2.26434  -0.44330
   0.64395   2.50434  -0.44330
   0.64395   2.50434  -0.44330
   0.88395   2.50434  -0.44330
   0.88395   2.50434  -0.44330
   0.88395   2.74434  -0.44330
   0.88395   2.74434  -0.44330
   1.12395   2.74434  -0.20330
   1.12395   2.74434  -0.20330
   1.12395   2.98434  -0.20330
   1.12395   2.98434  -0.20330
   1.36395   2.98434  -0.20330
   1.36395   2.74434   0.03670
   1.60395   2.74434   0.03670
   1.60395   2.74434   0.27670
   1.60395   2.74434   0.27670
   1.84395   2.50434   0.27670
   1.84395   2.50434   0.51670
   2.08395   2.50434   0.27670
   2.08395   2.26434   0.51670
   2.32395   2.26434   0.75670
   2.32395   2.26434   0.75670
   2.56395   2.26434   0.99670
   2.56395   2.02434   0.99670
   2.56395   2.02434   1.23670
   2.80395   2.02434   1.23670
   2.80395   2.02434   1.23670
   2.80395   2.02434   1.47670
   2.80395   2.02434   1.70670
   2.80395   2.02434   1.70670
   2.80395   2.26434   1.94670
   3.03395   2.26434   2.18670
   3.03395   2.26434   2.18670
   3.03395   2.26434   2.42670
   3.03395   2.50434   2.66670
