********************************************************************************
               CENTRO DE INSTRUMENTACION Y REGISTRO SISMICO  A.C.  
                       Coordinacion de Servicios Tecnicos
     Anaxagoras 814, Col. Narvarte, Benito Juarez, C.P. 03020 Mexico, D.F.
            Tels. 667 45 42/ 687 45  82             Fax. 669 25 12
********************************************************************************
ARCHIVO ESTANDAR DE ACELERACION:
VERSION DEL FORMATO                    : 2.0
NOMBRE DEL ARCHIVO                     : AU1119971216114829
FECHA Y HORA DE CREACION               : 26/MAR/18, 11:40
REF. CATALOGO ACELEROGRAMAS, SMIS 1996 : REGISTRO No.     /PAG.


================================================================================
DATOS DE LA ESTACION:
NOMBRE DE LA ESTACION                  : AUTODROMO
CLAVE DE LA ESTACION                   : AU11
LOCALIZACION DE LA ESTACION            : AUTODROMO HERMANOS RODRIGUEZ,
                                       : CHURUBUSCO, CD. DEPORTIVA
                                       :
                                       :
                                       :
COORDENADAS DE LA ESTACION             : 19.392 LAT. N 
                                       : 99.087 LONG. W 
ALTITUD (msnm)                         : 2234
TIPO DE SUELO                          : TERRENO BLANDO, MATERIAL COMPRESIBLE
                                       : (ARCILLAS)
                                       : 
INSTITUCION RESPONSABLE                : CIRES 
                                       :

================================================================================
DATOS DEL ACELEROGRAFO:
MODELO DEL ACELEROGRAFO                : SSA-1
NUMERO DE SERIE DEL ACELEROGRAFO       : 157
NUMERO DE CANALES                      : 3
ORIENTACION C1-C6 (rumbo;orientacion)  : /S00E/+V/N90W
ORIENTACION C7-C12 (rumbo;orientacion) : 
VEL. DE MUESTREO, C1-C6 (muestras/s)   : /200/200/200
VEL. DE MUESTREO, C7-C12 (muestras/s)  : 
ESC. COMPLETA DE SENSORES, C1-C6, (g)  : /2/2/2
ESC. COMPLETA DE SENSORES, C7-C12, (g) : 
FREC. NAT. DE SENSORES, C1-C6, (Hz)    : /51.77/52.56/52.2
FREC. NAT. DE SENSORES, C7-C12, (Hz)   : 
AMORTIGUAMIENTO DE SENSORES, C1-C6     : /.5912/.6083/.6060
AMORTIGUAMIENTO DE SENSORES, C7-C12    : 
INTERVALO DE MUESTREO, C1-C6, (s)      : /0.005/0.005/0.005
INTERVALO DE MUESTREO, C7-C12, (s)     : 
UMBRAL DE DISPARO, C1-C6, (Gal)        : /2/2/2
UMBRAL DE DISPARO, C7-C12, (Gal)       :
MEMORIA DE PREEVENTO (s)               : 15
TIEMPO DE POSEVENTO (s)                : 60


================================================================================
DATOS DEL SISMO:
FECHA DEL SISMO (GMT)                  : 16/DIC/97
HORA EPICENTRO (GMT)                   : 11:48:29,0
MAGNITUD(ES)                           : /Mc=6.0
COORDENADAS DEL EPICENTRO              : 15.70 LAT. N
                                       : 99.04 LONG. W
PROFUNDIDAD FOCAL (km)                 : 16
FUENTE DE LOS DATOS EPICENTRALES       : SSN
                                       : INSTITUTO DE GEOFISICA, UNAM

================================================================================
DATOS DE ESTE REGISTRO:
HORA DE LA PRIMERA MUESTRA (GMT)       : 11:50:37.00
EXACTITUD DEL TIEMPO (s)               :     
DURACION DEL REGISTRO (s), C1-C6       : /78.08/78.08/78.08
DURACION DEL REGISTRO (s), C7-C12      :
NUM. TOTAL DE MUESTRAS, C1-C6          : /15616/15616/15616
NUM. TOTAL DE MUESTRAS, C7-C12         :
ACEL. MAX. (Gal), C1-C6                : /2.3987/0.85686/1.31774
ACEL. MAX., C1-C6, EN LA MUESTRA       : /2975/1458/1397
ACEL. MAX. (Gal), C7-C12               :
ACEL. MAX., C7-C12, EN LA MUESTRA      :
UNIDADES DE LOS DATOS                  : Gal (cm/s/s)
FACTOR DE DECIMACION                   : 1
FORMATO DATOS (FORTRAN,10 campos/dato) : 3F10.5


================================================================================
CALIDAD DEL ACELEROGRAMA:
REGISTRO DIGITAL COMPLETO, CARECE DE TIEMPO ABSOLUTO.


================================================================================
COMENTARIOS:














================================================================================
DATOS DE ACELERACION:
---------+---------+---------+---------+---------+---------+---------+---------+
   CANAL-1   CANAL-2   CANAL-3   CANAL-4   CANAL-5   CANAL-6   CANAL-7   CANAL-8
      S00E        +V      N90W
---------+---------+---------+---------+---------+---------+---------+---------+
[...]
  -1.67870  -0.13686  -0.83774
  -1.67870  -0.13686  -0.83774
  -1.67870  -0.13686  -0.83774
  -1.67870  -0.13686  -0.83774
  -1.67870  -0.13686  -0.83774
  -1.67870  -0.13686  -0.83774
  -1.67870  -0.13686  -0.83774
  -1.67870  -0.13686  -0.83774
  -1.67870   0.10314  -0.83774
  -1.67870  -0.13686  -0.83774
  -1.67870   0.10314  -0.83774
  -1.67870  -0.13686  -0.83774
  -1.67870   0.10314  -0.83774
  -1.67870  -0.13686  -0.59774
  -1.67870   0.10314  -0.59774
  -1.67870   0.10314  -0.59774
  -1.67870   0.10314  -0.59774
  -1.67870   0.10314  -0.59774
  -1.67870   0.10314  -0.59774
  -1.67870   0.10314  -0.59774
  -1.67870   0.10314  -0.59774
  -1.43870   0.10314  -0.59774
  -1.43870   0.10314  -0.35774
  -1.43870   0.10314  -0.35774
  -1.43870  -0.13686  -0.35774
  -1.43870   0.10314  -0.35774
  -1.43870  -0.13686  -0.35774
  -1.19870  -0.13686  -0.35774
  -1.19870  -0.13686  -0.35774
  -1.19870  -0.13686  -0.11774
  -1.19870  -0.13686  -0.11774
  -1.19870  -0.13686  -0.11774
  -0.95870  -0.13686  -0.11774
  -0.95870  -0.13686  -0.11774
  -0.95870  -0.13686  -0.11774
  -0.95870  -0.13686  -0.11774
  -0.95870  -0.13686  -0.11774
  -0.71870  -0.13686   0.12226
  -0.71870  -0.13686   0.12226
  -0.71870  -0.13686   0.12226
  -0.71870  -0.13686   0.12226
  -0.71870  -0.13686   0.12226
  -0.47870  -0.13686   0.12226
  -0.47870  -0.13686   0.12226
  -0.47870  -0.13686   0.12226
  -0.47870  -0.13686   0.12226
  -0.23870  -0.13686   0.12226
  -0.23870  -0.13686   0.12226
  -0.23870  -0.13686   0.12226
  -0.23870  -0.13686   0.12226
   0.00130  -0.13686   0.12226
   0.00130  -0.13686   0.12226
   0.00130  -0.13686   0.12226
   0.00130  -0.13686   0.12226
   0.00130  -0.37686   0.12226
   0.24130   0.10314   0.12226
   0.24130  -0.13686   0.12226
   0.24130  -0.13686   0.12226
   0.24130  -0.13686   0.12226
   0.48130  -0.13686   0.12226
   0.48130  -0.13686   0.12226
   0.48130  -0.13686   0.12226
   0.48130   0.10314   0.12226
   0.48130  -0.13686   0.12226
   0.71130   0.10314   0.12226
   0.71130   0.10314   0.12226
   0.71130   0.10314   0.12226
   0.71130   0.10314   0.12226
   0.71130   0.10314   0.12226
   0.95130   0.10314   0.12226
   0.71130   0.10314   0.12226
   0.95130   0.10314   0.12226
   0.95130   0.10314   0.12226
   0.95130   0.10314   0.12226
   0.95130   0.10314   0.12226
   0.95130   0.10314   0.12226
   0.95130   0.10314  -0.11774
   0.95130   0.10314  -0.11774
   1.19130   0.10314  -0.11774
   1.19130   0.10314  -0.11774
   1.19130   0.10314  -0.11774
   1.19130   0.10314  -0.11774
   1.19130   0.10314  -0.11774
   1.19130   0.10314  -0.11774
   1.19130   0.10314  -0.11774
   1.19130   0.10314  -0.11774
   0.95130   0.10314  -0.11774
   1.19130   0.10314  -0.11774
   1.19130   0.10314  -0.11774
   1.19130   0.10314  -0.11774
   1.19130   0.10314  -0.11774
   1.19130   0.10314  -0.11774
   1.19130   0.10314  -0.11774
   1.19130   0.34314  -0.11774
   1.19130   0.34314  -0.11774
   1.19130   0.34314  -0.11774
   0.95130   0.34314  -0.35774
   0.95130   0.34314  -0.11774
   0.95130   0.34314  -0.11774
   0.95130   0.34314  -0.11774
   0.95130   0.34314  -0.11774
   0.95130   0.34314  -0.35774
   0.95130   0.34314  -0.35774
   0.95130   0.34314  -0.35774
   0.95130   0.34314  -0.35774
   0.95130   0.34314  -0.35774
   0.95130   0.34314  -0.35774
   0.95130   0.34314  -0.35774
   0.71130   0.34314  -0.11774
   0.95130   0.34314  -0.11774
   0.71130   0.34314  -0.11774
   0.71130   0.34314  -0.11774
   0.71130   0.34314  -0.11774
   0.71130   0.34314  -0.11774
   0.71130   0.34314  -0.11774
   0.71130   0.34314  -0.11774
   0.48130   0.34314  -0.11774
   0.48130   0.34314  -0.11774
   0.48130   0.34314  -0.11774
   0.48130   0.34314  -0.11774
   0.48130   0.34314  -0.11774
   0.48130   0.34314  -0.11774
   0.48130   0.34314  -0.11774
   0.24130   0.34314  -0.11774
   0.24130   0.34314   0.12226
   0.24130   0.34314   0.12226
   0.24130   0.34314   0.12226
   0.24130   0.10314   0.12226
   0.24130   0.34314   0.12226
   0.00130   0.34314   0.12226
   0.00130   0.10314   0.12226
   0.00130   0.10314   0.12226
   0.00130   0.34314   0.12226
   0.00130   0.10314   0.12226
  -0.23870   0.10314   0.12226
  -0.23870   0.10314   0.36226
  -0.23870   0.10314   0.36226
  -0.23870   0.10314   0.36226
  -0.23870   0.10314   0.36226
  -0.23870   0.10314   0.36226
  -0.23870   0.10314   0.36226
  -0.47870   0.10314   0.36226
  -0.47870   0.10314   0.36226
  -0.47870   0.10314   0.36226
  -0.47870   0.10314   0.36226
  -0.47870   0.10314   0.36226
  -0.47870   0.10314   0.36226
  -0.47870   0.10314   0.36226
  -0.47870   0.10314   0.36226
  -0.47870   0.10314   0.36226
  -0.47870   0.10314   0.36226
  -0.47870   0.10314   0.36226
  -0.71870   0.10314   0.36226
  -0.71870   0.10314   0.36226
  -0.71870   0.10314   0.36226
  -0.71870   0.10314   0.36226
  -0.71870   0.10314   0.36226
  -0.71870   0.10314   0.36226
  -0.71870   0.10314   0.36226
  -0.71870   0.10314   0.36226
  -0.71870   0.10314   0.36226
  -0.71870   0.10314   0.36226
  -0.71870  -0.13686   0.36226
  -0.71870  -0.13686   0.36226
  -0.71870  -0.13686   0.36226
  -0.71870  -0.13686   0.36226
  -0.71870  -0.13686   0.36226
  -0.71870  -0.13686   0.36226
  -0.71870  -0.13686   0.36226
  -0.71870  -0.13686   0.12226
  -0.71870  -0.13686   0.36226
  -0.71870  -0.13686   0.36226
  -0.71870  -0.13686   0.36226
  -0.71870  -0.13686   0.12226
  -0.71870  -0.13686   0.36226
  -0.71870  -0.13686   0.12226
  -0.71870  -0.13686   0.12226
  -0.71870  -0.13686   0.12226
  -0.71870  -0.13686   0.12226
  -0.71870  -0.13686   0.12226
  -0.71870  -0.13686   0.12226
  -0.71870  -0.13686   0.12226
  -0.71870  -0.13686   0.12226
  -0.71870  -0.13686   0.12226
  -0.71870  -0.13686   0.36226
  -0.71870  -0.13686   0.12226
  -0.71870  -0.13686   0.12226
  -0.47870  -0.37686   0.12226
  -0.47870  -0.37686   0.12226
  -0.71870  -0.37686   0.12226
  -0.71870  -0.37686   0.12226
  -0.47870  -0.37686   0.12226
  -0.47870  -0.37686   0.12226
  -0.47870  -0.37686   0.36226
  -0.47870  -0.37686   0.12226
  -0.47870  -0.37686   0.36226
  -0.47870  -0.37686   0.12226
  -0.47870  -0.37686   0.36226
  -0.47870  -0.37686   0.36226
  -0.47870  -0.37686   0.36226
  -0.47870  -0.37686   0.12226
  -0.47870  -0.37686   0.36226
  -0.47870  -0.37686   0.36226
  -0.47870  -0.37686   0.36226
  -0.47870  -0.37686   0.36226
  -0.47870  -0.37686   0.36226
  -0.47870  -0.37686   0.36226
  -0.47870  -0.37686   0.36226
  -0.47870  -0.37686   0.36226
  -0.47870  -0.37686   0.36226
  -0.47870  -0.37686   0.36226
  -0.47870  -0.37686   0.36226
  -0.47870  -0.37686   0.36226
  -0.47870  -0.37686   0.36226
  -0.47870  -0.37686   0.60226
  -0.47870  -0.37686   0.36226
  -0.47870  -0.37686   0.60226
  -0.47870  -0.37686   0.60226
  -0.47870  -0.37686   0.60226
  -0.47870  -0.37686   0.60226
  -0.47870  -0.37686   0.60226
  -0.47870  -0.37686   0.60226
  -0.47870  -0.37686   0.60226
  -0.47870  -0.37686   0.60226
  -0.47870  -0.37686   0.60226
  -0.47870  -0.37686   0.60226
  -0.47870  -0.37686   0.60226
  -0.47870  -0.37686   0.84226
  -0.47870  -0.37686   0.60226
  -0.47870  -0.37686   0.60226
  -0.47870  -0.37686   0.60226
  -0.47870  -0.37686   0.84226
  -0.47870  -0.37686   0.84226
  -0.47870  -0.37686   0.60226
  -0.47870  -0.37686   0.84226
  -0.47870  -0.37686   0.84226
  -0.47870  -0.37686   0.84226
  -0.47870  -0.37686   0.84226
  -0.47870  -0.37686   0.84226
  -0.47870  -0.37686   0.84226
  -0.47870  -0.37686   0.84226
  -0.47870  -0.37686   0.84226
  -0.47870  -0.37686   0.84226
  -0.47870  -0.37686   0.84226
  -0.47870  -0.37686   0.84226
  -0.47870  -0.37686   0.84226
  -0.47870  -0.37686   0.84226
  -0.47870  -0.37686   0.84226
  -0.47870  -0.37686   0.84226
  -0.47870  -0.37686   0.84226
  -0.47870  -0.37686   0.84226
  -0.47870  -0.37686   0.84226
  -0.23870  -0.13686   0.60226
  -0.23870  -0.37686   0.84226
  -0.23870  -0.13686   0.84226
  -0.23870  -0.13686   0.84226
  -0.23870  -0.37686   0.60226
  -0.23870  -0.13686   0.60226
  -0.23870  -0.13686   0.60226
  -0.23870  -0.13686   0.60226
  -0.23870  -0.13686   0.60226
   0.00130  -0.13686   0.60226
  -0.23870  -0.13686   0.60226
   0.00130   0.10314   0.60226
   0.00130   0.10314   0.60226
   0.00130   0.10314   0.60226
   0.00130  -0.13686   0.60226
   0.00130  -0.13686   0.36226
   0.00130  -0.13686   0.36226
   0.00130   0.10314   0.36226
   0.00130   0.10314   0.36226
   0.24130   0.10314   0.36226
   0.24130   0.10314   0.36226
   0.24130   0.10314   0.12226
   0.24130   0.10314   0.12226
   0.24130   0.10314   0.12226
   0.24130   0.10314   0.12226
   0.24130   0.10314   0.12226
   0.24130   0.10314  -0.35774
   0.24130   0.10314   0.12226
   0.24130   0.10314  -0.11774
   0.24130   0.10314  -0.11774
   0.48130   0.34314  -0.11774
   0.48130   0.34314  -0.11774
   0.48130   0.34314  -0.11774
   0.48130   0.34314  -0.11774
   0.00130   0.34314  -0.35774
   0.48130   0.34314  -0.35774
   0.24130   0.34314  -0.35774
   0.48130   0.34314  -0.35774
   0.48130   0.34314  -0.35774
   0.48130   0.34314  -0.35774
   0.24130   0.34314  -0.35774
   0.48130   0.34314  -0.35774
   0.24130   0.34314  -0.35774
   0.24130   0.34314  -0.35774
   0.24130   0.34314  -0.59774
   0.24130   0.10314  -0.59774
   0.24130   0.34314  -0.59774
   0.24130   0.34314  -0.59774
   0.24130   0.34314  -0.59774
   0.24130   0.34314  -0.59774
   0.00130   0.34314  -0.59774
   0.00130   0.34314  -0.59774
   0.00130   0.34314  -0.59774
   0.00130   0.34314  -0.59774
   0.00130   0.34314  -0.59774
   0.00130   0.58314  -0.83774
  -0.23870   0.58314  -0.59774
  -0.23870   0.58314  -0.59774
  -0.23870   0.58314  -0.59774
  -0.23870   0.58314  -0.83774
  -0.23870   0.58314  -0.83774
  -0.47870   0.34314  -0.83774
  -0.47870   0.58314  -0.83774
  -0.71870   0.58314  -0.83774
  -0.47870   0.58314  -0.83774
  -0.47870   0.58314  -0.83774
  -0.71870   0.58314  -0.83774
  -0.71870   0.58314  -0.83774
  -0.71870   0.58314  -0.83774
  -0.71870   0.58314  -0.83774
  -0.71870   0.34314  -0.83774
  -0.95870   0.58314  -0.83774
  -0.95870   0.58314  -0.83774
  -0.95870   0.58314  -0.83774
  -0.95870   0.34314  -0.83774
  -0.95870   0.58314  -0.83774
  -0.95870   0.58314  -0.83774
  -1.19870   0.58314  -0.83774
  -1.19870   0.34314  -0.83774
  -1.19870   0.34314  -0.83774
  -1.43870   0.58314  -0.83774
  -1.43870   0.34314  -0.83774
  -1.43870   0.58314  -0.83774
  -1.43870   0.34314  -0.83774
  -1.43870   0.34314  -0.83774
  -1.43870   0.34314  -0.83774
  -1.67870   0.34314  -0.83774
  -1.67870   0.34314  -0.83774
  -1.67870   0.34314  -0.83774
  -1.67870   0.34314  -0.83774
  -1.67870   0.34314  -0.83774
  -1.91870   0.34314  -0.83774
  -1.67870   0.34314  -0.83774
  -1.91870   0.34314  -0.83774
  -1.91870   0.10314  -0.59774
  -1.67870   0.10314  -0.59774
  -1.91870   0.10314  -0.59774
  -2.39870   0.10314  -0.59774
  -1.91870   0.10314  -0.59774
  -1.91870   0.10314  -0.59774
  -1.91870   0.10314  -0.59774
  -1.91870   0.10314  -0.59774
  -1.91870   0.10314  -0.59774
  -1.91870   0.10314  -0.59774
  -1.91870   0.10314  -0.59774
  -1.91870   0.10314  -0.35774
  -1.67870   0.10314  -0.35774
  -1.67870   0.10314  -0.35774
  -1.67870   0.10314  -0.35774
  -1.67870   0.10314  -0.35774
  -1.67870   0.10314  -0.35774
  -1.67870   0.10314  -0.35774
  -1.67870   0.10314  -0.35774
  -1.67870   0.10314  -0.35774
  -1.67870   0.10314  -0.35774
  -1.67870   0.10314  -0.35774
  -1.67870   0.10314  -0.35774
  -1.43870   0.10314  -0.35774
  -1.43870   0.10314  -0.35774
  -1.43870   0.10314  -0.35774
  -1.43870   0.10314  -0.35774
  -1.43870   0.10314  -0.35774
  -1.43870   0.10314  -0.35774
  -1.19870   0.10314  -0.11774
  -1.19870   0.10314  -0.11774
  -1.19870   0.10314  -0.11774
  -1.19870   0.10314  -0.11774
  -1.19870  -0.13686  -0.11774
  -0.95870  -0.37686  -0.11774
  -0.95870  -0.13686  -0.11774
  -0.95870  -0.13686  -0.11774
  -0.95870  -0.13686  -0.11774
  -0.95870  -0.13686   0.12226
  -0.95870  -0.13686   0.12226
  -0.71870  -0.13686   0.12226
  -0.71870  -0.13686   0.12226
  -0.71870  -0.13686   0.12226
  -0.71870  -0.13686   0.12226
  -0.47870  -0.13686   0.12226
  -0.47870  -0.13686   0.12226
  -0.47870  -0.13686   0.36226
  -0.47870  -0.13686   0.36226
  -0.47870  -0.13686   0.36226
  -0.23870  -0.13686   0.36226
  -0.23870  -0.13686   0.36226
   0.00130  -0.13686   0.36226
   0.00130  -0.37686   0.36226
   0.00130  -0.37686   0.36226
   0.00130  -0.13686   0.60226
   0.24130  -0.13686   0.60226
   0.24130  -0.37686   0.60226
   0.24130  -0.13686   0.60226
   0.24130  -0.37686   0.60226
   0.48130  -0.37686   0.60226
   0.24130  -0.37686   0.60226
   0.48130  -0.37686   0.60226
   0.48130  -0.37686   0.60226
   0.71130  -0.37686   0.60226
   0.71130  -0.37686   0.60226
   0.71130  -0.37686   0.84226
   0.95130  -0.37686   0.84226
   0.95130  -0.37686   0.84226
   0.95130  -0.37686   0.84226
   0.95130  -0.37686   0.84226
   0.95130  -0.37686   0.84226
   0.95130  -0.37686   0.84226
   1.19130  -0.37686   0.84226
   1.19130  -0.37686   0.84226
   1.19130  -0.37686   0.84226
   1.19130  -0.37686   0.84226
   1.43130  -0.37686   0.84226
   1.43130  -0.37686   0.84226
   1.43130  -0.37686   0.84226
   1.43130  -0.37686   0.84226
   1.43130  -0.37686   0.84226
   1.43130  -0.37686   0.84226
   1.43130  -0.37686   0.84226
   1.67130  -0.37686   0.84226
   1.67130  -0.37686   0.84226
   1.67130  -0.37686   0.84226
   1.67130  -0.37686   0.84226
   1.67130  -0.37686   0.84226
   1.67130  -0.37686   0.84226
   1.67130  -0.37686   0.84226
   1.67130  -0.37686   0.84226
   1.67130  -0.37686   0.84226
   1.91130  -0.37686   0.84226
   1.91130  -0.37686   0.84226
   1.91130  -0.37686   0.84226
   1.91130  -0.37686   0.84226
   1.91130  -0.13686   0.84226
   1.91130  -0.37686   0.84226
   1.91130  -0.37686   0.84226
   1.91130  -0.37686   0.84226
   1.91130  -0.37686   0.84226
   1.91130  -0.37686   0.84226
   1.91130  -0.37686   0.84226
   1.91130  -0.37686   0.60226
   1.91130  -0.37686   0.60226
   1.91130  -0.37686   0.60226
   1.91130  -0.37686   0.60226
   1.91130  -0.13686   0.60226
   1.91130  -0.37686   0.60226
   1.91130  -0.13686   0.60226
   1.91130  -0.13686   0.60226
   1.91130  -0.13686   0.60226
   1.91130  -0.13686   0.60226
   1.91130  -0.13686   0.60226
   1.91130  -0.13686   0.36226
   1.91130  -0.13686   0.36226
   1.91130  -0.13686   0.36226
   1.91130  -0.13686   0.36226
   1.67130  -0.13686   0.12226
   1.67130   0.10314   0.36226
   1.67130  -0.13686   0.12226
   1.67130  -0.13686   0.12226
   1.67130  -0.13686   0.12226
   1.67130  -0.13686   0.12226
   1.67130   0.10314   0.12226
   1.43130  -0.13686   0.12226
   1.43130  -0.13686   0.12226
   1.43130   0.10314  -0.11774
   1.43130  -0.13686   0.12226
   1.43130  -0.13686  -0.11774
   1.43130   0.10314  -0.11774
   1.19130   0.10314  -0.11774
   1.19130   0.10314  -0.11774
   1.19130  -0.13686  -0.11774
   1.19130   0.10314  -0.11774
   1.19130   0.10314  -0.11774
   0.95130   0.10314  -0.11774
   0.95130   0.10314  -0.11774
   0.95130   0.10314  -0.35774
   0.95130   0.10314  -0.35774
   0.95130   0.10314  -0.35774
   0.95130   0.10314  -0.35774
   0.71130  -0.13686  -0.35774
   0.71130   0.10314  -0.35774
   0.71130   0.10314  -0.35774
   0.71130   0.10314  -0.35774
   0.71130   0.10314  -0.35774
   0.48130   0.10314  -0.35774
   0.48130   0.10314  -0.35774
   0.48130   0.10314  -0.35774
   0.48130   0.10314  -0.35774
   0.48130   0.10314  -0.35774
   0.48130   0.10314  -0.59774
