********************************************************************************
              CENTRO DE INSTRUMENTACION Y REGISTRO SISMICO  A.C.

    Anaxagoras 814, Col. Narvarte, Benito Juarez, C.P. 03020 Mexico, D.F.
           Tels. 5687 45 42/ 5687 45  82             Fax. 5669 25 12
********************************************************************************
ARCHIVO ESTANDAR DE ACELERACION:
VERSION DEL FORMATO                    : 2.0
NOMBRE DEL ARCHIVO                     : AU1120090522192418
FECHA Y HORA DE CREACION               : 24/JUN/09, 01:39
REF. CATALOGO ACELEROGRAMAS, SMIS 1996 : REGISTRO No.     /PAG.


================================================================================
DATOS DE LA ESTACION:
NOMBRE DE LA ESTACION                  : AUTÓDROMO
CLAVE DE LA ESTACION                   : AU11
LOCALIZACION DE LA ESTACION            : Del. Iztacalco, Cd. Deportiva          
                                       : Magdalena Mixhuca,                     
                                       : Col. Granjas México                    
                                       :                                        
                                       : 
COORDENADAS DE LA ESTACION             : 19.3919 LAT. N
                                       : 99.0869 LONG. W
ALTITUD (msnm)                         : 2234
TIPO DE SUELO                          : Terreno blando, material compresible
                                       : (arcillas)                
                                       : 
INSTITUCION RESPONSABLE                : CIRES
                                       : 

================================================================================
DATOS DEL ACELEROGRAFO:
MODELO DEL ACELEROGRAFO                : RADESD
NUMERO DE SERIE DEL ACELEROGRAFO       : 157
NUMERO DE CANALES                      : 3
ORIENTACION C1-C6 (rumbo;orientacion)  : /N00E/+V/N90W
ORIENTACION C7-C12 (rumbo;orientacion) : 
VEL. DE MUESTREO, C1-C6 (muestras/s)   : /100/100/100
VEL. DE MUESTREO, C7-C12 (muestras/s)  : 
ESC. COMPLETA DE SENSORES, C1-C6, (g)  : /0.5/0.5/0.5
ESC. COMPLETA DE SENSORES, C7-C12, (g) : 
FREC. NAT. DE SENSORES, C1-C6, (Hz)    : /51.77/52.56/52.29
FREC. NAT. DE SENSORES, C7-C12, (Hz)   : 
AMORTIGUAMIENTO DE SENSORES, C1-C6     : /0.5912/0.6083/0.6067
AMORTIGUAMIENTO DE SENSORES, C7-C12    : 
INTERVALO DE MUESTREO, C1-C6, (s)      : /0.01/0.01/0.01
INTERVALO DE MUESTREO, C7-C12, (s)     : 
UMBRAL DE DISPARO, C1-C6, (Gal)        : /0.72/1.92/0.72
UMBRAL DE DISPARO, C7-C12, (Gal)       : 
MEMORIA DE PREEVENTO (s)               : 56.0
TIEMPO DE POSEVENTO (s)                : 64.0


================================================================================
DATOS DEL SISMO:
FECHA DEL SISMO (GMT)                  : 22/MAY/09
HORA EPICENTRO (GMT)                   : 19:24:18.0
MAGNITUD(ES)                           : /Mc=5.7
COORDENADAS DEL EPICENTRO              : 18.13 LAT. N
                                       : 98.44 LONG. W
PROFUNDIDAD FOCAL (km)                 : 45
FUENTE DE LOS DATOS EPICENTRALES       : SSN
                                       : INSTITUTO DE GEOFISICA, UNAM

================================================================================
DATOS DE ESTE REGISTRO:
HORA DE LA PRIMERA MUESTRA (GMT)       : 19:24:44.00
EXACTITUD DEL TIEMPO (s)               : 0.01
DURACION DEL REGISTRO (s), C1-C6       : /189.75/189.75/189.75
DURACION DEL REGISTRO (s), C7-C12      : 
NUM. TOTAL DE MUESTRAS, C1-C6          : /18975/18975/18975
NUM. TOTAL DE MUESTRAS, C7-C12         : 
ACEL. MAX. (Gal), C1-C6                : /12.94696/6.43288/15.75937
ACEL. MAX., C1-C6, EN LA MUESTRA       : /7562/5601/7554
ACEL. MAX. (Gal), C7-C12               : 
ACEL. MAX., C7-C12, EN LA MUESTRA      : 
UNIDADES DE LOS DATOS                  : Gal (cm/s/s)
FACTOR DE DECIMACION                   : 1
FORMATO DATOS (FORTRAN,10 campos/dato) : 3F10.5


================================================================================
CALIDAD DEL ACELEROGRAMA:
REGISTRO DIGITAL COMPLETO CON TIEMPO ABSOLUTO CORRECTO.


================================================================================
COMENTARIOS:














================================================================================
DATOS DE ACELERACION:
---------+---------+---------+---------+---------+---------+---------+---------+
   CANAL-1   CANAL-2   CANAL-3   CANAL-4   CANAL-5   CANAL-6   CANAL-7   CANAL-8
      N00E        +V      N90W
---------+---------+---------+---------+---------+---------+---------+---------+
[...]
   0.73653   0.44737   1.00004
   0.73653  -0.03147   1.00004
   0.73653  -0.03147   0.76062
   0.73653  -0.03147   0.76062
   0.73653  -0.03147   0.76062
   0.49711  -0.03147   0.52120
   0.25769  -0.03147   0.28178
   0.25769   0.20795   0.52120
   0.25769   0.20795   0.52120
   0.25769   0.20795   0.76062
   0.25769   0.20795   0.76062
   0.01827  -0.03147   0.76062
   0.25769  -0.03147   0.76062
   0.25769  -0.27089   1.00004
   0.25769  -0.03147   0.76062
   0.25769  -0.03147   1.00004
   0.25769  -0.03147   1.00004
   0.25769   0.20795   1.00004
   0.25769   0.20795   1.00004
   0.01827   0.44737   1.00004
   0.01827   0.44737   1.23946
  -0.22115   0.44737   1.00004
  -0.22115   0.20795   1.00004
  -0.46057  -0.03147   0.76062
  -0.46057  -0.03147   0.76062
  -0.46057  -0.03147   0.52120
  -0.46057  -0.27089   0.28178
  -0.22115  -0.03147   0.04236
  -0.22115  -0.27089  -0.19706
  -0.22115  -0.03147  -0.43648
  -0.22115  -0.03147  -0.43648
   0.01827   0.20795  -0.43648
   0.01827   0.20795  -0.43648
  -0.22115   0.44737  -0.43648
   0.01827   0.44737  -0.19706
  -0.22115   0.44737  -0.19706
  -0.22115   0.20795   0.04236
  -0.22115  -0.27089   0.04236
  -0.46057  -0.51031   0.04236
  -0.46057  -0.98915   0.04236
  -0.69999  -0.74973   0.04236
  -0.69999  -0.74973   0.04236
  -0.93941  -0.51031   0.04236
  -0.93941  -0.51031   0.04236
  -0.93941  -0.27089   0.04236
  -0.93941  -0.51031   0.04236
  -0.69999  -0.74973  -0.19706
  -0.69999  -0.74973  -0.43648
  -0.93941  -0.98915  -0.43648
  -0.69999  -0.74973  -0.67590
  -0.93941  -0.74973  -0.43648
  -0.46057  -0.74973  -0.43648
  -0.46057  -0.74973  -0.43648
  -0.46057  -0.27089   0.04236
  -0.46057  -0.03147  -0.43648
  -0.46057   0.20795  -0.43648
  -0.46057   0.44737  -0.43648
  -0.46057   0.20795  -0.43648
  -0.22115   0.20795  -0.19706
  -0.22115   0.44737  -0.19706
  -0.22115   0.20795  -0.19706
  -0.22115   0.44737  -0.19706
  -0.22115   0.20795   0.04236
  -0.22115   0.20795  -0.19706
  -0.22115   0.68679  -0.19706
  -0.22115   0.68679  -0.67590
  -0.22115   0.92621  -0.67590
  -0.22115   0.92621  -0.91532
  -0.22115   0.92621  -0.67590
  -0.22115   0.44737  -0.67590
  -0.22115   0.20795  -0.43648
  -0.22115  -0.27089  -0.43648
  -0.22115  -0.51031  -0.43648
  -0.46057  -0.74973  -0.19706
  -0.22115  -0.98915  -0.43648
  -0.22115  -0.98915  -0.43648
  -0.46057  -0.74973  -0.67590
  -0.22115  -0.27089  -0.67590
  -0.69999  -0.03147  -0.67590
  -0.46057   0.44737  -0.67590
  -0.46057   0.68679  -0.43648
  -0.46057   0.92621  -0.43648
  -0.69999   0.92621  -0.43648
  -0.46057   0.68679  -0.43648
  -0.69999   0.20795  -0.43648
  -0.46057  -0.03147  -0.19706
  -0.69999  -0.27089  -0.19706
  -0.69999  -0.27089  -0.19706
  -0.93941  -0.27089  -0.19706
  -0.93941  -0.03147  -0.19706
  -0.93941  -0.03147   0.04236
  -0.93941  -0.03147   0.04236
  -0.69999  -0.03147   0.04236
  -0.69999  -0.03147   0.04236
  -0.46057  -0.27089   0.04236
  -0.22115   0.20795   0.04236
   0.01827  -0.03147   0.04236
   0.01827   0.20795   0.28178
   0.01827   0.20795   0.28178
   0.01827   0.20795   0.04236
   0.25769   0.44737   0.28178
   0.49711   0.20795   0.04236
   0.49711  -0.27089   0.04236
   0.73653  -0.74973   0.04236
   0.73653  -0.98915   0.04236
   0.73653  -1.22857   0.04236
   0.73653  -1.22857   0.04236
   0.49711  -0.98915   0.28178
   0.49711  -0.74973   0.04236
   0.25769  -0.27089   0.28178
   0.25769  -0.03147   0.04236
   0.25769   0.20795   0.04236
   0.25769   0.44737   0.04236
   0.01827   0.44737   0.28178
   0.01827   0.68679   0.28178
   0.01827   0.68679   0.28178
   0.01827   0.92621   0.52120
   0.25769   1.40505   0.52120
   0.25769   1.88389   0.76062
   0.49711   1.88389   0.76062
   0.49711   1.88389   0.76062
   0.73653   1.16563   0.52120
   0.97595   0.68679   0.52120
   0.97595  -0.03147   0.52120
   0.49711  -0.51031   0.76062
   0.49711  -1.22857   0.76062
   0.49711  -1.94683   0.76062
   0.49711  -2.18625   0.76062
   0.49711  -1.94683   0.76062
   0.25769  -1.70741   0.76062
   0.49711  -1.46799   0.52120
   0.25769  -0.98915   0.52120
   0.25769  -0.27089   0.52120
   0.25769  -0.03147   0.28178
   0.25769   0.20795   0.28178
   0.25769   0.20795   0.28178
   0.25769  -0.03147   0.28178
   0.01827  -0.03147   0.28178
   0.25769  -0.27089   0.52120
   0.25769  -0.27089   0.28178
   0.25769  -0.27089   0.28178
   0.25769  -0.27089   0.04236
   0.25769  -0.27089   0.04236
   0.25769  -0.27089   0.04236
   0.25769  -0.98915  -0.19706
   0.25769  -1.46799  -0.19706
   0.25769  -2.18625  -0.43648
   0.01827  -2.66509  -0.43648
   0.01827  -3.14393  -0.43648
   0.01827  -3.38335  -0.43648
   0.01827  -3.38335  -0.43648
   0.25769  -3.14393  -0.43648
   0.25769  -2.42567  -0.43648
   0.25769  -1.22857  -0.43648
   0.25769   0.20795  -0.43648
   0.01827   1.64447  -0.43648
   0.01827   2.60215  -0.67590
  -0.22115   3.08099  -0.67590
   0.01827   2.84157  -0.67590
   0.01827   2.36273  -0.67590
   0.01827   1.64447  -0.67590
   0.01827   0.68679  -0.43648
  -0.22115  -0.27089  -0.19706
  -0.22115  -0.74973  -0.19706
  -0.46057  -0.98915  -0.19706
  -0.46057  -1.22857  -0.19706
  -0.46057  -0.51031   0.04236
  -0.69999  -0.27089   0.04236
   0.01827  -0.74973   0.04236
  -0.22115  -0.98915   0.04236
   0.01827  -1.22857   0.28178
  -0.22115  -0.98915   0.28178
   0.01827  -0.74973   0.28178
   0.01827  -0.27089   0.28178
   0.49711   0.20795   0.28178
   0.25769   0.44737   0.04236
   0.49711   0.44737   0.04236
   0.49711   0.44737  -0.19706
   0.49711   0.44737  -0.43648
   0.25769   0.44737  -0.67590
   0.01827   0.92621  -0.67590
  -0.22115   1.40505  -0.43648
  -0.46057   1.40505  -0.43648
  -0.22115   1.16563  -0.43648
  -0.22115   0.92621  -0.43648
  -0.22115   0.20795  -0.43648
  -0.22115  -0.51031  -0.19706
  -0.46057  -0.74973   0.04236
  -0.46057  -0.74973   0.04236
  -0.69999  -0.51031   0.28178
  -0.69999  -0.03147   0.28178
  -0.46057   0.44737   0.28178
  -0.46057   0.92621   0.28178
  -0.22115   1.40505   0.28178
  -0.22115   1.64447   0.04236
  -0.22115   1.64447  -0.19706
   0.01827   1.64447  -0.43648
   0.01827   1.88389  -0.67590
  -0.22115   2.60215  -0.91532
  -0.46057   3.32041  -1.39416
  -0.46057   3.79925  -1.63358
  -0.46057   4.27809  -1.63358
  -0.93941   4.27809  -1.63358
  -1.17883   4.03867  -1.87300
  -1.41825   3.32041  -1.87300
  -1.65767   2.60215  -1.87300
  -1.89709   1.88389  -1.87300
  -2.13651   1.16563  -1.87300
  -2.37593   0.20795  -1.87300
  -2.61535  -0.74973  -1.87300
  -2.85477  -1.46799  -1.63358
  -2.85477  -1.94683  -1.63358
  -3.09419  -2.42567  -1.63358
  -3.09419  -2.66509  -1.63358
  -3.33361  -2.90451  -1.39416
  -3.09419  -2.66509  -1.39416
  -3.33361  -2.18625  -1.15474
  -3.09419  -1.70741  -1.15474
  -3.09419  -1.46799  -0.91532
  -3.09419  -1.70741  -0.67590
  -2.61535  -1.70741  -0.67590
  -2.61535  -1.70741  -0.19706
  -2.13651  -1.46799  -0.19706
  -1.89709  -0.74973   0.28178
  -1.41825  -0.27089   0.52120
  -0.69999   0.20795   1.00004
   0.01827   0.68679   1.47888
   0.97595   0.92621   1.71830
   1.69421   1.16563   1.95772
   2.41247   0.68679   2.43656
   2.89131   0.20795   2.91540
   3.37015   0.20795   3.15482
   3.60957   0.44737   3.39424
   4.08841   0.92621   3.39424
   4.80667   2.12331   3.39424
   5.04609   3.08099   3.39424
   5.28551   4.03867   3.63366
   5.52493   4.51751   3.63366
   5.28551   4.75693   3.39424
   5.04609   4.03867   3.15482
   4.56725   3.32041   2.67598
   4.08841   2.60215   1.95772
   3.13073   1.88389   1.23946
   2.17305   1.40505   0.76062
   1.45479   0.68679   0.28178
   0.49711  -0.03147  -0.43648
  -0.46057  -1.22857  -0.67590
  -1.17883  -2.66509  -0.91532
  -1.89709  -3.86219  -1.39416
  -2.37593  -4.81987  -1.63358
  -2.85477  -5.53813  -1.87300
  -3.09419  -6.25639  -2.11242
  -3.09419  -6.25639  -2.59126
  -3.33361  -5.53813  -2.59126
  -3.81245  -4.10161  -2.59126
  -3.57303  -2.90451  -2.83068
  -3.81245  -1.46799  -3.30952
  -3.81245   0.20795  -3.54894
  -3.81245   1.88389  -4.02779
  -3.57303   3.32041  -4.50663
  -3.33361   4.03867  -4.50663
  -2.85477   3.55983  -4.74605
  -2.61535   2.36273  -4.50663
  -2.37593   1.40505  -4.26721
  -2.13651   0.44737  -4.02779
  -2.13651  -0.03147  -3.30952
  -2.13651  -0.03147  -2.59126
  -1.89709   0.20795  -1.63358
  -2.13651   0.68679  -0.67590
  -1.65767   0.92621  -0.19706
  -1.41825   1.16563   0.52120
  -0.93941   1.16563   1.23946
  -0.22115   1.16563   1.71830
   0.49711   0.92621   2.19714
   1.45479   0.92621   2.67598
   2.65189   1.16563   3.15482
   3.37015   1.40505   3.87308
   4.32783   2.60215   4.83076
   4.80667   3.55983   5.54902
   5.52493   3.32041   6.02786
   6.24319   2.12331   6.50670
   6.48261   0.20795   6.50670
   6.72204  -1.70741   6.74612
   6.72204  -2.90451   6.26728
   6.24319  -3.62277   6.02786
   5.76435  -3.62277   6.26728
   5.28551  -3.14393   6.74612
   4.56725  -2.66509   7.22496
   3.84899  -2.42567   7.70380
   2.89131  -2.90451   8.42206
   1.69421  -3.38335   8.66148
   0.49711  -3.62277   8.66148
  -0.69999  -3.38335   8.18264
  -1.65767  -2.66509   7.46438
  -2.37593  -1.70741   6.50670
  -2.61535  -0.51031   5.54902
  -3.09419   0.44737   4.59134
  -3.33361   1.16563   3.63366
  -3.81245   1.64447   2.43656
  -4.05187   2.12331   1.47888
  -4.53071   2.36273   0.52120
  -4.77013   2.12331  -0.19706
  -4.77013   1.16563  -0.67590
  -4.77013  -0.03147  -1.39416
  -4.53071  -0.74973  -2.11242
  -4.29129  -1.46799  -2.59126
  -4.05187  -1.46799  -3.07010
  -3.57303  -0.27089  -3.54894
  -3.57303   1.16563  -4.02779
  -3.33361   2.36273  -4.50663
  -3.09419   3.08099  -4.74605
  -3.09419   3.32041  -4.74605
  -2.85477   3.08099  -4.50663
  -2.37593   2.60215  -4.26721
  -1.89709   2.12331  -3.54894
  -1.41825   1.64447  -3.07010
  -0.69999   1.64447  -2.59126
   0.01827   1.64447  -2.83068
   0.97595   0.92621  -2.59126
   1.21537  -0.03147  -2.59126
   1.69421  -1.22857  -2.59126
   1.45479  -2.42567  -2.59126
   1.21537  -2.90451  -2.11242
   0.97595  -3.14393  -1.63358
   1.21537  -3.38335  -0.91532
   0.97595  -2.90451   0.04236
   1.21537  -1.94683   1.00004
   1.69421  -0.74973   1.95772
   2.41247   0.20795   2.91540
   2.65189   0.68679   3.39424
   2.65189   0.92621   3.39424
   2.65189   0.68679   3.15482
   1.69421   0.20795   2.43656
   1.21537  -0.27089   1.47888
   0.97595  -0.74973   0.52120
   0.49711  -0.51031  -0.43648
   0.49711  -0.51031  -1.39416
   0.97595  -0.51031  -2.35184
   1.69421  -0.98915  -3.54894
   2.17305  -1.46799  -4.98547
   2.89131  -1.70741  -6.66141
   3.60957  -1.94683  -8.81619
   4.08841  -1.94683 -10.73155
   5.04609  -1.70741 -12.88633
   6.00377  -1.22857 -14.56227
   6.96146  -0.98915 -15.51995
   7.91914  -0.27089 -15.75937
   8.63740  -0.27089 -15.75937
   9.59508  -0.27089 -15.04111
  10.07392  -0.03147 -14.32285
  10.55276   0.44737 -13.12575
  11.27102   0.68679 -12.16807
  11.98928   1.40505 -10.97097
  12.46812   2.12331  -9.77387
  12.94696   2.60215  -9.05561
  12.70754   2.60215  -8.09793
  12.22870   1.88389  -7.37967
  11.74986   1.16563  -6.66141
  11.03160   0.68679  -5.94315
  10.07392   0.44737  -5.22489
   8.87682   0.44737  -4.50663
   7.67972   0.44737  -4.02779
   6.48261   0.44737  -2.59126
   5.04609   0.44737  -1.39416
   3.60957   0.20795  -0.19706
   1.21537  -0.03147   1.23946
  -1.17883  -0.51031   2.43656
  -3.81245  -0.74973   3.63366
  -5.96723  -0.74973   4.83076
  -8.12202  -0.03147   5.78844
  -9.55854   0.44737   6.74612
 -10.51622   1.16563   7.46438
 -10.99506   1.88389   8.42206
 -11.47390   2.60215   9.37974
 -11.47390   2.84157  10.09800
 -11.23448   2.36273  10.57684
 -10.51622   1.64447  10.57684
  -9.55854   0.92621  10.09800
  -8.12202  -0.03147   8.66148
  -6.20665  -0.51031   6.98554
  -4.77013  -0.51031   4.83076
  -2.37593   0.20795   2.67598
  -0.69999   1.40505   1.00004
   0.73653   2.36273  -0.67590
   1.69421   3.08099  -1.63358
   2.17305   3.08099  -2.11242
   2.41247   2.36273  -2.35184
   2.65189   1.16563  -2.35184
   3.13073  -0.51031  -2.11242
   3.60957  -1.94683  -1.87300
   3.84899  -2.90451  -1.15474
   4.08841  -3.38335  -0.43648
   4.32783  -3.14393   0.76062
   4.08841  -2.42567   1.95772
   3.84899  -1.46799   3.39424
   3.13073  -0.74973   4.59134
   2.65189  -0.27089   5.78844
   1.93363  -0.27089   6.50670
   1.69421  -1.22857   6.74612
   1.45479  -1.94683   6.50670
   1.69421  -2.42567   6.02786
   1.93363  -2.42567   5.07018
   2.41247  -2.66509   3.87308
   2.41247  -2.90451   2.91540
   1.93363  -2.90451   1.95772
   0.97595  -2.42567   1.47888
  -0.46057  -1.70741   1.23946
  -2.13651  -1.22857   1.23946
  -3.81245  -0.51031   1.47888
  -5.48839   0.68679   1.47888
  -6.68549   1.40505   2.19714
  -7.64317   1.40505   2.91540
  -8.12202   1.16563   4.35192
  -8.60086   0.68679   6.02786
  -8.84028  -0.03147   7.94322
  -9.07970  -0.27089   9.37974
  -9.07970  -0.98915  10.81626
  -8.84028  -0.98915  11.53453
  -8.36144  -0.74973  11.53453
  -7.64317  -0.27089  11.05569
  -6.92491   0.44737  10.33742
  -6.20665   0.92621   9.37974
  -5.96723   0.92621   8.18264
  -5.48839   0.92621   6.98554
  -4.77013   0.20795   5.78844
  -4.05187  -0.27089   4.83076
  -3.09419  -1.22857   3.63366
  -1.65767  -1.70741   2.43656
  -1.41825  -1.94683   1.47888
  -0.93941  -1.46799   0.52120
  -0.93941  -0.74973   0.28178
  -1.41825   0.20795   0.04236
  -2.61535   0.92621   1.00004
  -3.57303   0.92621   1.95772
  -4.53071   0.20795   3.15482
  -5.24897  -1.22857   3.87308
  -5.00955  -2.66509   4.35192
  -4.77013  -3.38335   4.35192
  -4.29129  -3.38335   4.11250
  -4.05187  -2.42567   4.11250
  -4.05187  -0.98915   3.87308
  -4.77013   0.20795   4.11250
  -5.72781   1.40505   3.87308
  -6.92491   2.12331   3.39424
  -7.88260   2.36273   2.43656
  -8.36144   2.60215   0.76062
  -8.36144   2.60215  -1.15474
  -7.64317   2.12331  -3.07010
  -6.68549   1.16563  -4.74605
  -5.72781  -0.03147  -5.70373
  -5.00955  -0.74973  -5.94315
  -4.77013  -1.22857  -5.70373
  -4.77013  -0.98915  -5.22489
  -4.77013  -0.03147  -4.50663
  -5.00955   1.16563  -4.50663
  -4.77013   2.36273  -4.50663
  -4.53071   3.55983  -4.50663
  -3.81245   3.55983  -4.50663
  -3.09419   3.08099  -4.02779
  -2.37593   2.12331  -3.54894
  -1.41825   0.92621  -2.59126
  -0.69999  -0.03147  -1.87300
   0.25769  -0.51031  -1.39416
   1.45479  -1.22857  -1.15474
   2.89131  -1.46799  -1.39416
   4.32783  -1.70741  -1.87300
   5.52493  -2.18625  -2.59126
   6.72204  -2.18625  -3.07010
   7.44030  -2.42567  -3.07010
   7.91914  -2.42567  -2.83068
   7.67972  -2.18625  -2.11242
   7.44030  -1.70741  -1.15474
   7.20088  -0.74973  -0.19706
   7.20088  -0.03147   0.76062
   7.44030   0.44737   1.23946
   7.67972   1.16563   1.71830
   7.91914   2.12331   1.95772
   7.67972   2.84157   2.19714
   6.96146   3.55983   2.67598
   5.76435   4.03867   2.91540
   4.08841   3.79925   3.39424
   2.89131   3.08099   3.63366
   1.93363   1.88389   3.63366
   1.45479   0.68679   3.15482
   1.45479  -0.51031   2.67598
   1.69421  -1.46799   1.47888
   1.93363  -1.94683   0.28178
   2.17305  -1.70741  -1.15474
   1.93363  -0.98915  -2.35184
   1.45479  -0.27089  -3.78837
   0.73653   0.68679  -4.98547
   0.25769   1.64447  -5.94315
   0.01827   2.12331  -6.90083
   0.01827   2.84157  -7.85851
   0.25769   2.60215  -8.09793
   0.73653   2.60215  -8.09793
