********************************************************************************
               CENTRO DE INSTRUMENTACION Y REGISTRO SISMICO  A.C.  
                       Coordinacion de Servicios Tecnicos
     Anaxagoras 814, Col. Narvarte, Benito Juarez, C.P. 03020 Mexico, D.F.
            Tels. 667 45 42/ 687 45  82             Fax. 669 25 12
********************************************************************************
ARCHIVO ESTANDAR DE ACELERACION:
VERSION DEL FORMATO                    : 2.0
NOMBRE DEL ARCHIVO                     : AU110406.141
FECHA Y HORA DE CREACION               : 01/OCT/04, 12:10
REF. CATALOGO ACELEROGRAMAS, SMIS 1996 : REGISTRO No.     /PAG.


================================================================================
DATOS DE LA ESTACION:
NOMBRE DE LA ESTACION                  : AUTODROMO
CLAVE DE LA ESTACION                   : AU11
LOCALIZACION DE LA ESTACION            : AUTODROMO HERMANOS RODRIGUEZ,
                                       : CHURUBUSCO, CD. DEPORTIVA
                                       :
                                       :
                                       :
COORDENADAS DE LA ESTACION             : 19.392 LAT. N 
                                       : 99.087 LONG. W 
ALTITUD (msnm)                         : 2234
TIPO DE SUELO                          : TERRENO BLANDO, MATERIAL COMPRESIBLE
                                       : (ARCILLAS)
                                       : 
INSTITUCION RESPONSABLE                : CIRES 
                                       :

================================================================================
DATOS DEL ACELEROGRAFO:
MODELO DEL ACELEROGRAFO                : SSA-1
NUMERO DE SERIE DEL ACELEROGRAFO       : 157
NUMERO DE CANALES                      : 3
ORIENTACION C1-C6 (rumbo;orientacion)  : /N00E/+V/N90E
ORIENTACION C7-C12 (rumbo;orientacion) :
VEL. DE MUESTREO, C1-C6 (muestras/s)   : /200/200/200
VEL. DE MUESTREO, C7-C12 (muestras/s)  :
ESC. COMPLETA DE SENSORES, C1-C6, (g)  : /2/2/2
ESC. COMPLETA DE SENSORES, C7-C12, (g) :
FREC. NAT. DE SENSORES, C1-C6, (Hz)    : /51.77/52.56/52.29
FREC. NAT. DE SENSORES, C7-C12, (Hz)   :
AMORTIGUAMIENTO DE SENSORES, C1-C6     : /.5912/.6083/.6067
AMORTIGUAMIENTO DE SENSORES, C7-C12    :
INTERVALO DE MUESTREO, C1-C6, (s)      : /0.005/0.005/0.005
INTERVALO DE MUESTREO, C7-C12, (s)     :
UMBRAL DE DISPARO, C1-C6, (Gal)        : /2/2/2
UMBRAL DE DISPARO, C7-C12, (Gal)       :
MEMORIA DE PREEVENTO (s)               : 15
TIEMPO DE POSEVENTO (s)                : 60


================================================================================
DATOS DEL SISMO:
FECHA DEL SISMO (GMT)                  : 21/JUL/00
HORA EPICENTRO (GMT)                   : 06:13:39,7
MAGNITUD(ES)                           : /Mb=5.4/Ms=5.1/Mc=5.4/Ma=5.5/Me=6.0
COORDENADAS DEL EPICENTRO              : 18.09 LAT. N
                                       : 98.97 LONG. W
PROFUNDIDAD FOCAL (km)                 : 48
FUENTE DE LOS DATOS EPICENTRALES       : SSN
                                       : INSTITUTO DE GEOFISICA, UNAM 

================================================================================
DATOS DE ESTE REGISTRO:
HORA DE LA PRIMERA MUESTRA (GMT)       : 22:56:04.00
EXACTITUD DEL TIEMPO (s)               :     
DURACION DEL REGISTRO (s), C1-C6       : /152.32/152.32/152.32
DURACION DEL REGISTRO (s), C7-C12      :
NUM. TOTAL DE MUESTRAS, C1-C6          : /30464/30464/30464
NUM. TOTAL DE MUESTRAS, C7-C12         :
ACEL. MAX. (Gal), C1-C6                : /3.20440/-1.20764/3.39218
ACEL. MAX., C1-C6, EN LA MUESTRA       :
ACEL. MAX. (Gal), C7-C12               :
ACEL. MAX., C7-C12, EN LA MUESTRA      :
UNIDADES DE LOS DATOS                  : Gal (cm/s/s)
FACTOR DE DECIMACION                   : 1
FORMATO DATOS (FORTRAN,10 campos/dato) : 3F10.5


================================================================================
CALIDAD DEL ACELEROGRAMA:
REGISTRO DIGITAL COMPLETO, CARECE DE TIEMPO ABSOLUTO.


================================================================================
COMENTARIOS:














================================================================================
DATOS DE ACELERACION:
---------+---------+---------+---------+---------+---------+---------+---------+
   CANAL-1   CANAL-2   CANAL-3   CANAL-4   CANAL-5   CANAL-6   CANAL-7   CANAL-8
      N00E        +V      N90E
---------+---------+---------+---------+---------+---------+---------+---------+
[...]
  -0.38560  -0.25764  -2.35782
  -0.62560  -0.25764  -2.35782
  -0.62560  -0.25764  -2.35782
  -0.62560  -0.49764  -2.35782
  -0.62560  -0.25764  -2.35782
  -0.62560  -0.25764  -2.11782
  -0.62560  -0.25764  -2.11782
  -0.86560  -0.25764  -2.11782
  -0.86560  -0.25764  -2.11782
  -0.86560  -0.25764  -2.11782
  -0.86560  -0.25764  -2.11782
  -0.86560  -0.25764  -2.11782
  -0.86560  -0.25764  -2.11782
  -0.86560  -0.25764  -2.11782
  -0.86560  -0.25764  -2.11782
  -0.86560  -0.25764  -1.87782
  -1.10560  -0.25764  -1.87782
  -1.10560  -0.25764  -1.87782
  -1.10560  -0.25764  -1.87782
  -1.10560  -0.25764  -1.87782
  -1.34560  -0.49764  -1.87782
  -1.34560  -0.49764  -1.63782
  -1.34560  -0.49764  -1.87782
  -1.34560  -0.49764  -1.87782
  -1.34560  -0.49764  -1.87782
  -1.34560  -0.49764  -1.87782
  -1.34560  -0.49764  -1.63782
  -1.34560  -0.49764  -1.87782
  -1.34560  -0.96764  -1.87782
  -1.34560  -0.49764  -1.63782
  -1.34560  -0.49764  -1.87782
  -1.34560  -0.25764  -1.63782
  -1.34560  -0.25764  -1.87782
  -1.34560  -0.25764  -1.87782
  -1.34560  -0.25764  -1.63782
  -1.34560  -0.25764  -1.63782
  -1.34560  -0.25764  -1.63782
  -1.34560  -0.25764  -1.63782
  -1.34560  -0.25764  -1.63782
  -1.34560  -0.25764  -1.63782
  -1.34560  -0.01764  -1.39782
  -1.34560  -0.01764  -1.39782
  -1.34560  -0.01764  -1.39782
  -1.58560  -0.01764  -1.15782
  -1.58560  -0.01764  -1.15782
  -1.58560  -0.01764  -1.15782
  -1.58560  -0.01764  -0.91782
  -1.58560  -0.01764  -0.91782
  -1.82560  -0.01764  -0.67782
  -1.82560  -0.01764  -0.67782
  -1.82560  -0.01764  -0.43782
  -1.82560  -0.01764  -0.43782
  -1.82560  -0.01764  -0.19782
  -1.82560  -0.01764  -0.19782
  -1.82560  -0.01764  -0.19782
  -2.06560  -0.01764   0.04218
  -2.06560  -0.01764  -0.19782
  -2.06560  -0.01764   0.27218
  -2.06560  -0.01764   0.51218
  -2.06560  -0.01764   0.51218
  -2.30560  -0.01764   0.75218
  -2.30560  -0.01764   0.75218
  -2.30560  -0.01764   0.75218
  -2.30560  -0.01764   0.99218
  -2.30560  -0.01764   0.99218
  -2.30560   0.22236   1.23218
  -2.30560   0.22236   1.23218
  -2.30560   0.22236   1.23218
  -2.30560   0.22236   1.47218
  -2.30560   0.22236   1.47218
  -2.30560   0.22236   1.47218
  -2.30560   0.22236   1.71218
  -2.30560   0.22236   1.71218
  -2.06560   0.22236   1.71218
  -2.06560   0.22236   1.71218
  -2.06560   0.22236   1.71218
  -1.82560   0.22236   1.71218
  -1.82560   0.46236   1.71218
  -1.82560   0.46236   1.71218
  -1.82560   0.46236   1.71218
  -1.58560   0.46236   1.71218
  -1.58560   0.46236   1.71218
  -1.58560   0.46236   1.71218
  -1.58560   0.46236   1.95218
  -1.58560   0.70236   1.71218
  -1.34560   0.70236   1.95218
  -1.34560   0.70236   1.95218
  -1.34560   0.70236   1.95218
  -1.34560   0.70236   1.95218
  -1.34560   0.70236   1.95218
  -1.10560   0.70236   1.95218
  -1.10560   0.70236   1.95218
  -1.10560   0.70236   2.19218
  -1.10560   0.70236   1.95218
  -1.10560   0.70236   1.95218
  -1.10560   0.94236   1.95218
  -0.86560   0.70236   1.95218
  -0.86560   0.70236   1.95218
  -0.86560   0.70236   2.19218
  -0.86560   0.70236   2.19218
  -0.86560   0.94236   2.19218
  -0.86560   0.94236   1.95218
  -0.86560   0.94236   1.95218
  -0.86560   0.94236   2.19218
  -0.86560   0.70236   1.95218
  -0.86560   0.70236   1.95218
  -0.86560   0.70236   1.95218
  -0.86560   0.70236   1.95218
  -0.62560   0.70236   1.95218
  -0.62560   0.70236   1.95218
  -0.62560   0.46236   1.95218
  -0.38560   0.46236   1.95218
  -0.38560   0.46236   1.95218
  -0.38560   0.46236   2.19218
  -0.38560   0.46236   2.19218
  -0.38560   0.46236   2.19218
  -0.38560   0.22236   2.19218
  -0.38560   0.46236   1.95218
  -0.14560   0.46236   2.19218
  -0.14560   0.46236   2.19218
   0.09440   0.22236   2.19218
   0.09440   0.22236   2.19218
   0.09440   0.22236   2.19218
   0.09440   0.22236   2.19218
   0.09440   0.22236   2.19218
   0.09440   0.22236   2.19218
   0.33440   0.22236   2.19218
   0.33440   0.22236   2.19218
   0.57440   0.22236   2.19218
   0.57440   0.22236   2.19218
   0.57440   0.22236   2.19218
   0.57440   0.22236   2.19218
   0.57440   0.46236   2.19218
   0.57440   0.46236   2.19218
   0.81440   0.22236   2.19218
   0.81440  -0.01764   2.19218
   0.57440  -0.01764   2.19218
   0.57440  -0.01764   2.19218
   0.57440  -0.01764   2.19218
   0.57440  -0.01764   2.19218
   0.57440   0.22236   2.19218
   0.57440   0.22236   2.19218
   0.57440   0.22236   2.19218
   0.57440  -0.01764   2.43218
   0.57440  -0.01764   2.19218
   0.57440  -0.01764   2.19218
   0.57440  -0.25764   2.19218
   0.57440  -0.25764   2.19218
   0.57440  -0.01764   2.19218
   0.81440  -0.01764   1.95218
   0.81440  -0.01764   1.95218
   1.05440  -0.01764   1.95218
   1.05440  -0.01764   1.95218
   1.05440  -0.01764   1.95218
   1.05440  -0.01764   1.95218
   1.05440  -0.01764   1.71218
   1.05440  -0.01764   1.71218
   1.05440  -0.01764   1.71218
   1.05440  -0.01764   1.71218
   1.29440  -0.01764   1.47218
   1.29440  -0.01764   1.47218
   1.29440  -0.01764   1.23218
   1.29440  -0.01764   1.23218
   1.52440  -0.01764   1.23218
   1.52440  -0.25764   1.23218
   1.52440  -0.01764   0.99218
   1.52440  -0.25764   0.75218
   1.76440  -0.25764   0.75218
   1.76440  -0.01764   0.75218
   1.76440  -0.01764   0.75218
   2.00440  -0.01764   0.51218
   2.00440  -0.01764   0.51218
   2.00440  -0.01764   0.27218
   2.24440  -0.01764   0.04218
   2.24440  -0.01764   0.04218
   2.24440  -0.01764   0.04218
   2.24440  -0.25764  -0.19782
   2.24440  -0.25764  -0.19782
   2.24440  -0.49764  -0.43782
   2.24440  -0.49764  -0.67782
   2.24440  -0.49764  -0.67782
   2.24440  -0.49764  -0.91782
   2.48440  -0.49764  -0.91782
   2.48440  -0.49764  -1.15782
   2.48440  -0.49764  -1.15782
   2.48440  -0.25764  -1.15782
   2.48440  -0.25764  -1.15782
   2.48440  -0.25764  -1.39782
   2.48440  -0.49764  -1.63782
   2.48440  -0.01764  -1.63782
   2.48440  -0.01764  -1.63782
   2.48440  -0.25764  -1.63782
   2.48440  -0.01764  -1.63782
   2.24440  -0.25764  -1.87782
   2.24440  -0.01764  -1.63782
   2.48440  -0.01764  -1.87782
   2.24440  -0.01764  -1.87782
   2.24440  -0.01764  -1.87782
   2.00440  -0.49764  -1.87782
   2.00440  -0.01764  -2.11782
   2.00440  -0.01764  -2.11782
   1.76440  -0.01764  -2.11782
   1.76440  -0.25764  -2.11782
   1.52440  -0.25764  -2.35782
   1.76440  -0.25764  -2.35782
   1.52440  -0.25764  -2.35782
   1.52440  -0.25764  -2.35782
   1.29440  -0.25764  -2.35782
   1.29440  -0.25764  -2.35782
   1.05440  -0.25764  -2.35782
   1.05440  -0.25764  -2.59782
   1.05440  -0.25764  -2.59782
   0.81440  -0.25764  -2.59782
   1.05440  -0.25764  -2.59782
   0.81440  -0.25764  -2.59782
   0.81440  -0.25764  -2.59782
   0.81440  -0.25764  -2.59782
   0.57440  -0.25764  -2.59782
   0.57440  -0.25764  -2.83782
   0.57440  -0.49764  -2.83782
   0.57440  -0.25764  -2.83782
   0.57440  -0.25764  -2.83782
   0.57440  -0.25764  -2.83782
   0.57440  -0.25764  -2.83782
   0.57440  -0.25764  -2.83782
   0.57440  -0.25764  -2.83782
   0.57440  -0.25764  -2.83782
   0.33440  -0.25764  -2.83782
   0.33440  -0.01764  -2.83782
   0.33440  -0.01764  -2.83782
   0.09440  -0.01764  -2.83782
   0.09440  -0.01764  -2.83782
   0.09440  -0.01764  -2.83782
   0.09440  -0.25764  -2.83782
  -0.14560  -0.01764  -2.83782
   0.09440  -0.01764  -2.83782
  -0.14560  -0.01764  -2.83782
  -0.14560  -0.01764  -2.83782
  -0.14560  -0.01764  -2.83782
  -0.38560  -0.01764  -2.59782
  -0.38560  -0.01764  -2.59782
  -0.38560  -0.01764  -2.59782
  -0.38560  -0.01764  -2.59782
  -0.38560  -0.01764  -2.59782
  -0.38560  -0.01764  -2.59782
  -0.38560  -0.01764  -2.35782
  -0.38560  -0.01764  -2.35782
  -0.86560  -0.01764  -2.35782
  -0.62560  -0.01764  -2.11782
  -0.62560  -0.01764  -2.11782
  -0.62560  -0.25764  -2.11782
  -0.62560  -0.25764  -2.11782
  -0.62560  -0.25764  -1.87782
  -0.62560  -0.25764  -1.87782
  -0.62560  -0.25764  -1.63782
  -0.62560  -0.25764  -1.87782
  -0.62560  -0.25764  -1.63782
  -0.62560  -0.25764  -1.63782
  -0.62560  -0.25764  -1.63782
  -0.62560  -0.25764  -1.63782
  -0.62560  -0.25764  -1.63782
  -0.62560  -0.25764  -1.63782
  -0.62560  -0.25764  -1.63782
  -0.62560  -0.01764  -1.63782
  -0.62560  -0.01764  -1.63782
  -0.62560  -0.01764  -1.63782
  -0.62560  -0.01764  -1.63782
  -0.62560  -0.01764  -1.39782
  -0.62560  -0.01764  -1.39782
  -0.62560  -0.01764  -1.39782
  -0.62560  -0.01764  -1.39782
  -0.62560  -0.01764  -1.39782
  -0.62560  -0.01764  -1.39782
  -0.62560  -0.01764  -1.15782
  -0.62560  -0.01764  -1.15782
  -0.62560  -0.01764  -1.15782
  -0.62560  -0.01764  -1.15782
  -0.62560  -0.01764  -1.15782
  -0.62560  -0.01764  -1.15782
  -0.62560  -0.01764  -1.15782
  -0.62560  -0.01764  -1.15782
  -0.62560  -0.01764  -1.15782
  -0.62560  -0.01764  -1.39782
  -0.62560  -0.25764  -1.15782
  -0.62560  -0.01764  -1.15782
  -0.62560  -0.01764  -1.15782
  -0.62560  -0.25764  -1.15782
  -0.38560  -0.01764  -1.15782
  -0.38560  -0.01764  -1.39782
  -0.38560  -0.01764  -1.15782
  -0.62560  -0.01764  -1.15782
  -0.38560  -0.01764  -1.15782
  -0.38560  -0.01764  -1.15782
  -0.38560  -0.01764  -0.91782
  -0.38560  -0.01764  -0.91782
  -0.38560  -0.01764  -0.91782
  -0.38560  -0.01764  -0.67782
  -0.14560  -0.01764  -1.15782
  -0.14560  -0.01764  -0.67782
  -0.14560  -0.01764  -0.67782
  -0.14560  -0.25764  -0.67782
  -0.14560  -0.01764  -0.67782
  -0.14560  -0.01764  -0.67782
   0.09440  -0.01764  -0.43782
   0.09440   0.22236  -0.43782
   0.09440   0.22236  -0.43782
   0.09440   0.22236  -0.43782
   0.09440   0.22236  -0.43782
   0.09440   0.22236  -0.19782
   0.09440   0.22236  -0.19782
   0.09440   0.22236  -0.19782
   0.33440   0.46236   0.04218
   0.33440   0.22236   0.04218
   0.33440   0.46236   0.04218
   0.33440   0.22236   0.04218
   0.33440   0.22236   0.04218
   0.33440   0.22236   0.27218
   0.33440   0.22236   0.27218
   0.33440  -0.01764   0.51218
   0.33440  -0.01764   0.51218
   0.33440  -0.01764   0.75218
   0.33440  -0.01764   0.75218
   0.33440  -0.01764   0.75218
   0.33440  -0.25764   0.99218
   0.33440  -0.25764   1.23218
   0.33440  -0.25764   1.23218
   0.33440  -0.25764   1.23218
   0.09440  -0.25764   1.47218
   0.33440  -0.25764   1.71218
   0.33440  -0.25764   1.71218
   0.33440  -0.25764   1.71218
   0.33440  -0.25764   1.95218
   0.33440  -0.25764   2.19218
   0.33440  -0.49764   2.19218
   0.33440  -0.25764   2.19218
   0.33440  -0.25764   2.43218
   0.33440  -0.49764   2.43218
   0.33440  -0.49764   2.43218
   0.33440  -0.49764   2.67218
   0.57440  -0.49764   2.67218
   0.33440  -0.49764   2.67218
   0.57440  -0.25764   2.91218
   0.57440  -0.25764   2.91218
   0.57440  -0.25764   2.91218
   0.57440  -0.25764   2.91218
   0.57440  -0.25764   3.15218
   0.57440  -0.25764   3.15218
   0.57440  -0.25764   3.15218
   0.57440  -0.01764   3.15218
   0.57440  -0.01764   3.39218
   0.57440  -0.25764   3.15218
   0.57440  -0.01764   3.39218
   0.57440  -0.01764   3.39218
   0.57440  -0.01764   3.15218
   0.57440  -0.01764   3.15218
   0.57440  -0.01764   3.15218
   0.57440  -0.01764   3.15218
   0.57440  -0.01764   3.15218
   0.33440  -0.01764   3.15218
   0.33440  -0.25764   3.15218
   0.57440  -0.01764   2.91218
   0.57440  -0.25764   2.91218
   0.33440  -0.25764   2.91218
   0.33440  -0.25764   2.91218
   0.33440  -0.25764   2.91218
   0.57440  -0.25764   2.91218
   0.57440  -0.25764   2.91218
   0.57440  -0.25764   2.91218
   0.57440  -0.25764   2.91218
   0.57440  -0.25764   2.91218
   0.57440  -0.25764   2.91218
   0.57440  -0.01764   2.91218
   0.57440  -0.01764   2.91218
   0.57440  -0.01764   2.91218
   0.57440  -0.01764   2.91218
   0.81440  -0.01764   2.91218
   0.81440  -0.01764   2.91218
   0.81440  -0.01764   2.67218
   0.81440   0.22236   2.91218
   0.81440   0.22236   2.67218
   1.05440   0.22236   2.67218
   0.81440   0.22236   2.67218
   1.05440   0.22236   2.67218
   1.05440   0.22236   2.67218
   1.05440   0.22236   2.67218
   1.29440   0.46236   2.67218
   1.29440   0.46236   2.67218
   1.29440   0.46236   2.43218
   1.29440   0.46236   2.43218
   1.29440   0.46236   2.43218
   1.29440   0.46236   2.43218
   1.29440   0.22236   2.19218
   1.29440   0.22236   2.19218
   1.29440   0.22236   2.19218
   1.05440  -0.01764   2.19218
   1.29440  -0.01764   2.19218
   1.05440  -0.01764   2.19218
   1.05440  -0.01764   1.95218
   1.05440  -0.01764   1.95218
   1.05440  -0.49764   1.71218
   1.05440  -0.01764   1.71218
   1.05440  -0.25764   1.71218
   1.05440  -0.25764   1.71218
   0.81440  -0.25764   1.71218
   0.81440  -0.25764   1.71218
   0.81440  -0.25764   1.47218
   0.57440  -0.01764   1.47218
   0.57440  -0.01764   1.47218
   0.57440  -0.01764   1.47218
   0.57440  -0.01764   1.23218
   0.33440  -0.01764   1.23218
   0.57440   0.22236   1.23218
   0.33440   0.22236   1.23218
   0.33440   0.22236   1.23218
   0.33440   0.22236   1.47218
   0.33440   0.22236   1.47218
   0.09440   0.22236   1.47218
   0.09440   0.22236   1.47218
   0.09440   0.22236   1.47218
   0.09440   0.22236   1.47218
   0.09440   0.22236   1.71218
   0.09440   0.22236   1.71218
   0.09440   0.22236   1.71218
   0.09440   0.22236   1.95218
  -0.14560   0.22236   1.95218
  -0.14560  -0.01764   1.95218
  -0.14560  -0.01764   1.95218
  -0.14560  -0.01764   2.19218
  -0.14560  -0.01764   2.19218
  -0.14560  -0.01764   2.19218
  -0.14560  -0.01764   2.19218
  -0.14560  -0.01764   2.19218
  -0.38560  -0.25764   2.19218
  -0.38560  -0.01764   2.19218
  -0.38560  -0.01764   2.19218
  -0.38560  -0.01764   2.19218
  -0.38560  -0.25764   2.19218
  -0.38560  -0.01764   2.19218
  -0.38560  -0.01764   2.19218
  -0.62560  -0.01764   1.95218
  -0.62560  -0.01764   1.95218
  -0.62560  -0.01764   1.95218
  -0.62560  -0.01764   1.95218
  -0.62560  -0.01764   1.95218
  -0.86560  -0.01764   1.71218
  -0.86560  -0.01764   1.71218
  -0.86560  -0.01764   1.71218
  -0.86560  -0.01764   1.71218
  -0.86560  -0.01764   1.71218
  -0.86560   0.22236   1.71218
  -1.10560   0.22236   1.47218
  -1.10560   0.22236   1.47218
  -1.10560   0.22236   1.47218
  -1.10560   0.22236   1.47218
  -1.34560   0.22236   1.23218
  -1.34560   0.22236   1.23218
  -1.34560   0.22236   1.47218
  -1.34560   0.22236   1.47218
  -1.34560   0.22236   1.23218
  -1.34560   0.22236   1.23218
  -1.34560   0.22236   1.23218
  -1.34560   0.22236   1.23218
  -1.58560   0.22236   1.23218
  -1.58560   0.22236   1.47218
  -1.58560   0.22236   1.47218
  -1.58560   0.22236   1.23218
  -1.58560   0.22236   1.47218
  -1.58560  -0.01764   1.47218
  -1.58560  -0.01764   1.47218
  -1.58560  -0.01764   1.47218
  -1.58560  -0.01764   1.47218
  -1.58560  -0.01764   1.47218
  -1.58560  -0.01764   1.47218
  -1.58560  -0.01764   1.47218
  -1.58560  -0.01764   1.47218
  -1.58560  -0.25764   1.47218
  -1.34560  -0.01764   1.47218
  -1.34560  -0.01764   1.47218
  -1.58560  -0.01764   1.47218
  -1.58560  -0.01764   1.47218
  -1.58560  -0.01764   1.47218
  -1.58560  -0.01764   1.23218
  -1.82560  -0.01764   1.23218
  -1.82560  -0.01764   1.23218
  -1.82560   0.22236   0.99218
  -1.82560   0.22236   0.99218
  -1.82560   0.22236   0.99218
  -1.82560   0.22236   0.75218
  -1.82560   0.22236   0.75218
  -1.82560   0.22236   0.51218
  -1.82560   0.22236   0.27218
  -1.82560   0.22236   0.27218
  -1.82560   0.22236   0.04218
  -1.82560   0.22236   0.04218
  -1.82560   0.22236  -0.19782
  -1.82560   0.22236  -0.19782
  -1.82560  -0.01764  -0.43782
  -1.82560  -0.01764  -0.43782
  -1.82560  -0.01764  -0.67782
