********************************************************************************
               CENTRO DE INSTRUMENTACION Y REGISTRO SISMICO  A.C.  
                       Coordinacion de Servicios Tecnicos
     Anaxagoras 814, Col. Narvarte, Benito Juarez, C.P. 03020 Mexico, D.F.
            Tels. 667 45 42/ 687 45  82             Fax. 669 25 12
********************************************************************************
ARCHIVO ESTANDAR DE ACELERACION:
VERSION DEL FORMATO                    : 2.0
NOMBRE DEL ARCHIVO                     : AU119603.271
FECHA Y HORA DE CREACION               : 27/MAR/98, 3:55
REF. CATALOGO ACELEROGRAMAS, SMIS 1996 : REGISTRO No.     /PAG.


================================================================================
DATOS DE LA ESTACION:
NOMBRE DE LA ESTACION                  : AUTODROMO
CLAVE DE LA ESTACION                   : AU11
LOCALIZACION DE LA ESTACION            : AUTODROMO HERMANOS RODRIGUEZ,
                                       : CHURUBUSCO, CD. DEPORTIVA
                                       :
                                       :
                                       :
COORDENADAS DE LA ESTACION             : 19.392 LAT. N 
                                       : 99.087 LONG. W 
ALTITUD (msnm)                         : 2234
TIPO DE SUELO                          : TERRENO BLANDO, MATERIAL COMPRESIBLE
                                       : (ARCILLAS)
                                       : 
INSTITUCION RESPONSABLE                : CIRES 
                                       :

================================================================================
DATOS DEL ACELEROGRAFO:
MODELO DEL ACELEROGRAFO                : SSA-1
NUMERO DE SERIE DEL ACELEROGRAFO       : 157
NUMERO DE CANALES                      : 3
ORIENTACION C1-C6 (rumbo;orientacion)  : /N00E/+V/N90E
ORIENTACION C7-C12 (rumbo;orientacion) :
VEL. DE MUESTREO, C1-C6 (muestras/s)   : /200/200/200
VEL. DE MUESTREO, C7-C12 (muestras/s)  :
ESC. COMPLETA DE SENSORES, C1-C6, (g)  : /2/2/2
ESC. COMPLETA DE SENSORES, C7-C12, (g) :
FREC. NAT. DE SENSORES, C1-C6, (Hz)    : /51.77/52.56/52.29
FREC. NAT. DE SENSORES, C7-C12, (Hz)   :
AMORTIGUAMIENTO DE SENSORES, C1-C6     : /0.5912/0.6083/0.6067
AMORTIGUAMIENTO DE SENSORES, C7-C12    :
INTERVALO DE MUESTREO, C1-C6, (s)      : /0.005/0.005/0.005
INTERVALO DE MUESTREO, C7-C12, (s)     : 
UMBRAL DE DISPARO, C1-C6, (Gal)        : /2/2/2
UMBRAL DE DISPARO, C7-C12, (Gal)       :
MEMORIA DE PREEVENTO (s)               : 15
TIEMPO DE POSEVENTO (s)                : 60


================================================================================
DATOS DEL SISMO:
FECHA DEL SISMO (GMT)                  : 27/MAR/96
HORA EPICENTRO (GMT)                   : 12:34:48,2
MAGNITUD(ES)                           : /Mb=5.5/Ms=4.9/Mc=4.6
COORDENADAS DEL EPICENTRO              : 16.210 LAT. N
                                       : 98.250 LONG. W
PROFUNDIDAD FOCAL (km)                 : 7
FUENTE DE LOS DATOS EPICENTRALES       : SSN
                                       : INSTITUTO DE GEOFISICA, UNAM

================================================================================
DATOS DE ESTE REGISTRO:
HORA DE LA PRIMERA MUESTRA (GMT)       : 12:36:34.00
EXACTITUD DEL TIEMPO (s)               :     
DURACION DEL REGISTRO (s), C1-C6       : /84.48/84.48/84.48
DURACION DEL REGISTRO (s), C7-C12      :
NUM. TOTAL DE MUESTRAS, C1-C6          : /16896/16896/16896
NUM. TOTAL DE MUESTRAS, C7-C12         :
ACEL. MAX. (Gal), C1-C6                : /2.40/0.96/2.63
ACEL. MAX., C1-C6, EN LA MUESTRA       :
ACEL. MAX. (Gal), C7-C12               :
ACEL. MAX., C7-C12, EN LA MUESTRA      :
UNIDADES DE LOS DATOS                  : Gal (cm/s/s)
FACTOR DE DECIMACION                   : 1
FORMATO DATOS (FORTRAN,10 campos/dato) : 3F10.2


================================================================================
CALIDAD DEL ACELEROGRAMA:
REGISTRO DIGITAL COMPLETO, CARECE DE TIEMPO ABSOLUTO.


================================================================================
COMENTARIOS:














================================================================================
DATOS DE ACELERACION:
---------+---------+---------+---------+---------+---------+---------+---------+
   CANAL-1   CANAL-2   CANAL-3   CANAL-4   CANAL-5   CANAL-6   CANAL-7   CANAL-8
      N00E        +V      N90E
---------+---------+---------+---------+---------+---------+---------+---------+
[...]
     -0.72      0.24     -0.96
     -0.72      0.24     -0.96
     -0.72      0.24     -0.96
     -0.72      0.24     -0.96
     -0.72      0.24     -0.96
     -0.72      0.24     -0.96
     -0.72      0.24     -0.96
     -0.72      0.24     -0.96
     -0.72      0.24     -0.96
     -0.72      0.24     -0.96
     -0.72      0.24     -0.96
     -0.72      0.24     -0.96
     -0.72      0.24     -0.96
     -0.72      0.24     -0.96
     -0.72      0.24     -0.96
     -0.72      0.24     -0.96
     -0.72      0.24     -0.96
     -0.72      0.24     -0.96
     -0.72      0.24     -0.96
     -0.72      0.24     -0.96
     -0.72      0.24     -0.96
     -0.72      0.00     -0.96
     -0.48      0.00     -0.96
     -0.48      0.24     -0.96
     -0.48      0.24     -0.96
     -0.48      0.00     -0.96
     -0.48      0.24     -0.96
     -0.48      0.00     -0.96
     -0.24      0.00     -0.96
     -0.24      0.00     -0.96
     -0.24      0.24     -0.96
     -0.24      0.00     -0.96
     -0.24      0.00     -0.96
     -0.24      0.00     -0.96
     -0.24      0.00     -0.72
     -0.24      0.00     -0.72
     -0.24      0.24     -0.72
      0.00      0.24     -0.72
      0.00      0.00     -0.72
      0.00      0.24     -0.72
      0.00      0.24     -0.72
      0.00      0.24     -0.72
      0.00      0.24     -0.72
      0.00      0.24     -0.72
      0.00      0.24     -0.72
      0.00      0.24     -0.72
      0.24      0.24     -0.72
      0.24      0.24     -0.72
      0.00      0.24     -0.72
      0.00      0.24     -0.48
      0.24      0.24     -0.48
      0.24      0.24     -0.48
      0.24      0.24     -0.48
      0.24      0.24     -0.48
      0.24      0.24     -0.48
      0.00      0.24     -0.48
      0.00      0.24     -0.48
      0.24      0.24     -0.48
      0.00      0.24     -0.48
      0.00      0.24     -0.48
      0.00      0.24     -0.48
      0.00      0.24     -0.48
      0.00      0.24     -0.48
      0.00      0.24     -0.48
      0.00      0.24     -0.48
      0.00      0.24     -0.48
      0.00      0.24     -0.24
      0.00      0.24     -0.48
      0.00      0.24     -0.48
      0.00      0.24     -0.24
      0.00      0.24     -0.24
      0.00      0.24     -0.24
      0.00      0.24     -0.24
      0.00      0.24     -0.24
      0.00      0.24     -0.24
      0.00      0.24     -0.24
      0.00      0.24     -0.24
      0.24      0.24     -0.24
      0.24      0.24     -0.24
      0.24      0.24     -0.24
      0.24      0.24     -0.24
      0.24      0.24     -0.24
      0.00      0.24      0.00
      0.24      0.24      0.00
      0.24      0.24      0.00
      0.24      0.48      0.00
      0.24      0.48      0.00
      0.24      0.48      0.00
      0.24      0.48      0.00
      0.24      0.48      0.00
      0.24      0.48      0.00
      0.24      0.48      0.24
      0.24      0.48      0.00
      0.48      0.48      0.00
      0.24      0.48      0.00
      0.48      0.48      0.00
      0.48      0.48      0.00
      0.48      0.48      0.00
      0.48      0.72      0.24
      0.48      0.48      0.00
      0.48      0.72      0.00
      0.48      0.72      0.00
      0.48      0.72      0.00
      0.48      0.72      0.00
      0.48      0.72      0.00
      0.48      0.72      0.00
      0.48      0.72      0.00
      0.48      0.72      0.00
      0.48      0.72      0.00
      0.48      0.72      0.00
      0.72      0.72      0.00
      0.48      0.72      0.00
      0.72      0.72      0.00
      0.48      0.72      0.00
      0.72      0.72      0.00
      0.48      0.72      0.00
      0.72      0.72      0.00
      0.72      0.72      0.00
      0.72      0.72      0.00
      0.72      0.72      0.00
      0.72      0.72      0.00
      0.48      0.48      0.00
      0.72      0.48      0.00
      0.72      0.48      0.00
      0.48      0.48      0.24
      0.48      0.48      0.24
      0.48      0.48      0.24
      0.48      0.48      0.24
      0.48      0.24      0.24
      0.48      0.48      0.24
      0.48      0.24      0.24
      0.48      0.24      0.24
      0.24      0.24      0.24
      0.24      0.24      0.24
      0.24      0.24      0.24
      0.24      0.24      0.24
      0.24      0.24      0.48
      0.24      0.24      0.48
      0.24      0.24      0.48
      0.24      0.24      0.48
      0.24      0.24      0.48
      0.00      0.24      0.48
      0.00      0.24      0.48
      0.00      0.24      0.72
      0.00      0.24      0.72
      0.00      0.24      0.72
      0.00      0.24      0.72
     -0.24      0.24      0.72
     -0.24      0.00      0.72
     -0.24      0.00      0.72
     -0.24      0.00      0.72
     -0.24      0.00      0.96
     -0.24      0.24      0.96
     -0.24      0.00      0.96
     -0.24      0.00      0.96
     -0.24      0.00      0.96
     -0.24      0.00      0.96
     -0.24      0.00      0.96
     -0.24      0.00      0.96
     -0.24      0.00      0.96
     -0.24      0.00      0.96
     -0.48      0.00      0.96
     -0.48      0.00      0.96
     -0.48      0.00      1.20
     -0.48      0.00      0.96
     -0.72      0.00      1.20
     -0.48      0.00      1.20
     -0.48      0.00      0.72
     -0.48      0.00      0.96
     -0.24      0.24      1.20
     -0.24      0.00      1.20
     -0.24      0.00      1.20
     -0.48      0.00      0.96
     -0.24      0.24      1.20
     -0.24      0.00      1.20
     -0.24      0.00      1.20
     -0.24      0.00      1.20
     -0.24      0.24      1.20
     -0.24      0.24      1.20
     -0.24      0.24      1.20
     -0.24      0.00      1.20
     -0.24      0.00      1.20
     -0.24      0.00      1.20
      0.00      0.00      1.20
      0.00      0.00      1.20
      0.00      0.00      1.20
      0.00      0.00      1.20
      0.00      0.00      1.20
      0.00      0.00      1.20
      0.24      0.00      1.20
      0.00      0.00      1.20
      0.24      0.00      1.44
      0.24      0.00      1.44
      0.24      0.00      1.44
      0.24     -0.24      1.44
      0.24      0.00      1.44
      0.24      0.00      1.44
      0.48      0.00      1.68
      0.48      0.00      1.44
      0.48     -0.24      1.68
      0.48      0.00      1.68
      0.48     -0.24      1.68
      0.72     -0.24      1.68
      0.72     -0.24      1.68
      0.72     -0.24      1.68
      0.72     -0.24      1.68
      0.72     -0.24      1.68
      0.72     -0.24      1.68
      0.72     -0.24      1.92
      0.72     -0.24      1.92
      0.72     -0.24      1.92
      0.72     -0.24      1.92
      0.72     -0.24      1.92
      0.72     -0.24      1.92
      0.72     -0.24      1.92
      0.96     -0.24      1.92
      0.96     -0.24      1.92
      0.96     -0.24      2.16
      0.96     -0.24      2.16
      0.96     -0.24      2.16
      0.96     -0.24      2.16
      0.96     -0.24      2.16
      0.96     -0.24      2.16
      0.96     -0.24      2.16
      0.96     -0.48      2.16
      0.96     -0.24      2.16
      0.96     -0.24      2.16
      0.96     -0.24      2.16
      0.96     -0.24      2.16
      0.96     -0.48      2.16
      0.96     -0.24      2.16
      0.96     -0.24      2.16
      0.96     -0.24      2.16
      0.96     -0.24      2.16
      0.96     -0.24      2.16
      1.20     -0.24      2.16
      0.96     -0.24      2.16
      0.96     -0.24      2.16
      0.96     -0.24      2.16
      0.96     -0.24      2.40
      0.96     -0.24      2.16
      0.96     -0.24      2.16
      0.96     -0.24      2.40
      0.96     -0.24      2.40
      0.96     -0.24      2.40
      0.96     -0.24      2.40
      0.96     -0.24      2.40
      0.96     -0.24      2.40
      0.96     -0.24      2.40
      0.96     -0.24      2.40
      0.72     -0.24      2.40
      0.72     -0.24      2.40
      0.72     -0.24      2.40
      0.72     -0.24      2.16
      0.72     -0.24      2.16
      0.72     -0.24      2.16
      0.72     -0.24      2.16
      0.72     -0.24      1.92
      0.72     -0.24      2.16
      0.48     -0.24      1.92
      0.48     -0.24      2.16
      0.48     -0.24      1.92
      0.48     -0.24      1.92
      0.48     -0.24      1.92
      0.48     -0.24      1.92
      0.48     -0.24      1.68
      0.24     -0.24      1.68
      0.48     -0.24      1.68
      0.48     -0.24      1.68
      0.48     -0.24      1.44
      0.48     -0.24      1.44
      0.24     -0.24      1.44
      0.24     -0.24      1.20
      0.24     -0.24      1.20
      0.24     -0.24      1.20
      0.24     -0.24      1.20
      0.24     -0.24      0.96
      0.24     -0.24      0.96
      0.24      0.00      0.96
      0.24     -0.24      0.72
      0.24      0.00      0.72
      0.24      0.00      0.72
      0.24      0.00      0.72
      0.48      0.00      0.72
      0.48      0.00      0.48
      0.48      0.00      0.48
      0.48      0.00      0.48
      0.48      0.00      0.48
      0.48      0.00      0.24
      0.48      0.00      0.24
      0.24      0.00      0.24
      0.48      0.24      0.24
      0.48      0.24      0.24
      0.24      0.24      0.24
      0.48      0.24      0.00
      0.24      0.24      0.00
      0.24      0.24      0.00
      0.24      0.24      0.00
      0.24      0.24      0.00
      0.24      0.24     -0.24
      0.24      0.24     -0.24
      0.24      0.24     -0.24
      0.24      0.24     -0.24
      0.24      0.24     -0.24
      0.24      0.24     -0.24
      0.00      0.24     -0.24
      0.00      0.24     -0.24
      0.00      0.24     -0.48
      0.00      0.48     -0.48
     -0.24      0.24     -0.48
      0.00      0.48     -0.48
     -0.24      0.48     -0.48
     -0.24      0.48     -0.72
     -0.24      0.48     -0.72
     -0.24      0.48     -0.72
     -0.24      0.48     -0.72
     -0.24      0.48     -0.72
     -0.48      0.48     -0.72
     -0.48      0.48     -0.96
     -0.48      0.72     -0.96
     -0.48      0.72     -0.96
     -0.72      0.72     -0.96
     -0.72      0.72     -0.96
     -0.72      0.72     -0.96
     -0.72      0.72     -1.20
     -0.72      0.72     -1.20
     -0.96      0.72     -1.20
     -0.96      0.72     -1.20
     -0.96      0.72     -1.20
     -0.96      0.72     -1.20
     -1.20      0.72     -1.20
     -1.20      0.72     -1.20
     -1.20      0.72     -1.44
     -1.20      0.72     -1.20
     -1.44      0.72     -1.44
     -1.44      0.72     -1.44
     -1.44      0.72     -1.44
     -1.44      0.48     -1.44
     -1.68      0.72     -1.44
     -1.68      0.72     -1.44
     -1.68      0.72     -1.20
     -1.68      0.72     -1.20
     -1.92      0.48     -1.20
     -1.92      0.48     -1.20
     -1.92      0.48     -1.20
     -2.16      0.48     -1.20
     -2.16      0.48     -1.20
     -2.16      0.48     -1.20
     -2.16      0.48     -1.20
     -2.40      0.48     -1.20
     -2.40      0.48     -1.20
     -2.40      0.48     -1.20
     -2.40      0.48     -1.20
     -2.40      0.48     -1.20
     -2.40      0.48     -0.96
     -2.40      0.48     -0.96
     -2.40      0.48     -0.96
     -2.40      0.24     -0.96
     -2.40      0.48     -0.96
     -2.40      0.48     -0.96
     -2.40      0.48     -0.72
     -2.40      0.48     -0.72
     -2.40      0.48     -0.72
     -2.40      0.48     -0.72
     -2.40      0.48     -0.72
     -2.40      0.48     -0.72
     -2.40      0.24     -0.72
     -2.40      0.48     -0.48
     -2.40      0.24     -0.48
     -2.16      0.48     -0.48
     -2.16      0.24     -0.48
     -2.16      0.24     -0.24
     -2.16      0.24     -0.24
     -2.16      0.24     -0.24
     -2.16      0.24     -0.24
     -1.92      0.24     -0.24
     -1.92      0.24     -0.24
     -1.92      0.24      0.00
     -1.92      0.24      0.00
     -1.92      0.24      0.00
     -1.68      0.24      0.00
     -1.68      0.24      0.24
     -1.68      0.24      0.24
     -1.68      0.24      0.24
     -1.68      0.24      0.24
     -1.44      0.24      0.24
     -1.44      0.24      0.24
     -1.44      0.24      0.48
     -1.20      0.24      0.48
     -1.44      0.24      0.48
     -1.20      0.24      0.48
     -1.20      0.24      0.24
     -1.20      0.24      0.72
     -0.96      0.24      0.72
     -0.96      0.24      0.72
     -0.96      0.24      0.72
     -0.72      0.24      0.72
     -1.20      0.24      0.72
     -0.72      0.24      0.96
     -0.48      0.24      0.96
     -0.48      0.24      0.96
     -0.48      0.24      0.96
     -0.24      0.24      0.96
     -0.24      0.24      0.96
     -0.24      0.24      0.96
     -0.24      0.24      1.20
      0.00      0.24      1.20
      0.00      0.24      1.20
      0.00      0.24      1.20
      0.00      0.24      1.20
      0.24      0.24      1.20
      0.24      0.24      1.20
      0.24      0.24      1.20
      0.24      0.24      1.20
      0.48      0.24      1.20
      0.48      0.00      1.20
      0.48      0.24      1.20
      0.48      0.00      1.20
      0.48      0.00      1.20
      0.72      0.00      1.20
      0.72      0.00      1.20
      0.72      0.00      1.20
      0.72      0.00      1.20
      0.72      0.00      1.20
      0.72      0.00      1.20
      0.72      0.00      1.20
      0.72      0.00      0.96
      0.72      0.00      1.20
      0.72      0.00      1.20
      0.72      0.00      1.20
      0.72      0.00      1.20
      0.72      0.00      1.20
      0.72      0.00      1.20
      0.96      0.00      1.20
      0.72      0.00      1.20
      0.72      0.00      1.20
      0.72      0.24      1.20
      0.96      0.00      1.20
      0.96      0.00      1.20
      0.96      0.00      1.20
      0.72      0.00      1.20
      0.72      0.00      1.20
      0.96     -0.24      1.20
      0.96      0.00      0.96
      0.96      0.00      0.96
      0.72      0.00      0.96
      0.72      0.00      0.96
      0.72      0.00      0.96
      0.72      0.00      0.96
      0.72      0.00      0.96
      0.72      0.00      0.96
      0.72      0.00      0.96
      0.72      0.00      0.96
      0.96      0.00      0.96
      0.72      0.00      0.96
      0.72      0.00      0.96
      0.72      0.00      0.96
      0.72      0.00      0.96
      0.72      0.00      0.96
      0.72      0.00      0.96
      0.72      0.00      0.96
      0.72      0.00      0.96
      0.72      0.00      0.96
      0.72      0.00      0.72
      0.72      0.24      0.96
      0.72      0.00      0.72
      0.72      0.00      0.72
      0.72      0.00      0.72
      0.72      0.24      0.72
      0.72      0.24      0.72
      0.72      0.24      0.72
      0.72      0.24      0.72
      0.72      0.24      0.72
      0.48      0.24      0.72
      0.48      0.24      0.72
      0.48      0.24      0.48
      0.48      0.24      0.48
      0.48      0.24      0.48
      0.48      0.24      0.48
      0.48      0.24      0.48
      0.48      0.24      0.48
      0.48      0.24      0.48
      0.48      0.24      0.48
      0.48      0.24      0.48
      0.48      0.24      0.24
      0.24      0.24      0.48
      0.24      0.24      0.48
      0.24      0.24      0.24
      0.24      0.24      0.48
      0.24      0.24      0.48
      0.48      0.24      0.24
      0.24      0.24      0.24
      0.24      0.24      0.24
      0.24      0.24      0.24
      0.24      0.24      0.48
      0.24      0.24      0.24
      0.24      0.24      0.24
      0.24      0.24      0.24
      0.24      0.24      0.24
      0.24      0.24      0.48
