********************************************************************************
               CENTRO DE INSTRUMENTACION Y REGISTRO SISMICO  A.C.  
                       Coordinacion de Servicios Tecnicos
     Anaxagoras 814, Col. Narvarte, Benito Juarez, C.P. 03020 Mexico, D.F.
            Tels. 667 45 42/ 687 45  82             Fax. 669 25 12
********************************************************************************
ARCHIVO ESTANDAR DE ACELERACION:
VERSION DEL FORMATO                    : 2.0
NOMBRE DEL ARCHIVO                     : AU119802.031
FECHA Y HORA DE CREACION               : 31/ENERO/2000, 10:10
REF. CATALOGO ACELEROGRAMAS, SMIS 1996 : REGISTRO No.     /PAG.


================================================================================
DATOS DE LA ESTACION:
NOMBRE DE LA ESTACION                  : AUTODROMO
CLAVE DE LA ESTACION                   : AU11
LOCALIZACION DE LA ESTACION            : AUTODROMO HERMANOS RODRIGUEZ,
                                       : CHURUBUSCO, CD. DEPORTIVA
                                       :
                                       :
                                       :
COORDENADAS DE LA ESTACION             : 19.392 LAT. N 
                                       : 99.087 LONG. W 
ALTITUD (msnm)                         : 2234
TIPO DE SUELO                          : TERRENO BLANDO, MATERIAL COMPRESIBLE
                                       : (ARCILLAS)
                                       : 
INSTITUCION RESPONSABLE                : CIRES 
                                       :

================================================================================
DATOS DEL ACELEROGRAFO:
MODELO DEL ACELEROGRAFO                : SSA-1
NUMERO DE SERIE DEL ACELEROGRAFO       : 157
NUMERO DE CANALES                      : 3
ORIENTACION C1-C6 (rumbo;orientacion)  : /N00E/+V/N90E
ORIENTACION C7-C12 (rumbo;orientacion) :
VEL. DE MUESTREO, C1-C6 (muestras/s)   : /200/200/200
VEL. DE MUESTREO, C7-C12 (muestras/s)  :
ESC. COMPLETA DE SENSORES, C1-C6, (g)  : /2/2/2
ESC. COMPLETA DE SENSORES, C7-C12, (g) :
FREC. NAT. DE SENSORES, C1-C6, (Hz)    : /51.77/52.56/52.29
FREC. NAT. DE SENSORES, C7-C12, (Hz)   :
AMORTIGUAMIENTO DE SENSORES, C1-C6     : /.5912/.6083/.6067
AMORTIGUAMIENTO DE SENSORES, C7-C12    :
INTERVALO DE MUESTREO, C1-C6, (s)      : /0.005/0.005/0.005
INTERVALO DE MUESTREO, C7-C12, (s)     :
UMBRAL DE DISPARO, C1-C6, (Gal)        : /2/2/2
UMBRAL DE DISPARO, C7-C12, (Gal)       :
MEMORIA DE PREEVENTO (s)               : 15
TIEMPO DE POSEVENTO (s)                : 60


================================================================================
DATOS DEL SISMO:
FECHA DEL SISMO (GMT)                  : 03/FEB/98
HORA EPICENTRO (GMT)                   : 03:02:01.1
MAGNITUD(ES)                           : /Mb=6.0,Ms=6.2,Mc=6.4,Ma=6.4
COORDENADAS DEL EPICENTRO              : 15.69 LAT. N
                                       : 96.37 LONG. W
PROFUNDIDAD FOCAL (km)                 : 33.0
FUENTE DE LOS DATOS EPICENTRALES       : SSN
                                       : INSTITUTO DE GEOFISICA, UNAM

================================================================================
DATOS DE ESTE REGISTRO:
HORA DE LA PRIMERA MUESTRA (GMT)       : 03:04:36.00
EXACTITUD DEL TIEMPO (s)               :     
DURACION DEL REGISTRO (s), C1-C6       : /93.44/93.44/93.44
DURACION DEL REGISTRO (s), C7-C12      :
NUM. TOTAL DE MUESTRAS, C1-C6          : /18688/18688/18688
NUM. TOTAL DE MUESTRAS, C7-C12         :
ACEL. MAX. (Gal), C1-C6                : /2.17020/0.93551/2.86791
ACEL. MAX., C1-C6, EN LA MUESTRA       :
ACEL. MAX. (Gal), C7-C12               :
ACEL. MAX., C7-C12, EN LA MUESTRA      :
UNIDADES DE LOS DATOS                  : Gal (cm/s/s)
FACTOR DE DECIMACION                   : 1
FORMATO DATOS (FORTRAN,10 campos/dato) : 3F10.5


================================================================================
CALIDAD DEL ACELEROGRAMA:
REGISTRO DIGITAL COMPLETO, CARECE DE TIEMPO ABSOLUTO.


================================================================================
COMENTARIOS:














================================================================================
DATOS DE ACELERACION:
---------+---------+---------+---------+---------+---------+---------+---------+
   CANAL-1   CANAL-2   CANAL-3   CANAL-4   CANAL-5   CANAL-6   CANAL-7   CANAL-8
      N00E        +V      N90E
---------+---------+---------+---------+---------+---------+---------+---------+
[...]
   0.69980   0.02449   0.47791
   0.45980   0.02449   0.47791
   0.45980   0.02449   0.71791
   0.45980   0.02449   0.71791
   0.45980   0.02449   0.71791
   0.45980   0.02449   0.71791
   0.45980   0.02449   0.71791
   0.45980  -0.21551   0.71791
   0.45980   0.02449   0.71791
   0.45980  -0.21551   0.71791
   0.45980  -0.21551   0.95791
   0.45980   0.02449   0.95791
   0.22980   0.02449   0.95791
   0.45980   0.02449   0.95791
   0.22980  -0.21551   0.95791
   0.22980  -0.21551   0.95791
  -0.25020  -0.21551   0.95791
   0.22980  -0.21551   0.95791
   0.22980  -0.21551   0.95791
   0.22980   0.02449   0.95791
   0.22980   0.02449   0.95791
   0.22980  -0.21551   0.95791
  -0.01020  -0.21551   0.95791
   0.22980  -0.21551   1.19791
  -0.01020  -0.21551   1.19791
   0.22980  -0.21551   1.19791
   0.22980  -0.21551   1.19791
  -0.01020  -0.21551   1.19791
  -0.01020   0.02449   0.95791
  -0.01020   0.02449   1.19791
  -0.01020   0.02449   1.19791
  -0.01020  -0.21551   1.19791
  -0.01020  -0.21551   1.19791
  -0.01020  -0.21551   1.19791
  -0.01020  -0.21551   1.43791
  -0.01020  -0.21551   1.19791
  -0.25020  -0.21551   1.19791
  -0.25020  -0.21551   1.19791
  -0.25020  -0.21551   1.43791
  -0.25020  -0.21551   1.19791
  -0.25020  -0.21551   1.43791
  -0.25020  -0.21551   1.43791
  -0.25020  -0.21551   1.19791
  -0.25020  -0.21551   1.43791
  -0.25020  -0.21551   1.43791
  -0.25020  -0.21551   1.43791
  -0.25020  -0.21551   1.43791
  -0.49020   0.02449   1.43791
  -0.25020  -0.21551   1.43791
  -0.49020  -0.21551   1.43791
  -0.49020  -0.21551   1.43791
  -0.49020  -0.21551   1.43791
  -0.49020  -0.21551   1.43791
  -0.25020  -0.21551   1.43791
  -0.49020  -0.21551   1.43791
  -0.49020  -0.21551   1.43791
  -0.25020  -0.21551   1.43791
  -0.49020  -0.21551   1.43791
  -0.49020  -0.21551   1.43791
  -0.49020  -0.21551   1.43791
  -0.49020  -0.21551   1.43791
  -0.49020  -0.21551   1.43791
  -0.49020  -0.21551   1.43791
  -0.49020  -0.21551   1.43791
  -0.49020   0.02449   1.43791
  -0.49020   0.02449   1.43791
  -0.49020  -0.21551   1.43791
  -0.49020   0.02449   1.43791
  -0.49020  -0.21551   1.19791
  -0.49020  -0.21551   1.43791
  -0.73020  -0.21551   1.43791
  -0.73020   0.02449   1.43791
  -0.73020  -0.21551   1.43791
  -0.73020   0.02449   1.43791
  -0.73020   0.02449   1.43791
  -0.73020   0.02449   1.19791
  -0.73020   0.02449   1.19791
  -0.97020   0.02449   1.19791
  -0.73020   0.02449   1.19791
  -0.97020   0.02449   1.19791
  -0.97020   0.02449   1.19791
  -0.97020   0.02449   1.19791
  -0.97020   0.02449   1.19791
  -0.97020   0.02449   1.19791
  -0.97020   0.02449   1.19791
  -0.97020   0.02449   1.19791
  -0.97020   0.02449   1.19791
  -1.21020   0.02449   1.19791
  -1.21020   0.02449   1.19791
  -1.21020   0.02449   1.19791
  -1.21020   0.02449   1.19791
  -1.21020   0.02449   0.95791
  -1.21020   0.02449   0.95791
  -1.45020   0.02449   0.95791
  -1.21020   0.02449   0.95791
  -1.45020   0.02449   0.95791
  -1.45020   0.02449   0.95791
  -1.45020   0.02449   0.95791
  -1.45020   0.02449   0.95791
  -1.45020   0.02449   0.95791
  -1.45020   0.02449   0.95791
  -1.45020   0.02449   0.95791
  -1.45020   0.02449   0.95791
  -1.45020   0.02449   0.71791
  -1.45020   0.02449   0.71791
  -1.45020   0.02449   0.71791
  -1.69020   0.02449   0.71791
  -1.45020   0.02449   0.71791
  -1.45020   0.02449   0.71791
  -1.45020   0.02449   0.71791
  -1.69020   0.02449   0.71791
  -1.69020   0.02449   0.71791
  -1.69020   0.02449   0.71791
  -1.69020  -0.21551   0.71791
  -1.45020  -0.21551   0.71791
  -1.45020  -0.21551   0.71791
  -1.45020  -0.21551   0.71791
  -1.45020  -0.21551   0.71791
  -1.45020  -0.21551   0.71791
  -1.45020  -0.21551   0.71791
  -1.45020  -0.21551   0.47791
  -1.45020  -0.21551   0.47791
  -1.45020  -0.21551   0.47791
  -1.45020  -0.21551   0.47791
  -1.45020  -0.21551   0.47791
  -1.45020  -0.21551   0.47791
  -1.45020  -0.21551   0.47791
  -1.21020  -0.21551   0.47791
  -1.69020  -0.21551   0.47791
  -1.45020  -0.21551   0.47791
  -1.21020  -0.21551   0.47791
  -1.21020  -0.21551   0.47791
  -1.21020  -0.21551   0.47791
  -1.21020  -0.21551   0.47791
  -1.21020  -0.21551   0.47791
  -0.97020  -0.21551   0.47791
  -0.97020  -0.21551   0.47791
  -0.97020  -0.21551   0.47791
  -0.97020  -0.21551   0.47791
  -0.97020  -0.21551   0.47791
  -0.97020  -0.21551   0.47791
  -0.73020  -0.45551   0.47791
  -0.73020  -0.21551   0.23791
  -0.73020  -0.21551   0.47791
  -0.73020  -0.21551   0.47791
  -0.73020  -0.21551   0.23791
  -0.73020  -0.21551   0.23791
  -0.73020  -0.21551   0.47791
  -0.73020  -0.21551   0.23791
  -0.73020  -0.21551   0.23791
  -0.49020  -0.21551   0.23791
  -0.49020  -0.21551   0.23791
  -0.49020  -0.21551   0.23791
  -0.49020  -0.21551   0.23791
  -0.49020   0.02449   0.23791
  -0.25020  -0.21551   0.23791
  -0.25020  -0.21551   0.23791
  -0.25020  -0.21551   0.23791
  -0.25020   0.02449   0.23791
  -0.25020   0.02449   0.23791
  -0.25020   0.02449   0.23791
  -0.25020   0.02449   0.23791
  -0.25020   0.02449   0.23791
  -0.01020   0.02449   0.23791
  -0.01020   0.02449   0.23791
  -0.01020   0.02449   0.23791
  -0.01020   0.02449   0.23791
  -0.01020   0.02449   0.23791
  -0.01020   0.02449   0.23791
   0.22980   0.02449   0.23791
  -0.01020   0.02449   0.23791
   0.22980   0.02449   0.23791
   0.22980   0.02449   0.23791
   0.22980   0.02449   0.23791
   0.22980   0.02449   0.23791
   0.22980   0.02449   0.23791
   0.22980   0.02449   0.23791
   0.22980   0.02449  -0.00209
   0.22980   0.02449   0.23791
   0.22980   0.02449  -0.00209
   0.22980   0.02449  -0.00209
   0.22980   0.02449  -0.00209
   0.22980   0.26449  -0.00209
   0.22980   0.02449  -0.00209
   0.22980   0.02449  -0.00209
   0.22980   0.26449  -0.00209
   0.45980   0.26449  -0.00209
   0.22980   0.26449  -0.00209
   0.45980   0.26449  -0.00209
   0.45980   0.26449  -0.00209
   0.45980   0.26449  -0.00209
   0.45980   0.26449  -0.00209
   0.45980   0.26449  -0.00209
   0.45980   0.26449  -0.00209
   0.45980   0.26449  -0.48209
   0.45980   0.26449  -0.00209
   0.45980   0.26449  -0.00209
   0.45980   0.26449  -0.00209
   0.45980   0.26449  -0.24209
   0.45980   0.50449  -0.00209
   0.45980   0.26449  -0.00209
   0.45980   0.50449  -0.00209
   0.45980   0.50449  -0.00209
   0.45980   0.50449  -0.00209
   0.45980   0.50449  -0.24209
   0.45980   0.50449  -0.00209
   0.45980   0.50449  -0.24209
   0.45980   0.50449  -0.00209
   0.45980   0.50449  -0.00209
   0.45980   0.50449  -0.00209
   0.69980   0.50449  -0.00209
   0.45980   0.50449  -0.00209
   0.45980   0.50449  -0.00209
   0.45980   0.50449  -0.00209
   0.45980   0.50449  -0.00209
   0.69980   0.50449  -0.00209
   0.45980   0.50449  -0.00209
   0.45980   0.50449  -0.00209
   0.45980   0.50449  -0.00209
   0.69980   0.50449  -0.00209
   0.69980   0.50449  -0.00209
   0.69980   0.50449  -0.00209
   0.69980   0.50449  -0.00209
   0.45980   0.50449  -0.00209
   0.45980   0.50449  -0.00209
   0.45980   0.50449  -0.00209
   0.45980   0.50449  -0.00209
   0.69980   0.50449  -0.00209
   0.69980   0.50449  -0.00209
   0.69980   0.50449  -0.00209
   0.69980   0.50449  -0.00209
   0.45980   0.50449  -0.00209
   0.45980   0.50449  -0.00209
   0.69980   0.50449  -0.00209
   0.69980   0.50449  -0.00209
   0.69980   0.50449  -0.00209
   0.69980   0.50449  -0.00209
   0.69980   0.50449  -0.00209
   0.69980   0.50449  -0.00209
   0.69980   0.50449  -0.00209
   0.69980   0.50449  -0.00209
   0.69980   0.50449  -0.00209
   0.69980   0.50449  -0.00209
   0.69980   0.50449  -0.00209
   0.69980   0.50449  -0.00209
   0.45980   0.50449  -0.00209
   0.69980   0.50449  -0.00209
   0.69980   0.50449  -0.00209
   0.69980   0.50449  -0.00209
   0.69980   0.26449  -0.00209
   0.69980   0.26449  -0.00209
   0.69980   0.26449  -0.00209
   0.69980   0.26449  -0.00209
   0.69980   0.26449  -0.00209
   0.69980   0.26449  -0.00209
   0.69980   0.26449  -0.00209
   0.69980   0.26449  -0.00209
   0.69980   0.26449  -0.00209
   0.69980   0.26449  -0.00209
   0.69980   0.26449  -0.00209
   0.69980   0.26449  -0.00209
   0.69980   0.26449  -0.00209
   0.69980   0.26449  -0.00209
   0.69980   0.26449   0.23791
   0.69980   0.26449   0.23791
   0.69980   0.26449  -0.00209
   0.69980   0.26449   0.23791
   0.45980   0.26449   0.23791
   0.45980   0.26449   0.23791
   0.45980   0.26449   0.23791
   0.45980   0.26449   0.23791
   0.45980   0.26449   0.23791
   0.45980   0.02449   0.23791
   0.45980   0.26449   0.23791
   0.45980   0.02449   0.23791
   0.45980   0.26449   0.23791
   0.45980   0.26449   0.23791
   0.22980   0.26449   0.23791
   0.22980   0.02449   0.47791
   0.22980   0.02449   0.47791
   0.22980   0.02449   0.23791
   0.22980   0.02449   0.47791
   0.22980   0.02449   0.47791
   0.22980   0.02449   0.47791
   0.22980   0.02449   0.47791
   0.22980   0.02449   0.47791
  -0.01020   0.02449   0.47791
  -0.01020   0.02449   0.47791
  -0.01020   0.02449   0.47791
  -0.01020   0.02449   0.47791
  -0.01020   0.02449   0.47791
  -0.01020   0.02449   0.47791
  -0.01020   0.02449   0.71791
  -0.25020   0.02449   0.71791
  -0.25020   0.02449   0.71791
  -0.25020   0.02449   0.71791
  -0.25020   0.02449   0.71791
  -0.25020   0.02449   0.71791
  -0.25020   0.02449   0.71791
  -0.25020   0.26449   0.71791
  -0.49020   0.26449   0.71791
  -0.49020   0.02449   0.95791
  -0.49020   0.02449   0.95791
  -0.49020   0.02449   0.95791
  -0.49020   0.02449   0.95791
  -0.49020   0.02449   0.95791
  -0.49020   0.02449   0.95791
  -0.73020   0.02449   0.95791
  -0.73020   0.26449   1.19791
  -0.73020   0.26449   1.19791
  -0.73020   0.02449   1.19791
  -0.73020   0.02449   1.19791
  -0.73020   0.26449   1.19791
  -0.73020   0.02449   1.43791
  -0.73020   0.02449   1.43791
  -0.73020   0.02449   1.43791
  -0.73020   0.02449   1.43791
  -0.73020   0.02449   1.43791
  -0.73020   0.26449   1.43791
  -0.73020   0.02449   1.67791
  -0.73020   0.02449   1.67791
  -0.73020   0.02449   1.67791
  -0.97020   0.02449   1.67791
  -0.97020   0.02449   1.67791
  -0.97020   0.02449   1.90791
  -0.73020   0.02449   1.90791
  -0.73020   0.02449   1.90791
  -0.97020   0.02449   1.90791
  -0.73020   0.02449   1.90791
  -0.73020   0.02449   2.14791
  -0.73020   0.02449   2.14791
  -0.73020   0.02449   2.14791
  -0.97020   0.02449   2.14791
  -0.73020   0.02449   2.38791
  -0.73020   0.02449   2.14791
  -0.73020   0.02449   2.38791
  -0.73020   0.02449   2.38791
  -0.73020   0.02449   2.38791
  -0.73020   0.02449   2.38791
  -0.73020   0.02449   2.38791
  -0.73020   0.02449   2.38791
  -0.49020   0.02449   2.62791
  -0.49020   0.02449   2.62791
  -0.49020   0.02449   2.62791
  -0.49020   0.02449   2.62791
  -0.49020   0.02449   2.62791
  -0.49020   0.02449   2.62791
  -0.25020   0.02449   2.62791
  -0.25020   0.02449   2.62791
  -0.25020   0.02449   2.86791
  -0.25020   0.02449   2.86791
  -0.25020   0.02449   2.86791
  -0.25020   0.02449   2.86791
  -0.01020   0.02449   2.86791
  -0.01020   0.02449   2.86791
  -0.01020   0.02449   2.86791
  -0.01020   0.02449   2.86791
  -0.01020   0.02449   2.86791
   0.22980   0.02449   2.86791
   0.22980  -0.21551   2.86791
   0.22980   0.02449   2.86791
   0.22980   0.02449   2.86791
   0.22980  -0.21551   2.86791
   0.22980   0.02449   2.86791
   0.22980  -0.21551   2.86791
   0.22980   0.02449   2.86791
   0.22980   0.02449   2.86791
   0.45980   0.02449   2.86791
   0.22980  -0.21551   2.86791
   0.45980  -0.21551   2.62791
   0.45980  -0.21551   2.62791
   0.45980  -0.21551   2.62791
   0.45980   0.02449   2.62791
   0.45980  -0.21551   2.62791
   0.45980  -0.21551   2.62791
   0.45980  -0.21551   2.62791
   0.45980  -0.21551   2.62791
   0.45980  -0.21551   2.62791
   0.45980  -0.21551   2.62791
   0.45980  -0.21551   2.62791
   0.45980  -0.45551   2.38791
   0.45980  -0.21551   2.38791
   0.45980  -0.21551   2.38791
   0.45980  -0.21551   2.38791
   0.45980  -0.21551   2.38791
   0.22980  -0.21551   2.38791
   0.22980  -0.45551   2.38791
   0.22980  -0.21551   2.14791
   0.22980  -0.21551   2.14791
   0.22980  -0.45551   2.14791
   0.22980  -0.45551   2.14791
   0.22980  -0.45551   2.14791
   0.22980  -0.45551   2.14791
  -0.01020  -0.45551   2.14791
  -0.01020  -0.45551   1.90791
  -0.01020  -0.45551   1.90791
  -0.01020  -0.45551   1.90791
  -0.25020  -0.45551   1.90791
  -0.25020  -0.45551   1.90791
  -0.25020  -0.45551   1.90791
  -0.25020  -0.45551   1.90791
  -0.25020  -0.45551   1.67791
  -0.25020  -0.45551   1.90791
  -0.49020  -0.45551   1.90791
  -0.49020  -0.45551   1.67791
  -0.49020  -0.45551   1.67791
  -0.49020  -0.45551   1.67791
  -0.73020  -0.45551   1.67791
  -0.73020  -0.45551   1.67791
  -0.73020  -0.45551   1.67791
  -0.73020  -0.45551   1.67791
  -0.73020  -0.45551   1.67791
  -0.97020  -0.45551   1.43791
  -0.97020  -0.45551   1.43791
  -0.97020  -0.45551   1.43791
  -0.97020  -0.45551   1.43791
  -0.97020  -0.45551   1.43791
  -0.97020  -0.45551   1.43791
  -1.21020  -0.45551   1.43791
  -1.21020  -0.45551   1.19791
  -1.21020  -0.45551   1.43791
  -1.21020  -0.45551   1.43791
  -1.21020  -0.45551   1.43791
  -1.45020  -0.45551   1.19791
  -1.45020  -0.21551   1.19791
  -1.45020  -0.21551   1.19791
  -1.45020  -0.21551   1.19791
  -1.45020  -0.21551   1.19791
  -1.45020  -0.21551   1.19791
  -1.45020  -0.21551   1.19791
  -1.45020  -0.21551   1.19791
  -1.69020  -0.21551   1.19791
  -1.45020  -0.21551   0.95791
  -1.45020  -0.21551   0.95791
  -1.69020  -0.21551   0.95791
  -1.69020   0.02449   0.95791
  -1.69020   0.02449   0.95791
  -1.69020   0.02449   0.95791
  -1.69020   0.02449   0.71791
  -1.69020   0.02449   0.71791
  -1.69020   0.02449   0.71791
  -1.69020   0.02449   0.71791
  -1.69020   0.02449   0.71791
  -1.69020   0.02449   0.71791
  -1.69020   0.02449   0.71791
  -1.69020   0.02449   0.47791
  -1.69020   0.02449   0.47791
  -1.69020   0.02449   0.47791
  -1.93020   0.02449   0.47791
  -1.93020   0.02449   0.47791
  -1.93020   0.02449   0.47791
  -1.93020   0.26449   0.47791
  -1.93020   0.26449   0.23791
  -1.93020   0.26449   0.23791
  -1.69020   0.02449   0.23791
  -1.93020   0.26449   0.23791
  -1.93020   0.26449   0.23791
  -1.93020   0.26449   0.23791
  -1.93020   0.26449   0.23791
  -1.93020   0.26449  -0.00209
  -1.69020   0.26449  -0.00209
  -1.69020   0.26449  -0.00209
  -1.69020   0.26449  -0.00209
  -1.69020   0.26449  -0.00209
  -1.69020   0.26449  -0.00209
  -1.69020   0.26449  -0.00209
  -1.69020   0.26449  -0.00209
  -1.69020   0.26449  -0.24209
  -1.69020   0.26449  -0.24209
  -1.69020   0.26449  -0.24209
  -1.69020   0.26449  -0.24209
  -1.69020   0.26449  -0.24209
  -1.69020   0.26449  -0.48209
  -1.45020   0.26449  -0.48209
  -1.45020   0.26449  -0.48209
  -1.45020   0.26449  -0.48209
  -1.45020   0.26449  -0.48209
  -1.45020   0.26449  -0.48209
  -1.21020   0.26449  -0.72209
  -1.21020   0.26449  -0.72209
  -1.21020   0.26449  -0.72209
  -1.21020   0.26449  -0.72209
  -1.21020   0.26449  -0.72209
  -0.97020   0.26449  -0.72209
  -1.21020   0.26449  -0.96209
  -0.97020   0.26449  -0.96209
  -0.97020   0.02449  -0.96209
  -0.97020   0.26449  -0.96209
  -0.97020   0.26449  -0.96209
  -0.73020   0.26449  -1.20209
  -0.73020   0.26449  -1.20209
  -0.73020   0.26449  -1.20209
  -0.73020   0.26449  -1.20209
  -0.73020   0.26449  -1.20209
  -0.73020   0.26449  -1.20209
  -0.49020   0.26449  -1.20209
  -0.49020   0.26449  -1.44209
  -0.49020   0.02449  -1.44209
  -0.49020   0.02449  -1.44209
