********************************************************************************
               CENTRO DE INSTRUMENTACION Y REGISTRO SISMICO  A.C.  
                              FUNDACION ICA, A.C.
     Anaxagoras 814, Col. Narvarte, Benito Juarez, C.P. 03020 Mexico, D.F.
            Tels. 687 45 42/ 687 45  82             Fax. 669 25 12
********************************************************************************
ARCHIVO ESTANDAR DE ACELERACION:
VERSION DEL FORMATO                    : 2.0
NOMBRE DEL ARCHIVO                     : AU119005.111
FECHA Y HORA DE CREACION               : ABRIL 16, 1996/19:43
REF. CATALOGO ACELEROGRAMAS, SMIS 1995 : REGISTRO No. 2034 /PAG. 201


================================================================================
DATOS DE LA ESTACION:
NOMBRE DE LA ESTACION                  : AUTODROMO
CLAVE DE LA ESTACION                   : AU11
LOCALIZACION DE LA ESTACION            : AUTODROMO HERMANOS RODRIGUEZ,
                                       : CHURUBUSCO, CD. DEPORTIVA
                                       :
                                       :
                                       :
COORDENADAS DE LA ESTACION             : 19.392 LAT. N 
                                       : 99.087 LONG. W 
ALTITUD (msnm)                         : 2234
TIPO DE SUELO                          : TERRENO BLANDO, MATERIAL COMPRESIBLE
                                       : (ARCILLAS)
                                       : 
INSTITUCION RESPONSABLE                : FICA
                                       :

================================================================================
DATOS DEL ACELEROGRAFO:
MODELO DEL ACELEROGRAFO                : SSA-1
NUMERO DE SERIE DEL ACELEROGRAFO       : 157
NUMERO DE CANALES                      : 3
ORIENTACION C1-C6 (rumbo;orientacion)  : /N00E/+V/N90E
ORIENTACION C7-C12 (rumbo;orientacion) :
VEL. DE MUESTREO, C1-C6 (muestras/s)   : /200/200/200
VEL. DE MUESTREO, C7-C12 (muestras/s)  :
ESC. COMPLETA DE SENSORES, C1-C6, (g)  : /2/2/2
ESC. COMPLETA DE SENSORES, C7-C12, (g) :
FREC. NAT. DE SENSORES, C1-C6, (Hz)    : /50/50/50
FREC. NAT. DE SENSORES, C7-C12, (Hz)   :
AMORTIGUAMIENTO DE SENSORES, C1-C6     : /0.700/0.700/0.700
AMORTIGUAMIENTO DE SENSORES, C7-C12    :
INTERVALO DE MUESTREO, C1-C6, (s)      : /0.005/0.005/0.005
INTERVALO DE MUESTREO, C7-C12, (s)     :
UMBRAL DE DISPARO, C1-C6, (Gal)        : /2/1/2
UMBRAL DE DISPARO, C7-C12, (Gal)       :
MEMORIA DE PREEVENTO (s)               : 15
TIEMPO DE POSEVENTO (s)                : 90


================================================================================
DATOS DEL SISMO:
FECHA DEL SISMO (GMT)                  : 11/MAY/90
HORA EPICENTRO (GMT)                   : 23:43:49,1
MAGNITUD(ES)                           : /Mb=5.30/Ms=4.90/Mc=5.30
COORDENADAS DEL EPICENTRO              : 17.046 LAT. N 
                                       : 100.840 LONG. W
PROFUNDIDAD FOCAL (km)                 : 11.7 
FUENTE DE LOS DATOS EPICENTRALES       : INSTITUTO DE INGENIERIA UNAM
                                       : 

================================================================================
DATOS DE ESTE REGISTRO:
HORA DE LA PRIMERA MUESTRA (GMT)       : 23:43:52.00
EXACTITUD DEL TIEMPO (s)               :     
DURACION DEL REGISTRO (s), C1-C6       : /124.16/124.16/124.16
DURACION DEL REGISTRO (s), C7-C12      :
NUM. TOTAL DE MUESTRAS, C1-C6          : /24832/24832/24832
NUM. TOTAL DE MUESTRAS, C7-C12         :
ACEL. MAX. (Gal), C1-C6                : /4.80304/1.47073/3.13469
ACEL. MAX., C1-C6, EN LA MUESTRA       :
ACEL. MAX. (Gal), C7-C12               :
ACEL. MAX., C7-C12, EN LA MUESTRA      :
UNIDADES DE LOS DATOS                  : Gal (cm/s/s)
FACTOR DE DECIMACION                   : 1
FORMATO DATOS (FORTRAN,10 campos/dato) : 3F10.5


================================================================================
CALIDAD DEL ACELEROGRAMA:
REGISTRO DIGITAL COMPLETO, CARECE DE TIEMPO ABSOLUTO.


================================================================================
COMENTARIOS:














================================================================================
DATOS DE ACELERACION:
---------+---------+---------+---------+---------+---------+---------+---------+
   CANAL-1   CANAL-2   CANAL-3   CANAL-4   CANAL-5   CANAL-6   CANAL-7   CANAL-8
      N00E        +V      N90E
---------+---------+---------+---------+---------+---------+---------+---------+
[...]
  -1.93304  -0.03073  -0.21531
  -1.93304   0.44927  -0.21531
  -1.93304  -0.03073  -0.21531
  -1.93304  -0.03073  -0.21531
  -1.93304   0.44927  -0.21531
  -1.93304  -0.03073   0.25469
  -1.93304  -0.03073  -0.21531
  -1.93304  -0.03073  -0.21531
  -2.41304  -0.03073  -0.21531
  -2.41304  -0.03073   0.25469
  -1.93304   0.44927   0.25469
  -2.41304  -0.03073   0.25469
  -2.41304   0.44927   0.25469
  -2.41304   0.44927   0.73469
  -2.41304   0.44927   0.25469
  -2.41304  -0.03073   0.25469
  -2.41304   0.44927   0.25469
  -2.41304  -0.03073   0.25469
  -2.41304   0.44927   0.25469
  -2.41304  -0.03073   0.25469
  -2.41304  -0.03073   0.25469
  -2.41304   0.44927   0.25469
  -2.41304   0.44927   0.25469
  -1.93304   0.44927   0.25469
  -2.41304   0.44927   0.25469
  -1.93304   0.44927   0.25469
  -1.93304   0.44927   0.25469
  -1.93304   0.44927   0.25469
  -1.93304   0.44927   0.25469
  -1.93304   0.44927   0.25469
  -1.93304   0.44927   0.25469
  -1.93304   0.44927  -0.21531
  -1.93304   0.44927  -0.21531
  -1.93304   0.44927  -0.21531
  -1.45304   0.44927  -0.21531
  -1.93304   0.44927  -0.21531
  -1.45304   0.44927  -0.21531
  -1.45304  -0.03073  -0.69531
  -1.45304   0.44927  -0.21531
  -1.45304  -0.03073  -0.21531
  -1.45304  -0.03073  -0.21531
  -1.45304   0.44927  -0.21531
  -0.97304   0.44927  -0.21531
  -0.97304   0.44927  -0.21531
  -0.97304  -0.03073  -0.21531
  -0.97304   0.44927  -0.21531
  -0.97304   0.44927   0.25469
  -0.97304   0.44927  -0.21531
  -0.97304  -0.03073  -0.21531
  -0.97304  -0.03073  -0.21531
  -0.97304  -0.03073  -0.21531
  -0.97304  -0.03073  -0.21531
  -0.49304  -0.03073  -0.21531
  -0.49304   0.44927  -0.21531
  -0.49304  -0.03073  -0.21531
  -0.49304   0.44927  -0.21531
  -0.49304   0.44927  -0.21531
  -0.49304   0.44927  -0.21531
  -0.49304   0.44927  -0.21531
  -0.49304   0.44927  -0.21531
  -0.49304   0.44927  -0.21531
  -0.49304   0.44927  -0.21531
  -0.49304   0.44927  -0.21531
  -0.49304  -0.03073  -0.21531
  -0.49304   0.44927  -0.21531
  -0.49304   0.44927  -0.21531
  -0.49304  -0.03073  -0.21531
  -0.49304   0.44927  -0.21531
  -0.49304   0.44927  -0.21531
  -0.97304  -0.03073  -0.21531
  -0.49304  -0.03073  -0.69531
  -0.49304  -0.03073  -0.69531
  -0.49304   0.44927  -0.69531
  -0.49304   0.44927  -0.69531
  -0.97304   0.44927  -0.69531
  -0.97304  -0.03073  -0.69531
  -0.97304   0.44927  -0.69531
  -0.49304   0.44927  -0.69531
  -0.97304   0.44927  -0.69531
  -0.49304   0.44927  -0.69531
  -0.97304  -0.03073  -0.69531
  -0.97304   0.44927  -0.69531
  -0.97304   0.44927  -0.69531
  -0.97304   0.44927  -0.69531
  -0.97304   0.44927  -0.69531
  -0.97304   0.44927  -0.69531
  -0.97304   0.44927  -0.21531
  -0.97304   0.44927  -0.69531
  -0.97304   0.44927  -0.69531
  -0.97304   0.44927  -0.69531
  -0.97304   0.44927  -0.69531
  -0.49304   0.44927  -0.21531
  -0.97304   0.44927  -0.21531
  -0.97304   0.44927  -0.21531
  -0.97304  -0.03073  -0.69531
  -0.49304  -0.03073  -0.21531
  -0.97304   0.44927  -0.69531
  -0.49304  -0.03073  -0.69531
  -0.49304  -0.03073  -0.69531
  -0.49304   0.44927  -0.69531
  -0.49304   0.44927  -0.69531
  -0.49304  -0.03073  -0.69531
  -0.01304   0.44927  -0.21531
  -0.01304   0.44927  -0.69531
  -0.01304   0.44927  -0.69531
  -0.01304   0.44927  -0.69531
  -0.01304   0.44927  -0.69531
  -0.01304   0.44927  -0.69531
  -0.01304   0.44927  -0.69531
  -0.01304   0.44927  -1.17531
  -0.01304   0.44927  -1.17531
  -0.01304   0.44927  -1.17531
  -0.01304   0.44927  -1.17531
  -0.01304   0.92927  -1.17531
  -0.01304   0.92927  -1.17531
  -0.01304   0.92927  -1.17531
  -0.01304   0.92927  -1.17531
   0.46696   0.92927  -1.17531
  -0.01304   0.92927  -1.17531
   0.46696   0.44927  -1.17531
  -0.01304   0.44927  -1.17531
   0.46696   0.92927  -1.17531
   0.46696   0.44927  -1.17531
   0.46696   0.44927  -1.17531
   0.46696   0.44927  -1.17531
   0.46696   0.44927  -1.17531
   0.46696   0.44927  -1.17531
   0.46696   0.44927  -1.17531
   0.46696   0.44927  -1.17531
   0.46696  -0.03073  -1.17531
   0.46696   0.44927  -1.17531
   0.46696  -0.03073  -1.17531
   0.46696   0.44927  -1.17531
   0.46696   0.44927  -1.17531
   0.46696  -0.03073  -1.17531
   0.46696  -0.03073  -0.69531
   0.46696  -0.03073  -0.69531
   0.46696  -0.03073  -0.69531
   0.46696  -0.03073  -0.69531
   0.46696  -0.03073  -0.69531
   0.94696  -0.03073  -0.69531
   0.94696  -0.03073  -0.69531
   0.46696  -0.03073  -0.69531
   0.46696  -0.03073  -0.69531
   0.46696  -0.51073  -0.21531
   0.46696  -0.51073  -0.21531
   0.46696  -0.51073  -0.21531
   0.94696  -0.03073  -0.21531
   0.94696  -0.03073  -0.21531
   0.94696  -0.03073  -0.21531
   0.94696  -0.03073  -0.21531
   0.94696  -0.03073  -0.21531
   0.94696  -0.03073  -0.21531
   0.94696  -0.03073  -0.21531
   0.94696  -0.03073  -0.69531
   0.94696  -0.51073  -0.69531
   0.94696  -0.03073  -0.69531
   0.94696  -0.51073  -0.21531
   0.94696  -0.51073  -0.69531
   0.94696  -0.51073  -0.69531
   0.94696  -0.03073  -0.69531
   0.94696  -0.51073  -0.69531
   0.94696  -0.51073  -0.21531
   0.94696  -0.51073  -0.69531
   0.94696  -0.51073  -0.69531
   0.94696  -0.51073  -0.69531
   0.94696  -0.51073  -0.69531
   0.94696  -0.51073  -0.69531
   0.94696  -0.51073  -0.69531
   0.94696  -0.51073  -0.69531
   1.41696  -0.51073  -0.69531
   0.94696  -0.51073  -0.69531
   0.94696  -0.99073  -1.17531
   0.94696  -0.99073  -0.69531
   1.41696  -0.51073  -0.69531
   1.41696  -0.51073  -0.69531
   1.41696  -0.51073  -0.69531
   1.41696  -0.51073  -0.69531
   1.89696  -0.51073  -0.69531
   1.41696  -0.99073  -0.69531
   1.41696  -0.99073  -0.69531
   1.89696  -0.51073  -0.69531
   1.89696  -0.51073  -0.69531
   1.89696  -0.51073  -0.69531
   1.89696  -0.99073  -0.69531
   1.89696  -0.51073  -0.69531
   1.89696  -0.99073  -0.69531
   1.89696  -0.51073  -0.69531
   2.37696  -0.51073  -0.69531
   2.37696  -0.51073  -0.69531
   2.37696  -0.51073  -0.21531
   1.89696  -0.99073  -0.69531
   2.37696  -0.51073  -0.69531
   2.37696  -0.51073  -0.21531
   2.37696  -0.51073  -0.21531
   2.37696  -0.51073  -0.21531
   2.37696  -0.51073  -0.21531
   2.37696  -0.51073  -0.21531
   2.37696  -0.51073  -0.21531
   2.37696  -0.03073  -0.21531
   2.85696  -0.51073  -0.21531
   2.85696  -0.51073  -0.21531
   2.85696  -0.51073  -0.21531
   2.85696  -0.51073  -0.21531
   2.85696  -0.51073   0.25469
   2.85696  -0.51073   0.25469
   2.37696  -0.51073   0.25469
   2.85696  -0.03073   0.25469
   2.37696  -0.03073   0.25469
   2.85696  -0.03073   0.73469
   2.85696  -0.03073   0.73469
   2.85696  -0.03073   0.73469
   2.37696  -0.51073   0.73469
   2.85696  -0.03073   0.73469
   2.85696  -0.03073   0.73469
   2.85696  -0.03073   1.21469
   2.37696  -0.03073   0.73469
   2.37696  -0.51073   0.73469
   2.37696  -0.51073   1.21469
   2.85696  -0.51073   0.73469
   2.85696  -0.03073   1.21469
   2.85696  -0.51073   1.21469
   2.85696  -0.99073   1.21469
   2.37696  -0.51073   1.21469
   2.85696  -0.51073   1.21469
   2.85696  -0.51073   1.21469
   2.85696  -0.03073   1.21469
   2.85696  -0.51073   1.21469
   2.85696  -0.51073   1.69469
   2.85696  -0.03073   1.69469
   2.85696  -0.51073   1.21469
   2.85696  -0.03073   1.69469
   2.85696  -0.03073   1.21469
   2.85696  -0.03073   1.69469
   2.85696  -0.51073   1.69469
   2.85696  -0.51073   1.21469
   2.85696  -0.03073   1.69469
   2.85696  -0.03073   1.69469
   2.85696  -0.03073   1.69469
   2.37696  -0.03073   1.69469
   2.37696  -0.03073   1.69469
   2.85696  -0.03073   1.69469
   2.37696  -0.03073   1.21469
   2.37696  -0.03073   1.21469
   2.37696  -0.03073   1.21469
   2.37696  -0.03073   1.69469
   2.85696  -0.03073   1.21469
   2.37696  -0.03073   1.21469
   2.37696  -0.03073   1.69469
   2.37696  -0.03073   1.21469
   2.37696  -0.03073   1.21469
   2.37696  -0.03073   1.21469
   2.37696  -0.03073   1.21469
   2.37696  -0.03073   1.21469
   1.89696  -0.03073   1.21469
   2.37696  -0.03073   1.21469
   1.89696  -0.03073   1.21469
   1.89696  -0.03073   1.21469
   1.89696  -0.03073   1.21469
   1.89696  -0.03073   1.21469
   1.41696  -0.03073   1.21469
   1.89696  -0.03073   1.21469
   1.41696  -0.03073   1.21469
   1.41696  -0.03073   1.21469
   1.41696  -0.03073   1.21469
   1.41696  -0.03073   1.21469
   1.41696  -0.03073   1.21469
   1.41696  -0.03073   1.21469
   0.94696  -0.03073   1.21469
   0.94696  -0.03073   1.21469
   0.94696  -0.03073   1.21469
   0.94696  -0.03073   1.21469
   0.94696   0.44927   1.21469
   0.94696  -0.03073   1.21469
   0.94696   0.44927   1.69469
   0.94696  -0.03073   1.21469
   0.94696  -0.03073   1.69469
   0.94696   0.44927   1.21469
   0.94696  -0.03073   1.69469
   0.94696  -0.03073   1.69469
   0.94696   0.44927   1.69469
   0.94696  -0.03073   1.69469
   0.94696   0.44927   1.69469
   0.46696  -0.51073   1.69469
   0.46696  -0.03073   1.69469
   0.46696   0.44927   1.69469
   0.46696   0.44927   1.69469
   0.46696   0.44927   1.69469
   0.46696   0.44927   1.69469
   0.46696   0.44927   1.69469
   0.46696   0.44927   2.17469
  -0.01304   0.44927   2.17469
  -0.01304   0.44927   1.69469
  -0.01304   0.44927   2.17469
  -0.01304   0.44927   1.69469
  -0.01304   0.44927   1.69469
  -0.01304   0.44927   1.69469
  -0.49304   0.44927   1.69469
  -0.49304  -0.03073   1.69469
  -0.49304   0.44927   1.69469
  -0.49304   0.44927   1.69469
  -0.97304   0.44927   1.69469
  -0.97304  -0.03073   1.69469
  -1.93304  -0.03073   1.69469
  -0.97304   0.44927   1.69469
  -1.45304  -0.03073   1.69469
  -0.97304  -0.03073   1.21469
  -1.45304   0.44927   1.21469
  -1.45304   0.44927   1.21469
  -1.93304  -0.03073   1.21469
  -1.93304   0.44927   1.21469
  -1.93304   0.44927   0.73469
  -1.93304   0.44927   1.21469
  -1.93304   0.44927   0.73469
  -1.93304   0.44927   0.73469
  -1.93304  -0.03073   0.73469
  -1.93304   0.44927   0.73469
  -1.93304  -0.03073   0.73469
  -1.93304   0.44927   0.73469
  -1.93304   0.44927   0.25469
  -2.41304  -0.03073   0.25469
  -2.41304  -0.03073   0.25469
  -2.41304   0.44927   0.25469
  -2.41304  -0.03073   0.25469
  -2.41304   0.44927  -0.21531
  -2.41304  -0.03073  -0.21531
  -2.89304  -0.03073  -0.21531
  -2.89304  -0.03073  -0.21531
  -2.89304  -0.03073  -0.21531
  -2.89304  -0.03073  -0.21531
  -3.37304  -0.03073  -0.69531
  -2.89304  -0.03073  -0.69531
  -3.37304  -0.03073  -0.69531
  -3.37304  -0.03073  -1.17531
  -3.37304  -0.03073  -0.69531
  -3.37304  -0.03073  -1.17531
  -3.85304  -0.51073  -1.17531
  -3.85304  -0.51073  -1.17531
  -3.85304  -0.03073  -1.17531
  -3.85304  -0.03073  -1.65531
  -3.85304  -0.03073  -1.65531
  -3.85304  -0.03073  -1.65531
  -4.32304  -0.03073  -1.65531
  -4.32304  -0.03073  -1.65531
  -4.32304  -0.03073  -1.65531
  -4.32304  -0.03073  -2.13531
  -4.32304  -0.03073  -2.13531
  -4.32304  -0.03073  -2.13531
  -4.32304  -0.03073  -2.13531
  -4.80304  -0.03073  -2.13531
  -4.32304  -0.03073  -1.65531
  -4.80304  -0.03073  -2.13531
  -4.80304  -0.03073  -2.13531
  -4.32304  -0.03073  -2.13531
  -4.80304  -0.03073  -2.13531
  -4.32304  -0.03073  -2.13531
  -4.80304  -0.03073  -2.13531
  -4.32304  -0.03073  -2.13531
  -4.80304  -0.03073  -2.13531
  -4.32304  -0.03073  -1.65531
  -4.32304   0.44927  -2.13531
  -4.32304  -0.03073  -2.13531
  -4.32304  -0.03073  -2.13531
  -4.32304  -0.03073  -1.65531
  -4.32304  -0.03073  -2.13531
  -4.32304  -0.03073  -1.65531
  -4.32304  -0.03073  -1.65531
  -4.32304  -0.03073  -1.65531
  -4.32304  -0.03073  -1.65531
  -4.32304  -0.03073  -1.17531
  -3.85304  -0.03073  -1.17531
  -3.85304  -0.03073  -1.65531
  -3.85304  -0.03073  -1.65531
  -3.85304  -0.03073  -1.65531
  -3.85304  -0.03073  -1.17531
  -3.85304  -0.03073  -1.17531
  -3.85304  -0.03073  -1.17531
  -3.85304  -0.03073  -1.17531
  -3.85304  -0.03073  -1.17531
  -3.85304  -0.03073  -1.17531
  -3.85304  -0.03073  -1.17531
  -3.37304  -0.03073  -1.17531
  -3.37304   0.44927  -1.17531
  -3.37304  -0.03073  -1.17531
  -3.37304  -0.03073  -1.17531
  -3.37304   0.44927  -1.17531
  -3.37304  -0.03073  -1.17531
  -3.37304  -0.03073  -1.17531
  -3.37304  -0.03073  -1.17531
  -3.37304  -0.03073  -1.17531
  -3.37304  -0.03073  -1.17531
  -3.37304  -0.03073  -1.17531
  -2.89304  -0.03073  -1.17531
  -2.89304  -0.03073  -1.17531
  -2.89304  -0.03073  -1.17531
  -2.89304  -0.03073  -1.17531
  -2.89304  -0.03073  -1.17531
  -2.89304  -0.03073  -1.17531
  -2.89304  -0.03073  -1.17531
  -2.89304  -0.03073  -1.17531
  -2.89304  -0.03073  -1.17531
  -2.89304  -0.03073  -0.69531
  -2.89304  -0.03073  -0.69531
  -2.89304  -0.03073  -1.17531
  -2.89304  -0.03073  -0.69531
  -2.41304  -0.03073  -0.69531
  -2.41304  -0.03073  -0.69531
  -2.41304  -0.03073  -0.69531
  -2.41304  -0.51073  -0.69531
  -2.41304  -0.03073  -0.69531
  -2.41304  -0.03073  -0.69531
  -2.41304  -0.03073  -0.21531
  -1.93304  -0.03073  -0.21531
  -1.93304  -0.03073  -0.21531
  -1.93304  -0.03073  -0.21531
  -1.93304  -0.03073  -0.21531
  -1.93304  -0.03073  -0.21531
  -1.93304  -0.03073  -0.21531
  -1.93304  -0.03073  -0.21531
  -1.93304  -0.03073  -0.21531
  -1.93304  -0.03073   0.25469
  -1.45304  -0.03073   0.25469
  -1.45304  -0.03073   0.25469
  -1.45304  -0.03073   0.25469
  -0.97304  -0.03073   0.25469
  -0.97304  -0.03073   0.25469
  -0.97304  -0.03073   0.73469
  -0.97304  -0.03073   0.73469
  -0.97304  -0.03073   0.73469
  -0.49304  -0.03073   0.73469
  -0.49304  -0.03073   0.73469
  -0.49304  -0.03073   0.73469
  -0.49304  -0.03073   0.73469
  -0.49304   0.44927   0.73469
  -0.49304   0.44927   0.73469
  -0.01304  -0.51073   0.73469
  -0.01304  -0.03073   0.73469
  -0.01304  -0.03073   0.73469
  -0.01304  -0.03073   0.73469
  -0.01304  -0.03073   0.73469
   0.46696  -0.03073   0.73469
   0.46696  -0.03073   1.21469
   0.46696   0.44927   1.21469
   0.94696  -0.03073   1.21469
   0.94696  -0.03073   1.21469
   0.94696  -0.03073   1.21469
   0.94696  -0.03073   1.21469
   0.94696  -0.03073   1.21469
   1.41696  -0.03073   1.21469
   0.94696  -0.03073   1.21469
   1.41696  -0.03073   1.21469
   1.41696  -0.03073   1.21469
   1.41696  -0.03073   0.73469
   1.41696  -0.03073   0.73469
   1.89696  -0.03073   1.21469
   1.89696  -0.03073   1.21469
   1.89696  -0.03073   0.73469
   1.89696  -0.03073   0.73469
   1.89696  -0.03073   0.73469
   1.89696  -0.03073   0.73469
   1.89696  -0.03073   0.73469
   2.37696  -0.03073   0.73469
   2.37696  -0.03073   0.25469
   2.37696  -0.03073   0.25469
   2.37696  -0.03073   0.25469
   2.85696  -0.03073   0.73469
   2.85696  -0.03073   0.25469
   2.85696  -0.03073   0.25469
   2.85696  -0.03073  -0.21531
   3.33696  -0.03073  -0.21531
   2.85696  -0.03073  -0.21531
   2.85696  -0.03073  -0.21531
   2.85696   0.44927  -0.21531
   3.33696  -0.03073  -0.21531
   3.33696   0.44927  -0.21531
   3.33696   0.44927  -0.69531
   3.33696  -0.03073  -0.69531
   3.33696   0.44927  -0.69531
   3.33696   0.44927  -0.69531
   3.81696   0.44927  -0.69531
   3.81696   0.44927  -0.69531
   3.33696   0.44927  -0.69531
   3.81696   0.44927  -0.69531
   3.81696   0.44927  -1.17531
   3.81696   0.44927  -1.17531
   3.81696   0.44927  -1.17531
   3.81696   0.44927  -1.17531
   3.81696   0.44927  -0.69531
   3.81696   0.44927  -1.17531
   3.81696   0.44927  -1.17531
   3.81696   0.44927  -1.17531
   3.81696   0.44927  -1.17531
   3.81696   0.44927  -1.17531
   3.81696   0.44927  -1.17531
   3.81696   0.44927  -1.17531
   3.81696   0.44927  -1.17531
   3.81696   0.44927  -1.17531
   3.81696   0.44927  -1.17531
   3.81696   0.44927  -1.17531
   3.81696   0.44927  -1.17531
