********************************************************************************
              CENTRO DE INSTRUMENTACION Y REGISTRO SISMICO  A.C.

    Anaxagoras 814, Col. Narvarte, Benito Juarez, C.P. 03020 Mexico, D.F.
           Tels. 5687 45 42/ 5687 45  82             Fax. 5669 25 12
********************************************************************************
ARCHIVO ESTANDAR DE ACELERACION:
VERSION DEL FORMATO                    : 2.0
NOMBRE DEL ARCHIVO                     : AU1120160508073359
FECHA Y HORA DE CREACION               : 31/MAY/16, 11:10
REF. CATALOGO ACELEROGRAMAS, SMIS 1996 : REGISTRO No.     /PAG.


================================================================================
DATOS DE LA ESTACION:
NOMBRE DE LA ESTACION                  : AUTÓDROMO
CLAVE DE LA ESTACION                   : AU11
LOCALIZACION DE LA ESTACION            : Del. Iztacalco, Cd. Deportiva          
                                       : Magdalena Mixhuca,                     
                                       : Col. Granjas México                    
                                       :                                        
                                       : 
COORDENADAS DE LA ESTACION             : 19.3919 LAT. N
                                       : 99.0869 LONG. W
ALTITUD (msnm)                         : 2234
TIPO DE SUELO                          : Terreno blando, material compresible
                                       : (arcillas)                
                                       : 
INSTITUCION RESPONSABLE                : CIRES
                                       : 

================================================================================
DATOS DEL ACELEROGRAFO:
MODELO DEL ACELEROGRAFO                : RADESD
NUMERO DE SERIE DEL ACELEROGRAFO       : 157
NUMERO DE CANALES                      : 3
ORIENTACION C1-C6 (rumbo;orientacion)  : /S00E/+V/N90W
ORIENTACION C7-C12 (rumbo;orientacion) : 
VEL. DE MUESTREO, C1-C6 (muestras/s)   : /100/100/100
VEL. DE MUESTREO, C7-C12 (muestras/s)  : 
ESC. COMPLETA DE SENSORES, C1-C6, (g)  : /0.5/0.5/0.5
ESC. COMPLETA DE SENSORES, C7-C12, (g) : 
FREC. NAT. DE SENSORES, C1-C6, (Hz)    : /51.77/52.56/52.29
FREC. NAT. DE SENSORES, C7-C12, (Hz)   : 
AMORTIGUAMIENTO DE SENSORES, C1-C6     : /0.5912/0.6083/0.6067
AMORTIGUAMIENTO DE SENSORES, C7-C12    : 
INTERVALO DE MUESTREO, C1-C6, (s)      : /0.01/0.01/0.01
INTERVALO DE MUESTREO, C7-C12, (s)     : 
UMBRAL DE DISPARO, C1-C6, (Gal)        : /0.72/1.92/0.72
UMBRAL DE DISPARO, C7-C12, (Gal)       : 
MEMORIA DE PREEVENTO (s)               : 44.0
TIEMPO DE POSEVENTO (s)                : 133.0


================================================================================
DATOS DEL SISMO:
FECHA DEL SISMO (GMT)                  : 08/MAY/16
HORA EPICENTRO (GMT)                   : 07:33:59.0
MAGNITUD(ES)                           : /Mc=6.0
COORDENADAS DEL EPICENTRO              : 16.25 LAT. N
                                       : 97.98 LONG. W
PROFUNDIDAD FOCAL (km)                 : 35
FUENTE DE LOS DATOS EPICENTRALES       : SSN
                                       : INSTITUTO DE GEOFISICA, UNAM

================================================================================
DATOS DE ESTE REGISTRO:
HORA DE LA PRIMERA MUESTRA (GMT)       : 07:35:45.00
EXACTITUD DEL TIEMPO (s)               : 0.01
DURACION DEL REGISTRO (s), C1-C6       : /271.2/271.2/271.2
DURACION DEL REGISTRO (s), C7-C12      : 
NUM. TOTAL DE MUESTRAS, C1-C6          : /27120/27120/27120
NUM. TOTAL DE MUESTRAS, C7-C12         : 
ACEL. MAX. (Gal), C1-C6                : /2.62905/0.77896/2.80517
ACEL. MAX., C1-C6, EN LA MUESTRA       : /5285/5850/5172
ACEL. MAX. (Gal), C7-C12               : 
ACEL. MAX., C7-C12, EN LA MUESTRA      : 
UNIDADES DE LOS DATOS                  : Gal (cm/s/s)
FACTOR DE DECIMACION                   : 1
FORMATO DATOS (FORTRAN,10 campos/dato) : 3F10.5


================================================================================
CALIDAD DEL ACELEROGRAMA:
REGISTRO DIGITAL COMPLETO CON TIEMPO ABSOLUTO CORRECTO.


================================================================================
COMENTARIOS:














================================================================================
DATOS DE ACELERACION:
---------+---------+---------+---------+---------+---------+---------+---------+
   CANAL-1   CANAL-2   CANAL-3   CANAL-4   CANAL-5   CANAL-6   CANAL-7   CANAL-8
      S00E        +V      N90W
---------+---------+---------+---------+---------+---------+---------+---------+
[...]
  -0.93232   0.06070  -0.14162
  -0.84254  -0.01412  -0.05183
  -0.82758  -0.11886  -0.00694
  -0.84254  -0.04404  -0.00694
  -0.85750   0.13552   0.05291
  -0.73779  -0.04404   0.11277
  -0.69290   0.06070   0.18759
  -0.64801   0.18041   0.24744
  -0.58816   0.13552   0.30730
  -0.57319   0.34501   0.27737
  -0.40859   0.37494   0.33722
  -0.31881   0.41983   0.30730
  -0.22903   0.44976   0.32226
  -0.03450   0.40487   0.39708
   0.02536   0.37494   0.39708
   0.17499   0.28516   0.51679
   0.17499   0.43480   0.48686
   0.23485   0.30012   0.59161
   0.18996   0.41983   0.59161
   0.16003   0.35998   0.51679
   0.18996   0.38991   0.59161
   0.07025   0.58443   0.54672
   0.08521   0.55451   0.50182
   0.10018   0.50962   0.45693
   0.20492   0.59940   0.41204
   0.17499   0.50962   0.35219
   0.17499   0.50962   0.24744
   0.27974   0.38991   0.23248
   0.21989   0.46472   0.15766
   0.21989   0.52458   0.05291
   0.26478   0.44976   0.09780
   0.29470   0.40487   0.05291
   0.33960   0.34501   0.00802
   0.30967   0.34501  -0.14162
   0.21989   0.37494  -0.26133
   0.30967   0.24027  -0.27629
   0.21989   0.21034  -0.41096
   0.13010   0.24027  -0.41096
   0.17499   0.16545  -0.45586
   0.05528   0.19538  -0.62046
   0.01039   0.15049  -0.63542
  -0.10932   0.12056  -0.72520
  -0.18414   0.15049  -0.84491
  -0.13924   0.01581  -0.77010
  -0.18414   0.07567  -0.82995
  -0.21406   0.09063  -0.80002
  -0.19910   0.06070  -0.80002
  -0.12428   0.03078  -0.72520
  -0.10932  -0.04404  -0.66535
  -0.06443  -0.07397  -0.65039
   0.11514  -0.08893  -0.45586
   0.17499  -0.16375  -0.35111
   0.27974  -0.23857  -0.20147
   0.29470  -0.32835  -0.11169
   0.26478  -0.23857  -0.02191
   0.29470  -0.28346   0.08284
   0.35456  -0.37325   0.17262
   0.27974  -0.32835   0.18759
   0.41442  -0.41814   0.30730
   0.38449  -0.44806   0.29233
   0.48923  -0.37325   0.36715
   0.41442  -0.44806   0.32226
   0.33960  -0.43310   0.27737
   0.38449  -0.43310   0.38211
   0.27974  -0.38821   0.48686
   0.26478  -0.32835   0.50182
   0.17499  -0.29843   0.38211
   0.10018  -0.35828   0.36715
  -0.00457  -0.32835   0.38211
   0.04032  -0.34332   0.36715
  -0.12428  -0.23857   0.32226
  -0.18414  -0.31339   0.27737
  -0.25895  -0.29843   0.23248
  -0.36370  -0.28346   0.15766
  -0.48341  -0.25354   0.09780
  -0.66298  -0.16375   0.02298
  -0.78269  -0.05901   0.00802
  -0.85750  -0.20864  -0.08176
  -0.97721  -0.14879  -0.23140
  -1.02211  -0.07397  -0.35111
  -1.15678  -0.14879  -0.51571
  -1.17174  -0.17872  -0.71024
  -1.20167  -0.22361  -0.72520
  -1.11189  -0.32835  -0.93470
  -1.18671  -0.28346  -1.03944
  -1.14182  -0.20864  -1.14419
  -1.08196  -0.22361  -1.11426
  -0.97721  -0.20864  -1.15915
  -1.02211  -0.11886  -1.09930
  -0.94729  -0.08893  -1.08433
  -0.91736  -0.05901  -1.05441
  -0.85750  -0.05901  -0.97959
  -0.82758  -0.04404  -0.93470
  -0.72283  -0.11886  -0.81499
  -0.72283  -0.07397  -0.75513
  -0.63305  -0.14879  -0.62046
  -0.58816  -0.13383  -0.57557
  -0.52830  -0.07397  -0.44089
  -0.46845  -0.08893  -0.32118
  -0.37866  -0.02908  -0.17154
  -0.42356   0.03078  -0.08176
  -0.40859   8.5E-40  -0.00694
  -0.31881   0.01581   0.00802
  -0.28888   8.5E-40   0.12773
  -0.28888   0.01581   0.08284
  -0.18414   0.07567   0.17262
  -0.09435   0.09063   0.17262
  -0.07939   0.07567   0.21751
  -0.03450   0.12056   0.24744
   0.04032   0.12056   0.33722
   0.08521   0.21034   0.42701
   0.11514   0.18041   0.47190
   0.11514   0.25523   0.59161
   0.11514   0.30012   0.65146
   0.21989   0.27020   0.84599
   0.26478   0.33005   0.87592
   0.29470   0.25523   0.98066
   0.41442   0.27020   0.98066
   0.50420   0.31509   1.08541
   0.50420   0.27020   1.19016
   0.54909   0.25523   1.29490
   0.56405   0.31509   1.32483
   0.57902   0.34501   1.41461
   0.60894   0.41983   1.42958
   0.57902   0.46472   1.48943
   0.63887   0.49465   1.60914
   0.68376   0.52458   1.59418
   0.63887   0.59940   1.69893
   0.68376   0.56947   1.77374
   0.72865   0.58443   1.92338
   0.65384   0.62933   1.93835
   0.74362   0.59940   2.11791
   0.71369   0.53954   2.10295
   0.72865   0.47969   2.16280
   0.71369   0.46472   2.26755
   0.74362   0.40487   2.35733
   0.72865   0.34501   2.44711
   0.75858   0.31509   2.44711
   0.71369   0.22530   2.32740
   0.66880   0.34501   2.38726
   0.62391   0.25523   2.23762
   0.63887   0.21034   2.19273
   0.59398   0.15049   2.07302
   0.63887   0.12056   2.01316
   0.59398   0.13552   2.04309
   0.57902   0.09063   1.96827
   0.51916   0.12056   1.93835
   0.57902   0.04574   1.95331
   0.53413  -0.01412   1.96827
   0.53413   0.01581   1.89345
   0.51916   0.09063   1.90842
   0.66880  -0.01412   1.98324
   0.66880  -0.02908   1.99820
   0.81844  -0.05901   2.02813
   0.83340   8.5E-40   1.98324
   0.90822  -0.02908   2.08798
   0.98304  -0.11886   2.02813
   1.04289  -0.17872   2.05806
   1.07282  -0.22361   1.95331
   1.16260  -0.20864   2.04309
   1.19253  -0.17872   1.96827
   1.11771  -0.20864   1.92338
   1.14764  -0.23857   1.89345
   1.11771  -0.23857   1.83360
   1.10275  -0.25354   1.69893
   1.07282  -0.25354   1.71389
   0.90822  -0.20864   1.56425
   0.83340  -0.19368   1.50440
   0.81844  -0.14879   1.57922
   0.72865  -0.17872   1.51936
   0.66880  -0.14879   1.48943
   0.60894  -0.08893   1.62411
   0.57902  -0.16375   1.50440
   0.54909  -0.20864   1.60914
   0.39945  -0.14879   1.47447
   0.44434  -0.20864   1.56425
   0.45931  -0.23857   1.68396
   0.53413  -0.28346   1.69893
   0.54909  -0.28346   1.54929
   0.53413  -0.23857   1.59418
   0.57902  -0.28346   1.57922
   0.77355  -0.34332   1.65403
   0.66880  -0.29843   1.54929
   0.83340  -0.31339   1.63907
   0.84836  -0.28346   1.59418
   0.87829  -0.32835   1.48943
   0.84836  -0.23857   1.35476
   0.84836  -0.16375   1.17519
   0.86333  -0.19368   1.10037
   0.98304  -0.29843   1.07045
   0.89326  -0.14879   0.90585
   0.78851  -0.14879   0.83103
   0.72865  -0.20864   0.68139
   0.72865  -0.29843   0.66643
   0.51916  -0.22361   0.51679
   0.53413  -0.35828   0.42701
   0.45931  -0.31339   0.41204
   0.33960  -0.34332   0.27737
   0.39945  -0.35828   0.32226
   0.42938  -0.40317   0.24744
   0.36952  -0.38821   0.21751
   0.45931  -0.40317   0.21751
   0.54909  -0.46303   0.24744
   0.56405  -0.43310   0.20255
   0.75858  -0.38821   0.27737
   0.77355  -0.26850   0.14269
   0.98304  -0.34332   0.29233
   1.02793  -0.22361   0.23248
   1.02793  -0.10390   0.20255
   0.96807   0.09063   0.14269
   0.98304   0.06070   0.08284
   0.90822   0.16545   0.09780
   0.86333   0.15049   0.05291
   0.81844   0.16545   0.00802
   0.77355   0.21034   0.06788
   0.63887   0.18041   0.02298
   0.45931   0.15049   0.03795
   0.38449   0.13552   0.14269
   0.18996   0.13552   0.06788
   0.08521   0.15049   0.09780
  -0.09435   0.16545   0.09780
  -0.19910   0.06070   0.00802
  -0.36370   0.06070   0.05291
  -0.31881   0.10559   0.08284
  -0.46845   0.15049   0.05291
  -0.49837   0.12056   0.02298
  -0.54327   8.5E-40   0.00802
  -0.60312   0.12056  -0.05183
  -0.75276   0.12056  -0.11169
  -0.88743   0.18041  -0.18651
  -0.99218   0.16545  -0.29125
  -1.11189   0.16545  -0.41096
  -1.15678   0.16545  -0.54564
  -1.39620   0.40487  -0.68031
  -1.42613   0.34501  -0.82995
  -1.44109   0.34501  -0.85988
  -1.50095   0.30012  -0.97959
  -1.57577   0.37494  -1.08433
  -1.53087   0.34501  -1.09930
  -1.65058   0.43480  -1.17412
  -1.59073   0.40487  -1.24894
  -1.59073   0.35998  -1.23397
  -1.51591   0.37494  -1.20404
  -1.63562   0.56947  -1.32375
  -1.60569   0.53954  -1.32375
  -1.47102   0.46472  -1.26390
  -1.54584   0.52458  -1.30879
  -1.47102   0.44976  -1.29383
  -1.44109   0.56947  -1.17412
  -1.47102   0.58443  -1.36865
  -1.39620   0.59940  -1.23397
  -1.39620   0.62933  -1.36865
  -1.30642   0.62933  -1.32375
  -1.35131   0.62933  -1.30879
  -1.23160   0.49465  -1.33872
  -1.30642   0.61436  -1.42850
  -1.15678   0.49465  -1.32375
  -1.02211   0.38991  -1.39857
  -0.94729   0.30012  -1.33872
  -0.91736   0.25523  -1.42850
  -0.78269   0.16545  -1.39857
  -0.84254   0.21034  -1.44346
  -0.75276   0.06070  -1.36865
  -0.81261   0.10559  -1.45843
  -0.79765   0.04574  -1.41354
  -0.73779   0.01581  -1.44346
  -0.73779   8.5E-40  -1.41354
  -0.69290  -0.08893  -1.39857
  -0.70787   0.06070  -1.33872
  -0.58816  -0.02908  -1.27886
  -0.66298   0.04574  -1.36865
  -0.63305   0.12056  -1.33872
  -0.54327   0.06070  -1.29383
  -0.49837   0.12056  -1.20404
  -0.37866   0.10559  -1.23397
  -0.36370   0.13552  -1.23397
  -0.22903   0.15049  -1.09930
  -0.06443   0.10559  -1.14419
   0.07025   8.5E-40  -1.11426
   0.21989   0.03078  -0.99455
   0.41442  -0.10390  -0.96462
   0.53413  -0.10390  -0.87484
   0.60894  -0.13383  -0.84491
   0.80347  -0.22361  -0.72520
   0.90822  -0.19368  -0.65039
   0.99800  -0.14879  -0.50075
   1.14764  -0.14879  -0.45586
   1.16260  -0.16375  -0.38104
   1.22246  -0.16375  -0.23140
   1.28231  -0.17872  -0.21644
   1.23742  -0.11886  -0.14162
   1.28231  -0.10390   0.11277
   1.25239  -0.14879   0.02298
   1.25239  -0.10390   0.18759
   1.26735  -0.08893   0.23248
   1.29728  -0.19368   0.29233
   1.16260  -0.19368   0.33722
   1.20749  -0.19368   0.29233
   1.29728  -0.19368   0.29233
   1.26735  -0.10390   0.21751
   1.31224  -0.25354   0.11277
   1.37210  -0.23857   0.00802
   1.38706  -0.34332  -0.03687
   1.47684  -0.46303  -0.11169
   1.44691  -0.32835  -0.21644
   1.50677  -0.41814  -0.26133
   1.49181  -0.47799  -0.29125
   1.41699  -0.46303  -0.38104
   1.32720  -0.35828  -0.47082
   1.26735  -0.34332  -0.53067
   1.17757  -0.40317  -0.57557
   0.98304  -0.31339  -0.66535
   0.84836  -0.41814  -0.62046
   0.63887  -0.35828  -0.69528
   0.47427  -0.32835  -0.75513
   0.29470  -0.38821  -0.78506
   0.08521  -0.34332  -0.82995
  -0.13924  -0.28346  -0.90477
  -0.24399  -0.35828  -0.88981
  -0.51334  -0.34332  -0.90477
  -0.57319  -0.29843  -0.93470
  -0.72283  -0.28346  -0.99455
  -0.82758  -0.31339  -0.97959
  -0.90240  -0.35828  -1.05441
  -0.97721  -0.31339  -1.12923
  -0.94729  -0.40317  -1.15915
  -0.93232  -0.49296  -1.23397
  -0.88743  -0.47799  -1.29383
  -0.87247  -0.59770  -1.36865
  -0.78269  -0.53785  -1.48836
  -0.73779  -0.58274  -1.56317
  -0.57319  -0.58274  -1.65296
  -0.57319  -0.56777  -1.80259
  -0.51334  -0.49296  -1.89238
  -0.45348  -0.49296  -1.96720
  -0.45348  -0.47799  -2.07194
  -0.45348  -0.44806  -2.22158
  -0.43852  -0.35828  -2.31136
  -0.45348  -0.31339  -2.34129
  -0.48341  -0.19368  -2.47596
  -0.48341  -0.10390  -2.53582
  -0.55823   0.01581  -2.64057
  -0.54327   0.03078  -2.64057
  -0.55823   0.13552  -2.71538
  -0.63305   0.22530  -2.77524
  -0.60312   0.15049  -2.77524
  -0.58816   0.27020  -2.80517
  -0.63305   0.31509  -2.80517
  -0.64801   0.28516  -2.76028
  -0.64801   0.31509  -2.74531
  -0.66298   0.37494  -2.71538
  -0.64801   0.37494  -2.65553
  -0.57319   0.40487  -2.44604
  -0.64801   0.33005  -2.46100
  -0.66298   0.41983  -2.28143
  -0.70787   0.49465  -2.07194
  -0.70787   0.50962  -1.87741
  -0.69290   0.40487  -1.65296
  -0.73779   0.53954  -1.48836
  -0.79765   0.49465  -1.27886
  -0.85750   0.55451  -1.02448
  -0.85750   0.56947  -0.75513
  -0.88743   0.61436  -0.56060
  -0.93232   0.56947  -0.30622
  -0.91736   0.56947  -0.17154
  -0.90240   0.53954   0.05291
  -0.91736   0.56947   0.20255
  -0.87247   0.58443   0.29233
  -0.91736   0.62933   0.38211
  -0.84254   0.56947   0.53175
  -0.84254   0.55451   0.47190
  -0.82758   0.59940   0.56168
  -0.91736   0.61436   0.41204
  -0.81261   0.61436   0.50182
  -0.73779   0.62933   0.53175
  -0.67794   0.50962   0.54672
  -0.70787   0.47969   0.51679
  -0.75276   0.56947   0.47190
  -0.73779   0.50962   0.39708
  -0.69290   0.40487   0.32226
  -0.69290   0.37494   0.27737
  -0.73779   0.43480   0.11277
  -0.76772   0.44976   0.02298
  -0.70787   0.33005  -0.05183
  -0.69290   0.43480  -0.08176
  -0.63305   0.38991  -0.17154
  -0.55823   0.41983  -0.30622
  -0.51334   0.44976  -0.32118
  -0.42356   0.41983  -0.36607
  -0.43852   0.50962  -0.48578
  -0.37866   0.40487  -0.54564
  -0.33377   0.41983  -0.57557
  -0.40859   0.49465  -0.57557
  -0.30385   0.27020  -0.48578
  -0.36370   0.34501  -0.48578
  -0.39363   0.34501  -0.45586
  -0.43852   0.34501  -0.45586
  -0.37866   0.19538  -0.35111
  -0.37866   0.19538  -0.17154
  -0.36370   0.15049  -0.08176
  -0.34874   0.19538   0.00802
  -0.37866   0.15049   0.18759
  -0.45348   0.21034   0.23248
  -0.36370   0.21034   0.48686
  -0.28888   0.21034   0.69635
  -0.27392   0.24027   0.89088
  -0.25895   0.24027   1.05548
  -0.25895   0.22530   1.25001
  -0.31881   0.25523   1.33980
  -0.27392   0.22530   1.48943
  -0.16917   0.10559   1.71389
  -0.28888   0.19538   1.80367
  -0.16917   0.07567   1.93835
  -0.24399   0.13552   1.96827
  -0.34874   0.10559   1.96827
  -0.31881   8.5E-40   2.02813
  -0.40859  -0.02908   2.04309
  -0.46845   8.5E-40   2.01316
  -0.55823  -0.13383   1.89345
  -0.76772   8.5E-40   1.74382
  -0.79765  -0.01412   1.75878
  -0.84254  -0.04404   1.63907
  -0.75276  -0.23857   1.57922
  -0.82758  -0.19368   1.48943
  -0.85750  -0.26850   1.35476
  -0.99218  -0.20864   1.11534
  -1.05203  -0.29843   1.02556
  -1.02211  -0.32835   0.87592
  -0.91736  -0.43310   0.83103
  -0.90240  -0.38821   0.83103
  -0.88743  -0.41814   0.71132
  -0.82758  -0.37325   0.63650
  -0.61808  -0.52288   0.69635
  -0.52830  -0.52288   0.68139
  -0.49837  -0.41814   0.65146
  -0.45348  -0.31339   0.77117
  -0.19910  -0.46303   0.86095
  -0.04946  -0.41814   0.96570
  -0.09435  -0.31339   1.07045
   0.04032  -0.41814   1.20512
   0.08521  -0.23857   1.26498
   0.18996  -0.28346   1.38469
   0.29470  -0.19368   1.60914
   0.41442  -0.25354   1.63907
   0.57902  -0.25354   1.78871
   0.86333  -0.38821   1.95331
   1.07282  -0.37325   1.98324
   1.20749  -0.32835   1.99820
   1.31224  -0.22361   2.05806
   1.59655  -0.28346   1.93835
   1.82101  -0.35828   1.98324
   1.94072  -0.26850   1.93835
   2.07539  -0.23857   1.87849
   2.13525  -0.17872   1.65403
   2.23999  -0.25354   1.56425
   2.43452  -0.25354   1.56425
   2.49438  -0.25354   1.42958
   2.58416  -0.16375   1.38469
   2.61409  -0.16375   1.32483
   2.62905  -0.13383   1.16023
   2.53927  -0.16375   1.07045
   2.37467  -0.04404   1.02556
   2.29985  -0.11886   0.84599
   2.22503  -0.14879   0.80110
   2.06043  -0.23857   0.69635
   1.94072  -0.20864   0.63650
   1.77612  -0.28346   0.65146
   1.58159  -0.23857   0.65146
   1.34217  -0.19368   0.62153
   1.17757  -0.10390   0.68139
   1.07282  -0.20864   0.74124
   0.89326  -0.13383   0.69635
   0.74362  -0.20864   0.71132
   0.65384  -0.17872   0.86095
   0.45931  -0.08893   0.86095
   0.33960  -0.08893   0.99563
   0.24981  -0.10390   1.11534
   0.13010  -0.05901   1.10037
   0.11514  -0.08893   1.29490
   0.02536  -0.11886   1.32483
   0.04032  -0.05901   1.38469
  -0.01953   0.03078   1.44454
  -0.00457  -0.01412   1.41461
   0.05528  -0.02908   1.39965
  -0.03450   0.09063   1.38469
  -0.01953   0.04574   1.33980
  -0.04946   0.04574   1.22008
  -0.00457   0.09063   1.19016
  -0.12428   0.18041   1.07045
  -0.15421   0.16545   0.99563
  -0.22903   0.25523   0.90585
  -0.21406   0.19538   0.80110
  -0.28888   0.10559   0.63650
  -0.40859   0.21034   0.62153
  -0.46845   0.19538   0.50182
  -0.58816   0.22530   0.36715
