********************************************************************************
               CENTRO DE INSTRUMENTACION Y REGISTRO SISMICO  A.C.  
                       Coordinacion de Servicios Tecnicos
     Anaxagoras 814, Col. Narvarte, Benito Juarez, C.P. 03020 Mexico, D.F.
            Tels. 667 45 42/ 687 45  82             Fax. 669 25 12
********************************************************************************
ARCHIVO ESTANDAR DE ACELERACION:
VERSION DEL FORMATO                    : 2.0
NOMBRE DEL ARCHIVO                     : AU110103.061
FECHA Y HORA DE CREACION               : 05/JUL/04, 11:50
REF. CATALOGO ACELEROGRAMAS, SMIS 1996 : REGISTRO No.     /PAG.


================================================================================
DATOS DE LA ESTACION:
NOMBRE DE LA ESTACION                  : AUTODROMO
CLAVE DE LA ESTACION                   : AU11
LOCALIZACION DE LA ESTACION            : AUTODROMO HERMANOS RODRIGUEZ,
                                       : CHURUBUSCO, CD. DEPORTIVA
                                       :
                                       :
                                       :
COORDENADAS DE LA ESTACION             : 19.392 LAT. N 
                                       : 99.087 LONG. W 
ALTITUD (msnm)                         : 2234
TIPO DE SUELO                          : TERRENO BLANDO, MATERIAL COMPRESIBLE
                                       : (ARCILLAS)
                                       : 
INSTITUCION RESPONSABLE                : CIRES 
                                       :

================================================================================
DATOS DEL ACELEROGRAFO:
MODELO DEL ACELEROGRAFO                : SSA-1
NUMERO DE SERIE DEL ACELEROGRAFO       : 157
NUMERO DE CANALES                      : 3
ORIENTACION C1-C6 (rumbo;orientacion)  : /N00E/+V/N90E
ORIENTACION C7-C12 (rumbo;orientacion) :
VEL. DE MUESTREO, C1-C6 (muestras/s)   : /200/200/200
VEL. DE MUESTREO, C7-C12 (muestras/s)  :
ESC. COMPLETA DE SENSORES, C1-C6, (g)  : /2/2/2
ESC. COMPLETA DE SENSORES, C7-C12, (g) :
FREC. NAT. DE SENSORES, C1-C6, (Hz)    : /51.77/52.56/52.29
FREC. NAT. DE SENSORES, C7-C12, (Hz)   :
AMORTIGUAMIENTO DE SENSORES, C1-C6     : /.5912/.6083/.6067
AMORTIGUAMIENTO DE SENSORES, C7-C12    :
INTERVALO DE MUESTREO, C1-C6, (s)      : /0.005/0.005/0.005
INTERVALO DE MUESTREO, C7-C12, (s)     :
UMBRAL DE DISPARO, C1-C6, (Gal)        : /2/2/2
UMBRAL DE DISPARO, C7-C12, (Gal)       :
MEMORIA DE PREEVENTO (s)               : 15
TIEMPO DE POSEVENTO (s)                : 60


================================================================================
DATOS DEL SISMO:
FECHA DEL SISMO (GMT)                  : 06/MAR/01
HORA EPICENTRO (GMT)                   : 21:57:56,9
MAGNITUD(ES)                           : /Mb=5.1/Ms=4.5/Mc=5.1/Ma=4.9/Me=5.3
COORDENADAS DEL EPICENTRO              : 17.14 LAT. N
                                       : 100.10 LONG. W
PROFUNDIDAD FOCAL (km)                 : 32
FUENTE DE LOS DATOS EPICENTRALES       : SSN
                                       : INSTITUTO DE GEOFISICA, UNAM 

================================================================================
DATOS DE ESTE REGISTRO:
HORA DE LA PRIMERA MUESTRA (GMT)       : 21:59:14.00
EXACTITUD DEL TIEMPO (s)               :     
DURACION DEL REGISTRO (s), C1-C6       : /78.08/78.08/78.08
DURACION DEL REGISTRO (s), C7-C12      :
NUM. TOTAL DE MUESTRAS, C1-C6          : /15616/15616/15616
NUM. TOTAL DE MUESTRAS, C7-C12         :
ACEL. MAX. (Gal), C1-C6                : /-1.32842/-0.56162/-1.62516
ACEL. MAX., C1-C6, EN LA MUESTRA       :
ACEL. MAX. (Gal), C7-C12               :
ACEL. MAX., C7-C12, EN LA MUESTRA      :
UNIDADES DE LOS DATOS                  : Gal (cm/s/s)
FACTOR DE DECIMACION                   : 1
FORMATO DATOS (FORTRAN,10 campos/dato) : 3F10.5


================================================================================
CALIDAD DEL ACELEROGRAMA:
REGISTRO DIGITAL COMPLETO, CARECE DE TIEMPO ABSOLUTO.


================================================================================
COMENTARIOS:














================================================================================
DATOS DE ACELERACION:
---------+---------+---------+---------+---------+---------+---------+---------+
   CANAL-1   CANAL-2   CANAL-3   CANAL-4   CANAL-5   CANAL-6   CANAL-7   CANAL-8
      N00E        +V      N90E
---------+---------+---------+---------+---------+---------+---------+---------+
[...]
   0.11158   0.15838   0.77484
   0.35158   0.15838   1.01484
   0.11158   0.15838   0.77484
   0.35158  -0.08162   0.77484
   0.11158   0.15838   0.77484
   0.11158  -0.08162   0.77484
   0.35158  -0.08162   0.77484
   0.11158  -0.08162   0.53484
   0.35158  -0.08162   0.53484
   0.35158  -0.08162   0.53484
   0.35158  -0.08162   0.53484
   0.35158  -0.08162   0.29484
   0.35158  -0.08162   0.29484
   0.35158  -0.08162   0.29484
   0.35158  -0.08162   0.29484
   0.35158  -0.08162   0.29484
   0.35158  -0.08162   0.29484
   0.35158  -0.08162   0.05484
   0.35158  -0.08162   0.05484
   0.35158  -0.08162   0.05484
   0.35158  -0.08162  -0.18516
   0.35158  -0.08162  -0.18516
   0.35158  -0.08162  -0.18516
   0.35158  -0.08162  -0.18516
   0.35158  -0.08162  -0.18516
   0.35158   0.15838  -0.42516
   0.35158  -0.08162  -0.42516
   0.35158   0.15838  -0.42516
   0.35158   0.15838  -0.42516
   0.35158  -0.08162  -0.42516
   0.35158  -0.08162  -0.66516
   0.35158   0.15838  -0.66516
   0.35158   0.15838  -0.66516
   0.35158  -0.08162  -0.66516
   0.35158  -0.08162  -0.90516
   0.35158  -0.08162  -0.90516
   0.35158  -0.08162  -0.90516
   0.35158  -0.08162  -0.90516
   0.35158  -0.08162  -0.90516
   0.11158  -0.08162  -0.90516
   0.11158  -0.08162  -0.90516
   0.11158  -0.08162  -0.90516
   0.11158  -0.08162  -0.90516
   0.11158  -0.08162  -0.90516
   0.11158  -0.32162  -0.90516
   0.11158  -0.08162  -0.90516
  -0.12842  -0.08162  -0.90516
   0.11158  -0.08162  -0.90516
  -0.12842  -0.08162  -0.90516
  -0.12842  -0.08162  -0.90516
  -0.12842  -0.08162  -0.90516
  -0.12842  -0.08162  -0.90516
  -0.12842  -0.08162  -0.90516
  -0.12842  -0.08162  -0.90516
  -0.36842  -0.08162  -0.90516
  -0.36842  -0.08162  -0.90516
  -0.36842  -0.08162  -0.90516
  -0.36842  -0.08162  -0.66516
  -0.36842  -0.08162  -0.90516
  -0.36842  -0.08162  -0.66516
  -0.36842  -0.08162  -0.66516
  -0.36842  -0.32162  -0.66516
  -0.36842  -0.08162  -0.66516
  -0.60842  -0.08162  -0.66516
  -0.60842  -0.08162  -0.90516
  -0.60842  -0.08162  -0.66516
  -0.60842  -0.08162  -0.66516
  -0.60842  -0.08162  -0.66516
  -0.60842  -0.08162  -0.66516
  -0.60842  -0.08162  -0.90516
  -0.60842  -0.08162  -0.66516
  -0.84842  -0.08162  -0.66516
  -0.84842  -0.08162  -1.14516
  -0.84842  -0.08162  -0.66516
  -0.84842  -0.08162  -0.90516
  -0.84842  -0.08162  -0.90516
  -0.84842  -0.08162  -0.66516
  -0.84842  -0.08162  -0.66516
  -0.84842  -0.08162  -0.90516
  -0.84842  -0.08162  -0.90516
  -0.84842  -0.08162  -0.90516
  -1.32842  -0.08162  -0.90516
  -0.84842  -0.08162  -0.90516
  -1.08842  -0.08162  -0.66516
  -1.08842  -0.08162  -0.66516
  -1.08842   0.15838  -0.90516
  -0.84842   0.15838  -0.90516
  -1.08842  -0.08162  -0.90516
  -1.08842   0.15838  -0.66516
  -1.08842   0.15838  -0.90516
  -1.08842   0.15838  -0.66516
  -1.08842   0.15838  -0.66516
  -1.08842   0.15838  -0.66516
  -1.08842   0.15838  -0.66516
  -1.08842   0.15838  -0.66516
  -1.08842   0.15838  -0.66516
  -1.08842   0.15838  -0.66516
  -1.08842  -0.08162  -0.42516
  -1.08842   0.15838  -0.42516
  -1.08842  -0.08162  -0.42516
  -1.08842  -0.08162  -0.42516
  -1.32842   0.15838  -0.42516
  -1.32842  -0.08162  -0.42516
  -1.32842   0.15838  -0.42516
  -1.32842  -0.08162  -0.42516
  -1.08842  -0.08162  -0.42516
  -1.08842  -0.08162  -0.42516
  -1.32842  -0.08162  -0.42516
  -1.08842  -0.08162  -0.42516
  -1.08842  -0.08162  -0.42516
  -1.08842   0.15838  -0.42516
  -1.08842   0.15838  -0.42516
  -1.08842   0.15838  -0.42516
  -1.08842   0.15838  -0.42516
  -1.08842   0.15838  -0.42516
  -1.08842   0.15838  -0.42516
  -0.84842   0.15838  -0.42516
  -0.84842   0.15838  -0.42516
  -1.08842   0.15838  -0.42516
  -1.08842  -0.08162  -0.42516
  -0.84842   0.15838  -0.42516
  -0.84842   0.15838  -0.42516
  -0.84842   0.15838  -0.42516
  -0.84842   0.15838  -0.42516
  -0.60842   0.15838  -0.42516
  -0.60842   0.15838  -0.42516
  -0.60842   0.15838  -0.42516
  -0.60842   0.15838  -0.42516
  -0.60842   0.15838  -0.42516
  -0.60842   0.15838  -0.42516
  -0.36842   0.15838  -0.42516
  -0.60842   0.15838  -0.42516
  -0.36842   0.15838  -0.42516
  -0.60842   0.15838  -0.42516
  -0.36842   0.15838  -0.42516
  -0.36842   0.15838  -0.42516
  -0.36842   0.15838  -0.42516
  -0.36842   0.15838  -0.42516
  -0.36842   0.15838  -0.42516
  -0.36842  -0.08162  -0.18516
  -0.36842   0.15838  -0.18516
  -0.36842  -0.08162  -0.18516
  -0.36842  -0.08162  -0.18516
  -0.36842  -0.08162  -0.18516
  -0.36842  -0.08162  -0.18516
  -0.60842  -0.08162  -0.18516
  -0.36842  -0.08162  -0.18516
  -0.36842  -0.08162  -0.18516
  -0.60842  -0.08162   0.05484
  -0.36842   0.15838   0.05484
  -0.36842  -0.08162  -0.18516
  -0.84842  -0.08162   0.05484
  -0.36842  -0.08162   0.05484
  -0.36842  -0.08162   0.05484
  -0.36842  -0.08162   0.05484
  -0.36842  -0.08162   0.05484
  -0.36842  -0.08162   0.05484
  -0.36842  -0.08162   0.05484
  -0.36842  -0.08162   0.05484
  -0.12842  -0.08162   0.05484
  -0.12842  -0.08162  -0.18516
  -0.36842  -0.08162  -0.18516
  -0.12842  -0.08162  -0.18516
  -0.12842  -0.08162  -0.18516
  -0.12842  -0.08162  -0.18516
  -0.12842  -0.08162   0.05484
  -0.12842  -0.08162  -0.18516
  -0.12842  -0.08162  -0.18516
  -0.12842  -0.08162  -0.18516
   0.11158  -0.08162  -0.18516
  -0.12842  -0.08162  -0.18516
   0.11158  -0.08162  -0.18516
   0.11158  -0.08162  -0.18516
   0.11158  -0.08162  -0.18516
   0.11158  -0.08162  -0.18516
   0.11158  -0.08162  -0.18516
   0.11158  -0.08162  -0.18516
   0.11158  -0.08162   0.05484
   0.35158  -0.08162   0.05484
   0.35158  -0.08162   0.05484
   0.35158  -0.08162   0.05484
   0.35158  -0.08162   0.05484
   0.35158  -0.08162   0.05484
   0.35158  -0.08162   0.05484
   0.35158  -0.08162   0.05484
   0.35158  -0.08162   0.05484
   0.35158  -0.08162   0.05484
   0.35158  -0.08162   0.05484
   0.59158  -0.08162   0.05484
   0.35158  -0.08162   0.05484
   0.35158  -0.08162   0.29484
   0.35158  -0.08162   0.29484
   0.35158  -0.08162   0.29484
   0.35158  -0.08162   0.29484
   0.59158  -0.08162   0.29484
   0.35158  -0.08162   0.29484
   0.59158  -0.08162   0.29484
   0.59158  -0.08162   0.29484
   0.59158  -0.08162   0.53484
   0.59158  -0.08162   0.53484
   0.59158  -0.08162   0.53484
   0.59158  -0.08162   0.53484
   0.59158  -0.08162   0.53484
   0.59158  -0.08162   0.53484
   0.59158  -0.08162   0.53484
   0.59158  -0.08162   0.53484
   0.59158  -0.08162   0.53484
   0.59158  -0.08162   0.53484
   0.59158  -0.08162   0.53484
   0.83158  -0.08162   0.53484
   0.83158  -0.08162   0.53484
   0.83158  -0.08162   0.77484
   0.83158  -0.08162   0.53484
   0.83158  -0.08162   0.77484
   0.83158  -0.08162   0.53484
   0.83158  -0.08162   0.53484
   0.83158  -0.08162   0.77484
   0.83158  -0.08162   0.77484
   0.83158  -0.08162   0.77484
   0.83158  -0.08162   0.77484
   0.83158  -0.08162   0.77484
   0.83158  -0.08162   0.77484
   0.83158  -0.08162   0.77484
   0.83158  -0.08162   0.77484
   0.83158  -0.08162   0.53484
   0.83158  -0.08162   0.77484
   0.83158  -0.08162   0.53484
   0.83158  -0.08162   0.53484
   0.83158  -0.08162   0.53484
   0.83158  -0.08162   0.53484
   0.83158  -0.08162   0.53484
   0.83158  -0.08162   0.77484
   0.83158  -0.08162   0.77484
   0.83158  -0.08162   0.53484
   0.59158  -0.08162   0.53484
   0.83158  -0.08162   0.77484
   0.59158  -0.08162   0.53484
   0.59158  -0.08162   0.77484
   0.59158  -0.08162   0.53484
   0.59158  -0.08162   0.53484
   0.59158  -0.08162   0.53484
   0.59158  -0.08162   0.53484
   0.59158  -0.08162   0.53484
   0.59158  -0.08162   0.53484
   0.59158  -0.08162   0.77484
   0.59158  -0.08162   0.53484
   0.59158  -0.08162   0.53484
   0.59158  -0.08162   0.53484
   0.59158  -0.08162   0.53484
   0.59158  -0.08162   0.53484
   0.59158  -0.08162   0.53484
   0.59158  -0.08162   0.53484
   0.59158  -0.08162   0.53484
   0.35158  -0.08162   0.53484
   0.35158  -0.08162   0.53484
   0.35158  -0.08162   0.53484
   0.59158  -0.08162   0.53484
   0.35158  -0.08162   0.53484
   0.35158  -0.08162   0.53484
   0.35158  -0.08162   0.53484
   0.35158  -0.08162   0.29484
   0.35158  -0.08162   0.53484
   0.35158  -0.08162   0.29484
   0.35158  -0.08162   0.53484
   0.35158  -0.08162   0.29484
   0.35158  -0.08162   0.29484
   0.35158  -0.08162   0.29484
   0.11158  -0.08162   0.29484
   0.11158  -0.08162   0.29484
   0.11158  -0.08162   0.29484
   0.11158  -0.08162   0.29484
   0.11158  -0.08162   0.29484
   0.11158  -0.08162   0.29484
   0.11158  -0.08162   0.29484
   0.11158  -0.08162   0.29484
   0.11158  -0.08162   0.29484
   0.11158  -0.08162   0.29484
   0.11158  -0.08162   0.29484
   0.11158  -0.56162   0.53484
   0.11158  -0.08162   0.53484
   0.11158  -0.08162   0.53484
   0.11158  -0.08162   0.29484
   0.11158  -0.08162   0.53484
   0.11158  -0.08162   0.53484
   0.11158  -0.08162   0.53484
   0.11158  -0.08162   0.53484
   0.11158  -0.08162   0.53484
   0.11158  -0.08162   0.53484
   0.11158  -0.08162   0.53484
   0.11158  -0.08162   0.53484
   0.11158  -0.08162   0.53484
   0.11158  -0.08162   0.53484
  -0.12842  -0.08162   0.53484
   0.11158  -0.08162   0.53484
   0.11158  -0.08162   0.53484
   0.11158  -0.08162   0.53484
   0.11158  -0.08162   0.53484
   0.11158  -0.08162   0.53484
   0.11158  -0.08162   0.53484
   0.11158  -0.08162   0.53484
  -0.12842   0.15838   0.53484
   0.11158  -0.08162   0.53484
   0.11158  -0.08162   0.53484
   0.11158  -0.08162   0.53484
   0.11158   0.15838   0.53484
   0.11158   0.15838   0.53484
   0.11158   0.15838   0.53484
   0.11158   0.15838   0.53484
   0.11158   0.15838   0.53484
   0.11158   0.15838   0.29484
   0.11158   0.15838   0.53484
   0.11158   0.15838   0.29484
   0.11158   0.15838   0.29484
   0.11158   0.15838   0.29484
   0.11158   0.15838   0.29484
   0.11158   0.15838   0.29484
   0.11158   0.15838   0.29484
   0.35158   0.15838   0.05484
   0.35158   0.15838   0.05484
   0.35158   0.15838   0.05484
   0.35158   0.39838   0.05484
   0.11158   0.39838  -0.18516
   0.35158   0.15838  -0.18516
   0.35158   0.39838  -0.18516
   0.35158   0.15838  -0.42516
   0.35158   0.15838  -0.42516
   0.35158   0.15838  -0.42516
   0.35158   0.15838  -0.42516
   0.35158   0.15838  -0.66516
   0.35158   0.15838  -0.66516
   0.35158  -0.08162  -0.66516
   0.35158   0.15838  -0.66516
   0.35158   0.15838  -0.90516
   0.35158  -0.08162  -0.90516
   0.35158  -0.08162  -0.90516
   0.35158  -0.08162  -0.90516
   0.35158  -0.08162  -1.14516
   0.35158  -0.08162  -1.14516
   0.35158  -0.08162  -1.14516
   0.35158  -0.08162  -1.14516
   0.35158  -0.08162  -1.38516
   0.35158  -0.08162  -1.38516
   0.35158  -0.08162  -1.38516
   0.35158  -0.08162  -1.38516
   0.35158  -0.08162  -1.38516
   0.35158  -0.08162  -1.38516
   0.35158  -0.08162  -1.38516
   0.11158  -0.08162  -1.38516
   0.11158  -0.08162  -1.38516
   0.35158  -0.08162  -1.62516
   0.35158  -0.08162  -1.62516
   0.11158  -0.08162  -1.62516
   0.11158  -0.08162  -1.62516
   0.11158  -0.08162  -1.62516
   0.11158   0.15838  -1.62516
   0.11158   0.15838  -1.62516
   0.11158   0.15838  -1.62516
  -0.12842   0.15838  -1.62516
  -0.12842   0.15838  -1.62516
  -0.12842  -0.08162  -1.62516
  -0.12842  -0.08162  -1.62516
  -0.12842  -0.08162  -1.62516
  -0.12842   0.15838  -1.62516
  -0.12842  -0.08162  -1.62516
  -0.36842  -0.08162  -1.38516
  -0.36842  -0.08162  -1.38516
  -0.36842  -0.08162  -1.38516
  -0.36842  -0.08162  -1.38516
  -0.36842  -0.08162  -1.38516
  -0.36842  -0.08162  -1.38516
  -0.36842  -0.08162  -1.38516
  -0.36842  -0.08162  -1.38516
  -0.36842  -0.08162  -1.38516
  -0.36842  -0.08162  -1.14516
  -0.36842  -0.08162  -1.14516
  -0.60842  -0.08162  -1.14516
  -0.60842  -0.08162  -1.14516
  -0.36842  -0.08162  -0.90516
  -0.36842  -0.08162  -0.90516
  -0.60842   0.15838  -1.38516
  -0.60842   0.15838  -0.90516
  -0.60842   0.15838  -0.90516
  -0.60842   0.15838  -0.66516
  -0.60842   0.15838  -0.66516
  -0.60842   0.15838  -0.66516
  -0.60842   0.15838  -0.66516
  -0.60842   0.15838  -0.42516
  -0.60842   0.15838  -0.42516
  -0.60842   0.15838  -0.42516
  -0.84842   0.15838  -0.42516
  -0.60842   0.15838  -0.42516
  -0.60842  -0.08162  -0.42516
  -0.60842   0.15838  -0.18516
  -0.84842   0.15838  -0.18516
  -0.60842   0.39838  -0.18516
  -0.84842   0.39838  -0.18516
  -0.84842   0.15838   0.05484
  -0.84842   0.39838  -0.18516
  -0.84842   0.15838   0.05484
  -0.84842   0.15838   0.05484
  -0.84842   0.15838   0.05484
  -0.84842   0.15838   0.29484
  -0.60842   0.15838   0.29484
  -0.84842   0.15838   0.29484
  -0.84842   0.15838   0.29484
  -0.84842   0.15838   0.29484
  -0.84842   0.15838   0.29484
  -0.84842   0.15838   0.29484
  -0.84842   0.15838   0.29484
  -0.84842   0.15838   0.29484
  -0.84842   0.15838   0.53484
  -0.84842   0.15838   0.53484
  -0.84842   0.15838   0.53484
  -0.84842   0.15838   0.53484
  -0.84842   0.15838   0.53484
  -0.84842   0.15838   0.53484
  -0.84842   0.15838   0.29484
  -0.84842   0.15838   0.53484
  -0.60842  -0.08162   0.53484
  -0.84842   0.15838   0.53484
  -0.60842   0.15838   0.53484
  -0.84842   0.15838   0.53484
  -0.60842   0.15838   0.29484
  -0.60842   0.15838   0.29484
  -0.60842   0.15838   0.29484
  -0.60842   0.15838   0.29484
  -0.60842   0.15838   0.29484
  -0.60842   0.15838   0.29484
  -0.60842  -0.08162   0.29484
  -0.60842   0.15838   0.29484
  -0.60842  -0.08162   0.29484
  -0.60842  -0.08162   0.29484
  -0.60842  -0.08162   0.29484
  -0.36842  -0.08162   0.29484
  -0.36842  -0.08162   0.29484
  -0.36842  -0.08162   0.29484
  -0.36842  -0.08162   0.29484
  -0.36842  -0.08162   0.29484
  -0.36842  -0.08162   0.05484
  -0.36842  -0.08162   0.29484
  -0.36842  -0.08162   0.29484
  -0.36842  -0.08162   0.29484
  -0.36842  -0.08162   0.29484
  -0.36842  -0.32162   0.29484
  -0.12842  -0.32162   0.53484
  -0.12842  -0.32162   0.53484
  -0.12842  -0.08162   0.53484
  -0.12842  -0.32162   0.53484
  -0.12842  -0.08162   0.53484
  -0.12842  -0.08162   0.53484
  -0.12842  -0.32162   0.53484
  -0.12842  -0.32162   0.53484
  -0.12842  -0.32162   0.77484
  -0.12842  -0.32162   0.77484
  -0.12842  -0.08162   0.77484
  -0.12842  -0.08162   0.77484
   0.11158  -0.08162   0.77484
  -0.12842  -0.08162   1.01484
  -0.12842  -0.32162   1.01484
   0.11158  -0.32162   1.01484
  -0.12842  -0.08162   1.01484
   0.11158  -0.32162   1.01484
  -0.12842  -0.32162   1.01484
  -0.12842  -0.32162   1.01484
   0.11158  -0.08162   1.01484
  -0.12842  -0.32162   1.01484
  -0.12842  -0.32162   1.01484
  -0.12842  -0.32162   1.01484
  -0.12842  -0.32162   1.01484
  -0.12842  -0.32162   1.25484
  -0.12842  -0.08162   1.01484
   0.11158  -0.08162   1.01484
  -0.12842  -0.08162   1.01484
  -0.12842  -0.08162   1.01484
  -0.12842  -0.08162   1.01484
  -0.12842  -0.08162   1.01484
  -0.12842  -0.08162   1.01484
  -0.12842  -0.08162   1.01484
  -0.12842  -0.08162   1.01484
  -0.12842  -0.08162   1.01484
  -0.12842  -0.08162   1.01484
  -0.12842  -0.08162   1.01484
  -0.12842  -0.08162   1.01484
   0.11158  -0.08162   1.01484
   0.11158  -0.08162   1.01484
  -0.12842  -0.08162   0.77484
  -0.12842  -0.08162   0.77484
   0.11158  -0.32162   0.77484
   0.11158  -0.08162   0.77484
   0.11158  -0.08162   0.77484
   0.11158  -0.08162   0.77484
   0.11158  -0.08162   0.77484
   0.35158  -0.08162   0.53484
   0.35158  -0.08162   0.77484
   0.35158  -0.08162   0.77484
   0.35158  -0.08162   0.53484
   0.35158   0.15838   0.53484
   0.35158   0.15838   0.53484
   0.35158  -0.08162   0.53484
