********************************************************************************
               CENTRO DE INSTRUMENTACION Y REGISTRO SISMICO  A.C.  
                       Coordinacion de Servicios Tecnicos
     Anaxagoras 814, Col. Narvarte, Benito Juarez, C.P. 03020 Mexico, D.F.
            Tels. 667 45 42/ 687 45  82             Fax. 669 25 12
********************************************************************************
ARCHIVO ESTANDAR DE ACELERACION:
VERSION DEL FORMATO                    : 2.0
NOMBRE DEL ARCHIVO                     : AU119602.254
FECHA Y HORA DE CREACION               : 27/MAR/98, 3:55
REF. CATALOGO ACELEROGRAMAS, SMIS 1996 : REGISTRO No.     /PAG.


================================================================================
DATOS DE LA ESTACION:
NOMBRE DE LA ESTACION                  : AUTODROMO
CLAVE DE LA ESTACION                   : AU11
LOCALIZACION DE LA ESTACION            : AUTODROMO HERMANOS RODRIGUEZ,
                                       : CHURUBUSCO, CD. DEPORTIVA
                                       :
                                       :
                                       :
COORDENADAS DE LA ESTACION             : 19.392 LAT. N 
                                       : 99.087 LONG. W 
ALTITUD (msnm)                         : 2234
TIPO DE SUELO                          : TERRENO BLANDO, MATERIAL COMPRESIBLE
                                       : (ARCILLAS)
                                       : 
INSTITUCION RESPONSABLE                : CIRES 
                                       :

================================================================================
DATOS DEL ACELEROGRAFO:
MODELO DEL ACELEROGRAFO                : SSA-1
NUMERO DE SERIE DEL ACELEROGRAFO       : 157
NUMERO DE CANALES                      : 3
ORIENTACION C1-C6 (rumbo;orientacion)  : /N00E/+V/N90E
ORIENTACION C7-C12 (rumbo;orientacion) :
VEL. DE MUESTREO, C1-C6 (muestras/s)   : /200/200/200
VEL. DE MUESTREO, C7-C12 (muestras/s)  :
ESC. COMPLETA DE SENSORES, C1-C6, (g)  : /2/2/2
ESC. COMPLETA DE SENSORES, C7-C12, (g) :
FREC. NAT. DE SENSORES, C1-C6, (Hz)    : /51.77/52.56/52.29
FREC. NAT. DE SENSORES, C7-C12, (Hz)   :
AMORTIGUAMIENTO DE SENSORES, C1-C6     : /0.5912/0.6083/0.6067
AMORTIGUAMIENTO DE SENSORES, C7-C12    :
INTERVALO DE MUESTREO, C1-C6, (s)      : /0.005/0.005/0.005
INTERVALO DE MUESTREO, C7-C12, (s)     : 
UMBRAL DE DISPARO, C1-C6, (Gal)        : /2/2/2
UMBRAL DE DISPARO, C7-C12, (Gal)       :
MEMORIA DE PREEVENTO (s)               : 15
TIEMPO DE POSEVENTO (s)                : 60


================================================================================
DATOS DEL SISMO:
FECHA DEL SISMO (GMT)                  : 25/FEB/96
HORA EPICENTRO (GMT)                   : 14:27:24,3
MAGNITUD(ES)                           : /Mb=5.2/Ms=5.3/Mc=5.2
COORDENADAS DEL EPICENTRO              : 15.480 LAT. N
                                       : 98.040 LONG. W
PROFUNDIDAD FOCAL (km)                 : 13
FUENTE DE LOS DATOS EPICENTRALES       : SSN
                                       : INSTITUTO DE GEOFISICA, UNAM

================================================================================
DATOS DE ESTE REGISTRO:
HORA DE LA PRIMERA MUESTRA (GMT)       : 14:29:23.00
EXACTITUD DEL TIEMPO (s)               :     
DURACION DEL REGISTRO (s), C1-C6       : /83.20/83.20/83.20
DURACION DEL REGISTRO (s), C7-C12      :
NUM. TOTAL DE MUESTRAS, C1-C6          : /16640/16640/16640
NUM. TOTAL DE MUESTRAS, C7-C12         :
ACEL. MAX. (Gal), C1-C6                : /2.23914/1.01596/2.49756
ACEL. MAX., C1-C6, EN LA MUESTRA       :
ACEL. MAX. (Gal), C7-C12               :
ACEL. MAX., C7-C12, EN LA MUESTRA      :
UNIDADES DE LOS DATOS                  : Gal (cm/s/s)
FACTOR DE DECIMACION                   : 1
FORMATO DATOS (FORTRAN,10 campos/dato) : 3F10.5


================================================================================
CALIDAD DEL ACELEROGRAMA:
REGISTRO DIGITAL COMPLETO, CARECE DE TIEMPO ABSOLUTO.


================================================================================
COMENTARIOS:














================================================================================
DATOS DE ACELERACION:
---------+---------+---------+---------+---------+---------+---------+---------+
   CANAL-1   CANAL-2   CANAL-3   CANAL-4   CANAL-5   CANAL-6   CANAL-7   CANAL-8
      N00E        +V      N90E
---------+---------+---------+---------+---------+---------+---------+---------+
[...]
  -0.08914  -0.05596   0.09756
  -0.08914  -0.05596   0.09756
  -0.08914  -0.05596   0.09756
  -0.08914  -0.05596   0.09756
  -0.08914  -0.05596   0.33756
  -0.08914  -0.05596   0.33756
  -0.32914  -0.05596   0.33756
  -0.08914  -0.05596   0.33756
  -0.08914  -0.05596   0.33756
  -0.08914  -0.05596   0.33756
  -0.08914  -0.05596   0.33756
  -0.08914  -0.05596   0.33756
  -0.08914  -0.05596   0.33756
  -0.08914  -0.05596   0.33756
  -0.08914  -0.05596   0.33756
  -0.08914  -0.05596   0.33756
  -0.08914  -0.29596   0.33756
  -0.08914  -0.29596   0.33756
  -0.08914  -0.29596   0.33756
  -0.08914  -0.29596   0.33756
  -0.08914  -0.29596   0.33756
  -0.08914  -0.29596   0.33756
  -0.08914  -0.29596   0.33756
  -0.32914  -0.29596   0.33756
  -0.32914  -0.29596   0.33756
  -0.32914  -0.29596   0.33756
  -0.32914  -0.29596   0.57756
  -0.32914  -0.05596   0.33756
  -0.32914  -0.05596   0.33756
  -0.32914  -0.05596   0.33756
  -0.32914  -0.53596   0.33756
  -0.32914  -0.05596   0.33756
  -0.32914  -0.05596   0.33756
  -0.32914  -0.05596   0.33756
  -0.32914  -0.05596   0.33756
  -0.08914  -0.05596   0.33756
  -0.08914  -0.05596   0.33756
  -0.08914  -0.05596   0.33756
  -0.08914  -0.05596   0.33756
  -0.08914  -0.05596   0.33756
  -0.08914  -0.05596   0.33756
  -0.08914  -0.05596   0.33756
  -0.08914  -0.05596   0.33756
  -0.08914  -0.05596   0.33756
  -0.08914  -0.05596   0.33756
  -0.08914   0.18404   0.09756
  -0.08914   0.18404   0.09756
  -0.08914   0.18404   0.09756
  -0.08914   0.18404   0.09756
  -0.08914   0.18404   0.09756
  -0.08914   0.18404   0.09756
  -0.08914  -0.05596   0.09756
  -0.08914  -0.05596   0.09756
  -0.08914  -0.05596   0.09756
  -0.08914   0.18404   0.09756
  -0.08914   0.18404   0.09756
  -0.08914  -0.05596   0.09756
  -0.08914  -0.05596   0.09756
  -0.08914  -0.05596   0.09756
  -0.08914  -0.05596   0.09756
  -0.08914  -0.05596   0.09756
  -0.08914  -0.05596   0.09756
  -0.08914   0.18404  -0.14244
  -0.08914  -0.05596  -0.14244
  -0.08914  -0.05596  -0.14244
  -0.08914  -0.05596  -0.14244
  -0.08914  -0.05596  -0.14244
  -0.08914  -0.05596  -0.14244
  -0.08914  -0.05596  -0.14244
  -0.08914  -0.05596  -0.14244
  -0.08914  -0.05596  -0.14244
  -0.08914  -0.05596   0.09756
  -0.08914  -0.05596  -0.14244
  -0.08914  -0.05596   0.09756
  -0.08914  -0.05596   0.09756
  -0.08914  -0.05596   0.09756
  -0.08914  -0.05596   0.09756
  -0.08914  -0.05596   0.09756
  -0.08914  -0.05596   0.09756
  -0.08914  -0.05596   0.09756
  -0.08914  -0.05596   0.09756
  -0.08914  -0.05596   0.09756
  -0.32914  -0.05596   0.33756
  -0.32914  -0.05596   0.33756
  -0.08914  -0.05596   0.33756
  -0.08914  -0.05596   0.33756
  -0.08914  -0.05596   0.33756
  -0.08914  -0.05596   0.33756
  -0.08914  -0.05596   0.33756
  -0.08914  -0.05596   0.33756
  -0.32914  -0.05596   0.33756
  -0.08914  -0.05596   0.57756
  -0.08914  -0.05596   0.57756
  -0.08914  -0.05596   0.57756
  -0.32914  -0.05596   0.57756
  -0.08914  -0.05596   0.57756
  -0.08914  -0.05596   0.57756
  -0.08914  -0.05596   0.57756
  -0.08914  -0.05596   0.57756
  -0.08914  -0.05596   0.57756
  -0.08914  -0.05596   0.57756
  -0.08914  -0.05596   0.57756
  -0.08914   0.18404   0.57756
  -0.08914  -0.05596   0.57756
  -0.08914  -0.05596   0.57756
  -0.08914  -0.05596   0.57756
  -0.08914  -0.05596   0.57756
  -0.08914  -0.05596   0.57756
  -0.08914  -0.05596   0.57756
  -0.08914  -0.05596   0.57756
  -0.08914  -0.05596   0.33756
  -0.08914   0.18404   0.33756
  -0.08914  -0.05596   0.33756
  -0.08914  -0.05596   0.33756
  -0.08914  -0.05596   0.33756
  -0.08914  -0.05596   0.33756
  -0.08914  -0.05596   0.33756
  -0.08914  -0.05596   0.09756
  -0.08914  -0.05596   0.09756
  -0.08914  -0.05596   0.09756
  -0.08914  -0.05596   0.09756
  -0.08914  -0.05596   0.09756
  -0.08914  -0.05596  -0.14244
  -0.08914  -0.05596  -0.14244
   0.15086  -0.05596  -0.14244
   0.15086   0.18404  -0.14244
   0.15086  -0.05596  -0.14244
   0.15086   0.18404  -0.14244
   0.15086   0.18404  -0.14244
   0.15086   0.18404  -0.14244
   0.15086   0.18404  -0.14244
   0.39086  -0.05596  -0.14244
   0.39086   0.18404  -0.14244
   0.39086   0.18404  -0.38244
   0.39086   0.18404  -0.38244
   0.39086   0.18404  -0.38244
   0.39086   0.42404  -0.38244
   0.39086   0.42404  -0.38244
   0.39086   0.42404  -0.38244
   0.39086   0.42404  -0.38244
   0.39086   0.42404  -0.38244
   0.39086   0.42404  -0.38244
   0.39086   0.42404  -0.38244
   0.39086   0.42404  -0.38244
   0.63086   0.42404  -0.38244
   0.63086   0.18404  -0.38244
   0.39086   0.18404  -0.38244
   0.39086   0.18404  -0.62244
   0.39086   0.18404  -0.62244
   0.39086   0.18404  -0.62244
   0.39086   0.18404  -0.62244
   0.39086   0.18404  -0.62244
   0.39086   0.42404  -0.62244
   0.39086   0.42404  -0.62244
   0.39086   0.42404  -0.62244
   0.39086   0.42404  -0.86244
   0.39086   0.42404  -0.62244
   0.39086   0.18404  -0.62244
   0.39086   0.18404  -0.62244
   0.39086   0.18404  -0.62244
   0.39086   0.18404  -0.62244
   0.39086   0.18404  -0.62244
   0.39086   0.18404  -0.86244
   0.39086   0.18404  -0.86244
   0.15086   0.18404  -0.86244
   0.15086   0.18404  -0.86244
   0.15086   0.18404  -0.86244
   0.15086   0.18404  -0.86244
   0.15086   0.18404  -0.62244
   0.15086   0.18404  -0.86244
   0.15086   0.18404  -0.62244
  -0.08914   0.18404  -0.62244
  -0.08914   0.18404  -0.62244
  -0.08914   0.18404  -0.62244
  -0.08914   0.18404  -0.62244
  -0.08914   0.18404  -0.62244
  -0.08914   0.18404  -0.62244
  -0.08914   0.18404  -0.62244
  -0.08914   0.18404  -0.62244
  -0.08914   0.18404  -0.62244
  -0.08914  -0.05596  -0.62244
  -0.56914   0.18404  -0.62244
  -0.08914   0.18404  -0.62244
  -0.08914  -0.05596  -0.62244
  -0.08914  -0.05596  -0.62244
  -0.08914  -0.05596  -0.62244
  -0.08914  -0.05596  -0.62244
  -0.08914  -0.05596  -0.62244
  -0.08914  -0.05596  -0.62244
  -0.08914  -0.05596  -0.62244
  -0.08914  -0.05596  -0.62244
  -0.08914  -0.05596  -0.62244
  -0.08914  -0.05596  -0.62244
  -0.08914  -0.05596  -0.62244
  -0.08914  -0.29596  -0.62244
  -0.08914  -0.29596  -0.62244
  -0.08914  -0.29596  -0.62244
  -0.08914  -0.29596  -0.86244
  -0.08914  -0.29596  -0.86244
  -0.08914  -0.29596  -0.86244
  -0.08914  -0.29596  -0.86244
  -0.08914  -0.29596  -0.86244
   0.15086  -0.29596  -0.86244
   0.15086  -0.05596  -0.86244
   0.15086  -0.05596  -0.86244
   0.15086  -0.05596  -0.86244
   0.15086  -0.05596  -0.86244
   0.15086  -0.05596  -0.86244
   0.15086  -0.05596  -0.86244
   0.15086  -0.05596  -0.86244
   0.15086  -0.05596  -0.86244
   0.15086  -0.05596  -0.86244
   0.39086  -0.29596  -0.86244
   0.39086  -0.05596  -0.86244
   0.39086  -0.05596  -0.86244
   0.39086  -0.05596  -0.86244
   0.39086  -0.05596  -0.86244
   0.39086  -0.05596  -0.86244
   0.39086  -0.05596  -0.86244
   0.39086  -0.05596  -0.86244
   0.39086  -0.05596  -0.86244
   0.39086  -0.05596  -0.86244
   0.39086  -0.05596  -0.86244
   0.39086  -0.05596  -0.86244
   0.39086  -0.05596  -0.62244
   0.39086  -0.05596  -0.62244
   0.39086  -0.05596  -0.62244
   0.39086  -0.05596  -0.62244
   0.39086  -0.05596  -0.62244
   0.39086  -0.05596  -0.62244
   0.39086  -0.29596  -0.38244
   0.39086  -0.05596  -0.38244
   0.39086  -0.05596  -0.38244
   0.39086  -0.05596  -0.38244
   0.39086  -0.05596  -0.38244
   0.39086  -0.05596  -0.38244
   0.39086  -0.29596  -0.38244
   0.39086  -0.05596  -0.62244
   0.39086  -0.05596  -0.14244
   0.39086  -0.05596  -0.14244
   0.39086  -0.05596  -0.14244
   0.39086  -0.05596  -0.14244
   0.15086  -0.05596  -0.14244
   0.39086  -0.29596  -0.14244
   0.39086  -0.29596  -0.14244
   0.39086  -0.05596  -0.14244
   0.39086  -0.05596  -0.14244
   0.15086  -0.05596  -0.14244
   0.39086  -0.05596  -0.14244
   0.15086  -0.05596  -0.14244
   0.15086  -0.05596  -0.14244
   0.39086  -0.05596  -0.14244
   0.15086  -0.05596  -0.14244
   0.15086  -0.05596  -0.14244
   0.15086  -0.05596  -0.14244
   0.15086  -0.05596  -0.14244
   0.39086  -0.05596  -0.14244
   0.15086  -0.05596  -0.14244
   0.39086  -0.05596  -0.14244
   0.39086  -0.05596  -0.14244
   0.15086  -0.05596  -0.14244
   0.15086  -0.05596  -0.14244
   0.15086  -0.05596  -0.14244
   0.15086  -0.05596  -0.14244
   0.15086  -0.05596  -0.14244
   0.15086  -0.05596  -0.14244
   0.15086  -0.05596  -0.14244
   0.15086  -0.05596  -0.14244
   0.15086  -0.05596  -0.14244
   0.15086  -0.05596  -0.14244
   0.15086  -0.05596  -0.14244
   0.15086  -0.05596  -0.14244
   0.15086  -0.05596  -0.14244
   0.15086  -0.05596  -0.14244
   0.15086  -0.05596  -0.14244
   0.15086  -0.05596  -0.14244
  -0.08914  -0.05596  -0.14244
   0.15086  -0.05596  -0.14244
   0.15086  -0.05596  -0.14244
  -0.08914  -0.05596  -0.14244
  -0.08914  -0.05596  -0.14244
  -0.08914  -0.05596  -0.14244
  -0.08914  -0.05596  -0.14244
  -0.08914  -0.05596  -0.14244
  -0.08914  -0.05596  -0.14244
  -0.08914  -0.05596  -0.14244
  -0.08914  -0.05596  -0.14244
  -0.08914  -0.05596  -0.14244
  -0.08914  -0.05596  -0.14244
  -0.08914  -0.05596  -0.14244
  -0.08914  -0.05596  -0.14244
  -0.08914  -0.05596  -0.14244
  -0.08914  -0.05596  -0.14244
  -0.08914  -0.05596  -0.14244
  -0.08914  -0.05596  -0.14244
  -0.08914  -0.05596  -0.14244
  -0.08914  -0.05596  -0.14244
  -0.32914  -0.05596  -0.14244
  -0.08914  -0.05596  -0.14244
  -0.08914  -0.05596  -0.14244
  -0.08914  -0.05596  -0.14244
  -0.08914  -0.05596  -0.14244
  -0.08914  -0.05596  -0.14244
  -0.08914  -0.05596  -0.14244
  -0.08914  -0.05596  -0.14244
  -0.08914  -0.05596  -0.14244
  -0.32914  -0.05596  -0.14244
  -0.08914  -0.29596  -0.14244
  -0.08914  -0.05596  -0.14244
  -0.08914  -0.29596  -0.14244
  -0.08914  -0.29596  -0.14244
  -0.08914  -0.29596  -0.14244
  -0.08914  -0.29596   0.09756
  -0.08914  -0.29596   0.09756
  -0.08914  -0.29596   0.09756
  -0.08914  -0.29596   0.09756
  -0.08914  -0.05596   0.09756
  -0.08914  -0.05596   0.33756
  -0.08914  -0.05596   0.33756
  -0.08914  -0.05596   0.33756
  -0.08914  -0.05596   0.33756
  -0.08914  -0.05596   0.57756
  -0.08914  -0.05596   0.57756
  -0.08914  -0.05596   0.57756
  -0.08914  -0.05596   0.81756
   0.15086  -0.05596   0.81756
  -0.08914  -0.05596   0.81756
   0.15086  -0.05596   1.05756
   0.15086  -0.05596   1.05756
   0.15086   0.18404   1.05756
   0.15086  -0.05596   1.29756
   0.15086   0.18404   1.29756
   0.15086   0.18404   1.53756
   0.15086   0.18404   1.53756
   0.15086   0.18404   1.53756
   0.15086   0.18404   1.77756
   0.15086   0.18404   1.77756
   0.15086   0.18404   1.77756
   0.15086   0.18404   2.01756
   0.15086   0.18404   2.01756
   0.15086   0.18404   2.01756
   0.15086   0.18404   2.01756
   0.15086   0.18404   2.25756
   0.15086  -0.05596   2.25756
   0.15086   0.18404   2.25756
   0.15086   0.18404   2.25756
   0.15086  -0.05596   2.25756
   0.15086   0.18404   2.25756
   0.39086  -0.05596   2.49756
   0.15086  -0.05596   2.49756
   0.15086   0.18404   2.49756
   0.15086  -0.05596   2.49756
   0.15086   0.18404   2.49756
   0.15086  -0.05596   2.49756
   0.39086   0.18404   2.49756
   0.15086   0.18404   2.49756
   0.15086  -0.05596   2.49756
   0.39086   0.18404   2.49756
   0.15086  -0.05596   2.25756
   0.15086  -0.05596   2.25756
   0.15086  -0.05596   2.25756
   0.15086  -0.05596   2.25756
   0.15086  -0.05596   2.25756
   0.15086  -0.05596   2.25756
   0.15086  -0.05596   2.25756
   0.15086  -0.05596   2.01756
   0.15086  -0.05596   2.01756
   0.15086  -0.05596   2.01756
   0.15086  -0.05596   2.01756
   0.15086   0.18404   1.77756
   0.15086  -0.05596   1.77756
   0.15086   0.18404   1.77756
   0.15086  -0.05596   1.77756
   0.15086   0.18404   1.53756
   0.15086  -0.05596   1.53756
   0.15086  -0.05596   1.53756
   0.15086  -0.05596   1.53756
   0.15086   0.18404   1.53756
   0.15086   0.18404   1.29756
   0.15086   0.18404   1.29756
   0.15086  -0.05596   1.29756
   0.15086  -0.05596   1.29756
   0.15086  -0.05596   1.29756
   0.15086   0.18404   1.05756
   0.15086  -0.05596   1.05756
   0.15086  -0.05596   1.05756
   0.15086  -0.05596   1.05756
   0.15086  -0.05596   0.81756
   0.15086  -0.05596   0.81756
   0.15086  -0.05596   0.81756
   0.15086   0.18404   0.81756
   0.15086   0.18404   0.81756
   0.15086   0.18404   0.57756
   0.15086  -0.05596   0.57756
  -0.08914   0.18404   0.57756
   0.15086   0.18404   0.57756
  -0.08914   0.18404   0.33756
   0.15086   0.18404   0.33756
  -0.08914   0.18404   0.33756
  -0.08914   0.18404   0.33756
  -0.08914   0.18404   0.33756
  -0.08914   0.18404   0.33756
  -0.08914   0.18404   0.33756
  -0.08914   0.18404   0.09756
  -0.08914   0.18404   0.33756
  -0.32914   0.18404   0.33756
  -0.08914   0.18404   0.33756
  -0.08914   0.18404   0.09756
  -0.08914   0.18404   0.09756
  -0.08914   0.18404   0.09756
  -0.08914   0.18404   0.09756
  -0.08914   0.18404   0.09756
  -0.08914   0.18404   0.33756
  -0.08914   0.18404   0.09756
  -0.08914   0.18404   0.33756
  -0.08914   0.18404   0.33756
  -0.32914   0.18404   0.33756
  -0.32914   0.18404   0.33756
  -0.32914   0.18404   0.33756
  -0.56914   0.18404   0.33756
  -0.32914   0.18404   0.33756
  -0.32914   0.18404   0.33756
  -0.32914  -0.05596   0.33756
  -0.32914   0.18404   0.33756
  -0.32914  -0.05596   0.33756
  -0.32914  -0.05596   0.33756
  -0.32914  -0.53596   0.33756
  -0.32914  -0.05596   0.33756
  -0.32914  -0.05596   0.33756
  -0.56914  -0.05596   0.33756
  -0.56914  -0.05596   0.33756
  -0.56914  -0.05596   0.33756
  -0.56914  -0.05596   0.33756
  -0.56914  -0.05596   0.33756
  -0.56914  -0.05596   0.33756
  -0.56914  -0.05596   0.33756
  -0.56914  -0.05596   0.33756
  -0.56914  -0.05596   0.33756
  -0.56914  -0.05596   0.33756
  -0.80914  -0.05596   0.33756
  -0.80914  -0.05596   0.09756
  -0.80914  -0.05596   0.09756
  -0.80914  -0.05596   0.09756
  -0.80914   0.18404   0.09756
  -0.80914   0.18404   0.09756
  -0.80914   0.18404   0.09756
  -0.80914   0.18404   0.09756
  -0.80914   0.18404  -0.14244
  -1.04914  -0.05596  -0.14244
  -1.04914   0.18404  -0.14244
  -1.04914   0.18404  -0.14244
  -1.04914   0.18404  -0.14244
  -1.04914   0.18404  -0.14244
  -1.04914   0.18404  -0.14244
  -0.80914   0.18404  -0.14244
  -0.80914   0.18404  -0.14244
  -0.80914  -0.05596  -0.38244
  -0.80914   0.18404  -0.38244
  -0.80914   0.18404  -0.14244
  -0.80914   0.18404  -0.38244
  -0.80914   0.18404  -0.38244
  -0.80914   0.18404  -0.38244
  -0.80914   0.18404  -0.38244
  -0.56914   0.18404  -0.38244
  -0.56914   0.18404  -0.38244
  -0.56914   0.18404  -0.38244
  -0.56914  -0.05596  -0.38244
  -0.56914  -0.05596  -0.38244
  -0.56914  -0.05596  -0.38244
  -0.56914  -0.05596  -0.38244
  -0.32914  -0.05596  -0.38244
  -0.32914  -0.05596  -0.38244
  -0.32914  -0.05596  -0.62244
  -0.32914  -0.05596  -0.62244
  -0.08914  -0.05596  -0.62244
  -0.08914  -0.05596  -0.62244
  -0.08914  -0.05596  -0.62244
  -0.08914  -0.05596  -0.62244
  -0.08914  -0.05596  -0.62244
  -0.08914  -0.05596  -0.62244
  -0.08914  -0.05596  -0.62244
  -0.08914  -0.05596  -0.62244
   0.15086  -0.53596  -0.62244
  -0.08914  -0.05596  -0.62244
   0.15086  -0.05596  -0.62244
   0.15086  -0.05596  -0.86244
   0.15086  -0.05596  -0.86244
   0.15086  -0.05596  -0.86244
   0.15086  -0.05596  -0.86244
   0.15086  -0.05596  -0.86244
   0.15086  -0.05596  -0.86244
   0.15086  -0.05596  -0.86244
   0.15086  -0.05596  -1.10244
   0.15086  -0.05596  -0.86244
   0.15086  -0.05596  -0.86244
   0.15086  -0.05596  -1.10244
   0.15086  -0.05596  -1.10244
   0.15086  -0.05596  -1.10244
   0.15086  -0.05596  -1.10244
