********************************************************************************
              CENTRO DE INSTRUMENTACION Y REGISTRO SISMICO  A.C.

    Anaxagoras 814, Col. Narvarte, Benito Juarez, C.P. 03020 Mexico, D.F.
           Tels. 5687 45 42/ 5687 45  82             Fax. 5669 25 12
********************************************************************************
ARCHIVO ESTANDAR DE ACELERACION:
VERSION DEL FORMATO                    : 2.0
NOMBRE DEL ARCHIVO                     : AU1120160410071121
FECHA Y HORA DE CREACION               : 27/ABR/16, 11:17
REF. CATALOGO ACELEROGRAMAS, SMIS 1996 : REGISTRO No.     /PAG.


================================================================================
DATOS DE LA ESTACION:
NOMBRE DE LA ESTACION                  : AUTÓDROMO
CLAVE DE LA ESTACION                   : AU11
LOCALIZACION DE LA ESTACION            : Del. Iztacalco, Cd. Deportiva          
                                       : Magdalena Mixhuca,                     
                                       : Col. Granjas México                    
                                       :                                        
                                       : 
COORDENADAS DE LA ESTACION             : 19.3919 LAT. N
                                       : 99.0869 LONG. W
ALTITUD (msnm)                         : 2234
TIPO DE SUELO                          : Terreno blando, material compresible
                                       : (arcillas)                
                                       : 
INSTITUCION RESPONSABLE                : CIRES
                                       : 

================================================================================
DATOS DEL ACELEROGRAFO:
MODELO DEL ACELEROGRAFO                : RADESD
NUMERO DE SERIE DEL ACELEROGRAFO       : 157
NUMERO DE CANALES                      : 3
ORIENTACION C1-C6 (rumbo;orientacion)  : /S00E/+V/N90W
ORIENTACION C7-C12 (rumbo;orientacion) : 
VEL. DE MUESTREO, C1-C6 (muestras/s)   : /100/100/100
VEL. DE MUESTREO, C7-C12 (muestras/s)  : 
ESC. COMPLETA DE SENSORES, C1-C6, (g)  : /0.5/0.5/0.5
ESC. COMPLETA DE SENSORES, C7-C12, (g) : 
FREC. NAT. DE SENSORES, C1-C6, (Hz)    : /51.77/52.56/52.29
FREC. NAT. DE SENSORES, C7-C12, (Hz)   : 
AMORTIGUAMIENTO DE SENSORES, C1-C6     : /0.5912/0.6083/0.6067
AMORTIGUAMIENTO DE SENSORES, C7-C12    : 
INTERVALO DE MUESTREO, C1-C6, (s)      : /0.01/0.01/0.01
INTERVALO DE MUESTREO, C7-C12, (s)     : 
UMBRAL DE DISPARO, C1-C6, (Gal)        : /0.72/1.92/0.72
UMBRAL DE DISPARO, C7-C12, (Gal)       : 
MEMORIA DE PREEVENTO (s)               : 44.0
TIEMPO DE POSEVENTO (s)                : 98.0


================================================================================
DATOS DEL SISMO:
FECHA DEL SISMO (GMT)                  : 10/ABR/16
HORA EPICENTRO (GMT)                   : 07:11:21.0
MAGNITUD(ES)                           : /Mc=5.4
COORDENADAS DEL EPICENTRO              : 15.74 LAT. N
                                       : 96.37 LONG. W
PROFUNDIDAD FOCAL (km)                 : 31
FUENTE DE LOS DATOS EPICENTRALES       : SSN
                                       : INSTITUTO DE GEOFISICA, UNAM

================================================================================
DATOS DE ESTE REGISTRO:
HORA DE LA PRIMERA MUESTRA (GMT)       : 07:13:55.00
EXACTITUD DEL TIEMPO (s)               : 0.01
DURACION DEL REGISTRO (s), C1-C6       : /110.2/110.2/110.2
DURACION DEL REGISTRO (s), C7-C12      : 
NUM. TOTAL DE MUESTRAS, C1-C6          : /11020/11020/11020
NUM. TOTAL DE MUESTRAS, C7-C12         : 
ACEL. MAX. (Gal), C1-C6                : /1.00361/0.51255/0.82658
ACEL. MAX., C1-C6, EN LA MUESTRA       : /4603/5636/5999
ACEL. MAX. (Gal), C7-C12               : 
ACEL. MAX., C7-C12, EN LA MUESTRA      : 
UNIDADES DE LOS DATOS                  : Gal (cm/s/s)
FACTOR DE DECIMACION                   : 1
FORMATO DATOS (FORTRAN,10 campos/dato) : 3F10.5


================================================================================
CALIDAD DEL ACELEROGRAMA:
REGISTRO DIGITAL COMPLETO CON TIEMPO ABSOLUTO CORRECTO.


================================================================================
COMENTARIOS:














================================================================================
DATOS DE ACELERACION:
---------+---------+---------+---------+---------+---------+---------+---------+
   CANAL-1   CANAL-2   CANAL-3   CANAL-4   CANAL-5   CANAL-6   CANAL-7   CANAL-8
      S00E        +V      N90W
---------+---------+---------+---------+---------+---------+---------+---------+
[...]
   0.31320  -0.10097   0.57219
   0.28327  -0.20571   0.54226
   0.32816  -0.10097   0.55723
   0.35809  -0.07104   0.52730
   0.35809  -0.11593   0.55723
   0.29823  -0.08600   0.58716
   0.32816  -0.07104   0.61708
   0.34312   0.00378   0.49737
   0.35809  -0.02615   0.51234
   0.29823  -0.02615   0.54226
   0.26830  -0.02615   0.57219
   0.28327   0.00378   0.55723
   0.31320   0.04867   0.55723
   0.22341  -0.01118   0.57219
   0.40298   0.19831   0.45248
   0.26830   0.09356   0.46745
   0.20845   0.07860   0.46745
   0.22341   0.10853   0.51234
   0.17852   0.15342   0.42255
   0.20845   0.13845   0.34773
   0.16356   0.16838   0.33277
   0.16356   0.24320   0.24299
   0.02888   0.12349   0.34773
   0.19349   0.16838   0.18313
   0.13363   0.18335   0.18313
   0.13363   0.19831   0.07839
   0.02888   0.12349   0.16817
   0.02888   0.19831   0.00357
  -0.04593   0.15342   0.03350
  -0.07586   0.24320  -0.08621
  -0.07586   0.16838  -0.04132
  -0.12075   0.19831  -0.14607
  -0.18061   0.13845  -0.11614
  -0.24046   0.18335  -0.16103
  -0.27039   0.07860  -0.10118
  -0.27039   0.21327  -0.20592
  -0.30032   0.15342  -0.22089
  -0.40506   0.07860  -0.16103
  -0.42003   0.15342  -0.26578
  -0.36017   0.12349  -0.20592
  -0.40506   0.10853  -0.22089
  -0.42003   0.06364  -0.22089
  -0.46492   0.10853  -0.25082
  -0.47988   0.06364  -0.17600
  -0.44996   0.07860  -0.17600
  -0.44996   0.13845  -0.23585
  -0.44996   0.06364  -0.26578
  -0.40506   0.07860  -0.20592
  -0.42003   0.04867  -0.10118
  -0.37514   0.04867  -0.17600
  -0.37514   0.09356  -0.07125
  -0.36017   0.01874  -0.08621
  -0.34521   0.00378  -0.01140
  -0.37514   0.00378  -0.04132
  -0.21054   0.04867  -0.02636
  -0.22550   0.07860   0.00357
  -0.16564   0.03371  -0.02636
  -0.19557  -0.01118   0.00357
  -0.15068   0.01874   0.09335
  -0.12075   0.03371   0.06342
  -0.13572   0.03371   0.13824
  -0.07586   0.03371   0.06342
   0.02888   0.10853   0.06342
  -0.03097   0.00378   0.13824
  -0.01601  -0.07104   0.13824
   0.08874   0.09356   0.06342
  -0.01601  -0.04111   0.16817
   0.04385   0.00378   0.12328
   0.05881  -0.01118   0.10831
   0.01392   0.03371   0.21306
   0.01392  -0.01118   0.13824
  -0.04593   0.04867   0.12328
  -0.10579  -0.08600   0.15321
  -0.01601   0.04867   0.03350
  -0.09083  -0.01118   0.04846
  -0.18061   0.00378  -0.07125
  -0.18061  -0.01118  -0.13111
  -0.25543   0.00378  -0.17600
  -0.25543   0.00378  -0.22089
  -0.28535  -0.01118  -0.29571
  -0.36017  -0.04111  -0.34060
  -0.28535  -0.08600  -0.37053
  -0.28535   0.00378  -0.46031
  -0.30032  -0.08600  -0.47527
  -0.22550   0.03371  -0.53513
  -0.25543  -0.02615  -0.50520
  -0.27039  -0.10097  -0.47527
  -0.31528  -0.10097  -0.49024
  -0.27039  -0.13089  -0.52016
  -0.24046  -0.07104  -0.52016
  -0.19557  -0.05607  -0.50520
  -0.19557  -0.10097  -0.53513
  -0.33025  -0.19075  -0.37053
  -0.27039  -0.13089  -0.38549
  -0.36017  -0.17578  -0.25082
  -0.24046   0.03371  -0.32563
  -0.40506  -0.14586  -0.11614
  -0.30032  -0.05607  -0.19096
  -0.42003  -0.02615  -0.05629
  -0.42003  -0.04111   0.03350
  -0.37514  -0.02615   0.04846
  -0.44996  -0.10097   0.12328
  -0.37514  -0.04111   0.13824
  -0.37514  -0.01118   0.12328
  -0.42003  -0.01118   0.31781
  -0.42003   0.00378   0.34773
  -0.34521   0.07860   0.28788
  -0.36017   0.03371   0.40759
  -0.31528   0.04867   0.40759
  -0.40506  -0.07104   0.46745
  -0.21054   0.13845   0.34773
  -0.30032   0.07860   0.43752
  -0.36017   0.00378   0.54226
  -0.27039   0.07860   0.36270
  -0.19557   0.12349   0.45248
  -0.25543   0.04867   0.46745
  -0.16564   0.15342   0.45248
  -0.13572   0.13845   0.43752
  -0.01601   0.10853   0.40759
  -0.04593   0.10853   0.42255
   0.01392   0.07860   0.39263
   0.10370   0.10853   0.36270
   0.17852   0.13845   0.40759
   0.25334   0.12349   0.33277
   0.31320   0.03371   0.31781
   0.34312  -0.01118   0.33277
   0.41794   0.09356   0.24299
   0.46283  -0.04111   0.31781
   0.55262   0.07860   0.21306
   0.53765   0.00378   0.25795
   0.65736   0.01874   0.21306
   0.67233   0.03371   0.22802
   0.68729  -0.05607   0.22802
   0.74715  -0.01118   0.22802
   0.80700  -0.04111   0.33277
   0.77707  -0.08600   0.31781
   0.83693  -0.02615   0.28788
   0.86686   0.01874   0.33277
   0.82196  -0.05607   0.36270
   0.88182  -0.04111   0.34773
   0.86686  -0.11593   0.40759
   0.86686  -0.13089   0.40759
   0.88182  -0.08600   0.39263
   0.94167  -0.04111   0.34773
   0.86686  -0.10097   0.37766
   0.98657   0.01874   0.28788
   0.94167   0.06364   0.28788
   0.92671  -0.17578   0.43752
   0.80700  -0.08600   0.39263
   0.89678   0.06364   0.36270
   0.85189   0.07860   0.22802
   0.86686   0.16838   0.30284
   0.80700  -0.07104   0.24299
   0.80700   0.01874   0.33277
   0.83693   0.01874   0.36270
   0.89678   0.09356   0.25795
   0.73218  -0.04111   0.19810
   0.80700  -0.11593   0.12328
   0.71722  -0.10097   0.42255
   0.73218   0.01874   0.18313
   0.77707   0.03371   0.25795
   0.68729  -0.14586   0.21306
   0.64240   0.00378   0.22802
   0.68729   0.06364   0.15321
   0.70225  -0.01118   0.21306
   0.53765  -0.07104   0.16817
   0.58254  -0.19075   0.13824
   0.50773  -0.17578   0.34773
   0.44787   0.01874   0.16817
   0.47780   0.06364   0.03350
   0.41794   0.06364   0.19810
   0.35809   0.04867   0.15321
   0.13363  -0.08600   0.13824
   0.10370  -0.14586   0.13824
   0.10370   0.04867   0.12328
   0.13363   0.07860   0.03350
  -0.01601  -0.01118   0.03350
   0.02888  -0.01118   0.10831
  -0.10579   0.06364  -0.07125
  -0.07586   0.03371   0.06342
  -0.21054  -0.05607  -0.01140
  -0.22550  -0.02615   0.06342
  -0.33025  -0.05607   0.01853
  -0.33025  -0.01118   0.00357
  -0.37514  -0.02615   0.00357
  -0.36017  -0.04111   0.01853
  -0.40506  -0.02615  -0.01140
  -0.53974  -0.10097   0.10831
  -0.50981  -0.04111   0.10831
  -0.50981  -0.07104   0.10831
  -0.56967   0.01874   0.10831
  -0.61456  -0.07104   0.07839
  -0.59959   0.01874   0.07839
  -0.61456   0.04867   0.03350
  -0.70434  -0.02615   0.03350
  -0.71930   0.03371   0.09335
  -0.70434   0.06364  -0.04132
  -0.83901  -0.04111  -0.01140
  -0.76419   0.09356  -0.13111
  -0.76419   0.12349  -0.01140
  -0.88390   0.00378  -0.02636
  -0.83901   0.07860  -0.11614
  -0.89887   0.09356  -0.10118
  -0.74923   0.03371  -0.22089
  -0.77916   0.03371  -0.26578
  -0.73427   0.07860  -0.28074
  -0.77916   0.09356  -0.26578
  -0.68938   0.09356  -0.37053
  -0.67441   0.06364  -0.26578
  -0.68938   0.03371  -0.31067
  -0.59959   0.09356  -0.38549
  -0.50981   0.03371  -0.49024
  -0.64448   0.00378  -0.40045
  -0.61456   0.06364  -0.28074
  -0.43499   0.13845  -0.35556
  -0.42003   0.12349  -0.31067
  -0.42003   0.06364  -0.28074
  -0.40506   0.10853  -0.43038
  -0.34521   0.31802  -0.26578
  -0.34521  -0.04111  -0.22089
  -0.44996  -0.04111  -0.37053
  -0.31528   0.09356  -0.31067
  -0.33025   0.01874  -0.28074
  -0.30032   0.00378  -0.19096
  -0.34521   0.09356  -0.25082
  -0.30032   0.04867  -0.23585
  -0.33025   0.04867  -0.16103
  -0.33025   0.01874  -0.22089
  -0.25543   0.03371  -0.25082
  -0.37514  -0.07104  -0.17600
  -0.25543   0.12349  -0.28074
  -0.30032  -0.02615  -0.19096
  -0.25543   0.15342  -0.29571
  -0.34521  -0.02615  -0.20592
  -0.36017   0.01874  -0.23585
  -0.27039   0.07860  -0.25082
  -0.33025   0.04867  -0.25082
  -0.28535   0.04867  -0.22089
  -0.24046   0.12349  -0.22089
  -0.15068   0.06364  -0.22089
  -0.21054   0.04867  -0.16103
  -0.10579   0.10853  -0.17600
  -0.10579   0.03371  -0.13111
   0.05881   0.15342  -0.19096
   0.02888   0.01874  -0.08621
   0.16356   0.10853  -0.08621
   0.20845   0.10853  -0.01140
   0.25334   0.06364   0.01853
   0.32816   0.12349   0.10831
   0.32816   0.07860   0.04846
   0.40298   0.01874   0.09335
   0.49276   0.12349   0.09335
   0.46283   0.04867   0.22802
   0.52269   0.06364   0.25795
   0.50773   0.01874   0.25795
   0.56758   0.01874   0.19810
   0.61247   0.15342   0.21306
   0.56758  -0.04111   0.34773
   0.53765   0.04867   0.40759
   0.55262   0.04867   0.40759
   0.56758   0.07860   0.34773
   0.47780   0.07860   0.43752
   0.49276  -0.02615   0.42255
   0.46283   0.04867   0.43752
   0.38801  -0.05607   0.45248
   0.38801   0.01874   0.49737
   0.32816  -0.04111   0.49737
   0.25334  -0.07104   0.51234
   0.26830   0.01874   0.40759
   0.20845  -0.05607   0.46745
   0.05881  -0.14586   0.51234
   0.05881  -0.08600   0.46745
   0.04385  -0.01118   0.45248
  -0.07586  -0.07104   0.49737
  -0.15068  -0.14586   0.52730
  -0.09083   0.00378   0.49737
  -0.19557  -0.13089   0.45248
  -0.22550   0.01874   0.42255
  -0.28535  -0.07104   0.37766
  -0.31528  -0.13089   0.51234
  -0.28535   0.01874   0.43752
  -0.30032  -0.13089   0.39263
  -0.34521  -0.10097   0.39263
  -0.25543  -0.02615   0.34773
  -0.31528   0.00378   0.24299
  -0.31528  -0.14586   0.30284
  -0.21054  -0.04111   0.27292
  -0.18061  -0.04111   0.27292
  -0.01601  -0.01118   0.03350
  -0.16564  -0.07104  -0.01140
  -0.00104  -0.29549   0.13824
  -0.16564  -0.23564   0.03350
   0.08874   0.01874  -0.02636
   0.14859  -0.05607  -0.01140
   0.16356   0.06364  -0.20592
   0.22341  -0.16082  -0.11614
   0.22341  -0.07104  -0.19096
   0.32816   0.00378  -0.14607
   0.41794   0.01874  -0.29571
   0.35809   0.00378  -0.23585
   0.40298  -0.19075  -0.32563
   0.37305  -0.20571  -0.26578
   0.59751   0.03371  -0.32563
   0.64240   0.03371  -0.35556
   0.67233   0.07860  -0.44534
   0.56758  -0.05607  -0.08621
   0.83693  -0.17578  -0.43038
   0.70225  -0.08600  -0.44534
   0.76211  -0.05607  -0.29571
   0.76211  -0.02615  -0.53513
   0.73218   0.07860  -0.49024
   0.79204  -0.04111  -0.43038
   0.68729  -0.13089  -0.37053
   0.73218  -0.01118  -0.32563
   0.64240  -0.10097  -0.29571
   0.55262  -0.19075  -0.38549
   0.59751  -0.02615  -0.43038
   0.46283  -0.07104  -0.29571
   0.46283  -0.13089  -0.32563
   0.34312  -0.13089  -0.31067
   0.28327  -0.08600  -0.29571
   0.25334   0.04867  -0.25082
   0.17852  -0.02615  -0.29571
   0.10370  -0.04111  -0.31067
  -0.04593  -0.14586  -0.31067
  -0.09083  -0.01118  -0.29571
  -0.18061  -0.11593  -0.25082
  -0.27039  -0.13089  -0.25082
  -0.24046   0.00378  -0.26578
  -0.37514  -0.07104  -0.19096
  -0.47988   0.01874  -0.16103
  -0.46492   0.01874  -0.20592
  -0.56967  -0.07104  -0.16103
  -0.55470   0.09356  -0.25082
  -0.65945   0.01874  -0.10118
  -0.74923  -0.10097  -0.10118
  -0.73427   0.09356  -0.23585
  -0.79412   0.06364  -0.10118
  -0.79412   0.12349  -0.16103
  -0.77916   0.15342  -0.17600
  -0.88390   0.09356  -0.10118
  -0.85398   0.18335  -0.10118
  -0.92880   0.12349  -0.05629
  -0.91383   0.04867  -0.13111
  -0.89887   0.12349  -0.08621
  -0.98865   0.04867  -0.10118
  -1.00361   0.10853  -0.01140
  -0.91383   0.13845  -0.16103
  -0.98865   0.09356  -0.16103
  -0.95872   0.16838  -0.22089
  -0.95872   0.06364  -0.20592
  -0.86894   0.18335  -0.22089
  -0.89887   0.12349  -0.25082
  -0.88390  -0.02615  -0.31067
  -0.83901   0.15342  -0.35556
  -0.77916   0.18335  -0.41542
  -0.76419   0.21327  -0.43038
  -0.74923   0.09356  -0.43038
  -0.77916   0.16838  -0.44534
  -0.67441   0.13845  -0.47527
  -0.61456   0.19831  -0.46031
  -0.62952   0.16838  -0.58002
  -0.55470   0.15342  -0.55009
  -0.58463   0.16838  -0.53513
  -0.52477   0.16838  -0.62491
  -0.39010   0.25816  -0.63987
  -0.46492   0.07860  -0.58002
  -0.40506   0.18335  -0.55009
  -0.30032   0.18335  -0.58002
  -0.31528   0.10853  -0.55009
  -0.25543   0.10853  -0.38549
  -0.16564   0.22824  -0.56505
  -0.19557   0.01874  -0.43038
  -0.12075   0.21327  -0.49024
  -0.04593   0.18335  -0.37053
  -0.01601   0.10853  -0.34060
   0.10370   0.24320  -0.35556
   0.07378   0.10853  -0.34060
   0.11867   0.09356  -0.32563
   0.11867   0.07860  -0.28074
   0.23838   0.04867  -0.22089
   0.25334   0.10853  -0.17600
   0.29823   0.15342  -0.19096
   0.28327   0.03371  -0.14607
   0.34312   0.04867  -0.11614
   0.40298   0.10853  -0.16103
   0.43291   0.10853  -0.11614
   0.40298  -0.01118  -0.08621
   0.50773   0.06364  -0.11614
   0.49276   0.06364  -0.04132
   0.46283  -0.02615   0.00357
   0.50773  -0.01118  -0.02636
   0.53765  -0.07104   0.01853
   0.55262  -0.04111   0.01853
   0.61247   0.01874   0.06342
   0.59751  -0.04111   0.07839
   0.59751  -0.05607   0.09335
   0.62744  -0.08600   0.09335
   0.62744  -0.04111   0.15321
   0.61247  -0.02615   0.24299
   0.59751  -0.02615   0.18313
   0.53765  -0.11593   0.25795
   0.61247  -0.05607   0.16817
   0.47780  -0.10097   0.37766
   0.49276  -0.11593   0.36270
   0.52269  -0.13089   0.36270
   0.49276  -0.11593   0.39263
   0.50773  -0.08600   0.34773
   0.46283  -0.10097   0.37766
   0.44787  -0.10097   0.43752
   0.41794   0.03371   0.43752
   0.37305  -0.14586   0.39263
   0.49276   0.01874   0.34773
   0.37305  -0.23564   0.43752
   0.40298  -0.16082   0.51234
   0.34312  -0.13089   0.43752
   0.28327  -0.19075   0.45248
   0.28327  -0.17578   0.37766
   0.28327  -0.19075   0.37766
   0.37305  -0.10097   0.33277
   0.25334  -0.25060   0.42255
   0.31320  -0.20571   0.25795
   0.37305  -0.22068   0.28788
   0.37305  -0.16082   0.19810
   0.28327  -0.20571   0.22802
   0.29823  -0.17578   0.21306
   0.31320  -0.23564   0.09335
   0.25334  -0.17578   0.13824
   0.26830  -0.20571   0.10831
   0.29823  -0.20571   0.09335
   0.34312  -0.16082   0.04846
   0.34312  -0.19075   0.04846
   0.37305  -0.14586  -0.02636
   0.38801  -0.19075   0.00357
   0.34312  -0.26557   0.01853
   0.32816  -0.14586  -0.04132
   0.31320  -0.23564  -0.04132
   0.28327  -0.26557   0.03350
   0.32816  -0.17578  -0.05629
   0.31320  -0.22068  -0.10118
   0.26830  -0.22068  -0.07125
   0.35809  -0.16082  -0.20592
   0.23838  -0.23564  -0.14607
   0.17852  -0.20571  -0.16103
   0.20845  -0.20571  -0.20592
   0.19349  -0.17578  -0.16103
   0.25334  -0.13089  -0.19096
   0.17852  -0.10097  -0.19096
   0.13363  -0.08600  -0.25082
   0.14859  -0.01118  -0.25082
  -0.03097  -0.13089  -0.14607
   0.04385  -0.04111  -0.22089
  -0.07586  -0.05607  -0.23585
  -0.10579  -0.05607  -0.14607
  -0.10579  -0.07104  -0.20592
  -0.18061  -0.05607  -0.16103
  -0.13572   0.01874  -0.23585
  -0.22550   0.09356  -0.16103
  -0.30032   0.04867  -0.19096
  -0.30032   0.09356  -0.20592
  -0.36017   0.10853  -0.17600
  -0.37514   0.09356  -0.14607
  -0.44996   0.13845  -0.20592
  -0.44996   0.12349  -0.19096
  -0.42003   0.16838  -0.20592
  -0.39010   0.16838  -0.22089
  -0.44996   0.10853  -0.22089
  -0.39010   0.19831  -0.26578
  -0.37514   0.24320  -0.22089
  -0.39010   0.18335  -0.20592
  -0.39010   0.15342  -0.28074
  -0.31528   0.15342  -0.19096
  -0.34521   0.15342  -0.17600
  -0.25543   0.22824  -0.23585
  -0.19557   0.21327  -0.16103
  -0.16564   0.24320  -0.17600
  -0.13572   0.24320  -0.23585
  -0.19557   0.16838  -0.08621
  -0.09083   0.18335  -0.20592
  -0.09083   0.16838  -0.19096
  -0.07586   0.15342  -0.19096
   0.01392   0.13845  -0.16103
  -0.04593   0.12349  -0.17600
   0.13363   0.15342  -0.20592
   0.14859   0.15342  -0.19096
   0.13363   0.06364  -0.16103
   0.11867   0.10853  -0.07125
   0.22341   0.15342  -0.02636
   0.31320   0.15342  -0.20592
   0.16356   0.12349  -0.11614
   0.23838   0.09356  -0.02636
   0.22341   0.01874   0.03350
   0.29823   0.09356   0.09335
   0.32816   0.01874   0.09335
   0.13363  -0.07104   0.01853
   0.34312   0.19831   0.10831
