********************************************************************************
              CENTRO DE INSTRUMENTACION Y REGISTRO SISMICO  A.C.

    Anaxagoras 814, Col. Narvarte, Benito Juarez, C.P. 03020 Mexico, D.F.
           Tels. 5687 45 42/ 5687 45  82             Fax. 5669 25 12
********************************************************************************
ARCHIVO ESTANDAR DE ACELERACION:
VERSION DEL FORMATO                    : 2.0
NOMBRE DEL ARCHIVO                     : AU1120140510073601
FECHA Y HORA DE CREACION               : 23/MAY/14, 10:30
REF. CATALOGO ACELEROGRAMAS, SMIS 1996 : REGISTRO No.     /PAG.


================================================================================
DATOS DE LA ESTACION:
NOMBRE DE LA ESTACION                  : AUTÓDROMO
CLAVE DE LA ESTACION                   : AU11
LOCALIZACION DE LA ESTACION            : Del. Iztacalco, Cd. Deportiva          
                                       : Magdalena Mixhuca,                     
                                       : Col. Granjas México                    
                                       :                                        
                                       : 
COORDENADAS DE LA ESTACION             : 19.3919 LAT. N
                                       : 99.0869 LONG. W
ALTITUD (msnm)                         : 2234
TIPO DE SUELO                          : Terreno blando, material compresible
                                       : (arcillas)                
                                       : 
INSTITUCION RESPONSABLE                : CIRES
                                       : 

================================================================================
DATOS DEL ACELEROGRAFO:
MODELO DEL ACELEROGRAFO                : RADESD
NUMERO DE SERIE DEL ACELEROGRAFO       : 157
NUMERO DE CANALES                      : 3
ORIENTACION C1-C6 (rumbo;orientacion)  : /S00E/+V/N90W
ORIENTACION C7-C12 (rumbo;orientacion) : 
VEL. DE MUESTREO, C1-C6 (muestras/s)   : /100/100/100
VEL. DE MUESTREO, C7-C12 (muestras/s)  : 
ESC. COMPLETA DE SENSORES, C1-C6, (g)  : /0.5/0.5/0.5
ESC. COMPLETA DE SENSORES, C7-C12, (g) : 
FREC. NAT. DE SENSORES, C1-C6, (Hz)    : /51.77/52.56/52.29
FREC. NAT. DE SENSORES, C7-C12, (Hz)   : 
AMORTIGUAMIENTO DE SENSORES, C1-C6     : /0.5912/0.6083/0.6067
AMORTIGUAMIENTO DE SENSORES, C7-C12    : 
INTERVALO DE MUESTREO, C1-C6, (s)      : /0.01/0.01/0.01
INTERVALO DE MUESTREO, C7-C12, (s)     : 
UMBRAL DE DISPARO, C1-C6, (Gal)        : /0.72/1.92/0.72
UMBRAL DE DISPARO, C7-C12, (Gal)       : 
MEMORIA DE PREEVENTO (s)               : 44.0
TIEMPO DE POSEVENTO (s)                : 64.0


================================================================================
DATOS DEL SISMO:
FECHA DEL SISMO (GMT)                  : 10/MAY/14
HORA EPICENTRO (GMT)                   : 07:36:01.0
MAGNITUD(ES)                           : /Mc=6.1
COORDENADAS DEL EPICENTRO              : 17.06 LAT. N
                                       : 100.95 LONG. W
PROFUNDIDAD FOCAL (km)                 : 12
FUENTE DE LOS DATOS EPICENTRALES       : SSN
                                       : INSTITUTO DE GEOFISICA, UNAM

================================================================================
DATOS DE ESTE REGISTRO:
HORA DE LA PRIMERA MUESTRA (GMT)       : 07:36:45.00
EXACTITUD DEL TIEMPO (s)               : 0.01
DURACION DEL REGISTRO (s), C1-C6       : /423.4/423.4/423.4
DURACION DEL REGISTRO (s), C7-C12      : 
NUM. TOTAL DE MUESTRAS, C1-C6          : /42340/42340/42340
NUM. TOTAL DE MUESTRAS, C7-C12         : 
ACEL. MAX. (Gal), C1-C6                : /9.02822/2.33326/8.02205
ACEL. MAX., C1-C6, EN LA MUESTRA       : /9372/8305/10106
ACEL. MAX. (Gal), C7-C12               : 
ACEL. MAX., C7-C12, EN LA MUESTRA      : 
UNIDADES DE LOS DATOS                  : Gal (cm/s/s)
FACTOR DE DECIMACION                   : 1
FORMATO DATOS (FORTRAN,10 campos/dato) : 3F10.5


================================================================================
CALIDAD DEL ACELEROGRAMA:
REGISTRO DIGITAL COMPLETO CON TIEMPO ABSOLUTO CORRECTO.


================================================================================
COMENTARIOS:














================================================================================
DATOS DE ACELERACION:
---------+---------+---------+---------+---------+---------+---------+---------+
   CANAL-1   CANAL-2   CANAL-3   CANAL-4   CANAL-5   CANAL-6   CANAL-7   CANAL-8
      S00E        +V      N90W
---------+---------+---------+---------+---------+---------+---------+---------+
[...]
   4.57384  -1.49529   0.48032
   4.39428  -1.52522   0.25586
   4.22968  -1.55515   0.00148
   4.06508  -1.60004  -0.19305
   3.97529  -1.62996  -0.46240
   3.82565  -1.62996  -0.65693
   3.75084  -1.58507  -0.85146
   3.66105  -1.61500  -1.10584
   3.63113  -1.57011  -1.24052
   3.51142  -1.55515  -1.43504
   3.54134  -1.51025  -1.61461
   3.51142  -1.48033  -1.76425
   3.46652  -1.42047  -1.86899
   3.43660  -1.34565  -1.97374
   3.36178  -1.25587  -2.06352
   3.28696  -1.21098  -2.13834
   3.24207  -1.07631  -2.13834
   3.13732  -1.03141  -2.19820
   3.03258  -0.94163  -2.12338
   2.91287  -0.82192  -2.00367
   2.88294  -0.73214  -1.95878
   2.79316  -0.70221  -1.82410
   2.70337  -0.61243  -1.65950
   2.59863  -0.52265  -1.45001
   2.53877  -0.49272  -1.18066
   2.44899  -0.44783  -0.98613
   2.34424  -0.40294  -0.68686
   2.23950  -0.35804  -0.40255
   2.14971  -0.35804  -0.13320
   2.05993  -0.26826   0.10622
   2.00008  -0.22337   0.36061
   1.97015  -0.19344   0.60003
   1.88037  -0.19344   0.85441
   1.79058  -0.20841   1.01901
   1.73073  -0.14855   1.21354
   1.65591  -0.17848   1.36318
   1.61102  -0.13359   1.49785
   1.46138  -0.17848   1.64749
   1.41649  -0.19344   1.73727
   1.34167  -0.25330   1.78216
   1.17707  -0.25330   1.85698
   1.04240  -0.19344   1.87195
   0.93765  -0.19344   1.84202
   0.77305  -0.16352   1.81209
   0.60845  -0.19344   1.85698
   0.44385  -0.13359   1.75224
   0.29421  -0.14855   1.67742
   0.09968  -0.11862   1.51282
  -0.06492  -0.10366   1.43800
  -0.22952  -0.10366   1.19858
  -0.43902  -0.07373   1.06390
  -0.63355  -0.04381   0.77959
  -0.79815  -0.04381   0.54017
  -0.96275   0.03101   0.27082
  -1.11239   0.01605   0.10622
  -1.32188   0.10583  -0.20802
  -1.50144   0.15072  -0.46240
  -1.63612   0.19561  -0.68686
  -1.83065   0.21058  -0.98613
  -2.01021   0.30036  -1.27044
  -2.20474   0.34525  -1.47994
  -2.45912   0.43503  -1.73432
  -2.56387   0.42007  -2.04856
  -2.81825   0.47993  -2.22812
  -3.02775   0.49489  -2.45258
  -3.10257   0.49489  -2.76682
  -3.32702   0.50985  -3.03617
  -3.50659   0.50985  -3.17084
  -3.62630   0.52482  -3.39530
  -3.79090   0.49489  -3.54493
  -3.91061   0.49489  -3.70954
  -4.04528   0.45000  -3.82925
  -4.07521   0.43503  -4.02378
  -4.23981   0.37518  -4.14349
  -4.31463   0.34525  -4.32305
  -4.38945   0.28540  -4.36794
  -4.53909   0.30036  -4.39787
  -4.58398   0.24051  -4.48765
  -4.64383   0.19561  -4.57743
  -4.73362   0.19561  -4.51758
  -4.77851   0.18065  -4.57743
  -4.80843   0.06094  -4.60736
  -4.80843   0.03101  -4.53254
  -4.86829  -0.04381  -4.47269
  -4.92814  -0.05877  -4.54751
  -4.95807  -0.11862  -4.39787
  -4.94311  -0.22337  -4.42780
  -4.97304  -0.25330  -4.32305
  -4.86829  -0.26826  -4.32305
  -4.89822  -0.32812  -4.23327
  -4.88325  -0.41790  -4.18838
  -4.85333  -0.47775  -4.05370
  -4.88325  -0.56754  -3.94896
  -4.82340  -0.62739  -3.81428
  -4.80843  -0.65732  -3.64968
  -4.68872  -0.68725  -3.60479
  -4.56901  -0.80696  -3.45515
  -4.46427  -0.77703  -3.24566
  -4.35952  -0.82192  -3.14091
  -4.12010  -0.88178  -3.02120
  -4.00039  -0.83688  -2.85660
  -3.79090  -0.89674  -2.75186
  -3.56644  -0.91170  -2.61718
  -3.37191  -0.89674  -2.46754
  -3.16242  -0.92667  -2.27302
  -2.86315  -0.92667  -2.15331
  -2.65365  -0.89674  -1.95878
  -2.38431  -0.92667  -1.88396
  -2.11496  -0.89674  -1.70439
  -1.81568  -0.83688  -1.49490
  -1.50144  -0.85185  -1.39015
  -1.17224  -0.77703  -1.16570
  -0.87297  -0.73214  -1.00110
  -0.58865  -0.68725  -0.77664
  -0.21456  -0.65732  -0.59707
   0.06975  -0.65732  -0.40255
   0.45881  -0.61243  -0.22298
   0.78801  -0.59746   0.03140
   1.11721  -0.53761   0.21097
   1.49131  -0.56754   0.42046
   1.82051  -0.49272   0.61499
   2.17964  -0.46279   0.80952
   2.56870  -0.44783   0.91427
   2.94279  -0.40294   1.06390
   3.28696  -0.37301   1.12376
   3.64609  -0.29819   1.25843
   4.02018  -0.20841   1.33325
   4.36435  -0.07373   1.33325
   4.67859   0.00109   1.42303
   5.03772   0.12080   1.37814
   5.26218   0.13576   1.37814
   5.53152   0.22554   1.33325
   5.81584   0.25547   1.24347
   6.07022   0.34525   1.18361
   6.27971   0.39014   1.09383
   6.41439   0.47993   0.94419
   6.54906   0.50985   0.86937
   6.69870   0.58467   0.74966
   6.72862   0.64453   0.58506
   6.81841   0.68942   0.39053
   6.86330   0.70438   0.30075
   6.84833   0.82409   0.07630
   6.75855   0.82409  -0.05838
   6.71366   0.89891  -0.29780
   6.69870   0.91388  -0.44744
   6.62388   0.95877  -0.67189
   6.47424   1.01862  -0.85146
   6.30964   1.04855  -1.03102
   6.10015   1.07848  -1.31533
   5.92058   1.10840  -1.33030
   5.71109   1.13833  -1.49490
   5.48663   1.12337  -1.61461
   5.21728   1.16826  -1.71936
   4.90305   1.15330  -1.80914
   4.64866   1.12337  -1.94381
   4.31946   1.09344  -2.01863
   4.06508   1.09344  -2.07849
   3.75084   0.97373  -2.10841
   3.43660   0.91388  -2.13834
   3.19718   0.82409  -2.19820
   2.88294   0.74927  -2.18323
   2.56870   0.68942  -2.24309
   2.20957   0.56971  -2.16827
   1.91029   0.46496  -2.10841
   1.56613   0.39014  -2.06352
   1.23692   0.25547  -1.94381
   0.92269   0.18065  -1.85403
   0.47377   0.03101  -1.73432
   0.14457  -0.07373  -1.64454
  -0.21456  -0.16352  -1.50986
  -0.67844  -0.22337  -1.30037
  -1.05253  -0.31315  -1.16570
  -1.42662  -0.38797  -1.01606
  -1.87554  -0.41790  -0.83649
  -2.35438  -0.43286  -0.61204
  -2.72847  -0.52265  -0.55218
  -3.13249  -0.55257  -0.37262
  -3.56644  -0.61243  -0.26787
  -3.94054  -0.59746  -0.19305
  -4.34456  -0.62739  -0.08831
  -4.71865  -0.65732  -0.02845
  -5.04785  -0.67228   0.01644
  -5.37706  -0.62739   0.00148
  -5.72122  -0.61243  -0.01349
  -5.94568  -0.55257  -0.04342
  -6.22999  -0.49272  -0.14816
  -6.46941  -0.49272  -0.25291
  -6.73876  -0.41790  -0.28284
  -7.00811  -0.32812  -0.38758
  -7.20264  -0.28323  -0.56715
  -7.41213  -0.16352  -0.65693
  -7.57673  -0.17848  -0.79160
  -7.74133  -0.10366  -0.95620
  -7.84608  -0.08870  -1.18066
  -7.95082  -0.04381  -1.34526
  -8.08550   0.03101  -1.43504
  -8.11543   0.04598  -1.64454
  -8.19024   0.10583  -1.82410
  -8.14535   0.07590  -1.92885
  -8.16032   0.12080  -2.03360
  -8.11543   0.13576  -2.15331
  -8.08550   0.19561  -2.25805
  -7.99572   0.22554  -2.30294
  -7.89097   0.19561  -2.37776
  -7.78622   0.30036  -2.40769
  -7.65155   0.30036  -2.39273
  -7.50191   0.28540  -2.31791
  -7.27746   0.34525  -2.19820
  -7.11285   0.42007  -2.12338
  -6.91832   0.49489  -1.95878
  -6.67890   0.55474  -1.71936
  -6.43948   0.64453  -1.50986
  -6.14021   0.67445  -1.30037
  -5.96064   0.73431  -1.00110
  -5.66137   0.71935  -0.76168
  -5.39202   0.83906  -0.56715
  -5.09275   0.79417  -0.34269
  -4.92814   0.83906  -0.05838
  -4.67376   0.83906   0.16608
  -4.41938   0.85402   0.36061
  -4.15003   0.88395   0.54017
  -3.85075   0.88395   0.76463
  -3.59637   0.94380   0.89930
  -3.37191   0.97373   1.03398
  -3.01278   0.89891   1.19858
  -2.71351   0.94380   1.30332
  -2.35438   0.92884   1.33325
  -2.05510   0.91388   1.36318
  -1.71094   0.88395   1.45296
  -1.36677   0.94380   1.46792
  -1.02260   0.91388   1.51282
  -0.69340   0.91388   1.48289
  -0.33427   0.94380   1.49785
  -0.03500   0.92884   1.48289
   0.26428   0.86898   1.43800
   0.53363   0.83906   1.36318
   0.81794   0.82409   1.33325
   1.05736   0.80913   1.24347
   1.23692   0.79417   1.18361
   1.40153   0.77920   1.04894
   1.52124   0.73431   0.95916
   1.67087   0.71935   0.91427
   1.77562   0.76424   0.85441
   1.91029   0.68942   0.80952
   2.00008   0.71935   0.79456
   2.11979   0.67445   0.79456
   2.20957   0.70438   0.77959
   2.32928   0.65949   0.74966
   2.46395   0.68942   0.68981
   2.64352   0.61460   0.74966
   2.79316   0.62956   0.76463
   2.97272   0.56971   0.77959
   3.12236   0.55474   0.82448
   3.28696   0.47993   0.89930
   3.49645   0.42007   0.94419
   3.70594   0.43503   1.06390
   3.81069   0.37518   1.13872
   3.96033   0.37518   1.28836
   4.10997   0.34525   1.36318
   4.19975   0.31532   1.49785
   4.31946   0.25547   1.60260
   4.40924   0.22554   1.81209
   4.49902   0.19561   1.84202
   4.58881   0.13576   1.96173
   4.61873   0.10583   2.15626
   4.72348   0.06094   2.27597
   4.78334   0.06094   2.33582
   4.76837  -0.01388   2.51539
   4.81326  -0.05877   2.59021
   4.91801  -0.11862   2.70992
   4.97786  -0.17848   2.78474
   5.06765  -0.26826   2.90445
   5.11254  -0.31315   2.90445
   5.14247  -0.38797   2.91941
   5.18736  -0.49272   2.94934
   5.23225  -0.52265   2.94934
   5.21728  -0.55257   2.97926
   5.30707  -0.59746   2.97926
   5.24721  -0.65732   2.97926
   5.32203  -0.64236   2.97926
   5.23225  -0.68725   2.99423
   5.24721  -0.77703   2.97926
   5.20232  -0.79199   2.96430
   5.15743  -0.77703   2.90445
   5.14247  -0.80696   2.82963
   5.06765  -0.86681   2.78474
   4.99283  -0.85185   2.69495
   4.94794  -0.89674   2.66503
   4.84319  -0.91170   2.51539
   4.72348  -0.94163   2.47050
   4.63370  -1.00149   2.32086
   4.52895  -1.06134   2.27597
   4.43917  -1.03141   2.20115
   4.25960  -1.10623   2.17122
   4.21471  -1.13616   2.05151
   4.08004  -1.18105   2.03655
   3.91544  -1.13616   1.91684
   3.79573  -1.12120   1.84202
   3.63113  -1.16609   1.84202
   3.43660  -1.12120   1.79713
   3.30192  -1.10623   1.75224
   3.09243  -1.10623   1.76720
   2.82308  -1.07631   1.73727
   2.59863  -1.10623   1.81209
   2.32928  -1.13616   1.81209
   2.10482  -1.04638   1.81209
   1.83547  -1.04638   1.87195
   1.58109  -1.03141   1.88691
   1.22196  -0.95659   1.93180
   0.93765  -0.85185   1.94677
   0.65334  -0.83688   1.99166
   0.32414  -0.80696   1.99166
   0.02486  -0.74710   2.00662
  -0.27442  -0.73214   2.05151
  -0.64851  -0.70221   1.99166
  -0.93282  -0.56754   1.97669
  -1.32188  -0.55257   1.91684
  -1.63612  -0.52265   1.94677
  -2.02518  -0.46279   1.90187
  -2.39927  -0.31315   1.82705
  -2.77336  -0.28323   1.82705
  -3.11753  -0.19344   1.75224
  -3.49162  -0.10366   1.73727
  -3.86572  -0.04381   1.61756
  -4.23981   0.06094   1.58763
  -4.58398   0.12080   1.51282
  -5.01793   0.21058   1.54274
  -5.30224   0.24051   1.49785
  -5.63144   0.31532   1.42303
  -5.91575   0.34525   1.36318
  -6.24496   0.37518   1.36318
  -6.52927   0.36022   1.24347
  -6.81358   0.39014   1.16865
  -7.06796   0.43503   1.12376
  -7.35227   0.49489   1.04894
  -7.59169   0.46496   1.01901
  -7.77126   0.55474   0.91427
  -7.95082   0.58467   0.76463
  -8.13039   0.58467   0.71974
  -8.32492   0.58467   0.65988
  -8.48952   0.61460   0.57010
  -8.65412   0.64453   0.57010
  -8.81872   0.67445   0.46535
  -8.89354   0.70438   0.45039
  -8.98332   0.71935   0.45039
  -8.96836   0.71935   0.39053
  -9.02822   0.71935   0.40550
  -9.01325   0.76424   0.43543
  -8.99829   0.71935   0.34564
  -8.90851   0.76424   0.42046
  -8.81872   0.73431   0.42046
  -8.78880   0.73431   0.42046
  -8.60923   0.68942   0.48032
  -8.41470   0.68942   0.52521
  -8.23514   0.67445   0.57010
  -8.02564   0.64453   0.68981
  -7.75630   0.64453   0.73470
  -7.47198   0.67445   0.88434
  -7.17271   0.55474   0.97412
  -6.87343   0.55474   1.09383
  -6.55919   0.56971   1.22850
  -6.22999   0.53978   1.37814
  -5.79604   0.49489   1.48289
  -5.52670   0.50985   1.66245
  -5.09275   0.47993   1.82705
  -4.76354   0.47993   1.99166
  -4.32959   0.46496   2.08144
  -3.97046   0.43503   2.18619
  -3.56644   0.45000   2.38071
  -3.13249   0.43503   2.38071
  -2.71351   0.45000   2.47050
  -2.30949   0.40511   2.51539
  -1.90547   0.46496   2.54532
  -1.51641   0.46496   2.54532
  -1.08246   0.43503   2.50042
  -0.69340   0.47993   2.50042
  -0.25945   0.46496   2.33582
   0.09968   0.43503   2.30590
   0.57852   0.45000   2.17122
   0.98254   0.40511   2.03655
   1.38656   0.42007   1.90187
   1.80555   0.40511   1.73727
   2.19461   0.39014   1.63253
   2.59863   0.39014   1.43800
   3.00265   0.40511   1.25843
   3.37674   0.39014   1.13872
   3.73587   0.34525   1.04894
   4.21471   0.31532   0.88434
   4.45413   0.31532   0.76463
   4.81326   0.31532   0.61499
   5.18736   0.22554   0.46535
   5.42678   0.22554   0.39053
   5.71109   0.16569   0.27082
   5.96547   0.19561   0.18104
   6.23482   0.15072   0.12119
   6.39942   0.13576   0.04637
   6.66877   0.13576   0.01644
   6.86330   0.07590  -0.04342
   6.98301   0.03101  -0.05838
   7.16257  -0.01388  -0.05838
   7.35710  -0.07373  -0.11823
   7.43192  -0.10366  -0.10327
   7.56660  -0.07373  -0.02845
   7.65638  -0.13359  -0.01349
   7.80602  -0.17848   0.07630
   7.85091  -0.25330   0.16608
   7.89580  -0.29819   0.19601
   7.94069  -0.38797   0.27082
   7.95565  -0.38797   0.36061
   7.94069  -0.47775   0.39053
   7.88083  -0.50768   0.45039
   7.86587  -0.55257   0.51024
   7.77609  -0.59746   0.57010
   7.61149  -0.56754   0.60003
   7.47681  -0.59746   0.67485
   7.29725  -0.64236   0.65988
   7.10272  -0.65732   0.67485
   6.87826  -0.67228   0.61499
   6.63884  -0.67228   0.64492
   6.39942  -0.71717   0.68981
   6.16000  -0.74710   0.62995
   5.84576  -0.76207   0.60003
   5.63627  -0.80696   0.58506
   5.33699  -0.88178   0.49528
   5.09757  -0.85185   0.42046
   4.84319  -0.86681   0.34564
   4.55888  -0.88178   0.27082
   4.31946  -0.89674   0.19601
   4.03515  -0.92667   0.09126
   3.84062  -0.95659   0.00148
   3.54134  -0.89674  -0.07334
   3.36178  -0.92667  -0.23794
   3.10739  -0.89674  -0.32773
   2.92783  -0.85185  -0.46240
   2.68841  -0.88178  -0.59707
   2.46395  -0.82192  -0.76168
   2.25446  -0.80696  -0.86642
   2.03000  -0.77703  -1.03102
   1.83547  -0.73214  -1.07591
   1.64095  -0.74710  -1.18066
   1.41649  -0.73214  -1.22555
   1.20700  -0.76207  -1.37519
   1.01247  -0.70221  -1.45001
   0.81794  -0.70221  -1.53979
   0.62341  -0.70221  -1.58468
   0.41392  -0.64236  -1.67446
   0.26428  -0.64236  -1.70439
   0.03982  -0.58250  -1.73432
  -0.03500  -0.56754  -1.76425
  -0.19960  -0.55257  -1.85403
  -0.31931  -0.53761  -1.86899
  -0.43902  -0.53761  -1.82410
  -0.51384  -0.49272  -1.88396
  -0.64851  -0.52265  -1.89892
  -0.75326  -0.52265  -1.86899
  -0.79815  -0.47775  -1.88396
  -0.88793  -0.41790  -1.85403
  -0.99268  -0.41790  -1.88396
  -1.15728  -0.34308  -1.79418
  -1.20217  -0.32812  -1.80914
  -1.32188  -0.29819  -1.85403
  -1.42662  -0.25330  -1.82410
  -1.48648  -0.23833  -1.92885
  -1.63612  -0.22337  -1.86899
  -1.71094  -0.22337  -1.94381
  -1.75583  -0.11862  -2.03360
  -1.89050  -0.11862  -2.07849
  -2.02518  -0.05877  -2.10841
  -2.04014  -0.05877  -2.22812
  -2.12992   0.01605  -2.31791
  -2.15985   0.04598  -2.40769
  -2.20474   0.00109  -2.51244
  -2.24963   0.15072  -2.54236
  -2.29452   0.15072  -2.64711
  -2.32445   0.22554  -2.72193
  -2.32445   0.31532  -2.82667
  -2.32445   0.30036  -2.91646
  -2.35438   0.36022  -2.96135
  -2.33941   0.43503  -3.00624
  -2.33941   0.40511  -3.14091
  -2.35438   0.43503  -3.14091
  -2.38431   0.47993  -3.18580
  -2.42920   0.42007  -3.23070
  -2.44416   0.49489  -3.24566
  -2.54891   0.46496  -3.30551
  -2.63869   0.50985  -3.23070
  -2.63869   0.52482  -3.27559
  -2.72847   0.49489  -3.24566
  -2.78833   0.52482  -3.18580
  -2.92300   0.49489  -3.15588
  -2.96789   0.49489  -3.08106
  -3.10257   0.52482  -2.99128
  -3.16242   0.56971  -2.96135
  -3.23724   0.55474  -2.76682
  -3.34199   0.56971  -2.67704
  -3.43177   0.56971  -2.64711
