********************************************************************************
               CENTRO DE INSTRUMENTACION Y REGISTRO SISMICO  A.C.  
                       Coordinacion de Servicios Tecnicos
     Anaxagoras 814, Col. Narvarte, Benito Juarez, C.P. 03020 Mexico, D.F.
            Tels. 667 45 42/ 687 45  82             Fax. 669 25 12
********************************************************************************
ARCHIVO ESTANDAR DE ACELERACION:
VERSION DEL FORMATO                    : 2.0
NOMBRE DEL ARCHIVO                     : AU110508.141
FECHA Y HORA DE CREACION               : 18/AGO/05, 11:12
REF. CATALOGO ACELEROGRAMAS, SMIS 1996 : REGISTRO No.     /PAG.


================================================================================
DATOS DE LA ESTACION:
NOMBRE DE LA ESTACION                  : AUTODROMO
CLAVE DE LA ESTACION                   : AU11
LOCALIZACION DE LA ESTACION            : AUTODROMO HERMANOS RODRIGUEZ,
                                       : CHURUBUSCO, CD. DEPORTIVA
                                       :
                                       :
                                       :
COORDENADAS DE LA ESTACION             : 19.392 LAT. N 
                                       : 99.087 LONG. W 
ALTITUD (msnm)                         : 2234
TIPO DE SUELO                          : TERRENO BLANDO, MATERIAL COMPRESIBLE
                                       : (ARCILLAS)
                                       : 
INSTITUCION RESPONSABLE                : CIRES 
                                       :

================================================================================
DATOS DEL ACELEROGRAFO:
MODELO DEL ACELEROGRAFO                : SSA-1
NUMERO DE SERIE DEL ACELEROGRAFO       : 157
NUMERO DE CANALES                      : 3
ORIENTACION C1-C6 (rumbo;orientacion)  : /N00E/+V/N90E
ORIENTACION C7-C12 (rumbo;orientacion) :
VEL. DE MUESTREO, C1-C6 (muestras/s)   : /200/200/200
VEL. DE MUESTREO, C7-C12 (muestras/s)  :
ESC. COMPLETA DE SENSORES, C1-C6, (g)  : /2/2/2
ESC. COMPLETA DE SENSORES, C7-C12, (g) :
FREC. NAT. DE SENSORES, C1-C6, (Hz)    : /51.77/52.56/52.29
FREC. NAT. DE SENSORES, C7-C12, (Hz)   :
AMORTIGUAMIENTO DE SENSORES, C1-C6     : /.5912/.6083/.6067
AMORTIGUAMIENTO DE SENSORES, C7-C12    :
INTERVALO DE MUESTREO, C1-C6, (s)      : /0.005/0.005/0.005
INTERVALO DE MUESTREO, C7-C12, (s)     :
UMBRAL DE DISPARO, C1-C6, (Gal)        : /2/2/2
UMBRAL DE DISPARO, C7-C12, (Gal)       :
MEMORIA DE PREEVENTO (s)               : 15
TIEMPO DE POSEVENTO (s)                : 60


================================================================================
DATOS DEL SISMO:
FECHA DEL SISMO (GMT)                  : 14/AGO/05
HORA EPICENTRO (GMT)                   : 02:51:56,0
MAGNITUD(ES)                           : /Mc=5.8
COORDENADAS DEL EPICENTRO              : 15.94 LAT. N
                                       : 97.93 LONG. W
PROFUNDIDAD FOCAL (km)                 : 9
FUENTE DE LOS DATOS EPICENTRALES       : SSN
                                       : INSTITUTO DE GEOFISICA, UNAM 

================================================================================
DATOS DE ESTE REGISTRO:
HORA DE LA PRIMERA MUESTRA (GMT)       : 02:53:41.00
EXACTITUD DEL TIEMPO (s)               :     
DURACION DEL REGISTRO (s), C1-C6       : /111.36/111.36/111.36
DURACION DEL REGISTRO (s), C7-C12      :
NUM. TOTAL DE MUESTRAS, C1-C6          : /22272/22272/22272
NUM. TOTAL DE MUESTRAS, C7-C12         :
ACEL. MAX. (Gal), C1-C6                : /-2.36822/-0.95460/2.05024
ACEL. MAX., C1-C6, EN LA MUESTRA       :
ACEL. MAX. (Gal), C7-C12               :
ACEL. MAX., C7-C12, EN LA MUESTRA      :
UNIDADES DE LOS DATOS                  : Gal (cm/s/s)
FACTOR DE DECIMACION                   : 1
FORMATO DATOS (FORTRAN,10 campos/dato) : 3F10.5


================================================================================
CALIDAD DEL ACELEROGRAMA:
REGISTRO DIGITAL COMPLETO, CARECE DE TIEMPO ABSOLUTO.


================================================================================
COMENTARIOS:














================================================================================
DATOS DE ACELERACION:
---------+---------+---------+---------+---------+---------+---------+---------+
   CANAL-1   CANAL-2   CANAL-3   CANAL-4   CANAL-5   CANAL-6   CANAL-7   CANAL-8
      N00E        +V      N90E
---------+---------+---------+---------+---------+---------+---------+---------+
[...]
   0.02178  -0.47460  -0.58976
   0.02178  -0.47460  -0.58976
   0.02178  -0.47460  -0.58976
   0.02178  -0.47460  -0.58976
   0.02178  -0.71460  -0.58976
   0.02178  -0.47460  -0.58976
   0.02178  -0.47460  -0.58976
   0.02178  -0.47460  -0.34976
   0.02178  -0.47460  -0.34976
   0.02178  -0.47460  -0.58976
   0.02178  -0.47460  -0.34976
   0.02178  -0.47460  -0.34976
   0.02178  -0.47460  -0.34976
   0.02178  -0.47460  -0.34976
   0.02178  -0.47460  -0.34976
   0.02178  -0.47460  -0.34976
   0.02178  -0.47460  -0.34976
   0.02178  -0.47460  -0.34976
   0.02178  -0.47460  -0.10976
   0.02178  -0.47460  -0.10976
   0.26178  -0.47460  -0.10976
   0.26178  -0.47460  -0.10976
   0.26178  -0.47460  -0.10976
   0.26178  -0.47460  -0.10976
   0.26178  -0.47460  -0.10976
   0.26178  -0.47460  -0.10976
   0.26178  -0.47460  -0.10976
   0.26178  -0.47460   0.13024
   0.26178  -0.47460   0.13024
   0.26178  -0.47460   0.13024
   0.26178  -0.47460   0.13024
   0.02178  -0.47460   0.13024
   0.26178  -0.47460   0.13024
   0.02178  -0.47460   0.13024
   0.26178  -0.47460   0.37024
   0.26178  -0.47460   0.37024
   0.26178  -0.47460   0.37024
   0.26178  -0.47460   0.37024
   0.26178  -0.47460   0.37024
   0.26178  -0.47460   0.37024
   0.50178  -0.47460   0.37024
   0.26178  -0.47460   0.37024
   0.26178  -0.47460   0.37024
   0.26178  -0.47460   0.37024
   0.26178  -0.47460   0.37024
   0.26178  -0.47460   0.37024
   0.26178  -0.47460   0.37024
   0.26178  -0.47460   0.37024
   0.26178  -0.47460   0.37024
   0.02178  -0.47460   0.37024
   0.26178  -0.47460   0.37024
   0.02178  -0.47460   0.37024
   0.02178  -0.47460   0.37024
   0.02178  -0.47460   0.37024
   0.02178  -0.47460   0.37024
   0.02178  -0.47460   0.37024
   0.02178  -0.47460   0.37024
   0.02178  -0.23460   0.37024
   0.02178  -0.23460   0.37024
   0.02178  -0.47460   0.37024
   0.02178  -0.23460   0.37024
   0.02178  -0.23460   0.37024
   0.02178  -0.23460   0.37024
  -0.21822  -0.23460   0.37024
  -0.21822  -0.23460   0.37024
  -0.21822  -0.23460   0.37024
  -0.21822  -0.23460   0.37024
  -0.21822  -0.23460   0.37024
  -0.21822  -0.23460   0.37024
  -0.21822  -0.23460   0.37024
  -0.45822  -0.23460   0.37024
  -0.45822  -0.23460   0.37024
  -0.45822   0.00540   0.37024
  -0.45822  -0.23460   0.37024
  -0.45822   0.00540   0.37024
  -0.45822   0.00540   0.37024
  -0.69822   0.00540   0.37024
  -0.69822   0.00540   0.37024
  -0.69822   0.00540   0.37024
  -0.69822   0.00540   0.37024
  -0.69822   0.00540   0.37024
  -0.69822   0.00540   0.13024
  -0.92822   0.00540   0.37024
  -0.92822   0.00540   0.13024
  -0.92822   0.00540   0.37024
  -0.92822  -0.23460   0.37024
  -0.92822   0.00540   0.37024
  -0.92822   0.00540   0.13024
  -1.16822   0.24540   0.13024
  -1.16822   0.00540   0.37024
  -1.16822   0.24540   0.13024
  -1.16822   0.24540   0.37024
  -1.16822   0.00540   0.13024
  -1.16822   0.24540   0.37024
  -1.40822   0.24540   0.13024
  -1.40822   0.24540   0.37024
  -1.40822   0.24540   0.13024
  -1.40822   0.24540   0.13024
  -1.40822   0.24540   0.37024
  -1.40822   0.24540   0.37024
  -1.40822   0.24540   0.13024
  -1.40822   0.24540   0.13024
  -1.64822   0.24540   0.13024
  -1.40822   0.24540   0.13024
  -1.64822   0.24540   0.37024
  -1.64822   0.24540   0.37024
  -1.64822   0.24540   0.37024
  -1.64822   0.24540   0.13024
  -1.64822   0.24540   0.37024
  -1.64822   0.24540   0.13024
  -1.64822   0.24540   0.13024
  -1.64822   0.24540   0.37024
  -1.64822   0.24540   0.37024
  -1.64822   0.24540   0.37024
  -1.64822   0.24540   0.37024
  -1.64822   0.24540   0.37024
  -1.64822   0.24540   0.37024
  -1.64822   0.24540   0.37024
  -1.64822   0.24540   0.37024
  -1.64822   0.24540   0.37024
  -1.88822   0.24540   0.37024
  -1.64822   0.24540   0.37024
  -1.64822   0.24540   0.37024
  -1.64822   0.24540   0.37024
  -1.64822   0.48540   0.37024
  -1.64822   0.24540   0.37024
  -1.40822   0.24540   0.37024
  -1.40822   0.24540   0.13024
  -1.40822   0.24540   0.37024
  -1.40822   0.24540   0.37024
  -1.40822   0.24540   0.13024
  -1.40822   0.24540   0.37024
  -1.40822   0.24540   0.37024
  -1.16822   0.24540   0.13024
  -1.40822   0.24540   0.37024
  -1.16822   0.24540   0.13024
  -1.16822   0.24540   0.13024
  -1.16822   0.24540   0.37024
  -0.92822   0.24540   0.13024
  -1.16822   0.24540   0.13024
  -0.92822   0.24540   0.13024
  -0.92822   0.24540   0.13024
  -0.92822   0.24540   0.13024
  -0.92822   0.24540   0.13024
  -0.92822   0.24540   0.13024
  -0.69822   0.24540   0.13024
  -0.69822   0.24540   0.13024
  -0.69822   0.00540   0.13024
  -0.69822   0.24540   0.13024
  -0.69822   0.00540   0.13024
  -0.45822   0.00540   0.13024
  -0.45822   0.00540   0.13024
  -0.45822   0.00540   0.13024
  -0.45822   0.00540   0.13024
  -0.45822   0.00540  -0.10976
  -0.45822   0.00540   0.13024
  -0.21822   0.00540   0.13024
  -0.21822   0.00540  -0.10976
  -0.21822   0.00540  -0.10976
  -0.21822   0.00540  -0.10976
  -0.21822   0.00540  -0.10976
   0.02178   0.00540  -0.10976
   0.02178   0.00540  -0.10976
   0.02178   0.00540  -0.10976
   0.02178   0.00540  -0.10976
   0.02178   0.00540  -0.10976
   0.02178   0.00540  -0.10976
   0.02178   0.00540  -0.10976
   0.26178   0.00540  -0.10976
   0.26178   0.00540  -0.10976
   0.26178   0.00540  -0.10976
   0.26178   0.00540  -0.10976
   0.26178   0.00540  -0.10976
   0.26178   0.00540  -0.10976
   0.50178   0.00540  -0.10976
   0.50178   0.00540  -0.10976
   0.26178   0.00540  -0.10976
   0.50178   0.00540  -0.10976
   0.50178   0.00540  -0.10976
   0.50178   0.00540  -0.10976
   0.50178   0.00540  -0.10976
   0.50178   0.00540  -0.10976
   0.74178   0.00540  -0.10976
   0.74178   0.00540  -0.10976
   0.74178   0.00540  -0.10976
   0.74178   0.00540  -0.10976
   0.74178   0.00540  -0.10976
   0.74178   0.00540  -0.10976
   0.74178   0.00540  -0.10976
   0.98178   0.00540  -0.10976
   0.74178   0.00540  -0.10976
   0.98178   0.00540  -0.10976
   0.98178   0.00540  -0.10976
   0.98178   0.00540  -0.10976
   0.98178   0.00540  -0.34976
   0.98178   0.00540  -0.34976
   0.98178   0.00540  -0.34976
   0.98178   0.00540  -0.34976
   0.98178   0.00540  -0.34976
   0.98178   0.24540  -0.34976
   0.98178   0.00540  -0.34976
   0.98178   0.24540  -0.34976
   0.98178   0.24540  -0.34976
   0.98178   0.24540  -0.34976
   1.22178   0.24540  -0.34976
   1.22178   0.24540  -0.34976
   1.22178   0.24540  -0.34976
   1.22178   0.00540  -0.34976
   1.22178   0.24540  -0.58976
   1.22178   0.24540  -0.58976
   1.22178   0.24540  -0.58976
   1.22178   0.24540  -0.58976
   1.22178   0.24540  -0.58976
   1.22178   0.24540  -0.58976
   1.22178   0.24540  -0.58976
   1.22178   0.24540  -0.58976
   1.22178   0.24540  -0.58976
   1.22178   0.24540  -0.58976
   1.22178   0.24540  -0.58976
   1.22178   0.24540  -0.58976
   1.22178   0.24540  -0.82976
   1.22178   0.24540  -0.82976
   1.22178   0.24540  -0.82976
   1.22178   0.24540  -0.82976
   1.22178   0.24540  -0.82976
   1.22178   0.24540  -0.82976
   1.22178   0.24540  -0.82976
   1.22178   0.24540  -0.82976
   1.22178   0.24540  -1.06976
   1.22178   0.24540  -1.06976
   1.22178   0.24540  -1.06976
   1.22178   0.24540  -1.06976
   1.22178   0.24540  -1.06976
   1.22178   0.24540  -1.06976
   1.22178   0.24540  -1.06976
   1.22178   0.24540  -1.06976
   1.22178   0.24540  -1.06976
   1.22178   0.00540  -1.06976
   1.22178   0.24540  -1.06976
   1.22178   0.24540  -1.06976
   1.22178   0.24540  -1.06976
   1.22178   0.24540  -1.06976
   1.22178   0.24540  -1.06976
   1.22178   0.24540  -1.06976
   1.22178   0.24540  -1.06976
   1.22178   0.24540  -1.06976
   1.22178   0.24540  -1.06976
   1.22178   0.24540  -1.06976
   1.22178   0.24540  -1.06976
   1.22178   0.24540  -1.06976
   1.22178   0.24540  -1.06976
   1.22178   0.24540  -1.06976
   1.46178   0.24540  -1.06976
   1.22178   0.24540  -1.06976
   1.22178   0.24540  -1.06976
   1.22178   0.24540  -0.82976
   1.46178   0.24540  -0.82976
   1.22178   0.24540  -1.06976
   1.22178   0.24540  -0.82976
   1.22178   0.24540  -0.82976
   1.22178   0.24540  -0.82976
   1.22178   0.24540  -0.82976
   1.22178   0.00540  -0.82976
   1.22178   0.24540  -0.82976
   1.22178   0.24540  -0.82976
   1.22178   0.00540  -0.82976
   1.22178   0.00540  -0.82976
   1.22178   0.00540  -0.82976
   1.22178   0.00540  -0.82976
   1.22178   0.00540  -0.82976
   1.22178   0.00540  -0.82976
   1.22178  -0.47460  -0.82976
   1.22178   0.00540  -0.58976
   0.98178   0.00540  -0.58976
   1.22178   0.00540  -0.58976
   1.22178   0.00540  -0.58976
   1.22178   0.00540  -0.58976
   1.22178   0.00540  -0.58976
   1.22178   0.00540  -0.58976
   1.22178   0.00540  -0.58976
   1.22178  -0.23460  -0.58976
   1.22178  -0.23460  -0.58976
   1.22178  -0.23460  -0.58976
   1.22178  -0.23460  -0.34976
   1.22178  -0.23460  -0.34976
   1.22178  -0.23460  -0.34976
   1.22178  -0.23460  -0.34976
   0.98178  -0.23460  -0.34976
   1.22178  -0.23460  -0.34976
   0.98178  -0.23460  -0.34976
   0.74178  -0.47460  -0.34976
   0.98178  -0.23460  -0.34976
   0.98178  -0.47460  -0.34976
   0.98178  -0.47460  -0.10976
   0.98178  -0.47460  -0.10976
   0.98178  -0.47460  -0.10976
   0.74178  -0.47460  -0.10976
   0.74178  -0.47460  -0.10976
   0.74178  -0.47460  -0.10976
   0.74178  -0.47460  -0.10976
   0.74178  -0.47460  -0.10976
   0.50178  -0.47460  -0.10976
   0.50178  -0.47460  -0.10976
   0.50178  -0.47460   0.13024
   0.50178  -0.47460  -0.10976
   0.50178  -0.47460  -0.10976
   0.26178  -0.47460   0.13024
   0.26178  -0.47460   0.13024
   0.26178  -0.47460   0.13024
   0.02178  -0.71460   0.13024
   0.02178  -0.47460   0.13024
   0.02178  -0.47460   0.13024
   0.02178  -0.47460   0.13024
   0.02178  -0.47460   0.13024
   0.02178  -0.47460   0.13024
  -0.21822  -0.47460   0.37024
  -0.21822  -0.47460   0.37024
  -0.21822  -0.47460   0.13024
  -0.21822  -0.47460   0.37024
  -0.21822  -0.47460   0.37024
  -0.45822  -0.47460   0.37024
  -0.45822  -0.47460   0.37024
  -0.45822  -0.47460   0.37024
  -0.69822  -0.47460   0.37024
  -0.69822  -0.47460   0.37024
  -0.69822  -0.47460   0.37024
  -0.92822  -0.47460   0.37024
  -0.92822  -0.47460   0.37024
  -0.92822  -0.47460   0.37024
  -0.92822  -0.47460   0.61024
  -0.92822  -0.47460   0.37024
  -0.92822  -0.47460   0.61024
  -1.16822  -0.23460   0.61024
  -1.16822  -0.23460   0.61024
  -1.16822  -0.47460   0.61024
  -1.16822  -0.23460   0.61024
  -1.40822  -0.47460   0.61024
  -1.40822  -0.47460   0.61024
  -1.40822  -0.23460   0.85024
  -1.40822  -0.23460   0.85024
  -1.40822  -0.23460   0.61024
  -1.40822  -0.23460   0.85024
  -1.64822  -0.23460   0.85024
  -1.64822  -0.23460   0.85024
  -1.64822  -0.23460   0.85024
  -1.64822  -0.23460   0.85024
  -1.64822  -0.23460   0.85024
  -1.88822  -0.23460   0.85024
  -1.64822  -0.23460   0.85024
  -2.36822  -0.23460   0.85024
  -1.88822  -0.23460   0.85024
  -1.88822  -0.23460   0.85024
  -1.88822  -0.23460   0.85024
  -1.88822  -0.23460   0.85024
  -1.88822  -0.23460   0.85024
  -1.88822  -0.23460   0.85024
  -1.88822  -0.23460   1.09024
  -1.88822  -0.23460   0.85024
  -1.88822  -0.23460   0.85024
  -1.88822  -0.23460   1.09024
  -1.88822  -0.23460   1.09024
  -1.88822   0.00540   0.85024
  -1.88822   0.00540   1.09024
  -1.88822   0.00540   0.85024
  -1.88822   0.00540   0.85024
  -1.88822   0.00540   0.85024
  -1.88822   0.00540   0.85024
  -1.88822   0.00540   0.85024
  -1.88822   0.00540   0.85024
  -1.88822   0.00540   0.85024
  -1.88822   0.00540   0.85024
  -1.88822   0.00540   0.85024
  -1.88822   0.00540   0.85024
  -1.64822   0.00540   0.85024
  -1.64822   0.00540   0.85024
  -1.64822   0.00540   0.61024
  -1.64822   0.00540   0.61024
  -1.64822   0.00540   0.61024
  -1.64822   0.00540   0.61024
  -1.64822   0.24540   0.61024
  -1.64822   0.00540   0.61024
  -1.64822   0.00540   0.61024
  -1.64822   0.00540   0.61024
  -1.64822   0.00540   0.61024
  -1.40822   0.00540   0.61024
  -1.64822   0.24540   0.37024
  -1.64822   0.00540   0.61024
  -1.40822   0.24540   0.61024
  -1.40822   0.00540   0.61024
  -1.40822   0.00540   0.61024
  -1.40822   0.24540   0.61024
  -1.64822   0.24540   0.37024
  -1.40822   0.24540   0.37024
  -1.40822   0.24540   0.37024
  -1.40822   0.24540   0.37024
  -1.40822   0.24540   0.37024
  -1.40822   0.24540   0.37024
  -1.40822   0.24540   0.37024
  -1.40822   0.24540   0.37024
  -1.40822   0.24540   0.61024
  -1.40822   0.24540   0.37024
  -1.16822   0.24540   0.37024
  -1.40822   0.24540   0.37024
  -1.16822   0.00540   0.37024
  -1.16822   0.24540   0.37024
  -1.16822   0.24540   0.37024
  -1.16822   0.24540   0.37024
  -1.16822   0.24540   0.61024
  -1.16822   0.48540   0.37024
  -1.16822   0.48540   0.37024
  -1.16822   0.24540   0.37024
  -0.92822   0.48540   0.37024
  -1.16822   0.48540   0.37024
  -0.92822   0.48540   0.37024
  -0.92822   0.48540   0.37024
  -0.92822   0.48540   0.37024
  -0.92822   0.48540   0.37024
  -0.92822   0.48540   0.37024
  -0.92822   0.48540   0.37024
  -0.92822   0.48540  -0.10976
  -0.69822   0.48540   0.37024
  -0.69822   0.48540   0.37024
  -0.69822   0.48540   0.37024
  -0.69822   0.48540   0.37024
  -0.69822   0.48540   0.37024
  -0.45822   0.48540   0.37024
  -0.45822   0.48540   0.37024
  -0.45822   0.48540   0.37024
  -0.45822   0.48540   0.37024
  -0.45822   0.48540   0.37024
  -0.21822   0.48540   0.37024
  -0.21822   0.48540   0.37024
  -0.21822   0.48540   0.37024
  -0.21822   0.48540   0.37024
  -0.21822   0.48540   0.37024
  -0.21822   0.48540   0.37024
   0.02178   0.48540   0.37024
   0.02178   0.48540   0.37024
   0.02178   0.48540   0.37024
   0.02178   0.48540   0.37024
   0.02178   0.48540   0.37024
   0.02178   0.48540   0.37024
   0.02178   0.48540   0.37024
   0.26178   0.48540   0.37024
   0.02178   0.48540   0.13024
   0.26178   0.48540   0.13024
   0.26178   0.48540   0.13024
   0.26178   0.48540   0.13024
   0.26178   0.48540   0.13024
   0.50178   0.48540   0.13024
   0.50178   0.48540   0.13024
   0.50178   0.48540   0.13024
   0.50178   0.48540   0.13024
   0.50178   0.48540   0.13024
   0.50178   0.48540   0.13024
   0.50178   0.48540   0.13024
   0.50178   0.24540   0.13024
   0.50178   0.24540   0.13024
   0.50178   0.24540   0.13024
   0.50178   0.24540   0.13024
   0.50178   0.24540   0.13024
   0.50178   0.24540  -0.10976
   0.50178   0.24540   0.13024
   0.50178   0.24540   0.13024
   0.50178   0.24540   0.13024
   0.50178   0.24540  -0.10976
   0.50178   0.24540  -0.10976
   0.50178   0.24540   0.13024
   0.50178   0.24540  -0.10976
   0.50178   0.24540   0.13024
   0.50178   0.00540  -0.10976
   0.50178   0.24540  -0.10976
   0.50178   0.00540  -0.10976
   0.50178   0.00540  -0.10976
   0.50178   0.00540   0.13024
   0.50178   0.00540  -0.10976
   0.50178   0.00540  -0.10976
   0.50178   0.00540  -0.10976
   0.50178   0.00540  -0.10976
   0.50178   0.00540  -0.10976
   0.50178   0.00540  -0.10976
   0.50178   0.00540  -0.10976
   0.50178   0.00540   0.13024
   0.50178   0.00540  -0.10976
   0.26178   0.00540   0.13024
   0.26178   0.00540   0.13024
   0.26178   0.00540  -0.10976
   0.50178   0.00540   0.13024
   0.26178   0.00540  -0.10976
   0.26178   0.00540   0.13024
   0.26178  -0.23460  -0.10976
   0.26178  -0.23460   0.13024
   0.50178  -0.23460   0.13024
   0.50178  -0.23460   0.13024
   0.26178  -0.23460   0.13024
   0.26178  -0.23460   0.13024
   0.26178  -0.23460  -0.10976
   0.26178  -0.23460  -0.34976
   0.26178  -0.23460   0.13024
   0.50178  -0.23460  -0.10976
