********************************************************************************
               CENTRO DE INSTRUMENTACION Y REGISTRO SISMICO  A.C.  
                       Coordinacion de Servicios Tecnicos
     Anaxagoras 814, Col. Narvarte, Benito Juarez, C.P. 03020 Mexico, D.F.
            Tels. 667 45 42/ 687 45  82             Fax. 669 25 12
********************************************************************************
ARCHIVO ESTANDAR DE ACELERACION:
VERSION DEL FORMATO                    : 2.0
NOMBRE DEL ARCHIVO                     : AU119701.211
FECHA Y HORA DE CREACION               : 18/MAR/98, 13:30
REF. CATALOGO ACELEROGRAMAS, SMIS 1996 : REGISTRO No.     /PAG.


================================================================================
DATOS DE LA ESTACION:
NOMBRE DE LA ESTACION                  : AUTODROMO
CLAVE DE LA ESTACION                   : AU11
LOCALIZACION DE LA ESTACION            : AUTODROMO HERMANOS RODRIGUEZ,
                                       : CHURUBUSCO, CD. DEPORTIVA
                                       :
                                       :
                                       :
COORDENADAS DE LA ESTACION             : 19.392 LAT. N 
                                       : 99.087 LONG. W 
ALTITUD (msnm)                         : 2234
TIPO DE SUELO                          : TERRENO BLANDO, MATERIAL COMPRESIBLE
                                       : (ARCILLAS)
                                       : 
INSTITUCION RESPONSABLE                : CIRES 
                                       :

================================================================================
DATOS DEL ACELEROGRAFO:
MODELO DEL ACELEROGRAFO                : SSA-1
NUMERO DE SERIE DEL ACELEROGRAFO       : 157
NUMERO DE CANALES                      : 3
ORIENTACION C1-C6 (rumbo;orientacion)  : /N00E/+V/N90E
ORIENTACION C7-C12 (rumbo;orientacion) :
VEL. DE MUESTREO, C1-C6 (muestras/s)   : /200/200/200
VEL. DE MUESTREO, C7-C12 (muestras/s)  :
ESC. COMPLETA DE SENSORES, C1-C6, (g)  : /2/2/2
ESC. COMPLETA DE SENSORES, C7-C12, (g) :
FREC. NAT. DE SENSORES, C1-C6, (Hz)    : /51.77/52.56/52.29
FREC. NAT. DE SENSORES, C7-C12, (Hz)   :
AMORTIGUAMIENTO DE SENSORES, C1-C6     : /.5912/.6083/.6067
AMORTIGUAMIENTO DE SENSORES, C7-C12    :
INTERVALO DE MUESTREO, C1-C6, (s)      : /0.005/0.005/0.005
INTERVALO DE MUESTREO, C7-C12, (s)     :
UMBRAL DE DISPARO, C1-C6, (Gal)        : /2/2/2
UMBRAL DE DISPARO, C7-C12, (Gal)       :
MEMORIA DE PREEVENTO (s)               : 15
TIEMPO DE POSEVENTO (s)                : 60


================================================================================
DATOS DEL SISMO:
FECHA DEL SISMO (GMT)                  : 21/ENE/97
HORA EPICENTRO (GMT)                   : 21:19:58,0
MAGNITUD(ES)                           : /Mb=5.1/Ms=5.0
COORDENADAS DEL EPICENTRO              : 16.440 LAT. N
                                       : 98.150 LONG. W
PROFUNDIDAD FOCAL (km)                 : 18
FUENTE DE LOS DATOS EPICENTRALES       : SSN
                                       : INSTITUTO DE GEOFISICA, UNAM

================================================================================
DATOS DE ESTE REGISTRO:
HORA DE LA PRIMERA MUESTRA (GMT)       : 21:21:47.00
EXACTITUD DEL TIEMPO (s)               :     
DURACION DEL REGISTRO (s), C1-C6       : /87.04/87.04/87.04
DURACION DEL REGISTRO (s), C7-C12      :
NUM. TOTAL DE MUESTRAS, C1-C6          : /17408/17408/17408
NUM. TOTAL DE MUESTRAS, C7-C12         :
ACEL. MAX. (Gal), C1-C6                : /2.44137/0.70435/1.51223
ACEL. MAX., C1-C6, EN LA MUESTRA       :
ACEL. MAX. (Gal), C7-C12               :
ACEL. MAX., C7-C12, EN LA MUESTRA      :
UNIDADES DE LOS DATOS                  : Gal (cm/s/s)
FACTOR DE DECIMACION                   : 1
FORMATO DATOS (FORTRAN,10 campos/dato) : 3F10.5


================================================================================
CALIDAD DEL ACELEROGRAMA:
REGISTRO DIGITAL COMPLETO, CARECE DE TIEMPO ABSOLUTO.


================================================================================
COMENTARIOS:














================================================================================
DATOS DE ACELERACION:
---------+---------+---------+---------+---------+---------+---------+---------+
   CANAL-1   CANAL-2   CANAL-3   CANAL-4   CANAL-5   CANAL-6   CANAL-7   CANAL-8
      N00E        +V      N90E
---------+---------+---------+---------+---------+---------+---------+---------+
[...]
   0.66863   0.25565   0.07223
   0.66863   0.25565   0.07223
   0.66863   0.25565   0.07223
   0.66863   0.25565   0.07223
   0.66863   0.25565   0.07223
   0.66863   0.01565   0.07223
   0.66863   0.01565   0.07223
   0.90863   0.25565   0.07223
   0.90863   0.25565   0.07223
   0.90863   0.25565   0.07223
   0.90863   0.01565   0.07223
   0.90863   0.25565   0.07223
   0.90863   0.25565   0.07223
   0.90863   0.25565   0.07223
   0.90863   0.01565   0.07223
   0.90863   0.01565   0.07223
   0.90863   0.01565   0.07223
   1.14863   0.01565   0.31223
   0.90863   0.01565   0.31223
   1.14863   0.01565   0.31223
   1.14863   0.01565   0.31223
   1.14863   0.01565   0.31223
   1.14863   0.01565   0.55223
   1.14863   0.01565   0.55223
   1.14863   0.01565   0.55223
   1.14863   0.01565   0.55223
   1.14863   0.01565   0.55223
   1.14863   0.01565   0.55223
   1.14863   0.01565   0.55223
   1.14863   0.01565   0.79223
   1.14863   0.01565   0.79223
   1.14863   0.01565   0.79223
   1.14863   0.01565   0.79223
   1.14863   0.01565   0.79223
   1.14863   0.01565   0.79223
   1.14863   0.01565   0.79223
   1.14863   0.01565   0.79223
   1.14863   0.01565   0.79223
   1.14863   0.01565   1.03223
   1.14863   0.01565   0.79223
   0.90863   0.01565   0.79223
   1.14863   0.01565   0.79223
   1.14863   0.01565   0.79223
   0.90863   0.01565   0.79223
   0.90863   0.01565   0.79223
   0.90863   0.01565   0.79223
   0.90863   0.01565   0.79223
   0.90863   0.01565   0.79223
   0.90863   0.01565   0.79223
   0.66863   0.01565   0.79223
   0.66863   0.01565   0.79223
   0.66863   0.01565   0.79223
   0.66863   0.01565   0.55223
   0.66863   0.01565   0.55223
   0.42863  -0.22435   0.55223
   0.42863   0.01565   0.55223
   0.42863  -0.22435   0.55223
   0.42863  -0.22435   0.55223
   0.42863  -0.22435   0.55223
   0.42863  -0.22435   0.31223
   0.18863  -0.22435   0.31223
   0.18863  -0.22435   0.31223
   0.18863  -0.22435   0.31223
   0.18863  -0.22435   0.07223
   0.18863  -0.22435   0.07223
   0.18863  -0.22435   0.07223
   0.18863  -0.22435   0.07223
   0.18863  -0.22435   0.07223
  -0.05137  -0.22435   0.07223
   0.18863  -0.22435   0.07223
  -0.05137  -0.22435  -0.16777
  -0.05137  -0.22435  -0.16777
  -0.05137  -0.22435  -0.16777
  -0.05137  -0.22435  -0.16777
  -0.05137  -0.22435  -0.16777
   0.18863  -0.46435  -0.16777
   0.18863  -0.22435  -0.16777
   0.18863  -0.22435  -0.16777
   0.18863  -0.22435  -0.16777
   0.18863  -0.22435  -0.16777
   0.18863  -0.22435  -0.40777
   0.18863  -0.22435  -0.40777
   0.18863  -0.22435  -0.40777
   0.18863  -0.70435  -0.40777
   0.18863  -0.22435  -0.40777
   0.42863  -0.22435  -0.40777
   0.18863  -0.22435  -0.40777
   0.42863  -0.22435  -0.40777
   0.42863  -0.22435  -0.40777
   0.42863  -0.22435  -0.40777
   0.42863  -0.22435  -0.40777
   0.42863  -0.22435  -0.40777
   0.42863  -0.22435  -0.40777
   0.66863  -0.22435  -0.40777
   0.66863  -0.22435  -0.40777
   0.66863  -0.22435  -0.40777
   0.66863  -0.22435  -0.40777
   0.66863  -0.22435  -0.40777
   0.66863  -0.22435  -0.40777
   0.66863  -0.22435  -0.40777
   0.66863  -0.22435  -0.40777
   0.66863  -0.22435  -0.40777
   0.66863  -0.22435  -0.40777
   0.66863  -0.22435  -0.40777
   0.66863  -0.22435  -0.40777
   0.66863  -0.22435  -0.40777
   0.66863  -0.22435  -0.40777
   0.66863  -0.22435  -0.40777
   0.66863  -0.22435  -0.40777
   0.66863  -0.22435  -0.64777
   0.66863  -0.22435  -0.64777
   0.66863  -0.22435  -0.64777
   0.66863  -0.22435  -0.64777
   0.66863  -0.22435  -0.88777
   0.66863  -0.22435  -0.64777
   0.66863  -0.22435  -0.64777
   0.66863  -0.22435  -0.64777
   0.66863  -0.22435  -0.64777
   0.42863  -0.22435  -0.64777
   0.66863  -0.22435  -0.64777
   0.42863  -0.22435  -0.64777
   0.42863  -0.22435  -0.64777
   0.42863  -0.22435  -0.64777
   0.42863  -0.22435  -0.64777
   0.42863  -0.22435  -0.64777
   0.42863  -0.22435  -0.64777
   0.42863  -0.22435  -0.64777
   0.42863  -0.22435  -0.64777
   0.18863  -0.22435  -0.64777
   0.18863  -0.22435  -0.64777
   0.18863  -0.46435  -0.64777
   0.18863  -0.46435  -0.64777
   0.18863  -0.46435  -0.64777
   0.18863  -0.46435  -0.64777
   0.18863  -0.22435  -0.64777
   0.18863  -0.22435  -0.64777
  -0.05137  -0.22435  -0.64777
  -0.05137  -0.22435  -0.64777
  -0.05137  -0.22435  -0.64777
  -0.05137  -0.22435  -0.64777
  -0.05137  -0.22435  -0.40777
  -0.05137  -0.22435  -0.40777
  -0.05137   0.01565  -0.40777
  -0.05137   0.01565  -0.40777
  -0.28137   0.01565  -0.40777
  -0.28137   0.01565  -0.40777
  -0.76137   0.01565  -0.40777
  -0.28137   0.01565  -0.40777
  -0.28137   0.25565  -0.40777
  -0.28137   0.25565  -0.40777
  -0.28137   0.25565  -0.40777
  -0.28137   0.25565  -0.40777
  -0.28137   0.25565  -0.40777
  -0.28137   0.25565  -0.40777
  -0.52137   0.25565  -0.40777
  -0.28137   0.25565  -0.16777
  -0.52137   0.25565  -0.16777
  -0.28137   0.25565  -0.16777
  -0.52137   0.25565  -0.16777
  -0.52137   0.25565  -0.16777
  -0.52137   0.49565  -0.16777
  -0.52137   0.25565  -0.16777
  -0.28137   0.25565  -0.16777
  -0.52137   0.49565  -0.16777
  -0.52137   0.49565  -0.16777
  -0.52137   0.49565  -0.16777
  -0.28137   0.49565  -0.16777
  -0.28137   0.25565   0.07223
  -0.52137   0.49565   0.07223
  -0.28137   0.49565   0.07223
  -0.52137   0.49565  -0.16777
  -0.28137   0.49565   0.07223
  -0.52137   0.25565   0.07223
  -0.52137   0.25565   0.07223
  -0.52137   0.49565   0.07223
  -0.28137   0.25565   0.07223
  -0.52137   0.25565   0.07223
  -0.28137   0.25565   0.07223
  -0.28137   0.25565   0.07223
  -0.28137   0.25565   0.07223
  -0.28137   0.25565   0.07223
  -0.28137   0.25565  -0.16777
  -0.28137   0.25565   0.07223
  -0.28137   0.25565   0.07223
  -0.52137   0.25565   0.07223
  -0.52137   0.25565   0.07223
  -0.52137   0.25565   0.07223
  -0.52137   0.25565   0.07223
  -0.52137   0.25565  -0.16777
  -0.52137   0.25565  -0.16777
  -0.52137   0.25565  -0.16777
  -0.52137   0.25565  -0.16777
  -0.52137   0.25565  -0.16777
  -0.52137   0.01565  -0.16777
  -0.52137   0.01565  -0.16777
  -0.52137   0.01565  -0.16777
  -0.52137   0.01565  -0.16777
  -0.52137   0.01565  -0.16777
  -0.52137   0.01565  -0.40777
  -0.52137   0.01565  -0.40777
  -0.52137   0.01565  -0.40777
  -0.52137   0.01565  -0.40777
  -0.52137   0.01565  -0.40777
  -0.52137   0.01565  -0.40777
  -0.52137   0.01565  -0.40777
  -0.52137   0.01565  -0.40777
  -0.52137   0.01565  -0.16777
  -0.52137   0.01565  -0.16777
  -0.76137   0.01565  -0.16777
  -0.76137   0.01565  -0.40777
  -0.76137   0.01565  -0.16777
  -0.76137   0.01565  -0.16777
  -0.76137   0.01565  -0.16777
  -0.76137   0.01565  -0.16777
  -0.76137   0.01565  -0.16777
  -0.76137   0.01565  -0.16777
  -1.00137   0.01565  -0.16777
  -0.76137   0.01565  -0.16777
  -0.76137   0.01565  -0.16777
  -0.76137   0.01565  -0.16777
  -0.76137   0.01565   0.07223
  -0.76137   0.01565   0.07223
  -1.00137   0.25565   0.07223
  -1.00137   0.01565   0.07223
  -1.00137   0.01565   0.07223
  -1.00137   0.25565   0.07223
  -1.00137   0.01565   0.07223
  -1.00137   0.01565   0.07223
  -1.24137   0.01565   0.07223
  -1.24137   0.01565   0.07223
  -1.24137   0.01565   0.07223
  -1.24137   0.01565   0.07223
  -1.24137   0.01565   0.07223
  -1.24137   0.01565   0.07223
  -1.24137   0.01565   0.07223
  -1.48137   0.01565   0.07223
  -1.48137   0.01565   0.07223
  -1.48137   0.01565   0.07223
  -1.48137   0.01565   0.07223
  -1.72137   0.01565   0.07223
  -1.72137   0.01565   0.07223
  -1.72137   0.01565   0.07223
  -1.72137   0.01565   0.07223
  -1.72137   0.01565   0.07223
  -1.72137   0.01565   0.07223
  -1.72137   0.01565   0.07223
  -1.72137   0.01565   0.07223
  -1.72137   0.01565   0.07223
  -1.72137   0.01565   0.07223
  -1.72137   0.01565  -0.16777
  -1.72137   0.01565   0.07223
  -1.72137   0.01565   0.07223
  -1.72137   0.01565   0.07223
  -1.72137   0.01565   0.07223
  -1.72137   0.25565   0.07223
  -1.72137   0.01565   0.07223
  -1.72137   0.01565   0.07223
  -1.72137   0.25565   0.07223
  -1.72137   0.01565   0.07223
  -1.48137   0.01565   0.07223
  -1.48137   0.01565   0.07223
  -1.48137   0.01565   0.07223
  -1.48137   0.01565   0.07223
  -1.48137   0.01565   0.07223
  -1.48137   0.01565   0.07223
  -1.48137   0.01565   0.07223
  -1.24137   0.01565   0.07223
  -1.24137   0.01565   0.31223
  -1.24137   0.01565   0.31223
  -1.24137   0.01565   0.31223
  -1.24137   0.01565   0.31223
  -1.00137   0.01565   0.31223
  -1.00137   0.01565   0.31223
  -1.00137   0.01565   0.55223
  -0.76137   0.01565   0.55223
  -0.76137   0.01565   0.55223
  -0.76137   0.01565   0.55223
  -0.76137   0.01565   0.55223
  -0.52137   0.25565   0.79223
  -0.52137   0.25565   0.79223
  -0.52137   0.25565   0.79223
  -0.52137   0.25565   0.79223
  -0.28137   0.25565   0.79223
  -0.28137   0.25565   0.79223
  -0.28137   0.25565   0.79223
  -0.28137   0.25565   1.03223
  -0.05137   0.25565   1.03223
  -0.05137   0.25565   1.03223
  -0.05137   0.25565   1.03223
  -0.05137   0.25565   1.03223
   0.18863   0.25565   1.03223
   0.18863   0.25565   1.03223
   0.18863   0.25565   1.03223
   0.18863   0.25565   1.03223
   0.42863   0.25565   1.03223
   0.42863   0.25565   1.03223
   0.42863   0.25565   1.03223
   0.42863   0.01565   1.03223
   0.42863   0.01565   1.03223
   0.42863   0.01565   0.79223
   0.66863   0.01565   0.79223
   0.66863   0.01565   0.79223
   0.66863   0.01565   0.79223
   0.66863   0.01565   0.79223
   0.66863  -0.22435   0.79223
   0.66863  -0.22435   0.55223
   0.66863  -0.22435   0.55223
   0.66863  -0.22435   0.55223
   0.90863  -0.22435   0.55223
   0.90863  -0.22435   0.55223
   0.90863  -0.22435   0.31223
   0.90863  -0.22435   0.31223
   0.90863  -0.22435   0.31223
   0.90863  -0.22435   0.31223
   0.90863  -0.22435   0.31223
   0.90863  -0.46435   0.07223
   0.90863  -0.22435   0.07223
   0.90863  -0.22435   0.07223
   0.90863  -0.22435   0.07223
   0.90863  -0.22435   0.07223
   0.90863  -0.22435   0.07223
   1.14863  -0.22435   0.07223
   1.14863  -0.22435   0.07223
   1.14863  -0.22435   0.07223
   1.14863  -0.22435   0.07223
   1.14863  -0.22435  -0.16777
   1.14863  -0.22435  -0.16777
   1.14863  -0.22435  -0.16777
   1.38863  -0.22435  -0.16777
   1.38863  -0.22435  -0.16777
   1.38863  -0.22435  -0.16777
   1.62863  -0.22435  -0.16777
   1.38863  -0.22435  -0.16777
   1.62863  -0.22435  -0.16777
   1.62863  -0.22435  -0.16777
   1.62863  -0.22435  -0.16777
   1.62863  -0.22435  -0.16777
   1.86863  -0.22435  -0.16777
   1.86863  -0.22435  -0.16777
   1.86863  -0.22435  -0.16777
   1.86863  -0.22435  -0.16777
   2.10863  -0.22435  -0.16777
   1.86863  -0.22435  -0.16777
   2.10863  -0.22435  -0.16777
   2.10863  -0.22435  -0.16777
   2.10863  -0.22435  -0.16777
   2.10863  -0.22435  -0.16777
   2.10863  -0.22435  -0.16777
   2.10863  -0.22435  -0.16777
   2.34863  -0.22435  -0.16777
   2.34863  -0.22435  -0.16777
   2.34863  -0.22435  -0.16777
   2.34863  -0.22435  -0.16777
   2.34863  -0.22435  -0.16777
   2.34863  -0.22435  -0.16777
   2.34863   0.01565  -0.16777
   2.34863   0.01565  -0.16777
   2.34863  -0.22435  -0.40777
   2.34863  -0.22435  -0.40777
   2.34863  -0.22435  -0.16777
   2.34863   0.01565  -0.16777
   2.34863   0.01565  -0.40777
   2.34863   0.01565  -0.40777
   2.10863   0.01565  -0.40777
   2.10863   0.01565  -0.40777
   2.10863   0.01565  -0.40777
   2.10863   0.01565  -0.40777
   2.10863   0.01565  -0.40777
   2.10863   0.01565  -0.40777
   1.86863   0.01565  -0.40777
   1.86863   0.01565  -0.40777
   1.86863   0.01565  -0.40777
   1.86863   0.01565  -0.40777
   1.62863   0.01565  -0.40777
   1.62863   0.01565  -0.40777
   1.62863   0.01565  -0.40777
   1.62863   0.01565  -0.40777
   1.38863   0.01565  -0.64777
   1.38863   0.01565  -0.40777
   1.38863   0.01565  -0.40777
   1.38863   0.01565  -0.40777
   1.14863   0.01565  -0.40777
   1.14863   0.01565  -0.64777
   0.90863   0.01565  -0.40777
   0.90863   0.01565  -0.40777
   0.90863   0.01565  -0.40777
   0.90863   0.01565  -0.40777
   0.90863   0.01565  -0.64777
   0.66863   0.25565  -0.64777
   0.66863   0.25565  -0.40777
   0.42863   0.25565  -0.64777
   0.66863   0.25565  -0.64777
   0.42863   0.01565  -0.40777
   0.42863   0.01565  -0.64777
   0.42863   0.01565  -0.40777
   0.42863   0.01565  -0.40777
   0.42863   0.01565  -0.40777
   0.42863   0.01565  -0.64777
   0.18863   0.01565  -0.64777
   0.42863   0.01565  -0.64777
   0.42863   0.01565  -0.40777
   0.42863   0.01565  -0.40777
   0.18863   0.01565  -0.40777
   0.18863  -0.22435  -0.40777
   0.18863   0.01565  -0.40777
   0.42863   0.01565  -0.40777
   0.18863   0.01565  -0.40777
   0.18863   0.01565  -0.40777
   0.18863   0.01565  -0.40777
   0.42863   0.01565  -0.40777
   0.42863   0.01565  -0.40777
   0.42863   0.01565  -0.40777
   0.42863   0.01565  -0.40777
   0.42863   0.01565  -0.40777
   0.42863   0.01565  -0.40777
   0.42863  -0.22435  -0.40777
   0.18863   0.01565  -0.40777
   0.18863   0.01565  -0.40777
   0.18863   0.01565  -0.40777
   0.18863  -0.22435  -0.40777
   0.18863   0.01565  -0.40777
   0.18863  -0.22435  -0.40777
   0.18863   0.01565  -0.40777
   0.18863  -0.22435  -0.40777
  -0.05137  -0.22435  -0.40777
  -0.05137  -0.22435  -0.40777
  -0.05137  -0.22435  -0.40777
  -0.05137  -0.22435  -0.40777
  -0.05137  -0.22435  -0.64777
  -0.28137  -0.22435  -0.40777
  -0.28137  -0.22435  -0.64777
  -0.28137  -0.22435  -0.64777
  -0.52137  -0.22435  -0.64777
  -0.52137  -0.22435  -0.64777
  -0.52137  -0.22435  -0.64777
  -0.52137  -0.22435  -0.64777
  -0.76137  -0.22435  -0.64777
  -0.76137  -0.22435  -0.88777
  -0.76137  -0.22435  -0.88777
  -1.00137  -0.22435  -0.88777
  -1.00137  -0.22435  -0.88777
  -1.00137  -0.22435  -0.88777
  -1.00137  -0.22435  -0.88777
  -1.24137  -0.22435  -0.88777
  -1.24137  -0.46435  -0.88777
  -1.24137  -0.22435  -0.88777
  -1.24137  -0.22435  -0.88777
  -1.24137  -0.22435  -0.88777
  -1.24137  -0.22435  -0.88777
  -1.48137  -0.22435  -0.88777
  -1.48137  -0.22435  -0.88777
  -1.48137  -0.22435  -0.88777
  -1.48137  -0.22435  -0.88777
  -1.48137  -0.22435  -0.88777
  -1.48137  -0.46435  -0.88777
  -1.48137  -0.22435  -0.88777
  -1.48137  -0.22435  -0.88777
  -1.72137  -0.22435  -0.64777
  -1.48137  -0.22435  -0.88777
  -1.72137  -0.46435  -0.64777
  -1.72137  -0.46435  -0.64777
  -1.72137  -0.22435  -0.64777
  -1.72137  -0.22435  -0.64777
  -1.72137  -0.22435  -0.64777
  -1.48137  -0.22435  -0.64777
  -1.48137  -0.22435  -0.40777
  -1.48137  -0.22435  -0.40777
  -1.48137  -0.22435  -0.40777
  -1.48137  -0.22435  -0.40777
  -1.48137  -0.22435  -0.40777
  -1.48137  -0.22435  -0.40777
  -1.48137  -0.22435  -0.16777
  -1.24137   0.01565  -0.16777
  -1.24137  -0.22435  -0.16777
  -1.24137   0.01565  -0.16777
  -1.24137   0.01565  -0.16777
  -1.24137   0.01565   0.07223
  -1.24137   0.01565   0.07223
  -1.24137   0.01565   0.07223
  -1.24137   0.01565   0.07223
  -1.24137   0.01565   0.07223
  -1.00137   0.01565   0.07223
  -1.00137   0.01565   0.07223
  -1.00137   0.01565   0.31223
  -1.00137   0.01565   0.31223
  -1.00137   0.01565   0.31223
  -1.00137   0.25565   0.31223
  -1.00137   0.25565   0.31223
  -0.76137   0.25565   0.31223
  -0.76137   0.25565   0.55223
  -0.76137   0.25565   0.55223
  -0.76137   0.25565   0.55223
  -0.76137   0.25565   0.55223
  -0.76137   0.25565   0.55223
  -0.52137   0.25565   0.55223
  -0.52137   0.25565   0.31223
  -0.52137   0.25565   0.31223
  -0.52137   0.25565   0.31223
  -0.52137   0.25565   0.31223
  -0.52137   0.25565   0.31223
