********************************************************************************
              CENTRO DE INSTRUMENTACION Y REGISTRO SISMICO  A.C.

    Anaxagoras 814, Col. Narvarte, Benito Juarez, C.P. 03020 Mexico, D.F.
           Tels. 5687 45 42/ 5687 45  82             Fax. 5669 25 12
********************************************************************************
ARCHIVO ESTANDAR DE ACELERACION:
VERSION DEL FORMATO                    : 2.0
NOMBRE DEL ARCHIVO                     : AU1120180216233938
FECHA Y HORA DE CREACION               : 07/MAR/18, 13:24
REF. CATALOGO ACELEROGRAMAS, SMIS 1996 : REGISTRO No.     /PAG.


================================================================================
DATOS DE LA ESTACION:
NOMBRE DE LA ESTACION                  : AUTÓDROMO
CLAVE DE LA ESTACION                   : AU11
LOCALIZACION DE LA ESTACION            : Del. Iztacalco, Cd. Deportiva          
                                       : Magdalena Mixhuca,                     
                                       : Col. Granjas México                    
                                       :                                        
                                       : 
COORDENADAS DE LA ESTACION             : 19.3919 LAT. N
                                       : 99.0869 LONG. W
ALTITUD (msnm)                         : 2234
TIPO DE SUELO                          : Terreno blando, material compresible
                                       : (arcillas)                
                                       : 
INSTITUCION RESPONSABLE                : CIRES
                                       : 

================================================================================
DATOS DEL ACELEROGRAFO:
MODELO DEL ACELEROGRAFO                : RADESD
NUMERO DE SERIE DEL ACELEROGRAFO       : 157
NUMERO DE CANALES                      : 3
ORIENTACION C1-C6 (rumbo;orientacion)  : /S00E/+V/N90W
ORIENTACION C7-C12 (rumbo;orientacion) : 
VEL. DE MUESTREO, C1-C6 (muestras/s)   : /100/100/100
VEL. DE MUESTREO, C7-C12 (muestras/s)  : 
ESC. COMPLETA DE SENSORES, C1-C6, (g)  : /0.5/0.5/0.5
ESC. COMPLETA DE SENSORES, C7-C12, (g) : 
FREC. NAT. DE SENSORES, C1-C6, (Hz)    : /51.77/52.56/52.29
FREC. NAT. DE SENSORES, C7-C12, (Hz)   : 
AMORTIGUAMIENTO DE SENSORES, C1-C6     : /0.5912/0.6083/0.6067
AMORTIGUAMIENTO DE SENSORES, C7-C12    : 
INTERVALO DE MUESTREO, C1-C6, (s)      : /0.01/0.01/0.01
INTERVALO DE MUESTREO, C7-C12, (s)     : 
UMBRAL DE DISPARO, C1-C6, (Gal)        : /0.72/1.92/0.72
UMBRAL DE DISPARO, C7-C12, (Gal)       : 
MEMORIA DE PREEVENTO (s)               : 44.0
TIEMPO DE POSEVENTO (s)                : 0.0


================================================================================
DATOS DEL SISMO:
FECHA DEL SISMO (GMT)                  : 16/FEB/18
HORA EPICENTRO (GMT)                   : 23:39:38.0
MAGNITUD(ES)                           : /Mc=7.2
COORDENADAS DEL EPICENTRO              : 16.25 LAT. N
                                       : 98.03 LONG. W
PROFUNDIDAD FOCAL (km)                 : 12
FUENTE DE LOS DATOS EPICENTRALES       : SSN
                                       : INSTITUTO DE GEOFISICA, UNAM

================================================================================
DATOS DE ESTE REGISTRO:
HORA DE LA PRIMERA MUESTRA (GMT)       : 23:40:05.00
EXACTITUD DEL TIEMPO (s)               : 0.01
DURACION DEL REGISTRO (s), C1-C6       : /555.2/555.2/555.2
DURACION DEL REGISTRO (s), C7-C12      : 
NUM. TOTAL DE MUESTRAS, C1-C6          : /55520/55520/55520
NUM. TOTAL DE MUESTRAS, C7-C12         : 
ACEL. MAX. (Gal), C1-C6                : /21.65558/4.58095/18.33227
ACEL. MAX., C1-C6, EN LA MUESTRA       : /9374/10977/10345
ACEL. MAX. (Gal), C7-C12               : 
ACEL. MAX., C7-C12, EN LA MUESTRA      : 
UNIDADES DE LOS DATOS                  : Gal (cm/s/s)
FACTOR DE DECIMACION                   : 1
FORMATO DATOS (FORTRAN,10 campos/dato) : 3F10.5


================================================================================
CALIDAD DEL ACELEROGRAMA:
REGISTRO DIGITAL COMPLETO CON TIEMPO ABSOLUTO CORRECTO.


================================================================================
COMENTARIOS:
El dato de la linea 68, referente a la hora corresponde al reloj interno
por lo que dicha hora puede ser suceptible a una deriva de tiempo












================================================================================
DATOS DE ACELERACION:
---------+---------+---------+---------+---------+---------+---------+---------+
   CANAL-1   CANAL-2   CANAL-3   CANAL-4   CANAL-5   CANAL-6   CANAL-7   CANAL-8
      S00E        +V      N90W
---------+---------+---------+---------+---------+---------+---------+---------+
[...]
   3.87259  -0.26731  -9.76967
   3.54339   0.01700  -9.35069
   3.37879   0.07686  -8.78206
   3.24411   0.07686  -8.36308
   3.18426   0.34620  -7.83935
   3.10944   0.40606  -7.30065
   3.04958   0.63051  -6.71707
   3.13937   0.57066  -6.28312
   3.12440   0.60059  -5.74442
   3.25908   0.69037  -5.37033
   3.28900   0.66044  -5.04112
   3.33390   0.72030  -4.74185
   3.39375   0.69037  -4.60718
   3.31893   0.72030  -4.33783
   3.10944   0.76519  -4.08344
   2.95980   0.69037  -3.69439
   2.66053   0.84001  -3.45497
   2.40614   0.81008  -3.00605
   1.97219   0.92979  -2.48232
   1.68788   1.01957  -2.04837
   1.34372   1.13928  -1.47975
   0.96962   1.33381  -0.74653
   0.62546   1.49841  -0.20783
   0.38604   1.70790   0.49547
   0.14662   1.69294   1.03416
  -0.04791   1.91740   1.67760
  -0.10777   1.85754   2.24623
  -0.07784   1.66301   2.75499
  -0.07784   1.34877   3.12909
   0.07180   1.06446   3.50318
   0.19151   0.73526   3.75757
   0.31122   0.43599   3.86231
   0.46085   0.25642   3.87728
   0.44589   0.07686   3.62289
   0.34114  -0.05782   3.53311
   0.17654  -0.19249   3.05427
  -0.00302  -0.44688   2.68018
  -0.30230  -0.38702   2.17141
  -0.72128  -0.55162   1.63271
  -1.25998  -0.49177   1.19876
  -1.64904  -0.67133   0.52539
  -2.23262  -0.58155   0.01663
  -2.63664  -0.62644  -0.73156
  -3.20527  -0.80601  -1.25529
  -3.54943  -0.89579  -1.88377
  -3.95346  -1.12025  -2.52721
  -4.49215  -1.09032  -3.20058
  -4.64179  -1.21003  -3.91884
  -5.00092  -1.37463  -4.54732
  -5.36005  -1.18010  -5.17580
  -5.56954  -1.25492  -5.83420
  -5.88378  -1.35967  -6.37290
  -6.22795  -1.23996  -6.92656
  -6.57211  -1.23996  -7.39044
  -6.85642  -1.35967  -7.82438
  -7.29037  -1.26988  -8.21344
  -7.60461  -1.34470  -8.67732
  -8.02360  -1.26988  -9.03645
  -8.39769  -1.22499  -9.36565
  -8.80171  -1.00054  -9.60507
  -9.08602  -0.89579  -9.73975
  -9.41523  -0.76112  -9.82953
  -9.69954  -0.61148  -9.79960
  -9.87910  -0.62644  -9.56018
  -9.99881  -0.64141  -9.35069
 -10.10356  -0.55162  -8.90178
 -10.07363  -0.68630  -8.43790
 -10.19334  -0.47680  -7.82438
  -9.99881  -0.40199  -7.10612
  -9.95392  -0.32717  -6.41779
  -9.77436  -0.31220  -5.56486
  -9.59479  -0.20746  -4.69696
  -9.31048  -0.04286  -3.90388
  -8.96631  -0.01293  -3.03598
  -8.71193   0.09182  -2.07830
  -8.32287   0.21153  -1.18047
  -7.84403   0.24146  -0.41732
  -7.48490   0.42102   0.31590
  -7.05095   0.61555   0.98927
  -6.54219   0.60059   1.54293
  -6.04838   0.84001   2.05170
  -5.43487   0.86993   2.54550
  -4.80639   0.97468   2.90463
  -4.08813   1.00461   3.26376
  -3.39980   1.12432   3.59296
  -2.42715   1.13928   3.83239
  -1.69393   1.10935   4.07181
  -0.81107   1.16921   4.28130
   0.16158   1.10935   4.44590
   0.93969   1.24403   4.68532
   1.77767   1.48345   5.05941
   2.61564   1.31885   5.25394
   3.36382   1.64805   5.67293
   3.96237   1.55827   6.04702
   4.57589   1.69294   6.33133
   5.06969   1.51338   6.85506
   5.50364   1.61812   7.28901
   5.71313   1.42359   7.81275
   5.86277   1.27396   8.38137
   5.96752   1.04950   9.02481
   6.04234   0.84001   9.60840
   5.89270   0.73526  10.13213
   5.80292   0.60059  10.61097
   5.59342   0.49584  11.10477
   5.59342   0.19657  11.37412
   5.41386   0.09182  11.77814
   5.44379  -0.22242  11.98763
   5.42882  -0.31220  12.19713
   5.68321  -0.58155  12.36173
   5.95255  -0.65637  12.33180
   6.31168  -0.97061  12.39166
   6.80549  -0.89579  12.31684
   7.34418  -0.95564  12.25698
   7.98763  -0.74615  12.10734
   8.66099  -0.73119  12.07742
   9.34933  -0.56659  11.79311
  10.03766  -0.43191  11.71829
  10.69607  -0.14760  11.50879
  11.29462  -0.04286  11.53872
  11.89317   0.07686  11.40405
  12.38697   0.01700  11.35916
  12.70121   0.12175  11.35916
  13.12020  -0.14760  11.22448
  13.25487  -0.19249  11.13470
  13.47933  -0.61148  11.01499
  13.55414  -0.65637  10.89528
  13.50925  -0.85090  10.71571
  13.49429  -0.91075  10.71571
  13.29976  -0.94068  10.74564
  13.20998  -1.06039  10.71571
  13.00049  -1.00054  10.83542
  12.79099  -1.25492  10.83542
  12.47675  -1.12025  10.89528
  12.26726  -1.21003  10.95513
  11.90813  -1.13521  11.04492
  11.59389  -1.12025  11.16463
  11.17491  -1.06039  11.20952
  10.68110  -0.97061  11.37412
  10.24715  -0.98557  11.50879
   9.75335  -0.91075  11.68836
   9.16976  -1.00054  11.91282
   8.55625  -1.03046  12.16720
   8.03252  -1.09032  12.45151
   7.35915  -1.23996  12.82561
   6.83542  -1.28485  13.00517
   6.37154  -1.50930  13.25955
   5.84781  -1.61405  13.48401
   5.36897  -1.73376  13.67854
   5.03976  -1.77865  13.82818
   4.77042  -1.79362  13.87307
   4.47114  -1.97318  14.08256
   4.27661  -1.91333  14.11249
   4.21676  -2.06296  14.14242
   4.09705  -2.15275  14.24716
   3.88756  -2.04800  14.33694
   3.79777  -2.04800  14.47162
   3.61821  -1.86843  14.60629
   3.67806  -2.03304  14.63622
   3.63317  -2.06296  14.98039
   3.51346  -1.85347  14.87564
   3.54339  -1.82354  14.96542
   3.42368  -1.61405  14.89060
   3.46857  -1.56916  14.74097
   3.48353  -1.58412  14.93550
   3.30397  -1.46441  14.65118
   3.19922  -1.32974  14.56140
   2.97477  -1.26988  14.38184
   2.81016  -1.46441  14.30702
   2.55578  -1.28485  14.35191
   2.28643  -1.46441  14.27709
   1.91234  -1.62901  14.21723
   1.56817  -1.71880  14.03767
   1.22401  -1.62901  14.05263
   0.83495  -1.73376  14.00774
   0.41596  -1.74872  13.78329
  -0.04791  -1.44945  13.66358
  -0.28733  -1.35967  13.46905
  -0.69136  -1.43448  13.28948
  -1.05049  -1.06039  13.10992
  -1.34976  -0.94068  12.64604
  -1.46947  -0.80601  12.37669
  -1.78371  -0.65637  11.89785
  -2.05306  -0.50673  11.19456
  -2.32241  -0.11767  10.80550
  -2.66657   0.07686  10.29673
  -3.02570   0.07686   9.89271
  -3.38483   0.49584   9.12956
  -3.77389   0.61555   8.60582
  -4.13302   0.57066   7.93246
  -4.55201   0.69037   7.40872
  -4.85128   0.60059   6.76528
  -5.34508   0.48088   6.19666
  -5.80896   0.39109   5.68789
  -6.27284   0.48088   5.07438
  -6.75168   0.39109   4.64043
  -7.23052   0.43599   4.10173
  -7.76921   0.63051   3.60793
  -8.08345   0.60059   3.12909
  -8.30791   0.46591   2.62032
  -8.59222   0.75022   2.21630
  -8.77179   0.78015   1.70753
  -8.84660   0.72030   1.21373
  -8.90646   0.98964   0.77978
  -8.77179   1.04950   0.39072
  -8.71193   1.13928  -0.14798
  -8.39769   1.39367  -0.56696
  -8.09842   1.40863  -0.98595
  -7.79914   1.37870  -1.44982
  -7.35023   1.52834  -1.88377
  -6.93124   1.31885  -2.31772
  -6.45240   1.00461  -2.75167
  -6.10824   0.92979  -2.96116
  -5.59947   0.58562  -3.17065
  -5.25530   0.34620  -3.51482
  -4.89617   0.34620  -3.61957
  -4.50711   0.22649  -3.84402
  -4.14798   0.27138  -4.06848
  -3.65418   0.45095  -4.18819
  -3.22023   0.54073  -4.50243
  -2.83117   0.78015  -4.65207
  -2.35233   0.88490  -4.71192
  -1.90342   0.95972  -5.14587
  -1.46947   1.06446  -5.32544
  -0.96070   0.84001  -5.56486
  -0.73625   0.98964  -5.66960
  -0.33223   0.79512  -5.96888
   0.02691   0.75022  -6.47765
   0.38604   0.91483  -6.76196
   0.55064   0.86993  -7.25576
   0.81998   0.98964  -7.70467
   1.01451   0.98964  -8.13862
   1.07437   1.03454  -8.58754
   1.13422   1.12432  -9.05141
   1.31379   1.04950  -9.56018
   1.29882   0.92979 -10.15873
   1.41853   0.91483 -10.65253
   1.47839   0.66044 -11.17627
   1.59810   0.60059 -11.65511
   1.70285   0.55570 -12.01424
   1.85248   0.28635 -12.26862
   1.95723   0.46591 -12.64272
   1.97219   0.57066 -12.86717
   2.28643   0.36117 -12.92703
   2.49593   0.43599 -12.85221
   2.81016   0.43599 -12.82228
   3.07951   0.19657 -12.65768
   3.37879   0.24146 -12.56790
   3.63317   0.27138 -12.28358
   4.02223   0.16664 -11.89453
   4.24669   0.16664 -11.56532
   4.54596   0.31628 -11.02663
   4.83027   0.18160 -10.51786
   5.14451   0.15167  -9.96420
   5.29415   0.19657  -9.32076
   5.50364  -0.08775  -8.70725
   5.75803  -0.11767  -8.12366
   6.02737  -0.28228  -7.52511
   6.35658  -0.61148  -6.98641
   6.58103  -0.67133  -6.28312
   6.82045  -0.91075  -5.65464
   7.11973  -1.03046  -5.07105
   7.37411  -1.09032  -4.45754
   7.62850  -1.23996  -3.94877
   7.89784  -1.16514  -3.44000
   8.16719  -1.10528  -2.91627
   8.49639  -1.18010  -2.52721
   8.90042  -1.00054  -2.24290
   9.36429  -1.06039  -1.92866
   9.70846  -1.01550  -1.82392
  10.26212  -1.06039  -1.70421
  10.68110  -1.13521  -1.74910
  11.20483  -1.18010  -1.82392
  11.69864  -0.98557  -1.95859
  12.25230  -0.97061  -2.16808
  12.80596  -0.82097  -2.36261
  13.22494  -0.70126  -2.78160
  13.82349  -0.71622  -3.02102
  14.30233  -0.80601  -3.38015
  14.67643  -0.86586  -3.85899
  15.06548  -1.04543  -4.23308
  15.37972  -1.34470  -4.62214
  15.58922  -1.52427  -4.99623
  15.64907  -1.70383  -5.31047
  15.55929  -1.82354  -5.57982
  15.36476  -1.92829  -5.86413
  15.11038  -1.94325  -5.89406
  14.76621  -1.85347  -6.13348
  14.31730  -1.74872  -6.14844
  13.89831  -1.92829  -6.16341
  13.19501  -1.73376  -6.05866
  12.77603  -2.07793  -6.01377
  12.07273  -2.06296  -5.80428
  11.50411  -2.30238  -5.80428
  10.78585  -2.25749  -5.59478
  10.02270  -2.31735  -5.51997
   9.24458  -2.30238  -5.16083
   8.39165  -2.21260  -4.80170
   7.49382  -2.09289  -4.53236
   6.68578  -1.92829  -4.14330
   5.72810  -1.95822  -3.82906
   4.80034  -1.76369  -3.54475
   3.91748  -1.88340  -3.12576
   2.97477  -1.80858  -2.81152
   1.95723  -1.83851  -2.36261
   1.01451  -1.79362  -2.10823
   0.11669  -1.70383  -1.91370
  -0.81107  -1.68887  -1.74910
  -1.64904  -1.46441  -1.46479
  -2.41219  -1.44945  -1.33011
  -3.11548  -1.44945  -1.21040
  -3.80382  -1.16514  -1.13558
  -4.34251  -1.25492  -1.06076
  -4.94106  -1.10528  -1.04580
  -5.47976  -1.04543  -0.85127
  -6.06335  -1.10528  -0.80638
  -6.67686  -0.89579  -0.70163
  -7.18563  -0.89579  -0.61185
  -7.81411  -0.89579  -0.59689
  -8.48747  -0.76112  -0.35747
  -9.08602  -0.80601  -0.29761
  -9.83421  -0.64141  -0.19287
 -10.43276  -0.47680  -0.13301
 -11.18095  -0.56659  -0.05819
 -11.98899  -0.40199  -0.04323
 -12.70725  -0.34213  -0.22279
 -13.33573  -0.50673  -0.47718
 -13.94925  -0.49177  -0.56696
 -14.63758  -0.68630  -0.74653
 -15.32591  -0.83593  -0.77645
 -15.98432  -0.97061  -1.19544
 -16.58287  -1.09032  -1.46479
 -17.25624  -1.21003  -1.22537
 -17.64530  -1.16514  -1.82392
 -18.31867  -1.23996  -1.98852
 -18.67780  -1.19506  -2.06334
 -19.06685  -1.22499  -2.06334
 -19.50080  -1.21003  -2.27283
 -19.83000  -1.12025  -2.37758
 -19.99461  -1.06039  -2.30276
 -20.50337  -0.91075  -2.28779
 -20.80265  -0.64141  -2.30276
 -20.78769  -0.23738  -2.40750
 -21.05703  -0.07278  -2.39254
 -21.28149   0.01700  -2.40750
 -21.65558   0.24146  -2.37758
 -21.65558   0.21153  -2.67685
 -21.58076   0.12175  -2.93123
 -21.59573   0.34620  -3.09584
 -21.58076   0.43599  -3.35022
 -21.53587   0.52577  -3.54475
 -21.37127   0.66044  -3.67942
 -21.13185   0.95972  -4.21812
 -20.69790   1.21410  -4.72689
 -20.27892   1.37870  -5.16083
 -19.75519   1.70790  -5.68457
 -19.42598   1.93236  -6.34297
 -18.66283   2.14185  -6.56743
 -17.75004   2.24660  -6.79188
 -17.00185   2.38127  -7.09116
 -16.34345   2.41120  -7.42036
 -15.52044   2.39624  -7.70467
 -14.66751   2.47106  -8.00395
 -13.78465   2.44113  -8.21344
 -12.91675   2.54588  -8.40797
 -11.97403   2.68055  -8.61746
 -11.01635   2.87508  -8.79703
  -9.96889   3.05464  -8.82696
  -8.99624   3.26414  -8.94667
  -7.96374   3.41377  -8.96163
  -7.03599   3.62327  -8.97659
  -6.07831   3.54845  -8.84192
  -5.25530   3.68312  -8.76710
  -4.44726   3.54845  -8.79703
  -3.84871   3.56341  -8.61746
  -3.31001   3.41377  -8.49775
  -2.83117   3.30903  -8.24337
  -2.45708   3.15939  -7.95906
  -2.23262   2.94990  -7.64482
  -2.02313   2.78530  -7.25576
  -1.88846   2.56084  -6.83678
  -1.88846   2.20171  -6.37290
  -1.93335   1.97725  -5.83420
  -2.08299   1.78272  -5.19076
  -2.12788   1.52834  -4.83163
  -2.30744   1.43856  -4.39768
  -2.42715   1.34877  -3.96373
  -2.42715   1.24403  -3.46993
  -2.47204   1.24403  -3.02102
  -2.57679   1.18417  -2.75167
  -2.50197   1.07943  -2.37758
  -2.39722   0.95972  -2.09326
  -2.39722   0.85497  -1.71917
  -2.29248   0.81008  -1.49471
  -2.18773   0.67541  -1.31515
  -2.15780   0.60059  -1.13558
  -1.99320   0.54073  -0.95602
  -1.87349   0.60059  -0.85127
  -1.72385   0.64548  -0.76149
  -1.64904   0.69037  -0.61185
  -1.39465   0.86993  -0.44725
  -1.17020   1.01957  -0.25272
  -0.90085   1.04950  -0.01330
  -0.66143   1.09439   0.28597
  -0.45194   1.16921   0.69000
  -0.19755   1.15425   1.03416
  -0.15266   1.15425   1.49804
  -0.12273   1.19914   1.97688
  -0.10777   1.34877   2.47068
  -0.15266   1.48345   2.96449
  -0.21252   1.57323   3.24880
  -0.22748   1.81265   3.66778
  -0.34719   1.94733   4.01195
  -0.52675   2.00718   4.20648
  -0.69136   2.12689   4.34115
  -0.91581   2.15682   4.50575
  -1.21509   2.12689   4.55065
  -1.60414   2.00718   4.61050
  -1.99320   2.02214   4.47583
  -2.36730   1.84258   4.49079
  -2.78628   1.79769   4.32619
  -3.04067   1.82761   4.17655
  -3.29505   1.85754   3.96706
  -3.45965   1.88747   3.72764
  -3.54943   1.93236   3.63786
  -3.48958   1.99222   3.45829
  -3.51951   1.96229   3.33858
  -3.36987   2.03711   3.17398
  -3.10052   1.99222   3.02434
  -2.89103   1.75280   2.91960
  -2.62168   1.51338   2.81485
  -2.35233   1.33381   2.69514
  -2.21766   1.06446   2.57543
  -1.94831   0.85497   2.53054
  -1.81364   0.57066   2.38090
  -1.57422   0.39109   2.35097
  -1.23005   0.09182   2.30608
  -1.08041  -0.19249   2.32105
  -0.94574  -0.37206   2.44076
  -0.67639  -0.77608   2.62032
  -0.54172  -1.06039   2.87470
  -0.28733  -1.28485   3.12909
  -0.03295  -1.58412   3.33858
   0.25136  -1.83851   3.56304
   0.49078  -1.86843   3.87728
   0.84991  -2.04800   4.14662
   1.16415  -2.07793   4.52072
   1.58314  -2.09289   4.83496
   2.09190  -2.18267   5.20905
   2.48096  -2.15275   5.52329
   2.75031  -2.09289   5.80760
   3.10944  -2.03304   6.16673
   3.33390  -1.97318   6.49593
   3.55835  -1.91333   6.78025
   3.69303  -1.88340   7.01967
   3.85763  -1.86843   7.21419
   3.97734  -1.85347   7.34887
   3.99230  -1.95822   7.48354
   4.14194  -2.04800   7.52843
   4.15690  -1.98814   7.52843
   4.17187  -2.03304   7.55836
   4.08208  -2.07793   7.49851
   3.91748  -2.07793   7.21419
   3.75288  -1.89836   7.55836
   3.52843  -1.88340   7.16930
   3.18426  -1.67390   6.85506
   2.75031  -1.47938   6.81017
   2.60067  -1.67390   6.48097
   2.31636  -1.49434   6.13680
   1.86745  -1.56916   5.64300
   1.41853  -1.56916   5.17912
   1.29882  -1.56916   5.05941
   0.99955  -1.56916   4.89481
   0.49078  -1.68887   4.64043
  -0.04791  -1.67390   4.28130
  -0.61654  -1.68887   3.89224
  -1.27494  -1.49434   3.75757
  -1.85853  -1.52427   3.53311
  -2.42715  -1.26988   3.24880
  -3.13045  -1.23996   2.85974
  -3.71403  -1.23996   2.30608
  -4.20784  -1.15017   1.81228
  -4.65675  -1.34470   1.61775
  -5.10566  -1.28485   1.03416
  -5.58451  -1.10528   0.36079
  -6.04838  -0.74615   0.03159
  -6.28780  -0.74615  -0.44725
  -6.40751  -0.64141  -0.64178
  -6.51226  -0.49177  -0.82134
  -6.55715  -0.53666  -0.83631
  -6.55715  -0.43191  -0.97098
  -6.45240  -0.23738  -0.73156
  -6.24291  -0.25235  -0.44725
