********************************************************************************
               CENTRO DE INSTRUMENTACION Y REGISTRO SISMICO  A.C.  
                       Coordinacion de Servicios Tecnicos
     Anaxagoras 814, Col. Narvarte, Benito Juarez, C.P. 03020 Mexico, D.F.
            Tels. 667 45 42/ 687 45  82             Fax. 669 25 12
********************************************************************************
ARCHIVO ESTANDAR DE ACELERACION:
VERSION DEL FORMATO                    : 2.0
NOMBRE DEL ARCHIVO                     : AU1100007.211
FECHA Y HORA DE CREACION               : 02/JUL/04, 12:18
REF. CATALOGO ACELEROGRAMAS, SMIS 1996 : REGISTRO No.     /PAG.


================================================================================
DATOS DE LA ESTACION:
NOMBRE DE LA ESTACION                  : AUTODROMO
CLAVE DE LA ESTACION                   : AU11
LOCALIZACION DE LA ESTACION            : AUTODROMO HERMANOS RODRIGUEZ,
                                       : CHURUBUSCO, CD. DEPORTIVA
                                       :
                                       :
                                       :
COORDENADAS DE LA ESTACION             : 19.392 LAT. N 
                                       : 99.087 LONG. W 
ALTITUD (msnm)                         : 2234
TIPO DE SUELO                          : TERRENO BLANDO, MATERIAL COMPRESIBLE
                                       : (ARCILLAS)
                                       : 
INSTITUCION RESPONSABLE                : CIRES 
                                       :

================================================================================
DATOS DEL ACELEROGRAFO:
MODELO DEL ACELEROGRAFO                : SSA-1
NUMERO DE SERIE DEL ACELEROGRAFO       : 157
NUMERO DE CANALES                      : 3
ORIENTACION C1-C6 (rumbo;orientacion)  : /N00E/+V/N90E
ORIENTACION C7-C12 (rumbo;orientacion) :
VEL. DE MUESTREO, C1-C6 (muestras/s)   : /200/200/200
VEL. DE MUESTREO, C7-C12 (muestras/s)  :
ESC. COMPLETA DE SENSORES, C1-C6, (g)  : /2/2/2
ESC. COMPLETA DE SENSORES, C7-C12, (g) :
FREC. NAT. DE SENSORES, C1-C6, (Hz)    : /51.77/52.56/52.29
FREC. NAT. DE SENSORES, C7-C12, (Hz)   :
AMORTIGUAMIENTO DE SENSORES, C1-C6     : /.5912/.6083/.6067
AMORTIGUAMIENTO DE SENSORES, C7-C12    :
INTERVALO DE MUESTREO, C1-C6, (s)      : /0.005/0.005/0.005
INTERVALO DE MUESTREO, C7-C12, (s)     :
UMBRAL DE DISPARO, C1-C6, (Gal)        : /2/2/2
UMBRAL DE DISPARO, C7-C12, (Gal)       :
MEMORIA DE PREEVENTO (s)               : 15
TIEMPO DE POSEVENTO (s)                : 60


================================================================================
DATOS DEL SISMO:
FECHA DEL SISMO (GMT)                  : 21/JUL/00
HORA EPICENTRO (GMT)                   : 06:13:39,7
MAGNITUD(ES)                           : /Mb=5.4/Ms=5.1/Mc=5.4/Ma=5.5/Me=6.0
COORDENADAS DEL EPICENTRO              : 18.09 LAT. N
                                       : 98.97 LONG. W
PROFUNDIDAD FOCAL (km)                 : 48
FUENTE DE LOS DATOS EPICENTRALES       : SSN
                                       : INSTITUTO DE GEOFISICA, UNAM 

================================================================================
DATOS DE ESTE REGISTRO:
HORA DE LA PRIMERA MUESTRA (GMT)       : 06:14:02.00
EXACTITUD DEL TIEMPO (s)               :     
DURACION DEL REGISTRO (s), C1-C6       : /184.32/184.32/184.32
DURACION DEL REGISTRO (s), C7-C12      :
NUM. TOTAL DE MUESTRAS, C1-C6          : /36864/36864/36864
NUM. TOTAL DE MUESTRAS, C7-C12         :
ACEL. MAX. (Gal), C1-C6                : /14.09347/7.64330/-10.96339
ACEL. MAX., C1-C6, EN LA MUESTRA       :
ACEL. MAX. (Gal), C7-C12               :
ACEL. MAX., C7-C12, EN LA MUESTRA      :
UNIDADES DE LOS DATOS                  : Gal (cm/s/s)
FACTOR DE DECIMACION                   : 1
FORMATO DATOS (FORTRAN,10 campos/dato) : 3F10.5


================================================================================
CALIDAD DEL ACELEROGRAMA:
REGISTRO DIGITAL COMPLETO, CARECE DE TIEMPO ABSOLUTO.


================================================================================
COMENTARIOS:














================================================================================
DATOS DE ACELERACION:
---------+---------+---------+---------+---------+---------+---------+---------+
   CANAL-1   CANAL-2   CANAL-3   CANAL-4   CANAL-5   CANAL-6   CANAL-7   CANAL-8
      N00E        +V      N90E
---------+---------+---------+---------+---------+---------+---------+---------+
[...]
  -0.27653   0.93330  -1.14339
  -0.51653   1.17330  -1.14339
  -0.27653   1.17330  -1.14339
  -0.27653   1.17330  -1.14339
  -0.27653   1.17330  -1.14339
  -0.27653   1.17330  -0.90339
  -0.27653   1.17330  -0.90339
  -0.27653   1.41330  -0.90339
  -0.03653   1.41330  -0.90339
  -0.03653   1.41330  -0.66339
  -0.03653   1.65330  -0.66339
  -0.03653   1.41330  -0.66339
  -0.03653   1.41330  -0.66339
  -0.03653   1.17330  -0.66339
  -0.03653   0.69330  -0.66339
  -0.03653   0.45330  -0.66339
  -0.03653   0.45330  -0.66339
  -0.03653   0.45330  -0.66339
  -0.27653   0.45330  -0.66339
  -0.27653   0.45330  -0.42339
  -0.27653   0.45330  -0.42339
  -0.27653   0.69330  -0.42339
  -0.51653   0.93330  -0.18339
  -0.27653   0.93330  -0.18339
  -0.27653   0.93330   0.05661
  -0.27653   1.17330   0.05661
  -0.27653   1.17330   0.05661
  -0.27653   0.93330   0.05661
  -0.27653   0.69330   0.05661
  -0.51653   0.45330   0.05661
  -0.51653  -0.02670   0.05661
  -0.75653  -0.74670   0.05661
  -0.75653  -1.69670   0.05661
  -0.99653  -2.41670   0.05661
  -0.99653  -3.13670   0.05661
  -1.23653  -3.85670   0.05661
  -1.23653  -4.09670   0.05661
  -1.23653  -4.33670   0.05661
  -1.23653  -4.09670   0.29661
  -1.23653  -3.61670   0.29661
  -1.23653  -3.37670   0.29661
  -1.23653  -2.65670   0.29661
  -1.23653  -1.69670   0.53661
  -0.99653  -0.97670   0.53661
  -0.99653  -0.50670   0.77661
  -0.75653  -0.02670   0.77661
  -0.75653   0.45330   0.77661
  -0.75653   0.69330   0.77661
  -0.51653   0.69330   0.77661
  -0.51653   0.69330   0.77661
  -0.51653   0.69330   0.77661
  -0.27653   0.45330   0.77661
  -0.51653   0.45330   0.77661
  -0.27653   0.45330   0.77661
  -0.27653   0.45330   0.77661
  -0.27653   0.45330   0.77661
  -0.27653   0.45330   0.77661
  -0.27653   0.45330   1.01661
  -0.03653   0.21330   1.01661
  -0.03653  -0.50670   1.01661
  -0.03653  -1.21670   0.77661
   0.20347  -1.69670   0.77661
   0.20347  -2.41670   0.77661
   0.20347  -2.89670   0.53661
   0.20347  -2.89670   0.53661
   0.20347  -2.89670   0.53661
   0.20347  -2.65670   0.29661
   0.20347  -2.17670   0.05661
   0.20347  -1.69670   0.05661
   0.20347  -1.21670   0.05661
   0.20347  -0.74670   0.05661
   0.20347  -0.50670   0.05661
   0.20347  -0.26670  -0.18339
   0.20347  -0.02670  -0.18339
   0.20347   0.21330  -0.18339
   0.44347   0.21330  -0.18339
   0.44347   0.69330  -0.42339
   0.68347   0.93330  -0.42339
   0.68347   1.41330  -0.66339
   0.68347   1.89330  -0.66339
   0.92347   2.61330  -0.90339
   0.92347   3.09330  -0.90339
   0.92347   3.57330  -1.14339
   1.16347   3.81330  -1.14339
   1.16347   4.04330  -1.14339
   1.16347   4.28330  -1.14339
   1.16347   4.52330  -1.14339
   1.16347   4.28330  -1.14339
   1.16347   4.04330  -1.14339
   0.92347   3.81330  -1.14339
   0.92347   3.33330  -1.14339
   0.92347   3.09330  -1.14339
   0.92347   2.61330  -1.14339
   0.92347   2.13330  -0.90339
   0.92347   1.65330  -0.90339
   0.92347   1.41330  -0.90339
   0.92347   1.17330  -0.90339
   0.92347   1.17330  -1.14339
   0.92347   1.17330  -0.90339
   0.92347   1.17330  -0.90339
   0.68347   1.41330  -0.90339
   0.68347   1.65330  -0.90339
   0.68347   1.89330  -0.66339
   0.68347   1.89330  -0.66339
   0.44347   2.13330  -0.66339
   0.20347   1.89330  -0.42339
   0.20347   1.65330  -0.42339
  -0.03653   1.41330  -0.18339
  -0.03653   0.69330  -0.18339
  -0.27653   0.21330   0.05661
  -0.51653  -0.50670   0.29661
  -0.51653  -1.21670   0.53661
  -0.75653  -1.93670   0.53661
  -0.75653  -2.41670   0.77661
  -0.99653  -2.89670   0.77661
  -0.99653  -3.37670   0.77661
  -0.99653  -3.61670   0.77661
  -0.99653  -4.09670   0.77661
  -0.99653  -4.09670   0.77661
  -0.99653  -4.09670   0.77661
  -0.75653  -3.61670   0.77661
  -0.75653  -3.13670   0.53661
  -0.51653  -2.41670   0.53661
  -0.51653  -1.69670   0.53661
  -0.27653  -0.97670   0.53661
  -0.27653  -0.50670   0.53661
  -0.03653  -0.26670   0.53661
  -0.03653   0.21330   0.53661
   0.20347   0.21330   0.53661
   0.20347   0.21330   0.77661
   0.20347   0.21330   0.53661
   0.20347   0.21330   0.77661
   0.20347   0.21330   0.53661
   0.20347   0.21330   0.53661
   0.20347  -0.02670   0.53661
  -0.03653  -0.50670   0.53661
  -0.03653  -0.74670   0.29661
  -0.03653  -1.45670   0.29661
  -0.03653  -1.93670   0.05661
  -0.03653  -2.41670   0.05661
  -0.03653  -3.13670   0.05661
   0.20347  -3.37670   0.05661
   0.20347  -3.85670   0.05661
   0.20347  -4.33670   0.05661
   0.20347  -4.81670   0.05661
   0.20347  -5.05670  -0.18339
   0.44347  -5.53670  -0.18339
   0.68347  -5.77670   0.05661
   0.68347  -5.77670   0.05661
   0.92347  -5.53670   0.05661
   0.92347  -4.81670   0.05661
   1.16347  -4.09670   0.05661
   1.16347  -3.13670   0.05661
   1.40347  -1.69670   0.05661
   1.40347  -0.50670  -0.18339
   1.64347   0.69330  -0.18339
   1.64347   1.89330  -0.18339
   1.88347   3.33330  -0.18339
   1.88347   4.76330  -0.18339
   2.12347   5.96330  -0.42339
   2.12347   6.92330  -0.42339
   2.12347   7.40330  -0.42339
   2.12347   7.64330  -0.18339
   2.12347   7.40330  -0.18339
   1.88347   6.92330  -0.18339
   1.64347   6.20330  -0.18339
   1.64347   5.24330   0.05661
   1.40347   4.28330   0.05661
   1.16347   3.33330   0.29661
   1.16347   2.61330   0.29661
   0.92347   1.89330   0.53661
   0.68347   1.65330   0.77661
   0.68347   1.41330   0.77661
   0.44347   1.65330   1.01661
   0.44347   1.89330   1.01661
   0.44347   2.61330   1.01661
   0.44347   3.57330   1.25661
   0.68347   4.52330   1.25661
   0.68347   5.24330   1.25661
   0.92347   5.72330   1.25661
   0.92347   5.96330   1.25661
   0.92347   5.96330   1.25661
   0.92347   5.48330   1.25661
   0.92347   5.00330   1.01661
   0.68347   4.04330   1.01661
   0.44347   3.09330   1.01661
   0.20347   2.13330   0.77661
  -0.03653   1.41330   0.77661
  -0.27653   0.69330   0.77661
  -0.51653   0.21330   0.53661
  -0.75653  -0.26670   0.53661
  -0.99653  -0.50670   0.29661
  -1.23653  -0.74670   0.29661
  -1.47653  -0.74670   0.05661
  -1.47653  -0.74670   0.05661
  -1.47653  -0.50670   0.05661
  -1.47653  -0.02670  -0.18339
  -1.23653   0.45330  -0.42339
  -1.23653   0.93330  -0.42339
  -1.23653   1.41330  -0.66339
  -1.23653   1.65330  -0.90339
  -1.23653   2.13330  -0.90339
  -1.23653   2.13330  -0.90339
  -1.23653   2.13330  -1.14339
  -1.23653   2.13330  -1.14339
  -1.47653   1.65330  -0.90339
  -1.71653   1.17330  -0.90339
  -1.95653   0.45330  -0.90339
  -2.42653  -0.26670  -0.90339
  -2.66653  -0.97670  -0.66339
  -3.14653  -1.69670  -0.66339
  -3.38653  -2.17670  -0.66339
  -3.86653  -2.89670  -0.66339
  -4.10653  -3.37670  -0.42339
  -4.58653  -3.85670  -0.18339
  -4.58653  -4.57670   0.05661
  -4.82653  -5.05670   0.29661
  -4.82653  -5.77670   0.29661
  -4.82653  -6.24670   0.53661
  -4.82653  -6.48670   0.77661
  -4.82653  -6.48670   1.01661
  -4.58653  -6.48670   1.25661
  -4.10653  -6.00670   1.25661
  -3.86653  -5.29670   1.49661
  -3.62653  -4.57670   1.73661
  -3.14653  -3.85670   1.73661
  -2.66653  -3.13670   1.73661
  -2.18653  -2.65670   1.97661
  -1.71653  -2.17670   1.73661
  -0.99653  -1.69670   1.73661
  -0.75653  -1.21670   1.73661
  -0.27653  -0.97670   1.49661
   0.20347  -0.97670   1.25661
   0.68347  -0.97670   1.25661
   0.92347  -0.97670   1.01661
   1.16347  -1.45670   0.77661
   1.64347  -1.93670   0.53661
   1.88347  -2.17670   0.29661
   2.12347  -2.65670   0.29661
   2.60347  -3.13670   0.05661
   2.84347  -3.37670   0.29661
   3.31347  -3.61670   0.29661
   3.55347  -3.61670   0.53661
   4.03347  -3.61670   0.53661
   4.03347  -3.37670   0.77661
   4.51347  -3.13670   0.77661
   4.75347  -2.65670   1.01661
   4.99347  -2.17670   1.25661
   4.99347  -1.45670   1.01661
   4.99347  -0.97670   1.25661
   4.99347  -0.02670   1.25661
   4.99347   0.69330   1.25661
   4.75347   1.65330   1.01661
   4.75347   2.37330   1.01661
   4.51347   3.09330   0.77661
   4.27347   3.57330   0.53661
   3.79347   4.04330   0.29661
   3.55347   4.04330   0.05661
   3.31347   4.04330  -0.18339
   3.07347   3.81330  -0.66339
   2.84347   3.09330  -0.66339
   2.84347   2.61330  -0.90339
   2.60347   1.89330  -1.14339
   2.36347   1.17330  -1.38339
   2.12347   0.69330  -1.62339
   1.88347   0.21330  -1.86339
   1.64347  -0.26670  -2.34339
   1.40347  -0.26670  -2.58339
   1.16347  -0.26670  -2.82339
   0.68347  -0.02670  -3.05339
   0.44347   0.45330  -3.05339
  -0.03653   0.93330  -3.29339
  -0.51653   1.65330  -3.29339
  -1.23653   2.37330  -3.29339
  -1.95653   3.09330  -3.29339
  -2.66653   3.57330  -3.29339
  -3.38653   3.81330  -3.29339
  -4.10653   4.04330  -3.05339
  -4.82653   4.04330  -3.05339
  -5.54653   4.04330  -3.05339
  -6.02653   3.81330  -3.29339
  -6.74653   3.57330  -3.05339
  -7.21653   3.09330  -3.29339
  -7.93653   2.37330  -3.29339
  -8.17653   1.89330  -3.53339
  -8.65653   1.17330  -3.77339
  -8.89653   0.93330  -3.77339
  -9.37653   0.69330  -3.77339
  -9.85653   0.45330  -4.01339
 -10.09653   0.69330  -4.01339
 -10.33653   0.69330  -4.01339
 -10.57653   1.17330  -4.01339
 -10.81653   1.41330  -4.25339
 -10.81653   1.89330  -4.25339
 -11.05653   2.37330  -4.25339
 -11.29653   2.85330  -4.01339
 -11.29653   3.33330  -4.01339
 -11.53653   3.81330  -4.01339
 -11.53653   3.81330  -3.77339
 -11.76653   4.04330  -3.53339
 -11.76653   3.81330  -3.53339
 -12.00653   3.57330  -3.29339
 -12.00653   3.09330  -3.29339
 -12.24653   2.61330  -3.05339
 -12.24653   2.13330  -2.82339
 -12.48653   1.65330  -2.58339
 -12.48653   1.17330  -2.34339
 -12.48653   0.69330  -2.34339
 -12.24653   0.21330  -2.10339
 -12.24653  -0.26670  -1.86339
 -12.00653  -0.74670  -1.62339
 -12.00653  -1.21670  -1.14339
 -11.29653  -1.21670  -0.90339
 -10.81653  -1.45670  -0.66339
 -10.33653  -1.45670  -0.18339
  -9.85653  -1.21670   0.05661
  -9.13653  -0.50670   0.29661
  -8.41653   0.21330   0.53661
  -7.69653   1.17330   0.77661
  -6.97653   2.13330   0.77661
  -6.02653   2.85330   0.77661
  -5.30653   3.57330   0.77661
  -4.34653   4.04330   1.01661
  -3.62653   3.81330   1.01661
  -2.66653   3.57330   1.01661
  -1.71653   2.85330   1.01661
  -0.99653   1.65330   0.77661
  -0.03653   0.45330   1.25661
   0.68347  -1.21670   1.25661
   1.16347  -2.65670   1.25661
   2.12347  -3.85670   1.49661
   2.60347  -5.05670   1.73661
   3.31347  -5.77670   1.73661
   4.03347  -6.00670   1.97661
   4.51347  -6.00670   1.97661
   5.23347  -5.53670   1.97661
   5.95347  -5.05670   2.20661
   6.67347  -4.33670   2.20661
   7.39347  -3.61670   2.20661
   8.34347  -2.89670   1.97661
   9.06347  -2.41670   1.97661
   9.78347  -1.93670   1.97661
  10.74347  -1.69670   1.73661
  11.46347  -1.69670   1.73661
  12.18347  -1.69670   1.73661
  12.65347  -1.93670   1.49661
  13.13347  -2.17670   1.73661
  13.61347  -2.41670   1.73661
  13.85347  -2.65670   1.73661
  14.09347  -2.89670   1.73661
  14.09347  -3.37670   1.97661
  14.09347  -3.61670   2.20661
  14.09347  -4.09670   2.44661
  14.09347  -4.57670   2.68661
  13.85347  -5.05670   2.92661
  13.85347  -5.77670   3.16661
  13.61347  -6.00670   3.40661
  13.61347  -6.24670   3.40661
  13.37347  -6.24670   3.64661
  13.13347  -6.00670   3.64661
  12.65347  -5.77670   3.64661
  12.42347  -5.29670   3.88661
  12.18347  -4.81670   3.88661
  11.94347  -4.09670   3.88661
  11.70347  -3.37670   3.88661
  11.22347  -2.65670   3.64661
  10.98347  -1.69670   3.64661
  10.50347  -0.74670   3.64661
  10.26347  -0.02670   3.16661
   9.78347   0.69330   2.92661
   9.54347   1.41330   2.68661
   9.30347   1.65330   2.20661
   8.82347   1.89330   1.49661
   8.58347   2.13330   1.01661
   8.34347   1.89330   0.29661
   7.86347   1.65330  -0.42339
   7.39347   1.41330  -0.90339
   6.91347   1.17330  -1.62339
   6.43347   0.93330  -2.34339
   5.71347   0.69330  -3.05339
   4.99347   0.45330  -3.53339
   4.51347   0.45330  -4.01339
   3.79347   0.21330  -4.49339
   3.07347   0.21330  -4.73339
   2.36347   0.21330  -4.97339
   1.64347   0.21330  -4.97339
   0.92347   0.21330  -4.97339
   0.20347   0.45330  -4.97339
  -0.51653   0.69330  -4.73339
  -1.23653   0.93330  -4.73339
  -1.71653   1.41330  -4.97339
  -2.42653   2.13330  -4.49339
  -2.90653   2.61330  -4.25339
  -3.38653   3.57330  -4.01339
  -3.86653   4.04330  -4.01339
  -4.34653   4.76330  -3.77339
  -4.58653   5.00330  -3.77339
  -5.06653   5.24330  -3.53339
  -5.54653   5.24330  -3.29339
  -5.78653   4.76330  -3.05339
  -6.26653   4.52330  -3.05339
  -6.50653   4.04330  -2.58339
  -6.97653   3.57330  -2.10339
  -7.45653   3.09330  -1.86339
  -7.69653   2.61330  -1.38339
  -7.93653   2.13330  -0.66339
  -8.65653   1.89330  -0.18339
  -8.65653   1.65330   0.53661
  -8.89653   1.41330   1.25661
  -8.89653   1.41330   1.97661
  -8.89653   1.41330   2.68661
  -8.65653   1.65330   3.16661
  -8.65653   2.13330   3.64661
  -8.41653   2.37330   4.12661
  -7.93653   2.85330   4.36661
  -7.45653   3.09330   4.60661
  -7.21653   3.09330   4.60661
  -6.50653   3.09330   4.60661
  -6.26653   3.09330   4.60661
  -5.54653   3.09330   4.60661
  -5.06653   2.85330   4.60661
  -4.82653   2.61330   4.60661
  -4.34653   2.61330   4.36661
  -3.86653   2.37330   4.36661
  -3.62653   2.13330   4.12661
  -3.38653   1.89330   4.12661
  -3.14653   1.65330   3.88661
  -2.66653   1.41330   3.64661
  -2.42653   1.17330   3.40661
  -1.95653   1.17330   3.16661
  -1.23653   0.69330   2.68661
  -0.75653   0.69330   2.20661
  -0.27653   0.45330   2.44661
   0.44347  -0.02670   1.97661
   1.16347  -0.26670   1.97661
   1.64347  -0.50670   1.97661
   2.36347  -0.97670   1.97661
   3.07347  -1.21670   1.97661
   3.55347  -1.45670   2.20661
   4.27347  -1.69670   2.44661
   4.75347  -1.69670   2.44661
   5.23347  -1.69670   2.92661
   5.71347  -1.69670   3.16661
   5.95347  -1.45670   3.16661
   6.43347  -1.21670   3.40661
   6.67347  -1.21670   3.40661
   6.91347  -0.74670   3.64661
   6.91347  -0.50670   3.64661
   6.91347  -0.02670   3.64661
   7.15347   0.21330   3.64661
   7.15347   0.45330   3.64661
   7.15347   0.69330   3.64661
   7.15347   0.69330   3.64661
   7.39347   0.69330   3.88661
   7.15347   0.69330   4.12661
   7.15347   0.69330   4.36661
   7.39347   0.45330   4.60661
   7.39347   0.21330   5.08661
   7.39347  -0.26670   5.32661
   7.63347  -0.50670   5.80661
   7.86347  -0.74670   6.04661
   7.86347  -1.21670   6.28661
   8.10347  -1.45670   6.52661
   8.34347  -1.69670   6.52661
   8.58347  -1.93670   6.28661
   8.82347  -2.41670   6.04661
   8.82347  -2.65670   5.32661
   9.06347  -2.89670   4.84661
   9.06347  -3.13670   3.88661
   9.06347  -3.61670   3.16661
   9.06347  -3.61670   2.44661
   8.82347  -4.09670   1.49661
   8.58347  -4.09670   0.53661
   8.34347  -4.09670  -0.42339
   8.10347  -4.33670  -0.90339
   7.86347  -4.33670  -1.62339
   7.39347  -4.33670  -2.34339
   6.91347  -4.33670  -2.82339
   6.43347  -4.33670  -3.29339
   6.19347  -4.09670  -3.77339
   5.71347  -4.09670  -4.25339
   5.47347  -3.85670  -4.73339
   5.23347  -3.61670  -5.21339
   4.99347  -3.61670  -5.93339
   4.99347  -3.13670  -6.65339
   4.99347  -2.65670  -7.37339
   4.99347  -2.17670  -8.08339
   4.75347  -1.69670  -8.80339
   4.75347  -0.97670  -9.52339
   4.51347  -0.50670 -10.00339
   4.51347  -0.02670 -10.48339
   4.03347   0.21330 -10.72339
   3.55347   0.45330 -10.96339
   3.31347   0.45330 -10.96339
   2.60347   0.21330 -10.72339
   1.88347  -0.02670 -10.48339
   1.16347  -0.26670  -9.76339
   0.20347  -0.74670  -9.28339
  -0.75653  -1.21670  -8.56339
