********************************************************************************
               CENTRO DE INSTRUMENTACION Y REGISTRO SISMICO  A.C.  
                       Coordinacion de Servicios Tecnicos
     Anaxagoras 814, Col. Narvarte, Benito Juarez, C.P. 03020 Mexico, D.F.
            Tels. 667 45 42/ 687 45  82             Fax. 669 25 12
********************************************************************************
ARCHIVO ESTANDAR DE ACELERACION:
VERSION DEL FORMATO                    : 2.0
NOMBRE DEL ARCHIVO                     : AU110201.161
FECHA Y HORA DE CREACION               : 08/JUL/04, 09:05
REF. CATALOGO ACELEROGRAMAS, SMIS 1996 : REGISTRO No.     /PAG.


================================================================================
DATOS DE LA ESTACION:
NOMBRE DE LA ESTACION                  : AUTODROMO
CLAVE DE LA ESTACION                   : AU11
LOCALIZACION DE LA ESTACION            : AUTODROMO HERMANOS RODRIGUEZ,
                                       : CHURUBUSCO, CD. DEPORTIVA
                                       :
                                       :
                                       :
COORDENADAS DE LA ESTACION             : 19.392 LAT. N 
                                       : 99.087 LONG. W 
ALTITUD (msnm)                         : 2234
TIPO DE SUELO                          : TERRENO BLANDO, MATERIAL COMPRESIBLE
                                       : (ARCILLAS)
                                       : 
INSTITUCION RESPONSABLE                : CIRES 
                                       :

================================================================================
DATOS DEL ACELEROGRAFO:
MODELO DEL ACELEROGRAFO                : SSA-1
NUMERO DE SERIE DEL ACELEROGRAFO       : 157
NUMERO DE CANALES                      : 3
ORIENTACION C1-C6 (rumbo;orientacion)  : /N00E/+V/N90E
ORIENTACION C7-C12 (rumbo;orientacion) :
VEL. DE MUESTREO, C1-C6 (muestras/s)   : /200/200/200
VEL. DE MUESTREO, C7-C12 (muestras/s)  :
ESC. COMPLETA DE SENSORES, C1-C6, (g)  : /2/2/2
ESC. COMPLETA DE SENSORES, C7-C12, (g) :
FREC. NAT. DE SENSORES, C1-C6, (Hz)    : /51.77/52.56/52.29
FREC. NAT. DE SENSORES, C7-C12, (Hz)   :
AMORTIGUAMIENTO DE SENSORES, C1-C6     : /.5912/.6083/.6067
AMORTIGUAMIENTO DE SENSORES, C7-C12    :
INTERVALO DE MUESTREO, C1-C6, (s)      : /0.005/0.005/0.005
INTERVALO DE MUESTREO, C7-C12, (s)     :
UMBRAL DE DISPARO, C1-C6, (Gal)        : /2/2/2
UMBRAL DE DISPARO, C7-C12, (Gal)       :
MEMORIA DE PREEVENTO (s)               : 15
TIEMPO DE POSEVENTO (s)                : 60


================================================================================
DATOS DEL SISMO:
FECHA DEL SISMO (GMT)                  : 16/ENE/02
HORA EPICENTRO (GMT)                   : 23:09:55,0
MAGNITUD(ES)                           : /Mb=0.0/Ms=0.0/Mc=6.7/Ma=0.0/Me=0.0
COORDENADAS DEL EPICENTRO              : 15.43 LAT. N
                                       : 93.55 LONG. W
PROFUNDIDAD FOCAL (km)                 : 76
FUENTE DE LOS DATOS EPICENTRALES       : SSN
                                       : INSTITUTO DE GEOFISICA, UNAM 

================================================================================
DATOS DE ESTE REGISTRO:
HORA DE LA PRIMERA MUESTRA (GMT)       : 23:13:28.00
EXACTITUD DEL TIEMPO (s)               :     
DURACION DEL REGISTRO (s), C1-C6       : /143.36/143.36/143.36
DURACION DEL REGISTRO (s), C7-C12      :
NUM. TOTAL DE MUESTRAS, C1-C6          : /28672/28672/28672
NUM. TOTAL DE MUESTRAS, C7-C12         :
ACEL. MAX. (Gal), C1-C6                : /-2.16744/-0.81781/2.12559
ACEL. MAX., C1-C6, EN LA MUESTRA       :
ACEL. MAX. (Gal), C7-C12               :
ACEL. MAX., C7-C12, EN LA MUESTRA      :
UNIDADES DE LOS DATOS                  : Gal (cm/s/s)
FACTOR DE DECIMACION                   : 1
FORMATO DATOS (FORTRAN,10 campos/dato) : 3F10.5


================================================================================
CALIDAD DEL ACELEROGRAMA:
REGISTRO DIGITAL COMPLETO, CARECE DE TIEMPO ABSOLUTO.


================================================================================
COMENTARIOS:














================================================================================
DATOS DE ACELERACION:
---------+---------+---------+---------+---------+---------+---------+---------+
   CANAL-1   CANAL-2   CANAL-3   CANAL-4   CANAL-5   CANAL-6   CANAL-7   CANAL-8
      N00E        +V      N90E
---------+---------+---------+---------+---------+---------+---------+---------+
[...]
  -0.01744   0.14219  -0.98441
  -0.25744   0.14219  -0.98441
  -0.01744   0.14219  -0.98441
  -0.25744   0.14219  -0.98441
  -0.25744   0.14219  -0.98441
  -0.25744   0.14219  -0.98441
  -0.25744   0.14219  -0.98441
  -0.25744   0.14219  -0.74441
  -0.25744   0.14219  -0.74441
  -0.25744   0.14219  -0.74441
  -0.25744   0.14219  -0.74441
  -0.25744   0.14219  -0.74441
  -0.25744   0.14219  -0.74441
  -0.25744   0.14219  -0.74441
  -0.25744   0.14219  -0.74441
  -0.49744   0.14219  -0.74441
  -0.25744   0.14219  -0.74441
  -0.25744   0.14219  -0.74441
  -0.49744   0.14219  -0.74441
  -0.01744   0.14219  -0.74441
  -0.25744   0.14219  -0.74441
  -0.01744   0.14219  -0.74441
  -0.01744   0.14219  -0.50441
  -0.25744   0.14219  -0.74441
  -0.25744   0.14219  -0.50441
  -0.25744   0.14219  -0.50441
  -0.25744   0.14219  -0.50441
  -0.01744   0.14219  -0.26441
  -0.25744   0.14219  -0.50441
  -0.25744   0.38219  -0.26441
  -0.01744  -0.09781  -0.50441
  -0.01744   0.14219  -0.50441
  -0.01744   0.14219  -0.26441
  -0.01744   0.14219  -0.50441
  -0.01744   0.14219  -0.26441
  -0.01744   0.14219  -0.26441
  -0.01744   0.14219  -0.50441
  -0.01744   0.14219  -0.26441
  -0.01744   0.14219  -0.26441
  -0.01744   0.14219  -0.26441
  -0.01744   0.14219  -0.26441
  -0.01744   0.14219  -0.26441
  -0.01744   0.14219  -0.26441
  -0.01744   0.14219  -0.26441
  -0.01744   0.14219  -0.26441
  -0.01744   0.14219  -0.26441
  -0.01744   0.14219  -0.26441
  -0.01744   0.14219  -0.26441
  -0.01744   0.14219  -0.02441
  -0.01744   0.14219  -0.02441
  -0.01744   0.14219  -0.26441
  -0.01744   0.14219  -0.26441
  -0.01744   0.14219  -0.26441
  -0.01744   0.14219  -0.02441
  -0.01744   0.14219  -0.02441
  -0.01744   0.14219  -0.02441
  -0.25744   0.14219  -0.02441
  -0.01744   0.14219  -0.02441
  -0.01744   0.14219  -0.02441
  -0.25744   0.14219  -0.02441
  -0.01744   0.14219  -0.02441
  -0.01744   0.14219  -0.02441
  -0.01744   0.38219  -0.02441
  -0.25744   0.14219   0.21559
  -0.01744   0.14219  -0.02441
  -0.25744   0.14219  -0.02441
  -0.25744   0.14219   0.21559
  -0.25744   0.14219  -0.02441
  -0.25744   0.14219   0.21559
  -0.25744   0.14219  -0.02441
  -0.25744   0.14219   0.21559
  -0.01744   0.14219  -0.02441
  -0.25744   0.14219   0.21559
  -0.49744   0.14219   0.21559
  -0.25744   0.14219   0.21559
  -0.25744   0.14219  -0.02441
  -0.25744   0.14219  -0.02441
  -0.25744   0.14219   0.21559
  -0.49744   0.14219  -0.02441
  -0.25744   0.14219   0.21559
  -0.49744   0.14219  -0.02441
  -0.25744   0.14219   0.21559
  -0.49744   0.14219  -0.02441
  -0.49744   0.14219  -0.02441
  -0.25744   0.14219   0.21559
  -0.25744  -0.09781   0.21559
  -0.49744   0.14219   0.21559
  -0.49744   0.14219  -0.02441
  -0.49744   0.14219   0.21559
  -0.49744   0.14219   0.21559
  -0.49744   0.14219   0.21559
  -0.49744   0.14219   0.21559
  -0.49744   0.14219   0.21559
  -0.49744   0.14219  -0.02441
  -0.49744   0.14219  -0.02441
  -0.49744   0.14219   0.21559
  -0.49744   0.14219   0.21559
  -0.72744   0.14219   0.21559
  -0.49744   0.14219   0.21559
  -0.49744  -0.09781  -0.02441
  -0.72744   0.14219   0.21559
  -0.72744  -0.09781   0.21559
  -0.72744  -0.09781   0.21559
  -0.72744   0.14219   0.21559
  -0.49744   0.14219   0.21559
  -0.49744  -0.09781   0.21559
  -0.72744   0.14219   0.21559
  -0.49744   0.14219   0.21559
  -0.72744   0.14219   0.21559
  -0.49744  -0.09781   0.21559
  -0.49744  -0.09781   0.21559
  -0.49744  -0.09781   0.21559
  -0.49744  -0.09781   0.21559
  -0.49744  -0.09781   0.21559
  -0.49744  -0.09781   0.21559
  -0.25744  -0.33781   0.21559
  -0.49744  -0.09781   0.21559
  -0.49744  -0.09781   0.21559
  -0.25744  -0.09781   0.21559
  -0.49744  -0.09781   0.21559
  -0.49744   0.14219   0.21559
  -0.49744   0.14219   0.21559
  -0.25744  -0.09781   0.21559
  -0.25744   0.14219   0.45559
  -0.25744   0.14219   0.21559
  -0.25744  -0.09781   0.21559
  -0.25744  -0.09781   0.21559
  -0.25744  -0.09781   0.21559
  -0.25744  -0.09781   0.21559
  -0.01744  -0.09781   0.21559
  -0.25744  -0.09781   0.21559
  -0.25744  -0.09781   0.21559
  -0.01744  -0.09781   0.21559
  -0.01744  -0.09781   0.21559
  -0.25744  -0.09781   0.45559
  -0.01744  -0.09781   0.21559
  -0.01744  -0.09781   0.45559
  -0.01744  -0.09781   0.21559
  -0.01744   0.14219   0.45559
  -0.01744  -0.09781   0.45559
  -0.01744  -0.09781   0.45559
  -0.01744  -0.09781   0.21559
   0.22256  -0.09781   0.45559
   0.22256  -0.09781   0.45559
   0.22256  -0.09781   0.45559
   0.22256  -0.09781   0.45559
   0.22256  -0.09781   0.69559
   0.22256  -0.09781   0.45559
   0.22256  -0.09781   0.45559
   0.22256  -0.09781   0.45559
   0.22256  -0.09781   0.45559
   0.22256  -0.09781   0.45559
   0.22256  -0.09781   0.45559
   0.46256  -0.09781   0.45559
   0.46256  -0.33781   0.45559
   0.46256  -0.33781   0.45559
   0.46256  -0.33781   0.45559
   0.46256  -0.09781   0.45559
   0.46256  -0.09781   0.45559
   0.46256  -0.33781   0.45559
   0.46256  -0.33781   0.45559
   0.46256  -0.33781   0.45559
   0.70256  -0.33781   0.45559
   0.46256  -0.09781   0.45559
   0.70256  -0.33781   0.45559
   0.70256  -0.33781   0.45559
   0.70256  -0.33781   0.45559
   0.70256  -0.33781   0.45559
   0.70256  -0.33781   0.45559
   0.94256  -0.33781   0.45559
   0.70256  -0.09781   0.45559
   0.70256  -0.09781   0.45559
   0.94256  -0.33781   0.45559
   0.70256  -0.33781   0.45559
   0.94256  -0.33781   0.45559
   0.94256  -0.33781   0.45559
   0.94256  -0.33781   0.45559
   0.94256  -0.33781   0.45559
   0.94256  -0.33781   0.69559
   0.94256  -0.33781   0.69559
   0.94256  -0.09781   0.45559
   0.94256  -0.09781   0.69559
   0.94256  -0.33781   0.45559
   0.94256  -0.09781   0.69559
   0.94256  -0.33781   0.45559
   0.94256  -0.33781   0.45559
   0.94256  -0.09781   0.45559
   1.18256  -0.33781   0.45559
   0.94256  -0.33781   0.45559
   1.18256  -0.09781   0.45559
   0.94256  -0.33781   0.45559
   0.94256  -0.09781   0.69559
   0.94256  -0.09781   0.45559
   0.94256  -0.33781   0.69559
   0.94256  -0.33781   0.45559
   0.94256  -0.33781   0.45559
   0.94256  -0.33781   0.69559
   0.94256  -0.09781   0.69559
   0.94256  -0.09781   0.69559
   0.94256  -0.09781   0.45559
   0.94256  -0.09781   0.69559
   0.94256  -0.09781   0.45559
   0.94256  -0.09781   0.45559
   0.94256  -0.09781   0.45559
   0.94256  -0.33781   0.45559
   0.94256  -0.09781   0.45559
   0.94256  -0.09781   0.45559
   0.94256  -0.33781   0.45559
   0.94256  -0.09781   0.45559
   0.94256  -0.09781   0.45559
   0.70256  -0.09781   0.45559
   0.94256  -0.09781   0.45559
   0.70256  -0.09781   0.45559
   0.94256  -0.09781   0.45559
   0.70256  -0.33781   0.45559
   0.94256  -0.09781   0.45559
   0.94256  -0.09781   0.45559
   0.70256  -0.09781   0.45559
   0.70256  -0.09781   0.45559
   0.70256  -0.09781   0.45559
   0.94256  -0.09781   0.21559
   0.70256  -0.09781   0.45559
   0.70256  -0.09781   0.21559
   0.70256  -0.09781   0.69559
   0.70256  -0.09781   0.45559
   0.70256  -0.09781   0.45559
   0.70256  -0.09781   0.45559
   0.70256  -0.09781   0.45559
   0.46256  -0.09781   0.45559
   0.22256  -0.09781   0.45559
   0.70256  -0.09781   0.45559
   0.46256  -0.09781   0.45559
   0.46256  -0.09781   0.45559
   0.46256  -0.09781   0.45559
   0.46256  -0.09781   0.45559
   0.22256  -0.09781   0.45559
   0.46256  -0.09781   0.45559
   0.46256  -0.33781   0.21559
   0.22256  -0.09781   0.45559
   0.22256  -0.09781   0.45559
   0.22256  -0.09781   0.45559
   0.22256  -0.09781   0.69559
   0.22256  -0.09781   0.45559
  -0.01744   0.14219   0.45559
   0.22256  -0.09781   0.45559
   0.22256  -0.09781   0.45559
   0.22256  -0.09781   0.45559
   0.22256  -0.09781   0.45559
  -0.01744   0.14219   0.45559
  -0.01744  -0.09781   0.45559
  -0.01744  -0.09781   0.45559
  -0.01744  -0.09781   0.45559
  -0.01744  -0.09781   0.45559
  -0.01744  -0.09781   0.45559
  -0.01744  -0.09781   0.45559
  -0.01744  -0.09781   0.69559
  -0.49744  -0.09781   0.45559
  -0.25744   0.14219   0.69559
  -0.25744  -0.09781   0.69559
  -0.25744  -0.09781   0.69559
  -0.49744  -0.09781   0.69559
  -0.25744  -0.09781   0.69559
  -0.49744   0.14219   0.69559
  -0.25744  -0.09781   0.69559
  -0.25744  -0.09781   0.69559
  -0.49744  -0.09781   0.69559
  -0.25744  -0.09781   0.69559
  -0.49744  -0.09781   0.69559
  -0.49744  -0.09781   0.69559
  -0.49744  -0.09781   0.69559
  -0.49744  -0.09781   0.69559
  -0.49744  -0.09781   0.69559
  -0.49744  -0.33781   0.69559
  -0.49744   0.14219   0.69559
  -0.49744  -0.09781   0.93559
  -0.49744   0.14219   0.93559
  -0.72744   0.14219   0.93559
  -0.49744   0.14219   0.93559
  -0.72744   0.14219   0.93559
  -0.72744   0.14219   0.93559
  -0.72744  -0.09781   0.93559
  -0.49744  -0.09781   0.93559
  -0.49744  -0.09781   0.93559
  -0.72744  -0.09781   0.93559
  -0.72744   0.14219   0.93559
  -0.49744  -0.09781   0.93559
  -0.72744   0.14219   0.93559
  -0.72744  -0.09781   0.93559
  -0.72744  -0.09781   0.93559
  -0.72744  -0.09781   1.17559
  -0.72744   0.14219   1.17559
  -0.49744  -0.09781   0.69559
  -0.72744  -0.09781   0.93559
  -0.72744   0.14219   0.93559
  -0.72744  -0.09781   1.17559
  -0.72744  -0.09781   1.17559
  -0.72744  -0.09781   0.93559
  -0.49744  -0.09781   1.17559
  -0.49744  -0.09781   1.17559
  -0.72744  -0.09781   1.17559
  -0.49744  -0.09781   1.17559
  -0.72744  -0.09781   1.17559
  -0.49744  -0.09781   1.17559
  -0.72744  -0.09781   1.41559
  -0.49744  -0.09781   1.17559
  -0.72744   0.14219   1.41559
  -0.72744  -0.09781   1.17559
  -0.72744   0.14219   1.41559
  -0.49744   0.14219   1.17559
  -0.49744  -0.09781   1.17559
  -0.49744  -0.09781   1.41559
  -0.49744  -0.09781   1.41559
  -0.49744  -0.09781   1.41559
  -0.49744  -0.09781   1.41559
  -0.49744  -0.09781   1.17559
  -0.72744   0.14219   1.41559
  -0.49744   0.14219   1.41559
  -0.49744  -0.09781   1.41559
  -0.49744  -0.09781   1.41559
  -0.49744  -0.09781   1.41559
  -0.72744   0.14219   1.65559
  -0.49744  -0.09781   1.41559
  -0.49744   0.14219   1.41559
  -0.49744   0.14219   1.65559
  -0.49744   0.14219   1.65559
  -0.25744  -0.09781   1.65559
  -0.49744   0.14219   1.65559
  -0.25744   0.14219   1.65559
  -0.25744  -0.09781   1.65559
  -0.25744  -0.09781   1.65559
  -0.49744   0.14219   1.65559
  -0.25744  -0.09781   1.65559
  -0.25744  -0.09781   1.65559
  -0.25744   0.14219   1.65559
  -0.25744   0.14219   1.65559
  -0.25744   0.14219   1.65559
  -0.25744   0.14219   1.89559
  -0.25744   0.14219   1.89559
  -0.25744   0.14219   1.89559
  -0.25744   0.14219   1.89559
  -0.25744   0.14219   1.65559
  -0.01744   0.14219   1.89559
  -0.25744   0.14219   1.89559
  -0.25744   0.14219   1.89559
  -0.25744   0.14219   1.89559
  -0.25744   0.14219   1.89559
  -0.01744   0.14219   1.89559
  -0.25744   0.14219   1.89559
  -0.01744   0.14219   1.89559
  -0.25744   0.14219   2.12559
  -0.25744   0.14219   1.89559
  -0.25744   0.14219   2.12559
  -0.01744   0.14219   1.89559
  -0.01744   0.14219   1.89559
  -0.01744   0.14219   2.12559
  -0.01744  -0.09781   1.89559
  -0.01744   0.14219   2.12559
  -0.01744   0.14219   2.12559
  -0.01744   0.14219   2.12559
   0.22256  -0.09781   1.89559
   0.22256   0.14219   1.89559
  -0.01744   0.14219   2.12559
  -0.01744   0.14219   2.12559
   0.22256   0.14219   2.12559
   0.22256   0.14219   2.12559
   0.22256   0.14219   2.12559
   0.22256   0.14219   2.12559
   0.22256   0.14219   2.12559
   0.22256   0.14219   2.12559
   0.22256   0.14219   1.89559
   0.22256   0.14219   2.12559
   0.22256   0.14219   1.89559
   0.46256   0.14219   1.89559
   0.22256   0.14219   2.12559
   0.22256   0.14219   1.89559
   0.22256   0.14219   1.89559
   0.46256   0.14219   1.89559
   0.46256   0.14219   1.89559
   0.22256   0.14219   1.89559
   0.46256   0.14219   1.89559
   0.46256   0.14219   1.89559
   0.22256   0.14219   1.89559
   0.46256   0.14219   1.89559
   0.22256   0.14219   1.89559
   0.46256   0.14219   1.89559
   0.46256   0.14219   1.89559
   0.46256   0.14219   1.65559
   0.46256   0.14219   1.65559
   0.46256   0.14219   1.89559
   0.46256   0.14219   1.65559
   0.70256   0.14219   1.65559
   0.46256   0.14219   1.89559
   0.46256   0.14219   1.65559
   0.46256   0.14219   1.89559
   0.46256   0.14219   1.65559
   0.46256   0.14219   1.65559
   0.46256   0.14219   1.65559
   0.46256   0.14219   1.65559
   0.46256   0.14219   1.65559
   0.70256   0.14219   1.65559
   0.70256   0.14219   1.65559
   0.70256   0.14219   1.65559
   0.46256   0.14219   1.65559
   0.70256   0.14219   1.41559
   0.70256   0.14219   1.41559
   0.70256   0.14219   1.41559
   0.70256   0.14219   1.41559
   0.70256   0.14219   1.41559
   0.70256   0.14219   1.41559
   0.70256   0.14219   1.17559
   0.70256   0.14219   1.41559
   0.70256   0.14219   1.41559
   0.70256   0.14219   1.17559
   0.70256  -0.09781   1.17559
   0.70256   0.14219   1.17559
   0.70256   0.14219   1.17559
   0.70256   0.14219   1.17559
   0.70256   0.14219   1.17559
   0.70256   0.14219   1.17559
   0.70256   0.14219   0.93559
   0.94256   0.14219   1.17559
   0.70256   0.14219   1.17559
   0.70256   0.14219   1.17559
   0.94256   0.14219   0.93559
   0.94256   0.14219   0.93559
   0.94256  -0.09781   0.93559
   0.94256  -0.09781   0.93559
   0.94256  -0.09781   0.93559
   0.94256   0.14219   0.93559
   0.94256   0.14219   0.93559
   1.18256   0.14219   0.93559
   0.94256   0.14219   0.93559
   0.94256   0.14219   0.69559
   0.94256   0.14219   0.69559
   0.94256   0.14219   0.69559
   0.94256   0.14219   0.69559
   0.94256   0.14219   0.69559
   0.94256   0.14219   0.69559
   0.94256   0.14219   0.69559
   0.94256   0.14219   0.69559
   0.94256  -0.09781   0.69559
   0.94256  -0.09781   0.45559
   0.70256   0.14219   0.69559
   0.94256   0.14219   0.69559
   0.94256  -0.09781   0.69559
   0.94256   0.14219   0.69559
   0.94256  -0.09781   0.69559
   0.94256  -0.09781   0.69559
   0.94256  -0.09781   0.69559
   0.94256   0.14219   0.45559
   0.94256   0.14219   0.45559
   1.18256   0.14219   0.45559
   0.94256  -0.09781   0.45559
   0.94256   0.14219   0.45559
   0.94256   0.14219   0.21559
   0.94256  -0.09781   0.45559
   0.94256   0.14219   0.45559
   0.94256   0.14219   0.45559
   0.94256  -0.09781   0.45559
   0.94256  -0.09781   0.45559
   0.94256  -0.09781   0.45559
   0.94256   0.14219   0.21559
   0.94256  -0.09781   0.45559
   0.94256   0.14219   0.45559
   0.94256   0.14219   0.45559
   0.94256   0.14219   0.21559
   0.94256   0.14219   0.21559
   0.94256   0.14219   0.45559
   0.94256  -0.09781   0.21559
   0.94256  -0.09781   0.21559
   0.94256  -0.09781   0.21559
   0.70256   0.14219   0.21559
   0.94256  -0.09781   0.21559
   0.70256  -0.09781   0.21559
   0.94256   0.14219   0.21559
   0.70256   0.14219   0.21559
   0.70256  -0.09781   0.21559
   0.94256   0.14219   0.21559
   0.94256   0.14219   0.21559
   0.70256   0.14219   0.21559
   0.94256   0.14219   0.21559
   0.94256   0.14219   0.21559
   0.70256   0.14219  -0.02441
   0.70256   0.14219   0.21559
   0.70256   0.14219  -0.02441
   0.70256  -0.09781   0.21559
   0.70256  -0.09781  -0.02441
   0.70256  -0.09781  -0.26441
   0.70256   0.14219  -0.02441
   0.70256  -0.09781  -0.02441
   0.70256   0.14219  -0.02441
   0.70256   0.14219  -0.02441
   0.70256   0.14219  -0.02441
   0.70256   0.14219   0.21559
   0.94256   0.14219  -0.26441
   0.70256   0.14219  -0.02441
   0.70256   0.14219  -0.02441
   0.70256   0.14219  -0.02441
   0.70256   0.14219  -0.02441
