********************************************************************************
               CENTRO DE INSTRUMENTACION Y REGISTRO SISMICO  A.C.  
                       Coordinacion de Servicios Tecnicos
     Anaxagoras 814, Col. Narvarte, Benito Juarez, C.P. 03020 Mexico, D.F.
            Tels. 667 45 42/ 687 45  82             Fax. 669 25 12
********************************************************************************
ARCHIVO ESTANDAR DE ACELERACION:
VERSION DEL FORMATO                    : 2.0
NOMBRE DEL ARCHIVO                     : AU110008.091
FECHA Y HORA DE CREACION               : 02/JUN/04, 12:18
REF. CATALOGO ACELEROGRAMAS, SMIS 1996 : REGISTRO No.     /PAG.


================================================================================
DATOS DE LA ESTACION:
NOMBRE DE LA ESTACION                  : AUTODROMO
CLAVE DE LA ESTACION                   : AU11
LOCALIZACION DE LA ESTACION            : AUTODROMO HERMANOS RODRIGUEZ,
                                       : CHURUBUSCO, CD. DEPORTIVA
                                       :
                                       :
                                       :
COORDENADAS DE LA ESTACION             : 19.392 LAT. N 
                                       : 99.087 LONG. W 
ALTITUD (msnm)                         : 2234
TIPO DE SUELO                          : TERRENO BLANDO, MATERIAL COMPRESIBLE
                                       : (ARCILLAS)
                                       : 
INSTITUCION RESPONSABLE                : CIRES 
                                       :

================================================================================
DATOS DEL ACELEROGRAFO:
MODELO DEL ACELEROGRAFO                : SSA-1
NUMERO DE SERIE DEL ACELEROGRAFO       : 157
NUMERO DE CANALES                      : 3
ORIENTACION C1-C6 (rumbo;orientacion)  : /N00E/+V/N90E
ORIENTACION C7-C12 (rumbo;orientacion) :
VEL. DE MUESTREO, C1-C6 (muestras/s)   : /200/200/200
VEL. DE MUESTREO, C7-C12 (muestras/s)  :
ESC. COMPLETA DE SENSORES, C1-C6, (g)  : /2/2/2
ESC. COMPLETA DE SENSORES, C7-C12, (g) :
FREC. NAT. DE SENSORES, C1-C6, (Hz)    : /51.77/52.56/52.29
FREC. NAT. DE SENSORES, C7-C12, (Hz)   :
AMORTIGUAMIENTO DE SENSORES, C1-C6     : /.5912/.6083/.6067
AMORTIGUAMIENTO DE SENSORES, C7-C12    :
INTERVALO DE MUESTREO, C1-C6, (s)      : /0.005/0.005/0.005
INTERVALO DE MUESTREO, C7-C12, (s)     :
UMBRAL DE DISPARO, C1-C6, (Gal)        : /2/2/2
UMBRAL DE DISPARO, C7-C12, (Gal)       :
MEMORIA DE PREEVENTO (s)               : 15
TIEMPO DE POSEVENTO (s)                : 60


================================================================================
DATOS DEL SISMO:
FECHA DEL SISMO (GMT)                  : 09/AGO/00
HORA EPICENTRO (GMT)                   : 11:41:47:7
MAGNITUD(ES)                           : /Mb=6.1/Ms=6.5/Mc=0.0/Ma=6.5/Me=7.0
COORDENADAS DEL EPICENTRO              : 17.99 LAT. N
                                       : 102.66 LONG. W
PROFUNDIDAD FOCAL (km)                 : 16.0
FUENTE DE LOS DATOS EPICENTRALES       : SSN
                                       : INSTITUTO DE GEOFISICA, UNAM

================================================================================
DATOS DE ESTE REGISTRO:
HORA DE LA PRIMERA MUESTRA (GMT)       : 11:43:24.00
EXACTITUD DEL TIEMPO (s)               :     
DURACION DEL REGISTRO (s), C1-C6       : /317.44/317.44/317.44
DURACION DEL REGISTRO (s), C7-C12      :
NUM. TOTAL DE MUESTRAS, C1-C6          : /63488/63488/63488
NUM. TOTAL DE MUESTRAS, C7-C12         :
ACEL. MAX. (Gal), C1-C6                : /-15.47128/2.56763/10.68045
ACEL. MAX., C1-C6, EN LA MUESTRA       :
ACEL. MAX. (Gal), C7-C12               :
ACEL. MAX., C7-C12, EN LA MUESTRA      :
UNIDADES DE LOS DATOS                  : Gal (cm/s/s)
FACTOR DE DECIMACION                   : 1
FORMATO DATOS (FORTRAN,10 campos/dato) : 3F10.5


================================================================================
CALIDAD DEL ACELEROGRAMA:
REGISTRO DIGITAL COMPLETO, CARECE DE TIEMPO ABSOLUTO.


================================================================================
COMENTARIOS:














================================================================================
DATOS DE ACELERACION:
---------+---------+---------+---------+---------+---------+---------+---------+
   CANAL-1   CANAL-2   CANAL-3   CANAL-4   CANAL-5   CANAL-6   CANAL-7   CANAL-8
      N00E        +V      N90E
---------+---------+---------+---------+---------+---------+---------+---------+
[...]
   5.36872  -1.02237  -7.04955
   5.12872  -1.02237  -7.04955
   5.12872  -1.02237  -7.04955
   4.88872  -1.02237  -7.28955
   4.64872  -1.02237  -7.28955
   4.40872  -1.02237  -7.28955
   4.16872  -1.02237  -7.28955
   3.92872  -1.02237  -7.28955
   3.92872  -1.02237  -7.28955
   3.68872  -1.02237  -7.51955
   3.45872  -1.02237  -7.51955
   3.21872  -1.02237  -7.28955
   2.97872  -1.02237  -7.28955
   2.97872  -1.02237  -7.51955
   2.73872  -1.02237  -7.51955
   2.49872  -1.02237  -7.28955
   2.25872  -1.02237  -7.28955
   2.25872  -1.02237  -7.51955
   2.01872  -1.02237  -7.28955
   2.01872  -1.02237  -7.28955
   1.77872  -1.02237  -7.28955
   1.53872  -1.02237  -7.28955
   1.53872  -1.02237  -7.28955
   1.29872  -0.78237  -7.28955
   1.29872  -1.02237  -7.28955
   1.05872  -1.02237  -7.04955
   1.05872  -0.78237  -7.28955
   0.81872  -0.78237  -7.04955
   0.81872  -0.78237  -7.04955
   0.81872  -0.78237  -7.04955
   0.57872  -0.78237  -6.80955
   0.57872  -0.78237  -6.80955
   0.57872  -0.78237  -6.80955
   0.33872  -0.78237  -6.80955
   0.33872  -0.78237  -6.80955
   0.33872  -0.78237  -6.56955
   0.33872  -0.78237  -6.56955
   0.33872  -0.78237  -6.56955
   0.09872  -0.78237  -6.56955
   0.09872  -0.78237  -6.56955
   0.09872  -0.78237  -6.32955
   0.09872  -0.78237  -6.32955
   0.09872  -0.54237  -6.32955
   0.09872  -0.78237  -6.32955
   0.09872  -0.54237  -6.32955
   0.09872  -0.54237  -6.08955
   0.09872  -0.54237  -6.08955
   0.09872  -0.54237  -6.08955
   0.09872  -0.54237  -6.08955
   0.09872  -0.54237  -6.08955
   0.09872  -0.31237  -6.08955
   0.33872  -0.31237  -5.84955
   0.33872  -0.31237  -5.84955
   0.33872  -0.31237  -5.84955
   0.33872  -0.31237  -5.84955
   0.33872  -0.31237  -5.84955
   0.33872  -0.31237  -5.84955
   0.57872  -0.31237  -5.60955
   0.57872  -0.31237  -5.60955
   0.57872  -0.31237  -5.60955
   0.57872  -0.31237  -5.60955
   0.81872  -0.31237  -5.60955
   0.81872  -0.07237  -5.60955
   0.81872  -0.07237  -5.60955
   0.81872  -0.07237  -5.36955
   0.81872  -0.07237  -5.36955
   0.81872  -0.07237  -5.36955
   1.05872  -0.07237  -5.36955
   1.05872  -0.31237  -5.36955
   1.05872  -0.07237  -5.36955
   1.05872  -0.07237  -5.36955
   1.05872  -0.07237  -5.12955
   1.29872  -0.07237  -5.12955
   1.29872  -0.07237  -5.12955
   1.29872  -0.07237  -5.12955
   1.29872  -0.07237  -5.12955
   1.29872  -0.07237  -5.12955
   1.29872  -0.07237  -5.12955
   1.29872  -0.07237  -5.12955
   1.29872  -0.07237  -4.88955
   1.29872  -0.07237  -4.88955
   1.29872  -0.07237  -4.88955
   1.29872  -0.07237  -4.88955
   1.29872  -0.07237  -4.64955
   1.29872  -0.07237  -4.64955
   1.29872  -0.07237  -4.64955
   1.29872  -0.07237  -4.64955
   1.29872  -0.07237  -4.64955
   1.29872  -0.07237  -4.64955
   1.29872  -0.07237  -4.64955
   1.29872  -0.07237  -4.40955
   1.29872  -0.07237  -4.40955
   1.29872  -0.07237  -4.40955
   1.29872   0.16763  -4.40955
   1.29872   0.16763  -4.40955
   1.05872   0.16763  -4.40955
   1.05872   0.16763  -4.40955
   1.05872   0.16763  -4.40955
   1.05872   0.16763  -4.16955
   0.81872   0.16763  -4.16955
   0.81872   0.16763  -4.16955
   0.81872   0.16763  -4.16955
   0.81872   0.16763  -4.16955
   0.81872   0.16763  -4.16955
   0.81872   0.16763  -4.16955
   0.81872   0.16763  -4.16955
   0.57872   0.16763  -4.16955
   0.57872   0.16763  -3.92955
   0.57872   0.16763  -3.92955
   0.57872   0.16763  -3.92955
   0.33872   0.16763  -3.92955
   0.33872   0.16763  -3.92955
   0.33872   0.16763  -3.92955
   0.33872   0.16763  -3.92955
   0.33872   0.16763  -3.68955
   0.33872   0.16763  -3.68955
   0.09872   0.40763  -3.68955
   0.09872   0.40763  -3.68955
   0.09872   0.40763  -3.68955
   0.09872   0.40763  -3.68955
  -0.14128   0.16763  -3.44955
  -0.14128   0.40763  -3.44955
  -0.14128   0.40763  -3.44955
  -0.14128   0.40763  -3.20955
  -0.14128   0.40763  -3.20955
  -0.38128   0.40763  -3.20955
  -0.38128   0.40763  -3.20955
  -0.38128   0.40763  -2.96955
  -0.38128   0.40763  -2.96955
  -0.62128   0.40763  -2.96955
  -0.62128   0.40763  -2.96955
  -0.62128   0.40763  -2.72955
  -0.62128   0.40763  -2.72955
  -0.62128   0.40763  -3.20955
  -0.62128   0.40763  -2.72955
  -0.62128   0.40763  -2.72955
  -0.62128   0.40763  -2.49955
  -0.86128   0.64763  -2.49955
  -0.86128   0.64763  -2.49955
  -0.86128   0.64763  -2.49955
  -1.10128   0.64763  -2.25955
  -1.10128   0.64763  -2.25955
  -1.10128   0.40763  -2.25955
  -1.10128   0.64763  -2.25955
  -1.10128   0.64763  -2.25955
  -1.34128   0.64763  -2.01955
  -1.34128   0.64763  -2.25955
  -1.34128   0.64763  -2.01955
  -1.34128   0.64763  -2.01955
  -1.34128   0.64763  -2.01955
  -1.57128   0.64763  -2.01955
  -1.57128   0.64763  -2.01955
  -1.57128   0.64763  -1.77955
  -1.57128   0.64763  -1.77955
  -1.57128   0.64763  -1.77955
  -1.57128   0.64763  -1.77955
  -1.81128   0.64763  -1.77955
  -1.81128   0.64763  -1.77955
  -1.57128   0.64763  -1.77955
  -1.81128   0.64763  -1.77955
  -1.81128   0.64763  -1.53955
  -1.81128   0.64763  -1.53955
  -1.81128   0.64763  -1.53955
  -1.81128   0.16763  -1.53955
  -2.05128   0.64763  -1.53955
  -2.05128   0.64763  -1.53955
  -2.05128   0.64763  -1.53955
  -2.05128   0.64763  -1.53955
  -2.29128   0.64763  -1.53955
  -2.29128   0.64763  -1.53955
  -2.29128   0.64763  -1.53955
  -2.29128   0.40763  -1.53955
  -2.29128   0.40763  -1.53955
  -2.53128   0.40763  -1.53955
  -2.53128   0.64763  -1.53955
  -2.53128   0.40763  -1.53955
  -2.53128   0.40763  -1.53955
  -2.77128   0.40763  -1.53955
  -2.77128   0.40763  -1.53955
  -2.77128   0.40763  -1.53955
  -2.77128   0.40763  -1.53955
  -3.01128   0.40763  -1.53955
  -3.01128   0.40763  -1.53955
  -3.01128   0.40763  -1.77955
  -3.01128   0.40763  -1.53955
  -3.25128   0.40763  -1.53955
  -3.25128   0.40763  -1.77955
  -3.25128   0.40763  -1.53955
  -3.25128   0.64763  -1.53955
  -3.49128   0.40763  -1.53955
  -3.49128   0.40763  -1.53955
  -3.49128   0.40763  -1.77955
  -3.49128   0.40763  -1.53955
  -3.49128   0.40763  -1.53955
  -3.73128   0.40763  -1.53955
  -3.73128   0.40763  -1.53955
  -3.73128   0.40763  -1.77955
  -3.73128   0.40763  -1.77955
  -3.97128   0.40763  -1.53955
  -3.97128   0.40763  -1.53955
  -3.97128   0.40763  -1.53955
  -3.97128   0.40763  -1.53955
  -3.97128   0.40763  -1.53955
  -3.97128   0.16763  -1.53955
  -3.97128   0.40763  -1.53955
  -4.21128   0.16763  -1.53955
  -4.21128   0.16763  -1.53955
  -4.21128   0.16763  -1.53955
  -4.21128   0.16763  -1.53955
  -4.21128   0.16763  -1.53955
  -4.21128   0.16763  -1.29955
  -4.21128   0.16763  -1.29955
  -4.21128   0.16763  -1.29955
  -4.21128   0.40763  -1.29955
  -4.21128   0.16763  -1.29955
  -4.21128   0.16763  -1.29955
  -4.21128   0.16763  -1.29955
  -4.45128   0.16763  -1.29955
  -4.45128   0.16763  -1.05955
  -4.45128   0.16763  -1.05955
  -4.45128   0.16763  -1.05955
  -4.45128   0.16763  -1.05955
  -4.45128   0.16763  -0.81955
  -4.45128   0.16763  -0.81955
  -4.45128   0.16763  -0.81955
  -4.69128   0.16763  -0.81955
  -4.69128   0.40763  -0.57955
  -4.69128   0.16763  -0.57955
  -4.69128   0.16763  -0.57955
  -4.93128   0.16763  -0.33955
  -4.93128   0.40763  -0.33955
  -4.93128   0.40763  -0.33955
  -4.93128   0.40763  -0.33955
  -4.93128   0.40763  -0.09955
  -4.93128   0.40763  -0.09955
  -4.93128   0.40763  -0.09955
  -5.17128   0.40763   0.14045
  -5.17128   0.40763   0.14045
  -5.17128   0.40763   0.14045
  -5.17128   0.40763   0.38045
  -5.17128   0.40763   0.38045
  -5.17128   0.40763   0.62045
  -5.17128   0.40763   0.62045
  -5.41128   0.40763   0.86045
  -5.41128   0.40763   0.86045
  -5.41128   0.40763   0.86045
  -5.41128   0.40763   1.10045
  -5.41128   0.40763   1.10045
  -5.41128   0.40763   1.34045
  -5.65128   0.40763   1.34045
  -5.65128   0.40763   1.58045
  -5.65128   0.40763   1.58045
  -5.89128   0.40763   1.82045
  -5.89128   0.40763   1.82045
  -5.89128   0.40763   2.06045
  -5.89128   0.40763   2.06045
  -5.89128   0.40763   2.06045
  -5.89128   0.16763   2.30045
  -5.89128   0.16763   2.30045
  -6.13128   0.16763   2.53045
  -6.13128   0.16763   2.53045
  -6.13128   0.16763   2.77045
  -6.36128   0.16763   3.01045
  -6.36128   0.16763   3.01045
  -6.36128   0.16763   3.25045
  -6.36128   0.16763   3.25045
  -6.60128   0.16763   3.49045
  -6.60128   0.16763   3.49045
  -6.84128   0.16763   3.49045
  -6.84128   0.16763   3.73045
  -6.84128   0.16763   3.97045
  -6.84128  -0.07237   3.97045
  -7.08128  -0.07237   3.97045
  -7.08128  -0.07237   4.21045
  -7.08128  -0.07237   4.45045
  -7.32128  -0.07237   4.45045
  -7.32128  -0.07237   4.45045
  -7.56128  -0.07237   4.69045
  -7.56128  -0.07237   4.69045
  -7.56128  -0.31237   4.93045
  -7.56128  -0.31237   4.93045
  -7.80128  -0.31237   5.17045
  -7.80128  -0.31237   5.17045
  -7.80128  -0.31237   5.41045
  -8.04128  -0.31237   5.41045
  -8.04128  -0.31237   5.65045
  -8.04128  -0.31237   5.65045
  -8.28128  -0.31237   5.89045
  -8.28128  -0.31237   5.89045
  -8.28128  -0.31237   5.89045
  -8.52128  -0.54237   6.13045
  -8.52128  -0.54237   6.13045
  -8.52128  -0.54237   6.13045
  -8.76128  -0.54237   6.37045
  -8.76128  -0.54237   6.37045
  -8.76128  -0.54237   6.61045
  -9.00128  -0.54237   6.61045
  -9.00128  -0.54237   6.85045
  -9.24128  -0.54237   6.85045
  -9.24128  -0.54237   6.85045
  -9.24128  -0.54237   6.85045
  -9.48128  -0.54237   7.09045
  -9.48128  -0.54237   7.09045
  -9.72128  -0.54237   7.09045
  -9.96128  -0.54237   6.85045
  -9.96128  -0.54237   7.32045
 -10.20128  -0.54237   7.32045
 -10.20128  -0.54237   7.32045
 -10.44128  -0.54237   7.32045
 -10.44128  -0.54237   7.56045
 -10.68128  -0.54237   7.56045
 -10.92128  -0.54237   7.80045
 -10.92128  -0.54237   7.80045
 -11.15128  -0.54237   7.80045
 -11.15128  -0.54237   7.80045
 -11.39128  -0.54237   7.80045
 -11.63128  -0.54237   7.80045
 -11.63128  -0.54237   8.04045
 -11.87128  -0.31237   8.04045
 -12.11128  -0.31237   8.04045
 -12.11128  -0.54237   8.04045
 -12.35128  -0.31237   8.28045
 -12.59128  -0.31237   8.28045
 -12.59128  -0.31237   8.28045
 -12.83128  -0.31237   8.04045
 -13.07128  -0.54237   8.28045
 -13.07128  -0.31237   8.52045
 -13.31128  -0.31237   8.76045
 -13.55128  -0.31237   8.52045
 -13.55128  -0.31237   8.52045
 -13.79128  -0.31237   8.76045
 -13.79128  -0.31237   8.76045
 -14.03128  -0.31237   8.76045
 -14.03128  -0.31237   8.76045
 -14.03128  -0.31237   8.76045
 -14.27128  -0.31237   9.00045
 -14.27128  -0.31237   9.00045
 -14.51128  -0.31237   9.00045
 -14.51128  -0.07237   9.00045
 -14.75128  -0.07237   9.00045
 -14.75128  -0.07237   9.24045
 -14.75128  -0.07237   9.24045
 -14.99128  -0.07237   9.48045
 -14.99128  -0.07237   9.48045
 -14.99128   0.16763   9.48045
 -15.23128   0.16763   9.48045
 -15.23128   0.16763   9.72045
 -15.23128   0.16763   9.72045
 -15.23128   0.16763   9.72045
 -15.47128   0.40763   9.72045
 -15.47128   0.40763   9.72045
 -15.47128   0.40763   9.72045
 -15.47128   0.40763   9.96045
 -15.47128   0.40763   9.96045
 -15.47128   0.40763   9.96045
 -15.47128   0.40763   9.96045
 -15.47128   0.64763   9.96045
 -15.47128   0.64763   9.96045
 -15.47128   0.64763   9.96045
 -15.47128   0.64763   9.96045
 -15.47128   0.64763   9.96045
 -15.47128   0.64763   9.96045
 -15.47128   0.64763   9.96045
 -15.47128   0.64763   9.96045
 -15.23128   0.64763   9.72045
 -15.23128   0.64763   9.72045
 -15.23128   0.88763   9.72045
 -15.23128   0.88763   9.72045
 -15.23128   0.88763   9.24045
 -14.99128   0.88763   9.72045
 -14.99128   0.88763   9.72045
 -14.99128   0.88763   9.72045
 -14.75128   0.88763   9.72045
 -14.75128   0.88763   9.48045
 -14.51128   0.88763   9.48045
 -14.51128   1.12763   9.48045
 -14.51128   1.12763   9.48045
 -14.27128   1.12763   9.48045
 -14.03128   1.12763   9.48045
 -14.03128   1.12763   9.48045
 -14.03128   1.12763   9.48045
 -13.79128   1.12763   9.48045
 -13.55128   1.12763   9.24045
 -13.55128   1.12763   9.24045
 -13.31128   1.12763   9.24045
 -13.07128   0.88763   9.24045
 -13.07128   1.12763   9.24045
 -12.83128   1.12763   9.24045
 -12.83128   1.12763   9.24045
 -12.59128   1.12763   9.00045
 -12.35128   1.12763   9.24045
 -12.11128   1.12763   9.00045
 -12.11128   1.12763   9.00045
 -11.87128   1.12763   9.00045
 -11.87128   1.12763   9.00045
 -11.63128   1.12763   9.00045
 -11.39128   1.36763   9.00045
 -11.15128   1.12763   9.00045
 -10.92128   1.12763   8.76045
 -10.92128   1.12763   9.00045
 -10.68128   1.12763   8.76045
 -10.44128   1.12763   8.76045
 -10.44128   1.12763   8.76045
 -10.20128   1.36763   8.76045
  -9.96128   1.36763   8.52045
  -9.72128   1.12763   8.52045
  -9.72128   1.12763   8.52045
  -9.48128   1.12763   8.52045
  -9.24128   1.12763   8.52045
  -9.24128   1.12763   8.52045
  -9.00128   1.12763   8.28045
  -8.76128   1.12763   8.28045
  -8.52128   1.12763   8.28045
  -8.28128   1.12763   8.28045
  -8.28128   1.12763   8.28045
  -8.04128   1.12763   8.04045
  -7.80128   1.12763   8.28045
  -7.56128   1.12763   8.04045
  -7.56128   1.12763   8.04045
  -7.32128   1.12763   8.04045
  -7.08128   1.12763   8.04045
  -6.84128   1.12763   7.80045
  -6.84128   1.12763   7.80045
  -6.60128   1.12763   7.80045
  -6.36128   1.12763   7.80045
  -6.36128   1.12763   7.80045
  -6.13128   1.12763   7.80045
  -5.89128   1.12763   7.80045
  -5.65128   1.12763   7.56045
  -5.65128   1.12763   7.56045
  -5.41128   1.12763   7.56045
  -5.17128   1.12763   7.56045
  -4.93128   1.12763   7.56045
  -4.69128   1.12763   7.56045
  -4.69128   1.12763   7.56045
  -4.45128   1.12763   7.56045
  -4.45128   1.12763   7.56045
  -4.21128   1.12763   7.32045
  -3.97128   1.12763   7.32045
  -3.73128   1.12763   7.32045
  -3.49128   1.12763   7.32045
  -3.49128   1.12763   7.32045
  -3.25128   1.12763   7.32045
  -3.01128   1.12763   7.32045
  -2.77128   1.12763   7.32045
  -2.53128   1.12763   7.09045
  -2.53128   1.12763   7.09045
  -2.05128   1.12763   7.09045
  -2.05128   1.12763   7.09045
  -1.81128   1.12763   7.09045
  -1.57128   1.12763   6.85045
  -1.34128   1.12763   7.09045
  -1.10128   1.12763   6.85045
  -0.86128   1.12763   6.85045
  -0.86128   1.12763   6.85045
  -0.62128   1.12763   6.85045
  -0.38128   1.12763   6.85045
  -0.14128   1.12763   6.85045
   0.09872   1.12763   6.61045
   0.33872   1.12763   6.61045
   0.57872   1.12763   6.61045
   0.81872   1.12763   6.61045
   0.81872   1.12763   6.37045
   1.05872   1.12763   6.37045
   1.29872   1.12763   6.37045
   1.53872   0.88763   6.37045
   1.53872   0.88763   6.13045
   1.77872   0.88763   6.13045
   2.01872   0.88763   5.89045
   2.25872   0.88763   5.89045
   2.25872   0.88763   5.89045
   2.25872   0.88763   5.89045
   2.73872   0.88763   5.89045
   2.73872   0.88763   5.65045
   2.73872   0.64763   5.65045
   2.97872   0.64763   5.65045
   2.97872   0.64763   5.41045
   3.21872   0.64763   5.41045
   3.21872   0.64763   5.17045
   3.21872   0.64763   5.17045
   3.45872   0.64763   5.17045
   3.45872   0.64763   4.93045
   3.68872   0.64763   4.93045
   3.68872   0.64763   4.93045
   3.68872   0.64763   4.69045
   3.68872   0.64763   4.69045
   3.92872   0.40763   4.45045
   3.92872   0.40763   4.45045
   3.92872   0.40763   4.45045
   3.92872   0.40763   4.21045
   3.92872   0.40763   4.21045
   3.92872   0.40763   3.97045
   3.92872   0.16763   3.73045
   4.16872   0.40763   3.97045
   4.16872   0.16763   3.73045
   4.16872   0.16763   3.73045
   4.16872   0.16763   3.49045
   4.16872   0.16763   3.49045
   3.92872   0.16763   3.25045
