********************************************************************************
              CENTRO DE INSTRUMENTACION Y REGISTRO SISMICO  A.C.

    Anaxagoras 814, Col. Narvarte, Benito Juarez, C.P. 03020 Mexico, D.F.
           Tels. 5687 45 42/ 5687 45  82             Fax. 5669 25 12
********************************************************************************
ARCHIVO ESTANDAR DE ACELERACION:
VERSION DEL FORMATO                    : 2.0
NOMBRE DEL ARCHIVO                     : AU1120111211014725
FECHA Y HORA DE CREACION               : 04/ENE/12, 12:26
REF. CATALOGO ACELEROGRAMAS, SMIS 1996 : REGISTRO No.     /PAG.


================================================================================
DATOS DE LA ESTACION:
NOMBRE DE LA ESTACION                  : AUTÓDROMO
CLAVE DE LA ESTACION                   : AU11
LOCALIZACION DE LA ESTACION            : Del. Iztacalco, Cd. Deportiva          
                                       : Magdalena Mixhuca,                     
                                       : Col. Granjas México                    
                                       :                                        
                                       : 
COORDENADAS DE LA ESTACION             : 19.3919 LAT. N
                                       : 99.0869 LONG. W
ALTITUD (msnm)                         : 2234
TIPO DE SUELO                          : Terreno blando, material compresible
                                       : (arcillas)                
                                       : 
INSTITUCION RESPONSABLE                : CIRES
                                       : 

================================================================================
DATOS DEL ACELEROGRAFO:
MODELO DEL ACELEROGRAFO                : RADESD
NUMERO DE SERIE DEL ACELEROGRAFO       : 157
NUMERO DE CANALES                      : 3
ORIENTACION C1-C6 (rumbo;orientacion)  : /N00E/+V/N90W
ORIENTACION C7-C12 (rumbo;orientacion) : 
VEL. DE MUESTREO, C1-C6 (muestras/s)   : /100/100/100
VEL. DE MUESTREO, C7-C12 (muestras/s)  : 
ESC. COMPLETA DE SENSORES, C1-C6, (g)  : /0.5/0.5/0.5
ESC. COMPLETA DE SENSORES, C7-C12, (g) : 
FREC. NAT. DE SENSORES, C1-C6, (Hz)    : /51.77/52.56/52.29
FREC. NAT. DE SENSORES, C7-C12, (Hz)   : 
AMORTIGUAMIENTO DE SENSORES, C1-C6     : /0.5912/0.6083/0.6067
AMORTIGUAMIENTO DE SENSORES, C7-C12    : 
INTERVALO DE MUESTREO, C1-C6, (s)      : /0.01/0.01/0.01
INTERVALO DE MUESTREO, C7-C12, (s)     : 
UMBRAL DE DISPARO, C1-C6, (Gal)        : /0.72/1.92/0.72
UMBRAL DE DISPARO, C7-C12, (Gal)       : 
MEMORIA DE PREEVENTO (s)               : 56.0
TIEMPO DE POSEVENTO (s)                : 64.0


================================================================================
DATOS DEL SISMO:
FECHA DEL SISMO (GMT)                  : 11/DIC/11
HORA EPICENTRO (GMT)                   : 01:47:25.0
MAGNITUD(ES)                           : /Mc=6.5
COORDENADAS DEL EPICENTRO              : 17.84 LAT. N
                                       : 99.98 LONG. W
PROFUNDIDAD FOCAL (km)                 : 58
FUENTE DE LOS DATOS EPICENTRALES       : SSN
                                       : INSTITUTO DE GEOFISICA, UNAM

================================================================================
DATOS DE ESTE REGISTRO:
HORA DE LA PRIMERA MUESTRA (GMT)       : 01:47:30.00
EXACTITUD DEL TIEMPO (s)               : 0.01
DURACION DEL REGISTRO (s), C1-C6       : /463.0/463.0/463.0
DURACION DEL REGISTRO (s), C7-C12      : 
NUM. TOTAL DE MUESTRAS, C1-C6          : /46300/46300/46300
NUM. TOTAL DE MUESTRAS, C7-C12         : 
ACEL. MAX. (Gal), C1-C6                : /14.28864/18.40341/14.99591
ACEL. MAX., C1-C6, EN LA MUESTRA       : /8320/5688/7931
ACEL. MAX. (Gal), C7-C12               : 
ACEL. MAX., C7-C12, EN LA MUESTRA      : 
UNIDADES DE LOS DATOS                  : Gal (cm/s/s)
FACTOR DE DECIMACION                   : 1
FORMATO DATOS (FORTRAN,10 campos/dato) : 3F10.5


================================================================================
CALIDAD DEL ACELEROGRAMA:
REGISTRO DIGITAL COMPLETO CON TIEMPO ABSOLUTO CORRECTO.


================================================================================
COMENTARIOS:














================================================================================
DATOS DE ACELERACION:
---------+---------+---------+---------+---------+---------+---------+---------+
   CANAL-1   CANAL-2   CANAL-3   CANAL-4   CANAL-5   CANAL-6   CANAL-7   CANAL-8
      N00E        +V      N90W
---------+---------+---------+---------+---------+---------+---------+---------+
[...]
  -0.07657   0.03195   0.08756
  -0.07657   0.27137  -0.15186
   0.16285   0.03195   0.08756
   0.16285   0.03195   0.08756
   0.16285  -0.20747  -0.15186
   0.16285   0.27137   0.08756
  -0.07657   0.03195   0.08756
  -0.07657   0.03195  -0.39128
  -0.07657  -0.20747  -0.15186
  -0.07657   0.03195  -0.39128
  -0.07657   0.03195   0.08756
  -0.31599   0.03195   0.08756
  -0.07657   0.03195   0.32698
  -0.07657   0.03195   0.08756
  -0.07657   0.03195  -0.15186
  -0.07657   0.03195  -0.15186
  -0.07657  -0.20747   0.08756
   0.16285   0.03195  -0.15186
  -0.07657   0.03195  -0.15186
  -0.07657   0.03195  -0.15186
   0.16285   0.03195   0.08756
  -0.07657   0.27137   0.08756
   0.16285   0.27137  -0.15186
  -0.07657   0.03195   0.08756
  -0.07657   0.03195   0.08756
   0.16285   0.03195   0.08756
  -0.31599  -0.20747   0.08756
  -0.07657   0.03195  -0.15186
   0.16285   0.03195  -0.15186
  -0.07657   0.03195  -0.15186
   0.16285   0.03195   0.08756
  -0.07657   0.03195   0.08756
  -0.07657   0.03195   0.08756
  -0.07657   0.03195  -0.15186
   0.16285  -0.20747  -0.15186
   0.16285   0.03195   0.08756
  -0.07657   0.03195  -0.15186
  -0.07657   0.03195  -0.15186
  -0.07657   0.03195  -0.15186
   0.16285   0.03195   0.08756
  -0.07657   0.03195   0.08756
   0.16285   0.03195   0.08756
  -0.07657   0.27137  -0.15186
  -0.07657   0.03195  -0.15186
  -0.07657   0.03195   0.08756
  -0.07657  -0.20747  -0.15186
  -0.07657   0.03195  -0.15186
  -0.07657  -0.20747   0.08756
  -0.07657   0.03195   0.08756
   0.16285   0.03195  -0.15186
  -0.07657   0.03195   0.08756
  -0.07657   0.03195  -0.15186
  -0.07657   0.03195  -0.15186
  -0.07657   0.03195   0.08756
  -0.07657  -0.20747  -0.15186
  -0.31599  -0.20747   0.08756
   0.16285   0.03195   0.08756
   0.16285   0.03195  -0.15186
   0.16285   0.03195  -0.15186
   0.16285   0.03195  -0.39128
   0.16285   0.03195  -0.15186
   0.16285   0.03195   0.08756
   0.16285   0.03195   0.08756
   0.16285   0.03195   0.08756
  -0.07657   0.03195   0.08756
   0.16285  -0.20747  -0.15186
  -0.07657  -0.20747  -0.15186
  -0.07657   0.03195   0.08756
  -0.07657   0.03195   0.08756
  -0.07657   0.03195  -0.15186
   0.16285   0.03195   0.08756
  -0.07657   0.03195   0.08756
  -0.31599   0.03195   0.08756
  -0.07657   0.03195   0.32698
  -0.07657   0.03195   0.32698
   0.16285  -0.20747   0.08756
  -0.07657   0.03195   0.08756
  -0.07657  -0.20747   0.08756
  -0.07657  -0.20747  -0.15186
  -0.07657   0.03195  -0.39128
  -0.07657   0.03195   0.08756
  -0.07657   0.03195  -0.15186
  -0.07657  -0.20747  -0.15186
  -0.07657   0.27137  -0.15186
  -0.07657   0.03195  -0.15186
  -0.31599  -0.20747   0.08756
  -0.07657   0.03195  -0.15186
  -0.07657  -0.20747  -0.15186
   0.16285  -0.20747  -0.15186
   0.16285  -0.20747   0.32698
  -0.07657  -0.20747  -0.15186
   0.16285  -0.20747  -0.15186
   0.16285   0.03195   0.08756
   0.16285   0.03195   0.08756
   0.16285   0.03195   0.08756
   0.16285  -0.20747  -0.15186
  -0.07657  -0.20747  -0.15186
   0.16285  -0.20747  -0.15186
   0.16285   0.03195  -0.15186
  -0.07657   0.03195   0.32698
  -0.07657  -0.20747   0.08756
  -0.07657  -0.20747   0.08756
   0.16285   0.03195   0.08756
  -0.07657  -0.20747   0.08756
  -0.07657  -0.20747  -0.15186
  -0.07657  -0.20747   0.08756
  -0.07657  -0.20747  -0.15186
  -0.07657  -0.20747   0.08756
  -0.07657  -0.44689   0.08756
  -0.07657  -0.44689  -0.15186
  -0.07657  -0.44689   0.08756
   0.16285  -0.20747   0.08756
  -0.07657  -0.44689   0.08756
  -0.07657  -0.44689   0.08756
   0.16285  -0.44689   0.08756
  -0.07657   0.03195  -0.15186
   0.16285  -0.20747   0.08756
   0.16285   0.03195  -0.15186
   0.16285  -0.20747   0.08756
  -0.07657   0.03195  -0.15186
   0.16285   0.27137   0.08756
  -0.07657   0.27137   0.08756
   0.16285   0.27137  -0.15186
  -0.07657   0.27137  -0.15186
  -0.07657   0.03195  -0.15186
   0.16285   0.27137   0.08756
  -0.07657   0.27137   0.08756
   0.16285   0.03195  -0.15186
  -0.31599  -0.20747  -0.15186
  -0.07657  -0.20747   0.08756
  -0.07657  -0.44689  -0.15186
  -0.07657  -0.20747   0.08756
  -0.07657  -0.68631   0.08756
  -0.07657  -0.44689  -0.15186
  -0.07657  -0.20747   0.08756
   0.16285  -0.20747  -0.15186
   0.16285  -0.20747   0.08756
   0.16285   0.03195  -0.15186
   0.16285   0.27137   0.08756
  -0.07657   0.03195   0.08756
   0.16285   0.51079  -0.15186
  -0.07657   0.51079   0.08756
   0.16285   0.51079  -0.15186
  -0.07657   0.51079  -0.15186
   0.16285   0.51079  -0.15186
  -0.07657   0.75021   0.08756
  -0.07657   0.51079  -0.15186
   0.16285   0.75021   0.08756
  -0.07657   0.75021   0.08756
   0.16285   0.51079   0.08756
  -0.07657   0.27137  -0.15186
  -0.07657   0.27137   0.08756
   0.16285   0.27137  -0.15186
  -0.07657   0.27137  -0.15186
   0.16285   0.27137   0.08756
  -0.31599   0.03195   0.08756
  -0.07657   0.27137  -0.15186
  -0.07657  -0.20747  -0.15186
  -0.07657   0.03195   0.08756
  -0.07657  -0.20747  -0.15186
   0.16285  -0.44689   0.08756
   0.16285   0.03195   0.08756
   0.16285   0.75021  -0.15186
  -0.07657   0.98963  -0.15186
   0.16285   0.98963   0.08756
   0.16285   1.22905   0.08756
   0.16285   1.70789  -0.15186
   0.16285   1.70789   0.08756
  -0.31599   1.70789   0.08756
   0.16285   2.18673  -0.15186
   0.16285   1.46847  -0.15186
   0.16285   1.22905   0.08756
  -0.07657   0.51079  -0.39128
  -0.07657  -0.20747  -0.15186
  -0.07657  -0.68631   0.08756
  -0.07657  -1.40457   0.08756
  -0.31599  -2.12283   0.08756
  -0.07657  -2.60168   0.08756
  -0.07657  -2.84110  -0.15186
  -0.07657  -2.60168   0.08756
  -0.07657  -1.64399   0.08756
  -0.07657  -0.92573   0.08756
   0.16285  -0.44689   0.08756
   0.16285   0.03195   0.08756
  -0.07657   0.27137   0.08756
   0.16285   0.75021   0.32698
   0.16285   0.75021  -0.15186
  -0.07657   0.75021  -0.15186
   0.16285   0.51079  -0.15186
  -0.07657   0.27137  -0.15186
   0.16285  -0.20747  -0.15186
  -0.07657  -0.68631   0.08756
  -0.07657  -1.16515   0.08756
  -0.07657  -2.12283   0.08756
  -0.07657  -2.60168   0.08756
  -0.07657  -3.08052  -0.15186
  -0.07657  -3.55936   0.08756
  -0.31599  -3.55936  -0.15186
  -0.07657  -3.08052  -0.15186
  -0.07657  -2.60168   0.08756
  -0.07657  -1.88341  -0.15186
  -0.07657  -0.68631   0.08756
  -0.07657   0.03195   0.08756
   0.16285   0.27137   0.08756
   0.16285   0.75021  -0.15186
   0.16285   1.22905  -0.15186
   0.16285   1.70789   0.08756
   0.16285   1.70789   0.08756
   0.16285   0.98963   0.08756
   0.16285   0.51079  -0.15186
   0.16285   0.27137   0.08756
  -0.07657   0.75021   0.08756
  -0.07657   0.75021   0.08756
  -0.31599   0.51079   0.08756
   0.16285  -0.20747  -0.15186
  -0.07657  -1.40457  -0.15186
  -0.07657  -2.36225   0.08756
  -0.07657  -3.31994  -0.15186
  -0.31599  -3.79878  -0.15186
  -0.31599  -3.31994  -0.15186
  -0.07657  -2.60168   0.08756
  -0.31599  -1.88341   0.08756
  -0.31599  -0.92573   0.08756
   0.16285   0.27137   0.08756
   0.16285   0.98963   0.08756
   0.16285   1.70789   0.32698
   0.16285   1.46847   0.08756
  -0.07657   0.75021   0.08756
   0.16285   0.03195  -0.15186
  -0.07657   0.27137  -0.15186
  -0.31599   0.98963  -0.15186
   0.16285   1.94731  -0.39128
  -0.07657   2.18673  -0.15186
   0.16285   2.42615   0.08756
   0.16285   2.90499   0.08756
  -0.07657   3.14441  -0.15186
  -0.31599   3.14441  -0.39128
  -0.07657   2.66557  -0.15186
  -0.31599   2.18673   0.08756
  -0.07657   1.46847  -0.15186
  -0.07657   1.22905  -0.15186
  -0.07657   1.46847   0.08756
  -0.07657   2.18673   0.08756
  -0.07657   2.90499   0.08756
   0.16285   3.62325   0.08756
  -0.07657   3.38383   0.08756
  -0.07657   3.14441   0.08756
  -0.31599   2.42615  -0.15186
  -0.07657   1.70789  -0.15186
   0.16285   1.46847   0.08756
  -0.07657   1.94731  -0.15186
  -0.07657   2.90499  -0.15186
  -0.07657   3.38383  -0.15186
  -0.07657   2.42615  -0.39128
  -0.31599   0.75021   0.08756
  -0.07657  -1.16515   0.08756
  -0.07657  -2.36225   0.08756
  -0.31599  -3.79878   0.08756
  -0.31599  -4.27762  -0.15186
  -0.55541  -4.75646  -0.15186
  -0.31599  -4.27762   0.08756
  -0.07657  -3.31994   0.32698
   0.16285  -2.84110   0.08756
   0.16285  -1.64399  -0.15186
   0.16285  -0.20747  -0.15186
  -0.07657   1.22905   0.32698
  -0.07657   1.70789   0.08756
   0.16285   0.98963   0.08756
  -0.07657  -0.20747  -0.15186
  -0.07657  -1.16515  -0.15186
   0.16285  -1.40457  -0.39128
   0.16285  -2.60168  -0.39128
  -0.07657  -3.79878  -0.15186
  -0.07657  -3.79878   0.08756
  -0.07657  -2.36225   0.08756
  -0.07657  -0.44689  -0.15186
  -0.31599   1.22905  -0.15186
  -0.31599   2.18673  -0.15186
  -0.07657   2.90499  -0.15186
   0.16285   2.66557  -0.39128
  -0.07657   1.94731  -0.15186
  -0.31599   0.51079  -0.39128
  -0.55541  -1.16515  -0.15186
  -0.55541  -2.12283  -0.15186
  -0.55541  -3.08052   0.08756
  -0.79483  -3.79878  -0.15186
  -0.55541  -3.08052   0.08756
  -0.07657  -1.64399  -0.15186
   0.16285  -0.68631   0.08756
  -0.07657  -0.92573   0.32698
   0.16285  -1.64399   0.08756
   0.16285  -2.84110  -0.15186
  -0.07657  -4.03820  -0.15186
  -0.31599  -4.51704   0.08756
  -0.55541  -3.31994   0.08756
  -0.31599  -0.20747   0.08756
  -0.07657   3.86267  -0.15186
  -0.31599   6.97513  -0.15186
   0.16285   8.65107  -0.15186
   0.16285   7.93281  -0.15186
   0.16285   5.77803  -0.15186
  -0.07657   3.62325  -0.15186
  -0.55541   1.70789   0.08756
  -1.03425   0.03195  -0.39128
  -1.03425  -0.92573  -0.39128
  -0.79483  -1.64399   0.08756
  -0.31599  -2.36225   0.32698
   0.16285  -3.31994   0.56640
   0.16285  -3.79878   0.32698
   0.16285  -3.08052   0.32698
   0.16285  -1.16515   0.32698
  -0.07657   0.27137   0.32698
  -0.07657   0.98963   0.32698
   0.16285   1.46847   0.32698
   0.40227   2.66557   0.32698
   0.88111   4.58093  -0.15186
   0.64169   6.01745   0.08756
   0.64169   7.21455  -0.15186
   0.40227   8.17223   0.08756
   0.16285   8.65107  -0.15186
   0.16285   7.21455  -0.15186
  -0.07657   3.86267  -0.15186
  -0.07657  -1.16515   0.08756
  -0.31599  -6.19298   0.08756
  -0.31599 -10.50254  -0.15186
  -0.79483 -12.89674  -0.15186
  -0.79483 -12.17848  -0.39128
  -1.03425  -9.06602  -0.15186
  -1.03425  -4.27762   0.32698
  -0.31599   0.27137   0.56640
   0.16285   3.38383   0.80582
   0.88111   6.25687   0.80582
   0.88111   9.12991   0.80582
   0.88111  11.04527   0.56640
   0.40227  10.56643  -0.15186
   0.40227   7.93281  -0.15186
   0.16285   5.05977  -0.15186
   0.16285   3.14441   0.08756
  -0.07657   2.18673   0.32698
   0.16285   1.22905   0.32698
   0.40227  -0.20747   0.32698
   0.40227  -1.40457   0.08756
   0.40227  -4.27762  -0.15186
  -0.31599  -8.34776  -0.39128
  -0.31599 -13.13616  -0.63070
  -0.79483 -16.96688  -0.39128
  -0.79483 -18.40341  -0.39128
  -0.79483 -17.20631   0.08756
  -0.79483 -12.89674   0.32698
  -0.55541  -7.15066   0.08756
  -0.07657  -1.16515   0.08756
   0.64169   2.90499   0.08756
   1.12053   3.62325   0.08756
   1.35995   2.66557   0.08756
   1.12053   2.42615  -0.39128
   0.40227   3.86267  -0.63070
  -0.07657   6.01745  -0.63070
  -0.55541   7.69339  -0.63070
  -0.07657   9.60875  -0.15186
   0.16285  12.00296  -0.39128
   0.40227  14.39716  -0.87012
   0.16285  15.35484  -1.10954
  -0.31599  12.96064  -1.10954
  -1.27367   8.41165  -0.87012
  -1.51309   3.14441  -0.87012
  -1.75251  -1.88341  -0.87012
  -2.23135  -5.95356  -1.10954
  -1.99193  -8.34776  -0.63070
  -1.75251  -9.06602  -0.63070
  -1.03425  -7.39008  -0.15186
  -0.55541  -5.23530   0.08756
  -0.31599  -3.31994   0.08756
  -0.55541  -2.84110  -0.15186
  -0.31599  -2.84110   0.08756
  -0.07657  -2.60168   0.32698
  -0.07657  -1.16515   0.08756
  -0.07657   0.75021  -0.15186
  -0.07657   2.90499  -0.63070
   0.64169   3.62325  -0.87012
   0.88111   3.86267  -0.63070
   0.88111   3.14441  -0.39128
   0.16285   2.42615  -0.39128
  -0.07657   1.94731  -0.63070
  -0.55541   1.22905  -0.39128
  -0.79483   0.75021  -0.15186
  -0.55541   0.51079  -0.63070
  -0.55541   0.75021  -0.63070
  -0.55541   0.98963  -0.39128
  -0.79483   0.98963  -0.39128
  -0.79483  -0.20747  -0.63070
  -0.55541  -1.88341  -0.63070
  -0.55541  -4.03820  -0.63070
  -0.79483  -4.75646  -0.15186
  -0.79483  -4.51704  -0.63070
  -0.31599  -3.55936  -0.63070
  -0.31599  -3.55936  -0.15186
   0.16285  -3.55936   0.08756
   0.16285  -3.31994   0.08756
   0.40227  -2.36225   0.32698
  -0.07657  -1.16515   0.08756
  -0.07657  -0.20747   0.08756
  -0.07657  -0.44689   0.32698
   0.16285  -1.40457   0.32698
   0.64169  -1.88341   0.32698
   1.12053  -1.64399   0.32698
   1.35995  -0.68631  -0.15186
   1.12053   0.51079  -0.15186
   0.64169   1.22905   0.32698
  -0.07657   1.46847   0.80582
  -0.31599   0.27137   0.80582
  -0.79483  -1.40457   0.56640
  -0.79483  -2.84110   0.80582
  -0.55541  -2.60168   0.56640
  -0.31599  -1.64399   0.56640
  -0.07657   0.03195   0.56640
  -0.31599   1.46847   0.80582
  -0.07657   4.10209   0.80582
  -0.07657   7.45397   1.28466
  -0.31599  11.04527   1.28466
  -0.07657  12.48180   1.76350
   0.40227  12.00296   1.28466
   0.88111  11.04527   0.80582
   0.88111   9.36933   0.56640
   0.88111   7.21455   0.32698
   0.64169   4.34151   0.80582
   0.16285   0.51079   1.04524
  -0.07657  -3.08052   1.28466
  -0.31599  -5.95356   1.04524
  -0.31599  -8.10834   0.80582
  -0.55541  -9.30544   0.80582
  -0.55541  -9.78428   0.80582
  -0.55541  -9.78428   0.56640
  -0.55541  -9.54486   0.32698
  -0.55541  -8.82660   0.32698
  -1.03425  -7.62950   0.32698
  -0.79483  -5.47472   0.32698
  -0.79483  -3.08052   0.56640
  -0.07657  -0.92573   0.56640
   0.64169   0.75021   0.32698
   1.35995   1.46847  -0.39128
   1.83879   1.94731  -0.39128
   2.07821   2.18673  -0.39128
   2.07821   2.42615  -0.39128
   2.31763   2.18673  -0.15186
   2.07821   2.90499  -0.15186
   2.07821   3.14441   0.08756
   1.59937   3.38383  -0.39128
   1.59937   4.10209  -0.39128
   1.12053   4.58093  -0.63070
   1.12053   5.53861  -0.87012
   0.40227   6.01745  -0.87012
  -0.31599   5.29919  -0.87012
  -0.79483   4.34151  -0.63070
  -1.27367   2.42615  -0.39128
  -1.51309   0.03195  -0.39128
  -1.03425  -1.88341  -0.15186
  -0.55541  -2.36225  -0.15186
   0.40227  -1.88341  -0.39128
   0.64169  -0.68631   0.08756
   1.35995   0.03195   0.32698
   1.59937  -0.44689   0.32698
   1.59937  -0.92573   0.80582
   1.59937  -1.16515   1.28466
   1.59937  -2.12283   0.80582
   1.83879  -3.55936   0.80582
   2.07821  -5.23530   0.56640
   2.07821  -5.47472  -0.15186
   1.83879  -4.03820  -0.63070
   1.35995  -2.36225  -0.87012
   0.88111  -1.16515  -0.87012
   0.16285   0.03195  -1.10954
  -0.07657   0.98963  -0.87012
  -0.31599   2.42615  -0.63070
  -0.55541   3.38383  -1.10954
  -0.55541   2.42615  -1.58838
  -0.31599   1.22905  -1.34896
  -0.07657   0.98963  -1.34896
   0.16285   1.22905  -0.87012
   0.16285   1.94731  -0.39128
   0.16285   2.18673   0.08756
   0.64169   1.46847   0.56640
   0.88111   0.51079   1.52408
   1.12053  -0.20747   1.76350
   1.59937   0.03195   1.76350
   1.35995   1.22905   1.28466
   1.35995   2.90499   1.52408
   0.64169   3.86267   1.52408
   0.16285   3.62325   1.76350
  -0.79483   2.66557   1.28466
  -1.75251   0.98963   1.04524
  -2.47077  -0.92573   0.08756
  -2.71019  -2.60168  -0.39128
  -2.94962  -4.51704  -0.87012
  -2.94962  -6.67182  -0.87012
  -3.18904  -7.86892  -0.39128
  -2.71019  -8.58718  -0.15186
