********************************************************************************
               CENTRO DE INSTRUMENTACION Y REGISTRO SISMICO  A.C.  
                       Coordinacion de Servicios Tecnicos
     Anaxagoras 814, Col. Narvarte, Benito Juarez, C.P. 03020 Mexico, D.F.
            Tels. 667 45 42/ 687 45  82             Fax. 669 25 12
********************************************************************************
ARCHIVO ESTANDAR DE ACELERACION:
VERSION DEL FORMATO                    : 2.0
NOMBRE DEL ARCHIVO                     : AU119607.151
FECHA Y HORA DE CREACION               : 27/MAR/98, 3:55
REF. CATALOGO ACELEROGRAMAS, SMIS 1996 : REGISTRO No.     /PAG.


================================================================================
DATOS DE LA ESTACION:
NOMBRE DE LA ESTACION                  : AUTODROMO
CLAVE DE LA ESTACION                   : AU11
LOCALIZACION DE LA ESTACION            : AUTODROMO HERMANOS RODRIGUEZ,
                                       : CHURUBUSCO, CD. DEPORTIVA
                                       :
                                       :
                                       :
COORDENADAS DE LA ESTACION             : 19.392 LAT. N 
                                       : 99.087 LONG. W 
ALTITUD (msnm)                         : 2234
TIPO DE SUELO                          : TERRENO BLANDO, MATERIAL COMPRESIBLE
                                       : (ARCILLAS)
                                       : 
INSTITUCION RESPONSABLE                : CIRES 
                                       :

================================================================================
DATOS DEL ACELEROGRAFO:
MODELO DEL ACELEROGRAFO                : SSA-1
NUMERO DE SERIE DEL ACELEROGRAFO       : 157
NUMERO DE CANALES                      : 3
ORIENTACION C1-C6 (rumbo;orientacion)  : /N00E/+V/N90E
ORIENTACION C7-C12 (rumbo;orientacion) :
VEL. DE MUESTREO, C1-C6 (muestras/s)   : /200/200/200
VEL. DE MUESTREO, C7-C12 (muestras/s)  :
ESC. COMPLETA DE SENSORES, C1-C6, (g)  : /2/2/2
ESC. COMPLETA DE SENSORES, C7-C12, (g) :
FREC. NAT. DE SENSORES, C1-C6, (Hz)    : /51.77/52.56/52.29
FREC. NAT. DE SENSORES, C7-C12, (Hz)   :
AMORTIGUAMIENTO DE SENSORES, C1-C6     : /0.5912/0.6083/0.6067
AMORTIGUAMIENTO DE SENSORES, C7-C12    :
INTERVALO DE MUESTREO, C1-C6, (s)      : /0.005/0.005/0.005
INTERVALO DE MUESTREO, C7-C12, (s)     : 
UMBRAL DE DISPARO, C1-C6, (Gal)        : /2/2/2
UMBRAL DE DISPARO, C7-C12, (Gal)       :
MEMORIA DE PREEVENTO (s)               : 15
TIEMPO DE POSEVENTO (s)                : 60


================================================================================
DATOS DEL SISMO:
FECHA DEL SISMO (GMT)                  : 15/JUL/96
HORA EPICENTRO (GMT)                   : 21:23:38:5
MAGNITUD(ES)                           : /Ms=6.5
COORDENADAS DEL EPICENTRO              : 17.4 LAT. N
                                       : 101.1 LONG. W
PROFUNDIDAD FOCAL (km)                 : 20.0
FUENTE DE LOS DATOS EPICENTRALES       : SSN
                                       : INSTITUTO DE GEOFISICA, UNAM

================================================================================
DATOS DE ESTE REGISTRO:
HORA DE LA PRIMERA MUESTRA (GMT)       : 21:25:01.00
EXACTITUD DEL TIEMPO (s)               :     
DURACION DEL REGISTRO (s), C1-C6       : /206.08/206.08/206.08
DURACION DEL REGISTRO (s), C7-C12      :
NUM. TOTAL DE MUESTRAS, C1-C6          : /41216/41216/41216
NUM. TOTAL DE MUESTRAS, C7-C12         :
ACEL. MAX. (Gal), C1-C6                : /12.26290/2.19434/7.37867
ACEL. MAX., C1-C6, EN LA MUESTRA       :
ACEL. MAX. (Gal), C7-C12               :
ACEL. MAX., C7-C12, EN LA MUESTRA      :
UNIDADES DE LOS DATOS                  : Gal (cm/s/s)
FACTOR DE DECIMACION                   : 1
FORMATO DATOS (FORTRAN,10 campos/dato) : 3F10.5


================================================================================
CALIDAD DEL ACELEROGRAMA:
REGISTRO DIGITAL COMPLETO, CARECE DE TIEMPO ABSOLUTO.


================================================================================
COMENTARIOS:














================================================================================
DATOS DE ACELERACION:
---------+---------+---------+---------+---------+---------+---------+---------+
   CANAL-1   CANAL-2   CANAL-3   CANAL-4   CANAL-5   CANAL-6   CANAL-7   CANAL-8
      N00E        +V      N90E
---------+---------+---------+---------+---------+---------+---------+---------+
[...]
  -0.18710   0.04434   3.64133
  -0.18710   0.04434   3.88133
   0.05290   0.04434   4.12133
   0.05290   0.04434   4.12133
   0.29290   0.04434   4.36133
   0.29290   0.04434   4.36133
   0.29290   0.04434   4.60133
   0.53290   0.04434   4.60133
   0.77290   0.04434   4.84133
   0.77290   0.04434   4.84133
   1.01290   0.04434   5.08133
   1.01290   0.04434   5.08133
   1.25290   0.04434   5.08133
   1.25290   0.04434   5.08133
   1.49290   0.04434   5.32133
   1.73290  -0.19566   5.32133
   1.73290  -0.19566   5.32133
   1.97290  -0.19566   5.32133
   2.21290  -0.19566   5.32133
   2.21290  -0.19566   5.32133
   2.45290  -0.19566   5.32133
   2.45290  -0.19566   5.32133
   2.68290  -0.43566   5.32133
   2.68290  -0.19566   5.32133
   2.92290  -0.43566   5.32133
   2.92290  -0.43566   5.32133
   2.92290  -0.43566   5.08133
   3.16290  -0.43566   5.08133
   3.16290  -0.43566   5.08133
   3.40290  -0.43566   5.08133
   3.40290  -0.43566   5.08133
   3.64290  -0.43566   5.08133
   3.64290  -0.43566   5.08133
   3.88290  -0.43566   5.08133
   3.88290  -0.43566   4.84133
   3.88290  -0.43566   5.08133
   4.12290  -0.67566   4.84133
   4.12290  -0.67566   4.84133
   4.36290  -0.67566   4.84133
   4.36290  -0.67566   4.84133
   4.36290  -0.67566   4.60133
   4.60290  -0.67566   4.60133
   4.60290  -0.67566   4.60133
   4.84290  -0.67566   4.60133
   4.84290  -0.67566   4.60133
   4.84290  -0.67566   4.60133
   5.08290  -0.91566   4.60133
   5.08290  -0.91566   4.36133
   5.32290  -0.91566   4.36133
   5.32290  -0.91566   4.36133
   5.32290  -0.91566   4.36133
   5.56290  -0.91566   4.12133
   5.56290  -1.15566   4.12133
   5.56290  -0.91566   4.12133
   5.80290  -1.15566   4.12133
   5.56290  -1.15566   3.88133
   5.80290  -1.15566   3.88133
   5.80290  -1.15566   3.88133
   6.04290  -1.15566   3.64133
   6.04290  -1.15566   3.64133
   6.04290  -1.15566   3.64133
   5.80290  -1.15566   3.40133
   6.28290  -1.15566   3.40133
   6.28290  -1.15566   3.16133
   6.28290  -1.15566   3.16133
   6.28290  -1.15566   3.16133
   6.28290  -0.91566   2.92133
   6.52290  -1.15566   2.92133
   6.52290  -0.91566   2.68133
   6.52290  -0.91566   2.68133
   6.52290  -0.91566   2.68133
   6.52290  -0.91566   2.44133
   6.52290  -0.67566   2.44133
   6.52290  -0.67566   2.20133
   6.52290  -0.67566   2.20133
   6.52290  -0.67566   1.96133
   6.52290  -0.67566   1.96133
   6.52290  -0.67566   1.96133
   6.52290  -0.67566   1.72133
   6.52290  -0.43566   1.72133
   6.52290  -0.43566   1.72133
   6.52290  -0.43566   1.49133
   6.52290  -0.43566   1.49133
   6.52290  -0.19566   1.25133
   6.52290  -0.19566   1.25133
   6.52290  -0.19566   1.01133
   6.52290   0.04434   1.01133
   6.28290   0.04434   1.01133
   6.28290   0.04434   0.77133
   6.28290   0.28434   0.77133
   6.28290   0.28434   0.53133
   6.04290   0.28434   0.53133
   6.04290   0.28434   0.53133
   6.04290   0.28434   0.29133
   6.04290   0.52434   0.29133
   5.80290   0.52434   0.29133
   5.56290   0.52434   0.29133
   5.56290   0.76434   0.29133
   5.56290   0.76434   0.29133
   5.32290   0.76434   0.05133
   5.32290   0.76434   0.05133
   5.08290   1.00434   0.05133
   5.08290   1.00434   0.05133
   4.84290   1.00434   0.05133
   4.60290   1.00434   0.05133
   4.60290   1.00434   0.05133
   4.36290   1.00434   0.05133
   4.36290   1.00434   0.05133
   4.12290   1.00434   0.05133
   3.88290   1.00434   0.05133
   3.64290   1.00434   0.05133
   3.64290   1.00434   0.05133
   3.40290   1.00434   0.05133
   3.40290   1.00434   0.05133
   3.16290   1.00434   0.05133
   2.92290   1.00434   0.05133
   2.68290   1.00434   0.05133
   2.45290   1.00434   0.05133
   2.21290   1.00434   0.05133
   1.97290   1.00434   0.29133
   1.73290   1.00434   0.29133
   1.49290   0.76434   0.29133
   1.25290   1.00434   0.29133
   1.25290   1.00434   0.29133
   0.77290   0.76434   0.29133
   0.77290   0.76434   0.29133
   0.53290   0.76434   0.29133
   0.29290   0.76434   0.29133
   0.05290   0.76434   0.29133
  -0.18710   0.76434   0.29133
  -0.42710   0.76434   0.29133
  -0.66710   0.76434   0.29133
  -0.90710   0.76434   0.29133
  -1.14710   0.76434   0.29133
  -1.38710   0.76434   0.29133
  -1.86710   0.76434   0.29133
  -1.86710   0.76434   0.29133
  -2.10710   0.76434   0.29133
  -2.81710   0.76434   0.05133
  -2.81710   0.76434   0.29133
  -3.29710   0.76434   0.05133
  -3.29710   0.76434   0.05133
  -3.53710   0.76434   0.05133
  -3.77710   0.76434   0.05133
  -3.77710   0.76434   0.05133
  -4.01710   0.52434  -0.18867
  -4.49710   0.76434  -0.18867
  -4.73710   0.52434  -0.18867
  -4.97710   0.52434  -0.18867
  -4.97710   0.52434  -0.18867
  -5.45710   0.52434  -0.42867
  -5.45710   0.52434  -0.42867
  -5.69710   0.52434  -0.42867
  -5.93710   0.52434  -0.42867
  -6.17710   0.52434  -0.42867
  -6.41710   0.52434  -0.66867
  -6.65710   0.52434  -0.66867
  -6.65710   0.52434  -0.66867
  -6.89710   0.28434  -0.66867
  -7.13710   0.28434  -0.90867
  -7.36710   0.28434  -0.90867
  -7.36710   0.28434  -0.90867
  -7.60710   0.28434  -0.90867
  -7.60710   0.28434  -1.14867
  -7.84710   0.28434  -1.14867
  -7.84710   0.28434  -1.14867
  -8.08710   0.28434  -1.14867
  -8.08710   0.28434  -1.14867
  -8.32710   0.04434  -1.14867
  -8.32710   0.28434  -1.14867
  -8.32710   0.28434  -1.38867
  -8.56710   0.04434  -1.38867
  -8.56710   0.04434  -1.38867
  -8.56710   0.04434  -1.62867
  -8.80710   0.04434  -1.38867
  -8.80710   0.04434  -1.38867
  -8.80710   0.04434  -1.62867
  -8.80710   0.04434  -1.62867
  -9.04710   0.04434  -1.62867
  -9.04710   0.04434  -1.62867
  -9.04710   0.04434  -1.62867
  -9.04710   0.04434  -1.62867
  -9.04710   0.04434  -1.62867
  -9.04710   0.04434  -1.62867
  -9.28710   0.04434  -1.62867
  -9.28710   0.04434  -1.62867
  -9.28710   0.04434  -1.62867
  -9.28710   0.04434  -1.86867
  -9.28710   0.04434  -1.86867
  -9.52710   0.04434  -1.86867
  -9.52710   0.28434  -1.86867
  -9.52710   0.28434  -1.86867
  -9.52710   0.28434  -1.86867
  -9.52710   0.28434  -1.86867
  -9.52710   0.28434  -2.10867
  -9.76710   0.28434  -2.10867
  -9.76710   0.28434  -2.10867
  -9.76710   0.28434  -2.10867
  -9.76710   0.28434  -2.10867
  -9.76710   0.28434  -2.10867
  -9.76710   0.28434  -2.34867
 -10.00710   0.28434  -2.34867
 -10.00710   0.28434  -2.34867
 -10.00710   0.28434  -2.34867
 -10.00710   0.28434  -2.58867
 -10.00710   0.28434  -2.34867
 -10.00710   0.28434  -2.58867
 -10.00710   0.28434  -2.58867
 -10.00710   0.28434  -2.58867
 -10.00710   0.52434  -2.58867
 -10.00710   0.28434  -2.58867
 -10.24710   0.52434  -2.58867
 -10.00710   0.52434  -2.82867
 -10.00710   0.28434  -2.82867
 -10.00710   0.28434  -2.82867
 -10.00710   0.28434  -2.82867
 -10.00710   0.28434  -2.82867
 -10.00710   0.28434  -2.82867
 -10.00710   0.28434  -2.82867
  -9.76710   0.28434  -2.82867
  -9.76710   0.28434  -2.82867
  -9.76710   0.28434  -2.58867
  -9.76710   0.28434  -2.82867
  -9.76710   0.28434  -2.58867
  -9.52710   0.04434  -2.58867
  -9.52710   0.04434  -2.58867
  -9.52710   0.04434  -2.58867
  -9.28710   0.04434  -2.34867
  -9.28710   0.04434  -2.34867
  -9.28710   0.04434  -2.34867
  -9.04710   0.04434  -2.10867
  -9.04710   0.04434  -2.10867
  -8.80710   0.04434  -2.10867
  -8.80710   0.04434  -2.10867
  -8.80710   0.04434  -2.10867
  -8.56710  -0.19566  -1.86867
  -8.56710  -0.19566  -1.86867
  -8.32710  -0.19566  -1.86867
  -8.32710  -0.19566  -1.62867
  -8.32710  -0.19566  -1.62867
  -8.08710  -0.19566  -1.62867
  -8.08710  -0.19566  -1.62867
  -7.84710  -0.19566  -1.62867
  -7.84710  -0.19566  -1.38867
  -7.60710  -0.19566  -1.38867
  -7.60710  -0.19566  -1.38867
  -7.36710  -0.19566  -1.38867
  -7.36710  -0.19566  -1.38867
  -7.36710  -0.19566  -1.14867
  -7.13710  -0.19566  -1.14867
  -6.89710  -0.19566  -1.14867
  -6.89710  -0.19566  -1.14867
  -6.65710  -0.19566  -1.14867
  -6.65710  -0.19566  -1.14867
  -6.41710  -0.19566  -1.14867
  -6.41710  -0.19566  -1.14867
  -6.17710  -0.19566  -1.14867
  -5.93710  -0.19566  -1.14867
  -5.93710  -0.19566  -1.14867
  -5.69710  -0.19566  -1.14867
  -5.45710  -0.19566  -1.14867
  -5.45710  -0.19566  -1.14867
  -5.21710  -0.19566  -1.14867
  -5.21710  -0.19566  -1.14867
  -4.97710  -0.19566  -1.14867
  -4.73710  -0.19566  -1.14867
  -4.73710  -0.19566  -1.14867
  -4.49710  -0.19566  -1.14867
  -4.25710   0.04434  -1.14867
  -4.25710   0.04434  -1.14867
  -4.01710   0.04434  -1.14867
  -3.77710   0.04434  -1.14867
  -3.53710   0.04434  -1.14867
  -3.53710   0.04434  -1.14867
  -3.29710   0.04434  -1.14867
  -3.05710   0.04434  -1.14867
  -2.81710   0.04434  -1.14867
  -2.57710   0.04434  -1.14867
  -2.57710   0.28434  -1.14867
  -2.34710   0.28434  -1.14867
  -2.10710   0.28434  -0.90867
  -1.86710   0.28434  -0.90867
  -1.62710   0.28434  -0.90867
  -1.38710   0.28434  -0.90867
  -1.14710   0.28434  -0.90867
  -0.90710   0.28434  -0.66867
  -0.66710   0.28434  -0.66867
  -0.42710   0.28434  -0.66867
  -0.18710   0.28434  -0.66867
  -0.18710   0.28434  -0.42867
   0.29290   0.28434  -0.42867
   0.29290   0.28434  -0.42867
   0.53290   0.28434  -0.18867
   0.77290   0.28434  -0.18867
   1.01290   0.28434   0.05133
   1.25290   0.28434   0.05133
   1.49290   0.04434   0.05133
   1.73290   0.04434   0.29133
   2.21290   0.04434   0.29133
   2.21290   0.04434   0.29133
   2.68290   0.04434   0.53133
   2.92290   0.04434   0.53133
   3.16290  -0.19566   0.77133
   3.40290  -0.19566   0.77133
   3.64290  -0.19566   0.77133
   3.88290  -0.19566   1.01133
   4.12290  -0.19566   1.01133
   4.60290  -0.19566   1.25133
   4.84290  -0.19566   1.25133
   5.08290  -0.19566   1.25133
   5.32290  -0.19566   1.49133
   5.56290  -0.19566   1.49133
   6.04290  -0.19566   1.72133
   6.28290  -0.19566   1.72133
   6.52290  -0.19566   1.72133
   6.76290  -0.43566   1.96133
   7.00290  -0.19566   1.96133
   7.24290  -0.19566   1.96133
   7.47290  -0.43566   2.20133
   7.71290  -0.43566   2.20133
   7.95290  -0.19566   2.20133
   7.95290  -0.43566   2.44133
   8.19290  -0.43566   2.44133
   8.43290  -0.43566   2.44133
   8.67290  -0.43566   2.68133
   8.91290  -0.43566   2.68133
   9.15290  -0.43566   2.68133
   9.39290  -0.43566   2.92133
   9.63290  -0.43566   3.16133
   9.63290  -0.43566   3.16133
   9.87290  -0.67566   3.16133
   9.87290  -0.43566   3.40133
  10.11290  -0.43566   3.40133
  10.35290  -0.43566   3.40133
  10.59290  -0.43566   3.64133
  10.59290  -0.43566   3.88133
  10.83290  -0.43566   3.88133
  10.83290  -0.43566   3.88133
  11.07290  -0.43566   4.12133
  11.31290  -0.43566   4.12133
  11.31290  -0.43566   4.36133
  11.55290  -0.43566   4.36133
  11.55290  -0.43566   4.60133
  11.55290  -0.43566   4.60133
  11.79290  -0.43566   4.60133
  11.79290  -0.43566   4.84133
  12.03290  -0.43566   4.84133
  12.03290  -0.43566   5.08133
  12.03290  -0.43566   5.08133
  12.26290  -0.43566   5.08133
  12.26290  -0.43566   5.08133
  12.26290  -0.43566   5.32133
  12.26290  -0.43566   5.32133
  12.26290  -0.43566   5.32133
  12.26290  -0.43566   5.32133
  12.26290  -0.43566   5.56133
  12.26290  -0.43566   5.56133
  12.03290  -0.43566   5.56133
  12.03290  -0.43566   5.56133
  11.79290  -0.43566   5.80133
  11.79290  -0.43566   5.80133
  11.79290  -0.19566   5.80133
  11.55290  -0.19566   5.80133
  11.55290  -0.19566   5.80133
  11.31290  -0.19566   5.80133
  11.31290  -0.19566   5.80133
  11.07290  -0.19566   5.80133
  10.83290  -0.19566   5.80133
  10.83290   0.04434   5.80133
  10.59290   0.04434   5.80133
  10.35290   0.04434   6.04133
  10.11290   0.28434   5.80133
   9.87290   0.28434   6.04133
   9.87290   0.28434   5.80133
   9.63290   0.28434   5.80133
   9.39290   0.28434   5.80133
   9.15290   0.28434   5.80133
   8.91290   0.28434   5.80133
   8.67290   0.28434   5.80133
   8.43290   0.28434   5.80133
   8.19290   0.28434   5.56133
   7.95290   0.28434   5.56133
   7.71290   0.28434   5.56133
   7.47290   0.28434   5.56133
   7.47290   0.52434   5.32133
   7.24290  -0.19566   5.32133
   7.00290   0.52434   5.32133
   6.76290   0.52434   5.08133
   6.52290   0.52434   5.08133
   6.28290   0.52434   5.08133
   6.04290   0.52434   4.84133
   6.04290   0.52434   4.84133
   5.80290   0.52434   4.60133
   5.56290   0.52434   4.36133
   5.32290   0.52434   4.36133
   5.32290   0.52434   4.12133
   5.08290   0.52434   4.12133
   4.84290   0.76434   3.88133
   4.60290   0.52434   3.64133
   4.60290   0.52434   3.64133
   4.36290   0.52434   3.40133
   4.36290   0.52434   3.40133
   4.12290   0.52434   3.16133
   4.12290   0.52434   3.16133
   3.88290   0.52434   2.92133
   3.88290   0.52434   2.92133
   3.64290   0.52434   2.68133
   3.64290   0.52434   2.68133
   3.40290   0.52434   2.44133
   3.40290   0.52434   2.20133
   3.16290   0.28434   2.20133
   3.16290   0.28434   1.96133
   3.16290   0.28434   1.96133
   2.92290   0.28434   1.72133
   2.68290   0.28434   1.49133
   2.68290   0.28434   1.49133
   2.68290   0.04434   1.25133
   2.45290   0.28434   1.25133
   2.45290   0.04434   1.01133
   2.21290   0.04434   0.77133
   2.21290   0.04434   0.53133
   2.21290   0.04434   0.53133
   2.21290   0.04434   0.29133
   1.97290  -0.19566   0.29133
   1.97290  -0.19566   0.05133
   1.97290  -0.19566  -0.18867
   1.97290  -0.67566  -0.42867
   1.73290  -0.19566  -0.42867
   1.73290  -0.19566  -0.66867
   1.73290  -0.19566  -0.66867
   1.49290  -0.19566  -0.90867
   1.49290  -0.19566  -1.14867
   1.49290  -0.19566  -1.14867
   1.49290  -0.43566  -1.38867
   1.25290  -0.43566  -1.38867
   1.25290  -0.43566  -1.62867
   1.25290  -0.43566  -1.86867
   1.25290  -0.43566  -2.10867
   1.01290  -0.43566  -2.10867
   1.01290  -0.43566  -2.10867
   1.01290  -0.43566  -2.34867
   1.01290  -0.43566  -2.58867
   0.77290  -0.67566  -2.58867
   0.77290  -0.67566  -2.82867
   0.77290  -0.67566  -2.82867
   0.77290  -0.67566  -3.06867
   0.77290  -0.67566  -3.06867
   0.53290  -0.67566  -3.06867
   0.53290  -0.67566  -3.30867
   0.53290  -0.67566  -3.30867
   0.29290  -0.67566  -3.53867
   0.29290  -0.91566  -3.53867
   0.29290  -0.91566  -3.53867
   0.05290  -0.91566  -3.77867
   0.05290  -0.91566  -3.77867
   0.05290  -0.91566  -3.77867
  -0.18710  -0.91566  -4.01867
  -0.18710  -0.91566  -4.01867
  -0.18710  -0.91566  -4.01867
  -0.42710  -0.91566  -4.01867
  -0.42710  -0.91566  -4.25867
  -0.42710  -0.91566  -4.25867
  -0.66710  -0.91566  -4.25867
  -0.66710  -0.91566  -4.25867
  -0.90710  -0.91566  -4.49867
  -0.90710  -0.91566  -4.49867
  -0.90710  -0.91566  -4.49867
  -1.14710  -0.91566  -4.73867
  -1.14710  -0.91566  -4.73867
  -1.14710  -0.91566  -4.73867
  -1.38710  -0.91566  -4.73867
  -1.38710  -0.67566  -4.73867
  -1.62710  -0.67566  -4.97867
  -1.62710  -0.67566  -4.97867
  -1.62710  -0.67566  -4.97867
  -1.86710  -0.67566  -4.97867
  -1.86710  -0.67566  -4.97867
  -1.86710  -0.67566  -4.97867
  -2.10710  -0.43566  -4.97867
  -2.10710  -0.43566  -5.21867
  -2.10710  -0.43566  -5.21867
  -2.10710  -0.43566  -5.21867
  -2.10710  -0.43566  -5.21867
  -2.10710  -0.43566  -5.21867
  -2.34710  -0.43566  -4.97867
  -2.34710  -0.19566  -5.21867
  -2.34710  -0.19566  -4.97867
  -2.57710  -0.19566  -4.97867
  -2.57710  -0.19566  -4.97867
  -2.57710  -0.19566  -4.97867
  -2.57710  -0.19566  -4.97867
  -2.81710  -0.19566  -4.97867
  -2.81710  -0.19566  -4.97867
  -2.81710  -0.19566  -4.73867
  -3.05710  -0.19566  -4.73867
  -3.05710   0.04434  -4.73867
  -3.05710   0.04434  -4.73867
  -3.29710   0.04434  -4.73867
  -3.29710   0.04434  -4.73867
  -3.53710   0.28434  -4.49867
