********************************************************************************
               CENTRO DE INSTRUMENTACION Y REGISTRO SISMICO  A.C.  
                       Coordinacion de Servicios Tecnicos
     Anaxagoras 814, Col. Narvarte, Benito Juarez, C.P. 03020 Mexico, D.F.
            Tels. 687 45 42/ 687 45  82             Fax. 669 25 12
********************************************************************************
ARCHIVO ESTANDAR DE ACELERACION:
VERSION DEL FORMATO                    : 2.0
NOMBRE DEL ARCHIVO                     : AU119510.091
FECHA Y HORA DE CREACION               : 19 de marzo de 1996/10:17
REF. CATALOGO ACELEROGRAMAS, SMIS 1995 : REGISTRO No.     /PAG.


================================================================================
DATOS DE LA ESTACION:
NOMBRE DE LA ESTACION                  : AUTODROMO
CLAVE DE LA ESTACION                   : AU11
LOCALIZACION DE LA ESTACION            : AUTODROMO HERMANOS RODRIGUEZ,
                                       : CHURUBUSCO, CD. DEPORTIVA
                                       :
                                       :
                                       :
COORDENADAS DE LA ESTACION             : 19.392 LAT. N 
                                       : 99.087 LONG. W 
ALTITUD (msnm)                         : 2234
TIPO DE SUELO                          : TERRENO BLANDO, MATERIAL COMPRESIBLE
                                       : (ARCILLAS)
                                       : 
INSTITUCION RESPONSABLE                : CIRES 
                                       :

================================================================================
DATOS DEL ACELEROGRAFO:
MODELO DEL ACELEROGRAFO                : SSA-1
NUMERO DE SERIE DEL ACELEROGRAFO       : 157
NUMERO DE CANALES                      : 3
ORIENTACION C1-C6 (rumbo;orientacion)  : /N00E/+V/N90E
ORIENTACION C7-C12 (rumbo;orientacion) :
VEL. DE MUESTREO, C1-C6 (muestras/s)   : /200/200/200
VEL. DE MUESTREO, C7-C12 (muestras/s)  :
ESC. COMPLETA DE SENSORES, C1-C6, (g)  : /2/2/2
ESC. COMPLETA DE SENSORES, C7-C12, (g) :
FREC. NAT. DE SENSORES, C1-C6, (Hz)    : /50/50/50
FREC. NAT. DE SENSORES, C7-C12, (Hz)   :
AMORTIGUAMIENTO DE SENSORES, C1-C6     : /0.700/0.700/0.700
AMORTIGUAMIENTO DE SENSORES, C7-C12    :
INTERVALO DE MUESTREO, C1-C6, (s)      : /0.005/0.005/0.005
INTERVALO DE MUESTREO, C7-C12, (s)     :
UMBRAL DE DISPARO, C1-C6, (Gal)        : /2/2/2
UMBRAL DE DISPARO, C7-C12, (Gal)       :
MEMORIA DE PREEVENTO (s)               : 15
TIEMPO DE POSEVENTO (s)                : 60


================================================================================
DATOS DEL SISMO:
FECHA DEL SISMO (GMT)                  : 09/OCT/95
HORA EPICENTRO (GMT)                   : 15:35:51.0
MAGNITUD(ES)                           : /Mc=6.5/Mb=7.3/Me=7.5
COORDENADAS DEL EPICENTRO              : 18.74 
                                       : 104.67
PROFUNDIDAD FOCAL (km)                 : 5
FUENTE DE LOS DATOS EPICENTRALES       : INSTITUTO DE INGENIERIA UNAM
                                       : INSTITUTO DE GEOFISICA, UNAM

================================================================================
DATOS DE ESTE REGISTRO:
HORA DE LA PRIMERA MUESTRA (GMT)       : 15:38:19.00
EXACTITUD DEL TIEMPO (s)               :     
DURACION DEL REGISTRO (s), C1-C6       : /410.88/410.88/410.88
DURACION DEL REGISTRO (s), C7-C12      :
NUM. TOTAL DE MUESTRAS, C1-C6          : /82176/82176/82176
NUM. TOTAL DE MUESTRAS, C7-C12         :
ACEL. MAX. (Gal), C1-C6                : /12.38493/2.48507/16.65339
ACEL. MAX., C1-C6, EN LA MUESTRA       :
ACEL. MAX. (Gal), C7-C12               :
ACEL. MAX., C7-C12, EN LA MUESTRA      :
UNIDADES DE LOS DATOS                  : Gal (cm/s/s)
FACTOR DE DECIMACION                   : 1
FORMATO DATOS (FORTRAN,10 campos/dato) : 3F10.5


================================================================================
CALIDAD DEL ACELEROGRAMA:
REGISTRO DIGITAL COMPLETO, CARECE DE TIEMPO ABSOLUTO.


================================================================================
COMENTARIOS: 
             EL EQUIPO SE ENCONTRABA CON GANANCIAS DE 4 EN TODOS LOS EJES,
             POR LO QUE LAS ESCALAS COMPLETAS ERAN DE 1/2 G.












================================================================================
DATOS DE ACELERACION:
---------+---------+---------+---------+---------+---------+---------+---------+
   CANAL-1   CANAL-2   CANAL-3   CANAL-4   CANAL-5   CANAL-6   CANAL-7   CANAL-8
      N00E        +V      N90E
---------+---------+---------+---------+---------+---------+---------+---------+
[...]
  -3.76493   0.08507  13.03661
  -3.76493   0.08507  13.03661
  -3.52493   0.32507  13.03661
  -3.52493   0.32507  13.03661
  -3.52493   0.08507  13.03661
  -3.52493   0.08507  13.03661
  -3.28493   0.08507  13.03661
  -3.28493   0.08507  13.03661
  -3.28493   0.08507  12.79661
  -3.04493   0.08507  12.79661
  -3.04493   0.08507  12.79661
  -3.04493   0.08507  12.79661
  -2.80493   0.08507  12.79661
  -2.80493   0.32507  12.79661
  -2.80493   0.08507  12.79661
  -2.56493   0.32507  12.79661
  -2.56493   0.08507  12.79661
  -2.32493   0.32507  12.79661
  -2.32493   0.32507  12.79661
  -2.32493   0.08507  12.79661
  -2.32493   0.32507  12.55661
  -2.09493   0.32507  12.55661
  -2.09493   0.32507  12.55661
  -1.85493   0.32507  12.55661
  -1.85493   0.32507  12.55661
  -1.61493   0.32507  12.55661
  -1.61493   0.32507  12.55661
  -1.37493   0.32507  12.55661
  -1.37493   0.32507  12.55661
  -1.37493   0.32507  12.32661
  -1.13493   0.32507  12.32661
  -1.13493   0.32507  12.32661
  -1.13493   0.32507  12.32661
  -0.89493   0.32507  12.32661
  -0.89493   0.32507  12.32661
  -0.65493   0.32507  12.32661
  -0.65493   0.32507  12.08661
  -0.41493   0.32507  12.08661
  -0.41493   0.32507  12.08661
  -0.41493   0.32507  12.08661
  -0.17493   0.32507  12.08661
  -0.17493   0.56507  11.84661
   0.06507   0.32507  12.08661
   0.06507   0.56507  11.84661
   0.06507   0.32507  11.84661
   0.06507   0.32507  11.84661
   0.30507   0.32507  11.84661
   0.30507   0.32507  11.84661
   0.54507   0.32507  11.60661
   0.54507   0.32507  11.60661
   0.54507   0.56507  11.60661
   0.78507   0.56507  11.60661
   0.78507   0.32507  11.60661
   1.02507   0.32507  11.60661
   1.02507   0.32507  11.36661
   1.02507   0.32507  11.36661
   1.26507   0.32507  11.36661
   1.26507   0.56507  11.36661
   1.50507   0.32507  11.36661
   1.50507   0.56507  11.36661
   1.50507   0.32507  11.12661
   1.74507   0.32507  11.12661
   1.74507   0.32507  11.12661
   1.74507   0.32507  11.12661
   1.98507   0.32507  11.12661
   1.98507   0.32507  11.12661
   2.22507   0.32507  10.88661
   2.22507   0.32507  10.88661
   2.22507   0.32507  10.88661
   2.22507   0.32507  10.88661
   2.46507   0.32507  10.88661
   2.46507   0.32507  10.88661
   2.46507   0.32507  10.88661
   2.70507   0.32507  10.64661
   2.70507   0.32507  10.64661
   2.70507   0.32507  10.64661
   2.93507   0.32507  10.64661
   2.93507   0.32507  10.40661
   2.93507   0.32507  10.40661
   2.93507   0.32507  10.40661
   3.17507   0.32507  10.40661
   3.17507   0.32507  10.40661
   3.17507   0.32507  10.40661
   3.41507   0.32507  10.16661
   3.17507   0.32507  10.16661
   3.41507   0.32507  10.16661
   3.41507   0.32507  10.16661
   3.65507   0.32507  10.16661
   3.65507   0.32507   9.92661
   3.65507   0.32507   9.92661
   3.65507   0.32507   9.92661
   3.89507   0.32507   9.92661
   3.89507   0.32507   9.92661
   3.89507   0.32507   9.68661
   3.89507   0.32507   9.68661
   3.89507   0.32507   9.68661
   4.13507   0.32507   9.68661
   4.13507   0.32507   9.68661
   4.13507   0.32507   9.44661
   4.13507   0.32507   9.44661
   4.37507   0.32507   9.44661
   4.37507   0.32507   9.20661
   4.37507   0.32507   9.20661
   4.37507   0.32507   9.20661
   4.37507   0.32507   9.20661
   4.61507   0.32507   8.96661
   4.61507   0.32507   8.96661
   4.61507   0.32507   8.96661
   4.61507   0.32507   8.72661
   4.61507   0.32507   8.72661
   4.61507   0.32507   8.72661
   4.61507   0.32507   8.72661
   4.85507   0.32507   8.72661
   4.85507   0.32507   8.48661
   4.85507   0.32507   8.48661
   4.85507   0.32507   8.48661
   4.85507   0.32507   8.48661
   5.09507   0.32507   8.24661
   5.09507   0.32507   8.24661
   5.09507   0.32507   8.24661
   5.09507   0.08507   8.00661
   5.09507   0.32507   8.00661
   5.09507   0.32507   7.76661
   5.09507   0.32507   7.76661
   5.09507   0.32507   7.76661
   5.33507   0.32507   7.76661
   5.33507   0.32507   7.53661
   5.33507   0.08507   7.53661
   5.33507   0.32507   7.53661
   5.33507   0.08507   7.29661
   5.33507   0.08507   7.29661
   5.33507   0.08507   7.29661
   5.33507   0.08507   7.05661
   5.33507   0.08507   7.05661
   5.33507   0.08507   6.81661
   5.33507   0.08507   6.81661
   5.33507   0.08507   6.81661
   5.33507   0.08507   6.81661
   5.33507   0.08507   6.57661
   5.33507   0.08507   6.57661
   5.33507   0.08507   6.33661
   5.33507   0.08507   6.33661
   5.33507   0.08507   6.33661
   5.33507   0.08507   6.09661
   5.33507   0.08507   6.09661
   5.33507   0.08507   5.85661
   5.33507   0.08507   5.85661
   5.33507   0.08507   5.61661
   5.33507   0.08507   5.61661
   5.33507   0.08507   5.61661
   5.33507   0.08507   5.37661
   5.33507   0.08507   5.37661
   5.33507   0.08507   5.13661
   5.33507   0.08507   5.13661
   5.33507   0.08507   4.89661
   5.33507   0.08507   4.89661
   5.33507   0.08507   4.89661
   5.33507   0.08507   4.65661
   5.33507  -0.15493   4.65661
   5.33507   0.08507   4.41661
   5.33507  -0.15493   4.41661
   5.33507   0.08507   4.41661
   5.33507  -0.15493   4.17661
   5.33507   0.08507   4.17661
   5.33507  -0.15493   3.93661
   5.33507  -0.15493   3.93661
   5.33507  -0.15493   3.69661
   5.09507  -0.15493   3.69661
   5.09507  -0.15493   3.45661
   5.09507  -0.15493   3.45661
   5.09507  -0.15493   3.45661
   5.09507  -0.15493   3.21661
   5.09507  -0.15493   2.97661
   5.09507  -0.15493   2.97661
   5.09507  -0.39493   2.74661
   5.09507  -0.15493   2.74661
   5.09507  -0.15493   2.74661
   5.09507  -0.15493   2.50661
   5.09507  -0.15493   2.50661
   5.09507  -0.15493   2.26661
   5.09507  -0.15493   2.26661
   5.09507  -0.15493   2.02661
   4.85507  -0.15493   2.02661
   4.85507  -0.39493   1.78661
   4.85507  -0.15493   1.54661
   4.85507  -0.39493   1.54661
   4.85507  -0.15493   1.30661
   4.85507  -0.15493   1.30661
   4.85507  -0.15493   1.06661
   4.85507  -0.15493   1.06661
   4.85507  -0.39493   1.06661
   4.85507  -0.39493   0.82661
   4.85507  -0.39493   0.58661
   4.85507  -0.39493   0.58661
   4.85507  -0.39493   0.34661
   4.85507  -0.39493   0.34661
   4.85507  -0.39493   0.34661
   4.85507  -0.39493   0.10661
   4.61507  -0.39493  -0.13339
   4.61507  -0.39493  -0.13339
   4.61507  -0.63493  -0.13339
   4.61507  -0.39493  -0.37339
   4.61507  -0.39493  -0.37339
   4.61507  -0.39493  -0.61339
   4.61507  -0.39493  -0.61339
   4.61507  -0.39493  -0.85339
   4.61507  -0.39493  -1.09339
   4.61507  -0.39493  -1.09339
   4.61507  -0.39493  -1.09339
   4.61507  -0.39493  -1.33339
   4.37507  -0.39493  -1.57339
   4.37507  -0.39493  -1.57339
   4.37507  -0.39493  -1.81339
   4.37507  -0.39493  -1.81339
   4.37507  -0.39493  -2.05339
   4.37507  -0.39493  -2.05339
   4.37507  -0.39493  -2.28339
   4.37507  -0.39493  -2.28339
   4.37507  -0.39493  -2.52339
   4.37507  -0.39493  -2.76339
   4.13507  -0.39493  -2.76339
   4.13507  -0.39493  -3.00339
   4.13507  -0.39493  -3.24339
   4.13507  -0.39493  -3.24339
   4.13507  -0.39493  -3.24339
   4.13507  -0.39493  -3.48339
   4.13507  -0.39493  -3.72339
   4.13507  -0.39493  -3.72339
   3.89507  -0.39493  -3.96339
   3.89507  -0.39493  -3.96339
   3.89507  -0.39493  -4.20339
   3.89507  -0.39493  -4.20339
   3.89507  -0.39493  -4.44339
   3.89507  -0.39493  -4.68339
   3.89507  -0.39493  -4.68339
   3.89507  -0.39493  -4.92339
   3.65507  -0.39493  -4.92339
   3.65507  -0.39493  -5.16339
   3.65507  -0.39493  -5.16339
   3.65507  -0.39493  -5.40339
   3.65507  -0.39493  -5.40339
   3.41507  -0.39493  -5.64339
   3.41507  -0.39493  -5.88339
   3.41507  -0.39493  -5.88339
   3.41507  -0.39493  -6.12339
   3.41507  -0.39493  -6.12339
   3.17507  -0.15493  -6.36339
   3.17507  -0.15493  -6.60339
   3.17507  -0.15493  -6.60339
   3.17507  -0.15493  -6.84339
   2.93507  -0.15493  -6.84339
   2.93507  -0.15493  -7.07339
   2.93507  -0.15493  -7.07339
   2.93507  -0.15493  -7.31339
   2.70507  -0.15493  -7.55339
   2.70507  -0.15493  -7.55339
   2.70507  -0.15493  -7.79339
   2.70507  -0.15493  -7.79339
   2.70507  -0.15493  -8.03339
   2.46507  -0.15493  -8.03339
   2.46507  -0.15493  -8.27339
   2.46507  -0.15493  -8.51339
   2.46507  -0.15493  -8.51339
   2.22507  -0.15493  -8.75339
   2.22507  -0.15493  -8.99339
   2.22507  -0.15493  -8.99339
   2.22507  -0.15493  -8.99339
   1.98507  -0.15493  -9.23339
   1.98507  -0.15493  -9.47339
   1.74507  -0.15493  -9.47339
   1.74507  -0.15493  -9.71339
   1.74507  -0.15493  -9.95339
   1.74507  -0.15493  -9.95339
   1.50507  -0.15493 -10.19339
   1.50507  -0.15493 -10.19339
   1.50507  -0.15493 -10.43339
   1.50507  -0.15493 -10.43339
   1.26507  -0.15493 -10.67339
   1.26507  -0.15493 -10.91339
   1.02507  -0.15493 -10.91339
   1.02507  -0.15493 -10.91339
   1.02507  -0.15493 -11.15339
   1.02507  -0.15493 -11.39339
   1.02507  -0.15493 -11.39339
   0.78507  -0.15493 -11.63339
   0.78507  -0.15493 -11.63339
   0.78507  -0.15493 -11.86339
   0.54507  -0.15493 -11.86339
   0.54507  -0.39493 -12.10339
   0.54507  -0.15493 -12.34339
   0.30507  -0.15493 -12.34339
   0.30507  -0.15493 -12.58339
   0.30507  -0.15493 -12.58339
   0.06507  -0.15493 -12.82339
   0.06507  -0.15493 -12.82339
   0.06507  -0.15493 -13.06339
   0.06507  -0.15493 -13.06339
   0.06507  -0.15493 -13.30339
   0.06507  -0.15493 -13.30339
  -0.17493  -0.15493 -13.54339
  -0.17493  -0.15493 -13.54339
  -0.41493  -0.15493 -13.78339
  -0.41493  -0.39493 -13.78339
  -0.41493  -0.39493 -13.78339
  -0.41493  -0.39493 -14.02339
  -0.41493  -0.39493 -14.02339
  -0.41493  -0.39493 -14.26339
  -0.65493  -0.39493 -14.26339
  -0.65493  -0.39493 -14.26339
  -0.65493  -0.39493 -14.50339
  -0.65493  -0.39493 -14.50339
  -0.65493  -0.39493 -14.74339
  -0.89493  -0.39493 -14.74339
  -0.89493  -0.39493 -14.74339
  -0.89493  -0.39493 -14.98339
  -0.89493  -0.39493 -14.98339
  -0.89493  -0.39493 -14.98339
  -0.89493  -0.39493 -15.22339
  -1.13493  -0.63493 -15.22339
  -1.13493  -0.39493 -15.22339
  -1.13493  -0.39493 -15.46339
  -1.13493  -0.39493 -15.46339
  -1.13493  -0.63493 -15.46339
  -1.13493  -0.63493 -15.70339
  -1.13493  -0.63493 -15.70339
  -1.13493  -0.63493 -15.70339
  -1.13493  -0.63493 -15.70339
  -1.13493  -0.63493 -15.70339
  -1.37493  -0.63493 -15.94339
  -1.13493  -0.63493 -15.94339
  -1.37493  -0.63493 -15.94339
  -1.13493  -0.63493 -15.94339
  -1.37493  -0.63493 -16.18339
  -1.37493  -0.87493 -16.18339
  -1.37493  -0.87493 -16.18339
  -1.37493  -0.87493 -16.18339
  -1.37493  -0.87493 -16.18339
  -1.13493  -0.87493 -16.18339
  -1.37493  -0.87493 -16.42339
  -1.13493  -0.87493 -16.42339
  -1.13493  -0.87493 -16.42339
  -1.13493  -0.87493 -16.42339
  -1.13493  -0.87493 -16.42339
  -1.13493  -0.87493 -16.42339
  -1.13493  -0.87493 -16.42339
  -1.13493  -1.11493 -16.42339
  -1.13493  -1.11493 -16.65339
  -1.13493  -1.11493 -16.65339
  -1.13493  -1.11493 -16.65339
  -1.13493  -1.11493 -16.65339
  -0.89493  -1.11493 -16.65339
  -1.13493  -1.11493 -16.65339
  -0.89493  -1.11493 -16.65339
  -0.89493  -1.11493 -16.65339
  -0.89493  -1.11493 -16.65339
  -0.89493  -1.11493 -16.65339
  -0.89493  -1.11493 -16.65339
  -0.89493  -1.11493 -16.65339
  -0.65493  -1.11493 -16.65339
  -0.65493  -1.11493 -16.65339
  -0.65493  -1.35493 -16.65339
  -0.65493  -1.35493 -16.65339
  -0.41493  -1.11493 -16.65339
  -0.41493  -1.11493 -16.65339
  -0.41493  -1.35493 -16.65339
  -0.41493  -1.35493 -16.65339
  -0.41493  -1.35493 -16.65339
  -0.17493  -1.35493 -16.65339
  -0.17493  -1.35493 -16.65339
  -0.17493  -1.35493 -16.42339
   0.06507  -1.35493 -16.42339
   0.06507  -1.35493 -16.42339
   0.06507  -1.35493 -16.42339
   0.06507  -1.35493 -16.42339
   0.06507  -1.35493 -16.42339
   0.06507  -1.35493 -16.42339
   0.06507  -1.35493 -16.18339
   0.30507  -1.35493 -16.18339
   0.30507  -1.35493 -16.18339
   0.30507  -1.35493 -16.18339
   0.54507  -1.35493 -16.18339
   0.54507  -1.59493 -16.18339
   0.54507  -1.35493 -16.18339
   0.54507  -1.35493 -15.94339
   0.78507  -1.35493 -15.94339
   0.54507  -1.35493 -15.94339
   0.78507  -1.35493 -15.94339
   0.78507  -1.35493 -15.70339
   1.02507  -1.35493 -15.70339
   1.02507  -1.35493 -15.70339
   1.02507  -1.35493 -15.70339
   1.02507  -1.35493 -15.46339
   1.02507  -1.35493 -15.46339
   1.26507  -1.35493 -15.46339
   1.26507  -1.35493 -15.46339
   1.26507  -1.35493 -15.22339
   1.26507  -1.35493 -15.22339
   1.26507  -1.35493 -15.22339
   1.50507  -1.35493 -15.22339
   1.50507  -1.35493 -14.98339
   1.50507  -1.35493 -15.22339
   1.50507  -1.35493 -14.98339
   1.50507  -1.35493 -14.98339
   1.74507  -1.35493 -14.74339
   1.74507  -1.59493 -14.74339
   1.74507  -1.35493 -14.74339
   1.74507  -1.35493 -14.50339
   1.98507  -1.35493 -14.50339
   1.98507  -1.35493 -14.50339
   1.98507  -1.35493 -14.50339
   1.98507  -1.35493 -14.26339
   1.98507  -1.35493 -14.26339
   1.98507  -1.35493 -14.26339
   1.98507  -1.35493 -14.02339
   2.22507  -1.35493 -14.02339
   2.22507  -1.35493 -14.02339
   2.22507  -1.35493 -13.78339
   2.22507  -1.35493 -13.78339
   2.22507  -1.35493 -13.78339
   2.22507  -1.35493 -13.54339
   2.22507  -1.35493 -13.54339
   2.22507  -1.35493 -13.54339
   2.22507  -1.35493 -13.30339
   2.46507  -1.35493 -13.30339
   2.46507  -1.35493 -13.30339
   2.46507  -1.35493 -13.06339
   2.46507  -1.35493 -13.06339
   2.22507  -1.35493 -12.82339
   2.46507  -1.35493 -12.82339
   2.46507  -1.35493 -12.82339
   2.22507  -1.35493 -12.58339
   2.46507  -1.35493 -12.58339
   2.46507  -1.35493 -12.34339
   2.46507  -1.35493 -12.34339
   2.46507  -1.35493 -12.34339
   2.46507  -1.35493 -12.34339
   2.46507  -1.35493 -12.10339
   2.46507  -1.35493 -12.10339
   2.46507  -1.11493 -11.86339
   2.46507  -1.11493 -11.86339
   2.46507  -1.11493 -11.63339
   2.22507  -1.11493 -11.63339
   2.22507  -1.11493 -11.63339
   2.22507  -1.11493 -11.39339
   2.22507  -1.11493 -11.39339
   2.22507  -1.11493 -11.39339
   2.22507  -1.11493 -11.15339
   2.22507  -1.11493 -11.15339
   2.22507  -1.11493 -10.91339
   2.22507  -1.11493 -10.91339
   2.22507  -1.11493 -10.67339
   1.98507  -1.11493 -10.67339
   1.98507  -0.87493 -10.67339
   1.98507  -0.87493 -10.43339
   1.98507  -0.87493 -10.43339
   1.98507  -0.87493 -10.19339
   1.98507  -0.87493 -10.19339
   1.98507  -0.87493  -9.95339
   1.74507  -0.87493  -9.95339
   1.74507  -0.87493  -9.71339
   1.74507  -0.87493  -9.71339
   1.74507  -0.87493  -9.47339
   1.74507  -0.87493  -9.47339
   1.50507  -0.87493  -9.23339
   1.50507  -0.87493  -9.23339
   1.50507  -0.87493  -8.99339
   1.50507  -0.87493  -8.99339
   1.50507  -0.63493  -8.99339
   1.26507  -0.63493  -8.75339
   1.26507  -0.63493  -8.51339
   1.26507  -0.63493  -8.51339
   1.02507  -0.63493  -8.51339
   1.02507  -0.63493  -8.27339
   1.02507  -0.63493  -8.27339
   1.02507  -0.63493  -8.03339
   1.02507  -0.63493  -8.03339
   0.78507  -0.63493  -7.79339
   0.78507  -0.63493  -7.55339
   0.78507  -0.63493  -7.55339
   0.54507  -0.39493  -7.55339
   0.54507  -0.39493  -7.31339
   0.54507  -0.39493  -7.31339
   0.54507  -0.39493  -7.07339
   0.30507  -0.39493  -7.07339
   0.30507  -0.39493  -6.84339
   0.30507  -0.39493  -6.84339
   0.06507  -0.39493  -6.60339
   0.06507  -0.39493  -6.60339
   0.06507  -0.39493  -6.36339
   0.06507  -0.39493  -6.36339
   0.06507  -0.39493  -6.12339
  -0.17493  -0.15493  -6.12339
  -0.17493  -0.15493  -5.88339
  -0.17493  -0.15493  -5.88339
  -0.41493  -0.15493  -5.64339
