********************************************************************************
              CENTRO DE INSTRUMENTACION Y REGISTRO SISMICO  A.C.                

    Anaxagoras 814, Col. Narvarte, Benito Juarez, C.P. 03020 Mexico, D.F.       
           Tels. 5687 45 42/ 5687 45  82             Fax. 5669 25 12            
********************************************************************************
ARCHIVO ESTANDAR DE ACELERACION:
VERSION DEL FORMATO                    : 2.0
NOMBRE DEL ARCHIVO                     : AU1119941210161740
FECHA Y HORA DE CREACION               : 05/MAR/18, 11:03
REF. CATALOGO ACELEROGRAMAS, SMIS 1996 : REGISTRO No.     /PAG.


================================================================================
DATOS DE LA ESTACION:
NOMBRE DE LA ESTACION                  : AUTÓDROMO
CLAVE DE LA ESTACION                   : AU11
LOCALIZACION DE LA ESTACION            : Del. Iztacalco, Cd. Deportiva          
                                       : Magdalena Mixhuca,                     
                                       : Col. Granjas México                    
                                       :                                        
                                       : 
COORDENADAS DE LA ESTACION             : 19.3919 LAT. N
                                       : 99.0869 LONG. W
ALTITUD (msnm)                         : 2234
TIPO DE SUELO                          : Terreno blando, material compresible
                                       : (arcillas)                
                                       : 
INSTITUCION RESPONSABLE                : CIRES


================================================================================
DATOS DEL ACELEROGRAFO:
MODELO DEL ACELEROGRAFO                : SSA-1
NUMERO DE SERIE DEL ACELEROGRAFO       : 157
NUMERO DE CANALES                      : 3
ORIENTACION C1-C6 (rumbo;orientacion)  : /S00E/+V/N90W
ORIENTACION C7-C12 (rumbo;orientacion) : 
VEL. DE MUESTREO, C1-C6 (muestras/s)   : /200/200/200
VEL. DE MUESTREO, C7-C12 (muestras/s)  : 
ESC. COMPLETA DE SENSORES, C1-C6, (g)  : /2.0/2.0/2.0
ESC. COMPLETA DE SENSORES, C7-C12, (g) : 
FREC. NAT. DE SENSORES, C1-C6, (Hz)    : /51.77/52.56/52.29
FREC. NAT. DE SENSORES, C7-C12, (Hz)   : 
AMORTIGUAMIENTO DE SENSORES, C1-C6     : /0.5912/0.6083/0.6067
AMORTIGUAMIENTO DE SENSORES, C7-C12    : 
INTERVALO DE MUESTREO, C1-C6, (s)      : /0.005/0.005/0.005
INTERVALO DE MUESTREO, C7-C12, (s)     : 
UMBRAL DE DISPARO, C1-C6, (Gal)        : /1.0/1.0/1.0
UMBRAL DE DISPARO, C7-C12, (Gal)       : 
MEMORIA DE PREEVENTO (s)               : 15.36
TIEMPO DE POSEVENTO (s)                : 0.0


================================================================================
DATOS DEL SISMO:
FECHA DEL SISMO (GMT)                  : 10/DIC/94
HORA EPICENTRO (GMT)                   : 16:17:40.0
MAGNITUD(ES)                           : /Mc=6.6
COORDENADAS DEL EPICENTRO              : 17.98 LAT. N
                                       : -101.52 LONG. W
PROFUNDIDAD FOCAL (km)                 : 53
FUENTE DE LOS DATOS EPICENTRALES       : SSN
                                       : INSTITUTO DE GEOFISICA, UNAM

================================================================================
DATOS DE ESTE REGISTRO:
HORA DE LA PRIMERA MUESTRA (GMT)       : 16:18:40.62
EXACTITUD DEL TIEMPO (s)               : 0.005
DURACION DEL REGISTRO (s), C1-C6       : /295.68/295.68/295.68
DURACION DEL REGISTRO (s), C7-C12      : 
NUM. TOTAL DE MUESTRAS, C1-C6          : /59136/59136/59136
NUM. TOTAL DE MUESTRAS, C7-C12         : 
ACEL. MAX. (Gal), C1-C6                : /11.70352/3.0556/7.58255
ACEL. MAX., C1-C6, EN LA MUESTRA       : /9152/11411/14200
ACEL. MAX. (Gal), C7-C12               : 
ACEL. MAX., C7-C12, EN LA MUESTRA      : 
UNIDADES DE LOS DATOS                  : Gal (cm/s/s)
FACTOR DE DECIMACION                   : 1
FORMATO DATOS (FORTRAN,10 campos/dato) : 3F10.5


================================================================================
CALIDAD DEL ACELEROGRAMA:
REGISTRO DIGITAL COMPLETO CON TIEMPO ABSOLUTO CORRECTO.


================================================================================
COMENTARIOS:














================================================================================
DATOS DE ACELERACION:
---------+---------+---------+---------+---------+---------+---------+---------+
   CANAL-1   CANAL-2   CANAL-3   CANAL-4   CANAL-5   CANAL-6   CANAL-7   CANAL-8
      N00E        +V      N90W
---------+---------+---------+---------+---------+---------+---------+---------+
[...]
   2.60556   0.05686  -0.63937
   2.60556   0.29628  -0.63937
   2.84498   0.05686  -0.63937
   2.84498   0.29628  -0.63937
   3.08440   0.29628  -0.63937
   3.08440   0.29628  -0.63937
   3.32382   0.29628  -0.39995
   3.32382   0.29628  -0.39995
   3.32382   0.29628  -0.16053
   3.56324   0.29628  -0.16053
   3.56324   0.29628  -0.16053
   3.80266   0.05686   0.07889
   3.80266   0.05686   0.07889
   3.80266   0.05686   0.07889
   3.80266   0.05686   0.31831
   3.80266   0.05686   0.31831
   4.04208   0.29628   0.55773
   4.04208   0.29628   0.79715
   4.04208   0.29628   0.79715
   4.04208   0.05686   0.79715
   4.04208   0.29628   1.03657
   4.04208   0.29628   1.03657
   4.04208   0.29628   1.27599
   4.04208   0.29628   1.27599
   4.04208   0.29628   1.27599
   4.04208   0.29628   1.27599
   4.04208   0.05686   1.51541
   3.80266   0.05686   1.51541
   3.80266   0.05686   1.75483
   3.80266   0.05686   1.75483
   3.56324   0.05686   1.75483
   3.56324   0.05686   1.99425
   3.56324   0.05686   1.99425
   3.32382   0.05686   1.99425
   3.08440   0.05686   2.23367
   3.08440   0.05686   2.23367
   2.84498   0.05686   2.23367
   2.84498   0.05686   2.47309
   2.84498   0.05686   2.47309
   2.60556   0.05686   2.47309
   2.60556   0.29628   2.47309
   2.36614   0.29628   2.71251
   2.36614   0.29628   2.71251
   2.12672   0.29628   2.71251
   2.12672   0.29628   2.71251
   2.12672   0.53570   2.71251
   1.88730   0.53570   2.95193
   1.88730   0.53570   2.71251
   1.64788   0.53570   2.95193
   1.64788   0.77512   2.95193
   1.40846   0.77512   2.95193
   1.40846   0.77512   2.95193
   1.40846   0.77512   2.95193
   1.16904   0.53570   3.19135
   1.16904   0.53570   3.19135
   0.92962   0.53570   3.19135
   0.92962   0.53570   3.43077
   0.69020   0.53570   3.43077
   0.69020   0.29628   3.43077
   0.45078   0.29628   3.67019
   0.45078   0.29628   3.67019
   0.45078   0.05686   3.67019
   0.21136   0.05686   3.90961
   0.21136   0.05686   3.90961
  -0.02807   0.05686   3.90961
  -0.02807   0.05686   4.14903
  -0.02807   0.05686   4.14903
  -0.02807   0.05686   4.14903
  -0.02807   0.29628   4.14903
  -0.26749   0.29628   4.14903
  -0.26749   0.29628   4.14903
  -0.26749   0.29628   4.14903
  -0.26749   0.29628   4.14903
  -0.50691   0.29628   4.14903
  -0.50691   0.29628   4.14903
  -0.50691   0.29628   4.14903
  -0.74633   0.53570   4.14903
  -0.74633   0.77512   4.14903
  -0.74633   0.77512   4.14903
  -0.98575   0.77512   4.14903
  -0.98575   1.01454   4.14903
  -0.98575   1.25396   4.14903
  -0.98575   1.25396   4.14903
  -1.22517   1.25396   3.90961
  -0.98575   1.49338   3.90961
  -1.22517   1.49338   3.90961
  -1.22517   1.49338   3.90961
  -1.22517   1.49338   3.90961
  -0.98575   1.49338   3.90961
  -0.98575   1.49338   3.67019
  -0.98575   1.25396   3.67019
  -0.98575   1.25396   3.67019
  -0.98575   1.25396   3.67019
  -0.98575   1.01454   3.43077
  -0.98575   0.77512   3.43077
  -0.74633   0.77512   3.43077
  -0.74633   0.53570   3.19135
  -0.74633   0.53570   3.19135
  -0.74633   0.53570   2.95193
  -0.50691   0.29628   2.71251
  -0.50691   0.29628   2.71251
  -0.50691   0.29628   2.71251
  -0.50691   0.29628   2.47309
  -0.26749   0.29628   2.47309
  -0.26749   0.53570   2.23367
  -0.26749   0.53570   1.99425
  -0.02807   0.53570   1.99425
  -0.02807   0.53570   1.75483
  -0.02807   0.77512   1.75483
  -0.02807   0.77512   1.51541
   0.21136   0.77512   1.51541
   0.21136   0.77512   1.27599
   0.21136   0.77512   1.03657
   0.45078   0.77512   1.03657
   0.21136   0.77512   0.79715
   0.21136   0.77512   0.79715
  -0.02807   0.53570   0.55773
   0.21136   0.53570   0.55773
   0.21136   0.53570   0.31831
   0.21136   0.53570   0.07889
  -0.02807   0.29628   0.07889
  -0.02807   0.29628  -0.16053
  -0.02807   0.29628  -0.16053
  -0.02807   0.29628  -0.39995
  -0.50691   0.29628  -0.39995
  -0.02807   0.29628  -0.63937
  -0.02807   0.29628  -0.63937
  -0.26749   0.29628  -0.87879
  -0.26749   0.29628  -0.87879
  -0.50691   0.29628  -0.87879
  -0.50691   0.29628  -0.87879
  -0.50691   0.29628  -1.11821
  -0.50691   0.53570  -1.11821
  -0.74633   0.29628  -1.11821
  -0.74633   0.53570  -1.11821
  -0.74633   0.53570  -1.11821
  -0.74633   0.53570  -1.11821
  -0.98575   0.53570  -1.11821
  -0.98575   0.77512  -1.11821
  -0.98575   0.77512  -1.11821
  -0.98575   0.77512  -1.35763
  -1.22517   0.77512  -1.35763
  -1.22517   0.77512  -1.35763
  -1.22517   0.77512  -1.35763
  -1.22517   0.77512  -1.35763
  -1.22517   0.77512  -1.35763
  -1.22517   0.77512  -1.35763
  -1.22517   0.77512  -1.59705
  -1.22517   0.53570  -1.59705
  -1.22517   0.53570  -1.59705
  -1.22517   0.53570  -1.59705
  -1.46459   0.29628  -1.59705
  -1.46459   0.29628  -1.59705
  -1.46459   0.05686  -1.59705
  -1.46459   0.05686  -1.59705
  -1.46459  -0.18256  -1.59705
  -1.46459  -0.42198  -1.59705
  -1.70401  -0.42198  -1.59705
  -1.70401  -0.66140  -1.59705
  -1.94343  -0.66140  -1.59705
  -1.94343  -0.90082  -1.59705
  -1.94343  -0.90082  -1.59705
  -2.18285  -1.14024  -1.59705
  -2.18285  -1.14024  -1.59705
  -2.42227  -1.14024  -1.83647
  -2.42227  -1.14024  -1.83647
  -2.42227  -1.37966  -1.83647
  -2.66169  -1.37966  -1.83647
  -2.66169  -1.14024  -2.07589
  -2.90111  -1.37966  -2.07589
  -2.90111  -1.14024  -2.07589
  -2.90111  -1.14024  -2.07589
  -3.14053  -1.14024  -2.07589
  -3.14053  -1.14024  -2.07589
  -3.37995  -1.37966  -2.07589
  -3.37995  -1.37966  -2.07589
  -3.61937  -1.37966  -2.31531
  -3.61937  -1.37966  -2.31531
  -3.61937  -1.37966  -2.31531
  -3.85879  -1.14024  -2.31531
  -3.85879  -1.14024  -2.31531
  -3.85879  -1.14024  -2.31531
  -4.09821  -1.14024  -2.31531
  -4.09821  -0.90082  -2.31531
  -4.09821  -0.90082  -2.31531
  -4.33763  -0.66140  -2.31531
  -4.33763  -0.90082  -2.31531
  -4.33763  -0.90082  -2.31531
  -4.33763  -0.66140  -2.31531
  -4.33763  -0.66140  -2.31531
  -4.09821  -0.90082  -2.07589
  -4.09821  -0.66140  -2.07589
  -4.09821  -0.90082  -2.07589
  -4.09821  -0.90082  -2.07589
  -3.85879  -0.90082  -2.07589
  -3.85879  -1.14024  -1.83647
  -3.61937  -1.14024  -1.83647
  -3.61937  -1.14024  -1.83647
  -3.37995  -1.14024  -1.83647
  -3.37995  -1.14024  -1.59705
  -3.37995  -1.14024  -1.59705
  -3.37995  -1.14024  -1.59705
  -3.37995  -1.14024  -1.59705
  -3.14053  -1.14024  -1.35763
  -3.14053  -1.14024  -1.35763
  -3.14053  -1.14024  -1.35763
  -3.14053  -1.14024  -1.11821
  -3.14053  -1.14024  -1.11821
  -3.14053  -1.14024  -1.11821
  -3.14053  -1.14024  -0.87879
  -3.14053  -0.90082  -0.87879
  -3.14053  -0.90082  -0.87879
  -3.14053  -0.90082  -0.63937
  -2.90111  -0.90082  -0.63937
  -2.90111  -0.90082  -0.63937
  -2.90111  -0.90082  -0.63937
  -2.90111  -0.66140  -0.39995
  -2.66169  -0.90082  -0.63937
  -2.66169  -0.66140  -0.39995
  -2.66169  -0.66140  -0.39995
  -2.42227  -0.66140  -0.39995
  -2.42227  -0.66140  -0.39995
  -2.42227  -0.42198  -0.39995
  -2.18285  -0.42198  -0.39995
  -2.18285  -0.42198  -0.39995
  -2.18285  -0.42198  -0.39995
  -1.94343  -0.66140  -0.39995
  -2.18285  -0.66140  -0.39995
  -2.18285  -0.42198  -0.39995
  -1.94343  -0.42198  -0.39995
  -1.94343  -0.42198  -0.39995
  -1.94343  -0.42198  -0.39995
  -1.94343  -0.42198  -0.39995
  -1.70401  -0.66140  -0.16053
  -1.70401  -0.66140  -0.16053
  -1.70401  -0.66140  -0.16053
  -1.46459  -0.66140  -0.16053
  -1.46459  -0.66140  -0.16053
  -1.46459  -0.90082  -0.16053
  -1.22517  -0.90082  -0.16053
  -1.22517  -0.90082   0.07889
  -1.22517  -0.90082   0.07889
  -0.98575  -0.90082   0.07889
  -0.98575  -0.90082   0.07889
  -0.98575  -0.90082   0.31831
  -0.74633  -0.66140   0.31831
  -0.74633  -0.66140   0.31831
  -0.74633  -0.66140   0.55773
  -0.74633  -0.66140   0.55773
  -0.50691  -0.66140   0.55773
  -0.74633  -0.66140   0.55773
  -0.74633  -0.66140   0.79715
  -0.74633  -0.66140   0.79715
  -0.74633  -0.66140   0.79715
  -0.74633  -0.66140   1.03657
  -0.74633  -0.66140   1.03657
  -0.74633  -0.42198   1.03657
  -0.74633  -0.42198   1.27599
  -0.74633  -0.42198   1.27599
  -0.74633  -0.42198   1.27599
  -0.50691  -0.18256   1.51541
  -0.50691  -0.18256   1.51541
  -0.50691  -0.18256   1.51541
  -0.50691   0.05686   1.75483
  -0.50691   0.05686   1.51541
  -0.50691   0.05686   1.75483
  -0.26749   0.05686   1.75483
  -0.26749   0.05686   1.99425
  -0.26749   0.05686   1.99425
  -0.26749   0.05686   1.99425
  -0.26749  -0.18256   1.99425
  -0.26749  -0.18256   2.23367
  -0.26749  -0.18256   2.23367
  -0.26749  -0.42198   2.47309
  -0.02807  -0.42198   2.47309
  -0.26749  -0.66140   2.47309
  -0.02807  -0.66140   2.71251
  -0.26749  -0.66140   2.71251
  -0.02807  -0.90082   2.95193
  -0.02807  -0.90082   2.95193
  -0.02807  -0.90082   3.19135
  -0.02807  -0.90082   3.19135
  -0.02807  -0.90082   3.19135
   0.21136  -0.90082   3.43077
   0.21136  -0.66140   3.43077
   0.45078  -0.66140   3.67019
   0.45078  -0.66140   3.67019
   0.45078  -0.66140   3.67019
   0.69020  -0.42198   3.90961
   0.92962  -0.18256   3.90961
   0.92962  -0.18256   3.90961
   1.16904  -0.18256   3.90961
   1.16904   0.05686   3.90961
   1.40846   0.05686   3.90961
   1.40846   0.05686   3.90961
   1.64788   0.29628   3.90961
   1.88730   0.29628   3.90961
   1.88730   0.29628   3.90961
   2.12672   0.05686   3.90961
   2.36614   0.05686   3.67019
   2.36614  -0.18256   3.67019
   2.36614  -0.42198   3.67019
   2.84498  -0.42198   3.67019
   3.08440  -0.66140   3.67019
   3.32382  -0.66140   3.43077
   3.56324  -0.90082   3.43077
   3.80266  -0.90082   3.43077
   4.04208  -0.90082   3.19135
   4.04208  -0.90082   3.19135
   4.52092  -0.90082   3.19135
   4.76034  -0.90082   2.95193
   4.99976  -1.14024   2.95193
   5.23918  -0.90082   2.95193
   5.47860  -0.90082   2.71251
   5.71802  -0.90082   2.71251
   6.19686  -0.90082   2.71251
   6.43628  -0.90082   2.71251
   6.67570  -0.66140   2.71251
   6.91512  -0.66140   2.47309
   7.15454  -0.42198   2.47309
   7.39396  -0.66140   2.47309
   7.63338  -0.18256   2.47309
   7.87280  -0.18256   2.47309
   8.11222  -0.18256   2.47309
   8.35164   0.05686   2.47309
   8.59106   0.05686   2.47309
   8.83048   0.05686   2.47309
   9.06990   0.05686   2.47309
   9.06990   0.05686   2.47309
   9.30932   0.05686   2.47309
   9.54874   0.05686   2.23367
   9.78816  -0.18256   2.23367
  10.02758  -0.18256   2.23367
  10.02758  -0.18256   2.23367
  10.26700  -0.18256   2.23367
  10.50642  -0.18256   1.99425
  10.74584  -0.18256   2.23367
  10.74584  -0.18256   2.23367
  10.98526  -0.18256   2.23367
  10.98526  -0.18256   2.23367
  11.22468   0.05686   2.23367
  11.22468   0.05686   2.23367
  11.46410   0.05686   2.23367
  11.46410   0.05686   2.23367
  11.46410   0.05686   2.23367
  11.46410   0.05686   2.23367
  11.70352   0.05686   2.23367
  11.70352   0.05686   2.23367
  11.70352   0.05686   1.99425
  11.70352   0.05686   2.23367
  11.70352   0.05686   2.23367
  11.46410   0.05686   2.23367
  11.46410   0.29628   2.23367
  11.46410   0.29628   2.23367
  11.22468   0.29628   2.23367
  11.22468   0.29628   1.99425
  11.22468   0.53570   1.99425
  10.98526   0.53570   1.99425
  10.98526   0.53570   1.99425
  10.74584   0.53570   1.75483
  10.74584   0.53570   1.75483
  10.50642   0.53570   1.75483
  10.26700   0.53570   1.75483
  10.02758   0.53570   1.51541
  10.02758   0.53570   1.51541
   9.78816   0.29628   1.51541
   9.54874   0.53570   1.27599
   9.54874   0.53570   1.03657
   9.30932   0.53570   1.27599
   9.06990   0.53570   1.03657
   9.06990   0.53570   1.03657
   8.83048   0.53570   0.79715
   8.59106   0.29628   0.79715
   8.59106   0.53570   0.55773
   8.35164   0.53570   0.55773
   8.11222   0.53570   0.55773
   7.87280   0.53570   0.31831
   7.87280   0.77512   0.31831
   7.63338   0.77512   0.07889
   7.39396   1.01454  -0.16053
   7.39396   1.25396  -0.16053
   7.15454   1.25396  -0.16053
   6.91512   1.49338  -0.39995
   6.91512   1.49338  -0.39995
   6.67570   1.73280  -0.63937
   6.67570   1.73280  -0.63937
   6.43628   1.97222  -0.63937
   6.19686   1.97222  -0.87879
   6.19686   2.21164  -0.87879
   5.95744   2.21164  -1.11821
   5.71802   2.21164  -1.11821
   5.47860   2.21164  -1.11821
   5.47860   2.21164  -1.11821
   5.23918   2.21164  -1.35763
   4.99976   2.21164  -1.35763
   4.76034   2.21164  -1.35763
   4.52092   2.21164  -1.35763
   4.28150   2.21164  -1.59705
   4.28150   2.21164  -1.59705
   4.04208   2.21164  -1.59705
   3.80266   2.21164  -1.59705
   3.56324   1.97222  -1.83647
   3.32382   1.97222  -1.83647
   3.08440   1.97222  -1.83647
   2.84498   1.73280  -2.07589
   2.60556   1.49338  -2.07589
   2.36614   1.49338  -2.07589
   2.12672   1.49338  -2.31531
   1.88730   1.25396  -2.31531
   1.64788   1.25396  -2.31531
   1.40846   1.25396  -2.55473
   1.16904   1.25396  -2.55473
   0.92962   1.25396  -2.55473
   0.69020   1.25396  -2.55473
   0.45078   1.25396  -2.55473
   0.21136   1.25396  -2.55473
  -0.02807   1.25396  -2.55473
  -0.26749   1.25396  -2.79415
  -0.74633   1.49338  -2.55473
  -0.98575   1.49338  -2.55473
  -1.22517   1.49338  -2.55473
  -1.46459   1.49338  -2.55473
  -1.70401   1.73280  -2.55473
  -2.42227   1.73280  -2.55473
  -2.18285   1.73280  -2.55473
  -2.42227   1.73280  -2.55473
  -2.90111   1.73280  -2.55473
  -2.90111   1.73280  -2.55473
  -3.37995   1.73280  -2.55473
  -3.61937   1.73280  -2.55473
  -3.85879   1.73280  -2.55473
  -4.09821   1.73280  -2.55473
  -4.33763   1.73280  -2.55473
  -4.57705   1.49338  -2.55473
  -4.81647   1.49338  -2.55473
  -5.05589   1.25396  -2.55473
  -5.29531   1.01454  -2.55473
  -5.53473   1.01454  -2.55473
  -5.77415   0.77512  -2.55473
  -6.01357   0.53570  -2.55473
  -6.25299   0.53570  -2.55473
  -6.49241   0.53570  -2.55473
  -6.73183   0.53570  -2.55473
  -6.97125   0.53570  -2.55473
  -6.97125   0.53570  -2.79415
  -7.21067   0.29628  -2.55473
  -7.45009   0.53570  -2.55473
  -7.68951   0.53570  -2.55473
  -7.92893   0.53570  -2.55473
  -8.16835   0.53570  -2.55473
  -8.16835   0.53570  -2.55473
  -8.40777   0.53570  -2.55473
  -8.64719   0.29628  -2.55473
  -8.64719   0.29628  -2.55473
  -8.88661   0.29628  -2.55473
  -8.88661   0.29628  -2.55473
  -9.12603   0.05686  -2.55473
  -9.12603   0.05686  -2.31531
  -9.36545   0.05686  -2.31531
  -9.36545  -0.18256  -2.31531
  -9.60487  -0.18256  -2.31531
  -9.60487  -0.18256  -2.31531
  -9.60487  -0.42198  -2.31531
  -9.84429  -0.42198  -2.31531
  -9.84429  -0.42198  -2.31531
 -10.08371  -0.42198  -2.31531
 -10.08371  -0.42198  -2.31531
 -10.08371  -0.42198  -2.31531
 -10.32313  -0.42198  -2.31531
 -10.32313  -0.42198  -2.31531
 -10.32313  -0.66140  -2.31531
 -10.56255  -0.66140  -2.31531
 -10.56255  -0.66140  -2.07589
 -10.56255  -0.66140  -2.07589
 -10.56255  -0.66140  -2.07589
 -10.56255  -0.66140  -2.07589
 -10.56255  -0.66140  -2.07589
 -10.56255  -0.66140  -2.07589
 -10.56255  -0.66140  -2.07589
 -10.56255  -0.90082  -1.83647
 -10.56255  -0.66140  -1.83647
 -10.32313  -0.66140  -1.83647
 -10.32313  -0.66140  -1.83647
 -10.32313  -0.66140  -1.83647
 -10.08371  -0.66140  -1.83647
 -10.08371  -0.42198  -1.59705
 -10.08371  -0.42198  -1.59705
  -9.84429  -0.18256  -1.59705
  -9.60487  -0.18256  -1.59705
  -9.60487  -0.18256  -1.59705
  -9.36545  -0.18256  -1.59705
  -9.12603   0.05686  -1.59705
  -9.12603   0.05686  -1.35763
  -8.88661   0.05686  -1.35763
  -8.64719   0.05686  -1.35763
  -8.64719   0.05686  -1.35763
