********************************************************************************
              CENTRO DE INSTRUMENTACION Y REGISTRO SISMICO  A.C.

    Anaxagoras 814, Col. Narvarte, Benito Juarez, C.P. 03020 Mexico, D.F.
           Tels. 5687 45 42/ 5687 45  82             Fax. 5669 25 12
********************************************************************************
ARCHIVO ESTANDAR DE ACELERACION:
VERSION DEL FORMATO                    : 2.0
NOMBRE DEL ARCHIVO                     : AU1120100209004740
FECHA Y HORA DE CREACION               : 03/MAR/10, 12:04
REF. CATALOGO ACELEROGRAMAS, SMIS 1996 : REGISTRO No.     /PAG.


================================================================================
DATOS DE LA ESTACION:
NOMBRE DE LA ESTACION                  : AUTÓDROMO
CLAVE DE LA ESTACION                   : AU11
LOCALIZACION DE LA ESTACION            : Del. Iztacalco, Cd. Deportiva          
                                       : Magdalena Mixhuca,                     
                                       : Col. Granjas México                    
                                       :                                        
                                       : 
COORDENADAS DE LA ESTACION             : 19.3919 LAT. N
                                       : 99.0869 LONG. W
ALTITUD (msnm)                         : 2234
TIPO DE SUELO                          : Terreno blando, material compresible
                                       : (arcillas)                
                                       : 
INSTITUCION RESPONSABLE                : CIRES
                                       : 

================================================================================
DATOS DEL ACELEROGRAFO:
MODELO DEL ACELEROGRAFO                : RADESD
NUMERO DE SERIE DEL ACELEROGRAFO       : 157
NUMERO DE CANALES                      : 3
ORIENTACION C1-C6 (rumbo;orientacion)  : /N00E/+V/N90W
ORIENTACION C7-C12 (rumbo;orientacion) : 
VEL. DE MUESTREO, C1-C6 (muestras/s)   : /100/100/100
VEL. DE MUESTREO, C7-C12 (muestras/s)  : 
ESC. COMPLETA DE SENSORES, C1-C6, (g)  : /0.5/0.5/0.5
ESC. COMPLETA DE SENSORES, C7-C12, (g) : 
FREC. NAT. DE SENSORES, C1-C6, (Hz)    : /51.77/52.56/52.29
FREC. NAT. DE SENSORES, C7-C12, (Hz)   : 
AMORTIGUAMIENTO DE SENSORES, C1-C6     : /0.5912/0.6083/0.6067
AMORTIGUAMIENTO DE SENSORES, C7-C12    : 
INTERVALO DE MUESTREO, C1-C6, (s)      : /0.01/0.01/0.01
INTERVALO DE MUESTREO, C7-C12, (s)     : 
UMBRAL DE DISPARO, C1-C6, (Gal)        : /0.72/1.92/0.72
UMBRAL DE DISPARO, C7-C12, (Gal)       : 
MEMORIA DE PREEVENTO (s)               : 56.0
TIEMPO DE POSEVENTO (s)                : 64.0


================================================================================
DATOS DEL SISMO:
FECHA DEL SISMO (GMT)                  : 09/FEB/10
HORA EPICENTRO (GMT)                   : 00:47:40.0
MAGNITUD(ES)                           : /Mc=5.8
COORDENADAS DEL EPICENTRO              : 15.90 LAT. N
                                       : 96.86 LONG. W
PROFUNDIDAD FOCAL (km)                 : 37
FUENTE DE LOS DATOS EPICENTRALES       : SSN
                                       : INSTITUTO DE GEOFISICA, UNAM

================================================================================
DATOS DE ESTE REGISTRO:
HORA DE LA PRIMERA MUESTRA (GMT)       : 00:49:49.00
EXACTITUD DEL TIEMPO (s)               : 0.01
DURACION DEL REGISTRO (s), C1-C6       : /292.0/292.0/292.0
DURACION DEL REGISTRO (s), C7-C12      : 
NUM. TOTAL DE MUESTRAS, C1-C6          : /29200/29200/29200
NUM. TOTAL DE MUESTRAS, C7-C12         : 
ACEL. MAX. (Gal), C1-C6                : /1.66806/0.90023/1.0614
ACEL. MAX., C1-C6, EN LA MUESTRA       : /6367/3142/6055
ACEL. MAX. (Gal), C7-C12               : 
ACEL. MAX., C7-C12, EN LA MUESTRA      : 
UNIDADES DE LOS DATOS                  : Gal (cm/s/s)
FACTOR DE DECIMACION                   : 1
FORMATO DATOS (FORTRAN,10 campos/dato) : 3F10.5


================================================================================
CALIDAD DEL ACELEROGRAMA:
REGISTRO DIGITAL COMPLETO CON TIEMPO ABSOLUTO CORRECTO.


================================================================================
COMENTARIOS:














================================================================================
DATOS DE ACELERACION:
---------+---------+---------+---------+---------+---------+---------+---------+
   CANAL-1   CANAL-2   CANAL-3   CANAL-4   CANAL-5   CANAL-6   CANAL-7   CANAL-8
      N00E        +V      N90W
---------+---------+---------+---------+---------+---------+---------+---------+
[...]
  -0.72614   0.29687   0.10372
  -0.72614   0.29687  -0.13570
  -0.72614   0.05745  -0.13570
  -0.72614   0.29687  -0.13570
  -0.48672   0.05745   0.10372
  -0.48672   0.05745   0.10372
  -0.48672   0.05745   0.10372
  -0.24730   0.05745  -0.13570
  -0.24730   0.05745   0.34314
  -0.48672   0.29687   0.10372
  -0.48672   0.29687   0.10372
  -0.24730   0.05745   0.10372
  -0.24730   0.29687   0.34314
  -0.48672  -0.18197   0.34314
  -0.24730   0.05745   0.58256
  -0.00788  -0.18197   0.34314
  -0.00788  -0.18197   0.34314
  -0.00788   0.05745   0.58256
   0.23154   0.05745   0.34314
   0.47096  -0.18197   0.34314
   0.23154  -0.18197   0.34314
   0.71038   0.05745   0.58256
   0.71038   0.05745   0.58256
   0.47096  -0.18197   0.34314
   0.71038  -0.18197   0.34314
   0.71038  -0.18197   0.34314
   0.47096  -0.18197   0.58256
   0.94980  -0.18197   0.58256
   0.71038  -0.18197   0.58256
   0.94980   0.05745   0.58256
   0.94980  -0.18197   0.34314
   0.94980   0.05745   0.58256
   0.94980   0.05745   0.58256
   0.94980  -0.18197   0.58256
   0.71038   0.05745   1.06140
   0.71038  -0.18197   0.34314
   0.94980   0.05745   0.58256
   0.71038   0.05745   0.82198
   0.71038   0.29687   0.58256
   0.94980   0.05745   0.82198
   0.94980   0.05745   0.58256
   0.71038   0.05745   0.58256
   0.71038  -0.18197   0.58256
   0.94980  -0.18197   0.58256
   0.94980  -0.18197   0.82198
   0.94980   0.05745   0.82198
   0.71038  -0.18197   0.82198
   0.71038   0.05745   0.58256
   0.94980  -0.18197   0.82198
   0.94980   0.05745   0.82198
   1.18922  -0.18197   0.82198
   0.94980   0.05745   0.58256
   0.94980   0.05745   0.82198
   0.94980  -0.18197   0.82198
   0.94980  -0.18197   0.58256
   1.18922  -0.18197   0.58256
   0.94980  -0.18197   0.34314
   0.94980  -0.18197   0.58256
   0.94980  -0.18197   0.82198
   1.18922  -0.18197   0.82198
   0.94980  -0.18197   0.34314
   1.18922  -0.18197   0.34314
   1.18922  -0.42139   0.58256
   0.94980  -0.18197   0.58256
   0.94980  -0.18197   0.58256
   1.18922  -0.18197   0.58256
   0.94980   0.05745   0.34314
   0.94980   0.05745   0.34314
   1.18922  -0.18197   0.58256
   0.94980  -0.18197   0.34314
   0.94980  -0.18197   0.34314
   0.94980  -0.18197   0.34314
   0.71038  -0.18197   0.34314
   0.94980  -0.18197   0.58256
   0.71038  -0.18197   0.34314
   0.71038   0.05745   0.34314
   0.94980  -0.18197   0.10372
   0.94980  -0.18197   0.10372
   0.71038   0.29687   0.10372
   0.47096  -0.18197   0.10372
   0.71038  -0.18197   0.10372
   0.47096  -0.42139   0.34314
   0.71038   0.05745   0.10372
   0.47096   0.05745   0.10372
   0.47096   0.05745   0.10372
   0.47096  -0.42139   0.10372
   0.47096  -0.18197   0.10372
   0.23154  -0.18197   0.10372
   0.47096   0.05745   0.10372
   0.47096  -0.18197   0.34314
   0.23154  -0.18197   0.10372
   0.47096  -0.18197   0.10372
  -0.00788  -0.18197   0.10372
  -0.00788  -0.42139   0.34314
   0.23154  -0.42139   0.10372
  -0.24730  -0.18197   0.34314
  -0.24730   0.05745   0.10372
  -0.00788  -0.18197   0.10372
  -0.24730  -0.18197  -0.13570
  -0.00788  -0.18197   0.10372
  -0.24730   0.05745   0.10372
  -0.00788  -0.42139   0.10372
  -0.00788  -0.18197   0.10372
  -0.24730  -0.18197   0.10372
  -0.24730  -0.18197   0.10372
  -0.24730   0.05745   0.10372
  -0.24730  -0.42139   0.10372
  -0.24730  -0.18197   0.34314
  -0.48672   0.05745   0.34314
  -0.24730  -0.18197   0.34314
  -0.24730   0.05745   0.34314
  -0.48672   0.05745   0.34314
  -0.48672   0.05745   0.34314
  -0.48672   0.05745   0.10372
  -0.48672  -0.18197   0.10372
  -0.24730  -0.18197   0.34314
  -0.48672  -0.18197   0.10372
  -0.48672   0.29687   0.10372
  -0.48672   0.29687   0.10372
  -0.48672   0.05745  -0.13570
  -0.72614   0.05745   0.10372
  -0.48672   0.05745   0.10372
  -0.96556   0.05745  -0.13570
  -0.96556  -0.18197  -0.13570
  -0.72614   0.29687   0.10372
  -0.72614   0.05745  -0.13570
  -0.72614   0.05745  -0.13570
  -0.96556   0.29687   0.10372
  -0.96556   0.29687  -0.13570
  -0.48672   0.29687  -0.13570
  -0.96556   0.05745  -0.13570
  -0.96556   0.05745  -0.37512
  -0.96556   0.29687   0.10372
  -0.96556   0.05745  -0.13570
  -0.96556   0.05745  -0.13570
  -0.96556   0.53629   0.10372
  -0.96556   0.29687  -0.13570
  -0.96556   0.05745  -0.37512
  -0.96556   0.05745  -0.61454
  -0.72614   0.05745  -0.13570
  -0.72614   0.05745  -0.37512
  -0.72614   0.29687  -0.37512
  -0.72614   0.05745  -0.85396
  -0.48672   0.05745  -0.13570
  -0.72614   0.29687  -0.37512
  -0.48672   0.05745  -0.37512
  -0.24730   0.05745  -0.37512
  -0.48672   0.05745  -0.61454
  -0.48672   0.05745  -0.37512
  -0.24730   0.29687  -0.61454
  -0.24730  -0.18197  -0.37512
  -0.00788   0.05745  -0.37512
   0.23154   0.05745  -0.37512
  -0.00788   0.29687  -0.13570
  -0.00788   0.29687  -0.13570
  -0.00788   0.29687  -0.13570
   0.23154   0.05745  -0.37512
  -0.00788   0.05745  -0.13570
   0.23154   0.29687  -0.13570
  -0.00788   0.29687  -0.37512
  -0.00788   0.29687  -0.13570
   0.23154   0.29687  -0.13570
  -0.00788   0.29687  -0.13570
   0.23154   0.29687  -0.13570
   0.23154   0.05745  -0.37512
   0.23154   0.29687  -0.13570
   0.23154   0.29687  -0.13570
   0.47096   0.05745  -0.37512
   0.23154   0.29687  -0.13570
   0.23154   0.29687  -0.37512
   0.23154   0.05745  -0.13570
   0.23154   0.05745  -0.13570
   0.47096   0.05745  -0.13570
   0.23154   0.29687   0.10372
   0.23154   0.29687   0.10372
   0.47096  -0.18197  -0.13570
   0.47096   0.05745  -0.13570
   0.23154   0.05745  -0.13570
   0.23154   0.29687  -0.13570
   0.23154   0.05745  -0.37512
   0.47096  -0.18197  -0.13570
   0.23154   0.05745  -0.13570
   0.47096   0.05745  -0.13570
   0.23154   0.05745  -0.13570
   0.47096   0.05745  -0.13570
   0.23154   0.29687  -0.13570
  -0.00788   0.05745  -0.37512
   0.47096   0.05745  -0.13570
   0.47096   0.05745  -0.37512
   0.23154   0.05745  -0.37512
   0.23154   0.29687  -0.13570
   0.71038  -0.18197  -0.37512
   0.71038  -0.18197  -0.13570
   0.71038   0.05745  -0.13570
   0.23154   0.05745  -0.37512
   0.71038  -0.18197  -0.13570
   0.71038  -0.18197  -0.13570
   0.47096  -0.18197  -0.37512
   0.71038  -0.18197  -0.13570
   0.47096   0.05745  -0.13570
   0.71038  -0.42139  -0.13570
   0.47096   0.05745  -0.13570
   0.71038  -0.18197  -0.13570
   0.47096  -0.18197  -0.13570
   0.71038  -0.18197   0.10372
   0.47096   0.05745   0.10372
   0.71038  -0.18197  -0.13570
   0.47096  -0.18197  -0.13570
   0.47096  -0.42139  -0.13570
   0.23154   0.05745  -0.13570
   0.47096   0.05745  -0.13570
   0.47096  -0.18197  -0.13570
   0.23154   0.05745  -0.13570
   0.23154  -0.18197  -0.13570
   0.47096  -0.18197  -0.13570
   0.23154  -0.18197  -0.13570
   0.47096   0.05745  -0.13570
   0.47096   0.05745  -0.13570
   0.23154  -0.18197  -0.37512
   0.47096   0.05745  -0.13570
   0.23154   0.05745  -0.13570
   0.47096  -0.18197  -0.37512
   0.23154  -0.18197  -0.13570
   0.23154   0.05745  -0.13570
   0.23154  -0.18197  -0.37512
   0.23154  -0.18197  -0.37512
   0.23154  -0.18197  -0.37512
  -0.00788  -0.18197  -0.37512
   0.23154   0.05745  -0.37512
  -0.00788   0.05745  -0.37512
  -0.00788  -0.18197  -0.37512
  -0.00788  -0.18197  -0.37512
  -0.00788   0.05745  -0.37512
  -0.00788  -0.18197  -0.37512
  -0.00788  -0.18197  -0.37512
  -0.00788  -0.18197  -0.37512
  -0.24730  -0.18197  -0.37512
  -0.24730  -0.18197  -0.37512
  -0.24730  -0.18197  -0.37512
  -0.24730  -0.18197  -0.37512
  -0.24730   0.05745  -0.37512
  -0.48672  -0.18197  -0.61454
  -0.48672  -0.18197  -0.61454
  -0.48672  -0.18197  -0.61454
  -0.48672  -0.42139  -0.61454
  -0.72614  -0.42139  -0.61454
  -0.72614  -0.18197  -0.37512
  -0.48672  -0.18197  -0.61454
  -0.72614   0.05745  -0.37512
  -0.48672   0.05745  -0.37512
  -0.72614  -0.18197  -0.61454
  -0.72614  -0.18197  -0.61454
  -0.48672   0.05745  -0.37512
  -0.72614  -0.18197  -0.61454
  -0.72614  -0.18197  -0.61454
  -0.72614  -0.18197  -0.37512
  -0.72614  -0.18197  -0.61454
  -0.72614  -0.18197  -0.37512
  -0.96556   0.05745  -0.61454
  -0.96556   0.05745  -0.37512
  -0.96556   0.29687  -0.37512
  -1.20498   0.05745  -0.37512
  -0.72614   0.05745  -0.37512
  -0.96556   0.05745  -0.37512
  -0.96556  -0.18197  -0.13570
  -0.96556   0.05745  -0.13570
  -1.20498   0.05745  -0.37512
  -0.96556   0.05745  -0.13570
  -0.96556   0.29687  -0.13570
  -0.96556  -0.18197  -0.37512
  -0.72614  -0.18197  -0.13570
  -0.72614   0.05745  -0.13570
  -0.72614   0.05745  -0.13570
  -0.72614  -0.18197   0.10372
  -0.72614   0.05745  -0.13570
  -0.72614   0.05745  -0.13570
  -0.72614   0.05745  -0.13570
  -0.48672   0.29687   0.10372
  -0.72614   0.05745  -0.13570
  -0.72614   0.05745   0.34314
  -0.72614   0.05745   0.10372
  -0.96556   0.29687  -0.37512
  -0.72614   0.05745  -0.13570
  -0.48672   0.05745   0.10372
  -0.72614   0.29687  -0.13570
  -0.48672   0.05745  -0.13570
  -0.72614   0.29687  -0.13570
  -0.48672   0.29687  -0.13570
  -0.48672   0.05745  -0.13570
  -0.72614   0.29687  -0.13570
  -0.48672   0.05745  -0.13570
  -0.48672   0.05745  -0.13570
  -0.72614   0.53629  -0.13570
  -0.48672   0.29687  -0.37512
  -0.48672   0.05745  -0.85396
  -0.24730   0.29687  -0.37512
  -0.24730   0.29687  -0.37512
  -0.00788   0.05745  -0.37512
  -0.24730   0.29687  -0.37512
  -0.00788   0.29687  -0.13570
  -0.00788   0.53629  -0.37512
  -0.24730   0.05745  -0.61454
  -0.00788   0.05745  -0.37512
  -0.00788   0.05745  -0.13570
  -0.00788   0.29687  -0.37512
  -0.00788   0.05745  -0.85396
  -0.24730   0.29687  -0.61454
  -0.00788   0.29687  -0.37512
  -0.00788   0.05745  -0.37512
   0.23154   0.05745  -0.61454
   0.23154   0.29687  -0.37512
   0.23154   0.05745  -0.37512
   0.23154   0.05745  -0.37512
   0.23154   0.29687  -0.37512
   0.23154   0.05745  -0.61454
   0.23154   0.29687  -0.37512
   0.47096   0.29687  -0.37512
   0.47096   0.29687  -0.37512
   0.47096   0.29687  -0.37512
   0.23154   0.29687  -0.37512
   0.47096   0.05745  -0.37512
   0.47096   0.05745  -0.61454
   0.47096   0.05745  -0.37512
   0.71038   0.29687  -0.13570
   0.47096   0.05745  -0.37512
   0.47096   0.05745  -0.37512
   0.47096   0.05745  -0.13570
   0.47096   0.29687  -0.37512
   0.71038  -0.18197  -0.13570
   0.71038   0.05745  -0.37512
   0.47096  -0.18197  -0.61454
   0.94980   0.05745  -0.13570
   0.71038   0.05745  -0.13570
   0.94980  -0.18197  -0.13570
   0.71038   0.05745  -0.13570
   0.71038  -0.18197  -0.13570
   0.94980   0.05745  -0.13570
   0.94980  -0.18197  -0.13570
   0.94980  -0.18197  -0.13570
   1.18922  -0.18197  -0.13570
   1.18922   0.05745  -0.13570
   1.18922  -0.18197  -0.13570
   1.42864   0.05745   0.10372
   1.42864   0.05745   0.58256
   1.18922   0.05745   0.34314
   1.18922  -0.18197   0.10372
   1.66806  -0.18197   0.34314
   1.18922   0.05745   0.34314
   1.18922  -0.18197   0.10372
   1.42864  -0.18197   0.34314
   1.42864  -0.18197   0.34314
   1.42864  -0.18197   0.34314
   1.18922  -0.18197   0.34314
   1.18922  -0.18197   0.82198
   1.18922  -0.42139   0.34314
   1.18922  -0.18197   0.34314
   1.18922  -0.18197   0.58256
   1.18922  -0.18197   0.58256
   0.71038  -0.18197   0.58256
   0.94980  -0.18197   0.58256
   0.94980  -0.18197   0.58256
   0.71038  -0.42139   0.82198
   0.71038  -0.18197   0.82198
   0.71038  -0.18197   0.58256
   0.71038  -0.18197   0.82198
   0.71038  -0.18197   0.58256
   0.47096  -0.18197   0.58256
   0.47096  -0.18197   0.58256
   0.23154  -0.18197   0.58256
   0.47096  -0.18197   0.58256
   0.47096  -0.18197   0.82198
   0.23154  -0.18197   0.82198
  -0.00788  -0.18197   0.82198
  -0.24730  -0.18197   0.58256
  -0.00788  -0.18197   0.58256
   0.23154  -0.18197   0.82198
  -0.00788  -0.18197   0.58256
  -0.00788  -0.18197   0.34314
  -0.00788  -0.18197   0.58256
  -0.00788  -0.18197   0.58256
  -0.00788   0.05745   0.34314
  -0.24730  -0.18197   0.58256
  -0.00788  -0.18197   0.58256
  -0.00788  -0.18197   0.58256
  -0.00788  -0.18197   0.58256
  -0.00788  -0.18197   0.58256
  -0.24730  -0.18197   0.58256
  -0.24730  -0.18197   0.34314
  -0.00788  -0.18197   0.58256
  -0.00788  -0.18197   0.58256
  -0.24730  -0.18197   0.34314
  -0.24730  -0.18197   0.34314
  -0.24730   0.05745   0.58256
  -0.24730  -0.42139   0.34314
  -0.48672  -0.18197   0.82198
  -0.48672   0.05745   0.58256
  -0.24730   0.05745   0.58256
  -0.48672  -0.18197   0.58256
  -0.72614   0.05745   0.34314
  -0.48672   0.05745   0.34314
  -0.48672  -0.18197   0.34314
  -0.48672   0.05745   0.58256
  -0.72614   0.05745   0.34314
  -0.96556   0.29687   0.34314
  -0.48672  -0.18197   0.34314
  -0.72614   0.05745   0.34314
  -0.96556   0.05745   0.58256
  -0.96556  -0.18197   0.34314
  -0.72614   0.05745   0.34314
  -0.96556   0.05745   0.34314
  -0.96556   0.29687   0.34314
  -0.96556   0.05745   0.58256
  -0.96556   0.05745   0.58256
  -1.20498   0.05745   0.34314
  -1.20498   0.29687   0.58256
  -1.20498   0.05745   0.58256
  -1.20498   0.05745   0.34314
  -1.20498   0.05745   0.34314
  -0.96556   0.05745   0.34314
  -1.20498   0.29687   0.34314
  -1.44440   0.29687   0.34314
  -0.96556   0.05745   0.34314
  -1.20498   0.29687   0.34314
  -0.96556   0.05745   0.34314
  -0.96556   0.05745   0.34314
  -1.20498   0.05745   0.10372
  -0.96556   0.05745   0.10372
  -0.72614   0.29687   0.34314
  -0.72614   0.05745   0.10372
  -0.72614   0.29687   0.34314
  -0.72614   0.29687   0.34314
  -0.72614   0.05745   0.34314
  -0.72614   0.05745   0.34314
  -0.72614   0.29687   0.34314
  -0.48672   0.05745   0.10372
  -0.24730   0.05745   0.10372
  -0.48672   0.29687   0.34314
  -0.72614   0.29687   0.34314
  -0.48672   0.53629  -0.13570
  -0.48672   0.05745   0.34314
  -0.48672   0.05745   0.34314
  -0.48672   0.53629   0.34314
  -0.48672   0.29687   0.34314
  -0.24730   0.05745   0.10372
  -0.24730   0.29687   0.34314
  -0.24730   0.29687   0.34314
  -0.24730   0.29687   0.34314
  -0.48672   0.05745  -0.13570
  -0.24730   0.05745   0.34314
  -0.48672   0.29687   0.10372
  -0.24730   0.29687   0.34314
  -0.24730   0.05745   0.34314
  -0.48672   0.05745   0.34314
  -0.24730   0.29687   0.34314
  -0.24730   0.05745   0.34314
  -0.24730   0.05745   0.10372
  -0.24730   0.05745   0.10372
  -0.24730   0.05745   0.34314
  -0.24730   0.05745   0.34314
  -0.00788   0.05745   0.10372
  -0.00788   0.05745   0.10372
  -0.00788   0.05745   0.10372
  -0.00788   0.05745   0.34314
  -0.00788   0.29687   0.10372
  -0.00788   0.05745   0.10372
   0.47096   0.05745   0.10372
   0.23154   0.29687   0.10372
   0.23154   0.29687   0.10372
  -0.00788   0.05745   0.10372
   0.23154   0.05745   0.10372
   0.47096   0.05745   0.58256
   0.23154  -0.18197   0.34314
   0.23154   0.05745   0.10372
   0.47096   0.29687   0.34314
   0.47096   0.05745   0.34314
   0.47096   0.29687   0.10372
   0.47096   0.29687  -0.13570
   0.47096   0.05745   0.10372
   0.71038   0.05745   0.34314
   0.47096   0.05745   0.34314
   0.47096   0.29687   0.10372
   0.47096  -0.18197   0.34314
   0.71038   0.05745   0.10372
   0.47096  -0.18197   0.10372
   0.47096   0.05745   0.10372
   0.71038   0.05745   0.34314
   0.47096   0.05745   0.10372
   0.47096  -0.18197   0.10372
   0.47096   0.05745   0.34314
   0.47096  -0.18197   0.34314
   0.47096   0.05745   0.10372
   0.47096  -0.18197   0.10372
   0.47096  -0.66081   0.10372
   0.47096  -0.18197   0.34314
   0.47096   0.05745   0.10372
   0.47096  -0.18197   0.10372
