********************************************************************************
               CENTRO DE INSTRUMENTACION Y REGISTRO SISMICO  A.C.  
                       Coordinacion de Servicios Tecnicos
     Anaxagoras 814, Col. Narvarte, Benito Juarez, C.P. 03020 Mexico, D.F.
            Tels. 667 45 42/ 687 45  82             Fax. 669 25 12
********************************************************************************
ARCHIVO ESTANDAR DE ACELERACION:
VERSION DEL FORMATO                    : 2.0
NOMBRE DEL ARCHIVO                     : AU119705.221
FECHA Y HORA DE CREACION               : 18/MAR/98, 13:30
REF. CATALOGO ACELEROGRAMAS, SMIS 1996 : REGISTRO No.     /PAG.


================================================================================
DATOS DE LA ESTACION:
NOMBRE DE LA ESTACION                  : AUTODROMO
CLAVE DE LA ESTACION                   : AU11
LOCALIZACION DE LA ESTACION            : AUTODROMO HERMANOS RODRIGUEZ,
                                       : CHURUBUSCO, CD. DEPORTIVA
                                       :
                                       :
                                       :
COORDENADAS DE LA ESTACION             : 19.392 LAT. N 
                                       : 99.087 LONG. W 
ALTITUD (msnm)                         : 2234
TIPO DE SUELO                          : TERRENO BLANDO, MATERIAL COMPRESIBLE
                                       : (ARCILLAS)
                                       : 
INSTITUCION RESPONSABLE                : CIRES 
                                       :

================================================================================
DATOS DEL ACELEROGRAFO:
MODELO DEL ACELEROGRAFO                : SSA-1
NUMERO DE SERIE DEL ACELEROGRAFO       : 157
NUMERO DE CANALES                      : 3
ORIENTACION C1-C6 (rumbo;orientacion)  : /N00E/+V/N90E
ORIENTACION C7-C12 (rumbo;orientacion) :
VEL. DE MUESTREO, C1-C6 (muestras/s)   : /200/200/200
VEL. DE MUESTREO, C7-C12 (muestras/s)  :
ESC. COMPLETA DE SENSORES, C1-C6, (g)  : /2/2/2
ESC. COMPLETA DE SENSORES, C7-C12, (g) :
FREC. NAT. DE SENSORES, C1-C6, (Hz)    : /51.77/52.56/52.29
FREC. NAT. DE SENSORES, C7-C12, (Hz)   :
AMORTIGUAMIENTO DE SENSORES, C1-C6     : /.5912/.6083/.6067
AMORTIGUAMIENTO DE SENSORES, C7-C12    :
INTERVALO DE MUESTREO, C1-C6, (s)      : /0.005/0.005/0.005
INTERVALO DE MUESTREO, C7-C12, (s)     :
UMBRAL DE DISPARO, C1-C6, (Gal)        : /2/2/2
UMBRAL DE DISPARO, C7-C12, (Gal)       :
MEMORIA DE PREEVENTO (s)               : 15
TIEMPO DE POSEVENTO (s)                : 60


================================================================================
DATOS DEL SISMO:
FECHA DEL SISMO (GMT)                  : 22/MAY/97
HORA EPICENTRO (GMT)                   : 07:50:55:7
MAGNITUD(ES)                           : /Ms=6.0
COORDENADAS DEL EPICENTRO              : 18.4 LAT. N
                                       : 101.8 LONG. W
PROFUNDIDAD FOCAL (km)                 : 59.0
FUENTE DE LOS DATOS EPICENTRALES       : SSN
                                       : INSTITUTO DE GEOFISICA, UNAM

================================================================================
DATOS DE ESTE REGISTRO:
HORA DE LA PRIMERA MUESTRA (GMT)       : 07:52:17.00
EXACTITUD DEL TIEMPO (s)               :     
DURACION DEL REGISTRO (s), C1-C6       : /160.00/160.00/160.00
DURACION DEL REGISTRO (s), C7-C12      :
NUM. TOTAL DE MUESTRAS, C1-C6          : /32000/32000/32000
NUM. TOTAL DE MUESTRAS, C7-C12         :
ACEL. MAX. (Gal), C1-C6                : /4.88929/1.69377/4.43564
ACEL. MAX., C1-C6, EN LA MUESTRA       :
ACEL. MAX. (Gal), C7-C12               :
ACEL. MAX., C7-C12, EN LA MUESTRA      :
UNIDADES DE LOS DATOS                  : Gal (cm/s/s)
FACTOR DE DECIMACION                   : 1
FORMATO DATOS (FORTRAN,10 campos/dato) : 3F10.5


================================================================================
CALIDAD DEL ACELEROGRAMA:
REGISTRO DIGITAL COMPLETO, CARECE DE TIEMPO ABSOLUTO.


================================================================================
COMENTARIOS:














================================================================================
DATOS DE ACELERACION:
---------+---------+---------+---------+---------+---------+---------+---------+
   CANAL-1   CANAL-2   CANAL-3   CANAL-4   CANAL-5   CANAL-6   CANAL-7   CANAL-8
      N00E        +V      N90E
---------+---------+---------+---------+---------+---------+---------+---------+
[...]
  -0.86071   0.22623   0.83436
  -0.86071   0.22623   0.83436
  -0.62071   0.22623   0.83436
  -0.86071   0.22623   0.83436
  -0.62071   0.22623   0.83436
  -0.62071   0.22623   0.83436
  -0.38071   0.22623   0.83436
  -0.38071   0.22623   0.83436
  -0.38071   0.22623   0.83436
  -0.38071  -0.01377   0.83436
  -0.14071  -0.01377   0.83436
  -0.14071  -0.01377   0.83436
  -0.14071  -0.01377   1.07436
   0.09929  -0.01377   1.07436
  -0.14071  -0.01377   1.07436
   0.09929  -0.01377   1.07436
   0.09929  -0.01377   1.07436
   0.09929  -0.01377   1.07436
   0.09929  -0.01377   1.07436
   0.33929  -0.01377   1.07436
   0.33929  -0.25377   1.07436
   0.57929  -0.01377   1.07436
   0.57929  -0.25377   1.07436
   0.57929  -0.01377   1.07436
   0.57929  -0.25377   1.07436
   0.57929  -0.25377   1.07436
   0.57929  -0.25377   1.07436
   0.81929  -0.01377   1.07436
   0.81929  -0.25377   1.31436
   0.81929  -0.01377   1.31436
   0.81929  -0.25377   1.07436
   0.81929  -0.25377   1.31436
   0.81929  -0.25377   1.31436
   1.05929  -0.25377   1.31436
   1.05929  -0.25377   1.31436
   1.05929  -0.25377   1.31436
   1.05929  -0.25377   1.31436
   1.05929  -0.25377   1.31436
   1.05929  -0.25377   1.31436
   1.05929  -0.25377   1.31436
   1.05929  -0.25377   1.31436
   1.05929  -0.25377   1.31436
   1.05929  -0.25377   1.07436
   1.05929  -0.25377   1.07436
   1.05929  -0.25377   1.07436
   1.05929  -0.25377   1.07436
   1.05929  -0.25377   1.31436
   1.05929  -0.25377   1.07436
   1.05929  -0.25377   1.07436
   1.05929  -0.25377   1.07436
   1.05929  -0.25377   1.07436
   1.05929  -0.25377   1.07436
   1.05929  -0.25377   1.07436
   1.05929  -0.25377   1.07436
   1.05929  -0.25377   1.07436
   1.05929  -0.25377   1.07436
   1.05929  -0.25377   1.07436
   1.05929  -0.25377   0.83436
   1.05929  -0.25377   0.83436
   1.05929  -0.25377   0.83436
   1.05929  -0.49377   0.83436
   1.05929  -0.25377   0.83436
   1.05929  -0.49377   0.83436
   1.05929  -0.49377   0.83436
   1.05929  -0.49377   0.59436
   1.05929  -0.49377   0.59436
   1.05929  -0.49377   0.59436
   1.05929  -0.49377   0.59436
   0.81929  -0.49377   0.59436
   0.81929  -0.49377   0.59436
   0.81929  -0.49377   0.59436
   0.81929  -0.49377   0.59436
   0.81929  -0.49377   0.35436
   0.81929  -0.49377   0.59436
   0.57929  -0.49377   0.35436
   0.57929  -0.73377   0.35436
   0.57929  -0.73377   0.35436
   0.57929  -0.73377   0.35436
   0.57929  -0.73377   0.35436
   0.57929  -0.73377   0.35436
   0.57929  -0.73377   0.35436
   0.57929  -0.73377   0.35436
   0.57929  -0.73377   0.35436
   0.57929  -0.73377   0.35436
   0.33929  -0.73377   0.35436
   0.33929  -0.73377   0.35436
   0.33929  -0.73377   0.35436
   0.33929  -0.73377   0.35436
   0.33929  -0.73377   0.35436
   0.09929  -0.73377   0.35436
   0.09929  -0.73377   0.35436
   0.09929  -0.73377   0.35436
   0.09929  -0.73377   0.35436
   0.09929  -0.73377   0.35436
  -0.14071  -0.73377   0.35436
   0.09929  -0.73377   0.59436
   0.09929  -0.73377   0.59436
  -0.14071  -0.73377   0.59436
  -0.14071  -0.73377   0.59436
  -0.14071  -0.73377   0.59436
  -0.14071  -0.73377   0.59436
  -0.38071  -0.73377   0.59436
  -0.38071  -0.73377   0.83436
  -0.38071  -0.73377   0.83436
  -0.38071  -0.49377   0.83436
  -0.38071  -0.49377   0.83436
  -0.62071  -0.49377   0.83436
  -0.62071  -0.49377   1.07436
  -0.62071  -0.49377   1.07436
  -0.62071  -0.49377   1.07436
  -0.62071  -0.49377   0.59436
  -0.86071  -0.49377   1.07436
  -0.86071  -0.49377   1.07436
  -0.86071  -0.25377   1.31436
  -0.86071  -0.49377   1.31436
  -1.34071  -0.49377   1.31436
  -0.86071  -0.49377   1.54436
  -1.10071  -0.49377   1.54436
  -1.10071  -0.25377   1.54436
  -1.10071  -0.25377   1.54436
  -1.10071  -0.25377   1.54436
  -1.10071  -0.25377   1.78436
  -1.10071  -0.25377   1.78436
  -1.34071  -0.25377   1.78436
  -1.34071  -0.25377   1.78436
  -1.34071  -0.25377   2.02436
  -1.34071  -0.25377   2.02436
  -1.34071  -0.25377   2.02436
  -1.34071  -0.25377   2.02436
  -1.34071  -0.25377   2.02436
  -1.34071  -0.25377   2.02436
  -1.34071  -0.25377   2.26436
  -1.34071  -0.25377   2.26436
  -1.34071  -0.25377   2.26436
  -1.58071  -0.25377   2.26436
  -1.34071  -0.25377   2.50436
  -1.34071  -0.25377   2.50436
  -1.34071  -0.25377   2.50436
  -1.34071  -0.25377   2.50436
  -1.34071  -0.25377   2.50436
  -1.34071  -0.25377   2.50436
  -1.34071  -0.01377   2.50436
  -1.58071  -0.01377   2.74436
  -1.34071  -0.01377   2.50436
  -1.58071  -0.01377   2.74436
  -1.34071  -0.01377   2.74436
  -1.34071  -0.01377   2.74436
  -1.34071  -0.01377   2.74436
  -1.34071  -0.25377   2.98436
  -1.34071  -0.01377   2.98436
  -1.34071  -0.01377   2.98436
  -1.34071  -0.01377   2.98436
  -1.34071  -0.01377   2.98436
  -1.34071  -0.01377   2.98436
  -1.34071  -0.01377   2.98436
  -1.10071  -0.01377   2.98436
  -1.10071  -0.01377   2.98436
  -1.10071  -0.01377   2.98436
  -1.10071  -0.01377   2.98436
  -1.10071  -0.01377   2.98436
  -1.10071  -0.01377   2.98436
  -1.10071  -0.01377   2.98436
  -0.86071  -0.01377   3.22436
  -0.86071  -0.01377   2.98436
  -0.86071  -0.01377   2.98436
  -0.86071   0.22623   2.98436
  -0.86071   0.22623   2.98436
  -0.86071  -0.01377   2.98436
  -0.86071  -0.01377   2.98436
  -0.62071   0.22623   2.98436
  -0.62071   0.22623   2.98436
  -0.62071   0.22623   2.98436
  -0.62071   0.22623   2.74436
  -0.62071   0.22623   2.74436
  -0.62071   0.22623   2.74436
  -0.62071   0.22623   2.74436
  -0.38071   0.22623   2.74436
  -0.38071   0.22623   2.74436
  -0.38071   0.22623   2.74436
  -0.62071   0.22623   2.50436
  -0.38071   0.22623   2.74436
  -0.38071   0.22623   2.50436
  -0.38071   0.22623   2.50436
  -0.38071   0.22623   2.50436
  -0.38071   0.22623   2.50436
  -0.14071   0.22623   2.50436
  -0.38071   0.22623   2.50436
  -0.14071   0.22623   2.50436
  -0.14071   0.22623   2.50436
  -0.14071   0.22623   2.50436
  -0.14071   0.22623   2.74436
  -0.14071   0.22623   2.50436
  -0.14071   0.22623   2.74436
  -0.14071  -0.01377   2.74436
  -0.14071  -0.01377   2.74436
  -0.14071  -0.01377   2.74436
  -0.14071  -0.01377   2.74436
  -0.14071  -0.01377   2.74436
  -0.14071  -0.01377   2.50436
  -0.14071  -0.01377   2.74436
   0.09929  -0.01377   2.74436
   0.09929  -0.01377   2.74436
   0.09929  -0.01377   2.74436
   0.09929  -0.01377   2.74436
   0.09929  -0.01377   2.74436
   0.09929  -0.01377   2.74436
   0.09929  -0.01377   2.74436
   0.09929  -0.01377   2.74436
   0.33929   0.22623   2.74436
   0.09929  -0.01377   2.74436
   0.09929   0.22623   2.74436
   0.33929  -0.01377   2.74436
   0.33929   0.22623   2.74436
   0.33929  -0.01377   2.74436
   0.33929   0.22623   2.74436
   0.33929   0.22623   2.74436
   0.33929   0.22623   2.74436
   0.33929   0.22623   2.74436
   0.33929   0.22623   2.74436
   0.33929   0.22623   2.74436
   0.33929   0.22623   2.74436
   0.57929   0.22623   2.74436
   0.57929   0.22623   2.74436
   0.57929   0.22623   2.74436
   0.57929   0.22623   2.74436
   0.57929   0.22623   2.50436
   0.33929   0.22623   2.50436
   0.33929   0.22623   2.50436
   0.33929   0.22623   2.50436
   0.33929   0.22623   2.50436
   0.33929   0.46623   2.50436
   0.33929   0.22623   2.50436
   0.33929   0.22623   2.50436
   0.33929   0.22623   2.50436
   0.33929   0.22623   2.50436
   0.09929   0.46623   2.26436
   0.09929   0.22623   2.26436
   0.09929   0.22623   2.26436
   0.09929   0.22623   2.26436
   0.09929   0.22623   2.26436
   0.09929   0.46623   2.26436
  -0.14071   0.46623   2.26436
  -0.14071   0.46623   2.26436
  -0.14071   0.46623   2.02436
  -0.14071   0.22623   2.02436
  -0.38071   0.46623   2.02436
  -0.38071   0.46623   2.02436
  -0.38071   0.46623   2.02436
  -0.38071   0.46623   1.78436
  -0.62071   0.46623   1.78436
  -0.62071   0.46623   1.78436
  -0.62071   0.46623   1.78436
  -0.62071   0.22623   1.54436
  -0.86071   0.22623   1.54436
  -0.86071   0.22623   1.54436
  -0.86071   0.22623   1.31436
  -0.86071   0.22623   1.31436
  -0.86071   0.22623   1.31436
  -0.86071   0.22623   1.07436
  -0.86071   0.22623   1.07436
  -1.10071   0.22623   1.07436
  -1.10071   0.22623   1.07436
  -1.10071   0.22623   0.83436
  -1.10071   0.22623   0.83436
  -1.10071   0.22623   0.83436
  -1.10071   0.22623   0.83436
  -1.10071   0.22623   0.59436
  -1.10071   0.22623   0.59436
  -1.10071   0.22623   0.59436
  -1.10071   0.22623   0.59436
  -1.10071   0.22623   0.35436
  -1.10071   0.22623   0.35436
  -0.86071   0.22623   0.35436
  -0.86071   0.22623   0.35436
  -0.86071   0.22623   0.11436
  -0.86071   0.22623   0.11436
  -0.86071   0.22623   0.11436
  -0.86071  -0.01377   0.11436
  -0.86071  -0.01377   0.11436
  -0.62071  -0.01377   0.11436
  -0.62071  -0.01377   0.11436
  -0.62071  -0.01377  -0.12564
  -0.62071  -0.01377  -0.12564
  -0.38071  -0.01377  -0.12564
  -0.38071  -0.01377  -0.12564
  -0.38071  -0.01377  -0.12564
  -0.38071  -0.25377  -0.12564
  -0.38071  -0.25377  -0.12564
  -0.38071  -0.25377  -0.12564
  -0.14071  -0.25377  -0.12564
   0.09929  -0.25377  -0.12564
   0.09929  -0.25377  -0.36564
   0.09929  -0.25377  -0.36564
   0.33929  -0.25377  -0.36564
   0.33929  -0.25377  -0.36564
   0.33929  -0.25377  -0.36564
   0.57929  -0.25377  -0.36564
   0.57929  -0.25377  -0.36564
   0.57929  -0.25377  -0.36564
   0.81929  -0.25377  -0.36564
   0.81929  -0.25377  -0.36564
   1.05929  -0.25377  -0.60564
   1.05929  -0.49377  -0.60564
   1.29929  -0.49377  -0.60564
   1.29929  -0.49377  -0.60564
   1.29929  -0.49377  -0.60564
   1.53929  -0.49377  -0.60564
   1.53929  -0.49377  -0.60564
   1.77929  -0.49377  -0.60564
   1.77929  -0.49377  -0.60564
   2.01929  -0.49377  -0.60564
   2.01929  -0.49377  -0.60564
   2.25929  -0.49377  -0.84564
   2.25929  -0.49377  -0.60564
   2.49929  -0.49377  -0.84564
   2.49929  -0.49377  -0.60564
   2.49929  -0.73377  -0.60564
   2.73929  -0.73377  -0.60564
   2.73929  -0.73377  -0.60564
   2.97929  -0.73377  -0.60564
   2.97929  -0.73377  -0.60564
   3.21929  -0.73377  -0.60564
   3.21929  -0.73377  -0.60564
   3.21929  -0.73377  -0.60564
   3.44929  -0.73377  -0.60564
   3.44929  -0.73377  -0.36564
   3.44929  -0.73377  -0.36564
   3.68929  -0.73377  -0.36564
   3.68929  -0.73377  -0.36564
   3.68929  -0.97377  -0.36564
   3.68929  -0.73377  -0.36564
   3.92929  -1.21377  -0.36564
   3.92929  -0.73377  -0.12564
   3.92929  -0.73377  -0.12564
   4.16929  -0.73377  -0.12564
   4.16929  -0.73377  -0.12564
   4.16929  -0.73377  -0.12564
   4.16929  -0.73377  -0.12564
   4.16929  -0.73377  -0.12564
   4.40929  -0.73377   0.11436
   4.40929  -0.73377   0.11436
   4.40929  -0.73377   0.11436
   4.40929  -0.73377   0.11436
   4.40929  -0.73377   0.11436
   4.64929  -0.73377   0.11436
   4.64929  -0.73377   0.11436
   4.64929  -0.49377   0.11436
   4.64929  -0.49377   0.11436
   4.64929  -0.49377   0.11436
   4.88929  -0.49377   0.11436
   4.88929  -0.49377   0.11436
   4.88929  -0.49377   0.11436
   4.88929  -0.49377   0.11436
   4.88929  -0.49377   0.11436
   4.88929  -0.49377   0.11436
   4.88929  -0.49377   0.11436
   4.88929  -0.73377   0.11436
   4.88929  -0.49377   0.11436
   4.88929  -0.49377   0.11436
   4.88929  -0.49377   0.11436
   4.88929  -0.49377   0.11436
   4.88929  -0.49377   0.11436
   4.88929  -0.49377   0.11436
   4.88929  -0.49377  -0.36564
   4.88929  -0.25377   0.11436
   4.88929  -0.25377   0.11436
   4.88929  -0.25377   0.11436
   4.88929  -0.25377   0.11436
   4.88929  -0.49377   0.11436
   4.88929  -0.25377   0.11436
   4.88929  -0.25377   0.11436
   4.88929  -0.25377   0.11436
   4.64929  -0.25377   0.35436
   4.88929  -0.25377   0.11436
   4.64929  -0.25377   0.11436
   4.64929  -0.25377   0.11436
   4.64929  -0.25377   0.11436
   4.64929  -0.25377   0.11436
   4.64929  -0.25377   0.11436
   4.64929  -0.25377   0.11436
   4.64929  -0.25377   0.11436
   4.40929  -0.25377   0.11436
   4.64929  -0.25377   0.11436
   4.40929  -0.25377   0.11436
   4.40929  -0.01377   0.11436
   4.40929  -0.01377   0.11436
   4.40929  -0.01377   0.11436
   4.40929  -0.01377   0.11436
   4.40929  -0.01377   0.11436
   4.40929  -0.01377  -0.12564
   4.40929  -0.01377  -0.12564
   4.40929  -0.01377  -0.12564
   4.40929  -0.01377  -0.12564
   4.40929  -0.01377  -0.12564
   4.40929  -0.01377  -0.12564
   4.40929  -0.01377  -0.12564
   4.40929  -0.01377  -0.12564
   4.16929  -0.01377  -0.36564
   4.16929   0.22623  -0.36564
   4.16929   0.22623  -0.36564
   4.16929  -0.01377  -0.36564
   4.16929   0.22623  -0.36564
   4.16929   0.22623  -0.36564
   4.16929   0.22623  -0.36564
   3.92929   0.22623  -0.36564
   3.92929  -0.01377  -0.36564
   3.92929   0.22623  -0.36564
   3.92929   0.22623  -0.36564
   3.92929   0.22623  -0.36564
   3.92929   0.22623  -0.36564
   3.68929   0.22623  -0.36564
   3.68929  -0.01377  -0.60564
   3.68929   0.22623  -0.60564
   3.68929  -0.01377  -0.60564
   3.44929  -0.01377  -0.60564
   3.44929  -0.01377  -0.60564
   3.44929  -0.01377  -0.60564
   3.21929  -0.01377  -0.60564
   3.21929   0.22623  -0.60564
   3.21929  -0.01377  -0.60564
   2.97929  -0.01377  -0.60564
   2.97929  -0.01377  -0.60564
   2.97929  -0.01377  -0.60564
   2.73929  -0.01377  -0.60564
   2.73929  -0.01377  -0.60564
   2.49929  -0.01377  -0.60564
   2.49929  -0.01377  -0.60564
   2.49929  -0.01377  -0.60564
   2.49929  -0.01377  -0.60564
   2.25929  -0.01377  -0.60564
   2.25929  -0.01377  -0.60564
   2.25929  -0.01377  -0.60564
   2.01929  -0.01377  -0.60564
   2.01929  -0.01377  -0.60564
   1.77929  -0.01377  -0.60564
   1.77929  -0.01377  -0.60564
   1.53929  -0.01377  -0.60564
   1.53929  -0.01377  -0.60564
   1.53929  -0.01377  -0.60564
   1.53929  -0.01377  -0.60564
   1.29929  -0.01377  -0.60564
   1.29929  -0.01377  -0.60564
   1.29929  -0.01377  -0.60564
   1.05929  -0.01377  -0.60564
   1.05929  -0.01377  -0.60564
   1.05929  -0.01377  -0.60564
   0.81929  -0.01377  -0.36564
   0.81929  -0.01377  -0.36564
   0.81929  -0.01377  -0.36564
   0.57929  -0.01377  -0.36564
   0.57929  -0.01377  -0.36564
   0.57929  -0.01377  -0.36564
   0.57929  -0.01377  -0.36564
   0.57929  -0.01377  -0.36564
   0.33929  -0.01377  -0.36564
   0.33929  -0.01377  -0.36564
   0.33929  -0.01377  -0.36564
   0.09929  -0.01377  -0.36564
   0.09929  -0.01377  -0.36564
   0.09929  -0.01377  -0.36564
   0.09929   0.22623  -0.36564
  -0.14071  -0.01377  -0.36564
  -0.14071  -0.01377  -0.36564
  -0.14071   0.22623  -0.36564
  -0.14071   0.22623  -0.36564
  -0.38071   0.22623  -0.12564
  -0.38071   0.22623  -0.12564
  -0.38071   0.22623  -0.12564
  -0.38071   0.22623  -0.12564
  -0.62071   0.22623  -0.12564
  -0.62071   0.22623  -0.12564
  -0.62071   0.22623  -0.12564
  -0.62071   0.22623  -0.12564
  -0.62071   0.22623   0.11436
  -0.62071   0.22623   0.11436
  -0.86071   0.22623   0.11436
  -0.86071   0.22623   0.11436
  -0.86071   0.22623   0.11436
  -0.86071   0.22623   0.11436
  -0.86071   0.22623   0.11436
  -0.86071   0.22623   0.11436
  -1.10071   0.22623   0.11436
  -0.86071   0.22623   0.11436
  -0.86071   0.22623   0.11436
  -1.10071   0.22623   0.11436
  -1.10071   0.22623   0.35436
  -1.10071   0.22623   0.35436
  -1.10071   0.22623   0.35436
  -1.10071   0.22623   0.35436
  -1.10071   0.22623   0.35436
  -1.10071   0.22623   0.35436
  -1.10071   0.22623   0.35436
  -1.10071   0.22623   0.35436
  -1.10071   0.22623   0.35436
  -1.10071   0.22623   0.35436
  -1.10071   0.22623   0.35436
  -1.10071   0.22623   0.35436
  -1.10071   0.22623   0.59436
  -1.10071   0.22623   0.35436
  -1.10071   0.22623   0.59436
