********************************************************************************
               CENTRO DE INSTRUMENTACION Y REGISTRO SISMICO  A.C.  
                       Coordinacion de Servicios Tecnicos
     Anaxagoras 814, Col. Narvarte, Benito Juarez, C.P. 03020 Mexico, D.F.
            Tels. 667 45 42/ 687 45  82             Fax. 669 25 12
********************************************************************************
ARCHIVO ESTANDAR DE ACELERACION:
VERSION DEL FORMATO                    : 2.0
NOMBRE DEL ARCHIVO                     : AU119604.231
FECHA Y HORA DE CREACION               : 27/MAR/98, 3:55
REF. CATALOGO ACELEROGRAMAS, SMIS 1996 : REGISTRO No.     /PAG.


================================================================================
DATOS DE LA ESTACION:
NOMBRE DE LA ESTACION                  : AUTODROMO
CLAVE DE LA ESTACION                   : AU11
LOCALIZACION DE LA ESTACION            : AUTODROMO HERMANOS RODRIGUEZ,
                                       : CHURUBUSCO, CD. DEPORTIVA
                                       :
                                       :
                                       :
COORDENADAS DE LA ESTACION             : 19.392 LAT. N 
                                       : 99.087 LONG. W 
ALTITUD (msnm)                         : 2234
TIPO DE SUELO                          : TERRENO BLANDO, MATERIAL COMPRESIBLE
                                       : (ARCILLAS)
                                       : 
INSTITUCION RESPONSABLE                : CIRES 
                                       :

================================================================================
DATOS DEL ACELEROGRAFO:
MODELO DEL ACELEROGRAFO                : SSA-1
NUMERO DE SERIE DEL ACELEROGRAFO       : 157
NUMERO DE CANALES                      : 3
ORIENTACION C1-C6 (rumbo;orientacion)  : /N00E/+V/N90E
ORIENTACION C7-C12 (rumbo;orientacion) :
VEL. DE MUESTREO, C1-C6 (muestras/s)   : /200/200/200
VEL. DE MUESTREO, C7-C12 (muestras/s)  :
ESC. COMPLETA DE SENSORES, C1-C6, (g)  : /2/2/2
ESC. COMPLETA DE SENSORES, C7-C12, (g) :
FREC. NAT. DE SENSORES, C1-C6, (Hz)    : /51.77/52.56/52.29
FREC. NAT. DE SENSORES, C7-C12, (Hz)   :
AMORTIGUAMIENTO DE SENSORES, C1-C6     : /0.5912/0.6083/0.6067
AMORTIGUAMIENTO DE SENSORES, C7-C12    :
INTERVALO DE MUESTREO, C1-C6, (s)      : /0.005/0.005/0.005
INTERVALO DE MUESTREO, C7-C12, (s)     : 
UMBRAL DE DISPARO, C1-C6, (Gal)        : /2/2/2
UMBRAL DE DISPARO, C7-C12, (Gal)       :
MEMORIA DE PREEVENTO (s)               : 15
TIEMPO DE POSEVENTO (s)                : 60


================================================================================
DATOS DEL SISMO:
FECHA DEL SISMO (GMT)                  : 23/ABR/96
HORA EPICENTRO (GMT)                   : 06:53:35,0
MAGNITUD(ES)                           : /Mb=5.3/Ms=4.9/Mc=5.3
COORDENADAS DEL EPICENTRO              : 17.110 LAT. N
                                       : 101.600 LONG. W
PROFUNDIDAD FOCAL (km)                 : 17
FUENTE DE LOS DATOS EPICENTRALES       : SSN
                                       : INSTITUTO DE GEOFISICA, UNAM

================================================================================
DATOS DE ESTE REGISTRO:
HORA DE LA PRIMERA MUESTRA (GMT)       : 06:55:37.00
EXACTITUD DEL TIEMPO (s)               :     
DURACION DEL REGISTRO (s), C1-C6       : /78.08/78.08/78.08
DURACION DEL REGISTRO (s), C7-C12      :
NUM. TOTAL DE MUESTRAS, C1-C6          : /15616/15616/15616
NUM. TOTAL DE MUESTRAS, C7-C12         :
ACEL. MAX. (Gal), C1-C6                : /2.19905/0.53619/1.63296
ACEL. MAX., C1-C6, EN LA MUESTRA       :
ACEL. MAX. (Gal), C7-C12               :
ACEL. MAX., C7-C12, EN LA MUESTRA      :
UNIDADES DE LOS DATOS                  : Gal (cm/s/s)
FACTOR DE DECIMACION                   : 1
FORMATO DATOS (FORTRAN,10 campos/dato) : 3F10.5


================================================================================
CALIDAD DEL ACELEROGRAMA:
REGISTRO DIGITAL COMPLETO, CARECE DE TIEMPO ABSOLUTO.


================================================================================
COMENTARIOS:














================================================================================
DATOS DE ACELERACION:
---------+---------+---------+---------+---------+---------+---------+---------+
   CANAL-1   CANAL-2   CANAL-3   CANAL-4   CANAL-5   CANAL-6   CANAL-7   CANAL-8
      N00E        +V      N90E
---------+---------+---------+---------+---------+---------+---------+---------+
[...]
   0.04905   0.18381   0.76704
   0.04905   0.18381   0.52704
  -0.19095   0.18381   0.76704
  -0.19095  -0.05619   0.76704
  -0.19095   0.18381   0.76704
  -0.19095  -0.05619   0.76704
  -0.19095  -0.05619   0.76704
  -0.19095  -0.05619   0.76704
  -0.43095   0.18381   0.76704
  -0.43095  -0.05619   0.76704
  -0.43095  -0.05619   0.76704
  -0.43095  -0.05619   0.76704
  -0.43095   0.18381   0.76704
  -0.43095   0.18381   0.76704
  -0.43095   0.18381   0.76704
  -0.67095   0.18381   0.76704
  -0.67095  -0.05619   1.00704
  -0.67095   0.18381   1.00704
  -0.67095  -0.05619   0.76704
  -0.67095  -0.05619   1.00704
  -0.67095   0.18381   0.76704
  -0.67095   0.18381   1.00704
  -0.67095   0.18381   1.00704
  -0.67095   0.18381   1.00704
  -0.91095   0.18381   1.00704
  -0.91095   0.18381   1.00704
  -0.91095   0.18381   1.00704
  -0.91095   0.18381   1.00704
  -0.91095   0.18381   1.00704
  -0.91095   0.18381   1.00704
  -0.91095  -0.05619   1.00704
  -1.15095   0.18381   1.00704
  -1.15095   0.18381   1.00704
  -1.15095   0.18381   1.00704
  -1.15095   0.18381   1.00704
  -1.15095   0.18381   1.00704
  -1.15095   0.18381   1.00704
  -1.15095   0.18381   1.00704
  -1.15095   0.18381   1.00704
  -1.15095   0.18381   1.00704
  -1.15095   0.18381   1.00704
  -1.15095   0.18381   1.00704
  -1.15095   0.18381   1.00704
  -1.15095   0.18381   1.00704
  -1.15095   0.18381   1.00704
  -1.15095   0.18381   1.00704
  -1.15095   0.18381   1.00704
  -1.15095   0.18381   1.00704
  -1.39095   0.18381   1.00704
  -1.15095   0.18381   1.00704
  -1.39095   0.18381   1.00704
  -1.39095   0.18381   1.00704
  -1.39095   0.18381   1.00704
  -1.39095   0.18381   0.76704
  -1.39095   0.18381   0.76704
  -1.39095   0.18381   0.76704
  -1.39095   0.18381   0.76704
  -1.39095   0.18381   0.76704
  -1.39095   0.18381   0.76704
  -1.39095   0.18381   0.76704
  -1.39095   0.18381   0.76704
  -1.39095   0.18381   0.76704
  -1.39095   0.18381   0.76704
  -1.39095   0.18381   0.76704
  -1.39095   0.18381   0.76704
  -1.39095   0.18381   0.76704
  -1.39095   0.18381   0.76704
  -1.39095   0.18381   0.76704
  -1.39095   0.18381   0.52704
  -1.39095   0.18381   0.76704
  -1.39095   0.18381   0.52704
  -1.39095   0.18381   0.52704
  -1.39095   0.18381   0.52704
  -1.39095   0.18381   0.52704
  -1.39095   0.18381   0.52704
  -1.15095   0.18381   0.52704
  -1.39095   0.18381   0.52704
  -1.39095   0.18381   0.52704
  -1.15095   0.18381   0.52704
  -1.39095   0.18381   0.52704
  -1.15095   0.18381   0.52704
  -1.15095   0.18381   0.52704
  -1.15095  -0.05619   0.52704
  -1.15095   0.18381   0.52704
  -1.15095   0.18381   0.52704
  -1.15095   0.18381   0.52704
  -1.15095  -0.05619   0.52704
  -1.15095   0.18381   0.52704
  -1.15095   0.18381   0.52704
  -1.15095   0.18381   0.52704
  -1.15095   0.18381   0.28704
  -1.15095   0.18381   0.52704
  -1.15095   0.18381   0.28704
  -1.15095   0.18381   0.28704
  -1.15095   0.18381   0.28704
  -0.91095   0.18381   0.28704
  -0.91095   0.18381   0.28704
  -0.91095   0.18381   0.28704
  -0.91095   0.18381   0.28704
  -0.91095   0.18381   0.28704
  -0.91095   0.18381   0.28704
  -0.91095   0.18381   0.28704
  -0.91095   0.18381   0.28704
  -0.91095   0.18381   0.28704
  -0.67095   0.18381   0.28704
  -0.67095   0.18381   0.28704
  -0.67095   0.18381   0.04704
  -0.67095   0.18381   0.04704
  -0.67095   0.18381   0.04704
  -0.67095   0.18381   0.04704
  -0.67095   0.18381   0.28704
  -0.67095  -0.05619   0.04704
  -0.67095   0.18381   0.28704
  -0.67095   0.18381   0.04704
  -0.67095   0.18381   0.04704
  -0.43095   0.18381   0.04704
  -0.43095   0.18381   0.04704
  -0.43095   0.18381   0.04704
  -0.43095   0.18381   0.04704
  -0.43095   0.18381   0.04704
  -0.43095   0.18381   0.04704
  -0.43095   0.18381   0.04704
  -0.43095   0.18381   0.04704
  -0.19095   0.18381   0.04704
  -0.19095   0.18381   0.04704
  -0.19095   0.18381   0.04704
  -0.19095   0.18381   0.04704
  -0.19095   0.18381   0.04704
  -0.19095   0.18381   0.04704
  -0.19095  -0.05619   0.04704
  -0.19095   0.18381   0.04704
  -0.19095  -0.05619  -0.19296
   0.04905   0.18381  -0.19296
   0.04905   0.18381  -0.19296
   0.04905   0.18381  -0.19296
   0.04905   0.18381  -0.19296
   0.04905  -0.05619  -0.19296
   0.28905  -0.05619  -0.19296
   0.28905   0.18381  -0.19296
   0.28905  -0.05619  -0.19296
   0.28905  -0.05619  -0.19296
   0.28905  -0.05619  -0.19296
   0.28905   0.18381  -0.19296
   0.28905   0.18381  -0.19296
   0.28905   0.18381  -0.19296
   0.52905   0.18381  -0.19296
   0.52905  -0.05619  -0.19296
   0.52905  -0.05619  -0.19296
   0.52905  -0.05619  -0.19296
   0.52905  -0.05619  -0.19296
   0.52905   0.18381  -0.19296
   0.76905  -0.05619  -0.19296
   0.76905  -0.05619  -0.19296
   0.76905  -0.05619  -0.19296
   0.76905   0.18381  -0.19296
   0.76905   0.18381  -0.19296
   0.76905  -0.05619  -0.19296
   0.76905   0.18381  -0.43296
   0.76905  -0.05619  -0.43296
   1.00905   0.18381  -0.43296
   0.76905  -0.05619  -0.43296
   1.00905  -0.05619  -0.43296
   1.00905  -0.05619  -0.43296
   1.00905  -0.05619  -0.43296
   1.00905  -0.05619  -0.43296
   1.00905  -0.05619  -0.43296
   1.00905  -0.05619  -0.43296
   1.24905  -0.05619  -0.43296
   1.24905  -0.05619  -0.43296
   1.24905  -0.05619  -0.43296
   1.24905  -0.05619  -0.43296
   1.24905  -0.05619  -0.43296
   1.24905  -0.05619  -0.43296
   1.24905  -0.05619  -0.43296
   1.24905  -0.05619  -0.43296
   1.24905  -0.05619  -0.43296
   1.24905  -0.05619  -0.43296
   1.48905  -0.05619  -0.43296
   1.24905  -0.05619  -0.43296
   1.24905  -0.05619  -0.43296
   1.48905  -0.05619  -0.43296
   1.48905  -0.05619  -0.43296
   1.48905  -0.05619  -0.43296
   1.48905  -0.05619  -0.43296
   1.48905  -0.05619  -0.43296
   1.48905  -0.05619  -0.43296
   1.48905  -0.05619  -0.43296
   1.48905  -0.05619  -0.43296
   1.48905  -0.05619  -0.43296
   1.48905  -0.05619  -0.43296
   1.71905  -0.05619  -0.43296
   1.48905  -0.05619  -0.43296
   1.71905  -0.05619  -0.43296
   1.71905  -0.05619  -0.43296
   1.71905  -0.29619  -0.43296
   1.71905  -0.05619  -0.43296
   1.71905  -0.29619  -0.43296
   1.71905  -0.05619  -0.43296
   1.71905  -0.29619  -0.43296
   1.71905  -0.29619  -0.43296
   1.71905  -0.29619  -0.67296
   1.71905  -0.29619  -0.43296
   1.71905  -0.29619  -0.43296
   1.71905  -0.29619  -0.43296
   1.71905  -0.29619  -0.43296
   1.71905  -0.05619  -0.43296
   1.71905  -0.29619  -0.43296
   1.71905  -0.29619  -0.43296
   1.71905  -0.29619  -0.43296
   1.71905  -0.29619  -0.43296
   1.71905  -0.05619  -0.43296
   1.71905  -0.05619  -0.43296
   1.71905  -0.29619  -0.43296
   1.71905  -0.29619  -0.43296
   1.71905  -0.29619  -0.43296
   1.71905  -0.29619  -0.43296
   1.71905  -0.29619  -0.43296
   1.71905  -0.29619  -0.43296
   1.71905  -0.29619  -0.43296
   1.71905  -0.29619  -0.43296
   1.71905  -0.29619  -0.43296
   1.71905  -0.29619  -0.43296
   1.71905  -0.29619  -0.43296
   1.71905  -0.29619  -0.43296
   1.71905  -0.29619  -0.19296
   1.71905  -0.29619  -0.19296
   1.48905  -0.29619  -0.19296
   1.48905  -0.29619  -0.19296
   1.48905  -0.29619  -0.19296
   1.48905  -0.29619  -0.19296
   1.48905  -0.29619  -0.19296
   1.48905  -0.29619  -0.19296
   1.24905  -0.29619  -0.19296
   1.48905  -0.29619  -0.19296
   1.48905  -0.29619  -0.19296
   1.48905  -0.29619  -0.19296
   1.48905  -0.29619  -0.19296
   1.24905  -0.29619  -0.19296
   1.24905  -0.29619  -0.19296
   1.24905  -0.29619  -0.19296
   1.24905  -0.29619   0.04704
   1.24905  -0.29619   0.04704
   1.24905  -0.29619   0.04704
   1.24905  -0.29619  -0.19296
   1.24905  -0.29619   0.04704
   1.24905  -0.29619  -0.19296
   1.24905  -0.29619   0.04704
   1.00905  -0.29619   0.04704
   1.24905  -0.29619   0.04704
   0.76905  -0.29619   0.04704
   1.00905  -0.29619   0.04704
   1.00905  -0.29619   0.04704
   1.00905  -0.29619   0.04704
   1.00905  -0.29619   0.04704
   0.76905  -0.29619   0.04704
   0.76905  -0.29619   0.28704
   0.76905  -0.29619   0.28704
   0.76905  -0.29619   0.28704
   0.76905  -0.29619   0.28704
   0.76905  -0.29619   0.28704
   0.76905  -0.29619   0.28704
   0.52905  -0.29619   0.28704
   0.52905  -0.29619   0.28704
   0.52905  -0.29619   0.28704
   0.52905  -0.29619   0.28704
   0.52905  -0.29619   0.28704
   0.52905  -0.29619   0.52704
   0.28905  -0.29619   0.28704
   0.28905  -0.29619   0.52704
   0.28905  -0.29619   0.52704
   0.28905  -0.29619   0.52704
   0.28905  -0.29619   0.52704
   0.28905  -0.29619   0.52704
   0.28905  -0.29619   0.52704
   0.04905  -0.29619   0.52704
   0.04905  -0.29619   0.52704
   0.04905  -0.29619   0.52704
   0.04905  -0.29619   0.52704
   0.04905  -0.53619   0.52704
  -0.19095  -0.05619   0.76704
  -0.19095  -0.29619   0.76704
  -0.19095  -0.29619   0.76704
  -0.19095  -0.29619   0.76704
  -0.19095  -0.29619   0.76704
  -0.43095  -0.29619   0.76704
  -0.43095  -0.05619   0.76704
  -0.43095  -0.05619   0.76704
  -0.43095  -0.05619   1.00704
  -0.67095  -0.29619   0.76704
  -0.43095  -0.29619   0.76704
  -0.67095  -0.05619   1.00704
  -0.67095  -0.05619   1.00704
  -0.67095  -0.05619   1.00704
  -0.67095  -0.05619   1.00704
  -0.67095  -0.29619   1.00704
  -0.67095  -0.05619   1.00704
  -0.67095  -0.05619   1.00704
  -0.67095  -0.29619   1.00704
  -0.91095  -0.05619   1.00704
  -0.91095  -0.05619   1.00704
  -0.91095  -0.05619   1.00704
  -0.91095  -0.05619   1.00704
  -0.91095  -0.05619   1.00704
  -0.91095  -0.05619   1.00704
  -1.15095  -0.05619   1.00704
  -1.15095  -0.05619   1.00704
  -1.63095  -0.05619   1.00704
  -1.15095  -0.05619   1.00704
  -1.15095   0.18381   1.00704
  -1.15095  -0.05619   0.52704
  -1.15095  -0.05619   1.24704
  -1.15095  -0.05619   1.24704
  -1.15095  -0.05619   1.24704
  -1.39095  -0.05619   1.00704
  -1.15095  -0.05619   1.00704
  -1.39095  -0.05619   1.00704
  -1.39095  -0.05619   1.24704
  -1.39095  -0.05619   1.24704
  -1.39095  -0.05619   1.24704
  -1.39095  -0.05619   1.24704
  -1.39095   0.18381   1.24704
  -1.39095   0.18381   1.24704
  -1.39095   0.18381   1.24704
  -1.39095   0.18381   1.24704
  -1.39095   0.18381   1.24704
  -1.63095   0.18381   1.24704
  -1.63095   0.18381   1.24704
  -1.63095   0.18381   1.24704
  -1.63095   0.18381   1.24704
  -1.63095   0.18381   1.24704
  -1.63095   0.18381   1.24704
  -1.63095   0.18381   1.24704
  -1.63095   0.18381   1.24704
  -1.63095   0.18381   1.24704
  -1.63095   0.18381   1.24704
  -1.63095   0.18381   1.24704
  -1.63095   0.18381   1.24704
  -1.87095   0.18381   1.24704
  -1.87095   0.18381   1.00704
  -1.63095   0.18381   1.00704
  -1.63095   0.18381   1.24704
  -1.87095   0.18381   1.24704
  -1.63095   0.18381   1.24704
  -1.87095   0.18381   1.24704
  -1.87095   0.18381   1.00704
  -1.87095   0.18381   1.24704
  -1.87095   0.18381   1.00704
  -1.87095   0.18381   1.00704
  -2.11095   0.18381   1.00704
  -1.87095   0.18381   1.00704
  -1.87095   0.18381   1.00704
  -1.87095   0.18381   1.00704
  -1.87095   0.18381   1.00704
  -1.87095   0.18381   1.00704
  -1.87095   0.18381   1.00704
  -1.87095   0.18381   1.00704
  -1.63095   0.18381   1.00704
  -1.87095   0.18381   1.00704
  -1.87095   0.18381   1.00704
  -1.87095   0.18381   1.00704
  -1.87095   0.18381   1.00704
  -1.63095   0.18381   1.00704
  -1.63095   0.18381   0.76704
  -2.11095   0.18381   1.00704
  -1.87095   0.18381   1.00704
  -1.63095   0.18381   0.76704
  -1.87095   0.42381   1.00704
  -1.63095   0.18381   0.76704
  -1.63095   0.18381   1.00704
  -1.63095   0.42381   0.76704
  -1.63095   0.42381   0.76704
  -1.63095   0.42381   0.76704
  -1.63095   0.42381   0.76704
  -1.63095   0.42381   0.76704
  -1.63095   0.42381   0.76704
  -1.63095   0.42381   0.76704
  -1.63095   0.42381   0.76704
  -1.63095   0.42381   0.52704
  -1.63095   0.42381   0.52704
  -1.63095   0.42381   0.52704
  -1.63095   0.42381   0.52704
  -1.63095   0.42381   0.52704
  -1.63095   0.42381   0.52704
  -1.63095   0.42381   0.52704
  -1.63095   0.42381   0.52704
  -1.63095   0.18381   0.52704
  -1.39095   0.42381   0.52704
  -1.63095   0.42381   0.52704
  -1.39095   0.42381   0.52704
  -1.39095   0.42381   0.52704
  -1.39095   0.42381   0.52704
  -1.39095   0.42381   0.28704
  -1.39095   0.42381   0.28704
  -1.39095   0.18381   0.28704
  -1.39095   0.42381   0.28704
  -1.39095   0.42381   0.28704
  -1.39095   0.42381   0.28704
  -1.39095   0.42381   0.28704
  -1.15095   0.18381   0.28704
  -1.15095   0.42381   0.04704
  -1.15095   0.42381   0.04704
  -1.15095   0.42381   0.04704
  -1.15095   0.42381   0.04704
  -1.15095   0.42381   0.04704
  -1.15095   0.42381   0.04704
  -1.15095   0.42381   0.04704
  -1.15095   0.42381   0.04704
  -1.63095   0.18381   0.04704
  -1.15095   0.42381  -0.19296
  -1.15095   0.42381  -0.19296
  -1.15095   0.42381  -0.19296
  -1.15095   0.42381  -0.19296
  -1.15095   0.42381  -0.19296
  -1.15095   0.42381  -0.19296
  -1.15095   0.42381  -0.19296
  -0.91095   0.42381  -0.19296
  -0.91095   0.42381  -0.19296
  -0.91095   0.18381  -0.19296
  -0.91095   0.18381  -0.43296
  -0.91095   0.18381  -0.43296
  -0.91095   0.18381  -0.43296
  -0.91095   0.18381  -0.43296
  -0.91095   0.18381  -0.43296
  -0.91095   0.18381  -0.43296
  -0.91095   0.18381  -0.43296
  -0.91095   0.18381  -0.43296
  -0.67095   0.18381  -0.43296
  -0.67095   0.18381  -0.43296
  -0.67095   0.18381  -0.43296
  -0.67095  -0.05619  -0.43296
  -0.67095   0.18381  -0.67296
  -0.67095   0.18381  -0.43296
  -0.67095   0.18381  -0.67296
  -0.67095   0.18381  -0.67296
  -0.67095   0.18381  -0.67296
  -0.67095   0.18381  -0.67296
  -0.67095   0.18381  -0.67296
  -0.67095   0.18381  -0.67296
  -0.43095   0.18381  -0.67296
  -0.43095   0.18381  -0.67296
  -0.43095   0.18381  -0.67296
  -0.43095   0.18381  -0.91296
  -0.43095   0.18381  -0.67296
  -0.43095   0.18381  -0.91296
  -0.43095   0.18381  -0.91296
  -0.43095   0.18381  -0.91296
  -0.19095   0.18381  -0.91296
  -0.19095   0.18381  -0.91296
  -0.19095   0.18381  -0.91296
  -0.19095   0.18381  -0.91296
  -0.19095   0.18381  -0.91296
  -0.19095   0.18381  -0.91296
  -0.19095   0.18381  -0.91296
  -0.19095  -0.05619  -0.91296
   0.04905   0.18381  -0.91296
   0.04905   0.18381  -0.91296
   0.04905   0.18381  -0.91296
   0.04905   0.18381  -0.91296
   0.04905  -0.05619  -0.91296
   0.28905  -0.05619  -1.15296
   0.28905  -0.05619  -1.15296
   0.28905  -0.05619  -1.15296
   0.28905  -0.05619  -0.91296
   0.28905  -0.05619  -1.15296
   0.28905  -0.05619  -1.15296
   0.28905  -0.05619  -1.15296
   0.28905  -0.05619  -1.15296
   0.28905  -0.05619  -1.15296
   0.28905  -0.05619  -1.15296
   0.52905  -0.05619  -1.15296
   0.52905  -0.05619  -1.15296
   0.52905  -0.05619  -1.15296
   0.52905  -0.05619  -1.15296
   0.76905  -0.05619  -1.15296
   0.52905  -0.05619  -1.15296
   0.76905  -0.05619  -1.15296
   0.76905  -0.29619  -1.15296
   0.76905  -0.05619  -1.15296
   0.76905  -0.05619  -1.15296
   0.76905  -0.05619  -1.15296
   0.76905  -0.05619  -1.15296
   0.76905  -0.29619  -1.15296
   1.00905  -0.29619  -1.15296
   1.00905  -0.29619  -1.15296
   1.00905  -0.29619  -1.15296
   1.00905  -0.29619  -1.15296
   1.00905  -0.29619  -1.15296
   1.00905  -0.29619  -1.15296
   1.00905  -0.29619  -1.15296
   1.24905  -0.29619  -1.15296
   1.24905  -0.29619  -1.15296
   1.24905  -0.29619  -1.15296
   1.24905  -0.29619  -1.15296
   1.24905  -0.29619  -1.15296
   1.24905  -0.29619  -1.15296
   1.24905  -0.29619  -1.15296
   1.24905  -0.29619  -1.15296
   1.24905  -0.29619  -1.15296
   1.24905  -0.29619  -1.15296
