********************************************************************************
               CENTRO DE INSTRUMENTACION Y REGISTRO SISMICO  A.C.  
                       Coordinacion de Servicios Tecnicos
     Anaxagoras 814, Col. Narvarte, Benito Juarez, C.P. 03020 Mexico, D.F.
            Tels. 687 45 42/ 687 45  82             Fax. 669 25 12
********************************************************************************
ARCHIVO ESTANDAR DE ACELERACION:
VERSION DEL FORMATO                    : 2.0
NOMBRE DEL ARCHIVO                     : AU119509.141
FECHA Y HORA DE CREACION               : 18 de marzo de 1996/14:03
REF. CATALOGO ACELEROGRAMAS, SMIS 1995 : REGISTRO No.     /PAG.


================================================================================
DATOS DE LA ESTACION:
NOMBRE DE LA ESTACION                  : AUTODROMO
CLAVE DE LA ESTACION                   : AU11
LOCALIZACION DE LA ESTACION            : AUTODROMO HERMANOS RODRIGUEZ,
                                       : CHURUBUSCO, CD. DEPORTIVA
                                       :
                                       :
                                       :
COORDENADAS DE LA ESTACION             : 19.392 LAT. N 
                                       : 99.087 LONG. W 
ALTITUD (msnm)                         : 2234
TIPO DE SUELO                          : TERRENO BLANDO, MATERIAL COMPRESIBLE
                                       : (ARCILLAS)
                                       : 
INSTITUCION RESPONSABLE                : CIRES 
                                       :

================================================================================
DATOS DEL ACELEROGRAFO:
MODELO DEL ACELEROGRAFO                : SSA-1
NUMERO DE SERIE DEL ACELEROGRAFO       : 157
NUMERO DE CANALES                      : 3
ORIENTACION C1-C6 (rumbo;orientacion)  : /N00E/+V/N90E
ORIENTACION C7-C12 (rumbo;orientacion) :
VEL. DE MUESTREO, C1-C6 (muestras/s)   : /200/200/200
VEL. DE MUESTREO, C7-C12 (muestras/s)  :
ESC. COMPLETA DE SENSORES, C1-C6, (g)  : /2/2/2
ESC. COMPLETA DE SENSORES, C7-C12, (g) :
FREC. NAT. DE SENSORES, C1-C6, (Hz)    : /50/50/50
FREC. NAT. DE SENSORES, C7-C12, (Hz)   :
AMORTIGUAMIENTO DE SENSORES, C1-C6     : /0.700/0.700/0.700
AMORTIGUAMIENTO DE SENSORES, C7-C12    :
INTERVALO DE MUESTREO, C1-C6, (s)      : /0.005/0.005/0.005
INTERVALO DE MUESTREO, C7-C12, (s)     :
UMBRAL DE DISPARO, C1-C6, (Gal)        : /2/2/2
UMBRAL DE DISPARO, C7-C12, (Gal)       :
MEMORIA DE PREEVENTO (s)               : 15
TIEMPO DE POSEVENTO (s)                : 60


================================================================================
DATOS DEL SISMO:
FECHA DEL SISMO (GMT)                  : 14/SEP/95
HORA EPICENTRO (GMT)                   : 14:04:30.5
MAGNITUD(ES)                           : /Mc=6.4/Mb=7.2/Me=7.3
COORDENADAS DEL EPICENTRO              : 16.31 LAT. N
                                       : 98.88 LONG. W
PROFUNDIDAD FOCAL (km)                 : 22
FUENTE DE LOS DATOS EPICENTRALES       : SSN
                                       : INSTITUTO DE GEOFISICA, UNAM

================================================================================
DATOS DE ESTE REGISTRO:
HORA DE LA PRIMERA MUESTRA (GMT)       : 14:05:46.00
EXACTITUD DEL TIEMPO (s)               :     
DURACION DEL REGISTRO (s), C1-C6       : /337.915/337.915/337.915
DURACION DEL REGISTRO (s), C7-C12      :
NUM. TOTAL DE MUESTRAS, C1-C6          : /67583/67583/67583
NUM. TOTAL DE MUESTRAS, C7-C12         :
ACEL. MAX. (Gal), C1-C6                : /33.82659/5.72419/14.45759
ACEL. MAX., C1-C6, EN LA MUESTRA       :
ACEL. MAX. (Gal), C7-C12               :
ACEL. MAX., C7-C12, EN LA MUESTRA      :
UNIDADES DE LOS DATOS                  : Gal (cm/s/s)
FACTOR DE DECIMACION                   : 1
FORMATO DATOS (FORTRAN,10 campos/dato) : 3F10.5


================================================================================
CALIDAD DEL ACELEROGRAMA:
REGISTRO DIGITAL COMPLETO, CARECE DE TIEMPO ABSOLUTO.


================================================================================
COMENTARIOS: 
             EL EQUIPO SE ENCONTRABA CON GANANCIA DE 4 EN TODOS LOS EJES,
             POR LO QUE LAS ESCALAS COMPLETAS ERAN DE 1/2 G.












================================================================================
DATOS DE ACELERACION:
---------+---------+---------+---------+---------+---------+---------+---------+
   CANAL-1   CANAL-2   CANAL-3   CANAL-4   CANAL-5   CANAL-6   CANAL-7   CANAL-8
      N00E        +V      N90E
---------+---------+---------+---------+---------+---------+---------+---------+
[...]
  18.49659   1.17419  -4.22241
  18.73659   1.17419  -3.98241
  18.97659   1.41419  -3.98241
  19.45659   1.41419  -3.98241
  19.69659   1.65419  -3.98241
  19.93659   1.65419  -3.98241
  20.17659   1.65419  -3.74241
  20.41659   1.65419  -3.98241
  20.41659   1.65419  -3.74241
  20.65659   1.65419  -3.74241
  20.65659   1.65419  -3.98241
  20.89659   1.41419  -3.98241
  20.89659   1.41419  -3.74241
  20.89659   1.41419  -3.74241
  20.89659   1.17419  -3.74241
  20.89659   1.17419  -3.74241
  20.65659   1.17419  -3.74241
  20.65659   0.93419  -3.74241
  20.65659   0.93419  -3.50241
  20.41659   0.93419  -3.50241
  20.41659   0.93419  -3.50241
  20.41659   0.93419  -3.26241
  20.17659   0.69419  -3.26241
  19.93659   0.93419  -3.26241
  19.93659   0.93419  -3.02241
  19.69659   0.93419  -3.02241
  19.45659   0.93419  -2.78241
  19.45659   0.93419  -2.78241
  19.21659   0.93419  -2.54241
  18.97659   0.93419  -2.30241
  18.97659   0.93419  -2.07241
  18.49659   0.93419  -2.07241
  18.49659   0.93419  -1.59241
  18.25659   0.93419  -1.35241
  18.01659   0.93419  -1.11241
  17.53659   0.93419  -0.63241
  17.29659   0.93419  -0.39241
  17.05659   0.93419   0.08759
  16.82659   0.93419   0.32759
  16.58659   0.93419   0.80759
  16.10659   0.93419   1.28759
  15.86659   0.93419   1.28759
  15.62659   0.93419   2.00759
  15.38659   0.93419   2.48759
  14.90659   0.69419   2.72759
  14.66659   0.69419   3.19759
  14.42659   0.69419   3.43759
  14.18659   0.45419   3.67759
  13.94659   0.45419   4.15759
  13.46659   0.45419   4.39759
  13.22659   0.21419   4.63759
  12.98659  -0.26581   4.87759
  12.74659  -0.02581   4.87759
  12.50659  -0.02581   4.87759
  12.26659  -0.26581   5.11759
  12.03659  -0.26581   5.35759
  11.79659  -0.50581   5.35759
  11.55659  -0.50581   5.35759
  11.31659  -0.50581   5.11759
  11.07659  -0.74581   5.11759
  10.83659  -0.74581   5.11759
  10.35659  -0.74581   4.87759
  10.11659  -0.74581   4.87759
   9.87659  -0.98581   4.63759
   9.63659  -0.98581   4.39759
   9.15659  -0.98581   4.15759
   8.91659  -0.98581   3.91759
   8.43659  -1.22581   3.67759
   8.43659  -1.22581   3.43759
   8.19659  -1.22581   3.19759
   7.95659  -1.46581   2.95759
   7.47659  -1.46581   2.72759
   7.47659  -1.46581   2.48759
   7.00659  -1.70581   2.00759
   7.00659  -1.70581   1.76759
   6.76659  -1.93581   1.52759
   6.52659  -1.93581   1.28759
   6.28659  -1.93581   1.04759
   6.28659  -2.17581   0.80759
   6.04659  -2.17581   0.56759
   6.04659  -2.41581   0.56759
   6.04659  -2.41581   0.08759
   6.04659  -2.41581   0.08759
   6.04659  -2.41581   0.08759
   6.04659  -2.41581  -0.15241
   6.04659  -2.65581  -0.15241
   6.04659  -2.65581  -0.39241
   6.04659  -2.65581  -0.39241
   6.28659  -2.65581  -0.39241
   6.28659  -2.65581  -0.39241
   6.52659  -2.65581  -0.39241
   6.52659  -2.65581  -0.39241
   6.52659  -2.65581  -0.39241
   6.52659  -2.65581  -0.39241
   6.52659  -2.65581  -0.15241
   6.76659  -2.65581  -0.15241
   6.76659  -2.65581  -0.15241
   6.76659  -2.41581  -0.15241
   6.76659  -2.41581  -0.15241
   6.76659  -2.41581  -0.15241
   6.52659  -2.41581  -0.15241
   6.52659  -2.17581  -0.15241
   6.28659  -2.17581  -0.15241
   6.28659  -1.93581   0.08759
   6.04659  -1.93581  -0.15241
   5.80659  -1.93581   0.08759
   5.56659  -1.70581   0.08759
   5.32659  -1.70581  -0.15241
   5.08659  -1.46581  -0.15241
   4.84659  -1.46581  -0.15241
   4.60659  -1.22581  -0.15241
   4.12659  -1.22581  -0.15241
   3.64659  -0.98581  -0.15241
   3.40659  -0.98581  -0.15241
   2.92659  -0.98581  -0.15241
   2.68659  -0.74581  -0.39241
   2.21659  -0.74581  -0.39241
   1.73659  -0.74581  -0.15241
   1.49659  -0.50581  -0.15241
   1.01659  -0.50581  -0.15241
   0.53659  -0.50581   0.08759
   0.29659  -0.26581   0.08759
  -0.18341  -0.26581   0.08759
  -0.42341  -0.26581   0.32759
  -0.90341  -0.50581   0.56759
  -1.14341  -0.50581   0.56759
  -1.62341  -0.50581   0.80759
  -1.86341  -0.50581   1.04759
  -2.34341  -0.50581   1.04759
  -2.57341  -0.74581   1.28759
  -2.81341  -0.74581   1.52759
  -3.29341  -0.98581   1.76759
  -3.53341  -0.98581   1.76759
  -3.77341  -1.22581   2.00759
  -4.01341  -0.98581   2.24759
  -4.25341  -1.22581   2.24759
  -4.73341  -1.22581   2.48759
  -4.97341  -1.22581   2.72759
  -5.21341  -1.22581   2.72759
  -5.45341  -1.22581   2.72759
  -5.69341  -1.22581   2.95759
  -6.17341  -1.22581   3.19759
  -6.41341  -0.98581   3.19759
  -6.65341  -0.98581   3.19759
  -6.89341  -0.98581   3.19759
  -7.36341  -0.98581   3.43759
  -7.60341  -0.98581   3.43759
  -7.84341  -0.98581   3.43759
  -8.32341  -0.98581   3.67759
  -8.56341  -0.98581   3.67759
  -8.80341  -0.98581   3.67759
  -9.28341  -0.74581   3.67759
  -9.52341  -0.74581   3.67759
  -9.76341  -0.74581   3.67759
 -10.24341  -0.74581   3.91759
 -10.48341  -0.74581   3.91759
 -10.72341  -0.74581   3.91759
 -11.20341  -0.74581   3.91759
 -11.44341  -0.74581   3.91759
 -11.68341  -0.74581   3.67759
 -11.92341  -0.74581   3.91759
 -12.39341  -0.74581   3.67759
 -12.63341  -0.50581   3.67759
 -12.87341  -0.50581   3.67759
 -13.11341  -0.50581   3.67759
 -13.35341  -0.50581   3.67759
 -13.59341  -0.26581   3.43759
 -13.83341  -0.26581   3.43759
 -14.07341  -0.26581   3.43759
 -14.31341  -0.02581   3.43759
 -14.55341   0.21419   3.43759
 -14.79341   0.21419   3.67759
 -15.03341   0.45419   3.67759
 -15.27341   0.45419   3.67759
 -15.27341   0.45419   3.91759
 -15.51341   0.45419   3.91759
 -15.75341   0.69419   4.15759
 -15.99341   0.69419   4.39759
 -15.99341   0.69419   4.39759
 -16.23341   0.69419   4.63759
 -16.47341   0.69419   4.63759
 -16.47341   0.69419   4.87759
 -16.71341   0.69419   5.11759
 -16.71341   0.69419   5.11759
 -16.94341   0.69419   5.35759
 -16.94341   0.93419   5.35759
 -17.18341   0.93419   5.35759
 -17.18341   0.69419   5.59759
 -17.42341   0.69419   5.59759
 -17.42341   0.69419   5.59759
 -17.42341   0.69419   5.59759
 -17.42341   0.69419   5.59759
 -17.42341   0.45419   5.35759
 -17.66341   0.45419   5.35759
 -17.66341   0.45419   5.35759
 -17.66341   0.45419   5.35759
 -17.90341   0.45419   5.35759
 -17.66341   0.21419   5.11759
 -17.90341   0.21419   5.11759
 -17.90341  -0.02581   5.11759
 -17.90341  -0.02581   5.11759
 -17.90341  -0.26581   4.87759
 -17.90341  -0.26581   4.87759
 -18.14341  -0.50581   4.63759
 -18.14341  -0.50581   4.63759
 -18.14341  -0.50581   4.63759
 -18.14341  -0.74581   4.63759
 -18.14341  -0.74581   4.63759
 -18.14341  -0.74581   4.63759
 -17.90341  -0.98581   4.63759
 -17.90341  -0.98581   4.39759
 -17.90341  -0.98581   4.39759
 -17.90341  -0.98581   4.39759
 -17.66341  -0.98581   4.15759
 -17.66341  -0.98581   4.15759
 -17.42341  -0.98581   4.15759
 -17.42341  -0.98581   3.91759
 -17.18341  -0.98581   3.91759
 -16.94341  -0.98581   3.67759
 -16.94341  -0.98581   3.43759
 -16.71341  -0.98581   3.43759
 -16.47341  -0.98581   3.19759
 -16.23341  -0.98581   2.95759
 -15.99341  -0.98581   2.72759
 -15.75341  -0.98581   2.48759
 -15.51341  -0.98581   2.48759
 -15.03341  -0.98581   2.24759
 -14.79341  -0.98581   2.00759
 -14.55341  -0.98581   1.76759
 -14.07341  -0.98581   1.76759
 -13.59341  -0.98581   1.52759
 -13.35341  -0.74581   1.28759
 -12.87341  -0.74581   1.04759
 -12.63341  -0.50581   1.04759
 -12.15341  -0.50581   0.80759
 -11.68341  -0.50581   0.80759
 -11.20341  -0.50581   0.80759
 -10.96341  -0.26581   0.56759
 -10.48341  -0.26581   0.56759
 -10.24341  -0.26581   0.32759
  -9.76341  -0.26581   0.32759
  -9.28341  -0.26581   0.08759
  -9.04341  -0.26581   0.08759
  -8.56341  -0.26581   0.08759
  -8.32341  -0.26581  -0.15241
  -7.84341  -0.26581  -0.15241
  -7.60341  -0.02581  -0.39241
  -7.36341  -0.02581  -0.39241
  -6.89341  -0.02581  -0.39241
  -6.65341  -0.02581  -0.63241
  -6.41341  -0.02581  -0.63241
  -6.17341   0.21419  -0.63241
  -5.93341   0.21419  -0.63241
  -5.45341   0.21419  -0.63241
  -5.21341   0.45419  -0.63241
  -4.97341   0.21419  -0.87241
  -4.73341   0.45419  -0.63241
  -4.49341   0.45419  -0.87241
  -4.25341   0.69419  -0.87241
  -4.01341   0.93419  -0.87241
  -3.77341   0.93419  -0.87241
  -3.53341   0.93419  -0.87241
  -3.53341   1.17419  -0.87241
  -3.05341   1.17419  -0.87241
  -3.05341   1.17419  -0.87241
  -2.81341   1.17419  -0.87241
  -2.34341   1.41419  -0.87241
  -2.10341   1.41419  -0.87241
  -1.86341   1.41419  -0.87241
  -1.62341   1.41419  -1.11241
  -1.38341   1.41419  -0.87241
  -1.14341   1.41419  -0.87241
  -0.66341   1.17419  -1.11241
  -0.42341   1.17419  -0.87241
  -0.18341   1.17419  -0.87241
   0.29659   1.17419  -0.87241
   0.77659   1.41419  -0.63241
   1.01659   1.41419  -0.63241
   1.49659   1.41419  -0.63241
   1.97659   1.41419  -0.39241
   2.45659   1.41419  -0.15241
   2.92659   1.41419  -0.15241
   3.40659   1.65419   0.08759
   3.88659   1.65419   0.32759
   4.60659   1.41419   0.56759
   5.08659   1.41419   0.80759
   5.56659   1.41419   0.80759
   6.28659   1.41419   1.04759
   6.76659   1.41419   1.28759
   7.47659   1.17419   1.52759
   7.95659   1.17419   1.52759
   8.67659   0.93419   1.76759
   9.39659   0.93419   2.00759
   9.87659   0.93419   2.00759
  10.59659   0.93419   2.24759
  11.31659   0.69419   2.24759
  11.79659   0.69419   2.24759
  12.50659   0.69419   2.24759
  13.22659   0.45419   2.48759
  13.94659   0.45419   2.48759
  14.66659   0.45419   2.48759
  15.14659   0.45419   2.48759
  15.86659   0.21419   2.48759
  16.34659   0.21419   2.48759
  17.05659  -0.02581   2.48759
  17.77659  -0.02581   2.48759
  18.25659  -0.26581   2.48759
  18.97659  -0.50581   2.48759
  19.45659  -0.50581   2.48759
  20.17659  -0.74581   2.24759
  20.65659  -0.98581   2.24759
  21.13659  -0.98581   2.48759
  21.84659  -1.22581   2.24759
  22.32659  -1.22581   2.24759
  22.80659  -1.46581   2.24759
  23.52659  -1.46581   2.24759
  24.00659  -1.46581   2.00759
  24.48659  -1.70581   2.00759
  24.96659  -1.70581   1.76759
  25.68659  -1.70581   1.76759
  26.16659  -1.93581   1.76759
  26.63659  -1.93581   1.76759
  27.11659  -2.17581   1.52759
  27.59659  -2.17581   1.52759
  28.07659  -2.17581   1.52759
  28.79659  -2.41581   1.28759
  29.03659  -2.41581   1.28759
  29.51659  -2.41581   1.04759
  29.99659  -2.41581   1.04759
  30.47659  -2.41581   0.80759
  30.71659  -2.41581   0.80759
  30.95659  -2.41581   0.56759
  31.42659  -2.17581   0.56759
  31.66659  -2.17581   0.56759
  31.90659  -2.17581   0.32759
  32.14659  -2.17581   0.32759
  32.38659  -2.17581   0.32759
  32.62659  -2.17581   0.08759
  32.86659  -2.17581   0.08759
  32.86659  -2.17581   0.08759
  33.10659  -2.17581   0.08759
  33.34659  -2.17581  -0.15241
  33.34659  -1.93581  -0.39241
  33.58659  -2.17581  -0.39241
  33.58659  -2.17581  -0.63241
  33.58659  -2.17581  -0.63241
  33.82659  -2.17581  -0.63241
  33.82659  -2.17581  -0.87241
  33.82659  -2.17581  -0.87241
  33.82659  -2.41581  -0.87241
  33.82659  -2.41581  -0.87241
  33.82659  -2.41581  -1.11241
  33.82659  -2.41581  -1.11241
  33.82659  -2.41581  -1.11241
  33.82659  -2.41581  -1.11241
  33.58659  -2.41581  -1.11241
  33.58659  -2.41581  -0.87241
  33.58659  -2.41581  -0.87241
  33.34659  -2.17581  -0.87241
  33.34659  -2.17581  -0.63241
  33.34659  -2.17581  -0.63241
  33.10659  -1.93581  -0.39241
  33.10659  -1.93581  -0.39241
  33.10659  -1.93581  -0.15241
  32.86659  -1.93581  -0.15241
  32.86659  -1.93581   0.08759
  32.86659  -1.93581   0.32759
  32.62659  -1.93581   0.56759
  32.62659  -1.93581   0.56759
  32.62659  -1.93581   0.80759
  32.38659  -1.93581   1.04759
  32.14659  -1.93581   1.28759
  32.14659  -1.70581   1.52759
  31.90659  -1.70581   1.76759
  31.90659  -1.70581   2.00759
  31.66659  -1.70581   2.24759
  31.42659  -1.46581   2.48759
  31.19659  -1.46581   2.48759
  30.95659  -1.46581   2.72759
  30.71659  -1.46581   2.72759
  30.23659  -1.46581   2.72759
  29.99659  -1.46581   2.95759
  29.75659  -1.46581   2.72759
  29.27659  -1.46581   3.19759
  29.03659  -1.46581   3.19759
  28.55659  -1.46581   3.43759
  28.07659  -1.46581   3.43759
  27.59659  -1.46581   3.43759
  27.11659  -1.70581   3.19759
  26.87659  -1.70581   2.95759
  26.40659  -1.70581   2.72759
  25.92659  -1.70581   2.48759
  25.44659  -1.70581   2.48759
  24.96659  -1.70581   2.00759
  24.48659  -1.46581   1.76759
  24.00659  -1.46581   1.52759
  23.28659  -1.46581   1.04759
  22.80659  -1.46581   0.80759
  22.32659  -1.22581   0.32759
  21.84659  -1.22581   0.08759
  21.37659  -1.22581  -0.63241
  20.89659  -1.22581  -0.87241
  20.41659  -0.98581  -1.59241
  19.93659  -0.98581  -2.07241
  19.45659  -0.98581  -2.54241
  18.97659  -0.98581  -3.02241
  18.49659  -0.98581  -3.50241
  18.01659  -1.22581  -3.98241
  17.53659  -1.22581  -4.22241
  17.05659  -0.98581  -4.70241
  16.58659  -1.46581  -5.18241
  16.10659  -0.98581  -5.42241
  15.86659  -0.98581  -5.66241
  15.38659  -0.98581  -6.14241
  14.90659  -0.74581  -6.38241
  14.66659  -0.50581  -6.62241
  14.18659  -0.50581  -6.86241
  13.70659  -0.26581  -6.86241
  13.22659  -0.26581  -7.09241
  12.98659  -0.02581  -7.09241
  12.50659  -0.02581  -7.57241
  12.03659   0.21419  -7.09241
  11.79659   0.21419  -7.33241
  11.31659   0.21419  -7.33241
  10.83659   0.45419  -7.33241
  10.59659   0.45419  -7.33241
  10.11659   0.45419  -7.09241
   9.63659   0.69419  -7.09241
   9.15659   0.69419  -7.09241
   8.67659   0.93419  -7.09241
   8.19659   0.93419  -7.09241
   7.71659   1.17419  -7.09241
   7.00659   1.17419  -7.09241
   6.52659   1.41419  -7.09241
   6.04659   1.41419  -7.09241
   5.56659   1.41419  -7.09241
   4.84659   1.65419  -7.33241
   4.36659   1.65419  -7.33241
   3.64659   1.65419  -7.33241
   2.92659   1.89419  -7.33241
   2.21659   1.89419  -7.33241
   1.49659   2.13419  -7.57241
   0.77659   2.37419  -7.57241
   0.05659   2.37419  -7.57241
  -0.66341   2.61419  -7.81241
  -1.62341   2.85419  -7.81241
  -2.57341   2.85419  -7.81241
  -3.29341   3.09419  -8.05241
  -4.25341   3.32419  -8.05241
  -4.97341   3.32419  -8.29241
  -5.93341   3.32419  -8.29241
  -6.89341   3.32419  -8.53241
  -7.84341   3.32419  -8.53241
  -8.80341   3.32419  -8.53241
  -9.52341   3.32419  -8.53241
 -10.72341   3.32419  -8.77241
 -11.44341   3.32419  -8.77241
 -12.15341   3.32419  -8.77241
 -13.11341   3.32419  -8.77241
 -13.83341   3.32419  -8.53241
 -14.55341   3.32419  -8.53241
 -15.27341   3.32419  -8.29241
 -15.99341   3.56419  -8.05241
 -16.71341   3.56419  -8.05241
 -17.42341   3.56419  -7.81241
 -18.14341   3.56419  -7.33241
 -18.62341   3.56419  -7.09241
 -19.34341   3.56419  -6.86241
 -19.82341   3.56419  -6.38241
 -20.30341   3.56419  -5.90241
 -20.78341   3.56419  -5.66241
 -21.26341   3.56419  -5.18241
 -21.73341   3.80419  -4.70241
 -21.97341   3.80419  -4.46241
 -22.45341   3.80419  -3.98241
 -22.69341   3.80419  -3.74241
 -23.17341   3.80419  -3.26241
 -23.17341   3.80419  -3.02241
 -23.41341   3.80419  -2.78241
 -23.65341   3.80419  -2.30241
 -23.89341   4.04419  -2.07241
 -23.89341   4.04419  -1.83241
 -23.89341   4.04419  -1.59241
 -24.13341   4.28419  -1.35241
 -24.13341   4.28419  -1.35241
 -24.13341   4.52419  -1.11241
 -24.13341   4.52419  -0.87241
 -24.37341   4.76419  -0.87241
 -24.37341   4.76419  -0.63241
 -24.37341   5.00419  -0.39241
 -24.37341   5.24419  -0.39241
 -24.37341   5.24419  -0.39241
 -24.37341   5.24419  -0.15241
 -24.37341   5.48419  -0.15241
 -24.37341   5.72419  -0.15241
