********************************************************************************
              CENTRO DE INSTRUMENTACION Y REGISTRO SISMICO  A.C.

    Anaxagoras 814, Col. Narvarte, Benito Juarez, C.P. 03020 Mexico, D.F.
           Tels. 5687 45 42/ 5687 45  82             Fax. 5669 25 12
********************************************************************************
ARCHIVO ESTANDAR DE ACELERACION:
VERSION DEL FORMATO                    : 2.0
NOMBRE DEL ARCHIVO                     : AU1120121115092022
FECHA Y HORA DE CREACION               : 09/JUL/14, 11:35
REF. CATALOGO ACELEROGRAMAS, SMIS 1996 : REGISTRO No.     /PAG.


================================================================================
DATOS DE LA ESTACION:
NOMBRE DE LA ESTACION                  : AUTÓDROMO
CLAVE DE LA ESTACION                   : AU11
LOCALIZACION DE LA ESTACION            : Del. Iztacalco, Cd. Deportiva          
                                       : Magdalena Mixhuca,                     
                                       : Col. Granjas México                    
                                       :                                        
                                       : 
COORDENADAS DE LA ESTACION             : 19.3919 LAT. N
                                       : 99.0869 LONG. W
ALTITUD (msnm)                         : 2234
TIPO DE SUELO                          : Terreno blando, material compresible
                                       : (arcillas)                
                                       : 
INSTITUCION RESPONSABLE                : CIRES
                                       : 

================================================================================
DATOS DEL ACELEROGRAFO:
MODELO DEL ACELEROGRAFO                : RADESD
NUMERO DE SERIE DEL ACELEROGRAFO       : 157
NUMERO DE CANALES                      : 3
ORIENTACION C1-C6 (rumbo;orientacion)  : /S00E/+V/N90W
ORIENTACION C7-C12 (rumbo;orientacion) : 
VEL. DE MUESTREO, C1-C6 (muestras/s)   : /100/100/100
VEL. DE MUESTREO, C7-C12 (muestras/s)  : 
ESC. COMPLETA DE SENSORES, C1-C6, (g)  : /0.5/0.5/0.5
ESC. COMPLETA DE SENSORES, C7-C12, (g) : 
FREC. NAT. DE SENSORES, C1-C6, (Hz)    : /51.77/52.56/52.29
FREC. NAT. DE SENSORES, C7-C12, (Hz)   : 
AMORTIGUAMIENTO DE SENSORES, C1-C6     : /0.5912/0.6083/0.6067
AMORTIGUAMIENTO DE SENSORES, C7-C12    : 
INTERVALO DE MUESTREO, C1-C6, (s)      : /0.01/0.01/0.01
INTERVALO DE MUESTREO, C7-C12, (s)     : 
UMBRAL DE DISPARO, C1-C6, (Gal)        : /0.72/1.92/0.72
UMBRAL DE DISPARO, C7-C12, (Gal)       : 
MEMORIA DE PREEVENTO (s)               : 36.0
TIEMPO DE POSEVENTO (s)                : 64.0


================================================================================
DATOS DEL SISMO:
FECHA DEL SISMO (GMT)                  : 15/NOV/12
HORA EPICENTRO (GMT)                   : 09:20:22.0
MAGNITUD(ES)                           : /Mc=6.1
COORDENADAS DEL EPICENTRO              : 18.17 LAT. N
                                       : 100.52 LONG. W
PROFUNDIDAD FOCAL (km)                 : 40
FUENTE DE LOS DATOS EPICENTRALES       : SSN
                                       : INSTITUTO DE GEOFISICA, UNAM

================================================================================
DATOS DE ESTE REGISTRO:
HORA DE LA PRIMERA MUESTRA (GMT)       : 09:21:04.00
EXACTITUD DEL TIEMPO (s)               : 0.01
DURACION DEL REGISTRO (s), C1-C6       : /357.6/357.6/357.6
DURACION DEL REGISTRO (s), C7-C12      : 
NUM. TOTAL DE MUESTRAS, C1-C6          : /35760/35760/35760
NUM. TOTAL DE MUESTRAS, C7-C12         : 
ACEL. MAX. (Gal), C1-C6                : /4.54696/2.50768/6.57511
ACEL. MAX., C1-C6, EN LA MUESTRA       : /8115/4051/7301
ACEL. MAX. (Gal), C7-C12               : 
ACEL. MAX., C7-C12, EN LA MUESTRA      : 
UNIDADES DE LOS DATOS                  : Gal (cm/s/s)
FACTOR DE DECIMACION                   : 1
FORMATO DATOS (FORTRAN,10 campos/dato) : 3F10.5


================================================================================
CALIDAD DEL ACELEROGRAMA:
REGISTRO DIGITAL COMPLETO CON TIEMPO ABSOLUTO CORRECTO.


================================================================================
COMENTARIOS:














================================================================================
DATOS DE ACELERACION:
---------+---------+---------+---------+---------+---------+---------+---------+
   CANAL-1   CANAL-2   CANAL-3   CANAL-4   CANAL-5   CANAL-6   CANAL-7   CANAL-8
      S00E        +V      N90W
---------+---------+---------+---------+---------+---------+---------+---------+
[...]
   2.17177  -0.36786  -0.26040
   2.03710  -0.26311  -0.63450
   1.93235  -0.18830  -0.94874
   1.82760  -0.12844  -1.06845
   1.69293  -0.14340  -1.12830
   1.49840  -0.17333  -1.36772
   1.19913  -0.24815  -1.48743
   1.00460  -0.27808  -1.56225
   0.81007  -0.21822  -1.71189
   0.76518   0.00623  -1.71189
   0.61554   0.17083  -1.75678
   0.51079   0.29054  -1.75678
   0.51079   0.39529  -1.81664
   0.40605   0.42522  -1.81664
   0.39108   0.29054  -1.80167
   0.46590   0.02120  -1.72685
   0.55569  -0.08355  -1.65203
   0.66043  -0.09851  -1.60714
   0.75021  -0.11348  -1.60714
   0.78014  -0.08355  -1.68196
   0.81007  -0.00873  -1.63707
   0.89985   0.05112  -1.71189
   0.95971   0.02120  -1.74182
   1.09438   0.08105  -1.89145
   1.15424  -0.06859  -2.02613
   1.37869  -0.27808  -2.19073
   1.52833  -0.39779  -2.26555
   1.55826  -0.51750  -2.47504
   1.58818  -0.81677  -2.44511
   1.40862  -1.05619  -2.49001
   1.13927  -1.17590  -2.35533
   0.91482  -1.19087  -2.17577
   0.61554  -1.19087  -2.10095
   0.21152  -1.01130  -1.93635
  -0.07279  -0.77188  -1.86153
  -0.25236  -0.57735  -1.65203
  -0.44689  -0.44268  -1.36772
  -0.67134  -0.39779  -1.09838
  -0.83594  -0.32297  -0.93377
  -0.89580  -0.32297  -0.58961
  -1.00055  -0.35290  -0.09580
  -1.03047  -0.39779   0.08376
  -1.03047  -0.41275   0.54764
  -1.00055  -0.30801   0.80202
  -0.95565  -0.15837   0.84691
  -0.79105   0.03616   0.96662
  -0.52171   0.23069   0.98159
  -0.23739   0.26062   0.96662
  -0.14761   0.38033   0.89180
  -0.01294   0.30551   0.81699
   0.09181   0.39529   0.54764
   0.27137   0.39529   0.21844
   0.42101   0.51500  -0.06588
   0.55569   0.54493  -0.23048
   0.61554   0.64967  -0.60457
   0.75021   0.85917  -0.84399
   0.78014   0.99384  -1.02356
   0.85496   1.09859  -1.06845
   1.00460   1.20333  -1.38269
   1.18416   1.14348  -1.56225
   1.45351   1.20333  -1.78671
   1.73782   1.21830  -1.90642
   1.94731   1.29312  -1.95131
   2.23163   1.38290  -2.01116
   2.42616   1.39786  -1.99620
   2.60572   1.50261  -2.05606
   2.59076   1.51757  -2.07102
   2.42616   1.51757  -2.02613
   2.32141   1.51757  -2.07102
   2.11192   1.45772  -2.10095
   2.00717   1.42779  -2.07102
   1.87250   1.15844  -2.11591
   1.76775   0.88910  -2.20569
   1.69293   0.69457  -2.32540
   1.70789   0.60478  -2.25059
   1.52833   0.51500  -2.16080
   1.37869   0.26062  -2.05606
   1.24402   0.11098  -1.98124
   1.06445  -0.14340  -1.83160
   1.03453  -0.29304  -1.51736
   1.07942  -0.33793  -1.23305
   1.21409  -0.41275  -1.06845
   1.40862  -0.41275  -0.93377
   1.64804  -0.56239  -0.75421
   1.73782  -0.48757  -0.38012
   1.87250  -0.68210  -0.17062
   2.03710  -0.69706   0.14362
   2.23163  -0.71203   0.68231
   2.29148  -0.57735   0.92173
   2.23163  -0.51750   1.29583
   2.21666  -0.44268   1.66992
   2.03710  -0.38282   1.84949
   1.88746  -0.23319   1.95423
   1.72286  -0.17333   2.04401
   1.45351  -0.05362   1.99912
   1.18416   0.11098   2.04401
   0.88489   0.20076   1.99912
   0.70532   0.32047   1.90934
   0.43598   0.51500   1.92430
   0.16663   0.61975   1.87941
  -0.07279   0.73946   1.84949
  -0.16258   0.81428   1.74474
  -0.37207   0.91902   1.74474
  -0.49178   0.82924   1.49035
  -0.53667   0.70953   1.29583
  -0.41696   0.52996   1.05641
  -0.23739   0.44018   0.86188
  -0.08776   0.11098   0.81699
   0.24145  -0.09851   0.63742
   0.67540  -0.11348   0.35311
   0.92978  -0.00873   0.17354
   1.45351   0.21573   0.02391
   1.82760   0.42522  -0.11077
   2.20170   0.55989  -0.11077
   2.63565   0.61975  -0.11077
   2.83018   0.69457  -0.14069
   3.03967   0.64967  -0.27537
   3.24916   0.55989  -0.45493
   3.47362   0.52996  -0.35019
   3.60829   0.50004  -0.48486
   3.54844   0.48507  -0.48486
   3.47362   0.39529  -0.39508
   3.26413   0.39529  -0.18559
   2.96485   0.24565  -0.09580
   2.71047   0.27558   0.09873
   2.27652   0.27558   0.38304
   1.81264   0.05112   0.66735
   1.42358  -0.03866   0.84691
   0.86992  -0.20326   0.92173
   0.34619  -0.32297   1.16115
  -0.11768  -0.36786   1.58014
  -0.61149  -0.47261   1.81956
  -1.04544  -0.47261   2.10387
  -1.41953  -0.56239   2.58271
  -1.86844  -0.48757   2.85206
  -2.06297  -0.56239   3.12140
  -2.39218  -0.56239   3.52543
  -2.58670  -0.66714   3.69003
  -2.69145  -0.69706   3.83967
  -2.78123  -0.74195   3.98930
  -2.78123  -0.84670   4.15390
  -2.69145  -0.87663   4.31851
  -2.69145  -0.98137   4.43822
  -2.57174  -0.96641   4.48311
  -2.39218  -0.87663   4.49807
  -2.30239  -0.75692   4.42325
  -2.22757  -0.54743   4.21376
  -2.09290  -0.38282   4.07909
  -2.06297  -0.33793   3.82470
  -2.07794  -0.17333   3.76485
  -2.00312   0.02120   3.61521
  -1.89837   0.18580   3.30097
  -1.76370   0.08105   3.07651
  -1.59910   0.12594   2.86702
  -1.35968  -0.00873   2.76227
  -1.18011   0.05112   2.59767
  -1.06040   0.29054   2.37322
  -0.92573   0.51500   2.14876
  -0.70127   0.63471   2.05898
  -0.47681   0.81428   2.02905
  -0.35710   0.97888   2.02905
  -0.28229   1.03873   2.02905
  -0.23739   0.91902   2.01409
  -0.17754   0.75442   2.02905
  -0.19250   0.57486   2.14876
  -0.22243   0.45515   2.13380
  -0.34214   0.41025   2.17869
  -0.40200   0.18580   2.25351
  -0.50674   0.14091   2.40314
  -0.49178   0.12594   2.44804
  -0.71623   0.20076   2.49293
  -0.86587   0.38033   2.49293
  -1.01551   0.41025   2.38818
  -1.09033   0.51500   2.41811
  -1.22500   0.20076   2.19365
  -1.28486   0.18580   2.05898
  -1.28486   0.03616   2.02905
  -1.29982  -0.11348   2.02905
  -1.22500  -0.26311   1.93927
  -1.22500  -0.26311   1.95423
  -1.12026  -0.30801   1.96920
  -1.13522  -0.35290   1.98416
  -1.09033  -0.45764   2.02905
  -1.09033  -0.53246   2.01409
  -1.15018  -0.69706   2.04401
  -1.23997  -0.83174   2.23854
  -1.46442  -0.83174   2.34329
  -1.64399  -0.80181   2.55278
  -1.88341  -0.54743   2.70242
  -2.03305  -0.45764   2.73235
  -2.12283  -0.36786   2.73235
  -2.22757  -0.33793   2.70242
  -2.36225  -0.21822   2.73235
  -2.57174  -0.18830   2.64256
  -2.67649  -0.12844   2.55278
  -2.78123  -0.20326   2.41811
  -2.88598  -0.11348   2.44804
  -2.84109   0.02120   2.22358
  -2.82612   0.20076   2.07394
  -2.72138   0.50004   2.02905
  -2.48196   0.61975   1.92430
  -2.22757   0.85917   1.83452
  -2.04801   1.11355   1.84949
  -1.77866   1.38290   1.90934
  -1.52428   1.48765   1.93927
  -1.22500   1.47268   1.93927
  -1.04544   1.47268   2.10387
  -0.89580   1.27815   2.13380
  -0.73120   1.23326   2.14876
  -0.47681   0.97888   2.14876
  -0.28229   0.91902   2.16372
  -0.11768   0.85917   2.14876
  -0.05783   0.87413   2.08891
   0.06188   0.87413   2.07394
   0.13670   0.85917   1.99912
   0.09181   0.78435   1.90934
  -0.02790   0.76939   1.84949
  -0.10272   0.79931   1.86445
  -0.19250   0.72449   1.83452
  -0.44689   0.64967   1.81956
  -0.83594   0.63471   1.83452
  -1.09033   0.64967   1.87941
  -1.38960   0.63471   1.95423
  -1.74873   0.61975   2.16372
  -2.04801   0.51500   2.55278
  -2.28743   0.50004   2.73235
  -2.60167   0.14091   2.98673
  -2.90094  -0.08355   3.24111
  -3.05058  -0.35290   3.67506
  -3.12540  -0.48757   3.80974
  -3.39475  -0.69706   3.94441
  -3.48453  -0.90656   4.07909
  -3.37978  -1.08612   4.21376
  -3.31993  -1.10109   4.37836
  -3.17029  -0.98137   4.15390
  -3.02065  -0.81677   3.98930
  -2.85605  -0.68210   3.82470
  -2.45203  -0.47261   3.71996
  -2.12283  -0.39779   3.39075
  -1.88341  -0.29304   2.92688
  -1.47939  -0.23319   2.71738
  -1.16515  -0.18830   2.22358
  -0.85091  -0.17333   1.78963
  -0.61149  -0.18830   1.49035
  -0.19250  -0.15837   1.01151
  -0.07279  -0.02369   0.75713
   0.13670   0.02120   0.54764
   0.46590  -0.00873   0.32318
   0.69036  -0.03866   0.17354
   0.75021  -0.17333   0.17354
   0.84000  -0.30801   0.11369
   0.91482  -0.45764   0.06880
   1.00460  -0.54743  -0.00602
   1.03453  -0.86166  -0.09580
   1.16920  -0.86166  -0.14069
   1.37869  -0.90656  -0.24544
   1.69293  -1.08612  -0.35019
   1.72286  -1.10109  -0.64946
   1.81264  -1.04123  -0.79910
   1.85753  -0.99634  -0.99363
   1.96228  -1.01130  -1.06845
   2.03710  -0.78685  -1.41261
   2.08199  -0.89159  -1.77174
   2.18674  -0.74195  -1.86153
   2.17177  -0.65217  -1.95131
   2.20170  -0.77188  -1.96627
   2.08199  -0.63721  -1.98124
   1.90242  -0.63721  -1.90642
   1.82760  -0.60728  -1.83160
   1.64804  -0.75692  -1.77174
   1.54329  -0.75692  -1.51736
   1.25898  -0.92152  -1.23305
   1.16920  -1.01130  -1.06845
   1.07942  -0.95145  -0.93377
   0.92978  -1.01130  -0.88888
   0.86992  -0.80181  -0.73925
   0.81007  -0.63721  -0.66443
   0.75021  -0.44268  -0.52975
   0.63050  -0.32297  -0.55968
   0.34619  -0.11348  -0.46990
   0.15166   0.00623  -0.48486
   0.00203   0.24565  -0.46990
  -0.11768   0.38033  -0.52975
  -0.26732   0.26062  -0.43997
  -0.35710   0.26062  -0.43997
  -0.43192   0.36536  -0.35019
  -0.50674   0.27558  -0.29033
  -0.64142   0.30551  -0.23048
  -0.67134   0.29054  -0.23048
  -0.55163   0.30551  -0.12573
  -0.38703   0.27558  -0.09580
  -0.31221   0.27558  -0.11077
  -0.23739   0.29054  -0.12573
  -0.19250   0.17083  -0.11077
  -0.11768   0.11098  -0.20055
  -0.07279   0.20076  -0.35019
   0.13670   0.29054  -0.63450
   0.27137   0.29054  -0.85896
   0.51079   0.29054  -1.05348
   0.78014   0.36536  -1.11334
   0.89985   0.35040  -1.51736
   1.13927   0.38033  -1.77174
   1.40862   0.35040  -1.95131
   1.72286   0.32047  -2.02613
   1.82760   0.33544  -2.07102
   2.09695   0.33544  -2.10095
   2.51594   0.42522  -2.08598
   2.71047   0.45515  -2.07102
   2.94989   0.51500  -2.05606
   3.15938   0.41025  -2.05606
   3.32398   0.38033  -1.99620
   3.44369   0.27558  -1.96627
   3.53347   0.35040  -1.90642
   3.48858   0.39529  -1.75678
   3.23420   0.45515  -1.65203
   3.02471   0.41025  -1.56225
   2.75536   0.41025  -1.39765
   2.60572   0.38033  -1.29290
   2.17177   0.32047  -1.26298
   1.76775   0.26062  -1.27794
   1.51337   0.18580  -1.17319
   1.06445   0.21573  -1.12830
   0.76518   0.32047  -1.24801
   0.55569   0.54493  -1.09838
   0.24145   0.57486  -1.24801
   0.01699   0.64967  -1.45751
  -0.10272   0.70953  -1.66700
  -0.17754   0.79931  -1.89145
  -0.23739   0.84420  -2.07102
  -0.34214   0.82924  -2.28051
  -0.37207   0.81428  -2.72943
  -0.46185   0.70953  -2.93892
  -0.35710   0.67960  -3.07359
  -0.38703   0.58982  -3.55243
  -0.47681   0.51500  -3.89660
  -0.31221   0.52996  -4.28566
  -0.28229   0.54493  -4.76450
  -0.20747   0.50004  -4.97399
  -0.13265   0.45515  -5.48276
  -0.02790   0.39529  -5.70721
   0.06188   0.42522  -5.85685
   0.37612   0.48507  -5.85685
   0.54072   0.38033  -5.97656
   0.76518   0.36536  -6.21598
   0.79511   0.36536  -6.38058
   0.98963   0.24565  -6.51526
   1.06445   0.12594  -6.57511
   1.18416   0.00623  -6.56015
   1.22905  -0.05362  -6.53022
   1.34876  -0.18830  -6.39555
   1.25898  -0.30801  -6.21598
   1.27395  -0.39779  -6.06634
   1.18416  -0.41275  -5.94663
   1.21409  -0.41275  -5.84189
   1.09438  -0.39779  -5.84189
   1.09438  -0.42772  -5.81196
   1.00460  -0.45764  -5.78203
   0.94474  -0.54743  -5.81196
   0.95971  -0.69706  -5.73714
   0.88489  -0.92152  -5.73714
   0.81007  -1.02627  -5.67729
   0.75021  -1.13101  -5.67729
   0.67540  -1.14598  -5.58750
   0.54072  -1.28065  -5.37801
   0.49583  -1.29561  -5.10866
   0.33123  -1.34051  -4.95903
   0.19656  -1.34051  -4.76450
   0.09181  -1.29561  -4.42033
  -0.05783  -1.29561  -4.07616
  -0.16258  -1.28065  -3.88164
  -0.16258  -1.26569  -3.58236
  -0.32718  -1.29561  -3.31301
  -0.55163  -1.20583  -2.96885
  -0.83594  -1.14598  -2.84914
  -1.00055  -1.01130  -2.53490
  -1.15018  -0.83174  -2.20569
  -1.32975  -0.60728  -2.07102
  -1.67392  -0.44268  -2.01116
  -1.85348  -0.36786  -1.98124
  -2.03305  -0.33793  -1.98124
  -2.09290  -0.30801  -2.01116
  -2.19765  -0.30801  -2.04109
  -2.16772  -0.29304  -2.02613
  -2.19765  -0.18830  -2.02613
  -2.28743  -0.14340  -2.01116
  -2.37721  -0.05362  -1.99620
  -2.22757   0.02120  -1.90642
  -2.09290  -0.06859  -1.75678
  -2.06297  -0.06859  -1.54729
  -1.95823  -0.08355  -1.20312
  -1.83852  -0.06859  -1.06845
  -1.64399  -0.06859  -1.09838
  -1.23997   0.02120  -1.02356
  -1.10529   0.11098  -0.93377
  -0.83594   0.20076  -0.79910
  -0.43192   0.42522  -0.66443
  -0.17754   0.54493  -0.43997
   0.06188   0.51500  -0.14069
   0.37612   0.57486  -0.14069
   0.69036   0.64967  -0.18559
   0.86992   0.60478  -0.41004
   1.06445   0.63471  -0.64946
   1.58818   0.64967  -0.66443
   1.69293   0.60478  -0.73925
   1.87250   0.57486  -0.81406
   2.09695   0.55989  -0.84399
   2.32141   0.51500  -0.75421
   2.39623   0.36536  -0.76917
   2.57579   0.20076  -0.55968
   2.36630   0.02120  -0.51479
   2.30645  -0.02369  -0.27537
   2.09695  -0.03866  -0.09580
   1.90242  -0.09851   0.05383
   1.79768  -0.05362   0.23340
   1.64804  -0.02369   0.53267
   1.28891   0.00623   0.59253
   1.00460  -0.00873   0.63742
   0.84000   0.00623   0.62246
   0.63050  -0.00873   0.48778
   0.37612   0.08105   0.29325
   0.06188   0.03616   0.11369
  -0.08776   0.08105  -0.05091
  -0.19250   0.06609  -0.12573
  -0.31221   0.11098  -0.32026
  -0.34214   0.24565  -0.67939
  -0.43192   0.39529  -0.97867
  -0.37207   0.47011  -1.23305
  -0.31221   0.48507  -1.60714
  -0.23739   0.52996  -1.90642
  -0.14761   0.54493  -2.02613
  -0.01294   0.50004  -2.05606
   0.10677   0.42522  -2.16080
   0.30130   0.42522  -2.22066
   0.64547   0.47011  -2.40022
   0.78014   0.45515  -2.37030
   0.88489   0.38033  -2.31044
   1.07942   0.38033  -2.13088
   1.28891   0.33544  -1.95131
   1.54329   0.38033  -1.72685
   1.72286   0.39529  -1.24801
   1.76775   0.54493  -0.99363
   1.78271   0.55989  -0.78414
   1.81264   0.55989  -0.41004
   1.81264   0.60478  -0.15566
   1.75279   0.63471  -0.03595
   1.70789   0.61975   0.29325
   1.67797   0.57486   0.65238
   1.57322   0.51500   0.80202
   1.60315   0.41025   0.90677
   1.46847   0.47011   0.95166
   1.30387   0.36536   1.02648
   1.12431   0.42522   0.95166
   1.07942   0.33544   0.92173
   1.04949   0.38033   0.93670
   0.94474   0.24565   0.93670
   0.88489   0.06609   0.99655
   0.79511  -0.03866   1.08633
   0.55569  -0.03866   1.34072
   0.25641  -0.17333   1.66992
   0.01699  -0.11348   1.81956
  -0.13265  -0.18830   2.07394
  -0.40200  -0.15837   2.53782
  -0.64142  -0.15837   2.73235
  -0.94069  -0.17333   2.82213
  -1.03047  -0.12844   3.00169
  -1.19507  -0.05362   3.10644
  -1.49435   0.02120   3.28601
  -1.76370   0.17083   3.39075
  -2.00312   0.29054   3.51046
  -2.10786   0.35040   3.46557
  -2.34728   0.41025   3.40572
  -2.66152   0.48507   3.22615
  -2.76627   0.54493   3.01666
  -2.84109   0.61975   2.85206
  -2.81116   0.61975   2.74731
  -2.75131   0.67960   2.50789
  -2.61663   0.73946   2.19365
  -2.57174   0.75442   1.96920
  -2.30239   0.69457   1.84949
  -2.15276   0.60478   1.72978
  -1.98815   0.57486   1.68488
  -1.74873   0.55989   1.62503
  -1.55420   0.50004   1.58014
  -1.21004   0.35040   1.65496
  -1.07536   0.15587   1.77467
  -0.92573  -0.06859   1.68488
  -0.80602  -0.15837   1.61007
  -0.43192  -0.23319   1.61007
  -0.20747  -0.27808   1.44546
  -0.22243  -0.35290   1.29583
  -0.16258  -0.38282   1.17612
  -0.11768  -0.39779   1.11626
  -0.13265  -0.41275   1.02648
  -0.08776  -0.38282   1.08633
  -0.14761  -0.39779   1.10130
  -0.14761  -0.32297   1.20604
