********************************************************************************
               CENTRO DE INSTRUMENTACION Y REGISTRO SISMICO  A.C.  
                       Coordinacion de Servicios Tecnicos
     Anaxagoras 814, Col. Narvarte, Benito Juarez, C.P. 03020 Mexico, D.F.
            Tels. 667 45 42/ 687 45  82             Fax. 669 25 12
********************************************************************************
ARCHIVO ESTANDAR DE ACELERACION:
VERSION DEL FORMATO                    : 2.0
NOMBRE DEL ARCHIVO                     : AU110204.181
FECHA Y HORA DE CREACION               : 08/JUL/04, 08:45
REF. CATALOGO ACELEROGRAMAS, SMIS 1996 : REGISTRO No.     /PAG.


================================================================================
DATOS DE LA ESTACION:
NOMBRE DE LA ESTACION                  : AUTODROMO
CLAVE DE LA ESTACION                   : AU11
LOCALIZACION DE LA ESTACION            : AUTODROMO HERMANOS RODRIGUEZ,
                                       : CHURUBUSCO, CD. DEPORTIVA
                                       :
                                       :
                                       :
COORDENADAS DE LA ESTACION             : 19.392 LAT. N 
                                       : 99.087 LONG. W 
ALTITUD (msnm)                         : 2234
TIPO DE SUELO                          : TERRENO BLANDO, MATERIAL COMPRESIBLE
                                       : (ARCILLAS)
                                       : 
INSTITUCION RESPONSABLE                : CIRES 
                                       :

================================================================================
DATOS DEL ACELEROGRAFO:
MODELO DEL ACELEROGRAFO                : SSA-1
NUMERO DE SERIE DEL ACELEROGRAFO       : 157
NUMERO DE CANALES                      : 3
ORIENTACION C1-C6 (rumbo;orientacion)  : /N00E/+V/N90E
ORIENTACION C7-C12 (rumbo;orientacion) :
VEL. DE MUESTREO, C1-C6 (muestras/s)   : /200/200/200
VEL. DE MUESTREO, C7-C12 (muestras/s)  :
ESC. COMPLETA DE SENSORES, C1-C6, (g)  : /2/2/2
ESC. COMPLETA DE SENSORES, C7-C12, (g) :
FREC. NAT. DE SENSORES, C1-C6, (Hz)    : /51.77/52.56/52.29
FREC. NAT. DE SENSORES, C7-C12, (Hz)   :
AMORTIGUAMIENTO DE SENSORES, C1-C6     : /.5912/.6083/.6067
AMORTIGUAMIENTO DE SENSORES, C7-C12    :
INTERVALO DE MUESTREO, C1-C6, (s)      : /0.005/0.005/0.005
INTERVALO DE MUESTREO, C7-C12, (s)     :
UMBRAL DE DISPARO, C1-C6, (Gal)        : /2/2/2
UMBRAL DE DISPARO, C7-C12, (Gal)       :
MEMORIA DE PREEVENTO (s)               : 15
TIEMPO DE POSEVENTO (s)                : 60


================================================================================
DATOS DEL SISMO:
FECHA DEL SISMO (GMT)                  : 18/ABR/02
HORA EPICENTRO (GMT)                   : 05:02:45,2
MAGNITUD(ES)                           : /Mb=5.4/Ms=6.0/Mc=6.3/Ma=6.2/Me=6.5
COORDENADAS DEL EPICENTRO              : 16.77 LAT. N
                                       : 101.12 LONG. W
PROFUNDIDAD FOCAL (km)                 : 22
FUENTE DE LOS DATOS EPICENTRALES       : SSN
                                       : INSTITUTO DE GEOFISICA, UNAM 

================================================================================
DATOS DE ESTE REGISTRO:
HORA DE LA PRIMERA MUESTRA (GMT)       : 05:04:57.00
EXACTITUD DEL TIEMPO (s)               :     
DURACION DEL REGISTRO (s), C1-C6       : /268.80/268.80/268.80
DURACION DEL REGISTRO (s), C7-C12      :
NUM. TOTAL DE MUESTRAS, C1-C6          : /53760/53760/53760
NUM. TOTAL DE MUESTRAS, C7-C12         :
ACEL. MAX. (Gal), C1-C6                : /-3.48999/-0.81642/-5.24268
ACEL. MAX., C1-C6, EN LA MUESTRA       :
ACEL. MAX. (Gal), C7-C12               :
ACEL. MAX., C7-C12, EN LA MUESTRA      :
UNIDADES DE LOS DATOS                  : Gal (cm/s/s)
FACTOR DE DECIMACION                   : 1
FORMATO DATOS (FORTRAN,10 campos/dato) : 3F10.5


================================================================================
CALIDAD DEL ACELEROGRAMA:
REGISTRO DIGITAL COMPLETO, CARECE DE TIEMPO ABSOLUTO.


================================================================================
COMENTARIOS:














================================================================================
DATOS DE ACELERACION:
---------+---------+---------+---------+---------+---------+---------+---------+
   CANAL-1   CANAL-2   CANAL-3   CANAL-4   CANAL-5   CANAL-6   CANAL-7   CANAL-8
      N00E        +V      N90E
---------+---------+---------+---------+---------+---------+---------+---------+
[...]
  -0.12999   0.37358   3.62732
  -0.12999   0.61358   3.62732
  -0.12999   0.37358   3.62732
  -0.12999   0.37358   3.62732
  -0.12999   0.37358   3.62732
  -0.12999   0.37358   3.62732
  -0.12999   0.37358   3.62732
  -0.12999   0.37358   3.62732
  -0.12999   0.37358   3.62732
   0.10001   0.37358   3.62732
  -0.12999   0.37358   3.62732
  -0.12999   0.61358   3.62732
  -0.12999   0.37358   3.62732
  -0.12999   0.37358   3.62732
  -0.12999   0.37358   3.62732
  -0.12999   0.37358   3.38732
   0.10001   0.37358   3.62732
   0.10001   0.37358   3.62732
   0.10001   0.37358   3.62732
   0.10001   0.37358   3.38732
   0.10001   0.37358   3.62732
   0.10001   0.37358   3.38732
   0.10001   0.37358   3.62732
   0.10001   0.37358   3.62732
   0.10001   0.37358   3.38732
   0.10001   0.37358   3.62732
   0.10001   0.37358   3.62732
   0.10001   0.37358   3.62732
   0.10001   0.37358   3.14732
   0.10001   0.37358   3.62732
   0.10001   0.37358   3.38732
   0.10001   0.13358   3.38732
   0.10001   0.13358   3.62732
   0.10001   0.13358   3.38732
   0.34001   0.13358   3.38732
   0.34001   0.13358   3.38732
   0.34001   0.13358   3.62732
   0.34001   0.13358   3.38732
   0.34001   0.13358   3.62732
   0.34001   0.13358   3.38732
   0.34001   0.13358   3.62732
   0.34001   0.13358   3.62732
   0.34001   0.13358   3.38732
   0.34001   0.13358   3.62732
   0.34001   0.13358   3.38732
   0.34001   0.13358   3.62732
   0.34001   0.13358   3.62732
   0.34001   0.13358   3.62732
   0.34001   0.13358   3.62732
   0.34001   0.13358   3.62732
   0.34001   0.13358   3.62732
   0.34001   0.13358   3.62732
   0.34001   0.13358   3.62732
   0.34001   0.13358   3.62732
   0.34001   0.13358   3.38732
   0.34001  -0.09642   3.62732
   0.34001   0.13358   3.62732
   0.34001   0.13358   3.62732
   0.34001   0.13358   3.62732
   0.34001  -0.09642   3.62732
   0.34001  -0.09642   3.62732
   0.34001   0.13358   3.62732
   0.34001  -0.09642   3.38732
   0.34001   0.13358   3.62732
   0.34001  -0.09642   3.62732
   0.34001  -0.09642   3.62732
   0.34001  -0.09642   3.62732
   0.34001  -0.09642   3.62732
   0.34001  -0.09642   3.62732
   0.34001  -0.09642   3.62732
   0.34001  -0.09642   3.62732
   0.34001  -0.09642   3.62732
   0.34001  -0.09642   3.62732
   0.34001  -0.09642   3.62732
   0.34001  -0.09642   3.62732
   0.34001  -0.09642   3.62732
   0.34001  -0.09642   3.62732
   0.34001  -0.09642   3.62732
   0.34001  -0.09642   3.62732
   0.34001  -0.09642   3.62732
   0.34001  -0.09642   3.62732
   0.34001  -0.09642   3.62732
   0.34001  -0.09642   3.62732
   0.34001  -0.09642   3.62732
   0.34001  -0.09642   3.62732
   0.34001  -0.09642   3.62732
   0.34001  -0.09642   3.62732
   0.34001  -0.09642   3.62732
   0.34001  -0.09642   3.62732
   0.34001  -0.09642   3.62732
   0.10001  -0.09642   3.62732
   0.10001  -0.09642   3.38732
   0.34001  -0.09642   3.62732
   0.10001  -0.09642   3.62732
   0.34001  -0.09642   3.38732
   0.10001  -0.09642   3.38732
   0.10001  -0.09642   3.38732
   0.10001  -0.33642   3.38732
   0.10001  -0.09642   3.62732
   0.10001  -0.09642   3.38732
   0.10001  -0.09642   3.38732
   0.10001  -0.33642   3.38732
   0.10001  -0.09642   3.38732
   0.10001  -0.33642   3.38732
   0.10001  -0.09642   3.38732
   0.10001  -0.09642   3.38732
   0.10001  -0.09642   3.14732
   0.10001  -0.33642   3.14732
   0.10001  -0.33642   3.14732
   0.10001  -0.09642   3.14732
   0.10001  -0.09642   3.14732
   0.10001  -0.33642   3.14732
   0.10001  -0.09642   3.14732
   0.10001  -0.09642   3.14732
   0.10001  -0.09642   3.14732
  -0.12999  -0.09642   3.14732
   0.10001  -0.09642   3.14732
   0.10001  -0.09642   3.14732
   0.10001  -0.09642   3.14732
   0.10001  -0.09642   3.14732
   0.10001  -0.09642   2.90732
   0.10001  -0.09642   2.90732
   0.10001  -0.33642   2.90732
  -0.12999  -0.09642   2.90732
   0.10001  -0.09642   2.90732
   0.10001  -0.09642   2.90732
   0.10001  -0.09642   2.66732
   0.10001  -0.09642   2.66732
   0.10001  -0.09642   2.66732
  -0.12999  -0.09642   2.66732
  -0.12999  -0.09642   2.66732
   0.10001  -0.09642   2.66732
   0.10001  -0.09642   2.66732
  -0.12999  -0.09642   2.66732
  -0.12999  -0.09642   2.66732
  -0.12999  -0.09642   2.66732
  -0.12999  -0.09642   2.42732
  -0.12999  -0.09642   2.42732
  -0.12999  -0.09642   2.42732
  -0.12999  -0.09642   2.42732
  -0.12999  -0.09642   2.42732
  -0.12999  -0.09642   2.42732
  -0.12999  -0.09642   2.42732
  -0.12999  -0.09642   2.18732
  -0.12999  -0.09642   2.18732
  -0.12999  -0.09642   2.18732
  -0.12999  -0.09642   2.18732
  -0.12999  -0.09642   2.18732
  -0.12999  -0.09642   2.18732
  -0.12999  -0.09642   2.18732
  -0.12999  -0.09642   1.94732
  -0.12999  -0.09642   1.94732
  -0.12999  -0.09642   1.94732
  -0.12999  -0.09642   1.94732
  -0.12999  -0.09642   1.94732
  -0.12999  -0.09642   1.94732
  -0.12999  -0.09642   1.70732
  -0.12999  -0.09642   1.70732
  -0.12999   0.13358   1.70732
   0.10001   0.13358   1.70732
  -0.12999  -0.09642   1.70732
   0.10001  -0.09642   1.22732
   0.10001  -0.09642   1.70732
  -0.12999   0.13358   1.46732
   0.10001   0.13358   1.46732
   0.10001   0.13358   1.46732
   0.10001   0.13358   1.22732
   0.10001   0.13358   1.46732
   0.10001   0.13358   1.22732
  -0.12999  -0.09642   1.22732
   0.10001   0.13358   1.22732
   0.10001   0.13358   1.22732
   0.10001   0.13358   1.22732
   0.10001   0.13358   1.22732
   0.10001   0.13358   0.98732
   0.10001   0.13358   0.98732
   0.10001   0.13358   0.98732
   0.10001   0.13358   0.98732
   0.10001   0.13358   0.98732
   0.10001   0.13358   0.98732
   0.10001   0.13358   0.74732
   0.10001   0.13358   0.74732
   0.10001   0.13358   0.74732
   0.10001   0.13358   0.74732
   0.10001   0.13358   0.74732
   0.34001   0.13358   0.74732
   0.34001   0.13358   0.74732
   0.34001   0.13358   0.50732
   0.34001   0.13358   0.50732
   0.34001   0.13358   0.50732
   0.34001   0.13358   0.50732
   0.34001   0.13358   0.26732
   0.34001   0.13358   0.26732
   0.34001   0.13358   0.26732
   0.34001   0.13358   0.26732
   0.58001   0.13358   0.26732
   0.58001   0.13358   0.02732
   0.58001   0.37358   0.26732
   0.58001   0.13358   0.02732
   0.34001   0.13358   0.02732
   0.58001   0.13358   0.02732
   0.58001   0.13358   0.02732
   0.58001   0.37358   0.02732
   0.58001   0.13358  -0.21268
   0.58001   0.13358  -0.21268
   0.58001   0.37358  -0.21268
   0.58001   0.37358  -0.21268
   0.58001   0.37358  -0.21268
   0.58001   0.37358  -0.45268
   0.82001   0.37358  -0.21268
   0.82001   0.37358  -0.45268
   0.82001   0.37358  -0.45268
   0.82001   0.37358  -0.45268
   0.82001   0.37358  -0.45268
   1.06001   0.37358  -0.45268
   0.82001   0.37358  -0.69268
   0.82001   0.37358  -0.69268
   1.06001   0.37358  -0.69268
   1.06001   0.37358  -0.69268
   1.06001   0.37358  -0.69268
   1.06001   0.37358  -0.69268
   1.06001   0.37358  -0.92268
   1.06001   0.37358  -0.92268
   1.06001   0.37358  -0.92268
   1.06001   0.37358  -0.92268
   1.30001   0.37358  -0.92268
   1.30001   0.37358  -1.16268
   1.30001   0.37358  -1.16268
   1.30001   0.37358  -1.16268
   1.30001   0.37358  -1.16268
   1.30001   0.37358  -1.16268
   1.30001   0.37358  -1.16268
   1.30001   0.37358  -1.40268
   1.54001   0.37358  -1.40268
   1.54001   0.37358  -1.40268
   1.54001   0.37358  -1.40268
   1.54001   0.37358  -1.40268
   1.54001   0.37358  -1.40268
   1.54001   0.37358  -1.40268
   1.54001   0.37358  -1.64268
   1.54001   0.37358  -1.64268
   1.54001   0.37358  -1.64268
   1.78001   0.37358  -1.64268
   1.78001   0.37358  -1.88268
   1.78001   0.37358  -1.88268
   1.78001   0.37358  -1.88268
   1.78001   0.37358  -1.88268
   2.02001   0.37358  -1.88268
   1.78001   0.13358  -2.12268
   1.78001   0.37358  -2.12268
   2.02001   0.37358  -2.12268
   2.02001   0.37358  -2.12268
   2.02001   0.13358  -2.12268
   2.02001   0.37358  -2.36268
   2.02001   0.13358  -2.36268
   2.02001   0.13358  -2.36268
   2.02001   0.13358  -2.36268
   2.02001   0.13358  -2.36268
   2.26001   0.13358  -2.36268
   2.02001   0.13358  -2.60268
   2.26001   0.13358  -2.60268
   2.26001   0.13358  -2.60268
   2.26001   0.13358  -2.60268
   2.26001   0.13358  -2.60268
   2.26001   0.13358  -2.84268
   2.26001   0.13358  -2.84268
   2.26001   0.13358  -2.84268
   2.26001   0.13358  -3.08268
   2.50001   0.13358  -3.08268
   2.50001   0.13358  -3.08268
   2.50001   0.13358  -3.08268
   2.50001   0.13358  -3.08268
   2.50001   0.13358  -3.32268
   2.50001   0.13358  -3.08268
   2.50001   0.13358  -3.32268
   2.50001   0.13358  -3.32268
   2.50001   0.13358  -3.32268
   2.50001   0.13358  -3.32268
   2.50001   0.13358  -3.56268
   2.50001   0.13358  -3.56268
   2.50001   0.13358  -3.56268
   2.50001   0.13358  -3.56268
   2.74001   0.13358  -3.56268
   2.74001   0.13358  -3.56268
   2.74001   0.13358  -3.56268
   2.74001   0.13358  -3.56268
   2.74001   0.13358  -3.80268
   2.74001  -0.09642  -3.80268
   2.74001  -0.09642  -3.80268
   2.74001  -0.09642  -3.80268
   2.74001  -0.09642  -3.80268
   2.74001  -0.09642  -3.80268
   2.74001  -0.09642  -4.04268
   2.74001  -0.09642  -4.04268
   2.74001  -0.09642  -4.04268
   2.74001  -0.09642  -4.04268
   2.74001  -0.09642  -4.28268
   2.74001  -0.09642  -4.28268
   2.74001  -0.09642  -4.28268
   2.74001  -0.09642  -4.28268
   2.74001  -0.09642  -4.28268
   2.74001  -0.09642  -4.28268
   2.98001  -0.09642  -4.52268
   2.74001  -0.09642  -4.28268
   2.98001  -0.33642  -4.52268
   2.98001  -0.33642  -4.52268
   2.98001  -0.33642  -4.52268
   2.98001  -0.33642  -4.52268
   2.74001  -0.33642  -4.52268
   2.98001  -0.33642  -4.52268
   2.98001  -0.33642  -4.76268
   2.98001  -0.33642  -4.76268
   2.98001  -0.33642  -4.76268
   2.98001  -0.33642  -4.76268
   2.74001  -0.33642  -4.76268
   2.98001  -0.33642  -4.76268
   2.98001  -0.33642  -4.76268
   2.74001  -0.33642  -4.76268
   2.98001  -0.33642  -4.76268
   2.74001  -0.33642  -5.00268
   2.74001  -0.33642  -4.76268
   2.74001  -0.33642  -5.00268
   2.98001  -0.33642  -5.00268
   2.98001  -0.33642  -5.00268
   2.74001  -0.33642  -5.00268
   2.74001  -0.33642  -5.00268
   2.74001  -0.33642  -5.00268
   2.74001  -0.33642  -5.00268
   2.74001  -0.33642  -5.00268
   2.74001  -0.33642  -5.00268
   2.74001  -0.33642  -5.00268
   2.74001  -0.57642  -5.00268
   2.74001  -0.33642  -5.00268
   2.74001  -0.33642  -5.00268
   2.74001  -0.33642  -5.00268
   2.74001  -0.33642  -5.00268
   2.74001  -0.33642  -5.00268
   2.74001  -0.33642  -5.00268
   2.74001  -0.33642  -5.00268
   2.50001  -0.33642  -5.00268
   2.74001  -0.33642  -5.00268
   2.50001  -0.57642  -5.00268
   2.74001  -0.57642  -5.00268
   2.50001  -0.33642  -5.00268
   2.50001  -0.57642  -5.00268
   2.50001  -0.33642  -5.00268
   2.50001  -0.33642  -5.00268
   2.50001  -0.33642  -5.00268
   2.50001  -0.33642  -5.00268
   2.50001  -0.33642  -5.24268
   2.50001  -0.33642  -5.00268
   2.50001  -0.33642  -5.00268
   2.50001  -0.33642  -5.00268
   2.50001  -0.57642  -5.00268
   2.50001  -0.33642  -5.00268
   2.50001  -0.33642  -5.00268
   2.50001  -0.33642  -5.00268
   2.50001  -0.33642  -5.00268
   2.26001  -0.33642  -5.00268
   2.26001  -0.33642  -4.76268
   2.26001  -0.33642  -5.00268
   2.26001  -0.57642  -5.00268
   2.26001  -0.57642  -5.00268
   2.26001  -0.33642  -4.76268
   2.02001  -0.33642  -4.76268
   2.02001  -0.57642  -4.76268
   2.02001  -0.57642  -4.76268
   2.02001  -0.33642  -4.76268
   2.02001  -0.33642  -4.76268
   2.02001  -0.33642  -4.76268
   2.02001  -0.33642  -4.76268
   2.02001  -0.33642  -4.76268
   2.02001  -0.33642  -4.76268
   2.02001  -0.33642  -4.52268
   2.02001  -0.33642  -4.76268
   2.02001  -0.33642  -4.52268
   2.02001  -0.33642  -4.52268
   1.78001  -0.33642  -4.52268
   1.78001  -0.33642  -4.52268
   1.78001  -0.57642  -4.52268
   1.78001  -0.33642  -4.52268
   1.78001  -0.33642  -4.52268
   1.78001  -0.33642  -4.52268
   1.78001  -0.33642  -4.52268
   1.78001  -0.33642  -4.52268
   1.54001  -0.33642  -4.52268
   1.54001  -0.33642  -4.52268
   1.54001  -0.33642  -4.28268
   1.06001  -0.33642  -4.28268
   1.54001  -0.33642  -4.52268
   1.54001  -0.33642  -4.28268
   1.54001  -0.33642  -4.28268
   1.54001  -0.33642  -4.28268
   1.54001  -0.33642  -4.28268
   1.54001  -0.33642  -4.28268
   1.30001  -0.33642  -4.04268
   1.54001  -0.33642  -4.04268
   1.30001  -0.33642  -4.04268
   1.30001  -0.33642  -4.04268
   1.30001  -0.33642  -4.04268
   1.54001  -0.33642  -4.04268
   1.30001  -0.33642  -4.04268
   1.30001  -0.33642  -4.04268
   1.30001  -0.33642  -4.04268
   1.06001  -0.33642  -4.04268
   1.30001  -0.33642  -3.80268
   1.06001  -0.33642  -3.80268
   1.06001  -0.33642  -3.80268
   1.06001  -0.33642  -3.80268
   1.06001  -0.33642  -3.80268
   1.06001  -0.33642  -3.80268
   1.06001  -0.33642  -3.56268
   1.06001  -0.33642  -3.80268
   1.06001  -0.33642  -4.04268
   1.06001  -0.33642  -3.80268
   1.06001  -0.33642  -3.56268
   1.06001  -0.09642  -3.56268
   1.06001  -0.33642  -3.56268
   1.06001  -0.33642  -3.56268
   0.82001  -0.09642  -3.56268
   0.82001  -0.09642  -3.56268
   0.82001  -0.33642  -3.56268
   0.82001  -0.09642  -3.56268
   0.82001  -0.09642  -3.56268
   0.82001  -0.09642  -3.56268
   0.82001  -0.09642  -3.32268
   0.82001  -0.09642  -3.32268
   0.82001  -0.09642  -3.32268
   0.82001  -0.09642  -3.32268
   0.82001  -0.09642  -3.32268
   0.82001  -0.09642  -3.32268
   0.58001  -0.09642  -3.32268
   0.58001  -0.09642  -3.32268
   0.58001  -0.09642  -3.56268
   0.58001  -0.09642  -3.08268
   0.58001  -0.09642  -3.32268
   0.58001  -0.09642  -3.32268
   0.58001  -0.09642  -3.08268
   0.58001  -0.09642  -3.08268
   0.58001  -0.09642  -3.08268
   0.58001  -0.09642  -3.08268
   0.58001  -0.09642  -3.08268
   0.58001  -0.09642  -3.08268
   0.58001   0.13358  -3.08268
   0.34001  -0.09642  -3.08268
   0.58001  -0.09642  -3.08268
   0.58001  -0.09642  -3.08268
   0.34001  -0.09642  -3.08268
   0.34001  -0.09642  -3.08268
   0.58001   0.13358  -2.84268
   0.58001  -0.09642  -2.84268
   0.34001   0.13358  -2.84268
   0.34001   0.13358  -2.84268
   0.34001   0.13358  -2.84268
   0.34001  -0.09642  -2.84268
   0.34001   0.13358  -2.84268
   0.34001   0.13358  -2.84268
   0.34001   0.13358  -2.84268
   0.10001   0.13358  -2.84268
   0.34001   0.13358  -2.84268
   0.10001   0.13358  -2.60268
   0.34001   0.13358  -2.60268
   0.34001   0.13358  -2.84268
   0.34001   0.13358  -2.60268
   0.34001   0.13358  -2.60268
   0.10001   0.13358  -2.84268
   0.10001   0.13358  -2.60268
   0.10001   0.13358  -2.60268
   0.10001   0.13358  -2.60268
   0.10001   0.13358  -2.60268
   0.10001   0.13358  -2.60268
   0.10001  -0.33642  -2.60268
   0.10001   0.13358  -2.60268
   0.10001   0.13358  -2.60268
   0.10001  -0.33642  -2.60268
   0.10001   0.13358  -2.60268
   0.10001   0.13358  -2.60268
   0.10001   0.13358  -2.60268
   0.10001   0.13358  -2.60268
   0.10001   0.13358  -2.60268
   0.10001   0.13358  -2.60268
   0.10001   0.13358  -2.60268
   0.10001   0.13358  -2.60268
  -0.12999   0.13358  -2.60268
   0.10001   0.13358  -2.60268
  -0.12999   0.13358  -2.36268
   0.10001   0.13358  -2.36268
  -0.12999   0.13358  -2.36268
  -0.12999   0.13358  -2.36268
  -0.12999   0.13358  -2.36268
  -0.12999   0.13358  -2.36268
  -0.12999   0.13358  -2.36268
  -0.12999   0.13358  -2.36268
  -0.12999   0.13358  -2.36268
  -0.12999   0.13358  -2.12268
  -0.36999   0.13358  -2.36268
  -0.12999   0.13358  -2.36268
  -0.12999   0.13358  -2.36268
  -0.12999   0.13358  -2.36268
