********************************************************************************
              CENTRO DE INSTRUMENTACION Y REGISTRO SISMICO  A.C.

    Anaxagoras 814, Col. Narvarte, Benito Juarez, C.P. 03020 Mexico, D.F.
           Tels. 5687 45 42/ 5687 45  82             Fax. 5669 25 12
********************************************************************************
ARCHIVO ESTANDAR DE ACELERACION:
VERSION DEL FORMATO                    : 2.0
NOMBRE DEL ARCHIVO                     : AU1120170919181440
FECHA Y HORA DE CREACION               : 25/SEP/17, 11:23
REF. CATALOGO ACELEROGRAMAS, SMIS 1996 : REGISTRO No.     /PAG.


================================================================================
DATOS DE LA ESTACION:
NOMBRE DE LA ESTACION                  : AUTÓDROMO
CLAVE DE LA ESTACION                   : AU11
LOCALIZACION DE LA ESTACION            : Del. Iztacalco, Cd. Deportiva          
                                       : Magdalena Mixhuca,                     
                                       : Col. Granjas México                    
                                       :                                        
                                       : 
COORDENADAS DE LA ESTACION             : 19.3919 LAT. N
                                       : 99.0869 LONG. W
ALTITUD (msnm)                         : 2234
TIPO DE SUELO                          : Terreno blando, material compresible
                                       : (arcillas)                
                                       : 
INSTITUCION RESPONSABLE                : CIRES
                                       : 

================================================================================
DATOS DEL ACELEROGRAFO:
MODELO DEL ACELEROGRAFO                : RADESD
NUMERO DE SERIE DEL ACELEROGRAFO       : 157
NUMERO DE CANALES                      : 3
ORIENTACION C1-C6 (rumbo;orientacion)  : /S00E/+V/N90W
ORIENTACION C7-C12 (rumbo;orientacion) : 
VEL. DE MUESTREO, C1-C6 (muestras/s)   : /100/100/100
VEL. DE MUESTREO, C7-C12 (muestras/s)  : 
ESC. COMPLETA DE SENSORES, C1-C6, (g)  : /0.5/0.5/0.5
ESC. COMPLETA DE SENSORES, C7-C12, (g) : 
FREC. NAT. DE SENSORES, C1-C6, (Hz)    : /51.77/52.56/52.29
FREC. NAT. DE SENSORES, C7-C12, (Hz)   : 
AMORTIGUAMIENTO DE SENSORES, C1-C6     : /0.5912/0.6083/0.6067
AMORTIGUAMIENTO DE SENSORES, C7-C12    : 
INTERVALO DE MUESTREO, C1-C6, (s)      : /0.01/0.01/0.01
INTERVALO DE MUESTREO, C7-C12, (s)     : 
UMBRAL DE DISPARO, C1-C6, (Gal)        : /0.72/1.92/0.72
UMBRAL DE DISPARO, C7-C12, (Gal)       : 
MEMORIA DE PREEVENTO (s)               : 44.0
TIEMPO DE POSEVENTO (s)                : 0.0


================================================================================
DATOS DEL SISMO:
FECHA DEL SISMO (GMT)                  : 19/SEP/17
HORA EPICENTRO (GMT)                   : 18:14:40.0
MAGNITUD(ES)                           : /Mc=7.1
COORDENADAS DEL EPICENTRO              : 18.40 LAT. N
                                       : 98.72 LONG. W
PROFUNDIDAD FOCAL (km)                 : 57
FUENTE DE LOS DATOS EPICENTRALES       : SSN
                                       : INSTITUTO DE GEOFISICA, UNAM

================================================================================
DATOS DE ESTE REGISTRO:
HORA DE LA PRIMERA MUESTRA (GMT)       : 18:14:58.00
EXACTITUD DEL TIEMPO (s)               : 0.01
DURACION DEL REGISTRO (s), C1-C6       : /597.8/597.8/597.8
DURACION DEL REGISTRO (s), C7-C12      : 
NUM. TOTAL DE MUESTRAS, C1-C6          : /59780/59780/59780
NUM. TOTAL DE MUESTRAS, C7-C12         : 
ACEL. MAX. (Gal), C1-C6                : /72.1055/35.16766/90.45442
ACEL. MAX., C1-C6, EN LA MUESTRA       : /7829/5294/6775
ACEL. MAX. (Gal), C7-C12               : 
ACEL. MAX., C7-C12, EN LA MUESTRA      : 
UNIDADES DE LOS DATOS                  : Gal (cm/s/s)
FACTOR DE DECIMACION                   : 1
FORMATO DATOS (FORTRAN,10 campos/dato) : 3F10.5


================================================================================
CALIDAD DEL ACELEROGRAMA:
REGISTRO DIGITAL COMPLETO CON TIEMPO ABSOLUTO CORRECTO.


================================================================================
COMENTARIOS:














================================================================================
DATOS DE ACELERACION:
---------+---------+---------+---------+---------+---------+---------+---------+
   CANAL-1   CANAL-2   CANAL-3   CANAL-4   CANAL-5   CANAL-6   CANAL-7   CANAL-8
      S00E        +V      N90W
---------+---------+---------+---------+---------+---------+---------+---------+
[...]
 -22.07640   4.50691  25.69428
 -25.26368   2.47184  24.73660
 -27.89731  -0.70048  23.21030
 -30.11194  -4.47134  21.78874
 -32.25176  -8.37688  20.38215
 -34.37661 -11.39956  19.31972
 -36.65111 -12.37221  18.49672
 -38.71611 -10.42692  17.86824
 -40.39205  -5.69837  17.20983
 -41.15520  -0.07200  16.56639
 -40.85592   4.32735  15.65360
 -39.40444   6.06314  14.44154
 -37.66864   6.24271  12.76560
 -35.81314   6.03322  10.64074
 -34.66093   6.34746   8.57574
 -34.40654   6.34746   6.79506
 -34.96020   5.92847   5.82241
 -36.35183   5.35985   5.65781
 -38.05770   5.21021   6.15161
 -39.55408   5.27006   6.98958
 -40.78110   4.49195   8.08194
 -41.54426   3.17514   8.56078
 -42.00813   2.59155   8.41114
 -42.14281   3.16017   7.01951
 -41.76871   4.29742   4.71509
 -41.14023   4.89597   1.58767
 -40.66139   4.73137  -1.73429
 -40.46687   4.58173  -4.99639
 -40.36212   5.21021  -8.06396
 -40.19752   7.15550 -10.78736
 -39.82342  10.04350 -12.83740
 -39.34458  13.58992 -14.49838
 -38.43179  17.21115 -16.03964
 -37.08506  19.26118 -17.65573
 -34.84049  18.76738 -19.30174
 -31.69810  14.78702 -21.09739
 -27.89731   8.51720 -22.86312
 -23.24358   1.06525 -24.34453
 -18.50006  -5.92283 -24.94308
 -13.09815 -11.96819 -24.50913
  -7.98054 -16.51717 -22.92297
  -3.37170 -19.58474 -20.39410
   0.45902 -21.29061 -17.37142
   3.34703 -21.76945 -14.21406
   5.53173 -21.53003 -11.31109
   6.72884 -20.66213  -9.05157
   6.98322 -19.22561  -7.77965
   6.41460 -17.87887  -7.71979
   5.14268 -17.25039  -9.03660
   3.31710 -17.29529 -11.34102
   1.04261 -17.29529 -14.24399
  -1.62094 -16.59199 -17.16193
  -4.37428 -14.73648 -19.51124
  -7.17250 -12.34228 -21.03754
  -9.40210 -10.21743 -21.27696
 -10.34482  -8.85572 -20.40906
  -9.47692  -8.52652 -19.15211
  -6.67869  -8.78091 -17.67069
  -2.29431  -8.96047 -16.44366
   3.72112  -8.78091 -14.99218
  10.87380  -8.60134 -13.36113
  18.37064  -8.25717 -11.23628
  25.86748  -8.37688  -7.91432
  32.22708  -7.79330  -4.14345
  37.76367  -7.32942  -0.38755
  41.96849  -6.14728   2.76980
  44.40758  -4.29178   4.25122
  45.58972  -1.82276   3.77238
  45.69447   1.25978   0.85444
  45.00613   4.19267  -4.14345
  43.79407   5.73394 -10.44320
  42.16302   4.65655 -17.07214
  40.39730   0.94554 -23.37189
  38.61661  -4.26185 -28.53438
  37.19505  -8.84076 -32.90380
  36.31219 -12.26746 -35.11844
  35.89320 -13.65909 -35.79181
  36.46183 -13.79377 -34.72938
  37.68886 -13.24011 -32.05087
  39.45458 -11.84848 -28.28000
  41.62432  -9.39442 -23.20728
  43.46487  -6.31189 -17.17689
  45.20066  -3.93265 -10.21874
  46.77186  -3.18446  -2.58722
  48.26823  -4.15710   5.41839
  49.58504  -5.69837  12.90027
  50.46791  -7.03015  19.75367
  50.91682  -8.57141  25.35012
  50.73725 -10.18750  29.68961
  49.83943 -11.35467  32.74222
  48.38794 -11.02547  34.61269
  45.96381  -8.91558  35.28605
  42.89624  -5.83305  35.07656
  39.36480  -2.78044  33.93932
  35.95306  -0.14682  32.20352
  32.99023   1.69373  30.57247
  31.13473   2.84594  28.68704
  30.46136   2.53170  27.47497
  31.14969   0.16742  27.05599
  32.69096  -2.90015  27.46001
  34.93552  -4.08229  28.71696
  37.34469  -1.43370  30.60240
  39.21516   4.85108  33.10135
  40.65168  12.58734  35.64519
  41.83382  19.51556  37.56055
  43.10574  23.84009  39.67044
  44.34773  24.45361  40.83761
  45.39519  20.86230  40.97228
  46.14338  13.33553  39.73029
  46.17331   3.07039  37.72515
  45.48497  -7.13489  34.38823
  44.03349 -14.61677  30.82685
  41.83382 -17.37010  27.40015
  39.28998 -15.36496  24.33258
  36.61146  -9.64880  21.77378
  34.26215  -1.61326  19.70878
  32.16723   7.27521  17.85327
  30.59603  15.75966  16.19230
  29.15951  22.38861  14.65103
  27.54343  25.53100  13.66342
  25.43354  25.33647  13.28933
  22.84481  22.65795  14.29190
  19.56774  18.31846  16.59632
  15.66220  13.33553  20.62157
  11.32271   8.93619  25.75414
   6.56423   6.33249  31.73964
   1.76087   5.41970  37.94960
  -2.80308   6.01825  43.45627
  -7.11264   7.02082  47.85561
 -10.79373   7.69419  50.66880
 -14.08576   7.20039  51.58159
 -16.97376   5.55438  51.20750
 -19.48767   2.92075  49.39688
 -21.71727  -0.04207  47.00268
 -23.99176  -2.78044  44.47380
 -26.59546  -4.86040  41.95989
 -29.61814  -6.01261  39.82007
 -33.04484  -5.69837  37.91968
 -36.44161  -3.51366  36.40834
 -39.23984   0.76597  35.70504
 -41.24498   6.81133  35.85468
 -42.09792  13.26071  36.97696
 -41.75375  18.03415  39.11678
 -40.01795  18.88709  42.48362
 -37.53397  14.32314  46.47895
 -34.49632   5.24014  50.90822
 -31.63825  -5.44399  55.24771
 -29.25901 -14.06311  59.24304
 -27.65789 -17.80405  62.98398
 -26.68524 -15.64927  66.32089
 -26.20640  -8.39185  69.38846
 -25.66771   1.43934  71.97720
 -25.18887  10.04350  73.92248
 -24.76988  15.29578  74.99987
 -24.41075  16.38814  74.74549
 -24.62024  14.66731  72.97977
 -25.32354  11.76434  69.52314
 -26.62539   7.85880  64.76466
 -28.39111   3.02550  59.19814
 -30.60575  -2.27167  53.28746
 -33.29922  -7.10496  47.63116
 -36.15730 -10.17254  42.34895
 -39.26976 -11.44446  37.36602
 -42.12784 -11.27985  32.87689
 -44.34248  -9.58895  28.47754
 -45.71915  -6.13232  23.64425
 -46.09324  -1.46363  18.76606
 -45.59943   2.86090  14.44154
 -44.41730   5.13539  10.35643
 -42.53186   4.29742   7.27390
 -40.19752   1.63387   5.10415
 -37.63871  -1.25413   3.78734
 -35.31933  -2.52605   2.57527
 -33.05980  -1.76290   0.24093
 -31.00977  -0.19171  -3.60476
 -28.82506   1.36452  -8.94682
 -26.40093   2.38206 -15.81519
 -23.52789   1.39445 -23.56641
 -20.44535  -2.03225 -31.25779
 -17.16829  -7.26957 -38.09623
 -13.42735 -12.76127 -43.34851
  -9.32728 -17.17558 -46.49090
  -4.49399 -20.67710 -47.43361
   1.13239 -23.10122 -47.22412
   7.62666 -23.89430 -46.19162
  14.62970 -21.61981 -45.32372
  21.82727 -15.99344 -44.84488
  28.84527  -7.68855 -44.84488
  35.38444   0.85576 -45.02445
  41.41483   7.72412 -44.97956
  46.86164  11.42017 -44.15655
  51.75479  11.46506 -42.27112
  55.85486   7.18543 -39.14369
  59.20674  -1.17932 -35.41771
  61.79547 -11.56417 -31.37750
  63.26192 -20.46760 -28.02562
  63.62105 -25.16622 -25.94565
  62.34913 -24.58264 -25.48178
  59.61076 -19.89898 -26.34967
  55.37602 -13.25507 -28.29496
  50.19856  -6.61116 -30.65924
  44.42255  -0.74537 -32.91876
  38.30237   4.08793 -34.62463
  32.24205   6.88615 -35.55239
  27.13940   6.85622 -35.25311
  23.29372   4.71641 -33.87645
  21.04915   3.10032 -31.57203
  20.33089   3.32478 -28.77380
  20.40571   5.53941 -25.96062
  20.69002   8.51720 -22.75837
  20.92944  11.53988 -19.07729
  20.27104  13.79941 -14.73780
  18.84948  13.81437  -9.94939
  16.33557   9.87890  -4.95150
  13.16325   2.45688  -0.25288
   9.52706  -5.30931   3.84719
   5.92079  -9.93312   7.21404
   2.88315 -10.33714   9.65313
   0.89297  -7.76337  10.86520
  -0.06471  -4.21696  10.88016
  -0.31910  -0.98479   9.80277
  -0.46873   0.87072   8.11187
  -1.03736   1.61891   6.04687
  -2.09978   1.45431   4.17640
  -3.67098   0.30210   3.23368
  -5.03268   0.06268   3.38332
  -5.82576   1.36452   5.07422
  -5.06261   3.93829   7.96223
  -2.96768   6.48213  12.01741
   0.56377   8.08325  16.46164
   4.34960   8.26282  21.35479
   7.98579   7.18543  25.75414
  10.54459   5.71898  29.79435
  11.84644   4.61166  32.84696
  11.83148   4.05800  35.00174
  10.84387   3.42952  36.34848
   9.06318   1.88826  37.54558
   6.99818  -1.50852  38.87736
   5.00800  -7.25460  40.61315
   3.34703 -14.16786  42.54348
   1.73094 -20.84170  44.45884
   0.98275 -26.39325  45.76069
   1.13239 -29.46082  45.56616
   2.40431 -29.86484  43.84533
   4.34960 -27.59035  40.73286
   6.29489 -23.37057  36.90214
   7.46206 -18.29786  32.56265
   7.80623 -14.12297  28.86660
   7.11789 -11.56417  26.27787
   5.72626 -10.66634  24.93113
   3.99047 -10.21743  24.61689
   2.14992  -9.43931  24.76653
   0.71340  -7.88308  24.52711
  -0.01982  -5.06989  23.83878
  -0.46873  -0.40120  22.31247
  -0.85779   5.37481  20.90588
  -2.03993  11.46506  19.51425
  -4.28449  16.16368  18.70621
  -7.78601  18.24365  18.75110
 -12.15543  17.33086  19.37958
 -16.64456  13.39539  20.26244
 -20.65485   7.97851  21.39969
 -23.60271   3.11528  22.43218
 -24.96441   0.31706  23.35994
 -24.59032   0.03275  24.19791
 -22.30086   1.91818  24.81142
 -18.87416   5.19525  25.39501
 -15.34271   8.84640  25.60450
 -12.49960  11.97383  24.72164
 -10.98826  13.91912  22.97088
 -11.19775  14.36803  20.23251
 -12.45471  13.45524  16.73099
 -13.86130  12.25814  12.72070
 -14.78905  11.28550   8.47100
 -14.90876  10.08840   4.22129
 -13.57699   6.97593   0.13618
 -11.34739   1.55905  -3.85914
  -8.38456  -5.14471  -7.89936
  -5.55641 -11.05540 -12.14907
  -3.16221 -14.66166 -16.74294
  -1.69576 -15.54453 -21.36674
  -0.82786 -14.30253 -25.39199
  -0.28917 -11.89337 -28.29496
  -0.07968  -8.13746 -30.03076
  -0.42384  -3.27424 -30.52456
  -1.53116   1.72365 -29.92601
  -3.17717   5.37481 -28.47453
  -5.27210   6.91608 -26.52924
  -7.26228   6.78140 -24.86826
  -8.90829   5.95840 -24.03029
 -10.25503   5.50949 -24.70366
 -11.67659   6.12300 -26.91830
 -13.14304   8.41245 -30.59938
 -15.14818  12.72202 -34.96880
 -17.37778  17.30093 -39.75720
 -19.87673  20.14404 -44.35108
 -22.51035  19.53053 -48.46611
 -24.84470  15.19104 -52.37165
 -26.07173   7.99347 -55.76843
 -25.99691   0.06268 -58.79111
 -24.29104  -6.41663 -61.05063
 -21.19354  -9.39442 -63.01089
 -17.21318  -8.36192 -63.90871
 -13.02333  -3.75308 -63.47476
  -9.25246   3.30981 -61.24516
  -6.75351  11.70448 -56.74107
  -5.64619  19.81484 -50.35155
  -6.22978  25.94998 -42.22622
  -7.86083  28.31426 -33.27790
 -10.12036  25.60582 -23.88065
 -12.40981  19.05169 -15.06700
 -14.42992  10.16321  -7.71979
 -15.92630   1.11014  -2.69197
 -17.46757  -5.95276  -0.07331
 -19.21833  -9.88822   0.37560
 -21.55267 -10.21743  -0.40251
 -24.11148  -7.29949  -1.85400
 -27.08926  -2.66073  -3.45512
 -29.82763   2.21746  -5.29566
 -32.13205   6.46717  -8.34827
 -33.38901   9.92379 -12.53812
 -33.56857  12.19829 -17.86522
 -32.44629  13.29064 -24.37446
 -30.54589  13.21582 -31.96108
 -28.45097  12.00376 -39.59260
 -26.61042   9.78912 -46.86499
 -25.00930   7.03579 -52.88042
 -23.78227   3.66894 -57.44437
 -22.88445   0.07764 -60.51194
 -22.34575  -3.00489 -62.02328
 -22.04648  -5.51881 -62.35248
 -21.83698  -7.14986 -61.87364
 -21.70231  -8.28710 -60.82618
 -21.49282  -9.00536 -59.64404
 -21.04390  -9.02033 -58.95571
 -20.04133  -8.73601 -58.79111
 -18.15590  -8.54149 -59.68893
 -14.80402  -9.16996 -61.57437
 -10.52438 -10.48677 -64.47734
  -5.84072 -11.80359 -68.20331
  -1.26181 -13.46456 -72.67748
   2.97293 -15.33503 -77.39106
   6.71387 -16.72666 -81.96997
   9.79641 -16.33761 -85.84559
  12.29535 -14.46713 -88.65877
  14.71948 -12.89594 -90.09529
  17.11368 -12.64156 -90.45442
  19.73234 -14.00326 -89.63142
  22.53057 -15.03576 -88.10511
  25.28390 -14.63174 -86.14486
  27.52846 -12.49192 -83.88533
  29.27922  -9.39442 -81.26667
  30.23690  -5.59363 -78.04947
  30.19201  -1.73297 -73.79976
  29.15951   0.94554 -68.14346
  26.98977   1.48423 -61.17034
  23.78752   0.55648 -53.29941
  19.80716  -0.77529 -45.27883
  15.85673  -2.19685 -37.78199
  12.45996  -3.85783 -31.61692
  10.09568  -6.19218 -27.39714
   8.97340  -8.12250 -25.27228
   8.94347  -8.79587 -25.06279
   9.52706  -8.12250 -26.34967
  10.26028  -7.10496 -28.28000
  10.94862  -6.10239 -30.50960
  11.20300  -5.74326 -32.69431
  10.79898  -5.80312 -34.83413
   9.73655  -6.34181 -37.13855
   8.79383  -7.29949 -39.14369
   7.94090  -7.59877 -40.90941
   7.26753  -6.43160 -42.27112
   6.72884  -3.69323 -42.95945
   6.89344  -0.76033 -42.64521
   7.31242   1.39445 -41.64264
   8.47960   1.24481 -39.71231
   9.57195  -0.98479 -37.33307
  10.11064  -4.53120 -34.69945
   9.88619  -7.86812 -31.84137
   8.80880 -10.06779 -29.13293
   6.98322 -10.84590 -26.79859
   4.78355  -9.82837 -24.52410
   2.85322  -8.00279 -22.39924
   1.74590  -6.32685 -20.25942
   1.65612  -5.71334 -18.17946
   2.89811  -6.40167 -16.42870
   5.27735  -7.23964 -14.76772
   8.86865  -7.35935 -13.55566
  12.83405  -6.29692 -12.56805
  16.66477  -4.71076 -11.02678
  19.82213  -3.04979  -9.06653
  21.97691  -1.83772  -6.34313
  22.44078  -0.74537  -2.97628
  21.21376   0.28713   0.86941
  18.17611   1.00539   5.02933
  13.71691   1.37949   9.20422
   8.37485   1.49920  13.27436
   2.55395   2.03789  17.00034
  -3.19214   3.20507  20.59164
  -8.77362   4.80619  24.64682
 -14.29525   6.09307  29.01624
 -19.86177   7.18543  33.44551
 -25.47318   8.27778  38.20399
 -31.29408   9.53474  42.45370
 -36.92045  10.32782  46.23953
 -42.36726  10.14825  49.05271
 -46.72172   8.48727  50.83340
 -49.77432   5.97336  51.32721
 -51.42034   3.44449  50.80347
 -51.56998   1.49920  49.65126
 -51.19588   0.34699  48.34942
 -50.34295  -0.01214  47.19721
 -49.66958   0.73605  46.50888
 -49.41519   3.01054  46.00011
 -49.60972   6.79637  45.17710
 -50.14842  11.24061  43.87525
 -50.47762  14.90673  41.63069
 -50.25316  17.70495  38.50326
 -49.49001  19.47067  34.94189
 -48.12831  20.42835  30.78196
 -46.03338  20.48821  26.98117
 -43.45962  19.75498  23.98842
 -40.39205  18.64767  22.04313
 -36.74089  17.55531  21.32487
 -32.14701  16.17865  21.57925
 -27.02941  14.45781  22.83621
 -20.83441  11.77930  24.52711
 -13.78648   8.47231  26.02349
  -6.57395   5.79380  26.99613
   0.74333   4.35728  27.10088
   7.62666   4.53684  26.39758
  13.20814   5.46459  24.97602
  17.24836   5.77883  22.85117
  19.44803   5.68905  20.33726
  19.76227   5.76387  17.55400
  18.29582   6.87119  14.54628
  15.24321   9.04093  11.26922
  11.35264  11.04608   8.00712
   6.81862  11.79426   4.95451
   1.98532  10.35774   2.68002
  -2.42899   7.21535   0.86941
  -6.55898   3.81858  -0.22295
  -9.83605   0.24224  -0.50726
 -12.21529  -2.64576  -0.10324
 -13.59195  -4.38156   0.83948
 -13.81641  -4.09725   1.96176
 -13.03829  -1.76290   3.62274
 -11.42221   1.72365   5.14904
  -9.37217   4.64159   6.33118
  -7.02286   4.73137   7.19908
  -4.55384   1.08021   7.54324
  -2.42899  -5.68341   6.86987
  -0.85779 -13.29996   5.34357
   0.09989 -19.95884   3.32346
  -0.00486 -23.84941   1.15372
  -1.15707 -23.78956  -0.32769
  -2.77315 -19.59970  -0.77661
  -4.55384 -12.70141   0.30078
  -6.28964  -5.24946   2.47053
  -7.92069   0.06268   5.14904
  -9.22253   1.55905   8.23158
 -10.59920  -0.58077  10.52103
 -11.75141  -4.71076  12.31668
 -12.91858  -8.93054  13.28933
 -13.99597 -11.57913  13.78313
 -14.78905 -11.62402  14.30686
 -14.90876  -9.11011  15.71346
 -14.29525  -5.11478  17.89817
 -12.72405  -1.31399  21.20516
 -10.32985   1.22985  25.02092
  -7.39695   2.06782  28.73193
  -4.47902   1.15503  31.59001
  -1.03736  -1.13442  33.22106
   2.46416  -3.90272  33.31084
   6.39963  -6.88051  32.06885
  10.42488  -9.16996  29.68961
  14.67459 -10.57656  27.07095
  18.62502  -9.84333  25.15559
  22.02180  -6.73087  24.36251
  24.59556  -2.36145  24.91617
  26.60071   1.51416  26.77168
  28.15694   3.90836  29.56990
  29.39893   5.22517  33.07142
  30.23690   5.95840  36.64776
  30.70078   5.74891  40.52337
  30.58107   4.59670  44.44388
  29.81792   2.86090  48.22971
  28.08212   1.60394  51.41699
  25.34375   1.57402  53.27249
  21.93202   2.38206  54.06557
  17.99655   2.92075  53.33235
  14.36035   3.53427  51.71626
  11.27782   4.32735  49.21732
   9.63180   5.27006  46.76326
   9.84130   5.43467  44.24935
  11.56213   4.23757  41.88507
