********************************************************************************
               CENTRO DE INSTRUMENTACION Y REGISTRO SISMICO  A.C.  
                       Coordinacion de Servicios Tecnicos
     Anaxagoras 814, Col. Narvarte, Benito Juarez, C.P. 03020 Mexico, D.F.
            Tels. 687 45 42/ 687 45  82             Fax. 669 25 12
********************************************************************************
ARCHIVO ESTANDAR DE ACELERACION:
VERSION DEL FORMATO                    : 2.0
NOMBRE DEL ARCHIVO                     : AU119510.211
FECHA Y HORA DE CREACION               : 18 de Marzo de 1996/ 11:12
REF. CATALOGO ACELEROGRAMAS, SMIS 1995 : REGISTRO No.     /PAG.


================================================================================
DATOS DE LA ESTACION:
NOMBRE DE LA ESTACION                  : AUTODROMO
CLAVE DE LA ESTACION                   : AU11
LOCALIZACION DE LA ESTACION            : AUTODROMO HERMANOS RODRIGUEZ,
                                       : CHURUBUSCO, CD. DEPORTIVA
                                       :
                                       :
                                       :
COORDENADAS DE LA ESTACION             : 19.392 LAT. N 
                                       : 99.087 LONG. W 
ALTITUD (msnm)                         : 2234
TIPO DE SUELO                          : TERRENO BLANDO, MATERIAL COMPRESIBLE
                                       : (ARCILLAS)
                                       : 
INSTITUCION RESPONSABLE                : CIRES 
                                       :

================================================================================
DATOS DEL ACELEROGRAFO:
MODELO DEL ACELEROGRAFO                : SSA-1
NUMERO DE SERIE DEL ACELEROGRAFO       : 157
NUMERO DE CANALES                      : 3
ORIENTACION C1-C6 (rumbo;orientacion)  : /N00E/+V/N90E
ORIENTACION C7-C12 (rumbo;orientacion) :
VEL. DE MUESTREO, C1-C6 (muestras/s)   : /200/200/200
VEL. DE MUESTREO, C7-C12 (muestras/s)  :
ESC. COMPLETA DE SENSORES, C1-C6, (g)  : /2/2/2
ESC. COMPLETA DE SENSORES, C7-C12, (g) :
FREC. NAT. DE SENSORES, C1-C6, (Hz)    : /50/50/50
FREC. NAT. DE SENSORES, C7-C12, (Hz)   :
AMORTIGUAMIENTO DE SENSORES, C1-C6     : /0.700/0.700/0.700
AMORTIGUAMIENTO DE SENSORES, C7-C12    :
INTERVALO DE MUESTREO, C1-C6, (s)      : /0.005/0.005/0.005
INTERVALO DE MUESTREO, C7-C12, (s)     :
UMBRAL DE DISPARO, C1-C6, (Gal)        : /2/2/2
UMBRAL DE DISPARO, C7-C12, (Gal)       :
MEMORIA DE PREEVENTO (s)               : 15
TIEMPO DE POSEVENTO (s)                : 60


================================================================================
DATOS DEL SISMO:
FECHA DEL SISMO (GMT)                  : 21/OCT/95
HORA EPICENTRO (GMT)                   : 02:38:59,0
MAGNITUD(ES)                           : /Mc=6.2/ME=6.5
COORDENADAS DEL EPICENTRO              : 16.92 LAT. N
                                       : 93.62 LONG. W
PROFUNDIDAD FOCAL (km)                 : 98
FUENTE DE LOS DATOS EPICENTRALES       : SSN
                                       : INSTITUTO DE GEOFISICA, UNAM

================================================================================
DATOS DE ESTE REGISTRO:
HORA DE LA PRIMERA MUESTRA (GMT)       : 02:42:38.00
EXACTITUD DEL TIEMPO (s)               :     
DURACION DEL REGISTRO (s), C1-C6       : /128.00/128.00/128.00
DURACION DEL REGISTRO (s), C7-C12      :
NUM. TOTAL DE MUESTRAS, C1-C6          : /25600/25600/25600
NUM. TOTAL DE MUESTRAS, C7-C12         :
ACEL. MAX. (Gal), C1-C6                : /2.03846/0.73168/1.50921
ACEL. MAX., C1-C6, EN LA MUESTRA       :
ACEL. MAX. (Gal), C7-C12               :
ACEL. MAX., C7-C12, EN LA MUESTRA      :
UNIDADES DE LOS DATOS                  : Gal (cm/s/s)
FACTOR DE DECIMACION                   : 1
FORMATO DATOS (FORTRAN,10 campos/dato) : 3F10.5


================================================================================
CALIDAD DEL ACELEROGRAMA:
REGISTRO DIGITAL COMPLETO, CARECE DE TIEMPO ABSOLUTO.


================================================================================
COMENTARIOS: 
             EL EQUIPO SE ENCONTRABA CON GANANCIAS DE 4 EN TODOS LOS EJES,
             POR LO QUE LAS ESCALAS COMPLETAS ERAN DE 4 G.












================================================================================
DATOS DE ACELERACION:
---------+---------+---------+---------+---------+---------+---------+---------+
   CANAL-1   CANAL-2   CANAL-3   CANAL-4   CANAL-5   CANAL-6   CANAL-7   CANAL-8
      N00E        +V      N90E
---------+---------+---------+---------+---------+---------+---------+---------+
[...]
  -0.12154   0.22832  -0.06921
  -0.12154   0.22832  -0.06921
  -0.12154   0.22832  -0.06921
  -0.12154   0.22832  -0.06921
  -0.12154  -0.01168  -0.06921
  -0.12154   0.22832  -0.06921
  -0.12154  -0.01168  -0.06921
  -0.12154   0.22832  -0.06921
  -0.12154  -0.01168  -0.06921
  -0.12154  -0.01168  -0.06921
  -0.12154  -0.01168  -0.06921
  -0.12154  -0.01168  -0.06921
  -0.12154  -0.01168  -0.06921
  -0.12154  -0.01168  -0.06921
  -0.12154  -0.01168  -0.06921
  -0.12154  -0.01168  -0.06921
  -0.36154  -0.01168  -0.06921
  -0.36154  -0.01168  -0.06921
  -0.36154  -0.01168  -0.06921
  -0.36154  -0.01168  -0.06921
  -0.36154  -0.01168  -0.06921
  -0.36154  -0.01168  -0.06921
  -0.36154  -0.01168  -0.06921
  -0.36154  -0.01168  -0.06921
  -0.36154  -0.01168  -0.06921
  -0.36154  -0.01168  -0.06921
  -0.36154  -0.01168  -0.06921
  -0.36154  -0.01168  -0.06921
  -0.36154  -0.01168  -0.06921
  -0.36154  -0.01168  -0.06921
  -0.36154  -0.01168  -0.30921
  -0.60154  -0.01168  -0.06921
  -0.36154  -0.01168  -0.06921
  -0.60154  -0.01168  -0.06921
  -0.60154  -0.01168  -0.30921
  -0.60154  -0.01168  -0.06921
  -0.60154  -0.01168  -0.06921
  -0.60154  -0.01168  -0.30921
  -0.60154  -0.01168  -0.06921
  -0.60154  -0.01168  -0.06921
  -0.60154  -0.01168  -0.06921
  -0.60154  -0.01168  -0.06921
  -0.60154  -0.01168  -0.06921
  -0.60154  -0.01168  -0.06921
  -0.60154  -0.01168  -0.06921
  -0.60154  -0.01168  -0.06921
  -0.60154  -0.01168  -0.06921
  -0.84154  -0.01168  -0.06921
  -0.60154  -0.01168  -0.06921
  -0.60154  -0.01168  -0.06921
  -0.60154  -0.01168  -0.06921
  -0.60154  -0.01168  -0.06921
  -0.60154  -0.25168  -0.06921
  -0.60154  -0.25168  -0.06921
  -0.60154  -0.01168  -0.06921
  -0.60154  -0.01168  -0.06921
  -0.60154  -0.25168  -0.06921
  -0.60154  -0.25168  -0.06921
  -0.60154  -0.25168  -0.30921
  -0.60154  -0.25168  -0.06921
  -0.60154  -0.25168  -0.06921
  -0.60154  -0.25168  -0.06921
  -0.60154  -0.25168  -0.06921
  -0.60154  -0.25168   0.17079
  -0.60154  -0.25168  -0.30921
  -0.60154  -0.25168   0.17079
  -0.60154  -0.25168   0.17079
  -0.60154  -0.25168   0.17079
  -0.60154  -0.25168   0.17079
  -0.60154  -0.25168   0.17079
  -0.60154  -0.25168   0.17079
  -0.60154  -0.25168   0.17079
  -0.60154  -0.25168   0.17079
  -0.60154  -0.25168   0.17079
  -0.60154  -0.25168   0.17079
  -0.60154  -0.25168   0.17079
  -0.60154  -0.25168   0.17079
  -0.60154  -0.25168   0.17079
  -0.60154  -0.25168   0.17079
  -0.60154  -0.25168   0.17079
  -0.60154  -0.25168   0.17079
  -0.60154  -0.25168   0.17079
  -0.36154  -0.25168   0.17079
  -0.60154  -0.25168   0.17079
  -0.60154  -0.25168   0.17079
  -0.36154  -0.25168   0.17079
  -0.36154  -0.25168   0.17079
  -0.36154  -0.25168   0.17079
  -0.60154  -0.25168   0.17079
  -0.36154  -0.25168   0.17079
  -0.36154  -0.25168   0.17079
  -0.36154  -0.25168   0.17079
  -0.36154  -0.25168   0.17079
  -0.36154  -0.25168   0.17079
  -0.36154  -0.25168  -0.30921
  -0.12154  -0.25168   0.17079
  -0.12154  -0.25168   0.17079
  -0.12154  -0.25168   0.17079
  -0.12154  -0.25168   0.17079
  -0.12154  -0.25168   0.17079
  -0.12154  -0.25168   0.17079
  -0.12154  -0.25168   0.17079
  -0.12154  -0.25168   0.41079
  -0.12154  -0.25168   0.41079
   0.11846  -0.25168   0.41079
   0.11846  -0.25168   0.41079
   0.11846  -0.25168   0.41079
   0.11846  -0.25168   0.17079
   0.11846  -0.25168   0.17079
   0.11846  -0.49168   0.17079
   0.11846  -0.25168   0.41079
   0.11846  -0.25168   0.17079
   0.35846  -0.25168   0.17079
   0.35846  -0.25168   0.17079
   0.35846  -0.25168   0.17079
   0.35846  -0.25168   0.17079
   0.35846  -0.25168   0.17079
   0.35846  -0.25168   0.17079
   0.35846  -0.25168   0.17079
   0.35846  -0.25168   0.17079
   0.35846  -0.25168   0.17079
   0.35846  -0.25168   0.17079
   0.35846  -0.25168   0.17079
   0.35846  -0.25168   0.17079
   0.35846  -0.01168   0.17079
   0.35846  -0.01168   0.17079
   0.59846  -0.25168   0.17079
   0.35846  -0.01168   0.17079
   0.59846  -0.25168   0.17079
   0.59846  -0.01168   0.17079
   0.59846  -0.01168   0.17079
   0.59846  -0.01168   0.17079
   0.59846  -0.01168   0.17079
   0.59846  -0.01168   0.17079
   0.59846  -0.01168   0.17079
   0.59846  -0.01168   0.17079
   0.59846  -0.01168   0.17079
   0.83846  -0.01168   0.17079
   0.83846  -0.01168   0.17079
   0.83846  -0.01168   0.17079
   0.83846  -0.01168   0.17079
   0.83846  -0.01168   0.17079
   0.83846  -0.01168   0.17079
   0.83846  -0.01168   0.17079
   0.83846   0.22832   0.17079
   0.83846   0.22832   0.17079
   0.83846   0.22832   0.17079
   1.07846   0.22832   0.17079
   1.07846   0.22832   0.17079
   1.07846   0.22832  -0.06921
   1.07846   0.22832  -0.06921
   1.07846   0.22832  -0.06921
   1.07846   0.22832  -0.06921
   1.07846   0.22832  -0.06921
   1.07846   0.22832  -0.06921
   1.31846   0.22832  -0.06921
   1.31846   0.22832  -0.06921
   1.31846   0.22832  -0.06921
   1.31846   0.22832  -0.06921
   1.31846   0.22832  -0.06921
   1.31846   0.22832  -0.06921
   1.31846   0.22832  -0.06921
   1.31846   0.22832  -0.06921
   1.31846   0.22832  -0.06921
   1.31846   0.22832  -0.06921
   1.31846   0.22832  -0.06921
   1.31846   0.22832  -0.06921
   1.31846   0.22832  -0.06921
   1.31846   0.22832   0.17079
   1.31846   0.22832  -0.06921
   1.31846   0.22832   0.17079
   1.31846   0.22832  -0.06921
   1.31846   0.22832   0.17079
   1.31846   0.22832   0.17079
   1.31846   0.22832   0.17079
   1.31846   0.22832   0.17079
   1.31846   0.22832  -0.06921
   1.31846   0.22832   0.17079
   1.31846   0.22832   0.17079
   1.31846   0.22832   0.17079
   1.31846   0.22832   0.17079
   1.31846   0.22832   0.17079
   1.31846   0.46832   0.17079
   1.31846   0.46832   0.17079
   1.31846   0.46832   0.17079
   1.31846   0.46832   0.17079
   1.31846   0.22832   0.17079
   1.31846   0.46832   0.17079
   1.31846   0.46832   0.17079
   1.31846   0.46832   0.17079
   1.31846   0.46832   0.17079
   1.07846   0.22832   0.17079
   1.31846   0.22832   0.41079
   1.31846   0.22832   0.41079
   1.07846   0.22832   0.41079
   1.07846   0.22832   0.41079
   1.07846   0.22832   0.41079
   1.07846   0.22832   0.41079
   1.07846   0.22832   0.41079
   1.07846   0.46832   0.41079
   1.07846   0.22832   0.41079
   1.07846   0.22832   0.41079
   1.07846   0.22832   0.41079
   1.07846   0.22832   0.41079
   1.07846   0.22832   0.41079
   1.07846   0.22832   0.41079
   1.07846   0.22832   0.41079
   1.07846   0.22832   0.41079
   1.07846   0.22832   0.41079
   1.07846   0.22832   0.41079
   1.07846   0.22832   0.41079
   1.07846   0.22832   0.41079
   1.07846   0.22832   0.65079
   1.07846   0.22832   0.41079
   1.07846   0.22832   0.65079
   1.07846   0.22832   0.65079
   1.07846   0.22832   0.65079
   1.07846   0.22832   0.65079
   1.07846   0.22832   0.65079
   1.07846  -0.01168   0.65079
   1.07846   0.22832   0.65079
   1.07846   0.22832   0.65079
   1.31846   0.22832   0.65079
   1.31846  -0.01168   0.65079
   1.31846  -0.01168   0.65079
   1.31846  -0.01168   0.65079
   1.31846   0.22832   0.65079
   1.31846  -0.01168   0.41079
   1.31846  -0.01168   0.65079
   1.31846  -0.01168   0.65079
   1.07846  -0.01168   0.65079
   1.31846  -0.01168   0.65079
   1.31846  -0.01168   0.65079
   1.31846  -0.01168   0.65079
   1.31846   0.22832   0.65079
   0.83846  -0.01168   0.65079
   1.31846  -0.01168   0.65079
   1.31846  -0.01168   0.65079
   1.07846  -0.01168   0.65079
   1.31846  -0.01168   0.65079
   1.31846  -0.01168   0.65079
   1.31846  -0.01168   0.65079
   1.31846  -0.01168   0.65079
   1.31846  -0.01168   0.65079
   1.31846  -0.01168   0.65079
   1.31846  -0.01168   0.65079
   1.31846  -0.01168   0.65079
   1.31846  -0.01168   0.65079
   1.31846  -0.01168   0.65079
   1.31846  -0.01168   0.65079
   1.31846  -0.01168   0.65079
   1.31846  -0.01168   0.41079
   1.31846  -0.01168   0.41079
   1.31846  -0.01168   0.17079
   1.31846  -0.01168   0.65079
   1.31846  -0.01168   0.65079
   1.31846  -0.01168   0.41079
   1.31846  -0.01168   0.65079
   1.31846  -0.01168   0.65079
   1.31846  -0.25168   0.65079
   1.31846  -0.01168   0.65079
   1.31846  -0.25168   0.41079
   1.31846  -0.25168   0.65079
   1.31846  -0.25168   0.41079
   1.31846  -0.25168   0.41079
   1.07846  -0.25168   0.41079
   1.07846  -0.25168   0.41079
   1.07846  -0.25168   0.41079
   1.07846  -0.25168   0.41079
   1.07846  -0.25168   0.41079
   1.07846  -0.25168   0.41079
   1.07846  -0.25168   0.41079
   0.83846  -0.25168   0.41079
   0.83846  -0.25168   0.41079
   0.83846  -0.01168   0.41079
   0.83846  -0.01168   0.41079
   0.83846  -0.01168   0.41079
   0.83846  -0.01168   0.41079
   0.59846  -0.01168   0.41079
   0.59846  -0.01168   0.17079
   0.59846  -0.01168   0.17079
   0.59846  -0.01168   0.17079
   0.59846  -0.01168   0.17079
   0.59846  -0.01168   0.17079
   0.59846  -0.01168   0.17079
   0.35846  -0.01168   0.17079
   0.35846  -0.01168   0.17079
   0.35846  -0.01168   0.17079
   0.35846  -0.01168   0.17079
   0.35846  -0.25168   0.17079
   0.35846  -0.01168  -0.06921
   0.35846  -0.01168   0.17079
   0.11846  -0.25168  -0.06921
   0.11846  -0.01168  -0.06921
   0.11846  -0.25168  -0.06921
   0.11846  -0.25168  -0.06921
   0.11846  -0.25168  -0.06921
  -0.12154  -0.25168  -0.06921
  -0.12154  -0.01168  -0.06921
  -0.12154  -0.25168  -0.06921
  -0.12154  -0.25168  -0.06921
  -0.12154  -0.25168  -0.06921
  -0.12154  -0.25168  -0.06921
  -0.36154  -0.25168  -0.06921
  -0.36154  -0.25168  -0.06921
  -0.36154  -0.25168  -0.30921
  -0.36154  -0.25168  -0.06921
  -0.60154  -0.25168  -0.30921
  -0.60154  -0.25168  -0.06921
  -0.60154  -0.01168  -0.30921
  -0.60154  -0.25168  -0.30921
  -0.60154  -0.01168  -0.30921
  -0.84154  -0.25168  -0.30921
  -0.84154  -0.25168  -0.30921
  -0.84154  -0.25168  -0.06921
  -0.84154  -0.01168  -0.30921
  -1.08154  -0.25168  -0.30921
  -1.08154  -0.01168  -0.30921
  -1.08154  -0.25168  -0.30921
  -1.08154  -0.01168  -0.30921
  -1.08154  -0.01168  -0.30921
  -1.08154  -0.01168  -0.30921
  -1.08154  -0.25168  -0.30921
  -1.32154  -0.01168  -0.06921
  -1.32154  -0.01168  -0.30921
  -1.32154  -0.25168  -0.30921
  -1.32154  -0.01168  -0.30921
  -1.32154  -0.01168  -0.30921
  -1.56154  -0.01168  -0.30921
  -1.56154  -0.01168  -0.30921
  -1.56154  -0.01168  -0.30921
  -1.56154  -0.01168  -0.30921
  -1.56154  -0.01168  -0.30921
  -1.56154  -0.01168  -0.30921
  -1.56154  -0.01168  -0.30921
  -1.56154  -0.01168  -0.30921
  -1.56154  -0.01168  -0.30921
  -1.56154  -0.01168  -0.30921
  -1.56154  -0.01168  -0.30921
  -1.80154  -0.01168  -0.30921
  -1.80154  -0.01168  -0.30921
  -1.80154  -0.01168  -0.30921
  -1.80154  -0.01168  -0.30921
  -1.80154  -0.01168  -0.30921
  -1.80154  -0.01168  -0.30921
  -1.80154  -0.01168  -0.30921
  -2.03154  -0.01168  -0.30921
  -1.80154  -0.01168  -0.30921
  -1.80154  -0.01168  -0.30921
  -1.80154  -0.01168  -0.30921
  -1.80154  -0.01168  -0.30921
  -1.80154  -0.01168  -0.30921
  -1.80154  -0.01168  -0.30921
  -1.80154  -0.01168  -0.30921
  -1.80154  -0.01168  -0.30921
  -1.80154  -0.01168  -0.30921
  -1.80154  -0.01168  -0.78921
  -1.56154  -0.01168  -0.30921
  -1.80154  -0.01168  -0.30921
  -1.56154  -0.01168  -0.30921
  -1.56154  -0.01168  -0.30921
  -1.56154  -0.01168  -0.30921
  -1.80154  -0.01168  -0.30921
  -1.56154  -0.01168  -0.30921
  -1.56154  -0.01168  -0.30921
  -1.56154  -0.01168  -0.30921
  -1.56154  -0.01168  -0.54921
  -1.56154  -0.01168  -0.54921
  -1.56154  -0.01168  -0.54921
  -1.56154  -0.01168  -0.54921
  -1.56154  -0.01168  -0.54921
  -1.56154  -0.01168  -0.54921
  -1.32154  -0.01168  -0.54921
  -1.56154  -0.01168  -0.54921
  -1.56154  -0.01168  -0.54921
  -1.32154  -0.01168  -0.54921
  -1.32154  -0.01168  -0.54921
  -1.32154  -0.01168  -0.54921
  -1.32154  -0.01168  -0.54921
  -1.32154  -0.01168  -0.54921
  -1.32154  -0.01168  -0.54921
  -1.32154  -0.25168  -0.54921
  -1.32154  -0.25168  -0.54921
  -1.32154  -0.25168  -0.54921
  -1.32154  -0.25168  -0.54921
  -1.32154  -0.25168  -0.54921
  -1.32154  -0.25168  -0.54921
  -1.08154  -0.25168  -0.54921
  -1.32154  -0.25168  -0.54921
  -1.08154  -0.25168  -0.54921
  -1.08154  -0.25168  -0.54921
  -1.08154  -0.25168  -0.54921
  -1.08154  -0.25168  -0.54921
  -1.08154  -0.25168  -0.54921
  -1.08154  -0.25168  -0.54921
  -1.08154  -0.25168  -0.54921
  -1.08154  -0.25168  -0.54921
  -1.08154  -0.25168  -0.54921
  -1.08154  -0.25168  -0.54921
  -1.08154  -0.25168  -0.54921
  -1.08154  -0.25168  -0.54921
  -1.08154  -0.25168  -0.54921
  -1.08154  -0.25168  -0.54921
  -1.08154  -0.25168  -0.54921
  -1.08154  -0.25168  -0.54921
  -0.84154  -0.25168  -0.54921
  -0.84154  -0.25168  -0.54921
  -0.84154  -0.25168  -0.54921
  -1.08154  -0.25168  -0.54921
  -0.84154  -0.25168  -0.54921
  -0.84154  -0.25168  -0.54921
  -0.84154  -0.25168  -0.54921
  -0.84154  -0.25168  -0.54921
  -0.84154  -0.49168  -0.54921
  -0.84154  -0.25168  -0.54921
  -0.84154  -0.25168  -0.54921
  -0.84154  -0.73168  -0.54921
  -0.84154  -0.25168  -0.54921
  -0.60154  -0.25168  -0.54921
  -0.60154  -0.25168  -0.54921
  -0.60154  -0.25168  -0.54921
  -0.60154  -0.25168  -0.54921
  -0.60154  -0.25168  -0.78921
  -0.60154  -0.25168  -0.54921
  -0.60154  -0.01168  -0.54921
  -0.60154  -0.25168  -0.54921
  -0.60154  -0.25168  -0.54921
  -0.60154  -0.01168  -0.54921
  -0.60154  -0.01168  -0.54921
  -0.36154  -0.01168  -0.54921
  -0.60154  -0.25168  -0.54921
  -0.36154  -0.01168  -0.54921
  -0.36154  -0.01168  -0.54921
  -0.36154  -0.01168  -0.54921
  -0.36154  -0.01168  -0.54921
  -0.36154  -0.01168  -0.54921
  -0.36154  -0.01168  -0.54921
  -0.36154  -0.01168  -0.54921
  -0.36154  -0.01168  -0.30921
  -0.36154  -0.01168  -0.54921
  -0.36154  -0.25168  -0.54921
  -0.12154  -0.01168  -0.30921
  -0.12154  -0.01168  -0.30921
  -0.12154  -0.01168  -0.30921
  -0.12154  -0.01168  -0.30921
  -0.12154  -0.01168  -0.30921
  -0.12154  -0.01168  -0.30921
  -0.12154  -0.01168  -0.30921
  -0.12154  -0.01168  -0.30921
  -0.12154  -0.01168  -0.30921
  -0.12154  -0.01168  -0.30921
  -0.12154  -0.01168  -0.30921
  -0.12154  -0.01168  -0.30921
  -0.12154  -0.01168  -0.30921
  -0.12154  -0.01168  -0.30921
  -0.12154   0.22832  -0.30921
  -0.12154   0.22832  -0.30921
   0.11846  -0.01168  -0.30921
   0.11846   0.22832  -0.30921
   0.11846   0.22832  -0.30921
   0.11846   0.22832  -0.30921
   0.11846   0.22832  -0.30921
   0.11846   0.22832  -0.30921
   0.11846   0.22832  -0.30921
   0.11846   0.22832  -0.30921
   0.11846   0.22832  -0.30921
   0.11846   0.22832  -0.30921
   0.11846   0.22832  -0.30921
   0.11846   0.22832  -0.30921
   0.11846   0.22832  -0.30921
   0.11846   0.22832  -0.06921
   0.11846   0.22832  -0.30921
   0.11846   0.22832  -0.06921
   0.11846   0.22832  -0.06921
   0.11846   0.22832  -0.30921
   0.11846   0.22832  -0.06921
   0.11846   0.22832  -0.06921
   0.11846   0.22832  -0.06921
   0.11846   0.22832  -0.30921
   0.11846   0.22832  -0.06921
   0.11846   0.22832  -0.06921
   0.11846   0.22832  -0.06921
   0.35846   0.22832  -0.06921
   0.11846   0.22832  -0.06921
   0.11846   0.22832  -0.06921
   0.11846   0.22832  -0.06921
   0.11846   0.22832  -0.06921
   0.11846   0.22832  -0.06921
   0.11846   0.22832  -0.06921
   0.11846   0.22832  -0.06921
   0.11846   0.22832  -0.06921
   0.11846   0.22832  -0.06921
   0.11846   0.22832  -0.06921
   0.11846   0.22832  -0.06921
   0.11846   0.22832  -0.06921
