********************************************************************************
               CENTRO DE INSTRUMENTACION Y REGISTRO SISMICO  A.C.  
                       Coordinacion de Servicios Tecnicos
     Anaxagoras 814, Col. Narvarte, Benito Juarez, C.P. 03020 Mexico, D.F.
            Tels. 687 45 42/ 687 45  82             Fax. 669 25 12
********************************************************************************
ARCHIVO ESTANDAR DE ACELERACION:
VERSION DEL FORMATO                    : 2.0
NOMBRE DEL ARCHIVO                     : AU119510.121
FECHA Y HORA DE CREACION               : 19 de marzo de 1996/8:55
REF. CATALOGO ACELEROGRAMAS, SMIS 1995 : REGISTRO No.     /PAG.


================================================================================
DATOS DE LA ESTACION:
NOMBRE DE LA ESTACION                  : AUTODROMO
CLAVE DE LA ESTACION                   : AU11
LOCALIZACION DE LA ESTACION            : AUTODROMO HERMANOS RODRIGUEZ,
                                       : CHURUBUSCO, CD. DEPORTIVA
                                       :
                                       :
                                       :
COORDENADAS DE LA ESTACION             : 19.392 LAT. N 
                                       : 99.087 LONG. W 
ALTITUD (msnm)                         : 2234
TIPO DE SUELO                          : TERRENO BLANDO, MATERIAL COMPRESIBLE
                                       : (ARCILLAS)
                                       : 
INSTITUCION RESPONSABLE                : CIRES 
                                       :

================================================================================
DATOS DEL ACELEROGRAFO:
MODELO DEL ACELEROGRAFO                : SSA-1
NUMERO DE SERIE DEL ACELEROGRAFO       : 157
NUMERO DE CANALES                      : 3
ORIENTACION C1-C6 (rumbo;orientacion)  : /N00E/+V/N90E
ORIENTACION C7-C12 (rumbo;orientacion) :
VEL. DE MUESTREO, C1-C6 (muestras/s)   : /200/200/200
VEL. DE MUESTREO, C7-C12 (muestras/s)  :  
ESC. COMPLETA DE SENSORES, C1-C6, (g)  : /2/2/2
ESC. COMPLETA DE SENSORES, C7-C12, (g) :
FREC. NAT. DE SENSORES, C1-C6, (Hz)    : /50/50/50
FREC. NAT. DE SENSORES, C7-C12, (Hz)   :
AMORTIGUAMIENTO DE SENSORES, C1-C6     : /0.700/0.700/0.700
AMORTIGUAMIENTO DE SENSORES, C7-C12    :
INTERVALO DE MUESTREO, C1-C6, (s)      : /0.005/0.005/0.005
INTERVALO DE MUESTREO, C7-C12, (s)     :
UMBRAL DE DISPARO, C1-C6, (Gal)        : /2/2/2
UMBRAL DE DISPARO, C7-C12, (Gal)       :
MEMORIA DE PREEVENTO (s)               : 15
TIEMPO DE POSEVENTO (s)                : 60


================================================================================
DATOS DEL SISMO:
FECHA DEL SISMO (GMT)                  : 12/OCT/95
HORA EPICENTRO (GMT)                   : 16:53:04.3
MAGNITUD(ES)                           : /Mc=5.5/Mb=5.5/Me=6.1
COORDENADAS DEL EPICENTRO              : 19.04 LAT. N
                                       : 103.20 LONG W
PROFUNDIDAD FOCAL (km)                 : 11
FUENTE DE LOS DATOS EPICENTRALES       : INSTITUTO DE INGENIERIA UNAM
                                       : INSTITUTO DE GEOFISICA, UNAM

================================================================================
DATOS DE ESTE REGISTRO:
HORA DE LA PRIMERA MUESTRA (GMT)       : 16:55:38.00
EXACTITUD DEL TIEMPO (s)               :     
DURACION DEL REGISTRO (s), C1-C6       : /89.605/89.605/89.605
DURACION DEL REGISTRO (s), C7-C12      :
NUM. TOTAL DE MUESTRAS, C1-C6          : /17921/17921/17921
NUM. TOTAL DE MUESTRAS, C7-C12         :
ACEL. MAX. (Gal), C1-C6                : /2.51323/1.02383/2.00026
ACEL. MAX., C1-C6, EN LA MUESTRA       :
ACEL. MAX. (Gal), C7-C12               :
ACEL. MAX., C7-C12, EN LA MUESTRA      :
UNIDADES DE LOS DATOS                  : Gal (cm/s/s)
FACTOR DE DECIMACION                   : 1
FORMATO DATOS (FORTRAN,10 campos/dato) : 3F10.5


================================================================================
CALIDAD DEL ACELEROGRAMA:
REGISTRO DIGITAL COMPLETO, CARECE DE TIEMPO ABSOLUTO.


================================================================================
COMENTARIOS: 
             EL EQUIPO SE ENCONTRABA CON GANANCIAS DE 4 EN TODOS LOS EJES,
             POR LO QUE LAS ESCALAS COMPLETAS ERAN DE 1/2 G.












================================================================================
DATOS DE ACELERACION:
---------+---------+---------+---------+---------+---------+---------+---------+
   CANAL-1   CANAL-2   CANAL-3   CANAL-4   CANAL-5   CANAL-6   CANAL-7   CANAL-8
      N00E        +V      N90E
---------+---------+---------+---------+---------+---------+---------+---------+
[...]
  -0.12323  -0.06383  -0.63974
  -0.12323  -0.06383  -0.63974
  -0.12323  -0.06383  -0.63974
  -0.12323  -0.06383  -0.63974
  -0.12323  -0.06383  -0.63974
  -0.36323   0.17617  -0.63974
  -0.12323  -0.06383  -0.63974
  -0.36323  -0.06383  -0.63974
  -0.12323  -0.06383  -0.63974
  -0.12323   0.17617  -0.63974
  -0.12323   0.17617  -0.63974
  -0.36323  -0.06383  -0.87974
  -0.36323  -0.06383  -0.63974
  -0.36323  -0.06383  -0.87974
  -0.36323   0.17617  -0.63974
  -0.36323  -0.06383  -0.87974
  -0.36323  -0.06383  -0.87974
  -0.36323  -0.06383  -1.11974
  -0.36323   0.17617  -0.87974
  -0.36323  -0.06383  -0.87974
  -0.36323  -0.06383  -0.87974
  -0.36323  -0.06383  -0.87974
  -0.36323  -0.06383  -0.87974
  -0.36323   0.17617  -0.87974
  -0.36323  -0.06383  -0.87974
  -0.36323   0.17617  -1.11974
  -0.36323  -0.06383  -1.11974
  -0.36323  -0.06383  -1.11974
  -0.36323  -0.06383  -1.11974
  -0.36323  -0.06383  -1.11974
  -0.36323  -0.06383  -1.11974
  -0.36323  -0.06383  -1.11974
  -0.36323  -0.06383  -1.11974
  -0.36323  -0.06383  -1.11974
  -0.36323   0.17617  -1.11974
  -0.36323  -0.06383  -1.11974
  -0.36323  -0.06383  -1.11974
  -0.36323  -0.06383  -1.11974
  -0.36323  -0.06383  -1.11974
  -0.36323  -0.06383  -1.11974
  -0.36323  -0.06383  -1.11974
  -0.36323  -0.06383  -1.35974
  -0.36323  -0.06383  -1.11974
  -0.36323  -0.06383  -1.11974
  -0.36323  -0.06383  -1.11974
  -0.36323  -0.06383  -1.35974
  -0.36323  -0.06383  -1.11974
  -0.36323  -0.06383  -1.11974
  -0.36323  -0.06383  -1.11974
  -0.36323  -0.06383  -1.11974
  -0.36323  -0.06383  -1.35974
  -0.36323  -0.06383  -1.35974
  -0.36323  -0.06383  -1.35974
  -0.36323  -0.06383  -1.35974
  -0.36323  -0.06383  -1.11974
  -0.36323  -0.54383  -1.35974
  -0.60323  -0.06383  -1.11974
  -0.36323  -0.06383  -1.35974
  -0.36323  -0.06383  -1.11974
  -0.36323  -0.06383  -1.11974
  -0.36323  -0.06383  -1.11974
  -0.36323  -0.06383  -1.11974
  -0.36323  -0.06383  -1.11974
  -0.36323  -0.06383  -1.11974
  -0.36323  -0.06383  -1.11974
  -0.60323  -0.06383  -1.11974
  -0.60323  -0.06383  -1.11974
  -0.60323  -0.06383  -1.11974
  -0.60323  -0.06383  -1.11974
  -0.60323  -0.06383  -1.11974
  -0.60323  -0.06383  -1.11974
  -0.60323  -0.06383  -1.11974
  -0.60323  -0.06383  -1.11974
  -0.60323  -0.06383  -1.11974
  -0.60323  -0.06383  -1.11974
  -0.60323  -0.06383  -1.11974
  -0.60323  -0.06383  -1.11974
  -0.60323  -0.06383  -1.11974
  -0.60323  -0.06383  -1.11974
  -0.60323  -0.06383  -0.87974
  -0.60323  -0.06383  -0.87974
  -0.60323  -0.06383  -0.87974
  -0.60323  -0.06383  -0.87974
  -0.60323  -0.06383  -0.87974
  -0.60323  -0.54383  -0.87974
  -0.60323  -0.06383  -0.87974
  -0.60323  -0.06383  -0.87974
  -0.60323  -0.06383  -0.87974
  -0.84323  -0.06383  -0.87974
  -0.60323  -0.06383  -0.87974
  -0.60323  -0.30383  -0.63974
  -0.60323  -0.06383  -0.63974
  -0.84323  -0.06383  -0.63974
  -0.84323  -0.30383  -0.63974
  -0.60323  -0.06383  -0.63974
  -0.60323  -0.06383  -0.63974
  -0.84323  -0.06383  -0.63974
  -0.84323  -0.06383  -0.63974
  -0.84323  -0.30383  -0.63974
  -0.84323  -0.06383  -0.63974
  -0.84323  -0.30383  -0.63974
  -0.84323  -0.30383  -0.63974
  -0.84323  -0.30383  -0.63974
  -0.84323  -0.30383  -0.39974
  -0.84323  -0.30383  -0.39974
  -0.84323  -0.30383  -0.39974
  -0.84323  -0.30383  -0.39974
  -0.84323  -0.30383  -0.39974
  -0.84323  -0.30383  -0.39974
  -0.60323  -0.30383  -0.39974
  -0.84323  -0.30383  -0.39974
  -0.84323  -0.30383  -0.39974
  -0.84323  -0.30383  -0.39974
  -0.84323  -0.30383  -0.15974
  -0.84323  -0.30383  -0.15974
  -0.84323  -0.30383  -0.15974
  -0.84323  -0.30383  -0.15974
  -0.84323  -0.30383  -0.15974
  -0.84323  -0.30383  -0.15974
  -0.60323  -0.30383  -0.15974
  -0.60323  -0.30383  -0.15974
  -0.84323  -0.30383  -0.15974
  -0.60323  -0.30383   0.08026
  -0.60323  -0.06383  -0.15974
  -0.60323  -0.30383   0.08026
  -0.60323  -0.30383   0.08026
  -0.60323  -0.30383   0.08026
  -0.60323  -0.06383   0.08026
  -0.60323  -0.06383   0.08026
  -0.60323  -0.06383   0.08026
  -0.60323  -0.06383   0.08026
  -0.60323  -0.30383   0.08026
  -0.60323  -0.30383   0.32026
  -0.36323  -0.30383   0.32026
  -0.36323  -0.30383   0.32026
  -0.36323  -0.06383   0.32026
  -0.36323  -0.06383   0.32026
  -0.36323  -0.06383   0.32026
  -0.36323  -0.06383   0.32026
  -0.36323  -0.06383   0.32026
  -0.36323  -0.06383   0.32026
  -0.12323  -0.06383   0.32026
  -0.12323  -0.06383   0.32026
  -0.36323  -0.06383   0.56026
  -0.12323  -0.06383   0.32026
  -0.12323  -0.30383   0.32026
  -0.12323  -0.30383   0.56026
  -0.12323  -0.06383   0.56026
  -0.12323  -0.06383   0.56026
  -0.12323  -0.06383   0.56026
  -0.12323  -0.06383   0.56026
   0.11677  -0.06383   0.56026
   0.11677  -0.06383   0.56026
   0.11677  -0.06383   0.80026
   0.11677  -0.06383   0.80026
   0.11677  -0.06383   0.80026
   0.11677  -0.06383   0.80026
   0.11677  -0.06383   0.80026
   0.11677  -0.06383   0.80026
   0.11677  -0.06383   0.80026
   0.35677  -0.06383   0.80026
   0.35677  -0.06383   0.80026
   0.35677  -0.06383   0.80026
   0.35677  -0.06383   1.04026
   0.35677  -0.06383   1.04026
   0.35677  -0.06383   1.04026
   0.35677  -0.06383   0.80026
   0.35677  -0.30383   1.04026
   0.35677  -0.06383   1.04026
   0.59677  -0.06383   1.04026
   0.59677  -0.54383   0.80026
   0.59677  -0.30383   1.04026
   0.59677  -0.06383   1.04026
   0.59677  -0.06383   1.04026
   0.59677  -0.30383   1.04026
   0.59677  -0.30383   1.04026
   0.59677  -0.30383   1.04026
   0.59677  -0.30383   1.28026
   0.59677  -0.06383   1.28026
   0.59677  -0.30383   1.28026
   0.59677  -0.30383   1.28026
   0.59677  -0.06383   1.28026
   0.59677  -0.30383   1.28026
   0.59677  -0.30383   1.28026
   0.83677  -0.30383   1.28026
   0.83677  -0.30383   1.28026
   0.83677  -0.30383   1.28026
   0.83677  -0.30383   1.28026
   0.83677  -0.06383   1.28026
   0.83677  -0.30383   1.28026
   0.83677  -0.30383   1.28026
   0.83677  -0.30383   1.28026
   0.83677  -0.30383   1.28026
   0.83677  -0.30383   1.28026
   1.07677  -0.30383   1.28026
   0.83677  -0.30383   1.28026
   0.83677  -0.06383   1.28026
   0.83677  -0.30383   1.28026
   0.83677  -0.30383   1.28026
   1.07677  -0.30383   1.28026
   0.83677  -0.06383   1.28026
   0.83677  -0.06383   1.28026
   1.07677  -0.06383   1.28026
   1.07677  -0.30383   1.28026
   1.07677  -0.06383   1.28026
   1.07677  -0.06383   1.28026
   1.07677  -0.06383   1.28026
   1.07677  -0.06383   1.28026
   1.07677  -0.06383   1.28026
   1.07677  -0.06383   1.28026
   1.07677  -0.06383   1.28026
   1.07677  -0.06383   1.28026
   1.07677  -0.06383   1.28026
   1.07677  -0.06383   1.28026
   1.07677  -0.06383   1.28026
   1.07677  -0.06383   1.28026
   1.07677  -0.06383   1.28026
   1.07677  -0.06383   1.28026
   0.83677  -0.06383   1.28026
   1.07677  -0.06383   1.28026
   0.83677  -0.06383   0.80026
   0.83677  -0.06383   1.28026
   0.83677   0.17617   1.28026
   0.83677  -0.06383   1.28026
   0.83677  -0.06383   1.28026
   0.83677   0.17617   1.28026
   0.83677   0.17617   1.28026
   0.83677   0.17617   1.28026
   0.83677   0.17617   1.28026
   0.83677   0.17617   1.28026
   0.83677   0.17617   1.28026
   0.83677  -0.06383   1.28026
   0.59677   0.17617   1.28026
   0.59677   0.17617   1.28026
   0.59677   0.17617   1.04026
   0.59677   0.17617   1.28026
   0.59677   0.17617   1.28026
   0.59677   0.17617   1.28026
   0.59677   0.17617   1.04026
   0.59677   0.17617   1.04026
   0.59677   0.17617   1.04026
   0.59677   0.17617   1.04026
   0.59677   0.17617   1.04026
   0.59677   0.17617   1.04026
   0.35677   0.17617   1.04026
   0.35677   0.17617   1.04026
   0.35677   0.17617   1.04026
   0.35677   0.17617   1.04026
   0.11677   0.17617   1.04026
   0.11677  -0.06383   1.04026
   0.11677   0.17617   0.80026
   0.11677   0.17617   0.80026
   0.11677   0.17617   0.80026
   0.11677   0.17617   0.80026
   0.11677   0.17617   0.80026
  -0.12323   0.17617   0.80026
  -0.12323   0.17617   0.80026
  -0.12323   0.17617   0.80026
  -0.12323   0.17617   0.80026
  -0.12323   0.17617   0.80026
  -0.36323   0.17617   0.56026
  -0.36323   0.41617   0.56026
  -0.36323   0.41617   0.56026
  -0.36323   0.41617   0.56026
  -0.36323   0.41617   0.56026
  -0.36323   0.41617   0.56026
  -0.36323   0.41617   0.56026
  -0.60323   0.41617   0.56026
  -0.60323   0.17617   0.56026
  -0.60323   0.41617   0.56026
  -0.60323   0.41617   0.32026
  -0.84323   0.41617   0.32026
  -0.84323  -0.06383   0.32026
  -0.84323   0.41617   0.32026
  -0.84323   0.41617   0.32026
  -0.84323   0.41617   0.32026
  -0.84323   0.41617   0.32026
  -0.84323   0.41617   0.32026
  -1.08323   0.41617   0.32026
  -1.08323   0.17617   0.32026
  -1.08323   0.41617   0.32026
  -1.08323   0.41617   0.08026
  -1.32323   0.41617   0.08026
  -1.32323   0.41617   0.08026
  -1.08323   0.17617   0.08026
  -1.32323   0.41617   0.08026
  -1.32323   0.41617   0.08026
  -1.32323   0.41617   0.08026
  -1.32323   0.41617   0.08026
  -1.32323   0.41617   0.08026
  -1.32323   0.41617   0.08026
  -1.56323   0.41617   0.08026
  -1.56323   0.41617   0.08026
  -1.56323   0.41617  -0.15974
  -1.56323   0.41617  -0.15974
  -1.56323   0.41617  -0.15974
  -1.56323   0.41617  -0.15974
  -1.56323   0.41617  -0.15974
  -1.56323   0.41617  -0.15974
  -1.79323   0.41617  -0.63974
  -1.79323   0.41617  -0.15974
  -1.79323   0.41617  -0.15974
  -1.79323   0.41617  -0.15974
  -1.79323   0.41617  -0.15974
  -1.79323   0.41617  -0.15974
  -1.79323   0.41617  -0.15974
  -1.79323   0.41617  -0.15974
  -1.79323   0.41617  -0.15974
  -1.79323   0.41617  -0.39974
  -1.79323   0.41617  -0.15974
  -1.79323   0.41617  -0.39974
  -2.03323   0.41617  -0.39974
  -2.03323   0.41617  -0.39974
  -2.03323   0.41617  -0.39974
  -2.03323   0.41617  -0.39974
  -2.03323   0.41617  -0.39974
  -2.03323   0.41617  -0.39974
  -2.03323   0.41617  -0.39974
  -2.03323   0.17617  -0.39974
  -2.03323   0.41617  -0.39974
  -2.03323   0.41617  -0.39974
  -2.03323   0.41617  -0.39974
  -2.03323   0.41617  -0.39974
  -2.27323   0.41617  -0.63974
  -2.27323   0.41617  -0.63974
  -2.03323   0.41617  -0.63974
  -2.27323   0.17617  -0.63974
  -2.27323   0.17617  -0.63974
  -2.27323   0.41617  -0.63974
  -2.27323   0.41617  -0.63974
  -2.27323   0.41617  -0.63974
  -2.27323   0.41617  -0.63974
  -2.27323   0.41617  -0.63974
  -2.27323   0.41617  -0.63974
  -2.27323   0.41617  -0.63974
  -2.27323   0.41617  -0.63974
  -2.27323   0.41617  -0.63974
  -2.27323   0.41617  -0.63974
  -2.27323   0.41617  -0.87974
  -2.27323   0.41617  -0.87974
  -2.27323   0.41617  -0.87974
  -2.27323   0.41617  -0.87974
  -2.27323   0.41617  -0.87974
  -2.27323   0.41617  -0.87974
  -2.27323   0.41617  -0.87974
  -2.51323   0.41617  -0.87974
  -2.51323   0.41617  -0.87974
  -2.51323   0.41617  -0.87974
  -2.51323   0.17617  -0.87974
  -2.51323   0.41617  -0.87974
  -2.51323   0.41617  -1.11974
  -2.51323   0.17617  -1.11974
  -2.51323   0.41617  -1.11974
  -2.51323   0.17617  -1.11974
  -2.51323   0.17617  -1.11974
  -2.51323   0.17617  -1.11974
  -2.51323   0.41617  -1.11974
  -2.51323   0.17617  -1.11974
  -2.27323   0.17617  -1.11974
  -2.27323   0.17617  -1.11974
  -2.51323   0.17617  -1.11974
  -2.51323   0.17617  -1.11974
  -2.27323   0.17617  -1.11974
  -2.27323   0.17617  -1.11974
  -2.27323   0.17617  -1.11974
  -2.27323   0.17617  -1.35974
  -2.51323   0.17617  -1.35974
  -2.27323   0.17617  -1.35974
  -2.27323   0.17617  -1.35974
  -2.27323   0.17617  -1.35974
  -2.27323   0.17617  -1.35974
  -2.51323   0.17617  -1.35974
  -2.27323   0.17617  -1.35974
  -2.27323   0.17617  -1.35974
  -2.27323   0.17617  -1.35974
  -2.27323   0.17617  -1.35974
  -2.27323  -0.06383  -1.35974
  -2.27323  -0.06383  -1.35974
  -2.27323  -0.06383  -1.35974
  -2.03323  -0.06383  -1.35974
  -2.03323  -0.06383  -1.35974
  -2.03323  -0.06383  -1.35974
  -2.03323  -0.06383  -1.35974
  -2.03323  -0.06383  -1.35974
  -2.03323  -0.06383  -1.35974
  -2.03323  -0.06383  -1.35974
  -2.03323  -0.06383  -1.35974
  -1.79323  -0.06383  -1.11974
  -1.79323  -0.06383  -1.35974
  -1.79323  -0.06383  -1.11974
  -1.79323  -0.06383  -1.11974
  -1.79323  -0.06383  -1.11974
  -1.79323  -0.06383  -1.11974
  -1.79323  -0.06383  -1.11974
  -1.56323  -0.06383  -1.11974
  -1.56323  -0.06383  -1.11974
  -1.56323  -0.06383  -1.11974
  -1.56323  -0.06383  -1.11974
  -1.56323  -0.06383  -1.11974
  -1.56323  -0.06383  -1.11974
  -1.56323  -0.06383  -1.11974
  -1.32323  -0.06383  -1.11974
  -1.32323  -0.06383  -1.11974
  -1.32323  -0.06383  -1.11974
  -1.32323  -0.06383  -1.11974
  -1.32323  -0.06383  -0.87974
  -1.08323  -0.06383  -0.87974
  -1.08323  -0.06383  -0.87974
  -1.08323  -0.06383  -0.87974
  -1.08323  -0.06383  -0.87974
  -1.08323  -0.06383  -0.87974
  -0.84323  -0.06383  -0.87974
  -0.84323  -0.06383  -0.87974
  -0.84323  -0.06383  -0.63974
  -0.84323  -0.06383  -0.87974
  -0.84323  -0.06383  -0.63974
  -0.84323  -0.06383  -0.63974
  -0.84323  -0.06383  -0.63974
  -0.60323  -0.06383  -0.63974
  -0.60323  -0.06383  -0.63974
  -0.60323  -0.06383  -0.63974
  -0.60323  -0.06383  -0.63974
  -0.60323  -0.06383  -0.39974
  -0.60323  -0.06383  -0.39974
  -0.36323  -0.06383  -0.39974
  -0.36323  -0.06383  -0.39974
  -0.36323  -0.30383  -0.39974
  -0.36323  -0.06383  -0.39974
  -0.36323  -0.06383  -0.39974
  -0.12323  -0.06383  -0.15974
  -0.12323  -0.06383  -0.15974
  -0.12323  -0.06383  -0.15974
  -0.12323  -0.06383  -0.15974
  -0.12323  -0.06383  -0.15974
   0.11677  -0.06383   0.08026
   0.11677  -0.06383   0.08026
   0.11677  -0.06383   0.08026
   0.11677  -0.06383   0.08026
   0.11677  -0.06383   0.08026
   0.11677  -0.06383   0.08026
   0.11677  -0.06383   0.08026
   0.11677  -0.06383   0.32026
   0.35677  -0.06383   0.32026
   0.35677  -0.06383   0.32026
   0.35677  -0.06383   0.32026
   0.11677  -0.06383   0.32026
   0.35677  -0.06383   0.32026
   0.35677  -0.06383   0.32026
   0.59677  -0.06383   0.32026
   0.59677  -0.06383   0.32026
   0.59677  -0.06383   0.32026
   0.59677  -0.06383   0.56026
   0.59677  -0.06383   0.56026
   0.59677  -0.30383   0.56026
   0.59677  -0.06383   0.56026
   0.59677  -0.30383   0.56026
   0.59677  -0.06383   0.80026
   0.59677  -0.06383   0.80026
   0.83677  -0.06383   0.80026
   0.83677  -0.06383   0.80026
   0.83677  -0.06383   0.80026
   0.83677  -0.30383   0.80026
   0.83677  -0.06383   0.80026
   0.83677  -0.30383   0.80026
   0.83677  -0.30383   1.04026
   0.83677  -0.06383   1.04026
   0.83677  -0.06383   1.04026
   1.07677  -0.30383   1.04026
   1.07677  -0.30383   1.04026
   1.07677  -0.30383   1.28026
   1.07677  -0.06383   1.28026
   1.07677  -0.06383   1.28026
   1.07677  -0.30383   1.28026
   1.07677  -0.30383   1.28026
   1.07677  -0.30383   1.28026
   1.07677  -0.30383   1.28026
   1.07677  -0.30383   1.28026
   1.31677  -0.06383   1.52026
   1.31677  -0.06383   1.52026
   1.31677  -0.30383   1.52026
   1.31677  -0.30383   1.52026
   1.31677  -0.30383   1.52026
   1.31677  -0.06383   1.52026
   1.31677  -0.30383   1.52026
   1.31677  -0.30383   1.52026
   1.31677  -0.30383   1.76026
   1.55677  -0.30383   1.52026
   1.55677  -0.30383   1.76026
   1.55677  -0.30383   1.76026
   1.55677  -0.30383   1.76026
   1.55677  -0.06383   1.76026
   1.55677  -0.30383   1.76026
   1.55677  -0.30383   1.76026
   1.55677  -0.30383   1.76026
