********************************************************************************
              CENTRO DE INSTRUMENTACION Y REGISTRO SISMICO  A.C.

    Anaxagoras 814, Col. Narvarte, Benito Juarez, C.P. 03020 Mexico, D.F.
           Tels. 5687 45 42/ 5687 45  82             Fax. 5669 25 12
********************************************************************************
ARCHIVO ESTANDAR DE ACELERACION:
VERSION DEL FORMATO                    : 2.0
NOMBRE DEL ARCHIVO                     : AL0120090427164627
FECHA Y HORA DE CREACION               : 25/JUN/09, 01:10
REF. CATALOGO ACELEROGRAMAS, SMIS 1996 : REGISTRO No.     /PAG.


================================================================================
DATOS DE LA ESTACION:
NOMBRE DE LA ESTACION                  : ALAMEDA
CLAVE DE LA ESTACION                   : AL01
LOCALIZACION DE LA ESTACION            : Del. Cuauhtémoc, Col. Centro,          
                                       : Dr. Mora entre Av. Hidalgo             
                                       : y Av. Juárez.                          
                                       :                                        
                                       : 
COORDENADAS DE LA ESTACION             : 19.4356 LAT. N
                                       : 99.1453 LONG. W
ALTITUD (msnm)                         : 2232
TIPO DE SUELO                          : Terreno blando, material compresible
                                       : (arcillas)                
                                       : 
INSTITUCION RESPONSABLE                : CIRES
                                       : 

================================================================================
DATOS DEL ACELEROGRAFO:
MODELO DEL ACELEROGRAFO                : RADESD
NUMERO DE SERIE DEL ACELEROGRAFO       : 152
NUMERO DE CANALES                      : 3
ORIENTACION C1-C6 (rumbo;orientacion)  : /N00E/+V/N90W
ORIENTACION C7-C12 (rumbo;orientacion) : 
VEL. DE MUESTREO, C1-C6 (muestras/s)   : /100/100/100
VEL. DE MUESTREO, C7-C12 (muestras/s)  : 
ESC. COMPLETA DE SENSORES, C1-C6, (g)  : /0.5/0.5/0.5
ESC. COMPLETA DE SENSORES, C7-C12, (g) : 
FREC. NAT. DE SENSORES, C1-C6, (Hz)    : /51.29/51.09/53.75
FREC. NAT. DE SENSORES, C7-C12, (Hz)   : 
AMORTIGUAMIENTO DE SENSORES, C1-C6     : /0.5519/0.5670/0.5810
AMORTIGUAMIENTO DE SENSORES, C7-C12    : 
INTERVALO DE MUESTREO, C1-C6, (s)      : /0.01/0.01/0.01
INTERVALO DE MUESTREO, C7-C12, (s)     : 
UMBRAL DE DISPARO, C1-C6, (Gal)        : /0.72/1.44/0.72
UMBRAL DE DISPARO, C7-C12, (Gal)       : 
MEMORIA DE PREEVENTO (s)               : 56.0
TIEMPO DE POSEVENTO (s)                : 64.0


================================================================================
DATOS DEL SISMO:
FECHA DEL SISMO (GMT)                  : 27/ABR/09
HORA EPICENTRO (GMT)                   : 16:46:27.0
MAGNITUD(ES)                           : /Mc=5.7
COORDENADAS DEL EPICENTRO              : 16.90 LAT. N
                                       : 99.58 LONG. W
PROFUNDIDAD FOCAL (km)                 : 7
FUENTE DE LOS DATOS EPICENTRALES       : SSN
                                       : INSTITUTO DE GEOFISICA, UNAM

================================================================================
DATOS DE ESTE REGISTRO:
HORA DE LA PRIMERA MUESTRA (GMT)       : 16:47:20.00
EXACTITUD DEL TIEMPO (s)               : 0.01
DURACION DEL REGISTRO (s), C1-C6       : /192.0/192.0/192.0
DURACION DEL REGISTRO (s), C7-C12      : 
NUM. TOTAL DE MUESTRAS, C1-C6          : /19200/19200/19200
NUM. TOTAL DE MUESTRAS, C7-C12         : 
ACEL. MAX. (Gal), C1-C6                : /6.97396/2.84031/9.24738
ACEL. MAX., C1-C6, EN LA MUESTRA       : /9785/9273/9270
ACEL. MAX. (Gal), C7-C12               : 
ACEL. MAX., C7-C12, EN LA MUESTRA      : 
UNIDADES DE LOS DATOS                  : Gal (cm/s/s)
FACTOR DE DECIMACION                   : 1
FORMATO DATOS (FORTRAN,10 campos/dato) : 3F10.5


================================================================================
CALIDAD DEL ACELEROGRAMA:
REGISTRO DIGITAL COMPLETO CON TIEMPO ABSOLUTO CORRECTO.


================================================================================
COMENTARIOS:














================================================================================
DATOS DE ACELERACION:
---------+---------+---------+---------+---------+---------+---------+---------+
   CANAL-1   CANAL-2   CANAL-3   CANAL-4   CANAL-5   CANAL-6   CANAL-7   CANAL-8
      N00E        +V      N90W
---------+---------+---------+---------+---------+---------+---------+---------+
[...]
   1.16633   0.44611  -0.86767
   1.40575   0.68553  -0.86767
   1.64517   0.44611  -1.10709
   1.88459   0.44611  -0.62825
   2.12401  -0.03273  -0.86767
   2.36343  -0.03273  -0.86767
   2.36343  -0.03273  -1.10709
   2.60285  -0.27215  -1.34651
   2.84227  -0.75099  -1.58593
   3.08169  -0.75099  -2.30419
   3.32111  -0.99041  -2.54361
   3.56053  -0.99041  -3.02246
   3.56053  -1.22983  -3.50130
   3.79995  -1.22983  -3.98014
   3.79995  -1.22983  -4.21956
   3.79995  -0.99041  -4.69840
   3.79995  -0.99041  -4.93782
   3.79995  -0.75099  -5.17724
   3.79995  -0.99041  -5.17724
   3.56053  -0.75099  -5.17724
   3.08169  -0.75099  -5.17724
   3.32111  -0.99041  -4.93782
   2.84227  -0.99041  -4.93782
   2.60285  -0.51157  -4.69840
   2.60285  -0.51157  -4.45898
   2.12401  -0.27215  -3.98014
   2.12401  -0.27215  -3.74072
   1.64517  -0.03273  -3.26188
   1.40575   0.92495  -3.02246
   1.16633   0.92495  -2.54361
   1.16633   0.92495  -2.06477
   0.92691   1.16437  -1.82535
   1.16633   1.16437  -1.34651
   1.16633   0.92495  -1.34651
   1.16633   0.92495  -0.86767
   1.16633   1.16437  -0.86767
   1.16633   0.68553  -0.62825
   1.40575   0.92495  -0.62825
   1.40575   0.68553  -0.38883
   1.40575   0.92495  -0.38883
   1.64517   0.68553  -0.14941
   1.64517   0.92495  -0.38883
   1.64517   0.68553  -0.38883
   1.64517   0.68553  -0.38883
   1.64517   0.92495   0.09001
   1.40575   0.92495   0.09001
   1.40575   0.92495  -0.14941
   1.16633   0.68553  -0.14941
   1.40575   0.92495   0.32943
   1.40575   0.68553   0.56885
   1.40575   0.44611   1.04769
   1.40575   0.20669   1.28711
   1.40575   0.20669   1.52653
   1.40575  -0.27215   2.00537
   1.40575  -0.51157   2.24479
   1.16633  -0.99041   2.96305
   1.40575  -0.75099   3.20247
   1.16633  -0.75099   3.92073
   0.92691  -0.75099   4.39957
   0.92691  -0.51157   4.63899
   0.92691  -0.51157   5.35725
   0.68749  -0.27215   5.83609
   0.44806  -0.27215   6.07551
   0.44806  -0.03273   6.31493
   0.20864  -0.27215   6.55435
   0.20864  -0.27215   6.55435
  -0.27020  -0.51157   6.55435
  -0.50962  -0.51157   6.55435
  -0.74904  -0.51157   6.31493
  -0.74904  -0.51157   6.07551
  -0.98846  -0.75099   5.59667
  -0.98846  -0.51157   5.59667
  -1.46730  -0.51157   5.35725
  -1.46730  -0.75099   5.11783
  -1.46730  -0.75099   4.63899
  -1.70672  -1.22983   4.39957
  -1.70672  -1.22983   4.16015
  -2.18556  -1.22983   3.68131
  -2.18556  -1.46925   3.68131
  -2.66440  -1.22983   3.20247
  -2.90382  -1.46925   2.72363
  -3.14324  -1.22983   2.48421
  -3.38266  -1.22983   2.24479
  -3.86150  -1.22983   2.24479
  -3.86150  -1.46925   2.00537
  -4.34034  -1.22983   1.76595
  -4.34034  -1.22983   2.00537
  -4.34034  -0.99041   2.00537
  -4.57976  -0.75099   2.00537
  -4.81918  -0.51157   2.00537
  -5.05860  -0.03273   2.00537
  -5.05860   0.20669   2.00537
  -5.05860   0.68553   1.76595
  -5.05860   0.68553   1.52653
  -4.81918   1.16437   1.76595
  -4.81918   1.16437   1.76595
  -4.81918   1.16437   1.76595
  -4.57976   1.40379   1.76595
  -4.10092   1.40379   1.76595
  -3.86150   1.40379   1.76595
  -3.62208   1.40379   1.76595
  -3.38266   1.64321   2.00537
  -2.90382   1.40379   1.76595
  -2.90382   1.16437   1.52653
  -2.66440   1.16437   1.76595
  -2.66440   0.92495   1.52653
  -2.66440   0.44611   1.52653
  -2.42498   0.44611   1.52653
  -2.66440   0.44611   1.28711
  -2.42498   0.20669   1.52653
  -2.66440   0.20669   1.28711
  -2.42498  -0.03273   1.28711
  -2.66440  -0.27215   0.80827
  -2.42498  -0.27215   0.80827
  -2.42498  -0.27215   1.04769
  -2.18556  -0.51157   0.56885
  -2.42498  -0.51157   0.32943
  -2.42498  -0.27215   0.09001
  -2.42498  -0.51157  -0.14941
  -2.42498  -0.27215  -0.38883
  -2.42498  -0.27215  -0.62825
  -2.42498   0.20669  -0.86767
  -2.18556   0.20669  -1.10709
  -2.42498   0.20669  -1.58593
  -2.42498   0.44611  -1.58593
  -2.42498   0.44611  -2.06477
  -2.66440  -0.03273  -2.06477
  -2.42498   0.44611  -1.82535
  -2.66440   0.20669  -2.30419
  -2.66440   0.44611  -2.30419
  -2.42498   0.20669  -2.54361
  -2.42498   0.20669  -2.54361
  -2.18556   0.20669  -2.78303
  -2.42498  -0.03273  -2.78303
  -2.42498   0.20669  -2.54361
  -2.42498  -0.03273  -3.02246
  -2.18556  -0.03273  -3.26188
  -2.18556  -0.03273  -3.26188
  -1.94614   0.20669  -3.26188
  -1.94614   0.44611  -3.26188
  -1.94614   0.20669  -3.26188
  -1.46730   0.20669  -3.26188
  -1.70672  -0.03273  -3.50130
  -1.46730  -0.03273  -3.26188
  -1.22788  -0.03273  -3.26188
  -0.98846  -0.03273  -3.26188
  -0.74904  -0.03273  -3.26188
  -0.50962  -0.03273  -3.02246
  -0.03078   0.20669  -3.02246
   0.44806   0.44611  -3.02246
   0.68749   0.68553  -3.02246
   0.92691   0.92495  -3.02246
   1.40575   0.92495  -3.02246
   2.12401   1.16437  -3.02246
   2.36343   1.16437  -3.02246
   2.84227   1.16437  -3.26188
   3.32111   1.16437  -3.26188
   3.79995   1.16437  -3.26188
   4.27879   1.16437  -3.26188
   4.51821   1.16437  -3.26188
   4.99705   0.92495  -3.50130
   4.99705   0.92495  -3.50130
   5.23647   0.68553  -3.26188
   4.99705   0.68553  -3.26188
   5.23647   0.44611  -3.02246
   5.23647   0.20669  -2.78303
   5.23647   0.20669  -2.30419
   4.75763  -0.03273  -2.06477
   4.51821  -0.03273  -1.58593
   4.27879  -0.27215  -1.10709
   4.03937  -0.03273  -0.86767
   3.79995  -0.27215  -0.38883
   3.56053  -0.51157   0.09001
   3.32111  -0.27215   0.56885
   3.32111  -0.51157   0.80827
   3.08169  -0.75099   1.28711
   2.84227  -0.51157   1.52653
   2.60285  -0.75099   1.52653
   2.36343  -0.75099   1.52653
   2.36343  -0.75099   1.52653
   2.36343  -0.99041   1.52653
   2.12401  -0.75099   1.52653
   1.88459  -0.99041   1.04769
   2.12401  -0.75099   1.04769
   1.88459  -0.75099   0.56885
   2.12401  -0.75099   0.32943
   1.64517  -0.75099  -0.14941
   1.64517  -0.75099  -0.62825
   1.40575  -0.75099  -1.34651
   1.16633  -0.75099  -1.58593
   0.92691  -0.51157  -2.30419
   0.92691  -0.51157  -2.54361
   0.44806  -0.75099  -3.02246
   0.20864  -0.27215  -3.26188
   0.20864  -0.03273  -3.50130
  -0.03078  -0.27215  -3.98014
  -0.03078   0.20669  -3.98014
  -0.27020   0.20669  -4.45898
  -0.27020   0.44611  -4.45898
  -0.27020   0.68553  -4.45898
  -0.27020   1.16437  -4.21956
  -0.03078   1.16437  -4.45898
  -0.27020   1.16437  -3.98014
  -0.03078   1.16437  -3.74072
  -0.03078   0.92495  -3.50130
  -0.27020   1.16437  -3.02246
  -0.27020   0.92495  -2.78303
  -0.03078   0.92495  -2.30419
  -0.03078   0.68553  -2.06477
   0.20864   0.44611  -1.58593
  -0.03078   0.20669  -1.10709
  -0.27020  -0.03273  -0.62825
   0.20864  -0.27215  -0.14941
  -0.03078  -0.51157   0.32943
  -0.03078  -0.99041   0.80827
  -0.27020  -0.99041   1.28711
   0.20864  -1.22983   1.76595
  -0.03078  -1.46925   2.00537
   0.20864  -1.22983   2.24479
   0.20864  -1.46925   2.72363
   0.44806  -1.22983   2.96305
   0.68749  -1.70867   3.20247
   0.68749  -1.70867   3.44189
   1.16633  -1.22983   3.68131
   1.16633  -1.22983   3.44189
   1.40575  -1.22983   3.68131
   1.64517  -0.99041   3.44189
   1.88459  -0.99041   3.44189
   2.36343  -0.75099   3.44189
   2.36343  -0.51157   3.20247
   2.60285  -0.75099   2.96305
   3.08169  -0.27215   2.96305
   2.84227  -0.27215   2.72363
   3.08169  -0.27215   2.48421
   3.32111  -0.51157   2.24479
   3.56053  -0.51157   2.24479
   3.56053  -0.75099   2.24479
   3.56053  -0.99041   2.24479
   3.79995  -1.22983   2.00537
   3.79995  -1.22983   2.00537
   3.79995  -0.99041   2.00537
   3.79995  -0.99041   2.24479
   3.79995  -0.99041   2.24479
   3.32111  -0.75099   2.48421
   3.32111  -0.27215   2.48421
   3.08169  -0.27215   2.48421
   2.60285  -0.03273   2.96305
   2.36343   0.20669   3.20247
   2.12401  -0.03273   3.44189
   1.40575   0.20669   3.68131
   1.16633  -0.03273   3.92073
   0.44806   0.44611   4.39957
   0.20864   0.44611   4.16015
  -0.50962   0.44611   4.39957
  -0.74904   0.44611   4.39957
  -1.46730   0.44611   4.63899
  -1.70672   0.68553   4.39957
  -2.42498   0.68553   4.16015
  -2.66440   0.92495   3.92073
  -2.90382   0.92495   3.44189
  -3.38266   0.92495   3.20247
  -3.38266   0.68553   2.72363
  -3.38266   0.92495   2.48421
  -3.62208   0.92495   2.24479
  -3.62208   1.16437   1.76595
  -3.38266   1.40379   1.28711
  -3.62208   1.16437   0.80827
  -3.38266   0.92495   0.56885
  -3.38266   0.92495   0.09001
  -3.38266   0.92495  -0.14941
  -3.14324   0.92495  -0.38883
  -2.90382   0.92495  -0.38883
  -2.90382   0.68553  -0.38883
  -3.14324   0.68553  -0.62825
  -2.90382   0.92495  -0.14941
  -2.66440   0.44611  -0.14941
  -3.14324   0.68553   0.09001
  -3.14324   0.44611   0.56885
  -3.38266   0.44611   0.80827
  -3.38266   0.68553   1.04769
  -3.86150   0.44611   1.04769
  -3.86150   0.44611   1.28711
  -4.34034   0.20669   1.52653
  -4.57976   0.20669   1.52653
  -4.81918  -0.03273   1.76595
  -4.57976   0.20669   1.76595
  -5.05860  -0.03273   2.00537
  -5.05860   0.20669   2.24479
  -5.05860   0.20669   2.24479
  -5.29802  -0.27215   2.00537
  -5.05860  -0.27215   2.00537
  -4.81918  -0.51157   2.00537
  -4.57976  -0.75099   1.52653
  -4.34034  -0.99041   1.52653
  -4.10092  -0.99041   1.28711
  -3.62208  -1.22983   1.28711
  -3.38266  -1.46925   1.04769
  -2.90382  -1.22983   1.04769
  -2.66440  -1.22983   0.80827
  -1.94614  -1.22983   0.56885
  -1.70672  -0.99041   0.80827
  -1.22788  -1.22983   0.80827
  -0.74904  -0.75099   0.56885
  -0.03078  -0.75099   0.56885
   0.20864  -0.27215   0.56885
   0.68749  -0.27215   0.56885
   1.16633  -0.27215   0.56885
   1.64517  -0.51157   0.80827
   2.12401  -0.51157   0.80827
   2.36343  -0.27215   1.04769
   2.60285  -0.27215   1.04769
   2.60285  -0.27215   1.04769
   2.84227  -0.03273   1.28711
   3.08169  -0.03273   1.52653
   3.32111  -0.03273   1.28711
   3.32111  -0.51157   1.52653
   3.56053  -0.51157   1.28711
   3.56053  -0.27215   1.28711
   3.56053  -0.51157   1.28711
   3.56053  -0.51157   1.28711
   3.32111  -0.51157   1.04769
   3.32111  -0.75099   0.32943
   3.32111  -0.75099   0.32943
   2.84227  -0.51157   0.09001
   2.84227  -0.75099  -0.62825
   2.84227  -0.51157  -1.10709
   2.60285  -0.51157  -1.58593
   2.60285  -0.51157  -1.82535
   2.36343  -0.27215  -2.78303
   2.12401  -0.27215  -3.02246
   1.88459  -0.27215  -3.74072
   1.40575  -0.27215  -4.21956
   1.16633  -0.03273  -4.93782
   0.68749   0.20669  -5.41666
   0.44806  -0.03273  -5.65608
  -0.03078   0.44611  -6.37434
  -0.50962   0.44611  -6.61376
  -0.74904   0.92495  -7.09260
  -0.98846   0.92495  -7.33202
  -1.70672   0.92495  -7.81086
  -1.70672   1.40379  -7.81086
  -2.18556   1.64321  -8.05028
  -2.42498   1.88263  -8.52912
  -2.66440   2.12205  -8.76854
  -2.66440   2.12205  -8.76854
  -2.90382   2.36147  -9.00796
  -2.90382   2.36147  -9.24738
  -2.90382   2.36147  -8.76854
  -3.14324   2.60089  -8.52912
  -3.14324   2.84031  -8.28970
  -3.38266   2.60089  -8.28970
  -3.14324   2.60089  -7.81086
  -3.14324   2.36147  -7.57144
  -2.90382   2.12205  -7.09260
  -3.14324   2.12205  -6.61376
  -3.14324   1.88263  -6.61376
  -2.90382   1.64321  -6.13492
  -2.90382   1.40379  -5.89550
  -2.66440   1.16437  -5.41666
  -2.42498   1.16437  -4.69840
  -2.42498   0.92495  -4.69840
  -1.94614   0.92495  -4.21956
  -1.70672   0.44611  -4.21956
  -1.22788  -0.03273  -3.98014
  -0.74904  -0.27215  -3.74072
  -0.27020  -0.51157  -3.26188
   0.20864  -0.51157  -3.02246
   0.68749  -0.51157  -2.54361
   1.16633  -0.75099  -2.54361
   1.64517  -0.99041  -2.06477
   2.36343  -0.99041  -1.58593
   2.84227  -1.22983  -1.34651
   3.56053  -1.46925  -0.62825
   4.03937  -1.46925  -0.14941
   4.51821  -1.94809  -0.14941
   5.23647  -1.94809   0.80827
   5.23647  -1.70867   1.04769
   5.47589  -1.70867   1.76595
   5.95473  -1.70867   2.24479
   5.95473  -1.94809   2.96305
   5.71531  -1.70867   3.20247
   5.71531  -1.70867   3.68131
   5.71531  -1.46925   4.16015
   5.47589  -1.22983   4.63899
   4.99705  -1.22983   4.87841
   4.75763  -0.99041   5.35725
   4.03937  -0.99041   5.59667
   3.56053  -0.75099   6.07551
   3.08169  -0.75099   6.31493
   2.60285  -0.51157   6.55435
   1.88459  -0.75099   6.55435
   1.64517  -0.75099   6.79377
   1.16633  -0.51157   7.03319
   0.44806  -0.51157   7.03319
  -0.03078  -0.27215   7.27261
  -0.74904  -0.03273   7.27261
  -0.98846  -0.03273   7.51203
  -1.46730   0.44611   7.75145
  -1.94614   0.20669   7.27261
  -1.94614   0.44611   7.27261
  -1.94614   1.16437   7.03319
  -2.18556   1.16437   6.79377
  -1.94614   1.16437   6.55435
  -2.18556   0.92495   6.07551
  -2.18556   0.92495   5.83609
  -1.70672   0.92495   5.59667
  -1.70672   0.92495   4.87841
  -1.46730   0.92495   4.39957
  -1.22788   0.92495   3.92073
  -0.74904   0.92495   3.44189
  -0.27020   0.92495   3.20247
   0.20864   0.68553   2.48421
   0.44806   0.68553   2.24479
   0.92691   0.68553   1.76595
   1.40575   0.68553   1.52653
   1.64517   0.44611   1.52653
   1.88459   0.44611   1.28711
   2.36343   0.44611   1.28711
   2.36343   0.44611   0.80827
   2.84227   0.44611   0.80827
   2.60285   0.44611   0.80827
   2.60285   0.44611   0.80827
   2.84227   0.20669   0.56885
   2.84227   0.44611   0.80827
   2.36343   0.20669   0.80827
   2.36343   0.44611   0.80827
   2.12401   0.44611   0.80827
   2.12401   0.44611   0.80827
   1.88459   0.20669   0.80827
   1.88459   0.20669   0.80827
   1.64517  -0.03273   0.56885
   1.40575  -0.27215   0.56885
   0.68749  -0.51157   0.56885
   0.68749  -0.51157   0.56885
   0.44806  -0.75099   0.56885
   0.44806  -0.99041   0.56885
  -0.03078  -0.99041   0.32943
  -0.03078  -0.99041   0.09001
  -0.27020  -1.22983   0.09001
  -0.50962  -1.46925   0.09001
  -0.98846  -1.46925  -0.14941
  -0.98846  -1.46925  -0.14941
  -1.22788  -1.94809  -0.38883
  -1.70672  -1.46925  -0.38883
  -1.94614  -1.70867  -0.38883
  -2.18556  -1.46925  -0.62825
  -2.18556  -1.46925  -0.62825
  -2.42498  -1.46925  -0.86767
  -2.42498  -1.22983  -1.10709
  -2.66440  -1.46925  -1.34651
  -2.66440  -0.99041  -1.34651
  -3.14324  -0.75099  -1.58593
  -3.14324  -0.75099  -1.58593
  -3.14324  -0.51157  -1.58593
  -3.62208  -0.27215  -1.82535
  -3.62208  -0.27215  -1.82535
  -3.86150  -0.27215  -1.82535
  -4.10092  -0.03273  -2.06477
  -4.34034  -0.03273  -2.06477
  -4.34034   0.20669  -2.06477
  -4.81918   0.44611  -2.06477
  -4.57976   0.44611  -2.06477
  -4.57976   0.44611  -2.30419
  -4.57976   0.44611  -1.82535
  -4.57976   0.44611  -2.06477
  -4.34034   0.68553  -2.06477
  -3.86150   0.68553  -1.82535
  -3.86150   0.92495  -2.06477
  -3.38266   1.16437  -2.06477
  -3.14324   1.16437  -2.30419
  -2.90382   1.16437  -2.06477
  -2.18556   1.16437  -2.06477
  -1.94614   1.40379  -1.82535
  -1.22788   1.88263  -1.82535
  -0.74904   1.64321  -1.82535
  -0.27020   1.64321  -1.82535
   0.20864   1.88263  -1.82535
   0.68749   1.88263  -1.58593
   1.40575   1.88263  -1.58593
   1.88459   1.88263  -1.34651
   2.12401   1.64321  -1.58593
   2.60285   1.88263  -1.34651
   3.08169   1.64321  -1.58593
   3.56053   1.64321  -1.82535
   3.79995   1.64321  -1.82535
   4.27879   1.40379  -1.82535
   4.51821   1.16437  -2.06477
   4.99705   1.16437  -1.82535
   4.99705   0.68553  -1.82535
   5.47589   0.44611  -1.82535
   5.47589   0.20669  -1.82535
   5.47589  -0.03273  -1.82535
   5.71531  -0.03273  -1.82535
   5.71531  -0.27215  -1.58593
   5.47589  -0.75099  -1.82535
   5.23647  -0.99041  -1.34651
