********************************************************************************
               CENTRO DE INSTRUMENTACION Y REGISTRO SISMICO  A.C.  
                       Coordinacion de Servicios Tecnicos
     Anaxagoras 814, Col. Narvarte, Benito Juarez, C.P. 03020 Mexico, D.F.
            Tels. 667 45 42/ 687 45  82             Fax. 669 25 12
********************************************************************************
ARCHIVO ESTANDAR DE ACELERACION:
VERSION DEL FORMATO                    : 2.0
NOMBRE DEL ARCHIVO                     : AL019701.211
FECHA Y HORA DE CREACION               : 18/MAR/98, 13:30
REF. CATALOGO ACELEROGRAMAS, SMIS 1996 : REGISTRO No.     /PAG.


================================================================================
DATOS DE LA ESTACION:
NOMBRE DE LA ESTACION                  : ALAMEDA
CLAVE DE LA ESTACION                   : AL01
LOCALIZACION DE LA ESTACION            : JARDIN ALAMEDA ENTRE AV. HIDALGO Y AV.
                                       : JUAREZ, CENTRO
                                       :
                                       :
                                       :
COORDENADAS DE LA ESTACION             : 19.436 LAT. N 
                                       : 99.145 LONG. W 
ALTITUD (msnm)                         : 2232
TIPO DE SUELO                          : TERRENO BLANDO, MATERIAL COMPRESIBLE
                                       : (ARCILLAS)
                                       : 
INSTITUCION RESPONSABLE                : CIRES 
                                       :

================================================================================
DATOS DEL ACELEROGRAFO:
MODELO DEL ACELEROGRAFO                : SSA-1
NUMERO DE SERIE DEL ACELEROGRAFO       : 152
NUMERO DE CANALES                      : 3
ORIENTACION C1-C6 (rumbo;orientacion)  : /N00E/+V/N90E
ORIENTACION C7-C12 (rumbo;orientacion) :
VEL. DE MUESTREO, C1-C6 (muestras/s)   : /200/200/200
VEL. DE MUESTREO, C7-C12 (muestras/s)  :
ESC. COMPLETA DE SENSORES, C1-C6, (g)  : /2/2/2
ESC. COMPLETA DE SENSORES, C7-C12, (g) :
FREC. NAT. DE SENSORES, C1-C6, (Hz)    : /51.29/51.09/53.75
FREC. NAT. DE SENSORES, C7-C12, (Hz)   :
AMORTIGUAMIENTO DE SENSORES, C1-C6     : /.5519/.5670/.5810
AMORTIGUAMIENTO DE SENSORES, C7-C12    :
INTERVALO DE MUESTREO, C1-C6, (s)      : /0.005/0.005/0.005
INTERVALO DE MUESTREO, C7-C12, (s)     :
UMBRAL DE DISPARO, C1-C6, (Gal)        : /2/1.5/2
UMBRAL DE DISPARO, C7-C12, (Gal)       :
MEMORIA DE PREEVENTO (s)               : 15
TIEMPO DE POSEVENTO (s)                : 60


================================================================================
DATOS DEL SISMO:
FECHA DEL SISMO (GMT)                  : 21/ENE/97
HORA EPICENTRO (GMT)                   : 21:19:58,0
MAGNITUD(ES)                           : /Mb=5.1/Ms=5.0
COORDENADAS DEL EPICENTRO              : 16.440 LAT. N
                                       : 98.150 LONG. W
PROFUNDIDAD FOCAL (km)                 : 18
FUENTE DE LOS DATOS EPICENTRALES       : SSN
                                       : INSTITUTO DE GEOFISICA, UNAM

================================================================================
DATOS DE ESTE REGISTRO:
HORA DE LA PRIMERA MUESTRA (GMT)       : 21:21:40.00
EXACTITUD DEL TIEMPO (s)               :     
DURACION DEL REGISTRO (s), C1-C6       : /90.88/90.88/90.88
DURACION DEL REGISTRO (s), C7-C12      :
NUM. TOTAL DE MUESTRAS, C1-C6          : /18176/18176/18176
NUM. TOTAL DE MUESTRAS, C7-C12         :
ACEL. MAX. (Gal), C1-C6                : /2.87123/1.83471/3.66260
ACEL. MAX., C1-C6, EN LA MUESTRA       :
ACEL. MAX. (Gal), C7-C12               :
ACEL. MAX., C7-C12, EN LA MUESTRA      :
UNIDADES DE LOS DATOS                  : Gal (cm/s/s)
FACTOR DE DECIMACION                   : 1
FORMATO DATOS (FORTRAN,10 campos/dato) : 3F10.5


================================================================================
CALIDAD DEL ACELEROGRAMA:
REGISTRO DIGITAL COMPLETO, CARECE DE TIEMPO ABSOLUTO.


================================================================================
COMENTARIOS:














================================================================================
DATOS DE ACELERACION:
---------+---------+---------+---------+---------+---------+---------+---------+
   CANAL-1   CANAL-2   CANAL-3   CANAL-4   CANAL-5   CANAL-6   CANAL-7   CANAL-8
      N00E        +V      N90E
---------+---------+---------+---------+---------+---------+---------+---------+
[...]
   1.20877   0.39471  -1.03260
   0.96877   0.15471  -1.27260
   0.96877   0.15471  -1.27260
   0.96877   0.15471  -1.27260
   0.96877  -0.08529  -1.27260
   0.96877  -0.32529  -1.27260
   0.96877  -0.32529  -1.27260
   0.72877  -0.32529  -1.27260
   0.72877  -0.32529  -1.03260
   0.72877  -0.08529  -1.03260
   0.48877  -0.08529  -1.27260
   0.48877  -0.08529  -1.27260
   0.48877  -0.08529  -1.27260
   0.24877  -0.08529  -1.27260
   0.24877  -0.08529  -1.51260
   0.24877  -0.32529  -1.51260
   0.24877  -0.32529  -1.51260
   0.24877  -0.32529  -1.51260
   0.00877  -0.56529  -1.27260
   0.00877  -0.56529  -1.27260
   0.00877  -0.56529  -1.27260
  -0.23123  -0.56529  -1.03260
  -0.47123  -0.80529  -1.03260
  -0.47123  -0.56529  -1.03260
  -0.47123  -0.56529  -1.03260
  -0.47123  -0.56529  -1.03260
  -0.47123  -0.56529  -1.03260
  -0.47123  -0.56529  -1.03260
  -0.47123  -0.56529  -1.03260
  -0.47123  -0.56529  -1.03260
  -0.47123  -0.56529  -0.79260
  -0.47123  -0.56529  -0.79260
  -0.47123  -0.56529  -0.79260
  -0.71123  -0.56529  -0.79260
  -0.71123  -0.56529  -0.55260
  -0.71123  -0.80529  -0.79260
  -0.71123  -0.80529  -0.79260
  -0.71123  -0.80529  -0.79260
  -0.71123  -0.80529  -0.79260
  -0.71123  -1.04529  -0.79260
  -0.71123  -1.04529  -0.79260
  -0.47123  -1.04529  -0.55260
  -0.47123  -1.04529  -0.55260
  -0.47123  -0.80529  -0.31260
  -0.47123  -0.56529  -0.07260
  -0.47123  -0.56529   0.16740
  -0.47123  -0.32529   0.16740
  -0.47123  -0.32529   0.16740
  -0.71123  -0.32529  -0.07260
  -0.71123  -0.32529  -0.31260
  -0.71123  -0.32529  -0.31260
  -0.71123  -0.32529  -0.55260
  -0.71123  -0.32529  -0.55260
  -0.71123  -0.32529  -0.79260
  -0.47123  -0.32529  -0.79260
  -0.47123  -0.56529  -0.79260
  -0.47123  -0.32529  -0.79260
  -0.47123  -0.32529  -0.55260
  -0.47123  -0.32529  -0.31260
  -0.71123  -0.08529  -0.31260
  -0.71123  -0.08529  -0.07260
  -0.95123   0.15471  -0.31260
  -0.95123   0.15471  -0.31260
  -0.95123   0.15471  -0.31260
  -0.71123   0.15471  -0.55260
  -0.95123   0.15471  -0.79260
  -0.71123   0.15471  -0.79260
  -0.71123   0.15471  -1.03260
  -0.71123   0.15471  -1.03260
  -0.71123   0.15471  -1.03260
  -0.95123   0.15471  -1.03260
  -0.95123   0.39471  -1.03260
  -0.95123   0.39471  -1.03260
  -0.95123   0.39471  -1.03260
  -1.19123   0.39471  -1.03260
  -1.19123   0.63471  -1.27260
  -1.19123   0.63471  -1.27260
  -1.43123   0.39471  -1.27260
  -1.19123   0.39471  -1.27260
  -1.19123   0.39471  -1.27260
  -1.19123   0.39471  -1.27260
  -1.19123   0.63471  -1.27260
  -1.19123   0.63471  -1.03260
  -1.19123   0.63471  -1.03260
  -1.19123   0.87471  -1.03260
  -1.43123   0.87471  -1.03260
  -1.43123   0.87471  -1.27260
  -1.43123   1.11471  -1.27260
  -1.43123   1.11471  -1.51260
  -1.43123   1.11471  -1.75260
  -1.43123   1.11471  -1.75260
  -1.43123   0.87471  -1.75260
  -1.19123   0.87471  -1.51260
  -1.19123   0.87471  -1.51260
  -1.19123   0.87471  -1.27260
  -1.19123   0.87471  -1.03260
  -1.19123   1.11471  -1.03260
  -1.19123   1.11471  -1.03260
  -1.19123   1.11471  -1.03260
  -1.19123   1.11471  -1.27260
  -1.19123   1.11471  -1.51260
  -0.95123   0.87471  -1.75260
  -0.95123   0.87471  -1.75260
  -0.71123   0.63471  -1.75260
  -0.71123   0.63471  -1.75260
  -0.71123   0.63471  -1.51260
  -0.47123   0.63471  -1.27260
  -0.47123   0.63471  -1.03260
  -0.47123   0.87471  -1.03260
  -0.47123   0.87471  -0.79260
  -0.47123   0.87471  -0.79260
  -0.47123   1.11471  -0.79260
  -0.23123   0.87471  -1.03260
  -0.23123   0.87471  -1.03260
   0.00877   0.63471  -1.27260
   0.00877   0.39471  -1.27260
   0.24877   0.15471  -1.27260
   0.24877   0.15471  -1.27260
   0.24877   0.15471  -1.27260
   0.24877   0.15471  -1.27260
   0.24877   0.15471  -1.27260
   0.24877   0.15471  -1.03260
   0.24877   0.15471  -1.03260
   0.24877   0.15471  -0.79260
   0.48877  -0.08529  -0.55260
   0.48877  -0.08529  -0.55260
   0.48877  -0.32529  -0.55260
   0.72877  -0.32529  -0.55260
   0.72877  -0.32529  -0.55260
   0.96877  -0.32529  -0.55260
   0.96877  -0.32529  -0.31260
   0.96877  -0.32529  -0.55260
   0.96877  -0.32529  -0.31260
   0.96877  -0.08529  -0.31260
   0.96877  -0.08529  -0.31260
   0.96877  -0.08529  -0.31260
   0.96877  -0.08529  -0.31260
   0.96877  -0.32529  -0.31260
   0.96877  -0.56529  -0.31260
   0.96877  -0.80529  -0.31260
   1.20877  -0.80529  -0.07260
   1.20877  -1.04529  -0.07260
   1.20877  -1.04529   0.16740
   1.20877  -1.04529   0.16740
   1.20877  -1.04529   0.40740
   1.20877  -1.04529   0.40740
   1.20877  -0.80529   0.40740
   0.96877  -0.80529   0.40740
   0.96877  -0.80529   0.40740
   0.96877  -0.80529   0.16740
   0.96877  -0.80529   0.40740
   0.96877  -0.80529   0.40740
   1.20877  -0.80529   0.64740
   1.20877  -0.80529   0.64740
   1.20877  -0.80529   0.88740
   1.20877  -0.80529   0.88740
   1.20877  -0.80529   0.88740
   1.20877  -0.80529   0.88740
   1.20877  -0.80529   0.88740
   1.20877  -0.80529   0.88740
   0.96877  -1.04529   0.64740
   0.96877  -1.04529   0.64740
   0.96877  -1.28529   0.64740
   0.96877  -1.28529   0.64740
   0.96877  -1.28529   0.64740
   0.96877  -1.28529   0.64740
   0.96877  -1.28529   0.88740
   0.96877  -1.04529   1.12740
   0.96877  -1.04529   1.36740
   0.96877  -0.80529   1.36740
   0.72877  -0.56529   1.60740
   0.72877  -0.80529   1.60740
   0.72877  -0.56529   1.60740
   0.72877  -0.56529   1.36740
   0.72877  -0.56529   1.36740
   0.72877  -0.56529   1.12740
   0.72877  -1.04529   1.12740
   0.72877  -1.04529   0.88740
   0.72877  -1.28529   1.12740
   0.72877  -1.28529   1.12740
   0.72877  -1.28529   1.36740
   0.72877  -1.04529   1.60740
   0.72877  -0.80529   1.84740
   0.48877  -0.80529   1.84740
   0.48877  -0.56529   2.08740
   0.24877  -0.32529   2.08740
   0.24877  -0.32529   2.08740
   0.00877  -0.32529   2.08740
   0.00877  -0.08529   1.84740
   0.00877  -0.08529   1.84740
   0.24877  -0.08529   1.84740
   0.24877  -0.08529   1.60740
   0.48877  -0.32529   1.60740
   0.48877  -0.32529   1.60740
   0.48877  -0.56529   1.84740
   0.24877  -0.56529   1.84740
   0.24877  -0.32529   2.08740
   0.00877  -0.32529   2.08740
  -0.23123  -0.08529   2.08740
  -0.23123   0.15471   2.08740
  -0.47123   0.15471   2.08740
  -0.23123   0.39471   2.08740
  -0.23123   0.39471   2.08740
  -0.23123   0.39471   2.08740
   0.00877   0.39471   2.08740
   0.00877   0.15471   2.08740
   0.00877   0.15471   2.08740
   0.00877   0.15471   2.08740
   0.00877   0.15471   2.08740
   0.00877   0.39471   1.84740
  -0.23123   0.39471   1.84740
  -0.23123   0.39471   1.84740
  -0.47123   0.39471   1.60740
  -0.47123   0.63471   1.60740
  -0.47123   0.63471   1.84740
  -0.47123   0.63471   1.84740
  -0.47123   0.63471   1.84740
  -0.47123   0.87471   1.84740
  -0.23123   1.11471   1.84740
  -0.47123   1.11471   1.60740
  -0.47123   1.11471   1.60740
  -0.47123   1.35471   1.60740
  -0.71123   1.11471   1.36740
  -0.71123   1.11471   1.36740
  -0.71123   0.87471   1.36740
  -0.95123   0.63471   1.12740
  -0.71123   0.63471   1.12740
  -0.71123   0.63471   0.88740
  -0.71123   0.63471   0.88740
  -0.71123   0.63471   0.88740
  -0.47123   0.63471   0.88740
  -0.47123   0.63471   0.88740
  -0.47123   0.87471   1.12740
  -0.47123   1.11471   1.12740
  -0.71123   1.35471   1.12740
  -0.95123   1.35471   1.12740
  -0.95123   1.35471   1.12740
  -0.95123   1.35471   0.88740
  -1.19123   1.11471   0.64740
  -0.95123   0.87471   0.40740
  -0.95123   0.87471  -0.07260
  -0.95123   0.63471  -0.07260
  -0.71123   0.63471  -0.07260
  -0.71123   0.39471  -0.07260
  -0.47123   0.15471  -0.07260
  -0.47123   0.63471   0.16740
  -0.47123   0.63471   0.16740
  -0.47123   0.63471   0.16740
  -0.47123   0.63471   0.40740
  -0.47123   0.87471   0.16740
  -0.47123   0.63471   0.16740
  -0.47123   0.63471   0.16740
  -0.23123   0.39471  -0.07260
  -0.23123   0.39471  -0.07260
  -0.23123   0.15471  -0.31260
   0.00877   0.15471  -0.31260
   0.24877   0.15471  -0.31260
   0.48877   0.15471  -0.31260
   0.48877   0.15471  -0.31260
   0.48877   0.15471  -0.07260
   0.72877  -0.08529  -0.07260
   0.72877  -0.32529   0.16740
   0.72877  -0.08529   0.16740
   0.72877  -0.08529   0.40740
   0.96877  -0.08529   0.40740
   0.96877  -0.08529   0.64740
   0.96877  -0.08529   0.40740
   1.20877  -0.08529   0.40740
   1.20877  -0.32529   0.40740
   1.44877  -0.32529   0.40740
   1.67877  -0.56529   0.40740
   1.91877  -0.56529   0.40740
   1.91877  -0.56529   0.64740
   1.91877  -0.80529   0.88740
   1.91877  -0.80529   1.12740
   1.91877  -0.56529   1.36740
   1.91877  -0.56529   1.60740
   1.67877  -0.56529   1.60740
   1.91877  -0.56529   1.60740
   1.91877  -0.56529   1.60740
   1.91877  -0.56529   1.36740
   1.91877  -0.80529   1.36740
   2.15877  -0.80529   1.36740
   1.91877  -0.80529   1.60740
   1.91877  -0.80529   1.60740
   1.91877  -0.80529   1.84740
   1.91877  -0.80529   2.08740
   1.91877  -0.80529   2.08740
   1.67877  -0.80529   2.08740
   1.67877  -0.80529   2.32740
   1.67877  -0.80529   2.08740
   1.67877  -0.80529   2.08740
   1.67877  -0.80529   2.08740
   1.67877  -0.80529   1.84740
   1.67877  -0.80529   1.84740
   1.67877  -1.04529   1.60740
   1.67877  -1.04529   1.60740
   1.44877  -0.80529   1.60740
   0.96877  -0.80529   1.60740
   1.20877  -0.80529   1.60740
   0.96877  -0.56529   1.60740
   0.72877  -0.32529   1.84740
   0.48877  -0.32529   1.60740
   0.48877  -0.32529   1.60740
   0.48877  -0.32529   1.36740
   0.48877  -0.32529   1.12740
   0.48877  -0.80529   0.88740
   0.48877  -1.04529   0.64740
   0.48877  -1.28529   0.40740
   0.48877  -1.28529   0.16740
   0.48877  -1.28529   0.16740
   0.24877  -1.28529   0.16740
   0.00877  -1.04529   0.16740
   0.00877  -0.80529   0.16740
  -0.23123  -0.56529   0.16740
  -0.47123  -0.32529  -0.07260
  -0.71123  -0.08529  -0.31260
  -0.71123  -0.08529  -0.79260
  -0.95123  -0.32529  -1.03260
  -0.95123  -0.32529  -1.27260
  -0.95123  -0.56529  -1.75260
  -0.95123  -0.80529  -1.99260
  -0.95123  -0.80529  -1.99260
  -0.95123  -0.80529  -1.99260
  -1.19123  -0.80529  -1.99260
  -1.19123  -0.56529  -2.22260
  -1.19123  -0.32529  -1.99260
  -1.19123  -0.32529  -1.99260
  -1.19123  -0.32529  -2.22260
  -1.43123  -0.08529  -2.46260
  -1.43123  -0.08529  -2.70260
  -1.43123  -0.08529  -2.94260
  -1.43123  -0.08529  -2.94260
  -1.43123  -0.08529  -3.18260
  -1.67123   0.15471  -3.42260
  -1.67123   0.15471  -3.42260
  -1.67123   0.39471  -3.42260
  -1.67123   0.39471  -3.42260
  -1.67123   0.63471  -3.42260
  -1.67123   0.63471  -3.42260
  -1.43123   0.63471  -3.42260
  -1.43123   0.63471  -3.42260
  -1.43123   0.63471  -3.42260
  -1.67123   0.63471  -3.42260
  -1.43123   0.87471  -3.42260
  -1.67123   0.87471  -3.42260
  -1.67123   1.11471  -3.42260
  -1.67123   1.11471  -3.42260
  -1.67123   1.35471  -3.42260
  -1.67123   1.35471  -3.66260
  -1.67123   1.35471  -3.66260
  -1.43123   1.35471  -3.66260
  -1.43123   1.35471  -3.66260
  -1.43123   1.35471  -3.66260
  -1.19123   1.11471  -3.66260
  -1.19123   1.11471  -3.42260
  -1.19123   1.11471  -3.42260
  -1.19123   0.87471  -3.42260
  -1.19123   1.11471  -3.18260
  -1.19123   1.35471  -3.18260
  -1.19123   1.59471  -3.18260
  -1.19123   1.59471  -2.94260
  -1.19123   1.59471  -3.18260
  -1.19123   1.83471  -3.18260
  -0.95123   1.59471  -3.18260
  -0.95123   1.59471  -3.18260
  -0.95123   1.35471  -3.18260
  -0.95123   1.35471  -3.18260
  -0.95123   1.11471  -3.18260
  -0.95123   1.11471  -3.18260
  -0.71123   1.11471  -2.94260
  -0.71123   1.11471  -2.94260
  -0.47123   0.87471  -2.70260
  -0.47123   0.87471  -2.70260
  -0.47123   0.87471  -2.46260
  -0.47123   0.87471  -2.46260
  -0.47123   0.63471  -2.46260
  -0.23123   0.63471  -2.46260
  -0.47123   0.63471  -2.46260
  -0.47123   0.63471  -2.46260
  -0.47123   0.63471  -2.70260
  -0.47123   0.63471  -2.46260
  -0.23123   0.63471  -2.46260
  -0.23123   0.63471  -2.22260
  -0.23123   0.39471  -2.22260
   0.00877   0.39471  -2.22260
   0.00877   0.15471  -1.99260
   0.00877   0.15471  -1.99260
   0.24877  -0.08529  -1.75260
   0.24877  -0.08529  -1.75260
   0.24877  -0.32529  -1.75260
   0.48877  -0.32529  -1.75260
   0.48877  -0.32529  -1.51260
   0.48877  -0.32529  -1.27260
   0.48877  -0.32529  -1.27260
   0.24877  -0.32529  -1.27260
   0.24877  -0.08529  -1.03260
   0.24877  -0.08529  -1.03260
   0.24877  -0.08529  -1.03260
   0.48877  -0.32529  -0.79260
   0.48877  -0.56529  -0.79260
   0.72877  -0.56529  -0.79260
   0.72877  -0.80529  -0.79260
   0.72877  -0.80529  -0.79260
   0.96877  -0.80529  -0.55260
   0.96877  -0.80529  -0.55260
   0.96877  -0.80529  -0.31260
   0.96877  -0.56529  -0.07260
   0.96877  -0.56529   0.16740
   0.96877  -0.56529   0.16740
   0.96877  -0.56529   0.16740
   0.96877  -0.56529   0.16740
   0.96877  -0.56529   0.16740
   0.96877  -0.56529   0.16740
   0.96877  -0.56529   0.16740
   0.96877  -0.56529   0.40740
   0.96877  -0.56529   0.40740
   0.96877  -0.56529   0.40740
   0.96877  -0.32529   0.64740
   0.96877  -0.32529   0.64740
   0.96877  -0.56529   0.64740
   0.96877  -0.56529   0.64740
   0.96877  -0.80529   0.88740
   0.96877  -0.80529   0.88740
   1.20877  -1.04529   1.12740
   0.96877  -1.04529   1.12740
   0.96877  -1.04529   1.36740
   0.96877  -1.28529   1.12740
   0.96877  -1.04529   1.36740
   0.72877  -1.04529   1.36740
   0.72877  -0.80529   1.36740
   0.48877  -0.56529   1.60740
   0.48877  -0.56529   1.60740
   0.48877  -0.32529   1.60740
   0.24877  -0.32529   1.60740
   0.24877  -0.56529   1.60740
   0.24877  -0.80529   1.60740
   0.24877  -1.04529   1.60740
   0.24877  -1.04529   1.60740
   0.24877  -1.28529   1.84740
   0.24877  -1.28529   2.08740
   0.00877  -1.28529   2.32740
   0.00877  -1.04529   2.32740
  -0.23123  -0.80529   2.32740
  -0.47123  -0.56529   2.32740
  -0.47123  -0.56529   2.32740
  -0.71123  -0.32529   2.32740
  -0.71123  -0.32529   2.08740
  -0.71123  -0.32529   2.08740
  -0.95123  -0.32529   2.08740
  -0.95123  -0.32529   2.08740
  -0.95123  -0.32529   2.08740
  -0.95123  -0.32529   2.32740
  -0.95123  -0.56529   2.32740
  -0.95123  -0.56529   2.56740
  -0.95123  -0.56529   2.56740
  -1.19123  -0.56529   2.79740
  -1.19123  -0.32529   2.56740
  -1.19123  -0.32529   2.56740
  -1.19123  -0.08529   2.56740
  -1.19123  -0.08529   2.56740
  -1.19123   0.15471   2.32740
  -1.19123   0.15471   2.32740
  -1.19123   0.15471   2.32740
  -1.19123   0.39471   2.08740
  -1.19123   0.39471   2.08740
  -1.19123   0.15471   2.08740
  -1.43123   0.15471   2.08740
  -1.19123   0.15471   2.08740
  -1.19123   0.15471   2.08740
  -1.19123   0.15471   2.32740
  -0.95123   0.15471   2.32740
  -0.95123   0.15471   2.32740
  -0.71123   0.15471   2.08740
  -0.71123   0.39471   2.08740
  -0.71123   0.39471   2.08740
  -0.71123   0.63471   2.08740
  -0.95123   0.87471   1.84740
  -0.95123   1.11471   1.84740
  -0.95123   1.11471   1.60740
  -0.95123   1.35471   1.60740
  -0.95123   1.11471   1.36740
  -0.71123   1.11471   1.36740
  -0.47123   0.87471   1.12740
  -0.47123   0.63471   1.12740
  -0.23123   0.39471   1.12740
  -0.23123   0.39471   1.12740
  -0.23123   0.39471   1.12740
  -0.23123   0.39471   1.36740
  -0.23123   0.63471   1.36740
  -0.47123   0.63471   1.36740
  -0.47123   0.87471   1.36740
  -0.23123   0.87471   1.36740
  -0.23123   0.87471   1.12740
  -0.23123   0.87471   1.12740
  -0.23123   0.87471   0.88740
  -0.23123   0.63471   0.88740
  -0.23123   0.63471   0.64740
  -0.23123   0.39471   0.64740
  -0.23123   0.15471   0.40740
