********************************************************************************
              CENTRO DE INSTRUMENTACION Y REGISTRO SISMICO  A.C.

    Anaxagoras 814, Col. Narvarte, Benito Juarez, C.P. 03020 Mexico, D.F.
           Tels. 5687 45 42/ 5687 45  82             Fax. 5669 25 12
********************************************************************************
ARCHIVO ESTANDAR DE ACELERACION:
VERSION DEL FORMATO                    : 2.0
NOMBRE DEL ARCHIVO                     : AL0120140707112358
FECHA Y HORA DE CREACION               : 07/JUL/14, 11:47
REF. CATALOGO ACELEROGRAMAS, SMIS 1996 : REGISTRO No.     /PAG.


================================================================================
DATOS DE LA ESTACION:
NOMBRE DE LA ESTACION                  : ALAMEDA
CLAVE DE LA ESTACION                   : AL01
LOCALIZACION DE LA ESTACION            : Del. Cuauhtémoc, Col. Centro,          
                                       : Dr. Mora entre Av. Hidalgo             
                                       : y Av. Juárez.                          
                                       :                                        
                                       : 
COORDENADAS DE LA ESTACION             : 19.4356 LAT. N
                                       : 99.1453 LONG. W
ALTITUD (msnm)                         : 2232
TIPO DE SUELO                          : Terreno blando, material compresible
                                       : (arcillas)                
                                       : 
INSTITUCION RESPONSABLE                : CIRES
                                       : 

================================================================================
DATOS DEL ACELEROGRAFO:
MODELO DEL ACELEROGRAFO                : RADESD
NUMERO DE SERIE DEL ACELEROGRAFO       : 152
NUMERO DE CANALES                      : 3
ORIENTACION C1-C6 (rumbo;orientacion)  : /S00E/+V/N90W
ORIENTACION C7-C12 (rumbo;orientacion) : 
VEL. DE MUESTREO, C1-C6 (muestras/s)   : /100/100/100
VEL. DE MUESTREO, C7-C12 (muestras/s)  : 
ESC. COMPLETA DE SENSORES, C1-C6, (g)  : /0.5/0.5/0.5
ESC. COMPLETA DE SENSORES, C7-C12, (g) : 
FREC. NAT. DE SENSORES, C1-C6, (Hz)    : /51.29/51.09/53.75
FREC. NAT. DE SENSORES, C7-C12, (Hz)   : 
AMORTIGUAMIENTO DE SENSORES, C1-C6     : /0.5519/0.5670/0.5810
AMORTIGUAMIENTO DE SENSORES, C7-C12    : 
INTERVALO DE MUESTREO, C1-C6, (s)      : /0.01/0.01/0.01
INTERVALO DE MUESTREO, C7-C12, (s)     : 
UMBRAL DE DISPARO, C1-C6, (Gal)        : /0.9/1.8/0.9
UMBRAL DE DISPARO, C7-C12, (Gal)       : 
MEMORIA DE PREEVENTO (s)               : 44.0
TIEMPO DE POSEVENTO (s)                : 64.0


================================================================================
DATOS DEL SISMO:
FECHA DEL SISMO (GMT)                  : 07/JUL/14
HORA EPICENTRO (GMT)                   : 11:23:58.0
MAGNITUD(ES)                           : /Mc=6.9
COORDENADAS DEL EPICENTRO              : 14.75 LAT. N
                                       : 92.63 LONG. W
PROFUNDIDAD FOCAL (km)                 : 60
FUENTE DE LOS DATOS EPICENTRALES       : SSN
                                       : INSTITUTO DE GEOFISICA, UNAM

================================================================================
DATOS DE ESTE REGISTRO:
HORA DE LA PRIMERA MUESTRA (GMT)       : 11:27:47.00
EXACTITUD DEL TIEMPO (s)               : 0.01
DURACION DEL REGISTRO (s), C1-C6       : /250.6/250.6/250.6
DURACION DEL REGISTRO (s), C7-C12      : 
NUM. TOTAL DE MUESTRAS, C1-C6          : /25060/25060/25060
NUM. TOTAL DE MUESTRAS, C7-C12         : 
ACEL. MAX. (Gal), C1-C6                : /2.54714/0.53487/3.0025
ACEL. MAX., C1-C6, EN LA MUESTRA       : /10142/6157/9535
ACEL. MAX. (Gal), C7-C12               : 
ACEL. MAX., C7-C12, EN LA MUESTRA      : 
UNIDADES DE LOS DATOS                  : Gal (cm/s/s)
FACTOR DE DECIMACION                   : 1
FORMATO DATOS (FORTRAN,10 campos/dato) : 3F10.5


================================================================================
CALIDAD DEL ACELEROGRAMA:
REGISTRO DIGITAL COMPLETO CON TIEMPO ABSOLUTO CORRECTO.


================================================================================
COMENTARIOS:














================================================================================
DATOS DE ACELERACION:
---------+---------+---------+---------+---------+---------+---------+---------+
   CANAL-1   CANAL-2   CANAL-3   CANAL-4   CANAL-5   CANAL-6   CANAL-7   CANAL-8
      S00E        +V      N90W
---------+---------+---------+---------+---------+---------+---------+---------+
[...]
   0.10805  -0.09361   1.70066
   0.19783  -0.04871   1.70066
   0.18287  -0.01879   1.77547
   0.18287  -0.04871   1.77547
   0.13798  -0.00382   1.80540
   0.21280  -0.16842   1.89518
   0.24272  -0.09361   1.95504
   0.22776  -0.09361   1.95504
   0.30258  -0.07864   1.98497
   0.33251  -0.10857   2.02986
   0.33251  -0.10857   2.19446
   0.31754  -0.10857   2.19446
   0.30258  -0.13850   2.20942
   0.34747  -0.10857   2.32913
   0.34747  -0.18339   2.29921
   0.33251  -0.12353   2.31417
   0.34747  -0.16842   2.34410
   0.37740  -0.10857   2.43388
   0.40733  -0.13850   2.43388
   0.34747  -0.15346   2.44884
   0.34747  -0.09361   2.46381
   0.39236  -0.15346   2.52366
   0.37740  -0.16842   2.52366
   0.34747  -0.13850   2.55359
   0.36243  -0.13850   2.52366
   0.36243  -0.15346   2.61344
   0.34747  -0.18339   2.65834
   0.28762  -0.10857   2.59848
   0.34747  -0.18339   2.64337
   0.28762  -0.15346   2.59848
   0.33251  -0.12353   2.61344
   0.31754  -0.16842   2.61344
   0.25769  -0.10857   2.58352
   0.28762  -0.15346   2.59848
   0.27265  -0.15346   2.59848
   0.27265  -0.18339   2.61344
   0.21280  -0.13850   2.61344
   0.22776  -0.07864   2.59848
   0.19783  -0.13850   2.52366
   0.18287  -0.10857   2.49373
   0.19783  -0.18339   2.41892
   0.18287  -0.15346   2.44884
   0.13798  -0.15346   2.32913
   0.13798  -0.15346   2.25431
   0.09309  -0.18339   2.23935
   0.10805  -0.19835   2.17950
   0.09309  -0.21332   2.14957
   0.03323  -0.19835   2.02986
   0.00330  -0.22828   1.95504
   0.00330  -0.21332   1.88022
  -0.04159  -0.31806   1.80540
  -0.01166  -0.22828   1.71562
  -0.07151  -0.19835   1.67073
  -0.11641  -0.31806   1.56598
  -0.08648  -0.24324   1.52109
  -0.11641  -0.27317   1.41634
  -0.19122  -0.36295   1.34153
  -0.19122  -0.31806   1.25174
  -0.25108  -0.31806   1.14700
  -0.28101  -0.30310   1.04225
  -0.25108  -0.33303   0.98239
  -0.28101  -0.33303   0.93750
  -0.31093  -0.25821   0.81779
  -0.34086  -0.21332   0.71305
  -0.37079  -0.10857   0.66816
  -0.43064  -0.10857   0.56341
  -0.41568  -0.13850   0.45866
  -0.47554  -0.04871   0.39881
  -0.49050  -0.03375   0.26413
  -0.50546  -0.06368   0.15939
  -0.55035  -0.01879   0.03968
  -0.56532   0.01114  -0.05010
  -0.62517   0.04107  -0.16981
  -0.69999   0.13085  -0.25960
  -0.69999   0.11589  -0.36434
  -0.72992   0.05603  -0.51398
  -0.78977   0.14581  -0.63369
  -0.80474   0.20567  -0.70851
  -0.87956   0.22063  -0.81326
  -0.87956   0.19071  -0.93297
  -0.89452   0.23560  -1.00779
  -0.96934   0.22063  -1.09757
  -0.96934   0.20567  -1.23224
  -1.01423   0.20567  -1.36692
  -0.99927   0.23560  -1.39684
  -0.99927   0.23560  -1.47166
  -1.08905   0.26552  -1.56144
  -1.14891   0.25056  -1.71108
  -1.04416   0.29545  -1.69612
  -1.14891   0.26552  -1.80086
  -1.17883   0.31042  -1.87568
  -1.16387   0.16078  -1.95050
  -1.13394   0.28049  -1.98043
  -1.10401   0.23560  -2.04028
  -1.19380   0.26552  -2.08518
  -1.19380   0.22063  -2.13007
  -1.17883   0.19071  -2.13007
  -1.07409   0.25056  -2.13007
  -1.10401   0.13085  -2.23481
  -1.10401   0.13085  -2.30963
  -1.10401   0.17574  -2.29467
  -1.10401   0.13085  -2.33956
  -1.04416   0.16078  -2.24978
  -0.95438   0.13085  -2.27971
  -0.98430   0.14581  -2.32460
  -0.93941   0.17574  -2.29467
  -0.89452   0.07100  -2.42934
  -0.89452   0.10092  -2.44431
  -0.83467   0.10092  -2.39942
  -0.72992   0.17574  -2.35452
  -0.75985   0.14581  -2.39942
  -0.71496   0.01114  -2.39942
  -0.71496   0.07100  -2.33956
  -0.62517   0.11589  -2.38445
  -0.58028   0.08596  -2.42934
  -0.59525   0.07100  -2.45927
  -0.56532   0.11589  -2.36949
  -0.55035   0.10092  -2.39942
  -0.47554   0.11589  -2.33956
  -0.47554   0.11589  -2.36949
  -0.35583   0.04107  -2.30963
  -0.34086   0.07100  -2.24978
  -0.35583  -0.01879  -2.18992
  -0.28101   0.08596  -2.17496
  -0.26604   0.04107  -2.13007
  -0.20619   0.02610  -2.04028
  -0.17626   0.01114  -1.98043
  -0.17626  -0.00382  -1.93554
  -0.02662   0.08596  -1.86072
  -0.04159  -0.06368  -1.81583
   0.04820   0.05603  -1.69612
   0.06316   0.01114  -1.65123
   0.15294   0.02610  -1.63626
   0.21280   0.05603  -1.54648
   0.16791   0.08596  -1.53152
   0.24272   0.02610  -1.42677
   0.25769   0.08596  -1.45670
   0.31754   0.05603  -1.35195
   0.34747   0.07100  -1.33699
   0.40733   0.08596  -1.29210
   0.39236   0.11589  -1.24721
   0.46718   0.13085  -1.14246
   0.48214   0.08596  -1.05268
   0.49711   0.05603  -0.99282
   0.55696   0.17574  -0.93297
   0.63178   0.19071  -0.91800
   0.60185   0.19071  -0.91800
   0.57193   0.11589  -0.84318
   0.63178   0.11589  -0.73844
   0.69164   0.16078  -0.64866
   0.75149   0.16078  -0.64866
   0.69164   0.13085  -0.60376
   0.72156   0.16078  -0.52895
   0.73653   0.13085  -0.57384
   0.75149   0.10092  -0.48405
   0.76646   0.10092  -0.43916
   0.73653   0.10092  -0.34938
   0.76646   0.14581  -0.28952
   0.78142   0.19071  -0.31945
   0.87120   0.19071  -0.13989
   0.76646   0.13085  -0.15485
   0.82631   0.10092  -0.03514
   0.76646   0.10092  -0.08003
   0.82631   0.17574   0.03968
   0.76646   0.11589   0.02471
   0.79638   0.13085   0.11450
   0.81135   0.10092   0.17435
   0.82631   0.13085   0.20428
   0.82631   0.16078   0.24917
   0.85624   0.16078   0.35392
   0.91609   0.19071   0.50355
   0.88617   0.08596   0.50355
   0.96099   0.16078   0.65319
   0.81135   0.10092   0.54845
   0.90113   0.14581   0.65319
   0.88617   0.10092   0.74297
   0.91609   0.07100   0.75794
   0.96099   0.02610   0.81779
   0.96099   0.05603   0.81779
   0.96099   0.04107   0.98239
   1.05077   0.11589   1.02729
   0.97595   0.04107   0.93750
   0.99091   0.02610   0.99736
   1.03580   0.04107   1.16196
   1.09566  -0.06368   1.11707
   1.12559  -0.07864   1.14700
   1.11062  -0.03375   1.22181
   1.08070  -0.01879   1.22181
   1.12559  -0.07864   1.29663
   1.14055  -0.04871   1.29663
   1.15551  -0.06368   1.38642
   1.17048  -0.12353   1.35649
   1.17048  -0.12353   1.41634
   1.20041  -0.01879   1.49116
   1.23033  -0.12353   1.50613
   1.23033  -0.16842   1.52109
   1.24530  -0.10857   1.56598
   1.21537  -0.13850   1.59591
   1.26026  -0.21332   1.58095
   1.35004  -0.18339   1.64080
   1.27522  -0.24324   1.67073
   1.30515  -0.15346   1.67073
   1.23033  -0.16842   1.67073
   1.26026  -0.21332   1.71562
   1.27522  -0.22828   1.71562
   1.32012  -0.24324   1.67073
   1.30515  -0.25821   1.68569
   1.30515  -0.21332   1.68569
   1.27522  -0.24324   1.67073
   1.32012  -0.25821   1.65576
   1.26026  -0.25821   1.64080
   1.29019  -0.21332   1.64080
   1.26026  -0.27317   1.55102
   1.20041  -0.22828   1.56598
   1.24530  -0.19835   1.53605
   1.21537  -0.16842   1.50613
   1.17048  -0.18339   1.46124
   1.15551  -0.18339   1.34153
   1.17048  -0.13850   1.37145
   1.09566  -0.13850   1.25174
   1.06573  -0.15346   1.25174
   0.96099  -0.13850   1.16196
   1.00588  -0.10857   1.07218
   0.88617  -0.07864   1.01232
   0.85624  -0.04871   0.93750
   0.87120  -0.06368   0.90758
   0.78142  -0.01879   0.80283
   0.70660  -0.00382   0.77290
   0.64675  -0.00382   0.60830
   0.58689   0.08596   0.62326
   0.57193   0.01114   0.53348
   0.51207   0.05603   0.41377
   0.39236   0.04107   0.30903
   0.31754  -0.04871   0.23421
   0.28762   0.02610   0.18932
   0.19783   0.02610   0.12946
   0.16791  -0.00382   0.00975
   0.09309   0.01114  -0.06507
   0.03323  -0.00382  -0.18478
  -0.10144  -0.06368  -0.28952
  -0.14633  -0.03375  -0.36434
  -0.22115  -0.01879  -0.42420
  -0.25108  -0.03375  -0.51398
  -0.26604  -0.07864  -0.55887
  -0.34086   0.01114  -0.67858
  -0.40072  -0.06368  -0.73844
  -0.46057  -0.15346  -0.82822
  -0.56532  -0.15346  -0.96289
  -0.67006  -0.21332  -1.12750
  -0.68503  -0.18339  -1.06764
  -0.69999  -0.19835  -1.15742
  -0.75985  -0.13850  -1.24721
  -0.83467  -0.22828  -1.36692
  -0.89452  -0.16842  -1.45670
  -0.98430  -0.19835  -1.59137
  -1.02920  -0.16842  -1.60634
  -1.01423  -0.22828  -1.69612
  -1.04416  -0.21332  -1.75597
  -1.13394  -0.22828  -1.78590
  -1.22372  -0.21332  -1.87568
  -1.23869  -0.24324  -1.89065
  -1.29854  -0.30310  -1.92057
  -1.37336  -0.24324  -2.01036
  -1.37336  -0.16842  -2.02532
  -1.38833  -0.28813  -2.08518
  -1.41825  -0.22828  -2.13007
  -1.49307  -0.28813  -2.18992
  -1.55293  -0.22828  -2.15999
  -1.58285  -0.21332  -2.18992
  -1.58285  -0.24324  -2.18992
  -1.59782  -0.18339  -2.20489
  -1.64271  -0.16842  -2.17496
  -1.70256  -0.25821  -2.20489
  -1.68760  -0.21332  -2.17496
  -1.67264  -0.24324  -2.15999
  -1.68760  -0.18339  -2.14503
  -1.73249  -0.16842  -2.15999
  -1.76242  -0.15346  -2.17496
  -1.73249  -0.10857  -2.11510
  -1.79235  -0.06368  -2.10014
  -1.79235  -0.13850  -2.08518
  -1.80731  -0.12353  -2.07021
  -1.80731  -0.09361  -2.05525
  -1.74746  -0.16842  -1.99539
  -1.73249  -0.07864  -1.93554
  -1.76242  -0.09361  -1.90561
  -1.74746  -0.09361  -1.81583
  -1.73249  -0.04871  -1.78590
  -1.73249  -0.03375  -1.78590
  -1.71753   0.11589  -1.69612
  -1.71753  -0.01879  -1.68115
  -1.64271   0.02610  -1.60634
  -1.64271   0.05603  -1.47166
  -1.53796   0.10092  -1.42677
  -1.62775   0.04107  -1.41181
  -1.59782   0.05603  -1.35195
  -1.59782  -0.01879  -1.20231
  -1.53796   0.10092  -1.06764
  -1.52300   0.11589  -1.02275
  -1.49307   0.11589  -0.97786
  -1.43322   0.08596  -0.85815
  -1.40329   0.08596  -0.64866
  -1.26862   0.16078  -0.57384
  -1.26862   0.08596  -0.54391
  -1.25365   0.04107  -0.43916
  -1.20876   0.14581  -0.34938
  -1.16387   0.05603  -0.24463
  -1.10401   0.16078  -0.06507
  -1.11898   0.17574   0.02471
  -1.01423   0.16078   0.15939
  -0.95438   0.11589   0.17435
  -0.89452   0.13085   0.30903
  -0.84963   0.20567   0.39881
  -0.78977   0.11589   0.50355
  -0.77481   0.22063   0.60830
  -0.67006   0.19071   0.69808
  -0.68503   0.23560   0.81779
  -0.61021   0.17574   0.92254
  -0.53539   0.22063   1.01232
  -0.47554   0.14581   1.02729
  -0.40072   0.14581   1.14700
  -0.31093   0.20567   1.29663
  -0.26604   0.32538   1.34153
  -0.32590   0.26552   1.41634
  -0.10144   0.23560   1.58095
  -0.17626   0.23560   1.67073
  -0.14633   0.29545   1.70066
  -0.01166   0.23560   1.88022
   0.06316   0.25056   1.83533
   0.03323   0.23560   1.97000
   0.15294   0.31042   2.07475
   0.13798   0.23560   2.11964
   0.22776   0.23560   2.22439
   0.33251   0.22063   2.29921
   0.28762   0.11589   2.31417
   0.33251   0.11589   2.34410
   0.39236   0.17574   2.52366
   0.42229   0.08596   2.47877
   0.40733   0.14581   2.56855
   0.48214   0.13085   2.62841
   0.49711   0.08596   2.65834
   0.54200   0.05603   2.71819
   0.58689   0.14581   2.77805
   0.58689   0.14581   2.77805
   0.66171   0.10092   2.85286
   0.64675   0.08596   2.89776
   0.67667   0.07100   3.00250
   0.70660   0.08596   2.92768
   0.78142   0.07100   3.00250
   0.75149  -0.00382   2.92768
   0.82631   0.04107   3.00250
   0.76646  -0.00382   2.91272
   0.81135   0.10092   2.92768
   0.79638   0.04107   2.89776
   0.82631   0.07100   2.91272
   0.81135   0.04107   2.82294
   0.84128   0.05603   2.83790
   0.85624   0.04107   2.82294
   0.88617   0.08596   2.74812
   0.90113   0.10092   2.71819
   0.88617   0.08596   2.64337
   0.85624   0.10092   2.49373
   0.96099   0.17574   2.52366
   0.88617   0.11589   2.37402
   0.94602   0.17574   2.26928
   0.91609   0.08596   2.13460
   0.88617   0.14581   2.10468
   0.90113   0.17574   2.04482
   0.85624   0.17574   1.92511
   0.90113   0.26552   1.89518
   0.90113   0.20567   1.68569
   0.85624   0.20567   1.56598
   0.81135   0.22063   1.38642
   0.81135   0.20567   1.35649
   0.79638   0.19071   1.22181
   0.82631   0.14581   1.08714
   0.78142   0.13085   0.99736
   0.67667   0.14581   0.78787
   0.70660   0.11589   0.68312
   0.67667   0.10092   0.56341
   0.73653   0.11589   0.47363
   0.63178   0.07100   0.26413
   0.64675   0.07100   0.24917
   0.58689   0.04107   0.06961
   0.48214   0.02610  -0.06507
   0.46718   0.07100  -0.21471
   0.52704  -0.00382  -0.25960
   0.54200   0.02610  -0.37931
   0.48214   0.01114  -0.51398
   0.45222  -0.09361  -0.69355
   0.45222  -0.06368  -0.66362
   0.39236  -0.04871  -0.81326
   0.42229  -0.01879  -0.88808
   0.42229  -0.09361  -1.02275
   0.40733  -0.10857  -1.12750
   0.31754  -0.09361  -1.20231
   0.34747  -0.13850  -1.30706
   0.36243  -0.12353  -1.33699
   0.36243  -0.09361  -1.39684
   0.34747  -0.16842  -1.50159
   0.34747  -0.16842  -1.54648
   0.30258  -0.15346  -1.68115
   0.33251  -0.21332  -1.65123
   0.36243  -0.18339  -1.74101
   0.39236  -0.16842  -1.77094
   0.39236  -0.19835  -1.80086
   0.37740  -0.24324  -1.86072
   0.37740  -0.27317  -1.90561
   0.36243  -0.21332  -1.84576
   0.37740  -0.27317  -1.92057
   0.37740  -0.24324  -1.96547
   0.40733  -0.30310  -1.99539
   0.37740  -0.28813  -2.04028
   0.40733  -0.31806  -2.11510
   0.43725  -0.24324  -2.13007
   0.43725  -0.31806  -2.13007
   0.39236  -0.22828  -2.14503
   0.39236  -0.27317  -2.17496
   0.37740  -0.30310  -2.23481
   0.40733  -0.25821  -2.18992
   0.42229  -0.28813  -2.26474
   0.43725  -0.24324  -2.24978
   0.42229  -0.19835  -2.26474
   0.43725  -0.19835  -2.21985
   0.42229  -0.21332  -2.24978
   0.43725  -0.19835  -2.24978
   0.43725  -0.16842  -2.23481
   0.45222  -0.22828  -2.17496
   0.48214  -0.16842  -2.20489
   0.46718  -0.16842  -2.17496
   0.48214  -0.13850  -2.13007
   0.48214  -0.16842  -2.10014
   0.49711  -0.09361  -2.14503
   0.49711  -0.13850  -2.05525
   0.43725  -0.09361  -2.02532
   0.48214  -0.10857  -2.01036
   0.49711  -0.07864  -2.02532
   0.45222  -0.03375  -1.90561
   0.46718  -0.06368  -1.90561
   0.43725  -0.06368  -1.86072
   0.46718  -0.07864  -1.83079
   0.43725  -0.01879  -1.81583
   0.46718   0.02610  -1.74101
   0.46718   0.04107  -1.78590
   0.43725  -0.01879  -1.69612
   0.46718  -0.03375  -1.69612
   0.42229   0.02610  -1.57641
   0.42229   0.07100  -1.51655
   0.37740  -0.01879  -1.48663
   0.39236   0.01114  -1.45670
   0.36243  -0.03375  -1.39684
   0.45222   0.08596  -1.30706
   0.31754  -0.07864  -1.30706
   0.33251  -0.01879  -1.21728
   0.33251  -0.01879  -1.11253
   0.31754  -0.03375  -1.06764
   0.27265  -0.04871  -1.05268
   0.33251  -0.07864  -0.91800
   0.28762  -0.01879  -0.91800
   0.30258  -0.03375  -0.84318
   0.28762  -0.03375  -0.78333
   0.28762  -0.07864  -0.67858
   0.31754  -0.03375  -0.51398
   0.22776  -0.04871  -0.54391
   0.24272  -0.00382  -0.40923
   0.28762   0.01114  -0.30449
   0.30258   0.01114  -0.25960
   0.25769  -0.04871  -0.18478
   0.31754  -0.03375  -0.10996
   0.25769   0.04107  -0.00521
   0.27265  -0.00382   0.05464
   0.25769  -0.00382   0.17435
   0.16791   0.04107   0.20428
   0.21280   0.02610   0.29406
   0.24272   0.07100   0.39881
   0.27265   0.04107   0.48859
   0.25769  -0.00382   0.54845
   0.19783   0.07100   0.62326
   0.16791   0.16078   0.74297
   0.12301   0.05603   0.72801
   0.21280   0.10092   0.84772
   0.06316   0.13085   0.90758
   0.04820   0.10092   0.95247
   0.01827   0.08596   1.02729
   0.03323   0.08596   1.05721
  -0.02662   0.04107   1.17692
   0.00330   0.08596   1.11707
  -0.10144   0.05603   1.17692
  -0.11641   0.02610   1.23678
  -0.11641   0.08596   1.19189
  -0.17626   0.05603   1.26671
  -0.22115  -0.00382   1.35649
  -0.25108   0.04107   1.35649
  -0.19122   0.10092   1.52109
  -0.26604   0.07100   1.37145
  -0.29597   0.07100   1.37145
