********************************************************************************
              CENTRO DE INSTRUMENTACION Y REGISTRO SISMICO  A.C.

    Anaxagoras 814, Col. Narvarte, Benito Juarez, C.P. 03020 Mexico, D.F.
           Tels. 5687 45 42/ 5687 45  82             Fax. 5669 25 12
********************************************************************************
ARCHIVO ESTANDAR DE ACELERACION:
VERSION DEL FORMATO                    : 2.0
NOMBRE DEL ARCHIVO                     : AL0120140418142723
FECHA Y HORA DE CREACION               : 13/MAY/14, 13:00
REF. CATALOGO ACELEROGRAMAS, SMIS 1996 : REGISTRO No.     /PAG.


================================================================================
DATOS DE LA ESTACION:
NOMBRE DE LA ESTACION                  : ALAMEDA
CLAVE DE LA ESTACION                   : AL01
LOCALIZACION DE LA ESTACION            : Del. Cuauhtémoc, Col. Centro,          
                                       : Dr. Mora entre Av. Hidalgo             
                                       : y Av. Juárez.                          
                                       :                                        
                                       : 
COORDENADAS DE LA ESTACION             : 19.4356 LAT. N
                                       : 99.1453 LONG. W
ALTITUD (msnm)                         : 2232
TIPO DE SUELO                          : Terreno blando, material compresible
                                       : (arcillas)                
                                       : 
INSTITUCION RESPONSABLE                : CIRES
                                       : 

================================================================================
DATOS DEL ACELEROGRAFO:
MODELO DEL ACELEROGRAFO                : RADESD
NUMERO DE SERIE DEL ACELEROGRAFO       : 152
NUMERO DE CANALES                      : 3
ORIENTACION C1-C6 (rumbo;orientacion)  : /S00E/+V/N90W
ORIENTACION C7-C12 (rumbo;orientacion) : 
VEL. DE MUESTREO, C1-C6 (muestras/s)   : /100/100/100
VEL. DE MUESTREO, C7-C12 (muestras/s)  : 
ESC. COMPLETA DE SENSORES, C1-C6, (g)  : /0.5/0.5/0.5
ESC. COMPLETA DE SENSORES, C7-C12, (g) : 
FREC. NAT. DE SENSORES, C1-C6, (Hz)    : /51.29/51.09/53.75
FREC. NAT. DE SENSORES, C7-C12, (Hz)   : 
AMORTIGUAMIENTO DE SENSORES, C1-C6     : /0.5519/0.5670/0.5810
AMORTIGUAMIENTO DE SENSORES, C7-C12    : 
INTERVALO DE MUESTREO, C1-C6, (s)      : /0.01/0.01/0.01
INTERVALO DE MUESTREO, C7-C12, (s)     : 
UMBRAL DE DISPARO, C1-C6, (Gal)        : /0.37/1.8/0.49
UMBRAL DE DISPARO, C7-C12, (Gal)       : 
MEMORIA DE PREEVENTO (s)               : 32.0
TIEMPO DE POSEVENTO (s)                : 64.0


================================================================================
DATOS DEL SISMO:
FECHA DEL SISMO (GMT)                  : 18/ABR/14
HORA EPICENTRO (GMT)                   : 14:27:23.0
MAGNITUD(ES)                           : /Mc=7.2
COORDENADAS DEL EPICENTRO              : 17.18 LAT. N
                                       : 101.19 LONG. W
PROFUNDIDAD FOCAL (km)                 : 10
FUENTE DE LOS DATOS EPICENTRALES       : SSN
                                       : INSTITUTO DE GEOFISICA, UNAM

================================================================================
DATOS DE ESTE REGISTRO:
HORA DE LA PRIMERA MUESTRA (GMT)       : 14:28:17.00
EXACTITUD DEL TIEMPO (s)               : 0.01
DURACION DEL REGISTRO (s), C1-C6       : /483.0/483.0/483.0
DURACION DEL REGISTRO (s), C7-C12      : 
NUM. TOTAL DE MUESTRAS, C1-C6          : /48300/48300/48300
NUM. TOTAL DE MUESTRAS, C7-C12         : 
ACEL. MAX. (Gal), C1-C6                : /28.94992/18.05182/37.00913
ACEL. MAX., C1-C6, EN LA MUESTRA       : /8803/9183/9417
ACEL. MAX. (Gal), C7-C12               : 
ACEL. MAX., C7-C12, EN LA MUESTRA      : 
UNIDADES DE LOS DATOS                  : Gal (cm/s/s)
FACTOR DE DECIMACION                   : 1
FORMATO DATOS (FORTRAN,10 campos/dato) : 3F10.5


================================================================================
CALIDAD DEL ACELEROGRAMA:
REGISTRO DIGITAL COMPLETO CON TIEMPO ABSOLUTO CORRECTO.


================================================================================
COMENTARIOS:














================================================================================
DATOS DE ACELERACION:
---------+---------+---------+---------+---------+---------+---------+---------+
   CANAL-1   CANAL-2   CANAL-3   CANAL-4   CANAL-5   CANAL-6   CANAL-7   CANAL-8
      S00E        +V      N90W
---------+---------+---------+---------+---------+---------+---------+---------+
[...]
  -2.19471   4.54346   1.46270
  -3.07758   5.24675   2.31563
  -3.96044   5.84530   3.19849
  -4.84330   6.41393   4.03647
  -5.63638   6.87780   4.78465
  -6.50428   7.37161   5.26349
  -7.14772   7.82052   5.77226
  -7.67145   8.20958   6.10146
  -8.01562   8.61360   6.31096
  -8.16526   8.91287   6.40074
  -8.10540   9.15229   6.10146
  -7.71634   9.36179   5.65255
  -7.14772   9.61617   4.97918
  -6.32471   9.78077   4.11128
  -5.24732   9.94537   3.07878
  -3.99037  10.00523   1.82183
  -2.62866  10.10998   0.40027
  -1.23703  10.13990  -1.18589
   0.25934  10.18479  -2.72715
   1.74075  10.21472  -4.23849
   3.14735  10.18479  -5.63012
   4.49409  10.06508  -6.82722
   5.72111   9.93041  -7.78491
   6.72369   9.66106  -8.35353
   7.68137   9.33186  -8.59295
   8.39963   9.07748  -8.51813
   9.01314   8.74827  -8.23382
   9.43213   8.43403  -7.53052
   9.61169   7.88038  -6.57284
   9.77629   7.13219  -5.30092
   9.86608   6.23436  -3.83447
   9.83615   5.21683  -2.03882
   9.79126   4.18433  -0.15339
   9.56680   3.16679   1.89665
   9.34234   2.19415   3.96165
   9.22263   1.20654   6.01168
   8.98321   0.12915   8.00186
   8.80365  -0.87342   9.91722
   8.72883  -1.95082  11.83258
   8.65401  -2.92346  13.82276
   8.68394  -3.94100  15.60345
   8.84854  -4.91364  17.18961
   9.17774  -5.79650  18.49146
   9.61169  -6.64944  19.44914
  10.03068  -7.62208  20.22725
  10.35988  -8.51991  20.72106
  10.61426  -9.46262  21.18493
  10.80879 -10.27067  21.37946
  10.89858 -10.95900  21.34954
  10.73397 -11.55755  21.14004
  10.52448 -11.97653  20.64624
  10.19528 -12.23092  19.95791
   9.79126 -12.21595  18.98526
   9.52191 -11.90172  17.98269
   9.23760 -11.45280  17.03997
   9.04307 -10.83929  16.03740
   8.66898 -10.06117  15.03483
   8.16021  -9.04364  13.94247
   7.62151  -8.05603  12.73041
   6.84340  -6.97864  11.62309
   6.18499  -5.88628  10.54570
   5.55651  -4.67422   9.70773
   4.89811  -3.32748   8.91465
   4.29956  -1.98074   8.21135
   3.61122  -0.58911   7.44820
   2.78822   0.74266   6.65512
   2.02507   2.05947   6.02665
   1.30681   3.22665   5.29342
   0.66336   4.33396   4.73976
   0.00496   5.36646   4.41056
  -0.48885   6.30918   4.26092
  -0.95272   7.08730   4.23099
  -1.41660   7.76067   4.21603
  -1.82062   8.44900   4.33574
  -2.19471   8.88295   4.56020
  -2.64363   9.24208   4.85947
  -3.06261   9.45157   5.17371
  -3.46663   9.81070   5.56277
  -3.82576   9.94537   6.01168
  -4.18490   9.99027   6.53541
  -4.67870  10.06508   7.01425
  -5.18747  10.06508   7.38835
  -5.54660   9.96034   7.67266
  -5.86084   9.85559   7.82230
  -6.19004   9.64610   7.80733
  -6.45939   9.22711   7.62777
  -6.72873   8.65849   7.32849
  -6.98312   8.03001   6.92447
  -7.26743   7.20701   6.53541
  -7.58167   6.33911   6.11643
  -7.91087   5.29164   5.74233
  -8.10540   4.25915   5.50291
  -8.15029   3.24161   5.41313
  -8.16526   2.26897   5.35328
  -8.07547   1.19157   5.41313
  -8.13533   0.03936   5.38320
  -8.07547  -1.27745   5.44306
  -7.94080  -2.63915   5.44306
  -7.94080  -3.98589   5.56277
  -8.00065  -5.27277   5.77226
  -8.24007  -6.66440   5.90694
  -8.56928  -7.90639   6.07154
  -8.91344  -9.20824   6.34088
  -9.34739 -10.39038   6.47556
  -9.82623 -11.61740   6.72994
 -10.37989 -12.88932   6.93943
 -11.06822 -14.07146   7.08907
 -11.68174 -15.20871   7.08907
 -12.53467 -16.21128   6.98433
 -13.28286 -16.94450   6.96936
 -14.22558 -17.51313   6.84965
 -15.07851 -17.84233   6.93943
 -15.93145 -18.05182   6.84965
 -16.72453 -17.90218   6.64016
 -17.44279 -17.69269   6.35585
 -18.16105 -17.06421   6.05657
 -18.78953 -16.21128   5.75730
 -19.22347 -15.11892   5.51788
 -19.47786 -14.05650   5.09889
 -19.49282 -12.84443   4.59012
 -19.43297 -11.66230   3.90179
 -19.16362 -10.37541   3.22842
 -18.81945  -9.05860   2.43534
 -18.29572  -7.57719   1.67219
 -17.74206  -5.96110   1.17839
 -17.12855  -4.31509   0.74444
 -16.44021  -2.63915   0.41524
 -15.66210  -1.05299   0.13092
 -14.94384   0.41346  -0.25813
 -14.21061   1.74523  -0.64719
 -13.44746   3.00219  -1.05121
 -12.86388   4.01973  -1.57495
 -12.40000   4.96244  -2.32313
 -11.90620   5.74056  -3.04139
 -11.33757   6.36904  -3.65491
 -10.72406   6.84788  -4.31331
  -9.87112   7.10226  -5.03157
  -8.94337   7.25190  -5.60020
  -7.68641   7.22197  -6.25860
  -6.35464   6.96759  -7.08161
  -4.75352   6.74313  -7.78491
  -3.09254   6.39896  -8.39842
  -1.34178   5.93509  -9.07179
   0.42394   5.51610  -9.59552
   2.06996   5.05222 -10.11925
   3.76086   4.57338 -10.77766
   5.39191   4.07958 -11.54081
   7.18756   3.43614 -12.42367
   8.83358   2.97226 -13.50106
  10.58434   2.40364 -14.69816
  12.29021   1.79012 -16.04490
  13.72673   1.20654 -17.66099
  15.04354   0.47331 -19.33693
  16.19575  -0.18509 -21.02783
  17.33299  -0.90335 -22.64392
  18.30564  -1.56176 -24.11037
  18.97901  -2.16031 -25.30747
  19.45785  -2.62418 -26.31004
  19.57756  -3.04317 -27.17794
  19.39799  -3.41726 -27.88124
  18.93411  -3.65668 -28.37504
  18.35053  -3.79136 -28.80899
  17.48263  -3.68661 -29.06337
  16.46509  -3.58187 -29.16812
  15.31288  -3.25266 -29.10826
  14.19060  -2.71397 -28.86884
  13.09825  -2.13038 -28.47979
  12.05078  -1.47197 -27.98598
  10.97339  -0.88839 -27.26772
  10.00075  -0.24495 -26.10055
   9.11789   0.12915 -24.96330
   8.36970   0.45835 -23.52678
   7.74122   0.74266 -22.16508
   7.26238   0.83244 -20.74352
   6.87332   0.81748 -19.17233
   6.63390   0.93719 -17.60113
   6.43937   0.84741 -16.08979
   6.37952   0.77259 -14.77298
   6.43937   0.59302 -13.38135
   6.52916   0.48828 -12.19921
   6.70872   0.36857 -11.21161
   6.94814   0.26382 -10.31378
   7.36713   0.21893  -9.41596
   7.60655   0.33864  -8.75755
   7.98064   0.41346  -7.79987
   8.32481   0.66784  -6.75241
   8.35474   0.87734  -5.77976
   8.44452   1.01201  -4.62755
   8.13028   1.11676  -3.65491
   7.92079   1.14668  -2.83190
   7.92079   1.22150  -2.30817
   8.04050   1.14668  -1.84429
   8.08539   0.96712  -1.53005
   8.13028   0.75763  -1.18589
   7.93575   0.54813  -0.76690
   7.66640   0.30871  -0.22821
   7.29231  -0.02049   0.40027
   6.84340  -0.37962   1.07364
   6.40945  -0.76868   1.76197
   5.88572  -1.05299   2.39045
   5.43680  -1.17270   2.82440
   5.21235  -1.06795   3.13864
   5.00285  -0.85846   3.22842
   5.09264  -0.61904   3.15360
   5.21235  -0.21502   2.83936
   5.43680   0.23389   2.36052
   5.64630   0.71273   1.70212
   5.84082   1.26639   1.10357
   6.03535   1.71531   0.44516
   6.08024   2.10436  -0.09353
   6.25981   2.46349  -0.58734
   6.31966   2.67299  -1.12603
   6.36456   2.70291  -1.64976
   6.39448   2.61313  -2.17350
   6.43937   2.40364  -2.69723
   6.43937   1.99962  -3.35563
   6.48427   1.71531  -3.84944
   6.40945   1.44596  -4.31331
   6.33463   1.23647  -4.68741
   6.18499   1.11676  -4.95675
   5.88572   1.04194  -4.97172
   5.34702   1.07186  -4.79215
   4.47912   1.05690  -4.40310
   3.46159   1.17661  -3.90929
   2.17470   1.19157  -3.49031
   0.76811   1.17661  -3.04139
  -0.83301   1.05690  -2.74212
  -2.52392   0.84741  -2.15853
  -4.12504   0.69777  -1.33552
  -5.51667   0.48828  -0.28806
  -6.63895   0.20397   0.92400
  -7.73131  -0.11027   2.10614
  -8.89848  -0.49933   3.16857
 -10.03573  -0.73875   4.26092
 -11.21786  -0.99313   5.47299
 -12.38504  -1.05299   6.86462
 -13.49235  -0.96321   8.22632
 -14.56974  -0.66393   9.55809
 -15.42268  -0.42451  10.94972
 -16.24569  -0.17013  12.41617
 -16.94898   0.18900  13.89758
 -17.51761   0.48828  15.42389
 -17.96652   0.72770  16.93523
 -18.37054   1.02697  18.44657
 -18.66982   1.29632  19.73345
 -19.02895   1.53574  20.93055
 -19.19355   1.77516  22.03787
 -19.31326   2.04451  22.98059
 -19.37311   2.37371  23.92330
 -19.40304   2.65802  24.83609
 -19.41800   3.00219  25.88356
 -19.43297   3.34636  26.84124
 -19.38808   3.66059  27.78395
 -19.25340   3.87009  28.68178
 -19.08880   3.92994  29.38508
 -18.78953   3.94491  29.90881
 -18.44536   3.75038  30.20808
 -18.01141   3.46607  30.31283
 -17.48768   3.24161  30.20808
 -16.79935   2.94233  29.95370
 -16.06612   2.64306  29.50479
 -15.12340   2.34378  29.11573
 -14.06098   2.01458  28.68178
 -12.89380   1.68538  28.21790
 -11.59196   1.35618  27.78395
 -10.18536   1.11676  27.18540
  -8.68899   0.89230  26.55692
  -7.10283   0.71273  25.86859
  -5.36703   0.60799  25.25508
  -3.54145   0.59302  24.53682
  -1.74580   0.50324  23.78863
   0.25934   0.35360  23.02548
   2.30938   0.00944  22.18751
   4.29956  -0.33473  21.30464
   6.08024  -0.60408  20.45171
   7.89086  -1.02306  19.53892
   9.62666  -1.38219  18.67102
  11.25771  -1.62161  17.81809
  12.81394  -1.72636  16.96515
  14.32528  -1.93585  16.17207
  15.83662  -2.08549  15.45381
  17.21328  -2.23513  14.72059
  18.48520  -2.32491  14.10708
  19.66734  -2.48951  13.37385
  20.66991  -2.47455  12.71545
  21.53781  -2.36980  12.07200
  22.31592  -2.17527  11.50338
  23.06411  -1.93585  11.06943
  23.73748  -1.78621  10.77016
  24.24625  -1.54679  10.51577
  24.62034  -1.06795  10.44095
  24.69516  -0.67890  10.38110
  24.41085  -0.11027  10.24643
  23.91705   0.36857  10.12672
  23.30353   0.75763   9.93219
  22.57031   1.02697   9.70773
  21.64256   1.14668   9.25882
  20.68487   1.23647   8.77998
  19.51770   1.20654   8.10661
  18.32060   1.22150   7.28360
  17.04868   1.13172   6.26607
  15.74683   1.19157   5.12882
  14.44499   1.23647   3.96165
  13.18803   1.35618   2.74958
  11.85626   1.31128   1.56744
  10.59930   1.38610   0.44516
   9.23760   1.46092  -0.84172
   7.89086   1.47589  -2.00889
   6.52916   1.71531  -3.37060
   5.13753   1.87991  -4.82208
   3.76086   1.99962  -6.12393
   2.45901   2.05947  -7.44074
   1.23199   1.92480  -8.63784
   0.04985   1.80509  -9.71523
  -0.98265   1.55070 -10.52327
  -1.95529   1.28136 -11.13679
  -2.91298   0.93719 -11.66052
  -3.94547   0.68281 -12.09447
  -5.05279   0.48828 -12.54338
  -6.16011   0.26382 -12.88755
  -7.35721   0.00944 -13.11200
  -8.49446  -0.11027 -13.09704
  -9.66163  -0.22998 -12.87258
 -10.69413  -0.28984 -12.55835
 -11.44232  -0.27487 -12.18425
 -11.78649  -0.43948 -11.98972
 -11.75656  -0.72379 -12.13936
 -11.45728  -1.17270 -12.60324
 -11.02333  -1.74132 -13.36639
 -10.60435  -2.17527 -14.26421
 -10.09558  -2.56433 -15.52117
  -9.52696  -2.83368 -17.01755
  -8.88352  -3.04317 -18.57378
  -8.18022  -3.20777 -20.13001
  -7.46196  -3.28259 -21.64135
  -6.74370  -3.20777 -23.37714
  -6.14515  -3.26763 -25.30747
  -5.53163  -3.28259 -27.31261
  -4.97797  -3.25266 -29.21301
  -4.48417  -3.28259 -31.00866
  -4.12504  -3.29755 -32.54993
  -3.73598  -3.28259 -33.92660
  -3.40678  -3.34244 -35.03391
  -3.21225  -3.35741 -35.90181
  -3.07758  -3.25266 -36.50036
  -3.04765  -3.14792 -36.82956
  -3.16736  -3.02821 -37.00913
  -3.51153  -2.84864 -36.91935
  -3.81080  -2.53440 -36.70985
  -4.19986  -2.25009 -36.33576
  -4.60388  -2.02563 -35.91678
  -4.94805  -1.77125 -35.36312
  -5.24732  -1.54679 -34.64486
  -5.63638  -1.30737 -33.77696
  -6.04040  -1.08292 -32.72949
  -6.48931  -0.82853 -31.51743
  -7.10283  -0.37962 -30.26047
  -7.68641   0.03936 -28.79403
  -8.38971   0.54813 -27.31261
  -8.98826   0.98208 -25.62171
  -9.66163   1.41603 -23.87095
 -10.20033   1.90983 -22.07530
 -10.78391   2.26897 -20.26468
 -11.32261   2.68795 -18.49896
 -11.80145   3.12190 -16.74820
 -12.17554   3.55585 -15.05729
 -12.29525   4.03469 -13.63574
 -12.40000   4.39382 -12.43864
 -12.34014   4.57338 -11.33132
 -12.31022   4.55842 -10.22400
 -12.05583   4.37886  -8.90719
 -11.56203   4.30404  -7.59038
 -10.88866   3.98980  -6.19875
 -10.18536   3.72045  -4.94179
  -9.30250   3.48103  -3.86440
  -8.22511   3.31643  -2.87679
  -6.81852   3.13686  -2.06875
  -5.17250   2.97226  -1.45523
  -3.52649   2.74781  -1.18589
  -1.97026   2.46349  -1.06618
  -0.41403   2.20911  -1.05121
   1.09731   1.96969  -1.02129
   2.65354   1.59560  -0.93150
   4.26963   1.29632  -0.85668
   5.87075   1.05690  -1.00632
   7.56166   0.78755  -1.24574
   9.11789   0.41346  -1.45523
  10.58434   0.06929  -1.55998
  11.90115  -0.39458  -1.58991
  13.08328  -0.72379  -1.39538
  14.08586  -1.09788  -1.11107
  14.86397  -1.38219  -0.64719
  15.53734  -1.60665   0.13092
  16.01618  -1.81614   1.13350
  16.31546  -1.92089   2.12110
  16.52495  -2.01067   3.27331
  16.62970  -2.14534   4.50034
  16.56984  -2.16031   5.80219
  16.30049  -2.22016   7.01425
  15.88151  -2.14534   8.28617
  15.53734  -1.84607   9.36356
  15.08843  -1.30737  10.17161
  14.37017  -0.64897  10.75519
  13.54716  -0.15516  11.18914
  12.55955   0.35360  11.42856
  11.81136   0.65288  11.51835
  11.10807   0.87734  11.66798
  10.34492   1.07186  11.89244
   9.73140   1.19157  12.28150
   8.99818   1.29632  12.62566
   8.41459   1.50581  12.93990
   7.83100   1.61056  13.05961
   7.26238   1.59560  13.07458
   6.87332   1.43099  12.98479
   6.58901   1.14668  12.68552
   6.54412   0.72770  12.44610
   6.40945   0.18900  12.26653
   6.30470  -0.21502  12.19171
   6.17003  -0.76868  12.11690
   6.11017  -1.29241  12.17675
   6.05032  -1.86103  12.38624
   5.88572  -2.47455  12.49099
   5.60140  -2.99828  12.70048
   5.34702  -3.64172  12.83516
   5.04775  -4.25523  12.93990
   4.94300  -5.12313  13.20925
   5.00285  -5.85636  13.41874
   5.19738  -6.48483  13.67313
   5.57148  -6.94871  13.95744
   6.00543  -7.24799  14.21182
   6.66383  -7.27791  14.61584
   7.33720  -7.21806  15.04979
   8.01057  -7.03849  15.30418
   8.71387  -6.73922  15.30418
   9.47702  -6.36512  15.24432
  10.30003  -6.00599  14.98994
  11.09310  -5.46730  14.57095
  11.94604  -5.01839  14.21182
  12.81394  -4.46473  13.67313
  13.56212  -3.82129  13.22421
  14.34024  -3.19281  12.73041
  15.08843  -2.51944  12.25157
  15.79173  -1.77125  11.87748
  16.37531  -1.18766  11.66798
  16.73444  -0.54422  11.71287
  16.92897   0.21893  12.10193
  16.85415   0.87734  12.62566
  16.61473   1.47589  13.16436
  16.24064   1.99962  13.89758
  15.79173   2.52335  14.78045
  15.13332   2.80766  15.75309
  14.32528   3.13686  16.74070
  13.50227   3.24161  17.86298
  12.39495   3.40621  18.95533
  11.19785   3.52592  20.01776
   9.86608   3.55585  21.03530
   8.39963   3.61570  22.02291
   6.85836   3.67556  22.95066
   5.22731   3.85512  23.81856
   3.55137   3.87009  24.41711
   1.77068   3.88505  24.73135
  -0.18957   3.95987  24.77624
  -2.20968   4.03469  24.73135
  -4.31957   4.19929  24.40214
  -6.51924   4.25915  23.86345
  -8.55431   4.30404  23.26490
 -10.54449   4.30404  22.62146
 -12.35511   4.34893  21.84334
 -13.97119   4.25915  20.97544
 -15.58728   4.16936  19.92798
 -17.14351   4.15440  18.88052
 -18.65485   4.04965  17.74327
 -20.19612   3.82520  16.63595
 -21.55782   3.69052  15.69323
 -22.78485   3.40621  14.91512
 -23.83231   3.04708  14.15197
 -24.74510   2.64306  13.38882
 -25.55314   2.25400  12.71545
 -26.28637   1.82005  12.07200
 -27.03456   1.43099  11.48842
 -27.52836   0.95215  10.83001
 -27.84260   0.59302  10.06686
 -28.11195  -0.09531   9.21393
 -28.42619  -0.70882   8.22632
 -28.66561  -1.50190   7.04418
 -28.74043  -2.44462   5.62262
 -28.65064  -3.17784   4.03647
 -28.42619  -3.82129   2.27074
 -28.05209  -4.44976   0.51998
 -27.54332  -5.09320  -1.23078
 -26.81010  -5.67679  -2.98154
 -25.95717  -6.26038  -4.62755
 -24.89474  -6.67936  -6.15386
 -23.72757  -7.20310  -7.71009
 -22.47061  -7.59215  -9.20646
 -21.19869  -7.84654 -10.55320
