********************************************************************************
               CENTRO DE INSTRUMENTACION Y REGISTRO SISMICO  A.C.  
                       Coordinacion de Servicios Tecnicos
     Anaxagoras 814, Col. Narvarte, Benito Juarez, C.P. 03020 Mexico, D.F.
            Tels. 667 45 42/ 687 45  82             Fax. 669 25 12
********************************************************************************
ARCHIVO ESTANDAR DE ACELERACION:
VERSION DEL FORMATO                    : 2.0
NOMBRE DEL ARCHIVO                     : AL019602.251
FECHA Y HORA DE CREACION               : 27/MAR/98, 3:55
REF. CATALOGO ACELEROGRAMAS, SMIS 1996 : REGISTRO No.     /PAG.


================================================================================
DATOS DE LA ESTACION:
NOMBRE DE LA ESTACION                  : ALAMEDA
CLAVE DE LA ESTACION                   : AL01
LOCALIZACION DE LA ESTACION            : JARDIN ALAMEDA ENTRE AV. HIDALGO Y AV.
                                       : JUAREZ, CENTRO
                                       :
                                       :
                                       :
COORDENADAS DE LA ESTACION             : 19.436 LAT. N 
                                       : 99.145 LONG. W 
ALTITUD (msnm)                         : 2232
TIPO DE SUELO                          : TERRENO BLANDO, MATERIAL COMPRESIBLE
                                       : (ARCILLAS)
                                       : 
INSTITUCION RESPONSABLE                : CIRES 
                                       :

================================================================================
DATOS DEL ACELEROGRAFO:
MODELO DEL ACELEROGRAFO                : SSA-1
NUMERO DE SERIE DEL ACELEROGRAFO       : 152
NUMERO DE CANALES                      : 3
ORIENTACION C1-C6 (rumbo;orientacion)  : /N00E/+V/N90E
ORIENTACION C7-C12 (rumbo;orientacion) :
VEL. DE MUESTREO, C1-C6 (muestras/s)   : /200/200/200
VEL. DE MUESTREO, C7-C12 (muestras/s)  :
ESC. COMPLETA DE SENSORES, C1-C6, (g)  : /2/2/2
ESC. COMPLETA DE SENSORES, C7-C12, (g) :
FREC. NAT. DE SENSORES, C1-C6, (Hz)    : /51.29/51.09/53.75
FREC. NAT. DE SENSORES, C7-C12, (Hz)   :
AMORTIGUAMIENTO DE SENSORES, C1-C6     : /0.5519/0.5670/0.5810
AMORTIGUAMIENTO DE SENSORES, C7-C12    :
INTERVALO DE MUESTREO, C1-C6, (s)      : /0.005/0.005/0.005
INTERVALO DE MUESTREO, C7-C12, (s)     : 
UMBRAL DE DISPARO, C1-C6, (Gal)        : /2/1.5/2
UMBRAL DE DISPARO, C7-C12, (Gal)       :
MEMORIA DE PREEVENTO (s)               : 15
TIEMPO DE POSEVENTO (s)                : 60


================================================================================
DATOS DEL SISMO:
FECHA DEL SISMO (GMT)                  : 25/FEB/96
HORA EPICENTRO (GMT)                   : 03:08:13:8
MAGNITUD(ES)                           : /Ms=6.9
COORDENADAS DEL EPICENTRO              : 15.83 LAT. N
                                       : 98.25 LONG. W
PROFUNDIDAD FOCAL (km)                 : 3.0
FUENTE DE LOS DATOS EPICENTRALES       : SSN
                                       : INSTITUTO DE GEOFISICA, UNAM

================================================================================
DATOS DE ESTE REGISTRO:
HORA DE LA PRIMERA MUESTRA (GMT)       : 03:10:06.00
EXACTITUD DEL TIEMPO (s)               :     
DURACION DEL REGISTRO (s), C1-C6       : /154.88/154.88/154.88
DURACION DEL REGISTRO (s), C7-C12      :
NUM. TOTAL DE MUESTRAS, C1-C6          : /30976/30976/30976
NUM. TOTAL DE MUESTRAS, C7-C12         :
ACEL. MAX. (Gal), C1-C6                : /4.64819/1.78015/5.54574
ACEL. MAX., C1-C6, EN LA MUESTRA       :
ACEL. MAX. (Gal), C7-C12               :
ACEL. MAX., C7-C12, EN LA MUESTRA      :
UNIDADES DE LOS DATOS                  : Gal (cm/s/s)
FACTOR DE DECIMACION                   : 1
FORMATO DATOS (FORTRAN,10 campos/dato) : 3F10.5


================================================================================
CALIDAD DEL ACELEROGRAMA:
REGISTRO DIGITAL COMPLETO, CARECE DE TIEMPO ABSOLUTO.


================================================================================
COMENTARIOS:














================================================================================
DATOS DE ACELERACION:
---------+---------+---------+---------+---------+---------+---------+---------+
   CANAL-1   CANAL-2   CANAL-3   CANAL-4   CANAL-5   CANAL-6   CANAL-7   CANAL-8
      N00E        +V      N90E
---------+---------+---------+---------+---------+---------+---------+---------+
[...]
  -1.05819   0.10015  -3.15574
  -1.05819   0.10015  -3.15574
  -1.05819   0.10015  -3.15574
  -1.05819   0.10015  -3.15574
  -1.05819   0.10015  -3.15574
  -1.29819   0.10015  -3.15574
  -1.29819   0.10015  -3.15574
  -1.53819  -0.13985  -3.15574
  -1.53819   0.10015  -3.15574
  -1.53819   0.10015  -2.91574
  -1.53819   0.10015  -2.91574
  -1.53819  -0.13985  -2.91574
  -1.53819   0.10015  -2.91574
  -1.53819   0.10015  -2.91574
  -1.77819   0.10015  -2.91574
  -1.77819  -0.13985  -3.15574
  -1.77819   0.10015  -2.91574
  -1.77819   0.10015  -2.91574
  -1.77819   0.10015  -2.67574
  -1.77819   0.10015  -2.91574
  -2.01819   0.10015  -2.67574
  -2.01819   0.10015  -2.91574
  -2.01819   0.10015  -2.67574
  -2.01819   0.10015  -2.67574
  -2.01819   0.10015  -2.67574
  -2.01819   0.10015  -2.67574
  -2.01819   0.10015  -2.67574
  -2.01819   0.10015  -2.67574
  -2.01819   0.10015  -2.67574
  -2.01819   0.10015  -2.67574
  -2.01819   0.10015  -2.43574
  -2.01819   0.10015  -2.43574
  -2.01819   0.10015  -2.43574
  -2.01819   0.10015  -2.43574
  -1.77819   0.10015  -2.43574
  -2.01819   0.10015  -2.43574
  -1.77819   0.10015  -2.43574
  -1.77819   0.10015  -2.19574
  -1.77819   0.10015  -2.19574
  -1.77819   0.10015  -2.19574
  -1.77819   0.10015  -2.19574
  -1.77819   0.10015  -2.19574
  -1.77819   0.10015  -2.19574
  -1.77819   0.10015  -2.19574
  -1.77819   0.10015  -1.95574
  -1.53819   0.10015  -1.95574
  -1.53819   0.10015  -1.95574
  -1.53819   0.10015  -1.95574
  -1.53819   0.10015  -1.95574
  -1.53819   0.10015  -1.71574
  -1.53819   0.10015  -1.71574
  -1.53819   0.10015  -1.71574
  -1.53819   0.10015  -1.47574
  -1.53819   0.10015  -1.47574
  -1.53819   0.10015  -1.47574
  -1.53819   0.10015  -1.71574
  -1.29819   0.10015  -1.47574
  -1.29819   0.10015  -1.23574
  -1.29819   0.10015  -1.23574
  -1.29819   0.10015  -0.99574
  -1.29819   0.10015  -0.99574
  -1.29819   0.10015  -0.99574
  -1.29819   0.34015  -0.99574
  -1.29819   0.34015  -0.75574
  -1.29819   0.34015  -0.75574
  -1.29819   0.34015  -0.75574
  -1.29819   0.34015  -0.75574
  -1.29819   0.34015  -0.51574
  -1.29819   0.34015  -0.51574
  -1.29819   0.34015  -0.51574
  -1.29819   0.34015  -0.28574
  -1.29819   0.34015  -0.28574
  -1.29819   0.34015  -0.28574
  -1.29819   0.10015  -0.04574
  -1.53819   0.10015  -0.04574
  -1.53819   0.10015  -0.04574
  -1.53819   0.10015  -0.04574
  -1.53819   0.10015   0.19426
  -1.53819   0.10015   0.19426
  -1.53819   0.10015   0.19426
  -1.53819   0.10015   0.43426
  -1.53819   0.10015   0.43426
  -1.53819  -0.13985   0.43426
  -1.53819   0.10015   0.67426
  -1.53819   0.10015   0.67426
  -1.53819   0.10015   0.91426
  -1.53819   0.10015   0.91426
  -1.53819   0.10015   0.91426
  -1.53819   0.10015   0.91426
  -1.53819   0.10015   0.91426
  -1.53819   0.10015   1.15426
  -1.53819   0.10015   1.15426
  -1.53819   0.10015   1.39426
  -1.53819   0.10015   1.39426
  -1.53819   0.10015   1.39426
  -1.53819   0.10015   1.39426
  -1.53819   0.10015   1.63426
  -1.53819   0.10015   1.63426
  -1.53819   0.10015   1.87426
  -1.53819   0.34015   1.63426
  -1.53819   0.10015   1.87426
  -1.53819   0.10015   1.87426
  -1.53819   0.10015   1.87426
  -1.53819   0.10015   1.87426
  -1.29819   0.10015   2.11426
  -1.29819   0.10015   2.11426
  -1.29819   0.10015   2.11426
  -1.29819   0.10015   2.11426
  -1.29819   0.10015   2.35426
  -1.05819   0.10015   2.35426
  -1.05819   0.10015   2.35426
  -1.05819   0.10015   2.35426
  -1.05819   0.10015   2.35426
  -1.05819   0.10015   2.59426
  -0.81819   0.10015   2.83426
  -0.81819   0.10015   2.83426
  -0.81819   0.10015   2.83426
  -0.81819   0.10015   2.83426
  -0.57819   0.10015   3.07426
  -0.57819   0.10015   3.07426
  -0.57819   0.10015   3.07426
  -0.57819  -0.13985   3.31426
  -0.57819   0.10015   3.31426
  -0.57819  -0.13985   3.31426
  -0.33819  -0.13985   3.31426
  -0.33819  -0.13985   3.55426
  -0.33819  -0.13985   3.55426
  -0.09819  -0.13985   3.55426
  -0.09819  -0.13985   3.55426
  -0.09819  -0.13985   3.79426
  -0.09819  -0.13985   3.79426
  -0.09819  -0.13985   4.03426
  -0.09819  -0.13985   4.03426
  -0.09819  -0.13985   4.03426
  -0.09819  -0.13985   4.03426
   0.14181  -0.13985   4.03426
   0.14181  -0.13985   4.27426
   0.14181  -0.13985   4.27426
   0.38181  -0.13985   4.27426
   0.38181  -0.13985   4.27426
   0.38181  -0.13985   4.27426
   0.38181  -0.13985   4.51426
   0.38181  -0.13985   4.51426
   0.38181  -0.13985   4.51426
   0.38181  -0.13985   4.51426
   0.38181  -0.13985   4.51426
   0.38181  -0.13985   4.74426
   0.62181  -0.13985   4.74426
   0.62181  -0.37985   4.74426
   0.62181  -0.13985   4.74426
   0.62181  -0.13985   4.74426
   0.62181  -0.13985   4.74426
   0.62181  -0.13985   4.74426
   0.62181  -0.13985   4.74426
   0.86181  -0.13985   4.98426
   0.86181  -0.13985   4.98426
   0.86181  -0.37985   4.98426
   0.86181  -0.37985   4.74426
   0.86181  -0.37985   4.74426
   0.86181  -0.37985   4.74426
   0.86181  -0.37985   4.74426
   0.86181  -0.37985   4.74426
   1.10181  -0.37985   4.51426
   0.86181  -0.37985   4.74426
   1.10181  -0.37985   4.74426
   1.10181  -0.37985   4.74426
   1.10181  -0.37985   4.74426
   1.10181  -0.37985   4.74426
   1.34181  -0.37985   4.74426
   1.34181  -0.37985   4.74426
   1.34181  -0.37985   4.74426
   1.34181  -0.37985   4.74426
   1.34181  -0.37985   4.74426
   1.34181  -0.37985   4.51426
   1.34181  -0.37985   4.51426
   1.34181  -0.37985   4.51426
   1.58181  -0.37985   4.51426
   1.58181  -0.37985   4.27426
   1.58181  -0.37985   4.27426
   1.58181  -0.37985   4.27426
   1.58181  -0.37985   4.27426
   1.58181  -0.37985   4.03426
   1.58181  -0.37985   3.79426
   1.82181  -0.37985   4.03426
   1.82181  -0.37985   4.03426
   1.82181  -0.37985   3.79426
   1.82181  -0.37985   3.79426
   1.82181  -0.37985   3.79426
   1.82181  -0.37985   3.79426
   1.82181  -0.37985   3.55426
   1.82181  -0.37985   3.55426
   1.82181  -0.37985   3.31426
   1.82181  -0.37985   3.31426
   2.06181  -0.37985   3.31426
   1.82181  -0.13985   3.31426
   2.06181  -0.13985   3.07426
   2.06181  -0.13985   3.07426
   2.06181  -0.13985   3.07426
   2.06181  -0.13985   2.83426
   2.06181  -0.13985   2.83426
   2.06181  -0.13985   2.83426
   2.06181  -0.13985   2.83426
   1.82181  -0.13985   2.59426
   2.06181  -0.13985   2.59426
   2.06181   0.10015   2.59426
   2.06181   0.10015   2.35426
   2.06181   0.10015   2.35426
   2.06181   0.10015   2.35426
   1.82181   0.10015   2.35426
   1.82181   0.10015   2.35426
   1.82181   0.10015   2.11426
   1.82181   0.10015   2.11426
   1.82181   0.10015   2.11426
   1.82181   0.10015   1.87426
   1.82181   0.10015   1.87426
   1.82181   0.10015   1.87426
   1.82181   0.10015   1.87426
   1.82181   0.10015   1.87426
   1.82181   0.10015   1.87426
   1.82181   0.10015   1.87426
   1.82181   0.10015   1.87426
   1.82181   0.10015   1.63426
   1.82181   0.10015   1.87426
   1.58181   0.10015   1.63426
   1.58181   0.10015   1.63426
   1.58181   0.10015   1.63426
   1.58181   0.10015   1.63426
   1.58181   0.10015   1.63426
   1.58181   0.10015   1.63426
   1.58181   0.10015   1.39426
   1.58181   0.34015   1.39426
   1.58181   0.10015   1.39426
   1.58181   0.34015   1.39426
   1.58181   0.10015   1.39426
   1.58181   0.34015   1.15426
   1.58181   0.10015   1.15426
   1.58181   0.10015   1.15426
   1.58181   0.10015   1.15426
   1.58181   0.10015   0.91426
   1.58181   0.10015   0.91426
   1.34181   0.10015   0.91426
   1.58181   0.10015   0.91426
   1.58181   0.10015   0.67426
   1.58181   0.10015   0.67426
   1.34181   0.10015   0.67426
   1.34181   0.10015   0.43426
   1.34181   0.10015   0.43426
   1.34181   0.10015   0.43426
   1.34181   0.10015   0.19426
   1.34181   0.10015   0.19426
   1.34181   0.10015  -0.04574
   1.34181   0.10015  -0.04574
   1.34181   0.10015  -0.04574
   1.34181   0.10015  -0.28574
   1.34181   0.10015  -0.28574
   1.34181   0.10015  -0.28574
   1.34181   0.10015  -0.51574
   1.34181   0.10015  -0.51574
   1.34181   0.10015  -0.51574
   1.34181  -0.13985  -0.75574
   1.34181  -0.13985  -0.99574
   1.10181   0.10015  -0.99574
   1.10181   0.10015  -0.99574
   1.10181   0.10015  -1.23574
   1.10181   0.10015  -1.23574
   1.10181   0.10015  -1.23574
   1.10181   0.10015  -1.47574
   1.10181   0.10015  -1.47574
   0.86181   0.10015  -1.71574
   0.86181   0.10015  -1.71574
   0.86181   0.10015  -1.71574
   0.86181   0.10015  -1.95574
   0.86181  -0.13985  -1.95574
   0.86181  -0.13985  -2.19574
   0.86181   0.10015  -2.19574
   0.86181   0.10015  -2.19574
   0.86181   0.10015  -2.19574
   0.86181   0.10015  -2.43574
   0.62181   0.10015  -2.43574
   0.62181   0.10015  -2.43574
   0.62181   0.10015  -2.43574
   0.62181   0.10015  -2.43574
   0.62181   0.10015  -2.43574
   0.62181   0.10015  -2.67574
   0.62181  -0.13985  -2.67574
   0.38181   0.10015  -2.67574
   0.38181   0.10015  -2.67574
   0.38181   0.10015  -2.91574
   0.38181   0.10015  -2.91574
   0.38181   0.10015  -2.91574
   0.38181   0.10015  -2.91574
   0.38181   0.10015  -2.91574
   0.38181   0.10015  -2.91574
   0.14181   0.10015  -3.15574
   0.14181   0.34015  -3.15574
   0.14181   0.10015  -3.15574
   0.14181   0.34015  -3.15574
   0.14181   0.10015  -3.15574
  -0.09819   0.10015  -3.15574
  -0.09819   0.34015  -3.39574
  -0.09819   0.34015  -3.39574
  -0.09819   0.10015  -3.39574
  -0.09819   0.10015  -3.39574
  -0.09819   0.34015  -3.39574
  -0.33819   0.34015  -3.39574
  -0.33819   0.34015  -3.39574
  -0.33819   0.10015  -3.63574
  -0.33819   0.34015  -3.63574
  -0.33819   0.10015  -3.63574
  -0.57819   0.10015  -3.63574
  -0.57819   0.10015  -3.63574
  -0.57819   0.10015  -3.87574
  -0.57819   0.10015  -3.87574
  -0.81819   0.10015  -3.87574
  -0.81819   0.10015  -3.87574
  -0.81819   0.10015  -4.11574
  -0.81819   0.10015  -4.11574
  -1.05819   0.34015  -4.11574
  -1.05819   0.34015  -4.11574
  -1.05819   0.10015  -4.35574
  -1.05819   0.10015  -4.11574
  -1.05819   0.10015  -4.35574
  -1.29819   0.10015  -4.35574
  -1.29819   0.10015  -4.35574
  -1.29819   0.10015  -4.59574
  -1.29819   0.10015  -4.59574
  -1.53819   0.10015  -4.59574
  -1.53819   0.10015  -4.59574
  -1.53819   0.10015  -4.83574
  -1.53819  -0.13985  -4.83574
  -1.53819  -0.13985  -4.83574
  -1.77819  -0.13985  -4.83574
  -1.77819  -0.13985  -5.07574
  -1.77819  -0.13985  -5.07574
  -1.77819  -0.13985  -5.07574
  -2.01819  -0.13985  -5.07574
  -2.01819  -0.13985  -5.07574
  -2.01819  -0.13985  -5.07574
  -2.01819  -0.13985  -5.30574
  -2.01819  -0.13985  -5.30574
  -2.25819  -0.13985  -5.30574
  -2.01819  -0.13985  -5.30574
  -2.25819  -0.13985  -5.30574
  -2.25819  -0.13985  -5.30574
  -2.25819  -0.13985  -5.30574
  -2.48819  -0.13985  -5.30574
  -2.48819  -0.13985  -5.30574
  -2.48819  -0.13985  -5.30574
  -2.48819  -0.13985  -5.30574
  -2.48819   0.10015  -5.54574
  -2.48819   0.10015  -5.30574
  -2.48819  -0.13985  -5.30574
  -2.48819   0.10015  -5.30574
  -2.48819   0.10015  -5.30574
  -2.48819   0.10015  -5.30574
  -2.48819   0.10015  -5.30574
  -2.48819   0.10015  -5.30574
  -2.72819   0.10015  -5.30574
  -2.72819   0.10015  -5.07574
  -2.72819   0.10015  -5.30574
  -2.72819   0.10015  -5.07574
  -2.72819   0.10015  -5.07574
  -2.72819   0.10015  -5.07574
  -2.72819   0.10015  -5.07574
  -2.72819   0.10015  -4.83574
  -2.48819   0.10015  -4.83574
  -2.48819   0.10015  -4.83574
  -2.48819   0.10015  -4.83574
  -2.48819   0.10015  -4.59574
  -2.48819   0.10015  -4.59574
  -2.48819   0.10015  -4.59574
  -2.48819   0.10015  -4.35574
  -2.48819   0.10015  -4.35574
  -2.48819   0.10015  -4.35574
  -2.48819   0.10015  -4.35574
  -2.25819   0.10015  -4.35574
  -2.25819   0.10015  -4.11574
  -2.25819   0.10015  -4.11574
  -2.25819   0.10015  -3.87574
  -2.25819   0.10015  -3.87574
  -2.25819   0.10015  -3.87574
  -2.01819   0.10015  -3.87574
  -2.01819   0.10015  -3.63574
  -2.01819   0.10015  -3.63574
  -2.01819   0.10015  -3.63574
  -2.01819   0.10015  -3.39574
  -2.01819   0.10015  -3.39574
  -1.77819   0.10015  -3.39574
  -1.77819   0.10015  -3.39574
  -1.77819  -0.13985  -3.39574
  -1.77819  -0.13985  -3.39574
  -1.53819  -0.13985  -3.15574
  -1.53819  -0.13985  -3.15574
  -1.53819  -0.13985  -3.15574
  -1.53819  -0.13985  -3.15574
  -1.53819  -0.37985  -2.91574
  -1.53819  -0.13985  -2.91574
  -1.53819  -0.13985  -2.67574
  -1.53819  -0.13985  -2.67574
  -1.53819  -0.13985  -2.67574
  -1.29819  -0.13985  -2.43574
  -1.29819  -0.13985  -2.43574
  -1.29819  -0.13985  -2.43574
  -1.29819  -0.13985  -2.43574
  -1.05819  -0.13985  -2.19574
  -1.05819  -0.13985  -2.43574
  -1.05819  -0.13985  -2.19574
  -1.05819  -0.13985  -2.19574
  -1.05819  -0.13985  -1.95574
  -0.81819  -0.13985  -1.95574
  -0.81819   0.10015  -1.71574
  -0.81819  -0.13985  -1.71574
  -0.81819  -0.13985  -1.71574
  -0.81819  -0.13985  -1.71574
  -0.81819  -0.13985  -1.47574
  -0.57819   0.10015  -1.47574
  -0.57819  -0.13985  -1.47574
  -0.57819  -0.13985  -1.23574
  -0.57819  -0.13985  -1.23574
  -0.57819  -0.13985  -0.99574
  -0.33819  -0.13985  -0.99574
  -0.33819   0.10015  -0.99574
  -0.33819   0.10015  -0.75574
  -0.33819   0.10015  -0.75574
  -0.33819   0.10015  -0.51574
  -0.09819   0.10015  -0.51574
  -0.09819   0.10015  -0.51574
  -0.09819   0.10015  -0.28574
  -0.09819   0.10015  -0.28574
  -0.09819  -0.13985  -0.28574
  -0.09819   0.10015  -0.04574
  -0.09819   0.10015  -0.04574
  -0.09819   0.10015   0.19426
   0.14181   0.10015   0.19426
   0.14181   0.10015   0.19426
   0.14181   0.10015   0.43426
   0.14181   0.10015   0.43426
   0.14181   0.10015   0.43426
   0.14181   0.10015   0.67426
   0.14181   0.10015   0.67426
   0.14181   0.10015   0.91426
   0.38181   0.10015   0.91426
   0.38181   0.10015   0.91426
   0.38181   0.10015   1.15426
   0.38181   0.34015   1.15426
   0.38181   0.10015   1.39426
   0.38181   0.10015   1.39426
   0.38181   0.34015   1.39426
   0.38181   0.10015   1.39426
   0.38181   0.10015   1.63426
   0.38181   0.10015   1.63426
   0.38181   0.34015   1.63426
   0.38181   0.10015   1.87426
   0.38181   0.34015   1.87426
   0.38181   0.34015   1.87426
   0.38181   0.10015   2.11426
   0.62181   0.10015   1.87426
   0.38181   0.34015   2.11426
   0.38181   0.34015   2.11426
   0.38181   0.34015   2.11426
   0.38181   0.34015   2.11426
   0.62181   0.34015   2.11426
   0.38181   0.34015   2.11426
   0.62181   0.34015   2.35426
   0.62181   0.10015   2.35426
   0.62181   0.10015   2.35426
   0.62181   0.10015   2.35426
   0.62181   0.10015   2.35426
   0.62181   0.10015   2.35426
   0.62181   0.10015   2.35426
   0.38181   0.10015   2.35426
   0.62181   0.10015   2.35426
   0.62181   0.10015   2.59426
   0.62181   0.10015   2.35426
   0.62181   0.10015   2.59426
   0.62181   0.10015   2.59426
   0.62181   0.10015   2.59426
   0.62181  -0.13985   2.59426
   0.38181  -0.13985   2.59426
   0.62181  -0.13985   2.59426
   0.62181  -0.13985   2.59426
   0.86181  -0.13985   2.59426
   0.62181  -0.13985   2.59426
   0.86181  -0.13985   2.59426
   0.62181  -0.13985   2.59426
   0.86181  -0.13985   2.83426
   0.86181  -0.13985   2.83426
   0.86181  -0.13985   2.83426
   0.86181  -0.13985   2.83426
   0.86181  -0.13985   2.83426
   1.10181  -0.13985   2.83426
   0.86181  -0.13985   2.83426
   1.10181  -0.13985   2.83426
   1.10181  -0.13985   2.83426
   1.10181  -0.13985   2.83426
   1.10181  -0.13985   2.83426
   1.10181  -0.13985   2.83426
   1.10181  -0.13985   2.83426
   1.10181  -0.13985   2.83426
   1.10181  -0.13985   2.83426
