********************************************************************************
              CENTRO DE INSTRUMENTACION Y REGISTRO SISMICO  A.C.

    Anaxagoras 814, Col. Narvarte, Benito Juarez, C.P. 03020 Mexico, D.F.
           Tels. 5687 45 42/ 5687 45  82             Fax. 5669 25 12
********************************************************************************
ARCHIVO ESTANDAR DE ACELERACION:
VERSION DEL FORMATO                    : 2.0
NOMBRE DEL ARCHIVO                     : AL0120161202135755
FECHA Y HORA DE CREACION               : 02/DIC/16, 12:58
REF. CATALOGO ACELEROGRAMAS, SMIS 1996 : REGISTRO No.     /PAG.


================================================================================
DATOS DE LA ESTACION:
NOMBRE DE LA ESTACION                  : ALAMEDA
CLAVE DE LA ESTACION                   : AL01
LOCALIZACION DE LA ESTACION            : Del. Cuauhtémoc, Col. Centro,          
                                       : Dr. Mora entre Av. Hidalgo             
                                       : y Av. Juárez.                          
                                       :                                        
                                       : 
COORDENADAS DE LA ESTACION             : 19.4356 LAT. N
                                       : 99.1453 LONG. W
ALTITUD (msnm)                         : 2232
TIPO DE SUELO                          : Terreno blando, material compresible
                                       : (arcillas)                
                                       : 
INSTITUCION RESPONSABLE                : CIRES, A. C.
                                       : 

================================================================================
DATOS DEL ACELEROGRAFO:
MODELO DEL ACELEROGRAFO                : RAD_IO14
NUMERO DE SERIE DEL ACELEROGRAFO       : 
NUMERO DE CANALES                      : 3
ORIENTACION C1-C6 (rumbo;orientacion)  : /S00E/+V/N90W
ORIENTACION C7-C12 (rumbo;orientacion) : 
VEL. DE MUESTREO, C1-C6 (muestras/s)   : /100/100/100
VEL. DE MUESTREO, C7-C12 (muestras/s)  : 
ESC. COMPLETA DE SENSORES, C1-C6, (g)  : /2.0/2.0/2.0
ESC. COMPLETA DE SENSORES, C7-C12, (g) : 
FREC. NAT. DE SENSORES, C1-C6, (Hz)    : /51.29/51.09/53.75
FREC. NAT. DE SENSORES, C7-C12, (Hz)   : 
AMORTIGUAMIENTO DE SENSORES, C1-C6     : /0.5519/0.5670/0.5810
AMORTIGUAMIENTO DE SENSORES, C7-C12    : 
INTERVALO DE MUESTREO, C1-C6, (s)      : /0.01/0.01/0.01
INTERVALO DE MUESTREO, C7-C12, (s)     : 
UMBRAL DE DISPARO, C1-C6, (Gal)        : / / /
UMBRAL DE DISPARO, C7-C12, (Gal)       : 
MEMORIA DE PREEVENTO (s)               : 60
TIEMPO DE POSEVENTO (s)                : 90


================================================================================
DATOS DEL SISMO:
FECHA DEL SISMO (GMT)                  : 02/DIC/16
HORA EPICENTRO (GMT)                   : 13:57:55.0
MAGNITUD(ES)                           : /Mc=4.9
COORDENADAS DEL EPICENTRO              : 17.35 LAT. N
                                       : 101.34 LONG. W
PROFUNDIDAD FOCAL (km)                 : 10
FUENTE DE LOS DATOS EPICENTRALES       : SSN
                                       : INSTITUTO DE GEOFISICA, UNAM

================================================================================
DATOS DE ESTE REGISTRO:
HORA DE LA PRIMERA MUESTRA (GMT)       : 07:57:13.00
EXACTITUD DEL TIEMPO (s)               : 
DURACION DEL REGISTRO (s), C1-C6       : /240.01/240.01/240.01
DURACION DEL REGISTRO (s), C7-C12      : 
NUM. TOTAL DE MUESTRAS, C1-C6          : /24001/24001/24001
NUM. TOTAL DE MUESTRAS, C7-C12         : 
ACEL. MAX. (Gal), C1-C6                : /1.05128/0.72268/1.22888
ACEL. MAX., C1-C6, EN LA MUESTRA       : /12657/13925/14183
ACEL. MAX. (Gal), C7-C12               : 
ACEL. MAX., C7-C12, EN LA MUESTRA      : 
UNIDADES DE LOS DATOS                  : Gal (cm/s/s)
FACTOR DE DECIMACION                   : 1
FORMATO DATOS (FORTRAN,10 campos/dato) : 3F10.5


================================================================================
CALIDAD DEL ACELEROGRAMA:
REGISTRO DIGITAL COMPLETO CON TIEMPO ABSOLUTO CORRECTO.


================================================================================
COMENTARIOS:














================================================================================
DATOS DE ACELERACION:
---------+---------+---------+---------+---------+---------+---------+---------+
   CANAL-1   CANAL-2   CANAL-3   CANAL-4   CANAL-5   CANAL-6   CANAL-7   CANAL-8
      N00E        +V      N90W
---------+---------+---------+---------+---------+---------+---------+---------+
[...]
  -0.08602   0.24378   0.03188
  -0.14582   0.24378   0.09168
  -0.14582   0.18398   0.09168
  -0.14582   0.24378   0.03188
  -0.08602   0.18398   0.09168
  -0.08602   0.12408   0.21138
  -0.14582   0.24378   0.15158
  -0.14582   0.18398   0.09168
  -0.26552   0.18398   0.15158
  -0.38522   0.12408   0.09168
  -0.38522   0.18398   0.09168
  -0.38522   0.30368   0.15158
  -0.44512   0.30368   0.09168
  -0.38522   0.24378   0.09168
  -0.32542   0.12408   0.03188
  -0.38522   0.06428   0.03188
  -0.50492   0.00438   0.03188
  -0.56482  -0.17522   0.09168
  -0.56482  -0.17522   0.03188
  -0.62462  -0.23502  -0.02802
  -0.62462  -0.23502  -0.02802
  -0.68452  -0.17522  -0.02802
  -0.62462  -0.11532   0.03188
  -0.62462  -0.17522   0.09168
  -0.50492  -0.17522  -0.02802
  -0.50492  -0.29492   0.09168
  -0.62462  -0.23502   0.15158
  -0.56482  -0.23502   0.09168
  -0.56482  -0.23502   0.09168
  -0.50492  -0.23502   0.09168
  -0.56482  -0.29492   0.03188
  -0.56482  -0.23502   0.03188
  -0.44512  -0.11532   0.03188
  -0.44512   0.00438  -0.02802
  -0.38522   0.18398   0.15158
  -0.38522   0.24378   0.09168
  -0.26552   0.18398   0.03188
  -0.20572   0.12408  -0.14772
  -0.14582   0.12408  -0.14772
  -0.14582   0.12408  -0.08792
  -0.14582   0.18398  -0.08792
  -0.08602   0.18398  -0.08792
  -0.02612   0.18398  -0.20762
  -0.02612   0.18398  -0.20762
  -0.08602   0.06428  -0.32732
  -0.08602   0.18398  -0.32732
  -0.02612   0.18398  -0.44702
   0.03378   0.12408  -0.56672
   0.15348   0.18398  -0.50682
   0.27318   0.12408  -0.50682
   0.21328  -0.05552  -0.50682
   0.21328  -0.11532  -0.50682
   0.27318  -0.23502  -0.56672
   0.27318  -0.23502  -0.50682
   0.33298  -0.29492  -0.56672
   0.33298  -0.35472  -0.56672
   0.27318  -0.29492  -0.56672
   0.27318  -0.29492  -0.62652
   0.27318  -0.35472  -0.68642
   0.33298  -0.29492  -0.74632
   0.45268  -0.35472  -0.80612
   0.57238  -0.35472  -0.74632
   0.57238  -0.35472  -0.56672
   0.57238  -0.23502  -0.56672
   0.57238  -0.29492  -0.44702
   0.63228  -0.29492  -0.38712
   0.63228  -0.29492  -0.38712
   0.57238  -0.23502  -0.32732
   0.51258  -0.23502  -0.26742
   0.51258  -0.17522  -0.26742
   0.45268  -0.17522  -0.20762
   0.45268  -0.17522  -0.08792
   0.39288  -0.05552  -0.02802
   0.45268   0.06428  -0.02802
   0.51258   0.12408   0.03188
   0.51258   0.24378   0.09168
   0.51258   0.30368   0.09168
   0.45268   0.24378   0.21138
   0.39288   0.18398   0.21138
   0.33298   0.24378   0.33108
   0.33298   0.30368   0.33108
   0.27318   0.36348   0.33108
   0.27318   0.42338   0.33108
   0.27318   0.48318   0.27128
   0.33298   0.48318   0.33108
   0.39288   0.60288   0.39098
   0.33298   0.60288   0.57048
   0.33298   0.60288   0.57048
   0.39288   0.72268   0.63038
   0.39288   0.66278   0.63038
   0.39288   0.60288   0.57048
   0.51258   0.60288   0.63038
   0.45268   0.54308   0.63038
   0.63228   0.48318   0.51068
   0.69218   0.48318   0.45078
   0.75198   0.48318   0.57048
   0.81188   0.42338   0.63038
   0.81188   0.30368   0.69028
   0.75198   0.36348   0.51068
   0.75198   0.24378   0.51068
   0.75198   0.12408   0.39098
   0.75198   0.06428   0.45078
   0.75198  -0.05552   0.45078
   0.69218  -0.17522   0.45078
   0.69218  -0.29492   0.39098
   0.69218  -0.35472   0.21138
   0.69218  -0.35472   0.15158
   0.75198  -0.47442   0.09168
   0.63228  -0.47442   0.09168
   0.57238  -0.47442   0.09168
   0.57238  -0.47442   0.03188
   0.51258  -0.41462  -0.08792
   0.51258  -0.41462  -0.14772
   0.45268  -0.41462  -0.20762
   0.45268  -0.41462  -0.26742
   0.39288  -0.35472  -0.26742
   0.33298  -0.41462  -0.26742
   0.27318  -0.35472  -0.32732
   0.21328  -0.29492  -0.38712
   0.15348  -0.35472  -0.32732
  -0.02612  -0.29492  -0.44702
  -0.14582  -0.29492  -0.38712
  -0.26552  -0.17522  -0.44702
  -0.32542  -0.11532  -0.50682
  -0.32542  -0.17522  -0.44702
  -0.50492  -0.17522  -0.44702
  -0.62462  -0.11532  -0.38712
  -0.68452  -0.05552  -0.32732
  -0.74442   0.06428  -0.26742
  -0.74442   0.18398  -0.26742
  -0.68452   0.24378  -0.26742
  -0.68452   0.24378  -0.26742
  -0.74442   0.24378  -0.08792
  -0.74442   0.24378  -0.02802
  -0.74442   0.30368   0.03188
  -0.68452   0.30368   0.09168
  -0.56482   0.30368   0.15158
  -0.62462   0.36348   0.15158
  -0.56482   0.30368   0.09168
  -0.56482   0.30368   0.09168
  -0.50492   0.30368   0.15158
  -0.56482   0.24378   0.09168
  -0.44512   0.18398  -0.02802
  -0.38522   0.24378  -0.02802
  -0.32542   0.12408  -0.08792
  -0.32542   0.06428  -0.26742
  -0.38522  -0.05552  -0.26742
  -0.32542  -0.17522  -0.26742
  -0.32542  -0.29492  -0.26742
  -0.26552  -0.41462  -0.14772
  -0.26552  -0.35472  -0.14772
  -0.32542  -0.23502  -0.20762
  -0.32542  -0.17522  -0.26742
  -0.26552  -0.23502  -0.32732
  -0.26552  -0.11532  -0.44702
  -0.20572  -0.17522  -0.26742
  -0.26552  -0.23502  -0.26742
  -0.14582  -0.29492  -0.32732
  -0.14582  -0.29492  -0.26742
  -0.20572  -0.29492  -0.14772
  -0.26552  -0.35472  -0.20762
  -0.32542  -0.29492  -0.26742
  -0.44512  -0.41462  -0.32732
  -0.50492  -0.35472  -0.26742
  -0.62462  -0.29492  -0.20762
  -0.68452  -0.29492  -0.20762
  -0.74442  -0.17522  -0.08792
  -0.68452  -0.11532   0.03188
  -0.74442  -0.17522   0.09168
  -0.68452  -0.05552   0.09168
  -0.68452   0.00438   0.15158
  -0.74442  -0.05552   0.27128
  -0.74442   0.06428   0.33108
  -0.68452   0.06428   0.45078
  -0.56482   0.12408   0.51068
  -0.62462   0.06428   0.51068
  -0.62462   0.12408   0.39098
  -0.56482   0.18398   0.33108
  -0.56482   0.18398   0.33108
  -0.62462   0.24378   0.39098
  -0.62462   0.30368   0.51068
  -0.50492   0.48318   0.45078
  -0.44512   0.54308   0.45078
  -0.38522   0.60288   0.39098
  -0.32542   0.60288   0.33108
  -0.32542   0.60288   0.33108
  -0.20572   0.60288   0.27128
  -0.20572   0.66278   0.21138
  -0.20572   0.66278   0.27128
  -0.14582   0.60288   0.33108
  -0.08602   0.54308   0.33108
  -0.08602   0.54308   0.27128
  -0.08602   0.48318   0.27128
  -0.02612   0.36348   0.27128
   0.03378   0.30368   0.27128
   0.09358   0.12408   0.27128
   0.09358   0.06428   0.27128
   0.09358   0.00438   0.27128
  -0.02612  -0.11532   0.27128
   0.03378  -0.29492   0.21138
   0.03378  -0.35472   0.09168
  -0.02612  -0.47442   0.21138
  -0.02612  -0.53432   0.15158
   0.03378  -0.47442   0.15158
   0.15348  -0.47442   0.15158
   0.15348  -0.47442   0.15158
   0.21328  -0.47442   0.03188
   0.27318  -0.47442  -0.02802
   0.27318  -0.53432  -0.02802
   0.33298  -0.59412   0.09168
   0.21328  -0.65402   0.03188
   0.15348  -0.59412   0.03188
   0.33298  -0.59412   0.03188
   0.45268  -0.53432  -0.02802
   0.45268  -0.53432  -0.02802
   0.51258  -0.41462  -0.08792
   0.57238  -0.35472  -0.20762
   0.51258  -0.23502  -0.08792
   0.51258  -0.11532  -0.02802
   0.51258  -0.05552  -0.02802
   0.57238   0.00438   0.03188
   0.57238   0.18398  -0.02802
   0.63228   0.24378   0.03188
   0.63228   0.24378   0.03188
   0.63228   0.30368   0.03188
   0.63228   0.30368   0.03188
   0.63228   0.18398   0.15158
   0.63228   0.18398   0.15158
   0.51258   0.18398   0.27128
   0.51258   0.18398   0.27128
   0.45268   0.36348   0.39098
   0.45268   0.36348   0.45078
   0.45268   0.36348   0.33108
   0.39288   0.48318   0.33108
   0.45268   0.48318   0.39098
   0.45268   0.48318   0.33108
   0.39288   0.42338   0.33108
   0.39288   0.54308   0.33108
   0.39288   0.54308   0.21138
   0.33298   0.54308   0.21138
   0.39288   0.54308   0.21138
   0.39288   0.48318   0.21138
   0.27318   0.48318   0.21138
   0.27318   0.48318   0.09168
   0.33298   0.48318   0.03188
   0.39288   0.48318  -0.02802
   0.39288   0.48318  -0.08792
   0.27318   0.42338  -0.14772
   0.27318   0.36348  -0.08792
   0.33298   0.30368  -0.14772
   0.21328   0.24378  -0.14772
   0.33298   0.18398  -0.20762
   0.33298   0.18398  -0.26742
   0.33298   0.12408  -0.32732
   0.33298   0.00438  -0.38712
   0.27318  -0.11532  -0.44702
   0.33298  -0.17522  -0.50682
   0.21328  -0.23502  -0.50682
   0.21328  -0.29492  -0.56672
   0.21328  -0.29492  -0.62652
   0.15348  -0.35472  -0.62652
   0.09358  -0.23502  -0.56672
   0.15348  -0.29492  -0.62652
   0.15348  -0.41462  -0.56672
   0.09358  -0.47442  -0.50682
   0.09358  -0.41462  -0.44702
   0.15348  -0.41462  -0.50682
   0.15348  -0.41462  -0.50682
   0.09358  -0.47442  -0.50682
   0.09358  -0.47442  -0.38712
   0.03378  -0.47442  -0.26742
  -0.08602  -0.35472  -0.26742
  -0.02612  -0.35472  -0.20762
   0.03378  -0.29492  -0.02802
   0.09358  -0.23502  -0.02802
   0.15348  -0.23502  -0.02802
   0.15348  -0.35472  -0.02802
   0.15348  -0.29492   0.09168
   0.15348  -0.29492   0.15158
   0.15348  -0.23502   0.15158
   0.21328  -0.23502   0.27128
   0.15348  -0.23502   0.21138
   0.09358  -0.17522   0.21138
   0.09358  -0.11532   0.21138
   0.09358   0.00438   0.21138
   0.09358  -0.05552   0.09168
   0.03378   0.06428   0.15158
   0.09358   0.12408   0.15158
   0.15348   0.12408   0.03188
   0.09358   0.12408  -0.08792
   0.03378   0.18398  -0.20762
   0.03378   0.18398  -0.14772
   0.03378   0.24378  -0.20762
   0.09358   0.24378  -0.20762
   0.03378   0.24378  -0.32732
   0.03378   0.12408  -0.26742
   0.03378   0.12408  -0.44702
  -0.02612   0.06428  -0.56672
  -0.02612   0.00438  -0.62652
  -0.14582   0.00438  -0.62652
  -0.14582  -0.05552  -0.68642
  -0.20572  -0.05552  -0.68642
  -0.26552  -0.05552  -0.68642
  -0.20572  -0.05552  -0.62652
  -0.26552   0.00438  -0.68642
  -0.32542  -0.11532  -0.62652
  -0.32542  -0.11532  -0.68642
  -0.38522   0.00438  -0.62652
  -0.38522  -0.11532  -0.62652
  -0.44512  -0.11532  -0.62652
  -0.44512  -0.11532  -0.50682
  -0.44512   0.00438  -0.44702
  -0.38522   0.00438  -0.50682
  -0.32542   0.06428  -0.50682
  -0.20572   0.00438  -0.44702
  -0.14582   0.00438  -0.32732
  -0.14582   0.00438  -0.32732
  -0.20572   0.00438  -0.32732
  -0.14582   0.00438  -0.26742
  -0.14582   0.00438  -0.14772
  -0.02612   0.00438  -0.14772
  -0.02612   0.00438  -0.14772
  -0.02612  -0.05552  -0.08792
   0.03378   0.00438  -0.14772
   0.03378   0.00438  -0.08792
   0.09358   0.06428  -0.02802
   0.09358   0.06428  -0.02802
   0.03378   0.12408   0.03188
   0.03378   0.00438   0.09168
  -0.02612   0.00438   0.21138
  -0.08602   0.00438   0.21138
  -0.08602  -0.05552   0.33108
  -0.08602  -0.11532   0.39098
  -0.14582  -0.11532   0.51068
  -0.14582  -0.11532   0.45078
  -0.20572  -0.05552   0.51068
  -0.32542   0.06428   0.63038
  -0.26552   0.06428   0.63038
  -0.26552   0.06428   0.75008
  -0.26552   0.00438   0.86978
  -0.26552   0.12408   0.92968
  -0.26552   0.00438   0.86978
  -0.32542  -0.05552   0.98948
  -0.32542  -0.17522   1.04938
  -0.38522  -0.17522   1.10918
  -0.44512  -0.23502   1.16908
  -0.56482  -0.29492   1.22888
  -0.68452  -0.29492   1.16908
  -0.74442  -0.23502   1.16908
  -0.74442  -0.11532   1.10918
  -0.80422   0.00438   0.98948
  -0.74442   0.06428   0.98948
  -0.80422   0.06428   0.86978
  -0.80422   0.06428   0.86978
  -0.80422   0.18398   0.80998
  -0.86412   0.18398   0.75008
  -0.80422   0.12408   0.75008
  -0.80422   0.24378   0.69028
  -0.80422   0.18398   0.63038
  -0.68452   0.12408   0.45078
  -0.74442   0.06428   0.33108
  -0.80422   0.12408   0.27128
  -0.74442   0.06428   0.33108
  -0.74442  -0.05552   0.27128
  -0.68452  -0.23502   0.21138
  -0.62462  -0.23502   0.15158
  -0.50492  -0.29492   0.03188
  -0.44512  -0.35472   0.03188
  -0.44512  -0.41462   0.03188
  -0.50492  -0.35472   0.09168
  -0.44512  -0.29492   0.09168
  -0.20572  -0.23502   0.09168
  -0.08602  -0.23502   0.09168
  -0.08602  -0.17522   0.09168
   0.03378  -0.17522   0.03188
   0.21328  -0.17522  -0.02802
   0.27318  -0.23502  -0.02802
   0.39288  -0.17522  -0.02802
   0.39288  -0.17522  -0.08792
   0.45268  -0.05552  -0.02802
   0.51258  -0.11532  -0.14772
   0.57238   0.00438  -0.14772
   0.57238   0.12408  -0.08792
   0.63228   0.06428  -0.02802
   0.57238   0.12408  -0.08792
   0.63228   0.12408  -0.14772
   0.69218   0.18398  -0.20762
   0.63228   0.24378  -0.32732
   0.57238   0.30368  -0.32732
   0.51258   0.18398  -0.38712
   0.51258   0.30368  -0.38712
   0.45268   0.30368  -0.50682
   0.51258   0.42338  -0.44702
   0.45268   0.48318  -0.44702
   0.39288   0.48318  -0.50682
   0.33298   0.42338  -0.50682
   0.21328   0.54308  -0.56672
   0.27318   0.54308  -0.62652
   0.27318   0.48318  -0.56672
   0.15348   0.48318  -0.50682
  -0.02612   0.48318  -0.38712
  -0.08602   0.42338  -0.32732
  -0.02612   0.36348  -0.26742
  -0.14582   0.30368  -0.20762
  -0.08602   0.24378  -0.20762
  -0.08602   0.24378  -0.20762
  -0.14582   0.30368  -0.20762
  -0.14582   0.24378  -0.20762
  -0.14582   0.24378  -0.08792
  -0.14582   0.18398   0.03188
  -0.02612   0.12408   0.09168
  -0.02612   0.06428   0.09168
   0.03378   0.00438   0.09168
   0.21328  -0.05552   0.09168
   0.27318  -0.05552   0.15158
   0.39288   0.00438   0.09168
   0.33298  -0.05552  -0.02802
   0.33298  -0.11532   0.03188
   0.45268  -0.11532  -0.02802
   0.45268  -0.17522  -0.02802
   0.57238  -0.23502  -0.02802
   0.63228  -0.17522  -0.08792
   0.63228  -0.29492  -0.20762
   0.69218  -0.41462  -0.20762
   0.63228  -0.41462  -0.14772
   0.69218  -0.35472  -0.26742
   0.75198  -0.35472  -0.32732
   0.75198  -0.35472  -0.20762
   0.81188  -0.35472  -0.26742
   0.87168  -0.23502  -0.32732
   0.87168  -0.35472  -0.38712
   0.87168  -0.47442  -0.44702
   0.93158  -0.53432  -0.32732
   0.87168  -0.47442  -0.32732
   0.75198  -0.53432  -0.32732
   0.69218  -0.53432  -0.26742
   0.63228  -0.53432  -0.26742
   0.57238  -0.47442  -0.26742
   0.51258  -0.41462  -0.08792
   0.45268  -0.29492  -0.08792
   0.45268  -0.23502  -0.02802
   0.51258  -0.17522  -0.02802
   0.39288  -0.05552  -0.02802
   0.39288   0.00438   0.09168
   0.33298   0.00438   0.21138
   0.33298   0.00438   0.27128
   0.27318   0.00438   0.33108
   0.15348   0.00438   0.39098
   0.15348   0.00438   0.45078
   0.03378   0.12408   0.45078
   0.03378   0.18398   0.51068
   0.09358   0.24378   0.57048
   0.03378   0.36348   0.51068
   0.03378   0.42338   0.45078
   0.03378   0.36348   0.45078
  -0.02612   0.42338   0.33108
  -0.02612   0.36348   0.39098
  -0.20572   0.30368   0.33108
  -0.26552   0.24378   0.27128
  -0.38522   0.24378   0.21138
  -0.56482   0.24378   0.27128
  -0.62462   0.18398   0.21138
  -0.62462   0.06428   0.09168
  -0.74442   0.06428  -0.02802
  -0.80422   0.06428  -0.20762
  -0.86412   0.06428  -0.14772
  -0.86412   0.12408  -0.08792
  -0.80422   0.12408  -0.08792
  -0.68452   0.12408  -0.14772
  -0.62462   0.00438  -0.20762
  -0.56482   0.00438  -0.14772
  -0.62462  -0.11532  -0.14772
  -0.62462  -0.05552  -0.20762
  -0.56482  -0.05552  -0.14772
  -0.50492  -0.11532  -0.08792
  -0.32542  -0.17522  -0.08792
  -0.26552  -0.23502  -0.08792
  -0.26552  -0.29492  -0.08792
  -0.14582  -0.35472   0.03188
  -0.08602  -0.41462   0.09168
  -0.08602  -0.41462  -0.02802
   0.03378  -0.41462  -0.02802
   0.03378  -0.41462  -0.08792
   0.09358  -0.35472  -0.02802
   0.09358  -0.29492  -0.02802
   0.09358  -0.29492   0.03188
   0.15348  -0.23502  -0.02802
   0.15348  -0.17522   0.03188
   0.09358  -0.11532   0.03188
   0.21328  -0.11532   0.09168
   0.27318  -0.05552   0.15158
   0.27318  -0.05552   0.09168
   0.27318   0.12408   0.03188
   0.27318   0.24378  -0.02802
   0.21328   0.30368  -0.02802
   0.15348   0.30368  -0.08792
