********************************************************************************
               CENTRO DE INSTRUMENTACION Y REGISTRO SISMICO  A.C.  
                       Coordinacion de Servicios Tecnicos
     Anaxagoras 814, Col. Narvarte, Benito Juarez, C.P. 03020 Mexico, D.F.
            Tels. 667 45 42/ 687 45  82             Fax. 669 25 12
********************************************************************************
ARCHIVO ESTANDAR DE ACELERACION:
VERSION DEL FORMATO                    : 2.0
NOMBRE DEL ARCHIVO                     : AL010008.091
FECHA Y HORA DE CREACION               : 02/JUN/04, 12:18
REF. CATALOGO ACELEROGRAMAS, SMIS 1996 : REGISTRO No.     /PAG.


================================================================================
DATOS DE LA ESTACION:
NOMBRE DE LA ESTACION                  : ALAMEDA
CLAVE DE LA ESTACION                   : AL01
LOCALIZACION DE LA ESTACION            : JARDIN ALAMEDA ENTRE AV. HIDALGO Y AV.
                                       : JUAREZ, CENTRO
                                       :
                                       :
                                       :
COORDENADAS DE LA ESTACION             : 19.436 LAT. N 
                                       : 99.145 LONG. W 
ALTITUD (msnm)                         : 2232
TIPO DE SUELO                          : TERRENO BLANDO, MATERIAL COMPRESIBLE
                                       : (ARCILLAS)
                                       : 
INSTITUCION RESPONSABLE                : CIRES 
                                       :

================================================================================
DATOS DEL ACELEROGRAFO:
MODELO DEL ACELEROGRAFO                : SSA-1
NUMERO DE SERIE DEL ACELEROGRAFO       : 152
NUMERO DE CANALES                      : 3
ORIENTACION C1-C6 (rumbo;orientacion)  : /N00E/+V/N90E
ORIENTACION C7-C12 (rumbo;orientacion) :
VEL. DE MUESTREO, C1-C6 (muestras/s)   : /200/200/200
VEL. DE MUESTREO, C7-C12 (muestras/s)  :
ESC. COMPLETA DE SENSORES, C1-C6, (g)  : /2/2/2
ESC. COMPLETA DE SENSORES, C7-C12, (g) :
FREC. NAT. DE SENSORES, C1-C6, (Hz)    : /51.29/51.09/53.75
FREC. NAT. DE SENSORES, C7-C12, (Hz)   :
AMORTIGUAMIENTO DE SENSORES, C1-C6     : /.5519/.5670/.5810
AMORTIGUAMIENTO DE SENSORES, C7-C12    :
INTERVALO DE MUESTREO, C1-C6, (s)      : /0.005/0.005/0.005
INTERVALO DE MUESTREO, C7-C12, (s)     :
UMBRAL DE DISPARO, C1-C6, (Gal)        : /2/1.5/2
UMBRAL DE DISPARO, C7-C12, (Gal)       :
MEMORIA DE PREEVENTO (s)               : 15
TIEMPO DE POSEVENTO (s)                : 60


================================================================================
DATOS DEL SISMO:
FECHA DEL SISMO (GMT)                  : 09/AGO/00
HORA EPICENTRO (GMT)                   : 11:41:47:7
MAGNITUD(ES)                           : /Mb=6.1/Ms=6.5/Mc=0.0/Ma=6.5/Me=7.0
COORDENADAS DEL EPICENTRO              : 17.99 LAT. N
                                       : 102.66 LONG. W
PROFUNDIDAD FOCAL (km)                 : 16.0
FUENTE DE LOS DATOS EPICENTRALES       : SSN
                                       : INSTITUTO DE GEOFISICA, UNAM

================================================================================
DATOS DE ESTE REGISTRO:
HORA DE LA PRIMERA MUESTRA (GMT)       : 11:43:15.00
EXACTITUD DEL TIEMPO (s)               :     
DURACION DEL REGISTRO (s), C1-C6       : /207.36/207.36/207.36
DURACION DEL REGISTRO (s), C7-C12      :
NUM. TOTAL DE MUESTRAS, C1-C6          : /41472/41472/41472
NUM. TOTAL DE MUESTRAS, C7-C12         :
ACEL. MAX. (Gal), C1-C6                : /10.02650/-4.11914/-15.62846
ACEL. MAX., C1-C6, EN LA MUESTRA       :
ACEL. MAX. (Gal), C7-C12               :
ACEL. MAX., C7-C12, EN LA MUESTRA      :
UNIDADES DE LOS DATOS                  : Gal (cm/s/s)
FACTOR DE DECIMACION                   : 1
FORMATO DATOS (FORTRAN,10 campos/dato) : 3F10.5


================================================================================
CALIDAD DEL ACELEROGRAMA:
REGISTRO DIGITAL COMPLETO, CARECE DE TIEMPO ABSOLUTO.


================================================================================
COMENTARIOS:














================================================================================
DATOS DE ACELERACION:
---------+---------+---------+---------+---------+---------+---------+---------+
   CANAL-1   CANAL-2   CANAL-3   CANAL-4   CANAL-5   CANAL-6   CANAL-7   CANAL-8
      N00E        +V      N90E
---------+---------+---------+---------+---------+---------+---------+---------+
[...]
  -2.18350  -0.52914  -3.65846
  -2.18350  -0.52914  -3.65846
  -2.18350  -0.52914  -3.41846
  -2.18350  -0.52914  -3.17846
  -2.18350  -0.76914  -3.17846
  -2.42350  -0.76914  -3.17846
  -2.42350  -0.76914  -2.93846
  -2.42350  -0.76914  -2.93846
  -2.42350  -1.00914  -2.69846
  -2.42350  -0.76914  -2.69846
  -2.42350  -1.00914  -2.45846
  -2.66350  -1.00914  -2.45846
  -2.66350  -1.00914  -2.21846
  -2.66350  -1.00914  -1.97846
  -2.66350  -1.24914  -1.97846
  -2.66350  -1.24914  -1.73846
  -2.66350  -1.24914  -1.73846
  -2.90350  -1.24914  -1.49846
  -2.90350  -1.48914  -1.49846
  -2.90350  -1.48914  -1.25846
  -2.90350  -1.48914  -1.25846
  -2.90350  -1.48914  -1.01846
  -3.14350  -1.48914  -0.77846
  -3.14350  -1.48914  -0.53846
  -3.14350  -1.48914  -0.53846
  -3.14350  -1.48914  -0.29846
  -3.14350  -1.48914  -0.06846
  -3.38350  -1.48914  -0.06846
  -3.38350  -1.48914   0.17154
  -3.38350  -1.48914   0.41154
  -3.62350  -1.48914   0.65154
  -3.62350  -1.48914   0.65154
  -3.62350  -1.48914   0.89154
  -3.62350  -1.48914   0.89154
  -3.62350  -1.24914   1.37154
  -3.62350  -1.24914   1.37154
  -3.62350  -1.48914   1.61154
  -3.86350  -1.24914   1.61154
  -3.86350  -1.24914   1.85154
  -3.86350  -1.00914   2.09154
  -3.86350  -1.00914   2.33154
  -3.86350  -1.00914   2.33154
  -3.86350  -1.00914   2.57154
  -3.86350  -0.76914   2.81154
  -4.10350  -0.76914   2.81154
  -4.10350  -0.76914   3.05154
  -4.10350  -0.52914   3.05154
  -4.10350  -0.52914   3.05154
  -4.10350  -0.52914   3.29154
  -4.10350  -0.52914   3.29154
  -4.34350  -0.28914   3.53154
  -4.34350  -0.28914   3.77154
  -4.34350  -0.04914   3.77154
  -4.34350  -0.04914   4.01154
  -4.58350   0.19086   4.01154
  -4.58350   0.19086   4.25154
  -4.82350   0.19086   4.25154
  -4.58350   0.43086   4.49154
  -4.58350   0.43086   4.49154
  -4.58350   0.67086   4.49154
  -4.58350   0.67086   4.72154
  -4.82350   0.91086   4.72154
  -4.82350   0.91086   4.72154
  -4.82350   0.91086   4.96154
  -4.82350   1.15086   4.96154
  -4.82350   1.15086   4.96154
  -5.06350   1.15086   4.96154
  -5.06350   1.39086   4.96154
  -5.06350   1.39086   4.96154
  -5.06350   1.39086   4.96154
  -5.06350   1.63086   5.20154
  -5.06350   1.63086   5.20154
  -5.06350   1.87086   5.20154
  -5.30350   1.87086   5.20154
  -5.30350   1.87086   5.20154
  -5.53350   2.11086   5.20154
  -5.53350   2.11086   5.20154
  -5.53350   2.11086   5.44154
  -5.53350   2.11086   5.44154
  -5.77350   2.35086   5.44154
  -5.77350   2.35086   5.44154
  -5.77350   2.35086   5.44154
  -6.01350   2.35086   5.44154
  -6.01350   2.35086   5.44154
  -6.01350   2.35086   5.44154
  -6.01350   2.59086   5.44154
  -6.01350   2.59086   5.44154
  -6.01350   2.59086   5.44154
  -6.01350   2.59086   5.68154
  -6.01350   2.59086   5.44154
  -6.25350   2.59086   5.44154
  -6.25350   2.59086   5.44154
  -6.25350   2.59086   5.44154
  -6.25350   2.59086   5.44154
  -6.25350   2.59086   5.44154
  -6.25350   2.35086   5.44154
  -6.49350   2.35086   5.20154
  -6.25350   2.35086   5.20154
  -6.25350   2.35086   5.20154
  -6.25350   2.35086   5.20154
  -6.25350   2.35086   5.20154
  -6.25350   2.35086   5.20154
  -6.25350   2.35086   5.20154
  -6.25350   2.35086   5.20154
  -6.25350   2.35086   5.20154
  -6.01350   2.35086   5.20154
  -6.01350   2.35086   5.20154
  -6.25350   2.35086   5.20154
  -6.01350   2.35086   4.96154
  -6.01350   2.35086   4.96154
  -6.01350   2.35086   4.96154
  -6.25350   2.11086   4.96154
  -6.01350   1.87086   4.96154
  -6.01350   1.87086   4.72154
  -6.01350   1.63086   4.72154
  -6.01350   1.63086   4.72154
  -5.77350   1.39086   4.72154
  -5.77350   1.39086   4.72154
  -5.77350   1.39086   4.72154
  -5.77350   1.15086   4.49154
  -5.77350   1.15086   4.72154
  -5.77350   0.91086   4.72154
  -5.53350   0.91086   4.72154
  -5.53350   0.91086   4.49154
  -5.53350   0.91086   4.49154
  -5.53350   0.67086   4.49154
  -5.30350   0.67086   4.49154
  -5.30350   0.43086   4.49154
  -5.30350   0.43086   4.49154
  -5.30350   0.43086   4.49154
  -5.06350   0.43086   4.25154
  -5.06350   0.43086   4.49154
  -4.82350   0.43086   4.25154
  -4.82350   0.19086   4.25154
  -4.82350   0.19086   4.49154
  -4.58350   0.19086   4.49154
  -4.58350   0.19086   4.25154
  -4.34350  -0.04914   4.25154
  -4.34350  -0.04914   4.25154
  -4.10350  -0.04914   4.49154
  -4.10350  -0.28914   4.49154
  -3.86350  -0.28914   4.49154
  -3.62350  -0.28914   4.49154
  -3.62350  -0.52914   4.49154
  -3.38350  -0.52914   4.72154
  -3.14350  -0.52914   4.72154
  -3.14350  -0.52914   4.72154
  -2.90350  -0.76914   4.72154
  -2.66350  -0.76914   4.96154
  -2.42350  -0.76914   5.20154
  -2.18350  -1.00914   5.20154
  -2.18350  -1.00914   5.20154
  -1.94350  -1.00914   5.20154
  -1.70350  -1.24914   5.44154
  -1.46350  -1.24914   5.68154
  -1.22350  -1.48914   5.68154
  -0.98350  -1.48914   5.68154
  -0.74350  -1.48914   5.92154
  -0.50350  -1.48914   5.92154
  -0.27350  -1.48914   6.16154
  -0.03350  -1.72914   6.16154
   0.20650  -1.72914   6.16154
   0.44650  -1.72914   6.16154
   0.68650  -1.72914   6.16154
   1.16650  -1.72914   6.40154
   1.40650  -1.95914   6.40154
   1.64650  -1.95914   6.64154
   1.88650  -1.72914   6.64154
   2.12650  -1.95914   6.64154
   2.60650  -1.95914   6.88154
   2.84650  -1.95914   6.88154
   3.08650  -1.95914   6.88154
   3.32650  -1.95914   6.88154
   3.56650  -1.95914   6.88154
   4.04650  -1.95914   7.12154
   4.28650  -1.95914   7.12154
   4.51650  -1.95914   7.12154
   4.51650  -1.95914   7.12154
   4.99650  -1.95914   7.12154
   4.99650  -1.95914   7.12154
   5.47650  -1.95914   7.12154
   5.71650  -1.95914   7.12154
   5.95650  -1.95914   7.12154
   5.95650  -1.95914   7.12154
   6.19650  -1.95914   7.12154
   6.43650  -1.95914   7.12154
   6.67650  -1.95914   7.12154
   6.67650  -1.95914   7.12154
   6.91650  -1.95914   7.12154
   6.91650  -1.95914   6.88154
   7.15650  -1.95914   6.88154
   7.15650  -1.95914   6.88154
   7.39650  -1.95914   6.64154
   7.39650  -1.95914   6.88154
   7.39650  -1.95914   6.64154
   7.39650  -1.95914   6.64154
   7.63650  -1.72914   6.64154
   7.63650  -1.95914   6.64154
   7.63650  -1.72914   6.64154
   7.87650  -1.72914   6.64154
   7.87650  -1.48914   6.40154
   7.87650  -1.48914   6.40154
   7.87650  -1.48914   6.40154
   7.87650  -1.48914   6.16154
   7.87650  -1.48914   6.16154
   7.87650  -1.24914   6.16154
   7.87650  -1.24914   6.16154
   7.87650  -1.24914   5.92154
   7.87650  -1.24914   6.16154
   7.87650  -1.00914   6.16154
   7.87650  -1.00914   6.16154
   7.87650  -1.00914   6.16154
   7.87650  -1.00914   5.92154
   7.87650  -0.76914   5.92154
   7.87650  -0.76914   5.92154
   7.87650  -0.52914   5.92154
   7.87650  -0.52914   5.68154
   7.87650  -0.52914   5.68154
   7.87650  -0.52914   5.68154
   7.87650  -0.52914   5.68154
   7.87650  -0.28914   5.68154
   7.87650  -0.28914   5.44154
   7.63650  -0.28914   5.20154
   7.63650  -0.04914   5.44154
   7.63650  -0.04914   5.20154
   7.63650  -0.04914   5.20154
   7.63650   0.19086   5.20154
   7.63650   0.19086   4.96154
   7.63650   0.19086   4.72154
   7.63650   0.43086   4.72154
   7.63650   0.43086   4.72154
   7.87650   0.43086   4.49154
   7.63650   0.43086   4.49154
   7.87650   0.67086   4.25154
   7.87650   0.67086   4.01154
   7.87650   0.67086   4.01154
   7.87650   0.67086   3.77154
   7.87650   0.91086   3.77154
   7.87650   0.91086   3.77154
   7.87650   0.91086   3.53154
   7.87650   1.15086   3.29154
   7.87650   1.15086   3.29154
   7.87650   1.15086   3.05154
   7.87650   1.15086   2.81154
   7.87650   1.15086   2.81154
   8.11650   1.15086   2.57154
   8.11650   1.39086   2.57154
   8.11650   1.15086   2.33154
   8.11650   1.15086   2.09154
   8.11650   1.15086   2.09154
   8.35650   1.15086   2.09154
   8.35650   1.15086   1.85154
   8.35650   1.15086   1.85154
   8.35650   1.15086   1.85154
   8.59650   1.15086   1.61154
   8.59650   1.15086   1.61154
   8.59650   1.15086   1.37154
   8.59650   1.15086   1.37154
   8.59650   1.15086   1.37154
   8.59650   1.15086   1.13154
   8.59650   1.15086   1.13154
   8.83650   1.15086   0.89154
   8.83650   1.15086   0.89154
   8.83650   1.15086   0.41154
   8.83650   0.91086   0.65154
   8.83650   0.91086   0.65154
   8.83650   0.91086   0.41154
   8.83650   0.91086   0.41154
   8.59650   0.91086   0.41154
   8.59650   0.91086   0.17154
   8.59650   0.91086   0.41154
   8.59650   0.91086   0.17154
   8.35650   0.91086   0.17154
   8.35650   0.67086   0.17154
   8.35650   0.67086  -0.06846
   8.11650   0.67086  -0.06846
   8.11650   0.67086  -0.06846
   8.11650   0.67086  -0.06846
   7.87650   0.67086  -0.06846
   7.87650   0.43086  -0.29846
   7.87650   0.43086  -0.29846
   7.63650   0.43086  -0.53846
   7.63650   0.43086  -0.53846
   7.39650   0.43086  -0.53846
   7.39650   0.43086  -0.77846
   7.15650   0.43086  -1.01846
   6.91650   0.19086  -1.01846
   6.67650   0.19086  -1.25846
   6.67650   0.19086  -1.25846
   6.43650   0.19086  -1.49846
   6.19650  -0.04914  -1.73846
   5.95650  -0.04914  -1.73846
   5.71650  -0.04914  -1.97846
   5.47650  -0.04914  -2.21846
   5.23650  -0.04914  -2.45846
   5.23650  -0.28914  -2.69846
   4.99650  -0.28914  -2.93846
   4.75650  -0.28914  -3.17846
   4.51650  -0.28914  -3.41846
   4.28650  -0.28914  -3.41846
   4.04650  -0.28914  -3.89846
   4.04650  -0.28914  -3.89846
   3.80650  -0.52914  -4.13846
   3.56650  -0.52914  -4.37846
   3.32650  -0.52914  -4.61846
   3.08650  -0.52914  -5.09846
   2.84650  -0.52914  -5.32846
   2.60650  -0.52914  -5.56846
   2.36650  -0.52914  -5.80846
   2.12650  -0.28914  -6.04846
   1.88650  -0.28914  -6.28846
   1.64650  -0.52914  -6.76846
   1.40650  -0.28914  -7.00846
   1.16650  -0.52914  -7.24846
   1.16650  -0.52914  -7.48846
   0.68650  -0.52914  -7.96846
   0.68650  -0.52914  -8.20846
   0.20650  -0.52914  -8.68846
   0.20650  -0.52914  -8.92846
  -0.27350  -0.52914  -9.16846
  -0.27350  -0.52914  -9.40846
  -0.74350  -0.52914  -9.88846
  -0.74350  -0.52914 -10.11846
  -0.98350  -0.52914 -10.35846
  -1.22350  -0.52914 -10.83846
  -1.46350  -0.52914 -11.07846
  -1.70350  -0.76914 -11.31846
  -1.70350  -0.52914 -11.55846
  -1.94350  -0.76914 -11.79846
  -2.18350  -0.76914 -12.03846
  -2.42350  -0.76914 -12.27846
  -2.66350  -0.76914 -12.51846
  -2.66350  -0.76914 -12.75846
  -2.90350  -0.76914 -12.99846
  -3.14350  -0.76914 -13.23846
  -3.14350  -0.76914 -13.47846
  -3.38350  -0.76914 -13.71846
  -3.62350  -0.76914 -13.95846
  -3.62350  -1.00914 -14.19846
  -3.86350  -0.76914 -14.43846
  -4.10350  -0.76914 -14.67846
  -4.10350  -0.76914 -14.67846
  -4.58350  -0.76914 -14.90846
  -4.58350  -0.76914 -15.14846
  -4.82350  -0.76914 -15.14846
  -4.82350  -0.76914 -15.38846
  -5.06350  -0.76914 -15.14846
  -5.06350  -0.76914 -15.38846
  -5.30350  -0.76914 -15.38846
  -5.53350  -0.76914 -15.62846
  -5.53350  -0.52914 -15.38846
  -5.77350  -0.76914 -15.62846
  -6.01350  -0.76914 -15.62846
  -6.01350  -0.52914 -15.62846
  -6.01350  -0.52914 -15.62846
  -6.25350  -0.52914 -15.62846
  -6.25350  -0.52914 -15.38846
  -6.49350  -0.52914 -15.38846
  -6.49350  -0.52914 -15.38846
  -6.49350  -0.52914 -15.38846
  -6.49350  -0.52914 -15.14846
  -6.49350  -0.52914 -15.14846
  -6.73350  -0.52914 -14.90846
  -6.73350  -0.28914 -14.90846
  -6.73350  -0.28914 -14.67846
  -6.73350  -0.28914 -14.67846
  -6.97350  -0.28914 -14.43846
  -6.97350  -0.28914 -14.43846
  -6.97350  -0.52914 -14.19846
  -6.97350  -0.28914 -13.95846
  -6.97350  -0.28914 -13.95846
  -6.97350  -0.28914 -13.71846
  -6.97350  -0.28914 -13.47846
  -6.97350  -0.28914 -13.23846
  -6.97350  -0.28914 -13.23846
  -6.97350  -0.04914 -12.75846
  -6.97350  -0.04914 -12.51846
  -6.73350  -0.04914 -12.27846
  -6.73350  -0.04914 -12.27846
  -6.97350  -0.04914 -12.03846
  -6.73350   0.19086 -11.79846
  -6.73350   0.19086 -11.55846
  -6.49350   0.19086 -11.31846
  -6.49350   0.19086 -11.07846
  -6.49350   0.19086 -11.07846
  -6.49350   0.43086 -10.59846
  -6.49350   0.43086 -10.59846
  -6.25350   0.43086 -10.35846
  -6.25350   0.43086 -10.11846
  -6.25350   0.43086  -9.88846
  -6.01350   0.43086  -9.64846
  -6.01350   0.43086  -9.40846
  -5.77350   0.43086  -9.16846
  -5.53350   0.43086  -8.92846
  -5.77350   0.43086  -8.68846
  -5.30350   0.43086  -8.44846
  -5.30350   0.43086  -8.20846
  -5.06350   0.43086  -7.96846
  -5.06350   0.43086  -7.72846
  -4.82350   0.43086  -7.48846
  -4.82350   0.43086  -7.24846
  -4.58350   0.43086  -7.00846
  -4.58350   0.43086  -6.76846
  -4.34350   0.43086  -6.52846
  -4.10350   0.43086  -6.28846
  -4.10350   0.43086  -6.28846
  -3.86350   0.43086  -5.80846
  -3.62350   0.43086  -5.56846
  -3.62350   0.43086  -5.32846
  -3.38350   0.43086  -5.09846
  -3.14350   0.43086  -5.09846
  -3.14350   0.43086  -4.85846
  -3.14350   0.43086  -4.61846
  -2.90350   0.43086  -4.37846
  -2.90350   0.43086  -4.13846
  -2.66350   0.43086  -3.89846
  -2.66350   0.43086  -3.65846
  -2.42350   0.43086  -3.17846
  -2.42350   0.43086  -3.17846
  -2.18350   0.43086  -2.93846
  -2.18350   0.43086  -2.69846
  -2.18350   0.43086  -2.45846
  -2.18350   0.43086  -2.45846
  -1.94350   0.43086  -2.21846
  -1.70350   0.43086  -1.97846
  -1.70350   0.43086  -1.73846
  -1.70350   0.43086  -1.49846
  -1.46350   0.43086  -1.25846
  -1.46350   0.43086  -1.25846
  -1.46350   0.43086  -1.01846
  -1.22350   0.43086  -0.77846
  -1.22350   0.43086  -0.53846
  -1.22350   0.43086  -0.29846
  -0.98350   0.43086  -0.29846
  -0.98350   0.43086  -0.06846
  -0.98350   0.43086   0.17154
  -0.74350   0.43086   0.41154
  -0.74350   0.43086   0.41154
  -0.74350   0.43086   0.65154
  -0.50350   0.43086   0.89154
  -0.50350   0.43086   0.89154
  -0.50350   0.43086   1.13154
  -0.27350   0.19086   1.37154
  -0.27350   0.19086   1.37154
  -0.03350   0.19086   1.61154
  -0.03350   0.19086   1.61154
   0.20650   0.19086   1.85154
   0.44650   0.19086   1.85154
   0.20650   0.43086   1.85154
   0.44650   0.43086   2.09154
   0.44650   0.19086   2.09154
   0.68650   0.43086   2.33154
   0.68650   0.43086   2.57154
   0.92650   0.43086   2.57154
   0.92650   0.43086   2.57154
   1.16650   0.43086   2.81154
   1.16650   0.43086   2.81154
   1.40650   0.43086   3.05154
   1.40650   0.43086   3.29154
   1.64650   0.43086   3.29154
   1.64650   0.43086   3.53154
   1.64650   0.43086   3.53154
   1.88650   0.43086   3.77154
   2.12650   0.43086   3.77154
   2.12650   0.19086   4.01154
   2.36650   0.43086   4.01154
   2.36650   0.43086   4.25154
   2.36650   0.19086   4.25154
   2.60650   0.43086   4.25154
   2.60650   0.19086   4.49154
   2.84650   0.19086   4.72154
   2.84650   0.19086   4.72154
   3.08650   0.19086   4.96154
   3.08650   0.19086   4.96154
   3.08650   0.19086   4.96154
   3.08650  -0.04914   5.20154
   3.32650   0.19086   5.44154
   3.32650  -0.04914   5.44154
   3.32650  -0.04914   5.68154
   3.32650  -0.04914   5.68154
   3.56650  -0.04914   5.68154
   3.56650  -0.04914   5.92154
   3.56650  -0.04914   5.92154
   3.56650  -0.04914   6.16154
   3.56650  -0.04914   6.16154
   3.56650   0.19086   6.16154
   3.56650   0.19086   6.16154
   3.56650   0.19086   6.40154
   3.56650  -0.04914   6.40154
   3.56650  -0.04914   6.64154
   3.80650  -0.04914   6.64154
   3.56650  -0.04914   6.64154
   3.56650  -0.04914   6.64154
   3.56650  -0.04914   6.88154
   3.56650  -0.04914   6.64154
   3.56650  -0.04914   6.88154
   3.56650  -0.04914   7.12154
   3.56650  -0.04914   6.88154
   3.32650  -0.04914   7.12154
