********************************************************************************
               CENTRO DE INSTRUMENTACION Y REGISTRO SISMICO  A.C.  
                       Coordinacion de Servicios Tecnicos
     Anaxagoras 814, Col. Narvarte, Benito Juarez, C.P. 03020 Mexico, D.F.
            Tels. 667 45 42/ 687 45  82             Fax. 669 25 12
********************************************************************************
ARCHIVO ESTANDAR DE ACELERACION:
VERSION DEL FORMATO                    : 2.0
NOMBRE DEL ARCHIVO                     : AL019405.231
FECHA Y HORA DE CREACION               : 13 de febrero de 1996/18:38
REF. CATALOGO ACELEROGRAMAS, SMIS 1995 : REGISTRO No.     /PAG.


================================================================================
DATOS DE LA ESTACION:
NOMBRE DE LA ESTACION                  : ALAMEDA
CLAVE DE LA ESTACION                   : AL01
LOCALIZACION DE LA ESTACION            : JARDIN ALAMEDA ENTRE AV. HIDALGO Y AV.
                                       : JUAREZ, CENTRO
                                       :
                                       :
                                       :
COORDENADAS DE LA ESTACION             : 19.436 LAT. N 
                                       : 99.145 LONG. W 
ALTITUD (msnm)                         : 2232
TIPO DE SUELO                          : TERRENO BLANDO, MATERIAL COMPRESIBLE
                                       : (ARCILLAS)
                                       : 
INSTITUCION RESPONSABLE                : CIRES 
                                       :

================================================================================
DATOS DEL ACELEROGRAFO:
MODELO DEL ACELEROGRAFO                : SSA-1
NUMERO DE SERIE DEL ACELEROGRAFO       : 152
NUMERO DE CANALES                      : 3
ORIENTACION C1-C6 (rumbo;orientacion)  : /N00E/+V/N90E
ORIENTACION C7-C12 (rumbo;orientacion) :
VEL. DE MUESTREO, C1-C6 (muestras/s)   : /200/200/200
VEL. DE MUESTREO, C7-C12 (muestras/s)  :
ESC. COMPLETA DE SENSORES, C1-C6, (g)  : /2/2/2
ESC. COMPLETA DE SENSORES, C7-C12, (g) :
FREC. NAT. DE SENSORES, C1-C6, (Hz)    : /50/50/50
FREC. NAT. DE SENSORES, C7-C12, (Hz)   :
AMORTIGUAMIENTO DE SENSORES, C1-C6     : /0.700/0.700/0.700
AMORTIGUAMIENTO DE SENSORES, C7-C12    :
INTERVALO DE MUESTREO, C1-C6, (s)      : /0.005/0.005/0.005
INTERVALO DE MUESTREO, C7-C12, (s)     :
UMBRAL DE DISPARO, C1-C6, (Gal)        : /2/1.5/2
UMBRAL DE DISPARO, C7-C12, (Gal)       :
MEMORIA DE PREEVENTO (s)               : 15
TIEMPO DE POSEVENTO (s)                : 90


================================================================================
DATOS DEL SISMO:
FECHA DEL SISMO (GMT)                  : 23/MAY/94
HORA EPICENTRO (GMT)                   : 01:41:46,0
MAGNITUD(ES)                           : /Mc=5.60
COORDENADAS DEL EPICENTRO              : 18.030 LAT. N
                                       : 100.570 LONG. W
PROFUNDIDAD FOCAL (km)                 : 23
FUENTE DE LOS DATOS EPICENTRALES       : SSN
                                       : INSTITUTO DE GEOFISICA, UNAM

================================================================================
DATOS DE ESTE REGISTRO:
HORA DE LA PRIMERA MUESTRA (GMT)       : 01:42:00.00
EXACTITUD DEL TIEMPO (s)               :     
DURACION DEL REGISTRO (s), C1-C6       : /172.80/172.80/172.80
DURACION DEL REGISTRO (s), C7-C12      :
NUM. TOTAL DE MUESTRAS, C1-C6          : /34560/34560/34560
NUM. TOTAL DE MUESTRAS, C7-C12         :
ACEL. MAX. (Gal), C1-C6                : /10.03898/5.06983/10.68816
ACEL. MAX., C1-C6, EN LA MUESTRA       :
ACEL. MAX. (Gal), C7-C12               :
ACEL. MAX., C7-C12, EN LA MUESTRA      :
UNIDADES DE LOS DATOS                  : Gal (cm/s/s)
FACTOR DE DECIMACION                   : 1
FORMATO DATOS (FORTRAN,10 campos/dato) : 3F10.5


================================================================================
CALIDAD DEL ACELEROGRAMA:
REGISTRO DIGITAL COMPLETO, CARECE DE TIEMPO ABSOLUTO.


================================================================================
COMENTARIOS: 
             El equipo se encontraba con ganancias de 4 en todos los ejes,
             por lo que las escalas completas eran de 1/2 G.












================================================================================
DATOS DE ACELERACION:
---------+---------+---------+---------+---------+---------+---------+---------+
   CANAL-1   CANAL-2   CANAL-3   CANAL-4   CANAL-5   CANAL-6   CANAL-7   CANAL-8
      N00E        +V      N90E
---------+---------+---------+---------+---------+---------+---------+---------+
[...]
  -7.69102   1.94983   0.33184
  -7.69102   2.18983   0.09184
  -7.45102   2.18983   0.09184
  -7.45102   2.18983   0.09184
  -7.21102   2.18983  -0.14816
  -6.97102   2.42983  -0.38816
  -6.97102   2.42983  -0.38816
  -6.49102   2.42983  -0.62816
  -6.25102   2.42983  -0.62816
  -6.25102   2.66983  -0.86816
  -5.77102   2.42983  -0.86816
  -5.77102   2.42983  -0.86816
  -5.29102   2.18983  -1.10816
  -4.81102   2.18983  -1.10816
  -4.57102   2.18983  -1.34816
  -4.33102   2.18983  -1.34816
  -4.10102   1.94983  -1.58816
  -3.86102   1.94983  -1.58816
  -3.62102   1.94983  -1.82816
  -3.62102   1.70983  -1.82816
  -3.38102   1.46983  -1.82816
  -3.14102   1.22983  -2.06816
  -3.14102   1.22983  -2.06816
  -2.90102   0.99983  -2.30816
  -2.90102   0.99983  -2.30816
  -2.66102   0.99983  -2.30816
  -2.66102   0.75983  -2.30816
  -2.42102   0.51983  -2.54816
  -2.42102   0.75983  -2.54816
  -2.18102   0.51983  -2.54816
  -2.18102   0.51983  -2.54816
  -1.94102   0.51983  -2.54816
  -1.94102   0.51983  -2.54816
  -1.70102   0.51983  -2.54816
  -1.70102   0.27983  -2.78816
  -1.46102   0.03983  -2.54816
  -1.46102   0.03983  -2.54816
  -1.22102  -0.44017  -2.30816
  -1.22102  -0.68017  -2.30816
  -0.98102  -0.68017  -2.30816
  -0.74102  -0.92017  -2.06816
  -0.74102  -0.92017  -2.06816
  -0.50102  -1.16017  -1.82816
  -0.26102  -1.16017  -1.82816
  -0.26102  -1.16017  -1.82816
  -0.02102  -1.16017  -1.58816
   0.21898  -1.16017  -1.34816
   0.21898  -1.40017  -1.34816
   0.45898  -1.40017  -1.10816
   0.45898  -1.40017  -1.10816
   0.69898  -1.40017  -1.10816
   0.92898  -1.64017  -0.86816
   0.92898  -1.64017  -0.86816
   1.16898  -1.64017  -0.86816
   1.16898  -1.88017  -0.86816
   1.40898  -2.12017  -0.86816
   1.40898  -2.12017  -0.86816
   1.40898  -2.36017  -0.86816
   1.40898  -2.36017  -0.86816
   1.64898  -2.36017  -0.62816
   1.64898  -2.12017  -0.86816
   1.64898  -2.12017  -0.62816
   1.64898  -2.12017  -0.62816
   1.64898  -1.88017  -0.86816
   1.64898  -1.88017  -0.86816
   1.64898  -1.88017  -0.62816
   1.64898  -1.88017  -0.62816
   1.40898  -1.88017  -0.62816
   1.40898  -1.88017  -0.62816
   1.40898  -1.88017  -0.86816
   1.16898  -1.88017  -0.86816
   1.16898  -1.88017  -1.10816
   0.92898  -1.88017  -1.10816
   0.92898  -1.88017  -1.34816
   0.69898  -2.12017  -1.58816
   0.69898  -2.12017  -1.58816
   0.69898  -1.88017  -1.82816
   0.45898  -1.88017  -1.82816
   0.45898  -1.88017  -2.06816
   0.45898  -1.64017  -2.30816
   0.21898  -1.64017  -2.54816
   0.21898  -1.64017  -2.78816
   0.21898  -1.64017  -3.02816
   0.21898  -1.40017  -3.26816
   0.21898  -1.40017  -3.26816
   0.45898  -1.16017  -3.50816
   0.69898  -0.92017  -3.74816
   0.69898  -0.68017  -3.74816
   0.92898  -0.44017  -3.98816
   1.16898  -0.20017  -4.21816
   1.40898   0.03983  -4.21816
   1.64898   0.27983  -4.45816
   1.88898   0.27983  -4.69816
   2.12898   0.51983  -4.93816
   2.60898   0.75983  -5.17816
   2.84898   0.75983  -5.41816
   3.08898   0.75983  -5.65816
   3.32898   0.99983  -6.13816
   3.56898   1.22983  -6.13816
   4.04898   1.22983  -6.37816
   4.28898   1.46983  -6.61816
   4.76898   1.70983  -6.61816
   5.00898   1.70983  -6.85816
   5.48898   1.70983  -6.85816
   5.95898   1.70983  -7.09816
   6.19898   1.70983  -7.33816
   6.67898   1.94983  -7.33816
   6.67898   1.94983  -7.57816
   7.15898   2.18983  -7.57816
   7.39898   2.18983  -7.57816
   7.87898   2.18983  -7.57816
   8.11898   2.18983  -7.81816
   8.35898   2.18983  -7.81816
   8.59898   2.18983  -7.81816
   8.83898   2.18983  -7.81816
   8.83898   2.18983  -7.81816
   9.07898   1.94983  -7.81816
   9.31898   1.94983  -7.57816
   9.55898   2.18983  -7.57816
   9.55898   1.94983  -7.57816
   9.79898   1.94983  -7.57816
   9.79898   1.70983  -7.57816
   9.79898   1.94983  -7.33816
   9.79898   1.70983  -7.09816
  10.03898   1.70983  -7.09816
   9.79898   1.46983  -7.09816
   9.79898   1.46983  -6.85816
   9.79898   1.22983  -6.61816
   9.55898   0.99983  -6.37816
   9.31898   0.99983  -6.13816
   9.07898   0.75983  -5.89816
   8.83898   0.51983  -5.65816
   8.59898   0.27983  -5.41816
   8.11898   0.27983  -5.17816
   7.87898   0.03983  -4.93816
   7.63898  -0.20017  -4.69816
   7.39898  -0.44017  -4.69816
   7.15898  -0.68017  -4.45816
   6.91898  -0.92017  -4.21816
   6.91898  -1.16017  -3.98816
   6.67898  -1.40017  -3.74816
   6.43898  -1.40017  -3.50816
   6.19898  -1.64017  -3.26816
   6.19898  -1.64017  -3.02816
   5.95898  -1.64017  -2.78816
   5.71898  -1.64017  -2.54816
   5.48898  -1.40017  -2.06816
   5.48898  -1.40017  -1.82816
   5.24898  -1.16017  -1.58816
   5.24898  -1.16017  -1.34816
   5.00898  -1.16017  -1.10816
   5.00898  -0.92017  -0.86816
   5.00898  -0.68017  -0.62816
   4.76898  -0.92017  -0.38816
   4.76898  -0.68017  -0.14816
   4.76898  -0.68017   0.09184
   4.76898  -0.68017   0.33184
   4.76898  -0.68017   0.57184
   4.76898  -0.92017   0.57184
   4.76898  -0.92017   0.81184
   4.52898  -0.92017   1.04184
   4.76898  -0.92017   1.28184
   4.76898  -0.92017   1.52184
   4.52898  -0.92017   1.52184
   4.52898  -1.16017   1.76184
   4.52898  -0.92017   2.00184
   4.76898  -0.92017   2.00184
   4.76898  -0.92017   2.48184
   5.00898  -0.68017   2.48184
   5.00898  -0.44017   2.72184
   5.24898  -0.20017   2.96184
   5.24898   0.03983   3.20184
   5.48898   0.03983   3.20184
   5.48898   0.27983   3.68184
   5.71898   0.51983   3.92184
   5.71898   0.51983   4.16184
   5.95898   0.51983   4.16184
   5.95898   0.51983   4.40184
   5.95898   0.51983   4.64184
   5.71898   0.51983   4.88184
   5.48898   0.51983   4.88184
   5.48898   0.27983   5.12184
   5.24898   0.51983   5.12184
   5.00898   0.27983   5.36184
   4.76898   0.03983   5.60184
   4.76898   0.03983   5.60184
   4.52898   0.03983   5.83184
   4.28898   0.03983   5.83184
   4.04898  -0.20017   6.07184
   3.80898  -0.20017   6.07184
   3.56898  -0.20017   6.07184
   3.32898  -0.20017   6.31184
   3.08898  -0.20017   6.07184
   2.84898  -0.20017   6.55184
   2.36898  -0.20017   6.55184
   2.12898  -0.20017   6.79184
   1.88898  -0.20017   7.03184
   1.40898  -0.20017   7.03184
   1.16898  -0.20017   7.27184
   0.92898  -0.20017   7.27184
   0.45898  -0.20017   7.51184
  -0.02102  -0.20017   7.51184
  -0.26102   0.03983   7.51184
  -0.50102   0.03983   7.51184
  -0.74102   0.03983   7.51184
  -1.22102   0.27983   7.51184
  -1.46102   0.27983   7.51184
  -1.94102   0.51983   7.51184
  -2.18102   0.51983   7.51184
  -2.42102   0.75983   7.27184
  -2.90102   0.75983   7.27184
  -3.38102   0.75983   7.03184
  -3.86102   0.75983   7.03184
  -4.10102   0.75983   7.03184
  -4.57102   0.51983   6.79184
  -4.81102   0.75983   6.79184
  -5.29102   0.75983   6.79184
  -5.53102   0.75983   6.55184
  -5.77102   0.75983   6.31184
  -6.01102   0.51983   6.55184
  -6.25102   0.51983   6.31184
  -6.49102   0.27983   6.31184
  -6.49102   0.27983   6.07184
  -6.73102   0.27983   6.07184
  -6.97102   0.27983   5.83184
  -6.97102   0.27983   5.60184
  -7.21102   0.27983   5.36184
  -6.97102   0.51983   5.12184
  -6.97102   0.75983   4.88184
  -7.21102   0.75983   4.64184
  -7.21102   0.99983   4.40184
  -7.21102   1.22983   4.40184
  -7.21102   1.46983   3.92184
  -7.21102   1.70983   3.92184
  -7.21102   1.70983   3.68184
  -7.21102   1.94983   3.44184
  -7.21102   2.18983   3.20184
  -6.97102   2.18983   2.96184
  -6.97102   2.42983   2.72184
  -6.97102   2.66983   2.72184
  -6.97102   2.66983   2.48184
  -6.73102   2.66983   2.24184
  -6.73102   2.66983   2.24184
  -6.49102   2.66983   2.00184
  -6.49102   2.66983   1.76184
  -6.25102   2.42983   1.76184
  -6.25102   2.42983   1.52184
  -6.01102   2.42983   1.52184
  -6.01102   1.94983   1.04184
  -5.53102   1.94983   1.28184
  -5.29102   1.94983   1.28184
  -5.29102   1.70983   1.28184
  -5.05102   1.46983   1.04184
  -4.81102   1.46983   1.04184
  -4.57102   1.22983   1.04184
  -4.10102   0.99983   0.81184
  -3.86102   0.75983   0.81184
  -3.86102   0.51983   0.81184
  -3.38102   0.51983   0.81184
  -3.38102   0.27983   0.57184
  -2.90102   0.03983   0.57184
  -2.90102  -0.20017   0.57184
  -2.66102  -0.20017   0.33184
  -2.42102  -0.20017   0.33184
  -2.18102  -0.44017   0.57184
  -1.94102  -0.44017   0.57184
  -1.94102  -0.68017   0.57184
  -1.70102  -0.68017   0.57184
  -1.46102  -0.68017   0.57184
  -1.22102  -0.92017   0.57184
  -0.98102  -0.92017   0.57184
  -0.98102  -0.92017   0.57184
  -0.74102  -1.16017   0.57184
  -0.26102  -1.40017   0.81184
  -0.02102  -1.40017   0.81184
  -0.02102  -1.40017   0.81184
   0.21898  -1.64017   0.81184
   0.45898  -1.64017   0.81184
   0.69898  -1.64017   1.04184
   0.92898  -1.88017   1.28184
   1.16898  -1.88017   1.28184
   1.16898  -1.88017   1.52184
   1.64898  -2.12017   1.76184
   1.64898  -2.12017   1.76184
   1.88898  -2.12017   2.00184
   2.12898  -2.12017   2.00184
   2.36898  -2.36017   2.24184
   2.36898  -2.36017   2.24184
   2.60898  -2.12017   2.72184
   2.84898  -2.36017   2.72184
   2.84898  -2.36017   2.96184
   3.08898  -2.36017   2.96184
   3.32898  -2.12017   3.20184
   3.32898  -2.12017   3.44184
   3.32898  -2.12017   3.68184
   3.32898  -1.88017   3.68184
   3.32898  -1.88017   3.92184
   3.32898  -1.88017   4.16184
   3.32898  -1.64017   4.16184
   3.08898  -1.64017   4.16184
   3.32898  -1.40017   4.40184
   3.32898  -1.16017   4.40184
   3.32898  -0.92017   4.40184
   3.32898  -0.68017   4.40184
   3.56898  -0.44017   4.16184
   3.56898  -0.20017   4.16184
   3.56898   0.03983   4.16184
   3.56898   0.27983   3.92184
   3.56898   0.51983   3.68184
   3.32898   0.75983   3.44184
   3.32898   0.75983   2.96184
   3.08898   0.99983   2.96184
   2.84898   1.22983   2.48184
   2.60898   1.22983   2.00184
   2.36898   1.46983   1.52184
   2.12898   1.22983   1.04184
   1.88898   1.22983   0.33184
   1.64898   1.22983  -0.14816
   1.64898   1.22983  -0.62816
   1.40898   1.46983  -1.34816
   1.16898   1.22983  -1.82816
   0.92898   1.22983  -2.30816
   0.92898   1.22983  -3.02816
   0.69898   0.99983  -3.50816
   0.69898   1.22983  -3.98816
   0.45898   1.22983  -4.45816
   0.45898   1.22983  -4.93816
   0.21898   1.22983  -5.41816
  -0.02102   1.46983  -5.65816
  -0.26102   1.46983  -6.13816
  -0.26102   1.70983  -6.61816
  -0.50102   1.70983  -7.09816
  -0.50102   1.94983  -7.57816
  -0.74102   1.94983  -8.05816
  -0.98102   1.94983  -8.53816
  -0.98102   2.18983  -8.77816
  -1.22102   2.18983  -9.00816
  -1.22102   2.18983  -9.48816
  -1.46102   2.18983  -9.72816
  -1.46102   2.18983  -9.96816
  -1.70102   1.94983 -10.20816
  -1.94102   1.94983 -10.20816
  -1.94102   1.70983 -10.44816
  -1.94102   1.70983 -10.44816
  -2.18102   1.70983 -10.44816
  -2.18102   1.46983 -10.44816
  -2.18102   1.46983 -10.68816
  -2.18102   1.22983 -10.68816
  -2.42102   0.99983 -10.68816
  -2.42102   0.99983 -10.44816
  -2.42102   0.75983 -10.44816
  -2.42102   0.75983 -10.44816
  -2.42102   0.75983 -10.44816
  -2.66102   0.75983 -10.44816
  -2.66102   0.51983 -10.20816
  -2.66102   0.51983  -9.96816
  -2.90102   0.27983  -9.96816
  -2.90102   0.27983  -9.48816
  -3.14102   0.03983  -9.24816
  -3.14102   0.03983  -9.00816
  -3.38102  -0.20017  -8.53816
  -3.62102  -0.44017  -8.29816
  -3.86102  -0.68017  -7.81816
  -4.10102  -0.68017  -7.33816
  -4.33102  -1.16017  -7.09816
  -4.33102  -1.16017  -6.61816
  -4.57102  -1.40017  -6.37816
  -4.81102  -1.64017  -5.89816
  -5.05102  -1.88017  -5.41816
  -5.05102  -2.12017  -4.93816
  -5.29102  -2.12017  -4.69816
  -5.29102  -2.36017  -4.21816
  -5.53102  -2.60017  -3.74816
  -5.53102  -2.84017  -3.26816
  -5.53102  -3.08017  -2.78816
  -5.53102  -3.32017  -2.30816
  -5.53102  -3.56017  -1.82816
  -5.53102  -3.56017  -1.34816
  -5.77102  -4.03017  -0.86816
  -5.77102  -4.03017  -0.38816
  -5.77102  -4.03017   0.09184
  -5.77102  -4.27017   0.57184
  -5.77102  -4.27017   0.81184
  -5.77102  -4.03017   1.28184
  -5.53102  -4.03017   1.76184
  -5.53102  -4.03017   2.00184
  -5.29102  -4.03017   2.48184
  -5.29102  -4.03017   2.72184
  -5.05102  -4.03017   3.20184
  -4.81102  -4.03017   3.68184
  -4.57102  -4.03017   3.92184
  -4.33102  -4.03017   4.16184
  -4.10102  -4.03017   4.40184
  -3.86102  -4.03017   4.64184
  -3.62102  -4.03017   4.88184
  -3.38102  -3.80017   5.12184
  -2.90102  -3.80017   5.36184
  -2.90102  -3.56017   5.60184
  -2.42102  -3.32017   5.83184
  -2.42102  -3.08017   5.83184
  -2.18102  -3.08017   6.07184
  -1.94102  -2.84017   6.07184
  -1.70102  -2.84017   6.07184
  -1.46102  -2.84017   6.07184
  -0.98102  -2.60017   6.07184
  -0.98102  -2.60017   6.07184
  -0.74102  -2.36017   6.31184
  -0.74102  -2.36017   6.31184
  -0.50102  -2.12017   6.07184
  -0.50102  -2.12017   6.07184
  -0.50102  -1.88017   6.07184
  -0.26102  -1.88017   5.83184
  -0.26102  -1.64017   5.83184
  -0.26102  -1.64017   5.60184
  -0.02102  -1.16017   5.60184
  -0.02102  -1.16017   5.12184
  -0.02102  -0.68017   5.12184
  -0.02102  -0.44017   4.88184
  -0.02102  -0.20017   4.64184
  -0.02102   0.27983   4.16184
   0.21898   0.27983   3.92184
   0.21898   0.75983   3.44184
   0.21898   0.75983   3.20184
  -0.02102   0.99983   2.96184
  -0.02102   1.46983   2.72184
  -0.02102   1.70983   2.48184
  -0.02102   1.70983   2.00184
  -0.02102   1.94983   1.76184
  -0.26102   2.18983   1.52184
  -0.26102   2.42983   1.28184
  -0.50102   2.66983   0.81184
  -0.50102   2.90983   0.57184
  -0.74102   3.14983   0.57184
  -0.74102   3.14983   0.09184
  -0.74102   3.62983   0.09184
  -0.74102   3.62983  -0.14816
  -0.98102   3.86983  -0.38816
  -0.98102   4.34983  -0.62816
  -0.98102   4.58983  -0.86816
  -1.22102   4.82983  -0.86816
  -1.46102   4.82983  -1.10816
  -1.46102   5.06983  -1.10816
  -1.94102   5.06983  -1.34816
  -1.94102   5.06983  -1.34816
  -2.18102   5.06983  -1.34816
  -2.42102   5.06983  -1.34816
  -2.66102   5.06983  -1.34816
  -2.90102   5.06983  -1.34816
  -3.38102   5.06983  -1.34816
  -3.38102   5.06983  -1.34816
  -3.62102   5.06983  -1.34816
  -3.86102   5.06983  -1.10816
  -4.10102   5.06983  -1.10816
  -4.10102   4.82983  -0.86816
  -4.10102   4.82983  -0.86816
  -4.33102   5.06983  -0.86816
  -4.33102   5.06983  -0.62816
  -4.33102   4.82983  -0.62816
  -4.33102   5.06983  -0.38816
  -4.33102   5.06983  -0.38816
  -4.33102   5.06983  -0.38816
  -4.33102   5.06983  -0.14816
  -4.10102   5.06983  -0.14816
  -4.10102   5.06983   0.09184
  -4.10102   5.06983   0.09184
  -3.86102   5.06983   0.33184
  -3.62102   5.06983   0.33184
  -3.62102   5.06983   0.33184
  -3.62102   5.06983   0.33184
  -3.38102   5.06983   0.09184
  -3.38102   4.82983   0.09184
  -3.14102   4.58983  -0.14816
  -2.90102   4.58983  -0.14816
  -2.66102   4.10983  -0.38816
  -2.42102   3.86983  -0.62816
  -2.18102   3.62983  -0.62816
  -2.18102   3.38983  -0.86816
  -2.18102   2.90983  -1.10816
  -1.94102   2.66983  -1.34816
  -1.70102   2.42983  -1.58816
  -1.46102   2.18983  -1.58816
  -1.22102   1.70983  -1.58816
  -0.98102   1.46983  -1.58816
  -0.74102   1.22983  -1.58816
  -0.74102   0.99983  -1.82816
  -0.50102   0.75983  -1.82816
  -0.26102   0.27983  -1.82816
  -0.02102   0.03983  -1.82816
   0.21898  -0.44017  -1.82816
   0.45898  -0.68017  -1.82816
   0.92898  -1.16017  -1.82816
   0.92898  -1.40017  -2.06816
   1.16898  -1.64017  -2.06816
   1.40898  -1.88017  -2.06816
   1.40898  -2.36017  -2.06816
