********************************************************************************
               CENTRO DE INSTRUMENTACION Y REGISTRO SISMICO  A.C.  
                       Coordinacion de Servicios Tecnicos
     Anaxagoras 814, Col. Narvarte, Benito Juarez, C.P. 03020 Mexico, D.F.
            Tels. 667 45 42/ 687 45  82             Fax. 669 25 12
********************************************************************************
ARCHIVO ESTANDAR DE ACELERACION:
VERSION DEL FORMATO                    : 2.0
NOMBRE DEL ARCHIVO                     : AL010401.011
FECHA Y HORA DE CREACION               : 27/OCT/04, 10:13
REF. CATALOGO ACELEROGRAMAS, SMIS 1996 : REGISTRO No.     /PAG.


================================================================================
DATOS DE LA ESTACION:
NOMBRE DE LA ESTACION                  : ALAMEDA
CLAVE DE LA ESTACION                   : AL01
LOCALIZACION DE LA ESTACION            : JARDIN ALAMEDA ENTRE AV. HIDALGO Y AV.
                                       : JUAREZ, CENTRO
                                       :
                                       :
                                       :
COORDENADAS DE LA ESTACION             : 19.436 LAT. N 
                                       : 99.145 LONG. W 
ALTITUD (msnm)                         : 2232
TIPO DE SUELO                          : TERRENO BLANDO, MATERIAL COMPRESIBLE
                                       : (ARCILLAS)
                                       : 
INSTITUCION RESPONSABLE                : CIRES 
                                       :

================================================================================
DATOS DEL ACELEROGRAFO:
MODELO DEL ACELEROGRAFO                : SSA-1
NUMERO DE SERIE DEL ACELEROGRAFO       : 152
NUMERO DE CANALES                      : 3
ORIENTACION C1-C6 (rumbo;orientacion)  : /N00E/+V/N90E
ORIENTACION C7-C12 (rumbo;orientacion) :
VEL. DE MUESTREO, C1-C6 (muestras/s)   : /200/200/200
VEL. DE MUESTREO, C7-C12 (muestras/s)  :
ESC. COMPLETA DE SENSORES, C1-C6, (g)  : /2/2/2
ESC. COMPLETA DE SENSORES, C7-C12, (g) :
FREC. NAT. DE SENSORES, C1-C6, (Hz)    : /51.29/51.09/53.75
FREC. NAT. DE SENSORES, C7-C12, (Hz)   :
AMORTIGUAMIENTO DE SENSORES, C1-C6     : /.5519/.5670/.5810
AMORTIGUAMIENTO DE SENSORES, C7-C12    :
INTERVALO DE MUESTREO, C1-C6, (s)      : /0.005/0.005/0.005
INTERVALO DE MUESTREO, C7-C12, (s)     :
UMBRAL DE DISPARO, C1-C6, (Gal)        : /2/1.5/2
UMBRAL DE DISPARO, C7-C12, (Gal)       :
MEMORIA DE PREEVENTO (s)               : 15
TIEMPO DE POSEVENTO (s)                : 60


================================================================================
DATOS DEL SISMO:
FECHA DEL SISMO (GMT)                  : 01/ENE/04
HORA EPICENTRO (GMT)                   : 23:31:49:0
MAGNITUD(ES)                           : /Ms=6.3
COORDENADAS DEL EPICENTRO              : 17.31 LAT. N
                                       : -101.42 LONG. W
PROFUNDIDAD FOCAL (km)                 : 10.0
FUENTE DE LOS DATOS EPICENTRALES       : SSN
                                       : INSTITUTO DE GEOFISICA, UNAM

================================================================================
DATOS DE ESTE REGISTRO:
HORA DE LA PRIMERA MUESTRA (GMT)       : 23:33:13.00
EXACTITUD DEL TIEMPO (s)               :     
DURACION DEL REGISTRO (s), C1-C6       : /139.52/139.52/139.52
DURACION DEL REGISTRO (s), C7-C12      :
NUM. TOTAL DE MUESTRAS, C1-C6          : /27904/27904/27904
NUM. TOTAL DE MUESTRAS, C7-C12         :
ACEL. MAX. (Gal), C1-C6                : /-7.66760/1.84656/-6.39168
ACEL. MAX., C1-C6, EN LA MUESTRA       :
ACEL. MAX. (Gal), C7-C12               :
ACEL. MAX., C7-C12, EN LA MUESTRA      :
UNIDADES DE LOS DATOS                  : Gal (cm/s/s)
FACTOR DE DECIMACION                   : 1
FORMATO DATOS (FORTRAN,10 campos/dato) : 3F10.5


================================================================================
CALIDAD DEL ACELEROGRAMA:
REGISTRO DIGITAL COMPLETO, CARECE DE TIEMPO ABSOLUTO.


================================================================================
COMENTARIOS:














================================================================================
DATOS DE ACELERACION:
---------+---------+---------+---------+---------+---------+---------+---------+
   CANAL-1   CANAL-2   CANAL-3   CANAL-4   CANAL-5   CANAL-6   CANAL-7   CANAL-8
      N00E        +V      N90E
---------+---------+---------+---------+---------+---------+---------+---------+
[...]
   0.23240  -0.55344   0.79832
   0.23240  -0.55344   1.03832
   0.23240  -0.55344   1.27832
   0.47240  -0.55344   1.03832
   0.47240  -0.55344   1.27832
   0.47240  -0.55344   1.51832
   0.47240  -0.55344   1.51832
   0.47240  -0.55344   1.51832
   0.47240  -0.55344   1.75832
   0.47240  -0.31344   1.99832
   0.47240  -0.55344   1.99832
   0.47240  -0.55344   1.99832
   0.47240  -0.55344   1.99832
   0.47240  -0.55344   1.99832
   0.71240  -0.55344   2.22832
   0.71240  -0.55344   2.22832
   0.71240  -0.55344   2.22832
   0.71240  -0.55344   2.22832
   0.95240  -0.55344   2.22832
   0.95240  -0.31344   2.22832
   0.95240  -0.31344   2.22832
   0.95240  -0.55344   2.22832
   0.71240  -0.55344   2.22832
   0.71240  -0.55344   2.46832
   0.71240  -0.79344   2.46832
   0.95240  -0.79344   2.46832
   0.95240  -0.79344   2.46832
   0.95240  -0.79344   2.46832
   1.19240  -0.79344   2.46832
   0.95240  -0.79344   2.46832
   1.19240  -0.55344   2.46832
   1.19240  -0.55344   2.46832
   1.19240  -0.55344   2.46832
   1.19240  -0.55344   2.46832
   1.19240  -0.55344   2.70832
   1.19240  -0.55344   2.70832
   1.19240  -0.55344   2.70832
   1.19240  -0.55344   2.70832
   1.19240  -0.55344   2.94832
   1.19240  -0.55344   2.94832
   1.19240  -0.55344   2.94832
   1.19240  -0.55344   2.94832
   1.19240  -0.55344   3.18832
   1.19240  -0.55344   3.18832
   1.19240  -0.55344   3.18832
   1.19240  -0.55344   3.18832
   1.19240  -0.55344   3.42832
   1.19240  -0.55344   3.18832
   1.19240  -0.31344   3.42832
   1.19240  -0.31344   3.66832
   1.19240  -0.55344   3.66832
   1.19240  -0.31344   3.66832
   1.19240  -0.31344   3.66832
   1.19240  -0.31344   3.90832
   1.19240  -0.31344   3.90832
   0.95240  -0.31344   3.90832
   0.95240  -0.07344   4.14832
   0.95240  -0.07344   4.14832
   0.95240  -0.07344   4.14832
   0.71240  -0.07344   4.38832
   0.95240  -0.07344   4.38832
   0.95240  -0.07344   4.38832
   0.95240   0.16656   4.38832
   0.71240   0.16656   4.38832
   0.71240   0.16656   4.38832
   0.71240   0.16656   4.38832
   0.71240  -0.07344   4.38832
   0.71240   0.16656   4.38832
   0.71240   0.16656   4.38832
   0.47240   0.16656   4.38832
   0.71240   0.16656   4.38832
   0.71240   0.16656   4.14832
   0.71240   0.16656   4.14832
   0.71240   0.40656   4.14832
   0.71240   0.16656   4.14832
   0.71240   0.40656   4.14832
   0.71240   0.40656   3.90832
   0.71240   0.40656   3.90832
   0.71240   0.40656   3.66832
   0.71240   0.40656   3.66832
   0.47240   0.64656   3.42832
   0.47240   0.64656   3.42832
   0.47240   0.64656   3.18832
   0.47240   0.64656   3.18832
   0.47240   0.64656   2.94832
   0.47240   0.64656   2.94832
   0.23240   0.88656   2.70832
   0.23240   0.88656   2.46832
   0.23240   0.88656   2.46832
   0.47240   0.88656   2.22832
   0.23240   0.88656   2.22832
   0.47240   0.88656   1.99832
   0.47240   0.88656   1.75832
   0.47240   0.88656   1.75832
   0.23240   0.88656   1.51832
   0.23240   0.88656   1.27832
   0.23240   0.88656   1.27832
   0.23240   0.88656   1.03832
   0.23240   0.88656   1.03832
   0.23240   0.88656   1.03832
   0.23240   0.88656   0.79832
   0.23240   0.88656   0.79832
   0.23240   0.88656   0.55832
   0.23240   0.88656   0.55832
   0.23240   0.88656   0.31832
   0.23240   0.88656   0.31832
   0.23240   0.88656   0.07832
   0.23240   0.88656   0.07832
   0.23240   0.64656   0.07832
   0.23240   0.64656   0.07832
   0.23240   0.64656  -0.16168
   0.47240   0.64656  -0.16168
   0.47240   0.64656  -0.16168
   0.47240   0.88656  -0.16168
   0.47240   0.88656  -0.16168
   0.47240   0.88656  -0.16168
   0.47240   0.88656  -0.40168
   0.71240   0.88656  -0.40168
   0.71240   0.64656  -0.40168
   0.71240   0.64656  -0.40168
   0.71240   0.64656  -0.64168
   0.71240   0.64656  -0.64168
   0.95240   0.64656  -0.64168
   0.95240   0.64656  -0.64168
   1.19240   0.64656  -0.64168
   1.19240   0.64656  -0.64168
   1.19240   0.64656  -0.88168
   1.43240   0.64656  -1.12168
   1.43240   0.64656  -1.12168
   1.67240   0.64656  -1.12168
   1.67240   0.64656  -1.12168
   1.67240   0.88656  -1.12168
   1.67240   0.88656  -1.36168
   1.67240   0.88656  -1.36168
   1.67240   0.88656  -1.36168
   1.67240   0.88656  -1.60168
   1.91240   0.88656  -1.60168
   1.67240   0.88656  -1.60168
   1.91240   0.64656  -1.60168
   1.91240   0.64656  -1.84168
   1.91240   0.64656  -1.84168
   1.91240   0.64656  -1.84168
   1.91240   0.40656  -2.08168
   1.91240   0.40656  -2.08168
   2.15240   0.40656  -2.08168
   1.91240   0.40656  -2.08168
   1.91240   0.40656  -2.08168
   1.67240   0.64656  -2.08168
   1.91240   0.64656  -2.32168
   1.67240   0.64656  -2.32168
   1.67240   0.64656  -2.32168
   1.67240   0.64656  -2.32168
   1.67240   0.64656  -2.32168
   1.67240   0.40656  -2.32168
   1.67240   0.40656  -2.32168
   1.67240   0.40656  -2.32168
   1.67240   0.40656  -2.32168
   1.67240   0.40656  -2.32168
   1.67240   0.16656  -2.32168
   1.67240   0.16656  -2.56168
   1.67240   0.16656  -2.56168
   1.67240   0.16656  -2.56168
   1.91240   0.40656  -2.56168
   1.67240   0.40656  -2.56168
   1.67240   0.40656  -2.32168
   1.67240   0.40656  -2.32168
   1.67240   0.40656  -2.32168
   1.67240   0.40656  -2.32168
   1.67240   0.40656  -2.32168
   1.67240   0.40656  -2.08168
   1.19240   0.40656  -2.56168
   1.91240   0.40656  -2.08168
   1.91240   0.16656  -2.08168
   1.91240   0.40656  -2.08168
   2.15240   0.16656  -2.08168
   2.15240   0.16656  -1.84168
   2.15240   0.16656  -1.84168
   2.15240   0.16656  -1.84168
   2.15240   0.16656  -1.84168
   2.39240   0.16656  -1.84168
   2.39240   0.16656  -1.84168
   2.62240   0.16656  -1.84168
   2.62240   0.16656  -1.60168
   2.86240   0.16656  -1.60168
   2.86240   0.16656  -1.60168
   2.86240  -0.07344  -1.36168
   2.86240  -0.07344  -1.36168
   3.10240  -0.07344  -1.60168
   3.34240  -0.07344  -1.36168
   3.34240  -0.07344  -1.36168
   3.58240  -0.07344  -1.36168
   3.58240  -0.31344  -1.12168
   3.58240  -0.31344  -1.12168
   3.58240  -0.31344  -1.12168
   3.82240  -0.31344  -1.12168
   4.06240  -0.31344  -1.12168
   4.06240  -0.31344  -0.88168
   4.30240  -0.31344  -0.88168
   4.30240  -0.31344  -0.88168
   4.30240  -0.31344  -0.64168
   4.54240  -0.31344  -0.64168
   4.54240  -0.55344  -0.64168
   4.54240  -0.55344  -0.64168
   4.54240  -0.55344  -0.40168
   4.78240  -0.55344  -0.40168
   4.78240  -0.79344  -0.16168
   4.78240  -0.79344  -0.16168
   4.78240  -0.79344   0.07832
   5.02240  -0.79344   0.07832
   5.02240  -0.79344   0.07832
   5.02240  -1.03344   0.31832
   5.02240  -1.03344   0.55832
   5.02240  -0.79344   0.55832
   5.02240  -0.79344   0.79832
   5.02240  -0.79344   0.79832
   5.02240  -1.03344   0.79832
   5.02240  -1.03344   1.03832
   5.02240  -1.03344   1.27832
   5.02240  -1.03344   1.27832
   5.02240  -1.03344   1.27832
   5.02240  -1.03344   1.51832
   5.02240  -1.03344   1.51832
   4.78240  -0.79344   1.75832
   4.78240  -1.03344   1.75832
   4.78240  -1.03344   1.75832
   4.54240  -1.03344   1.99832
   4.54240  -1.03344   1.99832
   4.54240  -1.03344   1.99832
   4.54240  -0.79344   1.99832
   4.54240  -0.79344   1.99832
   4.30240  -0.79344   1.99832
   4.30240  -0.79344   1.99832
   4.06240  -0.79344   2.22832
   4.06240  -0.79344   1.99832
   4.06240  -0.79344   1.99832
   4.06240  -0.79344   1.99832
   4.06240  -1.03344   1.99832
   3.82240  -0.79344   1.99832
   3.82240  -1.03344   1.99832
   3.82240  -0.79344   1.99832
   3.58240  -0.79344   1.99832
   3.58240  -0.79344   1.75832
   3.58240  -0.79344   1.75832
   3.58240  -0.79344   1.75832
   3.58240  -0.55344   1.75832
   3.34240  -0.55344   1.75832
   3.34240  -0.55344   1.51832
   3.10240  -0.55344   1.51832
   3.10240  -0.55344   1.51832
   3.10240  -0.31344   1.51832
   2.86240  -0.31344   1.27832
   2.86240  -0.31344   1.27832
   2.86240  -0.31344   1.27832
   2.62240  -0.31344   1.27832
   2.62240  -0.31344   1.27832
   2.62240  -0.31344   1.27832
   2.39240  -0.31344   1.03832
   2.15240  -0.31344   1.03832
   2.15240  -0.31344   0.79832
   1.91240  -0.31344   0.79832
   1.67240  -0.31344   0.55832
   1.67240  -0.31344   0.55832
   1.43240  -0.55344   0.55832
   1.19240  -0.31344   0.55832
   1.19240  -0.31344   0.31832
   0.95240  -0.55344   0.31832
   0.95240  -0.55344   0.31832
   0.71240  -0.55344   0.31832
   0.47240  -0.55344   0.07832
   0.47240  -0.55344   0.07832
   0.23240  -0.55344  -0.16168
  -0.00760  -0.55344  -0.16168
  -0.24760  -0.55344  -0.16168
  -0.24760  -0.55344  -0.40168
  -0.48760  -0.79344  -0.40168
  -0.48760  -0.79344  -0.40168
  -0.72760  -0.79344  -0.40168
  -0.96760  -0.79344  -0.40168
  -1.20760  -0.79344  -0.64168
  -1.44760  -0.79344  -0.40168
  -1.44760  -0.79344  -0.40168
  -1.68760  -0.79344  -0.64168
  -1.92760  -0.79344  -0.88168
  -2.16760  -0.79344  -0.64168
  -2.40760  -0.79344  -0.88168
  -2.40760  -0.79344  -0.64168
  -2.63760  -0.79344  -0.64168
  -3.11760  -0.79344  -0.64168
  -2.63760  -0.55344  -0.64168
  -2.87760  -0.55344  -0.64168
  -3.11760  -0.31344  -0.64168
  -3.11760  -0.31344  -0.64168
  -3.11760  -0.07344  -0.64168
  -3.35760  -0.31344  -0.64168
  -3.35760  -0.31344  -0.64168
  -3.59760  -0.07344  -0.64168
  -3.83760  -0.07344  -0.64168
  -4.31760  -0.07344  -0.64168
  -4.55760  -0.07344  -0.64168
  -4.31760  -0.07344  -0.40168
  -4.31760  -0.07344  -0.40168
  -4.55760  -0.07344  -0.64168
  -4.55760  -0.07344  -0.64168
  -4.55760  -0.07344  -0.40168
  -4.79760  -0.07344  -0.40168
  -4.79760  -0.07344  -0.40168
  -4.79760  -0.07344  -0.40168
  -4.79760  -0.07344  -0.40168
  -5.03760  -0.07344  -0.40168
  -5.03760  -0.07344  -0.16168
  -5.03760  -0.07344  -0.40168
  -5.27760  -0.07344  -0.40168
  -5.27760  -0.07344  -0.16168
  -5.27760  -0.07344  -0.16168
  -5.27760  -0.07344  -0.16168
  -5.27760  -0.07344  -0.16168
  -5.51760  -0.07344  -0.16168
  -5.27760  -0.07344  -0.16168
  -5.51760  -0.07344  -0.16168
  -5.51760  -0.07344  -0.16168
  -5.51760  -0.07344  -0.16168
  -5.51760  -0.07344  -0.16168
  -5.51760  -0.07344  -0.40168
  -5.51760  -0.07344  -0.40168
  -5.51760  -0.31344  -0.40168
  -5.75760  -0.31344  -0.40168
  -5.75760  -0.31344  -0.64168
  -5.75760  -0.55344  -0.64168
  -5.99760  -0.55344  -0.64168
  -5.99760  -0.55344  -0.64168
  -5.99760  -0.55344  -0.64168
  -5.99760  -0.79344  -0.64168
  -6.23760  -0.55344  -0.64168
  -6.23760  -0.55344  -0.88168
  -6.23760  -0.79344  -0.88168
  -6.47760  -0.55344  -0.88168
  -6.47760  -0.79344  -0.88168
  -6.47760  -0.55344  -1.12168
  -6.71760  -0.79344  -1.12168
  -6.71760  -0.79344  -1.12168
  -6.71760  -0.55344  -1.12168
  -6.95760  -0.55344  -1.12168
  -6.95760  -0.55344  -1.12168
  -6.95760  -0.55344  -1.12168
  -7.19760  -0.55344  -1.12168
  -7.19760  -0.55344  -1.12168
  -7.19760  -0.55344  -1.36168
  -7.42760  -0.55344  -1.36168
  -7.42760  -0.55344  -1.36168
  -7.66760  -0.55344  -1.36168
  -7.42760  -0.55344  -1.36168
  -7.42760  -0.55344  -1.36168
  -7.42760  -0.31344  -1.36168
  -7.42760  -0.31344  -1.36168
  -7.42760  -0.31344  -1.36168
  -7.42760  -0.31344  -1.36168
  -7.42760  -0.07344  -1.36168
  -7.42760  -0.07344  -1.36168
  -7.42760   0.16656  -1.36168
  -7.42760   0.16656  -1.12168
  -7.66760   0.16656  -1.12168
  -7.42760   0.16656  -1.36168
  -7.42760   0.16656  -1.36168
  -7.42760   0.40656  -1.36168
  -7.42760   0.40656  -1.12168
  -7.42760   0.40656  -1.12168
  -7.42760   0.40656  -1.12168
  -7.42760   0.40656  -1.12168
  -7.42760   0.40656  -1.12168
  -7.19760   0.40656  -1.12168
  -7.19760   0.40656  -1.12168
  -7.19760   0.64656  -1.12168
  -7.19760   0.64656  -1.12168
  -7.19760   0.64656  -1.12168
  -6.95760   0.64656  -1.12168
  -6.95760   0.64656  -1.12168
  -6.71760   0.64656  -1.36168
  -6.71760   0.64656  -1.12168
  -6.47760   0.64656  -1.12168
  -6.47760   0.64656  -1.12168
  -6.47760   0.64656  -1.12168
  -6.23760   0.64656  -1.12168
  -6.23760   0.88656  -1.12168
  -5.99760   0.88656  -1.12168
  -5.75760   0.88656  -1.12168
  -5.75760   0.88656  -1.12168
  -5.51760   0.88656  -1.12168
  -5.51760   0.88656  -1.12168
  -5.27760   0.88656  -1.12168
  -5.27760   0.88656  -1.12168
  -5.03760   0.88656  -1.12168
  -4.79760   1.12656  -1.36168
  -4.55760   1.12656  -1.12168
  -4.55760   0.88656  -1.12168
  -4.31760   1.12656  -1.12168
  -4.07760   1.12656  -1.12168
  -3.83760   1.12656  -1.12168
  -3.59760   1.12656  -1.12168
  -3.59760   0.88656  -1.12168
  -3.35760   0.88656  -1.12168
  -3.11760   0.88656  -1.12168
  -3.11760   0.88656  -1.12168
  -2.87760   0.88656  -1.12168
  -2.63760   0.88656  -1.12168
  -2.63760   0.88656  -0.88168
  -2.40760   0.88656  -0.88168
  -2.40760   0.88656  -0.88168
  -1.92760   0.88656  -0.88168
  -1.92760   0.88656  -0.88168
  -1.68760   0.88656  -0.64168
  -1.68760   0.88656  -0.64168
  -1.68760   0.88656  -0.64168
  -1.20760   0.88656  -0.64168
  -1.20760   0.88656  -0.64168
  -0.96760   0.40656  -0.40168
  -0.96760   0.64656  -0.40168
  -0.72760   0.64656  -0.16168
  -0.48760   0.64656  -0.16168
  -0.48760   0.40656   0.07832
  -0.24760   0.40656   0.31832
  -0.24760   0.64656   0.31832
  -0.00760   0.64656   0.31832
  -0.00760   0.64656   0.31832
   0.23240   0.40656   0.55832
   0.23240   0.64656   0.55832
   0.47240   0.64656   0.79832
   0.47240   0.64656   0.79832
   0.71240   0.64656   0.79832
   0.71240   0.40656   0.79832
   0.95240   0.40656   1.03832
   1.19240   0.16656   1.03832
   1.19240   0.64656   1.03832
   1.43240   0.64656   1.03832
   1.67240   0.88656   1.27832
   1.67240   0.64656   1.27832
   1.91240   0.64656   1.27832
   1.91240   0.64656   1.27832
   1.91240   0.64656   1.51832
   2.15240   0.64656   1.51832
   2.15240   0.40656   1.51832
   2.39240   0.40656   1.51832
   2.62240   0.40656   1.51832
   2.62240   0.40656   1.75832
   2.86240   0.40656   1.51832
   2.86240   0.40656   1.75832
   2.86240   0.40656   1.75832
   3.10240   0.40656   1.75832
   3.10240   0.40656   1.75832
   3.10240   0.40656   1.75832
   3.34240   0.16656   1.99832
   3.58240   0.16656   1.99832
   3.58240   0.16656   1.99832
   3.58240   0.16656   1.99832
   3.82240   0.16656   1.99832
   3.82240   0.16656   1.99832
   3.82240   0.16656   1.99832
   3.82240   0.16656   1.99832
   3.82240   0.16656   2.22832
   3.82240  -0.07344   2.22832
   4.06240  -0.07344   1.99832
   4.06240  -0.07344   1.99832
   4.06240  -0.07344   1.99832
   4.06240  -0.07344   1.99832
   4.06240  -0.07344   1.99832
   4.06240  -0.31344   1.99832
   4.30240  -0.31344   1.75832
   4.06240  -0.07344   1.75832
   4.06240  -0.07344   1.75832
   4.06240  -0.07344   1.51832
   4.06240  -0.07344   1.51832
   4.06240  -0.07344   1.51832
   4.06240  -0.07344   1.51832
   4.06240  -0.07344   1.51832
   3.82240  -0.07344   1.27832
   4.06240  -0.07344   1.27832
   4.06240  -0.07344   1.03832
   4.06240   0.16656   0.79832
   3.82240  -0.07344   0.79832
   3.82240   0.16656   0.55832
   3.82240   0.16656   0.55832
   3.82240   0.16656   0.31832
   3.82240   0.16656   0.31832
   3.82240   0.16656   0.07832
   3.82240   0.16656  -0.16168
   3.82240   0.16656  -0.40168
   3.58240   0.16656  -0.40168
   3.58240   0.16656  -0.64168
   3.58240   0.16656  -0.64168
   3.58240   0.16656  -0.88168
   3.58240   0.16656  -0.88168
   3.58240   0.16656  -1.12168
   3.58240   0.16656  -1.12168
   3.58240   0.16656  -1.12168
   3.58240   0.16656  -1.36168
   3.58240   0.16656  -1.60168
   3.58240   0.16656  -1.60168
   3.58240   0.16656  -1.60168
   3.58240   0.16656  -1.84168
   3.58240  -0.07344  -1.84168
   3.58240  -0.07344  -1.84168
