********************************************************************************
               CENTRO DE INSTRUMENTACION Y REGISTRO SISMICO  A.C.  
                       Coordinacion de Servicios Tecnicos
     Anaxagoras 814, Col. Narvarte, Benito Juarez, C.P. 03020 Mexico, D.F.
            Tels. 667 45 42/ 687 45  82             Fax. 669 25 12
********************************************************************************
ARCHIVO ESTANDAR DE ACELERACION:
VERSION DEL FORMATO                    : 2.0
NOMBRE DEL ARCHIVO                     : AL010209.271
FECHA Y HORA DE CREACION               : 16/JUl/04, 09:02
REF. CATALOGO ACELEROGRAMAS, SMIS 1996 : REGISTRO No.     /PAG.


================================================================================
DATOS DE LA ESTACION:
NOMBRE DE LA ESTACION                  : ALAMEDA
CLAVE DE LA ESTACION                   : AL01
LOCALIZACION DE LA ESTACION            : JARDIN ALAMEDA ENTRE AV. HIDALGO Y AV.
                                       : JUAREZ, CENTRO
                                       :
                                       :
                                       :
COORDENADAS DE LA ESTACION             : 19.436 LAT. N 
                                       : 99.145 LONG. W 
ALTITUD (msnm)                         : 2232
TIPO DE SUELO                          : TERRENO BLANDO, MATERIAL COMPRESIBLE
                                       : (ARCILLAS)
                                       : 
INSTITUCION RESPONSABLE                : CIRES 
                                       :

================================================================================
DATOS DEL ACELEROGRAFO:
MODELO DEL ACELEROGRAFO                : SSA-1
NUMERO DE SERIE DEL ACELEROGRAFO       : 152
NUMERO DE CANALES                      : 3
ORIENTACION C1-C6 (rumbo;orientacion)  : /N00E/+V/N90E
ORIENTACION C7-C12 (rumbo;orientacion) :
VEL. DE MUESTREO, C1-C6 (muestras/s)   : /200/200/200
VEL. DE MUESTREO, C7-C12 (muestras/s)  :
ESC. COMPLETA DE SENSORES, C1-C6, (g)  : /2/2/2
ESC. COMPLETA DE SENSORES, C7-C12, (g) :
FREC. NAT. DE SENSORES, C1-C6, (Hz)    : /51.29/51.09/53.75
FREC. NAT. DE SENSORES, C7-C12, (Hz)   :
AMORTIGUAMIENTO DE SENSORES, C1-C6     : /.5519/.5670/.5810
AMORTIGUAMIENTO DE SENSORES, C7-C12    :
INTERVALO DE MUESTREO, C1-C6, (s)      : /0.005/0.005/0.005
INTERVALO DE MUESTREO, C7-C12, (s)     :
UMBRAL DE DISPARO, C1-C6, (Gal)        : /2/1.5/2
UMBRAL DE DISPARO, C7-C12, (Gal)       :
MEMORIA DE PREEVENTO (s)               : 15
TIEMPO DE POSEVENTO (s)                : 60


================================================================================
DATOS DEL SISMO:
FECHA DEL SISMO (GMT)                  : 27/SEP/02
HORA EPICENTRO (GMT)                   : 07:04:58,0
MAGNITUD(ES)                           : /Mb=5.2/Ms=4.6/Mc=4.9Ma=5.1/Me=5.4
COORDENADAS DEL EPICENTRO              : 17.16 LAT. N
                                       : 100.59 LONG. W
PROFUNDIDAD FOCAL (km)                 : 37
FUENTE DE LOS DATOS EPICENTRALES       : SSN
                                       : INSTITUTO DE GEOFISICA, UNAM 

================================================================================
DATOS DE ESTE REGISTRO:
HORA DE LA PRIMERA MUESTRA (GMT)       : 07:06:20.00
EXACTITUD DEL TIEMPO (s)               :     
DURACION DEL REGISTRO (s), C1-C6       : /98.56/98.56/98.56
DURACION DEL REGISTRO (s), C7-C12      :
NUM. TOTAL DE MUESTRAS, C1-C6          : /19712/19712/19712
NUM. TOTAL DE MUESTRAS, C7-C12         :
ACEL. MAX. (Gal), C1-C6                : /3.77222/-1.81186/3.55929
ACEL. MAX., C1-C6, EN LA MUESTRA       :
ACEL. MAX. (Gal), C7-C12               :
ACEL. MAX., C7-C12, EN LA MUESTRA      :
UNIDADES DE LOS DATOS                  : Gal (cm/s/s)
FACTOR DE DECIMACION                   : 1
FORMATO DATOS (FORTRAN,10 campos/dato) : 3F10.5


================================================================================
CALIDAD DEL ACELEROGRAMA:
REGISTRO DIGITAL COMPLETO, CARECE DE TIEMPO ABSOLUTO.


================================================================================
COMENTARIOS:














================================================================================
DATOS DE ACELERACION:
---------+---------+---------+---------+---------+---------+---------+---------+
   CANAL-1   CANAL-2   CANAL-3   CANAL-4   CANAL-5   CANAL-6   CANAL-7   CANAL-8
      N00E        +V      N90E
---------+---------+---------+---------+---------+---------+---------+---------+
[...]
  -0.05778  -0.37186  -0.51071
  -0.05778  -0.37186  -0.51071
  -0.05778  -0.13186  -0.51071
  -0.05778  -0.37186  -0.27071
  -0.29778  -0.13186  -0.27071
  -0.29778  -0.13186  -0.03071
  -0.29778   0.10814  -0.03071
  -0.29778  -0.13186   0.20929
  -0.53778   0.10814   0.20929
  -0.53778   0.34814   0.44929
  -0.53778   0.34814   0.44929
  -0.77778   0.34814   0.68929
  -0.77778   0.34814   0.68929
  -0.77778   0.34814   0.92929
  -0.77778   0.58814   0.92929
  -0.77778   0.58814   1.16929
  -0.77778   0.58814   1.16929
  -0.77778   0.58814   1.16929
  -1.01778   0.58814   1.16929
  -1.01778   0.82814   1.16929
  -1.01778   0.82814   1.16929
  -1.01778   0.82814   1.16929
  -1.01778   0.82814   1.16929
  -1.01778   0.82814   1.16929
  -1.01778   0.82814   1.16929
  -1.01778   0.82814   1.16929
  -1.25778   0.82814   1.16929
  -1.01778   0.82814   0.92929
  -1.25778   0.82814   0.92929
  -1.25778   1.06814   0.92929
  -1.25778   0.82814   0.68929
  -1.25778   0.82814   0.68929
  -1.25778   0.82814   0.44929
  -1.25778   0.82814   0.44929
  -1.25778   0.82814   0.20929
  -1.25778   0.82814   0.20929
  -1.25778   0.82814  -0.03071
  -1.25778   1.06814  -0.03071
  -1.25778   1.06814  -0.51071
  -1.25778   0.82814  -0.27071
  -1.25778   0.82814  -0.51071
  -1.25778   0.82814  -0.75071
  -1.25778   0.82814  -0.75071
  -1.25778   0.82814  -0.99071
  -1.25778   0.82814  -1.23071
  -1.25778   0.58814  -1.23071
  -1.25778   0.58814  -1.47071
  -1.25778   0.58814  -1.47071
  -1.25778   0.58814  -1.71071
  -1.25778   0.58814  -1.95071
  -1.25778   0.34814  -1.95071
  -1.25778   0.34814  -1.95071
  -1.01778   0.34814  -2.19071
  -1.01778   0.10814  -2.19071
  -1.01778   0.10814  -2.19071
  -1.01778  -0.13186  -2.19071
  -0.77778  -0.13186  -2.43071
  -0.77778  -0.13186  -2.43071
  -0.77778  -0.37186  -2.43071
  -0.77778  -0.37186  -2.43071
  -0.77778  -0.37186  -2.43071
  -0.53778  -0.37186  -2.43071
  -0.53778  -0.37186  -2.19071
  -0.53778  -0.61186  -2.19071
  -0.29778  -0.61186  -2.19071
  -0.29778  -0.61186  -2.19071
  -0.05778  -0.61186  -2.19071
  -0.05778  -0.61186  -2.19071
  -0.05778  -0.85186  -1.95071
   0.18222  -0.85186  -1.95071
   0.18222  -0.85186  -1.71071
   0.42222  -0.85186  -1.71071
   0.42222  -0.85186  -1.71071
   0.66222  -0.85186  -1.47071
   0.66222  -0.85186  -1.23071
   0.90222  -0.85186  -0.99071
   0.90222  -1.09186  -0.99071
   0.90222  -1.09186  -0.75071
   1.14222  -1.09186  -0.51071
   1.14222  -1.09186  -0.51071
   1.38222  -1.09186  -0.27071
   1.62222  -1.09186  -0.03071
   1.62222  -1.09186  -0.03071
   1.62222  -1.09186   0.20929
   1.86222  -1.09186   0.44929
   1.86222  -1.09186   0.20929
   2.09222  -1.09186   0.68929
   2.09222  -1.09186   0.92929
   2.09222  -1.09186   0.92929
   2.33222  -1.09186   1.16929
   2.33222  -0.85186   1.16929
   2.33222  -0.85186   1.16929
   2.57222  -0.85186   1.40929
   2.57222  -0.85186   1.40929
   2.57222  -0.85186   1.40929
   2.57222  -0.85186   1.64929
   2.81222  -0.85186   1.64929
   2.81222  -0.85186   1.64929
   2.81222  -0.61186   1.64929
   3.05222  -0.61186   1.64929
   3.05222  -0.61186   1.64929
   3.05222  -0.61186   1.64929
   3.05222  -0.61186   1.64929
   3.05222  -0.37186   1.64929
   3.29222  -0.37186   1.64929
   3.29222  -0.37186   1.64929
   3.29222  -0.37186   1.64929
   3.29222  -0.37186   1.40929
   3.29222  -0.37186   1.40929
   3.29222  -0.13186   1.16929
   3.53222  -0.13186   1.16929
   3.29222  -0.13186   1.16929
   3.53222  -0.13186   0.92929
   3.29222   0.10814   0.68929
   3.29222  -0.13186   0.68929
   3.29222   0.10814   0.44929
   3.53222   0.10814   0.44929
   3.29222   0.10814   0.20929
   3.29222   0.10814   0.20929
   3.05222   0.10814  -0.03071
   3.05222   0.34814  -0.03071
   3.05222   0.34814  -0.27071
   2.81222   0.34814  -0.27071
   2.57222   0.34814  -0.27071
   2.57222   0.34814  -0.51071
   2.33222   0.58814  -0.51071
   2.33222   0.58814  -0.75071
   2.09222   0.58814  -0.75071
   1.86222   0.58814  -0.75071
   1.38222   0.58814  -0.75071
   1.62222   0.58814  -0.75071
   1.38222   0.58814  -0.75071
   1.14222   0.82814  -0.75071
   0.90222   0.82814  -0.99071
   0.66222   0.82814  -0.99071
   0.66222   0.82814  -0.99071
   0.42222   0.82814  -0.99071
   0.18222   0.82814  -0.99071
  -0.05778   0.58814  -0.99071
  -0.29778   0.82814  -0.99071
  -0.53778   0.58814  -0.99071
  -0.77778   0.82814  -0.99071
  -0.77778   0.82814  -0.99071
  -1.01778   0.82814  -0.99071
  -1.01778   0.82814  -0.99071
  -1.25778   0.82814  -0.75071
  -1.49778   0.82814  -0.75071
  -1.73778   0.82814  -0.75071
  -1.97778   0.82814  -0.75071
  -1.97778   0.82814  -0.75071
  -2.21778   0.82814  -0.75071
  -2.45778   0.82814  -0.75071
  -2.45778   0.58814  -0.75071
  -2.45778   0.58814  -0.75071
  -2.69778   0.58814  -0.51071
  -2.69778   0.58814  -0.51071
  -2.93778   0.58814  -0.51071
  -2.93778   0.58814  -0.51071
  -2.93778   0.34814  -0.51071
  -2.93778   0.34814  -0.27071
  -2.93778   0.34814  -0.27071
  -2.93778   0.34814  -0.27071
  -2.93778   0.10814  -0.27071
  -2.93778   0.10814  -0.27071
  -2.93778   0.10814  -0.27071
  -2.69778   0.10814  -0.27071
  -2.93778   0.10814  -0.27071
  -2.69778   0.10814  -0.03071
  -2.69778   0.10814  -0.27071
  -2.45778   0.10814  -0.27071
  -2.45778   0.10814  -0.03071
  -2.21778   0.10814  -0.27071
  -1.97778  -0.13186  -0.27071
  -1.97778  -0.13186  -0.27071
  -1.97778  -0.13186  -0.27071
  -1.73778  -0.13186  -0.27071
  -1.49778  -0.13186  -0.27071
  -1.25778  -0.13186  -0.27071
  -1.01778  -0.13186  -0.27071
  -0.77778  -0.13186  -0.27071
  -0.77778  -0.13186  -0.27071
  -0.77778  -0.13186  -0.27071
  -0.53778  -0.13186  -0.27071
  -0.29778  -0.13186  -0.27071
  -0.05778  -0.13186  -0.27071
   0.18222  -0.13186  -0.27071
   0.18222  -0.13186  -0.27071
   0.18222  -0.13186  -0.27071
   0.66222  -0.13186  -0.27071
   0.66222  -0.13186  -0.51071
   0.90222  -0.13186  -0.51071
   1.14222  -0.13186  -0.51071
   1.14222  -0.13186  -0.51071
   1.38222  -0.13186  -0.75071
   1.38222  -0.13186  -0.75071
   1.62222  -0.37186  -0.75071
   1.62222  -0.13186  -0.75071
   1.86222  -0.37186  -0.75071
   1.86222  -0.37186  -0.99071
   2.09222  -0.61186  -0.99071
   2.09222  -0.37186  -0.99071
   2.33222  -0.61186  -0.99071
   2.33222  -0.61186  -0.99071
   2.33222  -0.61186  -0.99071
   2.33222  -0.85186  -0.99071
   2.57222  -1.33186  -0.99071
   2.57222  -0.85186  -0.75071
   2.57222  -1.09186  -0.99071
   2.57222  -0.85186  -0.75071
   2.57222  -0.85186  -0.75071
   2.57222  -0.85186  -0.75071
   2.33222  -0.85186  -0.75071
   2.33222  -0.85186  -0.51071
   2.33222  -0.61186  -0.51071
   2.33222  -0.61186  -0.51071
   2.33222  -0.61186  -0.27071
   2.09222  -0.61186  -0.27071
   2.09222  -0.61186  -0.03071
   1.86222  -0.61186   0.20929
   1.86222  -0.61186   0.20929
   1.62222  -0.61186   0.20929
   1.62222  -0.61186   0.44929
   1.38222  -0.61186   0.44929
   1.38222  -0.61186   0.92929
   1.14222  -0.61186   0.92929
   0.90222  -0.37186   0.92929
   0.66222  -0.37186   1.16929
   0.66222  -0.37186   1.16929
   0.42222  -0.37186   1.40929
   0.18222  -0.13186   1.64929
   0.18222  -0.13186   1.64929
  -0.29778  -0.13186   1.88929
  -0.29778  -0.13186   1.88929
  -0.29778   0.10814   2.12929
  -0.53778   0.34814   2.35929
  -0.77778   0.34814   2.59929
  -0.77778   0.58814   2.59929
  -0.77778   0.58814   2.83929
  -1.01778   0.58814   2.83929
  -1.01778   0.82814   3.07929
  -1.25778   0.82814   3.07929
  -1.25778   0.82814   3.31929
  -1.49778   0.82814   3.31929
  -1.49778   1.06814   3.31929
  -1.73778   1.06814   3.31929
  -1.73778   0.82814   3.31929
  -1.73778   1.06814   3.55929
  -1.97778   1.06814   3.55929
  -1.97778   1.06814   3.31929
  -1.97778   1.06814   3.31929
  -1.97778   1.06814   3.31929
  -1.97778   1.06814   3.31929
  -1.97778   1.06814   3.31929
  -2.21778   1.06814   3.07929
  -1.97778   1.06814   3.07929
  -1.97778   1.06814   3.07929
  -1.97778   1.06814   2.83929
  -1.97778   1.06814   2.83929
  -1.97778   0.82814   2.83929
  -1.97778   0.82814   2.59929
  -1.97778   0.82814   2.35929
  -1.97778   0.82814   2.35929
  -1.97778   0.58814   2.12929
  -1.73778   0.58814   2.12929
  -1.97778   0.58814   1.88929
  -1.73778   0.34814   1.64929
  -1.73778   0.58814   1.40929
  -1.73778   0.34814   1.16929
  -1.73778   0.34814   0.92929
  -1.73778   0.34814   0.68929
  -1.49778   0.10814   0.44929
  -1.49778   0.10814   0.20929
  -1.49778  -0.13186  -0.03071
  -1.49778  -0.13186  -0.27071
  -1.25778  -0.13186  -0.51071
  -1.25778  -0.37186  -0.75071
  -1.25778  -0.37186  -0.99071
  -1.25778  -0.37186  -1.23071
  -1.25778  -0.61186  -1.23071
  -1.25778  -0.61186  -1.47071
  -1.25778  -0.61186  -1.71071
  -1.25778  -0.61186  -1.95071
  -1.25778  -0.61186  -1.95071
  -1.25778  -0.61186  -1.95071
  -1.25778  -0.61186  -2.19071
  -1.49778  -0.85186  -2.19071
  -1.49778  -0.61186  -2.19071
  -1.49778  -0.61186  -2.43071
  -1.49778  -0.61186  -2.43071
  -1.49778  -0.61186  -2.43071
  -1.73778  -0.61186  -2.43071
  -1.73778  -0.61186  -2.43071
  -1.97778  -0.61186  -2.43071
  -1.73778  -0.37186  -2.19071
  -1.73778  -0.37186  -2.19071
  -1.73778  -0.37186  -2.19071
  -1.73778  -0.13186  -2.19071
  -1.73778  -0.13186  -1.95071
  -1.97778   0.10814  -1.95071
  -1.97778   0.10814  -1.95071
  -1.97778   0.34814  -1.71071
  -1.97778   0.34814  -1.47071
  -1.97778   0.34814  -1.47071
  -2.21778   0.58814  -1.23071
  -2.21778   0.82814  -1.23071
  -2.21778   0.82814  -0.99071
  -2.45778   0.82814  -0.99071
  -2.21778   0.82814  -0.75071
  -2.45778   1.06814  -0.75071
  -2.21778   1.06814  -0.51071
  -2.45778   1.06814  -0.51071
  -2.21778   1.06814  -0.27071
  -2.21778   1.06814  -0.27071
  -2.21778   1.30814  -0.03071
  -1.97778   1.06814  -0.03071
  -1.97778   1.30814  -0.03071
  -1.73778   1.06814  -0.03071
  -1.73778   1.06814   0.20929
  -1.49778   1.06814   0.20929
  -1.49778   1.06814   0.44929
  -1.25778   1.06814   0.44929
  -1.01778   1.06814   0.44929
  -1.01778   0.82814   0.44929
  -0.77778   0.82814   0.44929
  -0.77778   0.82814   0.44929
  -0.53778   0.58814   0.68929
  -0.29778   0.58814   0.68929
  -0.05778   0.58814   0.68929
   0.18222   0.34814   0.68929
   0.18222   0.34814   0.68929
   0.42222   0.34814   0.68929
   0.66222   0.10814   0.68929
   0.90222  -0.13186   0.68929
   1.14222  -0.13186   0.68929
   1.38222  -0.13186   0.68929
   1.62222  -0.37186   0.68929
   1.86222  -0.37186   0.68929
   2.09222  -0.61186   0.68929
   2.09222  -0.61186   0.68929
   2.33222  -0.61186   0.68929
   2.57222  -0.85186   0.68929
   2.81222  -0.85186   0.44929
   3.05222  -0.85186   0.44929
   3.05222  -1.09186   0.44929
   3.29222  -1.09186   0.44929
   3.29222  -1.33186   0.20929
   3.53222  -1.33186   0.20929
   3.53222  -1.33186   0.20929
   3.53222  -1.57186   0.20929
   3.77222  -1.57186  -0.03071
   3.77222  -1.57186  -0.03071
   3.77222  -1.57186  -0.03071
   3.77222  -1.81186  -0.27071
   3.77222  -1.81186  -0.27071
   3.77222  -1.81186  -0.51071
   3.77222  -1.57186  -0.51071
   3.77222  -1.57186  -0.75071
   3.77222  -1.57186  -0.75071
   3.77222  -1.57186  -0.75071
   3.53222  -1.57186  -0.75071
   3.53222  -1.57186  -0.75071
   3.29222  -1.81186  -0.99071
   3.29222  -1.33186  -0.99071
   3.29222  -1.33186  -0.99071
   3.05222  -1.09186  -1.23071
   3.05222  -1.09186  -1.23071
   2.81222  -0.85186  -1.23071
   2.81222  -0.85186  -1.23071
   2.57222  -0.61186  -1.23071
   2.57222  -0.37186  -1.23071
   2.33222  -0.37186  -1.23071
   2.09222  -0.13186  -1.47071
   2.09222  -0.13186  -1.23071
   1.86222   0.10814  -1.23071
   1.62222   0.10814  -1.47071
   1.62222   0.34814  -1.47071
   1.38222   0.34814  -1.47071
   1.38222   0.34814  -1.47071
   1.14222   0.58814  -1.23071
   0.90222   0.58814  -1.47071
   0.90222   0.58814  -1.23071
   0.66222   0.58814  -1.23071
   0.66222   0.58814  -1.23071
   0.42222   0.82814  -1.23071
   0.18222   0.82814  -1.23071
  -0.05778   0.82814  -0.99071
  -0.05778   0.82814  -1.23071
  -0.05778   0.82814  -0.99071
  -0.29778   0.82814  -0.99071
  -0.53778   0.82814  -0.75071
  -0.77778   0.82814  -0.75071
  -0.53778   0.82814  -0.75071
  -0.77778   0.58814  -0.75071
  -0.77778   0.82814  -0.75071
  -0.77778   0.82814  -0.75071
  -0.77778   0.82814  -0.51071
  -0.77778   0.82814  -0.51071
  -0.77778   0.58814  -0.51071
  -0.77778   0.58814  -0.51071
  -0.77778   0.58814  -0.51071
  -0.77778   0.58814  -0.51071
  -0.77778   0.58814  -0.27071
  -0.77778   0.58814  -0.27071
  -0.77778   0.58814  -0.27071
  -0.77778   0.58814  -0.27071
  -0.77778   0.58814  -0.27071
  -0.77778   0.34814  -0.27071
  -0.77778   0.34814  -0.27071
  -0.77778   0.34814  -0.27071
  -0.77778   0.34814  -0.03071
  -0.77778   0.34814  -0.03071
  -0.77778   0.34814  -0.03071
  -0.77778   0.34814  -0.03071
  -0.77778   0.10814   0.20929
  -0.53778   0.10814   0.20929
  -0.53778   0.10814   0.20929
  -0.77778   0.10814   0.20929
  -0.53778   0.34814   0.44929
  -0.53778   0.10814   0.44929
  -0.53778   0.10814   0.44929
  -0.53778   0.10814   0.44929
  -0.53778   0.10814   0.44929
  -0.53778   0.10814   0.68929
  -0.29778   0.10814   0.68929
  -0.29778   0.10814   0.68929
  -0.29778   0.10814   0.68929
  -0.29778   0.10814   0.92929
  -0.05778   0.10814   0.92929
  -0.05778   0.10814   0.92929
  -0.05778   0.10814   0.92929
  -0.05778   0.10814   0.92929
  -0.05778   0.10814   1.16929
  -0.05778   0.10814   1.16929
   0.18222   0.10814   1.16929
   0.18222   0.34814   1.16929
   0.18222   0.34814   1.16929
   0.18222   0.34814   1.16929
   0.18222   0.34814   1.16929
   0.18222   0.34814   1.16929
   0.18222   0.34814   1.16929
   0.18222   0.34814   1.16929
   0.18222   0.34814   1.16929
   0.18222   0.34814   1.16929
   0.18222   0.34814   1.16929
   0.18222   0.34814   1.16929
   0.18222   0.58814   1.16929
   0.18222   0.58814   0.92929
  -0.05778   0.58814   0.92929
   0.18222   0.58814   0.92929
  -0.05778   0.58814   0.92929
  -0.05778   0.58814   0.92929
  -0.05778   0.58814   0.68929
  -0.05778   0.34814   0.68929
  -0.05778   0.34814   0.68929
  -0.05778   0.34814   0.44929
  -0.05778   0.34814   0.44929
  -0.05778   0.34814   0.44929
  -0.05778   0.34814   0.44929
  -0.05778   0.34814   0.44929
  -0.05778   0.34814   0.44929
  -0.05778   0.34814   0.20929
  -0.05778   0.10814   0.20929
  -0.05778   0.10814   0.20929
  -0.05778   0.10814   0.20929
  -0.29778   0.10814   0.20929
  -0.29778   0.10814   0.20929
  -0.29778   0.10814   0.20929
  -0.05778   0.10814   0.20929
  -0.05778   0.10814  -0.03071
  -0.05778   0.10814  -0.03071
  -0.05778  -0.13186  -0.03071
  -0.05778  -0.13186  -0.03071
   0.18222  -0.13186  -0.03071
   0.18222  -0.13186  -0.03071
   0.18222  -0.37186  -0.03071
   0.18222  -0.37186  -0.03071
   0.18222  -0.37186  -0.03071
   0.18222  -0.37186  -0.03071
   0.18222  -0.37186  -0.03071
   0.42222  -0.37186  -0.03071
   0.42222  -0.61186  -0.03071
   0.42222  -0.61186  -0.03071
   0.42222  -0.61186  -0.03071
   0.66222  -0.61186  -0.03071
   0.66222  -0.61186  -0.03071
   0.66222  -0.61186  -0.03071
   0.66222  -0.61186  -0.03071
   0.66222  -0.85186  -0.03071
   0.66222  -0.61186  -0.03071
   0.90222  -0.61186  -0.03071
   0.66222  -0.61186  -0.03071
   0.42222  -0.85186  -0.03071
   0.66222  -0.85186  -0.03071
   0.66222  -0.85186  -0.03071
   0.66222  -0.85186  -0.03071
   0.66222  -0.85186  -0.03071
   0.66222  -0.85186  -0.03071
   0.66222  -0.85186  -0.03071
   0.66222  -0.85186  -0.03071
