********************************************************************************
               CENTRO DE INSTRUMENTACION Y REGISTRO SISMICO  A.C.  
                       Coordinacion de Servicios Tecnicos
     Anaxagoras 814, Col. Narvarte, Benito Juarez, C.P. 03020 Mexico, D.F.
            Tels. 667 45 42/ 687 45  82             Fax. 669 25 12
********************************************************************************
ARCHIVO ESTANDAR DE ACELERACION:
VERSION DEL FORMATO                    : 2.0
NOMBRE DEL ARCHIVO                     : AL019602.254
FECHA Y HORA DE CREACION               : 27/MAR/98, 3:55
REF. CATALOGO ACELEROGRAMAS, SMIS 1996 : REGISTRO No.     /PAG.


================================================================================
DATOS DE LA ESTACION:
NOMBRE DE LA ESTACION                  : ALAMEDA
CLAVE DE LA ESTACION                   : AL01
LOCALIZACION DE LA ESTACION            : JARDIN ALAMEDA ENTRE AV. HIDALGO Y AV.
                                       : JUAREZ, CENTRO
                                       :
                                       :
                                       :
COORDENADAS DE LA ESTACION             : 19.436 LAT. N 
                                       : 99.145 LONG. W 
ALTITUD (msnm)                         : 2232
TIPO DE SUELO                          : TERRENO BLANDO, MATERIAL COMPRESIBLE
                                       : (ARCILLAS)
                                       : 
INSTITUCION RESPONSABLE                : CIRES 
                                       :

================================================================================
DATOS DEL ACELEROGRAFO:
MODELO DEL ACELEROGRAFO                : SSA-1
NUMERO DE SERIE DEL ACELEROGRAFO       : 152
NUMERO DE CANALES                      : 3
ORIENTACION C1-C6 (rumbo;orientacion)  : /N00E/+V/N90E
ORIENTACION C7-C12 (rumbo;orientacion) :
VEL. DE MUESTREO, C1-C6 (muestras/s)   : /200/200/200
VEL. DE MUESTREO, C7-C12 (muestras/s)  :
ESC. COMPLETA DE SENSORES, C1-C6, (g)  : /2/2/2
ESC. COMPLETA DE SENSORES, C7-C12, (g) :
FREC. NAT. DE SENSORES, C1-C6, (Hz)    : /51.29/51.09/53.75
FREC. NAT. DE SENSORES, C7-C12, (Hz)   :
AMORTIGUAMIENTO DE SENSORES, C1-C6     : /0.5519/0.5670/0.5810
AMORTIGUAMIENTO DE SENSORES, C7-C12    :
INTERVALO DE MUESTREO, C1-C6, (s)      : /0.005/0.005/0.005
INTERVALO DE MUESTREO, C7-C12, (s)     : 
UMBRAL DE DISPARO, C1-C6, (Gal)        : /2/1.5/2
UMBRAL DE DISPARO, C7-C12, (Gal)       :
MEMORIA DE PREEVENTO (s)               : 15
TIEMPO DE POSEVENTO (s)                : 60


================================================================================
DATOS DEL SISMO:
FECHA DEL SISMO (GMT)                  : 25/FEB/96
HORA EPICENTRO (GMT)                   : 14:27:24,3
MAGNITUD(ES)                           : /Mb=5.2/Ms=5.3/Mc=5.2
COORDENADAS DEL EPICENTRO              : 15.480 LAT. N
                                       : 98.040 LONG. W
PROFUNDIDAD FOCAL (km)                 : 13
FUENTE DE LOS DATOS EPICENTRALES       : SSN
                                       : INSTITUTO DE GEOFISICA, UNAM

================================================================================
DATOS DE ESTE REGISTRO:
HORA DE LA PRIMERA MUESTRA (GMT)       : 14:29:14.00
EXACTITUD DEL TIEMPO (s)               :     
DURACION DEL REGISTRO (s), C1-C6       : /101.12/101.12/101.12
DURACION DEL REGISTRO (s), C7-C12      :
NUM. TOTAL DE MUESTRAS, C1-C6          : /20224/20224/20224
NUM. TOTAL DE MUESTRAS, C7-C12         :
ACEL. MAX. (Gal), C1-C6                : /2.93841/1.44024/3.59966
ACEL. MAX., C1-C6, EN LA MUESTRA       :
ACEL. MAX. (Gal), C7-C12               :
ACEL. MAX., C7-C12, EN LA MUESTRA      :
UNIDADES DE LOS DATOS                  : Gal (cm/s/s)
FACTOR DE DECIMACION                   : 1
FORMATO DATOS (FORTRAN,10 campos/dato) : 3F10.5


================================================================================
CALIDAD DEL ACELEROGRAMA:
REGISTRO DIGITAL COMPLETO, CARECE DE TIEMPO ABSOLUTO.


================================================================================
COMENTARIOS:














================================================================================
DATOS DE ACELERACION:
---------+---------+---------+---------+---------+---------+---------+---------+
   CANAL-1   CANAL-2   CANAL-3   CANAL-4   CANAL-5   CANAL-6   CANAL-7   CANAL-8
      N00E        +V      N90E
---------+---------+---------+---------+---------+---------+---------+---------+
[...]
   0.89159   0.24024   2.63966
   0.89159   0.24024   2.39966
   0.65159   0.24024   2.39966
   0.65159   0.24024   2.39966
   0.65159   0.24024   2.39966
   0.65159   0.24024   2.39966
   0.65159   0.24024   2.39966
   0.65159   0.24024   2.39966
   0.65159   0.24024   2.39966
   0.65159   0.24024   2.39966
   0.65159   0.24024   2.39966
   0.65159   0.00024   2.39966
   0.65159   0.00024   2.39966
   0.65159   0.00024   2.39966
   0.65159   0.00024   2.15966
   0.65159   0.00024   2.15966
   0.65159   0.00024   2.15966
   0.65159   0.00024   2.15966
   0.41159   0.00024   2.15966
   0.41159   0.00024   2.15966
   0.41159   0.00024   2.15966
   0.41159   0.00024   2.15966
   0.41159   0.00024   2.15966
   0.41159   0.00024   2.15966
   0.41159   0.00024   2.15966
   0.41159   0.00024   1.91966
   0.41159   0.00024   2.15966
   0.41159   0.00024   1.91966
   0.41159   0.00024   1.91966
   0.41159   0.24024   1.91966
   0.41159   0.00024   1.91966
   0.17159   0.00024   1.91966
   0.17159   0.00024   1.91966
   0.17159   0.00024   1.91966
   0.17159   0.00024   1.91966
  -0.06841   0.00024   1.91966
   0.17159   0.00024   1.91966
   0.17159   0.00024   1.67966
   0.17159   0.00024   1.67966
   0.17159   0.00024   1.67966
  -0.06841   0.00024   1.67966
   0.17159   0.00024   1.67966
  -0.06841   0.00024   1.67966
  -0.06841   0.00024   1.67966
  -0.06841   0.00024   1.67966
  -0.06841   0.00024   1.43966
  -0.06841   0.00024   1.43966
  -0.06841   0.00024   1.43966
  -0.30841   0.00024   1.43966
  -0.30841   0.00024   1.43966
  -0.30841   0.00024   1.43966
  -0.30841   0.00024   1.43966
  -0.30841   0.00024   1.43966
  -0.30841  -0.23976   1.19966
  -0.54841  -0.23976   1.19966
  -0.54841  -0.23976   1.19966
  -0.54841  -0.23976   1.19966
  -0.54841  -0.23976   1.19966
  -0.54841  -0.23976   1.19966
  -0.54841  -0.23976   0.95966
  -0.78841  -0.23976   0.95966
  -0.78841  -0.23976   0.95966
  -0.78841  -0.23976   0.95966
  -0.78841  -0.23976   0.95966
  -0.78841  -0.23976   0.95966
  -0.78841  -0.23976   0.95966
  -1.02841  -0.23976   0.95966
  -1.02841  -0.47976   0.95966
  -1.02841  -0.47976   0.95966
  -1.02841  -0.47976   0.95966
  -1.02841  -0.47976   0.95966
  -1.02841  -0.47976   0.95966
  -1.26841  -0.47976   0.95966
  -1.26841  -0.47976   0.95966
  -1.26841  -0.47976   1.19966
  -1.26841  -0.47976   1.19966
  -1.26841  -0.47976   1.19966
  -1.26841  -0.71976   1.19966
  -1.26841  -0.71976   1.19966
  -1.26841  -0.71976   1.19966
  -1.26841  -0.71976   1.43966
  -1.50841  -0.71976   1.43966
  -1.50841  -0.71976   1.43966
  -1.50841  -0.71976   1.43966
  -1.50841  -0.71976   1.67966
  -1.50841  -0.47976   1.67966
  -1.26841  -0.71976   1.67966
  -1.50841  -0.71976   1.67966
  -1.50841  -0.47976   1.67966
  -1.50841  -0.47976   1.67966
  -1.50841  -0.47976   1.91966
  -1.50841  -0.47976   1.91966
  -1.50841  -0.47976   1.91966
  -1.50841  -0.47976   1.91966
  -1.50841  -0.23976   1.91966
  -1.50841  -0.23976   1.91966
  -1.50841  -0.23976   1.91966
  -1.50841  -0.23976   2.15966
  -1.50841  -0.23976   2.15966
  -1.50841  -0.23976   2.15966
  -1.50841  -0.23976   2.15966
  -1.50841   0.00024   2.15966
  -1.73841   0.00024   1.91966
  -1.73841   0.00024   1.91966
  -1.50841   0.00024   1.91966
  -1.73841   0.24024   1.91966
  -1.73841   0.24024   1.91966
  -1.73841   0.24024   1.91966
  -1.73841   0.24024   1.91966
  -1.73841   0.24024   1.91966
  -1.73841   0.24024   1.67966
  -1.73841   0.48024   1.67966
  -1.73841   0.48024   1.67966
  -1.73841   0.48024   1.43966
  -1.73841   0.48024   1.43966
  -1.73841   0.48024   1.43966
  -1.73841   0.48024   1.19966
  -1.73841   0.48024   1.19966
  -1.50841   0.48024   0.95966
  -1.73841   0.48024   0.95966
  -1.73841   0.48024   0.71966
  -1.50841   0.48024   0.71966
  -1.50841   0.48024   0.47966
  -1.50841   0.48024   0.23966
  -1.50841   0.48024   0.23966
  -1.50841   0.48024   0.00966
  -1.50841   0.48024   0.00966
  -1.50841   0.48024  -0.23034
  -1.50841   0.48024  -0.23034
  -1.50841   0.48024  -0.47034
  -1.50841   0.48024  -0.71034
  -1.26841   0.24024  -0.71034
  -1.26841   0.24024  -0.95034
  -1.26841   0.24024  -0.95034
  -1.26841   0.24024  -1.19034
  -1.26841   0.24024  -1.19034
  -1.02841   0.24024  -1.43034
  -1.02841   0.24024  -1.43034
  -0.78841   0.24024  -1.67034
  -0.78841   0.24024  -1.67034
  -0.78841   0.24024  -1.91034
  -0.78841   0.24024  -1.91034
  -0.78841   0.24024  -1.91034
  -0.54841   0.24024  -2.15034
  -0.54841   0.24024  -2.15034
  -0.54841   0.24024  -2.15034
  -0.30841   0.24024  -2.39034
  -0.54841   0.24024  -2.39034
  -0.30841   0.24024  -2.39034
  -0.06841   0.24024  -2.39034
  -0.06841   0.24024  -2.39034
  -0.06841   0.24024  -2.39034
   0.17159   0.24024  -2.63034
   0.17159   0.24024  -2.63034
   0.17159   0.24024  -2.63034
   0.41159   0.24024  -2.63034
   0.41159   0.24024  -2.63034
   0.41159   0.24024  -2.63034
   0.41159   0.24024  -2.87034
   0.65159   0.24024  -2.63034
   0.65159   0.24024  -2.63034
   0.65159   0.24024  -2.87034
   0.65159   0.24024  -2.87034
   0.65159   0.24024  -2.87034
   0.65159   0.24024  -2.63034
   0.65159   0.24024  -2.63034
   0.89159   0.24024  -2.63034
   0.89159   0.24024  -2.63034
   0.89159   0.24024  -2.63034
   0.89159   0.24024  -2.63034
   0.89159   0.24024  -2.63034
   0.89159   0.24024  -2.63034
   0.89159   0.24024  -2.63034
   0.89159   0.24024  -2.63034
   0.89159   0.00024  -2.63034
   0.89159   0.24024  -2.39034
   0.89159   0.24024  -2.39034
   0.89159   0.24024  -2.39034
   0.89159   0.24024  -2.39034
   0.89159   0.24024  -2.39034
   0.89159   0.24024  -2.39034
   0.65159   0.24024  -2.39034
   0.65159   0.24024  -2.39034
   0.65159   0.24024  -2.15034
   0.65159   0.24024  -2.15034
   0.65159   0.00024  -2.15034
   0.65159   0.24024  -2.15034
   0.65159   0.24024  -2.15034
   0.65159   0.00024  -2.15034
   0.65159   0.00024  -2.15034
   0.41159   0.00024  -2.15034
   0.41159   0.00024  -2.15034
   0.41159   0.00024  -1.91034
   0.41159   0.00024  -1.91034
   0.17159   0.00024  -1.91034
   0.41159  -0.23976  -1.91034
   0.41159  -0.23976  -1.91034
   0.17159  -0.23976  -1.91034
   0.17159  -0.23976  -1.91034
   0.17159  -0.23976  -1.91034
   0.17159  -0.23976  -1.91034
   0.17159  -0.23976  -1.91034
   0.17159  -0.23976  -1.91034
   0.17159  -0.23976  -1.91034
   0.17159  -0.23976  -1.91034
   0.17159  -0.47976  -1.91034
   0.17159  -0.23976  -1.67034
   0.17159  -0.23976  -1.67034
   0.17159  -0.47976  -1.67034
   0.17159  -0.23976  -1.67034
   0.17159  -0.23976  -1.67034
   0.17159  -0.47976  -1.67034
   0.17159  -0.47976  -1.67034
   0.17159  -0.47976  -1.67034
   0.17159  -0.23976  -1.67034
   0.17159  -0.23976  -1.67034
   0.17159  -0.47976  -1.67034
   0.17159  -0.23976  -1.67034
   0.17159  -0.23976  -1.67034
   0.17159  -0.23976  -1.67034
   0.17159  -0.23976  -1.67034
   0.17159  -0.23976  -1.91034
   0.17159  -0.23976  -1.67034
   0.17159  -0.23976  -1.67034
   0.17159  -0.23976  -1.67034
   0.17159  -0.23976  -1.67034
   0.17159  -0.23976  -1.67034
   0.17159  -0.23976  -1.67034
   0.17159  -0.23976  -1.67034
   0.17159  -0.23976  -1.67034
   0.17159   0.00024  -1.67034
   0.17159   0.00024  -1.67034
   0.17159   0.00024  -1.67034
   0.17159   0.00024  -1.91034
   0.41159   0.00024  -1.91034
   0.17159   0.24024  -1.91034
   0.17159   0.24024  -1.91034
   0.17159   0.24024  -1.91034
   0.41159   0.24024  -1.91034
   0.17159   0.24024  -1.91034
   0.17159   0.24024  -1.91034
   0.17159   0.48024  -1.91034
   0.17159   0.48024  -1.91034
   0.17159   0.48024  -1.91034
   0.17159   0.48024  -1.91034
   0.17159   0.48024  -1.91034
   0.17159   0.24024  -1.91034
   0.17159   0.72024  -1.91034
   0.17159   0.72024  -1.91034
   0.17159   0.48024  -1.67034
   0.17159   0.72024  -1.91034
   0.17159   0.72024  -1.91034
   0.17159   0.72024  -1.67034
  -0.06841   0.72024  -1.67034
  -0.06841   0.72024  -1.67034
   0.17159   0.72024  -1.67034
  -0.06841   0.72024  -1.67034
  -0.06841   0.72024  -1.67034
  -0.06841   0.72024  -1.67034
  -0.06841   0.72024  -1.67034
  -0.06841   0.72024  -1.67034
  -0.06841   0.72024  -1.67034
  -0.06841   0.72024  -1.67034
  -0.06841   0.72024  -1.67034
  -0.06841   0.72024  -1.91034
  -0.06841   0.72024  -1.67034
  -0.06841   0.72024  -1.67034
  -0.06841   0.48024  -1.67034
  -0.06841   0.48024  -1.67034
  -0.06841   0.48024  -1.67034
  -0.06841   0.48024  -1.67034
  -0.06841   0.48024  -1.67034
  -0.06841   0.48024  -1.43034
  -0.06841   0.48024  -1.43034
  -0.06841   0.48024  -1.43034
  -0.06841   0.48024  -1.43034
  -0.06841   0.48024  -1.43034
  -0.06841   0.48024  -1.43034
  -0.06841   0.48024  -1.43034
  -0.06841   0.24024  -1.43034
  -0.06841   0.24024  -1.43034
   0.17159   0.24024  -1.43034
   0.17159   0.24024  -1.43034
   0.17159   0.24024  -1.43034
   0.17159   0.24024  -1.43034
   0.17159   0.24024  -1.43034
   0.17159   0.24024  -1.43034
   0.17159   0.24024  -1.43034
   0.17159   0.24024  -1.43034
   0.41159   0.24024  -1.43034
   0.41159   0.00024  -1.43034
   0.41159   0.00024  -1.43034
   0.41159   0.00024  -1.43034
   0.41159   0.00024  -1.43034
   0.65159   0.00024  -1.43034
   0.41159   0.00024  -1.43034
   0.65159  -0.23976  -1.43034
   0.65159  -0.23976  -1.43034
   0.65159  -0.23976  -1.43034
   0.65159  -0.23976  -1.19034
   0.65159  -0.23976  -1.19034
   0.89159  -0.23976  -1.19034
   0.89159  -0.23976  -1.19034
   0.89159  -0.23976  -1.19034
   0.89159  -0.23976  -1.19034
   0.89159  -0.23976  -0.95034
   0.89159  -0.23976  -0.95034
   0.89159  -0.23976  -0.95034
   0.89159  -0.23976  -0.95034
   0.89159  -0.47976  -0.71034
   1.13159  -0.23976  -0.71034
   1.13159  -0.23976  -0.71034
   0.89159  -0.47976  -0.47034
   1.13159  -0.47976  -0.47034
   1.13159  -0.47976  -0.23034
   0.89159  -0.47976  -0.23034
   0.89159  -0.47976   0.00966
   1.13159  -0.47976   0.00966
   1.13159  -0.47976   0.23966
   0.89159  -0.71976   0.23966
   0.89159  -0.71976   0.47966
   0.89159  -0.71976   0.47966
   0.89159  -0.71976   0.71966
   0.89159  -0.71976   0.95966
   0.89159  -0.71976   0.95966
   0.89159  -0.71976   0.95966
   0.65159  -0.71976   1.19966
   0.65159  -0.71976   1.19966
   0.65159  -0.71976   1.43966
   0.65159  -0.71976   1.67966
   0.65159  -0.71976   1.91966
   0.65159  -0.47976   1.91966
   0.65159  -0.71976   2.15966
   0.41159  -0.47976   2.15966
   0.41159  -0.47976   2.39966
   0.41159  -0.47976   2.39966
   0.17159  -0.47976   2.63966
   0.17159  -0.47976   2.63966
   0.17159  -0.47976   2.63966
  -0.06841  -0.47976   2.87966
  -0.06841  -0.47976   2.87966
  -0.06841  -0.23976   3.11966
  -0.06841  -0.47976   3.11966
  -0.06841  -0.47976   3.11966
  -0.30841  -0.23976   3.35966
  -0.30841  -0.23976   3.35966
  -0.30841  -0.23976   3.35966
  -0.30841  -0.23976   3.35966
  -0.30841  -0.23976   3.59966
  -0.30841  -0.23976   3.59966
  -0.30841  -0.23976   3.59966
  -0.30841  -0.23976   3.59966
  -0.30841  -0.23976   3.59966
  -0.30841  -0.23976   3.59966
  -0.30841  -0.23976   3.59966
  -0.30841  -0.23976   3.59966
  -0.30841  -0.23976   3.35966
  -0.30841  -0.23976   3.35966
  -0.30841  -0.23976   3.35966
  -0.06841  -0.23976   3.35966
  -0.06841  -0.23976   3.11966
  -0.06841  -0.23976   3.11966
  -0.06841  -0.23976   3.11966
   0.17159  -0.23976   2.87966
   0.17159  -0.23976   2.87966
   0.17159  -0.23976   2.87966
   0.17159  -0.23976   2.63966
   0.17159  -0.23976   2.63966
   0.41159  -0.23976   2.63966
   0.41159  -0.23976   2.39966
   0.65159  -0.23976   2.39966
   0.65159  -0.23976   2.39966
   0.65159  -0.23976   2.39966
   0.65159  -0.23976   2.15966
   0.89159  -0.23976   2.15966
   0.89159  -0.23976   2.15966
   0.89159  -0.23976   2.15966
   1.13159  -0.23976   2.15966
   1.13159  -0.23976   1.91966
   1.13159  -0.23976   1.91966
   1.37159  -0.23976   1.91966
   1.37159  -0.23976   1.91966
   1.37159  -0.23976   1.91966
   1.61159  -0.23976   1.91966
   1.61159  -0.23976   1.91966
   1.61159  -0.23976   1.91966
   1.85159  -0.23976   1.91966
   1.85159  -0.23976   1.91966
   1.85159  -0.23976   1.91966
   2.09159  -0.23976   1.91966
   2.09159  -0.23976   1.91966
   2.09159  -0.23976   1.91966
   2.09159  -0.23976   2.15966
   2.09159  -0.23976   2.15966
   2.09159  -0.23976   2.15966
   2.33159  -0.23976   2.15966
   2.33159  -0.23976   2.15966
   2.33159  -0.23976   2.39966
   2.09159  -0.23976   2.39966
   2.09159  -0.23976   2.39966
   2.09159  -0.23976   2.39966
   2.09159  -0.23976   2.39966
   2.09159  -0.23976   2.39966
   2.09159  -0.23976   2.39966
   2.09159  -0.23976   2.63966
   2.09159  -0.23976   2.63966
   1.85159  -0.23976   2.63966
   1.85159  -0.23976   2.63966
   1.85159  -0.23976   2.63966
   1.61159  -0.23976   2.63966
   1.61159  -0.23976   2.63966
   1.61159  -0.23976   2.63966
   1.37159   0.00024   2.63966
   1.37159   0.00024   2.63966
   1.13159  -0.23976   2.63966
   1.13159   0.00024   2.63966
   1.13159   0.00024   2.63966
   0.89159   0.00024   2.63966
   0.89159   0.00024   2.39966
   0.65159   0.00024   2.39966
   0.65159   0.00024   2.39966
   0.41159   0.00024   2.39966
   0.41159   0.00024   2.39966
   0.17159   0.24024   2.15966
   0.17159   0.24024   2.39966
  -0.06841   0.24024   2.15966
  -0.06841   0.24024   2.15966
  -0.30841   0.24024   2.15966
  -0.30841   0.24024   1.91966
  -0.54841   0.24024   1.91966
  -0.54841   0.24024   1.91966
  -0.78841   0.24024   1.67966
  -0.78841   0.00024   1.67966
  -0.78841   0.24024   1.67966
  -1.02841   0.24024   1.67966
  -1.02841   0.24024   1.43966
  -1.02841   0.24024   1.43966
  -1.26841   0.24024   1.43966
  -1.26841   0.24024   1.19966
  -1.26841   0.24024   1.19966
  -1.26841   0.24024   1.19966
  -1.50841   0.24024   0.95966
  -1.50841   0.24024   0.95966
  -1.50841   0.24024   0.95966
  -1.50841   0.24024   0.95966
  -1.73841   0.24024   0.95966
  -1.50841   0.24024   0.71966
  -1.73841   0.00024   0.71966
  -1.73841   0.24024   0.71966
  -1.73841   0.24024   0.71966
  -1.73841   0.24024   0.71966
  -1.73841   0.24024   0.47966
  -1.73841   0.24024   0.47966
  -1.73841   0.24024   0.47966
  -1.73841   0.24024   0.47966
  -1.73841   0.24024   0.47966
  -1.73841   0.24024   0.47966
  -1.73841   0.24024   0.47966
  -1.73841   0.24024   0.47966
  -1.73841   0.24024   0.47966
  -1.73841   0.24024   0.47966
  -1.73841   0.24024   0.47966
  -1.73841   0.24024   0.47966
  -1.73841   0.24024   0.47966
  -1.73841   0.24024   0.47966
  -1.73841   0.24024   0.47966
  -1.73841   0.24024   0.47966
  -1.73841   0.24024   0.47966
  -1.73841   0.24024   0.47966
  -1.73841   0.24024   0.47966
  -1.97841   0.24024   0.71966
  -1.97841   0.24024   0.71966
  -1.97841   0.24024   0.71966
  -1.97841   0.24024   0.71966
  -1.97841   0.24024   0.71966
  -1.97841   0.24024   0.71966
  -1.97841   0.24024   0.71966
  -2.21841   0.24024   0.71966
  -2.21841   0.24024   0.71966
  -2.21841   0.48024   0.95966
  -2.21841   0.48024   0.95966
  -2.21841   0.48024   0.71966
  -2.45841   0.48024   0.95966
  -2.45841   0.48024   0.71966
  -2.45841   0.48024   0.71966
  -2.69841   0.48024   0.71966
  -2.69841   0.48024   0.71966
  -2.69841   0.48024   0.71966
  -2.69841   0.48024   0.71966
  -2.69841   0.48024   0.47966
  -2.69841   0.48024   0.71966
  -2.69841   0.48024   0.47966
  -2.93841   0.48024   0.47966
  -2.93841   0.48024   0.47966
  -2.93841   0.48024   0.47966
  -2.93841   0.48024   0.47966
  -2.93841   0.48024   0.23966
  -2.93841   0.48024   0.23966
  -2.93841   0.48024   0.23966
