********************************************************************************
              CENTRO DE INSTRUMENTACION Y REGISTRO SISMICO  A.C.

    Anaxagoras 814, Col. Narvarte, Benito Juarez, C.P. 03020 Mexico, D.F.
           Tels. 5687 45 42/ 5687 45  82             Fax. 5669 25 12
********************************************************************************
ARCHIVO ESTANDAR DE ACELERACION:
VERSION DEL FORMATO                    : 2.0
NOMBRE DEL ARCHIVO                     : AL0120080428000629
FECHA Y HORA DE CREACION               : 15/MAY/08, 11:06
REF. CATALOGO ACELEROGRAMAS, SMIS 1996 : REGISTRO No.     /PAG.


================================================================================
DATOS DE LA ESTACION:
NOMBRE DE LA ESTACION                  : ALAMEDA
CLAVE DE LA ESTACION                   : AL01
LOCALIZACION DE LA ESTACION            : Del. Cuauhtémoc, Col. Centro,          
                                       : Dr. Mora entre Av. Hidalgo             
                                       : y Av. Juárez.                          
                                       :                                        
                                       : 
COORDENADAS DE LA ESTACION             : 19.4356 LAT. N
                                       : 99.1453 LONG. W
ALTITUD (msnm)                         : 2232
TIPO DE SUELO                          : Terreno blando, material compresible
                                       : (arcillas)                
                                       : 
INSTITUCION RESPONSABLE                : CIRES
                                       : 

================================================================================
DATOS DEL ACELEROGRAFO:
MODELO DEL ACELEROGRAFO                : RADESD
NUMERO DE SERIE DEL ACELEROGRAFO       : 152
NUMERO DE CANALES                      : 3
ORIENTACION C1-C6 (rumbo;orientacion)  : /N00E/+V/N90W
ORIENTACION C7-C12 (rumbo;orientacion) : 
VEL. DE MUESTREO, C1-C6 (muestras/s)   : /100/100/100
VEL. DE MUESTREO, C7-C12 (muestras/s)  : 
ESC. COMPLETA DE SENSORES, C1-C6, (g)  : /0.5/0.5/0.5
ESC. COMPLETA DE SENSORES, C7-C12, (g) : 
FREC. NAT. DE SENSORES, C1-C6, (Hz)    : /51.29/51.09/53.75
FREC. NAT. DE SENSORES, C7-C12, (Hz)   : 
AMORTIGUAMIENTO DE SENSORES, C1-C6     : /0.5519/0.5670/0.5810
AMORTIGUAMIENTO DE SENSORES, C7-C12    : 
INTERVALO DE MUESTREO, C1-C6, (s)      : /0.01/0.01/0.01
INTERVALO DE MUESTREO, C7-C12, (s)     : 
UMBRAL DE DISPARO, C1-C6, (Gal)        : /0.96/1.92/0.96
UMBRAL DE DISPARO, C7-C12, (Gal)       : 
MEMORIA DE PREEVENTO (s)               : 56.0
TIEMPO DE POSEVENTO (s)                : 64.0


================================================================================
DATOS DEL SISMO:
FECHA DEL SISMO (GMT)                  : 28/ABR/08
HORA EPICENTRO (GMT)                   : 00:06:29.0
MAGNITUD(ES)                           : /Mc=5.6
COORDENADAS DEL EPICENTRO              : 18.05 LAT. N
                                       : 100.01 LONG. W
PROFUNDIDAD FOCAL (km)                 : 52
FUENTE DE LOS DATOS EPICENTRALES       : SSN
                                       : INSTITUTO DE GEOFISICA, UNAM

================================================================================
DATOS DE ESTE REGISTRO:
HORA DE LA PRIMERA MUESTRA (GMT)       : 00:07:08.00
EXACTITUD DEL TIEMPO (s)               : 0.01
DURACION DEL REGISTRO (s), C1-C6       : /182.25/182.25/182.25
DURACION DEL REGISTRO (s), C7-C12      : 
NUM. TOTAL DE MUESTRAS, C1-C6          : /18225/18225/18225
NUM. TOTAL DE MUESTRAS, C7-C12         : 
ACEL. MAX. (Gal), C1-C6                : /5.75611/3.43857/6.63815
ACEL. MAX., C1-C6, EN LA MUESTRA       : /6727/5995/7661
ACEL. MAX. (Gal), C7-C12               : 
ACEL. MAX., C7-C12, EN LA MUESTRA      : 
UNIDADES DE LOS DATOS                  : Gal (cm/s/s)
FACTOR DE DECIMACION                   : 1
FORMATO DATOS (FORTRAN,10 campos/dato) : 3F10.5


================================================================================
CALIDAD DEL ACELEROGRAMA:
REGISTRO DIGITAL COMPLETO CON TIEMPO ABSOLUTO CORRECTO.


================================================================================
COMENTARIOS:














================================================================================
DATOS DE ACELERACION:
---------+---------+---------+---------+---------+---------+---------+---------+
   CANAL-1   CANAL-2   CANAL-3   CANAL-4   CANAL-5   CANAL-6   CANAL-7   CANAL-8
      N00E        +V      N90W
---------+---------+---------+---------+---------+---------+---------+---------+
[...]
  -1.44654   0.87099  -2.32858
  -1.68596   0.63157  -2.56800
  -1.44654   0.63157  -2.32858
  -1.44654   0.39215  -2.56800
  -1.44654   0.15273  -2.32858
  -1.20712   0.15273  -2.08916
  -1.20712   0.15273  -2.08916
  -0.96770   0.15273  -1.61032
  -0.96770   0.15273  -1.37090
  -0.96770  -0.08669  -1.37090
  -0.96770   0.39215  -0.89206
  -1.20712   0.63157  -0.65264
  -1.20712   0.39215  -0.65264
  -1.20712   0.15273  -0.17380
  -1.68596   0.15273  -0.17380
  -1.68596   0.15273   0.06562
  -1.68596   0.39215   0.30504
  -1.68596  -0.08669   0.54446
  -1.92538  -0.32611   0.78388
  -2.16480  -0.32611   1.26272
  -2.16480  -0.80495   1.26272
  -2.16480  -0.56553   1.26272
  -2.16480  -0.56553   1.50214
  -2.16480  -0.56553   1.50214
  -1.92538  -0.32611   1.74156
  -1.44654  -0.56553   1.50214
  -0.96770  -0.56553   1.50214
  -0.24944  -0.32611   1.74156
  -0.01002  -0.56553   1.50214
   0.70824  -0.56553   1.50214
   0.94766  -0.56553   1.50214
   1.42650  -0.80495   1.74156
   1.90534  -1.04437   1.74156
   2.14476  -0.80495   1.74156
   2.86302  -1.04437   1.50214
   3.34186  -1.04437   1.50214
   3.58128  -1.28379   1.50214
   4.06012  -1.28379   1.50214
   4.29954  -1.28379   1.26272
   4.06012  -1.28379   1.26272
   4.06012  -1.52321   1.50214
   4.06012  -1.76263   1.50214
   3.82070  -1.76263   1.74156
   3.10244  -1.52321   1.74156
   2.86302  -1.28379   1.98098
   2.38418  -1.04437   1.98098
   1.90534  -0.80495   1.98098
   1.42650  -0.56553   1.98098
   0.94766  -0.32611   1.98098
   0.70824  -0.32611   1.74156
   0.70824  -0.08669   1.74156
  -0.24944   0.39215   1.74156
  -0.48886   0.63157   1.50214
  -0.96770   0.63157   1.26272
  -0.96770   0.87099   1.02330
  -0.96770   1.11041   0.78388
  -0.96770   1.11041   0.54446
  -0.96770   1.34983   0.30504
  -0.72828   1.34983  -0.17380
  -0.48886   1.11041  -0.41322
  -0.24944   1.11041  -0.89206
   0.22940   0.87099  -0.89206
   0.70824   0.87099  -1.13148
   0.70824   0.63157  -1.61032
   1.18708   0.63157  -1.84974
   1.42650   0.63157  -2.08916
   1.90534   0.63157  -2.32858
   2.38418   0.63157  -2.56800
   2.86302   0.63157  -2.80742
   3.10244   0.87099  -2.80742
   3.34186   0.87099  -2.80742
   3.58128   0.63157  -2.80742
   3.82070   0.39215  -2.80742
   3.58128   0.63157  -3.04684
   3.58128   0.39215  -2.80742
   3.34186   0.63157  -3.04684
   3.34186   0.39215  -2.80742
   2.86302   0.39215  -2.56800
   2.38418   0.63157  -2.56800
   2.14476   0.39215  -1.84974
   1.66592   0.39215  -1.37090
   1.18708   0.39215  -0.89206
   0.70824   0.39215  -0.65264
   0.22940   0.39215   0.06562
  -0.24944   0.15273   1.02330
  -0.96770  -0.08669   1.02330
  -1.44654  -0.08669   1.74156
  -1.92538  -0.32611   1.98098
  -2.64365  -0.56553   1.98098
  -2.64365  -0.80495   2.45982
  -2.88307  -0.80495   2.69924
  -3.12249  -1.04437   2.93866
  -3.12249  -1.04437   2.93866
  -2.64365  -1.28379   2.93866
  -2.64365  -1.04437   2.93866
  -2.40423  -1.04437   2.93866
  -2.40423  -0.80495   2.45982
  -2.16480  -0.80495   2.45982
  -1.92538  -0.80495   2.22040
  -1.68596  -0.80495   1.98098
  -1.44654  -0.80495   1.50214
  -0.96770  -0.80495   1.26272
  -0.72828  -0.56553   1.02330
  -0.48886  -0.56553   1.02330
  -0.01002  -0.56553   1.02330
  -0.01002  -0.56553   1.02330
   0.22940  -0.32611   0.78388
   0.22940  -0.32611   0.78388
   0.46882  -0.08669   0.78388
   0.46882  -0.08669   1.26272
   0.46882   0.15273   1.50214
   0.46882   0.39215   1.74156
  -0.01002   0.63157   1.74156
  -0.24944   1.11041   1.74156
  -0.24944   1.34983   1.98098
  -0.96770   1.34983   1.98098
  -0.96770   1.58925   1.98098
  -0.96770   1.58925   1.98098
  -1.20712   1.34983   1.98098
  -1.44654   1.11041   1.98098
  -1.44654   0.63157   1.74156
  -1.92538   0.63157   1.26272
  -1.92538   0.63157   1.50214
  -2.16480   0.87099   1.26272
  -2.40423   0.87099   1.26272
  -2.40423   0.87099   1.02330
  -2.40423   1.11041   0.78388
  -2.40423   0.87099   0.54446
  -2.40423   1.11041   0.30504
  -2.16480   0.87099  -0.17380
  -2.16480   0.63157  -0.17380
  -1.68596   0.39215   0.06562
  -1.44654   0.15273  -0.41322
  -1.20712  -0.08669  -0.41322
  -0.96770  -0.08669  -0.65264
  -0.48886  -0.32611  -0.89206
  -0.48886  -0.32611  -0.89206
  -0.01002  -0.32611  -1.13148
  -0.01002  -0.32611  -1.37090
   0.22940  -0.56553  -1.37090
   0.22940  -0.56553  -1.37090
   0.22940  -0.32611  -1.37090
   0.46882  -0.32611  -1.37090
   0.22940  -0.56553  -1.13148
   0.22940  -0.56553  -1.13148
   0.22940  -0.32611  -0.89206
   0.22940  -0.32611  -0.65264
   0.46882  -0.32611  -0.41322
   0.46882  -0.32611  -0.41322
   0.46882  -0.32611  -0.17380
   0.46882  -0.08669  -0.41322
   0.46882  -0.32611   0.06562
   0.46882  -0.80495   0.06562
   0.70824  -1.04437   0.30504
   0.46882  -1.28379   0.30504
   0.46882  -1.28379   0.06562
   0.46882  -1.52321   0.30504
   0.46882  -1.76263   0.06562
   0.46882  -1.76263  -0.17380
   0.22940  -1.76263  -0.17380
   0.22940  -1.52321  -0.41322
   0.22940  -1.52321  -0.89206
   0.22940  -1.52321  -1.13148
   0.22940  -1.28379  -1.37090
   0.46882  -1.28379  -1.61032
   0.22940  -1.28379  -1.84974
   0.22940  -1.28379  -2.08916
   0.22940  -1.52321  -2.08916
  -0.01002  -1.28379  -2.32858
   0.22940  -1.04437  -2.08916
   0.22940  -0.80495  -2.08916
   0.22940  -0.80495  -1.84974
   0.46882  -0.56553  -1.84974
   0.70824  -0.32611  -1.37090
   0.94766  -0.08669  -1.37090
   1.42650  -0.32611  -0.89206
   1.66592  -0.32611  -0.41322
   1.90534   0.15273   0.06562
   2.14476   0.15273   0.54446
   2.14476   0.39215   0.78388
   2.14476   0.63157   1.02330
   1.90534   0.63157   1.50214
   2.14476   0.87099   1.50214
   2.38418   1.34983   1.98098
   2.38418   1.58925   2.22040
   2.86302   1.82867   2.22040
   2.86302   1.82867   2.45982
   2.86302   1.82867   2.45982
   2.86302   1.58925   2.45982
   2.62360   1.82867   2.22040
   2.14476   1.34983   1.98098
   1.90534   1.11041   1.98098
   1.90534   0.87099   1.50214
   1.42650   0.63157   1.02330
   1.42650   0.39215   0.54446
   1.42650   0.39215   0.30504
   1.42650   0.15273  -0.17380
   1.18708   0.15273  -0.41322
   1.18708  -0.08669  -0.89206
   0.94766   0.15273  -1.37090
   0.70824   0.15273  -1.61032
   0.70824  -0.08669  -1.84974
   0.46882  -0.08669  -1.84974
   0.46882   0.15273  -2.32858
   0.22940   0.15273  -2.56800
   0.46882   0.15273  -2.56800
   0.22940   0.15273  -2.80742
   0.22940  -0.32611  -2.56800
   0.46882  -0.32611  -2.56800
   0.70824  -0.56553  -2.56800
   0.94766  -0.80495  -2.56800
   0.94766  -0.80495  -2.32858
   1.18708  -0.32611  -2.32858
   1.66592  -0.80495  -2.08916
   1.66592  -0.56553  -2.32858
   1.66592  -0.32611  -2.32858
   1.90534  -0.32611  -2.08916
   2.14476  -0.56553  -2.08916
   1.90534  -0.56553  -1.84974
   1.90534  -0.56553  -1.84974
   1.90534  -0.32611  -1.61032
   1.66592  -0.32611  -1.61032
   1.42650  -0.08669  -1.61032
   1.42650   0.15273  -1.61032
   1.18708   0.15273  -1.61032
   0.94766   0.15273  -1.84974
   0.70824   0.15273  -1.84974
   0.22940   0.15273  -2.08916
  -0.24944   0.15273  -2.32858
  -0.72828   0.15273  -2.56800
  -1.20712   0.15273  -2.56800
  -1.68596   0.15273  -2.56800
  -1.92538   0.15273  -2.56800
  -2.40423   0.39215  -2.80742
  -2.88307   0.63157  -2.80742
  -2.88307   0.63157  -2.56800
  -3.12249   0.63157  -2.32858
  -3.60133   0.87099  -2.32858
  -4.08017   0.87099  -2.08916
  -4.08017   0.63157  -1.61032
  -4.08017   0.63157  -1.37090
  -4.08017   0.63157  -0.89206
  -4.31959   0.63157  -0.89206
  -4.55901   0.87099  -0.41322
  -4.31959   0.87099   0.06562
  -4.31959   0.87099   0.54446
  -4.31959   0.87099   0.54446
  -3.84075   0.63157   1.02330
  -4.08017   0.39215   1.26272
  -3.84075   0.63157   1.50214
  -3.60133   0.39215   1.74156
  -3.60133   0.15273   1.98098
  -3.36191   0.39215   1.98098
  -3.36191   0.15273   2.22040
  -3.12249   0.39215   2.45982
  -2.88307   0.39215   2.22040
  -3.12249   0.63157   2.69924
  -2.64365   0.63157   2.69924
  -2.40423   0.39215   2.69924
  -1.92538   0.39215   3.17808
  -1.92538   0.15273   2.93866
  -1.68596   0.15273   3.17808
  -1.20712   0.15273   2.93866
  -1.20712  -0.08669   2.93866
  -0.96770   0.15273   2.69924
  -0.96770   0.15273   2.45982
  -0.72828   0.15273   2.22040
  -0.72828   0.15273   2.45982
  -0.48886   0.15273   2.22040
  -0.72828   0.15273   2.22040
  -0.72828  -0.08669   1.98098
  -0.72828  -0.08669   1.98098
  -0.48886  -0.08669   1.98098
  -0.72828  -0.32611   1.98098
  -0.48886  -0.08669   1.74156
  -0.72828  -0.08669   1.50214
  -0.48886  -0.08669   1.26272
  -0.48886  -0.08669   1.26272
   0.22940  -0.32611   1.02330
   0.22940  -0.80495   0.78388
   0.46882  -0.80495   0.78388
   0.94766  -1.52321   1.02330
   1.18708  -1.52321   1.26272
   1.42650  -1.76263   1.26272
   1.42650  -2.00205   1.50214
   1.66592  -2.24147   1.50214
   1.90534  -2.24147   1.74156
   2.14476  -2.24147   1.74156
   2.14476  -2.00205   1.98098
   2.38418  -1.76263   1.98098
   2.38418  -1.76263   1.98098
   2.14476  -1.76263   2.22040
   2.14476  -1.52321   2.22040
   1.90534  -1.52321   2.22040
   1.90534  -1.52321   2.22040
   1.66592  -1.28379   1.98098
   1.90534  -1.04437   1.98098
   1.66592  -0.80495   1.98098
   1.42650  -0.56553   1.98098
   1.66592  -0.32611   1.98098
   1.42650   0.15273   1.98098
   1.42650   0.39215   1.98098
   1.18708   0.63157   1.74156
   1.18708   0.63157   1.74156
   0.70824   0.87099   1.26272
   0.70824   0.87099   1.26272
   0.46882   1.11041   1.26272
   0.22940   1.11041   1.02330
  -0.01002   1.11041   1.02330
  -0.01002   1.34983   1.02330
  -0.24944   1.11041   1.26272
  -0.24944   1.11041   1.26272
  -0.24944   0.87099   1.26272
  -0.24944   0.63157   1.50214
  -0.01002   0.63157   1.50214
  -0.24944   0.39215   1.74156
  -0.01002   0.15273   1.98098
   0.22940   0.15273   1.98098
   0.22940  -0.08669   1.98098
   0.46882  -0.08669   1.74156
   0.46882  -0.56553   1.74156
   0.70824  -0.56553   1.50214
   0.94766  -0.80495   1.50214
   1.18708  -1.04437   1.50214
   1.18708  -1.04437   1.02330
   1.18708  -1.04437   0.78388
   1.18708  -1.04437   0.78388
   1.18708  -0.80495   0.30504
   1.18708  -1.04437   0.30504
   1.42650  -0.80495   0.06562
   1.18708  -0.56553  -0.65264
   1.42650  -0.32611  -0.89206
   0.94766  -0.32611  -1.37090
   1.18708   0.15273  -1.84974
   0.94766   0.39215  -2.32858
   0.70824   0.87099  -2.80742
   0.22940   0.87099  -3.28626
   0.22940   1.34983  -3.52568
  -0.01002   1.58925  -4.24394
  -0.48886   1.82867  -4.72278
  -0.48886   1.82867  -5.20162
  -0.48886   2.06809  -5.44104
  -0.48886   2.06809  -5.91989
  -0.48886   2.06809  -6.15931
  -0.48886   2.06809  -6.15931
  -0.48886   2.06809  -6.15931
  -0.72828   1.82867  -6.63815
  -0.48886   1.82867  -6.39873
  -0.48886   1.82867  -6.15931
  -0.24944   1.58925  -6.15931
  -0.01002   0.87099  -5.91989
  -0.01002   0.87099  -6.15931
   0.22940   0.87099  -5.68047
   0.46882   0.39215  -5.44104
   0.46882   0.15273  -5.20162
   0.46882  -0.32611  -4.96220
   0.70824  -0.56553  -4.48336
   0.46882  -0.56553  -4.48336
   0.22940  -0.80495  -4.00452
   0.22940  -1.04437  -3.76510
   0.46882  -1.04437  -3.52568
   0.22940  -1.04437  -3.04684
  -0.01002  -1.28379  -2.80742
   0.22940  -1.28379  -2.56800
  -0.01002  -1.28379  -2.32858
  -0.48886  -1.28379  -2.08916
  -0.48886  -1.28379  -1.37090
  -0.72828  -0.80495  -1.61032
  -0.72828  -0.80495  -1.13148
  -0.72828  -0.56553  -0.65264
  -0.72828  -0.56553  -0.17380
  -0.96770  -0.56553   0.06562
  -0.96770  -0.80495   0.30504
  -0.72828  -0.80495   0.78388
  -0.48886  -1.04437   1.02330
  -0.48886  -0.56553   1.26272
  -0.48886  -0.56553   1.74156
  -0.24944  -0.56553   1.74156
  -0.24944  -0.56553   1.98098
  -0.24944  -0.32611   2.22040
  -0.01002  -0.32611   2.22040
  -0.01002  -0.08669   2.45982
   0.22940   0.15273   2.45982
   0.46882   0.39215   2.45982
   0.46882   0.15273   2.22040
   0.46882   0.39215   2.45982
   0.46882   0.63157   2.22040
   0.22940   0.39215   2.22040
  -0.01002   0.39215   2.45982
   0.22940   0.63157   2.45982
  -0.48886   0.87099   2.69924
  -0.72828   0.87099   2.69924
  -1.20712   0.87099   2.69924
  -1.20712   0.63157   2.93866
  -1.44654   0.39215   3.17808
  -1.68596   0.39215   3.17808
  -1.68596   0.15273   3.17808
  -1.92538  -0.32611   3.17808
  -2.16480  -0.08669   3.41750
  -2.40423  -0.32611   3.41750
  -2.40423  -0.08669   3.41750
  -1.92538  -0.08669   3.65692
  -2.16480   0.15273   3.65692
  -1.92538  -0.08669   3.41750
  -1.92538   0.15273   3.89634
  -1.44654  -0.08669   3.65692
  -1.20712   0.15273   3.65692
  -0.96770   0.15273   3.17808
  -0.96770   0.15273   3.41750
  -0.48886   0.15273   2.93866
  -0.24944   0.39215   2.45982
  -0.24944   0.63157   2.22040
  -0.01002   0.39215   1.74156
   0.22940   0.87099   1.26272
   0.46882   0.87099   0.78388
   0.70824   0.87099   0.54446
   0.94766   0.87099   0.06562
   0.94766   0.63157  -0.17380
   0.70824   0.87099  -0.65264
   0.70824   0.87099  -0.41322
   0.22940   1.34983  -0.65264
   0.22940   1.34983  -0.89206
   0.22940   1.34983  -0.89206
   0.22940   1.58925  -0.65264
   0.22940   1.58925  -0.65264
  -0.01002   1.34983  -0.65264
  -0.24944   1.11041  -0.41322
  -0.24944   0.87099  -0.17380
  -0.48886   0.39215   0.30504
  -0.72828   0.15273   0.30504
  -0.72828   0.15273   0.54446
  -0.96770  -0.32611   1.02330
  -0.72828  -0.56553   1.02330
  -0.48886  -1.04437   1.26272
  -0.48886  -1.28379   1.02330
  -0.24944  -1.52321   1.26272
  -0.01002  -1.76263   1.50214
   0.22940  -2.00205   1.26272
   0.46882  -2.24147   1.26272
   0.46882  -2.00205   1.26272
   0.46882  -2.00205   1.02330
   0.70824  -2.00205   0.78388
   1.18708  -2.00205   0.30504
   1.42650  -2.00205  -0.41322
   1.66592  -2.00205  -0.65264
   1.90534  -1.76263  -1.13148
   1.66592  -1.76263  -1.61032
   2.14476  -1.52321  -2.08916
   2.14476  -1.52321  -2.32858
   1.90534  -1.28379  -2.80742
   2.14476  -1.28379  -2.80742
   2.14476  -1.04437  -3.28626
   2.38418  -0.80495  -3.28626
   2.38418  -0.80495  -3.04684
   2.38418  -0.56553  -3.04684
   2.38418  -0.56553  -2.80742
   1.90534  -0.08669  -2.32858
   2.14476  -0.08669  -2.08916
   1.66592   0.15273  -1.84974
   1.18708   0.39215  -1.37090
   0.94766   0.39215  -1.13148
   0.70824   0.63157  -0.65264
   0.70824   0.63157  -0.17380
   0.46882   0.63157   0.06562
   0.22940   0.87099   0.30504
  -0.01002   0.87099   0.54446
  -0.24944   0.63157   0.78388
  -0.24944   0.87099   0.78388
  -0.72828   0.87099   1.02330
  -0.96770   0.87099   1.02330
  -0.96770   0.87099   0.78388
  -0.96770   0.63157   0.54446
  -0.96770   0.63157   0.06562
  -1.20712   0.63157   0.06562
  -0.96770   0.63157  -0.17380
  -0.72828   0.87099  -0.65264
  -0.72828   0.87099  -1.13148
  -0.48886   0.87099  -1.37090
  -0.24944   0.87099  -1.61032
  -0.01002   0.87099  -1.84974
   0.22940   0.63157  -2.32858
   0.46882   0.63157  -2.32858
   0.94766   0.63157  -2.56800
   1.42650   0.63157  -3.04684
   1.66592   0.63157  -3.04684
   2.14476   0.63157  -3.04684
   2.14476   0.87099  -3.04684
   2.38418   0.63157  -3.04684
   2.14476   0.87099  -3.04684
   2.14476   0.87099  -2.80742
   2.14476   0.87099  -2.56800
   1.66592   0.87099  -2.32858
   1.42650   1.11041  -1.84974
   0.94766   0.87099  -1.84974
   0.70824   0.87099  -1.37090
   0.22940   0.87099  -1.13148
