********************************************************************************
              CENTRO DE INSTRUMENTACION Y REGISTRO SISMICO  A.C.

    Anaxagoras 814, Col. Narvarte, Benito Juarez, C.P. 03020 Mexico, D.F.
           Tels. 5687 45 42/ 5687 45  82             Fax. 5669 25 12
********************************************************************************
ARCHIVO ESTANDAR DE ACELERACION:
VERSION DEL FORMATO                    : 2.0
NOMBRE DEL ARCHIVO                     : AL0120140813064811
FECHA Y HORA DE CREACION               : 15/AGO/14, 14:00
REF. CATALOGO ACELEROGRAMAS, SMIS 1996 : REGISTRO No.     /PAG.


================================================================================
DATOS DE LA ESTACION:
NOMBRE DE LA ESTACION                  : ALAMEDA
CLAVE DE LA ESTACION                   : AL01
LOCALIZACION DE LA ESTACION            : Del. Cuauhtémoc, Col. Centro,          
                                       : Dr. Mora entre Av. Hidalgo             
                                       : y Av. Juárez.                          
                                       :                                        
                                       : 
COORDENADAS DE LA ESTACION             : 19.4356 LAT. N
                                       : 99.1453 LONG. W
ALTITUD (msnm)                         : 2232
TIPO DE SUELO                          : Terreno blando, material compresible
                                       : (arcillas)                
                                       : 
INSTITUCION RESPONSABLE                : CIRES
                                       : 

================================================================================
DATOS DEL ACELEROGRAFO:
MODELO DEL ACELEROGRAFO                : RADESD
NUMERO DE SERIE DEL ACELEROGRAFO       : 152
NUMERO DE CANALES                      : 3
ORIENTACION C1-C6 (rumbo;orientacion)  : /S00E/+V/N90W
ORIENTACION C7-C12 (rumbo;orientacion) : 
VEL. DE MUESTREO, C1-C6 (muestras/s)   : /100/100/100
VEL. DE MUESTREO, C7-C12 (muestras/s)  : 
ESC. COMPLETA DE SENSORES, C1-C6, (g)  : /0.5/0.5/0.5
ESC. COMPLETA DE SENSORES, C7-C12, (g) : 
FREC. NAT. DE SENSORES, C1-C6, (Hz)    : /51.29/51.09/53.75
FREC. NAT. DE SENSORES, C7-C12, (Hz)   : 
AMORTIGUAMIENTO DE SENSORES, C1-C6     : /0.5519/0.5670/0.5810
AMORTIGUAMIENTO DE SENSORES, C7-C12    : 
INTERVALO DE MUESTREO, C1-C6, (s)      : /0.01/0.01/0.01
INTERVALO DE MUESTREO, C7-C12, (s)     : 
UMBRAL DE DISPARO, C1-C6, (Gal)        : /0.9/1.8/0.9
UMBRAL DE DISPARO, C7-C12, (Gal)       : 
MEMORIA DE PREEVENTO (s)               : 44.0
TIEMPO DE POSEVENTO (s)                : 64.0


================================================================================
DATOS DEL SISMO:
FECHA DEL SISMO (GMT)                  : 13/AGO/14
HORA EPICENTRO (GMT)                   : 06:48:11.0
MAGNITUD(ES)                           : /Mc=5.4
COORDENADAS DEL EPICENTRO              : 16.13 LAT. N
                                       : 98.35 LONG. W
PROFUNDIDAD FOCAL (km)                 : 10
FUENTE DE LOS DATOS EPICENTRALES       : SSN
                                       : INSTITUTO DE GEOFISICA, UNAM

================================================================================
DATOS DE ESTE REGISTRO:
HORA DE LA PRIMERA MUESTRA (GMT)       : 06:49:55.00
EXACTITUD DEL TIEMPO (s)               : 0.01
DURACION DEL REGISTRO (s), C1-C6       : /160.2/160.2/160.2
DURACION DEL REGISTRO (s), C7-C12      : 
NUM. TOTAL DE MUESTRAS, C1-C6          : /16020/16020/16020
NUM. TOTAL DE MUESTRAS, C7-C12         : 
ACEL. MAX. (Gal), C1-C6                : /2.90139/1.57851/4.00001
ACEL. MAX., C1-C6, EN LA MUESTRA       : /5219/5063/5821
ACEL. MAX. (Gal), C7-C12               : 
ACEL. MAX., C7-C12, EN LA MUESTRA      : 
UNIDADES DE LOS DATOS                  : Gal (cm/s/s)
FACTOR DE DECIMACION                   : 1
FORMATO DATOS (FORTRAN,10 campos/dato) : 3F10.5


================================================================================
CALIDAD DEL ACELEROGRAMA:
REGISTRO DIGITAL COMPLETO CON TIEMPO ABSOLUTO CORRECTO.


================================================================================
COMENTARIOS:














================================================================================
DATOS DE ACELERACION:
---------+---------+---------+---------+---------+---------+---------+---------+
   CANAL-1   CANAL-2   CANAL-3   CANAL-4   CANAL-5   CANAL-6   CANAL-7   CANAL-8
      S00E        +V      N90W
---------+---------+---------+---------+---------+---------+---------+---------+
[...]
   0.48042  -0.63613   0.45919
   0.63006  -0.57627   0.53401
   0.64502  -0.44160   0.39933
   0.73480  -0.36678   0.33948
   0.80962  -0.26204   0.27962
   0.88444  -0.23211   0.14495
   0.89940  -0.23211   0.04020
   0.92933  -0.11240  -0.12440
   1.01911   0.02228  -0.28900
   1.07897   0.05220  -0.46856
   1.10890   0.11206  -0.73791
   1.09393   0.09709  -0.85762
   1.06401   0.17191  -1.11201
   1.10890   0.18688  -1.24668
   1.06401   0.17191  -1.53099
   1.03408   0.20184  -1.74048
   1.04904   0.24673  -1.86019
   1.04904   0.24673  -2.08465
   1.03408   0.30659  -2.11458
   1.06401   0.27666  -2.23429
   1.07897   0.26170  -2.24925
   1.06401   0.27666  -2.30911
   1.04904   0.30659  -2.23429
   1.01911   0.27666  -2.14450
   0.97422   0.38141  -2.08465
   0.88444   0.33651  -1.97990
   0.85451   0.39637  -1.81530
   0.79466   0.39637  -1.60581
   0.63006   0.48615  -1.45617
   0.57020   0.48615  -1.21675
   0.37567   0.47119  -1.03719
   0.31582   0.45622  -0.84266
   0.10632   0.45622  -0.69302
  -0.01339   0.41133  -0.54338
  -0.11813   0.42630  -0.37878
  -0.25281   0.35148  -0.24411
  -0.34259   0.39637  -0.13936
  -0.41741   0.32155  -0.04958
  -0.49223   0.30659   0.10006
  -0.56704   0.17191   0.11502
  -0.55208   0.08213   0.14495
  -0.58201  -0.00765   0.17488
  -0.58201  -0.11240   0.15991
  -0.52215  -0.26204   0.23473
  -0.49223  -0.35182   0.18984
  -0.35755  -0.36678   0.21977
  -0.25281  -0.47153   0.24970
  -0.13310  -0.60620   0.24970
   0.01654  -0.63613   0.24970
   0.15122  -0.74088   0.32452
   0.31582  -0.75584   0.30955
   0.49538  -0.81569   0.35444
   0.67495  -0.83066   0.44423
   0.82459  -0.83066   0.45919
   1.00415  -0.86059   0.53401
   1.07897  -0.78577   0.59386
   1.19868  -0.75584   0.66868
   1.30343  -0.69598   0.68365
   1.31839  -0.66606   0.80336
   1.40817  -0.50146   0.86321
   1.48299  -0.47153   0.87817
   1.42314  -0.44160   0.89314
   1.37824  -0.24707   0.95299
   1.34832  -0.24707   0.98292
   1.25853  -0.15729   0.92307
   1.19868  -0.03758   0.95299
   1.04904   0.08213   0.86321
   0.88444   0.08213   0.80336
   0.79466   0.26170   0.77343
   0.55524   0.30659   0.63875
   0.37567   0.41133   0.56394
   0.22603   0.47119   0.53401
  -0.01339   0.50112   0.35444
  -0.17799   0.57593   0.23473
  -0.38748   0.63579   0.11502
  -0.53712   0.66572  -0.03461
  -0.70172   0.66572  -0.09447
  -0.86632   0.75550  -0.22914
  -1.00099   0.63579  -0.28900
  -1.15063   0.66572  -0.36382
  -1.13567   0.68068  -0.36382
  -1.24041   0.63579  -0.45360
  -1.41998   0.63579  -0.39374
  -1.31523   0.62083  -0.28900
  -1.41998   0.57593  -0.25907
  -1.39005   0.48615  -0.21418
  -1.41998   0.42630  -0.06454
  -1.34516   0.36644   0.10006
  -1.31523   0.35148   0.24970
  -1.25538   0.29162   0.39933
  -1.15063   0.15695   0.57890
  -1.04588   0.14199   0.75846
  -1.03092   0.05220   0.87817
  -0.89625   0.03724   1.02781
  -0.74661  -0.02262   1.23730
  -0.67179  -0.11240   1.31212
  -0.47726  -0.09743   1.49169
  -0.37252  -0.11240   1.56651
  -0.26777  -0.12736   1.61140
  -0.11813  -0.14233   1.67125
   0.07640  -0.09743   1.61140
   0.24100  -0.11240   1.61140
   0.45049  -0.15729   1.59644
   0.61509  -0.11240   1.52162
   0.79466  -0.11240   1.38694
   1.00415  -0.15729   1.29716
   1.16875  -0.12736   1.19241
   1.31839  -0.03758   1.07270
   1.40817  -0.11240   0.87817
   1.51292  -0.11240   0.71357
   1.73737  -0.03758   0.65372
   1.73737  -0.11240   0.54897
   1.73737  -0.09743   0.41430
   1.75234  -0.08247   0.29459
   1.81219  -0.20218   0.24970
   1.73737  -0.08247   0.15991
   1.64759  -0.17225   0.15991
   1.60270  -0.20218   0.10006
   1.45306  -0.20218   0.10006
   1.45306  -0.20218   0.10006
   1.25853  -0.26204   0.15991
   1.15379  -0.29196   0.21977
   0.98919  -0.27700   0.23473
   0.85451  -0.44160   0.30955
   0.70488  -0.42664   0.38437
   0.52531  -0.39671   0.48912
   0.40560  -0.42664   0.60883
   0.28589  -0.50146   0.68365
   0.10632  -0.50146   0.62379
  -0.07324  -0.48649   0.71357
  -0.13310  -0.57627   0.75846
  -0.32762  -0.47153   0.77343
  -0.49223  -0.53138   0.71357
  -0.55208  -0.57627   0.66868
  -0.65683  -0.63613   0.63875
  -0.73165  -0.54635   0.59386
  -0.85136  -0.57627   0.45919
  -0.86632  -0.50146   0.39933
  -0.95610  -0.51642   0.21977
  -1.04588  -0.51642   0.08510
  -1.16559  -0.50146   0.01028
  -1.21049  -0.44160  -0.15432
  -1.30027  -0.47153  -0.28900
  -1.37509  -0.35182  -0.39374
  -1.39005  -0.35182  -0.48353
  -1.43494  -0.32189  -0.54338
  -1.43494  -0.32189  -0.63317
  -1.44991  -0.18722  -0.60324
  -1.50976  -0.18722  -0.70798
  -1.43494  -0.15729  -0.64813
  -1.49480  -0.11240  -0.69302
  -1.47983  -0.05254  -0.66309
  -1.41998   0.02228  -0.67806
  -1.37509   0.03724  -0.55835
  -1.34516   0.08213  -0.58827
  -1.25538   0.15695  -0.51346
  -1.13567   0.18688  -0.42367
  -1.07581   0.21680  -0.39374
  -0.92617   0.30659  -0.31893
  -0.82143   0.30659  -0.31893
  -0.71668   0.35148  -0.31893
  -0.59697   0.39637  -0.31893
  -0.41741   0.50112  -0.28900
  -0.28273   0.57593  -0.31893
  -0.20791   0.53104  -0.39374
  -0.11813   0.62083  -0.45360
   0.03151   0.69564  -0.55835
   0.12129   0.66572  -0.66309
   0.19611   0.74054  -0.73791
   0.31582   0.69564  -0.84266
   0.40560   0.81535  -0.91748
   0.52531   0.71061  -1.02222
   0.55524   0.71061  -1.15690
   0.55524   0.72557  -1.33646
   0.58517   0.66572  -1.44121
   0.68991   0.69564  -1.48610
   0.65998   0.62083  -1.56092
   0.65998   0.56097  -1.68063
   0.55524   0.51608  -1.77041
   0.48042   0.36644  -1.83027
   0.45049   0.27666  -1.87516
   0.33078   0.24673  -1.94998
   0.31582   0.12702  -1.97990
   0.25596   0.05220  -2.02479
   0.15122  -0.03758  -2.03976
   0.10632  -0.06751  -2.00983
   0.06143  -0.21714  -2.03976
  -0.01339  -0.20218  -2.05472
  -0.04331  -0.20218  -2.02479
  -0.14806  -0.29196  -2.00983
  -0.11813  -0.27700  -1.99487
  -0.20791  -0.30693  -1.96494
  -0.23784  -0.30693  -1.97990
  -0.29770  -0.27700  -1.96494
  -0.26777  -0.24707  -1.87516
  -0.29770  -0.23211  -1.86019
  -0.22288  -0.20218  -1.77041
  -0.26777  -0.12736  -1.68063
  -0.26777  -0.05254  -1.68063
  -0.13310   0.02228  -1.57588
  -0.10317   0.14199  -1.48610
  -0.10317   0.14199  -1.39632
  -0.01339   0.21680  -1.32150
   0.03151   0.17191  -1.23172
   0.12129   0.24673  -1.05215
   0.12129   0.29162  -0.94740
   0.18114   0.27666  -0.82769
   0.27093   0.27666  -0.64813
   0.25596   0.27666  -0.55835
   0.31582   0.27666  -0.45360
   0.36071   0.29162  -0.27403
   0.37567   0.32155  -0.12440
   0.36071   0.32155   0.01028
   0.28589   0.32155   0.04020
   0.28589   0.21680   0.14495
   0.30085   0.17191   0.20481
   0.25596   0.21680   0.32452
   0.18114   0.14199   0.33948
   0.16618   0.15695   0.38437
   0.04647   0.12702   0.36941
   0.04647   0.17191   0.39933
  -0.04331   0.14199   0.35444
  -0.08820   0.17191   0.33948
  -0.19295   0.21680   0.27962
  -0.31266   0.14199   0.24970
  -0.34259   0.23177   0.26466
  -0.38748   0.26170   0.23473
  -0.46230   0.32155   0.14495
  -0.49223   0.29162   0.17488
  -0.59697   0.30659   0.11502
  -0.71668   0.30659   0.07013
  -0.77654   0.29162   0.08510
  -0.80646   0.39637   0.04020
  -0.89625   0.32155   0.05517
  -0.94114   0.36644   0.02524
  -0.92617   0.29162   0.14495
  -0.97107   0.33651   0.14495
  -1.06085   0.26170   0.15991
  -1.00099   0.29162   0.24970
  -1.06085   0.18688   0.27962
  -1.04588   0.17191   0.42926
  -1.01596   0.14199   0.53401
  -1.06085   0.14199   0.57890
  -0.98603   0.06717   0.75846
  -1.01596   0.06717   0.81832
  -0.98603  -0.05254   0.93803
  -1.00099  -0.03758   1.04278
  -0.95610  -0.05254   1.17745
  -0.97107  -0.11240   1.25227
  -0.86632  -0.21714   1.35702
  -0.88128  -0.29196   1.50665
  -0.80646  -0.33685   1.59644
  -0.82143  -0.44160   1.68622
  -0.76157  -0.50146   1.71615
  -0.71668  -0.56131   1.88075
  -0.61194  -0.53138   1.89571
  -0.55208  -0.65109   1.97053
  -0.41741  -0.60620   2.06031
  -0.32762  -0.75584   2.10520
  -0.23784  -0.81569   2.13513
  -0.10317  -0.80073   2.18002
   0.06143  -0.89051   2.23988
   0.24100  -0.87555   2.26980
   0.39064  -0.81569   2.32966
   0.55524  -0.83066   2.25484
   0.73480  -0.80073   2.29973
   0.92933  -0.80073   2.34462
   1.04904  -0.74088   2.31470
   1.27350  -0.59124   2.35959
   1.36328  -0.57627   2.28477
   1.54285  -0.48649   2.25484
   1.64759  -0.35182   2.23988
   1.76730  -0.27700   2.18002
   1.84212  -0.17225   2.13513
   1.90198  -0.15729   2.06031
   1.94687   0.03724   1.97053
   2.02169   0.09709   2.01542
   1.99176   0.24673   1.91067
   1.97679   0.24673   1.91067
   2.05161   0.38141   1.89571
   1.97679   0.44126   1.83586
   1.93190   0.54601   1.85082
   1.87205   0.60586   1.80593
   1.87205   0.63579   1.73111
   1.79723   0.71061   1.74607
   1.76730   0.71061   1.70118
   1.67752   0.74054   1.62636
   1.58774   0.72557   1.58147
   1.52788   0.74054   1.46176
   1.55781   0.66572   1.49169
   1.37824   0.66572   1.40191
   1.33335   0.53104   1.29716
   1.27350   0.51608   1.22234
   1.18372   0.47119   1.05774
   1.09393   0.35148   0.87817
   0.97422   0.26170   0.81832
   0.86948   0.12702   0.66868
   0.80962   0.09709   0.51904
   0.68991   0.00731   0.36941
   0.55524  -0.14233   0.21977
   0.48042  -0.26204   0.02524
   0.39064  -0.24707  -0.12440
   0.34575  -0.41167  -0.27403
   0.27093  -0.45656  -0.36382
   0.21107  -0.54635  -0.51346
   0.09136  -0.45656  -0.60324
   0.10632  -0.53138  -0.69302
   0.00158  -0.60620  -0.76784
  -0.05828  -0.60620  -0.85762
  -0.11813  -0.59124  -0.97733
  -0.17799  -0.63613  -0.99230
  -0.25281  -0.60620  -1.02222
  -0.23784  -0.62117  -1.08208
  -0.32762  -0.54635  -1.09704
  -0.37252  -0.59124  -1.03719
  -0.40244  -0.56131  -1.05215
  -0.50719  -0.48649  -0.99230
  -0.53712  -0.54635  -0.99230
  -0.49223  -0.48649  -0.91748
  -0.59697  -0.48649  -0.94740
  -0.65683  -0.35182  -0.88755
  -0.65683  -0.35182  -0.79777
  -0.74661  -0.32189  -0.81273
  -0.82143  -0.29196  -0.79777
  -0.80646  -0.24707  -0.87259
  -0.85136  -0.18722  -0.84266
  -0.89625  -0.09743  -0.90251
  -0.82143  -0.00765  -0.99230
  -0.89625  -0.02262  -1.08208
  -0.91121   0.12702  -1.20179
  -0.88128   0.18688  -1.30653
  -0.88128   0.27666  -1.41128
  -0.85136   0.33651  -1.59085
  -0.89625   0.38141  -1.86019
  -0.82143   0.48615  -2.02479
  -0.79150   0.50112  -2.23429
  -0.68675   0.57593  -2.48867
  -0.56704   0.62083  -2.71313
  -0.55208   0.66572  -2.96751
  -0.49223   0.60586  -3.20693
  -0.41741   0.74054  -3.37153
  -0.26777   0.62083  -3.56606
  -0.14806   0.71061  -3.68577
  -0.02835   0.68068  -3.77555
   0.00158   0.65075  -3.89526
   0.09136   0.60586  -3.97008
   0.16618   0.57593  -4.00001
   0.24100   0.50112  -3.97008
   0.33078   0.44126  -3.95512
   0.37567   0.45622  -3.86534
   0.40560   0.36644  -3.76059
   0.46546   0.29162  -3.59599
   0.45049   0.30659  -3.47628
   0.49538   0.17191  -3.26679
   0.43553   0.08213  -3.04233
   0.37567   0.06717  -2.81787
   0.33078   0.05220  -2.53356
   0.27093  -0.02262  -2.27918
   0.15122  -0.02262  -2.02479
   0.12129  -0.09743  -1.77041
  -0.04331  -0.05254  -1.51603
  -0.11813  -0.18722  -1.29157
  -0.20791  -0.20218  -1.05215
  -0.25281  -0.26204  -0.78280
  -0.34259  -0.24707  -0.54338
  -0.44733  -0.30693  -0.33389
  -0.47726  -0.32189  -0.10943
  -0.58201  -0.29196   0.08510
  -0.64186  -0.35182   0.26466
  -0.70172  -0.30693   0.50408
  -0.79150  -0.32189   0.59386
  -0.83639  -0.32189   0.80336
  -0.89625  -0.26204   0.87817
  -0.89625  -0.27700   1.01285
  -1.03092  -0.24707   1.10263
  -1.06085  -0.09743   1.14752
  -1.07581  -0.14233   1.25227
  -1.09078  -0.05254   1.29716
  -1.15063   0.05220   1.35702
  -1.21049   0.02228   1.37198
  -1.27034   0.12702   1.47673
  -1.31523   0.17191   1.47673
  -1.40501   0.24673   1.46176
  -1.41998   0.33651   1.49169
  -1.44991   0.30659   1.49169
  -1.50976   0.36644   1.50665
  -1.52472   0.35148   1.50665
  -1.49480   0.41133   1.49169
  -1.50976   0.39637   1.58147
  -1.52472   0.41133   1.53658
  -1.46487   0.45622   1.59644
  -1.47983   0.44126   1.62636
  -1.36012   0.48615   1.68622
  -1.28530   0.47119   1.71615
  -1.30027   0.42630   1.76104
  -1.18056   0.41133   1.76104
  -1.12070   0.38141   1.82089
  -0.98603   0.33651   1.83586
  -0.85136   0.32155   1.86578
  -0.71668   0.24673   1.83586
  -0.55208   0.17191   1.86578
  -0.38748   0.06717   1.88075
  -0.28273   0.02228   1.89571
  -0.13310  -0.08247   1.83586
   0.04647  -0.14233   1.80593
   0.22603  -0.26204   1.80593
   0.39064  -0.39671   1.71615
   0.52531  -0.51642   1.68622
   0.70488  -0.53138   1.62636
   0.85451  -0.69598   1.56651
   1.00415  -0.74088   1.50665
   1.15379  -0.86059   1.44680
   1.22861  -0.96533   1.32709
   1.34832  -1.05512   1.26723
   1.43810  -1.04015   1.22234
   1.48299  -1.10001   1.16249
   1.51292  -1.15986   1.05774
   1.60270  -1.20475   1.04278
   1.57277  -1.20475   1.02781
   1.54285  -1.18979   0.99788
   1.51292  -1.14490   0.99788
   1.46803  -1.11497   1.01285
   1.37824  -1.05512   1.05774
   1.33335  -0.95037   1.07270
   1.15379  -0.96533   1.17745
   1.07897  -0.75584   1.17745
   0.88444  -0.59124   1.20738
   0.73480  -0.48649   1.34205
   0.55524  -0.36678   1.35702
   0.43553  -0.18722   1.41687
   0.28589  -0.11240   1.50665
   0.12129   0.00731   1.55154
  -0.02835   0.12702   1.65629
  -0.11813   0.29162   1.64133
  -0.23784   0.38141   1.68622
  -0.32762   0.48615   1.74607
  -0.35755   0.54601   1.68622
  -0.43237   0.72557   1.67125
  -0.41741   0.68068   1.61140
  -0.41741   0.74054   1.55154
  -0.41741   0.78543   1.44680
  -0.28273   0.84528   1.34205
  -0.23784   0.84528   1.19241
  -0.20791   0.84528   1.01285
  -0.04331   0.87521   0.84825
   0.10632   0.83032   0.69861
   0.25596   0.77046   0.51904
   0.33078   0.77046   0.35444
   0.45049   0.66572   0.20481
   0.55524   0.66572   0.01028
   0.70488   0.60586  -0.13936
   0.80962   0.53104  -0.36382
   0.86948   0.48615  -0.45360
   0.95926   0.45622  -0.61820
   1.00415   0.44126  -0.84266
   1.09393   0.33651  -0.90251
   1.10890   0.32155  -1.05215
   1.13882   0.35148  -1.14193
   1.16875   0.24673  -1.23172
   1.16875   0.32155  -1.30653
   1.15379   0.29162  -1.35143
   1.12386   0.23177  -1.47114
   1.13882   0.23177  -1.42624
   1.01911   0.24673  -1.57588
   0.97422   0.27666  -1.56092
   0.89940   0.23177  -1.68063
   0.77969   0.24673  -1.68063
   0.70488   0.20184  -1.72552
   0.57020   0.18688  -1.69559
   0.51035   0.23177  -1.77041
   0.42056   0.11206  -1.69559
   0.28589   0.05220  -1.78537
   0.19611   0.05220  -1.80034
   0.12129   0.00731  -1.89012
   0.01654  -0.08247  -1.89012
  -0.05828  -0.06751  -1.94998
  -0.10317  -0.14233  -1.94998
  -0.16302  -0.15729  -1.94998
  -0.23784  -0.27700  -1.96494
  -0.29770  -0.29196  -2.00983
  -0.34259  -0.33685  -2.02479
  -0.37252  -0.41167  -2.02479
  -0.40244  -0.30693  -2.03976
  -0.41741  -0.35182  -2.00983
  -0.47726  -0.26204  -1.99487
  -0.49223  -0.27700  -2.00983
  -0.55208  -0.32189  -1.94998
  -0.55208  -0.32189  -1.94998
  -0.58201  -0.23211  -1.89012
  -0.67179  -0.21714  -1.83027
  -0.71668  -0.20218  -1.78537
  -0.71668  -0.14233  -1.71056
  -0.70172  -0.11240  -1.65070
  -0.74661  -0.05254  -1.53099
  -0.88128   0.06717  -1.47114
  -0.85136   0.03724  -1.45617
