********************************************************************************
               CENTRO DE INSTRUMENTACION Y REGISTRO SISMICO  A.C.  
                       Coordinacion de Servicios Tecnicos
     Anaxagoras 814, Col. Narvarte, Benito Juarez, C.P. 03020 Mexico, D.F.
            Tels. 667 45 42/ 687 45  82             Fax. 669 25 12
********************************************************************************
ARCHIVO ESTANDAR DE ACELERACION:
VERSION DEL FORMATO                    : 2.0
NOMBRE DEL ARCHIVO                     : AL010410.281
FECHA Y HORA DE CREACION               : 02/JUN/04, 12:18
REF. CATALOGO ACELEROGRAMAS, SMIS 1996 : REGISTRO No.     /PAG.


================================================================================
DATOS DE LA ESTACION:
NOMBRE DE LA ESTACION                  : ALAMEDA
CLAVE DE LA ESTACION                   : AL01
LOCALIZACION DE LA ESTACION            : JARDIN ALAMEDA ENTRE AV. HIDALGO Y AV.
                                       : JUAREZ, CENTRO
                                       :
                                       :
                                       :
COORDENADAS DE LA ESTACION             : 19.436 LAT. N 
                                       : 99.145 LONG. W 
ALTITUD (msnm)                         : 2232
TIPO DE SUELO                          : TERRENO BLANDO, MATERIAL COMPRESIBLE
                                       : (ARCILLAS)
                                       : 
INSTITUCION RESPONSABLE                : CIRES 
                                       :

================================================================================
DATOS DEL ACELEROGRAFO:
MODELO DEL ACELEROGRAFO                : SSA-1
NUMERO DE SERIE DEL ACELEROGRAFO       : 152
NUMERO DE CANALES                      : 3
ORIENTACION C1-C6 (rumbo;orientacion)  : /N00E/+V/N90E
ORIENTACION C7-C12 (rumbo;orientacion) :
VEL. DE MUESTREO, C1-C6 (muestras/s)   : /200/200/200
VEL. DE MUESTREO, C7-C12 (muestras/s)  :
ESC. COMPLETA DE SENSORES, C1-C6, (g)  : /2/2/2
ESC. COMPLETA DE SENSORES, C7-C12, (g) :
FREC. NAT. DE SENSORES, C1-C6, (Hz)    : /51.29/51.09/53.75
FREC. NAT. DE SENSORES, C7-C12, (Hz)   :
AMORTIGUAMIENTO DE SENSORES, C1-C6     : /.5519/.5670/.5810
AMORTIGUAMIENTO DE SENSORES, C7-C12    :
INTERVALO DE MUESTREO, C1-C6, (s)      : /0.005/0.005/0.005
INTERVALO DE MUESTREO, C7-C12, (s)     :
UMBRAL DE DISPARO, C1-C6, (Gal)        : /2/1.5/2
UMBRAL DE DISPARO, C7-C12, (Gal)       :
MEMORIA DE PREEVENTO (s)               : 15
TIEMPO DE POSEVENTO (s)                : 60


================================================================================
DATOS DEL SISMO:
FECHA DEL SISMO (GMT)                  : 28/OCT/04
HORA EPICENTRO (GMT)                   : 20:30:02,0
MAGNITUD(ES)                           : /Mc=4.6
COORDENADAS DEL EPICENTRO              : 18.34 LAT. N
                                       : -99.74 LONG. W
PROFUNDIDAD FOCAL (km)                 : 46
FUENTE DE LOS DATOS EPICENTRALES       : SSN
                                       : INSTITUTO DE GEOFISICA, UNAM 

================================================================================
DATOS DE ESTE REGISTRO:
HORA DE LA PRIMERA MUESTRA (GMT)       : 20:30:39.00
EXACTITUD DEL TIEMPO (s)               :     
DURACION DEL REGISTRO (s), C1-C6       : /88.32/88.32/88.32
DURACION DEL REGISTRO (s), C7-C12      :
NUM. TOTAL DE MUESTRAS, C1-C6          : /17664/17664/17664
NUM. TOTAL DE MUESTRAS, C7-C12         :
ACEL. MAX. (Gal), C1-C6                : /3.35203/-1.38770/-3.44934
ACEL. MAX., C1-C6, EN LA MUESTRA       :
ACEL. MAX. (Gal), C7-C12               :
ACEL. MAX., C7-C12, EN LA MUESTRA      :
UNIDADES DE LOS DATOS                  : Gal (cm/s/s)
FACTOR DE DECIMACION                   : 1
FORMATO DATOS (FORTRAN,10 campos/dato) : 3F10.5


================================================================================
CALIDAD DEL ACELEROGRAMA:
REGISTRO DIGITAL COMPLETO, CARECE DE TIEMPO ABSOLUTO.


================================================================================
COMENTARIOS:














================================================================================
DATOS DE ACELERACION:
---------+---------+---------+---------+---------+---------+---------+---------+
   CANAL-1   CANAL-2   CANAL-3   CANAL-4   CANAL-5   CANAL-6   CANAL-7   CANAL-8
      N00E        +V      N90E
---------+---------+---------+---------+---------+---------+---------+---------+
[...]
   0.00203  -0.66770  -0.32934
   0.00203  -0.42770  -0.09934
   0.00203  -0.42770  -0.32934
   0.00203  -0.42770  -0.32934
   0.00203  -0.42770  -0.32934
   0.00203  -0.66770  -0.32934
   0.00203  -0.42770  -0.32934
  -0.23797  -0.42770  -0.32934
  -0.23797  -0.18770  -0.32934
  -0.23797  -0.18770  -0.32934
   0.00203  -0.42770  -0.32934
   0.00203  -0.18770  -0.32934
   0.00203  -0.18770  -0.32934
   0.00203  -0.18770  -0.32934
   0.00203  -0.18770  -0.32934
   0.00203  -0.42770  -0.09934
   0.00203  -0.42770  -0.09934
   0.00203  -0.66770  -0.09934
   0.00203  -0.66770  -0.09934
   0.00203  -0.66770  -0.32934
   0.00203  -0.66770  -0.32934
   0.00203  -0.90770  -0.32934
   0.00203  -0.66770  -0.56934
   0.00203  -0.66770  -0.32934
   0.00203  -0.66770  -0.32934
   0.00203  -0.42770  -0.32934
   0.00203  -0.18770  -0.32934
   0.00203  -0.18770  -0.32934
   0.00203   0.05230  -0.32934
   0.24203   0.29230  -0.32934
   0.24203   0.29230  -0.09934
   0.24203   0.53230  -0.09934
   0.00203   0.77230  -0.09934
   0.24203   0.77230  -0.09934
   0.24203   1.01230   0.14066
   0.24203   1.01230   0.14066
   0.24203   1.01230   0.14066
   0.24203   1.01230   0.14066
   0.24203   1.01230   0.14066
   0.24203   1.01230   0.14066
   0.24203   0.77230   0.14066
   0.24203   0.77230   0.38066
   0.48203   0.77230   0.14066
   0.24203   0.77230   0.38066
   0.24203   0.77230   0.38066
   0.48203   0.77230   0.38066
   0.48203   0.53230   0.38066
   0.48203   0.29230   0.38066
   0.48203   0.29230   0.38066
   0.48203   0.29230   0.38066
   0.48203   0.29230   0.38066
   0.48203   0.29230   0.38066
   0.48203   0.05230   0.38066
   0.48203   0.05230   0.38066
   0.48203   0.05230   0.38066
   0.48203   0.05230   0.38066
   0.48203   0.05230   0.38066
   0.48203   0.05230   0.14066
   0.48203   0.05230   0.38066
   0.48203   0.29230   0.38066
   0.48203   0.29230   0.38066
   0.48203   0.29230   0.14066
   0.48203   0.29230   0.14066
   0.48203   0.29230   0.14066
   0.48203   0.29230   0.14066
   0.48203   0.29230   0.14066
   0.48203   0.29230   0.14066
   0.48203   0.29230   0.14066
   0.48203   0.29230   0.14066
   0.48203   0.29230   0.14066
   0.48203   0.29230   0.14066
   0.48203   0.29230   0.14066
   0.48203   0.29230   0.14066
   0.24203   0.05230   0.14066
   0.24203   0.05230   0.14066
   0.24203   0.05230   0.38066
   0.24203   0.05230   0.14066
   0.24203   0.05230   0.14066
   0.24203   0.05230   0.14066
   0.24203   0.05230   0.14066
   0.24203  -0.18770   0.14066
   0.24203  -0.18770   0.14066
   0.24203  -0.18770   0.14066
   0.24203  -0.18770   0.14066
   0.00203  -0.42770   0.14066
   0.00203  -0.66770   0.38066
   0.00203  -0.66770   0.38066
   0.00203  -0.90770   0.38066
   0.00203  -0.90770   0.38066
  -0.23797  -0.90770   0.38066
  -0.23797  -0.90770   0.14066
  -0.23797  -0.66770   0.38066
  -0.23797  -0.66770   0.14066
  -0.23797  -0.66770   0.14066
  -0.47797  -0.66770   0.14066
  -0.47797  -0.42770   0.38066
  -0.47797  -0.42770   0.38066
  -0.47797  -0.18770   0.14066
  -0.71797   0.05230   0.38066
  -0.47797   0.29230   0.38066
  -0.47797   0.29230   0.38066
  -0.71797   0.29230   0.38066
  -0.47797   0.29230   0.38066
  -0.23797   0.29230   0.38066
  -0.47797   0.29230   0.38066
  -0.23797   0.53230   0.38066
  -0.23797   0.53230   0.38066
  -0.23797   0.53230   0.14066
  -0.23797   0.53230   0.14066
  -0.23797   0.53230   0.14066
   0.00203   0.29230  -0.09934
   0.00203   0.29230  -0.09934
   0.00203   0.29230  -0.56934
   0.00203   0.29230  -0.32934
   0.24203   0.29230  -0.32934
   0.24203   0.29230  -0.32934
   0.24203   0.29230  -0.56934
   0.24203   0.29230  -0.56934
   0.48203   0.29230  -0.56934
   0.24203   0.29230  -0.32934
   0.48203   0.29230  -0.32934
   0.48203   0.29230  -0.32934
   0.48203   0.29230  -0.32934
   0.48203   0.29230  -0.32934
   0.48203   0.05230  -0.32934
   0.72203   0.05230  -0.32934
   0.72203   0.05230  -0.32934
   0.72203   0.05230  -0.32934
   0.96203  -0.18770  -0.32934
   0.96203  -0.18770  -0.32934
   0.96203  -0.18770  -0.32934
   0.96203  -0.42770  -0.32934
   1.20203  -0.42770  -0.32934
   1.20203  -0.42770  -0.80934
   1.20203  -0.66770  -0.32934
   0.96203  -0.66770  -0.32934
   0.96203  -0.66770  -0.32934
   0.96203  -0.66770  -0.56934
   0.72203  -0.66770  -0.32934
   0.72203  -0.42770  -0.09934
   0.72203  -0.42770  -0.09934
   0.72203  -0.18770  -0.09934
   0.72203  -0.18770  -0.09934
   0.72203   0.05230  -0.32934
   0.72203   0.05230  -0.09934
   0.72203   0.29230   0.14066
   0.72203   0.53230   0.14066
   0.72203   0.53230   0.14066
   0.72203   0.53230   0.14066
   0.72203   0.77230   0.14066
   0.72203   0.77230   0.14066
   0.72203   1.01230   0.14066
   0.48203   0.77230   0.14066
   0.48203   1.01230   0.14066
   0.24203   0.77230   0.14066
   0.24203   0.77230   0.14066
   0.24203   0.53230   0.38066
   0.00203   0.53230   0.14066
   0.00203   0.53230   0.14066
  -0.23797   0.53230   0.14066
  -0.23797   0.53230   0.14066
  -0.47797   0.29230   0.14066
  -0.47797   0.29230   0.14066
  -0.71797   0.29230   0.14066
  -0.71797   0.05230   0.14066
  -0.71797  -0.18770   0.14066
  -0.71797  -0.18770   0.14066
  -0.71797  -0.18770   0.14066
  -0.71797  -0.18770   0.14066
  -0.71797  -0.18770   0.14066
  -1.19797  -0.18770   0.38066
  -0.71797  -0.42770   0.38066
  -0.95797  -0.66770   0.38066
  -0.95797  -0.90770   0.38066
  -0.95797  -0.66770   0.38066
  -0.95797  -0.66770   0.38066
  -1.19797  -0.66770   0.38066
  -1.19797  -0.90770   0.38066
  -1.19797  -0.66770   0.14066
  -1.19797  -0.66770   0.14066
  -1.19797  -0.66770   0.14066
  -1.19797  -0.66770   0.14066
  -1.43797  -0.66770   0.14066
  -1.43797  -0.66770   0.38066
  -1.43797  -0.42770   0.14066
  -1.43797  -0.42770   0.14066
  -1.67797  -0.42770   0.14066
  -1.67797  -0.18770   0.14066
  -1.67797  -0.18770   0.14066
  -1.91797  -0.18770   0.14066
  -1.67797  -0.18770   0.14066
  -1.91797  -0.18770   0.14066
  -1.91797  -0.18770   0.14066
  -1.91797   0.05230   0.14066
  -1.91797   0.05230  -0.09934
  -1.91797   0.05230  -0.32934
  -1.91797   0.29230  -0.09934
  -2.15797   0.29230  -0.09934
  -2.15797   0.29230  -0.32934
  -2.15797   0.29230  -0.32934
  -2.15797   0.53230  -0.32934
  -2.15797   0.53230  -0.56934
  -2.15797   0.53230  -0.80934
  -1.91797   0.53230  -0.80934
  -1.91797   0.53230  -1.04934
  -1.91797   0.53230  -1.04934
  -1.67797   0.53230  -1.28934
  -1.67797   0.53230  -1.28934
  -1.43797   0.29230  -1.52934
  -1.19797   0.29230  -1.52934
  -1.19797   0.29230  -1.52934
  -0.95797   0.29230  -1.76934
  -0.71797   0.05230  -1.76934
  -0.71797   0.05230  -1.52934
  -0.47797   0.05230  -1.76934
  -0.47797  -0.18770  -1.76934
  -0.23797  -0.18770  -1.52934
  -0.23797  -0.18770  -1.52934
   0.24203  -0.42770  -1.52934
   0.24203  -0.66770  -1.52934
   0.48203  -0.66770  -1.52934
   0.72203  -0.66770  -1.52934
   0.72203  -0.90770  -1.28934
   0.72203  -0.90770  -1.28934
   0.96203  -0.90770  -1.28934
   1.20203  -0.66770  -1.28934
   0.96203  -0.66770  -1.04934
   1.20203  -0.66770  -1.04934
   1.20203  -0.18770  -0.80934
   1.20203  -0.18770  -0.80934
   1.44203   0.05230  -0.80934
   1.44203   0.29230  -0.56934
   1.20203   0.53230  -0.56934
   1.44203   0.77230  -0.32934
   1.44203   0.77230  -0.32934
   1.44203   0.77230  -0.09934
   1.44203   1.01230   0.14066
   1.44203   1.01230   0.14066
   1.44203   0.77230   0.38066
   1.44203   0.53230   0.62066
   1.44203   0.53230   0.62066
   1.44203   0.29230   0.86066
   1.44203   0.05230   0.86066
   1.20203  -0.18770   0.86066
   1.20203  -0.18770   1.10066
   1.20203  -0.66770   1.10066
   1.20203  -0.42770   1.10066
   1.20203  -0.42770   1.10066
   0.96203  -0.42770   1.10066
   0.96203  -0.42770   1.10066
   0.72203  -0.42770   1.10066
   0.48203  -0.18770   0.86066
   0.24203  -0.18770   0.86066
   0.24203  -0.18770   0.62066
   0.00203   0.05230   0.62066
  -0.23797  -0.18770   0.62066
  -0.47797   0.05230   0.38066
  -0.47797   0.05230   0.38066
  -0.71797   0.05230   0.38066
  -0.71797   0.05230   0.14066
  -0.95797  -0.18770   0.14066
  -0.95797  -0.18770   0.14066
  -0.95797  -0.42770   0.14066
  -1.19797  -0.42770   0.14066
  -1.19797  -0.66770   0.14066
  -1.19797  -0.66770  -0.09934
  -1.19797  -0.90770  -0.09934
  -1.19797  -0.90770  -0.09934
  -1.19797  -0.90770  -0.09934
  -1.19797  -0.90770  -0.09934
  -1.19797  -0.90770   0.14066
  -0.95797  -0.90770  -0.09934
  -0.95797  -0.90770   0.14066
  -0.95797  -0.66770   0.14066
  -0.95797  -0.66770   0.14066
  -0.95797  -0.66770   0.14066
  -0.95797  -0.42770   0.14066
  -0.71797  -0.18770   0.14066
  -0.71797   0.05230   0.38066
  -0.71797   0.05230   0.14066
  -0.71797   0.29230   0.38066
  -0.71797   0.53230   0.38066
  -0.71797   0.77230   0.62066
  -0.47797   0.77230   0.62066
  -0.47797   0.77230   0.62066
  -0.23797   0.77230   0.62066
  -0.23797   0.77230   0.62066
  -0.23797   0.77230   0.62066
   0.00203   0.77230   0.62066
   0.24203   0.77230   0.62066
   0.24203   0.53230   0.62066
   0.48203   0.77230   0.62066
   0.48203   0.53230   0.62066
   0.48203   0.53230   0.62066
   0.72203   0.53230   0.62066
   0.72203   0.53230   0.62066
   0.72203   0.29230   0.62066
   0.72203   0.53230   0.62066
   0.48203   0.53230   0.86066
   0.48203   0.53230   0.62066
   0.24203   0.77230   0.86066
   0.24203   0.77230   0.86066
   0.00203   0.77230   0.86066
  -0.23797   0.77230   0.86066
  -0.23797   0.77230   0.86066
  -0.47797   0.77230   0.86066
  -0.47797   0.53230   0.86066
  -0.71797   0.53230   0.86066
  -0.71797   0.53230   0.62066
  -0.71797   0.29230   0.62066
  -0.71797   0.05230   0.62066
  -0.71797   0.05230   0.38066
  -0.95797   0.05230   0.38066
  -0.95797   0.05230   0.14066
  -0.95797  -0.18770   0.14066
  -0.95797  -0.18770  -0.09934
  -0.95797  -0.42770  -0.09934
  -0.95797  -0.42770  -0.32934
  -0.95797  -0.42770  -0.32934
  -0.95797  -0.42770  -0.32934
  -0.95797  -0.42770  -0.56934
  -0.95797  -0.18770  -0.56934
  -0.95797  -0.18770  -0.56934
  -0.95797  -0.18770  -0.56934
  -0.71797   0.05230  -0.56934
  -0.71797   0.05230  -0.56934
  -0.71797   0.29230  -0.80934
  -0.71797   0.29230  -0.80934
  -0.71797   0.29230  -0.80934
  -0.71797   0.29230  -0.80934
  -0.71797   0.29230  -0.80934
  -0.71797   0.53230  -0.80934
  -0.47797   0.53230  -0.80934
  -0.23797   0.29230  -0.80934
  -0.23797   0.29230  -0.80934
   0.24203   0.29230  -0.56934
   0.48203   0.29230  -0.56934
   0.72203   0.05230  -0.80934
   0.96203   0.05230  -0.80934
   1.20203   0.05230  -0.56934
   1.68203  -0.18770  -0.80934
   1.68203  -0.18770  -0.80934
   2.15203  -0.18770  -0.56934
   2.39203  -0.18770  -0.80934
   2.39203  -0.18770  -0.56934
   2.63203  -0.18770  -0.80934
   2.87203   0.05230  -0.80934
   3.11203   0.05230  -1.04934
   3.11203   0.05230  -0.56934
   3.35203   0.29230  -0.56934
   3.35203   0.29230  -0.32934
   3.35203   0.29230  -0.32934
   3.35203   0.29230  -0.09934
   3.11203   0.29230  -0.09934
   3.11203   0.29230   0.14066
   3.11203   0.05230   0.38066
   2.87203   0.05230   0.38066
   2.63203   0.05230   0.62066
   2.39203  -0.18770   0.62066
   2.15203  -0.18770   1.10066
   1.92203  -0.18770   0.86066
   1.68203  -0.42770   1.10066
   1.44203  -0.42770   1.34066
   1.20203  -0.42770   1.34066
   1.20203  -0.18770   1.34066
   0.96203  -0.18770   1.34066
   0.96203  -0.18770   1.34066
   0.72203  -0.18770   1.34066
   0.96203  -0.18770   1.34066
   0.72203  -0.18770   1.34066
   0.96203  -0.18770   1.34066
   0.96203   0.05230   1.34066
   0.96203   0.05230   1.34066
   0.96203   0.05230   1.34066
   0.96203   0.05230   1.34066
   0.96203   0.05230   1.34066
   0.96203   0.05230   1.34066
   0.96203   0.05230   1.34066
   0.72203  -0.18770   1.10066
   0.48203   0.05230   1.10066
   0.48203   0.05230   1.10066
   0.24203  -0.18770   1.10066
   0.00203  -0.18770   1.10066
   0.00203  -0.18770   1.10066
  -0.23797  -0.18770   1.10066
  -0.47797  -0.18770   1.10066
  -0.47797  -0.18770   1.10066
  -0.71797  -0.18770   1.10066
  -0.71797  -0.18770   0.86066
  -0.71797  -0.18770   0.86066
  -0.71797  -0.18770   0.86066
  -0.71797  -0.18770   0.86066
  -0.71797  -0.18770   0.86066
  -0.71797  -0.18770   0.86066
  -0.71797  -0.42770   0.62066
  -0.71797  -0.18770   0.62066
  -0.71797  -0.42770   0.62066
  -0.47797  -0.18770   0.62066
  -0.47797  -0.18770   0.38066
  -0.47797   0.05230   0.38066
  -0.47797   0.05230   0.14066
  -0.23797   0.05230   0.14066
  -0.23797   0.05230   0.14066
  -0.23797   0.29230   0.14066
  -0.47797   0.05230  -0.09934
  -0.23797   0.05230  -0.09934
  -0.23797   0.05230  -0.09934
  -0.47797   0.05230  -0.09934
  -0.47797   0.05230  -0.09934
  -0.47797   0.05230  -0.32934
  -0.47797  -0.18770  -0.32934
  -0.47797  -0.18770  -0.56934
  -0.47797  -0.18770  -0.56934
  -0.23797  -0.18770  -0.80934
  -0.47797  -0.18770  -1.04934
  -0.23797  -0.18770  -1.04934
  -0.23797   0.05230  -1.28934
  -0.23797  -0.18770  -1.52934
  -0.23797   0.05230  -1.76934
   0.00203   0.05230  -2.00934
   0.24203   0.05230  -2.24934
   0.24203   0.05230  -2.48934
   0.24203   0.29230  -2.48934
   0.24203   0.29230  -2.72934
   0.48203   0.29230  -2.96934
   0.24203   0.29230  -3.20934
   0.48203   0.53230  -3.20934
   0.48203   0.29230  -3.20934
   0.24203   0.53230  -3.44934
   0.24203   0.53230  -3.20934
   0.24203   0.53230  -3.20934
   0.00203   0.29230  -3.44934
  -0.23797   0.53230  -3.20934
  -0.23797   0.53230  -2.96934
  -0.47797   0.53230  -2.72934
  -0.71797   0.53230  -2.48934
  -0.71797   0.29230  -2.24934
  -0.71797   0.29230  -2.00934
  -0.71797   0.29230  -1.76934
  -0.71797   0.29230  -1.52934
  -0.71797   0.05230  -1.04934
  -0.95797   0.05230  -0.80934
  -0.71797   0.05230  -0.32934
  -0.95797   0.05230  -0.09934
  -0.71797  -0.18770   0.14066
  -0.71797  -0.18770   0.38066
  -0.71797  -0.18770   0.62066
  -0.23797  -0.18770   0.62066
  -0.23797  -0.18770   1.10066
   0.00203  -0.18770   1.10066
   0.24203  -0.18770   1.10066
   0.24203  -0.18770   1.10066
   0.24203  -0.18770   1.34066
   0.48203  -0.18770   1.58066
   0.24203   0.05230   1.58066
   0.24203   0.05230   1.58066
   0.48203   0.05230   1.82066
   0.48203   0.29230   1.82066
   0.48203   0.29230   2.06066
   0.48203   0.53230   2.06066
   0.48203   0.53230   2.06066
   0.48203   0.53230   2.06066
   0.48203   0.53230   2.06066
   0.48203   0.53230   2.30066
   0.72203   0.53230   2.30066
   0.48203   0.53230   2.30066
   0.72203   0.53230   2.06066
   0.72203   0.53230   2.06066
   0.96203   0.29230   2.06066
   0.96203   0.29230   1.82066
   0.72203   0.05230   1.58066
   1.20203   0.05230   1.58066
   1.20203  -0.18770   1.34066
   1.20203  -0.18770   1.10066
   1.44203  -0.42770   0.86066
   1.44203  -0.42770   0.86066
   1.44203  -0.42770   0.62066
   1.44203  -0.42770   0.38066
   1.20203  -0.42770   0.38066
   1.20203  -0.42770   0.14066
   1.20203  -0.18770   0.14066
   0.96203  -0.18770   0.14066
   0.72203  -0.18770   0.14066
   0.72203   0.05230   0.14066
   0.72203   0.05230  -0.09934
   0.48203   0.05230  -0.09934
   0.24203   0.05230   0.14066
   0.24203   0.05230   0.14066
   0.24203   0.05230   0.14066
   0.00203   0.05230   0.14066
   0.00203  -0.18770   0.14066
   0.00203  -0.18770   0.38066
   0.00203  -0.42770   0.14066
   0.00203  -0.42770   0.38066
   0.00203  -0.66770   0.38066
   0.00203  -0.66770   0.38066
   0.00203  -0.90770   0.38066
   0.00203  -0.90770   0.38066
   0.00203  -1.14770   0.38066
   0.00203  -1.14770   0.38066
