********************************************************************************
              CENTRO DE INSTRUMENTACION Y REGISTRO SISMICO  A.C.

    Anaxagoras 814, Col. Narvarte, Benito Juarez, C.P. 03020 Mexico, D.F.
           Tels. 5687 45 42/ 5687 45  82             Fax. 5669 25 12
********************************************************************************
ARCHIVO ESTANDAR DE ACELERACION:
VERSION DEL FORMATO                    : 2.0
NOMBRE DEL ARCHIVO                     : AL0120140405015848
FECHA Y HORA DE CREACION               : 02/JUL/14, 14:08
REF. CATALOGO ACELEROGRAMAS, SMIS 1996 : REGISTRO No.     /PAG.


================================================================================
DATOS DE LA ESTACION:
NOMBRE DE LA ESTACION                  : ALAMEDA
CLAVE DE LA ESTACION                   : AL01
LOCALIZACION DE LA ESTACION            : Del. Cuauhtémoc, Col. Centro,          
                                       : Dr. Mora entre Av. Hidalgo             
                                       : y Av. Juárez.                          
                                       :                                        
                                       : 
COORDENADAS DE LA ESTACION             : 19.4356 LAT. N
                                       : 99.1453 LONG. W
ALTITUD (msnm)                         : 2232
TIPO DE SUELO                          : Terreno blando, material compresible
                                       : (arcillas)                
                                       : 
INSTITUCION RESPONSABLE                : CIRES
                                       : 

================================================================================
DATOS DEL ACELEROGRAFO:
MODELO DEL ACELEROGRAFO                : RADESD
NUMERO DE SERIE DEL ACELEROGRAFO       : 152
NUMERO DE CANALES                      : 3
ORIENTACION C1-C6 (rumbo;orientacion)  : /S00E/+V/N90W
ORIENTACION C7-C12 (rumbo;orientacion) : 
VEL. DE MUESTREO, C1-C6 (muestras/s)   : /100/100/100
VEL. DE MUESTREO, C7-C12 (muestras/s)  : 
ESC. COMPLETA DE SENSORES, C1-C6, (g)  : /0.5/0.5/0.5
ESC. COMPLETA DE SENSORES, C7-C12, (g) : 
FREC. NAT. DE SENSORES, C1-C6, (Hz)    : /51.29/51.09/53.75
FREC. NAT. DE SENSORES, C7-C12, (Hz)   : 
AMORTIGUAMIENTO DE SENSORES, C1-C6     : /0.5519/0.5670/0.5810
AMORTIGUAMIENTO DE SENSORES, C7-C12    : 
INTERVALO DE MUESTREO, C1-C6, (s)      : /0.01/0.01/0.01
INTERVALO DE MUESTREO, C7-C12, (s)     : 
UMBRAL DE DISPARO, C1-C6, (Gal)        : /0.9/1.8/0.9
UMBRAL DE DISPARO, C7-C12, (Gal)       : 
MEMORIA DE PREEVENTO (s)               : 34.0
TIEMPO DE POSEVENTO (s)                : 64.0


================================================================================
DATOS DEL SISMO:
FECHA DEL SISMO (GMT)                  : 05/ABR/14
HORA EPICENTRO (GMT)                   : 01:58:48.0
MAGNITUD(ES)                           : /Mc=5.3
COORDENADAS DEL EPICENTRO              : 17.08 LAT. N
                                       : 100.82 LONG. W
PROFUNDIDAD FOCAL (km)                 : 17
FUENTE DE LOS DATOS EPICENTRALES       : SSN
                                       : INSTITUTO DE GEOFISICA, UNAM

================================================================================
DATOS DE ESTE REGISTRO:
HORA DE LA PRIMERA MUESTRA (GMT)       : 01:59:48.00
EXACTITUD DEL TIEMPO (s)               : 0.01
DURACION DEL REGISTRO (s), C1-C6       : /185.2/185.2/185.2
DURACION DEL REGISTRO (s), C7-C12      : 
NUM. TOTAL DE MUESTRAS, C1-C6          : /18520/18520/18520
NUM. TOTAL DE MUESTRAS, C7-C12         : 
ACEL. MAX. (Gal), C1-C6                : /2.87233/1.65851/2.70979
ACEL. MAX., C1-C6, EN LA MUESTRA       : /6813/6918/7471
ACEL. MAX. (Gal), C7-C12               : 
ACEL. MAX., C7-C12, EN LA MUESTRA      : 
UNIDADES DE LOS DATOS                  : Gal (cm/s/s)
FACTOR DE DECIMACION                   : 1
FORMATO DATOS (FORTRAN,10 campos/dato) : 3F10.5


================================================================================
CALIDAD DEL ACELEROGRAMA:
REGISTRO DIGITAL COMPLETO CON TIEMPO ABSOLUTO CORRECTO.


================================================================================
COMENTARIOS:














================================================================================
DATOS DE ACELERACION:
---------+---------+---------+---------+---------+---------+---------+---------+
   CANAL-1   CANAL-2   CANAL-3   CANAL-4   CANAL-5   CANAL-6   CANAL-7   CANAL-8
      S00E        +V      N90W
---------+---------+---------+---------+---------+---------+---------+---------+
[...]
   1.28760   0.05739  -1.16852
   1.10803   0.14717  -0.88421
   0.94343   0.10228  -0.59990
   0.77883   0.17710  -0.36048
   0.56934   0.19206  -0.04624
   0.43467   0.17710   0.28296
   0.15035   0.22199   0.50742
  -0.04417   0.20703   0.74684
  -0.37338   0.23696   0.95633
  -0.61280   0.25192   1.15086
  -0.83725   0.28185   1.33043
  -1.06171   0.25192   1.50999
  -1.18142   0.17710   1.65963
  -1.37595   0.07235   1.86912
  -1.45077   0.05739   1.86912
  -1.46573  -0.04736   1.91401
  -1.57048  -0.09225   2.09358
  -1.57048  -0.07728   1.97387
  -1.55551  -0.13714   2.00380
  -1.43580  -0.13714   1.95890
  -1.51062  -0.22692   1.97387
  -1.42084  -0.27181   1.92898
  -1.33106  -0.31670   1.85416
  -1.28617  -0.36160   1.79430
  -1.16646  -0.39152   1.67459
  -1.01682  -0.33167   1.62970
  -0.88215  -0.31670   1.50999
  -0.82229  -0.28678   1.39028
  -0.71754  -0.21196   1.30050
  -0.58287  -0.19699   1.16582
  -0.56791  -0.13714   1.00122
  -0.56791  -0.07728   0.88151
  -0.53798  -0.03239   0.73188
  -0.58287   0.02746   0.65706
  -0.59783   0.07235   0.49246
  -0.59783   0.17710   0.50742
  -0.61280   0.28185   0.41764
  -0.67265   0.34170   0.29793
  -0.74747   0.40156   0.19318
  -0.74747   0.50630   0.08843
  -0.85222   0.47638   0.08843
  -0.88215   0.52127  -0.06120
  -0.98689   0.43148  -0.01631
  -0.95696   0.52127  -0.07617
  -0.94200   0.52127  -0.10609
  -1.01682   0.52127  -0.19588
  -1.06171   0.43148  -0.21084
  -1.00186   0.41652  -0.30062
  -1.06171   0.34170  -0.39041
  -1.07667   0.25192  -0.30062
  -0.89711   0.22199  -0.40537
  -0.88215   0.07235  -0.46523
  -0.83725   0.04243  -0.55501
  -0.74747  -0.06232  -0.62983
  -0.58287  -0.06232  -0.73457
  -0.62776  -0.07728  -0.76450
  -0.50805  -0.13714  -0.82436
  -0.40330  -0.16707  -0.94407
  -0.32849  -0.16707  -0.97399
  -0.23870  -0.18203  -1.06378
  -0.16388  -0.15210  -1.12363
  -0.14892  -0.13714  -1.10867
  -0.04417  -0.01743  -1.18349
  -0.02921  -0.01743  -1.24334
   0.01568  -0.04736  -1.25830
   0.13539  -0.01743  -1.19845
   0.12043  -0.04736  -1.21341
   0.19525   0.04243  -1.21341
   0.19525  -0.09225  -1.21341
   0.21021  -0.15210  -1.16852
   0.24014  -0.19699  -1.24334
   0.31496  -0.28678  -1.21341
   0.24014  -0.39152  -1.21341
   0.37481  -0.49627  -1.16852
   0.32992  -0.60102  -1.06378
   0.34488  -0.64591  -1.01888
   0.46459  -0.67583  -1.00392
   0.55438  -0.69080  -0.92910
   0.70401  -0.69080  -0.86925
   0.79380  -0.72073  -0.70465
   0.91351  -0.63094  -0.64479
   0.89854  -0.54116  -0.48019
   1.03322  -0.60102  -0.34552
   1.01825  -0.55612  -0.13602
   1.03322  -0.42145   0.05851
   1.04818  -0.27181   0.07347
   1.10803  -0.19699   0.25304
   1.06314  -0.03239   0.19318
   1.09307   0.05739   0.31289
   1.09307   0.14717   0.43260
   1.15293   0.22199   0.53735
   1.13796   0.37163   0.70195
   1.18285   0.52127   0.76180
   1.15293   0.64098   0.88151
   1.15293   0.73076   1.03115
   1.19782   0.86543   1.15086
   1.22775   0.94025   1.22568
   1.25767   0.98514   1.30050
   1.18285   0.95522   1.37532
   1.18285   1.04500   1.45014
   1.12300   1.01507   1.50999
   1.01825   1.01507   1.50999
   0.92847   0.98514   1.49503
   0.80876   0.92529   1.48006
   0.70401   0.88040   1.42021
   0.55438   0.73076   1.30050
   0.35985   0.62601   1.24064
   0.19525   0.49134   1.09101
  -0.01425   0.46141   0.98626
  -0.20878   0.35667   0.88151
  -0.43323   0.22199   0.71691
  -0.65769   0.10228   0.62713
  -0.86718   0.10228   0.43260
  -1.00186   0.13221   0.29793
  -1.19638  -0.03239   0.23807
  -1.36099  -0.00247   0.10340
  -1.48070  -0.03239  -0.04624
  -1.58544  -0.00247  -0.15099
  -1.72012  -0.09225  -0.15099
  -1.80990  -0.06232  -0.24077
  -1.94457  -0.10721  -0.30062
  -2.06428  -0.10721  -0.36048
  -2.12414  -0.09225  -0.45026
  -2.15406  -0.04736  -0.55501
  -2.19896  -0.15210  -0.62983
  -2.18399  -0.18203  -0.70465
  -2.15406  -0.25685  -0.77946
  -2.15406  -0.30174  -0.76450
  -2.13910  -0.25685  -0.86925
  -2.01939  -0.24189  -0.86925
  -1.97450  -0.27181  -0.89917
  -1.91464  -0.36160  -0.85428
  -1.77997  -0.28678  -0.85428
  -1.75004  -0.19699  -0.89917
  -1.58544  -0.24189  -0.80939
  -1.46573  -0.25685  -0.79443
  -1.39091  -0.28678  -0.76450
  -1.24128  -0.33167  -0.62983
  -1.09164  -0.31670  -0.59990
  -0.97193  -0.31670  -0.55501
  -0.88215  -0.37656  -0.40537
  -0.76244  -0.37656  -0.25573
  -0.77740  -0.43641  -0.13602
  -0.58287  -0.40649  -0.04624
  -0.49309  -0.39152   0.11836
  -0.43323  -0.39152   0.22311
  -0.43323  -0.45138   0.29793
  -0.34345  -0.42145   0.40267
  -0.23870  -0.39152   0.44756
  -0.17885  -0.37656   0.49246
  -0.08907  -0.33167   0.44756
  -0.04417  -0.31670   0.40267
   0.04561  -0.33167   0.34282
   0.10546  -0.28678   0.26800
   0.16532  -0.28678   0.20814
   0.24014  -0.21196   0.07347
   0.25510  -0.19699   0.04354
   0.27006  -0.09225  -0.09113
   0.31496   0.01250  -0.18091
   0.41970   0.05739  -0.27070
   0.40474   0.14717  -0.28566
   0.35985   0.14717  -0.31559
   0.37481   0.19206  -0.34552
   0.44963   0.25192  -0.31559
   0.34488   0.23696  -0.22580
   0.38977   0.25192  -0.18091
   0.29999   0.22199  -0.18091
   0.34488   0.29681  -0.13602
   0.34488   0.23696   0.02858
   0.29999   0.34170   0.11836
   0.29999   0.26688   0.23807
   0.28503   0.37163   0.29793
   0.27006   0.26688   0.38771
   0.29999   0.32674   0.41764
   0.29999   0.19206   0.41764
   0.31496   0.26688   0.38771
   0.32992   0.23696   0.34282
   0.38977   0.10228   0.31289
   0.43467   0.07235   0.25304
   0.46459   0.02746   0.23807
   0.49452  -0.00247   0.07347
   0.53941  -0.00247  -0.03128
   0.53941  -0.10721  -0.06120
   0.61423  -0.12218  -0.18091
   0.67409  -0.19699  -0.24077
   0.71898  -0.27181  -0.30062
   0.83869  -0.15210  -0.45026
   0.94343  -0.18203  -0.59990
   0.97336  -0.15210  -0.74954
   1.04818  -0.16707  -0.85428
   1.09307  -0.22692  -0.98896
   1.13796  -0.16707  -1.09370
   1.22775  -0.13714  -1.21341
   1.39235  -0.00247  -1.18349
   1.46717  -0.04736  -1.21341
   1.48213   0.02746  -1.21341
   1.55695   0.02746  -1.09370
   1.60184   0.08732  -1.09370
   1.51206   0.10228  -0.88421
   1.46717   0.17710  -0.71961
   1.45220   0.16214  -0.64479
   1.36242   0.17710  -0.52508
   1.18285   0.19206  -0.39041
   1.06314   0.20703  -0.27070
   0.94343   0.07235  -0.24077
   0.76387   0.17710  -0.12106
   0.52445   0.14717  -0.01631
   0.44963   0.17710   0.04354
   0.18028   0.10228   0.19318
   0.01568   0.13221   0.22311
  -0.19381   0.19206   0.29793
  -0.38834   0.13221   0.40267
  -0.59783   0.01250   0.46253
  -0.71754  -0.04736   0.59720
  -0.80733  -0.00247   0.65706
  -0.88215  -0.04736   0.77677
  -0.89711  -0.10721   0.88151
  -0.97193  -0.21196   1.12093
  -0.98689  -0.22692   1.18079
  -1.07667  -0.21196   1.27057
  -1.01682  -0.27181   1.42021
  -1.09164  -0.24189   1.45014
  -1.09164  -0.37656   1.55488
  -1.13653  -0.40649   1.64467
  -1.10660  -0.42145   1.58481
  -1.12157  -0.36160   1.53992
  -1.06171  -0.37656   1.50999
  -1.00186  -0.42145   1.48006
  -0.98689  -0.34663   1.45014
  -0.98689  -0.30174   1.42021
  -0.80733  -0.28678   1.37532
  -0.79236  -0.28678   1.25561
  -0.73251  -0.30174   1.15086
  -0.65769  -0.27181   1.12093
  -0.50805  -0.18203   0.97130
  -0.41827  -0.19699   0.91144
  -0.32849  -0.19699   0.94137
  -0.17885  -0.01743   0.86655
  -0.07410  -0.03239   0.80669
   0.03064   0.08732   0.89648
   0.13539   0.22199   0.98626
   0.19525   0.37163   0.95633
   0.28503   0.50630   1.01619
   0.28503   0.52127   1.06108
   0.31496   0.56616   1.31546
   0.29999   0.67090   1.34539
   0.31496   0.73076   1.40524
   0.31496   0.77565   1.49503
   0.31496   0.71580   1.50999
   0.35985   0.77565   1.52496
   0.21021   0.74572   1.55488
   0.21021   0.70083   1.46510
   0.18028   0.68587   1.39028
   0.13539   0.70083   1.24064
   0.22517   0.64098   1.09101
   0.18028   0.61105   0.85159
   0.12043   0.46141   0.59720
   0.19525   0.35667   0.25304
   0.31496   0.28185  -0.10609
   0.29999   0.14717  -0.34552
   0.37481   0.04243  -0.61486
   0.40474  -0.01743  -0.77946
   0.49452  -0.15210  -1.00392
   0.53941  -0.22692  -1.24334
   0.55438  -0.25685  -1.43787
   0.62919  -0.27181  -1.66233
   0.67409  -0.31670  -1.72218
   0.71898  -0.39152  -1.69225
   0.77883  -0.43641  -1.79700
   0.80876  -0.43641  -1.78204
   0.73394  -0.45138  -1.78204
   0.68905  -0.45138  -1.72218
   0.61423  -0.45138  -1.55758
   0.55438  -0.46634  -1.61743
   0.41970  -0.40649  -1.51269
   0.29999  -0.46634  -1.27327
   0.15035  -0.37656  -1.25830
   7.2E-40  -0.42145  -1.09370
  -0.16388  -0.40649  -0.98896
  -0.23870  -0.40649  -0.95903
  -0.40330  -0.36160  -0.86925
  -0.52301  -0.37656  -0.67472
  -0.58287  -0.33167  -0.70465
  -0.74747  -0.40649  -0.64479
  -0.79236  -0.40649  -0.59990
  -0.95696  -0.39152  -0.42033
  -0.92704  -0.39152  -0.46523
  -0.98689  -0.33167  -0.54004
  -0.91207  -0.28678  -0.61486
  -1.00186  -0.27181  -0.62983
  -0.92704  -0.40649  -0.65975
  -0.88215  -0.36160  -0.74954
  -0.77740  -0.51123  -0.74954
  -0.71754  -0.63094  -0.73457
  -0.50805  -0.57109  -0.76450
  -0.32849  -0.66087  -0.61486
  -0.10403  -0.66087  -0.61486
   0.12043  -0.66087  -0.56997
   0.29999  -0.55612  -0.52508
   0.53941  -0.54116  -0.43530
   0.77883  -0.46634  -0.33055
   0.95840  -0.42145  -0.33055
   1.19782  -0.33167  -0.31559
   1.37738  -0.19699  -0.30062
   1.51206  -0.04736  -0.33055
   1.60184   0.07235  -0.27070
   1.63177   0.13221  -0.22580
   1.75148   0.23696  -0.33055
   1.78140   0.29681  -0.22580
   1.76644   0.37163  -0.21084
   1.73651   0.52127  -0.18091
   1.63177   0.55119  -0.18091
   1.64673   0.70083  -0.24077
   1.48213   0.73076  -0.24077
   1.40731   0.88040  -0.37544
   1.37738   0.97018  -0.40537
   1.27264   1.01507  -0.51012
   1.16789   1.01507  -0.67472
   1.03322   1.08989  -0.85428
   0.82372   1.07493  -1.06378
   0.74890   1.11982  -1.21341
   0.62919   1.03003  -1.39298
   0.55438   0.89536  -1.52765
   0.43467   0.86543  -1.75211
   0.38977   0.82054  -1.94664
   0.27006   0.64098  -2.09627
   0.25510   0.55119  -2.32073
   0.07554   0.44645  -2.41051
  -0.05914   0.32674  -2.42548
  -0.16388   0.28185  -2.56015
  -0.26863   0.14717  -2.63497
  -0.44820   0.01250  -2.63497
  -0.58287   0.04243  -2.59008
  -0.80733  -0.16707  -2.51526
  -0.97193  -0.18203  -2.45541
  -1.19638  -0.15210  -2.30577
  -1.40588  -0.21196  -2.24591
  -1.57048  -0.18203  -2.08131
  -1.88472  -0.18203  -1.94664
  -2.07925  -0.16707  -1.78204
  -2.24385  -0.15210  -1.54262
  -2.43838  -0.12218  -1.22838
  -2.55809  -0.03239  -1.00392
  -2.67780  -0.04736  -0.68968
  -2.81247  -0.07728  -0.33055
  -2.84240  -0.10721   0.08843
  -2.87233  -0.13714   0.41764
  -2.78254  -0.15210   0.73188
  -2.69276  -0.16707   1.10597
  -2.46830  -0.16707   1.37532
  -2.28874  -0.19699   1.59977
  -2.00443  -0.10721   1.80927
  -1.72012  -0.18203   2.03372
  -1.39091  -0.15210   2.18336
  -1.09164  -0.24189   2.31803
  -0.73251  -0.24189   2.45271
  -0.37338  -0.27181   2.43774
  -0.01425  -0.34663   2.52753
   0.32992  -0.39152   2.51256
   0.70401  -0.49627   2.48264
   1.03322  -0.46634   2.43774
   1.27264  -0.55612   2.40782
   1.55695  -0.57109   2.37789
   1.78140  -0.63094   2.31803
   2.00586  -0.54116   2.25818
   2.17046  -0.51123   2.15343
   2.23032  -0.45138   2.09358
   2.29017  -0.48131   2.10854
   2.29017  -0.36160   1.95890
   2.18543  -0.25685   1.94394
   2.08068  -0.15210   1.86912
   1.96097  -0.12218   1.74941
   1.72155  -0.04736   1.74941
   1.61680   0.02746   1.65963
   1.33249   0.13221   1.58481
   1.15293   0.16214   1.53992
   0.83869   0.32674   1.48006
   0.52445   0.37163   1.50999
   0.31496   0.47638   1.45014
   0.06057   0.61105   1.40524
  -0.25367   0.68587   1.37532
  -0.59783   0.70083   1.37532
  -0.80733   0.83551   1.31546
  -1.13653   0.88040   1.31546
  -1.22631   0.97018   1.25561
  -1.40588   1.04500   1.16582
  -1.51062   1.04500   1.04611
  -1.61537   1.10485   0.94137
  -1.63033   1.14974   0.85159
  -1.70515   1.05996   0.76180
  -1.61537   1.11982   0.61217
  -1.54055   1.14974   0.49246
  -1.42084   1.01507   0.47749
  -1.36099   0.91032   0.35778
  -1.15149   0.76069   0.17822
  -1.03178   0.64098   0.08843
  -0.86718   0.55119  -0.03128
  -0.74747   0.38659  -0.03128
  -0.50805   0.32674  -0.09113
  -0.32849   0.19206  -0.25573
  -0.13396   0.08732  -0.25573
   0.03064   0.02746  -0.27070
   0.25510  -0.01743  -0.34552
   0.37481  -0.13714  -0.34552
   0.53941  -0.25685  -0.30062
   0.62919  -0.39152  -0.22580
   0.67409  -0.40649  -0.22580
   0.77883  -0.49627  -0.04624
   0.80876  -0.55612   0.14829
   0.79380  -0.58605   0.23807
   0.74890  -0.72073   0.46253
   0.62919  -0.78058   0.65706
   0.55438  -0.87036   0.79173
   0.40474  -0.82547   0.88151
   0.18028  -0.93022   0.97130
   0.04561  -0.93022   1.21072
  -0.13396  -1.02000   1.34539
  -0.31352  -1.03496   1.37532
  -0.46316  -1.06489   1.56985
  -0.59783  -1.02000   1.59977
  -0.68762  -1.04993   1.59977
  -0.70258  -0.99007   1.70452
  -0.80733  -0.91525   1.68956
  -0.79236  -1.03496   1.65963
  -0.73251  -0.97511   1.45014
  -0.68762  -0.99007   1.37532
  -0.70258  -1.03496   1.18079
  -0.59783  -1.02000   0.94137
  -0.52301  -1.00504   0.77677
  -0.38834  -0.97511   0.62713
  -0.22374  -0.90029   0.49246
  -0.05914  -0.82547   0.20814
   0.13539  -0.79554  -0.01631
   0.32992  -0.60102  -0.21084
   0.47956  -0.54116  -0.40537
   0.62919  -0.39152  -0.62983
   0.73394  -0.19699  -0.82436
   0.89854  -0.12218  -0.92910
   0.97336   0.05739  -1.07874
   1.10803   0.25192  -1.30320
   1.27264   0.43148  -1.48276
   1.40731   0.52127  -1.58751
   1.46717   0.68587  -1.66233
   1.57191   0.83551  -1.73714
   1.57191   1.05996  -1.82693
   1.57191   1.16471  -1.87182
   1.51206   1.31435  -2.03642
   1.45220   1.35924  -2.05138
   1.42227   1.43406  -2.11124
   1.37738   1.47895  -2.02146
   1.36242   1.52384  -2.09627
   1.36242   1.65851  -2.09627
   1.33249   1.55377  -2.02146
   1.27264   1.55377  -2.05138
   1.30256   1.41909  -1.97656
   1.24271   1.23953  -1.94664
   1.30256   1.16471  -2.00649
   1.34746   1.01507  -1.94664
   1.36242   0.88040  -1.94664
   1.36242   0.71580  -1.84189
   1.46717   0.55119  -1.72218
   1.52702   0.37163  -1.70722
   1.52702   0.20703  -1.75211
   1.58688   0.10228  -1.73714
   1.69162  -0.10721  -1.64736
   1.67666  -0.27181  -1.52765
   1.67666  -0.42145  -1.58751
   1.67666  -0.60102  -1.40794
   1.64673  -0.69080  -1.40794
   1.55695  -0.76562  -1.37801
   1.58688  -0.79554  -1.30320
   1.49709  -0.81051  -1.10867
   1.39235  -0.91525  -1.01888
   1.36242  -0.94518  -0.85428
   1.25767  -0.88533  -0.70465
   1.00329  -0.93022  -0.65975
   0.85365  -1.04993  -0.51012
   0.65912  -1.03496  -0.40537
   0.61423  -1.02000  -0.36048
   0.38977  -1.02000  -0.33055
   0.24014  -0.93022  -0.24077
   0.12043  -0.87036  -0.18091
  -0.13396  -0.76562  -0.16595
  -0.41827  -0.78058  -0.07617
  -0.55294  -0.73569   0.01362
  -0.80733  -0.73569   0.05851
  -0.94200  -0.67583   0.14829
  -1.12157  -0.61598   0.22311
  -1.22631  -0.48131   0.31289
  -1.39091  -0.39152   0.34282
  -1.49566  -0.40649   0.37275
  -1.58544  -0.30174   0.49246
  -1.75004  -0.19699   0.46253
  -1.79493  -0.25685   0.53735
  -1.94457  -0.16707   0.53735
  -1.97450  -0.07728   0.55231
