********************************************************************************
              CENTRO DE INSTRUMENTACION Y REGISTRO SISMICO  A.C.

    Anaxagoras 814, Col. Narvarte, Benito Juarez, C.P. 03020 Mexico, D.F.
           Tels. 5687 45 42/ 5687 45  82             Fax. 5669 25 12
********************************************************************************
ARCHIVO ESTANDAR DE ACELERACION:
VERSION DEL FORMATO                    : 2.0
NOMBRE DEL ARCHIVO                     : AL0120110426110728
FECHA Y HORA DE CREACION               : 06/MAY/11, 12:22
REF. CATALOGO ACELEROGRAMAS, SMIS 1996 : REGISTRO No.     /PAG.


================================================================================
DATOS DE LA ESTACION:
NOMBRE DE LA ESTACION                  : ALAMEDA
CLAVE DE LA ESTACION                   : AL01
LOCALIZACION DE LA ESTACION            : Del. Cuauhtémoc, Col. Centro,          
                                       : Dr. Mora entre Av. Hidalgo             
                                       : y Av. Juárez.                          
                                       :                                        
                                       : 
COORDENADAS DE LA ESTACION             : 19.4356 LAT. N
                                       : 99.1453 LONG. W
ALTITUD (msnm)                         : 2232
TIPO DE SUELO                          : Terreno blando, material compresible
                                       : (arcillas)                
                                       : 
INSTITUCION RESPONSABLE                : CIRES
                                       : 

================================================================================
DATOS DEL ACELEROGRAFO:
MODELO DEL ACELEROGRAFO                : RADESD
NUMERO DE SERIE DEL ACELEROGRAFO       : 152
NUMERO DE CANALES                      : 3
ORIENTACION C1-C6 (rumbo;orientacion)  : /N00E/+V/N90W
ORIENTACION C7-C12 (rumbo;orientacion) : 
VEL. DE MUESTREO, C1-C6 (muestras/s)   : /100/100/100
VEL. DE MUESTREO, C7-C12 (muestras/s)  : 
ESC. COMPLETA DE SENSORES, C1-C6, (g)  : /0.5/0.5/0.5
ESC. COMPLETA DE SENSORES, C7-C12, (g) : 
FREC. NAT. DE SENSORES, C1-C6, (Hz)    : /51.29/51.09/53.75
FREC. NAT. DE SENSORES, C7-C12, (Hz)   : 
AMORTIGUAMIENTO DE SENSORES, C1-C6     : /0.5519/0.5670/0.5810
AMORTIGUAMIENTO DE SENSORES, C7-C12    : 
INTERVALO DE MUESTREO, C1-C6, (s)      : /0.01/0.01/0.01
INTERVALO DE MUESTREO, C7-C12, (s)     : 
UMBRAL DE DISPARO, C1-C6, (Gal)        : /0.72/1.44/0.72
UMBRAL DE DISPARO, C7-C12, (Gal)       : 
MEMORIA DE PREEVENTO (s)               : 56.0
TIEMPO DE POSEVENTO (s)                : 64.0


================================================================================
DATOS DEL SISMO:
FECHA DEL SISMO (GMT)                  : 26/ABR/11
HORA EPICENTRO (GMT)                   : 11:07:28.0
MAGNITUD(ES)                           : /Mc=5.5
COORDENADAS DEL EPICENTRO              : 16.71 LAT. N
                                       : 99.69 LONG. W
PROFUNDIDAD FOCAL (km)                 : 7
FUENTE DE LOS DATOS EPICENTRALES       : SSN
                                       : INSTITUTO DE GEOFISICA, UNAM

================================================================================
DATOS DE ESTE REGISTRO:
HORA DE LA PRIMERA MUESTRA (GMT)       : 11:08:47.00
EXACTITUD DEL TIEMPO (s)               : 0.01
DURACION DEL REGISTRO (s), C1-C6       : /158.49/158.49/158.49
DURACION DEL REGISTRO (s), C7-C12      : 
NUM. TOTAL DE MUESTRAS, C1-C6          : /15849/15849/15849
NUM. TOTAL DE MUESTRAS, C7-C12         : 
ACEL. MAX. (Gal), C1-C6                : /10.27511/4.39966/8.67636
ACEL. MAX., C1-C6, EN LA MUESTRA       : /4967/5398/5006
ACEL. MAX. (Gal), C7-C12               : 
ACEL. MAX., C7-C12, EN LA MUESTRA      : 
UNIDADES DE LOS DATOS                  : Gal (cm/s/s)
FACTOR DE DECIMACION                   : 1
FORMATO DATOS (FORTRAN,10 campos/dato) : 3F10.5


================================================================================
CALIDAD DEL ACELEROGRAMA:
REGISTRO DIGITAL COMPLETO CON TIEMPO ABSOLUTO CORRECTO.


================================================================================
COMENTARIOS:














================================================================================
DATOS DE ACELERACION:
---------+---------+---------+---------+---------+---------+---------+---------+
   CANAL-1   CANAL-2   CANAL-3   CANAL-4   CANAL-5   CANAL-6   CANAL-7   CANAL-8
      N00E        +V      N90W
---------+---------+---------+---------+---------+---------+---------+---------+
[...]
   0.26394  -0.33255  -0.28872
   0.26394  -0.33255   0.19012
   0.02452  -0.33255   0.19012
   0.26394  -0.33255   0.42954
   0.02452  -0.09313   0.42954
   0.02452  -0.09313   0.42954
  -0.21490  -0.33255   0.90838
  -0.21490  -0.09313   0.90838
  -0.21490  -0.09313   1.14780
  -0.21490  -0.09313   1.38722
  -0.45432  -0.09313   1.38722
  -0.69374  -0.33255   1.62664
  -0.69374  -0.33255   1.62664
  -0.93316  -0.09313   1.62664
  -0.93316  -0.09313   1.62664
  -0.69374  -0.09313   1.62664
  -0.69374   0.14629   1.62664
  -0.69374  -0.09313   1.62664
  -0.69374  -0.33255   1.38722
  -0.45432  -0.09313   1.62664
  -0.21490  -0.09313   1.38722
  -0.45432  -0.33255   1.62664
   0.02452   0.38571   1.38722
   0.02452   0.14629   1.14780
   0.26394   0.14629   1.38722
   0.26394   0.38571   1.38722
   0.26394   0.14629   1.38722
   0.50336   0.38571   1.38722
   0.74278   0.38571   1.14780
   0.74278   0.38571   1.38722
   0.74278   0.62513   1.38722
   0.74278   0.38571   1.38722
   0.74278   0.38571   1.62664
   0.98220   0.62513   1.38722
   0.74278   0.38571   1.38722
   0.74278   0.38571   1.38722
   0.74278   0.38571   1.14780
   0.74278   0.62513   0.90838
   0.50336   0.14629   0.90838
   0.50336  -0.09313   0.90838
   0.50336   0.14629   0.66896
   0.50336  -0.09313   0.66896
   0.50336  -0.09313   0.42954
   0.26394  -0.09313   0.42954
   0.26394  -0.09313   0.19012
   0.26394  -0.33255   0.19012
   0.26394  -0.09313   0.19012
   0.26394  -0.33255  -0.04930
   0.26394  -0.33255  -0.28872
   0.26394  -0.33255  -0.28872
   0.02452  -0.57197  -0.52814
   0.26394  -0.57197  -0.76756
  -0.21490  -0.81139  -0.76756
   0.02452  -0.33255  -1.00698
   0.26394  -0.57197  -1.24640
   0.02452  -0.33255  -1.00698
   0.26394  -0.33255  -1.48582
   0.02452  -0.09313  -1.48582
   0.02452  -0.09313  -1.48582
   0.02452   0.14629  -1.72524
   0.02452   0.14629  -1.72524
   0.26394   0.62513  -1.72524
   0.26394   0.38571  -1.72524
   0.02452  -0.09313  -1.48582
   0.02452   0.14629  -1.72524
   0.26394   0.38571  -1.72524
   0.26394   0.38571  -1.48582
   0.26394   0.14629  -1.48582
   0.50336   0.38571  -1.48582
   0.26394   0.14629  -1.24640
   0.26394   0.14629  -1.24640
   0.26394  -0.09313  -1.00698
   0.26394   0.14629  -0.76756
   0.26394   0.14629  -0.52814
  -0.21490  -0.33255  -0.04930
   0.02452   0.14629  -0.04930
   0.02452  -0.09313   0.19012
  -0.21490  -0.09313   0.42954
   0.02452   0.14629   0.42954
   0.02452   0.14629   0.42954
   0.02452   0.14629   0.66896
   0.02452   0.14629   0.42954
  -0.21490  -0.09313   0.66896
  -0.21490   0.14629   0.66896
  -0.21490   0.14629   0.66896
   0.02452   0.14629   0.42954
  -0.21490   0.14629   0.42954
   0.02452   0.14629   0.42954
   0.02452  -0.09313   0.19012
   0.02452  -0.09313  -0.04930
  -0.21490  -0.33255  -0.04930
   0.02452  -0.09313  -0.28872
   0.02452  -0.09313  -0.28872
   0.02452  -0.33255  -0.52814
  -0.21490  -0.33255  -0.76756
  -0.21490  -0.33255  -0.76756
  -0.21490  -0.33255  -0.76756
   0.02452  -0.33255  -1.00698
   0.02452  -0.09313  -1.00698
   0.02452   0.14629  -1.00698
   0.02452   0.14629  -1.24640
   0.02452   0.38571  -1.00698
   0.02452   0.38571  -1.00698
   0.26394   0.38571  -1.00698
   0.26394   0.38571  -0.76756
   0.02452   0.38571  -1.00698
   0.26394   0.38571  -1.00698
   0.26394   0.62513  -1.00698
   0.26394   0.14629  -0.76756
   0.26394   0.38571  -0.76756
   0.26394   0.38571  -0.76756
   0.26394   0.14629  -0.52814
   0.26394   0.14629  -0.52814
   0.26394  -0.09313  -0.28872
   0.26394  -0.09313  -0.52814
   0.26394  -0.33255  -0.04930
   0.02452  -0.33255   0.19012
   0.02452  -0.33255  -0.04930
   0.02452  -0.33255   0.19012
   0.02452  -0.33255   0.19012
   0.02452  -0.09313   0.19012
  -0.21490  -0.57197   0.42954
   0.02452  -0.09313   0.42954
   0.02452  -0.33255   0.42954
  -0.21490  -0.33255   0.66896
  -0.21490  -0.33255   0.66896
   0.02452  -0.09313   0.66896
  -0.21490  -0.33255   0.66896
  -0.21490  -0.33255   0.90838
   0.02452  -0.09313   0.66896
   0.02452  -0.09313   0.66896
   0.02452  -0.09313   0.66896
   0.02452   0.14629   0.42954
   0.26394   0.38571   0.19012
   0.02452   0.38571   0.19012
   0.02452   0.14629   0.19012
   0.26394   0.86455  -0.04930
   0.02452   0.38571  -0.28872
   0.02452   0.38571  -0.04930
   0.02452   0.38571  -0.28872
   0.02452   0.14629  -0.04930
   0.02452   0.14629  -0.28872
   0.26394   0.14629  -0.28872
   0.02452  -0.09313  -0.04930
   0.26394  -0.09313  -0.28872
   0.50336   0.14629  -0.28872
   0.50336  -0.09313  -0.28872
   0.26394   0.14629  -0.04930
   0.50336  -0.09313  -0.04930
   0.26394  -0.33255  -0.04930
   0.26394  -0.09313  -0.04930
   0.26394  -0.09313  -0.04930
   0.02452  -0.81139   0.19012
   0.02452  -0.33255   0.19012
  -0.21490  -0.81139   0.19012
  -0.21490  -0.33255   0.19012
  -0.45432  -0.57197   0.42954
  -0.45432  -0.57197   0.19012
  -0.45432  -0.33255   0.19012
  -0.21490  -0.09313   0.19012
  -0.45432  -0.33255   0.19012
  -0.45432  -0.33255  -0.04930
  -0.21490  -0.33255  -0.04930
  -0.21490   0.14629  -0.28872
  -0.21490  -0.09313  -0.28872
  -0.45432   0.14629  -0.52814
  -0.21490   0.14629  -0.28872
  -0.45432   0.14629  -0.52814
  -0.21490   0.38571  -0.52814
  -0.21490   0.38571  -0.76756
   0.02452   0.14629  -0.52814
   0.26394   0.62513  -1.00698
   0.26394   0.38571  -0.76756
   0.50336   0.62513  -1.00698
   0.26394   0.38571  -0.52814
   0.26394   0.14629  -0.76756
   0.26394   0.38571  -0.76756
   0.26394   0.38571  -0.52814
   0.26394   0.38571  -0.52814
   0.02452   0.14629  -0.28872
   0.02452   0.14629  -0.28872
   0.02452   0.62513  -0.04930
  -0.21490   0.38571   0.19012
  -0.21490   0.38571   0.42954
  -0.21490   0.38571   0.42954
  -0.45432   0.14629   0.66896
  -0.21490   0.62513   0.42954
  -0.45432   0.14629   0.90838
  -0.45432   0.14629   0.66896
  -0.45432   0.14629   1.14780
  -0.45432   0.14629   0.90838
  -0.69374  -0.33255   1.38722
  -0.69374  -0.33255   1.38722
  -0.69374  -0.09313   1.38722
  -0.45432   0.14629   1.38722
  -0.45432  -0.09313   1.62664
  -0.45432  -0.33255   1.38722
  -0.21490  -0.33255   1.62664
   0.02452  -0.09313   1.38722
   0.26394   0.14629   1.38722
   0.26394   0.14629   1.14780
   0.26394  -0.09313   1.14780
   0.26394  -0.09313   0.90838
   0.50336   0.14629   0.66896
   0.50336  -0.09313   0.42954
   0.74278   0.14629   0.19012
   0.74278  -0.09313  -0.04930
   0.98220  -0.33255  -0.28872
   0.98220  -0.33255  -0.28872
   0.98220  -0.33255  -0.76756
   0.98220  -0.33255  -0.76756
   0.98220  -0.33255  -0.52814
   0.74278  -0.57197  -0.76756
   0.98220  -0.33255  -0.76756
   0.74278  -0.57197  -1.00698
   0.74278  -0.33255  -1.00698
   0.26394  -0.57197  -1.00698
   0.26394  -0.57197  -0.76756
   0.02452  -1.05081  -0.76756
   0.02452  -0.57197  -0.52814
  -0.21490  -0.81139  -0.52814
  -0.21490  -0.57197  -0.52814
  -0.45432  -0.81139  -0.04930
  -0.69374  -0.33255  -0.04930
  -0.93316  -0.81139   0.19012
  -0.93316  -0.33255  -0.04930
  -0.93316   0.14629   0.19012
  -1.17258   0.14629   0.19012
  -1.41200   0.38571   0.42954
  -1.41200   0.14629   0.42954
  -1.41200   0.38571   0.66896
  -1.41200   0.86455   0.66896
  -1.41200   0.86455   0.90838
  -1.17258   0.38571   0.90838
  -1.17258   0.38571   0.90838
  -1.17258   0.38571   0.90838
  -0.93316   0.86455   0.66896
  -0.45432   0.86455   0.66896
  -0.45432   0.38571   0.90838
  -0.45432   0.62513   0.66896
  -0.21490   0.38571   0.66896
   0.02452   0.62513   0.66896
   0.02452   0.62513   0.90838
   0.26394   0.14629   0.66896
   0.26394   0.38571   0.42954
   0.50336   0.14629   0.66896
   0.74278   0.38571   0.66896
   0.50336  -0.09313   0.66896
   0.74278   0.14629   0.42954
   0.74278  -0.09313   0.66896
   0.50336  -0.33255   0.66896
   0.74278  -0.09313   0.66896
   0.74278  -0.09313   0.90838
   0.74278  -0.09313   0.90838
   0.50336  -0.33255   0.90838
   0.74278  -0.09313   1.14780
   0.50336  -0.09313   0.90838
   0.50336  -0.33255   0.90838
   0.50336  -0.09313   0.90838
   0.26394  -0.09313   0.90838
   0.26394  -0.33255   0.66896
   0.50336   0.14629   0.42954
   0.26394  -0.09313   0.42954
   0.26394  -0.09313   0.19012
   0.50336  -0.09313  -0.04930
   0.26394   0.14629  -0.04930
   0.26394   0.14629  -0.04930
   0.26394  -0.33255   0.19012
   0.26394   0.14629  -0.28872
   0.26394   0.14629  -0.52814
   0.26394   0.14629  -0.52814
   0.26394  -0.09313  -0.52814
   0.50336   0.38571  -1.00698
   0.50336  -0.09313  -0.76756
   0.50336   0.14629  -1.24640
   0.50336  -0.09313  -1.24640
   0.74278  -0.09313  -1.72524
   0.74278   0.14629  -1.72524
   0.98220   0.38571  -1.96466
   0.98220   0.14629  -2.20408
   0.98220  -0.09313  -2.20408
   1.22162   0.14629  -2.20408
   1.22162  -0.09313  -2.44350
   1.22162  -0.09313  -2.44350
   0.98220  -0.57197  -2.20408
   1.22162  -0.33255  -2.20408
   1.22162  -0.57197  -2.20408
   0.98220  -1.05081  -1.96466
   0.98220  -0.57197  -1.96466
   0.98220  -0.81139  -1.72524
   0.98220  -0.81139  -1.48582
   0.74278  -1.05081  -1.24640
   0.50336  -1.05081  -1.00698
   0.26394  -1.05081  -0.52814
   0.26394  -1.05081  -0.28872
   0.02452  -1.05081  -0.04930
  -0.21490  -1.05081   0.42954
  -0.45432  -1.05081   0.66896
  -0.45432  -0.57197   0.66896
  -0.69374  -0.33255   1.14780
  -0.93316  -0.33255   1.14780
  -0.93316  -0.57197   1.38722
  -1.17258  -0.33255   1.38722
  -1.41200  -0.09313   1.62664
  -1.65142  -0.33255   1.62664
  -1.65142   0.14629   1.38722
  -1.89084   0.38571   1.62664
  -1.89084   0.14629   1.62664
  -2.13026   0.38571   1.38722
  -2.13026   0.38571   1.38722
  -2.36968   0.62513   1.14780
  -2.36968   0.38571   0.90838
  -2.36968   0.62513   0.90838
  -2.36968   0.86455   0.42954
  -2.36968   0.86455   0.42954
  -2.36968   1.10397   0.19012
  -2.13026   1.34339  -0.04930
  -2.36968   1.10397  -0.04930
  -2.36968   0.86455  -0.28872
  -2.13026   0.86455  -0.52814
  -2.13026   1.10397  -0.52814
  -1.89084   1.10397  -0.76756
  -1.89084   1.10397  -0.76756
  -1.89084   1.10397  -0.76756
  -1.65142   0.86455  -0.76756
  -1.65142   1.10397  -0.76756
  -1.41200   1.10397  -1.00698
  -1.65142   0.86455  -0.76756
  -1.65142   0.62513  -0.76756
  -1.17258   0.62513  -1.00698
  -1.17258   0.38571  -0.76756
  -0.69374   0.38571  -0.52814
  -0.69374   0.14629  -0.52814
  -0.45432   0.14629  -0.28872
   0.02452   0.38571  -0.28872
   0.26394  -0.09313  -0.04930
   0.50336  -0.33255  -0.04930
   0.98220   0.14629   0.19012
   0.98220  -0.57197   0.19012
   1.46104  -0.09313   0.19012
   1.70046  -0.57197   0.42954
   2.17930  -0.57197   0.42954
   2.17930  -0.81139   0.66896
   2.65814  -0.81139   0.66896
   2.89756  -0.81139   1.14780
   2.89756  -1.05081   0.90838
   3.37640  -0.81139   0.90838
   3.13698  -1.05081   1.14780
   3.37640  -1.05081   1.14780
   3.37640  -0.81139   1.38722
   3.37640  -1.05081   1.38722
   3.13698  -1.29023   1.62664
   3.37640  -1.05081   1.38722
   3.13698  -1.29023   1.38722
   3.13698  -1.05081   1.62664
   2.65814  -1.52965   1.86607
   2.41872  -1.29023   1.86607
   1.93988  -1.29023   1.62664
   1.70046  -1.29023   1.86607
   1.46104  -1.05081   2.10549
   0.74278  -1.29023   1.62664
   0.74278  -1.05081   1.62664
   0.26394  -0.81139   1.62664
  -0.21490  -0.57197   1.38722
  -0.45432  -0.57197   1.38722
  -0.93316  -0.57197   1.38722
  -0.93316   0.14629   1.14780
  -1.41200  -0.09313   1.14780
  -1.65142  -0.09313   1.14780
  -1.89084   0.38571   0.66896
  -1.89084   0.38571   0.42954
  -2.13026   0.62513   0.19012
  -2.36968   0.62513   0.19012
  -2.36968   1.10397  -0.28872
  -2.36968   1.58281  -0.52814
  -2.60910   1.34339  -0.76756
  -2.36968   1.82223  -1.00698
  -2.60910   1.58281  -1.72524
  -2.36968   1.82223  -1.96466
  -2.36968   1.82223  -2.20408
  -2.36968   1.82223  -2.44350
  -2.36968   1.82223  -2.68292
  -2.13026   1.34339  -2.92234
  -1.89084   1.82223  -3.16176
  -1.89084   1.34339  -2.92234
  -1.89084   1.58281  -3.40118
  -1.65142   1.82223  -3.16176
  -1.41200   1.34339  -3.16176
  -1.41200   1.10397  -2.92234
  -1.17258   1.10397  -2.92234
  -1.17258   0.38571  -2.20408
  -0.69374   1.10397  -2.20408
  -0.69374   0.62513  -1.72524
  -0.69374  -0.09313  -1.48582
  -0.45432   0.38571  -1.24640
  -0.21490  -0.09313  -0.76756
  -0.21490  -0.33255  -0.28872
   0.26394  -0.09313  -0.28872
   0.26394  -0.57197  -0.04930
   0.74278  -0.57197   0.19012
   0.74278  -0.81139   0.66896
   0.98220  -1.29023   0.90838
   1.22162  -1.05081   1.14780
   1.22162  -1.29023   0.90838
   1.46104  -1.52965   1.38722
   1.70046  -1.29023   1.38722
   2.41872  -1.52965   1.14780
   2.41872  -1.52965   1.38722
   2.65814  -1.29023   1.14780
   2.65814  -1.52965   1.14780
   2.89756  -1.52965   1.14780
   2.65814  -1.52965   1.14780
   2.89756  -1.52965   0.90838
   3.13698  -1.52965   0.66896
   3.13698  -1.52965   0.66896
   2.89756  -1.52965   0.42954
   3.13698  -1.05081   0.19012
   2.89756  -1.05081   0.19012
   2.89756  -0.81139   0.19012
   2.89756  -0.57197   0.19012
   2.65814  -0.33255   0.19012
   2.41872  -0.09313  -0.04930
   2.17930  -0.09313  -0.28872
   1.93988  -0.09313  -0.52814
   1.46104  -0.09313  -0.28872
   1.46104   0.62513  -0.52814
   0.98220   0.14629  -0.76756
   0.50336   0.38571  -0.52814
   0.26394   0.62513  -0.52814
  -0.21490   0.62513  -0.52814
  -0.21490   0.62513  -0.52814
  -0.69374   0.38571  -0.52814
  -0.93316   0.62513  -0.76756
  -1.17258   0.62513  -0.76756
  -1.17258   0.86455  -1.00698
  -1.41200   0.86455  -0.52814
  -1.65142   0.86455  -0.76756
  -1.89084   0.86455  -0.52814
  -1.89084   1.10397  -0.52814
  -1.89084   1.58281  -0.52814
  -1.89084   1.34339  -0.76756
  -1.89084   1.34339  -0.52814
  -1.89084   1.10397  -0.76756
  -1.89084   1.10397  -0.52814
  -1.65142   1.34339  -0.52814
  -1.65142   1.10397  -0.52814
  -1.65142   0.86455  -0.52814
  -1.41200   0.86455  -0.52814
  -1.17258   0.38571  -0.52814
  -1.17258   0.86455  -0.52814
  -1.17258   0.62513  -0.52814
  -0.93316   0.38571  -0.52814
  -0.93316   0.14629  -0.28872
  -0.69374   0.38571  -0.28872
  -0.69374   0.14629  -0.28872
  -0.45432  -0.09313  -0.04930
  -0.21490   0.14629  -0.04930
  -0.21490  -0.09313  -0.04930
  -0.21490  -0.33255   0.19012
  -0.21490  -0.09313   0.19012
  -0.21490  -0.33255   0.42954
  -0.21490  -0.09313   0.19012
  -0.21490  -0.09313   0.42954
  -0.21490   0.14629   0.66896
   0.02452  -0.09313   0.42954
   0.02452   0.14629   0.66896
   0.02452  -0.09313   0.66896
   0.02452  -0.33255   0.66896
  -0.21490  -0.09313   0.66896
  -0.45432  -0.57197   0.66896
  -0.21490  -0.33255   0.66896
  -0.21490  -0.33255   0.66896
  -0.21490  -0.57197   0.66896
  -0.21490  -0.57197   0.66896
  -0.21490  -0.57197   0.90838
   0.02452  -0.57197   0.66896
   0.02452  -0.57197   0.42954
   0.02452  -1.05081   0.42954
   0.02452  -0.57197   0.66896
   0.26394  -0.57197   0.42954
   0.50336  -0.33255   0.42954
   0.26394  -0.57197   0.42954
   0.74278  -0.57197   0.19012
   0.74278  -0.33255   0.19012
   0.74278  -0.33255   0.19012
   0.98220  -0.33255   0.19012
   1.22162  -0.33255   0.19012
   1.46104  -0.09313  -0.04930
   1.70046   0.14629  -0.04930
   1.70046  -0.09313   0.19012
   1.70046  -0.33255  -0.04930
   1.93988   0.14629   0.42954
   2.17930   0.14629  -0.04930
   1.93988   0.14629   0.19012
   2.17930   0.14629   0.19012
   1.93988  -0.09313   0.42954
