********************************************************************************
              CENTRO DE INSTRUMENTACION Y REGISTRO SISMICO  A.C.

    Anaxagoras 814, Col. Narvarte, Benito Juarez, C.P. 03020 Mexico, D.F.
           Tels. 5687 45 42/ 5687 45  82             Fax. 5669 25 12
********************************************************************************
ARCHIVO ESTANDAR DE ACELERACION:
VERSION DEL FORMATO                    : 2.0
NOMBRE DEL ARCHIVO                     : AL0120170112102657
FECHA Y HORA DE CREACION               : 25/ABR/17, 12:45
REF. CATALOGO ACELEROGRAMAS, SMIS 1996 : REGISTRO No.     /PAG.


================================================================================
DATOS DE LA ESTACION:
NOMBRE DE LA ESTACION                  : ALAMEDA
CLAVE DE LA ESTACION                   : AL01
LOCALIZACION DE LA ESTACION            : Del. Cuauhtémoc, Col. Centro,          
                                       : Dr. Mora entre Av. Hidalgo             
                                       : y Av. Juárez.                          
                                       :                                        
                                       : 
COORDENADAS DE LA ESTACION             : 19.4356 LAT. N
                                       : 99.1453 LONG. W
ALTITUD (msnm)                         : 2232
TIPO DE SUELO                          : Terreno blando, material compresible
                                       : (arcillas)                
                                       : 
INSTITUCION RESPONSABLE                : CIRES, A. C.
                                       : 

================================================================================
DATOS DEL ACELEROGRAFO:
MODELO DEL ACELEROGRAFO                : RAD_IO14
NUMERO DE SERIE DEL ACELEROGRAFO       : 
NUMERO DE CANALES                      : 3
ORIENTACION C1-C6 (rumbo;orientacion)  : /S00E/+V/N90W
ORIENTACION C7-C12 (rumbo;orientacion) : 
VEL. DE MUESTREO, C1-C6 (muestras/s)   : /100/100/100
VEL. DE MUESTREO, C7-C12 (muestras/s)  : 
ESC. COMPLETA DE SENSORES, C1-C6, (g)  : /2.0/2.0/2.0
ESC. COMPLETA DE SENSORES, C7-C12, (g) : 
FREC. NAT. DE SENSORES, C1-C6, (Hz)    : /51.29/51.09/53.75
FREC. NAT. DE SENSORES, C7-C12, (Hz)   : 
AMORTIGUAMIENTO DE SENSORES, C1-C6     : /0.5519/0.5670/0.5810
AMORTIGUAMIENTO DE SENSORES, C7-C12    : 
INTERVALO DE MUESTREO, C1-C6, (s)      : /0.01/0.01/0.01
INTERVALO DE MUESTREO, C7-C12, (s)     : 
UMBRAL DE DISPARO, C1-C6, (Gal)        : / / /
UMBRAL DE DISPARO, C7-C12, (Gal)       : 
MEMORIA DE PREEVENTO (s)               : 60
TIEMPO DE POSEVENTO (s)                : 90


================================================================================
DATOS DEL SISMO:
FECHA DEL SISMO (GMT)                  : 12/ENE/17
HORA EPICENTRO (GMT)                   : 10:26:57.0
MAGNITUD(ES)                           : /Mc=5.0
COORDENADAS DEL EPICENTRO              : 16.59 LAT. N
                                       : 98.56 LONG. W
PROFUNDIDAD FOCAL (km)                 : 40
FUENTE DE LOS DATOS EPICENTRALES       : SSN
                                       : INSTITUTO DE GEOFISICA, UNAM

================================================================================
DATOS DE ESTE REGISTRO:
HORA DE LA PRIMERA MUESTRA (GMT)       : 04:26:17.00
EXACTITUD DEL TIEMPO (s)               : 
DURACION DEL REGISTRO (s), C1-C6       : /240.01/240.01/240.01
DURACION DEL REGISTRO (s), C7-C12      : 
NUM. TOTAL DE MUESTRAS, C1-C6          : /24001/24001/24001
NUM. TOTAL DE MUESTRAS, C7-C12         : 
ACEL. MAX. (Gal), C1-C6                : /1.29207/0.78863/1.43793
ACEL. MAX., C1-C6, EN LA MUESTRA       : /12926/14835/13408
ACEL. MAX. (Gal), C7-C12               : 
ACEL. MAX., C7-C12, EN LA MUESTRA      : 
UNIDADES DE LOS DATOS                  : Gal (cm/s/s)
FACTOR DE DECIMACION                   : 1
FORMATO DATOS (FORTRAN,10 campos/dato) : 3F10.5


================================================================================
CALIDAD DEL ACELEROGRAMA:
REGISTRO DIGITAL COMPLETO CON TIEMPO ABSOLUTO CORRECTO.


================================================================================
COMENTARIOS:














================================================================================
DATOS DE ACELERACION:
---------+---------+---------+---------+---------+---------+---------+---------+
   CANAL-1   CANAL-2   CANAL-3   CANAL-4   CANAL-5   CANAL-6   CANAL-7   CANAL-8
      N00E        +V      N90W
---------+---------+---------+---------+---------+---------+---------+---------+
[...]
  -0.33437  -0.07043  -0.77953
  -0.21467  -0.13023  -0.77953
  -0.21467  -0.13023  -0.77953
  -0.15487  -0.13023  -0.77953
  -0.09497  -0.19013  -0.83943
   0.14443  -0.13023  -0.77953
   0.20433  -0.13023  -0.83943
   0.32403  -0.13023  -0.83943
   0.38383  -0.13023  -0.77953
   0.44373  -0.13023  -0.71973
   0.50353  -0.07043  -0.65983
   0.50353  -0.01053  -0.71973
   0.56343   0.04937  -0.71973
   0.74303   0.04937  -0.59993
   0.74303  -0.01053  -0.42043
   0.86273   0.04937  -0.36053
   0.98243   0.04937  -0.36053
   0.98243   0.04937  -0.18103
   1.04223   0.04937  -0.18103
   1.04223  -0.01053  -0.12113
   1.10213  -0.01053  -0.18103
   1.10213   0.04937  -0.24083
   1.04223   0.04937  -0.12113
   1.16193  -0.01053  -0.12113
   1.04223  -0.01053  -0.06133
   0.92253  -0.01053  -0.06133
   0.86273  -0.13023   0.05847
   0.80283  -0.13023  -0.06133
   0.74303  -0.13023  -0.12113
   0.74303  -0.13023  -0.18103
   0.56343  -0.24993  -0.18103
   0.44373  -0.24993  -0.30073
   0.38383  -0.19013  -0.30073
   0.26413  -0.13023  -0.30073
   0.14443  -0.13023  -0.30073
   0.02473  -0.13023  -0.36053
  -0.09497  -0.07043  -0.42043
  -0.21467  -0.07043  -0.48023
  -0.27457  -0.07043  -0.48023
  -0.39427  -0.01053  -0.54013
  -0.51397   0.04937  -0.54013
  -0.57377   0.04937  -0.59993
  -0.57377   0.04937  -0.59993
  -0.63367   0.16907  -0.65983
  -0.57377   0.16907  -0.59993
  -0.63367   0.22887  -0.65983
  -0.69357   0.16907  -0.59993
  -0.75337   0.16907  -0.48023
  -0.75337   0.22887  -0.48023
  -0.69357   0.16907  -0.42043
  -0.69357   0.16907  -0.36053
  -0.63367   0.10917  -0.24083
  -0.57377   0.04937  -0.24083
  -0.51397  -0.01053  -0.24083
  -0.51397  -0.07043  -0.18103
  -0.39427  -0.13023  -0.06133
  -0.45407  -0.19013  -0.00143
  -0.33437  -0.24993   0.11827
  -0.39427  -0.24993   0.11827
  -0.33437  -0.30983   0.11827
  -0.39427  -0.30983   0.17817
  -0.39427  -0.36963   0.23797
  -0.45407  -0.42953   0.23797
  -0.45407  -0.42953   0.23797
  -0.45407  -0.48933   0.23797
  -0.57377  -0.42953   0.11827
  -0.57377  -0.36963   0.11827
  -0.63367  -0.36963   0.11827
  -0.57377  -0.24993  -0.00143
  -0.63367  -0.19013  -0.06133
  -0.69357  -0.07043  -0.12113
  -0.69357  -0.01053  -0.24083
  -0.69357   0.04937  -0.42043
  -0.75337   0.10917  -0.42043
  -0.75337   0.10917  -0.42043
  -0.81327   0.22887  -0.48023
  -0.75337   0.28877  -0.48023
  -0.75337   0.34857  -0.54013
  -0.69357   0.40847  -0.54013
  -0.57377   0.40847  -0.54013
  -0.51397   0.46827  -0.42043
  -0.51397   0.52817  -0.36053
  -0.33437   0.58797  -0.30073
  -0.21467   0.52817  -0.18103
  -0.21467   0.46827  -0.06133
  -0.15487   0.40847  -0.00143
  -0.03517   0.46827   0.17817
   0.08463   0.34857   0.35767
   0.20433   0.22887   0.59707
   0.26413   0.22887   0.65697
   0.32403   0.22887   0.77667
   0.38383   0.22887   0.89637
   0.50353   0.16907   0.95627
   0.56343   0.04937   1.07597
   0.50353  -0.01053   1.13577
   0.56343  -0.07043   1.25547
   0.62323  -0.07043   1.25547
   0.68313  -0.07043   1.31537
   0.68313  -0.07043   1.31537
   0.68313  -0.01053   1.31537
   0.68313  -0.01053   1.25547
   0.68313  -0.07043   1.19567
   0.68313  -0.07043   1.13577
   0.62323  -0.07043   1.07597
   0.62323  -0.01053   0.95627
   0.56343  -0.01053   0.83657
   0.44373   0.04937   0.71687
   0.38383   0.04937   0.65697
   0.50353   0.04937   0.59707
   0.38383   0.10917   0.47737
   0.32403   0.04937   0.41757
   0.26413   0.04937   0.35767
   0.26413   0.16907   0.29787
   0.20433   0.04937   0.23797
   0.08463   0.04937   0.11827
   0.02473   0.10917  -0.00143
   0.02473   0.10917  -0.06133
  -0.03517   0.04937  -0.12113
   0.02473   0.04937  -0.24083
   0.02473   0.10917  -0.30073
   0.02473   0.16907  -0.24083
   0.02473   0.16907  -0.30073
  -0.03517   0.16907  -0.24083
  -0.03517   0.10917  -0.36053
   0.02473   0.10917  -0.42043
  -0.03517   0.10917  -0.42043
   0.02473   0.16907  -0.42043
   0.02473   0.10917  -0.48023
  -0.03517   0.10917  -0.42043
   0.02473   0.10917  -0.48023
   0.08463   0.10917  -0.54013
   0.08463   0.10917  -0.54013
   0.08463   0.16907  -0.48023
   0.20433   0.22887  -0.48023
   0.14443   0.22887  -0.36053
   0.20433   0.16907  -0.36053
   0.20433   0.04937  -0.36053
   0.20433   0.16907  -0.18103
   0.14443   0.04937  -0.18103
   0.20433  -0.07043  -0.24083
   0.26413  -0.01053  -0.06133
   0.20433  -0.01053  -0.06133
   0.20433   0.04937  -0.12113
   0.20433   0.04937  -0.12113
   0.20433  -0.01053  -0.00143
   0.08463  -0.07043   0.11827
   0.08463  -0.01053   0.05847
   0.14443  -0.01053   0.05847
   0.08463  -0.07043   0.11827
   0.02473  -0.07043   0.17817
  -0.03517  -0.07043   0.11827
  -0.03517  -0.07043   0.11827
  -0.03517  -0.01053   0.11827
  -0.15487  -0.07043   0.11827
  -0.15487  -0.13023   0.11827
  -0.15487  -0.19013   0.05847
  -0.15487  -0.13023  -0.00143
  -0.09497  -0.19013  -0.00143
   0.02473  -0.13023  -0.12113
  -0.09497  -0.13023  -0.06133
  -0.03517  -0.13023  -0.06133
  -0.03517  -0.13023  -0.12113
  -0.03517  -0.13023  -0.12113
  -0.03517  -0.13023  -0.24083
  -0.09497  -0.13023  -0.18103
  -0.03517  -0.13023  -0.12113
   0.02473  -0.13023  -0.12113
   0.08463  -0.13023  -0.18103
   0.02473  -0.13023  -0.18103
   0.08463  -0.13023  -0.18103
   0.08463  -0.19013  -0.12113
   0.08463  -0.13023  -0.18103
   0.20433  -0.19013  -0.00143
   0.20433  -0.13023  -0.00143
   0.26413  -0.07043  -0.00143
   0.26413  -0.13023   0.11827
   0.26413  -0.01053   0.17817
   0.32403  -0.01053   0.05847
   0.32403   0.04937  -0.06133
   0.26413   0.04937  -0.00143
   0.20433   0.10917  -0.06133
   0.26413   0.10917  -0.06133
   0.26413   0.22887  -0.12113
   0.26413   0.16907  -0.18103
   0.26413   0.04937  -0.06133
   0.20433   0.04937  -0.06133
   0.20433   0.10917  -0.12113
   0.20433   0.10917  -0.12113
   0.14443   0.10917  -0.06133
   0.02473   0.04937  -0.12113
  -0.15487   0.10917  -0.24083
  -0.21467   0.10917  -0.18103
  -0.27457   0.04937  -0.30073
  -0.33437   0.16907  -0.30073
  -0.33437   0.10917  -0.36053
  -0.45407  -0.01053  -0.36053
  -0.63367  -0.07043  -0.36053
  -0.63367  -0.01053  -0.42043
  -0.75337   0.04937  -0.42043
  -0.81327   0.04937  -0.48023
  -0.93297  -0.01053  -0.48023
  -0.99277   0.04937  -0.54013
  -1.05267   0.04937  -0.54013
  -0.99277   0.04937  -0.59993
  -0.99277  -0.01053  -0.65983
  -1.05267  -0.01053  -0.71973
  -1.05267   0.04937  -0.65983
  -1.11247   0.04937  -0.71973
  -1.05267  -0.07043  -0.65983
  -1.05267  -0.13023  -0.59993
  -0.99277  -0.07043  -0.65983
  -0.93297  -0.07043  -0.59993
  -0.81327  -0.01053  -0.59993
  -0.69357  -0.07043  -0.54013
  -0.63367  -0.07043  -0.59993
  -0.57377  -0.13023  -0.65983
  -0.45407  -0.13023  -0.54013
  -0.27457  -0.07043  -0.54013
  -0.15487  -0.07043  -0.48023
  -0.09497  -0.01053  -0.42043
   0.02473  -0.01053  -0.36053
   0.20433  -0.01053  -0.42043
   0.32403   0.04937  -0.36053
   0.44373   0.10917  -0.36053
   0.56343   0.04937  -0.30073
   0.68313   0.10917  -0.18103
   0.80283   0.10917  -0.18103
   0.86273   0.10917  -0.18103
   0.92253   0.10917  -0.24083
   0.86273   0.04937  -0.18103
   0.92253  -0.01053  -0.30073
   0.98243   0.04937  -0.30073
   0.92253  -0.01053  -0.30073
   0.92253   0.04937  -0.36053
   0.92253   0.04937  -0.24083
   0.92253   0.04937  -0.30073
   0.98243   0.04937  -0.30073
   0.86273  -0.01053  -0.30073
   0.80283  -0.01053  -0.12113
   0.74303  -0.01053  -0.06133
   0.74303   0.04937  -0.06133
   0.74303  -0.01053   0.05847
   0.68313   0.04937   0.11827
   0.56343   0.04937   0.23797
   0.50353   0.04937   0.23797
   0.44373  -0.01053   0.41757
   0.32403   0.04937   0.47737
   0.26413  -0.01053   0.53727
   0.32403  -0.07043   0.65697
   0.26413  -0.01053   0.65697
   0.14443   0.04937   0.71687
   0.02473   0.04937   0.77667
   0.02473   0.04937   0.83657
  -0.03517   0.10917   0.83657
  -0.15487   0.10917   0.83657
  -0.15487   0.04937   0.77667
  -0.15487   0.04937   0.83657
  -0.21467   0.04937   0.71687
  -0.33437   0.04937   0.71687
  -0.33437  -0.01053   0.77667
  -0.39427  -0.01053   0.83657
  -0.39427   0.04937   0.71687
  -0.51397  -0.01053   0.53727
  -0.51397  -0.01053   0.59707
  -0.51397  -0.01053   0.65697
  -0.57377  -0.01053   0.59707
  -0.57377  -0.01053   0.47737
  -0.63367   0.04937   0.47737
  -0.57377   0.10917   0.41757
  -0.69357   0.10917   0.29787
  -0.63367   0.10917   0.17817
  -0.63367   0.04937   0.11827
  -0.57377   0.04937   0.11827
  -0.57377  -0.01053   0.11827
  -0.57377   0.04937   0.05847
  -0.51397   0.04937  -0.06133
  -0.45407   0.04937  -0.12113
  -0.39427  -0.01053  -0.12113
  -0.33437  -0.07043  -0.12113
  -0.27457  -0.07043  -0.12113
  -0.21467  -0.01053  -0.18103
  -0.21467  -0.07043  -0.18103
  -0.15487  -0.07043  -0.12113
  -0.09497  -0.13023  -0.12113
  -0.03517  -0.07043  -0.06133
   0.02473  -0.07043  -0.06133
   0.08463  -0.13023  -0.00143
   0.08463  -0.13023   0.11827
   0.20433  -0.13023   0.23797
   0.20433  -0.19013   0.23797
   0.26413  -0.19013   0.29787
   0.32403  -0.13023   0.29787
   0.32403  -0.13023   0.29787
   0.32403  -0.13023   0.35767
   0.32403  -0.13023   0.47737
   0.32403  -0.01053   0.53727
   0.32403   0.10917   0.47737
   0.26413   0.10917   0.47737
   0.32403   0.04937   0.47737
   0.32403   0.16907   0.41757
   0.32403   0.22887   0.35767
   0.26413   0.22887   0.35767
   0.20433   0.28877   0.35767
   0.20433   0.40847   0.29787
   0.20433   0.40847   0.35767
   0.14443   0.40847   0.35767
   0.20433   0.46827   0.29787
   0.14443   0.40847   0.23797
   0.08463   0.46827   0.17817
   0.14443   0.46827   0.17817
   0.08463   0.40847   0.11827
   0.02473   0.40847   0.05847
   0.02473   0.22887   0.05847
   0.02473   0.10917   0.05847
  -0.03517   0.04937   0.05847
  -0.15487   0.04937   0.05847
  -0.09497  -0.01053   0.05847
  -0.21467  -0.07043   0.05847
  -0.27457  -0.24993   0.11827
  -0.33437  -0.19013   0.05847
  -0.39427  -0.24993   0.11827
  -0.45407  -0.36963   0.17817
  -0.51397  -0.42953   0.23797
  -0.57377  -0.48933   0.23797
  -0.57377  -0.54923   0.23797
  -0.57377  -0.54923   0.23797
  -0.57377  -0.54923   0.17817
  -0.57377  -0.48933   0.17817
  -0.57377  -0.42953   0.17817
  -0.51397  -0.42953   0.11827
  -0.51397  -0.42953   0.05847
  -0.51397  -0.36963  -0.06133
  -0.51397  -0.30983  -0.18103
  -0.39427  -0.30983  -0.24083
  -0.39427  -0.30983  -0.36053
  -0.27457  -0.19013  -0.54013
  -0.09497  -0.13023  -0.59993
  -0.03517  -0.07043  -0.71973
   0.08463   0.04937  -0.83943
   0.20433  -0.01053  -1.01893
   0.32403   0.04937  -1.13863
   0.44373   0.04937  -1.19853
   0.44373   0.10917  -1.31823
   0.56343   0.16907  -1.31823
   0.68313   0.22887  -1.31823
   0.74303   0.16907  -1.37813
   0.80283   0.22887  -1.43793
   0.98243   0.22887  -1.31823
   0.98243   0.22887  -1.37813
   0.98243   0.16907  -1.37813
   1.10213   0.10917  -1.25833
   1.10213   0.10917  -1.19853
   1.10213   0.04937  -1.19853
   1.04223   0.10917  -1.13863
   1.04223   0.10917  -0.95913
   1.04223   0.04937  -0.89923
   1.04223   0.04937  -0.83943
   0.98243   0.16907  -0.59993
   0.92253   0.22887  -0.48023
   0.80283   0.22887  -0.42043
   0.80283   0.22887  -0.30073
   0.74303   0.22887  -0.12113
   0.62323   0.28877   0.05847
   0.56343   0.28877   0.11827
   0.44373   0.28877   0.23797
   0.38383   0.34857   0.35767
   0.32403   0.28877   0.41757
   0.14443   0.28877   0.59707
  -0.03517   0.34857   0.71687
  -0.15487   0.46827   0.65697
  -0.21467   0.52817   0.71687
  -0.27457   0.46827   0.77667
  -0.33437   0.40847   0.77667
  -0.51397   0.46827   0.83657
  -0.51397   0.34857   0.89637
  -0.63367   0.28877   0.83657
  -0.69357   0.28877   0.83657
  -0.75337   0.16907   0.89637
  -0.87307   0.10917   0.83657
  -0.99277   0.04937   0.77667
  -0.99277  -0.01053   0.65697
  -0.93297  -0.13023   0.71687
  -1.05267  -0.19013   0.71687
  -0.99277  -0.30983   0.65697
  -1.05267  -0.36963   0.59707
  -1.11247  -0.30983   0.53727
  -1.11247  -0.42953   0.47737
  -0.99277  -0.42953   0.35767
  -0.93297  -0.54923   0.29787
  -0.81327  -0.54923   0.23797
  -0.75337  -0.60903   0.11827
  -0.63367  -0.66893   0.11827
  -0.63367  -0.60903   0.17817
  -0.51397  -0.60903   0.11827
  -0.45407  -0.60903  -0.00143
  -0.33437  -0.66893  -0.00143
  -0.27457  -0.72883  -0.00143
  -0.21467  -0.66893  -0.00143
  -0.15487  -0.60903  -0.06133
  -0.09497  -0.54923  -0.06133
   0.02473  -0.42953  -0.12113
  -0.03517  -0.36963  -0.18103
   0.14443  -0.24993  -0.24083
   0.14443  -0.19013  -0.24083
   0.20433  -0.13023  -0.30073
   0.32403  -0.07043  -0.30073
   0.26413  -0.01053  -0.30073
   0.32403   0.10917  -0.30073
   0.32403   0.28877  -0.42043
   0.26413   0.34857  -0.42043
   0.20433   0.46827  -0.48023
   0.32403   0.46827  -0.48023
   0.32403   0.58797  -0.48023
   0.20433   0.58797  -0.42043
   0.20433   0.64787  -0.48023
   0.20433   0.64787  -0.42043
   0.14443   0.70777  -0.42043
   0.02473   0.76757  -0.48023
   0.02473   0.64787  -0.48023
  -0.03517   0.64787  -0.54013
  -0.03517   0.64787  -0.48023
  -0.09497   0.64787  -0.48023
  -0.15487   0.52817  -0.42043
  -0.15487   0.46827  -0.48023
  -0.27457   0.46827  -0.48023
  -0.33437   0.46827  -0.42043
  -0.33437   0.40847  -0.42043
  -0.39427   0.28877  -0.36053
  -0.39427   0.22887  -0.24083
  -0.45407   0.16907  -0.18103
  -0.39427   0.16907  -0.18103
  -0.45407   0.22887  -0.18103
  -0.45407   0.10917  -0.06133
  -0.45407   0.04937  -0.00143
  -0.39427  -0.01053  -0.00143
  -0.45407  -0.01053  -0.00143
  -0.39427  -0.07043  -0.00143
  -0.39427  -0.13023   0.11827
  -0.33437  -0.13023   0.23797
  -0.33437  -0.07043   0.35767
  -0.21467  -0.07043   0.47737
  -0.15487  -0.13023   0.53727
  -0.09497  -0.07043   0.59707
  -0.03517  -0.07043   0.59707
   0.02473  -0.13023   0.59707
   0.08463  -0.13023   0.65697
   0.14443  -0.13023   0.71687
   0.26413  -0.13023   0.89637
   0.32403  -0.19013   0.83657
   0.38383  -0.19013   0.71687
   0.50353  -0.13023   0.77667
   0.56343  -0.13023   0.77667
   0.62323  -0.24993   0.77667
   0.62323  -0.24993   0.83657
   0.68313  -0.19013   0.77667
   0.74303  -0.24993   0.65697
   0.74303  -0.36963   0.59707
   0.68313  -0.36963   0.47737
   0.68313  -0.36963   0.35767
   0.68313  -0.30983   0.35767
   0.62323  -0.36963   0.23797
   0.56343  -0.36963   0.11827
   0.56343  -0.24993  -0.06133
   0.56343  -0.30983  -0.18103
   0.44373  -0.30983  -0.30073
   0.38383  -0.30983  -0.36053
   0.38383  -0.30983  -0.36053
   0.32403  -0.30983  -0.42043
   0.32403  -0.13023  -0.59993
   0.20433  -0.13023  -0.59993
   0.14443  -0.13023  -0.59993
   0.02473  -0.07043  -0.59993
   0.02473  -0.07043  -0.59993
  -0.03517  -0.01053  -0.59993
  -0.03517  -0.01053  -0.59993
  -0.15487   0.04937  -0.54013
  -0.21467   0.10917  -0.48023
  -0.21467   0.10917  -0.48023
  -0.21467   0.10917  -0.42043
  -0.27457   0.16907  -0.36053
  -0.33437   0.10917  -0.24083
  -0.33437   0.04937  -0.18103
  -0.33437   0.10917  -0.06133
  -0.39427   0.16907  -0.12113
  -0.45407   0.16907  -0.06133
  -0.45407   0.04937   0.05847
  -0.51397   0.04937   0.11827
  -0.51397   0.04937   0.23797
  -0.45407   0.10917   0.35767
  -0.45407   0.10917   0.35767
  -0.45407   0.04937   0.35767
  -0.51397   0.04937   0.35767
  -0.45407   0.10917   0.41757
  -0.45407   0.04937   0.41757
  -0.39427   0.04937   0.47737
  -0.45407   0.04937   0.53727
