********************************************************************************
               CENTRO DE INSTRUMENTACION Y REGISTRO SISMICO  A.C.  
                       Coordinacion de Servicios Tecnicos
     Anaxagoras 814, Col. Narvarte, Benito Juarez, C.P. 03020 Mexico, D.F.
            Tels. 667 45 42/ 687 45  82             Fax. 669 25 12
********************************************************************************
ARCHIVO ESTANDAR DE ACELERACION:
VERSION DEL FORMATO                    : 2.0
NOMBRE DEL ARCHIVO                     : AL019712.161
FECHA Y HORA DE CREACION               : 18/MAR/98, 13:30
REF. CATALOGO ACELEROGRAMAS, SMIS 1996 : REGISTRO No.     /PAG.


================================================================================
DATOS DE LA ESTACION:
NOMBRE DE LA ESTACION                  : ALAMEDA
CLAVE DE LA ESTACION                   : AL01
LOCALIZACION DE LA ESTACION            : JARDIN ALAMEDA ENTRE AV. HIDALGO Y AV.
                                       : JUAREZ, CENTRO
                                       :
                                       :
                                       :
COORDENADAS DE LA ESTACION             : 19.436 LAT. N 
                                       : 99.145 LONG. W 
ALTITUD (msnm)                         : 2232
TIPO DE SUELO                          : TERRENO BLANDO, MATERIAL COMPRESIBLE
                                       : (ARCILLAS)
                                       : 
INSTITUCION RESPONSABLE                : CIRES 
                                       :

================================================================================
DATOS DEL ACELEROGRAFO:
MODELO DEL ACELEROGRAFO                : SSA-1
NUMERO DE SERIE DEL ACELEROGRAFO       : 152
NUMERO DE CANALES                      : 3
ORIENTACION C1-C6 (rumbo;orientacion)  : /N00E/+V/N90E
ORIENTACION C7-C12 (rumbo;orientacion) :
VEL. DE MUESTREO, C1-C6 (muestras/s)   : /200/200/200
VEL. DE MUESTREO, C7-C12 (muestras/s)  :
ESC. COMPLETA DE SENSORES, C1-C6, (g)  : /2/2/2
ESC. COMPLETA DE SENSORES, C7-C12, (g) :
FREC. NAT. DE SENSORES, C1-C6, (Hz)    : /51.29/51.09/53.75
FREC. NAT. DE SENSORES, C7-C12, (Hz)   :
AMORTIGUAMIENTO DE SENSORES, C1-C6     : /.5519/.5670/.5810
AMORTIGUAMIENTO DE SENSORES, C7-C12    :
INTERVALO DE MUESTREO, C1-C6, (s)      : /0.005/0.005/0.005
INTERVALO DE MUESTREO, C7-C12, (s)     :
UMBRAL DE DISPARO, C1-C6, (Gal)        : /2/1.5/2
UMBRAL DE DISPARO, C7-C12, (Gal)       :
MEMORIA DE PREEVENTO (s)               : 15
TIEMPO DE POSEVENTO (s)                : 60


================================================================================
DATOS DEL SISMO:
FECHA DEL SISMO (GMT)                  : 16/DIC/97
HORA EPICENTRO (GMT)                   : 11:44:02,0
MAGNITUD(ES)                           : /Mb=5.5/Ms=5.5/Mc=4.7
COORDENADAS DEL EPICENTRO              : 15.95 LAT. N
                                       : 99.05 LONG. W
PROFUNDIDAD FOCAL (km)                 : 4
FUENTE DE LOS DATOS EPICENTRALES       : SSN
                                       : INSTITUTO DE GEOFISICA, UNAM

================================================================================
DATOS DE ESTE REGISTRO:
HORA DE LA PRIMERA MUESTRA (GMT)       : 11:50:17.00
EXACTITUD DEL TIEMPO (s)               :     
DURACION DEL REGISTRO (s), C1-C6       : /106.24/106.24/106.24
DURACION DEL REGISTRO (s), C7-C12      :
NUM. TOTAL DE MUESTRAS, C1-C6          : /21248/21248/21248
NUM. TOTAL DE MUESTRAS, C7-C12         :
ACEL. MAX. (Gal), C1-C6                : /3.48930/1.63534/3.63292
ACEL. MAX., C1-C6, EN LA MUESTRA       :
ACEL. MAX. (Gal), C7-C12               :
ACEL. MAX., C7-C12, EN LA MUESTRA      :
UNIDADES DE LOS DATOS                  : Gal (cm/s/s)
FACTOR DE DECIMACION                   : 1
FORMATO DATOS (FORTRAN,10 campos/dato) : 3F10.5


================================================================================
CALIDAD DEL ACELEROGRAMA:
REGISTRO DIGITAL COMPLETO, CARECE DE TIEMPO ABSOLUTO.


================================================================================
COMENTARIOS:














================================================================================
DATOS DE ACELERACION:
---------+---------+---------+---------+---------+---------+---------+---------+
   CANAL-1   CANAL-2   CANAL-3   CANAL-4   CANAL-5   CANAL-6   CANAL-7   CANAL-8
      N00E        +V      N90E
---------+---------+---------+---------+---------+---------+---------+---------+
[...]
   1.54070   0.91534   0.19708
   1.78070   0.67534   0.19708
   1.54070   0.43534   0.19708
   1.54070   0.19534   0.19708
   1.54070  -0.04466   0.19708
   1.30070  -0.04466   0.19708
   1.30070  -0.04466   0.19708
   1.06070  -0.04466   0.43708
   0.82070  -0.04466   0.43708
   0.58070   0.19534   0.43708
   0.34070   0.43534   0.43708
   0.34070   0.67534   0.43708
   0.10070   0.91534   0.43708
   0.10070   1.15534   0.43708
   0.10070   1.39534   0.43708
   0.10070   1.63534   0.43708
   0.34070   1.63534   0.43708
   0.34070   1.63534   0.43708
   0.34070   1.63534   0.19708
   0.34070   1.39534   0.19708
   0.34070   1.39534   0.19708
   0.34070   1.15534   0.19708
   0.34070   1.15534   0.19708
   0.10070   0.91534   0.43708
   0.10070   0.91534   0.43708
   0.10070   0.91534   0.43708
  -0.13930   0.91534   0.43708
  -0.13930   0.91534   0.43708
  -0.13930   0.91534   0.43708
  -0.37930   0.91534   0.19708
  -0.37930   1.15534   0.43708
  -0.61930   1.15534   0.43708
  -0.61930   1.15534   0.43708
  -0.61930   1.15534   0.43708
  -0.61930   1.15534   0.19708
  -0.85930   1.15534   0.19708
  -0.85930   1.15534   0.19708
  -0.61930   1.15534   0.19708
  -0.85930   1.15534   0.19708
  -0.85930   1.15534   0.19708
  -0.85930   1.15534   0.19708
  -0.85930   0.91534   0.19708
  -0.85930   0.91534   0.19708
  -0.85930   0.91534   0.19708
  -1.09930   0.91534   0.19708
  -1.09930   0.91534   0.19708
  -1.09930   0.67534   0.19708
  -1.09930   0.67534   0.19708
  -1.33930   0.67534  -0.04292
  -1.33930   0.67534  -0.04292
  -1.33930   0.67534  -0.04292
  -1.57930   0.67534  -0.04292
  -1.33930   0.67534  -0.28292
  -1.57930   0.67534  -0.28292
  -1.57930   0.67534  -0.28292
  -1.57930   0.43534  -0.28292
  -1.57930   0.43534  -0.28292
  -1.57930   0.43534  -0.52292
  -1.57930   0.43534  -0.52292
  -1.57930   0.43534  -0.52292
  -1.57930   0.43534  -0.52292
  -1.57930   0.43534  -0.52292
  -1.57930   0.19534  -0.52292
  -1.81930   0.43534  -0.52292
  -1.81930   0.43534  -0.52292
  -1.81930   0.43534  -0.52292
  -1.81930   0.19534  -0.75292
  -1.81930   0.43534  -0.75292
  -1.81930   0.43534  -0.75292
  -2.04930   0.19534  -0.75292
  -1.81930   0.43534  -0.75292
  -1.57930   0.19534  -0.75292
  -1.57930   0.19534  -0.75292
  -1.57930   0.19534  -0.75292
  -1.57930   0.19534  -0.99292
  -1.57930  -0.04466  -0.75292
  -1.57930  -0.04466  -0.75292
  -1.57930  -0.04466  -0.75292
  -1.33930  -0.04466  -0.75292
  -1.33930  -0.04466  -0.99292
  -1.33930  -0.04466  -0.75292
  -1.33930  -0.04466  -0.75292
  -1.33930  -0.04466  -0.75292
  -1.33930  -0.04466  -0.75292
  -1.33930  -0.04466  -0.99292
  -1.09930  -0.28466  -0.75292
  -1.33930  -0.28466  -0.75292
  -1.09930  -0.28466  -0.75292
  -1.09930  -0.28466  -0.75292
  -1.09930  -0.28466  -0.75292
  -1.09930  -0.28466  -0.75292
  -1.09930  -0.52466  -0.75292
  -0.85930  -0.52466  -0.75292
  -0.85930  -0.52466  -0.52292
  -0.85930  -0.52466  -0.52292
  -0.61930  -0.76466  -0.52292
  -0.61930  -0.76466  -0.28292
  -0.61930  -0.76466  -0.28292
  -0.61930  -0.76466  -0.28292
  -0.61930  -0.76466  -0.28292
  -0.61930  -0.76466  -0.28292
  -0.61930  -0.76466  -0.28292
  -0.37930  -0.76466  -0.28292
  -0.37930  -0.76466  -0.28292
  -0.37930  -0.76466  -0.28292
  -0.61930  -1.00466  -0.28292
  -0.37930  -1.00466  -0.28292
  -0.37930  -1.00466  -0.28292
  -0.61930  -1.00466  -0.28292
  -0.37930  -1.00466  -0.04292
  -0.61930  -1.00466  -0.04292
  -0.37930  -1.00466  -0.04292
  -0.37930  -1.00466   0.19708
  -0.37930  -1.00466   0.19708
  -0.37930  -1.00466   0.19708
  -0.13930  -1.00466   0.43708
  -0.13930  -0.76466   0.43708
  -0.37930  -0.76466   0.43708
  -0.13930  -0.76466   0.43708
  -0.13930  -0.76466   0.19708
  -0.13930  -1.00466   0.19708
  -0.13930  -0.76466   0.19708
  -0.13930  -0.76466  -0.04292
  -0.37930  -0.76466  -0.04292
  -0.37930  -0.76466  -0.04292
  -0.37930  -0.76466  -0.04292
  -0.37930  -0.52466   0.19708
  -0.37930  -0.52466   0.19708
  -0.37930  -0.52466   0.19708
  -0.37930  -0.52466   0.19708
  -0.37930  -0.52466   0.43708
  -0.37930  -0.28466   0.43708
  -0.37930  -0.28466   0.43708
  -0.37930  -0.28466   0.43708
  -0.37930  -0.28466   0.43708
  -0.13930  -0.28466   0.43708
  -0.13930  -0.28466   0.43708
  -0.37930  -0.04466   0.43708
  -0.37930  -0.04466   0.43708
  -0.37930  -0.28466   0.19708
  -0.37930  -0.04466   0.19708
  -0.37930  -0.04466  -0.04292
  -0.61930  -0.04466  -0.04292
  -0.37930  -0.04466  -0.04292
  -0.37930  -0.04466  -0.04292
  -0.37930  -0.04466   0.19708
  -0.37930  -0.04466   0.19708
  -0.37930  -0.04466   0.19708
  -0.37930   0.19534   0.19708
  -0.37930   0.19534   0.19708
  -0.37930   0.19534   0.19708
  -0.37930   0.19534   0.19708
  -0.37930   0.19534   0.19708
  -0.37930   0.19534   0.19708
  -0.37930   0.19534   0.19708
  -0.61930   0.19534   0.19708
  -0.61930   0.19534  -0.04292
  -0.37930   0.43534  -0.04292
  -0.37930   0.19534  -0.04292
  -0.37930   0.43534  -0.04292
  -0.37930   0.43534  -0.04292
  -0.37930   0.43534  -0.04292
  -0.37930   0.43534  -0.04292
  -0.37930   0.43534  -0.04292
  -0.37930   0.43534  -0.04292
  -0.37930   0.43534  -0.04292
  -0.37930   0.43534  -0.04292
  -0.61930   0.43534  -0.04292
  -0.37930   0.43534  -0.04292
  -0.37930   0.43534  -0.04292
  -0.37930   0.19534  -0.04292
  -0.37930   0.43534  -0.04292
  -0.37930   0.19534  -0.04292
  -0.37930   0.19534  -0.04292
  -0.37930   0.19534  -0.28292
  -0.37930   0.19534  -0.04292
  -0.37930   0.19534  -0.04292
  -0.61930   0.19534  -0.04292
  -0.37930   0.19534  -0.04292
  -0.13930   0.19534  -0.04292
  -0.13930   0.19534   0.19708
  -0.13930   0.19534   0.19708
  -0.13930   0.19534   0.19708
  -0.13930   0.19534  -0.04292
  -0.13930   0.19534  -0.04292
  -0.13930   0.19534  -0.04292
  -0.13930   0.19534  -0.04292
  -0.13930   0.19534  -0.04292
  -0.13930   0.19534  -0.04292
  -0.13930   0.19534  -0.04292
  -0.13930  -0.04466   0.19708
   0.10070  -0.04466   0.19708
   0.10070  -0.04466   0.19708
   0.10070  -0.04466   0.19708
   0.10070  -0.04466   0.19708
   0.10070  -0.04466   0.19708
   0.10070  -0.04466   0.19708
   0.10070  -0.04466   0.19708
   0.10070   0.19534   0.19708
   0.34070  -0.04466   0.19708
   0.34070  -0.04466   0.19708
   0.34070  -0.04466   0.19708
   0.34070  -0.04466  -0.04292
   0.34070  -0.04466  -0.04292
   0.34070  -0.04466   0.19708
   0.34070  -0.04466   0.19708
   0.58070  -0.04466   0.19708
   0.34070  -0.04466   0.19708
   0.34070  -0.04466   0.19708
   0.58070  -0.04466   0.19708
   0.34070  -0.04466  -0.04292
   0.34070  -0.04466  -0.04292
   0.34070  -0.04466  -0.04292
   0.34070  -0.04466  -0.04292
   0.58070  -0.04466  -0.04292
   0.34070  -0.04466  -0.04292
   0.58070  -0.04466  -0.28292
   0.58070  -0.04466  -0.28292
   0.58070  -0.04466  -0.28292
   0.58070  -0.04466  -0.28292
   0.58070  -0.04466  -0.28292
   0.58070  -0.04466  -0.52292
   0.58070  -0.04466  -0.52292
   0.58070  -0.04466  -0.52292
   0.58070  -0.04466  -0.52292
   0.58070  -0.04466  -0.52292
   0.58070  -0.04466  -0.52292
   0.58070  -0.04466  -0.52292
   0.58070  -0.04466  -0.75292
   0.58070  -0.04466  -0.75292
   0.58070  -0.04466  -0.75292
   0.58070  -0.04466  -0.75292
   0.58070  -0.04466  -0.75292
   0.58070  -0.04466  -0.75292
   0.58070  -0.04466  -0.99292
   0.58070  -0.04466  -0.99292
   0.58070  -0.04466  -1.23292
   0.34070  -0.04466  -1.23292
   0.58070  -0.04466  -1.23292
   0.58070  -0.04466  -1.23292
   0.58070  -0.04466  -1.47292
   0.58070  -0.28466  -1.47292
   0.58070  -0.04466  -1.47292
   0.58070  -0.04466  -1.47292
   0.58070  -0.28466  -1.47292
   0.58070  -0.04466  -1.47292
   0.58070  -0.28466  -1.47292
   0.58070  -0.28466  -1.71292
   0.58070  -0.04466  -1.71292
   0.58070  -0.04466  -1.71292
   0.58070  -0.04466  -1.71292
   0.58070  -0.04466  -1.71292
   0.58070  -0.04466  -1.95292
   0.58070  -0.04466  -1.95292
   0.58070  -0.04466  -1.95292
   0.34070  -0.04466  -1.95292
   0.34070  -0.04466  -1.95292
   0.34070  -0.04466  -1.95292
   0.34070  -0.04466  -1.95292
   0.34070  -0.04466  -1.95292
   0.34070  -0.04466  -1.95292
   0.34070   0.19534  -2.19292
   0.34070   0.19534  -2.19292
   0.34070   0.19534  -2.19292
   0.34070   0.19534  -2.19292
   0.34070   0.19534  -2.19292
   0.34070   0.19534  -2.19292
   0.34070   0.19534  -2.19292
   0.34070   0.19534  -2.19292
   0.34070   0.19534  -2.19292
   0.34070   0.43534  -2.19292
   0.34070   0.43534  -1.95292
   0.34070   0.43534  -1.95292
   0.34070   0.43534  -1.95292
   0.10070   0.43534  -1.95292
   0.34070   0.43534  -2.19292
   0.34070   0.43534  -1.95292
   0.10070   0.43534  -1.95292
   0.34070   0.43534  -1.95292
   0.34070   0.43534  -1.95292
   0.34070   0.43534  -1.95292
   0.10070   0.43534  -1.95292
   0.10070   0.43534  -1.95292
   0.10070   0.43534  -1.71292
   0.10070   0.43534  -1.71292
   0.10070   0.43534  -1.71292
   0.10070   0.43534  -1.47292
   0.10070   0.43534  -1.47292
   0.10070   0.43534  -1.47292
   0.10070   0.43534  -1.47292
   0.10070   0.43534  -1.47292
   0.10070   0.43534  -1.47292
   0.10070   0.43534  -1.23292
   0.10070   0.43534  -1.23292
   0.10070   0.43534  -1.23292
   0.10070   0.19534  -1.23292
   0.34070   0.19534  -0.99292
   0.34070   0.19534  -0.99292
   0.34070   0.19534  -0.99292
   0.34070   0.19534  -0.75292
   0.34070   0.19534  -0.75292
   0.10070   0.19534  -0.75292
   0.34070   0.19534  -0.75292
   0.34070  -0.04466  -0.52292
   0.34070  -0.04466  -0.52292
   0.34070  -0.04466  -0.52292
   0.34070  -0.04466  -0.28292
   0.34070  -0.04466  -0.52292
   0.34070  -0.04466  -0.28292
   0.34070  -0.04466  -0.04292
   0.34070  -0.04466  -0.04292
   0.34070  -0.04466  -0.04292
   0.34070  -0.04466   0.19708
   0.34070  -0.04466   0.19708
   0.34070  -0.04466   0.43708
   0.10070  -0.04466   0.43708
   0.58070  -0.04466   0.43708
   0.34070  -0.04466   0.67708
   0.34070  -0.28466   0.67708
   0.34070  -0.04466   0.91708
   0.34070  -0.28466   0.91708
   0.10070  -0.28466   1.15708
   0.34070  -0.28466   1.15708
   0.34070  -0.28466   1.39708
   0.34070  -0.28466   1.39708
   0.34070  -0.28466   1.63708
   0.34070  -0.28466   1.63708
   0.34070  -0.28466   1.87708
   0.34070  -0.28466   1.87708
   0.34070  -0.28466   1.87708
   0.34070  -0.28466   2.11708
   0.34070  -0.28466   2.11708
   0.34070  -0.28466   2.11708
   0.34070  -0.28466   2.35708
   0.34070  -0.04466   2.35708
   0.34070  -0.28466   2.59708
   0.34070  -0.28466   2.59708
   0.10070  -0.28466   2.59708
   0.10070  -0.28466   2.83708
   0.10070  -0.04466   2.83708
   0.10070  -0.04466   2.83708
   0.10070  -0.04466   3.07708
   0.10070  -0.04466   3.07708
   0.10070  -0.04466   3.07708
   0.10070  -0.04466   3.31708
   0.10070  -0.04466   3.31708
   0.10070  -0.04466   3.31708
   0.10070  -0.04466   3.31708
   0.10070  -0.04466   3.31708
   0.10070  -0.04466   3.55708
   0.10070  -0.04466   3.07708
   0.10070  -0.04466   3.55708
   0.10070  -0.04466   3.55708
   0.10070  -0.04466   3.55708
   0.10070  -0.04466   3.55708
  -0.13930  -0.04466   3.55708
   0.10070  -0.04466   3.55708
   0.10070  -0.04466   3.55708
   0.10070  -0.04466   3.55708
   0.10070  -0.04466   3.55708
   0.10070  -0.04466   3.55708
   0.10070  -0.04466   3.55708
   0.10070  -0.04466   3.55708
   0.34070  -0.04466   3.55708
   0.34070  -0.04466   3.31708
   0.34070  -0.04466   3.31708
   0.34070  -0.04466   3.31708
   0.34070  -0.04466   3.31708
   0.10070  -0.04466   3.31708
   0.34070  -0.04466   3.07708
   0.10070  -0.04466   3.07708
   0.34070  -0.04466   3.07708
   0.34070  -0.04466   3.07708
   0.34070  -0.04466   2.83708
   0.34070  -0.04466   2.83708
   0.34070  -0.04466   2.83708
   0.34070  -0.04466   2.59708
   0.34070  -0.04466   2.59708
   0.34070  -0.04466   2.11708
   0.58070  -0.04466   2.35708
   0.58070  -0.04466   2.11708
   0.34070  -0.04466   2.11708
   0.58070  -0.04466   2.11708
   0.58070  -0.04466   2.11708
   0.34070  -0.28466   1.87708
   0.34070  -0.04466   1.87708
   0.34070  -0.04466   1.87708
   0.34070  -0.04466   1.63708
   0.34070  -0.04466   1.63708
   0.34070  -0.04466   1.39708
   0.34070  -0.04466   1.39708
   0.34070  -0.04466   1.39708
   0.34070  -0.04466   1.15708
   0.34070  -0.04466   1.15708
   0.34070  -0.28466   0.91708
   0.34070  -0.04466   0.91708
   0.34070  -0.04466   0.91708
   0.34070  -0.04466   0.91708
   0.34070  -0.28466   0.91708
   0.34070  -0.28466   0.91708
   0.34070  -0.28466   0.67708
   0.34070  -0.28466   0.67708
   0.10070  -0.28466   0.43708
   0.10070  -0.28466   0.67708
   0.10070  -0.28466   0.67708
   0.10070  -0.28466   0.67708
   0.10070  -0.28466   0.43708
  -0.13930  -0.28466   0.43708
  -0.13930  -0.28466   0.43708
  -0.13930  -0.28466   0.43708
  -0.13930  -0.28466   0.43708
  -0.13930  -0.52466   0.43708
  -0.13930  -0.28466   0.43708
  -0.13930  -0.28466   0.19708
  -0.13930  -0.28466   0.19708
  -0.13930  -0.52466   0.43708
  -0.13930  -0.52466   0.43708
  -0.37930  -0.52466   0.19708
  -0.37930  -0.52466   0.43708
  -0.37930  -0.28466   0.19708
  -0.37930  -0.28466   0.19708
  -0.37930  -0.28466   0.43708
  -0.37930  -0.28466   0.19708
  -0.61930  -0.28466   0.19708
  -0.61930  -0.28466   0.19708
  -0.61930  -0.28466   0.19708
  -0.61930  -0.28466   0.19708
  -0.61930  -0.28466   0.19708
  -0.61930  -0.28466   0.19708
  -0.61930  -0.28466   0.19708
  -0.61930  -0.28466   0.19708
  -0.61930  -0.28466   0.19708
  -0.61930  -0.28466   0.19708
  -0.61930  -0.28466   0.19708
  -0.61930  -0.28466   0.19708
  -0.85930  -0.04466   0.19708
  -0.85930  -0.28466   0.19708
  -0.61930  -0.28466   0.19708
  -0.85930  -0.04466   0.19708
  -0.85930  -0.28466   0.19708
  -0.85930  -0.04466   0.19708
  -0.85930  -0.04466   0.19708
  -0.61930  -0.04466   0.19708
  -0.85930  -0.04466   0.19708
  -0.85930  -0.04466  -0.04292
  -0.85930  -0.04466  -0.04292
  -0.85930  -0.04466  -0.04292
  -0.85930  -0.04466  -0.04292
  -0.85930  -0.04466  -0.04292
  -0.85930  -0.04466  -0.04292
  -0.85930  -0.04466  -0.04292
  -0.85930  -0.04466  -0.04292
  -0.85930  -0.04466  -0.04292
  -0.85930  -0.04466  -0.04292
  -0.85930  -0.04466  -0.04292
  -0.85930  -0.04466  -0.04292
  -0.85930  -0.04466  -0.04292
  -0.85930  -0.04466  -0.04292
  -0.85930   0.19534  -0.04292
  -0.85930   0.19534  -0.04292
  -0.85930   0.19534  -0.28292
  -0.85930   0.19534  -0.28292
  -0.85930   0.19534  -0.28292
  -1.09930   0.19534  -0.28292
  -1.09930   0.19534  -0.28292
  -1.09930   0.19534  -0.28292
  -1.09930   0.19534  -0.52292
  -1.09930   0.19534  -0.28292
  -1.09930   0.19534  -0.28292
  -1.09930   0.19534  -0.52292
  -1.09930   0.19534  -0.52292
  -1.09930   0.19534  -0.52292
  -1.09930   0.19534  -0.52292
  -1.09930   0.43534  -0.52292
  -1.09930   0.43534  -0.52292
  -1.09930   0.43534  -0.52292
  -0.85930   0.43534  -0.75292
  -0.85930   0.43534  -0.52292
  -0.85930   0.43534  -0.52292
  -0.85930   0.43534  -0.75292
  -0.85930   0.43534  -0.75292
  -1.09930   0.43534  -0.99292
  -1.09930   0.43534  -0.99292
  -0.85930   0.43534  -0.99292
  -0.85930   0.43534  -1.23292
  -0.85930   0.43534  -1.23292
  -0.85930   0.43534  -1.23292
  -0.85930   0.43534  -1.23292
  -0.85930   0.43534  -1.23292
  -0.85930   0.67534  -1.23292
  -0.85930   0.67534  -1.47292
  -0.85930   0.67534  -1.47292
  -0.61930   0.67534  -1.47292
  -0.61930   0.67534  -1.71292
  -0.61930   0.67534  -1.71292
  -0.61930   0.67534  -1.71292
  -0.61930   0.67534  -1.71292
  -0.61930   0.67534  -1.95292
  -0.61930   0.67534  -1.95292
  -0.61930   0.67534  -1.95292
