********************************************************************************
              CENTRO DE INSTRUMENTACION Y REGISTRO SISMICO  A.C.

    Anaxagoras 814, Col. Narvarte, Benito Juarez, C.P. 03020 Mexico, D.F.
           Tels. 5687 45 42/ 5687 45  82             Fax. 5669 25 12
********************************************************************************
ARCHIVO ESTANDAR DE ACELERACION:
VERSION DEL FORMATO                    : 2.0
NOMBRE DEL ARCHIVO                     : AL0120130220212311
FECHA Y HORA DE CREACION               : 11/MAR/13, 10:48
REF. CATALOGO ACELEROGRAMAS, SMIS 1996 : REGISTRO No.     /PAG.


================================================================================
DATOS DE LA ESTACION:
NOMBRE DE LA ESTACION                  : ALAMEDA
CLAVE DE LA ESTACION                   : AL01
LOCALIZACION DE LA ESTACION            : Del. Cuauhtémoc, Col. Centro,          
                                       : Dr. Mora entre Av. Hidalgo             
                                       : y Av. Juárez.                          
                                       :                                        
                                       : 
COORDENADAS DE LA ESTACION             : 19.4356 LAT. N
                                       : 99.1453 LONG. W
ALTITUD (msnm)                         : 2232
TIPO DE SUELO                          : Terreno blando, material compresible
                                       : (arcillas)                
                                       : 
INSTITUCION RESPONSABLE                : CIRES
                                       : 

================================================================================
DATOS DEL ACELEROGRAFO:
MODELO DEL ACELEROGRAFO                : RADESD
NUMERO DE SERIE DEL ACELEROGRAFO       : 152
NUMERO DE CANALES                      : 3
ORIENTACION C1-C6 (rumbo;orientacion)  : /N00E/+V/N90W
ORIENTACION C7-C12 (rumbo;orientacion) : 
VEL. DE MUESTREO, C1-C6 (muestras/s)   : /100/100/100
VEL. DE MUESTREO, C7-C12 (muestras/s)  : 
ESC. COMPLETA DE SENSORES, C1-C6, (g)  : /0.5/0.5/0.5
ESC. COMPLETA DE SENSORES, C7-C12, (g) : 
FREC. NAT. DE SENSORES, C1-C6, (Hz)    : /51.29/51.09/53.75
FREC. NAT. DE SENSORES, C7-C12, (Hz)   : 
AMORTIGUAMIENTO DE SENSORES, C1-C6     : /0.5519/0.5670/0.5810
AMORTIGUAMIENTO DE SENSORES, C7-C12    : 
INTERVALO DE MUESTREO, C1-C6, (s)      : /0.01/0.01/0.01
INTERVALO DE MUESTREO, C7-C12, (s)     : 
UMBRAL DE DISPARO, C1-C6, (Gal)        : /14.37/28.73/14.37
UMBRAL DE DISPARO, C7-C12, (Gal)       : 
MEMORIA DE PREEVENTO (s)               : 56.0
TIEMPO DE POSEVENTO (s)                : 80.0


================================================================================
DATOS DEL SISMO:
FECHA DEL SISMO (GMT)                  : 20/FEB/13
HORA EPICENTRO (GMT)                   : 21:23:11.0
MAGNITUD(ES)                           : /Mc=5.6
COORDENADAS DEL EPICENTRO              : 18.60 LAT. N
                                       : 104.04 LONG. W
PROFUNDIDAD FOCAL (km)                 : 5
FUENTE DE LOS DATOS EPICENTRALES       : SSN
                                       : INSTITUTO DE GEOFISICA, UNAM

================================================================================
DATOS DE ESTE REGISTRO:
HORA DE LA PRIMERA MUESTRA (GMT)       : 21:25:44.00
EXACTITUD DEL TIEMPO (s)               : 0.01
DURACION DEL REGISTRO (s), C1-C6       : /143.8/143.8/143.8
DURACION DEL REGISTRO (s), C7-C12      : 
NUM. TOTAL DE MUESTRAS, C1-C6          : /14380/14380/14380
NUM. TOTAL DE MUESTRAS, C7-C12         : 
ACEL. MAX. (Gal), C1-C6                : /1.20988/0.56776/1.1618
ACEL. MAX., C1-C6, EN LA MUESTRA       : /6135/11434/4386
ACEL. MAX. (Gal), C7-C12               : 
ACEL. MAX., C7-C12, EN LA MUESTRA      : 
UNIDADES DE LOS DATOS                  : Gal (cm/s/s)
FACTOR DE DECIMACION                   : 1
FORMATO DATOS (FORTRAN,10 campos/dato) : 3F10.5


================================================================================
CALIDAD DEL ACELEROGRAMA:
REGISTRO DIGITAL COMPLETO CON TIEMPO ABSOLUTO CORRECTO.


================================================================================
COMENTARIOS:














================================================================================
DATOS DE ACELERACION:
---------+---------+---------+---------+---------+---------+---------+---------+
   CANAL-1   CANAL-2   CANAL-3   CANAL-4   CANAL-5   CANAL-6   CANAL-7   CANAL-8
      N00E        +V      N90W
---------+---------+---------+---------+---------+---------+---------+---------+
[...]
  -0.24161   0.19539   0.38368
  -0.22664   0.19539   0.51835
  -0.28650   0.27021   0.38368
  -0.30146   0.22532   0.47346
  -0.22664   0.19539   0.35375
  -0.25657   0.24028   0.47346
  -0.19672   0.22532   0.35375
  -0.16679   0.15050   0.39864
  -0.07701   0.24028   0.47346
  -0.07701   0.12057   0.45850
  -0.04708   0.19539   0.44354
   0.04270   0.12057   0.51835
   0.02774   0.09065   0.50339
   0.14745   0.04575   0.38368
   0.16241   0.04575   0.57821
   0.16241   0.01583   0.47346
   0.20731  -0.04403   0.50339
   0.26716  -0.02906   0.47346
   0.35694  -0.10388   0.57821
   0.37191  -0.04403   0.44354
   0.43176  -0.14877   0.54828
   0.46169  -0.08892   0.54828
   0.53651  -0.23856   0.47346
   0.53651  -0.22359   0.63806
   0.58140  -0.23856   0.53332
   0.61133  -0.22359   0.59317
   0.67118  -0.22359   0.53332
   0.79089  -0.34330   0.53332
   0.70111  -0.22359   0.56325
   0.79089  -0.26849   0.45850
   0.77593  -0.19367   0.50339
   0.77593  -0.17870   0.47346
   0.80586  -0.20863   0.36872
   0.80586  -0.23856   0.48843
   0.77593  -0.26849   0.32382
   0.79089  -0.26849   0.33879
   0.77593  -0.16374   0.35375
   0.76096  -0.25352   0.23404
   0.73104  -0.13381   0.29390
   0.74600  -0.19367   0.21908
   0.68615  -0.11885   0.21908
   0.71607  -0.05899   0.21908
   0.70111  -0.02906   0.11433
   0.73104  -0.07396   0.09937
   0.64125  -0.10388  -0.11012
   0.61133   8.6E-40  -0.08020
   0.55147   0.01583  -0.02034
   0.59636   0.06072  -0.08020
   0.44673   0.04575  -0.11012
   0.47665  -0.01410  -0.21487
   0.47665   0.04575  -0.21487
   0.35694   0.15050  -0.31962
   0.35694   0.09065  -0.21487
   0.34198   0.03079  -0.30465
   0.23723   0.16546  -0.37947
   0.29709   0.06072  -0.39444
   0.23723   0.04575  -0.54407
   0.16241   0.15050  -0.51415
   0.20731   0.01583  -0.51415
   0.17738   0.04575  -0.57400
   0.10256   0.06072  -0.60393
   0.08760   0.10561  -0.58896
   0.05767   8.6E-40  -0.66378
   0.05767   0.06072  -0.67875
  -0.09197   0.06072  -0.61889
  -0.03211   0.04575  -0.76853
   0.02774   0.09065  -0.60393
  -0.03211   0.10561  -0.64882
  -0.09197  -0.02906  -0.72364
  -0.15182   0.03079  -0.76853
  -0.10693   0.03079  -0.72364
  -0.19672   8.6E-40  -0.73860
  -0.15182  -0.07396  -0.78349
  -0.24161   0.04575  -0.75357
  -0.21168  -0.04403  -0.70867
  -0.27154  -0.04403  -0.85831
  -0.25657  -0.04403  -0.81342
  -0.31643  -0.01410  -0.85831
  -0.31643   0.06072  -0.82838
  -0.34635   8.6E-40  -0.81342
  -0.40621  -0.01410  -0.82838
  -0.42117  -0.01410  -0.76853
  -0.43614  -0.04403  -0.91817
  -0.52592  -0.07396  -0.81342
  -0.55585  -0.07396  -0.94809
  -0.57081  -0.01410  -0.94809
  -0.51096   0.03079  -0.85831
  -0.55585  -0.01410  -0.91817
  -0.61570   0.07568  -0.81342
  -0.67556  -0.04403  -0.73860
  -0.69052  -0.14877  -0.84335
  -0.72045  -0.05899  -0.69371
  -0.73541  -0.13381  -0.82838
  -0.72045  -0.04403  -0.66378
  -0.78030  -0.05899  -0.57400
  -0.82519  -0.11885  -0.67875
  -0.79527  -0.10388  -0.48422
  -0.82519  -0.17870  -0.54407
  -0.87009  -0.04403  -0.45429
  -0.88505  -0.02906  -0.46925
  -0.90001  -0.14877  -0.43933
  -0.87009  -0.07396  -0.30465
  -0.87009  -0.05899  -0.24480
  -0.90001  -0.10388  -0.27473
  -0.95987  -0.10388  -0.19991
  -0.95987  -0.13381  -0.15502
  -0.88505  -0.04403  -0.06523
  -0.91498   0.04575  -0.00538
  -0.84016   0.06072   0.00959
  -0.87009  -0.04403  -0.05027
  -0.81023   0.03079   0.12930
  -0.82519   0.07568   0.12930
  -0.79527   0.09065   0.15922
  -0.84016   0.16546   0.20411
  -0.82519   0.03079   0.15922
  -0.79527   0.01583   0.15922
  -0.78030   0.10561   0.29390
  -0.75038   0.13554   0.29390
  -0.70548   0.18043   0.29390
  -0.63067   0.09065   0.41361
  -0.63067   0.15050   0.39864
  -0.57081   0.07568   0.42857
  -0.61570  -0.01410   0.26397
  -0.55585   0.03079   0.30886
  -0.51096   0.04575   0.36872
  -0.45110   0.04575   0.45850
  -0.51096  -0.04403   0.47346
  -0.42117  -0.14877   0.39864
  -0.43614  -0.05899   0.50339
  -0.36132  -0.08892   0.39864
  -0.34635  -0.05899   0.48843
  -0.25657  -0.05899   0.51835
  -0.13686   0.01583   0.60814
  -0.15182  -0.02906   0.53332
  -0.09197   0.03079   0.53332
  -0.09197   0.04575   0.63806
   0.04270  -0.02906   0.72785
   0.11752  -0.02906   0.60814
   0.07263   0.06072   0.69792
   0.19234   0.01583   0.69792
   0.20731   8.6E-40   0.68296
   0.31205  -0.02906   0.71288
   0.29709  -0.01410   0.71288
   0.44673   0.06072   0.81763
   0.44673   0.07568   0.74281
   0.53651   0.04575   0.75777
   0.52154  -0.02906   0.69792
   0.55147   0.10561   0.77274
   0.59636   0.07568   0.77274
   0.62629  -0.07396   0.68296
   0.65622  -0.07396   0.78770
   0.65622  -0.01410   0.78770
   0.71607  -0.05899   0.75777
   0.76096  -0.08892   0.62310
   0.80586  -0.14877   0.66799
   0.77593  -0.01410   0.66799
   0.76096   0.01583   0.62310
   0.79089   8.6E-40   0.68296
   0.79089  -0.02906   0.74281
   0.82082  -0.01410   0.63806
   0.83578   0.04575   0.57821
   0.88067   0.06072   0.60814
   0.89564   0.01583   0.66799
   0.86571   0.01583   0.69792
   0.82082   0.09065   0.60814
   0.80586   0.04575   0.59317
   0.76096   0.04575   0.60814
   0.83578   0.06072   0.63806
   0.86571   0.04575   0.51835
   0.91060   0.06072   0.56325
   0.80586  -0.07396   0.44354
   0.79089  -0.11885   0.39864
   0.79089   0.04575   0.38368
   0.76096  -0.02906   0.39864
   0.74600  -0.02906   0.32382
   0.70111   0.09065   0.35375
   0.77593   0.03079   0.44354
   0.74600  -0.01410   0.27893
   0.71607   0.01583   0.41361
   0.61133   0.01583   0.33879
   0.61133   0.01583   0.26397
   0.64125  -0.07396   0.21908
   0.58140  -0.04403   0.15922
   0.61133   8.6E-40   0.14426
   0.58140   8.6E-40   0.15922
   0.53651  -0.02906   0.17419
   0.61133  -0.05899   0.21908
   0.50658  -0.05899  -0.02034
   0.49162  -0.04403  -0.09516
   0.46169   0.04575  -0.03531
   0.44673   0.06072  -0.05027
   0.46169   0.04575  -0.09516
   0.41680  -0.01410  -0.19991
   0.38687   0.04575  -0.22983
   0.31205   0.13554  -0.27473
   0.28212   0.01583  -0.22983
   0.26716   0.03079  -0.40940
   0.31205   0.12057  -0.43933
   0.22227   0.07568  -0.48422
   0.23723   0.09065  -0.33458
   0.26716   0.09065  -0.55904
   0.25220   0.07568  -0.55904
   0.23723   0.16546  -0.49918
   0.16241   0.07568  -0.48422
   0.20731   0.01583  -0.67875
   0.20731   0.01583  -0.69371
   0.20731   0.13554  -0.64882
   0.17738   0.16546  -0.64882
   0.17738   0.07568  -0.66378
   0.20731   0.18043  -0.67875
   0.08760   0.13554  -0.70867
   0.16241   0.13554  -0.64882
   0.13249   0.12057  -0.64882
   0.13249   0.06072  -0.75357
   0.10256   0.12057  -0.66378
   0.07263   0.09065  -0.63386
   0.07263   0.16546  -0.72364
   0.04270   0.15050  -0.67875
  -0.00219   0.04575  -0.69371
   0.01278   0.01583  -0.72364
  -0.01715  -0.01410  -0.58896
  -0.01715  -0.02906  -0.69371
  -0.01715   0.06072  -0.69371
   0.01278  -0.01410  -0.73860
  -0.01715   0.07568  -0.61889
  -0.01715   0.04575  -0.52911
  -0.07701   0.06072  -0.69371
  -0.00219   0.04575  -0.51415
  -0.00219  -0.05899  -0.67875
  -0.01715  -0.02906  -0.55904
  -0.04708  -0.01410  -0.57400
  -0.03211  -0.07396  -0.57400
   0.01278  -0.11885  -0.55904
   0.02774  -0.05899  -0.52911
   0.02774  -0.11885  -0.42436
  -0.04708  -0.05899  -0.43933
   0.01278  -0.11885  -0.43933
   0.02774  -0.16374  -0.48422
  -0.00219  -0.01410  -0.33458
  -0.01715  -0.02906  -0.36451
  -0.01715  -0.16374  -0.27473
   0.04270  -0.19367  -0.27473
  -0.03211  -0.01410  -0.18494
  -0.07701  -0.10388  -0.12509
  -0.03211  -0.16374  -0.11012
  -0.00219  -0.19367  -0.15502
  -0.09197  -0.13381  -0.08020
  -0.19672  -0.10388   0.03951
  -0.09197  -0.10388   0.05448
  -0.16679  -0.07396   0.06944
  -0.18175  -0.10388   0.15922
  -0.10693  -0.10388   0.15922
  -0.16679  -0.13381   0.09937
  -0.15182  -0.05899   0.20411
  -0.25657  -0.10388   0.18915
  -0.30146  -0.04403   0.23404
  -0.30146  -0.08892   0.24901
  -0.28650  -0.13381   0.15922
  -0.30146  -0.08892   0.24901
  -0.34635  -0.01410   0.30886
  -0.36132  -0.08892   0.35375
  -0.31643  -0.13381   0.30886
  -0.36132  -0.20863   0.26397
  -0.30146  -0.17870   0.14426
  -0.31643  -0.02906   0.33879
  -0.45110  -0.01410   0.20411
  -0.42117  -0.07396   0.24901
  -0.36132  -0.04403   0.17419
  -0.39125  -0.10388   0.09937
  -0.40621  -0.04403   0.02455
  -0.43614  -0.02906   0.11433
  -0.37628  -0.01410   0.05448
  -0.51096   0.07568   0.02455
  -0.48103  -0.08892   0.09937
  -0.45110  -0.02906   0.00959
  -0.46606   0.04575   0.03951
  -0.43614   0.06072  -0.03531
  -0.49599   0.03079  -0.05027
  -0.57081   0.10561  -0.08020
  -0.58577   0.09065  -0.14005
  -0.55585  -0.04403  -0.08020
  -0.63067  -0.04403  -0.21487
  -0.69052  -0.01410  -0.15502
  -0.70548  -0.10388  -0.22983
  -0.67556  -0.08892  -0.16998
  -0.66059  -0.07396  -0.16998
  -0.76534  -0.04403  -0.16998
  -0.79527  -0.01410  -0.16998
  -0.81023  -0.07396  -0.15502
  -0.72045  -0.08892  -0.00538
  -0.87009  -0.17870  -0.11012
  -0.82519  -0.16374  -0.16998
  -0.87009  -0.05899  -0.05027
  -0.85512  -0.14877   0.03951
  -0.91498  -0.10388  -0.09516
  -0.91498  -0.08892  -0.03531
  -0.94490  -0.13381  -0.14005
  -1.01972  -0.08892   0.00959
  -0.94490  -0.10388   0.06944
  -0.97483  -0.19367   0.06944
  -0.98980  -0.14877   0.14426
  -1.00476  -0.17870   0.02455
  -1.01972  -0.11885   0.18915
  -0.97483  -0.11885   0.14426
  -0.98980  -0.08892   0.20411
  -0.94490  -0.13381   0.23404
  -0.92994  -0.10388   0.15922
  -0.97483  -0.11885   0.30886
  -0.88505  -0.20863   0.26397
  -0.79527  -0.19367   0.24901
  -0.84016  -0.13381   0.33879
  -0.79527  -0.16374   0.21908
  -0.79527   8.6E-40   0.24901
  -0.66059  -0.07396   0.29390
  -0.60074  -0.04403   0.36872
  -0.52592   0.01583   0.35375
  -0.51096   8.6E-40   0.35375
  -0.43614   8.6E-40   0.26397
  -0.42117   0.04575   0.26397
  -0.34635   0.06072   0.24901
  -0.18175  -0.07396   0.21908
  -0.12190   0.03079   0.29390
  -0.07701  -0.01410   0.39864
  -0.01715  -0.07396   0.35375
   0.11752   0.07568   0.24901
   0.08760   0.06072   0.21908
   0.17738   8.6E-40   0.14426
   0.26716   0.15050   0.26397
   0.43176   0.07568   0.18915
   0.38687   0.10561   0.14426
   0.49162   0.06072   0.14426
   0.55147  -0.07396   0.05448
   0.56644   0.01583   0.09937
   0.70111   0.12057   0.12930
   0.68615   0.13554   0.12930
   0.76096   0.06072  -0.12509
   0.79089   0.27021  -0.08020
   0.82082   0.27021  -0.09516
   0.92557   0.28517  -0.06523
   0.92557   0.27021  -0.09516
   0.92557   0.21036  -0.18494
   1.12009   0.25525  -0.11012
   1.09017   0.22532  -0.02034
   1.10513   0.21036  -0.11012
   1.15002   0.16546  -0.08020
   1.17995   0.15050  -0.15502
   1.20988   0.25525  -0.11012
   1.19491   0.22532  -0.18494
   1.16499   0.15050  -0.24480
   1.13506   0.15050  -0.18494
   1.16499   0.19539  -0.14005
   1.16499   0.18043  -0.14005
   1.19491   0.15050  -0.22983
   1.13506   0.18043  -0.15502
   1.09017   0.06072  -0.27473
   1.09017   0.10561  -0.15502
   1.07520   0.03079  -0.34954
   1.03031   0.10561  -0.22983
   1.00038   0.06072  -0.22983
   0.94053   0.06072  -0.24480
   0.89564  -0.05899  -0.42436
   0.86571  -0.07396  -0.45429
   0.79089   0.06072  -0.30465
   0.71607   0.03079  -0.27473
   0.74600   0.01583  -0.30465
   0.71607  -0.01410  -0.33458
   0.70111  -0.01410  -0.30465
   0.61133   0.01583  -0.31962
   0.58140   0.03079  -0.25976
   0.49162  -0.05899  -0.22983
   0.47665  -0.11885  -0.37947
   0.41680  -0.04403  -0.37947
   0.40183  -0.07396  -0.27473
   0.28212  -0.13381  -0.34954
   0.31205  -0.11885  -0.28969
   0.26716  -0.08892  -0.22983
   0.16241  -0.04403  -0.28969
   0.17738  -0.13381  -0.16998
   0.17738  -0.13381  -0.27473
   0.16241  -0.16374  -0.27473
   0.10256  -0.01410  -0.19991
   0.05767  -0.11885  -0.12509
   0.05767  -0.02906  -0.16998
   0.08760  -0.13381  -0.14005
   0.07263  -0.16374  -0.18494
   0.07263  -0.02906  -0.05027
  -0.01715  -0.07396  -0.06523
   0.08760  -0.02906   0.03951
   0.05767  -0.04403   0.05448
  -0.10693  -0.01410   0.05448
  -0.01715   8.6E-40   0.12930
  -0.09197   0.01583   0.02455
  -0.13686   0.06072   0.12930
  -0.06204   0.06072   0.15922
  -0.12190   0.09065   0.29390
  -0.10693   0.19539   0.12930
  -0.12190   0.15050   0.23404
  -0.16679   0.19539   0.27893
  -0.16679   0.13554   0.23404
  -0.15182   0.27021   0.27893
  -0.25657   0.21036   0.41361
  -0.30146   0.18043   0.30886
  -0.22664   0.27021   0.32382
  -0.21168   0.31510   0.38368
  -0.30146   0.35999   0.39864
  -0.37628   0.30014   0.41361
  -0.30146   0.27021   0.42857
  -0.33139   0.37496   0.41361
  -0.37628   0.30014   0.39864
  -0.37628   0.25525   0.33879
  -0.36132   0.28517   0.50339
  -0.42117   0.27021   0.47346
  -0.37628   0.22532   0.53332
  -0.36132   0.24028   0.51835
  -0.42117   0.13554   0.54828
  -0.40621   0.07568   0.44354
  -0.36132   0.15050   0.41361
  -0.42117   0.12057   0.48843
  -0.36132   0.01583   0.51835
  -0.39125   0.04575   0.41361
  -0.36132   8.6E-40   0.48843
  -0.34635  -0.10388   0.51835
  -0.31643  -0.23856   0.38368
  -0.27154  -0.20863   0.44354
  -0.25657  -0.20863   0.45850
  -0.27154  -0.23856   0.42857
  -0.16679  -0.20863   0.36872
  -0.22664  -0.20863   0.39864
  -0.16679  -0.35827   0.38368
  -0.15182  -0.31338   0.32382
  -0.09197  -0.22359   0.38368
  -0.04708  -0.38820   0.39864
  -0.13686  -0.43309   0.32382
  -0.07701  -0.46301   0.18915
  -0.10693  -0.37323   0.32382
  -0.09197  -0.40316   0.21908
  -0.01715  -0.41812   0.18915
  -0.13686  -0.34330   0.21908
  -0.06204  -0.41812   0.15922
  -0.01715  -0.37323   0.15922
  -0.15182  -0.37323   0.18915
  -0.06204  -0.38820   0.03951
  -0.07701  -0.26849   0.12930
  -0.12190  -0.19367   0.09937
  -0.16679  -0.25352   0.03951
  -0.19672  -0.17870  -0.05027
  -0.16679  -0.23856   0.00959
  -0.15182  -0.23856  -0.14005
  -0.15182  -0.08892  -0.09516
  -0.21168  -0.05899  -0.08020
  -0.15182  -0.08892  -0.18494
  -0.16679  -0.01410  -0.18494
  -0.13686  -0.01410  -0.24480
  -0.15182   0.04575  -0.18494
  -0.19672   0.10561  -0.22983
  -0.24161   0.03079  -0.25976
  -0.16679   0.10561  -0.34954
  -0.16679   0.13554  -0.34954
  -0.18175   0.10561  -0.34954
  -0.12190   0.07568  -0.33458
  -0.16679   0.10561  -0.45429
  -0.15182   0.12057  -0.43933
  -0.12190   0.19539  -0.36451
  -0.13686   0.15050  -0.34954
  -0.18175   0.04575  -0.42436
  -0.24161   0.06072  -0.43933
  -0.18175   0.03079  -0.39444
  -0.13686   0.01583  -0.42436
  -0.09197   8.6E-40  -0.48422
  -0.12190  -0.10388  -0.55904
  -0.09197  -0.13381  -0.55904
  -0.07701   0.01583  -0.49918
  -0.04708  -0.11885  -0.46925
  -0.06204  -0.11885  -0.46925
   0.01278  -0.16374  -0.45429
  -0.04708  -0.04403  -0.42436
  -0.09197  -0.02906  -0.40940
  -0.04708  -0.10388  -0.37947
  -0.04708  -0.04403  -0.39444
  -0.04708  -0.16374  -0.31962
   0.02774  -0.13381  -0.28969
   0.02774  -0.16374  -0.24480
   0.05767  -0.20863  -0.36451
  -0.00219  -0.14877  -0.40940
   0.01278  -0.19367  -0.36451
   0.01278  -0.13381  -0.36451
  -0.03211  -0.10388  -0.36451
   0.02774  -0.17870  -0.40940
   0.05767  -0.04403  -0.34954
  -0.00219   8.6E-40  -0.28969
   0.04270  -0.05899  -0.30465
  -0.00219  -0.02906  -0.28969
   0.04270  -0.02906  -0.22983
   0.04270  -0.16374  -0.31962
   0.08760   0.03079  -0.19991
   0.04270  -0.04403  -0.24480
