********************************************************************************
              CENTRO DE INSTRUMENTACION Y REGISTRO SISMICO  A.C.

    Anaxagoras 814, Col. Narvarte, Benito Juarez, C.P. 03020 Mexico, D.F.
           Tels. 5687 45 42/ 5687 45  82             Fax. 5669 25 12
********************************************************************************
ARCHIVO ESTANDAR DE ACELERACION:
VERSION DEL FORMATO                    : 2.0
NOMBRE DEL ARCHIVO                     : AL0120130405015848
FECHA Y HORA DE CREACION               : 05/ABR/13, 13:25
REF. CATALOGO ACELEROGRAMAS, SMIS 1996 : REGISTRO No.     /PAG.


================================================================================
DATOS DE LA ESTACION:
NOMBRE DE LA ESTACION                  : ALAMEDA
CLAVE DE LA ESTACION                   : AL01
LOCALIZACION DE LA ESTACION            : Del. Cuauhtémoc, Col. Centro,          
                                       : Dr. Mora entre Av. Hidalgo             
                                       : y Av. Juárez.                          
                                       :                                        
                                       : 
COORDENADAS DE LA ESTACION             : 19.4356 LAT. N
                                       : 99.1453 LONG. W
ALTITUD (msnm)                         : 2232
TIPO DE SUELO                          : Terreno blando, material compresible
                                       : (arcillas)                
                                       : 
INSTITUCION RESPONSABLE                : CIRES
                                       : 

================================================================================
DATOS DEL ACELEROGRAFO:
MODELO DEL ACELEROGRAFO                : RADESD
NUMERO DE SERIE DEL ACELEROGRAFO       : 152
NUMERO DE CANALES                      : 3
ORIENTACION C1-C6 (rumbo;orientacion)  : /N00E/+V/N90W
ORIENTACION C7-C12 (rumbo;orientacion) : 
VEL. DE MUESTREO, C1-C6 (muestras/s)   : /100/100/100
VEL. DE MUESTREO, C7-C12 (muestras/s)  : 
ESC. COMPLETA DE SENSORES, C1-C6, (g)  : /0.5/0.5/0.5
ESC. COMPLETA DE SENSORES, C7-C12, (g) : 
FREC. NAT. DE SENSORES, C1-C6, (Hz)    : /51.29/51.09/53.75
FREC. NAT. DE SENSORES, C7-C12, (Hz)   : 
AMORTIGUAMIENTO DE SENSORES, C1-C6     : /0.5519/0.5670/0.5810
AMORTIGUAMIENTO DE SENSORES, C7-C12    : 
INTERVALO DE MUESTREO, C1-C6, (s)      : /0.01/0.01/0.01
INTERVALO DE MUESTREO, C7-C12, (s)     : 
UMBRAL DE DISPARO, C1-C6, (Gal)        : /14.37/28.73/14.37
UMBRAL DE DISPARO, C7-C12, (Gal)       : 
MEMORIA DE PREEVENTO (s)               : 56.0
TIEMPO DE POSEVENTO (s)                : 80.0


================================================================================
DATOS DEL SISMO:
FECHA DEL SISMO (GMT)                  : 05/ABR/13
HORA EPICENTRO (GMT)                   : 01:58:48.0
MAGNITUD(ES)                           : /Mc=5.3
COORDENADAS DEL EPICENTRO              : 17.08 LAT. N
                                       : 100.82 LONG. W
PROFUNDIDAD FOCAL (km)                 : 17
FUENTE DE LOS DATOS EPICENTRALES       : SSN
                                       : INSTITUTO DE GEOFISICA, UNAM

================================================================================
DATOS DE ESTE REGISTRO:
HORA DE LA PRIMERA MUESTRA (GMT)       : 01:59:48.00
EXACTITUD DEL TIEMPO (s)               : 0.01
DURACION DEL REGISTRO (s), C1-C6       : /195.2/195.2/195.2
DURACION DEL REGISTRO (s), C7-C12      : 
NUM. TOTAL DE MUESTRAS, C1-C6          : /19520/19520/19520
NUM. TOTAL DE MUESTRAS, C7-C12         : 
ACEL. MAX. (Gal), C1-C6                : /2.87227/1.65843/2.71
ACEL. MAX., C1-C6, EN LA MUESTRA       : /7813/7918/8471
ACEL. MAX. (Gal), C7-C12               : 
ACEL. MAX., C7-C12, EN LA MUESTRA      : 
UNIDADES DE LOS DATOS                  : Gal (cm/s/s)
FACTOR DE DECIMACION                   : 1
FORMATO DATOS (FORTRAN,10 campos/dato) : 3F10.5


================================================================================
CALIDAD DEL ACELEROGRAMA:
REGISTRO DIGITAL COMPLETO CON TIEMPO ABSOLUTO CORRECTO.


================================================================================
COMENTARIOS:














================================================================================
DATOS DE ACELERACION:
---------+---------+---------+---------+---------+---------+---------+---------+
   CANAL-1   CANAL-2   CANAL-3   CANAL-4   CANAL-5   CANAL-6   CANAL-7   CANAL-8
      N00E        +V      N90W
---------+---------+---------+---------+---------+---------+---------+---------+
[...]
   1.28765   0.05730  -1.16873
   1.10809   0.14709  -0.88442
   0.94349   0.10219  -0.60011
   0.77889   0.17701  -0.36069
   0.56939   0.19198  -0.04645
   0.43472   0.17701   0.28275
   0.15041   0.22190   0.50721
  -0.04412   0.20694   0.74663
  -0.37332   0.23687   0.95612
  -0.61274   0.25183   1.15065
  -0.83720   0.28176   1.33022
  -1.06166   0.25183   1.50978
  -1.18137   0.17701   1.65942
  -1.37589   0.07227   1.86891
  -1.45071   0.05730   1.86891
  -1.46568  -0.04744   1.91380
  -1.57042  -0.09233   2.09337
  -1.57042  -0.07737   1.97366
  -1.55546  -0.13723   2.00358
  -1.43575  -0.13723   1.95869
  -1.51057  -0.22701   1.97366
  -1.42079  -0.27190   1.92877
  -1.33100  -0.31679   1.85395
  -1.28611  -0.36168   1.79409
  -1.16640  -0.39161   1.67438
  -1.01676  -0.33175   1.62949
  -0.88209  -0.31679   1.50978
  -0.82224  -0.28686   1.39007
  -0.71749  -0.21204   1.30029
  -0.58282  -0.19708   1.16561
  -0.56785  -0.13723   1.00101
  -0.56785  -0.07737   0.88130
  -0.53792  -0.03248   0.73167
  -0.58282   0.02738   0.65685
  -0.59778   0.07227   0.49224
  -0.59778   0.17701   0.50721
  -0.61274   0.28176   0.41743
  -0.67260   0.34161   0.29772
  -0.74742   0.40147   0.19297
  -0.74742   0.50622   0.08822
  -0.85216   0.47629   0.08822
  -0.88209   0.52118  -0.06141
  -0.98684   0.43140  -0.01652
  -0.95691   0.52118  -0.07638
  -0.94195   0.52118  -0.10631
  -1.01676   0.52118  -0.19609
  -1.06166   0.43140  -0.21105
  -1.00180   0.41643  -0.30083
  -1.06166   0.34161  -0.39062
  -1.07662   0.25183  -0.30083
  -0.89705   0.22190  -0.40558
  -0.88209   0.07227  -0.46544
  -0.83720   0.04234  -0.55522
  -0.74742  -0.06241  -0.63004
  -0.58282  -0.06241  -0.73478
  -0.62771  -0.07737  -0.76471
  -0.50800  -0.13723  -0.82457
  -0.40325  -0.16715  -0.94428
  -0.32843  -0.16715  -0.97420
  -0.23865  -0.18212  -1.06399
  -0.16383  -0.15219  -1.12384
  -0.14887  -0.13723  -1.10888
  -0.04412  -0.01752  -1.18370
  -0.02916  -0.01752  -1.24355
   0.01573  -0.04744  -1.25852
   0.13545  -0.01752  -1.19866
   0.12048  -0.04744  -1.21362
   0.19530   0.04234  -1.21362
   0.19530  -0.09233  -1.21362
   0.21026  -0.15219  -1.16873
   0.24019  -0.19708  -1.24355
   0.31501  -0.28686  -1.21362
   0.24019  -0.39161  -1.21362
   0.37487  -0.49636  -1.16873
   0.32997  -0.60110  -1.06399
   0.34494  -0.64599  -1.01909
   0.46465  -0.67592  -1.00413
   0.55443  -0.69088  -0.92931
   0.70407  -0.69088  -0.86946
   0.79385  -0.72081  -0.70486
   0.91356  -0.63103  -0.64500
   0.89860  -0.54125  -0.48040
   1.03327  -0.60110  -0.34573
   1.01831  -0.55621  -0.13623
   1.03327  -0.42154   0.05830
   1.04823  -0.27190   0.07326
   1.10809  -0.19708   0.25282
   1.06320  -0.03248   0.19297
   1.09313   0.05730   0.31268
   1.09313   0.14709   0.43239
   1.15298   0.22190   0.53714
   1.13802   0.37154   0.70174
   1.18291   0.52118   0.76159
   1.15298   0.64089   0.88130
   1.15298   0.73067   1.03094
   1.19787   0.86535   1.15065
   1.22780   0.94016   1.22547
   1.25773   0.98506   1.30029
   1.18291   0.95513   1.37511
   1.18291   1.04491   1.44993
   1.12305   1.01498   1.50978
   1.01831   1.01498   1.50978
   0.92852   0.98506   1.49482
   0.80881   0.92520   1.47985
   0.70407   0.88031   1.42000
   0.55443   0.73067   1.30029
   0.35990   0.62593   1.24043
   0.19530   0.49125   1.09080
  -0.01419   0.46132   0.98605
  -0.20872   0.35658   0.88130
  -0.43318   0.22190   0.71670
  -0.65763   0.10219   0.62692
  -0.86713   0.10219   0.43239
  -1.00180   0.13212   0.29772
  -1.19633  -0.03248   0.23786
  -1.36093  -0.00255   0.10319
  -1.48064  -0.03248  -0.04645
  -1.58539  -0.00255  -0.15120
  -1.72006  -0.09233  -0.15120
  -1.80984  -0.06241  -0.24098
  -1.94452  -0.10730  -0.30083
  -2.06423  -0.10730  -0.36069
  -2.12408  -0.09233  -0.45047
  -2.15401  -0.04744  -0.55522
  -2.19890  -0.15219  -0.63004
  -2.18394  -0.18212  -0.70486
  -2.15401  -0.25694  -0.77967
  -2.15401  -0.30183  -0.76471
  -2.13905  -0.25694  -0.86946
  -2.01934  -0.24197  -0.86946
  -1.97445  -0.27190  -0.89938
  -1.91459  -0.36168  -0.85449
  -1.77992  -0.28686  -0.85449
  -1.74999  -0.19708  -0.89938
  -1.58539  -0.24197  -0.80960
  -1.46568  -0.25694  -0.79464
  -1.39086  -0.28686  -0.76471
  -1.24122  -0.33175  -0.63004
  -1.09158  -0.31679  -0.60011
  -0.97187  -0.31679  -0.55522
  -0.88209  -0.37665  -0.40558
  -0.76238  -0.37665  -0.25594
  -0.77734  -0.43650  -0.13623
  -0.58282  -0.40657  -0.04645
  -0.49303  -0.39161   0.11815
  -0.43318  -0.39161   0.22290
  -0.43318  -0.45146   0.29772
  -0.34340  -0.42154   0.40246
  -0.23865  -0.39161   0.44735
  -0.17879  -0.37665   0.49224
  -0.08901  -0.33175   0.44735
  -0.04412  -0.31679   0.40246
   0.04566  -0.33175   0.34261
   0.10552  -0.28686   0.26779
   0.16537  -0.28686   0.20793
   0.24019  -0.21204   0.07326
   0.25516  -0.19708   0.04333
   0.27012  -0.09233  -0.09134
   0.31501   0.01241  -0.18112
   0.41976   0.05730  -0.27091
   0.40479   0.14709  -0.28587
   0.35990   0.14709  -0.31580
   0.37487   0.19198  -0.34573
   0.44968   0.25183  -0.31580
   0.34494   0.23687  -0.22602
   0.38983   0.25183  -0.18112
   0.30005   0.22190  -0.18112
   0.34494   0.29672  -0.13623
   0.34494   0.23687   0.02837
   0.30005   0.34161   0.11815
   0.30005   0.26680   0.23786
   0.28508   0.37154   0.29772
   0.27012   0.26680   0.38750
   0.30005   0.32665   0.41743
   0.30005   0.19198   0.41743
   0.31501   0.26680   0.38750
   0.32997   0.23687   0.34261
   0.38983   0.10219   0.31268
   0.43472   0.07227   0.25282
   0.46465   0.02738   0.23786
   0.49458  -0.00255   0.07326
   0.53947  -0.00255  -0.03149
   0.53947  -0.10730  -0.06141
   0.61429  -0.12226  -0.18112
   0.67414  -0.19708  -0.24098
   0.71903  -0.27190  -0.30083
   0.83874  -0.15219  -0.45047
   0.94349  -0.18212  -0.60011
   0.97342  -0.15219  -0.74975
   1.04823  -0.16715  -0.85449
   1.09313  -0.22701  -0.98917
   1.13802  -0.16715  -1.09391
   1.22780  -0.13723  -1.21362
   1.39240  -0.00255  -1.18370
   1.46722  -0.04744  -1.21362
   1.48218   0.02738  -1.21362
   1.55700   0.02738  -1.09391
   1.60189   0.08723  -1.09391
   1.51211   0.10219  -0.88442
   1.46722   0.17701  -0.71982
   1.45226   0.16205  -0.64500
   1.36247   0.17701  -0.52529
   1.18291   0.19198  -0.39062
   1.06320   0.20694  -0.27091
   0.94349   0.07227  -0.24098
   0.76392   0.17701  -0.12127
   0.52450   0.14709  -0.01652
   0.44968   0.17701   0.04333
   0.18034   0.10219   0.19297
   0.01573   0.13212   0.22290
  -0.19376   0.19198   0.29772
  -0.38829   0.13212   0.40246
  -0.59778   0.01241   0.46232
  -0.71749  -0.04744   0.59699
  -0.80727  -0.00255   0.65685
  -0.88209  -0.04744   0.77656
  -0.89705  -0.10730   0.88130
  -0.97187  -0.21204   1.12072
  -0.98684  -0.22701   1.18058
  -1.07662  -0.21204   1.27036
  -1.01676  -0.27190   1.42000
  -1.09158  -0.24197   1.44993
  -1.09158  -0.37665   1.55467
  -1.13647  -0.40657   1.64445
  -1.10655  -0.42154   1.58460
  -1.12151  -0.36168   1.53971
  -1.06166  -0.37665   1.50978
  -1.00180  -0.42154   1.47985
  -0.98684  -0.34672   1.44993
  -0.98684  -0.30183   1.42000
  -0.80727  -0.28686   1.37511
  -0.79231  -0.28686   1.25540
  -0.73245  -0.30183   1.15065
  -0.65763  -0.27190   1.12072
  -0.50800  -0.18212   0.97109
  -0.41821  -0.19708   0.91123
  -0.32843  -0.19708   0.94116
  -0.17879  -0.01752   0.86634
  -0.07405  -0.03248   0.80648
   0.03070   0.08723   0.89627
   0.13545   0.22190   0.98605
   0.19530   0.37154   0.95612
   0.28508   0.50622   1.01598
   0.28508   0.52118   1.06087
   0.31501   0.56607   1.31525
   0.30005   0.67082   1.34518
   0.31501   0.73067   1.40503
   0.31501   0.77556   1.49482
   0.31501   0.71571   1.50978
   0.35990   0.77556   1.52474
   0.21026   0.74564   1.55467
   0.21026   0.70074   1.46489
   0.18034   0.68578   1.39007
   0.13545   0.70074   1.24043
   0.22523   0.64089   1.09080
   0.18034   0.61096   0.85138
   0.12048   0.46132   0.59699
   0.19530   0.35658   0.25282
   0.31501   0.28176  -0.10631
   0.30005   0.14709  -0.34573
   0.37487   0.04234  -0.61507
   0.40479  -0.01752  -0.77967
   0.49458  -0.15219  -1.00413
   0.53947  -0.22701  -1.24355
   0.55443  -0.25694  -1.43808
   0.62925  -0.27190  -1.66254
   0.67414  -0.31679  -1.72239
   0.71903  -0.39161  -1.69246
   0.77889  -0.43650  -1.79721
   0.80881  -0.43650  -1.78225
   0.73400  -0.45146  -1.78225
   0.68910  -0.45146  -1.72239
   0.61429  -0.45146  -1.55779
   0.55443  -0.46643  -1.61765
   0.41976  -0.40657  -1.51290
   0.30005  -0.46643  -1.27348
   0.15041  -0.37665  -1.25852
   7.7E-40  -0.42154  -1.09391
  -0.16383  -0.40657  -0.98917
  -0.23865  -0.40657  -0.95924
  -0.40325  -0.36168  -0.86946
  -0.52296  -0.37665  -0.67493
  -0.58282  -0.33175  -0.70486
  -0.74742  -0.40657  -0.64500
  -0.79231  -0.40657  -0.60011
  -0.95691  -0.39161  -0.42054
  -0.92698  -0.39161  -0.46544
  -0.98684  -0.33175  -0.54025
  -0.91202  -0.28686  -0.61507
  -1.00180  -0.27190  -0.63004
  -0.92698  -0.40657  -0.65996
  -0.88209  -0.36168  -0.74975
  -0.77734  -0.51132  -0.74975
  -0.71749  -0.63103  -0.73478
  -0.50800  -0.57117  -0.76471
  -0.32843  -0.66096  -0.61507
  -0.10398  -0.66096  -0.61507
   0.12048  -0.66096  -0.57018
   0.30005  -0.55621  -0.52529
   0.53947  -0.54125  -0.43551
   0.77889  -0.46643  -0.33076
   0.95845  -0.42154  -0.33076
   1.19787  -0.33175  -0.31580
   1.37744  -0.19708  -0.30083
   1.51211  -0.04744  -0.33076
   1.60189   0.07227  -0.27091
   1.63182   0.13212  -0.22602
   1.75153   0.23687  -0.33076
   1.78146   0.29672  -0.22602
   1.76649   0.37154  -0.21105
   1.73657   0.52118  -0.18112
   1.63182   0.55111  -0.18112
   1.64678   0.70074  -0.24098
   1.48218   0.73067  -0.24098
   1.40736   0.88031  -0.37565
   1.37744   0.97009  -0.40558
   1.27269   1.01498  -0.51033
   1.16794   1.01498  -0.67493
   1.03327   1.08980  -0.85449
   0.82378   1.07484  -1.06399
   0.74896   1.11973  -1.21362
   0.62925   1.02995  -1.39319
   0.55443   0.89527  -1.52786
   0.43472   0.86535  -1.75232
   0.38983   0.82045  -1.94685
   0.27012   0.64089  -2.09649
   0.25516   0.55111  -2.32094
   0.07559   0.44636  -2.41072
  -0.05908   0.32665  -2.42569
  -0.16383   0.28176  -2.56036
  -0.26858   0.14709  -2.63518
  -0.44814   0.01241  -2.63518
  -0.58282   0.04234  -2.59029
  -0.80727  -0.16715  -2.51547
  -0.97187  -0.18212  -2.45562
  -1.19633  -0.15219  -2.30598
  -1.40582  -0.21204  -2.24612
  -1.57042  -0.18212  -2.08152
  -1.88466  -0.18212  -1.94685
  -2.07919  -0.16715  -1.78225
  -2.24379  -0.15219  -1.54283
  -2.43832  -0.12226  -1.22859
  -2.55803  -0.03248  -1.00413
  -2.67774  -0.04744  -0.68989
  -2.81242  -0.07737  -0.33076
  -2.84234  -0.10730   0.08822
  -2.87227  -0.13723   0.41743
  -2.78249  -0.15219   0.73167
  -2.69271  -0.16715   1.10576
  -2.46825  -0.16715   1.37511
  -2.28868  -0.19708   1.59956
  -2.00437  -0.10730   1.80906
  -1.72006  -0.18212   2.03351
  -1.39086  -0.15219   2.18315
  -1.09158  -0.24197   2.31782
  -0.73245  -0.24197   2.45250
  -0.37332  -0.27190   2.43753
  -0.01419  -0.34672   2.52732
   0.32997  -0.39161   2.51235
   0.70407  -0.49636   2.48242
   1.03327  -0.46643   2.43753
   1.27269  -0.55621   2.40761
   1.55700  -0.57117   2.37768
   1.78146  -0.63103   2.31782
   2.00592  -0.54125   2.25797
   2.17052  -0.51132   2.15322
   2.23037  -0.45146   2.09337
   2.29023  -0.48139   2.10833
   2.29023  -0.36168   1.95869
   2.18548  -0.25694   1.94373
   2.08073  -0.15219   1.86891
   1.96102  -0.12226   1.74920
   1.72160  -0.04744   1.74920
   1.61686   0.02738   1.65942
   1.33255   0.13212   1.58460
   1.15298   0.16205   1.53971
   0.83874   0.32665   1.47985
   0.52450   0.37154   1.50978
   0.31501   0.47629   1.44993
   0.06063   0.61096   1.40503
  -0.25361   0.68578   1.37511
  -0.59778   0.70074   1.37511
  -0.80727   0.83542   1.31525
  -1.13647   0.88031   1.31525
  -1.22626   0.97009   1.25540
  -1.40582   1.04491   1.16561
  -1.51057   1.04491   1.04590
  -1.61531   1.10477   0.94116
  -1.63028   1.14966   0.85138
  -1.70510   1.05988   0.76159
  -1.61531   1.11973   0.61195
  -1.54050   1.14966   0.49224
  -1.42079   1.01498   0.47728
  -1.36093   0.91024   0.35757
  -1.15144   0.76060   0.17801
  -1.03173   0.64089   0.08822
  -0.86713   0.55111  -0.03149
  -0.74742   0.38651  -0.03149
  -0.50800   0.32665  -0.09134
  -0.32843   0.19198  -0.25594
  -0.13390   0.08723  -0.25594
   0.03070   0.02738  -0.27091
   0.25516  -0.01752  -0.34573
   0.37487  -0.13723  -0.34573
   0.53947  -0.25694  -0.30083
   0.62925  -0.39161  -0.22602
   0.67414  -0.40657  -0.22602
   0.77889  -0.49636  -0.04645
   0.80881  -0.55621   0.14808
   0.79385  -0.58614   0.23786
   0.74896  -0.72081   0.46232
   0.62925  -0.78067   0.65685
   0.55443  -0.87045   0.79152
   0.40479  -0.82556   0.88130
   0.18034  -0.93031   0.97109
   0.04566  -0.93031   1.21051
  -0.13390  -1.02009   1.34518
  -0.31347  -1.03505   1.37511
  -0.46311  -1.06498   1.56964
  -0.59778  -1.02009   1.59956
  -0.68756  -1.05002   1.59956
  -0.70253  -0.99016   1.70431
  -0.80727  -0.91534   1.68935
  -0.79231  -1.03505   1.65942
  -0.73245  -0.97520   1.44993
  -0.68756  -0.99016   1.37511
  -0.70253  -1.03505   1.18058
  -0.59778  -1.02009   0.94116
  -0.52296  -1.00512   0.77656
  -0.38829  -0.97520   0.62692
  -0.22369  -0.90038   0.49224
  -0.05908  -0.82556   0.20793
   0.13545  -0.79563  -0.01652
   0.32997  -0.60110  -0.21105
   0.47961  -0.54125  -0.40558
   0.62925  -0.39161  -0.63004
   0.73400  -0.19708  -0.82457
   0.89860  -0.12226  -0.92931
   0.97342   0.05730  -1.07895
   1.10809   0.25183  -1.30341
   1.27269   0.43140  -1.48297
   1.40736   0.52118  -1.58772
   1.46722   0.68578  -1.66254
   1.57197   0.83542  -1.73736
   1.57197   1.05988  -1.82714
   1.57197   1.16462  -1.87203
   1.51211   1.31426  -2.03663
   1.45226   1.35915  -2.05159
   1.42233   1.43397  -2.11145
   1.37744   1.47886  -2.02167
   1.36247   1.52375  -2.09649
   1.36247   1.65843  -2.09649
   1.33255   1.55368  -2.02167
   1.27269   1.55368  -2.05159
   1.30262   1.41901  -1.97678
   1.24276   1.23944  -1.94685
   1.30262   1.16462  -2.00670
   1.34751   1.01498  -1.94685
   1.36247   0.88031  -1.94685
   1.36247   0.71571  -1.84210
   1.46722   0.55111  -1.72239
   1.52707   0.37154  -1.70743
   1.52707   0.20694  -1.75232
   1.58693   0.10219  -1.73736
   1.69168  -0.10730  -1.64757
   1.67671  -0.27190  -1.52786
   1.67671  -0.42154  -1.58772
   1.67671  -0.60110  -1.40815
   1.64678  -0.69088  -1.40815
   1.55700  -0.76570  -1.37823
   1.58693  -0.79563  -1.30341
   1.49715  -0.81060  -1.10888
   1.39240  -0.91534  -1.01909
   1.36247  -0.94527  -0.85449
   1.25773  -0.88541  -0.70486
   1.00334  -0.93031  -0.65996
   0.85371  -1.05002  -0.51033
   0.65918  -1.03505  -0.40558
   0.61429  -1.02009  -0.36069
   0.38983  -1.02009  -0.33076
   0.24019  -0.93031  -0.24098
   0.12048  -0.87045  -0.18112
  -0.13390  -0.76570  -0.16616
  -0.41821  -0.78067  -0.07638
  -0.55289  -0.73578   0.01340
  -0.80727  -0.73578   0.05830
  -0.94195  -0.67592   0.14808
  -1.12151  -0.61607   0.22290
  -1.22626  -0.48139   0.31268
  -1.39086  -0.39161   0.34261
  -1.49560  -0.40657   0.37253
  -1.58539  -0.30183   0.49224
  -1.74999  -0.19708   0.46232
  -1.79488  -0.25694   0.53714
  -1.94452  -0.16715   0.53714
  -1.97445  -0.07737   0.55210
