********************************************************************************
              CENTRO DE INSTRUMENTACION Y REGISTRO SISMICO  A.C.

    Anaxagoras 814, Col. Narvarte, Benito Juarez, C.P. 03020 Mexico, D.F.
           Tels. 5687 45 42/ 5687 45  82             Fax. 5669 25 12
********************************************************************************
ARCHIVO ESTANDAR DE ACELERACION:
VERSION DEL FORMATO                    : 2.0
NOMBRE DEL ARCHIVO                     : AL0120090815132245
FECHA Y HORA DE CREACION               : 08/OCT/09, 00:53
REF. CATALOGO ACELEROGRAMAS, SMIS 1996 : REGISTRO No.     /PAG.


================================================================================
DATOS DE LA ESTACION:
NOMBRE DE LA ESTACION                  : ALAMEDA
CLAVE DE LA ESTACION                   : AL01
LOCALIZACION DE LA ESTACION            : Del. Cuauhtémoc, Col. Centro,          
                                       : Dr. Mora entre Av. Hidalgo             
                                       : y Av. Juárez.                          
                                       :                                        
                                       : 
COORDENADAS DE LA ESTACION             : 19.4356 LAT. N
                                       : 99.1453 LONG. W
ALTITUD (msnm)                         : 2232
TIPO DE SUELO                          : Terreno blando, material compresible
                                       : (arcillas)                
                                       : 
INSTITUCION RESPONSABLE                : CIRES
                                       : 

================================================================================
DATOS DEL ACELEROGRAFO:
MODELO DEL ACELEROGRAFO                : RADESD
NUMERO DE SERIE DEL ACELEROGRAFO       : 152
NUMERO DE CANALES                      : 3
ORIENTACION C1-C6 (rumbo;orientacion)  : /N00E/+V/N90W
ORIENTACION C7-C12 (rumbo;orientacion) : 
VEL. DE MUESTREO, C1-C6 (muestras/s)   : /100/100/100
VEL. DE MUESTREO, C7-C12 (muestras/s)  : 
ESC. COMPLETA DE SENSORES, C1-C6, (g)  : /0.5/0.5/0.5
ESC. COMPLETA DE SENSORES, C7-C12, (g) : 
FREC. NAT. DE SENSORES, C1-C6, (Hz)    : /51.29/51.09/53.75
FREC. NAT. DE SENSORES, C7-C12, (Hz)   : 
AMORTIGUAMIENTO DE SENSORES, C1-C6     : /0.5519/0.5670/0.5810
AMORTIGUAMIENTO DE SENSORES, C7-C12    : 
INTERVALO DE MUESTREO, C1-C6, (s)      : /0.01/0.01/0.01
INTERVALO DE MUESTREO, C7-C12, (s)     : 
UMBRAL DE DISPARO, C1-C6, (Gal)        : /0.72/1.44/0.72
UMBRAL DE DISPARO, C7-C12, (Gal)       : 
MEMORIA DE PREEVENTO (s)               : 56.0
TIEMPO DE POSEVENTO (s)                : 64.0


================================================================================
DATOS DEL SISMO:
FECHA DEL SISMO (GMT)                  : 15/AGO/09
HORA EPICENTRO (GMT)                   : 13:22:45.0
MAGNITUD(ES)                           : /Mc=5.4
COORDENADAS DEL EPICENTRO              : 18.06 LAT. N
                                       : 100.67 LONG. W
PROFUNDIDAD FOCAL (km)                 : 55
FUENTE DE LOS DATOS EPICENTRALES       : SSN
                                       : INSTITUTO DE GEOFISICA, UNAM

================================================================================
DATOS DE ESTE REGISTRO:
HORA DE LA PRIMERA MUESTRA (GMT)       : 13:23:47.00
EXACTITUD DEL TIEMPO (s)               : 0.01
DURACION DEL REGISTRO (s), C1-C6       : /179.0/179.0/179.0
DURACION DEL REGISTRO (s), C7-C12      : 
NUM. TOTAL DE MUESTRAS, C1-C6          : /17900/17900/17900
NUM. TOTAL DE MUESTRAS, C7-C12         : 
ACEL. MAX. (Gal), C1-C6                : /2.28483/1.47168/2.94671
ACEL. MAX., C1-C6, EN LA MUESTRA       : /6638/6963/6908
ACEL. MAX. (Gal), C7-C12               : 
ACEL. MAX., C7-C12, EN LA MUESTRA      : 
UNIDADES DE LOS DATOS                  : Gal (cm/s/s)
FACTOR DE DECIMACION                   : 1
FORMATO DATOS (FORTRAN,10 campos/dato) : 3F10.5


================================================================================
CALIDAD DEL ACELEROGRAMA:
REGISTRO DIGITAL COMPLETO CON TIEMPO ABSOLUTO CORRECTO.


================================================================================
COMENTARIOS:














================================================================================
DATOS DE ACELERACION:
---------+---------+---------+---------+---------+---------+---------+---------+
   CANAL-1   CANAL-2   CANAL-3   CANAL-4   CANAL-5   CANAL-6   CANAL-7   CANAL-8
      N00E        +V      N90W
---------+---------+---------+---------+---------+---------+---------+---------+
[...]
  -1.32715   0.75342   1.60227
  -0.84831   0.75342   1.84169
  -1.08773   0.75342   1.60227
  -1.08773   0.99284   1.60227
  -0.60889   0.75342   1.60227
  -0.60889   0.75342   1.36285
  -0.60889   0.75342   1.12343
  -0.36947   0.75342   1.12343
  -0.36947   0.51400   0.88401
  -0.13005   0.51400   0.40517
   0.10937   0.51400   0.64459
  -0.13005   0.75342   0.16575
   0.10937   0.51400  -0.31309
   0.34879   0.51400  -0.31309
   0.58821   0.51400  -0.55251
   0.58821   0.51400  -0.79193
   0.58821   0.51400  -1.03135
   0.58821   0.51400  -1.03135
   0.58821   0.27458  -1.03135
   0.58821   0.27458  -1.27077
   0.34879   0.51400  -1.27077
   0.58821   0.27458  -1.51019
   0.58821   0.03516  -1.51019
   0.58821   0.03516  -1.51019
   0.10937   0.03516  -1.74961
  -0.13005  -0.20426  -1.74961
  -0.13005   0.03516  -1.51019
  -0.36947  -0.20426  -1.51019
  -0.13005  -0.20426  -1.27077
  -0.60889  -0.20426  -1.51019
  -0.60889  -0.44368  -1.27077
  -0.60889  -0.44368  -1.03135
  -0.84831  -0.44368  -1.27077
  -0.84831  -0.44368  -1.03135
  -0.60889  -0.44368  -1.03135
  -0.60889  -0.68310  -1.03135
  -0.84831  -0.44368  -0.79193
  -0.60889  -0.68310  -0.55251
  -0.60889  -0.68310  -0.55251
  -0.36947  -0.68310  -0.79193
  -0.13005  -0.92252  -0.55251
   0.10937  -0.92252  -0.79193
   0.34879  -0.92252  -0.55251
   0.34879  -0.92252  -0.55251
   0.82763  -0.92252  -0.55251
   0.82763  -0.92252  -0.31309
   1.06705  -0.68310  -0.31309
   1.06705  -0.92252  -0.07367
   1.06705  -0.68310   0.16575
   1.30647  -0.68310   0.16575
   1.78531  -0.68310   0.16575
   1.54589  -0.44368  -0.07367
   1.54589  -0.44368   0.16575
   1.54589  -0.20426   0.16575
   1.54589  -0.20426   0.16575
   1.78531   0.03516  -0.07367
   1.78531   0.03516  -0.07367
   1.54589   0.03516   0.16575
   1.54589   0.03516  -0.07367
   1.30647   0.03516  -0.07367
   1.30647   0.51400  -0.31309
   0.82763   0.27458  -0.31309
   0.82763   0.27458  -0.31309
   0.34879   0.51400  -0.31309
   0.34879   0.51400  -0.55251
  -0.13005   0.51400  -0.55251
  -0.36947   0.51400  -0.55251
  -0.84831   0.51400  -0.79193
  -0.84831   0.75342  -0.79193
  -1.32715   0.51400  -1.03135
  -1.32715   0.51400  -1.03135
  -1.56657   0.03516  -0.79193
  -1.80599   0.27458  -0.55251
  -2.04541   0.03516  -0.79193
  -2.04541   0.51400  -0.79193
  -2.04541   0.27458  -0.31309
  -2.28483   0.03516  -0.31309
  -2.04541   0.03516  -0.31309
  -2.04541   0.03516  -0.07367
  -2.04541   0.27458   0.16575
  -2.04541   0.27458   0.40517
  -1.80599   0.27458   0.40517
  -1.56657   0.03516   0.64459
  -1.56657   0.03516   0.88401
  -1.32715   0.03516   0.88401
  -1.08773   0.03516   1.12343
  -1.08773   0.03516   1.12343
  -0.84831   0.27458   1.60227
  -0.60889  -0.20426   1.60227
  -0.36947   0.27458   1.84169
  -0.36947   0.27458   2.08111
  -0.36947   0.03516   1.84169
  -0.36947  -0.20426   2.08111
  -0.36947   0.27458   2.08111
  -0.13005   0.03516   1.84169
  -0.13005   0.03516   1.84169
  -0.36947  -0.20426   1.84169
  -0.36947   0.03516   1.84169
  -0.13005  -0.20426   1.60227
  -0.13005  -0.20426   1.36285
  -0.36947   0.03516   1.36285
  -0.84831  -0.44368   0.88401
  -0.36947  -0.20426   0.88401
  -0.60889  -0.20426   0.40517
  -0.60889   0.03516   0.16575
  -0.60889  -0.44368   0.16575
  -0.60889   0.03516   0.16575
  -0.36947  -0.20426  -0.07367
  -0.36947   0.03516  -0.07367
  -0.13005  -0.20426  -0.07367
  -0.60889  -0.20426  -0.31309
  -0.36947   0.03516  -0.31309
  -0.36947   0.03516  -0.31309
  -0.13005   0.03516  -0.07367
  -0.13005   0.03516  -0.07367
  -0.13005   0.27458  -0.07367
   0.10937   0.51400  -0.07367
  -0.13005   0.51400  -0.07367
   0.10937   0.75342   0.16575
   0.34879   0.27458  -0.07367
   0.10937   0.51400  -0.31309
   0.34879   0.51400  -0.07367
   0.10937   0.51400  -0.07367
   0.34879   0.27458  -0.07367
   0.34879   0.03516  -0.07367
   0.10937   0.03516  -0.31309
   0.10937   0.03516  -0.31309
   0.10937   0.03516  -0.55251
  -0.13005   0.27458  -0.31309
  -0.13005  -0.20426  -0.31309
  -0.36947  -0.20426  -0.31309
  -0.13005  -0.20426  -0.31309
  -0.13005  -0.20426  -0.55251
  -0.13005  -0.44368  -0.55251
  -0.13005  -0.20426  -0.55251
  -0.13005  -0.20426  -0.31309
   0.10937  -0.20426  -0.31309
   0.10937  -0.44368  -0.31309
   0.58821  -0.44368  -0.55251
   0.34879  -0.44368  -0.55251
   0.58821  -0.44368  -0.55251
   0.58821  -0.44368  -0.55251
   0.58821   0.03516  -0.55251
   0.82763  -0.20426  -0.55251
   0.82763  -0.20426  -0.55251
   0.82763   0.03516  -0.55251
   0.82763   0.03516  -0.55251
   0.82763   0.03516  -0.79193
   0.82763   0.03516  -0.55251
   0.82763  -0.20426  -1.03135
   0.82763  -0.20426  -0.55251
   1.06705  -0.20426  -0.55251
   0.82763  -0.20426  -0.31309
   1.06705   0.03516  -0.07367
   1.06705  -0.44368  -0.07367
   0.82763  -0.44368  -0.07367
   0.82763  -0.44368  -0.07367
   1.06705  -0.44368   0.16575
   1.06705  -0.44368   0.16575
   1.06705  -0.44368   0.40517
   1.06705  -0.20426   0.64459
   1.06705  -0.20426   0.40517
   1.06705  -0.44368   0.88401
   1.06705  -0.68310   0.64459
   1.06705  -0.44368   0.64459
   1.30647  -0.44368   0.64459
   1.30647  -0.44368   0.88401
   1.06705  -0.44368   0.64459
   1.30647  -0.44368   0.64459
   1.06705  -0.44368   0.64459
   1.30647  -0.44368   0.88401
   1.30647  -0.20426   0.64459
   1.30647   0.03516   0.64459
   1.30647   0.27458   0.64459
   1.54589   0.03516   0.64459
   1.06705   0.51400   0.40517
   1.06705   0.51400   0.16575
   1.06705   0.51400   0.40517
   0.82763   0.75342  -0.07367
   1.06705   0.75342  -0.31309
   0.58821   0.75342  -0.31309
   0.58821   0.51400  -0.31309
   0.34879   0.51400  -0.55251
   0.34879   0.51400  -0.55251
   0.10937   0.51400  -0.55251
  -0.13005   0.75342  -0.55251
  -0.13005   0.51400  -0.55251
  -0.36947   0.27458  -0.55251
  -0.36947   0.51400  -0.79193
  -0.60889   0.27458  -0.79193
  -0.84831   0.27458  -0.79193
  -0.84831   0.27458  -0.55251
  -0.84831  -0.20426  -0.79193
  -1.08773  -0.20426  -0.79193
  -1.32715  -0.20426  -0.79193
  -1.32715  -0.44368  -0.79193
  -1.56657  -0.44368  -0.79193
  -1.80599  -0.44368  -0.79193
  -1.80599  -0.68310  -0.55251
  -1.80599  -0.20426  -0.55251
  -1.56657  -0.20426  -0.31309
  -1.56657  -0.20426  -0.55251
  -1.56657  -0.20426  -0.31309
  -1.56657   0.03516  -0.55251
  -1.32715   0.03516  -0.55251
  -1.32715   0.03516  -0.31309
  -1.08773   0.03516  -0.55251
  -1.08773   0.51400  -0.55251
  -1.08773   0.27458  -0.31309
  -0.60889   0.27458  -0.31309
  -0.60889   0.27458  -0.31309
  -0.36947   0.27458  -0.55251
  -0.36947   0.27458  -0.31309
  -0.13005   0.03516  -0.31309
   0.10937   0.03516  -0.07367
   0.10937   0.27458   0.16575
   0.34879   0.03516  -0.07367
   0.34879   0.03516   0.16575
   0.34879   0.27458   0.16575
   0.58821   0.03516   0.16575
   0.58821   0.03516   0.16575
   0.58821   0.03516   0.40517
   0.58821  -0.44368   0.40517
   0.58821  -0.20426   0.88401
   0.58821  -0.20426   0.64459
   0.58821  -0.20426   0.88401
   0.58821  -0.20426   0.64459
   0.58821  -0.20426   1.12343
   0.34879  -0.20426   0.88401
   0.34879  -0.20426   0.64459
   0.34879   0.03516   0.88401
   0.34879  -0.20426   0.64459
   0.10937   0.27458   0.40517
   0.10937   0.03516   0.40517
   0.10937   0.03516   0.40517
   0.10937   0.03516   0.16575
  -0.13005   0.03516   0.16575
  -0.13005   0.51400  -0.07367
  -0.36947   0.27458  -0.07367
  -0.36947   0.51400  -0.31309
  -0.13005   0.51400  -0.07367
  -0.36947   0.75342  -0.31309
  -0.36947   0.75342  -0.79193
  -0.36947   0.75342  -1.03135
  -0.36947   0.51400  -0.79193
  -0.60889   0.75342  -1.03135
  -0.36947   0.51400  -1.03135
  -0.36947   0.51400  -1.27077
  -0.36947   0.51400  -1.03135
  -0.60889   0.27458  -1.27077
  -0.60889   0.51400  -1.27077
  -0.60889   0.27458  -1.03135
  -0.84831   0.51400  -1.03135
  -0.60889   0.51400  -1.03135
  -0.60889   0.27458  -1.03135
  -0.60889   0.27458  -1.03135
  -0.84831  -0.20426  -1.03135
  -0.84831  -0.20426  -0.79193
  -0.84831  -0.20426  -0.55251
  -0.60889  -0.20426  -0.31309
  -0.60889  -0.44368  -0.07367
  -0.36947  -0.44368  -0.07367
  -0.36947  -0.68310   0.16575
  -0.36947  -0.92252   0.16575
  -0.36947  -0.68310   0.40517
  -0.13005  -1.16194   0.40517
   0.10937  -0.92252   0.40517
   0.10937  -0.92252   0.64459
   0.10937  -0.92252   0.88401
   0.58821  -0.92252   0.88401
   0.34879  -0.92252   0.88401
   0.82763  -0.68310   0.88401
   0.82763  -0.68310   0.64459
   0.82763  -0.68310   1.12343
   0.82763  -0.68310   0.88401
   0.82763  -0.44368   0.88401
   1.06705  -0.44368   0.88401
   1.06705  -0.44368   0.88401
   0.82763  -0.20426   0.88401
   0.82763   0.03516   0.88401
   0.58821   0.27458   0.64459
   0.58821   0.27458   0.40517
   0.58821   0.03516   0.64459
   0.58821   0.03516   0.88401
   0.10937   0.27458   0.64459
   0.10937   0.03516   0.64459
  -0.36947   0.03516   0.64459
  -0.36947  -0.20426   0.64459
  -0.36947  -0.44368   0.88401
  -0.36947   0.03516   1.12343
  -0.84831  -0.20426   0.88401
  -1.08773   0.03516   0.88401
  -1.08773   0.03516   0.88401
  -1.08773   0.03516   1.12343
  -1.08773  -0.20426   0.88401
  -1.32715   0.03516   0.88401
  -1.32715   0.27458   0.88401
  -1.32715   0.51400   0.64459
  -1.08773   0.27458   0.64459
  -1.08773   0.27458   0.40517
  -1.08773   0.51400   0.40517
  -0.84831   0.27458   0.40517
  -0.60889   0.27458   0.40517
  -0.84831   0.51400   0.16575
  -0.60889   0.27458   0.40517
  -0.60889   0.27458   0.16575
  -0.60889   0.51400  -0.07367
  -0.36947   0.27458   0.16575
  -0.36947   0.27458   0.16575
  -0.13005   0.51400   0.16575
   0.10937   0.51400   0.16575
   0.10937   0.51400   0.16575
   0.34879   0.51400   0.16575
   0.34879   0.51400   0.16575
   0.34879   0.51400   0.16575
   0.34879   0.27458   0.16575
   0.58821   0.51400   0.16575
   0.58821   0.51400   0.40517
   0.58821   0.27458   0.64459
   0.58821   0.03516   0.64459
   0.58821   0.03516   0.88401
   0.82763   0.03516   0.88401
   0.82763   0.27458   1.36285
   1.06705   0.03516   1.36285
   1.06705   0.03516   1.36285
   1.06705   0.03516   1.60227
   1.54589   0.03516   1.84169
   1.06705   0.03516   1.84169
   1.30647   0.03516   1.84169
   1.30647  -0.20426   1.84169
   1.30647   0.03516   1.84169
   1.54589   0.03516   1.36285
   1.78531  -0.20426   1.36285
   1.30647   0.03516   1.12343
   1.54589  -0.20426   0.88401
   1.54589  -0.44368   0.40517
   1.30647  -0.20426   0.16575
   1.30647  -0.20426  -0.31309
   1.30647   0.03516  -0.55251
   1.06705   0.03516  -1.03135
   1.30647   0.03516  -1.27077
   1.06705  -0.20426  -1.74961
   0.82763  -0.20426  -1.74961
   0.82763   0.27458  -2.22845
   0.82763   0.03516  -2.22845
   0.82763  -0.20426  -2.70729
   0.82763   0.03516  -2.94671
   0.82763   0.27458  -2.94671
   0.58821   0.27458  -2.94671
   0.58821   0.27458  -2.70729
   0.58821   0.27458  -2.70729
   0.34879   0.27458  -2.46787
   0.10937   0.03516  -2.46787
   0.10937   0.03516  -2.22845
   0.10937   0.27458  -2.22845
   0.10937   0.03516  -1.98903
   0.10937   0.03516  -1.51019
   0.10937   0.27458  -1.27077
   0.10937   0.03516  -1.03135
  -0.13005  -0.20426  -0.79193
   0.10937   0.03516  -0.55251
   0.34879   0.27458  -0.79193
  -0.13005   0.03516  -0.55251
  -0.13005   0.03516  -0.55251
  -0.13005   0.03516  -0.55251
  -0.13005   0.03516  -0.79193
  -0.36947  -0.20426  -0.79193
  -0.36947   0.03516  -0.79193
  -0.36947  -0.20426  -0.79193
  -0.13005  -0.20426  -0.79193
  -0.13005  -0.20426  -1.03135
  -0.13005  -0.44368  -1.03135
  -0.36947  -0.20426  -1.03135
  -0.13005  -0.68310  -1.03135
  -0.13005  -0.68310  -1.03135
  -0.13005  -0.68310  -1.03135
  -0.13005  -0.68310  -1.03135
   0.10937  -0.92252  -1.03135
  -0.13005  -0.92252  -0.79193
  -0.36947  -0.68310  -1.03135
  -0.13005  -0.92252  -0.79193
  -0.13005  -0.92252  -0.55251
  -0.13005  -1.16194  -0.55251
  -0.36947  -1.16194  -0.55251
  -0.36947  -0.92252  -0.55251
  -0.36947  -1.16194  -0.31309
  -0.36947  -0.92252  -0.31309
  -0.60889  -0.68310  -0.07367
  -0.60889  -0.44368  -0.07367
  -0.60889  -0.68310  -0.07367
  -0.84831  -0.44368   0.16575
  -0.84831  -0.20426   0.16575
  -1.08773   0.03516   0.40517
  -1.08773   0.03516   0.40517
  -1.32715   0.51400   0.40517
  -1.08773   0.51400   0.64459
  -1.32715   0.51400   0.40517
  -1.32715   0.99284   0.88401
  -1.08773   0.99284   0.64459
  -0.84831   1.23226   0.88401
  -1.08773   1.23226   0.88401
  -0.84831   1.47168   1.12343
  -1.08773   1.47168   1.12343
  -0.60889   1.23226   0.88401
  -0.60889   1.47168   0.88401
  -0.84831   1.47168   0.88401
  -0.60889   1.23226   0.88401
  -0.84831   0.99284   1.12343
  -0.60889   0.99284   1.12343
  -0.84831   0.75342   0.88401
  -0.84831   0.75342   1.12343
  -0.60889   0.51400   0.88401
  -0.60889   0.27458   0.88401
  -0.60889   0.03516   0.88401
  -0.84831  -0.20426   0.64459
  -0.60889   0.03516   0.88401
  -0.84831  -0.44368   0.88401
  -0.60889  -0.44368   1.12343
  -0.60889  -0.68310   1.12343
  -0.60889  -0.44368   1.12343
  -0.60889  -0.44368   1.12343
  -0.36947  -0.68310   1.36285
  -0.13005  -0.68310   1.36285
  -0.60889  -0.68310   1.36285
  -0.36947  -0.44368   1.36285
  -0.36947  -0.44368   1.60227
  -0.13005  -0.44368   1.60227
  -0.13005  -0.68310   1.60227
  -0.13005  -0.68310   1.36285
   0.10937  -0.44368   1.60227
   0.10937  -0.44368   1.36285
   0.34879  -0.44368   1.12343
   0.34879  -0.20426   1.36285
   0.34879  -0.20426   1.36285
   0.58821  -0.20426   1.12343
   0.58821  -0.44368   0.88401
   0.34879  -0.20426   0.88401
   0.34879  -0.44368   0.64459
   0.34879  -0.20426   0.88401
   0.10937  -0.44368   0.64459
  -0.13005  -0.44368   0.40517
  -0.36947  -0.20426   0.40517
   0.10937  -0.44368   0.40517
   0.10937  -0.20426   0.16575
  -0.13005  -0.44368  -0.07367
  -0.36947  -0.20426  -0.07367
  -0.36947  -0.20426  -0.07367
  -0.36947  -0.20426   0.16575
  -0.36947   0.03516  -0.07367
  -0.36947   0.03516  -0.07367
  -0.84831   0.03516  -0.31309
  -0.36947   0.03516  -0.31309
  -0.36947   0.51400  -0.31309
  -0.36947   0.51400  -0.31309
  -0.36947   0.51400  -0.07367
  -0.36947   0.75342  -0.07367
  -0.13005   0.75342  -0.07367
  -0.13005   0.75342  -0.31309
  -0.13005   0.75342  -0.31309
  -0.13005   0.75342  -0.07367
   0.34879   0.75342  -0.31309
   0.34879   0.51400  -0.55251
   0.58821   0.51400  -0.31309
   0.58821   0.51400  -0.31309
   0.58821   0.51400  -0.31309
   0.82763   0.27458  -0.31309
   0.82763   0.27458  -0.55251
   1.06705   0.51400  -0.31309
   1.30647   0.27458  -0.31309
   1.54589   0.51400  -0.31309
   1.30647   0.27458  -0.31309
   1.30647   0.27458  -0.55251
   1.54589   0.03516  -0.31309
   1.54589   0.03516  -0.07367
   1.78531   0.03516  -0.31309
   1.78531   0.03516  -0.31309
   1.78531   0.03516  -0.31309
   1.54589   0.03516  -0.31309
   1.30647  -0.44368  -0.31309
   1.30647  -0.44368  -0.31309
   1.30647  -0.44368  -0.31309
   1.06705  -0.68310  -0.31309
   0.82763  -0.68310  -0.55251
   0.82763  -0.44368  -0.55251
   0.58821  -0.44368  -0.79193
   0.34879  -0.20426  -0.79193
   0.34879  -0.44368  -0.79193
   0.10937  -0.20426  -0.79193
  -0.13005  -0.44368  -0.79193
  -0.36947  -0.20426  -1.27077
  -0.36947  -0.44368  -1.03135
  -0.60889  -0.20426  -1.03135
  -0.60889  -0.20426  -1.27077
  -1.08773  -0.20426  -1.51019
  -1.08773   0.03516  -1.27077
  -1.08773   0.27458  -1.27077
