********************************************************************************
              CENTRO DE INSTRUMENTACION Y REGISTRO SISMICO  A.C.

    Anaxagoras 814, Col. Narvarte, Benito Juarez, C.P. 03020 Mexico, D.F.
           Tels. 5687 45 42/ 5687 45  82             Fax. 5669 25 12
********************************************************************************
ARCHIVO ESTANDAR DE ACELERACION:
VERSION DEL FORMATO                    : 2.0
NOMBRE DEL ARCHIVO                     : AL0120120411225510
FECHA Y HORA DE CREACION               : 04/JUN/12, 13:27
REF. CATALOGO ACELEROGRAMAS, SMIS 1996 : REGISTRO No.     /PAG.


================================================================================
DATOS DE LA ESTACION:
NOMBRE DE LA ESTACION                  : ALAMEDA
CLAVE DE LA ESTACION                   : AL01
LOCALIZACION DE LA ESTACION            : Del. Cuauhtémoc, Col. Centro,          
                                       : Dr. Mora entre Av. Hidalgo             
                                       : y Av. Juárez.                          
                                       :                                        
                                       : 
COORDENADAS DE LA ESTACION             : 19.4356 LAT. N
                                       : 99.1453 LONG. W
ALTITUD (msnm)                         : 2232
TIPO DE SUELO                          : Terreno blando, material compresible
                                       : (arcillas)                
                                       : 
INSTITUCION RESPONSABLE                : CIRES
                                       : 

================================================================================
DATOS DEL ACELEROGRAFO:
MODELO DEL ACELEROGRAFO                : RADESD
NUMERO DE SERIE DEL ACELEROGRAFO       : 152
NUMERO DE CANALES                      : 3
ORIENTACION C1-C6 (rumbo;orientacion)  : /N00E/+V/N90W
ORIENTACION C7-C12 (rumbo;orientacion) : 
VEL. DE MUESTREO, C1-C6 (muestras/s)   : /100/100/100
VEL. DE MUESTREO, C7-C12 (muestras/s)  : 
ESC. COMPLETA DE SENSORES, C1-C6, (g)  : /0.5/0.5/0.5
ESC. COMPLETA DE SENSORES, C7-C12, (g) : 
FREC. NAT. DE SENSORES, C1-C6, (Hz)    : /51.29/51.09/53.75
FREC. NAT. DE SENSORES, C7-C12, (Hz)   : 
AMORTIGUAMIENTO DE SENSORES, C1-C6     : /0.5519/0.5670/0.5810
AMORTIGUAMIENTO DE SENSORES, C7-C12    : 
INTERVALO DE MUESTREO, C1-C6, (s)      : /0.01/0.01/0.01
INTERVALO DE MUESTREO, C7-C12, (s)     : 
UMBRAL DE DISPARO, C1-C6, (Gal)        : /71.83/83.8/83.8
UMBRAL DE DISPARO, C7-C12, (Gal)       : 
MEMORIA DE PREEVENTO (s)               : 56.0
TIEMPO DE POSEVENTO (s)                : 80.0


================================================================================
DATOS DEL SISMO:
FECHA DEL SISMO (GMT)                  : 11/ABR/12
HORA EPICENTRO (GMT)                   : 22:55:10.0
MAGNITUD(ES)                           : /Mc=6.4
COORDENADAS DEL EPICENTRO              : 17.90 LAT. N
                                       : 103.10 LONG. W
PROFUNDIDAD FOCAL (km)                 : 16
FUENTE DE LOS DATOS EPICENTRALES       : SSN
                                       : INSTITUTO DE GEOFISICA, UNAM

================================================================================
DATOS DE ESTE REGISTRO:
HORA DE LA PRIMERA MUESTRA (GMT)       : 22:57:24.00
EXACTITUD DEL TIEMPO (s)               : 0.01
DURACION DEL REGISTRO (s), C1-C6       : /115.0/115.0/115.0
DURACION DEL REGISTRO (s), C7-C12      : 
NUM. TOTAL DE MUESTRAS, C1-C6          : /11500/11500/11500
NUM. TOTAL DE MUESTRAS, C7-C12         : 
ACEL. MAX. (Gal), C1-C6                : /8.28659/2.33049/7.9715
ACEL. MAX., C1-C6, EN LA MUESTRA       : /4789/4725/4460
ACEL. MAX. (Gal), C7-C12               : 
ACEL. MAX., C7-C12, EN LA MUESTRA      : 
UNIDADES DE LOS DATOS                  : Gal (cm/s/s)
FACTOR DE DECIMACION                   : 1
FORMATO DATOS (FORTRAN,10 campos/dato) : 3F10.5


================================================================================
CALIDAD DEL ACELEROGRAMA:
REGISTRO DIGITAL COMPLETO CON TIEMPO ABSOLUTO CORRECTO.


================================================================================
COMENTARIOS:














================================================================================
DATOS DE ACELERACION:
---------+---------+---------+---------+---------+---------+---------+---------+
   CANAL-1   CANAL-2   CANAL-3   CANAL-4   CANAL-5   CANAL-6   CANAL-7   CANAL-8
      N00E        +V      N90W
---------+---------+---------+---------+---------+---------+---------+---------+
[...]
  -1.23866   0.80419  -3.75172
  -0.95435   0.78922  -4.09589
  -0.74486   0.69944  -4.54480
  -0.50544   0.69944  -4.88897
  -0.23609   0.62462  -5.17328
   0.06319   0.53484  -5.54738
   0.36246   0.48995  -5.80176
   0.64677   0.51987  -6.14593
   0.94605   0.47498  -6.41527
   1.20043   0.46002  -6.80433
   1.45482   0.48995  -7.02879
   1.61942   0.43009  -7.31310
   1.82891   0.38520  -7.49266
   1.97855   0.48995  -7.55252
   2.02344   0.44506  -7.71712
   2.17308   0.53484  -7.82187
   2.27782   0.50491  -7.94158
   2.23293   0.56477  -7.97150
   2.26286   0.54980  -7.85179
   2.26286   0.47498  -7.91165
   2.21797   0.48995  -7.77698
   2.11322   0.50491  -7.67223
   2.08330   0.60966  -7.58245
   1.97855   0.69944  -7.47770
   1.79898   0.69944  -7.37295
   1.72416   0.75930  -7.28317
   1.60445   0.87901  -7.14850
   1.49971   0.86404  -7.02879
   1.30518   0.87901  -6.78937
   1.17051   0.81915  -6.66966
   1.08072   0.74433  -6.52002
   0.82634   0.74433  -6.35542
   0.78145   0.81915  -6.08607
   0.60188   0.77426  -5.92147
   0.51210   0.72937  -5.81672
   0.34750   0.71440  -5.63716
   0.18290   0.71440  -5.53241
   0.12304   0.65455  -5.29299
  -0.01163   0.71440  -5.03861
  -0.08645   0.65455  -4.81415
  -0.17623   0.66951  -4.60466
  -0.23609   0.62462  -4.35027
  -0.26602   0.66951  -4.11085
  -0.32587   0.66951  -3.87143
  -0.40069   0.71440  -3.58712
  -0.43062   0.74433  -3.30281
  -0.46054   0.71440  -3.07836
  -0.49047   0.80419  -2.74915
  -0.58025   0.80419  -2.52470
  -0.65507   0.84908  -2.18053
  -0.72989   0.78922  -1.89622
  -0.74486   0.75930  -1.61191
  -0.86457   0.80419  -1.25278
  -0.99924   0.84908  -0.98343
  -1.01420   0.90893  -0.66919
  -1.14888   0.86404  -0.33999
  -1.19377   0.83411  -0.11553
  -1.17880   0.86404   0.07900
  -1.31348   0.81915   0.28849
  -1.34341   0.71440   0.54287
  -1.38830   0.71440   0.82719
  -1.47808   0.72937   1.09653
  -1.50801   0.77426   1.24617
  -1.56786   0.66951   1.44070
  -1.56786   0.63958   1.73998
  -1.58283   0.60966   1.73998
  -1.52297   0.53484   1.81479
  -1.43319   0.59469   1.99436
  -1.37333   0.53484   2.12903
  -1.41822   0.43009   2.20385
  -1.26859   0.29542   2.18889
  -1.16384   0.31038   2.30860
  -1.14888   0.23556   2.35349
  -1.01420   0.20564   2.39838
  -0.95435   0.16074   2.47320
  -0.86457   0.02607   2.48816
  -0.81967  -0.00386   2.53305
  -0.80471  -0.07868   2.44327
  -0.72989  -0.01882   2.48816
  -0.71493  -0.15349   2.42831
  -0.68500  -0.19839   2.47320
  -0.56529  -0.13853   2.54802
  -0.62515  -0.31810   2.50313
  -0.56529  -0.33306   2.57795
  -0.47551  -0.33306   2.65277
  -0.38573  -0.39291   2.68269
  -0.38573  -0.45277   2.63780
  -0.25105  -0.51262   2.66773
  -0.22112  -0.46773   2.68269
  -0.16127  -0.45277   2.72758
  -0.01163  -0.45277   2.89219
  -0.01163  -0.57248   2.84729
   0.04822  -0.51262   3.01190
   0.04822  -0.54255   3.01190
   0.13801  -0.54255   3.11664
   0.19786  -0.63233   3.25132
   0.34750  -0.61737   3.35606
   0.45225  -0.66226   3.50570
   0.49714  -0.70715   3.68526
   0.55699  -0.69219   3.74512
   0.60188  -0.67723   3.76008
   0.72159  -0.75204   3.80497
   0.78145  -0.67723   3.84987
   0.88619  -0.58744   3.92468
   0.90116  -0.66226   3.92468
   0.94605  -0.61737   3.93965
   0.94605  -0.58744   3.87979
   1.02087  -0.61737   3.81994
   1.00590  -0.55752   3.73016
   1.00590  -0.58744   3.65534
   1.00590  -0.51262   3.70023
   0.99094  -0.49766   3.64037
   0.93109  -0.48270   3.50570
   0.84130  -0.52759   3.34110
   0.79641  -0.54255   3.34110
   0.75152  -0.46773   3.25132
   0.61685  -0.57248   3.13161
   0.55699  -0.57248   3.08671
   0.39239  -0.51262   3.04182
   0.28764  -0.48270   3.04182
   0.22779  -0.52759   3.05679
   0.10808  -0.51262   3.02686
   0.03326  -0.48270   3.13161
  -0.02660  -0.34802   3.16153
  -0.11638  -0.40788   3.22139
  -0.13134  -0.25824   3.25132
  -0.23609  -0.18342   3.31117
  -0.29594  -0.12357   3.29621
  -0.35580  -0.04875   3.35606
  -0.43062  -0.01882   3.38599
  -0.52040  -0.00386   3.32613
  -0.53536   0.10089   3.41592
  -0.56529   0.17571   3.44584
  -0.68500   0.25053   3.50570
  -0.72989   0.32535   3.47577
  -0.67004   0.29542   3.52066
  -0.68500   0.29542   3.53563
  -0.77478   0.28045   3.47577
  -0.72989   0.20564   3.50570
  -0.75982   0.17571   3.55059
  -0.64011   0.13082   3.44584
  -0.65507   0.07096   3.29621
  -0.58025   0.05600   3.22139
  -0.50544  -0.03378   3.13161
  -0.38573  -0.03378   3.01190
  -0.25105  -0.04875   2.96700
  -0.19120  -0.15349   2.84729
  -0.04156  -0.12357   2.68269
   0.19786  -0.16846   2.57795
   0.36246  -0.24328   2.42831
   0.57196  -0.28817   2.33853
   0.75152  -0.37795   2.15896
   0.96101  -0.36299   1.99436
   1.21540  -0.37795   1.87465
   1.39496  -0.39291   1.71005
   1.61942  -0.49766   1.51552
   1.78402  -0.58744   1.23121
   2.00848  -0.64730   1.09653
   2.18804  -0.67723   0.97682
   2.36761  -0.69219   0.73740
   2.56214  -0.69219   0.52791
   2.77163  -0.72212   0.39324
   2.92127  -0.75204   0.25856
   3.01105  -0.73708   0.07900
   3.11579  -0.79694  -0.11553
   3.23550  -0.88672  -0.26517
   3.23550  -0.82686  -0.39984
   3.35521  -0.90168  -0.54948
   3.37018  -0.97650  -0.68415
   3.34025  -0.96154  -0.78890
   3.32529  -0.96154  -0.86372
   3.22054  -0.97650  -0.99839
   3.19061  -0.96154  -1.10314
   3.08587  -0.91665  -1.14803
   2.99608  -0.97650  -1.22285
   2.87637  -0.85679  -1.28270
   2.72674  -0.85679  -1.40241
   2.54717  -0.88672  -1.44731
   2.41250  -0.87175  -1.43234
   2.30775  -0.87175  -1.47723
   2.08330  -0.88672  -1.49220
   1.94862  -0.82686  -1.49220
   1.76906  -0.79694  -1.52212
   1.55956  -0.75204  -1.43234
   1.42489  -0.78197  -1.41738
   1.26029  -0.67723  -1.32760
   1.05080  -0.66226  -1.23781
   0.87123  -0.57248  -1.05825
   0.69167  -0.57248  -1.01336
   0.42232  -0.55752  -0.84875
   0.15297  -0.49766  -0.77394
   0.01830  -0.49766  -0.63926
  -0.20616  -0.42284  -0.47466
  -0.40069  -0.42284  -0.38488
  -0.64011  -0.39291  -0.32502
  -0.86457  -0.37795  -0.17539
  -1.08902  -0.27320   0.00418
  -1.31348  -0.19839   0.00418
  -1.56786  -0.16846   0.12389
  -1.77736  -0.10860   0.28849
  -1.94196  -0.00386   0.39324
  -2.18138   0.01111   0.46806
  -2.36094   0.08593   0.51295
  -2.58540   0.05600   0.49798
  -2.77993   0.13082   0.63266
  -2.97446   0.11585   0.69251
  -3.21388   0.13082   0.69251
  -3.42337   0.10089   0.61769
  -3.64783   0.10089   0.55784
  -3.81243   0.17571   0.67755
  -4.02192   0.13082   0.63266
  -4.20148   0.10089   0.52791
  -4.38105   0.13082   0.46806
  -4.56061   0.14578   0.43813
  -4.75514   0.16074   0.31842
  -4.94967   0.10089   0.19871
  -5.08435   0.04103   0.09396
  -5.24895   0.07096  -0.14546
  -5.45844  -0.00386  -0.33999
  -5.54822   0.07096  -0.50459
  -5.68290  -0.01882  -0.71408
  -5.84750   0.02607  -0.92357
  -5.99714  -0.00386  -1.20789
  -6.04203  -0.09364  -1.37249
  -6.13181  -0.10860  -1.62687
  -6.20663  -0.09364  -1.83636
  -6.31137  -0.21335  -2.06082
  -6.26648  -0.15349  -2.16557
  -6.32634  -0.22831  -2.47980
  -6.28145  -0.25824  -2.62944
  -6.25152  -0.22831  -2.79404
  -6.19166  -0.25824  -3.01850
  -6.13181  -0.19839  -3.16814
  -5.96721  -0.22831  -3.28785
  -5.78764  -0.30313  -3.45245
  -5.62304  -0.22831  -3.52727
  -5.42851  -0.25824  -3.67691
  -5.21902  -0.25824  -3.79662
  -4.99456  -0.27320  -3.93129
  -4.81500  -0.30313  -4.11085
  -4.54565  -0.27320  -4.11085
  -4.18652  -0.33306  -4.18567
  -3.93214  -0.39291  -4.33531
  -3.63286  -0.33306  -4.30538
  -3.30366  -0.33306  -4.27546
  -3.03431  -0.34802  -4.29042
  -2.75000  -0.39291  -4.26049
  -2.37591  -0.30313  -4.29042
  -2.10656  -0.33306  -4.29042
  -1.76239  -0.22831  -4.09589
  -1.50801  -0.30313  -4.21560
  -1.20873  -0.28817  -4.06596
  -0.89449  -0.27320  -4.00611
  -0.56529  -0.15349  -3.94625
  -0.25105  -0.07868  -3.96122
   0.00333  -0.09364  -3.90136
   0.28764  -0.01882  -3.73676
   0.61685   0.02607  -3.55720
   0.90116   0.04103  -3.43749
   1.21540   0.16074  -3.42252
   1.51467   0.25053  -3.22799
   1.81395   0.38520  -3.10828
   2.12819   0.47498  -2.94368
   2.44243   0.53484  -2.89879
   2.75666   0.68448  -2.70426
   3.04098   0.78922  -2.62944
   3.37018   0.86404  -2.36009
   3.66945   1.08850  -2.22542
   3.95377   1.32792  -2.09075
   4.23808   1.37281  -1.94111
   4.43261   1.55237  -1.76154
   4.77677   1.61223  -1.62687
   5.00123   1.71698  -1.53709
   5.24065   1.88158  -1.43234
   5.53992   1.89654  -1.28270
   5.73445   1.98632  -1.20789
   5.97387   2.00129  -1.13307
   6.18337   2.06114  -0.96846
   6.37789   2.07611  -0.90861
   6.55746   2.16589  -0.78890
   6.67717   2.27063  -0.65423
   6.84177   2.24071  -0.62430
   6.85673   2.33049  -0.48962
   7.02134   2.27063  -0.41481
   7.05126   2.21078  -0.32502
   7.05126   2.21078  -0.28013
   7.11112   2.13596  -0.16042
   7.17097   2.06114  -0.13049
   7.21586   1.98632  -0.08560
   7.18594   1.88158  -0.01078
   7.17097   1.82172   0.15382
   7.12608   1.71698   0.18374
   7.08119   1.61223   0.28849
   7.00637   1.44763   0.36331
   6.99141   1.31295   0.40820
   6.88666   1.25310   0.52791
   6.76695   1.04361   0.52791
   6.81184   0.93886   0.63266
   6.72206   0.75930   0.57280
   6.61731   0.71440   0.69251
   6.58739   0.57973   0.63266
   6.55746   0.43009   0.64762
   6.49760   0.31038   0.72244
   6.39286   0.20564   0.67755
   6.31804   0.08593   0.72244
   6.31804  -0.01882   0.79726
   6.16840  -0.10860   0.76733
   6.10855  -0.21335   0.73740
   5.92898  -0.22831   0.79726
   5.80927  -0.24328   0.87208
   5.70453  -0.33306   0.87208
   5.59978  -0.31810   0.87208
   5.45014  -0.37795   0.94690
   5.19576  -0.40788   0.97682
   4.98626  -0.39291   1.05164
   4.71692  -0.37795   1.12646
   4.47750  -0.37795   1.21624
   4.16326  -0.34802   1.36588
   3.86398  -0.33306   1.51552
   3.53478  -0.37795   1.53048
   3.13076  -0.31810   1.66516
   2.72674  -0.27320   1.79983
   2.29279  -0.27320   1.94947
   1.84387  -0.21335   2.08414
   1.39496  -0.22831   2.17392
   0.93109  -0.18342   2.30860
   0.31757  -0.21335   2.35349
  -0.20616  -0.10860   2.50313
  -0.80471  -0.04875   2.62284
  -1.35837   0.04103   2.62284
  -1.95692   0.10089   2.69766
  -2.54051   0.08593   2.69766
  -3.12409   0.20564   2.77248
  -3.64783   0.26549   2.80240
  -4.23141   0.17571   2.68269
  -4.77011   0.19067   2.59291
  -5.32377   0.14578   2.65277
  -5.75772   0.08593   2.57795
  -6.26648   0.14578   2.47320
  -6.68547   0.08593   2.48816
  -7.11942   0.02607   2.36845
  -7.41869   0.05600   2.32356
  -7.65811  -0.07868   2.32356
  -7.91250  -0.15349   2.26371
  -8.12199  -0.22831   2.23378
  -8.19681  -0.28817   2.11407
  -8.28659  -0.45277   2.12903
  -8.28659  -0.51262   2.17392
  -8.27163  -0.55752   2.15896
  -8.22674  -0.54255   2.14400
  -8.09206  -0.63233   2.11407
  -8.00228  -0.70715   2.08414
  -7.74790  -0.76701   2.11407
  -7.53840  -0.81190   2.18889
  -7.25409  -0.87175   2.18889
  -6.96978  -0.99146   2.24874
  -6.64058  -1.09621   2.30860
  -6.35627  -1.06628   2.30860
  -6.02706  -1.09621   2.30860
  -5.59311  -1.09621   2.35349
  -5.29384  -1.11118   2.32356
  -4.99456  -1.05132   2.41334
  -4.53069  -1.12614   2.30860
  -4.20148  -1.08125   2.30860
  -3.82739  -1.02139   2.30860
  -3.45330  -0.94657   2.38342
  -3.12409  -0.93161   2.35349
  -2.75000  -0.85679   2.39838
  -2.40583  -0.78197   2.29363
  -2.10656  -0.72212   2.30860
  -1.82225  -0.67723   2.26371
  -1.44815  -0.64730   2.14400
  -1.23866  -0.52759   2.05421
  -0.90946  -0.54255   2.03925
  -0.68500  -0.52759   1.97940
  -0.49047  -0.48270   1.84472
  -0.20616  -0.40788   1.69508
   0.03326  -0.27320   1.60530
   0.25772  -0.30313   1.53048
   0.36246  -0.19839   1.51552
   0.54203  -0.13853   1.30603
   0.73656  -0.06371   1.23121
   0.93109  -0.03378   1.17135
   1.02087  -0.01882   1.12646
   1.14058   0.04103   1.12646
   1.18547   0.02607   1.14143
   1.26029   0.04103   1.09653
   1.27525   0.08593   1.03668
   1.29022   0.11585   1.09653
   1.32014   0.05600   1.12646
   1.26029   0.01111   1.18632
   1.27525  -0.07868   1.15639
   1.26029  -0.07868   1.14143
   1.20043  -0.13853   1.18632
   1.24532  -0.12357   1.24617
   1.18547  -0.21335   1.21624
   1.17051  -0.19839   1.20128
   1.14058  -0.39291   1.20128
   1.17051  -0.40788   1.26114
   1.18547  -0.51262   1.14143
   1.21540  -0.60241   1.05164
   1.21540  -0.58744   1.03668
   1.17051  -0.60241   0.85711
   1.18547  -0.79694   0.79726
   1.15554  -0.87175   0.52791
   1.20043  -0.94657   0.33338
   1.12561  -0.96154   0.04907
   1.18547  -0.97650  -0.11553
   1.23036  -1.05132  -0.33999
   1.21540  -1.12614  -0.71408
   1.21540  -1.12614  -1.01336
   1.21540  -1.09621  -1.34256
   1.20043  -1.11118  -1.64183
   1.23036  -1.09621  -1.89622
   1.21540  -1.11118  -2.19549
   1.26029  -1.15607  -2.36009
   1.29022  -1.08125  -2.62944
   1.32014  -1.03636  -2.92872
   1.30518  -1.03636  -3.19807
   1.42489  -1.06628  -3.36267
   1.42489  -1.02139  -3.51230
   1.45482  -0.99146  -3.57216
   1.58949  -1.02139  -3.58712
   1.64935  -0.99146  -3.60209
   1.81395  -0.94657  -3.58712
   1.78402  -0.94657  -3.49734
   1.84387  -0.73708  -3.51230
   1.88877  -0.73708  -3.46741
   1.85884  -0.75204  -3.43749
   1.87380  -0.73708  -3.27288
   1.85884  -0.63233  -3.06339
   1.85884  -0.58744  -2.98857
   1.78402  -0.51262  -2.83894
   1.87380  -0.39291  -2.61448
   1.75409  -0.25824  -2.33017
   1.60445  -0.18342  -2.25535
   1.52964  -0.10860  -2.09075
   1.33511  -0.01882  -1.91118
   1.26029   0.17571  -1.73162
   1.11065   0.17571  -1.53709
   0.87123   0.28045  -1.28270
   0.76648   0.38520  -1.17796
   0.55699   0.46002  -0.98343
   0.45225   0.48995  -0.87868
   0.22779   0.57973  -0.71408
   0.03326   0.63958  -0.48962
  -0.08645   0.66951  -0.32502
  -0.22112   0.75930  -0.17539
  -0.37076   0.77426  -0.02575
  -0.52040   0.78922   0.09396
  -0.62515   0.83411   0.22864
  -0.71493   0.87901   0.25856
  -0.83464   0.92390   0.37827
  -0.87953   0.87901   0.51295
  -0.95435   0.86404   0.58777
  -0.99924   0.87901   0.67755
  -0.99924   0.83411   0.76733
  -0.98428   0.83411   0.76733
  -1.13391   0.84908   0.79726
  -1.11895   0.83411   0.79726
  -1.17880   0.77426   0.72244
  -1.25362   0.72937   0.70748
  -1.34341   0.69944   0.67755
  -1.38830   0.59469   0.70748
  -1.46312   0.51987   0.66258
  -1.59779   0.44506   0.70748
  -1.70254   0.41513   0.66258
  -1.77736   0.48995   0.63266
  -1.85217   0.38520   0.61769
  -2.04670   0.28045   0.58777
  -2.13649   0.19067   0.57280
  -2.28612   0.14578   0.49798
  -2.39087   0.11585   0.54287
  -2.51058   0.08593   0.49798
  -2.66022  -0.00386   0.40820
  -2.75000   0.01111   0.45309
  -2.89964   0.05600   0.34835
  -2.89964   0.05600   0.34835
  -2.97446   0.02607   0.36331
  -2.94453   0.05600   0.31842
  -2.97446   0.10089   0.28849
  -2.95949   0.13082   0.28849
  -2.86971   0.13082   0.18374
  -2.82482   0.10089   0.09396
  -2.73504   0.17571   0.07900
  -2.57043   0.11585   0.00418
  -2.40583   0.17571  -0.02575
  -2.39087   0.07096  -0.17539
  -2.15145   0.08593  -0.23524
  -2.09159   0.07096  -0.32502
  -1.92699  -0.00386  -0.44473
  -1.73246  -0.16846  -0.59437
  -1.59779  -0.12357  -0.50459
  -1.49304  -0.27320  -0.50459
  -1.37333  -0.37795  -0.54948
  -1.11895  -0.46773  -0.51955
