********************************************************************************
              CENTRO DE INSTRUMENTACION Y REGISTRO SISMICO  A.C.

    Anaxagoras 814, Col. Narvarte, Benito Juarez, C.P. 03020 Mexico, D.F.
           Tels. 5687 45 42/ 5687 45  82             Fax. 5669 25 12
********************************************************************************
ARCHIVO ESTANDAR DE ACELERACION:
VERSION DEL FORMATO                    : 2.0
NOMBRE DEL ARCHIVO                     : AL0120150320223008
FECHA Y HORA DE CREACION               : 08/ABR/15, 11:22
REF. CATALOGO ACELEROGRAMAS, SMIS 1996 : REGISTRO No.     /PAG.


================================================================================
DATOS DE LA ESTACION:
NOMBRE DE LA ESTACION                  : ALAMEDA
CLAVE DE LA ESTACION                   : AL01
LOCALIZACION DE LA ESTACION            : Del. Cuauhtémoc, Col. Centro,          
                                       : Dr. Mora entre Av. Hidalgo             
                                       : y Av. Juárez.                          
                                       :                                        
                                       : 
COORDENADAS DE LA ESTACION             : 19.4356 LAT. N
                                       : 99.1453 LONG. W
ALTITUD (msnm)                         : 2232
TIPO DE SUELO                          : Terreno blando, material compresible
                                       : (arcillas)                
                                       : 
INSTITUCION RESPONSABLE                : CIRES
                                       : 

================================================================================
DATOS DEL ACELEROGRAFO:
MODELO DEL ACELEROGRAFO                : RADESD
NUMERO DE SERIE DEL ACELEROGRAFO       : 152
NUMERO DE CANALES                      : 3
ORIENTACION C1-C6 (rumbo;orientacion)  : /S00E/+V/N90W
ORIENTACION C7-C12 (rumbo;orientacion) : 
VEL. DE MUESTREO, C1-C6 (muestras/s)   : /100/100/100
VEL. DE MUESTREO, C7-C12 (muestras/s)  : 
ESC. COMPLETA DE SENSORES, C1-C6, (g)  : /0.5/0.5/0.5
ESC. COMPLETA DE SENSORES, C7-C12, (g) : 
FREC. NAT. DE SENSORES, C1-C6, (Hz)    : /51.29/51.09/53.75
FREC. NAT. DE SENSORES, C7-C12, (Hz)   : 
AMORTIGUAMIENTO DE SENSORES, C1-C6     : /0.5519/0.5670/0.5810
AMORTIGUAMIENTO DE SENSORES, C7-C12    : 
INTERVALO DE MUESTREO, C1-C6, (s)      : /0.01/0.01/0.01
INTERVALO DE MUESTREO, C7-C12, (s)     : 
UMBRAL DE DISPARO, C1-C6, (Gal)        : /0.9/1.8/0.9
UMBRAL DE DISPARO, C7-C12, (Gal)       : 
MEMORIA DE PREEVENTO (s)               : 44.0
TIEMPO DE POSEVENTO (s)                : 21.0


================================================================================
DATOS DEL SISMO:
FECHA DEL SISMO (GMT)                  : 20/MAR/15
HORA EPICENTRO (GMT)                   : 22:30:08.0
MAGNITUD(ES)                           : /Mc=5.4
COORDENADAS DEL EPICENTRO              : 17.96 LAT. N
                                       : 98.58 LONG. W
PROFUNDIDAD FOCAL (km)                 : 61
FUENTE DE LOS DATOS EPICENTRALES       : SSN
                                       : INSTITUTO DE GEOFISICA, UNAM

================================================================================
DATOS DE ESTE REGISTRO:
HORA DE LA PRIMERA MUESTRA (GMT)       : 22:30:54.00
EXACTITUD DEL TIEMPO (s)               : 0.01
DURACION DEL REGISTRO (s), C1-C6       : /178.8/178.8/178.8
DURACION DEL REGISTRO (s), C7-C12      : 
NUM. TOTAL DE MUESTRAS, C1-C6          : /17880/17880/17880
NUM. TOTAL DE MUESTRAS, C7-C12         : 
ACEL. MAX. (Gal), C1-C6                : /4.44635/2.45881/3.81999
ACEL. MAX., C1-C6, EN LA MUESTRA       : /4437/5135/5033
ACEL. MAX. (Gal), C7-C12               : 
ACEL. MAX., C7-C12, EN LA MUESTRA      : 
UNIDADES DE LOS DATOS                  : Gal (cm/s/s)
FACTOR DE DECIMACION                   : 1
FORMATO DATOS (FORTRAN,10 campos/dato) : 3F10.5


================================================================================
CALIDAD DEL ACELEROGRAMA:
REGISTRO DIGITAL COMPLETO CON TIEMPO ABSOLUTO CORRECTO.


================================================================================
COMENTARIOS:














================================================================================
DATOS DE ACELERACION:
---------+---------+---------+---------+---------+---------+---------+---------+
   CANAL-1   CANAL-2   CANAL-3   CANAL-4   CANAL-5   CANAL-6   CANAL-7   CANAL-8
      S00E        +V      N90W
---------+---------+---------+---------+---------+---------+---------+---------+
[...]
  -0.55155   0.41423  -0.04913
  -0.59644   0.59380  -0.07905
  -0.52162   0.53394  -0.06409
  -0.44680   0.44416   0.04066
  -0.31212   0.32445   0.19029
  -0.26723   0.11496   0.25015
  -0.22234  -0.00475   0.26511
  -0.29716   0.09999   0.28008
  -0.22234   0.20474   0.17533
  -0.16249   0.21970   0.05562
  -0.08767   0.18978   0.04066
  -0.04278   0.12992   0.01073
  -0.04278   0.11496   0.05562
   0.01708   0.15985   0.14540
   0.04701   0.01021   0.16037
   0.09190  -0.10950   0.17533
   0.19664  -0.27410   0.10051
   0.18168  -0.46863   0.04066
   0.21161  -0.57338  -0.00423
   0.27146  -0.57338   0.01073
   0.28643  -0.60330   0.07058
   0.24153  -0.60330   0.07058
   0.24153  -0.63323   0.10051
   0.25650  -0.64819   0.05562
   0.28643  -0.48359   0.10051
   0.24153  -0.43870   0.08555
   0.19664  -0.43870   0.11548
   0.09190  -0.34892   0.08555
   0.15175  -0.18432   0.07058
   0.15175  -0.18432   0.02569
   0.25650  -0.01972  -0.04913
   0.27146  -0.00475  -0.16884
   0.40614   0.17481  -0.12394
   0.31635   0.23467  -0.09402
   0.28643   0.29452   0.04066
   0.24153   0.26459   0.16037
   0.16672   0.11496   0.17533
   0.06197  -0.12446   0.17533
   0.06197  -0.07957   0.10051
   0.03204  -0.12446   0.02569
  -0.02781  -0.16935   0.05562
   0.04701  -0.22921   0.14540
   0.04701  -0.34892   0.16037
  -0.05774  -0.34892   0.10051
  -0.08767  -0.36388   0.02569
  -0.14752  -0.16935   0.01073
  -0.20738  -0.03468  -0.04913
  -0.29716   0.01021  -0.04913
  -0.28220   0.12992  -0.00423
  -0.22234   0.07007   0.05562
  -0.19241   0.08503   0.04066
  -0.07270   0.14488  -0.00423
  -0.05774   0.32445  -0.06409
   0.04701   0.27956  -0.13891
   0.07693   0.30949  -0.21373
   0.09190   0.30949  -0.33344
   0.09190   0.26459  -0.34840
   0.07693   0.29452  -0.43818
  -0.04278   0.27956  -0.54293
   0.01708   0.44416  -0.57286
   0.01708   0.48905  -0.60279
   0.04701   0.44416  -0.52797
   0.00211   0.39927  -0.48308
   0.07693   0.15985  -0.45315
   0.10686   0.07007  -0.37833
   0.12182  -0.01972  -0.33344
   0.18168   0.02517  -0.22869
   0.19664   0.15985  -0.21373
   0.21161   0.23467  -0.15387
   0.15175   0.35438  -0.01920
   0.19664   0.50402   0.16037
   0.24153   0.50402   0.32497
   0.31635   0.45912   0.32497
   0.33132   0.33941   0.29504
   0.39117   0.14488   0.20526
   0.33132  -0.04964   0.19029
   0.22657  -0.12446   0.22022
   0.13679  -0.21425   0.26511
   0.13679  -0.30403   0.33993
   0.10686  -0.30403   0.31000
   0.21161  -0.54345   0.33993
   0.24153  -0.84272   0.31000
   0.12182  -0.99236   0.20526
   0.16672  -1.00732   0.20526
   0.06197  -0.82776   0.19029
   0.07693  -0.72301   0.26511
   0.15175  -0.46863   0.19029
   0.06197  -0.28906   0.25015
   0.06197  -0.03468   0.20526
  -0.05774   0.14488   0.16037
   0.04701   0.27956   0.13044
  -0.01285   0.32445   0.04066
   0.04701   0.42920  -0.03416
   0.07693   0.44416  -0.07905
   0.15175   0.44416  -0.18380
   0.13679   0.42920  -0.21373
   0.04701   0.33941  -0.25862
   0.03204   0.17481  -0.31847
  -0.08767   0.12992  -0.39329
  -0.07270   0.08503  -0.36336
  -0.07270   0.30949  -0.28855
   0.04701   0.38431  -0.25862
   0.03204   0.39927  -0.22869
   0.12182   0.56387  -0.13891
   0.22657   0.66862  -0.12394
   0.37621   0.80329  -0.13891
   0.48095   0.83322  -0.07905
   0.60066   0.83322  -0.07905
   0.66052   0.80329  -0.00423
   0.61563   0.81825  -0.01920
   0.45103   0.80329  -0.00423
   0.43606   0.71351   0.07058
   0.48095   0.56387   0.11548
   0.43606   0.33941   0.08555
   0.31635   0.02517   0.10051
   0.34628  -0.22921   0.14540
   0.37621  -0.49856   0.22022
   0.33132  -0.67812   0.28008
   0.37621  -0.79783   0.32497
   0.25650  -0.75294   0.25015
   0.16672  -0.61827   0.26511
   0.06197  -0.33396   0.23519
   0.01708  -0.24417   0.25015
  -0.04278  -0.21425   0.28008
  -0.01285  -0.25914   0.36986
  -0.04278  -0.45367   0.39979
  -0.13256  -0.64819   0.39979
  -0.22234  -0.93251   0.29504
  -0.38694  -0.93251   0.14540
  -0.49169  -0.97740  -0.01920
  -0.47673  -0.88761  -0.07905
  -0.56651  -0.73798  -0.01920
  -0.55155  -0.57338   0.05562
  -0.62636  -0.36388   0.11548
  -0.64133  -0.15439   0.07058
  -0.64133  -0.04964   0.07058
  -0.49169  -0.00475  -0.01920
  -0.38694  -0.01972  -0.06409
  -0.31212  -0.13943  -0.01920
  -0.29716  -0.30403   0.05562
  -0.35702  -0.33396   0.13044
  -0.37198  -0.36388   0.14540
  -0.40191  -0.12446   0.11548
  -0.43184   0.09999  -0.04913
  -0.35702   0.39927  -0.13891
  -0.25227   0.56387  -0.13891
  -0.05774   0.75840  -0.12394
   0.07693   0.90804   0.05562
   0.18168   0.98286   0.08555
   0.13679   0.98286   0.08555
   0.13679   0.92300   0.04066
   0.12182   0.86315  -0.06409
   0.07693   0.80329  -0.13891
   0.06197   0.71351  -0.13891
   0.06197   0.51898  -0.21373
   0.03204   0.33941  -0.12394
  -0.02781   0.15985  -0.18380
  -0.02781   0.01021  -0.18380
  -0.05774  -0.10950  -0.21373
  -0.10263  -0.15439  -0.22869
  -0.13256  -0.15439  -0.16884
   0.00211  -0.22921  -0.04913
  -0.02781  -0.24417   0.07058
   0.03204  -0.42374   0.13044
  -0.01285  -0.49856   0.20526
  -0.02781  -0.49856   0.29504
  -0.20738  -0.34892   0.32497
  -0.23731  -0.25914   0.36986
  -0.28220  -0.19928   0.36986
  -0.28220  -0.24417   0.39979
  -0.23731  -0.27410   0.35490
  -0.28220  -0.36388   0.26511
  -0.31212  -0.39381   0.08555
  -0.26723  -0.43870  -0.04913
  -0.26723  -0.42374  -0.12394
  -0.29716  -0.39381  -0.12394
  -0.29716  -0.45367  -0.04913
  -0.20738  -0.40877   0.01073
  -0.08767  -0.45367   0.01073
  -0.07270  -0.42374  -0.06409
  -0.04278  -0.33396  -0.12394
   0.01708  -0.39381  -0.18380
   0.04701  -0.28906  -0.12394
   0.06197  -0.21425  -0.10898
   0.04701  -0.00475  -0.15387
   0.03204   0.11496  -0.21373
  -0.02781   0.23467  -0.31847
  -0.02781   0.09999  -0.42322
  -0.08767  -0.00475  -0.52797
  -0.10263  -0.13943  -0.52797
  -0.19241  -0.12446  -0.51300
  -0.20738  -0.06461  -0.46811
  -0.29716  -0.00475  -0.42322
  -0.40191   0.09999  -0.46811
  -0.38694   0.11496  -0.49804
  -0.32709   0.09999  -0.51300
  -0.25227   0.04014  -0.40826
  -0.16249   0.02517  -0.37833
  -0.25227   0.02517  -0.33344
  -0.26723   0.07007  -0.31847
  -0.28220   0.11496  -0.37833
  -0.31212   0.11496  -0.36336
  -0.29716   0.05510  -0.43818
  -0.29716   0.02517  -0.39329
  -0.28220  -0.01972  -0.37833
  -0.23731   0.01021  -0.25862
  -0.25227   0.05510  -0.16884
  -0.26723  -0.00475  -0.03416
  -0.22234  -0.06461  -0.07905
  -0.29716  -0.09454  -0.21373
  -0.23731  -0.04964  -0.19876
  -0.25227   0.04014  -0.25862
  -0.17745   0.09999  -0.22869
  -0.08767   0.17481  -0.18380
   0.09190   0.12992  -0.13891
   0.10686   0.02517  -0.22869
   0.10686  -0.09454  -0.15387
   0.16672  -0.06461  -0.19876
   0.33132  -0.16935  -0.12394
   0.40614  -0.28906  -0.01920
   0.49592  -0.40877   0.08555
   0.60066  -0.45367   0.26511
   0.61563  -0.31899   0.31000
   0.63059  -0.18432   0.39979
   0.72037  -0.04964   0.36986
   0.69045   0.01021   0.39979
   0.73534   0.12992   0.35490
   0.72037   0.20474   0.28008
   0.73534   0.12992   0.25015
   0.72037   0.07007   0.26511
   0.60066   0.12992   0.32497
   0.43606   0.04014   0.36986
   0.28643   0.12992   0.41475
   0.16672   0.02517   0.39979
   0.10686  -0.09454   0.29504
   0.10686  -0.21425   0.17533
   0.03204  -0.36388   0.08555
  -0.07270  -0.27410   0.07058
  -0.20738  -0.07957   0.05562
  -0.40191   0.05510   0.07058
  -0.40191  -0.03468   0.01073
  -0.46176   0.01021  -0.10898
  -0.46176   0.01021  -0.13891
  -0.49169  -0.03468  -0.18380
  -0.46176   0.07007  -0.18380
  -0.52162   0.05510  -0.27358
  -0.62636   0.02517  -0.36336
  -0.70118   0.09999  -0.45315
  -0.73111   0.27956  -0.46811
  -0.68622   0.39927  -0.54293
  -0.49169   0.48905  -0.49804
  -0.35702   0.44416  -0.45315
  -0.25227   0.54891  -0.28855
  -0.37198   0.60876  -0.25862
  -0.34205   0.57883  -0.19876
  -0.29716   0.59380  -0.15387
  -0.31212   0.59380  -0.27358
  -0.22234   0.54891  -0.27358
  -0.16249   0.45912  -0.22869
  -0.08767   0.47409  -0.12394
  -0.10263   0.41423  -0.09402
  -0.11760   0.33941  -0.03416
  -0.14752   0.21970  -0.07905
  -0.19241   0.02517  -0.12394
  -0.22234   0.09999  -0.21373
  -0.28220   0.09999  -0.25862
  -0.35702   0.12992  -0.24365
  -0.46176   0.20474  -0.19876
  -0.55155   0.18978  -0.09402
  -0.58147   0.15985  -0.06409
  -0.64133   0.02517  -0.13891
  -0.67126  -0.01972  -0.39329
  -0.61140   0.09999  -0.42322
  -0.65629   0.15985  -0.52797
  -0.67126   0.02517  -0.54293
  -0.73111  -0.27410  -0.48308
  -0.73111  -0.55841  -0.45315
  -0.74607  -1.00732  -0.48308
  -0.76104  -1.27667  -0.64768
  -0.86578  -1.38142  -0.73746
  -0.91068  -1.32156  -0.76739
  -0.83586  -1.06718  -0.64768
  -0.71615  -0.85769  -0.45315
  -0.56651  -0.72301  -0.19876
  -0.38694  -0.58834   0.08555
  -0.28220  -0.46863   0.33993
  -0.02781  -0.46863   0.57935
   0.12182  -0.30403   0.99834
   0.22657  -0.13943   1.28265
   0.37621  -0.07957   1.61185
   0.48095   0.01021   1.85127
   0.63059   0.05510   2.01587
   0.76527   0.24963   2.10566
   0.94483   0.23467   2.25529
   1.16929   0.29452   2.33011
   1.45360   0.36934   2.43486
   1.78280   0.33941   2.53960
   2.02222   0.35438   2.59946
   2.18682   0.33941   2.47975
   2.36639   0.20474   2.38997
   2.44121   0.07007   2.16551
   2.60581  -0.03468   1.92609
   2.80034   0.05510   1.70163
   2.86019   0.18978   1.47718
   2.84523   0.33941   1.40236
   2.84523   0.27956   1.31258
   2.74048   0.20474   1.17790
   2.65070   0.09999   0.95345
   2.45617   0.08503   0.72899
   2.30653   0.05510   0.44468
   1.94740   0.08503   0.19029
   1.72295   0.09999   0.08555
   1.42367  -0.01972  -0.00423
   1.12440  -0.06461  -0.03416
   0.67548  -0.09454  -0.13891
   0.22657  -0.18432  -0.21373
  -0.35702  -0.25914  -0.21373
  -0.94060  -0.31899  -0.28855
  -1.43441  -0.36388  -0.33344
  -2.01799  -0.30403  -0.37833
  -2.45194  -0.19928  -0.45315
  -2.85596  -0.19928  -0.48308
  -3.25999  -0.09454  -0.51300
  -3.51437   0.08503  -0.45315
  -3.91839   0.29452  -0.51300
  -4.14285   0.35438  -0.51300
  -4.18774   0.54891  -0.54293
  -4.17278   0.60876  -0.63271
  -3.97825   0.62373  -0.66264
  -3.78372   0.60876  -0.70753
  -3.40962   0.65365  -0.63271
  -3.14028   0.71351  -0.58782
  -2.67640   0.68358  -0.51300
  -2.09281   0.84818  -0.49804
  -1.58404   0.89307  -0.48308
  -0.85082   0.69854  -0.39329
   0.01708   0.59380  -0.25862
   0.82512   0.39927  -0.10898
   1.60324   0.05510   0.01073
   2.15690  -0.04964  -0.00423
   2.65070  -0.18432   0.07058
   3.05472  -0.39381   0.02569
   3.51860  -0.40877   0.08555
   3.89269  -0.46863   0.10051
   4.19197  -0.49856   0.19029
   4.32664  -0.60330   0.16037
   4.44635  -0.58834   0.25015
   4.44635  -0.58834   0.26511
   4.32664  -0.70805   0.25015
   4.19197  -0.70805   0.23519
   3.96751  -0.79783   0.19029
   3.59342  -0.82776   0.10051
   3.09961  -0.84272  -0.06409
   2.47113  -0.76790  -0.07905
   1.87258  -0.63323  -0.01920
   1.25907  -0.60330  -0.00423
   0.69045  -0.72301   0.14540
   0.18168  -0.85769   0.25015
  -0.32709  -0.85769   0.39979
  -0.71615  -0.66316   0.51950
  -1.00046  -0.49856   0.68410
  -1.38952  -0.30403   0.65417
  -1.61397  -0.07957   0.68410
  -1.86836   0.04014   0.59432
  -1.94317   0.01021   0.53446
  -2.03296   0.04014   0.59432
  -2.04792   0.01021   0.56439
  -1.89828   0.07007   0.51950
  -1.77857   0.18978   0.42971
  -1.61397   0.53394   0.26511
  -1.49426   0.86315  -0.01920
  -1.40448   1.17738  -0.36336
  -1.16506   1.28213  -0.70753
  -0.86578   1.28213  -0.99184
  -0.49169   1.17738  -1.32105
  -0.26723   0.84818  -1.72507
  -0.08767   0.60876  -2.20391
   0.00211   0.38431  -2.71268
   0.03204   0.30949  -3.13166
   0.13679   0.35438  -3.29626
   0.06197   0.30949  -3.46086
  -0.04278   0.24963  -3.52072
  -0.13256   0.14488  -3.55065
  -0.32709   0.11496  -3.53568
  -0.43184   0.09999  -3.44590
  -0.44680   0.18978  -3.31123
  -0.40191   0.39927  -3.13166
  -0.40191   0.48905  -2.84735
  -0.32709   0.84818  -2.51815
  -0.28220   1.04271  -2.06923
  -0.29716   1.25220  -1.62032
  -0.22234   1.11753  -1.24623
  -0.23731   0.98286  -0.88710
  -0.22234   0.69854  -0.48308
  -0.11760   0.48905  -0.04913
  -0.08767   0.38431   0.39979
  -0.04278   0.26459   0.80381
   0.10686   0.11496   1.13301
   0.21161   0.07007   1.31258
   0.37621   0.18978   1.43229
   0.64556   0.14488   1.49214
   0.88498   0.05510   1.53703
   1.09447  -0.04964   1.65674
   1.15432  -0.03468   1.70163
   1.12440   0.01021   1.77645
   1.06454   0.05510   1.67171
   1.06454  -0.01972   1.44725
   0.95979  -0.12446   1.10308
   0.97476  -0.22921   0.69906
   1.04958  -0.45367   0.38482
   1.09447  -0.75294   0.07058
   1.10943  -1.02229  -0.21373
   1.03461  -1.41135  -0.55789
   0.97476  -1.89019  -0.91702
   0.91490  -2.15953  -1.20134
   0.91490  -2.32414  -1.44076
   0.89994  -2.30917  -1.54550
   0.84008  -2.23435  -1.47068
   0.72037  -1.96501  -1.33601
   0.57074  -1.66573  -1.21630
   0.43606  -1.17193  -1.09659
   0.40614  -0.63323  -1.03673
   0.31635  -0.22921  -1.02177
   0.18168   0.04014  -1.02177
   0.10686   0.07007  -0.94695
   0.00211   0.24963  -0.96192
  -0.16249   0.45912  -1.00681
  -0.52162   0.63869  -1.18637
  -0.74607   0.96789  -1.44076
  -1.13513   1.10257  -1.74003
  -1.52419   1.13249  -1.88967
  -1.98807   1.20731  -1.97945
  -2.37712   1.20731  -1.90463
  -2.63151   1.14746  -1.63528
  -2.91582   1.01278  -1.39586
  -3.12531   0.83322  -1.23126
  -3.30488   0.84818  -0.93199
  -3.40962   0.99782  -0.69257
  -3.39466   1.22228  -0.30351
  -3.48444   1.40184   0.10051
  -3.37970   1.65622   0.57935
  -3.27495   1.70112   0.95345
  -3.14028   1.74601   1.35747
  -2.85596   1.70112   1.58192
  -2.58662   1.43177   1.77645
  -2.21252   1.23724   1.98595
  -1.88332   0.93796   2.16551
  -1.61397   0.78833   2.25529
  -1.25484   0.60876   2.36004
  -0.92564   0.38431   2.25529
  -0.77600   0.05510   2.10566
  -0.49169  -0.15439   2.04580
  -0.25227  -0.37885   2.03084
  -0.07270  -0.54345   2.10566
   0.15175  -0.87265   2.22537
   0.31635  -1.21682   2.25529
   0.60066  -1.51609   2.31515
   0.79519  -1.78544   2.19544
   0.98972  -1.83033   2.01587
   1.27403  -1.80040   1.82134
   1.52842  -1.74055   1.58192
   1.75287  -1.65077   1.37243
   1.91748  -1.54602   1.19287
   1.99229  -1.48617   0.93848
   1.94740  -1.24674   0.69906
   1.91748  -0.97740   0.41475
   1.73791  -0.73798   0.13044
   1.51345  -0.61827  -0.10898
   1.21418  -0.69309  -0.28855
   0.84008  -0.70805  -0.39329
   0.39117  -0.73798  -0.51300
  -0.07270  -0.67812  -0.57286
  -0.55155  -0.64819  -0.60279
  -0.97053  -0.46863  -0.57286
  -1.35959  -0.27410  -0.37833
  -1.65886   0.04014  -0.24365
  -1.73368   0.45912   0.02569
  -1.70375   0.90804   0.20526
  -1.59901   1.31206   0.48957
  -1.35959   1.59637   0.78884
  -1.26981   1.59637   1.01330
  -1.12017   1.61133   1.34250
  -1.04535   1.44673   1.77645
  -1.01542   1.49162   2.16551
  -0.88075   1.59637   2.59946
  -0.82089   1.64126   2.76406
  -0.52162   1.65622   2.88377
  -0.29716   1.56644   2.77902
  -0.02781   1.43177   2.55457
   0.24153   1.13249   2.40493
   0.49592   0.81825   2.27026
   0.70541   0.39927   2.28522
   0.66052   0.11496   2.18047
   0.58570  -0.09454   2.04580
   0.55577  -0.15439   1.82134
   0.48095  -0.33396   1.58192
