********************************************************************************
              CENTRO DE INSTRUMENTACION Y REGISTRO SISMICO  A.C.

    Anaxagoras 814, Col. Narvarte, Benito Juarez, C.P. 03020 Mexico, D.F.
           Tels. 5687 45 42/ 5687 45  82             Fax. 5669 25 12
********************************************************************************
ARCHIVO ESTANDAR DE ACELERACION:
VERSION DEL FORMATO                    : 2.0
NOMBRE DEL ARCHIVO                     : AL0120130821123830
FECHA Y HORA DE CREACION               : 11/SEP/13, 15:00
REF. CATALOGO ACELEROGRAMAS, SMIS 1996 : REGISTRO No.     /PAG.


================================================================================
DATOS DE LA ESTACION:
NOMBRE DE LA ESTACION                  : ALAMEDA
CLAVE DE LA ESTACION                   : AL01
LOCALIZACION DE LA ESTACION            : Del. Cuauhtémoc, Col. Centro,          
                                       : Dr. Mora entre Av. Hidalgo             
                                       : y Av. Juárez.                          
                                       :                                        
                                       : 
COORDENADAS DE LA ESTACION             : 19.4356 LAT. N
                                       : 99.1453 LONG. W
ALTITUD (msnm)                         : 2232
TIPO DE SUELO                          : Terreno blando, material compresible
                                       : (arcillas)                
                                       : 
INSTITUCION RESPONSABLE                : CIRES
                                       : 

================================================================================
DATOS DEL ACELEROGRAFO:
MODELO DEL ACELEROGRAFO                : RADESD
NUMERO DE SERIE DEL ACELEROGRAFO       : 152
NUMERO DE CANALES                      : 3
ORIENTACION C1-C6 (rumbo;orientacion)  : /N00E/+V/N90W
ORIENTACION C7-C12 (rumbo;orientacion) : 
VEL. DE MUESTREO, C1-C6 (muestras/s)   : /100/100/100
VEL. DE MUESTREO, C7-C12 (muestras/s)  : 
ESC. COMPLETA DE SENSORES, C1-C6, (g)  : /0.5/0.5/0.5
ESC. COMPLETA DE SENSORES, C7-C12, (g) : 
FREC. NAT. DE SENSORES, C1-C6, (Hz)    : /51.29/51.09/53.75
FREC. NAT. DE SENSORES, C7-C12, (Hz)   : 
AMORTIGUAMIENTO DE SENSORES, C1-C6     : /0.5519/0.5670/0.5810
AMORTIGUAMIENTO DE SENSORES, C7-C12    : 
INTERVALO DE MUESTREO, C1-C6, (s)      : /0.01/0.01/0.01
INTERVALO DE MUESTREO, C7-C12, (s)     : 
UMBRAL DE DISPARO, C1-C6, (Gal)        : /14.37/28.73/14.37
UMBRAL DE DISPARO, C7-C12, (Gal)       : 
MEMORIA DE PREEVENTO (s)               : 56.0
TIEMPO DE POSEVENTO (s)                : 80.0


================================================================================
DATOS DEL SISMO:
FECHA DEL SISMO (GMT)                  : 21/AGO/13
HORA EPICENTRO (GMT)                   : 12:38:30.0
MAGNITUD(ES)                           : /Mc=6.0
COORDENADAS DEL EPICENTRO              : 16.79 LAT. N
                                       : 99.56 LONG. W
PROFUNDIDAD FOCAL (km)                 : 20
FUENTE DE LOS DATOS EPICENTRALES       : SSN
                                       : INSTITUTO DE GEOFISICA, UNAM

================================================================================
DATOS DE ESTE REGISTRO:
HORA DE LA PRIMERA MUESTRA (GMT)       : 12:39:26.00
EXACTITUD DEL TIEMPO (s)               : 0.01
DURACION DEL REGISTRO (s), C1-C6       : /288.0/288.0/288.0
DURACION DEL REGISTRO (s), C7-C12      : 
NUM. TOTAL DE MUESTRAS, C1-C6          : /28800/28800/28800
NUM. TOTAL DE MUESTRAS, C7-C12         : 
ACEL. MAX. (Gal), C1-C6                : /12.22104/6.10917/13.67416
ACEL. MAX., C1-C6, EN LA MUESTRA       : /8604/9192/8834
ACEL. MAX. (Gal), C7-C12               : 
ACEL. MAX., C7-C12, EN LA MUESTRA      : 
UNIDADES DE LOS DATOS                  : Gal (cm/s/s)
FACTOR DE DECIMACION                   : 1
FORMATO DATOS (FORTRAN,10 campos/dato) : 3F10.5


================================================================================
CALIDAD DEL ACELEROGRAMA:
REGISTRO DIGITAL COMPLETO CON TIEMPO ABSOLUTO CORRECTO.


================================================================================
COMENTARIOS:














================================================================================
DATOS DE ACELERACION:
---------+---------+---------+---------+---------+---------+---------+---------+
   CANAL-1   CANAL-2   CANAL-3   CANAL-4   CANAL-5   CANAL-6   CANAL-7   CANAL-8
      N00E        +V      N90W
---------+---------+---------+---------+---------+---------+---------+---------+
[...]
  -3.90119   3.72993   2.63634
  -3.46724   4.08906   2.05275
  -3.09315   4.29855   1.43924
  -2.70409   4.56790   0.96040
  -2.38985   4.67265   0.42170
  -1.91101   4.68761  -0.02721
  -1.50699   4.86718  -0.59583
  -1.08800   4.74746  -1.08964
  -0.54931   4.71754  -1.59841
   0.01932   4.55294  -2.01739
   0.61787   4.26862  -2.48127
   1.06678   3.95439  -2.88529
   1.68029   3.55036  -3.27435
   2.17410   3.04160  -3.60355
   2.71279   2.45801  -3.96268
   3.08689   1.94924  -4.15721
   3.46098   1.29084  -4.32181
   3.85004   0.67732  -4.39663
   4.14931  -0.07087  -4.39663
   4.40370  -0.57963  -4.36670
   4.71794  -1.22308  -4.47145
   4.83765  -1.67199  -4.53130
   5.06210  -2.12090  -4.65101
   5.25663  -2.49500  -4.69590
   5.42123  -2.92894  -4.75576
   5.45116  -3.27311  -4.75576
   5.64569  -3.52749  -4.74080
   5.67562  -3.72202  -4.78569
   5.78036  -3.97641  -4.77072
   5.84022  -3.99137  -4.65101
   5.87015  -4.08115  -4.53130
   5.88511  -4.11108  -4.32181
   5.76540  -4.12604  -4.17217
   5.70555  -4.02130  -3.90283
   5.58584  -3.96144  -3.64844
   5.39131  -3.93152  -3.30428
   5.18181  -3.75195  -3.00500
   4.92743  -3.55742  -2.66083
   4.59823  -3.45268  -2.31667
   4.31392  -3.31800  -1.91265
   3.96975  -3.09355  -1.58344
   3.64055  -3.04865  -1.19439
   3.25149  -2.92894  -0.88015
   3.02703  -2.86909  -0.61080
   2.84747  -2.86909  -0.35641
   2.68287  -2.70449  -0.20678
   2.68287  -2.55485  -0.11699
   2.80258  -2.36032  -0.04218
   3.01207  -2.30047   0.00272
   3.25149  -2.00119  -0.04218
   3.59565  -1.82163  -0.08707
   3.95479  -1.47746  -0.26663
   4.35881  -1.32782  -0.52102
   4.88254  -0.93876  -0.79036
   5.34641  -0.59460  -1.13453
   5.91504  -0.22050  -1.49366
   6.43877   0.09374  -1.82286
   7.03732   0.43790  -2.25681
   7.57602   0.96163  -2.52616
   8.11471   1.24595  -2.88529
   8.59355   1.66493  -3.16960
   9.08736   1.97917  -3.49880
   9.56620   2.27844  -3.69333
   9.91036   2.47297  -3.81304
  10.31438   2.54779  -3.96268
  10.58373   2.63757  -4.03750
  10.74833   2.71239  -3.97764
  10.98775   2.68247  -3.90283
  11.09250   2.59268  -3.79808
  11.18228   2.54779  -3.58859
  11.10746   2.48794  -3.33420
  11.13739   2.38319  -2.97507
  11.01768   2.33830  -2.67580
  10.80819   2.15873  -2.31667
  10.58373   1.91931  -1.97250
  10.28446   1.78464  -1.65826
   9.91036   1.56018  -1.35899
   9.55123   1.38062  -1.13453
   9.10232   1.15616  -0.91007
   8.68333   0.90178  -0.82029
   8.27931   0.58754  -0.83525
   7.83040   0.40797  -0.82029
   7.30667   0.21345  -0.92504
   6.85775   0.13863  -0.99986
   6.37891   0.09374  -1.05971
   5.90007   0.15359  -1.14949
   5.46613   0.13863  -1.16446
   4.97232   0.13863  -1.26920
   4.55334   0.16855  -1.32906
   4.07450   0.15359  -1.37395
   3.71537   0.19848  -1.34402
   3.34127   0.21345  -1.28417
   2.89236   0.25834  -1.20935
   2.45841   0.25834  -1.08964
   1.99453   0.30323  -0.89511
   1.51569   0.22841  -0.62576
   0.96203   0.33316  -0.34145
   0.37845   0.40797   0.01768
  -0.33981   0.54265   0.43666
  -1.05807   0.57258   0.82572
  -1.85115   0.61747   1.22974
  -2.71905   0.67732   1.60384
  -3.51213   0.67732   2.03779
  -4.36507   0.73718   2.41188
  -5.35267   0.70725   2.72612
  -6.25050   0.66236   2.99547
  -7.20818   0.57258   3.26482
  -8.10601   0.46783   3.47431
  -8.98887   0.37805   3.57905
  -9.70713   0.31819   3.66884
 -10.41042   0.16855   3.66884
 -10.99401   0.12366   3.75862
 -11.42796   0.10870   3.75862
 -11.87687   0.07877   3.68380
 -12.05644   0.00395   3.57905
 -12.20608   0.04884   3.50424
 -12.22104   0.04884   3.45934
 -12.16118  -0.05590   3.39949
 -11.95169  -0.11576   3.36956
 -11.66738  -0.26539   3.26482
 -11.30825  -0.43000   3.23489
 -10.81445  -0.63949   3.21992
 -10.30568  -0.80409   3.23489
  -9.76698  -0.93876   3.24985
  -9.22829  -1.11833   3.33963
  -8.64470  -1.20811   3.38453
  -8.16586  -1.34279   3.41445
  -7.55235  -1.47746   3.51920
  -6.96876  -1.61213   3.66884
  -6.47496  -1.79170   3.72869
  -5.93626  -1.98623   3.83344
  -5.51728  -2.13586   3.90826
  -5.12822  -2.30047   3.95315
  -4.87383  -2.27054   4.05789
  -4.63441  -2.34536   4.13271
  -4.46981  -2.42018   4.23746
  -4.39499  -2.33039   4.34221
  -4.32017  -2.27054   4.47688
  -4.40996  -2.16579   4.70134
  -4.51470  -1.97126   4.86594
  -4.64938  -1.89644   5.03054
  -4.82894  -1.71688   5.31485
  -5.08333  -1.55228   5.62909
  -5.29282  -1.38768   5.92836
  -5.53224  -1.14826   6.18275
  -5.68188  -0.78913   6.42217
  -5.80159  -0.65445   6.66159
  -5.99612  -0.37014   6.79626
  -6.08590  -0.19058   6.94590
  -6.14575   0.09374   6.90101
  -6.17568   0.34812   6.78130
  -6.07093   0.61747   6.60173
  -5.93626   0.72221   6.30246
  -5.69684   0.91674   5.94333
  -5.42749   1.14120   5.44952
  -5.03843   1.33573   4.98565
  -4.54463   1.57515   4.47688
  -4.05083   1.66493   3.92322
  -3.49717   1.82953   3.41445
  -2.89862   2.02406   2.87576
  -2.41978   2.08392   2.27721
  -1.83619   2.17370   1.67866
  -1.22268   2.33830   1.18485
  -0.60916   2.26348   0.63119
  -0.08543   2.30837   0.06257
   0.45327   2.15873  -0.55094
   0.96203   2.02406  -1.04475
   1.47080   1.84450  -1.67323
   1.97957   1.66493  -2.19696
   2.51826   1.39558  -2.82543
   3.10185   1.14120  -3.31924
   3.59565   0.82696  -3.88786
   4.32888   0.52768  -4.45648
   4.92743   0.24337  -4.98022
   5.54094  -0.05590  -5.53388
   6.07964  -0.23547  -5.98279
   6.55848  -0.47489  -6.41674
   6.96250  -0.57963  -6.88061
   7.35156  -0.66942  -7.16493
   7.69573  -0.69934  -7.52406
   7.99500  -0.68438  -7.80837
   8.30924  -0.59460  -8.06275
   8.50377  -0.60956  -8.30217
   8.69830  -0.51978  -8.61641
   8.87786  -0.44496  -8.87079
   8.93772  -0.43000  -9.15511
   8.90779  -0.35518  -9.40949
   8.84793  -0.14568  -9.66387
   8.74319  -0.07087  -9.79855
   8.57859   0.13863  -9.97811
   8.35413   0.16855 -10.02300
   8.06982   0.22841 -10.06789
   7.83040   0.19848 -10.05293
   7.51616   0.12366  -9.87337
   7.14207  -0.08583  -9.73869
   6.76797  -0.19058  -9.52920
   6.40884  -0.28036  -9.18503
   6.00482  -0.28036  -8.87079
   5.58584  -0.38510  -8.54159
   5.19678  -0.35518  -8.27224
   4.76283  -0.50481  -8.03282
   4.31392  -0.59460  -7.68866
   3.92486  -0.66942  -7.40435
   3.52084  -0.81905  -7.10507
   3.05696  -0.92380  -6.76090
   2.68287  -0.84898  -6.50652
   2.32374  -0.90884  -6.28206
   1.99453  -1.02855  -6.01272
   1.69526  -0.96869  -5.72840
   1.39598  -1.02855  -5.44409
   1.15656  -0.93876  -5.09993
   0.84232  -0.90884  -4.74080
   0.52808  -0.81905  -4.42656
   0.25874  -0.84898  -4.02254
   0.00435  -0.71431  -3.60355
  -0.17521  -0.65445  -3.18457
  -0.48945  -0.51978  -2.75062
  -0.71391  -0.32525  -2.30170
  -0.87851  -0.17561  -1.85279
  -1.08800   0.01892  -1.37395
  -1.23764   0.21345  -0.91007
  -1.38728   0.39301  -0.46116
  -1.53691   0.55761  -0.01225
  -1.62670   0.78207   0.36185
  -1.74641   0.88681   0.73594
  -1.79130   1.00652   1.02025
  -1.92597   1.20105   1.36442
  -2.00079   1.27587   1.55895
  -2.09057   1.26091   1.76844
  -2.10554   1.24595   1.87319
  -2.27014   1.15616   1.94800
  -2.30007   1.12623   2.05275
  -2.38985   1.11127   2.14253
  -2.41978   1.09631   2.21735
  -2.31503   1.11127   2.11261
  -2.37489   1.03645   2.05275
  -2.43474   1.05142   1.85822
  -2.41978   1.05142   1.72355
  -2.41978   1.09631   1.49909
  -2.46467   1.11127   1.33449
  -2.37489   1.20105   1.22974
  -2.43474   1.32076   1.11003
  -2.52452   1.33573   0.93047
  -2.61431   1.41055   0.81076
  -2.70409   1.48537   0.69105
  -2.86869   1.50033   0.66112
  -3.13804   1.47040   0.70601
  -3.31760   1.48537   0.84069
  -3.55702   1.51529   0.97536
  -3.78148   1.44047   1.16989
  -3.99097   1.41055   1.34945
  -4.21543   1.27587   1.48413
  -4.40996   1.17113   1.63377
  -4.60449   1.09631   1.84326
  -4.88880   0.87185   2.11261
  -5.08333   0.70725   2.42684
  -5.42749   0.49776   2.77101
  -5.68188   0.31819   2.98050
  -6.04101   0.04884   3.29474
  -6.35525  -0.26539   3.53416
  -6.63956  -0.45992   3.90826
  -6.86401  -0.71431   4.31228
  -7.07351  -0.95373   4.74623
  -7.37278  -1.14826   5.26996
  -7.50746  -1.28293   5.77873
  -7.67206  -1.52235   6.39224
  -7.73191  -1.61213   6.91597
  -7.85162  -1.80666   7.46963
  -7.80673  -1.89644   8.05322
  -7.76184  -2.04608   8.54702
  -7.62717  -2.06105   9.05579
  -7.47753  -2.12090   9.50470
  -7.20818  -2.09097   9.86383
  -6.83409  -2.06105  10.13318
  -6.35525  -1.92637  10.37260
  -5.78662  -1.89644  10.50728
  -5.18807  -1.80666  10.59706
  -4.46981  -1.65702  10.61202
  -3.79644  -1.58221  10.47735
  -3.12307  -1.56724  10.32771
  -2.38985  -1.40264  10.10325
  -1.68655  -1.35775   9.84887
  -0.93836  -1.25300   9.51967
  -0.23507  -1.17818   9.13061
   0.49816  -1.11833   8.71162
   1.20145  -0.96869   8.29264
   1.90475  -0.80409   7.84373
   2.47337  -0.63949   7.36489
   2.98214  -0.47489   6.88605
   3.44602  -0.29532   6.46706
   3.90989  -0.11576   5.98822
   4.31392  -0.08583   5.56923
   4.65808   0.01892   5.16521
   4.95736   0.00395   4.70134
   5.24167   0.07877   4.37213
   5.36138   0.13863   4.01300
   5.55591   0.12366   3.68380
   5.78036   0.16855   3.45934
   5.84022   0.10870   3.17503
   6.00482   0.19848   3.07029
   6.07964   0.12366   2.92065
   6.18439   0.13863   2.86079
   6.24424   0.06381   2.92065
   6.39388   0.09374   2.96554
   6.46870   0.15359   3.07029
   6.57344   0.21345   3.14511
   6.58841   0.33316   3.20496
   6.70812   0.40797   3.41445
   6.82783   0.52768   3.56409
   6.88768   0.73718   3.78855
   6.90265   0.87185   3.95315
   6.93257   1.02149   4.16264
   7.02236   1.21602   4.26739
   7.06725   1.21602   4.34221
   7.15703   1.36566   4.29732
   7.17199   1.41055   4.22250
   7.33660   1.50033   4.13271
   7.36652   1.48537   3.99804
   7.38149   1.48537   3.75862
   7.47127   1.39558   3.48927
   7.53112   1.33573   3.11518
   7.59098   1.21602   2.68123
   7.59098   1.03645   2.12757
   7.66580   0.79703   1.58887
   7.65083   0.66236   1.00529
   7.60594   0.54265   0.39177
   7.60594   0.33316  -0.28160
   7.48623   0.21345  -1.02978
   7.39645   0.00395  -1.74804
   7.26178  -0.07087  -2.60098
   7.06725  -0.25043  -3.48384
   6.82783  -0.45992  -4.38167
   6.58841  -0.50481  -5.24956
   6.22928  -0.63949  -6.13243
   5.90007  -0.69934  -7.01529
   5.54094  -0.68438  -7.83829
   5.10699  -0.81905  -8.67627
   4.59823  -0.62453  -9.49927
   4.07450  -0.62453 -10.26242
   3.44602  -0.50481 -10.95076
   2.87739  -0.29532 -11.59420
   2.23395  -0.11576 -12.16282
   1.57555  -0.01101 -12.65663
   0.85729   0.16855 -13.09057
   0.21385   0.30323 -13.32999
  -0.36974   0.46783 -13.58438
  -0.95333   0.55761 -13.67416
  -1.46210   0.76710 -13.61431
  -2.00079   0.94667 -13.58438
  -2.34496   1.06638 -13.43474
  -2.64423   1.27587 -13.18036
  -2.91358   1.33573 -12.91101
  -3.09315   1.27587 -12.58181
  -3.19789   1.23098 -12.31246
  -3.24278   1.21602 -11.95333
  -3.31760   1.09631 -11.59420
  -3.21286   1.08134 -11.13032
  -3.27271   0.87185 -10.66645
  -3.22782   0.61747 -10.18760
  -3.12307   0.43790  -9.73869
  -3.00336   0.13863  -9.30474
  -2.88365  -0.05590  -8.87079
  -2.79387  -0.41503  -8.51166
  -2.67416  -0.65445  -8.19742
  -2.58438  -0.99862  -7.82333
  -2.44970  -1.31286  -7.50909
  -2.37489  -1.49242  -7.26967
  -2.28510  -1.68695  -7.12003
  -2.12050  -2.03112  -6.91054
  -2.06065  -2.22565  -6.76090
  -1.95590  -2.52492  -6.64119
  -1.80626  -2.55485  -6.41674
  -1.77634  -2.67456  -6.32695
  -1.64166  -2.62967  -6.16235
  -1.67159  -2.61471  -6.08753
  -1.62670  -2.49500  -5.93790
  -1.64166  -2.36032  -5.77330
  -1.61173  -2.21068  -5.60869
  -1.68655  -1.98623  -5.41417
  -1.76137  -1.74681  -5.08496
  -1.88108  -1.44753  -4.71087
  -2.10554  -1.14826  -4.20210
  -2.35992  -0.95373  -3.76815
  -2.55445  -0.66942  -3.25938
  -2.80883  -0.35518  -2.78054
  -3.06322  -0.14568  -2.21192
  -3.36249   0.04884  -1.64330
  -3.58695   0.31819  -1.08964
  -3.84133   0.67732  -0.53598
  -4.08075   0.90178   0.03264
  -4.24536   1.27587   0.58630
  -4.43988   1.57515   1.05018
  -4.60449   1.88939   1.51406
  -4.76909   2.08392   2.00786
  -4.94865   2.27844   2.50166
  -5.09829   2.30837   2.86079
  -5.14318   2.33830   3.16007
  -5.30778   2.29341   3.47431
  -5.44246   2.23355   3.63891
  -5.51728   2.03902   3.84840
  -5.51728   1.93428   4.01300
  -5.48735   1.70982   4.07286
  -5.36764   1.44047   4.08782
  -5.18807   1.24595   4.08782
  -5.05340   1.05142   4.08782
  -4.84391   0.85689   4.07286
  -4.52967   0.79703   3.99804
  -4.26032   0.66236   3.83344
  -3.93112   0.48279   3.63891
  -3.61688   0.34812   3.56409
  -3.24278   0.28826   3.38453
  -2.83876   0.33316   3.23489
  -2.38985   0.33316   3.11518
  -1.98583   0.24337   2.90569
  -1.58181   0.15359   2.80094
  -1.19275   0.04884   2.71116
  -0.86355   0.00395   2.65130
  -0.51938   0.01892   2.60641
  -0.30989  -0.16065   2.63634
  -0.22010  -0.25043   2.68123
  -0.13032  -0.28036   2.75605
  -0.16025  -0.29532   2.80094
  -0.26500  -0.34021   2.90569
  -0.50442  -0.34021   3.07029
  -0.69894  -0.43000   3.30971
  -0.99822  -0.50481   3.54913
  -1.26757  -0.48985   3.92322
  -1.62670  -0.56467   4.28235
  -1.97086  -0.56467   4.64148
  -2.18036  -0.65445   5.07543
  -2.55445  -0.65445   5.56923
  -2.89862  -0.69934   5.95829
  -3.21286  -0.74424   6.36231
  -3.48220  -0.77416   6.81123
  -3.70666  -0.75920   7.23021
  -3.87126  -0.66942   7.58934
  -3.94608  -0.71431   7.87365
  -3.93112  -0.60956   8.15797
  -3.81141  -0.48985   8.33753
  -3.64681  -0.50481   8.48717
  -3.33257  -0.26539   8.59191
  -2.97344  -0.28036   8.66673
  -2.55445  -0.20554   8.66673
  -2.16539  -0.08583   8.68170
  -1.76137  -0.02597   8.66673
  -1.41720   0.15359   8.59191
  -1.04311   0.21345   8.57695
  -0.69894   0.30323   8.45724
  -0.42960   0.40797   8.36746
  -0.07047   0.40797   8.26271
   0.21385   0.42294   8.11307
   0.48319   0.58754   7.99336
   0.72261   0.69229   7.93351
   0.87225   0.84192   7.84373
   1.09671   0.96163   7.78387
   1.27627   0.96163   7.69409
   1.44087   1.14120   7.48460
   1.62044   1.23098   7.29007
   1.72518   1.21602   7.14043
   1.87482   1.29084   7.02072
   2.03942   1.24595   6.84115
   2.18906   1.32076   6.52692
   2.39855   1.20105   6.13786
   2.50330   1.23098   5.77873
   2.65294   1.11127   5.37471
   2.80258   1.11127   5.01558
   2.92229   1.12623   4.52177
   3.02703   0.99156   3.98308
   3.14674   0.93171   3.51920
   3.25149   0.90178   2.93561
   3.28142   0.78207   2.36699
   3.26645   0.72221   1.72355
   3.32631   0.58754   1.13996
   3.25149   0.46783   0.46659
   3.25149   0.43790  -0.07210
   3.16171   0.36308  -0.62576
   3.20660   0.21345  -1.14949
   3.14674   0.01892  -1.64330
   3.17667   0.01892  -2.04732
   3.11681  -0.16065  -2.52616
   3.13178  -0.19058  -2.87033
   3.17667  -0.28036  -3.16960
   3.19163  -0.31029  -3.40902
   3.20660  -0.50481  -3.51377
   3.19163  -0.62453  -3.70830
   3.20660  -0.72927  -3.81304
   3.22156  -0.72927  -3.85793
   3.23652  -0.87891  -3.90283
   3.31134  -0.80409  -3.96268
   3.40113  -0.98366  -3.90283
   3.43105  -0.96869  -3.90283
   3.55076  -1.07344  -3.87290
   3.64055  -1.10337  -3.94772
   3.70040  -1.05847  -3.94772
   3.68544  -1.20811  -4.02254
   3.71537  -1.29789  -4.09735
