********************************************************************************
              CENTRO DE INSTRUMENTACION Y REGISTRO SISMICO  A.C.

    Anaxagoras 814, Col. Narvarte, Benito Juarez, C.P. 03020 Mexico, D.F.
           Tels. 5687 45 42/ 5687 45  82             Fax. 5669 25 12
********************************************************************************
ARCHIVO ESTANDAR DE ACELERACION:
VERSION DEL FORMATO                    : 2.0
NOMBRE DEL ARCHIVO                     : AL0120110407131122
FECHA Y HORA DE CREACION               : 15/JUN/11, 12:49
REF. CATALOGO ACELEROGRAMAS, SMIS 1996 : REGISTRO No.     /PAG.


================================================================================
DATOS DE LA ESTACION:
NOMBRE DE LA ESTACION                  : ALAMEDA
CLAVE DE LA ESTACION                   : AL01
LOCALIZACION DE LA ESTACION            : Del. Cuauhtémoc, Col. Centro,          
                                       : Dr. Mora entre Av. Hidalgo             
                                       : y Av. Juárez.                          
                                       :                                        
                                       : 
COORDENADAS DE LA ESTACION             : 19.4356 LAT. N
                                       : 99.1453 LONG. W
ALTITUD (msnm)                         : 2232
TIPO DE SUELO                          : Terreno blando, material compresible
                                       : (arcillas)                
                                       : 
INSTITUCION RESPONSABLE                : CIRES
                                       : 

================================================================================
DATOS DEL ACELEROGRAFO:
MODELO DEL ACELEROGRAFO                : RADESD
NUMERO DE SERIE DEL ACELEROGRAFO       : 152
NUMERO DE CANALES                      : 3
ORIENTACION C1-C6 (rumbo;orientacion)  : /N00E/+V/N90W
ORIENTACION C7-C12 (rumbo;orientacion) : 
VEL. DE MUESTREO, C1-C6 (muestras/s)   : /100/100/100
VEL. DE MUESTREO, C7-C12 (muestras/s)  : 
ESC. COMPLETA DE SENSORES, C1-C6, (g)  : /0.5/0.5/0.5
ESC. COMPLETA DE SENSORES, C7-C12, (g) : 
FREC. NAT. DE SENSORES, C1-C6, (Hz)    : /51.29/51.09/53.75
FREC. NAT. DE SENSORES, C7-C12, (Hz)   : 
AMORTIGUAMIENTO DE SENSORES, C1-C6     : /0.5519/0.5670/0.5810
AMORTIGUAMIENTO DE SENSORES, C7-C12    : 
INTERVALO DE MUESTREO, C1-C6, (s)      : /0.01/0.01/0.01
INTERVALO DE MUESTREO, C7-C12, (s)     : 
UMBRAL DE DISPARO, C1-C6, (Gal)        : /0.72/1.44/0.72
UMBRAL DE DISPARO, C7-C12, (Gal)       : 
MEMORIA DE PREEVENTO (s)               : 56.0
TIEMPO DE POSEVENTO (s)                : 64.0


================================================================================
DATOS DEL SISMO:
FECHA DEL SISMO (GMT)                  : 07/ABR/11
HORA EPICENTRO (GMT)                   : 13:11:22.0
MAGNITUD(ES)                           : /Mc=6.7
COORDENADAS DEL EPICENTRO              : 17.20 LAT. N
                                       : 94.34 LONG. W
PROFUNDIDAD FOCAL (km)                 : 167
FUENTE DE LOS DATOS EPICENTRALES       : SSN
                                       : INSTITUTO DE GEOFISICA, UNAM

================================================================================
DATOS DE ESTE REGISTRO:
HORA DE LA PRIMERA MUESTRA (GMT)       : 13:13:43.00
EXACTITUD DEL TIEMPO (s)               : 0.01
DURACION DEL REGISTRO (s), C1-C6       : /253.0/253.0/253.0
DURACION DEL REGISTRO (s), C7-C12      : 
NUM. TOTAL DE MUESTRAS, C1-C6          : /25300/25300/25300
NUM. TOTAL DE MUESTRAS, C7-C12         : 
ACEL. MAX. (Gal), C1-C6                : /3.07935/1.38904/3.34301
ACEL. MAX., C1-C6, EN LA MUESTRA       : /8049/6424/6983
ACEL. MAX. (Gal), C7-C12               : 
ACEL. MAX., C7-C12, EN LA MUESTRA      : 
UNIDADES DE LOS DATOS                  : Gal (cm/s/s)
FACTOR DE DECIMACION                   : 1
FORMATO DATOS (FORTRAN,10 campos/dato) : 3F10.5


================================================================================
CALIDAD DEL ACELEROGRAMA:
REGISTRO DIGITAL COMPLETO CON TIEMPO ABSOLUTO CORRECTO.


================================================================================
COMENTARIOS:














================================================================================
DATOS DE ACELERACION:
---------+---------+---------+---------+---------+---------+---------+---------+
   CANAL-1   CANAL-2   CANAL-3   CANAL-4   CANAL-5   CANAL-6   CANAL-7   CANAL-8
      N00E        +V      N90W
---------+---------+---------+---------+---------+---------+---------+---------+
[...]
  -0.51195  -0.43136   0.48772
  -0.51195  -0.43136   0.24830
  -0.51195  -0.91020   0.24830
  -0.51195  -0.67078   0.24830
  -0.51195  -0.67078   0.00888
  -0.51195  -0.67078  -0.23054
  -0.75137  -0.67078  -0.23054
  -0.51195  -0.67078  -0.46996
  -0.75137  -0.91020  -0.70938
  -0.51195  -0.67078  -0.70938
  -0.75137  -0.67078  -0.70938
  -0.51195  -0.91020  -0.70938
  -0.51195  -0.91020  -0.94880
  -0.75137  -0.91020  -1.18822
  -0.51195  -0.67078  -1.18822
  -0.75137  -0.67078  -0.94880
  -0.75137  -0.91020  -0.94880
  -0.99079  -0.43136  -1.18822
  -0.75137  -0.67078  -0.94880
  -0.75137  -0.67078  -0.94880
  -0.75137  -0.43136  -0.94880
  -0.51195  -0.67078  -1.18822
  -0.51195  -0.43136  -0.70938
  -0.51195  -0.19194  -0.70938
  -0.51195   0.04748  -0.94880
  -0.75137   0.04748  -0.70938
  -0.51195   0.28690  -0.70938
  -0.27253  -0.19194  -0.94880
  -0.51195   0.04748  -0.94880
  -0.51195   0.28690  -0.70938
  -0.51195   0.52632  -0.70938
  -0.75137   0.28690  -0.70938
  -0.75137   0.52632  -0.94880
  -0.75137   0.52632  -0.94880
  -0.99079   0.52632  -0.94880
  -0.51195   0.76574  -1.18822
  -0.75137   0.52632  -1.18822
  -0.75137   1.00516  -1.18822
  -0.75137   0.76574  -1.18822
  -0.99079   0.76574  -0.94880
  -0.99079   0.76574  -0.94880
  -0.75137   0.76574  -0.94880
  -0.75137   0.76574  -0.94880
  -0.99079   0.52632  -0.94880
  -0.99079   0.52632  -0.70938
  -0.75137   0.52632  -0.46996
  -0.99079   0.52632  -0.46996
  -0.99079   0.28690  -0.46996
  -0.99079   0.52632  -0.46996
  -0.75137   0.52632  -0.23054
  -0.75137   0.28690   0.00888
  -0.99079   0.04748   0.00888
  -0.75137   0.04748   0.24830
  -0.75137   0.04748   0.48772
  -0.75137   0.04748   0.24830
  -0.99079   0.28690   0.48772
  -0.75137   0.52632   0.72714
  -0.75137   0.04748   0.72714
  -0.75137   0.28690   0.96656
  -0.75137   0.28690   0.96656
  -0.75137   0.28690   0.96656
  -0.75137   0.28690   0.96656
  -0.51195   0.04748   1.20598
  -0.51195   0.28690   1.20598
  -0.51195   0.04748   1.20598
  -0.51195   0.04748   1.20598
  -0.27253   0.28690   1.20598
  -0.03311  -0.19194   0.96656
  -0.03311   0.04748   0.96656
  -0.03311   0.04748   0.96656
   0.20631   0.04748   1.20598
   0.44573  -0.19194   0.96656
   0.20631  -0.19194   0.96656
   0.68515  -0.19194   0.72714
   0.68515  -0.43136   0.96656
   0.92457  -0.19194   0.48772
   1.16399  -0.43136   0.72714
   1.16399  -0.43136   0.72714
   1.16399  -0.19194   0.72714
   1.40341  -0.43136   0.24830
   1.40341  -0.43136   0.24830
   1.64283  -0.43136   0.48772
   1.64283  -0.43136   0.24830
   1.64283  -0.43136   0.00888
   1.64283  -0.43136   0.00888
   1.64283  -0.43136   0.00888
   1.64283  -0.43136  -0.23054
   1.88225  -0.43136  -0.23054
   1.64283  -0.19194  -0.23054
   1.88225  -0.19194  -0.23054
   1.88225  -0.43136  -0.46996
   1.64283  -0.19194  -0.23054
   1.88225  -0.19194  -0.23054
   1.64283  -0.43136  -0.23054
   1.64283  -0.67078  -0.46996
   1.64283  -0.19194  -0.23054
   1.64283  -0.67078  -0.23054
   1.40341  -0.43136  -0.23054
   1.16399  -0.19194   0.00888
   1.16399  -0.19194  -0.23054
   1.16399  -0.19194  -0.23054
   0.92457  -0.19194  -0.23054
   1.16399  -0.19194   0.00888
   0.92457  -0.19194   0.00888
   1.16399  -0.19194   0.00888
   0.92457  -0.19194   0.00888
   1.16399   0.04748   0.24830
   0.92457  -0.19194   0.00888
   1.16399   0.28690   0.00888
   0.92457   0.04748   0.00888
   0.68515  -0.19194   0.00888
   0.92457   0.04748   0.00888
   0.68515   0.04748   0.00888
   0.92457   0.28690   0.00888
   0.68515   0.28690   0.24830
   0.68515   0.04748   0.00888
   0.68515   0.28690   0.00888
   0.68515   0.28690   0.24830
   0.68515   0.28690   0.00888
   0.68515   0.04748   0.00888
   0.44573   0.52632   0.00888
   0.44573   0.28690   0.00888
   0.44573   0.28690   0.00888
   0.20631   0.28690   0.00888
   0.20631   0.52632   0.00888
   0.20631   0.28690   0.00888
  -0.03311   0.52632   0.00888
  -0.03311   0.52632   0.00888
  -0.03311   0.52632   0.00888
  -0.27253   0.52632   0.24830
  -0.03311   0.52632   0.48772
  -0.51195   0.28690   0.24830
  -0.51195   0.52632   0.00888
  -0.51195   0.28690   0.00888
  -0.75137   0.52632   0.24830
  -0.99079   0.52632   0.00888
  -0.99079   0.52632   0.24830
  -1.23021   0.28690   0.00888
  -1.46963   0.52632   0.00888
  -1.46963   0.52632   0.00888
  -1.70905   0.28690   0.00888
  -1.70905   0.28690   0.00888
  -1.70905   0.04748  -0.23054
  -1.46963   0.28690  -0.23054
  -1.70905   0.04748   0.00888
  -1.94847  -0.43136  -0.23054
  -1.94847   0.04748   0.00888
  -1.94847  -0.19194  -0.23054
  -1.94847  -0.43136  -0.23054
  -1.94847  -0.67078  -0.46996
  -2.18789  -0.19194  -0.46996
  -2.18789  -0.43136  -0.23054
  -1.94847  -0.43136  -0.46996
  -2.18789  -0.67078  -0.23054
  -2.18789  -0.43136  -0.23054
  -2.18789  -0.43136  -0.46996
  -1.94847  -0.19194  -0.70938
  -1.94847  -0.43136  -0.46996
  -1.94847  -0.43136  -0.46996
  -1.70905  -0.43136  -0.46996
  -1.46963  -0.43136  -0.46996
  -1.46963  -0.43136  -0.70938
  -1.46963  -0.43136  -0.23054
  -1.23021  -0.43136  -0.70938
  -1.46963  -0.67078  -0.46996
  -1.46963  -0.43136  -0.23054
  -1.23021  -0.43136  -0.46996
  -1.23021  -0.67078  -0.46996
  -0.99079  -0.19194  -0.46996
  -0.99079  -0.19194  -0.46996
  -0.99079  -0.19194  -0.23054
  -0.75137  -0.43136  -0.23054
  -0.75137  -0.19194  -0.23054
  -0.51195  -0.19194  -0.23054
  -0.51195   0.04748   0.00888
  -0.27253  -0.19194   0.24830
  -0.27253  -0.19194   0.00888
  -0.03311  -0.43136   0.48772
  -0.03311  -0.43136   0.48772
   0.44573  -0.43136   0.72714
   0.44573  -0.43136   0.72714
   0.68515  -0.19194   0.72714
   0.92457  -0.19194   0.72714
   0.92457   0.28690   0.96656
   1.16399   0.04748   0.72714
   0.92457   0.04748   0.72714
   1.16399   0.04748   0.72714
   1.16399  -0.19194   0.72714
   1.16399   0.28690   0.72714
   1.40341   0.28690   0.72714
   1.40341   0.28690   0.72714
   1.64283   0.52632   0.72714
   1.16399   0.52632   0.48772
   1.40341   0.52632   0.48772
   1.40341   0.52632   0.48772
   1.40341   0.52632   0.00888
   1.16399   0.76574   0.00888
   1.16399   1.00516   0.24830
   1.16399   1.00516  -0.23054
   0.92457   1.00516   0.00888
   0.68515   1.00516   0.00888
   0.92457   0.76574  -0.46996
   0.92457   1.00516  -0.23054
   0.92457   1.00516  -0.70938
   0.68515   0.76574  -0.70938
   0.68515   1.00516  -0.46996
   0.68515   0.76574  -0.70938
   0.92457   1.00516  -0.70938
   0.68515   0.52632  -0.94880
   0.68515   0.52632  -0.94880
   0.20631   0.52632  -0.94880
   0.44573   0.52632  -0.94880
   0.44573   0.28690  -0.94880
   0.68515   0.04748  -0.94880
   0.44573   0.04748  -1.18822
   0.44573   0.04748  -0.70938
   0.68515  -0.19194  -0.94880
   0.44573  -0.43136  -0.94880
   0.44573  -0.43136  -0.70938
   0.44573  -0.19194  -0.94880
   0.44573  -0.43136  -0.70938
   0.20631  -0.19194  -0.46996
  -0.03311  -0.19194  -0.46996
  -0.03311  -0.19194  -0.23054
   0.20631  -0.19194  -0.23054
   0.20631  -0.67078  -0.23054
   0.20631  -0.19194   0.00888
   0.20631   0.04748   0.24830
   0.20631  -0.19194   0.00888
   0.20631  -0.43136   0.00888
  -0.03311  -0.43136   0.00888
   0.20631  -0.67078   0.24830
   0.20631  -0.43136   0.24830
   0.20631  -0.67078   0.24830
   0.20631  -0.43136   0.24830
  -0.03311  -0.67078   0.24830
   0.20631  -0.67078   0.24830
   0.44573  -0.19194   0.48772
   0.44573  -0.43136   0.24830
   0.44573  -0.67078   0.24830
   0.68515  -0.91020   0.24830
   0.44573  -0.67078   0.24830
   0.20631  -0.91020   0.48772
   0.44573  -0.43136   0.96656
   0.44573  -0.67078   0.48772
   0.44573  -0.91020   0.72714
   0.20631  -0.43136   0.72714
   0.20631  -0.67078   0.72714
   0.20631  -0.19194   0.96656
   0.44573  -0.43136   0.96656
   0.20631  -0.19194   0.96656
   0.44573  -0.19194   0.96656
   0.44573  -0.19194   0.96656
  -0.03311  -0.19194   1.20598
  -0.03311  -0.19194   0.96656
  -0.03311  -0.43136   0.72714
  -0.03311   0.04748   0.96656
  -0.27253   0.28690   1.20598
  -0.51195   0.52632   0.72714
  -0.27253   0.28690   0.96656
  -0.51195   1.00516   0.96656
  -0.27253   0.52632   0.72714
  -0.51195   1.24458   0.72714
  -0.51195   0.76574   0.24830
  -0.27253   0.76574   0.48772
  -0.51195   0.52632   0.00888
  -0.51195   0.52632   0.00888
  -0.51195   0.28690   0.00888
  -0.51195   0.52632  -0.23054
  -0.51195   0.52632  -0.23054
  -0.75137   0.52632  -0.46996
  -0.75137   0.52632  -0.46996
  -0.75137   0.52632  -0.46996
  -0.51195   0.52632  -0.46996
  -0.51195   0.52632  -0.46996
  -0.75137   0.52632  -0.46996
  -0.51195   0.76574  -0.23054
  -0.75137   0.76574  -0.23054
  -0.51195   0.52632  -0.23054
  -0.51195   0.52632   0.00888
  -0.51195   0.52632   0.24830
  -0.51195   0.52632   0.48772
  -0.51195   0.28690   0.48772
  -0.51195   0.52632   0.96656
  -0.51195   0.28690   0.72714
  -0.51195   0.04748   0.72714
  -0.51195   0.28690   0.96656
  -0.27253   0.04748   0.96656
  -0.51195   0.52632   1.44540
  -0.27253   0.28690   1.44540
  -0.75137   0.28690   1.44540
  -0.51195   0.52632   1.44540
  -0.51195   0.28690   1.68482
  -0.51195   0.04748   1.68482
  -0.51195   0.52632   1.92424
  -0.51195   0.28690   1.68482
  -0.27253   0.28690   1.92424
  -0.27253   0.28690   1.68482
  -0.51195   0.28690   1.68482
  -0.51195   0.28690   1.68482
  -0.03311   0.04748   1.68482
  -0.03311   0.04748   1.92424
   0.20631  -0.19194   1.44540
   0.44573  -0.43136   1.68482
   0.68515  -0.43136   1.68482
   0.92457  -0.43136   1.44540
   1.16399  -0.43136   1.44540
   0.92457  -0.43136   1.44540
   1.40341  -0.67078   1.20598
   1.40341  -0.91020   1.20598
   1.64283  -0.67078   1.20598
   1.64283  -0.91020   0.72714
   1.64283  -0.91020   0.96656
   1.88225  -0.43136   0.72714
   2.12167  -0.67078   0.72714
   2.12167  -0.67078   0.48772
   2.36109  -0.43136   0.48772
   2.12167  -0.67078   0.48772
   2.12167  -0.67078   0.24830
   1.88225  -0.43136   0.24830
   1.88225  -0.67078   0.24830
   1.64283  -0.43136   0.00888
   1.88225  -0.67078  -0.23054
   1.40341  -0.43136  -0.23054
   1.40341  -0.43136  -0.46996
   0.92457  -0.43136  -0.46996
   0.92457  -0.19194  -0.70938
   0.68515   0.04748  -0.70938
   0.68515   0.04748  -0.70938
   0.44573   0.04748  -1.18822
   0.20631  -0.19194  -1.42764
   0.20631  -0.19194  -1.42764
  -0.03311  -0.19194  -1.90648
  -0.27253  -0.19194  -2.14590
  -0.51195  -0.19194  -2.14590
  -0.51195   0.04748  -2.14590
  -0.75137  -0.19194  -2.38533
  -0.99079   0.04748  -2.62475
  -0.99079   0.04748  -2.62475
  -1.23021   0.04748  -2.86417
  -0.99079   0.28690  -2.86417
  -0.99079  -0.19194  -3.10359
  -1.23021   0.28690  -3.10359
  -1.46963   0.28690  -3.10359
  -1.46963   0.28690  -3.10359
  -1.46963   0.04748  -3.10359
  -1.70905   0.52632  -3.34301
  -1.94847   0.28690  -3.10359
  -1.94847   0.52632  -2.86417
  -1.94847   0.76574  -2.62475
  -1.94847   0.52632  -2.86417
  -1.94847   0.52632  -2.62475
  -1.94847   0.52632  -2.14590
  -2.18789   0.76574  -2.14590
  -1.94847   0.76574  -2.38533
  -1.94847   0.52632  -1.90648
  -1.94847   0.52632  -1.90648
  -1.46963   0.52632  -1.66706
  -1.70905   0.76574  -1.42764
  -1.46963   0.76574  -1.18822
  -1.46963   0.28690  -1.18822
  -1.46963   0.76574  -0.94880
  -1.23021   0.76574  -0.94880
  -1.23021   0.76574  -0.70938
  -1.23021   0.52632  -0.70938
  -0.99079   0.52632  -0.46996
  -0.99079   0.52632  -0.46996
  -0.75137   0.28690  -0.23054
  -0.51195   0.52632  -0.46996
  -0.51195   0.52632  -0.46996
  -0.27253   0.28690  -0.70938
  -0.03311   0.04748  -0.70938
  -0.27253   0.28690  -0.46996
   0.20631   0.04748  -0.70938
   0.20631   0.04748  -0.94880
   0.44573  -0.43136  -0.94880
   0.44573   0.04748  -0.94880
   0.44573  -0.19194  -0.94880
   0.44573  -0.43136  -0.94880
   0.68515  -0.67078  -0.94880
   0.68515  -0.43136  -0.94880
   0.68515  -0.67078  -0.70938
   0.44573  -0.19194  -0.46996
   0.68515  -0.67078  -0.46996
   0.68515  -0.67078  -0.46996
   0.68515  -1.14962  -0.46996
   0.68515  -0.67078  -0.23054
   0.20631  -0.67078   0.00888
   0.20631  -0.91020   0.00888
   0.20631  -0.67078   0.00888
  -0.27253  -0.43136   0.00888
  -0.27253  -0.43136   0.24830
  -0.27253  -0.43136   0.24830
  -0.51195  -0.43136   0.24830
  -0.75137  -0.19194   0.48772
  -0.75137  -0.19194   0.72714
  -0.75137  -0.19194   0.72714
  -0.75137   0.04748   0.48772
  -0.99079  -0.19194   0.72714
  -1.23021  -0.19194   0.72714
  -1.23021   0.28690   0.72714
  -1.23021   0.04748   0.96656
  -1.23021  -0.19194   0.72714
  -1.46963   0.04748   0.72714
  -1.23021   0.04748   0.96656
  -1.23021   0.04748   0.96656
  -0.99079   0.04748   1.20598
  -0.99079   0.04748   0.72714
  -0.99079   0.04748   0.72714
  -0.99079   0.04748   0.72714
  -0.75137   0.04748   0.96656
  -0.51195   0.04748   0.96656
  -0.51195   0.04748   0.96656
  -0.51195   0.04748   0.72714
  -0.51195  -0.19194   0.96656
  -0.27253   0.04748   1.20598
  -0.03311  -0.19194   1.20598
  -0.03311  -0.19194   1.20598
   0.20631   0.04748   1.20598
   0.20631   0.28690   1.20598
   0.20631  -0.19194   1.20598
   0.44573  -0.19194   1.20598
   0.20631  -0.19194   1.20598
   0.44573   0.04748   1.44540
   0.44573  -0.19194   1.20598
   0.44573  -0.43136   1.20598
   0.68515   0.04748   1.44540
   0.68515   0.04748   1.44540
   0.68515   0.04748   1.68482
   0.92457   0.28690   1.68482
   0.68515   0.52632   1.44540
   0.92457   0.28690   1.68482
   1.16399   0.04748   1.92424
   1.16399   0.52632   1.68482
   0.92457   0.52632   1.68482
   1.16399   0.28690   1.92424
   1.40341   0.04748   1.68482
   1.16399   0.04748   1.68482
   1.16399   0.04748   1.68482
   1.64283   0.28690   1.68482
   1.64283   0.28690   1.44540
   1.64283   0.28690   1.68482
   1.88225   0.04748   1.44540
   1.88225  -0.19194   1.20598
   1.88225   0.28690   1.20598
   1.88225  -0.19194   1.20598
   2.12167  -0.19194   1.20598
   2.12167  -0.43136   1.20598
   2.12167  -0.43136   0.96656
   1.88225  -0.19194   0.96656
   1.88225  -0.19194   0.96656
   1.88225  -0.67078   0.72714
   1.88225  -0.19194   0.72714
   1.88225  -0.43136   0.72714
   1.88225  -0.19194   0.72714
   1.64283  -0.43136   0.72714
   1.40341  -0.43136   0.72714
   1.40341  -0.19194   0.48772
   1.40341  -0.67078   0.48772
   1.16399  -0.43136   0.72714
   0.92457  -0.43136   0.72714
   0.68515  -0.19194   0.48772
   0.68515  -0.43136   0.48772
   0.44573  -0.19194   0.48772
   0.44573  -0.43136   0.48772
   0.44573  -0.19194   0.72714
   0.20631   0.04748   0.72714
  -0.03311  -0.19194   0.72714
  -0.27253  -0.19194   0.72714
  -0.27253  -0.43136   0.72714
  -0.27253   0.04748   0.48772
  -0.51195  -0.19194   0.72714
  -0.51195  -0.19194   0.48772
  -0.51195   0.04748   0.24830
  -0.75137   0.28690   0.48772
  -0.75137   0.04748   0.48772
  -0.75137   0.04748   0.00888
  -0.75137   0.28690   0.24830
  -0.51195  -0.19194  -0.23054
  -0.51195  -0.19194   0.24830
  -0.75137  -0.19194  -0.23054
  -0.75137   0.04748  -0.23054
  -0.51195   0.04748  -0.46996
  -0.51195  -0.19194  -0.70938
  -0.51195   0.04748  -0.46996
  -0.75137   0.04748  -0.70938
  -0.75137   0.28690  -0.94880
  -0.99079   0.28690  -0.94880
  -0.99079   0.52632  -1.18822
  -0.99079   0.52632  -1.18822
  -0.75137   0.52632  -1.18822
  -0.99079   0.28690  -1.18822
  -0.99079   0.52632  -1.18822
  -0.99079   0.28690  -1.18822
  -0.99079   0.52632  -1.42764
  -0.99079   0.04748  -1.42764
