********************************************************************************
               CENTRO DE INSTRUMENTACION Y REGISTRO SISMICO  A.C.  
                       Coordinacion de Servicios Tecnicos
     Anaxagoras 814, Col. Narvarte, Benito Juarez, C.P. 03020 Mexico, D.F.
            Tels. 667 45 42/ 687 45  82             Fax. 669 25 12
********************************************************************************
ARCHIVO ESTANDAR DE ACELERACION:
VERSION DEL FORMATO                    : 2.0
NOMBRE DEL ARCHIVO                     : AL010508.141
FECHA Y HORA DE CREACION               : 15/AGO/05, 14:49
REF. CATALOGO ACELEROGRAMAS, SMIS 1996 : REGISTRO No.     /PAG.


================================================================================
DATOS DE LA ESTACION:
NOMBRE DE LA ESTACION                  : ALAMEDA
CLAVE DE LA ESTACION                   : AL01
LOCALIZACION DE LA ESTACION            : JARDIN ALAMEDA ENTRE AV. HIDALGO Y AV.
                                       : JUAREZ, CENTRO
                                       :
                                       :
                                       :
COORDENADAS DE LA ESTACION             : 19.436 LAT. N 
                                       : 99.145 LONG. W 
ALTITUD (msnm)                         : 2232
TIPO DE SUELO                          : TERRENO BLANDO, MATERIAL COMPRESIBLE
                                       : (ARCILLAS)
                                       : 
INSTITUCION RESPONSABLE                : CIRES 
                                       :

================================================================================
DATOS DEL ACELEROGRAFO:
MODELO DEL ACELEROGRAFO                : SSA-1
NUMERO DE SERIE DEL ACELEROGRAFO       : 152
NUMERO DE CANALES                      : 3
ORIENTACION C1-C6 (rumbo;orientacion)  : /N00E/+V/N90E
ORIENTACION C7-C12 (rumbo;orientacion) :
VEL. DE MUESTREO, C1-C6 (muestras/s)   : /200/200/200
VEL. DE MUESTREO, C7-C12 (muestras/s)  :
ESC. COMPLETA DE SENSORES, C1-C6, (g)  : /2/2/2
ESC. COMPLETA DE SENSORES, C7-C12, (g) :
FREC. NAT. DE SENSORES, C1-C6, (Hz)    : /51.29/51.09/53.75
FREC. NAT. DE SENSORES, C7-C12, (Hz)   :
AMORTIGUAMIENTO DE SENSORES, C1-C6     : /.5519/.5670/.5810
AMORTIGUAMIENTO DE SENSORES, C7-C12    :
INTERVALO DE MUESTREO, C1-C6, (s)      : /0.005/0.005/0.005
INTERVALO DE MUESTREO, C7-C12, (s)     :
UMBRAL DE DISPARO, C1-C6, (Gal)        : /2/1.5/2
UMBRAL DE DISPARO, C7-C12, (Gal)       :
MEMORIA DE PREEVENTO (s)               : 15
TIEMPO DE POSEVENTO (s)                : 60


================================================================================
DATOS DEL SISMO:
FECHA DEL SISMO (GMT)                  : 14/AGO/05
HORA EPICENTRO (GMT)                   : 02:51:56,0
MAGNITUD(ES)                           : /Mc=5.8
COORDENADAS DEL EPICENTRO              : 15.94 LAT. N
                                       : 97.93 LONG. W
PROFUNDIDAD FOCAL (km)                 : 9
FUENTE DE LOS DATOS EPICENTRALES       : SSN
                                       : INSTITUTO DE GEOFISICA, UNAM 

================================================================================
DATOS DE ESTE REGISTRO:
HORA DE LA PRIMERA MUESTRA (GMT)       : 02:53:48.00
EXACTITUD DEL TIEMPO (s)               :     
DURACION DEL REGISTRO (s), C1-C6       : /110.08/110.08/110.08
DURACION DEL REGISTRO (s), C7-C12      :
NUM. TOTAL DE MUESTRAS, C1-C6          : /22016/22016/22016
NUM. TOTAL DE MUESTRAS, C7-C12         :
ACEL. MAX. (Gal), C1-C6                : /-3.99111/1.81370/-3.55109
ACEL. MAX., C1-C6, EN LA MUESTRA       :
ACEL. MAX. (Gal), C7-C12               :
ACEL. MAX., C7-C12, EN LA MUESTRA      :
UNIDADES DE LOS DATOS                  : Gal (cm/s/s)
FACTOR DE DECIMACION                   : 1
FORMATO DATOS (FORTRAN,10 campos/dato) : 3F10.5


================================================================================
CALIDAD DEL ACELEROGRAMA:
REGISTRO DIGITAL COMPLETO, CARECE DE TIEMPO ABSOLUTO.


================================================================================
COMENTARIOS:














================================================================================
DATOS DE ACELERACION:
---------+---------+---------+---------+---------+---------+---------+---------+
   CANAL-1   CANAL-2   CANAL-3   CANAL-4   CANAL-5   CANAL-6   CANAL-7   CANAL-8
      N00E        +V      N90E
---------+---------+---------+---------+---------+---------+---------+---------+
[...]
  -0.64111   0.38370  -0.20109
  -0.64111   0.38370  -0.20109
  -0.64111   0.38370  -0.20109
  -0.64111   0.62370  -0.20109
  -0.64111   0.62370  -0.20109
  -0.64111   0.62370  -0.20109
  -0.64111   0.38370  -0.20109
  -0.64111   0.62370  -0.20109
  -0.64111   0.62370  -0.44109
  -0.64111   0.62370  -0.44109
  -0.64111   0.38370  -0.44109
  -0.64111   0.38370  -0.44109
  -0.64111   0.38370  -0.44109
  -0.64111   0.38370  -0.44109
  -0.64111   0.38370  -0.44109
  -0.64111   0.38370  -0.44109
  -0.64111   0.38370  -0.44109
  -0.64111   0.38370  -0.20109
  -0.64111   0.38370  -0.20109
  -0.40111   0.62370  -0.20109
  -0.40111   0.38370  -0.20109
  -0.40111   0.38370  -0.20109
  -0.16111   0.38370  -0.20109
  -0.16111   0.62370  -0.20109
  -0.16111   0.62370  -0.20109
  -0.16111   0.38370   0.03891
  -0.16111   0.38370   0.03891
  -0.16111   0.38370   0.03891
   0.07889   0.38370   0.03891
   0.07889   0.38370   0.03891
   0.07889   0.38370   0.03891
   0.07889   0.38370   0.03891
   0.07889   0.38370   0.03891
   0.07889   0.38370   0.03891
   0.31889   0.38370   0.03891
   0.31889   0.38370   0.27891
   0.31889   0.38370   0.27891
   0.55889   0.38370   0.27891
   0.55889   0.38370   0.27891
   0.55889   0.14370   0.51891
   0.55889   0.38370   0.51891
   0.79889   0.38370   0.51891
   0.79889   0.14370   0.51891
   0.79889   0.38370   0.51891
   0.79889   0.14370   0.75891
   0.79889   0.14370   0.75891
   1.03889   0.14370   0.75891
   1.03889   0.14370   0.99891
   1.03889   0.14370   0.99891
   1.03889  -0.09630   0.99891
   1.03889  -0.09630   0.99891
   1.03889  -0.09630   0.99891
   1.03889  -0.09630   0.99891
   1.03889  -0.09630   0.99891
   1.03889  -0.09630   0.99891
   1.03889  -0.09630   1.23891
   1.03889  -0.33630   1.23891
   1.03889  -0.33630   1.47891
   1.03889  -0.33630   1.47891
   1.27889  -0.57630   1.47891
   1.03889  -0.57630   1.47891
   1.03889  -0.57630   1.71891
   1.03889  -0.57630   1.71891
   1.03889  -0.57630   1.71891
   0.79889  -0.81630   1.71891
   0.79889  -0.81630   1.71891
   0.55889  -0.81630   1.71891
   0.55889  -0.57630   1.95891
   0.55889  -0.57630   1.71891
   0.55889  -0.57630   1.95891
   0.31889  -0.57630   1.95891
   0.31889  -0.57630   1.95891
   0.31889  -0.33630   1.95891
   0.31889  -0.33630   1.95891
   0.07889  -0.09630   1.95891
   0.07889  -0.09630   1.95891
   0.07889  -0.09630   1.95891
   0.07889  -0.09630   1.95891
   0.07889  -0.09630   1.95891
   0.07889   0.14370   1.71891
   0.31889   0.14370   1.71891
   0.31889   0.14370   1.71891
   0.31889   0.14370   1.71891
   0.31889  -0.09630   1.47891
   0.31889   0.14370   1.47891
   0.31889   0.14370   1.47891
   0.31889  -0.09630   1.23891
   0.31889  -0.09630   1.23891
   0.07889  -0.09630   1.23891
   0.07889  -0.09630   0.99891
   0.07889  -0.09630   0.99891
  -0.16111  -0.09630   0.99891
   0.07889  -0.09630   0.99891
  -0.16111  -0.09630   0.75891
  -0.16111  -0.09630   0.75891
  -0.16111  -0.09630   0.51891
  -0.16111  -0.09630   0.27891
  -0.16111  -0.09630   0.27891
  -0.16111  -0.09630   0.03891
  -0.16111  -0.09630   0.03891
  -0.16111  -0.09630  -0.20109
  -0.16111  -0.09630  -0.20109
  -0.16111  -0.09630  -0.44109
  -0.16111  -0.09630  -0.44109
  -0.16111  -0.09630  -0.68109
  -0.16111  -0.09630  -0.68109
  -0.16111  -0.09630  -0.92109
  -0.16111  -0.09630  -1.16109
  -0.16111  -0.09630  -1.39109
  -0.40111  -0.09630  -1.63109
  -0.16111  -0.09630  -1.39109
  -0.40111  -0.09630  -1.63109
  -0.40111   0.14370  -1.87109
  -0.40111   0.14370  -1.87109
  -0.40111   0.14370  -1.87109
  -0.40111   0.14370  -2.11109
  -0.40111   0.38370  -2.11109
  -0.64111   0.38370  -2.35109
  -0.64111   0.38370  -2.35109
  -0.64111   0.62370  -2.35109
  -0.40111   0.62370  -2.35109
  -0.40111   0.62370  -2.35109
  -0.40111   0.62370  -2.35109
  -0.40111   0.62370  -2.35109
  -0.40111   0.38370  -2.35109
  -0.40111   0.38370  -2.35109
  -0.64111   0.38370  -2.35109
  -0.64111   0.38370  -2.35109
  -0.64111   0.38370  -2.35109
  -0.64111   0.38370  -2.35109
  -0.64111   0.38370  -2.35109
  -0.88111   0.38370  -2.35109
  -0.88111   0.14370  -2.35109
  -0.88111   0.14370  -2.35109
  -1.12111   0.14370  -2.35109
  -1.12111   0.14370  -2.35109
  -1.12111   0.14370  -2.11109
  -1.12111   0.38370  -2.11109
  -1.12111   0.38370  -1.87109
  -1.12111   0.14370  -1.87109
  -1.36111   0.38370  -1.87109
  -1.36111   0.38370  -1.63109
  -1.36111   0.38370  -1.63109
  -1.36111   0.38370  -1.39109
  -1.36111   0.38370  -1.39109
  -1.60111   0.38370  -1.16109
  -1.36111   0.38370  -1.16109
  -1.36111   0.38370  -0.92109
  -1.36111   0.14370  -0.92109
  -1.36111   0.14370  -0.68109
  -1.36111   0.14370  -0.68109
  -1.36111   0.14370  -0.68109
  -1.36111   0.14370  -0.68109
  -1.36111   0.14370  -0.44109
  -1.36111   0.14370  -0.44109
  -1.36111   0.14370  -0.44109
  -1.12111   0.14370  -0.44109
  -1.12111  -0.09630  -0.20109
  -1.12111   0.14370  -0.20109
  -1.12111   0.14370  -0.20109
  -1.12111   0.38370   0.03891
  -1.12111   0.14370   0.03891
  -0.88111   0.14370   0.03891
  -0.88111   0.14370   0.03891
  -0.64111   0.38370   0.03891
  -0.64111   0.14370   0.27891
  -0.40111   0.14370   0.27891
  -0.16111   0.14370   0.27891
  -0.16111   0.14370   0.27891
   0.07889   0.14370   0.27891
   0.31889  -0.09630   0.27891
   0.31889  -0.09630   0.27891
   0.55889  -0.33630   0.27891
   0.55889  -0.33630   0.27891
   0.79889  -0.57630   0.27891
   0.79889  -0.57630   0.27891
   1.03889  -0.57630   0.03891
   1.27889  -0.57630   0.03891
   1.27889  -0.57630   0.03891
   1.27889  -0.81630   0.03891
   1.51889  -0.81630   0.03891
   1.74889  -0.81630   0.03891
   1.74889  -0.81630   0.03891
   1.74889  -0.81630   0.03891
   1.98889  -0.81630   0.03891
   2.22889  -0.81630   0.03891
   2.22889  -0.81630   0.03891
   2.22889  -0.81630   0.03891
   2.46889  -0.81630   0.03891
   2.46889  -0.81630   0.03891
   2.22889  -0.57630   0.03891
   2.46889  -0.57630   0.03891
   2.46889  -0.57630   0.03891
   2.46889  -0.57630   0.03891
   2.46889  -0.57630   0.03891
   2.70889  -0.57630   0.03891
   2.70889  -0.57630   0.03891
   2.70889  -0.57630   0.03891
   2.70889  -0.57630   0.27891
   2.70889  -0.57630   0.27891
   2.70889  -0.33630   0.27891
   2.70889  -0.33630   0.27891
   2.70889  -0.33630   0.27891
   2.70889  -0.33630   0.51891
   2.46889  -0.33630   0.51891
   2.46889  -0.33630   0.51891
   2.46889  -0.09630   0.51891
   2.46889  -0.09630   0.75891
   2.22889  -0.09630   0.75891
   2.22889  -0.09630   0.75891
   1.98889  -0.09630   0.75891
   1.98889  -0.09630   0.99891
   1.74889   0.14370   0.99891
   1.74889   0.14370   0.99891
   1.51889   0.14370   0.99891
   1.51889   0.14370   0.99891
   1.27889   0.14370   0.99891
   1.27889   0.14370   0.99891
   1.03889   0.14370   0.99891
   1.03889   0.14370   0.99891
   0.79889   0.14370   0.99891
   0.79889   0.14370   0.99891
   0.55889   0.14370   0.99891
   0.55889   0.14370   0.99891
   0.31889   0.14370   0.99891
   0.07889   0.14370   0.99891
   0.07889   0.14370   0.99891
  -0.16111   0.14370   0.99891
  -0.16111   0.14370   0.99891
  -0.40111   0.38370   0.99891
  -0.64111   0.38370   0.75891
  -0.64111   0.38370   0.75891
  -0.64111   0.62370   0.51891
  -0.64111   0.62370   0.51891
  -0.88111   0.62370   0.51891
  -0.88111   0.62370   0.51891
  -0.88111   0.62370   0.27891
  -0.88111   0.62370   0.51891
  -0.88111   0.62370   0.27891
  -0.64111   0.62370   0.27891
  -0.88111   0.85370   0.27891
  -0.64111   0.85370   0.27891
  -0.64111   0.85370   0.03891
  -0.64111   0.85370   0.03891
  -0.64111   0.85370   0.03891
  -0.64111   0.85370   0.03891
  -0.64111   0.85370  -0.20109
  -0.40111   0.85370  -0.20109
  -0.64111   0.85370  -0.20109
  -0.16111   0.85370  -0.20109
  -0.16111   0.85370  -0.20109
  -0.16111   0.85370  -0.20109
   0.07889   0.85370  -0.20109
   0.31889   0.85370  -0.20109
   0.31889   0.85370  -0.20109
   0.31889   0.85370  -0.20109
   0.55889   0.85370  -0.20109
   0.79889   0.62370  -0.20109
   0.79889   0.62370  -0.20109
   1.03889   0.62370   0.03891
   1.03889   0.62370   0.03891
   1.27889   0.62370   0.03891
   1.27889   0.62370   0.27891
   1.27889   0.38370   0.27891
   1.51889   0.38370   0.27891
   1.51889   0.38370   0.27891
   1.74889   0.38370   0.27891
   1.74889   0.14370   0.51891
   1.74889   0.14370   0.51891
   1.98889  -0.09630   0.51891
   1.98889  -0.09630   0.51891
   1.98889  -0.09630   0.75891
   1.98889  -0.33630   0.75891
   1.98889  -0.33630   0.75891
   1.98889  -0.33630   0.75891
   2.22889  -0.33630   0.99891
   1.98889  -0.33630   0.99891
   1.98889  -0.57630   0.99891
   1.98889  -0.57630   0.99891
   1.98889  -0.57630   0.99891
   1.74889  -0.57630   0.99891
   1.98889  -0.57630   0.99891
   1.74889  -0.57630   1.23891
   1.74889  -0.33630   1.23891
   1.74889  -0.33630   1.23891
   1.74889  -0.33630   1.23891
   1.74889  -0.33630   1.23891
   1.51889  -0.33630   1.23891
   1.51889  -0.33630   1.23891
   1.27889  -0.33630   1.23891
   1.27889  -0.33630   1.23891
   1.27889  -0.33630   1.23891
   1.03889  -0.57630   1.23891
   1.03889  -0.57630   1.23891
   0.79889  -1.05630   1.23891
   0.79889  -0.57630   1.23891
   0.79889  -0.81630   1.23891
   0.55889  -0.81630   1.23891
   0.31889  -0.81630   0.99891
   0.31889  -0.81630   0.99891
   0.07889  -0.81630   0.99891
   0.07889  -0.81630   0.99891
  -0.16111  -0.81630   0.99891
  -0.16111  -0.81630   0.99891
  -0.40111  -0.81630   0.75891
  -0.40111  -0.81630   0.75891
  -0.64111  -1.05630   0.75891
  -0.64111  -1.05630   0.51891
  -0.88111  -1.05630   0.51891
  -0.88111  -1.05630   0.27891
  -1.12111  -1.05630   0.27891
  -1.12111  -0.81630   0.03891
  -1.12111  -0.81630  -0.20109
  -1.12111  -0.81630  -0.20109
  -1.36111  -0.81630  -0.44109
  -1.36111  -0.81630  -0.44109
  -1.60111  -0.81630  -0.68109
  -1.60111  -0.57630  -0.92109
  -1.60111  -0.81630  -0.92109
  -1.84111  -0.57630  -1.16109
  -1.84111  -0.57630  -1.16109
  -1.84111  -0.57630  -1.39109
  -2.08111  -0.57630  -1.39109
  -2.08111  -0.33630  -1.63109
  -2.08111  -0.33630  -1.87109
  -2.08111  -0.33630  -1.87109
  -2.08111  -0.09630  -2.11109
  -2.08111  -0.09630  -2.11109
  -2.32111  -0.09630  -2.35109
  -2.32111  -0.33630  -2.35109
  -2.32111  -0.09630  -2.59109
  -2.56111   0.14370  -2.59109
  -2.56111   0.14370  -2.59109
  -2.56111   0.14370  -2.83109
  -2.56111   0.14370  -2.83109
  -2.80111   0.14370  -2.83109
  -2.80111   0.14370  -3.07109
  -3.04111   0.14370  -3.31109
  -3.04111   0.38370  -3.31109
  -3.04111   0.38370  -3.31109
  -3.04111   0.38370  -3.31109
  -3.28111   0.38370  -3.55109
  -3.28111   0.38370  -3.55109
  -3.28111   0.38370  -3.55109
  -3.51111   0.38370  -3.55109
  -3.51111   0.38370  -3.55109
  -3.75111   0.38370  -3.55109
  -3.75111   0.62370  -3.55109
  -3.75111   0.62370  -3.55109
  -3.99111   0.85370  -3.55109
  -3.99111   0.85370  -3.55109
  -3.99111   0.85370  -3.55109
  -3.99111   0.85370  -3.31109
  -3.99111   1.09370  -3.31109
  -3.99111   1.09370  -3.31109
  -3.99111   1.09370  -3.07109
  -3.99111   1.33370  -3.07109
  -3.99111   1.33370  -3.07109
  -3.99111   1.33370  -2.83109
  -3.99111   1.33370  -2.83109
  -3.99111   1.33370  -2.59109
  -3.99111   1.33370  -2.59109
  -3.99111   1.33370  -2.59109
  -3.75111   1.33370  -2.35109
  -3.75111   1.33370  -2.35109
  -3.75111   1.33370  -2.11109
  -3.75111   1.09370  -2.11109
  -3.51111   1.09370  -1.87109
  -3.51111   1.09370  -1.87109
  -3.51111   1.09370  -1.63109
  -3.51111   0.85370  -1.63109
  -3.28111   0.85370  -1.39109
  -3.28111   0.85370  -1.39109
  -3.04111   0.85370  -1.16109
  -3.04111   0.62370  -1.16109
  -3.04111   0.62370  -0.92109
  -2.80111   0.38370  -0.92109
  -2.56111   0.38370  -0.68109
  -2.56111   0.38370  -0.68109
  -2.56111   0.14370  -0.68109
  -2.32111   0.14370  -0.44109
  -2.32111  -0.09630  -0.44109
  -2.08111  -0.09630  -0.44109
  -2.08111  -0.33630  -0.44109
  -1.84111  -0.09630  -0.44109
  -1.84111  -0.33630  -0.20109
  -1.84111  -0.57630  -0.20109
  -1.60111  -0.57630  -0.20109
  -1.60111  -0.57630  -0.20109
  -1.60111  -0.81630  -0.20109
  -1.36111  -0.81630  -0.20109
  -1.36111  -0.81630  -0.44109
  -1.12111  -0.81630  -0.20109
  -1.12111  -0.81630  -0.20109
  -1.12111  -0.81630  -0.20109
  -1.12111  -0.81630  -0.20109
  -1.12111  -0.81630  -0.20109
  -0.88111  -0.81630  -0.20109
  -0.64111  -1.05630  -0.20109
  -0.64111  -1.05630  -0.20109
  -0.64111  -1.05630  -0.20109
  -0.40111  -1.05630  -0.20109
  -0.40111  -1.05630   0.03891
  -0.16111  -1.05630  -0.20109
  -0.16111  -1.05630   0.03891
   0.07889  -1.05630   0.03891
   0.07889  -1.05630   0.03891
   0.31889  -1.05630   0.03891
   0.31889  -1.05630   0.03891
   0.55889  -1.05630   0.03891
   0.55889  -1.05630   0.27891
   0.55889  -1.05630   0.27891
   0.79889  -1.05630   0.27891
   1.03889  -1.05630   0.51891
   1.03889  -1.29630   0.51891
   1.27889  -1.29630   0.51891
   1.27889  -1.29630   0.75891
   1.51889  -1.29630   0.75891
   1.51889  -1.29630   0.99891
   1.51889  -1.29630   0.75891
   1.74889  -1.05630   0.99891
   1.74889  -1.29630   0.99891
   1.74889  -1.29630   1.23891
   1.74889  -1.29630   1.23891
   1.98889  -1.05630   1.47891
   1.98889  -1.05630   1.71891
   1.98889  -0.81630   1.71891
   2.22889  -0.81630   1.95891
   2.22889  -0.81630   1.95891
   2.22889  -0.57630   2.19891
   2.22889  -0.57630   2.19891
   2.46889  -0.33630   2.43891
   2.46889  -0.33630   2.43891
   2.46889  -0.09630   2.67891
   2.46889  -0.09630   2.67891
   2.70889  -0.09630   2.67891
   2.46889  -0.09630   2.91891
   2.70889  -0.09630   2.91891
   2.70889   0.14370   2.91891
   2.70889   0.14370   3.15891
   2.70889   0.38370   3.15891
   2.70889   0.38370   3.15891
   2.70889   0.38370   3.39891
   2.70889   0.62370   3.39891
   2.70889   0.62370   3.39891
   2.70889   0.85370   3.39891
   2.70889   0.85370   3.39891
   2.22889   1.09370   3.39891
   2.70889   1.09370   3.39891
   2.70889   1.33370   3.39891
   2.70889   1.33370   3.39891
   2.46889   1.33370   3.39891
   2.46889   1.33370   3.39891
   2.46889   1.33370   3.39891
   2.46889   1.33370   3.39891
   2.46889   1.33370   3.39891
   2.46889   1.09370   3.15891
   2.46889   1.09370   2.91891
   2.22889   1.09370   2.91891
   2.22889   1.09370   2.91891
   2.22889   1.09370   2.91891
   1.98889   1.09370   2.91891
   1.98889   0.85370   2.67891
   1.74889   0.85370   2.67891
   1.74889   0.85370   2.67891
   1.74889   0.85370   2.43891
   1.51889   0.85370   2.43891
   1.51889   0.85370   2.43891
   1.51889   0.85370   2.19891
   1.27889   1.09370   2.19891
   1.27889   1.09370   1.95891
   1.27889   1.09370   1.95891
   1.03889   1.09370   1.95891
   0.79889   1.09370   1.71891
   1.03889   1.09370   1.71891
   0.79889   1.33370   1.47891
   0.79889   1.09370   1.47891
   0.79889   1.09370   1.47891
   0.79889   1.09370   1.23891
   0.79889   1.09370   1.23891
   0.79889   1.09370   1.23891
   0.79889   0.85370   0.99891
   0.79889   0.85370   0.99891
   0.79889   0.85370   0.99891
   0.79889   0.85370   0.99891
   0.79889   0.85370   0.99891
   0.55889   0.85370   0.99891
   0.55889   0.62370   0.51891
   0.31889   0.62370   0.99891
   0.55889   0.62370   0.75891
   0.55889   0.62370   0.75891
   0.55889   0.62370   0.75891
   0.55889   0.38370   0.75891
   0.55889   0.62370   0.75891
   0.79889   0.62370   0.51891
   0.79889   0.38370   0.75891
   0.55889   0.38370   0.75891
   0.79889   0.38370   0.51891
   0.79889   0.38370   0.51891
   0.79889   0.38370   0.03891
