********************************************************************************
               CENTRO DE INSTRUMENTACION Y REGISTRO SISMICO  A.C.  
                       Coordinacion de Servicios Tecnicos
     Anaxagoras 814, Col. Narvarte, Benito Juarez, C.P. 03020 Mexico, D.F.
            Tels. 667 45 42/ 687 45  82             Fax. 669 25 12
********************************************************************************
ARCHIVO ESTANDAR DE ACELERACION:
VERSION DEL FORMATO                    : 2.0
NOMBRE DEL ARCHIVO                     : AL010301.221
FECHA Y HORA DE CREACION               : 15/JUL/04, 09:15
REF. CATALOGO ACELEROGRAMAS, SMIS 1996 : REGISTRO No.     /PAG.


================================================================================
DATOS DE LA ESTACION:
NOMBRE DE LA ESTACION                  : ALAMEDA
CLAVE DE LA ESTACION                   : AL01
LOCALIZACION DE LA ESTACION            : JARDIN ALAMEDA ENTRE AV. HIDALGO Y AV.
                                       : JUAREZ, CENTRO
                                       :
                                       :
                                       :
COORDENADAS DE LA ESTACION             : 19.436 LAT. N 
                                       : 99.145 LONG. W 
ALTITUD (msnm)                         : 2232
TIPO DE SUELO                          : TERRENO BLANDO, MATERIAL COMPRESIBLE
                                       : (ARCILLAS)
                                       : 
INSTITUCION RESPONSABLE                : CIRES 
                                       :

================================================================================
DATOS DEL ACELEROGRAFO:
MODELO DEL ACELEROGRAFO                : SSA-1
NUMERO DE SERIE DEL ACELEROGRAFO       : 152
NUMERO DE CANALES                      : 3
ORIENTACION C1-C6 (rumbo;orientacion)  : /N00E/+V/N90E
ORIENTACION C7-C12 (rumbo;orientacion) :
VEL. DE MUESTREO, C1-C6 (muestras/s)   : /200/200/200
VEL. DE MUESTREO, C7-C12 (muestras/s)  :
ESC. COMPLETA DE SENSORES, C1-C6, (g)  : /2/2/2
ESC. COMPLETA DE SENSORES, C7-C12, (g) :
FREC. NAT. DE SENSORES, C1-C6, (Hz)    : /51.29/51.09/53.75
FREC. NAT. DE SENSORES, C7-C12, (Hz)   :
AMORTIGUAMIENTO DE SENSORES, C1-C6     : /.5519/.5670/.5810
AMORTIGUAMIENTO DE SENSORES, C7-C12    :
INTERVALO DE MUESTREO, C1-C6, (s)      : /0.005/0.005/0.005
INTERVALO DE MUESTREO, C7-C12, (s)     :
UMBRAL DE DISPARO, C1-C6, (Gal)        : /2/1.5/2
UMBRAL DE DISPARO, C7-C12, (Gal)       :
MEMORIA DE PREEVENTO (s)               : 15
TIEMPO DE POSEVENTO (s)                : 60


================================================================================
DATOS DEL SISMO:
FECHA DEL SISMO (GMT)                  : 22/ENE/03
HORA EPICENTRO (GMT)                   : 02:06:34:5
MAGNITUD(ES)                           : /Mb=6.5/Ms=7.6/Mc=0.0/Ma=7.2/Me=7.6
COORDENADAS DEL EPICENTRO              : 18.60 LAT. N
                                       : 104.22 LONG. W
PROFUNDIDAD FOCAL (km)                 : 9.0
FUENTE DE LOS DATOS EPICENTRALES       : SSN
                                       : INSTITUTO DE GEOFISICA, UNAM

================================================================================
DATOS DE ESTE REGISTRO:
HORA DE LA PRIMERA MUESTRA (GMT)       : 02:08:27.00
EXACTITUD DEL TIEMPO (s)               :     
DURACION DEL REGISTRO (s), C1-C6       : /235.52/235.52/235.52
DURACION DEL REGISTRO (s), C7-C12      :
NUM. TOTAL DE MUESTRAS, C1-C6          : /47104/47104/47104
NUM. TOTAL DE MUESTRAS, C7-C12         :
ACEL. MAX. (Gal), C1-C6                : /-15.49417/-3.66110/22.93597
ACEL. MAX., C1-C6, EN LA MUESTRA       :
ACEL. MAX. (Gal), C7-C12               :
ACEL. MAX., C7-C12, EN LA MUESTRA      :
UNIDADES DE LOS DATOS                  : Gal (cm/s/s)
FACTOR DE DECIMACION                   : 1
FORMATO DATOS (FORTRAN,10 campos/dato) : 3F10.5


================================================================================
CALIDAD DEL ACELEROGRAMA:
REGISTRO DIGITAL COMPLETO, CARECE DE TIEMPO ABSOLUTO.


================================================================================
COMENTARIOS:














================================================================================
DATOS DE ACELERACION:
---------+---------+---------+---------+---------+---------+---------+---------+
   CANAL-1   CANAL-2   CANAL-3   CANAL-4   CANAL-5   CANAL-6   CANAL-7   CANAL-8
      N00E        +V      N90E
---------+---------+---------+---------+---------+---------+---------+---------+
[...]
  11.81583  -0.78110   2.57597
  11.81583  -0.78110   2.33597
  11.57583  -0.78110   2.09597
  11.57583  -0.78110   1.85597
  11.57583  -1.02110   1.61597
  11.57583  -1.02110   1.61597
  11.57583  -1.02110   1.37597
  11.57583  -1.02110   1.13597
  11.33583  -1.02110   1.13597
  11.57583  -1.02110   0.90597
  11.57583  -1.26110   0.66597
  11.57583  -1.26110   0.66597
  11.33583  -1.26110   0.42597
  11.33583  -1.26110   0.42597
  11.33583  -1.26110   0.18597
  11.33583  -1.50110  -0.05403
  11.33583  -1.50110  -0.05403
  11.09583  -1.50110  -0.29403
  11.09583  -1.50110  -0.29403
  11.09583  -1.50110  -0.53403
  11.09583  -1.74110  -0.53403
  10.61583  -1.74110  -0.77403
  11.09583  -1.74110  -1.01403
  10.85583  -1.98110  -1.01403
  10.85583  -1.98110  -1.25403
  10.85583  -1.98110  -1.25403
  10.85583  -1.98110  -1.25403
  10.85583  -1.98110  -1.49403
  10.61583  -1.98110  -1.49403
  10.61583  -1.98110  -1.73403
  10.61583  -1.98110  -1.73403
  10.61583  -2.22110  -1.73403
  10.61583  -2.22110  -1.97403
  10.61583  -2.22110  -2.21403
  10.37583  -2.22110  -2.21403
  10.37583  -2.22110  -2.45403
  10.37583  -2.22110  -2.45403
  10.13583  -2.22110  -2.69403
  10.13583  -2.22110  -2.69403
  10.13583  -2.22110  -2.93403
   9.89583  -2.22110  -3.17403
   9.65583  -2.22110  -3.17403
   9.65583  -2.22110  -3.17403
   9.65583  -2.22110  -3.41403
   9.65583  -2.22110  -3.65403
   9.65583  -2.22110  -3.89403
   9.41583  -2.22110  -3.89403
   9.41583  -2.22110  -4.12403
   9.17583  -2.22110  -4.36403
   9.17583  -1.98110  -4.60403
   8.93583  -1.98110  -4.60403
   8.93583  -1.98110  -4.84403
   8.69583  -1.74110  -5.08403
   8.69583  -1.74110  -5.08403
   8.45583  -1.74110  -5.32403
   8.21583  -1.74110  -5.56403
   7.97583  -1.74110  -5.56403
   7.97583  -1.50110  -5.80403
   7.97583  -1.50110  -6.04403
   7.73583  -1.50110  -6.28403
   7.49583  -1.50110  -6.52403
   7.25583  -1.50110  -6.76403
   7.02583  -1.26110  -7.00403
   6.78583  -1.26110  -7.24403
   6.54583  -1.26110  -7.48403
   6.54583  -1.02110  -7.48403
   6.30583  -1.02110  -7.72403
   6.06583  -1.02110  -7.96403
   6.06583  -0.78110  -7.96403
   5.58583  -0.78110  -8.44403
   5.58583  -0.54110  -8.44403
   5.34583  -0.54110  -8.68403
   5.10583  -0.30110  -8.91403
   4.86583  -0.30110  -8.91403
   4.62583  -0.06110  -9.15403
   4.38583  -0.06110  -9.39403
   4.14583   0.17890  -9.63403
   3.90583   0.17890  -9.63403
   3.90583   0.41890  -9.87403
   3.66583   0.41890 -10.11403
   3.42583   0.41890 -10.11403
   3.18583   0.65890 -10.35403
   3.18583   0.65890 -10.35403
   2.94583   0.89890 -10.59403
   2.70583   0.89890 -10.59403
   2.46583   0.89890 -10.83403
   2.23583   0.89890 -11.07403
   2.23583   1.13890 -11.07403
   1.99583   1.13890 -11.31403
   1.75583   1.36890 -11.31403
   1.75583   1.36890 -11.55403
   1.51583   1.36890 -11.55403
   1.27583   1.36890 -11.55403
   1.03583   1.60890 -11.79403
   1.03583   1.60890 -11.79403
   0.79583   1.60890 -11.79403
   0.79583   1.84890 -12.03403
   0.55583   1.84890 -12.03403
   0.55583   1.84890 -12.03403
   0.31583   1.84890 -12.27403
   0.07583   1.84890 -12.27403
   0.07583   2.08890 -12.27403
   0.07583   1.84890 -12.27403
   0.07583   1.84890 -12.27403
  -0.16417   1.84890 -12.27403
  -0.16417   1.84890 -12.27403
  -0.40417   1.84890 -12.27403
  -0.40417   1.84890 -12.51403
  -0.40417   1.84890 -12.27403
  -0.40417   2.08890 -12.27403
  -0.40417   1.84890 -12.27403
  -0.40417   2.08890 -12.27403
  -0.64417   2.08890 -12.27403
  -0.64417   2.08890 -12.27403
  -0.64417   2.08890 -12.27403
  -0.88417   2.08890 -12.51403
  -0.88417   2.08890 -12.27403
  -0.88417   2.08890 -12.27403
  -0.88417   2.08890 -12.27403
  -0.88417   2.08890 -12.51403
  -1.12417   2.32890 -12.27403
  -1.12417   2.08890 -12.51403
  -1.12417   2.08890 -12.27403
  -1.36417   2.08890 -12.51403
  -1.36417   2.08890 -12.27403
  -1.36417   2.08890 -12.27403
  -1.36417   2.08890 -12.27403
  -1.36417   2.08890 -12.27403
  -1.60417   2.08890 -12.27403
  -1.60417   2.08890 -12.27403
  -1.60417   2.08890 -12.27403
  -1.60417   2.08890 -12.27403
  -1.84417   2.08890 -12.27403
  -1.84417   2.08890 -12.27403
  -1.84417   2.08890 -12.27403
  -1.84417   1.84890 -12.27403
  -1.84417   2.08890 -12.27403
  -2.08417   1.84890 -12.27403
  -2.08417   2.08890 -12.27403
  -2.08417   1.84890 -12.27403
  -2.08417   1.84890 -12.27403
  -2.32417   1.84890 -12.27403
  -2.32417   1.84890 -12.03403
  -2.32417   1.60890 -12.27403
  -2.56417   1.84890 -12.03403
  -2.56417   1.84890 -12.03403
  -2.56417   1.84890 -12.03403
  -2.56417   1.84890 -12.03403
  -2.79417   1.84890 -12.03403
  -2.56417   1.84890 -12.03403
  -2.79417   1.84890 -12.03403
  -2.79417   1.84890 -12.03403
  -2.79417   1.84890 -12.03403
  -2.79417   1.84890 -12.03403
  -2.79417   1.84890 -12.03403
  -2.79417   1.84890 -12.03403
  -2.79417   1.84890 -12.03403
  -3.03417   1.60890 -12.03403
  -3.03417   1.60890 -12.03403
  -3.03417   1.60890 -12.03403
  -3.03417   1.60890 -12.03403
  -3.03417   1.84890 -12.03403
  -3.03417   1.84890 -12.03403
  -3.03417   1.84890 -12.03403
  -3.03417   1.84890 -12.03403
  -3.27417   1.84890 -12.03403
  -3.03417   1.84890 -12.03403
  -3.03417   1.84890 -12.03403
  -3.03417   1.84890 -12.03403
  -3.03417   2.08890 -12.03403
  -3.27417   2.08890 -12.03403
  -3.03417   1.84890 -12.03403
  -3.03417   2.08890 -12.03403
  -3.03417   2.08890 -12.03403
  -3.03417   2.08890 -12.03403
  -3.03417   2.32890 -12.03403
  -2.79417   2.08890 -12.03403
  -2.79417   2.32890 -12.03403
  -2.79417   2.32890 -12.27403
  -2.79417   2.32890 -12.03403
  -2.79417   2.32890 -12.27403
  -2.79417   2.32890 -12.27403
  -2.79417   2.32890 -12.27403
  -2.79417   2.32890 -12.27403
  -2.79417   2.56890 -12.27403
  -2.79417   2.32890 -12.27403
  -2.79417   2.56890 -12.27403
  -2.79417   2.56890 -12.51403
  -2.79417   2.56890 -12.51403
  -2.79417   2.56890 -12.51403
  -2.56417   2.56890 -12.51403
  -2.56417   2.80890 -12.51403
  -2.79417   2.80890 -12.51403
  -2.79417   2.80890 -12.75403
  -2.79417   2.80890 -12.75403
  -2.79417   2.80890 -12.99403
  -2.79417   2.80890 -12.75403
  -2.79417   2.80890 -12.99403
  -2.79417   3.04890 -12.99403
  -2.79417   3.04890 -12.99403
  -2.79417   3.04890 -12.99403
  -2.79417   3.04890 -13.23403
  -2.79417   3.04890 -13.23403
  -2.79417   3.04890 -13.23403
  -3.03417   3.28890 -13.23403
  -3.03417   3.04890 -13.23403
  -3.03417   3.28890 -13.47403
  -3.03417   3.28890 -13.47403
  -3.27417   3.28890 -13.47403
  -3.27417   3.28890 -13.47403
  -3.27417   3.28890 -13.47403
  -3.27417   3.28890 -13.47403
  -3.51417   3.28890 -13.47403
  -3.51417   3.28890 -13.47403
  -3.75417   3.28890 -13.47403
  -3.75417   3.28890 -13.47403
  -3.75417   3.28890 -13.47403
  -3.75417   3.28890 -13.47403
  -3.75417   3.28890 -13.23403
  -3.99417   3.28890 -13.23403
  -3.99417   3.28890 -13.23403
  -3.99417   3.28890 -13.23403
  -4.23417   3.28890 -13.23403
  -4.23417   3.28890 -13.23403
  -4.47417   3.28890 -12.99403
  -4.23417   3.28890 -12.99403
  -4.47417   3.28890 -12.99403
  -4.47417   3.28890 -12.75403
  -4.47417   3.28890 -12.75403
  -4.47417   3.28890 -12.75403
  -4.47417   3.28890 -12.75403
  -4.71417   3.28890 -12.51403
  -4.71417   3.28890 -12.27403
  -4.71417   3.28890 -12.27403
  -4.71417   3.28890 -12.03403
  -4.71417   3.04890 -11.79403
  -4.71417   3.04890 -11.79403
  -4.71417   3.04890 -11.55403
  -4.71417   3.04890 -11.31403
  -4.71417   3.04890 -11.07403
  -4.71417   3.04890 -10.83403
  -4.71417   2.80890 -10.83403
  -4.71417   2.80890 -10.35403
  -4.71417   2.80890 -10.35403
  -4.71417   2.80890 -10.11403
  -4.71417   2.80890  -9.87403
  -4.71417   2.80890  -9.39403
  -4.71417   2.56890  -9.15403
  -4.71417   2.56890  -8.91403
  -4.47417   2.32890  -8.68403
  -4.47417   2.32890  -8.20403
  -4.47417   2.32890  -7.96403
  -4.47417   2.32890  -7.72403
  -4.23417   2.32890  -7.24403
  -4.23417   2.08890  -7.00403
  -3.99417   2.08890  -6.76403
  -4.23417   2.08890  -6.28403
  -3.99417   1.84890  -6.04403
  -3.75417   1.84890  -5.56403
  -3.99417   1.84890  -5.08403
  -3.75417   1.60890  -4.84403
  -3.51417   1.60890  -4.36403
  -3.27417   1.60890  -3.89403
  -3.27417   1.36890  -3.65403
  -3.27417   1.36890  -3.17403
  -3.27417   1.13890  -2.69403
  -3.03417   1.13890  -2.45403
  -3.03417   0.89890  -1.97403
  -2.79417   0.89890  -1.73403
  -2.79417   0.89890  -1.25403
  -2.56417   0.89890  -0.77403
  -2.56417   0.65890  -0.29403
  -2.32417   0.65890  -0.05403
  -2.32417   0.65890   0.42597
  -2.08417   0.41890   0.66597
  -1.84417   0.41890   1.37597
  -1.84417   0.41890   1.61597
  -1.84417   0.17890   2.09597
  -1.60417   0.17890   2.57597
  -1.36417  -0.06110   3.05597
  -1.36417  -0.06110   3.53597
  -1.36417  -0.06110   4.01597
  -1.12417  -0.06110   4.25597
  -0.88417  -0.06110   4.73597
  -0.88417  -0.06110   5.21597
  -0.64417  -0.30110   5.69597
  -0.64417  -0.30110   6.16597
  -0.40417  -0.30110   6.64597
  -0.40417  -0.30110   7.12597
  -0.40417  -0.54110   7.36597
  -0.16417  -0.54110   7.36597
  -0.16417  -0.54110   8.32597
   0.07583  -0.54110   8.80597
   0.07583  -0.54110   9.04597
   0.07583  -0.78110   9.52597
   0.31583  -0.54110  10.00597
   0.31583  -0.54110  10.48597
   0.55583  -0.78110  10.71597
   0.55583  -0.78110  11.19597
   0.79583  -0.78110  11.67597
   0.79583  -0.78110  11.91597
   1.03583  -0.78110  12.39597
   1.03583  -0.78110  12.87597
   1.27583  -0.78110  13.35597
   1.27583  -0.78110  13.59597
   1.27583  -1.02110  13.83597
   1.51583  -1.02110  14.31597
   1.51583  -1.02110  14.79597
   1.75583  -1.02110  15.03597
   1.75583  -1.02110  15.50597
   1.99583  -1.02110  15.74597
   1.99583  -0.78110  15.98597
   1.99583  -1.02110  16.46597
   1.99583  -1.02110  16.70597
   1.99583  -1.02110  16.94597
   1.99583  -1.02110  17.42597
   2.23583  -0.78110  17.66597
   2.23583  -0.78110  17.90597
   2.23583  -1.02110  18.38597
   2.23583  -0.78110  18.62597
   2.23583  -1.02110  18.86597
   2.23583  -1.02110  19.10597
   2.23583  -1.02110  19.34597
   2.23583  -0.78110  19.34597
   2.23583  -0.78110  19.82597
   2.23583  -0.78110  19.82597
   2.23583  -0.78110  20.29597
   1.99583  -0.78110  20.29597
   1.99583  -0.78110  20.53597
   1.99583  -0.78110  20.77597
   1.75583  -0.78110  21.01597
   1.75583  -0.78110  21.01597
   1.75583  -0.78110  21.25597
   1.51583  -0.78110  21.49597
   1.51583  -0.54110  21.73597
   1.27583  -0.78110  21.73597
   1.27583  -0.54110  21.97597
   1.03583  -0.78110  22.21597
   1.03583  -0.78110  22.21597
   0.79583  -0.78110  22.21597
   0.79583  -0.54110  22.45597
   0.55583  -0.78110  22.45597
   0.31583  -0.54110  22.69597
   0.31583  -0.78110  22.45597
   0.07583  -0.78110  22.45597
  -0.16417  -0.78110  22.69597
  -0.16417  -0.78110  22.69597
  -0.40417  -0.78110  22.69597
  -0.40417  -0.78110  22.69597
  -0.64417  -0.78110  22.93597
  -0.88417  -0.78110  22.93597
  -1.12417  -0.78110  22.93597
  -1.12417  -0.78110  22.93597
  -1.36417  -0.54110  22.93597
  -1.36417  -0.54110  22.93597
  -1.60417  -0.78110  22.93597
  -2.32417  -0.54110  22.93597
  -1.84417  -0.54110  22.69597
  -2.08417  -0.54110  22.69597
  -2.32417  -0.78110  22.45597
  -2.32417  -1.02110  22.21597
  -2.32417  -0.78110  22.21597
  -2.56417  -0.78110  22.21597
  -2.79417  -0.78110  21.97597
  -3.03417  -0.78110  21.97597
  -3.03417  -0.54110  21.73597
  -3.03417  -0.54110  21.49597
  -3.27417  -0.54110  21.25597
  -3.27417  -0.54110  21.01597
  -3.51417  -0.54110  20.77597
  -3.51417  -0.54110  20.53597
  -3.75417  -0.54110  20.29597
  -3.75417  -0.54110  20.06597
  -3.75417  -0.54110  19.58597
  -3.75417  -0.54110  19.34597
  -3.99417  -0.54110  19.10597
  -3.99417  -0.54110  18.86597
  -4.23417  -0.54110  18.62597
  -4.23417  -0.54110  18.38597
  -4.23417  -0.54110  17.90597
  -4.23417  -0.54110  17.90597
  -4.23417  -0.30110  17.42597
  -4.23417  -0.54110  16.94597
  -4.23417  -0.54110  16.70597
  -4.23417  -0.54110  16.46597
  -4.47417  -0.54110  16.22597
  -4.23417  -0.54110  15.98597
  -4.23417  -0.54110  15.50597
  -4.23417  -0.78110  15.27597
  -4.23417  -0.54110  14.79597
  -4.23417  -0.54110  14.55597
  -4.23417  -0.54110  14.31597
  -3.99417  -0.54110  13.83597
  -3.99417  -0.54110  13.35597
  -3.99417  -0.78110  13.11597
  -3.99417  -0.78110  12.87597
  -3.75417  -0.78110  12.39597
  -3.75417  -0.78110  12.15597
  -3.75417  -0.78110  11.91597
  -3.75417  -0.78110  11.67597
  -3.51417  -1.02110  11.19597
  -3.51417  -1.02110  10.95597
  -3.51417  -1.02110  10.71597
  -3.27417  -1.02110  10.24597
  -3.27417  -1.02110  10.00597
  -3.27417  -1.02110  10.00597
  -3.27417  -1.02110   9.52597
  -3.27417  -1.26110   9.28597
  -3.03417  -1.26110   9.04597
  -3.03417  -1.26110   8.56597
  -3.03417  -1.26110   8.32597
  -3.03417  -1.26110   8.08597
  -2.79417  -1.50110   7.84597
  -2.79417  -1.50110   7.60597
  -2.79417  -1.50110   7.36597
  -2.79417  -1.50110   7.12597
  -2.79417  -1.50110   7.12597
  -2.79417  -1.50110   6.88597
  -2.79417  -1.50110   6.64597
  -2.79417  -1.50110   6.40597
  -2.79417  -1.50110   6.16597
  -3.03417  -1.50110   5.92597
  -3.03417  -1.74110   5.69597
  -2.79417  -1.50110   5.45597
  -3.03417  -1.50110   5.45597
  -3.03417  -1.50110   5.21597
  -3.03417  -1.98110   4.97597
  -3.03417  -1.74110   4.73597
  -3.03417  -1.74110   4.49597
  -3.27417  -1.50110   4.25597
  -3.27417  -1.50110   4.01597
  -3.27417  -1.50110   3.77597
  -3.27417  -1.74110   3.53597
  -3.27417  -1.50110   3.29597
  -3.51417  -1.50110   3.05597
  -3.51417  -1.50110   2.81597
  -3.51417  -1.50110   2.57597
  -3.75417  -1.50110   2.33597
  -3.75417  -1.50110   2.09597
  -3.75417  -1.50110   1.61597
  -3.75417  -1.50110   1.37597
  -3.99417  -1.50110   1.13597
  -3.99417  -1.50110   0.90597
  -4.23417  -1.50110   0.66597
  -4.23417  -1.50110   0.42597
  -4.47417  -1.50110  -0.05403
  -4.47417  -1.50110  -0.29403
  -4.47417  -1.50110  -0.53403
  -4.71417  -1.50110  -0.77403
  -4.71417  -1.50110  -1.01403
  -4.71417  -1.50110  -1.25403
  -4.71417  -1.50110  -1.49403
  -4.95417  -1.50110  -1.73403
  -4.95417  -1.50110  -1.97403
  -4.95417  -1.50110  -2.21403
  -4.95417  -1.50110  -2.69403
  -5.19417  -1.50110  -2.93403
  -5.19417  -1.50110  -3.17403
  -5.19417  -1.50110  -3.41403
  -5.19417  -1.50110  -3.65403
  -5.19417  -1.26110  -3.89403
  -5.19417  -1.26110  -4.12403
  -5.19417  -1.26110  -4.60403
  -5.19417  -1.26110  -4.84403
  -5.19417  -1.26110  -5.08403
  -5.19417  -1.26110  -5.32403
  -5.19417  -1.26110  -5.56403
  -4.95417  -1.02110  -5.80403
  -4.95417  -1.02110  -6.04403
  -4.95417  -1.02110  -6.28403
  -4.95417  -1.02110  -6.52403
  -4.95417  -1.50110  -6.76403
  -4.95417  -1.02110  -7.00403
  -4.71417  -1.02110  -7.24403
  -4.71417  -0.78110  -7.48403
  -4.71417  -0.78110  -7.72403
  -4.71417  -0.78110  -7.96403
  -4.71417  -0.78110  -8.20403
  -4.47417  -0.78110  -8.44403
  -4.47417  -0.54110  -8.68403
  -4.47417  -0.54110  -8.68403
  -4.23417  -0.54110  -8.91403
  -4.23417  -0.54110  -9.39403
  -3.99417  -0.54110  -9.39403
  -3.99417  -0.54110  -9.87403
  -3.75417  -0.54110  -9.87403
  -3.75417  -0.54110 -10.11403
  -3.75417  -0.30110 -10.35403
  -3.51417  -0.30110 -10.59403
  -3.51417  -0.30110 -10.83403
  -3.27417  -0.06110 -11.07403
  -3.27417  -0.30110 -11.07403
  -3.03417  -0.06110 -11.31403
  -3.03417  -0.06110 -11.55403
  -2.79417  -0.06110 -11.79403
  -2.79417  -0.30110 -11.79403
  -2.56417  -0.30110 -12.03403
  -2.56417  -0.30110 -12.27403
  -2.32417  -0.30110 -12.27403
