********************************************************************************
               CENTRO DE INSTRUMENTACION Y REGISTRO SISMICO  A.C.  
                       Coordinacion de Servicios Tecnicos
     Anaxagoras 814, Col. Narvarte, Benito Juarez, C.P. 03020 Mexico, D.F.
            Tels. 667 45 42/ 687 45  82             Fax. 669 25 12
********************************************************************************
ARCHIVO ESTANDAR DE ACELERACION:
VERSION DEL FORMATO                    : 2.0
NOMBRE DEL ARCHIVO                     : AL010209.251
FECHA Y HORA DE CREACION               : 21/JUL/04, 12:20
REF. CATALOGO ACELEROGRAMAS, SMIS 1996 : REGISTRO No.     /PAG.


================================================================================
DATOS DE LA ESTACION:
NOMBRE DE LA ESTACION                  : ALAMEDA
CLAVE DE LA ESTACION                   : AL01
LOCALIZACION DE LA ESTACION            : JARDIN ALAMEDA ENTRE AV. HIDALGO Y AV.
                                       : JUAREZ, CENTRO
                                       :
                                       :
                                       :
COORDENADAS DE LA ESTACION             : 19.436 LAT. N 
                                       : 99.145 LONG. W 
ALTITUD (msnm)                         : 2232
TIPO DE SUELO                          : TERRENO BLANDO, MATERIAL COMPRESIBLE
                                       : (ARCILLAS)
                                       : 
INSTITUCION RESPONSABLE                : CIRES 
                                       :

================================================================================
DATOS DEL ACELEROGRAFO:
MODELO DEL ACELEROGRAFO                : SSA-1
NUMERO DE SERIE DEL ACELEROGRAFO       : 152
NUMERO DE CANALES                      : 3
ORIENTACION C1-C6 (rumbo;orientacion)  : /N00E/+V/N90E
ORIENTACION C7-C12 (rumbo;orientacion) :
VEL. DE MUESTREO, C1-C6 (muestras/s)   : /200/200/200
VEL. DE MUESTREO, C7-C12 (muestras/s)  :
ESC. COMPLETA DE SENSORES, C1-C6, (g)  : /2/2/2
ESC. COMPLETA DE SENSORES, C7-C12, (g) :
FREC. NAT. DE SENSORES, C1-C6, (Hz)    : /51.29/51.09/53.75
FREC. NAT. DE SENSORES, C7-C12, (Hz)   :
AMORTIGUAMIENTO DE SENSORES, C1-C6     : /.5519/.5670/.5810
AMORTIGUAMIENTO DE SENSORES, C7-C12    :
INTERVALO DE MUESTREO, C1-C6, (s)      : /0.005/0.005/0.005
INTERVALO DE MUESTREO, C7-C12, (s)     :
UMBRAL DE DISPARO, C1-C6, (Gal)        : /2/1.5/2
UMBRAL DE DISPARO, C7-C12, (Gal)       :
MEMORIA DE PREEVENTO (s)               : 15
TIEMPO DE POSEVENTO (s)                : 60


================================================================================
DATOS DEL SISMO:
FECHA DEL SISMO (GMT)                  : 25/SEP/02
HORA EPICENTRO (GMT)                   : 18:14:48,2
MAGNITUD(ES)                           : /Mb=5.2/Ms=4.7/Mc=5.3/Ma=5.3/Me=5.3
COORDENADAS DEL EPICENTRO              : 16.86 LAT. N
                                       : 100.12 LONG. W
PROFUNDIDAD FOCAL (km)                 : 5
FUENTE DE LOS DATOS EPICENTRALES       : SSN
                                       : INSTITUTO DE GEOFISICA, UNAM 

================================================================================
DATOS DE ESTE REGISTRO:
HORA DE LA PRIMERA MUESTRA (GMT)       : 18:16:22.00
EXACTITUD DEL TIEMPO (s)               :     
DURACION DEL REGISTRO (s), C1-C6       : /83.20/83.20/83.20
DURACION DEL REGISTRO (s), C7-C12      :
NUM. TOTAL DE MUESTRAS, C1-C6          : /16640/16640/16640
NUM. TOTAL DE MUESTRAS, C7-C12         :
ACEL. MAX. (Gal), C1-C6                : /1.59702/-1.08307/-2.43036
ACEL. MAX., C1-C6, EN LA MUESTRA       :
ACEL. MAX. (Gal), C7-C12               :
ACEL. MAX., C7-C12, EN LA MUESTRA      :
UNIDADES DE LOS DATOS                  : Gal (cm/s/s)
FACTOR DE DECIMACION                   : 1
FORMATO DATOS (FORTRAN,10 campos/dato) : 3F10.5


================================================================================
CALIDAD DEL ACELEROGRAMA:
REGISTRO DIGITAL COMPLETO, CARECE DE TIEMPO ABSOLUTO.


================================================================================
COMENTARIOS:














================================================================================
DATOS DE ACELERACION:
---------+---------+---------+---------+---------+---------+---------+---------+
   CANAL-1   CANAL-2   CANAL-3   CANAL-4   CANAL-5   CANAL-6   CANAL-7   CANAL-8
      N00E        +V      N90E
---------+---------+---------+---------+---------+---------+---------+---------+
[...]
   0.63702   0.59693  -0.03036
   0.87702   0.59693   0.20964
   0.87702   0.59693   0.20964
   0.87702   0.35693   0.20964
   0.87702   0.59693  -0.03036
   0.87702   0.59693  -0.03036
   0.87702   0.59693  -0.03036
   0.63702   0.59693  -0.03036
   0.63702   0.59693  -0.03036
   0.63702   0.59693  -0.03036
   0.63702   0.59693  -0.03036
   0.63702   0.59693  -0.03036
   0.63702   0.59693  -0.03036
   0.63702   0.35693  -0.27036
   0.39702   0.59693  -0.27036
   0.39702   0.35693  -0.27036
   0.39702   0.59693  -0.27036
   0.39702   0.35693  -0.27036
   0.39702   0.35693  -0.51036
   0.15702   0.35693  -0.51036
   0.15702   0.35693  -0.51036
   0.15702   0.59693  -0.75036
   0.15702   0.59693  -0.75036
   0.15702   0.59693  -0.75036
  -0.08298   0.59693  -0.75036
   0.15702   0.59693  -0.99036
  -0.32298   0.59693  -0.99036
  -0.08298   0.59693  -0.99036
  -0.08298   0.35693  -0.99036
  -0.08298   0.35693  -0.99036
  -0.08298   0.35693  -1.23036
  -0.08298   0.11693  -1.23036
  -0.08298   0.11693  -1.47036
  -0.08298   0.11693  -1.47036
  -0.08298   0.11693  -1.47036
  -0.08298   0.11693  -1.47036
  -0.08298   0.11693  -1.71036
  -0.08298   0.11693  -1.71036
  -0.08298   0.11693  -1.71036
  -0.08298   0.11693  -1.95036
  -0.08298   0.11693  -1.95036
  -0.08298   0.11693  -1.95036
  -0.08298   0.11693  -1.95036
  -0.08298  -0.12307  -2.19036
  -0.08298   0.11693  -2.19036
   0.15702   0.11693  -2.19036
  -0.08298   0.11693  -2.19036
   0.15702   0.11693  -2.19036
   0.15702   0.11693  -2.19036
   0.15702   0.11693  -2.19036
   0.15702   0.11693  -2.19036
   0.15702   0.11693  -2.19036
   0.15702   0.11693  -2.19036
   0.15702   0.11693  -2.19036
   0.15702   0.11693  -2.19036
   0.15702   0.11693  -2.19036
   0.39702   0.11693  -2.19036
   0.39702   0.11693  -2.19036
   0.39702  -0.12307  -2.19036
   0.39702  -0.12307  -2.19036
   0.39702  -0.12307  -2.19036
   0.39702  -0.12307  -1.95036
   0.39702  -0.12307  -2.19036
   0.63702  -0.12307  -1.95036
   0.63702  -0.12307  -2.19036
   0.63702  -0.12307  -1.95036
   0.63702  -0.12307  -1.95036
   0.63702  -0.12307  -1.95036
   0.63702  -0.12307  -1.95036
   0.63702  -0.12307  -1.95036
   0.63702  -0.12307  -1.95036
   0.63702  -0.12307  -1.95036
   0.63702  -0.12307  -1.71036
   0.87702  -0.12307  -1.95036
   0.87702  -0.12307  -1.71036
   0.87702  -0.12307  -1.71036
   0.87702  -0.12307  -1.71036
   0.87702  -0.12307  -1.71036
   0.87702  -0.12307  -1.71036
   0.87702  -0.12307  -1.95036
   0.87702  -0.12307  -1.71036
   0.87702  -0.12307  -1.71036
   0.87702  -0.12307  -1.47036
   0.87702  -0.12307  -1.47036
   0.87702  -0.12307  -1.47036
   0.87702  -0.12307  -1.47036
   0.87702  -0.12307  -1.47036
   0.87702  -0.12307  -1.47036
   0.87702  -0.12307  -1.47036
   0.63702  -0.12307  -1.47036
   0.87702  -0.12307  -1.47036
   1.11702   0.11693  -1.47036
   1.11702   0.11693  -1.47036
   1.11702   0.11693  -1.47036
   0.87702   0.11693  -1.47036
   0.87702   0.11693  -1.47036
   1.11702   0.11693  -1.23036
   1.11702   0.11693  -1.47036
   1.11702  -0.12307  -1.23036
   1.11702   0.11693  -1.23036
   0.87702  -0.12307  -1.23036
   1.11702   0.11693  -1.23036
   1.11702   0.11693  -1.23036
   1.11702   0.11693  -0.99036
   1.11702   0.11693  -1.23036
   1.35702   0.11693  -0.99036
   1.35702   0.11693  -0.99036
   1.35702   0.11693  -0.99036
   1.35702   0.11693  -0.99036
   1.35702   0.11693  -0.99036
   1.35702   0.11693  -0.99036
   1.35702   0.11693  -0.75036
   1.35702   0.11693  -0.75036
   1.35702   0.11693  -0.75036
   1.35702   0.11693  -0.51036
   1.35702   0.11693  -0.51036
   1.35702   0.11693  -0.51036
   1.35702   0.11693  -0.51036
   1.35702   0.11693  -0.51036
   1.35702   0.11693  -0.51036
   1.35702   0.11693  -0.51036
   1.35702   0.11693  -0.51036
   1.35702   0.11693  -0.27036
   1.35702  -0.12307  -0.51036
   1.35702  -0.12307  -0.27036
   1.11702  -0.12307  -0.27036
   1.35702  -0.12307  -0.27036
   1.11702  -0.12307  -0.27036
   1.11702  -0.12307  -0.27036
   1.11702  -0.12307  -0.03036
   0.87702  -0.12307  -0.27036
   0.87702  -0.12307  -0.03036
   0.87702  -0.12307  -0.03036
   0.87702  -0.12307  -0.03036
   0.63702  -0.12307  -0.03036
   0.63702  -0.36307  -0.03036
   0.63702  -0.12307   0.20964
   0.63702  -0.36307  -0.03036
   0.63702  -0.36307   0.20964
   0.63702  -0.36307   0.20964
   0.39702  -0.36307   0.20964
   0.39702  -0.12307   0.20964
   0.39702  -0.36307   0.44964
   0.39702  -0.12307   0.44964
   0.15702  -0.12307   0.44964
   0.15702  -0.12307   0.44964
   0.15702  -0.12307   0.44964
   0.15702  -0.12307   0.44964
  -0.08298  -0.12307   0.68964
  -0.08298  -0.12307   0.68964
  -0.08298  -0.12307   0.68964
  -0.08298  -0.12307   0.68964
  -0.08298  -0.12307   0.68964
  -0.32298  -0.12307   0.68964
  -0.32298  -0.36307   0.68964
  -0.32298  -0.12307   0.68964
  -0.56298  -0.36307   0.92964
  -0.56298  -0.12307   0.92964
  -0.56298  -0.12307   0.92964
  -0.56298  -0.12307   0.92964
  -0.80298  -0.12307   0.92964
  -0.80298  -0.12307   0.92964
  -0.80298  -0.12307   0.92964
  -0.80298  -0.12307   0.92964
  -0.80298  -0.12307   0.92964
  -0.80298  -0.12307   1.16964
  -0.80298  -0.12307   1.16964
  -0.80298  -0.12307   1.16964
  -0.80298  -0.12307   1.16964
  -1.04298  -0.12307   1.16964
  -1.04298  -0.12307   1.40964
  -1.04298  -0.12307   1.16964
  -1.04298  -0.12307   1.40964
  -1.04298  -0.12307   1.40964
  -1.04298  -0.12307   1.40964
  -1.04298  -0.12307   1.40964
  -1.04298  -0.12307   1.40964
  -1.04298  -0.12307   1.40964
  -1.04298  -0.12307   1.40964
  -1.04298  -0.12307   1.40964
  -1.04298  -0.12307   1.64964
  -1.04298   0.11693   1.64964
  -1.04298   0.11693   1.64964
  -1.28298   0.11693   1.64964
  -1.28298   0.11693   1.64964
  -1.28298   0.11693   1.88964
  -1.28298   0.11693   1.88964
  -1.28298   0.11693   1.88964
  -1.28298   0.11693   1.88964
  -1.28298   0.11693   1.88964
  -1.04298   0.11693   2.11964
  -1.28298   0.35693   2.11964
  -1.28298   0.35693   2.11964
  -1.04298   0.35693   2.11964
  -1.04298   0.35693   2.11964
  -1.04298   0.35693   2.11964
  -1.28298   0.35693   2.11964
  -1.28298   0.35693   2.11964
  -1.04298   0.35693   2.11964
  -1.28298   0.35693   2.11964
  -1.28298   0.35693   2.11964
  -1.04298   0.35693   2.11964
  -1.04298   0.35693   2.35964
  -1.04298   0.35693   2.35964
  -1.04298   0.11693   2.35964
  -1.04298  -0.12307   2.35964
  -1.04298   0.11693   2.35964
  -1.04298   0.35693   2.35964
  -1.04298   0.11693   2.35964
  -1.04298   0.35693   2.35964
  -1.04298   0.11693   2.35964
  -1.04298  -0.12307   2.35964
  -1.04298   0.11693   2.35964
  -1.04298   0.11693   2.35964
  -1.04298   0.11693   2.35964
  -1.04298   0.11693   2.35964
  -1.04298   0.11693   2.35964
  -1.04298   0.11693   2.35964
  -1.04298   0.11693   2.35964
  -1.04298   0.11693   2.35964
  -0.80298   0.11693   2.35964
  -0.80298   0.11693   2.35964
  -0.80298  -0.12307   2.35964
  -0.80298   0.11693   2.35964
  -0.80298   0.11693   2.35964
  -0.80298   0.11693   2.11964
  -0.80298  -0.12307   2.35964
  -0.80298   0.11693   2.11964
  -0.80298   0.11693   2.11964
  -0.80298   0.11693   2.35964
  -0.80298   0.11693   2.11964
  -0.56298  -0.12307   2.11964
  -0.56298  -0.12307   2.11964
  -0.80298  -0.12307   2.11964
  -0.56298  -0.12307   2.11964
  -0.56298  -0.12307   1.88964
  -0.56298  -0.12307   1.88964
  -0.56298  -0.12307   1.64964
  -0.56298  -0.12307   1.88964
  -0.32298  -0.12307   1.88964
  -0.56298  -0.12307   1.88964
  -0.32298  -0.12307   1.88964
  -0.32298  -0.12307   1.88964
  -0.32298  -0.12307   1.88964
  -0.32298  -0.12307   1.88964
  -0.32298  -0.12307   1.88964
  -0.32298  -0.12307   1.64964
  -0.32298  -0.12307   1.64964
  -0.08298  -0.12307   1.64964
  -0.08298  -0.36307   1.64964
  -0.08298  -0.36307   1.64964
  -0.08298  -0.36307   1.64964
   0.15702  -0.36307   1.64964
   0.15702  -0.36307   1.40964
   0.15702  -0.36307   1.40964
   0.15702  -0.36307   1.40964
   0.15702  -0.36307   1.40964
   0.15702  -0.36307   1.40964
   0.39702  -0.36307   1.40964
   0.39702  -0.36307   1.16964
   0.39702  -0.36307   1.16964
   0.39702  -0.36307   1.16964
   0.63702  -0.36307   0.92964
   0.63702  -0.36307   0.92964
   0.63702  -0.36307   0.92964
   0.63702  -0.36307   0.92964
   0.87702  -0.12307   0.92964
   0.87702  -0.36307   0.92964
   0.87702  -0.36307   0.68964
   0.87702  -0.12307   0.68964
   0.87702  -0.12307   0.68964
   0.87702  -0.12307   0.68964
   0.87702  -0.12307   0.44964
   0.87702  -0.12307   0.44964
   1.11702  -0.12307   0.44964
   1.11702  -0.12307   0.20964
   0.87702  -0.12307   0.20964
   1.11702  -0.12307   0.20964
   1.11702  -0.12307   0.20964
   1.11702   0.11693  -0.03036
   1.11702   0.11693  -0.03036
   1.11702   0.11693  -0.03036
   1.11702   0.11693  -0.27036
   1.11702   0.11693  -0.27036
   0.87702   0.11693  -0.27036
   0.87702   0.11693  -0.27036
   0.87702   0.11693  -0.51036
   0.87702  -0.12307  -0.51036
   0.87702  -0.12307  -0.51036
   0.87702   0.11693  -0.75036
   0.87702  -0.12307  -0.51036
   0.87702   0.11693  -0.75036
   0.63702   0.11693  -0.75036
   0.87702   0.11693  -0.99036
   0.87702   0.11693  -0.99036
   0.63702   0.11693  -0.99036
   0.63702   0.11693  -0.99036
   0.63702   0.11693  -0.99036
   0.63702   0.11693  -1.23036
   0.63702   0.35693  -1.23036
   0.63702   0.35693  -1.23036
   0.63702   0.35693  -1.23036
   0.63702   0.35693  -1.23036
   0.63702   0.35693  -1.47036
   0.63702   0.35693  -1.47036
   0.39702   0.35693  -1.47036
   0.39702   0.35693  -1.47036
   0.39702   0.35693  -1.47036
   0.39702   0.59693  -1.71036
   0.39702   0.59693  -1.71036
   0.39702   0.59693  -1.71036
   0.15702   0.59693  -1.71036
   0.39702   0.35693  -1.71036
   0.15702   0.59693  -1.71036
   0.15702   0.59693  -1.71036
   0.15702   0.59693  -1.95036
   0.15702   0.35693  -1.95036
   0.15702   0.35693  -1.95036
   0.15702   0.35693  -1.95036
   0.15702   0.35693  -1.95036
  -0.08298   0.35693  -1.95036
  -0.08298   0.35693  -1.95036
  -0.08298   0.35693  -1.95036
  -0.08298   0.35693  -1.95036
  -0.08298   0.35693  -1.95036
  -0.08298   0.35693  -1.95036
  -0.08298   0.35693  -1.95036
  -0.08298   0.35693  -1.95036
  -0.08298   0.35693  -1.95036
  -0.08298   0.35693  -1.95036
  -0.32298   0.35693  -1.95036
  -0.32298   0.35693  -1.95036
  -0.32298   0.35693  -1.95036
  -0.32298   0.35693  -1.95036
  -0.08298   0.35693  -1.95036
  -0.32298   0.11693  -2.19036
  -0.32298   0.11693  -2.19036
  -0.32298   0.11693  -2.19036
  -0.32298   0.11693  -2.19036
  -0.32298   0.11693  -2.19036
  -0.56298   0.11693  -2.19036
  -0.32298   0.11693  -2.19036
  -0.32298  -0.12307  -2.19036
  -0.32298  -0.12307  -2.19036
  -0.32298  -0.12307  -2.19036
  -0.08298  -0.12307  -2.19036
  -0.32298  -0.12307  -2.19036
  -0.32298  -0.12307  -2.19036
  -0.32298  -0.12307  -2.19036
  -0.32298  -0.12307  -2.43036
  -0.08298  -0.12307  -2.19036
  -0.08298  -0.12307  -2.19036
  -0.32298  -0.12307  -2.19036
  -0.08298  -0.12307  -2.19036
  -0.08298  -0.36307  -2.19036
  -0.08298  -0.36307  -2.19036
  -0.08298  -0.36307  -2.19036
  -0.08298  -0.36307  -2.19036
  -0.08298  -0.36307  -2.19036
  -0.08298  -0.36307  -2.19036
  -0.08298  -0.36307  -2.19036
  -0.08298  -0.36307  -2.19036
  -0.08298  -0.36307  -2.19036
   0.15702  -0.36307  -2.19036
   0.15702  -0.36307  -2.43036
   0.15702  -0.36307  -2.19036
   0.15702  -0.36307  -2.19036
   0.15702  -0.60307  -1.95036
   0.15702  -0.36307  -1.95036
   0.15702  -0.36307  -1.95036
   0.15702  -0.60307  -2.19036
   0.15702  -0.36307  -1.95036
   0.15702  -0.60307  -1.95036
   0.15702  -0.36307  -1.95036
   0.15702  -0.36307  -1.95036
   0.15702  -0.36307  -1.95036
   0.15702  -0.36307  -1.95036
   0.15702  -0.36307  -1.95036
   0.15702  -0.36307  -1.71036
   0.15702  -0.36307  -1.71036
   0.15702  -0.36307  -1.71036
   0.15702  -0.36307  -1.71036
   0.15702  -0.36307  -1.47036
  -0.08298  -0.12307  -1.71036
   0.15702  -0.36307  -1.47036
  -0.08298  -0.12307  -1.47036
  -0.08298  -0.12307  -1.23036
  -0.08298  -0.12307  -1.23036
  -0.08298  -0.12307  -1.23036
  -0.08298  -0.12307  -1.23036
  -0.08298  -0.12307  -1.23036
  -0.08298  -0.12307  -1.23036
  -0.08298  -0.12307  -0.99036
  -0.08298  -0.12307  -0.99036
  -0.32298   0.11693  -0.99036
  -0.32298   0.11693  -0.99036
  -0.32298   0.11693  -1.23036
  -0.32298   0.11693  -0.99036
  -0.32298   0.11693  -0.75036
  -0.32298   0.11693  -0.75036
  -0.32298   0.11693  -0.75036
  -0.32298   0.11693  -0.75036
  -0.56298   0.11693  -0.75036
  -0.56298   0.11693  -0.75036
  -0.56298   0.11693  -0.75036
  -0.56298   0.35693  -0.51036
  -0.56298   0.11693  -0.51036
  -0.56298   0.35693  -0.51036
  -0.56298   0.35693  -0.51036
  -0.80298   0.35693  -0.51036
  -0.80298   0.35693  -0.27036
  -0.80298   0.35693  -0.27036
  -0.80298   0.35693  -0.27036
  -0.80298   0.35693  -0.27036
  -0.80298   0.35693  -0.03036
  -0.80298   0.35693  -0.03036
  -0.80298   0.35693  -0.03036
  -0.80298   0.35693  -0.03036
  -0.80298   0.35693  -0.03036
  -0.80298   0.35693   0.20964
  -0.80298   0.11693   0.20964
  -0.80298   0.11693   0.20964
  -0.80298   0.11693   0.20964
  -0.80298   0.11693   0.44964
  -0.80298   0.11693   0.44964
  -0.80298   0.11693   0.44964
  -0.56298   0.11693   0.44964
  -0.56298   0.11693   0.44964
  -0.56298   0.11693   0.68964
  -0.56298   0.11693   0.68964
  -0.56298   0.11693   0.68964
  -0.32298   0.11693   0.68964
  -0.32298   0.11693   0.92964
  -0.32298   0.11693   0.92964
  -0.32298  -0.12307   0.92964
  -0.32298   0.11693   0.92964
  -0.08298   0.11693   0.92964
  -0.08298  -0.12307   0.92964
  -0.08298  -0.12307   0.92964
  -0.08298  -0.12307   0.92964
  -0.08298  -0.12307   0.92964
   0.15702  -0.12307   1.16964
   0.15702  -0.12307   1.16964
   0.15702  -0.12307   1.16964
   0.15702  -0.12307   1.16964
   0.39702  -0.12307   1.16964
   0.39702  -0.36307   0.92964
   0.39702  -0.12307   1.16964
   0.39702  -0.36307   0.92964
   0.63702  -0.36307   1.16964
   0.63702  -0.12307   1.16964
   0.63702  -0.36307   1.16964
   0.63702  -0.36307   1.16964
   0.63702  -0.36307   1.16964
   0.63702  -0.36307   1.16964
   0.63702  -0.36307   1.16964
   0.87702  -0.36307   1.16964
   0.63702  -0.36307   1.16964
   0.87702  -0.36307   1.16964
   0.87702  -0.36307   1.16964
   0.87702  -0.36307   1.16964
   0.87702  -0.36307   1.16964
   0.87702  -0.36307   1.16964
   0.87702  -0.36307   1.16964
   0.87702  -0.12307   1.16964
   0.87702  -0.12307   1.16964
   0.87702  -0.12307   1.16964
   0.87702  -0.36307   1.40964
   0.87702  -0.12307   1.40964
   0.87702  -0.12307   1.40964
   0.87702  -0.12307   1.40964
   0.87702  -0.12307   1.40964
   0.87702  -0.12307   1.40964
   0.87702  -0.12307   1.40964
   0.87702  -0.12307   1.40964
   0.63702  -0.12307   1.40964
   0.63702  -0.12307   1.40964
   0.63702  -0.12307   1.40964
   0.63702   0.11693   1.40964
   0.63702   0.11693   1.40964
   0.63702   0.11693   1.40964
   0.39702   0.11693   1.40964
   0.39702   0.11693   1.40964
   0.39702   0.35693   1.40964
   0.39702   0.35693   1.40964
   0.39702   0.35693   1.40964
   0.39702   0.35693   1.40964
   0.39702   0.35693   1.40964
   0.39702   0.35693   1.40964
   0.39702   0.35693   1.40964
   0.15702   0.35693   1.40964
   0.15702   0.35693   1.40964
   0.15702   0.35693   1.40964
   0.15702   0.35693   1.40964
   0.15702   0.35693   1.16964
   0.15702   0.35693   1.16964
   0.15702   0.35693   1.16964
   0.15702   0.35693   1.16964
   0.15702   0.59693   1.16964
