********************************************************************************
              CENTRO DE INSTRUMENTACION Y REGISTRO SISMICO  A.C.

    Anaxagoras 814, Col. Narvarte, Benito Juarez, C.P. 03020 Mexico, D.F.
           Tels. 5687 45 42/ 5687 45  82             Fax. 5669 25 12
********************************************************************************
ARCHIVO ESTANDAR DE ACELERACION:
VERSION DEL FORMATO                    : 2.0
NOMBRE DEL ARCHIVO                     : AL0120140510073601
FECHA Y HORA DE CREACION               : 23/MAY/14, 10:30
REF. CATALOGO ACELEROGRAMAS, SMIS 1996 : REGISTRO No.     /PAG.


================================================================================
DATOS DE LA ESTACION:
NOMBRE DE LA ESTACION                  : ALAMEDA
CLAVE DE LA ESTACION                   : AL01
LOCALIZACION DE LA ESTACION            : Del. Cuauhtémoc, Col. Centro,          
                                       : Dr. Mora entre Av. Hidalgo             
                                       : y Av. Juárez.                          
                                       :                                        
                                       : 
COORDENADAS DE LA ESTACION             : 19.4356 LAT. N
                                       : 99.1453 LONG. W
ALTITUD (msnm)                         : 2232
TIPO DE SUELO                          : Terreno blando, material compresible
                                       : (arcillas)                
                                       : 
INSTITUCION RESPONSABLE                : CIRES
                                       : 

================================================================================
DATOS DEL ACELEROGRAFO:
MODELO DEL ACELEROGRAFO                : RADESD
NUMERO DE SERIE DEL ACELEROGRAFO       : 152
NUMERO DE CANALES                      : 3
ORIENTACION C1-C6 (rumbo;orientacion)  : /S00E/+V/N90W
ORIENTACION C7-C12 (rumbo;orientacion) : 
VEL. DE MUESTREO, C1-C6 (muestras/s)   : /100/100/100
VEL. DE MUESTREO, C7-C12 (muestras/s)  : 
ESC. COMPLETA DE SENSORES, C1-C6, (g)  : /0.5/0.5/0.5
ESC. COMPLETA DE SENSORES, C7-C12, (g) : 
FREC. NAT. DE SENSORES, C1-C6, (Hz)    : /51.29/51.09/53.75
FREC. NAT. DE SENSORES, C7-C12, (Hz)   : 
AMORTIGUAMIENTO DE SENSORES, C1-C6     : /0.5519/0.5670/0.5810
AMORTIGUAMIENTO DE SENSORES, C7-C12    : 
INTERVALO DE MUESTREO, C1-C6, (s)      : /0.01/0.01/0.01
INTERVALO DE MUESTREO, C7-C12, (s)     : 
UMBRAL DE DISPARO, C1-C6, (Gal)        : /0.37/1.8/0.49
UMBRAL DE DISPARO, C7-C12, (Gal)       : 
MEMORIA DE PREEVENTO (s)               : 32.0
TIEMPO DE POSEVENTO (s)                : 64.0


================================================================================
DATOS DEL SISMO:
FECHA DEL SISMO (GMT)                  : 10/MAY/14
HORA EPICENTRO (GMT)                   : 07:36:01.0
MAGNITUD(ES)                           : /Mc=6.1
COORDENADAS DEL EPICENTRO              : 17.06 LAT. N
                                       : 100.95 LONG. W
PROFUNDIDAD FOCAL (km)                 : 12
FUENTE DE LOS DATOS EPICENTRALES       : SSN
                                       : INSTITUTO DE GEOFISICA, UNAM

================================================================================
DATOS DE ESTE REGISTRO:
HORA DE LA PRIMERA MUESTRA (GMT)       : 07:36:55.00
EXACTITUD DEL TIEMPO (s)               : 0.01
DURACION DEL REGISTRO (s), C1-C6       : /283.4/283.4/283.4
DURACION DEL REGISTRO (s), C7-C12      : 
NUM. TOTAL DE MUESTRAS, C1-C6          : /28340/28340/28340
NUM. TOTAL DE MUESTRAS, C7-C12         : 
ACEL. MAX. (Gal), C1-C6                : /10.96329/2.83411/9.14586
ACEL. MAX., C1-C6, EN LA MUESTRA       : /6956/7905/7814
ACEL. MAX. (Gal), C7-C12               : 
ACEL. MAX., C7-C12, EN LA MUESTRA      : 
UNIDADES DE LOS DATOS                  : Gal (cm/s/s)
FACTOR DE DECIMACION                   : 1
FORMATO DATOS (FORTRAN,10 campos/dato) : 3F10.5


================================================================================
CALIDAD DEL ACELEROGRAMA:
REGISTRO DIGITAL COMPLETO CON TIEMPO ABSOLUTO CORRECTO.


================================================================================
COMENTARIOS:














================================================================================
DATOS DE ACELERACION:
---------+---------+---------+---------+---------+---------+---------+---------+
   CANAL-1   CANAL-2   CANAL-3   CANAL-4   CANAL-5   CANAL-6   CANAL-7   CANAL-8
      S00E        +V      N90W
---------+---------+---------+---------+---------+---------+---------+---------+
[...]
   2.74818  -1.68190  -0.93075
   2.82300  -1.53226  -0.84097
   2.77811  -1.45744  -0.75119
   2.64344  -1.39759  -0.55666
   2.38905  -1.30780  -0.31724
   2.07482  -1.18809  -0.07782
   1.61094  -1.02349   0.20649
   1.16203  -0.93371   0.52073
   0.62333  -0.76911   0.79008
   0.03974  -0.61947   1.02950
  -0.51392  -0.39501   1.28388
  -1.15736  -0.30523   1.53827
  -1.72598  -0.15559   1.73280
  -2.30957  -0.02092   1.88243
  -2.78841   0.03893   2.06200
  -3.14754   0.17361   2.15178
  -3.52163   0.30828   2.27149
  -3.68623   0.39807   2.36127
  -3.82091   0.53274   2.36127
  -3.89573   0.69734   2.48098
  -3.77602   0.83201   2.37624
  -3.64134   0.87691   2.31638
  -3.38696   0.89187   2.25653
  -3.07272   0.92180   2.16674
  -2.84826   0.90683   2.00214
  -2.50410   0.90683   1.76272
  -2.08511   0.80209   1.46345
  -1.68109   0.69734   1.25396
  -1.26210   0.66741   0.92475
  -0.91794   0.48785   0.62548
  -0.52888   0.42799   0.26635
  -0.25953   0.32325   0.08678
   0.09960   0.24843  -0.27235
   0.36895   0.23346  -0.49680
   0.54851   0.14368  -0.61651
   0.74304   0.09879  -0.73622
   0.66822  -0.02092  -0.78112
   0.60837  -0.06581  -0.63148
   0.54851  -0.05085  -0.48184
   0.27916   0.02397  -0.25738
  -0.00515   0.03893   0.02693
  -0.33435   0.09879   0.34117
  -0.70844   0.20354   0.70030
  -1.12743   0.23346   1.08935
  -1.62123   0.32325   1.43352
  -1.96540   0.47288   1.74776
  -2.35446   0.51778   1.92732
  -2.71359   0.63749   2.18171
  -3.04279   0.86194   2.27149
  -3.19243   0.89187   2.30142
  -3.38696   0.93676   2.33135
  -3.44681   1.01158   2.24156
  -3.47674   0.99662   2.21164
  -3.52163   0.92180   2.06200
  -3.46178   0.81705   1.98718
  -3.32710   0.75720   1.82258
  -3.14754   0.56267   1.67294
  -2.98294   0.47288   1.53827
  -2.75848   0.21850   1.37367
  -2.53402   0.09879   1.19410
  -2.27964  -0.02092   0.95468
  -2.04022  -0.33516   0.80504
  -1.83073  -0.63443   0.61051
  -1.71102  -0.75414   0.31124
  -1.48656  -0.93371   0.05685
  -1.35189  -1.09831  -0.19753
  -1.20225  -1.18809  -0.42199
  -1.21721  -1.12824  -0.75119
  -1.21721  -1.11327  -0.99061
  -1.27707  -1.12824  -1.23003
  -1.44167  -1.09831  -1.51434
  -1.69605  -0.99356  -1.70887
  -1.92051  -1.03846  -1.91836
  -2.11504  -0.78407  -2.02311
  -2.45920  -0.72422  -2.09793
  -2.80337  -0.55962  -2.20267
  -3.10265  -0.42494  -2.18771
  -3.46178  -0.29027  -2.30742
  -3.73112  -0.15559  -2.27749
  -3.83587  -0.11070  -2.27749
  -3.97054  -0.03588  -2.27749
  -4.06033   0.02397  -2.26253
  -3.88076  -0.00596  -2.33735
  -3.65631   0.06886  -2.42713
  -3.35703   0.12872  -2.60669
  -3.01286   0.18857  -2.68151
  -2.51906   0.18857  -2.78626
  -1.98036   0.21850  -2.93590
  -1.38181   0.12872  -2.98079
  -0.82815  -0.02092  -3.05561
  -0.18471  -0.12567  -3.19028
   0.50362  -0.32020  -3.35488
   0.98246  -0.54465  -3.44467
   1.53612  -0.75414  -3.56438
   2.13467  -0.84393  -3.59430
   2.59855  -0.88882  -3.65416
   2.98760  -0.94867  -3.59430
   3.39163  -0.88882  -3.59430
   3.67594  -0.76911  -3.42970
   3.87047  -0.64940  -3.30999
   3.93032  -0.57458  -3.05561
   4.02010  -0.33516  -2.80122
   3.96025  -0.23041  -2.59173
   3.88543  -0.14063  -2.29246
   3.78068  -0.08078  -2.05304
   3.54126   0.11375  -1.69391
   3.40659   0.33821  -1.30485
   3.21206   0.50281  -1.02054
   3.03250   0.81705  -0.66141
   2.77811   0.92180  -0.34717
   2.59855   1.05647  -0.01796
   2.40402   1.01158   0.22146
   2.25438   0.99662   0.41598
   2.13467   0.83201   0.65540
   2.05985   0.86194   0.73022
   2.00000   0.83201   0.76015
   1.98503   0.71230   0.71526
   2.01496   0.72727   0.64044
   2.00000   0.77216   0.49080
   2.00000   0.78712   0.32620
   2.01496   0.80209   0.08678
   2.02992   0.81705  -0.18257
   1.98503   0.59259  -0.39206
   1.94014   0.47288  -0.66141
   1.92518   0.36814  -0.88586
   1.86532   0.12872  -1.18514
   1.83539  -0.09574  -1.39463
   1.67079  -0.20049  -1.60412
   1.50619  -0.29027  -1.72383
   1.29670  -0.24538  -1.79865
   1.10217  -0.15559  -1.85851
   0.89268  -0.03588  -1.84354
   0.56348   0.03893  -1.76872
   0.29413   0.23346  -1.55923
   0.08464   0.35317  -1.36470
  -0.24457   0.50281  -1.05046
  -0.49895   0.65245  -0.72126
  -0.72341   0.78712  -0.33220
  -0.97779   0.90683   0.08678
  -1.23218   1.13129   0.56562
  -1.50152   1.25100   0.95468
  -1.71102   1.37071   1.43352
  -1.98036   1.44553   1.82258
  -2.08511   1.46049   2.12185
  -2.38439   1.40064   2.40616
  -2.51906   1.34078   2.63062
  -2.75848   1.26596   2.75033
  -2.96797   1.05647   2.75033
  -3.13257   0.81705   2.70544
  -3.31214   0.66741   2.55580
  -3.38696   0.38310   2.28645
  -3.46178   0.03893   2.00214
  -3.47674  -0.27530   1.65798
  -3.37199  -0.61947   1.28388
  -3.22236  -0.93371   0.90979
  -2.99790  -1.17313   0.65540
  -2.65373  -1.44248   0.32620
  -2.33949  -1.72679   0.08678
  -1.89058  -1.93628  -0.07782
  -1.45663  -2.07096  -0.24242
  -0.94786  -2.11585  -0.37709
  -0.48399  -2.19067  -0.39206
   0.00982  -2.16074  -0.45191
   0.47369  -2.07096  -0.46688
   0.92261  -1.90635  -0.49680
   1.44634  -1.71183  -0.60155
   1.85036  -1.54722  -0.57162
   2.25438  -1.26291  -0.64644
   2.64344  -0.96364  -0.69133
   2.98760  -0.75414  -0.69133
   3.25695  -0.42494  -0.73622
   3.49637  -0.23041  -0.66141
   3.61608  -0.00596  -0.63148
   3.69090   0.23346  -0.49680
   3.73579   0.42799  -0.42199
   3.63105   0.56267  -0.30228
   3.54126   0.75720  -0.13767
   3.43652   0.99662   0.05685
   3.28688   1.10136   0.26635
   3.10731   1.05647   0.58059
   2.80804   1.08640   0.96964
   2.53869   1.13129   1.25396
   2.14963   1.07143   1.58316
   1.80547   0.96669   1.95725
   1.34159   0.83201   2.24156
   0.84779   0.71230   2.57077
   0.42880   0.50281   2.81019
  -0.00515   0.32325   2.94486
  -0.42413   0.20354   2.97479
  -0.88801   0.08383   2.94486
  -1.24714  -0.00596   2.84011
  -1.68109  -0.14063   2.72040
  -2.05518  -0.20049   2.55580
  -2.32453  -0.24538   2.37624
  -2.68366  -0.20049   2.21164
  -2.99790  -0.21545   2.03207
  -3.16250  -0.12567   1.85251
  -3.28221  -0.03588   1.67294
  -3.28221   0.02397   1.52330
  -3.16250   0.08383   1.38863
  -2.99790   0.11375   1.32877
  -2.80337   0.15864   1.31381
  -2.59388   0.24843   1.35870
  -2.24971   0.32325   1.52330
  -1.96540   0.24843   1.74776
  -1.54641   0.15864   2.01711
  -1.18728   0.11375   2.36127
  -0.84312   0.06886   2.85508
  -0.37924  -0.03588   3.28903
   0.03974  -0.12567   3.72298
   0.44377  -0.32020   4.17189
   0.89268  -0.38005   4.48613
   1.32663  -0.51472   4.74051
   1.73065  -0.67933   4.96497
   2.02992  -0.93371   4.97993
   2.19453  -1.11327   5.03979
   2.35913  -1.27788   4.83029
   2.40402  -1.39759   4.68066
   2.40402  -1.47240   4.47116
   2.32920  -1.56219   4.21678
   2.16460  -1.56219   3.97736
   2.01496  -1.56219   3.60327
   1.79050  -1.57715   3.34888
   1.68576  -1.47240   3.21421
   1.41641  -1.48737   2.89997
   1.31166  -1.36766   2.67551
   1.20692  -1.38262   2.49595
   1.01239  -1.23298   2.28645
   0.87771  -1.11327   2.09193
   0.78793  -0.99356   1.83754
   0.72808  -0.87385   1.86747
   0.65326  -0.70925   1.79265
   0.65326  -0.61947   1.76272
   0.72808  -0.54465   1.94229
   0.80290  -0.39501   2.01711
   1.05728  -0.30523   2.06200
   1.14706  -0.17056   2.06200
   1.50619  -0.00596   2.21164
   1.70072   0.03893   2.34631
   2.01496   0.05390   2.36127
   2.31424   0.03893   2.45106
   2.47884   0.06886   2.42113
   2.64344   0.02397   2.40616
   2.83797  -0.00596   2.19667
   2.89782  -0.02092   1.95725
   2.89782  -0.15559   1.85251
   2.80804  -0.21545   1.62805
   2.67337  -0.23041   1.19410
   2.52373  -0.29027   0.90979
   2.17956  -0.40998   0.50577
   1.85036  -0.49976   0.07182
   1.47626  -0.32020  -0.37709
   0.95253  -0.23041  -0.79608
   0.51858   0.00901  -1.24499
  -0.10989   0.12872  -1.60412
  -0.67852   0.23346  -1.97822
  -1.32196   0.35317  -2.26253
  -1.89058   0.54770  -2.48698
  -2.48913   0.56267  -2.75633
  -3.14754   0.59259  -2.96583
  -3.65631   0.60756  -3.10050
  -4.19500   0.72727  -3.22021
  -4.65888   0.80209  -3.30999
  -5.07786   0.81705  -3.39977
  -5.49685   0.83201  -3.53445
  -5.75123   0.89187  -3.68409
  -5.97569   0.86194  -3.80380
  -6.11036   0.92180  -4.04322
  -6.21511   0.89187  -4.23774
  -6.23007   0.84698  -4.38738
  -6.20014   0.81705  -4.65673
  -6.06547   0.83201  -4.86622
  -5.85598   0.62252  -5.06075
  -5.55670   0.50281  -5.18046
  -5.24246   0.33821  -5.25528
  -4.89830   0.21850  -5.34506
  -4.61399  -0.05085  -5.31514
  -4.18004  -0.15559  -5.30017
  -3.88076  -0.35012  -5.27024
  -3.52163  -0.43991  -5.16550
  -3.17746  -0.61947  -5.09068
  -2.87819  -0.64940  -4.94104
  -2.41431  -0.72422  -4.74651
  -2.05518  -0.82896  -4.53702
  -1.72598  -0.90378  -4.37242
  -1.44167  -0.96364  -4.20782
  -1.12743  -1.05342  -3.92351
  -0.87305  -1.11327  -3.84869
  -0.73837  -1.06838  -3.60927
  -0.67852  -0.87385  -3.53445
  -0.73837  -0.75414  -3.51948
  -0.79823  -0.64940  -3.60927
  -0.93290  -0.48480  -3.74394
  -1.12743  -0.30523  -3.98336
  -1.36685  -0.23041  -4.23774
  -1.62123  -0.20049  -4.56695
  -2.01029  -0.09574  -4.91111
  -2.30957  -0.08078  -5.22535
  -2.59388  -0.00596  -5.62937
  -3.01286   0.14368  -5.94361
  -3.34207   0.27835  -6.07829
  -3.65631   0.30828  -6.39253
  -3.83587   0.39807  -6.42245
  -4.01544   0.44296  -6.46735
  -4.12018   0.41303  -6.40749
  -4.10522   0.29332  -6.24289
  -4.03040   0.23346  -6.03340
  -3.83587   0.17361  -5.64434
  -3.59645   0.20354  -5.28521
  -3.26725   0.23346  -4.79140
  -2.96797   0.27835  -4.37242
  -2.57891   0.35317  -3.90854
  -2.18986   0.33821  -3.36985
  -1.66612   0.41303  -2.98079
  -1.26210   0.39807  -2.54684
  -0.76830   0.42799  -2.15778
  -0.25953   0.45792  -1.66398
   0.21931   0.45792  -1.23003
   0.63829   0.53274  -0.78112
   1.08721   0.63749  -0.33220
   1.53612   0.80209   0.08678
   1.98503   0.84698   0.44591
   2.38905   0.92180   0.74519
   2.83797   0.96669   0.95468
   3.27192   1.04151   1.22403
   3.66097   1.10136   1.44848
   4.06500   1.11633   1.56819
   4.48398   1.16122   1.73280
   4.87304   1.13129   1.91236
   5.30699   1.14625   2.12185
   5.75590   1.10136   2.27149
   6.15992   0.99662   2.42113
   6.65373   0.92180   2.58573
   7.08767   0.72727   2.75033
   7.50666   0.53274   2.97479
   8.01543   0.42799   3.22917
   8.38952   0.35317   3.40874
   8.79354   0.21850   3.66312
   9.24246   0.06886   3.84269
   9.63151  -0.02092   3.94743
   9.94575  -0.05085   4.20182
  10.27496  -0.03588   4.38138
  10.51438   0.00901   4.51605
  10.67898   0.11375   4.66569
  10.79869   0.32325   4.68066
  10.88847   0.42799   4.68066
  10.96329   0.62252   4.62080
  10.91840   0.77216   4.50109
  10.90343   0.89187   4.30656
  10.78372   1.07143   4.12700
  10.69394   1.31085   3.99232
  10.57423   1.55027   3.87261
  10.42459   1.72984   3.76787
  10.31985   1.89444   3.76787
  10.09539   2.11890   3.73794
   9.78115   2.16379   3.69305
   9.48188   2.20868   3.70801
   9.28735   2.17875   3.69305
   8.97311   2.13386   3.60327
   8.70376   1.90940   3.54341
   8.44938   1.71488   3.45363
   8.18003   1.44553   3.22917
   7.85083   1.11633   3.00472
   7.56652   0.72727   2.76529
   7.19242   0.38310   2.37624
   6.77344   0.05390   2.09193
   6.33949  -0.38005   1.77769
   5.93547  -0.75414   1.38863
   5.47159  -1.06838   0.98461
   5.09749  -1.23298   0.56562
   4.72340  -1.45744   0.14664
   4.40916  -1.57715  -0.30228
   4.00514  -1.63701  -0.63148
   3.64601  -1.75672  -0.94572
   3.30184  -1.74175  -1.17017
   2.98760  -1.65197  -1.33478
   2.64344  -1.62204  -1.43952
   2.28431  -1.65197  -1.46945
   2.00000  -1.48737  -1.39463
   1.67079  -1.23298  -1.27492
   1.38648  -1.20306  -1.06543
   1.01239  -0.91875  -0.82601
   0.71311  -0.67933  -0.57162
   0.33902  -0.46983  -0.16760
  -0.10989  -0.17056   0.20649
  -0.40917   0.00901   0.61051
  -0.76830   0.12872   1.07439
  -1.15736   0.12872   1.55323
  -1.51649   0.12872   2.03207
  -1.90555   0.08383   2.37624
  -2.26468  -0.06581   2.84011
  -2.53402  -0.24538   3.18428
  -2.93804  -0.52969   3.55837
  -3.28221  -0.75414   3.81276
  -3.58149  -0.91875   4.00729
  -3.88076  -1.14320   4.20182
  -4.19500  -1.27788   4.24671
  -4.50924  -1.33773   4.27663
  -4.80851  -1.51730   4.24671
  -5.04793  -1.50233   4.23174
  -5.21254  -1.60708   4.11203
  -5.34721  -1.57715   4.03721
  -5.37714  -1.50233   3.90254
  -5.49685  -1.47240   3.81276
  -5.55670  -1.32277   3.60327
  -5.64649  -1.20306   3.33392
  -5.69138  -1.03846   3.06457
  -5.82605  -0.82896   2.87004
  -6.00562  -0.60451   2.58573
  -6.12533  -0.45487   2.37624
  -6.31985  -0.29027   2.28645
  -6.49942  -0.11070   2.13682
  -6.66402   0.15864   2.03207
  -6.87351   0.36814   2.01711
  -6.96330   0.62252   1.98718
  -7.06804   0.90683   1.83754
  -7.15783   1.14625   1.88243
  -7.21768   1.26596   1.73280
  -7.29250   1.38567   1.67294
  -7.29250   1.38567   1.49338
  -7.24761   1.41560   1.20906
  -7.21768   1.40064   0.89482
  -7.17279   1.34078   0.58059
  -7.09797   1.34078   0.20649
  -6.93337   1.29589  -0.19753
  -6.76877   1.28093  -0.69133
  -6.60417   1.13129  -1.06543
  -6.40964   1.10136  -1.75376
  -6.23007   0.99662  -2.23260
  -6.03554   0.90683  -2.86108
  -5.93080   0.77216  -3.35488
  -5.76620   0.80209  -3.90854
  -5.64649   0.74223  -4.49213
  -5.63152   0.71230  -4.95601
  -5.63152   0.69734  -5.50966
  -5.70634   0.59259  -5.88376
  -5.70634   0.47288  -6.15311
  -5.75123   0.47288  -6.33267
  -5.75123   0.36814  -6.51224
  -5.72130   0.42799  -6.52720
  -5.82605   0.32325  -6.43742
  -5.75123   0.33821  -6.36260
  -5.76620   0.32325  -6.19800
  -5.73627   0.21850  -5.92865
  -5.66145   0.23346  -5.59945
  -5.57167   0.26339  -5.34506
  -5.51181   0.26339  -5.07572
  -5.36217   0.24843  -4.71659
  -5.33225   0.20354  -4.41731
  -5.22750   0.21850  -4.14796
  -5.18261   0.18857  -3.80380
  -5.00304   0.26339  -3.56438
  -4.83844   0.41303  -3.26510
  -4.61399   0.45792  -2.98079
  -4.35960   0.41303  -2.62166
  -4.07529   0.48785  -2.41217
  -3.85083   0.38310  -2.14282
  -3.46178   0.24843  -1.97822
  -3.14754   0.14368  -1.81362
  -2.80337  -0.08078  -1.64901
  -2.42928  -0.30523  -1.48441
  -2.02526  -0.51472  -1.51434
  -1.63620  -0.73918  -1.37967
  -1.33692  -0.93371  -1.27492
  -1.02268  -1.08335  -1.37967
  -0.72341  -1.21802  -1.33478
  -0.54384  -1.36766  -1.45449
  -0.42413  -1.56219  -1.54427
  -0.27450  -1.74175  -1.78369
  -0.28946  -2.02606  -1.96325
  -0.25953  -2.13081  -2.18771
  -0.30442  -2.23556  -2.33735
  -0.46902  -2.22059  -2.39720
  -0.51392  -2.25052  -2.33735
  -0.76830  -2.08592  -2.24756
  -1.00772  -1.95125  -2.00814
  -1.24714  -1.63701  -1.79865
  -1.57634  -1.23298  -1.40959
  -1.86065  -0.91875  -1.03550
  -2.10007  -0.49976  -0.61651
  -2.44424  -0.08078  -0.19753
  -2.74352   0.27835   0.20649
  -2.93804   0.63749   0.67037
  -3.13257   1.04151   1.08935
  -3.23732   1.31085   1.62805
  -3.22236   1.55027   1.95725
  -3.17746   1.69991   2.42113
  -3.10265   1.83459   2.78026
  -3.04279   1.71488   3.25910
  -2.93804   1.81962   3.63319
  -2.77344   1.81962   3.97736
  -2.57891   1.64006   4.30656
  -2.27964   1.52035   4.51605
  -2.04022   1.31085   4.78540
  -1.60627   1.14625   4.83029
  -1.15736   0.87691   4.87519
