********************************************************************************
              CENTRO DE INSTRUMENTACION Y REGISTRO SISMICO  A.C.

    Anaxagoras 814, Col. Narvarte, Benito Juarez, C.P. 03020 Mexico, D.F.
           Tels. 5687 45 42/ 5687 45  82             Fax. 5669 25 12
********************************************************************************
ARCHIVO ESTANDAR DE ACELERACION:
VERSION DEL FORMATO                    : 2.0
NOMBRE DEL ARCHIVO                     : AL0120130412034509
FECHA Y HORA DE CREACION               : 12/ABR/13, 13:49
REF. CATALOGO ACELEROGRAMAS, SMIS 1996 : REGISTRO No.     /PAG.


================================================================================
DATOS DE LA ESTACION:
NOMBRE DE LA ESTACION                  : ALAMEDA
CLAVE DE LA ESTACION                   : AL01
LOCALIZACION DE LA ESTACION            : Del. Cuauhtémoc, Col. Centro,          
                                       : Dr. Mora entre Av. Hidalgo             
                                       : y Av. Juárez.                          
                                       :                                        
                                       : 
COORDENADAS DE LA ESTACION             : 19.4356 LAT. N
                                       : 99.1453 LONG. W
ALTITUD (msnm)                         : 2232
TIPO DE SUELO                          : Terreno blando, material compresible
                                       : (arcillas)                
                                       : 
INSTITUCION RESPONSABLE                : CIRES
                                       : 

================================================================================
DATOS DEL ACELEROGRAFO:
MODELO DEL ACELEROGRAFO                : RADESD
NUMERO DE SERIE DEL ACELEROGRAFO       : 152
NUMERO DE CANALES                      : 3
ORIENTACION C1-C6 (rumbo;orientacion)  : /N00E/+V/N90W
ORIENTACION C7-C12 (rumbo;orientacion) : 
VEL. DE MUESTREO, C1-C6 (muestras/s)   : /100/100/100
VEL. DE MUESTREO, C7-C12 (muestras/s)  : 
ESC. COMPLETA DE SENSORES, C1-C6, (g)  : /0.5/0.5/0.5
ESC. COMPLETA DE SENSORES, C7-C12, (g) : 
FREC. NAT. DE SENSORES, C1-C6, (Hz)    : /51.29/51.09/53.75
FREC. NAT. DE SENSORES, C7-C12, (Hz)   : 
AMORTIGUAMIENTO DE SENSORES, C1-C6     : /0.5519/0.5670/0.5810
AMORTIGUAMIENTO DE SENSORES, C7-C12    : 
INTERVALO DE MUESTREO, C1-C6, (s)      : /0.01/0.01/0.01
INTERVALO DE MUESTREO, C7-C12, (s)     : 
UMBRAL DE DISPARO, C1-C6, (Gal)        : /14.37/28.73/14.37
UMBRAL DE DISPARO, C7-C12, (Gal)       : 
MEMORIA DE PREEVENTO (s)               : 56.0
TIEMPO DE POSEVENTO (s)                : 80.0


================================================================================
DATOS DEL SISMO:
FECHA DEL SISMO (GMT)                  : 12/ABR/13
HORA EPICENTRO (GMT)                   : 03:45:09.0
MAGNITUD(ES)                           : /Mc=5.2
COORDENADAS DEL EPICENTRO              : 17.78 LAT. N
                                       : 101.58 LONG. W
PROFUNDIDAD FOCAL (km)                 : 35
FUENTE DE LOS DATOS EPICENTRALES       : SSN
                                       : INSTITUTO DE GEOFISICA, UNAM

================================================================================
DATOS DE ESTE REGISTRO:
HORA DE LA PRIMERA MUESTRA (GMT)       : 03:46:36.00
EXACTITUD DEL TIEMPO (s)               : 0.01
DURACION DEL REGISTRO (s), C1-C6       : /138.19/138.19/138.19
DURACION DEL REGISTRO (s), C7-C12      : 
NUM. TOTAL DE MUESTRAS, C1-C6          : /13819/13819/13819
NUM. TOTAL DE MUESTRAS, C7-C12         : 
ACEL. MAX. (Gal), C1-C6                : /1.95637/1.36869/2.45236
ACEL. MAX., C1-C6, EN LA MUESTRA       : /5563/5104/4197
ACEL. MAX. (Gal), C7-C12               : 
ACEL. MAX., C7-C12, EN LA MUESTRA      : 
UNIDADES DE LOS DATOS                  : Gal (cm/s/s)
FACTOR DE DECIMACION                   : 1
FORMATO DATOS (FORTRAN,10 campos/dato) : 3F10.5


================================================================================
CALIDAD DEL ACELEROGRAMA:
REGISTRO DIGITAL COMPLETO CON TIEMPO ABSOLUTO CORRECTO.


================================================================================
COMENTARIOS:














================================================================================
DATOS DE ACELERACION:
---------+---------+---------+---------+---------+---------+---------+---------+
   CANAL-1   CANAL-2   CANAL-3   CANAL-4   CANAL-5   CANAL-6   CANAL-7   CANAL-8
      N00E        +V      N90W
---------+---------+---------+---------+---------+---------+---------+---------+
[...]
  -0.28043  -0.27732   0.06155
  -0.28043  -0.38207   0.30097
  -0.16072  -0.35214   0.33090
  -0.13079  -0.38207   0.42068
  -0.05597  -0.39704   0.57032
  -0.02604  -0.36711   0.69003
   0.04878  -0.33718   0.76484
   0.09367  -0.32222   0.85463
   0.16849  -0.39704   0.91448
   0.25827  -0.35214   0.92945
   0.33309  -0.26236   0.94441
   0.37798  -0.26236   0.94441
   0.54258  -0.21747   0.89952
   0.55754  -0.24740   0.86959
   0.60243  -0.20251   0.85463
   0.67725  -0.23243   0.79477
   0.70718  -0.17258   0.71995
   0.78200  -0.17258   0.64513
   0.87178  -0.14265   0.61521
   0.84185  -0.15761   0.48053
   0.88675  -0.24740   0.43564
   0.93164  -0.23243   0.48053
   0.88675  -0.18754   0.40571
   0.91667  -0.20251   0.46557
   0.87178  -0.24740   0.51046
   0.90171  -0.21747   0.49550
   0.78200  -0.29229   0.60024
   0.79696  -0.32222   0.58528
   0.63236  -0.36711   0.66010
   0.54258  -0.42696   0.70499
   0.55754  -0.47185   0.70499
   0.43783  -0.50178   0.70499
   0.39294  -0.54667   0.82470
   0.36301  -0.54667   0.71995
   0.33309  -0.56164   0.82470
   0.31812  -0.47185   0.79477
   0.28820  -0.51675   0.74988
   0.28820  -0.41200   0.83966
   0.27323  -0.38207   0.79477
   0.31812  -0.32222   0.83966
   0.34805  -0.26236   0.83966
   0.39294  -0.18754   0.88455
   0.42287  -0.11272   0.91448
   0.48272   0.05188   0.79477
   0.57251   0.08181   0.83966
   0.54258   0.14166   0.77981
   0.61740   0.18655   0.77981
   0.57251   0.26137   0.70499
   0.57251   0.29130   0.55535
   0.55754   0.35115   0.49550
   0.58747   0.39604   0.42068
   0.54258   0.42597   0.39075
   0.57251   0.50079   0.22615
   0.54258   0.48583   0.21119
   0.49769   0.51575   0.03162
   0.52762   0.51575  -0.05816
   0.48272   0.39604  -0.05816
   0.45280   0.39604  -0.17787
   0.37798   0.36612  -0.26766
   0.37798   0.24641  -0.25269
   0.33309   0.14166  -0.31255
   0.24330   0.18655  -0.26766
   0.12359   0.11173  -0.29758
   0.04878   0.02195  -0.25269
   0.04878  -0.02294  -0.28262
  -0.10086  -0.03790  -0.25269
  -0.17568  -0.09776  -0.29758
  -0.19064  -0.08280  -0.26766
  -0.25050  -0.11272  -0.31255
  -0.28043  -0.09776  -0.28262
  -0.26546  -0.08280  -0.19284
  -0.32532   0.02195  -0.29758
  -0.28043  -0.06783  -0.29758
  -0.20561   0.03691  -0.31255
  -0.19064   0.06684  -0.32751
  -0.20561   0.05188  -0.37240
  -0.10086   0.11173  -0.37240
  -0.11583   0.15662  -0.52204
  -0.10086   0.20152  -0.58189
  -0.10086   0.21648  -0.61182
  -0.13079   0.20152  -0.74650
  -0.16072   0.20152  -0.85124
  -0.17568   0.18655  -0.88117
  -0.26546   0.20152  -1.04577
  -0.37021   0.11173  -0.95599
  -0.45999   0.17159  -1.00088
  -0.56474   0.12670  -1.09066
  -0.68445   0.05188  -1.15052
  -0.77423   0.06684  -1.19541
  -0.93883  -0.00798  -1.13555
  -1.04358  -0.05287  -1.09066
  -1.14833  -0.02294  -1.10563
  -1.25307  -0.09776  -1.09066
  -1.32789  -0.17258  -1.13555
  -1.43264  -0.21747  -1.07570
  -1.62717  -0.27732  -1.09066
  -1.67206  -0.32222  -1.12059
  -1.77680  -0.32222  -1.16548
  -1.82169  -0.45689  -1.13555
  -1.86659  -0.42696  -1.09066
  -1.83666  -0.42696  -1.03081
  -1.89651  -0.54667  -0.94102
  -1.88155  -0.50178  -0.89613
  -1.82169  -0.36711  -0.97095
  -1.85162  -0.42696  -0.92606
  -1.82169  -0.30725  -0.94102
  -1.74688  -0.24740  -0.88117
  -1.79177  -0.21747  -0.80635
  -1.74688  -0.08280  -0.89613
  -1.70198   0.00699  -0.83628
  -1.61220   0.05188  -0.88117
  -1.61220   0.17159  -0.85124
  -1.50746   0.18655  -0.83628
  -1.47753   0.21648  -0.86621
  -1.46256   0.27633  -0.76146
  -1.32789   0.33619  -0.88117
  -1.29796   0.30626  -0.74650
  -1.19322   0.36612  -0.89613
  -1.17825   0.35115  -0.85124
  -1.07351   0.33619  -0.88117
  -1.05854   0.26137  -0.95599
  -0.96876   0.29130  -0.97095
  -0.90891   0.20152  -0.97095
  -0.77423   0.20152  -1.00088
  -0.71438   0.24641  -0.95599
  -0.65452   0.21648  -1.04577
  -0.59467   0.18655  -0.94102
  -0.47496   0.18655  -1.00088
  -0.40014   0.15662  -0.98592
  -0.32532   0.21648  -0.95599
  -0.23554   0.12670  -0.94102
  -0.19064   0.18655  -0.98592
  -0.02604   0.21648  -0.95599
  -0.04101   0.24641  -0.89613
   0.09367   0.27633  -0.88117
   0.16849   0.36612  -0.77642
   0.25827   0.36612  -0.65671
   0.33309   0.42597  -0.50708
   0.40791   0.42597  -0.34247
   0.51265   0.45590  -0.23773
   0.64733   0.53072  -0.05816
   0.75207   0.50079   0.07651
   0.81193   0.48583   0.27104
   0.90171   0.51575   0.40571
   0.96156   0.59057   0.57032
   1.06631   0.51575   0.74988
   1.14113   0.56065   0.83966
   1.24588   0.50079   0.97434
   1.30573   0.45590   1.01923
   1.42544   0.41101   1.13894
   1.44041   0.36612   1.15390
   1.47033   0.29130   1.25865
   1.56012   0.26137   1.31850
   1.61997   0.20152   1.36339
   1.66486   0.12670   1.39332
   1.73968   0.05188   1.42325
   1.69479  -0.00798   1.54296
   1.75464  -0.06783   1.51303
   1.69479  -0.12769   1.61778
   1.67983  -0.20251   1.64771
   1.66486  -0.24740   1.66267
   1.63493  -0.21747   1.67763
   1.61997  -0.27732   1.73749
   1.60501  -0.27732   1.72252
   1.54515  -0.23243   1.72252
   1.53019  -0.32222   1.75245
   1.44041  -0.29229   1.73749
   1.41048  -0.33718   1.75245
   1.33566  -0.29229   1.78238
   1.23091  -0.33718   1.84224
   1.14113  -0.33718   1.87216
   1.09624  -0.41200   1.85720
   0.94660  -0.35214   1.88713
   0.91667  -0.38207   1.90209
   0.76704  -0.38207   1.93202
   0.70718  -0.35214   1.91705
   0.60243  -0.29229   1.88713
   0.52762  -0.35214   1.88713
   0.46776  -0.20251   1.79734
   0.39294  -0.18754   1.75245
   0.28820  -0.14265   1.70756
   0.27323  -0.03790   1.55792
   0.15352  -0.02294   1.43821
   0.12359   0.00699   1.30354
   0.18345   0.14166   1.19879
   0.09367   0.20152   1.04916
   0.06374   0.32123   0.89952
   0.12359   0.36612   0.79477
   0.15352   0.44094   0.71995
   0.10863   0.47086   0.55535
   0.13856   0.48583   0.45061
   0.12359   0.48583   0.31593
   0.12359   0.48583   0.24111
   0.12359   0.39604   0.19622
   0.10863   0.36612   0.10644
   0.09367   0.32123   0.00169
   0.18345   0.29130  -0.02824
   0.15352   0.23144  -0.07313
   0.13856   0.12670  -0.07313
   0.13856   0.09677  -0.14795
   0.12359   0.02195  -0.19284
   0.07870  -0.02294  -0.19284
   0.04878  -0.08280  -0.25269
   0.01885  -0.15761  -0.16291
  -0.08590  -0.11272  -0.28262
  -0.13079  -0.15761  -0.22276
  -0.26546  -0.18754  -0.26766
  -0.35525  -0.20251  -0.35744
  -0.41510  -0.24740  -0.37240
  -0.50488  -0.30725  -0.37240
  -0.59467  -0.29229  -0.38737
  -0.56474  -0.32222  -0.38737
  -0.59467  -0.27732  -0.47715
  -0.62459  -0.29229  -0.46218
  -0.66949  -0.24740  -0.52204
  -0.68445  -0.15761  -0.53700
  -0.65452  -0.11272  -0.64175
  -0.65452   0.00699  -0.68664
  -0.65452  -0.02294  -0.67168
  -0.54977   0.00699  -0.71657
  -0.57970   0.02195  -0.74650
  -0.45999   0.05188  -0.74650
  -0.43006   0.03691  -0.70160
  -0.34028  -0.02294  -0.64175
  -0.23554  -0.12769  -0.58189
  -0.23554  -0.05287  -0.55197
  -0.22057  -0.09776  -0.47715
  -0.20561  -0.15761  -0.37240
  -0.17568  -0.21747  -0.37240
  -0.16072  -0.23243  -0.25269
  -0.17568  -0.26236  -0.20780
  -0.13079  -0.32222  -0.19284
  -0.13079  -0.32222  -0.28262
  -0.17568  -0.38207  -0.28262
  -0.19064  -0.30725  -0.29758
  -0.19064  -0.35214  -0.23773
  -0.20561  -0.32222  -0.20780
  -0.22057  -0.29229  -0.19284
  -0.19064  -0.26236  -0.11802
  -0.20561  -0.23243  -0.11802
  -0.11583  -0.14265  -0.13298
  -0.14575  -0.11272  -0.04320
  -0.08590  -0.12769  -0.01327
  -0.01108  -0.03790   0.04658
   0.01885  -0.05287   0.12140
   0.01885  -0.03790   0.06155
   0.09367  -0.00798   0.04658
   0.15352  -0.00798   0.00169
   0.22834   0.03691   0.00169
   0.27323   0.11173   0.01666
   0.25827   0.09677   0.04658
   0.24330   0.03691  -0.02824
   0.28820   0.00699  -0.05816
   0.27323  -0.02294  -0.08809
   0.27323   0.02195  -0.23773
   0.27323  -0.00798  -0.29758
   0.24330   0.03691  -0.31255
   0.16849  -0.00798  -0.34247
   0.19841  -0.02294  -0.46218
   0.13856  -0.00798  -0.52204
   0.01885  -0.02294  -0.58189
   0.03381   0.06684  -0.64175
  -0.10086  -0.05287  -0.77642
  -0.11583  -0.11272  -0.77642
  -0.14575  -0.09776  -0.94102
  -0.20561  -0.08280  -1.03081
  -0.20561  -0.09776  -1.13555
  -0.29539  -0.11272  -1.19541
  -0.29539  -0.12769  -1.36001
  -0.31035  -0.14265  -1.44979
  -0.41510  -0.12769  -1.50965
  -0.35525  -0.18754  -1.52461
  -0.41510  -0.20251  -1.50965
  -0.37021  -0.14265  -1.59943
  -0.48992  -0.20251  -1.49468
  -0.50488  -0.20251  -1.41986
  -0.50488  -0.18754  -1.34505
  -0.45999  -0.14265  -1.33008
  -0.40014  -0.20251  -1.21037
  -0.38517  -0.24740  -1.01584
  -0.41510  -0.26236  -0.95599
  -0.38517  -0.29229  -0.77642
  -0.38517  -0.32222  -0.64175
  -0.43006  -0.36711  -0.50708
  -0.44503  -0.42696  -0.47715
  -0.43006  -0.44193  -0.35744
  -0.41510  -0.39704  -0.25269
  -0.45999  -0.44193  -0.14795
  -0.41510  -0.41200  -0.08809
  -0.48992  -0.42696  -0.02824
  -0.53481  -0.44193  -0.01327
  -0.48992  -0.33718   0.16629
  -0.56474  -0.35214   0.28600
  -0.54977  -0.24740   0.27104
  -0.50488  -0.15761   0.30097
  -0.50488  -0.00798   0.40571
  -0.41510   0.02195   0.57032
  -0.37021   0.06684   0.64513
  -0.41510   0.05188   0.83966
  -0.34028   0.02195   1.04916
  -0.32532   0.00699   1.18383
  -0.28043  -0.03790   1.36339
  -0.23554  -0.03790   1.40829
  -0.22057  -0.11272   1.70756
  -0.14575  -0.08280   1.73749
  -0.13079  -0.06783   1.87216
  -0.10086  -0.15761   1.96195
   0.00388  -0.17258   1.97691
   0.03381  -0.26236   2.05173
   0.03381  -0.35214   2.05173
   0.01885  -0.33718   2.05173
   0.07870  -0.42696   2.05173
   0.07870  -0.42696   1.99187
   0.06374  -0.48682   2.00684
   0.10863  -0.51675   1.91705
   0.03381  -0.50178   1.76742
   0.10863  -0.45689   1.64771
   0.01885  -0.38207   1.55792
  -0.01108  -0.42696   1.46814
   0.06374  -0.33718   1.45318
   0.06374  -0.23243   1.28858
   0.13856  -0.23243   1.18383
   0.19841  -0.11272   1.06412
   0.16849  -0.12769   1.00426
   0.21338  -0.05287   0.88455
   0.27323   0.06684   0.77981
   0.30316   0.11173   0.67506
   0.34805   0.23144   0.54039
   0.43783   0.30626   0.42068
   0.43783   0.36612   0.27104
   0.46776   0.50079   0.13637
   0.51265   0.57561  -0.02824
   0.52762   0.63546  -0.19284
   0.54258   0.72525  -0.44722
   0.52762   0.77014  -0.61182
   0.54258   0.82999  -0.79139
   0.43783   0.85992  -1.06073
   0.49769   0.94970  -1.24030
   0.37798   0.87488  -1.47972
   0.33309   0.88985  -1.59943
   0.27323   0.87488  -1.74907
   0.21338   0.82999  -1.98849
   0.16849   0.81503  -2.12316
   0.09367   0.75517  -2.13813
   0.04878   0.74021  -2.28776
  -0.07093   0.74021  -2.36258
  -0.13079   0.68036  -2.45236
  -0.26546   0.66539  -2.45236
  -0.34028   0.50079  -2.37755
  -0.40014   0.48583  -2.42244
  -0.41510   0.45590  -2.34762
  -0.44503   0.38108  -2.21294
  -0.44503   0.32123  -2.16805
  -0.48992   0.24641  -2.04834
  -0.43006   0.14166  -1.95856
  -0.41510   0.09677  -1.77900
  -0.37021   0.00699  -1.64432
  -0.26546  -0.03790  -1.38994
  -0.20561  -0.05287  -1.28519
  -0.16072  -0.05287  -1.06073
  -0.04101  -0.11272  -0.89613
   0.00388  -0.11272  -0.73153
   0.13856  -0.18754  -0.61182
   0.22834  -0.21747  -0.44722
   0.28820  -0.20251  -0.35744
   0.39294  -0.23243  -0.16291
   0.37798  -0.30725  -0.11802
   0.42287  -0.35214  -0.01327
   0.40791  -0.39704   0.12140
   0.48272  -0.38207   0.18126
   0.48272  -0.47185   0.25608
   0.40791  -0.42696   0.36082
   0.42287  -0.47185   0.36082
   0.42287  -0.44193   0.40571
   0.33309  -0.39704   0.42068
   0.27323  -0.39704   0.51046
   0.30316  -0.41200   0.42068
   0.27323  -0.36711   0.40571
   0.30316  -0.36711   0.43564
   0.34805  -0.29229   0.49550
   0.36301  -0.26236   0.39075
   0.40791  -0.20251   0.45061
   0.45280  -0.14265   0.40571
   0.43783  -0.15761   0.34586
   0.49769  -0.09776   0.31593
   0.55754  -0.02294   0.25608
   0.58747  -0.02294   0.18126
   0.69222   0.08181   0.04658
   0.67725   0.09677   0.00169
   0.79696   0.18655  -0.05816
   0.79696   0.27633  -0.17787
   0.85682   0.36612  -0.29758
   0.88675   0.45590  -0.38737
   0.94660   0.56065  -0.43226
   0.91667   0.66539  -0.52204
   0.93164   0.71028  -0.59686
   0.88675   0.72525  -0.62679
   0.85682   0.80007  -0.62679
   0.78200   0.80007  -0.64175
   0.70718   0.82999  -0.65671
   0.61740   0.80007  -0.59686
   0.52762   0.74021  -0.55197
   0.43783   0.74021  -0.50708
   0.33309   0.71028  -0.41729
   0.24330   0.62050  -0.40233
   0.21338   0.56065  -0.32751
   0.10863   0.50079  -0.22276
   0.06374   0.44094  -0.14795
   0.00388   0.32123  -0.07313
  -0.14575   0.23144   0.07651
  -0.22057   0.20152   0.10644
  -0.26546   0.03691   0.25608
  -0.35525   0.05188   0.27104
  -0.38517   0.05188   0.36082
  -0.38517   0.02195   0.40571
  -0.43006  -0.05287   0.45061
  -0.38517  -0.09776   0.52542
  -0.43006  -0.17258   0.58528
  -0.41510  -0.09776   0.57032
  -0.37021  -0.14265   0.60024
  -0.37021  -0.11272   0.61521
  -0.34028  -0.09776   0.61521
  -0.34028  -0.18754   0.69003
  -0.29539  -0.12769   0.74988
  -0.29539  -0.15761   0.76484
  -0.32532  -0.08280   0.64513
  -0.35525  -0.09776   0.80974
  -0.35525  -0.14265   0.74988
  -0.47496  -0.08280   0.73492
  -0.44503  -0.11272   0.82470
  -0.47496  -0.14265   0.80974
  -0.48992  -0.17258   0.82470
  -0.68445  -0.23243   0.85463
  -0.71438  -0.30725   0.91448
  -0.78920  -0.29229   0.92945
  -0.80416  -0.32222   0.86959
  -0.93883  -0.45689   0.89952
  -1.05854  -0.51675   0.86959
  -1.14833  -0.53171   0.95937
  -1.19322  -0.54667   0.86959
  -1.22314  -0.59156   0.80974
  -1.26804  -0.63646   0.89952
  -1.26804  -0.60653   0.76484
  -1.26804  -0.56164   0.79477
  -1.25307  -0.51675   0.70499
  -1.23811  -0.50178   0.66010
  -1.19322  -0.36711   0.64513
  -1.17825  -0.27732   0.54039
  -1.11840  -0.06783   0.31593
  -1.07351  -0.02294   0.16629
  -0.99869   0.00699   0.15133
  -1.02862   0.08181  -0.04320
  -0.99869   0.15662  -0.14795
  -0.92387   0.11173  -0.17787
  -0.92387   0.17159  -0.26766
  -0.86401   0.14166  -0.31255
  -0.81912   0.23144  -0.40233
  -0.87898   0.21648  -0.52204
  -0.84905   0.24641  -0.52204
  -0.78920   0.21648  -0.58189
  -0.77423   0.18655  -0.59686
  -0.75927   0.20152  -0.53700
  -0.81912   0.18655  -0.37240
  -0.84905   0.20152  -0.38737
  -0.86401   0.30626  -0.37240
  -0.84905   0.29130  -0.26766
  -0.77423   0.32123  -0.16291
  -0.84905   0.33619  -0.10305
  -0.80416   0.30626  -0.02824
  -0.75927   0.36612   0.15133
  -0.83409   0.33619   0.19622
  -0.71438   0.26137   0.34586
  -0.66949   0.26137   0.43564
  -0.59467   0.29130   0.45061
  -0.45999   0.29130   0.49550
  -0.44503   0.20152   0.60024
  -0.35525   0.18655   0.61521
  -0.25050   0.21648   0.61521
  -0.11583   0.17159   0.52542
   0.00388   0.17159   0.57032
   0.09367   0.03691   0.55535
   0.19841   0.11173   0.55535
   0.24330   0.03691   0.43564
   0.43783  -0.03790   0.39075
   0.57251  -0.03790   0.33090
   0.64733  -0.06783   0.37579
   0.75207  -0.11272   0.18126
   0.87178  -0.12769   0.18126
   0.94660  -0.18754   0.21119
   1.00646  -0.23243   0.10644
   1.11120  -0.23243   0.03162
   1.15609  -0.29229  -0.01327
   1.29077  -0.35214  -0.02824
   1.36559  -0.39704   0.07651
   1.38055  -0.36711  -0.02824
   1.44041  -0.41200   0.01666
