********************************************************************************
               CENTRO DE INSTRUMENTACION Y REGISTRO SISMICO  A.C.  
                       Coordinacion de Servicios Tecnicos
     Anaxagoras 814, Col. Narvarte, Benito Juarez, C.P. 03020 Mexico, D.F.
            Tels. 667 45 42/ 687 45  82             Fax. 669 25 12
********************************************************************************
ARCHIVO ESTANDAR DE ACELERACION:
VERSION DEL FORMATO                    : 2.0
NOMBRE DEL ARCHIVO                     : AL019607.151
FECHA Y HORA DE CREACION               : 27/MAR/98, 3:55
REF. CATALOGO ACELEROGRAMAS, SMIS 1996 : REGISTRO No.     /PAG.


================================================================================
DATOS DE LA ESTACION:
NOMBRE DE LA ESTACION                  : ALAMEDA
CLAVE DE LA ESTACION                   : AL01
LOCALIZACION DE LA ESTACION            : JARDIN ALAMEDA ENTRE AV. HIDALGO Y AV.
                                       : JUAREZ, CENTRO
                                       :
                                       :
                                       :
COORDENADAS DE LA ESTACION             : 19.436 LAT. N 
                                       : 99.145 LONG. W 
ALTITUD (msnm)                         : 2232
TIPO DE SUELO                          : TERRENO BLANDO, MATERIAL COMPRESIBLE
                                       : (ARCILLAS)
                                       : 
INSTITUCION RESPONSABLE                : CIRES 
                                       :

================================================================================
DATOS DEL ACELEROGRAFO:
MODELO DEL ACELEROGRAFO                : SSA-1
NUMERO DE SERIE DEL ACELEROGRAFO       : 152
NUMERO DE CANALES                      : 3
ORIENTACION C1-C6 (rumbo;orientacion)  : /N00E/+V/N90E
ORIENTACION C7-C12 (rumbo;orientacion) :
VEL. DE MUESTREO, C1-C6 (muestras/s)   : /200/200/200
VEL. DE MUESTREO, C7-C12 (muestras/s)  :
ESC. COMPLETA DE SENSORES, C1-C6, (g)  : /2/2/2
ESC. COMPLETA DE SENSORES, C7-C12, (g) :
FREC. NAT. DE SENSORES, C1-C6, (Hz)    : /51.29/51.09/53.75
FREC. NAT. DE SENSORES, C7-C12, (Hz)   :
AMORTIGUAMIENTO DE SENSORES, C1-C6     : /0.5519/0.5670/0.5810
AMORTIGUAMIENTO DE SENSORES, C7-C12    :
INTERVALO DE MUESTREO, C1-C6, (s)      : /0.005/0.005/0.005
INTERVALO DE MUESTREO, C7-C12, (s)     : 
UMBRAL DE DISPARO, C1-C6, (Gal)        : /2/1.5/2
UMBRAL DE DISPARO, C7-C12, (Gal)       :
MEMORIA DE PREEVENTO (s)               : 15
TIEMPO DE POSEVENTO (s)                : 60


================================================================================
DATOS DEL SISMO:
FECHA DEL SISMO (GMT)                  : 15/JUL/96
HORA EPICENTRO (GMT)                   : 21:23:38:5
MAGNITUD(ES)                           : /Ms=6.5
COORDENADAS DEL EPICENTRO              : 17.4 LAT. N
                                       : 101.1 LONG. W
PROFUNDIDAD FOCAL (km)                 : 20.0
FUENTE DE LOS DATOS EPICENTRALES       : SSN
                                       : INSTITUTO DE GEOFISICA, UNAM

================================================================================
DATOS DE ESTE REGISTRO:
HORA DE LA PRIMERA MUESTRA (GMT)       : 21:24:36.00
EXACTITUD DEL TIEMPO (s)               :     
DURACION DEL REGISTRO (s), C1-C6       : /160.00/160.00/160.00
DURACION DEL REGISTRO (s), C7-C12      :
NUM. TOTAL DE MUESTRAS, C1-C6          : /32000/32000/32000
NUM. TOTAL DE MUESTRAS, C7-C12         :
ACEL. MAX. (Gal), C1-C6                : /9.78698/6.13638/9.58819
ACEL. MAX., C1-C6, EN LA MUESTRA       :
ACEL. MAX. (Gal), C7-C12               :
ACEL. MAX., C7-C12, EN LA MUESTRA      :
UNIDADES DE LOS DATOS                  : Gal (cm/s/s)
FACTOR DE DECIMACION                   : 1
FORMATO DATOS (FORTRAN,10 campos/dato) : 3F10.5


================================================================================
CALIDAD DEL ACELEROGRAMA:
REGISTRO DIGITAL COMPLETO, CARECE DE TIEMPO ABSOLUTO.


================================================================================
COMENTARIOS:














================================================================================
DATOS DE ACELERACION:
---------+---------+---------+---------+---------+---------+---------+---------+
   CANAL-1   CANAL-2   CANAL-3   CANAL-4   CANAL-5   CANAL-6   CANAL-7   CANAL-8
      N00E        +V      N90E
---------+---------+---------+---------+---------+---------+---------+---------+
[...]
   3.86302   3.49638  -5.27819
   4.10302   3.73638  -5.51819
   4.58302   3.73638  -5.51819
   4.82302   3.97638  -5.51819
   4.82302   4.21638  -5.51819
   5.30302   4.21638  -5.75819
   5.30302   4.21638  -5.75819
   5.53302   4.45638  -5.75819
   5.77302   4.45638  -5.51819
   6.01302   4.45638  -5.51819
   6.01302   4.45638  -5.75819
   6.25302   4.45638  -5.75819
   6.49302   4.21638  -5.51819
   6.49302   4.21638  -5.51819
   6.73302   4.21638  -5.27819
   6.97302   3.97638  -5.03819
   6.73302   3.73638  -4.79819
   6.97302   3.73638  -4.55819
   6.97302   3.49638  -4.31819
   6.97302   3.25638  -4.07819
   6.73302   3.01638  -4.07819
   6.73302   2.77638  -3.83819
   6.49302   2.53638  -3.59819
   6.49302   2.53638  -3.35819
   6.25302   2.29638  -3.11819
   6.01302   2.06638  -2.63819
   6.01302   1.82638  -2.39819
   5.77302   1.58638  -1.91819
   5.53302   1.10638  -1.68819
   5.53302   0.62638  -1.44819
   5.30302   0.38638  -0.96819
   5.06302   0.14638  -0.72819
   5.06302  -0.09362  -0.48819
   4.82302  -0.33362  -0.00819
   4.82302  -0.57362   0.23181
   4.58302  -0.81362   0.47181
   4.58302  -1.05362   0.95181
   4.34302  -1.29362   1.19181
   4.10302  -1.53362   1.43181
   4.10302  -1.77362   1.67181
   3.86302  -2.25362   2.15181
   3.86302  -2.49362   2.39181
   3.86302  -2.49362   2.63181
   3.62302  -2.73362   2.87181
   3.38302  -2.96362   3.11181
   3.38302  -2.96362   3.34181
   3.14302  -3.20362   3.58181
   2.90302  -3.44362   3.82181
   2.90302  -3.44362   4.06181
   2.66302  -3.68362   4.06181
   2.42302  -3.68362   4.30181
   2.18302  -3.92362   4.54181
   1.94302  -3.92362   4.54181
   1.94302  -4.16362   4.78181
   1.70302  -4.16362   4.78181
   1.46302  -4.16362   4.78181
   1.22302  -4.16362   4.78181
   0.98302  -4.16362   4.54181
   0.74302  -4.16362   4.54181
   0.51302  -4.40362   4.30181
   0.03302  -4.40362   4.30181
  -0.20698  -4.64362   4.30181
  -0.44698  -4.64362   4.30181
  -0.92698  -4.64362   4.06181
  -1.16698  -4.64362   3.82181
  -1.64698  -4.64362   3.82181
  -2.12698  -4.64362   3.58181
  -2.36698  -4.64362   3.58181
  -2.84698  -4.40362   3.58181
  -3.08698  -4.40362   3.58181
  -3.56698  -4.40362   3.34181
  -3.80698  -4.40362   3.34181
  -4.28698  -4.16362   3.11181
  -4.51698  -4.40362   3.11181
  -4.99698  -4.16362   3.11181
  -5.47698  -3.92362   2.87181
  -5.71698  -3.68362   2.87181
  -6.19698  -3.44362   2.87181
  -6.43698  -2.96362   2.63181
  -6.67698  -2.73362   2.39181
  -6.91698  -2.73362   2.39181
  -7.15698  -2.49362   2.15181
  -7.39698  -2.49362   2.15181
  -7.39698  -2.25362   2.15181
  -7.63698  -2.01362   1.91181
  -7.63698  -1.77362   1.91181
  -7.87698  -1.53362   1.91181
  -7.87698  -1.05362   1.91181
  -7.87698  -0.57362   1.67181
  -8.11698  -0.33362   1.43181
  -8.35698  -0.09362   1.19181
  -8.11698   0.38638   0.95181
  -8.35698   0.62638   0.95181
  -8.35698   0.86638   0.71181
  -8.35698   1.10638   0.47181
  -8.35698   1.10638   0.47181
  -8.35698   1.58638   0.47181
  -8.35698   1.82638   0.47181
  -8.35698   2.06638   0.23181
  -8.35698   2.29638   0.23181
  -8.35698   2.53638  -0.00819
  -8.35698   2.77638  -0.00819
  -8.11698   3.01638  -0.24819
  -8.11698   3.25638  -0.48819
  -7.87698   3.49638  -0.72819
  -7.87698   3.73638  -0.96819
  -7.63698   3.73638  -0.96819
  -7.63698   3.97638  -0.96819
  -7.39698   4.21638  -1.20819
  -7.39698   4.45638  -1.44819
  -7.15698   4.45638  -1.68819
  -6.91698   4.69638  -1.91819
  -6.91698   4.69638  -2.15819
  -6.67698   4.93638  -2.63819
  -6.43698   5.17638  -2.87819
  -6.19698   5.41638  -3.11819
  -5.71698   5.41638  -3.35819
  -5.47698   5.65638  -3.59819
  -5.23698   5.65638  -3.83819
  -5.23698   5.65638  -3.83819
  -4.99698   5.65638  -4.07819
  -4.51698   5.89638  -4.31819
  -4.28698   5.89638  -4.31819
  -4.04698   5.89638  -4.55819
  -3.80698   5.89638  -4.55819
  -3.32698   5.89638  -4.79819
  -3.08698   5.89638  -4.79819
  -2.60698   5.89638  -4.79819
  -2.36698   5.89638  -4.79819
  -2.12698   5.89638  -5.03819
  -1.88698   5.65638  -5.03819
  -1.64698   5.65638  -5.27819
  -1.40698   5.65638  -5.03819
  -0.92698   5.41638  -4.79819
  -0.68698   5.17638  -4.79819
  -0.20698   5.17638  -4.79819
   0.03302   4.93638  -4.55819
   0.27302   4.69638  -4.31819
   0.74302   4.69638  -4.31819
   0.74302   4.45638  -4.07819
   1.22302   4.21638  -4.07819
   1.46302   3.73638  -3.83819
   1.70302   3.49638  -3.59819
   1.94302   3.01638  -3.35819
   2.18302   2.77638  -3.35819
   2.66302   2.29638  -3.11819
   2.90302   1.82638  -2.87819
   3.14302   1.58638  -2.39819
   3.38302   1.10638  -2.15819
   3.62302   0.86638  -1.91819
   3.86302   0.38638  -1.68819
   4.10302   0.14638  -1.44819
   4.10302  -0.33362  -1.44819
   4.34302  -0.57362  -0.72819
   4.58302  -0.81362  -0.48819
   4.82302  -1.29362  -0.24819
   5.06302  -1.53362   0.23181
   5.30302  -2.01362   0.47181
   5.30302  -2.25362   0.71181
   5.53302  -2.49362   0.95181
   5.53302  -2.96362   1.19181
   5.77302  -3.20362   1.43181
   5.77302  -3.44362   1.67181
   6.25302  -3.44362   1.91181
   6.49302  -3.68362   2.15181
   6.49302  -3.92362   2.15181
   6.73302  -3.92362   2.39181
   6.97302  -3.92362   2.39181
   7.21302  -4.16362   2.39181
   7.21302  -4.40362   2.39181
   7.45302  -4.64362   2.63181
   7.69302  -4.64362   2.63181
   7.93302  -4.88362   2.63181
   7.93302  -4.88362   2.87181
   7.93302  -4.88362   2.87181
   8.17302  -4.88362   3.11181
   8.17302  -4.88362   3.34181
   8.41302  -4.88362   3.34181
   8.41302  -4.88362   3.58181
   8.41302  -4.88362   3.58181
   8.41302  -4.88362   3.58181
   8.41302  -4.88362   3.58181
   8.65302  -4.88362   3.58181
   8.65302  -4.88362   3.58181
   8.65302  -4.88362   3.58181
   8.65302  -4.88362   3.58181
   8.65302  -4.88362   3.58181
   8.65302  -4.88362   3.58181
   8.65302  -4.88362   3.58181
   8.65302  -4.64362   3.58181
   8.65302  -4.64362   3.58181
   8.41302  -4.64362   3.58181
   8.41302  -4.40362   3.58181
   8.17302  -4.16362   3.58181
   7.93302  -3.92362   3.58181
   7.93302  -3.68362   3.58181
   7.93302  -3.44362   3.34181
   7.69302  -3.20362   3.34181
   7.69302  -2.96362   3.34181
   7.21302  -2.96362   3.34181
   7.21302  -2.73362   3.34181
   6.97302  -2.49362   3.34181
   6.73302  -2.25362   3.11181
   6.49302  -2.01362   3.11181
   6.25302  -1.77362   3.11181
   6.01302  -1.53362   3.11181
   5.77302  -1.29362   3.11181
   5.53302  -1.05362   3.11181
   5.06302  -0.81362   3.11181
   4.82302  -0.57362   2.87181
   4.58302  -0.33362   2.87181
   4.10302  -0.09362   2.87181
   3.86302   0.14638   2.87181
   3.62302   0.38638   2.63181
   3.14302   0.62638   2.39181
   2.90302   0.86638   2.15181
   2.66302   0.86638   2.15181
   2.42302   1.10638   1.91181
   2.18302   1.34638   1.67181
   1.94302   1.58638   1.43181
   1.70302   1.82638   1.43181
   1.46302   2.06638   1.19181
   1.22302   2.29638   0.95181
   0.98302   2.53638   0.71181
   0.74302   2.77638   0.47181
   0.51302   2.77638   0.47181
   0.27302   3.01638   0.23181
   0.03302   3.25638  -0.00819
  -0.20698   3.49638  -0.24819
  -0.44698   3.49638  -0.48819
  -0.68698   3.73638  -0.72819
  -0.92698   3.73638  -0.96819
  -1.16698   3.97638  -0.96819
  -1.16698   3.97638  -1.20819
  -1.40698   4.21638  -1.44819
  -1.40698   4.21638  -1.68819
  -1.40698   4.21638  -1.91819
  -1.64698   4.21638  -1.91819
  -1.64698   4.21638  -2.39819
  -1.64698   4.21638  -2.39819
  -1.88698   4.21638  -2.87819
  -1.88698   4.21638  -2.87819
  -1.88698   3.97638  -3.11819
  -1.64698   3.97638  -3.11819
  -1.64698   3.97638  -3.11819
  -1.64698   3.97638  -3.11819
  -1.40698   3.73638  -3.35819
  -1.40698   3.73638  -3.35819
  -1.16698   3.73638  -3.59819
  -1.16698   3.73638  -3.83819
  -0.92698   3.49638  -3.83819
  -0.92698   3.25638  -3.83819
  -0.68698   3.25638  -3.83819
  -0.68698   3.01638  -3.83819
  -0.44698   2.77638  -3.59819
  -0.20698   2.77638  -3.35819
   0.03302   2.53638  -3.11819
   0.27302   2.29638  -3.11819
   0.27302   2.29638  -2.87819
   0.51302   2.06638  -2.63819
   0.74302   2.06638  -2.63819
   0.98302   1.82638  -2.39819
   0.98302   1.58638  -2.39819
   1.22302   1.34638  -2.39819
   1.22302   1.10638  -2.15819
   1.46302   0.86638  -1.91819
   1.70302   0.62638  -1.91819
   1.94302   0.38638  -1.68819
   1.94302   0.14638  -1.44819
   1.94302   0.14638  -1.20819
   2.18302  -0.09362  -1.20819
   2.18302  -0.33362  -0.96819
   2.18302  -0.57362  -0.96819
   2.18302  -0.57362  -0.96819
   2.42302  -0.81362  -0.96819
   2.42302  -1.05362  -0.72819
   2.42302  -1.29362  -0.72819
   2.42302  -1.53362  -0.72819
   2.42302  -1.53362  -0.48819
   2.66302  -1.77362  -0.24819
   2.66302  -1.77362  -0.24819
   2.66302  -2.01362  -0.00819
   2.66302  -2.01362   0.23181
   2.66302  -2.25362   0.23181
   2.42302  -2.25362   0.23181
   2.42302  -2.49362   0.23181
   2.42302  -2.49362   0.23181
   2.42302  -2.73362   0.23181
   2.42302  -2.73362   0.47181
   2.42302  -2.96362   0.47181
   2.18302  -2.96362   0.47181
   2.18302  -2.96362   0.47181
   2.18302  -3.20362   0.47181
   2.18302  -3.20362   0.47181
   1.94302  -3.20362   0.47181
   1.94302  -3.20362   0.47181
   1.94302  -3.20362   0.23181
   1.94302  -2.96362   0.23181
   1.70302  -2.96362  -0.00819
   1.46302  -2.96362  -0.00819
   1.46302  -2.96362  -0.24819
   1.46302  -2.96362  -0.48819
   1.22302  -2.96362  -0.48819
   1.22302  -2.96362  -0.72819
   0.98302  -2.96362  -0.72819
   0.74302  -2.96362  -0.72819
   0.74302  -2.73362  -0.72819
   0.51302  -2.73362  -0.72819
   0.27302  -2.49362  -0.96819
   0.03302  -2.49362  -0.96819
  -0.20698  -2.25362  -1.20819
  -0.20698  -2.25362  -1.20819
  -0.44698  -2.25362  -1.44819
  -0.68698  -2.01362  -1.44819
  -0.92698  -2.01362  -1.44819
  -1.16698  -2.01362  -1.44819
  -1.40698  -1.77362  -1.44819
  -1.64698  -1.53362  -1.44819
  -1.88698  -1.53362  -1.44819
  -2.12698  -1.29362  -1.20819
  -2.36698  -1.05362  -1.20819
  -2.84698  -0.57362  -1.20819
  -3.08698  -0.81362  -1.20819
  -3.32698  -0.09362  -1.20819
  -3.56698   0.14638  -1.20819
  -4.04698   0.38638  -1.44819
  -4.28698   0.62638  -1.44819
  -4.75698   0.86638  -1.44819
  -4.99698   1.10638  -1.44819
  -5.23698   0.86638  -1.20819
  -5.47698   1.10638  -1.20819
  -5.71698   1.34638  -1.20819
  -6.19698   1.58638  -1.20819
  -6.43698   1.82638  -1.20819
  -6.67698   2.06638  -0.96819
  -7.15698   2.06638  -0.96819
  -7.39698   2.29638  -0.96819
  -7.63698   2.53638  -0.96819
  -7.87698   2.53638  -0.72819
  -8.11698   2.77638  -0.48819
  -8.35698   2.77638  -0.48819
  -8.59698   2.77638  -0.24819
  -8.83698   2.77638  -0.24819
  -8.83698   2.77638  -0.24819
  -9.07698   2.53638  -0.00819
  -9.30698   2.53638  -0.00819
  -9.54698   2.29638   0.23181
  -9.54698   2.29638   0.23181
  -9.54698   2.29638   0.47181
  -9.78698   2.29638   0.47181
  -9.78698   2.06638   0.71181
  -9.78698   2.06638   0.71181
  -9.78698   2.06638   0.95181
  -9.78698   2.06638   0.95181
  -9.54698   1.82638   1.43181
  -9.54698   1.82638   1.43181
  -9.54698   1.82638   1.43181
  -9.30698   1.82638   1.67181
  -9.07698   1.82638   1.91181
  -9.07698   1.82638   2.15181
  -8.83698   1.58638   2.39181
  -8.59698   1.58638   2.39181
  -8.59698   1.34638   2.63181
  -8.35698   1.10638   2.87181
  -8.35698   0.86638   3.11181
  -8.11698   0.86638   3.34181
  -7.87698   0.62638   3.58181
  -7.63698   0.62638   3.82181
  -7.39698   0.38638   4.06181
  -7.15698  -0.09362   4.06181
  -6.91698  -0.09362   4.30181
  -6.43698  -0.33362   4.30181
  -6.19698  -0.57362   4.54181
  -5.95698  -0.57362   4.54181
  -5.47698  -0.57362   4.54181
  -5.23698  -0.81362   4.78181
  -4.99698  -0.81362   4.78181
  -4.51698  -0.81362   4.54181
  -4.28698  -1.05362   4.78181
  -3.80698  -1.05362   4.78181
  -3.56698  -1.29362   4.54181
  -3.08698  -1.29362   4.30181
  -2.60698  -1.53362   4.06181
  -2.36698  -1.53362   3.82181
  -1.88698  -1.77362   3.58181
  -1.64698  -2.01362   3.58181
  -1.16698  -2.01362   3.34181
  -0.68698  -2.01362   3.11181
  -0.20698  -2.25362   2.87181
   0.03302  -2.25362   2.63181
   0.51302  -2.49362   2.39181
   0.98302  -2.49362   1.91181
   1.46302  -2.49362   1.91181
   1.94302  -2.49362   1.67181
   2.18302  -2.49362   1.43181
   2.66302  -2.49362   0.95181
   3.14302  -2.49362   0.71181
   3.62302  -2.49362   0.47181
   3.86302  -2.49362   0.23181
   4.10302  -2.25362  -0.00819
   4.34302  -2.25362  -0.24819
   4.82302  -2.01362  -0.48819
   5.06302  -2.01362  -0.72819
   5.06302  -2.01362  -0.96819
   5.30302  -1.53362  -1.20819
   5.53302  -1.53362  -1.44819
   5.77302  -1.29362  -1.91819
   5.77302  -1.05362  -1.91819
   6.01302  -1.05362  -2.15819
   6.25302  -0.81362  -2.39819
   6.25302  -0.81362  -2.63819
   6.49302  -0.57362  -2.87819
   6.49302  -0.57362  -2.87819
   6.49302  -0.33362  -3.11819
   6.73302  -0.33362  -3.35819
   6.73302  -0.33362  -3.59819
   6.73302  -0.09362  -3.59819
   6.49302  -0.09362  -3.83819
   6.49302  -0.09362  -3.59819
   6.49302  -0.09362  -3.59819
   6.49302   0.14638  -3.83819
   6.49302   0.38638  -3.83819
   6.49302   0.38638  -3.83819
   6.25302   0.62638  -3.83819
   6.25302   0.62638  -3.83819
   6.25302   0.62638  -3.83819
   6.25302   0.86638  -3.83819
   6.01302   0.86638  -3.83819
   5.77302   1.10638  -3.83819
   5.53302   1.10638  -3.83819
   5.30302   1.34638  -3.59819
   5.30302   1.58638  -3.59819
   4.82302   1.34638  -3.59819
   4.58302   1.82638  -3.59819
   4.34302   1.82638  -3.59819
   4.10302   1.82638  -3.59819
   3.86302   2.06638  -3.59819
   3.38302   2.29638  -3.59819
   2.90302   2.29638  -3.59819
   2.66302   2.53638  -3.59819
   2.42302   2.53638  -3.59819
   1.94302   2.53638  -3.59819
   1.70302   2.77638  -3.59819
   1.46302   2.77638  -3.59819
   0.98302   3.01638  -3.83819
   0.51302   3.01638  -3.83819
   0.27302   3.25638  -3.83819
  -0.20698   3.25638  -3.83819
  -0.68698   3.49638  -3.83819
  -0.92698   3.49638  -3.83819
  -1.16698   3.25638  -3.83819
  -1.64698   3.25638  -3.83819
  -1.88698   3.25638  -3.83819
  -2.36698   3.25638  -3.83819
  -2.60698   3.01638  -3.59819
  -3.08698   3.01638  -3.59819
  -3.32698   3.01638  -3.59819
  -3.80698   2.77638  -3.59819
  -4.04698   2.53638  -3.59819
  -4.28698   2.29638  -3.35819
  -4.51698   2.29638  -3.35819
  -4.75698   2.06638  -3.35819
  -4.99698   1.82638  -3.11819
  -5.23698   1.82638  -2.87819
  -5.47698   1.58638  -2.87819
  -5.47698   1.58638  -2.63819
  -5.47698   1.34638  -2.63819
  -5.47698   1.34638  -2.39819
  -5.47698   0.86638  -2.39819
  -5.47698   0.62638  -2.15819
  -5.47698   0.38638  -1.91819
  -5.23698  -0.09362  -1.68819
  -5.23698  -0.33362  -1.44819
  -4.99698  -0.57362  -1.44819
  -4.99698  -0.81362  -0.96819
  -4.75698  -1.05362  -0.72819
  -4.75698  -1.29362  -0.48819
  -4.28698  -1.29362  -0.24819
  -4.28698  -1.53362  -0.24819
  -4.04698  -1.77362  -0.00819
  -3.80698  -1.77362  -0.00819
  -3.80698  -2.01362   0.23181
  -3.56698  -2.49362   0.47181
  -3.32698  -2.73362   0.47181
  -3.08698  -2.96362   0.71181
  -2.84698  -2.96362   0.71181
  -2.60698  -3.20362   0.95181
  -2.36698  -3.44362   1.19181
  -2.36698  -3.44362   1.43181
  -2.12698  -3.68362   1.67181
  -1.88698  -3.68362   1.91181
  -1.64698  -3.92362   2.15181
  -1.40698  -3.92362   2.39181
  -1.16698  -3.92362   2.39181
  -0.92698  -3.92362   2.63181
  -0.92698  -3.92362   2.63181
  -0.68698  -3.92362   2.87181
  -0.44698  -3.92362   3.11181
  -0.20698  -3.92362   3.11181
   0.03302  -3.92362   3.34181
