********************************************************************************
               CENTRO DE INSTRUMENTACION Y REGISTRO SISMICO  A.C.  
                       Coordinacion de Servicios Tecnicos
     Anaxagoras 814, Col. Narvarte, Benito Juarez, C.P. 03020 Mexico, D.F.
            Tels. 687 45 42/ 687 45  82             Fax. 669 25 12
********************************************************************************
ARCHIVO ESTANDAR DE ACELERACION:
VERSION DEL FORMATO                    : 2.0
NOMBRE DEL ARCHIVO                     : AL019309.101
FECHA Y HORA DE CREACION               : 8 de febrero de 1996/17:29
REF. CATALOGO ACELEROGRAMAS, SMIS 1995 : REGISTRO No. 4753 /PAG. 430


================================================================================
DATOS DE LA ESTACION:
NOMBRE DE LA ESTACION                  : ALAMEDA
CLAVE DE LA ESTACION                   : AL01
LOCALIZACION DE LA ESTACION            : JARDIN ALAMEDA ENTRE AV. HIDALGO Y AV.
                                       : JUAREZ, CENTRO
                                       :
                                       :
                                       :
COORDENADAS DE LA ESTACION             : 19.436 LAT. N 
                                       : 99.145 LONG. W 
ALTITUD (msnm)                         : 2232
TIPO DE SUELO                          : TERRENO BLANDO, MATERIAL COMPRESIBLE
                                       : (ARCILLAS)
                                       : 
INSTITUCION RESPONSABLE                : CIRES 
                                       :

================================================================================
DATOS DEL ACELEROGRAFO:
MODELO DEL ACELEROGRAFO                : SSA-1
NUMERO DE SERIE DEL ACELEROGRAFO       : 152
NUMERO DE CANALES                      : 3
ORIENTACION C1-C6 (rumbo;orientacion)  : /N00E/+V/N90E
ORIENTACION C7-C12 (rumbo;orientacion) :
VEL. DE MUESTREO, C1-C6 (muestras/s)   : /200/200/200
VEL. DE MUESTREO, C7-C12 (muestras/s)  :
ESC. COMPLETA DE SENSORES, C1-C6, (g)  : /2/2/2
ESC. COMPLETA DE SENSORES, C7-C12, (g) :
FREC. NAT. DE SENSORES, C1-C6, (Hz)    : /50/50/50
FREC. NAT. DE SENSORES, C7-C12, (Hz)   :
AMORTIGUAMIENTO DE SENSORES, C1-C6     : /0.700/0.700/0.700
AMORTIGUAMIENTO DE SENSORES, C7-C12    :
INTERVALO DE MUESTREO, C1-C6, (s)      : /0.005/0.005/0.005
INTERVALO DE MUESTREO, C7-C12, (s)     :
UMBRAL DE DISPARO, C1-C6, (Gal)        : /2/1.5/2
UMBRAL DE DISPARO, C7-C12, (Gal)       :
MEMORIA DE PREEVENTO (s)               : 15
TIEMPO DE POSEVENTO (s)                : 90


================================================================================
DATOS DEL SISMO:
FECHA DEL SISMO (GMT)                  : 10/SEP/93
HORA EPICENTRO (GMT)                   : 10:50:23,0
MAGNITUD(ES)                           : /Mb=4.8/Mc=4.8
COORDENADAS DEL EPICENTRO              : 16.57 LAT. N 
                                       : 98.94 LONG. W 
PROFUNDIDAD FOCAL (km)                 : 20
FUENTE DE LOS DATOS EPICENTRALES       : SSN
                                       : INSTITUTO DE GEOFISICA, UNAM

================================================================================
DATOS DE ESTE REGISTRO:
HORA DE LA PRIMERA MUESTRA (GMT)       : 19:12:50.00
EXACTITUD DEL TIEMPO (s)               :     
DURACION DEL REGISTRO (s), C1-C6       : /89.60/89.60/89.60
DURACION DEL REGISTRO (s), C7-C12      :
NUM. TOTAL DE MUESTRAS, C1-C6          : /17920/17920/17920
NUM. TOTAL DE MUESTRAS, C7-C12         :
ACEL. MAX. (Gal), C1-C6                : /2.82139/1.33718/2.07450
ACEL. MAX., C1-C6, EN LA MUESTRA       :
ACEL. MAX. (Gal), C7-C12               :
ACEL. MAX., C7-C12, EN LA MUESTRA      :
UNIDADES DE LOS DATOS                  : Gal (cm/s/s)
FACTOR DE DECIMACION                   : 1
FORMATO DATOS (FORTRAN,10 campos/dato) : 3F10.5


================================================================================
CALIDAD DEL ACELEROGRAMA:
REGISTRO DIGITAL COMPLETO, CARECE DE TIEMPO ABSOLUTO.


================================================================================
COMENTARIOS: 
             Los equipos se encontraban con una ganancia de 2 en los 
             ejes horizontales y 4 en el vertical, por lo que la escala
             completa de sensores era de 1 G y 1/2 G respectivamente.









 

================================================================================
DATOS DE ACELERACION:
---------+---------+---------+---------+---------+---------+---------+---------+
   CANAL-1   CANAL-2   CANAL-3   CANAL-4   CANAL-5   CANAL-6   CANAL-7   CANAL-8
      N00E        +V      N90E
---------+---------+---------+---------+---------+---------+---------+---------+
[...]
   1.86139  -0.13718  -1.11450
   1.86139  -0.13718  -1.11450
   1.86139  -0.13718  -1.11450
   1.86139  -0.13718  -1.11450
   1.86139  -0.13718  -1.11450
   1.86139  -0.13718  -1.11450
   1.86139  -0.13718  -1.11450
   1.86139  -0.13718  -1.11450
   1.38139  -0.13718  -1.11450
   1.38139  -0.37718  -1.11450
   1.38139  -0.37718  -1.11450
   1.38139  -0.37718  -1.11450
   1.38139  -0.37718  -1.59450
   1.38139  -0.37718  -1.59450
   1.38139  -0.37718  -1.59450
   1.38139  -0.37718  -1.59450
   1.38139  -0.37718  -1.59450
   1.38139  -0.61718  -1.59450
   1.38139  -0.37718  -1.59450
   1.38139  -0.37718  -1.59450
   1.38139  -0.37718  -1.59450
   1.38139  -0.37718  -1.11450
   0.91139  -0.37718  -1.11450
   0.91139  -0.37718  -1.59450
   0.91139  -0.37718  -1.59450
   0.91139  -0.37718  -1.59450
   0.91139  -0.37718  -1.59450
   0.91139  -0.37718  -1.59450
   0.91139  -0.37718  -1.59450
   0.91139  -0.37718  -1.59450
   0.91139  -0.37718  -1.59450
   0.91139  -0.37718  -1.59450
   0.43139  -0.37718  -1.59450
   0.91139  -0.37718  -1.59450
   0.91139  -0.37718  -1.59450
   0.91139  -0.37718  -1.59450
   0.43139  -0.37718  -1.11450
   0.43139  -0.37718  -1.59450
   0.43139  -0.13718  -1.59450
   0.43139  -0.13718  -1.59450
   0.43139  -0.13718  -1.59450
   0.43139  -0.13718  -1.59450
   0.43139  -0.13718  -1.59450
   0.43139  -0.13718  -1.59450
  -0.04861  -0.13718  -1.59450
  -0.04861  -0.13718  -1.59450
  -0.04861  -0.13718  -1.59450
  -0.04861  -0.13718  -1.59450
  -0.04861  -0.13718  -1.11450
  -0.04861  -0.13718  -1.11450
  -0.04861  -0.13718  -1.11450
  -0.04861  -0.13718  -1.11450
  -0.04861  -0.13718  -1.59450
  -0.04861  -0.13718  -1.59450
  -0.04861  -0.13718  -1.59450
  -0.04861   0.10282  -1.59450
  -0.04861   0.10282  -1.59450
  -0.04861   0.10282  -1.59450
  -0.04861  -0.13718  -1.59450
  -0.04861   0.10282  -1.11450
  -0.52861   0.10282  -1.11450
  -0.52861   0.10282  -1.11450
  -0.52861   0.10282  -1.11450
  -0.52861   0.10282  -1.11450
  -0.52861   0.10282  -1.11450
  -0.52861   0.10282  -1.11450
  -0.52861   0.10282  -1.11450
  -0.52861   0.10282  -1.11450
  -0.52861   0.10282  -1.11450
  -0.52861   0.10282  -1.11450
  -0.52861   0.10282  -1.11450
  -1.00861   0.10282  -1.11450
  -0.52861   0.10282  -1.11450
  -0.52861   0.10282  -1.11450
  -1.00861   0.10282  -1.11450
  -1.00861   0.10282  -1.11450
  -1.00861   0.10282  -1.11450
  -0.52861   0.10282  -1.11450
  -1.00861   0.10282  -1.11450
  -1.00861   0.10282  -0.63450
  -1.00861   0.10282  -0.63450
  -1.00861   0.10282  -1.11450
  -1.00861   0.10282  -1.11450
  -1.00861   0.10282  -1.11450
  -1.00861   0.10282  -1.11450
  -1.00861   0.10282  -1.11450
  -1.00861   0.10282  -1.11450
  -1.00861   0.10282  -1.11450
  -1.00861   0.10282  -1.11450
  -1.00861   0.10282  -1.11450
  -1.00861   0.10282  -1.11450
  -1.00861   0.10282  -0.63450
  -1.48861   0.10282  -0.63450
  -1.00861   0.10282  -0.63450
  -1.48861   0.10282  -0.63450
  -1.48861   0.10282  -0.63450
  -1.48861   0.10282  -0.63450
  -1.48861   0.10282  -0.63450
  -1.48861   0.10282  -0.63450
  -1.48861   0.10282  -0.63450
  -1.48861   0.10282  -0.63450
  -1.48861   0.10282  -0.63450
  -1.48861   0.10282  -0.63450
  -1.48861   0.10282  -0.63450
  -1.48861   0.10282  -0.63450
  -1.48861   0.10282  -0.63450
  -1.48861   0.10282  -0.63450
  -1.48861   0.10282  -0.63450
  -1.48861   0.10282  -0.63450
  -1.48861   0.10282  -0.63450
  -1.48861   0.10282  -0.15450
  -1.48861   0.10282  -0.15450
  -1.48861   0.10282  -0.15450
  -1.48861   0.10282  -0.15450
  -1.48861   0.10282  -0.63450
  -1.96861   0.10282  -0.63450
  -1.48861   0.10282  -0.63450
  -1.48861   0.10282  -0.63450
  -1.48861   0.10282  -0.63450
  -1.48861   0.10282  -0.63450
  -1.48861   0.10282  -0.63450
  -1.48861   0.10282  -0.63450
  -1.96861  -0.13718  -0.15450
  -1.48861   0.10282  -0.15450
  -1.96861   0.10282  -0.15450
  -1.48861   0.10282  -0.15450
  -1.96861   0.10282  -0.15450
  -1.96861   0.10282  -0.15450
  -1.96861   0.10282  -0.15450
  -1.48861   0.10282  -0.15450
  -1.48861   0.10282  -0.15450
  -1.48861   0.10282  -0.63450
  -1.48861   0.10282  -0.15450
  -1.48861   0.10282  -0.63450
  -1.48861  -0.13718  -0.15450
  -1.48861   0.10282  -0.15450
  -1.48861   0.10282  -0.15450
  -1.96861   0.10282  -0.15450
  -1.96861   0.10282  -0.15450
  -1.48861   0.10282  -0.15450
  -1.96861   0.34282  -0.15450
  -1.96861   0.34282  -0.63450
  -1.48861   0.34282  -0.15450
  -1.48861   0.34282  -0.15450
  -1.48861   0.10282  -0.15450
  -1.48861   0.10282  -0.15450
  -1.96861   0.10282  -0.15450
  -1.96861   0.10282  -0.63450
  -1.96861   0.10282  -0.15450
  -1.96861   0.10282  -0.15450
  -1.96861   0.10282  -0.15450
  -1.96861   0.10282  -0.15450
  -1.96861  -0.13718  -0.15450
  -1.96861  -0.13718  -0.15450
  -1.96861  -0.13718  -0.15450
  -1.96861  -0.13718  -0.15450
  -1.96861   0.10282  -0.15450
  -1.96861  -0.13718  -0.15450
  -1.96861  -0.13718  -0.15450
  -1.96861  -0.13718  -0.15450
  -1.96861  -0.13718   0.32550
  -1.96861  -0.13718   0.32550
  -1.96861  -0.13718   0.32550
  -1.96861  -0.13718   0.32550
  -1.96861  -0.13718   0.32550
  -1.96861  -0.13718   0.32550
  -1.96861  -0.13718   0.32550
  -1.96861   0.10282   0.32550
  -1.96861  -0.13718   0.32550
  -1.96861  -0.13718   0.32550
  -1.96861  -0.13718   0.32550
  -1.96861  -0.13718   0.32550
  -1.96861  -0.13718   0.32550
  -1.96861  -0.13718   0.32550
  -1.96861  -0.13718   0.32550
  -1.96861  -0.13718   0.32550
  -1.96861  -0.13718   0.32550
  -1.96861  -0.13718   0.32550
  -1.96861  -0.13718   0.32550
  -1.96861  -0.13718   0.80550
  -1.96861  -0.13718   0.80550
  -1.96861  -0.13718   0.80550
  -1.96861  -0.13718   0.80550
  -1.96861   0.10282   0.80550
  -1.96861   0.10282   0.80550
  -1.96861   0.10282   0.80550
  -1.96861   0.10282   0.80550
  -1.96861   0.10282   0.80550
  -1.96861   0.10282   0.80550
  -1.96861  -0.13718   0.80550
  -1.96861  -0.13718   0.80550
  -1.96861  -0.37718   0.80550
  -1.96861  -0.37718   0.80550
  -1.96861  -0.37718   0.80550
  -1.96861  -0.37718   0.80550
  -1.48861  -0.37718   0.80550
  -1.48861  -0.13718   0.80550
  -1.48861  -0.13718   1.28550
  -1.48861  -0.13718   0.80550
  -1.48861   0.10282   1.28550
  -1.48861   0.10282   0.80550
  -1.48861   0.10282   0.80550
  -1.48861   0.10282   0.80550
  -1.48861  -0.13718   1.28550
  -1.48861  -0.13718   1.28550
  -1.48861  -0.13718   1.28550
  -1.96861  -0.13718   1.28550
  -1.96861  -0.13718   1.28550
  -1.96861  -0.13718   1.28550
  -1.48861  -0.13718   1.28550
  -1.48861  -0.13718   1.28550
  -1.48861  -0.13718   1.28550
  -1.48861  -0.13718   1.28550
  -1.48861  -0.13718   1.28550
  -1.48861   0.10282   1.28550
  -1.48861   0.10282   1.28550
  -1.48861   0.10282   1.28550
  -1.48861   0.10282   1.28550
  -1.48861   0.10282   1.28550
  -1.48861   0.10282   1.28550
  -1.48861   0.10282   1.76550
  -1.48861   0.10282   1.76550
  -1.48861   0.10282   1.76550
  -1.48861   0.10282   1.76550
  -1.48861   0.10282   1.76550
  -1.48861   0.10282   1.76550
  -1.48861   0.10282   1.28550
  -1.48861   0.10282   1.76550
  -1.48861   0.10282   1.76550
  -1.48861   0.10282   1.76550
  -1.48861   0.10282   1.76550
  -1.48861   0.10282   1.76550
  -1.48861   0.10282   1.76550
  -1.48861   0.10282   1.76550
  -1.48861   0.10282   1.76550
  -1.48861   0.10282   1.76550
  -1.48861   0.10282   1.76550
  -1.00861   0.10282   1.76550
  -1.48861   0.10282   1.76550
  -1.00861   0.10282   1.76550
  -1.00861   0.10282   1.76550
  -1.48861   0.10282   1.76550
  -1.00861   0.10282   1.76550
  -1.48861   0.34282   1.76550
  -1.48861   0.10282   1.76550
  -1.00861   0.34282   1.76550
  -1.00861   0.10282   1.76550
  -1.00861   0.10282   1.76550
  -1.00861   0.34282   1.76550
  -1.00861   0.34282   1.76550
  -1.00861   0.34282   1.76550
  -1.00861   0.34282   1.76550
  -1.00861   0.34282   1.76550
  -1.00861   0.34282   1.76550
  -1.00861   0.58282   1.76550
  -1.00861   0.58282   1.76550
  -1.00861   0.58282   1.76550
  -1.00861   0.58282   1.76550
  -1.00861   0.58282   1.76550
  -0.52861   0.58282   1.76550
  -1.00861   0.58282   1.76550
  -1.00861   0.58282   1.28550
  -1.00861   0.34282   1.76550
  -0.52861   0.34282   1.76550
  -0.52861   0.34282   1.76550
  -0.52861   0.10282   1.76550
  -0.52861   0.10282   1.76550
  -0.52861   0.10282   1.76550
  -0.52861   0.10282   1.76550
  -0.52861   0.34282   1.76550
  -0.52861   0.34282   1.76550
  -0.52861   0.34282   1.28550
  -0.04861   0.34282   1.28550
  -0.52861   0.34282   1.28550
  -0.04861   0.34282   1.28550
  -0.04861   0.34282   1.28550
  -0.04861   0.34282   1.28550
  -0.52861   0.34282   1.28550
  -0.04861   0.34282   1.28550
  -0.04861   0.34282   1.28550
  -0.04861   0.34282   1.28550
  -0.04861   0.34282   1.28550
  -0.04861   0.34282   1.28550
  -0.04861   0.10282   1.28550
   0.43139   0.34282   1.28550
   0.43139   0.34282   1.28550
   0.43139   0.10282   1.28550
   0.43139   0.34282   1.28550
   0.43139   0.34282   1.28550
   0.43139   0.34282   1.28550
   0.43139   0.10282   1.28550
   0.43139   0.10282   1.28550
   0.43139   0.10282   0.80550
   0.43139   0.10282   1.28550
   0.43139   0.10282   1.28550
   0.91139  -0.13718   0.80550
   0.43139   0.10282   1.28550
   0.91139  -0.13718   0.80550
   0.91139  -0.13718   0.80550
   0.91139  -0.13718   0.80550
   0.43139  -0.13718   0.80550
   0.91139  -0.13718   0.80550
   0.91139  -0.13718   0.80550
   1.38139  -0.13718   0.80550
   0.91139  -0.13718   0.80550
   1.38139  -0.13718   0.80550
   1.38139  -0.13718   0.80550
   1.38139  -0.13718   0.80550
   1.38139  -0.13718   0.80550
   1.38139  -0.13718   0.80550
   1.38139  -0.37718   0.80550
   1.38139  -0.37718   0.32550
   1.38139  -0.37718   0.80550
   1.38139  -0.37718   0.80550
   1.86139  -0.37718   0.80550
   1.38139  -0.37718   0.80550
   1.38139  -0.37718   0.80550
   1.86139  -0.37718   0.80550
   1.86139  -0.37718   0.80550
   1.86139  -0.37718   0.80550
   1.86139  -0.37718   0.80550
   1.86139  -0.37718   0.32550
   1.86139  -0.37718   0.32550
   1.86139  -0.37718   0.32550
   1.86139  -0.37718   0.32550
   1.86139  -0.37718   0.32550
   1.86139  -0.37718   0.32550
   2.34139  -0.37718   0.32550
   2.34139  -0.37718   0.32550
   2.34139  -0.61718   0.32550
   2.34139  -0.37718   0.32550
   2.34139  -0.37718   0.32550
   2.34139  -0.37718   0.32550
   2.34139  -0.61718   0.32550
   2.34139  -0.61718   0.32550
   2.34139  -0.37718  -0.15450
   2.34139  -0.37718  -0.15450
   2.34139  -0.37718  -0.15450
   2.34139  -0.37718  -0.15450
   2.34139  -0.37718  -0.15450
   2.34139  -0.37718  -0.15450
   2.34139  -0.37718  -0.15450
   2.34139  -0.37718  -0.15450
   2.34139  -0.37718  -0.15450
   2.82139  -0.37718  -0.15450
   2.34139  -0.61718  -0.15450
   2.34139  -0.61718  -0.15450
   2.82139  -0.61718  -0.63450
   2.82139  -0.61718  -0.63450
   2.82139  -0.61718  -0.63450
   2.82139  -0.37718  -0.63450
   2.82139  -0.37718  -0.63450
   2.82139  -0.37718  -0.63450
   2.82139  -0.37718  -0.63450
   2.82139  -0.37718  -0.63450
   2.82139  -0.37718  -0.63450
   2.82139  -0.37718  -0.63450
   2.82139  -0.37718  -0.63450
   2.82139  -0.37718  -0.63450
   2.82139  -0.37718  -0.63450
   2.82139  -0.37718  -0.63450
   2.82139  -0.37718  -1.11450
   2.82139  -0.37718  -1.11450
   2.82139  -0.37718  -1.11450
   2.82139  -0.37718  -1.11450
   2.82139  -0.37718  -1.11450
   2.82139  -0.37718  -1.11450
   2.82139  -0.37718  -1.11450
   2.82139  -0.37718  -1.11450
   2.82139  -0.37718  -1.11450
   2.82139  -0.37718  -1.11450
   2.82139  -0.37718  -1.11450
   2.82139  -0.13718  -1.11450
   2.82139  -0.13718  -1.11450
   2.82139  -0.13718  -1.11450
   2.82139  -0.13718  -1.11450
   2.82139  -0.13718  -1.11450
   2.82139  -0.13718  -1.11450
   2.82139  -0.13718  -1.11450
   2.82139  -0.13718  -1.59450
   2.82139  -0.13718  -1.11450
   2.82139   0.10282  -1.11450
   2.82139   0.10282  -1.11450
   2.82139  -0.13718  -1.11450
   2.34139   0.10282  -1.59450
   2.82139   0.10282  -1.59450
   2.82139  -0.37718  -1.59450
   2.82139  -0.13718  -1.59450
   2.34139  -0.13718  -1.59450
   2.82139  -0.13718  -1.59450
   2.34139   0.10282  -1.59450
   2.82139   0.10282  -1.59450
   2.34139   0.10282  -1.59450
   2.82139   0.10282  -1.59450
   2.34139   0.10282  -1.59450
   1.86139   0.34282  -1.59450
   2.34139   0.34282  -1.59450
   2.34139   0.34282  -1.59450
   2.34139   0.34282  -1.59450
   2.34139   0.34282  -1.59450
   2.34139   0.34282  -1.59450
   2.34139   0.34282  -1.59450
   2.34139   0.34282  -1.59450
   2.34139   0.34282  -1.59450
   1.86139   0.34282  -1.59450
   2.34139   0.34282  -1.59450
   2.34139   0.34282  -1.59450
   2.34139   0.34282  -1.59450
   1.86139   0.34282  -1.59450
   1.86139   0.34282  -1.59450
   1.86139   0.34282  -1.59450
   1.86139   0.34282  -1.59450
   1.86139   0.34282  -1.59450
   1.86139   0.34282  -1.59450
   1.86139   0.34282  -1.59450
   1.86139   0.34282  -2.07450
   1.86139   0.34282  -2.07450
   1.86139   0.34282  -2.07450
   1.86139   0.58282  -2.07450
   1.38139   0.58282  -2.07450
   1.38139   0.58282  -1.59450
   1.38139   0.58282  -1.59450
   1.38139   0.58282  -2.07450
   1.38139   0.58282  -1.59450
   1.38139   0.34282  -1.59450
   1.38139   0.34282  -1.59450
   1.38139   0.34282  -1.59450
   1.38139   0.34282  -2.07450
   1.38139   0.34282  -1.59450
   1.38139   0.58282  -1.59450
   1.38139   0.34282  -1.59450
   1.38139   0.34282  -1.59450
   1.38139   0.34282  -1.59450
   1.38139   0.34282  -1.59450
   1.38139   0.34282  -1.59450
   0.91139   0.34282  -1.59450
   0.91139   0.34282  -1.59450
   0.91139   0.58282  -1.59450
   0.91139   0.58282  -1.59450
   0.91139   0.34282  -1.59450
   0.91139   0.34282  -1.59450
   0.91139   0.34282  -1.59450
   0.91139   0.10282  -1.59450
   0.91139   0.10282  -1.59450
   0.91139   0.10282  -1.59450
   0.91139   0.10282  -1.59450
   0.43139   0.10282  -1.59450
   0.91139   0.10282  -1.59450
   0.43139   0.10282  -1.59450
   0.43139   0.34282  -1.59450
   0.91139   0.34282  -1.59450
   0.43139   0.34282  -1.59450
   0.43139   0.10282  -1.59450
   0.43139   0.10282  -1.59450
   0.43139   0.10282  -1.59450
   0.43139   0.10282  -1.59450
   0.43139   0.10282  -1.59450
   0.43139   0.10282  -1.59450
  -0.04861   0.10282  -1.59450
  -0.04861   0.10282  -1.59450
  -0.04861   0.10282  -1.59450
  -0.04861   0.10282  -1.59450
  -0.04861   0.10282  -1.11450
  -0.04861   0.10282  -1.11450
  -0.04861   0.10282  -1.11450
  -0.04861   0.10282  -1.11450
  -0.04861   0.10282  -1.11450
  -0.04861   0.10282  -1.11450
  -0.04861   0.10282  -1.11450
  -0.04861   0.10282  -1.11450
  -0.52861  -0.13718  -1.11450
  -0.52861  -0.13718  -1.11450
  -0.52861  -0.13718  -1.11450
  -0.52861  -0.13718  -1.11450
  -0.52861  -0.13718  -1.11450
  -0.52861  -0.13718  -1.11450
  -0.52861  -0.13718  -1.11450
  -0.52861  -0.13718  -1.11450
  -0.52861  -0.13718  -1.11450
  -1.00861  -0.13718  -1.11450
  -1.00861  -0.13718  -0.63450
  -1.00861  -0.13718  -1.11450
  -1.00861  -0.13718  -0.63450
  -1.00861  -0.13718  -1.11450
  -1.00861  -0.13718  -1.11450
  -1.00861  -0.13718  -1.11450
  -1.00861  -0.13718  -1.11450
  -1.00861  -0.13718  -1.11450
  -1.48861  -0.13718  -1.11450
  -1.00861  -0.13718  -1.11450
  -1.00861  -0.13718  -1.11450
  -1.48861  -0.13718  -0.63450
  -1.48861  -0.13718  -0.63450
