********************************************************************************
              CENTRO DE INSTRUMENTACION Y REGISTRO SISMICO  A.C.

    Anaxagoras 814, Col. Narvarte, Benito Juarez, C.P. 03020 Mexico, D.F.
           Tels. 5687 45 42/ 5687 45  82             Fax. 5669 25 12
********************************************************************************
ARCHIVO ESTANDAR DE ACELERACION:
VERSION DEL FORMATO                    : 2.0
NOMBRE DEL ARCHIVO                     : AL0120150930172555
FECHA Y HORA DE CREACION               : 07/ENE/16, 11:46
REF. CATALOGO ACELEROGRAMAS, SMIS 1996 : REGISTRO No.     /PAG.


================================================================================
DATOS DE LA ESTACION:
NOMBRE DE LA ESTACION                  : ALAMEDA
CLAVE DE LA ESTACION                   : AL01
LOCALIZACION DE LA ESTACION            : Del. Cuauhtémoc, Col. Centro,          
                                       : Dr. Mora entre Av. Hidalgo             
                                       : y Av. Juárez.                          
                                       :                                        
                                       : 
COORDENADAS DE LA ESTACION             : 19.4356 LAT. N
                                       : 99.1453 LONG. W
ALTITUD (msnm)                         : 2232
TIPO DE SUELO                          : Terreno blando, material compresible
                                       : (arcillas)                
                                       : 
INSTITUCION RESPONSABLE                : CIRES
                                       : 

================================================================================
DATOS DEL ACELEROGRAFO:
MODELO DEL ACELEROGRAFO                : RADESD
NUMERO DE SERIE DEL ACELEROGRAFO       : 152
NUMERO DE CANALES                      : 3
ORIENTACION C1-C6 (rumbo;orientacion)  : /S00E/+V/N90W
ORIENTACION C7-C12 (rumbo;orientacion) : 
VEL. DE MUESTREO, C1-C6 (muestras/s)   : /100/100/100
VEL. DE MUESTREO, C7-C12 (muestras/s)  : 
ESC. COMPLETA DE SENSORES, C1-C6, (g)  : /0.5/0.5/0.5
ESC. COMPLETA DE SENSORES, C7-C12, (g) : 
FREC. NAT. DE SENSORES, C1-C6, (Hz)    : /51.29/51.09/53.75
FREC. NAT. DE SENSORES, C7-C12, (Hz)   : 
AMORTIGUAMIENTO DE SENSORES, C1-C6     : /0.5519/0.5670/0.5810
AMORTIGUAMIENTO DE SENSORES, C7-C12    : 
INTERVALO DE MUESTREO, C1-C6, (s)      : /0.01/0.01/0.01
INTERVALO DE MUESTREO, C7-C12, (s)     : 
UMBRAL DE DISPARO, C1-C6, (Gal)        : /0.9/1.8/0.9
UMBRAL DE DISPARO, C7-C12, (Gal)       : 
MEMORIA DE PREEVENTO (s)               : 44.0
TIEMPO DE POSEVENTO (s)                : 64.0


================================================================================
DATOS DEL SISMO:
FECHA DEL SISMO (GMT)                  : 30/SEP/15
HORA EPICENTRO (GMT)                   : 17:25:55.0
MAGNITUD(ES)                           : /Mc=5.5
COORDENADAS DEL EPICENTRO              : 17.83 LAT. N
                                       : 101.52 LONG. W
PROFUNDIDAD FOCAL (km)                 : 30
FUENTE DE LOS DATOS EPICENTRALES       : SSN
                                       : INSTITUTO DE GEOFISICA, UNAM

================================================================================
DATOS DE ESTE REGISTRO:
HORA DE LA PRIMERA MUESTRA (GMT)       : 17:27:24.00
EXACTITUD DEL TIEMPO (s)               : 0.01
DURACION DEL REGISTRO (s), C1-C6       : /140.2/140.2/140.2
DURACION DEL REGISTRO (s), C7-C12      : 
NUM. TOTAL DE MUESTRAS, C1-C6          : /14020/14020/14020
NUM. TOTAL DE MUESTRAS, C7-C12         : 
ACEL. MAX. (Gal), C1-C6                : /1.78287/1.13669/2.58402
ACEL. MAX., C1-C6, EN LA MUESTRA       : /6431/5695/4541
ACEL. MAX. (Gal), C7-C12               : 
ACEL. MAX., C7-C12, EN LA MUESTRA      : 
UNIDADES DE LOS DATOS                  : Gal (cm/s/s)
FACTOR DE DECIMACION                   : 1
FORMATO DATOS (FORTRAN,10 campos/dato) : 3F10.5


================================================================================
CALIDAD DEL ACELEROGRAMA:
REGISTRO DIGITAL COMPLETO CON TIEMPO ABSOLUTO CORRECTO.


================================================================================
COMENTARIOS:














================================================================================
DATOS DE ACELERACION:
---------+---------+---------+---------+---------+---------+---------+---------+
   CANAL-1   CANAL-2   CANAL-3   CANAL-4   CANAL-5   CANAL-6   CANAL-7   CANAL-8
      S00E        +V      N90W
---------+---------+---------+---------+---------+---------+---------+---------+
[...]
   0.09197   0.14909  -0.40873
   0.12189   0.16405  -0.36384
   0.13686   0.14909  -0.37881
   0.16678   0.14909  -0.36384
   0.22664   0.10419  -0.33391
   0.25657   0.02938  -0.36384
   0.19671   0.01441  -0.25910
   0.19671   0.01441  -0.25910
   0.07700   0.07427  -0.22917
   0.07700   0.16405  -0.22917
   0.06204   0.13412  -0.16931
   0.06204   0.10419  -0.10946
   0.06204   0.07427  -0.06457
  -0.02774   0.01441  -0.01967
  -0.10256  -0.13523  -0.01967
  -0.17738  -0.10530  -0.00471
  -0.20731  -0.10530   0.12996
  -0.23724  -0.07537   0.21975
  -0.26717  -0.06041   0.30953
  -0.28213  -0.13523   0.38435
  -0.35695  -0.07537   0.33946
  -0.41680  -0.15019   0.39931
  -0.38688  -0.09033   0.50406
  -0.38688  -0.13523   0.66866
  -0.46169  -0.13523   0.66866
  -0.40184  -0.06041   0.74348
  -0.40184   0.08923   0.66866
  -0.38688   0.22390   0.66866
  -0.22227   0.28376   0.72851
  -0.16242   0.11916   0.78837
  -0.14745   0.10419   0.75844
  -0.11753   0.07427   0.77340
  -0.10256   0.08923   0.72851
   0.01715   0.04434   0.71355
   0.07700   0.11916   0.69859
   0.24160   0.16405   0.71355
   0.30146   0.11916   0.72851
   0.40620   0.05930   0.69859
   0.37628   0.05930   0.62377
   0.40620   0.08923   0.54895
   0.33139   0.08923   0.41427
   0.31642   0.26880   0.38435
   0.33139   0.22390   0.41427
   0.37628   0.25383   0.39931
   0.27153   0.17901   0.38435
   0.19671   0.16405   0.23471
   0.13686   0.23887   0.11500
   0.10693   0.26880   0.04018
   0.03211   0.14909  -0.06457
  -0.07264   0.20894  -0.07953
  -0.10256   0.19398  -0.06457
  -0.22227   0.16405  -0.07953
  -0.29709   0.14909  -0.10946
  -0.26717   0.13412  -0.10946
  -0.25220  -0.01552  -0.09449
  -0.29709  -0.06041  -0.12442
  -0.37191  -0.03048  -0.12442
  -0.37191  -5.5E-40  -0.12442
  -0.35695   0.05930  -0.06457
  -0.31206  -0.01552  -0.01967
  -0.19235  -0.04544   0.07011
  -0.16242  -0.10530   0.01025
  -0.14745  -0.16515   0.05514
  -0.16242  -0.18012   0.08507
  -0.07264  -0.16515   0.20478
  -0.01278  -0.18012   0.21975
   0.01715  -0.31479   0.29456
   0.09197  -0.31479   0.36938
   0.09197  -0.38961   0.35442
   0.07700  -0.25494   0.47413
   0.10693  -0.25494   0.57888
   0.07700  -0.31479   0.60880
   0.12189  -0.18012   0.62377
   0.10693  -0.21004   0.72851
   0.10693  -0.19508   0.77340
   0.13686  -0.21004   0.78837
   0.13686  -0.28486   0.83326
   0.07700  -0.26990   0.89311
   0.01715  -0.16515   0.92304
   0.04707  -0.10530   0.83326
   0.10693  -0.09033   0.90808
  -0.02774  -5.5E-40   0.83326
  -0.10256  -0.04544   0.69859
  -0.07264   0.01441   0.68362
  -0.16242  -0.03048   0.50406
  -0.10256  -5.5E-40   0.45917
  -0.01278  -5.5E-40   0.41427
  -0.10256  -0.09033   0.29456
  -0.13249  -0.22501   0.18982
  -0.17738  -0.32975   0.05514
  -0.17738  -0.22501  -0.06457
  -0.04271  -0.29983  -0.10946
  -0.04271  -0.31479  -0.27406
  -0.05767  -0.28486  -0.36384
  -0.13249  -0.25494  -0.48355
  -0.10256  -0.12026  -0.57333
  -0.01278  -0.09033  -0.63319
   0.04707  -0.12026  -0.78283
   0.01715  -5.5E-40  -0.94743
   0.04707  -0.04544  -1.06714
   0.00218  -0.01552  -1.09707
   0.01715  -0.04544  -1.08210
  -0.01278   0.02938  -1.12699
  -0.07264   0.05930  -1.26167
  -0.07264   0.10419  -1.27663
  -0.08760   0.13412  -1.27663
  -0.04271   0.14909  -1.26167
  -0.10256   0.14909  -1.20181
  -0.11753   0.17901  -1.21678
  -0.19235   0.25383  -1.26167
  -0.13249   0.29872  -1.17188
  -0.02774   0.29872  -1.11203
   0.01715   0.28376  -1.00728
  -0.04271   0.32865  -0.96239
  -0.02774   0.35858  -0.87261
  -0.10256   0.41843  -0.90254
  -0.04271   0.38851  -0.75290
   0.07700   0.29872  -0.72297
   0.12189   0.10419  -0.63319
   0.04707   0.11916  -0.60326
   0.07700   0.07427  -0.54341
  -0.01278   0.13412  -0.55837
   0.10693   0.02938  -0.48355
   0.12189  -5.5E-40  -0.49852
   0.19671  -0.09033  -0.37881
   0.21168  -0.16515  -0.30399
   0.13686  -0.07537  -0.24413
   0.18175  -0.12026  -0.18428
   0.16678  -0.15019  -0.13938
   0.24160  -0.15019  -0.12442
   0.28649  -0.13523  -0.07953
   0.36131  -0.13523   0.01025
   0.37628  -0.16515   0.17485
   0.46606  -0.18012   0.26464
   0.39124  -0.18012   0.30953
   0.42117  -0.26990   0.39931
   0.39124  -0.26990   0.48909
   0.40620  -0.21004   0.66866
   0.37628  -0.22501   0.78837
   0.33139  -0.23997   0.86319
   0.33139  -0.22501   0.87815
   0.34635  -0.26990   1.02779
   0.30146  -0.23997   1.07268
   0.33139  -0.26990   1.05772
   0.19671  -0.31479   1.10261
   0.22664  -0.23997   1.16246
   0.21168  -0.16515   1.13253
   0.13686  -0.15019   1.05772
   0.15182  -0.21004   0.96793
   0.19671  -0.13523   0.83326
   0.16678  -0.16515   0.74348
   0.15182  -0.07537   0.72851
   0.15182  -0.10530   0.54895
   0.13686  -5.5E-40   0.48909
   0.24160  -0.06041   0.39931
   0.33139   0.07427   0.32449
   0.30146   0.19398   0.18982
   0.33139   0.23887   0.12996
   0.39124   0.31369   0.07011
   0.42117   0.35858   0.01025
   0.48102   0.35858  -0.07953
   0.45110   0.41843  -0.16931
   0.46606   0.47829  -0.24413
   0.39124   0.49325  -0.25910
   0.37628   0.43340  -0.21420
   0.36131   0.38851  -0.21420
   0.27153   0.41843  -0.27406
   0.25657   0.40347  -0.30399
   0.15182   0.40347  -0.33391
   0.00218   0.38851  -0.28902
  -0.05767   0.37354  -0.22917
  -0.10256   0.31369  -0.16931
  -0.35695   0.26880  -0.16931
  -0.37191   0.17901  -0.07953
  -0.61133   0.29872  -0.06457
  -0.68615   0.26880  -0.06457
  -0.74601   0.19398  -0.00471
  -0.86572   0.20894   0.01025
  -0.91061   0.14909   0.02522
  -0.91061   0.13412   0.15989
  -0.95550   0.05930   0.20478
  -0.91061  -5.5E-40   0.27960
  -0.91061  -0.01552   0.36938
  -0.88068  -0.12026   0.48909
  -0.74601  -0.16515   0.60880
  -0.73104  -0.25494   0.66866
  -0.62630  -0.32975   0.68362
  -0.56644  -0.32975   0.78837
  -0.44673  -0.34472   0.86319
  -0.26717  -0.35968   0.96793
  -0.13249  -0.32975   1.01282
  -0.07264  -0.29983   1.05772
   0.04707  -0.31479   1.13253
   0.19671  -0.19508   1.26721
   0.31642  -0.25494   1.31210
   0.43613  -0.29983   1.43181
   0.48102  -0.29983   1.44677
   0.54088  -0.29983   1.46174
   0.57081  -0.21004   1.44677
   0.52591  -0.21004   1.49166
   0.51095  -0.15019   1.49166
   0.51095  -0.21004   1.47670
   0.48102  -0.25494   1.47670
   0.45110  -0.15019   1.44677
   0.37628  -0.13523   1.43181
   0.30146  -0.07537   1.37195
   0.16678  -0.18012   1.26721
   0.21168  -0.07537   1.11757
   0.19671  -0.03048   1.04275
   0.22664   0.05930   0.96793
   0.16678   0.10419   0.81830
   0.09197   0.13412   0.68362
   0.15182   0.13412   0.59384
   0.16678   0.25383   0.56391
   0.16678   0.25383   0.41427
   0.18175   0.23887   0.29456
   0.16678   0.19398   0.05514
   0.09197   0.14909  -0.06457
   0.12189   0.17901  -0.28902
   0.04707   0.10419  -0.34888
   0.07700   0.11916  -0.49852
   0.06204   0.14909  -0.64815
   0.07700   0.13412  -0.76786
   0.04707   0.04434  -0.88757
  -0.01278   0.11916  -0.96239
  -0.05767   0.04434  -1.02225
  -0.10256   0.05930  -1.15692
  -0.08760  -0.03048  -1.18685
  -0.11753  -0.04544  -1.24670
  -0.11753   0.04434  -1.21678
  -0.26717   0.04434  -1.23174
  -0.25220   0.10419  -1.27663
  -0.29709   0.13412  -1.36641
  -0.31206   0.14909  -1.39634
  -0.40184   0.16405  -1.45620
  -0.44673   0.22390  -1.47116
  -0.56644   0.16405  -1.48612
  -0.55148   0.11916  -1.50109
  -0.61133  -5.5E-40  -1.66569
  -0.62630  -5.5E-40  -1.68065
  -0.70111   0.02938  -1.66569
  -0.79090   0.05930  -1.69562
  -0.88068   0.14909  -1.75547
  -0.88068   0.16405  -1.71058
  -0.88068   0.11916  -1.86022
  -0.98543   0.07427  -1.93504
  -0.97046   0.07427  -1.92007
  -0.97046   0.01441  -1.90511
  -0.92557  -5.5E-40  -1.83029
  -0.95550   0.02938  -1.78540
  -0.94053  -5.5E-40  -1.74051
  -0.85075  -5.5E-40  -1.65072
  -0.79090   0.01441  -1.57591
  -0.74601  -5.5E-40  -1.50109
  -0.76097  -5.5E-40  -1.35145
  -0.67119  -0.04544  -1.35145
  -0.61133  -0.07537  -1.24670
  -0.50659  -0.01552  -1.17188
  -0.40184   0.01441  -1.23174
  -0.40184  -0.09033  -1.17188
  -0.25220  -0.01552  -1.03721
  -0.11753  -0.07537  -1.06714
  -0.08760  -5.5E-40  -0.97736
  -0.01278   0.01441  -1.08210
   0.12189   0.07427  -1.00728
   0.25657  -0.03048  -1.05217
   0.34635  -0.04544  -1.06714
   0.49599  -0.03048  -1.03721
   0.66059  -5.5E-40  -1.03721
   0.88504  -0.07537  -1.11203
   1.03468  -0.07537  -1.05217
   1.18432  -0.01552  -1.00728
   1.28907  -0.04544  -1.06714
   1.45367  -0.06041  -1.15692
   1.52849  -0.03048  -1.20181
   1.57338  -0.07537  -1.17188
   1.64820  -0.13523  -1.17188
   1.64820  -0.16515  -1.06714
   1.63323  -0.07537  -1.03721
   1.55841  -0.01552  -1.00728
   1.45367  -0.03048  -0.97736
   1.30403  -0.09033  -0.94743
   1.25914  -0.12026  -0.91750
   1.15439  -0.06041  -0.81275
   0.95986  -0.18012  -0.78283
   0.82519  -0.10530  -0.67808
   0.52591  -0.13523  -0.61823
   0.42117  -0.12026  -0.51348
   0.21168  -0.03048  -0.40873
   0.06204  -0.15019  -0.31895
  -0.07264  -0.16515  -0.18428
  -0.23724  -0.16515  -0.03464
  -0.35695  -0.16515   0.02522
  -0.52155  -0.21004   0.10004
  -0.67119  -0.19508   0.26464
  -0.65622  -0.10530   0.44420
  -0.73104  -0.06041   0.57888
  -0.71608  -0.01552   0.71355
  -0.73104  -5.5E-40   0.87815
  -0.70111  -0.03048   1.04275
  -0.62630   0.01441   1.17743
  -0.67119   0.17901   1.26721
  -0.59637   0.16405   1.31210
  -0.50659   0.28376   1.44677
  -0.47666   0.25383   1.38692
  -0.41680   0.23887   1.50663
  -0.32702   0.20894   1.46174
  -0.26717   0.13412   1.55152
  -0.26717   0.14909   1.58145
  -0.23724   0.17901   1.61137
  -0.17738   0.19398   1.53656
  -0.16242   0.16405   1.32706
  -0.05767   0.19398   1.35699
  -0.17738   0.13412   1.16246
  -0.25220   0.04434   1.04275
  -0.35695   0.07427   0.93801
  -0.41680   0.04434   0.80333
  -0.38688   0.17901   0.72851
  -0.40184   0.14909   0.66866
  -0.44673   0.13412   0.56391
  -0.47666   0.11916   0.42924
  -0.56644   0.11916   0.38435
  -0.58140   0.01441   0.35442
  -0.62630  -0.01552   0.41427
  -0.67119   0.02938   0.47413
  -0.59637   0.11916   0.53398
  -0.56644   0.16405   0.53398
  -0.47666   0.28376   0.60880
  -0.32702   0.23887   0.68362
  -0.23724   0.16405   0.86319
  -0.08760   0.11916   1.01282
   0.03211   0.13412   1.26721
   0.07700   0.08923   1.37195
   0.13686   0.14909   1.53656
   0.22664   0.16405   1.61137
   0.39124   0.08923   1.70116
   0.52591   0.05930   1.88072
   0.58577  -0.07537   1.94058
   0.66059  -0.23997   2.06029
   0.66059  -0.18012   2.19496
   0.64562  -0.37465   2.29971
   0.58577  -0.29983   2.32964
   0.54088  -0.40457   2.32964
   0.49599  -0.41954   2.37453
   0.51095  -0.64399   2.46431
   0.52591  -0.64399   2.46431
   0.48102  -0.64399   2.58402
   0.45110  -0.68888   2.52416
   0.39124  -0.70385   2.49424
   0.37628  -0.62903   2.55409
   0.37628  -0.49436   2.47927
   0.39124  -0.40457   2.34460
   0.45110  -0.43450   2.41942
   0.48102  -0.46443   2.26978
   0.46606  -0.41954   2.19496
   0.42117  -0.41954   2.16503
   0.37628  -0.38961   2.18000
   0.46606  -0.26990   2.06029
   0.43613  -0.13523   1.94058
   0.43613   0.04434   1.89569
   0.48102   0.01441   1.64130
   0.48102   0.02938   1.47670
   0.42117  -0.04544   1.32706
   0.39124   0.02938   1.08764
   0.39124   0.11916   0.99786
   0.37628   0.10419   0.78837
   0.28649   0.17901   0.54895
   0.21168   0.20894   0.29456
   0.06204   0.23887   0.02522
   0.01715   0.20894  -0.15435
  -0.04271   0.22390  -0.36384
  -0.14745   0.31369  -0.48355
  -0.34198   0.38851  -0.75290
  -0.38688   0.50822  -0.82772
  -0.56644   0.59800  -1.00728
  -0.62630   0.61296  -1.06714
  -0.71608   0.65785  -1.24670
  -0.82082   0.67282  -1.24670
  -0.95550   0.65785  -1.35145
  -0.92557   0.82246  -1.18685
  -0.98543   0.79253  -1.33649
  -1.01535   0.82246  -1.29159
  -1.00039   0.85238  -1.17188
  -0.89564   0.82246  -1.09707
  -0.88068   0.77756  -1.03721
  -0.89564   0.71771  -1.20181
  -0.86572   0.68778  -1.06714
  -0.79090   0.56807  -1.02225
  -0.67119   0.58303  -1.00728
  -0.67119   0.47829  -0.91750
  -0.55148   0.35858  -0.85765
  -0.46169   0.28376  -0.78283
  -0.35695   0.25383  -0.78283
  -0.26717   0.08923  -0.79779
  -0.26717  -5.5E-40  -0.94743
  -0.22227  -0.03048  -0.87261
  -0.10256  -0.16515  -0.82772
   0.09197  -0.15019  -0.76786
   0.15182  -0.32975  -0.91750
   0.27153  -0.43450  -0.96239
   0.22664  -0.62903  -1.14196
   0.19671  -0.71881  -1.08210
   0.21168  -0.79363  -1.09707
   0.25657  -0.79363  -1.00728
   0.31642  -0.86845  -1.00728
   0.36131  -0.85349  -0.94743
   0.42117  -0.91334  -1.02225
   0.36131  -0.97320  -1.15692
   0.42117  -0.89838  -1.21678
   0.42117  -0.82356  -1.17188
   0.45110  -0.91334  -1.23174
   0.58577  -0.86845  -1.23174
   0.54088  -0.88341  -1.32152
   0.52591  -0.85349  -1.35145
   0.49599  -0.70385  -1.29159
   0.52591  -0.55421  -1.29159
   0.48102  -0.53925  -1.38138
   0.45110  -0.38961  -1.32152
   0.43613  -0.34472  -1.30656
   0.43613  -0.26990  -1.30656
   0.46606  -0.13523  -1.38138
   0.54088   0.01441  -1.24670
   0.46606   0.08923  -1.23174
   0.54088   0.16405  -1.21678
   0.48102   0.23887  -1.14196
   0.46606   0.22390  -1.15692
   0.39124   0.23887  -1.09707
   0.34635   0.32865  -1.03721
   0.24160   0.44836  -1.06714
   0.09197   0.44836  -1.00728
   0.03211   0.47829  -1.00728
   0.00218   0.46332  -0.88757
  -0.08760   0.49325  -0.91750
  -0.13249   0.46332  -0.85765
  -0.17738   0.62793  -0.81275
  -0.34198   0.62793  -0.91750
  -0.31206   0.70274  -0.81275
  -0.35695   0.68778  -0.87261
  -0.37191   0.70274  -0.94743
  -0.35695   0.79253  -0.96239
  -0.34198   0.74764  -0.91750
  -0.29709   0.76260  -0.94743
  -0.29709   0.76260  -1.05217
  -0.19235   0.59800  -1.03721
  -0.20731   0.61296  -1.06714
  -0.17738   0.47829  -1.02225
  -0.14745   0.46332  -1.09707
  -0.08760   0.38851  -1.09707
  -0.01278   0.29872  -1.03721
  -0.01278   0.19398  -1.08210
   0.03211   0.08923  -1.05217
   0.06204   0.01441  -1.00728
   0.06204  -5.5E-40  -1.06714
   0.09197  -5.5E-40  -1.09707
   0.16678  -0.13523  -1.03721
   0.18175  -0.19508  -0.96239
   0.21168  -0.32975  -1.03721
   0.22664  -0.32975  -0.93246
   0.27153  -0.43450  -0.88757
   0.28649  -0.52428  -0.76786
   0.22664  -0.59910  -0.73794
   0.21168  -0.65896  -0.58830
   0.25657  -0.74874  -0.40873
   0.27153  -0.76370  -0.21420
   0.19671  -0.89838  -0.09449
   0.15182  -0.89838   0.04018
   0.12189  -0.92830   0.24967
   0.15182  -0.76370   0.42924
   0.01715  -0.67392   0.44420
   0.03211  -0.70385   0.56391
  -0.01278  -0.56917   0.69859
  -0.01278  -0.50932   0.86319
  -0.07264  -0.40457   0.90808
  -0.08760  -0.26990   0.90808
  -0.01278  -0.16515   0.92304
   0.04707  -0.13523   0.90808
   0.12189  -0.03048   0.98290
   0.07700  -0.04544   1.01282
   0.03211  -0.01552   0.99786
  -0.01278   0.05930   0.93801
   0.00218   0.17901   0.87815
   0.09197   0.17901   0.86319
   0.15182   0.13412   0.84822
   0.16678   0.14909   0.80333
   0.18175   0.01441   0.80333
   0.18175  -0.04544   0.84822
   0.13686   0.01441   0.89311
   0.13686  -5.5E-40   1.04275
   0.12189  -0.03048   1.05772
   0.01715  -5.5E-40   1.13253
   0.00218  -5.5E-40   1.19239
   0.09197   0.10419   1.31210
   0.03211   0.17901   1.34203
   0.12189   0.26880   1.38692
   0.12189   0.32865   1.52159
   0.10693   0.47829   1.58145
