********************************************************************************
              CENTRO DE INSTRUMENTACION Y REGISTRO SISMICO  A.C.

    Anaxagoras 814, Col. Narvarte, Benito Juarez, C.P. 03020 Mexico, D.F.
           Tels. 5687 45 42/ 5687 45  82             Fax. 5669 25 12
********************************************************************************
ARCHIVO ESTANDAR DE ACELERACION:
VERSION DEL FORMATO                    : 2.0
NOMBRE DEL ARCHIVO                     : AL0120070428135635
FECHA Y HORA DE CREACION               : 06/JUN/07, 10:12
REF. CATALOGO ACELEROGRAMAS, SMIS 1996 : REGISTRO No.     /PAG.


================================================================================
DATOS DE LA ESTACION:
NOMBRE DE LA ESTACION                  : ALAMEDA
CLAVE DE LA ESTACION                   : AL01
LOCALIZACION DE LA ESTACION            : Del. Cuauhtémoc, Col. Centro,          
                                       : Dr. Mora entre Av. Hidalgo             
                                       : y Av. Juárez.                          
                                       :                                        
                                       : 
COORDENADAS DE LA ESTACION             : 19.4356 LAT. N
                                       : 99.1453 LONG. W
ALTITUD (msnm)                         : 2232
TIPO DE SUELO                          : Terreno blando, material compresible
                                       : (arcillas)                
                                       : 
INSTITUCION RESPONSABLE                : CIRES
                                       : 

================================================================================
DATOS DEL ACELEROGRAFO:
MODELO DEL ACELEROGRAFO                : RADESD
NUMERO DE SERIE DEL ACELEROGRAFO       : 010
NUMERO DE CANALES                      : 3
ORIENTACION C1-C6 (rumbo;orientacion)  : /N00E/+V/N90W
ORIENTACION C7-C12 (rumbo;orientacion) : 
VEL. DE MUESTREO, C1-C6 (muestras/s)   : /100/100/100
VEL. DE MUESTREO, C7-C12 (muestras/s)  : 
ESC. COMPLETA DE SENSORES, C1-C6, (g)  : /0.5/0.5/0.5
ESC. COMPLETA DE SENSORES, C7-C12, (g) : 
FREC. NAT. DE SENSORES, C1-C6, (Hz)    : /51.29/51.09/53.75
FREC. NAT. DE SENSORES, C7-C12, (Hz)   : 
AMORTIGUAMIENTO DE SENSORES, C1-C6     : /0.5519/0.5670/0.5810
AMORTIGUAMIENTO DE SENSORES, C7-C12    : 
INTERVALO DE MUESTREO, C1-C6, (s)      : /0.01/0.01/0.01
INTERVALO DE MUESTREO, C7-C12, (s)     : 
UMBRAL DE DISPARO, C1-C6, (Gal)        : /0.72/2.63/0.72
UMBRAL DE DISPARO, C7-C12, (Gal)       : 
MEMORIA DE PREEVENTO (s)               : 56.0
TIEMPO DE POSEVENTO (s)                : 64.0


================================================================================
DATOS DEL SISMO:
FECHA DEL SISMO (GMT)                  : 28/ABR/07
HORA EPICENTRO (GMT)                   : 13:56:35.0
MAGNITUD(ES)                           : /Mc=5.0
COORDENADAS DEL EPICENTRO              : 16.94 LAT. N
                                       : 99.82 LONG. W
PROFUNDIDAD FOCAL (km)                 : 9
FUENTE DE LOS DATOS EPICENTRALES       : SSN
                                       : INSTITUTO DE GEOFISICA, UNAM

================================================================================
DATOS DE ESTE REGISTRO:
HORA DE LA PRIMERA MUESTRA (GMT)       : 13:58:01.00
EXACTITUD DEL TIEMPO (s)               : 0.01
DURACION DEL REGISTRO (s), C1-C6       : /120.0/120.0/120.0
DURACION DEL REGISTRO (s), C7-C12      : 
NUM. TOTAL DE MUESTRAS, C1-C6          : /12000/12000/12000
NUM. TOTAL DE MUESTRAS, C7-C12         : 
ACEL. MAX. (Gal), C1-C6                : /1.43652/0.95768/1.43652
ACEL. MAX., C1-C6, EN LA MUESTRA       : /6200/6564/6250
ACEL. MAX. (Gal), C7-C12               : 
ACEL. MAX., C7-C12, EN LA MUESTRA      : 
UNIDADES DE LOS DATOS                  : Gal (cm/s/s)
FACTOR DE DECIMACION                   : 1
FORMATO DATOS (FORTRAN,10 campos/dato) : 3F10.5


================================================================================
CALIDAD DEL ACELEROGRAMA:
REGISTRO DIGITAL COMPLETO CON TIEMPO ABSOLUTO CORRECTO.


================================================================================
COMENTARIOS:














================================================================================
DATOS DE ACELERACION:
---------+---------+---------+---------+---------+---------+---------+---------+
   CANAL-1   CANAL-2   CANAL-3   CANAL-4   CANAL-5   CANAL-6   CANAL-7   CANAL-8
      N00E        +V      N90W
---------+---------+---------+---------+---------+---------+---------+---------+
[...]
   0.00000  -0.23942   0.00000
   0.00000  -0.23942   0.23942
   0.23942  -0.23942   0.23942
   0.00000   0.00000   0.00000
   0.00000   0.00000   0.00000
   0.00000   0.00000   0.00000
   0.00000  -0.23942   0.00000
   0.23942  -0.23942  -0.23942
  -0.23942  -0.23942  -0.23942
   0.23942  -0.23942  -0.23942
   0.23942  -0.23942  -0.47884
   0.00000  -0.23942  -0.47884
   0.00000  -0.23942  -0.47884
   0.23942  -0.23942  -0.71826
   0.23942  -0.23942  -0.47884
   0.23942   0.00000  -0.47884
   0.00000  -0.23942  -0.47884
   0.00000  -0.23942  -0.71826
   0.23942  -0.23942  -0.71826
   0.00000  -0.23942  -0.71826
   0.00000  -0.23942  -0.47884
   0.00000  -0.23942  -0.47884
   0.00000  -0.23942  -0.71826
  -0.23942  -0.23942  -0.47884
  -0.23942  -0.23942  -0.71826
   0.00000  -0.23942  -0.47884
  -0.23942  -0.23942  -0.47884
  -0.23942  -0.23942  -0.47884
  -0.47884   0.00000  -0.23942
  -0.23942  -0.23942  -0.47884
  -0.47884   0.00000  -0.23942
  -0.47884  -0.23942  -0.23942
  -0.23942  -0.23942  -0.47884
  -0.23942  -0.23942  -0.23942
  -0.47884  -0.23942  -0.23942
  -0.47884  -0.23942  -0.23942
  -0.47884  -0.47884  -0.23942
  -0.71826  -0.23942  -0.23942
  -0.47884  -0.47884  -0.23942
  -0.23942  -0.23942  -0.47884
  -0.47884  -0.23942  -0.23942
  -0.23942  -0.47884  -0.47884
  -0.47884   0.00000  -0.47884
  -0.47884  -0.23942  -0.23942
  -0.47884  -0.23942  -0.23942
  -0.23942  -0.23942  -0.23942
  -0.23942   0.00000  -0.47884
  -0.23942   0.00000   0.00000
  -0.23942  -0.23942   0.00000
  -0.23942   0.00000  -0.23942
   0.00000   0.00000   0.00000
   0.00000   0.00000   0.00000
   0.00000   0.00000   0.23942
   0.23942  -0.23942   0.23942
   0.00000   0.00000   0.23942
   0.00000   0.00000   0.71826
   0.23942  -0.23942   0.47884
   0.23942  -0.23942   0.47884
   0.00000   0.00000   0.47884
   0.00000   0.00000   0.71826
   0.23942   0.00000   0.47884
   0.23942   0.00000   0.71826
   0.00000   0.23942   0.71826
   0.23942   0.23942   0.47884
   0.23942   0.00000   0.71826
   0.00000   0.23942   0.71826
   0.00000   0.23942   0.47884
   0.00000   0.23942   0.47884
   0.00000   0.23942   0.47884
   0.00000   0.23942   0.47884
  -0.23942   0.23942   0.00000
  -0.47884   0.23942   0.23942
  -0.23942   0.00000   0.23942
  -0.47884   0.23942   0.00000
  -0.47884   0.00000   0.00000
  -0.47884   0.00000   0.00000
  -0.47884   0.00000   0.00000
  -0.23942   0.00000  -0.47884
  -0.47884   0.00000  -0.23942
  -0.47884  -0.47884  -0.23942
  -0.23942  -0.23942  -0.47884
  -0.23942  -0.23942  -0.23942
  -0.23942  -0.23942  -0.23942
  -0.23942  -0.23942  -0.23942
  -0.23942  -0.47884  -0.47884
   0.00000  -0.47884  -0.47884
   0.00000  -0.23942  -0.23942
  -0.23942  -0.47884  -0.23942
   0.00000  -0.23942  -0.23942
   0.23942  -0.47884  -0.23942
   0.23942  -0.23942   0.00000
   0.47884  -0.23942   0.00000
   0.47884  -0.47884   0.00000
   0.23942  -0.47884   0.00000
   0.47884  -0.23942   0.23942
   0.23942  -0.23942   0.23942
   0.47884  -0.23942   0.23942
   0.47884  -0.23942   0.47884
   0.47884   0.00000   0.47884
   0.47884  -0.23942   0.47884
   0.47884  -0.23942   0.47884
   0.47884   0.00000   0.71826
   0.47884   0.00000   0.47884
   0.47884   0.00000   0.71826
   0.47884   0.00000   0.71826
   0.23942   0.23942   0.47884
   0.23942   0.00000   0.71826
   0.47884   0.00000   0.47884
   0.23942   0.23942   0.47884
   0.23942   0.23942   0.23942
   0.23942   0.00000   0.23942
   0.23942   0.00000   0.23942
   0.23942   0.23942  -0.23942
   0.23942   0.00000  -0.23942
   0.23942   0.00000  -0.23942
   0.23942   0.00000  -0.23942
   0.23942   0.00000  -0.47884
   0.23942  -0.23942  -0.71826
   0.00000  -0.23942  -0.71826
   0.23942  -0.23942  -0.71826
   0.23942  -0.23942  -0.71826
   0.00000  -0.23942  -0.71826
   0.00000  -0.23942  -0.71826
   0.00000  -0.23942  -0.95768
   0.00000   0.00000  -0.95768
   0.00000   0.00000  -0.71826
   0.00000   0.00000  -0.71826
   0.23942   0.00000  -0.95768
   0.00000   0.00000  -0.71826
   0.23942   0.23942  -0.71826
   0.23942   0.00000  -0.71826
   0.47884   0.00000  -0.71826
   0.23942   0.00000  -0.71826
   0.23942   0.23942  -0.47884
   0.47884   0.23942  -0.71826
   0.23942   0.00000  -0.23942
   0.23942   0.23942  -0.47884
   0.00000   0.23942  -0.23942
   0.23942   0.00000  -0.47884
   0.23942   0.23942  -0.23942
   0.00000   0.23942  -0.47884
   0.23942   0.00000  -0.47884
   0.23942   0.00000  -0.23942
   0.47884   0.23942  -0.23942
   0.23942   0.23942  -0.47884
   0.23942   0.00000  -0.23942
   0.47884   0.00000  -0.47884
   0.47884   0.00000  -0.23942
   0.23942   0.00000  -0.47884
   0.47884   0.00000   0.00000
   0.71826  -0.23942  -0.23942
   0.23942   0.00000  -0.23942
   0.23942   0.00000  -0.47884
   0.23942   0.00000  -0.23942
   0.23942   0.00000   0.00000
   0.23942   0.00000   0.00000
   0.23942  -0.23942  -0.23942
   0.00000  -0.23942   0.00000
   0.00000  -0.23942  -0.23942
   0.00000  -0.23942  -0.23942
   0.00000  -0.23942   0.00000
  -0.23942  -0.23942   0.00000
   0.00000  -0.23942   0.00000
  -0.23942  -0.23942   0.00000
  -0.47884   0.00000   0.00000
  -0.47884  -0.23942   0.23942
  -0.47884  -0.47884   0.00000
  -0.47884  -0.47884   0.23942
  -0.71826  -0.23942   0.47884
  -0.71826  -0.23942   0.23942
  -0.47884  -0.47884   0.23942
  -0.47884  -0.23942   0.47884
  -0.47884  -0.23942   0.23942
  -0.71826  -0.47884   0.23942
  -0.47884  -0.47884   0.47884
   0.00000  -0.23942   0.47884
  -0.23942   0.00000   0.47884
   0.00000  -0.23942   0.23942
  -0.23942  -0.23942   0.47884
   0.00000   0.00000   0.47884
   0.23942   0.00000   0.47884
   0.23942   0.00000   0.71826
   0.23942  -0.23942   0.47884
   0.23942   0.00000   0.23942
   0.23942   0.23942   0.47884
   0.23942   0.00000   0.23942
   0.23942   0.23942   0.23942
   0.23942   0.00000   0.23942
   0.23942   0.23942   0.47884
   0.23942   0.00000   0.23942
   0.23942   0.23942   0.00000
   0.00000   0.23942   0.23942
   0.23942   0.00000   0.00000
   0.00000   0.00000   0.00000
   0.23942   0.00000  -0.23942
   0.00000   0.00000  -0.23942
   0.00000  -0.23942   0.00000
   0.23942  -0.23942  -0.23942
   0.23942  -0.23942  -0.23942
   0.00000  -0.23942  -0.23942
   0.00000  -0.47884  -0.23942
   0.00000  -0.47884  -0.47884
   0.00000  -0.23942  -0.23942
  -0.23942  -0.23942  -0.23942
  -0.23942  -0.47884  -0.23942
  -0.23942  -0.23942  -0.47884
  -0.23942  -0.23942  -0.23942
  -0.47884   0.00000  -0.23942
  -0.71826  -0.23942   0.00000
  -0.47884  -0.23942   0.00000
  -0.71826  -0.23942   0.00000
  -0.71826   0.00000   0.00000
  -0.71826  -0.23942   0.00000
  -0.71826  -0.23942   0.23942
  -0.71826   0.00000   0.00000
  -0.71826   0.00000   0.23942
  -0.71826  -0.23942   0.23942
  -0.71826   0.00000   0.47884
  -0.71826   0.00000   0.00000
  -0.71826   0.00000   0.00000
  -0.47884  -0.23942   0.23942
  -0.47884   0.00000   0.00000
  -0.47884   0.00000   0.00000
  -0.47884   0.23942   0.00000
  -0.23942   0.23942   0.00000
  -0.23942   0.00000  -0.23942
  -0.23942   0.23942  -0.47884
  -0.23942   0.23942  -0.47884
   0.23942   0.23942  -0.71826
   0.23942   0.00000  -0.71826
   0.23942   0.00000  -0.71826
   0.47884   0.00000  -0.95768
   0.47884  -0.23942  -0.95768
   0.47884  -0.23942  -1.19710
   0.47884  -0.23942  -0.95768
   0.47884  -0.23942  -1.19710
   0.71826  -0.23942  -1.19710
   0.71826  -0.23942  -0.95768
   0.47884  -0.23942  -0.95768
   0.71826  -0.23942  -0.95768
   0.71826  -0.23942  -0.95768
   0.71826  -0.23942  -0.95768
   0.47884  -0.23942  -0.95768
   0.47884  -0.47884  -0.71826
   0.47884  -0.47884  -0.47884
   0.47884  -0.23942  -0.71826
   0.47884   0.00000  -0.47884
   0.23942  -0.23942  -0.47884
   0.23942  -0.23942  -0.47884
   0.23942   0.00000  -0.47884
   0.00000   0.00000  -0.23942
   0.00000   0.00000   0.00000
   0.00000   0.00000   0.00000
  -0.47884   0.00000  -0.23942
  -0.47884   0.00000   0.00000
  -0.71826   0.00000   0.00000
  -0.47884   0.23942   0.23942
  -0.47884   0.47884   0.23942
  -0.71826   0.23942   0.47884
  -0.71826   0.23942   0.47884
  -0.47884   0.00000   0.23942
  -0.47884   0.23942   0.47884
  -0.47884   0.23942   0.23942
  -0.47884   0.23942   0.47884
  -0.47884   0.23942   0.47884
  -0.47884   0.00000   0.47884
  -0.47884   0.00000   0.71826
  -0.47884   0.00000   0.23942
  -0.23942   0.00000   0.23942
  -0.23942  -0.23942   0.23942
  -0.23942  -0.23942   0.23942
  -0.23942  -0.23942   0.23942
   0.00000  -0.47884   0.00000
   0.00000  -0.23942   0.00000
   0.00000  -0.23942   0.23942
   0.23942  -0.47884   0.00000
   0.23942  -0.47884   0.00000
   0.23942  -0.47884   0.00000
   0.23942  -0.23942  -0.23942
   0.47884  -0.47884  -0.23942
   0.47884  -0.23942  -0.23942
   0.23942  -0.23942  -0.47884
   0.47884  -0.23942  -0.47884
   0.71826  -0.23942  -0.23942
   0.71826   0.00000  -0.47884
   0.47884   0.00000  -0.47884
   0.71826   0.00000  -0.23942
   0.95768   0.00000  -0.47884
   0.95768   0.23942  -0.47884
   0.71826   0.23942  -0.47884
   0.95768   0.23942   0.00000
   0.95768   0.23942   0.00000
   0.95768   0.23942  -0.23942
   0.71826   0.23942  -0.23942
   0.47884   0.23942  -0.23942
   0.71826   0.23942  -0.23942
   0.71826   0.23942  -0.47884
   0.47884   0.23942   0.00000
   0.47884   0.23942   0.00000
   0.47884   0.23942  -0.23942
   0.47884   0.23942   0.00000
   0.23942   0.00000   0.00000
   0.23942   0.23942   0.00000
   0.23942   0.00000   0.00000
   0.23942   0.00000   0.00000
   0.00000   0.00000   0.00000
   0.00000   0.00000   0.00000
   0.00000   0.00000   0.00000
  -0.23942   0.00000   0.23942
  -0.23942  -0.23942   0.00000
  -0.23942  -0.23942   0.23942
  -0.23942  -0.23942   0.23942
  -0.47884  -0.47884   0.23942
  -0.47884  -0.23942   0.23942
  -0.47884  -0.23942   0.23942
  -0.47884  -0.47884   0.47884
  -0.71826  -0.23942   0.47884
  -0.95768  -0.23942   0.47884
  -0.71826  -0.47884   0.47884
  -0.95768  -0.71826   0.47884
  -0.95768  -0.23942   0.71826
  -0.95768  -0.23942   0.71826
  -0.95768  -0.23942   0.95768
  -0.95768  -0.23942   0.95768
  -0.95768  -0.23942   0.95768
  -0.95768  -0.23942   0.95768
  -0.95768  -0.23942   0.95768
  -0.71826  -0.23942   0.95768
  -0.71826  -0.23942   0.71826
  -0.71826  -0.47884   0.95768
  -0.71826  -0.47884   0.95768
  -0.47884  -0.47884   0.71826
  -0.47884  -0.47884   0.71826
  -0.23942  -0.71826   0.95768
   0.00000  -0.71826   0.95768
   0.23942  -0.47884   0.95768
   0.00000  -0.71826   0.95768
   0.23942  -0.71826   0.95768
   0.47884  -0.71826   0.47884
   0.71826  -0.71826   0.47884
   0.71826  -0.47884   0.47884
   0.71826  -0.71826   0.47884
   0.95768  -0.47884   0.47884
   1.19710  -0.23942   0.47884
   0.95768  -0.23942   0.47884
   1.19710  -0.23942   0.23942
   1.43652  -0.23942   0.23942
   1.43652  -0.23942   0.23942
   1.43652   0.00000   0.23942
   1.19710  -0.23942   0.23942
   1.43652   0.00000   0.00000
   1.19710   0.00000   0.23942
   1.19710   0.23942   0.23942
   0.95768   0.23942   0.00000
   0.95768   0.23942   0.00000
   0.71826   0.47884  -0.23942
   0.95768   0.47884  -0.23942
   0.95768   0.23942  -0.23942
   0.47884   0.47884  -0.23942
   0.23942   0.47884  -0.23942
   0.23942   0.47884  -0.47884
   0.23942   0.23942  -0.23942
   0.23942   0.23942  -0.47884
   0.00000   0.47884  -0.47884
  -0.23942   0.47884  -0.47884
  -0.47884   0.47884  -0.47884
  -0.47884   0.47884  -0.47884
  -0.71826   0.47884  -0.71826
  -0.71826   0.23942  -0.47884
  -0.71826   0.23942  -0.71826
  -0.95768   0.23942  -0.95768
  -0.95768   0.23942  -0.71826
  -0.95768   0.00000  -0.71826
  -0.95768   0.00000  -0.71826
  -0.95768   0.00000  -0.95768
  -0.95768   0.00000  -0.95768
  -0.95768  -0.23942  -0.71826
  -0.95768  -0.23942  -0.95768
  -0.95768  -0.23942  -0.95768
  -0.95768  -0.23942  -0.95768
  -1.19710  -0.23942  -0.95768
  -0.95768  -0.23942  -0.95768
  -0.95768  -0.23942  -1.19710
  -1.19710   0.00000  -1.19710
  -0.95768   0.23942  -1.19710
  -0.95768  -0.23942  -1.19710
  -0.71826  -0.23942  -1.19710
  -0.95768   0.00000  -1.19710
  -0.95768   0.00000  -1.19710
  -0.95768   0.00000  -1.19710
  -0.71826   0.00000  -1.19710
  -0.95768   0.00000  -1.19710
  -0.71826   0.00000  -1.19710
  -0.47884  -0.23942  -1.19710
  -0.47884   0.00000  -1.19710
  -0.47884   0.00000  -1.19710
  -0.23942   0.00000  -1.43652
  -0.23942   0.00000  -0.95768
   0.00000   0.23942  -1.19710
   0.00000   0.23942  -0.95768
   0.00000   0.00000  -0.71826
   0.47884   0.00000  -0.95768
   0.47884   0.23942  -0.71826
   0.47884   0.00000  -0.71826
   0.47884  -0.23942  -0.71826
   0.71826   0.00000  -0.47884
   0.71826   0.00000  -0.47884
   0.71826   0.00000  -0.23942
   0.95768  -0.23942  -0.23942
   0.95768  -0.23942  -0.23942
   0.95768  -0.23942  -0.23942
   0.71826  -0.23942   0.00000
   0.95768  -0.23942   0.00000
   0.95768  -0.47884   0.00000
   0.71826  -0.47884   0.23942
   0.47884  -0.47884   0.23942
   0.47884  -0.71826   0.00000
   0.23942  -0.71826   0.47884
   0.23942  -0.71826   0.23942
   0.00000  -0.47884   0.47884
  -0.23942  -0.71826   0.47884
  -0.23942  -0.47884   0.23942
  -0.47884  -0.47884   0.47884
  -0.47884  -0.23942   0.23942
  -0.47884  -0.23942   0.47884
  -0.71826  -0.47884   0.47884
  -0.71826  -0.23942   0.47884
  -0.71826  -0.23942   0.47884
  -0.95768   0.00000   0.47884
  -0.47884   0.00000   0.23942
  -0.47884   0.00000   0.23942
  -0.47884   0.00000   0.47884
  -0.71826   0.00000   0.47884
  -0.47884   0.00000   0.23942
   0.00000   0.23942   0.23942
   0.00000   0.23942   0.23942
   0.00000   0.23942   0.23942
   0.23942   0.23942   0.00000
   0.23942   0.23942   0.23942
   0.23942   0.47884   0.23942
   0.47884   0.23942   0.00000
   0.47884   0.23942   0.00000
   0.47884   0.23942   0.23942
   0.71826   0.47884   0.23942
   0.95768   0.23942   0.23942
   0.71826   0.00000   0.23942
   0.71826   0.00000   0.23942
   0.71826   0.23942   0.23942
   0.95768   0.00000   0.23942
   0.95768   0.00000   0.47884
   0.71826   0.00000   0.47884
   0.71826   0.00000   0.71826
   0.71826  -0.23942   0.71826
   0.71826  -0.23942   0.47884
   0.71826  -0.23942   0.47884
   0.47884  -0.23942   0.71826
   0.47884  -0.47884   0.95768
   0.23942  -0.47884   0.71826
   0.23942  -0.23942   0.95768
   0.23942  -0.47884   0.71826
   0.23942  -0.47884   0.71826
   0.00000  -0.23942   0.95768
   0.00000  -0.47884   0.47884
   0.00000  -0.47884   0.71826
   0.00000  -0.47884   0.71826
   0.00000  -0.23942   0.47884
   0.00000  -0.47884   0.47884
   0.00000  -0.47884   0.23942
   0.00000  -0.23942   0.23942
   0.00000  -0.23942   0.00000
   0.00000  -0.23942   0.00000
   0.00000  -0.47884  -0.23942
   0.23942  -0.23942  -0.23942
   0.23942   0.00000  -0.23942
   0.00000   0.00000  -0.23942
   0.23942   0.00000  -0.47884
   0.23942  -0.23942  -0.47884
   0.00000   0.00000  -0.47884
   0.00000   0.00000  -0.47884
   0.23942  -0.23942  -0.47884
   0.23942  -0.23942  -0.47884
   0.23942   0.00000  -0.47884
   0.00000   0.00000  -0.47884
   0.00000  -0.23942  -0.47884
   0.00000   0.00000  -0.23942
  -0.23942   0.23942  -0.23942
  -0.23942   0.23942  -0.23942
  -0.47884   0.00000   0.00000
  -0.23942   0.00000  -0.23942
  -0.23942   0.23942  -0.23942
  -0.47884   0.00000   0.00000
  -0.47884   0.00000   0.00000
  -0.47884   0.00000   0.23942
  -0.47884   0.00000   0.23942
  -0.47884   0.00000   0.47884
  -0.47884   0.00000   0.47884
