********************************************************************************
               CENTRO DE INSTRUMENTACION Y REGISTRO SISMICO  A.C.  
                       Coordinacion de Servicios Tecnicos
     Anaxagoras 814, Col. Narvarte, Benito Juarez, C.P. 03020 Mexico, D.F.
            Tels. 667 45 42/ 687 45  82             Fax. 669 25 12
********************************************************************************
ARCHIVO ESTANDAR DE ACELERACION:
VERSION DEL FORMATO                    : 2.0
NOMBRE DEL ARCHIVO                     : AL019712.221
FECHA Y HORA DE CREACION               : 18/MAR/98, 13:30
REF. CATALOGO ACELEROGRAMAS, SMIS 1996 : REGISTRO No.     /PAG.


================================================================================
DATOS DE LA ESTACION:
NOMBRE DE LA ESTACION                  : ALAMEDA
CLAVE DE LA ESTACION                   : AL01
LOCALIZACION DE LA ESTACION            : JARDIN ALAMEDA ENTRE AV. HIDALGO Y AV.
                                       : JUAREZ, CENTRO
                                       :
                                       :
                                       :
COORDENADAS DE LA ESTACION             : 19.436 LAT. N 
                                       : 99.145 LONG. W 
ALTITUD (msnm)                         : 2232
TIPO DE SUELO                          : TERRENO BLANDO, MATERIAL COMPRESIBLE
                                       : (ARCILLAS)
                                       : 
INSTITUCION RESPONSABLE                : CIRES 
                                       :

================================================================================
DATOS DEL ACELEROGRAFO:
MODELO DEL ACELEROGRAFO                : SSA-1
NUMERO DE SERIE DEL ACELEROGRAFO       : 152
NUMERO DE CANALES                      : 3
ORIENTACION C1-C6 (rumbo;orientacion)  : /N00E/+V/N90E
ORIENTACION C7-C12 (rumbo;orientacion) :
VEL. DE MUESTREO, C1-C6 (muestras/s)   : /200/200/200
VEL. DE MUESTREO, C7-C12 (muestras/s)  :
ESC. COMPLETA DE SENSORES, C1-C6, (g)  : /2/2/2
ESC. COMPLETA DE SENSORES, C7-C12, (g) :
FREC. NAT. DE SENSORES, C1-C6, (Hz)    : /51.29/51.09/53.75
FREC. NAT. DE SENSORES, C7-C12, (Hz)   :
AMORTIGUAMIENTO DE SENSORES, C1-C6     : /.5519/.5670/.5810
AMORTIGUAMIENTO DE SENSORES, C7-C12    :
INTERVALO DE MUESTREO, C1-C6, (s)      : /0.005/0.005/0.005
INTERVALO DE MUESTREO, C7-C12, (s)     :
UMBRAL DE DISPARO, C1-C6, (Gal)        : /2/1.5/2
UMBRAL DE DISPARO, C7-C12, (Gal)       :
MEMORIA DE PREEVENTO (s)               : 15
TIEMPO DE POSEVENTO (s)                : 60


================================================================================
DATOS DEL SISMO:
FECHA DEL SISMO (GMT)                  : 22/DIC/97
HORA EPICENTRO (GMT)                   : 05:22:07:8
MAGNITUD(ES)                           : /Ms=5.0
COORDENADAS DEL EPICENTRO              : 17.1 LAT. N
                                       : 101.2 LONG. W
PROFUNDIDAD FOCAL (km)                 : 5.0
FUENTE DE LOS DATOS EPICENTRALES       : SSN
                                       : INSTITUTO DE GEOFISICA, UNAM

================================================================================
DATOS DE ESTE REGISTRO:
HORA DE LA PRIMERA MUESTRA (GMT)       : 05:23:38.00
EXACTITUD DEL TIEMPO (s)               :     
DURACION DEL REGISTRO (s), C1-C6       : /94.72/94.72/94.72
DURACION DEL REGISTRO (s), C7-C12      :
NUM. TOTAL DE MUESTRAS, C1-C6          : /18944/18944/18944
NUM. TOTAL DE MUESTRAS, C7-C12         :
ACEL. MAX. (Gal), C1-C6                : /2.96339/1.12628/2.95471
ACEL. MAX., C1-C6, EN LA MUESTRA       :
ACEL. MAX. (Gal), C7-C12               :
ACEL. MAX., C7-C12, EN LA MUESTRA      :
UNIDADES DE LOS DATOS                  : Gal (cm/s/s)
FACTOR DE DECIMACION                   : 1
FORMATO DATOS (FORTRAN,10 campos/dato) : 3F10.5


================================================================================
CALIDAD DEL ACELEROGRAMA:
REGISTRO DIGITAL COMPLETO, CARECE DE TIEMPO ABSOLUTO.


================================================================================
COMENTARIOS:














================================================================================
DATOS DE ACELERACION:
---------+---------+---------+---------+---------+---------+---------+---------+
   CANAL-1   CANAL-2   CANAL-3   CANAL-4   CANAL-5   CANAL-6   CANAL-7   CANAL-8
      N00E        +V      N90E
---------+---------+---------+---------+---------+---------+---------+---------+
[...]
  -0.14661   0.07372   1.59529
  -0.38661   0.31372   1.59529
  -0.14661   0.31372   1.83529
  -0.38661   0.55372   1.83529
  -0.38661   0.55372   1.59529
  -0.38661   0.55372   1.59529
  -0.38661   0.31372   1.35529
  -0.14661   0.31372   1.11529
  -0.14661   0.31372   1.11529
  -0.14661   0.31372   1.11529
  -0.14661   0.31372   1.11529
  -0.14661   0.55372   1.11529
  -0.14661   0.55372   0.87529
  -0.14661   0.55372   0.87529
  -0.14661   0.55372   0.63529
  -0.14661   0.55372   0.63529
   0.09339   0.55372   0.39529
   0.09339   0.55372   0.39529
   0.09339   0.31372   0.39529
   0.09339   0.31372   0.15529
   0.09339   0.31372   0.15529
   0.09339   0.31372   0.15529
   0.33339   0.31372   0.15529
   0.33339   0.31372  -0.08471
   0.33339   0.31372  -0.08471
   0.33339   0.31372  -0.08471
   0.57339   0.31372  -0.08471
   0.57339   0.31372  -0.32471
   0.57339   0.31372  -0.32471
   0.57339   0.07372  -0.32471
   0.57339   0.07372  -0.32471
   0.57339   0.07372  -0.32471
   0.81339   0.07372  -0.32471
   0.81339  -0.40628  -0.56471
   1.05339  -0.16628  -0.32471
   0.81339  -0.16628  -0.56471
   0.81339  -0.16628  -0.56471
   1.05339   0.07372  -0.56471
   0.81339   0.07372  -0.56471
   0.81339   0.07372  -0.56471
   1.05339   0.07372  -0.56471
   1.05339  -0.16628  -0.56471
   1.05339  -0.16628  -0.56471
   1.05339  -0.16628  -0.80471
   1.05339  -0.16628  -0.80471
   1.05339  -0.16628  -0.80471
   1.05339  -0.40628  -0.80471
   1.05339  -0.16628  -0.56471
   1.05339  -0.40628  -0.56471
   1.05339  -0.40628  -0.56471
   1.05339  -0.40628  -0.80471
   0.81339  -0.40628  -0.56471
   0.81339  -0.40628  -0.56471
   0.81339  -0.40628  -0.56471
   0.81339  -0.40628  -0.56471
   0.57339  -0.40628  -0.56471
   0.81339  -0.40628  -0.56471
   0.81339  -0.40628  -0.56471
   0.57339  -0.40628  -0.56471
   0.57339  -0.64628  -0.56471
   0.57339  -0.40628  -0.56471
   0.57339  -0.40628  -0.56471
   0.57339  -0.64628  -0.56471
   0.57339  -0.64628  -0.56471
   0.57339  -0.64628  -0.56471
   0.33339  -0.64628  -0.56471
   0.33339  -0.40628  -0.56471
   0.33339  -0.64628  -0.56471
   0.33339  -0.40628  -0.32471
   0.33339  -0.40628  -0.56471
   0.33339  -0.40628  -0.56471
   0.33339  -0.40628  -0.56471
   0.33339  -0.40628  -0.56471
   0.33339  -0.40628  -0.56471
   0.33339  -0.40628  -0.56471
   0.33339  -0.40628  -0.56471
   0.33339  -0.40628  -0.56471
   0.57339  -0.40628  -0.56471
   0.57339  -0.40628  -0.56471
   0.57339  -0.40628  -0.56471
   0.57339  -0.40628  -0.56471
   0.57339  -0.40628  -0.80471
   0.57339  -0.40628  -0.80471
   0.57339  -0.40628  -0.56471
   0.57339  -0.40628  -0.56471
   0.57339  -0.16628  -0.80471
   0.57339  -0.16628  -0.80471
   0.57339   0.07372  -0.80471
   0.57339   0.07372  -0.80471
   0.57339   0.07372  -0.80471
   0.57339   0.07372  -0.56471
   0.57339   0.07372  -0.56471
   0.33339   0.07372  -0.56471
   0.57339   0.07372  -0.56471
   0.57339   0.07372  -0.56471
   0.57339   0.07372  -0.56471
   0.57339   0.07372  -0.56471
   0.57339   0.07372  -0.56471
   0.57339   0.07372  -0.56471
   0.57339   0.07372  -0.32471
   0.57339   0.07372  -0.32471
   0.33339   0.07372  -0.32471
   0.33339   0.07372  -0.08471
   0.33339   0.07372  -0.08471
   0.33339   0.07372  -0.08471
   0.33339   0.07372  -0.08471
   0.09339   0.07372  -0.08471
   0.09339   0.07372   0.15529
   0.09339   0.07372   0.15529
   0.09339   0.07372   0.15529
   0.09339   0.31372   0.15529
  -0.14661   0.31372   0.39529
  -0.14661   0.31372   0.39529
  -0.14661   0.31372   0.39529
  -0.14661   0.31372   0.63529
  -0.38661   0.31372   0.63529
  -0.38661   0.31372   0.63529
  -0.38661   0.31372   0.63529
  -0.62661   0.31372   0.63529
  -0.62661   0.31372   0.87529
  -0.62661   0.31372   0.87529
  -0.62661   0.31372   0.87529
  -0.86661   0.31372   0.87529
  -0.86661   0.31372   0.87529
  -0.86661   0.31372   0.87529
  -1.10661   0.07372   0.87529
  -1.10661   0.31372   0.87529
  -1.10661   0.31372   0.87529
  -1.10661   0.31372   0.87529
  -1.10661   0.07372   0.87529
  -1.34661   0.07372   0.87529
  -1.34661   0.07372   0.63529
  -1.34661   0.07372   0.63529
  -1.34661   0.07372   0.63529
  -1.58661  -0.40628   0.63529
  -1.58661   0.07372   0.63529
  -1.58661   0.07372   0.63529
  -1.58661   0.07372   0.39529
  -1.82661   0.07372   0.39529
  -1.82661   0.07372   0.15529
  -1.82661   0.07372   0.15529
  -1.82661   0.07372  -0.08471
  -1.82661   0.07372  -0.08471
  -1.82661   0.07372  -0.32471
  -1.82661   0.07372  -0.32471
  -1.82661   0.07372  -0.32471
  -1.82661   0.07372  -0.56471
  -1.82661   0.07372  -0.56471
  -1.82661   0.07372  -0.56471
  -1.82661   0.07372  -0.80471
  -1.82661   0.07372  -0.80471
  -1.82661   0.07372  -0.80471
  -1.82661   0.07372  -1.04471
  -1.82661   0.07372  -1.04471
  -1.82661   0.07372  -1.28471
  -1.58661   0.07372  -1.28471
  -1.58661   0.07372  -1.28471
  -1.82661   0.07372  -1.52471
  -1.58661   0.07372  -1.52471
  -1.34661   0.07372  -1.52471
  -1.34661   0.07372  -1.52471
  -1.34661   0.31372  -1.75471
  -1.34661   0.31372  -1.75471
  -1.34661   0.31372  -1.75471
  -1.10661   0.31372  -1.99471
  -1.10661   0.31372  -1.99471
  -1.10661   0.31372  -1.99471
  -0.86661   0.31372  -1.99471
  -0.86661   0.31372  -1.99471
  -0.86661   0.31372  -1.99471
  -0.86661   0.31372  -1.99471
  -0.86661   0.31372  -1.99471
  -0.86661   0.31372  -1.99471
  -0.86661   0.31372  -1.99471
  -0.62661   0.31372  -1.99471
  -0.62661   0.31372  -1.99471
  -0.38661   0.31372  -1.75471
  -0.38661   0.07372  -1.75471
  -0.14661   0.31372  -1.75471
  -0.14661   0.31372  -1.75471
  -0.14661   0.31372  -1.75471
  -0.14661   0.31372  -1.75471
  -0.14661   0.31372  -1.75471
   0.09339   0.31372  -1.52471
   0.09339   0.31372  -1.52471
   0.09339   0.07372  -1.52471
   0.09339   0.07372  -1.52471
   0.09339   0.07372  -1.28471
   0.09339   0.07372  -1.28471
   0.09339   0.07372  -1.28471
   0.09339   0.07372  -1.28471
   0.09339   0.07372  -1.04471
   0.09339   0.07372  -1.04471
   0.09339  -0.16628  -1.04471
   0.33339  -0.16628  -1.04471
   0.33339  -0.16628  -0.80471
   0.33339  -0.16628  -0.80471
   0.33339  -0.40628  -0.80471
   0.33339  -0.40628  -0.80471
   0.33339  -0.40628  -0.56471
   0.33339  -0.40628  -0.56471
   0.33339  -0.40628  -0.56471
   0.33339  -0.40628  -0.56471
   0.33339  -0.64628  -0.56471
   0.09339  -0.64628  -0.32471
   0.09339  -0.64628  -0.32471
   0.09339  -0.64628  -0.32471
   0.09339  -0.64628  -0.32471
   0.09339  -0.64628  -0.32471
   0.09339  -0.64628  -0.08471
   0.09339  -0.88628  -0.08471
   0.09339  -0.64628  -0.08471
   0.09339  -0.64628  -0.08471
  -0.14661  -0.64628  -0.08471
  -0.14661  -0.88628  -0.08471
  -0.14661  -0.64628  -0.08471
  -0.14661  -0.64628  -0.08471
  -0.14661  -0.64628  -0.08471
  -0.38661  -0.64628  -0.08471
  -0.38661  -0.64628   0.15529
  -0.38661  -0.64628   0.15529
  -0.38661  -0.64628   0.15529
  -0.38661  -0.64628   0.15529
  -0.38661  -0.64628   0.15529
  -0.38661  -0.64628  -0.08471
  -0.38661  -0.64628   0.15529
  -0.38661  -0.40628   0.15529
  -0.38661  -0.40628   0.15529
  -0.38661  -0.40628   0.15529
  -0.62661  -0.40628   0.15529
  -0.62661  -0.40628   0.15529
  -0.62661  -0.40628   0.15529
  -0.62661  -0.40628   0.15529
  -0.62661  -0.16628   0.15529
  -0.62661  -0.16628   0.15529
  -0.62661  -0.16628   0.15529
  -0.62661  -0.16628   0.15529
  -0.62661  -0.16628   0.15529
  -0.62661  -0.16628   0.15529
  -0.62661   0.07372   0.15529
  -0.62661   0.07372  -0.08471
  -0.62661   0.07372  -0.08471
  -0.62661   0.07372  -0.08471
  -0.62661   0.07372  -0.08471
  -0.62661   0.31372  -0.08471
  -0.62661   0.31372  -0.08471
  -0.86661   0.31372  -0.08471
  -0.62661   0.31372  -0.08471
  -0.62661   0.31372  -0.08471
  -0.62661   0.31372  -0.08471
  -0.62661   0.31372  -0.08471
  -0.62661   0.31372  -0.08471
  -0.62661   0.55372  -0.08471
  -0.62661   0.55372   0.15529
  -0.62661   0.55372   0.15529
  -0.62661   0.55372   0.15529
  -0.62661   0.55372   0.15529
  -0.62661   0.55372   0.15529
  -0.62661   0.55372   0.15529
  -0.62661   0.55372   0.15529
  -0.62661   0.55372   0.15529
  -0.62661   0.55372   0.15529
  -0.62661   0.55372   0.15529
  -0.38661   0.55372   0.15529
  -0.38661   0.55372   0.15529
  -0.14661   0.55372   0.15529
  -0.14661   0.31372   0.15529
  -0.14661   0.31372   0.15529
  -0.14661   0.55372   0.15529
  -0.14661   0.55372   0.15529
  -0.14661   0.55372   0.15529
  -0.14661   0.55372   0.15529
  -0.14661   0.55372   0.15529
  -0.14661   0.55372   0.15529
  -0.14661   0.55372   0.15529
  -0.14661   0.55372   0.15529
  -0.14661   0.55372   0.15529
   0.09339   0.55372   0.15529
   0.09339   0.31372   0.15529
   0.09339   0.55372  -0.08471
   0.09339   0.55372  -0.08471
   0.09339   0.55372   0.15529
   0.09339   0.55372   0.15529
   0.09339   0.55372   0.15529
   0.09339   0.55372  -0.08471
   0.09339   0.55372   0.15529
   0.09339   0.55372  -0.08471
   0.09339   0.55372  -0.08471
   0.09339   0.55372  -0.32471
   0.09339   0.55372  -0.08471
   0.09339   0.55372  -0.08471
   0.09339   0.55372  -0.08471
   0.09339   0.55372  -0.08471
   0.33339   0.55372  -0.08471
   0.09339   0.55372  -0.08471
   0.09339   0.55372  -0.08471
   0.33339   0.55372  -0.32471
   0.33339   0.55372  -0.08471
   0.33339   0.55372  -0.08471
   0.33339   0.55372  -0.32471
   0.33339   0.55372  -0.08471
   0.33339   0.55372  -0.08471
   0.33339   0.55372  -0.08471
   0.33339   0.55372  -0.08471
   0.57339   0.55372  -0.08471
   0.57339   0.55372  -0.08471
   0.57339   0.55372  -0.08471
   0.57339   0.55372  -0.08471
   0.57339   0.55372   0.15529
   0.57339   0.55372   0.15529
   0.57339   0.55372   0.15529
   0.57339   0.55372   0.15529
   0.57339   0.55372   0.15529
   0.81339   0.31372   0.39529
   0.81339   0.31372   0.39529
   0.81339   0.31372   0.39529
   0.81339   0.07372   0.63529
   0.81339   0.07372   0.63529
   0.81339   0.07372   0.63529
   0.81339  -0.16628   0.63529
   0.81339  -0.16628   0.87529
   0.81339  -0.16628   0.87529
   0.81339  -0.16628   0.87529
   0.81339  -0.16628   0.87529
   0.81339   0.07372   1.11529
   0.81339  -0.16628   1.11529
   0.81339  -0.16628   1.35529
   0.57339  -0.16628   1.35529
   0.81339  -0.16628   1.59529
   0.81339  -0.40628   1.59529
   0.57339  -0.40628   1.83529
   0.57339  -0.40628   1.83529
   0.57339  -0.40628   1.83529
   0.57339  -0.40628   2.07529
   0.57339  -0.40628   2.07529
   0.57339  -0.40628   2.07529
   0.57339  -0.40628   2.31529
   0.57339  -0.40628   2.31529
   0.57339  -0.40628   2.31529
   0.57339  -0.40628   2.31529
   0.33339  -0.64628   2.31529
   0.33339  -0.40628   2.55529
   0.33339  -0.40628   2.55529
   0.33339  -0.64628   2.55529
   0.33339  -0.40628   2.55529
   0.33339  -0.40628   2.55529
   0.33339  -0.40628   2.55529
   0.09339  -0.64628   2.55529
   0.33339  -0.40628   2.55529
   0.09339  -0.64628   2.79529
   0.09339  -0.64628   2.79529
   0.09339  -0.64628   2.55529
   0.09339  -0.64628   2.55529
   0.09339  -0.64628   2.55529
   0.09339  -0.40628   2.55529
   0.09339  -0.40628   2.55529
   0.09339  -0.40628   2.55529
   0.09339  -0.40628   2.55529
   0.09339  -0.40628   2.31529
   0.09339  -0.40628   2.31529
   0.09339  -0.40628   2.31529
  -0.14661  -0.40628   2.07529
  -0.14661  -0.40628   2.07529
  -0.14661  -0.16628   2.07529
  -0.14661  -0.16628   2.07529
  -0.14661  -0.16628   1.83529
  -0.14661  -0.16628   1.83529
  -0.14661   0.07372   1.83529
  -0.14661   0.07372   1.83529
  -0.14661   0.07372   1.59529
  -0.14661   0.07372   1.59529
  -0.14661   0.07372   1.59529
  -0.14661   0.07372   1.35529
  -0.14661   0.07372   1.35529
  -0.14661  -0.16628   1.35529
  -0.14661   0.07372   1.11529
  -0.14661   0.07372   1.11529
  -0.14661   0.07372   1.11529
  -0.14661   0.07372   0.87529
  -0.14661   0.07372   0.87529
  -0.14661   0.07372   0.87529
  -0.14661   0.07372   0.87529
  -0.14661   0.07372   0.87529
  -0.14661   0.07372   0.87529
  -0.14661   0.07372   0.87529
  -0.14661  -0.16628   0.63529
  -0.14661  -0.16628   0.63529
  -0.14661  -0.16628   0.63529
   0.09339  -0.16628   0.63529
  -0.14661  -0.16628   0.87529
   0.09339  -0.16628   0.87529
   0.09339  -0.16628   0.87529
   0.09339  -0.16628   0.87529
   0.09339  -0.16628   0.87529
   0.09339  -0.40628   0.87529
   0.09339  -0.40628   0.87529
   0.09339  -0.40628   0.63529
   0.09339  -0.40628   0.87529
   0.09339  -0.40628   0.87529
   0.09339  -0.40628   0.87529
   0.09339  -0.40628   0.87529
   0.09339  -0.40628   0.63529
   0.09339  -0.40628   0.63529
   0.33339  -0.40628   0.63529
   0.33339  -0.40628   0.63529
   0.09339  -0.40628   0.63529
   0.09339  -0.40628   0.63529
   0.33339  -0.40628   0.63529
   0.33339  -0.40628   0.63529
   0.09339  -0.40628   0.63529
   0.09339  -0.40628   0.63529
   0.33339  -0.16628   0.63529
   0.33339  -0.40628   0.63529
   0.33339  -0.40628   0.63529
   0.33339  -0.16628   0.63529
   0.33339  -0.16628   0.39529
   0.33339  -0.40628   0.63529
   0.33339  -0.16628   0.63529
   0.33339  -0.16628   0.63529
   0.33339  -0.16628   0.39529
   0.33339  -0.16628   0.39529
   0.33339   0.07372   0.39529
   0.33339   0.07372   0.39529
   0.33339   0.07372   0.39529
   0.33339   0.07372   0.39529
   0.33339   0.07372   0.39529
   0.33339   0.07372   0.39529
   0.33339   0.07372   0.39529
   0.33339   0.07372   0.15529
   0.33339   0.07372   0.15529
   0.33339   0.07372   0.15529
   0.57339   0.07372   0.15529
   0.57339   0.07372   0.15529
   0.57339   0.07372   0.15529
   0.57339   0.07372   0.15529
   0.57339   0.07372  -0.08471
   0.57339   0.07372  -0.08471
   0.57339   0.07372  -0.08471
   0.57339   0.07372  -0.08471
   0.57339   0.07372  -0.08471
   0.57339   0.07372  -0.08471
   0.57339   0.31372  -0.08471
   0.57339   0.07372  -0.08471
   0.57339   0.31372  -0.32471
   0.81339   0.31372  -0.32471
   0.81339   0.31372  -0.56471
   0.57339   0.31372  -0.32471
   0.81339   0.31372  -0.32471
   0.81339   0.31372  -0.32471
   0.81339   0.31372  -0.56471
   0.81339   0.55372  -0.56471
   0.81339   0.31372  -0.56471
   0.81339   0.31372  -0.56471
   0.81339   0.55372  -0.80471
   0.81339   0.55372  -0.56471
   0.81339   0.55372  -0.56471
   1.05339   0.31372  -0.80471
   0.81339   0.55372  -0.80471
   0.81339   0.55372  -0.80471
   0.81339   0.31372  -0.80471
   0.81339   0.31372  -0.80471
   1.05339   0.31372  -1.04471
   1.05339   0.31372  -1.04471
   1.05339   0.31372  -1.04471
   1.05339   0.31372  -1.04471
   1.05339   0.31372  -1.04471
   1.05339   0.31372  -1.04471
   1.05339   0.31372  -1.28471
   1.05339   0.31372  -1.28471
   0.81339   0.07372  -1.28471
   0.81339   0.07372  -1.28471
   0.81339   0.07372  -1.52471
   0.81339   0.07372  -1.52471
   0.81339   0.07372  -1.52471
   0.81339   0.07372  -1.52471
   0.81339   0.07372  -1.75471
   0.81339   0.07372  -1.75471
   0.81339   0.07372  -1.75471
   0.81339   0.07372  -1.75471
   0.57339   0.07372  -1.99471
   0.57339   0.07372  -1.75471
   0.57339   0.07372  -1.99471
   0.57339   0.07372  -1.99471
   0.57339   0.07372  -1.99471
   0.33339  -0.16628  -1.99471
   0.33339  -0.16628  -2.23471
   0.33339  -0.16628  -2.23471
   0.33339  -0.16628  -2.23471
   0.33339  -0.16628  -2.23471
   0.33339  -0.16628  -2.23471
   0.33339  -0.16628  -2.23471
   0.09339  -0.16628  -2.23471
   0.09339  -0.16628  -2.47471
   0.09339  -0.16628  -2.47471
   0.09339  -0.16628  -2.47471
   0.09339  -0.16628  -2.47471
   0.09339  -0.16628  -2.47471
   0.09339  -0.16628  -2.47471
  -0.14661  -0.16628  -2.47471
  -0.14661  -0.16628  -2.47471
