********************************************************************************
               CENTRO DE INSTRUMENTACION Y REGISTRO SISMICO  A.C.  
                       Coordinacion de Servicios Tecnicos
     Anaxagoras 814, Col. Narvarte, Benito Juarez, C.P. 03020 Mexico, D.F.
            Tels. 667 45 42/ 687 45  82             Fax. 669 25 12
********************************************************************************
ARCHIVO ESTANDAR DE ACELERACION:
VERSION DEL FORMATO                    : 2.0
NOMBRE DEL ARCHIVO                     : AL010301.101
FECHA Y HORA DE CREACION               : 14/JUl/04, 10:28
REF. CATALOGO ACELEROGRAMAS, SMIS 1996 : REGISTRO No.     /PAG.


================================================================================
DATOS DE LA ESTACION:
NOMBRE DE LA ESTACION                  : ALAMEDA
CLAVE DE LA ESTACION                   : AL01
LOCALIZACION DE LA ESTACION            : JARDIN ALAMEDA ENTRE AV. HIDALGO Y AV.
                                       : JUAREZ, CENTRO
                                       :
                                       :
                                       :
COORDENADAS DE LA ESTACION             : 19.436 LAT. N 
                                       : 99.145 LONG. W 
ALTITUD (msnm)                         : 2232
TIPO DE SUELO                          : TERRENO BLANDO, MATERIAL COMPRESIBLE
                                       : (ARCILLAS)
                                       : 
INSTITUCION RESPONSABLE                : CIRES 
                                       :

================================================================================
DATOS DEL ACELEROGRAFO:
MODELO DEL ACELEROGRAFO                : SSA-1
NUMERO DE SERIE DEL ACELEROGRAFO       : 152
NUMERO DE CANALES                      : 3
ORIENTACION C1-C6 (rumbo;orientacion)  : /N00E/+V/N90E
ORIENTACION C7-C12 (rumbo;orientacion) :
VEL. DE MUESTREO, C1-C6 (muestras/s)   : /200/200/200
VEL. DE MUESTREO, C7-C12 (muestras/s)  :
ESC. COMPLETA DE SENSORES, C1-C6, (g)  : /2/2/2
ESC. COMPLETA DE SENSORES, C7-C12, (g) :
FREC. NAT. DE SENSORES, C1-C6, (Hz)    : /51.29/51.09/53.75
FREC. NAT. DE SENSORES, C7-C12, (Hz)   :
AMORTIGUAMIENTO DE SENSORES, C1-C6     : /.5519/.5670/.5810
AMORTIGUAMIENTO DE SENSORES, C7-C12    :
INTERVALO DE MUESTREO, C1-C6, (s)      : /0.005/0.005/0.005
INTERVALO DE MUESTREO, C7-C12, (s)     :
UMBRAL DE DISPARO, C1-C6, (Gal)        : /2/1.5/2
UMBRAL DE DISPARO, C7-C12, (Gal)       :
MEMORIA DE PREEVENTO (s)               : 15
TIEMPO DE POSEVENTO (s)                : 60


================================================================================
DATOS DEL SISMO:
FECHA DEL SISMO (GMT)                  : 10/ENE/03
HORA EPICENTRO (GMT)                   : 02:08:02,7
MAGNITUD(ES)                           : /Mb=5.1/Ms=4.5/Mc=4.9/Ma=5.1/Me=5.3
COORDENADAS DEL EPICENTRO              : 16.97 LAT. N
                                       : 100.30 LONG. W
PROFUNDIDAD FOCAL (km)                 : 30
FUENTE DE LOS DATOS EPICENTRALES       : SSN
                                       : INSTITUTO DE GEOFISICA, UNAM 

================================================================================
DATOS DE ESTE REGISTRO:
HORA DE LA PRIMERA MUESTRA (GMT)       : 02:09:30.00
EXACTITUD DEL TIEMPO (s)               :     
DURACION DEL REGISTRO (s), C1-C6       : /93.44/93.44/93.44
DURACION DEL REGISTRO (s), C7-C12      :
NUM. TOTAL DE MUESTRAS, C1-C6          : /18688/18688/18688
NUM. TOTAL DE MUESTRAS, C7-C12         :
ACEL. MAX. (Gal), C1-C6                : /-2.07767/-1.22725/2.79921
ACEL. MAX., C1-C6, EN LA MUESTRA       :
ACEL. MAX. (Gal), C7-C12               :
ACEL. MAX., C7-C12, EN LA MUESTRA      :
UNIDADES DE LOS DATOS                  : Gal (cm/s/s)
FACTOR DE DECIMACION                   : 1
FORMATO DATOS (FORTRAN,10 campos/dato) : 3F10.5


================================================================================
CALIDAD DEL ACELEROGRAMA:
REGISTRO DIGITAL COMPLETO, CARECE DE TIEMPO ABSOLUTO.


================================================================================
COMENTARIOS:














================================================================================
DATOS DE ACELERACION:
---------+---------+---------+---------+---------+---------+---------+---------+
   CANAL-1   CANAL-2   CANAL-3   CANAL-4   CANAL-5   CANAL-6   CANAL-7   CANAL-8
      N00E        +V      N90E
---------+---------+---------+---------+---------+---------+---------+---------+
[...]
  -0.63767  -0.98725   1.35921
  -0.63767  -0.98725   1.35921
  -0.63767  -0.74725   1.35921
  -0.63767  -0.74725   1.35921
  -0.87767  -0.74725   1.35921
  -0.87767  -0.74725   1.35921
  -0.87767  -0.74725   1.35921
  -0.87767  -0.74725   1.35921
  -0.87767  -0.74725   1.35921
  -0.87767  -0.74725   1.35921
  -0.87767  -0.50725   1.35921
  -0.87767  -0.50725   1.35921
  -0.87767  -0.50725   1.35921
  -0.87767  -0.50725   1.35921
  -0.87767  -0.50725   1.11921
  -0.87767  -0.26725   1.35921
  -0.87767  -0.26725   1.11921
  -0.87767  -0.26725   1.11921
  -0.87767  -0.26725   1.11921
  -0.87767  -0.26725   1.35921
  -0.87767  -0.02725   1.11921
  -0.87767  -0.02725   1.11921
  -0.87767  -0.02725   1.11921
  -0.87767   0.21275   1.11921
  -0.87767   0.21275   0.88921
  -0.63767   0.21275   0.88921
  -0.63767   0.21275   0.88921
  -0.63767   0.45275   0.88921
  -0.63767   0.45275   0.88921
  -0.63767   0.45275   0.88921
  -0.63767   0.45275   0.88921
  -0.63767   0.45275   0.88921
  -0.63767   0.45275   0.88921
  -0.63767   0.45275   0.64921
  -0.63767   0.45275   0.64921
  -0.63767   0.45275   0.64921
  -0.63767   0.45275   0.64921
  -0.63767   0.69275   0.64921
  -0.39767   0.69275   0.64921
  -0.39767   0.69275   0.64921
  -0.39767   0.69275   0.40921
  -0.39767   0.69275   0.64921
  -0.39767   0.69275   0.40921
  -0.39767   0.69275   0.40921
  -0.39767   0.69275   0.40921
  -0.39767   0.69275   0.16921
  -0.39767   0.69275   0.16921
  -0.15767   0.69275   0.16921
  -0.15767   0.69275  -0.07079
  -0.15767   0.69275  -0.07079
  -0.15767   0.69275  -0.07079
  -0.15767   0.93275  -0.07079
  -0.15767   0.69275  -0.31079
  -0.15767   0.93275  -0.31079
   0.08233   0.93275  -0.31079
   0.08233   0.93275  -0.31079
   0.08233   0.93275  -0.55079
   0.08233   0.93275  -0.31079
   0.32233   0.93275  -0.55079
   0.32233   0.93275  -0.55079
   0.32233   0.93275  -0.55079
   0.56233   0.93275  -0.55079
   0.56233   0.69275  -0.79079
   0.56233   0.93275  -0.79079
   0.56233   0.93275  -1.27079
   0.56233   0.93275  -0.79079
   0.56233   0.93275  -0.79079
   0.56233   0.93275  -1.03079
   0.80233   0.69275  -0.79079
   0.80233   0.69275  -1.03079
   0.80233   0.69275  -1.03079
   0.80233   0.69275  -1.27079
   1.04233   0.69275  -1.27079
   1.04233   0.69275  -1.03079
   1.04233   0.45275  -1.27079
   1.04233   0.45275  -1.27079
   1.04233   0.45275  -1.27079
   1.04233   0.45275  -1.27079
   1.04233   0.21275  -1.27079
   1.04233   0.21275  -1.27079
   1.04233   0.21275  -1.27079
   1.04233   0.21275  -1.27079
   1.04233  -0.02725  -1.27079
   1.04233   0.21275  -1.51079
   1.04233  -0.02725  -1.51079
   1.04233  -0.26725  -1.51079
   1.04233  -0.02725  -1.51079
   1.04233  -0.26725  -1.51079
   1.04233  -0.02725  -1.51079
   1.04233  -0.02725  -1.51079
   1.04233  -0.02725  -1.51079
   1.04233  -0.26725  -1.51079
   1.04233  -0.26725  -1.51079
   1.04233  -0.02725  -1.51079
   1.04233  -0.26725  -1.51079
   1.04233  -0.26725  -1.51079
   0.80233  -0.50725  -1.51079
   0.80233  -0.50725  -1.51079
   0.80233  -0.50725  -1.51079
   0.80233  -0.74725  -1.51079
   0.80233  -0.74725  -1.27079
   0.80233  -0.74725  -1.27079
   0.80233  -0.74725  -1.51079
   0.56233  -0.74725  -1.27079
   0.56233  -0.74725  -1.27079
   0.56233  -0.74725  -1.27079
   0.56233  -0.74725  -1.27079
   0.32233  -0.74725  -1.27079
   0.32233  -0.74725  -1.27079
   0.32233  -0.74725  -1.27079
   0.08233  -0.98725  -1.27079
   0.08233  -0.74725  -1.03079
   0.08233  -0.74725  -1.03079
   0.08233  -0.74725  -1.03079
   0.08233  -0.98725  -0.79079
  -0.15767  -0.74725  -0.79079
  -0.15767  -0.98725  -0.79079
  -0.15767  -0.74725  -0.79079
  -0.39767  -0.74725  -0.79079
  -0.39767  -0.74725  -0.55079
  -0.39767  -0.74725  -0.55079
  -0.39767  -0.74725  -0.55079
  -0.39767  -0.74725  -0.55079
  -0.39767  -0.50725  -0.55079
  -0.39767  -0.50725  -0.55079
  -0.63767  -0.50725  -0.31079
  -0.63767  -0.50725  -0.31079
  -0.63767  -0.50725  -0.31079
  -0.63767  -0.50725  -0.07079
  -0.87767  -0.26725  -0.07079
  -0.87767  -0.26725  -0.07079
  -0.87767  -0.26725  -0.07079
  -0.87767  -0.26725   0.16921
  -0.87767  -0.26725  -0.07079
  -1.11767  -0.26725  -0.07079
  -0.87767  -0.26725  -0.07079
  -1.11767  -0.02725   0.16921
  -1.11767  -0.02725   0.16921
  -1.11767  -0.02725   0.16921
  -1.11767  -0.02725   0.16921
  -1.11767   0.21275   0.16921
  -1.11767   0.21275   0.16921
  -1.35767   0.21275   0.16921
  -1.35767   0.21275   0.16921
  -1.35767   0.21275   0.16921
  -1.35767   0.21275   0.16921
  -1.35767   0.45275   0.16921
  -1.11767   0.45275   0.16921
  -1.35767   0.45275   0.16921
  -1.35767   0.69275   0.16921
  -1.11767   0.69275   0.16921
  -1.35767   0.69275  -0.07079
  -1.11767   0.69275  -0.07079
  -1.11767   0.69275  -0.07079
  -1.11767   0.69275  -0.07079
  -1.11767   0.93275  -0.07079
  -0.87767   0.93275  -0.07079
  -0.87767   0.93275  -0.07079
  -0.87767   0.93275  -0.31079
  -0.87767   0.93275  -0.31079
  -0.87767   0.93275  -0.31079
  -0.63767   0.69275  -0.31079
  -0.63767   0.69275  -0.55079
  -0.63767   0.69275  -0.55079
  -0.39767   0.69275  -0.55079
  -0.39767   0.69275  -0.55079
  -0.39767   0.69275  -0.55079
  -0.39767   0.69275  -0.79079
  -0.39767   0.69275  -0.55079
  -0.15767   0.45275  -0.79079
  -0.15767   0.45275  -0.79079
  -0.15767   0.45275  -0.79079
   0.08233   0.45275  -0.79079
   0.08233   0.45275  -0.79079
   0.08233   0.45275  -0.79079
   0.08233   0.21275  -0.79079
   0.08233   0.21275  -1.03079
   0.32233   0.21275  -1.03079
   0.32233   0.21275  -1.03079
   0.32233   0.21275  -1.03079
   0.32233   0.21275  -1.03079
   0.32233  -0.02725  -1.03079
   0.32233  -0.02725  -1.03079
   0.56233  -0.02725  -1.03079
   0.56233  -0.02725  -1.03079
   0.56233  -0.02725  -1.03079
   0.56233  -0.26725  -1.03079
   0.56233  -0.26725  -1.03079
   0.56233  -0.26725  -1.03079
   0.56233  -0.26725  -0.79079
   0.56233  -0.26725  -0.79079
   0.56233  -0.50725  -0.79079
   0.56233  -0.26725  -0.79079
   0.80233  -0.50725  -0.79079
   0.80233  -0.50725  -0.79079
   0.80233  -0.50725  -0.55079
   0.80233  -0.50725  -0.55079
   0.80233  -0.74725  -0.55079
   0.80233  -0.50725  -0.31079
   0.80233  -0.50725  -0.31079
   0.80233  -0.50725  -0.31079
   0.80233  -0.50725  -0.07079
   0.80233  -0.50725  -0.31079
   0.80233  -0.50725  -0.07079
   0.80233  -0.50725   0.16921
   0.56233  -0.50725   0.16921
   0.56233  -0.50725   0.16921
   0.56233  -0.50725   0.40921
   0.56233  -0.50725   0.40921
   0.56233  -0.26725   0.40921
   0.56233  -0.50725   0.64921
   0.56233  -0.50725   0.64921
   0.56233  -0.50725   0.64921
   0.56233  -0.26725   0.64921
   0.56233  -0.26725   0.64921
   0.56233  -0.26725   0.88921
   0.56233  -0.26725   0.88921
   0.56233  -0.26725   0.88921
   0.56233  -0.50725   0.88921
   0.56233  -0.50725   1.11921
   0.56233  -0.26725   1.11921
   0.56233  -0.26725   1.11921
   0.56233  -0.26725   0.88921
   0.56233  -0.26725   1.11921
   0.56233  -0.26725   1.11921
   0.56233  -0.26725   1.11921
   0.80233  -0.26725   1.11921
   0.80233  -0.02725   1.11921
   0.80233  -0.02725   1.11921
   0.80233  -0.26725   1.11921
   1.04233  -0.02725   1.11921
   1.04233  -0.02725   0.88921
   1.04233  -0.02725   1.11921
   1.04233  -0.02725   0.88921
   1.04233   0.21275   0.88921
   1.04233   0.21275   0.88921
   1.04233   0.21275   0.88921
   1.28233   0.21275   0.88921
   1.28233   0.45275   0.64921
   1.28233   0.45275   0.64921
   1.28233   0.45275   0.64921
   1.28233   0.45275   0.64921
   1.28233   0.69275   0.64921
   1.28233   0.69275   0.64921
   1.28233   0.69275   0.40921
   1.52233   0.69275   0.40921
   1.28233   0.69275   0.40921
   1.28233   0.69275   0.40921
   1.28233   0.69275   0.16921
   1.28233   0.93275   0.40921
   1.28233   0.93275   0.16921
   1.28233   0.93275   0.16921
   1.28233   0.93275   0.16921
   1.28233   0.93275   0.16921
   1.28233   0.93275   0.16921
   1.28233   0.93275   0.16921
   1.28233   0.93275   0.16921
   1.28233   0.93275  -0.07079
   1.28233   0.93275  -0.07079
   1.28233   0.93275  -0.07079
   1.28233   1.16275  -0.07079
   1.04233   0.93275  -0.07079
   1.04233   0.93275  -0.07079
   1.04233   0.93275  -0.07079
   1.04233   0.93275  -0.07079
   1.04233   0.93275  -0.07079
   1.04233   0.93275  -0.07079
   0.80233   0.93275  -0.07079
   0.80233   0.93275  -0.31079
   0.80233   0.69275  -0.31079
   0.80233   0.69275  -0.31079
   0.80233   0.69275  -0.31079
   0.56233   0.69275  -0.31079
   0.56233   0.69275  -0.31079
   0.56233   0.69275  -0.31079
   0.56233   0.45275  -0.31079
   0.32233   0.45275  -0.31079
   0.32233   0.45275  -0.31079
   0.32233   0.45275  -0.31079
   0.32233   0.21275  -0.55079
   0.32233   0.21275  -0.31079
   0.32233   0.21275  -0.31079
   0.08233  -0.02725  -0.31079
   0.32233  -0.02725  -0.31079
   0.32233  -0.02725  -0.55079
   0.08233  -0.02725  -0.31079
   0.08233  -0.26725  -0.55079
   0.08233  -0.26725  -0.55079
   0.08233  -0.26725  -0.55079
   0.08233  -0.74725  -0.55079
   0.08233  -0.26725  -0.79079
   0.08233  -0.50725  -0.79079
   0.08233  -0.50725  -0.79079
   0.08233  -0.50725  -0.55079
   0.08233  -0.74725  -0.79079
   0.08233  -0.74725  -0.79079
   0.08233  -0.74725  -0.79079
   0.08233  -0.74725  -0.79079
   0.08233  -0.74725  -0.79079
   0.08233  -0.74725  -0.79079
   0.08233  -0.74725  -0.79079
   0.08233  -0.74725  -0.79079
   0.08233  -0.74725  -0.79079
   0.08233  -0.98725  -0.79079
   0.08233  -0.98725  -0.79079
  -0.15767  -0.98725  -0.79079
  -0.15767  -0.98725  -0.55079
  -0.15767  -0.98725  -0.55079
  -0.15767  -0.98725  -0.79079
  -0.15767  -0.98725  -0.55079
  -0.15767  -0.98725  -0.79079
  -0.15767  -0.98725  -0.55079
  -0.39767  -0.98725  -0.55079
  -0.39767  -0.98725  -0.31079
  -0.39767  -0.98725  -0.31079
  -0.39767  -0.98725  -0.31079
  -0.39767  -0.98725  -0.07079
  -0.39767  -0.98725  -0.07079
  -0.39767  -0.98725   0.16921
  -0.39767  -1.22725   0.16921
  -0.39767  -0.98725   0.16921
  -0.39767  -0.98725   0.40921
  -0.39767  -0.98725   0.40921
  -0.63767  -0.98725   0.64921
  -0.39767  -0.98725   0.64921
  -0.63767  -0.98725   0.88921
  -0.63767  -0.98725   1.11921
  -0.63767  -0.98725   1.11921
  -0.63767  -0.74725   1.11921
  -0.63767  -0.74725   1.35921
  -0.63767  -0.74725   1.35921
  -0.87767  -0.74725   1.35921
  -0.87767  -0.74725   1.59921
  -0.87767  -0.50725   1.59921
  -0.87767  -0.50725   1.83921
  -0.87767  -0.50725   1.83921
  -0.87767  -0.50725   2.07921
  -0.87767  -0.50725   2.07921
  -0.87767  -0.50725   2.07921
  -1.11767  -0.74725   2.31921
  -1.11767  -0.26725   2.31921
  -1.11767  -0.26725   2.31921
  -1.11767  -0.26725   2.31921
  -1.11767  -0.26725   2.31921
  -1.11767  -0.26725   2.55921
  -1.11767  -0.26725   2.55921
  -1.11767  -0.02725   2.55921
  -1.11767  -0.02725   2.31921
  -1.35767  -0.26725   2.55921
  -1.35767  -0.02725   2.79921
  -1.35767  -0.02725   2.55921
  -1.11767  -0.02725   2.79921
  -1.35767   0.21275   2.79921
  -1.35767  -0.02725   2.79921
  -1.35767   0.21275   2.79921
  -1.35767   0.21275   2.55921
  -1.35767   0.21275   2.55921
  -1.11767   0.21275   2.55921
  -1.11767   0.21275   2.55921
  -1.11767   0.21275   2.55921
  -1.11767   0.45275   2.55921
  -1.11767   0.45275   2.55921
  -0.87767   0.45275   2.31921
  -0.87767   0.45275   2.31921
  -0.87767   0.45275   2.31921
  -0.87767   0.45275   2.07921
  -0.87767   0.69275   2.07921
  -0.87767   0.69275   1.83921
  -0.63767   0.69275   1.83921
  -0.63767   0.69275   1.59921
  -0.39767   0.69275   1.59921
  -0.39767   0.69275   1.59921
  -0.39767   0.69275   1.35921
  -0.39767   0.69275   1.11921
  -0.39767   0.93275   1.11921
  -0.39767   0.69275   1.11921
  -0.39767   0.69275   1.11921
  -0.39767   0.93275   0.88921
  -0.39767   0.93275   0.64921
  -0.15767   0.93275   0.64921
  -0.15767   0.93275   0.40921
  -0.15767   0.69275   0.40921
  -0.15767   0.69275   0.16921
   0.08233   0.69275   0.16921
   0.08233   0.93275   0.16921
   0.08233   0.69275  -0.07079
   0.08233   0.69275  -0.07079
   0.08233   0.93275  -0.31079
  -0.15767   0.69275  -0.31079
   0.08233   0.69275  -0.31079
   0.08233   0.69275  -0.31079
   0.32233   0.69275  -0.55079
   0.32233   0.69275  -0.55079
   0.32233   0.69275  -0.55079
   0.32233   0.69275  -0.79079
   0.32233   0.69275  -0.79079
   0.32233   0.69275  -0.79079
   0.32233   0.69275  -1.03079
   0.32233   0.69275  -1.03079
   0.32233   0.69275  -1.03079
   0.32233   0.69275  -1.03079
   0.32233   0.69275  -1.03079
   0.32233   0.45275  -1.03079
   0.32233   0.45275  -1.03079
   0.32233   0.45275  -1.27079
   0.32233   0.45275  -1.27079
   0.32233   0.45275  -1.27079
   0.08233   0.45275  -1.27079
   0.08233   0.45275  -1.27079
   0.32233   0.21275  -1.27079
   0.08233   0.45275  -1.27079
   0.08233   0.21275  -1.27079
   0.08233   0.21275  -1.51079
   0.08233   0.21275  -1.27079
   0.08233  -0.02725  -1.27079
   0.08233  -0.02725  -1.51079
   0.08233  -0.02725  -1.27079
   0.08233  -0.02725  -1.27079
  -0.15767  -0.02725  -1.27079
  -0.15767  -0.02725  -1.27079
  -0.15767  -0.26725  -1.51079
  -0.15767  -0.26725  -1.51079
  -0.15767  -0.26725  -1.27079
  -0.15767  -0.26725  -1.51079
  -0.15767  -0.26725  -1.27079
  -0.15767  -0.26725  -1.51079
  -0.15767  -0.26725  -1.51079
  -0.39767  -0.74725  -1.27079
  -0.39767  -0.26725  -1.27079
  -0.39767  -0.50725  -1.51079
  -0.39767  -0.50725  -1.27079
  -0.39767  -0.50725  -1.27079
  -0.39767  -0.50725  -1.27079
  -0.39767  -0.50725  -1.03079
  -0.39767  -0.50725  -1.27079
  -0.39767  -0.50725  -1.27079
  -0.39767  -0.50725  -1.03079
  -0.39767  -0.50725  -1.03079
  -0.39767  -0.50725  -1.03079
  -0.39767  -0.74725  -1.03079
  -0.39767  -0.50725  -0.79079
  -0.15767  -0.50725  -0.79079
  -0.15767  -0.50725  -0.79079
  -0.15767  -0.50725  -0.79079
  -0.15767  -0.50725  -0.79079
  -0.15767  -0.74725  -0.55079
  -0.15767  -0.74725  -0.55079
  -0.15767  -0.74725  -0.55079
  -0.15767  -0.50725  -0.31079
  -0.15767  -0.74725  -0.31079
  -0.15767  -0.74725  -0.31079
  -0.15767  -0.74725  -0.31079
   0.08233  -0.74725  -0.31079
   0.08233  -0.50725  -0.31079
   0.08233  -0.50725  -0.07079
   0.08233  -0.50725  -0.07079
   0.08233  -0.50725   0.16921
   0.08233  -0.50725   0.16921
   0.08233  -0.26725   0.16921
   0.08233  -0.26725   0.40921
   0.08233  -0.26725   0.40921
   0.32233  -0.26725   0.40921
   0.32233  -0.26725   0.40921
   0.32233  -0.26725   0.64921
   0.32233  -0.26725   0.64921
   0.32233  -0.02725   0.64921
   0.32233  -0.02725   0.64921
   0.32233  -0.02725   0.64921
   0.32233  -0.02725   0.64921
   0.32233  -0.02725   0.64921
   0.32233  -0.02725   0.64921
   0.32233   0.21275   0.64921
   0.32233  -0.02725   0.88921
   0.32233   0.21275   0.88921
   0.32233  -0.02725   0.88921
   0.56233   0.21275   0.88921
   0.32233   0.21275   0.88921
   0.32233   0.21275   0.88921
   0.32233   0.21275   0.88921
   0.56233   0.21275   0.88921
   0.32233   0.21275   0.88921
   0.56233   0.21275   0.64921
   0.32233   0.21275   0.88921
   0.32233   0.45275   0.64921
   0.32233   0.21275   0.64921
   0.32233   0.21275   0.64921
   0.32233   0.21275   0.64921
   0.32233   0.45275   0.40921
   0.32233   0.45275   0.40921
   0.32233   0.45275   0.40921
   0.32233   0.21275   0.40921
   0.32233   0.45275   0.16921
   0.32233   0.45275   0.16921
   0.56233   0.45275   0.16921
   0.56233   0.45275   0.16921
   0.56233   0.45275  -0.07079
   0.56233   0.45275  -0.07079
   0.56233   0.45275  -0.07079
   0.56233   0.45275  -0.07079
