********************************************************************************
               CENTRO DE INSTRUMENTACION Y REGISTRO SISMICO  A.C.  
                       Coordinacion de Servicios Tecnicos
     Anaxagoras 814, Col. Narvarte, Benito Juarez, C.P. 03020 Mexico, D.F.
            Tels. 667 45 42/ 687 45  82             Fax. 669 25 12
********************************************************************************
ARCHIVO ESTANDAR DE ACELERACION:
VERSION DEL FORMATO                    : 2.0
NOMBRE DEL ARCHIVO                     : AL019804.201
FECHA Y HORA DE CREACION               : 31/ENERO/2000, 10:10
REF. CATALOGO ACELEROGRAMAS, SMIS 1996 : REGISTRO No.     /PAG.


================================================================================
DATOS DE LA ESTACION:
NOMBRE DE LA ESTACION                  : ALAMEDA
CLAVE DE LA ESTACION                   : AL01
LOCALIZACION DE LA ESTACION            : JARDIN ALAMEDA ENTRE AV. HIDALGO Y AV.
                                       : JUAREZ, CENTRO
                                       :
                                       :
                                       :
COORDENADAS DE LA ESTACION             : 19.436 LAT. N 
                                       : 99.145 LONG. W 
ALTITUD (msnm)                         : 2232
TIPO DE SUELO                          : TERRENO BLANDO, MATERIAL COMPRESIBLE
                                       : (ARCILLAS)
                                       : 
INSTITUCION RESPONSABLE                : CIRES 
                                       :

================================================================================
DATOS DEL ACELEROGRAFO:
MODELO DEL ACELEROGRAFO                : SSA-1
NUMERO DE SERIE DEL ACELEROGRAFO       : 152
NUMERO DE CANALES                      : 3
ORIENTACION C1-C6 (rumbo;orientacion)  : /N00E/+V/N90E
ORIENTACION C7-C12 (rumbo;orientacion) :
VEL. DE MUESTREO, C1-C6 (muestras/s)   : /200/200/200
VEL. DE MUESTREO, C7-C12 (muestras/s)  :
ESC. COMPLETA DE SENSORES, C1-C6, (g)  : /2/2/2
ESC. COMPLETA DE SENSORES, C7-C12, (g) :
FREC. NAT. DE SENSORES, C1-C6, (Hz)    : /51.29/51.09/53.75
FREC. NAT. DE SENSORES, C7-C12, (Hz)   :
AMORTIGUAMIENTO DE SENSORES, C1-C6     : /.5519/.5670/.5810
AMORTIGUAMIENTO DE SENSORES, C7-C12    :
INTERVALO DE MUESTREO, C1-C6, (s)      : /0.005/0.005/0.005
INTERVALO DE MUESTREO, C7-C12, (s)     :
UMBRAL DE DISPARO, C1-C6, (Gal)        : /2/1.5/2
UMBRAL DE DISPARO, C7-C12, (Gal)       :
MEMORIA DE PREEVENTO (s)               : 15
TIEMPO DE POSEVENTO (s)                : 60


================================================================================
DATOS DEL SISMO:
FECHA DEL SISMO (GMT)                  : 20/ABR/98
HORA EPICENTRO (GMT)                   : 22:59:17.00
MAGNITUD(ES)                           : /Mb=5.4/Mc=5.0/Ma=5.5/Me=5.7
COORDENADAS DEL EPICENTRO              : 18.37 LAT. N
                                       : 101.21 LONG. W
PROFUNDIDAD FOCAL (km)                 : 66.0
FUENTE DE LOS DATOS EPICENTRALES       : SSN
                                       : INSTITUTO DE GEOFISICA, UNAM

================================================================================
DATOS DE ESTE REGISTRO:
HORA DE LA PRIMERA MUESTRA (GMT)       : 23:00:22.00
EXACTITUD DEL TIEMPO (s)               :     
DURACION DEL REGISTRO (s), C1-C6       : /138.24/138.24/138.24
DURACION DEL REGISTRO (s), C7-C12      :
NUM. TOTAL DE MUESTRAS, C1-C6          : /27648/27648/27648
NUM. TOTAL DE MUESTRAS, C7-C12         :
ACEL. MAX. (Gal), C1-C6                : /4.23230/2.62001/4.58834
ACEL. MAX., C1-C6, EN LA MUESTRA       :
ACEL. MAX. (Gal), C7-C12               :
ACEL. MAX., C7-C12, EN LA MUESTRA      :
UNIDADES DE LOS DATOS                  : Gal (cm/s/s)
FACTOR DE DECIMACION                   : 1
FORMATO DATOS (FORTRAN,10 campos/dato) : 3F10.5


================================================================================
CALIDAD DEL ACELEROGRAMA:
REGISTRO DIGITAL COMPLETO, CARECE DE TIEMPO ABSOLUTO.


================================================================================
COMENTARIOS:














================================================================================
DATOS DE ACELERACION:
---------+---------+---------+---------+---------+---------+---------+---------+
   CANAL-1   CANAL-2   CANAL-3   CANAL-4   CANAL-5   CANAL-6   CANAL-7   CANAL-8
      N00E        +V      N90E
---------+---------+---------+---------+---------+---------+---------+---------+
[...]
  -1.75770   0.47001  -3.31166
  -1.75770   0.47001  -3.31166
  -1.75770   0.47001  -3.31166
  -1.75770   0.47001  -3.31166
  -1.75770   0.47001  -3.07166
  -1.99770   0.71001  -3.07166
  -1.99770   0.71001  -2.83166
  -1.99770   0.71001  -2.83166
  -1.99770   0.71001  -2.83166
  -1.99770   0.71001  -2.59166
  -1.99770   0.71001  -2.59166
  -1.99770   0.95001  -2.59166
  -1.99770   0.71001  -2.35166
  -1.99770   0.71001  -2.35166
  -1.99770   0.95001  -2.11166
  -1.99770   0.71001  -2.11166
  -1.99770   0.71001  -1.87166
  -1.75770   0.71001  -1.87166
  -1.75770   0.95001  -1.63166
  -1.75770   0.95001  -1.63166
  -1.75770   0.95001  -1.39166
  -1.75770   0.95001  -1.16166
  -1.51770   0.95001  -1.16166
  -1.75770   0.95001  -0.92166
  -1.51770   0.95001  -0.92166
  -1.51770   0.95001  -0.68166
  -1.27770   0.95001  -0.68166
  -1.27770   0.95001  -0.44166
  -1.27770   0.95001  -0.44166
  -1.27770   0.95001  -0.20166
  -1.27770   0.95001   0.03834
  -1.03770   0.95001   0.03834
  -1.03770   0.95001   0.27834
  -1.03770   0.95001   0.27834
  -0.79770   0.71001   0.27834
  -0.79770   0.71001   0.51834
  -0.79770   0.71001   0.51834
  -0.79770   0.71001   0.51834
  -0.55770   0.71001   0.75834
  -0.55770   0.71001   0.75834
  -0.55770   0.71001   0.75834
  -0.55770   0.71001   0.99834
  -0.55770   0.71001   0.99834
  -0.31770   0.71001   0.99834
  -0.31770   0.47001   0.99834
  -0.31770   0.47001   1.23834
  -0.31770   0.47001   1.47834
  -0.31770   0.47001   1.23834
  -0.31770   0.47001   1.47834
  -0.31770   0.47001   1.47834
  -0.31770   0.47001   1.47834
  -0.31770   0.47001   1.71834
  -0.31770   0.47001   1.71834
  -0.31770   0.47001   1.71834
  -0.31770   0.47001   1.95834
  -0.31770   0.47001   1.95834
  -0.31770   0.47001   1.95834
  -0.31770   0.47001   1.95834
  -0.31770   0.47001   1.95834
  -0.31770   0.47001   1.95834
  -0.31770   0.47001   1.95834
  -0.31770   0.71001   1.95834
  -0.31770   0.71001   1.95834
  -0.31770   0.47001   1.95834
  -0.55770   0.71001   2.19834
  -0.31770   0.47001   2.19834
  -0.31770   0.47001   2.19834
  -0.31770   0.23001   2.19834
  -0.31770   0.23001   2.19834
  -0.31770   0.23001   2.19834
  -0.55770   0.23001   2.43834
  -0.55770   0.23001   2.43834
  -0.55770   0.23001   2.43834
  -0.55770  -0.00999   2.43834
  -0.79770   0.23001   2.43834
  -0.79770  -0.00999   2.43834
  -0.79770  -0.00999   2.43834
  -0.79770  -0.00999   2.43834
  -0.79770  -0.00999   2.43834
  -1.03770  -0.00999   2.43834
  -1.03770  -0.00999   2.43834
  -1.03770  -0.00999   2.43834
  -1.03770  -0.24999   2.43834
  -1.27770  -0.00999   2.43834
  -1.27770  -0.00999   2.43834
  -1.27770  -0.00999   2.43834
  -1.27770  -0.00999   2.43834
  -1.27770  -0.24999   2.43834
  -1.27770  -0.24999   2.19834
  -1.27770  -0.24999   2.19834
  -1.27770  -0.24999   2.19834
  -1.27770  -0.24999   2.19834
  -1.27770  -0.24999   1.95834
  -1.27770  -0.24999   1.95834
  -1.27770  -0.24999   1.95834
  -1.27770  -0.24999   1.95834
  -1.27770  -0.24999   1.95834
  -1.51770  -0.24999   1.71834
  -1.27770  -0.24999   1.71834
  -1.27770  -0.24999   1.71834
  -1.27770  -0.48999   1.47834
  -1.03770  -0.48999   1.47834
  -1.03770  -0.48999   1.47834
  -1.03770  -0.48999   1.23834
  -1.03770  -0.48999   1.23834
  -1.03770  -0.48999   1.23834
  -1.03770  -0.48999   0.99834
  -0.79770  -0.48999   0.99834
  -0.79770  -0.24999   0.99834
  -0.79770  -0.48999   0.75834
  -0.55770  -0.48999   0.75834
  -0.55770  -0.48999   0.75834
  -0.31770  -0.48999   0.75834
  -0.31770  -0.48999   0.51834
  -0.31770  -0.48999   0.27834
  -0.07770  -0.48999   0.51834
   0.15230  -0.48999   0.27834
   0.15230  -0.72999   0.27834
   0.15230  -0.72999   0.27834
   0.39230  -0.72999   0.03834
   0.39230  -0.72999   0.03834
   0.39230  -0.72999   0.03834
   0.39230  -0.72999  -0.20166
   0.63230  -0.72999  -0.20166
   0.63230  -0.72999  -0.20166
   0.63230  -0.72999  -0.20166
   0.63230  -0.72999  -0.20166
   0.87230  -0.72999  -0.44166
   0.87230  -0.72999  -0.44166
   0.87230  -0.72999  -0.44166
   0.87230  -0.72999  -0.44166
   1.11230  -0.72999  -0.44166
   1.11230  -0.72999  -0.44166
   1.11230  -0.72999  -0.68166
   1.11230  -0.72999  -0.68166
   1.11230  -0.72999  -0.68166
   1.11230  -0.48999  -0.68166
   1.11230  -0.48999  -0.92166
   1.11230  -0.48999  -0.92166
   1.11230  -0.48999  -0.92166
   1.11230  -0.24999  -0.92166
   1.11230  -0.24999  -0.92166
   1.11230  -0.24999  -1.16166
   1.11230  -0.24999  -1.16166
   1.35230  -0.00999  -1.16166
   1.35230  -0.00999  -1.16166
   1.11230  -0.00999  -1.16166
   1.35230   0.23001  -1.39166
   1.35230   0.23001  -1.39166
   1.35230  -0.00999  -1.39166
   1.35230  -0.00999  -1.39166
   1.59230  -0.00999  -1.39166
   1.59230  -0.00999  -1.39166
   1.59230  -0.00999  -1.63166
   1.59230   0.23001  -1.63166
   1.59230   0.23001  -1.63166
   1.59230   0.23001  -1.63166
   1.83230   0.23001  -1.87166
   1.83230   0.23001  -1.87166
   1.59230   0.23001  -1.87166
   1.83230   0.47001  -1.63166
   1.83230   0.47001  -1.87166
   1.83230   0.47001  -1.87166
   2.07230   0.47001  -1.87166
   2.07230   0.47001  -1.87166
   2.07230   0.47001  -1.87166
   2.07230   0.47001  -1.87166
   2.07230   0.23001  -1.87166
   2.07230   0.47001  -1.87166
   2.07230   0.47001  -1.87166
   2.07230   0.47001  -1.87166
   2.07230   0.47001  -1.87166
   2.07230   0.47001  -1.87166
   2.31230   0.47001  -1.87166
   2.07230   0.47001  -1.87166
   2.31230   0.23001  -1.87166
   2.31230   0.23001  -1.87166
   2.31230   0.23001  -1.87166
   2.31230  -0.00999  -2.11166
   2.31230   0.23001  -2.11166
   2.31230   0.23001  -2.11166
   2.31230   0.23001  -2.11166
   2.31230   0.23001  -1.87166
   2.31230  -0.00999  -1.87166
   2.31230  -0.00999  -2.11166
   2.31230  -0.00999  -2.11166
   2.31230  -0.00999  -2.11166
   2.31230  -0.00999  -2.11166
   2.31230  -0.00999  -2.11166
   2.07230  -0.00999  -2.11166
   2.07230  -0.00999  -2.11166
   2.07230  -0.00999  -2.11166
   1.83230  -0.00999  -2.11166
   1.83230  -0.24999  -2.35166
   1.83230  -0.00999  -2.35166
   1.59230  -0.00999  -2.35166
   1.59230  -0.00999  -2.35166
   1.59230  -0.00999  -2.35166
   1.35230  -0.00999  -2.35166
   1.35230  -0.24999  -2.35166
   1.35230  -0.00999  -2.35166
   1.11230  -0.00999  -2.35166
   0.87230  -0.00999  -2.35166
   0.87230  -0.00999  -2.35166
   0.87230  -0.00999  -2.11166
   0.63230  -0.00999  -2.11166
   0.39230  -0.00999  -2.11166
   0.39230  -0.00999  -2.11166
   0.15230  -0.24999  -2.11166
   0.15230  -0.24999  -1.87166
  -0.07770  -0.24999  -1.87166
  -0.07770  -0.24999  -1.87166
  -0.31770  -0.24999  -1.87166
  -0.55770  -0.24999  -1.87166
  -0.31770  -0.24999  -1.87166
  -0.55770  -0.24999  -1.87166
  -0.55770  -0.24999  -1.87166
  -0.79770  -0.24999  -1.87166
  -0.79770  -0.24999  -1.87166
  -0.79770  -0.24999  -2.11166
  -1.03770  -0.00999  -1.87166
  -1.03770  -0.00999  -1.87166
  -1.03770  -0.00999  -1.87166
  -1.03770   0.23001  -1.87166
  -1.27770   0.23001  -1.87166
  -1.27770   0.23001  -1.87166
  -1.27770   0.23001  -1.87166
  -1.27770   0.23001  -1.87166
  -1.27770   0.47001  -1.87166
  -1.51770   0.47001  -1.87166
  -1.51770   0.47001  -1.87166
  -1.51770   0.47001  -1.87166
  -1.51770   0.47001  -2.11166
  -1.51770   0.47001  -1.87166
  -1.75770   0.47001  -1.87166
  -1.51770   0.47001  -1.87166
  -1.75770   0.47001  -1.87166
  -1.51770   0.47001  -1.87166
  -1.51770   0.47001  -1.87166
  -1.51770   0.47001  -1.87166
  -1.51770   0.47001  -1.87166
  -1.75770   0.47001  -1.87166
  -1.51770   0.47001  -1.87166
  -1.51770   0.47001  -1.87166
  -1.51770   0.47001  -1.87166
  -1.51770   0.47001  -1.87166
  -1.51770   0.47001  -1.87166
  -1.51770   0.47001  -1.63166
  -1.51770   0.47001  -1.63166
  -1.51770   0.47001  -1.63166
  -1.27770   0.47001  -1.63166
  -1.27770   0.47001  -1.63166
  -1.27770   0.47001  -1.63166
  -1.03770   0.47001  -1.39166
  -1.03770   0.47001  -1.39166
  -1.03770   0.23001  -1.39166
  -0.79770   0.23001  -1.39166
  -0.79770   0.23001  -1.39166
  -0.79770   0.23001  -1.39166
  -0.55770   0.23001  -1.39166
  -0.55770   0.23001  -1.39166
  -0.31770   0.23001  -1.39166
  -0.31770  -0.00999  -1.39166
  -0.31770   0.23001  -1.39166
  -0.31770   0.23001  -1.39166
  -0.07770   0.23001  -1.39166
  -0.07770   0.23001  -1.39166
  -0.07770   0.23001  -1.39166
  -0.07770   0.23001  -1.39166
  -0.07770   0.23001  -1.39166
   0.15230  -0.00999  -1.39166
   0.15230  -0.00999  -1.16166
   0.15230  -0.00999  -1.16166
   0.39230   0.23001  -1.16166
   0.39230   0.23001  -1.16166
   0.39230   0.23001  -1.16166
   0.63230  -0.00999  -1.16166
   0.63230  -0.00999  -0.92166
   0.63230  -0.00999  -0.92166
   0.63230  -0.00999  -0.92166
   0.87230  -0.00999  -0.92166
   0.87230  -0.00999  -0.92166
   0.87230  -0.00999  -0.68166
   1.11230  -0.00999  -0.68166
   1.11230  -0.00999  -0.68166
   1.11230  -0.00999  -0.68166
   1.35230  -0.00999  -0.44166
   1.35230  -0.00999  -0.44166
   1.35230  -0.00999  -0.44166
   1.59230  -0.00999  -0.44166
   1.59230  -0.00999  -0.20166
   1.59230  -0.00999  -0.20166
   1.59230  -0.00999  -0.20166
   1.59230  -0.00999   0.03834
   1.59230  -0.00999   0.03834
   1.59230  -0.00999   0.03834
   1.59230  -0.00999   0.27834
   1.59230  -0.00999   0.27834
   1.59230  -0.00999   0.27834
   1.59230  -0.00999   0.51834
   1.59230   0.23001   0.51834
   1.59230  -0.00999   0.51834
   1.35230   0.23001   0.75834
   1.35230   0.23001   0.75834
   1.35230   0.23001   0.99834
   1.35230   0.23001   0.99834
   1.35230   0.23001   0.99834
   1.11230   0.23001   1.23834
   1.11230   0.47001   1.23834
   1.11230   0.47001   1.23834
   1.11230   0.47001   1.47834
   1.11230   0.47001   1.71834
   0.87230   0.47001   1.71834
   0.87230   0.47001   1.95834
   0.87230   0.23001   1.95834
   0.63230   0.47001   2.19834
   0.63230   0.47001   2.43834
   0.63230   0.47001   2.43834
   0.63230   0.47001   2.43834
   0.63230   0.47001   2.67834
   0.63230   0.47001   2.67834
   0.39230   0.47001   2.91834
   0.39230   0.47001   2.91834
   0.39230   0.47001   2.91834
   0.39230   0.47001   2.91834
   0.39230   0.47001   3.15834
   0.15230   0.23001   3.39834
   0.15230   0.23001   3.39834
   0.15230   0.23001   3.39834
   0.15230   0.23001   3.39834
  -0.07770   0.23001   3.39834
  -0.07770   0.23001   3.63834
  -0.07770  -0.00999   3.63834
  -0.07770  -0.00999   3.63834
  -0.07770  -0.00999   3.86834
  -0.07770  -0.00999   3.86834
  -0.07770  -0.00999   3.86834
  -0.07770  -0.00999   3.86834
  -0.07770  -0.24999   3.86834
  -0.07770  -0.24999   4.10834
  -0.07770  -0.24999   4.10834
  -0.07770  -0.24999   4.10834
  -0.31770  -0.00999   4.34834
  -0.07770  -0.00999   4.34834
  -0.07770  -0.00999   4.34834
  -0.07770  -0.00999   4.34834
  -0.07770  -0.00999   4.34834
  -0.31770  -0.00999   4.34834
  -0.07770  -0.00999   4.34834
  -0.07770  -0.00999   4.58834
  -0.07770   0.23001   4.58834
  -0.07770   0.23001   4.58834
  -0.07770   0.23001   4.58834
  -0.07770   0.23001   4.58834
  -0.07770   0.23001   4.58834
  -0.07770   0.23001   4.34834
  -0.07770   0.23001   4.34834
   0.15230   0.23001   4.34834
   0.15230   0.23001   4.34834
   0.15230   0.47001   4.34834
   0.15230   0.47001   4.34834
   0.15230   0.47001   4.34834
   0.15230   0.47001   4.34834
   0.39230   0.47001   4.10834
   0.39230   0.47001   4.10834
   0.39230   0.47001   4.10834
   0.63230   0.47001   4.10834
   0.63230   0.47001   4.10834
   0.63230   0.71001   4.10834
   0.63230   0.47001   3.86834
   0.63230   0.47001   3.86834
   0.87230   0.47001   3.86834
   0.87230   0.47001   3.86834
   0.87230   0.47001   3.63834
   0.87230   0.47001   3.39834
   0.87230   0.47001   3.39834
   0.87230   0.47001   3.39834
   0.87230   0.47001   3.39834
   0.87230   0.47001   3.15834
   0.87230   0.47001   3.15834
   0.87230   0.47001   2.91834
   0.87230   0.47001   2.91834
   0.87230   0.47001   2.67834
   0.87230   0.23001   2.67834
   0.87230   0.23001   2.43834
   0.87230   0.23001   2.43834
   0.87230   0.23001   2.43834
   0.87230   0.23001   2.19834
   0.87230   0.23001   2.19834
   0.87230   0.23001   1.95834
   0.87230   0.23001   1.95834
   0.87230   0.23001   1.71834
   0.87230   0.23001   1.71834
   0.87230   0.23001   1.47834
   0.87230   0.23001   1.47834
   0.87230   0.23001   1.47834
   0.87230   0.23001   1.23834
   0.87230   0.23001   1.23834
   0.87230   0.23001   0.99834
   0.63230   0.23001   0.99834
   0.63230   0.23001   0.75834
   0.63230   0.23001   0.75834
   0.63230  -0.00999   0.51834
   0.63230  -0.00999   0.51834
   0.39230  -0.00999   0.51834
   0.39230  -0.24999   0.27834
   0.39230  -0.24999   0.27834
   0.15230  -0.24999   0.27834
   0.15230  -0.24999   0.03834
   0.15230  -0.24999  -0.20166
  -0.07770  -0.24999  -0.20166
  -0.07770  -0.48999  -0.44166
  -0.07770  -0.48999  -0.44166
  -0.07770  -0.48999  -0.44166
  -0.31770  -0.48999  -0.44166
  -0.31770  -0.48999  -0.68166
  -0.31770  -0.48999  -0.68166
  -0.31770  -0.48999  -0.92166
  -0.55770  -0.24999  -0.92166
  -0.55770  -0.24999  -0.92166
  -0.55770  -0.24999  -1.16166
  -0.79770  -0.24999  -1.16166
  -0.79770  -0.24999  -1.16166
  -0.79770  -0.24999  -1.39166
  -1.03770  -0.24999  -1.39166
  -1.27770  -0.24999  -1.39166
  -1.27770  -0.24999  -1.63166
  -1.27770  -0.24999  -1.63166
  -1.27770  -0.24999  -1.87166
  -1.51770  -0.24999  -1.87166
  -1.51770  -0.24999  -2.11166
  -1.51770  -0.24999  -2.11166
  -1.51770  -0.24999  -2.11166
  -1.75770  -0.24999  -2.35166
  -1.75770  -0.24999  -2.35166
  -1.75770  -0.24999  -2.35166
  -1.99770  -0.24999  -2.59166
  -1.99770  -0.48999  -2.59166
  -1.99770  -0.48999  -2.59166
  -1.99770  -0.48999  -2.59166
  -2.23770  -0.48999  -2.59166
  -2.23770  -0.48999  -2.59166
  -2.23770  -0.48999  -2.59166
  -2.23770  -0.48999  -2.83166
  -2.23770  -0.48999  -2.59166
  -2.23770  -0.48999  -2.59166
  -2.23770  -0.72999  -2.59166
  -2.23770  -0.72999  -2.59166
  -2.47770  -0.72999  -2.59166
  -2.47770  -0.72999  -2.59166
  -2.47770  -0.72999  -2.59166
  -2.47770  -0.72999  -2.59166
  -2.47770  -0.72999  -2.59166
  -2.47770  -0.72999  -2.59166
  -2.47770  -0.96999  -2.59166
  -2.47770  -0.96999  -2.59166
  -2.71770  -0.96999  -2.35166
  -2.71770  -0.96999  -2.35166
  -2.71770  -0.96999  -2.35166
  -2.71770  -1.20999  -2.35166
  -2.71770  -1.20999  -2.35166
  -2.71770  -1.20999  -2.11166
  -2.71770  -1.20999  -2.11166
  -2.71770  -1.20999  -2.11166
  -2.71770  -1.20999  -1.87166
  -2.71770  -1.20999  -1.87166
  -2.71770  -1.20999  -1.87166
  -2.47770  -1.20999  -1.63166
  -2.47770  -1.20999  -1.63166
  -2.47770  -1.20999  -1.39166
  -2.47770  -1.20999  -1.39166
  -2.23770  -1.20999  -1.16166
  -2.23770  -1.20999  -0.92166
  -2.23770  -1.20999  -0.92166
  -1.99770  -1.20999  -0.92166
  -1.99770  -0.96999  -0.68166
  -1.99770  -0.96999  -0.68166
  -1.99770  -0.96999  -0.68166
  -1.75770  -0.96999  -0.44166
  -1.75770  -0.96999  -0.44166
  -1.75770  -0.96999  -0.44166
  -1.75770  -0.96999  -0.44166
  -1.75770  -0.96999  -0.20166
  -1.75770  -0.96999  -0.20166
  -1.75770  -0.96999   0.03834
  -1.75770  -0.72999   0.03834
  -1.51770  -0.72999   0.03834
  -1.51770  -0.72999   0.27834
  -1.51770  -0.72999   0.27834
  -1.51770  -0.72999   0.51834
  -1.51770  -0.48999   0.51834
  -1.51770  -0.48999   0.75834
  -1.27770  -0.48999   0.75834
  -1.27770  -0.48999   0.75834
  -1.27770  -0.48999   0.99834
  -1.27770  -0.24999   0.99834
  -1.27770  -0.24999   0.99834
  -1.03770  -0.00999   0.99834
  -1.03770  -0.00999   1.23834
