********************************************************************************
               CENTRO DE INSTRUMENTACION Y REGISTRO SISMICO  A.C.  
                              FUNDACION ICA, A.C.
     Anaxagoras 814, Col. Narvarte, Benito Juarez, C.P. 03020 Mexico, D.F.
            Tels. 687 45 42/ 687 45  82             Fax. 669 25 12
********************************************************************************
ARCHIVO ESTANDAR DE ACELERACION:
VERSION DEL FORMATO                    : 2.0
NOMBRE DEL ARCHIVO                     : AL019104.011
FECHA Y HORA DE CREACION               : 19 de febrero de 1996/18:44
REF. CATALOGO ACELEROGRAMAS, SMIS 1995 : REGISTRO No. 2739 /PAG. 260


================================================================================
DATOS DE LA ESTACION:
NOMBRE DE LA ESTACION                  : ALAMEDA
CLAVE DE LA ESTACION                   : AL01
LOCALIZACION DE LA ESTACION            : JARDIN ALAMEDA ENTRE AV. HIDALGO Y AV.
                                       : JUAREZ, CENTRO
                                       :
                                       :
                                       :
COORDENADAS DE LA ESTACION             : 19.436 LAT. N 
                                       : 99.145 LONG. W 
ALTITUD (msnm)                         : 2232
TIPO DE SUELO                          : TERRENO BLANDO, MATERIAL COMPRESIBLE
                                       : (ARCILLAS)
                                       : 
INSTITUCION RESPONSABLE                : FICA
                                       :

================================================================================
DATOS DEL ACELEROGRAFO:
MODELO DEL ACELEROGRAFO                : SSA-1
NUMERO DE SERIE DEL ACELEROGRAFO       : 152
NUMERO DE CANALES                      : 3
ORIENTACION C1-C6 (rumbo;orientacion)  : /N00E/+V/N90E
ORIENTACION C7-C12 (rumbo;orientacion) :
VEL. DE MUESTREO, C1-C6 (muestras/s)   : /200/200/200
VEL. DE MUESTREO, C7-C12 (muestras/s)  :
ESC. COMPLETA DE SENSORES, C1-C6, (g)  : /2/2/2
ESC. COMPLETA DE SENSORES, C7-C12, (g) :
FREC. NAT. DE SENSORES, C1-C6, (Hz)    : /50/50/50
FREC. NAT. DE SENSORES, C7-C12, (Hz)   :
AMORTIGUAMIENTO DE SENSORES, C1-C6     : /0.700/0.700/0.700
AMORTIGUAMIENTO DE SENSORES, C7-C12    :
INTERVALO DE MUESTREO, C1-C6, (s)      : /0.005/0.005/0.005
INTERVALO DE MUESTREO, C7-C12, (s)     :
UMBRAL DE DISPARO, C1-C6, (Gal)        : /2/1.5/2
UMBRAL DE DISPARO, C7-C12, (Gal)       :
MEMORIA DE PREEVENTO (s)               : 15
TIEMPO DE POSEVENTO (s)                : 90


================================================================================
DATOS DEL SISMO:
FECHA DEL SISMO (GMT)                  : 01/ABR/91
HORA EPICENTRO (GMT)                   : 07:34:45,9 
MAGNITUD(ES)                           : /Mb=5.50/Ms=5.40/Mc=5.30
COORDENADAS DEL EPICENTRO              : 16.044 LAT. N 
                                       : 98.387 LONG. W 
PROFUNDIDAD FOCAL (km)                 : 25.6 
FUENTE DE LOS DATOS EPICENTRALES       : INSTITUTO DE INGENIERIA UNAM
                                       : 

================================================================================
DATOS DE ESTE REGISTRO:
HORA DE LA PRIMERA MUESTRA (GMT)       : 07:34:00.00
EXACTITUD DEL TIEMPO (s)               :     
DURACION DEL REGISTRO (s), C1-C6       : /144.64/144.64/144.64
DURACION DEL REGISTRO (s), C7-C12      :
NUM. TOTAL DE MUESTRAS, C1-C6          : /28928/28928/28928
NUM. TOTAL DE MUESTRAS, C7-C12         :
ACEL. MAX. (Gal), C1-C6                : /3.66118/1.82526/3.50956
ACEL. MAX., C1-C6, EN LA MUESTRA       :
ACEL. MAX. (Gal), C7-C12               :
ACEL. MAX., C7-C12, EN LA MUESTRA      :
UNIDADES DE LOS DATOS                  : Gal (cm/s/s)
FACTOR DE DECIMACION                   : 1
FORMATO DATOS (FORTRAN,10 campos/dato) : 3F10.5


================================================================================
CALIDAD DEL ACELEROGRAMA:
REGISTRO DIGITAL COMPLETO, CARECE DE TIEMPO ABSOLUTO.


================================================================================
COMENTARIOS:
             El equipo se encontraba con una ganancia de 2 en los ejes
             horizontales y de 4 en el eje vertical, por lo que las es-
             calas completas eran de 1 g y 1/2 g respectivamente.











================================================================================
DATOS DE ACELERACION:
---------+---------+---------+---------+---------+---------+---------+---------+
   CANAL-1   CANAL-2   CANAL-3   CANAL-4   CANAL-5   CANAL-6   CANAL-7   CANAL-8
      N00E        +V      N90E
---------+---------+---------+---------+---------+---------+---------+---------+
[...]
  -0.31118  -0.09474   1.58956
  -0.31118  -0.09474   1.58956
   0.16882  -0.09474   1.58956
   0.16882  -0.09474   1.10956
   0.16882  -0.09474   1.58956
   0.16882  -0.09474   1.10956
   0.16882  -0.09474   1.10956
   0.64882  -0.09474   1.10956
   0.64882   0.14526   1.10956
   0.64882   0.14526   1.10956
   0.64882   0.14526   0.62956
   1.12882   0.14526   1.10956
   1.12882   0.14526   0.62956
   1.12882   0.14526   0.62956
   1.12882   0.38526   0.62956
   1.12882   0.14526   0.62956
   1.12882   0.38526   0.62956
   1.60882   0.38526   0.62956
   1.60882   0.38526   0.62956
   1.60882   0.38526   0.62956
   1.60882   0.38526   0.62956
   1.60882   0.38526   0.62956
   2.08882   0.38526   0.62956
   2.08882   0.38526   0.14956
   2.08882   0.38526   0.62956
   2.08882   0.38526   0.14956
   2.08882   0.38526   0.14956
   2.08882   0.38526   0.14956
   2.08882   0.38526   0.14956
   2.08882   0.14526   0.14956
   2.08882   0.38526   0.14956
   2.08882   0.38526  -0.33044
   2.08882   0.14526   0.14956
   2.08882   0.14526   0.14956
   1.60882   0.38526  -0.33044
   2.08882   0.14526   0.14956
   1.60882   0.14526   0.14956
   2.08882   0.14526   0.14956
   1.60882   0.14526   0.14956
   1.60882   0.14526   0.14956
   1.60882   0.14526   0.14956
   1.60882   0.14526   0.14956
   1.60882  -0.09474   0.14956
   1.60882  -0.09474   0.14956
   1.12882  -0.09474   0.14956
   1.60882  -0.09474   0.14956
   1.12882  -0.09474   0.14956
   1.12882  -0.09474   0.62956
   1.12882  -0.33474   0.62956
   1.12882  -0.09474   0.62956
   1.12882  -0.33474   0.62956
   1.12882  -0.33474   0.62956
   0.64882  -0.33474   0.62956
   0.64882  -0.33474   0.62956
   0.64882  -0.33474   0.62956
   0.64882  -0.33474   0.62956
   0.64882  -0.33474   0.62956
   0.64882  -0.33474   0.62956
   0.64882  -0.33474   0.62956
   0.64882  -0.33474   0.62956
   0.64882  -0.33474   0.62956
   0.64882  -0.33474   0.62956
   0.16882  -0.33474   0.62956
   0.64882  -0.33474   0.62956
   0.64882  -0.33474   0.62956
   0.64882  -0.33474   0.62956
   0.16882  -0.33474   0.62956
   0.64882  -0.33474   0.62956
   0.64882  -0.33474   0.62956
   0.64882  -0.33474   0.62956
   0.64882  -0.33474   0.62956
   0.64882  -0.09474   0.62956
   0.64882  -0.33474   0.62956
   0.64882  -0.33474   0.14956
   0.64882  -0.33474   0.14956
   0.16882  -0.09474   0.14956
   0.16882  -0.33474   0.14956
   0.64882  -0.09474   0.14956
   0.64882  -0.33474   0.14956
   0.16882  -0.09474  -0.33044
   0.64882  -0.09474  -0.33044
   0.64882  -0.09474  -0.33044
   0.64882  -0.09474  -0.33044
   0.16882  -0.09474  -0.33044
   0.64882  -0.09474  -0.81044
   0.64882  -0.09474  -0.81044
   0.64882  -0.09474  -0.81044
   0.16882  -0.09474  -0.81044
   0.16882  -0.09474  -0.81044
   0.16882  -0.09474  -0.81044
   0.16882  -0.09474  -0.81044
   0.16882  -0.09474  -0.81044
   0.16882  -0.09474  -1.29044
   0.16882  -0.09474  -0.81044
   0.16882  -0.09474  -1.29044
   0.16882  -0.09474  -1.29044
   0.16882  -0.09474  -1.29044
   0.16882  -0.09474  -1.29044
  -0.31118  -0.09474  -1.29044
  -0.31118  -0.09474  -1.29044
  -0.31118  -0.09474  -1.29044
  -0.31118  -0.09474  -1.29044
  -0.31118  -0.09474  -0.81044
  -0.31118  -0.09474  -1.29044
  -0.31118  -0.09474  -1.29044
  -0.79118  -0.09474  -1.29044
  -0.79118  -0.09474  -0.81044
  -0.79118  -0.09474  -0.81044
  -1.27118  -0.09474  -0.81044
  -0.79118  -0.33474  -0.81044
  -0.79118  -0.33474  -0.81044
  -0.79118  -0.33474  -0.81044
  -0.79118  -0.33474  -0.81044
  -0.79118  -0.33474  -0.81044
  -0.79118  -0.33474  -0.33044
  -0.79118  -0.33474  -0.33044
  -1.27118  -0.33474  -0.81044
  -0.79118  -0.33474  -0.33044
  -0.79118  -0.33474  -0.33044
  -0.79118  -0.33474  -0.33044
  -0.79118  -0.33474  -0.33044
  -0.79118  -0.33474  -0.33044
  -0.79118  -0.33474   0.14956
  -0.79118  -0.33474  -0.33044
  -0.31118  -0.33474   0.14956
  -0.79118  -0.33474  -0.33044
  -0.79118  -0.33474  -0.33044
  -0.79118  -0.33474   0.14956
  -0.31118  -0.33474   0.14956
  -0.31118  -0.33474   0.14956
   0.16882  -0.33474   0.14956
   0.16882  -0.57474   0.14956
   0.16882  -0.33474   0.14956
   0.16882  -0.33474   0.14956
   0.16882  -0.33474   0.14956
   0.16882  -0.33474   0.14956
   0.16882  -0.09474   0.14956
   0.16882  -0.33474   0.62956
   0.64882  -0.09474   0.14956
   0.64882  -0.09474   0.62956
   0.64882  -0.09474   0.62956
   0.64882  -0.09474   0.62956
   1.12882  -0.09474   0.62956
   0.64882  -0.09474   0.14956
   1.12882  -0.09474   0.62956
   1.12882   0.14526   0.14956
   1.60882   0.14526   0.14956
   1.60882   0.14526   0.14956
   1.60882   0.38526   0.14956
   1.60882   0.38526   0.14956
   1.60882   0.38526   0.14956
   1.60882   0.14526   0.14956
   2.08882   0.38526   0.14956
   2.08882   0.38526   0.14956
   2.08882   0.38526   0.14956
   2.08882   0.38526   0.14956
   2.08882   0.38526   0.14956
   2.08882   0.38526   0.14956
   2.08882   0.38526   0.14956
   2.08882   0.14526   0.14956
   2.56882   0.38526   0.14956
   2.08882   0.38526   0.14956
   2.56882   0.38526   0.14956
   2.56882   0.38526  -0.33044
   2.56882   0.38526   0.14956
   2.56882   0.14526   0.14956
   2.56882   0.14526   0.14956
   2.56882   0.38526  -0.33044
   2.56882   0.14526   0.14956
   2.56882   0.14526   0.14956
   2.08882   0.14526   0.14956
   2.56882   0.14526   0.14956
   2.08882   0.14526   0.14956
   2.08882   0.14526   0.14956
   2.08882   0.14526   0.14956
   2.08882   0.14526   0.62956
   2.08882   0.14526   0.14956
   2.08882   0.14526   0.62956
   2.08882   0.14526   0.62956
   2.08882   0.14526   0.62956
   2.08882   0.14526   0.62956
   1.60882   0.14526   0.62956
   2.08882   0.14526   0.62956
   2.08882   0.14526   0.62956
   2.08882   0.14526   0.62956
   1.60882   0.14526   0.62956
   1.60882   0.14526   0.62956
   1.60882   0.14526   0.62956
   1.60882   0.14526   0.62956
   1.60882   0.14526   0.62956
   1.12882   0.14526   0.62956
   1.12882   0.14526   0.62956
   1.12882   0.14526   0.62956
   1.12882   0.14526   0.62956
   1.12882   0.14526   1.10956
   1.12882   0.14526   0.62956
   0.64882   0.14526   1.10956
   1.12882   0.14526   1.10956
   1.12882   0.14526   1.10956
   1.12882   0.14526   0.62956
   1.12882   0.14526   0.62956
   1.12882  -0.09474   0.62956
   1.12882  -0.09474   0.62956
   1.12882  -0.09474   1.10956
   1.12882  -0.09474   1.10956
   1.12882  -0.09474   1.10956
   1.12882  -0.33474   1.10956
   1.12882  -0.09474   1.10956
   1.12882  -0.09474   1.10956
   1.12882  -0.09474   0.62956
   1.12882  -0.09474   0.62956
   1.12882  -0.09474   1.10956
   1.12882  -0.33474   0.62956
   1.12882  -0.33474   1.10956
   1.12882  -0.09474   0.62956
   1.12882  -0.33474   0.62956
   1.12882  -0.33474   0.62956
   1.12882  -0.33474   0.62956
   1.12882  -0.33474   0.62956
   1.12882  -0.09474   0.62956
   0.64882  -0.33474   0.14956
   0.64882  -0.33474   0.62956
   1.12882  -0.33474   0.62956
   1.12882  -0.33474   0.62956
   0.64882  -0.33474   0.14956
   1.12882  -0.33474   0.62956
   1.12882  -0.33474   0.62956
   0.64882  -0.33474   0.14956
   0.64882  -0.33474   0.14956
   0.64882  -0.33474   0.14956
   0.64882  -0.09474   0.14956
   1.12882  -0.33474   0.14956
   0.64882  -0.09474   0.14956
   0.64882  -0.09474  -0.33044
   0.64882  -0.09474  -0.33044
   0.64882  -0.09474  -0.33044
   0.64882  -0.09474  -0.33044
   0.64882  -0.09474  -0.33044
   0.64882  -0.09474  -0.33044
   0.64882  -0.09474  -0.33044
   0.16882  -0.09474  -0.81044
   0.16882   0.14526  -0.81044
   0.16882   0.14526  -0.81044
   0.16882   0.14526  -0.81044
  -0.31118   0.14526  -0.81044
  -0.31118   0.14526  -1.29044
  -0.31118   0.14526  -1.29044
  -0.31118   0.14526  -1.29044
  -0.79118   0.14526  -1.29044
  -0.79118   0.14526  -1.29044
  -0.79118   0.38526  -1.29044
  -0.79118   0.14526  -1.29044
  -0.79118   0.14526  -1.29044
  -1.27118   0.38526  -1.29044
  -1.27118   0.14526  -1.29044
  -1.27118   0.14526  -1.29044
  -1.27118   0.38526  -1.29044
  -1.27118   0.14526  -1.29044
  -1.27118   0.14526  -1.29044
  -1.74118   0.14526  -1.29044
  -1.74118   0.14526  -1.29044
  -1.74118   0.14526  -1.29044
  -1.74118   0.14526  -1.29044
  -1.74118   0.14526  -1.29044
  -1.74118   0.14526  -1.29044
  -2.22118   0.14526  -1.29044
  -1.74118   0.14526  -1.29044
  -2.22118   0.14526  -1.29044
  -2.22118   0.14526  -1.29044
  -2.22118   0.14526  -1.29044
  -2.22118   0.14526  -1.29044
  -2.22118   0.14526  -1.29044
  -2.22118   0.14526  -1.29044
  -2.22118   0.14526  -1.29044
  -2.22118  -0.09474  -1.29044
  -2.22118  -0.09474  -0.81044
  -2.22118  -0.09474  -1.29044
  -2.22118  -0.09474  -1.29044
  -2.22118  -0.09474  -1.29044
  -2.22118  -0.09474  -0.81044
  -2.22118  -0.09474  -1.29044
  -2.22118  -0.09474  -0.81044
  -1.74118  -0.09474  -0.81044
  -2.22118  -0.09474  -1.29044
  -1.74118  -0.33474  -0.81044
  -1.74118  -0.09474  -0.81044
  -1.74118  -0.33474  -0.81044
  -1.74118  -0.33474  -0.81044
  -1.27118  -0.33474  -0.81044
  -1.27118  -0.09474  -1.29044
  -1.27118  -0.09474  -0.81044
  -1.27118  -0.09474  -0.81044
  -1.27118  -0.09474  -0.81044
  -0.79118  -0.09474  -0.81044
  -0.79118  -0.33474  -0.81044
  -0.79118  -0.09474  -0.81044
  -0.79118  -0.09474  -0.81044
  -0.31118  -0.09474  -0.81044
  -0.31118  -0.09474  -0.81044
  -0.31118  -0.09474  -0.81044
  -0.31118  -0.09474  -0.81044
   0.16882  -0.09474  -0.81044
   0.16882   0.14526  -0.81044
   0.16882   0.14526  -0.81044
   0.16882   0.14526  -0.33044
   0.16882   0.14526  -0.33044
   0.16882   0.14526  -0.33044
   0.16882   0.14526  -0.33044
   0.16882   0.14526  -0.33044
   0.64882   0.14526  -0.33044
   0.16882   0.14526  -0.33044
   0.16882   0.14526  -0.33044
   0.16882   0.14526  -0.33044
   0.16882   0.14526  -0.33044
   0.16882   0.38526   0.14956
   0.16882   0.14526   0.14956
   0.16882   0.14526   0.14956
   0.16882   0.14526   0.14956
  -0.31118   0.14526   0.14956
  -0.31118   0.38526   0.14956
  -0.31118   0.38526   0.14956
  -0.31118   0.14526   0.14956
  -0.79118   0.38526   0.62956
  -0.79118   0.14526   0.62956
  -0.79118   0.14526   0.62956
  -1.27118   0.14526   0.62956
  -1.27118   0.14526   0.62956
  -1.27118   0.14526   0.62956
  -1.74118   0.14526   0.62956
  -1.74118   0.14526   0.62956
  -2.22118   0.14526   0.62956
  -2.22118  -0.09474   0.62956
  -2.22118  -0.09474   0.62956
  -2.70118  -0.09474   0.62956
  -2.70118  -0.09474   0.62956
  -2.70118  -0.09474   0.62956
  -2.70118  -0.09474   0.62956
  -2.70118  -0.09474   0.62956
  -3.18118  -0.09474   0.62956
  -3.18118  -0.09474   0.62956
  -3.18118  -0.09474   1.10956
  -3.18118  -0.09474   1.10956
  -3.18118  -0.09474   1.10956
  -3.18118  -0.33474   1.10956
  -3.66118  -0.09474   1.10956
  -3.66118  -0.09474   1.10956
  -3.66118  -0.09474   0.62956
  -3.18118  -0.09474   0.62956
  -3.18118  -0.09474   0.62956
  -3.18118  -0.09474   1.10956
  -3.18118  -0.09474   0.62956
  -3.18118  -0.09474   0.62956
  -3.18118  -0.09474   0.62956
  -3.18118  -0.33474   0.62956
  -2.70118  -0.09474   0.62956
  -2.70118  -0.09474   0.62956
  -2.70118  -0.33474   0.62956
  -2.70118  -0.09474   0.62956
  -2.70118  -0.09474   0.14956
  -2.22118  -0.33474   0.62956
  -2.22118  -0.09474   0.62956
  -2.22118  -0.33474   0.14956
  -1.74118  -0.09474   0.14956
  -1.74118  -0.09474   0.14956
  -1.74118  -0.33474   0.62956
  -1.27118  -0.33474   0.14956
  -1.27118  -0.09474   0.14956
  -1.27118  -0.09474   0.14956
  -1.27118  -0.09474   0.14956
  -0.79118  -0.09474   0.14956
  -0.79118  -0.09474   0.14956
  -0.79118  -0.09474   0.14956
  -0.79118  -0.09474  -0.33044
  -0.79118   0.14526  -0.33044
  -0.31118   0.14526  -0.81044
  -0.31118   0.14526  -0.33044
  -0.31118   0.14526  -0.33044
  -0.31118   0.14526  -0.33044
  -0.31118   0.14526  -0.33044
   0.16882   0.38526  -0.33044
   0.16882   0.38526  -0.81044
   0.16882   0.38526  -0.33044
   0.16882   0.38526  -0.33044
  -0.31118   0.38526  -0.33044
  -0.31118   0.38526  -0.33044
  -0.31118   0.38526  -0.33044
  -0.31118   0.62526  -0.33044
  -0.31118   0.38526  -0.81044
  -0.31118   0.38526  -0.81044
  -0.31118   0.38526  -0.81044
  -0.79118   0.38526  -0.33044
  -0.79118   0.38526  -0.33044
  -0.79118   0.38526  -0.81044
  -0.79118   0.38526  -0.81044
  -0.79118   0.38526  -0.33044
  -1.27118   0.38526  -0.81044
  -1.27118   0.38526  -0.81044
  -1.27118   0.38526  -0.81044
  -1.27118   0.38526  -0.33044
  -1.74118   0.38526  -0.33044
  -1.74118   0.38526  -0.33044
  -1.74118   0.38526  -0.33044
  -2.22118   0.38526  -0.33044
  -2.22118   0.38526  -0.81044
  -2.22118   0.14526  -0.81044
  -2.70118   0.14526  -0.81044
  -2.70118   0.14526  -0.33044
  -2.70118   0.14526  -0.33044
  -2.70118  -0.09474  -0.33044
  -3.18118   0.14526  -0.33044
  -3.18118   0.14526  -0.33044
  -3.66118   0.14526  -0.81044
  -3.66118   0.14526  -0.81044
  -3.66118   0.14526  -0.81044
  -3.66118   0.14526  -0.33044
  -3.66118  -0.09474  -0.33044
  -3.66118   0.14526  -0.81044
  -3.66118   0.14526  -0.81044
  -3.66118   0.14526  -0.81044
  -3.66118   0.14526  -0.81044
  -3.66118   0.14526  -0.81044
  -3.66118   0.14526  -0.81044
  -3.66118   0.14526  -0.81044
  -3.66118   0.14526  -0.81044
  -3.66118   0.14526  -0.81044
  -3.66118   0.14526  -0.81044
  -3.66118   0.14526  -0.81044
  -3.18118   0.14526  -0.81044
  -3.18118   0.38526  -0.81044
  -3.18118   0.14526  -0.81044
  -2.70118   0.14526  -0.81044
  -2.70118   0.14526  -0.81044
  -2.70118   0.14526  -0.81044
  -2.70118   0.14526  -0.81044
  -2.70118   0.14526  -0.81044
  -2.22118   0.14526  -0.81044
  -2.22118   0.14526  -0.81044
  -2.22118   0.14526  -0.81044
  -1.74118   0.38526  -0.33044
  -1.27118   0.38526  -0.33044
  -1.27118   0.14526  -0.33044
  -1.27118   0.38526  -0.33044
  -0.79118   0.38526  -0.33044
  -0.79118   0.38526  -0.33044
  -0.31118   0.14526   0.14956
  -0.31118   0.14526   0.14956
   0.16882   0.38526   0.14956
   0.16882   0.38526  -0.33044
   0.16882   0.14526   0.14956
   0.16882   0.14526   0.14956
   0.64882   0.14526   0.62956
   0.64882   0.14526   0.14956
   0.64882   0.14526   0.62956
   1.12882   0.14526   0.62956
   1.12882   0.14526   0.62956
   1.12882   0.14526   0.14956
   1.60882   0.14526   0.62956
   1.60882   0.14526   0.14956
   1.60882   0.14526   0.62956
   1.60882   0.14526   0.62956
   1.60882   0.14526   0.62956
   2.08882   0.14526   0.62956
   2.08882   0.14526   0.62956
   2.08882   0.14526   0.62956
   2.08882   0.38526   0.62956
   1.60882   0.38526   0.14956
   1.60882   0.14526   0.62956
   1.60882   0.38526   0.62956
   1.60882   0.14526   0.14956
   1.60882   0.38526   0.14956
   1.60882   0.38526   0.62956
   1.60882   0.38526   0.14956
   1.60882   0.38526   0.14956
   1.60882   0.38526   0.62956
   1.60882   0.38526   0.14956
   1.12882   0.38526   0.14956
   1.60882   0.38526   0.14956
   1.12882   0.14526   0.14956
   1.12882   0.14526   0.14956
   1.12882   0.14526   0.14956
   1.12882   0.14526   0.14956
   1.12882   0.14526   0.14956
   1.12882   0.14526   0.14956
   1.12882   0.14526   0.14956
   1.12882   0.14526   0.14956
   1.12882   0.14526   0.14956
   1.12882  -0.09474   0.14956
   1.12882  -0.09474   0.14956
   1.12882  -0.09474   0.14956
   1.12882  -0.09474   0.14956
   0.64882  -0.09474   0.14956
   1.12882  -0.09474   0.14956
   1.12882  -0.09474   0.14956
