********************************************************************************
              CENTRO DE INSTRUMENTACION Y REGISTRO SISMICO  A.C.

    Anaxagoras 814, Col. Narvarte, Benito Juarez, C.P. 03020 Mexico, D.F.
           Tels. 5687 45 42/ 5687 45  82             Fax. 5669 25 12
********************************************************************************
ARCHIVO ESTANDAR DE ACELERACION:
VERSION DEL FORMATO                    : 2.0
NOMBRE DEL ARCHIVO                     : AL0120090327084816
FECHA Y HORA DE CREACION               : 10/JUN/09, 22:01
REF. CATALOGO ACELEROGRAMAS, SMIS 1996 : REGISTRO No.     /PAG.


================================================================================
DATOS DE LA ESTACION:
NOMBRE DE LA ESTACION                  : ALAMEDA
CLAVE DE LA ESTACION                   : AL01
LOCALIZACION DE LA ESTACION            : Del. Cuauhtémoc, Col. Centro,          
                                       : Dr. Mora entre Av. Hidalgo             
                                       : y Av. Juárez.                          
                                       :                                        
                                       : 
COORDENADAS DE LA ESTACION             : 19.4356 LAT. N
                                       : 99.1453 LONG. W
ALTITUD (msnm)                         : 2232
TIPO DE SUELO                          : Terreno blando, material compresible
                                       : (arcillas)                
                                       : 
INSTITUCION RESPONSABLE                : CIRES
                                       : 

================================================================================
DATOS DEL ACELEROGRAFO:
MODELO DEL ACELEROGRAFO                : RADESD
NUMERO DE SERIE DEL ACELEROGRAFO       : 152
NUMERO DE CANALES                      : 3
ORIENTACION C1-C6 (rumbo;orientacion)  : /N00E/+V/N90W
ORIENTACION C7-C12 (rumbo;orientacion) : 
VEL. DE MUESTREO, C1-C6 (muestras/s)   : /100/100/100
VEL. DE MUESTREO, C7-C12 (muestras/s)  : 
ESC. COMPLETA DE SENSORES, C1-C6, (g)  : /0.5/0.5/0.5
ESC. COMPLETA DE SENSORES, C7-C12, (g) : 
FREC. NAT. DE SENSORES, C1-C6, (Hz)    : /51.29/51.09/53.75
FREC. NAT. DE SENSORES, C7-C12, (Hz)   : 
AMORTIGUAMIENTO DE SENSORES, C1-C6     : /0.5519/0.5670/0.5810
AMORTIGUAMIENTO DE SENSORES, C7-C12    : 
INTERVALO DE MUESTREO, C1-C6, (s)      : /0.01/0.01/0.01
INTERVALO DE MUESTREO, C7-C12, (s)     : 
UMBRAL DE DISPARO, C1-C6, (Gal)        : /0.72/1.44/0.72
UMBRAL DE DISPARO, C7-C12, (Gal)       : 
MEMORIA DE PREEVENTO (s)               : 56.0
TIEMPO DE POSEVENTO (s)                : 64.0


================================================================================
DATOS DEL SISMO:
FECHA DEL SISMO (GMT)                  : 27/MAR/09
HORA EPICENTRO (GMT)                   : 08:48:16.0
MAGNITUD(ES)                           : /Mc=5.3
COORDENADAS DEL EPICENTRO              : 17.35 LAT. N
                                       : 100.82 LONG. W
PROFUNDIDAD FOCAL (km)                 : 30
FUENTE DE LOS DATOS EPICENTRALES       : SSN
                                       : INSTITUTO DE GEOFISICA, UNAM

================================================================================
DATOS DE ESTE REGISTRO:
HORA DE LA PRIMERA MUESTRA (GMT)       : 08:49:35.00
EXACTITUD DEL TIEMPO (s)               : 0.01
DURACION DEL REGISTRO (s), C1-C6       : /85.75/85.75/85.75
DURACION DEL REGISTRO (s), C7-C12      : 
NUM. TOTAL DE MUESTRAS, C1-C6          : /8575/8575/8575
NUM. TOTAL DE MUESTRAS, C7-C12         : 
ACEL. MAX. (Gal), C1-C6                : /3.006/1.80013/3.49006
ACEL. MAX., C1-C6, EN LA MUESTRA       : /6354/6232/6040
ACEL. MAX. (Gal), C7-C12               : 
ACEL. MAX., C7-C12, EN LA MUESTRA      : 
UNIDADES DE LOS DATOS                  : Gal (cm/s/s)
FACTOR DE DECIMACION                   : 1
FORMATO DATOS (FORTRAN,10 campos/dato) : 3F10.5


================================================================================
CALIDAD DEL ACELEROGRAMA:
REGISTRO DIGITAL COMPLETO CON TIEMPO ABSOLUTO CORRECTO.


================================================================================
COMENTARIOS:














================================================================================
DATOS DE ACELERACION:
---------+---------+---------+---------+---------+---------+---------+---------+
   CANAL-1   CANAL-2   CANAL-3   CANAL-4   CANAL-5   CANAL-6   CANAL-7   CANAL-8
      N00E        +V      N90W
---------+---------+---------+---------+---------+---------+---------+---------+
[...]
  -0.61180   0.11523  -0.61702
  -0.37238   0.11523  -0.61702
  -0.61180   0.11523  -0.61702
  -0.37238   0.11523  -0.61702
  -0.37238   0.11523  -0.61702
  -0.37238  -0.12419  -0.85644
  -0.37238  -0.12419  -0.61702
  -0.13296   0.11523  -0.61702
  -0.13296   0.11523  -0.61702
  -0.13296  -0.12419  -0.85644
   0.10646   0.11523  -0.85644
   0.10646  -0.12419  -0.61702
   0.10646  -0.12419  -0.61702
   0.34588  -0.12419  -0.61702
   0.34588  -0.12419  -0.61702
   0.34588  -0.12419  -0.61702
   0.58530  -0.36361  -0.61702
   0.58530  -0.12419  -0.61702
   0.58530  -0.36361  -0.61702
   0.58530  -0.36361  -0.85644
   0.82472  -0.36361  -0.85644
   0.58530  -0.36361  -0.85644
   0.58530  -0.36361  -0.61702
   0.58530  -0.36361  -0.61702
   0.58530  -0.36361  -0.61702
   0.34588  -0.12419  -0.61702
   0.58530  -0.36361  -0.61702
   0.34588  -0.60303  -0.61702
   0.34588  -0.60303  -0.37760
   0.10646  -0.60303  -0.37760
   0.10646  -0.36361  -0.37760
   0.10646  -0.36361  -0.13818
   0.10646  -0.12419  -0.13818
  -0.13296  -0.12419  -0.13818
   0.10646  -0.12419   0.10124
   0.10646  -0.36361   0.10124
  -0.13296  -0.12419   0.34066
  -0.13296  -0.12419   0.10124
  -0.13296   0.11523   0.10124
  -0.13296   0.11523   0.10124
  -0.37238   0.35465   0.10124
  -0.37238   0.11523   0.10124
  -0.13296   0.11523   0.10124
  -0.13296   0.35465  -0.13818
  -0.37238   0.11523  -0.37760
  -0.13296   0.35465  -0.37760
  -0.13296   0.11523  -0.61702
  -0.13296   0.35465  -0.61702
  -0.37238   0.35465  -0.85644
  -0.37238   0.11523  -1.09586
  -0.37238   0.11523  -1.09586
  -0.13296   0.35465  -1.09586
  -0.37238   0.35465  -1.57470
  -0.37238   0.11523  -1.57470
  -0.61180   0.11523  -1.57470
  -0.61180   0.11523  -1.57470
  -0.85122   0.11523  -1.81412
  -0.85122   0.11523  -1.81412
  -0.85122   0.11523  -1.81412
  -1.09064   0.11523  -1.81412
  -1.33006   0.11523  -1.81412
  -1.33006   0.35465  -1.81412
  -1.09064   0.11523  -1.57470
  -1.33006   0.35465  -1.57470
  -1.33006   0.11523  -1.57470
  -1.33006   0.11523  -1.57470
  -1.09064   0.35465  -1.33528
  -1.33006   0.11523  -1.09586
  -1.09064   0.11523  -0.85644
  -0.85122   0.11523  -0.85644
  -0.85122   0.35465  -0.61702
  -0.61180   0.35465  -0.61702
  -0.61180   0.35465  -0.37760
  -0.37238   0.35465  -0.13818
  -0.37238   0.35465   0.10124
  -0.13296   0.35465   0.10124
   0.10646   0.35465   0.10124
   0.10646   0.59407   0.34066
   0.10646   0.59407   0.34066
   0.58530   0.35465   0.34066
   0.34588   0.35465   0.58008
   0.82472   0.11523   0.34066
   0.82472   0.35465   0.34066
   0.82472   0.11523   0.34066
   0.82472   0.11523   0.34066
   0.82472  -0.36361   0.58008
   0.82472  -0.36361   0.58008
   1.06414  -0.60303   0.34066
   1.06414  -0.36361   0.58008
   1.54298  -0.60303   0.58008
   1.30356  -0.84245   0.34066
   1.54298  -0.84245   0.58008
   1.54298  -0.60303   0.58008
   1.54298  -0.84245   0.81950
   1.54298  -0.60303   0.81950
   1.54298  -0.60303   1.05892
   1.54298  -0.60303   1.05892
   1.78240  -0.60303   1.29834
   1.78240  -0.60303   1.05892
   1.78240  -0.36361   1.29834
   1.78240  -0.36361   1.29834
   1.78240  -0.12419   1.53776
   1.78240   0.11523   1.53776
   1.78240   0.11523   1.29834
   2.02182   0.11523   1.53776
   2.02182   0.11523   1.53776
   2.02182   0.11523   1.29834
   1.78240   0.11523   1.05892
   1.78240   0.35465   1.29834
   1.78240   0.35465   1.05892
   1.78240   0.59407   1.29834
   1.78240   0.35465   1.05892
   1.78240   0.59407   0.58008
   1.78240   0.35465   0.58008
   1.78240   0.35465   0.58008
   1.54298   0.35465   0.34066
   1.54298   0.35465   0.34066
   1.30356   0.35465   0.10124
   1.30356   0.35465  -0.13818
   1.30356   0.11523  -0.13818
   1.30356   0.11523  -0.37760
   1.30356   0.11523  -0.37760
   0.82472  -0.12419  -0.61702
   0.82472  -0.12419  -0.37760
   0.58530   0.11523  -0.61702
   0.34588  -0.12419  -0.37760
   0.34588  -0.12419  -0.37760
   0.34588  -0.36361   0.10124
   0.34588  -0.36361  -0.13818
  -0.13296  -0.36361  -0.13818
  -0.13296  -0.36361   0.10124
  -0.13296  -0.36361   0.34066
  -0.37238  -0.36361   0.58008
  -0.37238  -0.12419   0.58008
  -0.61180  -0.36361   0.81950
  -0.61180  -0.36361   1.05892
  -0.37238  -0.12419   1.05892
  -0.61180  -0.12419   1.29834
  -0.37238  -0.12419   1.29834
  -0.37238  -0.36361   1.29834
  -0.13296  -0.12419   1.29834
  -0.13296  -0.12419   1.29834
  -0.13296  -0.12419   1.29834
   0.10646   0.11523   1.29834
   0.10646  -0.12419   1.29834
   0.10646   0.11523   0.81950
   0.34588   0.11523   1.29834
   0.34588  -0.12419   1.05892
   0.34588  -0.12419   1.05892
   0.34588  -0.12419   0.81950
   0.58530  -0.12419   0.81950
   0.34588  -0.12419   0.58008
   0.10646  -0.60303   0.58008
   0.10646  -0.12419   0.58008
   0.10646  -0.12419   0.58008
  -0.13296  -0.12419   0.34066
  -0.13296  -0.12419   0.58008
  -0.37238  -0.12419   0.34066
  -0.61180  -0.12419   0.58008
  -0.85122  -0.12419   0.58008
  -1.33006  -0.12419   0.34066
  -1.56948  -0.12419   0.58008
  -1.33006  -0.12419   0.58008
  -1.56948   0.11523   0.34066
  -2.04832  -0.12419   0.34066
  -2.28774   0.11523   0.34066
  -2.28774   0.11523   0.58008
  -2.28774   0.35465   0.34066
  -2.76658   0.35465   0.34066
  -2.76658   0.35465   0.34066
  -2.76658   0.35465   0.10124
  -2.76658   0.11523   0.10124
  -2.76658   0.59407   0.10124
  -2.52716   0.59407   0.10124
  -2.52716   0.35465  -0.13818
  -2.28774   0.59407  -0.13818
  -2.28774   0.35465  -0.37760
  -1.80890   0.35465  -0.61702
  -1.80890   0.11523  -0.61702
  -1.56948   0.35465  -0.85644
  -1.33006   0.11523  -0.85644
  -1.09064   0.11523  -1.09586
  -0.37238   0.11523  -1.33528
  -0.61180  -0.12419  -1.57470
  -0.13296   0.11523  -1.81412
  -0.13296  -0.12419  -1.81412
  -0.13296  -0.36361  -1.81412
   0.10646  -0.36361  -1.81412
   0.34588  -0.36361  -2.05354
   0.34588  -0.12419  -2.05354
   0.10646  -0.36361  -2.05354
   0.10646  -0.12419  -1.81412
   0.10646  -0.36361  -1.81412
   0.10646  -0.36361  -1.81412
  -0.13296  -0.12419  -1.57470
  -0.37238  -0.12419  -1.57470
  -0.37238  -0.12419  -1.33528
  -0.61180  -0.12419  -1.33528
  -0.61180  -0.36361  -1.09586
  -0.85122  -0.12419  -1.09586
  -1.09064  -0.12419  -0.85644
  -1.09064   0.11523  -0.85644
  -1.33006   0.11523  -0.61702
  -1.09064   0.35465  -0.37760
  -1.09064   0.11523  -0.13818
  -1.33006  -0.12419  -0.37760
  -1.09064   0.11523  -0.13818
  -1.09064   0.11523   0.10124
  -1.09064   0.11523  -0.13818
  -1.09064   0.11523  -0.13818
  -0.85122   0.35465   0.10124
  -0.85122   0.35465   0.10124
  -0.61180   0.11523   0.10124
  -0.37238   0.35465   0.10124
  -0.13296   0.35465   0.10124
   0.10646   0.11523   0.10124
   0.10646   0.11523  -0.13818
   0.34588   0.11523  -0.13818
   0.58530   0.11523   0.10124
   0.58530   0.11523  -0.37760
   0.58530   0.11523  -0.13818
   0.58530  -0.12419  -0.37760
   0.58530   0.11523  -0.37760
   0.58530  -0.12419  -0.37760
   0.82472  -0.12419  -0.61702
   0.82472  -0.12419  -0.61702
   0.58530  -0.12419  -0.61702
   0.82472  -0.12419  -0.61702
   0.58530   0.35465  -0.85644
   0.82472   0.11523  -0.61702
   0.58530   0.35465  -0.61702
   0.58530   0.35465  -0.85644
   0.58530   0.35465  -0.85644
   0.34588   0.35465  -0.61702
   0.34588   0.35465  -0.85644
   0.34588   0.35465  -0.85644
   0.34588   0.35465  -0.85644
   0.34588   0.35465  -0.61702
   0.10646   0.35465  -0.61702
   0.34588   0.35465  -0.61702
   0.34588   0.11523  -0.61702
   0.34588   0.35465  -0.61702
   0.34588   0.11523  -0.61702
   0.58530  -0.12419  -0.37760
   0.58530  -0.12419  -0.37760
   0.58530   0.11523  -0.37760
   0.82472  -0.36361  -0.13818
   1.06414  -0.12419  -0.13818
   1.06414  -0.36361   0.10124
   1.06414  -0.36361   0.10124
   1.54298  -0.36361   0.34066
   1.54298  -0.36361   0.34066
   1.54298  -0.36361   0.34066
   1.30356  -0.60303   0.34066
   1.54298  -0.36361   0.81950
   1.54298  -0.36361   0.81950
   1.54298  -0.36361   0.81950
   1.06414  -0.60303   1.05892
   1.06414  -0.60303   1.05892
   1.06414  -0.36361   1.29834
   0.58530  -0.60303   1.29834
   0.34588  -0.60303   1.05892
   0.34588  -0.36361   1.53776
  -0.13296  -0.36361   1.29834
  -0.37238  -0.36361   1.29834
  -0.61180  -0.36361   1.53776
  -0.85122  -0.36361   1.77718
  -0.85122  -0.36361   1.53776
  -1.33006  -0.36361   1.53776
  -1.33006  -0.36361   1.53776
  -1.33006  -0.12419   1.53776
  -1.56948  -0.12419   1.77718
  -1.56948  -0.12419   1.53776
  -1.80890  -0.12419   1.53776
  -1.80890   0.11523   1.53776
  -1.56948   0.11523   1.53776
  -1.56948   0.35465   1.29834
  -1.33006   0.35465   1.29834
  -1.56948   0.11523   1.05892
  -1.56948   0.35465   1.05892
  -1.33006   0.35465   0.81950
  -1.33006   0.35465   0.58008
  -0.85122   0.35465   0.81950
  -1.09064   0.35465   0.34066
  -0.85122   0.59407   0.58008
  -0.85122   0.35465   0.58008
  -0.61180   0.59407   0.58008
  -0.61180   0.35465   0.34066
  -0.37238   0.35465   0.34066
  -0.13296   0.35465   0.34066
  -0.13296   0.11523   0.34066
  -0.13296   0.35465   0.34066
  -0.13296   0.35465   0.34066
   0.10646   0.11523   0.10124
   0.10646   0.11523   0.10124
   0.34588   0.11523   0.10124
   0.34588  -0.12419   0.10124
   0.34588   0.11523   0.10124
   0.82472   0.11523  -0.13818
   0.58530   0.11523   0.10124
   0.58530  -0.12419   0.10124
   0.82472  -0.12419   0.34066
   0.82472  -0.12419   0.10124
   0.82472  -0.12419   0.34066
   0.82472  -0.12419   0.34066
   0.82472  -0.12419   0.34066
   1.06414  -0.12419   0.34066
   0.82472  -0.36361   0.34066
   0.82472  -0.36361   0.58008
   0.82472  -0.36361   0.58008
   0.82472  -0.60303   0.58008
   0.82472  -0.12419   0.81950
   1.06414  -0.36361   0.81950
   1.06414  -0.36361   1.05892
   1.30356  -0.12419   1.05892
   1.30356  -0.12419   1.29834
   1.30356  -0.12419   1.29834
   1.54298  -0.12419   1.53776
   1.54298  -0.12419   1.53776
   1.30356  -0.12419   1.53776
   1.54298  -0.12419   1.77718
   1.54298   0.11523   1.53776
   1.54298   0.11523   1.77718
   1.54298  -0.12419   1.53776
   1.54298   0.11523   1.53776
   1.54298   0.11523   1.29834
   1.54298   0.35465   1.29834
   1.54298   0.35465   0.81950
   1.54298   0.35465   0.81950
   1.54298   0.35465   0.58008
   1.54298   0.35465   0.34066
   1.54298   0.35465   0.10124
   1.30356   0.59407  -0.13818
   1.06414   0.59407  -0.37760
   1.30356   0.59407  -0.85644
   1.30356   0.59407  -1.09586
   1.06414   0.35465  -1.57470
   1.06414   0.83349  -1.81412
   1.06414   0.35465  -2.05354
   0.82472   0.59407  -2.29296
   0.82472   0.59407  -2.29296
   0.82472   0.35465  -2.77180
   0.82472   0.35465  -3.01122
   0.58530   0.35465  -3.01122
   0.58530   0.11523  -3.25064
   0.34588   0.35465  -3.25064
   0.34588   0.35465  -3.49006
   0.10646   0.11523  -3.25064
  -0.13296   0.11523  -3.49006
   0.10646   0.11523  -3.25064
  -0.13296  -0.12419  -3.49006
  -0.13296  -0.36361  -3.25064
  -0.13296  -0.12419  -3.01122
  -0.37238   0.11523  -2.77180
  -0.37238  -0.36361  -2.53238
  -0.61180  -0.36361  -2.53238
  -0.37238  -0.36361  -2.05354
  -0.61180  -0.60303  -1.81412
  -0.37238  -0.12419  -1.57470
  -0.37238  -0.36361  -1.33528
  -0.37238  -0.36361  -1.33528
  -0.37238  -0.12419  -0.85644
  -0.37238  -0.12419  -0.85644
  -0.37238  -0.36361  -0.61702
  -0.37238  -0.60303  -0.37760
  -0.13296  -0.36361  -0.37760
  -0.13296  -0.60303  -0.13818
  -0.13296  -0.60303   0.10124
   0.10646  -0.60303   0.34066
   0.34588  -0.60303   0.58008
   0.34588  -0.60303   0.58008
   0.34588  -0.60303   0.81950
   0.58530  -0.60303   0.81950
   0.58530  -0.60303   0.81950
   0.58530  -0.60303   0.81950
   0.58530  -0.60303   0.81950
   0.58530  -0.36361   0.81950
   0.82472  -0.36361   1.05892
   0.82472  -0.36361   1.05892
   0.58530  -0.36361   1.05892
   0.58530  -0.12419   0.81950
   0.58530  -0.60303   0.81950
   0.34588  -0.36361   0.81950
   0.34588  -0.12419   0.58008
   0.10646  -0.12419   0.58008
  -0.13296  -0.12419   0.58008
  -0.37238   0.11523   0.34066
  -0.61180   0.11523   0.10124
  -0.85122   0.35465   0.10124
  -1.09064   0.35465  -0.13818
  -1.09064   0.59407  -0.13818
  -1.09064   0.35465  -0.37760
  -1.33006   0.35465  -0.85644
  -1.56948   0.59407  -1.09586
  -1.56948   0.59407  -0.85644
  -1.80890   0.59407  -0.85644
  -2.04832   0.83349  -0.85644
  -1.80890   0.83349  -0.85644
  -1.80890   0.59407  -0.61702
  -1.80890   0.59407  -0.37760
  -2.04832   0.59407  -0.61702
  -1.80890   0.59407  -0.37760
  -1.80890   0.35465  -0.13818
  -1.80890   0.59407  -0.13818
  -1.56948   0.11523   0.10124
  -1.33006   0.35465   0.34066
  -1.09064   0.11523   0.34066
  -0.85122   0.11523   0.34066
  -0.61180   0.11523   0.58008
  -1.09064  -0.12419   0.58008
  -0.61180  -0.12419   0.58008
  -0.61180  -0.36361   0.58008
  -0.37238   0.11523   0.81950
  -0.37238  -0.12419   0.58008
  -0.37238   0.11523   0.34066
  -0.37238  -0.12419   0.10124
  -0.37238   0.11523   0.10124
  -0.61180  -0.12419  -0.13818
  -0.61180   0.11523  -0.13818
  -0.61180   0.11523  -0.37760
  -0.85122   0.11523  -0.37760
  -0.85122   0.11523  -0.37760
  -0.85122   0.11523  -0.61702
  -1.09064   0.35465  -0.61702
  -0.85122   0.11523  -0.37760
  -1.09064   0.11523  -0.13818
  -1.09064   0.11523  -0.13818
  -0.85122  -0.12419  -0.13818
  -0.61180  -0.12419   0.10124
  -0.85122  -0.12419   0.34066
  -0.85122  -0.36361   0.58008
  -0.61180  -0.36361   0.81950
  -0.13296  -0.36361   1.29834
  -0.13296  -0.60303   1.29834
  -0.13296  -0.60303   1.53776
  -0.13296  -0.60303   1.53776
  -0.13296  -0.60303   2.01660
   0.10646  -0.84245   2.25602
   0.34588  -0.84245   2.01660
   0.58530  -0.84245   2.25602
   0.34588  -0.36361   2.25602
   0.58530  -0.36361   2.25602
   0.34588  -0.60303   1.77718
   0.34588  -0.36361   1.77718
   0.34588  -0.36361   1.53776
   0.10646  -0.36361   1.05892
   0.10646  -0.12419   1.05892
   0.10646  -0.12419   0.58008
  -0.13296   0.11523   0.58008
  -0.37238   0.35465   0.34066
  -0.37238   0.11523  -0.13818
  -0.37238   0.11523  -0.13818
  -0.61180   0.35465  -0.37760
  -0.61180   0.35465  -0.61702
  -0.61180   0.59407  -0.85644
  -0.85122   0.35465  -0.85644
  -0.85122   0.59407  -1.09586
  -1.09064   0.59407  -1.09586
  -1.09064   0.59407  -1.33528
  -1.09064   0.83349  -1.33528
  -1.09064   0.83349  -1.33528
  -1.09064   0.59407  -1.33528
  -1.09064   0.83349  -1.33528
  -1.09064   0.59407  -1.09586
  -1.09064   0.59407  -1.33528
  -0.85122   0.35465  -1.09586
  -1.09064   0.59407  -0.85644
  -1.33006   0.35465  -1.09586
  -1.09064   0.35465  -0.85644
  -0.85122   0.35465  -0.61702
  -0.61180  -0.12419  -0.61702
  -0.61180  -0.12419  -0.37760
  -0.37238  -0.12419  -0.13818
  -0.37238  -0.12419  -0.13818
  -0.37238  -0.36361  -0.13818
  -0.13296  -0.12419   0.34066
   0.10646  -0.36361   0.34066
   0.10646  -0.12419   0.58008
   0.34588  -0.36361   0.58008
   0.34588  -0.36361   0.81950
   0.58530  -0.36361   0.81950
   0.58530  -0.36361   1.05892
   0.82472  -0.36361   1.29834
   0.82472  -0.36361   1.05892
   0.82472  -0.36361   1.05892
   0.82472  -0.12419   1.29834
   1.06414  -0.36361   1.53776
   1.06414  -0.36361   1.53776
   1.06414  -0.36361   1.53776
   1.30356  -0.36361   1.53776
   1.06414  -0.60303   1.53776
   1.06414  -0.60303   1.53776
   0.82472  -0.36361   1.29834
   0.82472  -0.60303   1.29834
   0.82472  -0.36361   1.05892
   0.82472  -0.60303   1.05892
