********************************************************************************
               CENTRO DE INSTRUMENTACION Y REGISTRO SISMICO  A.C.  
                       Coordinacion de Servicios Tecnicos
     Anaxagoras 814, Col. Narvarte, Benito Juarez, C.P. 03020 Mexico, D.F.
            Tels. 667 45 42/ 687 45  82             Fax. 669 25 12
********************************************************************************
ARCHIVO ESTANDAR DE ACELERACION:
VERSION DEL FORMATO                    : 2.0
NOMBRE DEL ARCHIVO                     : AL019707.192
FECHA Y HORA DE CREACION               : 18/MAR/98, 13:30
REF. CATALOGO ACELEROGRAMAS, SMIS 1996 : REGISTRO No.     /PAG.


================================================================================
DATOS DE LA ESTACION:
NOMBRE DE LA ESTACION                  : ALAMEDA
CLAVE DE LA ESTACION                   : AL01
LOCALIZACION DE LA ESTACION            : JARDIN ALAMEDA ENTRE AV. HIDALGO Y AV.
                                       : JUAREZ, CENTRO
                                       :
                                       :
                                       :
COORDENADAS DE LA ESTACION             : 19.436 LAT. N 
                                       : 99.145 LONG. W 
ALTITUD (msnm)                         : 2232
TIPO DE SUELO                          : TERRENO BLANDO, MATERIAL COMPRESIBLE
                                       : (ARCILLAS)
                                       : 
INSTITUCION RESPONSABLE                : CIRES 
                                       :

================================================================================
DATOS DEL ACELEROGRAFO:
MODELO DEL ACELEROGRAFO                : SSA-1
NUMERO DE SERIE DEL ACELEROGRAFO       : 152
NUMERO DE CANALES                      : 3
ORIENTACION C1-C6 (rumbo;orientacion)  : /N00E/+V/N90E
ORIENTACION C7-C12 (rumbo;orientacion) :
VEL. DE MUESTREO, C1-C6 (muestras/s)   : /200/200/200
VEL. DE MUESTREO, C7-C12 (muestras/s)  :
ESC. COMPLETA DE SENSORES, C1-C6, (g)  : /2/2/2
ESC. COMPLETA DE SENSORES, C7-C12, (g) :
FREC. NAT. DE SENSORES, C1-C6, (Hz)    : /51.29/51.09/53.75
FREC. NAT. DE SENSORES, C7-C12, (Hz)   :
AMORTIGUAMIENTO DE SENSORES, C1-C6     : /.5519/.5670/.5810
AMORTIGUAMIENTO DE SENSORES, C7-C12    :
INTERVALO DE MUESTREO, C1-C6, (s)      : /0.005/0.005/0.005
INTERVALO DE MUESTREO, C7-C12, (s)     :
UMBRAL DE DISPARO, C1-C6, (Gal)        : /2/1.5/2
UMBRAL DE DISPARO, C7-C12, (Gal)       :
MEMORIA DE PREEVENTO (s)               : 15
TIEMPO DE POSEVENTO (s)                : 60


================================================================================
DATOS DEL SISMO:
FECHA DEL SISMO (GMT)                  : 19/JUL/97
HORA EPICENTRO (GMT)                   : 14:22:04:1
MAGNITUD(ES)                           : /Ms=6.3
COORDENADAS DEL EPICENTRO              : 15.8 LAT. N
                                       : 98.3 LONG. W
PROFUNDIDAD FOCAL (km)                 : 5.0
FUENTE DE LOS DATOS EPICENTRALES       : SSN
                                       : INSTITUTO DE GEOFISICA, UNAM

================================================================================
DATOS DE ESTE REGISTRO:
HORA DE LA PRIMERA MUESTRA (GMT)       : 14:24:11.00
EXACTITUD DEL TIEMPO (s)               :     
DURACION DEL REGISTRO (s), C1-C6       : /102.40/102.40/102.40
DURACION DEL REGISTRO (s), C7-C12      :
NUM. TOTAL DE MUESTRAS, C1-C6          : /20480/20480/20480
NUM. TOTAL DE MUESTRAS, C7-C12         :
ACEL. MAX. (Gal), C1-C6                : /3.22783/1.51905/2.99852
ACEL. MAX., C1-C6, EN LA MUESTRA       :
ACEL. MAX. (Gal), C7-C12               :
ACEL. MAX., C7-C12, EN LA MUESTRA      :
UNIDADES DE LOS DATOS                  : Gal (cm/s/s)
FACTOR DE DECIMACION                   : 1
FORMATO DATOS (FORTRAN,10 campos/dato) : 3F10.5


================================================================================
CALIDAD DEL ACELEROGRAMA:
REGISTRO DIGITAL COMPLETO, CARECE DE TIEMPO ABSOLUTO.


================================================================================
COMENTARIOS:














================================================================================
DATOS DE ACELERACION:
---------+---------+---------+---------+---------+---------+---------+---------+
   CANAL-1   CANAL-2   CANAL-3   CANAL-4   CANAL-5   CANAL-6   CANAL-7   CANAL-8
      N00E        +V      N90E
---------+---------+---------+---------+---------+---------+---------+---------+
[...]
   2.02783  -0.07905   1.07148
   2.02783  -0.31905   1.31148
   2.02783  -0.07905   1.31148
   2.02783  -0.31905   1.31148
   2.02783  -0.07905   1.31148
   2.02783  -0.07905   1.31148
   2.02783  -0.31905   1.31148
   1.78783  -0.31905   1.55148
   2.02783  -0.31905   1.55148
   2.02783  -0.31905   1.55148
   2.02783  -0.07905   1.55148
   2.02783  -0.31905   1.79148
   2.02783  -0.31905   1.79148
   2.02783  -0.31905   1.79148
   2.02783  -0.31905   1.79148
   2.02783  -0.31905   2.03148
   2.02783  -0.31905   1.79148
   2.02783  -0.07905   2.03148
   2.02783  -0.07905   2.03148
   2.02783  -0.31905   2.03148
   2.02783  -0.07905   2.03148
   2.02783  -0.07905   2.03148
   2.02783  -0.07905   2.03148
   2.02783  -0.07905   2.03148
   2.02783  -0.07905   2.03148
   1.78783  -0.07905   2.27148
   1.78783  -0.07905   2.27148
   1.78783  -0.07905   2.27148
   1.78783  -0.07905   2.03148
   1.78783  -0.07905   2.03148
   1.54783  -0.07905   2.27148
   1.54783  -0.07905   2.27148
   1.54783  -0.07905   2.03148
   1.54783  -0.07905   2.27148
   1.54783  -0.07905   2.27148
   1.30783  -0.07905   2.27148
   1.30783  -0.07905   2.27148
   1.30783  -0.07905   2.27148
   1.06783  -0.07905   2.27148
   1.06783  -0.07905   2.27148
   1.06783   0.16095   2.03148
   1.06783   0.16095   2.03148
   1.06783   0.16095   2.03148
   0.82783  -0.07905   2.03148
   0.82783  -0.07905   2.03148
   0.82783  -0.07905   2.03148
   0.82783  -0.07905   2.03148
   0.58783   0.16095   2.03148
   0.58783   0.16095   2.03148
   0.58783   0.16095   2.03148
   0.58783   0.16095   2.03148
   0.34783   0.16095   1.79148
   0.34783   0.16095   1.79148
   0.34783  -0.07905   1.79148
   0.34783  -0.07905   1.55148
   0.10783  -0.07905   1.79148
   0.10783  -0.07905   1.55148
  -0.13217   0.16095   1.55148
  -0.13217   0.16095   1.55148
  -0.13217  -0.07905   1.55148
  -0.13217  -0.07905   1.31148
  -0.37217   0.16095   1.31148
  -0.37217   0.16095   1.31148
  -0.37217   0.16095   1.31148
  -0.61217   0.16095   1.31148
  -0.61217  -0.07905   1.31148
  -0.61217   0.16095   1.07148
  -0.61217  -0.07905   1.07148
  -0.85217  -0.07905   1.07148
  -0.85217  -0.07905   1.07148
  -0.85217  -0.07905   1.07148
  -0.85217  -0.07905   0.83148
  -0.85217  -0.07905   0.83148
  -0.85217  -0.07905   1.07148
  -0.85217  -0.07905   0.83148
  -0.85217  -0.07905   1.07148
  -0.85217   0.16095   0.83148
  -0.85217   0.16095   0.83148
  -0.85217   0.16095   0.83148
  -0.85217   0.16095   0.83148
  -0.85217   0.16095   0.83148
  -0.85217   0.16095   0.83148
  -0.85217   0.16095   0.83148
  -0.85217  -0.07905   0.83148
  -0.85217  -0.07905   0.83148
  -0.85217  -0.07905   0.83148
  -0.61217   0.16095   0.83148
  -0.61217  -0.07905   0.83148
  -0.61217   0.16095   0.83148
  -0.61217   0.16095   0.83148
  -0.61217   0.16095   0.83148
  -0.61217   0.16095   0.60148
  -0.61217   0.16095   0.60148
  -0.61217   0.16095   0.60148
  -0.37217   0.16095   0.60148
  -0.37217   0.16095   0.60148
  -0.37217   0.16095   0.60148
  -0.37217   0.16095   0.60148
  -0.37217   0.16095   0.60148
  -0.37217   0.16095   0.60148
  -0.37217   0.16095   0.60148
  -0.13217   0.16095   0.60148
  -0.13217   0.16095   0.36148
  -0.13217   0.16095   0.36148
  -0.13217   0.16095   0.60148
  -0.13217  -0.07905   0.36148
  -0.13217   0.16095   0.36148
  -0.13217  -0.07905   0.60148
   0.10783  -0.07905   0.36148
   0.10783  -0.07905   0.36148
   0.10783  -0.07905   0.36148
   0.10783   0.16095   0.36148
   0.10783   0.16095   0.60148
   0.10783  -0.07905   0.36148
   0.10783  -0.07905   0.36148
   0.10783  -0.07905   0.36148
   0.10783  -0.07905   0.36148
   0.10783   0.16095   0.36148
   0.10783   0.16095   0.36148
   0.10783  -0.07905   0.36148
   0.10783  -0.07905   0.12148
   0.10783  -0.07905   0.12148
   0.10783   0.16095   0.12148
   0.10783   0.16095   0.12148
  -0.13217  -0.07905   0.12148
  -0.13217  -0.07905   0.12148
  -0.13217  -0.07905  -0.11852
  -0.13217  -0.07905  -0.11852
  -0.13217  -0.07905   0.12148
  -0.13217  -0.07905  -0.11852
  -0.13217  -0.07905  -0.11852
  -0.37217  -0.07905  -0.11852
  -0.37217  -0.07905  -0.11852
  -0.37217  -0.07905  -0.11852
  -0.37217  -0.07905  -0.11852
  -0.61217  -0.07905  -0.11852
  -0.61217  -0.07905  -0.11852
  -0.61217  -0.07905  -0.35852
  -0.85217  -0.07905  -0.35852
  -0.85217  -0.07905  -0.35852
  -0.85217  -0.07905  -0.35852
  -0.85217  -0.07905  -0.35852
  -1.09217  -0.07905  -0.35852
  -1.09217  -0.07905  -0.35852
  -1.09217  -0.07905  -0.35852
  -1.09217  -0.07905  -0.59852
  -1.33217  -0.07905  -0.59852
  -1.33217  -0.07905  -0.59852
  -1.33217  -0.07905  -0.83852
  -1.57217  -0.07905  -0.83852
  -1.57217  -0.07905  -0.83852
  -1.57217  -0.07905  -0.83852
  -1.57217  -0.07905  -0.83852
  -1.80217  -0.07905  -0.83852
  -1.80217  -0.07905  -1.07852
  -1.80217  -0.07905  -1.07852
  -1.80217  -0.07905  -1.07852
  -1.80217  -0.07905  -1.07852
  -2.04217  -0.07905  -1.07852
  -2.04217  -0.07905  -1.31852
  -2.04217  -0.07905  -1.31852
  -2.04217  -0.07905  -1.31852
  -2.28217  -0.07905  -1.55852
  -2.28217  -0.07905  -1.55852
  -2.28217  -0.07905  -1.55852
  -2.28217   0.16095  -1.55852
  -2.52217  -0.07905  -1.79852
  -2.28217  -0.07905  -1.79852
  -2.28217  -0.07905  -1.79852
  -2.52217  -0.07905  -1.79852
  -2.52217   0.16095  -1.79852
  -2.52217  -0.07905  -1.79852
  -2.52217   0.16095  -1.79852
  -2.52217   0.16095  -1.79852
  -2.52217   0.16095  -2.03852
  -2.52217   0.16095  -2.03852
  -2.28217   0.16095  -2.03852
  -2.28217   0.16095  -2.27852
  -2.52217   0.16095  -2.27852
  -2.28217   0.16095  -2.27852
  -2.28217   0.16095  -2.27852
  -2.28217   0.16095  -2.27852
  -2.28217   0.16095  -2.27852
  -2.28217   0.16095  -2.27852
  -2.28217  -0.07905  -2.27852
  -2.04217   0.16095  -2.51852
  -2.28217  -0.07905  -2.51852
  -2.04217  -0.07905  -2.51852
  -2.04217   0.16095  -2.51852
  -2.04217   0.16095  -2.51852
  -2.04217   0.16095  -2.51852
  -2.04217   0.16095  -2.51852
  -1.80217   0.40095  -2.51852
  -1.80217   0.16095  -2.51852
  -1.80217   0.16095  -2.75852
  -1.80217   0.16095  -2.75852
  -1.80217   0.16095  -2.75852
  -1.80217   0.16095  -2.75852
  -1.80217   0.16095  -2.75852
  -1.80217   0.16095  -2.75852
  -1.57217   0.16095  -2.75852
  -1.57217  -0.07905  -2.75852
  -1.57217  -0.07905  -2.75852
  -1.33217  -0.07905  -2.75852
  -1.33217   0.16095  -2.75852
  -1.33217   0.16095  -2.75852
  -1.09217   0.16095  -2.75852
  -1.09217   0.16095  -2.75852
  -1.09217   0.16095  -2.75852
  -1.09217   0.16095  -2.51852
  -1.09217   0.16095  -2.51852
  -1.09217   0.16095  -2.51852
  -0.85217   0.16095  -2.75852
  -0.85217   0.40095  -2.51852
  -0.85217   0.40095  -2.51852
  -0.85217   0.40095  -2.51852
  -0.85217   0.16095  -2.51852
  -0.85217   0.16095  -2.51852
  -0.85217   0.16095  -2.51852
  -0.85217   0.16095  -2.51852
  -0.61217   0.16095  -2.27852
  -0.61217   0.16095  -2.27852
  -0.61217   0.16095  -2.27852
  -0.61217   0.16095  -2.03852
  -0.37217   0.16095  -2.03852
  -0.37217   0.16095  -1.79852
  -0.37217   0.16095  -2.03852
  -0.37217   0.16095  -1.79852
  -0.37217  -0.07905  -1.79852
  -0.37217  -0.07905  -1.79852
  -0.37217  -0.07905  -1.79852
  -0.37217  -0.07905  -1.79852
  -0.37217  -0.07905  -1.55852
  -0.37217  -0.07905  -1.55852
  -0.37217  -0.07905  -1.55852
  -0.37217  -0.07905  -1.31852
  -0.13217  -0.07905  -1.31852
  -0.13217  -0.31905  -1.31852
  -0.13217  -0.31905  -1.07852
  -0.13217  -0.31905  -1.07852
  -0.13217  -0.31905  -0.83852
  -0.13217  -0.31905  -0.83852
  -0.13217  -0.31905  -0.83852
  -0.13217  -0.31905  -0.59852
  -0.13217  -0.31905  -0.59852
  -0.13217  -0.31905  -0.35852
  -0.13217  -0.31905  -0.35852
  -0.13217  -0.31905  -0.35852
  -0.13217  -0.31905  -0.11852
  -0.13217  -0.31905  -0.11852
  -0.13217  -0.55905  -0.11852
  -0.13217  -0.55905   0.12148
  -0.13217  -0.55905   0.12148
  -0.13217  -0.55905   0.12148
  -0.13217  -0.55905   0.12148
  -0.13217  -0.55905   0.36148
  -0.13217  -0.55905   0.36148
  -0.37217  -0.55905   0.36148
  -0.13217  -0.55905   0.36148
  -0.37217  -0.55905   0.36148
  -0.37217  -0.55905   0.60148
  -0.37217  -0.55905   0.60148
  -0.37217  -0.55905   0.60148
  -0.37217  -0.55905   0.60148
  -0.37217  -0.55905   0.60148
  -0.37217  -0.55905   0.60148
  -0.37217  -0.55905   0.60148
  -0.61217  -0.55905   0.60148
  -0.61217  -0.55905   0.60148
  -0.61217  -0.55905   0.83148
  -0.61217  -0.55905   0.83148
  -0.61217  -0.55905   0.83148
  -0.61217  -0.55905   0.83148
  -0.61217  -0.55905   0.83148
  -0.37217  -0.55905   0.83148
  -0.61217  -0.55905   0.83148
  -0.61217  -0.55905   0.83148
  -0.61217  -0.55905   0.83148
  -0.85217  -0.55905   0.83148
  -0.85217  -0.55905   1.07148
  -0.61217  -0.55905   1.07148
  -0.61217  -0.31905   1.07148
  -0.61217  -0.31905   1.07148
  -0.61217  -0.31905   1.07148
  -0.61217  -0.31905   0.83148
  -0.61217  -0.31905   0.83148
  -0.61217  -0.31905   0.83148
  -0.61217  -0.31905   0.83148
  -0.37217  -0.31905   0.83148
  -0.37217  -0.31905   0.83148
  -0.37217  -0.31905   0.83148
  -0.37217  -0.31905   0.83148
  -0.37217  -0.31905   0.83148
  -0.37217  -0.31905   0.83148
  -0.37217  -0.31905   0.83148
  -0.37217  -0.31905   1.07148
  -0.13217  -0.31905   1.07148
  -0.13217  -0.07905   1.07148
  -0.13217  -0.07905   1.07148
  -0.13217  -0.07905   1.07148
  -0.13217  -0.07905   1.07148
  -0.13217  -0.07905   1.07148
   0.10783  -0.07905   1.07148
   0.10783  -0.07905   0.83148
   0.10783  -0.07905   0.60148
   0.34783   0.16095   0.83148
   0.34783   0.16095   0.83148
   0.34783   0.16095   0.83148
   0.58783   0.16095   1.07148
   0.58783   0.16095   1.07148
   0.58783   0.16095   1.07148
   0.82783   0.16095   1.07148
   0.82783   0.16095   1.07148
   0.82783   0.16095   1.07148
   1.06783   0.16095   1.07148
   1.06783   0.16095   1.07148
   1.30783   0.16095   1.07148
   1.30783  -0.07905   1.07148
   1.30783  -0.07905   1.07148
   1.54783  -0.07905   1.07148
   1.54783  -0.07905   1.07148
   1.54783  -0.07905   1.07148
   1.78783  -0.07905   1.07148
   1.78783  -0.07905   1.07148
   1.78783  -0.07905   1.07148
   2.02783  -0.07905   1.31148
   2.02783  -0.07905   1.31148
   2.02783  -0.07905   1.07148
   2.02783  -0.07905   1.07148
   2.26783  -0.07905   1.07148
   2.26783   0.16095   1.07148
   2.26783   0.16095   1.31148
   2.26783   0.16095   1.07148
   2.50783   0.16095   1.07148
   2.50783   0.16095   1.31148
   2.50783   0.16095   1.31148
   2.74783   0.16095   1.31148
   2.74783   0.16095   1.31148
   2.74783   0.16095   1.31148
   2.98783  -0.07905   1.55148
   2.98783  -0.07905   1.55148
   2.98783   0.16095   1.31148
   2.98783  -0.07905   1.31148
   2.98783  -0.07905   1.55148
   2.98783  -0.07905   1.31148
   2.98783  -0.07905   1.55148
   2.98783  -0.07905   1.55148
   2.98783  -0.07905   1.55148
   2.98783  -0.07905   1.55148
   3.22783  -0.07905   1.55148
   3.22783  -0.07905   1.55148
   3.22783  -0.07905   1.55148
   2.98783   0.16095   1.79148
   2.98783  -0.07905   1.55148
   2.98783  -0.07905   1.55148
   2.98783  -0.07905   1.55148
   2.98783   0.16095   1.55148
   2.98783   0.16095   1.55148
   2.98783   0.16095   1.55148
   2.98783   0.16095   1.79148
   2.98783   0.16095   1.79148
   2.98783   0.16095   1.79148
   2.98783   0.16095   1.79148
   2.98783   0.16095   1.79148
   2.98783   0.16095   1.79148
   2.98783   0.16095   1.79148
   2.98783   0.16095   1.79148
   2.74783   0.16095   1.79148
   2.74783   0.16095   1.79148
   2.74783  -0.07905   1.79148
   2.74783   0.16095   1.55148
   2.74783   0.16095   1.79148
   2.74783   0.16095   1.79148
   2.50783   0.16095   1.79148
   2.50783   0.16095   1.79148
   2.50783   0.16095   1.55148
   2.50783   0.16095   1.79148
   2.50783   0.16095   1.79148
   2.50783   0.16095   1.79148
   2.50783   0.16095   1.79148
   2.26783   0.16095   1.55148
   2.26783   0.16095   1.55148
   2.26783   0.16095   1.55148
   2.26783   0.16095   1.55148
   2.26783   0.16095   1.55148
   2.26783   0.16095   1.55148
   2.02783   0.16095   1.55148
   2.02783   0.16095   1.55148
   2.02783  -0.07905   1.55148
   2.02783  -0.07905   1.55148
   2.02783  -0.07905   1.31148
   2.02783  -0.07905   1.31148
   2.02783  -0.07905   1.31148
   2.02783  -0.07905   1.31148
   2.02783  -0.07905   1.07148
   1.78783  -0.07905   1.07148
   1.78783   0.16095   1.07148
   1.78783   0.16095   1.07148
   1.54783   0.16095   0.83148
   1.54783   0.16095   0.83148
   1.54783   0.16095   0.83148
   1.54783   0.16095   1.07148
   1.54783   0.16095   0.83148
   1.54783   0.16095   0.83148
   1.54783   0.16095   0.83148
   1.30783   0.16095   0.83148
   1.30783   0.40095   0.83148
   1.30783   0.16095   0.60148
   1.30783   0.16095   0.60148
   1.30783   0.16095   0.60148
   1.30783   0.16095   0.60148
   1.06783   0.16095   0.60148
   1.30783   0.16095   0.60148
   1.30783   0.16095   0.60148
   1.30783   0.16095   0.60148
   1.06783   0.16095   0.60148
   1.06783   0.16095   0.60148
   1.06783   0.16095   0.36148
   1.06783  -0.07905   0.36148
   0.82783   0.16095   0.36148
   0.82783   0.16095   0.36148
   0.82783   0.16095   0.36148
   0.58783   0.16095   0.12148
   0.58783   0.16095   0.36148
   0.58783   0.16095   0.12148
   0.58783  -0.07905   0.12148
   0.58783   0.16095   0.12148
   0.58783   0.16095   0.12148
   0.58783  -0.07905   0.12148
   0.58783   0.16095   0.12148
   0.34783  -0.07905   0.12148
   0.34783  -0.07905   0.12148
   0.34783  -0.07905   0.12148
   0.34783  -0.07905   0.12148
   0.10783  -0.07905   0.12148
   0.10783  -0.07905   0.12148
   0.10783  -0.07905   0.12148
   0.10783  -0.07905   0.12148
   0.10783  -0.07905   0.12148
   0.10783  -0.07905   0.12148
   0.10783   0.16095   0.12148
   0.10783   0.16095   0.12148
   0.10783  -0.07905   0.12148
  -0.13217  -0.07905  -0.11852
  -0.13217  -0.07905   0.12148
  -0.13217  -0.07905   0.12148
  -0.13217  -0.07905   0.12148
  -0.13217  -0.07905  -0.11852
  -0.37217   0.16095  -0.11852
  -0.37217  -0.07905   0.12148
  -0.37217  -0.07905   0.12148
  -0.37217  -0.07905  -0.11852
  -0.37217  -0.07905   0.12148
  -0.61217  -0.07905   0.12148
  -0.61217  -0.07905   0.12148
  -0.61217  -0.07905  -0.11852
  -0.61217  -0.07905  -0.11852
  -0.61217  -0.07905   0.12148
  -0.61217  -0.07905  -0.11852
  -0.61217  -0.07905  -0.11852
  -0.61217  -0.07905  -0.11852
  -0.61217  -0.07905  -0.11852
  -0.85217  -0.07905  -0.11852
  -0.61217  -0.07905  -0.11852
  -0.85217  -0.07905  -0.11852
  -0.61217  -0.07905  -0.11852
  -0.61217  -0.07905  -0.11852
  -0.85217  -0.07905  -0.11852
  -0.85217  -0.07905  -0.11852
  -0.85217  -0.07905  -0.35852
  -0.85217  -0.07905  -0.35852
  -0.85217  -0.07905  -0.35852
  -0.85217  -0.07905  -0.35852
  -0.85217  -0.07905  -0.35852
  -0.85217   0.16095  -0.35852
  -0.85217   0.16095  -0.35852
  -0.85217   0.16095  -0.35852
  -1.09217   0.16095  -0.35852
  -0.85217   0.16095  -0.59852
  -0.85217   0.16095  -0.59852
  -1.09217  -0.07905  -0.59852
  -1.09217  -0.07905  -0.59852
  -1.09217   0.16095  -0.59852
  -1.09217   0.16095  -0.59852
  -1.09217  -0.07905  -0.59852
  -1.09217  -0.07905  -0.59852
  -1.09217  -0.31905  -0.59852
  -1.09217  -0.07905  -0.83852
  -1.09217  -0.07905  -0.83852
  -1.09217  -0.07905  -0.83852
  -1.09217  -0.07905  -0.83852
  -1.09217  -0.07905  -1.07852
  -1.09217  -0.07905  -1.07852
  -1.33217  -0.07905  -0.83852
  -1.33217  -0.07905  -1.07852
  -1.33217   0.16095  -1.07852
  -1.33217   0.16095  -1.07852
  -1.57217   0.16095  -1.07852
  -1.57217   0.16095  -1.07852
  -1.57217   0.16095  -1.31852
