********************************************************************************
              CENTRO DE INSTRUMENTACION Y REGISTRO SISMICO  A.C.                

    Anaxagoras 814, Col. Narvarte, Benito Juarez, C.P. 03020 Mexico, D.F.       
           Tels. 5687 45 42/ 5687 45  82             Fax. 5669 25 12            
********************************************************************************
ARCHIVO ESTANDAR DE ACELERACION:
VERSION DEL FORMATO                    : 2.0
NOMBRE DEL ARCHIVO                     : AL0119990930163114
FECHA Y HORA DE CREACION               : 23/JUL/14, 17:56
REF. CATALOGO ACELEROGRAMAS, SMIS 1996 : REGISTRO No.     /PAG.


================================================================================
DATOS DE LA ESTACION:
NOMBRE DE LA ESTACION                  : ALAMEDA
CLAVE DE LA ESTACION                   : AL01
LOCALIZACION DE LA ESTACION            : Del. Cuauhtémoc, Col. Centro,          
                                       : Dr. Mora entre Av. Hidalgo             
                                       : y Av. Juárez.                          
                                       :                                        
                                       : 
COORDENADAS DE LA ESTACION             : 19.4356 LAT. N
                                       : 99.1453 LONG. W
ALTITUD (msnm)                         : 2232
TIPO DE SUELO                          : Terreno blando, material compresible
                                       : (arcillas)                
                                       : 
INSTITUCION RESPONSABLE                : CIRES


================================================================================
DATOS DEL ACELEROGRAFO:
MODELO DEL ACELEROGRAFO                : SSA-1
NUMERO DE SERIE DEL ACELEROGRAFO       : 152
NUMERO DE CANALES                      : 3
ORIENTACION C1-C6 (rumbo;orientacion)  : /S00E/+V/N90W
ORIENTACION C7-C12 (rumbo;orientacion) : 
VEL. DE MUESTREO, C1-C6 (muestras/s)   : /200/200/200
VEL. DE MUESTREO, C7-C12 (muestras/s)  : 
ESC. COMPLETA DE SENSORES, C1-C6, (g)  : /2.0/2.0/2.0
ESC. COMPLETA DE SENSORES, C7-C12, (g) : 
FREC. NAT. DE SENSORES, C1-C6, (Hz)    : /51.29/51.09/53.75
FREC. NAT. DE SENSORES, C7-C12, (Hz)   : 
AMORTIGUAMIENTO DE SENSORES, C1-C6     : /0.5519/0.5670/0.5810
AMORTIGUAMIENTO DE SENSORES, C7-C12    : 
INTERVALO DE MUESTREO, C1-C6, (s)      : /0.005/0.005/0.005
INTERVALO DE MUESTREO, C7-C12, (s)     : 
UMBRAL DE DISPARO, C1-C6, (Gal)        : /2.0/1.5/2.0
UMBRAL DE DISPARO, C7-C12, (Gal)       : 
MEMORIA DE PREEVENTO (s)               : 15.36
TIEMPO DE POSEVENTO (s)                : 151.0


================================================================================
DATOS DEL SISMO:
FECHA DEL SISMO (GMT)                  : 30/SEP/99
HORA EPICENTRO (GMT)                   : 16:31:14.8
MAGNITUD(ES)                           : /Mb=6.5/Ms=7.5/Mc=5.2/Me=7.6
COORDENADAS DEL EPICENTRO              : 15.95 LAT. N
                                       : -97.03 LONG. W
PROFUNDIDAD FOCAL (km)                 : 16
FUENTE DE LOS DATOS EPICENTRALES       : SSN
                                       : INSTITUTO DE GEOFISICA, UNAM

================================================================================
DATOS DE ESTE REGISTRO:
HORA DE LA PRIMERA MUESTRA (GMT)       : 22:33:37.45
EXACTITUD DEL TIEMPO (s)               : 0.005
DURACION DEL REGISTRO (s), C1-C6       : /291.84/291.84/291.84
DURACION DEL REGISTRO (s), C7-C12      : 
NUM. TOTAL DE MUESTRAS, C1-C6          : /58368/58368/58368
NUM. TOTAL DE MUESTRAS, C7-C12         : 
ACEL. MAX. (Gal), C1-C6                : /26.81858/9.03533/22.45878
ACEL. MAX., C1-C6, EN LA MUESTRA       : /11434/14807/13702
ACEL. MAX. (Gal), C7-C12               : 
ACEL. MAX., C7-C12, EN LA MUESTRA      : 
UNIDADES DE LOS DATOS                  : Gal (cm/s/s)
FACTOR DE DECIMACION                   : 1
FORMATO DATOS (FORTRAN,10 campos/dato) : 3F10.5


================================================================================
CALIDAD DEL ACELEROGRAMA:
REGISTRO DIGITAL COMPLETO CON TIEMPO ABSOLUTO CORRECTO.


================================================================================
COMENTARIOS:














================================================================================
DATOS DE ACELERACION:
---------+---------+---------+---------+---------+---------+---------+---------+
   CANAL-1   CANAL-2   CANAL-3   CANAL-4   CANAL-5   CANAL-6   CANAL-7   CANAL-8
      N00E        +V      N90W
---------+---------+---------+---------+---------+---------+---------+---------+
[...]
  -5.26372   1.73857  13.45425
  -5.26372   1.49915  13.21483
  -5.02430   1.25973  12.73599
  -4.78488   1.02031  12.73599
  -4.78488   0.78089  12.25715
  -4.54546   0.54147  12.01772
  -4.54546   0.30205  11.53888
  -4.30604   0.06263  11.53888
  -4.30604  -0.17679  11.06004
  -4.06662  -0.41621  11.06004
  -4.06662  -0.89505  10.82062
  -4.06662  -1.13447  10.58120
  -4.06662  -1.37389  10.34178
  -4.06662  -1.61331  10.10236
  -4.30604  -2.09215  10.10236
  -4.30604  -2.33157   9.86294
  -4.30604  -2.57099   9.62352
  -4.54546  -3.04983   9.62352
  -4.54546  -3.28925   9.38410
  -4.78488  -3.52867   9.38410
  -5.02430  -4.00751   9.14468
  -5.26372  -4.24693   9.14468
  -5.26372  -4.48635   9.14468
  -5.50314  -4.48635   8.90526
  -5.74256  -4.72577   8.90526
  -5.74256  -4.72577   8.90526
  -5.98198  -4.72577   8.90526
  -5.98198  -4.96519   8.90526
  -5.98198  -4.96519   8.90526
  -5.98198  -4.96519   9.14468
  -5.98198  -5.20461   9.14468
  -5.98198  -5.20461   9.14468
  -5.98198  -5.20461   8.90526
  -5.98198  -5.44403   9.14468
  -6.22140  -5.44403   9.14468
  -6.22140  -5.44403   9.14468
  -6.22140  -5.92287   9.14468
  -6.22140  -5.92287   9.14468
  -6.22140  -5.92287   9.14468
  -6.46083  -5.92287   9.14468
  -6.70025  -5.92287   9.38410
  -6.70025  -5.92287   9.14468
  -6.93967  -5.92287   9.38410
  -6.93967  -5.68345   9.38410
  -7.17909  -5.68345   9.38410
  -7.17909  -5.68345   9.38410
  -7.41851  -5.68345   9.38410
  -7.41851  -5.68345   9.38410
  -7.41851  -5.68345   9.38410
  -7.65793  -5.68345   9.14468
  -7.65793  -5.44403   9.14468
  -7.65793  -5.44403   9.14468
  -7.65793  -5.68345   8.90526
  -7.65793  -5.68345   8.66584
  -7.65793  -5.68345   8.42642
  -7.65793  -5.68345   8.18700
  -7.65793  -5.68345   7.94758
  -7.65793  -5.92287   7.70816
  -7.41851  -5.68345   7.22932
  -7.41851  -5.68345   6.75048
  -7.41851  -5.44403   6.51106
  -7.17909  -5.44403   6.03222
  -7.17909  -5.44403   5.55338
  -6.93967  -5.20461   5.07454
  -6.93967  -5.20461   4.59570
  -6.93967  -5.20461   3.87744
  -6.70025  -4.96519   3.39860
  -6.70025  -4.72577   2.91976
  -6.46083  -4.48635   2.44092
  -6.46083  -4.48635   1.96208
  -6.46083  -4.48635   1.48324
  -6.22140  -4.24693   1.00440
  -5.98198  -4.24693   0.52556
  -5.98198  -4.24693   0.04672
  -5.98198  -4.00751  -0.43212
  -5.74256  -4.00751  -0.91096
  -5.50314  -3.76809  -1.38980
  -5.50314  -4.00751  -1.86864
  -5.50314  -3.52867  -2.34749
  -5.26372  -3.52867  -2.82633
  -5.02430  -3.28925  -3.54459
  -4.78488  -3.28925  -3.78401
  -4.78488  -3.04983  -4.26285
  -4.54546  -2.81041  -4.74169
  -4.30604  -2.57099  -5.22053
  -4.06662  -2.33157  -5.45995
  -4.06662  -2.09215  -5.93879
  -3.82720  -2.09215  -6.41763
  -3.82720  -1.61331  -6.65705
  -3.58778  -1.37389  -7.13589
  -3.58778  -1.37389  -7.61473
  -3.34836  -1.13447  -7.85415
  -3.34836  -1.13447  -8.09357
  -3.34836  -0.89505  -8.81183
  -3.10894  -0.89505  -9.05125
  -3.10894  -0.65563  -9.29067
  -3.10894  -0.65563  -9.76951
  -3.10894  -0.41621 -10.00893
  -3.10894  -0.17679 -10.24835
  -3.10894  -0.17679 -10.48777
  -2.86952   0.06263 -10.72719
  -2.86952   0.30205 -10.96661
  -2.86952   0.78089 -11.20603
  -2.63010   1.02031 -11.20603
  -2.63010   1.49915 -11.20603
  -2.63010   1.73857 -11.44545
  -2.39068   2.21741 -11.68487
  -2.39068   2.69625 -11.68487
  -2.15126   2.93567 -11.92429
  -2.15126   3.17509 -11.92429
  -2.15126   3.65393 -11.92429
  -1.91184   3.89335 -12.16371
  -1.91184   3.89335 -12.16371
  -1.91184   4.13277 -12.16371
  -1.91184   4.13277 -12.16371
  -2.15126   4.37220 -12.16371
  -1.91184   4.61162 -12.40313
  -1.91184   4.85104 -12.40313
  -2.15126   4.85104 -12.40313
  -2.15126   5.09046 -12.16371
  -2.39068   5.09046 -12.16371
  -2.63010   5.32988 -12.16371
  -2.86952   5.56930 -12.16371
  -3.10894   5.56930 -11.92429
  -3.10894   5.56930 -11.92429
  -3.34836   5.56930 -11.92429
  -3.58778   5.56930 -11.68487
  -3.82720   5.56930 -11.68487
  -4.06662   5.56930 -11.44545
  -4.54546   5.56930 -11.20603
  -4.54546   5.32988 -10.96661
  -4.78488   5.32988 -10.96661
  -4.78488   5.09046 -10.48777
  -5.02430   5.32988 -10.24835
  -5.02430   5.32988 -10.00893
  -5.26372   5.32988  -9.53009
  -5.26372   5.32988  -9.29067
  -5.26372   5.32988  -9.05125
  -5.26372   5.09046  -8.57241
  -5.26372   5.09046  -8.33299
  -5.26372   5.09046  -7.85415
  -5.26372   5.09046  -7.61473
  -5.26372   4.85104  -7.37531
  -5.26372   4.85104  -7.13589
  -5.26372   4.61162  -6.65705
  -5.26372   4.61162  -6.41763
  -5.26372   4.37220  -6.17821
  -5.02430   4.37220  -5.69937
  -5.02430   4.13277  -5.45995
  -5.26372   3.89335  -5.22053
  -5.02430   3.65393  -4.74169
  -5.26372   3.41451  -4.50227
  -5.02430   2.93567  -4.26285
  -5.26372   2.69625  -4.02343
  -5.26372   2.45683  -3.78401
  -5.26372   1.97799  -3.78401
  -5.26372   1.73857  -3.30517
  -5.26372   1.25973  -3.30517
  -5.26372   0.78089  -3.06575
  -5.26372   0.54147  -2.82633
  -5.26372   0.30205  -2.82633
  -5.26372   0.06263  -2.82633
  -5.26372  -0.17679  -2.58691
  -5.26372  -0.41621  -2.58691
  -5.26372  -0.65563  -2.58691
  -5.50314  -0.89505  -2.34749
  -5.50314  -1.13447  -2.34749
  -5.74256  -1.37389  -2.34749
  -5.98198  -1.61331  -2.34749
  -5.98198  -1.85273  -2.10806
  -6.46083  -2.09215  -2.34749
  -6.46083  -2.33157  -2.10806
  -6.70025  -2.57099  -2.10806
  -6.93967  -3.04983  -2.34749
  -7.17909  -3.28925  -2.34749
  -7.41851  -3.76809  -2.34749
  -7.65793  -4.00751  -2.34749
  -7.89735  -4.48635  -2.58691
  -8.13677  -4.72577  -2.82633
  -8.37619  -4.96519  -2.82633
  -8.61561  -5.20461  -2.82633
  -8.85503  -5.44403  -3.06575
  -9.09445  -5.68345  -3.06575
  -9.33387  -5.92287  -3.30517
  -9.33387  -5.92287  -3.30517
  -9.57329  -5.92287  -3.30517
  -9.81271  -5.92287  -3.54459
  -9.81271  -5.92287  -3.78401
  -9.81271  -6.16229  -3.78401
  -9.81271  -6.16229  -4.02343
  -9.81271  -6.16229  -4.02343
  -9.81271  -5.92287  -4.26285
  -9.81271  -5.92287  -4.26285
  -9.57329  -5.92287  -4.50227
  -9.33387  -5.92287  -4.50227
  -9.09445  -5.92287  -4.74169
  -8.85503  -5.68345  -4.98111
  -8.61561  -5.44403  -4.98111
  -8.37619  -5.44403  -5.22053
  -7.89735  -5.44403  -5.45995
  -7.41851  -5.68345  -5.69937
  -7.17909  -5.44403  -5.69937
  -6.70025  -5.68345  -5.93879
  -6.22140  -5.68345  -6.17821
  -5.74256  -5.68345  -6.17821
  -5.26372  -5.68345  -6.65705
  -4.78488  -5.68345  -6.41763
  -4.30604  -5.68345  -6.65705
  -4.06662  -5.68345  -6.65705
  -3.58778  -5.68345  -6.89647
  -3.10894  -5.92287  -7.13589
  -2.63010  -5.68345  -7.37531
  -2.39068  -5.68345  -7.61473
  -1.91184  -5.68345  -7.85415
  -1.67242  -5.68345  -8.09357
  -1.19358  -5.44403  -8.33299
  -0.95416  -5.44403  -8.57241
  -0.23590  -5.44403  -9.05125
  -0.23590  -5.20461  -9.29067
   0.24294  -4.96519  -9.53009
   0.48236  -4.72577  -9.76951
   0.72178  -4.72577 -10.24835
   0.96120  -4.48635 -10.48777
   1.20062  -4.24693 -10.72719
   1.44004  -4.00751 -10.96661
   1.44004  -3.76809 -11.20603
   1.67946  -3.76809 -11.44545
   1.44004  -3.52867 -11.68487
   1.44004  -3.04983 -11.92429
   1.44004  -2.81041 -12.16371
   1.20062  -2.57099 -12.16371
   0.96120  -2.33157 -12.40313
   0.96120  -2.09215 -12.40313
   0.72178  -1.61331 -12.64255
   0.48236  -1.37389 -12.64255
   0.24294  -1.13447 -12.64255
   0.00352  -0.65563 -12.64255
  -0.23590  -0.41621 -12.64255
  -0.71474  -0.17679 -12.64255
  -0.95416   0.06263 -12.64255
  -0.95416   0.30205 -12.40313
  -1.43300   0.54147 -12.40313
  -1.67242   0.78089 -12.16371
  -1.91184   1.02031 -11.92429
  -2.15126   1.25973 -11.68487
  -2.15126   1.49915 -11.20603
  -2.63010   1.73857 -10.96661
  -2.63010   1.97799 -10.72719
  -2.86952   2.21741 -10.24835
  -3.10894   2.21741 -10.00893
  -3.34836   2.45683  -9.53009
  -3.58778   2.45683  -9.29067
  -3.58778   2.69625  -8.81183
  -3.58778   2.69625  -8.57241
  -3.82720   2.93567  -8.09357
  -3.82720   2.93567  -7.61473
  -3.82720   3.17509  -7.13589
  -3.58778   3.41451  -6.65705
  -3.34836   3.41451  -6.17821
  -3.34836   3.65393  -5.45995
  -3.10894   3.89335  -4.98111
  -2.86952   3.89335  -4.50227
  -2.63010   4.13277  -4.02343
  -2.39068   4.13277  -3.54459
  -2.15126   4.13277  -2.82633
  -1.91184   4.37220  -2.34749
  -1.43300   4.13277  -2.10806
  -1.19358   4.13277  -1.38980
  -0.71474   4.13277  -0.91096
  -0.23590   3.89335  -0.67154
   0.48236   3.89335  -0.19270
   0.96120   3.65393   0.28614
   1.67946   3.65393   0.52556
   2.15830   3.65393   1.00440
   2.87656   3.41451   1.24382
   3.83424   3.17509   1.72266
   4.55250   3.17509   1.96208
   5.27076   2.93567   2.20150
   5.98902   2.69625   2.44092
   6.94670   2.69625   2.68034
   7.66496   2.45683   3.15918
   8.38323   2.45683   3.39860
   9.10149   2.21741   3.63802
   9.81975   2.21741   3.87744
  10.53801   1.97799   3.87744
  11.25627   1.97799   4.59570
  11.73511   1.73857   4.83512
  12.45337   1.73857   5.07454
  12.93221   1.49915   5.55338
  13.41105   1.73857   5.79280
  13.88989   1.73857   6.03222
  14.36873   1.97799   6.27164
  14.60815   1.73857   6.51106
  15.08699   1.73857   6.75048
  15.56583   1.73857   7.22932
  15.80525   1.73857   7.46874
  16.04467   1.73857   7.70816
  16.28409   1.73857   7.94758
  16.76293   1.73857   8.42642
  16.76293   1.97799   8.66584
  17.00235   1.73857   8.90526
  17.24177   1.49915   9.38410
  17.24177   1.49915   9.62352
  17.48119   1.25973  10.10236
  17.72061   1.25973  10.34178
  17.72061   1.02031  10.58120
  17.96003   0.78089  10.82062
  17.96003   0.54147  11.29946
  18.19945   0.30205  11.53888
  18.19945   0.06263  12.01772
  18.43887  -0.17679  12.01772
  18.43887  -0.17679  12.49657
  18.43887  -0.41621  12.73599
  18.67829  -0.41621  12.97541
  18.67829  -0.65563  13.21483
  18.91771  -0.65563  13.45425
  18.91771  -0.65563  13.69367
  19.15713  -0.65563  13.93309
  19.39655  -0.65563  14.17251
  19.39655  -0.89505  14.41193
  19.63597  -0.89505  14.65135
  19.87539  -0.89505  14.89077
  19.87539  -0.89505  14.89077
  20.11481  -0.89505  14.89077
  20.59365  -0.89505  14.89077
  20.59365  -0.89505  14.89077
  20.83307  -0.89505  14.65135
  21.31191  -0.89505  14.65135
  21.55133  -0.89505  14.65135
  21.79075  -0.89505  14.41193
  22.26959  -0.89505  14.17251
  22.50902  -0.89505  14.17251
  22.98786  -0.89505  13.93309
  23.22728  -1.13447  13.93309
  23.70612  -1.13447  13.69367
  23.94554  -1.13447  13.69367
  24.42438  -1.37389  13.45425
  24.66380  -1.37389  13.45425
  25.14264  -1.37389  13.21483
  25.38206  -1.61331  12.97541
  25.62148  -1.61331  12.73599
  26.10032  -1.61331  12.73599
  26.10032  -1.61331  12.49657
  26.33974  -1.61331  12.01772
  26.57916  -1.61331  12.01772
  26.57916  -1.61331  11.77830
  26.81858  -1.61331  11.29946
  26.81858  -1.37389  11.06004
  26.81858  -1.37389  10.82062
  26.81858  -1.13447  10.58120
  26.81858  -1.13447  10.10236
  26.81858  -1.13447  10.10236
  26.57916  -0.89505   9.62352
  26.57916  -0.89505   9.38410
  26.33974  -0.89505   9.14468
  26.10032  -0.65563   8.90526
  26.10032  -0.65563   8.90526
  25.86090  -0.65563   8.66584
  25.62148  -0.65563   8.42642
  25.14264  -0.65563   8.18700
  24.90322  -0.65563   8.18700
  24.66380  -0.89505   7.94758
  24.42438  -0.89505   7.94758
  23.94554  -1.13447   7.70816
  23.70612  -1.13447   7.70816
  23.22728  -1.37389   7.46874
  22.74844  -1.37389   7.46874
  22.26959  -1.61331   7.46874
  21.79075  -1.85273   7.22932
  21.31191  -1.85273   7.22932
  20.59365  -1.85273   6.98990
  20.11481  -2.09215   6.98990
  19.39655  -2.09215   6.75048
  18.67829  -2.09215   6.75048
  17.96003  -2.09215   6.51106
  17.48119  -2.09215   6.51106
  16.76293  -2.09215   6.27164
  16.04467  -2.09215   6.27164
  15.32641  -2.09215   5.79280
  14.60815  -1.85273   5.79280
  13.88989  -1.85273   5.55338
  13.17163  -1.61331   5.31396
  12.69279  -1.61331   5.07454
  11.97453  -1.61331   5.07454
  11.25627  -1.61331   4.83512
  10.77743  -1.37389   4.59570
  10.05917  -1.13447   4.11686
   9.34091  -1.13447   3.87744
   8.86207  -1.13447   3.63802
   8.14381  -0.89505   3.39860
   7.42554  -0.65563   3.15918
   6.94670  -0.41621   2.91976
   6.22844  -0.17679   2.68034
   5.74960  -0.17679   2.44092
   5.03134   0.06263   2.44092
   4.55250   0.30205   2.20150
   3.83424   0.54147   1.96208
   3.35540   0.78089   1.72266
   2.87656   1.02031   1.72266
   2.39772   1.25973   1.48324
   1.67946   1.73857   1.24382
   1.20062   1.97799   1.00440
   0.72178   2.21741   1.00440
   0.24294   2.45683   1.00440
  -0.23590   2.69625   0.52556
  -0.71474   2.93567   0.52556
  -1.19358   3.17509   0.28614
  -1.43300   3.41451   0.04672
  -1.67242   3.65393  -0.19270
  -2.15126   4.13277  -0.43212
  -2.39068   4.37220  -0.43212
  -2.63010   4.61162  -0.67154
  -2.86952   4.85104  -0.91096
  -3.10894   5.09046  -0.91096
  -3.10894   5.09046  -1.15038
  -3.34836   5.32988  -1.38980
  -3.58778   5.56930  -1.38980
  -3.58778   5.56930  -1.62922
  -3.82720   5.80872  -1.86864
  -4.06662   5.80872  -2.10806
  -4.30604   5.80872  -2.10806
  -4.30604   5.80872  -2.34749
  -4.54546   5.80872  -2.34749
  -4.78488   5.80872  -2.82633
  -4.78488   5.80872  -2.82633
  -5.02430   5.56930  -3.06575
  -5.50314   5.56930  -3.30517
  -5.50314   5.32988  -3.54459
  -5.50314   5.32988  -3.78401
  -5.74256   5.09046  -4.26285
  -5.98198   4.85104  -4.50227
  -5.98198   4.61162  -4.74169
  -6.22140   4.37220  -4.98111
  -6.46083   4.13277  -5.45995
  -6.70025   4.13277  -5.69937
  -6.93967   3.89335  -5.93879
  -7.17909   3.65393  -6.17821
  -7.41851   3.41451  -6.65705
  -7.89735   3.17509  -6.89647
  -8.13677   3.17509  -7.13589
  -8.61561   2.93567  -7.37531
  -8.85503   2.69625  -7.61473
  -9.33387   2.45683  -7.61473
  -9.81271   2.45683  -7.85415
 -10.29155   2.21741  -7.85415
 -11.00981   2.21741  -7.85415
 -11.48865   1.97799  -7.85415
 -12.20691   1.73857  -7.85415
 -12.68575   1.73857  -8.09357
 -13.16459   1.73857  -7.85415
 -13.88285   1.49915  -7.85415
 -14.36169   1.25973  -7.85415
 -14.84053   1.25973  -8.09357
 -15.55879   1.25973  -7.85415
 -16.03763   1.02031  -7.85415
 -16.51647   1.25973  -7.61473
 -16.99531   1.02031  -7.61473
 -17.47415   1.02031  -7.37531
 -17.71357   0.78089  -7.37531
 -18.19241   1.02031  -7.13589
 -18.43183   1.02031  -6.89647
 -18.67125   1.02031  -6.89647
 -18.91067   1.02031  -6.65705
 -19.15009   1.02031  -6.41763
 -19.38951   1.02031  -6.41763
 -19.62893   1.25973  -6.17821
 -19.86835   1.25973  -5.93879
 -20.10777   1.25973  -5.69937
 -20.10777   1.49915  -5.45995
 -20.34719   1.49915  -5.22053
 -20.58661   1.49915  -5.22053
 -20.58661   1.49915  -4.74169
 -20.82604   1.49915  -4.50227
 -20.82604   1.73857  -4.50227
 -20.82604   1.49915  -4.26285
 -20.82604   1.49915  -3.78401
 -20.82604   1.49915  -3.78401
 -21.06546   1.49915  -3.54459
 -20.82604   1.49915  -3.30517
 -20.82604   1.25973  -3.30517
 -20.82604   1.25973  -3.06575
 -20.58661   1.02031  -3.06575
 -20.34719   0.78089  -3.06575
 -20.34719   0.78089  -3.06575
 -20.10777   0.54147  -3.30517
 -19.62893   0.06263  -3.30517
 -19.38951   0.06263  -3.54459
 -19.15009  -0.17679  -3.78401
 -18.67125  -0.17679  -4.02343
 -18.43183  -0.65563  -4.26285
 -18.19241  -0.65563  -4.50227
 -17.71357  -1.13447  -4.98111
 -17.23473  -1.37389  -5.22053
 -16.99531  -1.61331  -5.69937
 -16.75589  -1.85273  -6.17821
