********************************************************************************
               CENTRO DE INSTRUMENTACION Y REGISTRO SISMICO  A.C.  
                       Coordinacion de Servicios Tecnicos
     Anaxagoras 814, Col. Narvarte, Benito Juarez, C.P. 03020 Mexico, D.F.
            Tels. 667 45 42/ 687 45  82             Fax. 669 25 12
********************************************************************************
ARCHIVO ESTANDAR DE ACELERACION:
VERSION DEL FORMATO                    : 2.0
NOMBRE DEL ARCHIVO                     : AL010103.061
FECHA Y HORA DE CREACION               : 05/JUL/04, 11:50
REF. CATALOGO ACELEROGRAMAS, SMIS 1996 : REGISTRO No.     /PAG.


================================================================================
DATOS DE LA ESTACION:
NOMBRE DE LA ESTACION                  : ALAMEDA
CLAVE DE LA ESTACION                   : AL01
LOCALIZACION DE LA ESTACION            : JARDIN ALAMEDA ENTRE AV. HIDALGO Y AV.
                                       : JUAREZ, CENTRO
                                       :
                                       :
                                       :
COORDENADAS DE LA ESTACION             : 19.436 LAT. N 
                                       : 99.145 LONG. W 
ALTITUD (msnm)                         : 2232
TIPO DE SUELO                          : TERRENO BLANDO, MATERIAL COMPRESIBLE
                                       : (ARCILLAS)
                                       : 
INSTITUCION RESPONSABLE                : CIRES 
                                       :

================================================================================
DATOS DEL ACELEROGRAFO:
MODELO DEL ACELEROGRAFO                : SSA-1
NUMERO DE SERIE DEL ACELEROGRAFO       : 152
NUMERO DE CANALES                      : 3
ORIENTACION C1-C6 (rumbo;orientacion)  : /N00E/+V/N90E
ORIENTACION C7-C12 (rumbo;orientacion) :
VEL. DE MUESTREO, C1-C6 (muestras/s)   : /200/200/200
VEL. DE MUESTREO, C7-C12 (muestras/s)  :
ESC. COMPLETA DE SENSORES, C1-C6, (g)  : /2/2/2
ESC. COMPLETA DE SENSORES, C7-C12, (g) :
FREC. NAT. DE SENSORES, C1-C6, (Hz)    : /51.29/51.09/53.75
FREC. NAT. DE SENSORES, C7-C12, (Hz)   :
AMORTIGUAMIENTO DE SENSORES, C1-C6     : /.5519/.5670/.5810
AMORTIGUAMIENTO DE SENSORES, C7-C12    :
INTERVALO DE MUESTREO, C1-C6, (s)      : /0.005/0.005/0.005
INTERVALO DE MUESTREO, C7-C12, (s)     :
UMBRAL DE DISPARO, C1-C6, (Gal)        : /2/1.5/2
UMBRAL DE DISPARO, C7-C12, (Gal)       :
MEMORIA DE PREEVENTO (s)               : 15
TIEMPO DE POSEVENTO (s)                : 60


================================================================================
DATOS DEL SISMO:
FECHA DEL SISMO (GMT)                  : 06/MAR/01
HORA EPICENTRO (GMT)                   : 21:57:56,9
MAGNITUD(ES)                           : /Mb=5.1/Ms=4.5/Mc=5.1/Ma=4.9/Me=5.3
COORDENADAS DEL EPICENTRO              : 17.14 LAT. N
                                       : 100.10 LONG. W
PROFUNDIDAD FOCAL (km)                 : 32
FUENTE DE LOS DATOS EPICENTRALES       : SSN
                                       : INSTITUTO DE GEOFISICA, UNAM 

================================================================================
DATOS DE ESTE REGISTRO:
HORA DE LA PRIMERA MUESTRA (GMT)       : 21:59:14.00
EXACTITUD DEL TIEMPO (s)               :     
DURACION DEL REGISTRO (s), C1-C6       : /80.64/80.64/80.64
DURACION DEL REGISTRO (s), C7-C12      :
NUM. TOTAL DE MUESTRAS, C1-C6          : /16128/16128/16128
NUM. TOTAL DE MUESTRAS, C7-C12         :
ACEL. MAX. (Gal), C1-C6                : /-2.61568/-1.39136/1.94335
ACEL. MAX., C1-C6, EN LA MUESTRA       :
ACEL. MAX. (Gal), C7-C12               :
ACEL. MAX., C7-C12, EN LA MUESTRA      :
UNIDADES DE LOS DATOS                  : Gal (cm/s/s)
FACTOR DE DECIMACION                   : 1
FORMATO DATOS (FORTRAN,10 campos/dato) : 3F10.5


================================================================================
CALIDAD DEL ACELEROGRAMA:
REGISTRO DIGITAL COMPLETO, CARECE DE TIEMPO ABSOLUTO.


================================================================================
COMENTARIOS:














================================================================================
DATOS DE ACELERACION:
---------+---------+---------+---------+---------+---------+---------+---------+
   CANAL-1   CANAL-2   CANAL-3   CANAL-4   CANAL-5   CANAL-6   CANAL-7   CANAL-8
      N00E        +V      N90E
---------+---------+---------+---------+---------+---------+---------+---------+
[...]
   0.26432   0.03864   0.75335
   0.26432   0.03864   0.99335
   0.26432   0.03864   0.75335
   0.26432   0.03864   0.75335
   0.26432   0.03864   0.75335
   0.26432   0.03864   0.75335
   0.50432   0.03864   0.75335
   0.50432  -0.20136   0.51335
   0.50432  -0.20136   0.51335
   0.50432  -0.20136   0.51335
   0.50432  -0.20136   0.27335
   0.50432  -0.20136   0.27335
   0.50432  -0.20136   0.51335
   0.50432  -0.20136   0.51335
   0.74432   0.03864   0.51335
   0.74432   0.03864   0.27335
   0.74432   0.03864   0.27335
   0.74432  -0.20136   0.27335
   0.98432  -0.20136   0.27335
   0.98432  -0.20136   0.27335
   0.98432  -0.20136   0.27335
   1.22432  -0.20136   0.27335
   1.22432   0.03864   0.27335
   1.22432   0.03864   0.27335
   1.46432   0.03864   0.27335
   1.46432   0.03864   0.27335
   1.70432   0.03864   0.27335
   1.70432   0.03864   0.27335
   1.70432   0.03864   0.27335
   1.70432   0.03864   0.27335
   1.70432   0.03864   0.27335
   1.70432   0.03864   0.27335
   1.70432   0.03864   0.03335
   1.70432   0.03864   0.03335
   1.70432  -0.20136   0.03335
   1.70432  -0.20136  -0.20665
   1.70432  -0.20136  -0.20665
   1.46432  -0.20136  -0.20665
   1.46432   0.03864  -0.20665
   1.46432   0.03864  -0.20665
   1.46432   0.03864  -0.20665
   1.46432   0.27864  -0.20665
   1.46432   0.27864  -0.20665
   1.22432   0.27864  -0.20665
   1.22432   0.27864  -0.44665
   0.98432   0.27864  -0.44665
   0.98432   0.27864  -0.44665
   0.98432   0.27864  -0.44665
   0.74432   0.27864  -0.44665
   0.74432   0.27864  -0.68665
   0.74432   0.27864  -0.68665
   0.50432   0.03864  -0.68665
   0.50432   0.03864  -0.68665
   0.50432   0.03864  -0.68665
   0.50432   0.03864  -0.68665
   0.26432   0.03864  -0.44665
   0.26432  -0.20136  -0.44665
   0.02432  -0.20136  -0.44665
   0.02432  -0.20136  -0.44665
   0.02432  -0.20136  -0.44665
   0.02432  -0.20136  -0.44665
  -0.21568  -0.20136  -0.44665
  -0.21568  -0.20136  -0.44665
  -0.45568  -0.20136  -0.44665
  -0.45568  -0.20136  -0.44665
  -0.45568  -0.20136  -0.44665
  -0.69568  -0.20136  -0.44665
  -0.69568  -0.20136  -0.44665
  -0.69568   0.03864  -0.44665
  -0.93568   0.03864  -0.44665
  -0.93568   0.03864  -0.20665
  -0.93568   0.03864  -0.20665
  -0.93568   0.03864  -0.44665
  -0.93568   0.03864  -0.20665
  -0.93568   0.03864  -0.20665
  -0.93568   0.03864  -0.20665
  -0.93568   0.03864  -0.20665
  -0.93568   0.03864  -0.20665
  -0.93568   0.03864  -0.20665
  -0.93568   0.03864   0.03335
  -0.69568   0.03864  -0.20665
  -0.69568   0.03864  -0.20665
  -0.69568   0.03864  -0.20665
  -0.69568   0.03864   0.03335
  -0.69568   0.03864   0.03335
  -0.69568   0.03864   0.03335
  -0.69568   0.03864   0.03335
  -0.69568   0.03864   0.03335
  -0.69568   0.03864   0.03335
  -0.69568   0.27864   0.03335
  -0.45568   0.03864   0.03335
  -0.45568   0.03864   0.03335
  -0.45568   0.03864   0.03335
  -0.45568   0.03864   0.03335
  -0.45568   0.03864   0.27335
  -0.21568   0.03864   0.27335
  -0.21568   0.27864   0.27335
   0.02432   0.27864   0.27335
   0.02432   0.27864   0.27335
   0.02432   0.27864   0.27335
   0.02432   0.27864   0.27335
   0.02432   0.27864   0.27335
   0.02432   0.27864   0.27335
   0.02432   0.27864   0.27335
   0.02432   0.27864   0.27335
   0.02432   0.27864   0.27335
   0.26432   0.27864   0.27335
   0.26432   0.27864   0.27335
   0.26432   0.03864   0.27335
   0.50432   0.27864   0.27335
   0.50432   0.03864   0.27335
   0.50432   0.03864   0.27335
   0.50432   0.03864   0.03335
   0.50432   0.03864   0.03335
   0.50432   0.03864   0.03335
   0.50432   0.03864   0.03335
   0.50432   0.27864  -0.20665
   0.50432   0.27864   0.03335
   0.50432   0.27864  -0.20665
   0.50432   0.27864  -0.20665
   0.50432   0.27864  -0.20665
   0.50432   0.27864  -0.20665
   0.26432   0.03864  -0.20665
   0.50432   0.03864  -0.20665
   0.50432   0.03864  -0.20665
   0.50432   0.03864  -0.20665
   0.50432  -0.20136  -0.20665
   0.50432  -0.20136  -0.20665
   0.50432  -0.20136  -0.20665
   0.50432  -0.44136  -0.20665
   0.50432  -0.44136  -0.20665
   0.50432  -0.20136  -0.20665
   0.26432  -0.44136  -0.20665
   0.26432  -0.44136  -0.20665
   0.26432  -0.44136  -0.20665
   0.26432  -0.44136  -0.20665
   0.26432  -0.20136  -0.20665
   0.26432  -0.20136  -0.20665
   0.26432  -0.20136  -0.20665
   0.26432  -0.20136  -0.20665
   0.26432  -0.20136  -0.20665
   0.26432  -0.20136  -0.20665
   0.26432  -0.20136  -0.20665
   0.26432   0.03864  -0.20665
   0.26432   0.03864  -0.20665
   0.02432   0.03864  -0.20665
   0.02432   0.03864  -0.20665
   0.02432   0.03864  -0.20665
   0.02432   0.03864  -0.20665
   0.02432   0.03864  -0.20665
   0.02432   0.03864  -0.20665
   0.02432   0.03864  -0.44665
   0.02432   0.03864  -0.44665
   0.02432   0.03864  -0.44665
   0.02432   0.03864  -0.44665
   0.02432   0.03864  -0.44665
   0.26432   0.03864  -0.44665
   0.26432   0.03864  -0.20665
   0.26432   0.27864  -0.44665
   0.02432   0.27864  -0.44665
   0.26432   0.27864  -0.44665
   0.02432   0.27864  -0.44665
   0.02432   0.03864  -0.68665
   0.02432   0.27864  -0.68665
  -0.21568   0.27864  -0.68665
  -0.21568   0.27864  -0.68665
  -0.21568   0.03864  -0.68665
  -0.21568   0.27864  -0.68665
  -0.21568   0.03864  -0.68665
  -0.21568   0.27864  -0.68665
  -0.21568   0.03864  -0.68665
  -0.21568   0.27864  -0.68665
  -0.45568   0.03864  -0.68665
  -0.45568   0.03864  -0.68665
  -0.69568   0.27864  -0.68665
  -0.45568   0.03864  -0.68665
  -0.69568   0.03864  -0.44665
  -0.69568   0.03864  -0.68665
  -0.69568   0.03864  -0.44665
  -0.69568   0.03864  -0.68665
  -0.69568   0.03864  -0.68665
  -0.69568  -0.20136  -0.68665
  -0.93568  -0.20136  -0.68665
  -0.93568  -0.20136  -0.68665
  -0.93568  -0.20136  -0.68665
  -0.93568  -0.20136  -0.68665
  -1.17568   0.03864  -0.68665
  -1.17568  -0.20136  -0.44665
  -1.17568   0.03864  -0.44665
  -1.17568   0.03864  -0.44665
  -1.17568   0.03864  -0.44665
  -1.41568   0.03864  -0.44665
  -1.41568   0.03864  -0.44665
  -1.41568   0.03864  -0.44665
  -1.41568   0.03864  -0.44665
  -1.41568   0.03864  -0.44665
  -1.41568   0.27864  -0.20665
  -1.41568   0.03864  -0.20665
  -1.41568   0.03864  -0.20665
  -1.41568   0.27864   0.03335
  -1.41568   0.03864   0.03335
  -1.41568   0.03864   0.03335
  -1.41568   0.03864   0.27335
  -1.41568   0.03864   0.27335
  -1.41568   0.03864   0.27335
  -1.41568   0.27864   0.27335
  -1.41568   0.27864   0.27335
  -1.41568   0.27864   0.27335
  -1.41568   0.27864   0.51335
  -1.41568   0.27864   0.51335
  -1.17568   0.03864   0.51335
  -1.17568   0.03864   0.51335
  -1.17568   0.03864   0.51335
  -0.93568   0.03864   0.51335
  -0.93568   0.03864   0.75335
  -0.93568   0.03864   0.75335
  -0.93568   0.03864   0.75335
  -0.93568   0.03864   0.75335
  -0.93568   0.03864   0.75335
  -0.69568   0.03864   0.75335
  -0.69568   0.03864   0.75335
  -0.45568   0.03864   0.75335
  -0.45568   0.03864   0.75335
  -0.45568   0.27864   0.75335
  -0.21568   0.27864   0.75335
  -0.21568   0.03864   0.99335
   0.02432   0.03864   0.99335
   0.02432   0.03864   0.99335
   0.02432  -0.20136   0.99335
   0.26432  -0.20136   0.99335
   0.26432  -0.20136   0.99335
   0.26432  -0.44136   0.99335
   0.50432  -0.44136   1.23335
   0.50432  -0.44136   1.23335
   0.50432  -0.20136   1.23335
   0.74432  -0.44136   0.99335
   0.74432  -0.20136   0.99335
   0.98432  -0.20136   0.99335
   0.98432  -0.20136   0.99335
   0.98432  -0.20136   0.75335
   0.98432  -0.20136   0.75335
   0.98432  -0.20136   0.75335
   1.22432  -0.20136   0.75335
   1.22432  -0.44136   0.75335
   1.22432  -0.20136   0.75335
   1.22432  -0.20136   0.75335
   1.46432  -0.20136   0.75335
   1.46432  -0.20136   0.75335
   1.46432  -0.20136   0.51335
   1.46432  -0.20136   0.75335
   1.70432  -0.20136   0.75335
   1.70432  -0.20136   0.75335
   1.70432  -0.20136   0.75335
   1.70432  -0.20136   0.75335
   1.70432  -0.20136   0.75335
   1.70432  -0.20136   0.75335
   1.70432  -0.44136   0.75335
   1.93432  -0.44136   0.75335
   1.93432  -0.44136   0.51335
   1.93432  -0.44136   0.51335
   1.93432  -0.44136   0.51335
   1.93432  -0.44136   0.27335
   1.70432  -0.67136   0.27335
   1.70432  -0.67136   0.27335
   1.70432  -0.67136   0.03335
   1.70432  -0.67136   0.03335
   1.70432  -0.44136   0.03335
   1.46432  -0.20136   0.03335
   1.46432  -0.20136   0.03335
   1.46432   0.03864   0.03335
   1.46432   0.27864   0.03335
   1.46432   0.27864   0.27335
   1.70432   0.51864   0.27335
   1.70432   0.51864   0.27335
   1.70432   0.51864   0.03335
   1.70432   0.51864   0.03335
   1.70432   0.75864   0.03335
   1.70432   0.75864   0.27335
   1.46432   0.75864   0.27335
   1.70432   0.75864   0.27335
   1.93432   0.75864   0.27335
   1.93432   0.51864   0.27335
   1.93432   0.51864   0.27335
   1.93432   0.51864   0.27335
   1.70432   0.51864   0.27335
   1.70432   0.51864   0.27335
   1.70432   0.27864   0.27335
   1.70432   0.27864   0.03335
   1.70432   0.03864   0.27335
   1.70432   0.03864   0.27335
   1.70432   0.03864   0.03335
   1.46432  -0.20136   0.03335
   1.46432  -0.20136   0.03335
   1.46432  -0.20136   0.27335
   1.70432  -0.20136   0.03335
   1.46432  -0.20136   0.03335
   1.46432  -0.20136   0.03335
   1.46432   0.03864   0.03335
   1.46432   0.03864   0.03335
   1.22432   0.03864   0.03335
   1.22432   0.03864   0.03335
   1.22432   0.03864   0.03335
   0.98432   0.03864   0.03335
   0.98432  -0.20136  -0.20665
   0.74432  -0.20136  -0.20665
   0.74432  -0.20136  -0.20665
   0.50432  -0.20136  -0.20665
   0.50432  -0.20136  -0.20665
   0.26432  -0.20136  -0.20665
   0.26432  -0.20136  -0.20665
   0.02432  -0.20136  -0.20665
   0.02432  -0.20136  -0.20665
  -0.21568  -0.20136  -0.20665
  -0.45568  -0.20136  -0.20665
  -0.45568  -0.20136   0.03335
  -0.69568  -0.44136  -0.20665
  -0.69568  -0.44136  -0.20665
  -0.69568  -0.44136   0.03335
  -0.93568  -0.20136   0.03335
  -0.93568  -0.44136   0.03335
  -0.93568  -0.20136   0.03335
  -1.17568  -0.20136   0.03335
  -1.17568   0.03864   0.03335
  -1.41568   0.03864   0.03335
  -1.41568   0.03864   0.03335
  -1.41568   0.27864   0.03335
  -1.65568   0.27864   0.03335
  -1.65568   0.27864   0.03335
  -1.65568   0.27864   0.03335
  -1.89568   0.51864   0.03335
  -1.89568   0.51864   0.27335
  -1.89568   0.51864   0.03335
  -1.89568   0.51864   0.27335
  -1.89568   0.27864   0.27335
  -1.89568   0.27864   0.27335
  -1.89568   0.27864   0.27335
  -2.13568   0.27864   0.27335
  -2.37568   0.27864   0.27335
  -2.37568   0.27864   0.27335
  -2.37568   0.27864   0.51335
  -2.37568   0.27864   0.51335
  -2.37568   0.27864   0.51335
  -2.37568   0.51864   0.51335
  -2.13568   0.27864   0.51335
  -2.13568   0.51864   0.51335
  -2.37568   0.51864   0.51335
  -2.37568   0.51864   0.51335
  -2.37568   0.51864   0.51335
  -2.37568   0.51864   0.51335
  -2.61568   0.51864   0.51335
  -2.13568   0.51864   0.51335
  -2.13568   0.51864   0.51335
  -2.13568   0.51864   0.51335
  -1.89568   0.27864   0.51335
  -1.89568   0.27864   0.51335
  -1.89568   0.03864   0.51335
  -1.89568   0.03864   0.75335
  -1.89568  -0.20136   0.51335
  -1.89568  -0.20136   0.51335
  -1.89568  -0.20136   0.51335
  -1.89568  -0.44136   0.51335
  -1.89568  -0.20136   0.51335
  -1.89568  -0.20136   0.51335
  -1.89568  -0.20136   0.51335
  -1.89568  -0.20136   0.51335
  -1.89568   0.03864   0.51335
  -1.65568  -0.20136   0.51335
  -1.65568  -0.20136   0.51335
  -1.65568  -0.20136   0.51335
  -1.65568  -0.20136   0.51335
  -1.65568  -0.20136   0.51335
  -1.65568  -0.20136   0.51335
  -1.65568  -0.44136   0.51335
  -1.65568  -0.44136   0.51335
  -1.65568  -0.44136   0.51335
  -1.65568  -0.44136   0.27335
  -1.41568  -0.44136   0.27335
  -1.41568  -0.44136   0.27335
  -1.41568  -0.44136   0.27335
  -1.41568  -0.44136   0.27335
  -1.41568  -0.44136   0.27335
  -1.17568  -0.44136   0.27335
  -1.17568  -0.44136   0.03335
  -1.17568  -0.44136   0.03335
  -1.17568  -0.44136   0.03335
  -0.93568  -0.44136  -0.20665
  -0.93568  -0.67136   0.03335
  -0.93568  -0.67136   0.03335
  -0.93568  -0.67136   0.03335
  -0.93568  -0.67136  -0.20665
  -0.93568  -0.67136  -0.20665
  -0.93568  -0.67136  -0.20665
  -0.93568  -0.67136  -0.20665
  -0.69568  -0.67136  -0.20665
  -0.45568  -0.67136  -0.20665
  -0.45568  -0.44136  -0.20665
  -0.21568  -0.67136  -0.20665
  -0.21568  -0.44136  -0.44665
   0.02432  -0.44136  -0.44665
  -0.21568  -0.44136  -0.44665
   0.02432  -0.67136  -0.44665
   0.02432  -0.44136  -0.44665
   0.02432  -0.67136  -0.44665
   0.26432  -0.44136  -0.44665
   0.26432  -0.44136  -0.44665
   0.26432  -0.44136  -0.44665
   0.26432  -0.20136  -0.44665
   0.50432  -0.20136  -0.44665
   0.50432  -0.20136  -0.44665
   0.50432  -0.20136  -0.44665
   0.50432  -0.20136  -0.44665
   0.74432   0.03864  -0.44665
   0.74432   0.03864  -0.68665
   0.74432   0.03864  -0.68665
   0.74432   0.03864  -0.68665
   0.74432   0.03864  -0.68665
   0.74432   0.03864  -0.68665
   0.74432   0.03864  -0.68665
   0.98432   0.03864  -0.68665
   0.98432   0.03864  -0.92665
   0.98432   0.03864  -0.92665
   1.22432   0.03864  -0.92665
   1.22432   0.03864  -0.92665
   1.22432   0.03864  -1.16665
   1.46432   0.03864  -0.92665
   1.46432   0.03864  -1.16665
   1.46432   0.03864  -1.16665
   1.70432   0.03864  -1.16665
   1.70432   0.03864  -1.16665
   1.70432   0.03864  -1.16665
   1.70432  -0.20136  -1.16665
   1.70432   0.03864  -1.16665
   1.70432   0.03864  -1.16665
   1.70432   0.03864  -1.16665
   1.70432   0.03864  -1.40665
   1.70432  -0.20136  -1.40665
   1.70432  -0.20136  -1.64665
   1.70432  -0.20136  -1.64665
   1.70432  -0.20136  -1.64665
   1.70432  -0.20136  -1.64665
   1.70432  -0.20136  -1.64665
   1.70432  -0.20136  -1.40665
   1.70432   0.03864  -1.40665
   1.70432   0.03864  -1.40665
   1.70432   0.03864  -1.40665
   1.70432   0.27864  -1.40665
   1.70432   0.27864  -1.40665
   1.70432   0.27864  -1.40665
   1.70432   0.51864  -1.64665
   1.70432   0.51864  -1.64665
   1.70432   0.51864  -1.64665
   1.70432   0.51864  -1.64665
   1.70432   0.51864  -1.64665
   1.70432   0.51864  -1.64665
   1.70432   0.51864  -1.88665
   1.70432   0.51864  -1.64665
   1.70432   0.51864  -1.64665
   1.70432   0.51864  -1.64665
   1.70432   0.51864  -1.64665
   1.70432   0.51864  -1.40665
   1.46432   0.51864  -1.40665
   1.46432   0.51864  -1.40665
   1.46432   0.51864  -1.16665
   1.46432   0.51864  -1.16665
   1.46432   0.51864  -1.16665
   1.46432   0.27864  -0.92665
   1.46432   0.27864  -0.92665
   1.22432   0.27864  -0.92665
   1.22432   0.51864  -0.68665
   1.22432   0.51864  -0.68665
   0.98432   0.27864  -0.44665
   0.98432   0.27864  -0.44665
   0.98432   0.27864  -0.44665
   0.74432   0.27864  -0.44665
   0.74432   0.51864  -0.20665
   0.74432   0.51864  -0.20665
   0.74432   0.51864  -0.20665
   0.74432   0.51864  -0.20665
   0.50432   0.51864   0.03335
   0.50432   0.51864   0.03335
   0.50432   0.75864   0.03335
   0.26432   0.51864   0.03335
   0.26432   0.75864   0.03335
   0.26432   0.75864   0.27335
   0.26432   0.75864   0.27335
   0.02432   0.51864   0.27335
   0.02432   0.51864   0.27335
   0.02432   0.51864   0.27335
   0.02432   0.51864   0.27335
   0.02432   0.27864   0.27335
   0.02432   0.27864   0.27335
   0.02432   0.27864   0.27335
   0.02432   0.27864   0.27335
   0.02432   0.27864   0.27335
   0.02432   0.27864   0.27335
   0.02432   0.27864   0.27335
   0.02432   0.27864   0.27335
  -0.21568   0.27864   0.27335
   0.02432   0.03864   0.27335
