********************************************************************************
              CENTRO DE INSTRUMENTACION Y REGISTRO SISMICO  A.C.

    Anaxagoras 814, Col. Narvarte, Benito Juarez, C.P. 03020 Mexico, D.F.
           Tels. 5687 45 42/ 5687 45  82             Fax. 5669 25 12
********************************************************************************
ARCHIVO ESTANDAR DE ACELERACION:
VERSION DEL FORMATO                    : 2.0
NOMBRE DEL ARCHIVO                     : AL0120160719134246
FECHA Y HORA DE CREACION               : 19/JUL/16, 11:07
REF. CATALOGO ACELEROGRAMAS, SMIS 1996 : REGISTRO No.     /PAG.


================================================================================
DATOS DE LA ESTACION:
NOMBRE DE LA ESTACION                  : ALAMEDA
CLAVE DE LA ESTACION                   : AL01
LOCALIZACION DE LA ESTACION            : Del. Cuauhtémoc, Col. Centro,          
                                       : Dr. Mora entre Av. Hidalgo             
                                       : y Av. Juárez.                          
                                       :                                        
                                       : 
COORDENADAS DE LA ESTACION             : 19.4356 LAT. N
                                       : 99.1453 LONG. W
ALTITUD (msnm)                         : 2232
TIPO DE SUELO                          : Terreno blando, material compresible
                                       : (arcillas)                
                                       : 
INSTITUCION RESPONSABLE                : CIRES, A. C.
                                       : 

================================================================================
DATOS DEL ACELEROGRAFO:
MODELO DEL ACELEROGRAFO                : RAD_IO14
NUMERO DE SERIE DEL ACELEROGRAFO       : 
NUMERO DE CANALES                      : 3
ORIENTACION C1-C6 (rumbo;orientacion)  : /S00E/+V/N90W
ORIENTACION C7-C12 (rumbo;orientacion) : 
VEL. DE MUESTREO, C1-C6 (muestras/s)   : /100/100/100
VEL. DE MUESTREO, C7-C12 (muestras/s)  : 
ESC. COMPLETA DE SENSORES, C1-C6, (g)  : /2.0/2.0/2.0
ESC. COMPLETA DE SENSORES, C7-C12, (g) : 
FREC. NAT. DE SENSORES, C1-C6, (Hz)    : /51.29/51.09/53.75
FREC. NAT. DE SENSORES, C7-C12, (Hz)   : 
AMORTIGUAMIENTO DE SENSORES, C1-C6     : /0.5519/0.5670/0.5810
AMORTIGUAMIENTO DE SENSORES, C7-C12    : 
INTERVALO DE MUESTREO, C1-C6, (s)      : /0.01/0.01/0.01
INTERVALO DE MUESTREO, C7-C12, (s)     : 
UMBRAL DE DISPARO, C1-C6, (Gal)        : / / /
UMBRAL DE DISPARO, C7-C12, (Gal)       : 
MEMORIA DE PREEVENTO (s)               : 60
TIEMPO DE POSEVENTO (s)                : 90


================================================================================
DATOS DEL SISMO:
FECHA DEL SISMO (GMT)                  : 19/JUL/16
HORA EPICENTRO (GMT)                   : 13:42:46.0
MAGNITUD(ES)                           : /Mc=5.1
COORDENADAS DEL EPICENTRO              : 17.48 LAT. N
                                       : 98.08 LONG. W
PROFUNDIDAD FOCAL (km)                 : 58
FUENTE DE LOS DATOS EPICENTRALES       : SSN
                                       : INSTITUTO DE GEOFISICA, UNAM

================================================================================
DATOS DE ESTE REGISTRO:
HORA DE LA PRIMERA MUESTRA (GMT)       : 08:43:18.00
EXACTITUD DEL TIEMPO (s)               : 
DURACION DEL REGISTRO (s), C1-C6       : /169.51/169.51/169.51
DURACION DEL REGISTRO (s), C7-C12      : 
NUM. TOTAL DE MUESTRAS, C1-C6          : /16951/16951/16951
NUM. TOTAL DE MUESTRAS, C7-C12         : 
ACEL. MAX. (Gal), C1-C6                : /1.11292/0.88722/1.22298
ACEL. MAX., C1-C6, EN LA MUESTRA       : /4499/4692/4274
ACEL. MAX. (Gal), C7-C12               : 
ACEL. MAX., C7-C12, EN LA MUESTRA      : 
UNIDADES DE LOS DATOS                  : Gal (cm/s/s)
FACTOR DE DECIMACION                   : 1
FORMATO DATOS (FORTRAN,10 campos/dato) : 3F10.5


================================================================================
CALIDAD DEL ACELEROGRAMA:
REGISTRO DIGITAL COMPLETO CON TIEMPO ABSOLUTO CORRECTO.


================================================================================
COMENTARIOS:














================================================================================
DATOS DE ACELERACION:
---------+---------+---------+---------+---------+---------+---------+---------+
   CANAL-1   CANAL-2   CANAL-3   CANAL-4   CANAL-5   CANAL-6   CANAL-7   CANAL-8
      N00E        +V      N90W
---------+---------+---------+---------+---------+---------+---------+---------+
[...]
   0.86228   0.01058  -0.69232
   0.86228  -0.10912  -0.75222
   0.86228  -0.22882  -0.81202
   0.80248  -0.28872  -0.81202
   0.80248  -0.28872  -0.75222
   0.80248  -0.22882  -0.63242
   0.74258  -0.28872  -0.51272
   0.68278  -0.28872  -0.39302
   0.56298  -0.22882  -0.27332
   0.50318  -0.22882  -0.15362
   0.44328  -0.28872   0.02598
   0.44328  -0.22882   0.08578
   0.44328  -0.22882   0.32518
   0.32358  -0.16902   0.44488
   0.38348  -0.16902   0.62448
   0.38348  -0.16902   0.74418
   0.38348   0.01058   0.74418
   0.38348   0.07048   0.80408
   0.32358   0.13028   0.92378
   0.38348   0.19018   1.10328
   0.38348   0.24998   1.10328
   0.44328   0.30988   1.10328
   0.38348   0.36968   1.04348
   0.38348   0.48938   1.04348
   0.32358   0.48938   1.10328
   0.26378   0.60908   0.98358
   0.08418   0.54928   0.86388
   0.02438   0.54928   0.80408
  -0.03552   0.54928   0.68438
  -0.09542   0.48938   0.56458
  -0.15522   0.42958   0.50478
  -0.27492   0.36968   0.38508
  -0.33482   0.24998   0.38508
  -0.51432   0.30988   0.26538
  -0.63402   0.24998   0.14568
  -0.63402   0.13028   0.02598
  -0.69392   0.13028   0.02598
  -0.69392   0.07048  -0.03392
  -0.75382   0.07048  -0.15362
  -0.81362  -0.10912  -0.15362
  -0.81362  -0.16902  -0.15362
  -0.81362  -0.22882  -0.21352
  -0.69392  -0.22882  -0.21352
  -0.69392  -0.34852  -0.21352
  -0.63402  -0.52812  -0.33322
  -0.51432  -0.46822  -0.27332
  -0.63402  -0.46822  -0.15362
  -0.51432  -0.52812  -0.15362
  -0.39462  -0.52812  -0.03392
  -0.21512  -0.58792   0.02598
  -0.15522  -0.58792   0.02598
   0.02438  -0.52812  -0.03392
   0.08418  -0.46822  -0.09382
   0.20388  -0.40842  -0.15362
   0.38348  -0.28872  -0.09382
   0.50318  -0.22882  -0.09382
   0.56298  -0.16902  -0.09382
   0.56298  -0.10912  -0.09382
   0.62288  -0.04932  -0.09382
   0.68278  -0.04932  -0.09382
   0.74258   0.01058  -0.09382
   0.68278   0.01058  -0.15362
   0.62288   0.07048  -0.21352
   0.62288   0.07048  -0.21352
   0.50318   0.13028  -0.15362
   0.38348   0.19018  -0.15362
   0.32358   0.01058  -0.15362
   0.20388   0.07048  -0.15362
   0.02438   0.07048  -0.27332
  -0.15522   0.01058  -0.27332
  -0.21512   0.01058  -0.21352
  -0.33482   0.07048  -0.21352
  -0.45452   0.07048  -0.21352
  -0.57422   0.07048  -0.27332
  -0.63402   0.13028  -0.27332
  -0.75382   0.01058  -0.33322
  -0.81362   0.01058  -0.27332
  -0.99322   0.01058  -0.33322
  -0.99322   0.01058  -0.39302
  -1.05302  -0.10912  -0.33322
  -0.99322  -0.04932  -0.39302
  -0.87352  -0.04932  -0.45292
  -0.87352   0.01058  -0.51272
  -0.81362   0.07048  -0.51272
  -0.69392   0.07048  -0.51272
  -0.51432   0.07048  -0.45292
  -0.39462   0.19018  -0.39302
  -0.27492   0.24998  -0.39302
  -0.21512   0.19018  -0.45292
  -0.15522   0.13028  -0.51272
  -0.03552   0.19018  -0.45292
   0.14408   0.19018  -0.39302
   0.20388   0.19018  -0.45292
   0.32358   0.13028  -0.51272
   0.44328   0.07048  -0.51272
   0.38348   0.13028  -0.45292
   0.50318   0.13028  -0.45292
   0.56298   0.13028  -0.39302
   0.56298   0.13028  -0.33322
   0.50318   0.07048  -0.33322
   0.44328   0.13028  -0.33322
   0.38348   0.13028  -0.27332
   0.32358   0.13028  -0.27332
   0.20388   0.13028  -0.27332
   0.08418   0.13028  -0.21352
  -0.03552   0.13028  -0.27332
  -0.03552   0.01058  -0.21352
  -0.21512  -0.04932  -0.27332
  -0.39462  -0.04932  -0.21352
  -0.45452  -0.16902  -0.15362
  -0.57422  -0.22882  -0.03392
  -0.69392  -0.28872  -0.03392
  -0.69392  -0.34852   0.08578
  -0.75382  -0.34852   0.08578
  -0.81362  -0.34852   0.02598
  -0.87352  -0.46822   0.14568
  -0.87352  -0.46822   0.20548
  -0.87352  -0.52812   0.14568
  -0.87352  -0.40842   0.02598
  -0.87352  -0.34852   0.02598
  -0.75382  -0.40842  -0.03392
  -0.63402  -0.40842  -0.15362
  -0.51432  -0.22882  -0.21352
  -0.39462  -0.22882  -0.21352
  -0.21512  -0.10912  -0.27332
  -0.15522  -0.10912  -0.33322
  -0.15522  -0.04932  -0.27332
   0.02438   0.07048  -0.27332
   0.14408   0.24998  -0.33322
   0.20388   0.24998  -0.27332
   0.32358   0.24998  -0.27332
   0.38348   0.30988  -0.27332
   0.44328   0.42958  -0.15362
   0.56298   0.36968  -0.03392
   0.56298   0.36968  -0.09382
   0.62288   0.36968  -0.15362
   0.68278   0.36968   0.02598
   0.80248   0.30988  -0.03392
   0.80248   0.24998   0.08578
   0.80248   0.19018   0.20548
   0.80248   0.19018   0.26538
   0.80248   0.19018   0.32518
   0.80248   0.13028   0.38508
   0.80248   0.07048   0.38508
   0.80248   0.07048   0.38508
   0.80248   0.13028   0.44488
   0.80248   0.07048   0.62448
   0.68278   0.07048   0.62448
   0.62288   0.01058   0.56458
   0.50318   0.01058   0.62448
   0.38348  -0.10912   0.68438
   0.38348  -0.10912   0.68438
   0.26378  -0.16902   0.62448
   0.14408  -0.10912   0.56458
   0.08418  -0.04932   0.50478
  -0.09542  -0.10912   0.50478
  -0.15522  -0.10912   0.44488
  -0.21512  -0.16902   0.32518
  -0.27492  -0.10912   0.26538
  -0.27492   0.01058   0.32518
  -0.21512   0.01058   0.26538
  -0.33482   0.01058   0.08578
  -0.39462   0.01058   0.02598
  -0.33482   0.01058  -0.03392
  -0.27492   0.01058   0.02598
  -0.21512   0.01058   0.02598
  -0.27492   0.07048  -0.09382
  -0.21512   0.19018  -0.15362
  -0.15522   0.19018  -0.21352
  -0.15522   0.07048  -0.15362
  -0.09542   0.07048  -0.15362
  -0.03552   0.07048  -0.09382
   0.20388   0.07048   0.02598
   0.26378   0.01058   0.02598
   0.26378  -0.04932   0.02598
   0.32358  -0.10912   0.02598
   0.32358  -0.16902   0.14568
   0.32358  -0.16902   0.26538
   0.32358  -0.16902   0.32518
   0.38348  -0.16902   0.32518
   0.44328  -0.16902   0.38508
   0.50318  -0.22882   0.26538
   0.44328  -0.28872   0.32518
   0.38348  -0.28872   0.38508
   0.44328  -0.28872   0.50478
   0.44328  -0.16902   0.44488
   0.38348  -0.10912   0.50478
   0.38348  -0.04932   0.44488
   0.32358   0.01058   0.38508
   0.26378   0.07048   0.32518
   0.14408   0.13028   0.32518
   0.08418   0.30988   0.26538
   0.14408   0.42958   0.14568
   0.08418   0.42958   0.08578
  -0.03552   0.42958   0.08578
  -0.09542   0.48938  -0.03392
  -0.27492   0.48938   0.02598
  -0.33482   0.42958  -0.03392
  -0.33482   0.42958  -0.15362
  -0.33482   0.36968  -0.21352
  -0.45452   0.30988  -0.27332
  -0.45452   0.36968  -0.21352
  -0.39462   0.30988  -0.21352
  -0.45452   0.30988  -0.27332
  -0.33482   0.30988  -0.21352
  -0.27492   0.24998  -0.21352
  -0.27492   0.24998  -0.27332
  -0.21512   0.19018  -0.27332
  -0.03552   0.01058  -0.27332
   0.02438  -0.04932  -0.15362
   0.08418  -0.16902  -0.15362
   0.14408  -0.28872  -0.15362
   0.20388  -0.40842  -0.03392
   0.26378  -0.46822   0.02598
   0.32358  -0.58792   0.14568
   0.26378  -0.64782   0.14568
   0.32358  -0.64782   0.26538
   0.32358  -0.70772   0.20548
   0.26378  -0.70772   0.26538
   0.26378  -0.70772   0.38508
   0.20388  -0.58792   0.32518
   0.14408  -0.46822   0.26538
   0.20388  -0.46822   0.26538
   0.08418  -0.52812   0.32518
   0.02438  -0.40842   0.32518
   0.02438  -0.28872   0.26538
  -0.03552  -0.28872   0.26538
  -0.09542  -0.22882   0.26538
  -0.15522  -0.22882   0.26538
  -0.21512  -0.16902   0.20548
  -0.27492  -0.16902   0.02598
  -0.33482   0.01058  -0.03392
  -0.33482   0.19018  -0.09382
  -0.45452   0.19018  -0.09382
  -0.51432   0.24998  -0.15362
  -0.51432   0.36968  -0.27332
  -0.51432   0.36968  -0.39302
  -0.51432   0.48938  -0.45292
  -0.51432   0.60908  -0.51272
  -0.57422   0.54928  -0.51272
  -0.57422   0.54928  -0.51272
  -0.57422   0.54928  -0.51272
  -0.57422   0.48938  -0.51272
  -0.63402   0.36968  -0.51272
  -0.57422   0.42958  -0.57262
  -0.57422   0.30988  -0.57262
  -0.69392   0.30988  -0.45292
  -0.69392   0.24998  -0.51272
  -0.63402   0.19018  -0.39302
  -0.57422   0.13028  -0.45292
  -0.51432   0.13028  -0.39302
  -0.51432   0.19018  -0.21352
  -0.45452   0.19018  -0.15362
  -0.39462   0.13028  -0.09382
  -0.39462   0.13028   0.02598
  -0.33482   0.07048   0.08578
  -0.27492   0.07048   0.14568
  -0.21512   0.07048   0.26538
  -0.15522   0.19018   0.38508
  -0.15522   0.19018   0.32518
  -0.21512   0.07048   0.32518
  -0.21512   0.13028   0.38508
  -0.09542   0.13028   0.38508
   0.08418   0.19018   0.26538
   0.08418   0.01058   0.26538
   0.14408  -0.04932   0.20548
   0.08418  -0.04932   0.26538
   0.02438  -0.04932   0.26538
   0.02438  -0.10912   0.26538
   0.08418  -0.16902   0.26538
   0.08418  -0.28872   0.20548
   0.08418  -0.28872   0.08578
   0.02438  -0.34852   0.08578
   0.02438  -0.40842   0.02598
   0.02438  -0.46822  -0.09382
   0.08418  -0.46822  -0.21352
   0.14408  -0.46822  -0.27332
   0.20388  -0.46822  -0.39302
   0.20388  -0.52812  -0.45292
   0.26378  -0.52812  -0.45292
   0.32358  -0.52812  -0.57262
   0.32358  -0.58792  -0.63242
   0.32358  -0.46822  -0.69232
   0.38348  -0.52812  -0.75222
   0.38348  -0.40842  -0.75222
   0.38348  -0.34852  -0.81202
   0.44328  -0.34852  -0.81202
   0.44328  -0.34852  -0.69232
   0.50318  -0.22882  -0.69232
   0.56298  -0.16902  -0.63242
   0.62288  -0.10912  -0.45292
   0.56298  -0.10912  -0.33322
   0.56298   0.01058  -0.27332
   0.50318   0.19018  -0.27332
   0.56298   0.30988  -0.09382
   0.56298   0.36968   0.02598
   0.56298   0.42958   0.20548
   0.56298   0.48938   0.20548
   0.44328   0.54928   0.44488
   0.38348   0.60908   0.44488
   0.38348   0.54928   0.50478
   0.26378   0.54928   0.68438
   0.32358   0.60908   0.68438
   0.26378   0.54928   0.62448
   0.14408   0.60908   0.56458
   0.26378   0.60908   0.56458
   0.20388   0.54928   0.56458
   0.08418   0.54928   0.50478
   0.02438   0.48938   0.56458
   0.02438   0.30988   0.38508
  -0.03552   0.19018   0.26538
  -0.09542   0.07048   0.26538
  -0.09542   0.01058   0.20548
  -0.21512  -0.10912   0.08578
  -0.27492  -0.22882  -0.03392
  -0.21512  -0.22882  -0.09382
  -0.33482  -0.28872  -0.15362
  -0.33482  -0.40842  -0.27332
  -0.39462  -0.52812  -0.45292
  -0.39462  -0.58792  -0.51272
  -0.45452  -0.58792  -0.51272
  -0.45452  -0.58792  -0.63242
  -0.27492  -0.64782  -0.75222
  -0.15522  -0.70772  -0.81202
  -0.21512  -0.76752  -0.75222
  -0.21512  -0.70772  -0.75222
  -0.15522  -0.64782  -0.81202
  -0.15522  -0.58792  -0.75222
  -0.09542  -0.46822  -0.63242
   0.02438  -0.28872  -0.63242
   0.08418  -0.16902  -0.51272
   0.14408  -0.10912  -0.33322
   0.20388  -0.04932  -0.21352
   0.26378   0.01058  -0.09382
   0.32358   0.13028   0.08578
   0.44328   0.13028   0.14568
   0.44328   0.13028   0.32518
   0.50318   0.24998   0.38508
   0.50318   0.30988   0.56458
   0.50318   0.48938   0.62448
   0.56298   0.54928   0.74418
   0.68278   0.60908   0.80408
   0.62288   0.60908   0.92378
   0.56298   0.54928   0.98358
   0.56298   0.54928   1.10328
   0.50318   0.54928   1.10328
   0.44328   0.54928   1.10328
   0.44328   0.54928   1.22298
   0.38348   0.42958   1.22298
   0.32358   0.36968   1.16318
   0.26378   0.24998   1.10328
   0.20388   0.13028   1.10328
   0.08418   0.13028   0.92378
   0.02438   0.07048   0.86388
  -0.09542   0.01058   0.80408
  -0.15522  -0.10912   0.74418
  -0.27492  -0.10912   0.50478
  -0.27492  -0.16902   0.38508
  -0.33482  -0.16902   0.26538
  -0.45452  -0.22882   0.14568
  -0.45452  -0.22882   0.02598
  -0.45452  -0.28872  -0.09382
  -0.57422  -0.28872  -0.09382
  -0.69392  -0.28872  -0.27332
  -0.69392  -0.34852  -0.45292
  -0.75382  -0.40842  -0.45292
  -0.81362  -0.46822  -0.45292
  -0.81362  -0.46822  -0.45292
  -0.81362  -0.46822  -0.39302
  -0.75382  -0.46822  -0.39302
  -0.69392  -0.52812  -0.39302
  -0.63402  -0.52812  -0.39302
  -0.69392  -0.52812  -0.33322
  -0.57422  -0.40842  -0.27332
  -0.51432  -0.34852  -0.27332
  -0.57422  -0.28872  -0.21352
  -0.51432  -0.28872  -0.09382
  -0.51432  -0.16902  -0.03392
  -0.51432  -0.04932  -0.03392
  -0.45452  -0.04932  -0.03392
  -0.39462  -0.04932  -0.09382
  -0.33482  -0.04932  -0.09382
  -0.27492   0.01058   0.02598
  -0.21512   0.07048   0.08578
  -0.15522   0.19018   0.08578
  -0.15522   0.24998   0.02598
  -0.09542   0.30988   0.02598
  -0.09542   0.30988   0.08578
  -0.09542   0.30988   0.08578
   0.02438   0.36968   0.08578
   0.02438   0.48938   0.08578
   0.08418   0.48938   0.08578
   0.20388   0.42958   0.08578
   0.14408   0.42958   0.08578
   0.20388   0.48938   0.02598
   0.20388   0.54928   0.08578
   0.26378   0.48938   0.20548
   0.32358   0.42958   0.08578
   0.26378   0.42958   0.02598
   0.32358   0.42958   0.08578
   0.44328   0.42958   0.08578
   0.50318   0.30988   0.14568
   0.44328   0.30988   0.14568
   0.44328   0.36968   0.20548
   0.38348   0.30988   0.20548
   0.32358   0.19018   0.08578
   0.38348   0.07048   0.08578
   0.32358   0.01058   0.14568
   0.26378  -0.04932   0.14568
   0.26378  -0.10912   0.20548
   0.20388  -0.22882   0.14568
   0.14408  -0.28872   0.14568
   0.20388  -0.34852   0.08578
   0.20388  -0.28872   0.14568
   0.08418  -0.22882   0.26538
   0.08418  -0.28872   0.20548
   0.14408  -0.40842   0.26538
   0.20388  -0.40842   0.20548
   0.20388  -0.34852   0.14568
   0.14408  -0.28872   0.02598
   0.08418  -0.34852  -0.03392
   0.08418  -0.34852  -0.03392
   0.02438  -0.34852  -0.15362
   0.08418  -0.34852  -0.15362
   0.02438  -0.40842  -0.21352
  -0.03552  -0.46822  -0.21352
  -0.03552  -0.40842  -0.15362
  -0.09542  -0.40842  -0.15362
  -0.09542  -0.34852  -0.21352
  -0.03552  -0.28872  -0.27332
  -0.03552  -0.22882  -0.27332
  -0.03552  -0.28872  -0.21352
  -0.03552  -0.22882  -0.27332
  -0.03552  -0.16902  -0.39302
  -0.09542  -0.04932  -0.39302
  -0.03552  -0.04932  -0.51272
   0.02438   0.01058  -0.51272
   0.02438  -0.04932  -0.57262
  -0.03552   0.07048  -0.57262
  -0.03552   0.13028  -0.57262
  -0.03552   0.07048  -0.51272
  -0.09542   0.07048  -0.51272
  -0.09542   0.01058  -0.51272
  -0.09542   0.13028  -0.63242
  -0.15522   0.13028  -0.57262
  -0.09542   0.01058  -0.51272
  -0.15522  -0.04932  -0.51272
  -0.21512  -0.04932  -0.45292
  -0.27492  -0.04932  -0.39302
  -0.27492  -0.04932  -0.33322
  -0.27492   0.01058  -0.15362
  -0.15522   0.07048  -0.09382
  -0.09542   0.07048  -0.15362
  -0.09542   0.13028  -0.15362
  -0.09542   0.13028  -0.15362
  -0.09542   0.07048  -0.15362
  -0.03552   0.13028  -0.09382
   0.02438   0.07048  -0.09382
   0.02438   0.07048  -0.03392
   0.08418   0.19018  -0.03392
   0.08418   0.30988  -0.03392
   0.08418   0.36968   0.02598
   0.26378   0.30988  -0.03392
   0.26378   0.30988   0.08578
   0.38348   0.30988   0.20548
   0.44328   0.36968   0.02598
   0.38348   0.24998  -0.03392
   0.38348   0.30988   0.02598
   0.32358   0.24998   0.08578
   0.26378   0.30988   0.20548
   0.26378   0.36968   0.14568
   0.26378   0.30988   0.20548
   0.20388   0.30988   0.20548
   0.14408   0.30988   0.14568
   0.20388   0.19018   0.08578
   0.20388   0.07048   0.08578
   0.14408   0.13028   0.14568
   0.14408   0.01058   0.20548
   0.14408   0.07048   0.08578
   0.14408   0.07048   0.02598
   0.14408  -0.10912  -0.03392
   0.14408  -0.16902   0.02598
   0.08418  -0.22882   0.02598
   0.08418  -0.34852  -0.03392
   0.08418  -0.40842  -0.09382
   0.08418  -0.40842  -0.09382
   0.02438  -0.46822  -0.09382
   0.02438  -0.46822  -0.09382
   0.08418  -0.52812  -0.15362
   0.08418  -0.52812  -0.09382
   0.08418  -0.52812  -0.15362
   0.02438  -0.70772  -0.15362
   0.02438  -0.70772  -0.21352
  -0.09542  -0.64782  -0.15362
  -0.09542  -0.64782  -0.03392
  -0.03552  -0.52812  -0.03392
  -0.03552  -0.46822  -0.03392
