********************************************************************************
               CENTRO DE INSTRUMENTACION Y REGISTRO SISMICO  A.C.  
                       Coordinacion de Servicios Tecnicos
     Anaxagoras 814, Col. Narvarte, Benito Juarez, C.P. 03020 Mexico, D.F.
            Tels. 667 45 42/ 687 45  82             Fax. 669 25 12
********************************************************************************
ARCHIVO ESTANDAR DE ACELERACION:
VERSION DEL FORMATO                    : 2.0
NOMBRE DEL ARCHIVO                     : AL019705.221
FECHA Y HORA DE CREACION               : 18/MAR/98, 13:30
REF. CATALOGO ACELEROGRAMAS, SMIS 1996 : REGISTRO No.     /PAG.


================================================================================
DATOS DE LA ESTACION:
NOMBRE DE LA ESTACION                  : ALAMEDA
CLAVE DE LA ESTACION                   : AL01
LOCALIZACION DE LA ESTACION            : JARDIN ALAMEDA ENTRE AV. HIDALGO Y AV.
                                       : JUAREZ, CENTRO
                                       :
                                       :
                                       :
COORDENADAS DE LA ESTACION             : 19.436 LAT. N 
                                       : 99.145 LONG. W 
ALTITUD (msnm)                         : 2232
TIPO DE SUELO                          : TERRENO BLANDO, MATERIAL COMPRESIBLE
                                       : (ARCILLAS)
                                       : 
INSTITUCION RESPONSABLE                : CIRES 
                                       :

================================================================================
DATOS DEL ACELEROGRAFO:
MODELO DEL ACELEROGRAFO                : SSA-1
NUMERO DE SERIE DEL ACELEROGRAFO       : 152
NUMERO DE CANALES                      : 3
ORIENTACION C1-C6 (rumbo;orientacion)  : /N00E/+V/N90E
ORIENTACION C7-C12 (rumbo;orientacion) :
VEL. DE MUESTREO, C1-C6 (muestras/s)   : /200/200/200
VEL. DE MUESTREO, C7-C12 (muestras/s)  :
ESC. COMPLETA DE SENSORES, C1-C6, (g)  : /2/2/2
ESC. COMPLETA DE SENSORES, C7-C12, (g) :
FREC. NAT. DE SENSORES, C1-C6, (Hz)    : /51.29/51.09/53.75
FREC. NAT. DE SENSORES, C7-C12, (Hz)   :
AMORTIGUAMIENTO DE SENSORES, C1-C6     : /.5519/.5670/.5810
AMORTIGUAMIENTO DE SENSORES, C7-C12    :
INTERVALO DE MUESTREO, C1-C6, (s)      : /0.005/0.005/0.005
INTERVALO DE MUESTREO, C7-C12, (s)     :
UMBRAL DE DISPARO, C1-C6, (Gal)        : /2/1.5/2
UMBRAL DE DISPARO, C7-C12, (Gal)       :
MEMORIA DE PREEVENTO (s)               : 15
TIEMPO DE POSEVENTO (s)                : 60


================================================================================
DATOS DEL SISMO:
FECHA DEL SISMO (GMT)                  : 22/MAY/97
HORA EPICENTRO (GMT)                   : 07:50:55:7
MAGNITUD(ES)                           : /Ms=6.0
COORDENADAS DEL EPICENTRO              : 18.4 LAT. N
                                       : 101.8 LONG. W
PROFUNDIDAD FOCAL (km)                 : 59.0
FUENTE DE LOS DATOS EPICENTRALES       : SSN
                                       : INSTITUTO DE GEOFISICA, UNAM

================================================================================
DATOS DE ESTE REGISTRO:
HORA DE LA PRIMERA MUESTRA (GMT)       : 07:52:00.00
EXACTITUD DEL TIEMPO (s)               :     
DURACION DEL REGISTRO (s), C1-C6       : /171.52/171.52/171.52
DURACION DEL REGISTRO (s), C7-C12      :
NUM. TOTAL DE MUESTRAS, C1-C6          : /34304/34304/34304
NUM. TOTAL DE MUESTRAS, C7-C12         :
ACEL. MAX. (Gal), C1-C6                : /4.70093/2.48675/5.84935
ACEL. MAX., C1-C6, EN LA MUESTRA       :
ACEL. MAX. (Gal), C7-C12               :
ACEL. MAX., C7-C12, EN LA MUESTRA      :
UNIDADES DE LOS DATOS                  : Gal (cm/s/s)
FACTOR DE DECIMACION                   : 1
FORMATO DATOS (FORTRAN,10 campos/dato) : 3F10.5


================================================================================
CALIDAD DEL ACELEROGRAMA:
REGISTRO DIGITAL COMPLETO, CARECE DE TIEMPO ABSOLUTO.


================================================================================
COMENTARIOS:














================================================================================
DATOS DE ACELERACION:
---------+---------+---------+---------+---------+---------+---------+---------+
   CANAL-1   CANAL-2   CANAL-3   CANAL-4   CANAL-5   CANAL-6   CANAL-7   CANAL-8
      N00E        +V      N90E
---------+---------+---------+---------+---------+---------+---------+---------+
[...]
   0.39093  -0.08675   1.29935
   0.39093  -0.08675   1.05935
   0.39093  -0.08675   1.05935
   0.39093  -0.08675   0.81935
   0.39093  -0.08675   0.81935
   0.15093  -0.08675   0.57935
   0.15093  -0.08675   0.57935
   0.15093   0.15325   0.34935
  -0.08907  -0.32675   0.10935
  -0.08907  -0.08675   0.10935
  -0.08907  -0.08675  -0.13065
  -0.08907  -0.08675  -0.13065
  -0.32907  -0.08675  -0.13065
  -0.32907  -0.08675  -0.37065
  -0.32907  -0.08675  -0.37065
  -0.56907   0.15325  -0.61065
  -0.56907   0.15325  -0.61065
  -0.56907   0.15325  -0.61065
  -0.80907  -0.08675  -0.85065
  -0.80907   0.39325  -0.85065
  -0.80907   0.39325  -0.85065
  -1.04907   0.39325  -0.85065
  -1.04907   0.39325  -1.09065
  -1.04907   0.39325  -1.09065
  -1.04907   0.39325  -1.09065
  -1.28907   0.39325  -1.09065
  -1.52907   0.39325  -1.09065
  -1.52907   0.63325  -1.33065
  -1.52907   0.63325  -1.33065
  -1.76907   0.63325  -1.33065
  -1.76907   0.63325  -1.33065
  -1.99907   0.63325  -1.33065
  -1.99907   0.63325  -1.33065
  -2.23907   0.63325  -1.33065
  -2.23907   0.63325  -1.33065
  -2.23907   0.63325  -1.33065
  -2.47907   0.63325  -1.33065
  -2.71907   0.63325  -1.33065
  -2.47907   0.63325  -1.33065
  -2.47907   0.63325  -1.33065
  -2.71907   0.63325  -1.33065
  -2.71907   0.63325  -1.33065
  -2.71907   0.39325  -1.33065
  -2.95907   0.39325  -1.33065
  -2.95907   0.39325  -1.57065
  -2.95907   0.39325  -1.57065
  -2.95907   0.39325  -1.57065
  -3.19907   0.39325  -1.57065
  -3.19907   0.39325  -1.57065
  -3.19907   0.39325  -1.57065
  -3.19907   0.39325  -1.57065
  -3.19907   0.39325  -1.57065
  -3.19907   0.39325  -1.57065
  -3.19907   0.39325  -1.57065
  -3.19907   0.15325  -1.81065
  -3.19907   0.15325  -1.81065
  -3.19907   0.15325  -1.81065
  -3.19907   0.15325  -1.81065
  -3.19907   0.15325  -1.81065
  -3.19907   0.15325  -1.81065
  -3.19907   0.15325  -1.81065
  -3.19907   0.15325  -1.81065
  -2.95907   0.15325  -1.81065
  -2.95907  -0.08675  -1.81065
  -2.95907  -0.08675  -2.05065
  -2.71907   0.15325  -2.05065
  -2.71907  -0.08675  -2.05065
  -2.47907  -0.08675  -1.81065
  -2.47907  -0.08675  -1.81065
  -2.47907  -0.08675  -1.81065
  -2.23907  -0.08675  -1.81065
  -2.23907  -0.08675  -1.81065
  -2.23907  -0.08675  -1.81065
  -1.99907  -0.08675  -1.81065
  -1.99907  -0.08675  -1.81065
  -1.99907  -0.08675  -1.81065
  -1.99907  -0.08675  -1.81065
  -1.76907  -0.08675  -1.57065
  -1.76907  -0.08675  -1.57065
  -1.76907  -0.32675  -1.57065
  -1.52907  -0.32675  -1.57065
  -1.52907  -0.32675  -1.33065
  -1.52907  -0.32675  -1.57065
  -1.52907  -0.08675  -1.33065
  -1.28907  -0.32675  -1.33065
  -1.28907  -0.32675  -1.09065
  -1.28907  -0.32675  -1.09065
  -1.28907  -0.32675  -1.09065
  -1.04907  -0.32675  -0.85065
  -1.04907  -0.32675  -0.85065
  -1.04907  -0.32675  -0.61065
  -1.04907  -0.56675  -0.61065
  -1.04907  -0.56675  -0.37065
  -0.80907  -0.56675  -0.37065
  -0.80907  -0.56675  -0.37065
  -0.80907  -0.56675  -0.13065
  -0.80907  -0.56675  -0.13065
  -0.56907  -0.80675   0.10935
  -0.56907  -0.80675   0.10935
  -0.56907  -0.80675   0.34935
  -0.56907  -0.80675   0.34935
  -0.56907  -0.80675   0.57935
  -0.56907  -0.80675   0.57935
  -0.56907  -0.80675   0.57935
  -0.56907  -0.80675   0.81935
  -0.56907  -0.80675   0.81935
  -0.56907  -0.80675   0.81935
  -0.56907  -0.80675   1.05935
  -0.56907  -0.80675   1.05935
  -0.80907  -0.80675   1.05935
  -0.80907  -0.80675   1.29935
  -0.80907  -0.80675   1.29935
  -0.80907  -0.80675   1.29935
  -1.04907  -0.80675   1.29935
  -0.80907  -0.56675   1.29935
  -1.04907  -0.56675   1.29935
  -1.04907  -0.56675   1.29935
  -1.04907  -0.56675   1.29935
  -1.04907  -0.56675   1.53935
  -1.04907  -0.56675   1.53935
  -1.04907  -0.32675   1.29935
  -1.04907  -0.32675   1.29935
  -1.52907  -0.32675   1.29935
  -1.28907  -0.08675   1.29935
  -1.28907  -0.08675   1.29935
  -1.28907  -0.08675   1.29935
  -1.28907  -0.08675   1.05935
  -1.28907  -0.08675   1.05935
  -1.28907   0.15325   1.05935
  -1.28907  -0.08675   0.81935
  -1.52907   0.15325   0.81935
  -1.28907   0.15325   0.81935
  -1.28907   0.15325   0.81935
  -1.52907   0.15325   0.57935
  -1.52907   0.15325   0.57935
  -1.52907   0.39325   0.57935
  -1.52907   0.39325   0.34935
  -1.52907   0.39325   0.34935
  -1.28907   0.63325   0.34935
  -1.28907   0.63325   0.10935
  -1.28907   0.87325   0.10935
  -1.28907   0.87325   0.10935
  -1.28907   0.87325   0.10935
  -1.28907   0.87325  -0.13065
  -1.04907   0.87325  -0.37065
  -1.04907   1.11325  -0.37065
  -1.04907   1.11325  -0.37065
  -1.04907   1.11325  -0.61065
  -0.80907   1.11325  -0.61065
  -0.80907   1.11325  -0.61065
  -0.80907   1.11325  -0.85065
  -0.56907   1.11325  -1.33065
  -0.56907   0.87325  -1.09065
  -0.56907   1.11325  -1.33065
  -0.56907   1.11325  -1.57065
  -0.32907   1.11325  -1.57065
  -0.32907   1.11325  -1.57065
  -0.32907   1.11325  -1.81065
  -0.32907   0.87325  -1.81065
  -0.08907   0.87325  -1.81065
  -0.08907   0.87325  -1.81065
  -0.08907   0.87325  -2.05065
  -0.08907   0.87325  -2.05065
  -0.08907   0.87325  -2.05065
   0.15093   0.87325  -2.29065
   0.15093   0.39325  -2.29065
   0.15093   0.63325  -2.29065
   0.15093   0.63325  -2.05065
   0.39093   0.39325  -2.05065
   0.39093   0.39325  -2.05065
   0.39093   0.15325  -2.29065
   0.39093   0.15325  -2.29065
   0.39093   0.15325  -2.29065
   0.39093  -0.08675  -2.05065
   0.39093  -0.08675  -2.05065
   0.63093  -0.08675  -2.05065
   0.63093  -0.08675  -2.05065
   0.63093  -0.08675  -2.05065
   0.63093  -0.32675  -2.05065
   0.63093  -0.32675  -2.53065
   0.63093  -0.32675  -2.05065
   0.63093  -0.32675  -2.05065
   0.63093  -0.32675  -2.05065
   0.87093  -0.08675  -2.05065
   0.87093  -0.08675  -2.05065
   0.87093  -0.08675  -2.05065
   0.87093  -0.08675  -2.05065
   0.87093  -0.08675  -2.05065
   0.87093  -0.08675  -2.05065
   0.87093  -0.08675  -2.05065
   0.87093  -0.08675  -2.05065
   0.87093  -0.08675  -2.05065
   0.87093  -0.08675  -2.05065
   1.11093  -0.08675  -1.81065
   1.11093  -0.08675  -1.81065
   1.11093   0.15325  -1.81065
   1.11093   0.15325  -1.81065
   1.11093   0.15325  -1.81065
   1.11093   0.15325  -1.81065
   1.35093   0.15325  -1.81065
   1.35093   0.39325  -1.81065
   1.35093   0.15325  -1.81065
   1.35093   0.39325  -1.57065
   1.59093   0.15325  -1.81065
   1.59093   0.39325  -1.81065
   1.59093   0.39325  -1.81065
   1.59093   0.39325  -1.81065
   1.83093   0.39325  -1.81065
   1.83093   0.15325  -1.81065
   1.83093   0.15325  -1.81065
   1.83093   0.15325  -1.81065
   1.83093   0.15325  -1.81065
   1.83093   0.15325  -1.57065
   1.83093   0.15325  -1.57065
   2.07093   0.15325  -1.57065
   1.83093   0.15325  -1.57065
   2.07093   0.15325  -1.81065
   1.83093   0.15325  -1.57065
   1.83093   0.15325  -1.57065
   1.83093   0.15325  -1.57065
   1.83093  -0.08675  -1.57065
   1.83093  -0.08675  -1.57065
   1.83093  -0.08675  -1.33065
   1.83093  -0.08675  -1.33065
   1.83093  -0.08675  -1.33065
   1.83093  -0.08675  -1.33065
   1.83093  -0.32675  -1.33065
   1.59093  -0.32675  -1.33065
   1.59093  -0.32675  -1.33065
   1.59093  -0.32675  -1.33065
   1.35093  -0.32675  -1.09065
   1.35093  -0.32675  -1.33065
   1.35093  -0.56675  -1.33065
   1.11093  -0.56675  -1.33065
   1.11093  -0.56675  -1.33065
   0.87093  -0.56675  -1.33065
   0.87093  -0.56675  -1.33065
   0.63093  -0.56675  -1.33065
   0.63093  -0.56675  -1.33065
   0.39093  -0.32675  -1.33065
   0.39093  -0.32675  -1.57065
   0.15093  -0.32675  -1.33065
  -0.08907  -0.32675  -1.57065
  -0.08907  -0.32675  -1.33065
  -0.32907  -0.08675  -1.57065
  -0.32907  -0.08675  -1.57065
  -0.56907  -0.08675  -1.57065
  -0.80907  -0.08675  -1.57065
  -0.80907  -0.08675  -1.81065
  -1.04907   0.15325  -1.81065
  -1.28907   0.15325  -1.81065
  -1.28907   0.15325  -1.81065
  -1.28907   0.39325  -2.05065
  -1.52907   0.39325  -2.05065
  -1.76907   0.39325  -2.29065
  -1.76907   0.39325  -2.05065
  -1.99907   0.63325  -2.29065
  -1.99907   0.63325  -2.29065
  -1.99907   0.63325  -2.53065
  -1.99907   0.87325  -2.53065
  -2.23907   0.87325  -2.53065
  -2.23907   0.87325  -2.53065
  -2.23907   0.87325  -2.53065
  -2.23907   1.11325  -2.53065
  -2.47907   0.87325  -2.77065
  -2.47907   0.87325  -2.77065
  -2.47907   1.11325  -2.77065
  -2.47907   1.11325  -3.01065
  -2.47907   1.35325  -3.01065
  -2.47907   1.35325  -3.01065
  -2.47907   1.35325  -3.01065
  -2.23907   1.59325  -3.01065
  -2.23907   1.59325  -3.01065
  -2.23907   1.59325  -3.01065
  -2.23907   1.59325  -3.01065
  -2.23907   1.59325  -3.25065
  -1.99907   1.83325  -3.01065
  -1.99907   1.83325  -3.25065
  -1.99907   1.59325  -3.25065
  -1.76907   1.83325  -3.25065
  -1.76907   1.83325  -3.01065
  -1.52907   1.83325  -3.01065
  -1.52907   1.83325  -3.01065
  -1.52907   1.59325  -3.01065
  -1.28907   1.59325  -3.01065
  -1.04907   1.59325  -3.01065
  -1.04907   1.59325  -3.01065
  -1.04907   1.59325  -2.77065
  -0.80907   1.35325  -2.53065
  -0.80907   1.35325  -2.53065
  -0.56907   1.35325  -2.53065
  -0.56907   1.11325  -2.53065
  -0.32907   1.11325  -2.29065
  -0.32907   1.11325  -2.29065
  -0.32907   1.11325  -2.05065
  -0.08907   0.87325  -2.05065
  -0.08907   0.87325  -1.81065
  -0.08907   0.87325  -1.81065
   0.15093   0.63325  -1.57065
   0.39093   0.63325  -1.57065
   0.39093   0.63325  -1.33065
   0.39093   0.39325  -1.33065
   0.39093   0.39325  -1.09065
   0.63093   0.15325  -0.85065
   0.63093   0.15325  -0.85065
   0.63093   0.15325  -0.61065
   0.87093   0.15325  -0.61065
   0.87093  -0.08675  -0.37065
   0.87093  -0.08675  -0.37065
   0.87093  -0.08675  -0.13065
   1.11093  -0.32675   0.10935
   1.11093  -0.32675   0.34935
   1.11093  -0.32675   0.34935
   1.35093  -0.56675   0.57935
   1.35093  -0.56675   0.57935
   1.35093  -0.56675   0.81935
   1.35093  -0.56675   1.05935
   1.59093  -0.56675   1.05935
   1.59093  -0.80675   1.29935
   1.59093  -0.80675   1.53935
   1.59093  -0.80675   1.77935
   1.83093  -0.80675   1.77935
   1.83093  -0.80675   2.01935
   1.83093  -0.80675   2.25935
   1.83093  -0.56675   2.49935
   1.83093  -0.56675   2.73935
   2.07093  -0.56675   2.73935
   2.07093  -0.56675   2.97935
   2.07093  -0.56675   3.21935
   2.31093  -0.56675   3.45935
   2.31093  -0.56675   3.69935
   2.31093  -0.56675   3.93935
   2.55093  -0.32675   3.93935
   2.55093  -0.32675   4.17935
   2.55093  -0.32675   3.93935
   2.55093  -0.32675   4.41935
   2.79093  -0.32675   4.65935
   2.79093  -0.32675   4.65935
   2.79093  -0.08675   4.65935
   2.79093  -0.08675   4.89935
   2.79093  -0.08675   5.13935
   3.03093  -0.08675   5.13935
   3.03093  -0.08675   5.13935
   3.03093  -0.08675   5.37935
   3.03093  -0.08675   5.37935
   3.03093   0.15325   5.60935
   3.26093   0.15325   5.60935
   3.03093   0.15325   5.60935
   3.03093   0.15325   5.60935
   3.03093   0.15325   5.84935
   3.03093   0.15325   5.84935
   3.03093   0.15325   5.84935
   3.03093   0.15325   5.84935
   2.79093   0.15325   5.84935
   2.79093   0.15325   5.84935
   2.55093   0.15325   5.84935
   2.79093   0.15325   5.84935
   2.55093  -0.08675   5.60935
   2.55093  -0.08675   5.60935
   2.31093  -0.08675   5.60935
   2.31093  -0.08675   5.60935
   2.31093  -0.08675   5.60935
   2.07093  -0.08675   5.60935
   1.83093   0.15325   5.37935
   1.83093  -0.08675   5.37935
   1.59093  -0.08675   5.13935
   1.11093  -0.08675   5.13935
   1.11093  -0.08675   4.89935
   1.11093  -0.08675   4.89935
   0.87093  -0.08675   4.65935
   0.63093  -0.08675   4.65935
   0.39093  -0.08675   4.41935
   0.39093  -0.08675   4.41935
   0.15093  -0.08675   4.41935
  -0.08907  -0.08675   4.17935
  -0.08907  -0.08675   3.93935
  -0.32907  -0.08675   3.93935
  -0.56907  -0.08675   3.69935
  -0.80907  -0.08675   3.69935
  -0.80907  -0.08675   3.45935
  -1.04907  -0.08675   3.45935
  -1.28907  -0.08675   3.21935
  -1.52907  -0.08675   3.21935
  -1.76907  -0.32675   2.97935
  -1.99907  -0.32675   2.97935
  -1.99907  -0.32675   2.73935
  -2.23907  -0.32675   2.73935
  -2.47907  -0.32675   2.73935
  -2.47907  -0.32675   2.49935
  -2.71907  -0.56675   2.49935
  -2.71907  -0.56675   2.25935
  -2.95907  -0.56675   2.25935
  -2.95907  -0.32675   2.25935
  -3.19907  -0.32675   2.01935
  -3.43907  -0.32675   2.01935
  -3.43907  -0.32675   1.77935
  -3.43907  -0.32675   1.77935
  -3.67907  -0.32675   1.77935
  -3.67907  -0.32675   1.77935
  -3.67907  -0.32675   1.53935
  -3.67907  -0.32675   1.53935
  -3.91907  -0.32675   1.53935
  -3.91907  -0.32675   1.53935
  -3.67907  -0.32675   1.53935
  -3.67907  -0.08675   1.53935
  -3.67907  -0.32675   1.53935
  -3.67907  -0.08675   1.53935
  -3.67907  -0.08675   1.53935
  -3.43907  -0.08675   1.53935
  -3.43907  -0.08675   1.53935
  -3.43907  -0.08675   1.53935
  -3.19907  -0.08675   1.53935
  -3.19907  -0.08675   1.53935
  -3.19907  -0.08675   1.53935
  -3.19907  -0.08675   1.77935
  -2.95907  -0.08675   1.53935
  -2.95907  -0.08675   1.77935
  -2.95907  -0.08675   1.77935
  -2.71907  -0.08675   1.77935
  -2.71907   0.15325   1.77935
  -2.71907   0.15325   1.53935
  -2.71907   0.15325   1.53935
  -2.71907  -0.08675   1.53935
  -2.47907  -0.08675   1.53935
  -2.47907  -0.08675   1.53935
  -2.47907  -0.08675   1.53935
  -2.23907  -0.08675   1.53935
  -2.23907  -0.08675   1.53935
  -2.23907  -0.08675   1.29935
  -1.99907  -0.08675   1.29935
  -1.99907  -0.32675   1.29935
  -1.99907  -0.32675   1.29935
  -1.99907  -0.32675   1.29935
  -1.99907  -0.32675   1.29935
  -1.76907  -0.32675   1.29935
  -1.76907  -0.32675   1.29935
  -1.76907  -0.32675   1.29935
  -1.76907  -0.56675   1.29935
  -1.76907  -0.56675   1.29935
  -1.76907  -0.56675   1.29935
  -1.76907  -0.56675   1.29935
  -1.76907  -0.56675   1.29935
  -1.76907  -0.56675   1.29935
  -1.76907  -0.56675   1.05935
  -1.76907  -0.56675   1.05935
  -1.76907  -0.56675   1.29935
  -1.76907  -0.56675   1.05935
  -1.76907  -0.56675   1.29935
  -1.99907  -0.80675   1.29935
  -1.99907  -0.80675   1.29935
  -1.99907  -0.80675   1.29935
  -1.99907  -0.80675   1.29935
  -1.99907  -0.80675   1.29935
  -1.76907  -0.80675   1.29935
  -1.76907  -1.04675   1.29935
  -1.76907  -1.04675   1.29935
  -1.76907  -1.04675   1.29935
  -1.76907  -1.04675   1.29935
  -1.76907  -1.04675   1.29935
  -1.76907  -1.04675   1.29935
  -1.52907  -1.04675   1.29935
  -1.52907  -1.04675   1.29935
  -1.52907  -1.04675   1.53935
  -1.52907  -1.04675   1.53935
  -1.28907  -1.04675   1.53935
  -1.28907  -1.04675   1.53935
  -1.28907  -1.04675   1.53935
  -1.04907  -1.04675   1.53935
  -1.04907  -1.04675   1.53935
  -1.04907  -0.80675   1.53935
  -0.80907  -0.80675   1.53935
  -0.80907  -0.80675   1.77935
  -0.80907  -0.80675   1.53935
  -0.56907  -0.80675   1.53935
  -0.56907  -0.80675   1.53935
  -0.32907  -0.80675   1.53935
  -0.32907  -0.56675   1.53935
  -0.32907  -0.56675   1.53935
  -0.08907  -0.56675   1.29935
  -0.08907  -0.56675   1.29935
  -0.08907  -0.56675   1.29935
   0.15093  -0.56675   1.29935
   0.15093  -0.56675   1.29935
   0.15093  -0.56675   1.05935
   0.39093  -0.56675   1.05935
   0.39093  -0.56675   0.81935
   0.39093  -0.56675   0.81935
   0.39093  -0.56675   0.57935
   0.39093  -0.56675   0.57935
   0.39093  -0.56675   0.34935
   0.39093  -0.56675   0.34935
   0.39093  -0.56675   0.10935
   0.39093  -0.56675   0.10935
   0.39093  -0.32675  -0.13065
   0.39093  -0.32675  -0.37065
   0.39093  -0.32675  -0.37065
   0.39093  -0.32675  -0.61065
   0.39093  -0.32675  -0.61065
   0.39093  -0.32675  -0.85065
   0.39093  -0.08675  -1.09065
