********************************************************************************
               CENTRO DE INSTRUMENTACION Y REGISTRO SISMICO  A.C.  
                       Coordinacion de Servicios Tecnicos
     Anaxagoras 814, Col. Narvarte, Benito Juarez, C.P. 03020 Mexico, D.F.
            Tels. 667 45 42/ 687 45  82             Fax. 669 25 12
********************************************************************************
ARCHIVO ESTANDAR DE ACELERACION:
VERSION DEL FORMATO                    : 2.0
NOMBRE DEL ARCHIVO                     : AL019510.301
FECHA Y HORA DE CREACION               : 2/SEP/96
REF. CATALOGO ACELEROGRAMAS, SMIS 1996 : REGISTRO No.     /PAG.


================================================================================
DATOS DE LA ESTACION:
NOMBRE DE LA ESTACION                  : ALAMEDA
CLAVE DE LA ESTACION                   : AL01
LOCALIZACION DE LA ESTACION            : JARDIN ALAMEDA ENTRE AV. HIDALGO Y AV.
                                       : JUAREZ, CENTRO
                                       :
                                       :
                                       :
COORDENADAS DE LA ESTACION             : 19.436 LAT. N 
                                       : 99.145 LONG. W 
ALTITUD (msnm)                         : 2232
TIPO DE SUELO                          : TERRENO BLANDO, MATERIAL COMPRESIBLE
                                       : (ARCILLAS)
                                       : 
INSTITUCION RESPONSABLE                : CIRES 
                                       :

================================================================================
DATOS DEL ACELEROGRAFO:
MODELO DEL ACELEROGRAFO                : SSA-1
NUMERO DE SERIE DEL ACELEROGRAFO       : 152
NUMERO DE CANALES                      : 3
ORIENTACION C1-C6 (rumbo;orientacion)  : /N00E/+V/N90E
ORIENTACION C7-C12 (rumbo;orientacion) :
VEL. DE MUESTREO, C1-C6 (muestras/s)   : /200/200/200
VEL. DE MUESTREO, C7-C12 (muestras/s)  :
ESC. COMPLETA DE SENSORES, C1-C6, (g)  : /2/2/2
ESC. COMPLETA DE SENSORES, C7-C12, (g) :
FREC. NAT. DE SENSORES, C1-C6, (Hz)    : /50/50/50
FREC. NAT. DE SENSORES, C7-C12, (Hz)   :
AMORTIGUAMIENTO DE SENSORES, C1-C6     : /0.700/0.700/0.700
AMORTIGUAMIENTO DE SENSORES, C7-C12    :
INTERVALO DE MUESTREO, C1-C6, (s)      : /0.005/0.005/0.005
INTERVALO DE MUESTREO, C7-C12, (s)     :
UMBRAL DE DISPARO, C1-C6, (Gal)        : /2/1.5/2
UMBRAL DE DISPARO, C7-C12, (Gal)       :
MEMORIA DE PREEVENTO (s)               : 15
TIEMPO DE POSEVENTO (s)                : 60


================================================================================
DATOS DEL SISMO:
FECHA DEL SISMO (GMT)                  : 30/OCT/95
HORA EPICENTRO (GMT)                   : 14:47:56.6
MAGNITUD(ES)                           : /ME=5.5
COORDENADAS DEL EPICENTRO              : 16.35 LAT N
                                       : 98.50 LON W
PROFUNDIDAD FOCAL (km)                 : 27
FUENTE DE LOS DATOS EPICENTRALES       : SSN
                                       : INSTITUTO DE GEOFISICA, UNAM

================================================================================
DATOS DE ESTE REGISTRO:
HORA DE LA PRIMERA MUESTRA (GMT)       : 14:49:35.00
EXACTITUD DEL TIEMPO (s)               :     
DURACION DEL REGISTRO (s), C1-C6       : /93.44/93.44/93.44
DURACION DEL REGISTRO (s), C7-C12      :
NUM. TOTAL DE MUESTRAS, C1-C6          : /18688/18688/18688
NUM. TOTAL DE MUESTRAS, C7-C12         :
ACEL. MAX. (Gal), C1-C6                : /2.23142/0.86440/1.80913
ACEL. MAX., C1-C6, EN LA MUESTRA       :
ACEL. MAX. (Gal), C7-C12               :
ACEL. MAX., C7-C12, EN LA MUESTRA      :
UNIDADES DE LOS DATOS                  : Gal (cm/s/s)
FACTOR DE DECIMACION                   : 1
FORMATO DATOS (FORTRAN,10 campos/dato) : 3F10.5


================================================================================
CALIDAD DEL ACELEROGRAMA:
REGISTRO DIGITAL COMPLETO, CARECE DE TIEMPO ABSOLUTO.


================================================================================
COMENTARIOS:














================================================================================
DATOS DE ACELERACION:
---------+---------+---------+---------+---------+---------+---------+---------+
   CANAL-1   CANAL-2   CANAL-3   CANAL-4   CANAL-5   CANAL-6   CANAL-7   CANAL-8
      N00E        +V      N90E
---------+---------+---------+---------+---------+---------+---------+---------+
[...]
  -0.80142  -0.14440   0.58087
  -0.80142  -0.14440   0.58087
  -0.80142  -0.14440   0.58087
  -0.80142   0.09560   0.58087
  -0.80142   0.09560   0.58087
  -0.80142   0.09560   0.58087
  -0.80142   0.09560   0.58087
  -0.80142   0.09560   0.34087
  -0.80142   0.09560   0.58087
  -0.80142   0.09560   0.34087
  -0.56142   0.09560   0.58087
  -0.56142  -0.14440   0.34087
  -0.56142   0.09560   0.34087
  -0.56142   0.09560   0.34087
  -0.56142   0.09560   0.34087
  -0.56142   0.09560   0.34087
  -0.32142   0.09560   0.11087
  -0.56142  -0.14440   0.34087
  -0.32142   0.09560   0.34087
  -0.32142   0.09560   0.34087
  -0.32142   0.09560   0.34087
  -0.32142  -0.38440   0.11087
  -0.08142   0.09560   0.11087
  -0.08142   0.09560   0.11087
  -0.08142   0.09560   0.11087
  -0.08142   0.09560   0.11087
  -0.08142   0.09560   0.34087
  -0.08142   0.09560   0.11087
   0.15858  -0.14440   0.11087
   0.15858   0.09560   0.11087
   0.15858  -0.14440   0.11087
   0.15858  -0.14440   0.11087
   0.15858  -0.14440   0.11087
   0.15858  -0.14440   0.11087
   0.15858  -0.14440  -0.12913
  -0.08142  -0.14440   0.11087
   0.15858  -0.14440   0.11087
   0.15858  -0.14440  -0.12913
   0.15858  -0.14440  -0.12913
   0.15858  -0.14440  -0.12913
   0.15858  -0.38440  -0.12913
   0.15858  -0.14440  -0.12913
   0.15858  -0.14440  -0.12913
   0.15858  -0.14440  -0.12913
   0.15858  -0.14440  -0.12913
   0.15858  -0.38440  -0.12913
   0.15858  -0.38440  -0.12913
   0.15858  -0.38440  -0.12913
   0.15858  -0.38440  -0.12913
   0.15858  -0.38440  -0.12913
  -0.08142  -0.38440  -0.12913
   0.15858  -0.38440  -0.12913
  -0.08142  -0.38440  -0.12913
  -0.08142  -0.14440  -0.12913
  -0.08142  -0.38440  -0.12913
  -0.08142  -0.14440  -0.12913
  -0.08142  -0.14440  -0.12913
  -0.08142  -0.14440  -0.12913
  -0.08142  -0.14440  -0.12913
  -0.08142  -0.14440  -0.12913
  -0.08142   0.09560  -0.12913
  -0.08142  -0.14440  -0.12913
  -0.08142  -0.14440  -0.12913
  -0.08142   0.09560   0.11087
  -0.08142   0.09560   0.11087
  -0.08142   0.09560   0.11087
  -0.08142   0.09560   0.11087
  -0.08142   0.09560  -0.12913
  -0.08142   0.09560   0.11087
  -0.08142   0.09560   0.11087
  -0.32142   0.09560  -0.12913
  -0.32142   0.09560   0.11087
  -0.32142   0.33560   0.11087
  -0.32142   0.33560   0.11087
  -0.32142   0.33560   0.11087
  -0.32142   0.57560   0.11087
  -0.32142   0.57560   0.11087
  -0.32142   0.57560   0.11087
  -0.32142   0.57560   0.11087
  -0.32142   0.57560   0.11087
  -0.32142   0.57560   0.11087
  -0.32142   0.57560   0.11087
  -0.32142   0.33560   0.11087
  -0.32142   0.57560   0.34087
  -0.32142   0.33560   0.11087
  -0.32142   0.33560   0.11087
  -0.32142   0.33560   0.11087
  -0.32142   0.33560   0.34087
  -0.32142   0.57560   0.34087
  -0.32142   0.57560   0.11087
  -0.32142   0.57560   0.11087
  -0.32142   0.57560   0.11087
  -0.32142   0.57560  -0.12913
  -0.32142   0.81560   0.11087
  -0.32142   0.57560   0.11087
  -0.56142   0.57560   0.11087
  -0.56142   0.57560   0.11087
  -0.56142   0.57560   0.11087
  -0.56142   0.57560   0.11087
  -0.56142   0.57560   0.11087
  -0.56142   0.57560   0.11087
  -0.56142   0.57560   0.11087
  -0.56142   0.33560   0.11087
  -0.56142   0.33560   0.11087
  -0.56142   0.33560  -0.12913
  -0.80142   0.33560   0.11087
  -0.80142   0.09560   0.11087
  -0.80142   0.33560   0.11087
  -0.80142   0.09560   0.11087
  -0.80142   0.33560   0.11087
  -0.80142   0.33560   0.11087
  -0.80142   0.33560   0.11087
  -0.80142   0.33560   0.11087
  -0.80142   0.33560   0.11087
  -1.03142   0.33560   0.11087
  -1.03142   0.33560   0.11087
  -1.03142   0.33560   0.11087
  -1.03142   0.33560   0.11087
  -1.03142   0.33560   0.11087
  -1.27142   0.09560   0.11087
  -1.03142   0.33560   0.11087
  -1.27142   0.33560  -0.12913
  -1.27142   0.09560  -0.12913
  -1.51142   0.09560   0.11087
  -1.27142   0.09560   0.11087
  -1.27142   0.09560   0.11087
  -1.03142   0.09560   0.11087
  -1.03142   0.09560   0.11087
  -1.03142   0.09560   0.11087
  -1.03142   0.09560   0.11087
  -1.03142   0.09560   0.34087
  -1.03142   0.09560   0.11087
  -1.03142   0.33560   0.11087
  -1.03142   0.33560   0.11087
  -1.03142   0.33560   0.11087
  -1.03142   0.33560   0.11087
  -1.03142   0.33560  -0.12913
  -1.03142   0.09560  -0.12913
  -1.03142   0.09560  -0.12913
  -1.03142   0.09560  -0.12913
  -1.03142  -0.14440  -0.12913
  -0.80142  -0.14440  -0.12913
  -0.80142  -0.38440   0.11087
  -0.56142  -0.14440   0.11087
  -0.56142  -0.14440   0.11087
  -0.56142  -0.38440   0.11087
  -0.56142  -0.14440   0.11087
  -0.32142  -0.14440   0.11087
  -0.32142  -0.14440  -0.12913
  -0.32142  -0.14440  -0.12913
  -0.32142  -0.14440  -0.12913
  -0.32142  -0.14440  -0.12913
  -0.08142  -0.14440  -0.12913
  -0.08142  -0.14440  -0.12913
  -0.08142  -0.14440  -0.12913
  -0.08142  -0.14440  -0.12913
  -0.08142  -0.14440  -0.12913
   0.15858  -0.14440  -0.12913
   0.15858  -0.14440  -0.12913
   0.15858  -0.14440  -0.12913
   0.39858  -0.14440  -0.12913
   0.39858  -0.14440  -0.12913
   0.39858  -0.38440  -0.12913
   0.39858  -0.14440  -0.12913
   0.39858  -0.14440  -0.36913
   0.63858  -0.14440  -0.36913
   0.63858  -0.38440  -0.36913
   0.63858  -0.38440  -0.36913
   0.63858  -0.38440  -0.36913
   0.87858  -0.38440  -0.36913
   0.87858  -0.38440  -0.36913
   0.87858  -0.38440  -0.36913
   0.87858  -0.38440  -0.36913
   0.87858  -0.38440  -0.36913
   0.87858  -0.38440  -0.36913
   0.87858  -0.38440  -0.12913
   0.87858  -0.38440  -0.12913
   0.87858  -0.38440  -0.12913
   1.11858  -0.14440  -0.12913
   1.11858  -0.14440  -0.12913
   1.11858  -0.14440  -0.12913
   1.11858  -0.14440  -0.12913
   1.11858  -0.14440  -0.12913
   1.11858  -0.14440  -0.12913
   1.35858  -0.38440  -0.12913
   1.35858  -0.14440  -0.12913
   1.11858  -0.38440  -0.12913
   1.11858  -0.14440  -0.12913
   1.35858  -0.14440  -0.12913
   1.35858  -0.14440  -0.12913
   1.35858  -0.14440  -0.12913
   1.35858  -0.14440  -0.12913
   1.35858  -0.14440  -0.12913
   1.35858  -0.14440   0.11087
   1.35858  -0.14440  -0.12913
   1.35858  -0.14440   0.11087
   1.35858  -0.14440   0.11087
   1.35858  -0.14440   0.11087
   1.35858  -0.14440   0.11087
   1.35858  -0.14440   0.11087
   1.35858  -0.14440   0.11087
   1.35858  -0.14440   0.11087
   1.11858  -0.14440   0.11087
   1.35858  -0.14440   0.11087
   1.11858   0.09560   0.11087
   1.11858   0.09560   0.11087
   1.11858   0.09560   0.11087
   1.11858   0.09560   0.11087
   1.11858   0.09560   0.11087
   1.11858   0.09560   0.11087
   1.11858   0.09560   0.11087
   1.11858   0.09560   0.11087
   1.11858  -0.14440   0.11087
   1.11858   0.09560   0.11087
   1.11858   0.09560   0.34087
   1.11858   0.09560   0.34087
   1.11858   0.09560   0.11087
   0.87858  -0.14440   0.34087
   0.87858   0.09560   0.34087
   0.87858   0.09560   0.34087
   0.87858   0.09560   0.11087
   0.87858  -0.14440   0.11087
   0.87858  -0.14440   0.11087
   0.87858   0.09560   0.11087
   0.87858  -0.14440   0.11087
   0.87858  -0.14440   0.11087
   0.87858  -0.14440   0.11087
   0.87858  -0.14440   0.11087
   0.87858   0.09560   0.11087
   0.87858   0.09560   0.11087
   0.87858  -0.14440   0.34087
   0.87858  -0.14440   0.11087
   0.87858  -0.14440   0.11087
   0.87858  -0.14440   0.11087
   0.87858  -0.14440   0.11087
   0.87858  -0.14440   0.11087
   0.87858  -0.14440   0.11087
   0.87858  -0.38440   0.11087
   0.87858  -0.38440   0.11087
   0.87858  -0.38440   0.11087
   0.87858  -0.38440   0.34087
   0.87858  -0.38440   0.34087
   0.87858  -0.38440   0.34087
   0.87858  -0.38440   0.34087
   0.87858  -0.38440   0.11087
   0.87858  -0.38440   0.34087
   0.87858  -0.38440   0.11087
   0.87858  -0.38440   0.11087
   0.87858  -0.38440   0.11087
   0.87858  -0.38440   0.11087
   0.87858  -0.38440   0.34087
   0.87858  -0.62440   0.11087
   0.87858  -0.38440   0.11087
   0.87858  -0.38440   0.11087
   0.87858  -0.38440   0.34087
   0.87858  -0.38440   0.11087
   0.87858  -0.38440   0.34087
   0.87858  -0.38440   0.34087
   0.87858  -0.38440   0.34087
   0.87858  -0.38440   0.34087
   0.87858  -0.38440   0.34087
   0.63858  -0.38440   0.34087
   0.63858  -0.38440   0.34087
   0.63858  -0.14440   0.58087
   0.63858  -0.14440   0.34087
   0.63858  -0.14440   0.34087
   0.63858  -0.14440   0.34087
   0.63858  -0.14440   0.34087
   0.63858  -0.14440   0.34087
   0.39858  -0.14440   0.34087
   0.39858  -0.14440   0.34087
   0.39858  -0.14440   0.34087
   0.39858  -0.14440   0.34087
   0.39858   0.09560   0.34087
   0.39858   0.09560   0.34087
   0.39858   0.09560   0.34087
   0.39858   0.09560   0.58087
   0.39858   0.09560   0.34087
   0.39858   0.33560   0.58087
   0.39858   0.33560   0.34087
   0.15858   0.33560   0.34087
   0.15858   0.09560   0.34087
   0.15858   0.57560   0.34087
   0.15858   0.57560   0.34087
   0.15858   0.33560   0.34087
   0.39858   0.33560   0.34087
   0.39858   0.33560   0.34087
   0.15858   0.33560   0.34087
   0.39858   0.57560   0.58087
   0.15858   0.57560   0.58087
   0.15858   0.57560   0.58087
   0.15858   0.57560   0.58087
   0.15858   0.57560   0.34087
   0.15858   0.57560   0.34087
   0.15858   0.57560   0.34087
   0.15858   0.57560   0.34087
   0.15858   0.57560   0.11087
   0.15858   0.57560   0.11087
   0.15858   0.57560   0.11087
   0.15858   0.57560   0.11087
   0.15858   0.57560   0.11087
   0.15858   0.57560   0.11087
   0.15858   0.81560   0.11087
   0.15858   0.81560   0.34087
   0.15858   0.81560   0.11087
   0.15858   0.81560   0.34087
   0.15858   0.81560   0.11087
  -0.08142   0.57560   0.11087
  -0.08142   0.57560   0.11087
  -0.08142   0.57560  -0.12913
  -0.08142   0.57560   0.11087
  -0.08142   0.57560  -0.12913
  -0.08142   0.33560  -0.12913
  -0.08142   0.33560  -0.12913
  -0.08142   0.33560  -0.12913
  -0.08142   0.33560  -0.12913
  -0.08142   0.33560  -0.12913
  -0.08142   0.33560  -0.12913
  -0.32142   0.33560  -0.12913
  -0.32142   0.33560  -0.12913
  -0.32142   0.33560  -0.36913
  -0.56142   0.33560  -0.36913
  -0.56142   0.33560  -0.36913
  -0.56142   0.33560  -0.36913
  -0.80142   0.33560  -0.36913
  -0.80142   0.33560  -0.60913
  -0.80142   0.09560  -0.36913
  -1.03142   0.09560  -0.36913
  -1.03142   0.09560  -0.36913
  -1.03142   0.09560  -0.36913
  -1.03142   0.09560  -0.36913
  -1.27142  -0.14440  -0.36913
  -1.27142  -0.14440  -0.36913
  -1.27142  -0.14440  -0.36913
  -1.27142  -0.14440  -0.36913
  -1.27142  -0.14440  -0.36913
  -1.51142  -0.14440  -0.36913
  -1.51142  -0.14440  -0.60913
  -1.51142  -0.38440  -0.60913
  -1.51142  -0.38440  -0.60913
  -1.51142  -0.38440  -0.60913
  -1.75142  -0.38440  -0.60913
  -1.51142  -0.38440  -0.60913
  -1.75142  -0.38440  -0.60913
  -1.75142  -0.38440  -0.60913
  -1.99142  -0.14440  -0.60913
  -1.99142  -0.38440  -0.60913
  -1.99142  -0.14440  -0.60913
  -1.99142  -0.14440  -0.60913
  -1.99142  -0.38440  -0.60913
  -2.23142  -0.38440  -0.60913
  -2.23142  -0.38440  -0.60913
  -2.23142  -0.38440  -0.60913
  -2.23142  -0.38440  -0.60913
  -2.23142  -0.38440  -0.84913
  -2.23142  -0.38440  -0.84913
  -2.23142  -0.38440  -0.84913
  -2.23142  -0.38440  -0.84913
  -2.23142  -0.62440  -0.84913
  -2.23142  -0.38440  -0.84913
  -2.23142  -0.38440  -0.84913
  -2.23142  -0.38440  -0.84913
  -2.23142  -0.38440  -0.84913
  -2.23142  -0.38440  -0.84913
  -2.23142  -0.38440  -0.84913
  -2.23142  -0.38440  -0.60913
  -1.99142  -0.38440  -0.84913
  -1.99142  -0.38440  -0.84913
  -1.99142  -0.38440  -0.84913
  -1.99142  -0.38440  -0.84913
  -1.99142  -0.38440  -0.84913
  -1.99142  -0.14440  -0.84913
  -1.99142  -0.14440  -0.84913
  -1.75142  -0.14440  -0.84913
  -1.99142  -0.14440  -1.08913
  -1.75142  -0.14440  -0.84913
  -1.75142  -0.14440  -1.08913
  -1.51142  -0.14440  -0.84913
  -1.51142  -0.14440  -0.84913
  -1.51142  -0.14440  -0.84913
  -1.51142   0.09560  -0.84913
  -1.27142   0.09560  -0.84913
  -1.27142   0.09560  -0.84913
  -1.27142   0.09560  -0.84913
  -1.27142   0.09560  -0.84913
  -1.03142   0.09560  -0.84913
  -1.03142  -0.14440  -0.84913
  -1.03142   0.09560  -0.84913
  -1.03142  -0.14440  -0.84913
  -0.80142  -0.14440  -0.84913
  -0.80142  -0.14440  -0.84913
  -0.80142   0.09560  -0.84913
  -0.56142  -0.14440  -0.84913
  -0.56142  -0.14440  -0.60913
  -0.56142  -0.14440  -0.60913
  -0.56142  -0.14440  -0.60913
  -0.32142  -0.38440  -0.36913
  -0.32142  -0.38440  -0.36913
  -0.32142  -0.38440  -0.36913
  -0.32142  -0.38440  -0.36913
  -0.32142  -0.38440  -0.36913
  -0.32142  -0.38440  -0.36913
  -0.08142  -0.38440  -0.36913
  -0.08142  -0.38440  -0.36913
  -0.08142  -0.38440  -0.12913
  -0.08142  -0.38440  -0.12913
  -0.08142  -0.38440  -0.12913
  -0.08142  -0.38440  -0.12913
   0.15858  -0.38440   0.11087
   0.15858  -0.38440   0.11087
   0.15858  -0.38440   0.11087
   0.15858  -0.38440   0.11087
   0.15858  -0.38440   0.34087
  -0.08142  -0.38440   0.34087
   0.15858  -0.38440   0.34087
   0.15858  -0.38440   0.34087
   0.39858  -0.14440   0.34087
   0.39858  -0.38440   0.58087
   0.39858  -0.14440   0.58087
   0.39858  -0.14440   0.58087
   0.39858  -0.14440   0.58087
   0.39858  -0.14440   0.58087
   0.39858  -0.14440   0.58087
   0.39858  -0.14440   0.82087
   0.39858   0.09560   0.82087
   0.15858   0.09560   0.82087
   0.39858   0.09560   0.82087
   0.39858  -0.14440   0.82087
   0.39858   0.09560   0.82087
   0.39858   0.09560   0.82087
   0.39858   0.09560   0.82087
   0.39858   0.09560   1.06087
   0.39858   0.09560   1.06087
   0.39858   0.09560   1.06087
   0.15858   0.09560   1.06087
   0.39858   0.09560   1.06087
   0.15858   0.09560   1.06087
   0.15858   0.09560   1.06087
   0.15858   0.09560   1.06087
   0.15858   0.09560   0.82087
   0.39858   0.09560   0.82087
   0.39858   0.09560   0.82087
   0.39858   0.09560   0.82087
   0.39858   0.09560   0.82087
   0.15858   0.09560   0.82087
   0.39858   0.09560   1.06087
   0.39858   0.33560   1.06087
   0.15858   0.33560   1.06087
   0.39858   0.33560   1.06087
   0.15858   0.33560   1.06087
   0.15858   0.33560   1.06087
   0.15858   0.33560   0.82087
   0.15858   0.33560   0.82087
   0.15858   0.33560   0.82087
   0.15858   0.09560   0.82087
   0.15858   0.33560   0.82087
   0.15858   0.33560   0.82087
   0.15858   0.33560   0.82087
   0.15858   0.33560   0.82087
   0.15858   0.33560   0.82087
   0.39858   0.33560   0.82087
   0.39858   0.33560   0.82087
   0.39858   0.33560   0.82087
   0.39858   0.33560   0.82087
   0.39858   0.33560   0.58087
   0.39858   0.33560   0.58087
   0.39858   0.33560   0.58087
   0.39858   0.33560   0.58087
   0.15858   0.33560   0.58087
   0.15858   0.33560   0.58087
   0.15858   0.09560   0.34087
   0.15858   0.09560   0.34087
   0.15858   0.09560   0.34087
   0.15858   0.09560   0.34087
   0.15858   0.09560   0.34087
   0.15858   0.09560   0.34087
   0.15858   0.09560   0.34087
   0.39858   0.09560   0.34087
   0.39858   0.09560   0.34087
   0.39858   0.09560   0.34087
   0.39858   0.09560   0.34087
   0.39858   0.09560   0.11087
   0.39858   0.09560   0.11087
   0.15858   0.09560   0.11087
   0.15858   0.09560   0.11087
   0.15858   0.09560   0.11087
   0.15858  -0.14440   0.11087
   0.15858  -0.14440   0.11087
   0.15858  -0.38440   0.11087
   0.15858  -0.38440   0.11087
   0.15858  -0.38440   0.11087
   0.39858  -0.38440   0.11087
   0.39858  -0.62440   0.11087
   0.63858  -0.14440   0.11087
   0.39858  -0.14440   0.11087
   0.63858  -0.14440   0.11087
   0.63858  -0.14440  -0.12913
   0.63858  -0.14440   0.11087
   0.63858   0.09560   0.11087
   0.39858  -0.14440   0.11087
   0.39858  -0.14440   0.11087
