********************************************************************************
               CENTRO DE INSTRUMENTACION Y REGISTRO SISMICO  A.C.  
                       Coordinacion de Servicios Tecnicos
     Anaxagoras 814, Col. Narvarte, Benito Juarez, C.P. 03020 Mexico, D.F.
            Tels. 667 45 42/ 687 45  82             Fax. 669 25 12
********************************************************************************
ARCHIVO ESTANDAR DE ACELERACION:
VERSION DEL FORMATO                    : 2.0
NOMBRE DEL ARCHIVO                     : AL010406.141
FECHA Y HORA DE CREACION               : 01/OCT/04, 12:10
REF. CATALOGO ACELEROGRAMAS, SMIS 1996 : REGISTRO No.     /PAG.


================================================================================
DATOS DE LA ESTACION:
NOMBRE DE LA ESTACION                  : ALAMEDA
CLAVE DE LA ESTACION                   : AL01
LOCALIZACION DE LA ESTACION            : JARDIN ALAMEDA ENTRE AV. HIDALGO Y AV.
                                       : JUAREZ, CENTRO
                                       :
                                       :
                                       :
COORDENADAS DE LA ESTACION             : 19.436 LAT. N 
                                       : 99.145 LONG. W 
ALTITUD (msnm)                         : 2232
TIPO DE SUELO                          : TERRENO BLANDO, MATERIAL COMPRESIBLE
                                       : (ARCILLAS)
                                       : 
INSTITUCION RESPONSABLE                : CIRES 
                                       :

================================================================================
DATOS DEL ACELEROGRAFO:
MODELO DEL ACELEROGRAFO                : SSA-1
NUMERO DE SERIE DEL ACELEROGRAFO       : 152
NUMERO DE CANALES                      : 3
ORIENTACION C1-C6 (rumbo;orientacion)  : /N00E/+V/N90E
ORIENTACION C7-C12 (rumbo;orientacion) :
VEL. DE MUESTREO, C1-C6 (muestras/s)   : /200/200/200
VEL. DE MUESTREO, C7-C12 (muestras/s)  :
ESC. COMPLETA DE SENSORES, C1-C6, (g)  : /2/2/2
ESC. COMPLETA DE SENSORES, C7-C12, (g) :
FREC. NAT. DE SENSORES, C1-C6, (Hz)    : /51.29/51.09/53.75
FREC. NAT. DE SENSORES, C7-C12, (Hz)   :
AMORTIGUAMIENTO DE SENSORES, C1-C6     : /.5519/.5670/.5810
AMORTIGUAMIENTO DE SENSORES, C7-C12    :
INTERVALO DE MUESTREO, C1-C6, (s)      : /0.005/0.005/0.005
INTERVALO DE MUESTREO, C7-C12, (s)     :
UMBRAL DE DISPARO, C1-C6, (Gal)        : /2/1.5/2
UMBRAL DE DISPARO, C7-C12, (Gal)       :
MEMORIA DE PREEVENTO (s)               : 15
TIEMPO DE POSEVENTO (s)                : 60


================================================================================
DATOS DEL SISMO:
FECHA DEL SISMO (GMT)                  : 21/JUL/00
HORA EPICENTRO (GMT)                   : 06:13:39,7
MAGNITUD(ES)                           : /Mb=5.4/Ms=5.1/Mc=5.4/Ma=5.5/Me=6.0
COORDENADAS DEL EPICENTRO              : 18.09 LAT. N
                                       : 98.97 LONG. W
PROFUNDIDAD FOCAL (km)                 : 48
FUENTE DE LOS DATOS EPICENTRALES       : SSN
                                       : INSTITUTO DE GEOFISICA, UNAM 

================================================================================
DATOS DE ESTE REGISTRO:
HORA DE LA PRIMERA MUESTRA (GMT)       : 22:56:04.00
EXACTITUD DEL TIEMPO (s)               :     
DURACION DEL REGISTRO (s), C1-C6       : /153.60/153.60/153.60
DURACION DEL REGISTRO (s), C7-C12      :
NUM. TOTAL DE MUESTRAS, C1-C6          : /30720/30720/30720
NUM. TOTAL DE MUESTRAS, C7-C12         :
ACEL. MAX. (Gal), C1-C6                : /6.88994/-2.5200/7.13408
ACEL. MAX., C1-C6, EN LA MUESTRA       :
ACEL. MAX. (Gal), C7-C12               :
ACEL. MAX., C7-C12, EN LA MUESTRA      :
UNIDADES DE LOS DATOS                  : Gal (cm/s/s)
FACTOR DE DECIMACION                   : 1
FORMATO DATOS (FORTRAN,10 campos/dato) : 3F10.5


================================================================================
CALIDAD DEL ACELEROGRAMA:
REGISTRO DIGITAL COMPLETO, CARECE DE TIEMPO ABSOLUTO.


================================================================================
COMENTARIOS:














================================================================================
DATOS DE ACELERACION:
---------+---------+---------+---------+---------+---------+---------+---------+
   CANAL-1   CANAL-2   CANAL-3   CANAL-4   CANAL-5   CANAL-6   CANAL-7   CANAL-8
      N00E        +V      N90E
---------+---------+---------+---------+---------+---------+---------+---------+
[...]
   2.81994   0.83000   4.49408
   2.81994   1.07000   4.49408
   3.05994   1.07000   4.49408
   3.05994   0.83000   4.49408
   3.05994   0.83000   4.25408
   3.05994   0.83000   4.25408
   3.29994   0.83000   4.25408
   3.05994   0.83000   4.25408
   3.29994   0.83000   4.25408
   3.29994   0.83000   4.25408
   3.53994   0.83000   4.25408
   3.53994   0.83000   4.01408
   3.53994   0.83000   4.01408
   3.53994   0.59000   3.77408
   3.53994   0.59000   3.77408
   3.77994   0.59000   3.77408
   3.77994   0.59000   3.77408
   3.77994   0.59000   3.53408
   3.77994   0.35000   3.53408
   3.77994   0.35000   3.53408
   3.77994   0.35000   3.53408
   4.01994   0.35000   3.53408
   4.01994   0.11000   3.53408
   4.01994   0.11000   3.29408
   4.01994  -0.13000   3.29408
   4.01994  -0.13000   3.29408
   4.01994  -0.13000   3.29408
   4.01994  -0.13000   3.29408
   4.01994  -0.13000   3.29408
   4.01994  -0.13000   3.29408
   4.01994  -0.13000   3.29408
   4.01994  -0.13000   3.29408
   4.01994  -0.13000   3.29408
   4.01994  -0.13000   3.29408
   4.01994  -0.13000   3.29408
   4.01994   0.11000   3.29408
   4.01994   0.11000   3.29408
   3.77994  -0.13000   3.05408
   4.01994  -0.13000   3.05408
   4.01994  -0.13000   3.05408
   4.01994  -0.13000   3.05408
   3.77994  -0.13000   3.05408
   3.77994  -0.13000   3.29408
   3.77994  -0.37000   3.05408
   3.77994  -0.61000   3.05408
   3.53994  -0.37000   3.05408
   3.53994  -0.37000   3.05408
   3.53994  -0.37000   3.05408
   3.53994  -0.37000   2.81408
   3.29994  -0.37000   2.81408
   3.29994  -0.61000   2.81408
   3.29994  -0.37000   2.57408
   3.29994  -0.37000   2.57408
   3.05994  -0.61000   2.57408
   3.05994  -0.61000   2.34408
   3.05994  -0.61000   2.34408
   3.05994  -0.61000   2.34408
   3.05994  -0.37000   2.10408
   2.81994  -0.37000   1.86408
   2.81994  -0.37000   1.62408
   2.81994  -0.37000   1.62408
   2.81994  -0.37000   1.38408
   2.57994  -0.37000   1.14408
   2.57994  -0.61000   0.90408
   2.57994  -0.61000   0.66408
   2.57994  -0.61000   0.66408
   2.33994  -0.61000   0.42408
   2.33994  -0.61000   0.18408
   2.33994  -0.61000  -0.05592
   2.33994  -0.61000  -0.29592
   2.09994  -1.09000  -0.29592
   2.09994  -0.61000  -0.53592
   2.09994  -0.61000  -0.53592
   1.85994  -0.85000  -0.77592
   1.85994  -0.61000  -1.01592
   1.85994  -0.61000  -1.25592
   1.61994  -0.85000  -1.49592
   1.61994  -0.85000  -1.73592
   1.38994  -0.61000  -1.97592
   1.38994  -0.61000  -1.97592
   1.14994  -0.61000  -2.21592
   1.14994  -0.61000  -2.45592
   0.90994  -0.61000  -2.68592
   0.90994  -0.61000  -2.68592
   0.66994  -0.61000  -2.92592
   0.66994  -0.61000  -3.16592
   0.42994  -0.37000  -3.16592
   0.42994  -0.37000  -3.16592
   0.18994  -0.37000  -3.40592
   0.18994  -0.37000  -3.40592
  -0.05006  -0.37000  -3.40592
  -0.29006  -0.37000  -3.64592
  -0.29006  -0.37000  -3.64592
  -0.53006  -0.37000  -3.64592
  -0.77006  -0.37000  -3.64592
  -1.01006  -0.13000  -3.64592
  -1.01006  -0.13000  -3.64592
  -1.25006  -0.13000  -3.40592
  -1.25006  -0.13000  -3.40592
  -1.25006  -0.13000  -3.40592
  -1.49006  -0.13000  -3.40592
  -1.73006  -0.13000  -3.40592
  -1.73006   0.11000  -3.40592
  -1.97006   0.11000  -3.16592
  -2.21006   0.35000  -3.16592
  -2.21006   0.35000  -3.16592
  -2.45006   0.59000  -2.92592
  -2.69006   0.59000  -2.92592
  -2.69006   0.59000  -2.92592
  -2.93006   0.59000  -2.92592
  -2.93006   0.59000  -2.68592
  -3.17006   0.59000  -2.68592
  -3.41006   0.59000  -2.68592
  -3.41006   0.59000  -2.45592
  -3.64006   0.83000  -2.45592
  -3.64006   0.83000  -2.45592
  -3.88006   0.83000  -2.21592
  -3.88006   0.83000  -2.21592
  -4.12006   1.07000  -1.97592
  -4.12006   1.07000  -1.97592
  -4.36006   1.07000  -1.97592
  -4.36006   1.07000  -1.73592
  -4.36006   1.31000  -1.73592
  -4.60006   1.31000  -1.73592
  -4.60006   1.31000  -1.73592
  -4.60006   1.31000  -1.73592
  -4.60006   1.31000  -1.73592
  -4.60006   1.31000  -1.73592
  -4.60006   1.31000  -1.49592
  -4.60006   1.31000  -1.73592
  -4.60006   1.31000  -1.73592
  -4.60006   1.31000  -1.49592
  -4.60006   1.31000  -1.49592
  -4.60006   1.31000  -1.49592
  -4.36006   1.31000  -1.73592
  -4.36006   1.31000  -1.73592
  -4.36006   1.07000  -1.73592
  -4.36006   1.31000  -1.73592
  -4.12006   1.07000  -1.97592
  -4.12006   1.07000  -1.97592
  -4.12006   1.07000  -1.97592
  -3.88006   0.83000  -2.21592
  -3.88006   0.83000  -2.21592
  -3.64006   0.83000  -2.45592
  -3.64006   0.59000  -2.45592
  -3.41006   0.59000  -2.68592
  -3.41006   0.59000  -2.68592
  -3.17006   0.35000  -2.68592
  -2.93006   0.35000  -2.92592
  -2.93006   0.35000  -2.92592
  -2.69006   0.35000  -2.92592
  -2.69006   0.35000  -3.16592
  -2.45006   0.35000  -3.16592
  -2.21006   0.35000  -3.16592
  -2.21006   0.11000  -3.40592
  -2.21006   0.11000  -3.40592
  -1.97006   0.11000  -3.64592
  -1.97006   0.11000  -3.64592
  -1.73006   0.11000  -3.88592
  -1.73006  -0.13000  -3.88592
  -1.73006  -0.13000  -3.88592
  -1.49006  -0.13000  -4.12592
  -1.25006  -0.13000  -4.12592
  -1.25006  -0.13000  -4.12592
  -1.25006  -0.13000  -4.12592
  -1.01006  -0.37000  -4.36592
  -1.01006  -0.37000  -4.36592
  -0.77006  -0.37000  -4.36592
  -0.77006  -0.37000  -4.36592
  -0.77006  -0.37000  -4.60592
  -0.77006  -0.37000  -4.36592
  -0.77006  -0.61000  -4.36592
  -0.77006  -0.61000  -4.60592
  -0.77006  -0.37000  -4.60592
  -0.77006  -0.61000  -4.60592
  -0.77006  -0.61000  -4.60592
  -0.53006  -0.61000  -4.36592
  -0.53006  -0.61000  -4.36592
  -0.53006  -0.61000  -4.36592
  -0.53006  -0.61000  -4.36592
  -0.53006  -0.37000  -4.36592
  -0.53006  -0.61000  -4.12592
  -0.53006  -0.37000  -4.12592
  -0.29006  -0.37000  -4.12592
  -0.53006  -0.37000  -4.12592
  -0.53006  -0.37000  -4.12592
  -0.53006  -0.37000  -3.88592
  -0.53006  -0.37000  -3.88592
  -0.53006  -0.61000  -3.64592
  -0.77006  -0.13000  -3.64592
  -0.77006  -0.13000  -3.64592
  -0.77006  -0.13000  -3.40592
  -0.77006  -0.13000  -3.40592
  -0.77006  -0.13000  -3.16592
  -0.77006  -0.13000  -3.16592
  -1.01006  -0.13000  -3.16592
  -1.01006  -0.13000  -2.92592
  -1.01006  -0.13000  -2.92592
  -1.01006  -0.13000  -2.68592
  -1.01006   0.11000  -2.68592
  -1.01006   0.11000  -2.68592
  -1.01006   0.11000  -2.45592
  -1.01006   0.35000  -2.45592
  -0.77006   0.35000  -2.45592
  -0.77006   0.35000  -2.45592
  -0.77006   0.35000  -2.45592
  -0.77006   0.35000  -2.45592
  -0.77006   0.35000  -2.45592
  -0.53006   0.35000  -2.45592
  -0.53006   0.35000  -2.45592
  -0.53006   0.35000  -2.21592
  -0.29006   0.35000  -2.45592
  -0.29006   0.35000  -2.45592
  -0.05006   0.35000  -2.45592
  -0.05006   0.35000  -2.45592
  -0.05006   0.35000  -2.45592
   0.18994   0.35000  -2.45592
   0.18994   0.35000  -2.45592
   0.42994   0.35000  -2.45592
   0.42994   0.35000  -2.45592
   0.42994   0.35000  -2.45592
   0.66994   0.11000  -2.45592
   0.66994   0.11000  -2.45592
   0.90994   0.11000  -2.45592
   1.14994   0.11000  -2.68592
   1.14994   0.11000  -2.45592
   1.38994   0.11000  -2.45592
   1.38994  -0.13000  -2.68592
   1.61994  -0.13000  -2.45592
   1.61994  -0.13000  -2.45592
   1.85994  -0.13000  -2.68592
   1.85994  -0.13000  -2.68592
   2.09994  -0.13000  -2.68592
   2.09994  -0.13000  -2.45592
   2.33994  -0.13000  -2.68592
   2.33994  -0.13000  -2.68592
   2.33994  -0.13000  -2.45592
   2.57994   0.11000  -2.68592
   2.57994  -0.13000  -2.45592
   2.57994  -0.13000  -2.68592
   2.57994  -0.13000  -2.68592
   2.57994  -0.13000  -2.45592
   2.57994  -0.13000  -2.45592
   2.57994  -0.13000  -2.45592
   2.57994  -0.13000  -2.45592
   2.57994  -0.13000  -2.45592
   2.57994  -0.13000  -2.21592
   2.57994  -0.13000  -2.21592
   2.57994  -0.13000  -2.21592
   2.57994  -0.13000  -2.21592
   2.33994   0.11000  -1.97592
   2.33994   0.11000  -1.97592
   2.33994   0.11000  -1.73592
   2.33994   0.35000  -1.73592
   2.33994   0.11000  -1.73592
   2.09994   0.35000  -1.49592
   2.09994   0.35000  -1.49592
   1.85994   0.59000  -1.49592
   1.85994   0.59000  -1.25592
   1.61994   0.59000  -1.25592
   1.61994   0.59000  -1.01592
   1.61994   0.59000  -1.01592
   1.38994   0.59000  -1.01592
   1.38994   0.59000  -1.01592
   1.14994   0.59000  -0.77592
   1.14994   0.59000  -0.53592
   0.90994   0.59000  -0.53592
   0.90994   0.59000  -0.53592
   0.66994   0.83000  -0.29592
   0.66994   0.83000  -0.29592
   0.42994   0.83000  -0.29592
   0.42994   0.83000  -0.05592
   0.18994   0.59000  -0.05592
   0.18994   0.59000  -0.05592
   0.18994   0.59000   0.18408
  -0.05006   0.59000   0.18408
  -0.29006   0.59000   0.18408
  -0.05006   0.59000   0.42408
  -0.29006   0.59000   0.42408
  -0.29006   0.59000   0.42408
  -0.29006   0.59000   0.66408
  -0.29006   0.59000   0.66408
  -0.53006   0.59000   0.66408
  -0.29006   0.59000   0.90408
  -0.29006   0.59000   0.90408
  -0.29006   0.35000   0.90408
  -0.29006   0.35000   1.14408
  -0.29006   0.35000   1.14408
  -0.29006   0.35000   1.14408
  -0.29006   0.35000   1.14408
  -0.29006   0.35000   1.38408
  -0.29006   0.35000   1.38408
  -0.29006   0.11000   1.38408
  -0.29006   0.11000   1.38408
  -0.29006   0.11000   1.62408
  -0.29006   0.11000   1.62408
  -0.53006   0.11000   1.62408
  -0.53006   0.11000   1.62408
  -0.53006  -0.13000   1.62408
  -0.53006   0.11000   1.86408
  -0.53006  -0.13000   1.86408
  -0.53006   0.11000   1.86408
  -0.53006   0.11000   1.86408
  -0.53006  -0.13000   1.86408
  -0.53006  -0.13000   1.86408
  -0.53006  -0.13000   2.10408
  -0.77006  -0.13000   2.10408
  -0.77006  -0.13000   2.10408
  -0.77006  -0.37000   2.10408
  -0.77006  -0.37000   2.10408
  -0.77006  -0.37000   2.10408
  -1.01006  -0.37000   2.10408
  -1.01006  -0.37000   2.34408
  -1.01006  -0.37000   2.34408
  -1.01006  -0.37000   2.57408
  -1.01006  -0.37000   2.57408
  -1.25006  -0.37000   2.57408
  -1.25006  -0.37000   2.81408
  -1.25006  -0.37000   2.81408
  -1.25006  -0.37000   3.05408
  -1.25006  -0.37000   3.05408
  -1.25006  -0.13000   3.29408
  -1.25006  -0.13000   3.53408
  -1.49006  -0.37000   3.53408
  -1.25006  -0.13000   3.77408
  -1.25006  -0.13000   4.01408
  -1.49006  -0.13000   4.01408
  -1.49006  -0.37000   4.25408
  -1.49006  -0.37000   4.49408
  -1.49006  -0.37000   4.49408
  -1.49006  -0.37000   4.73408
  -1.49006  -0.37000   4.97408
  -1.49006  -0.37000   4.97408
  -1.49006  -0.61000   5.21408
  -1.25006  -0.37000   5.45408
  -1.25006  -0.13000   5.69408
  -1.25006  -0.13000   5.93408
  -1.25006  -0.13000   5.93408
  -1.25006  -0.13000   6.17408
  -1.25006  -0.13000   6.41408
  -1.25006  -0.13000   6.41408
  -1.25006   0.11000   6.41408
  -1.25006  -0.13000   6.65408
  -1.25006  -0.13000   6.65408
  -1.25006  -0.13000   6.89408
  -1.25006  -0.13000   6.89408
  -1.25006  -0.13000   6.89408
  -1.25006  -0.37000   6.89408
  -1.25006  -0.37000   6.89408
  -1.25006  -0.37000   7.13408
  -1.25006  -0.37000   7.13408
  -1.25006  -0.61000   7.13408
  -1.25006  -0.61000   7.13408
  -1.25006  -0.61000   7.13408
  -1.25006  -0.61000   7.13408
  -1.25006  -0.61000   7.13408
  -1.25006  -0.61000   7.13408
  -1.25006  -0.61000   6.89408
  -1.25006  -0.61000   6.89408
  -1.25006  -0.61000   6.89408
  -1.25006  -0.61000   6.65408
  -1.25006  -0.61000   6.65408
  -1.25006  -0.61000   6.65408
  -1.25006  -0.85000   6.65408
  -1.25006  -0.85000   6.41408
  -1.25006  -1.09000   6.17408
  -1.25006  -1.09000   6.17408
  -1.49006  -1.09000   5.93408
  -1.49006  -1.09000   5.93408
  -1.25006  -1.09000   5.93408
  -1.25006  -1.09000   5.69408
  -1.25006  -1.09000   5.69408
  -1.25006  -1.09000   5.45408
  -1.25006  -1.09000   5.45408
  -1.25006  -1.09000   5.21408
  -1.25006  -1.09000   5.21408
  -1.25006  -1.09000   4.97408
  -1.25006  -1.09000   4.97408
  -1.25006  -1.09000   4.97408
  -1.25006  -1.09000   4.73408
  -1.25006  -0.85000   4.73408
  -1.25006  -0.85000   4.49408
  -1.25006  -0.85000   4.49408
  -1.25006  -0.85000   4.49408
  -1.25006  -0.85000   4.49408
  -1.25006  -0.85000   4.49408
  -1.25006  -0.85000   4.49408
  -1.01006  -0.85000   4.25408
  -1.25006  -0.61000   4.49408
  -1.01006  -0.61000   4.49408
  -1.01006  -0.61000   4.25408
  -1.01006  -0.61000   4.49408
  -0.77006  -0.61000   4.49408
  -0.77006  -0.61000   4.49408
  -0.77006  -0.37000   4.49408
  -0.77006  -0.37000   4.73408
  -0.53006  -0.61000   4.73408
  -0.53006  -0.37000   4.73408
  -0.53006  -0.13000   4.73408
  -0.29006  -0.13000   4.97408
  -0.29006  -0.13000   4.97408
  -0.29006  -0.13000   4.97408
  -0.05006   0.11000   4.97408
  -0.05006   0.11000   4.97408
  -0.05006   0.11000   4.97408
   0.18994   0.11000   5.21408
   0.18994   0.11000   5.21408
   0.18994   0.35000   5.21408
   0.18994   0.35000   5.21408
   0.18994   0.35000   5.21408
   0.18994   0.35000   5.21408
   0.18994   0.35000   5.21408
   0.42994   0.35000   5.21408
   0.42994   0.35000   5.21408
   0.42994   0.35000   5.21408
   0.66994   0.35000   4.97408
   0.66994   0.35000   4.97408
   0.66994   0.35000   4.73408
   0.66994   0.35000   4.73408
   0.66994   0.59000   4.73408
   0.66994   0.59000   4.49408
   0.90994   0.35000   4.25408
   0.90994   0.59000   4.01408
   0.90994   0.35000   3.77408
   0.90994   0.59000   3.77408
   1.14994   0.35000   3.53408
   1.14994   0.35000   3.29408
   1.14994   0.59000   3.05408
   1.14994   0.35000   2.81408
   1.38994   0.35000   2.81408
   1.38994   0.35000   2.57408
   1.38994   0.59000   2.10408
   1.61994   0.59000   2.10408
   1.61994   0.35000   1.86408
   1.61994   0.35000   1.62408
   1.61994   0.35000   1.38408
   1.85994   0.35000   1.14408
   1.85994   0.35000   0.90408
   1.61994   0.35000   0.66408
   1.85994   0.11000   0.42408
   1.85994   0.11000   0.18408
   1.85994  -0.13000  -0.05592
   1.85994  -0.13000  -0.05592
   2.09994  -0.13000  -0.29592
   2.09994  -0.13000  -0.29592
   2.09994  -0.13000  -0.29592
   2.09994  -0.13000  -0.53592
   2.09994  -0.37000  -0.53592
   2.09994  -0.37000  -0.77592
   2.09994  -0.37000  -0.77592
   2.09994  -0.37000  -1.01592
   1.85994  -0.61000  -1.01592
   2.09994  -0.61000  -1.25592
   2.09994  -0.61000  -1.25592
   2.09994  -0.61000  -1.25592
   2.09994  -0.61000  -1.49592
   2.09994  -0.61000  -1.25592
   1.85994  -0.61000  -1.49592
   1.85994  -0.61000  -1.49592
   1.85994  -0.61000  -1.49592
   1.85994  -0.61000  -1.73592
   1.85994  -0.61000  -1.73592
   1.85994  -0.61000  -1.73592
   1.85994  -0.37000  -1.73592
   1.61994  -0.61000  -1.73592
   1.61994  -0.37000  -1.97592
   1.61994  -0.37000  -1.97592
   1.61994  -0.37000  -1.97592
   1.61994  -0.37000  -1.97592
   1.38994  -0.37000  -2.21592
   1.38994  -0.37000  -2.21592
   1.38994  -0.13000  -2.21592
   1.38994  -0.13000  -2.45592
   1.38994  -0.13000  -2.45592
   1.38994  -0.13000  -2.68592
   0.90994   0.11000  -2.68592
   1.14994   0.11000  -2.68592
   1.14994   0.35000  -2.92592
   0.90994   0.35000  -2.92592
   0.90994   0.35000  -3.16592
   0.90994   0.35000  -3.16592
   0.66994   0.35000  -3.40592
   0.42994   0.35000  -3.40592
   0.66994   0.35000  -3.64592
   0.42994   0.35000  -3.88592
   0.42994   0.35000  -3.88592
   0.42994   0.35000  -3.88592
   0.42994   0.35000  -4.12592
   0.18994   0.35000  -4.36592
   0.18994   0.11000  -4.60592
  -0.05006   0.11000  -4.60592
  -0.05006   0.11000  -4.84592
  -0.05006   0.11000  -4.84592
  -0.05006   0.11000  -4.84592
  -0.29006   0.11000  -5.08592
  -0.29006   0.11000  -5.32592
  -0.29006   0.11000  -5.32592
  -0.29006   0.11000  -5.56592
  -0.29006  -0.13000  -5.56592
