********************************************************************************
              CENTRO DE INSTRUMENTACION Y REGISTRO SISMICO  A.C.                

    Anaxagoras 814, Col. Narvarte, Benito Juarez, C.P. 03020 Mexico, D.F.       
           Tels. 5687 45 42/ 5687 45  82             Fax. 5669 25 12            
********************************************************************************
ARCHIVO ESTANDAR DE ACELERACION:
VERSION DEL FORMATO                    : 2.0
NOMBRE DEL ARCHIVO                     : AL0120080212125018
FECHA Y HORA DE CREACION               : 11/FEB/08, 11:57
REF. CATALOGO ACELEROGRAMAS, SMIS 1996 : REGISTRO No.     /PAG.


================================================================================
DATOS DE LA ESTACION:
NOMBRE DE LA ESTACION                  : ALAMEDA
CLAVE DE LA ESTACION                   : AL01
LOCALIZACION DE LA ESTACION            : Del. Cuauhtémoc, Col. Centro,          
                                       : Dr. Mora entre Av. Hidalgo             
                                       : y Av. Juárez.                          
                                       :                                        
                                       : 
COORDENADAS DE LA ESTACION             : 19.4356 LAT. N
                                       : 99.1453 LONG. W
ALTITUD (msnm)                         : 2232
TIPO DE SUELO                          : Terreno blando, material compresible
                                       : (arcillas)                
                                       : 
INSTITUCION RESPONSABLE                : CIRES


================================================================================
DATOS DEL ACELEROGRAFO:
MODELO DEL ACELEROGRAFO                : SSA-1
NUMERO DE SERIE DEL ACELEROGRAFO       : 152
NUMERO DE CANALES                      : 3
ORIENTACION C1-C6 (rumbo;orientacion)  : /N00E/+V/N90W
ORIENTACION C7-C12 (rumbo;orientacion) : 
VEL. DE MUESTREO, C1-C6 (muestras/s)   : /200/200/200
VEL. DE MUESTREO, C7-C12 (muestras/s)  : 
ESC. COMPLETA DE SENSORES, C1-C6, (g)  : /2.0/2.0/2.0
ESC. COMPLETA DE SENSORES, C7-C12, (g) : 
FREC. NAT. DE SENSORES, C1-C6, (Hz)    : /51.29/51.09/53.75
FREC. NAT. DE SENSORES, C7-C12, (Hz)   : 
AMORTIGUAMIENTO DE SENSORES, C1-C6     : /0.5519/0.5670/0.5810
AMORTIGUAMIENTO DE SENSORES, C7-C12    : 
INTERVALO DE MUESTREO, C1-C6, (s)      : /0.005/0.005/0.005
INTERVALO DE MUESTREO, C7-C12, (s)     : 
UMBRAL DE DISPARO, C1-C6, (Gal)        : /1.0/2.5/1.0
UMBRAL DE DISPARO, C7-C12, (Gal)       : 
MEMORIA DE PREEVENTO (s)               : 15.36
TIEMPO DE POSEVENTO (s)                : 60.0


================================================================================
DATOS DEL SISMO:
FECHA DEL SISMO (GMT)                  : 12/FEB/08
HORA EPICENTRO (GMT)                   : 12:50:18.0
MAGNITUD(ES)                           : /Mc=6.6
COORDENADAS DEL EPICENTRO              : 16.19 LAT. N
                                       : -94.54 LONG. W
PROFUNDIDAD FOCAL (km)                 : 90
FUENTE DE LOS DATOS EPICENTRALES       : SSN
                                       : INSTITUTO DE GEOFISICA, UNAM

================================================================================
DATOS DE ESTE REGISTRO:
HORA DE LA PRIMERA MUESTRA (GMT)       : 12:52:39.95
EXACTITUD DEL TIEMPO (s)               : 0.005
DURACION DEL REGISTRO (s), C1-C6       : /181.76/181.76/181.76
DURACION DEL REGISTRO (s), C7-C12      : 
NUM. TOTAL DE MUESTRAS, C1-C6          : /36352/36352/36352
NUM. TOTAL DE MUESTRAS, C7-C12         : 
ACEL. MAX. (Gal), C1-C6                : /3.67328/1.52532/3.37077
ACEL. MAX., C1-C6, EN LA MUESTRA       : /12338/9985/12903
ACEL. MAX. (Gal), C7-C12               : 
ACEL. MAX., C7-C12, EN LA MUESTRA      : 
UNIDADES DE LOS DATOS                  : Gal (cm/s/s)
FACTOR DE DECIMACION                   : 1
FORMATO DATOS (FORTRAN,10 campos/dato) : 3F10.5


================================================================================
CALIDAD DEL ACELEROGRAMA:
REGISTRO DIGITAL COMPLETO CON TIEMPO ABSOLUTO CORRECTO.


================================================================================
COMENTARIOS:














================================================================================
DATOS DE ACELERACION:
---------+---------+---------+---------+---------+---------+---------+---------+
   CANAL-1   CANAL-2   CANAL-3   CANAL-4   CANAL-5   CANAL-6   CANAL-7   CANAL-8
      N00E        +V      N90W
---------+---------+---------+---------+---------+---------+---------+---------+
[...]
   0.08198   0.08879   0.22053
  -0.15744   0.08879   0.22053
  -0.15744   0.32821   0.45995
  -0.15744   0.32821   0.45995
  -0.39686   0.32821   0.45995
  -0.39686   0.32821   0.45995
  -0.39686   0.32821   0.45995
  -0.63628   0.56763   0.22053
  -0.63628   0.56763   0.22053
  -0.87570   0.56763  -0.01889
  -0.87570   0.56763  -0.01889
  -0.87570   0.56763  -0.25831
  -1.11512   0.32821  -0.01889
  -1.11512   0.32821  -0.01889
  -1.11512   0.56763   0.22053
  -1.11512   0.56763   0.22053
  -1.35454   0.56763   0.45995
  -1.35454   0.56763   0.45995
  -1.35454   0.56763   0.45995
  -1.35454   0.56763   0.45995
  -1.35454   0.56763   0.45995
  -1.59396   0.56763   0.45995
  -1.59396   0.56763   0.45995
  -1.59396   0.56763   0.22053
  -1.59396   0.56763   0.22053
  -2.07280   0.56763   0.22053
  -1.83338   0.56763   0.22053
  -1.83338   0.56763   0.22053
  -1.83338   0.32821   0.45995
  -1.83338   0.32821   0.22053
  -1.83338   0.32821   0.45995
  -1.83338   0.32821   0.45995
  -1.83338   0.32821   0.45995
  -1.83338   0.32821   0.45995
  -1.83338   0.08879   0.45995
  -1.83338   0.56763   0.45995
  -1.83338   0.56763   0.45995
  -2.07280   0.56763   0.45995
  -2.31222   0.56763   0.45995
  -2.07280   0.56763   0.45995
  -2.07280   0.56763   0.22053
  -2.07280   0.56763   0.22053
  -2.07280   0.32821   0.22053
  -2.07280   0.32821   0.22053
  -2.07280   0.32821   0.22053
  -2.07280   0.32821   0.22053
  -2.07280   0.32821   0.22053
  -2.07280   0.32821   0.22053
  -1.83338   0.08879   0.22053
  -2.07280   0.08879   0.22053
  -1.83338   0.08879  -0.01889
  -1.83338   0.08879   0.22053
  -1.83338   0.08879  -0.01889
  -1.83338   0.08879  -0.01889
  -1.83338   0.08879   0.22053
  -1.83338   0.08879  -0.01889
  -1.59396   0.08879  -0.01889
  -1.59396   0.08879  -0.01889
  -1.59396   0.08879  -0.01889
  -1.59396  -0.15063  -0.01889
  -1.59396  -0.15063  -0.01889
  -1.59396  -0.39005  -0.01889
  -1.59396  -0.39005  -0.01889
  -1.59396  -0.39005  -0.01889
  -1.35454  -0.39005  -0.01889
  -1.35454  -0.39005  -0.01889
  -1.35454  -0.39005  -0.01889
  -1.35454  -0.39005   0.22053
  -1.11512  -0.39005   0.22053
  -1.11512  -0.39005   0.22053
  -1.11512  -0.15063   0.22053
  -1.11512  -0.15063   0.22053
  -1.11512  -0.39005   0.22053
  -1.11512  -0.39005   0.22053
  -1.11512  -0.39005  -0.01889
  -1.35454  -0.62947  -0.25831
  -1.11512  -0.62947  -0.25831
  -1.11512  -0.86889  -0.25831
  -1.11512  -0.86889  -0.25831
  -1.11512  -0.86889  -0.25831
  -0.87570  -0.86889  -0.01889
  -0.87570  -0.86889  -0.01889
  -0.87570  -0.86889  -0.01889
  -0.87570  -0.86889  -0.01889
  -0.63628  -0.86889   0.22053
  -0.63628  -0.86889  -0.01889
  -0.63628  -0.86889  -0.01889
  -0.63628  -0.86889  -0.01889
  -0.63628  -0.86889  -0.01889
  -0.63628  -0.86889  -0.01889
  -0.39686  -0.86889  -0.01889
  -0.39686  -0.62947  -0.01889
  -0.39686  -0.62947  -0.01889
  -0.39686  -0.62947  -0.01889
  -0.39686  -0.62947  -0.25831
  -0.39686  -0.62947  -0.25831
  -0.39686  -0.62947  -0.25831
  -0.39686  -0.39005  -0.25831
  -0.39686  -0.62947  -0.25831
  -0.15744  -0.39005  -0.25831
  -0.15744  -0.15063  -0.25831
  -0.15744  -0.15063  -0.25831
  -0.15744  -0.15063  -0.25831
   0.08198  -0.15063  -0.25831
   0.08198  -0.15063  -0.25831
   0.08198  -0.15063  -0.49773
   0.08198  -0.15063  -0.49773
   0.08198  -0.15063  -0.49773
   0.08198  -0.15063  -0.49773
   0.08198   0.08879  -0.73715
  -0.15744   0.08879  -0.73715
  -0.15744   0.08879  -0.73715
  -0.15744   0.32821  -0.73715
  -0.15744   0.32821  -0.73715
  -0.15744   0.32821  -0.73715
  -0.15744   0.32821  -0.73715
   0.08198   0.32821  -0.97657
   0.08198   0.32821  -0.97657
   0.08198   0.32821  -0.97657
   0.08198   0.32821  -0.97657
   0.08198   0.32821  -0.97657
   0.08198   0.32821  -0.97657
   0.08198   0.32821  -0.97657
   0.08198   0.32821  -0.97657
   0.08198   0.32821  -0.97657
   0.08198   0.32821  -0.97657
  -0.15744   0.32821  -0.97657
  -0.15744   0.56763  -0.97657
  -0.15744   0.56763  -0.97657
  -0.15744   0.56763  -0.97657
  -0.15744   0.56763  -0.73715
  -0.15744   0.56763  -0.73715
  -0.15744   0.56763  -0.73715
  -0.15744   0.56763  -0.73715
  -0.15744   0.56763  -0.73715
  -0.15744   0.56763  -0.73715
  -0.15744   0.80706  -0.49773
  -0.15744   0.80706  -0.49773
  -0.15744   0.80706  -0.49773
  -0.15744   0.80706  -0.49773
  -0.15744   0.80706  -0.49773
  -0.15744   1.04648  -0.49773
  -0.15744   1.04648  -0.49773
  -0.15744   1.04648  -0.49773
  -0.39686   1.04648  -0.49773
  -0.39686   1.04648  -0.25831
  -0.39686   1.04648  -0.25831
  -0.39686   1.04648  -0.25831
  -0.39686   0.80706  -0.25831
  -0.39686   0.80706  -0.25831
  -0.39686   0.80706  -0.01889
  -0.39686   0.80706  -0.01889
  -0.63628   0.80706  -0.01889
  -0.63628   0.80706  -0.01889
  -0.63628   0.80706   0.22053
  -0.63628   1.04648   0.22053
  -0.63628   1.04648   0.22053
  -0.63628   1.04648   0.22053
  -0.63628   1.04648   0.22053
  -0.63628   1.04648   0.22053
  -0.63628   1.04648  -0.01889
  -0.63628   1.04648  -0.01889
  -0.63628   1.04648  -0.01889
  -0.63628   0.80706  -0.25831
  -0.63628   0.80706  -0.25831
  -0.87570   0.56763  -0.25831
  -0.87570   0.56763  -0.25831
  -0.87570   0.56763  -0.01889
  -0.87570   0.56763  -0.01889
  -0.87570   0.32821   0.22053
  -0.87570   0.32821   0.22053
  -0.87570   0.32821   0.22053
  -0.63628   0.32821   0.22053
  -0.63628   0.32821   0.22053
  -0.63628   0.32821   0.22053
  -0.63628   0.32821   0.22053
  -0.63628   0.32821   0.22053
  -0.63628   0.32821   0.22053
  -0.63628   0.32821  -0.01889
  -0.63628   0.32821  -0.01889
  -0.63628   0.08879  -0.01889
  -0.63628   0.08879  -0.25831
  -0.63628   0.08879  -0.25831
  -0.63628   0.08879  -0.25831
  -0.63628  -0.15063  -0.25831
  -0.63628  -0.15063  -0.25831
  -0.63628  -0.15063  -0.25831
  -0.63628  -0.39005  -0.25831
  -0.63628  -0.39005  -0.25831
  -0.63628  -0.39005  -0.25831
  -0.63628  -0.39005  -0.25831
  -0.63628  -0.39005  -0.25831
  -0.63628  -0.39005  -0.25831
  -0.63628  -0.39005  -0.25831
  -0.39686  -0.39005  -0.25831
  -0.63628  -0.39005  -0.25831
  -0.39686  -0.62947  -0.49773
  -0.87570  -0.86889  -0.49773
  -0.63628  -0.62947  -0.49773
  -0.63628  -0.62947  -0.49773
  -0.63628  -0.62947  -0.73715
  -0.39686  -0.86889  -0.49773
  -0.39686  -0.86889  -0.73715
  -0.39686  -0.62947  -0.49773
  -0.39686  -0.86889  -0.49773
  -0.39686  -0.62947  -0.49773
  -0.39686  -0.62947  -0.49773
  -0.39686  -0.62947  -0.49773
  -0.63628  -0.62947  -0.49773
  -0.39686  -0.62947  -0.49773
  -0.39686  -0.62947  -0.73715
  -0.63628  -0.86889  -0.73715
  -0.63628  -0.86889  -0.73715
  -0.63628  -0.86889  -0.73715
  -0.63628  -0.86889  -0.49773
  -0.63628  -0.86889  -0.49773
  -0.39686  -0.86889  -0.49773
  -0.63628  -0.62947  -0.49773
  -0.39686  -0.86889  -0.73715
  -0.39686  -0.86889  -0.73715
  -0.39686  -0.86889  -0.73715
  -0.39686  -0.86889  -0.73715
  -0.39686  -0.62947  -0.73715
  -0.39686  -0.86889  -0.73715
  -0.39686  -0.62947  -0.73715
  -0.39686  -0.62947  -0.49773
  -0.39686  -0.62947  -0.49773
  -0.39686  -0.62947  -0.25831
  -0.39686  -0.62947  -0.49773
  -0.39686  -0.39005  -0.49773
  -0.39686  -0.39005  -0.49773
  -0.39686  -0.62947  -0.73715
  -0.39686  -0.39005  -0.73715
  -0.39686  -0.39005  -0.73715
  -0.39686  -0.39005  -0.73715
  -0.39686  -0.39005  -0.49773
  -0.39686  -0.39005  -0.49773
  -0.39686  -0.39005  -0.49773
  -0.39686  -0.39005  -0.25831
  -0.39686  -0.39005  -0.25831
  -0.39686  -0.39005  -0.25831
  -0.39686  -0.39005  -0.01889
  -0.39686  -0.39005  -0.01889
  -0.39686  -0.39005  -0.01889
  -0.39686  -0.39005  -0.01889
  -0.39686  -0.39005  -0.01889
  -0.39686  -0.15063  -0.01889
  -0.39686  -0.15063  -0.01889
  -0.39686   0.08879   0.22053
  -0.39686   0.08879   0.22053
  -0.39686   0.08879   0.22053
  -0.39686   0.08879   0.22053
  -0.39686   0.08879   0.22053
  -0.39686   0.08879   0.22053
  -0.39686   0.08879   0.22053
  -0.63628   0.08879   0.45995
  -0.63628  -0.15063   0.45995
  -0.63628  -0.15063   0.45995
  -0.63628  -0.15063   0.45995
  -0.63628  -0.15063   0.69937
  -0.63628  -0.15063   0.69937
  -0.63628   0.08879   0.93879
  -0.39686   0.08879   0.93879
  -0.39686   0.32821   0.93879
  -0.39686   0.32821   0.93879
  -0.39686   0.56763   0.93879
  -0.39686   0.56763   0.93879
  -0.39686   0.56763   0.93879
  -0.63628   0.56763   0.93879
  -0.63628   0.56763   0.93879
  -0.63628   0.56763   0.93879
  -0.63628   0.56763   0.93879
  -0.63628   0.32821   1.17821
  -0.63628   0.32821   1.17821
  -0.63628   0.32821   1.17821
  -0.63628   0.32821   1.17821
  -0.63628   0.32821   1.17821
  -0.39686   0.56763   1.17821
  -0.39686   0.56763   1.17821
  -0.39686   0.56763   1.17821
  -0.39686   0.32821   1.17821
  -0.39686   0.56763   1.17821
  -0.39686   0.56763   1.17821
  -0.15744   0.56763   1.17821
  -0.15744   0.56763   1.17821
  -0.15744   0.56763   1.17821
  -0.15744   0.56763   1.17821
   0.08198   0.56763   0.93879
   0.08198   0.56763   0.93879
   0.08198   0.56763   0.93879
   0.08198   0.56763   0.93879
   0.08198   0.56763   0.93879
   0.08198   0.32821   0.93879
   0.32140   0.32821   0.93879
   0.32140   0.32821   0.93879
   0.32140   0.32821   0.93879
   0.56082   0.32821   0.69937
   0.56082   0.32821   0.69937
   0.80024   0.32821   0.69937
   0.80024   0.32821   0.69937
   0.80024   0.32821   0.69937
   1.03966   0.32821   0.22053
   1.03966   0.32821   0.69937
   1.27908   0.32821   0.69937
   1.27908   0.32821   0.69937
   1.27908   0.32821   0.69937
   1.51850   0.32821   0.69937
   1.51850   0.32821   0.45995
   1.51850   0.32821   0.45995
   1.75792   0.08879   0.45995
   1.75792   0.08879   0.45995
   1.99734   0.08879   0.45995
   1.99734   0.08879   0.45995
   1.99734   0.08879   0.45995
   2.23676   0.08879   0.22053
   2.23676   0.08879   0.22053
   2.23676   0.08879   0.45995
   2.47618   0.08879   0.45995
   2.47618   0.08879   0.69937
   2.47618   0.08879   0.69937
   2.71560   0.08879   0.69937
   2.71560  -0.15063   0.69937
   2.71560  -0.15063   0.45995
   2.71560  -0.15063   0.69937
   2.95502  -0.15063   0.69937
   2.95502  -0.15063   0.69937
   2.95502  -0.15063   0.45995
   2.95502  -0.15063   0.69937
   3.19444  -0.39005   0.69937
   3.19444  -0.39005   0.69937
   3.19444  -0.39005   0.93879
   3.19444  -0.39005   0.93879
   3.19444  -0.39005   0.93879
   3.43386  -0.39005   0.93879
   3.43386  -0.39005   0.93879
   3.43386  -0.39005   1.17821
   3.43386  -0.39005   0.93879
   3.43386  -0.39005   0.93879
   3.43386  -0.39005   0.93879
   3.43386  -0.39005   0.93879
   3.43386  -0.62947   0.93879
   3.43386  -0.62947   0.93879
   3.43386  -0.62947   1.17821
   3.43386  -0.62947   1.17821
   3.43386  -0.39005   1.17821
   3.43386  -0.39005   1.17821
   3.67328  -0.39005   1.41763
   3.43386  -0.39005   1.41763
   3.43386  -0.39005   1.41763
   3.43386  -0.15063   1.41763
   3.43386  -0.15063   1.17821
   3.43386  -0.15063   1.17821
   3.43386  -0.15063   1.17821
   3.19444  -0.15063   1.17821
   3.19444  -0.15063   0.93879
   3.19444  -0.15063   0.93879
   3.19444  -0.15063   0.69937
   3.19444  -0.39005   0.93879
   2.95502  -0.39005   0.93879
   2.95502  -0.39005   0.93879
   2.95502  -0.39005   0.93879
   2.95502  -0.39005   0.93879
   2.71560  -0.39005   0.93879
   2.71560  -0.39005   0.93879
   2.71560  -0.39005   1.17821
   2.71560  -0.39005   0.93879
   2.47618  -0.15063   0.93879
   2.71560  -0.15063   0.93879
   2.47618  -0.15063   0.69937
   2.47618  -0.15063   0.69937
   2.23676  -0.15063   0.45995
   2.23676  -0.15063   0.69937
   1.99734  -0.15063   0.69937
   1.99734  -0.39005   0.69937
   1.99734  -0.39005   0.69937
   1.75792  -0.15063   0.69937
   1.75792  -0.15063   0.69937
   1.75792  -0.15063   0.69937
   1.75792  -0.15063   0.69937
   1.51850  -0.15063   0.45995
   1.51850  -0.15063   0.45995
   1.27908  -0.15063   0.45995
   1.27908  -0.15063   0.45995
   1.03966  -0.15063   0.45995
   1.03966  -0.15063   0.45995
   1.03966  -0.15063   0.22053
   0.80024  -0.15063   0.22053
   0.80024  -0.15063   0.22053
   0.56082   0.08879   0.22053
   0.56082   0.08879   0.22053
   0.56082  -0.15063   0.22053
   0.32140  -0.15063   0.45995
   0.32140   0.08879   0.22053
   0.32140   0.08879   0.45995
   0.32140   0.08879   0.45995
   0.08198   0.08879   0.22053
   0.08198   0.08879   0.22053
   0.08198   0.08879   0.22053
  -0.15744   0.08879   0.22053
  -0.15744   0.08879   0.22053
  -0.15744   0.08879   0.22053
  -0.15744   0.08879   0.22053
  -0.15744   0.08879   0.22053
  -0.15744   0.08879   0.22053
  -0.39686   0.08879   0.45995
  -0.39686   0.08879   0.22053
  -0.39686   0.08879   0.45995
  -0.39686   0.08879   0.22053
  -0.39686   0.08879   0.45995
  -0.39686   0.08879   0.45995
  -0.39686   0.08879   0.45995
  -0.39686   0.08879   0.22053
  -0.39686   0.08879   0.22053
  -0.39686   0.08879   0.22053
  -0.39686  -0.15063   0.22053
  -0.39686   0.08879   0.22053
  -0.39686  -0.15063   0.22053
  -0.39686   0.08879   0.22053
  -0.15744   0.08879   0.22053
  -0.15744   0.08879   0.22053
  -0.15744   0.08879   0.45995
  -0.39686   0.08879   0.22053
  -0.15744   0.08879   0.22053
  -0.15744   0.08879   0.22053
  -0.15744   0.08879   0.22053
  -0.15744   0.08879   0.22053
  -0.15744   0.08879   0.22053
  -0.15744   0.08879  -0.01889
  -0.15744   0.08879  -0.01889
  -0.15744   0.08879  -0.01889
   0.08198  -0.15063  -0.01889
   0.08198  -0.15063  -0.01889
   0.08198  -0.15063  -0.01889
   0.08198  -0.15063  -0.01889
   0.32140  -0.15063  -0.01889
   0.32140  -0.15063  -0.01889
   0.32140  -0.15063  -0.49773
   0.32140  -0.15063  -0.25831
   0.32140   0.08879  -0.25831
   0.32140  -0.15063  -0.25831
   0.32140  -0.15063  -0.25831
   0.32140  -0.15063  -0.25831
   0.32140  -0.15063  -0.25831
   0.32140  -0.15063  -0.25831
   0.32140  -0.15063  -0.73715
   0.32140  -0.15063  -0.49773
   0.32140  -0.39005  -0.49773
   0.32140  -0.15063  -0.49773
   0.56082  -0.15063  -0.49773
   0.32140  -0.15063  -0.49773
   0.32140  -0.15063  -0.49773
   0.32140   0.08879  -0.49773
   0.32140   0.08879  -0.49773
   0.08198   0.08879  -0.49773
   0.08198   0.08879  -0.49773
   0.08198   0.08879  -0.73715
   0.08198   0.08879  -0.73715
   0.08198   0.08879  -0.73715
   0.08198   0.08879  -0.73715
  -0.15744   0.08879  -1.21599
  -0.15744   0.08879  -0.97657
  -0.15744   0.08879  -0.97657
  -0.39686   0.08879  -0.97657
  -0.39686   0.08879  -0.73715
  -0.63628   0.08879  -0.73715
  -0.63628   0.08879  -0.73715
  -0.63628   0.08879  -0.97657
  -0.63628   0.08879  -0.97657
  -0.63628  -0.15063  -0.97657
  -0.87570  -0.15063  -0.97657
  -0.87570  -0.15063  -0.97657
  -0.87570   0.08879  -0.97657
  -0.87570   0.08879  -0.97657
  -1.11512   0.08879  -0.97657
  -1.11512   0.32821  -0.97657
  -1.35454   0.32821  -0.97657
  -1.35454   0.32821  -0.97657
  -1.59396   0.32821  -0.97657
  -1.59396   0.32821  -0.97657
  -1.59396   0.32821  -0.97657
  -1.83338   0.32821  -1.21599
  -1.83338   0.32821  -1.21599
  -1.83338   0.32821  -1.21599
  -1.83338   0.32821  -0.97657
  -2.07280   0.32821  -0.97657
  -2.07280   0.32821  -0.97657
  -2.31222   0.32821  -0.97657
  -2.31222   0.32821  -0.97657
  -2.31222   0.56763  -0.97657
  -2.31222   0.56763  -0.97657
  -2.55164   0.56763  -1.21599
  -2.31222   0.56763  -0.97657
  -2.55164   0.56763  -1.21599
  -2.55164   0.56763  -1.21599
  -2.55164   0.56763  -1.21599
  -2.55164   0.32821  -1.21599
