********************************************************************************
               CENTRO DE INSTRUMENTACION Y REGISTRO SISMICO  A.C.  
                       Coordinacion de Servicios Tecnicos
     Anaxagoras 814, Col. Narvarte, Benito Juarez, C.P. 03020 Mexico, D.F.
            Tels. 687 45 42/ 687 45  82             Fax. 669 25 12
********************************************************************************
ARCHIVO ESTANDAR DE ACELERACION:
VERSION DEL FORMATO                    : 2.0
NOMBRE DEL ARCHIVO                     : AL019509.141
FECHA Y HORA DE CREACION               : 18 de marzo de 1996/11:09
REF. CATALOGO ACELEROGRAMAS, SMIS 1995 : REGISTRO No.     /PAG.


================================================================================
DATOS DE LA ESTACION:
NOMBRE DE LA ESTACION                  : ALAMEDA
CLAVE DE LA ESTACION                   : AL01
LOCALIZACION DE LA ESTACION            : JARDIN ALAMEDA ENTRE AV. HIDALGO Y AV.
                                       : JUAREZ, CENTRO
                                       :
                                       :
                                       :
COORDENADAS DE LA ESTACION             : 19.436 LAT. N 
                                       : 99.145 LONG. W 
ALTITUD (msnm)                         : 2232
TIPO DE SUELO                          : TERRENO BLANDO, MATERIAL COMPRESIBLE
                                       : (ARCILLAS)
                                       : 
INSTITUCION RESPONSABLE                : CIRES 
                                       :

================================================================================
DATOS DEL ACELEROGRAFO:
MODELO DEL ACELEROGRAFO                : SSA-1
NUMERO DE SERIE DEL ACELEROGRAFO       : 152
NUMERO DE CANALES                      : 3
ORIENTACION C1-C6 (rumbo;orientacion)  : /N00E/+V/N90E
ORIENTACION C7-C12 (rumbo;orientacion) :
VEL. DE MUESTREO, C1-C6 (muestras/s)   : /200/200/200
VEL. DE MUESTREO, C7-C12 (muestras/s)  :
ESC. COMPLETA DE SENSORES, C1-C6, (g)  : /2/2/2
ESC. COMPLETA DE SENSORES, C7-C12, (g) :
FREC. NAT. DE SENSORES, C1-C6, (Hz)    : /50/50/50
FREC. NAT. DE SENSORES, C7-C12, (Hz)   :
AMORTIGUAMIENTO DE SENSORES, C1-C6     : /0.700/0.700/0.700
AMORTIGUAMIENTO DE SENSORES, C7-C12    :
INTERVALO DE MUESTREO, C1-C6, (s)      : /0.005/0.005/0.005
INTERVALO DE MUESTREO, C7-C12, (s)     :
UMBRAL DE DISPARO, C1-C6, (Gal)        : /2/1.5/2
UMBRAL DE DISPARO, C7-C12, (Gal)       :
MEMORIA DE PREEVENTO (s)               : 15
TIEMPO DE POSEVENTO (s)                : 60


================================================================================
DATOS DEL SISMO:
FECHA DEL SISMO (GMT)                  : 14/SEP/95
HORA EPICENTRO (GMT)                   : 14:04:30.5
MAGNITUD(ES)                           : /Mc=6.4/Mb=7.2/Me=7.3
COORDENADAS DEL EPICENTRO              : 16.31 LAT. N
                                       : 98.88 LONG. W
PROFUNDIDAD FOCAL (km)                 : 22
FUENTE DE LOS DATOS EPICENTRALES       : SSN
                                       : INSTITUTO DE GEOFISICA, UNAM

================================================================================
DATOS DE ESTE REGISTRO:
HORA DE LA PRIMERA MUESTRA (GMT)       : 14:05:35.00
EXACTITUD DEL TIEMPO (s)               :     
DURACION DEL REGISTRO (s), C1-C6       : /253.44/253.44/253.44
DURACION DEL REGISTRO (s), C7-C12      :
NUM. TOTAL DE MUESTRAS, C1-C6          : /50688/50688/50688
NUM. TOTAL DE MUESTRAS, C7-C12         :
ACEL. MAX. (Gal), C1-C6                : /40.98803/10.16325/35.19811
ACEL. MAX., C1-C6, EN LA MUESTRA       :
ACEL. MAX. (Gal), C7-C12               :
ACEL. MAX., C7-C12, EN LA MUESTRA      :
UNIDADES DE LOS DATOS                  : Gal (cm/s/s)
FACTOR DE DECIMACION                   : 1
FORMATO DATOS (FORTRAN,10 campos/dato) : 3F10.5


================================================================================
CALIDAD DEL ACELEROGRAMA:
REGISTRO DIGITAL COMPLETO, CARECE DE TIEMPO ABSOLUTO.


================================================================================
COMENTARIOS:
             EL EQUIPO SE ENCONTRABA CON GANANCIAS DE 4 EN TODOS LOS EJES,
             POR LO QUE LAS ESCALAS COMPLETAS ERAN DE 1/2 G.



             








================================================================================
DATOS DE ACELERACION:
---------+---------+---------+---------+---------+---------+---------+---------+
   CANAL-1   CANAL-2   CANAL-3   CANAL-4   CANAL-5   CANAL-6   CANAL-7   CANAL-8
      N00E        +V      N90E
---------+---------+---------+---------+---------+---------+---------+---------+
[...]
  -6.73803  -1.09675   4.07189
  -6.25803  -1.09675   4.55189
  -5.77803  -1.09675   5.03189
  -5.53803  -1.09675   5.51189
  -5.05803  -0.85675   5.99189
  -4.57803  -0.85675   6.47189
  -4.33803  -0.85675   6.71189
  -3.85803  -0.85675   7.19189
  -3.61803  -0.61675   7.67189
  -3.37803  -0.61675   7.91189
  -3.13803  -0.37675   8.39189
  -2.89803  -0.37675   8.86189
  -2.66803  -0.13675   9.10189
  -2.42803   0.10325   9.58189
  -2.18803   0.10325  10.06189
  -2.18803   0.34325  10.30189
  -1.94803   0.34325  10.78189
  -1.94803   0.58325  11.26189
  -1.70803   0.82325  11.50189
  -1.46803   0.82325  11.98189
  -1.46803   0.58325  12.22189
  -1.46803   0.82325  12.70189
  -1.22803   0.82325  12.94189
  -1.22803   1.06325  13.18189
  -1.22803   1.06325  13.65189
  -1.22803   1.06325  13.65189
  -1.22803   1.06325  14.13189
  -1.22803   1.06325  14.13189
  -1.22803   1.06325  14.37189
  -1.22803   1.06325  14.61189
  -1.46803   0.82325  14.85189
  -1.22803   0.82325  14.61189
  -1.46803   0.82325  15.09189
  -1.22803   0.82325  15.09189
  -1.46803   0.82325  14.85189
  -1.46803   0.58325  15.33189
  -1.46803   0.82325  15.33189
  -1.46803   0.58325  15.57189
  -1.46803   0.58325  15.57189
  -1.46803   0.34325  15.57189
  -1.46803   0.34325  15.57189
  -1.46803   0.10325  15.57189
  -1.46803   0.10325  15.57189
  -1.46803  -0.13675  15.57189
  -1.46803  -0.37675  15.33189
  -1.70803  -0.37675  15.57189
  -1.46803  -0.61675  15.33189
  -1.46803  -0.85675  15.33189
  -1.46803  -0.85675  15.09189
  -1.46803  -0.85675  15.09189
  -1.22803  -1.09675  14.85189
  -1.22803  -1.33675  14.61189
  -1.22803  -1.33675  14.37189
  -1.22803  -1.33675  14.13189
  -1.22803  -1.57675  13.89189
  -0.98803  -1.57675  13.65189
  -0.98803  -1.57675  13.18189
  -0.98803  -1.57675  12.94189
  -0.98803  -1.57675  12.46189
  -0.74803  -1.57675  11.98189
  -0.74803  -1.33675  11.50189
  -0.74803  -1.33675  11.26189
  -0.50803  -1.33675  10.78189
  -0.50803  -1.33675  10.06189
  -0.50803  -1.33675   9.82189
  -0.50803  -1.33675   9.34189
  -0.26803  -1.33675   9.10189
  -0.02803  -1.09675   8.63189
  -0.02803  -1.09675   8.15189
   0.21197  -0.85675   7.91189
   0.21197  -0.85675   7.43189
   0.45197  -0.85675   6.95189
   0.69197  -0.85675   6.47189
   0.93197  -0.61675   6.23189
   1.17197  -0.61675   5.75189
   1.41197  -0.37675   5.51189
   1.65197  -0.37675   5.03189
   1.65197  -0.13675   4.55189
   1.89197  -0.13675   4.31189
   2.13197   0.10325   3.84189
   2.36197   0.34325   3.12189
   2.84197   0.34325   2.88189
   2.84197   0.58325   2.64189
   3.08197   0.82325   2.40189
   3.32197   0.82325   1.92189
   3.56197   1.06325   1.68189
   4.04197   1.06325   1.20189
   4.28197   1.06325   1.20189
   4.52197   1.06325   0.96189
   4.76197   1.06325   0.72189
   5.00197   1.06325   0.48189
   5.48197   0.82325   0.24189
   5.72197   1.06325   0.00189
   6.20197   1.06325   0.00189
   6.44197   1.06325  -0.23811
   6.68197   0.82325  -0.47811
   7.15197   0.82325  -0.71811
   7.63197   0.82325  -0.71811
   7.87197   0.82325  -0.95811
   8.35197   0.58325  -0.95811
   8.83197   0.58325  -0.95811
   9.07197   0.34325  -0.95811
   9.55197   0.34325  -0.95811
  10.03197   0.10325  -0.95811
  10.51197   0.10325  -0.95811
  10.99197  -0.13675  -0.95811
  11.23197  -0.37675  -0.71811
  11.71197  -0.37675  -0.71811
  12.18197  -0.61675  -0.47811
  12.42197  -0.85675  -0.47811
  12.90197  -1.09675  -0.47811
  13.14197  -1.33675  -0.23811
  13.86197  -1.57675  -0.23811
  14.34197  -1.81675  -0.23811
  14.82197  -2.05675   0.00189
  15.30197  -2.29675   0.24189
  15.78197  -2.53675   0.24189
  16.26197  -2.77675   0.24189
  16.97197  -3.01675   0.48189
  17.45197  -3.01675   0.72189
  18.17197  -3.48675   0.72189
  18.65197  -3.48675   0.72189
  19.37197  -3.72675   0.96189
  19.85197  -3.96675   0.96189
  20.57197  -4.20675   1.20189
  21.29197  -4.44675   1.20189
  22.00197  -4.44675   1.20189
  22.72197  -4.68675   1.44189
  23.20197  -4.92675   1.44189
  23.68197  -5.16675   1.68189
  24.40197  -5.16675   1.92189
  24.88197  -5.40675   1.92189
  25.36197  -5.64675   1.92189
  25.84197  -5.64675   1.92189
  26.31197  -5.88675   2.16189
  26.79197  -5.88675   2.40189
  27.27197  -6.12675   2.16189
  27.75197  -6.12675   2.40189
  28.23197  -6.12675   2.40189
  28.71197  -6.36675   2.64189
  29.19197  -6.36675   2.64189
  29.43197  -6.36675   2.88189
  29.91197  -6.12675   2.88189
  30.15197  -6.12675   3.12189
  30.63197  -6.12675   3.12189
  30.87197  -6.12675   3.12189
  31.34197  -6.12675   3.36189
  31.58197  -6.12675   3.60189
  31.82197  -5.88675   3.60189
  32.30197  -5.88675   3.84189
  32.54197  -5.88675   3.84189
  32.78197  -5.64675   4.31189
  33.02197  -5.64675   4.31189
  33.26197  -5.64675   4.55189
  33.50197  -5.40675   4.79189
  33.50197  -5.40675   5.03189
  33.74197  -5.40675   5.03189
  33.98197  -5.16675   5.27189
  33.74197  -5.16675   5.27189
  33.98197  -5.16675   5.51189
  34.22197  -4.92675   5.51189
  34.22197  -4.68675   5.75189
  33.98197  -4.68675   5.75189
  33.98197  -4.44675   5.99189
  33.98197  -4.20675   5.99189
  33.74197  -4.20675   5.99189
  33.74197  -3.96675   5.99189
  33.50197  -3.72675   5.99189
  33.26197  -3.48675   5.99189
  33.02197  -3.24675   6.23189
  32.78197  -3.01675   5.99189
  32.54197  -2.77675   5.99189
  32.06197  -2.77675   5.75189
  31.82197  -2.53675   5.99189
  31.34197  -2.29675   5.99189
  30.87197  -2.05675   5.75189
  30.39197  -1.81675   5.75189
  30.15197  -1.57675   5.75189
  29.43197  -1.33675   5.51189
  28.95197  -1.33675   5.51189
  28.47197  -1.09675   5.27189
  27.75197  -0.85675   5.03189
  27.27197  -0.85675   4.79189
  26.55197  -0.61675   4.55189
  25.84197  -0.37675   4.31189
  25.12197  -0.13675   4.07189
  24.64197   0.10325   3.60189
  23.92197   0.10325   3.12189
  22.96197   0.34325   2.64189
  22.24197   0.58325   2.16189
  21.52197   0.58325   1.68189
  20.81197   0.82325   1.20189
  19.85197   0.82325   0.72189
  19.13197   1.06325   0.00189
  18.17197   1.06325  -0.71811
  17.21197   1.30325  -1.18811
  16.50197   1.30325  -1.90811
  15.54197   1.30325  -2.38811
  14.58197   1.30325  -2.86811
  13.38197   1.30325  -3.58811
  12.90197   1.54325  -4.06811
  11.94197   1.78325  -4.78811
  10.99197   1.54325  -5.50811
  10.27197   1.54325  -5.97811
   9.31197   1.78325  -6.69811
   8.35197   1.78325  -7.41811
   7.39197   1.78325  -8.13811
   6.44197   1.54325  -8.85811
   5.48197   1.54325  -9.57811
   4.76197   1.54325 -10.29811
   3.80197   1.54325 -11.00811
   3.08197   1.30325 -11.72811
   2.13197   1.30325 -12.20811
   1.41197   1.06325 -12.92811
   0.45197   0.82325 -13.40811
  -0.26803   0.82325 -13.88811
  -0.98803   0.82325 -14.36811
  -1.94803   0.58325 -14.84811
  -2.66803   0.58325 -15.32811
  -3.37803   0.34325 -15.55811
  -4.09803   0.10325 -16.03811
  -5.05803   0.10325 -16.51811
  -5.77803  -0.13675 -16.51811
  -6.49803  -0.37675 -16.99811
  -6.97803  -0.61675 -16.99811
  -7.68803  -0.85675 -17.23811
  -8.16803  -0.85675 -17.23811
  -8.88803  -1.09675 -17.23811
  -9.36803  -1.33675 -17.47811
  -9.84803  -1.57675 -17.47811
 -10.32803  -1.81675 -17.23811
 -10.56803  -1.81675 -17.23811
 -11.04803  -2.05675 -17.23811
 -11.52803  -2.29675 -16.99811
 -11.76803  -2.29675 -16.75811
 -12.00803  -2.53675 -16.51811
 -12.47803  -2.77675 -16.27811
 -12.95803  -2.77675 -16.03811
 -13.19803  -3.01675 -15.55811
 -13.43803  -3.01675 -15.08811
 -13.91803  -3.24675 -14.60811
 -14.15803  -3.24675 -14.12811
 -14.39803  -3.48675 -13.64811
 -14.63803  -3.48675 -13.16811
 -14.87803  -3.48675 -12.68811
 -15.35803  -3.48675 -11.96811
 -15.35803  -3.72675 -11.48811
 -15.59803  -3.72675 -10.76811
 -15.83803  -3.72675 -10.29811
 -16.07803  -3.96675  -9.81811
 -16.31803  -3.96675  -9.33811
 -16.31803  -4.20675  -8.61811
 -16.55803  -4.20675  -8.13811
 -16.55803  -4.20675  -7.41811
 -16.79803  -4.44675  -6.93811
 -16.79803  -4.44675  -6.45811
 -16.79803  -4.44675  -5.97811
 -16.79803  -4.44675  -5.50811
 -16.79803  -4.44675  -5.02811
 -16.79803  -4.68675  -4.54811
 -17.03803  -4.68675  -4.06811
 -17.03803  -4.68675  -3.58811
 -17.03803  -4.68675  -3.10811
 -17.03803  -4.68675  -2.86811
 -17.03803  -4.44675  -2.38811
 -17.03803  -4.44675  -1.90811
 -17.26803  -4.68675  -1.66811
 -17.26803  -4.68675  -1.42811
 -17.26803  -4.44675  -0.95811
 -17.26803  -4.44675  -0.71811
 -17.26803  -4.44675  -0.23811
 -17.03803  -4.20675   0.00189
 -17.03803  -4.20675   0.48189
 -17.26803  -4.20675   0.72189
 -17.03803  -3.96675   0.96189
 -17.03803  -3.96675   1.20189
 -17.03803  -4.20675   1.68189
 -17.03803  -4.20675   1.68189
 -17.03803  -3.96675   2.16189
 -17.03803  -3.96675   2.40189
 -17.03803  -3.96675   2.64189
 -17.03803  -3.72675   2.88189
 -16.79803  -3.72675   3.12189
 -16.79803  -3.72675   3.36189
 -16.79803  -3.48675   3.60189
 -16.79803  -3.48675   3.84189
 -16.79803  -3.24675   4.07189
 -16.79803  -3.01675   4.31189
 -16.79803  -3.01675   4.79189
 -16.79803  -2.77675   5.03189
 -16.79803  -2.53675   5.03189
 -17.03803  -2.29675   5.27189
 -17.03803  -2.29675   5.51189
 -17.26803  -2.05675   5.51189
 -17.26803  -1.81675   5.75189
 -17.50803  -1.81675   5.99189
 -17.50803  -1.57675   6.23189
 -17.98803  -1.33675   6.23189
 -17.98803  -1.09675   6.47189
 -18.46803  -0.85675   6.47189
 -18.70803  -0.61675   6.71189
 -18.94803  -0.37675   6.95189
 -19.18803   0.10325   6.95189
 -19.42803   0.34325   7.19189
 -19.90803   0.58325   7.19189
 -20.14803   1.06325   7.19189
 -20.62803   1.30325   7.43189
 -21.10803   1.54325   7.43189
 -21.58803   2.01325   7.43189
 -21.82803   2.25325   7.67189
 -22.53803   2.73325   7.67189
 -23.01803   2.97325   7.67189
 -23.49803   3.21325   7.67189
 -24.21803   3.45325   7.67189
 -24.69803   3.69325   7.43189
 -25.17803   3.93325   7.43189
 -25.89803   4.17325   7.43189
 -26.61803   4.41325   7.19189
 -27.32803   4.65325   6.95189
 -27.80803   4.89325   6.71189
 -28.52803   4.89325   6.47189
 -29.24803   5.13325   6.23189
 -29.96803   5.37325   5.99189
 -30.68803   5.61325   5.75189
 -31.40803   5.85325   5.51189
 -32.35803   5.85325   5.27189
 -32.83803   6.09325   5.03189
 -33.55803   6.33325   4.79189
 -34.27803   6.57325   4.31189
 -34.99803   6.80325   4.07189
 -35.71803   6.80325   3.84189
 -36.42803   7.04325   3.36189
 -36.90803   7.28325   3.12189
 -37.62803   7.28325   2.64189
 -37.86803   7.52325   2.16189
 -38.58803   7.52325   1.92189
 -38.82803   7.52325   1.44189
 -39.30803   7.52325   0.96189
 -39.54803   7.76325   0.48189
 -39.78803   7.76325   0.00189
 -40.26803   7.76325  -0.47811
 -40.26803   7.76325  -1.18811
 -40.50803   7.76325  -1.66811
 -40.74803   7.76325  -2.14811
 -40.74803   7.76325  -2.62811
 -40.74803   7.76325  -3.10811
 -40.98803   7.76325  -3.82811
 -40.98803   7.76325  -4.30811
 -40.74803   7.76325  -4.78811
 -40.74803   7.52325  -5.26811
 -40.50803   7.52325  -5.74811
 -40.26803   7.52325  -6.21811
 -40.02803   7.28325  -6.45811
 -39.78803   7.28325  -6.93811
 -39.30803   7.28325  -7.41811
 -39.06803   7.04325  -7.89811
 -38.58803   6.80325  -8.13811
 -38.10803   6.57325  -8.37811
 -37.62803   6.33325  -8.85811
 -37.38803   6.33325  -9.09811
 -36.90803   5.85325  -9.33811
 -36.42803   5.61325  -9.57811
 -35.71803   5.37325  -9.81811
 -35.23803   5.13325 -10.05811
 -34.51803   4.89325 -10.29811
 -33.79803   4.41325 -10.53811
 -33.31803   4.17325 -10.76811
 -32.59803   3.93325 -11.00811
 -31.87803   3.45325 -11.24811
 -31.16803   3.21325 -11.00811
 -30.68803   2.97325 -11.24811
 -29.96803   2.73325 -11.24811
 -29.24803   2.49325 -11.48811
 -28.52803   2.25325 -11.48811
 -27.80803   2.01325 -11.48811
 -27.08803   1.78325 -11.48811
 -26.37803   1.54325 -11.48811
 -25.65803   1.54325 -11.48811
 -24.93803   1.54325 -11.48811
 -24.21803   1.30325 -11.48811
 -23.49803   1.30325 -11.48811
 -22.53803   1.06325 -11.24811
 -21.82803   1.06325 -11.24811
 -21.10803   1.06325 -11.00811
 -20.38803   0.82325 -11.00811
 -19.42803   0.82325 -11.24811
 -18.70803   0.58325 -11.00811
 -17.74803   0.58325 -11.00811
 -16.79803   0.34325 -11.00811
 -16.07803   0.10325 -11.00811
 -15.11803   0.10325 -10.76811
 -14.15803  -0.13675 -10.76811
 -13.43803  -0.37675 -10.76811
 -12.71803  -0.37675 -10.76811
 -11.76803  -0.61675 -10.76811
 -11.04803  -0.85675 -10.76811
 -10.32803  -0.85675 -10.53811
  -9.36803  -0.85675 -10.53811
  -8.64803  -0.85675 -10.53811
  -7.92803  -1.09675 -10.53811
  -7.21803  -1.09675 -10.29811
  -6.25803  -1.09675 -10.29811
  -5.53803  -1.09675 -10.29811
  -4.81803  -0.85675 -10.29811
  -4.09803  -0.85675 -10.29811
  -3.37803  -1.09675 -10.29811
  -2.66803  -1.09675 -10.05811
  -1.94803  -0.85675 -10.29811
  -1.22803  -0.85675 -10.05811
  -0.50803  -0.85675  -9.81811
  -0.02803  -0.85675  -9.81811
   0.45197  -0.85675  -9.57811
   1.17197  -0.85675  -9.57811
   1.65197  -0.85675  -9.33811
   2.36197  -0.61675  -9.33811
   2.84197  -0.61675  -9.09811
   3.32197  -0.37675  -8.85811
   3.80197  -0.37675  -8.85811
   4.28197  -0.37675  -8.85811
   5.00197  -0.13675  -8.37811
   5.48197  -0.13675  -8.37811
   5.96197   0.10325  -8.13811
   6.68197   0.10325  -7.89811
   7.15197   0.34325  -7.65811
   7.87197   0.58325  -7.41811
   8.35197   0.58325  -7.41811
   9.07197   0.82325  -6.93811
   9.55197   0.82325  -6.69811
  10.27197   1.06325  -6.45811
  10.75197   1.06325  -6.21811
  11.47197   1.30325  -5.97811
  12.18197   1.30325  -5.74811
  12.90197   1.30325  -5.50811
  13.38197   1.30325  -5.26811
  14.10197   1.54325  -4.78811
  14.82197   1.54325  -4.78811
  15.30197   1.78325  -4.54811
  16.02197   1.78325  -4.30811
  16.50197   2.01325  -4.06811
  17.21197   2.01325  -3.82811
  17.69197   2.25325  -3.82811
  18.41197   2.25325  -3.82811
  18.89197   2.25325  -3.82811
  19.61197   2.49325  -3.82811
  20.33197   2.49325  -3.82811
  20.81197   2.49325  -3.82811
  21.29197   2.49325  -3.58811
  22.00197   2.49325  -3.58811
  22.48197   2.49325  -3.58811
  22.96197   2.49325  -3.58811
  23.44197   2.49325  -3.82811
  23.92197   2.25325  -3.82811
  24.16197   2.25325  -3.82811
  24.64197   2.25325  -4.06811
  24.88197   2.01325  -4.06811
  25.36197   2.01325  -4.30811
  25.60197   1.78325  -4.78811
  25.84197   1.78325  -4.78811
  26.31197   1.54325  -5.02811
  26.55197   1.54325  -5.26811
  26.79197   1.54325  -5.50811
  26.79197   1.30325  -5.50811
  27.03197   1.30325  -5.97811
  27.27197   1.30325  -5.97811
  27.51197   1.06325  -6.21811
  27.51197   1.06325  -6.45811
  27.75197   0.82325  -6.69811
  27.99197   0.82325  -6.93811
  27.99197   0.82325  -7.17811
  27.99197   0.82325  -7.41811
  28.23197   0.58325  -7.65811
  28.23197   0.58325  -7.89811
  28.47197   0.34325  -8.37811
  28.47197   0.34325  -8.61811
  28.47197   0.10325  -8.85811
  28.71197   0.10325  -9.09811
  28.71197  -0.13675  -9.09811
  28.71197  -0.13675  -9.33811
  28.71197  -0.13675  -9.33811
  28.71197  -0.37675  -9.57811
  28.95197  -0.13675  -9.57811
  28.71197  -0.13675  -9.81811
  28.95197  -0.13675  -9.81811
  28.95197  -0.37675  -9.81811
  28.95197  -0.13675  -9.81811
  28.95197  -0.13675 -10.05811
  28.95197  -0.13675  -9.81811
  28.95197  -0.13675  -9.81811
  28.95197  -0.13675  -9.57811
  28.95197   0.10325  -9.33811
  28.95197   0.10325  -9.33811
  28.71197   0.10325  -9.09811
  28.71197   0.10325  -8.61811
  28.71197   0.10325  -8.61811
  28.71197   0.10325  -8.13811
