********************************************************************************
              CENTRO DE INSTRUMENTACION Y REGISTRO SISMICO  A.C.

    Anaxagoras 814, Col. Narvarte, Benito Juarez, C.P. 03020 Mexico, D.F.
           Tels. 5687 45 42/ 5687 45  82             Fax. 5669 25 12
********************************************************************************
ARCHIVO ESTANDAR DE ACELERACION:
VERSION DEL FORMATO                    : 2.0
NOMBRE DEL ARCHIVO                     : AL0120090522192418
FECHA Y HORA DE CREACION               : 24/JUN/09, 01:39
REF. CATALOGO ACELEROGRAMAS, SMIS 1996 : REGISTRO No.     /PAG.


================================================================================
DATOS DE LA ESTACION:
NOMBRE DE LA ESTACION                  : ALAMEDA
CLAVE DE LA ESTACION                   : AL01
LOCALIZACION DE LA ESTACION            : Del. Cuauhtémoc, Col. Centro,          
                                       : Dr. Mora entre Av. Hidalgo             
                                       : y Av. Juárez.                          
                                       :                                        
                                       : 
COORDENADAS DE LA ESTACION             : 19.4356 LAT. N
                                       : 99.1453 LONG. W
ALTITUD (msnm)                         : 2232
TIPO DE SUELO                          : Terreno blando, material compresible
                                       : (arcillas)                
                                       : 
INSTITUCION RESPONSABLE                : CIRES
                                       : 

================================================================================
DATOS DEL ACELEROGRAFO:
MODELO DEL ACELEROGRAFO                : RADESD
NUMERO DE SERIE DEL ACELEROGRAFO       : 152
NUMERO DE CANALES                      : 3
ORIENTACION C1-C6 (rumbo;orientacion)  : /N00E/+V/N90W
ORIENTACION C7-C12 (rumbo;orientacion) : 
VEL. DE MUESTREO, C1-C6 (muestras/s)   : /100/100/100
VEL. DE MUESTREO, C7-C12 (muestras/s)  : 
ESC. COMPLETA DE SENSORES, C1-C6, (g)  : /0.5/0.5/0.5
ESC. COMPLETA DE SENSORES, C7-C12, (g) : 
FREC. NAT. DE SENSORES, C1-C6, (Hz)    : /51.29/51.09/53.75
FREC. NAT. DE SENSORES, C7-C12, (Hz)   : 
AMORTIGUAMIENTO DE SENSORES, C1-C6     : /0.5519/0.5670/0.5810
AMORTIGUAMIENTO DE SENSORES, C7-C12    : 
INTERVALO DE MUESTREO, C1-C6, (s)      : /0.01/0.01/0.01
INTERVALO DE MUESTREO, C7-C12, (s)     : 
UMBRAL DE DISPARO, C1-C6, (Gal)        : /0.72/1.44/0.72
UMBRAL DE DISPARO, C7-C12, (Gal)       : 
MEMORIA DE PREEVENTO (s)               : 56.0
TIEMPO DE POSEVENTO (s)                : 64.0


================================================================================
DATOS DEL SISMO:
FECHA DEL SISMO (GMT)                  : 22/MAY/09
HORA EPICENTRO (GMT)                   : 19:24:18.0
MAGNITUD(ES)                           : /Mc=5.7
COORDENADAS DEL EPICENTRO              : 18.13 LAT. N
                                       : 98.44 LONG. W
PROFUNDIDAD FOCAL (km)                 : 45
FUENTE DE LOS DATOS EPICENTRALES       : SSN
                                       : INSTITUTO DE GEOFISICA, UNAM

================================================================================
DATOS DE ESTE REGISTRO:
HORA DE LA PRIMERA MUESTRA (GMT)       : 19:24:46.00
EXACTITUD DEL TIEMPO (s)               : 0.01
DURACION DEL REGISTRO (s), C1-C6       : /248.25/248.25/248.25
DURACION DEL REGISTRO (s), C7-C12      : 
NUM. TOTAL DE MUESTRAS, C1-C6          : /24825/24825/24825
NUM. TOTAL DE MUESTRAS, C7-C12         : 
ACEL. MAX. (Gal), C1-C6                : /22.66559/9.67113/15.74937
ACEL. MAX., C1-C6, EN LA MUESTRA       : /7187/7709/7296
ACEL. MAX. (Gal), C7-C12               : 
ACEL. MAX., C7-C12, EN LA MUESTRA      : 
UNIDADES DE LOS DATOS                  : Gal (cm/s/s)
FACTOR DE DECIMACION                   : 1
FORMATO DATOS (FORTRAN,10 campos/dato) : 3F10.5


================================================================================
CALIDAD DEL ACELEROGRAMA:
REGISTRO DIGITAL COMPLETO CON TIEMPO ABSOLUTO CORRECTO.


================================================================================
COMENTARIOS:














================================================================================
DATOS DE ACELERACION:
---------+---------+---------+---------+---------+---------+---------+---------+
   CANAL-1   CANAL-2   CANAL-3   CANAL-4   CANAL-5   CANAL-6   CANAL-7   CANAL-8
      N00E        +V      N90W
---------+---------+---------+---------+---------+---------+---------+---------+
[...]
   0.07932   0.57316   0.53120
   0.31874   0.09432   1.01004
   0.31874   0.09432   1.01004
   0.55816   0.33374   1.01004
   0.79759   0.57316   0.77062
   1.27643   0.57316   1.01004
   1.03701   0.81258   1.01004
   1.27643   0.57316   1.48888
   1.03701   1.05200   0.77062
   1.03701   1.05200   0.77062
   1.03701   0.57316   0.77062
   1.27643   0.33374   0.53120
   1.03701   0.33374   0.29178
   1.27643   0.09432   0.29178
   1.27643   0.09432   0.05236
   1.27643   0.09432   0.05236
   1.51585  -0.14510   0.05236
   1.27643  -0.14510  -0.18706
   1.03701  -0.14510  -0.42648
   0.79759  -0.38452  -0.18706
   1.03701   0.09432  -0.42648
   0.79759  -0.14510  -0.42648
   0.79759   0.09432  -0.42648
   0.79759   0.09432  -0.66590
   0.79759   0.33374  -0.90532
   0.79759   0.09432  -0.66590
   0.79759   0.09432  -0.18706
   0.55816   0.09432   0.05236
   0.31874  -0.14510   0.05236
   0.31874  -0.14510   0.29178
   0.31874  -0.14510   0.53120
   0.31874   0.09432   0.53120
   0.07932   0.33374   0.53120
   0.31874   0.33374   0.53120
   0.31874   0.09432   0.53120
   0.31874   0.09432   0.77062
   0.31874  -0.14510   0.77062
   0.07932  -0.38452   0.53120
   0.07932  -0.86336   0.77062
   0.07932  -0.86336   0.53120
   0.07932  -0.86336   0.53120
   0.07932  -0.86336   0.77062
  -0.16010  -0.86336   0.29178
  -0.16010  -0.86336   0.29178
  -0.16010  -0.14510   0.05236
  -0.16010   0.09432  -0.18706
   0.31874   0.09432  -0.18706
   0.07932   0.57316  -0.66590
   0.07932   0.81258  -0.66590
   0.31874   0.81258  -0.66590
   0.07932   0.81258  -0.90532
   0.07932   0.57316  -0.90532
  -0.39952   0.81258  -0.90532
  -0.16010   0.33374  -0.66590
  -0.16010   0.09432  -0.90532
  -0.16010  -0.38452  -0.42648
   0.07932  -0.14510  -0.42648
   0.07932  -0.14510  -0.18706
  -0.16010   0.09432   0.05236
  -0.16010  -0.14510   0.05236
  -0.39952  -0.38452   0.05236
  -0.39952  -0.38452   0.29178
  -0.39952  -0.38452   0.29178
  -0.63894  -0.38452   0.53120
  -0.63894  -0.62394   0.77062
  -0.39952  -0.86336   0.77062
  -0.63894  -0.62394   0.77062
  -0.63894  -0.38452   0.77062
  -0.63894   0.09432   1.01004
  -0.16010   0.33374   1.01004
  -0.16010   0.09432   1.01004
   0.31874  -0.14510   1.01004
   0.31874  -0.14510   0.77062
   0.55816  -0.38452   0.77062
   0.31874  -0.14510   0.53120
   0.31874   0.09432   0.77062
   0.55816   0.33374   0.53120
   0.55816   0.33374   0.53120
   0.55816   0.33374   0.29178
   0.55816   0.09432   0.05236
   0.31874   0.09432   0.05236
   0.31874   0.33374  -0.18706
   0.07932   0.33374   0.05236
   0.07932   0.09432  -0.42648
  -0.16010  -0.14510  -0.66590
   0.07932  -0.14510  -0.66590
   0.07932  -0.38452  -0.66590
  -0.16010  -0.14510  -0.90532
  -0.63894  -0.14510  -0.90532
  -0.87836  -0.14510  -0.90532
  -0.87836  -0.38452  -0.66590
  -1.11778   0.09432  -0.90532
  -1.11778   0.57316  -0.90532
  -1.11778   0.81258  -0.66590
  -1.11778   0.57316  -0.66590
  -1.35720   0.09432  -0.66590
  -1.59662   0.09432  -0.42648
  -1.59662   0.09432  -0.66590
  -1.35720  -0.14510  -0.42648
  -1.59662  -0.62394  -0.66590
  -1.59662  -0.62394  -0.42648
  -1.11778  -0.62394  -0.18706
  -0.87836  -0.62394  -0.18706
  -0.63894  -0.62394   0.05236
  -0.39952  -0.62394   0.29178
  -0.39952  -0.38452   0.29178
  -0.39952  -0.38452   0.29178
   0.07932  -0.14510   0.29178
   0.31874  -0.14510   0.29178
   0.55816   0.09432   0.29178
   0.55816   0.09432   0.05236
   0.55816   0.09432  -0.18706
   0.31874   0.09432  -0.18706
   0.55816  -0.14510  -0.42648
   0.55816  -0.38452  -0.66590
   0.07932  -0.14510  -0.66590
   0.07932  -0.14510  -0.66590
   0.31874  -0.38452  -0.66590
   0.07932  -0.38452  -0.66590
  -0.16010  -0.38452  -0.66590
  -0.16010  -0.14510  -0.18706
  -0.16010   0.09432  -0.18706
  -0.16010  -0.14510  -0.42648
  -0.16010   0.09432  -0.42648
  -0.39952   0.81258  -0.42648
  -0.16010   0.81258  -0.18706
  -0.16010   0.81258  -0.18706
  -0.39952   0.81258  -0.18706
   0.07932   0.81258   0.05236
  -0.16010   1.05200   0.05236
   0.07932   1.05200   0.53120
   0.07932   1.05200   0.53120
  -0.16010   0.81258   0.53120
   0.31874   0.33374   0.29178
   0.55816   0.09432   0.05236
   0.31874   0.09432   0.05236
   0.55816   0.33374   0.29178
   0.31874   0.09432   0.05236
   0.55816  -0.38452   0.29178
   0.55816  -0.62394   0.05236
   0.55816  -0.86336   0.05236
   0.55816  -0.86336   0.05236
   0.31874  -1.10278  -0.18706
   0.79759  -1.58162   0.05236
   0.55816  -1.82104   0.05236
   0.31874  -1.82104   0.05236
   0.31874  -1.58162   0.05236
   0.07932  -1.10278   0.05236
   0.07932  -1.10278   0.29178
  -0.16010  -0.62394   0.29178
  -0.16010  -0.38452   0.29178
  -0.16010   0.33374   0.29178
   0.07932   0.33374   0.05236
  -0.16010   0.57316   0.05236
  -0.39952   0.57316  -0.42648
  -0.39952   0.33374  -0.18706
  -0.39952   0.09432  -0.66590
  -0.39952  -0.38452  -0.66590
  -0.16010  -0.62394  -0.42648
  -0.39952  -0.38452  -0.90532
  -0.63894  -0.14510  -0.90532
  -0.39952   0.33374  -0.90532
  -0.63894   1.05200  -0.90532
  -0.63894   1.53084  -0.66590
  -0.63894   2.24910  -1.14474
  -0.63894   2.00968  -1.14474
  -0.63894   2.00968  -1.38416
  -0.87836   2.00968  -1.38416
  -1.35720   1.53084  -1.38416
  -1.35720   1.05200  -1.38416
  -1.35720   0.57316  -1.62358
  -1.35720   0.09432  -1.86300
  -1.59662  -0.38452  -1.86300
  -1.59662  -0.86336  -2.10242
  -1.59662  -1.34220  -2.10242
  -1.83604  -0.86336  -2.34184
  -1.59662  -0.62394  -2.34184
  -1.83604  -0.14510  -2.58126
  -2.07546   0.09432  -2.34184
  -2.31488   0.33374  -2.58126
  -2.55430   0.09432  -2.34184
  -2.55430  -0.14510  -2.10242
  -2.55430  -0.86336  -1.86300
  -2.31488  -1.34220  -1.62358
  -2.07546  -1.82104  -1.14474
  -2.07546  -1.82104  -0.42648
  -2.07546  -1.58162   0.05236
  -1.59662  -1.34220   0.77062
  -1.11778  -0.86336   1.72830
  -1.11778  -0.62394   2.44656
  -0.39952  -0.14510   3.64366
  -0.16010   0.33374   4.12250
   0.55816   0.09432   4.60134
   0.79759   0.09432   5.31960
   1.27643  -0.14510   5.79844
   1.75527  -0.14510   6.27728
   2.23411  -0.14510   6.75612
   2.47353  -0.14510   6.51670
   3.19179   0.09432   6.99554
   3.67063   0.33374   6.99554
   4.14947   0.33374   6.51670
   4.38889   0.09432   5.79844
   4.38889   0.09432   4.84076
   4.62831  -0.38452   4.12250
   4.38889  -0.86336   2.68598
   4.14947  -1.34220   1.48888
   3.91005  -1.10278   0.53120
   3.67063  -1.34220  -0.90532
   3.19179  -0.86336  -1.86300
   2.71295  -0.86336  -2.82068
   1.75527  -0.62394  -3.53894
   1.75527  -0.62394  -4.01778
   0.79759  -0.62394  -4.49662
   0.07932  -0.62394  -4.49662
  -0.63894  -0.38452  -4.49662
  -1.11778  -0.14510  -4.25720
  -1.35720   0.09432  -4.25720
  -1.83604   0.57316  -4.01778
  -2.07546   0.81258  -3.29952
  -2.31488   1.05200  -3.29952
  -2.31488   1.29142  -2.34184
  -2.79372   1.77026  -2.10242
  -3.03314   2.48852  -1.38416
  -3.27256   2.24910  -0.90532
  -3.27256   2.00968  -0.18706
  -3.27256   1.29142   0.29178
  -3.27256   1.05200   0.53120
  -3.03314   0.81258   1.01004
  -3.75140   0.57316   1.01004
  -3.99082   0.57316   0.77062
  -4.23024   0.57316   0.29178
  -4.70908   0.81258   0.29178
  -4.70908   0.81258  -0.18706
  -4.70908   0.57316  -0.18706
  -4.70908   0.33374   0.05236
  -4.70908   0.09432  -0.18706
  -4.94850   0.09432   0.29178
  -4.46966  -0.14510   0.29178
  -3.99082  -0.14510   0.53120
  -3.27256   0.09432   1.01004
  -2.31488   0.33374   1.72830
  -0.87836   0.57316   2.44656
   0.31874   1.29142   3.40424
   1.99469   1.05200   4.84076
   3.19179   0.57316   6.03786
   4.86773   0.09432   7.47438
   6.30425  -0.62394   8.91091
   7.50135  -1.10278  10.34743
   8.93787  -1.58162  11.78395
   9.89555  -1.58162  12.50221
  11.09265  -1.34220  13.22047
  11.33207  -1.10278  13.45989
  12.28975  -0.86336  13.22047
  12.52917   0.09432  12.50221
  12.05033   0.81258  11.30511
  11.81091   0.81258   9.86859
  11.33207   1.05200   8.19264
  10.37439   0.57316   6.51670
   9.65613   0.09432   4.84076
   8.45903  -0.38452   2.92540
   7.50135  -1.10278   1.24946
   6.06483  -1.58162  -0.66590
   4.86773  -1.58162  -2.10242
   3.43121  -1.58162  -3.77836
   1.99469  -0.86336  -4.49662
   0.55816  -0.62394  -5.69372
  -0.63894  -0.86336  -6.17257
  -2.31488  -1.10278  -6.17257
  -3.75140  -1.10278  -6.17257
  -4.23024  -1.10278  -5.69372
  -4.94850  -0.86336  -5.45430
  -5.66676  -0.86336  -4.97546
  -5.18792  -0.62394  -4.25720
  -5.42734  -0.14510  -3.53894
  -5.18792   0.09432  -3.06010
  -4.94850   0.57316  -2.58126
  -4.94850   1.05200  -2.10242
  -5.18792   1.05200  -2.10242
  -5.18792   1.29142  -2.10242
  -4.70908   1.05200  -2.10242
  -4.70908   1.05200  -2.34184
  -4.46966   1.05200  -2.82068
  -4.46966   1.05200  -3.29952
  -4.70908   0.57316  -4.25720
  -4.70908   0.33374  -5.45430
  -4.94850   0.57316  -6.65141
  -4.94850   0.33374  -7.60909
  -4.70908   0.57316  -8.56677
  -4.70908   0.57316  -9.76387
  -4.46966   0.81258 -10.72155
  -4.23024   0.57316 -11.91865
  -3.75140   0.81258 -12.63691
  -3.51198   0.57316 -13.35517
  -3.51198   0.57316 -13.59459
  -2.79372   0.57316 -13.59459
  -2.31488   0.81258 -13.59459
  -1.11778   0.81258 -12.87633
  -0.16010   0.57316 -12.15807
   1.03701   0.33374 -11.43981
   1.99469   0.09432 -10.00329
   2.95237   0.09432  -9.04561
   3.91005   0.09432  -7.60909
   4.86773   0.09432  -6.41199
   5.82541   0.09432  -5.45430
   7.02251   0.57316  -4.25720
   7.98019   0.57316  -3.29952
   8.45903   0.57316  -3.06010
   9.65613   0.09432  -3.06010
  10.61381  -0.38452  -3.06010
  11.57149  -0.86336  -3.29952
  12.28975  -1.10278  -3.77836
  13.00801  -1.34220  -4.01778
  13.72627  -0.86336  -4.49662
  14.20511  -0.62394  -5.21488
  14.44453  -0.62394  -5.45430
  14.44453  -0.14510  -5.93315
  13.96569   0.09432  -6.17257
  13.96569  -0.14510  -6.17257
  13.24743  -0.14510  -6.65141
  12.28975  -0.14510  -6.65141
  11.09265  -0.38452  -6.65141
  10.13497  -0.62394  -6.17257
   8.93787  -1.10278  -5.69372
   7.50135  -1.58162  -4.97546
   6.54367  -1.82104  -4.25720
   5.10715  -2.06046  -3.06010
   4.14947  -2.06046  -1.86300
   2.47353  -2.06046  -0.42648
   1.51585  -2.29988   1.01004
   0.55816  -1.58162   2.68598
  -0.87836  -1.10278   4.36192
  -2.07546  -1.34220   5.79844
  -3.51198  -0.86336   6.99554
  -5.18792  -0.38452   8.19264
  -7.34270   0.33374   8.91091
  -9.01864   0.81258   9.62917
 -10.69458   1.53084  10.34743
 -12.60994   2.24910  10.58685
 -14.28589   2.96736  10.58685
 -16.20125   3.20678  10.58685
 -17.15893   3.92504  10.34743
 -18.83487   4.16446   9.62917
 -19.79255   4.64330   9.38975
 -20.98965   4.64330   9.15033
 -21.94733   5.36157   9.15033
 -22.42617   5.12214   9.15033
 -22.66559   4.88272   9.38975
 -21.94733   4.40388   9.62917
 -21.46849   3.92504   9.86859
 -20.27139   3.44620  10.10801
 -18.83487   2.96736  10.10801
 -16.91951   2.48852  10.34743
 -14.76473   1.77026  10.34743
 -12.60994   1.29142  10.34743
 -10.69458   0.33374  10.10801
  -8.53980  -0.62394   9.38975
  -6.62444  -2.06046   8.67148
  -5.18792  -2.53930   8.19264
  -3.51198  -3.73640   7.71380
  -1.83604  -4.21524   6.99554
  -0.63894  -4.69408   6.27728
   1.03701  -4.69408   5.79844
   1.99469  -5.17292   5.08018
   2.95237  -5.65176   3.88308
   3.91005  -5.65176   3.16482
   4.14947  -5.41234   2.68598
   4.14947  -4.93350   1.48888
   4.14947  -3.97582   0.77062
   3.91005  -3.25756   0.05236
   2.95237  -2.77872  -0.42648
   1.99469  -2.06046   0.05236
   0.79759  -1.82104   0.05236
  -0.16010  -1.34220   1.01004
  -1.11778  -1.34220   1.48888
  -1.83604  -0.86336   1.96772
  -2.31488  -0.62394   2.44656
  -3.27256  -0.14510   3.16482
  -3.75140   0.33374   4.12250
  -3.75140   0.09432   4.84076
  -3.75140   0.57316   5.55902
  -3.75140   0.57316   6.03786
  -3.27256   0.81258   6.75612
  -2.79372   0.81258   7.71380
  -2.31488   1.29142   8.91091
  -1.59662   1.77026   9.62917
  -1.11778   2.48852  10.34743
  -1.11778   3.20678  10.58685
  -0.63894   3.44620  10.82627
   0.07932   3.68562  10.82627
   0.79759   3.20678   9.38975
   1.51585   2.96736   8.43206
   2.47353   2.00968   6.75612
   2.95237   1.77026   5.08018
   3.43121   1.05200   3.16482
   3.91005   1.29142   1.96772
   3.91005   1.53084   0.29178
   4.62831   1.77026  -0.66590
   5.10715   1.77026  -1.62358
   5.82541   2.00968  -2.10242
   6.54367   1.77026  -2.58126
   7.26193   1.77026  -2.82068
   7.98019   1.29142  -2.82068
   8.45903   0.81258  -2.58126
   8.93787   0.57316  -2.10242
   9.65613   0.33374  -1.86300
   9.89555   0.09432  -2.10242
   9.89555  -0.14510  -1.38416
   9.65613  -1.34220  -1.38416
   9.65613  -2.29988  -1.14474
   9.17729  -3.01814  -1.14474
   7.98019  -3.73640  -1.38416
   7.98019  -3.73640  -2.10242
   7.26193  -3.49698  -3.29952
   6.78309  -3.01814  -4.25720
   5.82541  -2.53930  -5.69372
   4.86773  -2.06046  -6.89083
   4.38889  -1.34220  -7.84851
   2.95237  -0.86336  -8.80619
   2.23411  -0.86336  -9.52445
   1.03701  -1.34220 -10.24271
  -0.16010  -1.10278 -10.72155
  -1.11778  -1.34220 -10.96097
  -2.31488  -1.34220 -10.96097
  -3.03314  -0.86336 -10.96097
  -3.99082  -0.14510 -10.48213
  -4.70908   0.57316 -10.00329
  -4.94850   1.53084  -9.04561
  -4.94850   2.00968  -8.08793
  -5.18792   2.00968  -6.89083
  -5.18792   2.00968  -5.93315
  -4.70908   1.77026  -4.01778
  -3.99082   1.53084  -2.10242
  -3.03314   1.29142  -0.66590
  -2.07546   1.29142   0.53120
  -1.35720   1.53084   1.96772
  -0.39952   1.53084   2.92540
   0.55816   1.77026   3.88308
   0.79759   2.24910   4.36192
   1.27643   2.24910   5.08018
   1.27643   2.48852   5.08018
   1.51585   2.24910   5.08018
   1.75527   1.53084   4.60134
   1.99469   0.81258   3.64366
   2.23411   0.09432   2.44656
   1.99469  -0.38452   0.77062
   2.23411  -0.62394  -1.14474
   1.99469  -0.62394  -3.29952
   1.99469  -0.62394  -5.45430
   1.75527  -1.10278  -7.84851
   1.51585  -2.06046  -9.52445
   1.27643  -2.53930 -10.96097
   0.79759  -2.77872 -12.63691
  -0.16010  -3.01814 -13.83401
  -0.63894  -3.25756 -14.79169
  -0.87836  -3.49698 -15.50995
  -1.11778  -3.25756 -15.74937
  -1.59662  -2.77872 -15.74937
  -1.83604  -2.29988 -15.27053
  -2.07546  -2.29988 -14.79169
  -2.55430  -2.29988 -14.07343
  -2.79372  -2.53930 -13.59459
  -2.55430  -2.29988 -12.63691
  -2.07546  -2.06046 -11.67923
  -1.35720  -2.06046 -10.24271
  -0.16010  -2.06046  -8.56677
   1.27643  -2.53930  -6.65141
   2.23411  -2.53930  -4.49662
   2.95237  -2.29988  -2.58126
   3.91005  -2.77872  -0.90532
   5.34657  -3.01814   0.77062
   6.30425  -3.49698   2.20714
   7.50135  -3.25756   3.16482
   8.45903  -3.25756   3.88308
   9.17729  -2.53930   4.36192
   9.17729  -1.82104   4.36192
   9.41671  -0.62394   4.84076
   9.41671   0.09432   4.84076
   9.17729   1.53084   4.84076
   8.69845   2.48852   5.08018
   8.21961   3.68562   5.55902
   7.50135   4.40388   5.55902
   6.54367   5.12214   5.55902
   5.58599   5.84041   5.31960
   4.38889   6.31925   5.08018
   3.19179   6.55867   4.84076
   2.23411   6.55867   4.60134
   0.79759   6.55867   4.36192
  -0.16010   6.07983   4.36192
  -1.59662   5.36157   4.12250
  -2.79372   4.40388   3.88308
  -3.51198   3.68562   3.40424
  -4.23024   3.44620   2.68598
  -4.94850   2.96736   1.96772
  -5.18792   2.96736   1.01004
  -5.66676   2.96736   0.05236
  -5.66676   3.20678  -0.90532
