********************************************************************************
              CENTRO DE INSTRUMENTACION Y REGISTRO SISMICO  A.C.

    Anaxagoras 814, Col. Narvarte, Benito Juarez, C.P. 03020 Mexico, D.F.
           Tels. 5687 45 42/ 5687 45  82             Fax. 5669 25 12
********************************************************************************
ARCHIVO ESTANDAR DE ACELERACION:
VERSION DEL FORMATO                    : 2.0
NOMBRE DEL ARCHIVO                     : AL0120140729104614
FECHA Y HORA DE CREACION               : 29/JUL/14, 09:40
REF. CATALOGO ACELEROGRAMAS, SMIS 1996 : REGISTRO No.     /PAG.


================================================================================
DATOS DE LA ESTACION:
NOMBRE DE LA ESTACION                  : ALAMEDA
CLAVE DE LA ESTACION                   : AL01
LOCALIZACION DE LA ESTACION            : Del. Cuauhtémoc, Col. Centro,          
                                       : Dr. Mora entre Av. Hidalgo             
                                       : y Av. Juárez.                          
                                       :                                        
                                       : 
COORDENADAS DE LA ESTACION             : 19.4356 LAT. N
                                       : 99.1453 LONG. W
ALTITUD (msnm)                         : 2232
TIPO DE SUELO                          : Terreno blando, material compresible
                                       : (arcillas)                
                                       : 
INSTITUCION RESPONSABLE                : CIRES
                                       : 

================================================================================
DATOS DEL ACELEROGRAFO:
MODELO DEL ACELEROGRAFO                : RADESD
NUMERO DE SERIE DEL ACELEROGRAFO       : 152
NUMERO DE CANALES                      : 3
ORIENTACION C1-C6 (rumbo;orientacion)  : /S00E/+V/N90W
ORIENTACION C7-C12 (rumbo;orientacion) : 
VEL. DE MUESTREO, C1-C6 (muestras/s)   : /100/100/100
VEL. DE MUESTREO, C7-C12 (muestras/s)  : 
ESC. COMPLETA DE SENSORES, C1-C6, (g)  : /0.5/0.5/0.5
ESC. COMPLETA DE SENSORES, C7-C12, (g) : 
FREC. NAT. DE SENSORES, C1-C6, (Hz)    : /51.29/51.09/53.75
FREC. NAT. DE SENSORES, C7-C12, (Hz)   : 
AMORTIGUAMIENTO DE SENSORES, C1-C6     : /0.5519/0.5670/0.5810
AMORTIGUAMIENTO DE SENSORES, C7-C12    : 
INTERVALO DE MUESTREO, C1-C6, (s)      : /0.01/0.01/0.01
INTERVALO DE MUESTREO, C7-C12, (s)     : 
UMBRAL DE DISPARO, C1-C6, (Gal)        : /0.9/1.8/0.9
UMBRAL DE DISPARO, C7-C12, (Gal)       : 
MEMORIA DE PREEVENTO (s)               : 44.0
TIEMPO DE POSEVENTO (s)                : 64.0


================================================================================
DATOS DEL SISMO:
FECHA DEL SISMO (GMT)                  : 29/JUL/14
HORA EPICENTRO (GMT)                   : 10:46:14.0
MAGNITUD(ES)                           : /Mc=6.4
COORDENADAS DEL EPICENTRO              : 17.63 LAT. N
                                       : 95.66 LONG. W
PROFUNDIDAD FOCAL (km)                 : 131
FUENTE DE LOS DATOS EPICENTRALES       : SSN
                                       : INSTITUTO DE GEOFISICA, UNAM

================================================================================
DATOS DE ESTE REGISTRO:
HORA DE LA PRIMERA MUESTRA (GMT)       : 10:47:52.00
EXACTITUD DEL TIEMPO (s)               : 0.01
DURACION DEL REGISTRO (s), C1-C6       : /216.0/216.0/216.0
DURACION DEL REGISTRO (s), C7-C12      : 
NUM. TOTAL DE MUESTRAS, C1-C6          : /21600/21600/21600
NUM. TOTAL DE MUESTRAS, C7-C12         : 
ACEL. MAX. (Gal), C1-C6                : /3.36138/2.32818/3.97956
ACEL. MAX., C1-C6, EN LA MUESTRA       : /6265/8149/7946
ACEL. MAX. (Gal), C7-C12               : 
ACEL. MAX., C7-C12, EN LA MUESTRA      : 
UNIDADES DE LOS DATOS                  : Gal (cm/s/s)
FACTOR DE DECIMACION                   : 1
FORMATO DATOS (FORTRAN,10 campos/dato) : 3F10.5


================================================================================
CALIDAD DEL ACELEROGRAMA:
REGISTRO DIGITAL COMPLETO CON TIEMPO ABSOLUTO CORRECTO.


================================================================================
COMENTARIOS:














================================================================================
DATOS DE ACELERACION:
---------+---------+---------+---------+---------+---------+---------+---------+
   CANAL-1   CANAL-2   CANAL-3   CANAL-4   CANAL-5   CANAL-6   CANAL-7   CANAL-8
      S00E        +V      N90W
---------+---------+---------+---------+---------+---------+---------+---------+
[...]
   0.95221  -0.45508   0.50957
   1.01207  -0.42516   0.37489
   1.02703  -0.66458   0.44971
   1.05696  -0.61968   0.41978
   1.02703  -0.70947   0.43475
   1.04200  -0.82918   0.35993
   1.02703  -0.72443   0.33000
   0.90732  -0.76932   0.22526
   0.92229  -0.67954   0.13547
   0.93725  -0.61968   0.13547
   0.81754  -0.54487  -0.14884
   0.71279  -0.49997  -0.35833
   0.65294  -0.39523  -0.49301
   0.57812  -0.20070  -0.77732
   0.53323  -0.24559  -0.80724
   0.44345  -0.27552  -1.04666
   0.36863  -0.02113  -1.15141
   0.29381  -0.02113  -1.18134
   0.20403   0.12850  -1.40579
   0.14417   0.12850  -1.31601
   0.11424   0.15843  -1.49558
   0.11424   0.41281  -1.57040
   0.17410   0.45771  -1.49558
   0.24892   0.57742  -1.42076
   0.17410   0.57742  -1.48061
   0.26388   0.84676  -1.34594
   0.24892   0.89166  -1.21127
   0.24892   1.08618  -1.25616
   0.24892   1.04129  -1.01674
   0.20403   0.99640  -1.07659
   0.18906   1.07122  -1.01674
   0.14417   1.10115  -0.80724
   0.06935   1.01137  -0.79228
  -0.00547   0.98144  -0.76235
  -0.08028   0.75698  -0.70250
  -0.17007   0.75698  -0.62768
  -0.34963   0.80187  -0.47804
  -0.43941   0.65223  -0.41819
  -0.48431   0.53252  -0.34337
  -0.64891   0.39785  -0.26855
  -0.70876   0.21829  -0.17877
  -0.81351   0.18836  -0.19373
  -0.94818   0.03872  -0.02913
  -1.03797  -0.05106   0.04569
  -1.14271  -0.21566   0.07562
  -1.24746  -0.14084   0.25518
  -1.29235  -0.15581   0.30007
  -1.21753  -0.11092   0.43475
  -1.20257  -0.20070   0.62928
  -1.14271  -0.33537   0.59935
  -1.08286  -0.24559   0.64424
  -1.09782  -0.41019   0.77891
  -0.94818  -0.41019   0.85373
  -0.85840  -0.41019   0.83877
  -0.69380  -0.41019   0.80884
  -0.48431  -0.48501   0.88366
  -0.39452  -0.52990   0.71906
  -0.25985  -0.55983   0.53949
  -0.12518  -0.67954   0.43475
   0.00950  -0.60472   0.38986
   0.12921  -0.64961   0.19533
   0.36863  -0.61968   0.06065
   0.53323  -0.66458  -0.07402
   0.56316  -0.66458  -0.32840
   0.69783  -0.63465  -0.47804
   0.89236  -0.67954  -0.64264
   1.01207  -0.72443  -0.86710
   1.05696  -0.64961  -1.07659
   1.11682  -0.64961  -1.21127
   1.07192  -0.63465  -1.43572
   1.08689  -0.54487  -1.49558
   1.02703  -0.51494  -1.69011
   0.99711  -0.36530  -1.72003
   0.89236  -0.30545  -1.83974
   0.78761  -0.27552  -1.85471
   0.68287  -0.15581  -1.83974
   0.66790  -0.06603  -1.95945
   0.48834  -0.00617  -1.89960
   0.44345   0.00879  -1.97442
   0.27885  -0.00617  -1.95945
   0.14417   0.08361  -1.79485
  -0.03539   0.17339  -1.85471
  -0.09525   0.17339  -1.76492
  -0.24489   0.20332  -1.72003
  -0.31970   0.21829  -1.58536
  -0.36460   0.24821  -1.60032
  -0.45438   0.27814  -1.54047
  -0.57409   0.17339  -1.40579
  -0.57409   0.14347  -1.27112
  -0.58905   0.03872  -1.19630
  -0.60402   0.06865  -1.07659
  -0.64891  -0.03610  -1.00177
  -0.72373  -0.26055  -1.03170
  -0.75365  -0.15581  -0.98681
  -0.81351  -0.24559  -0.79228
  -0.75365  -0.27552  -0.73243
  -0.78358  -0.36530  -0.68753
  -0.73869  -0.52990  -0.49301
  -0.76862  -0.48501  -0.47804
  -0.75365  -0.49997  -0.28351
  -0.69380  -0.54487  -0.29848
  -0.63394  -0.45508  -0.17877
  -0.55913  -0.47005   0.01576
  -0.55913  -0.58976   0.24022
  -0.57409  -0.47005   0.38986
  -0.45438  -0.47005   0.68913
  -0.49927  -0.54487   0.77891
  -0.49927  -0.47005   0.98841
  -0.55913  -0.41019   1.28768
  -0.63394  -0.45508   1.40739
  -0.60402  -0.39523   1.55703
  -0.64891  -0.29048   1.69170
  -0.67884  -0.21566   1.85631
  -0.61898  -0.15581   1.93112
  -0.67884  -0.14084   2.02091
  -0.75365  -0.06603   1.99098
  -0.70876   0.06865   1.96105
  -0.64891   0.03872   2.11069
  -0.76862   0.26318   1.96105
  -0.67884   0.30807   1.96105
  -0.63394   0.41281   1.94609
  -0.58905   0.48763   1.81141
  -0.58905   0.48763   1.76652
  -0.58905   0.59238   1.48221
  -0.52920   0.59238   1.37746
  -0.48431   0.62231   1.24279
  -0.46934   0.65223   1.01833
  -0.46934   0.72705   0.98841
  -0.43941   0.60734   0.83877
  -0.39452   0.80187   0.67417
  -0.43941   0.72705   0.56942
  -0.31970   0.78691   0.41978
  -0.33467   0.77195   0.30007
  -0.28978   0.62231   0.10555
  -0.19999   0.63727  -0.01417
  -0.08028   0.72705  -0.08898
   0.00950   0.57742  -0.22366
   0.09928   0.48763  -0.44811
   0.17410   0.33800  -0.58279
   0.29381   0.26318  -0.59775
   0.54819   0.18836  -0.61272
   0.65294   0.06865  -0.71746
   0.75769  -0.05106  -0.70250
   0.86243  -0.15581  -0.71746
   1.05696  -0.26055  -0.61272
   1.20660  -0.32041  -0.62768
   1.32631  -0.39523  -0.37330
   1.38616  -0.49997  -0.37330
   1.46098  -0.60472  -0.16380
   1.65551  -0.64961   8.0E-40
   1.68544  -0.76932   0.41978
   1.80515  -0.79925   0.52453
   1.87997  -0.76932   0.86870
   1.98471  -0.84414   1.10812
   2.08946  -0.91896   1.48221
   2.17924  -0.84414   1.76652
   2.23910  -0.79925   1.94609
   2.40370  -0.75436   2.23040
   2.46355  -0.75436   2.38004
   2.59823  -0.72443   2.67931
   2.46355  -0.63465   2.81399
   2.59823  -0.48501   3.02348
   2.56830  -0.42516   3.18808
   2.47852  -0.27552   3.24793
   2.43363  -0.11092   3.20304
   2.46355  -0.03610   3.21801
   2.34384   0.09858   3.06837
   2.29895   0.05368   3.06837
   2.17924   0.14347   2.94866
   2.07450   0.24821   2.91873
   1.95479   0.33800   2.82895
   1.82011   0.41281   2.70924
   1.65551   0.42778   2.49975
   1.55077   0.45771   2.33515
   1.38616   0.54749   2.14062
   1.26645   0.59238   1.94609
   1.13178   0.60734   1.69170
   0.98214   0.59238   1.46725
   0.92229   0.54749   1.22783
   0.77265   0.50260   0.95848
   0.71279   0.56245   0.73402
   0.56316   0.59238   0.44971
   0.44345   0.54749   0.12051
   0.44345   0.53252  -0.13388
   0.33870   0.42778  -0.52293
   0.30877   0.51756  -0.73243
   0.15914   0.39785  -1.03170
   0.09928   0.42778  -1.31601
   0.06935   0.36792  -1.61529
  -0.08028   0.44274  -1.79485
  -0.18503   0.39785  -1.97442
  -0.27481   0.27814  -2.24377
  -0.27481   0.35296  -2.27369
  -0.40949   0.26318  -2.48319
  -0.54416   0.39785  -2.57297
  -0.54416   0.17339  -2.60290
  -0.58905   0.09858  -2.67771
  -0.66387   0.17339  -2.79742
  -0.63394   0.09858  -2.72261
  -0.69380   0.05368  -2.67771
  -0.69380  -0.03610  -2.82735
  -0.64891   0.02376  -2.60290
  -0.73869  -0.05106  -2.73757
  -0.75365  -0.05106  -2.54304
  -0.70876  -0.11092  -2.54304
  -0.72373  -0.11092  -2.43829
  -0.67884  -0.15581  -2.28866
  -0.66387  -0.15581  -2.13902
  -0.67884  -0.12588  -1.92953
  -0.58905  -0.15581  -1.83974
  -0.55913  -0.18574  -1.69011
  -0.67884  -0.18574  -1.61529
  -0.66387  -0.17077  -1.48061
  -0.57409  -0.14084  -1.16637
  -0.63394  -0.23063  -1.24119
  -0.69380  -0.26055  -0.98681
  -0.63394  -0.26055  -0.86710
  -0.61898  -0.12588  -0.80724
  -0.55913  -0.12588  -0.61272
  -0.57409  -0.08099  -0.62768
  -0.48431  -0.18574  -0.58279
  -0.49927  -0.06603  -0.50797
  -0.43941  -0.11092  -0.32840
  -0.51423  -0.17077  -0.34337
  -0.52920  -0.23063  -0.38826
  -0.49927  -0.27552  -0.26855
  -0.61898  -0.38026  -0.41819
  -0.69380  -0.39523  -0.29848
  -0.69380  -0.47005  -0.37330
  -0.76862  -0.48501  -0.49301
  -0.78358  -0.60472  -0.40322
  -0.87336  -0.67954  -0.44811
  -0.85840  -0.73939  -0.34337
  -0.88833  -0.67954  -0.50797
  -0.87336  -0.70947  -0.28351
  -0.88833  -0.72443  -0.26855
  -0.90329  -0.70947  -0.32840
  -0.97811  -0.79925  -0.26855
  -1.02300  -0.69450  -0.17877
  -1.02300  -0.60472  -0.11891
  -0.93322  -0.55983  -0.10395
  -0.97811  -0.39523  -0.05906
  -0.85840  -0.21566   0.04569
  -0.82847  -0.12588  -0.05906
  -0.84344   0.00879  -0.04409
  -0.79855   0.24821  -0.08898
  -0.66387   0.23325  -0.10395
  -0.60402   0.29310  -0.22366
  -0.54416   0.36792  -0.13388
  -0.54416   0.47267  -0.26855
  -0.45438   0.53252  -0.26855
  -0.45438   0.62231  -0.35833
  -0.33467   0.59238  -0.41819
  -0.40949   0.59238  -0.53790
  -0.30474   0.69713  -0.47804
  -0.28978   0.68216  -0.59775
  -0.27481   0.71209  -0.58279
  -0.19999   0.77195  -0.62768
  -0.18503   0.80187  -0.70250
  -0.18503   0.78691  -0.70250
  -0.18503   0.72705  -0.76235
  -0.19999   0.81684  -0.71746
  -0.17007   0.84676  -0.74739
  -0.21496   0.90662  -0.61272
  -0.27481   0.84676  -0.76235
  -0.25985   0.80187  -0.67257
  -0.28978   0.83180  -0.70250
  -0.27481   0.66720  -0.67257
  -0.40949   0.69713  -0.68753
  -0.45438   0.75698  -0.70250
  -0.55913   0.57742  -0.73243
  -0.64891   0.59238  -0.67257
  -0.70876   0.48763  -0.64264
  -0.81351   0.48763  -0.55286
  -0.93322   0.42778  -0.44811
  -1.03797   0.51756  -0.32840
  -1.08286   0.47267  -0.23862
  -1.15768   0.30807  -0.10395
  -1.23249   0.39785   0.01576
  -1.21753   0.29310   0.22526
  -1.21753   0.23325   0.33000
  -1.17264   0.23325   0.50957
  -1.14271   0.17339   0.70410
  -1.02300   0.12850   0.85373
  -1.00804   0.09858   0.86870
  -0.90329   0.02376   1.10812
  -0.76862  -0.03610   1.16797
  -0.63394  -0.12588   1.43732
  -0.58905  -0.23063   1.45228
  -0.43941  -0.26055   1.51214
  -0.34963  -0.33537   1.60192
  -0.18503  -0.44012   1.61688
  -0.03539  -0.52990   1.78149
   0.14417  -0.60472   1.69170
   0.32374  -0.70947   1.81141
   0.50330  -0.97881   1.87127
   0.63798  -0.99378   1.97602
   0.86243  -1.15838   1.99098
   0.92229  -1.30802   1.94609
   1.08689  -1.33795   1.93112
   1.28142  -1.48758   2.14062
   1.35624  -1.54744   2.12565
   1.44602  -1.63722   2.18551
   1.49091  -1.66715   2.12565
   1.61062  -1.75693   2.27529
   1.58069  -1.71204   2.42493
   1.46098  -1.69708   2.43989
   1.50587  -1.62226   2.49975
   1.44602  -1.57737   2.60449
   1.41609  -1.54744   2.73917
   1.31134  -1.62226   2.75413
   1.20660  -1.62226   2.94866
   1.16171  -1.53247   3.11326
   0.96718  -1.45766   3.12822
   0.80258  -1.29305   3.21801
   0.78761  -1.00874   3.24793
   0.62301  -0.99378   3.27786
   0.48834  -0.81421   3.38261
   0.30877  -0.63465   3.32275
   0.08432  -0.36530   3.23297
   0.02446  -0.15581   3.15815
  -0.18503   0.06865   2.96362
  -0.36460   0.27814   2.91873
  -0.58905   0.42778   2.64938
  -0.64891   0.69713   2.48478
  -0.76862   0.93655   2.11069
  -0.91826   1.11611   1.85631
  -1.02300   1.29568   1.52710
  -1.15768   1.44531   1.13804
  -1.23249   1.44531   0.68913
  -1.33724   1.62488   0.38986
  -1.45695   1.69970  -0.05906
  -1.54673   1.87926  -0.56782
  -1.62155   1.87926  -0.94192
  -1.65148   1.98401  -1.36090
  -1.66644   2.04386  -1.76492
  -1.71133   2.11868  -2.21384
  -1.63652   2.13365  -2.60290
  -1.60659   2.01394  -2.82735
  -1.60659   1.89423  -3.18648
  -1.54673   1.89423  -3.30619
  -1.47191   1.87926  -3.44087
  -1.41206   1.81941  -3.54561
  -1.44199   1.65481  -3.77007
  -1.26242   1.56502  -3.78503
  -1.23249   1.37050  -3.91971
  -1.14271   1.14604  -3.97956
  -1.02300   0.96647  -3.77007
  -0.90329   0.87669  -3.65036
  -0.91826   0.77195  -3.63540
  -0.75365   0.56245  -3.54561
  -0.54416   0.30807  -3.36605
  -0.39452   0.17339  -3.30619
  -0.22992  -0.17077  -3.12663
  -0.12518  -0.26055  -2.87224
  -0.08028  -0.54487  -2.79742
   0.06935  -0.72443  -2.55800
   0.15914  -0.94889  -2.39340
   0.44345  -1.21824  -2.07916
   0.50330  -1.41276  -1.83974
   0.63798  -1.56240  -1.49558
   0.63798  -1.63722  -1.25616
   0.75769  -1.80182  -0.98681
   0.87740  -1.84671  -0.76235
   1.05696  -1.90657  -0.53790
   1.17667  -2.11606  -0.22366
   1.31134  -2.02628   0.04569
   1.35624  -2.04124   0.21029
   1.35624  -1.95146   0.44971
   1.43106  -1.90657   0.67417
   1.65551  -1.86168   0.89862
   1.79019  -1.83175   1.09315
   1.87997  -1.83175   1.30265
   1.95479  -1.75693   1.48221
   2.05953  -1.68211   1.69170
   2.11939  -1.57737   1.78149
   2.05953  -1.42773   1.88623
   2.10442  -1.18831   1.84134
   2.20917  -1.08356   1.87127
   2.19421  -0.96385   1.85631
   2.13435  -0.64961   1.87127
   2.02961  -0.41019   1.73659
   1.99968  -0.24559   1.55703
   1.87997  -0.03610   1.51214
   1.67048   0.11354   1.42236
   1.50587   0.38289   1.30265
   1.32631   0.60734   1.12308
   1.19163   0.81684   0.97344
   1.10185   0.89166   0.77891
   1.01207   1.16100   0.70410
   0.87740   1.35553   0.56942
   0.75769   1.40042   0.34497
   0.63798   1.60992   0.21029
   0.54819   1.66977   0.01576
   0.45841   1.90919  -0.10395
   0.42848   1.90919  -0.25359
   0.32374   1.87926  -0.38826
   0.24892   2.05883  -0.47804
   0.24892   2.13365  -0.56782
   0.29381   2.14861  -0.70250
   0.30877   2.08876  -0.76235
   0.29381   1.99897  -0.92695
   0.26388   1.96905  -0.92695
   0.20403   1.93912  -1.07659
   0.27885   1.83437  -1.15141
   0.18906   1.77452  -1.15141
   0.09928   1.68473  -1.21127
   0.09928   1.59495  -1.30105
   0.00950   1.31064  -1.21127
  -0.24489   1.10115  -1.37587
  -0.24489   0.90662  -1.34594
  -0.45438   0.71209  -1.45069
  -0.61898   0.51756  -1.40579
  -0.72373   0.20332  -1.51054
  -0.94818   0.09858  -1.48061
  -1.08286  -0.03610  -1.60032
  -1.18760  -0.27552  -1.49558
  -1.30731  -0.47005  -1.52550
  -1.38213  -0.58976  -1.48061
  -1.53177  -0.73939  -1.42076
  -1.51681  -0.81421  -1.33098
  -1.48688  -0.84414  -1.18134
  -1.62155  -0.91896  -1.15141
  -1.72630  -1.02371  -1.00177
  -1.65148  -0.99378  -0.83717
  -1.63652  -1.09852  -0.77732
  -1.62155  -1.06860  -0.53790
  -1.56170  -0.93392  -0.37330
  -1.47191  -1.06860  -0.23862
  -1.53177  -0.93392  -0.16380
  -1.42702  -1.02371  -0.05906
  -1.42702  -0.88903   0.12051
  -1.36717  -0.85910   0.16540
  -1.32228  -0.88903   0.28511
  -1.30731  -0.85910   0.37489
  -1.17264  -0.81421   0.52453
  -1.15768  -0.81421   0.52453
  -0.99307  -0.82918   0.50957
  -0.96315  -0.82918   0.55446
  -0.84344  -0.72443   0.64424
  -0.66387  -0.81421   0.59935
  -0.54416  -0.82918   0.64424
  -0.42445  -0.76932   0.59935
  -0.24489  -0.72443   0.50957
  -0.06532  -0.87407   0.61431
  -0.00547  -0.84414   0.53949
   0.12921  -0.90400   0.41978
   0.30877  -0.84414   0.44971
   0.33870  -0.82918   0.27015
   0.48834  -0.84414   0.24022
   0.59308  -0.79925   0.22526
   0.75769  -0.73939   0.25518
   0.86243  -0.73939   0.27015
   0.93725  -0.66458   0.22526
   0.95221  -0.70947   0.13547
   1.13178  -0.63465   0.21029
   1.11682  -0.52990   0.15044
   1.16171  -0.44012   0.04569
   1.26645  -0.42516   0.13547
   1.19163  -0.41019   0.10555
   1.25149  -0.41019   0.07562
   1.17667  -0.35034   0.24022
   1.08689  -0.38026   0.22526
   0.99711  -0.33537   0.30007
   0.89236  -0.27552   0.30007
   0.78761  -0.26055   0.44971
   0.66790  -0.29048   0.43475
   0.53323  -0.24559   0.37489
   0.44345  -0.15581   0.53949
   0.23395  -0.09595   0.47964
   0.15914  -0.08099   0.53949
  -0.09525  -0.08099   0.62928
  -0.17007  -0.00617   0.73402
  -0.34963   0.00879   0.68913
  -0.51423   0.05368   0.79388
  -0.66387   0.20332   0.80884
  -0.69380   0.26318   0.73402
  -0.88833   0.30807   0.73402
  -0.94818   0.41281   0.85373
  -1.03797   0.60734   0.85373
  -1.05293   0.71209   0.76395
  -1.18760   0.83180   0.64424
  -1.12775   1.11611   0.53949
  -1.20257   1.17597   0.53949
  -1.03797   1.34057   0.47964
  -1.12775   1.46028   0.35993
  -1.09782   1.40042   0.24022
  -1.03797   1.52013   0.21029
  -0.91826   1.63984   8.0E-40
  -0.87336   1.59495  -0.05906
  -0.84344   1.60992  -0.25359
  -0.67884   1.52013  -0.38826
  -0.57409   1.50517  -0.52293
  -0.40949   1.31064  -0.53790
  -0.45438   1.16100  -0.77732
  -0.36460   1.11611  -0.86710
