********************************************************************************
               CENTRO DE INSTRUMENTACION Y REGISTRO SISMICO  A.C.  
                       Coordinacion de Servicios Tecnicos
     Anaxagoras 814, Col. Narvarte, Benito Juarez, C.P. 03020 Mexico, D.F.
            Tels. 667 45 42/ 687 45  82             Fax. 669 25 12
********************************************************************************
ARCHIVO ESTANDAR DE ACELERACION:
VERSION DEL FORMATO                    : 2.0
NOMBRE DEL ARCHIVO                     : AL019906.151
FECHA Y HORA DE CREACION               : 16/FEBRERO/2000, 10:10
REF. CATALOGO ACELEROGRAMAS, SMIS 1996 : REGISTRO No.     /PAG.


================================================================================
DATOS DE LA ESTACION:
NOMBRE DE LA ESTACION                  : ALAMEDA
CLAVE DE LA ESTACION                   : AL01
LOCALIZACION DE LA ESTACION            : JARDIN ALAMEDA ENTRE AV. HIDALGO Y AV.
                                       : JUAREZ, CENTRO
                                       :
                                       :
                                       :
COORDENADAS DE LA ESTACION             : 19.436 LAT. N 
                                       : 99.145 LONG. W 
ALTITUD (msnm)                         : 2232
TIPO DE SUELO                          : TERRENO BLANDO, MATERIAL COMPRESIBLE
                                       : (ARCILLAS)
                                       : 
INSTITUCION RESPONSABLE                : CIRES 
                                       :

================================================================================
DATOS DEL ACELEROGRAFO:
MODELO DEL ACELEROGRAFO                : SSA-1
NUMERO DE SERIE DEL ACELEROGRAFO       : 152
NUMERO DE CANALES                      : 3
ORIENTACION C1-C6 (rumbo;orientacion)  : /N00E/+V/N90E
ORIENTACION C7-C12 (rumbo;orientacion) :
VEL. DE MUESTREO, C1-C6 (muestras/s)   : /200/200/200
VEL. DE MUESTREO, C7-C12 (muestras/s)  :
ESC. COMPLETA DE SENSORES, C1-C6, (g)  : /2/2/2
ESC. COMPLETA DE SENSORES, C7-C12, (g) :
FREC. NAT. DE SENSORES, C1-C6, (Hz)    : /51.29/51.09/53.75
FREC. NAT. DE SENSORES, C7-C12, (Hz)   :
AMORTIGUAMIENTO DE SENSORES, C1-C6     : /.5519/.5670/.5810
AMORTIGUAMIENTO DE SENSORES, C7-C12    :
INTERVALO DE MUESTREO, C1-C6, (s)      : /0.005/0.005/0.005
INTERVALO DE MUESTREO, C7-C12, (s)     :
UMBRAL DE DISPARO, C1-C6, (Gal)        : /2/1.5/2
UMBRAL DE DISPARO, C7-C12, (Gal)       :
MEMORIA DE PREEVENTO (s)               : 15
TIEMPO DE POSEVENTO (s)                : 60


================================================================================
DATOS DEL SISMO:
FECHA DEL SISMO (GMT)                  : 15/JUN/99
HORA EPICENTRO (GMT)                   : 20:42:07.1
MAGNITUD(ES)                           : /Mb=6.4/Ms=6.5/Me=7.0
COORDENADAS DEL EPICENTRO              : 18.18 LAT. N
                                       : 97.51 LONG. W
PROFUNDIDAD FOCAL (km)                 : 69.0
FUENTE DE LOS DATOS EPICENTRALES       : SSN
                                       : INSTITUTO DE GEOFISICA, UNAM

================================================================================
DATOS DE ESTE REGISTRO:
HORA DE LA PRIMERA MUESTRA (GMT)       : 20:42:46.00
EXACTITUD DEL TIEMPO (s)               :     
DURACION DEL REGISTRO (s), C1-C6       : /270.08/270.08/270.08
DURACION DEL REGISTRO (s), C7-C12      :
NUM. TOTAL DE MUESTRAS, C1-C6          : /54016/54016/54016
NUM. TOTAL DE MUESTRAS, C7-C12         :
ACEL. MAX. (Gal), C1-C6                : /28.93976/14.77389/33.13531
ACEL. MAX., C1-C6, EN LA MUESTRA       :
ACEL. MAX. (Gal), C7-C12               :
ACEL. MAX., C7-C12, EN LA MUESTRA      :
UNIDADES DE LOS DATOS                  : Gal (cm/s/s)
FACTOR DE DECIMACION                   : 1
FORMATO DATOS (FORTRAN,10 campos/dato) : 3F10.5


================================================================================
CALIDAD DEL ACELEROGRAMA:
REGISTRO DIGITAL COMPLETO, CARECE DE TIEMPO ABSOLUTO.


================================================================================
COMENTARIOS:














================================================================================
DATOS DE ACELERACION:
---------+---------+---------+---------+---------+---------+---------+---------+
   CANAL-1   CANAL-2   CANAL-3   CANAL-4   CANAL-5   CANAL-6   CANAL-7   CANAL-8
      N00E        +V      N90E
---------+---------+---------+---------+---------+---------+---------+---------+
[...]
  23.90976  -5.43389 -14.21531
  23.90976  -5.43389 -14.69531
  24.14976  -5.43389 -14.93531
  24.14976  -5.43389 -15.17531
  23.90976  -5.43389 -15.41531
  23.90976  -5.43389 -15.65531
  23.66976  -5.67389 -15.65531
  23.42976  -5.91389 -15.65531
  22.70976  -6.15389 -15.65531
  22.70976  -6.15389 -15.41531
  22.46976  -6.39389 -15.41531
  21.98976  -6.39389 -15.17531
  21.74976  -6.15389 -14.93531
  21.26976  -6.15389 -14.69531
  20.78976  -5.91389 -14.45531
  20.30976  -5.91389 -13.97531
  19.82976  -5.67389 -13.49531
  19.58976  -5.67389 -13.02531
  19.11976  -5.67389 -12.30531
  18.63976  -5.67389 -11.82531
  18.15976  -5.67389 -11.10531
  17.91976  -5.91389 -10.38531
  17.43976  -5.91389  -9.66531
  17.19976  -5.67389  -8.70531
  16.71976  -5.91389  -7.99531
  16.47976  -6.15389  -7.27531
  15.99976  -6.39389  -6.55531
  15.75976  -6.39389  -5.83531
  15.27976  -6.63389  -4.87531
  15.03976  -6.63389  -4.15531
  14.79976  -6.63389  -3.44531
  14.56976  -6.63389  -2.72531
  14.32976  -6.39389  -2.00531
  14.08976  -6.15389  -1.28531
  13.84976  -5.67389  -0.80531
  13.60976  -5.19389  -0.08531
  13.36976  -4.71389   0.39469
  13.12976  -4.23389   0.63469
  12.88976  -3.75389   1.11469
  12.40976  -3.51389   1.35469
  12.16976  -3.03389   1.58469
  11.92976  -2.56389   1.58469
  11.44976  -2.08389   1.82469
  10.96976  -1.36389   1.82469
  10.48976  -0.64389   1.82469
  10.00976  -0.16389   1.82469
   9.53976   0.55611   1.82469
   9.05976   1.27611   1.82469
   8.57976   1.75611   1.58469
   8.09976   2.70611   1.58469
   7.37976   3.18611   1.35469
   6.89976   3.66611   1.11469
   6.41976   4.38611   1.11469
   5.93976   4.62611   0.87469
   5.21976   5.10611   0.39469
   4.74976   5.58611   0.15469
   4.26976   5.82611  -0.32531
   3.78976   6.30611  -0.56531
   3.30976   6.54611  -1.04531
   2.82976   7.01611  -1.28531
   2.34976   7.49611  -2.00531
   1.86976   7.97611  -2.48531
   1.38976   8.45611  -2.96531
   0.90976   8.69611  -3.67531
   0.42976   9.17611  -4.15531
  -0.04024   9.41611  -4.63531
  -0.52024   9.65611  -5.11531
  -1.00024   9.65611  -5.59531
  -1.48024   9.89611  -6.07531
  -2.20024   9.89611  -6.31531
  -2.92024   9.89611  -6.55531
  -3.64024   9.89611  -6.55531
  -4.12024   9.89611  -6.79531
  -5.07024   9.89611  -6.79531
  -5.79024   9.89611  -6.79531
  -6.27024   9.89611  -6.79531
  -6.99024   9.65611  -6.79531
  -7.71024   9.41611  -6.55531
  -8.43024   9.41611  -6.55531
  -9.15024   8.93611  -6.55531
  -9.62024   8.69611  -6.31531
 -10.34024   8.45611  -6.31531
 -10.82024   7.97611  -6.31531
 -11.30024   7.73611  -6.55531
 -11.78024   7.25611  -6.55531
 -12.02024   6.78611  -6.55531
 -12.50024   6.30611  -6.79531
 -12.74024   5.82611  -7.03531
 -12.98024   5.34611  -7.03531
 -13.22024   5.10611  -7.27531
 -13.46024   4.86611  -7.51531
 -13.70024   4.62611  -7.51531
 -13.94024   4.38611  -7.51531
 -13.94024   4.14611  -7.75531
 -13.94024   3.90611  -7.99531
 -13.94024   3.42611  -8.23531
 -13.94024   3.18611  -8.23531
 -13.94024   2.70611  -8.46531
 -13.70024   2.46611  -8.46531
 -13.46024   1.99611  -8.70531
 -12.98024   1.51611  -8.70531
 -12.74024   1.03611  -8.94531
 -12.26024   0.55611  -8.94531
 -11.54024   0.31611  -9.18531
 -11.06024  -0.16389  -9.42531
 -10.34024  -0.64389  -9.42531
  -9.62024  -0.88389  -9.66531
  -8.91024  -1.36389  -9.66531
  -8.19024  -1.84389  -9.90531
  -7.47024  -2.32389 -10.14531
  -6.75024  -2.80389 -10.14531
  -5.79024  -3.03389 -10.38531
  -4.83024  -3.51389 -10.38531
  -3.88024  -3.99389 -10.38531
  -2.92024  -4.23389 -10.38531
  -1.96024  -4.47389 -10.14531
  -1.00024  -4.71389 -10.14531
  -0.04024  -4.95389  -9.90531
   0.90976  -5.19389  -9.66531
   1.86976  -5.43389  -9.42531
   3.06976  -5.43389  -9.18531
   4.02976  -5.43389  -8.94531
   4.98976  -5.43389  -8.46531
   5.93976  -5.43389  -8.23531
   6.89976  -5.19389  -7.99531
   7.85976  -5.43389  -7.99531
   8.57976  -5.43389  -7.75531
   9.29976  -5.43389  -7.51531
  10.00976  -5.43389  -7.51531
  10.48976  -5.67389  -7.27531
  11.20976  -5.91389  -7.03531
  11.68976  -6.15389  -7.03531
  12.16976  -6.39389  -7.03531
  12.40976  -6.87389  -6.55531
  12.88976  -7.35389  -6.55531
  13.36976  -7.82389  -6.07531
  13.60976  -8.54389  -5.83531
  13.84976  -9.02389  -5.35531
  14.08976  -9.74389  -4.87531
  14.32976 -10.22389  -4.39531
  14.56976 -10.70389  -3.67531
  14.56976 -10.70389  -3.20531
  14.56976 -10.70389  -2.48531
  14.56976 -10.70389  -2.00531
  14.32976 -10.46389  -1.28531
  14.32976 -10.22389  -0.56531
  14.08976  -9.74389   0.15469
  13.60976  -9.50389   0.87469
  13.36976  -9.02389   1.58469
  12.88976  -8.78389   2.54469
  12.40976  -8.54389   3.26469
  11.68976  -8.30389   3.98469
  10.96976  -8.06389   4.94469
  10.24976  -7.82389   5.66469
   9.53976  -7.35389   6.61469
   8.81976  -7.11389   7.57469
   8.09976  -7.11389   8.29469
   7.37976  -6.87389   9.25469
   6.65976  -6.39389   9.97469
   5.69976  -6.15389  10.93469
   4.98976  -5.67389  11.64469
   4.26976  -5.19389  12.36469
   3.54976  -4.71389  13.08469
   2.82976  -4.23389  13.80469
   2.10976  -3.51389  14.52469
   1.38976  -3.03389  15.00469
   0.66976  -2.80389  15.24469
  -0.04024  -2.08389  15.72469
  -0.76024  -1.84389  16.19469
  -1.24024  -1.36389  16.43469
  -1.96024  -0.88389  16.67469
  -2.44024  -0.64389  16.91469
  -3.16024  -0.40389  17.15469
  -3.64024  -0.16389  17.39469
  -4.12024   0.31611  17.63469
  -4.83024   0.31611  17.63469
  -5.31024   0.79611  17.87469
  -5.79024   1.27611  17.87469
  -6.27024   1.75611  17.63469
  -6.75024   2.22611  17.63469
  -7.23024   2.94611  17.39469
  -7.47024   3.42611  17.15469
  -7.95024   3.66611  16.67469
  -8.43024   4.14611  16.43469
  -8.67024   4.38611  16.19469
  -8.91024   4.62611  15.72469
  -9.39024   4.86611  15.24469
  -9.62024   5.10611  15.00469
  -9.62024   5.34611  14.76469
  -9.86024   5.58611  14.28469
  -9.86024   5.82611  14.04469
  -9.86024   6.06611  13.56469
  -9.86024   6.30611  13.08469
  -9.86024   6.54611  12.60469
  -9.86024   6.78611  12.12469
  -9.62024   6.78611  11.64469
  -9.62024   6.78611  10.93469
  -9.39024   6.78611  10.45469
  -9.39024   6.78611   9.73469
  -9.15024   6.54611   9.01469
  -9.15024   6.54611   8.29469
  -8.91024   6.30611   7.57469
  -8.67024   6.30611   6.85469
  -8.43024   6.06611   6.37469
  -8.19024   5.82611   5.90469
  -7.95024   5.58611   5.42469
  -7.95024   5.58611   4.94469
  -7.71024   5.34611   4.70469
  -7.47024   5.10611   4.22469
  -7.47024   4.86611   3.98469
  -7.47024   4.86611   3.74469
  -7.23024   4.62611   3.50469
  -7.23024   4.38611   3.26469
  -7.23024   4.38611   3.02469
  -7.23024   4.14611   3.02469
  -6.99024   3.90611   2.78469
  -6.99024   3.66611   2.54469
  -6.99024   3.66611   2.54469
  -6.75024   3.42611   2.54469
  -6.75024   3.18611   2.54469
  -6.75024   2.94611   2.54469
  -6.75024   2.70611   2.54469
  -6.75024   2.70611   2.78469
  -6.51024   2.70611   2.78469
  -6.51024   2.70611   3.02469
  -6.27024   2.70611   3.26469
  -6.27024   2.70611   3.50469
  -6.03024   2.46611   3.98469
  -5.79024   2.46611   4.22469
  -5.55024   2.22611   4.70469
  -5.31024   2.22611   5.18469
  -4.83024   1.99611   5.42469
  -4.59024   1.99611   5.90469
  -4.36024   1.99611   6.37469
  -4.12024   1.75611   6.85469
  -3.88024   1.75611   7.33469
  -3.64024   1.51611   7.57469
  -3.40024   1.03611   8.29469
  -3.16024   0.79611   8.77469
  -2.92024   0.55611   9.25469
  -2.68024   0.31611   9.73469
  -2.44024   0.31611  10.21469
  -2.20024   0.07611  10.69469
  -2.20024   0.07611  11.40469
  -1.72024   0.07611  11.64469
  -1.24024  -0.16389  12.12469
  -1.24024  -0.16389  12.60469
  -1.00024  -0.16389  12.84469
  -0.52024  -0.40389  13.32469
  -0.28024  -0.64389  13.56469
  -0.04024  -0.64389  14.28469
   0.19976  -0.64389  14.52469
   0.19976  -0.64389  14.76469
   0.19976  -0.64389  15.24469
   0.19976  -0.64389  15.48469
   0.42976  -0.64389  15.48469
   0.19976  -0.88389  15.48469
  -0.04024  -1.12389  15.48469
  -0.04024  -1.36389  15.48469
  -0.28024  -1.84389  15.48469
  -0.28024  -2.32389  15.24469
  -0.28024  -2.80389  15.00469
  -0.28024  -3.03389  14.76469
  -0.28024  -3.27389  14.52469
  -0.28024  -3.27389  14.52469
  -0.52024  -3.51389  14.28469
  -0.52024  -3.51389  14.04469
  -0.28024  -3.51389  13.80469
  -0.28024  -3.51389  13.56469
  -0.28024  -3.51389  13.32469
  -0.28024  -3.51389  13.08469
  -0.28024  -3.51389  12.84469
  -0.28024  -3.51389  12.60469
  -0.28024  -3.27389  12.36469
  -0.28024  -3.03389  11.88469
  -0.28024  -2.80389  11.64469
  -0.28024  -2.56389  11.16469
  -0.28024  -2.08389  10.69469
  -0.28024  -1.84389  10.21469
  -0.28024  -1.60389   9.73469
  -0.04024  -1.36389   9.25469
  -0.04024  -1.36389   8.77469
   0.19976  -0.88389   8.29469
   0.42976  -0.40389   7.81469
   0.66976  -0.16389   7.57469
   0.90976   0.55611   7.09469
   0.90976   0.79611   6.85469
   0.90976   1.27611   6.85469
   1.14976   1.75611   6.61469
   1.38976   1.99611   6.37469
   1.62976   2.22611   6.37469
   1.62976   2.70611   6.14469
   1.62976   2.94611   6.14469
   1.86976   3.42611   6.14469
   1.86976   3.90611   5.90469
   1.86976   4.14611   5.90469
   2.10976   4.62611   5.90469
   2.10976   4.86611   5.66469
   2.10976   5.10611   5.66469
   2.34976   5.34611   5.18469
   2.34976   5.58611   5.18469
   2.10976   5.58611   4.94469
   2.34976   5.58611   4.70469
   2.34976   5.58611   4.46469
   2.34976   5.34611   3.98469
   2.34976   5.34611   3.74469
   2.10976   5.10611   3.26469
   2.10976   4.86611   3.02469
   2.34976   4.62611   2.54469
   2.34976   4.38611   2.06469
   2.34976   4.14611   1.35469
   2.34976   4.14611   0.87469
   2.34976   3.90611   0.15469
   2.34976   3.90611  -0.32531
   2.34976   3.90611  -1.28531
   2.34976   3.90611  -1.76531
   2.34976   3.90611  -2.72531
   2.10976   3.90611  -3.67531
   2.10976   3.90611  -4.63531
   1.86976   3.90611  -5.59531
   1.62976   4.14611  -6.79531
   1.38976   4.14611  -7.75531
   1.38976   4.14611  -8.94531
   0.90976   4.14611  -9.90531
   0.90976   3.90611 -11.10531
   0.66976   3.90611 -12.30531
   0.66976   3.66611 -13.49531
   0.66976   3.42611 -14.69531
   0.66976   3.18611 -15.89531
   0.90976   2.94611 -17.09531
   0.90976   2.70611 -18.52531
   1.14976   2.46611 -19.72531
   1.38976   2.22611 -20.92531
   1.62976   1.75611 -22.12531
   1.62976   1.51611 -23.31531
   1.86976   1.27611 -24.27531
   1.86976   1.03611 -25.47531
   2.10976   0.79611 -26.43531
   2.10976   0.55611 -27.15531
   2.34976   0.55611 -28.10531
   2.34976   0.31611 -29.06531
   2.34976   0.31611 -29.54531
   2.34976   0.31611 -30.26531
   2.34976   0.55611 -30.98531
   2.34976   0.31611 -31.46531
   2.34976   0.31611 -31.94531
   2.34976   0.31611 -32.41531
   2.34976   0.07611 -32.65531
   2.82976  -0.16389 -32.89531
   3.06976  -0.16389 -33.13531
   3.30976  -0.64389 -33.13531
   3.78976  -0.88389 -33.13531
   4.02976  -1.12389 -32.89531
   4.50976  -1.36389 -32.89531
   4.74976  -1.84389 -32.65531
   5.21976  -2.32389 -32.41531
   5.69976  -2.56389 -32.18531
   5.93976  -3.03389 -31.94531
   6.65976  -3.27389 -31.70531
   7.13976  -3.51389 -31.46531
   7.61976  -3.75389 -30.98531
   8.09976  -3.99389 -30.50531
   8.57976  -3.99389 -30.26531
   8.81976  -3.99389 -29.78531
   9.29976  -3.99389 -29.30531
   9.77976  -4.23389 -28.82531
  10.24976  -4.23389 -28.34531
  10.48976  -4.23389 -27.62531
  10.96976  -3.99389 -26.91531
  11.20976  -3.99389 -26.19531
  11.44976  -3.99389 -25.71531
  11.44976  -3.99389 -24.75531
  11.44976  -3.99389 -24.03531
  11.44976  -3.99389 -23.07531
  11.44976  -3.99389 -22.36531
  11.20976  -3.99389 -21.40531
  10.96976  -3.99389 -20.68531
  10.72976  -3.99389 -19.72531
  10.48976  -3.75389 -19.00531
  10.00976  -3.75389 -18.28531
   9.29976  -3.51389 -17.33531
   8.81976  -3.27389 -16.61531
   8.33976  -2.80389 -15.89531
   7.61976  -2.56389 -15.17531
   7.13976  -2.08389 -14.45531
   6.17976  -1.60389 -13.73531
   5.69976  -1.36389 -13.02531
   4.98976  -1.12389 -12.54531
   4.50976  -0.64389 -11.82531
   4.02976  -0.40389 -11.10531
   3.30976  -0.16389 -10.38531
   2.82976   0.31611  -9.90531
   2.34976   0.79611  -9.18531
   1.86976   1.03611  -8.46531
   1.38976   1.51611  -7.99531
   0.90976   1.75611  -7.51531
   0.19976   1.99611  -7.03531
  -0.28024   2.46611  -6.79531
  -0.76024   2.94611  -6.79531
  -1.24024   3.42611  -6.55531
  -1.96024   3.90611  -6.31531
  -2.44024   4.38611  -6.55531
  -2.92024   4.86611  -6.55531
  -3.64024   5.10611  -6.55531
  -4.12024   5.34611  -6.79531
  -4.83024   5.34611  -7.27531
  -5.55024   5.34611  -7.27531
  -6.27024   5.10611  -7.75531
  -6.75024   4.86611  -8.23531
  -7.23024   4.62611  -8.46531
  -7.95024   4.38611  -8.94531
  -8.43024   4.14611  -9.42531
  -8.67024   3.90611  -9.90531
  -9.15024   3.90611 -10.38531
  -9.39024   3.66611 -10.86531
  -9.62024   3.66611 -11.10531
  -9.62024   3.66611 -11.58531
  -9.62024   3.42611 -12.06531
  -9.62024   3.42611 -12.30531
  -9.39024   3.42611 -12.54531
  -9.15024   3.18611 -12.54531
  -8.67024   3.18611 -12.78531
  -8.43024   3.18611 -12.78531
  -7.95024   3.18611 -12.78531
  -7.71024   2.94611 -12.78531
  -7.23024   2.94611 -12.78531
  -6.75024   2.70611 -12.54531
  -6.27024   2.70611 -12.54531
  -5.55024   2.46611 -12.30531
  -4.83024   2.22611 -12.06531
  -4.12024   2.22611 -12.06531
  -3.16024   2.22611 -11.82531
  -2.20024   2.22611 -11.34531
  -1.24024   2.22611 -11.34531
  -0.52024   2.46611 -10.86531
   0.42976   2.46611 -10.38531
   1.38976   2.70611  -9.90531
   2.34976   2.70611  -9.42531
   3.06976   2.46611  -8.94531
   4.02976   2.46611  -8.46531
   4.74976   2.22611  -7.99531
   5.45976   1.75611  -7.27531
   6.41976   1.51611  -6.79531
   7.13976   1.27611  -6.07531
   7.85976   1.03611  -5.59531
   8.57976   0.79611  -4.87531
   9.05976   0.55611  -4.39531
   9.53976   0.31611  -3.91531
  10.00976   0.31611  -3.20531
  10.48976   0.07611  -2.72531
  10.72976  -0.16389  -2.24531
  10.96976  -0.16389  -1.52531
  11.20976  -0.16389  -1.28531
  11.20976  -0.16389  -0.80531
  11.20976  -0.40389  -0.32531
  10.96976  -0.40389   0.39469
  10.96976  -0.64389   0.63469
  10.48976  -0.64389   1.11469
  10.24976  -1.12389   1.58469
   9.77976  -1.60389   2.06469
   9.29976  -2.08389   2.54469
   8.81976  -2.56389   2.78469
   8.33976  -3.03389   3.02469
   7.85976  -3.51389   3.50469
   7.37976  -3.99389   3.74469
   6.89976  -4.23389   3.98469
   6.41976  -4.71389   4.22469
   5.93976  -4.95389   4.46469
   5.45976  -5.67389   4.94469
   4.98976  -5.91389   5.18469
   4.26976  -5.91389   5.42469
   3.78976  -6.15389   5.90469
   3.06976  -6.15389   6.37469
   2.34976  -6.15389   6.61469
   1.38976  -6.15389   7.09469
   0.66976  -6.15389   7.57469
  -0.28024  -6.15389   8.05469
  -1.24024  -6.15389   8.53469
  -1.96024  -6.15389   9.01469
  -2.92024  -6.39389   9.73469
  -3.64024  -6.39389  10.21469
  -4.36024  -6.39389  10.69469
  -5.07024  -6.39389  11.16469
  -5.79024  -6.15389  11.88469
  -6.27024  -5.91389  12.36469
  -6.75024  -5.67389  12.60469
  -7.23024  -5.43389  13.32469
  -7.47024  -5.43389  13.56469
  -7.95024  -5.43389  14.04469
  -8.43024  -5.19389  14.28469
  -8.67024  -5.19389  14.52469
  -8.91024  -4.95389  15.00469
  -9.15024  -4.95389  15.00469
  -9.62024  -4.71389  15.48469
  -9.62024  -4.23389  15.48469
  -9.62024  -3.99389  15.72469
  -9.62024  -3.75389  15.95469
  -9.62024  -3.51389  16.19469
  -9.62024  -3.27389  16.19469
