********************************************************************************
              CENTRO DE INSTRUMENTACION Y REGISTRO SISMICO  A.C.

    Anaxagoras 814, Col. Narvarte, Benito Juarez, C.P. 03020 Mexico, D.F.
           Tels. 5687 45 42/ 5687 45  82             Fax. 5669 25 12
********************************************************************************
ARCHIVO ESTANDAR DE ACELERACION:
VERSION DEL FORMATO                    : 2.0
NOMBRE DEL ARCHIVO                     : AL0120170908044918
FECHA Y HORA DE CREACION               : 08/SEP/17, 14:49
REF. CATALOGO ACELEROGRAMAS, SMIS 1996 : REGISTRO No.     /PAG.


================================================================================
DATOS DE LA ESTACION:
NOMBRE DE LA ESTACION                  : ALAMEDA
CLAVE DE LA ESTACION                   : AL01
LOCALIZACION DE LA ESTACION            : Del. Cuauhtémoc, Col. Centro,          
                                       : Dr. Mora entre Av. Hidalgo             
                                       : y Av. Juárez.                          
                                       :                                        
                                       : 
COORDENADAS DE LA ESTACION             : 19.4356 LAT. N
                                       : 99.1453 LONG. W
ALTITUD (msnm)                         : 2232
TIPO DE SUELO                          : Terreno blando, material compresible
                                       : (arcillas)                
                                       : 
INSTITUCION RESPONSABLE                : CIRES, A. C.
                                       : 

================================================================================
DATOS DEL ACELEROGRAFO:
MODELO DEL ACELEROGRAFO                : RAD_IO14
NUMERO DE SERIE DEL ACELEROGRAFO       : 
NUMERO DE CANALES                      : 3
ORIENTACION C1-C6 (rumbo;orientacion)  : /S00E/+V/N90W
ORIENTACION C7-C12 (rumbo;orientacion) : 
VEL. DE MUESTREO, C1-C6 (muestras/s)   : /100/100/100
VEL. DE MUESTREO, C7-C12 (muestras/s)  : 
ESC. COMPLETA DE SENSORES, C1-C6, (g)  : /2.0/2.0/2.0
ESC. COMPLETA DE SENSORES, C7-C12, (g) : 
FREC. NAT. DE SENSORES, C1-C6, (Hz)    : /51.29/51.09/53.75
FREC. NAT. DE SENSORES, C7-C12, (Hz)   : 
AMORTIGUAMIENTO DE SENSORES, C1-C6     : /0.5519/0.5670/0.5810
AMORTIGUAMIENTO DE SENSORES, C7-C12    : 
INTERVALO DE MUESTREO, C1-C6, (s)      : /0.01/0.01/0.01
INTERVALO DE MUESTREO, C7-C12, (s)     : 
UMBRAL DE DISPARO, C1-C6, (Gal)        : / / /
UMBRAL DE DISPARO, C7-C12, (Gal)       : 
MEMORIA DE PREEVENTO (s)               : 60
TIEMPO DE POSEVENTO (s)                : 90


================================================================================
DATOS DEL SISMO:
FECHA DEL SISMO (GMT)                  : 08/SEP/17
HORA EPICENTRO (GMT)                   : 04:49:18.0
MAGNITUD(ES)                           : /Mc=8.2
COORDENADAS DEL EPICENTRO              : 14.85 LAT. N
                                       : 94.11 LONG. W
PROFUNDIDAD FOCAL (km)                 : 58
FUENTE DE LOS DATOS EPICENTRALES       : SSN
                                       : INSTITUTO DE GEOFISICA, UNAM

================================================================================
DATOS DE ESTE REGISTRO:
HORA DE LA PRIMERA MUESTRA (GMT)       : 23:49:09.00
EXACTITUD DEL TIEMPO (s)               : 
DURACION DEL REGISTRO (s), C1-C6       : /579.94/579.94/579.94
DURACION DEL REGISTRO (s), C7-C12      : 
NUM. TOTAL DE MUESTRAS, C1-C6          : /57994/57994/57994
NUM. TOTAL DE MUESTRAS, C7-C12         : 
ACEL. MAX. (Gal), C1-C6                : /27.36264/7.96811/24.22999
ACEL. MAX., C1-C6, EN LA MUESTRA       : /24098/22374/21532
ACEL. MAX. (Gal), C7-C12               : 
ACEL. MAX., C7-C12, EN LA MUESTRA      : 
UNIDADES DE LOS DATOS                  : Gal (cm/s/s)
FACTOR DE DECIMACION                   : 1
FORMATO DATOS (FORTRAN,10 campos/dato) : 3F10.5


================================================================================
CALIDAD DEL ACELEROGRAMA:
REGISTRO DIGITAL COMPLETO CON TIEMPO ABSOLUTO CORRECTO.


================================================================================
COMENTARIOS:














================================================================================
DATOS DE ACELERACION:
---------+---------+---------+---------+---------+---------+---------+---------+
   CANAL-1   CANAL-2   CANAL-3   CANAL-4   CANAL-5   CANAL-6   CANAL-7   CANAL-8
      N00E        +V      N90W
---------+---------+---------+---------+---------+---------+---------+---------+
[...]
   9.08886  -2.02769  -5.79469
   9.32826  -2.02769  -5.73489
   9.62756  -2.02769  -5.61509
   9.92686  -2.14739  -5.55529
  10.10646  -2.14739  -5.43559
  10.40566  -2.14739  -5.25599
  10.64506  -2.14739  -5.07649
  10.88456  -2.26709  -4.89689
  11.12396  -2.32689  -4.71729
  11.24366  -2.38679  -4.59759
  11.36336  -2.32689  -4.41809
  11.48306  -2.26709  -4.35819
  11.60276  -2.20719  -4.17859
  11.60276  -2.20719  -3.93919
  11.54296  -2.20719  -3.81949
  11.42326  -2.08749  -3.75959
  11.24366  -2.02769  -3.58009
  11.00426  -1.96779  -3.52019
  10.70496  -1.78819  -3.58009
  10.40566  -1.72839  -3.63989
  10.04656  -1.54879  -3.69979
   9.68746  -1.42909  -3.69979
   9.26846  -1.18969  -3.63989
   8.84946  -1.01009  -3.52019
   8.31076  -0.95029  -3.46039
   7.83196  -0.77069  -3.46039
   7.41296  -0.71089  -3.40049
   6.93406  -0.59109  -3.34069
   6.51516  -0.53129  -3.34069
   6.09616  -0.53129  -3.34069
   5.67716  -0.41159  -3.16109
   5.25816  -0.35169  -3.10119
   4.95886  -0.29189  -3.10119
   4.53996  -0.23199  -3.04139
   4.18076  -0.17219  -2.92169
   3.88156  -0.17219  -2.92169
   3.58226  -0.23199  -2.80199
   3.34286  -0.23199  -2.68229
   3.16326  -0.23199  -2.68229
   2.86396  -0.29189  -2.74209
   2.62456  -0.35169  -2.68229
   2.38516  -0.41159  -2.80199
   2.20556  -0.53129  -2.80199
   2.02606  -0.71089  -2.86179
   1.78656  -0.77069  -2.92169
   1.54716  -0.83059  -2.98149
   1.36766  -0.89039  -3.04139
   1.06836  -0.89039  -3.10119
   0.82896  -0.95029  -3.28079
   0.64936  -1.06999  -3.40049
   0.35006  -1.06999  -3.46039
   0.11066  -1.06999  -3.58009
  -0.12874  -0.89039  -3.63989
  -0.42804  -0.83059  -3.69979
  -0.60754  -0.83059  -3.87939
  -0.84704  -0.83059  -3.87939
  -1.08644  -0.65099  -3.93919
  -1.20614  -0.47139  -3.99909
  -1.44554  -0.35169  -4.05889
  -1.56524  -0.17219  -4.17859
  -1.80464   0.06731  -4.17859
  -1.92444   0.24681  -4.17859
  -2.10394   0.42641  -4.23849
  -2.28354   0.72571  -4.17859
  -2.34334   0.84541  -4.23849
  -2.46304   1.08481  -4.17859
  -2.58284   1.38411  -4.17859
  -2.64264   1.56361  -4.05889
  -2.58284   1.68331  -3.93919
  -2.52294   1.80301  -3.87939
  -2.52294   1.92281  -3.63989
  -2.46304   2.04251  -3.46039
  -2.40324   2.04251  -3.28079
  -2.34334   2.16221  -3.04139
  -2.22364   2.16221  -2.68229
  -2.10394   2.22201  -2.44279
  -1.86454   2.22201  -2.14359
  -1.62514   2.28191  -1.90419
  -1.50544   2.34171  -1.54499
  -1.32584   2.34171  -1.24569
  -1.08644   2.34171  -0.88659
  -0.78714   2.46141  -0.58729
  -0.36814   2.52131  -0.16839
  -0.00904   2.58121   0.19081
   0.17056   2.70091   0.54991
   0.64936   2.76071   0.90901
   1.00846   2.76071   1.20831
   1.48736   3.00011   1.32801
   1.90636   3.00011   1.62731
   2.32526   3.00011   1.86671
   2.68446   3.00011   2.10611
   3.10336   3.11981   2.34551
   3.58226   3.11981   2.52511
   4.06106   3.11981   2.70471
   4.48006   3.06001   2.88421
   4.89906   3.06001   3.00391
   5.31806   2.88041   3.18351
   5.73706   2.76071   3.30321
   6.21586   2.70091   3.48281
   6.63486   2.58121   3.60251
   7.11366   2.40161   3.72221
   7.53266   2.22201   3.90181
   7.95166   2.04251   4.02151
   8.43046   1.80301   4.14121
   8.78956   1.68331   4.26091
   9.20856   1.50381   4.38061
   9.44796   1.26431   4.44051
   9.74726   1.08481   4.62001
  10.10646   0.96511   4.67991
  10.40566   0.72571   4.73971
  10.58526   0.60591   4.97911
  10.82466   0.42641   5.15871
  10.94436   0.36651   5.27841
  11.12396   0.36651   5.39811
  11.18376   0.30671   5.45801
  11.24366   0.24681   5.57771
  11.30346   0.36651   5.75731
  11.30346   0.36651   5.87701
  11.18376   0.54611   6.05651
  11.12396   0.66581   6.17621
  11.06406   0.78551   6.47551
  10.94436   0.96511   6.77481
  10.64506   1.14461   6.95431
  10.46556   1.44391   7.25361
  10.16626   1.62351   7.61281
   9.80716   1.74321   8.03171
   9.44796   1.92281   8.45071
   8.96916   2.10231   8.80981
   8.43046   2.28191   9.22881
   7.89176   2.46141   9.70771
   7.41296   2.58121  10.18651
   6.81436   2.64101  10.60551
   6.21586   2.76071  11.14421
   5.55746   2.76071  11.56321
   4.83916   2.76071  12.04201
   4.12096   2.70091  12.58071
   3.40266   2.70091  13.05951
   2.68446   2.76071  13.53841
   1.90636   2.82061  14.01721
   1.12816   2.82061  14.43621
   0.40996   2.82061  14.85521
  -0.30834   2.76071  15.27421
  -1.20614   2.70091  15.75301
  -1.98424   2.70091  16.05231
  -2.76234   2.64101  16.35151
  -3.54044   2.64101  16.71071
  -4.37844   2.64101  17.06981
  -5.09674   2.58121  17.30921
  -5.87484   2.52131  17.54861
  -6.59304   2.40161  17.66831
  -7.31134   2.34171  17.84791
  -8.02954   2.28191  17.96761
  -8.62814   2.10231  18.08731
  -9.22664   1.98261  18.14721
  -9.88504   1.80301  18.20701
 -10.54344   1.62351  18.20701
 -11.26174   1.56361  18.14721
 -11.74054   1.32421  17.96761
 -12.21944   1.02491  17.72821
 -12.69824   0.72571  17.60851
 -13.11724   0.54611  17.24941
 -13.47634   0.30671  16.89021
 -13.89534   0.12711  16.47131
 -14.25444  -0.11229  16.11211
 -14.55374  -0.35169  15.57341
 -14.91284  -0.59109  15.09461
 -15.21214  -0.83059  14.43621
 -15.63114  -1.18969  13.83761
 -15.99024  -1.42909  12.99971
 -16.40924  -1.66849  12.28141
 -16.76834  -2.02769  11.50331
 -17.18734  -2.38679  10.60551
 -17.60634  -2.68609   9.70771
 -18.08514  -2.98529   8.92961
 -18.50414  -3.34449   8.03171
 -18.98304  -3.64369   7.25361
 -19.40194  -3.82329   6.41571
 -19.82094  -4.06269   5.51781
 -20.23994  -4.24229   4.67991
 -20.59904  -4.42189   3.90181
 -20.95824  -4.60139   3.06381
 -21.31734  -4.66129   2.28571
 -21.61664  -4.66129   1.56741
 -21.85604  -4.66129   0.84921
 -21.97574  -4.54159   0.13091
 -22.09544  -4.54159  -0.52749
 -22.03554  -4.54159  -1.18589
 -22.03554  -4.42189  -1.72459
 -21.85604  -4.18239  -2.32309
 -21.67644  -3.94299  -3.04139
 -21.49694  -3.88319  -3.52019
 -21.19764  -3.70359  -4.05889
 -20.77864  -3.58389  -4.53779
 -20.53924  -3.40429  -5.01659
 -20.12024  -3.28459  -5.31589
 -19.64144  -3.04519  -5.73489
 -19.22244  -2.86559  -6.21369
 -18.74354  -2.74589  -6.57279
 -18.32454  -2.68609  -6.99179
 -17.78594  -2.62619  -7.29109
 -17.30704  -2.44659  -7.71009
 -16.76834  -2.38679  -8.06919
 -16.22964  -2.32689  -8.42829
 -15.69094  -2.26709  -8.78739
 -15.09244  -2.32689  -9.26629
 -14.49384  -2.26709  -9.62539
 -13.95524  -2.20719 -10.16409
 -13.53624  -2.14739 -10.64289
 -12.93764  -1.96779 -11.12179
 -12.45884  -1.78819 -11.54079
 -11.92014  -1.66849 -12.01959
 -11.44134  -1.54879 -12.49839
 -10.78294  -1.42909 -12.85759
 -10.24424  -1.30939 -13.33639
  -9.70554  -1.30939 -13.75539
  -9.10694  -1.24949 -14.11449
  -8.44854  -1.24949 -14.35389
  -7.90984  -1.24949 -14.59339
  -7.25144  -1.30939 -14.89259
  -6.59304  -1.30939 -15.07219
  -5.99454  -1.36929 -15.07219
  -5.21644  -1.30939 -15.19189
  -4.43834  -1.36929 -15.13199
  -3.66014  -1.48899 -15.13199
  -2.76234  -1.48899 -15.25179
  -1.98424  -1.60869 -15.07219
  -1.14624  -1.78819 -14.95249
  -0.24844  -1.90799 -14.83279
   0.58946  -1.84809 -14.53349
   1.60706  -1.84809 -14.29409
   2.62456  -1.84809 -13.99479
   3.64206  -1.90799 -13.69549
   4.65966  -1.90799 -13.33639
   5.79686  -1.84809 -13.03709
   6.87426  -1.78819 -12.61809
   7.95166  -1.66849 -12.31889
   9.02906  -1.60869 -12.01959
   9.98666  -1.54879 -11.60059
  11.06406  -1.42909 -11.12179
  12.08166  -1.30939 -10.64289
  13.15896  -1.24949 -10.28379
  14.29626  -1.01009  -9.92469
  15.37366  -0.89039  -9.38599
  16.45106  -0.77069  -8.90719
  17.46856  -0.59109  -8.54799
  18.48606  -0.41159  -8.06919
  19.44376  -0.29189  -7.65019
  20.40146  -0.23199  -7.17139
  21.35906  -0.11229  -6.81219
  22.19706   0.18701  -6.45309
  22.97516   0.42641  -6.09399
  23.69346   0.54611  -5.73489
  24.41166   0.72571  -5.43559
  25.01026   0.90521  -5.07649
  25.54896   1.14461  -4.95669
  26.02776   1.38411  -4.65749
  26.44676   1.68331  -4.41809
  26.74606   1.86291  -4.17859
  26.92556   2.10231  -3.81949
  27.16506   2.40161  -3.63989
  27.16506   2.58121  -3.52019
  27.04526   2.88041  -3.40049
  26.98546   3.06001  -3.28079
  26.80586   3.29941  -3.22099
  26.56646   3.53881  -3.10119
  26.26716   3.65851  -2.98149
  25.90806   3.83811  -2.92169
  25.48906   3.89801  -2.98149
  25.01026   3.95781  -2.92169
  24.53136   4.07751  -2.86179
  23.99266   4.07751  -2.80199
  23.51386   4.13741  -2.86179
  22.97516   4.13741  -2.86179
  22.37666   4.07751  -2.80199
  21.89776   3.95781  -2.80199
  21.23936   3.95781  -2.68229
  20.64086   3.83811  -2.62239
  20.10216   3.77821  -2.56259
  19.38386   3.65851  -2.50269
  18.78536   3.41911  -2.32309
  18.06706   3.17971  -2.26329
  17.40866   3.00011  -2.14359
  16.75026   2.76071  -2.14359
  16.15176   2.52131  -2.02389
  15.43346   2.16221  -1.90419
  14.71526   1.80301  -1.90419
  13.99696   1.50381  -1.90419
  13.39846   1.20451  -1.90419
  12.85976   0.84541  -1.90419
  12.20136   0.54611  -2.02389
  11.66266   0.18701  -2.02389
  11.06406  -0.11229  -2.02389
  10.52536  -0.47139  -2.20339
   9.98666  -0.77069  -2.38299
   9.56776  -1.01009  -2.50269
   9.08886  -1.24949  -2.68229
   8.72976  -1.42909  -2.80199
   8.37066  -1.66849  -3.04139
   8.01146  -1.90799  -3.28079
   7.65236  -2.02769  -3.52019
   7.29326  -2.08749  -3.63989
   6.87426  -2.20719  -3.87939
   6.51516  -2.26709  -3.99909
   6.09616  -2.26709  -4.17859
   5.67716  -2.32689  -4.23849
   5.19836  -2.32689  -4.41809
   4.65966  -2.44659  -4.65749
   4.06106  -2.44659  -4.77719
   3.40266  -2.32689  -4.83699
   2.62456  -2.32689  -4.89689
   1.96616  -2.26709  -5.07649
   1.30776  -2.26709  -5.07649
   0.46976  -2.08749  -5.07649
  -0.24844  -1.84809  -5.19619
  -1.14624  -1.66849  -5.25599
  -2.16384  -1.60869  -5.31589
  -3.12144  -1.48899  -5.31589
  -4.07914  -1.24949  -5.31589
  -5.15654  -1.06999  -5.37569
  -6.17404  -0.83059  -5.43559
  -7.25144  -0.53129  -5.43559
  -8.38874  -0.29189  -5.37569
  -9.64564  -0.17219  -5.25599
 -10.78294   0.18701  -5.25599
 -11.92014   0.54611  -5.07649
 -12.93764   0.90521  -4.95669
 -14.19464   1.14461  -4.71729
 -15.27204   1.44391  -4.53779
 -16.34934   1.68331  -4.29829
 -17.42674   1.80301  -4.11879
 -18.44434   1.98261  -3.75959
 -19.40194   2.16221  -3.52019
 -20.41954   2.28191  -3.34069
 -21.31734   2.34171  -2.98149
 -22.21514   2.34171  -2.68229
 -23.05314   2.40161  -2.44279
 -23.83124   2.34171  -2.14359
 -24.48964   2.28191  -1.84429
 -25.08814   2.16221  -1.42529
 -25.62684   2.04251  -1.18589
 -26.10574   1.92281  -0.82679
 -26.52464   1.74321  -0.52749
 -26.82394   1.68331  -0.16839
 -27.00354   1.50381   0.19081
 -27.18314   1.26431   0.43021
 -27.30284   1.20451   0.84921
 -27.36264   1.20451   1.26811
 -27.36264   1.14461   1.62731
 -27.24294   1.08481   1.98641
 -27.12324   0.96511   2.34551
 -26.94364   0.84541   2.70471
 -26.64444   0.66581   3.00391
 -26.34514   0.60591   3.30321
 -25.86624   0.48621   3.66231
 -25.56704   0.36651   3.90181
 -25.14804   0.24681   4.20101
 -24.66924   0.18701   4.38061
 -24.13054   0.12711   4.56021
 -23.59184   0.06731   4.67991
 -23.05314  -0.05249   4.73971
 -22.39474  -0.05249   4.85941
 -21.73634  -0.17219   4.85941
 -21.13774  -0.23199   4.85941
 -20.53924  -0.29189   4.91931
 -19.94064  -0.35169   4.85941
 -19.40194  -0.41159   4.79961
 -18.80344  -0.59109   4.79961
 -18.32454  -0.59109   4.73971
 -17.78594  -0.59109   4.67991
 -17.30704  -0.65099   4.67991
 -16.94794  -0.71089   4.73971
 -16.58884  -0.83059   4.79961
 -16.34934  -0.83059   4.79961
 -15.93044  -0.89039   4.79961
 -15.69094  -0.83059   4.91931
 -15.33184  -0.71089   5.03901
 -15.09244  -0.59109   5.09891
 -14.79314  -0.41159   5.27841
 -14.61364  -0.35169   5.39811
 -14.31434  -0.23199   5.51781
 -14.01504  -0.23199   5.69741
 -13.77564  -0.05249   5.93681
 -13.35664   0.12711   6.23611
 -13.11724   0.24681   6.53541
 -12.81794   0.36651   6.89451
 -12.33914   0.42641   7.13391
 -11.92014   0.60591   7.55291
 -11.38144   0.72571   7.97191
 -10.84274   0.90521   8.33101
 -10.18434   1.14461   8.80981
  -9.58584   1.32421   9.22881
  -9.04714   1.56361   9.64781
  -8.32884   1.74321   9.88721
  -7.61064   1.86291  10.36611
  -6.89234   2.04251  10.84491
  -6.17404   2.22201  11.08431
  -5.51564   2.46141  11.38361
  -4.79744   2.52131  11.68291
  -4.01934   2.70091  11.98211
  -3.36094   2.82061  12.16171
  -2.76234   2.94031  12.28141
  -2.10394   3.06001  12.46101
  -1.44554   3.11981  12.58071
  -1.02654   3.11981  12.58071
  -0.60754   3.06001  12.52081
  -0.06894   3.06001  12.52081
   0.40996   3.00011  12.58071
   0.82896   2.94031  12.52081
   1.24786   2.94031  12.46101
   1.66686   2.88041  12.40111
   2.14576   2.76071  12.28141
   2.56476   2.70091  12.22161
   2.86396   2.58121  11.98211
   3.28296   2.40161  11.80261
   3.64206   2.22201  11.62301
   4.06106   2.04251  11.50331
   4.48006   1.92281  11.38361
   4.89906   1.74321  11.26391
   5.25816   1.50381  11.08431
   5.67716   1.32421  10.96461
   6.09616   1.14461  10.78511
   6.45526   0.96511  10.66531
   6.81436   0.66581  10.66531
   7.23336   0.42641  10.60551
   7.53266   0.18701  10.60551
   8.01146   0.06731  10.66531
   8.37066  -0.11229  10.60551
   8.61006  -0.29189  10.66531
   8.84946  -0.47139  10.66531
   9.14876  -0.65099  10.66531
   9.38816  -0.77069  10.78511
   9.62756  -0.89039  10.84491
   9.80716  -0.95029  10.84491
   9.92686  -1.01009  10.90481
  10.10646  -1.01009  10.90481
  10.10646  -1.01009  10.96461
  10.16626  -1.01009  10.84491
  10.28596  -1.01009  10.84491
  10.46556  -0.95029  10.78511
  10.58526  -1.01009  10.72521
  10.82466  -0.89039  10.60551
  11.00426  -0.77069  10.48581
  11.24366  -0.53129  10.42591
  11.48306  -0.41159  10.24641
  11.72246  -0.41159  10.12671
  12.08166  -0.35169   9.94711
  12.44076  -0.23199   9.76751
  12.85976  -0.23199   9.58801
  13.39846  -0.23199   9.22881
  13.87726  -0.23199   8.92961
  14.41596  -0.29189   8.69011
  15.01446  -0.41159   8.21131
  15.55316  -0.41159   7.79231
  16.21156  -0.53129   7.31351
  16.92986  -0.53129   6.89451
  17.64806  -0.59109   6.35581
  18.24666  -0.71089   5.87701
  19.02476  -0.83059   5.45801
  19.68316  -0.89039   4.91931
  20.34156  -1.06999   4.44051
  20.99996  -1.24949   4.02151
  21.53866  -1.42909   3.48281
  22.19706  -1.48899   3.00391
  22.73576  -1.66849   2.58501
  23.21456  -1.84809   2.16601
  23.63356  -1.96779   1.68711
  24.05256  -2.08749   1.32801
  24.41166  -2.14739   0.90901
  24.77086  -2.26709   0.43021
  24.95036  -2.32689  -0.04869
  25.07006  -2.38679  -0.46759
  25.12996  -2.44659  -0.94649
  25.18976  -2.50649  -1.36549
  25.12996  -2.38679  -1.72459
  25.01026  -2.38679  -2.14359
  24.83066  -2.44659  -2.50269
  24.47156  -2.44659  -2.74209
  24.11246  -2.32689  -3.04139
  23.63356  -2.20719  -3.40049
  23.09486  -2.14739  -3.63989
  22.55616  -1.96779  -3.81949
  21.89776  -1.78819  -4.05889
  21.23936  -1.66849  -4.29829
  20.58096  -1.36929  -4.53779
  19.80286  -1.18969  -4.77719
  19.08466  -1.01009  -4.89689
  18.30646  -0.77069  -4.95669
  17.52836  -0.59109  -4.95669
  16.75026  -0.23199  -5.01659
  15.91236   0.00741  -5.07649
  15.19406   0.18701  -5.07649
  14.41596   0.36651  -4.95669
  13.57796   0.72571  -4.89689
  12.85976   0.84541  -4.83699
  12.08166   0.90521  -4.71729
  11.30346   0.90521  -4.59759
