********************************************************************************
              CENTRO DE INSTRUMENTACION Y REGISTRO SISMICO  A.C.

    Anaxagoras 814, Col. Narvarte, Benito Juarez, C.P. 03020 Mexico, D.F.
           Tels. 5687 45 42/ 5687 45  82             Fax. 5669 25 12
********************************************************************************
ARCHIVO ESTANDAR DE ACELERACION:
VERSION DEL FORMATO                    : 2.0
NOMBRE DEL ARCHIVO                     : AL0120160508073359
FECHA Y HORA DE CREACION               : 31/MAY/16, 11:10
REF. CATALOGO ACELEROGRAMAS, SMIS 1996 : REGISTRO No.     /PAG.


================================================================================
DATOS DE LA ESTACION:
NOMBRE DE LA ESTACION                  : ALAMEDA
CLAVE DE LA ESTACION                   : AL01
LOCALIZACION DE LA ESTACION            : Del. Cuauhtémoc, Col. Centro,          
                                       : Dr. Mora entre Av. Hidalgo             
                                       : y Av. Juárez.                          
                                       :                                        
                                       : 
COORDENADAS DE LA ESTACION             : 19.4356 LAT. N
                                       : 99.1453 LONG. W
ALTITUD (msnm)                         : 2232
TIPO DE SUELO                          : Terreno blando, material compresible
                                       : (arcillas)                
                                       : 
INSTITUCION RESPONSABLE                : CIRES, A. C.
                                       : 

================================================================================
DATOS DEL ACELEROGRAFO:
MODELO DEL ACELEROGRAFO                : RAD_IO14
NUMERO DE SERIE DEL ACELEROGRAFO       : 
NUMERO DE CANALES                      : 3
ORIENTACION C1-C6 (rumbo;orientacion)  : /S00E/+V/N90W
ORIENTACION C7-C12 (rumbo;orientacion) : 
VEL. DE MUESTREO, C1-C6 (muestras/s)   : /100/100/100
VEL. DE MUESTREO, C7-C12 (muestras/s)  : 
ESC. COMPLETA DE SENSORES, C1-C6, (g)  : /2.0/2.0/2.0
ESC. COMPLETA DE SENSORES, C7-C12, (g) : 
FREC. NAT. DE SENSORES, C1-C6, (Hz)    : /51.29/51.09/53.75
FREC. NAT. DE SENSORES, C7-C12, (Hz)   : 
AMORTIGUAMIENTO DE SENSORES, C1-C6     : /0.5519/0.5670/0.5810
AMORTIGUAMIENTO DE SENSORES, C7-C12    : 
INTERVALO DE MUESTREO, C1-C6, (s)      : /0.01/0.01/0.01
INTERVALO DE MUESTREO, C7-C12, (s)     : 
UMBRAL DE DISPARO, C1-C6, (Gal)        : / / /
UMBRAL DE DISPARO, C7-C12, (Gal)       : 
MEMORIA DE PREEVENTO (s)               : 60
TIEMPO DE POSEVENTO (s)                : 90


================================================================================
DATOS DEL SISMO:
FECHA DEL SISMO (GMT)                  : 08/MAY/16
HORA EPICENTRO (GMT)                   : 07:33:59.0
MAGNITUD(ES)                           : /Mc=6.0
COORDENADAS DEL EPICENTRO              : 16.25 LAT. N
                                       : 97.98 LONG. W
PROFUNDIDAD FOCAL (km)                 : 35
FUENTE DE LOS DATOS EPICENTRALES       : SSN
                                       : INSTITUTO DE GEOFISICA, UNAM

================================================================================
DATOS DE ESTE REGISTRO:
HORA DE LA PRIMERA MUESTRA (GMT)       : 02:33:30.00
EXACTITUD DEL TIEMPO (s)               : 
DURACION DEL REGISTRO (s), C1-C6       : /340.41/340.41/340.41
DURACION DEL REGISTRO (s), C7-C12      : 
NUM. TOTAL DE MUESTRAS, C1-C6          : /34041/34041/34041
NUM. TOTAL DE MUESTRAS, C7-C12         : 
ACEL. MAX. (Gal), C1-C6                : /5.08106/1.82205/4.11158
ACEL. MAX., C1-C6, EN LA MUESTRA       : /14012/14378/14098
ACEL. MAX. (Gal), C7-C12               : 
ACEL. MAX., C7-C12, EN LA MUESTRA      : 
UNIDADES DE LOS DATOS                  : Gal (cm/s/s)
FACTOR DE DECIMACION                   : 1
FORMATO DATOS (FORTRAN,10 campos/dato) : 3F10.5


================================================================================
CALIDAD DEL ACELEROGRAMA:
REGISTRO DIGITAL COMPLETO CON TIEMPO ABSOLUTO CORRECTO.


================================================================================
COMENTARIOS:














================================================================================
DATOS DE ACELERACION:
---------+---------+---------+---------+---------+---------+---------+---------+
   CANAL-1   CANAL-2   CANAL-3   CANAL-4   CANAL-5   CANAL-6   CANAL-7   CANAL-8
      N00E        +V      N90W
---------+---------+---------+---------+---------+---------+---------+---------+
[...]
  -1.25026   0.08625   0.37752
  -1.37006  -0.03345   0.13812
  -1.37006  -0.09335  -0.04148
  -1.48976  -0.09335  -0.22108
  -1.60946  -0.09335  -0.58018
  -1.66926  -0.15315  -0.75978
  -1.72916  -0.15315  -0.93928
  -1.84886  -0.09335  -1.23858
  -1.90876  -0.09335  -1.41818
  -2.02846  -0.09335  -1.71738
  -2.14816  -0.15315  -1.83708
  -2.20796  -0.15315  -2.07658
  -2.26786  -0.03345  -2.25608
  -2.20796  -0.03345  -2.31598
  -2.26786   0.02645  -2.37578
  -2.32766  -0.03345  -2.37578
  -2.32766  -0.09335  -2.31598
  -2.20796  -0.09335  -2.25608
  -2.08826   0.02645  -2.25608
  -2.02846   0.02645  -2.13638
  -1.90876   0.08625  -2.01668
  -1.84886   0.08625  -1.77728
  -1.66926   0.02645  -1.59768
  -1.48976   0.14615  -1.35828
  -1.37006   0.14615  -1.23858
  -1.25026   0.20595  -0.99918
  -1.13056   0.14615  -0.81958
  -0.83136   0.26585  -0.69988
  -0.65176   0.32565  -0.63998
  -0.53206   0.38555  -0.46048
  -0.23276   0.50525  -0.40058
   0.00664   0.50525  -0.40058
   0.12634   0.56505  -0.40058
   0.24604   0.56505  -0.46048
   0.48544   0.56505  -0.46048
   0.60514   0.56505  -0.58018
   0.72494   0.62495  -0.75978
   0.90444   0.56505  -0.99918
   1.02414   0.56505  -1.11888
   1.14384   0.50525  -1.17868
   1.26354   0.62495  -1.35828
   1.38334   0.44535  -1.59768
   1.44314   0.38555  -1.65758
   1.50304   0.38555  -1.83708
   1.62274   0.38555  -2.01668
   1.74244   0.26585  -2.01668
   1.80224   0.20595  -2.13638
   1.86214   0.08625  -2.25608
   2.04174   0.02645  -2.19628
   2.10154   0.02645  -2.07658
   2.10154  -0.15315  -2.01668
   2.10154  -0.21305  -1.95688
   2.16144  -0.21305  -1.77728
   2.22124  -0.27285  -1.59768
   2.16144  -0.33275  -1.41818
   2.16144  -0.45245  -1.23858
   2.22124  -0.45245  -1.11888
   2.22124  -0.51225  -0.93928
   2.28114  -0.63195  -0.75978
   2.28114  -0.75175  -0.46048
   2.28114  -0.69185  -0.22108
   2.34094  -0.75175  -0.10138
   2.28114  -0.75175   0.01842
   2.22124  -0.81155   0.25782
   2.22124  -0.75175   0.43732
   2.22124  -0.75175   0.55702
   2.16144  -0.75175   0.73662
   2.10154  -0.69185   0.85632
   1.98184  -0.57215   0.97602
   2.04174  -0.45245   0.97602
   2.04174  -0.33275   0.97602
   1.98184  -0.27285   1.03592
   1.92204  -0.27285   1.09572
   1.86214  -0.27285   1.09572
   1.68254  -0.27285   1.03592
   1.38334  -0.21305   0.97602
   1.20374  -0.03345   0.85632
   1.02414  -0.03345   0.67682
   0.78474   0.02645   0.55702
   0.54534   0.02645   0.43732
   0.30594   0.02645   0.25782
   0.12634   0.02645   0.07822
  -0.05326   0.02645  -0.04148
  -0.23276   0.02645  -0.34078
  -0.41236   0.02645  -0.58018
  -0.47216   0.08625  -0.69988
  -0.53206   0.14615  -0.93928
  -0.53206   0.14615  -1.05898
  -0.53206   0.26585  -1.17868
  -0.47216   0.26585  -1.17868
  -0.41236   0.26585  -1.29838
  -0.29266   0.26585  -1.23858
  -0.23276   0.20595  -1.11888
  -0.11306   0.20595  -0.99918
   0.00664   0.20595  -0.75978
   0.12634   0.08625  -0.40058
   0.24604   0.02645  -0.16118
   0.36574   0.02645   0.19792
   0.42564   0.02645   0.67682
   0.54534   0.08625   1.15562
   0.60514   0.14615   1.63442
   0.60514   0.02645   1.99362
   0.54534   0.08625   2.29282
   0.54534   0.14615   2.59212
   0.42564   0.08625   2.89142
   0.30594   0.20595   3.07092
   0.18624   0.20595   3.25052
   0.00664   0.20595   3.43012
  -0.17296   0.20595   3.43012
  -0.35246   0.26585   3.43012
  -0.53206   0.32565   3.25052
  -0.71166   0.38555   3.19072
  -0.89116   0.32565   2.89142
  -1.07076   0.38555   2.65202
  -1.25026   0.44535   2.23302
  -1.37006   0.50525   1.75412
  -1.54956   0.50525   1.33522
  -1.60946   0.50525   0.79652
  -1.78896   0.50525   0.31762
  -1.78896   0.44535  -0.16118
  -1.90876   0.44535  -0.63998
  -1.84886   0.32565  -0.93928
  -1.84886   0.38555  -1.29838
  -1.84886   0.32565  -1.53788
  -1.72916   0.26585  -1.71738
  -1.60946   0.20595  -1.89698
  -1.42986   0.14615  -2.07658
  -1.25026   0.08625  -2.07658
  -1.13056   0.08625  -2.01668
  -0.89116   0.08625  -2.01668
  -0.71166   0.02645  -1.77728
  -0.47216   0.02645  -1.65758
  -0.29266  -0.09335  -1.47798
  -0.05326  -0.09335  -1.23858
   0.12634  -0.21305  -0.87948
   0.30594  -0.21305  -0.63998
   0.42564  -0.21305  -0.28088
   0.54534  -0.27285   0.07822
   0.72494  -0.21305   0.31762
   0.78474  -0.27285   0.61692
   0.84464  -0.27285   0.85632
   0.84464  -0.33275   1.03592
   0.78474  -0.33275   1.15562
   0.72494  -0.33275   1.27532
   0.66504  -0.33275   1.39502
   0.48544  -0.39255   1.45492
   0.36574  -0.33275   1.39502
   0.24604  -0.33275   1.39502
   0.06654  -0.15315   1.33522
  -0.17296  -0.15315   1.27532
  -0.35246  -0.21305   1.09572
  -0.53206  -0.21305   0.91622
  -0.71166  -0.15315   0.73662
  -0.83136  -0.09335   0.67682
  -0.95106  -0.09335   0.43732
  -1.07076   0.02645   0.31762
  -1.19046   0.02645   0.13812
  -1.31016  -0.03345   0.01842
  -1.31016   0.02645  -0.16118
  -1.19046   0.02645  -0.28088
  -1.19046   0.08625  -0.46048
  -1.07076   0.08625  -0.58018
  -0.89116   0.08625  -0.52028
  -0.65176   0.14615  -0.63998
  -0.47216   0.08625  -0.63998
  -0.29266   0.14615  -0.75978
   0.00664   0.14615  -0.81958
   0.30594   0.14615  -0.93928
   0.54534   0.20595  -0.87948
   0.78474   0.20595  -0.87948
   1.02414   0.26585  -0.87948
   1.26354   0.32565  -0.87948
   1.38334   0.32565  -0.87948
   1.56284   0.38555  -0.87948
   1.62274   0.38555  -0.69988
   1.68254   0.38555  -0.63998
   1.68254   0.50525  -0.52028
   1.62274   0.56505  -0.34078
   1.56284   0.62495  -0.34078
   1.44314   0.56505  -0.34078
   1.38334   0.62495  -0.28088
   1.20374   0.56505  -0.34078
   1.08404   0.56505  -0.28088
   0.90444   0.50525  -0.16118
   0.72494   0.44535  -0.22108
   0.48544   0.32565  -0.28088
   0.18624   0.26585  -0.40058
  -0.05326   0.26585  -0.40058
  -0.23276   0.20595  -0.46048
  -0.47216   0.20595  -0.58018
  -0.71166   0.14615  -0.69988
  -0.89116   0.08625  -0.75978
  -1.07076  -0.03345  -0.75978
  -1.13056  -0.15315  -0.99918
  -1.25026  -0.27285  -1.11888
  -1.31016  -0.39255  -1.17868
  -1.42986  -0.45245  -1.11888
  -1.37006  -0.51225  -1.17868
  -1.42986  -0.63195  -1.23858
  -1.42986  -0.75175  -1.29838
  -1.25026  -0.87145  -1.29838
  -1.25026  -0.99115  -1.17868
  -1.19046  -1.11085  -1.17868
  -1.01086  -1.23055  -1.29838
  -0.89116  -1.29035  -1.23858
  -0.83136  -1.29035  -1.23858
  -0.71166  -1.23055  -1.23858
  -0.59186  -1.29035  -1.23858
  -0.35246  -1.29035  -1.23858
  -0.29266  -1.29035  -1.17868
  -0.17296  -1.17065  -0.99918
  -0.11306  -1.23055  -0.93928
  -0.05326  -1.11085  -0.81958
   0.00664  -1.11085  -0.69988
   0.06654  -1.05095  -0.52028
   0.12634  -0.87145  -0.46048
   0.18624  -0.75175  -0.40058
   0.18624  -0.69185  -0.16118
   0.24604  -0.57215  -0.10138
   0.12634  -0.45245   0.01842
   0.18624  -0.33275   0.13812
   0.24604  -0.15315   0.19792
   0.24604  -0.09335   0.25782
   0.18624  -0.03345   0.25782
   0.18624   0.08625   0.25782
   0.24604   0.20595   0.31762
   0.18624   0.32565   0.37752
   0.30594   0.44535   0.37752
   0.30594   0.50525   0.37752
   0.36574   0.56505   0.31762
   0.48544   0.68485   0.25782
   0.54534   0.68485   0.31762
   0.60514   0.74465   0.37752
   0.66504   0.80455   0.43732
   0.78474   0.86435   0.49722
   0.84464   0.92425   0.43732
   1.02414   0.92425   0.49722
   1.20374   0.98405   0.55702
   1.32344   0.86435   0.55702
   1.44314   0.86435   0.67682
   1.56284   0.86435   0.73662
   1.68254   0.74465   0.79652
   1.86214   0.62495   0.85632
   1.86214   0.68485   0.91622
   1.92204   0.68485   0.97602
   1.92204   0.62495   1.03592
   2.04174   0.62495   1.15562
   2.04174   0.62495   1.27532
   1.98184   0.44535   1.39502
   1.98184   0.50525   1.45492
   1.98184   0.44535   1.51472
   1.86214   0.50525   1.63442
   1.74244   0.56505   1.69432
   1.68254   0.44535   1.69432
   1.50304   0.50525   1.69432
   1.38334   0.50525   1.63442
   1.14384   0.50525   1.57462
   0.96434   0.56505   1.57462
   0.72494   0.50525   1.51472
   0.54534   0.50525   1.45492
   0.42564   0.50525   1.33522
   0.30594   0.50525   1.09572
   0.12634   0.50525   0.91622
  -0.11306   0.44535   0.73662
  -0.23276   0.44535   0.67682
  -0.35246   0.44535   0.31762
  -0.47216   0.32565   0.07822
  -0.59186   0.26585  -0.22108
  -0.71166   0.20595  -0.46048
  -0.77146   0.08625  -0.69988
  -0.77146  -0.09335  -0.87948
  -0.83136  -0.21305  -1.17868
  -0.83136  -0.33275  -1.41818
  -0.77146  -0.39255  -1.71738
  -0.65176  -0.51225  -1.89698
  -0.59186  -0.63195  -2.13638
  -0.53206  -0.75175  -2.25608
  -0.35246  -0.81155  -2.43568
  -0.29266  -0.93125  -2.55538
  -0.23276  -0.99115  -2.61528
  -0.11306  -1.05095  -2.61528
  -0.05326  -1.17065  -2.61528
   0.12634  -1.17065  -2.49548
   0.18624  -1.23055  -2.37578
   0.30594  -1.29035  -2.25608
   0.42564  -1.35025  -2.07658
   0.54534  -1.29035  -1.83708
   0.66504  -1.29035  -1.53788
   0.72494  -1.17065  -1.17868
   0.78474  -1.17065  -0.87948
   0.78474  -1.11085  -0.52028
   0.72494  -1.05095  -0.22108
   0.78474  -0.93125   0.13812
   0.72494  -0.81155   0.43732
   0.72494  -0.63195   0.85632
   0.60514  -0.57215   1.15562
   0.48544  -0.45245   1.45492
   0.42564  -0.27285   1.69432
   0.24604  -0.09335   1.87392
   0.18624  -0.03345   2.17312
   0.12634   0.14615   2.35272
   0.00664   0.32565   2.41252
  -0.11306   0.32565   2.59212
  -0.23276   0.32565   2.59212
  -0.29266   0.38555   2.59212
  -0.35246   0.50525   2.53232
  -0.41236   0.44535   2.41252
  -0.47216   0.56505   2.29282
  -0.53206   0.62495   2.17312
  -0.53206   0.74465   1.99362
  -0.47216   0.80455   1.81402
  -0.53206   0.80455   1.45492
  -0.47216   0.86435   1.15562
  -0.35246   0.98405   0.97602
  -0.35246   0.98405   0.73662
  -0.35246   1.04395   0.55702
  -0.29266   1.10375   0.25782
  -0.29266   1.16365   0.01842
  -0.17296   1.10375  -0.10138
  -0.17296   1.04395  -0.22108
  -0.11306   0.98405  -0.34078
  -0.17296   0.80455  -0.40058
  -0.29266   0.68485  -0.40058
  -0.29266   0.56505  -0.46048
  -0.47216   0.38555  -0.40058
  -0.65176   0.20595  -0.34078
  -0.83136   0.08625  -0.22108
  -1.01086  -0.09335  -0.16118
  -1.31016  -0.33275   0.07822
  -1.60946  -0.45245   0.19792
  -1.96856  -0.69185   0.31762
  -2.26786  -0.81155   0.49722
  -2.50726  -0.81155   0.61692
  -2.74666  -0.87145   0.85632
  -3.10576  -1.05095   0.91622
  -3.40506  -1.11085   1.03592
  -3.70436  -0.99115   1.03592
  -3.94376  -0.93125   1.09572
  -4.18316  -0.87145   1.03592
  -4.48246  -0.75175   1.03592
  -4.60216  -0.63195   0.97602
  -4.72186  -0.63195   0.85632
  -4.84156  -0.51225   0.73662
  -4.96126  -0.45245   0.55702
  -5.02116  -0.39255   0.55702
  -4.96126  -0.33275   0.37752
  -5.08106  -0.27285   0.07822
  -5.02116  -0.21305  -0.10138
  -4.96126  -0.09335  -0.40058
  -4.96126  -0.09335  -0.58018
  -4.90146  -0.03345  -0.75978
  -4.72186  -0.03345  -0.87948
  -4.60216  -0.15315  -0.93928
  -4.42266  -0.27285  -1.05898
  -4.12336  -0.21305  -1.05898
  -3.88396  -0.21305  -1.05898
  -3.52476  -0.27285  -0.99918
  -3.10576  -0.21305  -0.87948
  -2.68686  -0.27285  -0.87948
  -2.14816  -0.33275  -0.81958
  -1.66926  -0.27285  -0.63998
  -1.19046  -0.33275  -0.63998
  -0.71166  -0.27285  -0.58018
  -0.23276  -0.33275  -0.40058
   0.18624  -0.33275  -0.22108
   0.54534  -0.21305  -0.10138
   0.90444  -0.21305   0.01842
   1.32344  -0.27285   0.13812
   1.62274  -0.21305   0.37752
   2.04174  -0.15315   0.55702
   2.40084  -0.09335   0.67682
   2.64024  -0.09335   0.79652
   2.93954   0.02645   0.91622
   3.11904   0.02645   1.09572
   3.35854   0.08625   1.15562
   3.47824   0.08625   1.27532
   3.59794   0.14615   1.27532
   3.65774   0.08625   1.27532
   3.71764   0.14615   1.27532
   3.71764   0.26585   1.27532
   3.77744   0.32565   1.27532
   3.71764   0.32565   1.21542
   3.71764   0.44535   1.27532
   3.65774   0.44535   1.15562
   3.53804   0.44535   1.15562
   3.41834   0.50525   1.03592
   3.35854   0.50525   0.97602
   3.17894   0.62495   0.97602
   2.99934   0.56505   0.91622
   2.87964   0.62495   0.91622
   2.75994   0.62495   0.91622
   2.64024   0.56505   0.91622
   2.52054   0.62495   0.85632
   2.34094   0.62495   0.97602
   2.16144   0.68485   1.03592
   2.04174   0.68485   1.09572
   1.92204   0.62495   1.15562
   1.74244   0.68485   1.27532
   1.68254   0.74465   1.39502
   1.62274   0.74465   1.51472
   1.50304   0.68485   1.69432
   1.38334   0.68485   1.75412
   1.26354   0.68485   1.93372
   1.14384   0.62495   2.17312
   1.20374   0.68485   2.29282
   1.20374   0.56505   2.35272
   1.20374   0.56505   2.47242
   1.20374   0.50525   2.53232
   1.14384   0.44535   2.59212
   1.14384   0.44535   2.59212
   1.32344   0.38555   2.53232
   1.38334   0.32565   2.41252
   1.38334   0.26585   2.23302
   1.50304   0.14615   2.05342
   1.62274   0.08625   1.69432
   1.68254   0.02645   1.39502
   1.86214   0.02645   1.09572
   1.98184  -0.09335   0.73662
   1.98184  -0.15315   0.31762
   2.10154  -0.27285  -0.16118
   2.10154  -0.21305  -0.58018
   2.22124  -0.21305  -0.93928
   2.34094  -0.27285  -1.41818
   2.34094  -0.33275  -1.83708
   2.28114  -0.27285  -2.25608
   2.28114  -0.33275  -2.61528
   2.22124  -0.45245  -2.97438
   2.10154  -0.51225  -3.15388
   1.98184  -0.51225  -3.39338
   1.86214  -0.51225  -3.69258
   1.68254  -0.57215  -3.87218
   1.50304  -0.63195  -3.99188
   1.32344  -0.63195  -4.11158
   1.08404  -0.69185  -4.05178
   0.90444  -0.75175  -3.93208
   0.66504  -0.81155  -3.87218
   0.48544  -0.93125  -3.75248
   0.24604  -0.93125  -3.69258
  -0.05326  -0.99115  -3.57288
  -0.17296  -0.99115  -3.39338
  -0.41236  -0.93125  -3.15388
  -0.53206  -0.93125  -2.91448
  -0.71166  -0.93125  -2.73498
  -0.95106  -0.93125  -2.61528
  -1.19046  -0.93125  -2.49548
  -1.31016  -0.81155  -2.43568
  -1.48976  -0.75175  -2.25608
  -1.54956  -0.69185  -2.19628
  -1.72916  -0.51225  -2.01668
  -1.78896  -0.45245  -1.95688
  -1.84886  -0.27285  -2.01668
  -1.90876  -0.03345  -1.83708
  -1.96856   0.08625  -1.83708
  -1.84886   0.26585  -1.77728
  -1.72916   0.44535  -1.83708
  -1.66926   0.56505  -1.89698
  -1.54956   0.80455  -1.95688
  -1.37006   0.86435  -1.95688
  -1.19046   0.92425  -1.95688
  -1.01086   0.92425  -2.07658
  -0.83136   1.10375  -2.07658
  -0.53206   1.04395  -2.13638
  -0.29266   1.04395  -2.19628
  -0.05326   0.98405  -2.13638
   0.18624   0.98405  -2.01668
   0.42564   0.92425  -2.07658
   0.60514   0.86435  -2.07658
   0.84464   0.74465  -2.01668
   0.96434   0.56505  -1.95688
   1.14384   0.44535  -1.89698
   1.20374   0.32565  -1.71738
   1.26354   0.14615  -1.53788
   1.32344  -0.09335  -1.35828
   1.38334  -0.27285  -1.11888
   1.38334  -0.39255  -0.93928
   1.38334  -0.45245  -0.69988
   1.38334  -0.63195  -0.58018
   1.38334  -0.69185  -0.34078
   1.32344  -0.69185  -0.22108
   1.20374  -0.69185  -0.04148
   1.08404  -0.63195   0.19792
   1.02414  -0.57215   0.37752
   0.90444  -0.57215   0.55702
   0.78474  -0.45245   0.73662
   0.66504  -0.45245   0.85632
   0.48544  -0.27285   0.97602
   0.42564  -0.15315   1.15562
   0.18624  -0.03345   1.21542
   0.00664   0.08625   1.33522
  -0.17296   0.20595   1.51472
  -0.35246   0.26585   1.57462
  -0.47216   0.44535   1.57462
  -0.59186   0.56505   1.63442
  -0.83136   0.62495   1.51472
  -0.95106   0.74465   1.63442
  -1.01086   0.74465   1.63442
