********************************************************************************
              CENTRO DE INSTRUMENTACION Y REGISTRO SISMICO  A.C.

    Anaxagoras 814, Col. Narvarte, Benito Juarez, C.P. 03020 Mexico, D.F.
           Tels. 5687 45 42/ 5687 45  82             Fax. 5669 25 12
********************************************************************************
ARCHIVO ESTANDAR DE ACELERACION:
VERSION DEL FORMATO                    : 2.0
NOMBRE DEL ARCHIVO                     : AL0120170202005209
FECHA Y HORA DE CREACION               : 02/FEB/17, 09:49
REF. CATALOGO ACELEROGRAMAS, SMIS 1996 : REGISTRO No.     /PAG.


================================================================================
DATOS DE LA ESTACION:
NOMBRE DE LA ESTACION                  : ALAMEDA
CLAVE DE LA ESTACION                   : AL01
LOCALIZACION DE LA ESTACION            : Del. Cuauhtémoc, Col. Centro,          
                                       : Dr. Mora entre Av. Hidalgo             
                                       : y Av. Juárez.                          
                                       :                                        
                                       : 
COORDENADAS DE LA ESTACION             : 19.4356 LAT. N
                                       : 99.1453 LONG. W
ALTITUD (msnm)                         : 2232
TIPO DE SUELO                          : Terreno blando, material compresible
                                       : (arcillas)                
                                       : 
INSTITUCION RESPONSABLE                : CIRES, A. C.
                                       : 

================================================================================
DATOS DEL ACELEROGRAFO:
MODELO DEL ACELEROGRAFO                : RAD_IO14
NUMERO DE SERIE DEL ACELEROGRAFO       : 
NUMERO DE CANALES                      : 3
ORIENTACION C1-C6 (rumbo;orientacion)  : /S00E/+V/N90W
ORIENTACION C7-C12 (rumbo;orientacion) : 
VEL. DE MUESTREO, C1-C6 (muestras/s)   : /100/100/100
VEL. DE MUESTREO, C7-C12 (muestras/s)  : 
ESC. COMPLETA DE SENSORES, C1-C6, (g)  : /2.0/2.0/2.0
ESC. COMPLETA DE SENSORES, C7-C12, (g) : 
FREC. NAT. DE SENSORES, C1-C6, (Hz)    : /51.29/51.09/53.75
FREC. NAT. DE SENSORES, C7-C12, (Hz)   : 
AMORTIGUAMIENTO DE SENSORES, C1-C6     : /0.5519/0.5670/0.5810
AMORTIGUAMIENTO DE SENSORES, C7-C12    : 
INTERVALO DE MUESTREO, C1-C6, (s)      : /0.01/0.01/0.01
INTERVALO DE MUESTREO, C7-C12, (s)     : 
UMBRAL DE DISPARO, C1-C6, (Gal)        : / / /
UMBRAL DE DISPARO, C7-C12, (Gal)       : 
MEMORIA DE PREEVENTO (s)               : 60
TIEMPO DE POSEVENTO (s)                : 90


================================================================================
DATOS DEL SISMO:
FECHA DEL SISMO (GMT)                  : 02/FEB/17
HORA EPICENTRO (GMT)                   : 00:52:09.0
MAGNITUD(ES)                           : /Mc=5.0
COORDENADAS DEL EPICENTRO              : 17.20 LAT. N
                                       : 101.28 LONG. W
PROFUNDIDAD FOCAL (km)                 : 16
FUENTE DE LOS DATOS EPICENTRALES       : SSN
                                       : INSTITUTO DE GEOFISICA, UNAM

================================================================================
DATOS DE ESTE REGISTRO:
HORA DE LA PRIMERA MUESTRA (GMT)       : 18:51:41.00
EXACTITUD DEL TIEMPO (s)               : 
DURACION DEL REGISTRO (s), C1-C6       : /233.23/233.23/233.23
DURACION DEL REGISTRO (s), C7-C12      : 
NUM. TOTAL DE MUESTRAS, C1-C6          : /23323/23323/23323
NUM. TOTAL DE MUESTRAS, C7-C12         : 
ACEL. MAX. (Gal), C1-C6                : /0.92463/0.48791/0.77566
ACEL. MAX., C1-C6, EN LA MUESTRA       : /12607/12026/11930
ACEL. MAX. (Gal), C7-C12               : 
ACEL. MAX., C7-C12, EN LA MUESTRA      : 
UNIDADES DE LOS DATOS                  : Gal (cm/s/s)
FACTOR DE DECIMACION                   : 1
FORMATO DATOS (FORTRAN,10 campos/dato) : 3F10.5


================================================================================
CALIDAD DEL ACELEROGRAMA:
REGISTRO DIGITAL COMPLETO CON TIEMPO ABSOLUTO CORRECTO.


================================================================================
COMENTARIOS:














================================================================================
DATOS DE ACELERACION:
---------+---------+---------+---------+---------+---------+---------+---------+
   CANAL-1   CANAL-2   CANAL-3   CANAL-4   CANAL-5   CANAL-6   CANAL-7   CANAL-8
      N00E        +V      N90W
---------+---------+---------+---------+---------+---------+---------+---------+
[...]
   0.09287   0.06901  -0.29686
   0.03307   0.00911  -0.23696
  -0.02683  -0.11059  -0.17716
  -0.08673  -0.17049  -0.11726
  -0.14653  -0.17049  -0.11726
  -0.20643  -0.17049  -0.17716
  -0.26623  -0.17049  -0.11726
  -0.32613  -0.17049  -0.05746
  -0.32613  -0.17049  -0.05746
  -0.38593  -0.23029  -0.05746
  -0.32613  -0.29019  -0.05746
  -0.32613  -0.29019  -0.05746
  -0.38593  -0.23029  -0.05746
  -0.32613  -0.05079  -0.05746
  -0.38593  -0.11059  -0.05746
  -0.50563  -0.05079  -0.05746
  -0.38593   0.18871  -0.05746
  -0.26623   0.18871   0.12214
  -0.20643   0.18871   0.12214
  -0.08673   0.12881   0.06234
  -0.08673   0.18871   0.12214
  -0.02683   0.30841   0.06234
   0.03307   0.30841   0.12214
   0.09287   0.24851   0.18204
   0.03307   0.18871   0.24184
   0.03307   0.12881   0.30174
   0.21257   0.12881   0.18204
   0.21257   0.06901   0.12214
   0.33227   0.00911   0.24184
   0.21257   0.00911   0.12214
   0.15277   0.00911   0.12214
   0.09287   0.12881   0.12214
   0.09287   0.18871   0.18204
   0.03307   0.06901   0.12214
  -0.02683  -0.05079   0.12214
  -0.08673   0.00911   0.06234
  -0.20643   0.06901   0.06234
  -0.26623   0.12881   0.06234
  -0.32613   0.12881   0.00244
  -0.38593   0.18871  -0.05746
  -0.50563   0.18871  -0.11726
  -0.50563   0.06901  -0.17716
  -0.50563   0.00911  -0.11726
  -0.50563  -0.05079  -0.11726
  -0.50563  -0.11059  -0.23696
  -0.62533  -0.05079  -0.29686
  -0.56553   0.00911  -0.35666
  -0.44583  -0.11059  -0.35666
  -0.44583  -0.05079  -0.41656
  -0.38593   0.00911  -0.35666
  -0.26623   0.00911  -0.29686
  -0.20643   0.00911  -0.23696
  -0.20643   0.00911  -0.23696
  -0.20643   0.00911  -0.17716
  -0.08673   0.06901  -0.05746
   0.09287   0.06901   0.00244
   0.09287   0.06901   0.00244
   0.15277   0.00911   0.06234
   0.15277   0.00911   0.06234
   0.21257   0.12881   0.06234
   0.27247   0.12881   0.12214
   0.39217   0.12881   0.18204
   0.39217   0.12881   0.24184
   0.33227   0.12881   0.18204
   0.45197   0.12881   0.06234
   0.51187   0.06901   0.06234
   0.57167   0.00911   0.06234
   0.63157   0.00911  -0.05746
   0.57167  -0.05079  -0.05746
   0.63157  -0.11059  -0.05746
   0.63157  -0.11059  -0.17716
   0.63157  -0.05079  -0.23696
   0.57167  -0.11059  -0.29686
   0.63157  -0.11059  -0.29686
   0.57167  -0.17049  -0.35666
   0.51187  -0.23029  -0.35666
   0.51187  -0.11059  -0.41656
   0.45197  -0.11059  -0.41656
   0.51187  -0.17049  -0.47636
   0.45197  -0.23029  -0.35666
   0.45197  -0.11059  -0.47636
   0.33227  -0.11059  -0.35666
   0.27247  -0.17049  -0.29686
   0.27247  -0.17049  -0.35666
   0.27247  -0.05079  -0.29686
   0.15277   0.06901  -0.29686
   0.09287   0.06901  -0.17716
  -0.02683   0.12881  -0.11726
  -0.02683   0.12881  -0.11726
  -0.02683   0.12881  -0.11726
  -0.08673   0.18871  -0.17716
  -0.02683   0.18871  -0.17716
  -0.08673   0.18871  -0.11726
  -0.08673   0.18871  -0.11726
  -0.08673   0.18871  -0.11726
  -0.08673   0.18871  -0.11726
  -0.02683   0.24851  -0.17716
  -0.02683   0.18871  -0.23696
   0.03307   0.12881  -0.11726
   0.03307   0.12881  -0.11726
   0.09287   0.06901  -0.11726
   0.03307   0.00911   0.00244
   0.15277   0.12881   0.00244
   0.15277   0.00911  -0.05746
   0.15277  -0.05079   0.00244
   0.15277  -0.05079   0.06234
   0.21257  -0.11059   0.06234
   0.21257  -0.05079   0.12214
   0.15277  -0.05079   0.06234
   0.15277  -0.05079   0.12214
   0.15277  -0.05079   0.18204
   0.15277  -0.05079   0.12214
   0.09287   0.00911   0.24184
   0.03307  -0.05079   0.36154
  -0.08673  -0.05079   0.42144
  -0.08673  -0.05079   0.42144
  -0.08673  -0.11059   0.48124
  -0.14653  -0.05079   0.48124
  -0.20643  -0.11059   0.48124
  -0.26623  -0.17049   0.36154
  -0.32613  -0.17049   0.36154
  -0.32613  -0.17049   0.30174
  -0.32613  -0.17049   0.24184
  -0.44583  -0.17049   0.24184
  -0.44583  -0.11059   0.18204
  -0.38593   0.06901   0.12214
  -0.32613   0.12881   0.00244
  -0.26623   0.12881   0.00244
  -0.14653   0.00911  -0.11726
  -0.08673   0.06901  -0.17716
  -0.02683   0.06901  -0.05746
  -0.02683   0.06901   0.00244
  -0.08673   0.06901  -0.11726
   0.03307   0.06901  -0.11726
   0.15277   0.06901  -0.11726
   0.21257   0.06901  -0.11726
   0.27247   0.06901  -0.11726
   0.27247   0.00911  -0.11726
   0.33227  -0.05079  -0.17716
   0.39217  -0.11059  -0.11726
   0.45197  -0.11059  -0.05746
   0.45197  -0.05079  -0.05746
   0.39217  -0.05079   0.00244
   0.39217  -0.05079   0.06234
   0.27247  -0.11059   0.18204
   0.33227  -0.11059   0.24184
   0.33227  -0.17049   0.36154
   0.21257  -0.17049   0.42144
   0.15277  -0.11059   0.42144
   0.15277  -0.11059   0.54114
   0.15277  -0.11059   0.48124
   0.03307  -0.17049   0.54114
   0.03307  -0.11059   0.54114
  -0.08673  -0.17049   0.48124
  -0.08673  -0.17049   0.48124
  -0.08673  -0.17049   0.48124
  -0.14653  -0.11059   0.42144
  -0.08673  -0.05079   0.42144
  -0.14653  -0.05079   0.36154
  -0.14653  -0.05079   0.18204
  -0.20643  -0.05079   0.12214
  -0.14653   0.00911   0.06234
  -0.26623  -0.05079  -0.05746
  -0.26623   0.00911  -0.05746
  -0.32613   0.18871  -0.11726
  -0.26623   0.24851  -0.17716
  -0.20643   0.30841  -0.17716
  -0.14653   0.30841  -0.23696
  -0.14653   0.36821  -0.23696
  -0.14653   0.24851  -0.35666
  -0.20643   0.18871  -0.35666
  -0.26623   0.12881  -0.29686
  -0.26623   0.12881  -0.23696
  -0.32613   0.12881  -0.23696
  -0.26623   0.24851  -0.11726
  -0.14653   0.18871  -0.17716
  -0.14653   0.12881  -0.17716
  -0.20643   0.06901  -0.23696
  -0.32613  -0.05079  -0.17716
  -0.38593  -0.05079  -0.05746
  -0.38593  -0.05079   0.00244
  -0.38593  -0.11059   0.12214
  -0.38593  -0.11059   0.24184
  -0.38593  -0.05079   0.24184
  -0.44583  -0.05079   0.24184
  -0.38593  -0.05079   0.24184
  -0.44583  -0.11059   0.36154
  -0.44583  -0.05079   0.36154
  -0.44583  -0.05079   0.36154
  -0.38593  -0.05079   0.24184
  -0.38593  -0.05079   0.18204
  -0.38593   0.06901   0.12214
  -0.38593   0.12881   0.06234
  -0.38593   0.24851   0.06234
  -0.32613   0.18871   0.00244
  -0.32613   0.24851  -0.11726
  -0.20643   0.30841  -0.23696
  -0.26623   0.36821  -0.29686
  -0.20643   0.36821  -0.35666
  -0.26623   0.30841  -0.35666
  -0.20643   0.18871  -0.41656
  -0.20643   0.12881  -0.53626
  -0.14653   0.00911  -0.59606
  -0.08673  -0.05079  -0.65596
  -0.08673  -0.05079  -0.65596
  -0.02683  -0.11059  -0.47636
  -0.08673  -0.17049  -0.53626
   0.03307  -0.23029  -0.41656
   0.09287  -0.23029  -0.29686
   0.15277  -0.29019  -0.29686
   0.21257  -0.23029  -0.29686
   0.27247  -0.29019  -0.23696
   0.39217  -0.34999  -0.17716
   0.45197  -0.40989   0.00244
   0.57167  -0.29019   0.12214
   0.57167  -0.34999   0.06234
   0.57167  -0.34999   0.18204
   0.69147  -0.29019   0.18204
   0.63157  -0.23029   0.12214
   0.69147  -0.29019   0.18204
   0.63157  -0.29019   0.18204
   0.69147  -0.23029   0.18204
   0.57167  -0.23029   0.18204
   0.45197  -0.11059   0.12214
   0.45197  -0.17049   0.00244
   0.33227  -0.17049  -0.05746
   0.27247  -0.11059  -0.05746
   0.15277   0.06901  -0.05746
   0.03307   0.00911  -0.17716
  -0.02683   0.06901  -0.11726
  -0.02683   0.12881  -0.23696
  -0.08673   0.12881  -0.29686
  -0.26623   0.12881  -0.29686
  -0.38593   0.12881  -0.29686
  -0.44583   0.12881  -0.17716
  -0.50563   0.12881  -0.23696
  -0.50563   0.18871  -0.23696
  -0.50563   0.24851  -0.17716
  -0.50563   0.12881  -0.17716
  -0.56553   0.18871  -0.05746
  -0.62533   0.12881  -0.05746
  -0.56553   0.06901  -0.05746
  -0.44583   0.12881  -0.11726
  -0.38593   0.18871  -0.05746
  -0.26623   0.18871  -0.05746
  -0.20643   0.24851  -0.11726
  -0.02683   0.24851  -0.11726
   0.15277   0.24851  -0.11726
   0.15277   0.18871  -0.05746
   0.27247   0.18871  -0.05746
   0.33227   0.12881  -0.05746
   0.39217   0.12881  -0.05746
   0.45197   0.06901  -0.11726
   0.45197   0.12881  -0.05746
   0.39217   0.12881  -0.05746
   0.39217   0.18871  -0.05746
   0.39217   0.12881  -0.05746
   0.39217   0.18871  -0.11726
   0.39217   0.18871   0.06234
   0.33227   0.12881   0.06234
   0.27247   0.12881   0.06234
   0.21257   0.06901   0.18204
   0.15277   0.00911   0.18204
   0.15277   0.00911   0.18204
   0.09287   0.06901   0.18204
   0.09287   0.06901   0.18204
   0.09287  -0.05079   0.24184
   0.09287  -0.05079   0.24184
   0.03307   0.00911   0.18204
  -0.02683  -0.05079   0.12214
  -0.02683  -0.05079   0.24184
  -0.08673  -0.05079   0.24184
  -0.08673  -0.11059   0.06234
  -0.02683  -0.11059   0.06234
  -0.02683  -0.11059   0.06234
  -0.08673  -0.11059   0.00244
  -0.02683  -0.05079   0.00244
  -0.08673  -0.11059   0.06234
  -0.14653  -0.17049   0.00244
  -0.14653  -0.29019  -0.05746
  -0.20643  -0.29019  -0.05746
  -0.20643  -0.34999   0.00244
  -0.32613  -0.23029   0.00244
  -0.26623  -0.23029   0.06234
  -0.26623  -0.23029   0.06234
  -0.20643  -0.17049   0.06234
  -0.20643  -0.17049   0.06234
  -0.14653  -0.17049   0.12214
  -0.20643  -0.23029   0.18204
  -0.14653  -0.23029   0.12214
  -0.14653  -0.17049   0.18204
  -0.08673  -0.17049   0.18204
  -0.08673  -0.17049   0.12214
  -0.08673  -0.11059   0.06234
   0.03307  -0.05079   0.06234
  -0.02683   0.12881   0.00244
  -0.02683   0.18871   0.00244
   0.03307   0.36821   0.06234
   0.09287   0.36821   0.06234
   0.09287   0.36821   0.00244
   0.09287   0.36821   0.00244
   0.15277   0.36821   0.00244
   0.09287   0.36821   0.00244
   0.03307   0.30841  -0.05746
   0.03307   0.30841  -0.17716
   0.09287   0.24851  -0.11726
   0.03307   0.18871  -0.05746
   0.03307   0.12881  -0.11726
   0.15277   0.12881  -0.05746
   0.03307   0.18871  -0.05746
   0.03307   0.06901  -0.05746
   0.03307  -0.05079  -0.11726
   0.09287  -0.05079   0.00244
   0.21257  -0.05079  -0.11726
   0.27247  -0.11059  -0.05746
   0.27247  -0.11059   0.06234
   0.33227  -0.23029   0.18204
   0.39217  -0.23029   0.18204
   0.39217  -0.23029   0.18204
   0.39217  -0.29019   0.18204
   0.45197  -0.17049   0.18204
   0.57167  -0.23029   0.30174
   0.63157  -0.23029   0.30174
   0.63157  -0.17049   0.36154
   0.63157  -0.23029   0.36154
   0.57167  -0.23029   0.42144
   0.51187  -0.23029   0.42144
   0.45197  -0.29019   0.48124
   0.39217  -0.17049   0.42144
   0.39217   0.00911   0.48124
   0.27247   0.06901   0.48124
   0.21257   0.06901   0.36154
   0.21257   0.06901   0.42144
   0.09287   0.00911   0.36154
   0.03307  -0.05079   0.30174
  -0.14653   0.00911   0.18204
  -0.26623   0.00911   0.18204
  -0.38593   0.06901   0.18204
  -0.44583   0.18871   0.12214
  -0.62533   0.24851   0.12214
  -0.74513   0.30841   0.06234
  -0.80493   0.36821  -0.11726
  -0.80493   0.36821  -0.17716
  -0.74513   0.18871  -0.11726
  -0.80493   0.00911  -0.23696
  -0.80493  -0.05079  -0.23696
  -0.92463  -0.11059  -0.29686
  -0.86483  -0.17049  -0.29686
  -0.86483  -0.05079  -0.23696
  -0.68523  -0.11059  -0.23696
  -0.68523  -0.29019  -0.17716
  -0.62533  -0.34999  -0.17716
  -0.62533  -0.34999  -0.11726
  -0.50563  -0.40989  -0.11726
  -0.44583  -0.46969  -0.11726
  -0.26623  -0.40989  -0.05746
  -0.20643  -0.40989   0.06234
  -0.02683  -0.40989   0.12214
  -0.02683  -0.34999   0.12214
   0.09287  -0.23029   0.18204
   0.15277  -0.29019   0.12214
   0.21257  -0.29019   0.18204
   0.21257  -0.23029   0.30174
   0.15277  -0.17049   0.30174
   0.15277  -0.05079   0.30174
   0.09287  -0.05079   0.30174
   0.15277   0.06901   0.24184
   0.15277   0.12881   0.24184
   0.03307   0.18871   0.18204
   0.03307   0.18871   0.06234
  -0.02683   0.18871   0.00244
  -0.02683   0.24851   0.00244
  -0.14653   0.18871   0.00244
  -0.20643   0.24851  -0.17716
  -0.26623   0.24851  -0.23696
  -0.32613   0.30841  -0.23696
  -0.38593   0.30841  -0.23696
  -0.44583   0.24851  -0.23696
  -0.50563   0.18871  -0.17716
  -0.56553   0.18871  -0.29686
  -0.56553   0.12881  -0.41656
  -0.62533   0.12881  -0.29686
  -0.50563   0.12881  -0.29686
  -0.50563   0.06901  -0.29686
  -0.38593   0.00911  -0.23696
  -0.32613  -0.11059  -0.23696
  -0.32613  -0.05079  -0.23696
  -0.26623  -0.05079  -0.23696
  -0.20643  -0.11059  -0.23696
  -0.14653  -0.05079  -0.29686
  -0.08673  -0.11059  -0.17716
   0.03307  -0.05079  -0.11726
   0.09287  -0.11059  -0.11726
   0.15277  -0.11059  -0.17716
   0.27247  -0.05079  -0.17716
   0.45197   0.06901  -0.11726
   0.45197   0.06901  -0.05746
   0.45197   0.12881  -0.05746
   0.51187   0.12881  -0.05746
   0.51187   0.12881  -0.05746
   0.57167   0.06901  -0.05746
   0.51187   0.06901   0.00244
   0.51187   0.00911  -0.11726
   0.57167   0.06901  -0.17716
   0.63157   0.00911  -0.23696
   0.57167  -0.11059  -0.17716
   0.51187  -0.11059  -0.11726
   0.51187  -0.17049  -0.17716
   0.45197  -0.05079  -0.17716
   0.33227  -0.17049  -0.23696
   0.21257  -0.23029  -0.29686
   0.03307  -0.11059  -0.35666
   0.03307  -0.11059  -0.35666
  -0.02683  -0.05079  -0.35666
  -0.08673   0.00911  -0.35666
  -0.02683  -0.05079  -0.35666
  -0.02683  -0.17049  -0.41656
  -0.08673  -0.29019  -0.35666
  -0.26623  -0.29019  -0.41656
  -0.38593  -0.34999  -0.29686
  -0.44583  -0.29019  -0.29686
  -0.38593  -0.11059  -0.23696
  -0.38593  -0.11059  -0.17716
  -0.38593  -0.11059  -0.11726
  -0.32613  -0.11059  -0.05746
  -0.38593  -0.11059   0.00244
  -0.32613  -0.05079   0.12214
  -0.26623  -0.05079   0.12214
  -0.20643   0.00911   0.18204
  -0.20643  -0.05079   0.36154
  -0.26623  -0.05079   0.42144
  -0.20643   0.00911   0.42144
  -0.02683   0.06901   0.36154
   0.03307   0.06901   0.24184
   0.03307  -0.05079   0.30174
   0.03307   0.06901   0.30174
   0.09287   0.12881   0.24184
   0.09287   0.18871   0.36154
   0.09287   0.06901   0.24184
   0.15277   0.06901   0.24184
   0.15277   0.06901   0.18204
   0.15277   0.12881   0.12214
   0.15277   0.12881   0.12214
   0.21257   0.00911   0.12214
   0.27247   0.06901   0.00244
   0.21257   0.06901   0.00244
   0.21257   0.12881   0.00244
   0.21257   0.06901  -0.05746
   0.33227   0.12881  -0.05746
   0.27247   0.12881  -0.05746
   0.33227   0.06901   0.00244
   0.39217   0.06901   0.00244
   0.33227   0.06901  -0.05746
   0.33227   0.12881  -0.05746
   0.33227   0.06901   0.00244
   0.45197  -0.05079  -0.05746
   0.45197   0.00911   0.00244
   0.51187  -0.05079   0.00244
   0.51187  -0.05079  -0.05746
   0.51187  -0.11059  -0.05746
   0.51187  -0.05079   0.12214
   0.57167  -0.05079   0.18204
   0.57167   0.00911   0.12214
   0.63157   0.00911   0.12214
   0.57167   0.00911   0.24184
   0.57167  -0.05079   0.24184
   0.57167   0.00911   0.30174
   0.51187   0.00911   0.24184
   0.57167  -0.05079   0.24184
   0.51187   0.00911   0.24184
   0.51187  -0.05079   0.18204
   0.39217  -0.05079   0.24184
   0.39217   0.00911   0.12214
   0.33227  -0.05079   0.06234
   0.15277   0.00911   0.00244
   0.15277   0.06901  -0.05746
   0.09287   0.00911   0.00244
   0.09287   0.00911  -0.11726
   0.03307   0.00911  -0.29686
  -0.08673   0.06901  -0.29686
  -0.20643   0.06901  -0.23696
  -0.20643   0.06901  -0.29686
  -0.26623   0.06901  -0.41656
  -0.32613   0.12881  -0.41656
  -0.32613   0.12881  -0.41656
  -0.50563   0.12881  -0.35666
  -0.50563   0.06901  -0.35666
  -0.50563   0.06901  -0.29686
  -0.44583   0.06901  -0.29686
  -0.44583   0.06901  -0.29686
  -0.44583   0.00911  -0.23696
  -0.44583   0.00911  -0.17716
  -0.44583  -0.05079  -0.17716
  -0.38593   0.00911  -0.11726
  -0.38593   0.00911  -0.11726
  -0.32613   0.00911  -0.05746
