********************************************************************************
               CENTRO DE INSTRUMENTACION Y REGISTRO SISMICO  A.C.  
                       Coordinacion de Servicios Tecnicos
     Anaxagoras 814, Col. Narvarte, Benito Juarez, C.P. 03020 Mexico, D.F.
            Tels. 667 45 42/ 687 45  82             Fax. 669 25 12
********************************************************************************
ARCHIVO ESTANDAR DE ACELERACION:
VERSION DEL FORMATO                    : 2.0
NOMBRE DEL ARCHIVO                     : AL010110.081
FECHA Y HORA DE CREACION               : 06/JUL/04, 09:10
REF. CATALOGO ACELEROGRAMAS, SMIS 1996 : REGISTRO No.     /PAG.


================================================================================
DATOS DE LA ESTACION:
NOMBRE DE LA ESTACION                  : ALAMEDA
CLAVE DE LA ESTACION                   : AL01
LOCALIZACION DE LA ESTACION            : JARDIN ALAMEDA ENTRE AV. HIDALGO Y AV.
                                       : JUAREZ, CENTRO
                                       :
                                       :
                                       :
COORDENADAS DE LA ESTACION             : 19.436 LAT. N 
                                       : 99.145 LONG. W 
ALTITUD (msnm)                         : 2232
TIPO DE SUELO                          : TERRENO BLANDO, MATERIAL COMPRESIBLE
                                       : (ARCILLAS)
                                       : 
INSTITUCION RESPONSABLE                : CIRES 
                                       :

================================================================================
DATOS DEL ACELEROGRAFO:
MODELO DEL ACELEROGRAFO                : SSA-1
NUMERO DE SERIE DEL ACELEROGRAFO       : 152
NUMERO DE CANALES                      : 3
ORIENTACION C1-C6 (rumbo;orientacion)  : /N00E/+V/N90E
ORIENTACION C7-C12 (rumbo;orientacion) :
VEL. DE MUESTREO, C1-C6 (muestras/s)   : /200/200/200
VEL. DE MUESTREO, C7-C12 (muestras/s)  :
ESC. COMPLETA DE SENSORES, C1-C6, (g)  : /2/2/2
ESC. COMPLETA DE SENSORES, C7-C12, (g) :
FREC. NAT. DE SENSORES, C1-C6, (Hz)    : /51.29/51.09/53.75
FREC. NAT. DE SENSORES, C7-C12, (Hz)   :
AMORTIGUAMIENTO DE SENSORES, C1-C6     : /.5519/.5670/.5810
AMORTIGUAMIENTO DE SENSORES, C7-C12    :
INTERVALO DE MUESTREO, C1-C6, (s)      : /0.005/0.005/0.005
INTERVALO DE MUESTREO, C7-C12, (s)     :
UMBRAL DE DISPARO, C1-C6, (Gal)        : /2/1.5/2
UMBRAL DE DISPARO, C7-C12, (Gal)       :
MEMORIA DE PREEVENTO (s)               : 15
TIEMPO DE POSEVENTO (s)                : 60


================================================================================
DATOS DEL SISMO:
FECHA DEL SISMO (GMT)                  : 08/OCT/01
HORA EPICENTRO (GMT)                   : 03:39:19:3
MAGNITUD(ES)                           : /Mb=5.6/Ms=5.4/Mc=5.5/Ma=7.6/Me=6.1
COORDENADAS DEL EPICENTRO              : 16.94 LAT. N
                                       : 100.14 LONG. W
PROFUNDIDAD FOCAL (km)                 : 4.0
FUENTE DE LOS DATOS EPICENTRALES       : SSN
                                       : INSTITUTO DE GEOFISICA, UNAM

================================================================================
DATOS DE ESTE REGISTRO:
HORA DE LA PRIMERA MUESTRA (GMT)       : 03:40:39.00
EXACTITUD DEL TIEMPO (s)               :     
DURACION DEL REGISTRO (s), C1-C6       : /129.28/129.28/129.28
DURACION DEL REGISTRO (s), C7-C12      :
NUM. TOTAL DE MUESTRAS, C1-C6          : /25856/25856/25856
NUM. TOTAL DE MUESTRAS, C7-C12         :
ACEL. MAX. (Gal), C1-C6                : /-8.32696/3.77187/8.27416
ACEL. MAX., C1-C6, EN LA MUESTRA       :
ACEL. MAX. (Gal), C7-C12               :
ACEL. MAX., C7-C12, EN LA MUESTRA      :
UNIDADES DE LOS DATOS                  : Gal (cm/s/s)
FACTOR DE DECIMACION                   : 1
FORMATO DATOS (FORTRAN,10 campos/dato) : 3F10.5


================================================================================
CALIDAD DEL ACELEROGRAMA:
REGISTRO DIGITAL COMPLETO, CARECE DE TIEMPO ABSOLUTO.


================================================================================
COMENTARIOS:














================================================================================
DATOS DE ACELERACION:
---------+---------+---------+---------+---------+---------+---------+---------+
   CANAL-1   CANAL-2   CANAL-3   CANAL-4   CANAL-5   CANAL-6   CANAL-7   CANAL-8
      N00E        +V      N90E
---------+---------+---------+---------+---------+---------+---------+---------+
[...]
  -0.65696  -0.06813   3.24416
  -0.65696  -0.06813   2.76416
  -0.65696  -0.06813   2.28416
  -0.65696  -0.06813   1.80416
  -0.65696  -0.06813   1.32416
  -0.89696  -0.06813   0.84416
  -0.89696  -0.06813   0.12416
  -0.89696  -0.29813  -0.34584
  -1.13696  -0.29813  -1.06584
  -1.37696  -0.29813  -1.54584
  -1.61696  -0.29813  -2.02584
  -1.61696  -0.06813  -2.50584
  -1.85696  -0.06813  -2.98584
  -1.85696  -0.06813  -3.22584
  -2.09696   0.17187  -3.46584
  -2.09696   0.17187  -3.70584
  -2.33696   0.41187  -3.94584
  -2.33696   0.41187  -3.94584
  -2.33696   0.41187  -4.18584
  -2.33696   0.41187  -4.18584
  -2.33696   0.65187  -4.18584
  -2.57696   0.89187  -4.42584
  -2.33696   0.89187  -4.18584
  -2.33696   1.13187  -4.18584
  -2.33696   1.37187  -4.18584
  -2.33696   1.61187  -4.18584
  -2.33696   1.85187  -4.18584
  -2.09696   2.09187  -4.18584
  -2.09696   2.33187  -4.18584
  -2.09696   2.57187  -4.18584
  -1.85696   3.05187  -3.94584
  -1.61696   3.29187  -4.18584
  -1.61696   3.53187  -4.18584
  -1.37696   3.53187  -4.18584
  -1.13696   3.53187  -4.18584
  -0.89696   3.53187  -4.18584
  -1.13696   3.77187  -4.18584
  -0.41696   3.53187  -3.94584
  -0.17696   3.53187  -3.94584
   0.06304   3.53187  -3.94584
   0.06304   3.53187  -3.94584
   0.30304   3.29187  -3.70584
   0.30304   3.05187  -3.46584
   0.30304   3.05187  -3.46584
   0.30304   2.81187  -3.22584
   0.54304   2.57187  -3.22584
   0.54304   2.57187  -2.98584
   0.30304   2.33187  -2.98584
   0.30304   2.09187  -2.74584
   0.30304   2.09187  -2.74584
   0.06304   1.61187  -2.50584
   0.06304   1.61187  -2.50584
  -0.17696   1.37187  -2.50584
  -0.41696   1.37187  -2.50584
  -0.65696   1.37187  -2.50584
  -0.65696   1.37187  -2.26584
  -0.89696   1.13187  -2.26584
  -0.89696   1.13187  -2.26584
  -1.13696   1.13187  -2.26584
  -1.37696   1.13187  -2.26584
  -1.37696   0.89187  -2.26584
  -1.61696   0.89187  -2.26584
  -1.61696   0.89187  -2.26584
  -1.85696   0.65187  -2.26584
  -1.85696   0.65187  -2.26584
  -2.09696   0.41187  -2.02584
  -2.09696   0.41187  -2.02584
  -2.09696   0.41187  -2.02584
  -2.33696   0.17187  -2.02584
  -2.33696   0.17187  -2.02584
  -2.57696   0.17187  -1.78584
  -2.81696   0.17187  -1.78584
  -2.81696   0.17187  -1.78584
  -3.05696   0.17187  -1.54584
  -3.05696   0.17187  -1.54584
  -3.05696   0.17187  -1.30584
  -3.29696   0.17187  -1.30584
  -3.29696   0.17187  -1.06584
  -3.29696   0.17187  -1.06584
  -3.29696  -0.06813  -0.82584
  -3.53696  -0.06813  -0.58584
  -3.53696  -0.06813  -0.58584
  -3.53696  -0.29813  -0.34584
  -3.53696  -0.53813  -0.10584
  -3.53696  -0.53813  -0.10584
  -3.53696  -0.77813   0.12416
  -3.53696  -1.01813   0.36416
  -3.53696  -1.01813   0.60416
  -3.53696  -1.25813   0.60416
  -3.53696  -1.25813   0.84416
  -3.53696  -1.25813   1.08416
  -3.53696  -1.25813   1.32416
  -3.53696  -1.25813   1.56416
  -3.53696  -1.49813   1.80416
  -3.53696  -1.49813   1.80416
  -3.53696  -1.73813   2.04416
  -3.53696  -1.73813   2.28416
  -3.53696  -1.97813   2.28416
  -3.29696  -1.97813   2.52416
  -3.29696  -2.21813   2.52416
  -3.29696  -2.21813   2.76416
  -3.29696  -2.21813   2.52416
  -3.29696  -2.21813   2.52416
  -3.29696  -2.21813   2.52416
  -3.29696  -2.45813   2.52416
  -3.29696  -2.45813   2.52416
  -3.29696  -2.45813   2.52416
  -3.29696  -2.69813   2.28416
  -3.29696  -2.69813   2.28416
  -3.29696  -2.69813   2.28416
  -3.29696  -2.69813   2.28416
  -3.29696  -2.69813   2.28416
  -3.29696  -2.69813   2.04416
  -3.29696  -2.69813   2.04416
  -3.29696  -2.69813   2.04416
  -3.29696  -2.69813   1.80416
  -3.29696  -2.69813   1.80416
  -3.53696  -2.45813   1.56416
  -3.53696  -2.45813   1.56416
  -3.29696  -2.45813   1.32416
  -3.53696  -2.45813   1.08416
  -3.29696  -2.21813   1.08416
  -3.29696  -2.21813   0.84416
  -3.29696  -1.97813   0.84416
  -3.05696  -1.73813   0.60416
  -3.05696  -1.73813   0.36416
  -2.81696  -1.49813   0.36416
  -2.57696  -1.25813   0.12416
  -2.33696  -1.25813   0.12416
  -2.33696  -1.25813  -0.10584
  -2.09696  -1.01813  -0.10584
  -1.85696  -1.01813  -0.10584
  -1.61696  -0.77813  -0.34584
  -1.37696  -0.53813  -0.34584
  -1.13696  -0.53813  -0.34584
  -1.13696  -0.29813  -0.34584
  -1.13696  -0.06813  -0.34584
  -0.65696  -0.06813  -0.34584
  -0.65696   0.17187  -0.34584
  -0.41696   0.41187  -0.34584
  -0.41696   0.41187  -0.34584
  -0.17696   0.65187  -0.10584
   0.06304   0.65187  -0.34584
   0.30304   0.89187  -0.10584
   0.54304   0.89187  -0.34584
   0.54304   0.89187  -0.34584
   1.01304   1.13187  -0.34584
   1.25304   1.13187  -0.34584
   1.73304   1.13187  -0.34584
   1.97304   1.13187  -0.34584
   2.45304   1.13187  -0.34584
   2.69304   1.13187  -0.34584
   3.17304   1.13187  -0.34584
   3.41304   1.13187  -0.34584
   3.89304   1.37187  -0.10584
   4.13304   1.37187  -0.10584
   4.37304   1.37187  -0.10584
   4.61304   1.37187  -0.10584
   4.85304   1.37187  -0.10584
   5.09304   1.13187  -0.10584
   5.09304   1.13187  -0.10584
   5.33304   0.89187  -0.10584
   5.56304   0.89187  -0.10584
   5.56304   0.89187  -0.10584
   5.56304   0.65187  -0.10584
   5.80304   0.41187  -0.10584
   5.80304   0.41187  -0.10584
   5.80304   0.17187  -0.10584
   5.80304   0.17187  -0.10584
   5.80304  -0.06813   0.12416
   5.56304  -0.06813   0.12416
   5.56304  -0.29813   0.12416
   5.33304  -0.29813   0.12416
   5.33304  -0.29813   0.12416
   5.09304  -0.53813   0.12416
   4.85304  -0.77813   0.36416
   4.61304  -0.77813   0.12416
   4.37304  -0.77813   0.12416
   4.13304  -0.77813   0.12416
   3.65304  -0.77813  -0.10584
   3.17304  -1.01813  -0.10584
   2.93304  -1.25813  -0.34584
   2.69304  -1.25813  -0.34584
   2.21304  -1.25813  -0.82584
   1.97304  -1.49813  -0.58584
   1.73304  -1.49813  -0.82584
   1.25304  -1.49813  -0.82584
   1.01304  -1.49813  -1.06584
   0.77304  -1.49813  -1.06584
   0.54304  -1.49813  -1.06584
   0.30304  -1.25813  -1.06584
  -0.17696  -1.25813  -0.82584
  -0.17696  -1.01813  -0.82584
  -0.41696  -1.01813  -0.58584
  -0.65696  -0.77813  -0.34584
  -0.89696  -0.53813  -0.10584
  -0.89696  -0.53813  -0.10584
  -1.13696  -0.29813   0.12416
  -1.13696  -0.29813   0.36416
  -1.37696  -0.06813   0.60416
  -1.37696  -0.06813   0.84416
  -1.61696  -0.06813   1.08416
  -1.61696   0.17187   1.32416
  -1.61696   0.17187   1.56416
  -1.37696   0.17187   1.80416
  -1.37696   0.41187   1.80416
  -1.13696   0.41187   2.04416
  -1.13696   0.41187   2.28416
  -0.89696   0.41187   2.28416
  -0.65696   0.65187   2.28416
  -0.41696   0.65187   2.52416
  -0.17696   0.89187   2.52416
   0.30304   0.89187   3.00416
   0.30304   1.13187   3.00416
   0.77304   1.37187   3.24416
   1.01304   1.37187   3.24416
   1.25304   1.61187   3.48416
   1.73304   1.85187   3.48416
   1.73304   1.85187   3.72416
   1.97304   2.09187   3.72416
   2.21304   2.09187   3.72416
   2.21304   2.33187   3.96416
   2.21304   2.33187   3.96416
   2.21304   2.33187   3.72416
   2.45304   2.33187   3.72416
   2.69304   2.33187   3.72416
   2.69304   2.33187   3.48416
   2.93304   2.09187   3.24416
   2.93304   2.09187   2.76416
   2.93304   2.09187   2.76416
   3.17304   2.09187   2.52416
   3.17304   2.09187   2.28416
   3.17304   2.09187   2.04416
   3.17304   1.85187   1.56416
   3.41304   1.61187   1.32416
   3.41304   1.61187   1.08416
   3.41304   1.37187   0.60416
   3.41304   1.13187   0.36416
   3.17304   1.13187   0.12416
   3.41304   0.89187  -0.10584
   3.17304   0.89187  -0.34584
   3.17304   0.65187  -0.58584
   3.17304   0.65187  -1.06584
   3.17304   0.65187  -1.06584
   2.93304   0.41187  -1.30584
   2.93304   0.17187  -1.54584
   2.93304  -0.06813  -2.02584
   2.69304  -0.29813  -2.02584
   2.69304  -0.53813  -2.26584
   2.45304  -0.77813  -2.50584
   2.45304  -0.77813  -2.50584
   2.21304  -1.01813  -2.74584
   2.21304  -1.01813  -2.74584
   1.97304  -1.01813  -2.74584
   1.97304  -1.25813  -2.50584
   1.73304  -1.25813  -2.50584
   1.49304  -1.25813  -2.50584
   1.49304  -1.25813  -2.50584
   1.25304  -1.25813  -2.50584
   1.25304  -1.25813  -2.26584
   1.01304  -1.25813  -2.26584
   0.77304  -1.25813  -2.26584
   0.77304  -1.01813  -2.26584
   0.54304  -1.01813  -2.26584
   0.30304  -0.77813  -2.26584
   0.30304  -1.01813  -2.26584
   0.06304  -0.77813  -2.26584
   0.06304  -0.77813  -2.26584
  -0.17696  -0.77813  -2.26584
  -0.17696  -0.77813  -2.26584
  -0.17696  -0.77813  -2.02584
  -0.41696  -0.53813  -2.26584
  -0.41696  -0.29813  -2.02584
  -0.65696  -0.06813  -2.26584
  -0.65696   0.17187  -2.26584
  -0.65696   0.41187  -2.26584
  -0.65696   0.41187  -2.26584
  -0.65696   0.65187  -2.26584
  -0.41696   0.89187  -2.26584
  -0.65696   1.13187  -2.50584
  -0.41696   1.37187  -2.50584
  -0.17696   1.61187  -2.50584
  -0.17696   1.85187  -2.50584
   0.06304   2.09187  -2.74584
   0.30304   2.09187  -2.74584
   0.30304   2.33187  -2.74584
   0.54304   2.57187  -2.74584
   0.77304   2.57187  -2.98584
   1.01304   2.57187  -2.98584
   1.25304   2.57187  -2.98584
   1.73304   2.57187  -2.98584
   2.21304   2.57187  -2.98584
   2.45304   2.33187  -2.98584
   2.93304   2.33187  -2.98584
   3.41304   2.09187  -2.98584
   3.89304   2.09187  -3.22584
   4.13304   2.09187  -3.22584
   4.61304   1.85187  -3.22584
   4.85304   1.85187  -3.22584
   5.33304   1.61187  -3.46584
   5.56304   1.37187  -3.46584
   6.04304   1.13187  -3.46584
   6.04304   1.13187  -3.70584
   6.52304   0.89187  -3.70584
   6.52304   0.89187  -3.94584
   6.76304   0.65187  -3.94584
   6.76304   0.17187  -4.18584
   7.00304  -0.06813  -4.18584
   7.00304  -0.29813  -4.42584
   7.00304  -0.29813  -4.66584
   7.00304  -0.53813  -4.66584
   6.76304  -0.53813  -4.66584
   6.76304  -0.77813  -4.66584
   6.52304  -0.77813  -4.89584
   6.28304  -0.77813  -4.66584
   6.04304  -1.01813  -4.66584
   5.80304  -1.01813  -4.42584
   5.33304  -1.25813  -4.18584
   5.09304  -1.25813  -4.18584
   4.61304  -1.25813  -3.94584
   4.13304  -1.25813  -3.70584
   3.65304  -1.49813  -3.22584
   2.93304  -1.49813  -2.98584
   2.45304  -1.49813  -2.74584
   1.73304  -1.49813  -2.26584
   1.25304  -1.49813  -2.02584
   0.77304  -1.49813  -1.78584
   0.06304  -1.49813  -1.54584
  -0.65696  -1.25813  -1.30584
  -1.13696  -1.25813  -1.06584
  -1.85696  -1.25813  -1.06584
  -2.33696  -1.25813  -0.82584
  -2.81696  -1.25813  -0.34584
  -3.53696  -1.01813  -0.34584
  -4.01696  -1.01813  -0.10584
  -4.48696  -0.77813   0.12416
  -4.96696  -0.77813   0.36416
  -5.20696  -0.53813   0.60416
  -5.68696  -0.53813   0.84416
  -5.92696  -0.29813   1.08416
  -6.40696  -0.29813   1.32416
  -6.64696  -0.06813   1.56416
  -6.88696   0.17187   1.80416
  -7.12696   0.41187   2.04416
  -7.36696   0.65187   2.28416
  -7.60696   0.89187   2.28416
  -7.84696   1.13187   2.52416
  -8.08696   1.37187   2.52416
  -8.08696   1.61187   2.52416
  -8.32696   1.61187   2.76416
  -8.32696   1.85187   2.76416
  -8.32696   2.09187   2.76416
  -8.32696   2.09187   2.76416
  -8.08696   2.09187   2.76416
  -7.84696   2.09187   3.00416
  -7.84696   2.09187   3.00416
  -7.60696   2.09187   3.00416
  -7.36696   2.09187   3.00416
  -7.12696   2.09187   2.76416
  -6.64696   2.09187   3.00416
  -6.40696   1.85187   2.76416
  -6.16696   1.85187   2.76416
  -5.68696   1.61187   2.76416
  -5.44696   1.37187   2.76416
  -4.96696   1.13187   2.52416
  -4.72696   0.89187   2.52416
  -4.25696   0.89187   2.52416
  -3.77696   0.65187   2.52416
  -3.29696   0.41187   2.52416
  -2.81696   0.41187   2.28416
  -2.33696   0.17187   2.28416
  -2.09696  -0.06813   2.28416
  -1.61696  -0.06813   2.04416
  -1.37696  -0.77813   2.04416
  -0.65696  -0.77813   1.80416
  -0.17696  -0.77813   1.80416
   0.30304  -1.01813   1.56416
   0.54304  -1.25813   1.32416
   1.01304  -1.25813   1.08416
   1.25304  -1.49813   0.84416
   1.49304  -1.73813   0.60416
   1.97304  -1.73813   0.36416
   2.21304  -1.97813   0.12416
   2.45304  -1.97813   0.12416
   2.69304  -2.21813   0.12416
   2.93304  -2.21813   0.12416
   2.93304  -2.21813  -0.10584
   3.17304  -2.45813   0.12416
   3.17304  -2.45813   0.12416
   3.41304  -2.69813   0.12416
   3.41304  -2.69813   0.36416
   3.41304  -2.93813   0.36416
   3.41304  -2.93813   0.60416
   3.41304  -3.17813   0.84416
   3.41304  -3.17813   1.08416
   3.17304  -3.17813   1.08416
   2.93304  -3.17813   1.56416
   2.93304  -3.17813   1.80416
   2.69304  -3.17813   2.04416
   2.45304  -2.93813   2.28416
   2.45304  -2.93813   2.52416
   2.21304  -2.69813   2.76416
   1.97304  -2.45813   3.24416
   1.97304  -2.21813   3.48416
   1.73304  -1.97813   3.72416
   1.73304  -1.73813   4.20416
   1.49304  -1.25813   4.44416
   1.49304  -1.01813   4.92416
   1.49304  -0.77813   5.15416
   1.25304  -0.53813   5.15416
   1.25304  -0.29813   5.63416
   1.25304  -0.06813   5.63416
   1.01304   0.17187   5.87416
   1.01304   0.41187   6.11416
   0.77304   0.41187   6.35416
   0.77304   0.65187   6.59416
   0.54304   0.65187   6.83416
   0.54304   0.89187   7.07416
   0.30304   0.89187   7.07416
   0.30304   0.89187   7.31416
   0.06304   0.89187   7.55416
   0.06304   0.89187   7.79416
   0.06304   0.89187   8.03416
   0.06304   0.89187   8.03416
  -0.17696   0.89187   8.03416
  -0.17696   0.89187   8.27416
   0.06304   0.65187   8.03416
  -0.17696   0.65187   8.03416
  -0.17696   0.65187   7.79416
  -0.17696   0.65187   7.79416
  -0.17696   0.89187   7.55416
  -0.17696   0.89187   7.55416
  -0.17696   0.89187   7.31416
  -0.17696   0.89187   7.07416
  -0.41696   0.89187   6.83416
  -0.41696   0.65187   6.59416
  -0.65696   0.65187   6.59416
  -0.65696   0.41187   6.11416
  -0.65696   0.17187   6.11416
  -0.89696  -0.06813   5.63416
  -1.13696  -0.29813   5.63416
  -1.13696  -0.53813   5.39416
  -1.37696  -0.77813   5.15416
  -1.37696  -1.01813   4.68416
  -1.61696  -1.25813   4.44416
  -1.61696  -1.25813   4.20416
  -1.61696  -1.49813   3.96416
  -1.85696  -1.49813   3.72416
  -1.85696  -1.49813   3.48416
  -1.85696  -1.49813   3.24416
  -1.85696  -1.49813   3.00416
  -1.85696  -1.49813   2.76416
  -1.85696  -1.49813   2.52416
  -1.85696  -1.25813   2.28416
  -1.85696  -1.25813   2.04416
  -1.85696  -1.25813   1.80416
  -1.85696  -1.01813   1.32416
  -1.85696  -1.01813   1.08416
  -1.85696  -1.01813   0.84416
  -1.85696  -0.77813   0.12416
  -1.85696  -0.77813   0.12416
  -2.09696  -0.53813  -0.34584
  -2.09696  -0.29813  -0.58584
  -2.09696  -0.29813  -0.82584
  -2.09696  -0.06813  -1.06584
  -2.09696   0.41187  -1.06584
  -2.09696   0.41187  -1.30584
  -2.09696   0.65187  -1.30584
  -2.09696   0.89187  -1.54584
  -2.09696   0.89187  -1.54584
  -2.09696   1.13187  -1.54584
  -2.09696   1.37187  -1.78584
  -2.09696   1.37187  -1.78584
  -2.09696   1.61187  -1.78584
  -2.09696   1.61187  -1.78584
  -2.09696   1.85187  -2.02584
  -1.85696   2.09187  -2.26584
  -1.85696   2.33187  -2.26584
  -1.85696   2.33187  -2.50584
  -1.61696   2.57187  -2.74584
  -1.61696   2.57187  -2.98584
  -1.37696   2.81187  -2.98584
  -1.37696   2.81187  -3.22584
  -1.13696   3.05187  -3.46584
  -1.13696   3.05187  -3.46584
  -1.13696   3.05187  -3.70584
  -0.89696   3.29187  -3.70584
  -0.89696   3.29187  -3.94584
  -0.89696   3.29187  -3.94584
  -0.65696   3.29187  -3.94584
  -0.65696   3.29187  -4.18584
  -0.65696   3.05187  -4.18584
  -0.65696   3.05187  -4.18584
  -0.65696   3.05187  -4.18584
  -0.65696   2.81187  -4.42584
  -0.41696   2.57187  -4.42584
  -0.41696   2.33187  -4.42584
  -0.17696   2.09187  -4.66584
  -0.17696   2.09187  -4.66584
