********************************************************************************
              CENTRO DE INSTRUMENTACION Y REGISTRO SISMICO  A.C.

    Anaxagoras 814, Col. Narvarte, Benito Juarez, C.P. 03020 Mexico, D.F.
           Tels. 5687 45 42/ 5687 45  82             Fax. 5669 25 12
********************************************************************************
ARCHIVO ESTANDAR DE ACELERACION:
VERSION DEL FORMATO                    : 2.0
NOMBRE DEL ARCHIVO                     : AL0120130422011634
FECHA Y HORA DE CREACION               : 03/MAY/13, 10:25
REF. CATALOGO ACELEROGRAMAS, SMIS 1996 : REGISTRO No.     /PAG.


================================================================================
DATOS DE LA ESTACION:
NOMBRE DE LA ESTACION                  : ALAMEDA
CLAVE DE LA ESTACION                   : AL01
LOCALIZACION DE LA ESTACION            : Del. Cuauhtémoc, Col. Centro,          
                                       : Dr. Mora entre Av. Hidalgo             
                                       : y Av. Juárez.                          
                                       :                                        
                                       : 
COORDENADAS DE LA ESTACION             : 19.4356 LAT. N
                                       : 99.1453 LONG. W
ALTITUD (msnm)                         : 2232
TIPO DE SUELO                          : Terreno blando, material compresible
                                       : (arcillas)                
                                       : 
INSTITUCION RESPONSABLE                : CIRES
                                       : 

================================================================================
DATOS DEL ACELEROGRAFO:
MODELO DEL ACELEROGRAFO                : RADESD
NUMERO DE SERIE DEL ACELEROGRAFO       : 152
NUMERO DE CANALES                      : 3
ORIENTACION C1-C6 (rumbo;orientacion)  : /N00E/+V/N90W
ORIENTACION C7-C12 (rumbo;orientacion) : 
VEL. DE MUESTREO, C1-C6 (muestras/s)   : /100/100/100
VEL. DE MUESTREO, C7-C12 (muestras/s)  : 
ESC. COMPLETA DE SENSORES, C1-C6, (g)  : /0.5/0.5/0.5
ESC. COMPLETA DE SENSORES, C7-C12, (g) : 
FREC. NAT. DE SENSORES, C1-C6, (Hz)    : /51.29/51.09/53.75
FREC. NAT. DE SENSORES, C7-C12, (Hz)   : 
AMORTIGUAMIENTO DE SENSORES, C1-C6     : /0.5519/0.5670/0.5810
AMORTIGUAMIENTO DE SENSORES, C7-C12    : 
INTERVALO DE MUESTREO, C1-C6, (s)      : /0.01/0.01/0.01
INTERVALO DE MUESTREO, C7-C12, (s)     : 
UMBRAL DE DISPARO, C1-C6, (Gal)        : /14.37/28.73/14.37
UMBRAL DE DISPARO, C7-C12, (Gal)       : 
MEMORIA DE PREEVENTO (s)               : 56.0
TIEMPO DE POSEVENTO (s)                : 80.0


================================================================================
DATOS DEL SISMO:
FECHA DEL SISMO (GMT)                  : 22/ABR/13
HORA EPICENTRO (GMT)                   : 01:16:34.0
MAGNITUD(ES)                           : /Mc=5.8
COORDENADAS DEL EPICENTRO              : 17.87 LAT. N
                                       : 102.19 LONG. W
PROFUNDIDAD FOCAL (km)                 : 10
FUENTE DE LOS DATOS EPICENTRALES       : SSN
                                       : INSTITUTO DE GEOFISICA, UNAM

================================================================================
DATOS DE ESTE REGISTRO:
HORA DE LA PRIMERA MUESTRA (GMT)       : 01:18:00.00
EXACTITUD DEL TIEMPO (s)               : 0.01
DURACION DEL REGISTRO (s), C1-C6       : /226.4/226.4/226.4
DURACION DEL REGISTRO (s), C7-C12      : 
NUM. TOTAL DE MUESTRAS, C1-C6          : /22640/22640/22640
NUM. TOTAL DE MUESTRAS, C7-C12         : 
ACEL. MAX. (Gal), C1-C6                : /6.65968/1.79551/7.40519
ACEL. MAX., C1-C6, EN LA MUESTRA       : /6515/6599/6638
ACEL. MAX. (Gal), C7-C12               : 
ACEL. MAX., C7-C12, EN LA MUESTRA      : 
UNIDADES DE LOS DATOS                  : Gal (cm/s/s)
FACTOR DE DECIMACION                   : 1
FORMATO DATOS (FORTRAN,10 campos/dato) : 3F10.5


================================================================================
CALIDAD DEL ACELEROGRAMA:
REGISTRO DIGITAL COMPLETO CON TIEMPO ABSOLUTO CORRECTO.


================================================================================
COMENTARIOS:














================================================================================
DATOS DE ACELERACION:
---------+---------+---------+---------+---------+---------+---------+---------+
   CANAL-1   CANAL-2   CANAL-3   CANAL-4   CANAL-5   CANAL-6   CANAL-7   CANAL-8
      N00E        +V      N90W
---------+---------+---------+---------+---------+---------+---------+---------+
[...]
  -2.63443  -0.22460  -0.76503
  -2.49975  -0.07496  -0.63035
  -2.24537   0.08964  -0.54057
  -2.00595   0.20935  -0.48072
  -1.79646   0.34402  -0.45079
  -1.58696   0.38891  -0.37597
  -1.30265   0.50862  -0.30115
  -1.06323   0.56848  -0.24130
  -0.86870   0.64330  -0.24130
  -0.58439   0.64330  -0.22633
  -0.25519   0.65826  -0.22633
  -0.03073   0.74804  -0.25626
   0.19372   0.74804  -0.24130
   0.40322   0.70315  -0.27122
   0.59775   0.68819  -0.25626
   0.83717   0.68819  -0.36101
   1.04666   0.65826  -0.39093
   1.21126   0.62833  -0.37597
   1.40579   0.56848  -0.54057
   1.49557   0.53855  -0.52561
   1.73499   0.56848  -0.63035
   1.89959   0.62833  -0.67524
   1.98938   0.52359  -0.75006
   2.16894   0.52359  -0.77999
   2.25872   0.52359  -0.91466
   2.36347   0.52359  -0.91466
   2.43829   0.46373  -1.06430
   2.58793   0.44877  -1.16905
   2.69267   0.37395  -1.27379
   2.73756   0.34402  -1.34861
   2.78246   0.23927  -1.49825
   2.88720   0.19438  -1.54314
   2.93209   0.13453  -1.70774
   3.02188   0.14949  -1.69278
   3.05180   0.11956  -1.72271
   3.12662   0.01482  -1.90227
   3.12662  -0.03007  -1.94716
   3.20144  -0.07496  -2.05191
   3.12662  -0.17971  -2.06687
   3.17151  -0.13482  -2.09680
   3.14159  -0.17971  -2.09680
   3.06677  -0.22460  -2.26140
   2.96202  -0.10489  -2.36615
   2.91713  -0.13482  -2.53075
   2.75253  -0.14978  -2.57564
   2.60289  -0.11986  -2.80010
   2.42332  -0.01511  -2.85995
   2.19887  -0.01511  -3.05448
   2.01930   0.01482  -3.14426
   1.83974   0.05971  -3.30887
   1.64521   0.10460  -3.48843
   1.30104   0.16446  -3.54829
   1.06162   0.14949  -3.68296
   0.73242   0.29913  -3.72785
   0.43314   0.31409  -3.81763
   0.17876   0.37395  -3.93734
  -0.12051   0.38891  -3.95231
  -0.38986   0.34402  -3.98224
  -0.73403   0.34402  -3.90742
  -1.00338   0.34402  -3.96727
  -1.28769   0.34402  -3.99720
  -1.64682   0.32906  -3.83260
  -1.94609   0.26920  -3.75778
  -2.24537   0.20935  -3.74282
  -2.57457   0.19438  -3.60814
  -2.94867   0.17942  -3.47347
  -3.24794   0.14949  -3.35376
  -3.56218   0.14949  -3.17419
  -3.83153   0.16446  -3.02455
  -4.13080   0.11956  -2.93477
  -4.23555   0.10460  -2.81506
  -4.46000   0.08964  -2.53075
  -4.65453  -0.03007  -2.42600
  -4.84906   0.04475  -2.20155
  -5.02863   0.05971  -2.05191
  -5.05856  -1.5E-40  -1.90227
  -5.10345  -1.5E-40  -1.79753
  -5.28301  -0.04504  -1.48329
  -5.23812  -0.06000  -1.36358
  -5.34287  -0.01511  -1.16905
  -5.35783   0.05971  -0.98948
  -5.41769   0.10460  -0.80992
  -5.32790   0.08964  -0.73510
  -5.35783   0.19438  -0.46575
  -5.34287   0.25424  -0.25626
  -5.28301   0.29913  -0.13655
  -5.23812   0.28417   0.04302
  -5.20819   0.35898   0.17769
  -5.11841   0.41884   0.22258
  -5.17827   0.41884   0.35726
  -5.11841   0.38891   0.50689
  -5.19323   0.38891   0.53682
  -5.23812   0.38891   0.65653
  -5.23812   0.28417   0.77624
  -5.23812   0.31409   0.91091
  -5.34287   0.20935   1.00070
  -5.38776   0.25424   1.16530
  -5.44761   0.20935   1.34486
  -5.49250   0.05971   1.55436
  -5.50747   0.16446   1.68903
  -5.49250   0.23927   1.92845
  -5.40272   0.23927   2.15291
  -5.37279   0.31409   2.46715
  -5.16330   0.26920   2.64671
  -5.07352   0.37395   2.96095
  -4.83410   0.46373   3.24526
  -4.62461   0.47869   3.43979
  -4.35526   0.46373   3.72410
  -4.08591   0.59841   4.03834
  -3.74174   0.65826   4.27776
  -3.33772   0.61337   4.41243
  -2.97859   0.55351   4.59200
  -2.52968   0.47869   4.71171
  -2.08077   0.49366   4.84638
  -1.66178   0.55351   4.98106
  -1.12309   0.50862   5.08580
  -0.61432   0.46373   5.17559
  -0.15044   0.32906   5.25040
   0.29847   0.26920   5.31026
   0.71746   0.17942   5.34019
   1.15141   0.11956   5.29530
   1.55543   0.04475   5.28033
   1.98938  -0.14978   5.23544
   2.40836  -0.31438   5.22048
   2.78246  -0.40417   5.19055
   3.12662  -0.52388   4.98106
   3.33611  -0.62862   4.89127
   3.60546  -0.71841   4.72667
   3.84488  -0.86804   4.63689
   4.05437  -0.88301   4.54711
   4.26387  -0.94286   4.32265
   4.44343  -0.98775   4.24783
   4.65293  -1.07754   4.11316
   4.77264  -1.12243   3.99345
   4.98213  -1.18228   3.94856
   5.10184  -1.10746   3.93359
   5.17666  -1.12243   3.84381
   5.28140  -1.07754   3.79892
   5.40111  -1.04761   3.69417
   5.53579  -0.91293   3.69417
   5.67046  -0.86804   3.51461
   5.77521  -0.76330   3.52957
   5.82010  -0.76330   3.48468
   5.93981  -0.68848   3.45475
   5.98470  -0.65855   3.30512
   6.05952  -0.56877   3.14051
   6.02959  -0.47899   3.09562
   6.04455  -0.40417   2.91606
   6.04455  -0.22460   2.78138
   5.98470  -0.06000   2.61678
   6.05952   0.08964   2.52700
   5.99966   0.11956   2.34744
   5.98470   0.20935   2.16787
   5.93981   0.35898   2.01823
   5.87995   0.46373   1.83867
   5.74528   0.59841   1.58428
   5.73032   0.77797   1.32990
   5.64053   0.83783   1.03062
   5.59564   0.94257   0.77624
   5.52082   0.91264   0.49193
   5.46097   0.95754   0.19265
   5.32629   1.03235  -0.10662
   5.16169   0.94257  -0.34604
   5.05695   0.85279  -0.58546
   4.89235   0.88272  -0.97452
   4.81753   0.71812  -1.25883
   4.63796   0.62833  -1.43840
   4.45840   0.47869  -1.76760
   4.27883   0.38891  -2.11177
   4.14416   0.28417  -2.33622
   3.97956   0.16446  -2.51579
   3.78503   0.05971  -2.75521
   3.63539  -0.03007  -2.94974
   3.42590  -0.16475  -3.12930
   3.27626  -0.35928  -3.24901
   3.00691  -0.43409  -3.50340
   2.84231  -0.53884  -3.59318
   2.64778  -0.71841  -3.60814
   2.49814  -0.82315  -3.63807
   2.31858  -0.83812  -3.57821
   2.13901  -0.92790  -3.51836
   1.92952  -0.97279  -3.44354
   1.77988  -1.04761  -3.29390
   1.66017  -1.07754  -3.14426
   1.42075  -1.00272  -2.87492
   1.22622  -1.09250  -2.66542
   1.09155  -1.15235  -2.48586
   0.94191  -1.09250  -2.17162
   0.79227  -1.07754  -1.96213
   0.71746  -1.04761  -1.81249
   0.56782  -1.04761  -1.55811
   0.37329  -0.92790  -1.31869
   0.26854  -0.91293  -1.15408
   0.04409  -0.76330  -0.85481
  -0.16541  -0.64359  -0.75006
  -0.33001  -0.55380  -0.64532
  -0.58439  -0.44906  -0.45079
  -0.86870  -0.35928  -0.39093
  -1.18294  -0.31438  -0.28619
  -1.43733  -0.17971  -0.19640
  -1.75156  -0.04504  -0.25626
  -2.14062   0.04475  -0.25626
  -2.49975   0.08964  -0.24130
  -2.79903   0.16446  -0.30115
  -3.20305   0.26920  -0.25626
  -3.56218   0.37395  -0.31611
  -3.92131   0.44877  -0.36101
  -4.25051   0.56848  -0.39093
  -4.50490   0.62833  -0.33108
  -4.83410   0.61337  -0.40590
  -5.08848   0.59841  -0.39093
  -5.35783   0.71812  -0.37597
  -5.59725   0.64330  -0.25626
  -5.80674   0.65826  -0.21137
  -6.01624   0.64330  -0.06173
  -6.10602   0.61337   0.01309
  -6.22573   0.62833   0.19265
  -6.34544   0.55351   0.34229
  -6.40529   0.43380   0.43207
  -6.53997   0.34402   0.58171
  -6.46515   0.20935   0.71639
  -6.59982   0.19438   0.92588
  -6.61479   0.10460   1.00070
  -6.65968   0.07467   1.13537
  -6.64471  -0.08993   1.21019
  -6.61479  -0.11986   1.35983
  -6.61479  -0.13482   1.37479
  -6.61479  -0.22460   1.55436
  -6.52500  -0.19467   1.55436
  -6.51004  -0.19467   1.61421
  -6.52500  -0.22460   1.68903
  -6.42026  -0.22460   1.67407
  -6.39033  -0.20964   1.64414
  -6.22573  -0.23957   1.64414
  -6.24069  -0.20964   1.64414
  -6.07609  -0.13482   1.59925
  -5.98631  -0.10489   1.49450
  -5.83667  -0.07496   1.37479
  -5.68703  -0.08993   1.25508
  -5.49250  -0.03007   1.09048
  -5.31294  -0.10489   1.00070
  -5.07352  -0.11986   0.73135
  -4.80417  -0.10489   0.46200
  -4.56475  -0.10489   0.26747
  -4.31037  -0.07496   0.07294
  -3.93627  -0.06000  -0.27122
  -3.66693   0.07467  -0.40590
  -3.38261   0.07467  -0.64532
  -3.05341   0.07467  -1.00445
  -2.69428   0.08964  -1.19898
  -2.40997   0.04475  -1.46832
  -2.09573   0.01482  -1.72271
  -1.73660   0.07467  -1.93220
  -1.48222   0.10460  -2.02198
  -1.15301   0.10460  -2.29133
  -0.80885   0.16446  -2.41104
  -0.52454   0.20935  -2.59061
  -0.27015   0.20935  -2.88988
   0.05905   0.19438  -3.00959
   0.32840   0.19438  -3.23405
   0.67256   0.20935  -3.39865
   0.97184   0.23927  -3.54829
   1.33097   0.25424  -3.71289
   1.60032   0.34402  -3.84756
   2.00434   0.29913  -4.01216
   2.36347   0.26920  -4.22166
   2.64778   0.31409  -4.34137
   3.02188   0.31409  -4.40122
   3.29122   0.37395  -4.65560
   3.63539   0.35898  -4.71546
   3.84488   0.34402  -4.82021
   4.11423   0.35898  -4.96984
   4.36861   0.37395  -5.11948
   4.56314   0.29913  -5.22423
   4.78760   0.26920  -5.26912
   4.95220   0.19438  -5.38883
   5.13177   0.16446  -5.38883
   5.25148   0.08964  -5.49358
   5.29637   0.08964  -5.46365
   5.34126  -0.01511  -5.47861
   5.37119  -0.10489  -5.44868
   5.40111  -0.11986  -5.29905
   5.40111  -0.14978  -5.20926
   5.40111  -0.13482  -5.22423
   5.35622  -0.19467  -5.05963
   5.34126  -0.13482  -4.96984
   5.28140  -0.08993  -4.68553
   5.22155  -1.5E-40  -4.62568
   5.14673  -1.5E-40  -4.38626
   5.10184   0.01482  -4.17676
   5.01206   0.10460  -3.90742
   4.95220   0.26920  -3.56325
   4.87738   0.43380  -3.26397
   4.75767   0.52359  -3.03952
   4.69782   0.59841  -2.69535
   4.60803   0.79293  -2.30629
   4.53322   0.89768  -1.87235
   4.56314   1.01739  -1.54314
   4.44343   1.12214  -1.19898
   4.35365   1.19696  -0.85481
   4.24890   1.24185  -0.69021
   4.23394   1.31667  -0.36101
   4.09927   1.40645  -0.01684
   4.06934   1.52616   0.22258
   4.05437   1.60098   0.56675
   3.96459   1.70572   0.70142
   3.88977   1.78054   0.91091
   3.82992   1.79551   1.03062
   3.72517   1.70572   1.19523
   3.59050   1.66083   1.41968
   3.45582   1.64587   1.47954
   3.29122   1.55609   1.61421
   3.18648   1.46630   1.76385
   2.97698   1.42141   1.88356
   2.81238   1.31667   2.04816
   2.61785   1.21192   2.10802
   2.37843   1.07725   2.19780
   2.16894   0.97250   2.33247
   1.95945   0.79293   2.52700
   1.67514   0.70315   2.67664
   1.45068   0.58344   2.81131
   1.24119   0.46373   2.99088
   0.97184   0.29913   3.15548
   0.74738   0.04475   3.37993
   0.49300  -0.13482   3.57446
   0.34336  -0.19467   3.78396
   0.20869  -0.40417   4.00841
   0.10394  -0.55380   4.30769
   0.04409  -0.67351   4.59200
  -0.09059  -0.73337   4.87631
  -0.22526  -0.91293   5.20551
  -0.25519  -0.98775   5.37011
  -0.37490  -1.10746   5.62450
  -0.44972  -1.16732   5.87888
  -0.58439  -1.22717   6.13327
  -0.73403  -1.33192   6.37269
  -0.80885  -1.36185   6.55225
  -0.95849  -1.37681   6.68693
  -1.13805  -1.46659   6.85153
  -1.33258  -1.40674   7.06102
  -1.45229  -1.45163   7.16577
  -1.60193  -1.46659   7.28548
  -1.85631  -1.40674   7.30044
  -1.99098  -1.28703   7.36030
  -2.14062  -1.25710   7.36030
  -2.30522  -1.25710   7.37526
  -2.42493  -1.16732   7.40519
  -2.55961  -1.00272   7.34533
  -2.66435  -0.92790   7.15080
  -2.70924  -0.86804   7.03109
  -2.72421  -0.83812   6.83656
  -2.81399  -0.70344   6.70189
  -2.82896  -0.64359   6.44751
  -2.81399  -0.56877   6.29787
  -2.85888  -0.50891   6.01356
  -2.75414  -0.49395   5.69932
  -2.67932  -0.49395   5.38508
  -2.60450  -0.37424   5.05588
  -2.54464  -0.32935   4.74164
  -2.49975  -0.29942   4.42740
  -2.38004  -0.32935   4.02338
  -2.35011  -0.32935   3.73906
  -2.26033  -0.35928   3.35001
  -2.20048  -0.26949   2.88613
  -2.02091  -0.34431   2.54196
  -1.99098  -0.29942   2.22773
  -1.88624  -0.28446   1.82370
  -1.70667  -0.28446   1.46457
  -1.54207  -0.22460   1.03062
  -1.42236  -0.25453   0.70142
  -1.30265  -0.11986   0.41711
  -1.04827  -0.16475   0.07294
  -0.86870  -0.20964  -0.27122
  -0.71906  -0.06000  -0.66028
  -0.50957  -0.17971  -1.00445
  -0.33001  -0.04504  -1.21394
  -0.16541   0.02978  -1.39350
   0.04409   0.02978  -1.72271
   0.16380   0.11956  -1.93220
   0.31343   0.14949  -2.12673
   0.47804   0.13453  -2.32126
   0.55285   0.08964  -2.45593
   0.68753   0.14949  -2.48586
   0.80724   0.13453  -2.74024
   0.82220   0.13453  -2.78513
   0.89702   0.11956  -2.87492
   0.82220   0.14949  -2.91981
   0.85213   0.08964  -2.91981
   0.83717   0.02978  -2.88988
   0.79227  -0.01511  -2.90484
   0.77731  -0.07496  -2.87492
   0.64264  -0.13482  -2.85995
   0.59775  -0.20964  -2.81506
   0.52293  -0.20964  -2.77017
   0.43314  -0.19467  -2.74024
   0.35833  -0.28446  -2.69535
   0.17876  -0.23957  -2.63550
   0.13387  -0.29942  -2.69535
   0.07401  -0.28446  -2.59061
   0.01416  -0.29942  -2.69535
  -0.04570  -0.29942  -2.62053
  -0.06066  -0.38920  -2.60557
  -0.06066  -0.40417  -2.65046
  -0.06066  -0.43409  -2.54571
  -0.06066  -0.41913  -2.68039
  -0.04570  -0.47899  -2.63550
  -0.03073  -0.44906  -2.63550
   0.14883  -0.50891  -2.63550
   0.19372  -0.46402  -2.59061
   0.28351  -0.44906  -2.65046
   0.37329  -0.43409  -2.63550
   0.43314  -0.38920  -2.68039
   0.53789  -0.38920  -2.66542
   0.50796  -0.35928  -2.69535
   0.59775  -0.31438  -2.74024
   0.61271  -0.25453  -2.85995
   0.61271  -0.25453  -2.83003
   0.67256  -0.20964  -2.87492
   0.65760  -0.19467  -2.90484
   0.59775  -0.20964  -2.96470
   0.55285  -0.19467  -2.99463
   0.49300  -0.25453  -2.93477
   0.41818  -0.07496  -3.00959
   0.35833  -0.03007  -3.05448
   0.22365   0.04475  -3.11434
   0.14883   0.14949  -3.09937
  -0.01577   0.17942  -3.11434
  -0.13548   0.19438  -3.09937
  -0.22526   0.25424  -3.03952
  -0.37490   0.29913  -2.94974
  -0.50957   0.37395  -2.88988
  -0.64425   0.32906  -2.81506
  -0.74899   0.26920  -2.75521
  -0.91359   0.34402  -2.53075
  -1.06323   0.34402  -2.51579
  -1.21287   0.25424  -2.35119
  -1.31762   0.25424  -2.18658
  -1.39243   0.26920  -2.02198
  -1.49718   0.22431  -1.82745
  -1.54207   0.16446  -1.76760
  -1.60193   0.23927  -1.48329
  -1.58696   0.20935  -1.43840
  -1.63185   0.20935  -1.24387
  -1.60193   0.19438  -1.12416
  -1.58696   0.17942  -1.07927
  -1.51214   0.17942  -0.95956
  -1.45229   0.26920  -0.80992
  -1.42236   0.20935  -0.80992
  -1.28769   0.20935  -0.80992
  -1.25776   0.26920  -0.70517
  -1.09316   0.28417  -0.67524
  -1.01834   0.31409  -0.75006
  -0.86870   0.31409  -0.72014
  -0.77892   0.29913  -0.72014
  -0.68914   0.29913  -0.77999
  -0.68914   0.31409  -0.75006
  -0.56943   0.32906  -0.73510
  -0.53950   0.38891  -0.79495
  -0.52454   0.38891  -0.77999
  -0.47964   0.38891  -0.83985
  -0.52454   0.41884  -0.77999
  -0.56943   0.44877  -0.86977
  -0.65921   0.37395  -0.94459
  -0.68914   0.41884  -1.07927
  -0.80885   0.46373  -1.09423
  -0.79388   0.38891  -1.21394
  -0.86870   0.40388  -1.30372
  -0.83877   0.35898  -1.51321
  -0.95849   0.32906  -1.57307
  -0.94352   0.34402  -1.70774
  -1.01834   0.35898  -1.78256
  -1.03330   0.29913  -1.90227
  -1.03330   0.35898  -2.06687
  -1.04827   0.28417  -2.14169
  -1.04827   0.19438  -2.14169
  -1.07820   0.22431  -2.17162
  -1.09316   0.13453  -2.18658
  -1.07820   0.14949  -2.11177
  -1.13805   0.14949  -2.05191
  -1.15301   0.11956  -2.05191
  -1.13805   0.17942  -1.87235
  -1.12309   0.10460  -1.90227
  -1.12309   0.07467  -1.73767
  -1.13805   0.11956  -1.63292
  -1.18294   0.14949  -1.52818
  -1.19791   0.16446  -1.33365
  -1.22783   0.19438  -1.22890
  -1.18294   0.16446  -1.12416
  -1.16798   0.17942  -0.92963
  -1.22783   0.17942  -0.73510
  -1.24280   0.23927  -0.66028
  -1.30265   0.28417  -0.49568
  -1.27272   0.34402  -0.24130
  -1.19791   0.32906  -0.12159
  -1.22783   0.35898   0.01309
  -1.22783   0.31409   0.20762
