********************************************************************************
               CENTRO DE INSTRUMENTACION Y REGISTRO SISMICO  A.C.  
                       Coordinacion de Servicios Tecnicos
     Anaxagoras 814, Col. Narvarte, Benito Juarez, C.P. 03020 Mexico, D.F.
            Tels. 667 45 42/ 687 45  82             Fax. 669 25 12
********************************************************************************
ARCHIVO ESTANDAR DE ACELERACION:
VERSION DEL FORMATO                    : 2.0
NOMBRE DEL ARCHIVO                     : AL019407.041
FECHA Y HORA DE CREACION               : 13 de febrero de1996/18:40
REF. CATALOGO ACELEROGRAMAS, SMIS 1995 : REGISTRO No.     /PAG.


================================================================================
DATOS DE LA ESTACION:
NOMBRE DE LA ESTACION                  : ALAMEDA
CLAVE DE LA ESTACION                   : AL01
LOCALIZACION DE LA ESTACION            : JARDIN ALAMEDA ENTRE AV. HIDALGO Y AV.
                                       : JUAREZ, CENTRO
                                       :
                                       :
                                       :
COORDENADAS DE LA ESTACION             : 19.436 LAT. N 
                                       : 99.145 LONG. W 
ALTITUD (msnm)                         : 2232
TIPO DE SUELO                          : TERRENO BLANDO, MATERIAL COMPRESIBLE
                                       : (ARCILLAS)
                                       : 
INSTITUCION RESPONSABLE                : CIRES 
                                       :

================================================================================
DATOS DEL ACELEROGRAFO:
MODELO DEL ACELEROGRAFO                : SSA-1
NUMERO DE SERIE DEL ACELEROGRAFO       : 152
NUMERO DE CANALES                      : 3
ORIENTACION C1-C6 (rumbo;orientacion)  : /N00E/+V/N90E
ORIENTACION C7-C12 (rumbo;orientacion) :
VEL. DE MUESTREO, C1-C6 (muestras/s)   : /200/200/200
VEL. DE MUESTREO, C7-C12 (muestras/s)  :
ESC. COMPLETA DE SENSORES, C1-C6, (g)  : /2/2/2
ESC. COMPLETA DE SENSORES, C7-C12, (g) :
FREC. NAT. DE SENSORES, C1-C6, (Hz)    : /50/50/50
FREC. NAT. DE SENSORES, C7-C12, (Hz)   :
AMORTIGUAMIENTO DE SENSORES, C1-C6     : /0.700/0.700/0.700
AMORTIGUAMIENTO DE SENSORES, C7-C12    :
INTERVALO DE MUESTREO, C1-C6, (s)      : /0.005/0.005/0.005
INTERVALO DE MUESTREO, C7-C12, (s)     :
UMBRAL DE DISPARO, C1-C6, (Gal)        : /2/1.5/2
UMBRAL DE DISPARO, C7-C12, (Gal)       :
MEMORIA DE PREEVENTO (s)               : 15
TIEMPO DE POSEVENTO (s)                : 90


================================================================================
DATOS DEL SISMO:
FECHA DEL SISMO (GMT)                  : 04/JUL/94
HORA EPICENTRO (GMT)                   : 21:36:43,8
MAGNITUD(ES)                           : /Mc=5.90
COORDENADAS DEL EPICENTRO              : 14.830 LAT. N 
                                       : 97.290 LONG. W 
PROFUNDIDAD FOCAL (km)                 : 31 
FUENTE DE LOS DATOS EPICENTRALES       : SSN
                                       : INSTITUTO DE GEOFISICA, UNAM

================================================================================
DATOS DE ESTE REGISTRO:
HORA DE LA PRIMERA MUESTRA (GMT)       : 21:39:00.00
EXACTITUD DEL TIEMPO (s)               :     
DURACION DEL REGISTRO (s), C1-C6       : /98.56/98.56/98.56
DURACION DEL REGISTRO (s), C7-C12      :
NUM. TOTAL DE MUESTRAS, C1-C6          : /19712/19712/19712
NUM. TOTAL DE MUESTRAS, C7-C12         :
ACEL. MAX. (Gal), C1-C6                : /1.87585/1.37743/1.80688
ACEL. MAX., C1-C6, EN LA MUESTRA       :
ACEL. MAX. (Gal), C7-C12               :
ACEL. MAX., C7-C12, EN LA MUESTRA      :
UNIDADES DE LOS DATOS                  : Gal (cm/s/s)
FACTOR DE DECIMACION                   : 1
FORMATO DATOS (FORTRAN,10 campos/dato) : 3F10.5


================================================================================
CALIDAD DEL ACELEROGRAMA:
REGISTRO DIGITAL COMPLETO, CARECE DE TIEMPO ABSOLUTO.


================================================================================
COMENTARIOS:
             El equipo se encontraba con ganancias de 4 en todos los ejes,
             por lo que las escalas completas eran de 1/2 g.












================================================================================
DATOS DE ACELERACION:
---------+---------+---------+---------+---------+---------+---------+---------+
   CANAL-1   CANAL-2   CANAL-3   CANAL-4   CANAL-5   CANAL-6   CANAL-7   CANAL-8
      N00E        +V      N90E
---------+---------+---------+---------+---------+---------+---------+---------+
[...]
   0.20585   0.30257  -0.34312
   0.20585   0.30257  -0.34312
   0.20585   0.30257  -0.34312
   0.20585   0.30257  -0.34312
   0.20585   0.30257  -0.34312
   0.20585   0.30257  -0.58312
   0.20585   0.30257  -0.58312
   0.20585   0.30257  -0.58312
   0.20585   0.06257  -0.58312
   0.20585   0.06257  -0.58312
   0.20585   0.06257  -0.82312
   0.20585   0.30257  -0.58312
  -0.03415   0.30257  -0.82312
   0.20585   0.30257  -0.82312
   0.20585   0.30257  -0.82312
  -0.03415   0.30257  -0.82312
  -0.03415   0.30257  -0.82312
  -0.03415   0.30257  -0.82312
  -0.03415   0.30257  -0.82312
  -0.03415   0.30257  -0.82312
  -0.03415   0.30257  -1.06312
  -0.03415   0.30257  -1.06312
  -0.03415   0.30257  -1.06312
  -0.03415   0.30257  -1.06312
  -0.03415   0.30257  -1.06312
  -0.03415   0.30257  -1.06312
  -0.03415   0.06257  -1.06312
  -0.03415   0.06257  -1.06312
  -0.03415   0.06257  -1.06312
  -0.03415   0.06257  -0.82312
  -0.03415   0.06257  -0.82312
  -0.03415   0.06257  -0.82312
  -0.03415   0.06257  -0.58312
  -0.03415   0.06257  -0.58312
  -0.03415   0.30257  -0.58312
  -0.03415   0.30257  -0.58312
  -0.03415   0.06257  -0.58312
  -0.03415   0.06257  -0.58312
  -0.03415   0.30257  -0.58312
  -0.03415   0.06257  -0.58312
  -0.03415   0.06257  -0.58312
   0.20585   0.06257  -0.58312
  -0.03415   0.06257  -0.58312
  -0.03415   0.06257  -0.34312
  -0.03415  -0.17743  -0.34312
   0.20585  -0.17743  -0.34312
  -0.03415  -0.17743  -0.10312
  -0.03415  -0.17743  -0.10312
   0.20585  -0.17743  -0.10312
  -0.03415  -0.17743   0.13688
   0.20585  -0.17743   0.13688
   0.20585  -0.17743   0.13688
   0.20585  -0.17743   0.13688
   0.20585  -0.17743   0.13688
  -0.03415  -0.17743   0.13688
   0.20585  -0.17743   0.13688
  -0.03415  -0.17743   0.13688
   0.20585  -0.17743   0.13688
   0.20585  -0.17743   0.13688
   0.20585  -0.17743   0.37688
   0.20585  -0.17743   0.37688
   0.20585  -0.17743   0.37688
   0.20585  -0.17743   0.37688
   0.20585  -0.17743   0.37688
   0.20585  -0.41743   0.37688
   0.20585  -0.17743   0.61688
  -0.03415  -0.17743   0.61688
  -0.03415  -0.17743   0.61688
   0.20585  -0.17743   0.61688
  -0.03415  -0.17743   0.61688
  -0.03415  -0.17743   0.61688
  -0.03415  -0.41743   0.37688
   0.20585  -0.41743   0.37688
   0.20585  -0.41743   0.37688
   0.20585  -0.41743   0.37688
   0.20585  -0.41743   0.37688
   0.20585  -0.17743   0.61688
   0.20585  -0.41743   0.37688
   0.20585  -0.17743   0.61688
   0.20585  -0.17743   0.61688
  -0.03415  -0.41743   0.61688
   0.20585  -0.41743   0.61688
   0.20585  -0.17743   0.61688
  -0.03415  -0.17743   0.61688
  -0.03415  -0.17743   0.61688
   0.20585  -0.17743   0.37688
   0.20585  -0.17743   0.61688
  -0.03415  -0.17743   0.61688
  -0.03415  -0.17743   0.37688
   0.20585  -0.17743   0.61688
  -0.03415  -0.17743   0.61688
   0.20585  -0.17743   0.61688
   0.20585  -0.17743   0.61688
   0.20585  -0.17743   0.61688
   0.20585  -0.17743   0.61688
   0.20585  -0.17743   0.61688
   0.20585  -0.17743   0.37688
   0.20585  -0.17743   0.61688
   0.20585  -0.17743   0.37688
   0.20585  -0.17743   0.37688
   0.20585  -0.17743   0.37688
   0.20585  -0.17743   0.37688
   0.44585   0.06257   0.37688
   0.44585   0.06257   0.37688
   0.44585   0.06257   0.37688
   0.44585   0.06257   0.37688
   0.44585   0.06257   0.37688
   0.44585   0.06257   0.37688
   0.44585   0.06257   0.37688
   0.68585   0.06257   0.37688
   0.44585   0.06257   0.37688
   0.68585  -0.17743   0.37688
   0.68585   0.06257   0.37688
   0.68585   0.06257   0.37688
   0.68585   0.06257   0.37688
   0.68585   0.06257   0.37688
   0.68585   0.30257   0.37688
   0.68585   0.30257   0.37688
   0.68585   0.06257   0.37688
   0.68585   0.30257   0.37688
   0.68585   0.30257   0.37688
   0.68585   0.06257   0.37688
   0.68585   0.06257   0.37688
   0.68585   0.06257   0.37688
   0.68585   0.06257   0.37688
   0.68585   0.06257   0.37688
   0.92585   0.06257   0.13688
   0.68585   0.06257   0.37688
   0.92585   0.06257   0.13688
   0.92585   0.06257   0.13688
   0.92585   0.06257   0.13688
   0.92585  -0.17743   0.13688
   0.92585   0.06257   0.13688
   0.92585   0.06257   0.13688
   0.92585  -0.17743   0.13688
   0.92585  -0.17743  -0.10312
   0.92585  -0.17743  -0.10312
   0.92585  -0.17743  -0.10312
   0.68585  -0.17743  -0.10312
   0.92585   0.06257  -0.10312
   0.92585  -0.17743  -0.10312
   0.92585  -0.17743  -0.10312
   0.92585  -0.17743  -0.10312
   0.92585  -0.17743  -0.10312
   0.92585  -0.17743  -0.10312
   0.68585  -0.17743  -0.34312
   0.92585  -0.17743  -0.34312
   0.92585  -0.17743  -0.34312
   0.92585  -0.17743  -0.34312
   0.92585  -0.17743  -0.58312
   0.92585  -0.17743  -0.58312
   0.92585  -0.17743  -0.58312
   0.92585  -0.17743  -0.58312
   1.15585  -0.17743  -0.58312
   0.92585  -0.17743  -0.58312
   0.92585  -0.17743  -0.58312
   0.92585   0.06257  -0.58312
   0.92585  -0.17743  -0.58312
   0.92585   0.06257  -0.58312
   0.92585   0.06257  -0.58312
   0.92585   0.06257  -0.58312
   0.92585   0.06257  -0.58312
   0.92585   0.06257  -0.82312
   0.92585   0.06257  -0.82312
   0.92585   0.06257  -0.82312
   0.92585   0.06257  -1.06312
   0.92585   0.06257  -1.06312
   0.92585   0.06257  -1.06312
   0.92585   0.06257  -0.82312
   0.92585  -0.17743  -1.06312
   0.92585   0.06257  -0.82312
   0.92585   0.06257  -0.82312
   0.92585   0.06257  -0.82312
   0.92585   0.06257  -0.82312
   0.68585   0.30257  -0.58312
   0.68585   0.06257  -0.58312
   0.68585   0.06257  -0.58312
   0.68585   0.30257  -0.58312
   0.44585   0.30257  -0.58312
   0.44585   0.30257  -0.58312
   0.44585   0.30257  -0.58312
   0.44585   0.30257  -0.58312
   0.44585   0.30257  -0.58312
   0.44585   0.30257  -0.58312
   0.44585   0.30257  -0.58312
   0.20585   0.30257  -0.34312
   0.20585   0.06257  -0.34312
   0.20585   0.06257  -0.34312
  -0.03415   0.06257  -0.34312
  -0.03415   0.06257  -0.34312
  -0.03415   0.06257  -0.10312
  -0.03415   0.06257  -0.10312
  -0.27415   0.06257  -0.10312
  -0.27415   0.06257  -0.10312
  -0.27415   0.06257   0.13688
  -0.27415   0.06257   0.13688
  -0.27415   0.06257   0.13688
  -0.51415   0.06257   0.13688
  -0.51415   0.06257   0.37688
  -0.51415   0.06257   0.13688
  -0.75415   0.06257   0.13688
  -0.75415   0.06257   0.13688
  -0.75415  -0.17743   0.13688
  -0.99415  -0.17743   0.13688
  -0.99415  -0.17743   0.37688
  -0.99415  -0.17743   0.37688
  -0.99415  -0.17743   0.37688
  -0.99415  -0.17743   0.37688
  -1.23415  -0.17743   0.37688
  -1.23415  -0.17743   0.37688
  -1.23415  -0.17743   0.37688
  -1.23415  -0.17743   0.37688
  -1.23415  -0.17743   0.37688
  -1.23415  -0.17743   0.37688
  -1.23415   0.06257   0.37688
  -1.47415   0.06257   0.37688
  -1.47415  -0.17743   0.37688
  -1.47415  -0.17743   0.37688
  -1.47415  -0.17743   0.37688
  -1.71415  -0.17743   0.37688
  -1.71415  -0.17743   0.13688
  -1.71415  -0.17743   0.13688
  -1.71415  -0.17743   0.13688
  -1.71415  -0.17743   0.13688
  -1.71415  -0.17743   0.13688
  -1.71415  -0.41743   0.13688
  -1.71415  -0.17743   0.13688
  -1.71415  -0.17743   0.13688
  -1.71415   0.06257   0.13688
  -1.71415  -0.17743   0.13688
  -1.71415  -0.17743  -0.10312
  -1.71415  -0.17743  -0.10312
  -1.71415  -0.17743  -0.10312
  -1.71415  -0.17743  -0.10312
  -1.71415  -0.17743  -0.10312
  -1.71415  -0.17743  -0.10312
  -1.71415   0.06257  -0.10312
  -1.47415   0.06257  -0.34312
  -1.47415   0.06257  -0.34312
  -1.47415   0.06257  -0.34312
  -1.47415   0.06257  -0.34312
  -1.47415   0.06257  -0.34312
  -1.47415  -0.17743  -0.34312
  -1.47415   0.06257  -0.34312
  -1.47415   0.06257  -0.34312
  -1.47415   0.06257  -0.34312
  -1.47415   0.06257  -0.34312
  -1.47415   0.06257  -0.34312
  -1.23415   0.06257  -0.34312
  -1.23415   0.06257  -0.58312
  -1.47415   0.06257  -0.58312
  -1.23415   0.06257  -0.58312
  -1.23415   0.06257  -0.58312
  -1.23415   0.06257  -0.58312
  -1.23415   0.06257  -0.58312
  -0.99415   0.06257  -0.58312
  -1.23415   0.06257  -0.58312
  -1.23415   0.06257  -0.58312
  -1.23415   0.06257  -0.82312
  -1.23415   0.06257  -0.58312
  -1.23415   0.06257  -0.58312
  -1.23415   0.06257  -0.58312
  -1.23415   0.06257  -0.58312
  -1.23415   0.06257  -0.58312
  -0.99415  -0.17743  -0.82312
  -0.99415  -0.17743  -0.82312
  -1.23415   0.06257  -0.58312
  -1.23415   0.06257  -0.82312
  -0.99415   0.06257  -0.82312
  -0.99415   0.06257  -0.82312
  -0.99415   0.06257  -0.58312
  -0.75415   0.06257  -0.82312
  -0.75415   0.06257  -0.82312
  -0.75415   0.06257  -0.82312
  -0.75415   0.06257  -0.82312
  -0.75415   0.06257  -0.82312
  -0.75415   0.06257  -0.82312
  -0.99415   0.30257  -0.82312
  -0.75415   0.30257  -1.06312
  -0.75415   0.30257  -0.82312
  -0.75415   0.30257  -0.82312
  -0.75415   0.30257  -0.82312
  -0.51415   0.30257  -0.82312
  -0.75415   0.30257  -0.82312
  -0.51415   0.30257  -0.82312
  -0.51415   0.30257  -0.82312
  -0.51415   0.30257  -0.82312
  -0.51415   0.30257  -0.58312
  -0.27415   0.30257  -0.58312
  -0.27415   0.30257  -0.58312
  -0.27415   0.30257  -0.58312
  -0.27415   0.30257  -0.58312
  -0.27415   0.30257  -0.58312
  -0.27415   0.30257  -0.58312
  -0.27415   0.30257  -0.58312
  -0.03415   0.30257  -0.58312
  -0.03415   0.54257  -0.58312
  -0.03415   0.54257  -0.58312
  -0.03415   0.54257  -0.58312
   0.20585   0.54257  -0.58312
   0.20585   0.54257  -0.34312
   0.20585   0.54257  -0.34312
   0.44585   0.54257  -0.34312
   0.44585   0.54257  -0.34312
   0.44585   0.54257  -0.10312
   0.44585   0.54257  -0.34312
   0.44585   0.54257  -0.10312
   0.44585   0.54257  -0.10312
   0.68585   0.54257  -0.34312
   0.68585   0.54257  -0.10312
   0.44585   0.54257  -0.10312
   0.44585   0.54257  -0.10312
   0.68585   0.54257  -0.10312
   0.68585   0.30257  -0.10312
   0.68585   0.30257  -0.10312
   0.68585   0.30257  -0.10312
   0.68585   0.30257  -0.10312
   0.68585   0.30257   0.13688
   0.68585   0.30257   0.13688
   0.68585   0.30257   0.13688
   0.68585   0.30257   0.37688
   0.68585   0.06257  -0.10312
   0.68585   0.06257   0.37688
   0.92585   0.06257   0.37688
   0.68585   0.06257   0.37688
   0.68585   0.06257   0.37688
   0.92585   0.06257   0.37688
   0.92585   0.06257   0.37688
   0.68585   0.06257   0.61688
   0.68585   0.06257   0.61688
   0.92585   0.06257   0.85688
   0.68585   0.06257   0.85688
   0.68585   0.06257   0.85688
   0.68585   0.06257   0.85688
   0.44585  -0.17743   1.09688
   0.44585  -0.17743   1.09688
   0.44585  -0.17743   1.09688
   0.44585  -0.17743   1.09688
   0.44585  -0.17743   1.32688
   0.44585  -0.17743   1.09688
   0.44585   0.06257   1.32688
   0.44585  -0.41743   1.32688
   0.44585  -0.41743   1.32688
   0.44585  -0.41743   1.56688
   0.20585  -0.41743   1.56688
   0.20585  -0.41743   1.56688
   0.20585  -0.41743   1.56688
   0.20585  -0.41743   1.80688
   0.20585  -0.17743   1.80688
   0.20585  -0.17743   1.80688
   0.20585  -0.17743   1.80688
   0.20585  -0.17743   1.80688
   0.20585  -0.17743   1.80688
   0.20585  -0.17743   1.80688
   0.20585  -0.17743   1.80688
  -0.03415  -0.17743   1.80688
  -0.03415  -0.17743   1.80688
  -0.03415  -0.17743   1.80688
  -0.03415  -0.17743   1.80688
  -0.03415  -0.17743   1.80688
  -0.03415  -0.17743   1.80688
  -0.03415  -0.17743   1.56688
  -0.03415  -0.17743   1.56688
  -0.03415  -0.17743   1.56688
  -0.03415  -0.17743   1.56688
  -0.27415  -0.17743   1.56688
  -0.03415  -0.17743   1.32688
  -0.03415  -0.17743   1.56688
  -0.27415  -0.17743   1.56688
  -0.27415  -0.17743   1.32688
  -0.27415  -0.17743   1.32688
  -0.27415  -0.17743   1.32688
  -0.27415   0.06257   1.32688
  -0.27415   0.06257   1.09688
  -0.27415   0.06257   1.09688
  -0.27415   0.06257   1.09688
  -0.27415   0.06257   1.09688
  -0.27415   0.06257   1.09688
  -0.27415   0.30257   0.85688
  -0.27415   0.06257   0.85688
  -0.27415   0.06257   0.85688
  -0.27415   0.06257   0.85688
  -0.27415   0.06257   0.61688
  -0.27415   0.06257   0.61688
  -0.27415   0.06257   0.61688
  -0.51415   0.06257   0.61688
  -0.27415   0.06257   0.37688
  -0.27415   0.06257   0.37688
  -0.27415   0.06257   0.37688
  -0.27415   0.06257   0.37688
  -0.03415   0.30257   0.13688
  -0.03415   0.06257   0.13688
  -0.03415   0.06257   0.13688
  -0.03415   0.06257   0.13688
  -0.03415   0.06257   0.13688
  -0.03415  -0.17743   0.13688
  -0.03415   0.06257  -0.10312
   0.20585   0.06257  -0.10312
   0.20585  -0.17743  -0.10312
   0.20585  -0.17743  -0.10312
   0.20585  -0.17743  -0.10312
   0.20585  -0.17743  -0.10312
   0.20585  -0.17743  -0.10312
   0.20585  -0.17743  -0.34312
   0.20585  -0.17743  -0.34312
   0.44585  -0.17743  -0.34312
   0.44585  -0.17743  -0.34312
   0.44585  -0.17743  -0.34312
   0.68585   0.06257  -0.58312
   0.68585  -0.17743  -0.34312
   0.68585  -0.17743  -0.34312
   0.68585   0.06257  -0.34312
   0.68585   0.06257  -0.34312
   0.68585   0.06257  -0.34312
   0.92585   0.06257  -0.34312
   0.92585   0.06257  -0.34312
   0.92585   0.06257  -0.34312
   1.15585   0.06257  -0.34312
   1.15585   0.06257  -0.34312
   1.15585  -0.17743  -0.34312
   1.15585  -0.17743  -0.58312
   1.15585   0.06257  -0.58312
   1.15585   0.06257  -0.34312
   1.39585  -0.17743  -0.34312
   1.39585  -0.17743  -0.34312
   1.39585   0.06257  -0.34312
   1.39585   0.06257  -0.34312
   1.63585   0.06257  -0.34312
   1.63585   0.06257  -0.34312
   1.63585   0.06257  -0.10312
   1.63585   0.06257  -0.34312
   1.63585   0.06257  -0.34312
   1.63585   0.30257  -0.34312
   1.63585   0.06257  -0.34312
   1.63585   0.06257  -0.34312
   1.63585   0.30257  -0.34312
   1.63585   0.30257  -0.34312
   1.87585   0.06257  -0.34312
   1.87585   0.06257  -0.34312
   1.63585   0.06257  -0.34312
   1.87585   0.06257  -0.34312
   1.87585   0.06257  -0.58312
   1.87585   0.06257  -0.34312
   1.87585   0.06257  -0.34312
   1.87585   0.06257  -0.34312
   1.87585   0.06257  -0.34312
   1.63585   0.06257  -0.34312
   1.63585   0.06257  -0.34312
   1.63585   0.06257  -0.34312
   1.87585   0.06257  -0.34312
   1.63585   0.06257  -0.58312
   1.63585   0.06257  -0.58312
   1.63585   0.06257  -0.58312
   1.63585  -0.17743  -0.58312
   1.63585  -0.17743  -0.58312
   1.63585  -0.17743  -0.58312
   1.63585  -0.17743  -0.58312
   1.39585  -0.17743  -0.58312
   1.63585  -0.17743  -0.58312
   1.39585  -0.17743  -0.58312
   1.39585  -0.17743  -0.58312
   1.39585  -0.17743  -0.58312
   1.39585  -0.17743  -0.82312
   1.15585  -0.17743  -0.58312
   1.15585  -0.17743  -0.82312
   1.15585  -0.17743  -0.82312
   1.15585  -0.17743  -0.82312
   1.15585  -0.41743  -0.82312
   1.15585  -0.41743  -0.82312
   1.15585  -0.41743  -0.82312
   0.92585  -0.41743  -0.58312
   0.92585  -0.41743  -0.82312
   0.92585  -0.41743  -0.82312
   0.92585  -0.41743  -0.58312
   0.92585  -0.41743  -0.58312
   0.68585  -0.17743  -0.82312
   0.68585  -0.17743  -0.58312
   0.44585  -0.41743  -0.58312
   0.44585  -0.41743  -0.58312
   0.44585  -0.41743  -0.58312
   0.44585  -0.41743  -0.58312
   0.44585  -0.41743  -0.58312
   0.44585  -0.41743  -0.58312
   0.44585  -0.41743  -0.58312
   0.20585  -0.41743  -0.58312
   0.44585  -0.41743  -0.34312
   0.20585  -0.41743  -0.34312
   0.20585  -0.41743  -0.34312
   0.20585  -0.41743  -0.34312
   0.20585  -0.41743  -0.58312
  -0.03415  -0.41743  -0.34312
  -0.03415  -0.41743  -0.34312
  -0.03415  -0.41743  -0.10312
  -0.03415  -0.41743  -0.10312
  -0.27415  -0.41743  -0.10312
  -0.27415  -0.41743   0.13688
