********************************************************************************
               CENTRO DE INSTRUMENTACION Y REGISTRO SISMICO  A.C.  
                       Coordinacion de Servicios Tecnicos
     Anaxagoras 814, Col. Narvarte, Benito Juarez, C.P. 03020 Mexico, D.F.
            Tels. 687 45 42/ 687 45  82             Fax. 669 25 12
********************************************************************************
ARCHIVO ESTANDAR DE ACELERACION:
VERSION DEL FORMATO                    : 2.0
NOMBRE DEL ARCHIVO                     : AL019310.241
FECHA Y HORA DE CREACION               : 8 de febrero de 1996/17:38
REF. CATALOGO ACELEROGRAMAS, SMIS 1995 : REGISTRO No. 4906 /PAG. 443


================================================================================
DATOS DE LA ESTACION:
NOMBRE DE LA ESTACION                  : ALAMEDA
CLAVE DE LA ESTACION                   : AL01
LOCALIZACION DE LA ESTACION            : JARDIN ALAMEDA ENTRE AV. HIDALGO Y AV.
                                       : JUAREZ, CENTRO
                                       :
                                       :
                                       :
COORDENADAS DE LA ESTACION             : 19.436 LAT. N 
                                       : 99.145 LONG. W 
ALTITUD (msnm)                         : 2232
TIPO DE SUELO                          : TERRENO BLANDO, MATERIAL COMPRESIBLE
                                       : (ARCILLAS)
                                       : 
INSTITUCION RESPONSABLE                : CIRES 
                                       :

================================================================================
DATOS DEL ACELEROGRAFO:
MODELO DEL ACELEROGRAFO                : SSA-1
NUMERO DE SERIE DEL ACELEROGRAFO       : 152
NUMERO DE CANALES                      : 3
ORIENTACION C1-C6 (rumbo;orientacion)  : /N00E/+V/N90E
ORIENTACION C7-C12 (rumbo;orientacion) :
VEL. DE MUESTREO, C1-C6 (muestras/s)   : /200/200/200
VEL. DE MUESTREO, C7-C12 (muestras/s)  :
ESC. COMPLETA DE SENSORES, C1-C6, (g)  : /2/2/2
ESC. COMPLETA DE SENSORES, C7-C12, (g) :
FREC. NAT. DE SENSORES, C1-C6, (Hz)    : /50/50/50
FREC. NAT. DE SENSORES, C7-C12, (Hz)   :
AMORTIGUAMIENTO DE SENSORES, C1-C6     : /0.700/0.700/0.700
AMORTIGUAMIENTO DE SENSORES, C7-C12    :
INTERVALO DE MUESTREO, C1-C6, (s)      : /0.005/0.005/0.005
INTERVALO DE MUESTREO, C7-C12, (s)     :
UMBRAL DE DISPARO, C1-C6, (Gal)        : /2/1.5/2
UMBRAL DE DISPARO, C7-C12, (Gal)       :
MEMORIA DE PREEVENTO (s)               : 15
TIEMPO DE POSEVENTO (s)                : 90


================================================================================
DATOS DEL SISMO:
FECHA DEL SISMO (GMT)                  : 24/OCT/93
HORA EPICENTRO (GMT)                   : 07:52:18,2 
MAGNITUD(ES)                           : /Mb=6.20/Ms=6.60/Mc=6.50
COORDENADAS DEL EPICENTRO              : 16.540 LAT. N 
                                       : 98.980 LONG. W 
PROFUNDIDAD FOCAL (km)                 : < 5
FUENTE DE LOS DATOS EPICENTRALES       : SSN
                                       : INSTITUTO DE GEOFISICA, UNAM

================================================================================
DATOS DE ESTE REGISTRO:
HORA DE LA PRIMERA MUESTRA (GMT)       : 07:53:45.00
EXACTITUD DEL TIEMPO (s)               :     
DURACION DEL REGISTRO (s), C1-C6       : /215.04/215.04/215.04
DURACION DEL REGISTRO (s), C7-C12      :
NUM. TOTAL DE MUESTRAS, C1-C6          : /43008/43008/43008
NUM. TOTAL DE MUESTRAS, C7-C12         :
ACEL. MAX. (Gal), C1-C6                : /8.97804/6.24470/9.47630
ACEL. MAX., C1-C6, EN LA MUESTRA       :
ACEL. MAX. (Gal), C7-C12               :
ACEL. MAX., C7-C12, EN LA MUESTRA      :
UNIDADES DE LOS DATOS                  : Gal (cm/s/s)
FACTOR DE DECIMACION                   : 1
FORMATO DATOS (FORTRAN,10 campos/dato) : 3F10.5


================================================================================
CALIDAD DEL ACELEROGRAMA:
REGISTRO DIGITAL COMPLETO, CARECE DE TIEMPO ABSOLUTO.


================================================================================
COMENTARIOS:
             Los equipos se encontraban con una ganancia de 2 en los ejes
             horizontales y de 4 en el vertical, por lo que las escalas 
             completas de sensores era de 1 g y 1/2 g respectivamente.











================================================================================
DATOS DE ACELERACION:
---------+---------+---------+---------+---------+---------+---------+---------+
   CANAL-1   CANAL-2   CANAL-3   CANAL-4   CANAL-5   CANAL-6   CANAL-7   CANAL-8
      N00E        +V      N90E
---------+---------+---------+---------+---------+---------+---------+---------+
[...]
   1.08196   1.93470   2.02370
   1.08196   1.93470   2.02370
   1.56196   1.93470   2.02370
   1.08196   1.69470   2.02370
   1.56196   1.69470   2.02370
   1.56196   1.69470   2.02370
   1.56196   1.69470   2.02370
   1.56196   1.45470   2.02370
   2.04196   1.45470   2.02370
   2.04196   1.22470   2.02370
   2.04196   1.22470   2.02370
   2.04196   1.22470   2.02370
   2.04196   0.98470   2.02370
   2.04196   0.98470   2.02370
   2.04196   0.74470   2.02370
   2.04196   0.74470   2.50370
   2.04196   0.50470   2.02370
   2.04196   0.50470   2.50370
   2.04196   0.50470   2.02370
   2.04196   0.26470   2.50370
   2.51196   0.26470   2.50370
   2.51196   0.02470   2.50370
   2.51196   0.02470   2.50370
   2.99196  -0.21530   2.50370
   2.99196  -0.45530   2.50370
   2.51196  -0.45530   2.02370
   2.99196  -0.69530   2.02370
   2.99196  -0.93530   2.02370
   2.99196  -0.93530   2.02370
   3.47196  -1.17530   2.02370
   2.99196  -1.17530   2.02370
   3.47196  -1.41530   2.02370
   3.47196  -1.41530   1.54370
   3.95196  -1.65530   1.54370
   3.47196  -1.65530   1.54370
   3.47196  -1.89530   1.54370
   3.47196  -1.89530   1.54370
   3.47196  -1.89530   1.06370
   3.95196  -2.13530   1.06370
   3.95196  -2.13530   1.06370
   3.47196  -2.13530   1.06370
   3.95196  -2.37530   1.06370
   3.95196  -2.37530   0.58370
   3.95196  -2.37530   0.58370
   3.95196  -2.61530   0.58370
   3.95196  -2.61530   0.58370
   3.95196  -2.61530   0.10370
   3.95196  -2.85530   0.10370
   3.95196  -2.85530  -0.37630
   3.95196  -2.85530  -0.37630
   3.95196  -2.85530  -0.37630
   3.95196  -2.85530  -0.37630
   3.95196  -2.61530  -0.85630
   3.95196  -2.85530  -0.85630
   3.95196  -2.61530  -0.85630
   3.95196  -2.61530  -0.85630
   3.95196  -2.37530  -1.32630
   3.95196  -2.37530  -1.32630
   3.47196  -2.37530  -1.80630
   3.47196  -2.13530  -1.80630
   3.47196  -2.13530  -1.80630
   2.99196  -2.13530  -2.28630
   3.47196  -1.89530  -2.28630
   2.99196  -1.89530  -2.76630
   2.99196  -1.89530  -2.76630
   2.99196  -1.65530  -2.76630
   2.51196  -1.65530  -3.24630
   2.51196  -1.65530  -3.24630
   2.51196  -1.41530  -3.24630
   2.51196  -1.41530  -3.24630
   2.04196  -1.41530  -3.72630
   2.04196  -1.17530  -3.72630
   2.04196  -1.17530  -3.72630
   1.56196  -0.93530  -3.72630
   1.56196  -0.93530  -3.72630
   1.08196  -0.93530  -3.72630
   1.08196  -0.69530  -3.72630
   0.60196  -0.69530  -3.72630
   0.12196  -0.45530  -3.72630
   0.12196  -0.45530  -3.72630
  -0.35804  -0.45530  -3.72630
  -0.35804  -0.21530  -3.72630
  -0.83804  -0.21530  -3.72630
  -0.83804  -0.21530  -3.72630
  -0.83804   0.02470  -3.24630
  -1.31804   0.02470  -3.72630
  -1.79804   0.26470  -3.24630
  -1.79804   0.26470  -3.24630
  -2.27804   0.50470  -3.24630
  -2.27804   0.50470  -3.24630
  -2.27804   0.74470  -3.24630
  -2.75804   0.74470  -3.24630
  -3.22804   0.74470  -3.24630
  -3.22804   0.98470  -3.24630
  -3.70804   0.98470  -3.24630
  -3.70804   1.22470  -2.76630
  -4.18804   1.22470  -3.24630
  -4.18804   1.45470  -2.76630
  -4.18804   1.45470  -2.76630
  -4.66804   1.45470  -2.76630
  -4.66804   1.69470  -2.76630
  -4.66804   1.93470  -2.76630
  -5.14804   1.93470  -2.28630
  -5.14804   2.17470  -2.28630
  -5.62804   2.17470  -2.28630
  -5.62804   2.17470  -2.28630
  -5.62804   2.41470  -2.28630
  -5.62804   2.65470  -2.28630
  -5.62804   2.65470  -2.28630
  -5.62804   2.89470  -2.28630
  -5.62804   2.89470  -2.28630
  -5.62804   3.13470  -2.28630
  -5.62804   3.13470  -1.80630
  -6.10804   3.37470  -2.28630
  -6.10804   3.37470  -2.28630
  -5.62804   3.37470  -2.28630
  -5.62804   3.37470  -2.28630
  -5.62804   3.37470  -2.28630
  -5.62804   3.37470  -2.28630
  -5.62804   3.37470  -2.28630
  -5.14804   3.37470  -2.28630
  -5.14804   3.37470  -2.28630
  -5.14804   3.37470  -2.28630
  -4.66804   3.37470  -2.28630
  -4.66804   3.37470  -2.28630
  -4.66804   3.37470  -2.28630
  -4.66804   3.37470  -2.28630
  -4.18804   3.37470  -2.28630
  -4.18804   3.37470  -2.28630
  -3.70804   3.37470  -2.28630
  -3.70804   3.13470  -2.28630
  -3.70804   3.13470  -2.28630
  -3.22804   2.89470  -2.28630
  -3.22804   2.89470  -2.28630
  -3.22804   2.89470  -2.28630
  -3.22804   2.65470  -2.28630
  -2.75804   2.41470  -2.28630
  -2.75804   2.41470  -1.80630
  -2.75804   2.17470  -1.80630
  -2.27804   2.17470  -1.80630
  -2.27804   1.93470  -1.80630
  -2.27804   1.69470  -1.80630
  -2.27804   1.69470  -1.80630
  -1.79804   1.45470  -1.32630
  -1.79804   1.22470  -0.85630
  -1.79804   0.98470  -0.85630
  -1.79804   0.98470  -0.85630
  -1.79804   0.98470  -0.85630
  -1.31804   0.74470  -0.85630
  -1.31804   0.50470  -0.37630
  -1.31804   0.50470  -0.37630
  -1.31804   0.26470  -0.37630
  -1.31804  -0.21530   0.10370
  -0.83804  -0.21530   0.10370
  -0.83804  -0.45530   0.58370
  -0.83804  -0.69530   0.10370
  -0.83804  -0.69530   1.06370
  -0.83804  -0.93530   1.06370
  -0.83804  -1.17530   1.06370
  -0.83804  -1.17530   1.54370
  -0.83804  -1.41530   2.02370
  -0.83804  -1.41530   2.02370
  -0.83804  -1.41530   2.02370
  -0.83804  -1.65530   2.50370
  -0.35804  -1.65530   2.98370
  -0.83804  -1.65530   2.98370
  -0.35804  -1.89530   3.46370
  -0.35804  -1.89530   3.93370
  -0.35804  -1.89530   3.93370
  -0.35804  -1.89530   3.93370
  -0.35804  -1.89530   4.89370
   0.12196  -1.89530   4.89370
   0.12196  -1.65530   4.89370
   0.12196  -1.65530   5.37370
   0.12196  -1.65530   5.37370
   0.12196  -1.65530   5.85370
   0.60196  -1.65530   5.85370
   0.60196  -1.41530   5.85370
   0.60196  -1.41530   6.33370
   0.60196  -1.41530   6.33370
   1.08196  -1.41530   6.81370
   1.08196  -1.41530   6.81370
   1.08196  -1.41530   6.81370
   1.08196  -1.41530   6.81370
   1.08196  -1.41530   7.29370
   1.08196  -1.41530   7.77370
   1.08196  -1.41530   7.77370
   1.08196  -1.41530   8.25370
   1.08196  -1.41530   8.25370
   1.56196  -1.65530   8.25370
   1.08196  -1.41530   8.25370
   1.56196  -1.41530   8.73370
   1.56196  -1.65530   8.73370
   1.56196  -1.65530   8.73370
   1.56196  -1.65530   8.73370
   1.56196  -1.65530   8.73370
   1.56196  -1.65530   8.73370
   1.08196  -1.65530   8.73370
   1.08196  -1.65530   8.73370
   1.56196  -1.65530   9.20370
   1.08196  -1.89530   8.73370
   1.56196  -1.89530   8.73370
   1.56196  -1.89530   8.73370
   2.04196  -1.89530   8.73370
   1.56196  -1.89530   8.25370
   1.56196  -1.89530   8.25370
   2.04196  -1.89530   8.25370
   1.56196  -1.89530   7.77370
   2.04196  -1.89530   7.77370
   2.04196  -1.89530   7.29370
   2.04196  -1.89530   6.81370
   2.04196  -1.65530   6.81370
   2.04196  -1.65530   6.81370
   1.56196  -1.65530   6.33370
   2.04196  -1.65530   5.85370
   1.56196  -1.65530   5.85370
   2.04196  -1.41530   5.37370
   1.56196  -1.41530   5.37370
   1.56196  -1.41530   4.89370
   1.56196  -1.41530   4.41370
   1.56196  -1.41530   3.93370
   1.56196  -1.41530   3.93370
   1.56196  -1.41530   3.46370
   1.56196  -1.41530   3.46370
   1.56196  -1.41530   2.98370
   1.56196  -1.41530   2.98370
   1.08196  -1.41530   2.50370
   1.08196  -1.41530   2.02370
   1.08196  -1.17530   2.02370
   1.08196  -1.17530   1.54370
   1.08196  -1.17530   1.54370
   1.08196  -1.17530   1.06370
   1.08196  -1.17530   1.06370
   1.08196  -0.93530   1.06370
   1.08196  -0.93530   1.06370
   1.08196  -0.93530   1.06370
   1.08196  -0.69530   0.58370
   1.08196  -0.69530   0.58370
   1.08196  -0.45530   0.58370
   1.08196  -0.45530   0.58370
   1.08196  -0.45530   0.58370
   1.08196  -0.21530   0.58370
   1.08196  -0.21530   0.58370
   1.08196  -0.21530   0.58370
   1.08196  -0.21530   0.58370
   0.60196   0.02470   0.58370
   0.12196   0.02470   1.06370
   0.12196   0.02470   1.06370
   0.12196   0.26470   1.06370
   0.12196   0.26470   1.06370
   0.12196   0.26470   1.06370
   0.12196   0.26470   1.06370
   0.12196   0.26470   1.06370
   0.12196   0.26470   1.06370
   0.12196   0.26470   1.06370
  -0.35804   0.26470   1.06370
   0.12196   0.26470   1.54370
  -0.35804   0.26470   1.54370
   0.12196   0.26470   1.54370
  -0.35804   0.26470   1.54370
   0.12196   0.26470   2.02370
   0.12196   0.02470   2.02370
   0.12196   0.02470   2.02370
   0.12196   0.26470   2.02370
   0.12196   0.26470   2.02370
   0.12196   0.26470   2.50370
   0.12196   0.02470   2.02370
   0.12196   0.02470   2.02370
   0.12196   0.02470   2.02370
   0.12196  -0.21530   2.02370
   0.12196  -0.21530   2.02370
   0.12196  -0.45530   2.02370
   0.12196  -0.45530   2.02370
   0.12196  -0.45530   2.02370
   0.12196  -0.45530   2.02370
   0.60196  -0.45530   2.02370
   0.12196  -0.45530   2.02370
   0.60196  -0.21530   1.54370
   0.60196  -0.45530   1.54370
   0.60196  -0.45530   1.54370
   0.60196  -0.45530   1.06370
   0.60196  -0.21530   1.06370
   1.08196  -0.21530   1.06370
   1.08196  -0.45530   1.06370
   1.08196  -0.21530   1.06370
   1.08196  -0.21530   1.06370
   1.56196  -0.21530   0.58370
   1.56196  -0.21530   0.58370
   2.04196  -0.21530   0.10370
   2.04196  -0.21530   0.10370
   2.51196  -0.21530  -0.37630
   2.51196  -0.21530  -0.37630
   2.99196  -0.21530  -0.85630
   2.99196   0.02470  -0.85630
   3.47196   0.02470  -1.32630
   3.47196   0.02470  -1.32630
   3.95196   0.02470  -1.32630
   3.95196   0.02470  -1.80630
   4.43196   0.26470  -1.80630
   4.91196   0.26470  -2.28630
   4.91196   0.26470  -2.76630
   5.39196   0.26470  -3.24630
   5.39196   0.50470  -3.24630
   5.87196   0.74470  -3.72630
   5.87196   0.74470  -3.72630
   5.87196   0.98470  -4.20630
   5.87196   0.98470  -4.20630
   5.87196   1.22470  -4.68630
   6.35196   1.22470  -4.68630
   6.35196   1.22470  -5.16630
   6.35196   1.22470  -5.16630
   6.35196   1.45470  -5.64630
   6.35196   1.45470  -5.64630
   6.35196   1.45470  -6.11630
   6.35196   1.45470  -6.59630
   6.35196   1.45470  -6.59630
   6.35196   1.45470  -6.59630
   6.35196   1.69470  -6.59630
   5.87196   1.69470  -7.07630
   5.87196   1.69470  -7.07630
   5.87196   1.69470  -7.07630
   5.39196   1.69470  -7.07630
   5.39196   1.69470  -7.55630
   5.39196   1.69470  -7.55630
   4.91196   1.69470  -7.55630
   4.91196   1.69470  -7.55630
   4.43196   1.69470  -7.55630
   4.43196   1.69470  -7.55630
   3.95196   1.45470  -8.03630
   3.47196   1.45470  -8.03630
   2.99196   1.45470  -8.03630
   2.99196   1.45470  -8.03630
   2.51196   1.22470  -8.03630
   2.04196   1.22470  -8.51630
   1.56196   0.98470  -8.51630
   1.56196   0.98470  -8.51630
   1.08196   0.74470  -8.99630
   0.60196   0.74470  -8.51630
   0.60196   0.50470  -8.99630
   0.12196   0.26470  -8.99630
  -0.35804   0.26470  -8.99630
  -0.35804   0.02470  -8.99630
  -0.83804  -0.21530  -8.99630
  -0.83804  -0.45530  -8.99630
  -1.31804  -0.45530  -9.47630
  -1.31804  -0.69530  -9.47630
  -1.79804  -0.93530  -9.47630
  -1.79804  -0.93530  -9.47630
  -2.27804  -1.17530  -8.99630
  -2.27804  -1.17530  -9.47630
  -2.27804  -1.41530  -9.47630
  -2.75804  -1.41530  -8.99630
  -2.75804  -1.41530  -9.47630
  -2.75804  -1.65530  -8.99630
  -3.22804  -1.65530  -8.99630
  -3.22804  -1.65530  -8.99630
  -3.22804  -1.65530  -8.99630
  -3.22804  -1.65530  -8.99630
  -3.22804  -1.89530  -8.99630
  -3.70804  -1.89530  -8.51630
  -3.22804  -1.89530  -8.51630
  -3.22804  -1.89530  -8.51630
  -3.22804  -1.89530  -8.51630
  -3.22804  -1.89530  -8.03630
  -3.22804  -1.89530  -8.03630
  -3.22804  -1.89530  -7.55630
  -3.22804  -1.89530  -7.55630
  -3.22804  -1.89530  -7.55630
  -3.22804  -2.13530  -7.07630
  -3.22804  -2.13530  -7.07630
  -2.75804  -2.13530  -6.59630
  -2.75804  -1.89530  -6.59630
  -2.75804  -1.89530  -6.11630
  -2.75804  -1.89530  -6.11630
  -2.75804  -1.89530  -5.64630
  -2.75804  -1.65530  -5.64630
  -2.27804  -1.65530  -5.16630
  -2.75804  -1.65530  -4.68630
  -2.27804  -1.41530  -4.68630
  -2.27804  -1.41530  -4.68630
  -2.27804  -1.41530  -4.20630
  -2.27804  -1.41530  -3.72630
  -2.27804  -1.17530  -3.72630
  -2.27804  -1.17530  -3.72630
  -2.27804  -1.17530  -3.24630
  -2.27804  -1.17530  -2.76630
  -2.27804  -0.93530  -2.76630
  -2.75804  -0.93530  -2.28630
  -2.75804  -0.93530  -2.28630
  -2.75804  -0.93530  -1.80630
  -2.75804  -0.93530  -1.80630
  -3.22804  -0.93530  -1.80630
  -3.22804  -0.93530  -1.32630
  -3.22804  -0.93530  -0.85630
  -3.70804  -1.17530  -0.85630
  -3.70804  -0.69530  -0.85630
  -3.70804  -0.69530  -0.85630
  -4.18804  -0.69530  -0.37630
  -4.18804  -0.69530  -0.37630
  -4.18804  -0.45530  -0.37630
  -4.66804  -0.45530   0.10370
  -4.66804  -0.45530   0.10370
  -5.14804  -0.21530   0.10370
  -5.14804  -0.21530   0.10370
  -5.14804   0.02470   0.58370
  -5.62804   0.02470   0.58370
  -5.62804   0.26470   0.58370
  -5.62804   0.50470   0.58370
  -6.10804   0.50470   0.58370
  -6.10804   0.50470   0.58370
  -6.58804   0.74470   0.58370
  -6.58804   0.98470   0.58370
  -6.58804   0.98470   0.58370
  -7.06804   1.22470   0.58370
  -7.06804   1.45470   1.06370
  -7.06804   1.69470   1.06370
  -7.06804   1.93470   0.58370
  -7.54804   2.17470   0.58370
  -7.54804   2.41470   1.06370
  -7.54804   2.41470   0.58370
  -7.06804   2.65470   1.06370
  -7.06804   2.89470   1.06370
  -7.06804   2.89470   0.58370
  -7.06804   3.13470   1.06370
  -7.06804   3.37470   0.58370
  -7.06804   3.37470   0.58370
  -7.06804   3.61470   0.58370
  -7.06804   3.61470   0.58370
  -6.58804   3.85470   0.58370
  -6.10804   3.85470   0.58370
  -6.10804   3.85470   0.58370
  -6.10804   3.85470   0.58370
  -5.62804   3.85470   0.10370
  -5.62804   4.09470   0.10370
  -5.14804   4.09470   0.10370
  -5.14804   3.85470   0.10370
  -4.66804   4.09470  -0.37630
  -4.18804   4.09470  -0.37630
  -4.18804   4.09470  -0.85630
  -3.70804   4.09470  -0.85630
  -3.22804   3.85470  -0.85630
  -3.22804   3.85470  -1.32630
  -2.75804   3.85470  -1.32630
  -2.27804   3.85470  -1.32630
  -2.27804   3.61470  -1.80630
  -1.79804   3.61470  -1.80630
  -1.31804   3.37470  -1.80630
  -0.83804   3.37470  -2.28630
  -0.83804   3.13470  -2.28630
  -0.83804   2.89470  -2.76630
  -0.35804   2.65470  -2.76630
   0.12196   2.41470  -2.76630
   0.12196   2.17470  -3.24630
   0.60196   1.93470  -2.76630
   1.08196   1.69470  -3.24630
   1.08196   1.45470  -3.24630
   1.56196   0.98470  -3.24630
   1.56196   0.74470  -3.72630
   2.04196   0.50470  -3.24630
   2.04196   0.26470  -3.24630
   2.51196   0.02470  -3.24630
   2.51196  -0.21530  -3.72630
   2.99196  -0.69530  -3.72630
   2.99196  -0.93530  -3.24630
   2.99196  -1.17530  -3.24630
   2.99196  -1.41530  -3.24630
   2.99196  -1.65530  -3.24630
   3.47196  -1.89530  -3.24630
   3.47196  -2.13530  -3.24630
   3.47196  -2.37530  -2.76630
   3.47196  -2.61530  -2.76630
   2.99196  -2.61530  -2.76630
   3.47196  -2.85530  -2.28630
   3.47196  -3.09530  -2.28630
   3.47196  -3.33530  -1.80630
   3.95196  -3.33530  -1.80630
   3.95196  -3.57530  -1.32630
   3.95196  -3.57530  -1.32630
   3.95196  -3.80530  -1.32630
   4.43196  -3.80530  -0.85630
   4.43196  -4.04530  -0.37630
   3.95196  -4.04530  -0.37630
   4.43196  -4.28530  -0.37630
   4.43196  -4.28530   0.10370
   4.43196  -4.28530   0.58370
   4.43196  -4.28530   0.10370
   4.91196  -4.52530   1.06370
   4.91196  -4.52530   1.54370
   4.91196  -4.52530   2.02370
   4.91196  -4.52530   2.02370
   4.91196  -4.52530   2.50370
   4.91196  -4.52530   2.98370
