********************************************************************************
              CENTRO DE INSTRUMENTACION Y REGISTRO SISMICO  A.C.

    Anaxagoras 814, Col. Narvarte, Benito Juarez, C.P. 03020 Mexico, D.F.
           Tels. 5687 45 42/ 5687 45  82             Fax. 5669 25 12
********************************************************************************
ARCHIVO ESTANDAR DE ACELERACION:
VERSION DEL FORMATO                    : 2.0
NOMBRE DEL ARCHIVO                     : AL0120130326130445
FECHA Y HORA DE CREACION               : 29/JUL/13, 12:42
REF. CATALOGO ACELEROGRAMAS, SMIS 1996 : REGISTRO No.     /PAG.


================================================================================
DATOS DE LA ESTACION:
NOMBRE DE LA ESTACION                  : ALAMEDA
CLAVE DE LA ESTACION                   : AL01
LOCALIZACION DE LA ESTACION            : Del. Cuauhtémoc, Col. Centro,          
                                       : Dr. Mora entre Av. Hidalgo             
                                       : y Av. Juárez.                          
                                       :                                        
                                       : 
COORDENADAS DE LA ESTACION             : 19.4356 LAT. N
                                       : 99.1453 LONG. W
ALTITUD (msnm)                         : 2232
TIPO DE SUELO                          : Terreno blando, material compresible
                                       : (arcillas)                
                                       : 
INSTITUCION RESPONSABLE                : CIRES
                                       : 

================================================================================
DATOS DEL ACELEROGRAFO:
MODELO DEL ACELEROGRAFO                : RADESD
NUMERO DE SERIE DEL ACELEROGRAFO       : 152
NUMERO DE CANALES                      : 3
ORIENTACION C1-C6 (rumbo;orientacion)  : /N00E/+V/N90W
ORIENTACION C7-C12 (rumbo;orientacion) : 
VEL. DE MUESTREO, C1-C6 (muestras/s)   : /100/100/100
VEL. DE MUESTREO, C7-C12 (muestras/s)  : 
ESC. COMPLETA DE SENSORES, C1-C6, (g)  : /0.5/0.5/0.5
ESC. COMPLETA DE SENSORES, C7-C12, (g) : 
FREC. NAT. DE SENSORES, C1-C6, (Hz)    : /51.29/51.09/53.75
FREC. NAT. DE SENSORES, C7-C12, (Hz)   : 
AMORTIGUAMIENTO DE SENSORES, C1-C6     : /0.5519/0.5670/0.5810
AMORTIGUAMIENTO DE SENSORES, C7-C12    : 
INTERVALO DE MUESTREO, C1-C6, (s)      : /0.01/0.01/0.01
INTERVALO DE MUESTREO, C7-C12, (s)     : 
UMBRAL DE DISPARO, C1-C6, (Gal)        : /14.37/28.73/14.37
UMBRAL DE DISPARO, C7-C12, (Gal)       : 
MEMORIA DE PREEVENTO (s)               : 56.0
TIEMPO DE POSEVENTO (s)                : 80.0


================================================================================
DATOS DEL SISMO:
FECHA DEL SISMO (GMT)                  : 26/MAR/13
HORA EPICENTRO (GMT)                   : 13:04:45.0
MAGNITUD(ES)                           : /Mc=5.4
COORDENADAS DEL EPICENTRO              : 15.78 LAT. N
                                       : 98.61 LONG. W
PROFUNDIDAD FOCAL (km)                 : 10
FUENTE DE LOS DATOS EPICENTRALES       : SSN
                                       : INSTITUTO DE GEOFISICA, UNAM

================================================================================
DATOS DE ESTE REGISTRO:
HORA DE LA PRIMERA MUESTRA (GMT)       : 13:06:40.00
EXACTITUD DEL TIEMPO (s)               : 0.01
DURACION DEL REGISTRO (s), C1-C6       : /164.0/164.0/164.0
DURACION DEL REGISTRO (s), C7-C12      : 
NUM. TOTAL DE MUESTRAS, C1-C6          : /16400/16400/16400
NUM. TOTAL DE MUESTRAS, C7-C12         : 
ACEL. MAX. (Gal), C1-C6                : /2.65165/0.80275/2.10772
ACEL. MAX., C1-C6, EN LA MUESTRA       : /6645/7608/5256
ACEL. MAX. (Gal), C7-C12               : 
ACEL. MAX., C7-C12, EN LA MUESTRA      : 
UNIDADES DE LOS DATOS                  : Gal (cm/s/s)
FACTOR DE DECIMACION                   : 1
FORMATO DATOS (FORTRAN,10 campos/dato) : 3F10.5


================================================================================
CALIDAD DEL ACELEROGRAMA:
REGISTRO DIGITAL COMPLETO CON TIEMPO ABSOLUTO CORRECTO.


================================================================================
COMENTARIOS:














================================================================================
DATOS DE ACELERACION:
---------+---------+---------+---------+---------+---------+---------+---------+
   CANAL-1   CANAL-2   CANAL-3   CANAL-4   CANAL-5   CANAL-6   CANAL-7   CANAL-8
      N00E        +V      N90W
---------+---------+---------+---------+---------+---------+---------+---------+
[...]
   0.35606   0.19983  -0.82517
   0.29621   0.18486  -0.79525
   0.23635   0.12501  -0.70546
   0.28124   0.09508  -0.63064
   0.25132   0.02026  -0.64561
   0.25132  -0.05456  -0.58575
   0.23635  -0.06952  -0.58575
   0.14657  -0.14434  -0.63064
   0.10168  -0.26405  -0.64561
   0.07175  -0.29398  -0.55583
  -0.04796  -0.32391  -0.57079
  -0.15270  -0.23412  -0.48101
  -0.21256  -0.27901  -0.54086
  -0.28738  -0.18923  -0.61568
  -0.42205  -0.17427  -0.70546
  -0.49687  -0.08449  -0.69050
  -0.45198  -0.08449  -0.54086
  -0.51183  -0.15930  -0.58575
  -0.49687  -0.09945  -0.46604
  -0.57169  -0.05456  -0.49597
  -0.54176  -0.18923  -0.57079
  -0.66147  -0.21916  -0.60072
  -0.75125  -0.23412  -0.63064
  -0.84104  -0.18923  -0.69050
  -0.94578  -0.17427  -0.72043
  -0.97571  -0.15930  -0.70546
  -1.06549  -0.17427  -0.67554
  -1.09542  -0.14434  -0.75035
  -1.09542  -0.14434  -0.70546
  -1.12535  -0.21916  -0.66057
  -1.18520  -0.26405  -0.73539
  -1.26002  -0.14434  -0.81021
  -1.31988  -0.14434  -0.87006
  -1.42462  -0.11441  -0.84014
  -1.46952  -0.15930  -0.85510
  -1.52937  -0.12938  -0.89999
  -1.60419  -0.17427  -0.84014
  -1.64908  -0.15930  -0.89999
  -1.67901  -0.11441  -0.88503
  -1.75383  -0.05456  -0.82517
  -1.70894  -0.00967  -0.73539
  -1.69397   0.08012  -0.66057
  -1.64908   0.03522  -0.60072
  -1.70894   0.11004  -0.58575
  -1.69397   0.08012  -0.57079
  -1.67901   0.02026  -0.58575
  -1.69397   0.03522  -0.45108
  -1.67901  -0.09945  -0.42115
  -1.66404  -0.05456  -0.33137
  -1.66404  -0.02463  -0.21166
  -1.52937  -0.03959  -0.13684
  -1.46952   0.00530  -0.10691
  -1.34981   0.02026   0.01280
  -1.26002   0.06515   0.02776
  -1.17024   0.08012   0.07265
  -1.08046   0.08012   0.11754
  -1.02060   0.16990   0.20733
  -0.96075   0.09508   0.26718
  -0.85600   0.09508   0.32704
  -0.84104   0.09508   0.34200
  -0.76622   0.21479   0.46171
  -0.66147   0.24472   0.52157
  -0.54176   0.36443   0.62631
  -0.39212   0.31954   0.73106
  -0.13774   0.39435   0.85077
  -0.12278   0.34946   0.91062
  -0.00307   0.37939   1.01537
   0.02686   0.43925   1.03033
   0.11664   0.39435   1.03033
   0.17650   0.40932   1.12012
   0.28124   0.49910   1.26975
   0.35606   0.31954   1.40443
   0.35606   0.24472   1.37450
   0.37103   0.09508   1.43435
   0.29621   0.06515   1.46428
   0.25132   0.16990   1.44932
   0.14657   0.22975   1.47925
   0.19146   0.25968   1.50917
   0.08672   0.33450   1.55406
   0.10168   0.31954   1.55406
   0.07175   0.27464   1.56903
   0.02686   0.31954   1.58399
   0.01190   0.27464   1.52414
  -0.03299   0.40932   1.47925
  -0.00307   0.39435   1.47925
  -0.03299   0.42428   1.41939
  -0.03299   0.45421   1.35954
  -0.06292   0.55896   1.28472
   0.01190   0.60385   1.25479
   0.02686   0.48414   1.25479
   0.07175   0.34946   1.28472
   0.07175   0.21479   1.29968
   0.13161   0.16990   1.17997
   0.10168   0.13997   1.07522
   0.11664   0.13997   1.07522
   0.17650   0.12501   1.03033
   0.17650   0.05019   0.86573
   0.23635   0.08012   0.79091
   0.20643  -0.03959   0.67120
   0.29621  -0.09945   0.58142
   0.34110  -0.15930   0.49164
   0.44585  -0.23412   0.44675
   0.47577  -0.36880   0.34200
   0.52066  -0.42865   0.26718
   0.56556  -0.47354   0.28215
   0.64038  -0.45858   0.20733
   0.73016  -0.47354   0.10258
   0.67030  -0.48851   0.10258
   0.76009  -0.48851   0.04273
   0.77505  -0.53340   0.04273
   0.79001  -0.57829  -0.04706
   0.81994  -0.53340  -0.13684
   0.89476  -0.59325  -0.15180
   0.95461  -0.56333  -0.22662
   0.93965  -0.54836  -0.24159
   0.99951  -0.47354  -0.28648
   1.08929  -0.45858  -0.25655
   1.13418  -0.41369  -0.31641
   1.23893  -0.38376  -0.30144
   1.26885  -0.27901  -0.34633
   1.32871  -0.18923  -0.24159
   1.31374  -0.15930  -0.21166
   1.29878  -0.03959  -0.12188
   1.44842  -0.09945  -0.19669
   1.49331  -0.08449  -0.09195
   1.55316  -0.08449  -0.01713
   1.53820  -0.00967   0.01280
   1.49331   0.02026   0.07265
   1.49331   0.16990   0.04273
   1.50827   0.18486  -0.03209
   1.55316   0.36443  -0.00217
   1.59806   0.30457  -0.00217
   1.67287   0.31954   0.05769
   1.65791   0.28961   0.02776
   1.58309   0.24472  -0.00217
   1.61302   0.16990   0.01280
   1.55316   0.19983  -0.03209
   1.55316   0.18486  -0.06202
   1.53820   0.09508  -0.07698
   1.47835   0.03522  -0.04706
   1.43345   0.03522  -0.00217
   1.35864   0.09508   0.01280
   1.29878   0.15493   0.04273
   1.22396   0.19983  -0.01713
   1.08929   0.19983  -0.00217
   0.99951   0.21479  -0.01713
   0.83490   0.13997  -0.03209
   0.80498   0.12501  -0.01713
   0.71519   0.05019  -0.06202
   0.61045   0.00530  -0.06202
   0.47577   0.05019  -0.06202
   0.35606   0.09508  -0.16677
   0.26628   0.15493  -0.15180
   0.20643   0.22975  -0.13684
   0.13161   0.25968  -0.06202
   0.10168   0.28961  -0.03209
   0.10168   0.25968   0.04273
   0.07175   0.21479  -0.01713
  -0.00307   0.11004  -0.07698
  -0.04796   0.05019  -0.15180
  -0.12278   0.06515  -0.06202
  -0.15270   0.02026  -0.01713
  -0.18263  -0.05456  -0.06202
  -0.28738  -0.05456  -0.06202
  -0.28738  -0.11441  -0.00217
  -0.36220  -0.09945  -0.00217
  -0.34723  -0.15930   0.04273
  -0.34723  -0.20420   0.05769
  -0.37716  -0.20420   0.04273
  -0.37716  -0.27901  -0.00217
  -0.31731  -0.26405  -0.01713
  -0.40709  -0.33887  -0.01713
  -0.37716  -0.38376   0.02776
  -0.42205  -0.42865   0.04273
  -0.43702  -0.47354  -0.06202
  -0.54176  -0.44362  -0.15180
  -0.61658  -0.33887  -0.10691
  -0.69140  -0.27901  -0.15180
  -0.73629  -0.29398  -0.15180
  -0.72133  -0.23412  -0.12188
  -0.76622  -0.20420  -0.13684
  -0.78118  -0.18923  -0.15180
  -0.78118  -0.20420  -0.19669
  -0.81111  -0.14434  -0.21166
  -0.82607  -0.21916  -0.21166
  -0.85600  -0.20420  -0.13684
  -0.94578  -0.17427  -0.13684
  -0.96075  -0.20420  -0.16677
  -1.05053  -0.23412  -0.27151
  -1.11038  -0.18923  -0.27151
  -1.18520  -0.21916  -0.30144
  -1.30491  -0.15930  -0.30144
  -1.33484  -0.18923  -0.27151
  -1.34981  -0.14434  -0.22662
  -1.36477  -0.06952  -0.18173
  -1.36477  -0.02463  -0.24159
  -1.34981  -0.12938  -0.22662
  -1.33484  -0.14434  -0.27151
  -1.27499  -0.08449  -0.27151
  -1.30491  -0.00967  -0.31641
  -1.34981   0.00530  -0.31641
  -1.36477   0.03522  -0.42115
  -1.31988  -0.05456  -0.49597
  -1.30491  -0.09945  -0.57079
  -1.36477  -0.14434  -0.67554
  -1.34981  -0.23412  -0.67554
  -1.30491  -0.23412  -0.60072
  -1.30491  -0.23412  -0.63064
  -1.26002  -0.21916  -0.70546
  -1.24506  -0.17427  -0.70546
  -1.18520  -0.14434  -0.72043
  -1.06549  -0.17427  -0.73539
  -1.05053  -0.11441  -0.82517
  -1.03557  -0.14434  -0.87006
  -1.00564  -0.09945  -0.92992
  -0.96075  -0.21916  -0.89999
  -0.93082  -0.15930  -0.91496
  -0.85600  -0.09945  -0.97481
  -0.78118   0.00530  -1.00474
  -0.67644   0.08012  -0.92992
  -0.61658   0.05019  -0.88503
  -0.57169  -0.00967  -0.89999
  -0.54176   0.08012  -0.89999
  -0.46694   0.12501  -0.87006
  -0.42205   0.27464  -0.79525
  -0.36220   0.34946  -0.82517
  -0.39212   0.36443  -0.82517
  -0.28738   0.30457  -0.85510
  -0.27241   0.30457  -0.85510
  -0.25745   0.40932  -0.82517
  -0.13774   0.27464  -0.82517
  -0.18263   0.22975  -0.69050
  -0.22752   0.24472  -0.70546
  -0.22752   0.31954  -0.70546
  -0.19760   0.37939  -0.84014
  -0.19760   0.42428  -0.73539
  -0.12278   0.42428  -0.70546
  -0.06292   0.30457  -0.66057
  -0.07789   0.15493  -0.58575
  -0.07789   0.12501  -0.46604
  -0.06292   0.11004  -0.45108
  -0.06292   0.25968  -0.43612
  -0.07789   0.25968  -0.51093
  -0.01803   0.25968  -0.46604
  -0.03299   0.25968  -0.37626
   0.10168   0.15493  -0.27151
   0.11664   0.15493  -0.33137
   0.16153   0.18486  -0.27151
   0.25132   0.18486  -0.31641
   0.28124   0.19983  -0.22662
   0.29621   0.18486  -0.22662
   0.35606   0.18486  -0.24159
   0.43088   0.12501  -0.25655
   0.49074   0.19983  -0.16677
   0.55059   0.19983  -0.12188
   0.56556   0.22975  -0.06202
   0.53563   0.21479  -0.03209
   0.61045   0.15493  -0.07698
   0.68527   0.18486  -0.06202
   0.73016   0.13997   0.05769
   0.74512   0.18486   0.19236
   0.68527   0.11004   0.20733
   0.67030  -0.05456   0.23725
   0.64038  -0.08449   0.35696
   0.56556   0.05019   0.46171
   0.53563   0.00530   0.53653
   0.53563   0.03522   0.52157
   0.55059   0.06515   0.56646
   0.52066   0.13997   0.53653
   0.47577   0.15493   0.56646
   0.46081   0.12501   0.61135
   0.53563   0.09508   0.64128
   0.52066   0.18486   0.67120
   0.55059   0.12501   0.76099
   0.62541   0.15493   0.85077
   0.65534   0.06515   0.79091
   0.73016   0.12501   0.88070
   0.80498   0.16990   0.91062
   0.86483   0.11004   0.91062
   0.81994   0.11004   0.92559
   0.87980   0.05019   0.85077
   0.90972  -0.02463   0.85077
   0.92469   0.00530   0.83580
   0.95461   0.02026   0.86573
   0.95461   0.18486   0.92559
   1.02943   0.24472   0.92559
   1.11922   0.28961   0.95551
   1.20900   0.30457   1.06026
   1.26885   0.28961   1.06026
   1.41849   0.37939   1.09019
   1.46338   0.42428   1.01537
   1.59806   0.30457   0.86573
   1.62798   0.16990   0.83580
   1.64295   0.08012   0.91062
   1.64295   0.08012   0.91062
   1.67287   0.02026   0.91062
   1.65791   0.00530   0.92559
   1.76266  -0.08449   0.89566
   1.73273   0.09508   0.91062
   1.74769   0.03522   0.89566
   1.82251   0.03522   0.82084
   1.83748   0.13997   0.82084
   1.86740   0.09508   0.88070
   1.92726  -0.08449   0.89566
   1.86740  -0.24909   0.91062
   1.83748  -0.27901   0.85077
   1.73273  -0.21916   0.76099
   1.68784  -0.15930   0.80588
   1.64295  -0.30894   0.76099
   1.58309  -0.35383   0.70113
   1.52324  -0.35383   0.76099
   1.47835  -0.33887   0.77595
   1.34367  -0.26405   0.76099
   1.23893  -0.33887   0.76099
   1.07432  -0.30894   0.76099
   0.99951  -0.32391   0.73106
   0.86483  -0.36880   0.67120
   0.84987  -0.42865   0.70113
   0.64038  -0.41369   0.77595
   0.49074  -0.32391   0.79091
   0.35606  -0.39872   0.67120
   0.19146  -0.45858   0.62631
   0.01190  -0.50347   0.56646
  -0.06292  -0.42865   0.52157
  -0.18263  -0.36880   0.43178
  -0.33227  -0.33887   0.31207
  -0.42205  -0.48851   0.34200
  -0.57169  -0.53340   0.35696
  -0.78118  -0.56333   0.31207
  -0.96075  -0.54836   0.22229
  -1.11038  -0.39872   0.14747
  -1.23010  -0.45858  -0.00217
  -1.43959  -0.44362  -0.19669
  -1.54433  -0.47354  -0.31641
  -1.70894  -0.32391  -0.28648
  -1.75383  -0.30894  -0.28648
  -1.82865  -0.21916  -0.36130
  -1.91843  -0.18923  -0.34633
  -2.02317  -0.20420  -0.42115
  -2.09799  -0.30894  -0.46604
  -2.33741  -0.27901  -0.57079
  -2.36734  -0.18923  -0.55583
  -2.47209  -0.03959  -0.45108
  -2.53194   0.03522  -0.49597
  -2.54691  -0.03959  -0.63064
  -2.63669   0.05019  -0.64561
  -2.65165   0.09508  -0.66057
  -2.62172   0.06515  -0.63064
  -2.60676   0.02026  -0.61568
  -2.62172   0.12501  -0.67554
  -2.59180   0.08012  -0.70546
  -2.57683   0.19983  -0.64561
  -2.65165   0.08012  -0.72043
  -2.60676   0.06515  -0.72043
  -2.62172   0.15493  -0.70546
  -2.54691   0.24472  -0.72043
  -2.48705   0.30457  -0.72043
  -2.41223   0.19983  -0.72043
  -2.23267   0.16990  -0.66057
  -2.15785   0.31954  -0.51093
  -2.08303   0.39435  -0.55583
  -1.93339   0.27464  -0.58575
  -1.82865   0.19983  -0.58575
  -1.72390   0.22975  -0.43612
  -1.58923   0.19983  -0.37626
  -1.42462   0.13997  -0.40619
  -1.31988   0.19983  -0.30144
  -1.23010   0.16990  -0.33137
  -1.15528   0.19983  -0.37626
  -1.00564   0.09508  -0.45108
  -0.88593   0.00530  -0.43612
  -0.81111   0.05019  -0.31641
  -0.66147   0.00530  -0.31641
  -0.55673  -0.09945  -0.40619
  -0.37716  -0.20420  -0.30144
  -0.28738  -0.23412  -0.25655
  -0.27241  -0.26405  -0.24159
  -0.18263  -0.27901  -0.21166
  -0.04796  -0.21916  -0.21166
   0.01190  -0.17427  -0.16677
   0.11664  -0.09945  -0.22662
   0.28124  -0.12938  -0.07698
   0.40095  -0.14434  -0.10691
   0.44585  -0.11441  -0.06202
   0.53563  -0.06952  -0.10691
   0.62541  -0.12938  -0.16677
   0.74512  -0.15930  -0.22662
   0.84987  -0.12938  -0.28648
   0.87980  -0.17427  -0.24159
   0.90972  -0.05456  -0.24159
   1.02943  -0.06952  -0.21166
   1.08929   0.02026  -0.21166
   1.14914   0.08012  -0.27151
   1.19403   0.06515  -0.33137
   1.29878   0.09508  -0.30144
   1.34367   0.03522  -0.36130
   1.34367   0.05019  -0.37626
   1.32871   0.19983  -0.37626
   1.40353   0.21479  -0.46604
   1.40353   0.19983  -0.57079
   1.44842   0.21479  -0.61568
   1.38856   0.15493  -0.73539
   1.37360   0.24472  -0.66057
   1.32871   0.36443  -0.70546
   1.40353   0.42428  -0.66057
   1.50827   0.43925  -0.63064
   1.46338   0.46917  -0.67554
   1.50827   0.22975  -0.66057
   1.47835   0.18486  -0.73539
   1.38856   0.24472  -0.70546
   1.32871   0.11004  -0.78028
   1.32871   0.21479  -0.72043
   1.31374   0.27464  -0.69050
   1.35864   0.25968  -0.61568
   1.34367   0.19983  -0.63064
   1.32871   0.24472  -0.69050
   1.37360   0.21479  -0.72043
   1.40353   0.24472  -0.67554
   1.38856   0.27464  -0.58575
   1.40353   0.21479  -0.48101
   1.35864   0.27464  -0.40619
   1.37360   0.28961  -0.40619
   1.34367   0.31954  -0.45108
   1.35864   0.27464  -0.48101
   1.32871   0.16990  -0.48101
   1.29878   0.16990  -0.39122
   1.26885   0.06515  -0.28648
   1.28382  -0.08449  -0.19669
   1.26885  -0.11441  -0.15180
   1.23893  -0.06952  -0.13684
   1.11922  -0.05456  -0.19669
   1.02943  -0.05456  -0.25655
   0.92469  -0.03959  -0.19669
   0.83490   0.02026  -0.10691
   0.83490   0.09508  -0.06202
   0.86483   0.08012  -0.00217
   0.86483   0.09508   0.10258
   0.83490  -0.03959   0.02776
   0.89476  -0.20420   0.10258
   0.77505  -0.20420   0.11754
   0.67030  -0.08449   0.13251
   0.59548  -0.09945   0.16244
   0.53563   0.00530   0.16244
   0.44585  -0.08449   0.17740
   0.38599   0.00530   0.23725
   0.40095   0.06515   0.32704
   0.35606   0.11004   0.29711
   0.35606   0.21479   0.28215
   0.25132   0.22975   0.38689
   0.26628   0.12501   0.44675
   0.29621   0.09508   0.43178
   0.22139   0.15493   0.37193
   0.25132   0.13997   0.41682
   0.14657   0.13997   0.44675
   0.02686   0.16990   0.37193
  -0.03299   0.18486   0.35696
  -0.03299   0.15493   0.38689
  -0.06292   0.03522   0.49164
  -0.04796   0.02026   0.59638
  -0.04796   0.00530   0.62631
  -0.15270  -0.02463   0.61135
  -0.30234  -0.02463   0.62631
  -0.33227  -0.09945   0.64128
  -0.43702  -0.15930   0.65624
  -0.49687  -0.12938   0.68617
  -0.55673  -0.17427   0.62631
  -0.63154  -0.09945   0.68617
  -0.69140  -0.08449   0.68617
  -0.75125  -0.09945   0.56646
  -0.84104  -0.14434   0.52157
  -0.91586  -0.18923   0.55149
  -0.97571  -0.08449   0.61135
  -1.02060  -0.11441   0.58142
  -1.08046  -0.11441   0.52157
  -1.15528  -0.14434   0.46171
  -1.21513  -0.02463   0.37193
  -1.21513   0.05019   0.37193
  -1.31988   0.11004   0.41682
  -1.31988   0.06515   0.38689
  -1.28995  -0.05456   0.43178
  -1.23010  -0.05456   0.49164
  -1.20017  -0.17427   0.52157
  -1.26002  -0.32391   0.56646
  -1.33484  -0.32391   0.56646
  -1.43959  -0.32391   0.62631
  -1.48448  -0.32391   0.64128
  -1.55930  -0.30894   0.59638
  -1.49944  -0.27901   0.68617
  -1.48448  -0.14434   0.73106
  -1.55930  -0.00967   0.79091
  -1.58923  -0.02463   0.89566
  -1.60419  -0.02463   0.89566
  -1.52937   0.00530   1.01537
  -1.40966   0.02026   1.10515
  -1.37973   0.02026   1.22486
  -1.37973  -0.06952   1.25479
