********************************************************************************
               CENTRO DE INSTRUMENTACION Y REGISTRO SISMICO  A.C.  
                       Coordinacion de Servicios Tecnicos
     Anaxagoras 814, Col. Narvarte, Benito Juarez, C.P. 03020 Mexico, D.F.
            Tels. 687 45 42/ 687 45  82             Fax. 669 25 12
********************************************************************************
ARCHIVO ESTANDAR DE ACELERACION:
VERSION DEL FORMATO                    : 2.0
NOMBRE DEL ARCHIVO                     : AL019510.211
FECHA Y HORA DE CREACION               : 18 de marzo de 1996/11:09
REF. CATALOGO ACELEROGRAMAS, SMIS 1995 : REGISTRO No.     /PAG.


================================================================================
DATOS DE LA ESTACION:
NOMBRE DE LA ESTACION                  : ALAMEDA
CLAVE DE LA ESTACION                   : AL01
LOCALIZACION DE LA ESTACION            : JARDIN ALAMEDA ENTRE AV. HIDALGO Y AV.
                                       : JUAREZ, CENTRO
                                       :
                                       :
                                       :
COORDENADAS DE LA ESTACION             : 19.436 LAT. N 
                                       : 99.145 LONG. W 
ALTITUD (msnm)                         : 2232
TIPO DE SUELO                          : TERRENO BLANDO, MATERIAL COMPRESIBLE
                                       : (ARCILLAS)
                                       : 
INSTITUCION RESPONSABLE                : CIRES 
                                       :

================================================================================
DATOS DEL ACELEROGRAFO:
MODELO DEL ACELEROGRAFO                : SSA-1
NUMERO DE SERIE DEL ACELEROGRAFO       : 152
NUMERO DE CANALES                      : 3
ORIENTACION C1-C6 (rumbo;orientacion)  : /N00E/+V/N90E
ORIENTACION C7-C12 (rumbo;orientacion) :
VEL. DE MUESTREO, C1-C6 (muestras/s)   : /200/200/200
VEL. DE MUESTREO, C7-C12 (muestras/s)  :
ESC. COMPLETA DE SENSORES, C1-C6, (g)  : /2/2/2
ESC. COMPLETA DE SENSORES, C7-C12, (g) :
FREC. NAT. DE SENSORES, C1-C6, (Hz)    : /50/50/50
FREC. NAT. DE SENSORES, C7-C12, (Hz)   :
AMORTIGUAMIENTO DE SENSORES, C1-C6     : /0.700/0.700/0.700
AMORTIGUAMIENTO DE SENSORES, C7-C12    :
INTERVALO DE MUESTREO, C1-C6, (s)      : /0.005/0.005/0.005
INTERVALO DE MUESTREO, C7-C12, (s)     :
UMBRAL DE DISPARO, C1-C6, (Gal)        : /2/1.5/2
UMBRAL DE DISPARO, C7-C12, (Gal)       :
MEMORIA DE PREEVENTO (s)               : 15
TIEMPO DE POSEVENTO (s)                : 60


================================================================================
DATOS DEL SISMO:
FECHA DEL SISMO (GMT)                  : 21/OCT/95
HORA EPICENTRO (GMT)                   : 02:38:59,0
MAGNITUD(ES)                           : /Mc=6.2/ME=6.5
COORDENADAS DEL EPICENTRO              : 16.92 LAT. N
                                       : 93.62 LONG. W
PROFUNDIDAD FOCAL (km)                 : 98
FUENTE DE LOS DATOS EPICENTRALES       : SSN
                                       : INSTITUTO DE GEOFISICA, UNAM

================================================================================
DATOS DE ESTE REGISTRO:
HORA DE LA PRIMERA MUESTRA (GMT)       : 02:42:18.00
EXACTITUD DEL TIEMPO (s)               :     
DURACION DEL REGISTRO (s), C1-C6       : /108.80/108.80/108.80
DURACION DEL REGISTRO (s), C7-C12      :
NUM. TOTAL DE MUESTRAS, C1-C6          : /21760/21760/21760
NUM. TOTAL DE MUESTRAS, C7-C12         :
ACEL. MAX. (Gal), C1-C6                : /2.82892/1.07420/2.22332
ACEL. MAX., C1-C6, EN LA MUESTRA       :
ACEL. MAX. (Gal), C7-C12               :
ACEL. MAX., C7-C12, EN LA MUESTRA      :
UNIDADES DE LOS DATOS                  : Gal (cm/s/s)
FACTOR DE DECIMACION                   : 1
FORMATO DATOS (FORTRAN,10 campos/dato) : 3F10.5


================================================================================
CALIDAD DEL ACELEROGRAMA:
REGISTRO DIGITAL COMPLETO, CARECE DE TIEMPO ABSOLUTO.


================================================================================
COMENTARIOS: 
             EL EQUIPO SE ENCONTRABA CON GANANCIAS DE 4 EN TODOS LOS EJES,
             POR LO QUE LAS ESCALAS COMPLETAS ERAN DE 1/2 G.



             








================================================================================
DATOS DE ACELERACION:
---------+---------+---------+---------+---------+---------+---------+---------+
   CANAL-1   CANAL-2   CANAL-3   CANAL-4   CANAL-5   CANAL-6   CANAL-7   CANAL-8
      N00E        +V      N90E
---------+---------+---------+---------+---------+---------+---------+---------+
[...]
   0.28108   0.11420  -0.78332
   0.28108   0.11420  -0.78332
   0.28108   0.11420  -0.78332
   0.28108   0.11420  -0.54332
   0.28108   0.11420  -0.54332
   0.04108   0.35420  -0.54332
   0.28108   0.35420  -0.54332
   0.04108   0.35420  -0.54332
   0.28108   0.35420  -0.54332
   0.04108   0.35420  -0.78332
   0.28108   0.35420  -0.54332
   0.04108   0.35420  -0.54332
   0.04108   0.35420  -0.78332
   0.04108   0.35420  -0.54332
   0.04108   0.35420  -0.78332
   0.28108   0.35420  -0.78332
   0.28108   0.11420  -0.54332
   0.28108   0.11420  -0.54332
   0.28108   0.11420  -0.54332
   0.28108   0.11420  -0.54332
   0.28108   0.11420  -0.54332
   0.28108   0.11420  -0.54332
   0.28108   0.11420  -0.54332
   0.28108   0.11420  -0.54332
   0.28108   0.11420  -0.54332
   0.04108   0.11420  -0.54332
   0.04108   0.11420  -0.54332
   0.04108   0.11420  -0.54332
   0.04108   0.11420  -0.31332
   0.04108  -0.12580  -0.54332
   0.04108   0.11420  -0.31332
   0.04108   0.11420  -0.31332
   0.04108   0.11420  -0.31332
   0.04108   0.11420  -0.31332
   0.04108   0.11420  -0.31332
   0.04108   0.11420  -0.31332
   0.04108   0.11420  -0.31332
  -0.43892  -0.12580  -0.31332
   0.04108   0.11420  -0.31332
  -0.19892  -0.12580  -0.31332
   0.04108   0.11420  -0.31332
  -0.19892   0.11420  -0.54332
  -0.19892   0.11420  -0.31332
  -0.19892   0.11420  -0.31332
  -0.19892   0.11420  -0.31332
  -0.19892   0.11420  -0.31332
  -0.19892   0.11420  -0.31332
  -0.19892   0.11420  -0.31332
  -0.19892   0.11420  -0.31332
  -0.19892   0.11420  -0.31332
  -0.19892   0.11420  -0.31332
  -0.19892   0.11420  -0.31332
  -0.19892   0.11420  -0.31332
  -0.43892   0.11420  -0.31332
  -0.43892   0.11420  -0.31332
  -0.43892   0.11420  -0.31332
  -0.43892   0.11420  -0.31332
  -0.43892   0.11420  -0.31332
  -0.43892   0.11420  -0.31332
  -0.43892   0.11420  -0.31332
  -0.43892   0.11420  -0.31332
  -0.67892   0.11420  -0.54332
  -0.67892   0.11420  -0.54332
  -0.67892   0.11420  -0.54332
  -0.67892   0.11420  -0.54332
  -0.67892   0.35420  -0.31332
  -0.67892   0.11420  -0.54332
  -0.67892   0.35420  -0.54332
  -0.67892   0.35420  -0.54332
  -0.67892   0.35420  -0.54332
  -0.67892   0.11420  -0.54332
  -0.67892   0.11420  -0.54332
  -0.67892   0.11420  -0.54332
  -0.91892   0.11420  -0.54332
  -0.67892   0.11420  -0.54332
  -0.67892   0.11420  -0.54332
  -0.91892   0.11420  -0.54332
  -0.91892   0.11420  -0.54332
  -0.91892   0.11420  -0.54332
  -0.67892   0.11420  -0.54332
  -0.91892   0.11420  -0.31332
  -0.91892   0.11420  -0.31332
  -0.91892   0.11420  -0.31332
  -0.91892   0.11420  -0.54332
  -0.91892   0.11420  -0.54332
  -0.91892   0.11420  -0.31332
  -0.91892   0.11420  -0.31332
  -0.91892   0.11420  -0.31332
  -0.91892   0.11420  -0.31332
  -0.91892   0.11420  -0.31332
  -0.91892   0.11420  -0.31332
  -0.91892   0.11420  -0.31332
  -0.91892   0.11420  -0.31332
  -0.91892   0.11420  -0.31332
  -0.91892   0.11420  -0.54332
  -0.91892   0.11420  -0.31332
  -0.91892   0.11420  -0.31332
  -0.91892   0.11420  -0.31332
  -0.91892   0.11420  -0.31332
  -0.91892   0.11420  -0.31332
  -0.91892   0.11420  -0.07332
  -0.91892   0.11420  -0.31332
  -0.91892   0.11420  -0.07332
  -0.91892   0.11420  -0.07332
  -0.91892   0.11420  -0.07332
  -0.91892   0.11420  -0.07332
  -0.91892   0.11420  -0.07332
  -0.91892   0.11420  -0.07332
  -0.91892   0.11420  -0.07332
  -0.91892   0.11420  -0.07332
  -0.91892   0.11420  -0.07332
  -0.91892   0.11420  -0.07332
  -0.91892   0.11420  -0.07332
  -0.91892   0.11420  -0.07332
  -0.91892   0.11420  -0.07332
  -0.91892   0.11420  -0.07332
  -0.91892   0.11420  -0.07332
  -0.91892   0.11420  -0.07332
  -0.91892   0.11420  -0.07332
  -0.91892   0.11420  -0.07332
  -0.91892   0.11420  -0.07332
  -0.91892   0.11420  -0.07332
  -0.91892   0.11420  -0.07332
  -0.91892   0.11420  -0.07332
  -0.91892   0.11420  -0.07332
  -0.67892   0.11420   0.16668
  -0.67892   0.11420   0.16668
  -0.67892   0.11420   0.16668
  -0.67892   0.11420   0.16668
  -0.43892   0.11420   0.16668
  -0.43892   0.11420   0.16668
  -0.43892  -0.12580   0.16668
  -0.43892  -0.12580   0.16668
  -0.43892  -0.12580   0.16668
  -0.43892  -0.12580   0.16668
  -0.43892  -0.12580   0.16668
  -0.43892  -0.12580   0.16668
  -0.43892  -0.12580   0.16668
  -0.43892  -0.12580   0.16668
  -0.43892  -0.12580   0.16668
  -0.43892  -0.12580   0.16668
  -0.19892  -0.12580   0.16668
  -0.19892  -0.12580   0.16668
  -0.19892  -0.12580   0.16668
  -0.19892  -0.12580   0.16668
  -0.19892  -0.12580   0.40668
  -0.19892  -0.12580   0.40668
  -0.19892  -0.12580   0.40668
   0.04108  -0.12580   0.40668
   0.04108  -0.12580   0.40668
   0.04108  -0.36580   0.40668
   0.04108  -0.36580   0.40668
   0.04108  -0.36580   0.40668
   0.04108  -0.36580   0.40668
   0.28108  -0.36580   0.40668
   0.28108  -0.36580   0.40668
   0.28108  -0.36580   0.40668
   0.28108  -0.36580   0.40668
   0.28108  -0.36580   0.64668
   0.52108  -0.36580   0.64668
   0.52108  -0.36580   0.64668
   0.52108  -0.36580   0.64668
   0.52108  -0.36580   0.64668
   0.52108  -0.36580   0.64668
   0.52108  -0.36580   0.64668
   0.52108  -0.36580   0.64668
   0.52108  -0.36580   0.64668
   0.76108  -0.36580   0.64668
   0.76108  -0.36580   0.64668
   0.76108  -0.36580   0.64668
   0.52108  -0.36580   0.64668
   0.76108  -0.36580   0.64668
   0.76108  -0.36580   0.64668
   0.76108  -0.36580   0.64668
   0.76108  -0.60580   0.64668
   0.76108  -0.60580   0.88668
   0.76108  -0.60580   0.88668
   0.76108  -0.60580   0.88668
   0.76108  -0.60580   0.88668
   0.76108  -0.60580   0.88668
   1.00108  -0.60580   0.88668
   1.00108  -0.36580   0.88668
   1.00108  -0.36580   0.88668
   1.00108  -0.36580   1.12668
   1.00108  -0.36580   0.88668
   1.00108  -0.36580   0.88668
   1.00108  -0.36580   0.88668
   1.00108  -0.36580   0.88668
   1.00108  -0.36580   0.88668
   1.00108  -0.36580   0.88668
   1.00108  -0.36580   0.88668
   1.00108  -0.36580   0.88668
   1.00108  -0.36580   0.88668
   1.00108  -0.36580   0.88668
   1.24108  -0.36580   0.88668
   1.24108  -0.12580   0.88668
   1.24108  -0.12580   0.88668
   1.24108  -0.12580   0.88668
   1.24108   0.11420   1.12668
   1.24108  -0.12580   1.12668
   1.24108   0.11420   1.12668
   1.24108   0.11420   0.88668
   1.24108   0.11420   0.88668
   1.24108   0.11420   0.88668
   1.24108   0.11420   0.88668
   1.24108   0.11420   0.88668
   1.24108   0.11420   0.88668
   1.24108   0.11420   0.88668
   1.48108   0.11420   0.88668
   1.48108   0.11420   0.88668
   1.48108   0.11420   0.88668
   1.48108   0.11420   1.12668
   1.48108   0.11420   0.88668
   1.48108   0.11420   1.12668
   1.48108   0.11420   0.88668
   1.72108   0.11420   1.12668
   1.48108   0.35420   1.12668
   1.72108   0.11420   1.12668
   1.48108   0.35420   0.88668
   1.72108   0.35420   0.88668
   1.72108   0.35420   0.88668
   1.72108   0.35420   0.88668
   1.72108   0.35420   0.88668
   1.72108   0.59420   0.88668
   1.72108   0.35420   0.88668
   1.72108   0.35420   0.88668
   1.72108   0.59420   0.88668
   1.72108   0.59420   0.88668
   1.72108   0.59420   1.12668
   1.72108   0.59420   0.88668
   1.96108   0.59420   0.88668
   1.96108   0.59420   0.88668
   1.96108   0.35420   0.88668
   1.96108   0.35420   0.88668
   1.96108   0.35420   0.88668
   1.96108   0.35420   0.88668
   1.96108   0.35420   0.88668
   1.96108   0.35420   0.88668
   1.96108   0.11420   0.88668
   1.96108   0.11420   0.64668
   1.96108   0.11420   0.88668
   1.96108   0.11420   0.64668
   1.96108   0.35420   0.64668
   2.20108   0.11420   0.64668
   1.96108   0.11420   0.64668
   1.96108   0.11420   0.64668
   1.96108   0.11420   0.64668
   2.20108   0.11420   0.64668
   2.20108   0.11420   0.64668
   2.20108   0.11420   0.64668
   2.20108   0.11420   0.64668
   2.20108   0.11420   0.64668
   2.20108   0.11420   0.64668
   2.20108   0.11420   0.64668
   2.20108   0.11420   0.64668
   2.20108   0.11420   0.64668
   2.20108  -0.12580   0.64668
   2.20108  -0.12580   0.64668
   2.20108  -0.12580   0.64668
   2.20108  -0.12580   0.64668
   2.20108  -0.12580   0.64668
   1.96108  -0.12580   0.64668
   1.96108  -0.12580   0.64668
   1.96108  -0.12580   0.64668
   1.96108  -0.12580   0.64668
   1.96108  -0.12580   0.64668
   1.72108  -0.12580   0.64668
   1.72108  -0.12580   0.64668
   1.72108  -0.12580   0.64668
   1.72108  -0.12580   0.64668
   1.72108  -0.12580   0.64668
   1.72108  -0.12580   0.64668
   1.48108  -0.12580   0.64668
   1.48108  -0.12580   0.64668
   1.48108  -0.12580   0.64668
   1.48108  -0.12580   0.64668
   1.48108  -0.12580   0.64668
   1.24108   0.11420   0.40668
   1.24108   0.11420   0.40668
   1.24108   0.11420   0.40668
   1.00108   0.11420   0.40668
   1.00108   0.11420   0.40668
   1.00108   0.11420   0.40668
   0.76108   0.11420   0.40668
   0.76108   0.11420   0.16668
   0.76108   0.11420   0.16668
   0.76108   0.11420   0.16668
   0.76108   0.11420   0.16668
   0.76108   0.11420   0.16668
   0.52108   0.11420   0.16668
   0.52108   0.11420   0.16668
   0.52108   0.35420   0.16668
   0.52108   0.11420   0.16668
   0.52108   0.35420   0.16668
   0.28108   0.35420  -0.07332
   0.28108   0.35420  -0.07332
   0.28108   0.35420  -0.07332
   0.04108   0.35420  -0.07332
   0.04108   0.35420  -0.31332
  -0.19892   0.11420  -0.31332
  -0.19892   0.11420  -0.31332
  -0.19892   0.11420  -0.31332
  -0.43892   0.11420  -0.54332
  -0.67892   0.11420  -0.54332
  -0.43892   0.35420  -0.54332
  -0.43892   0.35420  -0.78332
  -0.43892   0.35420  -0.54332
  -0.67892   0.35420  -0.54332
  -0.67892   0.35420  -0.54332
  -0.67892   0.35420  -0.78332
  -0.67892   0.35420  -0.78332
  -0.91892   0.35420  -1.02332
  -0.91892   0.35420  -1.02332
  -0.91892   0.35420  -1.02332
  -1.15892   0.35420  -1.02332
  -1.15892   0.35420  -1.02332
  -1.15892   0.35420  -1.02332
  -1.15892   0.35420  -1.26332
  -1.15892   0.35420  -1.26332
  -1.39892   0.35420  -1.26332
  -1.15892   0.35420  -1.26332
  -1.39892   0.11420  -1.26332
  -1.39892   0.11420  -1.26332
  -1.39892   0.11420  -1.26332
  -1.39892   0.11420  -1.50332
  -1.39892   0.11420  -1.26332
  -1.63892  -0.12580  -1.50332
  -1.63892  -0.36580  -1.50332
  -1.63892  -0.36580  -1.50332
  -1.63892  -0.36580  -1.50332
  -1.63892  -0.36580  -1.50332
  -1.86892  -0.36580  -1.50332
  -1.86892  -0.36580  -1.50332
  -1.86892  -0.36580  -1.50332
  -1.86892  -0.36580  -1.50332
  -1.86892  -0.36580  -1.50332
  -1.86892  -0.36580  -1.50332
  -2.10892  -0.36580  -1.50332
  -2.10892  -0.36580  -1.26332
  -2.10892  -0.36580  -1.26332
  -2.10892  -0.36580  -1.50332
  -2.10892  -0.36580  -1.50332
  -2.34892  -0.60580  -1.26332
  -2.34892  -0.36580  -1.26332
  -2.34892  -0.60580  -1.26332
  -2.34892  -0.36580  -1.26332
  -2.82892  -0.60580  -1.02332
  -2.58892  -0.60580  -1.02332
  -2.58892  -0.60580  -1.02332
  -2.58892  -0.60580  -1.02332
  -2.58892  -0.36580  -1.02332
  -2.58892  -0.36580  -1.02332
  -2.82892  -0.36580  -1.02332
  -2.82892  -0.36580  -1.02332
  -2.82892  -0.36580  -1.02332
  -2.82892  -0.36580  -0.78332
  -2.82892  -0.36580  -0.78332
  -2.82892  -0.36580  -0.78332
  -2.82892  -0.36580  -0.78332
  -2.82892  -0.36580  -0.54332
  -2.82892  -0.36580  -0.54332
  -2.82892  -0.36580  -0.54332
  -2.82892  -0.12580  -0.54332
  -2.82892  -0.12580  -0.54332
  -2.82892  -0.12580  -0.54332
  -2.82892  -0.12580  -0.54332
  -2.82892  -0.12580  -0.54332
  -2.82892  -0.12580  -0.54332
  -2.82892  -0.12580  -0.54332
  -2.82892  -0.36580  -0.54332
  -2.58892  -0.36580  -0.54332
  -2.82892  -0.36580  -0.54332
  -2.58892  -0.36580  -0.54332
  -2.58892  -0.36580  -0.54332
  -2.58892  -0.36580  -0.31332
  -2.58892  -0.12580  -0.31332
  -2.34892  -0.36580  -0.31332
  -2.34892  -0.36580  -0.31332
  -2.34892  -0.36580  -0.31332
  -2.34892  -0.12580  -0.31332
  -2.34892  -0.36580  -0.54332
  -2.34892  -0.36580  -0.54332
  -2.34892  -0.36580  -0.54332
  -2.34892  -0.36580  -0.54332
  -2.10892  -0.36580  -0.54332
  -2.10892  -0.36580  -0.54332
  -2.10892  -0.36580  -0.31332
  -2.10892  -0.36580  -0.31332
  -2.10892  -0.36580  -0.31332
  -2.10892  -0.36580  -0.31332
  -1.86892  -0.12580  -0.31332
  -1.86892  -0.12580  -0.31332
  -1.86892  -0.12580  -0.31332
  -1.86892  -0.12580  -0.31332
  -1.86892  -0.12580  -0.31332
  -1.63892  -0.12580  -0.54332
  -1.63892  -0.12580  -0.31332
  -1.63892  -0.12580  -0.31332
  -1.63892  -0.12580  -0.31332
  -1.63892  -0.12580  -0.31332
  -1.39892   0.11420  -0.31332
  -1.39892   0.11420  -0.31332
  -1.39892  -0.12580  -0.54332
  -1.39892  -0.12580  -0.31332
  -1.39892   0.11420  -0.31332
  -1.15892  -0.12580  -0.31332
  -1.15892   0.11420  -0.31332
  -1.15892   0.11420  -0.07332
  -1.15892   0.11420  -0.07332
  -1.15892   0.11420  -0.07332
  -1.15892   0.11420  -0.07332
  -1.15892   0.11420  -0.07332
  -1.15892   0.11420  -0.07332
  -1.15892   0.11420  -0.07332
  -1.15892   0.11420  -0.07332
  -1.15892   0.11420  -0.07332
  -0.91892   0.11420  -0.07332
  -0.91892   0.11420  -0.07332
  -0.91892   0.35420  -0.07332
  -0.91892   0.35420  -0.07332
  -0.91892   0.35420   0.16668
  -0.91892   0.59420   0.16668
  -0.91892   0.59420   0.16668
  -0.91892   0.59420   0.16668
  -0.91892   0.59420   0.40668
  -0.91892   0.59420   0.40668
  -0.67892   0.59420   0.40668
  -0.91892   0.83420   0.40668
  -0.91892   0.83420   0.40668
  -0.91892   0.83420   0.40668
  -0.91892   0.83420   0.40668
  -0.91892   0.83420   0.40668
  -0.91892   0.83420   0.40668
  -0.91892   0.83420   0.40668
  -0.91892   0.83420   0.40668
  -0.91892   0.83420   0.40668
  -0.91892   0.83420   0.40668
  -0.67892   0.83420   0.40668
  -0.67892   0.83420   0.40668
  -0.67892   1.07420   0.40668
  -0.43892   1.07420   0.40668
  -0.67892   1.07420   0.40668
  -0.43892   0.59420   0.40668
  -0.43892   1.07420   0.40668
  -0.43892   1.07420   0.40668
  -0.43892   1.07420   0.40668
  -0.43892   1.07420   0.40668
  -0.43892   1.07420   0.40668
  -0.43892   1.07420   0.40668
  -0.43892   0.83420   0.40668
  -0.43892   0.83420   0.40668
  -0.43892   0.83420   0.40668
  -0.43892   0.83420   0.16668
  -0.43892   0.59420   0.16668
  -0.43892   0.59420   0.16668
  -0.19892   0.59420   0.16668
  -0.19892   0.59420  -0.07332
  -0.19892   0.59420  -0.07332
  -0.19892   0.35420  -0.07332
  -0.19892   0.35420  -0.07332
  -0.19892   0.35420  -0.07332
   0.04108   0.35420  -0.07332
   0.04108   0.35420  -0.07332
   0.04108   0.35420  -0.07332
   0.04108   0.11420  -0.07332
   0.04108   0.11420  -0.07332
   0.04108   0.11420  -0.07332
   0.04108   0.11420  -0.07332
   0.04108  -0.12580  -0.07332
   0.28108  -0.12580  -0.07332
   0.28108  -0.12580  -0.31332
   0.28108  -0.36580  -0.31332
   0.28108  -0.36580  -0.31332
   0.28108  -0.36580  -0.31332
   0.28108  -0.36580  -0.31332
   0.28108  -0.36580  -0.31332
   0.28108  -0.60580  -0.07332
   0.28108  -0.36580  -0.07332
   0.28108  -0.60580  -0.07332
   0.52108  -0.36580  -0.07332
   0.52108  -0.36580  -0.31332
   0.28108  -0.36580  -0.31332
   0.52108  -0.36580  -0.07332
   0.52108  -0.36580  -0.07332
   0.52108  -0.36580  -0.07332
   0.52108  -0.36580  -0.07332
   0.52108  -0.36580  -0.07332
   0.76108  -0.60580  -0.07332
   0.76108  -0.60580  -0.07332
   0.76108  -0.60580  -0.07332
   0.76108  -0.60580  -0.07332
   0.76108  -0.60580  -0.07332
   0.76108  -0.60580  -0.07332
   0.76108  -0.84580  -0.07332
   0.76108  -0.60580   0.16668
