********************************************************************************
              CENTRO DE INSTRUMENTACION Y REGISTRO SISMICO  A.C.

    Anaxagoras 814, Col. Narvarte, Benito Juarez, C.P. 03020 Mexico, D.F.
           Tels. 5687 45 42/ 5687 45  82             Fax. 5669 25 12
********************************************************************************
ARCHIVO ESTANDAR DE ACELERACION:
VERSION DEL FORMATO                    : 2.0
NOMBRE DEL ARCHIVO                     : AL0120160923075450
FECHA Y HORA DE CREACION               : 23/SEP/16, 10:08
REF. CATALOGO ACELEROGRAMAS, SMIS 1996 : REGISTRO No.     /PAG.


================================================================================
DATOS DE LA ESTACION:
NOMBRE DE LA ESTACION                  : ALAMEDA
CLAVE DE LA ESTACION                   : AL01
LOCALIZACION DE LA ESTACION            : Del. Cuauhtémoc, Col. Centro,          
                                       : Dr. Mora entre Av. Hidalgo             
                                       : y Av. Juárez.                          
                                       :                                        
                                       : 
COORDENADAS DE LA ESTACION             : 19.4356 LAT. N
                                       : 99.1453 LONG. W
ALTITUD (msnm)                         : 2232
TIPO DE SUELO                          : Terreno blando, material compresible
                                       : (arcillas)                
                                       : 
INSTITUCION RESPONSABLE                : CIRES, A. C.
                                       : 

================================================================================
DATOS DEL ACELEROGRAFO:
MODELO DEL ACELEROGRAFO                : RAD_IO14
NUMERO DE SERIE DEL ACELEROGRAFO       : 
NUMERO DE CANALES                      : 3
ORIENTACION C1-C6 (rumbo;orientacion)  : /S00E/+V/N90W
ORIENTACION C7-C12 (rumbo;orientacion) : 
VEL. DE MUESTREO, C1-C6 (muestras/s)   : /100/100/100
VEL. DE MUESTREO, C7-C12 (muestras/s)  : 
ESC. COMPLETA DE SENSORES, C1-C6, (g)  : /2.0/2.0/2.0
ESC. COMPLETA DE SENSORES, C7-C12, (g) : 
FREC. NAT. DE SENSORES, C1-C6, (Hz)    : /51.29/51.09/53.75
FREC. NAT. DE SENSORES, C7-C12, (Hz)   : 
AMORTIGUAMIENTO DE SENSORES, C1-C6     : /0.5519/0.5670/0.5810
AMORTIGUAMIENTO DE SENSORES, C7-C12    : 
INTERVALO DE MUESTREO, C1-C6, (s)      : /0.01/0.01/0.01
INTERVALO DE MUESTREO, C7-C12, (s)     : 
UMBRAL DE DISPARO, C1-C6, (Gal)        : / / /
UMBRAL DE DISPARO, C7-C12, (Gal)       : 
MEMORIA DE PREEVENTO (s)               : 60
TIEMPO DE POSEVENTO (s)                : 90


================================================================================
DATOS DEL SISMO:
FECHA DEL SISMO (GMT)                  : 23/SEP/16
HORA EPICENTRO (GMT)                   : 07:54:50.0
MAGNITUD(ES)                           : /Mc=4.8
COORDENADAS DEL EPICENTRO              : 16.74 LAT. N
                                       : 99.45 LONG. W
PROFUNDIDAD FOCAL (km)                 : 5
FUENTE DE LOS DATOS EPICENTRALES       : SSN
                                       : INSTITUTO DE GEOFISICA, UNAM

================================================================================
DATOS DE ESTE REGISTRO:
HORA DE LA PRIMERA MUESTRA (GMT)       : 02:54:14.00
EXACTITUD DEL TIEMPO (s)               : 
DURACION DEL REGISTRO (s), C1-C6       : /418.63/418.63/418.63
DURACION DEL REGISTRO (s), C7-C12      : 
NUM. TOTAL DE MUESTRAS, C1-C6          : /41863/41863/41863
NUM. TOTAL DE MUESTRAS, C7-C12         : 
ACEL. MAX. (Gal), C1-C6                : /0.9328/0.65124/0.76492
ACEL. MAX., C1-C6, EN LA MUESTRA       : /12849/12921/12730
ACEL. MAX. (Gal), C7-C12               : 
ACEL. MAX., C7-C12, EN LA MUESTRA      : 
UNIDADES DE LOS DATOS                  : Gal (cm/s/s)
FACTOR DE DECIMACION                   : 1
FORMATO DATOS (FORTRAN,10 campos/dato) : 3F10.5


================================================================================
CALIDAD DEL ACELEROGRAMA:
REGISTRO DIGITAL COMPLETO CON TIEMPO ABSOLUTO CORRECTO.


================================================================================
COMENTARIOS:














================================================================================
DATOS DE ACELERACION:
---------+---------+---------+---------+---------+---------+---------+---------+
   CANAL-1   CANAL-2   CANAL-3   CANAL-4   CANAL-5   CANAL-6   CANAL-7   CANAL-8
      N00E        +V      N90W
---------+---------+---------+---------+---------+---------+---------+---------+
[...]
  -0.45390  -0.12686   0.13298
  -0.51380  -0.00716   0.13298
  -0.45390   0.05274   0.19278
  -0.39410   0.05274   0.25268
  -0.39410   0.05274   0.19278
  -0.39410   0.11254   0.19278
  -0.33420   0.11254   0.25268
  -0.33420   0.05274   0.31248
  -0.33420   0.11254   0.37238
  -0.33420   0.17244   0.31248
  -0.33420   0.17244   0.37238
  -0.33420   0.23224   0.37238
  -0.27440   0.23224   0.37238
  -0.27440   0.17244   0.43218
  -0.33420   0.17244   0.37238
  -0.27440   0.11254   0.37238
  -0.21450   0.11254   0.43218
  -0.21450  -0.00716   0.43218
  -0.15470  -0.00716   0.37238
  -0.09480   0.05274   0.31248
  -0.03500  -0.00716   0.25268
   0.02490  -0.06706   0.25268
   0.08480  -0.00716   0.19278
   0.20450  -0.06706   0.19278
   0.20450  -0.12686   0.07308
   0.26430  -0.06706   0.07308
   0.38400  -0.00716  -0.04662
   0.50370  -0.00716  -0.10652
   0.62340   0.05274  -0.10652
   0.68330   0.11254  -0.10652
   0.80300   0.17244  -0.16632
   0.80300   0.17244  -0.22622
   0.80300   0.11254  -0.10652
   0.86290   0.17244  -0.10652
   0.86290   0.17244  -0.10652
   0.80300   0.23224  -0.10652
   0.74320   0.23224  -0.16632
   0.80300   0.11254  -0.16632
   0.80300   0.11254  -0.10652
   0.68330   0.05274  -0.04662
   0.62340   0.05274  -0.10652
   0.56360  -0.00716  -0.10652
   0.50370  -0.00716  -0.10652
   0.32420  -0.00716  -0.04662
   0.26430  -0.12686  -0.04662
   0.14460  -0.12686  -0.04662
   0.02490  -0.12686  -0.10652
  -0.09480  -0.18676  -0.10652
  -0.21450  -0.18676  -0.10652
  -0.27440  -0.24656  -0.16632
  -0.39410  -0.18676  -0.16632
  -0.51380  -0.12686  -0.22622
  -0.63350  -0.12686  -0.28602
  -0.63350  -0.18676  -0.22622
  -0.69340  -0.12686  -0.16632
  -0.69340  -0.18676  -0.28602
  -0.69340  -0.18676  -0.22622
  -0.69340  -0.18676  -0.22622
  -0.81310  -0.12686  -0.16632
  -0.69340  -0.12686  -0.10652
  -0.69340  -0.12686  -0.10652
  -0.63350  -0.24656  -0.04662
  -0.51380  -0.18676  -0.04662
  -0.45390  -0.12686  -0.04662
  -0.33420  -0.18676   0.01328
  -0.27440  -0.12686   0.13298
  -0.21450  -0.12686   0.19278
  -0.15470  -0.12686   0.31248
  -0.15470  -0.06706   0.25268
  -0.03500  -0.06706   0.19278
   0.02490  -0.12686   0.13298
   0.02490  -0.06706   0.19278
   0.02490  -0.06706   0.13298
   0.08480  -0.00716   0.07308
   0.08480  -0.00716   0.07308
   0.08480   0.05274   0.01328
   0.08480   0.11254   0.07308
   0.08480   0.11254   0.01328
   0.08480   0.11254  -0.10652
   0.02490   0.17244  -0.16632
   0.08480   0.23224  -0.22622
   0.02490   0.23224  -0.28602
   0.08480   0.23224  -0.34592
   0.14460   0.23224  -0.40572
   0.08480   0.17244  -0.40572
   0.14460   0.29214  -0.52542
   0.20450   0.29214  -0.52542
   0.26430   0.35194  -0.52542
   0.26430   0.29214  -0.46562
   0.32420   0.35194  -0.46562
   0.26430   0.35194  -0.46562
   0.26430   0.35194  -0.46562
   0.26430   0.29214  -0.34592
   0.32420   0.29214  -0.28602
   0.26430   0.29214  -0.28602
   0.26430   0.23224  -0.28602
   0.14460   0.11254  -0.10652
   0.20450   0.11254  -0.10652
   0.14460   0.05274  -0.04662
   0.08480   0.05274   0.01328
   0.08480  -0.06706   0.01328
   0.02490  -0.12686  -0.04662
   0.02490  -0.18676   0.01328
  -0.03500  -0.18676  -0.04662
  -0.09480  -0.30646  -0.04662
  -0.15470  -0.36626   0.01328
  -0.27440  -0.36626  -0.10652
  -0.27440  -0.36626  -0.16632
  -0.27440  -0.42616  -0.16632
  -0.27440  -0.42616  -0.22622
  -0.33420  -0.42616  -0.28602
  -0.27440  -0.42616  -0.28602
  -0.33420  -0.36626  -0.28602
  -0.27440  -0.30646  -0.34592
  -0.21450  -0.30646  -0.34592
  -0.21450  -0.24656  -0.34592
  -0.21450  -0.12686  -0.40572
  -0.15470  -0.06706  -0.34592
  -0.09480  -0.12686  -0.46562
  -0.09480  -0.12686  -0.40572
  -0.03500  -0.00716  -0.34592
   0.02490   0.05274  -0.22622
   0.08480  -0.00716  -0.28602
   0.08480   0.11254  -0.22622
   0.08480   0.11254  -0.22622
   0.20450   0.05274  -0.16632
   0.26430   0.17244  -0.04662
   0.32420   0.17244  -0.04662
   0.44390   0.17244   0.01328
   0.50370   0.17244  -0.04662
   0.50370   0.17244  -0.04662
   0.50370   0.11254   0.07308
   0.50370   0.05274   0.19278
   0.38400   0.17244   0.19278
   0.32420   0.11254   0.25268
   0.32420   0.05274   0.37238
   0.26430   0.11254   0.37238
   0.26430  -0.00716   0.43218
   0.20450  -0.06706   0.43218
   0.02490  -0.00716   0.37238
   0.08480  -0.00716   0.31248
   0.02490  -0.06706   0.37238
  -0.03500  -0.00716   0.37238
  -0.09480  -0.00716   0.43218
  -0.15470  -0.00716   0.43218
  -0.21450  -0.00716   0.49208
  -0.21450  -0.00716   0.49208
  -0.27440  -0.00716   0.55188
  -0.27440  -0.06706   0.49208
  -0.33420  -0.00716   0.55188
  -0.39410  -0.00716   0.55188
  -0.39410   0.05274   0.55188
  -0.45390   0.05274   0.49208
  -0.39410   0.17244   0.43218
  -0.39410   0.11254   0.49208
  -0.45390   0.17244   0.43218
  -0.39410   0.17244   0.43218
  -0.33420   0.05274   0.49208
  -0.21450   0.05274   0.37238
  -0.15470   0.05274   0.37238
  -0.03500  -0.00716   0.31248
  -0.09480  -0.06706   0.31248
  -0.03500  -0.12686   0.31248
  -0.03500  -0.06706   0.25268
   0.08480  -0.06706   0.13298
   0.20450  -0.12686   0.13298
   0.26430  -0.12686   0.07308
   0.26430  -0.12686   0.01328
   0.38400  -0.00716  -0.04662
   0.44390  -0.00716   0.01328
   0.38400  -0.06706   0.01328
   0.38400  -0.12686  -0.04662
   0.44390  -0.00716  -0.10652
   0.38400  -0.00716  -0.10652
   0.44390   0.05274  -0.10652
   0.38400  -0.00716  -0.16632
   0.32420  -0.00716  -0.22622
   0.26430  -0.00716  -0.22622
   0.14460   0.05274  -0.22622
   0.20450   0.11254  -0.16632
   0.20450   0.05274  -0.22622
   0.08480   0.05274  -0.16632
   0.08480   0.11254  -0.16632
   0.02490   0.11254  -0.10652
  -0.09480   0.11254  -0.04662
  -0.09480   0.05274  -0.04662
  -0.15470   0.11254  -0.04662
  -0.15470   0.05274   0.01328
  -0.21450   0.11254   0.07308
  -0.33420   0.05274   0.01328
  -0.39410  -0.00716   0.01328
  -0.45390  -0.00716   0.07308
  -0.57360  -0.00716  -0.04662
  -0.63350   0.05274   0.01328
  -0.57360  -0.00716   0.13298
  -0.57360  -0.06706   0.19278
  -0.63350  -0.06706   0.19278
  -0.69340  -0.00716   0.31248
  -0.57360  -0.06706   0.31248
  -0.57360  -0.12686   0.31248
  -0.57360  -0.12686   0.31248
  -0.57360  -0.18676   0.31248
  -0.57360  -0.12686   0.37238
  -0.51380  -0.06706   0.37238
  -0.45390  -0.06706   0.37238
  -0.39410  -0.06706   0.37238
  -0.33420  -0.12686   0.31248
  -0.27440  -0.12686   0.31248
  -0.27440  -0.12686   0.31248
  -0.27440  -0.12686   0.25268
  -0.21450  -0.12686   0.31248
  -0.15470  -0.12686   0.31248
  -0.03500  -0.00716   0.19278
   0.02490  -0.00716   0.13298
   0.08480  -0.06706   0.07308
   0.14460  -0.18676  -0.10652
   0.14460  -0.12686  -0.10652
   0.14460  -0.12686  -0.22622
   0.20450  -0.12686  -0.22622
   0.32420  -0.18676  -0.28602
   0.38400  -0.18676  -0.40572
   0.38400  -0.18676  -0.52542
   0.38400  -0.18676  -0.58532
   0.44390  -0.12686  -0.58532
   0.44390  -0.00716  -0.64512
   0.50370  -0.00716  -0.70502
   0.56360  -0.00716  -0.64512
   0.62340  -0.00716  -0.70502
   0.62340   0.05274  -0.76492
   0.62340   0.11254  -0.64512
   0.68330   0.05274  -0.64512
   0.62340   0.17244  -0.58532
   0.62340   0.11254  -0.46562
   0.56360   0.05274  -0.46562
   0.50370   0.05274  -0.40572
   0.50370   0.11254  -0.34592
   0.50370   0.17244  -0.34592
   0.38400   0.17244  -0.28602
   0.32420   0.23224  -0.22622
   0.26430   0.23224  -0.28602
   0.20450   0.23224  -0.22622
   0.14460   0.17244  -0.16632
   0.14460   0.11254  -0.16632
   0.08480   0.11254  -0.16632
   0.02490   0.17244  -0.16632
  -0.09480   0.17244  -0.10652
  -0.15470   0.17244  -0.10652
  -0.15470   0.17244  -0.10652
  -0.15470   0.11254  -0.04662
  -0.27440   0.11254  -0.16632
  -0.33420   0.05274  -0.16632
  -0.45390   0.11254  -0.16632
  -0.39410  -0.00716  -0.16632
  -0.39410  -0.06706  -0.16632
  -0.39410  -0.06706  -0.04662
  -0.39410  -0.18676  -0.10652
  -0.39410  -0.24656  -0.10652
  -0.33420  -0.24656  -0.10652
  -0.33420  -0.18676  -0.04662
  -0.33420  -0.18676  -0.04662
  -0.15470  -0.24656   0.13298
  -0.09480  -0.30646   0.19278
  -0.09480  -0.24656   0.19278
   0.02490  -0.24656   0.31248
   0.02490  -0.24656   0.31248
   0.14460  -0.18676   0.31248
   0.26430  -0.12686   0.31248
   0.32420  -0.18676   0.31248
   0.38400  -0.18676   0.31248
   0.44390  -0.18676   0.25268
   0.50370  -0.18676   0.13298
   0.50370  -0.18676   0.13298
   0.56360  -0.12686   0.13298
   0.56360  -0.12686   0.01328
   0.62340  -0.06706  -0.04662
   0.62340  -0.06706  -0.16632
   0.56360  -0.00716  -0.10652
   0.56360  -0.00716  -0.28602
   0.50370  -0.00716  -0.28602
   0.44390  -0.00716  -0.22622
   0.32420  -0.00716  -0.34592
   0.26430   0.05274  -0.34592
   0.20450   0.05274  -0.28602
   0.20450   0.05274  -0.28602
   0.14460   0.11254  -0.22622
   0.02490   0.05274  -0.22622
  -0.03500   0.05274  -0.22622
  -0.09480   0.05274  -0.22622
  -0.09480   0.05274  -0.22622
  -0.15470   0.11254  -0.10652
  -0.21450   0.11254   0.01328
  -0.27440   0.05274   0.07308
  -0.21450   0.05274   0.01328
  -0.27440   0.11254   0.01328
  -0.27440   0.11254   0.13298
  -0.27440   0.11254   0.25268
  -0.27440   0.05274   0.31248
  -0.27440   0.05274   0.25268
  -0.27440   0.11254   0.31248
  -0.27440   0.11254   0.25268
  -0.27440   0.11254   0.37238
  -0.27440  -0.00716   0.43218
  -0.27440  -0.00716   0.37238
  -0.27440   0.11254   0.31248
  -0.21450  -0.00716   0.31248
  -0.27440  -0.06706   0.13298
  -0.27440  -0.00716   0.19278
  -0.27440  -0.00716   0.19278
  -0.21450  -0.00716   0.25268
  -0.27440   0.05274   0.19278
  -0.33420  -0.12686   0.19278
  -0.27440  -0.12686   0.13298
  -0.21450  -0.06706   0.07308
  -0.21450  -0.12686   0.07308
  -0.15470  -0.12686   0.01328
  -0.09480  -0.12686   0.07308
  -0.03500  -0.06706   0.13298
  -0.03500  -0.12686   0.13298
   0.14460  -0.06706   0.07308
   0.08480  -0.06706   0.07308
   0.20450  -0.00716   0.07308
   0.20450   0.05274   0.01328
   0.32420  -0.00716   0.07308
   0.38400  -0.00716   0.13298
   0.44390  -0.06706   0.13298
   0.50370  -0.06706   0.07308
   0.56360  -0.06706   0.13298
   0.62340  -0.12686   0.19278
   0.56360  -0.18676   0.19278
   0.50370  -0.12686   0.13298
   0.56360  -0.00716   0.07308
   0.56360  -0.06706   0.07308
   0.44390  -0.12686   0.07308
   0.44390  -0.00716   0.07308
   0.32420  -0.06706   0.01328
   0.20450  -0.06706   0.07308
   0.08480  -0.00716   0.07308
   0.02490   0.05274   0.01328
  -0.09480  -0.00716  -0.04662
  -0.21450  -0.06706  -0.10652
  -0.33420  -0.00716  -0.10652
  -0.45390   0.05274  -0.16632
  -0.57360   0.05274  -0.22622
  -0.63350   0.05274  -0.22622
  -0.69340  -0.00716  -0.34592
  -0.81310  -0.00716  -0.40572
  -0.81310  -0.06706  -0.46562
  -0.93280  -0.00716  -0.46562
  -0.93280  -0.00716  -0.52542
  -0.81310  -0.00716  -0.46562
  -0.81310   0.05274  -0.52542
  -0.75320  -0.00716  -0.52542
  -0.81310  -0.06706  -0.40572
  -0.75320  -0.00716  -0.46562
  -0.57360  -0.00716  -0.34592
  -0.57360  -0.00716  -0.34592
  -0.51380  -0.00716  -0.34592
  -0.45390  -0.06706  -0.22622
  -0.33420  -0.00716  -0.16632
  -0.27440   0.05274  -0.10652
  -0.21450   0.11254  -0.04662
  -0.15470   0.05274   0.07308
  -0.03500   0.05274   0.19278
   0.02490  -0.00716   0.19278
   0.02490   0.05274   0.31248
   0.14460   0.05274   0.37238
   0.20450   0.11254   0.43218
   0.14460   0.11254   0.49208
   0.20450   0.17244   0.55188
   0.20450   0.11254   0.55188
   0.20450   0.11254   0.55188
   0.20450   0.11254   0.55188
   0.14460   0.05274   0.55188
   0.14460  -0.00716   0.55188
   0.14460   0.05274   0.49208
   0.08480   0.05274   0.49208
   0.02490  -0.00716   0.31248
   0.02490   0.05274   0.25268
   0.08480  -0.00716   0.19278
   0.08480  -0.06706   0.13298
   0.08480  -0.00716   0.01328
   0.08480  -0.00716  -0.16632
   0.08480  -0.06706  -0.16632
   0.08480  -0.00716  -0.16632
   0.08480  -0.06706  -0.22622
   0.08480  -0.06706  -0.28602
   0.08480  -0.06706  -0.34592
   0.14460  -0.06706  -0.34592
   0.14460  -0.06706  -0.22622
   0.20450  -0.12686  -0.28602
   0.26430  -0.18676  -0.34592
   0.32420  -0.18676  -0.28602
   0.32420  -0.18676  -0.34592
   0.38400  -0.24656  -0.46562
   0.38400  -0.24656  -0.46562
   0.44390  -0.30646  -0.34592
   0.56360  -0.42616  -0.34592
   0.50370  -0.42616  -0.28602
   0.44390  -0.42616  -0.28602
   0.44390  -0.42616  -0.28602
   0.44390  -0.48596  -0.22622
   0.32420  -0.42616  -0.10652
   0.32420  -0.36626  -0.10652
   0.32420  -0.36626  -0.04662
   0.26430  -0.24656   0.01328
   0.08480  -0.18676  -0.04662
   0.02490  -0.12686   0.13298
  -0.03500  -0.12686   0.07308
  -0.09480  -0.00716   0.13298
  -0.15470  -0.00716   0.13298
  -0.27440   0.11254   0.07308
  -0.27440   0.17244   0.19278
  -0.27440   0.17244   0.13298
  -0.33420   0.29214   0.13298
  -0.39410   0.29214   0.19278
  -0.39410   0.41184   0.19278
  -0.33420   0.47164   0.07308
  -0.33420   0.53154   0.01328
  -0.33420   0.59134   0.13298
  -0.27440   0.65124   0.07308
  -0.21450   0.65124   0.07308
  -0.15470   0.65124   0.07308
  -0.09480   0.65124   0.01328
  -0.03500   0.65124  -0.04662
  -0.03500   0.65124  -0.04662
   0.02490   0.53154   0.01328
   0.08480   0.47164  -0.10652
   0.14460   0.41184  -0.10652
   0.08480   0.41184  -0.04662
   0.08480   0.29214  -0.04662
   0.14460   0.29214  -0.04662
   0.14460   0.17244  -0.04662
   0.08480   0.05274   0.01328
   0.02490  -0.06706   0.01328
  -0.03500  -0.12686   0.01328
  -0.03500  -0.24656  -0.04662
  -0.09480  -0.36626  -0.04662
  -0.03500  -0.36626  -0.04662
   0.02490  -0.42616  -0.04662
   0.02490  -0.42616   0.01328
   0.02490  -0.42616   0.01328
   0.08480  -0.42616  -0.04662
   0.08480  -0.48596  -0.10652
   0.14460  -0.54586  -0.10652
   0.20450  -0.48596  -0.04662
   0.20450  -0.48596   0.01328
   0.32420  -0.42616  -0.04662
   0.38400  -0.42616  -0.04662
   0.38400  -0.48596   0.01328
   0.44390  -0.48596   0.07308
   0.56360  -0.36626   0.01328
   0.50370  -0.36626   0.13298
   0.56360  -0.36626   0.07308
   0.56360  -0.30646   0.13298
   0.56360  -0.30646   0.19278
   0.50370  -0.30646   0.13298
   0.50370  -0.24656   0.25268
   0.44390  -0.24656   0.31248
   0.38400  -0.18676   0.25268
   0.38400  -0.18676   0.31248
   0.32420  -0.12686   0.37238
   0.26430  -0.06706   0.37238
   0.20450  -0.00716   0.37238
   0.14460  -0.00716   0.37238
   0.08480   0.05274   0.31248
   0.08480   0.05274   0.31248
   0.08480   0.11254   0.37238
   0.08480   0.11254   0.31248
  -0.03500   0.23224   0.31248
  -0.09480   0.29214   0.25268
  -0.09480   0.35194   0.19278
  -0.15470   0.41184   0.13298
  -0.09480   0.41184   0.07308
  -0.09480   0.35194   0.13298
  -0.15470   0.41184   0.07308
  -0.21450   0.41184   0.07308
  -0.21450   0.35194   0.01328
  -0.15470   0.41184   0.01328
  -0.21450   0.35194   0.01328
  -0.21450   0.23224  -0.04662
  -0.21450   0.35194  -0.04662
  -0.27440   0.23224  -0.04662
  -0.27440   0.17244   0.01328
  -0.21450   0.17244   0.13298
  -0.21450   0.11254   0.07308
  -0.21450  -0.00716   0.07308
  -0.27440  -0.12686   0.13298
  -0.27440  -0.18676   0.07308
  -0.27440  -0.18676   0.07308
  -0.33420  -0.30646   0.07308
  -0.21450  -0.30646   0.07308
  -0.15470  -0.30646   0.13298
  -0.21450  -0.36626   0.13298
  -0.21450  -0.36626   0.13298
  -0.21450  -0.36626   0.07308
  -0.21450  -0.30646   0.07308
  -0.09480  -0.24656   0.01328
