********************************************************************************
              CENTRO DE INSTRUMENTACION Y REGISTRO SISMICO  A.C.                

    Anaxagoras 814, Col. Narvarte, Benito Juarez, C.P. 03020 Mexico, D.F.       
           Tels. 5687 45 42/ 5687 45  82             Fax. 5669 25 12            
********************************************************************************
ARCHIVO ESTANDAR DE ACELERACION:
VERSION DEL FORMATO                    : 2.0
NOMBRE DEL ARCHIVO                     : AL0120071126215616
FECHA Y HORA DE CREACION               : 27/DIC/08, 09:54
REF. CATALOGO ACELEROGRAMAS, SMIS 1996 : REGISTRO No.     /PAG.


================================================================================
DATOS DE LA ESTACION:
NOMBRE DE LA ESTACION                  : ALAMEDA
CLAVE DE LA ESTACION                   : AL01
LOCALIZACION DE LA ESTACION            : Del. Cuauhtémoc, Col. Centro,          
                                       : Dr. Mora entre Av. Hidalgo             
                                       : y Av. Juárez.                          
                                       :                                        
                                       : 
COORDENADAS DE LA ESTACION             : 19.4356 LAT. N
                                       : 99.1453 LONG. W
ALTITUD (msnm)                         : 2232
TIPO DE SUELO                          : Terreno blando, material compresible
                                       : (arcillas)                
                                       : 
INSTITUCION RESPONSABLE                : CIRES


================================================================================
DATOS DEL ACELEROGRAFO:
MODELO DEL ACELEROGRAFO                : SSA-1
NUMERO DE SERIE DEL ACELEROGRAFO       : 152
NUMERO DE CANALES                      : 3
ORIENTACION C1-C6 (rumbo;orientacion)  : /N00E/+V/N90W
ORIENTACION C7-C12 (rumbo;orientacion) : 
VEL. DE MUESTREO, C1-C6 (muestras/s)   : /200/200/200
VEL. DE MUESTREO, C7-C12 (muestras/s)  : 
ESC. COMPLETA DE SENSORES, C1-C6, (g)  : /2.0/2.0/2.0
ESC. COMPLETA DE SENSORES, C7-C12, (g) : 
FREC. NAT. DE SENSORES, C1-C6, (Hz)    : /51.29/51.09/53.75
FREC. NAT. DE SENSORES, C7-C12, (Hz)   : 
AMORTIGUAMIENTO DE SENSORES, C1-C6     : /0.5519/0.5670/0.5810
AMORTIGUAMIENTO DE SENSORES, C7-C12    : 
INTERVALO DE MUESTREO, C1-C6, (s)      : /0.005/0.005/0.005
INTERVALO DE MUESTREO, C7-C12, (s)     : 
UMBRAL DE DISPARO, C1-C6, (Gal)        : /1.0/2.5/1.0
UMBRAL DE DISPARO, C7-C12, (Gal)       : 
MEMORIA DE PREEVENTO (s)               : 15.36
TIEMPO DE POSEVENTO (s)                : 60.0


================================================================================
DATOS DEL SISMO:
FECHA DEL SISMO (GMT)                  : 26/NOV/07
HORA EPICENTRO (GMT)                   : 21:56:16.0
MAGNITUD(ES)                           : /Mc=5.6
COORDENADAS DEL EPICENTRO              : 18.05 LAT. N
                                       : -101.31 LONG. W
PROFUNDIDAD FOCAL (km)                 : 53
FUENTE DE LOS DATOS EPICENTRALES       : SSN
                                       : INSTITUTO DE GEOFISICA, UNAM

================================================================================
DATOS DE ESTE REGISTRO:
HORA DE LA PRIMERA MUESTRA (GMT)       : 21:57:34.13
EXACTITUD DEL TIEMPO (s)               : 0.005
DURACION DEL REGISTRO (s), C1-C6       : /126.72/126.72/126.72
DURACION DEL REGISTRO (s), C7-C12      : 
NUM. TOTAL DE MUESTRAS, C1-C6          : /25344/25344/25344
NUM. TOTAL DE MUESTRAS, C7-C12         : 
ACEL. MAX. (Gal), C1-C6                : /2.05054/1.1518/1.77692
ACEL. MAX., C1-C6, EN LA MUESTRA       : /12264/10236/11708
ACEL. MAX. (Gal), C7-C12               : 
ACEL. MAX., C7-C12, EN LA MUESTRA      : 
UNIDADES DE LOS DATOS                  : Gal (cm/s/s)
FACTOR DE DECIMACION                   : 1
FORMATO DATOS (FORTRAN,10 campos/dato) : 3F10.5


================================================================================
CALIDAD DEL ACELEROGRAMA:
REGISTRO DIGITAL COMPLETO CON TIEMPO ABSOLUTO CORRECTO.


================================================================================
COMENTARIOS:














================================================================================
DATOS DE ACELERACION:
---------+---------+---------+---------+---------+---------+---------+---------+
   CANAL-1   CANAL-2   CANAL-3   CANAL-4   CANAL-5   CANAL-6   CANAL-7   CANAL-8
      N00E        +V      N90W
---------+---------+---------+---------+---------+---------+---------+---------+
[...]
  -0.85344  -0.67296   0.10098
  -1.09286  -0.43354   0.10098
  -0.85344  -0.43354   0.10098
  -0.85344  -0.43354  -0.13844
  -0.85344  -0.43354   0.10098
  -0.85344  -0.43354  -0.13844
  -0.85344  -0.43354   0.10098
  -0.85344  -0.43354   0.10098
  -0.61401  -0.43354   0.10098
  -0.85344  -0.43354   0.10098
  -0.61401  -0.67296   0.10098
  -0.61401  -0.43354   0.10098
  -0.61401  -0.43354   0.10098
  -0.85344  -0.43354   0.10098
  -0.85344  -0.43354   0.10098
  -0.85344  -0.43354   0.10098
  -0.85344  -0.19412   0.10098
  -0.85344  -0.19412   0.10098
  -0.85344  -0.19412   0.10098
  -0.85344   0.04530   0.10098
  -0.85344   0.04530   0.10098
  -0.61401   0.04530   0.10098
  -0.61401   0.04530   0.10098
  -0.61401   0.04530   0.10098
  -0.61401   0.28472   0.10098
  -0.61401   0.28472   0.34040
  -0.37459   0.28472   0.10098
  -0.37459   0.28472   0.34040
  -0.37459   0.04530   0.10098
  -0.37459   0.04530   0.10098
  -0.37459   0.04530   0.10098
  -0.37459   0.04530   0.10098
  -0.37459   0.04530   0.10098
  -0.37459  -0.19412   0.10098
  -0.37459  -0.19412  -0.13844
  -0.37459  -0.19412   0.10098
  -0.37459  -0.19412  -0.13844
  -0.37459  -0.19412   0.10098
  -0.13517  -0.19412  -0.13844
  -0.37459  -0.19412  -0.13844
  -0.37459  -0.19412  -0.13844
  -0.13517  -0.19412  -0.13844
  -0.13517  -0.19412  -0.13844
  -0.37459  -0.19412  -0.13844
  -0.37459  -0.19412  -0.13844
  -0.37459  -0.19412  -0.13844
  -0.37459  -0.43354  -0.13844
  -0.37459  -0.19412  -0.13844
  -0.37459  -0.19412  -0.13844
  -0.37459   0.04530  -0.13844
  -0.37459  -0.19412  -0.13844
  -0.37459  -0.19412  -0.13844
  -0.37459  -0.19412  -0.13844
  -0.37459  -0.19412  -0.37786
  -0.37459  -0.19412  -0.13844
  -0.37459  -0.19412  -0.13844
  -0.37459  -0.19412  -0.37786
  -0.37459   0.04530  -0.13844
  -0.37459   0.04530  -0.37786
  -0.37459   0.04530  -0.37786
  -0.37459   0.04530  -0.37786
  -0.37459   0.04530  -0.37786
  -0.37459   0.28472  -0.37786
  -0.61401   0.28472  -0.37786
  -0.37459   0.28472  -0.37786
  -0.37459   0.04530  -0.37786
  -0.37459   0.28472  -0.37786
  -0.37459   0.28472  -0.37786
  -0.13517   0.28472  -0.37786
  -0.13517   0.04530  -0.37786
  -0.13517   0.04530  -0.13844
  -0.13517   0.04530  -0.37786
  -0.13517  -0.19412  -0.37786
  -0.13517  -0.19412  -0.37786
  -0.13517  -0.19412  -0.37786
  -0.13517  -0.19412  -0.37786
  -0.13517  -0.19412  -0.37786
  -0.37459  -0.19412  -0.37786
  -0.37459  -0.19412  -0.37786
  -0.37459   0.04530  -0.37786
  -0.37459   0.04530  -0.37786
  -0.37459   0.04530  -0.37786
  -0.13517   0.04530  -0.37786
  -0.13517   0.04530  -0.37786
  -0.13517   0.04530  -0.37786
  -0.13517   0.04530  -0.13844
  -0.13517   0.04530  -0.13844
  -0.13517   0.04530  -0.13844
  -0.13517   0.04530  -0.13844
  -0.13517   0.04530  -0.13844
   0.10425   0.04530  -0.13844
  -0.13517   0.04530  -0.13844
  -0.13517  -0.19412   0.10098
  -0.13517   0.04530   0.10098
  -0.13517  -0.19412   0.10098
  -0.13517   0.04530   0.10098
  -0.13517   0.04530   0.10098
  -0.13517   0.04530   0.10098
  -0.13517   0.04530   0.10098
  -0.13517   0.04530   0.10098
   0.10425   0.04530   0.10098
   0.10425   0.28472   0.34040
   0.10425   0.28472   0.34040
   0.10425   0.28472   0.34040
   0.10425   0.04530   0.34040
   0.34367   0.28472   0.57982
   0.34367   0.28472   0.57982
   0.34367   0.28472   0.57982
   0.58309   0.04530   0.57982
   0.58309   0.04530   0.57982
   0.58309   0.04530   0.57982
   0.58309  -0.19412   0.57982
   0.58309   0.04530   0.81924
   0.58309   0.04530   0.81924
   0.58309   0.04530   0.81924
   0.58309   0.04530   0.81924
   0.58309   0.04530   0.81924
   0.58309   0.04530   0.81924
   0.82251   0.04530   0.81924
   0.58309   0.04530   1.05866
   0.82251   0.04530   0.81924
   0.82251   0.04530   0.57982
   0.82251   0.04530   1.05866
   0.82251   0.04530   0.81924
   0.82251   0.04530   1.05866
   0.82251   0.04530   1.05866
   0.82251   0.04530   1.05866
   0.82251   0.04530   0.81924
   0.82251   0.04530   0.81924
   0.82251   0.04530   0.81924
   0.82251   0.04530   0.81924
   0.82251   0.28472   0.81924
   0.82251   0.28472   0.81924
   0.82251   0.28472   0.81924
   0.58309   0.28472   0.81924
   1.06193   0.04530   0.81924
   1.06193   0.04530   0.57982
   0.82251   0.04530   0.57982
   1.06193   0.04530   0.57982
   0.82251   0.04530   0.57982
   0.82251   0.04530   0.57982
   1.06193   0.04530   0.34040
   1.06193   0.04530   0.34040
   1.06193   0.04530   0.34040
   1.06193   0.28472   0.34040
   1.06193   0.04530   0.34040
   1.06193   0.04530   0.10098
   1.30135   0.04530   0.10098
   1.30135   0.04530   0.10098
   1.30135  -0.19412   0.10098
   1.06193  -0.19412   0.10098
   1.06193  -0.19412  -0.13844
   1.30135   0.04530  -0.13844
   1.30135   0.04530  -0.13844
   1.30135   0.04530  -0.13844
   1.30135  -0.19412  -0.13844
   1.30135  -0.19412  -0.13844
   1.30135  -0.19412  -0.13844
   1.30135  -0.19412  -0.37786
   1.30135  -0.19412  -0.37786
   1.30135   0.04530  -0.37786
   1.30135  -0.19412  -0.37786
   1.30135  -0.19412  -0.37786
   1.30135  -0.19412  -0.37786
   1.30135  -0.19412  -0.37786
   1.30135  -0.19412  -0.37786
   1.30135  -0.19412  -0.37786
   1.30135  -0.19412  -0.61728
   1.30135  -0.43354  -0.61728
   1.30135  -0.43354  -0.61728
   1.30135  -0.43354  -0.61728
   1.06193  -0.43354  -0.85670
   1.06193  -0.43354  -0.61728
   1.06193  -0.19412  -0.85670
   1.06193  -0.19412  -0.61728
   1.06193  -0.19412  -0.85670
   1.06193  -0.19412  -1.09612
   1.06193   0.04530  -0.85670
   1.06193   0.04530  -0.85670
   1.06193   0.04530  -0.85670
   1.06193   0.04530  -0.85670
   1.06193   0.04530  -0.85670
   1.06193   0.04530  -0.85670
   1.30135   0.04530  -0.85670
   1.06193   0.04530  -0.85670
   1.30135   0.04530  -0.85670
   1.06193   0.04530  -0.85670
   1.06193   0.04530  -0.61728
   1.06193   0.04530  -0.61728
   1.06193   0.04530  -0.85670
   1.06193   0.04530  -0.61728
   1.06193   0.04530  -0.61728
   1.06193   0.04530  -0.61728
   1.06193   0.04530  -0.61728
   1.06193   0.04530  -0.61728
   1.06193   0.28472  -0.61728
   1.06193   0.28472  -0.61728
   1.06193   0.04530  -0.61728
   1.06193   0.04530  -0.61728
   1.06193   0.04530  -0.61728
   1.06193   0.04530  -0.61728
   1.06193   0.04530  -0.37786
   1.06193   0.04530  -0.37786
   1.06193   0.04530  -0.37786
   0.82251   0.04530  -0.13844
   0.82251  -0.19412  -0.13844
   0.82251   0.04530  -0.13844
   0.82251   0.04530  -0.13844
   0.82251   0.04530  -0.13844
   0.58309   0.04530  -0.13844
   0.82251   0.04530  -0.13844
   0.58309   0.04530   0.10098
   0.58309   0.04530   0.10098
   0.58309   0.04530   0.10098
   0.58309   0.04530   0.10098
   0.58309   0.04530   0.10098
   0.58309   0.04530   0.10098
   0.58309   0.04530   0.10098
   0.58309   0.04530   0.10098
   0.58309   0.04530   0.10098
   0.34367  -0.19412   0.34040
   0.58309   0.28472   0.34040
   0.34367   0.28472   0.34040
   0.34367   0.28472   0.34040
   0.10425   0.28472   0.34040
   0.58309   0.04530   0.34040
   0.58309   0.28472   0.34040
   0.58309   0.04530   0.57982
   0.58309   0.04530   0.34040
   0.58309   0.04530   0.34040
   0.58309  -0.19412   0.34040
   0.34367   0.04530   0.34040
   0.34367   0.04530   0.34040
   0.34367   0.04530   0.34040
   0.34367   0.04530   0.34040
   0.34367   0.04530   0.34040
   0.34367   0.04530   0.34040
   0.34367   0.04530   0.34040
   0.34367   0.04530   0.10098
   0.34367   0.04530   0.34040
   0.34367  -0.19412   0.34040
   0.10425  -0.19412   0.34040
   0.34367  -0.19412   0.34040
   0.34367  -0.19412   0.10098
   0.10425  -0.19412   0.10098
   0.34367  -0.19412   0.10098
   0.34367  -0.19412   0.10098
   0.34367  -0.19412   0.10098
   0.34367  -0.19412   0.10098
   0.34367  -0.43354  -0.13844
   0.10425  -0.43354  -0.13844
   0.10425  -0.19412  -0.13844
   0.10425  -0.19412  -0.13844
   0.10425  -0.19412  -0.13844
   0.10425  -0.43354  -0.13844
   0.10425  -0.19412  -0.13844
   0.10425  -0.19412  -0.13844
   0.10425   0.04530  -0.13844
   0.10425   0.04530  -0.37786
   0.10425   0.04530  -0.37786
   0.10425  -0.19412  -0.37786
   0.10425   0.04530  -0.37786
   0.10425   0.04530  -0.37786
   0.10425   0.04530  -0.37786
   0.10425   0.04530  -0.37786
   0.34367   0.28472  -0.37786
   0.34367   0.28472  -0.61728
   0.34367   0.28472  -0.37786
   0.34367   0.28472  -0.37786
   0.34367   0.28472  -0.37786
   0.34367   0.28472  -0.37786
   0.34367   0.28472  -0.13844
   0.34367   0.28472  -0.13844
   0.34367   0.04530  -0.13844
   0.34367   0.28472  -0.13844
   0.34367   0.28472  -0.37786
   0.34367   0.28472  -0.13844
   0.10425   0.28472  -0.13844
   0.10425   0.28472  -0.13844
   0.10425   0.04530  -0.13844
   0.10425   0.28472  -0.13844
   0.10425   0.28472  -0.13844
   0.10425   0.28472  -0.13844
   0.10425   0.28472  -0.13844
   0.10425   0.28472  -0.13844
   0.10425   0.28472  -0.13844
   0.10425   0.28472   0.10098
   0.10425   0.28472   0.10098
   0.10425   0.28472   0.10098
   0.10425   0.28472   0.10098
   0.10425   0.28472  -0.37786
   0.10425   0.04530   0.10098
   0.10425   0.04530   0.10098
  -0.13517   0.28472   0.10098
  -0.13517   0.28472   0.10098
  -0.13517   0.28472   0.10098
  -0.13517   0.04530   0.10098
  -0.37459   0.04530   0.10098
  -0.13517   0.04530  -0.13844
  -0.13517   0.04530   0.10098
  -0.13517   0.04530   0.10098
  -0.37459   0.04530   0.10098
  -0.37459   0.04530   0.10098
  -0.37459   0.04530   0.10098
  -0.37459   0.28472   0.10098
  -0.37459   0.04530   0.10098
  -0.37459   0.04530   0.10098
  -0.37459   0.04530   0.10098
  -0.37459   0.04530  -0.13844
  -0.37459   0.04530  -0.13844
  -0.37459   0.04530   0.10098
  -0.37459   0.04530  -0.13844
  -0.61401   0.04530   0.10098
  -0.61401  -0.19412   0.10098
  -0.61401  -0.19412   0.10098
  -0.61401  -0.19412  -0.13844
  -0.61401  -0.19412   0.10098
  -0.61401  -0.67296   0.10098
  -0.85344  -0.43354   0.10098
  -0.85344  -0.43354   0.10098
  -0.85344  -0.43354   0.10098
  -0.85344  -0.43354   0.10098
  -0.85344  -0.43354   0.10098
  -1.09286  -0.43354   0.10098
  -1.09286  -0.67296   0.10098
  -1.09286  -0.43354   0.10098
  -1.09286  -0.67296  -0.13844
  -1.09286  -0.67296   0.10098
  -1.09286  -0.43354  -0.13844
  -1.09286  -0.67296  -0.13844
  -1.33228  -0.43354  -0.13844
  -1.33228  -0.43354  -0.13844
  -1.33228  -0.67296   0.10098
  -1.33228  -0.43354   0.10098
  -1.33228  -0.43354   0.10098
  -1.33228  -0.43354   0.10098
  -1.33228  -0.43354   0.10098
  -1.33228  -0.43354   0.10098
  -1.33228  -0.19412   0.10098
  -1.33228  -0.19412   0.10098
  -1.33228  -0.19412   0.10098
  -1.57170  -0.19412   0.10098
  -1.57170  -0.19412   0.10098
  -1.57170  -0.19412   0.10098
  -1.57170  -0.19412   0.10098
  -1.81112  -0.19412   0.10098
  -2.05054  -0.19412   0.10098
  -1.81112  -0.19412   0.10098
  -1.81112  -0.19412   0.10098
  -2.05054  -0.19412   0.34040
  -1.81112  -0.19412   0.10098
  -1.57170  -0.19412   0.10098
  -1.57170  -0.19412   0.34040
  -1.81112  -0.19412   0.34040
  -1.57170  -0.19412   0.34040
  -1.57170  -0.19412   0.34040
  -1.57170  -0.19412   0.34040
  -1.57170  -0.19412   0.10098
  -1.57170  -0.19412   0.10098
  -1.57170  -0.19412   0.10098
  -1.57170   0.04530   0.10098
  -1.57170   0.04530   0.10098
  -1.57170   0.04530   0.10098
  -1.81112   0.04530  -0.13844
  -1.57170  -0.19412   0.10098
  -1.57170  -0.19412   0.10098
  -1.33228  -0.19412   0.10098
  -1.33228  -0.19412   0.10098
  -1.33228   0.04530   0.10098
  -1.33228   0.04530  -0.13844
  -1.33228   0.04530  -0.13844
  -1.33228   0.04530  -0.13844
  -1.57170   0.04530  -0.13844
  -1.33228   0.04530  -0.13844
  -1.33228   0.04530  -0.13844
  -1.33228   0.04530  -0.37786
  -1.33228   0.04530  -0.37786
  -1.33228   0.28472  -0.37786
  -1.33228   0.28472  -0.13844
  -1.09286   0.28472  -0.13844
  -1.09286   0.28472  -0.13844
  -1.09286   0.28472  -0.13844
  -1.09286   0.28472  -0.13844
  -0.85344   0.28472  -0.13844
  -0.85344   0.28472  -0.13844
  -0.85344   0.52414  -0.13844
  -0.85344   0.28472  -0.13844
  -0.85344   0.28472  -0.37786
  -0.85344   0.52414  -0.37786
  -0.85344   0.52414  -0.13844
  -0.85344   0.28472  -0.37786
  -0.85344   0.28472  -0.37786
  -0.85344   0.28472  -0.37786
  -0.61401   0.28472  -0.37786
  -0.61401   0.28472  -0.37786
  -0.61401   0.28472  -0.37786
  -0.61401   0.28472  -0.37786
  -0.61401   0.28472  -0.37786
  -0.61401   0.28472  -0.37786
  -0.61401   0.28472  -0.37786
  -0.61401   0.28472  -0.37786
  -0.61401   0.28472  -0.13844
  -0.61401   0.28472  -0.37786
  -0.61401   0.28472  -0.37786
  -0.61401   0.28472  -0.13844
  -0.61401   0.28472  -0.37786
  -0.61401   0.28472  -0.37786
  -0.61401   0.28472  -0.13844
  -0.37459   0.28472  -0.13844
  -0.37459   0.28472  -0.13844
  -0.37459   0.28472  -0.13844
  -0.37459   0.04530  -0.13844
  -0.61401   0.04530  -0.13844
  -0.37459   0.04530  -0.13844
  -0.37459   0.04530  -0.13844
  -0.37459   0.04530  -0.13844
  -0.37459   0.04530  -0.13844
  -0.37459   0.04530  -0.37786
  -0.37459   0.04530  -0.13844
  -0.37459   0.04530  -0.13844
  -0.37459   0.04530   0.10098
  -0.37459   0.28472   0.10098
  -0.37459   0.28472   0.10098
  -0.37459   0.04530   0.10098
  -0.37459   0.04530   0.10098
  -0.13517   0.04530   0.10098
  -0.13517   0.04530   0.10098
  -0.13517   0.04530   0.34040
  -0.13517   0.04530   0.34040
  -0.13517   0.04530   0.34040
  -0.13517   0.04530   0.34040
   0.10425   0.04530   0.34040
   0.10425  -0.19412   0.34040
   0.10425   0.04530   0.34040
   0.10425   0.04530   0.57982
   0.10425   0.04530   0.57982
   0.34367   0.04530   0.57982
   0.34367   0.04530   0.57982
   0.34367   0.04530   0.57982
   0.34367   0.04530   0.81924
   0.34367   0.04530   0.81924
   0.34367   0.04530   0.81924
   0.34367   0.04530   0.81924
   0.34367   0.04530   1.05866
   0.34367   0.04530   1.05866
   0.58309  -0.19412   1.05866
   0.58309  -0.19412   1.05866
   0.58309  -0.19412   1.05866
   0.58309  -0.19412   1.05866
   0.58309  -0.19412   1.05866
   0.58309  -0.19412   1.05866
   0.58309  -0.19412   1.05866
   0.58309  -0.19412   1.05866
   0.58309  -0.19412   1.05866
   0.58309  -0.43354   1.05866
   0.58309  -0.19412   1.05866
   0.58309  -0.19412   1.05866
   0.82251  -0.19412   1.29808
   0.58309  -0.19412   1.29808
   0.58309   0.04530   1.29808
   0.58309   0.04530   1.05866
   0.82251   0.04530   1.05866
   0.58309   0.04530   1.29808
   0.58309   0.04530   1.05866
   0.58309   0.28472   1.05866
   0.58309   0.28472   1.05866
   0.82251   0.28472   1.05866
   0.82251   0.28472   1.05866
   0.82251   0.28472   1.05866
   0.82251   0.28472   1.05866
   0.82251   0.28472   1.05866
   0.82251   0.28472   1.05866
   0.82251   0.28472   1.05866
   0.82251   0.28472   1.05866
   0.82251   0.28472   1.05866
   0.82251   0.28472   1.05866
   0.82251   0.28472   1.05866
   0.82251   0.28472   1.05866
   0.82251   0.28472   1.05866
   0.82251   0.28472   1.05866
   0.82251   0.28472   0.81924
   0.82251   0.28472   1.05866
   0.82251   0.28472   0.81924
   0.82251   0.04530   0.81924
   0.82251   0.28472   0.57982
   0.82251   0.28472   0.81924
   0.82251   0.04530   0.57982
   0.82251   0.04530   0.10098
   0.82251   0.04530   0.57982
   0.82251   0.04530   0.57982
   0.82251   0.04530   0.57982
   0.82251   0.04530   0.57982
   0.58309   0.04530   0.57982
   0.82251   0.04530   0.34040
   0.82251   0.04530   0.57982
   0.58309   0.04530   0.34040
