********************************************************************************
               CENTRO DE INSTRUMENTACION Y REGISTRO SISMICO  A.C.  
                       Coordinacion de Servicios Tecnicos
     Anaxagoras 814, Col. Narvarte, Benito Juarez, C.P. 03020 Mexico, D.F.
            Tels. 667 45 42/ 687 45  82             Fax. 669 25 12
********************************************************************************
ARCHIVO ESTANDAR DE ACELERACION:
VERSION DEL FORMATO                    : 2.0
NOMBRE DEL ARCHIVO                     : AL010311.191
FECHA Y HORA DE CREACION               : 16/JUL/04, 13:18
REF. CATALOGO ACELEROGRAMAS, SMIS 1996 : REGISTRO No.     /PAG.


================================================================================
DATOS DE LA ESTACION:
NOMBRE DE LA ESTACION                  : ALAMEDA
CLAVE DE LA ESTACION                   : AL01
LOCALIZACION DE LA ESTACION            : JARDIN ALAMEDA ENTRE AV. HIDALGO Y AV.
                                       : JUAREZ, CENTRO
                                       :
                                       :
                                       :
COORDENADAS DE LA ESTACION             : 19.436 LAT. N 
                                       : 99.145 LONG. W 
ALTITUD (msnm)                         : 2232
TIPO DE SUELO                          : TERRENO BLANDO, MATERIAL COMPRESIBLE
                                       : (ARCILLAS)
                                       : 
INSTITUCION RESPONSABLE                : CIRES 
                                       :

================================================================================
DATOS DEL ACELEROGRAFO:
MODELO DEL ACELEROGRAFO                : SSA-1
NUMERO DE SERIE DEL ACELEROGRAFO       : 152
NUMERO DE CANALES                      : 3
ORIENTACION C1-C6 (rumbo;orientacion)  : /N00E/+V/N90E
ORIENTACION C7-C12 (rumbo;orientacion) :
VEL. DE MUESTREO, C1-C6 (muestras/s)   : /200/200/200
VEL. DE MUESTREO, C7-C12 (muestras/s)  :
ESC. COMPLETA DE SENSORES, C1-C6, (g)  : /2/2/2
ESC. COMPLETA DE SENSORES, C7-C12, (g) :
FREC. NAT. DE SENSORES, C1-C6, (Hz)    : /51.29/51.09/53.75
FREC. NAT. DE SENSORES, C7-C12, (Hz)   :
AMORTIGUAMIENTO DE SENSORES, C1-C6     : /.5519/.5670/.5810
AMORTIGUAMIENTO DE SENSORES, C7-C12    :
INTERVALO DE MUESTREO, C1-C6, (s)      : /0.005/0.005/0.005
INTERVALO DE MUESTREO, C7-C12, (s)     :
UMBRAL DE DISPARO, C1-C6, (Gal)        : /2/1.5/2
UMBRAL DE DISPARO, C7-C12, (Gal)       :
MEMORIA DE PREEVENTO (s)               : 15
TIEMPO DE POSEVENTO (s)                : 60


================================================================================
DATOS DEL SISMO:
FECHA DEL SISMO (GMT)                  : 19/NOV/03
HORA EPICENTRO (GMT)                   : 13:50:28,2
MAGNITUD(ES)                           : /Mb=4.9/Ms=0.0/Mc=4.8/Ma=4.8/Me=4.8
COORDENADAS DEL EPICENTRO              : 17.86 LAT. N
                                       : 99.54 LONG. W
PROFUNDIDAD FOCAL (km)                 : 53
FUENTE DE LOS DATOS EPICENTRALES       : SSN
                                       : INSTITUTO DE GEOFISICA, UNAM 

================================================================================
DATOS DE ESTE REGISTRO:
HORA DE LA PRIMERA MUESTRA (GMT)       : 13:51:30.00
EXACTITUD DEL TIEMPO (s)               :     
DURACION DEL REGISTRO (s), C1-C6       : /78.08/78.08/78.08
DURACION DEL REGISTRO (s), C7-C12      :
NUM. TOTAL DE MUESTRAS, C1-C6          : /15616/15616/15616
NUM. TOTAL DE MUESTRAS, C7-C12         :
ACEL. MAX. (Gal), C1-C6                : /1.44453/-1.53705/2.21684
ACEL. MAX., C1-C6, EN LA MUESTRA       :
ACEL. MAX. (Gal), C7-C12               :
ACEL. MAX., C7-C12, EN LA MUESTRA      :
UNIDADES DE LOS DATOS                  : Gal (cm/s/s)
FACTOR DE DECIMACION                   : 1
FORMATO DATOS (FORTRAN,10 campos/dato) : 3F10.5


================================================================================
CALIDAD DEL ACELEROGRAMA:
REGISTRO DIGITAL COMPLETO, CARECE DE TIEMPO ABSOLUTO.


================================================================================
COMENTARIOS:














================================================================================
DATOS DE ACELERACION:
---------+---------+---------+---------+---------+---------+---------+---------+
   CANAL-1   CANAL-2   CANAL-3   CANAL-4   CANAL-5   CANAL-6   CANAL-7   CANAL-8
      N00E        +V      N90E
---------+---------+---------+---------+---------+---------+---------+---------+
[...]
  -0.23547   0.38295   0.29684
  -0.23547   0.38295   0.29684
  -0.23547   0.38295   0.29684
  -0.47547   0.38295   0.29684
  -0.47547   0.62295   0.29684
  -0.47547   0.62295   0.53684
  -0.47547   0.62295   0.53684
  -0.71547   0.62295   0.53684
  -0.47547   0.62295   0.53684
  -0.47547   0.62295   0.53684
  -0.23547   0.38295   0.53684
  -0.23547   0.38295   0.53684
  -0.23547   0.38295   0.77684
  -0.23547   0.38295   0.77684
  -0.23547   0.38295   0.77684
  -0.23547   0.38295   0.77684
  -0.23547   0.38295   0.77684
  -0.23547   0.38295   0.77684
  -0.23547   0.38295   0.77684
   0.00453   0.38295   0.77684
   0.00453   0.38295   0.77684
   0.00453   0.38295   1.01684
   0.00453   0.38295   0.77684
   0.24453   0.38295   1.01684
   0.24453   0.38295   1.01684
   0.24453   0.38295   1.01684
   0.24453   0.14295   1.01684
   0.48453   0.38295   1.01684
   0.48453   0.14295   1.01684
   0.48453   0.14295   1.01684
   0.48453   0.14295   1.01684
   0.72453   0.14295   1.01684
   0.72453   0.14295   1.01684
   0.96453   0.14295   0.77684
   0.96453   0.14295   0.77684
   0.96453   0.14295   0.77684
   0.96453  -0.09705   0.77684
   1.20453  -0.09705   0.77684
   1.20453  -0.09705   0.77684
   1.20453  -0.09705   0.77684
   1.20453  -0.09705   0.77684
   1.20453  -0.09705   0.77684
   1.20453  -0.33705   0.77684
   1.20453  -0.09705   0.77684
   1.44453  -0.33705   0.53684
   1.44453  -0.33705   0.53684
   1.44453  -0.33705   0.53684
   1.44453  -0.33705   0.53684
   1.44453  -0.33705   0.29684
   1.44453  -0.57705   0.53684
   1.44453  -0.57705   0.29684
   1.44453  -0.57705   0.29684
   1.44453  -0.57705   0.29684
   1.44453  -0.57705   0.06684
   1.44453  -0.57705   0.06684
   1.20453  -0.57705   0.06684
   1.20453  -0.57705  -0.17316
   1.20453  -0.57705  -0.17316
   1.20453  -0.57705  -0.17316
   1.20453  -0.57705  -0.17316
   0.96453  -0.57705  -0.17316
   0.96453  -0.57705  -0.17316
   0.96453  -0.57705  -0.17316
   0.72453  -0.33705  -0.17316
   0.72453  -0.57705  -0.17316
   0.72453  -0.33705  -0.17316
   0.48453  -0.33705  -0.17316
   0.24453  -0.33705  -0.17316
   0.24453  -0.57705  -0.17316
   0.24453  -0.33705  -0.17316
   0.00453  -0.33705  -0.17316
   0.00453  -0.33705  -0.17316
   0.00453  -0.57705   0.06684
   0.00453  -0.33705   0.06684
  -0.23547  -0.33705   0.06684
  -0.23547  -0.33705   0.29684
  -0.23547  -0.33705   0.29684
  -0.23547  -0.33705   0.29684
  -0.47547  -0.09705   0.29684
  -0.47547  -0.09705   0.29684
  -0.47547  -0.09705   0.53684
  -0.47547  -0.09705   0.29684
  -0.71547   0.14295   0.53684
  -0.71547   0.14295   0.53684
  -0.71547   0.14295   0.53684
  -0.71547   0.14295   0.53684
  -0.71547   0.14295   0.53684
  -0.71547   0.14295   0.53684
  -0.71547   0.14295   0.53684
  -0.71547  -0.09705   0.77684
  -0.71547   0.14295   0.77684
  -0.47547  -0.09705   0.77684
  -0.47547  -0.09705   0.77684
  -0.47547  -0.09705   0.77684
  -0.47547  -0.09705   0.77684
  -0.47547  -0.09705   0.77684
  -0.47547  -0.09705   0.77684
  -0.47547  -0.09705   0.77684
  -0.47547  -0.09705   0.77684
  -0.47547  -0.09705   0.53684
  -0.47547   0.14295   0.77684
  -0.47547  -0.09705   0.77684
  -0.47547   0.14295   0.77684
  -0.23547   0.14295   0.53684
  -0.23547   0.14295   0.53684
  -0.47547   0.14295   0.53684
  -0.23547   0.14295   0.53684
  -0.23547  -0.09705   0.53684
  -0.23547   0.14295   0.29684
  -0.23547   0.14295   0.29684
  -0.23547   0.14295   0.29684
  -0.23547   0.14295   0.29684
  -0.23547   0.14295   0.06684
  -0.23547  -0.09705   0.06684
  -0.23547  -0.09705   0.06684
  -0.23547  -0.09705  -0.17316
  -0.23547  -0.09705  -0.17316
  -0.23547  -0.09705  -0.17316
  -0.23547  -0.09705  -0.17316
  -0.23547  -0.09705  -0.41316
  -0.23547  -0.09705  -0.17316
  -0.23547  -0.09705  -0.17316
  -0.23547  -0.09705  -0.17316
  -0.23547  -0.09705  -0.17316
  -0.23547  -0.09705  -0.17316
  -0.23547  -0.09705  -0.17316
   0.00453  -0.09705  -0.17316
  -0.23547  -0.09705  -0.17316
   0.00453  -0.09705  -0.17316
   0.00453  -0.09705  -0.17316
  -0.23547  -0.09705  -0.17316
   0.00453  -0.09705  -0.17316
  -0.23547  -0.09705  -0.17316
  -0.23547  -0.09705  -0.17316
  -0.23547  -0.09705  -0.17316
  -0.23547  -0.09705  -0.17316
  -0.47547  -0.09705  -0.17316
  -0.47547  -0.09705  -0.41316
  -0.47547  -0.09705  -0.17316
  -0.47547  -0.09705  -0.41316
  -0.47547  -0.09705  -0.17316
  -0.47547   0.14295  -0.17316
  -0.47547   0.14295  -0.17316
  -0.47547   0.14295  -0.17316
  -0.47547   0.14295  -0.17316
  -0.23547   0.14295  -0.17316
  -0.23547   0.14295  -0.17316
  -0.23547   0.38295  -0.17316
  -0.23547   0.38295  -0.17316
  -0.23547   0.38295  -0.41316
  -0.23547   0.14295  -0.41316
  -0.23547   0.14295  -0.41316
  -0.23547   0.14295  -0.41316
  -0.23547   0.14295  -0.41316
  -0.23547  -0.09705  -0.41316
   0.00453   0.14295  -0.41316
   0.00453  -0.09705  -0.65316
   0.00453  -0.09705  -0.65316
   0.24453  -0.09705  -0.65316
   0.00453  -0.09705  -0.65316
   0.24453  -0.09705  -0.65316
   0.24453  -0.09705  -0.65316
   0.24453  -0.09705  -0.65316
   0.24453  -0.09705  -0.65316
   0.24453  -0.09705  -0.65316
   0.24453  -0.09705  -0.65316
   0.24453  -0.09705  -0.65316
   0.24453  -0.09705  -0.65316
   0.24453  -0.09705  -0.65316
   0.24453  -0.09705  -0.41316
   0.24453  -0.09705  -0.41316
   0.24453   0.14295  -0.41316
   0.24453   0.14295  -0.41316
   0.24453  -0.33705  -0.41316
   0.24453   0.14295  -0.17316
   0.24453   0.14295  -0.17316
   0.24453   0.14295  -0.17316
   0.24453   0.14295  -0.17316
   0.24453   0.14295   0.06684
   0.24453   0.14295  -0.17316
   0.24453   0.14295  -0.17316
   0.24453  -0.09705   0.06684
   0.24453  -0.09705   0.06684
   0.00453  -0.09705   0.06684
  -0.23547  -0.09705   0.06684
   0.00453  -0.33705   0.06684
  -0.23547  -0.33705   0.06684
  -0.23547  -0.33705   0.06684
  -0.23547  -0.33705   0.06684
  -0.47547  -0.33705   0.06684
  -0.47547  -0.57705   0.06684
  -0.47547  -0.57705   0.06684
  -0.47547  -0.57705   0.06684
  -0.47547  -0.57705   0.29684
  -0.47547  -0.57705   0.06684
  -0.71547  -0.33705   0.06684
  -0.71547  -0.33705  -0.17316
  -0.71547  -0.33705  -0.17316
  -0.95547  -0.33705   0.06684
  -0.71547  -0.57705  -0.17316
  -0.71547  -0.33705  -0.17316
  -0.71547  -0.33705  -0.17316
  -0.95547  -0.33705  -0.17316
  -0.95547  -0.33705  -0.41316
  -0.95547  -0.33705  -0.41316
  -0.95547  -0.33705  -0.65316
  -0.95547  -0.33705  -0.65316
  -0.95547  -0.33705  -0.65316
  -0.95547  -0.33705  -0.65316
  -0.95547  -0.33705  -0.65316
  -0.95547  -0.09705  -0.65316
  -0.95547  -0.09705  -0.65316
  -0.95547  -0.09705  -0.65316
  -0.95547   0.14295  -0.89316
  -0.95547   0.14295  -0.89316
  -0.95547   0.14295  -0.89316
  -0.95547   0.38295  -0.89316
  -0.95547   0.38295  -1.13316
  -0.95547   0.38295  -1.13316
  -0.95547   0.38295  -1.13316
  -0.71547   0.14295  -1.13316
  -0.71547   0.38295  -1.13316
  -0.71547   0.38295  -1.13316
  -0.71547   0.38295  -1.13316
  -0.71547   0.38295  -0.89316
  -0.47547   0.38295  -0.89316
  -0.23547   0.38295  -0.89316
  -0.23547   0.62295  -0.89316
  -0.23547   0.62295  -0.65316
   0.00453   0.62295  -0.65316
   0.00453   0.62295  -0.65316
   0.00453   0.62295  -0.65316
   0.00453   0.62295  -0.65316
   0.24453   0.62295  -0.41316
   0.24453   0.62295  -0.65316
   0.24453   0.62295  -0.41316
   0.24453   0.62295  -0.41316
   0.48453   0.38295  -0.41316
   0.48453   0.62295  -0.17316
   0.48453   0.62295  -0.17316
   0.48453   0.62295  -0.17316
   0.48453   0.62295  -0.17316
   0.72453   0.62295  -0.17316
   0.72453   0.62295  -0.17316
   0.72453   0.62295   0.06684
   0.72453   0.62295   0.06684
   0.72453   0.62295   0.29684
   0.48453   0.62295   0.29684
   0.72453   0.62295   0.29684
   0.72453   0.62295   0.53684
   0.72453   0.38295   0.53684
   0.72453   0.38295   0.53684
   0.72453   0.38295   0.77684
   0.72453   0.38295   0.77684
   0.48453   0.38295   0.77684
   0.48453   0.38295   0.77684
   0.48453   0.38295   0.77684
   0.48453   0.38295   0.77684
   0.48453   0.38295   0.53684
   0.24453   0.38295   0.53684
   0.24453   0.38295   0.53684
   0.24453   0.38295   0.53684
   0.00453   0.38295   0.53684
   0.00453   0.38295   0.29684
   0.00453   0.38295   0.29684
   0.00453   0.14295   0.29684
  -0.23547   0.14295   0.29684
  -0.23547   0.14295   0.06684
  -0.23547   0.14295   0.06684
  -0.23547   0.14295   0.06684
  -0.23547   0.14295   0.06684
  -0.23547   0.14295  -0.17316
  -0.23547   0.14295  -0.17316
  -0.23547   0.14295  -0.17316
  -0.23547   0.14295  -0.17316
  -0.23547   0.14295  -0.17316
  -0.47547   0.14295  -0.17316
  -0.23547   0.14295  -0.17316
  -0.23547   0.14295  -0.17316
  -0.23547  -0.09705  -0.17316
  -0.23547  -0.09705  -0.41316
  -0.23547   0.14295  -0.41316
  -0.23547   0.14295  -0.41316
  -0.23547   0.14295  -0.41316
   0.00453  -0.09705  -0.65316
   0.00453  -0.09705  -0.65316
   0.24453   0.14295  -0.65316
   0.24453   0.14295  -0.65316
   0.48453  -0.09705  -0.65316
   0.48453   0.14295  -0.65316
   0.72453  -0.09705  -0.65316
   0.72453   0.14295  -0.65316
   0.72453  -0.09705  -0.65316
   0.72453  -0.09705  -0.89316
   0.72453  -0.33705  -0.65316
   0.96453  -0.33705  -0.65316
   0.96453  -0.33705  -0.65316
   1.20453  -0.33705  -0.65316
   1.20453  -0.33705  -0.65316
   1.20453  -0.57705  -0.65316
   1.20453  -0.57705  -0.65316
   1.20453  -0.57705  -0.65316
   1.20453  -0.57705  -0.41316
   1.20453  -0.57705  -0.65316
   1.20453  -0.57705  -0.41316
   1.20453  -0.57705  -0.41316
   1.20453  -0.57705  -0.17316
   1.20453  -0.57705  -0.17316
   1.20453  -0.57705  -0.17316
   0.96453  -0.81705  -0.17316
   0.96453  -0.57705  -0.17316
   0.96453  -0.57705  -0.17316
   0.72453  -0.81705  -0.17316
   0.72453  -0.81705  -0.17316
   0.72453  -0.81705   0.06684
   0.72453  -0.81705   0.06684
   0.48453  -0.81705   0.06684
   0.48453  -0.81705   0.06684
   0.24453  -0.81705   0.06684
   0.24453  -0.57705   0.29684
   0.00453  -0.57705   0.29684
   0.00453  -0.57705   0.29684
   0.00453  -0.57705   0.29684
  -0.23547  -0.81705   0.29684
  -0.23547  -0.57705   0.29684
  -0.23547  -0.57705   0.29684
  -0.23547  -0.57705   0.53684
  -0.23547  -0.33705   0.53684
  -0.23547  -0.33705   0.53684
  -0.23547  -0.33705   0.77684
  -0.47547  -0.09705   0.77684
  -0.47547  -0.33705   0.77684
  -0.47547  -0.09705   1.01684
  -0.47547  -0.09705   1.01684
  -0.47547  -0.33705   1.25684
  -0.47547  -0.09705   1.25684
  -0.47547   0.14295   1.25684
  -0.47547   0.14295   1.49684
  -0.47547   0.14295   1.49684
  -0.47547   0.14295   1.49684
  -0.47547   0.14295   1.49684
  -0.47547   0.14295   1.73684
  -0.23547   0.14295   1.73684
  -0.23547   0.14295   1.73684
  -0.23547   0.14295   1.73684
  -0.23547   0.38295   1.73684
   0.00453   0.14295   1.73684
   0.00453   0.38295   1.97684
   0.00453   0.38295   1.97684
  -0.23547   0.38295   2.21684
   0.24453   0.38295   2.21684
   0.24453   0.38295   2.21684
   0.24453   0.38295   1.97684
   0.24453   0.38295   1.97684
   0.24453   0.38295   1.97684
   0.48453   0.38295   1.97684
   0.48453   0.38295   1.97684
   0.48453   0.38295   1.97684
   0.48453   0.38295   1.73684
   0.72453   0.14295   1.73684
   0.72453   0.38295   1.49684
   0.72453   0.14295   1.49684
   0.72453  -0.09705   1.25684
   0.72453   0.14295   1.25684
   0.72453   0.14295   0.77684
   0.72453   0.14295   0.77684
   0.72453   0.14295   0.53684
   0.72453   0.14295   0.53684
   0.72453  -0.09705   0.53684
   0.72453  -0.09705   0.29684
   0.72453  -0.09705   0.06684
   0.72453  -0.09705   0.06684
   0.72453  -0.09705  -0.17316
   0.48453  -0.09705  -0.17316
   0.48453  -0.09705  -0.17316
   0.48453  -0.09705  -0.41316
   0.24453  -0.09705  -0.65316
   0.24453  -0.33705  -0.65316
   0.24453  -0.33705  -0.65316
   0.24453  -0.33705  -1.13316
   0.00453  -0.33705  -0.65316
   0.00453  -0.33705  -0.65316
   0.00453  -0.33705  -0.65316
  -0.23547  -0.09705  -0.65316
  -0.23547  -0.33705  -0.65316
  -0.23547  -0.09705  -0.65316
  -0.23547  -0.09705  -0.65316
  -0.23547  -0.09705  -0.65316
  -0.23547  -0.09705  -0.65316
  -0.47547   0.14295  -0.41316
  -0.23547   0.14295  -0.41316
  -0.47547   0.14295  -0.41316
  -0.47547   0.14295  -0.17316
  -0.47547   0.14295  -0.17316
  -0.47547   0.14295  -0.17316
  -0.47547   0.14295  -0.17316
  -0.47547   0.14295   0.06684
  -0.47547   0.14295   0.06684
  -0.47547   0.14295  -0.17316
  -0.23547   0.14295   0.06684
  -0.47547   0.14295   0.29684
  -0.23547   0.14295   0.29684
  -0.23547   0.14295   0.29684
  -0.23547   0.14295   0.29684
   0.00453   0.14295   0.29684
   0.00453   0.14295   0.29684
   0.00453  -0.09705   0.29684
   0.00453  -0.09705   0.29684
   0.00453  -0.09705   0.29684
   0.00453  -0.09705   0.29684
   0.00453  -0.09705   0.29684
   0.00453  -0.09705   0.53684
   0.00453  -0.09705   0.29684
   0.24453  -0.09705   0.29684
   0.00453  -0.09705   0.29684
   0.00453  -0.09705   0.29684
   0.00453  -0.33705   0.29684
   0.00453  -0.33705   0.29684
   0.00453  -0.33705   0.06684
   0.00453  -0.33705  -0.17316
   0.00453  -0.33705  -0.17316
   0.00453  -0.33705  -0.17316
   0.00453  -0.33705  -0.17316
   0.00453  -0.33705  -0.41316
   0.00453  -0.33705  -0.41316
  -0.23547  -0.33705  -0.65316
  -0.23547  -0.33705  -0.65316
  -0.23547  -0.33705  -0.65316
  -0.23547  -0.33705  -0.65316
  -0.23547  -0.33705  -0.65316
  -0.23547  -0.33705  -0.89316
  -0.23547  -0.33705  -0.89316
  -0.23547  -0.33705  -0.89316
  -0.23547  -0.33705  -0.89316
  -0.47547  -0.33705  -1.13316
  -0.47547  -0.33705  -1.13316
  -0.47547  -0.33705  -1.13316
  -0.47547  -0.33705  -1.13316
  -0.47547  -0.09705  -1.13316
  -0.71547  -0.09705  -1.13316
  -0.47547  -0.09705  -0.89316
  -0.47547  -0.09705  -0.89316
  -0.47547  -0.09705  -0.89316
  -0.47547  -0.09705  -0.89316
  -0.47547   0.14295  -0.89316
  -0.47547   0.14295  -0.89316
  -0.23547  -0.09705  -0.65316
  -0.23547   0.14295  -0.65316
  -0.23547   0.14295  -0.65316
   0.00453   0.14295  -0.65316
   0.00453   0.14295  -0.41316
   0.00453   0.38295  -0.41316
   0.24453   0.38295  -0.41316
   0.24453   0.14295  -0.41316
   0.24453   0.38295  -0.41316
   0.24453   0.38295  -0.17316
   0.24453   0.14295  -0.17316
   0.24453   0.38295  -0.17316
   0.48453   0.38295  -0.17316
   0.48453   0.38295   0.06684
   0.48453   0.38295  -0.17316
   0.48453   0.38295   0.06684
   0.48453   0.14295   0.06684
   0.48453   0.38295   0.06684
   0.48453   0.38295   0.06684
   0.48453   0.38295   0.29684
   0.24453   0.14295   0.06684
   0.24453   0.14295   0.06684
   0.24453   0.14295   0.06684
   0.24453   0.14295   0.06684
   0.24453   0.14295   0.06684
   0.24453   0.14295   0.06684
   0.24453   0.14295   0.06684
   0.24453   0.14295   0.06684
   0.00453   0.14295   0.06684
   0.00453   0.14295   0.06684
   0.24453   0.38295   0.06684
   0.00453   0.38295   0.06684
   0.00453   0.14295   0.06684
   0.00453   0.14295   0.06684
  -0.23547   0.14295  -0.17316
  -0.23547   0.14295  -0.17316
  -0.23547   0.14295  -0.17316
  -0.23547  -0.09705  -0.17316
  -0.23547  -0.09705  -0.41316
  -0.47547  -0.09705  -0.41316
  -0.23547  -0.09705  -0.41316
  -0.23547  -0.09705  -0.41316
  -0.23547  -0.09705  -0.41316
  -0.47547  -0.09705  -0.41316
  -0.47547  -0.09705  -0.41316
  -0.47547  -0.09705  -0.41316
  -0.47547  -0.09705  -0.89316
  -0.47547  -0.09705  -0.41316
  -0.47547  -0.33705  -0.41316
  -0.47547  -0.09705  -0.41316
  -0.47547  -0.09705  -0.41316
  -0.47547  -0.09705  -0.41316
  -0.71547  -0.09705  -0.65316
