********************************************************************************
               CENTRO DE INSTRUMENTACION Y REGISTRO SISMICO  A.C.  
                              FUNDACION ICA, A.C.
     Anaxagoras 814, Col. Narvarte, Benito Juarez, C.P. 03020 Mexico, D.F.
            Tels. 687 45 42/ 687 45  82             Fax. 669 25 12
********************************************************************************
ARCHIVO ESTANDAR DE ACELERACION:
VERSION DEL FORMATO                    : 2.0
NOMBRE DEL ARCHIVO                     : AL019005.311
FECHA Y HORA DE CREACION               : ABRIL 16, 1996/19:42
REF. CATALOGO ACELEROGRAMAS, SMIS 1995 : REGISTRO No. 2186 /PAG. 214


================================================================================
DATOS DE LA ESTACION:
NOMBRE DE LA ESTACION                  : ALAMEDA
CLAVE DE LA ESTACION                   : AL01
LOCALIZACION DE LA ESTACION            : JARDIN ALAMEDA ENTRE AV. HIDALGO Y AV.
                                       : JUAREZ, CENTRO
                                       :
                                       :
                                       :
COORDENADAS DE LA ESTACION             : 19.436 LAT. N 
                                       : 99.145 LONG. W 
ALTITUD (msnm)                         : 2232
TIPO DE SUELO                          : TERRENO BLANDO, MATERIAL COMPRESIBLE
                                       : (ARCILLAS)
                                       : 
INSTITUCION RESPONSABLE                : FICA
                                       :

================================================================================
DATOS DEL ACELEROGRAFO:
MODELO DEL ACELEROGRAFO                : SSA-1
NUMERO DE SERIE DEL ACELEROGRAFO       : 152
NUMERO DE CANALES                      : 3
ORIENTACION C1-C6 (rumbo;orientacion)  : /N00E/+V/N90E
ORIENTACION C7-C12 (rumbo;orientacion) :
VEL. DE MUESTREO, C1-C6 (muestras/s)   : /200/200/200
VEL. DE MUESTREO, C7-C12 (muestras/s)  :
ESC. COMPLETA DE SENSORES, C1-C6, (g)  : /2/2/2
ESC. COMPLETA DE SENSORES, C7-C12, (g) :
FREC. NAT. DE SENSORES, C1-C6, (Hz)    : /50/50/50
FREC. NAT. DE SENSORES, C7-C12, (Hz)   :
AMORTIGUAMIENTO DE SENSORES, C1-C6     : /0.700/0.700/0.700
AMORTIGUAMIENTO DE SENSORES, C7-C12    :
INTERVALO DE MUESTREO, C1-C6, (s)      : /0.005/0.005/0.005
INTERVALO DE MUESTREO, C7-C12, (s)     :
UMBRAL DE DISPARO, C1-C6, (Gal)        : /2/1.5/2
UMBRAL DE DISPARO, C7-C12, (Gal)       :
MEMORIA DE PREEVENTO (s)               : 15
TIEMPO DE POSEVENTO (s)                : 90


================================================================================
DATOS DEL SISMO:
FECHA DEL SISMO (GMT)                  : 31/MAY/90
HORA EPICENTRO (GMT)                   : 07:35:26,9 
MAGNITUD(ES)                           : /Mb=5.80/Ms=5.90/Mc=5.50
COORDENADAS DEL EPICENTRO              : 17.106 LAT. N 
                                       : 100.893 LONG. W
PROFUNDIDAD FOCAL (km)                 : 15.8 
FUENTE DE LOS DATOS EPICENTRALES       : INSTITUTO DE INGENIERIA UNAM
                                       : 

================================================================================
DATOS DE ESTE REGISTRO:
HORA DE LA PRIMERA MUESTRA (GMT)       : 07:35:27.00
EXACTITUD DEL TIEMPO (s)               :     
DURACION DEL REGISTRO (s), C1-C6       : /142.08/142.08/142.08
DURACION DEL REGISTRO (s), C7-C12      :
NUM. TOTAL DE MUESTRAS, C1-C6          : /28416/28416/28416
NUM. TOTAL DE MUESTRAS, C7-C12         :
ACEL. MAX. (Gal), C1-C6                : /10.10210/3.69250/9.78888
ACEL. MAX., C1-C6, EN LA MUESTRA       :
ACEL. MAX. (Gal), C7-C12               :
ACEL. MAX., C7-C12, EN LA MUESTRA      :
UNIDADES DE LOS DATOS                  : Gal (cm/s/s)
FACTOR DE DECIMACION                   : 1
FORMATO DATOS (FORTRAN,10 campos/dato) : 3F10.5


================================================================================
CALIDAD DEL ACELEROGRAMA:
REGISTRO DIGITAL COMPLETO, CARECE DE TIEMPO ABSOLUTO.


================================================================================
COMENTARIOS:














================================================================================
DATOS DE ACELERACION:
---------+---------+---------+---------+---------+---------+---------+---------+
   CANAL-1   CANAL-2   CANAL-3   CANAL-4   CANAL-5   CANAL-6   CANAL-7   CANAL-8
      N00E        +V      N90E
---------+---------+---------+---------+---------+---------+---------+---------+
[...]
   3.78790  -1.57750  -1.63888
   3.78790  -1.09750  -1.63888
   3.78790  -1.09750  -1.63888
   3.78790  -1.09750  -1.63888
   3.78790  -1.09750  -1.63888
   3.78790  -1.09750  -1.63888
   3.78790  -1.57750  -2.11888
   3.78790  -1.57750  -2.11888
   3.78790  -1.09750  -2.11888
   3.78790  -1.57750  -2.11888
   3.78790  -1.57750  -2.11888
   3.78790  -1.09750  -2.11888
   3.78790  -1.09750  -2.11888
   3.78790  -1.09750  -2.11888
   3.78790  -1.09750  -2.11888
   3.78790  -1.09750  -2.11888
   3.78790  -0.61750  -2.11888
   3.78790  -0.61750  -2.11888
   3.78790  -0.13750  -2.11888
   3.78790  -0.13750  -2.11888
   3.78790  -0.13750  -2.11888
   3.30790  -0.13750  -2.11888
   3.30790   0.34250  -2.11888
   3.30790   0.34250  -2.11888
   3.30790   0.82250  -2.11888
   3.30790   0.82250  -2.11888
   2.82790   0.82250  -2.11888
   2.82790   1.29250  -2.11888
   2.82790   1.29250  -2.11888
   2.82790   1.29250  -2.11888
   2.82790   1.29250  -1.63888
   2.82790   1.77250  -1.63888
   2.82790   1.77250  -1.63888
   2.82790   1.77250  -1.63888
   2.82790   2.25250  -1.63888
   2.82790   2.25250  -1.15888
   2.82790   2.25250  -1.15888
   2.82790   2.25250  -1.15888
   3.30790   2.25250  -0.68888
   3.30790   2.73250  -0.68888
   3.30790   2.73250  -0.68888
   3.30790   2.73250  -0.68888
   3.30790   2.73250  -0.20888
   3.30790   2.73250  -0.20888
   3.30790   2.73250   0.27112
   3.30790   2.73250   0.27112
   3.30790   2.73250   0.27112
   3.30790   2.73250   0.27112
   3.78790   2.73250   0.75112
   3.78790   2.73250   0.75112
   3.30790   2.73250   1.23112
   3.78790   2.73250   1.23112
   3.78790   2.73250   1.23112
   3.78790   2.73250   1.23112
   3.30790   2.25250   1.71112
   3.78790   2.25250   1.71112
   3.30790   1.77250   2.19112
   3.30790   2.25250   2.19112
   3.30790   1.77250   2.19112
   3.30790   1.77250   2.67112
   3.30790   1.77250   2.67112
   3.30790   1.29250   2.67112
   3.30790   1.29250   3.15112
   3.30790   1.29250   3.15112
   3.30790   1.29250   3.15112
   2.82790   0.82250   3.63112
   2.82790   0.82250   3.63112
   2.82790   0.82250   4.11112
   2.82790   0.34250   4.11112
   2.82790   0.34250   3.63112
   2.82790   0.34250   4.11112
   2.34790   0.34250   4.11112
   2.34790   0.34250   4.11112
   2.34790   0.34250   4.11112
   1.86790  -0.13750   4.11112
   1.86790  -0.13750   4.11112
   1.38790  -0.13750   4.11112
   1.38790  -0.13750   4.11112
   0.91790  -0.13750   4.11112
   0.91790  -0.61750   4.11112
   0.91790  -0.61750   3.63112
   0.91790  -0.61750   3.63112
   0.91790  -1.09750   3.63112
   0.43790  -0.61750   3.63112
   0.43790  -1.09750   3.15112
   0.43790  -1.09750   3.15112
   0.43790  -1.09750   3.15112
   0.43790  -1.09750   2.67112
   0.43790  -1.09750   2.19112
   0.43790  -1.57750   2.19112
   0.43790  -1.57750   2.19112
  -0.04210  -1.57750   2.19112
   0.43790  -1.57750   1.71112
  -0.04210  -1.57750   1.71112
   0.43790  -2.05750   1.23112
   0.43790  -2.05750   1.23112
   0.43790  -2.05750   1.23112
   0.43790  -2.05750   0.75112
   0.43790  -2.05750   0.75112
   0.43790  -2.05750   0.27112
   0.91790  -2.05750   0.27112
   0.91790  -2.05750   0.27112
   0.91790  -2.05750  -0.20888
   0.91790  -2.05750  -0.20888
   0.91790  -2.53750  -0.20888
   1.38790  -2.05750  -0.68888
   1.38790  -2.05750  -0.68888
   1.38790  -2.05750  -0.68888
   1.38790  -2.05750  -0.68888
   1.86790  -1.57750  -1.15888
   1.38790  -1.57750  -1.15888
   1.86790  -1.57750  -1.15888
   1.86790  -1.57750  -1.15888
   1.86790  -1.57750  -1.63888
   1.86790  -1.09750  -2.11888
   1.86790  -1.09750  -1.63888
   1.86790  -1.09750  -2.11888
   1.86790  -1.09750  -2.11888
   1.86790  -1.09750  -2.11888
   2.34790  -0.61750  -2.11888
   2.34790  -0.61750  -2.59888
   2.34790  -0.61750  -2.59888
   2.34790  -0.13750  -2.59888
   2.34790  -0.61750  -3.07888
   1.86790  -0.13750  -3.07888
   1.86790  -0.13750  -3.07888
   1.86790   0.34250  -3.07888
   1.86790  -0.13750  -3.07888
   1.86790  -0.13750  -3.55888
   1.86790   0.34250  -3.07888
   1.38790   0.34250  -3.55888
   1.38790   0.34250  -3.55888
   1.38790   0.34250  -3.55888
   1.38790   0.34250  -3.55888
   1.38790   0.34250  -4.03888
   0.91790   0.82250  -4.03888
   0.91790   0.82250  -4.03888
   0.91790   0.82250  -4.51888
   0.91790   0.82250  -4.03888
   0.91790   0.82250  -4.51888
   0.91790   0.82250  -4.51888
   0.91790   0.82250  -4.51888
   0.91790   0.82250  -4.51888
   0.91790   0.82250  -4.99888
   0.91790   0.82250  -4.51888
   0.91790   0.82250  -4.99888
   0.91790   0.82250  -4.99888
   0.91790   0.82250  -4.99888
   0.91790   0.82250  -4.99888
   0.91790   0.34250  -4.99888
   0.91790   0.34250  -4.99888
   0.91790   0.34250  -5.47888
   0.91790   0.34250  -4.99888
   1.38790   0.34250  -5.47888
   0.91790   0.34250  -4.99888
   1.38790   0.34250  -5.47888
   1.38790   0.34250  -4.99888
   1.38790   0.34250  -5.47888
   1.38790   0.34250  -4.99888
   1.38790   0.34250  -4.99888
   1.86790   0.34250  -4.99888
   1.86790   0.82250  -4.99888
   1.38790   0.82250  -4.51888
   1.86790   0.82250  -4.51888
   1.86790   0.82250  -4.03888
   1.38790   0.82250  -4.03888
   1.38790   0.82250  -4.03888
   1.38790   0.82250  -4.03888
   1.38790   0.82250  -3.55888
   1.38790   1.29250  -3.55888
   0.91790   1.29250  -3.55888
   0.91790   1.29250  -3.07888
   0.91790   1.29250  -3.07888
   0.43790   1.29250  -3.07888
   0.43790   1.29250  -2.59888
   0.43790   1.29250  -2.59888
  -0.04210   1.29250  -2.59888
  -0.04210   1.29250  -2.11888
  -0.52210   1.77250  -2.11888
  -0.52210   1.77250  -1.63888
  -0.52210   1.77250  -1.63888
  -1.00210   1.77250  -1.63888
  -1.48210   1.77250  -1.63888
  -1.48210   1.77250  -1.15888
  -1.96210   1.77250  -0.68888
  -1.96210   1.77250  -1.15888
  -1.96210   1.77250  -0.68888
  -2.44210   1.77250  -0.68888
  -2.44210   1.77250  -0.68888
  -2.92210   1.77250  -0.20888
  -2.92210   1.29250  -0.20888
  -2.92210   1.29250   0.27112
  -2.92210   1.29250   0.27112
  -2.92210   1.29250   0.27112
  -2.92210   1.29250   0.27112
  -2.92210   0.82250   0.27112
  -2.92210   0.82250   0.75112
  -2.92210   0.82250   0.75112
  -2.92210   0.82250   0.75112
  -2.92210   0.82250   1.23112
  -2.92210   0.34250   1.23112
  -2.92210   0.34250   1.23112
  -2.44210   0.34250   1.23112
  -2.44210   0.34250   1.71112
  -2.44210  -0.13750   1.71112
  -1.96210  -0.13750   1.71112
  -1.96210  -0.13750   2.19112
  -1.48210  -0.13750   2.19112
  -1.00210  -0.61750   2.19112
  -1.00210  -0.61750   2.67112
  -1.00210  -0.61750   2.67112
  -0.52210  -0.61750   3.15112
  -0.52210  -1.09750   3.63112
  -0.04210  -0.61750   3.63112
  -0.04210  -0.61750   3.63112
   0.43790  -0.61750   4.11112
   0.91790  -1.09750   4.11112
   0.91790  -1.09750   4.58112
   1.38790  -1.09750   4.58112
   1.86790  -1.09750   5.06112
   1.86790  -1.09750   5.06112
   2.34790  -1.09750   5.54112
   2.34790  -1.09750   5.54112
   2.82790  -1.09750   5.54112
   3.30790  -1.09750   5.54112
   3.30790  -1.09750   6.02112
   3.78790  -1.09750   6.02112
   3.78790  -1.09750   6.02112
   4.26790  -1.09750   6.02112
   4.26790  -1.09750   6.50112
   4.74790  -1.09750   6.50112
   4.74790  -0.61750   6.50112
   5.22790  -0.61750   6.50112
   5.22790  -0.61750   6.50112
   5.22790  -0.61750   6.50112
   5.70790  -0.61750   6.50112
   5.70790  -0.13750   6.50112
   5.70790  -0.13750   6.50112
   5.70790  -0.61750   6.50112
   5.70790  -0.13750   6.50112
   6.17790  -0.61750   6.50112
   6.17790  -0.61750   6.50112
   6.17790  -0.61750   6.50112
   6.17790  -0.61750   6.50112
   6.17790  -0.61750   6.02112
   5.70790  -0.61750   6.02112
   5.70790  -0.61750   6.02112
   5.70790  -0.61750   6.02112
   5.70790  -0.61750   6.02112
   5.70790  -0.61750   5.54112
   5.22790  -0.61750   5.54112
   5.22790  -0.61750   5.54112
   5.22790  -0.61750   5.06112
   5.22790  -1.09750   5.06112
   4.74790  -1.09750   5.06112
   4.74790  -1.09750   5.06112
   4.74790  -1.09750   5.06112
   4.74790  -1.09750   5.06112
   4.26790  -1.09750   4.58112
   4.26790  -1.09750   4.58112
   3.78790  -1.09750   4.58112
   3.78790  -1.09750   4.11112
   3.78790  -1.09750   4.11112
   3.30790  -1.09750   4.11112
   3.30790  -1.09750   4.11112
   2.82790  -1.09750   4.11112
   2.82790  -1.09750   4.11112
   2.34790  -1.09750   3.63112
   2.34790  -1.09750   3.63112
   1.86790  -1.09750   3.63112
   1.86790  -1.09750   3.63112
   1.38790  -1.09750   3.15112
   1.38790  -1.09750   3.15112
   1.38790  -1.09750   3.15112
   0.91790  -1.09750   3.15112
   1.38790  -1.09750   3.15112
   0.91790  -1.09750   3.15112
   0.91790  -1.09750   2.67112
   0.91790  -1.09750   3.15112
   0.91790  -0.61750   2.67112
   0.91790  -1.09750   3.15112
   0.91790  -0.61750   2.67112
   0.91790  -0.61750   3.15112
   0.91790  -0.61750   2.67112
   0.91790  -0.61750   3.15112
   1.38790  -0.61750   2.67112
   0.91790  -0.13750   3.15112
   1.38790  -0.13750   2.67112
   1.38790  -0.13750   2.67112
   1.38790   0.34250   2.67112
   1.86790  -0.13750   2.67112
   1.38790   0.34250   2.67112
   1.86790   0.34250   2.19112
   1.86790   0.34250   2.67112
   1.86790   0.82250   2.67112
   1.86790   0.34250   2.19112
   1.86790   0.82250   2.19112
   1.86790   0.82250   2.19112
   1.86790   0.82250   1.71112
   1.86790   0.82250   1.71112
   1.86790   0.82250   1.71112
   1.86790   0.34250   1.23112
   1.86790   0.82250   1.23112
   1.86790   0.82250   0.75112
   1.86790   0.34250   0.75112
   1.38790   0.34250   0.27112
   1.38790   0.34250   0.27112
   1.38790   0.34250  -0.20888
   1.38790   0.34250  -0.20888
   1.38790   0.34250  -0.68888
   1.38790   0.34250  -0.68888
   0.91790   0.34250  -1.15888
   0.91790   0.34250  -1.15888
   0.91790   0.34250  -1.63888
   0.91790  -0.13750  -2.11888
   0.43790   0.34250  -2.11888
   0.43790  -0.13750  -2.59888
   0.43790   0.34250  -3.07888
  -0.04210   0.34250  -3.07888
  -0.04210   0.34250  -3.55888
  -0.04210   0.34250  -3.55888
  -0.52210   0.34250  -4.03888
  -0.52210   0.34250  -4.03888
  -1.00210   0.34250  -4.51888
  -1.00210   0.34250  -4.51888
  -1.48210   0.34250  -4.99888
  -1.48210   0.34250  -5.47888
  -1.48210   0.34250  -5.47888
  -1.48210   0.82250  -5.94888
  -1.96210   0.82250  -5.94888
  -1.96210   0.82250  -5.94888
  -2.44210   0.82250  -5.94888
  -2.44210   0.82250  -6.42888
  -2.92210   0.82250  -6.90888
  -2.92210   0.82250  -6.90888
  -2.92210   1.29250  -7.38888
  -2.92210   1.29250  -7.38888
  -3.40210   1.29250  -7.86888
  -2.92210   1.29250  -7.86888
  -3.40210   1.29250  -7.86888
  -3.40210   1.77250  -8.34888
  -3.40210   1.77250  -8.34888
  -3.40210   1.77250  -8.82888
  -3.40210   1.77250  -8.82888
  -3.40210   1.77250  -8.82888
  -3.40210   1.77250  -8.82888
  -2.92210   1.77250  -9.30888
  -2.92210   1.77250  -9.30888
  -2.92210   1.77250  -9.30888
  -2.92210   1.77250  -9.78888
  -2.92210   1.77250  -9.78888
  -2.92210   1.77250  -9.78888
  -2.92210   1.77250  -9.78888
  -2.92210   1.77250  -9.78888
  -2.92210   1.77250  -9.78888
  -2.92210   1.77250  -9.78888
  -2.92210   1.77250  -9.78888
  -2.92210   1.77250  -9.78888
  -2.92210   1.77250  -9.78888
  -2.44210   1.77250  -9.78888
  -2.44210   1.77250  -9.78888
  -2.44210   1.77250  -9.78888
  -2.44210   1.29250  -9.30888
  -2.44210   1.29250  -9.30888
  -2.44210   1.29250  -9.30888
  -2.44210   1.29250  -9.30888
  -2.92210   1.29250  -8.82888
  -2.92210   1.29250  -8.82888
  -2.92210   1.29250  -8.82888
  -2.92210   1.29250  -8.34888
  -2.92210   1.29250  -8.34888
  -2.92210   1.29250  -7.86888
  -2.92210   0.82250  -7.38888
  -2.92210   0.82250  -7.38888
  -3.40210   0.82250  -7.38888
  -3.40210   0.82250  -6.90888
  -2.92210   0.82250  -6.90888
  -3.40210   0.34250  -6.42888
  -3.40210   0.34250  -5.94888
  -3.40210   0.34250  -5.94888
  -3.40210  -0.13750  -5.47888
  -3.40210  -0.13750  -4.99888
  -3.87210  -0.13750  -4.99888
  -3.40210  -0.13750  -4.51888
  -3.87210  -0.61750  -4.03888
  -3.87210  -0.61750  -4.03888
  -3.87210  -0.61750  -3.55888
  -3.87210  -1.09750  -3.07888
  -3.87210  -1.09750  -2.59888
  -3.87210  -1.09750  -2.59888
  -3.87210  -1.09750  -2.11888
  -3.87210  -1.09750  -1.63888
  -3.87210  -1.09750  -1.15888
  -3.87210  -1.57750  -1.15888
  -3.87210  -1.57750  -0.68888
  -3.87210  -1.57750  -0.20888
  -3.87210  -1.57750  -0.20888
  -3.87210  -2.05750   0.27112
  -3.87210  -1.57750   0.75112
  -3.87210  -2.05750   1.23112
  -3.40210  -2.05750   1.23112
  -3.87210  -2.05750   1.23112
  -3.40210  -2.05750   1.71112
  -3.40210  -2.05750   2.19112
  -3.87210  -2.05750   2.19112
  -3.40210  -2.05750   2.67112
  -3.40210  -2.05750   2.67112
  -3.40210  -2.05750   3.15112
  -3.40210  -2.05750   3.15112
  -3.40210  -2.05750   3.63112
  -3.87210  -2.05750   3.63112
  -3.87210  -2.05750   3.63112
  -3.87210  -2.05750   4.11112
  -3.87210  -1.57750   3.63112
  -3.87210  -1.57750   4.11112
  -4.35210  -1.57750   4.11112
  -4.35210  -1.09750   4.11112
  -4.35210  -1.09750   4.11112
  -4.35210  -1.09750   3.63112
  -4.35210  -1.09750   4.11112
  -4.35210  -0.61750   4.11112
  -4.35210  -0.61750   4.11112
  -4.35210  -0.61750   4.11112
  -4.83210  -0.13750   4.11112
  -4.83210  -0.13750   4.11112
  -4.83210  -0.13750   3.63112
  -4.35210  -0.13750   4.11112
  -4.35210  -0.13750   3.63112
  -4.35210   0.34250   3.63112
  -4.35210   0.34250   3.63112
  -4.35210   0.34250   3.63112
  -4.35210   0.82250   3.15112
  -4.35210   0.82250   3.15112
  -3.87210   0.82250   3.15112
  -3.87210   0.82250   3.15112
  -3.87210   0.82250   3.15112
  -3.87210   0.82250   2.67112
  -3.87210   0.82250   2.67112
  -3.87210   0.82250   2.19112
  -3.40210   0.82250   2.19112
  -3.87210   0.82250   2.19112
  -3.40210   0.82250   2.19112
  -2.92210   0.82250   1.71112
  -2.92210   0.82250   1.71112
  -2.92210   0.82250   1.71112
  -2.92210   0.82250   1.23112
  -2.44210   0.82250   1.23112
  -2.44210   0.82250   1.23112
  -1.96210   0.82250   0.75112
  -1.96210   0.82250   0.75112
  -1.96210   0.82250   0.75112
  -1.48210   0.82250   0.75112
  -1.48210   0.82250   0.75112
  -1.00210   0.34250   0.75112
  -1.00210   0.82250   0.27112
  -1.00210   0.34250   0.27112
  -0.52210   0.34250   0.27112
  -0.52210   0.34250   0.27112
  -0.52210   0.34250   0.27112
  -0.04210   0.34250   0.27112
  -0.04210  -0.13750   0.27112
  -0.04210  -0.13750  -0.20888
  -0.04210  -0.13750   0.27112
  -0.04210  -0.13750   0.27112
   0.43790  -0.13750  -0.20888
   0.43790  -0.13750  -0.20888
   0.43790  -0.61750  -0.20888
   0.43790  -0.61750  -0.20888
   0.43790  -0.61750   0.27112
   0.91790  -0.13750  -0.20888
   0.43790  -0.61750   0.27112
   0.91790  -0.61750   0.27112
   0.91790  -0.13750   0.27112
   0.91790  -0.13750   0.27112
   0.91790  -0.13750   0.27112
   0.91790  -0.13750   0.27112
   0.91790  -0.13750   0.27112
   0.43790  -0.13750   0.27112
   0.91790  -0.13750   0.75112
   0.91790  -0.13750   0.27112
   0.91790   0.34250   0.75112
   0.43790   0.34250   0.75112
   0.91790   0.34250   0.75112
   0.43790   0.82250   1.23112
   0.43790   0.82250   1.23112
   0.43790   0.82250   1.23112
   0.43790   0.82250   1.23112
   0.43790   0.82250   1.23112
  -0.04210   0.82250   1.23112
  -0.04210   1.29250   1.23112
  -0.04210   0.82250   1.23112
  -0.04210   0.82250   1.23112
  -0.52210   0.82250   1.23112
  -0.52210   1.29250   1.23112
  -1.00210   0.82250   1.71112
  -1.00210   0.82250   1.71112
  -1.00210   0.82250   1.71112
  -1.00210   0.82250   1.71112
  -1.00210   0.82250   1.71112
  -1.00210   0.82250   1.71112
