********************************************************************************
              CENTRO DE INSTRUMENTACION Y REGISTRO SISMICO  A.C.

    Anaxagoras 814, Col. Narvarte, Benito Juarez, C.P. 03020 Mexico, D.F.
           Tels. 5687 45 42/ 5687 45  82             Fax. 5669 25 12
********************************************************************************
ARCHIVO ESTANDAR DE ACELERACION:
VERSION DEL FORMATO                    : 2.0
NOMBRE DEL ARCHIVO                     : AL0120100630072227
FECHA Y HORA DE CREACION               : 20/JUL/10, 12:41
REF. CATALOGO ACELEROGRAMAS, SMIS 1996 : REGISTRO No.     /PAG.


================================================================================
DATOS DE LA ESTACION:
NOMBRE DE LA ESTACION                  : ALAMEDA
CLAVE DE LA ESTACION                   : AL01
LOCALIZACION DE LA ESTACION            : Del. Cuauhtémoc, Col. Centro,          
                                       : Dr. Mora entre Av. Hidalgo             
                                       : y Av. Juárez.                          
                                       :                                        
                                       : 
COORDENADAS DE LA ESTACION             : 19.4356 LAT. N
                                       : 99.1453 LONG. W
ALTITUD (msnm)                         : 2232
TIPO DE SUELO                          : Terreno blando, material compresible
                                       : (arcillas)                
                                       : 
INSTITUCION RESPONSABLE                : CIRES
                                       : 

================================================================================
DATOS DEL ACELEROGRAFO:
MODELO DEL ACELEROGRAFO                : RADESD
NUMERO DE SERIE DEL ACELEROGRAFO       : 152
NUMERO DE CANALES                      : 3
ORIENTACION C1-C6 (rumbo;orientacion)  : /N00E/+V/N90W
ORIENTACION C7-C12 (rumbo;orientacion) : 
VEL. DE MUESTREO, C1-C6 (muestras/s)   : /100/100/100
VEL. DE MUESTREO, C7-C12 (muestras/s)  : 
ESC. COMPLETA DE SENSORES, C1-C6, (g)  : /0.5/0.5/0.5
ESC. COMPLETA DE SENSORES, C7-C12, (g) : 
FREC. NAT. DE SENSORES, C1-C6, (Hz)    : /51.29/51.09/53.75
FREC. NAT. DE SENSORES, C7-C12, (Hz)   : 
AMORTIGUAMIENTO DE SENSORES, C1-C6     : /0.5519/0.5670/0.5810
AMORTIGUAMIENTO DE SENSORES, C7-C12    : 
INTERVALO DE MUESTREO, C1-C6, (s)      : /0.01/0.01/0.01
INTERVALO DE MUESTREO, C7-C12, (s)     : 
UMBRAL DE DISPARO, C1-C6, (Gal)        : /0.72/1.44/0.72
UMBRAL DE DISPARO, C7-C12, (Gal)       : 
MEMORIA DE PREEVENTO (s)               : 56.0
TIEMPO DE POSEVENTO (s)                : 64.0


================================================================================
DATOS DEL SISMO:
FECHA DEL SISMO (GMT)                  : 30/JUN/10
HORA EPICENTRO (GMT)                   : 07:22:27.0
MAGNITUD(ES)                           : /Mc=6.0
COORDENADAS DEL EPICENTRO              : 16.22 LAT. N
                                       : 98.03 LONG. W
PROFUNDIDAD FOCAL (km)                 : 8
FUENTE DE LOS DATOS EPICENTRALES       : SSN
                                       : INSTITUTO DE GEOFISICA, UNAM

================================================================================
DATOS DE ESTE REGISTRO:
HORA DE LA PRIMERA MUESTRA (GMT)       : 07:23:59.00
EXACTITUD DEL TIEMPO (s)               : 0.01
DURACION DEL REGISTRO (s), C1-C6       : /300.0/300.0/300.0
DURACION DEL REGISTRO (s), C7-C12      : 
NUM. TOTAL DE MUESTRAS, C1-C6          : /30000/30000/30000
NUM. TOTAL DE MUESTRAS, C7-C12         : 
ACEL. MAX. (Gal), C1-C6                : /10.27511/4.39966/8.67636
ACEL. MAX., C1-C6, EN LA MUESTRA       : /7898/8290/7061
ACEL. MAX. (Gal), C7-C12               : 
ACEL. MAX., C7-C12, EN LA MUESTRA      : 
UNIDADES DE LOS DATOS                  : Gal (cm/s/s)
FACTOR DE DECIMACION                   : 1
FORMATO DATOS (FORTRAN,10 campos/dato) : 3F10.5


================================================================================
CALIDAD DEL ACELEROGRAMA:
REGISTRO DIGITAL COMPLETO CON TIEMPO ABSOLUTO CORRECTO.


================================================================================
COMENTARIOS:














================================================================================
DATOS DE ACELERACION:
---------+---------+---------+---------+---------+---------+---------+---------+
   CANAL-1   CANAL-2   CANAL-3   CANAL-4   CANAL-5   CANAL-6   CANAL-7   CANAL-8
      N00E        +V      N90W
---------+---------+---------+---------+---------+---------+---------+---------+
[...]
   3.13242   1.10701  -2.21202
   2.65358   0.62817  -1.97260
   2.17474   0.62817  -1.49376
   1.69590   0.62817  -1.01492
   1.21706   0.38875  -0.53608
   0.97764   0.38875  -0.29666
   0.49880   0.14933  -0.05724
   0.25938   0.14933   0.18218
  -0.21946   0.14933   0.90044
  -0.69830  -0.32951   0.90044
  -0.69830  -0.32951   1.13986
  -1.17714  -0.56893   1.37928
  -1.41656  -0.56893   1.85812
  -1.41656  -0.80835   1.85812
  -1.65598  -0.80835   2.09754
  -1.65598  -1.04777   1.85812
  -1.89540  -1.04777   2.09754
  -1.89540  -1.28719   2.09754
  -2.13482  -1.52661   2.33696
  -1.89540  -1.52661   2.09754
  -1.89540  -1.76603   2.09754
  -1.89540  -1.76603   2.09754
  -1.89540  -1.76603   2.09754
  -1.89540  -1.76603   2.09754
  -1.89540  -2.00546   1.85812
  -1.89540  -2.00546   2.09754
  -1.89540  -2.00546   2.09754
  -1.89540  -1.76603   2.33696
  -1.89540  -1.76603   2.09754
  -1.89540  -2.00546   2.33696
  -1.89540  -1.76603   2.57638
  -1.89540  -1.76603   2.57638
  -2.13482  -1.52661   2.81580
  -2.37424  -1.52661   3.05522
  -2.37424  -1.28719   3.29464
  -2.37424  -0.80835   3.53407
  -2.61366  -0.80835   3.53407
  -2.85308  -0.80835   4.01291
  -2.85308  -0.56893   4.25233
  -3.09250  -0.56893   4.73117
  -3.09250  -0.32951   4.73117
  -3.57134  -0.09009   5.21001
  -3.81076  -0.32951   5.44943
  -4.05018  -0.09009   5.68885
  -4.28960   0.14933   5.92827
  -4.28960   0.14933   5.92827
  -4.52902   0.38875   6.16769
  -4.76844   0.38875   6.40711
  -4.76844   0.38875   6.40711
  -5.00786   0.62817   6.40711
  -5.24728   0.62817   6.40711
  -5.00786   0.62817   6.40711
  -5.00786   0.86759   6.40711
  -5.00786   0.62817   6.16769
  -5.00786   0.62817   5.92827
  -5.00786   0.86759   5.92827
  -5.00786   0.86759   5.68885
  -4.76844   0.86759   5.44943
  -4.76844   1.10701   5.21001
  -4.76844   1.10701   4.97059
  -4.52902   0.86759   4.97059
  -4.28960   1.10701   4.49175
  -4.28960   0.86759   4.49175
  -4.28960   1.10701   4.25233
  -4.05018   1.34643   4.25233
  -3.81076   1.34643   4.25233
  -3.81076   1.58585   4.25233
  -3.81076   1.58585   4.25233
  -3.57134   1.58585   4.25233
  -3.33192   1.34643   4.25233
  -3.09250   1.58585   4.25233
  -3.09250   1.34643   4.25233
  -2.85308   1.34643   4.49175
  -2.85308   1.58585   4.49175
  -2.61366   1.10701   4.49175
  -2.37424   1.10701   4.25233
  -2.13482   0.86759   4.49175
  -1.89540   0.62817   4.49175
  -1.65598   0.62817   4.25233
  -1.41656   0.14933   4.25233
  -1.17714   0.14933   4.01291
  -0.93772  -0.09009   4.01291
  -0.69830  -0.32951   4.01291
  -0.21946  -0.56893   3.77349
   0.01996  -0.56893   3.77349
   0.01996  -0.80835   3.77349
   0.25938  -0.80835   3.53407
   0.49880  -1.04777   3.29464
   0.73822  -1.04777   3.29464
   0.97764  -1.28719   3.29464
   0.97764  -1.28719   3.05522
   1.21706  -1.52661   2.81580
   1.21706  -1.28719   2.81580
   1.45648  -1.52661   2.81580
   1.45648  -1.28719   2.57638
   1.45648  -1.28719   2.33696
   1.21706  -1.28719   2.33696
   1.45648  -1.28719   2.09754
   1.21706  -1.28719   2.09754
   1.21706  -1.04777   1.85812
   1.21706  -0.80835   1.61870
   0.97764  -0.80835   1.37928
   0.97764  -0.80835   1.13986
   0.73822  -0.56893   0.90044
   0.49880  -0.32951   0.66102
   0.49880  -0.32951   0.18218
   0.25938  -0.09009  -0.05724
   0.25938   0.14933  -0.53608
   0.01996   0.14933  -0.77550
  -0.21946   0.38875  -1.49376
  -0.21946   0.38875  -1.97260
  -0.45888   0.62817  -2.45144
  -0.45888   0.62817  -2.93028
  -0.93772   0.86759  -3.16970
  -0.93772   0.86759  -3.88796
  -0.69830   0.86759  -4.36680
  -0.93772   0.86759  -4.84564
  -1.17714   1.10701  -5.08506
  -1.17714   1.10701  -5.56390
  -1.17714   1.10701  -6.04274
  -1.17714   1.10701  -6.52158
  -0.93772   1.34643  -6.52158
  -1.17714   1.34643  -7.00042
  -0.93772   1.58585  -7.23984
  -0.93772   1.34643  -7.47926
  -0.93772   1.34643  -7.47926
  -0.69830   1.58585  -7.71868
  -0.69830   1.58585  -7.71868
  -0.45888   1.82527  -7.71868
  -0.45888   1.58585  -7.95810
  -0.21946   1.58585  -7.71868
   0.01996   1.58585  -7.71868
   0.25938   1.34643  -7.47926
   0.25938   1.34643  -7.47926
   0.49880   1.34643  -7.23984
   0.49880   1.34643  -6.76100
   0.73822   1.10701  -6.52158
   0.97764   1.10701  -6.28216
   1.21706   0.86759  -5.80332
   1.21706   0.86759  -5.32448
   1.45648   0.62817  -4.84564
   1.69590   0.62817  -4.84564
   1.93532   0.38875  -4.36680
   1.93532   0.14933  -4.12738
   1.93532   0.14933  -3.64854
   2.17474  -0.09009  -3.40912
   2.17474  -0.32951  -3.16970
   2.17474  -0.56893  -2.69086
   2.17474  -0.80835  -2.45144
   2.17474  -0.80835  -2.45144
   2.41416  -0.80835  -1.97260
   2.41416  -1.04777  -1.73318
   2.41416  -1.28719  -1.73318
   2.65358  -1.28719  -1.49376
   2.65358  -1.28719  -1.25434
   2.65358  -1.52661  -1.25434
   2.65358  -1.52661  -1.25434
   2.65358  -1.52661  -1.01492
   2.89300  -1.52661  -0.77550
   2.89300  -1.52661  -0.77550
   2.89300  -1.76603  -0.53608
   2.89300  -1.52661  -0.29666
   2.89300  -1.52661  -0.29666
   2.89300  -1.52661  -0.05724
   3.13242  -1.52661  -0.05724
   3.13242  -1.52661   0.18218
   3.13242  -1.52661   0.42160
   3.37184  -1.52661   0.42160
   3.37184  -1.28719   0.42160
   3.37184  -1.28719   0.66102
   3.37184  -1.28719   0.66102
   3.13242  -1.04777   0.90044
   3.13242  -0.80835   0.90044
   2.89300  -0.80835   0.90044
   2.89300  -0.80835   1.13986
   2.89300  -0.80835   1.37928
   2.65358  -0.56893   1.37928
   2.41416  -0.56893   1.61870
   2.41416  -0.32951   1.37928
   2.17474  -0.32951   1.37928
   1.93532  -0.09009   1.61870
   1.69590   0.14933   1.37928
   1.45648   0.14933   1.61870
   1.45648   0.14933   1.37928
   1.21706   0.14933   1.13986
   0.97764   0.14933   1.13986
   0.49880   0.38875   0.90044
   0.25938   0.14933   0.66102
   0.25938   0.14933   0.66102
   0.01996   0.14933   0.42160
   0.01996   0.14933   0.18218
  -0.21946   0.38875   0.18218
  -0.45888   0.14933  -0.05724
  -0.45888   0.14933  -0.29666
  -0.69830  -0.09009  -0.29666
  -0.45888  -0.09009  -0.29666
  -0.69830  -0.09009  -0.29666
  -0.69830  -0.32951  -0.53608
  -0.69830  -0.56893  -0.53608
  -0.45888  -0.56893  -0.29666
  -0.45888  -0.80835  -0.29666
  -0.21946  -1.04777  -0.29666
  -0.45888  -1.04777  -0.29666
  -0.45888  -1.04777  -0.05724
  -0.21946  -1.28719   0.18218
  -0.21946  -1.28719   0.42160
   0.01996  -1.28719   0.66102
  -0.21946  -1.28719   0.90044
  -0.21946  -1.28719   1.13986
  -0.21946  -1.28719   1.13986
  -0.21946  -1.04777   1.37928
  -0.45888  -1.04777   1.61870
  -0.45888  -1.04777   2.09754
  -0.45888  -1.04777   2.33696
  -0.69830  -0.80835   2.33696
  -0.69830  -0.56893   2.57638
  -0.93772  -0.32951   2.81580
  -1.41656  -0.32951   3.05522
  -1.41656  -0.09009   3.05522
  -1.41656   0.14933   3.29464
  -1.89540   0.38875   3.29464
  -1.89540   0.38875   3.29464
  -1.89540   0.38875   3.05522
  -1.89540   0.62817   3.05522
  -2.13482   0.86759   2.81580
  -2.13482   0.86759   2.81580
  -2.13482   0.86759   2.33696
  -1.89540   0.86759   2.09754
  -1.89540   1.10701   1.85812
  -1.89540   1.10701   1.85812
  -1.65598   1.10701   1.61870
  -1.65598   1.10701   1.37928
  -1.41656   0.86759   1.13986
  -1.17714   0.86759   1.13986
  -0.93772   0.86759   1.13986
  -0.93772   0.86759   0.90044
  -0.69830   0.62817   0.90044
  -0.45888   0.38875   0.90044
  -0.45888   0.38875   0.90044
   0.01996   0.14933   0.90044
   0.01996   0.14933   0.90044
   0.01996  -0.09009   1.13986
   0.25938  -0.09009   1.13986
   0.49880  -0.56893   1.13986
   0.49880  -0.56893   1.13986
   0.49880  -0.56893   1.13986
   0.49880  -0.56893   1.13986
   0.49880  -0.80835   1.13986
   0.73822  -1.04777   1.13986
   0.73822  -1.04777   0.90044
   0.73822  -1.04777   0.90044
   0.73822  -1.04777   0.66102
   0.73822  -1.04777   0.66102
   0.73822  -1.04777   0.42160
   0.73822  -1.04777   0.18218
   0.49880  -0.80835  -0.05724
   0.49880  -0.80835  -0.29666
   0.49880  -0.80835  -0.53608
   0.49880  -0.56893  -0.77550
   0.25938  -0.32951  -1.01492
   0.49880  -0.32951  -1.25434
   0.49880  -0.32951  -1.73318
   0.25938   0.14933  -1.97260
   0.49880   0.38875  -2.21202
   0.25938   0.62817  -2.45144
   0.49880   0.62817  -2.69086
   0.49880   0.62817  -2.93028
   0.49880   1.10701  -3.16970
   0.25938   1.10701  -3.40912
   0.25938   1.34643  -3.40912
   0.49880   1.58585  -3.64854
   0.25938   1.82527  -3.88796
   0.25938   1.82527  -3.88796
   0.25938   2.06469  -3.88796
   0.25938   2.30411  -4.12738
   0.01996   2.54353  -4.12738
   0.25938   2.30411  -3.88796
   0.01996   2.54353  -3.88796
   0.25938   2.54353  -3.64854
   0.01996   2.54353  -3.64854
   0.25938   2.54353  -3.16970
   0.49880   2.30411  -3.16970
   0.49880   2.30411  -2.69086
   0.73822   1.82527  -2.69086
   0.73822   1.82527  -2.21202
   0.73822   1.58585  -1.97260
   0.97764   1.58585  -1.49376
   1.45648   1.10701  -1.25434
   1.45648   1.10701  -1.01492
   1.69590   0.86759  -0.53608
   1.93532   0.38875  -0.05724
   2.41416   0.14933   0.18218
   2.65358  -0.09009   0.42160
   2.89300  -0.32951   0.66102
   3.13242  -0.56893   1.13986
   3.37184  -0.56893   1.37928
   3.85068  -1.04777   1.61870
   4.09010  -1.28719   1.61870
   4.09010  -1.52661   2.09754
   4.32952  -1.76603   2.33696
   4.32952  -2.00546   2.33696
   4.56894  -2.24488   2.57638
   4.56894  -2.24488   2.57638
   4.56894  -2.48430   2.57638
   4.56894  -2.48430   2.81580
   4.56894  -2.24488   2.81580
   4.32952  -2.48430   2.57638
   4.32952  -2.24488   2.57638
   4.09010  -2.24488   2.33696
   4.09010  -2.24488   2.33696
   3.85068  -2.00546   2.09754
   3.61126  -1.76603   1.85812
   3.37184  -1.52661   1.61870
   3.13242  -1.52661   1.37928
   2.89300  -1.04777   1.37928
   2.41416  -0.80835   0.90044
   2.17474  -0.32951   0.90044
   1.69590  -0.09009   0.42160
   1.45648   0.14933   0.42160
   0.97764   0.38875  -0.05724
   0.49880   0.86759  -0.29666
   0.25938   1.58585  -0.29666
  -0.21946   1.58585  -0.53608
  -0.69830   1.82527  -0.77550
  -1.17714   2.06469  -1.01492
  -1.65598   2.30411  -1.01492
  -2.37424   2.54353  -1.01492
  -2.85308   2.54353  -1.25434
  -3.33192   2.54353  -1.49376
  -3.81076   2.78295  -1.73318
  -4.28960   2.78295  -1.49376
  -5.00786   2.78295  -1.73318
  -5.48670   2.78295  -1.73318
  -5.96554   2.54353  -1.97260
  -6.44438   2.54353  -1.97260
  -6.92323   2.54353  -1.97260
  -7.40207   2.30411  -1.97260
  -7.88091   2.30411  -1.97260
  -8.12033   2.06469  -1.97260
  -8.83859   1.82527  -1.73318
  -9.07801   1.82527  -1.73318
  -9.31743   1.82527  -1.49376
  -9.55685   1.58585  -1.25434
  -9.79627   1.10701  -1.01492
 -10.03569   1.10701  -0.77550
 -10.03569   0.86759  -0.53608
 -10.27511   0.62817  -0.05724
 -10.27511   0.38875   0.18218
 -10.03569   0.14933   0.42160
 -10.03569   0.14933   0.66102
  -9.79627  -0.09009   1.13986
  -9.55685  -0.32951   1.61870
  -9.31743  -0.56893   1.85812
  -8.83859  -0.56893   2.09754
  -8.35975  -0.80835   2.33696
  -7.88091  -1.04777   2.57638
  -7.40207  -1.04777   2.81580
  -7.16265  -1.52661   2.81580
  -6.68380  -1.52661   2.81580
  -6.20496  -1.76603   2.81580
  -5.72612  -1.76603   2.81580
  -5.24728  -2.00546   2.81580
  -4.52902  -2.24488   2.81580
  -4.52902  -2.24488   2.57638
  -3.81076  -2.48430   2.57638
  -3.57134  -2.48430   2.33696
  -3.09250  -2.72372   2.09754
  -2.85308  -2.48430   1.85812
  -2.61366  -2.48430   1.85812
  -2.13482  -2.72372   1.37928
  -1.89540  -2.48430   1.13986
  -1.65598  -2.72372   0.90044
  -1.41656  -2.24488   0.66102
  -1.17714  -2.24488   0.66102
  -1.17714  -2.24488   0.42160
  -0.93772  -2.00546   0.18218
  -1.17714  -1.52661   0.18218
  -1.17714  -1.28719  -0.05724
  -0.93772  -1.04777  -0.05724
  -0.93772  -1.04777  -0.05724
  -1.17714  -0.56893  -0.05724
  -1.17714  -0.09009  -0.05724
  -1.17714  -0.09009  -0.05724
  -0.93772   0.14933  -0.05724
  -1.17714   0.38875  -0.05724
  -1.17714   0.62817   0.18218
  -1.17714   0.62817   0.18218
  -0.93772   0.86759   0.18218
  -0.93772   0.86759   0.42160
  -0.93772   0.86759   0.42160
  -0.69830   1.10701   0.66102
  -0.45888   0.86759   0.66102
  -0.21946   0.86759   0.90044
   0.01996   0.86759   1.13986
   0.01996   0.86759   1.37928
   0.49880   0.86759   1.37928
   0.73822   0.62817   1.61870
   1.21706   0.62817   1.61870
   1.45648   0.62817   1.85812
   1.69590   0.62817   1.85812
   2.17474   0.38875   1.85812
   2.41416   0.62817   2.09754
   2.65358   0.62817   1.85812
   3.13242   0.62817   2.09754
   3.61126   0.62817   2.09754
   3.85068   0.62817   2.09754
   4.32952   0.62817   1.85812
   4.32952   0.62817   1.85812
   4.56894   0.86759   1.85812
   5.04778   0.86759   1.61870
   5.28720   0.86759   1.37928
   5.52662   1.10701   1.37928
   5.76604   1.10701   1.13986
   5.76604   1.34643   0.90044
   6.00546   1.34643   0.66102
   6.24488   1.34643   0.42160
   6.48430   1.34643  -0.05724
   6.72372   1.34643  -0.29666
   6.48430   1.58585  -0.53608
   6.72372   1.58585  -0.53608
   6.72372   1.58585  -1.01492
   6.96314   1.34643  -1.25434
   6.72372   1.10701  -1.25434
   6.96314   1.10701  -1.73318
   6.96314   0.86759  -1.73318
   6.96314   0.86759  -1.97260
   6.72372   0.86759  -1.97260
   6.72372   0.62817  -1.97260
   6.72372   0.62817  -1.97260
   6.72372   0.38875  -1.97260
   6.48430   0.14933  -1.97260
   6.48430   0.14933  -1.97260
   6.48430  -0.32951  -1.97260
   6.48430  -0.32951  -1.73318
   6.48430  -0.56893  -1.49376
   6.48430  -0.56893  -1.25434
   6.48430  -0.56893  -1.01492
   6.72372  -0.80835  -1.01492
   6.48430  -1.04777  -0.77550
   6.48430  -1.04777  -0.77550
   6.72372  -1.04777  -0.53608
   6.72372  -1.28719  -0.29666
   6.48430  -1.04777  -0.05724
   6.72372  -1.28719  -0.05724
   6.72372  -1.52661  -0.05724
   6.72372  -1.52661  -0.05724
   6.72372  -1.52661   0.18218
   6.72372  -1.52661   0.18218
   6.72372  -1.52661   0.18218
   6.72372  -1.76603  -0.05724
   6.48430  -2.00546  -0.05724
   6.48430  -1.76603  -0.05724
   6.48430  -1.76603  -0.29666
   6.48430  -2.00546  -0.29666
   6.24488  -2.00546  -0.53608
   6.24488  -2.24488  -0.53608
   6.00546  -2.00546  -0.77550
   5.28720  -2.00546  -0.53608
   5.28720  -2.00546  -0.77550
   4.80836  -1.76603  -1.01492
   4.56894  -2.00546  -1.01492
   4.09010  -1.52661  -1.01492
   3.61126  -1.28719  -1.01492
   3.13242  -1.28719  -1.01492
   2.89300  -1.28719  -1.01492
   2.17474  -1.04777  -1.25434
   1.69590  -1.04777  -1.25434
   0.97764  -0.56893  -1.25434
   0.49880  -0.56893  -1.49376
  -0.21946  -0.56893  -1.49376
  -0.93772  -0.32951  -1.49376
  -1.65598  -0.32951  -1.49376
  -2.13482  -0.09009  -1.73318
  -2.85308  -0.09009  -1.73318
  -3.57134   0.14933  -1.73318
  -4.28960   0.14933  -1.97260
  -4.76844   0.38875  -1.97260
  -5.24728   0.38875  -1.97260
  -6.20496   0.14933  -2.21202
  -6.44438   0.38875  -2.45144
  -6.92323   0.62817  -2.45144
  -7.40207   0.38875  -2.69086
  -7.64149   0.62817  -2.45144
  -7.88091   0.62817  -2.69086
  -8.12033   0.62817  -2.69086
  -8.35975   0.62817  -2.69086
  -8.35975   1.10701  -2.93028
  -8.12033   0.86759  -2.69086
  -8.12033   0.86759  -2.69086
  -8.12033   0.86759  -2.93028
  -7.64149   0.86759  -2.69086
  -7.40207   0.86759  -2.45144
  -6.92323   0.62817  -2.45144
  -6.68380   0.86759  -2.21202
  -5.96554   0.86759  -1.97260
  -5.72612   0.86759  -1.73318
