********************************************************************************
              CENTRO DE INSTRUMENTACION Y REGISTRO SISMICO  A.C.

    Anaxagoras 814, Col. Narvarte, Benito Juarez, C.P. 03020 Mexico, D.F.
           Tels. 5687 45 42/ 5687 45  82             Fax. 5669 25 12
********************************************************************************
ARCHIVO ESTANDAR DE ACELERACION:
VERSION DEL FORMATO                    : 2.0
NOMBRE DEL ARCHIVO                     : AL0120130616051902
FECHA Y HORA DE CREACION               : 20/OCT/17, 13:29
REF. CATALOGO ACELEROGRAMAS, SMIS 1996 : REGISTRO No.     /PAG.


================================================================================
DATOS DE LA ESTACION:
NOMBRE DE LA ESTACION                  : ALAMEDA
CLAVE DE LA ESTACION                   : AL01
LOCALIZACION DE LA ESTACION            : Del. Cuauhtémoc, Col. Centro,          
                                       : Dr. Mora entre Av. Hidalgo             
                                       : y Av. Juárez.                          
                                       :                                        
                                       : 
COORDENADAS DE LA ESTACION             : 19.4356 LAT. N
                                       : 99.1453 LONG. W
ALTITUD (msnm)                         : 2232
TIPO DE SUELO                          : Terreno blando, material compresible
                                       : (arcillas)                
                                       : 
INSTITUCION RESPONSABLE                : CIRES
                                       : 

================================================================================
DATOS DEL ACELEROGRAFO:
MODELO DEL ACELEROGRAFO                : RADESD
NUMERO DE SERIE DEL ACELEROGRAFO       : 152
NUMERO DE CANALES                      : 3
ORIENTACION C1-C6 (rumbo;orientacion)  : /S00E/+V/N90W
ORIENTACION C7-C12 (rumbo;orientacion) : 
VEL. DE MUESTREO, C1-C6 (muestras/s)   : /100/100/100
VEL. DE MUESTREO, C7-C12 (muestras/s)  : 
ESC. COMPLETA DE SENSORES, C1-C6, (g)  : /0.5/0.5/0.5
ESC. COMPLETA DE SENSORES, C7-C12, (g) : 
FREC. NAT. DE SENSORES, C1-C6, (Hz)    : /51.29/51.09/53.75
FREC. NAT. DE SENSORES, C7-C12, (Hz)   : 
AMORTIGUAMIENTO DE SENSORES, C1-C6     : /0.5519/0.5670/0.5810
AMORTIGUAMIENTO DE SENSORES, C7-C12    : 
INTERVALO DE MUESTREO, C1-C6, (s)      : /0.01/0.01/0.01
INTERVALO DE MUESTREO, C7-C12, (s)     : 
UMBRAL DE DISPARO, C1-C6, (Gal)        : /0.9/1.8/0.9
UMBRAL DE DISPARO, C7-C12, (Gal)       : 
MEMORIA DE PREEVENTO (s)               : 44.0
TIEMPO DE POSEVENTO (s)                : 69.0


================================================================================
DATOS DEL SISMO:
FECHA DEL SISMO (GMT)                  : 16/JUN/13
HORA EPICENTRO (GMT)                   : 05:19:02.0
MAGNITUD(ES)                           : /Mc=5.8
COORDENADAS DEL EPICENTRO              : 18.11 LAT. N
                                       : 99.22 LONG. W
PROFUNDIDAD FOCAL (km)                 : 55
FUENTE DE LOS DATOS EPICENTRALES       : SSN
                                       : INSTITUTO DE GEOFISICA, UNAM

================================================================================
DATOS DE ESTE REGISTRO:
HORA DE LA PRIMERA MUESTRA (GMT)       : 05:19:24.00
EXACTITUD DEL TIEMPO (s)               : 0.01
DURACION DEL REGISTRO (s), C1-C6       : /261.2/261.2/261.2
DURACION DEL REGISTRO (s), C7-C12      : 
NUM. TOTAL DE MUESTRAS, C1-C6          : /26120/26120/26120
NUM. TOTAL DE MUESTRAS, C7-C12         : 
ACEL. MAX. (Gal), C1-C6                : /22.58816/10.73765/25.79714
ACEL. MAX., C1-C6, EN LA MUESTRA       : /6797/7483/6638
ACEL. MAX. (Gal), C7-C12               : 
ACEL. MAX., C7-C12, EN LA MUESTRA      : 
UNIDADES DE LOS DATOS                  : Gal (cm/s/s)
FACTOR DE DECIMACION                   : 1
FORMATO DATOS (FORTRAN,10 campos/dato) : 3F10.5


================================================================================
CALIDAD DEL ACELEROGRAMA:
REGISTRO DIGITAL COMPLETO CON TIEMPO ABSOLUTO CORRECTO.


================================================================================
COMENTARIOS:














================================================================================
DATOS DE ACELERACION:
---------+---------+---------+---------+---------+---------+---------+---------+
   CANAL-1   CANAL-2   CANAL-3   CANAL-4   CANAL-5   CANAL-6   CANAL-7   CANAL-8
      S00E        +V      N90W
---------+---------+---------+---------+---------+---------+---------+---------+
[...]
  -2.79037  -0.96632  -6.56871
  -1.54838  -0.69697  -7.13733
  -0.36624  -0.38273  -7.36179
   0.84582  -0.38273  -7.52639
   2.10278  -0.69697  -7.67602
   3.37470  -1.29552  -7.76581
   4.66158  -1.86414  -7.70595
   6.08314  -2.20831  -7.58624
   7.62440  -2.31305  -7.48150
   9.09085  -1.87911  -7.46653
  10.52737  -1.17581  -7.64610
  11.70951  -0.29295  -8.03515
  12.36792   0.63481  -8.03515
  12.77194   1.18847  -8.13990
  12.65223   1.65234  -8.22968
  12.29310   1.86183  -8.09501
  11.76937   2.17607  -8.24465
  11.26060   2.49031  -8.42421
  10.72190   2.89433  -8.90305
  10.33284   2.93923  -9.65124
  10.16824   2.59506 -10.35454
  10.15328   1.77205 -11.08776
  10.28795   0.85926 -11.38704
  10.55730  -0.11338 -11.64142
  11.05110  -1.11595 -11.50675
  11.51498  -1.60976 -10.95309
  12.41281  -1.89407 -10.51914
  13.16100  -1.78932  -9.78591
  13.99897  -1.51998  -9.56146
  14.83694  -0.86157  -9.27715
  15.60009  -0.26302  -9.29211
  16.46799   0.21582  -9.29211
  17.47056   0.24575  -9.26218
  18.36838   0.18589  -9.11255
  19.25125  -0.06849  -9.05269
  19.90965  -0.32287  -9.02276
  20.37353  -0.26302  -8.79831
  20.56806  -0.21813  -8.45414
  20.53813  -0.21813  -7.85559
  20.35856  -0.78675  -7.34682
  19.81987  -1.56487  -6.80813
  19.31110  -2.59737  -6.73331
  18.56291  -3.24081  -6.56871
  17.84465  -3.61490  -7.01762
  17.00668  -3.62987  -7.37675
  16.19864  -3.40541  -7.33186
  15.37563  -3.00139  -7.18222
  14.58255  -2.28313  -6.59863
  13.68473  -1.59479  -5.70081
  12.72705  -1.01121  -4.69824
  11.76937  -0.59222  -3.41135
  10.72190  -0.32287  -2.27411
   9.79415  -0.18820  -1.15183
   8.88136   0.08115  -0.23904
   8.38756   0.38042   0.46426
   7.89375   0.96401   1.33216
   7.59448   1.39796   2.24495
   7.19045   2.05636   3.50190
   6.72658   2.53520   4.72893
   6.15796   2.83448   6.16545
   5.67911   2.99908   7.24284
   5.06560   2.89433   8.20053
   4.70647   3.19361   8.61951
   4.18274   3.41807   8.93375
   3.80864   3.61259   8.84397
   3.46448   3.74727   8.51476
   2.95571   3.64252   8.11074
   2.62651   3.38814   7.58701
   2.07285   3.32828   6.98846
   1.59401   3.01404   6.46473
   1.13013   2.44542   5.79136
   0.83086   1.77205   5.38734
   0.89071   1.29321   4.74390
   1.01042   1.08372   4.41469
   1.30970   1.44285   4.16031
   1.69875   1.56256   4.14535
   2.07285   1.74212   4.23513
   2.41702   1.33810   4.38477
   2.62651   0.78444   4.69901
   2.65644  -0.05353   5.01324
   2.62651  -0.74186   5.16288
   2.43198  -1.65465   5.53698
   2.07285  -2.34298   6.07567
   1.80350  -2.73204   6.74904
   1.45933  -2.71708   7.61694
   1.16006  -2.70211   8.63447
   0.96553  -2.92657   9.75676
   0.78597  -3.30066  10.68451
   0.63633  -3.88425  11.62723
   0.65129  -4.03389  12.30060
   0.59144  -4.01892  12.55498
   0.53158  -3.65979  12.46520
   0.29216  -2.89664  12.22578
  -0.21661  -2.10356  11.58233
  -0.84508  -1.26559  10.83415
  -1.74291  -0.74186   9.81661
  -2.65570  -0.36777   8.76915
  -3.61338  -0.42762   7.43737
  -4.49624  -0.63711   6.07567
  -5.42400  -0.93639   4.65411
  -6.38168  -1.16085   3.14277
  -7.48899  -1.17581   1.63143
  -8.82077  -0.92143   0.06024
 -10.27225  -0.81668  -1.45110
 -11.67885  -0.66704  -2.57338
 -13.17522  -0.75682  -3.21682
 -14.50700  -0.80171  -3.41135
 -15.76395  -0.89150  -3.23179
 -16.78149  -0.83164  -2.84273
 -17.81399  -0.75682  -2.03469
 -18.68189  -0.53237  -1.09197
 -19.25051  -0.15827   0.07520
 -19.56475   0.55999   1.28727
 -19.59468   1.42789   2.31977
 -19.37022   2.34067   3.17270
 -18.90634   3.17865   3.84607
 -18.36765   3.88194   4.48951
 -17.72421   4.45056   4.86361
 -17.29026   4.82466   5.25266
 -16.82638   5.04912   5.71654
 -16.42236   5.16883   6.09063
 -16.18294   5.31846   6.37495
 -15.79388   5.46810   6.34502
 -15.44971   5.33343   6.09063
 -15.13548   5.06408   5.61179
 -14.83620   4.74984   4.93843
 -14.91102   4.07647   4.10045
 -15.22526   3.55274   3.29241
 -15.65921   2.80455   2.51430
 -16.25776   1.96658   1.94567
 -16.67674   0.97897   1.61647
 -17.03587   0.08115   1.67633
 -16.87127  -0.86157   1.61647
 -16.55703  -1.86414   1.61647
 -16.07819  -2.98642   1.46683
 -15.67417  -3.89921   1.34712
 -15.25519  -4.81200   1.21245
 -14.80627  -5.66494   1.19749
 -14.26758  -6.48794   1.27230
 -13.54932  -7.23613   1.46683
 -12.77120  -7.70001   1.72122
 -11.70877  -7.80475   1.90078
 -10.39196  -7.52044   1.97560
  -8.92552  -7.08649   2.03546
  -7.33936  -6.45802   1.88582
  -5.73823  -5.75472   1.61647
  -4.34660  -4.84193   1.13763
  -3.05972  -3.86929   0.35951
  -1.86262  -3.10613  -0.55327
  -0.63559  -2.74700  -1.55585
   0.59144  -2.32802  -2.49856
   1.90825  -1.90903  -3.30661
   2.91082  -1.50501  -4.06976
   3.77872  -0.87653  -4.48874
   4.19770  -0.21813  -4.74313
   4.06303   0.54502  -4.87780
   3.65901   1.08372  -4.99751
   3.04549   1.45781  -5.14715
   2.34220   1.41292  -5.56613
   1.75861   0.96401  -5.95519
   1.26481   0.36546  -6.58367
   0.96553   0.05122  -6.92784
   0.87575  -0.05353  -7.09244
   0.92064   0.05122  -6.86798
   0.92064   0.35049  -6.44900
   0.93560   0.82933  -5.76066
   0.92064   1.36803  -5.13219
   0.99546   1.95162  -4.51867
   1.10020   2.90930  -4.06976
   1.35459   3.89691  -3.50114
   1.83343   5.03415  -2.93251
   2.46191   6.08161  -2.45367
   3.18017   7.00937  -2.07958
   3.91339   7.66777  -1.90001
   4.63165   8.05683  -2.19929
   5.36488   7.96705  -2.82777
   6.03825   7.74259  -3.72559
   6.36745   7.12908  -4.78802
   6.81636   6.41082  -5.71577
   7.17549   5.64767  -6.58367
   7.60944   5.06408  -7.19718
   8.28281   4.48049  -7.85559
   9.04596   3.77720  -8.34939
   9.71933   3.07390  -8.88809
  10.46752   2.71477  -9.09758
  11.26060   2.50528  -9.44175
  11.91900   2.20600  -9.54649
  12.42777   1.72716  -9.47168
  12.71208   1.05379  -9.27715
  12.69712   0.32057  -9.03773
  12.42777  -0.14331  -8.79831
  11.91900  -0.63711  -8.58881
  11.27556  -1.02617  -8.40925
  10.57226  -1.14588  -8.10997
  10.06350  -0.93639  -8.00523
   9.56969  -0.51740  -7.88552
   9.27042   0.00633  -7.85559
   9.03100   0.45524  -8.03515
   8.77661   0.87423  -8.43918
   8.55216   1.33810  -8.91802
   8.25288   1.81694  -9.32204
   7.75908   2.02644  -9.66620
   7.25031   2.07133  -9.74102
   6.69665   1.96658  -9.63628
   6.23277   1.93665  -9.33700
   5.93350   2.08629  -8.81327
   5.63422   2.32571  -8.25961
   5.26013   2.29578  -7.46653
   4.88604   1.87680  -6.83805
   4.46705   1.35307  -6.11979
   3.92835   0.35049  -5.61103
   3.41959  -0.57726  -4.93766
   3.06046  -1.28056  -4.32414
   2.80607  -2.01378  -3.65077
   2.76118  -2.58240  -2.48360
   2.62651  -3.16599  -1.03212
   2.37212  -3.34555   0.43433
   2.08781  -3.40541   2.21502
   1.66883  -3.45030   4.02564
   1.18999  -3.43534   5.52201
   1.17502  -3.54008   6.67422
   1.38452  -3.68972   7.70672
   2.22249  -3.74958   8.03592
   3.44951  -3.86929   8.14067
   5.11049  -4.06381   8.02096
   6.74154  -4.12367   7.61694
   8.19303  -3.88425   7.16803
   9.30034  -3.55505   6.85379
  10.18321  -3.09117   6.71911
  10.88650  -3.09117   6.59940
  11.29052  -3.15103   6.49466
  11.57484  -3.25577   6.21034
  11.58980  -3.24081   6.03078
  11.32045  -3.00139   5.82129
  10.57226  -2.73204   5.31252
   9.52480  -2.16342   5.20777
   8.07332  -1.90903   4.84864
   6.53205  -1.81925   4.81872
   5.06560  -2.05867   4.57930
   3.62908  -2.31305   4.59426
   2.40205  -2.47766   4.48951
   1.44437  -2.37291   4.66908
   0.65129  -2.23824   5.02821
   0.03778  -1.84918   5.76143
  -0.57574  -1.20574   6.49466
  -1.26407  -0.63711   7.16803
  -2.22175  -0.15827   7.75161
  -3.10461   0.03626   8.03592
  -4.06229   0.17093   8.09578
  -4.73566   0.38042   8.02096
  -5.18458   0.57495   7.84139
  -5.63349   0.69466   7.69176
  -5.85794   0.54502   7.39248
  -6.26197   0.42531   7.28774
  -6.77073   0.39539   6.98846
  -7.50396   0.76948   6.86875
  -8.32696   1.24832   6.61437
  -9.16494   1.95162   6.40487
 -10.21240   2.58009   6.28516
 -10.96059   3.19361   6.22531
 -11.99309   3.71734   6.25524
 -12.69638   4.31589   5.82129
 -13.44457   5.00422   5.58187
 -13.90845   5.19875   5.23770
 -14.22269   5.24364   4.83368
 -14.17780   4.82466   4.80375
 -13.98327   4.12136   4.80375
 -13.69895   3.41807   5.20777
 -13.30990   2.65491   5.74647
 -13.11537   1.99651   6.33006
 -13.02559   1.38299   6.98846
 -13.20515   0.85926   7.63190
 -13.30990   0.17093   8.08082
 -13.26501  -0.63711   8.55966
 -12.96573  -1.28056   8.69433
 -12.26243  -1.98385   8.58958
 -11.18504  -2.47766   8.52973
  -9.89816  -3.04628   8.30527
  -8.46164  -3.62987   8.03592
  -7.07001  -4.01892   7.60197
  -5.63349  -4.36309   7.37752
  -4.13711  -4.66237   7.00342
  -2.71555  -4.55762   6.88371
  -1.39874  -4.40798   6.80890
  -0.05201  -3.68972   6.59940
   1.36955  -2.91161   6.25524
   2.56665  -1.99882   5.79136
   3.83857  -1.04114   5.23770
   5.00575  -0.29295   4.57930
   6.32256   0.39539   4.14535
   7.47477   1.05379   3.90593
   8.77661   1.33810   3.92089
   9.88393   1.57752   3.93585
  10.91643   1.41292   4.22016
  11.66462   1.32314   4.59426
  12.39784   0.85926   4.96835
  12.78690   0.38042   5.32748
  13.11610  -0.18820   5.49208
  13.37049  -0.86157   5.80632
  13.63984  -1.37034   6.21034
  14.17853  -1.53494   6.33006
  14.85190  -1.34041   6.65926
  15.80958  -1.13092   6.97350
  16.85704  -1.13092   7.42241
  17.91947  -0.93639   7.79650
  18.86219  -0.98128   7.97607
  19.44577  -0.98128   7.99103
  19.67023  -1.04114   7.69176
  19.59541  -1.13092   7.28774
  19.14650  -1.16085   6.53955
  18.47313  -0.89150   5.65669
  17.45559  -0.65208   4.50448
  16.33331  -0.33784   3.06796
  14.95665  -0.26302   1.31720
  13.40042  -0.33784  -0.61313
  11.52995  -0.35280  -2.60331
   9.55473  -0.48748  -4.69824
   7.62440  -0.44258  -6.77820
   5.69408  -0.29295  -8.84320
   3.73383   0.02129 -10.62389
   1.78854   0.23078 -12.18012
  -0.08193   0.45524 -13.24254
  -1.96737   0.53006 -14.06555
  -3.76302   0.60488 -14.54439
  -5.48385   0.75452 -15.06812
  -6.87548   1.05379 -15.42725
  -7.84812   1.48774 -15.84624
  -8.32696   1.81694 -16.35501
  -8.43171   2.17607 -17.11816
  -8.25215   2.34067 -18.13569
  -8.26711   2.34067 -19.15323
  -8.43171   2.19104 -19.84156
  -9.00033   1.77205 -20.32040
  -9.94305   1.48774 -20.70946
 -11.15512   1.26328 -20.91895
 -12.45696   1.14357 -21.26312
 -13.71392   1.11365 -21.60729
 -14.79131   1.02386 -22.07116
 -15.64424   0.85926 -22.63979
 -16.27272   0.55999 -23.28323
 -16.76653   0.30560 -23.89674
 -17.17055   0.14100 -24.54018
 -17.70924   0.17093 -24.91428
 -18.27787   0.58991 -25.30333
 -18.99613   0.94904 -25.54275
 -19.63957   1.12861 -25.75225
 -20.35783   0.93408 -25.79714
 -20.85163   0.66473 -25.60261
 -21.12098   0.09611 -24.91428
 -21.25565  -0.50244 -23.76207
 -21.22573  -0.89150 -22.28065
 -20.98631  -0.96632 -20.47004
 -20.50747  -0.65208 -18.56964
 -19.78921  -0.02360 -16.59443
 -18.56218   0.61984 -14.61921
 -17.00595   1.12861 -12.52428
 -15.07562   1.36803 -10.50418
 -12.87595   1.15854  -8.60378
 -10.58649   0.79941  -6.95776
  -8.31200   0.33553  -5.43146
  -6.26197  -0.05353  -4.11465
  -4.48128  -0.24806  -2.85769
  -2.88016  -0.48748  -1.63067
  -1.33889  -0.60719  -0.58320
   0.17245  -0.60719   0.32959
   1.80350  -0.75682   1.09274
   3.44951  -0.81668   1.84093
   5.03567  -0.80171   2.66393
   6.51709  -0.75682   3.47198
   7.60944  -0.62215   4.33987
   8.29777  -0.56229   5.29756
   8.62698  -0.62215   6.18042
   8.88136  -0.78675   6.89868
   9.19560  -0.92143   7.73665
   9.55473  -1.22070   8.51476
  10.22810  -1.63969   9.32281
  11.09600  -2.14845  10.14581
  11.97886  -2.58240  11.02868
  12.93654  -2.83679  11.88161
  13.60991  -2.92657  12.80936
  14.07378  -2.92657  13.64733
  14.22342  -3.09117  14.64991
  14.32817  -3.36052  15.51780
  14.40299  -3.74958  16.25103
  14.58255  -4.28827  17.05907
  14.62744  -4.60251  17.76237
  14.73219  -4.61747  18.45070
  14.64241  -4.01892  19.10911
  14.43291  -2.91161  19.72262
  14.04386  -1.57983  20.18650
  13.52013  -0.12835  20.39599
  12.93654   1.41292  20.51570
  12.27813   2.66988  20.45584
  11.61973   3.67245  20.02190
  10.79672   4.57028  19.21385
  10.01861   5.34839  18.01675
   9.27042   6.05169  16.55030
   8.43245   6.72506  14.99407
   7.63937   7.30864  13.58748
   6.69665   7.42835  12.55498
   5.76890   7.15901  11.67212
   4.55683   6.91959  11.10349
   3.35973   6.48564  10.54984
   2.10278   5.99183  10.31042
   1.08524   5.46810  10.08596
   0.44180   4.85459  10.08596
   0.02281   4.22611  10.08596
  -0.24653   3.79216  10.13085
  -0.38121   3.38814  10.01114
  -0.75530   3.10383   9.99618
  -1.27903   3.05894  10.05603
  -1.92248   3.10383  10.17574
  -2.62577   3.07390  10.38523
  -3.11958   3.04397  10.47502
  -3.50863   2.81952  10.57976
  -3.71813   2.69980  10.80422
  -3.83784   2.44542  10.99875
  -4.04733   2.19104  11.10349
  -4.27179   1.75709  10.81918
  -4.46631   1.53263  10.62465
  -4.64588   1.29321  10.17574
  -4.90026   1.26328   9.80165
  -5.16961   1.27825   9.38266
  -5.33421   0.85926   8.73922
  -5.58860   0.39539   8.30527
  -5.76816  -0.47251   7.63190
  -5.87291  -1.43019   7.16803
  -5.94773  -2.61233   6.71911
  -5.91780  -3.76454   6.37495
  -5.82802  -4.81200   5.98589
  -5.64845  -5.63501   5.56690
  -5.57363  -6.26349   5.19281
  -5.75320  -6.74233   4.75886
  -5.84298  -7.20620   4.35484
  -5.94773  -7.53541   4.20520
  -5.91780  -7.71497   4.20520
  -5.73823  -7.90950   4.19024
  -5.34918  -7.83468   4.41469
  -4.67581  -7.67008   4.39973
  -3.89769  -7.40073   4.35484
  -3.11958  -7.25110   4.22016
  -2.35642  -7.22117   3.89096
  -1.71298  -7.32591   3.56176
  -1.09947  -7.37081   3.21759
  -0.53085  -7.19124   2.91832
  -0.00711  -7.04160   2.75372
   0.50165  -6.38320   2.84350
   0.99546  -5.75472   2.93328
   1.36955  -5.00653   2.99314
   1.77357  -4.51273   3.05299
   2.11774  -4.12367   2.81357
   2.32723  -3.67476   2.45444
   2.47687  -3.12110   1.67633
   2.29731  -2.56744   0.76354
   1.93817  -1.95392  -0.22407
   1.39948  -1.14588  -1.19672
   0.75604  -0.33784  -2.49856
  -0.03704   0.33553  -3.71063
  -0.78523   0.72459  -5.04240
  -1.60824   0.97897  -6.41907
  -2.26664   0.94904  -8.00523
  -2.94001   1.00890  -9.60635
  -3.40389   0.84430 -10.96805
  -3.95755   0.99394 -12.44946
  -4.19697   1.03883 -13.87102
  -4.46631   1.08372 -15.15790
  -4.72070   1.09868 -16.08566
  -4.99005   0.94904 -16.80392
  -5.27436   1.15854 -17.52218
  -5.94773   1.51767 -18.00102
  -6.62110   1.92169 -18.36015
  -7.39921   2.65491 -18.59957
  -8.16236   3.40310 -18.80906
  -8.68610   4.19618 -18.73424
  -9.03026   5.18379 -18.56964
  -9.19486   6.11154 -18.37511
  -9.35946   6.90462 -18.31526
  -9.49414   7.42835 -18.10577
  -9.77845   7.75756 -18.19555
 -10.22736   7.98201 -18.12073
 -10.67628   7.77252 -18.36015
 -11.14015   7.53310 -18.42000
 -11.70877   6.85973 -18.47986
 -12.30733   6.39585 -18.42000
 -12.83106   5.84219 -18.28533
 -13.20515   5.58781 -17.59700
 -13.23508   5.19875 -16.74406
 -12.93580   4.83962 -15.98091
 -12.14272   4.49546 -15.15790
 -10.97555   4.10640 -14.63417
  -9.37443   3.65749 -14.40972
  -7.36928   3.13375 -14.40972
  -5.07983   2.68484 -14.52943
  -2.38635   1.96658 -14.46957
   0.42683   1.26328 -14.18526
   3.28491   0.63481 -14.02066
