********************************************************************************
               CENTRO DE INSTRUMENTACION Y REGISTRO SISMICO  A.C.  
                       Coordinacion de Servicios Tecnicos
     Anaxagoras 814, Col. Narvarte, Benito Juarez, C.P. 03020 Mexico, D.F.
            Tels. 667 45 42/ 687 45  82             Fax. 669 25 12
********************************************************************************
ARCHIVO ESTANDAR DE ACELERACION:
VERSION DEL FORMATO                    : 2.0
NOMBRE DEL ARCHIVO                     : AL010007.221
FECHA Y HORA DE CREACION               : 02/JUL/04, 12:18
REF. CATALOGO ACELEROGRAMAS, SMIS 1996 : REGISTRO No.     /PAG.


================================================================================
DATOS DE LA ESTACION:
NOMBRE DE LA ESTACION                  : ALAMEDA
CLAVE DE LA ESTACION                   : AL01
LOCALIZACION DE LA ESTACION            : JARDIN ALAMEDA ENTRE AV. HIDALGO Y AV.
                                       : JUAREZ, CENTRO
                                       :
                                       :
                                       :
COORDENADAS DE LA ESTACION             : 19.436 LAT. N 
                                       : 99.145 LONG. W 
ALTITUD (msnm)                         : 2232
TIPO DE SUELO                          : TERRENO BLANDO, MATERIAL COMPRESIBLE
                                       : (ARCILLAS)
                                       : 
INSTITUCION RESPONSABLE                : CIRES 
                                       :

================================================================================
DATOS DEL ACELEROGRAFO:
MODELO DEL ACELEROGRAFO                : SSA-1
NUMERO DE SERIE DEL ACELEROGRAFO       : 152
NUMERO DE CANALES                      : 3
ORIENTACION C1-C6 (rumbo;orientacion)  : /N00E/+V/N90E
ORIENTACION C7-C12 (rumbo;orientacion) :
VEL. DE MUESTREO, C1-C6 (muestras/s)   : /200/200/200
VEL. DE MUESTREO, C7-C12 (muestras/s)  :
ESC. COMPLETA DE SENSORES, C1-C6, (g)  : /2/2/2
ESC. COMPLETA DE SENSORES, C7-C12, (g) :
FREC. NAT. DE SENSORES, C1-C6, (Hz)    : /51.29/51.09/53.75
FREC. NAT. DE SENSORES, C7-C12, (Hz)   :
AMORTIGUAMIENTO DE SENSORES, C1-C6     : /.5519/.5670/.5810
AMORTIGUAMIENTO DE SENSORES, C7-C12    :
INTERVALO DE MUESTREO, C1-C6, (s)      : /0.005/0.005/0.005
INTERVALO DE MUESTREO, C7-C12, (s)     :
UMBRAL DE DISPARO, C1-C6, (Gal)        : /2/1.5/2
UMBRAL DE DISPARO, C7-C12, (Gal)       :
MEMORIA DE PREEVENTO (s)               : 15
TIEMPO DE POSEVENTO (s)                : 60


================================================================================
DATOS DEL SISMO:
FECHA DEL SISMO (GMT)                  : 21/JUL/00
HORA EPICENTRO (GMT)                   : 06:13:39,7
MAGNITUD(ES)                           : /Mb=5.4/Ms=5.1/Mc=5.4/Ma=5.5/Me=6.0
COORDENADAS DEL EPICENTRO              : 18.09 LAT. N
                                       : 98.97 LONG. W
PROFUNDIDAD FOCAL (km)                 : 48
FUENTE DE LOS DATOS EPICENTRALES       : SSN
                                       : INSTITUTO DE GEOFISICA, UNAM 

================================================================================
DATOS DE ESTE REGISTRO:
HORA DE LA PRIMERA MUESTRA (GMT)       : 06:14:07.00
EXACTITUD DEL TIEMPO (s)               :     
DURACION DEL REGISTRO (s), C1-C6       : /149.76/149.76/149.76
DURACION DEL REGISTRO (s), C7-C12      :
NUM. TOTAL DE MUESTRAS, C1-C6          : /29952/29952/29952
NUM. TOTAL DE MUESTRAS, C7-C12         :
ACEL. MAX. (Gal), C1-C6                : /-15.11571/-6.74121/-11.10337
ACEL. MAX., C1-C6, EN LA MUESTRA       :
ACEL. MAX. (Gal), C7-C12               :
ACEL. MAX., C7-C12, EN LA MUESTRA      :
UNIDADES DE LOS DATOS                  : Gal (cm/s/s)
FACTOR DE DECIMACION                   : 1
FORMATO DATOS (FORTRAN,10 campos/dato) : 3F10.5


================================================================================
CALIDAD DEL ACELEROGRAMA:
REGISTRO DIGITAL COMPLETO, CARECE DE TIEMPO ABSOLUTO.


================================================================================
COMENTARIOS:














================================================================================
DATOS DE ACELERACION:
---------+---------+---------+---------+---------+---------+---------+---------+
   CANAL-1   CANAL-2   CANAL-3   CANAL-4   CANAL-5   CANAL-6   CANAL-7   CANAL-8
      N00E        +V      N90E
---------+---------+---------+---------+---------+---------+---------+---------+
[...]
  -6.25571   0.92879   0.87663
  -6.01571   0.92879   1.11663
  -6.01571   1.16879   1.11663
  -6.01571   1.16879   1.35663
  -6.01571   0.92879   1.35663
  -6.25571   0.92879   1.11663
  -6.25571   0.92879   1.11663
  -6.49571   0.92879   0.87663
  -6.73571   0.68879   0.63663
  -6.73571   0.68879   0.39663
  -6.73571   0.68879   0.15663
  -6.73571   0.68879   0.15663
  -6.25571   0.44879   0.15663
  -6.01571   0.44879   0.15663
  -5.53571   0.68879   0.15663
  -5.05571   0.68879   0.39663
  -4.33571   0.92879   0.63663
  -3.85571   1.16879   0.87663
  -3.13571   1.40879   1.35663
  -2.66571   1.64879   1.59663
  -2.18571   1.88879   1.83663
  -1.70571   2.12879   2.07663
  -1.46571   2.12879   2.31663
  -1.22571   2.36879   2.55663
  -1.22571   2.36879   2.55663
  -1.22571   2.12879   2.31663
  -1.22571   2.12879   2.07663
  -0.98571   2.12879   1.83663
  -1.22571   2.12879   1.59663
  -0.98571   2.12879   1.35663
  -0.74571   1.88879   0.87663
  -0.26571   1.88879   0.63663
  -0.02571   1.88879   0.15663
   0.45429   1.88879  -0.08337
   0.69429   1.88879  -0.08337
   1.17429   1.64879  -0.32337
   1.65429   1.64879  -0.32337
   2.12429   1.40879  -0.32337
   2.36429   1.40879  -0.08337
   2.60429   1.16879  -0.08337
   2.84429   1.16879   0.15663
   3.08429   0.92879   0.39663
   3.08429   0.68879   0.63663
   3.08429   0.68879   0.87663
   3.08429   0.44879   1.11663
   2.84429   0.20879   1.35663
   2.60429  -0.27121   1.35663
   2.36429  -0.75121   1.35663
   2.12429  -1.23121   1.35663
   1.89429  -1.95121   1.11663
   1.89429  -2.18121   1.11663
   1.65429  -2.90121   0.63663
   1.65429  -3.14121   0.63663
   1.65429  -3.38121   0.39663
   1.65429  -3.62121   0.39663
   1.65429  -3.62121   0.15663
   1.65429  -3.62121   0.15663
   1.89429  -3.62121   0.15663
   1.89429  -3.62121   0.39663
   2.12429  -3.62121   0.63663
   2.12429  -3.38121   0.87663
   2.12429  -3.14121   1.11663
   2.12429  -2.90121   1.59663
   1.89429  -2.66121   1.83663
   1.89429  -2.18121   2.07663
   1.89429  -1.95121   2.31663
   1.89429  -1.71121   2.55663
   1.89429  -1.47121   2.55663
   1.89429  -1.23121   2.55663
   1.89429  -1.23121   2.79663
   1.89429  -0.99121   2.79663
   2.12429  -0.99121   2.79663
   2.12429  -0.75121   2.55663
   2.36429  -0.75121   2.55663
   2.36429  -0.75121   2.55663
   2.60429  -0.75121   2.55663
   2.60429  -0.51121   2.31663
   2.84429  -0.27121   2.31663
   2.84429  -0.03121   2.31663
   2.84429  -0.03121   2.07663
   2.84429   0.20879   2.07663
   2.84429   0.20879   1.83663
   2.84429   0.20879   1.83663
   2.60429   0.20879   1.59663
   2.60429   0.20879   1.59663
   2.60429   0.20879   1.35663
   2.36429   0.20879   1.35663
   2.36429   0.20879   1.11663
   2.36429   0.44879   1.11663
   2.12429   0.44879   1.11663
   1.89429   0.68879   1.11663
   1.89429   0.68879   1.35663
   1.65429   0.92879   1.35663
   1.65429   1.16879   1.59663
   1.41429   1.16879   1.59663
   1.41429   1.16879   1.83663
   1.41429   0.92879   1.83663
   1.17429   0.92879   1.83663
   1.17429   0.68879   1.59663
   1.17429   0.68879   1.59663
   1.17429   0.68879   1.35663
   1.17429   0.68879   1.11663
   1.41429   0.68879   0.63663
   1.41429   0.92879   0.39663
   1.17429   0.92879  -0.08337
   1.41429   1.16879  -0.56337
   1.41429   1.16879  -1.04337
   1.41429   1.16879  -1.28337
   1.41429   1.40879  -1.52337
   1.41429   1.40879  -1.76337
   1.41429   1.40879  -1.99337
   1.65429   1.40879  -2.23337
   1.89429   1.40879  -2.23337
   1.89429   1.64879  -2.23337
   2.12429   1.64879  -2.23337
   2.36429   1.64879  -2.23337
   2.36429   1.40879  -2.23337
   2.60429   1.64879  -2.23337
   2.84429   1.64879  -2.47337
   3.08429   1.64879  -2.47337
   3.32429   1.88879  -2.47337
   3.32429   1.88879  -2.71337
   3.32429   1.88879  -2.95337
   3.56429   1.64879  -2.95337
   3.56429   1.40879  -3.19337
   3.80429   1.16879  -3.43337
   3.80429   0.92879  -3.43337
   3.80429   0.68879  -3.67337
   3.80429   0.20879  -3.67337
   3.80429   0.20879  -3.91337
   3.56429  -0.27121  -4.15337
   3.56429  -0.27121  -4.15337
   3.32429  -0.27121  -4.39337
   3.08429  -0.27121  -4.63337
   2.84429  -0.03121  -4.63337
   2.36429   0.20879  -4.63337
   2.12429   0.20879  -4.63337
   1.89429   0.44879  -4.63337
   1.65429   0.68879  -4.87337
   1.41429   1.16879  -4.63337
   1.41429   1.16879  -4.39337
   1.41429   1.40879  -4.15337
   1.41429   1.40879  -3.67337
   1.65429   1.40879  -3.43337
   1.89429   1.16879  -2.95337
   2.36429   0.92879  -2.47337
   2.60429   0.68879  -1.99337
   2.84429   0.44879  -1.76337
   3.32429   0.20879  -1.52337
   3.56429   0.20879  -1.04337
   4.04429  -0.03121  -1.04337
   4.28429  -0.03121  -0.80337
   4.52429  -0.27121  -0.56337
   4.52429  -0.27121  -0.56337
   4.76429  -0.27121  -0.80337
   4.76429  -0.27121  -0.80337
   4.76429  -0.27121  -0.80337
   4.76429  -0.27121  -1.04337
   4.76429  -0.03121  -1.04337
   4.76429   0.20879  -1.04337
   4.52429   0.20879  -0.80337
   4.52429   0.68879  -0.80337
   4.52429   0.92879  -0.56337
   4.28429   1.16879  -0.32337
   4.28429   1.64879   0.15663
   4.04429   1.88879   0.63663
   4.04429   2.12879   1.11663
   3.80429   2.36879   1.59663
   3.56429   2.36879   2.07663
   3.32429   2.60879   2.55663
   3.32429   2.60879   3.02663
   3.08429   2.60879   3.50663
   3.08429   2.36879   3.98663
   3.08429   2.12879   4.22663
   2.84429   1.64879   4.46663
   2.84429   1.16879   4.70663
   2.60429   0.68879   4.94663
   2.60429   0.20879   4.94663
   2.36429  -0.51121   4.94663
   2.36429  -0.99121   4.94663
   2.12429  -1.47121   4.94663
   1.89429  -1.71121   4.70663
   1.65429  -2.18121   4.46663
   1.41429  -2.18121   4.46663
   0.93429  -2.42121   4.22663
   0.69429  -2.66121   3.98663
   0.45429  -2.66121   3.74663
   0.45429  -2.66121   3.50663
  -0.02571  -2.90121   3.26663
  -0.02571  -2.90121   3.02663
  -0.02571  -2.90121   2.79663
  -0.02571  -2.66121   2.55663
  -0.02571  -2.66121   2.31663
   0.21429  -2.42121   2.07663
   0.21429  -2.18121   1.83663
   0.45429  -1.71121   1.59663
   0.45429  -1.71121   1.35663
   0.69429  -1.47121   0.87663
   0.69429  -1.47121   0.63663
   0.93429  -1.47121   0.15663
   1.17429  -1.47121  -0.08337
   1.41429  -1.47121  -0.56337
   1.65429  -1.47121  -1.04337
   1.89429  -1.47121  -1.52337
   2.36429  -1.23121  -1.76337
   2.60429  -0.99121  -2.23337
   2.84429  -0.75121  -2.71337
   3.32429  -0.51121  -2.95337
   3.56429  -0.27121  -3.19337
   3.80429   0.20879  -3.67337
   4.04429   0.44879  -3.91337
   4.28429   0.92879  -4.15337
   4.52429   1.40879  -4.15337
   4.76429   1.64879  -4.39337
   5.00429   2.12879  -4.39337
   5.00429   2.36879  -4.39337
   5.00429   2.60879  -4.63337
   5.24429   2.60879  -4.63337
   5.24429   2.60879  -4.63337
   5.48429   2.60879  -4.63337
   5.48429   2.60879  -4.63337
   5.48429   2.36879  -4.63337
   5.48429   2.12879  -4.63337
   5.72429   2.12879  -4.63337
   5.72429   1.88879  -4.63337
   5.72429   1.88879  -4.39337
   5.96429   1.88879  -4.39337
   5.96429   1.64879  -4.15337
   6.20429   1.64879  -3.91337
   6.20429   1.64879  -3.67337
   6.20429   1.40879  -3.43337
   6.44429   1.16879  -3.19337
   6.20429   1.16879  -2.71337
   6.20429   0.92879  -2.47337
   6.20429   0.68879  -2.23337
   5.96429   0.68879  -1.99337
   5.72429   0.68879  -1.76337
   5.48429   0.44879  -1.76337
   5.24429   0.20879  -1.52337
   5.00429   0.20879  -1.28337
   4.76429  -0.03121  -1.04337
   4.52429  -0.27121  -0.80337
   4.28429  -0.51121  -0.32337
   4.04429  -0.75121  -0.08337
   3.80429  -0.99121   0.39663
   3.56429  -1.23121   0.87663
   3.32429  -1.47121   1.35663
   2.84429  -1.71121   1.83663
   2.60429  -1.95121   2.31663
   2.12429  -2.18121   2.79663
   1.89429  -2.42121   3.02663
   1.41429  -2.42121   3.50663
   0.93429  -2.66121   3.98663
   0.45429  -2.90121   4.22663
  -0.02571  -3.38121   4.46663
  -0.50571  -3.62121   4.70663
  -0.98571  -4.10121   4.70663
  -1.22571  -4.34121   4.94663
  -1.70571  -4.58121   4.94663
  -1.94571  -5.06121   5.18663
  -2.18571  -5.30121   5.18663
  -2.42571  -5.30121   5.18663
  -2.66571  -5.30121   5.42663
  -2.89571  -5.30121   5.42663
  -3.13571  -5.30121   5.42663
  -3.61571  -5.30121   5.66663
  -3.85571  -5.30121   5.66663
  -4.09571  -5.30121   5.66663
  -4.57571  -5.30121   5.90663
  -4.81571  -5.30121   5.90663
  -5.05571  -5.30121   5.90663
  -5.05571  -5.06121   5.90663
  -5.29571  -4.82121   5.90663
  -5.29571  -4.58121   5.66663
  -5.29571  -4.10121   5.42663
  -5.29571  -3.86121   5.42663
  -5.05571  -3.38121   5.18663
  -5.05571  -3.14121   5.18663
  -4.81571  -2.90121   4.94663
  -4.57571  -2.66121   4.94663
  -4.33571  -2.66121   4.70663
  -4.09571  -2.42121   4.70663
  -3.61571  -2.18121   4.70663
  -3.13571  -1.95121   4.46663
  -2.66571  -1.95121   4.46663
  -2.18571  -1.71121   4.22663
  -1.70571  -1.47121   3.98663
  -1.22571  -1.47121   3.50663
  -0.74571  -1.23121   3.02663
  -0.26571  -0.99121   2.55663
   0.21429  -0.75121   1.83663
   0.69429  -0.27121   1.11663
   1.17429   0.20879   0.39663
   1.65429   0.44879  -0.56337
   2.12429   0.92879  -1.52337
   2.60429   1.40879  -2.47337
   3.08429   1.64879  -3.43337
   3.56429   2.12879  -4.15337
   4.28429   2.36879  -5.11337
   4.76429   2.36879  -5.83337
   5.24429   2.60879  -6.55337
   5.96429   2.60879  -7.02337
   6.44429   2.60879  -7.50337
   6.68429   2.60879  -7.98337
   7.15429   2.84879  -8.22337
   7.39429   2.84879  -8.46337
   7.39429   3.07879  -8.70337
   7.39429   3.07879  -8.94337
   7.39429   3.31879  -9.18337
   7.15429   3.31879  -9.18337
   6.91429   3.55879  -9.42337
   6.68429   3.79879  -9.66337
   6.20429   3.79879  -9.66337
   5.96429   3.79879  -9.90337
   5.48429   3.79879  -9.90337
   5.24429   4.03879 -10.14337
   4.76429   4.03879 -10.14337
   4.28429   4.27879 -10.14337
   4.04429   4.27879 -10.14337
   3.56429   4.51879  -9.90337
   3.32429   4.51879  -9.66337
   2.84429   4.51879  -9.42337
   2.60429   4.51879  -8.94337
   2.12429   4.27879  -8.46337
   1.65429   4.03879  -7.74337
   1.17429   3.79879  -7.26337
   0.69429   3.55879  -6.31337
  -0.02571   3.55879  -5.59337
  -0.74571   3.31879  -4.87337
  -1.46571   3.55879  -4.15337
  -2.18571   3.55879  -3.19337
  -3.13571   3.79879  -2.47337
  -3.85571   4.03879  -1.76337
  -4.81571   4.03879  -1.04337
  -5.53571   4.27879  -0.32337
  -6.49571   4.03879   0.39663
  -7.45571   4.03879   0.87663
  -8.16571   3.79879   1.35663
  -9.12571   3.31879   1.83663
  -9.84571   3.07879   2.31663
 -10.56571   2.84879   2.79663
 -11.28571   2.36879   3.26663
 -12.00571   2.12879   3.74663
 -12.48571   1.64879   4.22663
 -12.95571   1.40879   4.70663
 -13.67571   1.16879   4.94663
 -14.15571   0.68879   5.42663
 -14.39571   0.44879   5.90663
 -14.63571   0.20879   6.14663
 -15.11571  -0.03121   6.62663
 -15.11571  -0.27121   6.86663
 -15.11571  -0.51121   7.10663
 -15.11571  -0.75121   7.10663
 -15.11571  -0.99121   7.34663
 -14.87571  -0.99121   7.10663
 -14.63571  -1.23121   7.10663
 -14.15571  -1.47121   6.86663
 -13.91571  -1.71121   6.62663
 -13.43571  -1.71121   6.38663
 -12.95571  -2.18121   6.14663
 -12.48571  -2.18121   5.90663
 -12.00571  -2.66121   5.66663
 -11.52571  -2.90121   5.42663
 -10.80571  -3.14121   5.18663
 -10.32571  -3.38121   4.70663
  -9.84571  -3.62121   4.46663
  -9.36571  -4.10121   4.22663
  -8.64571  -4.34121   3.98663
  -8.16571  -4.58121   3.74663
  -7.45571  -4.82121   3.26663
  -6.73571  -5.06121   3.02663
  -6.01571  -5.30121   2.55663
  -5.29571  -5.54121   2.31663
  -4.57571  -5.54121   1.83663
  -3.85571  -5.78121   1.59663
  -3.13571  -5.78121   1.11663
  -2.42571  -5.78121   0.63663
  -1.46571  -5.78121   0.39663
  -0.74571  -5.54121  -0.08337
  -0.26571  -5.30121  -0.56337
   0.69429  -5.06121  -1.04337
   1.41429  -4.58121  -1.52337
   1.89429  -4.10121  -1.76337
   2.60429  -3.86121  -2.23337
   3.32429  -3.62121  -2.71337
   3.80429  -3.14121  -3.19337
   4.52429  -2.90121  -3.67337
   5.00429  -2.42121  -3.91337
   5.48429  -2.18121  -4.15337
   5.96429  -1.71121  -4.63337
   6.20429  -1.47121  -4.87337
   6.20429  -1.23121  -5.11337
   6.68429  -0.99121  -5.35337
   6.91429  -0.75121  -5.59337
   6.91429  -0.75121  -5.83337
   6.91429  -0.75121  -6.07337
   6.91429  -0.75121  -6.31337
   6.91429  -0.51121  -6.55337
   7.15429  -0.27121  -6.55337
   7.15429  -0.03121  -6.79337
   6.91429   0.20879  -6.79337
   6.91429   0.20879  -6.79337
   6.91429   0.44879  -6.55337
   6.68429   0.68879  -6.55337
   6.68429   0.92879  -6.31337
   6.44429   1.16879  -6.07337
   6.20429   1.64879  -6.07337
   5.96429   1.64879  -5.83337
   5.48429   1.88879  -5.59337
   5.24429   2.12879  -5.35337
   4.76429   2.12879  -5.35337
   4.52429   2.36879  -5.35337
   3.80429   2.36879  -5.35337
   3.32429   2.60879  -5.35337
   2.60429   2.60879  -5.11337
   1.89429   2.60879  -5.11337
   1.41429   2.60879  -5.11337
   0.69429   2.36879  -5.11337
  -0.26571   2.36879  -4.87337
  -0.98571   2.12879  -4.63337
  -1.70571   1.88879  -4.63337
  -2.42571   1.88879  -4.15337
  -3.13571   1.88879  -3.91337
  -3.61571   1.88879  -3.67337
  -4.33571   1.88879  -3.19337
  -4.81571   1.88879  -2.95337
  -5.29571   2.12879  -2.47337
  -5.29571   2.12879  -2.23337
  -5.53571   2.36879  -1.99337
  -5.77571   2.60879  -1.52337
  -5.77571   2.60879  -1.52337
  -6.01571   2.60879  -1.28337
  -6.01571   2.12879  -1.28337
  -6.01571   2.12879  -1.28337
  -6.01571   2.12879  -1.28337
  -6.01571   1.88879  -1.52337
  -6.01571   1.64879  -1.52337
  -6.01571   1.40879  -1.76337
  -6.01571   1.16879  -1.76337
  -6.01571   1.16879  -1.76337
  -6.01571   0.92879  -1.76337
  -6.01571   0.92879  -1.76337
  -6.01571   0.68879  -1.76337
  -6.01571   0.44879  -1.52337
  -6.01571   0.20879  -1.28337
  -6.01571  -0.03121  -1.04337
  -6.01571  -0.27121  -0.80337
  -5.77571  -0.51121  -0.56337
  -5.53571  -0.51121  -0.32337
  -5.53571  -0.51121  -0.08337
  -5.29571  -0.51121   0.39663
  -5.05571  -0.51121   0.63663
  -4.57571  -0.51121   0.87663
  -4.33571  -0.27121   1.11663
  -3.85571  -0.03121   1.35663
  -3.37571  -0.03121   1.59663
  -3.13571   0.20879   1.83663
  -2.66571   0.20879   2.07663
  -2.18571   0.44879   2.07663
  -1.70571   0.44879   2.55663
  -1.22571   0.68879   2.55663
  -0.74571   0.68879   2.79663
  -0.26571   0.92879   2.79663
   0.21429   1.16879   3.02663
   0.69429   1.40879   3.02663
   0.93429   1.64879   3.02663
   1.17429   1.88879   3.02663
   1.65429   2.12879   3.02663
   1.89429   2.12879   3.26663
   2.12429   2.36879   3.26663
   2.36429   2.36879   3.50663
   2.60429   2.60879   3.50663
   2.60429   2.60879   3.74663
   2.84429   2.60879   3.98663
   2.84429   2.84879   4.22663
   3.08429   3.07879   4.46663
   3.08429   3.07879   4.70663
   3.32429   3.07879   4.94663
   3.32429   3.07879   5.42663
   3.32429   3.07879   5.66663
   3.56429   2.84879   6.14663
   3.56429   2.60879   6.38663
   3.56429   2.60879   6.86663
   3.56429   2.36879   7.10663
   3.56429   2.12879   7.58663
   3.56429   1.88879   7.81663
   3.32429   1.64879   8.05663
   3.32429   1.64879   8.29663
   3.08429   1.40879   8.53663
   2.60429   1.40879   8.77663
   2.36429   1.16879   8.77663
   1.89429   1.16879   9.01663
   1.41429   1.16879   9.01663
   0.93429   0.92879   9.01663
   0.69429   0.68879   9.01663
  -0.02571   0.68879   9.01663
  -0.50571   0.68879   9.01663
  -0.98571   0.68879   9.01663
  -1.22571   0.68879   9.01663
