********************************************************************************
               CENTRO DE INSTRUMENTACION Y REGISTRO SISMICO  A.C.  
                       Coordinacion de Servicios Tecnicos
     Anaxagoras 814, Col. Narvarte, Benito Juarez, C.P. 03020 Mexico, D.F.
            Tels. 667 45 42/ 687 45  82             Fax. 669 25 12
********************************************************************************
ARCHIVO ESTANDAR DE ACELERACION:
VERSION DEL FORMATO                    : 2.0
NOMBRE DEL ARCHIVO                     : AL019701.111
FECHA Y HORA DE CREACION               : 18/MAR/98, 13:30
REF. CATALOGO ACELEROGRAMAS, SMIS 1996 : REGISTRO No.     /PAG.


================================================================================
DATOS DE LA ESTACION:
NOMBRE DE LA ESTACION                  : ALAMEDA
CLAVE DE LA ESTACION                   : AL01
LOCALIZACION DE LA ESTACION            : JARDIN ALAMEDA ENTRE AV. HIDALGO Y AV.
                                       : JUAREZ, CENTRO
                                       :
                                       :
                                       :
COORDENADAS DE LA ESTACION             : 19.436 LAT. N 
                                       : 99.145 LONG. W 
ALTITUD (msnm)                         : 2232
TIPO DE SUELO                          : TERRENO BLANDO, MATERIAL COMPRESIBLE
                                       : (ARCILLAS)
                                       : 
INSTITUCION RESPONSABLE                : CIRES 
                                       :

================================================================================
DATOS DEL ACELEROGRAFO:
MODELO DEL ACELEROGRAFO                : SSA-1
NUMERO DE SERIE DEL ACELEROGRAFO       : 152
NUMERO DE CANALES                      : 3
ORIENTACION C1-C6 (rumbo;orientacion)  : /N00E/+V/N90E
ORIENTACION C7-C12 (rumbo;orientacion) :
VEL. DE MUESTREO, C1-C6 (muestras/s)   : /200/200/200
VEL. DE MUESTREO, C7-C12 (muestras/s)  :
ESC. COMPLETA DE SENSORES, C1-C6, (g)  : /2/2/2
ESC. COMPLETA DE SENSORES, C7-C12, (g) :
FREC. NAT. DE SENSORES, C1-C6, (Hz)    : /51.29/51.09/53.75
FREC. NAT. DE SENSORES, C7-C12, (Hz)   :
AMORTIGUAMIENTO DE SENSORES, C1-C6     : /.5519/.5670/.5810
AMORTIGUAMIENTO DE SENSORES, C7-C12    :
INTERVALO DE MUESTREO, C1-C6, (s)      : /0.005/0.005/0.005
INTERVALO DE MUESTREO, C7-C12, (s)     :
UMBRAL DE DISPARO, C1-C6, (Gal)        : /2/1.5/2
UMBRAL DE DISPARO, C7-C12, (Gal)       :
MEMORIA DE PREEVENTO (s)               : 15
TIEMPO DE POSEVENTO (s)                : 60


================================================================================
DATOS DEL SISMO:
FECHA DEL SISMO (GMT)                  : 11/ENE/97
HORA EPICENTRO (GMT)                   : 20:28:27:2
MAGNITUD(ES)                           : /Ms=6.9
COORDENADAS DEL EPICENTRO              : 17.9 LAT. N
                                       : 103.0 LONG. W
PROFUNDIDAD FOCAL (km)                 : 16.0
FUENTE DE LOS DATOS EPICENTRALES       : SSN
                                       : INSTITUTO DE GEOFISICA, UNAM

================================================================================
DATOS DE ESTE REGISTRO:
HORA DE LA PRIMERA MUESTRA (GMT)       : 20:29:31.00
EXACTITUD DEL TIEMPO (s)               :     
DURACION DEL REGISTRO (s), C1-C6       : /248.32/248.32/248.32
DURACION DEL REGISTRO (s), C7-C12      :
NUM. TOTAL DE MUESTRAS, C1-C6          : /49664/49664/49664
NUM. TOTAL DE MUESTRAS, C7-C12         :
ACEL. MAX. (Gal), C1-C6                : /18.31732/4.75574/16.98215
ACEL. MAX., C1-C6, EN LA MUESTRA       :
ACEL. MAX. (Gal), C7-C12               :
ACEL. MAX., C7-C12, EN LA MUESTRA      :
UNIDADES DE LOS DATOS                  : Gal (cm/s/s)
FACTOR DE DECIMACION                   : 1
FORMATO DATOS (FORTRAN,10 campos/dato) : 3F10.5


================================================================================
CALIDAD DEL ACELEROGRAMA:
REGISTRO DIGITAL COMPLETO, CARECE DE TIEMPO ABSOLUTO.


================================================================================
COMENTARIOS:














================================================================================
DATOS DE ACELERACION:
---------+---------+---------+---------+---------+---------+---------+---------+
   CANAL-1   CANAL-2   CANAL-3   CANAL-4   CANAL-5   CANAL-6   CANAL-7   CANAL-8
      N00E        +V      N90E
---------+---------+---------+---------+---------+---------+---------+---------+
[...]
   9.69732   0.51426  -5.29785
   9.45732   0.51426  -5.05785
   9.21732   0.51426  -4.81785
   9.21732   0.51426  -4.57785
   8.73732   0.51426  -4.09785
   8.73732   0.75426  -3.85785
   8.25732   0.75426  -3.61785
   8.01732   0.99426  -3.37785
   7.77732   0.99426  -3.13785
   7.29732   1.23426  -2.89785
   7.05732   1.23426  -2.89785
   6.81732   1.23426  -2.65785
   6.58732   1.47426  -2.41785
   6.34732   1.47426  -2.17785
   5.86732   1.47426  -1.94785
   5.62732   1.47426  -1.70785
   5.38732   1.47426  -1.70785
   5.14732   1.71426  -1.46785
   4.90732   1.71426  -1.22785
   4.66732   1.95426  -0.98785
   4.42732   1.95426  -0.98785
   4.18732   1.95426  -0.74785
   3.94732   1.95426  -0.74785
   3.94732   1.95426  -0.50785
   3.46732   1.95426  -0.26785
   3.46732   2.19426  -0.26785
   2.98732   2.19426  -0.26785
   2.98732   2.19426  -0.02785
   2.74732   2.19426  -0.02785
   2.50732   2.19426   0.21215
   2.26732   1.95426   0.21215
   2.02732   1.95426   0.21215
   1.78732   1.95426   0.45215
   1.78732   1.95426   0.69215
   1.55732   1.71426   0.69215
   1.31732   1.71426   0.93215
   1.31732   1.71426   1.17215
   1.07732   1.71426   1.17215
   1.07732   1.71426   1.17215
   0.83732   1.47426   1.41215
   0.83732   1.47426   1.41215
   0.59732   1.47426   1.41215
   0.59732   1.47426   1.17215
   0.59732   1.47426   1.41215
   0.59732   1.47426   1.41215
   0.59732   1.47426   1.41215
   0.35732   1.23426   1.41215
   0.35732   1.47426   1.65215
   0.35732   1.47426   1.65215
   0.11732   1.47426   1.65215
   0.11732   1.23426   1.89215
   0.11732   1.23426   1.89215
  -0.12268   1.23426   2.13215
  -0.12268   0.99426   2.13215
  -0.36268   0.99426   2.13215
  -0.36268   0.75426   2.13215
  -0.36268   0.51426   2.13215
  -0.60268   0.51426   2.13215
  -0.60268   0.27426   2.13215
  -0.84268   0.27426   2.13215
  -0.84268   0.03426   2.13215
  -1.08268   0.03426   2.37215
  -1.32268  -0.20574   2.61215
  -1.32268  -0.20574   2.61215
  -1.56268  -0.20574   2.61215
  -1.80268  -0.20574   2.84215
  -2.04268  -0.20574   3.08215
  -2.28268  -0.20574   3.08215
  -2.28268  -0.20574   3.32215
  -2.52268  -0.20574   3.08215
  -2.52268  -0.20574   3.32215
  -2.76268  -0.20574   3.56215
  -2.76268  -0.20574   3.56215
  -3.00268  -0.44574   3.80215
  -3.23268  -0.44574   3.80215
  -3.47268  -0.68574   4.04215
  -3.71268  -0.68574   4.04215
  -3.95268  -0.92574   4.28215
  -4.19268  -0.92574   4.28215
  -4.19268  -0.92574   4.52215
  -4.43268  -1.16574   4.52215
  -4.67268  -1.16574   4.76215
  -4.67268  -1.40574   4.76215
  -4.91268  -1.40574   4.76215
  -4.91268  -1.40574   5.00215
  -4.91268  -1.40574   5.00215
  -5.15268  -1.40574   5.24215
  -5.15268  -1.40574   5.24215
  -5.15268  -1.64574   5.48215
  -5.39268  -1.40574   5.48215
  -5.39268  -1.40574   5.72215
  -5.39268  -1.40574   5.96215
  -5.39268  -1.16574   5.96215
  -5.39268  -1.16574   6.20215
  -5.39268  -1.16574   6.20215
  -5.39268  -1.16574   6.44215
  -5.39268  -1.40574   6.68215
  -5.15268  -1.40574   6.68215
  -5.15268  -1.40574   6.92215
  -5.15268  -1.40574   6.92215
  -5.15268  -1.64574   7.16215
  -5.15268  -1.64574   7.16215
  -5.15268  -1.40574   7.40215
  -5.15268  -1.40574   7.40215
  -5.15268  -1.40574   7.40215
  -5.15268  -1.40574   7.40215
  -5.15268  -1.40574   7.64215
  -5.39268  -1.16574   7.87215
  -5.15268  -1.16574   7.87215
  -5.39268  -1.16574   8.11215
  -5.15268  -0.92574   8.11215
  -5.15268  -0.92574   8.35215
  -5.15268  -0.92574   8.35215
  -5.15268  -0.68574   8.59215
  -5.15268  -0.68574   8.59215
  -5.15268  -0.68574   8.83215
  -4.91268  -0.68574   9.07215
  -4.91268  -0.68574   9.31215
  -4.67268  -0.68574   9.55215
  -4.67268  -0.68574   9.79215
  -4.67268  -0.44574   9.79215
  -4.43268  -0.44574  10.03215
  -4.43268  -0.20574  10.27215
  -4.19268  -0.20574  10.27215
  -4.19268  -0.20574  10.51215
  -4.19268  -0.20574  10.75215
  -3.95268   0.03426  10.99215
  -3.95268   0.03426  11.23215
  -3.95268   0.03426  11.23215
  -3.95268   0.03426  11.47215
  -3.71268   0.03426  11.47215
  -3.71268  -0.20574  11.71215
  -3.71268  -0.20574  11.95215
  -3.71268  -0.20574  12.19215
  -3.71268  -0.20574  12.43215
  -3.71268  -0.20574  12.66215
  -3.95268  -0.20574  13.14215
  -3.95268   0.03426  13.14215
  -3.95268   0.03426  13.38215
  -4.19268   0.03426  13.62215
  -4.19268   0.03426  13.86215
  -4.43268   0.27426  14.10215
  -4.43268   0.27426  14.34215
  -4.43268   0.27426  14.58215
  -4.67268   0.27426  14.82215
  -4.67268   0.27426  15.06215
  -4.91268   0.27426  15.06215
  -4.91268   0.27426  15.30215
  -5.15268   0.27426  15.54215
  -5.39268   0.27426  15.78215
  -5.63268   0.03426  15.78215
  -5.87268   0.03426  16.02215
  -6.11268  -0.20574  16.02215
  -6.35268  -0.20574  16.26215
  -6.59268  -0.44574  16.26215
  -6.83268  -0.44574  16.50215
  -7.07268  -0.44574  16.50215
  -7.07268  -0.68574  16.74215
  -7.31268  -0.44574  16.74215
  -7.55268  -0.44574  16.98215
  -7.79268  -0.44574  16.98215
  -8.02268  -0.44574  16.98215
  -8.26268  -0.44574  16.98215
  -8.50268  -0.44574  16.98215
  -8.74268  -0.44574  16.98215
  -8.74268  -0.44574  16.74215
  -8.98268  -0.68574  16.74215
  -8.98268  -0.68574  16.74215
  -9.22268  -0.68574  16.74215
  -9.46268  -0.68574  16.50215
  -9.70268  -0.44574  16.50215
  -9.94268  -0.44574  16.26215
 -10.18268  -0.44574  16.02215
 -10.42268  -0.44574  16.02215
 -10.66268  -0.44574  15.78215
 -10.66268  -0.44574  15.54215
 -10.90268  -0.44574  15.30215
 -11.14268  -0.44574  15.06215
 -11.14268  -0.44574  14.82215
 -11.14268  -0.20574  14.58215
 -11.38268  -0.20574  14.34215
 -11.38268  -0.20574  14.10215
 -11.38268  -0.20574  13.86215
 -11.62268  -0.20574  13.62215
 -11.62268  -0.20574  13.38215
 -11.86268  -0.20574  13.14215
 -11.86268  -0.20574  12.90215
 -11.86268  -0.20574  12.43215
 -11.86268  -0.20574  12.19215
 -11.86268   0.03426  11.95215
 -11.86268   0.03426  11.47215
 -11.86268   0.03426  11.23215
 -11.86268   0.03426  10.75215
 -11.86268   0.03426  10.51215
 -11.86268   0.03426  10.03215
 -11.86268   0.03426   9.55215
 -12.10268  -0.20574   9.07215
 -12.10268  -0.20574   8.83215
 -12.10268  -0.20574   8.35215
 -12.10268  -0.20574   7.87215
 -12.10268  -0.20574   7.40215
 -12.10268  -0.20574   7.16215
 -12.10268  -0.20574   6.92215
 -12.10268  -0.20574   6.44215
 -12.10268  -0.20574   6.20215
 -12.10268  -0.20574   5.96215
 -12.10268  -0.20574   5.72215
 -12.10268  -0.20574   5.48215
 -12.10268  -0.20574   5.00215
 -12.10268  -0.44574   5.00215
 -12.10268  -0.44574   4.52215
 -12.10268  -0.44574   4.52215
 -11.86268  -0.44574   4.28215
 -11.86268  -0.68574   4.04215
 -11.86268  -0.68574   3.80215
 -11.86268  -0.68574   3.56215
 -11.86268  -0.68574   3.32215
 -11.86268  -0.68574   3.08215
 -11.86268  -0.68574   3.08215
 -11.86268  -0.68574   2.84215
 -11.86268  -0.68574   2.61215
 -11.86268  -0.68574   2.61215
 -11.86268  -0.68574   2.37215
 -11.86268  -0.68574   2.37215
 -11.86268  -0.68574   2.13215
 -11.86268  -0.92574   1.89215
 -11.86268  -0.92574   1.89215
 -11.86268  -0.92574   1.65215
 -11.86268  -1.16574   1.65215
 -11.86268  -1.16574   1.65215
 -11.62268  -1.16574   1.65215
 -11.62268  -1.16574   1.65215
 -11.62268  -1.40574   1.41215
 -11.38268  -1.40574   1.41215
 -11.38268  -1.40574   1.41215
 -11.38268  -1.40574   1.17215
 -11.14268  -1.40574   1.17215
 -10.90268  -1.40574   1.17215
 -10.90268  -1.40574   1.17215
 -10.66268  -1.16574   0.93215
 -10.66268  -1.16574   1.17215
 -10.42268  -0.92574   0.93215
 -10.42268  -0.92574   1.17215
 -10.18268  -0.92574   1.17215
  -9.94268  -0.92574   1.17215
  -9.70268  -0.92574   1.17215
  -9.46268  -0.92574   1.17215
  -9.22268  -0.68574   0.93215
  -8.98268  -0.68574   0.93215
  -8.74268  -0.68574   0.93215
  -8.50268  -0.68574   0.69215
  -8.26268  -0.68574   0.69215
  -8.02268  -0.68574   0.45215
  -8.02268  -0.68574   0.21215
  -7.79268  -0.44574   0.21215
  -7.31268  -0.68574   0.21215
  -7.07268  -0.44574  -0.02785
  -6.83268  -0.44574  -0.02785
  -6.59268  -0.44574  -0.26785
  -6.35268  -0.44574  -0.26785
  -6.11268  -0.44574  -0.50785
  -5.87268  -0.44574  -0.50785
  -5.39268  -0.20574  -0.50785
  -5.15268  -0.20574  -0.50785
  -4.91268  -0.20574  -0.50785
  -4.67268  -0.20574  -0.50785
  -4.43268  -0.20574  -0.50785
  -3.95268  -0.20574  -0.50785
  -3.71268  -0.20574  -0.74785
  -3.47268   0.03426  -0.74785
  -3.23268   0.03426  -0.74785
  -3.23268   0.03426  -0.74785
  -2.76268  -0.20574  -0.74785
  -2.76268   0.27426  -0.74785
  -2.52268   0.27426  -0.74785
  -2.28268   0.27426  -0.98785
  -2.04268   0.27426  -0.98785
  -1.80268   0.27426  -0.98785
  -1.56268   0.27426  -0.74785
  -1.32268   0.27426  -0.74785
  -1.08268   0.51426  -0.74785
  -0.84268   0.51426  -0.74785
  -0.60268   0.75426  -0.74785
  -0.36268   0.75426  -0.50785
  -0.12268   0.75426  -0.50785
   0.11732   0.99426  -0.26785
   0.35732   0.75426  -0.26785
   0.83732   0.99426  -0.02785
   1.07732   0.99426   0.21215
   1.31732   0.99426   0.21215
   1.55732   0.75426   0.45215
   2.02732   0.75426   0.45215
   2.26732   0.75426   0.69215
   2.50732   0.75426   0.69215
   2.74732   0.75426   0.93215
   3.22732   0.75426   1.17215
   3.46732   0.75426   1.41215
   3.70732   0.75426   1.41215
   3.94732   0.75426   1.41215
   4.18732   0.51426   1.65215
   4.66732   0.51426   1.65215
   4.90732   0.51426   1.65215
   5.38732   0.51426   1.65215
   5.62732   0.51426   1.65215
   5.86732   0.27426   1.65215
   6.34732   0.51426   1.65215
   6.58732   0.51426   1.65215
   7.05732   0.51426   1.65215
   7.29732   0.51426   1.65215
   7.53732   0.51426   1.65215
   8.01732   0.51426   1.65215
   8.25732   0.51426   1.65215
   8.73732   0.51426   1.89215
   8.97732   0.51426   1.65215
   9.21732   0.51426   1.65215
   9.69732   0.51426   1.65215
   9.93732   0.51426   1.41215
  10.17732   0.51426   1.41215
  10.65732   0.51426   1.17215
  11.13732   0.51426   1.17215
  11.37732   0.27426   0.93215
  11.84732   0.27426   0.93215
  12.08732   0.27426   0.69215
  12.56732   0.03426   0.45215
  12.80732   0.03426   0.45215
  13.04732   0.03426   0.21215
  13.52732   0.03426   0.21215
  13.52732   0.03426  -0.02785
  14.00732   0.03426  -0.26785
  14.24732   0.03426  -0.50785
  14.24732   0.03426  -0.74785
  14.48732   0.03426  -0.98785
  14.72732   0.03426  -1.22785
  14.96732   0.03426  -1.46785
  15.20732  -0.20574  -1.46785
  15.68732   0.03426  -1.46785
  15.92732   0.03426  -1.70785
  16.16732   0.27426  -1.70785
  16.16732   0.27426  -1.94785
  16.39732   0.27426  -1.94785
  16.63732   0.27426  -1.94785
  16.87732   0.27426  -2.17785
  17.11732   0.27426  -2.17785
  17.59732   0.27426  -2.17785
  17.59732   0.27426  -2.41785
  17.83732   0.27426  -2.41785
  17.83732   0.27426  -2.41785
  18.07732   0.27426  -2.41785
  18.07732   0.27426  -2.65785
  18.31732   0.27426  -2.65785
  18.31732   0.27426  -2.89785
  18.31732   0.03426  -2.89785
  18.31732   0.03426  -2.89785
  18.07732   0.03426  -3.13785
  18.07732   0.03426  -3.13785
  18.07732   0.03426  -3.13785
  18.07732  -0.20574  -3.13785
  17.83732  -0.20574  -2.89785
  17.83732  -0.20574  -2.89785
  17.83732  -0.44574  -3.13785
  17.83732  -0.44574  -3.13785
  17.59732  -0.44574  -3.13785
  17.59732  -0.68574  -3.13785
  17.35732  -0.92574  -3.13785
  17.35732  -0.68574  -3.13785
  17.11732  -0.92574  -3.13785
  17.11732  -0.92574  -3.13785
  16.87732  -0.92574  -3.13785
  16.63732  -1.16574  -3.13785
  16.63732  -0.92574  -3.13785
  16.39732  -1.16574  -3.13785
  16.16732  -1.16574  -3.13785
  15.92732  -1.16574  -3.13785
  15.68732  -1.16574  -3.13785
  15.44732  -1.40574  -3.13785
  15.20732  -1.40574  -3.13785
  14.72732  -1.64574  -3.13785
  14.72732  -1.88574  -3.13785
  14.48732  -2.11574  -3.13785
  14.24732  -2.11574  -2.89785
  14.00732  -2.35574  -2.89785
  13.76732  -2.35574  -2.89785
  13.52732  -2.35574  -2.89785
  13.28732  -2.35574  -2.89785
  13.04732  -2.35574  -2.65785
  12.80732  -2.35574  -2.65785
  12.80732  -2.35574  -2.65785
  12.56732  -2.59574  -2.65785
  12.32732  -2.35574  -2.65785
  12.08732  -2.35574  -2.65785
  12.08732  -2.35574  -2.89785
  11.84732  -2.35574  -2.89785
  11.84732  -2.59574  -2.89785
  11.60732  -2.59574  -2.89785
  11.60732  -2.59574  -2.89785
  11.60732  -2.59574  -2.65785
  11.37732  -2.59574  -2.65785
  11.37732  -2.59574  -2.65785
  11.13732  -2.59574  -2.89785
  10.89732  -2.59574  -2.89785
  10.89732  -2.59574  -3.13785
  10.65732  -2.59574  -3.13785
  10.65732  -2.59574  -3.13785
  10.41732  -2.59574  -3.37785
   9.93732  -2.59574  -3.37785
   9.93732  -2.59574  -3.37785
   9.93732  -2.59574  -3.37785
   9.69732  -2.59574  -3.37785
   9.45732  -2.59574  -3.37785
   9.21732  -2.59574  -3.61785
   9.21732  -2.59574  -3.61785
   8.97732  -2.59574  -3.61785
   8.73732  -2.59574  -3.85785
   8.73732  -2.59574  -3.85785
   8.73732  -2.59574  -3.85785
   8.49732  -2.59574  -3.85785
   8.25732  -2.59574  -3.85785
   8.25732  -2.59574  -3.85785
   8.01732  -2.35574  -3.85785
   7.77732  -2.35574  -3.85785
   7.53732  -2.35574  -3.85785
   7.29732  -2.11574  -4.09785
   7.05732  -2.11574  -4.33785
   6.81732  -2.11574  -4.33785
   6.58732  -2.11574  -4.57785
   6.34732  -2.11574  -4.57785
   6.34732  -2.11574  -4.33785
   6.10732  -2.11574  -4.33785
   5.86732  -2.11574  -4.33785
   5.62732  -1.88574  -4.33785
   5.38732  -2.11574  -4.09785
   5.14732  -2.11574  -4.09785
   4.90732  -2.11574  -4.33785
   4.66732  -2.11574  -4.33785
   4.42732  -2.11574  -4.33785
   4.18732  -2.11574  -4.33785
   3.94732  -2.11574  -4.33785
   3.94732  -2.35574  -4.09785
   3.70732  -2.35574  -4.09785
   3.46732  -2.35574  -4.09785
   3.22732  -2.35574  -4.09785
   2.98732  -2.35574  -3.85785
   2.98732  -2.35574  -3.85785
   2.74732  -2.35574  -3.85785
   2.50732  -2.11574  -3.85785
   2.50732  -2.11574  -4.09785
   2.26732  -2.11574  -3.85785
   2.02732  -2.11574  -3.85785
   2.02732  -2.11574  -3.85785
   1.78732  -2.11574  -3.85785
   1.78732  -2.11574  -3.61785
   1.78732  -2.11574  -3.37785
   1.55732  -2.11574  -3.13785
   1.55732  -1.88574  -3.13785
   1.55732  -1.88574  -2.89785
   1.31732  -1.64574  -2.89785
   1.31732  -1.64574  -2.65785
   1.07732  -1.64574  -2.65785
   1.07732  -1.88574  -2.65785
   0.83732  -1.64574  -2.41785
   0.83732  -1.88574  -2.41785
   0.59732  -1.88574  -2.17785
   0.59732  -1.64574  -2.17785
   0.59732  -1.64574  -1.94785
   0.59732  -1.64574  -1.94785
   0.35732  -1.64574  -1.94785
   0.35732  -1.64574  -1.70785
   0.35732  -1.64574  -1.70785
   0.11732  -1.64574  -1.70785
   0.11732  -1.64574  -1.70785
   0.11732  -1.88574  -1.46785
  -0.12268  -1.88574  -1.46785
  -0.12268  -1.88574  -1.22785
  -0.12268  -1.88574  -1.22785
  -0.36268  -1.88574  -1.22785
  -0.36268  -1.88574  -1.22785
  -0.60268  -1.88574  -1.22785
  -0.84268  -1.88574  -1.22785
  -0.84268  -1.88574  -1.22785
  -1.08268  -1.88574  -1.22785
  -1.32268  -1.88574  -1.22785
  -1.32268  -1.88574  -1.22785
  -1.56268  -2.11574  -1.22785
  -1.80268  -2.11574  -1.46785
  -2.04268  -2.11574  -1.46785
  -2.28268  -2.11574  -1.46785
  -2.52268  -1.88574  -1.46785
  -2.76268  -1.88574  -1.46785
  -3.23268  -1.88574  -1.70785
  -3.47268  -1.64574  -1.70785
  -3.95268  -1.64574  -1.94785
  -4.19268  -1.64574  -2.17785
  -4.67268  -1.64574  -2.17785
  -4.91268  -1.64574  -2.41785
  -5.39268  -1.64574  -2.65785
  -5.87268  -1.40574  -2.65785
  -6.59268  -1.40574  -2.89785
  -6.59268  -1.16574  -2.89785
  -7.07268  -0.92574  -3.13785
  -7.31268  -0.68574  -3.13785
