********************************************************************************
              CENTRO DE INSTRUMENTACION Y REGISTRO SISMICO  A.C.

    Anaxagoras 814, Col. Narvarte, Benito Juarez, C.P. 03020 Mexico, D.F.
           Tels. 5687 45 42/ 5687 45  82             Fax. 5669 25 12
********************************************************************************
ARCHIVO ESTANDAR DE ACELERACION:
VERSION DEL FORMATO                    : 2.0
NOMBRE DEL ARCHIVO                     : AL0120160922180859
FECHA Y HORA DE CREACION               : 22/SEP/16, 14:00
REF. CATALOGO ACELEROGRAMAS, SMIS 1996 : REGISTRO No.     /PAG.


================================================================================
DATOS DE LA ESTACION:
NOMBRE DE LA ESTACION                  : ALAMEDA
CLAVE DE LA ESTACION                   : AL01
LOCALIZACION DE LA ESTACION            : Del. Cuauhtémoc, Col. Centro,          
                                       : Dr. Mora entre Av. Hidalgo             
                                       : y Av. Juárez.                          
                                       :                                        
                                       : 
COORDENADAS DE LA ESTACION             : 19.4356 LAT. N
                                       : 99.1453 LONG. W
ALTITUD (msnm)                         : 2232
TIPO DE SUELO                          : Terreno blando, material compresible
                                       : (arcillas)                
                                       : 
INSTITUCION RESPONSABLE                : CIRES, A. C.
                                       : 

================================================================================
DATOS DEL ACELEROGRAFO:
MODELO DEL ACELEROGRAFO                : RAD_IO14
NUMERO DE SERIE DEL ACELEROGRAFO       : 
NUMERO DE CANALES                      : 3
ORIENTACION C1-C6 (rumbo;orientacion)  : /S00E/+V/N90W
ORIENTACION C7-C12 (rumbo;orientacion) : 
VEL. DE MUESTREO, C1-C6 (muestras/s)   : /100/100/100
VEL. DE MUESTREO, C7-C12 (muestras/s)  : 
ESC. COMPLETA DE SENSORES, C1-C6, (g)  : /2.0/2.0/2.0
ESC. COMPLETA DE SENSORES, C7-C12, (g) : 
FREC. NAT. DE SENSORES, C1-C6, (Hz)    : /51.29/51.09/53.75
FREC. NAT. DE SENSORES, C7-C12, (Hz)   : 
AMORTIGUAMIENTO DE SENSORES, C1-C6     : /0.5519/0.5670/0.5810
AMORTIGUAMIENTO DE SENSORES, C7-C12    : 
INTERVALO DE MUESTREO, C1-C6, (s)      : /0.01/0.01/0.01
INTERVALO DE MUESTREO, C7-C12, (s)     : 
UMBRAL DE DISPARO, C1-C6, (Gal)        : / / /
UMBRAL DE DISPARO, C7-C12, (Gal)       : 
MEMORIA DE PREEVENTO (s)               : 60
TIEMPO DE POSEVENTO (s)                : 90


================================================================================
DATOS DEL SISMO:
FECHA DEL SISMO (GMT)                  : 22/SEP/16
HORA EPICENTRO (GMT)                   : 18:08:59.0
MAGNITUD(ES)                           : /Mc=5.0
COORDENADAS DEL EPICENTRO              : 17.97 LAT. N
                                       : 98.49 LONG. W
PROFUNDIDAD FOCAL (km)                 : 57
FUENTE DE LOS DATOS EPICENTRALES       : SSN
                                       : INSTITUTO DE GEOFISICA, UNAM

================================================================================
DATOS DE ESTE REGISTRO:
HORA DE LA PRIMERA MUESTRA (GMT)       : 13:08:28.00
EXACTITUD DEL TIEMPO (s)               : 
DURACION DEL REGISTRO (s), C1-C6       : /238.72/238.72/238.72
DURACION DEL REGISTRO (s), C7-C12      : 
NUM. TOTAL DE MUESTRAS, C1-C6          : /23872/23872/23872
NUM. TOTAL DE MUESTRAS, C7-C12         : 
ACEL. MAX. (Gal), C1-C6                : /1.11318/0.63776/0.97559
ACEL. MAX., C1-C6, EN LA MUESTRA       : /7880/8216/8255
ACEL. MAX. (Gal), C7-C12               : 
ACEL. MAX., C7-C12, EN LA MUESTRA      : 
UNIDADES DE LOS DATOS                  : Gal (cm/s/s)
FACTOR DE DECIMACION                   : 1
FORMATO DATOS (FORTRAN,10 campos/dato) : 3F10.5


================================================================================
CALIDAD DEL ACELEROGRAMA:
REGISTRO DIGITAL COMPLETO CON TIEMPO ABSOLUTO CORRECTO.


================================================================================
COMENTARIOS:














================================================================================
DATOS DE ACELERACION:
---------+---------+---------+---------+---------+---------+---------+---------+
   CANAL-1   CANAL-2   CANAL-3   CANAL-4   CANAL-5   CANAL-6   CANAL-7   CANAL-8
      N00E        +V      N90W
---------+---------+---------+---------+---------+---------+---------+---------+
[...]
   0.08392  -0.09906   0.31719
   0.08392  -0.03926   0.37709
   0.02402   0.02064   0.37709
  -0.03588   0.08054   0.43689
  -0.03588   0.08054   0.43689
  -0.03588  -0.03926   0.55659
  -0.03588  -0.09906   0.49679
  -0.09568  -0.09906   0.49679
  -0.15558  -0.03926   0.37709
  -0.21538   0.08054   0.31719
  -0.21538   0.08054   0.31719
  -0.21538   0.14034   0.25739
  -0.27528   0.26004   0.25739
  -0.27528   0.31994   0.25739
  -0.33508   0.31994   0.25739
  -0.45478   0.26004   0.19749
  -0.51468   0.26004   0.19749
  -0.57448   0.26004   0.19749
  -0.69428   0.14034   0.01799
  -0.75408   0.08054  -0.04191
  -0.75408   0.08054  -0.04191
  -0.69428  -0.03926  -0.04191
  -0.57448  -0.03926  -0.04191
  -0.45478   0.02064   0.01799
  -0.33508  -0.09906  -0.04191
  -0.27528  -0.03926  -0.10181
  -0.27528  -0.03926   0.01799
  -0.15558  -0.09906   0.01799
  -0.03588  -0.09906   0.07779
   0.02402  -0.15896   0.19749
   0.14372  -0.15896   0.13769
   0.14372  -0.21876   0.19749
   0.08392  -0.21876   0.25739
   0.08392  -0.15896   0.31719
   0.08392  -0.03926   0.25739
   0.08392   0.08054   0.19749
   0.14372   0.14034   0.13769
   0.02402   0.14034   0.01799
  -0.03588   0.14034  -0.16161
  -0.15558   0.20024  -0.22151
  -0.27528   0.26004  -0.28131
  -0.27528   0.20024  -0.28131
  -0.33508   0.20024  -0.34121
  -0.39498   0.14034  -0.34121
  -0.27528   0.14034  -0.34121
  -0.15558   0.02064  -0.40101
  -0.03588   0.02064  -0.46091
  -0.03588  -0.03926  -0.52071
  -0.03588  -0.21876  -0.52071
  -0.09568  -0.27866  -0.64041
  -0.03588  -0.21876  -0.64041
  -0.09568  -0.27866  -0.52071
  -0.03588  -0.33846  -0.40101
   0.02402  -0.33846  -0.40101
   0.14372  -0.39836  -0.22151
   0.20362  -0.33846  -0.16161
   0.32332  -0.09906  -0.16161
   0.32332   0.02064  -0.16161
   0.38312   0.08054  -0.16161
   0.38312   0.02064  -0.16161
   0.38312  -0.09906  -0.28131
   0.32332  -0.09906  -0.34121
   0.32332  -0.09906  -0.22151
   0.32332  -0.09906  -0.10181
   0.32332  -0.09906   0.01799
   0.38312  -0.21876   0.07779
   0.44302  -0.15896   0.07779
   0.50282  -0.09906   0.07779
   0.50282  -0.21876   0.07779
   0.44302  -0.33846  -0.04191
   0.38312  -0.33846  -0.04191
   0.26342  -0.33846  -0.10181
   0.08392  -0.27866  -0.04191
  -0.03588  -0.21876  -0.04191
  -0.15558   0.02064   0.13769
  -0.27528   0.08054   0.13769
  -0.45478   0.14034   0.25739
  -0.51468   0.08054   0.19749
  -0.51468   0.02064   0.07779
  -0.63438  -0.03926  -0.04191
  -0.75408   0.02064   0.01799
  -0.87378   0.02064   0.07779
  -0.87378   0.08054   0.07779
  -0.87378   0.26004   0.07779
  -0.81398   0.31994   0.13769
  -0.75408   0.37974   0.13769
  -0.69428   0.43964   0.07779
  -0.69428   0.43964   0.13769
  -0.45478   0.31994   0.01799
  -0.27528   0.14034   0.01799
  -0.15558   0.08054  -0.04191
  -0.03588  -0.03926   0.01799
   0.08392   0.02064   0.01799
   0.32332  -0.03926   0.07779
   0.38312  -0.03926   0.07779
   0.56272   0.02064   0.13769
   0.50282  -0.03926   0.25739
   0.50282  -0.15896   0.25739
   0.50282  -0.21876   0.25739
   0.50282  -0.21876   0.37709
   0.50282  -0.21876   0.31719
   0.44302  -0.15896   0.31719
   0.32332  -0.03926   0.25739
   0.26342   0.02064   0.13769
   0.26342   0.02064   0.13769
   0.20362   0.08054   0.13769
   0.20362   0.14034   0.01799
   0.14372   0.14034  -0.04191
   0.02402   0.14034  -0.10181
  -0.03588   0.08054  -0.04191
  -0.09568   0.08054  -0.16161
  -0.15558   0.14034  -0.22151
  -0.15558   0.14034  -0.34121
  -0.21538  -0.03926  -0.34121
  -0.21538  -0.03926  -0.34121
  -0.27528  -0.09906  -0.28131
  -0.27528   0.02064  -0.22151
  -0.33508   0.26004  -0.22151
  -0.33508   0.14034  -0.16161
  -0.21538   0.20024  -0.10181
  -0.27528   0.20024  -0.16161
  -0.33508   0.08054  -0.22151
  -0.27528   0.02064  -0.22151
  -0.15558  -0.03926  -0.10181
  -0.15558   0.02064  -0.04191
  -0.09568   0.02064   0.07779
  -0.03588  -0.03926   0.13769
   0.20362  -0.03926   0.19749
   0.44302   0.02064   0.31719
   0.56272   0.08054   0.25739
   0.56272   0.02064   0.13769
   0.62252  -0.03926   0.13769
   0.50282  -0.09906   0.13769
   0.56272  -0.15896   0.07779
   0.56272  -0.21876   0.07779
   0.56272  -0.27866   0.13769
   0.50282  -0.15896   0.19749
   0.56272  -0.09906   0.19749
   0.62252  -0.09906   0.13769
   0.74232  -0.03926   0.07779
   0.68242  -0.09906   0.01799
   0.62252  -0.03926   0.01799
   0.56272  -0.09906   0.01799
   0.50282  -0.03926   0.07779
   0.44302  -0.03926   0.13769
   0.38312  -0.09906   0.19749
   0.32332  -0.15896   0.19749
   0.20362  -0.21876   0.19749
   0.02402  -0.15896   0.31719
   0.02402  -0.03926   0.31719
  -0.09568  -0.09906   0.25739
  -0.27528  -0.09906   0.25739
  -0.27528  -0.15896   0.37709
  -0.33508  -0.15896   0.25739
  -0.39498  -0.15896   0.25739
  -0.39498  -0.03926   0.19749
  -0.45478  -0.03926   0.13769
  -0.51468  -0.03926   0.13769
  -0.57448   0.08054   0.01799
  -0.69428   0.26004  -0.10181
  -0.69428   0.20024  -0.10181
  -0.69428   0.20024  -0.16161
  -0.63438   0.14034  -0.22151
  -0.51468   0.02064  -0.22151
  -0.39498  -0.03926  -0.16161
  -0.27528  -0.03926  -0.16161
  -0.21538  -0.03926  -0.22151
  -0.15558   0.08054  -0.10181
  -0.09568   0.08054  -0.04191
  -0.09568   0.14034  -0.10181
  -0.03588   0.20024  -0.04191
  -0.09568   0.31994   0.01799
  -0.03588   0.26004   0.07779
  -0.09568   0.20024  -0.10181
  -0.15558   0.14034  -0.28131
  -0.09568   0.02064  -0.22151
  -0.09568   0.02064  -0.22151
  -0.03588   0.08054  -0.28131
   0.08392   0.08054  -0.22151
   0.08392   0.14034  -0.22151
   0.20362   0.14034  -0.04191
   0.32332  -0.03926  -0.04191
   0.32332  -0.21876   0.01799
   0.32332  -0.33846   0.01799
   0.26342  -0.39836   0.13769
   0.26342  -0.39836   0.07779
   0.32332  -0.39836   0.01799
   0.26342  -0.27866   0.13769
   0.26342  -0.21876   0.25739
   0.32332   0.02064   0.25739
   0.44302   0.08054   0.19749
   0.50282   0.08054   0.19749
   0.44302   0.08054   0.19749
   0.44302   0.08054   0.19749
   0.50282   0.02064   0.13769
   0.50282  -0.03926   0.01799
   0.38312  -0.03926  -0.04191
   0.32332   0.08054  -0.04191
   0.38312   0.02064  -0.10181
   0.38312   0.02064  -0.22151
   0.38312   0.08054  -0.22151
   0.26342   0.02064  -0.28131
   0.26342   0.02064  -0.34121
   0.26342   0.02064  -0.34121
   0.14372   0.02064  -0.28131
  -0.09568   0.02064  -0.28131
  -0.21538   0.02064  -0.22151
  -0.27528   0.02064  -0.10181
  -0.39498   0.02064  -0.10181
  -0.39498   0.02064  -0.04191
  -0.51468   0.08054  -0.10181
  -0.57448   0.14034   0.01799
  -0.51468   0.26004   0.01799
  -0.57448   0.31994  -0.04191
  -0.69428   0.43964   0.13769
  -0.75408   0.31994   0.13769
  -0.75408   0.26004   0.13769
  -0.81398   0.26004   0.13769
  -0.75408   0.26004   0.07779
  -0.69428   0.20024   0.13769
  -0.63438   0.31994   0.07779
  -0.63438   0.20024   0.07779
  -0.51468   0.14034   0.07779
  -0.45478   0.08054   0.01799
  -0.33508  -0.03926  -0.04191
  -0.27528  -0.15896  -0.04191
  -0.21538  -0.21876   0.01799
  -0.21538  -0.27866   0.01799
  -0.15558  -0.33846   0.01799
  -0.03588  -0.39836   0.01799
   0.02402  -0.45816   0.07779
   0.02402  -0.39836   0.07779
   0.02402  -0.33846   0.01799
   0.02402  -0.33846   0.01799
   0.08392  -0.27866  -0.04191
   0.08392  -0.09906  -0.04191
   0.14372   0.02064  -0.10181
   0.02402   0.02064  -0.16161
  -0.09568   0.02064  -0.22151
  -0.15558   0.02064  -0.22151
  -0.15558   0.02064  -0.28131
  -0.21538  -0.03926  -0.40101
  -0.15558  -0.03926  -0.52071
  -0.15558   0.02064  -0.64041
  -0.09568  -0.03926  -0.64041
  -0.03588  -0.15896  -0.58061
   0.02402  -0.15896  -0.52071
   0.14372  -0.21876  -0.46091
   0.20362  -0.15896  -0.34121
   0.26342  -0.15896  -0.28131
   0.26342  -0.15896  -0.16161
   0.32332  -0.09906   0.01799
   0.32332  -0.03926   0.07779
   0.38312   0.02064   0.01799
   0.50282   0.08054   0.07779
   0.50282   0.08054   0.01799
   0.56272   0.08054   0.01799
   0.68242   0.02064   0.07779
   0.68242  -0.03926   0.07779
   0.74232  -0.03926   0.01799
   0.74232   0.02064   0.07779
   0.74232   0.26004   0.13769
   0.56272   0.26004   0.13769
   0.50282   0.37974   0.19749
   0.44302   0.37974   0.25739
   0.38312   0.37974   0.25739
   0.32332   0.31994   0.25739
   0.26342   0.31994   0.31719
   0.08392   0.20024   0.43689
  -0.09568   0.31994   0.37709
  -0.15558   0.26004   0.37709
  -0.27528   0.08054   0.37709
  -0.39498   0.08054   0.49679
  -0.45478   0.14034   0.55659
  -0.39498   0.08054   0.67639
  -0.39498   0.14034   0.61649
  -0.33508   0.08054   0.55659
  -0.33508   0.02064   0.43689
  -0.33508   0.02064   0.37709
  -0.45478   0.08054   0.25739
  -0.57448   0.02064   0.25739
  -0.63438   0.02064   0.13769
  -0.57448   0.02064   0.07779
  -0.51468  -0.03926   0.13769
  -0.51468  -0.15896   0.01799
  -0.39498  -0.09906  -0.04191
  -0.27528  -0.03926  -0.04191
  -0.15558  -0.03926  -0.10181
  -0.03588  -0.03926  -0.16161
   0.14372   0.02064  -0.16161
   0.20362  -0.03926  -0.34121
   0.20362  -0.03926  -0.40101
   0.20362  -0.09906  -0.34121
   0.20362  -0.15896  -0.28131
   0.14372  -0.21876  -0.28131
   0.14372  -0.27866  -0.34121
   0.20362  -0.27866  -0.28131
   0.32332  -0.21876  -0.22151
   0.38312  -0.21876  -0.10181
   0.32332  -0.09906  -0.04191
   0.38312  -0.03926   0.01799
   0.38312  -0.03926   0.19749
   0.26342  -0.03926   0.25739
   0.20362  -0.03926   0.31719
   0.20362  -0.03926   0.25739
   0.20362  -0.09906   0.19749
   0.14372  -0.21876   0.13769
   0.08392  -0.27866   0.07779
   0.08392  -0.27866  -0.04191
   0.08392  -0.21876  -0.10181
  -0.03588  -0.21876  -0.10181
   0.08392  -0.15896  -0.16161
   0.08392  -0.15896  -0.16161
   0.08392  -0.15896  -0.28131
   0.02402   0.02064  -0.34121
  -0.09568   0.20024  -0.34121
  -0.09568   0.26004  -0.34121
  -0.09568   0.31994  -0.28131
  -0.03588   0.37974  -0.16161
   0.08392   0.43964  -0.10181
   0.20362   0.43964  -0.16161
   0.20362   0.37974   0.01799
   0.20362   0.37974   0.13769
   0.20362   0.31994   0.19749
   0.26342   0.26004   0.43689
   0.32332   0.14034   0.61649
   0.44302   0.08054   0.73619
   0.50282   0.02064   0.85589
   0.50282  -0.15896   0.79609
   0.50282  -0.27866   0.67639
   0.56272  -0.33846   0.55659
   0.50282  -0.33846   0.37709
   0.32332  -0.33846   0.31719
   0.20362  -0.15896   0.25739
   0.14372  -0.09906   0.25739
   0.02402  -0.09906   0.25739
  -0.03588   0.02064   0.19749
  -0.09568   0.20024   0.19749
  -0.21538   0.26004   0.13769
  -0.27528   0.37974   0.07779
  -0.21538   0.49944  -0.04191
  -0.33508   0.43964  -0.10181
  -0.51468   0.43964  -0.16161
  -0.63438   0.31994  -0.16161
  -0.81398   0.31994  -0.10181
  -0.99348   0.20024  -0.16161
  -1.05338   0.08054  -0.22151
  -1.11318  -0.15896  -0.16161
  -0.99348  -0.27866  -0.04191
  -0.93368  -0.27866  -0.04191
  -0.81398  -0.33846  -0.16161
  -0.63438  -0.27866  -0.10181
  -0.63438  -0.21876  -0.16161
  -0.57448  -0.09906  -0.16161
  -0.51468  -0.03926  -0.22151
  -0.39498  -0.03926  -0.16161
  -0.33508  -0.15896  -0.22151
  -0.15558  -0.21876  -0.28131
  -0.09568  -0.21876  -0.34121
  -0.03588  -0.27866  -0.40101
   0.02402  -0.21876  -0.34121
   0.14372  -0.21876  -0.28131
   0.26342  -0.15896  -0.28131
   0.26342  -0.09906  -0.28131
   0.32332  -0.09906  -0.34121
   0.38312  -0.03926  -0.34121
   0.44302  -0.03926  -0.40101
   0.44302  -0.27866  -0.40101
   0.44302  -0.33846  -0.34121
   0.50282  -0.33846  -0.34121
   0.56272  -0.21876  -0.34121
   0.62252  -0.09906  -0.34121
   0.56272   0.02064  -0.34121
   0.56272   0.20024  -0.28131
   0.50282   0.31994  -0.28131
   0.32332   0.37974  -0.28131
   0.32332   0.26004  -0.28131
   0.32332   0.14034  -0.16161
   0.26342   0.20024  -0.10181
   0.14372   0.20024  -0.04191
   0.02402   0.02064   0.13769
  -0.03588   0.02064   0.31719
   0.02402  -0.03926   0.31719
   0.02402  -0.09906   0.25739
   0.02402  -0.03926   0.19749
  -0.03588  -0.03926   0.13769
  -0.03588   0.02064   0.19749
   0.08392  -0.03926   0.31719
   0.20362  -0.15896   0.37709
   0.26342  -0.03926   0.37709
   0.26342  -0.15896   0.37709
   0.32332  -0.15896   0.31719
   0.44302  -0.15896   0.25739
   0.44302  -0.09906   0.19749
   0.44302  -0.09906   0.07779
   0.38312   0.02064  -0.04191
   0.26342   0.14034  -0.10181
   0.14372   0.14034  -0.16161
   0.08392   0.20024  -0.16161
  -0.03588   0.26004  -0.10181
  -0.09568   0.31994   0.01799
  -0.09568   0.31994   0.07779
  -0.15558   0.37974   0.01799
  -0.15558   0.31994   0.07779
  -0.21538   0.31994   0.01799
  -0.27528   0.20024  -0.04191
  -0.33508   0.14034   0.01799
  -0.33508   0.08054   0.07779
  -0.33508   0.08054   0.13769
  -0.39498   0.08054   0.19749
  -0.39498   0.02064   0.31719
  -0.45478   0.14034   0.43689
  -0.39498   0.20024   0.49679
  -0.33508   0.14034   0.37709
  -0.21538   0.02064   0.07779
  -0.09568  -0.09906   0.13769
  -0.09568  -0.15896   0.07779
  -0.15558  -0.21876   0.07779
  -0.09568  -0.15896   0.13769
  -0.09568  -0.21876   0.07779
  -0.03588  -0.27866   0.13769
   0.08392  -0.21876   0.19749
   0.08392  -0.27866   0.13769
   0.14372  -0.21876   0.13769
   0.14372  -0.33846   0.13769
  -0.03588  -0.39836   0.01799
  -0.09568  -0.33846  -0.04191
  -0.09568  -0.27866  -0.10181
  -0.21538  -0.15896  -0.22151
  -0.27528   0.02064  -0.16161
  -0.27528   0.02064  -0.16161
  -0.21538  -0.03926  -0.04191
  -0.21538   0.08054   0.13769
  -0.27528   0.14034   0.13769
  -0.27528   0.20024   0.13769
  -0.27528   0.20024   0.07779
  -0.21538   0.14034   0.07779
  -0.15558   0.08054   0.13769
   0.02402   0.02064   0.07779
   0.08392  -0.09906  -0.10181
   0.20362  -0.09906  -0.04191
   0.20362  -0.03926   0.07779
   0.26342  -0.03926   0.01799
   0.26342  -0.03926   0.01799
   0.14372   0.02064   0.01799
   0.08392  -0.09906   0.07779
  -0.03588  -0.03926   0.07779
  -0.03588   0.02064  -0.04191
  -0.15558   0.08054  -0.04191
  -0.21538   0.20024  -0.04191
  -0.33508   0.26004  -0.04191
  -0.45478   0.26004  -0.04191
  -0.39498   0.20024  -0.10181
  -0.45478   0.20024  -0.16161
  -0.45478   0.20024  -0.16161
  -0.39498   0.20024  -0.10181
  -0.27528   0.08054  -0.04191
  -0.21538   0.02064  -0.04191
  -0.21538   0.02064  -0.04191
  -0.15558  -0.03926  -0.04191
  -0.09568  -0.03926   0.01799
  -0.03588  -0.15896  -0.04191
  -0.03588  -0.21876  -0.10181
  -0.03588  -0.09906   0.01799
   0.02402  -0.03926   0.01799
   0.08392  -0.09906   0.01799
   0.20362  -0.03926   0.13769
   0.32332   0.02064   0.25739
   0.38312   0.02064   0.19749
   0.50282   0.02064   0.13769
   0.56272  -0.03926   0.01799
   0.50282   0.02064  -0.04191
   0.38312   0.02064  -0.22151
   0.32332  -0.03926  -0.34121
   0.26342  -0.09906  -0.40101
   0.20362   0.02064  -0.40101
   0.20362   0.02064  -0.46091
   0.26342   0.02064  -0.46091
   0.32332   0.02064  -0.40101
   0.26342  -0.09906  -0.34121
   0.08392  -0.15896  -0.34121
   0.02402  -0.15896  -0.28131
  -0.03588  -0.21876  -0.22151
  -0.09568  -0.27866  -0.10181
  -0.15558  -0.21876   0.01799
  -0.21538  -0.15896   0.07779
  -0.15558  -0.09906   0.25739
  -0.09568  -0.03926   0.37709
  -0.09568   0.02064   0.43689
   0.02402   0.14034   0.49679
   0.02402   0.08054   0.55659
   0.14372   0.02064   0.55659
   0.14372   0.02064   0.49679
   0.20362   0.08054   0.49679
   0.32332   0.08054   0.43689
   0.20362   0.02064   0.43689
   0.14372   0.02064   0.49679
