********************************************************************************
              CENTRO DE INSTRUMENTACION Y REGISTRO SISMICO  A.C.

    Anaxagoras 814, Col. Narvarte, Benito Juarez, C.P. 03020 Mexico, D.F.
           Tels. 5687 45 42/ 5687 45  82             Fax. 5669 25 12
********************************************************************************
ARCHIVO ESTANDAR DE ACELERACION:
VERSION DEL FORMATO                    : 2.0
NOMBRE DEL ARCHIVO                     : AL0120100209004740
FECHA Y HORA DE CREACION               : 09/FEB/10, 11:37
REF. CATALOGO ACELEROGRAMAS, SMIS 1996 : REGISTRO No.     /PAG.


================================================================================
DATOS DE LA ESTACION:
NOMBRE DE LA ESTACION                  : ALAMEDA
CLAVE DE LA ESTACION                   : AL01
LOCALIZACION DE LA ESTACION            : Del. Cuauhtémoc, Col. Centro,          
                                       : Dr. Mora entre Av. Hidalgo             
                                       : y Av. Juárez.                          
                                       :                                        
                                       : 
COORDENADAS DE LA ESTACION             : 19.4356 LAT. N
                                       : 99.1453 LONG. W
ALTITUD (msnm)                         : 2232
TIPO DE SUELO                          : Terreno blando, material compresible
                                       : (arcillas)                
                                       : 
INSTITUCION RESPONSABLE                : CIRES
                                       : 

================================================================================
DATOS DEL ACELEROGRAFO:
MODELO DEL ACELEROGRAFO                : RADESD
NUMERO DE SERIE DEL ACELEROGRAFO       : 152
NUMERO DE CANALES                      : 3
ORIENTACION C1-C6 (rumbo;orientacion)  : /N00E/+V/N90W
ORIENTACION C7-C12 (rumbo;orientacion) : 
VEL. DE MUESTREO, C1-C6 (muestras/s)   : /100/100/100
VEL. DE MUESTREO, C7-C12 (muestras/s)  : 
ESC. COMPLETA DE SENSORES, C1-C6, (g)  : /0.5/0.5/0.5
ESC. COMPLETA DE SENSORES, C7-C12, (g) : 
FREC. NAT. DE SENSORES, C1-C6, (Hz)    : /51.29/51.09/53.75
FREC. NAT. DE SENSORES, C7-C12, (Hz)   : 
AMORTIGUAMIENTO DE SENSORES, C1-C6     : /0.5519/0.5670/0.5810
AMORTIGUAMIENTO DE SENSORES, C7-C12    : 
INTERVALO DE MUESTREO, C1-C6, (s)      : /0.01/0.01/0.01
INTERVALO DE MUESTREO, C7-C12, (s)     : 
UMBRAL DE DISPARO, C1-C6, (Gal)        : /0.72/1.44/0.72
UMBRAL DE DISPARO, C7-C12, (Gal)       : 
MEMORIA DE PREEVENTO (s)               : 56.0
TIEMPO DE POSEVENTO (s)                : 64.0


================================================================================
DATOS DEL SISMO:
FECHA DEL SISMO (GMT)                  : 09/FEB/10
HORA EPICENTRO (GMT)                   : 00:47:40.0
MAGNITUD(ES)                           : /Mc=5.8
COORDENADAS DEL EPICENTRO              : 15.90 LAT. N
                                       : 98.86 LONG. W
PROFUNDIDAD FOCAL (km)                 : 37
FUENTE DE LOS DATOS EPICENTRALES       : SSN
                                       : INSTITUTO DE GEOFISICA, UNAM

================================================================================
DATOS DE ESTE REGISTRO:
HORA DE LA PRIMERA MUESTRA (GMT)       : 00:49:51.00
EXACTITUD DEL TIEMPO (s)               : 0.01
DURACION DEL REGISTRO (s), C1-C6       : /191.25/191.25/191.25
DURACION DEL REGISTRO (s), C7-C12      : 
NUM. TOTAL DE MUESTRAS, C1-C6          : /19125/19125/19125
NUM. TOTAL DE MUESTRAS, C7-C12         : 
ACEL. MAX. (Gal), C1-C6                : /1.85348/0.90072/2.14803
ACEL. MAX., C1-C6, EN LA MUESTRA       : /6448/2798/6502
ACEL. MAX. (Gal), C7-C12               : 
ACEL. MAX., C7-C12, EN LA MUESTRA      : 
UNIDADES DE LOS DATOS                  : Gal (cm/s/s)
FACTOR DE DECIMACION                   : 1
FORMATO DATOS (FORTRAN,10 campos/dato) : 3F10.5


================================================================================
CALIDAD DEL ACELEROGRAMA:
REGISTRO DIGITAL COMPLETO CON TIEMPO ABSOLUTO CORRECTO.


================================================================================
COMENTARIOS:














================================================================================
DATOS DE ACELERACION:
---------+---------+---------+---------+---------+---------+---------+---------+
   CANAL-1   CANAL-2   CANAL-3   CANAL-4   CANAL-5   CANAL-6   CANAL-7   CANAL-8
      N00E        +V      N90W
---------+---------+---------+---------+---------+---------+---------+---------+
[...]
   0.65638  -0.05696  -0.72501
   0.65638   0.18246  -0.72501
   0.65638  -0.05696  -0.96443
   0.65638  -0.05696  -0.72501
   0.65638  -0.05696  -0.96443
   0.41696  -0.05696  -0.96443
   0.65638  -0.29638  -1.20385
   0.41696  -0.29638  -1.20385
   0.41696  -0.29638  -0.96443
   0.41696  -0.05696  -1.20385
   0.41696   0.18246  -1.20385
   0.41696  -0.05696  -0.96443
   0.17754  -0.05696  -0.96443
   0.41696  -0.05696  -0.96443
   0.17754  -0.05696  -0.96443
   0.17754  -0.05696  -0.96443
   0.17754  -0.05696  -0.96443
  -0.06188  -0.05696  -0.96443
   0.17754   0.18246  -0.96443
   0.17754   0.18246  -0.96443
   0.17754   0.18246  -0.72501
   0.17754   0.18246  -0.72501
   0.17754   0.18246  -0.48559
   0.17754  -0.05696  -0.72501
   0.17754   0.18246  -0.48559
  -0.06188   0.18246  -0.48559
   0.17754   0.18246  -0.24617
  -0.06188   0.18246  -0.24617
  -0.06188   0.18246  -0.00675
   0.17754  -0.05696  -0.24617
  -0.06188   0.18246  -0.00675
   0.17754  -0.05696  -0.00675
   0.17754  -0.05696   0.23267
  -0.06188  -0.05696   0.23267
   0.17754  -0.29638   0.47209
  -0.06188  -0.05696   0.47209
   0.17754  -0.05696   0.47209
   0.17754  -0.29638   0.47209
  -0.06188  -0.29638   0.71151
  -0.06188  -0.29638   0.71151
   0.17754  -0.29638   0.71151
  -0.06188  -0.29638   0.71151
  -0.06188  -0.29638   0.71151
  -0.06188  -0.29638   0.71151
  -0.30130  -0.29638   0.71151
  -0.30130  -0.29638   0.95093
  -0.30130  -0.29638   0.71151
  -0.30130  -0.29638   0.71151
  -0.30130  -0.05696   0.71151
  -0.54072  -0.29638   0.95093
  -0.54072  -0.05696   0.71151
  -0.54072  -0.29638   0.71151
  -0.54072  -0.05696   0.71151
  -0.54072  -0.29638   0.71151
  -0.54072  -0.05696   0.71151
  -0.54072  -0.05696   0.95093
  -0.78014  -0.05696   0.95093
  -1.01956  -0.05696   0.71151
  -0.78014   0.18246   0.95093
  -0.78014   0.18246   0.71151
  -0.78014  -0.05696   0.95093
  -0.78014   0.18246   0.71151
  -0.78014   0.42188   0.71151
  -0.54072   0.18246   0.71151
  -0.54072   0.18246   0.71151
  -0.78014   0.18246   0.71151
  -0.54072   0.18246   0.47209
  -0.54072   0.42188   0.71151
  -0.54072   0.18246   0.71151
  -0.30130   0.18246   0.47209
  -0.30130   0.42188   0.95093
  -0.30130   0.18246   0.95093
  -0.06188   0.18246   0.95093
  -0.06188  -0.05696   0.71151
  -0.06188   0.18246   0.71151
  -0.06188   0.42188   0.71151
   0.17754  -0.05696   0.71151
   0.17754   0.18246   0.71151
   0.17754   0.18246   0.95093
   0.17754   0.18246   0.95093
   0.17754  -0.05696   0.95093
   0.17754  -0.05696   0.95093
   0.17754   0.18246   0.95093
   0.41696  -0.05696   0.71151
  -0.06188  -0.05696   0.71151
  -0.06188   0.18246   0.71151
  -0.06188  -0.29638   0.71151
   0.17754  -0.05696   0.71151
  -0.06188  -0.29638   0.71151
  -0.06188  -0.29638   0.71151
  -0.30130  -0.29638   0.71151
   0.17754  -0.29638   0.71151
  -0.30130  -0.29638   0.71151
  -0.30130  -0.05696   0.71151
  -0.06188  -0.29638   0.47209
  -0.30130  -0.29638   0.71151
  -0.30130  -0.29638   0.47209
  -0.54072  -0.29638   0.47209
  -0.54072  -0.05696   0.47209
  -0.54072  -0.29638   0.23267
  -0.54072  -0.29638   0.23267
  -0.54072  -0.05696   0.23267
  -0.54072  -0.29638   0.23267
  -0.54072  -0.29638   0.23267
  -0.54072  -0.29638   0.23267
  -0.54072  -0.05696   0.23267
  -0.54072  -0.29638  -0.00675
  -0.54072  -0.29638   0.23267
  -0.54072  -0.29638  -0.24617
  -0.54072   0.18246  -0.24617
  -0.54072  -0.05696  -0.00675
  -0.54072  -0.05696  -0.24617
  -0.54072  -0.05696  -0.24617
  -0.54072  -0.05696  -0.24617
  -0.54072   0.18246  -0.24617
  -0.54072   0.18246  -0.48559
  -0.54072   0.18246  -0.48559
  -0.54072   0.18246  -0.48559
  -0.54072   0.18246  -0.48559
  -0.54072   0.18246  -0.48559
  -0.30130   0.42188  -0.48559
  -0.30130   0.42188  -0.72501
  -0.30130   0.18246  -0.72501
  -0.54072   0.18246  -0.72501
  -0.30130   0.42188  -0.72501
  -0.30130   0.42188  -0.96443
  -0.30130   0.42188  -0.72501
  -0.30130   0.42188  -0.72501
  -0.30130   0.42188  -0.72501
  -0.06188   0.18246  -0.72501
  -0.06188   0.42188  -0.72501
  -0.06188   0.18246  -0.72501
   0.17754   0.42188  -0.72501
   0.17754  -0.05696  -0.72501
   0.17754  -0.05696  -0.48559
   0.17754   0.18246  -0.48559
   0.17754   0.18246  -0.48559
   0.17754   0.18246  -0.48559
   0.41696   0.18246  -0.48559
   0.41696  -0.05696  -0.48559
   0.41696  -0.05696  -0.48559
   0.41696  -0.05696  -0.48559
   0.65638  -0.05696  -0.24617
   0.65638  -0.05696  -0.24617
   0.41696  -0.05696  -0.24617
   0.65638  -0.29638  -0.24617
   0.65638  -0.29638  -0.00675
   0.65638  -0.05696  -0.24617
   0.89580  -0.29638  -0.48559
   0.89580  -0.29638  -0.24617
   0.89580  -0.29638  -0.24617
   0.89580  -0.05696  -0.48559
   0.89580  -0.29638  -0.24617
   0.89580  -0.05696  -0.48559
   0.65638  -0.05696  -0.48559
   0.65638  -0.29638  -0.48559
   0.89580  -0.05696  -0.48559
   0.65638  -0.05696  -0.72501
   0.89580  -0.05696  -0.72501
   0.65638   0.18246  -0.72501
   0.65638  -0.05696  -0.96443
   0.65638  -0.05696  -0.96443
   0.65638  -0.05696  -1.20385
   0.41696   0.18246  -1.20385
   0.41696  -0.05696  -1.20385
   0.41696   0.18246  -1.20385
   0.41696   0.42188  -1.20385
   0.41696   0.18246  -1.20385
   0.41696   0.18246  -1.20385
   0.41696   0.18246  -1.44327
   0.17754   0.18246  -1.20385
   0.17754  -0.05696  -1.20385
   0.17754   0.18246  -1.20385
   0.17754   0.18246  -1.20385
   0.17754   0.18246  -1.20385
   0.17754   0.42188  -1.20385
   0.17754   0.18246  -1.20385
   0.17754   0.18246  -0.96443
   0.17754   0.42188  -0.96443
   0.17754   0.42188  -0.96443
   0.17754   0.18246  -0.72501
   0.17754   0.18246  -0.72501
   0.17754   0.18246  -0.72501
   0.17754   0.42188  -0.48559
   0.17754   0.18246  -0.24617
  -0.06188  -0.05696  -0.24617
   0.17754  -0.05696  -0.24617
   0.41696  -0.05696  -0.24617
  -0.06188  -0.05696  -0.00675
   0.17754  -0.05696  -0.00675
   0.41696  -0.05696   0.23267
   0.41696  -0.29638   0.23267
   0.17754  -0.29638   0.47209
   0.41696  -0.29638   0.71151
   0.17754  -0.05696   0.71151
   0.17754  -0.05696   0.71151
   0.17754  -0.05696   0.95093
   0.17754  -0.05696   0.95093
   0.17754  -0.29638   0.95093
   0.17754  -0.05696   0.95093
  -0.06188  -0.29638   1.19035
  -0.06188  -0.29638   1.19035
  -0.06188  -0.29638   1.19035
  -0.06188  -0.29638   1.19035
  -0.30130  -0.05696   1.19035
  -0.30130  -0.29638   1.19035
  -0.30130  -0.29638   0.95093
  -0.54072  -0.29638   0.95093
  -0.54072  -0.29638   0.95093
  -0.54072  -0.29638   0.95093
  -0.78014  -0.29638   0.71151
  -1.01956  -0.05696   0.71151
  -1.01956  -0.05696   0.95093
  -1.01956  -0.05696   0.95093
  -1.25898  -0.29638   0.71151
  -1.01956  -0.29638   0.71151
  -1.25898  -0.29638   0.71151
  -1.25898  -0.29638   0.47209
  -1.01956  -0.29638   0.71151
  -1.25898  -0.29638   0.71151
  -1.25898  -0.29638   0.71151
  -1.01956  -0.05696   0.71151
  -1.25898  -0.29638   0.47209
  -1.01956  -0.05696   0.47209
  -1.01956  -0.29638   0.47209
  -1.01956  -0.05696   0.47209
  -1.01956  -0.29638   0.47209
  -1.01956  -0.05696   0.47209
  -1.01956  -0.05696   0.47209
  -0.78014  -0.29638   0.47209
  -0.78014  -0.05696   0.47209
  -1.01956  -0.05696   0.47209
  -1.01956  -0.05696   0.47209
  -1.01956  -0.05696   0.47209
  -1.01956  -0.05696   0.23267
  -0.78014  -0.05696   0.23267
  -0.78014  -0.05696   0.47209
  -0.78014   0.18246   0.23267
  -0.78014   0.18246   0.23267
  -0.78014  -0.05696   0.47209
  -0.78014  -0.05696   0.23267
  -0.78014  -0.05696   0.23267
  -0.78014   0.18246   0.23267
  -0.78014   0.18246   0.23267
  -1.01956  -0.05696   0.23267
  -0.78014   0.18246   0.23267
  -0.78014  -0.05696  -0.00675
  -0.78014   0.18246  -0.00675
  -0.78014  -0.05696  -0.00675
  -0.78014  -0.05696  -0.00675
  -0.78014  -0.05696  -0.00675
  -0.78014  -0.05696  -0.00675
  -0.78014  -0.05696  -0.24617
  -0.78014  -0.05696  -0.24617
  -0.54072  -0.29638  -0.24617
  -0.54072  -0.05696  -0.48559
  -0.78014  -0.05696  -0.48559
  -0.54072  -0.05696  -0.48559
  -0.54072  -0.05696  -0.48559
  -0.30130   0.18246  -0.48559
  -0.06188  -0.29638  -0.72501
  -0.30130  -0.29638  -0.72501
  -0.30130  -0.05696  -0.96443
  -0.06188  -0.29638  -0.96443
  -0.06188  -0.29638  -0.96443
  -0.06188  -0.29638  -0.96443
   0.17754  -0.05696  -1.20385
   0.17754  -0.29638  -0.96443
   0.17754   0.18246  -1.20385
   0.17754  -0.05696  -1.20385
   0.41696   0.18246  -1.20385
   0.41696  -0.05696  -1.20385
   0.41696  -0.05696  -1.20385
   0.65638  -0.05696  -1.20385
   0.65638  -0.05696  -1.20385
   0.65638   0.18246  -1.20385
   0.89580   0.18246  -1.20385
   0.89580   0.18246  -1.44327
   0.89580   0.18246  -1.20385
   0.89580   0.18246  -1.20385
   0.89580   0.18246  -1.20385
   0.89580   0.42188  -1.20385
   1.13522  -0.05696  -1.20385
   1.37464   0.42188  -0.96443
   1.13522   0.42188  -0.96443
   1.37464   0.18246  -0.96443
   1.37464   0.42188  -1.20385
   1.37464   0.42188  -0.96443
   1.37464   0.42188  -0.96443
   1.37464   0.42188  -0.96443
   1.61406   0.18246  -0.96443
   1.61406   0.42188  -0.72501
   1.85348   0.42188  -0.96443
   1.61406   0.42188  -0.72501
   1.85348   0.18246  -0.72501
   1.61406   0.42188  -0.72501
   1.61406   0.18246  -0.72501
   1.61406   0.42188  -0.72501
   1.61406   0.18246  -0.72501
   1.61406   0.18246  -0.48559
   1.85348   0.18246  -0.48559
   1.61406   0.18246  -0.24617
   1.61406   0.18246  -0.24617
   1.61406   0.18246  -0.48559
   1.37464   0.18246  -0.24617
   1.37464   0.18246  -0.24617
   1.13522   0.18246  -0.24617
   1.37464  -0.05696  -0.00675
   1.13522   0.18246  -0.24617
   0.89580  -0.05696  -0.00675
   0.89580  -0.05696  -0.00675
   0.65638  -0.05696   0.23267
   0.65638  -0.05696  -0.00675
   0.65638  -0.29638   0.23267
   0.41696  -0.05696   0.23267
   0.65638  -0.29638   0.23267
   0.65638  -0.05696   0.47209
   0.41696  -0.29638   0.47209
   0.41696  -0.05696   0.47209
   0.41696  -0.05696   0.47209
   0.41696  -0.05696   0.47209
   0.17754  -0.05696   0.71151
   0.17754  -0.29638   0.71151
   0.17754  -0.29638   0.71151
   0.17754  -0.05696   0.95093
   0.17754  -0.05696   0.95093
   0.17754  -0.05696   0.95093
   0.17754  -0.05696   1.19035
   0.41696  -0.05696   0.95093
   0.17754  -0.05696   1.19035
   0.17754  -0.05696   1.19035
   0.17754   0.18246   1.42977
   0.17754  -0.05696   1.42977
   0.17754   0.18246   1.42977
   0.41696   0.18246   1.42977
   0.41696   0.18246   1.66919
   0.17754   0.42188   1.66919
   0.41696   0.18246   1.66919
   0.41696   0.18246   1.66919
   0.41696   0.18246   1.90861
   0.17754   0.18246   1.90861
   0.41696   0.18246   1.90861
   0.17754   0.18246   1.90861
   0.17754   0.18246   1.90861
   0.41696   0.42188   1.90861
   0.41696   0.18246   1.90861
   0.17754   0.18246   2.14803
   0.17754   0.18246   1.66919
   0.17754   0.18246   1.90861
   0.17754   0.18246   1.90861
   0.17754   0.18246   1.90861
  -0.06188  -0.05696   1.90861
  -0.06188  -0.05696   1.90861
  -0.06188  -0.05696   1.66919
  -0.06188   0.18246   1.66919
  -0.06188  -0.05696   1.66919
  -0.30130  -0.05696   1.42977
  -0.54072  -0.29638   1.42977
  -0.30130  -0.29638   1.42977
  -0.54072  -0.29638   1.42977
  -0.54072  -0.29638   1.42977
  -0.78014  -0.29638   1.19035
  -1.01956  -0.53580   1.19035
  -0.78014  -0.53580   0.95093
  -0.78014  -0.53580   1.19035
  -1.25898  -0.53580   0.95093
  -1.01956  -0.53580   0.71151
  -1.25898  -0.53580   0.71151
  -1.25898  -0.53580   0.71151
  -1.25898  -0.53580   0.47209
  -1.25898  -0.53580   0.47209
  -1.49840  -0.53580   0.47209
  -1.25898  -0.53580   0.23267
  -1.49840  -0.53580  -0.00675
  -1.49840  -0.53580  -0.00675
  -1.49840  -0.53580  -0.00675
  -1.49840  -0.53580  -0.00675
  -1.49840  -0.53580  -0.00675
  -1.49840  -0.29638  -0.00675
  -1.49840  -0.29638  -0.24617
  -1.49840  -0.53580  -0.24617
  -1.49840  -0.29638  -0.48559
  -1.49840  -0.29638  -0.48559
  -1.49840  -0.05696  -0.48559
  -1.49840  -0.05696  -0.48559
  -1.25898  -0.05696  -0.48559
  -1.25898   0.18246  -0.72501
  -1.25898   0.18246  -0.48559
  -1.25898   0.18246  -0.72501
  -1.01956   0.18246  -0.96443
  -1.01956   0.18246  -0.72501
  -1.01956   0.42188  -0.72501
  -1.01956   0.42188  -0.72501
  -1.01956   0.42188  -0.72501
  -0.78014   0.66130  -0.72501
  -0.78014   0.42188  -0.96443
  -0.78014   0.42188  -0.72501
  -0.78014   0.66130  -0.72501
  -0.78014   0.66130  -0.72501
  -0.78014   0.42188  -0.96443
  -0.54072   0.42188  -0.72501
  -0.54072   0.66130  -0.72501
  -0.54072   0.18246  -0.72501
  -0.54072   0.42188  -0.72501
  -0.54072   0.66130  -0.72501
  -0.54072   0.18246  -0.72501
  -0.30130   0.42188  -0.72501
  -0.30130   0.42188  -0.72501
  -0.54072   0.42188  -0.72501
  -0.30130   0.18246  -0.96443
  -0.30130   0.18246  -0.72501
  -0.30130   0.42188  -0.72501
  -0.30130   0.18246  -0.72501
  -0.06188  -0.05696  -0.96443
  -0.30130   0.18246  -0.96443
  -0.30130  -0.05696  -0.96443
  -0.06188  -0.05696  -1.20385
  -0.30130   0.18246  -1.20385
  -0.06188  -0.05696  -1.20385
  -0.30130  -0.05696  -1.44327
  -0.30130  -0.05696  -1.20385
  -0.30130  -0.05696  -1.44327
  -0.06188  -0.05696  -1.44327
  -0.06188  -0.29638  -1.44327
  -0.06188  -0.05696  -1.68269
  -0.06188   0.18246  -1.68269
  -0.30130  -0.05696  -1.68269
  -0.06188   0.18246  -1.44327
  -0.06188  -0.05696  -1.68269
  -0.06188  -0.05696  -1.68269
  -0.06188  -0.05696  -1.68269
   0.17754  -0.05696  -1.68269
  -0.06188  -0.05696  -1.44327
  -0.06188   0.18246  -1.44327
  -0.06188  -0.05696  -1.68269
  -0.06188  -0.29638  -1.44327
  -0.06188   0.18246  -1.44327
  -0.06188  -0.05696  -1.20385
   0.17754  -0.05696  -1.20385
   0.17754   0.18246  -1.20385
  -0.06188   0.18246  -1.20385
   0.17754   0.18246  -0.96443
   0.17754   0.18246  -0.96443
   0.17754  -0.05696  -0.96443
   0.17754   0.18246  -0.96443
   0.41696   0.18246  -0.72501
   0.41696   0.18246  -0.48559
   0.41696   0.18246  -0.48559
   0.65638   0.18246  -0.24617
   0.65638   0.18246  -0.24617
   0.65638   0.18246  -0.24617
   0.65638  -0.05696  -0.24617
   0.89580  -0.05696  -0.24617
   0.89580  -0.05696  -0.00675
   0.89580   0.18246  -0.00675
   1.13522   0.18246  -0.00675
   1.13522  -0.05696  -0.00675
   1.13522  -0.05696   0.23267
   1.37464   0.18246   0.23267
   1.37464   0.18246   0.23267
   1.37464   0.18246  -0.00675
   1.37464   0.18246   0.23267
   1.37464  -0.05696   0.23267
   1.37464  -0.05696   0.23267
   1.13522  -0.05696   0.23267
   1.37464  -0.05696   0.23267
   1.37464  -0.05696   0.23267
   1.37464  -0.05696   0.47209
   1.37464  -0.29638   0.47209
   1.37464  -0.05696   0.47209
   1.37464  -0.05696   0.23267
   1.37464  -0.05696   0.47209
   1.13522  -0.29638   0.47209
   1.13522  -0.05696   0.71151
   1.13522  -0.05696   0.71151
   0.89580  -0.29638   0.71151
   0.89580  -0.05696   0.47209
   0.89580  -0.29638   0.71151
   0.89580  -0.29638   0.71151
   0.89580  -0.05696   0.71151
   0.65638  -0.05696   0.71151
   0.65638  -0.05696   0.71151
   0.65638  -0.05696   0.71151
   0.65638  -0.05696   0.95093
   0.41696  -0.05696   0.71151
   0.65638   0.18246   0.95093
   0.65638   0.18246   0.71151
   0.41696  -0.05696   0.71151
   0.41696  -0.05696   0.71151
   0.65638  -0.05696   0.71151
   0.41696  -0.05696   0.71151
   0.41696  -0.05696   0.71151
   0.41696  -0.05696   0.71151
   0.41696  -0.05696   0.71151
   0.17754  -0.05696   0.71151
   0.17754  -0.29638   0.71151
