********************************************************************************
              CENTRO DE INSTRUMENTACION Y REGISTRO SISMICO  A.C.

    Anaxagoras 814, Col. Narvarte, Benito Juarez, C.P. 03020 Mexico, D.F.
           Tels. 5687 45 42/ 5687 45  82             Fax. 5669 25 12
********************************************************************************
ARCHIVO ESTANDAR DE ACELERACION:
VERSION DEL FORMATO                    : 2.0
NOMBRE DEL ARCHIVO                     : AL0120130821130218
FECHA Y HORA DE CREACION               : 17/SEP/13, 14:53
REF. CATALOGO ACELEROGRAMAS, SMIS 1996 : REGISTRO No.     /PAG.


================================================================================
DATOS DE LA ESTACION:
NOMBRE DE LA ESTACION                  : ALAMEDA
CLAVE DE LA ESTACION                   : AL01
LOCALIZACION DE LA ESTACION            : Del. Cuauhtémoc, Col. Centro,          
                                       : Dr. Mora entre Av. Hidalgo             
                                       : y Av. Juárez.                          
                                       :                                        
                                       : 
COORDENADAS DE LA ESTACION             : 19.4356 LAT. N
                                       : 99.1453 LONG. W
ALTITUD (msnm)                         : 2232
TIPO DE SUELO                          : Terreno blando, material compresible
                                       : (arcillas)                
                                       : 
INSTITUCION RESPONSABLE                : CIRES
                                       : 

================================================================================
DATOS DEL ACELEROGRAFO:
MODELO DEL ACELEROGRAFO                : RADESD
NUMERO DE SERIE DEL ACELEROGRAFO       : 152
NUMERO DE CANALES                      : 3
ORIENTACION C1-C6 (rumbo;orientacion)  : /N00E/+V/N90W
ORIENTACION C7-C12 (rumbo;orientacion) : 
VEL. DE MUESTREO, C1-C6 (muestras/s)   : /100/100/100
VEL. DE MUESTREO, C7-C12 (muestras/s)  : 
ESC. COMPLETA DE SENSORES, C1-C6, (g)  : /0.5/0.5/0.5
ESC. COMPLETA DE SENSORES, C7-C12, (g) : 
FREC. NAT. DE SENSORES, C1-C6, (Hz)    : /51.29/51.09/53.75
FREC. NAT. DE SENSORES, C7-C12, (Hz)   : 
AMORTIGUAMIENTO DE SENSORES, C1-C6     : /0.5519/0.5670/0.5810
AMORTIGUAMIENTO DE SENSORES, C7-C12    : 
INTERVALO DE MUESTREO, C1-C6, (s)      : /0.01/0.01/0.01
INTERVALO DE MUESTREO, C7-C12, (s)     : 
UMBRAL DE DISPARO, C1-C6, (Gal)        : /14.37/28.73/14.37
UMBRAL DE DISPARO, C7-C12, (Gal)       : 
MEMORIA DE PREEVENTO (s)               : 56.0
TIEMPO DE POSEVENTO (s)                : 80.0


================================================================================
DATOS DEL SISMO:
FECHA DEL SISMO (GMT)                  : 21/AGO/13
HORA EPICENTRO (GMT)                   : 13:02:18.0
MAGNITUD(ES)                           : /Mc=5.0
COORDENADAS DEL EPICENTRO              : 16.73 LAT. N
                                       : 99.70 LONG. W
PROFUNDIDAD FOCAL (km)                 : 11
FUENTE DE LOS DATOS EPICENTRALES       : SSN
                                       : INSTITUTO DE GEOFISICA, UNAM

================================================================================
DATOS DE ESTE REGISTRO:
HORA DE LA PRIMERA MUESTRA (GMT)       : 13:03:48.00
EXACTITUD DEL TIEMPO (s)               : 0.01
DURACION DEL REGISTRO (s), C1-C6       : /140.0/140.0/140.0
DURACION DEL REGISTRO (s), C7-C12      : 
NUM. TOTAL DE MUESTRAS, C1-C6          : /14000/14000/14000
NUM. TOTAL DE MUESTRAS, C7-C12         : 
ACEL. MAX. (Gal), C1-C6                : /1.69876/0.72594/1.98142
ACEL. MAX., C1-C6, EN LA MUESTRA       : /4959/4221/4924
ACEL. MAX. (Gal), C7-C12               : 
ACEL. MAX., C7-C12, EN LA MUESTRA      : 
UNIDADES DE LOS DATOS                  : Gal (cm/s/s)
FACTOR DE DECIMACION                   : 1
FORMATO DATOS (FORTRAN,10 campos/dato) : 3F10.5


================================================================================
CALIDAD DEL ACELEROGRAMA:
REGISTRO DIGITAL COMPLETO CON TIEMPO ABSOLUTO CORRECTO.


================================================================================
COMENTARIOS:














================================================================================
DATOS DE ACELERACION:
---------+---------+---------+---------+---------+---------+---------+---------+
   CANAL-1   CANAL-2   CANAL-3   CANAL-4   CANAL-5   CANAL-6   CANAL-7   CANAL-8
      N00E        +V      N90W
---------+---------+---------+---------+---------+---------+---------+---------+
[...]
   0.66551  -0.29199   0.14087
   0.59069  -0.39674   0.08102
   0.63559  -0.45659   0.09598
   0.63559  -0.45659   0.15584
   0.56077  -0.59127   0.18577
   0.53084  -0.59127   0.23066
   0.50091  -0.65112   0.24562
   0.36624  -0.68105   0.21569
   0.23156  -0.68105   0.23066
   0.12682  -0.63616   0.32044
   0.02207  -0.65112   0.36533
  -0.06771  -0.57630   0.33540
  -0.15749  -0.57630   0.38029
  -0.23231  -0.47156   0.35037
  -0.27720  -0.47156   0.38029
  -0.39691  -0.50148   0.47008
  -0.54655  -0.41170   0.42519
  -0.59144  -0.35185   0.47008
  -0.65130  -0.24710   0.50000
  -0.74108  -0.15732   0.41022
  -0.71115  -0.17228   0.39526
  -0.72612  -0.18724   0.48504
  -0.77101  -0.20221   0.42519
  -0.81590  -0.14235   0.42519
  -0.86079  -0.08250   0.39526
  -0.89072  -0.15732   0.26058
  -0.83086  -0.11242   0.21569
  -0.69619  -0.12739   0.24562
  -0.68123  -0.09746   0.15584
  -0.65130  -0.12739   0.12591
  -0.57648  -0.15732   0.14087
  -0.44181  -0.08250   0.17080
  -0.51662   0.02225  -0.05365
  -0.38195   0.00729   0.00620
  -0.29217   0.02225  -0.03869
  -0.23231  -0.05257  -0.06862
  -0.17246   0.00729  -0.03869
  -0.09764  -0.05257  -0.00876
  -0.12757   0.03721  -0.08358
  -0.00786   0.08210  -0.00876
   0.06696   0.14196   0.05109
   0.05200   0.18685   0.06606
   0.15675   0.06714   0.11095
   0.06696   0.12700   0.21569
   0.09689   0.14196   0.23066
   0.09689   0.05218   0.29051
   0.12682   0.09707   0.35037
   0.12682   0.12700   0.48504
   0.14178   0.14196   0.55986
   0.18667   0.20181   0.69453
   0.17171   0.14196   0.72446
   0.14178   0.18685   0.72446
   0.14178   0.06714   0.75439
   0.11185   0.09707   0.73942
   0.15675   0.18685   0.91899
   0.08193   0.24671   0.79928
   0.09689   0.20181   0.78432
   0.12682   0.21678   0.82921
   0.12682   0.24671   0.67957
   0.15675   0.21678   0.67957
   0.23156   0.24671   0.58979
   0.30638   0.27663   0.50000
   0.33631   0.30656   0.45511
   0.38120   0.32152   0.44015
   0.42609   0.30656   0.33540
   0.51588   0.20181   0.29051
   0.57573   0.21678   0.29051
   0.63559   0.15692   0.23066
   0.72537   0.21678   0.20073
   0.65055   0.17189   0.09598
   0.68048   0.14196   0.17080
   0.71040   0.14196   0.14087
   0.78522   0.08210   0.24562
   0.75530   0.02225   0.14087
   0.74033  -0.00768   0.26058
   0.74033  -0.08250   0.21569
   0.65055  -0.15732   0.21569
   0.60566  -0.24710   0.29051
   0.54580  -0.35185   0.32044
   0.50091  -0.32192   0.32044
   0.39617  -0.39674   0.23066
   0.32135  -0.41170   0.18577
   0.23156  -0.54637   0.03613
   0.14178  -0.53141   0.06606
   0.03704  -0.48652   0.02116
  -0.05275  -0.41170   0.06606
  -0.20238  -0.38177  -0.03869
  -0.21735  -0.30695  -0.06862
  -0.32209  -0.21717  -0.21826
  -0.29217  -0.12739  -0.20329
  -0.35202  -0.09746  -0.36789
  -0.42684   0.02225  -0.45768
  -0.38195   0.11203  -0.44271
  -0.38195   0.20181  -0.54746
  -0.32209   0.27663  -0.54746
  -0.33706   0.30656  -0.75695
  -0.27720   0.35145  -0.81681
  -0.17246   0.44123  -0.83177
  -0.06771   0.41131  -0.83177
  -0.06771   0.47116  -0.87666
  -0.06771   0.48613  -0.96644
   0.05200   0.45620  -0.89163
   0.05200   0.38138  -1.02630
   0.12682   0.36642  -1.04126
   0.11185   0.26167  -1.11608
   0.08193   0.14196  -1.14601
   0.11185   0.14196  -1.16097
   0.11185   0.03721  -1.11608
   0.03704   0.03721  -1.14601
  -0.06771  -0.02264  -1.25076
  -0.27720  -0.05257  -1.32557
  -0.36699  -0.06753  -1.31061
  -0.50166  -0.15732  -1.41536
  -0.54655  -0.21717  -1.31061
  -0.75604  -0.24710  -1.37047
  -0.78597  -0.23213  -1.25076
  -0.95057  -0.23213  -1.32557
  -1.02539  -0.20221  -1.32557
  -1.04036  -0.20221  -1.31061
  -1.16007  -0.26206  -1.34054
  -1.20496  -0.14235  -1.20586
  -1.24985  -0.03761  -1.17594
  -1.24985  -0.03761  -1.04126
  -1.17503  -0.05257  -1.01134
  -1.07028  -0.02264  -0.95148
  -0.93561   0.00729  -0.78688
  -0.80094   0.03721  -0.74199
  -0.66626   0.08210  -0.68213
  -0.48670   0.18685  -0.54746
  -0.33706   0.18685  -0.51753
  -0.14253   0.33649  -0.38286
   0.09689   0.38138  -0.21826
   0.27646   0.33649  -0.12847
   0.39617   0.39634  -0.09855
   0.53084   0.38138   0.00620
   0.63559   0.44123   0.12591
   0.69544   0.50109   0.18577
   0.84508   0.42627   0.27555
   0.99472   0.33649   0.35037
   1.00968   0.29160   0.36533
   1.03961   0.26167   0.41022
   1.05457   0.18685   0.39526
   1.00968   0.17189   0.48504
   0.99472   0.14196   0.51497
   0.94982   0.02225   0.51497
   0.84508   0.00729   0.54490
   0.75530  -0.09746   0.51497
   0.72537  -0.11242   0.64964
   0.60566  -0.20221   0.61971
   0.48595  -0.20221   0.64964
   0.45602  -0.23213   0.75439
   0.36624  -0.27703   0.66461
   0.35127  -0.30695   0.73942
   0.21660  -0.26206   0.60475
   0.15675  -0.29199   0.61971
   0.14178  -0.32192   0.57482
   0.12682  -0.42666   0.50000
   0.06696  -0.45659   0.48504
   0.06696  -0.42666   0.50000
  -0.05275  -0.36681   0.51497
  -0.09764  -0.32192   0.41022
  -0.12757  -0.33688   0.32044
  -0.21735  -0.35185   0.29051
  -0.26224  -0.32192   0.35037
  -0.32209  -0.24710   0.24562
  -0.35202  -0.20221   0.29051
  -0.45677  -0.21717   0.20073
  -0.53159  -0.12739   0.20073
  -0.63633  -0.08250   0.06606
  -0.62137  -0.02264   0.17080
  -0.65130   0.02225   0.20073
  -0.63633   0.11203   0.15584
  -0.68123   0.11203   0.09598
  -0.62137   0.21678   0.11095
  -0.62137   0.18685   0.08102
  -0.51662   0.23174   0.17080
  -0.45677   0.29160   0.24562
  -0.42684   0.30656   0.23066
  -0.36699   0.26167   0.15584
  -0.33706   0.27663   0.11095
  -0.26224   0.30656   0.18577
  -0.14253   0.29160   0.29051
  -0.09764   0.27663   0.27555
   0.06696   0.27663   0.41022
   0.09689   0.27663   0.50000
   0.14178   0.24671   0.52993
   0.23156   0.27663   0.61971
   0.23156   0.26167   0.63468
   0.30638   0.24671   0.87410
   0.29142   0.26167   0.90403
   0.32135   0.30656   1.03870
   0.30638   0.26167   1.09855
   0.29142   0.30656   1.17337
   0.18667   0.29160   1.24819
   0.20164   0.27663   1.32301
   0.20164   0.20181   1.41279
   0.21660   0.24671   1.42776
   0.15675   0.12700   1.33798
   0.21660   0.09707   1.45769
   0.08193   0.09707   1.38287
   0.12682   0.14196   1.39783
   0.03704   0.12700   1.32301
   0.05200   0.06714   1.35294
   0.08193   0.00729   1.24819
   0.05200  -0.00768   1.12848
   0.11185  -0.06753   1.06863
   0.20164  -0.17228   1.00877
   0.24653  -0.15732   0.87410
   0.35127  -0.29199   0.82921
   0.42609  -0.33688   0.81424
   0.44106  -0.47156   0.72446
   0.51588  -0.41170   0.61971
   0.50091  -0.50148   0.45511
   0.53084  -0.48652   0.38029
   0.57573  -0.54637   0.35037
   0.62062  -0.57630   0.27555
   0.59069  -0.57630   0.05109
   0.57573  -0.57630  -0.02373
   0.56077  -0.45659  -0.09855
   0.48595  -0.50148  -0.24818
   0.45602  -0.38177  -0.35293
   0.47098  -0.33688  -0.39782
   0.39617  -0.32192  -0.57739
   0.26149  -0.24710  -0.71206
   0.23156  -0.15732  -0.74199
   0.09689  -0.09746  -0.84673
   0.06696  -0.02264  -0.90659
  -0.06771   0.00729  -0.98141
  -0.18742   0.03721  -0.98141
  -0.27720   0.08210  -0.96644
  -0.32209   0.15692  -0.90659
  -0.44181   0.12700  -0.84673
  -0.50166   0.08210  -0.87666
  -0.53159   0.09707  -0.78688
  -0.57648   0.11203  -0.80184
  -0.53159   0.15692  -0.68213
  -0.45677   0.12700  -0.62228
  -0.45677   0.12700  -0.56242
  -0.45677   0.05218  -0.50257
  -0.35202   0.05218  -0.42775
  -0.36699  -0.02264  -0.42775
  -0.20238  -0.14235  -0.39782
  -0.15749  -0.12739  -0.44271
  -0.03778  -0.15732  -0.42775
   0.06696  -0.15732  -0.38286
   0.14178  -0.06753  -0.39782
   0.12682  -0.14235  -0.47264
   0.23156  -0.12739  -0.53250
   0.30638  -0.18724  -0.56242
   0.38120  -0.15732  -0.48760
   0.42609  -0.09746  -0.62228
   0.50091  -0.05257  -0.56242
   0.47098   0.02225  -0.56242
   0.50091   0.03721  -0.50257
   0.44106   0.11203  -0.51753
   0.41113   0.12700  -0.60731
   0.45602   0.11203  -0.53250
   0.39617   0.17189  -0.53250
   0.42609   0.21678  -0.50257
   0.36624   0.20181  -0.39782
   0.32135   0.21678  -0.42775
   0.39617   0.15692  -0.26315
   0.35127   0.20181  -0.33797
   0.26149   0.18685  -0.29307
   0.24653   0.06714  -0.27811
   0.26149   0.11203  -0.18833
   0.26149   0.03721  -0.14344
   0.26149   0.02225  -0.11351
   0.20164   0.02225  -0.11351
   0.20164  -0.02264  -0.00876
   0.11185   0.03721  -0.05365
   0.03704  -0.05257  -0.18833
   0.00711  -0.02264  -0.20329
   0.00711  -0.09746  -0.24818
  -0.02282  -0.06753  -0.29307
  -0.17246  -0.00768  -0.44271
  -0.20238  -0.06753  -0.45768
  -0.21735  -0.03761  -0.44271
  -0.27720  -0.05257  -0.53250
  -0.35202   0.05218  -0.66717
  -0.42684   0.09707  -0.72702
  -0.48670   0.08210  -0.75695
  -0.54655   0.09707  -0.78688
  -0.59144   0.15692  -0.81681
  -0.66626   0.17189  -0.81681
  -0.69619   0.15692  -0.78688
  -0.68123   0.11203  -0.74199
  -0.74108   0.15692  -0.80184
  -0.66626   0.05218  -0.71206
  -0.65130   0.12700  -0.68213
  -0.63633   0.12700  -0.71206
  -0.65130   0.14196  -0.62228
  -0.53159   0.18685  -0.51753
  -0.57648   0.23174  -0.45768
  -0.41188   0.24671  -0.32300
  -0.41188   0.26167  -0.36789
  -0.39691   0.15692  -0.39782
  -0.32209   0.18685  -0.29307
  -0.27720   0.18685  -0.27811
  -0.29217   0.15692  -0.27811
  -0.23231   0.06714  -0.33797
  -0.21735   0.09707  -0.32300
  -0.17246   0.02225  -0.33797
  -0.15749  -0.03761  -0.39782
  -0.14253  -0.02264  -0.35293
  -0.12757   0.02225  -0.35293
  -0.08267  -0.00768  -0.33797
  -0.06771  -0.00768  -0.39782
  -0.06771   0.02225  -0.41278
  -0.03778  -0.08250  -0.44271
  -0.03778  -0.08250  -0.45768
  -0.05275   0.00729  -0.45768
  -0.09764  -0.02264  -0.38286
  -0.15749  -0.09746  -0.39782
  -0.15749  -0.15732  -0.41278
  -0.09764  -0.14235  -0.27811
  -0.08267  -0.12739  -0.24818
  -0.11260  -0.09746  -0.23322
  -0.15749  -0.09746  -0.21826
  -0.15749  -0.09746  -0.12847
  -0.23231  -0.03761  -0.08358
  -0.21735   0.03721   0.02116
  -0.21735   0.08210   0.14087
  -0.21735   0.11203   0.18577
  -0.23231   0.17189   0.24562
  -0.18742   0.18685   0.38029
  -0.29217   0.24671   0.38029
  -0.18742   0.23174   0.50000
  -0.14253   0.29160   0.54490
  -0.00786   0.21678   0.67957
   0.02207   0.26167   0.76935
   0.12682   0.23174   0.94892
   0.17171   0.12700   1.00877
   0.35127   0.09707   1.14345
   0.36624   0.02225   1.18834
   0.47098  -0.05257   1.30805
   0.51588  -0.15732   1.30805
   0.53084  -0.23213   1.42776
   0.62062  -0.27703   1.48761
   0.68048  -0.36681   1.62229
   0.71040  -0.47156   1.66718
   0.74033  -0.56134   1.71207
   0.86004  -0.59127   1.84674
   0.77026  -0.60623   1.92156
   0.78522  -0.63616   1.93653
   0.71040  -0.62119   1.93653
   0.68048  -0.59127   1.98142
   0.60566  -0.59127   1.93653
   0.63559  -0.53141   1.87667
   0.48595  -0.53141   1.71207
   0.47098  -0.45659   1.74200
   0.50091  -0.38177   1.63725
   0.53084  -0.29199   1.54747
   0.48595  -0.14235   1.44272
   0.48595  -0.00768   1.30805
   0.39617  -0.00768   1.12848
   0.41113   0.12700   0.99381
   0.36624   0.24671   0.85913
   0.36624   0.29160   0.72446
   0.29142   0.39634   0.52993
   0.29142   0.45620   0.42519
   0.24653   0.53102   0.18577
   0.18667   0.63576   0.05109
   0.08193   0.65073  -0.02373
  -0.00786   0.65073  -0.15840
  -0.06771   0.60584  -0.26315
  -0.05275   0.63576  -0.29307
  -0.24728   0.57591  -0.45768
  -0.36699   0.56094  -0.44271
  -0.48670   0.57591  -0.48760
  -0.71115   0.48613  -0.56242
  -0.84583   0.50109  -0.53250
  -1.05532   0.44123  -0.54746
  -1.16007   0.38138  -0.45768
  -1.27978   0.32152  -0.44271
  -1.30970   0.26167  -0.30804
  -1.50423   0.17189  -0.38286
  -1.51920   0.14196  -0.26315
  -1.62394   0.12700  -0.26315
  -1.59401   0.05218  -0.09855
  -1.66883   0.00729  -0.15840
  -1.69876  -0.03761  -0.17336
  -1.65387  -0.00768  -0.14344
  -1.51920  -0.20221   0.03613
  -1.41445  -0.20221  -0.03869
  -1.33963  -0.24710  -0.08358
  -1.20496  -0.20221  -0.06862
  -1.01043  -0.32192  -0.05365
  -0.92065  -0.32192  -0.24818
  -0.66626  -0.32192  -0.21826
  -0.47173  -0.33688  -0.20329
  -0.26224  -0.30695  -0.27811
  -0.05275  -0.38177  -0.27811
   0.14178  -0.36681  -0.41278
   0.23156  -0.42666  -0.45768
   0.48595  -0.39674  -0.41278
   0.63559  -0.45659  -0.38286
   0.72537  -0.39674  -0.44271
   0.86004  -0.42666  -0.45768
   0.88997  -0.45659  -0.48760
   0.97975  -0.56134  -0.53250
   1.03961  -0.59127  -0.53250
   1.02464  -0.57630  -0.57739
   0.99472  -0.48652  -0.54746
   0.96479  -0.47156  -0.59235
   0.97975  -0.39674  -0.54746
   0.87501  -0.41170  -0.53250
   0.88997  -0.38177  -0.59235
   0.75530  -0.30695  -0.69710
   0.69544  -0.26206  -0.74199
   0.59069  -0.23213  -0.74199
   0.50091  -0.05257  -0.80184
   0.38120  -0.02264  -0.78688
   0.33631   0.08210  -0.83177
   0.27646   0.09707  -0.95148
   0.24653   0.17189  -0.87666
   0.14178   0.26167  -0.89163
   0.08193   0.29160  -0.92155
  -0.03778   0.41131  -0.95148
  -0.06771   0.35145  -1.02630
  -0.09764   0.50109  -1.01134
  -0.09764   0.48613  -0.95148
  -0.18742   0.47116  -0.90659
  -0.23231   0.56094  -0.84673
  -0.17246   0.57591  -0.75695
  -0.18742   0.50109  -0.72702
  -0.26224   0.50109  -0.72702
  -0.36699   0.59087  -0.66717
  -0.29217   0.54598  -0.47264
  -0.27720   0.48613  -0.44271
  -0.24728   0.47116  -0.32300
  -0.21735   0.47116  -0.23322
  -0.11260   0.47116  -0.17336
  -0.09764   0.42627  -0.06862
  -0.05275   0.32152   0.00620
   0.06696   0.33649   0.18577
   0.08193   0.29160   0.20073
   0.26149   0.26167   0.32044
   0.27646   0.21678   0.35037
   0.35127   0.14196   0.38029
   0.39617   0.15692   0.42519
   0.45602   0.09707   0.44015
   0.53084   0.06714   0.41022
   0.56077  -0.09746   0.35037
   0.63559  -0.11242   0.39526
   0.69544  -0.21717   0.42519
   0.69544  -0.26206   0.35037
   0.74033  -0.21717   0.36533
   0.72537  -0.29199   0.32044
   0.78522  -0.29199   0.35037
   0.81515  -0.36681   0.35037
   0.78522  -0.35185   0.29051
   0.78522  -0.38177   0.24562
   0.78522  -0.36681   0.18577
   0.77026  -0.45659   0.26058
   0.78522  -0.36681   0.17080
   0.72537  -0.38177   0.14087
   0.74033  -0.32192   0.15584
   0.71040  -0.29199   0.18577
   0.65055  -0.33688   0.20073
   0.53084  -0.29199   0.17080
   0.41113  -0.33688   0.08102
   0.30638  -0.24710   0.06606
   0.23156  -0.15732   0.14087
   0.15675  -0.12739   0.11095
   0.08193  -0.11242   0.09598
  -0.02282   0.00729   0.12591
  -0.05275   0.03721   0.18577
  -0.11260   0.08210   0.11095
  -0.21735   0.12700   0.02116
  -0.23231   0.06714  -0.03869
  -0.29217   0.11203  -0.14344
  -0.32209   0.11203  -0.14344
  -0.21735   0.11203  -0.06862
  -0.21735   0.15692  -0.11351
  -0.26224   0.08210  -0.23322
  -0.24728   0.05218  -0.26315
  -0.18742   0.03721  -0.26315
  -0.09764   0.09707  -0.21826
  -0.09764   0.08210  -0.24818
  -0.06771  -0.00768  -0.26315
  -0.12757  -0.00768  -0.26315
  -0.06771   0.03721  -0.20329
  -0.09764   0.00729  -0.21826
  -0.06771  -0.00768  -0.20329
  -0.09764   0.00729  -0.17336
  -0.06771  -0.03761  -0.08358
  -0.14253   0.00729  -0.08358
  -0.11260  -0.09746  -0.03869
  -0.11260  -0.15732   0.05109
  -0.12757  -0.12739   0.11095
  -0.18742  -0.15732   0.18577
  -0.17246  -0.15732   0.20073
  -0.17246  -0.14235   0.32044
  -0.23231  -0.15732   0.42519
  -0.27720  -0.09746   0.44015
