********************************************************************************
              CENTRO DE INSTRUMENTACION Y REGISTRO SISMICO  A.C.

    Anaxagoras 814, Col. Narvarte, Benito Juarez, C.P. 03020 Mexico, D.F.
           Tels. 5687 45 42/ 5687 45  82             Fax. 5669 25 12
********************************************************************************
ARCHIVO ESTANDAR DE ACELERACION:
VERSION DEL FORMATO                    : 2.0
NOMBRE DEL ARCHIVO                     : AL0120140508170016
FECHA Y HORA DE CREACION               : 09/MAY/14, 20:41
REF. CATALOGO ACELEROGRAMAS, SMIS 1996 : REGISTRO No.     /PAG.


================================================================================
DATOS DE LA ESTACION:
NOMBRE DE LA ESTACION                  : ALAMEDA
CLAVE DE LA ESTACION                   : AL01
LOCALIZACION DE LA ESTACION            : Del. Cuauhtémoc, Col. Centro,          
                                       : Dr. Mora entre Av. Hidalgo             
                                       : y Av. Juárez.                          
                                       :                                        
                                       : 
COORDENADAS DE LA ESTACION             : 19.4356 LAT. N
                                       : 99.1453 LONG. W
ALTITUD (msnm)                         : 2232
TIPO DE SUELO                          : Terreno blando, material compresible
                                       : (arcillas)                
                                       : 
INSTITUCION RESPONSABLE                : CIRES
                                       : 

================================================================================
DATOS DEL ACELEROGRAFO:
MODELO DEL ACELEROGRAFO                : RADESD
NUMERO DE SERIE DEL ACELEROGRAFO       : 152
NUMERO DE CANALES                      : 3
ORIENTACION C1-C6 (rumbo;orientacion)  : /S00E/+V/N90W
ORIENTACION C7-C12 (rumbo;orientacion) : 
VEL. DE MUESTREO, C1-C6 (muestras/s)   : /100/100/100
VEL. DE MUESTREO, C7-C12 (muestras/s)  : 
ESC. COMPLETA DE SENSORES, C1-C6, (g)  : /0.5/0.5/0.5
ESC. COMPLETA DE SENSORES, C7-C12, (g) : 
FREC. NAT. DE SENSORES, C1-C6, (Hz)    : /51.29/51.09/53.75
FREC. NAT. DE SENSORES, C7-C12, (Hz)   : 
AMORTIGUAMIENTO DE SENSORES, C1-C6     : /0.5519/0.5670/0.5810
AMORTIGUAMIENTO DE SENSORES, C7-C12    : 
INTERVALO DE MUESTREO, C1-C6, (s)      : /0.01/0.01/0.01
INTERVALO DE MUESTREO, C7-C12, (s)     : 
UMBRAL DE DISPARO, C1-C6, (Gal)        : /0.37/1.8/0.49
UMBRAL DE DISPARO, C7-C12, (Gal)       : 
MEMORIA DE PREEVENTO (s)               : 32.0
TIEMPO DE POSEVENTO (s)                : 64.0


================================================================================
DATOS DEL SISMO:
FECHA DEL SISMO (GMT)                  : 08/MAY/14
HORA EPICENTRO (GMT)                   : 17:01:00.0
MAGNITUD(ES)                           : /Mw=6.4
COORDENADAS DEL EPICENTRO              : 98.00 LAT. N
                                       : 100.89 LONG. W
PROFUNDIDAD FOCAL (km)                 : 7
FUENTE DE LOS DATOS EPICENTRALES       : SSN
                                       : INSTITUTO DE GEOFISICA, UNAM

================================================================================
DATOS DE ESTE REGISTRO:
HORA DE LA PRIMERA MUESTRA (GMT)       : 17:01:08.00
EXACTITUD DEL TIEMPO (s)               : 0.01
DURACION DEL REGISTRO (s), C1-C6       : /525.8/525.8/525.8
DURACION DEL REGISTRO (s), C7-C12      : 
NUM. TOTAL DE MUESTRAS, C1-C6          : /42340/42340/42340
NUM. TOTAL DE MUESTRAS, C7-C12         : 
ACEL. MAX. (Gal), C1-C6                : /35.50056/6.38101/29.29945
ACEL. MAX., C1-C6, EN LA MUESTRA       : /7125/9467/7740
ACEL. MAX. (Gal), C7-C12               : 
ACEL. MAX., C7-C12, EN LA MUESTRA      : 
UNIDADES DE LOS DATOS                  : Gal (cm/s/s)
FACTOR DE DECIMACION                   : 1
FORMATO DATOS (FORTRAN,10 campos/dato) : 3F10.5


================================================================================
CALIDAD DEL ACELEROGRAMA:
REGISTRO DIGITAL COMPLETO CON TIEMPO ABSOLUTO CORRECTO.


================================================================================
COMENTARIOS:














================================================================================
DATOS DE ACELERACION:
---------+---------+---------+---------+---------+---------+---------+---------+
   CANAL-1   CANAL-2   CANAL-3   CANAL-4   CANAL-5   CANAL-6   CANAL-7   CANAL-8
      S00E        +V      N90W
---------+---------+---------+---------+---------+---------+---------+---------+
[...]
   2.42454   0.69478   0.53025
   2.52928   0.79952   0.11127
   2.45446   0.85938  -0.38254
   2.45446   0.84442  -0.89131
   2.31979   0.81449  -1.41504
   2.28986   0.87434  -1.96870
   2.21504   0.81449  -2.47746
   2.05044   0.73967  -3.00120
   1.85591   0.79952  -3.53989
   1.63146   0.87434  -4.10851
   1.43693   1.17362  -4.64721
   1.34715   1.27836  -5.08116
   0.97305   1.41304  -5.67971
   0.62889   1.30829  -5.97898
   0.12012   1.29333  -6.38301
  -0.35872   1.15865  -6.77206
  -0.74778   0.99405  -7.05638
  -1.33137   0.82945  -7.34069
  -1.89999   0.64989  -7.49032
  -2.25912   0.53018  -7.61003
  -2.85767   0.47032  -7.65493
  -3.35148   0.33565  -7.68485
  -3.86024   0.12615  -7.58011
  -4.11463   0.18601  -7.47536
  -4.38397   0.08126  -7.34069
  -4.59347  -0.05341  -7.23594
  -4.63836  -0.06837  -7.01148
  -4.45879  -0.23298  -6.83192
  -4.26426  -0.29283  -6.68228
  -4.00988  -0.32276  -6.53264
  -3.59090  -0.29283  -6.39797
  -2.97738  -0.38261  -6.18848
  -2.36387  -0.56218  -6.11366
  -1.72043  -0.81656  -6.09869
  -1.15180  -1.10087  -6.11366
  -0.52332  -1.31037  -6.08373
   0.04530  -1.51986  -6.18848
   0.64385  -1.57971  -6.17351
   1.21247  -1.62461  -6.17351
   1.54167  -1.62461  -6.11366
   2.05044  -1.51986  -6.06877
   2.33475  -1.40015  -5.91913
   2.55921  -1.28044  -5.82935
   2.70885  -1.29540  -5.51511
   2.70885  -1.31037  -5.35051
   2.67892  -1.41511  -5.20087
   2.76870  -1.37022  -5.00634
   2.70885  -1.34029  -4.72203
   2.42454  -1.32533  -4.40779
   2.18512  -1.26548  -3.98880
   1.93073  -1.16073  -3.61471
   1.61649  -0.99613  -3.22565
   1.33218  -0.77167  -2.80667
   0.92816  -0.44247  -2.43257
   0.53910  -0.06837  -2.10337
   0.10515   0.41047  -1.93877
  -0.37369   0.78456  -1.71431
  -0.82260   1.24844  -1.41504
  -1.45108   1.53275  -1.31029
  -1.91495   1.90684  -1.23547
  -2.36387   2.11633  -1.25044
  -2.76789   2.23604  -1.25044
  -3.11205   2.29590  -1.35518
  -3.36644   2.34079  -1.56468
  -3.59090   2.35575  -1.84899
  -3.81535   2.40065  -2.20812
  -4.02484   2.49043  -2.58221
  -4.11463   2.59518  -3.01616
  -4.17448   2.66999  -3.43515
  -4.24930   2.53532  -3.89902
  -4.11463   2.49043  -4.34793
  -3.89017   2.34079  -4.93152
  -3.75550   2.16123  -5.27569
  -3.50111   1.95173  -5.66475
  -3.24673   1.81706  -5.85927
  -2.96242   1.69735  -5.85927
  -2.75292   1.57764  -5.81438
  -2.51350   1.44297  -5.53007
  -2.21423   1.45793  -5.06620
  -1.91495   1.53275  -4.40779
  -1.72043   1.74224  -3.58478
  -1.63064   2.05648  -2.59717
  -1.54086   2.34079  -1.43000
  -1.49597   2.61014  -0.03837
  -1.51093   2.72985   1.29340
  -1.39122   2.80467   2.75985
  -1.55582   2.68496   4.28615
  -1.75035   2.55028   5.79749
  -1.87006   2.16123   7.51833
  -2.04963   1.86195   8.99974
  -2.16934   1.56268  10.52604
  -2.30401   1.20355  11.94760
  -2.30401   1.00902  13.27937
  -2.16934   0.61996  14.49144
  -2.01970   0.21594  15.56883
  -1.88503  -0.17312  16.48162
  -1.60072  -0.56218  17.11010
  -1.27151  -0.87642  17.67872
  -0.88245  -1.11584  18.08274
  -0.62807  -1.44504  18.29223
  -0.17916  -1.62461  18.39698
   0.19494  -1.84906  18.33713
   0.64385  -1.86403  18.36705
   0.88327  -1.93884  18.21742
   1.21247  -2.01366  17.88821
   1.36211  -2.07352  17.57397
   1.57160  -2.08848  17.03528
   1.69131  -1.98374  16.45169
   1.79606  -1.92388  15.68854
   1.91577  -1.92388  14.83561
   2.00555  -1.84906  14.05749
   2.11030  -1.51986  13.17463
   2.18512  -1.29540  12.33666
   2.31979  -1.01109  11.46876
   2.33475  -0.83153  10.66072
   2.40957  -0.60707   9.85267
   2.63403  -0.35269   9.07456
   2.54425  -0.23298   8.29644
   2.55921  -0.09830   7.54825
   2.55921  -0.02348   6.75518
   2.42454   0.06630   5.91720
   2.34972   0.08126   5.01938
   2.15519   0.12615   4.09163
   2.02051   0.11119   3.23869
   1.73620   0.05134   2.22116
   1.37707   0.14112   1.29340
   1.07780   0.05134   0.29083
   0.62889   0.17105  -0.75663
   0.40443   0.50025  -1.93877
   0.07523   0.73967  -3.15083
  -0.29887   1.03894  -4.39283
  -0.76274   1.35318  -5.69467
  -1.21166   1.66742  -6.93667
  -1.55582   1.96670  -8.13377
  -2.04963   2.13130  -9.24108
  -2.43869   2.25101 -10.12395
  -2.93249   2.34079 -10.91703
  -3.26169   2.35575 -11.60536
  -3.53104   2.34079 -12.05427
  -3.89017   2.25101 -12.32362
  -4.08470   2.07144 -12.39844
  -4.50368   1.90684 -12.23384
  -4.86281   1.78713 -11.90463
  -5.16209   1.66742 -11.47068
  -5.37158   1.59260 -10.78235
  -5.59604   1.60757 -10.03416
  -5.55115   1.56268  -9.19619
  -5.58108   1.41304  -8.17866
  -5.56611   1.27836  -7.23594
  -5.34166   1.05391  -6.23337
  -5.23691   0.79952  -5.32058
  -4.95260   0.60499  -4.40779
  -4.77303   0.21594  -3.55486
  -4.56354  -0.12823  -2.77674
  -4.21937  -0.44247  -1.98366
  -3.93506  -0.81656  -1.31029
  -3.50111  -1.26548  -0.80152
  -3.11205  -1.77424  -0.44239
  -2.66314  -2.28301  -0.20297
  -2.15437  -2.71696  -0.08326
  -1.67553  -3.03120  -0.08326
  -1.12187  -3.30055  -0.00844
  -0.58318  -3.39033  -0.11319
   0.07523  -3.43522  -0.11319
   0.74860  -3.40529  -0.17305
   1.46686  -3.13595  -0.24786
   2.14022  -3.04616  -0.30772
   2.85849  -2.82171  -0.44239
   3.59171  -2.56732  -0.65189
   4.20522  -2.31294  -0.81649
   4.75888  -2.08848  -1.05591
   5.43225  -1.65453  -1.50482
   6.07569  -1.20562  -1.89388
   6.58446  -0.68189  -2.29790
   7.07827  -0.30779  -2.85156
   7.34761   0.02141  -3.31544
   7.61696   0.27579  -3.89902
   7.73667   0.47032  -4.52750
   7.63193   0.53018  -5.27569
   7.40747   0.60499  -6.15855
   7.00345   0.42543  -6.87681
   6.55453   0.44039  -7.77464
   5.97095   0.56010  -8.68743
   5.22276   0.60499  -9.63014
   4.56435   0.61996 -10.45315
   3.77127   0.79952 -11.35097
   3.14280   0.96413 -12.15902
   2.39461   1.05391 -12.90721
   1.60153   1.06887 -13.68532
   1.04787   1.17362 -14.23898
   0.52414   1.24844 -14.74775
   0.01537   1.27836 -15.12184
  -0.34376   1.44297 -15.39119
  -0.59814   1.65246 -15.39119
  -0.65800   1.92181 -15.33133
  -0.55325   2.32583 -15.18170
  -0.37369   2.71489 -14.88242
  -0.05945   3.08898 -14.37365
   0.43436   3.28351 -13.82000
   0.88327   3.49300 -13.10173
   1.28729   3.46307 -12.35355
   1.81102   3.31344 -11.47068
   2.30483   3.25358 -10.33344
   2.54425   3.07402  -9.28598
   2.73878   2.84956  -8.08887
   2.79863   2.46050  -6.57754
   2.82856   2.04152  -4.88663
   2.66396   1.66742  -3.16580
   2.64899   1.23347  -1.32526
   2.40957   0.78456   0.54521
   2.25994   0.38054   2.47554
   2.21504   0.09623   4.31608
   2.08037  -0.26290   6.09677
   1.96066  -0.71182   7.80264
   1.94570  -1.16073   9.43369
   2.02051  -1.44504  10.84028
   2.11030  -1.71439  12.17206
   2.25994  -1.87899  13.36916
   2.33475  -2.22316  14.37173
   2.49936  -2.49250  15.28452
   2.79863  -2.77681  16.06263
   3.02309  -3.18084  16.79586
   3.35229  -3.53997  17.48419
   3.57675  -3.91406  17.97800
   4.02566  -3.89910  18.38202
   4.28004  -4.01881  18.50173
   4.54939  -4.06370  18.54662
   4.78881  -3.91406  18.35209
   4.87859  -3.77939  18.08274
   4.87859  -3.49508  17.67872
   4.98334  -3.21076  17.12506
   4.90852  -3.06113  16.46666
   4.84867  -2.88156  15.58379
   4.80377  -2.71696  14.52137
   4.71399  -2.58229  13.23448
   4.56435  -2.46258  11.79796
   4.29501  -2.20819  10.28662
   3.96580  -2.07352   8.52090
   3.75631  -2.02863   6.74021
   3.23258  -2.02863   4.91463
   2.67892  -2.17826   3.07409
   2.14022  -2.22316   1.21858
   1.55664  -2.31294  -0.57707
   1.13765  -2.38776  -2.26797
   0.79349  -2.26805  -3.68953
   0.46428  -2.25308  -5.09612
   0.20990  -2.19323  -6.15855
  -0.02952  -2.10345  -7.16112
  -0.14923  -1.93884  -8.10384
  -0.17916  -1.74432  -9.04656
  -0.10434  -1.72935  -9.79474
   0.06026  -1.75928 -10.49804
   0.12012  -1.78921 -11.23126
   0.34457  -1.69942 -11.85974
   0.50918  -1.56475 -12.45829
   0.73363  -1.37022 -12.81742
   0.92816  -1.17569 -13.13166
   1.15262  -0.86145 -13.25137
   1.33218  -0.63700 -13.32619
   1.51175  -0.30779 -13.28130
   1.67635  -0.09830 -13.19152
   1.70628   0.03637 -12.81742
   1.67635   0.12615 -12.48822
   1.63146   0.00644 -11.97945
   1.54167  -0.33772 -11.47068
   1.51175  -0.56218 -10.85717
   1.49678  -0.84649 -10.16884
   1.66138  -1.02605  -9.46554
   1.99059  -1.28044  -8.68743
   2.25994  -1.44504  -7.89435
   2.78367  -1.47497  -7.20601
   3.26251  -1.48993  -6.33812
   3.78624  -1.44504  -5.64978
   4.16033  -1.43008  -4.99138
   4.53443  -1.44504  -4.36290
   4.80377  -1.54979  -3.92895
   4.87859  -1.60964  -3.49500
   4.89356  -1.81913  -3.16580
   4.53443  -2.02863  -2.95631
   4.16033  -2.19323  -2.80667
   3.68149  -2.34287  -2.77674
   3.03805  -2.37279  -2.83660
   2.15519  -2.41768  -3.13587
   1.21247  -2.31294  -3.40522
   0.17997  -2.13337  -3.86909
  -1.07698  -1.89395  -4.43772
  -2.27408  -1.74432  -4.85670
  -3.78542  -1.40015  -5.56000
  -5.13216  -1.02605  -6.27826
  -6.40408  -0.57714  -7.10127
  -7.67600  -0.21801  -7.93924
  -8.96289   0.05134  -8.94181
  -9.99538   0.27579  -9.94438
 -11.07278   0.48528 -11.03674
 -12.26988   0.64989 -12.17398
 -13.15274   0.91923 -13.29626
 -13.91589   1.06887 -14.34373
 -14.49948   1.45793 -15.33133
 -15.08306   1.62253 -16.36383
 -15.30752   1.87691 -17.32152
 -15.42723   2.08641 -18.23430
 -15.29256   2.19115 -19.05731
 -15.18781   2.25101 -19.68579
 -14.84364   2.29590 -20.28434
 -14.52940   2.26597 -20.74822
 -14.11042   2.25101 -21.01756
 -13.67647   2.29590 -21.16720
 -13.09288   2.35575 -21.09238
 -12.47937   2.41561 -20.91282
 -11.77607   2.53532 -20.41901
 -10.98299   2.72985 -19.88032
 -10.32459   2.92438 -19.17702
  -9.54647   3.01416 -18.23430
  -8.66361   3.20869 -17.11202
  -7.64607   3.43315 -15.85507
  -6.56868   3.49300 -14.50833
  -5.37158   3.55286 -13.02692
  -4.05477   3.68753 -11.38090
  -2.99234   3.68753  -9.60021
  -1.81021   3.76235  -7.47536
  -0.62807   3.71746  -5.21583
   0.34457   3.53789  -2.80667
   1.10773   3.37329  -0.12815
   1.64642   3.11891   2.61021
   1.90080   2.75978   5.31865
   2.06541   2.23604   8.08695
   1.99059   1.83202  10.82532
   1.91577   1.39807  13.39908
   1.76613   0.90427  15.80825
   1.63146   0.39550  18.18749
   1.55664  -0.05341  20.29738
   1.48182  -0.51729  22.33245
   1.45189  -1.08591  24.29270
   1.43693  -1.48993  26.10332
   1.43693  -1.80417  27.67451
   1.61649  -2.10345  29.14096
   1.67635  -2.25308  30.33806
   1.84095  -2.37279  31.32567
   2.18512  -2.43265  32.11875
   2.49936  -2.47754  32.83701
   2.81359  -2.43265  33.36074
   3.12783  -2.53739  33.92936
   3.30740  -2.49250  34.31842
   3.48696  -2.55236  34.73741
   3.56178  -2.64214  35.11150
   3.60667  -2.37279  35.42574
   3.69646  -1.84906  35.50056
   3.74135  -1.38519  35.42574
   3.71142  -0.78663  35.23121
   3.74135  -0.00852  34.85712
   3.78624   0.78456  34.42317
   3.78624   1.50282  33.85455
   3.83113   2.23604  33.37571
   3.89098   2.71489  32.86694
   4.01070   3.07402  32.34321
   4.08551   3.35833  31.81947
   4.32493   3.55286  31.23589
   4.56435   3.58278  30.71216
   4.78881   3.52293  30.17346
   5.22276   3.46307  29.51505
   5.58189   3.26854  29.08111
   6.03080   2.98423  28.67708
   6.38993   2.75978  28.22817
   6.74906   2.35575  27.88400
   6.97352   1.87691  27.56977
   7.24287   1.62253  27.28545
   7.34761   1.32326  27.00114
   7.42243   1.03894  26.94129
   7.55711   0.82945  26.85151
   7.63193   0.59003  26.91136
   7.75164   0.36557  26.98618
   7.70674   0.09623  27.10589
   7.60200  -0.21801  27.21064
   7.42243  -0.35269  27.13582
   7.25783  -0.54721  27.16574
   6.80892  -0.62203  27.04603
   6.41986  -0.54721  26.80661
   5.97095  -0.56218  26.46245
   5.56693  -0.42750  25.90879
   5.04319  -0.42750  25.29527
   4.56435  -0.42750  24.59198
   4.01070  -0.51729  23.96350
   3.50193  -0.62203  23.24524
   3.08294  -0.68189  22.48209
   2.55921  -0.83153  21.71894
   2.15519  -0.84649  20.88097
   1.75117  -0.86145  20.07292
   1.19751  -0.89138  19.29481
   0.73363  -0.89138  18.42691
   0.19494  -0.92131  17.45426
  -0.40361  -0.80160  16.54147
  -1.01713  -0.71182  15.61372
  -1.73539  -0.62203  14.58122
  -2.58832  -0.45743  13.53376
  -3.24673  -0.33772  12.42644
  -4.02484  -0.12823  11.18445
  -4.72814  -0.00852   9.74793
  -5.56611   0.11119   8.13184
  -6.43401   0.26083   6.17159
  -7.28694   0.27579   4.21134
  -8.03513   0.18601   2.43065
  -8.87310   0.17105   0.69485
  -9.71107   0.02141  -1.16065
 -10.54904   0.11119  -2.94134
 -11.20745   0.03637  -4.66217
 -11.98556   0.14112  -6.18848
 -12.47937   0.32068  -7.56514
 -12.91332   0.47032  -8.88195
 -13.27245   0.66485 -10.19877
 -13.52683   0.78456 -11.36594
 -13.55676   0.88931 -12.54808
 -13.54180   0.97909 -13.59554
 -13.40712   1.02398 -14.59811
 -13.10785   1.08384 -15.30141
 -12.64397   1.17362 -15.95981
 -11.97060   1.18858 -16.61822
 -11.07278   1.17362 -17.33648
 -10.14502   1.21851 -18.05474
  -9.02274   1.18858 -18.75804
  -7.70593   1.14369 -19.58104
  -6.34423   1.18858 -20.32923
  -5.04238   1.00902 -21.21209
  -3.86024   1.03894 -22.22963
  -2.81278   0.94916 -23.33695
  -1.72043   0.97909 -24.53405
  -0.77771   0.84442 -25.61144
   0.07523   0.81449 -26.46437
   0.85334   0.73967 -27.15271
   1.55664   0.59003 -27.66147
   2.25994   0.53018 -28.20017
   2.87345   0.44039 -28.73886
   3.39718   0.36557 -29.03814
   3.95084   0.33565 -29.27756
   4.59428   0.32068 -29.45712
   5.14794   0.15608 -29.53194
   5.71656   0.09623 -29.59180
   6.30015   0.08126 -29.54691
   6.74906  -0.06837 -29.47209
   7.13812  -0.08334 -29.39727
   7.36258  -0.02348 -29.23267
   7.57207  -0.09830 -29.02318
   7.72171   0.02141 -28.78376
   7.72171   0.23090 -28.31988
   7.63193   0.41047 -27.76622
   7.57207   0.72471 -27.16767
   7.37754   0.97909 -26.53919
   7.18301   1.23347 -25.73115
   7.06330   1.65246 -24.93807
   6.79395   1.98166 -24.10010
   6.56950   2.20612 -23.35191
   6.43482   2.26597 -22.51394
   6.25526   2.25101 -21.76575
   6.22533   2.08641 -21.07742
   6.21037   1.95173 -20.23945
   6.19540   1.80210 -19.58104
   6.25526   1.54771 -18.87775
   6.58446   1.38311 -18.38394
   6.88374   1.30829 -17.89014
   7.13812   1.09880 -17.56094
   7.63193   0.96413 -17.23173
   7.88631   0.82945 -16.97735
   8.24544   0.72471 -16.72296
   8.29033   0.42543 -16.54340
   8.41004   0.30572 -16.25909
   8.30529   0.05134 -15.98974
   8.09580  -0.27787 -15.75032
   7.85638  -0.32276 -15.42112
   7.37754  -0.47240 -15.00213
   6.74906  -0.47240 -14.58315
   5.89613  -0.48736 -14.22402
   4.86363  -0.48736 -13.79007
   3.81617  -0.32276 -13.40101
   2.58914  -0.14319 -13.08677
   1.27233  -0.09830 -12.75757
  -0.23901  -0.14319 -12.48822
  -1.67553  -0.08334 -12.33858
  -3.12702  -0.17312 -12.36851
  -4.48872  -0.30779 -12.50318
  -5.77560  -0.41254 -12.66779
  -6.74825  -0.77167 -12.80246
  -7.51140  -1.02605 -12.81742
  -8.19973  -1.32533 -12.93713
  -8.60375  -1.68446 -12.93713
  -8.93296  -1.90892 -12.93713
  -8.94792  -2.14834 -12.87728
  -8.69354  -2.38776 -12.93713
  -8.31944  -2.50747 -12.98202
  -7.64607  -2.56732 -13.01195
  -6.74825  -2.56732 -13.10173
  -5.62597  -2.46258 -13.14663
  -4.23434  -2.31294 -13.16159
  -2.78285  -2.05855 -13.23641
  -1.13684  -1.83410 -13.10173
   0.59896  -1.60964 -13.05684
   2.33475  -1.43008 -12.81742
   3.96580  -1.14577 -12.65282
