********************************************************************************
               CENTRO DE INSTRUMENTACION Y REGISTRO SISMICO  A.C.  
                       Coordinacion de Servicios Tecnicos
     Anaxagoras 814, Col. Narvarte, Benito Juarez, C.P. 03020 Mexico, D.F.
            Tels. 667 45 42/ 687 45  82             Fax. 669 25 12
********************************************************************************
ARCHIVO ESTANDAR DE ACELERACION:
VERSION DEL FORMATO                    : 2.0
NOMBRE DEL ARCHIVO                     : AL010401.012
FECHA Y HORA DE CREACION               : 27/OCT/04, 12:05
REF. CATALOGO ACELEROGRAMAS, SMIS 1996 : REGISTRO No.     /PAG.


================================================================================
DATOS DE LA ESTACION:
NOMBRE DE LA ESTACION                  : ALAMEDA
CLAVE DE LA ESTACION                   : AL01
LOCALIZACION DE LA ESTACION            : JARDIN ALAMEDA ENTRE AV. HIDALGO Y AV.
                                       : JUAREZ, CENTRO
                                       :
                                       :
                                       :
COORDENADAS DE LA ESTACION             : 19.436 LAT. N 
                                       : 99.145 LONG. W 
ALTITUD (msnm)                         : 2232
TIPO DE SUELO                          : TERRENO BLANDO, MATERIAL COMPRESIBLE
                                       : (ARCILLAS)
                                       : 
INSTITUCION RESPONSABLE                : CIRES 
                                       :

================================================================================
DATOS DEL ACELEROGRAFO:
MODELO DEL ACELEROGRAFO                : SSA-1
NUMERO DE SERIE DEL ACELEROGRAFO       : 152
NUMERO DE CANALES                      : 3
ORIENTACION C1-C6 (rumbo;orientacion)  : /N00E/+V/N90E
ORIENTACION C7-C12 (rumbo;orientacion) :
VEL. DE MUESTREO, C1-C6 (muestras/s)   : /200/200/200
VEL. DE MUESTREO, C7-C12 (muestras/s)  :
ESC. COMPLETA DE SENSORES, C1-C6, (g)  : /2/2/2
ESC. COMPLETA DE SENSORES, C7-C12, (g) :
FREC. NAT. DE SENSORES, C1-C6, (Hz)    : /51.29/51.09/53.75
FREC. NAT. DE SENSORES, C7-C12, (Hz)   :
AMORTIGUAMIENTO DE SENSORES, C1-C6     : /.5519/.5670/.5810
AMORTIGUAMIENTO DE SENSORES, C7-C12    :
INTERVALO DE MUESTREO, C1-C6, (s)      : /0.005/0.005/0.005
INTERVALO DE MUESTREO, C7-C12, (s)     :
UMBRAL DE DISPARO, C1-C6, (Gal)        : /2/1.5/2
UMBRAL DE DISPARO, C7-C12, (Gal)       :
MEMORIA DE PREEVENTO (s)               : 15
TIEMPO DE POSEVENTO (s)                : 60


================================================================================
DATOS DEL SISMO:
FECHA DEL SISMO (GMT)                  : 01/ENE/04
HORA EPICENTRO (GMT)                   : 23:57:56,0
MAGNITUD(ES)                           : /Mc=5.8
COORDENADAS DEL EPICENTRO              : 16.97 LAT. N
                                       : 98.97 LONG. W
PROFUNDIDAD FOCAL (km)                 : 10
FUENTE DE LOS DATOS EPICENTRALES       : SSN
                                       : INSTITUTO DE GEOFISICA, UNAM 

================================================================================
DATOS DE ESTE REGISTRO:
HORA DE LA PRIMERA MUESTRA (GMT)       : 23:59:29.00
EXACTITUD DEL TIEMPO (s)               :     
DURACION DEL REGISTRO (s), C1-C6       : /110.08/110.08/110.08
DURACION DEL REGISTRO (s), C7-C12      :
NUM. TOTAL DE MUESTRAS, C1-C6          : /22016/22016/22016
NUM. TOTAL DE MUESTRAS, C7-C12         :
ACEL. MAX. (Gal), C1-C6                : /3.10438/1.33428/2.69006
ACEL. MAX., C1-C6, EN LA MUESTRA       :
ACEL. MAX. (Gal), C7-C12               :
ACEL. MAX., C7-C12, EN LA MUESTRA      :
UNIDADES DE LOS DATOS                  : Gal (cm/s/s)
FACTOR DE DECIMACION                   : 1
FORMATO DATOS (FORTRAN,10 campos/dato) : 3F10.5


================================================================================
CALIDAD DEL ACELEROGRAMA:
REGISTRO DIGITAL COMPLETO, CARECE DE TIEMPO ABSOLUTO.


================================================================================
COMENTARIOS:














================================================================================
DATOS DE ACELERACION:
---------+---------+---------+---------+---------+---------+---------+---------+
   CANAL-1   CANAL-2   CANAL-3   CANAL-4   CANAL-5   CANAL-6   CANAL-7   CANAL-8
      N00E        +V      N90E
---------+---------+---------+---------+---------+---------+---------+---------+
[...]
  -0.48562   0.13428  -1.61994
  -0.48562   0.13428  -1.37994
  -0.48562   0.13428  -1.37994
  -0.48562  -0.10572  -1.37994
  -0.48562  -0.10572  -1.13994
  -0.48562   0.13428  -1.13994
  -0.48562   0.13428  -1.13994
  -0.48562  -0.10572  -0.89994
  -0.48562  -0.10572  -0.89994
  -0.48562  -0.10572  -0.65994
  -0.48562   0.13428  -0.65994
  -0.24562   0.13428  -0.65994
  -0.24562  -0.10572  -0.65994
  -0.24562   0.13428  -0.65994
  -0.24562  -0.10572  -0.41994
  -0.24562  -0.10572  -0.41994
  -0.24562  -0.10572  -0.17994
  -0.24562  -0.10572  -0.41994
  -0.24562  -0.10572  -0.17994
  -0.24562  -0.10572  -0.17994
  -0.24562  -0.10572  -0.17994
  -0.00562  -0.10572   0.06006
  -0.00562  -0.10572   0.06006
  -0.00562  -0.10572   0.06006
  -0.00562  -0.10572   0.06006
  -0.00562  -0.34572   0.06006
  -0.00562  -0.34572   0.30006
  -0.00562  -0.34572   0.06006
  -0.00562  -0.58572   0.30006
   0.23438  -0.34572   0.30006
   0.23438  -0.58572   0.30006
   0.23438  -0.34572   0.30006
   0.23438  -0.34572   0.54006
   0.23438  -0.58572   0.54006
   0.23438  -0.58572   0.54006
   0.23438  -0.58572   0.30006
   0.23438  -0.58572   0.54006
   0.47438  -0.58572   0.54006
   0.47438  -0.58572   0.54006
   0.47438  -0.58572   0.54006
   0.47438  -0.58572   0.54006
   0.47438  -0.58572   0.78006
   0.47438  -0.58572   0.54006
   0.47438  -0.58572   0.54006
   0.47438  -0.58572   0.54006
   0.71438  -0.58572   0.54006
   0.71438  -0.58572   0.54006
   0.71438  -0.58572   0.54006
   0.71438  -0.58572   0.30006
   0.47438  -0.58572   0.54006
   0.23438  -0.58572   0.54006
   0.71438  -0.58572   0.30006
   0.71438  -0.58572   0.30006
   0.71438  -0.34572   0.30006
   0.71438  -0.34572   0.30006
   0.47438  -0.34572   0.30006
   0.47438  -0.34572   0.30006
   0.47438  -0.34572   0.30006
   0.47438  -0.34572   0.06006
   0.47438  -0.34572   0.06006
   0.47438  -0.10572   0.06006
   0.23438  -0.10572   0.06006
   0.23438  -0.10572   0.06006
   0.23438  -0.10572  -0.17994
   0.23438   0.13428  -0.17994
   0.23438   0.13428  -0.17994
   0.23438   0.13428  -0.17994
   0.23438   0.13428  -0.17994
   0.23438   0.13428  -0.17994
  -0.00562   0.37428  -0.17994
  -0.00562   0.37428  -0.41994
  -0.00562   0.37428  -0.41994
  -0.00562   0.37428  -0.41994
  -0.00562   0.37428  -0.41994
  -0.24562   0.37428  -0.41994
  -0.24562   0.37428  -0.41994
  -0.24562   0.37428  -0.41994
  -0.24562   0.61428  -0.41994
  -0.24562   0.61428  -0.41994
  -0.24562   0.61428  -0.41994
  -0.24562   0.61428  -0.41994
  -0.24562   0.61428  -0.41994
  -0.24562   0.37428  -0.65994
  -0.24562   0.37428  -0.41994
  -0.24562   0.61428  -0.65994
  -0.24562   0.61428  -0.41994
  -0.24562   0.61428  -0.41994
  -0.24562   0.61428  -0.41994
  -0.24562   0.61428  -0.41994
  -0.48562   0.61428  -0.41994
  -0.48562   0.61428  -0.41994
  -0.48562   0.61428  -0.41994
  -0.48562   0.61428  -0.41994
  -0.48562   0.37428  -0.41994
  -0.48562   0.61428  -0.41994
  -0.48562   0.61428  -0.41994
  -0.48562   0.61428  -0.41994
  -0.48562   0.61428  -0.41994
  -0.48562   0.61428  -0.17994
  -0.48562   0.61428  -0.41994
  -0.24562   0.37428  -0.17994
  -0.48562   0.37428  -0.17994
  -0.24562   0.37428  -0.17994
  -0.24562   0.13428  -0.17994
  -0.24562   0.37428  -0.17994
  -0.24562   0.37428  -0.17994
  -0.24562   0.37428  -0.17994
  -0.24562   0.37428  -0.17994
  -0.24562   0.13428  -0.17994
  -0.24562   0.13428  -0.17994
  -0.24562   0.13428  -0.17994
  -0.24562  -0.10572  -0.17994
  -0.24562   0.13428  -0.17994
  -0.24562   0.13428   0.06006
  -0.24562   0.13428   0.06006
  -0.24562  -0.10572   0.06006
  -0.24562  -0.10572   0.06006
  -0.00562  -0.10572   0.06006
  -0.00562  -0.10572   0.06006
  -0.00562  -0.10572   0.06006
  -0.00562  -0.10572   0.06006
  -0.00562  -0.10572   0.06006
  -0.00562  -0.10572   0.06006
   0.23438  -0.10572   0.06006
   0.23438  -0.34572   0.06006
   0.23438  -0.34572   0.06006
   0.23438  -0.34572   0.06006
   0.23438  -0.34572   0.06006
   0.23438  -0.34572   0.06006
   0.23438  -0.34572   0.30006
   0.47438  -0.34572   0.30006
   0.47438  -0.34572   0.06006
   0.47438  -0.34572   0.06006
   0.47438  -0.34572   0.30006
   0.47438  -0.58572   0.30006
   0.47438  -0.58572   0.30006
   0.47438  -0.58572   0.30006
   0.71438  -0.58572   0.30006
   0.71438  -0.34572   0.54006
   0.71438  -0.58572   0.54006
   0.71438  -0.58572   0.54006
   0.71438  -0.58572   0.54006
   0.71438  -0.58572   0.54006
   0.95438  -0.58572   0.54006
   0.95438  -0.58572   0.78006
   0.71438  -0.58572   0.78006
   0.95438  -0.58572   0.78006
   0.71438  -0.58572   0.78006
   0.71438  -0.58572   1.02006
   0.71438  -0.58572   1.02006
   0.71438  -0.58572   1.02006
   0.71438  -0.58572   1.02006
   0.71438  -0.58572   1.02006
   0.47438  -0.58572   1.26006
   0.71438  -0.82572   1.26006
   0.47438  -0.82572   1.26006
   0.47438  -0.82572   1.26006
   0.47438  -0.82572   1.26006
   0.23438  -0.82572   1.26006
   0.23438  -0.82572   1.50006
   0.23438  -0.82572   1.50006
   0.23438  -0.82572   1.50006
  -0.00562  -0.82572   1.50006
  -0.00562  -1.06572   1.50006
  -0.24562  -0.82572   1.50006
  -0.24562  -0.82572   1.50006
  -0.24562  -0.58572   1.74006
  -0.24562  -0.58572   1.74006
  -0.24562  -0.58572   1.74006
  -0.24562  -0.58572   1.74006
  -0.48562  -0.58572   1.74006
  -0.48562  -0.58572   1.74006
  -0.48562  -0.58572   1.74006
  -0.48562  -0.34572   1.74006
  -0.48562  -0.34572   1.74006
  -0.72562  -0.10572   1.74006
  -0.72562  -0.10572   1.74006
  -0.72562  -0.10572   1.74006
  -0.72562  -0.10572   1.50006
  -0.72562  -0.10572   1.74006
  -0.96562  -0.10572   1.74006
  -0.96562   0.13428   1.74006
  -0.96562  -0.10572   1.74006
  -0.72562   0.13428   1.50006
  -0.96562   0.13428   1.50006
  -0.72562   0.13428   1.50006
  -0.72562   0.13428   1.50006
  -0.72562   0.13428   1.50006
  -0.72562   0.37428   1.26006
  -0.72562   0.37428   1.26006
  -0.72562   0.37428   1.26006
  -0.72562   0.37428   1.26006
  -0.72562   0.37428   1.02006
  -0.72562   0.37428   1.02006
  -0.72562   0.37428   1.02006
  -0.72562   0.37428   1.02006
  -0.72562   0.37428   0.78006
  -0.48562   0.37428   0.78006
  -0.48562   0.37428   0.78006
  -0.48562   0.37428   0.78006
  -0.48562   0.37428   0.54006
  -0.48562   0.37428   0.54006
  -0.48562   0.37428   0.54006
  -0.48562   0.37428   0.54006
  -0.48562   0.37428   0.30006
  -0.48562   0.37428   0.30006
  -0.48562   0.37428   0.30006
  -0.48562   0.37428   0.30006
  -0.24562   0.37428   0.06006
  -0.24562   0.37428   0.06006
  -0.24562   0.37428  -0.17994
  -0.24562   0.37428  -0.17994
  -0.24562   0.37428  -0.17994
  -0.24562   0.37428  -0.41994
  -0.24562   0.37428  -0.41994
  -0.24562   0.37428  -0.41994
  -0.24562   0.37428  -0.65994
  -0.24562   0.37428  -0.65994
  -0.24562   0.37428  -0.65994
  -0.24562   0.37428  -0.65994
  -0.24562   0.37428  -0.65994
  -0.24562   0.37428  -0.89994
  -0.24562   0.37428  -0.89994
  -0.24562   0.13428  -0.89994
  -0.24562   0.37428  -1.13994
  -0.24562   0.37428  -1.13994
  -0.24562   0.37428  -1.37994
  -0.24562   0.37428  -1.37994
  -0.24562   0.13428  -1.37994
  -0.24562   0.13428  -1.61994
  -0.24562   0.13428  -1.61994
  -0.24562   0.13428  -1.61994
  -0.24562   0.13428  -1.61994
  -0.24562   0.13428  -1.61994
  -0.24562   0.13428  -1.85994
  -0.48562   0.13428  -1.85994
  -0.48562   0.13428  -1.85994
  -0.24562  -0.10572  -1.85994
  -0.24562  -0.10572  -1.85994
  -0.24562  -0.10572  -1.85994
  -0.24562  -0.58572  -2.09994
  -0.24562  -0.34572  -2.09994
  -0.24562  -0.10572  -2.09994
  -0.24562  -0.10572  -2.09994
  -0.24562  -0.10572  -1.85994
  -0.48562  -0.10572  -1.85994
  -0.48562  -0.34572  -1.85994
  -0.48562  -0.10572  -1.85994
  -0.48562  -0.34572  -1.85994
  -0.48562  -0.34572  -1.85994
  -0.48562  -0.34572  -1.85994
  -0.24562  -0.34572  -1.61994
  -0.24562  -0.34572  -1.61994
  -0.24562  -0.34572  -1.37994
  -0.24562  -0.34572  -1.37994
  -0.24562  -0.34572  -1.37994
  -0.24562  -0.34572  -1.37994
  -0.24562  -0.34572  -1.37994
  -0.24562  -0.34572  -1.13994
  -0.24562  -0.34572  -1.13994
  -0.24562  -0.34572  -1.13994
  -0.24562  -0.34572  -1.13994
  -0.24562  -0.10572  -1.13994
  -0.24562  -0.10572  -1.13994
  -0.24562  -0.34572  -0.89994
  -0.24562  -0.34572  -0.89994
  -0.24562  -0.10572  -0.89994
  -0.24562  -0.10572  -0.89994
  -0.24562  -0.10572  -0.65994
  -0.24562  -0.10572  -0.65994
  -0.24562  -0.34572  -0.65994
  -0.24562  -0.10572  -0.65994
  -0.00562  -0.10572  -0.65994
  -0.00562  -0.10572  -0.41994
  -0.24562   0.13428  -0.41994
  -0.24562   0.13428  -0.41994
  -0.00562   0.13428  -0.65994
  -0.00562   0.13428  -0.41994
  -0.24562   0.13428  -0.41994
  -0.24562   0.13428  -0.41994
  -0.24562   0.13428  -0.41994
  -0.24562   0.37428  -0.17994
  -0.24562   0.13428  -0.41994
  -0.24562   0.13428  -0.17994
  -0.24562   0.37428  -0.17994
  -0.24562   0.13428  -0.41994
  -0.24562   0.13428  -0.41994
  -0.24562   0.37428  -0.17994
  -0.24562   0.37428  -0.17994
  -0.24562   0.37428  -0.17994
  -0.24562   0.37428  -0.17994
  -0.24562   0.37428  -0.17994
  -0.24562   0.37428  -0.17994
  -0.24562   0.37428  -0.17994
  -0.24562   0.37428  -0.17994
  -0.24562   0.37428  -0.17994
  -0.24562   0.37428  -0.17994
  -0.24562   0.37428   0.06006
  -0.24562   0.37428  -0.17994
  -0.24562   0.37428  -0.17994
  -0.24562   0.61428  -0.17994
  -0.24562   0.61428   0.06006
  -0.24562   0.61428   0.06006
  -0.24562   0.61428   0.06006
  -0.24562   0.61428   0.06006
  -0.00562   0.85428   0.06006
  -0.00562   0.85428   0.06006
   0.23438   0.85428   0.30006
   0.23438   0.85428   0.30006
   0.23438   0.85428   0.30006
   0.23438   0.85428   0.30006
   0.47438   0.85428   0.30006
   0.47438   0.61428   0.30006
   0.47438   0.85428   0.30006
   0.71438   0.85428   0.30006
   0.71438   0.61428   0.30006
   0.71438   0.85428   0.30006
   0.95438   0.61428   0.30006
   0.95438   0.61428   0.30006
   0.95438   0.61428   0.30006
   1.19438   0.61428   0.30006
   1.19438   0.61428   0.30006
   1.19438   0.61428   0.30006
   1.43438   0.61428   0.30006
   1.43438   0.61428   0.30006
   1.67438   0.37428   0.54006
   1.67438   0.37428   0.54006
   1.67438   0.37428   0.54006
   1.67438   0.37428   0.54006
   1.67438   0.37428   0.54006
   1.91438   0.13428   0.54006
   1.91438   0.37428   0.54006
   2.15438   0.37428   0.30006
   2.15438   0.37428   0.54006
   2.15438   0.37428   0.54006
   2.39438   0.37428   0.54006
   2.39438   0.13428   0.54006
   2.39438   0.13428   0.54006
   2.39438  -0.10572   0.54006
   2.39438   0.13428   0.54006
   2.39438  -0.10572   0.54006
   2.62438  -0.10572   0.54006
   2.62438  -0.10572   0.54006
   2.62438  -0.10572   0.54006
   2.86438  -0.34572   0.54006
   2.86438  -0.34572   0.54006
   2.86438  -0.34572   0.54006
   2.86438  -0.34572   0.78006
   2.86438  -0.34572   0.78006
   3.10438  -0.34572   0.78006
   2.62438  -0.34572   0.78006
   3.10438  -0.58572   0.78006
   2.86438  -0.58572   0.78006
   3.10438  -0.58572   0.78006
   3.10438  -0.58572   0.78006
   3.10438  -0.58572   0.78006
   2.86438  -0.58572   0.78006
   2.86438  -0.58572   0.78006
   2.86438  -1.06572   0.54006
   2.86438  -1.06572   0.54006
   3.10438  -1.06572   0.78006
   2.86438  -0.82572   0.78006
   2.86438  -0.82572   0.78006
   2.86438  -0.82572   0.78006
   2.86438  -0.82572   0.78006
   2.86438  -1.06572   0.78006
   2.86438  -0.82572   0.78006
   2.86438  -1.06572   0.78006
   2.62438  -0.82572   0.30006
   2.62438  -1.06572   0.78006
   2.62438  -0.82572   0.78006
   2.62438  -0.82572   0.78006
   2.39438  -0.82572   0.78006
   2.39438  -0.82572   0.78006
   2.39438  -0.82572   0.54006
   2.15438  -0.58572   0.54006
   2.15438  -0.58572   0.54006
   2.15438  -0.58572   0.54006
   1.67438  -0.58572   0.54006
   1.67438  -0.34572   0.30006
   1.67438  -0.34572   0.30006
   1.19438  -0.34572   0.30006
   1.19438  -0.34572   0.30006
   1.19438  -0.34572   0.30006
   1.19438  -0.10572   0.30006
   0.95438  -0.10572   0.30006
   0.95438  -0.10572   0.06006
   0.71438  -0.10572   0.30006
   0.71438  -0.10572   0.06006
   0.47438   0.13428   0.06006
   0.23438   0.13428   0.06006
   0.23438  -0.10572   0.06006
   0.23438   0.13428  -0.17994
  -0.00562   0.37428  -0.17994
  -0.24562   0.37428  -0.17994
  -0.24562   0.37428  -0.17994
  -0.24562   0.37428  -0.41994
  -0.48562   0.37428  -0.17994
  -0.48562   0.37428  -0.41994
  -0.72562   0.37428  -0.41994
  -0.72562   0.37428  -0.65994
  -0.96562   0.37428  -0.65994
  -0.96562   0.37428  -0.65994
  -1.20562   0.37428  -0.65994
  -1.20562   0.37428  -0.65994
  -1.44562   0.61428  -0.65994
  -1.44562   0.61428  -0.65994
  -1.44562   0.61428  -0.65994
  -1.68562   0.61428  -0.89994
  -1.68562   0.37428  -0.89994
  -1.68562   0.61428  -0.89994
  -1.92562   0.61428  -0.89994
  -1.92562   0.37428  -0.89994
  -1.92562   0.61428  -0.89994
  -1.92562   0.61428  -0.89994
  -1.92562   0.61428  -0.89994
  -2.16562   0.37428  -0.89994
  -2.16562   0.37428  -0.89994
  -2.16562   0.61428  -0.89994
  -2.16562   0.37428  -0.89994
  -1.92562   0.61428  -0.65994
  -2.16562   0.61428  -0.65994
  -2.16562   0.61428  -0.65994
  -2.16562   0.37428  -0.65994
  -2.16562   0.37428  -0.65994
  -2.16562   0.37428  -0.65994
  -2.16562   0.37428  -0.65994
  -2.16562   0.37428  -0.65994
  -2.16562   0.37428  -0.65994
  -2.16562   0.37428  -0.65994
  -2.16562   0.37428  -0.65994
  -2.16562   0.37428  -0.65994
  -2.63562   0.37428  -0.65994
  -2.16562   0.13428  -0.65994
  -2.16562   0.13428  -0.65994
  -1.92562   0.13428  -0.65994
  -1.92562   0.13428  -0.65994
  -1.92562   0.13428  -0.65994
  -1.92562  -0.10572  -0.65994
  -1.92562  -0.10572  -0.65994
  -1.92562  -0.10572  -0.65994
  -1.92562  -0.10572  -0.89994
  -1.92562  -0.34572  -0.65994
  -1.92562  -0.10572  -0.65994
  -1.92562  -0.10572  -0.65994
  -1.92562  -0.10572  -0.65994
  -1.92562  -0.34572  -0.65994
  -1.92562  -0.34572  -0.65994
  -1.92562  -0.34572  -0.65994
  -1.68562  -0.34572  -0.65994
  -1.68562  -0.34572  -0.65994
  -1.68562  -0.10572  -0.65994
  -1.68562  -0.10572  -0.65994
  -1.68562  -0.34572  -0.65994
  -1.68562  -0.34572  -0.89994
  -1.68562  -0.34572  -0.65994
  -1.44562  -0.34572  -0.65994
  -1.68562  -0.34572  -0.65994
  -1.44562  -0.34572  -0.65994
  -1.44562  -0.34572  -0.65994
  -1.44562  -0.34572  -0.65994
  -1.44562  -0.34572  -0.65994
  -1.20562  -0.34572  -0.65994
  -1.20562  -0.34572  -0.65994
  -1.20562  -0.34572  -0.65994
  -0.96562  -0.34572  -0.65994
  -0.96562  -0.34572  -0.65994
  -0.96562  -0.34572  -0.41994
  -0.96562  -0.58572  -0.41994
  -0.72562  -0.58572  -0.41994
  -0.72562  -0.58572  -0.41994
  -0.48562  -0.58572  -0.17994
  -0.48562  -0.58572  -0.17994
  -0.48562  -0.58572  -0.17994
  -0.24562  -0.58572  -0.17994
  -0.24562  -0.58572   0.06006
  -0.24562  -0.58572   0.06006
  -0.24562  -0.58572   0.30006
  -0.24562  -0.58572   0.30006
  -0.24562  -0.58572   0.30006
  -0.00562  -0.58572   0.54006
  -0.00562  -0.58572   0.54006
  -0.00562  -0.58572   0.54006
  -0.00562  -0.58572   0.78006
  -0.00562  -0.58572   0.78006
  -0.00562  -0.58572   0.78006
  -0.00562  -0.34572   1.02006
  -0.00562  -0.58572   1.26006
  -0.00562  -0.58572   1.26006
  -0.00562  -0.58572   1.26006
  -0.00562  -0.58572   1.50006
  -0.00562  -0.58572   1.50006
  -0.00562  -0.58572   1.74006
  -0.00562  -0.34572   1.74006
  -0.24562  -0.34572   1.74006
  -0.24562  -0.34572   1.98006
  -0.24562  -0.34572   1.98006
  -0.24562  -0.34572   2.21006
  -0.24562  -0.34572   2.21006
  -0.24562  -0.34572   2.21006
