********************************************************************************
               CENTRO DE INSTRUMENTACION Y REGISTRO SISMICO  A.C.  
                              FUNDACION ICA, A.C.
     Anaxagoras 814, Col. Narvarte, Benito Juarez, C.P. 03020 Mexico, D.F.
            Tels. 687 45 42/ 687 45  82             Fax. 669 25 12
********************************************************************************
ARCHIVO ESTANDAR DE ACELERACION:
VERSION DEL FORMATO                    : 2.0
NOMBRE DEL ARCHIVO                     : AL019203.311
FECHA Y HORA DE CREACION               : 19 de febrero de 1996/18:03
REF. CATALOGO ACELEROGRAMAS, SMIS 1995 : REGISTRO No. 3329 /PAG. 310


================================================================================
DATOS DE LA ESTACION:
NOMBRE DE LA ESTACION                  : ALAMEDA
CLAVE DE LA ESTACION                   : AL01
LOCALIZACION DE LA ESTACION            : JARDIN ALAMEDA ENTRE AV. HIDALGO Y AV.
                                       : JUAREZ, CENTRO
                                       :
                                       :
                                       :
COORDENADAS DE LA ESTACION             : 19.436 LAT. N 
                                       : 99.145 LONG. W 
ALTITUD (msnm)                         : 2232
TIPO DE SUELO                          : TERRENO BLANDO, MATERIAL COMPRESIBLE
                                       : (ARCILLAS)
                                       : 
INSTITUCION RESPONSABLE                : FICA
                                       :

================================================================================
DATOS DEL ACELEROGRAFO:
MODELO DEL ACELEROGRAFO                : SSA-1
NUMERO DE SERIE DEL ACELEROGRAFO       : 152
NUMERO DE CANALES                      : 3
ORIENTACION C1-C6 (rumbo;orientacion)  : /N00E/+V/N90E
ORIENTACION C7-C12 (rumbo;orientacion) :
VEL. DE MUESTREO, C1-C6 (muestras/s)   : /200/200/200
VEL. DE MUESTREO, C7-C12 (muestras/s)  :
ESC. COMPLETA DE SENSORES, C1-C6, (g)  : /2/2/2
ESC. COMPLETA DE SENSORES, C7-C12, (g) :
FREC. NAT. DE SENSORES, C1-C6, (Hz)    : /50/50/50
FREC. NAT. DE SENSORES, C7-C12, (Hz)   :
AMORTIGUAMIENTO DE SENSORES, C1-C6     : /0.700/0.700/0.700
AMORTIGUAMIENTO DE SENSORES, C7-C12    :
INTERVALO DE MUESTREO, C1-C6, (s)      : /0.005/0.005/0.005
INTERVALO DE MUESTREO, C7-C12, (s)     :
UMBRAL DE DISPARO, C1-C6, (Gal)        : /2/1.5/2
UMBRAL DE DISPARO, C7-C12, (Gal)       :
MEMORIA DE PREEVENTO (s)               : 15
TIEMPO DE POSEVENTO (s)                : 90


================================================================================
DATOS DEL SISMO:
FECHA DEL SISMO (GMT)                  : 31/MAR/92
HORA EPICENTRO (GMT)                   : 20:56:33,6
MAGNITUD(ES)                           : /Mb=5.20/Ms=5.10/Mc=4.70
COORDENADAS DEL EPICENTRO              : 17.233 LAT. N 
                                       : 101.302 LONG. W
PROFUNDIDAD FOCAL (km)                 : 11 
FUENTE DE LOS DATOS EPICENTRALES       : INSTITUTO DE INGENIERIA UNAM
                                       : 

================================================================================
DATOS DE ESTE REGISTRO:
HORA DE LA PRIMERA MUESTRA (GMT)       : 20:56:00.00
EXACTITUD DEL TIEMPO (s)               :     
DURACION DEL REGISTRO (s), C1-C6       : /113.92/113.92/113.92
DURACION DEL REGISTRO (s), C7-C12      :
NUM. TOTAL DE MUESTRAS, C1-C6          : /22784/22784/22784
NUM. TOTAL DE MUESTRAS, C7-C12         :
ACEL. MAX. (Gal), C1-C6                : /2.70994/1.49393/2.26053
ACEL. MAX., C1-C6, EN LA MUESTRA       :
ACEL. MAX. (Gal), C7-C12               :
ACEL. MAX., C7-C12, EN LA MUESTRA      :
UNIDADES DE LOS DATOS                  : Gal (cm/s/s)
FACTOR DE DECIMACION                   : 1
FORMATO DATOS (FORTRAN,10 campos/dato) : 3F10.5


================================================================================
CALIDAD DEL ACELEROGRAMA:
REGISTRO DIGITAL COMPLETO, CARECE DE TIEMPO ABSOLUTO.


================================================================================
COMENTARIOS: 
             El equipo se encontraba con una ganancia de 2 en los ejes
             horizontales y de 4 en el eje vertical, por lo que las es-
             calas completas eran de 1 g y 1/2 g respectivamente.











================================================================================
DATOS DE ACELERACION:
---------+---------+---------+---------+---------+---------+---------+---------+
   CANAL-1   CANAL-2   CANAL-3   CANAL-4   CANAL-5   CANAL-6   CANAL-7   CANAL-8
      N00E        +V      N90E
---------+---------+---------+---------+---------+---------+---------+---------+
[...]
   0.78994  -0.41607   0.60947
   0.78994  -0.41607   0.60947
   0.78994  -0.65607   0.60947
   0.78994  -0.65607   0.60947
   1.26994  -0.65607   0.13947
   1.26994  -0.65607   0.60947
   0.78994  -0.65607   0.60947
   0.78994  -0.41607   0.13947
   0.78994  -0.17607   0.13947
   0.78994  -0.17607  -0.34053
   0.78994  -0.17607  -0.34053
   0.78994  -0.17607  -0.34053
   0.78994  -0.17607  -0.82053
   0.78994  -0.41607  -0.82053
   0.78994  -0.41607  -0.82053
   0.78994  -0.65607  -0.82053
   0.78994  -0.65607  -0.82053
   0.78994  -0.65607  -0.82053
   0.78994  -0.65607  -0.82053
   0.78994  -0.65607  -0.82053
   0.78994  -0.65607  -0.82053
   0.30994  -0.65607  -1.30053
   0.30994  -0.65607  -1.30053
   0.30994  -0.65607  -1.78053
   0.30994  -0.41607  -1.78053
   0.30994  -0.41607  -1.78053
   0.30994  -0.41607  -1.78053
   0.30994  -0.41607  -1.78053
   0.30994  -0.41607  -1.78053
   0.30994  -0.41607  -1.78053
   0.30994  -0.41607  -1.78053
   0.30994  -0.41607  -1.78053
   0.30994  -0.41607  -1.78053
  -0.17006  -0.41607  -1.78053
  -0.17006  -0.41607  -1.78053
   0.30994  -0.17607  -1.78053
  -0.17006  -0.17607  -1.78053
  -0.17006  -0.17607  -1.78053
  -0.17006  -0.17607  -1.78053
  -0.17006  -0.17607  -2.26053
  -0.17006   0.06393  -2.26053
  -0.17006   0.06393  -2.26053
  -0.17006   0.06393  -2.26053
  -0.17006   0.06393  -2.26053
  -0.17006   0.06393  -2.26053
  -0.17006   0.06393  -2.26053
  -0.17006   0.06393  -1.78053
   0.30994   0.06393  -1.78053
   0.30994   0.06393  -1.78053
  -0.17006   0.06393  -1.78053
   0.30994   0.06393  -1.30053
  -0.17006   0.06393  -1.30053
  -0.17006   0.30393  -1.30053
  -0.17006   0.30393  -1.30053
  -0.17006   0.53393  -1.30053
  -0.17006   0.53393  -1.30053
  -0.17006   0.53393  -1.30053
  -0.17006   0.53393  -1.30053
  -0.17006   0.53393  -1.30053
  -0.17006   0.53393  -1.30053
  -0.17006   0.30393  -1.30053
  -0.17006   0.30393  -0.82053
  -0.17006   0.06393  -0.82053
  -0.17006   0.06393  -0.82053
   0.30994   0.06393  -0.34053
  -0.17006   0.06393  -0.34053
   0.30994   0.06393   0.13947
  -0.17006   0.06393   0.13947
  -0.17006   0.06393   0.13947
  -0.17006   0.30393   0.13947
  -0.17006   0.30393   0.60947
  -0.17006   0.30393   0.60947
  -0.17006   0.30393   0.60947
  -0.17006   0.30393   0.60947
  -0.17006   0.30393   0.13947
  -0.17006   0.30393   0.13947
  -0.17006   0.06393   0.13947
  -0.17006  -0.17607   0.13947
  -0.17006  -0.41607   0.13947
  -0.17006  -0.41607   0.60947
  -0.17006  -0.41607   0.60947
  -0.17006  -0.41607   0.60947
   0.30994  -0.17607   1.08947
   0.30994  -0.17607   1.08947
   0.30994   0.06393   1.08947
   0.30994   0.06393   1.08947
  -0.17006   0.06393   1.08947
  -0.17006   0.30393   0.60947
  -0.17006   0.06393   0.60947
  -0.17006   0.06393   0.60947
  -0.17006   0.06393   0.60947
  -0.17006   0.06393   0.60947
  -0.17006   0.06393   0.60947
  -0.17006  -0.17607   0.60947
  -0.17006  -0.17607   0.13947
  -0.17006  -0.17607   0.13947
  -0.17006  -0.17607   0.13947
  -0.17006  -0.17607   0.13947
  -0.17006  -0.17607   0.13947
  -0.17006  -0.41607   0.13947
   0.30994  -0.41607   0.13947
   0.30994  -0.41607   0.13947
   0.30994  -0.17607   0.13947
   0.30994  -0.17607   0.13947
  -0.17006  -0.17607   0.13947
  -0.17006   0.06393   0.13947
  -0.17006  -0.17607   0.13947
  -0.17006  -0.17607  -0.34053
  -0.17006  -0.17607  -0.34053
  -0.17006  -0.17607  -0.34053
  -0.17006  -0.41607  -0.34053
  -0.17006  -0.41607  -0.34053
  -0.17006  -0.41607  -0.34053
  -0.17006  -0.41607  -0.34053
  -0.17006  -0.17607  -0.34053
  -0.17006   0.06393  -0.34053
  -0.17006   0.06393  -0.82053
  -0.17006   0.06393  -0.82053
  -0.17006   0.06393  -0.82053
  -0.17006   0.06393  -0.82053
  -0.17006   0.06393  -0.82053
  -0.17006  -0.17607  -0.82053
  -0.17006  -0.17607  -0.82053
  -0.17006  -0.41607  -0.82053
  -0.17006  -0.41607  -0.82053
  -0.17006  -0.41607  -0.34053
  -0.65006  -0.17607  -0.34053
  -0.17006  -0.17607  -0.34053
  -0.65006   0.06393  -0.34053
  -0.65006   0.06393  -0.82053
  -1.12006   0.06393  -0.82053
  -1.12006   0.06393  -0.82053
  -1.12006  -0.17607  -0.82053
  -1.12006  -0.17607  -1.30053
  -1.12006  -0.41607  -1.30053
  -1.12006  -0.41607  -0.82053
  -1.12006  -0.65607  -0.82053
  -1.12006  -0.65607  -0.82053
  -1.12006  -0.41607  -0.82053
  -1.12006  -0.41607  -0.82053
  -1.12006  -0.41607  -0.34053
  -1.12006  -0.41607  -0.34053
  -1.12006  -0.17607  -0.34053
  -1.12006  -0.17607  -0.34053
  -1.12006  -0.17607  -0.34053
  -1.12006  -0.17607  -0.34053
  -1.60006  -0.17607  -0.34053
  -1.60006   0.06393  -0.34053
  -1.60006   0.06393  -0.34053
  -1.60006   0.06393  -0.34053
  -1.60006  -0.17607  -0.82053
  -1.60006  -0.17607  -0.34053
  -1.60006  -0.41607  -0.82053
  -1.60006  -0.65607  -0.34053
  -1.60006  -0.65607  -0.34053
  -1.60006  -0.65607  -0.34053
  -1.12006  -0.65607   0.13947
  -1.60006  -0.41607   0.13947
  -1.60006  -0.41607   0.13947
  -1.60006  -0.17607   0.13947
  -1.60006  -0.17607   0.13947
  -1.60006  -0.17607   0.13947
  -1.60006  -0.17607  -0.34053
  -1.60006  -0.17607  -0.34053
  -1.60006  -0.17607   0.13947
  -1.60006  -0.17607  -0.34053
  -2.08006  -0.17607  -0.34053
  -1.60006  -0.17607   0.13947
  -1.60006  -0.17607   0.13947
  -1.60006  -0.17607   0.13947
  -1.60006  -0.17607   0.13947
  -1.12006  -0.17607   0.13947
  -1.12006  -0.17607   0.13947
  -1.12006   0.06393   0.13947
  -1.12006   0.06393   0.13947
  -1.12006   0.30393  -0.34053
  -1.12006   0.30393   0.13947
  -1.60006   0.30393   0.13947
  -1.60006   0.30393  -0.34053
  -1.60006   0.30393  -0.34053
  -1.60006   0.30393  -0.34053
  -1.60006   0.06393  -0.34053
  -1.12006   0.06393  -0.34053
  -1.12006   0.30393   0.13947
  -1.12006   0.30393   0.13947
  -1.12006   0.30393   0.13947
  -1.12006   0.30393   0.13947
  -1.12006   0.30393   0.13947
  -1.12006   0.30393   0.13947
  -1.12006   0.30393   0.13947
  -1.12006   0.30393   0.13947
  -1.12006   0.53393   0.13947
  -1.12006   0.53393   0.13947
  -1.12006   0.53393   0.13947
  -1.12006   0.53393   0.13947
  -1.12006   0.53393   0.13947
  -1.12006   0.53393   0.13947
  -1.12006   0.30393  -0.34053
  -0.65006   0.30393   0.13947
  -0.65006   0.53393  -0.34053
  -0.65006   0.53393   0.13947
  -0.65006   0.77393   0.13947
  -0.65006   0.77393   0.13947
  -0.65006   0.77393   0.13947
  -0.65006   0.53393   0.13947
  -1.12006   0.53393   0.13947
  -1.12006   0.30393   0.13947
  -1.12006   0.06393   0.13947
  -1.12006   0.06393   0.13947
  -1.12006   0.06393   0.13947
  -1.12006   0.30393   0.13947
  -1.12006   0.06393   0.13947
  -0.65006   0.06393   0.13947
  -0.65006   0.06393   0.13947
  -0.65006   0.06393   0.13947
  -0.65006   0.06393   0.13947
  -0.65006  -0.17607   0.13947
  -0.65006  -0.17607   0.13947
  -0.65006   0.06393   0.60947
  -0.65006   0.06393   0.60947
  -0.65006   0.06393   0.60947
  -0.65006   0.06393   0.60947
  -0.65006   0.06393   0.60947
  -0.65006   0.06393   0.60947
  -0.65006  -0.17607   0.60947
  -0.65006  -0.41607   0.60947
  -1.12006  -0.65607   0.60947
  -1.12006  -0.65607   0.60947
  -0.65006  -0.65607   0.60947
  -0.65006  -0.41607   0.60947
  -0.65006  -0.41607   0.60947
  -0.17006  -0.17607   0.60947
  -0.65006  -0.17607   0.60947
  -0.17006   0.06393   0.60947
  -0.17006   0.06393   0.13947
  -0.65006  -0.17607   0.13947
  -0.65006  -0.17607   0.13947
  -0.65006  -0.41607   0.13947
  -0.65006  -0.41607   0.13947
  -0.65006  -0.65607  -0.34053
  -0.65006  -0.65607  -0.34053
  -0.65006  -0.65607  -0.34053
  -0.65006  -0.89607   0.13947
  -0.17006  -0.89607   0.13947
  -0.17006  -0.89607  -0.34053
  -0.17006  -0.65607  -0.34053
  -0.17006  -0.41607  -0.34053
  -0.17006  -0.41607  -0.34053
  -0.17006  -0.17607  -0.34053
  -0.17006   0.06393  -0.34053
  -0.17006   0.06393  -0.34053
   0.30994  -0.17607  -0.82053
   0.30994   0.06393  -0.82053
   0.30994  -0.17607  -0.82053
   0.30994  -0.17607  -0.82053
   0.30994  -0.17607  -0.82053
   0.30994  -0.17607  -0.82053
   0.30994  -0.17607  -1.30053
   0.30994  -0.41607  -1.30053
   0.30994  -0.17607  -1.30053
   0.30994  -0.17607  -1.30053
   0.30994  -0.17607  -1.30053
   0.30994  -0.17607  -0.82053
   0.30994   0.06393  -0.82053
   0.30994   0.06393  -0.82053
   0.30994   0.06393  -0.82053
   0.30994   0.30393  -0.82053
   0.78994   0.30393  -0.82053
   0.78994   0.30393  -0.82053
   0.78994   0.53393  -0.82053
   0.78994   0.53393  -0.82053
   0.30994   0.77393  -0.82053
   0.30994   0.77393  -0.82053
   0.30994   0.53393  -1.30053
   0.30994   0.53393  -1.30053
   0.30994   0.30393  -0.82053
   0.30994   0.30393  -0.82053
   0.30994   0.06393  -0.34053
   0.30994   0.06393  -0.34053
   0.30994   0.06393  -0.34053
   0.30994   0.06393   0.13947
   0.30994   0.30393   0.13947
   0.30994   0.53393   0.13947
   0.30994   0.53393   0.13947
   0.30994   0.77393   0.60947
   0.30994   0.77393   0.60947
   0.30994   1.01393   0.60947
   0.30994   1.01393   0.60947
   0.30994   1.01393   0.60947
  -0.17006   1.01393   0.60947
  -0.17006   1.01393   0.13947
  -0.17006   1.01393   0.13947
  -0.17006   1.01393   0.13947
   0.30994   0.77393   0.13947
  -0.17006   0.77393   0.60947
  -0.17006   0.53393   0.60947
  -0.17006   0.53393   0.60947
  -0.17006   0.30393   0.60947
  -0.17006   0.30393   1.08947
  -0.17006   0.30393   1.08947
  -0.17006   0.30393   1.08947
  -0.17006   0.53393   1.08947
  -0.17006   0.77393   1.08947
   0.30994   1.01393   1.08947
  -0.17006   1.01393   1.08947
   0.30994   1.25393   1.08947
   0.30994   1.25393   0.60947
   0.30994   1.25393   0.60947
   0.30994   1.01393   0.60947
   0.30994   1.01393   0.60947
   0.30994   1.01393   0.60947
   0.30994   0.77393   0.60947
   0.30994   0.53393   0.60947
   0.30994   0.53393   0.60947
   0.30994   0.30393   0.60947
   0.30994   0.30393   0.60947
   0.30994   0.30393   0.60947
   0.78994   0.30393   0.60947
   0.78994   0.30393   0.60947
   0.78994   0.30393   0.60947
   0.78994   0.30393   0.60947
   0.78994   0.53393   0.60947
   0.78994   0.53393   0.60947
   1.26994   0.53393   0.60947
   1.26994   0.53393   0.60947
   1.74994   0.53393   0.60947
   1.26994   0.30393   0.13947
   1.74994   0.06393   0.13947
   1.74994   0.06393  -0.34053
   1.74994  -0.17607  -0.34053
   1.74994  -0.17607  -0.34053
   1.74994  -0.41607  -0.34053
   1.74994  -0.65607  -0.34053
   1.74994  -0.65607  -0.34053
   2.22994  -0.89607  -0.34053
   2.22994  -0.89607  -0.34053
   2.22994  -0.65607  -0.34053
   2.22994  -0.65607  -0.34053
   2.22994  -0.65607  -0.34053
   2.22994  -0.65607  -0.34053
   2.22994  -0.41607  -0.34053
   2.22994  -0.41607  -0.34053
   2.22994  -0.41607  -0.82053
   2.22994  -0.41607  -0.82053
   2.70994  -0.41607  -0.82053
   2.70994  -0.41607  -1.30053
   2.22994  -0.41607  -1.30053
   2.70994  -0.65607  -1.30053
   2.70994  -0.89607  -1.30053
   2.70994  -0.89607  -1.30053
   2.70994  -1.13607  -1.30053
   2.22994  -1.13607  -1.30053
   2.70994  -1.13607  -0.82053
   2.70994  -1.13607  -0.82053
   2.70994  -1.13607  -0.82053
   2.70994  -0.89607  -0.82053
   2.70994  -0.65607  -0.82053
   2.70994  -0.41607  -0.82053
   2.70994  -0.17607  -0.82053
   2.70994   0.06393  -0.82053
   2.70994   0.06393  -1.30053
   2.70994   0.06393  -1.30053
   2.22994   0.06393  -1.30053
   2.22994   0.06393  -1.30053
   2.22994  -0.17607  -1.30053
   2.22994  -0.41607  -1.30053
   2.22994  -0.65607  -1.30053
   2.22994  -0.89607  -1.30053
   2.22994  -0.89607  -0.82053
   1.74994  -0.89607  -0.82053
   2.22994  -0.89607  -0.34053
   2.22994  -0.65607  -0.34053
   2.22994  -0.17607  -0.34053
   2.22994   0.06393   0.13947
   2.22994   0.53393  -0.34053
   2.22994   0.77393  -0.34053
   1.74994   1.01393  -0.34053
   1.74994   0.77393  -0.34053
   1.74994   0.77393  -0.82053
   1.74994   0.53393  -0.82053
   1.74994   0.06393  -0.82053
   1.26994  -0.17607  -0.34053
   1.26994  -0.17607  -0.34053
   1.26994  -0.41607  -0.34053
   1.26994  -0.41607   0.13947
   1.26994  -0.41607   0.13947
   1.26994   0.06393   0.60947
   1.26994   0.06393   0.60947
   1.26994   0.30393   0.60947
   1.26994   0.53393   0.60947
   1.26994   0.77393   0.13947
   1.26994   0.77393   0.13947
   1.26994   0.77393   0.13947
   1.26994   0.53393   0.13947
   0.78994   0.53393   0.13947
   0.78994   0.30393   0.13947
   0.78994   0.30393   0.60947
   0.78994   0.06393   0.60947
   0.78994   0.06393   0.60947
   0.78994   0.06393   0.60947
   0.78994   0.06393   0.60947
   0.78994   0.30393   0.60947
   0.78994   0.53393   0.13947
   0.78994   0.30393   0.13947
   0.78994   0.30393   0.13947
   0.30994   0.06393   0.13947
   0.30994  -0.17607   0.13947
   0.30994  -0.17607   0.13947
   0.30994  -0.41607   0.60947
   0.30994  -0.41607   0.60947
   0.30994  -0.41607   1.08947
   0.30994  -0.17607   1.08947
   0.78994  -0.17607   1.08947
   0.78994   0.06393   1.08947
   0.30994   0.06393   0.60947
   0.30994   0.06393   0.60947
   0.30994  -0.17607   0.60947
   0.30994  -0.17607   0.60947
   0.30994  -0.41607   0.60947
   0.30994  -0.65607   0.60947
   0.30994  -0.65607   0.60947
   0.30994  -0.89607   1.08947
   0.30994  -0.65607   1.08947
   0.30994  -0.41607   1.08947
  -0.17006  -0.17607   1.08947
  -0.17006  -0.17607   1.56947
  -0.17006   0.06393   1.08947
  -0.17006   0.06393   1.08947
  -0.17006   0.06393   1.08947
  -0.17006   0.06393   1.08947
  -0.17006  -0.17607   1.08947
  -0.17006  -0.17607   1.08947
  -0.17006  -0.41607   1.08947
  -0.17006  -0.65607   1.56947
  -0.17006  -0.89607   1.56947
  -0.17006  -0.89607   1.08947
  -0.17006  -1.13607   1.56947
  -0.65006  -0.89607   1.56947
  -0.65006  -0.89607   1.56947
  -0.65006  -0.65607   1.56947
  -0.65006  -0.41607   1.56947
  -0.65006  -0.17607   1.56947
  -0.65006   0.06393   1.56947
  -0.65006   0.30393   1.56947
  -0.65006   0.30393   1.56947
  -0.65006   0.53393   1.56947
  -1.12006   0.30393   1.56947
  -1.12006   0.06393   1.56947
  -1.12006   0.06393   1.56947
  -1.12006  -0.17607   1.56947
  -1.12006  -0.17607   1.56947
  -1.12006  -0.41607   1.56947
  -1.12006  -0.41607   1.56947
  -1.12006  -0.41607   1.56947
  -1.12006  -0.41607   1.56947
  -1.12006  -0.17607   1.56947
  -1.12006   0.06393   1.56947
  -1.12006   0.06393   1.56947
  -1.60006   0.30393   1.56947
  -1.60006   0.53393   1.08947
  -1.60006   0.53393   1.08947
  -1.60006   0.30393   0.60947
  -1.60006   0.30393   0.60947
  -1.60006   0.06393   0.60947
  -1.60006   0.06393   0.60947
  -1.60006  -0.17607   0.60947
  -1.60006  -0.17607   1.08947
  -1.60006  -0.17607   1.08947
  -1.12006   0.06393   1.08947
  -1.12006   0.06393   1.08947
  -1.12006   0.30393   1.08947
  -1.12006   0.30393   0.60947
  -1.12006   0.53393   0.60947
  -1.12006   0.30393   0.13947
  -1.12006   0.30393   0.13947
  -1.12006   0.06393   0.13947
  -1.12006   0.06393   0.13947
  -1.12006  -0.17607   0.13947
  -1.12006  -0.17607   0.13947
  -1.12006  -0.17607  -0.34053
  -1.12006  -0.17607  -0.34053
  -1.12006   0.06393  -0.34053
  -1.12006   0.30393  -0.34053
  -0.65006   0.30393  -0.34053
  -0.65006   0.30393  -0.34053
  -0.65006   0.30393  -0.34053
  -0.65006   0.30393   0.13947
  -0.65006   0.06393   0.13947
  -0.65006  -0.17607   0.13947
  -0.65006  -0.17607   0.13947
  -0.17006  -0.17607   0.13947
  -0.17006   0.06393  -0.34053
  -0.17006   0.06393  -0.34053
