********************************************************************************
               CENTRO DE INSTRUMENTACION Y REGISTRO SISMICO  A.C.  
                              FUNDACION ICA, A.C.
     Anaxagoras 814, Col. Narvarte, Benito Juarez, C.P. 03020 Mexico, D.F.
            Tels. 687 45 42/ 687 45  82             Fax. 669 25 12
********************************************************************************
ARCHIVO ESTANDAR DE ACELERACION:
VERSION DEL FORMATO                    : 2.0
NOMBRE DEL ARCHIVO                     : AL019005.111
FECHA Y HORA DE CREACION               : ABRIL 16, 1996/19:40
REF. CATALOGO ACELEROGRAMAS, SMIS 1995 : REGISTRO No. 2030 /PAG. 201


================================================================================
DATOS DE LA ESTACION:
NOMBRE DE LA ESTACION                  : ALAMEDA
CLAVE DE LA ESTACION                   : AL01
LOCALIZACION DE LA ESTACION            : JARDIN ALAMEDA ENTRE AV. HIDALGO Y AV.
                                       : JUAREZ, CENTRO
                                       :
                                       :
                                       :
COORDENADAS DE LA ESTACION             : 19.436 LAT. N 
                                       : 99.145 LONG. W 
ALTITUD (msnm)                         : 2232
TIPO DE SUELO                          : TERRENO BLANDO, MATERIAL COMPRESIBLE
                                       : (ARCILLAS)
                                       : 
INSTITUCION RESPONSABLE                : FICA
                                       :

================================================================================
DATOS DEL ACELEROGRAFO:
MODELO DEL ACELEROGRAFO                : SSA-1
NUMERO DE SERIE DEL ACELEROGRAFO       : 152
NUMERO DE CANALES                      : 3
ORIENTACION C1-C6 (rumbo;orientacion)  : /N00E/+V/N90E
ORIENTACION C7-C12 (rumbo;orientacion) :
VEL. DE MUESTREO, C1-C6 (muestras/s)   : /200/200/200
VEL. DE MUESTREO, C7-C12 (muestras/s)  :
ESC. COMPLETA DE SENSORES, C1-C6, (g)  : /2/2/2
ESC. COMPLETA DE SENSORES, C7-C12, (g) :
FREC. NAT. DE SENSORES, C1-C6, (Hz)    : /50/50/50
FREC. NAT. DE SENSORES, C7-C12, (Hz)   :
AMORTIGUAMIENTO DE SENSORES, C1-C6     : /0.700/0.700/0.700
AMORTIGUAMIENTO DE SENSORES, C7-C12    :
INTERVALO DE MUESTREO, C1-C6, (s)      : /0.005/0.005/0.005
INTERVALO DE MUESTREO, C7-C12, (s)     :
UMBRAL DE DISPARO, C1-C6, (Gal)        : /2/1.5/2
UMBRAL DE DISPARO, C7-C12, (Gal)       :
MEMORIA DE PREEVENTO (s)               : 15
TIEMPO DE POSEVENTO (s)                : 90


================================================================================
DATOS DEL SISMO:
FECHA DEL SISMO (GMT)                  : 11/MAY/90
HORA EPICENTRO (GMT)                   : 23:43:49,1
MAGNITUD(ES)                           : /Mb=5.30/Ms=4.90/Mc=5.30
COORDENADAS DEL EPICENTRO              : 17.046 LAT. N 
                                       : 100.840 LONG. W
PROFUNDIDAD FOCAL (km)                 : 11.7 
FUENTE DE LOS DATOS EPICENTRALES       : INSTITUTO DE INGENIERIA UNAM
                                       : 

================================================================================
DATOS DE ESTE REGISTRO:
HORA DE LA PRIMERA MUESTRA (GMT)       : 23:43:52.00
EXACTITUD DEL TIEMPO (s)               :     
DURACION DEL REGISTRO (s), C1-C6       : /110.08/110.08/110.08
DURACION DEL REGISTRO (s), C7-C12      :
NUM. TOTAL DE MUESTRAS, C1-C6          : /22016/22016/22016
NUM. TOTAL DE MUESTRAS, C7-C12         :
ACEL. MAX. (Gal), C1-C6                : /5.76056/2.63170/5.84412
ACEL. MAX., C1-C6, EN LA MUESTRA       :
ACEL. MAX. (Gal), C7-C12               :
ACEL. MAX., C7-C12, EN LA MUESTRA      :
UNIDADES DE LOS DATOS                  : Gal (cm/s/s)
FACTOR DE DECIMACION                   : 1
FORMATO DATOS (FORTRAN,10 campos/dato) : 3F10.5


================================================================================
CALIDAD DEL ACELEROGRAMA:
REGISTRO DIGITAL COMPLETO, CARECE DE TIEMPO ABSOLUTO.


================================================================================
COMENTARIOS:














================================================================================
DATOS DE ACELERACION:
---------+---------+---------+---------+---------+---------+---------+---------+
   CANAL-1   CANAL-2   CANAL-3   CANAL-4   CANAL-5   CANAL-6   CANAL-7   CANAL-8
      *00E        +V      N90E
---------+---------+---------+---------+---------+---------+---------+---------+
[...]
  -0.49056  -0.71830  -2.49412
  -0.49056  -0.23830  -2.49412
  -0.97056  -0.71830  -2.97412
  -0.49056  -0.23830  -2.49412
  -0.01056   0.24170  -2.49412
  -0.97056  -0.23830  -2.97412
  -0.97056  -0.23830  -2.97412
  -0.49056   0.24170  -2.49412
  -0.49056   0.24170  -2.97412
  -1.45056  -0.23830  -2.97412
  -0.97056   0.24170  -2.49412
  -0.49056   0.72170  -2.49412
  -0.97056   0.24170  -2.97412
  -0.97056   0.72170  -2.97412
  -0.49056   0.72170  -2.49412
  -0.97056   0.72170  -2.97412
  -0.97056   0.72170  -2.97412
  -0.49056   1.19170  -2.49412
  -0.97056   1.19170  -2.97412
  -0.97056   0.72170  -2.97412
  -0.49056   1.67170  -2.97412
  -0.49056   1.67170  -2.49412
  -0.97056   1.67170  -3.45412
  -0.49056   1.67170  -2.97412
  -0.01056   2.15170  -2.49412
  -0.49056   1.67170  -2.97412
  -0.49056   1.67170  -2.97412
  -0.01056   2.15170  -2.49412
  -0.01056   2.15170  -2.49412
  -0.49056   2.15170  -3.45412
  -0.01056   2.15170  -2.97412
   0.46944   2.63170  -2.49412
  -0.49056   2.15170  -2.97412
  -0.01056   2.63170  -2.97412
   0.94944   2.63170  -2.49412
   0.46944   2.63170  -2.97412
   0.46944   2.15170  -2.97412
   0.94944   2.63170  -2.49412
   0.94944   2.63170  -2.49412
   0.46944   2.15170  -2.97412
   0.94944   2.63170  -2.49412
   1.42944   2.63170  -2.49412
   0.94944   2.15170  -2.97412
   1.42944   2.15170  -2.49412
   1.90944   2.63170  -2.01412
   1.42944   2.15170  -2.49412
   1.42944   1.67170  -2.49412
   1.90944   2.15170  -2.01412
   1.90944   1.67170  -2.01412
   1.42944   1.19170  -2.49412
   1.90944   1.19170  -2.01412
   1.90944   1.67170  -1.53412
   1.42944   0.72170  -2.01412
   1.42944   0.72170  -1.53412
   1.90944   1.19170  -1.05412
   1.42944   0.72170  -1.53412
   0.94944   0.24170  -1.53412
   1.90944   0.72170  -0.57412
   1.42944   0.24170  -1.05412
   0.94944  -0.23830  -1.53412
   1.42944  -0.23830  -0.57412
   1.42944  -0.23830  -0.57412
   0.94944  -0.71830  -1.05412
   0.94944  -0.71830  -1.05412
   1.42944  -0.23830  -0.57412
   0.94944  -1.19830  -0.57412
   0.46944  -1.19830  -1.05412
   1.42944  -0.71830  -0.09412
   0.94944  -1.19830  -0.57412
   0.46944  -1.67830  -0.57412
   0.94944  -1.19830  -0.09412
   0.94944  -1.19830  -0.09412
   0.46944  -1.67830  -0.57412
   0.46944  -1.67830  -0.09412
   0.94944  -1.19830  -0.09412
   0.46944  -2.15830  -0.57412
  -0.01056  -2.15830  -0.57412
   0.46944  -1.67830  -0.09412
   0.94944  -1.67830  -0.09412
  -0.01056  -2.15830  -0.57412
   0.46944  -1.67830  -0.09412
   0.46944  -1.67830  -0.09412
  -0.01056  -2.15830  -0.09412
  -0.01056  -1.67830  -0.09412
  -0.01056  -1.19830   0.37588
  -0.49056  -1.67830  -0.09412
  -0.49056  -1.67830  -0.09412
  -0.01056  -1.19830   0.37588
  -0.01056  -1.19830  -0.09412
  -0.49056  -1.67830  -0.09412
  -0.49056  -1.19830  -0.09412
  -0.01056  -1.19830  -0.09412
  -0.49056  -1.19830  -0.57412
  -0.49056  -1.19830  -0.09412
  -0.01056  -0.71830   0.37588
  -0.49056  -1.19830  -0.57412
  -0.97056  -1.19830  -0.57412
  -0.01056  -0.71830  -0.09412
  -0.49056  -0.71830  -0.09412
  -0.49056  -1.19830  -0.57412
  -0.49056  -0.71830  -0.09412
  -0.01056  -0.23830  -0.09412
  -0.49056  -0.71830  -0.57412
  -0.49056  -0.23830  -0.57412
  -0.01056   0.24170  -0.09412
  -0.01056  -0.23830  -0.57412
  -0.49056  -0.23830  -0.57412
  -0.01056   0.24170  -0.09412
  -0.01056   0.24170  -0.57412
  -0.49056  -0.23830  -1.05412
  -0.01056   0.24170  -0.09412
   0.46944   0.72170  -0.09412
  -0.01056   0.24170  -0.57412
  -0.01056   0.24170  -0.57412
   0.46944   0.72170  -0.09412
  -0.01056   0.24170  -0.57412
  -0.01056   0.24170  -0.57412
   0.46944   0.72170  -0.09412
   0.46944   0.72170  -0.09412
  -0.01056   0.24170  -0.57412
   0.46944   0.72170  -0.09412
   0.94944   1.19170   0.37588
  -0.01056   0.24170  -0.09412
   0.46944   0.72170  -0.09412
   0.94944   1.19170   0.37588
   0.46944   0.72170  -0.09412
  -0.01056   0.72170  -0.09412
   0.46944   1.19170   0.37588
   0.46944   0.72170   0.37588
  -0.01056   0.24170  -0.57412
  -0.01056   1.19170   0.37588
  -0.01056   1.19170   0.37588
  -0.49056   0.24170  -0.09412
  -0.49056   0.72170   0.37588
  -0.01056   1.19170   0.85588
  -0.49056   0.72170   0.37588
  -0.97056   0.24170   0.37588
  -0.01056   0.72170   0.85588
  -0.49056   0.72170   0.85588
  -1.45056   0.24170   0.37588
  -0.97056   0.72170   0.85588
  -0.97056   0.72170   0.85588
  -1.45056   0.24170   0.85588
  -1.45056   0.72170   1.33588
  -0.97056   1.19170   1.81588
  -1.45056   0.72170   1.33588
  -1.45056   0.24170   1.33588
  -0.97056   1.19170   1.81588
  -1.45056   0.72170   1.81588
  -1.93056   0.24170   1.33588
  -1.45056   0.72170   1.81588
  -1.45056   0.72170   2.29588
  -1.93056   0.24170   1.81588
  -1.93056   0.72170   2.29588
  -1.45056   0.72170   2.29588
  -1.93056   0.24170   2.29588
  -1.93056   0.24170   2.29588
  -1.45056   0.72170   2.29588
  -1.93056   0.24170   2.29588
  -2.40056  -0.23830   2.29588
  -1.93056   0.24170   2.77588
  -1.45056   0.72170   2.77588
  -1.93056  -0.23830   2.29588
  -1.93056   0.24170   2.77588
  -1.45056   0.72170   2.77588
  -1.93056  -0.23830   2.77588
  -1.93056  -0.23830   2.77588
  -1.45056   0.72170   3.25588
  -1.45056   0.24170   2.77588
  -1.93056  -0.23830   2.29588
  -1.45056   0.24170   3.25588
  -0.97056   0.24170   2.77588
  -1.45056  -0.23830   2.77588
  -0.97056  -0.23830   2.77588
  -0.49056   0.24170   3.25588
  -0.97056  -0.23830   2.77588
  -0.97056  -0.23830   2.77588
  -0.49056   0.24170   3.25588
  -0.49056  -0.23830   2.77588
  -0.49056  -0.71830   2.77588
  -0.01056  -0.23830   3.25588
   0.46944  -0.23830   3.25588
  -0.01056  -0.71830   2.77588
   0.46944  -0.23830   2.77588
   0.94944  -0.23830   3.25588
   0.46944  -0.71830   2.77588
   0.46944  -0.71830   2.77588
   0.94944  -0.23830   3.25588
   0.94944  -0.23830   3.25588
   0.46944  -1.19830   2.77588
   0.94944  -0.23830   3.25588
   1.42944  -0.71830   3.25588
   0.94944  -0.71830   2.77588
   0.94944  -0.71830   3.25588
   1.90944  -0.23830   3.73588
   1.42944  -0.71830   3.25588
   1.42944  -0.71830   3.25588
   1.42944  -0.23830   3.73588
   1.42944  -0.71830   3.25588
   0.94944  -1.19830   2.77588
   1.42944  -0.71830   3.25588
   1.90944  -0.23830   3.73588
   1.42944  -1.19830   3.25588
   1.42944  -0.71830   3.25588
   1.90944  -0.23830   3.73588
   1.42944  -1.19830   3.25588
   1.42944  -1.19830   3.25588
   1.90944  -0.71830   3.73588
   1.90944  -0.71830   3.25588
   1.42944  -1.19830   3.25588
   1.90944  -0.71830   3.73588
   1.90944  -0.71830   3.73588
   0.94944  -1.19830   3.25588
   1.90944  -0.71830   3.25588
   2.38944  -0.71830   3.73588
   1.42944  -1.19830   3.25588
   1.42944  -1.19830   3.25588
   2.38944  -0.71830   3.73588
   1.90944  -1.19830   3.25588
   1.42944  -1.19830   2.77588
   2.38944  -0.71830   3.25588
   1.90944  -0.71830   3.25588
   1.42944  -1.19830   2.77588
   1.90944  -0.71830   2.77588
   2.38944  -0.23830   3.25588
   1.90944  -0.71830   2.77588
   1.90944  -0.71830   2.77588
   2.38944  -0.23830   2.77588
   2.38944  -0.23830   2.77588
   1.90944  -0.71830   2.29588
   2.38944  -0.23830   2.77588
   2.38944  -0.23830   2.29588
   1.90944  -0.23830   1.81588
   2.38944  -0.23830   2.29588
   2.85944   0.24170   2.29588
   2.38944  -0.23830   1.81588
   2.38944  -0.23830   1.81588
   2.85944   0.24170   2.29588
   2.85944   0.24170   1.81588
   2.38944  -0.23830   1.33588
   2.85944   0.24170   1.81588
   2.85944   0.72170   1.81588
   2.38944  -0.23830   1.33588
   2.85944   0.24170   1.81588
   3.33944   0.72170   1.81588
   2.85944   0.24170   1.33588
   2.85944   0.24170   1.33588
   3.33944   0.72170   1.81588
   3.33944   0.24170   1.33588
   2.85944   0.24170   0.85588
   3.33944   0.72170   1.33588
   3.33944   0.72170   1.33588
   2.85944   0.24170   0.85588
   2.85944   0.24170   0.85588
   3.33944   0.72170   1.33588
   2.85944   0.24170   0.85588
   2.85944   0.24170   0.85588
   3.33944   0.72170   1.33588
   2.85944   0.24170   0.85588
   2.38944  -0.23830   0.37588
   2.85944   0.72170   0.85588
   2.85944   0.24170   0.85588
   2.38944  -0.23830   0.37588
   2.38944   0.24170   0.85588
   2.85944   0.24170   0.85588
   1.90944  -0.23830   0.37588
   1.90944  -0.23830   0.37588
   2.38944   0.24170   0.85588
   1.90944  -0.23830   0.37588
   1.42944  -0.71830   0.37588
   1.90944   0.24170   0.85588
   1.90944  -0.23830   0.37588
   1.42944  -0.71830   0.37588
   1.42944  -0.23830   0.37588
   1.90944  -0.23830   0.85588
   0.94944  -0.71830  -0.09412
   0.94944  -0.71830   0.37588
   0.94944  -0.23830   0.37588
   0.94944  -0.71830   0.37588
  -0.01056  -1.19830  -0.09412
   0.46944  -0.71830   0.37588
   0.46944  -0.71830  -0.09412
  -0.01056  -1.19830  -0.57412
  -0.01056  -1.19830  -0.57412
   0.46944  -0.23830  -0.09412
  -0.49056  -1.19830  -0.57412
  -0.49056  -1.19830  -0.57412
  -0.01056  -0.71830  -0.57412
  -0.49056  -1.19830  -0.57412
  -0.97056  -1.19830  -1.05412
  -0.49056  -0.71830  -0.57412
  -0.49056  -0.71830  -1.05412
  -1.45056  -1.67830  -1.53412
  -0.97056  -1.19830  -1.53412
  -0.49056  -0.71830  -1.05412
  -1.45056  -1.19830  -1.53412
  -1.45056  -1.19830  -2.01412
  -0.97056  -0.71830  -1.53412
  -1.45056  -1.19830  -2.01412
  -1.93056  -1.19830  -2.01412
  -1.45056  -1.19830  -1.53412
  -1.45056  -0.71830  -2.01412
  -1.93056  -1.19830  -2.49412
  -1.93056  -0.71830  -2.49412
  -1.45056  -0.71830  -2.49412
  -1.93056  -1.19830  -2.97412
  -2.40056  -1.19830  -2.97412
  -1.93056  -0.23830  -2.49412
  -1.93056  -0.71830  -2.97412
  -2.40056  -1.19830  -3.45412
  -2.40056  -0.23830  -2.97412
  -2.40056  -0.23830  -2.97412
  -2.88056  -1.19830  -3.45412
  -2.88056  -0.71830  -3.45412
  -2.40056  -0.23830  -2.97412
  -2.88056  -0.71830  -3.45412
  -3.36056  -0.23830  -3.45412
  -2.88056   0.24170  -2.97412
  -3.36056  -0.23830  -3.45412
  -3.84056  -0.23830  -3.45412
  -3.36056   0.24170  -2.97412
  -3.36056   0.24170  -3.45412
  -3.84056  -0.23830  -3.45412
  -3.84056   0.24170  -3.45412
  -3.36056   0.72170  -2.97412
  -4.32056   0.24170  -3.45412
  -4.32056   0.24170  -3.45412
  -3.84056   0.72170  -2.97412
  -4.32056   0.72170  -2.97412
  -4.80056   0.24170  -3.45412
  -4.32056   0.72170  -2.49412
  -4.32056   1.19170  -2.97412
  -4.80056   0.72170  -3.45412
  -4.80056   0.72170  -2.97412
  -4.32056   1.19170  -2.49412
  -5.28056   0.72170  -2.97412
  -5.28056   0.72170  -2.97412
  -4.80056   1.67170  -2.49412
  -5.28056   1.19170  -2.49412
  -5.28056   0.72170  -2.49412
  -4.80056   1.67170  -2.01412
  -5.28056   1.67170  -2.49412
  -5.28056   1.19170  -2.49412
  -5.28056   1.67170  -2.01412
  -4.80056   1.67170  -2.01412
  -5.28056   1.67170  -2.49412
  -5.28056   1.67170  -2.49412
  -4.80056   2.15170  -1.53412
  -5.28056   1.67170  -2.01412
  -5.76056   1.19170  -2.49412
  -5.28056   2.15170  -2.01412
  -5.28056   1.67170  -2.01412
  -5.28056   1.19170  -2.49412
  -5.28056   1.67170  -2.01412
  -4.80056   2.15170  -1.53412
  -5.28056   1.67170  -2.49412
  -4.80056   1.67170  -2.01412
  -4.32056   2.15170  -1.53412
  -4.32056   1.67170  -2.01412
  -4.80056   1.19170  -2.49412
  -3.84056   1.67170  -2.01412
  -3.84056   1.67170  -1.53412
  -3.84056   1.19170  -2.49412
  -3.36056   1.19170  -2.01412
  -2.88056   1.67170  -1.53412
  -3.36056   1.19170  -2.01412
  -2.88056   1.19170  -2.01412
  -2.40056   1.67170  -1.53412
  -2.40056   0.72170  -2.01412
  -2.40056   0.72170  -2.01412
  -1.45056   1.19170  -1.53412
  -1.45056   0.72170  -2.01412
  -1.45056   0.24170  -2.01412
  -0.97056   0.72170  -2.01412
  -0.49056   1.19170  -1.53412
  -0.49056   0.24170  -2.49412
  -0.49056   0.24170  -2.01412
   0.46944   0.72170  -1.53412
   0.46944   0.24170  -2.01412
   0.46944  -0.23830  -2.49412
   0.94944   0.24170  -2.01412
   0.94944  -0.23830  -2.01412
   0.94944  -0.71830  -2.49412
   1.42944  -0.23830  -2.01412
   2.38944   0.24170  -2.01412
   1.90944  -1.19830  -2.49412
   2.38944  -0.71830  -2.49412
   2.85944  -0.23830  -2.01412
   2.38944  -0.71830  -2.49412
   2.38944  -1.19830  -2.49412
   2.85944  -0.71830  -2.01412
   2.85944  -0.71830  -2.49412
   2.85944  -1.19830  -2.49412
   2.85944  -1.19830  -2.49412
   3.33944  -1.19830  -2.01412
   2.85944  -1.67830  -2.49412
   3.33944  -1.19830  -2.49412
   3.81944  -0.71830  -2.01412
   3.33944  -1.19830  -2.49412
   2.85944  -1.67830  -2.49412
   3.81944  -1.19830  -2.01412
   3.81944  -1.19830  -2.49412
   2.85944  -1.67830  -2.97412
   3.33944  -1.67830  -2.49412
   3.81944  -1.19830  -2.49412
   2.85944  -1.67830  -2.97412
   2.85944  -1.19830  -2.49412
   3.33944  -1.19830  -2.49412
   2.85944  -1.19830  -2.97412
   2.85944  -1.67830  -2.97412
   3.33944  -1.19830  -2.49412
   3.33944  -1.19830  -2.49412
   2.38944  -1.67830  -2.97412
   2.85944  -1.19830  -2.49412
   2.85944  -0.71830  -2.49412
   2.38944  -1.19830  -2.97412
   2.38944  -1.19830  -2.97412
   2.85944  -0.71830  -2.01412
   2.38944  -1.19830  -2.49412
   1.90944  -1.19830  -2.97412
   2.38944  -0.71830  -2.49412
   1.42944  -0.71830  -2.49412
   1.42944  -1.19830  -2.97412
   1.42944  -0.71830  -2.49412
   1.90944  -0.71830  -2.01412
   1.42944  -1.19830  -2.49412
   0.94944  -0.71830  -2.49412
   1.90944  -0.23830  -2.01412
   0.94944  -0.71830  -2.49412
   0.94944  -0.71830  -2.49412
   1.42944  -0.23830  -2.01412
   0.94944  -0.23830  -2.01412
   0.46944  -0.71830  -2.49412
   0.94944  -0.23830  -1.53412
   1.42944  -0.23830  -1.53412
   0.46944  -0.71830  -2.01412
   0.46944  -0.23830  -2.01412
   0.94944   0.24170  -1.05412
   0.94944  -0.23830  -1.53412
   0.46944  -0.71830  -1.53412
   0.94944   0.24170  -1.05412
   0.94944   0.24170  -1.05412
   0.46944  -0.71830  -1.05412
   0.94944   0.24170  -1.05412
   0.94944   0.24170  -0.09412
   0.46944  -0.23830  -0.57412
   0.46944  -0.23830  -0.57412
   0.94944   0.72170  -0.09412
   0.46944   0.24170  -0.09412
  -0.01056   0.24170  -0.09412
   0.94944   0.72170   0.37588
   0.46944   0.72170   0.37588
  -0.01056  -0.23830   0.37588
   0.46944   0.72170   0.85588
   0.94944   0.72170   0.85588
   0.46944   0.24170   0.37588
  -0.01056   0.24170   0.85588
   0.94944   0.72170   1.33588
  -0.01056   0.24170   0.85588
  -0.01056   0.24170   0.85588
   0.46944   0.72170   1.81588
   0.46944   0.72170   1.33588
  -0.49056   0.24170   0.85588
  -0.01056   0.72170   1.81588
   0.46944   0.72170   1.81588
  -0.49056   0.72170   1.33588
  -0.49056   0.72170   1.81588
   0.46944   1.19170   2.29588
  -0.49056   0.72170   1.81588
  -0.49056   0.72170   1.33588
  -0.01056   1.19170   2.29588
  -0.49056   1.19170   1.81588
  -0.97056   0.72170   1.33588
  -0.49056   1.67170   2.29588
  -0.49056   1.67170   1.81588
  -0.97056   1.19170   1.33588
  -0.97056   1.19170   1.81588
  -0.49056   2.15170   2.29588
  -0.49056   1.67170   1.81588
  -0.97056   1.67170   1.33588
  -0.49056   2.15170   1.81588
  -0.49056   2.15170   2.29588
  -0.97056   1.67170   1.33588
  -0.97056   1.67170   1.81588
  -0.49056   2.15170   1.81588
  -0.97056   1.67170   1.81588
  -0.97056   1.67170   1.81588
  -0.49056   2.15170   2.29588
  -0.97056   1.67170   1.81588
  -0.97056   1.67170   1.33588
  -0.49056   2.15170   2.29588
  -0.49056   1.67170   2.29588
  -0.97056   1.19170   1.81588
  -0.49056   2.15170   2.29588
  -0.49056   2.15170   2.29588
  -0.97056   1.67170   1.81588
  -0.49056   1.67170   2.29588
  -0.01056   2.15170   2.77588
  -0.49056   1.67170   2.29588
  -0.49056   0.72170   2.29588
