********************************************************************************
               CENTRO DE INSTRUMENTACION Y REGISTRO SISMICO  A.C.  
                       Coordinacion de Servicios Tecnicos
     Anaxagoras 814, Col. Narvarte, Benito Juarez, C.P. 03020 Mexico, D.F.
            Tels. 667 45 42/ 687 45  82             Fax. 669 25 12
********************************************************************************
ARCHIVO ESTANDAR DE ACELERACION:
VERSION DEL FORMATO                    : 2.0
NOMBRE DEL ARCHIVO                     : AL019807.171
FECHA Y HORA DE CREACION               : 31/ENERO/2000, 10:10
REF. CATALOGO ACELEROGRAMAS, SMIS 1996 : REGISTRO No.     /PAG.


================================================================================
DATOS DE LA ESTACION:
NOMBRE DE LA ESTACION                  : ALAMEDA
CLAVE DE LA ESTACION                   : AL01
LOCALIZACION DE LA ESTACION            : JARDIN ALAMEDA ENTRE AV. HIDALGO Y AV.
                                       : JUAREZ, CENTRO
                                       :
                                       :
                                       :
COORDENADAS DE LA ESTACION             : 19.436 LAT. N 
                                       : 99.145 LONG. W 
ALTITUD (msnm)                         : 2232
TIPO DE SUELO                          : TERRENO BLANDO, MATERIAL COMPRESIBLE
                                       : (ARCILLAS)
                                       : 
INSTITUCION RESPONSABLE                : CIRES 
                                       :

================================================================================
DATOS DEL ACELEROGRAFO:
MODELO DEL ACELEROGRAFO                : SSA-1
NUMERO DE SERIE DEL ACELEROGRAFO       : 152
NUMERO DE CANALES                      : 3
ORIENTACION C1-C6 (rumbo;orientacion)  : /N00E/+V/N90E
ORIENTACION C7-C12 (rumbo;orientacion) :
VEL. DE MUESTREO, C1-C6 (muestras/s)   : /200/200/200
VEL. DE MUESTREO, C7-C12 (muestras/s)  :
ESC. COMPLETA DE SENSORES, C1-C6, (g)  : /2/2/2
ESC. COMPLETA DE SENSORES, C7-C12, (g) :
FREC. NAT. DE SENSORES, C1-C6, (Hz)    : /51.29/51.09/53.75
FREC. NAT. DE SENSORES, C7-C12, (Hz)   :
AMORTIGUAMIENTO DE SENSORES, C1-C6     : /.5519/.5670/.5810
AMORTIGUAMIENTO DE SENSORES, C7-C12    :
INTERVALO DE MUESTREO, C1-C6, (s)      : /0.005/0.005/0.005
INTERVALO DE MUESTREO, C7-C12, (s)     :
UMBRAL DE DISPARO, C1-C6, (Gal)        : /2/1.5/2
UMBRAL DE DISPARO, C7-C12, (Gal)       :
MEMORIA DE PREEVENTO (s)               : 15
TIEMPO DE POSEVENTO (s)                : 60


================================================================================
DATOS DEL SISMO:
FECHA DEL SISMO (GMT)                  : 17/JUL/98
HORA EPICENTRO (GMT)                   : 11:18:04.0
MAGNITUD(ES)                           : /Mc=4.6
COORDENADAS DEL EPICENTRO              : 16.98 LAT. N
                                       : 100.16 LONG. W
PROFUNDIDAD FOCAL (km)                 : 27
FUENTE DE LOS DATOS EPICENTRALES       : SSN
                                       : INSTITUTO DE GEOFISICA, UNAM 

================================================================================
DATOS DE ESTE REGISTRO:
HORA DE LA PRIMERA MUESTRA (GMT)       : 11:19:26.00
EXACTITUD DEL TIEMPO (s)               :     
DURACION DEL REGISTRO (s), C1-C6       : /84.48/84.48/84.48
DURACION DEL REGISTRO (s), C7-C12      :
NUM. TOTAL DE MUESTRAS, C1-C6          : /16896/16896/16896
NUM. TOTAL DE MUESTRAS, C7-C12         :
ACEL. MAX. (Gal), C1-C6                : /2.55000/1.39401/2.39791
ACEL. MAX., C1-C6, EN LA MUESTRA       :
ACEL. MAX. (Gal), C7-C12               :
ACEL. MAX., C7-C12, EN LA MUESTRA      :
UNIDADES DE LOS DATOS                  : Gal (cm/s/s)
FACTOR DE DECIMACION                   : 1
FORMATO DATOS (FORTRAN,10 campos/dato) : 3F10.5


================================================================================
CALIDAD DEL ACELEROGRAMA:
REGISTRO DIGITAL COMPLETO, CARECE DE TIEMPO ABSOLUTO.


================================================================================
COMENTARIOS:














================================================================================
DATOS DE ACELERACION:
---------+---------+---------+---------+---------+---------+---------+---------+
   CANAL-1   CANAL-2   CANAL-3   CANAL-4   CANAL-5   CANAL-6   CANAL-7   CANAL-8
      N00E        +V      N90E
---------+---------+---------+---------+---------+---------+---------+---------+
[...]
   0.16000  -0.04599  -0.47209
   0.40000   0.19401  -0.47209
   0.40000  -0.04599  -0.47209
   0.40000  -0.04599  -0.47209
   0.40000  -0.04599  -0.47209
   0.40000  -0.04599  -0.47209
   0.40000  -0.04599  -0.47209
   0.40000  -0.04599  -0.47209
   0.40000  -0.04599  -0.47209
   0.40000  -0.04599  -0.47209
   0.40000  -0.04599  -0.47209
   0.40000  -0.04599  -0.47209
   0.40000  -0.28599  -0.47209
   0.40000  -0.04599  -0.47209
   0.40000  -0.04599  -0.47209
   0.40000  -0.04599  -0.47209
   0.16000  -0.04599  -0.47209
   0.16000  -0.04599  -0.47209
   0.16000  -0.04599  -0.47209
  -0.08000  -0.04599  -0.23209
  -0.08000  -0.04599  -0.23209
  -0.08000  -0.04599  -0.23209
  -0.08000  -0.04599  -0.23209
  -0.08000  -0.04599  -0.23209
  -0.08000  -0.04599  -0.23209
  -0.08000  -0.04599   0.00791
  -0.08000  -0.04599  -0.23209
  -0.32000  -0.04599   0.00791
  -0.32000  -0.04599   0.00791
  -0.32000  -0.04599   0.00791
  -0.32000  -0.04599   0.00791
  -0.32000  -0.04599   0.00791
  -0.32000  -0.04599   0.00791
  -0.56000  -0.04599   0.00791
  -0.56000  -0.04599   0.24791
  -0.56000  -0.04599   0.24791
  -0.56000  -0.04599   0.24791
  -0.56000  -0.04599   0.24791
  -0.56000  -0.04599   0.24791
  -0.56000  -0.04599   0.24791
  -0.56000  -0.04599   0.24791
  -0.56000  -0.04599   0.24791
  -0.56000  -0.04599   0.24791
  -0.56000  -0.04599   0.24791
  -0.56000  -0.04599   0.24791
  -0.56000   0.19401   0.24791
  -0.56000  -0.04599   0.24791
  -0.56000  -0.04599   0.24791
  -0.56000  -0.04599   0.24791
  -0.56000  -0.04599   0.24791
  -0.32000  -0.04599   0.24791
  -0.32000  -0.28599   0.24791
  -0.56000  -0.04599   0.24791
  -0.32000  -0.04599   0.24791
  -0.32000  -0.04599   0.00791
  -0.32000  -0.04599   0.24791
  -0.08000  -0.04599   0.00791
  -0.08000  -0.04599   0.00791
  -0.08000  -0.04599   0.00791
  -0.08000  -0.04599  -0.23209
  -0.08000  -0.04599  -0.23209
  -0.08000  -0.04599  -0.23209
   0.16000  -0.04599  -0.23209
   0.16000  -0.04599  -0.23209
   0.16000  -0.04599  -0.23209
   0.16000  -0.04599  -0.23209
   0.40000  -0.04599  -0.47209
   0.16000  -0.04599  -0.47209
   0.40000  -0.04599  -0.47209
   0.40000  -0.04599  -0.71209
   0.40000  -0.04599  -0.71209
   0.64000  -0.04599  -0.71209
   0.64000  -0.04599  -0.71209
   0.40000  -0.04599  -0.71209
   0.40000  -0.04599  -0.71209
   0.40000  -0.04599  -0.71209
   0.40000  -0.04599  -0.71209
   0.40000   0.19401  -0.71209
   0.40000  -0.04599  -0.71209
   0.40000  -0.04599  -0.71209
   0.40000  -0.04599  -0.71209
   0.40000  -0.04599  -0.95209
   0.40000  -0.04599  -0.95209
   0.40000  -0.04599  -0.95209
   0.40000  -0.04599  -0.95209
   0.40000  -0.04599  -0.71209
   0.40000  -0.04599  -0.71209
   0.40000  -0.28599  -0.71209
   0.16000  -0.28599  -0.47209
   0.16000  -0.28599  -0.71209
   0.16000  -0.28599  -0.71209
   0.16000  -0.28599  -0.71209
   0.16000  -0.04599  -0.71209
   0.16000  -0.28599  -0.71209
   0.16000  -0.28599  -0.71209
   0.16000  -0.28599  -0.47209
  -0.08000  -0.04599  -0.47209
  -0.08000  -0.04599  -0.47209
  -0.08000  -0.04599  -0.47209
  -0.32000  -0.04599  -0.23209
  -0.32000   0.19401  -0.23209
  -0.32000   0.19401  -0.23209
  -0.08000   0.19401  -0.23209
  -0.08000   0.19401  -0.23209
  -0.08000   0.19401   0.00791
  -0.08000   0.19401   0.00791
  -0.08000   0.19401  -0.23209
  -0.08000   0.19401   0.24791
  -0.08000   0.19401   0.24791
  -0.08000   0.19401   0.24791
  -0.08000   0.19401   0.24791
  -0.08000   0.19401   0.24791
  -0.08000   0.19401   0.24791
  -0.08000   0.19401   0.47791
  -0.08000   0.19401   0.47791
  -0.08000   0.19401   0.47791
  -0.08000   0.19401   0.47791
   0.16000  -0.04599   0.47791
   0.16000   0.19401   0.71791
   0.16000   0.19401   0.71791
   0.16000   0.19401   0.71791
   0.16000  -0.04599   0.71791
   0.16000  -0.04599   0.71791
   0.16000  -0.04599   0.71791
   0.16000  -0.04599   0.71791
   0.40000  -0.04599   0.71791
   0.40000  -0.04599   0.71791
   0.16000  -0.04599   0.71791
   0.40000  -0.04599   0.95791
   0.40000  -0.04599   0.95791
   0.40000  -0.04599   0.95791
   0.40000  -0.04599   0.95791
   0.40000  -0.04599   0.95791
   0.40000  -0.04599   0.95791
   0.40000  -0.04599   0.95791
   0.40000  -0.04599   0.95791
   0.40000  -0.04599   0.95791
   0.40000  -0.04599   0.95791
   0.16000  -0.04599   0.95791
  -0.08000  -0.04599   0.95791
   0.16000  -0.04599   0.95791
   0.16000  -0.04599   0.95791
   0.16000  -0.04599   0.95791
  -0.08000  -0.04599   0.95791
  -0.08000  -0.04599   0.95791
  -0.08000  -0.04599   0.95791
  -0.32000  -0.04599   0.95791
  -0.32000   0.19401   1.19791
  -0.32000   0.19401   0.95791
  -0.08000   0.19401   0.95791
  -0.08000   0.19401   0.95791
  -0.08000  -0.04599   0.95791
  -0.32000  -0.04599   0.95791
  -0.56000  -0.04599   0.95791
  -0.56000   0.19401   0.95791
  -0.56000   0.19401   0.95791
  -0.56000   0.19401   1.19791
  -0.80000   0.19401   0.95791
  -0.80000   0.19401   0.95791
  -0.80000   0.19401   0.95791
  -0.80000   0.19401   0.95791
  -0.80000   0.19401   0.71791
  -0.80000   0.43401   0.71791
  -1.04000   0.43401   0.71791
  -0.80000   0.19401   0.71791
  -0.80000   0.19401   0.71791
  -0.80000   0.19401   0.71791
  -0.80000   0.43401   0.71791
  -1.04000   0.43401   0.71791
  -0.80000   0.43401   0.71791
  -0.80000   0.43401   0.47791
  -0.80000   0.43401   0.47791
  -0.80000   0.43401   0.47791
  -0.80000   0.43401   0.47791
  -0.80000   0.43401   0.71791
  -0.80000   0.43401   0.47791
  -0.56000   0.43401   0.47791
  -0.56000   0.43401   0.47791
  -0.56000   0.43401   0.24791
  -0.56000   0.43401   0.24791
  -0.56000   0.43401   0.24791
  -0.56000   0.43401   0.24791
  -0.56000   0.43401   0.24791
  -0.56000   0.43401   0.24791
  -0.32000   0.43401   0.24791
  -0.32000   0.19401   0.24791
  -0.32000   0.19401   0.00791
  -0.32000   0.19401   0.00791
  -0.32000   0.19401   0.00791
  -0.32000   0.19401   0.00791
  -0.08000   0.19401   0.00791
  -0.32000   0.19401   0.00791
  -0.32000   0.19401   0.00791
  -0.08000   0.19401   0.00791
  -0.08000   0.19401   0.00791
  -0.08000   0.19401  -0.23209
  -0.08000   0.19401  -0.23209
  -0.32000  -0.04599  -0.23209
  -0.08000  -0.04599  -0.23209
  -0.08000  -0.04599   0.00791
  -0.08000  -0.04599   0.00791
  -0.08000  -0.04599   0.00791
  -0.08000  -0.04599  -0.23209
  -0.08000  -0.28599  -0.23209
  -0.08000  -0.28599  -0.23209
  -0.08000  -0.28599  -0.23209
  -0.08000  -0.28599  -0.23209
  -0.08000  -0.28599  -0.23209
  -0.08000  -0.28599  -0.23209
  -0.08000  -0.28599  -0.23209
  -0.08000  -0.28599  -0.23209
  -0.32000  -0.28599  -0.23209
  -0.32000  -0.52599  -0.23209
  -0.32000  -0.52599  -0.23209
  -0.32000  -0.52599  -0.23209
  -0.32000  -0.52599  -0.23209
  -0.32000  -0.52599  -0.23209
  -0.32000  -0.52599  -0.23209
  -0.32000  -0.52599   0.00791
  -0.32000  -0.52599   0.00791
  -0.32000  -0.52599   0.00791
  -0.32000  -0.52599   0.00791
  -0.32000  -0.52599   0.24791
  -0.32000  -0.52599   0.24791
  -0.32000  -0.52599   0.24791
  -0.32000  -0.52599   0.24791
  -0.32000  -0.28599   0.24791
  -0.32000  -0.52599   0.24791
  -0.08000  -0.28599   0.47791
  -0.08000  -0.28599   0.47791
  -0.08000  -0.28599   0.47791
  -0.08000  -0.28599   0.47791
  -0.08000  -0.28599   0.47791
  -0.08000  -0.28599   0.71791
  -0.08000  -0.28599   0.47791
  -0.08000  -0.28599   0.47791
  -0.08000  -0.28599   0.71791
  -0.08000  -0.28599   0.71791
  -0.32000  -0.28599   0.71791
   0.16000  -0.28599   0.47791
   0.16000  -0.28599   0.71791
   0.16000  -0.28599   0.71791
   0.40000  -0.28599   0.71791
   0.40000  -0.28599   0.71791
   0.40000  -0.28599   0.71791
   0.40000  -0.28599   0.71791
   0.40000  -0.28599   0.71791
   0.40000  -0.28599   0.71791
   0.40000  -0.28599   0.71791
   0.64000  -0.28599   0.71791
   0.64000  -0.52599   0.71791
   0.64000  -0.52599   0.71791
   0.64000  -0.52599   0.71791
   0.64000  -0.52599   0.71791
   0.64000  -0.52599   0.71791
   0.64000  -0.52599   0.71791
   0.64000  -0.52599   0.47791
   0.64000  -0.52599   0.47791
   0.64000  -0.52599   0.47791
   0.40000  -0.52599   0.47791
   0.40000  -0.52599   0.71791
   0.40000  -0.28599   0.47791
   0.16000  -0.28599   0.47791
   0.40000  -0.28599   0.47791
   0.40000  -0.28599   0.47791
   0.16000  -0.28599   0.47791
   0.16000  -0.28599   0.47791
   0.16000  -0.28599   0.47791
   0.16000  -0.28599   0.47791
   0.16000  -0.28599   0.24791
  -0.08000  -0.28599   0.24791
  -0.08000  -0.04599   0.47791
  -0.32000  -0.04599   0.47791
  -0.32000  -0.04599   0.24791
  -0.56000  -0.04599   0.47791
  -0.56000  -0.04599   0.47791
  -0.56000  -0.04599   0.47791
  -0.56000   0.19401   0.47791
  -0.80000  -0.04599   0.47791
  -1.04000   0.19401   0.24791
  -1.04000   0.19401   0.24791
  -1.04000   0.19401   0.24791
  -1.04000  -0.04599   0.24791
  -1.04000   0.19401   0.24791
  -1.28000  -0.04599   0.24791
  -1.28000   0.19401   0.24791
  -1.52000  -0.04599   0.24791
  -1.52000   0.19401   0.24791
  -1.76000   0.19401   0.24791
  -1.76000   0.19401   0.24791
  -1.76000   0.19401   0.24791
  -1.76000   0.19401   0.00791
  -1.76000   0.43401   0.24791
  -1.76000   0.43401   0.24791
  -1.76000   0.43401   0.00791
  -1.76000   0.43401   0.00791
  -1.76000   0.43401   0.00791
  -2.00000   0.43401   0.00791
  -2.00000   0.67401   0.00791
  -2.00000   0.67401   0.00791
  -1.76000   0.67401   0.00791
  -1.76000   0.67401  -0.23209
  -1.76000   0.43401  -0.23209
  -1.76000   0.43401  -0.23209
  -1.52000   0.43401  -0.23209
  -1.52000   0.43401  -0.23209
  -1.52000   0.43401  -0.23209
  -1.28000   0.43401  -0.23209
  -1.28000   0.43401  -0.23209
  -1.04000   0.43401  -0.23209
  -1.04000   0.43401  -0.47209
  -1.04000   0.43401  -0.47209
  -1.04000   0.43401  -0.71209
  -1.04000   0.43401  -0.71209
  -0.80000   0.43401  -0.71209
  -0.56000   0.43401  -0.71209
  -0.32000   0.43401  -0.71209
  -0.32000   0.43401  -0.95209
  -0.08000   0.43401  -0.95209
  -0.08000   0.43401  -1.19209
   0.16000   0.43401  -1.19209
   0.16000   0.43401  -1.19209
   0.40000   0.19401  -1.43209
   0.40000   0.19401  -1.19209
   0.64000   0.19401  -1.43209
   0.88000   0.19401  -1.43209
   0.88000   0.19401  -1.67209
   1.12000   0.19401  -1.67209
   1.12000   0.19401  -1.67209
   1.12000  -0.04599  -1.67209
   1.12000   0.19401  -1.67209
   1.36000  -0.04599  -1.91209
   1.60000  -0.04599  -1.91209
   1.60000  -0.04599  -1.91209
   1.83000  -0.04599  -1.91209
   1.83000  -0.04599  -2.15209
   1.83000  -0.04599  -1.91209
   1.83000  -0.04599  -1.91209
   2.07000  -0.04599  -1.91209
   2.07000  -0.04599  -1.91209
   2.07000  -0.04599  -1.91209
   2.31000  -0.04599  -1.91209
   2.31000  -0.28599  -1.91209
   2.31000  -0.28599  -1.91209
   2.31000  -0.28599  -1.91209
   2.31000  -0.28599  -1.91209
   2.31000  -0.28599  -1.91209
   2.31000  -0.28599  -1.67209
   2.31000  -0.28599  -1.67209
   2.55000  -0.52599  -1.67209
   2.55000  -0.52599  -1.43209
   2.55000  -0.52599  -1.43209
   2.55000  -0.52599  -1.43209
   2.55000  -0.52599  -1.43209
   2.55000  -0.52599  -1.19209
   2.55000  -0.52599  -1.19209
   2.55000  -0.52599  -0.95209
   2.55000  -0.28599  -0.95209
   2.55000  -0.28599  -0.95209
   2.55000  -0.28599  -0.71209
   2.55000  -0.28599  -0.71209
   2.55000  -0.28599  -0.71209
   2.55000  -0.28599  -0.47209
   2.55000  -0.28599  -0.47209
   2.55000  -0.28599  -0.23209
   2.55000  -0.04599  -0.23209
   2.31000  -0.04599  -0.23209
   2.31000  -0.04599   0.00791
   2.31000  -0.04599   0.00791
   2.31000  -0.04599   0.00791
   2.31000  -0.04599   0.00791
   2.31000  -0.04599   0.00791
   2.31000  -0.04599   0.00791
   2.07000  -0.04599   0.24791
   2.07000  -0.04599   0.24791
   2.07000  -0.04599   0.24791
   2.07000  -0.04599   0.24791
   1.83000  -0.04599   0.24791
   1.83000  -0.04599   0.24791
   1.83000  -0.04599   0.24791
   1.83000  -0.04599   0.24791
   1.83000  -0.04599   0.24791
   1.83000  -0.04599   0.00791
   1.60000  -0.04599   0.00791
   1.60000  -0.04599   0.00791
   1.36000  -0.04599   0.00791
   1.36000  -0.04599   0.00791
   1.12000  -0.04599   0.00791
   1.12000  -0.04599  -0.23209
   1.12000  -0.04599  -0.23209
   1.12000  -0.04599  -0.23209
   1.12000  -0.04599  -0.47209
   0.88000  -0.04599  -0.47209
   0.88000  -0.04599  -0.71209
   0.64000  -0.04599  -0.71209
   0.88000  -0.04599  -0.71209
   0.64000  -0.04599  -0.71209
   0.40000  -0.04599  -0.71209
   0.40000  -0.04599  -0.71209
   0.40000  -0.04599  -0.95209
   0.40000  -0.04599  -0.95209
   0.40000  -0.04599  -1.19209
   0.16000  -0.04599  -1.19209
   0.16000  -0.04599  -1.19209
  -0.08000  -0.04599  -1.19209
  -0.08000  -0.04599  -1.19209
  -0.08000  -0.04599  -1.19209
  -0.32000  -0.04599  -1.19209
  -0.32000  -0.04599  -1.19209
  -0.56000   0.19401  -1.19209
  -0.56000   0.19401  -1.19209
  -0.80000   0.19401  -1.19209
  -0.80000   0.19401  -1.19209
  -0.80000   0.19401  -1.19209
  -0.80000   0.19401  -0.95209
  -1.04000   0.43401  -0.95209
  -1.04000   0.43401  -0.95209
  -1.04000   0.43401  -0.71209
  -1.04000   0.67401  -0.71209
  -1.04000   0.67401  -0.71209
  -1.04000   0.43401  -0.47209
  -1.04000   0.43401  -0.47209
  -1.28000   0.67401  -0.23209
  -1.28000   0.67401  -0.23209
  -1.28000   0.67401  -0.23209
  -1.28000   0.67401   0.00791
  -1.52000   0.67401   0.00791
  -1.52000   0.67401   0.24791
  -1.76000   0.67401   0.24791
  -1.76000   0.91401   0.47791
  -1.76000   0.91401   0.47791
  -1.76000   0.91401   0.47791
  -1.52000   0.91401   0.47791
  -1.52000   0.91401   0.47791
  -1.52000   0.91401   0.47791
  -1.76000   0.91401   0.71791
  -1.76000   0.91401   0.71791
  -1.76000   0.91401   0.95791
  -1.76000   0.91401   0.95791
  -1.76000   0.91401   1.19791
  -1.76000   0.91401   1.19791
  -1.52000   0.91401   1.19791
  -1.52000   0.67401   1.19791
  -1.28000   0.67401   1.19791
  -1.52000   0.67401   0.95791
  -1.52000   0.67401   0.95791
  -1.52000   0.43401   1.19791
  -1.28000   0.43401   1.19791
  -1.04000   0.43401   1.19791
  -1.04000   0.19401   1.19791
  -1.04000   0.19401   1.19791
  -1.04000   0.19401   1.19791
  -1.04000  -0.04599   1.19791
  -1.04000  -0.04599   0.95791
  -1.04000  -0.04599   1.19791
  -1.04000  -0.04599   0.95791
  -0.80000  -0.28599   0.95791
  -0.80000  -0.28599   0.95791
  -0.80000  -0.28599   0.95791
  -0.80000  -0.52599   0.95791
  -0.80000  -0.52599   0.95791
  -0.56000  -0.52599   0.95791
  -0.56000  -0.52599   0.71791
  -0.56000  -0.52599   0.71791
  -0.32000  -0.76599   0.71791
  -0.32000  -0.76599   0.95791
  -0.32000  -0.76599   0.95791
  -0.32000  -0.76599   0.95791
  -0.32000  -0.76599   0.95791
  -0.08000  -0.76599   0.71791
  -0.08000  -1.00599   0.71791
  -0.08000  -1.00599   0.71791
  -0.08000  -1.00599   0.71791
  -0.08000  -1.00599   0.71791
  -0.08000  -1.00599   0.71791
   0.16000  -1.00599   0.71791
   0.16000  -0.76599   0.71791
   0.16000  -0.76599   0.95791
   0.16000  -0.76599   0.71791
  -0.08000  -0.76599   0.95791
   0.16000  -0.76599   0.95791
  -0.08000  -0.76599   0.95791
   0.16000  -0.52599   0.95791
  -0.08000  -0.76599   0.95791
  -0.08000  -0.52599   0.71791
  -0.08000  -0.52599   0.95791
  -0.08000  -0.52599   0.95791
  -0.08000  -0.52599   0.95791
  -0.08000  -0.52599   0.95791
  -0.08000  -0.52599   0.95791
  -0.08000  -0.52599   0.95791
  -0.08000  -0.52599   0.95791
  -0.08000  -0.28599   0.71791
  -0.08000  -0.28599   0.71791
  -0.08000  -0.28599   0.71791
  -0.08000  -0.28599   0.71791
  -0.08000  -0.28599   0.71791
  -0.32000  -0.28599   0.71791
  -0.32000  -0.04599   0.71791
  -0.32000  -0.04599   0.71791
