********************************************************************************
               CENTRO DE INSTRUMENTACION Y REGISTRO SISMICO  A.C.  
                       Coordinacion de Servicios Tecnicos
     Anaxagoras 814, Col. Narvarte, Benito Juarez, C.P. 03020 Mexico, D.F.
            Tels. 667 45 42/ 687 45  82             Fax. 669 25 12
********************************************************************************
ARCHIVO ESTANDAR DE ACELERACION:
VERSION DEL FORMATO                    : 2.0
NOMBRE DEL ARCHIVO                     : AL019603.271
FECHA Y HORA DE CREACION               : 27/MAR/98, 3:55
REF. CATALOGO ACELEROGRAMAS, SMIS 1996 : REGISTRO No.     /PAG.


================================================================================
DATOS DE LA ESTACION:
NOMBRE DE LA ESTACION                  : ALAMEDA
CLAVE DE LA ESTACION                   : AL01
LOCALIZACION DE LA ESTACION            : JARDIN ALAMEDA ENTRE AV. HIDALGO Y AV.
                                       : JUAREZ, CENTRO
                                       :
                                       :
                                       :
COORDENADAS DE LA ESTACION             : 19.436 LAT. N 
                                       : 99.145 LONG. W 
ALTITUD (msnm)                         : 2232
TIPO DE SUELO                          : TERRENO BLANDO, MATERIAL COMPRESIBLE
                                       : (ARCILLAS)
                                       : 
INSTITUCION RESPONSABLE                : CIRES 
                                       :

================================================================================
DATOS DEL ACELEROGRAFO:
MODELO DEL ACELEROGRAFO                : SSA-1
NUMERO DE SERIE DEL ACELEROGRAFO       : 152
NUMERO DE CANALES                      : 3
ORIENTACION C1-C6 (rumbo;orientacion)  : /N00E/+V/N90E
ORIENTACION C7-C12 (rumbo;orientacion) :
VEL. DE MUESTREO, C1-C6 (muestras/s)   : /200/200/200
VEL. DE MUESTREO, C7-C12 (muestras/s)  :
ESC. COMPLETA DE SENSORES, C1-C6, (g)  : /2/2/2
ESC. COMPLETA DE SENSORES, C7-C12, (g) :
FREC. NAT. DE SENSORES, C1-C6, (Hz)    : /51.29/51.09/53.75
FREC. NAT. DE SENSORES, C7-C12, (Hz)   :
AMORTIGUAMIENTO DE SENSORES, C1-C6     : /0.5519/0.5670/0.5810
AMORTIGUAMIENTO DE SENSORES, C7-C12    :
INTERVALO DE MUESTREO, C1-C6, (s)      : /0.005/0.005/0.005
INTERVALO DE MUESTREO, C7-C12, (s)     : 
UMBRAL DE DISPARO, C1-C6, (Gal)        : /2/1.5/2
UMBRAL DE DISPARO, C7-C12, (Gal)       :
MEMORIA DE PREEVENTO (s)               : 15
TIEMPO DE POSEVENTO (s)                : 60


================================================================================
DATOS DEL SISMO:
FECHA DEL SISMO (GMT)                  : 27/MAR/96
HORA EPICENTRO (GMT)                   : 12:34:48,2
MAGNITUD(ES)                           : /Mb=5.5/Ms=4.9/Mc=4.6
COORDENADAS DEL EPICENTRO              : 16.210 LAT. N
                                       : 98.250 LONG. W
PROFUNDIDAD FOCAL (km)                 : 7
FUENTE DE LOS DATOS EPICENTRALES       : SSN
                                       : INSTITUTO DE GEOFISICA, UNAM

================================================================================
DATOS DE ESTE REGISTRO:
HORA DE LA PRIMERA MUESTRA (GMT)       : 12:36:29.00
EXACTITUD DEL TIEMPO (s)               :     
DURACION DEL REGISTRO (s), C1-C6       : /101.12/101.12/101.12
DURACION DEL REGISTRO (s), C7-C12      :
NUM. TOTAL DE MUESTRAS, C1-C6          : /20224/20224/20224
NUM. TOTAL DE MUESTRAS, C7-C12         :
ACEL. MAX. (Gal), C1-C6                : /2.83546/1.71921/4.81651
ACEL. MAX., C1-C6, EN LA MUESTRA       :
ACEL. MAX. (Gal), C7-C12               :
ACEL. MAX., C7-C12, EN LA MUESTRA      :
UNIDADES DE LOS DATOS                  : Gal (cm/s/s)
FACTOR DE DECIMACION                   : 1
FORMATO DATOS (FORTRAN,10 campos/dato) : 3F10.5


================================================================================
CALIDAD DEL ACELEROGRAMA:
REGISTRO DIGITAL COMPLETO, CARECE DE TIEMPO ABSOLUTO.


================================================================================
COMENTARIOS:














================================================================================
DATOS DE ACELERACION:
---------+---------+---------+---------+---------+---------+---------+---------+
   CANAL-1   CANAL-2   CANAL-3   CANAL-4   CANAL-5   CANAL-6   CANAL-7   CANAL-8
      N00E        +V      N90E
---------+---------+---------+---------+---------+---------+---------+---------+
[...]
  -0.20546   0.20079   1.93651
  -0.20546   0.20079   1.93651
  -0.20546   0.20079   1.93651
  -0.20546   0.20079   1.93651
  -0.20546   0.20079   1.93651
  -0.20546   0.20079   1.93651
  -0.20546   0.20079   1.93651
  -0.20546   0.20079   1.69651
  -0.20546   0.20079   1.69651
  -0.20546   0.20079   1.69651
  -0.44546   0.20079   1.69651
  -0.20546   0.20079   1.69651
  -0.44546   0.20079   1.69651
  -0.20546   0.20079   1.69651
  -0.44546   0.20079   1.45651
  -0.20546   0.20079   1.45651
  -0.20546   0.20079   1.45651
  -0.20546   0.20079   1.21651
  -0.20546   0.20079   1.21651
  -0.68546   0.20079   1.21651
  -0.20546   0.20079   1.21651
  -0.20546  -0.03921   1.21651
  -0.20546   0.20079   0.97651
  -0.20546   0.20079   0.97651
  -0.20546   0.20079   0.97651
  -0.20546  -0.03921   0.73651
  -0.20546  -0.03921   0.73651
  -0.20546  -0.03921   0.73651
  -0.20546  -0.03921   0.73651
  -0.20546  -0.03921   0.73651
  -0.20546  -0.03921   0.73651
   0.03454  -0.03921   0.49651
   0.03454  -0.27921   0.49651
   0.03454  -0.27921   0.49651
   0.03454  -0.27921   0.49651
   0.03454  -0.27921   0.49651
   0.03454  -0.27921   0.49651
   0.03454  -0.27921   0.25651
   0.27454  -0.27921   0.25651
   0.27454  -0.27921   0.25651
   0.27454  -0.27921   0.25651
   0.27454  -0.27921   0.25651
   0.27454  -0.27921   0.25651
   0.27454  -0.27921   0.25651
   0.27454  -0.27921   0.25651
   0.27454  -0.27921   0.25651
   0.51454  -0.27921   0.25651
   0.27454  -0.27921   0.25651
   0.51454  -0.27921   0.25651
   0.27454  -0.27921   0.01651
   0.51454  -0.27921   0.25651
   0.51454  -0.27921   0.01651
   0.51454  -0.27921   0.01651
   0.51454  -0.27921   0.01651
   0.51454  -0.27921   0.01651
   0.51454  -0.27921   0.01651
   0.51454  -0.27921   0.01651
   0.51454  -0.51921   0.01651
   0.75454  -0.27921   0.01651
   0.75454  -0.27921   0.01651
   0.75454  -0.27921   0.01651
   0.75454  -0.27921   0.01651
   0.75454  -0.27921   0.01651
   0.75454  -0.27921   0.01651
   0.75454  -0.27921   0.01651
   0.75454  -0.27921   0.01651
   0.75454  -0.27921   0.01651
   0.75454  -0.27921   0.01651
   0.99454  -0.51921   0.01651
   0.75454  -0.27921   0.01651
   0.99454  -0.27921   0.01651
   0.99454  -0.27921   0.01651
   0.99454  -0.27921   0.01651
   0.99454  -0.27921   0.01651
   0.99454  -0.27921   0.01651
   0.99454  -0.27921   0.01651
   0.99454  -0.27921   0.01651
   1.23454  -0.27921   0.01651
   1.23454  -0.27921   0.25651
   1.23454  -0.27921   0.01651
   1.23454  -0.27921   0.01651
   1.23454  -0.27921   0.01651
   1.23454  -0.03921   0.01651
   1.23454  -0.03921   0.01651
   1.23454  -0.03921   0.01651
   1.23454  -0.03921   0.01651
   1.23454  -0.03921   0.25651
   1.47454  -0.03921   0.01651
   1.47454  -0.03921   0.01651
   1.47454  -0.03921   0.01651
   1.47454  -0.03921   0.01651
   1.47454  -0.03921   0.25651
   1.47454  -0.03921   0.01651
   1.47454   0.20079   0.25651
   1.47454   0.20079   0.25651
   1.47454   0.20079   0.01651
   1.71454   0.20079   0.01651
   1.71454   0.20079   0.01651
   1.71454   0.20079   0.01651
   1.71454   0.20079   0.01651
   1.71454   0.20079   0.01651
   1.71454   0.20079   0.01651
   1.71454   0.20079   0.01651
   1.71454   0.20079  -0.21349
   1.71454   0.20079  -0.21349
   1.47454   0.20079  -0.21349
   1.71454   0.20079  -0.21349
   1.71454   0.20079  -0.21349
   1.47454   0.20079  -0.21349
   1.47454   0.20079  -0.21349
   1.47454   0.20079  -0.21349
   1.47454   0.20079  -0.21349
   1.47454   0.20079  -0.21349
   1.47454   0.20079  -0.21349
   1.23454   0.20079  -0.21349
   1.23454   0.20079  -0.21349
   1.23454   0.20079  -0.21349
   1.23454   0.20079  -0.21349
   1.23454   0.20079  -0.21349
   1.23454   0.20079  -0.21349
   1.23454   0.20079  -0.21349
   1.23454   0.20079  -0.21349
   0.99454   0.20079  -0.21349
   0.99454   0.20079  -0.21349
   0.99454   0.20079  -0.21349
   0.99454   0.20079  -0.21349
   0.99454   0.20079  -0.21349
   0.99454   0.20079  -0.45349
   0.75454   0.20079  -0.45349
   0.75454   0.20079  -0.45349
   0.75454   0.20079  -0.45349
   0.75454   0.20079  -0.45349
   0.75454   0.20079  -0.45349
   0.75454   0.20079  -0.45349
   0.75454   0.20079  -0.45349
   0.75454   0.20079  -0.45349
   0.75454   0.20079  -0.45349
   0.75454   0.44079  -0.45349
   0.51454   0.44079  -0.45349
   0.51454   0.44079  -0.45349
   0.51454   0.44079  -0.45349
   0.75454   0.44079  -0.45349
   0.51454   0.44079  -0.45349
   0.51454   0.44079  -0.45349
   0.51454   0.44079  -0.45349
   0.51454   0.44079  -0.45349
   0.51454   0.68079  -0.45349
   0.75454   0.68079  -0.69349
   0.75454   0.44079  -0.69349
   0.75454   0.44079  -0.69349
   0.75454   0.44079  -0.69349
   0.75454   0.44079  -0.69349
   0.75454   0.44079  -0.69349
   0.51454   0.44079  -0.93349
   0.75454   0.44079  -0.93349
   0.75454   0.44079  -0.93349
   0.75454   0.44079  -0.93349
   0.75454   0.44079  -0.93349
   0.75454   0.44079  -0.93349
   0.75454   0.44079  -1.17349
   0.51454   0.44079  -1.17349
   0.51454   0.44079  -1.17349
   0.51454   0.44079  -1.17349
   0.51454   0.44079  -1.17349
   0.51454   0.44079  -1.17349
   0.51454   0.44079  -1.17349
   0.27454   0.20079  -1.17349
   0.27454   0.44079  -1.17349
   0.27454   0.44079  -1.17349
   0.27454   0.20079  -1.17349
   0.27454   0.20079  -1.17349
   0.27454   0.20079  -1.17349
   0.03454   0.20079  -1.17349
   0.03454   0.20079  -1.17349
  -0.20546  -0.03921  -1.17349
  -0.20546  -0.03921  -1.17349
  -0.20546  -0.03921  -1.17349
  -0.20546  -0.03921  -1.17349
  -0.44546  -0.03921  -1.17349
  -0.44546  -0.03921  -1.17349
  -0.44546  -0.03921  -1.17349
  -0.68546  -0.27921  -1.17349
  -0.68546  -0.27921  -1.17349
  -0.68546  -0.27921  -1.17349
  -0.92546  -0.27921  -1.17349
  -0.92546  -0.27921  -1.17349
  -0.92546  -0.27921  -1.17349
  -0.92546  -0.27921  -0.93349
  -1.16546  -0.27921  -1.17349
  -1.16546  -0.27921  -1.17349
  -1.16546  -0.27921  -1.17349
  -1.40546  -0.27921  -1.17349
  -1.40546  -0.27921  -1.17349
  -1.40546  -0.27921  -1.17349
  -1.40546  -0.27921  -1.17349
  -1.64546  -0.27921  -1.17349
  -1.64546  -0.27921  -1.17349
  -1.64546  -0.27921  -1.17349
  -1.64546  -0.27921  -1.17349
  -1.64546  -0.51921  -1.17349
  -1.64546  -0.51921  -1.17349
  -1.64546  -0.51921  -1.41349
  -1.88546  -0.51921  -1.41349
  -1.88546  -0.51921  -1.41349
  -1.88546  -0.27921  -1.41349
  -1.88546  -0.27921  -1.65349
  -1.88546  -0.27921  -1.65349
  -1.88546  -0.27921  -1.65349
  -1.88546  -0.27921  -1.65349
  -1.88546  -0.27921  -1.89349
  -1.88546  -0.51921  -1.89349
  -1.88546  -0.27921  -1.89349
  -1.88546  -0.27921  -2.13349
  -1.88546  -0.27921  -2.13349
  -1.88546  -0.27921  -2.13349
  -1.88546  -0.27921  -2.13349
  -1.88546  -0.27921  -2.13349
  -1.88546  -0.27921  -2.37349
  -1.64546  -0.03921  -2.37349
  -1.64546  -0.27921  -2.37349
  -1.64546  -0.27921  -2.37349
  -1.64546  -0.27921  -2.37349
  -1.64546  -0.27921  -2.37349
  -1.64546  -0.27921  -2.61349
  -1.64546  -0.27921  -2.61349
  -1.64546  -0.27921  -2.61349
  -1.40546  -0.27921  -2.61349
  -1.40546  -0.27921  -2.61349
  -1.40546  -0.27921  -2.61349
  -1.40546  -0.27921  -2.61349
  -1.40546  -0.27921  -2.61349
  -1.40546  -0.03921  -2.61349
  -1.16546  -0.03921  -2.61349
  -1.16546  -0.03921  -2.61349
  -1.16546  -0.03921  -2.61349
  -1.16546  -0.27921  -2.61349
  -1.16546  -0.03921  -2.61349
  -1.16546  -0.03921  -2.61349
  -1.16546  -0.03921  -2.61349
  -1.16546  -0.27921  -2.61349
  -1.16546  -0.27921  -2.61349
  -1.16546  -0.27921  -2.61349
  -1.16546  -0.27921  -2.61349
  -1.16546  -0.27921  -2.61349
  -1.16546  -0.27921  -2.37349
  -1.16546  -0.27921  -2.37349
  -1.16546  -0.27921  -2.37349
  -1.16546  -0.27921  -2.37349
  -1.16546  -0.27921  -2.37349
  -1.16546  -0.03921  -2.37349
  -1.16546  -0.03921  -2.13349
  -1.16546  -0.03921  -2.37349
  -1.16546  -0.03921  -2.13349
  -1.40546  -0.03921  -2.13349
  -1.40546  -0.03921  -2.13349
  -1.40546  -0.03921  -2.13349
  -1.40546  -0.03921  -2.13349
  -1.40546  -0.03921  -2.13349
  -1.40546  -0.03921  -2.13349
  -1.64546   0.20079  -1.89349
  -1.64546   0.20079  -1.89349
  -1.64546   0.20079  -1.89349
  -1.64546   0.20079  -1.89349
  -1.64546   0.20079  -1.89349
  -1.64546   0.20079  -1.89349
  -1.64546   0.20079  -1.89349
  -1.64546   0.20079  -1.89349
  -1.64546   0.20079  -1.89349
  -1.64546   0.44079  -1.65349
  -1.64546   0.44079  -1.65349
  -1.64546   0.44079  -1.65349
  -1.64546   0.44079  -1.89349
  -1.64546   0.44079  -1.65349
  -1.64546   0.68079  -1.65349
  -1.64546   0.68079  -1.65349
  -1.64546   0.68079  -1.65349
  -1.64546   0.68079  -1.65349
  -1.64546   0.68079  -1.65349
  -1.64546   0.68079  -1.65349
  -1.40546   0.68079  -1.65349
  -1.40546   0.68079  -1.65349
  -1.40546   0.68079  -1.65349
  -1.40546   0.44079  -1.65349
  -1.16546   0.44079  -1.41349
  -1.16546   0.44079  -1.41349
  -1.16546   0.44079  -1.41349
  -1.16546   0.44079  -1.41349
  -0.92546   0.44079  -1.41349
  -0.92546   0.68079  -1.41349
  -0.92546   0.68079  -1.41349
  -0.68546   0.68079  -1.17349
  -0.68546   0.68079  -1.17349
  -0.68546   0.68079  -1.17349
  -0.44546   0.68079  -1.17349
  -0.44546   0.44079  -0.93349
  -0.44546   0.44079  -0.93349
  -0.20546   0.44079  -0.93349
  -0.20546   0.44079  -0.69349
  -0.20546   0.44079  -0.69349
   0.03454   0.44079  -0.69349
   0.03454   0.44079  -0.45349
   0.03454   0.20079  -0.45349
   0.03454   0.20079  -0.45349
   0.27454   0.20079  -0.21349
   0.27454   0.20079  -0.21349
   0.27454   0.20079   0.01651
   0.27454   0.20079   0.01651
   0.51454   0.20079   0.25651
   0.51454   0.20079   0.25651
   0.51454  -0.03921   0.25651
   0.51454   0.20079   0.49651
   0.51454  -0.03921   0.73651
   0.75454  -0.03921   0.73651
   0.75454  -0.03921   0.97651
   0.75454  -0.03921   0.97651
   0.75454  -0.03921   1.21651
   0.75454  -0.03921   1.21651
   0.75454  -0.03921   1.45651
   0.75454  -0.03921   1.69651
   0.75454  -0.27921   1.69651
   0.75454  -0.03921   1.93651
   0.75454  -0.03921   1.93651
   0.75454  -0.27921   2.17651
   0.75454  -0.03921   2.17651
   0.75454  -0.03921   2.41651
   0.75454  -0.03921   2.41651
   0.75454  -0.27921   2.65651
   0.75454  -0.03921   2.65651
   0.75454  -0.03921   2.89651
   0.51454  -0.27921   3.13651
   0.51454  -0.27921   3.13651
   0.51454  -0.03921   3.37651
   0.51454  -0.27921   3.37651
   0.27454  -0.27921   3.61651
   0.27454  -0.27921   3.61651
   0.27454  -0.27921   3.85651
   0.27454  -0.27921   3.85651
   0.27454  -0.27921   4.09651
   0.27454  -0.27921   4.09651
   0.27454  -0.03921   4.09651
   0.03454  -0.03921   4.09651
   0.27454  -0.03921   4.33651
   0.27454  -0.03921   4.33651
   0.27454  -0.03921   4.57651
   0.03454  -0.03921   4.57651
   0.03454  -0.03921   4.57651
   0.27454  -0.03921   4.57651
   0.03454  -0.03921   4.57651
   0.03454  -0.03921   4.81651
   0.03454  -0.03921   4.81651
   0.03454  -0.03921   4.81651
   0.03454  -0.03921   4.81651
   0.03454  -0.03921   4.81651
   0.03454  -0.03921   4.81651
   0.03454  -0.03921   4.81651
   0.03454  -0.03921   4.81651
   0.03454  -0.03921   4.81651
   0.03454  -0.03921   4.81651
   0.03454  -0.03921   4.81651
   0.03454  -0.27921   4.81651
   0.27454  -0.27921   4.81651
   0.27454  -0.27921   4.57651
   0.27454  -0.27921   4.57651
   0.27454  -0.27921   4.57651
   0.27454  -0.27921   4.57651
   0.27454  -0.27921   4.33651
   0.27454  -0.27921   4.33651
   0.27454  -0.27921   4.33651
   0.27454  -0.27921   4.33651
   0.27454  -0.27921   4.09651
   0.27454  -0.27921   4.09651
   0.27454  -0.51921   3.85651
   0.27454  -0.51921   3.85651
   0.27454  -0.51921   3.85651
   0.27454  -0.51921   3.85651
   0.51454  -0.51921   3.61651
   0.51454  -0.51921   3.61651
   0.51454  -0.51921   3.61651
   0.27454  -0.51921   3.37651
   0.51454  -0.51921   3.37651
   0.51454  -0.51921   3.37651
   0.51454  -0.51921   3.37651
   0.51454  -0.51921   3.13651
   0.27454  -0.27921   3.13651
   0.51454  -0.27921   3.13651
   0.51454  -0.27921   3.13651
   0.51454  -0.27921   3.13651
   0.51454  -0.27921   2.89651
   0.51454  -0.27921   2.89651
   0.51454  -0.27921   2.89651
   0.51454  -0.27921   2.89651
   0.51454  -0.27921   2.89651
   0.51454  -0.27921   2.89651
   0.75454  -0.27921   2.89651
   0.75454  -0.27921   2.89651
   0.75454  -0.27921   2.89651
   0.75454  -0.27921   2.89651
   0.75454  -0.27921   2.89651
   0.75454  -0.27921   2.89651
   0.75454  -0.27921   2.89651
   0.75454  -0.27921   2.89651
   0.75454  -0.27921   2.89651
   0.75454  -0.03921   2.89651
   0.51454  -0.03921   2.89651
   0.75454  -0.03921   2.89651
   0.51454  -0.03921   2.89651
   0.75454  -0.03921   2.89651
   0.51454  -0.03921   2.89651
   0.75454  -0.03921   2.89651
   0.75454  -0.03921   2.89651
   0.75454  -0.03921   2.89651
   0.51454  -0.03921   2.65651
   0.51454  -0.03921   2.65651
   0.75454  -0.03921   2.65651
   0.75454  -0.03921   2.65651
   0.75454  -0.03921   2.65651
   0.75454  -0.27921   2.65651
   0.75454  -0.03921   2.41651
   0.75454  -0.03921   2.41651
   0.75454  -0.03921   2.41651
   0.75454  -0.03921   2.41651
   0.75454  -0.03921   2.17651
   0.75454  -0.03921   2.17651
   0.75454  -0.03921   2.17651
   0.75454  -0.03921   2.17651
   0.75454  -0.03921   1.93651
   0.75454  -0.03921   1.93651
   0.75454  -0.27921   1.69651
   0.75454  -0.27921   1.69651
   0.75454  -0.27921   1.69651
   0.75454  -0.27921   1.69651
   0.75454  -0.27921   1.69651
   0.51454  -0.27921   1.45651
   0.51454  -0.27921   1.45651
   0.51454  -0.27921   1.21651
   0.51454  -0.27921   1.21651
   0.51454  -0.27921   1.21651
   0.51454  -0.27921   0.97651
   0.51454  -0.27921   0.97651
   0.51454  -0.27921   0.73651
   0.51454  -0.27921   0.73651
   0.51454  -0.27921   0.73651
   0.51454  -0.27921   0.49651
   0.51454  -0.27921   0.49651
   0.51454  -0.27921   0.49651
   0.51454  -0.27921   0.25651
   0.51454  -0.51921   0.25651
   0.51454  -0.27921   0.25651
   0.51454  -0.27921   0.25651
   0.51454  -0.27921   0.01651
   0.51454  -0.27921   0.01651
   0.75454  -0.27921   0.01651
   0.51454  -0.27921  -0.21349
   0.51454  -0.27921  -0.21349
   0.75454  -0.27921  -0.21349
   0.75454  -0.27921  -0.21349
   0.75454  -0.03921  -0.45349
   0.75454  -0.03921  -0.45349
   0.51454  -0.03921  -0.45349
   0.75454  -0.03921  -0.69349
   0.75454   0.20079  -0.69349
   0.75454   0.20079  -0.45349
   0.75454  -0.03921  -0.69349
   0.75454   0.20079  -0.69349
   0.75454   0.20079  -0.69349
   0.75454   0.20079  -0.93349
   0.75454   0.20079  -0.93349
   0.75454   0.20079  -0.93349
   0.51454   0.20079  -0.93349
   0.51454   0.20079  -1.17349
   0.75454   0.20079  -1.17349
   0.75454   0.20079  -1.17349
   0.51454   0.20079  -1.17349
   0.51454   0.20079  -1.17349
   0.51454   0.20079  -1.41349
   0.51454   0.20079  -1.41349
   0.51454   0.20079  -1.41349
   0.51454   0.20079  -1.41349
   0.51454   0.20079  -1.41349
   0.27454   0.20079  -1.41349
   0.27454   0.20079  -1.65349
   0.27454   0.20079  -1.65349
   0.27454   0.20079  -1.65349
   0.27454   0.20079  -1.65349
   0.27454   0.20079  -1.65349
   0.27454   0.20079  -1.89349
   0.03454   0.20079  -1.89349
   0.03454   0.44079  -1.89349
   0.03454   0.44079  -1.89349
   0.03454   0.44079  -2.13349
  -0.20546   0.44079  -2.13349
   0.03454   0.44079  -2.13349
  -0.20546   0.44079  -2.13349
  -0.20546   0.44079  -2.37349
  -0.20546   0.44079  -2.37349
  -0.20546   0.44079  -2.37349
  -0.20546   0.44079  -2.37349
  -0.20546   0.44079  -2.37349
  -0.20546   0.44079  -2.37349
