********************************************************************************
               CENTRO DE INSTRUMENTACION Y REGISTRO SISMICO  A.C.  
                       Coordinacion de Servicios Tecnicos
     Anaxagoras 814, Col. Narvarte, Benito Juarez, C.P. 03020 Mexico, D.F.
            Tels. 667 45 42/ 687 45  82             Fax. 669 25 12
********************************************************************************
ARCHIVO ESTANDAR DE ACELERACION:
VERSION DEL FORMATO                    : 2.0
NOMBRE DEL ARCHIVO                     : AL010401.131
FECHA Y HORA DE CREACION               : 27/OCT/04, 10:44
REF. CATALOGO ACELEROGRAMAS, SMIS 1996 : REGISTRO No.     /PAG.


================================================================================
DATOS DE LA ESTACION:
NOMBRE DE LA ESTACION                  : ALAMEDA
CLAVE DE LA ESTACION                   : AL01
LOCALIZACION DE LA ESTACION            : JARDIN ALAMEDA ENTRE AV. HIDALGO Y AV.
                                       : JUAREZ, CENTRO
                                       :
                                       :
                                       :
COORDENADAS DE LA ESTACION             : 19.436 LAT. N 
                                       : 99.145 LONG. W 
ALTITUD (msnm)                         : 2232
TIPO DE SUELO                          : TERRENO BLANDO, MATERIAL COMPRESIBLE
                                       : (ARCILLAS)
                                       : 
INSTITUCION RESPONSABLE                : CIRES 
                                       :

================================================================================
DATOS DEL ACELEROGRAFO:
MODELO DEL ACELEROGRAFO                : SSA-1
NUMERO DE SERIE DEL ACELEROGRAFO       : 152
NUMERO DE CANALES                      : 3
ORIENTACION C1-C6 (rumbo;orientacion)  : /N00E/+V/N90E
ORIENTACION C7-C12 (rumbo;orientacion) :
VEL. DE MUESTREO, C1-C6 (muestras/s)   : /200/200/200
VEL. DE MUESTREO, C7-C12 (muestras/s)  :
ESC. COMPLETA DE SENSORES, C1-C6, (g)  : /2/2/2
ESC. COMPLETA DE SENSORES, C7-C12, (g) :
FREC. NAT. DE SENSORES, C1-C6, (Hz)    : /51.29/51.09/53.75
FREC. NAT. DE SENSORES, C7-C12, (Hz)   :
AMORTIGUAMIENTO DE SENSORES, C1-C6     : /.5519/.5670/.5810
AMORTIGUAMIENTO DE SENSORES, C7-C12    :
INTERVALO DE MUESTREO, C1-C6, (s)      : /0.005/0.005/0.005
INTERVALO DE MUESTREO, C7-C12, (s)     :
UMBRAL DE DISPARO, C1-C6, (Gal)        : /2/1.5/2
UMBRAL DE DISPARO, C7-C12, (Gal)       :
MEMORIA DE PREEVENTO (s)               : 15
TIEMPO DE POSEVENTO (s)                : 60


================================================================================
DATOS DEL SISMO:
FECHA DEL SISMO (GMT)                  : 13/ENE/04
HORA EPICENTRO (GMT)                   : 21:28:56,0
MAGNITUD(ES)                           : /Mc=5.5
COORDENADAS DEL EPICENTRO              : 15.90 LAT. N
                                       : -97.03 LONG. W
PROFUNDIDAD FOCAL (km)                 : 16
FUENTE DE LOS DATOS EPICENTRALES       : SSN
                                       : INSTITUTO DE GEOFISICA, UNAM 

================================================================================
DATOS DE ESTE REGISTRO:
HORA DE LA PRIMERA MUESTRA (GMT)       : 21:31:00.00
EXACTITUD DEL TIEMPO (s)               :     
DURACION DEL REGISTRO (s), C1-C6       : /88.32/88.32/88.32
DURACION DEL REGISTRO (s), C7-C12      :
NUM. TOTAL DE MUESTRAS, C1-C6          : /17664/17664/17664
NUM. TOTAL DE MUESTRAS, C7-C12         :
ACEL. MAX. (Gal), C1-C6                : /1.80912/-1.02431/2.04558
ACEL. MAX., C1-C6, EN LA MUESTRA       :
ACEL. MAX. (Gal), C7-C12               :
ACEL. MAX., C7-C12, EN LA MUESTRA      :
UNIDADES DE LOS DATOS                  : Gal (cm/s/s)
FACTOR DE DECIMACION                   : 1
FORMATO DATOS (FORTRAN,10 campos/dato) : 3F10.5


================================================================================
CALIDAD DEL ACELEROGRAMA:
REGISTRO DIGITAL COMPLETO, CARECE DE TIEMPO ABSOLUTO.


================================================================================
COMENTARIOS:














================================================================================
DATOS DE ACELERACION:
---------+---------+---------+---------+---------+---------+---------+---------+
   CANAL-1   CANAL-2   CANAL-3   CANAL-4   CANAL-5   CANAL-6   CANAL-7   CANAL-8
      N00E        +V      N90E
---------+---------+---------+---------+---------+---------+---------+---------+
[...]
   0.36912  -0.07431   0.36558
   0.36912  -0.07431   0.36558
   0.12912  -0.07431   0.12558
   0.12912  -0.07431   0.36558
   0.12912  -0.07431   0.36558
   0.12912  -0.07431   0.36558
   0.12912  -0.07431   0.36558
  -0.11088   0.16569   0.36558
  -0.11088   0.16569   0.36558
  -0.11088   0.16569   0.36558
  -0.11088   0.16569   0.36558
  -0.11088   0.16569   0.36558
  -0.11088   0.16569   0.36558
  -0.11088   0.16569   0.36558
  -0.11088   0.16569   0.60558
  -0.11088   0.40569   0.36558
  -0.11088   0.40569   0.36558
  -0.35088   0.40569   0.60558
  -0.11088   0.40569   0.60558
  -0.11088   0.40569   0.60558
  -0.35088   0.40569   0.36558
  -0.35088   0.40569   0.60558
  -0.35088   0.40569   0.36558
  -0.35088   0.40569   0.36558
  -0.35088   0.40569   0.36558
  -0.35088   0.64569   0.60558
  -0.35088   0.40569   0.60558
  -0.35088   0.40569   0.60558
  -0.59088   0.64569   0.84558
  -0.59088   0.64569   0.84558
  -0.35088   0.64569   0.84558
  -0.35088   0.64569   0.84558
  -0.35088   0.40569   0.60558
  -0.35088   0.40569   0.84558
  -0.35088   0.64569   0.84558
  -0.35088   0.64569   0.84558
  -0.35088   0.64569   0.84558
  -0.35088   0.40569   1.08558
  -0.11088   0.40569   1.08558
  -0.11088   0.40569   1.08558
  -0.11088   0.40569   1.08558
  -0.11088   0.16569   1.08558
  -0.11088   0.40569   1.08558
  -0.11088   0.16569   1.08558
  -0.11088   0.16569   1.08558
  -0.11088   0.16569   1.08558
  -0.11088  -0.07431   1.08558
  -0.11088  -0.07431   1.08558
  -0.11088  -0.07431   1.08558
  -0.11088  -0.07431   1.08558
   0.12912  -0.07431   1.08558
   0.12912  -0.07431   1.08558
   0.12912  -0.07431   1.32558
   0.36912  -0.31431   1.32558
   0.36912  -0.31431   1.32558
   0.36912  -0.31431   1.32558
   0.36912  -0.31431   1.32558
   0.60912  -0.31431   1.32558
   0.60912  -0.31431   1.32558
   0.60912  -0.31431   1.32558
   0.60912  -0.31431   1.08558
   0.60912  -0.31431   1.08558
   0.84912  -0.55431   1.08558
   0.84912  -0.55431   1.08558
   0.84912  -0.55431   1.08558
   0.84912  -0.55431   1.08558
   0.84912  -0.55431   1.08558
   0.84912  -0.55431   1.08558
   1.08912  -0.55431   1.08558
   1.08912  -0.55431   1.08558
   1.08912  -0.55431   1.08558
   1.08912  -0.55431   1.08558
   1.08912  -0.55431   0.84558
   1.08912  -0.55431   0.84558
   1.08912  -0.55431   0.84558
   1.08912  -0.31431   0.84558
   1.08912  -0.55431   0.84558
   1.08912  -0.31431   0.84558
   1.08912  -0.55431   0.60558
   1.08912  -0.55431   0.60558
   1.08912  -0.55431   0.60558
   1.08912  -0.31431   0.60558
   1.08912  -0.31431   0.60558
   1.08912  -0.31431   0.60558
   1.08912  -0.31431   0.60558
   1.08912  -0.31431   0.60558
   1.08912  -0.31431   0.36558
   1.08912  -0.55431   0.36558
   1.08912  -0.31431   0.36558
   0.84912  -0.31431   0.36558
   0.84912  -0.07431   0.36558
   0.84912  -0.07431   0.36558
   0.84912  -0.07431   0.36558
   0.84912  -0.07431   0.36558
   0.84912  -0.07431   0.36558
   0.60912  -0.07431   0.36558
   0.60912   0.16569   0.36558
   0.60912   0.16569   0.12558
   0.60912   0.16569   0.12558
   0.60912   0.16569   0.12558
   0.60912   0.16569   0.12558
   0.60912   0.40569   0.12558
   0.36912   0.40569   0.12558
   0.36912   0.40569   0.12558
   0.36912   0.16569   0.12558
   0.36912   0.40569   0.12558
   0.36912   0.16569  -0.11442
   0.36912   0.16569  -0.11442
   0.36912   0.16569  -0.11442
   0.12912   0.16569  -0.11442
   0.12912   0.16569  -0.35442
   0.12912   0.16569  -0.35442
   0.12912   0.16569  -0.35442
   0.12912   0.16569  -0.35442
   0.36912   0.16569  -0.35442
   0.12912  -0.07431  -0.35442
   0.36912   0.16569  -0.35442
   0.36912   0.16569  -0.35442
   0.36912   0.16569  -0.59442
   0.12912   0.40569  -0.59442
   0.12912   0.16569  -0.83442
   0.12912   0.16569  -0.83442
   0.12912   0.16569  -0.83442
   0.12912   0.16569  -0.83442
   0.12912   0.16569  -0.83442
   0.12912   0.16569  -0.83442
   0.12912   0.16569  -1.07442
   0.12912   0.16569  -1.07442
   0.12912   0.16569  -1.07442
   0.12912   0.16569  -1.07442
   0.12912   0.16569  -1.07442
   0.12912  -0.07431  -1.07442
   0.12912   0.16569  -1.31442
   0.12912   0.16569  -1.31442
   0.12912   0.16569  -1.31442
   0.12912   0.16569  -1.31442
   0.12912   0.16569  -1.31442
   0.12912   0.16569  -1.31442
   0.12912  -0.07431  -1.55442
   0.12912   0.16569  -1.55442
   0.12912   0.16569  -1.55442
   0.12912   0.16569  -1.55442
   0.12912   0.16569  -1.55442
   0.12912  -0.07431  -1.55442
   0.12912  -0.07431  -1.55442
   0.12912   0.16569  -1.55442
  -0.11088   0.16569  -1.55442
  -0.11088   0.16569  -1.55442
  -0.11088   0.16569  -1.55442
  -0.11088   0.16569  -1.55442
  -0.11088   0.16569  -1.55442
  -0.11088   0.16569  -1.79442
  -0.11088   0.16569  -1.79442
  -0.11088   0.16569  -1.79442
  -0.11088   0.16569  -1.79442
  -0.11088   0.16569  -1.79442
  -0.59088  -0.07431  -1.55442
  -0.11088  -0.07431  -1.55442
  -0.11088  -0.07431  -1.55442
  -0.11088  -0.07431  -1.55442
  -0.11088   0.16569  -1.55442
  -0.35088   0.16569  -1.31442
  -0.35088   0.16569  -1.55442
  -0.35088   0.16569  -1.31442
  -0.35088   0.16569  -1.31442
  -0.35088   0.16569  -1.31442
  -0.59088   0.16569  -1.31442
  -0.59088   0.16569  -1.31442
  -0.35088   0.16569  -1.31442
  -0.59088   0.16569  -1.07442
  -0.59088   0.16569  -1.07442
  -0.59088   0.16569  -0.83442
  -0.59088   0.16569  -0.83442
  -0.59088   0.16569  -0.83442
  -0.59088   0.40569  -0.83442
  -0.59088   0.40569  -0.59442
  -0.83088   0.40569  -0.59442
  -0.83088   0.40569  -0.59442
  -0.83088   0.40569  -0.59442
  -0.83088   0.40569  -0.59442
  -0.83088   0.40569  -0.35442
  -0.59088   0.40569  -0.35442
  -0.59088   0.16569  -0.35442
  -0.59088  -0.07431  -0.35442
  -0.59088  -0.07431  -0.11442
  -0.83088  -0.07431  -0.11442
  -0.83088  -0.07431  -0.11442
  -0.83088   0.16569   0.12558
  -0.83088   0.16569   0.12558
  -0.83088   0.16569   0.12558
  -0.83088   0.16569   0.12558
  -1.07088   0.16569   0.12558
  -0.83088  -0.07431   0.12558
  -0.83088   0.16569   0.12558
  -0.83088  -0.07431   0.12558
  -0.83088   0.16569   0.12558
  -0.83088  -0.07431   0.12558
  -0.83088  -0.07431   0.12558
  -0.83088  -0.07431   0.12558
  -0.83088  -0.07431   0.36558
  -0.83088  -0.07431   0.36558
  -0.83088  -0.07431   0.36558
  -0.83088  -0.07431   0.36558
  -0.83088  -0.07431   0.36558
  -0.83088  -0.07431   0.36558
  -0.83088  -0.07431   0.36558
  -0.83088  -0.07431   0.12558
  -0.83088  -0.07431   0.12558
  -0.83088  -0.07431   0.12558
  -0.83088  -0.07431   0.12558
  -0.83088  -0.07431   0.12558
  -0.83088  -0.07431   0.12558
  -0.59088  -0.07431   0.12558
  -0.59088  -0.07431   0.12558
  -0.59088  -0.31431   0.12558
  -0.59088  -0.31431   0.12558
  -0.59088  -0.31431   0.12558
  -0.59088  -0.31431   0.12558
  -0.59088  -0.31431   0.12558
  -0.59088  -0.31431  -0.11442
  -0.59088  -0.31431  -0.11442
  -0.59088  -0.31431  -0.11442
  -0.59088  -0.31431  -0.11442
  -0.59088  -0.31431  -0.11442
  -0.59088  -0.31431  -0.35442
  -0.59088  -0.31431  -0.35442
  -0.59088  -0.31431  -0.35442
  -0.59088  -0.31431  -0.35442
  -0.35088  -0.55431  -0.35442
  -0.35088  -0.55431  -0.35442
  -0.35088  -0.31431  -0.35442
  -0.35088  -0.55431  -0.35442
  -0.35088  -0.31431  -0.35442
  -0.35088  -0.31431  -0.35442
  -0.35088  -0.31431  -0.59442
  -0.35088  -0.31431  -0.35442
  -0.35088  -0.31431  -0.35442
  -0.35088  -0.55431  -0.35442
  -0.35088  -0.55431  -0.59442
  -0.35088  -0.55431  -0.59442
  -0.35088  -0.31431  -0.59442
  -0.11088  -0.31431  -0.59442
  -0.11088  -0.31431  -0.59442
  -0.11088  -0.07431  -0.59442
  -0.11088  -0.31431  -0.35442
  -0.11088  -0.31431  -0.59442
  -0.11088  -0.31431  -0.59442
  -0.35088  -0.31431  -0.59442
  -0.59088  -0.31431  -0.59442
  -0.35088  -0.31431  -0.35442
  -0.35088  -0.31431  -0.35442
  -0.35088  -0.31431  -0.59442
  -0.35088  -0.31431  -0.35442
  -0.35088  -0.31431  -0.35442
  -0.35088  -0.31431  -0.35442
  -0.35088  -0.31431  -0.35442
  -0.35088  -0.31431  -0.35442
  -0.35088  -0.31431  -0.35442
  -0.35088  -0.31431  -0.35442
  -0.59088  -0.31431  -0.35442
  -0.59088  -0.07431  -0.35442
  -0.59088  -0.07431  -0.35442
  -0.59088  -0.07431  -0.35442
  -0.59088  -0.07431  -0.59442
  -0.59088  -0.07431  -0.35442
  -0.59088  -0.07431  -0.11442
  -0.59088  -0.07431  -0.11442
  -0.59088  -0.07431  -0.11442
  -0.59088  -0.07431  -0.11442
  -0.59088  -0.07431   0.12558
  -0.83088  -0.07431   0.12558
  -0.83088  -0.07431   0.12558
  -0.83088  -0.07431  -0.11442
  -0.83088  -0.07431   0.12558
  -0.83088  -0.07431   0.12558
  -0.83088  -0.07431   0.12558
  -0.83088  -0.07431   0.12558
  -0.83088  -0.07431   0.12558
  -0.83088  -0.07431   0.12558
  -0.83088  -0.07431   0.12558
  -0.83088  -0.07431   0.12558
  -0.83088   0.16569   0.12558
  -0.83088  -0.07431   0.36558
  -0.83088   0.16569   0.36558
  -0.83088   0.16569   0.36558
  -0.83088   0.16569   0.36558
  -0.83088   0.16569   0.36558
  -0.83088   0.16569   0.36558
  -0.83088   0.16569   0.36558
  -0.83088   0.16569   0.36558
  -0.83088   0.16569   0.36558
  -0.83088   0.16569   0.60558
  -0.83088   0.16569   0.60558
  -0.83088   0.16569   0.60558
  -0.59088   0.16569   0.60558
  -0.59088   0.16569   0.60558
  -0.59088   0.40569   0.60558
  -0.59088   0.40569   0.60558
  -0.35088   0.40569   0.60558
  -0.35088   0.40569   0.84558
  -0.35088   0.40569   0.60558
  -0.35088   0.64569   0.60558
  -0.11088   0.40569   0.84558
  -0.35088   0.40569   0.60558
  -0.11088   0.40569   0.60558
  -0.11088   0.40569   0.60558
  -0.11088   0.40569   0.60558
  -0.11088   0.40569   0.60558
  -0.11088   0.40569   0.60558
  -0.11088   0.40569   0.60558
  -0.11088   0.64569   0.60558
  -0.11088   0.40569   0.84558
   0.12912   0.40569   0.84558
   0.12912   0.40569   0.84558
   0.36912   0.40569   0.84558
   0.36912   0.40569   0.84558
   0.36912   0.40569   0.84558
   0.36912   0.40569   0.60558
   0.36912   0.40569   0.84558
   0.60912   0.40569   0.60558
   0.60912   0.40569   0.84558
   0.60912   0.40569   0.60558
   0.84912   0.40569   0.60558
   0.84912   0.40569   0.60558
   0.84912   0.16569   0.60558
   0.84912   0.16569   0.60558
   0.84912   0.16569   0.60558
   0.84912   0.16569   0.60558
   0.84912   0.16569   0.60558
   1.08912   0.16569   0.60558
   1.08912  -0.07431   0.60558
   1.08912  -0.07431   0.60558
   1.32912  -0.07431   0.60558
   1.32912  -0.07431   0.60558
   1.32912  -0.07431   0.60558
   1.32912  -0.31431   0.12558
   1.32912  -0.07431   0.60558
   1.32912  -0.07431   0.60558
   1.32912  -0.07431   0.60558
   1.32912  -0.07431   0.36558
   1.32912  -0.31431   0.60558
   1.32912  -0.07431   0.36558
   1.32912  -0.07431   0.36558
   1.56912  -0.07431   0.36558
   1.56912  -0.07431   0.36558
   1.56912  -0.07431   0.36558
   1.56912  -0.07431   0.36558
   1.56912  -0.31431   0.36558
   1.56912  -0.31431   0.36558
   1.80912  -0.31431   0.36558
   1.80912  -0.31431   0.36558
   1.80912  -0.31431   0.36558
   1.80912  -0.31431   0.36558
   1.80912  -0.07431   0.36558
   1.80912  -0.07431   0.12558
   1.56912  -0.31431   0.12558
   1.80912  -0.31431   0.12558
   1.80912  -0.07431   0.12558
   1.80912  -0.07431   0.12558
   1.80912  -0.07431   0.12558
   1.80912  -0.07431   0.12558
   1.80912  -0.07431   0.12558
   1.80912  -0.31431   0.12558
   1.56912  -0.31431   0.12558
   1.80912  -0.07431   0.12558
   1.80912  -0.07431   0.12558
   1.80912  -0.07431   0.12558
   1.80912  -0.07431   0.12558
   1.80912  -0.07431   0.12558
   1.80912  -0.07431   0.12558
   1.80912  -0.07431  -0.11442
   1.80912   0.16569   0.12558
   1.80912   0.16569   0.12558
   1.80912   0.16569  -0.11442
   1.80912   0.16569  -0.11442
   1.56912  -0.07431  -0.11442
   1.56912   0.16569  -0.11442
   1.56912  -0.07431  -0.11442
   1.32912   0.16569  -0.11442
   1.56912   0.16569  -0.11442
   1.56912   0.16569  -0.11442
   1.32912   0.16569  -0.11442
   1.32912   0.16569  -0.11442
   1.32912   0.16569  -0.11442
   1.32912  -0.07431  -0.11442
   1.32912  -0.07431  -0.11442
   1.08912  -0.07431  -0.35442
   1.32912  -0.07431  -0.11442
   1.08912  -0.07431  -0.11442
   1.08912   0.16569  -0.11442
   1.08912   0.16569  -0.11442
   1.08912   0.16569  -0.11442
   1.08912   0.16569  -0.11442
   0.84912   0.16569  -0.11442
   0.84912  -0.07431  -0.11442
   0.84912   0.16569  -0.11442
   0.84912  -0.07431  -0.11442
   0.60912  -0.07431  -0.11442
   0.60912  -0.07431   0.12558
   0.36912  -0.07431   0.12558
   0.36912  -0.07431   0.12558
   0.36912  -0.07431   0.12558
   0.12912  -0.07431   0.12558
   0.12912  -0.07431   0.12558
   0.12912  -0.07431   0.12558
   0.12912  -0.07431   0.12558
  -0.11088  -0.07431   0.12558
  -0.11088  -0.07431   0.12558
  -0.11088  -0.55431   0.12558
  -0.11088  -0.31431   0.12558
  -0.11088  -0.07431   0.12558
  -0.35088  -0.07431   0.12558
  -0.11088  -0.07431   0.12558
  -0.35088  -0.07431   0.12558
  -0.35088  -0.07431   0.36558
  -0.35088   0.16569   0.36558
  -0.59088  -0.07431   0.12558
  -0.59088   0.16569   0.36558
  -0.59088   0.16569   0.36558
  -0.59088  -0.07431   0.36558
  -0.83088  -0.07431   0.36558
  -0.83088  -0.07431   0.36558
  -0.83088  -0.07431   0.36558
  -0.83088  -0.07431   0.36558
  -0.83088  -0.07431   0.36558
  -0.83088  -0.07431   0.60558
  -0.83088  -0.07431   0.60558
  -0.83088  -0.07431   0.60558
  -0.83088  -0.07431   0.60558
  -0.83088  -0.07431   0.60558
  -0.83088  -0.07431   0.60558
  -0.83088   0.16569   0.60558
  -0.83088  -0.07431   0.60558
  -0.83088   0.16569   0.36558
  -0.83088   0.16569   0.60558
  -0.83088   0.40569   0.60558
  -0.59088   0.16569   0.60558
  -0.59088   0.16569   0.60558
  -0.59088  -0.07431   0.60558
  -0.59088  -0.07431   0.60558
  -0.59088  -0.07431   0.60558
  -0.59088  -0.07431   0.60558
  -0.59088  -0.07431   0.36558
  -0.59088  -0.07431   0.60558
  -0.35088  -0.07431   0.36558
  -0.59088  -0.07431   0.60558
  -0.35088  -0.07431   0.60558
  -0.35088  -0.07431   0.36558
  -0.35088  -0.07431   0.36558
  -0.11088  -0.07431   0.36558
  -0.11088  -0.07431   0.36558
  -0.11088  -0.07431   0.36558
  -0.11088  -0.07431   0.12558
  -0.11088  -0.07431   0.12558
  -0.11088  -0.07431   0.12558
  -0.11088  -0.07431   0.12558
  -0.11088  -0.07431   0.12558
  -0.11088  -0.07431   0.12558
  -0.11088  -0.07431   0.12558
  -0.11088  -0.07431   0.12558
  -0.11088  -0.07431   0.12558
  -0.11088  -0.07431   0.12558
   0.12912  -0.07431   0.12558
   0.12912  -0.31431  -0.11442
   0.12912  -0.31431  -0.11442
   0.12912  -0.31431  -0.35442
   0.12912  -0.31431  -0.11442
   0.12912  -0.07431  -0.11442
   0.12912  -0.07431  -0.11442
   0.12912  -0.55431  -0.11442
   0.12912  -0.07431  -0.11442
   0.12912  -0.07431  -0.11442
   0.12912  -0.07431  -0.11442
   0.12912  -0.07431  -0.11442
   0.12912  -0.07431  -0.11442
  -0.11088  -0.07431  -0.11442
  -0.11088  -0.07431  -0.11442
  -0.11088  -0.31431  -0.11442
  -0.11088  -0.07431  -0.11442
  -0.11088  -0.07431  -0.11442
  -0.11088  -0.07431   0.12558
  -0.11088   0.16569   0.12558
  -0.11088  -0.07431   0.12558
  -0.11088  -0.07431   0.12558
  -0.11088  -0.07431   0.12558
  -0.11088  -0.07431   0.12558
  -0.11088  -0.07431   0.12558
  -0.11088  -0.07431   0.12558
  -0.11088  -0.07431   0.12558
  -0.11088   0.16569   0.12558
  -0.11088   0.16569   0.12558
  -0.11088   0.16569   0.12558
  -0.35088   0.16569   0.12558
  -0.11088   0.16569   0.12558
  -0.35088   0.16569   0.12558
  -0.35088   0.16569   0.12558
  -0.35088   0.16569   0.12558
  -0.35088   0.16569   0.12558
  -0.35088   0.16569   0.12558
  -0.59088   0.40569   0.12558
