********************************************************************************
              CENTRO DE INSTRUMENTACION Y REGISTRO SISMICO  A.C.

    Anaxagoras 814, Col. Narvarte, Benito Juarez, C.P. 03020 Mexico, D.F.
           Tels. 5687 45 42/ 5687 45  82             Fax. 5669 25 12
********************************************************************************
ARCHIVO ESTANDAR DE ACELERACION:
VERSION DEL FORMATO                    : 2.0
NOMBRE DEL ARCHIVO                     : AL0120170213072931
FECHA Y HORA DE CREACION               : 13/FEB/17, 09:50
REF. CATALOGO ACELEROGRAMAS, SMIS 1996 : REGISTRO No.     /PAG.


================================================================================
DATOS DE LA ESTACION:
NOMBRE DE LA ESTACION                  : ALAMEDA
CLAVE DE LA ESTACION                   : AL01
LOCALIZACION DE LA ESTACION            : Del. Cuauhtémoc, Col. Centro,          
                                       : Dr. Mora entre Av. Hidalgo             
                                       : y Av. Juárez.                          
                                       :                                        
                                       : 
COORDENADAS DE LA ESTACION             : 19.4356 LAT. N
                                       : 99.1453 LONG. W
ALTITUD (msnm)                         : 2232
TIPO DE SUELO                          : Terreno blando, material compresible
                                       : (arcillas)                
                                       : 
INSTITUCION RESPONSABLE                : CIRES, A. C.
                                       : 

================================================================================
DATOS DEL ACELEROGRAFO:
MODELO DEL ACELEROGRAFO                : RAD_IO14
NUMERO DE SERIE DEL ACELEROGRAFO       : 
NUMERO DE CANALES                      : 3
ORIENTACION C1-C6 (rumbo;orientacion)  : /S00E/+V/N90W
ORIENTACION C7-C12 (rumbo;orientacion) : 
VEL. DE MUESTREO, C1-C6 (muestras/s)   : /100/100/100
VEL. DE MUESTREO, C7-C12 (muestras/s)  : 
ESC. COMPLETA DE SENSORES, C1-C6, (g)  : /2.0/2.0/2.0
ESC. COMPLETA DE SENSORES, C7-C12, (g) : 
FREC. NAT. DE SENSORES, C1-C6, (Hz)    : /51.29/51.09/53.75
FREC. NAT. DE SENSORES, C7-C12, (Hz)   : 
AMORTIGUAMIENTO DE SENSORES, C1-C6     : /0.5519/0.5670/0.5810
AMORTIGUAMIENTO DE SENSORES, C7-C12    : 
INTERVALO DE MUESTREO, C1-C6, (s)      : /0.01/0.01/0.01
INTERVALO DE MUESTREO, C7-C12, (s)     : 
UMBRAL DE DISPARO, C1-C6, (Gal)        : / / /
UMBRAL DE DISPARO, C7-C12, (Gal)       : 
MEMORIA DE PREEVENTO (s)               : 60
TIEMPO DE POSEVENTO (s)                : 90


================================================================================
DATOS DEL SISMO:
FECHA DEL SISMO (GMT)                  : 13/FEB/17
HORA EPICENTRO (GMT)                   : 07:29:31.0
MAGNITUD(ES)                           : /Mc=5.0
COORDENADAS DEL EPICENTRO              : 17.02 LAT. N
                                       : 99.74 LONG. W
PROFUNDIDAD FOCAL (km)                 : 36
FUENTE DE LOS DATOS EPICENTRALES       : SSN
                                       : INSTITUTO DE GEOFISICA, UNAM

================================================================================
DATOS DE ESTE REGISTRO:
HORA DE LA PRIMERA MUESTRA (GMT)       : 01:28:49.00
EXACTITUD DEL TIEMPO (s)               : 
DURACION DEL REGISTRO (s), C1-C6       : /240.01/240.01/240.01
DURACION DEL REGISTRO (s), C7-C12      : 
NUM. TOTAL DE MUESTRAS, C1-C6          : /24001/24001/24001
NUM. TOTAL DE MUESTRAS, C7-C12         : 
ACEL. MAX. (Gal), C1-C6                : /1.02768/0.75316/0.95733
ACEL. MAX., C1-C6, EN LA MUESTRA       : /11878/12371/13046
ACEL. MAX. (Gal), C7-C12               : 
ACEL. MAX., C7-C12, EN LA MUESTRA      : 
UNIDADES DE LOS DATOS                  : Gal (cm/s/s)
FACTOR DE DECIMACION                   : 1
FORMATO DATOS (FORTRAN,10 campos/dato) : 3F10.5


================================================================================
CALIDAD DEL ACELEROGRAMA:
REGISTRO DIGITAL COMPLETO CON TIEMPO ABSOLUTO CORRECTO.


================================================================================
COMENTARIOS:














================================================================================
DATOS DE ACELERACION:
---------+---------+---------+---------+---------+---------+---------+---------+
   CANAL-1   CANAL-2   CANAL-3   CANAL-4   CANAL-5   CANAL-6   CANAL-7   CANAL-8
      N00E        +V      N90W
---------+---------+---------+---------+---------+---------+---------+---------+
[...]
  -0.16942   0.02494   0.23977
  -0.28912  -0.09476   0.17997
  -0.28912  -0.09476   0.17997
  -0.34892  -0.09476   0.12007
  -0.40882  -0.21446   0.12007
  -0.34892  -0.15466   0.12007
  -0.34892  -0.09476   3.7E-40
  -0.34892  -0.09476  -0.05953
  -0.34892  -0.09476  -0.11933
  -0.28912   0.02494  -0.23903
  -0.34892   0.02494  -0.29893
  -0.34892  -0.03496  -0.29893
  -0.28912  -0.03496  -0.29893
  -0.10952  -0.03496  -0.35873
  -0.04972  -0.03496  -0.41863
   0.12988  -0.03496  -0.47843
   0.07008  -0.03496  -0.47843
   0.07008  -0.03496  -0.53833
   0.18978  -0.03496  -0.47843
   0.36928  -0.03496  -0.41863
   0.42918  -0.03496  -0.41863
   0.48898  -0.09476  -0.35873
   0.48898  -0.09476  -0.29893
   0.48898  -0.15466  -0.23903
   0.60868  -0.09476  -0.17923
   0.60868  -0.15466  -0.17923
   0.72848  -0.15466  -0.17923
   0.72848  -0.09476  -0.11933
   0.66858  -0.09476  -0.11933
   0.66858  -0.09476  -0.05953
   0.60868  -0.03496  -0.05953
   0.60868  -0.03496  -0.05953
   0.66858  -0.03496  -0.05953
   0.60868  -0.09476   3.7E-40
   0.54888  -0.03496   0.06027
   0.42918  -0.09476   0.06027
   0.36928  -0.09476   0.12007
   0.30948  -0.09476   0.06027
   0.24958  -0.09476   0.12007
   0.30948  -0.15466   3.7E-40
   0.30948  -0.15466   0.12007
   0.30948  -0.03496   3.7E-40
   0.24958   0.02494   3.7E-40
   0.24958   0.14464   0.06027
   0.18978   0.08484   3.7E-40
   0.12988   0.08484   3.7E-40
   0.18978   0.14464   3.7E-40
   0.12988   0.14464  -0.05953
   0.12988   0.14464  -0.05953
   0.24958   0.20454  -0.05953
   0.12988   0.26434  -0.05953
   0.12988   0.20454   3.7E-40
   0.12988   0.14464   0.12007
   0.18978   0.14464   0.17997
   0.12988   0.20454   0.17997
   0.07008   0.08484   0.23977
   0.07008   0.02494   0.29967
   0.07008   0.14464   0.47917
   0.07008   0.14464   0.53907
   0.01018   0.14464   0.53907
  -0.04972   0.08484   0.53907
  -0.10952  -0.03496   0.47917
  -0.10952  -0.03496   0.47917
  -0.04972  -0.03496   0.47917
  -0.16942  -0.03496   0.47917
  -0.16942  -0.03496   0.53907
  -0.22922  -0.03496   0.53907
  -0.28912  -0.03496   0.41937
  -0.28912   0.02494   0.41937
  -0.34892  -0.03496   0.29967
  -0.28912   0.02494   0.23977
  -0.46862  -0.03496   0.23977
  -0.40882  -0.09476   0.23977
  -0.52852  -0.09476   0.17997
  -0.58832  -0.09476   0.12007
  -0.76792  -0.09476   0.06027
  -0.76792  -0.15466   3.7E-40
  -0.82782  -0.15466  -0.05953
  -0.76792  -0.21446  -0.05953
  -0.70812  -0.15466  -0.05953
  -0.64822  -0.09476   3.7E-40
  -0.64822  -0.09476   3.7E-40
  -0.64822  -0.03496  -0.05953
  -0.52852  -0.03496   0.06027
  -0.58832  -0.15466   3.7E-40
  -0.46862  -0.15466  -0.05953
  -0.46862  -0.21446  -0.05953
  -0.34892  -0.21446  -0.11933
  -0.22922  -0.21446  -0.11933
  -0.22922  -0.21446  -0.17923
  -0.22922  -0.21446  -0.11933
  -0.16942  -0.15466  -0.17923
  -0.10952  -0.09476  -0.23903
  -0.10952  -0.03496  -0.29893
  -0.04972  -0.03496  -0.29893
  -0.04972  -0.03496  -0.23903
  -0.04972  -0.09476  -0.23903
  -0.04972   0.02494  -0.29893
  -0.10952   0.08484  -0.23903
  -0.10952   0.08484  -0.29893
  -0.10952   0.14464  -0.29893
  -0.10952   0.14464  -0.35873
  -0.10952   0.20454  -0.29893
  -0.22922   0.14464  -0.23903
  -0.28912   0.08484  -0.29893
  -0.40882   0.02494  -0.35873
  -0.46862   0.08484  -0.29893
  -0.46862   0.02494  -0.41863
  -0.58832   0.02494  -0.41863
  -0.52852  -0.09476  -0.47843
  -0.40882  -0.03496  -0.53833
  -0.46862   0.08484  -0.53833
  -0.40882   0.08484  -0.47843
  -0.40882   0.14464  -0.53833
  -0.28912   0.14464  -0.65803
  -0.34892   0.08484  -0.71793
  -0.34892   0.14464  -0.59813
  -0.16942   0.14464  -0.65803
  -0.16942   0.08484  -0.71793
  -0.10952   0.02494  -0.71793
  -0.04972   0.02494  -0.65803
   0.07008   0.02494  -0.53833
   0.07008  -0.03496  -0.47843
   0.18978  -0.09476  -0.29893
   0.42918  -0.15466  -0.29893
   0.54888  -0.09476  -0.35873
   0.60868  -0.15466  -0.23903
   0.60868  -0.15466  -0.17923
   0.54888  -0.15466  -0.17923
   0.60868  -0.21446  -0.11933
   0.54888  -0.21446   3.7E-40
   0.60868  -0.27436   3.7E-40
   0.60868  -0.21446   0.06027
   0.48898  -0.15466   0.23977
   0.48898  -0.15466   0.29967
   0.48898  -0.27436   0.35947
   0.30948  -0.21446   0.47917
   0.24958  -0.15466   0.47917
   0.18978  -0.09476   0.41937
   0.18978  -0.15466   0.47917
   0.18978   0.02494   0.53907
   0.12988   0.08484   0.53907
   0.07008   0.20454   0.53907
   0.01018   0.08484   0.53907
  -0.04972   0.02494   0.47917
  -0.10952   0.02494   0.47917
  -0.10952   0.02494   0.47917
  -0.04972  -0.03496   0.47917
  -0.10952  -0.03496   0.41937
  -0.04972  -0.03496   0.35947
  -0.04972   0.02494   0.47917
  -0.04972  -0.03496   0.53907
  -0.10952   0.02494   0.41937
  -0.04972   0.08484   0.35947
   0.01018   0.02494   0.53907
   0.12988   0.02494   0.59887
   0.07008   0.08484   0.59887
   0.12988   0.14464   0.65877
   0.18978   0.08484   0.83837
   0.30948   0.02494   0.83837
   0.42918   0.08484   0.77847
   0.48898   0.02494   0.77847
   0.60868   0.08484   0.71867
   0.66858   0.08484   0.71867
   0.54888   0.14464   0.77847
   0.66858   0.14464   0.77847
   0.54888   0.14464   0.59887
   0.54888   0.08484   0.53907
   0.48898   0.14464   0.47917
   0.42918   0.14464   0.41937
   0.42918   0.14464   0.35947
   0.36928   0.08484   0.29967
   0.36928   0.02494   0.23977
   0.54888   0.08484   0.12007
   0.42918  -0.09476   0.06027
   0.42918   0.02494  -0.05953
   0.30948  -0.03496  -0.05953
   0.18978  -0.09476  -0.05953
   0.18978  -0.15466  -0.17923
   0.07008  -0.15466  -0.11933
   0.01018  -0.15466  -0.17923
   0.01018  -0.21446  -0.23903
   0.01018  -0.21446  -0.29893
   0.01018  -0.27436  -0.17923
  -0.04972  -0.21446  -0.17923
  -0.04972  -0.21446  -0.23903
  -0.10952  -0.21446  -0.23903
  -0.04972  -0.15466  -0.17923
  -0.04972  -0.15466  -0.23903
   0.01018  -0.09476  -0.23903
   0.07008  -0.09476  -0.17923
   0.12988  -0.21446  -0.17923
   0.18978  -0.15466  -0.17923
   0.18978  -0.15466  -0.05953
   0.30948  -0.09476  -0.11933
   0.24958  -0.15466  -0.05953
   0.18978  -0.15466  -0.17923
   0.24958  -0.09476  -0.17923
   0.24958  -0.03496  -0.23903
   0.24958  -0.03496  -0.23903
   0.18978   0.02494  -0.17923
   0.12988   0.02494  -0.17923
   0.18978   0.08484  -0.11933
   0.18978   0.14464  -0.23903
   0.12988   0.20454  -0.23903
   0.01018   0.20454  -0.23903
  -0.04972   0.20454  -0.29893
  -0.10952   0.14464  -0.35873
  -0.16942   0.20454  -0.35873
  -0.22922   0.20454  -0.47843
  -0.22922   0.20454  -0.53833
  -0.34892   0.20454  -0.53833
  -0.34892   0.26434  -0.47843
  -0.34892   0.32424  -0.47843
  -0.46862   0.32424  -0.47843
  -0.40882   0.26434  -0.47843
  -0.52852   0.20454  -0.29893
  -0.46862   0.14464  -0.35873
  -0.46862   0.20454  -0.29893
  -0.46862   0.20454  -0.29893
  -0.40882   0.20454  -0.29893
  -0.28912   0.20454  -0.23903
  -0.22922   0.20454  -0.23903
  -0.22922   0.20454  -0.17923
  -0.10952   0.20454  -0.11933
  -0.04972   0.14464  -0.05953
   0.01018   0.08484  -0.05953
   0.07008   0.02494   3.7E-40
   0.07008  -0.03496   0.06027
   0.24958  -0.03496   3.7E-40
   0.18978   0.02494   0.06027
   0.24958  -0.09476   0.17997
   0.30948  -0.15466   0.17997
   0.30948  -0.21446   0.12007
   0.18978  -0.21446   0.06027
   0.18978  -0.27436   3.7E-40
   0.12988  -0.27436   0.06027
   0.12988  -0.27436   0.17997
   0.01018  -0.33416   0.12007
   0.01018  -0.33416   0.23977
  -0.10952  -0.33416   0.17997
  -0.16942  -0.27436   0.06027
  -0.40882  -0.27436   0.06027
  -0.40882  -0.21446   0.12007
  -0.40882  -0.21446   0.06027
  -0.40882  -0.15466  -0.05953
  -0.40882  -0.09476  -0.17923
  -0.52852  -0.09476  -0.23903
  -0.52852  -0.03496  -0.23903
  -0.58832   0.02494  -0.23903
  -0.52852   0.02494  -0.35873
  -0.58832   0.02494  -0.35873
  -0.46862   0.02494  -0.29893
  -0.52852   0.02494  -0.17923
  -0.46862   0.02494  -0.05953
  -0.40882  -0.09476  -0.11933
  -0.34892  -0.03496  -0.17923
  -0.28912  -0.03496  -0.05953
  -0.34892  -0.03496   3.7E-40
  -0.40882   0.02494   3.7E-40
  -0.34892  -0.03496   3.7E-40
  -0.28912  -0.09476   3.7E-40
  -0.40882  -0.15466   3.7E-40
  -0.40882  -0.09476   0.06027
  -0.40882  -0.09476   0.06027
  -0.40882  -0.09476   0.06027
  -0.34892  -0.03496   0.06027
  -0.34892  -0.03496   3.7E-40
  -0.34892  -0.03496   0.17997
  -0.34892  -0.03496   0.17997
  -0.16942   0.02494   0.17997
  -0.10952   0.02494   0.12007
  -0.04972   0.14464   0.06027
  -0.04972   0.14464   3.7E-40
  -0.10952   0.08484  -0.05953
  -0.04972   0.08484   3.7E-40
  -0.04972   0.02494  -0.05953
   0.01018   0.08484  -0.11933
   0.07008   0.08484  -0.17923
   0.18978   0.08484  -0.17923
   0.18978   0.08484  -0.17923
   0.24958   0.02494  -0.23903
   0.36928   0.02494  -0.17923
   0.36928   0.02494  -0.17923
   0.42918  -0.03496  -0.23903
   0.42918  -0.09476  -0.29893
   0.42918  -0.15466  -0.23903
   0.36928  -0.27436  -0.23903
   0.30948  -0.33416  -0.17923
   0.24958  -0.33416  -0.11933
   0.24958  -0.33416  -0.11933
   0.18978  -0.33416  -0.11933
   0.12988  -0.33416  -0.05953
   0.01018  -0.33416   3.7E-40
   0.07008  -0.33416   0.06027
   0.07008  -0.27436   0.06027
  -0.04972  -0.39406   0.12007
  -0.10952  -0.27436   0.17997
  -0.22922  -0.21446   0.23977
  -0.28912  -0.21446   0.23977
  -0.28912  -0.15466   0.23977
  -0.22922   0.02494   0.29967
  -0.16942   0.08484   0.29967
  -0.16942   0.08484   0.23977
  -0.10952   0.14464   0.29967
  -0.04972   0.26434   0.29967
  -0.04972   0.32424   0.29967
   0.01018   0.32424   0.29967
   0.01018   0.44394   0.35947
   0.07008   0.38404   0.29967
   0.01018   0.44394   0.29967
   0.07008   0.44394   0.29967
   0.12988   0.38404   0.41937
   0.07008   0.32424   0.35947
   0.01018   0.32424   0.23977
   0.01018   0.26434   0.23977
  -0.04972   0.32424   0.23977
  -0.16942   0.26434   0.23977
  -0.22922   0.20454   0.29967
  -0.28912   0.14464   0.23977
  -0.28912   0.26434   0.23977
  -0.40882   0.20454   0.17997
  -0.40882   0.14464   0.17997
  -0.46862   0.14464   0.12007
  -0.52852   0.20454   0.12007
  -0.58832   0.14464   0.17997
  -0.52852   0.08484   0.17997
  -0.52852  -0.03496   0.17997
  -0.58832  -0.15466   0.06027
  -0.58832  -0.15466   0.06027
  -0.58832  -0.21446   3.7E-40
  -0.58832  -0.21446  -0.05953
  -0.40882  -0.21446  -0.11933
  -0.28912  -0.33416  -0.17923
  -0.16942  -0.33416  -0.11933
  -0.04972  -0.27436  -0.05953
   0.07008  -0.33416  -0.05953
   0.18978  -0.27436  -0.05953
   0.36928  -0.27436  -0.05953
   0.54888  -0.21446  -0.11933
   0.72848  -0.15466  -0.05953
   0.78828  -0.15466   0.12007
   0.84818  -0.15466   0.12007
   0.96788  -0.21446   3.7E-40
   0.96788  -0.15466   0.12007
   0.96788  -0.15466   0.17997
   1.02768  -0.15466   0.23977
   0.96788  -0.03496   0.23977
   0.96788  -0.03496   0.23977
   1.02768  -0.03496   0.23977
   1.02768  -0.03496   0.17997
   0.96788  -0.03496   0.12007
   0.84818  -0.09476   0.12007
   0.78828  -0.09476   0.17997
   0.66858  -0.09476   0.12007
   0.54888  -0.15466   0.12007
   0.48898  -0.09476   0.17997
   0.42918  -0.15466   0.06027
   0.30948  -0.15466   0.06027
   0.24958  -0.15466  -0.05953
   0.18978  -0.09476  -0.11933
   0.12988  -0.15466  -0.05953
   0.12988  -0.15466  -0.05953
   0.07008  -0.09476  -0.11933
   0.01018  -0.09476  -0.17923
   0.01018  -0.09476  -0.17923
   0.01018   0.02494  -0.23903
  -0.10952   0.08484  -0.17923
  -0.04972   0.02494  -0.11933
  -0.10952   0.08484  -0.11933
  -0.16942   0.14464  -0.11933
  -0.16942   0.08484  -0.05953
  -0.10952   0.14464  -0.11933
  -0.10952   0.14464  -0.05953
  -0.28912   0.02494   3.7E-40
  -0.22922   0.14464   0.17997
  -0.22922   0.20454   0.17997
  -0.28912   0.20454   0.23977
  -0.28912   0.38404   0.29967
  -0.28912   0.32424   0.41937
  -0.34892   0.44394   0.23977
  -0.40882   0.44394   0.23977
  -0.34892   0.44394   0.29967
  -0.46862   0.44394   0.17997
  -0.40882   0.38404   0.17997
  -0.46862   0.38404   0.12007
  -0.52852   0.38404  -0.05953
  -0.64822   0.38404  -0.11933
  -0.70812   0.32424  -0.11933
  -0.76792   0.26434  -0.17923
  -0.64822   0.32424  -0.23903
  -0.70812   0.08484  -0.11933
  -0.76792   0.02494  -0.17923
  -0.76792  -0.09476  -0.35873
  -0.70812  -0.15466  -0.41863
  -0.64822  -0.09476  -0.47843
  -0.58832  -0.09476  -0.47843
  -0.52852  -0.21446  -0.41863
  -0.52852  -0.33416  -0.47843
  -0.34892  -0.39406  -0.41863
  -0.22922  -0.33416  -0.47843
  -0.16942  -0.39406  -0.41863
  -0.10952  -0.33416  -0.41863
   0.01018  -0.33416  -0.35873
   0.12988  -0.39406  -0.35873
   0.18978  -0.45386  -0.29893
   0.24958  -0.39406  -0.17923
   0.36928  -0.45386  -0.29893
   0.42918  -0.45386  -0.35873
   0.48898  -0.33416  -0.47843
   0.54888  -0.39406  -0.41863
   0.66858  -0.33416  -0.41863
   0.78828  -0.33416  -0.53833
   0.84818  -0.27436  -0.47843
   0.96788  -0.21446  -0.35873
   0.96788  -0.21446  -0.35873
   0.96788  -0.15466  -0.29893
   0.96788  -0.09476  -0.17923
   0.90798  -0.09476  -0.17923
   0.90798   0.02494  -0.17923
   0.84818   0.14464  -0.11933
   0.78828   0.14464  -0.05953
   0.72848   0.14464  -0.05953
   0.66858   0.02494   3.7E-40
   0.54888   0.08484  -0.05953
   0.36928   0.08484  -0.05953
   0.18978   0.08484  -0.05953
   0.12988   0.20454  -0.05953
   0.01018   0.20454   3.7E-40
  -0.10952   0.08484   3.7E-40
  -0.28912   0.08484  -0.11933
  -0.34892   0.14464  -0.23903
  -0.46862   0.08484  -0.17923
  -0.58832   0.02494  -0.17923
  -0.58832   0.02494  -0.23903
  -0.64822   0.08484  -0.17923
  -0.64822   0.02494  -0.17923
  -0.64822   0.02494  -0.11933
  -0.58832   0.02494   3.7E-40
  -0.52852   0.02494   0.06027
  -0.52852   0.08484   0.17997
  -0.40882   0.08484   0.12007
  -0.28912   0.14464   0.17997
  -0.28912   0.14464   0.35947
  -0.28912   0.20454   0.41937
  -0.22922   0.20454   0.41937
  -0.22922   0.20454   0.41937
  -0.04972   0.20454   0.59887
  -0.10952   0.20454   0.59887
  -0.10952   0.20454   0.59887
  -0.04972   0.20454   0.53907
  -0.04972   0.20454   0.53907
   0.01018   0.20454   0.59887
  -0.04972   0.14464   0.53907
  -0.04972   0.20454   0.41937
  -0.10952   0.20454   0.35947
  -0.04972   0.20454   0.23977
  -0.10952   0.14464   0.06027
  -0.16942   0.08484  -0.05953
  -0.16942   0.02494  -0.11933
  -0.16942  -0.03496  -0.23903
  -0.22922   0.02494  -0.29893
  -0.22922   0.02494  -0.41863
  -0.22922   0.08484  -0.53833
  -0.22922  -0.03496  -0.59813
  -0.16942   0.02494  -0.65803
  -0.16942  -0.03496  -0.71793
  -0.10952  -0.09476  -0.65803
  -0.10952  -0.15466  -0.71793
  -0.10952  -0.27436  -0.71793
  -0.04972  -0.33416  -0.59813
  -0.04972  -0.33416  -0.59813
  -0.04972  -0.45386  -0.65803
   0.01018  -0.39406  -0.59813
   0.01018  -0.45386  -0.47843
   0.12988  -0.45386  -0.35873
   0.12988  -0.45386  -0.17923
   0.12988  -0.39406  -0.11933
   0.24958  -0.27436  -0.11933
   0.24958  -0.21446  -0.05953
   0.24958  -0.21446   3.7E-40
   0.30948  -0.21446   3.7E-40
   0.42918  -0.09476   0.12007
   0.42918  -0.03496   0.17997
   0.36928   0.02494   0.23977
   0.42918   0.02494   0.29967
   0.42918   0.02494   0.29967
   0.42918   0.20454   0.29967
   0.36928   0.38404   0.35947
   0.30948   0.26434   0.29967
   0.18978   0.26434   0.29967
   0.07008   0.26434   0.35947
   0.07008   0.26434   0.47917
  -0.10952   0.20454   0.47917
  -0.16942   0.20454   0.35947
  -0.22922   0.26434   0.47917
