********************************************************************************
               CENTRO DE INSTRUMENTACION Y REGISTRO SISMICO  A.C.  
                       Coordinacion de Servicios Tecnicos
     Anaxagoras 814, Col. Narvarte, Benito Juarez, C.P. 03020 Mexico, D.F.
            Tels. 667 45 42/ 687 45  82             Fax. 669 25 12
********************************************************************************
ARCHIVO ESTANDAR DE ACELERACION:
VERSION DEL FORMATO                    : 2.0
NOMBRE DEL ARCHIVO                     : AL019504.271
FECHA Y HORA DE CREACION               : 2/SEP/96
REF. CATALOGO ACELEROGRAMAS, SMIS 1996 : REGISTRO No.     /PAG.


================================================================================
DATOS DE LA ESTACION:
NOMBRE DE LA ESTACION                  : ALAMEDA
CLAVE DE LA ESTACION                   : AL01
LOCALIZACION DE LA ESTACION            : JARDIN ALAMEDA ENTRE AV. HIDALGO Y AV.
                                       : JUAREZ, CENTRO
                                       :
                                       :
                                       :
COORDENADAS DE LA ESTACION             : 19.436 LAT. N 
                                       : 99.145 LONG. W 
ALTITUD (msnm)                         : 2232
TIPO DE SUELO                          : TERRENO BLANDO, MATERIAL COMPRESIBLE
                                       : (ARCILLAS)
                                       : 
INSTITUCION RESPONSABLE                : CIRES 
                                       :

================================================================================
DATOS DEL ACELEROGRAFO:
MODELO DEL ACELEROGRAFO                : SSA-1
NUMERO DE SERIE DEL ACELEROGRAFO       : 152
NUMERO DE CANALES                      : 3
ORIENTACION C1-C6 (rumbo;orientacion)  : /N00E/+V/N90E
ORIENTACION C7-C12 (rumbo;orientacion) :
VEL. DE MUESTREO, C1-C6 (muestras/s)   : /200/200/200
VEL. DE MUESTREO, C7-C12 (muestras/s)  :
ESC. COMPLETA DE SENSORES, C1-C6, (g)  : /2/2/2
ESC. COMPLETA DE SENSORES, C7-C12, (g) :
FREC. NAT. DE SENSORES, C1-C6, (Hz)    : /50/50/50
FREC. NAT. DE SENSORES, C7-C12, (Hz)   :
AMORTIGUAMIENTO DE SENSORES, C1-C6     : /0.700/0.700/0.700
AMORTIGUAMIENTO DE SENSORES, C7-C12    :
INTERVALO DE MUESTREO, C1-C6, (s)      : /0.005/0.005/0.005
INTERVALO DE MUESTREO, C7-C12, (s)     :
UMBRAL DE DISPARO, C1-C6, (Gal)        : /2/1.5/2
UMBRAL DE DISPARO, C7-C12, (Gal)       :
MEMORIA DE PREEVENTO (s)               : 15
TIEMPO DE POSEVENTO (s)                : 60


================================================================================
DATOS DEL SISMO:
FECHA DEL SISMO (GMT)                  : 27/ABR/95
HORA EPICENTRO (GMT)                   : 06:42:25.6
MAGNITUD(ES)                           : /Mb=4.9/Ms=4.4/Mc=4.9
COORDENADAS DEL EPICENTRO              : 17.88 Lat N
                                       : 101.64 Lon W
PROFUNDIDAD FOCAL (km)                 : <5
FUENTE DE LOS DATOS EPICENTRALES       : SSN
                                       : INSTITUTO DE GEOFISICA, UNAM

================================================================================
DATOS DE ESTE REGISTRO:
HORA DE LA PRIMERA MUESTRA (GMT)       : 06:43:45.00
EXACTITUD DEL TIEMPO (s)               :     
DURACION DEL REGISTRO (s), C1-C6       : /78.08/78.08/78.08
DURACION DEL REGISTRO (s), C7-C12      :
NUM. TOTAL DE MUESTRAS, C1-C6          : /15616/15616/15616
NUM. TOTAL DE MUESTRAS, C7-C12         :
ACEL. MAX. (Gal), C1-C6                : /1.83603/0.84861/1.84403
ACEL. MAX., C1-C6, EN LA MUESTRA       :
ACEL. MAX. (Gal), C7-C12               :
ACEL. MAX., C7-C12, EN LA MUESTRA      :
UNIDADES DE LOS DATOS                  : Gal (cm/s/s)
FACTOR DE DECIMACION                   : 1
FORMATO DATOS (FORTRAN,10 campos/dato) : 3F10.5


================================================================================
CALIDAD DEL ACELEROGRAMA:
REGISTRO DIGITAL COMPLETO, CARECE DE TIEMPO ABSOLUTO.


================================================================================
COMENTARIOS:














================================================================================
DATOS DE ACELERACION:
---------+---------+---------+---------+---------+---------+---------+---------+
   CANAL-1   CANAL-2   CANAL-3   CANAL-4   CANAL-5   CANAL-6   CANAL-7   CANAL-8
      N00E        +V      N90E
---------+---------+---------+---------+---------+---------+---------+---------+
[...]
  -0.07397  -0.12861  -0.79597
  -0.31397  -0.12861  -0.79597
  -0.07397  -0.12861  -0.79597
  -0.07397  -0.12861  -0.79597
  -0.07397  -0.12861  -0.79597
  -0.31397  -0.12861  -0.79597
  -0.31397  -0.12861  -0.79597
  -0.31397  -0.12861  -0.79597
  -0.31397  -0.12861  -0.79597
  -0.31397  -0.12861  -0.55597
  -0.31397  -0.12861  -0.55597
  -0.31397  -0.12861  -0.55597
  -0.31397  -0.12861  -0.55597
  -0.31397  -0.12861  -0.55597
  -0.55397  -0.12861  -0.55597
  -0.31397  -0.12861  -0.31597
  -0.55397  -0.12861  -0.55597
  -0.55397   0.11139  -0.55597
  -0.55397   0.11139  -0.31597
  -0.55397   0.11139  -0.31597
  -0.55397   0.11139  -0.31597
  -0.55397   0.11139  -0.31597
  -0.55397   0.11139  -0.31597
  -0.55397   0.11139  -0.31597
  -0.55397   0.11139  -0.31597
  -0.55397   0.11139  -0.31597
  -0.55397   0.11139  -0.31597
  -0.55397   0.11139  -0.07597
  -0.55397   0.11139  -0.07597
  -0.55397   0.11139  -0.07597
  -0.55397   0.11139  -0.07597
  -0.55397   0.11139  -0.07597
  -0.55397   0.35139  -0.07597
  -0.55397   0.11139  -0.07597
  -0.55397   0.35139  -0.07597
  -0.55397   0.11139  -0.07597
  -0.55397  -0.12861  -0.07597
  -0.55397  -0.12861  -0.07597
  -0.55397  -0.12861  -0.07597
  -0.55397  -0.12861  -0.07597
  -0.55397  -0.12861  -0.07597
  -0.55397  -0.12861  -0.07597
  -0.55397  -0.12861  -0.07597
  -0.55397  -0.12861  -0.07597
  -0.31397  -0.12861  -0.07597
  -0.31397  -0.12861  -0.07597
  -0.31397  -0.12861  -0.07597
  -0.31397  -0.12861  -0.07597
  -0.31397   0.11139  -0.07597
  -0.31397   0.11139  -0.07597
  -0.31397  -0.12861   0.16403
  -0.31397  -0.12861   0.16403
  -0.31397  -0.12861   0.16403
  -0.31397  -0.12861   0.16403
  -0.31397  -0.12861   0.16403
  -0.07397  -0.12861   0.16403
  -0.07397  -0.12861   0.16403
  -0.07397  -0.12861   0.16403
  -0.07397  -0.12861   0.40403
  -0.07397  -0.12861   0.40403
  -0.07397  -0.12861   0.40403
   0.16603  -0.12861   0.40403
   0.16603  -0.12861   0.40403
   0.16603  -0.12861   0.40403
   0.16603  -0.12861   0.40403
   0.16603  -0.12861   0.40403
   0.16603  -0.12861   0.40403
   0.16603  -0.12861   0.64403
   0.16603  -0.12861   0.64403
   0.39603  -0.12861   0.64403
   0.39603  -0.12861   0.64403
   0.39603  -0.12861   0.64403
   0.39603  -0.12861   0.64403
   0.39603  -0.12861   0.88403
   0.39603  -0.12861   0.88403
   0.39603  -0.12861   0.88403
   0.39603  -0.12861   0.88403
   0.39603  -0.12861   0.88403
   0.39603  -0.12861   0.88403
   0.39603  -0.12861   0.88403
   0.39603  -0.12861   0.88403
   0.39603  -0.12861   0.88403
   0.39603  -0.12861   0.88403
   0.39603  -0.12861   0.88403
   0.39603  -0.12861   0.88403
   0.39603  -0.12861   1.12403
   0.16603  -0.12861   1.12403
   0.39603  -0.12861   1.12403
   0.39603  -0.12861   1.12403
   0.39603  -0.12861   1.12403
   0.16603  -0.12861   1.12403
   0.16603  -0.12861   1.12403
   0.16603  -0.12861   1.12403
   0.16603  -0.12861   1.12403
   0.16603  -0.36861   1.12403
   0.16603  -0.36861   1.12403
   0.16603  -0.12861   1.12403
   0.16603  -0.36861   1.12403
  -0.07397  -0.12861   1.12403
  -0.07397  -0.12861   1.12403
  -0.07397  -0.12861   1.12403
  -0.07397  -0.12861   1.12403
  -0.07397  -0.12861   1.12403
  -0.07397  -0.12861   1.12403
  -0.07397  -0.12861   1.12403
  -0.31397   0.11139   1.12403
  -0.31397   0.11139   1.12403
  -0.31397   0.11139   1.12403
  -0.31397  -0.12861   1.12403
  -0.31397   0.11139   1.12403
  -0.31397  -0.12861   1.12403
  -0.55397  -0.12861   1.12403
  -0.55397  -0.12861   1.12403
  -0.55397  -0.12861   1.12403
  -0.55397  -0.12861   1.12403
  -0.55397  -0.12861   1.12403
  -0.55397   0.11139   1.12403
  -0.55397  -0.12861   1.12403
  -0.79397  -0.12861   1.12403
  -0.79397  -0.12861   1.12403
  -0.79397  -0.12861   1.12403
  -0.79397  -0.12861   1.12403
  -0.79397  -0.12861   1.12403
  -0.79397  -0.12861   0.64403
  -0.79397  -0.12861   0.88403
  -0.55397  -0.12861   1.12403
  -1.03397  -0.12861   1.12403
  -0.79397   0.11139   1.12403
  -0.79397   0.11139   0.88403
  -1.03397   0.11139   1.12403
  -0.79397   0.11139   1.12403
  -0.79397   0.11139   1.12403
  -0.79397   0.11139   0.88403
  -0.79397   0.11139   0.88403
  -0.55397   0.11139   1.12403
  -0.79397   0.11139   0.88403
  -0.79397  -0.12861   0.88403
  -0.79397  -0.12861   0.88403
  -0.55397  -0.12861   0.88403
  -0.79397  -0.12861   0.88403
  -0.55397  -0.12861   0.88403
  -0.55397  -0.12861   0.88403
  -0.55397  -0.12861   0.88403
  -0.55397  -0.12861   0.88403
  -0.55397  -0.12861   0.88403
  -0.55397  -0.12861   0.64403
  -0.55397  -0.12861   0.64403
  -0.55397   0.11139   0.64403
  -0.55397   0.35139   0.64403
  -0.55397   0.35139   0.64403
  -0.31397   0.11139   0.64403
  -0.31397   0.11139   0.64403
  -0.31397  -0.12861   0.40403
  -0.31397  -0.12861   0.40403
  -0.31397   0.11139   0.40403
  -0.31397   0.11139   0.40403
  -0.31397   0.11139   0.64403
  -0.31397   0.11139   0.64403
  -0.07397  -0.12861   0.64403
  -0.07397  -0.12861   0.40403
  -0.07397  -0.12861   0.40403
  -0.07397  -0.12861   0.16403
  -0.07397  -0.12861   0.16403
  -0.07397  -0.12861   0.16403
   0.16603  -0.12861   0.40403
   0.16603  -0.12861   0.16403
   0.16603  -0.12861   0.16403
   0.39603   0.11139   0.16403
   0.39603   0.11139   0.16403
   0.39603   0.11139   0.16403
   0.39603   0.11139   0.16403
   0.39603   0.11139   0.16403
   0.39603   0.11139   0.16403
   0.63603   0.11139  -0.07597
   0.63603   0.11139  -0.07597
   0.63603   0.11139  -0.07597
   0.63603   0.11139  -0.07597
   0.63603   0.11139  -0.07597
   0.63603   0.11139  -0.07597
   0.63603   0.11139  -0.07597
   0.63603   0.11139  -0.07597
   0.63603   0.11139  -0.07597
   0.63603   0.11139  -0.31597
   0.63603   0.11139  -0.31597
   0.87603   0.11139  -0.31597
   0.87603   0.11139  -0.31597
   0.87603   0.11139  -0.31597
   0.87603   0.11139  -0.31597
   0.87603   0.11139  -0.55597
   0.87603   0.11139  -0.55597
   0.87603   0.11139  -0.79597
   0.87603   0.11139  -0.55597
   0.87603   0.11139  -0.79597
   0.87603   0.11139  -0.79597
   0.87603   0.11139  -0.79597
   1.11603   0.11139  -0.79597
   0.87603   0.11139  -0.79597
   0.87603   0.11139  -0.79597
   0.87603   0.11139  -0.79597
   1.11603   0.11139  -0.79597
   1.11603   0.11139  -0.79597
   1.11603   0.35139  -0.79597
   1.11603   0.35139  -1.03597
   1.11603   0.11139  -1.03597
   0.87603   0.35139  -1.03597
   0.87603   0.35139  -1.03597
   1.11603   0.35139  -1.03597
   1.11603   0.35139  -1.27597
   1.11603   0.35139  -1.27597
   1.11603   0.35139  -1.27597
   1.11603   0.35139  -1.27597
   0.87603   0.35139  -1.27597
   1.11603  -0.12861  -1.27597
   0.87603   0.11139  -1.27597
   1.11603   0.11139  -1.27597
   1.11603   0.11139  -1.27597
   1.11603   0.11139  -1.27597
   0.87603   0.11139  -1.27597
   0.87603   0.11139  -1.27597
   0.87603   0.11139  -1.27597
   1.11603   0.11139  -1.27597
   1.11603   0.11139  -1.27597
   0.87603   0.11139  -1.51597
   1.11603   0.11139  -1.27597
   0.87603  -0.12861  -1.27597
   0.87603  -0.12861  -1.27597
   0.87603  -0.12861  -1.27597
   0.87603  -0.12861  -1.27597
   0.87603  -0.12861  -1.27597
   0.87603  -0.12861  -1.03597
   0.87603  -0.12861  -1.03597
   0.87603  -0.12861  -1.03597
   0.87603  -0.12861  -1.03597
   0.87603  -0.12861  -1.03597
   0.87603  -0.12861  -1.03597
   0.87603  -0.12861  -0.79597
   0.87603  -0.12861  -1.03597
   0.87603  -0.12861  -0.79597
   0.63603  -0.12861  -0.79597
   0.63603  -0.12861  -0.79597
   0.63603  -0.12861  -0.79597
   0.63603  -0.12861  -0.79597
   0.63603  -0.12861  -0.79597
   0.39603  -0.12861  -0.79597
   0.39603  -0.12861  -0.79597
   0.39603  -0.12861  -0.79597
   0.16603  -0.12861  -0.55597
   0.16603  -0.12861  -0.55597
   0.16603  -0.12861  -0.55597
   0.16603  -0.12861  -0.55597
  -0.07397  -0.12861  -0.31597
  -0.07397  -0.12861  -0.31597
  -0.07397  -0.12861  -0.31597
  -0.31397  -0.12861  -0.55597
  -0.31397  -0.12861  -0.31597
  -0.31397  -0.12861  -0.31597
  -0.55397  -0.12861  -0.55597
  -0.55397  -0.12861  -0.55597
  -0.55397  -0.12861  -0.31597
  -0.55397   0.11139  -0.31597
  -0.55397   0.11139  -0.31597
  -0.79397   0.11139  -0.31597
  -0.79397   0.11139  -0.31597
  -0.79397   0.11139  -0.55597
  -0.79397   0.11139  -0.55597
  -1.03397   0.11139  -0.55597
  -1.03397   0.11139  -0.55597
  -1.03397   0.11139  -0.55597
  -1.03397   0.11139  -0.55597
  -1.27397   0.11139  -0.55597
  -1.03397   0.11139  -0.55597
  -1.03397   0.11139  -0.55597
  -1.03397   0.11139  -0.55597
  -1.27397   0.11139  -0.55597
  -1.27397   0.11139  -0.55597
  -1.27397   0.35139  -0.55597
  -1.27397   0.35139  -0.55597
  -1.27397   0.35139  -0.55597
  -1.27397   0.11139  -0.79597
  -1.27397   0.11139  -0.55597
  -1.27397   0.11139  -0.79597
  -1.27397   0.11139  -0.79597
  -1.27397   0.11139  -0.79597
  -1.27397   0.11139  -0.79597
  -1.27397   0.11139  -0.79597
  -1.27397   0.35139  -0.79597
  -1.27397   0.35139  -0.79597
  -1.27397   0.11139  -0.79597
  -1.03397   0.11139  -0.79597
  -1.27397   0.11139  -0.79597
  -1.27397   0.11139  -0.79597
  -1.27397   0.11139  -0.79597
  -1.03397  -0.12861  -1.03597
  -1.03397  -0.12861  -0.79597
  -1.03397  -0.12861  -0.79597
  -1.03397  -0.12861  -0.79597
  -1.03397  -0.12861  -0.79597
  -1.03397  -0.12861  -0.79597
  -1.03397  -0.12861  -0.79597
  -1.03397  -0.12861  -0.79597
  -1.03397  -0.12861  -0.79597
  -1.03397  -0.12861  -0.79597
  -0.79397  -0.12861  -0.79597
  -0.79397  -0.12861  -0.79597
  -0.79397  -0.12861  -0.79597
  -0.79397  -0.12861  -0.79597
  -0.79397  -0.36861  -0.55597
  -0.79397  -0.36861  -0.55597
  -0.79397  -0.36861  -0.55597
  -0.79397  -0.36861  -0.55597
  -0.55397  -0.36861  -0.55597
  -0.55397  -0.36861  -0.55597
  -0.55397  -0.36861  -0.55597
  -0.55397  -0.36861  -0.31597
  -0.55397  -0.12861  -0.31597
  -0.55397  -0.36861  -0.31597
  -0.31397  -0.36861  -0.31597
  -0.31397  -0.36861  -0.07597
  -0.31397  -0.12861  -0.07597
  -0.31397  -0.12861  -0.07597
  -0.31397  -0.12861   0.16403
  -0.31397  -0.12861   0.16403
  -0.31397  -0.12861   0.16403
  -0.31397  -0.12861   0.40403
  -0.31397  -0.12861   0.40403
  -0.31397  -0.12861   0.64403
  -0.07397   0.11139   0.64403
  -0.31397   0.11139   0.64403
  -0.07397   0.11139   0.64403
  -0.07397   0.11139   0.88403
  -0.31397  -0.12861   0.88403
  -0.07397   0.11139   0.88403
  -0.07397   0.11139   1.12403
  -0.31397   0.11139   1.12403
  -0.07397   0.11139   1.12403
  -0.07397   0.11139   1.12403
  -0.07397   0.11139   1.12403
  -0.07397   0.11139   1.36403
  -0.07397   0.11139   1.36403
  -0.07397   0.11139   1.36403
  -0.07397   0.11139   1.36403
   0.16603   0.11139   1.36403
   0.16603   0.11139   1.36403
   0.16603   0.11139   1.36403
   0.16603   0.35139   1.60403
   0.16603   0.35139   1.60403
   0.16603   0.35139   1.60403
   0.16603   0.35139   1.60403
   0.16603   0.35139   1.60403
   0.16603   0.35139   1.84403
   0.16603   0.35139   1.84403
  -0.07397   0.35139   1.84403
   0.16603   0.11139   1.84403
   0.16603   0.11139   1.84403
   0.16603   0.11139   1.60403
   0.16603   0.11139   1.84403
   0.16603   0.11139   1.60403
  -0.07397   0.35139   1.60403
   0.16603   0.35139   1.84403
   0.16603   0.35139   1.84403
   0.16603   0.11139   1.60403
   0.16603   0.11139   1.36403
   0.16603   0.11139   1.60403
   0.16603   0.35139   1.60403
  -0.07397   0.35139   1.60403
  -0.07397   0.35139   1.60403
  -0.07397   0.35139   1.60403
  -0.07397   0.35139   1.36403
  -0.07397   0.35139   1.36403
  -0.07397   0.35139   1.36403
  -0.07397   0.35139   1.36403
  -0.07397   0.11139   1.36403
  -0.07397   0.11139   1.36403
  -0.07397   0.11139   1.36403
  -0.07397   0.11139   1.36403
  -0.07397   0.11139   1.36403
  -0.07397   0.11139   1.12403
  -0.07397  -0.12861   1.12403
  -0.07397  -0.12861   1.12403
  -0.07397  -0.12861   1.12403
  -0.07397  -0.12861   1.12403
  -0.07397  -0.12861   1.12403
  -0.07397  -0.12861   1.12403
  -0.07397  -0.12861   0.88403
  -0.07397  -0.12861   0.88403
  -0.07397  -0.12861   0.88403
  -0.07397  -0.12861   0.88403
  -0.07397  -0.12861   0.88403
  -0.07397  -0.12861   0.88403
  -0.07397   0.11139   0.88403
  -0.07397  -0.12861   0.64403
  -0.07397  -0.12861   0.64403
  -0.07397  -0.12861   0.64403
  -0.07397  -0.12861   0.64403
   0.16603  -0.12861   0.64403
  -0.07397  -0.12861   0.40403
   0.16603  -0.12861   0.40403
   0.16603  -0.12861   0.40403
   0.16603  -0.12861   0.40403
   0.16603  -0.12861   0.40403
   0.16603  -0.36861   0.16403
   0.16603  -0.12861   0.16403
   0.39603  -0.12861   0.16403
   0.39603  -0.12861   0.16403
   0.39603  -0.12861  -0.07597
   0.39603  -0.12861  -0.07597
   0.39603  -0.12861  -0.07597
   0.39603  -0.12861  -0.07597
   0.39603  -0.12861  -0.31597
   0.39603  -0.12861  -0.31597
   0.39603  -0.12861  -0.31597
   0.39603  -0.12861  -0.31597
   0.39603  -0.12861  -0.31597
   0.39603  -0.12861  -0.31597
   0.39603  -0.12861  -0.31597
   0.39603  -0.12861  -0.55597
   0.39603  -0.12861  -0.55597
   0.39603  -0.12861  -0.55597
   0.39603  -0.12861  -0.55597
   0.39603  -0.12861  -0.55597
   0.39603  -0.12861  -0.55597
   0.39603  -0.12861  -0.79597
   0.39603  -0.12861  -0.79597
   0.39603  -0.12861  -0.79597
   0.39603  -0.12861  -0.79597
   0.39603  -0.12861  -0.79597
   0.39603  -0.12861  -0.79597
   0.39603  -0.12861  -0.79597
   0.39603  -0.12861  -0.79597
   0.16603  -0.12861  -0.79597
   0.39603  -0.12861  -0.79597
   0.39603  -0.12861  -0.79597
   0.39603  -0.12861  -0.79597
   0.39603  -0.12861  -0.79597
   0.39603  -0.12861  -0.79597
   0.39603  -0.12861  -0.79597
   0.39603  -0.36861  -0.79597
   0.39603  -0.36861  -0.79597
   0.39603  -0.36861  -0.79597
   0.39603  -0.36861  -0.79597
   0.39603  -0.36861  -0.79597
   0.39603  -0.36861  -0.79597
   0.39603  -0.36861  -0.79597
   0.39603  -0.36861  -0.79597
   0.39603  -0.12861  -0.79597
   0.39603  -0.12861  -0.55597
   0.39603  -0.12861  -0.55597
   0.39603  -0.12861  -0.55597
   0.39603  -0.12861  -0.55597
   0.63603  -0.12861  -0.55597
   0.63603  -0.12861  -0.55597
   0.63603  -0.12861  -0.31597
   0.63603  -0.12861  -0.31597
   0.63603  -0.12861  -0.31597
   0.39603  -0.12861  -0.31597
   0.63603   0.11139  -0.31597
   0.63603   0.11139  -0.07597
   0.63603   0.11139  -0.07597
   0.63603   0.11139  -0.07597
   0.63603   0.11139  -0.07597
   0.63603   0.11139  -0.07597
   0.63603   0.11139  -0.07597
   0.63603   0.11139   0.16403
   0.63603   0.11139   0.16403
   0.63603   0.11139   0.16403
   0.63603   0.11139   0.16403
   0.87603   0.11139   0.16403
   0.87603   0.11139   0.16403
   0.87603   0.11139   0.16403
   0.87603   0.11139   0.16403
   0.87603   0.11139   0.16403
   0.87603   0.11139   0.40403
   0.87603   0.35139   0.40403
   0.87603   0.11139   0.40403
   0.87603   0.11139   0.40403
   0.87603   0.35139   0.40403
   0.87603   0.11139   0.40403
   0.87603   0.11139   0.40403
   0.87603   0.11139   0.40403
   0.87603   0.11139   0.64403
   0.87603   0.11139   0.40403
   0.87603   0.11139   0.40403
   0.87603   0.11139   0.40403
   0.87603   0.11139   0.16403
   0.87603   0.11139   0.64403
   0.87603   0.11139   0.40403
   0.87603   0.11139   0.40403
   0.63603   0.11139   0.40403
   0.87603   0.11139   0.40403
   0.63603   0.11139   0.40403
   0.63603   0.11139   0.40403
   0.63603   0.35139   0.40403
   0.63603   0.35139   0.16403
   0.63603   0.11139   0.40403
   0.63603   0.11139   0.16403
   0.63603   0.11139   0.40403
   0.63603   0.11139   0.16403
   0.63603  -0.12861   0.16403
   0.39603   0.11139   0.16403
   0.63603   0.11139   0.16403
