********************************************************************************
               CENTRO DE INSTRUMENTACION Y REGISTRO SISMICO  A.C.  
                       Coordinacion de Servicios Tecnicos
     Anaxagoras 814, Col. Narvarte, Benito Juarez, C.P. 03020 Mexico, D.F.
            Tels. 667 45 42/ 687 45  82             Fax. 669 25 12
********************************************************************************
ARCHIVO ESTANDAR DE ACELERACION:
VERSION DEL FORMATO                    : 2.0
NOMBRE DEL ARCHIVO                     : AL019602.253
FECHA Y HORA DE CREACION               : 27/MAR/98, 3:55
REF. CATALOGO ACELEROGRAMAS, SMIS 1996 : REGISTRO No.     /PAG.


================================================================================
DATOS DE LA ESTACION:
NOMBRE DE LA ESTACION                  : ALAMEDA
CLAVE DE LA ESTACION                   : AL01
LOCALIZACION DE LA ESTACION            : JARDIN ALAMEDA ENTRE AV. HIDALGO Y AV.
                                       : JUAREZ, CENTRO
                                       :
                                       :
                                       :
COORDENADAS DE LA ESTACION             : 19.436 LAT. N 
                                       : 99.145 LONG. W 
ALTITUD (msnm)                         : 2232
TIPO DE SUELO                          : TERRENO BLANDO, MATERIAL COMPRESIBLE
                                       : (ARCILLAS)
                                       : 
INSTITUCION RESPONSABLE                : CIRES 
                                       :

================================================================================
DATOS DEL ACELEROGRAFO:
MODELO DEL ACELEROGRAFO                : SSA-1
NUMERO DE SERIE DEL ACELEROGRAFO       : 152
NUMERO DE CANALES                      : 3
ORIENTACION C1-C6 (rumbo;orientacion)  : /N00E/+V/N90E
ORIENTACION C7-C12 (rumbo;orientacion) :
VEL. DE MUESTREO, C1-C6 (muestras/s)   : /200/200/200
VEL. DE MUESTREO, C7-C12 (muestras/s)  :
ESC. COMPLETA DE SENSORES, C1-C6, (g)  : /2/2/2
ESC. COMPLETA DE SENSORES, C7-C12, (g) :
FREC. NAT. DE SENSORES, C1-C6, (Hz)    : /51.29/51.09/53.75
FREC. NAT. DE SENSORES, C7-C12, (Hz)   :
AMORTIGUAMIENTO DE SENSORES, C1-C6     : /0.5519/0.5670/0.5810
AMORTIGUAMIENTO DE SENSORES, C7-C12    :
INTERVALO DE MUESTREO, C1-C6, (s)      : /0.005/0.005/0.005
INTERVALO DE MUESTREO, C7-C12, (s)     : 
UMBRAL DE DISPARO, C1-C6, (Gal)        : /2/1.5/2
UMBRAL DE DISPARO, C7-C12, (Gal)       :
MEMORIA DE PREEVENTO (s)               : 15
TIEMPO DE POSEVENTO (s)                : 60


================================================================================
DATOS DEL SISMO:
FECHA DEL SISMO (GMT)                  : 25/FEB/96
HORA EPICENTRO (GMT)                   : 09:17:57,2
MAGNITUD(ES)                           : /Mb=5.6/Ms=5.4/Mc=5.4
COORDENADAS DEL EPICENTRO              : 15.860 LAT. N
                                       : 98.130 LONG. W
PROFUNDIDAD FOCAL (km)                 : 17.0
FUENTE DE LOS DATOS EPICENTRALES       : SSN
                                       : INSTITUTO DE GEOFISICA, UNAM

================================================================================
DATOS DE ESTE REGISTRO:
HORA DE LA PRIMERA MUESTRA (GMT)       : 09:19:45.00
EXACTITUD DEL TIEMPO (s)               :     
DURACION DEL REGISTRO (s), C1-C6       : /78.08/78.08/78.08
DURACION DEL REGISTRO (s), C7-C12      :
NUM. TOTAL DE MUESTRAS, C1-C6          : /15616/15616/15616
NUM. TOTAL DE MUESTRAS, C7-C12         :
ACEL. MAX. (Gal), C1-C6                : /1.32928/0.62318/2.75632
ACEL. MAX., C1-C6, EN LA MUESTRA       :
ACEL. MAX. (Gal), C7-C12               :
ACEL. MAX., C7-C12, EN LA MUESTRA      :
UNIDADES DE LOS DATOS                  : Gal (cm/s/s)
FACTOR DE DECIMACION                   : 1
FORMATO DATOS (FORTRAN,10 campos/dato) : 3F10.5


================================================================================
CALIDAD DEL ACELEROGRAMA:
REGISTRO DIGITAL COMPLETO, CARECE DE TIEMPO ABSOLUTO.


================================================================================
COMENTARIOS:














================================================================================
DATOS DE ACELERACION:
---------+---------+---------+---------+---------+---------+---------+---------+
   CANAL-1   CANAL-2   CANAL-3   CANAL-4   CANAL-5   CANAL-6   CANAL-7   CANAL-8
      N00E        +V      N90E
---------+---------+---------+---------+---------+---------+---------+---------+
[...]
   0.11072   0.14318   1.07632
   0.11072  -0.09682   1.07632
   0.11072   0.14318   1.07632
  -0.12928   0.14318   1.07632
   0.11072   0.14318   1.07632
   0.11072   0.14318   1.07632
   0.11072  -0.09682   1.07632
   0.11072  -0.09682   1.07632
   0.11072   0.14318   1.07632
   0.11072  -0.09682   1.07632
   0.11072  -0.09682   1.07632
   0.11072  -0.09682   1.07632
   0.11072  -0.09682   1.31632
   0.11072   0.14318   1.31632
   0.11072  -0.09682   1.07632
   0.11072  -0.09682   1.31632
   0.11072  -0.09682   1.31632
   0.11072   0.14318   1.31632
   0.11072  -0.09682   1.31632
   0.11072  -0.09682   1.31632
   0.11072  -0.09682   1.31632
   0.11072  -0.09682   1.31632
   0.11072   0.14318   1.31632
   0.11072  -0.09682   1.31632
   0.11072  -0.09682   1.31632
   0.11072  -0.09682   1.31632
   0.11072  -0.09682   1.31632
   0.11072  -0.09682   1.31632
   0.11072  -0.09682   1.31632
   0.11072  -0.09682   1.55632
   0.11072   0.14318   1.31632
   0.11072   0.14318   1.55632
   0.11072   0.14318   1.31632
   0.11072   0.14318   1.55632
   0.11072   0.14318   1.55632
   0.11072   0.14318   1.55632
   0.11072   0.14318   1.31632
   0.11072   0.14318   1.55632
   0.11072   0.14318   1.55632
   0.11072   0.14318   1.31632
   0.11072   0.14318   1.55632
   0.11072  -0.09682   1.31632
   0.11072   0.14318   1.31632
   0.11072   0.14318   1.31632
   0.11072   0.14318   1.31632
   0.11072   0.14318   1.31632
   0.11072   0.14318   1.31632
   0.11072   0.14318   1.31632
   0.11072   0.14318   1.31632
   0.11072   0.14318   1.31632
   0.11072   0.14318   1.31632
   0.11072   0.14318   1.31632
   0.11072  -0.33682   1.31632
   0.11072  -0.09682   1.07632
   0.11072  -0.09682   1.07632
   0.11072  -0.09682   1.07632
   0.11072  -0.09682   1.07632
   0.11072  -0.09682   1.07632
   0.35072  -0.09682   1.07632
   0.11072  -0.09682   1.07632
   0.35072  -0.33682   0.83632
   0.35072  -0.33682   0.83632
   0.35072  -0.33682   0.83632
   0.35072  -0.09682   0.83632
   0.35072  -0.33682   0.83632
   0.35072  -0.33682   0.83632
   0.35072  -0.33682   0.59632
   0.35072  -0.33682   0.59632
   0.35072  -0.33682   0.59632
   0.35072  -0.33682   0.59632
   0.35072  -0.33682   0.59632
   0.35072  -0.33682   0.35632
   0.35072  -0.09682   0.35632
   0.59072  -0.33682   0.35632
   0.59072  -0.33682   0.35632
   0.59072  -0.33682   0.35632
   0.59072  -0.33682   0.35632
   0.59072  -0.33682   0.11632
   0.59072  -0.33682   0.11632
   0.59072  -0.33682   0.11632
   0.35072  -0.33682   0.11632
   0.59072  -0.33682   0.11632
   0.59072  -0.33682   0.11632
   0.59072  -0.33682   0.11632
   0.59072  -0.33682   0.11632
   0.59072  -0.33682  -0.12368
   0.59072  -0.33682  -0.12368
   0.59072  -0.09682  -0.12368
   0.59072  -0.33682  -0.12368
   0.59072  -0.09682  -0.12368
   0.59072  -0.09682  -0.12368
   0.59072  -0.09682  -0.12368
   0.59072  -0.09682  -0.12368
   0.59072  -0.09682  -0.12368
   0.59072  -0.09682  -0.12368
   0.59072  -0.09682  -0.35368
   0.59072  -0.09682  -0.35368
   0.59072  -0.09682  -0.35368
   0.59072  -0.09682  -0.35368
   0.59072  -0.09682  -0.59368
   0.59072  -0.09682  -0.35368
   0.59072  -0.09682  -0.35368
   0.59072  -0.09682  -0.35368
   0.59072  -0.09682  -0.35368
   0.59072  -0.09682  -0.35368
   0.59072  -0.09682  -0.35368
   0.59072  -0.09682  -0.35368
   0.59072  -0.09682  -0.35368
   0.35072  -0.09682  -0.35368
   0.59072  -0.09682  -0.59368
   0.35072  -0.09682  -0.59368
   0.35072  -0.09682  -0.59368
   0.35072  -0.09682  -0.59368
   0.35072  -0.09682  -0.59368
   0.35072  -0.09682  -0.83368
   0.11072  -0.09682  -0.59368
   0.11072   0.14318  -0.59368
   0.11072  -0.09682  -0.59368
   0.11072   0.14318  -0.83368
   0.11072   0.14318  -0.83368
   0.11072   0.14318  -0.83368
   0.11072   0.14318  -0.83368
   0.11072  -0.09682  -0.83368
   0.11072   0.14318  -0.83368
  -0.12928  -0.09682  -0.83368
  -0.12928   0.14318  -1.07368
  -0.12928  -0.09682  -1.07368
  -0.12928   0.14318  -1.07368
  -0.12928   0.14318  -1.07368
  -0.12928   0.14318  -1.07368
  -0.12928  -0.09682  -1.31368
  -0.36928   0.14318  -1.31368
  -0.36928  -0.09682  -1.31368
  -0.36928  -0.09682  -1.31368
  -0.36928  -0.09682  -1.31368
  -0.36928   0.14318  -1.55368
  -0.36928  -0.09682  -1.55368
  -0.36928  -0.09682  -1.55368
  -0.36928  -0.09682  -1.55368
  -0.60928  -0.09682  -1.55368
  -0.60928  -0.09682  -1.79368
  -0.60928  -0.09682  -1.79368
  -0.60928  -0.09682  -1.79368
  -0.60928  -0.09682  -1.79368
  -0.60928  -0.09682  -1.79368
  -0.60928  -0.09682  -2.03368
  -0.60928  -0.09682  -2.03368
  -0.60928  -0.09682  -2.03368
  -0.60928  -0.09682  -2.03368
  -0.60928  -0.09682  -2.03368
  -0.60928  -0.09682  -2.27368
  -0.60928  -0.09682  -2.27368
  -0.84928  -0.09682  -2.27368
  -0.84928  -0.09682  -2.27368
  -0.84928  -0.09682  -2.27368
  -0.84928  -0.09682  -2.27368
  -0.84928   0.14318  -2.27368
  -0.84928  -0.09682  -2.51368
  -0.84928  -0.09682  -2.51368
  -0.84928  -0.09682  -2.51368
  -0.84928   0.14318  -2.51368
  -0.84928  -0.09682  -2.51368
  -0.60928  -0.09682  -2.51368
  -0.84928  -0.09682  -2.51368
  -0.84928   0.14318  -2.51368
  -0.84928   0.14318  -2.51368
  -0.84928   0.14318  -2.51368
  -0.84928   0.14318  -2.51368
  -0.60928   0.14318  -2.51368
  -0.84928   0.14318  -2.51368
  -0.84928   0.14318  -2.51368
  -0.84928   0.14318  -2.51368
  -0.84928   0.14318  -2.51368
  -0.60928   0.14318  -2.51368
  -0.60928   0.14318  -2.51368
  -0.60928   0.14318  -2.51368
  -0.84928   0.14318  -2.51368
  -0.60928   0.14318  -2.51368
  -0.60928   0.14318  -2.51368
  -0.60928   0.14318  -2.51368
  -0.60928   0.14318  -2.51368
  -0.60928   0.14318  -2.51368
  -0.60928   0.14318  -2.51368
  -0.60928   0.14318  -2.27368
  -0.60928   0.14318  -2.27368
  -0.60928   0.14318  -2.27368
  -0.60928  -0.09682  -2.27368
  -0.60928   0.14318  -2.27368
  -0.60928   0.14318  -2.27368
  -0.60928   0.14318  -2.27368
  -0.60928   0.14318  -2.27368
  -0.60928   0.14318  -2.27368
  -0.60928   0.14318  -2.03368
  -0.60928   0.14318  -2.03368
  -0.60928   0.14318  -2.03368
  -0.60928   0.14318  -2.03368
  -0.60928   0.14318  -2.03368
  -0.60928   0.14318  -2.03368
  -0.60928   0.14318  -2.03368
  -0.60928   0.14318  -2.03368
  -0.60928   0.14318  -1.79368
  -0.60928   0.14318  -1.79368
  -0.60928   0.14318  -1.79368
  -0.60928   0.14318  -1.79368
  -0.60928   0.14318  -1.79368
  -0.60928   0.14318  -1.79368
  -0.60928   0.14318  -1.79368
  -0.60928   0.14318  -1.79368
  -0.60928   0.14318  -1.79368
  -0.60928   0.14318  -1.79368
  -0.60928   0.14318  -1.79368
  -0.60928   0.14318  -1.79368
  -0.60928   0.14318  -1.55368
  -0.60928   0.14318  -1.55368
  -0.60928   0.14318  -1.79368
  -0.60928   0.14318  -1.55368
  -0.60928   0.14318  -1.55368
  -0.60928   0.14318  -1.55368
  -0.60928   0.14318  -1.55368
  -0.36928   0.14318  -1.55368
  -0.60928  -0.09682  -1.55368
  -0.60928   0.14318  -1.55368
  -0.36928   0.14318  -1.55368
  -0.36928   0.14318  -1.55368
  -0.36928   0.14318  -1.55368
  -0.36928   0.14318  -1.55368
  -0.36928   0.14318  -1.31368
  -0.36928   0.14318  -1.31368
  -0.36928   0.14318  -1.31368
  -0.36928   0.14318  -1.31368
  -0.36928   0.14318  -1.31368
  -0.36928   0.14318  -1.31368
  -0.36928   0.14318  -1.31368
  -0.36928   0.14318  -1.31368
  -0.12928   0.14318  -1.31368
  -0.12928   0.14318  -1.31368
  -0.12928   0.14318  -1.07368
  -0.12928   0.14318  -1.07368
  -0.12928   0.14318  -1.07368
  -0.12928   0.14318  -1.07368
  -0.12928   0.14318  -1.07368
  -0.12928   0.14318  -1.07368
  -0.12928   0.14318  -1.07368
  -0.12928   0.14318  -0.83368
  -0.12928   0.14318  -0.83368
  -0.12928   0.14318  -0.83368
   0.11072   0.14318  -0.83368
  -0.12928   0.14318  -0.83368
   0.11072  -0.09682  -0.83368
  -0.12928   0.14318  -0.59368
   0.11072   0.14318  -0.59368
   0.11072   0.14318  -0.59368
   0.11072   0.14318  -0.59368
   0.11072   0.14318  -0.35368
   0.11072   0.14318  -0.35368
   0.11072   0.14318  -0.35368
   0.11072   0.14318  -0.35368
   0.11072   0.14318  -0.35368
   0.11072   0.14318  -0.12368
   0.11072   0.14318  -0.12368
   0.11072   0.14318  -0.12368
   0.11072   0.14318  -0.12368
   0.11072   0.14318   0.11632
   0.11072   0.14318   0.11632
   0.11072   0.14318   0.11632
   0.11072   0.14318   0.11632
   0.11072   0.14318   0.35632
   0.11072   0.14318   0.35632
   0.11072   0.14318   0.35632
   0.11072   0.14318   0.35632
   0.11072   0.14318   0.35632
   0.11072   0.14318   0.35632
   0.11072   0.14318   0.59632
   0.11072   0.14318   0.59632
   0.11072   0.14318   0.59632
   0.11072   0.14318   0.59632
   0.11072   0.14318   0.59632
   0.11072   0.14318   0.59632
   0.11072   0.14318   0.83632
   0.11072   0.14318   0.59632
   0.11072   0.14318   0.83632
   0.11072   0.14318   0.83632
   0.11072   0.14318   0.83632
   0.35072   0.14318   0.83632
   0.35072   0.14318   1.07632
   0.11072   0.38318   0.83632
   0.35072   0.14318   1.07632
   0.35072   0.14318   1.07632
   0.35072   0.14318   1.07632
   0.35072   0.14318   1.07632
   0.35072   0.14318   1.07632
   0.35072   0.38318   1.07632
   0.35072   0.38318   1.07632
   0.35072   0.38318   1.07632
   0.59072   0.38318   1.31632
   0.59072   0.38318   1.31632
   0.59072   0.38318   1.07632
   0.59072   0.38318   1.31632
   0.59072   0.38318   1.31632
   0.59072   0.38318   1.31632
   0.59072   0.38318   1.31632
   0.59072   0.38318   1.31632
   0.59072   0.38318   1.31632
   0.59072   0.38318   1.31632
   0.83072   0.38318   1.55632
   0.83072   0.38318   1.55632
   0.83072   0.38318   1.55632
   0.83072   0.38318   1.55632
   0.83072   0.14318   1.55632
   0.83072   0.14318   1.55632
   0.83072   0.14318   1.55632
   0.83072   0.14318   1.55632
   0.83072  -0.09682   1.55632
   1.07072  -0.09682   1.55632
   1.07072   0.14318   1.55632
   1.07072  -0.09682   1.55632
   1.07072  -0.09682   1.79632
   1.07072   0.14318   1.79632
   1.07072  -0.09682   1.79632
   1.07072  -0.09682   1.79632
   1.07072  -0.09682   1.79632
   1.07072  -0.09682   1.79632
   1.07072  -0.09682   1.79632
   1.07072  -0.09682   1.79632
   1.07072  -0.09682   2.03632
   1.07072  -0.09682   2.03632
   1.07072  -0.09682   2.03632
   1.07072  -0.09682   2.03632
   1.07072  -0.09682   2.03632
   1.07072  -0.09682   2.03632
   1.07072  -0.09682   2.03632
   1.07072  -0.09682   2.03632
   1.07072  -0.09682   2.27632
   1.07072  -0.09682   2.27632
   1.07072  -0.09682   2.27632
   1.07072  -0.09682   2.27632
   1.07072  -0.09682   2.27632
   1.07072  -0.09682   2.27632
   1.07072  -0.09682   2.27632
   1.07072  -0.09682   2.27632
   1.07072  -0.09682   2.51632
   1.07072  -0.09682   2.51632
   1.07072  -0.09682   2.51632
   1.07072  -0.09682   2.51632
   0.83072  -0.09682   2.51632
   0.83072  -0.09682   2.51632
   0.83072  -0.09682   2.51632
   0.83072  -0.09682   2.51632
   0.83072  -0.09682   2.75632
   0.83072  -0.09682   2.75632
   0.83072  -0.09682   2.75632
   0.83072  -0.09682   2.75632
   0.83072  -0.09682   2.75632
   0.59072  -0.09682   2.75632
   0.59072  -0.09682   2.75632
   0.59072  -0.09682   2.75632
   0.59072  -0.09682   2.75632
   0.59072  -0.33682   2.75632
   0.59072  -0.33682   2.75632
   0.59072  -0.33682   2.75632
   0.59072  -0.33682   2.75632
   0.59072  -0.33682   2.75632
   0.59072  -0.09682   2.75632
   0.59072  -0.33682   2.75632
   0.59072  -0.09682   2.75632
   0.59072  -0.33682   2.75632
   0.59072  -0.33682   2.75632
   0.35072  -0.09682   2.51632
   0.35072  -0.33682   2.51632
   0.35072  -0.33682   2.51632
   0.35072  -0.33682   2.51632
   0.35072  -0.33682   2.51632
   0.35072  -0.09682   2.51632
   0.35072  -0.09682   2.51632
   0.35072  -0.09682   2.51632
   0.35072  -0.09682   2.51632
   0.35072  -0.33682   2.27632
   0.35072  -0.33682   2.27632
   0.35072  -0.33682   2.27632
   0.35072  -0.09682   2.27632
   0.35072  -0.09682   2.27632
   0.35072  -0.33682   2.03632
   0.35072  -0.33682   2.03632
   0.11072  -0.09682   2.03632
   0.11072  -0.09682   2.03632
   0.11072  -0.33682   2.03632
   0.11072  -0.09682   1.79632
   0.35072  -0.09682   1.79632
   0.35072  -0.33682   1.55632
   0.11072  -0.33682   1.79632
   0.11072  -0.09682   1.79632
   0.35072  -0.09682   1.55632
   0.35072  -0.09682   1.55632
   0.35072  -0.09682   1.55632
   0.35072  -0.09682   1.55632
   0.35072  -0.09682   1.55632
   0.35072  -0.09682   1.55632
   0.35072  -0.09682   1.31632
   0.35072  -0.09682   1.31632
   0.35072  -0.09682   1.31632
   0.35072  -0.09682   1.31632
   0.35072  -0.09682   1.31632
   0.35072  -0.09682   1.31632
   0.35072  -0.09682   1.31632
   0.35072  -0.09682   1.31632
   0.35072  -0.09682   1.31632
   0.35072  -0.09682   1.07632
   0.35072  -0.09682   1.07632
   0.35072  -0.09682   1.07632
   0.35072   0.14318   1.07632
   0.35072  -0.09682   1.07632
   0.11072  -0.09682   1.07632
   0.11072  -0.09682   1.07632
   0.11072  -0.09682   1.07632
   0.11072  -0.09682   1.07632
   0.11072  -0.09682   1.07632
   0.11072  -0.09682   1.07632
   0.11072  -0.09682   1.07632
   0.11072  -0.09682   0.83632
   0.11072  -0.09682   0.83632
   0.11072  -0.09682   0.83632
   0.11072  -0.09682   0.83632
   0.11072  -0.09682   0.83632
   0.11072  -0.09682   0.83632
   0.11072  -0.09682   0.83632
   0.11072  -0.09682   0.83632
   0.11072  -0.09682   0.59632
  -0.12928   0.14318   0.59632
  -0.12928   0.14318   0.59632
  -0.12928   0.14318   0.59632
  -0.12928  -0.09682   0.59632
  -0.12928   0.14318   0.35632
  -0.12928  -0.09682   0.35632
  -0.12928  -0.09682   0.59632
  -0.36928   0.14318   0.59632
  -0.36928  -0.09682   0.35632
  -0.36928   0.14318   0.35632
  -0.36928   0.14318   0.35632
  -0.36928   0.14318   0.35632
  -0.36928   0.14318   0.35632
  -0.36928   0.14318   0.35632
  -0.36928   0.14318   0.11632
  -0.36928   0.14318   0.11632
  -0.36928   0.14318   0.11632
  -0.60928   0.14318   0.11632
  -0.60928   0.14318   0.11632
  -0.60928   0.14318   0.11632
  -0.60928   0.14318   0.11632
  -0.60928   0.14318  -0.12368
  -0.60928  -0.09682  -0.12368
  -0.60928   0.14318  -0.12368
  -0.60928   0.14318  -0.12368
  -0.60928   0.14318  -0.35368
  -0.60928  -0.09682  -0.35368
  -0.60928   0.14318  -0.35368
  -0.60928   0.14318  -0.35368
  -0.60928   0.14318  -0.35368
  -0.60928  -0.33682  -0.35368
  -0.60928   0.14318  -0.35368
  -0.60928  -0.09682  -0.35368
  -0.60928   0.14318  -0.35368
  -0.60928  -0.09682  -0.35368
  -0.60928   0.14318  -0.35368
  -0.60928  -0.09682  -0.35368
  -0.60928  -0.09682  -0.35368
  -0.60928  -0.09682  -0.35368
  -0.60928  -0.09682  -0.59368
  -0.60928  -0.09682  -0.59368
  -0.60928  -0.09682  -0.59368
  -0.60928  -0.09682  -0.59368
  -0.60928  -0.09682  -0.59368
  -0.60928  -0.09682  -0.83368
  -0.36928  -0.09682  -0.59368
  -0.36928  -0.09682  -0.59368
  -0.36928  -0.09682  -0.59368
  -0.36928  -0.09682  -0.83368
  -0.36928  -0.09682  -0.59368
  -0.36928  -0.09682  -0.59368
  -0.36928  -0.09682  -0.59368
  -0.36928  -0.09682  -0.59368
  -0.60928  -0.09682  -0.59368
  -0.36928  -0.09682  -0.59368
  -0.36928  -0.09682  -0.59368
  -0.36928  -0.09682  -0.59368
  -0.36928  -0.09682  -0.59368
  -0.36928  -0.09682  -0.59368
  -0.36928  -0.09682  -0.83368
  -0.36928  -0.09682  -0.83368
  -0.36928  -0.09682  -0.83368
  -0.60928  -0.09682  -0.83368
  -0.60928  -0.09682  -0.83368
  -0.36928  -0.09682  -0.83368
  -0.36928  -0.09682  -0.83368
  -0.60928  -0.09682  -0.83368
  -0.60928  -0.09682  -0.83368
  -0.60928   0.14318  -1.07368
  -0.60928   0.14318  -0.83368
  -0.60928   0.14318  -0.83368
  -0.60928   0.14318  -0.83368
