********************************************************************************
               CENTRO DE INSTRUMENTACION Y REGISTRO SISMICO  A.C.  
                       Coordinacion de Servicios Tecnicos
     Anaxagoras 814, Col. Narvarte, Benito Juarez, C.P. 03020 Mexico, D.F.
            Tels. 667 45 42/ 687 45  82             Fax. 669 25 12
********************************************************************************
ARCHIVO ESTANDAR DE ACELERACION:
VERSION DEL FORMATO                    : 2.0
NOMBRE DEL ARCHIVO                     : AL019802.031
FECHA Y HORA DE CREACION               : 31/ENERO/2000, 10:10
REF. CATALOGO ACELEROGRAMAS, SMIS 1996 : REGISTRO No.     /PAG.


================================================================================
DATOS DE LA ESTACION:
NOMBRE DE LA ESTACION                  : ALAMEDA
CLAVE DE LA ESTACION                   : AL01
LOCALIZACION DE LA ESTACION            : JARDIN ALAMEDA ENTRE AV. HIDALGO Y AV.
                                       : JUAREZ, CENTRO
                                       :
                                       :
                                       :
COORDENADAS DE LA ESTACION             : 19.436 LAT. N 
                                       : 99.145 LONG. W 
ALTITUD (msnm)                         : 2232
TIPO DE SUELO                          : TERRENO BLANDO, MATERIAL COMPRESIBLE
                                       : (ARCILLAS)
                                       : 
INSTITUCION RESPONSABLE                : CIRES 
                                       :

================================================================================
DATOS DEL ACELEROGRAFO:
MODELO DEL ACELEROGRAFO                : SSA-1
NUMERO DE SERIE DEL ACELEROGRAFO       : 152
NUMERO DE CANALES                      : 3
ORIENTACION C1-C6 (rumbo;orientacion)  : /N00E/+V/N90E
ORIENTACION C7-C12 (rumbo;orientacion) :
VEL. DE MUESTREO, C1-C6 (muestras/s)   : /200/200/200
VEL. DE MUESTREO, C7-C12 (muestras/s)  :
ESC. COMPLETA DE SENSORES, C1-C6, (g)  : /2/2/2
ESC. COMPLETA DE SENSORES, C7-C12, (g) :
FREC. NAT. DE SENSORES, C1-C6, (Hz)    : /51.29/51.09/53.75
FREC. NAT. DE SENSORES, C7-C12, (Hz)   :
AMORTIGUAMIENTO DE SENSORES, C1-C6     : /.5519/.5670/.5810
AMORTIGUAMIENTO DE SENSORES, C7-C12    :
INTERVALO DE MUESTREO, C1-C6, (s)      : /0.005/0.005/0.005
INTERVALO DE MUESTREO, C7-C12, (s)     :
UMBRAL DE DISPARO, C1-C6, (Gal)        : /2/1.5/2
UMBRAL DE DISPARO, C7-C12, (Gal)       :
MEMORIA DE PREEVENTO (s)               : 15
TIEMPO DE POSEVENTO (s)                : 60


================================================================================
DATOS DEL SISMO:
FECHA DEL SISMO (GMT)                  : 03/FEB/98
HORA EPICENTRO (GMT)                   : 03:02:01.1
MAGNITUD(ES)                           : /Mb=6.0,Ms=6.2,Mc=6.4,Ma=6.4
COORDENADAS DEL EPICENTRO              : 15.69 LAT. N
                                       : 96.37 LONG. W
PROFUNDIDAD FOCAL (km)                 : 33.0
FUENTE DE LOS DATOS EPICENTRALES       : SSN
                                       : INSTITUTO DE GEOFISICA, UNAM

================================================================================
DATOS DE ESTE REGISTRO:
HORA DE LA PRIMERA MUESTRA (GMT)       : 03:04:15.00
EXACTITUD DEL TIEMPO (s)               :     
DURACION DEL REGISTRO (s), C1-C6       : /130.56/130.56/130.56
DURACION DEL REGISTRO (s), C7-C12      :
NUM. TOTAL DE MUESTRAS, C1-C6          : /26112/26112/26112
NUM. TOTAL DE MUESTRAS, C7-C12         :
ACEL. MAX. (Gal), C1-C6                : /3.48625/1.97911/3.35783
ACEL. MAX., C1-C6, EN LA MUESTRA       :
ACEL. MAX. (Gal), C7-C12               :
ACEL. MAX., C7-C12, EN LA MUESTRA      :
UNIDADES DE LOS DATOS                  : Gal (cm/s/s)
FACTOR DE DECIMACION                   : 1
FORMATO DATOS (FORTRAN,10 campos/dato) : 3F10.5


================================================================================
CALIDAD DEL ACELEROGRAMA:
REGISTRO DIGITAL COMPLETO, CARECE DE TIEMPO ABSOLUTO.


================================================================================
COMENTARIOS:














================================================================================
DATOS DE ACELERACION:
---------+---------+---------+---------+---------+---------+---------+---------+
   CANAL-1   CANAL-2   CANAL-3   CANAL-4   CANAL-5   CANAL-6   CANAL-7   CANAL-8
      N00E        +V      N90E
---------+---------+---------+---------+---------+---------+---------+---------+
[...]
   0.13625   0.18089  -0.72783
   0.13625   0.18089  -0.72783
   0.13625   0.18089  -0.72783
   0.13625   0.18089  -0.72783
   0.13625   0.18089  -0.72783
   0.13625   0.42089  -0.72783
   0.13625   0.42089  -0.48783
   0.13625   0.42089  -0.72783
   0.13625   0.66089  -0.48783
   0.13625   0.66089  -0.72783
   0.37625   0.66089  -0.72783
   0.13625   0.66089  -0.72783
   0.37625   0.90089  -0.72783
   0.37625   0.90089  -0.72783
   0.37625   0.90089  -0.72783
   0.37625   1.14089  -0.48783
   0.61625   1.14089  -0.48783
   0.37625   1.14089  -0.48783
   0.61625   1.14089  -0.48783
   0.61625   1.14089  -0.48783
   0.61625   1.14089  -0.48783
   0.85625   1.14089  -0.24783
   0.85625   1.14089  -0.48783
   0.85625   1.14089  -0.24783
   1.09625   1.38089  -0.24783
   1.09625   1.38089  -0.00783
   1.09625   1.38089  -0.00783
   1.09625   1.38089  -0.00783
   1.33625   1.38089   0.23217
   1.33625   1.38089   0.23217
   1.33625   1.38089   0.23217
   1.57625   1.38089   0.23217
   1.57625   1.38089   0.47217
   1.57625   1.38089   0.47217
   1.80625   1.14089   0.47217
   1.80625   1.38089   0.47217
   1.80625   1.14089   0.47217
   1.80625   1.38089   0.71217
   1.80625   1.14089   0.71217
   1.80625   1.14089   0.95217
   2.04625   1.14089   0.95217
   2.04625   1.14089   0.95217
   2.04625   1.14089   0.95217
   2.04625   1.14089   1.19217
   2.04625   1.14089   1.19217
   2.04625   0.90089   1.19217
   2.04625   1.14089   1.19217
   2.04625   0.90089   1.43217
   2.04625   0.90089   1.43217
   2.04625   0.90089   1.43217
   2.04625   0.90089   1.43217
   2.04625   0.90089   1.43217
   1.80625   0.66089   1.43217
   1.80625   0.90089   1.43217
   1.80625   0.66089   1.43217
   1.57625   0.66089   1.43217
   1.57625   0.66089   1.43217
   1.57625   0.66089   1.19217
   1.57625   0.66089   1.19217
   1.57625   0.42089   1.43217
   1.57625   0.42089   1.19217
   1.33625   0.42089   1.19217
   1.33625   0.42089   1.19217
   1.09625   0.18089   1.19217
   1.09625   0.42089   1.19217
   1.09625   0.18089   0.95217
   0.85625   0.18089   0.95217
   0.85625   0.18089   0.95217
   0.85625   0.18089   0.95217
   0.85625   0.18089   0.95217
   0.61625  -0.05911   0.71217
   0.61625  -0.05911   0.71217
   0.61625  -0.05911   0.47217
   0.37625  -0.05911   0.47217
   0.37625  -0.29911   0.47217
   0.37625  -0.29911   0.47217
   0.13625  -0.29911   0.23217
   0.13625  -0.29911   0.23217
   0.13625  -0.29911   0.23217
  -0.10375  -0.29911   0.23217
  -0.10375  -0.29911   0.23217
  -0.10375  -0.29911  -0.00783
  -0.34375  -0.29911  -0.00783
  -0.34375  -0.53911  -0.00783
  -0.34375  -0.53911  -0.00783
  -0.34375  -0.53911  -0.24783
  -0.34375  -0.53911  -0.24783
  -0.34375  -0.53911  -0.24783
  -0.58375  -0.77911  -0.24783
  -0.58375  -0.77911  -0.24783
  -0.58375  -0.53911  -0.24783
  -0.58375  -0.53911  -0.24783
  -0.58375  -0.77911  -0.48783
  -0.58375  -0.77911  -0.48783
  -0.82375  -0.77911  -0.48783
  -0.82375  -0.77911  -0.48783
  -1.06375  -0.77911  -0.48783
  -0.82375  -0.77911  -0.48783
  -0.82375  -0.77911  -0.48783
  -0.82375  -0.77911  -0.48783
  -0.82375  -0.77911  -0.48783
  -1.06375  -0.77911  -0.48783
  -1.06375  -0.77911  -0.72783
  -1.06375  -0.77911  -0.48783
  -1.06375  -1.01911  -0.48783
  -1.06375  -0.77911  -0.48783
  -1.06375  -1.01911  -0.48783
  -1.06375  -1.01911  -0.48783
  -1.30375  -1.01911  -0.48783
  -1.30375  -0.77911  -0.48783
  -1.30375  -1.01911  -0.48783
  -1.30375  -1.01911  -0.48783
  -1.30375  -1.01911  -0.48783
  -1.30375  -0.77911  -0.48783
  -1.30375  -1.01911  -0.48783
  -1.30375  -1.01911  -0.48783
  -1.30375  -1.01911  -0.48783
  -1.30375  -1.01911  -0.48783
  -1.30375  -0.77911  -0.48783
  -1.54375  -0.77911  -0.48783
  -1.54375  -0.77911  -0.24783
  -1.54375  -0.77911  -0.24783
  -1.54375  -0.77911  -0.24783
  -1.54375  -0.77911  -0.24783
  -1.54375  -0.53911  -0.24783
  -1.54375  -0.53911  -0.24783
  -1.54375  -0.53911  -0.24783
  -1.54375  -0.53911  -0.24783
  -1.30375  -0.77911  -0.24783
  -1.54375  -0.77911  -0.24783
  -1.54375  -0.77911  -0.24783
  -1.54375  -0.77911  -0.24783
  -1.54375  -0.53911  -0.00783
  -1.54375  -0.29911  -0.00783
  -1.54375  -0.29911  -0.00783
  -1.30375  -0.29911  -0.00783
  -1.54375  -0.29911  -0.00783
  -1.54375  -0.29911   0.23217
  -1.30375  -0.29911   0.23217
  -1.30375  -0.05911   0.23217
  -1.30375  -0.29911  -0.00783
  -1.30375  -0.05911  -0.00783
  -1.30375  -0.05911  -0.24783
  -1.30375  -0.05911  -0.00783
  -1.06375  -0.05911   0.23217
  -1.06375  -0.05911   0.23217
  -1.06375   0.18089   0.23217
  -1.06375   0.18089   0.23217
  -1.06375   0.18089   0.23217
  -0.82375   0.18089   0.47217
  -0.82375   0.42089   0.47217
  -0.82375   0.42089   0.47217
  -0.82375   0.66089   0.23217
  -0.82375   0.42089   0.23217
  -0.82375   0.42089   0.23217
  -0.82375   0.42089   0.23217
  -0.58375   0.42089   0.23217
  -0.58375   0.42089   0.23217
  -0.58375   0.42089   0.23217
  -0.58375   0.42089   0.23217
  -0.34375   0.66089   0.23217
  -0.34375   0.66089   0.23217
  -0.34375   0.42089   0.23217
  -0.34375   0.66089   0.23217
  -0.34375   0.42089   0.23217
  -0.10375   0.42089  -0.00783
  -0.10375   0.66089  -0.00783
  -0.10375   0.42089  -0.00783
  -0.10375   0.42089  -0.00783
  -0.10375   0.42089  -0.00783
  -0.10375   0.42089  -0.00783
  -0.10375   0.42089  -0.00783
  -0.10375   0.42089  -0.24783
   0.13625   0.42089  -0.24783
   0.13625   0.42089  -0.24783
   0.13625   0.42089  -0.48783
   0.13625   0.42089  -0.48783
   0.37625   0.42089  -0.48783
   0.37625   0.42089  -0.72783
   0.37625   0.42089  -0.72783
   0.37625   0.42089  -0.72783
   0.37625   0.42089  -0.72783
   0.37625   0.42089  -0.72783
   0.37625   0.42089  -0.96783
   0.37625   0.42089  -0.96783
   0.37625   0.42089  -0.96783
   0.37625   0.42089  -0.96783
   0.37625   0.42089  -0.96783
   0.37625   0.42089  -1.20783
   0.37625   0.18089  -1.20783
   0.61625   0.18089  -1.20783
   0.37625   0.18089  -1.20783
   0.61625   0.18089  -1.43783
   0.61625   0.18089  -1.43783
   0.61625   0.18089  -1.43783
   0.61625   0.18089  -1.43783
   0.61625   0.18089  -1.43783
   0.61625   0.18089  -1.43783
   0.61625   0.42089  -1.43783
   0.85625   0.42089  -1.43783
   0.85625   0.42089  -1.43783
   0.85625   0.18089  -1.43783
   0.85625   0.18089  -1.43783
   0.85625   0.18089  -1.67783
   0.85625   0.18089  -1.43783
   1.09625   0.18089  -1.43783
   1.09625   0.18089  -1.43783
   0.85625   0.18089  -1.43783
   1.09625   0.42089  -1.43783
   1.09625   0.42089  -1.43783
   1.09625   0.42089  -1.20783
   1.09625   0.42089  -1.43783
   1.09625   0.42089  -1.43783
   1.09625   0.18089  -1.20783
   1.09625   0.18089  -1.20783
   1.09625   0.18089  -1.20783
   1.09625   0.18089  -1.20783
   1.09625   0.18089  -0.96783
   0.85625   0.18089  -0.96783
   0.85625   0.42089  -0.96783
   0.85625   0.42089  -0.96783
   0.85625   0.42089  -0.96783
   0.85625   0.18089  -0.96783
   0.85625   0.18089  -0.72783
   1.09625   0.18089  -0.72783
   0.61625   0.18089  -0.72783
   0.61625  -0.05911  -0.72783
   0.61625  -0.05911  -0.48783
   0.61625  -0.05911  -0.48783
   0.37625  -0.05911  -0.48783
   0.37625  -0.05911  -0.48783
   0.37625  -0.05911  -0.24783
   0.37625  -0.29911  -0.24783
   0.37625  -0.29911  -0.24783
   0.37625  -0.29911  -0.24783
   0.13625  -0.29911  -0.00783
   0.13625  -0.29911  -0.00783
   0.13625  -0.29911  -0.00783
   0.13625  -0.29911  -0.00783
   0.13625  -0.29911  -0.00783
  -0.10375  -0.53911  -0.00783
  -0.10375  -0.53911  -0.00783
  -0.10375  -0.77911  -0.00783
  -0.10375  -0.77911   0.23217
  -0.10375  -0.77911   0.23217
  -0.10375  -0.77911   0.23217
  -0.34375  -0.77911   0.47217
  -0.34375  -0.77911   0.47217
  -0.34375  -0.77911   0.47217
  -0.34375  -0.77911   0.47217
  -0.34375  -0.77911   0.47217
  -0.34375  -1.01911   0.47217
  -0.34375  -0.77911   0.47217
  -0.34375  -1.01911   0.47217
  -0.58375  -1.01911   0.47217
  -0.58375  -1.01911   0.71217
  -0.58375  -1.01911   0.71217
  -0.58375  -1.01911   0.71217
  -0.82375  -1.01911   0.71217
  -0.82375  -0.77911   0.71217
  -0.82375  -0.77911   0.95217
  -0.82375  -0.77911   0.95217
  -0.82375  -0.77911   0.95217
  -0.82375  -0.77911   0.95217
  -0.82375  -0.53911   0.95217
  -0.82375  -0.53911   0.95217
  -0.82375  -0.53911   0.95217
  -0.82375  -0.53911   0.95217
  -0.82375  -0.53911   0.95217
  -0.82375  -0.29911   0.95217
  -0.82375  -0.53911   0.95217
  -1.06375  -0.29911   1.19217
  -1.06375  -0.29911   0.95217
  -1.06375  -0.29911   1.19217
  -0.82375  -0.05911   1.19217
  -1.06375  -0.05911   1.19217
  -1.06375  -0.05911   1.19217
  -0.82375   0.18089   1.19217
  -1.06375   0.18089   1.19217
  -1.06375   0.18089   0.95217
  -1.06375   0.18089   0.95217
  -1.06375   0.18089   0.95217
  -1.06375   0.42089   0.95217
  -0.82375   0.42089   0.95217
  -0.82375   0.42089   0.95217
  -0.82375   0.42089   0.95217
  -0.82375   0.42089   0.95217
  -0.82375   0.66089   0.95217
  -0.82375   0.66089   0.71217
  -0.82375   0.66089   0.71217
  -1.06375   0.66089   0.71217
  -0.82375   0.66089   0.71217
  -0.82375   0.66089   0.47217
  -0.82375   0.66089   0.47217
  -0.82375   0.42089   0.47217
  -0.82375   0.66089   0.47217
  -0.58375   0.66089   0.47217
  -0.58375   0.66089   0.47217
  -0.58375   0.66089   0.47217
  -0.58375   0.66089   0.47217
  -0.34375   0.66089   0.47217
  -0.58375   0.66089   0.23217
  -0.34375   0.66089   0.23217
  -0.34375   0.42089  -0.00783
  -0.10375   0.66089  -0.00783
  -0.10375   0.66089  -0.00783
  -0.10375   0.66089  -0.00783
  -0.10375   0.66089  -0.00783
   0.13625   0.42089  -0.00783
   0.13625   0.42089  -0.00783
   0.37625   0.42089  -0.00783
   0.37625   0.42089  -0.00783
   0.61625   0.42089  -0.24783
   0.61625   0.42089  -0.24783
   0.61625   0.18089  -0.24783
   0.85625   0.18089  -0.24783
   0.85625   0.42089  -0.24783
   1.09625   0.42089  -0.24783
   1.09625   0.42089  -0.24783
   1.09625   0.42089  -0.24783
   1.33625   0.18089  -0.24783
   1.33625   0.18089  -0.24783
   1.57625   0.18089  -0.24783
   1.57625   0.18089  -0.24783
   1.57625   0.18089  -0.24783
   1.80625   0.18089  -0.48783
   1.80625   0.18089  -0.24783
   1.80625   0.18089  -0.24783
   2.04625   0.18089  -0.24783
   2.04625   0.18089  -0.00783
   2.28625   0.42089  -0.00783
   2.28625   0.18089  -0.00783
   2.52625   0.18089  -0.00783
   2.52625   0.42089  -0.00783
   2.52625   0.42089  -0.00783
   2.76625   0.42089  -0.00783
   2.76625   0.42089  -0.00783
   2.76625   0.18089  -0.00783
   2.76625   0.42089  -0.00783
   3.00625   0.18089   0.23217
   3.00625   0.18089   0.23217
   3.00625   0.18089   0.47217
   3.24625   0.42089   0.47217
   3.24625   0.42089   0.47217
   3.24625   0.42089   0.71217
   3.24625   0.42089   0.71217
   3.24625   0.42089   0.71217
   3.24625   0.42089   0.71217
   3.24625   0.42089   0.95217
   3.48625   0.42089   0.95217
   3.48625   0.42089   0.95217
   3.48625   0.42089   0.95217
   3.48625   0.42089   1.19217
   3.48625   0.42089   1.19217
   3.48625   0.42089   1.43217
   3.48625   0.66089   1.43217
   3.48625   0.66089   1.43217
   3.48625   0.66089   1.43217
   3.48625   0.66089   1.43217
   3.48625   0.66089   1.43217
   3.48625   0.42089   1.43217
   3.48625   0.42089   1.67217
   3.48625   0.42089   1.43217
   3.48625   0.42089   1.67217
   3.48625   0.18089   1.67217
   3.24625   0.18089   1.91217
   3.24625   0.18089   1.91217
   3.24625   0.18089   1.91217
   3.24625   0.42089   1.91217
   3.00625   0.18089   1.91217
   3.00625   0.18089   1.91217
   3.00625   0.18089   1.91217
   2.76625   0.18089   1.91217
   2.76625   0.18089   1.67217
   2.76625  -0.05911   1.67217
   2.52625   0.18089   1.67217
   2.52625  -0.05911   1.67217
   2.28625  -0.05911   1.67217
   2.28625  -0.05911   1.67217
   2.28625  -0.05911   1.67217
   2.04625  -0.05911   1.67217
   2.04625  -0.05911   1.67217
   1.80625  -0.05911   1.67217
   1.80625  -0.29911   1.67217
   1.57625  -0.05911   1.43217
   1.57625  -0.05911   1.43217
   1.33625  -0.29911   1.43217
   1.09625  -0.29911   1.19217
   1.09625  -0.29911   1.19217
   0.85625  -0.29911   1.19217
   0.85625  -0.29911   0.95217
   0.61625  -0.29911   0.95217
   0.61625  -0.29911   0.95217
   0.61625  -0.29911   0.95217
   0.37625  -0.29911   0.71217
   0.37625  -0.29911   0.71217
   0.13625  -0.29911   0.47217
   0.13625  -0.29911   0.47217
  -0.10375  -0.29911   0.47217
  -0.34375  -0.29911   0.23217
  -0.34375  -0.29911   0.23217
  -0.58375  -0.29911   0.23217
  -0.58375  -0.53911   0.23217
  -0.58375  -0.29911   0.23217
  -0.58375  -0.53911  -0.00783
  -0.82375  -0.53911  -0.00783
  -0.82375  -0.53911  -0.00783
  -1.06375  -0.53911  -0.00783
  -1.06375  -0.53911  -0.00783
  -1.30375  -0.29911  -0.24783
  -1.30375  -0.29911  -0.24783
  -1.54375  -0.29911  -0.24783
  -1.54375  -0.29911  -0.48783
  -1.54375  -0.29911  -0.48783
  -1.54375  -0.29911  -0.48783
  -1.78375  -0.29911  -0.48783
  -1.78375  -0.29911  -0.48783
  -1.78375  -0.29911  -0.72783
  -1.78375  -0.53911  -0.72783
  -1.78375  -0.53911  -0.72783
  -1.78375  -0.29911  -0.72783
  -1.78375  -0.29911  -0.72783
  -2.02375  -0.29911  -0.72783
  -2.02375  -0.29911  -0.72783
  -2.02375  -0.29911  -0.72783
  -2.02375  -0.05911  -0.96783
  -2.02375  -0.05911  -0.96783
  -2.02375  -0.05911  -1.20783
  -2.02375  -0.29911  -1.20783
  -2.02375  -0.29911  -1.20783
  -2.02375  -0.29911  -1.20783
  -2.02375  -0.29911  -1.20783
  -1.78375  -0.29911  -1.20783
  -2.02375  -0.29911  -1.20783
  -1.78375  -0.05911  -1.43783
  -1.78375  -0.05911  -1.43783
  -1.78375  -0.05911  -1.43783
  -1.78375   0.18089  -1.43783
  -1.78375   0.18089  -1.67783
  -1.78375  -0.05911  -1.67783
  -1.78375   0.18089  -1.91783
  -1.78375   0.18089  -1.91783
  -1.54375   0.18089  -2.15783
  -1.54375   0.18089  -2.15783
  -1.54375   0.18089  -2.15783
  -1.54375   0.18089  -2.15783
  -1.54375   0.18089  -2.15783
  -1.54375   0.18089  -2.39783
  -1.54375   0.18089  -2.39783
  -1.30375   0.18089  -2.39783
  -1.30375   0.18089  -2.39783
  -1.30375   0.42089  -2.39783
  -1.30375   0.42089  -2.63783
  -1.30375   0.42089  -2.63783
  -1.30375   0.42089  -2.63783
  -1.30375   0.42089  -2.63783
  -1.30375   0.18089  -2.87783
  -1.06375   0.18089  -2.87783
  -1.06375  -0.05911  -2.87783
  -1.06375   0.18089  -2.63783
  -1.06375  -0.05911  -2.87783
  -1.06375   0.18089  -2.63783
  -1.06375   0.18089  -2.63783
  -1.06375   0.42089  -2.39783
  -1.06375   0.18089  -2.39783
  -1.06375   0.18089  -2.39783
  -1.06375   0.18089  -2.39783
  -1.06375   0.18089  -2.39783
  -0.82375   0.18089  -2.39783
  -0.82375   0.18089  -2.15783
  -0.82375  -0.05911  -2.15783
  -0.82375  -0.05911  -2.15783
  -1.06375  -0.05911  -1.91783
  -0.82375  -0.29911  -1.91783
  -0.82375  -0.29911  -1.67783
  -1.06375  -0.05911  -1.67783
  -1.06375  -0.05911  -1.67783
  -1.06375  -0.05911  -1.43783
  -1.06375  -0.05911  -1.43783
  -1.06375  -0.05911  -1.43783
  -1.06375  -0.29911  -1.20783
  -0.82375  -0.29911  -1.20783
  -1.06375  -0.29911  -1.20783
  -1.06375  -0.29911  -0.96783
  -1.06375  -0.29911  -0.72783
  -1.06375  -0.29911  -0.72783
  -1.06375  -0.29911  -0.48783
  -1.30375  -0.29911  -0.48783
  -1.30375  -0.29911  -0.48783
  -1.30375  -0.29911  -0.24783
  -1.30375  -0.29911  -0.24783
  -1.30375  -0.29911  -0.00783
  -1.30375  -0.53911  -0.00783
  -1.30375  -0.29911  -0.00783
  -1.30375  -0.53911   0.23217
  -1.30375  -0.29911   0.23217
  -1.30375  -0.29911   0.47217
  -1.54375  -0.29911   0.47217
  -1.54375  -0.29911   0.71217
