********************************************************************************
              CENTRO DE INSTRUMENTACION Y REGISTRO SISMICO  A.C.                

    Anaxagoras 814, Col. Narvarte, Benito Juarez, C.P. 03020 Mexico, D.F.       
           Tels. 5687 45 42/ 5687 45  82             Fax. 5669 25 12            
********************************************************************************
ARCHIVO ESTANDAR DE ACELERACION:
VERSION DEL FORMATO                    : 2.0
NOMBRE DEL ARCHIVO                     : AL0120070413054222
FECHA Y HORA DE CREACION               : 24/ABR/07, 13:01
REF. CATALOGO ACELEROGRAMAS, SMIS 1996 : REGISTRO No.     /PAG.


================================================================================
DATOS DE LA ESTACION:
NOMBRE DE LA ESTACION                  : ALAMEDA
CLAVE DE LA ESTACION                   : AL01
LOCALIZACION DE LA ESTACION            : Del. Cuauhtémoc, Col. Centro,          
                                       : Dr. Mora entre Av. Hidalgo             
                                       : y Av. Juárez.                          
                                       :                                        
                                       : 
COORDENADAS DE LA ESTACION             : 19.4356 LAT. N
                                       : 99.1453 LONG. W
ALTITUD (msnm)                         : 2232
TIPO DE SUELO                          : Terreno blando, material compresible
                                       : (arcillas)                
                                       : 
INSTITUCION RESPONSABLE                : CIRES


================================================================================
DATOS DEL ACELEROGRAFO:
MODELO DEL ACELEROGRAFO                : SSA-1
NUMERO DE SERIE DEL ACELEROGRAFO       : 152
NUMERO DE CANALES                      : 3
ORIENTACION C1-C6 (rumbo;orientacion)  : /N00E/+V/N90W
ORIENTACION C7-C12 (rumbo;orientacion) : 
VEL. DE MUESTREO, C1-C6 (muestras/s)   : /200/200/200
VEL. DE MUESTREO, C7-C12 (muestras/s)  : 
ESC. COMPLETA DE SENSORES, C1-C6, (g)  : /2.0/2.0/2.0
ESC. COMPLETA DE SENSORES, C7-C12, (g) : 
FREC. NAT. DE SENSORES, C1-C6, (Hz)    : /51.29/51.09/53.75
FREC. NAT. DE SENSORES, C7-C12, (Hz)   : 
AMORTIGUAMIENTO DE SENSORES, C1-C6     : /0.5519/0.5670/0.5810
AMORTIGUAMIENTO DE SENSORES, C7-C12    : 
INTERVALO DE MUESTREO, C1-C6, (s)      : /0.005/0.005/0.005
INTERVALO DE MUESTREO, C7-C12, (s)     : 
UMBRAL DE DISPARO, C1-C6, (Gal)        : /1.5/1.5/2.0
UMBRAL DE DISPARO, C7-C12, (Gal)       : 
MEMORIA DE PREEVENTO (s)               : 15.36
TIEMPO DE POSEVENTO (s)                : 60.0


================================================================================
DATOS DEL SISMO:
FECHA DEL SISMO (GMT)                  : 13/ABR/07
HORA EPICENTRO (GMT)                   : 05:42:22.0
MAGNITUD(ES)                           : /Me=6.3
COORDENADAS DEL EPICENTRO              : 17.09 LAT. N
                                       : -100.44 LONG. W
PROFUNDIDAD FOCAL (km)                 : 41
FUENTE DE LOS DATOS EPICENTRALES       : SSN
                                       : INSTITUTO DE GEOFISICA, UNAM

================================================================================
DATOS DE ESTE REGISTRO:
HORA DE LA PRIMERA MUESTRA (GMT)       : 5:43:20.01
EXACTITUD DEL TIEMPO (s)               : 0.005
DURACION DEL REGISTRO (s), C1-C6       : /192.0/192.0/192.0
DURACION DEL REGISTRO (s), C7-C12      : 
NUM. TOTAL DE MUESTRAS, C1-C6          : /38400/38400/38400
NUM. TOTAL DE MUESTRAS, C7-C12         : 
ACEL. MAX. (Gal), C1-C6                : /18.67477/5.9855/14.12579
ACEL. MAX., C1-C6, EN LA MUESTRA       : /8540/11584/8512
ACEL. MAX. (Gal), C7-C12               : 
ACEL. MAX., C7-C12, EN LA MUESTRA      : 
UNIDADES DE LOS DATOS                  : Gal (cm/s/s)
FACTOR DE DECIMACION                   : 1
FORMATO DATOS (FORTRAN,10 campos/dato) : 3F10.5


================================================================================
CALIDAD DEL ACELEROGRAMA:
REGISTRO DIGITAL COMPLETO CON TIEMPO ABSOLUTO CORRECTO.


================================================================================
COMENTARIOS:














================================================================================
DATOS DE ACELERACION:
---------+---------+---------+---------+---------+---------+---------+---------+
   CANAL-1   CANAL-2   CANAL-3   CANAL-4   CANAL-5   CANAL-6   CANAL-7   CANAL-8
      N00E        +V      N90W
---------+---------+---------+---------+---------+---------+---------+---------+
[...]
  -1.19710  -1.67594  -0.23942
  -1.43652  -1.67594   0.00000
  -1.43652  -1.43652   0.00000
  -1.67594  -1.67594  -0.23942
  -1.91536  -1.43652   0.00000
  -2.15478  -1.43652   0.00000
  -2.63362  -1.43652   0.00000
  -2.63362  -1.43652  -0.23942
  -2.87304  -1.43652  -0.23942
  -3.11246  -1.43652  -0.23942
  -3.59130  -1.19710   0.00000
  -3.83072  -1.19710  -0.23942
  -4.07014  -1.19710   0.00000
  -4.30956  -1.19710   0.00000
  -4.78840  -0.95768   0.00000
  -5.26724  -1.19710   0.00000
  -5.74608  -0.95768   0.00000
  -5.74608  -0.71826   0.00000
  -6.22492  -0.71826   0.00000
  -6.46434  -0.71826   0.00000
  -6.70376  -0.71826   0.00000
  -7.18260  -0.71826   0.00000
  -7.18260  -0.47884  -0.23942
  -7.66145  -0.47884   0.00000
  -7.90087  -0.47884   0.00000
  -8.14029  -0.47884   0.00000
  -8.14029  -0.47884   0.00000
  -8.37971  -0.47884   0.00000
  -8.61913  -0.47884   0.23942
  -8.85855  -0.47884   0.23942
  -9.09797  -0.47884   0.23942
  -9.09797  -0.47884   0.23942
  -9.33739  -0.23942   0.23942
  -9.57681  -0.23942   0.47884
  -9.81623  -0.23942   0.47884
 -10.05565  -0.23942   0.47884
 -10.05565  -0.23942   0.47884
 -10.29507  -0.23942   0.47884
 -10.29507  -0.23942   0.47884
 -10.53449  -0.23942   0.71826
 -10.53449  -0.23942   0.71826
 -10.77391  -0.23942   0.71826
 -10.77391  -0.23942   0.95768
 -10.77391  -0.23942   0.95768
 -11.01333  -0.23942   0.95768
 -11.01333  -0.23942   1.19710
 -11.01333  -0.23942   1.19710
 -11.01333  -0.23942   1.43652
 -11.01333  -0.23942   1.43652
 -11.01333  -0.47884   1.43652
 -11.01333  -0.47884   1.43652
 -11.01333  -0.47884   1.43652
 -10.77391  -0.47884   1.43652
 -10.77391  -0.71826   1.19710
 -10.77391  -0.71826   1.19710
 -10.53449  -0.95768   1.19710
 -10.29507  -0.95768   1.19710
 -10.05565  -0.95768   0.95768
 -10.05565  -0.95768   0.95768
  -9.81623  -1.19710   0.95768
  -9.33739  -0.95768   0.71826
  -9.33739  -1.19710   0.47884
  -9.09797  -0.95768   0.47884
  -8.85855  -0.95768   0.23942
  -8.61913  -0.95768   0.23942
  -8.37971  -0.95768   0.00000
  -8.14029  -0.71826   0.00000
  -7.90087  -0.71826  -0.23942
  -7.66145  -0.71826  -0.23942
  -7.66145  -0.47884  -0.47884
  -7.18260  -0.71826  -0.47884
  -7.18260  -0.47884  -0.71826
  -6.94318  -0.23942  -0.71826
  -6.70376  -0.23942  -0.95768
  -6.46434  -0.23942  -0.95768
  -6.22492  -0.23942  -0.95768
  -5.98550   0.00000  -0.95768
  -5.74608   0.00000  -0.95768
  -5.26724   0.00000  -1.19710
  -5.26724   0.23942  -1.19710
  -4.78840   0.23942  -1.43652
  -4.54898   0.47884  -1.43652
  -4.30956   0.47884  -1.43652
  -4.07014   0.71826  -1.43652
  -3.83072   0.95768  -1.67594
  -3.59130   0.95768  -1.91536
  -3.35188   1.19710  -1.91536
  -3.11246   1.19710  -2.15478
  -2.87304   1.43652  -2.39420
  -2.63362   1.43652  -2.39420
  -2.39420   1.67594  -2.63362
  -2.39420   1.67594  -2.87304
  -2.15478   1.67594  -3.11246
  -1.91536   1.67594  -3.35188
  -1.91536   1.91536  -3.35188
  -1.91536   1.91536  -3.59130
  -1.67594   1.91536  -3.83072
  -1.67594   1.91536  -4.07014
  -1.43652   1.91536  -4.30956
  -1.67594   1.91536  -4.30956
  -1.43652   1.91536  -4.54898
  -1.43652   1.91536  -4.78840
  -1.43652   1.91536  -4.78840
  -1.19710   1.67594  -5.02782
  -1.19710   1.67594  -5.02782
  -1.19710   1.43652  -5.26724
  -1.19710   1.43652  -5.50666
  -1.19710   1.43652  -5.50666
  -1.19710   1.19710  -5.74608
  -1.19710   1.19710  -5.50666
  -1.19710   1.19710  -5.50666
  -1.19710   1.19710  -5.74608
  -1.19710   1.19710  -5.74608
  -0.95768   1.19710  -5.50666
  -0.95768   1.19710  -5.50666
  -0.95768   1.43652  -5.50666
  -0.95768   1.43652  -5.50666
  -0.95768   1.19710  -5.50666
  -0.95768   1.43652  -5.26724
  -0.71826   1.19710  -5.26724
  -0.71826   1.19710  -5.02782
  -0.47884   1.19710  -5.02782
  -0.23942   1.19710  -4.78840
  -0.23942   1.19710  -4.78840
   0.00000   1.19710  -4.54898
   0.23942   1.19710  -4.30956
   0.23942   1.19710  -4.30956
   0.47884   1.19710  -4.07014
   0.71826   1.19710  -3.83072
   0.95768   0.95768  -3.59130
   0.95768   1.19710  -3.35188
   1.43652   1.19710  -3.35188
   1.43652   1.19710  -3.11246
   1.67594   1.19710  -2.87304
   1.91536   1.19710  -2.63362
   2.15478   1.19710  -2.39420
   2.39420   1.19710  -2.15478
   2.87304   1.19710  -1.91536
   3.11246   1.19710  -1.67594
   3.35188   1.19710  -1.43652
   3.83072   1.19710  -1.43652
   4.07014   1.19710  -1.19710
   4.30956   1.19710  -1.19710
   4.78840   1.19710  -0.95768
   5.02782   0.95768  -0.71826
   5.26724   0.95768  -0.71826
   5.74608   0.95768  -0.47884
   5.98550   0.71826  -0.47884
   6.46434   0.71826  -0.23942
   6.94318   0.47884  -0.23942
   7.18260   0.47884   0.00000
   7.42203   0.47884   0.00000
   7.90087   0.47884   0.00000
   8.14029   0.47884   0.23942
   8.37971   0.23942   0.23942
   8.61913   0.23942   0.23942
   8.85855   0.23942   0.00000
   9.09797   0.23942   0.00000
   9.33739   0.00000   0.00000
   9.33739   0.00000  -0.23942
   9.57681   0.00000  -0.23942
   9.81623   0.00000  -0.23942
   9.81623  -0.23942  -0.47884
  10.05565  -0.23942  -0.47884
  10.05565  -0.23942  -0.71826
  10.29507  -0.23942  -0.71826
  10.29507  -0.23942  -0.71826
  10.29507  -0.23942  -0.95768
  10.53449  -0.23942  -0.95768
  10.53449  -0.47884  -0.95768
  10.53449  -0.23942  -0.95768
  10.53449  -0.23942  -0.95768
  10.53449  -0.23942  -1.19710
  10.53449  -0.23942  -1.19710
  10.53449  -0.23942  -1.19710
  10.53449  -0.23942  -1.19710
  10.53449  -0.23942  -1.19710
  10.77391  -0.23942  -1.19710
  10.77391  -0.23942  -1.19710
  10.77391   0.00000  -0.95768
  10.77391   0.00000  -0.95768
  10.77391   0.00000  -0.95768
  10.77391   0.00000  -0.71826
  10.77391   0.00000  -0.71826
  10.77391   0.00000  -0.47884
  10.77391   0.00000  -0.47884
  11.01333   0.00000  -0.23942
  11.01333   0.00000   0.00000
  11.01333   0.00000   0.23942
  11.01333   0.00000   0.47884
  10.77391   0.00000   0.71826
  10.77391   0.00000   0.95768
  10.53449  -0.23942   0.95768
  10.53449  -0.23942   1.43652
  10.53449  -0.23942   1.67594
  10.29507  -0.23942   1.91536
  10.29507  -0.47884   1.91536
  10.29507  -0.47884   2.39420
  10.05565  -0.47884   2.39420
  10.05565  -0.47884   2.63362
  10.05565  -0.47884   2.87304
  10.05565  -0.47884   3.11246
  10.05565  -0.47884   3.35188
  10.05565  -0.47884   3.59130
   9.81623  -0.47884   3.83072
   9.81623  -0.47884   4.07014
   9.81623  -0.23942   4.30956
   9.81623  -0.23942   4.54898
   9.81623  -0.23942   4.54898
   9.81623  -0.23942   4.78840
   9.81623  -0.23942   5.02782
   9.81623  -0.47884   5.02782
   9.81623  -0.47884   5.02782
   9.81623  -0.47884   5.02782
   9.81623  -0.47884   5.26724
   9.81623  -0.71826   5.26724
   9.81623  -0.71826   5.26724
   9.81623  -0.71826   5.26724
  10.05565  -0.71826   5.26724
  10.05565  -0.95768   5.26724
  10.05565  -0.95768   5.02782
  10.05565  -0.95768   4.78840
  10.05565  -0.95768   4.78840
  10.05565  -0.95768   4.54898
  10.05565  -0.95768   4.30956
  10.05565  -0.95768   4.07014
  10.05565  -0.95768   3.83072
  10.05565  -0.95768   3.35188
   9.81623  -0.95768   3.11246
   9.81623  -0.71826   2.87304
   9.81623  -0.71826   2.39420
   9.57681  -0.47884   1.91536
   9.57681  -0.47884   1.67594
   9.33739  -0.47884   1.19710
   9.09797  -0.23942   0.95768
   8.85855  -0.23942   0.47884
   8.61913  -0.23942   0.00000
   8.37971   0.00000  -0.23942
   8.14029   0.00000  -0.47884
   7.90087  -0.23942  -0.71826
   7.42203   0.00000  -1.19710
   7.18260   0.00000  -1.43652
   6.70376   0.00000  -1.43652
   6.46434   0.00000  -1.91536
   6.22492   0.00000  -2.15478
   5.74608   0.00000  -2.39420
   5.26724   0.00000  -2.63362
   5.02782   0.00000  -2.87304
   4.54898  -0.23942  -3.11246
   4.30956   0.00000  -3.35188
   3.83072   0.00000  -3.59130
   3.35188   0.00000  -3.83072
   3.11246   0.00000  -4.07014
   2.63362   0.00000  -4.30956
   2.15478   0.00000  -4.54898
   1.91536   0.00000  -4.78840
   1.43652   0.00000  -5.02782
   1.19710   0.00000  -5.02782
   0.71826   0.00000  -5.26724
   0.23942   0.00000  -5.50666
   0.00000   0.00000  -5.50666
  -0.47884   0.23942  -5.74608
  -0.71826   0.23942  -5.74608
  -0.95768   0.23942  -5.74608
  -1.43652   0.23942  -5.74608
  -1.91536   0.23942  -5.74608
  -2.15478   0.47884  -5.74608
  -2.63362   0.47884  -5.74608
  -2.87304   0.47884  -5.50666
  -3.35188   0.47884  -5.50666
  -3.83072   0.47884  -5.50666
  -4.07014   0.47884  -5.26724
  -4.30956   0.23942  -5.26724
  -4.54898   0.23942  -5.02782
  -4.78840   0.23942  -4.78840
  -5.02782   0.23942  -4.78840
  -5.26724   0.23942  -4.54898
  -5.50666   0.00000  -4.30956
  -5.74608   0.00000  -4.07014
  -5.74608   0.00000  -3.83072
  -5.98550   0.00000  -3.59130
  -6.22492   0.00000  -3.35188
  -6.22492   0.00000  -2.87304
  -6.22492  -0.23942  -2.63362
  -6.46434  -0.23942  -2.15478
  -6.46434  -0.23942  -1.43652
  -6.70376  -0.23942  -1.19710
  -6.70376  -0.23942  -0.71826
  -6.70376  -0.23942   0.00000
  -6.94318  -0.23942   0.71826
  -6.94318  -0.23942   1.19710
  -7.18260  -0.23942   1.91536
  -7.18260  -0.23942   2.39420
  -7.18260  -0.23942   3.11246
  -7.18260  -0.23942   3.83072
  -7.18260  -0.23942   4.54898
  -7.42203  -0.47884   5.26724
  -7.42203  -0.47884   5.74608
  -7.42203  -0.47884   6.46434
  -7.18260  -0.47884   6.94318
  -7.18260  -0.47884   7.66145
  -7.18260  -0.47884   8.14029
  -7.18260  -0.23942   8.61913
  -7.18260  -0.23942   9.09797
  -6.94318  -0.23942   9.57681
  -6.94318  -0.23942  10.05565
  -6.94318  -0.23942  10.53449
  -6.94318  -0.23942  11.01333
  -6.70376  -0.23942  11.49217
  -6.94318  -0.23942  11.97101
  -6.94318   0.00000  12.21043
  -6.94318   0.00000  12.44985
  -7.18260   0.00000  12.92869
  -7.18260   0.00000  13.16811
  -7.42203   0.00000  13.40753
  -7.66145   0.00000  13.64695
  -7.90087  -0.23942  13.64695
  -8.14029  -0.23942  13.88637
  -8.37971  -0.23942  14.12579
  -8.85855  -0.23942  14.12579
  -9.33739  -0.23942  14.12579
  -9.57681  -0.23942  14.12579
 -10.29507  -0.23942  14.12579
 -10.53449  -0.47884  13.88637
 -11.01333  -0.23942  13.88637
 -11.49217  -0.23942  13.64695
 -11.97101  -0.47884  13.40753
 -12.44985  -0.23942  13.16811
 -12.92869  -0.47884  12.92869
 -13.40753  -0.47884  12.68927
 -13.88637  -0.71826  12.44985
 -14.36521  -0.47884  12.21043
 -14.84405  -0.71826  11.97101
 -15.32289  -0.47884  11.49217
 -15.80173  -0.71826  11.25275
 -16.28057  -0.71826  11.01333
 -16.51999  -0.71826  10.53449
 -16.99883  -0.71826  10.29507
 -17.23825  -0.71826  10.05565
 -17.47767  -0.95768   9.57681
 -17.71709  -0.95768   9.33739
 -17.95651  -0.95768   9.09797
 -18.19593  -0.95768   8.61913
 -18.19593  -0.95768   8.14029
 -18.43535  -0.95768   7.90087
 -18.43535  -0.95768   7.42203
 -18.67477  -0.95768   7.18260
 -18.43535  -0.95768   6.94318
 -18.43535  -0.95768   6.46434
 -18.43535  -0.95768   6.22492
 -18.43535  -0.95768   5.98550
 -18.19593  -0.95768   5.50666
 -18.19593  -0.71826   5.26724
 -17.95651  -0.71826   4.78840
 -17.95651  -0.71826   4.54898
 -17.71709  -0.71826   4.30956
 -17.47767  -0.71826   3.83072
 -17.23825  -0.71826   3.59130
 -16.99883  -0.47884   3.35188
 -16.99883  -0.47884   3.11246
 -16.51999  -0.47884   2.87304
 -16.28057  -0.47884   2.63362
 -16.04115  -0.23942   2.39420
 -15.80173  -0.23942   2.15478
 -15.56231  -0.23942   1.67594
 -15.32289   0.00000   1.67594
 -14.84405   0.00000   1.43652
 -14.60463   0.23942   0.95768
 -14.36521   0.23942   0.71826
 -14.12579   0.23942   0.47884
 -13.88637   0.47884   0.47884
 -13.40753   0.47884   0.00000
 -13.16811   0.47884   0.00000
 -12.68927   0.71826  -0.23942
 -12.44985   0.71826  -0.47884
 -12.21043   0.71826  -0.71826
 -11.97101   0.71826  -0.95768
 -11.49217   0.71826  -1.19710
 -11.25275   0.71826  -1.43652
 -11.01333   0.71826  -1.67594
 -10.77391   0.47884  -2.15478
 -10.29507   0.47884  -2.39420
 -10.05565   0.47884  -2.87304
  -9.81623   0.47884  -3.35188
  -9.57681   0.47884  -3.59130
  -9.33739   0.47884  -4.07014
  -8.85855   0.47884  -4.54898
  -8.61913   0.47884  -5.02782
  -8.37971   0.47884  -5.50666
  -8.14029   0.47884  -5.98550
  -7.90087   0.71826  -6.46434
  -7.66145   0.47884  -6.70376
  -7.42203   0.95768  -7.18260
  -7.18260   0.95768  -7.66145
  -6.70376   1.19710  -8.14029
  -6.70376   1.19710  -8.37971
  -6.46434   1.19710  -8.85855
  -6.22492   1.43652  -9.09797
  -5.98550   1.43652  -9.33739
  -5.74608   1.43652  -9.57681
  -5.50666   1.43652 -10.05565
  -5.26724   1.43652 -10.05565
  -5.02782   1.43652 -10.53449
  -4.78840   1.43652 -10.53449
  -4.30956   1.43652 -10.77391
  -4.07014   1.43652 -11.01333
  -3.83072   1.43652 -11.01333
  -3.35188   1.43652 -11.25275
  -3.11246   1.43652 -11.25275
  -2.87304   1.19710 -11.25275
  -2.39420   1.43652 -11.25275
  -2.15478   1.43652 -11.25275
  -1.67594   1.43652 -11.25275
  -1.43652   1.67594 -11.25275
  -0.95768   1.67594 -11.25275
  -0.71826   1.67594 -11.25275
  -0.47884   1.67594 -11.25275
   0.00000   1.67594 -11.01333
   0.47884   1.67594 -11.01333
   0.71826   1.43652 -10.77391
   1.19710   1.43652 -10.77391
   1.67594   1.19710 -10.77391
   2.15478   1.19710 -10.53449
   2.39420   0.95768 -10.29507
   2.87304   0.95768 -10.05565
   3.35188   0.71826  -9.81623
   3.59130   0.47884  -9.57681
   4.07014   0.47884  -9.09797
   4.30956   0.47884  -8.85855
   4.78840   0.47884  -8.37971
   5.02782   0.23942  -7.90087
   5.50666   0.23942  -7.66145
   5.74608   0.00000  -7.18260
   5.98550   0.00000  -6.70376
   6.22492   0.00000  -5.98550
   6.46434   0.00000  -5.74608
   6.70376  -0.23942  -5.02782
   6.94318  -0.23942  -4.78840
   7.18260  -0.47884  -4.07014
   7.42203  -0.47884  -3.59130
   7.66145  -0.71826  -3.35188
   7.66145  -0.95768  -2.63362
   7.90087  -0.95768  -2.39420
   7.66145  -1.19710  -1.91536
   8.14029  -1.19710  -1.43652
   8.37971  -1.43652  -1.19710
   8.37971  -1.43652  -0.71826
   8.61913  -1.67594  -0.47884
   8.61913  -1.91536   0.00000
   8.61913  -1.91536   0.47884
   8.61913  -1.91536   0.95768
   8.85855  -1.91536   1.43652
   8.85855  -2.39420   1.91536
   9.09797  -2.15478   2.15478
   9.09797  -2.39420   2.87304
   9.09797  -2.39420   3.11246
   9.09797  -2.39420   3.59130
   9.09797  -2.63362   4.07014
   9.33739  -2.63362   4.30956
   9.33739  -2.63362   4.78840
   9.57681  -2.63362   5.26724
   9.57681  -2.63362   5.50666
   9.57681  -2.63362   5.98550
   9.57681  -2.63362   6.22492
   9.81623  -2.63362   6.70376
  10.05565  -2.63362   6.70376
  10.05565  -2.63362   7.18260
  10.29507  -2.63362   7.42203
  10.29507  -2.63362   7.42203
  10.29507  -2.63362   7.66145
  10.53449  -2.39420   7.66145
  10.77391  -2.39420   7.66145
  10.77391  -2.39420   7.66145
  11.01333  -2.39420   7.66145
  11.01333  -2.39420   7.42203
  11.25275  -2.39420   7.42203
  11.49217  -2.39420   7.18260
  11.49217  -2.39420   7.18260
  11.73159  -2.15478   6.94318
  11.73159  -2.15478   6.70376
  11.97101  -1.91536   6.46434
  12.21043  -1.91536   6.22492
  12.21043  -1.91536   5.74608
  12.44985  -1.67594   5.50666
  12.44985  -1.67594   5.02782
  12.68927  -1.43652   4.54898
  12.92869  -1.43652   4.30956
  12.92869  -1.19710   3.59130
  12.92869  -1.19710   3.35188
  12.92869  -0.95768   2.87304
  12.92869  -0.71826   2.39420
  12.92869  -0.47884   1.91536
  12.68927  -0.23942   1.43652
  12.68927  -0.23942   0.95768
  12.44985   0.23942   0.47884
  12.44985   0.47884   0.00000
