********************************************************************************
               CENTRO DE INSTRUMENTACION Y REGISTRO SISMICO  A.C.  
                       Coordinacion de Servicios Tecnicos
     Anaxagoras 814, Col. Narvarte, Benito Juarez, C.P. 03020 Mexico, D.F.
            Tels. 667 45 42/ 687 45  82             Fax. 669 25 12
********************************************************************************
ARCHIVO ESTANDAR DE ACELERACION:
VERSION DEL FORMATO                    : 2.0
NOMBRE DEL ARCHIVO                     : AL019604.231
FECHA Y HORA DE CREACION               : 27/MAR/98, 3:55
REF. CATALOGO ACELEROGRAMAS, SMIS 1996 : REGISTRO No.     /PAG.


================================================================================
DATOS DE LA ESTACION:
NOMBRE DE LA ESTACION                  : ALAMEDA
CLAVE DE LA ESTACION                   : AL01
LOCALIZACION DE LA ESTACION            : JARDIN ALAMEDA ENTRE AV. HIDALGO Y AV.
                                       : JUAREZ, CENTRO
                                       :
                                       :
                                       :
COORDENADAS DE LA ESTACION             : 19.436 LAT. N 
                                       : 99.145 LONG. W 
ALTITUD (msnm)                         : 2232
TIPO DE SUELO                          : TERRENO BLANDO, MATERIAL COMPRESIBLE
                                       : (ARCILLAS)
                                       : 
INSTITUCION RESPONSABLE                : CIRES 
                                       :

================================================================================
DATOS DEL ACELEROGRAFO:
MODELO DEL ACELEROGRAFO                : SSA-1
NUMERO DE SERIE DEL ACELEROGRAFO       : 152
NUMERO DE CANALES                      : 3
ORIENTACION C1-C6 (rumbo;orientacion)  : /N00E/+V/N90E
ORIENTACION C7-C12 (rumbo;orientacion) :
VEL. DE MUESTREO, C1-C6 (muestras/s)   : /200/200/200
VEL. DE MUESTREO, C7-C12 (muestras/s)  :
ESC. COMPLETA DE SENSORES, C1-C6, (g)  : /2/2/2
ESC. COMPLETA DE SENSORES, C7-C12, (g) :
FREC. NAT. DE SENSORES, C1-C6, (Hz)    : /51.29/51.09/53.75
FREC. NAT. DE SENSORES, C7-C12, (Hz)   :
AMORTIGUAMIENTO DE SENSORES, C1-C6     : /0.5519/0.5670/0.5810
AMORTIGUAMIENTO DE SENSORES, C7-C12    :
INTERVALO DE MUESTREO, C1-C6, (s)      : /0.005/0.005/0.005
INTERVALO DE MUESTREO, C7-C12, (s)     : 
UMBRAL DE DISPARO, C1-C6, (Gal)        : /2/1.5/2
UMBRAL DE DISPARO, C7-C12, (Gal)       :
MEMORIA DE PREEVENTO (s)               : 15
TIEMPO DE POSEVENTO (s)                : 60


================================================================================
DATOS DEL SISMO:
FECHA DEL SISMO (GMT)                  : 23/ABR/96
HORA EPICENTRO (GMT)                   : 06:53:35,0
MAGNITUD(ES)                           : /Mb=5.3/Ms=4.9/Mc=5.3
COORDENADAS DEL EPICENTRO              : 17.110 LAT. N
                                       : 101.600 LONG. W
PROFUNDIDAD FOCAL (km)                 : 17
FUENTE DE LOS DATOS EPICENTRALES       : SSN
                                       : INSTITUTO DE GEOFISICA, UNAM

================================================================================
DATOS DE ESTE REGISTRO:
HORA DE LA PRIMERA MUESTRA (GMT)       : 06:55:30.00
EXACTITUD DEL TIEMPO (s)               :     
DURACION DEL REGISTRO (s), C1-C6       : /106.24/106.24/106.2400
DURACION DEL REGISTRO (s), C7-C12      :
NUM. TOTAL DE MUESTRAS, C1-C6          : /21248/21248/21248
NUM. TOTAL DE MUESTRAS, C7-C12         :
ACEL. MAX. (Gal), C1-C6                : /2.44182/0.60459/3.25278
ACEL. MAX., C1-C6, EN LA MUESTRA       :
ACEL. MAX. (Gal), C7-C12               :
ACEL. MAX., C7-C12, EN LA MUESTRA      :
UNIDADES DE LOS DATOS                  : Gal (cm/s/s)
FACTOR DE DECIMACION                   : 1
FORMATO DATOS (FORTRAN,10 campos/dato) : 3F10.5


================================================================================
CALIDAD DEL ACELEROGRAMA:
REGISTRO DIGITAL COMPLETO, CARECE DE TIEMPO ABSOLUTO.


================================================================================
COMENTARIOS:














================================================================================
DATOS DE ACELERACION:
---------+---------+---------+---------+---------+---------+---------+---------+
   CANAL-1   CANAL-2   CANAL-3   CANAL-4   CANAL-5   CANAL-6   CANAL-7   CANAL-8
      N00E        +V      N90E
---------+---------+---------+---------+---------+---------+---------+---------+
[...]
   0.05182   0.35541  -0.62278
   0.05182   0.35541  -0.62278
   0.05182   0.35541  -0.62278
   0.05182   0.35541  -0.86278
   0.05182   0.35541  -0.86278
   0.05182   0.35541  -0.86278
   0.05182   0.35541  -0.86278
   0.05182   0.11541  -0.86278
  -0.18818   0.35541  -0.86278
  -0.18818   0.35541  -0.86278
   0.05182   0.35541  -0.86278
  -0.18818   0.35541  -1.10278
  -0.18818   0.35541  -1.10278
  -0.18818   0.11541  -1.10278
  -0.18818   0.11541  -1.10278
  -0.18818   0.11541  -1.10278
  -0.18818   0.11541  -1.10278
  -0.18818   0.11541  -1.10278
  -0.18818   0.11541  -1.10278
  -0.18818   0.11541  -1.10278
  -0.18818   0.11541  -1.10278
  -0.18818   0.11541  -1.10278
  -0.18818   0.11541  -1.10278
  -0.18818   0.11541  -1.10278
  -0.18818   0.11541  -1.34278
  -0.18818   0.11541  -1.10278
  -0.18818  -0.12459  -1.10278
  -0.42818  -0.12459  -1.10278
  -0.42818  -0.12459  -1.10278
  -0.42818  -0.12459  -1.10278
  -0.42818  -0.12459  -1.10278
  -0.42818  -0.12459  -1.10278
  -0.42818  -0.12459  -1.10278
  -0.42818  -0.12459  -1.10278
  -0.42818  -0.12459  -1.34278
  -0.42818   0.11541  -1.10278
  -0.42818   0.11541  -1.10278
  -0.42818   0.11541  -1.10278
  -0.66818  -0.12459  -1.10278
  -0.66818   0.11541  -1.10278
  -0.66818  -0.12459  -1.10278
  -0.66818  -0.12459  -1.10278
  -0.66818  -0.12459  -1.10278
  -0.66818  -0.12459  -1.10278
  -0.66818  -0.12459  -1.10278
  -0.66818  -0.12459  -0.86278
  -0.66818  -0.12459  -1.10278
  -0.66818  -0.12459  -0.86278
  -0.66818  -0.12459  -0.86278
  -0.66818  -0.12459  -0.86278
  -0.66818  -0.12459  -0.86278
  -0.66818  -0.12459  -0.86278
  -0.66818  -0.12459  -0.86278
  -0.90818  -0.12459  -0.86278
  -0.66818  -0.12459  -0.86278
  -0.66818  -0.12459  -0.86278
  -0.66818  -0.12459  -0.86278
  -0.66818   0.11541  -0.86278
  -0.66818   0.11541  -0.62278
  -0.66818   0.11541  -0.62278
  -0.42818   0.11541  -0.62278
  -0.66818   0.11541  -0.62278
  -0.66818   0.11541  -0.62278
  -0.66818   0.11541  -0.62278
  -0.42818   0.11541  -0.38278
  -0.42818   0.11541  -0.38278
  -0.42818   0.11541  -0.38278
  -0.42818   0.11541  -0.38278
  -0.42818   0.11541  -0.38278
  -0.42818   0.11541  -0.38278
  -0.42818   0.11541  -0.38278
  -0.42818   0.11541  -0.14278
  -0.42818   0.11541  -0.14278
  -0.18818   0.11541  -0.14278
  -0.18818   0.11541  -0.14278
  -0.18818   0.11541  -0.14278
  -0.18818   0.11541   0.09722
  -0.18818   0.11541   0.09722
  -0.18818   0.11541   0.09722
  -0.18818   0.11541   0.09722
  -0.18818   0.11541   0.09722
  -0.18818   0.11541   0.09722
  -0.18818   0.11541   0.09722
  -0.18818   0.11541   0.09722
  -0.18818   0.11541   0.09722
   0.05182   0.11541   0.09722
   0.05182   0.11541   0.09722
   0.05182   0.11541   0.33722
   0.05182   0.11541   0.33722
   0.05182   0.11541   0.33722
   0.05182   0.11541   0.33722
   0.05182   0.11541   0.33722
   0.05182   0.11541   0.33722
   0.28182   0.11541   0.33722
   0.28182   0.11541   0.33722
   0.05182   0.11541   0.33722
   0.28182   0.11541   0.33722
   0.28182   0.11541   0.33722
   0.28182   0.11541   0.33722
   0.28182   0.35541   0.33722
   0.28182   0.11541   0.57722
   0.28182   0.35541   0.57722
   0.28182   0.35541   0.57722
   0.28182   0.35541   0.57722
   0.52182   0.11541   0.57722
   0.52182   0.35541   0.57722
   0.52182   0.35541   0.57722
   0.52182   0.35541   0.57722
   0.52182   0.35541   0.57722
   0.52182   0.35541   0.57722
   0.52182   0.35541   0.57722
   0.52182   0.35541   0.57722
   0.52182   0.35541   0.57722
   0.52182   0.35541   0.57722
   0.52182   0.35541   0.57722
   0.52182   0.35541   0.57722
   0.76182   0.35541   0.57722
   0.76182   0.11541   0.57722
   0.76182   0.35541   0.57722
   0.76182   0.35541   0.57722
   0.76182   0.35541   0.57722
   0.76182   0.35541   0.57722
   0.76182   0.35541   0.57722
   0.76182   0.35541   0.57722
   0.76182   0.35541   0.57722
   0.76182   0.35541   0.57722
   0.76182   0.35541   0.57722
   0.76182   0.35541   0.57722
   0.76182   0.35541   0.57722
   0.76182   0.35541   0.57722
   0.76182   0.35541   0.57722
   0.76182   0.35541   0.57722
   0.76182   0.35541   0.81722
   0.76182   0.35541   0.81722
   0.76182   0.35541   0.81722
   0.76182   0.35541   0.81722
   0.76182   0.35541   0.81722
   0.76182   0.11541   0.81722
   0.76182   0.11541   0.81722
   0.76182   0.11541   0.81722
   0.76182   0.11541   0.81722
   0.76182  -0.12459   0.81722
   0.76182   0.11541   0.81722
   0.76182   0.11541   1.05722
   0.76182   0.11541   1.05722
   0.76182   0.11541   1.05722
   0.76182   0.11541   1.05722
   0.76182   0.11541   1.05722
   0.76182   0.11541   1.05722
   0.76182   0.11541   1.05722
   0.76182   0.11541   1.05722
   0.76182   0.11541   1.05722
   0.76182  -0.12459   1.29722
   0.76182   0.11541   1.29722
   1.00182   0.11541   1.29722
   0.76182  -0.12459   1.29722
   1.00182  -0.12459   1.29722
   0.76182  -0.12459   1.29722
   1.00182  -0.12459   1.29722
   1.00182  -0.12459   1.53722
   1.00182  -0.12459   1.53722
   1.00182  -0.12459   1.53722
   1.00182  -0.36459   1.53722
   1.00182  -0.36459   1.53722
   1.00182  -0.36459   1.53722
   1.00182  -0.36459   1.53722
   1.00182  -0.36459   1.53722
   1.00182  -0.36459   1.77722
   1.00182  -0.36459   1.77722
   1.00182  -0.36459   1.77722
   1.00182  -0.36459   1.77722
   1.00182  -0.36459   1.77722
   1.00182  -0.36459   1.77722
   1.00182  -0.36459   1.77722
   1.00182  -0.36459   1.77722
   1.00182  -0.36459   1.77722
   1.00182  -0.36459   1.77722
   1.00182  -0.36459   1.77722
   1.00182  -0.36459   1.77722
   1.00182  -0.36459   1.77722
   1.00182  -0.36459   1.77722
   1.00182  -0.36459   2.01722
   1.00182  -0.36459   1.77722
   1.00182  -0.36459   2.01722
   1.00182  -0.36459   1.77722
   1.00182  -0.36459   2.01722
   1.00182  -0.60459   2.01722
   1.00182  -0.36459   2.01722
   1.00182  -0.36459   2.01722
   1.00182  -0.36459   2.01722
   1.00182  -0.36459   2.01722
   0.76182  -0.36459   2.01722
   0.76182  -0.36459   2.01722
   0.76182  -0.36459   2.01722
   1.00182  -0.36459   2.01722
   0.76182  -0.36459   2.01722
   1.00182  -0.36459   2.01722
   0.76182  -0.36459   2.01722
   0.76182  -0.36459   2.01722
   0.76182  -0.36459   2.01722
   0.76182  -0.36459   2.01722
   0.76182  -0.36459   2.01722
   0.52182  -0.36459   2.01722
   0.76182  -0.36459   2.01722
   0.52182  -0.36459   2.01722
   0.76182  -0.36459   2.01722
   0.52182  -0.36459   2.01722
   0.52182  -0.36459   2.01722
   0.52182  -0.36459   2.01722
   0.52182  -0.36459   1.77722
   0.52182  -0.36459   2.01722
   0.52182  -0.36459   2.01722
   0.52182  -0.36459   2.01722
   0.28182  -0.36459   2.01722
   0.28182  -0.36459   2.01722
   0.28182  -0.36459   1.77722
   0.28182  -0.12459   1.77722
   0.28182  -0.36459   1.77722
   0.28182  -0.36459   1.77722
   0.05182  -0.36459   1.77722
   0.05182  -0.36459   1.77722
   0.05182  -0.36459   1.77722
   0.05182  -0.36459   1.77722
   0.05182  -0.12459   1.77722
   0.05182  -0.12459   1.77722
   0.05182  -0.12459   1.77722
   0.05182  -0.12459   1.77722
  -0.18818  -0.12459   1.77722
   0.05182  -0.12459   1.77722
  -0.18818  -0.12459   1.77722
  -0.18818  -0.12459   1.77722
  -0.18818  -0.12459   1.77722
  -0.18818  -0.12459   1.53722
  -0.18818  -0.12459   1.77722
  -0.42818  -0.12459   1.77722
  -0.18818  -0.12459   1.53722
  -0.18818  -0.12459   1.53722
  -0.18818  -0.12459   1.53722
  -0.18818  -0.12459   1.53722
  -0.18818  -0.12459   1.53722
  -0.42818  -0.12459   1.53722
  -0.18818  -0.12459   1.53722
  -0.18818  -0.12459   1.53722
  -0.18818  -0.12459   1.53722
  -0.18818  -0.12459   1.29722
  -0.18818  -0.12459   1.29722
  -0.18818  -0.36459   1.29722
  -0.18818  -0.12459   1.29722
  -0.18818  -0.12459   1.29722
  -0.18818  -0.12459   1.05722
  -0.18818  -0.12459   1.05722
  -0.18818  -0.12459   1.05722
  -0.18818  -0.12459   1.05722
  -0.18818  -0.12459   1.05722
  -0.18818  -0.12459   0.81722
  -0.18818  -0.12459   0.81722
  -0.18818  -0.12459   0.81722
  -0.18818  -0.12459   0.81722
  -0.18818  -0.12459   0.81722
  -0.18818  -0.12459   0.57722
  -0.18818  -0.12459   0.57722
  -0.18818  -0.12459   0.33722
  -0.18818  -0.12459   0.33722
  -0.18818  -0.12459   0.33722
  -0.18818  -0.12459   0.09722
  -0.18818  -0.12459   0.09722
  -0.18818  -0.12459   0.09722
  -0.18818  -0.12459   0.09722
  -0.18818  -0.12459   0.09722
  -0.18818  -0.12459   0.09722
  -0.18818  -0.12459  -0.14278
  -0.18818  -0.12459  -0.14278
  -0.18818  -0.12459  -0.14278
  -0.66818  -0.12459  -0.14278
  -0.42818  -0.12459  -0.38278
  -0.42818  -0.12459  -0.38278
  -0.42818  -0.12459  -0.38278
  -0.42818  -0.12459  -0.38278
  -0.42818  -0.12459  -0.38278
  -0.42818  -0.12459  -0.62278
  -0.42818  -0.12459  -0.62278
  -0.42818  -0.12459  -0.62278
  -0.42818  -0.12459  -0.62278
  -0.66818  -0.12459  -0.62278
  -0.66818  -0.12459  -0.62278
  -0.66818   0.11541  -0.62278
  -0.66818   0.11541  -0.62278
  -0.66818  -0.12459  -0.62278
  -0.66818   0.11541  -0.62278
  -0.66818   0.11541  -0.62278
  -0.66818   0.11541  -0.86278
  -0.66818   0.11541  -0.86278
  -0.66818   0.11541  -0.86278
  -0.66818   0.11541  -0.86278
  -0.66818   0.11541  -0.86278
  -0.66818   0.11541  -0.86278
  -0.90818   0.11541  -0.86278
  -0.90818   0.11541  -0.86278
  -0.90818   0.11541  -0.86278
  -0.90818   0.11541  -0.86278
  -0.90818   0.11541  -0.86278
  -0.90818   0.11541  -1.10278
  -0.90818   0.11541  -0.86278
  -0.90818   0.11541  -1.10278
  -0.90818   0.11541  -1.10278
  -0.90818   0.11541  -1.10278
  -0.90818   0.11541  -1.10278
  -0.90818   0.11541  -1.10278
  -0.90818   0.11541  -1.34278
  -1.14818   0.11541  -1.10278
  -1.14818   0.11541  -1.34278
  -1.14818   0.11541  -1.34278
  -0.90818   0.11541  -1.34278
  -1.14818   0.11541  -1.34278
  -1.14818  -0.12459  -1.34278
  -1.14818   0.11541  -1.58278
  -1.14818   0.11541  -1.58278
  -1.14818   0.11541  -1.58278
  -1.14818   0.11541  -1.58278
  -1.14818   0.11541  -1.58278
  -1.14818  -0.12459  -1.82278
  -1.14818  -0.12459  -1.82278
  -1.14818  -0.12459  -1.82278
  -1.14818  -0.12459  -1.82278
  -1.14818  -0.12459  -2.06278
  -1.14818   0.11541  -2.06278
  -1.14818  -0.12459  -2.06278
  -1.14818   0.11541  -2.29278
  -1.14818   0.11541  -2.29278
  -1.14818   0.11541  -2.29278
  -1.14818   0.11541  -2.29278
  -1.14818   0.11541  -2.29278
  -1.14818   0.11541  -2.29278
  -1.14818   0.11541  -2.53278
  -1.14818   0.11541  -2.53278
  -1.14818   0.11541  -2.53278
  -1.14818   0.11541  -2.77278
  -1.14818   0.11541  -2.77278
  -1.14818   0.11541  -2.77278
  -1.14818   0.11541  -2.77278
  -1.14818   0.11541  -2.77278
  -1.14818   0.35541  -3.01278
  -1.14818   0.11541  -3.01278
  -1.14818   0.35541  -3.01278
  -1.14818   0.35541  -3.01278
  -1.14818   0.35541  -3.01278
  -1.14818   0.35541  -3.01278
  -1.14818   0.35541  -3.01278
  -1.14818   0.35541  -3.01278
  -1.14818   0.35541  -3.25278
  -0.90818   0.35541  -3.01278
  -0.90818   0.35541  -3.01278
  -0.90818   0.35541  -3.25278
  -0.90818   0.35541  -3.25278
  -0.90818   0.35541  -3.25278
  -0.90818   0.35541  -3.25278
  -0.90818   0.59541  -3.25278
  -0.90818   0.59541  -3.25278
  -0.66818   0.59541  -3.25278
  -0.66818   0.35541  -3.25278
  -0.66818   0.59541  -3.25278
  -0.66818   0.59541  -3.25278
  -0.66818   0.59541  -3.25278
  -0.66818   0.59541  -3.01278
  -0.66818   0.59541  -3.25278
  -0.42818   0.35541  -3.01278
  -0.42818   0.35541  -3.01278
  -0.42818   0.35541  -3.01278
  -0.42818   0.35541  -3.01278
  -0.42818   0.35541  -3.01278
  -0.18818   0.35541  -3.01278
  -0.18818   0.35541  -3.01278
  -0.18818   0.35541  -3.01278
  -0.18818   0.35541  -2.77278
  -0.18818   0.35541  -2.77278
  -0.18818   0.35541  -2.77278
  -0.18818   0.35541  -2.77278
  -0.18818   0.35541  -2.77278
  -0.18818   0.35541  -2.77278
  -0.18818   0.35541  -2.77278
  -0.18818   0.11541  -2.77278
  -0.18818   0.11541  -2.77278
  -0.18818   0.11541  -2.77278
  -0.18818   0.11541  -2.77278
   0.05182   0.11541  -2.77278
   0.05182   0.11541  -2.53278
  -0.18818   0.11541  -2.77278
  -0.18818   0.11541  -2.53278
  -0.18818   0.11541  -2.53278
   0.05182   0.11541  -2.53278
  -0.18818   0.11541  -2.53278
  -0.18818  -0.12459  -2.53278
   0.05182   0.11541  -2.53278
   0.05182   0.11541  -2.53278
  -0.18818   0.11541  -2.53278
   0.05182   0.11541  -2.53278
   0.05182   0.11541  -2.53278
  -0.18818   0.11541  -2.29278
   0.05182   0.11541  -2.29278
   0.05182   0.11541  -2.29278
  -0.18818   0.11541  -2.29278
   0.05182   0.11541  -2.29278
   0.05182   0.11541  -2.29278
   0.05182   0.11541  -2.29278
   0.05182   0.11541  -2.06278
   0.05182   0.11541  -2.06278
   0.05182   0.11541  -2.06278
   0.05182   0.11541  -2.06278
   0.05182   0.11541  -2.06278
   0.05182   0.11541  -1.82278
   0.05182   0.11541  -1.82278
   0.05182   0.11541  -1.82278
   0.28182   0.11541  -1.82278
   0.05182   0.11541  -1.58278
   0.28182   0.11541  -1.58278
   0.28182   0.11541  -1.34278
   0.28182   0.11541  -1.34278
   0.28182   0.11541  -1.34278
   0.28182  -0.12459  -1.34278
   0.28182  -0.12459  -1.10278
   0.28182  -0.12459  -1.10278
   0.28182  -0.12459  -1.10278
   0.28182  -0.12459  -0.86278
   0.28182  -0.12459  -0.86278
   0.28182  -0.12459  -0.86278
   0.28182  -0.12459  -0.62278
   0.28182  -0.12459  -0.62278
   0.28182  -0.12459  -0.62278
   0.28182  -0.12459  -0.38278
   0.28182  -0.12459  -0.38278
   0.28182  -0.12459  -0.14278
   0.28182  -0.12459  -0.14278
   0.28182  -0.12459  -0.14278
   0.28182  -0.12459   0.09722
   0.28182  -0.12459   0.09722
   0.28182  -0.12459   0.09722
   0.28182  -0.36459   0.09722
   0.28182  -0.12459   0.33722
   0.28182  -0.12459   0.33722
   0.28182  -0.12459   0.33722
   0.28182  -0.12459   0.33722
   0.28182  -0.12459   0.57722
   0.28182  -0.12459   0.57722
   0.05182  -0.12459   0.57722
   0.05182  -0.12459   0.57722
   0.05182  -0.12459   0.81722
   0.05182  -0.12459   0.81722
   0.05182  -0.12459   0.81722
   0.05182  -0.12459   1.05722
   0.05182  -0.12459   1.05722
   0.05182  -0.12459   1.05722
   0.05182  -0.12459   1.05722
   0.05182  -0.12459   1.05722
   0.05182  -0.12459   1.29722
   0.05182  -0.12459   1.29722
   0.05182  -0.12459   1.29722
   0.05182  -0.12459   1.29722
  -0.18818  -0.12459   1.29722
   0.05182  -0.12459   1.53722
   0.05182  -0.12459   1.53722
   0.05182  -0.12459   1.53722
  -0.18818  -0.12459   1.53722
   0.05182  -0.12459   1.53722
   0.05182  -0.12459   1.53722
   0.05182  -0.12459   1.53722
  -0.18818  -0.12459   1.53722
   0.05182  -0.12459   1.53722
   0.05182  -0.12459   1.53722
   0.05182  -0.12459   1.77722
   0.05182  -0.12459   1.77722
   0.05182  -0.12459   1.77722
   0.05182  -0.12459   1.77722
   0.05182  -0.12459   1.77722
   0.05182   0.11541   1.77722
   0.05182   0.11541   1.77722
   0.28182   0.11541   1.77722
   0.28182  -0.12459   1.77722
   0.28182  -0.12459   1.77722
   0.28182  -0.12459   1.77722
   0.28182   0.11541   1.77722
   0.28182   0.11541   1.77722
   0.28182   0.11541   1.77722
   0.52182   0.11541   1.77722
   0.52182   0.11541   1.77722
   0.52182   0.11541   1.77722
   0.52182   0.11541   1.77722
   0.52182   0.11541   1.77722
   0.52182   0.11541   1.77722
   0.52182   0.11541   1.77722
   0.52182   0.11541   1.77722
   0.52182   0.11541   1.77722
   0.52182   0.11541   1.77722
   0.76182   0.11541   1.77722
   0.76182   0.11541   1.77722
   0.76182   0.11541   1.77722
   0.76182   0.11541   2.01722
   0.76182   0.11541   2.01722
   0.76182   0.11541   2.01722
   0.76182   0.11541   2.01722
