********************************************************************************
              CENTRO DE INSTRUMENTACION Y REGISTRO SISMICO  A.C.

    Anaxagoras 814, Col. Narvarte, Benito Juarez, C.P. 03020 Mexico, D.F.
           Tels. 5687 45 42/ 5687 45  82             Fax. 5669 25 12
********************************************************************************
ARCHIVO ESTANDAR DE ACELERACION:
VERSION DEL FORMATO                    : 2.0
NOMBRE DEL ARCHIVO                     : AL0120130326131217
FECHA Y HORA DE CREACION               : 29/JUL/13, 13:17
REF. CATALOGO ACELEROGRAMAS, SMIS 1996 : REGISTRO No.     /PAG.


================================================================================
DATOS DE LA ESTACION:
NOMBRE DE LA ESTACION                  : ALAMEDA
CLAVE DE LA ESTACION                   : AL01
LOCALIZACION DE LA ESTACION            : Del. Cuauhtémoc, Col. Centro,          
                                       : Dr. Mora entre Av. Hidalgo             
                                       : y Av. Juárez.                          
                                       :                                        
                                       : 
COORDENADAS DE LA ESTACION             : 19.4356 LAT. N
                                       : 99.1453 LONG. W
ALTITUD (msnm)                         : 2232
TIPO DE SUELO                          : Terreno blando, material compresible
                                       : (arcillas)                
                                       : 
INSTITUCION RESPONSABLE                : CIRES
                                       : 

================================================================================
DATOS DEL ACELEROGRAFO:
MODELO DEL ACELEROGRAFO                : RADESD
NUMERO DE SERIE DEL ACELEROGRAFO       : 152
NUMERO DE CANALES                      : 3
ORIENTACION C1-C6 (rumbo;orientacion)  : /N00E/+V/N90W
ORIENTACION C7-C12 (rumbo;orientacion) : 
VEL. DE MUESTREO, C1-C6 (muestras/s)   : /100/100/100
VEL. DE MUESTREO, C7-C12 (muestras/s)  : 
ESC. COMPLETA DE SENSORES, C1-C6, (g)  : /0.5/0.5/0.5
ESC. COMPLETA DE SENSORES, C7-C12, (g) : 
FREC. NAT. DE SENSORES, C1-C6, (Hz)    : /51.29/51.09/53.75
FREC. NAT. DE SENSORES, C7-C12, (Hz)   : 
AMORTIGUAMIENTO DE SENSORES, C1-C6     : /0.5519/0.5670/0.5810
AMORTIGUAMIENTO DE SENSORES, C7-C12    : 
INTERVALO DE MUESTREO, C1-C6, (s)      : /0.01/0.01/0.01
INTERVALO DE MUESTREO, C7-C12, (s)     : 
UMBRAL DE DISPARO, C1-C6, (Gal)        : /14.37/28.73/14.37
UMBRAL DE DISPARO, C7-C12, (Gal)       : 
MEMORIA DE PREEVENTO (s)               : 56.0
TIEMPO DE POSEVENTO (s)                : 80.0


================================================================================
DATOS DEL SISMO:
FECHA DEL SISMO (GMT)                  : 26/MAR/13
HORA EPICENTRO (GMT)                   : 13:12:17.0
MAGNITUD(ES)                           : /Mc=5.0
COORDENADAS DEL EPICENTRO              : 15.94 LAT. N
                                       : 98.45 LONG. W
PROFUNDIDAD FOCAL (km)                 : 10
FUENTE DE LOS DATOS EPICENTRALES       : SSN
                                       : INSTITUTO DE GEOFISICA, UNAM

================================================================================
DATOS DE ESTE REGISTRO:
HORA DE LA PRIMERA MUESTRA (GMT)       : 13:14:16.00
EXACTITUD DEL TIEMPO (s)               : 0.01
DURACION DEL REGISTRO (s), C1-C6       : /123.2/123.2/123.2
DURACION DEL REGISTRO (s), C7-C12      : 
NUM. TOTAL DE MUESTRAS, C1-C6          : /12320/12320/12320
NUM. TOTAL DE MUESTRAS, C7-C12         : 
ACEL. MAX. (Gal), C1-C6                : /1.04674/0.39551/0.86553
ACEL. MAX., C1-C6, EN LA MUESTRA       : /4394/10341/4467
ACEL. MAX. (Gal), C7-C12               : 
ACEL. MAX., C7-C12, EN LA MUESTRA      : 
UNIDADES DE LOS DATOS                  : Gal (cm/s/s)
FACTOR DE DECIMACION                   : 1
FORMATO DATOS (FORTRAN,10 campos/dato) : 3F10.5


================================================================================
CALIDAD DEL ACELEROGRAMA:
REGISTRO DIGITAL COMPLETO CON TIEMPO ABSOLUTO CORRECTO.


================================================================================
COMENTARIOS:














================================================================================
DATOS DE ACELERACION:
---------+---------+---------+---------+---------+---------+---------+---------+
   CANAL-1   CANAL-2   CANAL-3   CANAL-4   CANAL-5   CANAL-6   CANAL-7   CANAL-8
      N00E        +V      N90W
---------+---------+---------+---------+---------+---------+---------+---------+
[...]
   0.26862  -0.20304   0.39142
   0.22373  -0.23296   0.37646
   0.16388  -0.24793   0.37646
   0.16388  -0.27785   0.40639
   0.08906  -0.23296   0.46624
   0.11898  -0.26289   0.49617
   0.10402  -0.24793   0.51113
   0.11898  -0.23296   0.54106
   0.11898  -0.21800   0.51113
   0.14891  -0.20304   0.54106
   0.10402  -0.09829   0.49617
   0.10402  -0.09829   0.52610
   0.08906   0.02142   0.51113
   0.10402   0.02142   0.51113
   0.14891   0.05135   0.40639
   0.16388   0.08128   0.45128
   0.10402   0.03638   0.39142
   0.10402   0.05135   0.31660
   0.14891   0.08128   0.24179
   0.10402   0.08128   0.22682
   0.10402   0.05135   0.10711
   0.05913   0.12617   0.12208
   0.04417   0.12617   0.01733
   0.04417   0.09624  -0.01260
   0.02920   0.11120  -0.08742
   0.07409   0.11120  -0.08742
   0.02920   0.03638  -0.08742
  -7.3E-40   0.08128  -0.10238
  -0.03065   0.05135  -0.19216
  -0.12044   0.05135  -0.19216
  -0.15036   0.11120  -0.23705
  -0.24015   0.09624  -0.31187
  -0.22518   0.14113  -0.32684
  -0.31496   0.21595  -0.26698
  -0.37482   0.12617  -0.29691
  -0.41971   0.17106  -0.28195
  -0.44964   0.06631  -0.29691
  -0.41971   0.05135  -0.29691
  -0.44964   0.00646  -0.32684
  -0.46460   0.05135  -0.34180
  -0.49453   0.05135  -0.35676
  -0.44964   0.02142  -0.37173
  -0.43467   0.02142  -0.41662
  -0.49453   0.05135  -0.46151
  -0.44964   0.02142  -0.52137
  -0.41971  -0.00851  -0.55129
  -0.46460   0.03638  -0.52137
  -0.40475   0.03638  -0.49144
  -0.37482   0.12617  -0.49144
  -0.28504   0.15609  -0.46151
  -0.25511   0.14113  -0.46151
  -0.24015   0.15609  -0.43158
  -0.19525   0.08128  -0.46151
  -0.19525   0.09624  -0.41662
  -0.24015   0.12617  -0.32684
  -0.15036   0.09624  -0.23705
  -0.12044   0.06631  -0.20713
  -0.12044  -0.06836  -0.11734
  -0.13540  -0.08333  -0.04253
  -0.13540  -0.05340  -0.02756
  -0.16533  -0.06836   0.03229
  -0.15036  -0.05340   0.09215
  -0.15036  -0.06836   0.12208
  -0.15036  -0.12822   0.18193
  -0.15036  -0.14318   0.18193
  -0.18029  -0.15814   0.18193
  -0.15036  -0.08333   0.21186
  -0.22518  -0.05340   0.21186
  -0.25511  -0.05340   0.21186
  -0.25511  -0.05340   0.22682
  -0.24015   0.02142   0.21186
  -0.25511   0.06631   0.24179
  -0.16533   0.11120   0.18193
  -0.16533   0.09624   0.15200
  -0.16533   0.06631   0.15200
  -0.19525   0.00646   0.09215
  -0.12044   0.02142   0.04726
  -0.13540  -0.02347  -0.05749
  -0.10547  -0.03843  -0.13231
  -0.03065  -0.02347  -0.20713
   0.01424   0.06631  -0.22209
   0.05913  -0.03843  -0.35676
   0.05913   0.06631  -0.28195
   0.11898   0.08128  -0.37173
   0.14891   0.06631  -0.37173
   0.13395   0.09624  -0.43158
   0.14891   0.06631  -0.44655
   0.08906   0.08128  -0.41662
   0.08906   0.03638  -0.40166
   0.11898   0.00646  -0.40166
   0.08906   0.02142  -0.29691
   0.07409   0.02142  -0.35676
   0.02920  -0.02347  -0.37173
   0.02920  -0.05340  -0.35676
  -0.01569  -0.05340  -0.37173
  -0.03065  -0.08333  -0.38669
  -0.12044  -0.05340  -0.32684
  -0.15036   0.00646  -0.26698
  -0.21022  -0.03843  -0.23705
  -0.25511  -0.02347  -0.13231
  -0.27007  -0.00851  -0.11734
  -0.35986  -0.02347  -0.02756
  -0.27007   0.00646   0.00237
  -0.32993   0.02142   0.03229
  -0.30000  -0.05340   0.00237
  -0.40475  -0.09829   0.03229
  -0.34489  -0.03843   0.00237
  -0.32993  -0.09829   0.00237
  -0.30000  -0.05340   0.00237
  -0.28504  -0.09829   0.06222
  -0.22518  -0.17311   0.01733
  -0.16533  -0.14318   0.03229
  -0.15036  -0.17311  -0.01260
  -0.07554  -0.17311  -0.05749
  -0.07554  -0.20304  -0.02756
  -0.06058  -0.08333  -0.05749
   0.01424  -0.08333  -0.07245
   0.02920   0.03638  -0.08742
   0.10402   0.00646  -0.07245
   0.04417   0.03638  -0.08742
   0.10402  -0.02347  -0.11734
   0.14891  -0.02347  -0.13231
   0.17884   0.00646  -0.13231
   0.20877   0.02142  -0.13231
   0.19380   0.02142  -0.13231
   0.19380  -0.02347  -0.19216
   0.19380   0.00646  -0.14727
   0.19380   0.02142  -0.14727
   0.19380   0.02142  -0.11734
   0.16388   0.05135  -0.14727
   0.16388   0.03638  -0.14727
   0.10402   0.14113  -0.07245
   0.13395   0.14113  -0.02756
   0.13395   0.11120   0.01733
   0.13395   0.06631   0.03229
   0.14891   0.12617   0.13704
   0.11898   0.15609   0.13704
   0.11898   0.27580   0.24179
   0.08906   0.23091   0.22682
   0.13395   0.17106   0.27171
   0.14891   0.14113   0.30164
   0.14891   0.12617   0.30164
   0.13395   0.09624   0.36150
   0.10402   0.12617   0.34653
   0.07409   0.09624   0.34653
   0.10402   0.03638   0.31660
   0.10402   0.02142   0.28668
   0.14891  -0.02347   0.22682
   0.07409  -0.00851   0.22682
   0.14891  -0.02347   0.13704
   0.08906  -0.03843   0.12208
   0.10402  -0.02347   0.04726
   0.10402  -0.02347  -0.02756
   0.16388   0.02142  -0.02756
   0.08906   0.08128  -0.07245
   0.11898   0.11120  -0.11734
   0.14891   0.17106  -0.16224
   0.14891   0.14113  -0.14727
   0.11898   0.12617  -0.16224
   0.13395   0.06631  -0.14727
   0.11898   0.08128  -0.11734
   0.04417   0.11120  -0.10238
   0.04417   0.11120  -0.05749
   0.07409   0.00646  -0.08742
  -0.03065   0.05135  -0.07245
  -0.06058  -0.00851  -0.02756
  -7.3E-40  -0.03843  -0.02756
  -0.06058  -0.03843  -0.04253
  -0.06058  -0.03843   0.03229
  -0.04562  -0.05340   0.10711
  -0.03065  -0.09829   0.15200
  -7.3E-40  -0.02347   0.25675
  -0.03065  -0.05340   0.21186
   0.01424  -0.03843   0.24179
  -7.3E-40   0.00646   0.31660
   0.05913  -0.02347   0.36150
   0.05913  -0.06836   0.43632
   0.02920  -0.02347   0.57099
   0.07409   0.03638   0.58595
   0.07409   0.05135   0.64581
   0.04417  -0.03843   0.64581
   0.10402  -0.11325   0.69070
   0.08906  -0.09829   0.69070
   0.07409  -0.12822   0.69070
   0.05913  -0.12822   0.61588
   0.02920  -0.09829   0.54106
   0.04417  -0.11325   0.46624
   0.13395  -0.12822   0.40639
   0.11898  -0.03843   0.42135
   0.13395  -0.05340   0.40639
   0.13395  -0.08333   0.27171
   0.04417  -0.02347   0.25675
   0.05913   0.03638   0.22682
   0.05913   0.00646   0.18193
   0.01424   0.03638   0.12208
   0.01424   0.06631   0.10711
   0.02920   0.06631   0.06222
   0.05913   0.05135   0.07718
   0.02920   0.12617   0.07718
   0.02920  -0.02347   0.07718
   0.08906  -0.02347   0.09215
   0.07409  -0.03843   0.06222
   0.04417   0.03638   0.16697
   0.07409  -0.05340   0.13704
   0.07409  -0.05340   0.10711
   0.04417   0.00646   0.15200
   0.11898  -0.03843   0.12208
   0.17884  -0.05340   0.15200
   0.23870  -0.06836   0.12208
   0.31351  -0.03843   0.19689
   0.35841  -0.03843   0.19689
   0.40330  -0.09829   0.18193
   0.46315  -0.03843   0.15200
   0.46315   0.02142   0.07718
   0.49308   0.00646   0.04726
   0.46315  -0.05340   0.07718
   0.47812   0.03638   0.04726
   0.50804   0.05135   0.01733
   0.52301  -0.00851   0.01733
   0.53797  -0.02347  -0.02756
   0.55293   0.02142  -0.07245
   0.50804   0.02142  -0.08742
   0.43322  -0.06836  -0.10238
   0.41826   0.00646  -0.07245
   0.40330  -0.02347  -0.08742
   0.31351  -0.03843  -0.11734
   0.25366  -0.06836  -0.19216
   0.26862  -0.06836  -0.17720
   0.22373  -0.05340  -0.14727
   0.17884  -0.02347  -0.13231
   0.04417   0.00646  -0.13231
   0.02920  -0.00851  -0.17720
  -0.06058  -0.03843  -0.14727
  -0.06058  -0.05340  -0.22209
  -0.07554  -0.03843  -0.14727
  -0.18029  -0.00851  -0.17720
  -0.16533  -0.05340  -0.22209
  -0.18029  -0.03843  -0.20713
  -0.24015  -0.03843  -0.22209
  -0.21022   0.00646  -0.20713
  -0.28504   0.02142  -0.19216
  -0.22518  -0.03843  -0.26698
  -0.24015  -0.03843  -0.25202
  -0.25511  -0.09829  -0.26698
  -0.25511  -0.06836  -0.29691
  -0.25511  -0.05340  -0.31187
  -0.21022  -0.09829  -0.35676
  -0.24015  -0.06836  -0.40166
  -0.27007  -0.05340  -0.44655
  -0.25511  -0.08333  -0.50640
  -0.22518  -0.06836  -0.53633
  -0.27007  -0.00851  -0.46151
  -0.31496  -0.05340  -0.44655
  -0.31496  -0.09829  -0.49144
  -0.32993  -0.11325  -0.49144
  -0.35986  -0.11325  -0.46151
  -0.37482  -0.02347  -0.46151
  -0.38978  -0.03843  -0.41662
  -0.43467   0.02142  -0.35676
  -0.47957   0.03638  -0.37173
  -0.53942   0.05135  -0.38669
  -0.56935   0.09624  -0.35676
  -0.56935   0.12617  -0.35676
  -0.62920   0.14113  -0.35676
  -0.64417   0.11120  -0.31187
  -0.70402   0.14113  -0.38669
  -0.73395   0.15609  -0.37173
  -0.65913   0.15609  -0.35676
  -0.65913   0.17106  -0.32684
  -0.59928   0.12617  -0.29691
  -0.61424   0.14113  -0.34180
  -0.59928   0.14113  -0.32684
  -0.55438   0.17106  -0.34180
  -0.58431   0.14113  -0.37173
  -0.49453   0.12617  -0.37173
  -0.44964   0.11120  -0.41662
  -0.38978   0.08128  -0.41662
  -0.38978   0.12617  -0.41662
  -0.32993   0.06631  -0.43158
  -0.30000   0.08128  -0.35676
  -0.27007   0.09624  -0.32684
  -0.22518   0.05135  -0.31187
  -0.21022   0.09624  -0.29691
  -0.18029  -0.00851  -0.31187
  -0.22518  -0.02347  -0.28195
  -0.19525   0.00646  -0.22209
  -0.22518   0.00646  -0.08742
  -0.24015   0.05135  -0.05749
  -0.24015  -0.02347  -0.01260
  -0.25511  -0.11325   0.03229
  -0.24015  -0.14318   0.09215
  -0.30000  -0.14318   0.19689
  -0.31496  -0.09829   0.15200
  -0.31496  -0.09829   0.13704
  -0.28504  -0.06836   0.12208
  -0.30000  -0.09829   0.07718
  -0.28504  -0.11325   0.00237
  -0.27007  -0.02347   0.01733
  -0.28504   0.02142   0.01733
  -0.18029   0.05135  -0.01260
  -0.19525   0.11120   0.04726
  -0.12044   0.11120   0.03229
  -0.18029   0.14113   0.04726
  -0.10547   0.11120   0.09215
  -0.06058   0.08128   0.06222
  -0.06058   0.11120   0.12208
  -0.04562   0.15609   0.12208
   0.04417   0.14113   0.13704
   0.05913   0.05135   0.06222
   0.05913   0.08128   0.09215
   0.07409   0.09624   0.16697
   0.07409   0.05135   0.13704
   0.04417   0.03638   0.12208
   0.01424   0.03638   0.10711
   0.04417   0.00646   0.13704
   0.02920  -0.08333   0.13704
   0.04417  -0.05340   0.16697
  -0.03065   0.02142   0.28668
   0.01424   0.06631   0.31660
  -0.01569   0.00646   0.37646
   0.04417   0.00646   0.34653
   0.04417  -0.00851   0.43632
   0.02920   0.06631   0.51113
   0.01424   0.08128   0.55603
   0.02920   0.00646   0.52610
   0.08906  -0.00851   0.58595
   0.10402  -0.03843   0.61588
   0.14891  -0.03843   0.63084
   0.20877  -0.05340   0.70566
   0.28359  -0.06836   0.69070
   0.34344  -0.06836   0.75055
   0.37337  -0.05340   0.72063
   0.43322  -0.00851   0.76552
   0.49308  -0.05340   0.67574
   0.56790  -0.02347   0.69070
   0.65768   0.02142   0.64581
   0.71754   0.05135   0.70566
   0.80732   0.06631   0.67574
   0.86717   0.02142   0.61588
   0.92703   0.00646   0.63084
   0.97192  -0.00851   0.60092
   0.97192   0.02142   0.60092
   0.95696  -0.03843   0.55603
   0.95696  -0.03843   0.51113
   1.01681  -0.05340   0.46624
   1.00185  -0.14318   0.37646
   1.04674  -0.15814   0.31660
   1.01681  -0.12822   0.28668
   1.00185  -0.08333   0.33157
   0.97192  -0.09829   0.27171
   0.94199  -0.11325   0.22682
   0.88214  -0.11325   0.27171
   0.85221  -0.11325   0.27171
   0.70257  -0.08333   0.34653
   0.71754  -0.00851   0.21186
   0.61279   0.03638   0.12208
   0.55293  -0.00851   0.04726
   0.47812   0.08128   0.13704
   0.49308   0.03638   0.06222
   0.35841   0.08128   0.10711
   0.34344  -0.06836   0.07718
   0.32848   0.08128   0.25675
   0.28359   0.02142   0.07718
   0.13395   0.11120   0.18193
   0.25366   0.08128   0.15200
   0.14891   0.08128   0.25675
   0.13395   0.11120   0.19689
   0.13395   0.00646   0.30164
   0.10402   0.08128   0.19689
   0.14891  -0.03843   0.09215
   0.10402   0.02142   0.13704
   0.13395   0.03638   0.03229
   0.10402  -0.00851   0.12208
   0.16388  -0.00851  -0.01260
   0.11898   0.02142  -0.07245
   0.16388   0.03638  -0.10238
   0.19380   0.09624   0.00237
   0.16388  -0.09829  -0.05749
   0.05913   0.00646  -0.02756
   0.07409  -0.17311  -0.11734
   0.07409  -0.08333  -0.04253
   0.04417  -0.15814  -0.23705
  -0.03065  -0.11325  -0.10238
   0.02920  -0.08333  -0.19216
  -0.06058  -0.09829  -0.26698
  -7.3E-40  -0.05340  -0.20713
  -0.01569  -0.12822  -0.22209
  -0.15036  -0.09829  -0.22209
  -0.12044  -0.12822  -0.23705
  -0.15036  -0.03843  -0.20713
  -0.15036  -0.02347  -0.23705
  -0.18029  -0.06836  -0.13231
  -0.25511   0.14113  -0.23705
  -0.12044   0.05135  -0.20713
  -0.19525   0.05135  -0.08742
  -0.19525   0.03638  -0.10238
  -0.12044   0.00646  -0.17720
  -0.12044   0.06631  -0.02756
  -0.16533   0.12617  -0.04253
  -0.04562   0.05135  -0.05749
  -0.12044   0.03638   0.00237
  -0.09051   0.00646  -0.01260
  -0.09051  -0.08333  -0.10238
  -0.07554   0.02142  -0.04253
  -0.07554  -0.03843  -0.13231
  -0.12044  -0.06836  -0.08742
  -0.16533   0.05135  -0.13231
  -0.18029  -0.03843  -0.22209
  -0.21022  -0.00851  -0.11734
  -0.27007   0.02142  -0.26698
  -0.31496  -0.05340  -0.17720
  -0.43467   0.06631  -0.28195
  -0.35986   0.02142  -0.23705
  -0.55438  -0.11325  -0.40166
  -0.53942  -0.09829  -0.46151
  -0.67409   0.02142  -0.47647
  -0.65913  -0.03843  -0.61115
  -0.65913  -0.00851  -0.59618
  -0.71899  -0.00851  -0.70093
  -0.64417  -0.11325  -0.86553
  -0.59928  -0.05340  -0.67100
  -0.62920   0.03638  -0.71589
  -0.58431  -0.02347  -0.79071
  -0.58431  -0.03843  -0.79071
  -0.61424   0.02142  -0.67100
  -0.53942   0.06631  -0.64108
  -0.52446   0.00646  -0.67100
  -0.52446   0.06631  -0.58122
  -0.53942   0.11120  -0.52137
  -0.38978   0.03638  -0.55129
  -0.37482   0.02142  -0.50640
  -0.40475   0.02142  -0.50640
  -0.40475  -0.11325  -0.52137
  -0.34489  -0.05340  -0.55129
  -0.34489  -0.03843  -0.49144
  -0.38978  -0.06836  -0.41662
  -0.40475  -0.03843  -0.40166
  -0.41971   0.02142  -0.46151
  -0.44964   0.05135  -0.58122
  -0.40475  -0.06836  -0.65604
  -0.41971   0.05135  -0.56626
  -0.44964   0.06631  -0.55129
  -0.50949   0.05135  -0.65604
  -0.50949   0.06631  -0.65604
  -0.53942   0.09624  -0.58122
  -0.56935   0.21595  -0.61115
  -0.53942   0.14113  -0.65604
  -0.56935   0.14113  -0.55129
  -0.55438   0.17106  -0.53633
  -0.53942   0.09624  -0.56626
  -0.56935   0.09624  -0.44655
  -0.56935   0.08128  -0.34180
  -0.59928   0.06631  -0.34180
  -0.61424   0.06631  -0.23705
  -0.56935   0.03638  -0.20713
  -0.58431   0.11120  -0.10238
  -0.47957   0.06631  -0.07245
  -0.43467   0.02142   0.06222
  -0.43467   0.00646   0.12208
  -0.37482  -0.00851   0.24179
  -0.28504  -0.08333   0.27171
  -0.30000   0.03638   0.37646
  -0.21022  -0.00851   0.42135
  -0.12044  -0.08333   0.40639
  -0.16533   0.00646   0.48121
  -0.09051  -0.11325   0.37646
  -0.04562  -0.08333   0.54106
  -7.3E-40  -0.08333   0.52610
   0.02920  -0.14318   0.49617
   0.07409  -0.11325   0.55603
   0.08906  -0.11325   0.49617
   0.19380  -0.02347   0.51113
   0.14891  -0.05340   0.48121
   0.20877  -0.11325   0.40639
   0.28359  -0.05340   0.42135
   0.29855  -0.11325   0.48121
   0.28359  -0.06836   0.39142
   0.28359  -0.05340   0.36150
   0.28359  -0.15814   0.25675
   0.31351  -0.08333   0.33157
   0.32848  -0.02347   0.19689
   0.35841   0.05135   0.10711
   0.38833   0.05135   0.15200
   0.37337   0.11120   0.07718
   0.38833   0.03638   0.16697
   0.35841   0.08128   0.15200
   0.29855   0.08128   0.13704
   0.29855   0.11120   0.22682
   0.28359   0.11120   0.21186
   0.31351   0.06631   0.27171
   0.20877   0.09624   0.22682
   0.23870   0.06631   0.28668
   0.20877   0.03638   0.30164
   0.16388   0.05135   0.40639
   0.20877   0.00646   0.45128
   0.16388   0.05135   0.39142
