********************************************************************************
              CENTRO DE INSTRUMENTACION Y REGISTRO SISMICO  A.C.

    Anaxagoras 814, Col. Narvarte, Benito Juarez, C.P. 03020 Mexico, D.F.
           Tels. 5687 45 42/ 5687 45  82             Fax. 5669 25 12
********************************************************************************
ARCHIVO ESTANDAR DE ACELERACION:
VERSION DEL FORMATO                    : 2.0
NOMBRE DEL ARCHIVO                     : AL0120110505132407
FECHA Y HORA DE CREACION               : 01/JUL/11, 12:12
REF. CATALOGO ACELEROGRAMAS, SMIS 1996 : REGISTRO No.     /PAG.


================================================================================
DATOS DE LA ESTACION:
NOMBRE DE LA ESTACION                  : ALAMEDA
CLAVE DE LA ESTACION                   : AL01
LOCALIZACION DE LA ESTACION            : Del. Cuauhtémoc, Col. Centro,          
                                       : Dr. Mora entre Av. Hidalgo             
                                       : y Av. Juárez.                          
                                       :                                        
                                       : 
COORDENADAS DE LA ESTACION             : 19.4356 LAT. N
                                       : 99.1453 LONG. W
ALTITUD (msnm)                         : 2232
TIPO DE SUELO                          : Terreno blando, material compresible
                                       : (arcillas)                
                                       : 
INSTITUCION RESPONSABLE                : CIRES
                                       : 

================================================================================
DATOS DEL ACELEROGRAFO:
MODELO DEL ACELEROGRAFO                : RADESD
NUMERO DE SERIE DEL ACELEROGRAFO       : 152
NUMERO DE CANALES                      : 3
ORIENTACION C1-C6 (rumbo;orientacion)  : /N00E/+V/N90W
ORIENTACION C7-C12 (rumbo;orientacion) : 
VEL. DE MUESTREO, C1-C6 (muestras/s)   : /100/100/100
VEL. DE MUESTREO, C7-C12 (muestras/s)  : 
ESC. COMPLETA DE SENSORES, C1-C6, (g)  : /0.5/0.5/0.5
ESC. COMPLETA DE SENSORES, C7-C12, (g) : 
FREC. NAT. DE SENSORES, C1-C6, (Hz)    : /51.29/51.09/53.75
FREC. NAT. DE SENSORES, C7-C12, (Hz)   : 
AMORTIGUAMIENTO DE SENSORES, C1-C6     : /0.5519/0.5670/0.5810
AMORTIGUAMIENTO DE SENSORES, C7-C12    : 
INTERVALO DE MUESTREO, C1-C6, (s)      : /0.01/0.01/0.01
INTERVALO DE MUESTREO, C7-C12, (s)     : 
UMBRAL DE DISPARO, C1-C6, (Gal)        : /0.72/1.44/0.72
UMBRAL DE DISPARO, C7-C12, (Gal)       : 
MEMORIA DE PREEVENTO (s)               : 56.0
TIEMPO DE POSEVENTO (s)                : 64.0


================================================================================
DATOS DEL SISMO:
FECHA DEL SISMO (GMT)                  : 05/MAY/11
HORA EPICENTRO (GMT)                   : 13:24:07.0
MAGNITUD(ES)                           : /Mc=5.5
COORDENADAS DEL EPICENTRO              : 16.61 LAT. N
                                       : 98.91 LONG. W
PROFUNDIDAD FOCAL (km)                 : 11
FUENTE DE LOS DATOS EPICENTRALES       : SSN
                                       : INSTITUTO DE GEOFISICA, UNAM

================================================================================
DATOS DE ESTE REGISTRO:
HORA DE LA PRIMERA MUESTRA (GMT)       : 13:25:33.00
EXACTITUD DEL TIEMPO (s)               : 0.01
DURACION DEL REGISTRO (s), C1-C6       : /205.0/205.0/205.0
DURACION DEL REGISTRO (s), C7-C12      : 
NUM. TOTAL DE MUESTRAS, C1-C6          : /20500/20500/20500
NUM. TOTAL DE MUESTRAS, C7-C12         : 
ACEL. MAX. (Gal), C1-C6                : /5.81326/2.8007/4.44993
ACEL. MAX., C1-C6, EN LA MUESTRA       : /6752/6707/6676
ACEL. MAX. (Gal), C7-C12               : 
ACEL. MAX., C7-C12, EN LA MUESTRA      : 
UNIDADES DE LOS DATOS                  : Gal (cm/s/s)
FACTOR DE DECIMACION                   : 1
FORMATO DATOS (FORTRAN,10 campos/dato) : 3F10.5


================================================================================
CALIDAD DEL ACELEROGRAMA:
REGISTRO DIGITAL COMPLETO CON TIEMPO ABSOLUTO CORRECTO.


================================================================================
COMENTARIOS:














================================================================================
DATOS DE ACELERACION:
---------+---------+---------+---------+---------+---------+---------+---------+
   CANAL-1   CANAL-2   CANAL-3   CANAL-4   CANAL-5   CANAL-6   CANAL-7   CANAL-8
      N00E        +V      N90W
---------+---------+---------+---------+---------+---------+---------+---------+
[...]
   1.74312   0.07234  -1.33747
   1.50370   0.07234  -1.33747
   1.50370   0.31176  -1.09805
   1.26428   0.55118  -1.33747
   0.54602   0.55118  -1.09805
   0.78544   0.55118  -0.85863
   0.30660   0.79060  -0.37979
  -0.17224   1.03002  -0.37979
  -0.41166   1.03002  -0.14037
  -0.89050   1.26944   0.09905
  -1.36934   1.26944   0.33847
  -1.60876   1.26944   0.33847
  -1.84818   1.26944   0.81731
  -2.32702   1.50886   0.81731
  -2.56644   1.26944   0.81731
  -2.56644   1.50886   0.81731
  -2.56644   1.26944   1.05673
  -2.80586   0.79060   1.05673
  -3.28470   0.55118   1.29615
  -3.28470   0.07234   1.05673
  -3.52412   0.31176   1.77499
  -3.28470  -0.16708   1.29615
  -3.28470  -0.40650   1.53557
  -3.52412  -0.64592   1.77499
  -3.52412  -0.88534   1.77499
  -3.28470  -0.88534   2.01441
  -3.52412  -1.12476   2.01441
  -3.28470  -1.36418   2.25383
  -3.04528  -1.84302   2.01441
  -3.04528  -1.60360   2.25383
  -2.80586  -1.84302   2.25383
  -2.80586  -2.08244   2.49325
  -2.32702  -2.32186   2.25383
  -2.32702  -2.08244   2.49325
  -1.84818  -2.32186   2.49325
  -1.60876  -2.32186   2.49325
  -1.60876  -2.32186   2.25383
  -1.36934  -2.56128   2.25383
  -1.12992  -1.84302   2.01441
  -1.36934  -1.60360   2.01441
  -1.12992  -1.60360   1.77499
  -1.12992  -1.60360   1.53557
  -1.12992  -1.12476   1.77499
  -0.89050  -0.88534   1.77499
  -0.89050  -0.64592   1.29615
  -0.89050  -0.64592   1.05673
  -0.65108   0.07234   0.81731
  -0.65108   0.55118   0.57789
  -0.41166   0.79060   0.33847
  -0.41166   1.03002   0.33847
  -0.41166   1.26944  -0.14037
  -0.41166   1.50886  -0.37979
  -0.17224   1.26944  -0.61921
   0.06718   1.98770  -0.85863
  -0.17224   1.98770  -0.85863
   0.06718   1.98770  -1.09805
   0.06718   1.98770  -1.33747
   0.30660   1.98770  -1.09805
   0.54602   1.98770  -1.33747
   0.78544   1.98770  -1.09805
   0.78544   1.98770  -1.09805
   0.78544   1.74828  -1.09805
   1.02486   1.74828  -1.33747
   1.02486   1.50886  -1.09805
   1.26428   1.50886  -1.33747
   1.50370   1.26944  -1.09805
   1.74312   1.03002  -1.33747
   1.74312   1.26944  -0.85863
   1.98254   0.79060  -0.85863
   1.98254   0.55118  -0.61921
   2.22196   0.79060  -0.61921
   2.22196   0.79060  -0.37979
   2.46138   0.55118  -0.37979
   2.46138   0.55118  -0.14037
   2.46138   0.55118  -0.14037
   2.46138   0.31176  -0.14037
   2.46138   0.31176   0.33847
   2.46138   0.07234   0.33847
   2.46138   0.31176   0.33847
   2.22196   0.07234   0.57789
   2.22196   0.07234   0.57789
   1.98254   0.07234   0.57789
   1.98254  -0.16708   0.81731
   1.98254   0.31176   1.05673
   1.74312  -0.16708   0.81731
   1.50370  -0.40650   0.81731
   1.50370  -0.40650   0.81731
   1.74312  -0.40650   0.57789
   1.26428  -0.64592   0.81731
   1.02486  -0.88534   0.57789
   1.02486  -1.12476   0.57789
   0.78544  -1.36418   0.57789
   0.54602  -1.12476   0.57789
   0.54602  -1.36418   0.57789
   0.30660  -1.36418   0.57789
   0.30660  -1.60360   0.33847
   0.06718  -1.36418   0.57789
  -0.17224  -1.36418   0.33847
  -0.17224  -1.36418   0.33847
  -0.41166  -1.36418   0.09905
  -0.17224  -1.36418   0.09905
  -0.41166  -1.36418   0.09905
  -0.41166  -0.88534  -0.14037
  -0.65108  -0.88534   0.09905
  -0.65108  -0.88534   0.09905
  -0.41166  -1.12476  -0.14037
  -0.41166  -0.64592   0.09905
  -0.41166  -0.64592  -0.14037
  -0.41166  -0.88534  -0.14037
  -0.41166  -0.40650  -0.14037
  -0.17224  -0.40650   0.33847
   0.06718  -0.88534  -0.14037
   0.06718  -0.64592   0.09905
   0.30660  -0.40650   0.09905
   0.06718  -0.64592  -0.14037
   0.54602  -0.40650  -0.14037
   0.54602  -0.40650   0.09905
   0.78544  -0.64592  -0.37979
   0.78544  -0.40650  -0.37979
   0.78544  -0.88534  -0.37979
   0.78544  -0.40650  -0.37979
   0.78544  -0.40650  -0.37979
   0.54602  -0.64592  -0.61921
   0.54602  -0.16708  -0.61921
   0.30660   0.07234  -0.85863
   0.06718   0.07234  -1.09805
   0.06718   0.31176  -1.33747
   0.06718   0.31176  -1.33747
  -0.41166   0.31176  -1.57689
  -0.41166   0.79060  -1.57689
  -0.41166   0.55118  -1.81631
  -0.89050   0.79060  -1.81631
  -0.65108   1.26944  -2.29515
  -0.89050   1.03002  -2.29515
  -0.89050   1.26944  -2.05573
  -0.89050   1.50886  -2.05573
  -1.12992   1.74828  -2.05573
  -1.12992   1.74828  -2.29515
  -1.36934   1.74828  -2.29515
  -1.60876   1.74828  -2.29515
  -1.36934   1.50886  -2.29515
  -1.60876   1.74828  -2.05573
  -1.36934   1.50886  -2.05573
  -1.36934   1.50886  -2.29515
  -1.36934   1.26944  -1.81631
  -1.36934   1.26944  -2.05573
  -1.12992   1.03002  -2.05573
  -1.12992   1.03002  -1.81631
  -0.89050   0.55118  -1.81631
  -0.89050   0.79060  -1.81631
  -0.89050   0.31176  -1.81631
  -1.12992   0.07234  -1.81631
  -1.12992   0.31176  -1.81631
  -1.12992  -0.16708  -1.81631
  -1.12992  -0.16708  -1.81631
  -0.89050  -0.40650  -1.81631
  -1.12992  -0.40650  -1.81631
  -1.12992  -0.40650  -1.57689
  -1.12992  -0.64592  -1.57689
  -1.36934  -0.16708  -1.33747
  -1.36934  -0.40650  -1.33747
  -1.36934  -0.64592  -1.09805
  -1.60876  -0.64592  -1.09805
  -1.36934  -0.64592  -1.09805
  -1.36934  -1.12476  -0.85863
  -1.36934  -0.64592  -0.61921
  -1.12992  -0.64592  -0.85863
  -0.89050  -0.88534  -0.61921
  -0.65108  -0.40650  -0.37979
  -0.65108  -0.88534  -0.14037
  -0.41166  -0.64592   0.09905
   0.06718  -0.40650   0.09905
   0.30660  -0.88534   0.33847
   0.54602  -0.64592   0.57789
   1.02486  -0.88534   0.57789
   1.26428  -1.12476   0.57789
   1.26428  -0.88534   0.81731
   1.98254  -0.88534   0.81731
   2.22196  -1.12476   1.05673
   2.22196  -0.88534   1.29615
   2.22196  -1.12476   1.05673
   2.46138  -0.88534   1.29615
   2.46138  -0.88534   1.05673
   2.70080  -0.88534   1.05673
   2.46138  -0.88534   1.05673
   2.46138  -1.12476   1.05673
   2.46138  -1.12476   0.57789
   2.22196  -0.64592   1.05673
   1.98254  -0.88534   0.81731
   1.98254  -0.64592   0.57789
   1.74312  -0.64592   1.05673
   1.26428  -0.64592   0.81731
   1.02486  -0.40650   1.05673
   0.78544  -0.40650   1.05673
   0.54602  -0.16708   1.29615
   0.30660   0.07234   1.29615
   0.06718   0.31176   1.29615
  -0.17224   0.55118   1.53557
  -0.41166   0.31176   1.53557
  -0.41166   0.79060   1.53557
  -0.89050   0.79060   2.01441
  -0.89050   1.03002   2.25383
  -1.12992   1.03002   2.49325
  -1.12992   1.26944   2.49325
  -1.60876   1.03002   2.49325
  -1.36934   1.03002   2.73267
  -1.60876   1.26944   2.73267
  -1.36934   1.26944   2.97209
  -1.36934   1.03002   2.73267
  -1.12992   1.26944   2.97209
  -1.12992   1.03002   2.97209
  -0.89050   1.03002   2.97209
  -0.65108   1.26944   2.73267
  -0.41166   1.26944   2.73267
  -0.17224   0.79060   2.25383
   0.30660   1.03002   2.25383
   0.06718   1.03002   2.01441
   0.54602   0.55118   1.53557
   0.78544   1.03002   1.29615
   0.78544   0.79060   1.05673
   1.26428   0.79060   1.05673
   1.26428   0.31176   0.57789
   1.26428   0.55118   0.33847
   1.26428   0.79060   0.09905
   1.26428   0.55118   0.09905
   1.26428   0.55118  -0.14037
   1.50370   0.07234  -0.37979
   1.50370   0.07234  -0.14037
   1.50370   0.07234  -0.37979
   1.26428   0.07234  -0.37979
   1.50370  -0.40650  -0.37979
   1.26428   0.07234  -0.14037
   1.50370  -0.16708  -0.14037
   1.02486   0.07234   0.09905
   1.02486  -0.40650   0.09905
   0.78544  -0.40650   0.57789
   0.30660  -0.64592   0.57789
   0.06718  -0.64592   0.81731
  -0.17224  -0.88534   1.05673
  -0.65108  -0.88534   1.29615
  -1.12992  -0.64592   1.53557
  -1.12992  -0.88534   1.77499
  -1.84818  -1.12476   1.77499
  -2.08760  -1.12476   2.25383
  -2.32702  -1.12476   2.25383
  -2.56644  -1.12476   2.01441
  -2.80586  -1.36418   2.01441
  -3.28470  -1.12476   2.25383
  -3.52412  -1.36418   2.25383
  -3.76354  -1.60360   2.01441
  -4.00297  -1.36418   1.77499
  -4.00297  -1.36418   1.53557
  -3.76354  -1.36418   1.05673
  -4.00297  -1.36418   0.81731
  -3.52412  -1.12476   0.57789
  -3.28470  -1.12476   0.09905
  -3.04528  -0.64592   0.09905
  -2.80586  -0.88534  -0.61921
  -2.32702  -0.64592  -1.33747
  -2.08760  -0.40650  -1.57689
  -1.36934  -0.16708  -1.81631
  -1.12992  -0.16708  -2.29515
  -0.65108   0.07234  -2.77399
  -0.41166   0.07234  -3.01341
   0.06718   0.07234  -3.25283
   0.54602   0.55118  -3.49225
   0.78544   0.79060  -3.97109
   1.02486   1.26944  -3.97109
   1.50370   1.26944  -4.21051
   1.50370   1.50886  -4.21051
   1.98254   1.74828  -4.44993
   1.98254   1.74828  -4.21051
   2.22196   1.98770  -4.21051
   1.98254   1.98770  -3.97109
   2.22196   1.98770  -3.97109
   2.22196   2.22712  -3.49225
   2.22196   2.46654  -3.01341
   2.22196   1.98770  -3.01341
   1.98254   2.22712  -2.53457
   1.74312   2.22712  -2.05573
   1.74312   1.98770  -1.81631
   1.50370   1.98770  -1.57689
   1.50370   2.22712  -1.09805
   1.50370   1.98770  -0.61921
   1.26428   1.98770  -0.37979
   1.26428   1.74828  -0.14037
   1.02486   1.50886   0.09905
   1.02486   1.26944   0.33847
   1.02486   0.79060   0.33847
   0.78544   0.55118   0.33847
   1.02486   0.31176   0.33847
   1.26428  -0.16708   0.57789
   1.26428  -0.40650   0.57789
   1.50370  -0.88534   0.81731
   1.74312  -1.12476   0.57789
   1.74312  -1.36418   0.57789
   1.98254  -1.36418   0.57789
   1.74312  -1.84302   0.33847
   1.74312  -2.32186   0.33847
   1.74312  -2.32186   0.09905
   1.50370  -2.56128   0.09905
   1.50370  -2.80070  -0.14037
   1.26428  -2.80070  -0.37979
   1.02486  -2.80070  -0.37979
   1.02486  -2.80070  -0.61921
   0.78544  -2.80070  -0.85863
   0.54602  -2.56128  -0.85863
   0.06718  -2.56128  -0.61921
  -0.41166  -2.56128  -0.61921
  -0.65108  -2.08244  -0.61921
  -1.12992  -2.08244  -0.61921
  -1.60876  -1.36418  -0.37979
  -1.60876  -1.60360  -0.61921
  -2.08760  -0.88534  -0.37979
  -2.56644  -0.64592  -0.14037
  -3.04528  -0.40650  -0.14037
  -3.04528   0.31176  -0.14037
  -3.52412   0.79060   0.57789
  -3.52412   1.03002   0.81731
  -4.00297   1.26944   0.81731
  -4.00297   1.74828   1.29615
  -4.00297   1.74828   1.53557
  -4.24239   2.46654   1.77499
  -4.00297   2.46654   2.01441
  -3.76354   2.46654   2.01441
  -3.76354   2.70596   2.25383
  -3.52412   2.70596   2.49325
  -3.04528   2.70596   2.97209
  -2.56644   2.70596   2.73267
  -2.08760   2.46654   2.97209
  -1.36934   1.98770   2.97209
  -0.89050   2.22712   2.97209
  -0.41166   1.50886   2.49325
   0.06718   1.26944   2.73267
   0.78544   0.79060   2.49325
   1.26428   1.03002   2.49325
   2.22196   0.55118   2.25383
   2.70080   0.07234   2.25383
   3.41906   0.07234   2.01441
   3.89790   0.07234   1.77499
   4.37674  -0.40650   1.77499
   4.61616  -0.64592   1.53557
   4.85558  -1.12476   1.53557
   5.33442  -1.36418   1.29615
   5.33442  -1.12476   1.29615
   5.57384  -0.88534   1.29615
   5.81326  -1.84302   0.57789
   5.33442  -1.36418   0.57789
   5.33442  -1.60360   0.57789
   5.09500  -1.36418   0.33847
   5.09500  -1.12476   0.57789
   4.61616  -1.36418   0.57789
   4.37674  -1.36418   0.09905
   3.89790  -1.12476   0.09905
   3.41906  -1.12476  -0.14037
   2.70080  -1.12476  -0.14037
   2.22196  -0.64592  -0.37979
   1.74312  -0.64592  -0.37979
   1.26428  -0.64592  -0.61921
   0.30660  -0.64592  -1.09805
   0.30660  -0.64592  -1.33747
  -0.41166  -0.88534  -1.33747
  -0.89050  -0.64592  -1.57689
  -1.36934  -0.88534  -2.05573
  -1.84818  -0.40650  -2.29515
  -2.08760  -0.64592  -2.53457
  -2.08760  -0.40650  -2.77399
  -2.32702  -0.64592  -3.01341
  -2.56644  -0.64592  -3.25283
  -2.80586  -0.40650  -3.49225
  -2.80586  -0.40650  -3.73167
  -2.56644  -0.16708  -3.73167
  -2.80586  -0.16708  -3.97109
  -2.80586  -0.16708  -3.97109
  -3.04528   0.07234  -3.97109
  -2.80586   0.07234  -3.73167
  -3.04528   0.07234  -3.49225
  -2.80586   0.07234  -3.25283
  -2.80586   0.07234  -3.25283
  -2.80586   0.31176  -3.01341
  -2.80586   0.31176  -2.53457
  -2.56644   0.31176  -2.29515
  -2.32702   0.55118  -2.05573
  -2.08760   0.55118  -1.81631
  -2.08760   0.55118  -1.33747
  -2.08760   0.55118  -0.85863
  -2.08760   0.79060  -0.61921
  -2.08760   0.55118  -0.14037
  -1.84818   0.55118   0.33847
  -1.84818   0.79060   0.57789
  -1.60876   0.79060   0.81731
  -1.60876   0.55118   1.29615
  -1.60876   0.31176   1.77499
  -1.60876   0.55118   2.01441
  -1.36934   0.31176   2.49325
  -1.36934   0.31176   2.25383
  -1.12992   0.31176   2.49325
  -1.12992   0.31176   2.49325
  -0.89050   0.31176   2.73267
  -0.65108   0.31176   2.73267
  -0.65108   0.07234   2.73267
  -0.41166   0.07234   2.73267
  -0.17224   0.07234   2.49325
   0.06718   0.07234   2.49325
   0.06718   0.31176   2.25383
   0.78544   0.31176   2.01441
   0.78544   0.31176   2.01441
   0.78544  -0.16708   1.29615
   1.26428   0.31176   1.29615
   1.26428   0.31176   0.81731
   1.50370   0.07234   0.33847
   1.74312   0.07234   0.09905
   1.74312   0.31176  -0.14037
   2.22196   0.31176  -0.61921
   2.22196   0.07234  -0.61921
   2.22196   0.07234  -0.85863
   2.46138   0.07234  -1.09805
   2.46138   0.07234  -1.33747
   2.46138   0.07234  -1.57689
   2.70080  -0.16708  -1.81631
   2.70080  -0.16708  -1.81631
   2.46138   0.07234  -1.81631
   2.70080   0.07234  -1.81631
   2.22196   0.31176  -1.81631
   2.22196   0.55118  -1.57689
   2.22196   0.55118  -1.57689
   1.98254   0.31176  -1.33747
   1.98254   0.31176  -1.09805
   1.74312   0.07234  -0.85863
   1.50370   0.31176  -0.61921
   1.26428  -0.16708  -0.37979
   1.02486  -0.16708  -0.14037
   0.54602  -0.16708   0.09905
   0.30660  -0.16708   0.33847
   0.30660   0.07234   0.81731
  -0.17224   0.07234   0.81731
  -0.41166   0.07234   1.05673
  -0.65108   0.07234   1.29615
  -0.65108  -0.16708   1.29615
  -1.12992   0.07234   1.53557
  -1.36934   0.07234   1.53557
  -1.36934   0.07234   1.53557
  -1.36934   0.07234   1.77499
  -1.60876   0.55118   2.01441
  -1.60876   0.07234   1.77499
  -1.84818  -0.16708   1.53557
  -1.60876  -0.16708   1.53557
  -1.84818   0.07234   1.53557
  -1.84818   0.07234   1.53557
  -1.60876  -0.16708   1.05673
  -1.36934  -0.16708   1.05673
  -1.12992  -0.16708   1.05673
  -1.12992  -0.40650   0.81731
  -1.12992  -0.16708   0.81731
  -0.65108  -0.40650   0.33847
  -0.65108  -0.40650   0.57789
  -0.65108  -0.40650   0.33847
  -0.17224  -0.40650   0.33847
  -0.17224  -0.40650   0.33847
  -0.17224  -0.16708   0.33847
  -0.17224  -0.16708   0.33847
  -0.41166   0.07234   0.33847
  -0.41166  -0.16708   0.33847
  -0.41166   0.31176   0.33847
  -0.65108   0.07234   0.57789
  -0.65108   0.31176   0.57789
  -0.65108   0.31176   0.57789
  -0.65108   0.79060   0.81731
  -0.65108   0.79060   0.57789
  -0.65108   0.79060   0.57789
  -0.65108   0.79060   0.57789
  -0.65108   0.79060   0.57789
  -0.89050   1.03002   0.81731
  -0.89050   0.79060   0.33847
  -0.89050   0.79060   0.33847
  -0.65108   0.55118   0.09905
  -0.65108   0.31176   0.09905
  -0.41166   0.31176  -0.14037
  -0.41166   0.07234  -0.37979
  -0.41166  -0.40650  -0.61921
  -0.17224  -0.16708  -0.61921
   0.06718  -0.40650  -0.61921
   0.06718  -0.40650  -1.09805
   0.30660  -0.64592  -1.09805
   0.54602  -0.88534  -0.85863
   0.30660  -1.12476  -1.33747
   0.78544  -1.12476  -1.33747
   0.78544  -1.36418  -1.33747
   0.78544  -1.60360  -1.57689
   1.02486  -1.36418  -1.57689
   1.02486  -1.60360  -1.33747
   1.26428  -1.84302  -1.57689
   1.26428  -2.08244  -1.57689
   1.26428  -2.08244  -1.09805
   1.26428  -1.84302  -1.09805
   1.26428  -1.84302  -0.85863
