********************************************************************************
               CENTRO DE INSTRUMENTACION Y REGISTRO SISMICO  A.C.  
                       Coordinacion de Servicios Tecnicos
     Anaxagoras 814, Col. Narvarte, Benito Juarez, C.P. 03020 Mexico, D.F.
            Tels. 667 45 42/ 687 45  82             Fax. 669 25 12
********************************************************************************
ARCHIVO ESTANDAR DE ACELERACION:
VERSION DEL FORMATO                    : 2.0
NOMBRE DEL ARCHIVO                     : AL010212.101
FECHA Y HORA DE CREACION               : 13/JUL/04, 9:25
REF. CATALOGO ACELEROGRAMAS, SMIS 1996 : REGISTRO No.     /PAG.


================================================================================
DATOS DE LA ESTACION:
NOMBRE DE LA ESTACION                  : ALAMEDA
CLAVE DE LA ESTACION                   : AL01
LOCALIZACION DE LA ESTACION            : JARDIN ALAMEDA ENTRE AV. HIDALGO Y AV.
                                       : JUAREZ, CENTRO
                                       :
                                       :
                                       :
COORDENADAS DE LA ESTACION             : 19.436 LAT. N 
                                       : 99.145 LONG. W 
ALTITUD (msnm)                         : 2232
TIPO DE SUELO                          : TERRENO BLANDO, MATERIAL COMPRESIBLE
                                       : (ARCILLAS)
                                       : 
INSTITUCION RESPONSABLE                : CIRES 
                                       :

================================================================================
DATOS DEL ACELEROGRAFO:
MODELO DEL ACELEROGRAFO                : SSA-1
NUMERO DE SERIE DEL ACELEROGRAFO       : 152
NUMERO DE CANALES                      : 3
ORIENTACION C1-C6 (rumbo;orientacion)  : /N00E/+V/N90E
ORIENTACION C7-C12 (rumbo;orientacion) :
VEL. DE MUESTREO, C1-C6 (muestras/s)   : /200/200/200
VEL. DE MUESTREO, C7-C12 (muestras/s)  :
ESC. COMPLETA DE SENSORES, C1-C6, (g)  : /2/2/2
ESC. COMPLETA DE SENSORES, C7-C12, (g) :
FREC. NAT. DE SENSORES, C1-C6, (Hz)    : /51.29/51.09/53.75
FREC. NAT. DE SENSORES, C7-C12, (Hz)   :
AMORTIGUAMIENTO DE SENSORES, C1-C6     : /.5519/.5670/.5810
AMORTIGUAMIENTO DE SENSORES, C7-C12    :
INTERVALO DE MUESTREO, C1-C6, (s)      : /0.005/0.005/0.005
INTERVALO DE MUESTREO, C7-C12, (s)     :
UMBRAL DE DISPARO, C1-C6, (Gal)        : /2/1.5/2
UMBRAL DE DISPARO, C7-C12, (Gal)       :
MEMORIA DE PREEVENTO (s)               : 15
TIEMPO DE POSEVENTO (s)                : 60


================================================================================
DATOS DEL SISMO:
FECHA DEL SISMO (GMT)                  : 10/DIC/02
HORA EPICENTRO (GMT)                   : 03:09:35,2
MAGNITUD(ES)                           : /Mb=5.1/Ms=0.0/Mc=5.1/Ma=5.3/Me=5.5
COORDENADAS DEL EPICENTRO              : 17.41 LAT. N
                                       : 101.26 LONG. W
PROFUNDIDAD FOCAL (km)                 : 29
FUENTE DE LOS DATOS EPICENTRALES       : SSN
                                       : INSTITUTO DE GEOFISICA, UNAM 

================================================================================
DATOS DE ESTE REGISTRO:
HORA DE LA PRIMERA MUESTRA (GMT)       : 03:11:06.00
EXACTITUD DEL TIEMPO (s)               :     
DURACION DEL REGISTRO (s), C1-C6       : /90.88/90.88/90.88
DURACION DEL REGISTRO (s), C7-C12      :
NUM. TOTAL DE MUESTRAS, C1-C6          : /18176/18176/18176
NUM. TOTAL DE MUESTRAS, C7-C12         :
ACEL. MAX. (Gal), C1-C6                : /2.58566/1.13485/2.76854
ACEL. MAX., C1-C6, EN LA MUESTRA       :
ACEL. MAX. (Gal), C7-C12               :
ACEL. MAX., C7-C12, EN LA MUESTRA      :
UNIDADES DE LOS DATOS                  : Gal (cm/s/s)
FACTOR DE DECIMACION                   : 1
FORMATO DATOS (FORTRAN,10 campos/dato) : 3F10.5


================================================================================
CALIDAD DEL ACELEROGRAMA:
REGISTRO DIGITAL COMPLETO, CARECE DE TIEMPO ABSOLUTO.


================================================================================
COMENTARIOS:














================================================================================
DATOS DE ACELERACION:
---------+---------+---------+---------+---------+---------+---------+---------+
   CANAL-1   CANAL-2   CANAL-3   CANAL-4   CANAL-5   CANAL-6   CANAL-7   CANAL-8
      N00E        +V      N90E
---------+---------+---------+---------+---------+---------+---------+---------+
[...]
  -1.96434   0.42485   1.56854
  -1.96434   0.42485   1.33854
  -1.96434   0.42485   1.33854
  -1.96434   0.42485   1.33854
  -1.96434   0.42485   1.09854
  -1.96434   0.42485   1.09854
  -2.20434   0.18485   1.09854
  -2.20434   0.42485   1.09854
  -1.96434   0.42485   1.09854
  -2.20434   0.18485   1.09854
  -2.20434   0.18485   1.09854
  -1.96434   0.18485   0.85854
  -1.96434   0.42485   0.85854
  -1.72434   0.18485   0.85854
  -1.96434   0.18485   0.85854
  -1.72434   0.18485   0.85854
  -1.72434   0.18485   0.85854
  -1.96434   0.18485   0.85854
  -1.72434   0.18485   0.85854
  -1.72434   0.18485   0.61854
  -1.72434   0.18485   0.61854
  -1.72434   0.18485   0.61854
  -1.72434   0.18485   0.61854
  -1.48434   0.18485   0.61854
  -1.48434   0.18485   0.37854
  -1.48434   0.18485   0.61854
  -1.48434   0.18485   0.61854
  -1.48434   0.18485   0.13854
  -1.24434   0.18485   0.61854
  -1.24434   0.18485   0.61854
  -1.24434   0.18485   0.61854
  -1.24434   0.18485   0.61854
  -1.24434   0.18485   0.37854
  -1.24434   0.18485   0.61854
  -1.48434   0.42485   0.37854
  -1.24434   0.18485   0.37854
  -1.24434   0.18485   0.37854
  -1.00434   0.18485   0.37854
  -1.00434   0.18485   0.37854
  -1.24434   0.18485   0.37854
  -1.00434   0.18485   0.37854
  -1.00434   0.18485   0.37854
  -1.00434  -0.05515   0.37854
  -1.00434   0.18485   0.37854
  -1.00434   0.18485   0.37854
  -1.00434  -0.05515   0.37854
  -1.00434  -0.05515   0.37854
  -0.76434  -0.05515   0.13854
  -0.76434  -0.05515   0.13854
  -0.76434  -0.05515   0.13854
  -0.76434  -0.05515   0.13854
  -0.76434   0.18485   0.37854
  -0.76434   0.18485   0.13854
  -0.76434   0.18485   0.13854
  -0.52434   0.18485   0.13854
  -0.76434  -0.05515   0.13854
  -0.76434  -0.05515   0.13854
  -0.52434  -0.05515  -0.10146
  -0.52434  -0.29515  -0.10146
  -0.52434  -0.29515  -0.10146
  -0.52434  -0.29515   0.13854
  -0.28434  -0.05515  -0.10146
  -0.28434  -0.05515  -0.10146
  -0.28434  -0.05515  -0.10146
  -0.28434  -0.05515  -0.10146
  -0.28434  -0.05515  -0.34146
  -0.28434  -0.05515  -0.34146
  -0.28434  -0.05515  -0.34146
  -0.28434  -0.05515  -0.58146
  -0.28434  -0.05515  -0.58146
  -0.28434  -0.05515  -0.58146
  -0.28434  -0.05515  -0.58146
  -0.28434  -0.05515  -0.58146
  -0.28434  -0.05515  -0.58146
  -0.28434  -0.05515  -0.58146
  -0.52434  -0.05515  -0.58146
  -0.28434  -0.05515  -0.58146
  -0.28434  -0.05515  -0.58146
  -0.52434  -0.05515  -0.58146
  -0.52434  -0.05515  -0.58146
  -0.52434  -0.05515  -0.58146
  -0.52434  -0.05515  -0.82146
  -0.52434  -0.05515  -0.82146
  -0.52434  -0.05515  -0.58146
  -0.52434  -0.05515  -0.82146
  -0.52434  -0.05515  -0.82146
  -0.52434  -0.05515  -0.82146
  -0.52434  -0.05515  -0.82146
  -0.52434  -0.05515  -0.82146
  -0.52434  -0.05515  -0.82146
  -0.52434  -0.05515  -0.82146
  -0.52434  -0.05515  -0.82146
  -0.76434  -0.05515  -0.82146
  -0.52434  -0.05515  -0.82146
  -0.52434  -0.05515  -1.06146
  -0.52434  -0.05515  -0.82146
  -0.52434  -0.05515  -0.82146
  -0.52434  -0.05515  -1.06146
  -0.52434  -0.29515  -1.06146
  -0.52434  -0.29515  -1.06146
  -0.52434  -0.29515  -1.06146
  -0.52434  -0.29515  -1.06146
  -0.52434  -0.53515  -1.06146
  -0.76434  -0.29515  -1.06146
  -0.76434  -0.53515  -1.06146
  -0.52434  -0.53515  -1.30146
  -0.76434  -0.29515  -1.30146
  -0.76434  -0.53515  -1.30146
  -0.76434  -0.53515  -1.30146
  -0.52434  -0.53515  -1.30146
  -0.52434  -0.53515  -1.30146
  -0.52434  -0.77515  -1.30146
  -0.52434  -0.53515  -1.30146
  -0.52434  -0.53515  -1.30146
  -0.52434  -0.53515  -1.30146
  -0.76434  -0.29515  -1.30146
  -0.52434  -0.29515  -1.30146
  -0.52434  -0.29515  -1.30146
  -0.52434  -0.53515  -1.30146
  -0.52434  -0.29515  -1.54146
  -0.52434  -0.53515  -1.54146
  -0.28434  -0.53515  -1.54146
  -0.28434  -0.53515  -1.54146
  -0.28434  -0.53515  -1.54146
  -0.28434  -0.29515  -1.54146
  -0.28434  -0.29515  -1.54146
  -0.28434  -0.29515  -1.54146
  -0.28434  -0.29515  -1.54146
  -0.28434  -0.29515  -1.54146
  -0.04434  -0.29515  -1.54146
  -0.04434  -0.29515  -2.02146
  -0.04434  -0.29515  -1.78146
  -0.04434  -0.29515  -1.54146
   0.19566  -0.29515  -1.78146
   0.19566  -0.29515  -1.78146
   0.19566  -0.05515  -1.78146
   0.19566  -0.05515  -1.54146
   0.19566  -0.29515  -1.54146
   0.43566  -0.29515  -1.54146
   0.43566  -0.29515  -1.54146
   0.67566  -0.29515  -1.54146
   0.67566  -0.29515  -1.54146
   0.67566  -0.05515  -1.54146
   0.91566  -0.05515  -1.30146
   0.91566   0.18485  -1.30146
   0.91566   0.18485  -1.30146
   1.15566   0.18485  -1.30146
   1.15566   0.42485  -1.30146
   1.15566   0.18485  -1.30146
   1.15566   0.18485  -1.30146
   1.39566   0.18485  -1.30146
   1.39566  -0.05515  -1.30146
   1.39566  -0.05515  -1.30146
   1.63566  -0.05515  -1.30146
   1.63566  -0.05515  -1.30146
   1.63566   0.18485  -1.30146
   1.87566   0.18485  -1.30146
   1.87566   0.18485  -1.06146
   2.11566   0.18485  -1.06146
   2.11566   0.18485  -1.06146
   2.11566   0.18485  -0.82146
   2.11566   0.18485  -0.82146
   2.11566   0.18485  -0.82146
   2.11566   0.18485  -0.82146
   2.11566   0.18485  -0.82146
   2.11566   0.18485  -0.82146
   2.11566   0.18485  -0.82146
   2.11566   0.18485  -0.82146
   2.35566   0.18485  -0.82146
   2.35566   0.18485  -0.82146
   2.35566   0.18485  -0.82146
   2.35566   0.18485  -0.82146
   2.35566   0.18485  -0.82146
   2.58566   0.18485  -0.82146
   2.35566   0.18485  -0.82146
   2.35566   0.18485  -0.82146
   2.35566   0.18485  -0.82146
   2.11566   0.18485  -0.82146
   2.11566   0.18485  -0.58146
   2.11566   0.18485  -0.58146
   2.11566   0.18485  -0.58146
   2.11566  -0.29515  -0.58146
   2.11566  -0.05515  -0.58146
   2.11566  -0.05515  -0.34146
   2.11566  -0.05515  -0.34146
   2.11566  -0.05515  -0.34146
   2.11566  -0.05515  -0.58146
   1.87566  -0.05515  -0.58146
   2.11566  -0.05515  -0.34146
   2.11566  -0.05515  -0.58146
   1.87566  -0.05515  -0.58146
   1.87566   0.18485  -0.34146
   1.87566   0.18485  -0.34146
   1.87566   0.18485  -0.34146
   1.63566   0.18485  -0.34146
   1.63566   0.42485  -0.34146
   1.63566   0.18485  -0.10146
   1.63566   0.18485  -0.10146
   1.39566   0.18485  -0.10146
   1.39566   0.18485  -0.10146
   1.39566  -0.05515  -0.10146
   1.39566  -0.05515   0.13854
   1.39566  -0.05515  -0.10146
   1.39566  -0.05515   0.13854
   1.39566  -0.05515   0.13854
   1.39566  -0.05515  -0.10146
   1.39566  -0.05515  -0.34146
   1.39566  -0.05515  -0.10146
   1.15566  -0.05515   0.13854
   1.15566   0.18485   0.13854
   0.91566   0.18485   0.13854
   0.91566  -0.05515   0.13854
   0.91566  -0.05515   0.13854
   0.67566  -0.05515   0.13854
   0.67566  -0.05515  -0.10146
   0.67566  -0.05515   0.13854
   0.67566  -0.05515  -0.10146
   0.67566  -0.05515  -0.10146
   0.67566   0.18485   0.13854
   0.67566   0.18485   0.13854
   0.67566   0.18485   0.13854
   0.67566   0.42485   0.13854
   0.67566   0.42485   0.13854
   0.43566   0.42485   0.13854
   0.43566   0.42485   0.13854
   0.19566   0.42485   0.13854
   0.19566   0.42485   0.13854
   0.19566   0.18485   0.13854
   0.19566   0.42485   0.13854
   0.19566   0.18485  -0.10146
  -0.04434   0.18485  -0.10146
  -0.04434   0.42485  -0.10146
  -0.04434   0.18485  -0.34146
  -0.04434   0.18485  -0.34146
  -0.04434   0.42485  -0.34146
  -0.04434   0.42485  -0.34146
  -0.28434   0.42485  -0.34146
  -0.28434   0.42485  -0.34146
  -0.28434   0.42485  -0.34146
  -0.28434   0.42485  -0.34146
  -0.28434   0.42485  -0.34146
  -0.28434   0.42485  -0.34146
  -0.52434   0.42485  -0.34146
  -0.52434   0.42485  -0.34146
  -0.52434   0.42485  -0.10146
  -0.52434   0.42485  -0.34146
  -0.52434   0.42485  -0.34146
  -0.52434   0.18485  -0.34146
  -0.52434   0.18485  -0.34146
  -0.52434   0.18485  -0.34146
  -0.52434   0.18485  -0.34146
  -0.52434   0.18485  -0.58146
  -0.52434   0.18485  -0.34146
  -0.52434   0.42485  -0.34146
  -0.52434   0.42485  -0.34146
  -0.52434   0.42485  -0.10146
  -0.52434   0.42485  -0.10146
  -0.52434   0.42485  -0.10146
  -0.52434   0.18485  -0.10146
  -0.52434   0.18485  -0.10146
  -0.52434   0.18485  -0.10146
  -0.52434   0.18485  -0.10146
  -0.52434   0.42485  -0.10146
  -0.52434   0.42485  -0.10146
  -0.52434   0.42485  -0.10146
  -0.52434   0.42485  -0.10146
  -0.76434   0.42485  -0.10146
  -0.52434   0.42485   0.13854
  -0.76434   0.42485   0.13854
  -0.76434   0.42485   0.13854
  -0.52434   0.18485   0.13854
  -0.52434   0.18485   0.13854
  -0.52434   0.18485   0.13854
  -0.76434   0.18485   0.13854
  -0.52434   0.42485   0.13854
  -0.52434   0.42485   0.13854
  -0.52434   0.42485   0.13854
  -0.52434   0.42485   0.37854
  -0.52434   0.42485   0.13854
  -0.28434   0.18485   0.37854
  -0.28434   0.18485   0.37854
  -0.28434   0.18485   0.37854
  -0.28434   0.18485   0.61854
  -0.52434   0.18485   0.61854
  -0.28434   0.18485   0.61854
  -0.52434   0.18485   0.61854
  -0.28434   0.18485   0.61854
  -0.28434   0.18485   0.61854
  -0.52434   0.18485   0.61854
  -0.28434  -0.05515   0.61854
  -0.52434  -0.05515   0.61854
  -0.52434  -0.05515   0.61854
  -0.28434  -0.05515   0.61854
  -0.28434  -0.05515   0.61854
  -0.28434  -0.05515   0.85854
  -0.28434   0.18485   0.85854
  -0.28434   0.18485   0.85854
  -0.28434   0.18485   0.85854
  -0.28434   0.18485   0.85854
  -0.28434  -0.05515   0.85854
  -0.28434  -0.05515   0.85854
  -0.28434  -0.05515   1.09854
  -0.28434  -0.05515   0.85854
  -0.28434  -0.05515   1.09854
  -0.28434  -0.05515   1.09854
  -0.28434  -0.05515   1.09854
  -0.28434  -0.05515   1.09854
  -0.28434  -0.05515   1.09854
  -0.04434  -0.29515   1.09854
  -0.04434  -0.05515   1.09854
   0.19566  -0.05515   1.09854
   0.19566  -0.05515   1.09854
   0.19566  -0.05515   1.09854
   0.19566  -0.29515   1.09854
   0.19566  -0.05515   1.33854
   0.19566  -0.05515   1.33854
   0.19566  -0.05515   1.33854
   0.19566  -0.05515   1.33854
   0.19566  -0.05515   1.33854
   0.19566  -0.05515   1.33854
   0.19566  -0.29515   1.33854
   0.19566  -0.29515   1.33854
   0.19566  -0.29515   1.33854
   0.43566  -0.29515   1.33854
   0.19566  -0.29515   1.33854
   0.19566  -0.29515   1.33854
   0.19566  -0.05515   1.33854
   0.19566  -0.29515   1.33854
   0.19566  -0.29515   1.56854
   0.19566  -0.29515   1.56854
   0.19566  -0.29515   1.80854
   0.19566  -0.29515   1.80854
   0.19566  -0.29515   1.80854
   0.19566  -0.29515   1.80854
   0.19566  -0.29515   1.80854
   0.19566  -0.53515   1.80854
   0.19566  -0.53515   2.04854
  -0.04434  -0.53515   2.04854
  -0.04434  -0.53515   2.04854
  -0.04434  -0.29515   2.28854
  -0.04434  -0.29515   2.04854
  -0.04434  -0.29515   2.28854
  -0.04434  -0.29515   2.28854
  -0.04434  -0.29515   2.52854
  -0.04434  -0.05515   2.52854
  -0.04434  -0.05515   2.52854
  -0.28434  -0.05515   2.52854
  -0.28434  -0.05515   2.52854
  -0.28434  -0.05515   2.52854
  -0.28434  -0.05515   2.76854
  -0.28434  -0.05515   2.76854
  -0.28434  -0.05515   2.76854
  -0.28434  -0.05515   2.76854
  -0.28434  -0.05515   2.76854
  -0.28434  -0.53515   2.76854
  -0.28434  -0.53515   2.76854
  -0.28434  -0.53515   2.76854
  -0.28434  -0.29515   2.76854
  -0.28434  -0.29515   2.52854
  -0.28434  -0.29515   2.52854
  -0.28434  -0.29515   2.52854
  -0.28434  -0.29515   2.52854
  -0.28434  -0.29515   2.52854
  -0.52434  -0.29515   2.52854
  -0.52434  -0.29515   2.52854
  -0.28434  -0.53515   2.52854
  -0.28434  -0.53515   2.52854
  -0.76434  -0.53515   2.52854
  -0.52434  -0.53515   2.52854
  -0.52434  -0.53515   2.28854
  -0.52434  -0.29515   2.28854
  -0.52434  -0.29515   2.28854
  -0.52434  -0.29515   2.04854
  -0.28434  -0.29515   2.04854
  -0.28434  -0.29515   1.80854
  -0.28434  -0.29515   1.80854
  -0.28434  -0.29515   1.80854
  -0.28434  -0.29515   1.80854
  -0.28434  -0.05515   1.80854
  -0.28434  -0.05515   1.80854
  -0.28434  -0.05515   1.80854
  -0.28434  -0.05515   1.56854
  -0.28434  -0.05515   1.56854
  -0.28434  -0.29515   1.56854
  -0.28434  -0.29515   1.33854
  -0.28434  -0.29515   1.33854
  -0.28434  -0.05515   1.33854
  -0.04434  -0.29515   1.33854
  -0.04434  -0.29515   1.09854
  -0.04434  -0.05515   1.09854
  -0.04434  -0.29515   1.09854
  -0.04434  -0.05515   1.09854
  -0.04434  -0.05515   1.09854
  -0.04434  -0.05515   1.09854
  -0.04434  -0.05515   1.09854
  -0.04434  -0.29515   0.85854
  -0.04434  -0.29515   0.85854
  -0.04434  -0.05515   0.85854
  -0.04434  -0.05515   0.61854
  -0.04434  -0.05515   0.61854
  -0.04434  -0.05515   0.61854
  -0.04434  -0.05515   0.61854
  -0.04434  -0.05515   0.37854
  -0.04434  -0.05515   0.37854
  -0.04434  -0.05515   0.37854
  -0.04434  -0.05515   0.37854
  -0.04434  -0.05515   0.37854
  -0.28434  -0.05515   0.13854
  -0.28434  -0.05515   0.13854
  -0.28434  -0.05515   0.13854
  -0.28434  -0.05515   0.13854
  -0.28434   0.18485   0.13854
  -0.28434  -0.05515   0.13854
  -0.28434   0.18485  -0.10146
  -0.28434   0.18485  -0.10146
  -0.28434   0.18485  -0.10146
  -0.28434  -0.05515  -0.10146
  -0.28434  -0.05515  -0.10146
  -0.52434  -0.05515  -0.10146
  -0.52434  -0.05515  -0.34146
  -0.52434  -0.05515  -0.34146
  -0.52434  -0.05515  -0.34146
  -0.52434   0.18485  -0.34146
  -0.52434   0.18485  -0.34146
  -0.52434   0.18485  -0.58146
  -0.28434   0.18485  -0.58146
  -0.28434   0.18485  -0.58146
  -0.28434   0.18485  -0.82146
  -0.28434   0.18485  -0.82146
  -0.28434   0.18485  -0.82146
  -0.52434   0.18485  -0.82146
  -0.52434   0.18485  -0.82146
  -0.52434   0.18485  -0.82146
  -0.52434   0.18485  -1.06146
  -0.28434  -0.05515  -0.82146
  -0.28434  -0.05515  -1.06146
  -0.28434  -0.05515  -1.06146
  -0.28434  -0.05515  -1.30146
  -0.28434  -0.05515  -1.30146
  -0.28434  -0.05515  -1.30146
  -0.28434  -0.29515  -1.30146
  -0.28434  -0.05515  -1.30146
  -0.28434  -0.05515  -1.30146
  -0.28434  -0.05515  -1.30146
  -0.04434  -0.05515  -1.30146
  -0.28434  -0.05515  -1.54146
  -0.04434  -0.05515  -1.30146
  -0.04434  -0.05515  -1.54146
  -0.04434  -0.05515  -1.54146
  -0.04434  -0.05515  -1.54146
  -0.04434  -0.05515  -1.78146
  -0.04434  -0.05515  -1.78146
  -0.04434  -0.05515  -1.78146
  -0.04434  -0.05515  -1.78146
  -0.04434  -0.29515  -1.78146
  -0.04434  -0.05515  -1.78146
   0.19566  -0.05515  -1.78146
   0.19566  -0.29515  -1.78146
   0.19566  -0.29515  -2.02146
   0.19566  -0.29515  -2.02146
   0.19566  -0.29515  -1.78146
   0.19566  -0.29515  -2.02146
  -0.04434  -0.29515  -2.02146
  -0.04434  -0.29515  -2.02146
  -0.04434  -0.29515  -2.02146
  -0.04434  -0.29515  -2.26146
  -0.04434  -0.29515  -2.26146
  -0.04434  -0.29515  -2.26146
  -0.28434  -0.29515  -2.26146
  -0.28434  -0.29515  -2.26146
  -0.28434  -0.29515  -2.26146
  -0.28434  -0.29515  -2.26146
  -0.28434  -0.29515  -2.26146
  -0.28434  -0.29515  -2.26146
  -0.52434  -0.29515  -2.26146
  -0.28434  -0.29515  -2.26146
  -0.28434  -0.29515  -2.26146
  -0.28434  -0.05515  -2.26146
  -0.52434  -0.05515  -2.26146
  -0.52434  -0.05515  -2.50146
  -0.52434  -0.05515  -2.50146
  -0.52434  -0.05515  -2.50146
  -0.52434  -0.05515  -2.50146
  -0.76434  -0.05515  -2.50146
  -0.76434  -0.05515  -2.74146
  -0.76434  -0.05515  -2.50146
  -0.76434  -0.05515  -2.74146
  -0.76434  -0.05515  -2.74146
  -0.76434  -0.05515  -2.50146
  -0.76434  -0.05515  -2.50146
  -0.76434  -0.05515  -2.50146
  -0.76434  -0.05515  -2.50146
  -0.76434  -0.05515  -2.50146
  -0.76434  -0.05515  -2.50146
  -0.76434  -0.05515  -2.50146
  -0.76434  -0.05515  -2.26146
  -0.76434  -0.05515  -2.26146
  -0.76434  -0.05515  -2.26146
  -0.52434   0.18485  -2.02146
