********************************************************************************
              CENTRO DE INSTRUMENTACION Y REGISTRO SISMICO  A.C.

    Anaxagoras 814, Col. Narvarte, Benito Juarez, C.P. 03020 Mexico, D.F.
           Tels. 5687 45 42/ 5687 45  82             Fax. 5669 25 12
********************************************************************************
ARCHIVO ESTANDAR DE ACELERACION:
VERSION DEL FORMATO                    : 2.0
NOMBRE DEL ARCHIVO                     : AL0120170923125259
FECHA Y HORA DE CREACION               : 25/SEP/17, 12:55
REF. CATALOGO ACELEROGRAMAS, SMIS 1996 : REGISTRO No.     /PAG.


================================================================================
DATOS DE LA ESTACION:
NOMBRE DE LA ESTACION                  : ALAMEDA
CLAVE DE LA ESTACION                   : AL01
LOCALIZACION DE LA ESTACION            : Del. Cuauhtémoc, Col. Centro,          
                                       : Dr. Mora entre Av. Hidalgo             
                                       : y Av. Juárez.                          
                                       :                                        
                                       : 
COORDENADAS DE LA ESTACION             : 19.4356 LAT. N
                                       : 99.1453 LONG. W
ALTITUD (msnm)                         : 2232
TIPO DE SUELO                          : Terreno blando, material compresible
                                       : (arcillas)                
                                       : 
INSTITUCION RESPONSABLE                : CIRES, A. C.
                                       : 

================================================================================
DATOS DEL ACELEROGRAFO:
MODELO DEL ACELEROGRAFO                : RAD_IO14
NUMERO DE SERIE DEL ACELEROGRAFO       : 
NUMERO DE CANALES                      : 3
ORIENTACION C1-C6 (rumbo;orientacion)  : /S00E/+V/N90W
ORIENTACION C7-C12 (rumbo;orientacion) : 
VEL. DE MUESTREO, C1-C6 (muestras/s)   : /100/100/100
VEL. DE MUESTREO, C7-C12 (muestras/s)  : 
ESC. COMPLETA DE SENSORES, C1-C6, (g)  : /2.0/2.0/2.0
ESC. COMPLETA DE SENSORES, C7-C12, (g) : 
FREC. NAT. DE SENSORES, C1-C6, (Hz)    : /51.29/51.09/53.75
FREC. NAT. DE SENSORES, C7-C12, (Hz)   : 
AMORTIGUAMIENTO DE SENSORES, C1-C6     : /0.5519/0.5670/0.5810
AMORTIGUAMIENTO DE SENSORES, C7-C12    : 
INTERVALO DE MUESTREO, C1-C6, (s)      : /0.01/0.01/0.01
INTERVALO DE MUESTREO, C7-C12, (s)     : 
UMBRAL DE DISPARO, C1-C6, (Gal)        : / / /
UMBRAL DE DISPARO, C7-C12, (Gal)       : 
MEMORIA DE PREEVENTO (s)               : 60
TIEMPO DE POSEVENTO (s)                : 90


================================================================================
DATOS DEL SISMO:
FECHA DEL SISMO (GMT)                  : 23/SEP/17
HORA EPICENTRO (GMT)                   : 12:52:59.0
MAGNITUD(ES)                           : /Mc=6.1
COORDENADAS DEL EPICENTRO              : 16.48 LAT. N
                                       : 94.90 LONG. W
PROFUNDIDAD FOCAL (km)                 : 75
FUENTE DE LOS DATOS EPICENTRALES       : SSN
                                       : INSTITUTO DE GEOFISICA, UNAM

================================================================================
DATOS DE ESTE REGISTRO:
HORA DE LA PRIMERA MUESTRA (GMT)       : 07:54:42.00
EXACTITUD DEL TIEMPO (s)               : 
DURACION DEL REGISTRO (s), C1-C6       : /286.0/286.0/286.0
DURACION DEL REGISTRO (s), C7-C12      : 
NUM. TOTAL DE MUESTRAS, C1-C6          : /28600/28600/28600
NUM. TOTAL DE MUESTRAS, C7-C12         : 
ACEL. MAX. (Gal), C1-C6                : /2.17097/0.91957/2.03817
ACEL. MAX., C1-C6, EN LA MUESTRA       : /7485/6869/6631
ACEL. MAX. (Gal), C7-C12               : 
ACEL. MAX., C7-C12, EN LA MUESTRA      : 
UNIDADES DE LOS DATOS                  : Gal (cm/s/s)
FACTOR DE DECIMACION                   : 1
FORMATO DATOS (FORTRAN,10 campos/dato) : 3F10.5


================================================================================
CALIDAD DEL ACELEROGRAMA:
REGISTRO DIGITAL COMPLETO CON TIEMPO ABSOLUTO CORRECTO.


================================================================================
COMENTARIOS:














================================================================================
DATOS DE ACELERACION:
---------+---------+---------+---------+---------+---------+---------+---------+
   CANAL-1   CANAL-2   CANAL-3   CANAL-4   CANAL-5   CANAL-6   CANAL-7   CANAL-8
      N00E        +V      N90W
---------+---------+---------+---------+---------+---------+---------+---------+
[...]
   1.03367   0.69653   0.36217
   1.15337   0.75643   0.42207
   1.09357   0.63663   0.42207
   1.03367   0.63663   0.48187
   0.97387   0.63663   0.48187
   0.97387   0.51693   0.42207
   0.91397   0.51693   0.48187
   0.97387   0.51693   0.42207
   0.85417   0.45713   0.42207
   0.73447   0.39723   0.48187
   0.73447   0.33743   0.36217
   0.61467   0.39723   0.36217
   0.61467   0.33743   0.36217
   0.55487   0.27753   0.42207
   0.55487   0.33743   0.42207
   0.49497   0.27753   0.36217
   0.43517   0.21773   0.36217
   0.37527   0.21773   0.24247
   0.43517   0.09803   0.36217
   0.37527   0.03813   0.42207
   0.31547   0.09803   0.24247
   0.37527   0.03813   0.30237
   0.31547   0.03813   0.36217
   0.31547   0.03813   0.36217
   0.25557  -0.08157   0.36217
   0.19577  -0.08157   0.36217
   0.13587  -0.14147   0.36217
   0.07607  -0.14147   0.42207
   0.01617  -0.26117   0.54177
  -0.10353  -0.26117   0.54177
  -0.10353  -0.26117   0.60157
  -0.16343  -0.32097   0.66147
  -0.28313  -0.32097   0.60157
  -0.28313  -0.44067   0.66147
  -0.34293  -0.44067   0.72137
  -0.46263  -0.44067   0.72137
  -0.46263  -0.44067   0.78117
  -0.58233  -0.44067   0.78117
  -0.64223  -0.44067   0.78117
  -0.76193  -0.44067   0.78117
  -0.88163  -0.44067   0.84107
  -0.94153  -0.44067   0.72137
  -0.94153  -0.44067   0.66147
  -0.94153  -0.50057   0.72137
  -1.00133  -0.50057   0.72137
  -1.06123  -0.56037   0.60157
  -1.12103  -0.50057   0.54177
  -1.12103  -0.50057   0.48187
  -1.18093  -0.44067   0.42207
  -1.18093  -0.44067   0.48187
  -1.18093  -0.44067   0.36217
  -1.30063  -0.38087   0.42207
  -1.24073  -0.38087   0.30237
  -1.24073  -0.44067   0.18267
  -1.24073  -0.44067   0.12277
  -1.12103  -0.44067   0.06297
  -1.12103  -0.38087   0.00307
  -1.18093  -0.32097   0.06297
  -1.12103  -0.38087   0.00307
  -1.12103  -0.38087   0.06297
  -1.00133  -0.38087   0.06297
  -0.88163  -0.32097   0.12277
  -0.88163  -0.32097   0.18267
  -0.94153  -0.32097   0.12277
  -0.82183  -0.20127   0.12277
  -0.82183  -0.32097   0.18267
  -0.70213  -0.26117   0.18267
  -0.64223  -0.26117   0.18267
  -0.64223  -0.32097   0.18267
  -0.46263  -0.14147   0.12277
  -0.40283  -0.14147   0.12277
  -0.28313  -0.08157   0.18267
  -0.22323  -0.08157   0.18267
  -0.22323  -0.02177   0.18267
  -0.04373  -0.08157   0.18267
   0.01617  -0.08157   0.18267
   0.07607  -0.08157   0.12277
   0.25557  -0.08157   0.12277
   0.19577  -0.08157   0.06297
   0.31547  -0.08157   0.06297
   0.31547  -0.08157   0.06297
   0.37527  -0.14147   0.12277
   0.43517  -0.14147   0.12277
   0.49497  -0.14147   0.06297
   0.43517  -0.14147   0.12277
   0.43517  -0.20127   0.12277
   0.43517  -0.20127   0.18267
   0.31547  -0.26117   0.12277
   0.31547  -0.32097   0.12277
   0.37527  -0.32097   0.12277
   0.37527  -0.32097   0.06297
   0.37527  -0.32097   0.00307
   0.19577  -0.38087   0.06297
   0.19577  -0.38087   0.12277
   0.13587  -0.38087   0.12277
   0.19577  -0.32097   0.12277
   0.13587  -0.38087   0.06297
   0.01617  -0.38087   0.12277
   0.07607  -0.32097   0.12277
   0.07607  -0.26117   0.06297
   0.13587  -0.20127   0.06297
   0.07607  -0.20127   0.00307
   0.07607  -0.20127   0.06297
   0.13587  -0.26117   0.00307
   0.13587  -0.20127  -0.05683
   0.19577  -0.14147  -0.05683
   0.19577  -0.14147  -0.17653
   0.25557  -0.14147  -0.23633
   0.19577  -0.08157  -0.23633
   0.31547  -0.08157  -0.35603
   0.25557  -0.14147  -0.47573
   0.19577  -0.08157  -0.59543
   0.25557  -0.08157  -0.71523
   0.19577  -0.08157  -0.83493
   0.31547  -0.08157  -0.95463
   0.37527  -0.20127  -1.01443
   0.31547  -0.08157  -1.01443
   0.43517  -0.08157  -1.13413
   0.31547  -0.02177  -1.25383
   0.43517  -0.08157  -1.31373
   0.37527  -0.08157  -1.31373
   0.37527  -0.02177  -1.31373
   0.43517  -0.08157  -1.37363
   0.43517   0.03813  -1.43343
   0.55487   0.09803  -1.43343
   0.55487   0.09803  -1.31373
   0.67457   0.15783  -1.31373
   0.61467   0.15783  -1.19403
   0.67457   0.27753  -1.13413
   0.67457   0.33743  -1.07433
   0.67457   0.33743  -0.89473
   0.73447   0.33743  -0.83493
   0.73447   0.39723  -0.65533
   0.73447   0.45713  -0.41593
   0.67457   0.51693  -0.35603
   0.73447   0.57683  -0.17653
   0.61467   0.57683  -0.11663
   0.61467   0.57683   0.06297
   0.55487   0.57683   0.12277
   0.67457   0.63663   0.24247
   0.55487   0.69653   0.30237
   0.43517   0.75643   0.48187
   0.37527   0.81623   0.60157
   0.31547   0.81623   0.60157
   0.31547   0.69653   0.72137
   0.19577   0.69653   0.78117
   0.19577   0.69653   0.78117
   0.07607   0.57683   0.78117
   0.01617   0.51693   0.84107
  -0.04373   0.57683   0.90087
  -0.22323   0.57683   0.90087
  -0.28313   0.63663   0.96077
  -0.40283   0.57683   0.84107
  -0.40283   0.45713   0.84107
  -0.52253   0.33743   0.78117
  -0.64223   0.33743   0.66147
  -0.52253   0.27753   0.60157
  -0.64223   0.27753   0.60157
  -0.70213   0.21773   0.66147
  -0.64223   0.33743   0.60157
  -0.70213   0.27753   0.54177
  -0.70213   0.09803   0.60157
  -0.64223   0.03813   0.60157
  -0.64223   0.03813   0.60157
  -0.58233   0.15783   0.54177
  -0.52253   0.09803   0.48187
  -0.58233   0.03813   0.42207
  -0.52253   0.03813   0.42207
  -0.52253   0.03813   0.36217
  -0.40283   0.03813   0.42207
  -0.34293  -0.02177   0.42207
  -0.34293  -0.08157   0.36217
  -0.28313  -0.08157   0.30237
  -0.34293  -0.08157   0.30237
  -0.28313  -0.08157   0.24247
  -0.22323  -0.02177   0.24247
  -0.28313   0.03813   0.18267
  -0.22323  -0.02177   0.18267
  -0.28313   0.15783   0.18267
  -0.22323   0.21773   0.24247
  -0.16343   0.15783   0.30237
  -0.22323   0.09803   0.18267
  -0.10353   0.09803   0.24247
  -0.16343   0.21773   0.12277
  -0.10353   0.21773   0.18267
  -0.04373   0.15783   0.18267
   0.01617   0.21773   0.24247
   0.07607   0.21773   0.24247
   0.07607   0.27753   0.36217
   0.19577   0.27753   0.36217
   0.31547   0.27753   0.42207
   0.31547   0.21773   0.48187
   0.43517   0.21773   0.48187
   0.55487   0.21773   0.54177
   0.67457   0.27753   0.54177
   0.73447   0.21773   0.66147
   0.85417   0.21773   0.66147
   0.91397   0.27753   0.72137
   0.97387   0.27753   0.66147
   0.97387   0.27753   0.60157
   1.09357   0.21773   0.54177
   1.15337   0.21773   0.60157
   1.21327   0.27753   0.60157
   1.27307   0.27753   0.54177
   1.21327   0.21773   0.48187
   1.27307   0.21773   0.36217
   1.27307   0.15783   0.36217
   1.33297   0.21773   0.24247
   1.27307   0.21773   0.12277
   1.33297   0.15783   0.06297
   1.21327   0.03813   0.00307
   1.15337   0.03813  -0.17653
   1.09357   0.03813  -0.29623
   0.97387  -0.02177  -0.41593
   0.91397  -0.14147  -0.47573
   0.97387  -0.14147  -0.53563
   0.85417  -0.08157  -0.65533
   0.73447  -0.14147  -0.77503
   0.67457  -0.08157  -0.83493
   0.55487  -0.08157  -0.83493
   0.43517  -0.20127  -0.89473
   0.31547  -0.26117  -0.83493
   0.31547  -0.14147  -0.89473
   0.13587  -0.20127  -0.89473
   0.07607  -0.20127  -0.89473
  -0.04373  -0.20127  -0.89473
  -0.16343  -0.20127  -0.89473
  -0.16343  -0.20127  -0.83493
  -0.28313  -0.20127  -0.77503
  -0.34293  -0.14147  -0.77503
  -0.52253  -0.08157  -0.77503
  -0.64223  -0.02177  -0.65533
  -0.64223  -0.02177  -0.65533
  -0.82183  -0.02177  -0.71523
  -0.82183  -0.08157  -0.71523
  -0.76193  -0.02177  -0.65533
  -0.88163   0.03813  -0.59543
  -0.88163  -0.02177  -0.53563
  -0.88163  -0.02177  -0.53563
  -0.94153   0.09803  -0.47573
  -0.88163   0.15783  -0.53563
  -0.94153   0.09803  -0.65533
  -0.94153   0.15783  -0.71523
  -0.76193   0.03813  -0.71523
  -0.82183   0.15783  -0.77503
  -0.82183   0.09803  -0.83493
  -0.82183   0.09803  -0.83493
  -0.82183   0.15783  -0.89473
  -0.70213   0.15783  -0.83493
  -0.76193   0.09803  -0.83493
  -0.82183   0.09803  -0.89473
  -0.76193   0.03813  -0.95463
  -0.76193   0.03813  -0.95463
  -0.70213  -0.02177  -0.89473
  -0.70213  -0.02177  -0.77503
  -0.76193  -0.14147  -0.83493
  -0.76193  -0.08157  -0.77503
  -0.70213  -0.08157  -0.71523
  -0.82183  -0.08157  -0.71523
  -0.76193  -0.02177  -0.65533
  -0.82183  -0.08157  -0.59543
  -0.82183  -0.08157  -0.47573
  -0.76193  -0.08157  -0.35603
  -0.82183  -0.02177  -0.29623
  -0.82183  -0.08157  -0.23633
  -0.76193  -0.02177  -0.17653
  -0.82183  -0.02177  -0.17653
  -0.82183  -0.08157  -0.11663
  -0.82183  -0.08157  -0.05683
  -0.88163  -0.14147   0.00307
  -0.88163  -0.14147   0.06297
  -0.88163  -0.08157   0.18267
  -0.94153  -0.14147   0.18267
  -0.88163  -0.20127   0.12277
  -0.88163  -0.14147   0.12277
  -0.94153  -0.14147   0.18267
  -0.94153  -0.14147   0.18267
  -1.06123  -0.20127   0.18267
  -1.06123  -0.20127   0.12277
  -1.06123  -0.20127   0.18267
  -1.18093  -0.32097   0.30237
  -1.24073  -0.32097   0.18267
  -1.18093  -0.20127   0.12277
  -1.30063  -0.32097   0.18267
  -1.24073  -0.26117   0.18267
  -1.30063  -0.32097   0.30237
  -1.30063  -0.26117   0.30237
  -1.24073  -0.20127   0.30237
  -1.30063  -0.26117   0.36217
  -1.36053  -0.20127   0.36217
  -1.30063  -0.08157   0.48187
  -1.36053  -0.14147   0.60157
  -1.36053  -0.08157   0.66147
  -1.30063  -0.08157   0.78117
  -1.36053  -0.02177   0.84107
  -1.36053   0.09803   0.90087
  -1.24073   0.09803   0.96077
  -1.24073   0.15783   1.02057
  -1.24073   0.21773   1.14027
  -1.12103   0.21773   1.25997
  -1.12103   0.21773   1.25997
  -1.12103   0.27753   1.14027
  -1.00133   0.27753   1.25997
  -0.94153   0.33743   1.31987
  -0.88163   0.39723   1.14027
  -0.76193   0.45713   1.08047
  -0.70213   0.45713   1.08047
  -0.58233   0.51693   1.02057
  -0.52253   0.39723   0.96077
  -0.46263   0.45713   0.90087
  -0.40283   0.45713   0.84107
  -0.40283   0.39723   0.72137
  -0.34293   0.33743   0.66147
  -0.16343   0.33743   0.60157
  -0.10353   0.27753   0.54177
   0.01617   0.21773   0.36217
   0.01617   0.21773   0.24247
   0.19577   0.09803   0.24247
   0.19577   0.09803   0.18267
   0.19577   0.03813   0.06297
   0.37527  -0.02177   0.00307
   0.37527  -0.14147   0.06297
   0.49497  -0.20127   0.00307
   0.49497  -0.14147  -0.05683
   0.67457  -0.26117   0.00307
   0.67457  -0.32097   0.12277
   0.79427  -0.38087   0.18267
   0.91397  -0.50057   0.18267
   0.97387  -0.44067   0.12277
   1.09357  -0.44067   0.24247
   1.15337  -0.50057   0.24247
   1.27307  -0.44067   0.18267
   1.27307  -0.44067   0.30237
   1.45267  -0.44067   0.36217
   1.57237  -0.44067   0.36217
   1.69207  -0.38087   0.42207
   1.75197  -0.50057   0.48187
   1.75197  -0.50057   0.48187
   1.81177  -0.44067   0.48187
   1.87167  -0.50057   0.48187
   1.87167  -0.50057   0.54177
   1.99137  -0.44067   0.54177
   1.99137  -0.38087   0.54177
   2.11107  -0.38087   0.66147
   2.11107  -0.32097   0.66147
   2.11107  -0.26117   0.60157
   2.11107  -0.26117   0.48187
   2.17097  -0.26117   0.42207
   2.17097  -0.26117   0.48187
   2.17097  -0.08157   0.42207
   2.17097  -0.08157   0.36217
   2.11107  -0.02177   0.36217
   2.11107  -0.02177   0.42207
   1.99137   0.09803   0.30237
   2.05127   0.21773   0.18267
   1.87167   0.27753   0.18267
   1.87167   0.27753   0.12277
   1.75197   0.27753   0.12277
   1.75197   0.33743   0.00307
   1.69207   0.45713  -0.11663
   1.69207   0.51693  -0.23633
   1.45267   0.51693  -0.23633
   1.45267   0.51693  -0.29623
   1.33297   0.57683  -0.35603
   1.27307   0.45713  -0.47573
   1.15337   0.57683  -0.53563
   1.21327   0.63663  -0.59543
   1.09357   0.51693  -0.71523
   1.09357   0.45713  -0.71523
   1.03367   0.39723  -0.77503
   1.09357   0.33743  -0.95463
   0.97387   0.27753  -0.95463
   0.97387   0.27753  -0.95463
   1.03367   0.27753  -1.01443
   0.97387   0.21773  -1.07433
   0.97387   0.15783  -1.07433
   0.85417   0.03813  -1.01443
   0.91397  -0.02177  -1.13413
   0.91397  -0.02177  -1.07433
   0.97387   0.03813  -1.07433
   0.91397  -0.02177  -1.07433
   0.91397  -0.02177  -1.01443
   0.79427  -0.08157  -1.01443
   0.73447  -0.14147  -0.95463
   0.73447  -0.14147  -0.95463
   0.73447  -0.14147  -0.89473
   0.73447  -0.20127  -0.83493
   0.61467  -0.26117  -0.77503
   0.61467  -0.20127  -0.77503
   0.49497  -0.20127  -0.65533
   0.49497  -0.26117  -0.53563
   0.43517  -0.32097  -0.47573
   0.37527  -0.32097  -0.35603
   0.25557  -0.38087  -0.23633
   0.19577  -0.32097  -0.23633
   0.07607  -0.38087  -0.17653
  -0.04373  -0.32097  -0.11663
  -0.10353  -0.38087   0.00307
  -0.22323  -0.38087   0.12277
  -0.34293  -0.44067   0.18267
  -0.34293  -0.44067   0.18267
  -0.46263  -0.44067   0.12277
  -0.46263  -0.44067   0.18267
  -0.46263  -0.44067   0.24247
  -0.58233  -0.38087   0.18267
  -0.52253  -0.32097   0.12277
  -0.58233  -0.32097   0.06297
  -0.58233  -0.32097   0.06297
  -0.58233  -0.32097   0.06297
  -0.70213  -0.32097   0.00307
  -0.70213  -0.14147   0.00307
  -0.70213  -0.02177  -0.11663
  -0.76193  -0.02177  -0.05683
  -0.70213  -0.02177  -0.05683
  -0.76193   0.09803  -0.11663
  -0.82183   0.21773  -0.17653
  -0.76193   0.27753  -0.17653
  -0.82183   0.33743  -0.17653
  -0.82183   0.45713  -0.29623
  -0.82183   0.51693  -0.29623
  -0.94153   0.51693  -0.41593
  -0.88163   0.57683  -0.47573
  -0.94153   0.57683  -0.47573
  -1.00133   0.57683  -0.65533
  -1.00133   0.63663  -0.59543
  -1.12103   0.63663  -0.59543
  -1.12103   0.57683  -0.59543
  -1.12103   0.57683  -0.65533
  -1.24073   0.57683  -0.65533
  -1.24073   0.63663  -0.71523
  -1.12103   0.57683  -0.71523
  -1.24073   0.45713  -0.71523
  -1.24073   0.45713  -0.71523
  -1.30063   0.51693  -0.83493
  -1.30063   0.39723  -0.83493
  -1.24073   0.39723  -0.77503
  -1.24073   0.33743  -0.71523
  -1.36053   0.21773  -0.65533
  -1.30063   0.15783  -0.59543
  -1.30063   0.15783  -0.65533
  -1.30063   0.15783  -0.59543
  -1.24073   0.03813  -0.41593
  -1.24073  -0.08157  -0.29623
  -1.30063  -0.02177  -0.29623
  -1.12103  -0.08157  -0.23633
  -1.12103  -0.14147  -0.23633
  -1.12103  -0.08157  -0.17653
  -1.06123  -0.20127  -0.05683
  -1.06123  -0.20127   0.06297
  -1.00133  -0.26117   0.18267
  -0.94153  -0.26117   0.18267
  -0.94153  -0.26117   0.24247
  -0.94153  -0.32097   0.36217
  -0.88163  -0.26117   0.48187
  -0.94153  -0.32097   0.48187
  -0.94153  -0.32097   0.60157
  -0.82183  -0.32097   0.72137
  -0.88163  -0.26117   0.78117
  -0.82183  -0.20127   0.84107
  -0.88163  -0.38087   0.90087
  -0.94153  -0.32097   0.96077
  -0.94153  -0.20127   0.96077
  -0.94153  -0.20127   1.14027
  -0.88163  -0.14147   1.20017
  -0.82183  -0.14147   1.08047
  -0.94153  -0.08157   1.25997
  -0.94153  -0.02177   1.31987
  -0.82183  -0.02177   1.37977
  -0.88163  -0.02177   1.37977
  -0.76193   0.09803   1.43957
  -0.76193   0.09803   1.31987
  -0.76193   0.15783   1.37977
  -0.70213   0.27753   1.43957
  -0.64223   0.27753   1.31987
  -0.58233   0.33743   1.25997
  -0.46263   0.39723   1.20017
  -0.40283   0.45713   1.20017
  -0.34293   0.51693   1.14027
  -0.34293   0.57683   1.08047
  -0.28313   0.57683   0.96077
  -0.10353   0.57683   0.84107
  -0.10353   0.57683   0.72137
  -0.04373   0.51693   0.66147
  -0.04373   0.51693   0.60157
   0.07607   0.57683   0.54177
   0.13587   0.45713   0.30237
   0.07607   0.45713   0.30237
   0.25557   0.33743   0.30237
   0.19577   0.33743   0.18267
   0.19577   0.33743   0.06297
   0.25557   0.33743   0.12277
   0.19577   0.27753   0.06297
   0.25557   0.27753  -0.05683
   0.19577   0.27753  -0.11663
   0.25557   0.15783  -0.05683
   0.13587   0.15783  -0.05683
   0.13587   0.21773  -0.05683
