********************************************************************************
              CENTRO DE INSTRUMENTACION Y REGISTRO SISMICO  A.C.

    Anaxagoras 814, Col. Narvarte, Benito Juarez, C.P. 03020 Mexico, D.F.
           Tels. 5687 45 42/ 5687 45  82             Fax. 5669 25 12
********************************************************************************
ARCHIVO ESTANDAR DE ACELERACION:
VERSION DEL FORMATO                    : 2.0
NOMBRE DEL ARCHIVO                     : AL0120071106063542
FECHA Y HORA DE CREACION               : 06/NOV/07, 11:17
REF. CATALOGO ACELEROGRAMAS, SMIS 1996 : REGISTRO No.     /PAG.


================================================================================
DATOS DE LA ESTACION:
NOMBRE DE LA ESTACION                  : ALAMEDA
CLAVE DE LA ESTACION                   : AL01
LOCALIZACION DE LA ESTACION            : Del. Cuauhtémoc, Col. Centro,          
                                       : Dr. Mora entre Av. Hidalgo             
                                       : y Av. Juárez.                          
                                       :                                        
                                       : 
COORDENADAS DE LA ESTACION             : 19.4356 LAT. N
                                       : 99.1453 LONG. W
ALTITUD (msnm)                         : 2232
TIPO DE SUELO                          : Terreno blando, material compresible
                                       : (arcillas)                
                                       : 
INSTITUCION RESPONSABLE                : CIRES
                                       : 

================================================================================
DATOS DEL ACELEROGRAFO:
MODELO DEL ACELEROGRAFO                : RADESD
NUMERO DE SERIE DEL ACELEROGRAFO       : 152
NUMERO DE CANALES                      : 3
ORIENTACION C1-C6 (rumbo;orientacion)  : /N00E/+V/N90W
ORIENTACION C7-C12 (rumbo;orientacion) : 
VEL. DE MUESTREO, C1-C6 (muestras/s)   : /100/100/100
VEL. DE MUESTREO, C7-C12 (muestras/s)  : 
ESC. COMPLETA DE SENSORES, C1-C6, (g)  : /0.5/0.5/0.5
ESC. COMPLETA DE SENSORES, C7-C12, (g) : 
FREC. NAT. DE SENSORES, C1-C6, (Hz)    : /51.29/51.09/53.75
FREC. NAT. DE SENSORES, C7-C12, (Hz)   : 
AMORTIGUAMIENTO DE SENSORES, C1-C6     : /0.5519/0.5670/0.5810
AMORTIGUAMIENTO DE SENSORES, C7-C12    : 
INTERVALO DE MUESTREO, C1-C6, (s)      : /0.01/0.01/0.01
INTERVALO DE MUESTREO, C7-C12, (s)     : 
UMBRAL DE DISPARO, C1-C6, (Gal)        : /0.96/2.63/0.96
UMBRAL DE DISPARO, C7-C12, (Gal)       : 
MEMORIA DE PREEVENTO (s)               : 56.0
TIEMPO DE POSEVENTO (s)                : 64.0


================================================================================
DATOS DEL SISMO:
FECHA DEL SISMO (GMT)                  : 06/NOV/07
HORA EPICENTRO (GMT)                   : 06:35:42.0
MAGNITUD(ES)                           : /Mc=5.6
COORDENADAS DEL EPICENTRO              : 17.08 LAT. N
                                       : 100.14 LONG. W
PROFUNDIDAD FOCAL (km)                 : 9
FUENTE DE LOS DATOS EPICENTRALES       : SSN
                                       : INSTITUTO DE GEOFISICA, UNAM

================================================================================
DATOS DE ESTE REGISTRO:
HORA DE LA PRIMERA MUESTRA (GMT)       : 06:37:01.00
EXACTITUD DEL TIEMPO (s)               : 0.01
DURACION DEL REGISTRO (s), C1-C6       : /126.75/126.75/126.75
DURACION DEL REGISTRO (s), C7-C12      : 
NUM. TOTAL DE MUESTRAS, C1-C6          : /12675/12675/12675
NUM. TOTAL DE MUESTRAS, C7-C12         : 
ACEL. MAX. (Gal), C1-C6                : /4.60238/3.66182/5.22076
ACEL. MAX., C1-C6, EN LA MUESTRA       : /5563/4075/5809
ACEL. MAX. (Gal), C7-C12               : 
ACEL. MAX., C7-C12, EN LA MUESTRA      : 
UNIDADES DE LOS DATOS                  : Gal (cm/s/s)
FACTOR DE DECIMACION                   : 1
FORMATO DATOS (FORTRAN,10 campos/dato) : 3F10.5


================================================================================
CALIDAD DEL ACELEROGRAMA:
REGISTRO DIGITAL COMPLETO CON TIEMPO ABSOLUTO CORRECTO.


================================================================================
COMENTARIOS:














================================================================================
DATOS DE ACELERACION:
---------+---------+---------+---------+---------+---------+---------+---------+
   CANAL-1   CANAL-2   CANAL-3   CANAL-4   CANAL-5   CANAL-6   CANAL-7   CANAL-8
      N00E        +V      N90W
---------+---------+---------+---------+---------+---------+---------+---------+
[...]
  -1.25050  -0.30993  -0.91119
  -0.29282   0.64775  -0.67177
   0.42544   0.16891   1.00417
   0.18602   0.16891  -0.67177
   0.18602  -0.07051  -0.43235
  -0.29282   0.64775  -0.43235
  -0.05340  -0.30993  -0.67177
   0.18602  -0.07051  -0.19293
  -0.29282   0.64775   0.28591
  -0.05340   0.64775   0.28591
   0.18602   0.16891   0.28591
   0.18602  -0.07051   0.52533
  -0.05340   0.40833   1.00417
   0.18602   0.16891   0.76475
   0.66486  -0.07051   0.28591
   0.18602  -0.30993   0.76475
   0.66486  -0.07051   1.00417
   0.18602   0.64775   1.00417
   0.66486  -0.78877   0.52533
  -0.05340  -0.07051   1.24359
  -0.05340  -0.30993   1.24359
  -0.53224   0.16891   0.52533
   0.18602  -0.30993   1.00417
  -0.53224   0.16891   1.48301
  -0.53224  -0.30993  -1.62945
  -0.77166   0.16891   0.28591
  -1.25050  -0.78877   1.00417
  -0.05340  -0.30993   1.00417
  -0.77166   0.40833   1.00417
  -0.05340  -1.02819   0.04649
  -0.53224   0.16891   0.28591
  -0.77166  -0.30993   0.76475
  -1.01108   0.16891   0.28591
  -0.29282  -0.30993   0.04649
  -0.77166  -0.07051  -0.19293
  -1.25050   0.40833   0.28591
  -0.29282  -0.07051  -0.19293
  -0.05340  -0.30993  -0.43235
   0.42544  -0.78877  -1.15061
   0.42544   0.16891  -0.67177
   0.18602  -0.30993  -0.91119
   0.66486  -0.07051  -1.15061
   1.14370   0.40833  -0.67177
   0.18602   0.40833  -1.15061
   0.18602   0.16891  -2.82656
   1.14370  -1.02819  -1.15061
   0.42544   0.40833   0.28591
   0.66486   0.16891  -0.67177
   0.18602   0.64775  -0.67177
   0.42544  -0.54935  -0.67177
  -0.05340  -0.07051   0.28591
   0.18602  -0.30993  -0.67177
  -0.05340  -0.07051  -0.19293
   0.18602  -0.54935  -0.43235
  -0.77166  -0.07051  -0.19293
  -0.77166   0.88717   0.28591
  -0.53224   1.12659   0.04649
  -1.25050   0.40833   0.52533
  -1.48992  -0.07051   1.00417
  -1.96876   0.88717   1.24359
  -1.25050  -1.50703   0.76475
  -1.96876   0.16891   1.00417
  -1.72934   0.40833   1.48301
  -1.96876   0.16891   0.76475
  -1.48992  -0.54935   1.00417
  -1.25050  -0.07051   0.52533
  -1.72934   0.16891   1.24359
  -1.25050  -0.54935   0.76475
  -1.48992   0.16891   1.00417
  -1.01108  -0.07051   0.76475
  -1.72934   0.64775   1.48301
  -1.01108   0.16891  -0.43235
  -0.77166   0.16891   0.28591
  -0.29282  -0.07051   0.52533
  -0.77166   0.16891   0.04649
   0.18602  -0.54935   1.48301
   0.90428  -0.54935  -1.39003
   0.18602  -0.54935  -0.67177
   0.90428  -0.54935  -1.15061
   1.14370  -0.30993  -1.39003
   1.38312  -0.78877  -1.86888
   0.66486   0.40833  -1.39003
   0.66486  -0.30993  -1.39003
   0.42544  -0.30993  -1.39003
   1.14370  -0.54935  -0.91119
   0.42544   0.16891  -0.91119
  -0.29282   0.16891  -0.43235
  -0.05340  -1.50703  -0.91119
  -0.29282  -0.30993  -0.43235
  -0.29282  -0.30993  -0.19293
  -1.01108  -0.07051   0.04649
  -0.29282  -0.78877  -0.19293
  -0.77166  -0.30993   0.52533
  -1.01108   0.64775   1.48301
  -1.72934   0.88717   0.28591
  -1.48992   0.16891   1.96185
  -1.01108   0.64775   1.72243
  -1.72934   1.36601   2.44069
  -1.01108   0.64775   2.20127
  -1.48992   0.64775   2.20127
  -4.60238  -0.30993   2.44069
  -1.01108   0.40833   1.96185
  -0.29282  -0.07051   1.72243
  -0.53224   0.16891   1.00417
  -0.53224  -0.54935   1.72243
   0.18602   0.40833   1.00417
   0.42544   0.64775   0.52533
   0.42544   0.40833   0.28591
  -0.29282   0.88717   0.76475
   0.42544   0.88717  -0.19293
   0.66486  -1.26761  -0.19293
   1.14370   0.16891  -0.91119
   0.90428   0.88717  -0.91119
  -0.29282  -0.30993  -0.67177
   2.34080  -0.54935  -1.62945
   1.86196  -1.02819  -1.86888
   2.58022  -0.30993  -1.86888
   2.10138  -0.07051  -1.39003
   3.05906  -1.26761  -2.34772
   2.81964   0.16891  -1.62945
   2.34080  -0.54935  -1.62945
   1.62254  -0.07051  -1.15061
   2.10138  -0.54935  -1.39003
   1.62254  -0.07051  -0.19293
   1.38312   0.40833  -0.19293
   0.18602   0.16891  -2.34772
   0.66486  -1.26761   0.04649
   1.38312  -0.78877   0.28591
   0.42544   0.40833   0.04649
   0.66486  -0.30993  -0.19293
   0.18602  -0.07051   0.04649
  -0.53224  -0.30993   0.52533
  -0.77166   0.40833   0.52533
  -0.53224   0.16891  -0.19293
  -1.01108   0.16891   0.52533
  -1.48992  -0.07051   1.96185
  -1.25050   0.40833   1.00417
  -1.48992   1.36601   1.48301
  -1.01108  -0.07051   3.63779
  -1.01108   0.64775   1.24359
  -0.53224  -0.07051   0.28591
  -0.29282  -0.07051   0.28591
  -0.05340  -0.54935   0.28591
  -0.29282   0.16891   0.04649
  -0.05340  -0.07051   0.28591
   0.90428  -0.07051  -0.43235
   0.66486   0.16891   0.28591
   0.90428   0.16891   0.04649
   0.90428   0.40833   0.04649
   2.10138  -0.07051  -0.43235
   1.62254   0.16891   0.04649
   2.34080   0.16891   0.04649
   1.86196   0.40833  -0.19293
   3.29848  -0.30993  -0.43235
   2.81964   0.16891   0.04649
   2.34080   0.64775  -0.19293
   2.34080   0.40833  -0.43235
   2.34080   0.64775  -0.43235
   2.10138   0.64775   0.52533
   1.14370   0.88717   0.28591
   1.14370   0.64775  -0.67177
   0.66486   0.64775   0.04649
  -0.53224   0.40833   0.76475
   0.18602   0.64775   0.28591
  -0.53224   0.40833   0.52533
   0.42544   0.40833  -0.19293
  -0.53224   1.36601   0.76475
  -0.29282   0.64775   0.28591
  -0.53224  -0.07051   0.28591
  -0.29282  -0.30993  -0.19293
  -1.72934   0.88717   0.76475
  -1.25050   0.16891  -0.19293
  -1.01108  -0.07051  -0.91119
  -0.77166  -0.54935   0.52533
  -1.48992   0.64775   0.28591
  -1.72934   0.40833   0.76475
  -1.01108  -1.26761  -0.19293
  -1.25050  -0.54935   1.96185
  -1.01108  -0.54935  -0.19293
  -1.25050  -0.30993  -0.43235
  -0.53224  -1.26761  -0.91119
  -0.77166  -1.50703  -0.43235
  -1.01108  -0.30993  -1.15061
  -1.01108  -0.54935  -3.06598
  -0.77166  -1.02819  -1.15061
   0.18602  -0.78877  -1.39003
  -0.53224  -0.54935  -1.15061
   0.18602  -0.30993  -1.86888
  -0.29282  -0.78877  -1.39003
  -0.77166  -1.02819  -1.15061
  -0.53224   0.16891  -0.91119
   0.18602  -0.30993  -1.39003
  -0.05340  -0.07051  -1.15061
  -0.05340  -0.07051  -0.43235
  -0.53224   0.40833  -0.43235
  -0.05340  -0.07051   0.04649
  -0.53224  -0.30993   0.04649
  -1.25050   0.64775   1.24359
  -0.53224  -0.07051   1.00417
  -1.25050   0.40833  -0.19293
  -1.25050   0.88717   1.48301
  -1.01108   0.88717   2.44069
  -1.48992   0.64775   1.96185
  -1.01108   0.40833   1.72243
  -1.25050  -0.07051   2.44069
  -1.96876   0.64775   2.44069
  -1.72934  -0.07051   2.91953
  -1.25050   0.16891   1.96185
  -1.72934   0.88717   0.28591
  -1.25050   0.16891   2.20127
  -1.25050   0.64775   1.96185
  -0.29282   0.16891   1.48301
  -1.48992   0.40833   1.96185
  -0.29282  -0.07051   1.48301
   0.18602   0.16891   1.24359
   0.66486  -0.07051   1.00417
   0.42544   0.16891   1.00417
  -0.05340   0.40833   1.00417
   1.62254   0.64775  -0.19293
   1.14370   0.64775   0.28591
   1.38312   0.64775   0.28591
   0.66486   0.88717   1.00417
   1.86196   0.88717   0.04649
   1.38312   0.16891  -0.19293
   1.38312  -0.07051   0.04649
   0.90428   0.16891   0.04649
   1.38312  -1.02819   0.52533
   1.38312  -0.54935  -0.91119
   1.14370  -0.54935  -0.43235
   0.90428  -0.30993  -0.67177
   0.66486  -1.02819  -0.67177
   0.66486  -1.50703  -1.15061
  -0.05340   0.16891  -0.43235
  -0.53224  -0.30993  -1.15061
  -0.53224  -0.54935  -0.43235
  -0.53224  -0.54935  -0.43235
  -1.25050   0.16891  -0.67177
  -1.25050  -0.07051  -0.19293
  -1.48992  -0.30993  -0.19293
  -1.01108  -0.30993   0.52533
  -1.01108  -1.50703  -0.19293
  -1.25050   0.64775  -0.19293
  -0.53224  -0.30993   0.04649
  -1.01108   0.40833   1.00417
  -0.77166   0.88717   0.76475
  -1.72934   1.12659   0.76475
  -0.77166   0.40833   0.76475
  -1.01108   0.88717  -0.67177
  -1.01108   0.88717   1.24359
  -0.53224   1.12659   1.00417
  -0.77166  -0.07051   1.00417
  -0.05340  -0.54935   1.00417
  -0.29282   0.16891   0.76475
   0.66486   0.16891  -0.19293
   0.42544  -0.54935  -0.19293
   0.66486   0.16891  -0.43235
   0.42544   0.16891  -0.67177
   0.90428  -2.70414  -1.39003
   0.42544  -0.54935  -0.91119
   0.66486  -0.30993  -0.67177
   0.18602   0.16891  -1.39003
   0.90428  -0.54935  -1.39003
   1.14370  -0.30993  -1.86888
   0.42544  -0.30993  -1.39003
   1.14370  -1.02819  -2.10830
   1.14370  -0.54935  -2.10830
   1.14370  -1.26761  -2.58714
   0.66486  -0.30993  -2.10830
   0.66486  -1.98587  -2.34772
   0.42544  -0.07051  -2.34772
   0.18602  -0.07051  -2.10830
  -0.05340   0.88717  -2.10830
  -0.77166   0.40833  -1.39003
  -0.05340   0.64775  -1.86888
  -0.53224   0.88717  -1.15061
  -0.53224   0.64775  -1.39003
  -0.05340   0.64775  -1.15061
   0.42544  -0.07051  -1.86888
  -1.96876   0.40833  -1.15061
   0.42544   0.40833  -1.39003
   0.66486   0.88717  -1.15061
   1.14370   0.16891  -1.39003
   0.66486   0.88717  -1.15061
   0.42544   0.88717  -1.15061
   1.14370   0.64775  -1.15061
   0.90428   0.64775  -0.67177
   0.90428   0.64775  -0.43235
   0.42544   0.88717  -2.34772
   1.14370   0.16891  -0.19293
   0.66486   0.16891   0.04649
   1.38312   0.16891  -0.19293
   1.14370   0.16891  -0.67177
   1.86196  -0.30993   0.04649
   1.86196  -0.07051  -0.19293
   1.14370  -0.07051   0.52533
   1.62254  -0.07051  -0.67177
   0.90428   0.16891   0.28591
   1.86196  -0.30993   0.76475
   0.18602   0.88717   1.00417
   1.14370   0.40833   0.52533
   0.66486   0.16891   1.00417
   0.18602  -0.54935   1.24359
   0.18602  -0.07051   1.00417
   0.66486   0.16891   1.72243
   0.66486  -0.54935   0.76475
   0.18602  -0.30993   1.24359
   0.66486  -0.78877   1.00417
   0.42544  -0.78877   0.76475
   0.66486  -1.02819   0.52533
  -0.53224  -0.30993   0.52533
  -0.29282  -0.78877   0.76475
  -0.29282  -1.02819   0.28591
  -0.29282  -1.02819   0.52533
  -1.01108  -0.30993   0.52533
  -1.48992  -1.02819  -0.91119
  -0.29282  -0.78877  -0.19293
  -0.77166  -0.54935   0.04649
  -0.53224  -0.54935  -0.43235
  -1.01108  -0.07051  -0.67177
  -0.29282  -0.78877   2.20127
  -1.48992  -0.30993   0.04649
  -1.25050   0.40833   0.04649
  -1.48992   1.12659   0.52533
  -0.77166   0.64775   0.28591
  -1.25050   1.12659   0.76475
  -1.25050   1.36601   1.24359
  -0.53224  -0.78877   0.76475
  -1.72934   0.88717   1.48301
  -0.29282   1.12659   1.00417
  -0.53224   1.60543   1.72243
   0.42544   1.36601   1.00417
   0.18602   1.84485   1.48301
   0.18602   2.08427   1.48301
  -0.29282   1.36601   1.96185
   0.18602   0.88717   0.52533
  -0.05340   0.88717   1.48301
  -0.29282   1.12659   1.96185
  -0.29282   1.12659   1.00417
  -0.53224   0.64775   1.24359
  -1.01108  -0.30993   1.24359
  -1.01108   0.40833   1.00417
  -0.77166  -0.30993  -0.19293
  -1.01108  -0.30993  -0.19293
  -1.25050  -0.78877  -0.19293
  -1.72934  -0.30993  -0.43235
  -1.48992  -0.54935  -1.15061
  -1.72934  -0.54935  -5.22076
  -2.68702   0.16891  -0.91119
  -2.44760  -0.78877  -1.62945
  -2.68702  -0.78877  -1.62945
  -2.20818  -1.50703  -1.86888
  -3.16586  -1.02819  -0.91119
  -2.44760  -1.26761  -1.15061
  -2.20818  -1.02819  -1.15061
  -1.96876  -1.50703  -0.67177
  -2.20818  -0.78877  -0.43235
  -2.44760  -1.50703   0.28591
  -1.01108  -1.02819  -0.19293
  -1.72934  -0.78877   0.52533
  -1.48992  -0.30993   0.76475
  -1.48992  -0.07051   1.24359
  -0.29282  -0.30993   1.00417
  -0.77166   0.40833   1.24359
  -0.53224   0.64775   1.96185
  -0.53224   0.16891   0.52533
  -0.29282  -0.30993   1.72243
   1.38312  -0.07051   1.48301
   1.14370   0.16891   1.96185
   1.62254  -0.54935   2.20127
   1.86196  -0.07051   1.48301
  -0.05340  -0.07051   1.48301
   1.14370   0.64775   2.68011
   1.86196   0.16891   1.24359
   2.10138   0.40833   1.48301
   1.62254  -0.07051   1.48301
   1.38312   0.40833   1.48301
   0.18602  -1.02819   1.24359
   2.34080  -0.30993   1.24359
   2.10138   0.16891   1.00417
   2.58022  -0.07051   0.76475
   2.34080  -0.30993   0.52533
   2.58022  -0.54935   0.28591
   1.86196   0.40833   0.76475
   1.38312  -0.07051   0.52533
   1.14370  -0.54935   0.28591
   1.38312  -0.78877   0.04649
   0.42544  -0.07051   1.00417
   0.18602  -0.30993   0.52533
   1.14370  -1.02819  -0.19293
   0.42544  -1.02819   1.00417
   0.42544  -2.46471  -0.19293
  -0.53224  -0.07051  -1.39003
   0.18602  -0.78877  -0.19293
  -0.29282  -0.07051   0.52533
  -0.29282  -0.30993   0.52533
  -1.48992   0.64775   0.52533
  -0.77166   0.16891  -0.19293
  -1.96876   0.64775   0.28591
  -1.01108   0.88717   0.76475
  -0.53224   1.36601   0.04649
  -1.01108   0.88717   0.52533
  -2.20818   0.40833   0.28591
  -0.77166   1.36601   0.76475
   0.18602   0.64775  -0.67177
  -0.05340   0.88717  -0.43235
  -0.05340   0.64775   0.04649
  -0.05340   0.64775   0.04649
   0.66486   0.64775  -0.43235
   0.18602   0.40833  -0.91119
   0.42544   0.64775   0.04649
   0.42544   0.64775  -0.67177
   0.66486  -0.07051  -0.67177
   0.90428   0.16891  -1.15061
   0.66486   0.40833  -0.67177
   1.14370  -0.30993  -0.67177
   1.38312  -0.30993  -1.15061
   1.38312  -0.78877  -1.15061
   1.38312  -0.07051  -0.91119
   1.86196  -1.02819  -0.91119
   1.62254  -0.07051  -1.39003
   0.42544  -0.54935  -0.19293
   0.90428  -0.07051  -0.67177
   0.66486  -0.07051  -0.43235
   0.66486  -0.54935  -0.67177
  -0.53224   0.40833  -1.86888
  -0.29282  -0.54935   0.04649
  -0.53224  -0.54935   0.28591
  -0.77166  -0.54935  -0.43235
  -1.72934   0.40833  -1.86888
  -1.72934  -0.07051  -0.19293
  -1.48992  -0.07051  -0.43235
  -2.20818   0.64775   0.04649
  -1.96876   0.16891   0.04649
  -2.92644   0.40833   0.52533
  -1.96876  -0.30993   0.04649
  -2.68702  -0.30993   0.52533
  -2.44760  -0.07051   0.28591
  -2.20818   0.16891  -0.19293
  -1.48992  -1.26761   0.04649
  -1.25050  -1.26761  -0.19293
  -1.25050  -0.30993  -0.19293
  -0.05340  -1.26761  -1.15061
  -0.29282  -0.54935  -0.91119
   0.42544  -1.02819  -0.91119
  -0.05340   0.16891  -0.43235
   0.18602  -0.07051  -0.91119
  -0.29282   0.16891  -0.91119
  -0.05340   0.40833   0.04649
  -0.53224   0.64775  -0.67177
   0.90428   0.16891  -0.43235
   0.18602   0.40833  -0.91119
   0.42544   0.88717  -0.19293
   0.18602   0.40833  -1.15061
   0.18602   0.64775  -0.91119
   0.42544   0.40833  -1.15061
  -0.29282   1.36601  -1.15061
  -0.05340   1.84485   0.52533
   0.18602   1.12659  -1.62945
  -0.05340   0.88717  -1.62945
  -0.29282   1.60543  -1.62945
  -0.29282   1.36601  -1.62945
   0.18602   1.12659  -2.10830
  -1.72934   1.12659  -1.62945
  -0.29282   0.40833  -1.86888
   0.42544   0.64775  -1.62945
   1.14370  -0.07051  -2.34772
   0.90428   0.40833  -3.06598
   1.86196  -0.30993  -1.62945
   2.58022  -0.07051  -2.58714
   2.34080  -0.54935  -1.86888
   2.34080  -0.30993  -1.86888
   2.34080  -0.30993  -1.15061
   3.29848  -1.26761  -1.86888
   3.05906  -1.02819  -1.15061
   3.05906  -1.02819  -0.91119
   3.05906  -0.54935  -1.15061
   3.77732  -1.74645  -0.43235
   4.25616  -1.50703  -0.43235
   3.53790  -1.26761   0.04649
   3.53790  -1.74645  -0.19293
   3.29848  -1.02819   0.76475
   3.05906  -1.26761   1.24359
   2.34080  -0.07051   1.96185
   2.10138  -0.54935   1.48301
   1.38312   0.16891   2.20127
   1.38312  -0.07051   3.15895
  -0.05340   0.64775   2.68011
  -1.01108   0.64775   3.15895
  -0.77166   0.16891   2.68011
  -1.48992   1.12659   3.15895
  -1.48992   0.64775   2.20127
  -1.72934   1.12659   2.20127
  -1.72934   0.16891   1.48301
  -2.44760   1.12659   1.96185
  -2.44760   1.12659   1.24359
  -2.68702   1.12659   1.00417
