********************************************************************************
               CENTRO DE INSTRUMENTACION Y REGISTRO SISMICO  A.C.  
                       Coordinacion de Servicios Tecnicos
     Anaxagoras 814, Col. Narvarte, Benito Juarez, C.P. 03020 Mexico, D.F.
            Tels. 667 45 42/ 687 45  82             Fax. 669 25 12
********************************************************************************
ARCHIVO ESTANDAR DE ACELERACION:
VERSION DEL FORMATO                    : 2.0
NOMBRE DEL ARCHIVO                     : AL019403.141
FECHA Y HORA DE CREACION               : 13 de febrero de 1996/18:30
REF. CATALOGO ACELEROGRAMAS, SMIS 1995 : REGISTRO No.     /PAG.


================================================================================
DATOS DE LA ESTACION:
NOMBRE DE LA ESTACION                  : ALAMEDA
CLAVE DE LA ESTACION                   : AL01
LOCALIZACION DE LA ESTACION            : JARDIN ALAMEDA ENTRE AV. HIDALGO Y AV.
                                       : JUAREZ, CENTRO
                                       :
                                       :
                                       :
COORDENADAS DE LA ESTACION             : 19.436 LAT. N 
                                       : 99.145 LONG. W 
ALTITUD (msnm)                         : 2232
TIPO DE SUELO                          : TERRENO BLANDO, MATERIAL COMPRESIBLE
                                       : (ARCILLAS)
                                       : 
INSTITUCION RESPONSABLE                : CIRES 
                                       :

================================================================================
DATOS DEL ACELEROGRAFO:
MODELO DEL ACELEROGRAFO                : SSA-1
NUMERO DE SERIE DEL ACELEROGRAFO       : 152
NUMERO DE CANALES                      : 3
ORIENTACION C1-C6 (rumbo;orientacion)  : /N00E/+V/N90E
ORIENTACION C7-C12 (rumbo;orientacion) :
VEL. DE MUESTREO, C1-C6 (muestras/s)   : /200/200/200
VEL. DE MUESTREO, C7-C12 (muestras/s)  :
ESC. COMPLETA DE SENSORES, C1-C6, (g)  : /2/2/2
ESC. COMPLETA DE SENSORES, C7-C12, (g) :
FREC. NAT. DE SENSORES, C1-C6, (Hz)    : /50/50/50
FREC. NAT. DE SENSORES, C7-C12, (Hz)   :
AMORTIGUAMIENTO DE SENSORES, C1-C6     : /0.700/0.700/0.700
AMORTIGUAMIENTO DE SENSORES, C7-C12    :
INTERVALO DE MUESTREO, C1-C6, (s)      : /0.005/0.005/0.005
INTERVALO DE MUESTREO, C7-C12, (s)     :
UMBRAL DE DISPARO, C1-C6, (Gal)        : /2/1.5/2
UMBRAL DE DISPARO, C7-C12, (Gal)       :
MEMORIA DE PREEVENTO (s)               : 15
TIEMPO DE POSEVENTO (s)                : 90
                                         

================================================================================
DATOS DEL SISMO:
FECHA DEL SISMO (GMT)                  : 14/MAR/94
HORA EPICENTRO (GMT)                   : 20:51:32,5
MAGNITUD(ES)                           : /Mc=6.50
COORDENADAS DEL EPICENTRO              : 15.670 LAT. N 
                                       : 93.010 LONG. W 
PROFUNDIDAD FOCAL (km)                 : 95 
FUENTE DE LOS DATOS EPICENTRALES       : SSN
                                       : INSTITUTO DE GEOFISICA, UNAM

================================================================================
DATOS DE ESTE REGISTRO:
HORA DE LA PRIMERA MUESTRA (GMT)       : 20:54:00.00
EXACTITUD DEL TIEMPO (s)               :     
DURACION DEL REGISTRO (s), C1-C6       : /116.48/116.48/116.48
DURACION DEL REGISTRO (s), C7-C12      :
NUM. TOTAL DE MUESTRAS, C1-C6          : /23296/23296/23296
NUM. TOTAL DE MUESTRAS, C7-C12         :
ACEL. MAX. (Gal), C1-C6                : /3.02934/1.30268/2.62705
ACEL. MAX., C1-C6, EN LA MUESTRA       :
ACEL. MAX. (Gal), C7-C12               :
ACEL. MAX., C7-C12, EN LA MUESTRA      :
UNIDADES DE LOS DATOS                  : Gal (cm/s/s)
FACTOR DE DECIMACION                   : 1
FORMATO DATOS (FORTRAN,10 campos/dato) : 3F10.5


================================================================================
CALIDAD DEL ACELEROGRAMA:
REGISTRO DIGITAL COMPLETO, CARECE DE TIEMPO ABSOLUTO.


================================================================================
COMENTARIOS: 
             El equipo se encontraba con ganancias de 4 en todos los ejes,
             por lo que las escalas completas eran de 1/2 G.












================================================================================
DATOS DE ACELERACION:
---------+---------+---------+---------+---------+---------+---------+---------+
   CANAL-1   CANAL-2   CANAL-3   CANAL-4   CANAL-5   CANAL-6   CANAL-7   CANAL-8
      N00E        +V      N90E
---------+---------+---------+---------+---------+---------+---------+---------+
[...]
   0.63934  -0.12732   0.47705
   0.63934   0.11268   0.47705
   0.63934   0.35268   0.71705
   0.63934   0.11268   0.47705
   0.63934   0.11268   0.71705
   0.63934   0.11268   0.47705
   0.63934  -0.12732   0.47705
   0.63934  -0.12732   0.47705
   0.63934  -0.12732   0.47705
   0.63934  -0.12732   0.47705
   0.63934  -0.36732   0.47705
   0.63934  -0.12732   0.47705
   0.63934   0.11268   0.47705
   0.63934  -0.12732   0.47705
   0.63934  -0.12732   0.47705
   0.87934   0.11268   0.47705
   0.63934  -0.12732   0.47705
   0.63934  -0.12732   0.47705
   0.87934   0.11268   0.47705
   0.87934  -0.12732   0.47705
   0.87934  -0.36732   0.47705
   0.87934   0.11268   0.23705
   0.87934   0.11268   0.23705
   0.87934  -0.12732   0.23705
   0.87934  -0.12732   0.23705
   0.87934   0.11268   0.23705
   0.87934   0.11268   0.23705
   0.87934  -0.12732   0.23705
   0.87934  -0.12732   0.23705
   0.87934   0.11268   0.23705
   0.87934  -0.12732   0.23705
   1.11934  -0.12732  -0.00295
   1.11934   0.11268   0.23705
   0.87934   0.11268   0.23705
   1.11934  -0.12732  -0.00295
   1.11934   0.35268   0.23705
   1.11934   0.35268   0.23705
   1.11934   0.11268   0.23705
   1.11934  -0.12732  -0.00295
   1.11934  -0.12732  -0.00295
   0.87934  -0.12732  -0.00295
   1.11934  -0.36732  -0.00295
   1.11934  -0.12732  -0.00295
   1.11934  -0.12732   0.23705
   1.11934  -0.12732  -0.00295
   1.11934  -0.12732  -0.00295
   1.11934  -0.12732   0.23705
   1.11934  -0.12732   0.23705
   1.11934  -0.12732  -0.00295
   1.11934   0.11268  -0.00295
   1.11934  -0.12732  -0.00295
   1.11934  -0.12732  -0.00295
   1.11934  -0.12732  -0.00295
   1.11934   0.11268  -0.00295
   1.11934  -0.12732   0.23705
   1.11934  -0.12732  -0.00295
   1.11934   0.11268   0.23705
   1.11934  -0.12732   0.23705
   1.11934  -0.12732  -0.00295
   1.11934   0.11268   0.23705
   1.11934   0.11268   0.23705
   1.11934  -0.12732   0.23705
   1.11934   0.11268  -0.00295
   1.11934   0.11268   0.23705
   1.11934   0.11268   0.23705
   1.11934   0.11268   0.23705
   1.11934   0.11268   0.23705
   1.11934   0.11268   0.23705
   1.11934  -0.12732   0.23705
   1.11934   0.11268   0.23705
   0.87934   0.11268   0.23705
   1.11934  -0.12732   0.23705
   1.11934   0.11268   0.23705
   0.87934   0.35268   0.23705
   0.87934   0.11268   0.23705
   0.87934  -0.12732   0.23705
   0.87934   0.11268   0.47705
   0.87934   0.11268   0.23705
   0.87934  -0.12732   0.23705
   0.87934   0.11268   0.23705
   0.87934   0.11268   0.23705
   0.63934   0.11268   0.47705
   0.87934   0.11268   0.47705
   0.63934   0.11268   0.47705
   0.63934   0.11268   0.47705
   0.63934  -0.12732   0.47705
   0.63934   0.11268   0.47705
   0.63934   0.11268   0.47705
   0.39934  -0.12732   0.47705
   0.39934   0.11268   0.47705
   0.39934   0.11268   0.47705
   0.39934   0.11268   0.47705
   0.39934   0.11268   0.47705
   0.39934   0.11268   0.47705
   0.15934   0.11268   0.47705
   0.15934  -0.12732   0.47705
   0.15934   0.11268   0.47705
   0.15934   0.11268   0.47705
   0.15934   0.11268   0.47705
  -0.08066   0.11268   0.47705
  -0.08066   0.11268   0.47705
  -0.08066   0.11268   0.47705
  -0.08066   0.11268   0.47705
  -0.08066   0.11268   0.47705
  -0.08066   0.11268   0.71705
  -0.32066  -0.12732   0.71705
  -0.32066   0.11268   0.47705
  -0.32066   0.11268   0.47705
  -0.32066  -0.12732   0.47705
  -0.32066  -0.12732   0.47705
  -0.32066  -0.12732   0.47705
  -0.32066  -0.12732   0.71705
  -0.56066  -0.12732   0.47705
  -0.56066  -0.12732   0.47705
  -0.56066  -0.12732   0.47705
  -0.80066  -0.12732   0.47705
  -0.56066  -0.12732   0.47705
  -0.80066  -0.12732   0.71705
  -0.80066  -0.12732   0.47705
  -0.80066  -0.36732   0.47705
  -0.80066  -0.12732   0.47705
  -0.80066  -0.12732   0.71705
  -0.80066  -0.36732   0.71705
  -0.80066  -0.12732   0.71705
  -1.04066  -0.12732   0.71705
  -1.04066  -0.12732   0.71705
  -1.04066  -0.36732   0.47705
  -1.04066  -0.12732   0.71705
  -1.28066  -0.12732   0.47705
  -1.28066  -0.12732   0.71705
  -1.28066  -0.12732   0.71705
  -1.28066   0.11268   0.71705
  -1.52066  -0.12732   0.71705
  -1.52066  -0.12732   0.47705
  -1.52066   0.11268   0.47705
  -1.52066  -0.12732   0.71705
  -1.52066  -0.12732   0.71705
  -1.52066  -0.12732   0.47705
  -1.52066   0.11268   0.71705
  -1.52066  -0.12732   0.71705
  -1.76066  -0.12732   0.47705
  -1.76066   0.11268   0.71705
  -1.76066   0.11268   0.71705
  -1.76066  -0.12732   0.47705
  -1.76066   0.11268   0.47705
  -1.76066   0.11268   0.47705
  -2.00066  -0.12732   0.47705
  -1.76066   0.11268   0.47705
  -2.00066   0.35268   0.47705
  -2.00066   0.11268   0.47705
  -2.00066   0.11268   0.47705
  -2.00066   0.35268   0.47705
  -2.00066   0.35268   0.47705
  -2.00066   0.11268   0.47705
  -2.00066   0.35268   0.23705
  -2.00066   0.35268   0.23705
  -2.24066   0.11268   0.23705
  -2.00066   0.11268  -0.00295
  -2.24066   0.35268  -0.00295
  -2.24066   0.11268   0.23705
  -2.24066   0.11268   0.23705
  -2.24066   0.11268   0.23705
  -2.24066   0.35268   0.23705
  -2.24066   0.11268   0.23705
  -2.24066   0.11268  -0.00295
  -2.24066   0.35268  -0.00295
  -2.48066   0.35268  -0.00295
  -2.24066   0.11268  -0.00295
  -2.24066   0.35268  -0.00295
  -2.48066   0.35268  -0.24295
  -2.48066   0.11268  -0.00295
  -2.48066   0.35268  -0.24295
  -2.48066   0.35268  -0.24295
  -2.48066   0.11268  -0.24295
  -2.48066   0.11268  -0.24295
  -2.48066   0.35268  -0.24295
  -2.48066   0.35268  -0.24295
  -2.48066   0.11268  -0.24295
  -2.48066   0.35268  -0.48295
  -2.71066   0.35268  -0.24295
  -2.71066   0.11268  -0.48295
  -2.48066   0.11268  -0.48295
  -2.71066   0.35268  -0.48295
  -2.71066   0.11268  -0.72295
  -2.71066   0.11268  -0.72295
  -2.71066   0.11268  -0.72295
  -2.71066   0.11268  -0.72295
  -2.71066  -0.12732  -0.72295
  -2.71066   0.11268  -0.72295
  -2.71066   0.11268  -0.72295
  -2.71066  -0.12732  -0.72295
  -2.48066  -0.12732  -0.72295
  -2.71066   0.11268  -0.72295
  -2.71066   0.11268  -0.96295
  -2.71066  -0.12732  -0.96295
  -2.71066   0.11268  -0.96295
  -2.71066   0.11268  -0.96295
  -2.71066  -0.12732  -0.96295
  -2.48066  -0.12732  -0.96295
  -2.71066   0.11268  -0.96295
  -2.71066  -0.12732  -0.96295
  -2.71066  -0.12732  -0.96295
  -2.48066   0.11268  -0.96295
  -2.71066   0.11268  -0.72295
  -2.71066  -0.12732  -0.72295
  -2.48066  -0.12732  -0.96295
  -2.48066   0.11268  -0.72295
  -2.95066  -0.12732  -0.96295
  -2.48066  -0.12732  -0.96295
  -2.48066   0.11268  -0.96295
  -2.71066  -0.12732  -0.72295
  -2.71066  -0.12732  -0.72295
  -2.48066  -0.12732  -0.72295
  -2.48066   0.11268  -0.72295
  -2.48066  -0.12732  -0.96295
  -2.48066  -0.12732  -0.96295
  -2.48066  -0.12732  -0.72295
  -2.48066  -0.12732  -0.72295
  -2.48066  -0.12732  -0.72295
  -2.48066  -0.12732  -0.72295
  -2.48066  -0.12732  -0.72295
  -2.48066  -0.36732  -0.72295
  -2.24066  -0.12732  -0.96295
  -2.24066  -0.12732  -0.72295
  -2.24066  -0.36732  -0.72295
  -2.24066  -0.36732  -0.72295
  -2.24066  -0.12732  -0.72295
  -2.24066  -0.12732  -0.72295
  -2.24066  -0.36732  -0.72295
  -2.00066  -0.36732  -0.48295
  -2.24066  -0.12732  -0.72295
  -2.00066  -0.36732  -0.72295
  -2.00066  -0.12732  -0.72295
  -2.00066  -0.12732  -0.48295
  -2.00066  -0.12732  -0.48295
  -1.76066  -0.36732  -0.48295
  -1.76066  -0.12732  -0.48295
  -1.76066  -0.12732  -0.48295
  -1.76066  -0.36732  -0.48295
  -1.76066  -0.36732  -0.48295
  -1.76066  -0.12732  -0.48295
  -1.76066  -0.36732  -0.48295
  -1.76066  -0.36732  -0.72295
  -1.52066  -0.12732  -0.72295
  -1.76066  -0.36732  -0.48295
  -1.52066  -0.36732  -0.72295
  -1.52066  -0.12732  -0.72295
  -1.52066  -0.12732  -0.72295
  -1.52066  -0.12732  -0.72295
  -1.28066  -0.12732  -0.72295
  -1.28066  -0.12732  -0.48295
  -1.28066  -0.12732  -0.48295
  -1.04066  -0.36732  -0.48295
  -1.04066  -0.12732  -0.48295
  -1.04066  -0.12732  -0.48295
  -1.04066  -0.12732  -0.48295
  -0.80066  -0.12732  -0.48295
  -0.80066   0.11268  -0.48295
  -0.80066  -0.12732  -0.48295
  -0.80066  -0.12732  -0.48295
  -0.80066  -0.12732  -0.48295
  -0.80066  -0.12732  -0.48295
  -0.80066  -0.12732  -0.48295
  -0.56066  -0.12732  -0.48295
  -0.56066   0.11268  -0.48295
  -0.56066  -0.12732  -0.48295
  -0.32066  -0.12732  -0.48295
  -0.32066   0.11268  -0.48295
  -0.32066  -0.12732  -0.48295
  -0.32066  -0.12732  -0.48295
  -0.32066   0.11268  -0.48295
  -0.32066   0.11268  -0.24295
  -0.32066   0.11268  -0.48295
  -0.08066   0.11268  -0.48295
  -0.08066   0.35268  -0.48295
  -0.08066   0.11268  -0.48295
  -0.08066  -0.12732  -0.48295
  -0.08066   0.11268  -0.48295
  -0.08066   0.11268  -0.24295
   0.15934   0.11268  -0.48295
   0.15934   0.11268  -0.48295
   0.15934   0.35268  -0.48295
   0.15934   0.11268  -0.48295
   0.15934   0.11268  -0.48295
   0.15934   0.35268  -0.48295
   0.39934   0.35268  -0.24295
   0.39934   0.35268  -0.24295
   0.39934   0.35268  -0.48295
   0.15934   0.59268  -0.24295
   0.39934   0.35268  -0.24295
   0.63934   0.35268  -0.48295
   0.39934   0.59268  -0.48295
   0.39934   0.35268  -0.48295
   0.63934   0.35268  -0.48295
   0.63934   0.35268  -0.48295
   0.63934   0.35268  -0.48295
   0.63934   0.11268  -0.48295
   0.87934   0.11268  -0.48295
   0.87934   0.35268  -0.48295
   0.87934   0.35268  -0.24295
   1.11934   0.11268  -0.24295
   1.11934   0.35268  -0.48295
   1.11934   0.35268  -0.24295
   1.11934   0.11268  -0.24295
   1.11934   0.35268  -0.24295
   1.11934   0.35268  -0.24295
   1.11934   0.35268  -0.24295
   1.35934   0.35268  -0.48295
   1.35934   0.35268  -0.24295
   1.35934   0.35268  -0.24295
   1.59934   0.11268  -0.48295
   1.59934   0.35268  -0.24295
   1.59934   0.35268  -0.24295
   1.59934   0.11268  -0.24295
   1.59934   0.11268  -0.24295
   1.59934   0.35268  -0.24295
   1.59934   0.11268  -0.24295
   1.83934   0.11268  -0.24295
   1.83934   0.11268  -0.24295
   1.83934   0.11268  -0.24295
   2.07934  -0.12732  -0.24295
   2.07934   0.11268  -0.24295
   2.07934   0.11268  -0.00295
   2.07934  -0.12732  -0.00295
   2.07934  -0.12732  -0.00295
   2.31934   0.11268  -0.00295
   2.31934  -0.12732  -0.00295
   2.31934  -0.12732  -0.00295
   2.31934  -0.12732  -0.00295
   2.31934  -0.12732  -0.00295
   2.54934  -0.12732  -0.00295
   2.54934  -0.12732  -0.00295
   2.54934  -0.12732  -0.00295
   2.54934  -0.12732  -0.00295
   2.54934  -0.36732  -0.00295
   2.78934  -0.12732  -0.00295
   2.54934  -0.12732  -0.00295
   2.54934  -0.36732  -0.00295
   2.78934  -0.36732  -0.00295
   2.78934  -0.36732   0.23705
   2.78934  -0.36732  -0.00295
   2.78934  -0.36732  -0.00295
   2.78934  -0.36732  -0.00295
   2.78934  -0.36732  -0.00295
   2.78934  -0.60732  -0.00295
   3.02934  -0.36732   0.23705
   2.78934  -0.36732   0.23705
   2.78934  -0.60732   0.23705
   3.02934  -0.36732   0.23705
   2.78934  -0.36732   0.23705
   3.02934  -0.36732   0.23705
   3.02934  -0.60732   0.23705
   2.78934  -0.36732   0.23705
   2.78934  -0.36732   0.23705
   3.02934  -0.60732   0.23705
   3.02934  -0.60732   0.23705
   2.78934  -0.36732   0.23705
   2.78934  -0.60732   0.23705
   3.02934  -0.60732   0.23705
   3.02934  -0.36732   0.23705
   2.78934  -0.36732   0.47705
   3.02934  -0.60732   0.23705
   3.02934  -0.36732   0.23705
   2.78934  -0.12732   0.47705
   2.78934  -0.36732   0.47705
   2.78934  -0.36732   0.47705
   2.78934  -0.12732   0.47705
   2.78934  -0.36732   0.47705
   2.78934  -0.36732   0.47705
   2.78934  -0.36732   0.47705
   2.54934  -0.36732   0.47705
   2.54934  -0.36732   0.47705
   2.78934  -0.36732   0.47705
   2.54934  -0.12732   0.47705
   2.54934  -0.36732   0.47705
   2.54934  -0.36732   0.47705
   2.54934  -0.12732   0.47705
   2.54934  -0.12732   0.47705
   2.31934  -0.36732   0.47705
   2.54934  -0.12732   0.47705
   2.54934  -0.12732   0.47705
   2.31934  -0.12732   0.47705
   2.54934  -0.12732   0.47705
   2.31934   0.11268   0.47705
   2.31934  -0.12732   0.47705
   2.31934  -0.12732   0.47705
   2.31934   0.11268   0.47705
   2.31934   0.11268   0.47705
   2.31934  -0.12732   0.47705
   2.31934   0.11268   0.47705
   2.07934   0.11268   0.47705
   2.07934   0.11268   0.47705
   2.07934  -0.12732   0.47705
   2.07934   0.11268   0.47705
   2.07934   0.11268   0.47705
   2.07934   0.11268   0.47705
   2.07934   0.11268   0.47705
   1.83934   0.35268   0.47705
   1.83934   0.11268   0.47705
   1.83934   0.11268   0.23705
   1.83934   0.35268   0.47705
   1.83934   0.11268   0.23705
   1.83934   0.11268   0.23705
   1.83934   0.35268   0.47705
   1.59934  -0.12732   0.47705
   1.59934   0.11268   0.23705
   1.59934   0.11268   0.23705
   1.35934   0.35268   0.23705
   1.35934   0.11268   0.23705
   1.35934   0.11268   0.23705
   1.35934   0.11268   0.23705
   1.35934   0.11268   0.23705
   1.35934   0.11268   0.23705
   1.35934   0.11268   0.23705
   1.11934   0.35268   0.23705
   1.11934   0.11268   0.23705
   1.11934   0.11268  -0.00295
   1.11934   0.35268  -0.00295
   1.11934   0.11268   0.23705
   1.11934   0.11268  -0.00295
   1.11934   0.35268   0.23705
   0.87934   0.35268   0.23705
   0.87934   0.35268  -0.00295
   1.11934   0.35268  -0.00295
   0.87934   0.35268  -0.00295
   0.87934   0.35268  -0.00295
   0.87934   0.35268  -0.00295
   0.63934   0.35268  -0.00295
   0.63934   0.35268  -0.00295
   0.63934   0.35268  -0.00295
   0.87934   0.35268  -0.00295
   0.63934   0.35268   0.23705
   0.87934   0.11268   0.23705
   0.87934   0.11268   0.23705
   0.63934   0.35268   0.23705
   0.63934   0.35268   0.23705
   0.63934   0.11268   0.23705
   0.63934   0.35268   0.23705
   0.63934   0.35268   0.23705
   0.63934   0.35268   0.23705
   0.63934   0.35268  -0.00295
   0.63934   0.35268   0.23705
   0.39934   0.11268   0.23705
   0.63934   0.11268   0.23705
   0.63934   0.35268   0.23705
   0.63934   0.11268   0.23705
   0.63934  -0.12732   0.23705
   0.63934   0.11268   0.23705
   0.39934   0.35268   0.23705
   0.39934   0.11268   0.23705
   0.39934   0.11268   0.23705
   0.39934   0.11268   0.23705
   0.39934   0.11268   0.23705
   0.39934  -0.12732   0.23705
   0.39934   0.11268   0.23705
   0.39934   0.11268   0.23705
   0.39934   0.11268   0.23705
   0.39934   0.11268   0.23705
   0.39934   0.11268   0.23705
   0.39934   0.11268   0.23705
   0.39934   0.11268   0.23705
   0.39934   0.11268   0.23705
   0.39934   0.11268   0.23705
   0.39934  -0.12732   0.23705
   0.39934  -0.12732   0.23705
   0.15934   0.11268   0.23705
   0.15934  -0.12732   0.23705
   0.15934  -0.12732   0.23705
   0.15934  -0.12732   0.23705
   0.15934  -0.12732   0.23705
   0.15934  -0.12732   0.23705
   0.15934  -0.12732   0.23705
   0.15934  -0.12732  -0.00295
   0.15934  -0.36732   0.23705
   0.15934  -0.12732  -0.00295
   0.15934  -0.12732  -0.00295
   0.15934  -0.12732   0.23705
   0.15934  -0.36732   0.23705
   0.15934  -0.12732   0.23705
   0.15934  -0.12732   0.23705
   0.15934  -0.12732   0.23705
  -0.08066  -0.12732  -0.00295
   0.15934  -0.12732   0.23705
  -0.08066  -0.36732  -0.00295
  -0.08066  -0.36732  -0.00295
  -0.08066  -0.36732  -0.00295
  -0.08066  -0.12732   0.23705
  -0.08066  -0.36732   0.23705
  -0.08066  -0.36732   0.23705
  -0.08066  -0.12732  -0.00295
  -0.32066  -0.12732  -0.00295
  -0.08066  -0.36732  -0.00295
  -0.08066  -0.12732  -0.00295
  -0.08066  -0.12732   0.23705
