********************************************************************************
              CENTRO DE INSTRUMENTACION Y REGISTRO SISMICO  A.C.

    Anaxagoras 814, Col. Narvarte, Benito Juarez, C.P. 03020 Mexico, D.F.
           Tels. 5687 45 42/ 5687 45  82             Fax. 5669 25 12
********************************************************************************
ARCHIVO ESTANDAR DE ACELERACION:
VERSION DEL FORMATO                    : 2.0
NOMBRE DEL ARCHIVO                     : AL0120140310003757
FECHA Y HORA DE CREACION               : 12/MAR/14, 14:13
REF. CATALOGO ACELEROGRAMAS, SMIS 1996 : REGISTRO No.     /PAG.


================================================================================
DATOS DE LA ESTACION:
NOMBRE DE LA ESTACION                  : ALAMEDA
CLAVE DE LA ESTACION                   : AL01
LOCALIZACION DE LA ESTACION            : Del. Cuauht�moc, Col. Centro,          
                                       : Dr. Mora entre Av. Hidalgo             
                                       : y Av. Ju�rez.                          
                                       :                                        
                                       : 
COORDENADAS DE LA ESTACION             : 19.4356 LAT. N
                                       : 99.1453 LONG. W
ALTITUD (msnm)                         : 2232
TIPO DE SUELO                          : Terreno blando, material compresible
                                       : (arcillas)                
                                       : 
INSTITUCION RESPONSABLE                : CIRES
                                       : 

================================================================================
DATOS DEL ACELEROGRAFO:
MODELO DEL ACELEROGRAFO                : RADESD
NUMERO DE SERIE DEL ACELEROGRAFO       : 152
NUMERO DE CANALES                      : 3
ORIENTACION C1-C6 (rumbo;orientacion)  : /N00E/+V/N90W
ORIENTACION C7-C12 (rumbo;orientacion) : 
VEL. DE MUESTREO, C1-C6 (muestras/s)   : /100/100/100
VEL. DE MUESTREO, C7-C12 (muestras/s)  : 
ESC. COMPLETA DE SENSORES, C1-C6, (g)  : /0.5/0.5/0.5
ESC. COMPLETA DE SENSORES, C7-C12, (g) : 
FREC. NAT. DE SENSORES, C1-C6, (Hz)    : /51.29/51.09/53.75
FREC. NAT. DE SENSORES, C7-C12, (Hz)   : 
AMORTIGUAMIENTO DE SENSORES, C1-C6     : /0.5519/0.5670/0.5810
AMORTIGUAMIENTO DE SENSORES, C7-C12    : 
INTERVALO DE MUESTREO, C1-C6, (s)      : /0.01/0.01/0.01
INTERVALO DE MUESTREO, C7-C12, (s)     : 
UMBRAL DE DISPARO, C1-C6, (Gal)        : /14.37/28.73/14.37
UMBRAL DE DISPARO, C7-C12, (Gal)       : 
MEMORIA DE PREEVENTO (s)               : 56.0
TIEMPO DE POSEVENTO (s)                : 80.0


================================================================================
DATOS DEL SISMO:
FECHA DEL SISMO (GMT)                  : 10/MAR/14
HORA EPICENTRO (GMT)                   : 00:37:57.0
MAGNITUD(ES)                           : /Mc=5.8
COORDENADAS DEL EPICENTRO              : 15.79 LAT. N
                                       : 98.55 LONG. W
PROFUNDIDAD FOCAL (km)                 : 16
FUENTE DE LOS DATOS EPICENTRALES       : SSN
                                       : INSTITUTO DE GEOFISICA, UNAM

================================================================================
DATOS DE ESTE REGISTRO:
HORA DE LA PRIMERA MUESTRA (GMT)       : 00:40:14.00
EXACTITUD DEL TIEMPO (s)               : 0.01
DURACION DEL REGISTRO (s), C1-C6       : /144.0/144.0/144.0
DURACION DEL REGISTRO (s), C7-C12      : 
NUM. TOTAL DE MUESTRAS, C1-C6          : /14400/14400/14400
NUM. TOTAL DE MUESTRAS, C7-C12         : 
ACEL. MAX. (Gal), C1-C6                : /1.78442/0.6363/1.73477
ACEL. MAX., C1-C6, EN LA MUESTRA       : /5240/5653/6325
ACEL. MAX. (Gal), C7-C12               : 
ACEL. MAX., C7-C12, EN LA MUESTRA      : 
UNIDADES DE LOS DATOS                  : Gal (cm/s/s)
FACTOR DE DECIMACION                   : 1
FORMATO DATOS (FORTRAN,10 campos/dato) : 3F10.5


================================================================================
CALIDAD DEL ACELEROGRAMA:
REGISTRO DIGITAL COMPLETO CON TIEMPO ABSOLUTO CORRECTO.


================================================================================
COMENTARIOS:














================================================================================
DATOS DE ACELERACION:
---------+---------+---------+---------+---------+---------+---------+---------+
   CANAL-1   CANAL-2   CANAL-3   CANAL-4   CANAL-5   CANAL-6   CANAL-7   CANAL-8
      N00E        +V      N90W
---------+---------+---------+---------+---------+---------+---------+---------+
[...]
   0.37037   0.12753   0.42001
   0.38533   0.12753   0.37512
   0.46015   0.03775   0.31526
   0.47511  -0.02211   0.37512
   0.53497  -0.11189   0.40505
   0.63971  -0.09693   0.46490
   0.60979  -0.11189   0.44994
   0.68460  -0.17174   0.47987
   0.69957  -0.18671   0.50979
   0.78935  -0.18671   0.53972
   0.84921  -0.15678   0.61454
   0.83424  -0.21664   0.65943
   0.87913  -0.23160   0.65943
   0.84921  -0.21664   0.71929
   0.92402  -0.24656   0.74921
   0.90906  -0.17174   0.74921
   0.93899  -0.18671   0.80907
   0.89410  -0.17174   0.82403
   0.96892  -0.23160   0.92878
   1.04373  -0.20167   1.04849
   1.02877  -0.18671   1.07842
   1.05870  -0.12685   1.06345
   1.08863  -0.14182   1.09338
   1.07366  -0.17174   1.00360
   1.08863  -0.11189   1.09338
   1.11855  -0.02211   1.06345
   1.13352  -0.02211   1.09338
   1.13352  -0.15678   1.07842
   1.20834  -0.11189   1.09338
   1.11855  -0.08196   1.09338
   1.20834  -0.06700   1.03353
   1.08863  -0.14182   0.94374
   1.05870  -0.11189   0.92878
   1.10359  -0.09693   0.97367
   1.05870  -0.14182   0.91382
   1.01381  -0.15678   0.86892
   1.01381  -0.09693   0.83900
   1.02877  -0.17174   0.82403
   0.93899  -0.14182   0.82403
   0.87913  -0.12685   0.71929
   0.89410  -0.08196   0.64447
   0.84921  -0.02211   0.70432
   0.84921   0.06768   0.68936
   0.81928   0.08264   0.62950
   0.75942   0.11257   0.56965
   0.71453   0.08264   0.49483
   0.74446   0.17242   0.43497
   0.65468   0.21731   0.37512
   0.60979   0.23228   0.37512
   0.63971   0.20235   0.43497
   0.63971   0.26220   0.39008
   0.54993   0.27717   0.33023
   0.53497   0.27717   0.30030
   0.44518   0.21731   0.19555
   0.44518   0.20235   0.21052
   0.35540   0.18739   0.12074
   0.26562   0.12753   0.12074
   0.26562   0.12753   0.15066
   0.23569   0.15746   0.10577
   0.14591   0.06768   0.07584
   0.05613   0.00782   0.12074
  -0.01869  -0.06700   0.06088
   0.01124  -0.12685   0.06088
  -0.07855  -0.17174   0.04592
  -0.09351  -0.23160   0.09081
  -0.16833  -0.29145   0.10577
  -0.33293  -0.42613   0.04592
  -0.28804  -0.41116   0.00103
  -0.36286  -0.50095   0.04592
  -0.37782  -0.48598   0.03095
  -0.40775  -0.50095   0.00103
  -0.42271  -0.51591   0.00103
  -0.52746  -0.57577   0.00103
  -0.51250  -0.56080   0.06088
  -0.48257  -0.56080   0.09081
  -0.49753  -0.54584   0.15066
  -0.51250  -0.59073   0.10577
  -0.48257  -0.63562   0.16563
  -0.45264  -0.51591   0.15066
  -0.42271  -0.51591   0.13570
  -0.42271  -0.44109   0.13570
  -0.39279  -0.36627   0.15066
  -0.37782  -0.27649   0.16563
  -0.25811  -0.20167   0.19555
  -0.22818  -0.15678   0.21052
  -0.13840  -0.06700   0.22548
  -0.12344  -0.06700   0.19555
  -0.12344  -0.06700   0.22548
  -0.04862   0.03775   0.24045
  -0.03366   0.08264   0.24045
   0.02620   0.08264   0.28534
   0.10102   0.20235   0.30030
   0.11598   0.20235   0.27037
   0.16087   0.20235   0.24045
   0.13095   0.29213   0.27037
   0.20576   0.35199   0.33023
   0.22073   0.45673   0.21052
   0.22073   0.42681   0.27037
   0.22073   0.42681   0.27037
   0.26562   0.44177   0.24045
   0.28058   0.39688   0.21052
   0.35540   0.50162   0.28534
   0.26562   0.48666   0.15066
   0.19080   0.51659   0.22548
   0.23569   0.47170   0.13570
   0.19080   0.54652   0.10577
   0.16087   0.48666   0.12074
   0.11598   0.51659   0.07584
   0.05613   0.47170   0.07584
  -0.00373   0.45673   0.12074
  -0.03366   0.50162   0.01599
  -0.07855   0.41184  -0.04387
  -0.16833   0.38191  -0.08876
  -0.19826   0.33702  -0.10372
  -0.27308   0.27717  -0.16358
  -0.33293   0.26220  -0.20847
  -0.40775   0.14249  -0.20847
  -0.42271   0.12753  -0.26832
  -0.45264   0.09760  -0.32818
  -0.61724   0.12753  -0.38803
  -0.63221   0.05271  -0.46285
  -0.67710   0.02278  -0.58256
  -0.66213   0.03775  -0.68731
  -0.76688  -0.06700  -0.79205
  -0.85666  -0.05203  -0.88184
  -0.87163  -0.08196  -0.95666
  -0.96141  -0.09693  -1.06140
  -0.96141  -0.15678  -1.22600
  -1.00630  -0.26153  -1.25593
  -0.99134  -0.29145  -1.39060
  -0.96141  -0.32138  -1.39060
  -0.99134  -0.21664  -1.45046
  -0.94645  -0.20167  -1.52528
  -0.97637  -0.20167  -1.61506
  -0.96141  -0.14182  -1.58513
  -0.90155  -0.15678  -1.61506
  -0.88659  -0.09693  -1.60010
  -0.87163  -0.09693  -1.60010
  -0.88659  -0.11189  -1.55521
  -0.76688  -0.12685  -1.55521
  -0.76688  -0.11189  -1.48039
  -0.67710  -0.11189  -1.43550
  -0.58732  -0.05203  -1.33075
  -0.54242  -0.00714  -1.27089
  -0.46761   0.00782  -1.18111
  -0.45264   0.02278  -1.09133
  -0.37782   0.09760  -0.94169
  -0.33293   0.11257  -0.91176
  -0.27308   0.09760  -0.85191
  -0.24315   0.18739  -0.71723
  -0.30300   0.12753  -0.61249
  -0.25811   0.12753  -0.50774
  -0.19826   0.15746  -0.43292
  -0.21322   0.12753  -0.37307
  -0.24315   0.20235  -0.29825
  -0.25811   0.17242  -0.22343
  -0.24315   0.09760  -0.17854
  -0.25811   0.18739  -0.08876
  -0.28804   0.09760  -0.07379
  -0.28804   0.08264  -0.01394
  -0.36286   0.14249   0.00103
  -0.45264   0.14249  -0.01394
  -0.40775   0.12753   0.00103
  -0.55739   0.18739   0.04592
  -0.52746   0.15746   0.01599
  -0.54242   0.20235  -0.02890
  -0.61724   0.26220   0.01599
  -0.69206   0.17242   0.01599
  -0.73695   0.14249  -0.02890
  -0.76688   0.21731  -0.01394
  -0.79681   0.27717  -0.10372
  -0.81177   0.20235  -0.10372
  -0.84170   0.21731  -0.07379
  -0.87163   0.27717  -0.22343
  -0.96141   0.26220  -0.25336
  -0.93148   0.27717  -0.23839
  -0.97637   0.32206  -0.25336
  -0.93148   0.26220  -0.28329
  -0.93148   0.17242  -0.29825
  -0.87163   0.18739  -0.32818
  -0.78184   0.18739  -0.32818
  -0.84170   0.21731  -0.34314
  -0.76688   0.23228  -0.37307
  -0.69206   0.18739  -0.37307
  -0.63221   0.14249  -0.26832
  -0.51250   0.12753  -0.31321
  -0.48257   0.11257  -0.22343
  -0.34789   0.06768  -0.28329
  -0.24315   0.08264  -0.20847
  -0.12344   0.00782  -0.19350
  -0.07855   0.00782  -0.14861
   0.10102  -0.02211  -0.05883
   0.11598  -0.06700   0.04592
   0.31051  -0.09693   0.01599
   0.50504  -0.08196   0.09081
   0.54993  -0.09693   0.19555
   0.60979  -0.11189   0.22548
   0.60979  -0.11189   0.31526
   0.75942  -0.08196   0.44994
   0.75942  -0.18671   0.49483
   0.87913  -0.14182   0.67439
   0.92402  -0.12685   0.77914
   0.99884  -0.08196   0.89885
   0.99884  -0.09693   0.95871
   1.01381  -0.09693   1.07842
   1.04373  -0.09693   1.09338
   0.93899  -0.11189   1.12331
   0.96892  -0.09693   1.18316
   0.98388  -0.02211   1.19813
   1.01381  -0.00714   1.22805
   0.90906  -0.08196   1.31784
   0.87913  -0.08196   1.30287
   0.83424  -0.05203   1.39266
   0.81928  -0.06700   1.39266
   0.75942   0.02278   1.28791
   0.66964  -0.02211   1.25798
   0.66964  -0.00714   1.22805
   0.54993  -0.00714   1.16820
   0.49008  -0.00714   1.13827
   0.47511   0.06768   1.00360
   0.35540   0.02278   0.97367
   0.28058  -0.05203   0.94374
   0.25066   0.00782   0.85396
   0.17584   0.02278   0.71929
   0.16087   0.05271   0.70432
   0.08605   0.06768   0.64447
  -0.06358   0.06768   0.62950
  -0.10847  -0.00714   0.50979
  -0.16833   0.05271   0.49483
  -0.22818   0.12753   0.43497
  -0.33293   0.09760   0.33023
  -0.36286   0.14249   0.42001
  -0.43768   0.11257   0.36016
  -0.46761   0.17242   0.30030
  -0.48257   0.20235   0.31526
  -0.54242   0.14249   0.31526
  -0.52746   0.18739   0.31526
  -0.55739   0.17242   0.39008
  -0.55739   0.27717   0.31526
  -0.57235   0.27717   0.37512
  -0.48257   0.24724   0.44994
  -0.42271   0.18739   0.46490
  -0.33293   0.18739   0.49483
  -0.27308   0.20235   0.47987
  -0.25811   0.17242   0.46490
  -0.12344   0.18739   0.55468
  -0.07855   0.18739   0.56965
   0.01124   0.06768   0.55468
   0.17584   0.06768   0.58461
   0.28058   0.05271   0.59958
   0.40029   0.00782   0.62950
   0.52000  -0.00714   0.56965
   0.63971  -0.11189   0.64447
   0.74446  -0.14182   0.65943
   0.78935  -0.18671   0.55468
   0.96892  -0.29145   0.56965
   1.04373  -0.35131   0.58461
   1.11855  -0.30642   0.56965
   1.11855  -0.32138   0.49483
   1.19337  -0.30642   0.52476
   1.14848  -0.32138   0.36016
   1.19337  -0.38124   0.33023
   1.10359  -0.42613   0.33023
   1.13352  -0.48598   0.28534
   1.14848  -0.50095   0.15066
   1.16344  -0.51591   0.09081
   1.07366  -0.53087   0.12074
   0.99884  -0.51591   0.03095
   0.93899  -0.56080  -0.13365
   0.96892  -0.45606  -0.20847
   0.89410  -0.39620  -0.31321
   0.80431  -0.47102  -0.40300
   0.71453  -0.42613  -0.49278
   0.65468  -0.39620  -0.61249
   0.56489  -0.35131  -0.71723
   0.50504  -0.30642  -0.83694
   0.44518  -0.27649  -0.94169
   0.37037  -0.29145  -1.01651
   0.34044  -0.26153  -1.09133
   0.26562  -0.23160  -1.15118
   0.19080  -0.17174  -1.16615
   0.16087  -0.08196  -1.27089
   0.16087   0.00782  -1.28586
   0.08605   0.05271  -1.28586
   0.10102   0.02278  -1.36068
   0.08605   0.17242  -1.36068
   0.04116   0.20235  -1.34571
   0.01124   0.20235  -1.34571
   0.01124   0.20235  -1.30082
   0.05613   0.26220  -1.33075
   0.07109   0.24724  -1.25593
   0.05613   0.17242  -1.21104
   0.13095   0.23228  -1.07637
   0.05613   0.29213  -1.06140
   0.10102   0.23228  -1.04644
   0.19080   0.24724  -0.98658
   0.19080   0.30710  -0.85191
   0.20576   0.35199  -0.76213
   0.26562   0.18739  -0.61249
   0.29555   0.20235  -0.50774
   0.38533   0.27717  -0.41796
   0.40029   0.23228  -0.28329
   0.52000   0.17242  -0.25336
   0.56489   0.23228  -0.11868
   0.63971   0.20235  -0.10372
   0.69957   0.11257  -0.05883
   0.75942   0.17242   0.00103
   0.86417   0.21731   0.18059
   0.98388   0.15746   0.13570
   0.99884   0.12753   0.16563
   0.99884   0.09760   0.15066
   1.01381   0.05271   0.12074
   1.02877   0.06768   0.09081
   1.05870  -0.11189   0.06088
   1.07366  -0.09693   0.04592
   0.98388  -0.02211   0.04592
   0.92402  -0.06700   0.03095
   0.90906  -0.05203  -0.04387
   0.81928  -0.17174  -0.11868
   0.74446  -0.18671  -0.20847
   0.69957  -0.18671  -0.25336
   0.57986  -0.32138  -0.32818
   0.52000  -0.35131  -0.35810
   0.41526  -0.32138  -0.46285
   0.32547  -0.33635  -0.47781
   0.08605  -0.32138  -0.56760
  -0.03366  -0.33635  -0.61249
  -0.12344  -0.30642  -0.62745
  -0.25811  -0.27649  -0.61249
  -0.43768  -0.29145  -0.68731
  -0.55739  -0.23160  -0.64242
  -0.75192  -0.17174  -0.70227
  -0.82674  -0.03707  -0.68731
  -0.94645  -0.00714  -0.73220
  -1.09608  -0.08196  -0.74716
  -1.21579  -0.09693  -0.68731
  -1.29061  -0.06700  -0.65738
  -1.35047  -0.00714  -0.61249
  -1.47018   0.05271  -0.52271
  -1.51507   0.12753  -0.49278
  -1.54500   0.12753  -0.43292
  -1.70960   0.14249  -0.38803
  -1.75449   0.17242  -0.25336
  -1.76945   0.15746  -0.28329
  -1.72456   0.14249  -0.22343
  -1.76945   0.18739  -0.14861
  -1.78442   0.23228  -0.07379
  -1.72456   0.21731  -0.02890
  -1.70960   0.20235   0.04592
  -1.72456   0.20235   0.10577
  -1.72456   0.17242   0.22548
  -1.64974   0.11257   0.30030
  -1.60485   0.02278   0.34519
  -1.54500   0.00782   0.37512
  -1.50010   0.02278   0.42001
  -1.42529  -0.03707   0.50979
  -1.36543   0.03775   0.55468
  -1.27565  -0.00714   0.67439
  -1.23076   0.00782   0.70432
  -1.12601   0.00782   0.83900
  -1.03623  -0.00714   0.83900
  -0.96141  -0.05203   0.89885
  -0.94645   0.00782   0.89885
  -0.87163  -0.08196   0.91382
  -0.75192  -0.08196   1.01856
  -0.70703  -0.14182   1.09338
  -0.64717  -0.03707   1.15324
  -0.57235  -0.05203   1.16820
  -0.57235  -0.09693   1.21309
  -0.52746  -0.06700   1.22805
  -0.45264  -0.11189   1.15324
  -0.40775  -0.00714   1.21309
  -0.36286  -0.03707   1.22805
  -0.28804  -0.00714   1.19813
  -0.28804   0.02278   1.15324
  -0.28804  -0.06700   1.06345
  -0.24315  -0.00714   1.06345
  -0.16833  -0.09693   1.01856
  -0.21322   0.00782   0.89885
  -0.21322  -0.09693   0.83900
  -0.27308  -0.15678   0.82403
  -0.27308  -0.15678   0.79410
  -0.24315  -0.12685   0.68936
  -0.21322  -0.20167   0.56965
  -0.13840  -0.12685   0.49483
  -0.21322  -0.12685   0.37512
  -0.28804  -0.18671   0.25541
  -0.24315  -0.23160   0.16563
  -0.19826  -0.11189   0.09081
  -0.15337  -0.08196   0.04592
  -0.13840  -0.17174   0.07584
  -0.15337  -0.15678   0.04592
  -0.15337  -0.14182  -0.04387
  -0.15337  -0.05203  -0.04387
  -0.01869  -0.05203  -0.08876
  -0.00373  -0.00714  -0.08876
  -0.13840  -0.05203  -0.04387
  -0.09351  -0.05203  -0.05883
  -0.06358   0.05271  -0.07379
   0.01124   0.05271  -0.05883
   0.01124   0.08264   0.04592
  -0.01869   0.14249   0.04592
  -0.03366   0.14249  -0.04387
  -0.00373   0.12753   0.01599
  -0.04862   0.14249   0.00103
   0.05613   0.17242   0.07584
   0.07109   0.15746   0.07584
   0.01124   0.11257   0.09081
  -0.01869   0.20235   0.12074
   0.02620   0.20235   0.10577
  -0.09351   0.09760   0.07584
  -0.00373   0.03775   0.09081
  -0.03366  -0.05203   0.00103
  -0.00373   0.14249   0.06088
  -0.04862   0.09760   0.04592
  -0.04862  -0.02211  -0.11868
  -0.03366  -0.05203  -0.13365
  -0.01869  -0.05203  -0.11868
   0.01124  -0.06700  -0.20847
   0.10102  -0.06700  -0.19350
   0.13095  -0.05203  -0.20847
   0.14591  -0.11189  -0.25336
   0.16087  -0.11189  -0.35810
   0.29555  -0.17174  -0.34314
   0.35540  -0.09693  -0.29825
   0.40029  -0.17174  -0.43292
   0.41526  -0.23160  -0.44789
   0.52000  -0.18671  -0.46285
   0.65468  -0.18671  -0.41796
   0.65468  -0.21664  -0.46285
   0.69957  -0.11189  -0.49278
   0.77439  -0.18671  -0.46285
   0.71453  -0.18671  -0.52271
   0.84921  -0.21664  -0.55263
   0.87913  -0.18671  -0.53767
   0.92402  -0.15678  -0.52271
   0.84921  -0.24656  -0.52271
   0.83424  -0.24656  -0.55263
   0.81928  -0.17174  -0.47781
   0.81928  -0.21664  -0.46285
   0.87913  -0.08196  -0.46285
   0.86417  -0.12685  -0.41796
   0.69957  -0.20167  -0.44789
   0.68460  -0.12685  -0.49278
   0.63971  -0.09693  -0.44789
   0.57986  -0.06700  -0.38803
   0.50504  -0.05203  -0.41796
   0.49008  -0.08196  -0.47781
   0.44518   0.00782  -0.40300
   0.34044  -0.00714  -0.46285
   0.29555   0.12753  -0.53767
   0.28058   0.08264  -0.50774
   0.14591   0.23228  -0.52271
   0.16087   0.18739  -0.55263
   0.13095   0.24724  -0.49278
   0.10102   0.30710  -0.58256
   0.05613   0.30710  -0.55263
   0.02620   0.35199  -0.47781
  -0.03366   0.36695  -0.61249
  -0.06358   0.44177  -0.56760
  -0.06358   0.38191  -0.53767
  -0.06358   0.39688  -0.50774
  -0.10847   0.39688  -0.53767
  -0.15337   0.33702  -0.53767
  -0.19826   0.35199  -0.38803
  -0.16833   0.29213  -0.47781
  -0.15337   0.23228  -0.41796
  -0.22818   0.26220  -0.44789
  -0.21322   0.20235  -0.29825
  -0.21322   0.08264  -0.31321
  -0.22818   0.23228  -0.28329
  -0.19826   0.06768  -0.28329
  -0.18329   0.00782  -0.20847
  -0.18329   0.02278  -0.22343
  -0.24315   0.09760  -0.10372
  -0.15337  -0.03707  -0.11868
  -0.18329  -0.11189  -0.07379
  -0.16833  -0.00714  -0.05883
  -0.16833  -0.02211  -0.04387
  -0.16833  -0.06700   0.03095
  -0.18329  -0.05203   0.03095
  -0.12344  -0.08196   0.01599
  -0.10847  -0.03707   0.01599
  -0.10847  -0.02211   0.06088
  -0.07855  -0.03707   0.01599
  -0.09351  -0.05203   0.01599
  -0.07855  -0.11189   0.06088
  -0.07855  -0.09693   0.09081
  -0.03366  -0.02211   0.01599
   0.02620  -0.08196  -0.04387
   0.07109  -0.06700  -0.05883
   0.14591   0.05271  -0.07379
   0.16087  -0.00714  -0.13365
   0.11598   0.03775  -0.13365
   0.20576  -0.00714  -0.17854
   0.29555   0.06768  -0.19350
