********************************************************************************
               CENTRO DE INSTRUMENTACION Y REGISTRO SISMICO  A.C.  
                       Coordinacion de Servicios Tecnicos
     Anaxagoras 814, Col. Narvarte, Benito Juarez, C.P. 03020 Mexico, D.F.
            Tels. 667 45 42/ 687 45  82             Fax. 669 25 12
********************************************************************************
ARCHIVO ESTANDAR DE ACELERACION:
VERSION DEL FORMATO                    : 2.0
NOMBRE DEL ARCHIVO                     : AL010110.291
FECHA Y HORA DE CREACION               : 07/JUL/04, 09:35
REF. CATALOGO ACELEROGRAMAS, SMIS 1996 : REGISTRO No.     /PAG.


================================================================================
DATOS DE LA ESTACION:
NOMBRE DE LA ESTACION                  : ALAMEDA
CLAVE DE LA ESTACION                   : AL01
LOCALIZACION DE LA ESTACION            : JARDIN ALAMEDA ENTRE AV. HIDALGO Y AV.
                                       : JUAREZ, CENTRO
                                       :
                                       :
                                       :
COORDENADAS DE LA ESTACION             : 19.436 LAT. N 
                                       : 99.145 LONG. W 
ALTITUD (msnm)                         : 2232
TIPO DE SUELO                          : TERRENO BLANDO, MATERIAL COMPRESIBLE
                                       : (ARCILLAS)
                                       : 
INSTITUCION RESPONSABLE                : CIRES 
                                       :

================================================================================
DATOS DEL ACELEROGRAFO:
MODELO DEL ACELEROGRAFO                : SSA-1
NUMERO DE SERIE DEL ACELEROGRAFO       : 152
NUMERO DE CANALES                      : 3
ORIENTACION C1-C6 (rumbo;orientacion)  : /N00E/+V/N90E
ORIENTACION C7-C12 (rumbo;orientacion) :
VEL. DE MUESTREO, C1-C6 (muestras/s)   : /200/200/200
VEL. DE MUESTREO, C7-C12 (muestras/s)  :
ESC. COMPLETA DE SENSORES, C1-C6, (g)  : /2/2/2
ESC. COMPLETA DE SENSORES, C7-C12, (g) :
FREC. NAT. DE SENSORES, C1-C6, (Hz)    : /51.29/51.09/53.75
FREC. NAT. DE SENSORES, C7-C12, (Hz)   :
AMORTIGUAMIENTO DE SENSORES, C1-C6     : /.5519/.5670/.5810
AMORTIGUAMIENTO DE SENSORES, C7-C12    :
INTERVALO DE MUESTREO, C1-C6, (s)      : /0.005/0.005/0.005
INTERVALO DE MUESTREO, C7-C12, (s)     :
UMBRAL DE DISPARO, C1-C6, (Gal)        : /2/1.5/2
UMBRAL DE DISPARO, C7-C12, (Gal)       :
MEMORIA DE PREEVENTO (s)               : 15
TIEMPO DE POSEVENTO (s)                : 60


================================================================================
DATOS DEL SISMO:
FECHA DEL SISMO (GMT)                  : 29/OCT/01
HORA EPICENTRO (GMT)                   : 05:23:12,3
MAGNITUD(ES)                           : /Mb=5.0/Ms=4.5/Mc=5.1/Ma=5.1/Me=5.4
COORDENADAS DEL EPICENTRO              : 17.00 LAT. N
                                       : 100.19 LONG. W
PROFUNDIDAD FOCAL (km)                 : 4
FUENTE DE LOS DATOS EPICENTRALES       : SSN
                                       : INSTITUTO DE GEOFISICA, UNAM 

================================================================================
DATOS DE ESTE REGISTRO:
HORA DE LA PRIMERA MUESTRA (GMT)       : 05:24:32.00
EXACTITUD DEL TIEMPO (s)               :     
DURACION DEL REGISTRO (s), C1-C6       : /94.72/94.72/94.72
DURACION DEL REGISTRO (s), C7-C12      :
NUM. TOTAL DE MUESTRAS, C1-C6          : /18944/18944/18944
NUM. TOTAL DE MUESTRAS, C7-C12         :
ACEL. MAX. (Gal), C1-C6                : /-3.08169/-1.20478/-2.82796
ACEL. MAX., C1-C6, EN LA MUESTRA       :
ACEL. MAX. (Gal), C7-C12               :
ACEL. MAX., C7-C12, EN LA MUESTRA      :
UNIDADES DE LOS DATOS                  : Gal (cm/s/s)
FACTOR DE DECIMACION                   : 1
FORMATO DATOS (FORTRAN,10 campos/dato) : 3F10.5


================================================================================
CALIDAD DEL ACELEROGRAMA:
REGISTRO DIGITAL COMPLETO, CARECE DE TIEMPO ABSOLUTO.


================================================================================
COMENTARIOS:














================================================================================
DATOS DE ACELERACION:
---------+---------+---------+---------+---------+---------+---------+---------+
   CANAL-1   CANAL-2   CANAL-3   CANAL-4   CANAL-5   CANAL-6   CANAL-7   CANAL-8
      N00E        +V      N90E
---------+---------+---------+---------+---------+---------+---------+---------+
[...]
  -0.45169   0.22522   0.05204
  -0.45169   0.22522  -0.18796
  -0.45169   0.22522  -0.18796
  -0.21169   0.22522  -0.18796
  -0.21169   0.22522  -0.18796
  -0.21169   0.22522  -0.18796
  -0.21169   0.22522  -0.18796
  -0.21169   0.22522  -0.18796
  -0.21169  -0.00478  -0.42796
  -0.21169  -0.00478  -0.42796
  -0.21169  -0.00478  -0.42796
  -0.21169   0.22522  -0.42796
  -0.21169   0.22522  -0.42796
  -0.21169   0.22522  -0.42796
  -0.21169   0.22522  -0.42796
  -0.21169  -0.00478  -0.42796
  -0.21169   0.22522  -0.42796
  -0.21169   0.22522  -0.42796
  -0.21169   0.46522  -0.42796
  -0.21169   0.22522  -0.42796
  -0.21169   0.46522  -0.42796
  -0.21169   0.46522  -0.42796
  -0.21169   0.46522  -0.42796
  -0.21169   0.70522  -0.42796
  -0.21169   0.46522  -0.42796
  -0.21169   0.46522  -0.42796
  -0.21169   0.70522  -0.18796
  -0.45169   0.70522  -0.18796
  -0.45169   0.70522  -0.18796
  -0.45169   0.46522  -0.18796
  -0.45169   0.46522  -0.18796
  -0.45169   0.46522   0.05204
  -0.45169   0.46522   0.05204
  -0.45169   0.22522   0.05204
  -0.45169   0.22522   0.05204
  -0.45169   0.22522   0.05204
  -0.45169   0.22522   0.05204
  -0.69169   0.22522   0.29204
  -0.69169  -0.00478   0.53204
  -0.69169  -0.00478   0.29204
  -0.69169  -0.00478   0.29204
  -0.69169  -0.00478   0.29204
  -0.69169  -0.00478   0.29204
  -0.69169  -0.00478   0.53204
  -0.69169  -0.00478   0.53204
  -0.93169  -0.00478   0.53204
  -0.93169  -0.24478   0.53204
  -0.93169  -0.24478   0.53204
  -0.69169  -0.24478   0.53204
  -0.93169  -0.24478   0.53204
  -0.93169  -0.48478   0.53204
  -0.69169  -0.24478   0.77204
  -0.69169  -0.24478   0.53204
  -0.69169  -0.24478   0.53204
  -0.69169  -0.00478   0.77204
  -0.69169  -0.00478   0.77204
  -0.69169  -0.00478   0.77204
  -0.69169  -0.00478   0.77204
  -0.45169  -0.00478   0.77204
  -0.45169  -0.00478   0.77204
  -0.45169   0.22522   0.77204
  -0.45169   0.22522   0.77204
  -0.45169   0.22522   0.77204
  -0.21169   0.22522   0.77204
  -0.21169   0.22522   0.77204
  -0.21169   0.22522   0.77204
  -0.21169   0.22522   0.77204
  -0.21169   0.22522   0.77204
   0.02831  -0.00478   0.77204
   0.02831  -0.00478   0.77204
   0.02831  -0.00478   0.77204
   0.02831  -0.24478   0.77204
   0.26831  -0.24478   0.77204
   0.26831  -0.24478   0.77204
   0.26831  -0.24478   0.77204
   0.26831  -0.48478   0.77204
   0.50831  -0.48478   0.77204
   0.50831  -0.48478   0.77204
   0.74831  -0.48478   0.77204
   0.74831  -0.48478   0.77204
   0.74831  -0.48478   0.77204
   0.74831  -0.48478   0.77204
   0.98831  -0.48478   0.77204
   0.98831  -0.48478   0.77204
   0.98831  -0.48478   0.77204
   1.22831  -0.48478   1.01204
   1.22831  -0.48478   1.01204
   1.22831  -0.48478   1.01204
   1.22831  -0.48478   1.01204
   1.46831  -0.48478   1.01204
   1.46831  -0.48478   1.01204
   1.46831  -0.48478   1.01204
   1.46831  -0.48478   1.01204
   1.46831  -0.48478   1.01204
   1.46831  -0.24478   1.25204
   1.46831  -0.24478   1.25204
   1.46831  -0.24478   1.25204
   1.46831  -0.24478   1.25204
   1.46831  -0.24478   1.25204
   1.46831  -0.24478   1.25204
   1.22831  -0.24478   1.25204
   1.22831  -0.00478   1.25204
   1.22831  -0.00478   1.48204
   1.22831  -0.00478   1.25204
   1.22831  -0.00478   1.25204
   1.22831  -0.00478   1.48204
   1.22831  -0.00478   1.25204
   0.98831  -0.00478   1.25204
   0.98831  -0.00478   1.48204
   0.98831  -0.00478   1.25204
   0.98831   0.22522   1.25204
   0.74831   0.22522   1.25204
   0.74831   0.22522   1.25204
   0.74831   0.22522   1.01204
   0.74831   0.22522   1.01204
   0.74831   0.22522   1.01204
   0.50831   0.22522   1.01204
   0.50831   0.22522   0.77204
   0.26831   0.22522   0.77204
   0.26831   0.22522   0.77204
   0.26831   0.22522   0.77204
   0.26831   0.22522   0.77204
   0.26831   0.22522   0.53204
   0.02831   0.22522   0.53204
   0.02831   0.22522   0.53204
   0.02831   0.22522   0.53204
   0.02831   0.22522   0.29204
   0.02831   0.22522   0.29204
   0.02831   0.22522   0.29204
   0.02831   0.22522   0.05204
   0.02831   0.22522   0.29204
   0.02831   0.22522   0.05204
   0.26831   0.22522   0.05204
   0.26831   0.22522   0.05204
   0.26831   0.22522  -0.18796
   0.26831  -0.00478  -0.18796
   0.26831  -0.00478  -0.18796
   0.26831  -0.00478  -0.42796
   0.26831  -0.00478  -0.42796
   0.26831  -0.00478  -0.42796
   0.50831  -0.00478  -0.66796
   0.50831  -0.00478  -0.66796
   0.50831  -0.00478  -0.66796
   0.50831  -0.00478  -0.66796
   0.74831  -0.00478  -0.90796
   0.74831  -0.00478  -0.90796
   0.74831  -0.00478  -0.90796
   0.74831  -0.00478  -0.90796
   0.98831  -0.00478  -0.90796
   0.98831  -0.00478  -0.90796
   0.98831  -0.00478  -0.90796
   0.98831  -0.00478  -0.90796
   1.22831  -0.00478  -1.14796
   1.22831  -0.00478  -1.14796
   1.22831  -0.00478  -1.14796
   1.22831  -0.00478  -1.14796
   1.22831  -0.00478  -1.14796
   1.22831  -0.00478  -1.14796
   1.22831  -0.00478  -1.14796
   1.22831  -0.00478  -1.14796
   1.22831  -0.00478  -1.14796
   1.22831  -0.24478  -1.14796
   1.22831  -0.24478  -1.14796
   0.98831  -0.24478  -1.14796
   0.98831  -0.24478  -1.14796
   0.98831  -0.00478  -1.14796
   0.74831  -0.24478  -1.14796
   0.98831  -0.24478  -1.14796
   0.98831  -0.24478  -1.14796
   0.74831  -0.24478  -0.90796
   0.74831  -0.24478  -0.90796
   0.74831  -0.24478  -0.90796
   0.74831  -0.24478  -0.90796
   0.74831  -0.00478  -0.66796
   0.50831  -0.00478  -0.66796
   0.50831  -0.00478  -0.66796
   0.50831  -0.00478  -0.66796
   0.50831  -0.00478  -0.42796
   0.50831  -0.00478  -0.42796
   0.26831  -0.00478  -0.42796
   0.26831  -0.00478  -0.18796
   0.26831  -0.00478  -0.18796
   0.26831   0.22522   0.05204
   0.26831   0.22522   0.05204
   0.26831   0.22522   0.05204
   0.26831   0.22522   0.05204
   0.02831   0.22522   0.05204
   0.02831   0.22522   0.29204
   0.26831   0.22522   0.29204
   0.02831   0.46522   0.29204
   0.02831   0.46522   0.29204
   0.02831   0.46522   0.29204
   0.02831   0.22522   0.29204
   0.02831   0.22522   0.29204
   0.02831   0.22522   0.29204
   0.02831   0.22522   0.53204
   0.02831   0.22522   0.53204
  -0.21169  -0.00478   0.53204
  -0.21169  -0.00478   0.53204
  -0.21169  -0.00478   0.53204
  -0.21169  -0.00478   0.53204
  -0.21169  -0.00478   0.77204
  -0.21169  -0.00478   0.77204
  -0.21169  -0.24478   0.77204
  -0.21169  -0.24478   0.77204
  -0.21169  -0.24478   0.77204
  -0.21169  -0.24478   0.77204
  -0.21169  -0.24478   1.01204
  -0.21169  -0.24478   0.77204
  -0.21169  -0.24478   1.01204
  -0.21169  -0.24478   0.77204
  -0.21169  -0.24478   1.01204
  -0.21169  -0.24478   0.77204
  -0.21169  -0.24478   0.77204
  -0.21169  -0.24478   0.77204
  -0.21169  -0.24478   0.77204
  -0.21169  -0.24478   0.77204
  -0.21169  -0.24478   0.77204
  -0.21169  -0.00478   0.77204
  -0.21169  -0.24478   0.77204
  -0.21169  -0.24478   0.53204
  -0.21169  -0.24478   0.53204
  -0.21169  -0.00478   0.53204
  -0.21169  -0.00478   0.53204
  -0.21169  -0.24478   0.29204
  -0.21169  -0.00478   0.29204
  -0.21169  -0.00478   0.29204
  -0.21169  -0.24478   0.05204
  -0.21169  -0.00478   0.05204
  -0.21169  -0.00478   0.05204
  -0.21169  -0.00478   0.05204
  -0.21169  -0.00478  -0.18796
  -0.21169  -0.00478  -0.18796
   0.02831  -0.00478  -0.18796
   0.02831  -0.00478  -0.42796
   0.02831  -0.00478  -0.42796
   0.02831  -0.00478  -0.42796
   0.02831  -0.24478  -0.66796
   0.02831  -0.00478  -0.66796
   0.02831  -0.00478  -0.66796
   0.02831  -0.24478  -0.66796
  -0.21169  -0.00478  -0.90796
  -0.21169  -0.00478  -0.90796
  -0.21169  -0.00478  -1.14796
  -0.21169  -0.00478  -1.14796
  -0.21169  -0.00478  -1.14796
  -0.21169  -0.00478  -1.14796
  -0.21169  -0.00478  -1.14796
  -0.21169  -0.00478  -1.14796
  -0.21169  -0.00478  -1.14796
  -0.21169  -0.00478  -1.14796
  -0.69169  -0.24478  -1.14796
  -0.21169  -0.00478  -1.14796
  -0.21169  -0.00478  -1.14796
  -0.21169  -0.24478  -1.14796
  -0.21169  -0.00478  -1.14796
  -0.21169  -0.24478  -1.14796
  -0.21169  -0.24478  -1.14796
  -0.21169  -0.00478  -1.14796
  -0.21169  -0.00478  -1.14796
  -0.21169  -0.00478  -1.14796
  -0.21169  -0.00478  -1.14796
   0.02831  -0.00478  -1.14796
   0.02831   0.22522  -0.90796
   0.02831   0.22522  -0.90796
   0.02831   0.22522  -0.90796
   0.02831   0.22522  -0.90796
   0.02831   0.22522  -0.90796
   0.02831   0.22522  -0.90796
  -0.21169   0.46522  -0.90796
  -0.21169   0.22522  -0.66796
  -0.21169   0.46522  -0.66796
  -0.21169   0.46522  -0.66796
  -0.21169   0.46522  -0.66796
  -0.21169   0.46522  -0.66796
  -0.21169   0.46522  -0.66796
  -0.21169   0.46522  -0.66796
  -0.21169   0.46522  -0.66796
  -0.45169   0.46522  -0.66796
  -0.45169   0.46522  -0.66796
  -0.45169   0.46522  -0.66796
  -0.45169   0.46522  -0.66796
  -0.45169   0.70522  -0.66796
  -0.45169   0.70522  -0.66796
  -0.69169   0.46522  -0.66796
  -0.69169   0.46522  -0.66796
  -0.45169   0.46522  -0.66796
  -0.45169   0.46522  -0.66796
  -0.45169   0.46522  -0.90796
  -0.45169   0.46522  -0.66796
  -0.45169   0.22522  -0.90796
  -0.45169   0.22522  -0.90796
  -0.45169   0.22522  -0.90796
  -0.21169  -0.00478  -0.90796
  -0.45169  -0.00478  -0.90796
  -0.45169  -0.00478  -0.90796
  -0.45169  -0.00478  -1.14796
  -0.45169  -0.00478  -0.90796
  -0.45169  -0.00478  -1.14796
  -0.45169  -0.00478  -0.90796
  -0.45169  -0.00478  -1.14796
  -0.45169  -0.00478  -0.90796
  -0.45169  -0.00478  -0.90796
  -0.45169  -0.00478  -0.90796
  -0.45169  -0.00478  -0.90796
  -0.21169  -0.00478  -0.90796
  -0.21169  -0.00478  -0.90796
  -0.21169  -0.00478  -0.66796
  -0.21169  -0.00478  -0.66796
  -0.21169  -0.00478  -0.66796
  -0.21169  -0.00478  -0.66796
  -0.21169  -0.24478  -0.66796
  -0.21169  -0.24478  -0.66796
   0.02831  -0.24478  -0.42796
  -0.21169  -0.24478  -0.42796
  -0.21169  -0.24478  -0.42796
  -0.21169  -0.48478  -0.42796
  -0.21169  -0.48478  -0.42796
  -0.21169  -0.48478  -0.42796
  -0.21169  -0.48478  -0.18796
  -0.21169  -0.48478  -0.18796
  -0.45169  -0.48478  -0.18796
  -0.45169  -0.48478  -0.18796
  -0.45169  -0.72478  -0.18796
  -0.69169  -0.48478  -0.18796
  -0.69169  -0.48478  -0.18796
  -0.93169  -0.48478  -0.18796
  -0.93169  -0.48478  -0.18796
  -1.17169  -0.48478  -0.18796
  -1.17169  -0.48478  -0.18796
  -1.17169  -0.48478  -0.18796
  -1.41169  -0.48478  -0.18796
  -1.41169  -0.48478  -0.18796
  -1.41169  -0.24478   0.05204
  -1.65169  -0.24478   0.05204
  -1.65169  -0.24478   0.05204
  -1.65169  -0.24478   0.05204
  -1.89169  -0.24478   0.05204
  -1.89169  -0.00478   0.05204
  -2.13169  -0.24478   0.29204
  -2.13169  -0.00478   0.29204
  -2.13169  -0.00478   0.29204
  -2.37169  -0.00478   0.29204
  -2.60169  -0.00478   0.53204
  -2.60169  -0.00478   0.53204
  -2.60169  -0.00478   0.53204
  -2.84169  -0.00478   0.77204
  -2.84169  -0.00478   0.77204
  -2.84169   0.22522   0.77204
  -3.08169   0.22522   1.01204
  -3.08169   0.22522   1.01204
  -3.08169   0.22522   1.01204
  -3.08169   0.22522   1.25204
  -3.08169   0.22522   1.25204
  -3.08169   0.46522   1.25204
  -3.08169   0.46522   1.25204
  -2.84169   0.46522   1.48204
  -2.84169   0.46522   1.48204
  -2.60169   0.46522   1.48204
  -2.60169   0.46522   1.48204
  -2.37169   0.46522   1.48204
  -2.37169   0.46522   1.48204
  -2.13169   0.46522   1.48204
  -1.89169   0.46522   1.48204
  -1.89169   0.46522   1.25204
  -1.65169   0.46522   1.25204
  -1.41169   0.46522   1.25204
  -1.17169   0.46522   1.25204
  -1.17169   0.22522   1.25204
  -0.93169   0.46522   1.01204
  -0.69169   0.46522   1.01204
  -0.69169   0.46522   1.01204
  -0.45169   0.46522   0.77204
  -0.21169   0.22522   0.77204
  -0.21169   0.46522   0.77204
  -0.21169   0.46522   0.53204
   0.02831   0.46522   0.53204
   0.26831   0.22522   0.53204
   0.26831   0.46522   0.53204
   0.26831   0.22522   0.29204
   0.50831   0.22522   0.29204
   0.74831   0.22522   0.29204
   0.74831   0.22522   0.05204
   0.98831   0.22522   0.05204
   0.98831   0.22522  -0.18796
   1.22831   0.22522  -0.18796
   1.46831  -0.00478  -0.42796
   1.46831   0.22522  -0.42796
   1.70831  -0.00478  -0.66796
   1.70831  -0.00478  -0.66796
   1.94831  -0.00478  -0.66796
   1.94831  -0.00478  -0.90796
   1.94831  -0.00478  -0.90796
   2.18831  -0.00478  -0.90796
   2.18831  -0.24478  -1.14796
   2.18831  -0.00478  -1.14796
   2.18831  -0.24478  -1.14796
   2.18831  -0.24478  -1.14796
   2.18831  -0.24478  -1.14796
   2.18831  -0.24478  -1.14796
   2.18831  -0.24478  -1.14796
   2.18831  -0.24478  -1.14796
   2.18831  -0.24478  -0.90796
   1.94831  -0.24478  -0.90796
   1.94831  -0.48478  -0.90796
   1.94831  -0.48478  -0.66796
   1.70831  -0.48478  -0.66796
   1.70831  -0.48478  -0.42796
   1.70831  -0.48478  -0.42796
   1.46831  -0.48478  -0.66796
   1.46831  -0.48478  -0.18796
   1.46831  -0.72478   0.05204
   1.22831  -0.72478   0.29204
   1.22831  -0.72478   0.29204
   1.22831  -0.72478   0.53204
   0.98831  -0.72478   0.53204
   0.98831  -0.96478   0.77204
   0.98831  -0.96478   1.01204
   0.74831  -0.96478   1.01204
   0.74831  -0.96478   1.25204
   0.74831  -0.96478   1.25204
   0.50831  -0.96478   1.48204
   0.50831  -0.72478   1.72204
   0.26831  -0.96478   1.72204
   0.26831  -0.96478   1.72204
   0.26831  -0.72478   1.96204
   0.02831  -0.72478   1.96204
   0.02831  -0.72478   2.20204
   0.02831  -0.72478   2.20204
  -0.21169  -0.48478   2.20204
  -0.21169  -0.48478   2.20204
  -0.21169  -0.48478   2.20204
  -0.21169  -0.48478   2.20204
  -0.21169  -0.48478   2.20204
  -0.21169  -0.48478   2.20204
  -0.21169  -0.48478   2.20204
  -0.21169  -0.24478   2.20204
  -0.21169  -0.24478   1.96204
   0.02831  -0.24478   1.96204
   0.02831  -0.24478   1.96204
   0.02831  -0.24478   1.96204
   0.26831  -0.24478   1.72204
   0.26831  -0.00478   1.72204
   0.26831  -0.00478   1.48204
   0.26831  -0.00478   1.48204
   0.26831  -0.00478   1.48204
   0.50831   0.22522   1.25204
   0.50831   0.22522   1.25204
   0.50831   0.22522   1.25204
   0.50831   0.22522   1.01204
   0.50831   0.22522   1.01204
   0.50831   0.22522   0.77204
   0.74831   0.46522   0.77204
   0.50831   0.46522   0.77204
   0.74831   0.22522   0.53204
   0.74831   0.46522   0.53204
   0.74831   0.22522   0.29204
   0.74831   0.46522   0.29204
   0.74831   0.46522   0.29204
   0.98831   0.22522   0.29204
   0.98831   0.22522   0.05204
   0.98831   0.46522   0.05204
   0.98831   0.22522   0.05204
   0.98831   0.46522  -0.18796
   1.22831   0.46522  -0.18796
   1.22831   0.46522  -0.18796
   1.22831   0.46522  -0.18796
   1.22831   0.46522  -0.18796
   1.22831   0.70522  -0.42796
   1.22831   0.46522  -0.42796
   1.22831   0.46522  -0.66796
   1.22831   0.70522  -0.66796
   1.22831   0.70522  -0.66796
   1.22831   0.46522  -0.90796
   0.98831   0.46522  -0.90796
   0.98831   0.46522  -0.90796
   0.98831   0.46522  -0.90796
   0.74831   0.46522  -1.14796
   0.74831   0.22522  -1.14796
   0.74831   0.22522  -1.14796
   0.50831   0.22522  -1.14796
   0.50831   0.22522  -1.14796
   0.26831  -0.00478  -1.14796
   0.26831   0.22522  -1.14796
   0.26831  -0.00478  -1.14796
   0.02831   0.22522  -1.14796
   0.02831   0.22522  -1.14796
  -0.21169   0.22522  -1.14796
  -0.21169   0.22522  -1.14796
  -0.21169   0.22522  -1.14796
  -0.21169   0.46522  -1.14796
  -0.21169   0.46522  -1.14796
  -0.21169   0.46522  -1.14796
  -0.45169   0.46522  -1.14796
  -0.45169   0.46522  -1.14796
  -0.45169   0.46522  -1.14796
  -0.45169   0.46522  -0.90796
  -0.45169   0.46522  -0.90796
  -0.69169   0.46522  -0.90796
