********************************************************************************
              CENTRO DE INSTRUMENTACION Y REGISTRO SISMICO  A.C.

    Anaxagoras 814, Col. Narvarte, Benito Juarez, C.P. 03020 Mexico, D.F.
           Tels. 5687 45 42/ 5687 45  82             Fax. 5669 25 12
********************************************************************************
ARCHIVO ESTANDAR DE ACELERACION:
VERSION DEL FORMATO                    : 2.0
NOMBRE DEL ARCHIVO                     : AL0120130616051903
FECHA Y HORA DE CREACION               : 20/OCT/17, 10:32
REF. CATALOGO ACELEROGRAMAS, SMIS 1996 : REGISTRO No.     /PAG.


================================================================================
DATOS DE LA ESTACION:
NOMBRE DE LA ESTACION                  : ALAMEDA
CLAVE DE LA ESTACION                   : AL01
LOCALIZACION DE LA ESTACION            : Del. Cuauhtémoc, Col. Centro,          
                                       : Dr. Mora entre Av. Hidalgo             
                                       : y Av. Juárez.                          
                                       :                                        
                                       : 
COORDENADAS DE LA ESTACION             : 19.4356 LAT. N
                                       : 99.1453 LONG. W
ALTITUD (msnm)                         : 2232
TIPO DE SUELO                          : Terreno blando, material compresible
                                       : (arcillas)                
                                       : 
INSTITUCION RESPONSABLE                : CIRES
                                       : 

================================================================================
DATOS DEL ACELEROGRAFO:
MODELO DEL ACELEROGRAFO                : RADESD
NUMERO DE SERIE DEL ACELEROGRAFO       : 152
NUMERO DE CANALES                      : 3
ORIENTACION C1-C6 (rumbo;orientacion)  : /S00E/+V/N90W
ORIENTACION C7-C12 (rumbo;orientacion) : 
VEL. DE MUESTREO, C1-C6 (muestras/s)   : /100/100/100
VEL. DE MUESTREO, C7-C12 (muestras/s)  : 
ESC. COMPLETA DE SENSORES, C1-C6, (g)  : /0.5/0.5/0.5
ESC. COMPLETA DE SENSORES, C7-C12, (g) : 
FREC. NAT. DE SENSORES, C1-C6, (Hz)    : /51.29/51.09/53.75
FREC. NAT. DE SENSORES, C7-C12, (Hz)   : 
AMORTIGUAMIENTO DE SENSORES, C1-C6     : /0.5519/0.5670/0.5810
AMORTIGUAMIENTO DE SENSORES, C7-C12    : 
INTERVALO DE MUESTREO, C1-C6, (s)      : /0.01/0.01/0.01
INTERVALO DE MUESTREO, C7-C12, (s)     : 
UMBRAL DE DISPARO, C1-C6, (Gal)        : /0.9/1.8/0.9
UMBRAL DE DISPARO, C7-C12, (Gal)       :
MEMORIA DE PREEVENTO (s)               : 44.0
TIEMPO DE POSEVENTO (s)                : 69.0


================================================================================
DATOS DEL SISMO:
FECHA DEL SISMO (GMT)                  : 16/JUN/13
HORA EPICENTRO (GMT)                   : 05:19:03.0
MAGNITUD(ES)                           : /Mc=5.8
COORDENADAS DEL EPICENTRO              : 18.11 LAT. N
                                       : 99.22 LONG. W
PROFUNDIDAD FOCAL (km)                 : 55
FUENTE DE LOS DATOS EPICENTRALES       : SSN
                                       : INSTITUTO DE GEOFISICA, UNAM

================================================================================
DATOS DE ESTE REGISTRO:
HORA DE LA PRIMERA MUESTRA (GMT)       : 05:19:24.00
EXACTITUD DEL TIEMPO (s)               : 0.01
DURACION DEL REGISTRO (s), C1-C6       : /261.0/261.0/261.0
DURACION DEL REGISTRO (s), C7-C12      : 
NUM. TOTAL DE MUESTRAS, C1-C6          : /26100/26100/26100
NUM. TOTAL DE MUESTRAS, C7-C12         : 
ACEL. MAX. (Gal), C1-C6                : /22.58809/10.73766/25.79713
ACEL. MAX., C1-C6, EN LA MUESTRA       : /6797/7483/6638
ACEL. MAX. (Gal), C7-C12               : 
ACEL. MAX., C7-C12, EN LA MUESTRA      : 
UNIDADES DE LOS DATOS                  : Gal (cm/s/s)
FACTOR DE DECIMACION                   : 1
FORMATO DATOS (FORTRAN,10 campos/dato) : 3F10.5


================================================================================
CALIDAD DEL ACELEROGRAMA:
REGISTRO DIGITAL COMPLETO CON TIEMPO ABSOLUTO CORRECTO.


================================================================================
COMENTARIOS:














================================================================================
DATOS DE ACELERACION:
---------+---------+---------+---------+---------+---------+---------+---------+
   CANAL-1   CANAL-2   CANAL-3   CANAL-4   CANAL-5   CANAL-6   CANAL-7   CANAL-8
      S00E        +V      N90W
---------+---------+---------+---------+---------+---------+---------+---------+
[...]
  -2.79045  -0.96633  -6.56872
  -1.54846  -0.69698  -7.13734
  -0.36632  -0.38274  -7.36179
   0.84574  -0.38274  -7.52640
   2.10270  -0.69698  -7.67603
   3.37462  -1.29553  -7.76582
   4.66150  -1.86415  -7.70596
   6.08306  -2.20832  -7.58625
   7.62433  -2.31306  -7.48150
   9.09078  -1.87911  -7.46654
  10.52730  -1.17582  -7.64611
  11.70943  -0.29296  -8.03516
  12.36784   0.63480  -8.03516
  12.77186   1.18846  -8.13991
  12.65215   1.65233  -8.22969
  12.29302   1.86183  -8.09502
  11.76929   2.17606  -8.24466
  11.26052   2.49030  -8.42422
  10.72183   2.89432  -8.90306
  10.33277   2.93922  -9.65125
  10.16817   2.59505 -10.35455
  10.15320   1.77204 -11.08777
  10.28788   0.85925 -11.38705
  10.55723  -0.11339 -11.64143
  11.05103  -1.11596 -11.50676
  11.51491  -1.60977 -10.95310
  12.41273  -1.89408 -10.51915
  13.16092  -1.78933  -9.78592
  13.99889  -1.51998  -9.56147
  14.83686  -0.86158  -9.27716
  15.60001  -0.26303  -9.29212
  16.46791   0.21581  -9.29212
  17.47048   0.24574  -9.26219
  18.36831   0.18588  -9.11255
  19.25117  -0.06850  -9.05270
  19.90958  -0.32288  -9.02277
  20.37345  -0.26303  -8.79832
  20.56798  -0.21814  -8.45415
  20.53805  -0.21814  -7.85560
  20.35849  -0.78676  -7.34683
  19.81979  -1.56488  -6.80814
  19.31103  -2.59738  -6.73332
  18.56284  -3.24082  -6.56872
  17.84458  -3.61491  -7.01763
  17.00661  -3.62987  -7.37676
  16.19856  -3.40542  -7.33187
  15.37556  -3.00140  -7.18223
  14.58248  -2.28314  -6.59864
  13.68465  -1.59480  -5.70082
  12.72697  -1.01122  -4.69825
  11.76929  -0.59223  -3.41136
  10.72183  -0.32288  -2.27412
   9.79407  -0.18821  -1.15183
   8.88128   0.08114  -0.23904
   8.38748   0.38041   0.46425
   7.89368   0.96400   1.33215
   7.59440   1.39795   2.24494
   7.19038   2.05635   3.50190
   6.72650   2.53519   4.72892
   6.15788   2.83447   6.16544
   5.67904   2.99907   7.24284
   5.06553   2.89432   8.20052
   4.70640   3.19360   8.61950
   4.18266   3.41806   8.93374
   3.80857   3.61259   8.84396
   3.46440   3.74726   8.51476
   2.95564   3.64251   8.11073
   2.62643   3.38813   7.58700
   2.07277   3.32827   6.98845
   1.59393   3.01404   6.46472
   1.13006   2.44541   5.79135
   0.83078   1.77204   5.38733
   0.89064   1.29320   4.74389
   1.01035   1.08371   4.41468
   1.30962   1.44284   4.16030
   1.69868   1.56255   4.14534
   2.07277   1.74212   4.23512
   2.41694   1.33809   4.38476
   2.62643   0.78443   4.69900
   2.65636  -0.05354   5.01324
   2.62643  -0.74187   5.16287
   2.43190  -1.65466   5.53697
   2.07277  -2.34299   6.07566
   1.80343  -2.73205   6.74903
   1.45926  -2.71709   7.61693
   1.15998  -2.70212   8.63447
   0.96545  -2.92658   9.75675
   0.78589  -3.30067  10.68450
   0.63625  -3.88426  11.62722
   0.65122  -4.03390  12.30059
   0.59136  -4.01893  12.55497
   0.53151  -3.65980  12.46519
   0.29209  -2.89665  12.22577
  -0.21668  -2.10357  11.58233
  -0.84516  -1.26560  10.83414
  -1.74299  -0.74187   9.81660
  -2.65578  -0.36777   8.76914
  -3.61346  -0.42763   7.43736
  -4.49632  -0.63712   6.07566
  -5.42407  -0.93640   4.65411
  -6.38175  -1.16085   3.14277
  -7.48907  -1.17582   1.63143
  -8.82084  -0.92143   0.06023
 -10.27233  -0.81669  -1.45111
 -11.67892  -0.66705  -2.57339
 -13.17530  -0.75683  -3.21683
 -14.50707  -0.80172  -3.41136
 -15.76403  -0.89151  -3.23180
 -16.78156  -0.83165  -2.84274
 -17.81406  -0.75683  -2.03470
 -18.68196  -0.53238  -1.09198
 -19.25059  -0.15828   0.07519
 -19.56482   0.55998   1.28726
 -19.59475   1.42788   2.31976
 -19.37030   2.34067   3.17269
 -18.90642   3.17864   3.84606
 -18.36772   3.88193   4.48950
 -17.72428   4.45056   4.86360
 -17.29033   4.82465   5.25266
 -16.82646   5.04911   5.71653
 -16.42243   5.16882   6.09063
 -16.18301   5.31845   6.37494
 -15.79396   5.46809   6.34501
 -15.44979   5.33342   6.09063
 -15.13555   5.06407   5.61179
 -14.83628   4.74983   4.93842
 -14.91109   4.07646   4.10045
 -15.22533   3.55273   3.29240
 -15.65928   2.80454   2.51429
 -16.25783   1.96657   1.94566
 -16.67682   0.97896   1.61646
 -17.03595   0.08114   1.67632
 -16.87135  -0.86158   1.61646
 -16.55711  -1.86415   1.61646
 -16.07827  -2.98643   1.46682
 -15.67425  -3.89922   1.34711
 -15.25526  -4.81201   1.21244
 -14.80635  -5.66495   1.19748
 -14.26765  -6.48795   1.27230
 -13.54939  -7.23614   1.46682
 -12.77128  -7.70002   1.72121
 -11.70885  -7.80476   1.90077
 -10.39204  -7.52045   1.97559
  -8.92559  -7.08650   2.03545
  -7.33943  -6.45803   1.88581
  -5.73831  -5.75473   1.61646
  -4.34668  -4.84194   1.13762
  -3.05980  -3.86929   0.35951
  -1.86270  -3.10614  -0.55328
  -0.63567  -2.74701  -1.55586
   0.59136  -2.32803  -2.49857
   1.90817  -1.90904  -3.30662
   2.91074  -1.50502  -4.06977
   3.77864  -0.87654  -4.48875
   4.19763  -0.21814  -4.74314
   4.06295   0.54501  -4.87781
   3.65893   1.08371  -4.99752
   3.04542   1.45780  -5.14716
   2.34212   1.41291  -5.56614
   1.75853   0.96400  -5.95520
   1.26473   0.36545  -6.58368
   0.96545   0.05121  -6.92785
   0.87567  -0.05354  -7.09245
   0.92056   0.05121  -6.86799
   0.92056   0.35049  -6.44901
   0.93553   0.82933  -5.76067
   0.92056   1.36802  -5.13219
   0.99538   1.95161  -4.51868
   1.10013   2.90929  -4.06977
   1.35451   3.89690  -3.50114
   1.83335   5.03414  -2.93252
   2.46183   6.08161  -2.45368
   3.18009   7.00936  -2.07959
   3.91332   7.66776  -1.90002
   4.63158   8.05682  -2.19930
   5.36480   7.96704  -2.82778
   6.03817   7.74258  -3.72560
   6.36737   7.12907  -4.78803
   6.81629   6.41081  -5.71578
   7.17542   5.64766  -6.58368
   7.60936   5.06407  -7.19719
   8.28273   4.48048  -7.85560
   9.04589   3.77719  -8.34940
   9.71925   3.07389  -8.88810
  10.46744   2.71476  -9.09759
  11.26052   2.50527  -9.44176
  11.91893   2.20599  -9.54650
  12.42770   1.72715  -9.47168
  12.71201   1.05378  -9.27716
  12.69704   0.32056  -9.03774
  12.42770  -0.14332  -8.79832
  11.91893  -0.63712  -8.58882
  11.27549  -1.02618  -8.40926
  10.57219  -1.14589  -8.10998
  10.06342  -0.93640  -8.00524
   9.56962  -0.51741  -7.88553
   9.27034   0.00632  -7.85560
   9.03092   0.45523  -8.03516
   8.77654   0.87422  -8.43919
   8.55208   1.33809  -8.91803
   8.25281   1.81693  -9.32205
   7.75900   2.02643  -9.66621
   7.25023   2.07132  -9.74103
   6.69658   1.96657  -9.63629
   6.23270   1.93664  -9.33701
   5.93342   2.08628  -8.81328
   5.63415   2.32570  -8.25962
   5.26005   2.29577  -7.46654
   4.88596   1.87679  -6.83806
   4.46697   1.35306  -6.11980
   3.92828   0.35049  -5.61103
   3.41951  -0.57727  -4.93767
   3.06038  -1.28056  -4.32415
   2.80600  -2.01379  -3.65078
   2.76111  -2.58241  -2.48361
   2.62643  -3.16600  -1.03212
   2.37205  -3.34556   0.43432
   2.08774  -3.40542   2.21501
   1.66875  -3.45031   4.02563
   1.18991  -3.43535   5.52200
   1.17495  -3.54009   6.67421
   1.38444  -3.68973   7.70671
   2.22241  -3.74958   8.03591
   3.44944  -3.86929   8.14066
   5.11042  -4.06382   8.02095
   6.74147  -4.12368   7.61693
   8.19295  -3.88426   7.16802
   9.30027  -3.55506   6.85378
  10.18313  -3.09118   6.71910
  10.88643  -3.09118   6.59939
  11.29045  -3.15103   6.49465
  11.57476  -3.25578   6.21034
  11.58972  -3.24082   6.03077
  11.32038  -3.00140   5.82128
  10.57219  -2.73205   5.31251
   9.52473  -2.16343   5.20776
   8.07324  -1.90904   4.84863
   6.53197  -1.81926   4.81871
   5.06553  -2.05868   4.57929
   3.62900  -2.31306   4.59425
   2.40198  -2.47767   4.48950
   1.44430  -2.37292   4.66907
   0.65122  -2.23824   5.02820
   0.03770  -1.84919   5.76142
  -0.57581  -1.20575   6.49465
  -1.26415  -0.63712   7.16802
  -2.22183  -0.15828   7.75160
  -3.10469   0.03625   8.03591
  -4.06237   0.17092   8.09577
  -4.73574   0.38041   8.02095
  -5.18465   0.57494   7.84139
  -5.63356   0.69465   7.69175
  -5.85802   0.54501   7.39247
  -6.26204   0.42530   7.28773
  -6.77081   0.39538   6.98845
  -7.50403   0.76947   6.86874
  -8.32704   1.24831   6.61436
  -9.16501   1.95161   6.40486
 -10.21247   2.58009   6.28515
 -10.96066   3.19360   6.22530
 -11.99316   3.71733   6.25523
 -12.69646   4.31588   5.82128
 -13.44465   5.00422   5.58186
 -13.90852   5.19874   5.23769
 -14.22276   5.24364   4.83367
 -14.17787   4.82465   4.80374
 -13.98334   4.12135   4.80374
 -13.69903   3.41806   5.20776
 -13.30997   2.65490   5.74646
 -13.11544   1.99650   6.33005
 -13.02566   1.38299   6.98845
 -13.20523   0.85925   7.63189
 -13.30997   0.17092   8.08081
 -13.26508  -0.63712   8.55965
 -12.96581  -1.28056   8.69432
 -12.26251  -1.98386   8.58957
 -11.18512  -2.47767   8.52972
  -9.89824  -3.04629   8.30526
  -8.46171  -3.62987   8.03591
  -7.07008  -4.01893   7.60197
  -5.63356  -4.36310   7.37751
  -4.13719  -4.66237   7.00342
  -2.71563  -4.55763   6.88371
  -1.39882  -4.40799   6.80889
  -0.05208  -3.68973   6.59939
   1.36948  -2.91161   6.25523
   2.56658  -1.99882   5.79135
   3.83850  -1.04114   5.23769
   5.00567  -0.29296   4.57929
   6.32248   0.39538   4.14534
   7.47469   1.05378   3.90592
   8.77654   1.33809   3.92088
   9.88386   1.57751   3.93584
  10.91636   1.41291   4.22016
  11.66454   1.32313   4.59425
  12.39777   0.85925   4.96834
  12.78683   0.38041   5.32747
  13.11603  -0.18821   5.49208
  13.37041  -0.86158   5.80631
  13.63976  -1.37035   6.21034
  14.17846  -1.53495   6.33005
  14.85182  -1.34042   6.65925
  15.80951  -1.13093   6.97349
  16.85697  -1.13093   7.42240
  17.91940  -0.93640   7.79649
  18.86211  -0.98129   7.97606
  19.44570  -0.98129   7.99102
  19.67016  -1.04114   7.69175
  19.59534  -1.13093   7.28773
  19.14642  -1.16085   6.53954
  18.47305  -0.89151   5.65668
  17.45552  -0.65209   4.50447
  16.33324  -0.33785   3.06795
  14.95657  -0.26303   1.31719
  13.40034  -0.33785  -0.61314
  11.52987  -0.35281  -2.60332
   9.55465  -0.48748  -4.69825
   7.62433  -0.44259  -6.77821
   5.69400  -0.29296  -8.84321
   3.73375   0.02128 -10.62389
   1.78846   0.23078 -12.18013
  -0.08201   0.45523 -13.24255
  -1.96744   0.53005 -14.06556
  -3.76309   0.60487 -14.54440
  -5.48393   0.75451 -15.06813
  -6.87556   1.05378 -15.42726
  -7.84820   1.48773 -15.84625
  -8.32704   1.81693 -16.35501
  -8.43179   2.17606 -17.11817
  -8.25222   2.34067 -18.13570
  -8.26719   2.34067 -19.15324
  -8.43179   2.19103 -19.84157
  -9.00041   1.77204 -20.32041
  -9.94313   1.48773 -20.70947
 -11.15519   1.26328 -20.91896
 -12.45704   1.14356 -21.26313
 -13.71399   1.11364 -21.60729
 -14.79138   1.02385 -22.07117
 -15.64432   0.85925 -22.63979
 -16.27280   0.55998 -23.28324
 -16.76660   0.30559 -23.89675
 -17.17062   0.14099 -24.54019
 -17.70932   0.17092 -24.91429
 -18.27794   0.58991 -25.30334
 -18.99620   0.94904 -25.54276
 -19.63964   1.12860 -25.75226
 -20.35790   0.93407 -25.79715
 -20.85171   0.66472 -25.60262
 -21.12106   0.09610 -24.91429
 -21.25573  -0.50245 -23.76208
 -21.22580  -0.89151 -22.28066
 -20.98638  -0.96633 -20.47005
 -20.50754  -0.65209 -18.56965
 -19.78928  -0.02361 -16.59443
 -18.56225   0.61983 -14.61922
 -17.00602   1.12860 -12.52429
 -15.07570   1.36802 -10.50418
 -12.87602   1.15853  -8.60379
 -10.58657   0.79940  -6.95777
  -8.31208   0.33552  -5.43147
  -6.26204  -0.05354  -4.11466
  -4.48135  -0.24806  -2.85770
  -2.88023  -0.48748  -1.63067
  -1.33896  -0.60719  -0.58321
   0.17238  -0.60719   0.32958
   1.80343  -0.75683   1.09273
   3.44944  -0.81669   1.84092
   5.03560  -0.80172   2.66392
   6.51701  -0.75683   3.47197
   7.60936  -0.62216   4.33987
   8.29770  -0.56230   5.29755
   8.62690  -0.62216   6.18041
   8.88128  -0.78676   6.89867
   9.19552  -0.92143   7.73664
   9.55465  -1.22071   8.51476
  10.22802  -1.63969   9.32280
  11.09592  -2.14846  10.14581
  11.97878  -2.58241  11.02867
  12.93646  -2.83680  11.88160
  13.60983  -2.92658  12.80935
  14.07371  -2.92658  13.64732
  14.22335  -3.09118  14.64990
  14.32809  -3.36053  15.51780
  14.40291  -3.74958  16.25102
  14.58248  -4.28828  17.05906
  14.62737  -4.60252  17.76236
  14.73211  -4.61748  18.45069
  14.64233  -4.01893  19.10910
  14.43284  -2.91161  19.72261
  14.04378  -1.57984  20.18649
  13.52005  -0.12835  20.39598
  12.93646   1.41291  20.51569
  12.27806   2.66987  20.45584
  11.61965   3.67244  20.02189
  10.79665   4.57027  19.21384
  10.01853   5.34838  18.01674
   9.27034   6.05168  16.55029
   8.43237   6.72505  14.99406
   7.63929   7.30863  13.58747
   6.69658   7.42834  12.55497
   5.76882   7.15900  11.67211
   4.55676   6.91958  11.10349
   3.35966   6.48563  10.54983
   2.10270   5.99182  10.31041
   1.08517   5.46809  10.08595
   0.44172   4.85458  10.08595
   0.02274   4.22610  10.08595
  -0.24661   3.79215  10.13084
  -0.38128   3.38813  10.01113
  -0.75538   3.10382   9.99617
  -1.27911   3.05893  10.05602
  -1.92255   3.10382  10.17573
  -2.62585   3.07389  10.38523
  -3.11965   3.04396  10.47501
  -3.50871   2.81951  10.57975
  -3.71820   2.69980  10.80421
  -3.83791   2.44541  10.99874
  -4.04740   2.19103  11.10349
  -4.27186   1.75708  10.81917
  -4.46639   1.53262  10.62465
  -4.64596   1.29320  10.17573
  -4.90034   1.26328   9.80164
  -5.16969   1.27824   9.38265
  -5.33429   0.85925   8.73921
  -5.58867   0.39538   8.30526
  -5.76824  -0.47252   7.63189
  -5.87298  -1.43020   7.16802
  -5.94780  -2.61234   6.71910
  -5.91787  -3.76455   6.37494
  -5.82809  -4.81201   5.98588
  -5.64853  -5.63502   5.56689
  -5.57371  -6.26350   5.19280
  -5.75327  -6.74234   4.75885
  -5.84306  -7.20621   4.35483
  -5.94780  -7.53542   4.20519
  -5.91787  -7.71498   4.20519
  -5.73831  -7.90951   4.19023
  -5.34925  -7.83469   4.41468
  -4.67588  -7.67009   4.39972
  -3.89777  -7.40074   4.35483
  -3.11965  -7.25110   4.22016
  -2.35650  -7.22118   3.89095
  -1.71306  -7.32592   3.56175
  -1.09954  -7.37081   3.21758
  -0.53092  -7.19125   2.91831
  -0.00719  -7.04161   2.75371
   0.50158  -6.38321   2.84349
   0.99538  -5.75473   2.93327
   1.36948  -5.00654   2.99313
   1.77350  -4.51274   3.05298
   2.11766  -4.12368   2.81356
   2.32716  -3.67477   2.45443
   2.47679  -3.12111   1.67632
   2.29723  -2.56745   0.76353
   1.93810  -1.95393  -0.22408
   1.39940  -1.14589  -1.19673
   0.75596  -0.33785  -2.49857
  -0.03712   0.33552  -3.71064
  -0.78531   0.72458  -5.04241
  -1.60831   0.97896  -6.41908
  -2.26672   0.94904  -8.00524
  -2.94009   1.00889  -9.60636
  -3.40396   0.84429 -10.96806
  -3.95762   0.99393 -12.44947
  -4.19704   1.03882 -13.87103
  -4.46639   1.08371 -15.15791
  -4.72077   1.09867 -16.08567
  -4.99012   0.94904 -16.80393
  -5.27443   1.15853 -17.52219
  -5.94780   1.51766 -18.00103
  -6.62117   1.92168 -18.36016
  -7.39929   2.65490 -18.59958
  -8.16244   3.40309 -18.80907
  -8.68617   4.19617 -18.73425
  -9.03034   5.18378 -18.56965
  -9.19494   6.11153 -18.37512
  -9.35954   6.90461 -18.31527
  -9.49421   7.42834 -18.10577
  -9.77853   7.75755 -18.19556
 -10.22744   7.98200 -18.12074
 -10.67635   7.77251 -18.36016
 -11.14023   7.53309 -18.42001
 -11.70885   6.85972 -18.47987
 -12.30740   6.39584 -18.42001
 -12.83113   5.84219 -18.28534
 -13.20523   5.58780 -17.59701
 -13.23515   5.19874 -16.74407
 -12.93588   4.83961 -15.98092
 -12.14280   4.49545 -15.15791
 -10.97563   4.10639 -14.63418
  -9.37450   3.65748 -14.40973
  -7.36936   3.13375 -14.40973
  -5.07990   2.68483 -14.52944
  -2.38643   1.96657 -14.46958
   0.42676   1.26328 -14.18527
   3.28484   0.63480 -14.02067
