********************************************************************************
              CENTRO DE INSTRUMENTACION Y REGISTRO SISMICO  A.C.

    Anaxagoras 814, Col. Narvarte, Benito Juarez, C.P. 03020 Mexico, D.F.
           Tels. 5687 45 42/ 5687 45  82             Fax. 5669 25 12
********************************************************************************
ARCHIVO ESTANDAR DE ACELERACION:
VERSION DEL FORMATO                    : 2.0
NOMBRE DEL ARCHIVO                     : AL0120151123204120
FECHA Y HORA DE CREACION               : 17/DIC/15, 11:55
REF. CATALOGO ACELEROGRAMAS, SMIS 1996 : REGISTRO No.     /PAG.


================================================================================
DATOS DE LA ESTACION:
NOMBRE DE LA ESTACION                  : ALAMEDA
CLAVE DE LA ESTACION                   : AL01
LOCALIZACION DE LA ESTACION            : Del. Cuauhtémoc, Col. Centro,          
                                       : Dr. Mora entre Av. Hidalgo             
                                       : y Av. Juárez.                          
                                       :                                        
                                       : 
COORDENADAS DE LA ESTACION             : 19.4356 LAT. N
                                       : 99.1453 LONG. W
ALTITUD (msnm)                         : 2232
TIPO DE SUELO                          : Terreno blando, material compresible
                                       : (arcillas)                
                                       : 
INSTITUCION RESPONSABLE                : CIRES
                                       : 

================================================================================
DATOS DEL ACELEROGRAFO:
MODELO DEL ACELEROGRAFO                : RADESD
NUMERO DE SERIE DEL ACELEROGRAFO       : 152
NUMERO DE CANALES                      : 3
ORIENTACION C1-C6 (rumbo;orientacion)  : /S00E/+V/N90W
ORIENTACION C7-C12 (rumbo;orientacion) : 
VEL. DE MUESTREO, C1-C6 (muestras/s)   : /100/100/100
VEL. DE MUESTREO, C7-C12 (muestras/s)  : 
ESC. COMPLETA DE SENSORES, C1-C6, (g)  : /0.5/0.5/0.5
ESC. COMPLETA DE SENSORES, C7-C12, (g) : 
FREC. NAT. DE SENSORES, C1-C6, (Hz)    : /51.29/51.09/53.75
FREC. NAT. DE SENSORES, C7-C12, (Hz)   : 
AMORTIGUAMIENTO DE SENSORES, C1-C6     : /0.5519/0.5670/0.5810
AMORTIGUAMIENTO DE SENSORES, C7-C12    : 
INTERVALO DE MUESTREO, C1-C6, (s)      : /0.01/0.01/0.01
INTERVALO DE MUESTREO, C7-C12, (s)     : 
UMBRAL DE DISPARO, C1-C6, (Gal)        : /0.9/1.8/0.9
UMBRAL DE DISPARO, C7-C12, (Gal)       : 
MEMORIA DE PREEVENTO (s)               : 44.0
TIEMPO DE POSEVENTO (s)                : 41.0


================================================================================
DATOS DEL SISMO:
FECHA DEL SISMO (GMT)                  : 23/NOV/15
HORA EPICENTRO (GMT)                   : 20:41:20.0
MAGNITUD(ES)                           : /Mc=5.6
COORDENADAS DEL EPICENTRO              : 16.86 LAT. N
                                       : 98.94 LONG. W
PROFUNDIDAD FOCAL (km)                 : 10
FUENTE DE LOS DATOS EPICENTRALES       : SSN
                                       : INSTITUTO DE GEOFISICA, UNAM

================================================================================
DATOS DE ESTE REGISTRO:
HORA DE LA PRIMERA MUESTRA (GMT)       : 20:42:31.00
EXACTITUD DEL TIEMPO (s)               : 0.01
DURACION DEL REGISTRO (s), C1-C6       : /195.2/195.2/195.2
DURACION DEL REGISTRO (s), C7-C12      : 
NUM. TOTAL DE MUESTRAS, C1-C6          : /19520/19520/19520
NUM. TOTAL DE MUESTRAS, C7-C12         : 
ACEL. MAX. (Gal), C1-C6                : /5.13259/2.53163/4.05982
ACEL. MAX., C1-C6, EN LA MUESTRA       : /6421/6145/5848
ACEL. MAX. (Gal), C7-C12               : 
ACEL. MAX., C7-C12, EN LA MUESTRA      : 
UNIDADES DE LOS DATOS                  : Gal (cm/s/s)
FACTOR DE DECIMACION                   : 1
FORMATO DATOS (FORTRAN,10 campos/dato) : 3F10.5


================================================================================
CALIDAD DEL ACELEROGRAMA:
REGISTRO DIGITAL COMPLETO CON TIEMPO ABSOLUTO CORRECTO.


================================================================================
COMENTARIOS:














================================================================================
DATOS DE ACELERACION:
---------+---------+---------+---------+---------+---------+---------+---------+
   CANAL-1   CANAL-2   CANAL-3   CANAL-4   CANAL-5   CANAL-6   CANAL-7   CANAL-8
      S00E        +V      N90W
---------+---------+---------+---------+---------+---------+---------+---------+
[...]
  -0.38908   0.64069  -0.90247
  -0.02995   0.43120  -0.78276
   0.17954   0.07207  -0.75283
   0.46385  -0.00275  -0.61816
   0.62845  -0.19728  -0.46852
   0.74816  -0.27210  -0.33384
   0.82298  -0.40677  -0.15428
   0.71824  -0.76590  -0.03457
   0.62845  -0.84072   0.05521
   0.62845  -0.73597   0.14500
   0.43392  -0.81079   0.11507
   0.31421  -0.96043   0.02529
   0.25436  -0.91554  -0.01960
   0.17954  -0.84072  -0.07946
   0.04487  -0.90058  -0.01960
   0.05983  -0.90058  -0.04953
   0.01494  -0.88561   0.07018
  -0.04492  -0.85568   0.04025
  -0.16463  -0.94547   0.14500
  -0.20952  -0.93050   0.30960
  -0.23944  -0.69108   0.29463
  -0.07484  -0.37684   0.36945
   0.04487  -0.22721   0.39938
   0.23940   0.01221   0.44427
   0.46385   0.17681   0.44427
   0.55363   0.17681   0.36945
   0.74816   0.25163   0.36945
   0.91276   0.19178   0.26471
   0.91276   0.22171   0.21982
   1.07737   0.20674   0.15996
   1.10729   0.16185   0.10011
   1.01751   0.10200   0.01032
   0.92773   0.04214   0.01032
   0.71824  -0.04764  -0.01960
   0.56860  -0.03268   0.02529
   0.43392   0.13192  -0.09442
  -0.05988   0.02718   0.10011
  -0.31426   0.22171  -0.01960
  -0.61354   0.53594   0.07018
  -1.04749   0.58084   0.11507
  -1.24202   0.98486   0.13003
  -1.49640   0.99982   0.20485
  -1.63107   1.28413   0.29463
  -1.76575   1.56844   0.36945
  -1.85553   1.68815   0.44427
  -1.90042   1.85276   0.63880
  -1.90042   1.83779   0.75851
  -1.84057   1.89765   0.72858
  -1.88546   1.85276   0.92311
  -1.91539   1.74801   0.99793
  -1.82560   1.68815   1.04282
  -1.70589   1.65823   0.99793
  -1.60115   1.49363   1.10268
  -1.37669   1.49363   1.07275
  -1.18216   1.32902   1.20742
  -1.01756   1.01479   1.19246
  -0.61354   0.95493   1.10268
  -0.38908   0.65565   1.14757
  -0.04492   0.37134   1.07275
   0.26932   0.16185   1.16253
   0.47882  -0.15239   1.13260
   0.85291  -0.46663   1.14757
   1.09233  -0.76590   1.16253
   1.40657  -1.06518   1.19246
   1.67592  -1.31956   1.05779
   1.96023  -1.60387   1.01289
   2.25950  -1.93308   0.92311
   2.43907  -2.12760   0.78844
   2.55878  -2.39695   0.65376
   2.61863  -2.48673   0.59391
   2.73834  -2.53163   0.50413
   2.78323  -2.44184   0.57895
   2.75331  -2.33710   0.51909
   2.75331  -2.14257   0.50413
   2.64856  -2.03782   0.53405
   2.67849  -1.78344   0.60887
   2.55878  -1.69366   0.75851
   2.49892  -1.48416   0.84829
   2.43907  -1.31956   0.89318
   2.25950  -1.22978   1.08771
   1.99016  -1.18489   1.28224
   1.90037  -0.93050   1.28224
   1.66095  -0.82576   1.61145
   1.48139  -0.61626   1.71619
   1.33175  -0.36188   1.91072
   1.13722  -0.09253   2.01547
   1.00255   0.10200   2.09029
   0.85291   0.34142   2.00050
   0.77809   0.49105   1.91072
   0.70327   0.71551   1.73116
   0.55363   0.79033   1.55159
   0.34414   0.89508   1.35706
   0.10472   1.01479   1.04282
  -0.23944   1.02975   0.77347
  -0.35915   1.16442   0.41434
  -0.71829   1.05968   0.17492
  -0.88289   0.99982  -0.16924
  -1.18216   0.85018  -0.42363
  -1.42158   0.79033  -0.60319
  -1.69093   0.73047  -0.75283
  -1.85553   0.68558  -0.91743
  -2.07999   0.61076  -0.90247
  -2.22962   0.64069  -0.82765
  -2.36430   0.65565  -0.84261
  -2.45408   0.65565  -0.70794
  -2.54386   0.64069  -0.67801
  -2.55883   0.68558  -0.72290
  -2.63365   0.65565  -0.55830
  -2.64861   0.58084  -0.34881
  -2.61868   0.49105  -0.34881
  -2.55883   0.32645  -0.22910
  -2.43912   0.26660  -0.12435
  -2.49897   0.02718   0.01032
  -2.31941  -0.01771   0.17492
  -2.25955   0.01221   0.17492
  -2.28948  -0.07757   0.26471
  -2.21466  -0.01771   0.29463
  -2.16977   0.02718   0.33953
  -2.15481  -0.00275   0.29463
  -2.06502   0.04214   0.08514
  -1.97524   0.10200  -0.06450
  -1.90042   0.08703  -0.18421
  -1.81064   0.10200  -0.39370
  -1.69093   0.10200  -0.48348
  -1.36173   0.11696  -0.63312
  -1.19713   0.10200  -0.73787
  -1.04749   0.07207  -0.79772
  -0.80807   0.05710  -0.82765
  -0.65843   0.04214  -0.82765
  -0.47886   0.16185  -0.81268
  -0.26937   0.22171  -0.73787
  -0.05988   0.31149  -0.72290
   0.13465   0.37134  -0.66305
   0.41896   0.40127  -0.57326
   0.55363   0.52098  -0.46852
   0.77809   0.43120  -0.39370
   0.95766   0.43120  -0.24406
   1.10729   0.32645  -0.16924
   1.30182   0.20674  -0.01960
   1.40657   0.10200  -0.00464
   1.52628  -0.07757   0.20485
   1.51132  -0.30203   0.32456
   1.57117  -0.46663   0.39938
   1.58613  -0.63123   0.57895
   1.58613  -0.82576   0.57895
   1.51132  -1.03525   0.65376
   1.45146  -1.12503   0.66873
   1.52628  -1.09511   0.69866
   1.40657  -1.16992   0.80340
   1.27190  -1.21482   0.87822
   1.16715  -1.06518   0.66873
   1.10729  -1.00532   0.62384
   1.09233  -0.90058   0.65376
   0.92773  -0.97539   0.57895
   0.94269  -0.88561   0.53405
   0.71824  -0.81079   0.36945
   0.53867  -0.79583   0.27967
   0.47882  -0.75094   0.20485
   0.38903  -0.67612   0.05521
   0.35911  -0.66116  -0.09442
   0.32918  -0.60130  -0.21413
   0.35911  -0.46663  -0.28895
   0.37407  -0.36188  -0.34881
   0.43392  -0.18232  -0.48348
   0.52371  -0.01771  -0.42363
   0.53867   0.19178  -0.57326
   0.74816   0.40127  -0.66305
   0.82298   0.50602  -0.93239
   0.88284   0.52098  -1.06707
   0.95766   0.59580  -1.24663
   0.91276   0.49105  -1.54591
   0.85291   0.52098  -1.84518
   0.67334   0.49105  -1.99482
   0.47882   0.44616  -2.26417
   0.14961   0.46113  -2.59337
  -0.10477   0.56587  -2.72805
  -0.49383   0.56587  -2.98243
  -0.77814   0.70055  -3.04228
  -1.10734   0.73047  -3.16199
  -1.40662   0.82026  -3.19192
  -1.58618   0.99982  -3.22185
  -1.87049   0.86515  -3.25178
  -2.03510   0.93997  -3.25178
  -2.19970   0.92500  -3.07221
  -2.30444   0.99982  -2.96747
  -2.48401   0.91004  -2.75797
  -2.58876   0.86515  -2.53352
  -2.64861   0.77537  -2.35395
  -2.54386   0.86515  -2.12949
  -2.49897   0.80529  -1.92000
  -2.27452   0.80529  -1.74044
  -1.99020   0.74544  -1.54591
  -1.66100   0.70055  -1.50102
  -1.25698   0.82026  -1.36634
  -0.92778   0.73047  -1.21671
  -0.56865   0.67062  -0.99225
  -0.19455   0.58084  -0.90247
   0.20947   0.64069  -0.67801
   0.46385   0.49105  -0.46852
   0.82298   0.49105  -0.30392
   1.07737   0.35638  -0.21413
   1.30182   0.26660  -0.15428
   1.49635   0.19178  -0.04953
   1.72081   0.13192  -0.01960
   1.73577  -0.18232  -0.00464
   1.91534  -0.13742   0.01032
   2.05001  -0.40677  -0.00464
   2.18468  -0.42174   0.05521
   2.34929  -0.67612   0.10011
   2.39418  -0.81079   0.15996
   2.43907  -1.08014   0.29463
   2.43907  -1.22978   0.29463
   2.51389  -1.27467   0.44427
   2.42410  -1.37942   0.53405
   2.40914  -1.43927   0.62384
   2.15476  -1.52905   0.72858
   2.03505  -1.48416   0.75851
   1.79563  -1.49913   0.78844
   1.58613  -1.42431   0.93808
   1.39161  -1.33453   0.98297
   1.25693  -1.27467   1.02786
   1.10729  -1.21482   1.07275
   0.92773  -1.06518   1.14757
   0.74816  -0.87065   1.19246
   0.73320  -0.64619   1.11764
   0.59853  -0.57137   1.16253
   0.59853  -0.37684   1.17750
   0.61349  -0.22721   1.20742
   0.55363  -0.24217   1.19246
   0.41896  -0.27210   1.25231
   0.52371  -0.16735   1.43188
   0.52371  -0.07757   1.50670
   0.58356   0.14689   1.59648
   0.62845   0.19178   1.70123
   0.70327   0.19178   1.68626
   0.74816   0.23667   1.62641
   0.77809   0.16185   1.70123
   0.83795   0.17681   1.65634
   0.80802   0.04214   1.59648
   0.77809  -0.03268   1.53663
   0.67334  -0.03268   1.47677
   0.61349  -0.01771   1.46181
   0.59853  -0.09253   1.23735
   0.68831   0.05710   0.98297
   0.68831  -0.10750   0.71362
   0.58356  -0.22721   0.66873
   0.55363  -0.21224   0.42931
   0.53867  -0.15239   0.36945
   0.38903   0.01221   0.20485
   0.23940   0.14689   0.18989
   0.04487   0.37134   0.14500
  -0.13470   0.50602   0.27967
  -0.34419   0.82026   0.38442
  -0.56865   1.04471   0.50413
  -0.82303   1.14946   0.69866
  -1.06245   1.35895   0.90815
  -1.28691   1.61334   1.01289
  -1.37669   1.67319   1.25231
  -1.48144   1.86772   1.22239
  -1.61611   1.88268   1.41692
  -1.78071   1.95750   1.56655
  -1.78071   1.95750   1.62641
  -1.75078   1.89765   1.83590
  -1.84057   1.77794   2.01547
  -1.76575   1.62830   2.15014
  -1.70589   1.32902   2.32971
  -1.49640   1.11953   2.44942
  -1.43655   0.79033   2.50927
  -1.28691   0.47609   2.44942
  -1.15223   0.13192   2.40452
  -0.89785  -0.06261   2.37460
  -0.65843  -0.24217   2.28481
  -0.44894  -0.33195   2.10525
  -0.25441  -0.46663   1.91072
  -0.08981  -0.69108   1.76108
   0.07479  -0.75094   1.64137
   0.22443  -0.93050   1.53663
   0.26932  -1.15496   1.47677
   0.35911  -1.19985   1.49174
   0.40400  -1.34949   1.41692
   0.40400  -1.45424   1.44684
   0.46385  -1.49913   1.47677
   0.56860  -1.60387   1.64137
   0.61349  -1.63380   1.71619
   0.65838  -1.75351   1.80597
   0.65838  -1.81337   1.91072
   0.68831  -1.90315   2.03043
   0.64342  -1.90315   2.06036
   0.59853  -1.88818   2.10525
   0.49378  -1.82833   2.21000
   0.40400  -1.67869   2.18007
   0.35911  -1.46920   2.09029
   0.17954  -1.34949   2.03043
   0.05983  -1.16992   1.88079
  -2.0E-50  -0.91554   1.67130
  -0.22448  -0.84072   1.49174
  -0.23944  -0.67612   1.14757
  -0.26937  -0.63123   0.77347
  -0.19455  -0.51152   0.38442
  -0.19455  -0.43670   0.02529
  -0.20952  -0.31699  -0.31888
  -0.17959  -0.24217  -0.75283
  -0.17959  -0.24217  -0.94736
  -0.16463  -0.21224  -1.15685
  -0.22448  -0.12246  -1.42620
  -0.10477  -0.03268  -1.69555
   0.04487   0.10200  -1.92000
   0.20947   0.16185  -2.02475
   0.44889   0.29652  -2.05468
   0.71824   0.40127  -2.11453
   1.07737   0.47609  -2.24920
   1.42153   0.47609  -2.27913
   1.85548   0.53594  -2.21928
   2.19965   0.52098  -1.99482
   2.43907   0.58084  -1.92000
   2.64856   0.65565  -1.92000
   2.90294   0.80529  -1.77036
   3.08251   0.99982  -1.53094
   3.06755   1.16442  -1.33642
   2.85805   1.28413  -1.12692
   2.79820   1.43377  -0.94736
   2.61863   1.41881  -0.79772
   2.46900   1.38888  -0.75283
   2.22958   1.34399  -0.82765
   1.97519   1.37392  -0.85758
   1.72081   1.32902  -0.85758
   1.40657   1.29910  -1.09700
   0.86787   1.26917  -1.33642
   0.40400   1.19435  -1.57584
  -0.08981   1.08960  -1.78533
  -0.53872   0.89508  -1.93497
  -1.03252   0.86515  -2.14446
  -1.61611   0.74544  -2.36892
  -2.05006   0.67062  -2.59337
  -2.45408   0.76040  -2.77294
  -2.75336   0.79033  -2.98243
  -3.09752   0.89508  -3.17696
  -3.47162   0.86515  -3.32660
  -3.65118   0.92500  -3.49120
  -4.05520   0.85018  -3.59594
  -4.29462   0.82026  -3.76054
  -4.63879   0.80529  -3.82040
  -4.83332   0.71551  -3.89522
  -4.92310   0.65565  -3.94011
  -5.04281   0.61076  -3.99996
  -5.07274   0.47609  -3.89522
  -5.13259   0.37134  -3.85033
  -5.07274   0.17681  -3.74558
  -4.98296   0.17681  -3.59594
  -4.87821   0.02718  -3.65580
  -4.68368  -0.04764  -3.41638
  -4.54901  -0.40677  -2.92257
  -4.32455  -0.60130  -2.78790
  -4.05520  -0.45166  -2.65323
  -3.84571  -0.55641  -2.60834
  -3.60629  -0.70605  -2.05468
  -3.30702  -0.76590  -1.75540
  -3.12745  -0.78087  -1.39627
  -2.82818  -0.87065  -1.08203
  -2.58876  -1.03525  -0.64808
  -2.22962  -1.09511  -0.27399
  -1.93035  -1.22978   0.01032
  -1.57122  -1.22978   0.33953
  -1.15223  -1.18489   0.60887
  -0.79310  -1.22978   0.78844
  -0.52376  -1.30460   0.87822
  -0.16463  -1.31956   0.98297
   0.11969  -1.25971   1.04282
   0.37407  -1.36445   1.02786
   0.62845  -1.46920   0.90815
   1.01751  -1.40934   0.69866
   1.25693  -1.46920   0.62384
   1.34671  -1.64876   0.47420
   1.58613  -1.60387   0.23478
   1.64599  -1.61884   0.08514
   1.76570  -1.57395  -0.15428
   2.05001  -1.37942  -0.21413
   2.21461  -1.28963  -0.36377
   2.28943  -1.25971  -0.42363
   2.43907  -1.11007  -0.52837
   2.49892  -1.00532  -0.58823
   2.42410  -0.90058  -0.52837
   2.27447  -0.72101  -0.46852
   2.16972  -0.55641  -0.45355
   2.02008  -0.43670  -0.36377
   1.82555  -0.21224  -0.33384
   1.63103  -0.24217  -0.33384
   1.42153  -0.10750  -0.22910
   1.09233  -0.25713  -0.18421
   1.01751   0.01221  -0.19917
   0.80802   0.14689  -0.13931
   0.65838   0.43120  -0.25902
   0.43392   0.52098  -0.28895
   0.34414   0.70055  -0.34881
   0.31421   0.86515  -0.33384
   0.26932   1.07464  -0.34881
   0.28429   1.19435  -0.34881
   0.35911   1.37392  -0.37873
   0.41896   1.56844  -0.28895
   0.53867   1.73305  -0.28895
   0.67334   2.01736  -0.27399
   0.80802   2.24181  -0.22910
   0.95766   2.34656  -0.21413
   1.12226   2.43634  -0.10939
   1.33175   2.52612  -0.01960
   1.43650   2.42138  -0.09442
   1.64599   2.37649  -0.06450
   1.81059   2.30167  -0.07946
   1.79563   2.03232   0.10011
   2.03505   1.98743   0.14500
   2.10987   1.76297   0.36945
   2.24454   1.65823   0.48916
   2.39418   1.52355   0.77347
   2.45403   1.34399   0.98297
   2.39418   1.05968   1.19246
   2.40914   0.80529   1.40195
   2.31936   0.56587   1.68626
   2.30439   0.46113   1.92568
   2.10987   0.35638   2.10525
   1.90037   0.08703   2.28481
   1.70584  -0.12246   2.38956
   1.64599  -0.18232   2.46438
   1.64599  -0.30203   2.58409
   1.49635  -0.48159   2.67387
   1.33175  -0.70605   2.73373
   1.36168  -0.72101   2.79358
   1.27190  -0.84072   2.83847
   1.19708  -0.91554   2.82351
   1.10729  -1.05021   2.91329
   1.01751  -1.06518   2.85344
   0.97262  -1.08014   2.97315
   0.88284  -1.16992   2.97315
   0.73320  -1.42431   3.06293
   0.68831  -1.43927   3.16768
   0.58356  -1.45424   3.24250
   0.50874  -1.57395   3.27242
   0.32918  -1.63380   3.42206
   0.16458  -1.61884   3.48192
   0.13465  -1.46920   3.55673
  -2.0E-50  -1.52905   3.69141
  -0.08981  -1.49913   3.73630
  -0.14966  -1.63380   3.78119
  -0.32923  -1.61884   3.79615
  -0.34419  -1.55898   3.76623
  -0.52376  -1.57395   3.63155
  -0.53872  -1.45424   3.46695
  -0.71829  -1.33453   3.25746
  -0.77814  -1.28963   3.10782
  -0.76318  -1.11007   2.77862
  -0.62850  -0.88561   2.58409
  -0.52376  -0.67612   2.32971
  -0.32923  -0.55641   2.12021
  -0.16463  -0.37684   2.00050
  -0.02995  -0.21224   1.59648
   0.08976  -0.04764   1.37203
   0.13465   0.16185   1.07275
   0.28429   0.38631   0.72858
   0.40400   0.64069   0.41434
   0.47882   0.80529   0.18989
   0.53867   1.08960  -0.01960
   0.58356   1.44873  -0.28895
   0.53867   1.56844  -0.42363
   0.53867   1.70312  -0.54334
   0.56860   1.88268  -0.55830
   0.61349   1.97247  -0.63312
   0.49378   1.92757  -0.54334
   0.44889   1.95750  -0.49845
   0.41896   1.88268  -0.37873
   0.41896   1.83779  -0.36377
   0.46385   1.71808  -0.31888
   0.37407   1.44873  -0.22910
   0.28429   1.31406  -0.10939
   0.16458   1.11953  -0.03457
  -0.02995   0.88011   0.05521
  -0.11973   0.64069   0.15996
  -0.11973   0.55091   0.27967
  -0.22448   0.25163   0.39938
  -0.16463   0.22171   0.54902
  -0.19455  -0.07757   0.59391
  -0.29930  -0.16735   0.69866
  -0.35915  -0.19728   0.78844
  -0.40405  -0.24217   0.75851
  -0.59857  -0.34692   0.86326
  -0.64347  -0.42174   1.01289
  -0.65843  -0.28706   0.93808
  -0.73325  -0.36188   0.98297
  -0.68836  -0.22721   0.90815
  -0.76318  -0.15239   0.78844
  -0.76318   0.01221   0.66873
  -0.80807   0.08703   0.56398
  -0.89785   0.05710   0.36945
  -0.89785   0.17681   0.15996
  -0.88289   0.20674  -0.15428
  -0.85296   0.34142  -0.60319
  -0.70332   0.34142  -1.00721
  -0.70332   0.17681  -1.24663
