********************************************************************************
              CENTRO DE INSTRUMENTACION Y REGISTRO SISMICO  A.C.

    Anaxagoras 814, Col. Narvarte, Benito Juarez, C.P. 03020 Mexico, D.F.
           Tels. 5687 45 42/ 5687 45  82             Fax. 5669 25 12
********************************************************************************
ARCHIVO ESTANDAR DE ACELERACION:
VERSION DEL FORMATO                    : 2.0
NOMBRE DEL ARCHIVO                     : AL0120080923224615
FECHA Y HORA DE CREACION               : 24/SEP/08, 00:58
REF. CATALOGO ACELEROGRAMAS, SMIS 1996 : REGISTRO No.     /PAG.


================================================================================
DATOS DE LA ESTACION:
NOMBRE DE LA ESTACION                  : ALAMEDA
CLAVE DE LA ESTACION                   : AL01
LOCALIZACION DE LA ESTACION            : Del. Cuauhtémoc, Col. Centro,          
                                       : Dr. Mora entre Av. Hidalgo             
                                       : y Av. Juárez.                          
                                       :                                        
                                       : 
COORDENADAS DE LA ESTACION             : 19.4356 LAT. N
                                       : 99.1453 LONG. W
ALTITUD (msnm)                         : 2232
TIPO DE SUELO                          : Terreno blando, material compresible
                                       : (arcillas)                
                                       : 
INSTITUCION RESPONSABLE                : CIRES
                                       : 

================================================================================
DATOS DEL ACELEROGRAFO:
MODELO DEL ACELEROGRAFO                : RADESD
NUMERO DE SERIE DEL ACELEROGRAFO       : 152
NUMERO DE CANALES                      : 3
ORIENTACION C1-C6 (rumbo;orientacion)  : /N00E/+V/N90W
ORIENTACION C7-C12 (rumbo;orientacion) : 
VEL. DE MUESTREO, C1-C6 (muestras/s)   : /100/100/100
VEL. DE MUESTREO, C7-C12 (muestras/s)  : 
ESC. COMPLETA DE SENSORES, C1-C6, (g)  : /0.5/0.5/0.5
ESC. COMPLETA DE SENSORES, C7-C12, (g) : 
FREC. NAT. DE SENSORES, C1-C6, (Hz)    : /51.29/51.09/53.75
FREC. NAT. DE SENSORES, C7-C12, (Hz)   : 
AMORTIGUAMIENTO DE SENSORES, C1-C6     : /0.5519/0.5670/0.5810
AMORTIGUAMIENTO DE SENSORES, C7-C12    : 
INTERVALO DE MUESTREO, C1-C6, (s)      : /0.01/0.01/0.01
INTERVALO DE MUESTREO, C7-C12, (s)     : 
UMBRAL DE DISPARO, C1-C6, (Gal)        : /0.72/1.44/0.72
UMBRAL DE DISPARO, C7-C12, (Gal)       : 
MEMORIA DE PREEVENTO (s)               : 56.0
TIEMPO DE POSEVENTO (s)                : 64.0


================================================================================
DATOS DEL SISMO:
FECHA DEL SISMO (GMT)                  : 23/SEP/08
HORA EPICENTRO (GMT)                   : 22:46:15.0
MAGNITUD(ES)                           : /Mc=5.2
COORDENADAS DEL EPICENTRO              : 16.42 LAT. N
                                       : 100.14 LONG. W
PROFUNDIDAD FOCAL (km)                 : 12
FUENTE DE LOS DATOS EPICENTRALES       : SSN
                                       : INSTITUTO DE GEOFISICA, UNAM

================================================================================
DATOS DE ESTE REGISTRO:
HORA DE LA PRIMERA MUESTRA (GMT)       : 22:48:03.00
EXACTITUD DEL TIEMPO (s)               : 0.01
DURACION DEL REGISTRO (s), C1-C6       : /120.0/120.0/120.0
DURACION DEL REGISTRO (s), C7-C12      : 
NUM. TOTAL DE MUESTRAS, C1-C6          : /12000/12000/12000
NUM. TOTAL DE MUESTRAS, C7-C12         : 
ACEL. MAX. (Gal), C1-C6                : /2.1063/0.88057/1.58879
ACEL. MAX., C1-C6, EN LA MUESTRA       : /5596/5394/7275
ACEL. MAX. (Gal), C7-C12               : 
ACEL. MAX., C7-C12, EN LA MUESTRA      : 
UNIDADES DE LOS DATOS                  : Gal (cm/s/s)
FACTOR DE DECIMACION                   : 1
FORMATO DATOS (FORTRAN,10 campos/dato) : 3F10.5


================================================================================
CALIDAD DEL ACELEROGRAMA:
REGISTRO DIGITAL COMPLETO CON TIEMPO ABSOLUTO CORRECTO.


================================================================================
COMENTARIOS:














================================================================================
DATOS DE ACELERACION:
---------+---------+---------+---------+---------+---------+---------+---------+
   CANAL-1   CANAL-2   CANAL-3   CANAL-4   CANAL-5   CANAL-6   CANAL-7   CANAL-8
      N00E        +V      N90W
---------+---------+---------+---------+---------+---------+---------+---------+
[...]
   0.43036  -0.79537   0.08715
   0.66978  -0.07711   0.32657
   0.43036   0.40173   0.08715
   0.19094   0.64115  -0.39169
  -0.52732   0.40173  -0.87053
  -0.28790  -0.31653  -0.87053
  -0.04848  -0.79537  -0.63111
   0.43036  -0.55595  -0.15227
   0.43036  -0.55595   0.08715
   0.66978  -0.79537   0.32657
   0.19094  -0.31653   0.32657
   0.19094   0.16231   0.32657
  -0.28790   0.64115   0.08715
  -0.52732   0.64115  -0.15227
  -0.52732   0.40173  -0.39169
  -0.04848  -0.31653  -0.63111
  -0.04848  -0.79537  -0.39169
   0.43036  -0.79537   0.08715
   0.43036  -0.55595   0.56599
  -0.04848   0.40173   1.04483
  -0.28790   0.64115   0.56599
  -0.04848   0.16231   0.08715
  -0.28790   0.16231  -0.15227
  -0.04848  -0.31653  -0.15227
   0.19094  -0.07711   0.08715
   0.19094  -0.31653   0.08715
   0.19094  -0.07711   0.08715
   0.19094  -0.07711   0.32657
   0.19094   0.16231   0.08715
  -0.04848   0.16231  -0.15227
  -0.04848   0.16231   0.08715
  -0.04848   0.40173   0.08715
  -0.28790   0.16231   0.08715
  -0.04848   0.40173  -0.15227
   0.19094   0.40173  -0.15227
  -0.04848   0.40173  -0.39169
  -0.04848   0.16231   0.08715
  -0.04848   0.40173   0.08715
  -0.28790   0.16231   0.08715
  -0.52732   0.64115  -0.15227
  -0.28790   0.40173   0.08715
  -0.04848   0.64115   0.08715
   0.19094   0.40173   0.08715
  -0.04848   0.64115   0.08715
  -0.04848   0.16231  -0.15227
  -0.28790   0.40173  -0.15227
  -0.28790   0.64115  -0.15227
  -0.28790   0.64115   0.08715
  -0.28790   0.64115  -0.15227
   0.19094   0.16231  -0.15227
   0.19094   0.16231  -0.39169
  -0.04848  -0.31653  -0.15227
  -0.04848  -0.07711  -0.39169
  -0.04848   0.16231  -0.15227
  -0.52732   0.64115   0.08715
  -0.28790   0.64115  -0.39169
  -0.28790   0.40173  -0.39169
  -0.28790  -0.31653  -0.15227
  -0.04848  -0.31653  -0.15227
   0.19094  -0.55595   0.08715
  -0.04848  -0.31653  -0.15227
  -0.28790  -0.07711  -0.15227
  -0.28790  -0.07711  -0.63111
  -0.28790  -0.07711  -0.63111
  -0.52732  -0.07711  -0.63111
  -0.28790  -0.31653  -0.15227
  -0.28790  -0.31653  -0.15227
  -0.04848  -0.31653  -0.15227
  -0.28790  -0.31653  -0.15227
  -0.52732  -0.31653  -0.39169
  -0.76674  -0.31653  -0.63111
  -0.76674  -0.31653  -0.63111
  -0.76674  -0.55595  -0.63111
  -0.76674  -0.31653   0.08715
  -0.76674  -0.07711   0.32657
  -0.52732   0.16231   0.08715
  -0.52732  -0.07711  -0.63111
  -0.52732  -0.55595  -0.63111
  -0.76674  -0.79537  -0.63111
  -1.00616  -0.55595  -0.15227
  -1.00616  -0.31653   0.32657
  -1.00616  -0.07711   0.32657
  -0.76674  -0.07711   0.08715
  -0.76674  -0.07711  -0.15227
  -0.52732  -0.07711  -0.15227
  -1.00616   0.16231  -0.39169
  -0.76674  -0.07711   0.08715
  -1.00616  -0.07711  -0.15227
  -0.52732  -0.07711   0.08715
  -0.76674  -0.07711  -0.39169
  -0.76674   0.40173  -0.15227
  -0.76674   0.40173  -0.15227
  -0.76674   0.40173  -0.15227
  -0.76674   0.16231   0.08715
  -0.52732   0.16231   0.08715
  -0.04848   0.16231   0.32657
  -0.04848   0.16231  -0.63111
  -0.04848   0.16231  -0.63111
  -0.04848  -0.07711  -0.39169
  -0.04848  -0.07711  -0.15227
   0.19094   0.16231   0.32657
   0.19094   0.40173   0.56599
   0.19094   0.40173   0.56599
   0.19094   0.40173   0.08715
   0.19094   0.16231  -0.39169
   0.43036  -0.07711  -0.63111
   0.43036  -0.31653  -0.15227
   0.66978  -0.07711   0.56599
   0.66978   0.16231   0.80541
   0.66978   0.40173   0.80541
   0.66978   0.16231   0.32657
   0.66978   0.40173   0.32657
   0.66978   0.16231   0.08715
   0.90920   0.16231   0.08715
   0.90920  -0.31653   0.08715
   0.90920  -0.07711   0.56599
   0.90920  -0.31653   0.80541
   0.66978  -0.31653   1.04483
   0.66978  -0.07711   1.04483
   0.66978   0.16231   0.56599
   0.90920  -0.07711   0.32657
   0.66978  -0.07711   0.32657
   0.90920  -0.07711   0.08715
   0.66978  -0.31653   0.08715
   0.66978  -0.31653   0.32657
   0.66978  -0.55595   0.56599
   0.66978  -0.31653   0.80541
   0.19094   0.16231   1.04483
   0.43036   0.40173   0.80541
   0.66978   0.40173   0.32657
   0.43036   0.16231  -0.39169
   0.66978  -0.07711  -0.87053
   0.66978  -0.07711  -0.39169
   0.43036  -0.31653   0.08715
   0.43036   0.16231   0.56599
   0.43036   0.16231   0.56599
   0.43036   0.64115   0.08715
   0.43036   0.40173  -0.39169
   0.43036   0.64115  -0.39169
   0.19094   0.16231  -0.63111
   0.43036   0.16231  -0.63111
   0.19094   0.16231   0.08715
   0.66978   0.64115   0.08715
   0.43036   0.64115  -0.15227
   0.43036   0.88057  -0.15227
   0.19094   0.16231  -0.63111
   0.43036   0.16231  -0.63111
   0.43036  -0.31653  -0.39169
   0.43036   0.16231  -0.15227
   0.43036   0.40173  -0.15227
   0.19094   0.40173  -0.15227
   0.19094   0.16231  -0.15227
   0.43036   0.16231  -0.15227
   0.19094   0.16231   0.08715
   0.43036   0.16231   0.08715
   0.19094  -0.07711   0.08715
  -0.04848  -0.07711   0.08715
   0.19094   0.16231   0.08715
  -0.04848   0.16231  -0.15227
  -0.04848  -0.07711  -0.15227
  -0.04848  -0.55595   0.08715
   0.19094  -0.79537   0.08715
  -0.04848  -0.55595   0.56599
  -0.28790  -0.31653   0.32657
  -0.04848  -0.31653   0.80541
  -0.04848  -0.31653   0.32657
  -0.04848  -0.55595   0.56599
  -0.28790  -0.07711   0.56599
  -0.28790  -0.31653   0.80541
  -0.28790  -0.07711   0.80541
  -0.04848  -0.55595   0.80541
  -0.28790  -0.31653   0.56599
  -0.28790  -0.55595   0.80541
  -0.04848  -0.55595   1.04483
  -0.28790  -0.07711   1.04483
  -0.04848  -0.31653   1.04483
  -0.28790  -0.07711   0.80541
  -0.28790  -0.31653   0.80541
  -0.28790  -0.07711   0.56599
   0.19094  -0.31653   0.80541
  -0.04848  -0.31653   0.56599
  -0.04848  -0.55595   0.80541
  -0.28790  -0.07711   0.32657
  -0.52732  -0.07711   0.56599
  -0.52732   0.16231   0.32657
  -0.28790   0.16231   0.32657
  -0.04848   0.16231   0.32657
  -0.04848  -0.07711   0.56599
  -0.28790   0.16231   0.08715
  -0.04848  -0.07711   0.32657
  -0.28790   0.16231   0.32657
   0.19094   0.16231   0.08715
  -0.04848   0.40173  -0.39169
  -0.04848   0.40173  -0.15227
  -0.04848   0.16231  -0.15227
  -0.04848  -0.07711  -0.15227
  -0.04848  -0.07711  -0.15227
  -0.28790   0.16231  -0.63111
  -0.04848   0.40173  -0.15227
  -0.04848   0.40173  -0.39169
  -0.04848   0.40173  -0.15227
  -0.04848   0.40173  -0.39169
  -0.28790   0.40173  -0.63111
  -0.04848   0.40173  -0.39169
  -0.04848   0.16231  -0.39169
  -0.04848   0.16231  -0.39169
  -0.04848  -0.07711  -0.39169
  -0.04848   0.16231  -0.15227
  -0.04848   0.16231  -0.63111
  -0.04848   0.16231  -0.39169
  -0.04848  -0.31653  -0.39169
  -0.04848  -0.07711  -0.39169
  -0.04848  -0.07711  -0.15227
   0.19094  -0.31653   0.08715
  -0.04848  -0.55595  -0.15227
   0.19094  -0.31653  -0.15227
   0.19094  -0.55595  -0.39169
   0.19094  -0.07711  -0.15227
   0.19094  -0.31653  -0.15227
   0.43036  -0.55595  -0.15227
   0.19094  -0.55595  -0.15227
   0.19094  -0.55595   0.32657
   0.19094  -0.31653   0.08715
   0.19094  -0.31653  -0.15227
  -0.04848  -0.07711  -0.15227
   0.43036  -0.31653   0.08715
   0.19094  -0.55595   0.08715
   0.43036  -0.55595   0.08715
   0.19094  -0.55595   0.08715
  -0.04848  -0.55595   0.08715
  -0.04848  -0.55595  -0.15227
  -0.04848  -0.31653   0.08715
  -0.04848  -0.31653   0.08715
   0.19094  -0.07711   0.08715
  -0.04848  -0.07711   0.08715
   0.19094  -0.31653   0.08715
  -0.28790  -0.07711  -0.39169
  -0.04848  -0.31653  -0.15227
  -0.28790  -0.31653  -0.15227
   0.19094  -0.07711  -0.15227
  -0.28790   0.16231   0.08715
  -0.28790   0.16231  -0.15227
  -0.28790   0.40173  -0.63111
  -0.28790   0.16231  -0.63111
  -0.28790   0.40173  -0.63111
  -0.52732   0.16231  -0.63111
  -0.28790   0.40173  -0.63111
  -0.52732   0.16231  -0.63111
  -0.52732   0.16231  -0.63111
  -0.52732   0.16231  -0.63111
  -0.52732   0.64115  -0.87053
  -0.76674   0.16231  -0.87053
  -0.52732   0.16231  -0.87053
  -0.28790   0.40173  -0.63111
  -0.52732   0.16231  -0.87053
  -0.52732   0.40173  -0.87053
  -0.28790   0.16231  -0.87053
  -0.28790   0.16231  -0.87053
  -0.76674   0.16231  -0.87053
  -0.52732   0.40173  -0.63111
  -0.52732   0.16231  -0.87053
  -0.52732   0.40173  -0.39169
  -0.28790   0.16231  -0.39169
  -0.52732   0.16231  -0.63111
  -0.52732   0.16231  -0.39169
  -0.28790   0.16231  -0.39169
  -0.04848   0.40173  -0.39169
  -0.52732   0.16231  -0.15227
  -0.28790   0.40173  -0.39169
  -0.04848   0.16231  -0.15227
  -0.04848  -0.07711  -0.39169
  -0.28790  -0.31653  -0.15227
  -0.28790   0.16231  -0.15227
  -0.28790  -0.07711  -0.15227
  -0.04848  -0.07711  -0.15227
  -0.04848  -0.07711  -0.15227
  -0.28790  -0.31653  -0.15227
  -0.04848  -0.07711  -0.15227
  -0.04848  -0.07711   0.08715
  -0.28790  -0.07711  -0.15227
  -0.04848  -0.07711  -0.15227
  -0.04848  -0.31653   0.08715
  -0.28790  -0.31653  -0.15227
  -0.52732  -0.55595  -0.15227
  -0.28790  -0.55595   0.32657
  -0.28790  -0.31653   0.32657
  -0.04848  -0.31653   0.08715
  -0.28790  -0.31653   0.08715
  -0.04848  -0.07711   0.32657
  -0.52732  -0.31653   0.08715
  -0.28790  -0.31653   0.32657
  -0.28790  -0.07711   0.32657
  -0.04848  -0.31653   0.56599
  -0.52732  -0.07711   0.32657
  -0.28790  -0.07711   0.56599
  -0.28790  -0.07711   0.32657
  -0.52732  -0.07711   0.32657
  -0.52732  -0.07711   0.32657
  -0.28790   0.16231   0.56599
  -0.28790  -0.07711   0.80541
  -0.52732   0.16231   0.56599
  -0.28790   0.40173   0.56599
  -0.52732   0.40173   0.56599
  -0.52732   0.16231   0.32657
  -0.76674   0.16231   0.32657
  -0.52732   0.16231   0.56599
  -0.28790   0.16231   0.56599
  -0.28790   0.16231   0.32657
  -0.28790   0.40173   0.80541
  -0.28790   0.40173   0.80541
  -0.04848   0.40173   0.56599
  -0.28790   0.40173   0.56599
  -0.04848   0.16231   0.32657
  -0.04848   0.16231   0.32657
  -0.28790   0.16231   0.56599
  -0.04848  -0.07711   0.32657
   0.19094  -0.07711   0.32657
  -0.04848  -0.07711   0.56599
  -0.04848   0.16231   0.56599
   0.19094   0.16231   0.56599
   0.19094  -0.07711   0.32657
   0.19094   0.16231   0.32657
   0.19094  -0.07711   0.56599
   0.43036  -0.07711   0.80541
   0.43036   0.16231   0.56599
   0.19094   0.40173   0.56599
   0.43036   0.16231   0.08715
   0.43036  -0.31653   0.08715
   0.43036  -0.31653   0.08715
   0.90920  -0.55595   0.32657
   1.14862  -0.31653   0.80541
   1.14862   0.16231   0.56599
   1.14862   0.40173   0.32657
   1.14862   0.16231   0.32657
   1.14862  -0.07711   0.08715
   0.90920  -0.07711  -0.15227
   1.38804  -0.31653   0.32657
   1.62746  -0.07711   0.56599
   1.62746  -0.07711   0.32657
   1.86688  -0.07711   0.08715
   1.62746   0.16231   0.32657
   1.86688   0.16231   0.08715
   1.62746  -0.07711   0.08715
   1.62746  -0.31653   0.08715
   1.62746  -0.07711  -0.15227
   1.86688  -0.07711  -0.15227
   2.10630   0.16231  -0.15227
   1.62746   0.16231   0.08715
   1.86688  -0.31653  -0.15227
   1.62746  -0.07711  -0.15227
   1.86688  -0.07711   0.08715
   1.86688  -0.07711   0.08715
   1.62746  -0.07711  -0.15227
   1.86688  -0.07711  -0.15227
   1.38804  -0.07711  -0.15227
   1.38804   0.16231  -0.15227
   1.14862  -0.07711  -0.39169
   1.14862  -0.07711  -0.15227
   1.14862  -0.31653  -0.15227
   1.14862  -0.31653  -0.15227
   1.14862  -0.07711  -0.39169
   1.14862   0.16231  -0.15227
   0.66978   0.16231  -0.15227
   0.43036  -0.07711  -0.15227
   0.19094  -0.31653  -0.39169
   0.43036  -0.07711  -0.39169
   0.19094  -0.07711  -0.15227
  -0.04848   0.16231  -0.39169
  -0.04848   0.16231  -0.15227
  -0.28790   0.40173  -0.15227
  -0.28790   0.16231  -0.39169
  -0.52732   0.16231  -0.63111
  -0.52732   0.16231  -0.63111
  -0.76674   0.16231  -0.15227
  -0.76674  -0.07711  -0.39169
  -1.00616   0.16231  -0.15227
  -1.00616   0.16231  -0.15227
  -1.24558   0.40173  -0.15227
  -1.24558   0.40173  -0.39169
  -1.00616   0.16231  -0.63111
  -1.24558  -0.07711  -0.63111
  -1.24558  -0.07711  -0.39169
  -1.24558  -0.07711  -0.63111
  -1.24558  -0.07711  -0.39169
  -1.24558   0.16231  -0.39169
  -1.00616   0.16231  -0.39169
  -1.24558   0.40173  -0.63111
  -1.24558   0.16231  -0.39169
  -1.48500  -0.07711  -0.87053
  -1.24558  -0.31653  -0.63111
  -1.24558  -0.31653  -0.87053
  -1.00616  -0.31653  -0.39169
  -1.24558  -0.31653  -0.63111
  -1.00616  -0.31653   0.08715
  -1.00616  -0.07711  -0.15227
  -1.00616  -0.07711  -0.15227
  -0.76674  -0.07711  -0.39169
  -0.76674  -0.31653  -0.39169
  -1.00616  -0.31653  -0.63111
  -0.76674  -0.55595  -0.39169
  -0.52732  -0.31653  -0.39169
  -0.76674  -0.31653   0.08715
  -0.52732  -0.07711   0.08715
  -0.76674  -0.07711  -0.15227
  -0.52732   0.16231  -0.15227
  -0.52732  -0.07711   0.08715
  -0.52732   0.16231  -0.15227
  -0.28790  -0.07711   0.08715
  -0.28790  -0.07711   0.08715
  -0.28790  -0.07711   0.08715
  -0.52732   0.16231   0.08715
  -0.52732   0.16231   0.08715
  -0.52732   0.16231   0.08715
  -0.28790   0.16231   0.56599
  -0.28790   0.40173   0.32657
  -0.52732   0.16231   0.08715
  -0.52732   0.16231   0.08715
  -0.28790   0.16231   0.32657
  -0.52732   0.40173   0.32657
  -0.76674   0.40173   0.32657
  -0.52732   0.40173   0.56599
  -0.52732   0.40173   0.32657
  -0.52732   0.40173   0.32657
  -0.76674   0.16231   0.32657
  -0.76674   0.40173   0.08715
  -0.76674   0.16231   0.32657
  -1.00616   0.16231   0.32657
  -0.76674   0.40173   0.56599
  -0.76674   0.16231   0.32657
  -1.00616   0.16231   0.32657
  -0.76674   0.40173   0.32657
  -1.00616   0.16231   0.32657
  -1.00616  -0.07711   0.32657
  -1.00616   0.16231   0.32657
  -0.52732   0.16231   0.32657
  -1.00616   0.16231   0.56599
  -0.76674  -0.07711   0.32657
  -0.76674  -0.31653   0.32657
  -0.52732  -0.07711   0.56599
  -0.76674  -0.31653   0.32657
  -0.52732  -0.31653   0.08715
  -0.76674  -0.07711   0.32657
  -0.52732  -0.07711   0.32657
  -0.52732  -0.55595   0.32657
  -0.28790  -0.31653   0.32657
  -0.52732  -0.31653   0.32657
  -0.04848  -0.31653   0.56599
  -0.04848  -0.31653   0.32657
  -0.28790  -0.31653   0.32657
  -0.04848  -0.31653   0.32657
   0.19094  -0.31653   0.08715
   0.19094  -0.07711   0.08715
   0.19094  -0.07711   0.32657
   0.19094  -0.07711   0.32657
   0.43036  -0.07711   0.32657
   0.19094  -0.31653   0.08715
   0.43036   0.16231   0.32657
   0.43036  -0.07711   0.08715
   0.66978  -0.07711   0.08715
   0.19094  -0.31653  -0.15227
   0.43036  -0.07711   0.08715
   0.43036   0.16231  -0.15227
   0.66978   0.40173  -0.15227
   0.66978   0.16231  -0.15227
   0.43036   0.40173  -0.15227
   0.43036   0.16231  -0.39169
   0.90920  -0.07711  -0.39169
   0.66978  -0.07711  -0.63111
   0.66978   0.16231  -0.39169
   0.66978   0.16231  -0.39169
   0.66978   0.40173  -0.39169
   0.66978   0.16231  -0.63111
   0.66978  -0.07711  -0.63111
   0.66978   0.16231  -0.39169
   0.90920   0.16231  -0.39169
   0.66978  -0.07711  -0.63111
   0.66978   0.40173  -0.39169
   0.43036  -0.07711  -0.63111
   0.66978   0.16231  -0.87053
   0.66978   0.16231  -0.39169
   0.66978   0.16231  -0.39169
   0.66978   0.16231  -0.39169
   0.66978   0.16231  -0.39169
   0.66978   0.16231  -0.39169
   0.43036  -0.07711  -0.39169
   0.66978   0.16231  -0.15227
   0.43036  -0.07711  -0.15227
   0.66978  -0.07711  -0.15227
   0.43036  -0.07711  -0.15227
   0.66978   0.16231  -0.15227
   0.66978  -0.07711   0.08715
   0.43036  -0.07711  -0.15227
   0.43036  -0.31653   0.08715
   0.66978  -0.31653   0.08715
   0.43036  -0.31653   0.08715
   0.43036  -0.07711   0.08715
