********************************************************************************
              CENTRO DE INSTRUMENTACION Y REGISTRO SISMICO  A.C.

    Anaxagoras 814, Col. Narvarte, Benito Juarez, C.P. 03020 Mexico, D.F.
           Tels. 5687 45 42/ 5687 45  82             Fax. 5669 25 12
********************************************************************************
ARCHIVO ESTANDAR DE ACELERACION:
VERSION DEL FORMATO                    : 2.0
NOMBRE DEL ARCHIVO                     : AL0120081020050052
FECHA Y HORA DE CREACION               : 20/OCT/08, 02:04
REF. CATALOGO ACELEROGRAMAS, SMIS 1996 : REGISTRO No.     /PAG.


================================================================================
DATOS DE LA ESTACION:
NOMBRE DE LA ESTACION                  : ALAMEDA
CLAVE DE LA ESTACION                   : AL01
LOCALIZACION DE LA ESTACION            : Del. Cuauhtémoc, Col. Centro,          
                                       : Dr. Mora entre Av. Hidalgo             
                                       : y Av. Juárez.                          
                                       :                                        
                                       : 
COORDENADAS DE LA ESTACION             : 19.4356 LAT. N
                                       : 99.1453 LONG. W
ALTITUD (msnm)                         : 2232
TIPO DE SUELO                          : Terreno blando, material compresible
                                       : (arcillas)                
                                       : 
INSTITUCION RESPONSABLE                : CIRES
                                       : 

================================================================================
DATOS DEL ACELEROGRAFO:
MODELO DEL ACELEROGRAFO                : RADESD
NUMERO DE SERIE DEL ACELEROGRAFO       : 152
NUMERO DE CANALES                      : 3
ORIENTACION C1-C6 (rumbo;orientacion)  : /N00E/+V/N90W
ORIENTACION C7-C12 (rumbo;orientacion) : 
VEL. DE MUESTREO, C1-C6 (muestras/s)   : /100/100/100
VEL. DE MUESTREO, C7-C12 (muestras/s)  : 
ESC. COMPLETA DE SENSORES, C1-C6, (g)  : /0.5/0.5/0.5
ESC. COMPLETA DE SENSORES, C7-C12, (g) : 
FREC. NAT. DE SENSORES, C1-C6, (Hz)    : /51.29/51.09/53.75
FREC. NAT. DE SENSORES, C7-C12, (Hz)   : 
AMORTIGUAMIENTO DE SENSORES, C1-C6     : /0.5519/0.5670/0.5810
AMORTIGUAMIENTO DE SENSORES, C7-C12    : 
INTERVALO DE MUESTREO, C1-C6, (s)      : /0.01/0.01/0.01
INTERVALO DE MUESTREO, C7-C12, (s)     : 
UMBRAL DE DISPARO, C1-C6, (Gal)        : /0.72/1.44/0.72
UMBRAL DE DISPARO, C7-C12, (Gal)       : 
MEMORIA DE PREEVENTO (s)               : 56.0
TIEMPO DE POSEVENTO (s)                : 64.0


================================================================================
DATOS DEL SISMO:
FECHA DEL SISMO (GMT)                  : 20/OCT/08
HORA EPICENTRO (GMT)                   : 05:00:52.0
MAGNITUD(ES)                           : /Mc=5.1
COORDENADAS DEL EPICENTRO              : 17.25 LAT. N
                                       : 102.09 LONG. W
PROFUNDIDAD FOCAL (km)                 : 25
FUENTE DE LOS DATOS EPICENTRALES       : SSN
                                       : INSTITUTO DE GEOFISICA, UNAM

================================================================================
DATOS DE ESTE REGISTRO:
HORA DE LA PRIMERA MUESTRA (GMT)       : 05:02:34.00
EXACTITUD DEL TIEMPO (s)               : 0.01
DURACION DEL REGISTRO (s), C1-C6       : /120.0/120.0/120.0
DURACION DEL REGISTRO (s), C7-C12      : 
NUM. TOTAL DE MUESTRAS, C1-C6          : /12000/12000/12000
NUM. TOTAL DE MUESTRAS, C7-C12         : 
ACEL. MAX. (Gal), C1-C6                : /1.99493/1.15375/1.56347
ACEL. MAX., C1-C6, EN LA MUESTRA       : /5838/6271/6435
ACEL. MAX. (Gal), C7-C12               : 
ACEL. MAX., C7-C12, EN LA MUESTRA      : 
UNIDADES DE LOS DATOS                  : Gal (cm/s/s)
FACTOR DE DECIMACION                   : 1
FORMATO DATOS (FORTRAN,10 campos/dato) : 3F10.5


================================================================================
CALIDAD DEL ACELEROGRAMA:
REGISTRO DIGITAL COMPLETO CON TIEMPO ABSOLUTO CORRECTO.


================================================================================
COMENTARIOS:














================================================================================
DATOS DE ACELERACION:
---------+---------+---------+---------+---------+---------+---------+---------+
   CANAL-1   CANAL-2   CANAL-3   CANAL-4   CANAL-5   CANAL-6   CANAL-7   CANAL-8
      N00E        +V      N90W
---------+---------+---------+---------+---------+---------+---------+---------+
[...]
   0.15985   0.19607   0.35189
   0.15985   0.19607   0.11247
   0.15985  -0.04336   0.11247
   0.15985   0.19607   0.11247
   0.15985  -0.04336  -0.12695
   0.15985   0.19607   0.11247
   0.15985  -0.04336  -0.12695
   0.15985  -0.04336  -0.12695
  -0.07957  -0.04336  -0.12695
  -0.07957  -0.04336  -0.36637
   0.15985  -0.04336  -0.12695
  -0.07957  -0.04336  -0.36637
  -0.07957  -0.04336  -0.36637
  -0.31899  -0.04336  -0.36637
  -0.31899  -0.04336  -0.12695
  -0.31899  -0.04336  -0.12695
  -0.07957   0.19607  -0.36637
  -0.07957  -0.04336  -0.12695
  -0.31899  -0.04336  -0.12695
  -0.31899  -0.04336  -0.12695
  -0.07957   0.19607  -0.12695
  -0.31899   0.19607  -0.12695
  -0.31899   0.19607   0.11247
  -0.31899  -0.04336   0.11247
  -0.07957   0.19607   0.11247
  -0.31899  -0.04336   0.11247
  -0.07957   0.19607   0.11247
  -0.07957   0.43549   0.11247
  -0.07957   0.19607   0.11247
  -0.07957   0.19607   0.11247
  -0.07957   0.19607  -0.12695
  -0.31899   0.19607  -0.36637
   0.15985   0.19607  -0.36637
  -0.07957   0.19607  -0.12695
   0.15985  -0.04336  -0.36637
   0.15985  -0.04336  -0.36637
   0.15985  -0.04336  -0.60579
  -0.07957  -0.04336  -0.60579
   0.15985  -0.04336  -0.36637
   0.15985  -0.04336  -0.60579
   0.15985  -0.28278  -0.60579
  -0.07957  -0.04336  -0.60579
   0.15985  -0.04336  -0.60579
   0.15985  -0.04336  -0.60579
   0.15985  -0.28278  -0.60579
   0.15985  -0.28278  -0.60579
   0.39927  -0.04336  -0.60579
   0.39927  -0.04336  -0.36637
   0.15985  -0.04336  -0.60579
   0.15985  -0.04336  -0.36637
   0.15985  -0.04336  -0.36637
   0.15985  -0.04336  -0.12695
   0.15985  -0.04336  -0.12695
   0.39927  -0.04336  -0.12695
   0.15985  -0.04336  -0.12695
   0.15985  -0.28278   0.11247
  -0.07957  -0.28278   0.11247
   0.15985  -0.28278   0.11247
  -0.07957  -0.04336   0.35189
   0.15985  -0.04336   0.35189
  -0.07957  -0.04336   0.35189
  -0.07957  -0.04336   0.35189
  -0.07957  -0.04336   0.59131
  -0.07957   0.19607   0.59131
  -0.07957   0.19607   0.59131
  -0.07957   0.43549   0.59131
  -0.07957   0.19607   0.59131
  -0.07957   0.43549   0.83073
  -0.31899   0.19607   0.59131
  -0.31899   0.43549   0.59131
   0.15985   0.19607   0.59131
  -0.07957   0.19607   0.59131
  -0.07957   0.19607   0.59131
  -0.07957   0.19607   0.59131
  -0.07957  -0.04336   0.59131
  -0.07957  -0.04336   0.59131
   0.15985   0.43549   0.59131
   0.15985   0.19607   0.59131
   0.39927   0.19607   0.59131
   0.39927   0.19607   0.35189
   0.39927  -0.04336   0.11247
   0.63869  -0.04336   0.35189
   0.63869  -0.04336   0.59131
   0.63869   0.19607   0.11247
   0.63869  -0.04336   0.35189
   0.63869   0.19607   0.35189
   0.63869   0.19607   0.59131
   0.63869  -0.04336   0.35189
   0.87811   0.19607   0.35189
   0.87811  -0.04336   0.35189
   0.87811  -0.04336   0.35189
   0.87811  -0.28278   0.35189
   0.87811  -0.04336   0.35189
   0.87811  -0.28278   0.35189
   0.87811  -0.28278   0.35189
   0.87811  -0.04336   0.59131
   0.87811  -0.04336   0.59131
   0.87811  -0.28278   0.59131
   0.87811  -0.28278   0.59131
   0.63869  -0.28278   0.59131
   0.63869  -0.28278   0.59131
   0.87811  -0.28278   0.83073
   0.87811  -0.28278   0.59131
   0.87811  -0.04336   0.83073
   0.63869  -0.28278   0.83073
   0.63869  -0.28278   0.83073
   0.63869  -0.04336   0.83073
   0.63869  -0.28278   0.83073
   0.39927  -0.04336   0.83073
   0.63869  -0.04336   0.83073
   0.63869  -0.04336   0.83073
   0.63869  -0.04336   0.83073
   0.63869  -0.04336   0.83073
   0.39927  -0.04336   0.59131
   0.39927  -0.04336   0.59131
   0.39927  -0.04336   0.59131
   0.15985  -0.04336   0.59131
  -0.07957  -0.04336   0.35189
   0.15985  -0.04336   0.35189
  -0.07957  -0.04336   0.11247
  -0.07957  -0.28278   0.11247
  -0.07957  -0.04336  -0.12695
  -0.31899  -0.04336  -0.12695
  -0.31899  -0.04336  -0.36637
  -0.07957   0.19607  -0.36637
  -0.07957  -0.04336  -0.36637
  -0.31899  -0.04336  -0.36637
  -0.31899   0.19607  -0.60579
  -0.31899   0.19607  -0.60579
  -0.55841   0.43549  -0.84521
  -0.55841  -0.04336  -0.84521
  -0.31899  -0.04336  -0.84521
  -0.31899   0.19607  -0.84521
  -0.55841   0.19607  -0.84521
  -0.55841  -0.04336  -0.84521
  -0.55841  -0.04336  -0.84521
  -0.31899  -0.04336  -0.84521
  -0.55841  -0.04336  -0.84521
  -0.31899  -0.04336  -0.84521
  -0.55841  -0.04336  -0.84521
  -0.55841  -0.04336  -0.84521
  -0.55841  -0.04336  -0.84521
  -0.55841   0.19607  -0.84521
  -0.55841  -0.04336  -0.84521
  -0.55841   0.19607  -1.08463
  -0.55841  -0.04336  -0.60579
  -0.55841  -0.04336  -0.84521
  -0.31899  -0.04336  -0.84521
  -0.31899  -0.04336  -0.60579
  -0.55841  -0.04336  -0.84521
  -0.55841   0.19607  -0.60579
  -0.55841  -0.28278  -0.60579
  -0.55841  -0.04336  -0.60579
  -0.55841  -0.28278  -0.60579
  -0.31899  -0.04336  -0.60579
  -0.55841  -0.28278  -0.36637
  -0.31899  -0.04336  -0.36637
  -0.55841  -0.28278  -0.36637
  -0.55841  -0.28278  -0.12695
  -0.55841  -0.04336  -0.12695
  -0.79783  -0.28278  -0.12695
  -1.03725  -0.04336  -0.12695
  -1.03725  -0.28278   0.11247
  -1.03725  -0.28278  -0.12695
  -1.03725  -0.28278   0.11247
  -1.03725  -0.28278  -0.12695
  -1.27667  -0.28278   0.11247
  -1.27667  -0.04336   0.11247
  -1.27667  -0.04336   0.11247
  -1.27667  -0.04336  -0.12695
  -1.27667  -0.04336  -0.12695
  -1.27667  -0.04336  -0.12695
  -1.27667   0.19607  -0.12695
  -1.51609   0.19607  -0.36637
  -1.27667   0.19607  -0.36637
  -1.27667   0.19607  -0.36637
  -1.27667   0.19607  -0.36637
  -1.51609   0.19607  -0.84521
  -1.27667   0.19607  -0.84521
  -1.27667   0.19607  -0.84521
  -1.03725   0.19607  -1.08463
  -1.03725   0.19607  -1.08463
  -0.79783   0.19607  -1.08463
  -0.79783   0.19607  -1.08463
  -0.79783   0.19607  -1.08463
  -0.79783  -0.04336  -1.08463
  -0.55841   0.19607  -1.08463
  -0.31899   0.19607  -1.08463
  -0.31899   0.19607  -1.32405
  -0.31899   0.19607  -1.08463
  -0.07957   0.19607  -1.08463
  -0.07957   0.19607  -0.84521
   0.15985   0.19607  -0.84521
   0.15985   0.19607  -0.84521
   0.39927   0.19607  -0.84521
   0.39927  -0.04336  -0.60579
   0.15985   0.19607  -0.36637
   0.39927   0.19607  -0.36637
   0.15985   0.19607  -0.12695
   0.39927  -0.04336  -0.12695
   0.39927  -0.04336   0.11247
   0.39927   0.19607   0.11247
   0.39927  -0.04336   0.35189
   0.39927   0.19607   0.59131
   0.15985   0.19607   0.59131
   0.39927   0.19607   0.59131
   0.39927  -0.04336   0.83073
   0.39927  -0.04336   0.83073
   0.39927  -0.04336   1.07015
   0.63869   0.19607   0.83073
   0.39927  -0.04336   1.07015
   0.63869  -0.04336   0.83073
   0.87811  -0.04336   1.07015
   0.63869   0.19607   1.07015
   0.63869   0.19607   1.07015
   0.87811  -0.04336   1.07015
   1.11753   0.19607   1.07015
   0.87811   0.19607   1.07015
   0.87811   0.19607   0.83073
   0.87811  -0.04336   0.83073
   0.87811  -0.04336   0.83073
   1.11753  -0.04336   0.83073
   1.35695  -0.04336   0.59131
   1.35695  -0.04336   0.59131
   1.35695  -0.04336   0.59131
   1.11753  -0.28278   0.35189
   1.11753   0.19607   0.35189
   1.35695  -0.04336   0.59131
   1.35695  -0.04336   0.11247
   1.35695  -0.04336   0.35189
   1.11753   0.19607   0.11247
   1.35695  -0.04336   0.11247
   1.11753  -0.04336  -0.12695
   1.35695  -0.04336  -0.12695
   1.11753  -0.04336  -0.12695
   1.35695  -0.04336  -0.12695
   1.11753  -0.04336  -0.12695
   1.11753  -0.04336  -0.36637
   1.11753  -0.04336  -0.36637
   1.11753  -0.04336  -0.12695
   1.11753  -0.04336  -0.12695
   1.11753  -0.04336  -0.36637
   1.11753   0.19607  -0.12695
   1.11753  -0.04336  -0.36637
   1.11753   0.19607  -0.12695
   1.35695   0.19607  -0.12695
   1.11753  -0.04336  -0.12695
   1.11753   0.19607  -0.12695
   1.11753  -0.04336   0.11247
   1.11753   0.19607   0.11247
   1.11753  -0.04336   0.11247
   1.11753  -0.04336   0.35189
   1.11753  -0.04336   0.11247
   1.11753  -0.04336   0.11247
   0.87811  -0.28278   0.35189
   0.87811  -0.04336   0.35189
   0.63869  -0.28278   0.35189
   0.63869  -0.28278   0.59131
   0.39927  -0.28278   0.35189
   0.39927  -0.28278   0.35189
   0.15985  -0.28278   0.59131
   0.15985  -0.28278   0.83073
  -0.07957  -0.28278   0.59131
  -0.07957  -0.52220   0.83073
  -0.07957  -0.52220   0.83073
  -0.07957  -0.52220   0.83073
  -0.31899  -0.28278   0.83073
  -0.55841  -0.52220   0.83073
  -0.55841  -0.52220   0.83073
  -0.79783  -0.28278   0.83073
  -0.79783  -0.28278   1.07015
  -0.55841  -0.28278   0.83073
  -0.79783  -0.28278   0.83073
  -0.79783  -0.28278   0.59131
  -0.79783  -0.52220   0.59131
  -1.03725  -0.28278   0.59131
  -0.79783  -0.04336   0.35189
  -1.03725  -0.04336   0.35189
  -0.79783  -0.28278   0.35189
  -0.79783  -0.04336   0.11247
  -0.79783  -0.04336   0.35189
  -0.79783  -0.04336  -0.12695
  -1.03725  -0.04336   0.35189
  -0.79783   0.19607   0.11247
  -0.79783   0.19607   0.11247
  -1.03725   0.43549  -0.12695
  -1.03725   0.43549  -0.12695
  -1.03725   0.43549  -0.12695
  -1.03725   0.43549  -0.12695
  -1.03725   0.43549  -0.12695
  -1.03725   0.43549  -0.12695
  -0.79783   0.43549  -0.36637
  -0.79783   0.43549  -0.12695
  -0.79783   0.43549  -0.12695
  -0.79783   0.67491  -0.12695
  -0.55841   0.67491  -0.12695
  -0.31899   0.67491  -0.12695
  -0.31899   0.43549  -0.12695
  -0.31899   0.67491  -0.12695
  -0.31899   0.43549   0.11247
  -0.07957   0.43549  -0.12695
  -0.07957   0.19607   0.11247
   0.15985   0.43549  -0.12695
   0.15985   0.19607   0.11247
   0.39927   0.43549   0.11247
   0.39927   0.19607  -0.12695
   0.39927   0.19607   0.11247
   0.39927  -0.04336   0.11247
   0.63869   0.19607  -0.12695
   0.63869  -0.04336   0.11247
   0.87811  -0.04336  -0.12695
   0.87811  -0.04336  -0.12695
   0.63869  -0.04336   0.11247
   0.63869  -0.04336   0.11247
   0.63869  -0.28278  -0.12695
   0.63869  -0.28278  -0.36637
   0.63869  -0.28278  -0.12695
   0.39927  -0.04336  -0.36637
   0.63869  -0.28278   0.11247
   0.63869  -0.28278  -0.12695
   0.39927  -0.28278   0.11247
   0.39927  -0.28278  -0.12695
   0.39927  -0.28278  -0.36637
   0.15985  -0.28278  -0.12695
  -0.07957  -0.28278  -0.12695
  -0.07957  -0.52220  -0.36637
  -0.07957  -0.52220  -0.36637
  -0.31899  -0.52220  -0.36637
  -0.55841  -0.28278  -0.12695
  -0.55841  -0.52220  -0.60579
  -0.79783  -0.28278  -0.12695
  -0.79783  -0.28278  -0.36637
  -1.03725  -0.52220  -0.36637
  -1.03725  -0.28278  -0.36637
  -1.27667  -0.52220  -0.36637
  -1.27667  -0.04336  -0.36637
  -1.51609  -0.28278  -0.36637
  -1.51609  -0.04336  -0.36637
  -1.51609  -0.04336  -0.60579
  -1.75551   0.19607  -0.60579
  -1.75551   0.19607  -0.84521
  -1.75551   0.19607  -0.60579
  -1.75551   0.43549  -0.84521
  -1.75551   0.43549  -0.84521
  -1.75551   0.43549  -1.08463
  -1.75551   0.19607  -1.08463
  -1.99493   0.19607  -1.08463
  -1.51609   0.43549  -1.08463
  -1.75551   0.19607  -1.08463
  -1.27667   0.19607  -1.08463
  -1.51609   0.43549  -1.08463
  -1.51609   0.43549  -1.08463
  -1.27667   0.43549  -0.84521
  -1.03725   0.19607  -0.84521
  -1.03725   0.43549  -0.84521
  -1.03725   0.19607  -0.84521
  -0.79783   0.19607  -0.60579
  -0.79783   0.19607  -0.84521
  -0.55841   0.19607  -0.60579
  -0.55841   0.19607  -0.36637
  -0.55841  -0.04336  -0.36637
  -0.31899   0.19607  -0.36637
  -0.07957  -0.04336  -0.36637
  -0.07957  -0.04336  -0.36637
   0.15985  -0.04336  -0.36637
   0.15985  -0.04336  -0.12695
   0.15985  -0.04336  -0.36637
   0.15985  -0.28278   0.11247
   0.39927  -0.28278   0.11247
   0.39927  -0.28278  -0.12695
   0.63869  -0.52220   0.11247
   0.63869  -0.52220  -0.12695
   0.87811  -0.28278   0.11247
   0.87811  -0.52220   0.11247
   0.87811  -0.52220   0.11247
   0.87811  -0.76162  -0.12695
   1.11753  -0.52220  -0.12695
   1.11753  -0.52220  -0.12695
   1.11753  -0.52220   0.11247
   1.35695  -0.52220  -0.12695
   1.11753  -0.52220  -0.12695
   1.35695  -0.52220  -0.36637
   1.11753  -0.52220  -0.12695
   1.11753  -0.52220  -0.12695
   1.11753  -0.28278   0.11247
   1.11753  -0.28278  -0.12695
   1.11753  -0.28278   0.11247
   1.35695  -0.28278  -0.12695
   0.87811  -0.28278   0.11247
   1.11753  -0.28278   0.59131
   0.63869  -0.28278   0.35189
   0.63869  -0.04336   0.59131
   0.63869  -0.04336   0.59131
   0.39927  -0.04336   0.59131
   0.15985   0.19607   0.83073
   0.15985   0.19607   0.83073
  -0.07957   0.43549   0.83073
   0.15985   0.43549   0.83073
  -0.31899   0.43549   0.83073
  -0.31899   0.43549   0.83073
  -0.55841   0.43549   0.35189
  -0.55841   0.67491   0.59131
  -0.55841   0.67491   0.59131
  -0.55841   0.67491   0.59131
  -0.55841   0.67491   0.59131
  -0.79783   0.67491   0.35189
  -0.79783   0.91433   0.35189
  -0.79783   0.91433   0.35189
  -0.79783   0.67491   0.11247
  -0.79783   0.91433   0.35189
  -0.79783   0.67491   0.11247
  -0.79783   0.67491   0.11247
  -0.79783   0.67491   0.11247
  -0.55841   0.43549   0.11247
  -0.55841   0.43549   0.11247
  -0.55841   0.43549   0.11247
  -0.31899   0.19607  -0.12695
  -0.31899   0.43549   0.11247
  -0.31899  -0.04336  -0.12695
  -0.31899   0.19607   0.11247
  -0.07957  -0.04336  -0.12695
  -0.07957  -0.04336   0.11247
  -0.07957  -0.04336  -0.12695
  -0.07957  -0.04336   0.11247
  -0.07957  -0.28278  -0.12695
   0.15985  -0.04336   0.35189
   0.15985  -0.28278   0.11247
   0.39927  -0.52220   0.35189
   0.15985  -0.52220   0.35189
   0.39927  -0.52220   0.35189
   0.39927  -0.52220   0.35189
   0.39927  -0.52220   0.59131
   0.63869  -0.52220   0.83073
   0.63869  -0.52220   0.83073
   0.63869  -0.52220   0.83073
   0.63869  -0.28278   1.07015
   0.87811  -0.52220   1.07015
   0.63869  -0.28278   1.07015
   0.87811  -0.52220   1.07015
   0.87811  -0.04336   1.07015
   1.11753  -0.28278   1.07015
   0.87811  -0.04336   1.07015
   1.11753  -0.04336   1.07015
   1.11753  -0.04336   0.83073
   1.11753  -0.04336   0.83073
   1.11753  -0.04336   0.59131
   1.11753  -0.04336   0.59131
   1.11753  -0.04336   0.35189
   1.11753   0.19607   0.35189
   1.11753  -0.04336   0.11247
   1.11753  -0.04336   0.35189
   1.11753  -0.04336  -0.12695
   0.87811   0.19607  -0.12695
   1.11753   0.19607  -0.36637
   0.87811  -0.04336  -0.12695
   0.87811  -0.04336  -0.36637
   0.87811  -0.04336  -0.60579
   0.87811  -0.04336  -0.36637
   0.87811  -0.04336  -0.36637
   0.63869  -0.04336  -0.60579
   0.39927  -0.04336  -0.36637
   0.63869  -0.04336  -0.36637
   0.15985   0.19607  -0.36637
   0.15985   0.19607  -0.36637
   0.15985   0.19607  -0.36637
   0.15985   0.43549  -0.12695
   0.15985   0.19607  -0.12695
  -0.07957   0.19607  -0.12695
  -0.07957   0.43549  -0.12695
  -0.07957   0.43549   0.11247
  -0.07957   0.19607   0.11247
  -0.07957   0.43549   0.35189
  -0.07957   0.43549   0.35189
  -0.07957   0.43549   0.35189
  -0.31899   0.67491   0.59131
  -0.31899   0.43549   0.35189
  -0.31899   0.67491   0.59131
  -0.31899   0.43549   0.59131
  -0.07957  -0.04336   0.59131
  -0.07957   0.19607   0.35189
  -0.31899   0.19607   0.59131
  -0.31899   0.19607   0.35189
   0.15985   0.19607   0.59131
   0.15985  -0.04336   0.35189
  -0.07957  -0.04336   0.35189
   0.15985  -0.04336   0.11247
   0.15985  -0.28278   0.11247
   0.15985  -0.28278  -0.12695
   0.15985  -0.52220  -0.12695
   0.63869  -0.76162  -0.12695
   0.39927  -0.76162  -0.12695
   0.39927  -1.00104  -0.36637
   0.39927  -0.76162  -0.36637
   0.39927  -1.00104  -0.60579
   0.15985  -1.00104  -0.60579
   0.39927  -1.00104  -0.36637
