********************************************************************************
              CENTRO DE INSTRUMENTACION Y REGISTRO SISMICO  A.C.

    Anaxagoras 814, Col. Narvarte, Benito Juarez, C.P. 03020 Mexico, D.F.
           Tels. 5687 45 42/ 5687 45  82             Fax. 5669 25 12
********************************************************************************
ARCHIVO ESTANDAR DE ACELERACION:
VERSION DEL FORMATO                    : 2.0
NOMBRE DEL ARCHIVO                     : AL0120090131132458
FECHA Y HORA DE CREACION               : 09/FEB/09, 01:14
REF. CATALOGO ACELEROGRAMAS, SMIS 1996 : REGISTRO No.     /PAG.


================================================================================
DATOS DE LA ESTACION:
NOMBRE DE LA ESTACION                  : ALAMEDA
CLAVE DE LA ESTACION                   : AL01
LOCALIZACION DE LA ESTACION            : Del. Cuauhtémoc, Col. Centro,          
                                       : Dr. Mora entre Av. Hidalgo             
                                       : y Av. Juárez.                          
                                       :                                        
                                       : 
COORDENADAS DE LA ESTACION             : 19.4356 LAT. N
                                       : 99.1453 LONG. W
ALTITUD (msnm)                         : 2232
TIPO DE SUELO                          : Terreno blando, material compresible
                                       : (arcillas)                
                                       : 
INSTITUCION RESPONSABLE                : CIRES
                                       : 

================================================================================
DATOS DEL ACELEROGRAFO:
MODELO DEL ACELEROGRAFO                : RADESD
NUMERO DE SERIE DEL ACELEROGRAFO       : 152
NUMERO DE CANALES                      : 3
ORIENTACION C1-C6 (rumbo;orientacion)  : /N00E/+V/N90W
ORIENTACION C7-C12 (rumbo;orientacion) : 
VEL. DE MUESTREO, C1-C6 (muestras/s)   : /100/100/100
VEL. DE MUESTREO, C7-C12 (muestras/s)  : 
ESC. COMPLETA DE SENSORES, C1-C6, (g)  : /0.5/0.5/0.5
ESC. COMPLETA DE SENSORES, C7-C12, (g) : 
FREC. NAT. DE SENSORES, C1-C6, (Hz)    : /51.29/51.09/53.75
FREC. NAT. DE SENSORES, C7-C12, (Hz)   : 
AMORTIGUAMIENTO DE SENSORES, C1-C6     : /0.5519/0.5670/0.5810
AMORTIGUAMIENTO DE SENSORES, C7-C12    : 
INTERVALO DE MUESTREO, C1-C6, (s)      : /0.01/0.01/0.01
INTERVALO DE MUESTREO, C7-C12, (s)     : 
UMBRAL DE DISPARO, C1-C6, (Gal)        : /0.72/1.44/0.72
UMBRAL DE DISPARO, C7-C12, (Gal)       : 
MEMORIA DE PREEVENTO (s)               : 56.0
TIEMPO DE POSEVENTO (s)                : 64.0


================================================================================
DATOS DEL SISMO:
FECHA DEL SISMO (GMT)                  : 31/ENE/09
HORA EPICENTRO (GMT)                   : 13:24:58.0
MAGNITUD(ES)                           : /Mc=5.3
COORDENADAS DEL EPICENTRO              : 17.54 LAT. N
                                       : 101.96 LONG. W
PROFUNDIDAD FOCAL (km)                 : 25
FUENTE DE LOS DATOS EPICENTRALES       : SSN
                                       : INSTITUTO DE GEOFISICA, UNAM

================================================================================
DATOS DE ESTE REGISTRO:
HORA DE LA PRIMERA MUESTRA (GMT)       : 13:26:36.00
EXACTITUD DEL TIEMPO (s)               : 0.01
DURACION DEL REGISTRO (s), C1-C6       : /120.0/120.0/120.0
DURACION DEL REGISTRO (s), C7-C12      : 
NUM. TOTAL DE MUESTRAS, C1-C6          : /12000/12000/12000
NUM. TOTAL DE MUESTRAS, C7-C12         : 
ACEL. MAX. (Gal), C1-C6                : /2.33552/1.96616/2.18545
ACEL. MAX., C1-C6, EN LA MUESTRA       : /5964/7195/6497
ACEL. MAX. (Gal), C7-C12               : 
ACEL. MAX., C7-C12, EN LA MUESTRA      : 
UNIDADES DE LOS DATOS                  : Gal (cm/s/s)
FACTOR DE DECIMACION                   : 1
FORMATO DATOS (FORTRAN,10 campos/dato) : 3F10.5


================================================================================
CALIDAD DEL ACELEROGRAMA:
REGISTRO DIGITAL COMPLETO CON TIEMPO ABSOLUTO CORRECTO.


================================================================================
COMENTARIOS:














================================================================================
DATOS DE ACELERACION:
---------+---------+---------+---------+---------+---------+---------+---------+
   CANAL-1   CANAL-2   CANAL-3   CANAL-4   CANAL-5   CANAL-6   CANAL-7   CANAL-8
      N00E        +V      N90W
---------+---------+---------+---------+---------+---------+---------+---------+
[...]
  -0.05868  -0.29022   0.03067
  -0.05868  -0.29022   0.03067
  -0.29810  -0.29022  -0.20875
  -0.53752  -0.29022  -0.44817
  -0.05868  -0.29022  -0.20875
  -0.29810  -0.29022  -0.44817
  -0.29810  -0.52964  -0.44817
  -0.53752  -0.52964  -0.92701
  -0.29810  -0.52964  -0.92701
  -1.01636  -0.29022  -0.68759
  -0.53752  -0.29022  -0.68759
  -0.77694  -0.29022  -1.16644
  -1.01636  -0.29022  -0.92701
  -0.77694  -0.29022  -0.92701
  -0.77694  -0.05080  -0.68759
  -0.77694  -0.05080  -1.16644
  -1.01636  -0.29022  -0.92701
  -1.01636  -0.29022  -0.92701
  -1.01636  -0.05080  -0.92701
  -0.77694  -0.29022  -0.92701
  -1.01636  -0.05080  -0.68759
  -1.25578  -0.05080  -0.92701
  -1.25578  -0.29022  -0.68759
  -0.77694   0.18862  -0.20875
  -1.01636  -0.05080  -0.44817
  -0.77694   0.18862  -0.44817
  -0.77694   0.18862  -0.68759
  -0.77694  -0.05080  -0.20875
  -1.01636   0.18862  -0.68759
  -0.77694   0.18862  -0.44817
  -0.53752   0.18862  -0.44817
  -0.53752  -0.05080  -0.20875
  -0.53752   0.18862  -0.68759
  -0.53752   0.18862  -0.44817
  -0.29810   0.42804  -0.20875
  -0.29810   0.42804  -0.68759
   0.18074   0.18862  -0.44817
   0.18074   0.42804  -0.68759
   0.18074  -0.05080  -0.68759
   0.42016   0.18862  -0.44817
   0.65958   0.42804  -0.68759
   0.89900   0.18862  -0.44817
   0.89900  -0.05080  -0.44817
   1.13842  -0.05080  -0.68759
   0.89900   0.18862  -0.68759
   0.89900  -0.05080  -0.68759
   1.13842   0.18862  -0.44817
   1.13842   0.18862  -0.20875
   1.13842  -0.05080  -0.20875
   1.37784  -0.05080  -0.20875
   1.13842   0.18862  -0.20875
   1.13842  -0.05080  -0.44817
   1.13842   0.18862  -0.44817
   0.89900  -0.05080   0.03067
   0.89900   0.18862  -0.20875
   0.89900  -0.05080   0.03067
   0.65958   0.18862  -0.20875
   0.65958   0.18862   0.03067
   0.42016  -0.05080   0.03067
   0.18074  -0.05080   0.27009
   0.18074   0.18862   0.27009
  -0.05868  -0.05080   0.27009
  -0.29810  -0.05080   0.50951
  -0.29810  -0.05080   0.27009
  -0.29810   0.18862   0.50951
  -0.53752   0.18862   0.27009
  -0.29810  -0.05080   0.50951
  -0.53752   0.18862   0.03067
  -0.77694  -0.29022   0.27009
  -0.53752  -0.05080   0.27009
  -0.77694  -0.29022   0.27009
  -0.77694  -0.05080   0.50951
  -0.77694  -0.05080   0.50951
  -0.77694  -0.29022   0.74893
  -0.53752   0.18862   0.50951
  -0.77694  -0.05080   0.50951
  -1.01636  -0.05080   0.50951
  -0.77694  -0.05080   0.50951
  -0.77694   0.18862   0.50951
  -0.77694   0.18862   0.74893
  -0.77694  -0.05080   0.74893
  -0.77694  -0.05080   0.98835
  -0.53752   0.42804   0.98835
  -0.77694  -0.29022   0.98835
  -0.77694  -0.05080   0.74893
  -1.01636  -0.05080   0.98835
  -1.01636   0.42804   0.98835
  -1.25578   0.18862   0.98835
  -1.25578   0.42804   0.98835
  -1.25578   0.18862   0.98835
  -1.25578   0.42804   0.98835
  -1.49520  -0.05080   0.98835
  -1.73462   0.42804   0.98835
  -1.73462   0.18862   0.74893
  -1.73462   0.42804   0.74893
  -1.73462   0.18862   0.74893
  -1.73462   0.42804   0.74893
  -1.73462   0.18862   0.74893
  -1.73462   0.18862   0.50951
  -1.97404   0.18862   0.50951
  -1.97404   0.42804   0.27009
  -1.73462   0.18862   0.27009
  -1.49520   0.18862   0.03067
  -1.25578   0.18862   0.03067
  -1.25578   0.18862  -0.20875
  -1.01636  -0.05080  -0.20875
  -1.25578  -0.05080  -0.20875
  -1.25578  -0.05080  -0.44817
  -0.77694  -0.29022  -0.44817
  -0.53752  -0.05080  -0.44817
  -0.29810  -0.29022  -0.44817
  -0.05868  -0.29022  -0.44817
   0.18074  -0.05080  -0.68759
   0.18074  -0.76906  -0.68759
   0.42016  -0.29022  -0.68759
   0.42016  -0.76906  -0.92701
   0.65958  -0.52964  -0.92701
   0.65958  -0.52964  -0.68759
   0.65958  -0.29022  -0.68759
   0.89900  -0.52964  -0.68759
   1.13842  -0.29022  -0.92701
   1.13842  -0.52964  -0.68759
   1.13842  -0.29022  -0.68759
   1.13842  -0.29022  -0.44817
   1.13842  -0.29022  -0.44817
   1.13842  -0.52964  -0.44817
   1.37784  -0.29022  -0.44817
   1.61726  -0.29022  -0.68759
   1.13842  -0.52964  -0.44817
   1.61726  -0.52964  -0.20875
   1.37784  -0.29022  -0.20875
   1.61726  -0.05080  -0.44817
   1.85668  -0.29022  -0.44817
   1.61726  -0.05080  -0.20875
   1.85668  -0.05080  -0.44817
   1.85668  -0.05080  -0.44817
   1.85668  -0.05080  -0.68759
   2.09610  -0.05080  -0.92701
   2.09610   0.18862  -0.92701
   2.09610  -0.05080  -0.92701
   2.09610   0.18862  -1.16644
   2.09610   0.18862  -1.16644
   2.09610   0.18862  -1.16644
   2.09610   0.18862  -1.40586
   2.09610   0.42804  -1.40586
   1.85668  -0.05080  -1.64528
   2.09610   0.18862  -1.40586
   1.85668  -0.05080  -1.40586
   1.85668   0.18862  -1.40586
   1.61726  -0.05080  -1.40586
   1.85668   0.18862  -1.64528
   1.61726   0.18862  -1.40586
   1.61726   0.18862  -1.16644
   1.37784  -0.05080  -1.16644
   1.37784   0.42804  -0.92701
   1.13842   0.18862  -0.68759
   1.13842   0.18862  -0.68759
   0.89900   0.18862  -0.44817
   0.65958   0.42804  -0.20875
   0.65958   0.66746  -0.20875
   0.42016   0.66746   0.27009
   0.18074   0.42804   0.03067
  -0.05868   0.42804   0.27009
  -0.05868   0.18862   0.50951
  -0.29810   0.66746   0.50951
  -0.29810   0.66746   0.74893
  -0.29810   0.90688   0.98835
  -0.77694   0.66746   1.22777
  -0.77694   0.66746   0.98835
  -0.77694   0.18862   0.74893
  -0.77694   0.66746   1.22777
  -1.01636   0.42804   1.22777
  -1.01636   0.90688   1.22777
  -0.53752   0.42804   1.22777
  -0.77694   0.42804   0.74893
  -0.77694   0.18862   0.98835
  -0.29810   0.42804   0.74893
  -0.53752  -0.05080   0.74893
  -0.29810   0.18862   0.98835
  -0.29810   0.18862   0.98835
  -0.29810  -0.05080   0.98835
   0.18074  -0.29022   0.74893
   0.18074  -0.05080   0.27009
   0.42016  -0.29022   0.74893
   0.18074  -0.29022   0.74893
   0.18074  -0.52964   0.74893
   0.18074  -0.29022   0.50951
   0.42016  -1.00848   0.50951
   0.42016  -0.52964   0.74893
   0.42016  -0.29022   0.98835
   0.42016  -0.52964   0.74893
   0.42016  -0.76906   0.74893
   0.42016  -0.52964   0.50951
   0.42016  -0.76906   0.74893
   0.18074  -0.76906   0.74893
   0.18074  -0.52964   0.74893
  -0.05868  -0.76906   0.74893
  -0.05868  -0.52964   0.50951
  -0.05868  -1.00848   0.50951
  -0.05868  -0.76906   0.50951
  -0.29810  -0.76906   0.27009
  -0.53752  -0.52964   0.03067
  -0.77694  -0.52964   0.03067
  -0.53752  -0.29022   0.27009
  -0.77694  -0.29022   0.03067
  -0.77694   0.18862  -0.20875
  -1.01636  -0.52964  -0.44817
  -1.01636   0.18862  -0.20875
  -1.01636  -0.05080  -0.44817
  -1.01636   0.18862  -0.92701
  -1.01636   0.18862  -1.16644
  -1.01636   0.18862  -1.16644
  -1.25578   0.18862  -0.92701
  -1.01636   0.42804  -0.92701
  -1.01636   0.42804  -1.40586
  -0.77694   0.42804  -1.16644
  -1.25578   0.18862  -1.16644
  -1.01636   0.42804  -1.16644
  -1.01636   0.42804  -1.16644
  -1.25578   0.42804  -0.92701
  -1.01636   0.18862  -0.92701
  -1.01636   0.42804  -0.92701
  -1.01636   0.18862  -0.92701
  -1.25578  -0.05080  -0.68759
  -1.01636   0.42804  -0.44817
  -1.25578   0.18862  -0.44817
  -1.25578   0.42804  -0.20875
  -1.25578  -0.05080  -0.44817
  -1.01636   0.18862   0.03067
  -1.25578   0.18862   0.27009
  -1.49520   0.42804   0.50951
  -1.25578  -0.05080   0.27009
  -1.01636   0.18862   0.50951
  -0.77694  -0.05080   0.74893
  -1.01636  -0.05080   0.74893
  -0.77694  -0.29022   0.74893
  -1.25578  -0.29022   0.98835
  -0.53752  -0.05080   1.22777
  -0.53752  -0.05080   0.98835
  -0.53752  -0.29022   0.98835
  -0.53752  -0.29022   1.22777
  -0.29810  -0.29022   1.22777
  -0.53752  -0.05080   0.98835
   0.18074  -0.29022   1.22777
  -0.29810  -0.52964   0.98835
   0.18074  -0.52964   1.46719
  -0.05868  -0.29022   1.46719
   0.18074  -0.05080   1.46719
   0.18074  -0.29022   1.22777
   0.42016  -0.29022   1.22777
   0.42016  -0.29022   1.22777
   0.65958  -0.05080   1.46719
   0.42016  -0.29022   1.22777
   0.65958  -0.29022   1.46719
   0.65958  -0.29022   1.22777
   0.65958  -0.05080   0.98835
   0.65958  -0.05080   1.22777
   0.65958  -0.29022   1.46719
   0.89900  -0.29022   0.98835
   0.89900   0.18862   1.22777
   0.89900  -0.05080   0.98835
   0.65958   0.18862   1.22777
   0.65958  -0.05080   0.98835
   0.89900  -0.05080   1.22777
   0.42016  -0.05080   0.74893
   0.42016  -0.29022   0.98835
   0.42016   0.18862   0.98835
   0.18074   0.18862   0.74893
   0.18074   0.18862   0.50951
   0.18074   0.42804   0.50951
   0.18074   0.42804   0.03067
   0.18074   0.42804  -0.20875
   0.42016   0.42804  -0.20875
  -0.05868   0.42804  -0.44817
   0.18074   0.66746  -0.44817
  -0.05868   0.66746  -0.68759
   0.18074   0.42804  -0.92701
  -0.05868   0.42804  -1.16644
   0.18074   0.42804  -0.92701
  -0.05868   0.42804  -1.40586
   0.18074   0.42804  -1.40586
  -0.05868   0.42804  -1.64528
  -0.05868   0.66746  -1.64528
  -0.05868   0.42804  -1.88470
  -0.05868   0.42804  -1.64528
  -0.05868   0.42804  -1.88470
  -0.05868   0.42804  -1.88470
  -0.05868   0.42804  -1.64528
  -0.05868   0.42804  -1.64528
  -0.53752   0.18862  -1.88470
  -0.05868   0.42804  -1.64528
  -0.29810   0.18862  -1.88470
  -0.29810   0.18862  -1.16644
  -0.29810  -0.29022  -1.40586
  -0.05868   0.18862  -1.16644
  -0.29810  -0.05080  -1.16644
  -0.29810  -0.05080  -0.92701
  -0.29810  -0.05080  -1.16644
  -0.05868  -0.29022  -0.44817
  -0.29810  -0.52964  -0.44817
  -0.05868  -0.52964  -0.68759
  -0.29810  -0.52964  -0.44817
  -0.29810  -0.52964  -0.20875
  -0.29810  -0.52964  -0.20875
  -0.05868  -0.76906   0.03067
  -0.29810  -0.76906   0.03067
  -0.29810  -0.52964   0.27009
  -0.05868  -0.29022   0.27009
  -0.29810  -0.29022   0.27009
  -0.29810  -0.29022   0.03067
  -0.29810  -0.29022   0.27009
  -0.29810  -0.29022   0.03067
  -0.53752  -0.29022   0.03067
  -0.53752  -0.05080   0.03067
  -0.53752   0.18862   0.03067
  -0.53752  -0.05080   0.03067
  -0.53752   0.42804   0.03067
  -0.53752   0.18862  -0.20875
  -0.53752  -0.05080  -0.44817
  -0.53752   0.18862  -0.20875
  -0.53752   0.42804  -0.20875
  -0.53752   0.42804  -0.44817
  -0.77694   0.18862  -0.44817
  -0.53752   0.42804  -0.20875
  -0.53752   0.42804  -0.44817
  -0.77694   0.42804  -0.44817
  -0.53752   0.42804  -0.44817
  -0.77694   0.42804  -0.20875
  -0.29810   0.42804  -0.20875
  -0.29810   0.42804  -0.44817
   0.18074   0.18862  -0.44817
  -0.05868   0.18862  -0.68759
   0.18074   0.42804  -0.44817
   0.18074   0.42804  -0.20875
   0.65958   0.18862  -0.20875
   0.65958  -0.05080  -0.20875
   0.65958  -0.05080  -0.20875
   0.89900  -0.05080  -0.20875
   1.37784  -0.05080  -0.20875
   1.37784  -0.05080  -0.20875
   1.61726  -0.29022  -0.20875
   1.61726  -0.29022  -0.20875
   1.85668  -0.05080   0.03067
   1.85668  -0.05080  -0.20875
   2.09610  -0.05080   0.03067
   1.85668  -0.05080  -0.20875
   2.33552  -0.05080  -0.20875
   2.09610  -0.05080  -0.20875
   2.33552  -0.29022  -0.20875
   2.33552  -0.29022  -0.20875
   2.33552  -0.29022   0.03067
   2.09610  -0.29022   0.27009
   2.09610  -0.29022   0.03067
   2.33552  -0.29022   0.27009
   2.09610  -0.29022   0.27009
   1.85668  -0.05080   0.27009
   1.61726  -0.29022   0.03067
   1.61726  -0.29022   0.50951
   1.37784  -0.05080   0.74893
   1.37784  -0.29022   0.74893
   0.89900  -0.29022   0.74893
   1.13842  -0.29022   0.98835
   0.65958  -0.05080   0.98835
   0.42016  -0.05080   0.98835
   0.18074  -0.05080   0.98835
  -0.05868  -0.05080   0.98835
   0.18074  -0.29022   0.98835
  -0.05868  -0.05080   0.74893
  -0.05868   0.18862   0.98835
  -0.53752   0.18862   0.98835
  -0.53752  -0.05080   0.98835
  -0.77694  -0.05080   0.50951
  -0.53752  -0.05080   0.74893
  -0.77694  -0.05080   0.50951
  -0.77694  -0.05080   0.74893
  -0.77694  -0.05080   0.50951
  -0.77694  -0.05080   0.50951
  -0.77694   0.18862   0.27009
  -0.77694  -0.05080   0.27009
  -0.53752  -0.05080   0.27009
  -0.77694  -0.05080   0.27009
  -0.53752  -0.05080   0.03067
  -0.53752   0.18862   0.03067
  -0.53752  -0.05080  -0.20875
  -0.29810  -0.05080   0.27009
  -0.53752   0.18862   0.03067
  -0.53752   0.18862   0.27009
  -0.53752   0.18862   0.03067
  -0.29810   0.18862   0.27009
  -0.53752   0.42804   0.03067
  -0.53752   0.18862   0.03067
  -0.53752   0.42804   0.27009
  -0.53752   0.66746   0.27009
  -0.77694   0.18862   0.27009
  -0.77694   0.42804   0.27009
  -0.53752   0.66746   0.50951
  -0.77694   0.42804   0.50951
  -0.77694   0.42804   0.74893
  -1.01636   0.18862   0.50951
  -0.77694   0.42804   0.74893
  -1.25578   0.18862   0.98835
  -0.77694   0.42804   0.98835
  -1.01636   0.42804   0.98835
  -0.53752   0.18862   0.98835
  -0.77694   0.18862   0.98835
  -0.53752  -0.29022   1.22777
  -0.77694  -0.05080   0.98835
  -0.77694  -0.05080   1.46719
  -0.77694  -0.05080   0.98835
  -0.53752  -0.52964   0.74893
  -0.77694  -0.29022   0.98835
  -0.77694  -0.52964   1.22777
  -1.01636  -0.52964   0.98835
  -0.77694  -1.00848   0.98835
  -1.01636  -1.00848   0.50951
  -1.01636  -1.00848   0.74893
  -1.25578  -1.00848   0.27009
  -1.01636  -1.00848   0.50951
  -1.25578  -1.00848   0.27009
  -1.25578  -1.24790   0.27009
  -1.01636  -1.00848  -0.20875
  -1.01636  -1.00848   0.03067
  -1.25578  -0.52964  -0.44817
  -1.25578  -0.52964  -0.44817
  -1.01636  -0.52964  -0.68759
  -1.01636  -0.52964  -0.92701
  -0.77694  -0.52964  -0.92701
  -1.01636  -0.29022  -1.16644
  -0.77694  -0.52964  -1.16644
  -0.77694  -0.05080  -1.40586
  -0.53752  -0.05080  -0.92701
  -0.53752   0.18862  -1.16644
  -0.29810  -0.05080  -1.16644
  -0.29810   0.18862  -1.40586
  -0.05868   0.42804  -1.64528
  -0.05868   0.42804  -1.64528
   0.18074   0.42804  -1.40586
  -0.05868   0.66746  -1.88470
   0.42016   0.42804  -1.40586
   0.42016   0.66746  -1.88470
   0.65958   0.42804  -1.64528
   0.65958   0.90688  -1.88470
   0.89900   0.66746  -1.64528
   0.89900   0.90688  -1.88470
   0.89900   0.42804  -1.64528
   0.89900   0.66746  -1.64528
   1.13842   0.66746  -1.40586
   0.89900   0.90688  -1.64528
   1.13842   0.66746  -1.40586
   1.13842   0.66746  -1.40586
   0.89900   0.18862  -1.40586
   0.89900   0.42804  -1.16644
   1.13842  -0.05080  -1.16644
   0.89900   0.18862  -1.16644
   0.65958   0.42804  -0.68759
   0.89900  -0.05080  -0.92701
   0.65958   0.42804  -0.68759
   0.89900   0.18862  -0.68759
   0.65958   0.18862  -0.44817
   0.65958   0.18862  -0.68759
   0.42016  -0.05080  -0.20875
   0.42016   0.18862   0.03067
   0.18074  -0.05080   0.27009
   0.18074   0.18862   0.27009
   0.18074  -0.05080   0.50951
   0.18074   0.18862   0.74893
  -0.29810   0.18862   0.74893
  -0.05868  -0.05080   0.98835
  -0.05868  -0.05080   0.98835
  -0.29810   0.18862   1.22777
  -0.29810   0.42804   0.98835
  -0.53752   0.18862   1.22777
  -0.29810   0.42804   1.46719
  -0.29810   0.42804   1.46719
  -0.29810   0.42804   0.98835
  -0.29810   0.18862   1.22777
  -0.53752   0.42804   0.98835
  -0.53752   0.18862   1.22777
  -0.29810   0.42804   0.98835
  -0.53752  -0.05080   1.22777
  -0.77694   0.42804   0.74893
  -0.53752   0.18862   0.98835
  -0.77694   0.42804   0.50951
  -0.53752   0.18862   0.74893
  -0.53752   0.18862   0.50951
  -0.53752  -0.05080   0.50951
  -0.29810   0.42804   0.27009
  -0.29810  -0.05080   0.27009
  -0.05868   0.18862   0.03067
  -0.05868  -0.05080   0.27009
  -0.05868  -0.05080   0.03067
  -0.05868  -0.05080   0.03067
   0.18074  -0.29022   0.03067
   0.42016  -0.29022   0.27009
   0.65958  -0.29022   0.03067
   0.89900  -0.52964  -0.20875
