********************************************************************************
               CENTRO DE INSTRUMENTACION Y REGISTRO SISMICO  A.C.  
                       Coordinacion de Servicios Tecnicos
     Anaxagoras 814, Col. Narvarte, Benito Juarez, C.P. 03020 Mexico, D.F.
            Tels. 667 45 42/ 687 45  82             Fax. 669 25 12
********************************************************************************
ARCHIVO ESTANDAR DE ACELERACION:
VERSION DEL FORMATO                    : 2.0
NOMBRE DEL ARCHIVO                     : AL010602.201
FECHA Y HORA DE CREACION               : 23/FEB/06, 12:09
REF. CATALOGO ACELEROGRAMAS, SMIS 1996 : REGISTRO No.     /PAG.


================================================================================
DATOS DE LA ESTACION:
NOMBRE DE LA ESTACION                  : ALAMEDA
CLAVE DE LA ESTACION                   : AL01
LOCALIZACION DE LA ESTACION            : JARDIN ALAMEDA ENTRE AV. HIDALGO Y AV.
                                       : JUAREZ, CENTRO
                                       :
                                       :
                                       :
COORDENADAS DE LA ESTACION             : 19.436 LAT. N 
                                       : 99.145 LONG. W 
ALTITUD (msnm)                         : 2232
TIPO DE SUELO                          : TERRENO BLANDO, MATERIAL COMPRESIBLE
                                       : (ARCILLAS)
                                       : 
INSTITUCION RESPONSABLE                : CIRES 
                                       :

================================================================================
DATOS DEL ACELEROGRAFO:
MODELO DEL ACELEROGRAFO                : SSA-1
NUMERO DE SERIE DEL ACELEROGRAFO       : 152
NUMERO DE CANALES                      : 3
ORIENTACION C1-C6 (rumbo;orientacion)  : /N00E/+V/N90E
ORIENTACION C7-C12 (rumbo;orientacion) :
VEL. DE MUESTREO, C1-C6 (muestras/s)   : /200/200/200
VEL. DE MUESTREO, C7-C12 (muestras/s)  :
ESC. COMPLETA DE SENSORES, C1-C6, (g)  : /2/2/2
ESC. COMPLETA DE SENSORES, C7-C12, (g) :
FREC. NAT. DE SENSORES, C1-C6, (Hz)    : /51.29/51.09/53.75
FREC. NAT. DE SENSORES, C7-C12, (Hz)   :
AMORTIGUAMIENTO DE SENSORES, C1-C6     : /.5519/.5670/.5810
AMORTIGUAMIENTO DE SENSORES, C7-C12    :
INTERVALO DE MUESTREO, C1-C6, (s)      : /0.005/0.005/0.005
INTERVALO DE MUESTREO, C7-C12, (s)     :
UMBRAL DE DISPARO, C1-C6, (Gal)        : /2/1.5/2
UMBRAL DE DISPARO, C7-C12, (Gal)       :
MEMORIA DE PREEVENTO (s)               : 15
TIEMPO DE POSEVENTO (s)                : 60


================================================================================
DATOS DEL SISMO:
FECHA DEL SISMO (GMT)                  : 20/FEB/06
HORA EPICENTRO (GMT)                   : 10:54:23,0
MAGNITUD(ES)                           : /Mc=5.0
COORDENADAS DEL EPICENTRO              : 18.16 LAT. N
                                       : -100.75 LONG. W
PROFUNDIDAD FOCAL (km)                 : 41
FUENTE DE LOS DATOS EPICENTRALES       : SSN
                                       : INSTITUTO DE GEOFISICA, UNAM 

================================================================================
DATOS DE ESTE REGISTRO:
HORA DE LA PRIMERA MUESTRA (GMT)       : 10:55:31.00
EXACTITUD DEL TIEMPO (s)               :     
DURACION DEL REGISTRO (s), C1-C6       : /87.04/87.04/87.04
DURACION DEL REGISTRO (s), C7-C12      :
NUM. TOTAL DE MUESTRAS, C1-C6          : /17408/17408/17408
NUM. TOTAL DE MUESTRAS, C7-C12         :
ACEL. MAX. (Gal), C1-C6                : /-2.35260/-1.43684/-2.06437
ACEL. MAX., C1-C6, EN LA MUESTRA       :
ACEL. MAX. (Gal), C7-C12               :
ACEL. MAX., C7-C12, EN LA MUESTRA      :
UNIDADES DE LOS DATOS                  : Gal (cm/s/s)
FACTOR DE DECIMACION                   : 1
FORMATO DATOS (FORTRAN,10 campos/dato) : 3F10.5


================================================================================
CALIDAD DEL ACELEROGRAMA:
REGISTRO DIGITAL COMPLETO, CARECE DE TIEMPO ABSOLUTO.


================================================================================
COMENTARIOS:














================================================================================
DATOS DE ACELERACION:
---------+---------+---------+---------+---------+---------+---------+---------+
   CANAL-1   CANAL-2   CANAL-3   CANAL-4   CANAL-5   CANAL-6   CANAL-7   CANAL-8
      N00E        +V      N90E
---------+---------+---------+---------+---------+---------+---------+---------+
[...]
   0.04740   0.24316   0.08563
   0.04740   0.24316   0.08563
   0.04740   0.24316   0.08563
  -0.19260   0.24316   0.08563
  -0.19260   0.24316   0.08563
  -0.19260   0.48316   0.08563
  -0.19260   0.48316   0.32563
  -0.43260   0.24316   0.32563
  -0.43260   0.00316   0.32563
  -0.43260   0.48316   0.32563
  -0.43260   0.24316   0.32563
  -0.43260   0.24316   0.32563
  -0.19260   0.24316   0.32563
  -0.43260   0.24316   0.32563
  -0.43260   0.24316   0.56563
  -0.43260   0.24316   0.56563
  -0.43260   0.24316   0.56563
  -0.19260   0.24316   0.56563
  -0.43260   0.24316   0.56563
  -0.19260   0.24316   0.56563
  -0.19260   0.24316   0.56563
  -0.19260   0.24316   0.56563
  -0.19260   0.00316   0.56563
  -0.43260   0.00316   0.56563
  -0.19260   0.24316   0.56563
  -0.19260   0.24316   0.56563
  -0.19260   0.24316   0.56563
  -0.19260   0.24316   0.56563
  -0.19260   0.00316   0.56563
   0.04740   0.00316   0.56563
   0.04740   0.00316   0.56563
   0.28740   0.00316   0.32563
   0.28740   0.00316   0.32563
   0.28740   0.00316   0.32563
   0.28740   0.00316   0.32563
   0.52740   0.00316   0.32563
   0.52740   0.00316   0.08563
   0.52740   0.00316   0.08563
   0.76740   0.00316   0.08563
   0.76740   0.00316   0.08563
   0.76740   0.00316  -0.15437
   0.76740   0.00316  -0.15437
   0.76740   0.00316  -0.39437
   0.76740   0.00316  -0.15437
   0.76740   0.00316  -0.39437
   0.76740   0.00316  -0.39437
   0.76740   0.00316  -0.39437
   0.76740   0.00316  -0.39437
   0.76740   0.00316  -0.39437
   0.76740   0.00316  -0.39437
   0.76740   0.00316  -0.63437
   0.76740   0.00316  -0.63437
   0.76740   0.00316  -0.63437
   0.76740   0.00316  -0.63437
   0.76740   0.00316  -0.63437
   0.76740  -0.23684  -0.63437
   0.76740  -0.23684  -0.63437
   0.76740   0.00316  -0.63437
   0.52740   0.00316  -0.63437
   0.52740   0.00316  -0.63437
   0.52740   0.00316  -0.63437
   0.28740   0.00316  -0.63437
   0.28740  -0.23684  -0.63437
   0.28740   0.00316  -0.39437
   0.28740   0.00316  -0.39437
   0.04740   0.00316  -0.15437
  -0.19260   0.00316  -0.15437
  -0.19260   0.00316  -0.15437
  -0.19260   0.00316  -0.15437
  -0.19260   0.00316   0.08563
  -0.43260   0.00316   0.08563
  -0.43260   0.00316   0.08563
  -0.67260   0.24316   0.32563
  -0.67260   0.00316   0.32563
  -0.67260  -0.23684   0.56563
  -0.67260   0.00316   0.56563
  -0.67260   0.00316   0.56563
  -0.91260   0.00316   0.56563
  -0.91260  -0.23684   0.56563
  -0.91260   0.00316   0.56563
  -0.91260   0.00316   0.80563
  -0.91260  -0.23684   0.56563
  -1.15260   0.00316   0.56563
  -1.15260   0.00316   0.56563
  -1.39260   0.00316   0.56563
  -1.15260   0.00316   0.32563
  -1.15260   0.00316   0.32563
  -1.15260   0.00316   0.32563
  -1.15260   0.00316   0.32563
  -1.15260   0.00316   0.08563
  -1.15260   0.00316   0.08563
  -1.15260   0.00316   0.08563
  -0.91260   0.00316   0.08563
  -1.15260   0.00316   0.08563
  -0.91260  -0.23684  -0.15437
  -0.91260   0.00316  -0.15437
  -1.15260   0.00316  -0.15437
  -0.67260   0.00316  -0.39437
  -0.67260   0.00316  -0.39437
  -0.67260   0.00316  -0.39437
  -0.67260   0.00316  -0.39437
  -0.67260   0.00316  -0.63437
  -0.67260  -0.23684  -0.63437
  -0.67260   0.00316  -0.63437
  -0.43260   0.00316  -0.87437
  -0.43260   0.00316  -0.87437
  -0.19260   0.00316  -0.87437
  -0.19260   0.00316  -1.11437
  -0.19260   0.00316  -1.11437
   0.04740   0.00316  -1.11437
   0.04740   0.00316  -1.35437
   0.04740   0.24316  -1.35437
   0.04740   0.24316  -1.35437
   0.28740   0.24316  -1.59437
   0.28740   0.24316  -1.59437
   0.28740   0.24316  -1.59437
   0.28740   0.24316  -1.83437
   0.28740   0.24316  -1.83437
   0.28740   0.24316  -1.83437
   0.28740   0.24316  -1.83437
   0.28740   0.24316  -2.06437
   0.28740   0.24316  -1.83437
   0.52740   0.24316  -1.83437
   0.28740   0.24316  -1.83437
   0.52740   0.00316  -1.83437
   0.28740   0.24316  -1.83437
   0.28740   0.24316  -1.83437
   0.28740   0.00316  -1.83437
   0.28740   0.00316  -1.59437
   0.28740   0.00316  -1.59437
   0.28740   0.00316  -1.59437
   0.28740   0.00316  -1.59437
   0.04740   0.00316  -1.59437
   0.04740   0.00316  -1.35437
   0.04740   0.00316  -1.35437
   0.04740   0.00316  -1.35437
   0.04740   0.00316  -1.11437
  -0.19260   0.00316  -0.87437
   0.04740   0.00316  -1.11437
  -0.19260   0.00316  -0.87437
  -0.19260   0.00316  -0.87437
  -0.19260  -0.23684  -0.63437
  -0.43260   0.00316  -0.63437
  -0.43260   0.00316  -0.39437
  -0.67260   0.00316  -0.39437
  -0.67260   0.00316  -0.39437
  -0.67260  -0.23684  -0.15437
  -0.67260   0.00316  -0.15437
  -0.67260  -0.23684   0.08563
  -0.67260  -0.23684   0.08563
  -0.67260  -0.23684   0.32563
  -0.67260  -0.23684   0.32563
  -0.67260  -0.23684   0.32563
  -0.67260  -0.23684   0.08563
  -0.67260  -0.23684   0.56563
  -0.67260  -0.23684   0.56563
  -0.67260  -0.23684   0.56563
  -0.91260  -0.23684   0.80563
  -0.67260  -0.23684   0.80563
  -0.67260  -0.23684   0.80563
  -0.67260  -0.23684   0.80563
  -0.67260  -0.23684   1.04563
  -0.67260  -0.23684   0.80563
  -0.67260  -0.23684   1.04563
  -0.67260  -0.23684   1.04563
  -0.67260  -0.23684   1.04563
  -0.67260  -0.23684   1.04563
  -0.67260  -0.23684   1.04563
  -0.43260  -0.47684   1.04563
  -0.43260  -0.47684   1.04563
  -0.43260  -0.47684   1.28563
  -0.43260  -0.47684   1.04563
  -0.19260  -0.47684   1.04563
  -0.19260  -0.47684   1.04563
  -0.19260  -0.47684   1.28563
  -0.19260  -0.47684   1.28563
  -0.19260  -0.47684   1.28563
   0.04740  -0.47684   1.04563
   0.04740  -0.47684   0.80563
   0.04740  -0.47684   1.04563
   0.28740  -0.47684   1.04563
   0.28740  -0.47684   1.04563
   0.28740  -0.47684   1.04563
   0.28740  -0.47684   1.04563
   0.28740  -0.47684   1.04563
   0.28740  -0.47684   0.80563
   0.52740  -0.47684   0.80563
   0.52740  -0.47684   0.80563
   0.52740  -0.47684   0.80563
   0.52740  -0.47684   0.80563
   0.52740  -0.47684   0.80563
   0.52740  -0.47684   0.56563
   0.76740  -0.47684   0.56563
   0.76740  -0.47684   0.56563
   0.76740  -0.47684   0.56563
   0.76740  -0.23684   0.32563
   0.76740  -0.23684   0.32563
   0.76740  -0.23684   0.32563
   0.76740  -0.23684   0.32563
   0.52740  -0.23684   0.08563
   0.76740  -0.23684   0.08563
   0.76740   0.00316   0.08563
   0.76740   0.24316   0.08563
   0.76740   0.00316   0.08563
   0.76740   0.24316   0.08563
   0.76740   0.24316   0.08563
   0.76740   0.24316   0.08563
   0.76740   0.24316   0.08563
   0.52740   0.24316   0.08563
   0.52740   0.24316   0.08563
   0.52740   0.48316   0.08563
   0.52740   0.24316   0.08563
   0.52740   0.48316   0.08563
   0.52740   0.48316   0.32563
   0.52740   0.72316   0.32563
   0.28740   0.72316   0.32563
   0.28740   0.72316   0.32563
   0.28740   0.72316   0.32563
   0.28740   0.72316   0.32563
   0.28740   0.72316   0.32563
   0.28740   0.72316   0.56563
   0.28740   0.72316   0.32563
   0.28740   0.72316   0.32563
   0.28740   0.72316   0.32563
   0.28740   0.72316   0.32563
   0.28740   0.72316   0.32563
   0.28740   0.72316   0.32563
   0.28740   0.72316   0.32563
   0.28740   0.72316   0.32563
   0.28740   0.72316   0.32563
   0.28740   0.72316   0.32563
   0.52740   0.72316   0.08563
   0.52740   0.72316   0.08563
   0.52740   0.72316   0.08563
   0.76740   0.72316   0.08563
   0.52740   0.72316   0.08563
   0.76740   0.72316   0.08563
   0.76740   0.72316  -0.15437
   0.76740   0.72316  -0.15437
   0.76740   0.48316  -0.15437
   0.76740   0.48316  -0.15437
   0.76740   0.48316  -0.15437
   0.76740   0.48316  -0.15437
   0.76740   0.48316  -0.15437
   0.76740   0.48316  -0.15437
   0.76740   0.24316  -0.15437
   0.76740   0.24316  -0.39437
   0.76740   0.24316  -0.15437
   0.76740   0.24316  -0.15437
   0.76740   0.00316  -0.15437
   0.76740   0.00316  -0.15437
   0.76740   0.00316  -0.15437
   0.76740   0.00316  -0.15437
   0.76740   0.00316  -0.15437
   0.76740   0.00316  -0.15437
   0.76740  -0.23684   0.08563
   0.76740  -0.23684   0.08563
   0.76740  -0.23684   0.08563
   0.76740   0.00316   0.08563
   0.76740   0.00316   0.08563
   0.76740  -0.23684   0.08563
   0.52740  -0.23684   0.08563
   0.52740  -0.23684   0.32563
   0.76740  -0.23684   0.32563
   0.52740  -0.23684   0.32563
   0.52740   0.00316   0.32563
   0.52740   0.00316   0.32563
   0.52740   0.00316   0.32563
   0.52740   0.00316   0.32563
   0.52740  -0.23684   0.56563
   0.28740  -0.23684   0.56563
   0.28740  -0.23684   0.80563
   0.28740  -0.23684   0.80563
   0.28740  -0.23684   0.80563
   0.28740  -0.23684   1.04563
   0.28740  -0.23684   1.04563
   0.28740  -0.23684   1.04563
   0.28740  -0.23684   1.04563
   0.28740  -0.23684   1.28563
   0.28740  -0.23684   1.04563
   0.04740  -0.23684   1.28563
   0.04740  -0.23684   1.28563
   0.04740  -0.23684   1.28563
   0.04740  -0.23684   1.52563
   0.04740  -0.23684   1.52563
   0.28740  -0.23684   1.52563
   0.28740  -0.23684   1.52563
   0.28740  -0.23684   1.52563
   0.28740  -0.23684   1.52563
   0.28740  -0.23684   1.52563
   0.28740  -0.23684   1.52563
   0.28740  -0.23684   1.52563
   0.28740  -0.23684   1.52563
   0.28740  -0.23684   1.52563
   0.52740  -0.23684   1.28563
   0.52740  -0.23684   1.28563
   0.52740  -0.23684   1.28563
   0.52740  -0.23684   1.28563
   0.52740  -0.23684   1.04563
   0.76740  -0.23684   1.04563
   0.76740  -0.23684   1.04563
   0.76740  -0.23684   0.80563
   0.76740  -0.23684   0.80563
   0.76740  -0.23684   0.80563
   0.76740  -0.23684   0.56563
   0.76740  -0.47684   0.56563
   0.76740  -0.47684   0.32563
   0.76740  -0.47684   0.32563
   0.76740  -0.23684   0.32563
   0.76740  -0.47684   0.08563
   0.76740  -0.47684   0.08563
   0.76740  -0.47684  -0.15437
   0.76740  -0.47684  -0.15437
   0.52740  -0.47684  -0.39437
   0.52740  -0.47684  -0.39437
   0.52740  -0.23684  -0.39437
   0.52740  -0.47684  -0.63437
   0.28740  -0.23684  -0.63437
   0.28740  -0.47684  -0.87437
   0.28740  -0.23684  -0.87437
   0.04740  -0.23684  -0.87437
   0.04740  -0.23684  -0.87437
   0.04740  -0.23684  -1.11437
  -0.19260  -0.23684  -1.11437
  -0.19260  -0.23684  -1.11437
  -0.19260  -0.23684  -1.11437
  -0.43260  -0.23684  -1.11437
  -0.67260   0.00316  -1.11437
  -0.67260   0.00316  -1.11437
  -0.67260  -0.23684  -1.11437
  -0.67260   0.00316  -1.11437
  -0.91260   0.00316  -1.11437
  -0.67260   0.00316  -1.11437
  -0.91260   0.00316  -1.11437
  -1.15260   0.24316  -1.11437
  -1.15260   0.00316  -1.11437
  -1.15260   0.24316  -1.11437
  -1.15260   0.00316  -1.11437
  -1.39260   0.00316  -0.87437
  -1.39260   0.00316  -0.87437
  -1.63260   0.24316  -0.87437
  -1.63260   0.24316  -0.87437
  -1.87260   0.24316  -0.87437
  -1.87260   0.24316  -1.11437
  -1.87260   0.24316  -0.87437
  -2.11260   0.24316  -0.63437
  -2.11260   0.24316  -0.63437
  -2.11260   0.24316  -0.63437
  -2.11260   0.48316  -0.63437
  -2.35260   0.48316  -0.63437
  -2.35260   0.48316  -0.39437
  -2.35260   0.48316  -0.39437
  -2.11260   0.48316  -0.39437
  -2.35260   0.72316  -0.39437
  -2.35260   0.48316  -0.39437
  -2.35260   0.48316  -0.15437
  -2.35260   0.48316  -0.15437
  -2.11260   0.48316  -0.15437
  -2.11260   0.48316  -0.15437
  -2.11260   0.48316  -0.39437
  -2.11260   0.48316  -0.15437
  -2.11260   0.72316  -0.15437
  -1.87260   0.72316  -0.15437
  -1.87260   0.72316  -0.15437
  -1.87260   0.48316  -0.15437
  -1.63260   0.72316  -0.15437
  -1.63260   0.48316  -0.15437
  -1.63260   0.48316  -0.39437
  -1.39260   0.48316  -0.15437
  -1.15260   0.48316  -0.39437
  -1.15260   0.48316  -0.15437
  -1.15260   0.48316  -0.15437
  -0.91260   0.24316  -0.39437
  -0.91260   0.24316  -0.39437
  -0.91260   0.24316  -0.39437
  -0.67260   0.24316  -0.39437
  -0.67260   0.24316  -0.39437
  -0.67260   0.00316  -0.39437
  -0.67260   0.00316  -0.39437
  -0.43260   0.00316  -0.39437
  -0.19260  -0.23684  -0.39437
  -0.19260  -0.23684  -0.39437
  -0.19260  -0.23684  -0.63437
   0.04740  -0.23684  -0.63437
   0.04740  -0.23684  -0.39437
   0.04740  -0.47684  -0.39437
   0.28740  -0.47684  -0.63437
   0.28740  -0.47684  -0.63437
   0.28740  -0.47684  -0.63437
   0.28740  -0.47684  -0.63437
   0.76740  -0.47684  -0.63437
   0.76740  -0.47684  -0.63437
   0.76740  -0.47684  -0.39437
   0.76740  -0.23684  -0.63437
   0.76740  -0.23684  -0.39437
   1.00740  -0.23684  -0.39437
   1.00740  -0.23684  -0.39437
   1.00740  -0.23684  -0.39437
   1.24740  -0.23684  -0.63437
   1.24740  -0.23684  -0.63437
   1.24740  -0.23684  -0.39437
   1.24740  -0.23684  -0.63437
   1.24740  -0.47684  -0.39437
   1.24740  -0.71684  -0.63437
   1.24740  -0.23684  -0.39437
   1.48740  -0.47684  -0.39437
   1.48740  -0.47684  -0.39437
   1.48740  -0.47684  -0.63437
   1.48740  -0.47684  -0.39437
   1.24740  -0.47684  -0.39437
   1.24740  -0.47684  -0.15437
   1.24740  -0.47684  -0.15437
   1.24740  -0.47684  -0.15437
   1.24740  -0.71684  -0.15437
   1.24740  -0.47684  -0.15437
   1.24740  -0.47684  -0.15437
   1.24740  -0.47684  -0.15437
   1.24740  -0.47684  -0.15437
   1.24740  -0.47684  -0.15437
   1.24740  -0.47684  -0.15437
   1.24740  -0.23684   0.08563
   1.00740  -0.23684   0.08563
   1.00740  -0.23684   0.08563
   1.00740  -0.23684   0.08563
   1.00740  -0.23684   0.08563
   1.00740  -0.23684   0.08563
   1.00740  -0.23684   0.08563
   1.00740  -0.23684   0.08563
   1.00740  -0.23684   0.08563
   0.76740   0.00316   0.08563
   0.76740   0.00316   0.08563
   0.76740   0.00316   0.08563
   0.76740   0.00316   0.08563
   0.76740   0.00316   0.08563
   0.76740   0.00316   0.08563
   0.76740   0.00316   0.08563
   0.76740   0.00316  -0.15437
   0.52740  -0.23684  -0.15437
   0.52740   0.00316  -0.15437
   0.52740   0.00316  -0.15437
   0.52740   0.00316  -0.39437
   0.28740  -0.23684  -0.39437
   0.28740  -0.23684  -0.39437
   0.28740   0.00316  -0.63437
   0.28740   0.00316  -0.63437
   0.04740   0.00316  -0.63437
   0.04740   0.00316  -0.63437
   0.04740   0.00316  -0.87437
   0.04740   0.00316  -0.87437
  -0.19260   0.00316  -1.11437
  -0.19260   0.00316  -1.11437
  -0.19260   0.00316  -1.11437
  -0.19260   0.00316  -1.11437
  -0.43260   0.00316  -1.35437
  -0.43260   0.24316  -1.35437
  -0.67260   0.24316  -1.35437
  -0.67260   0.24316  -1.35437
  -0.67260   0.48316  -1.35437
  -0.67260   0.48316  -1.35437
  -0.67260   0.48316  -1.35437
  -0.67260   0.48316  -1.35437
  -0.67260   0.48316  -1.35437
  -0.67260   0.48316  -1.11437
  -0.67260   0.48316  -1.11437
  -0.91260   0.48316  -1.11437
  -0.91260   0.48316  -0.87437
  -0.67260   0.48316  -0.87437
  -0.91260   0.48316  -0.63437
  -0.91260   0.48316  -0.63437
  -0.91260   0.48316  -0.39437
  -0.91260   0.48316  -0.39437
  -0.91260   0.48316  -0.15437
  -0.91260   0.48316  -0.15437
  -0.91260   0.48316   0.08563
  -0.91260   0.48316   0.08563
  -0.91260   0.48316   0.08563
  -0.91260   0.48316   0.08563
  -0.91260   0.48316   0.56563
  -0.91260   0.48316   0.56563
  -0.91260   0.48316   0.56563
  -0.91260   0.48316   0.80563
  -0.91260   0.48316   0.80563
  -0.91260   0.48316   1.04563
  -0.67260   0.48316   1.04563
  -0.67260   0.48316   1.28563
  -0.67260   0.48316   1.28563
  -0.67260   0.48316   1.28563
  -0.67260   0.48316   1.28563
  -0.67260   0.48316   1.28563
  -0.67260   0.48316   1.28563
  -0.67260   0.48316   1.28563
  -0.67260   0.24316   1.28563
  -0.43260   0.24316   1.28563
  -0.43260   0.24316   1.28563
  -0.43260   0.24316   1.28563
  -0.43260   0.24316   1.28563
  -0.19260   0.24316   1.04563
  -0.19260   0.24316   1.04563
  -0.19260   0.24316   1.04563
  -0.19260   0.00316   1.04563
