********************************************************************************
               CENTRO DE INSTRUMENTACION Y REGISTRO SISMICO  A.C.  
                       Coordinacion de Servicios Tecnicos
     Anaxagoras 814, Col. Narvarte, Benito Juarez, C.P. 03020 Mexico, D.F.
            Tels. 667 45 42/ 687 45  82             Fax. 669 25 12
********************************************************************************
ARCHIVO ESTANDAR DE ACELERACION:
VERSION DEL FORMATO                    : 2.0
NOMBRE DEL ARCHIVO                     : AL019607.181
FECHA Y HORA DE CREACION               : 27/MAR/98, 3:55
REF. CATALOGO ACELEROGRAMAS, SMIS 1996 : REGISTRO No.     /PAG.


================================================================================
DATOS DE LA ESTACION:
NOMBRE DE LA ESTACION                  : ALAMEDA
CLAVE DE LA ESTACION                   : AL01
LOCALIZACION DE LA ESTACION            : JARDIN ALAMEDA ENTRE AV. HIDALGO Y AV.
                                       : JUAREZ, CENTRO
                                       :
                                       :
                                       :
COORDENADAS DE LA ESTACION             : 19.436 LAT. N 
                                       : 99.145 LONG. W 
ALTITUD (msnm)                         : 2232
TIPO DE SUELO                          : TERRENO BLANDO, MATERIAL COMPRESIBLE
                                       : (ARCILLAS)
                                       : 
INSTITUCION RESPONSABLE                : CIRES 
                                       :

================================================================================
DATOS DEL ACELEROGRAFO:
MODELO DEL ACELEROGRAFO                : SSA-1
NUMERO DE SERIE DEL ACELEROGRAFO       : 152
NUMERO DE CANALES                      : 3
ORIENTACION C1-C6 (rumbo;orientacion)  : /N00E/+V/N90E
ORIENTACION C7-C12 (rumbo;orientacion) :
VEL. DE MUESTREO, C1-C6 (muestras/s)   : /200/200/200
VEL. DE MUESTREO, C7-C12 (muestras/s)  :
ESC. COMPLETA DE SENSORES, C1-C6, (g)  : /2/2/2
ESC. COMPLETA DE SENSORES, C7-C12, (g) :
FREC. NAT. DE SENSORES, C1-C6, (Hz)    : /51.29/51.09/53.75
FREC. NAT. DE SENSORES, C7-C12, (Hz)   :
AMORTIGUAMIENTO DE SENSORES, C1-C6     : /0.5519/0.5670/0.5810
AMORTIGUAMIENTO DE SENSORES, C7-C12    :
INTERVALO DE MUESTREO, C1-C6, (s)      : /0.005/0.005/0.005
INTERVALO DE MUESTREO, C7-C12, (s)     : 
UMBRAL DE DISPARO, C1-C6, (Gal)        : /2/1.5/2
UMBRAL DE DISPARO, C7-C12, (Gal)       :
MEMORIA DE PREEVENTO (s)               : 15
TIEMPO DE POSEVENTO (s)                : 60


================================================================================
DATOS DEL SISMO:
FECHA DEL SISMO (GMT)                  : 18/JUL/96
HORA EPICENTRO (GMT)                   : 08:16:46,7
MAGNITUD(ES)                           : /Mb=4.9/Ms=4.7/Mc=5.1
COORDENADAS DEL EPICENTRO              : 17.540 LAT. N
                                       : 101.200 LONG. W
PROFUNDIDAD FOCAL (km)                 : 20
FUENTE DE LOS DATOS EPICENTRALES       : SSN
                                       : INSTITUTO DE GEOFISICA, UNAM

================================================================================
DATOS DE ESTE REGISTRO:
HORA DE LA PRIMERA MUESTRA (GMT)       : 08:18:15.00
EXACTITUD DEL TIEMPO (s)               :     
DURACION DEL REGISTRO (s), C1-C6       : /83.20/83.20/83.20
DURACION DEL REGISTRO (s), C7-C12      :
NUM. TOTAL DE MUESTRAS, C1-C6          : /16640/16640/16640
NUM. TOTAL DE MUESTRAS, C7-C12         :
ACEL. MAX. (Gal), C1-C6                : /2.41881/1.11681/2.41450
ACEL. MAX., C1-C6, EN LA MUESTRA       :
ACEL. MAX. (Gal), C7-C12               :
ACEL. MAX., C7-C12, EN LA MUESTRA      :
UNIDADES DE LOS DATOS                  : Gal (cm/s/s)
FACTOR DE DECIMACION                   : 1
FORMATO DATOS (FORTRAN,10 campos/dato) : 3F10.5


================================================================================
CALIDAD DEL ACELEROGRAMA:
REGISTRO DIGITAL COMPLETO, CARECE DE TIEMPO ABSOLUTO.


================================================================================
COMENTARIOS:














================================================================================
DATOS DE ACELERACION:
---------+---------+---------+---------+---------+---------+---------+---------+
   CANAL-1   CANAL-2   CANAL-3   CANAL-4   CANAL-5   CANAL-6   CANAL-7   CANAL-8
      N00E        +V      N90E
---------+---------+---------+---------+---------+---------+---------+---------+
[...]
   1.45881  -0.56319   1.45450
   1.45881  -0.56319   1.45450
   1.69881  -0.56319   1.21450
   1.69881  -0.56319   1.21450
   1.93881  -0.56319   1.21450
   1.93881  -0.56319   1.21450
   1.93881  -0.56319   1.21450
   1.93881  -0.56319   0.97450
   2.17881  -0.56319   0.97450
   2.17881  -0.56319   0.97450
   2.17881  -0.56319   0.97450
   2.17881  -0.56319   0.97450
   2.17881  -0.56319   0.97450
   2.17881  -0.56319   0.97450
   2.17881  -0.56319   0.73450
   2.17881  -0.56319   0.73450
   2.17881  -0.56319   0.73450
   2.17881  -0.56319   0.73450
   2.17881  -0.56319   0.73450
   2.17881  -0.56319   0.73450
   2.17881  -0.56319   0.73450
   2.17881  -0.56319   0.73450
   2.17881  -0.32319   0.49450
   2.17881  -0.32319   0.49450
   2.17881  -0.32319   0.49450
   1.93881  -0.32319   0.49450
   1.93881  -0.32319   0.49450
   1.93881  -0.32319   0.49450
   1.69881  -0.08319   0.49450
   1.69881  -0.08319   0.49450
   1.69881  -0.08319   0.49450
   1.45881  -0.08319   0.49450
   1.45881  -0.08319   0.49450
   1.21881  -0.08319   0.49450
   1.21881   0.15681   0.49450
   1.21881   0.15681   0.49450
   0.97881   0.15681   0.49450
   0.97881   0.15681   0.49450
   0.73881   0.39681   0.49450
   0.73881   0.39681   0.49450
   0.73881   0.39681   0.49450
   0.50881   0.39681   0.49450
   0.50881   0.39681   0.49450
   0.26881   0.39681   0.49450
   0.26881   0.39681   0.49450
   0.02881   0.63681   0.49450
   0.02881   0.63681   0.49450
  -0.21119   0.63681   0.49450
  -0.21119   0.63681   0.49450
  -0.21119   0.63681   0.49450
  -0.21119   0.63681   0.49450
  -0.45119   0.87681   0.49450
  -0.45119   0.87681   0.49450
  -0.69119   0.87681   0.49450
  -0.69119   0.87681   0.25450
  -0.69119   0.87681   0.25450
  -0.69119   0.87681   0.25450
  -0.93119   0.87681   0.25450
  -0.93119   0.87681   0.25450
  -0.93119   0.87681   0.25450
  -0.93119   0.87681   0.01450
  -1.17119   0.87681   0.01450
  -1.17119   1.11681   0.01450
  -1.17119   1.11681   0.01450
  -1.17119   1.11681  -0.22550
  -1.17119   1.11681  -0.22550
  -1.17119   1.11681  -0.22550
  -1.17119   1.11681  -0.22550
  -1.17119   1.11681  -0.46550
  -1.17119   1.11681  -0.46550
  -1.17119   1.11681  -0.46550
  -1.17119   1.11681  -0.70550
  -1.17119   1.11681  -0.70550
  -1.17119   1.11681  -0.70550
  -1.17119   0.87681  -0.70550
  -1.17119   0.87681  -0.94550
  -1.17119   0.87681  -0.94550
  -1.17119   0.87681  -0.94550
  -1.17119   0.87681  -0.94550
  -1.17119   0.87681  -0.94550
  -1.17119   0.87681  -0.94550
  -1.17119   0.87681  -1.18550
  -0.93119   0.63681  -0.94550
  -1.17119   0.63681  -0.94550
  -0.93119   0.63681  -0.94550
  -0.93119   0.63681  -0.94550
  -0.93119   0.39681  -0.94550
  -0.93119   0.15681  -0.94550
  -0.93119   0.39681  -0.94550
  -0.93119   0.15681  -0.94550
  -0.69119   0.15681  -0.94550
  -0.69119   0.15681  -0.94550
  -0.69119   0.15681  -0.94550
  -0.69119   0.15681  -0.70550
  -0.69119  -0.08319  -0.70550
  -0.45119  -0.08319  -0.70550
  -0.45119  -0.08319  -0.70550
  -0.45119  -0.08319  -0.70550
  -0.21119  -0.08319  -0.46550
  -0.21119  -0.08319  -0.46550
  -0.21119  -0.08319  -0.46550
  -0.21119  -0.08319  -0.46550
  -0.21119  -0.32319  -0.46550
  -0.21119  -0.32319  -0.46550
  -0.21119  -0.32319  -0.22550
   0.02881  -0.32319  -0.22550
   0.02881  -0.32319  -0.22550
   0.02881  -0.32319   0.01450
   0.02881  -0.32319   0.01450
   0.02881  -0.32319   0.01450
   0.02881  -0.32319   0.01450
   0.02881  -0.32319   0.01450
   0.02881  -0.32319   0.25450
   0.02881  -0.32319   0.25450
   0.02881  -0.32319   0.25450
   0.02881  -0.32319   0.25450
   0.26881  -0.32319   0.25450
   0.02881  -0.32319   0.49450
   0.02881  -0.56319   0.49450
   0.26881  -0.32319   0.49450
   0.26881  -0.32319   0.49450
   0.26881  -0.56319   0.49450
   0.26881  -0.56319   0.49450
   0.26881  -0.56319   0.49450
   0.26881  -0.56319   0.49450
   0.26881  -0.56319   0.49450
   0.26881  -0.56319   0.49450
   0.26881  -0.56319   0.49450
   0.26881  -0.56319   0.49450
   0.50881  -0.56319   0.49450
   0.26881  -0.56319   0.49450
   0.26881  -0.56319   0.49450
   0.50881  -0.56319   0.49450
   0.26881  -0.56319   0.49450
   0.50881  -0.56319   0.49450
   0.26881  -0.56319   0.25450
   0.26881  -0.56319   0.25450
   0.26881  -0.56319   0.25450
   0.26881  -0.56319   0.25450
   0.26881  -0.56319   0.25450
   0.26881  -0.56319   0.01450
   0.26881  -0.80319   0.01450
   0.26881  -0.80319   0.01450
   0.26881  -0.80319   0.01450
   0.26881  -0.80319  -0.22550
   0.26881  -0.80319  -0.22550
   0.26881  -0.80319  -0.22550
   0.26881  -0.80319  -0.46550
   0.26881  -0.80319  -0.46550
   0.26881  -0.80319  -0.46550
   0.26881  -0.80319  -0.46550
   0.26881  -0.80319  -0.46550
   0.02881  -0.80319  -0.70550
   0.02881  -0.80319  -0.70550
   0.02881  -0.80319  -0.70550
   0.02881  -0.80319  -0.70550
   0.02881  -0.80319  -0.70550
   0.02881  -0.80319  -0.70550
   0.02881  -1.04319  -0.94550
  -0.21119  -0.80319  -0.94550
  -0.21119  -0.80319  -0.94550
  -0.21119  -1.04319  -0.94550
  -0.21119  -1.04319  -1.18550
  -0.21119  -1.04319  -0.94550
  -0.21119  -1.04319  -0.94550
  -0.21119  -1.04319  -0.94550
  -0.45119  -0.80319  -0.94550
  -0.45119  -0.80319  -0.94550
  -0.45119  -0.80319  -0.94550
  -0.45119  -0.80319  -0.94550
  -0.45119  -0.80319  -0.94550
  -0.45119  -0.80319  -0.94550
  -0.45119  -0.80319  -0.70550
  -0.69119  -0.80319  -0.70550
  -0.45119  -0.80319  -0.70550
  -0.69119  -0.80319  -0.70550
  -0.69119  -0.80319  -0.46550
  -0.69119  -0.80319  -0.46550
  -0.69119  -0.56319  -0.46550
  -0.69119  -0.56319  -0.22550
  -0.69119  -0.56319  -0.22550
  -0.69119  -0.56319  -0.22550
  -0.69119  -0.56319   0.01450
  -0.69119  -0.32319   0.01450
  -0.69119  -0.32319   0.01450
  -0.69119  -0.32319   0.25450
  -0.69119  -0.08319   0.25450
  -0.69119  -0.08319   0.25450
  -0.69119  -0.08319   0.49450
  -0.69119  -0.08319   0.49450
  -0.69119  -0.08319   0.49450
  -0.69119   0.15681   0.49450
  -0.69119   0.15681   0.73450
  -0.69119   0.15681   0.73450
  -0.69119   0.15681   0.97450
  -0.69119   0.15681   0.97450
  -0.69119   0.39681   0.97450
  -0.69119   0.39681   0.97450
  -0.69119   0.39681   1.21450
  -0.69119   0.39681   1.21450
  -0.69119   0.63681   1.21450
  -0.69119   0.63681   1.21450
  -0.69119   0.63681   1.45450
  -0.69119   0.63681   1.45450
  -0.69119   0.63681   1.45450
  -0.45119   0.87681   1.45450
  -0.69119   0.87681   1.45450
  -0.69119   0.87681   1.45450
  -0.45119   0.87681   1.45450
  -0.45119   0.87681   1.45450
  -0.69119   0.87681   1.45450
  -0.45119   0.87681   1.45450
  -0.45119   0.87681   1.21450
  -0.45119   1.11681   1.21450
  -0.45119   1.11681   1.21450
  -0.45119   1.11681   1.21450
  -0.45119   1.11681   1.21450
  -0.45119   1.11681   0.97450
  -0.45119   1.11681   0.97450
  -0.45119   1.11681   0.97450
  -0.45119   1.11681   0.97450
  -0.45119   0.87681   0.73450
  -0.45119   1.11681   0.73450
  -0.45119   1.11681   0.73450
  -0.45119   1.11681   0.49450
  -0.21119   1.11681   0.49450
  -0.45119   1.11681   0.49450
  -0.21119   1.11681   0.49450
  -0.21119   1.11681   0.49450
  -0.21119   0.87681   0.25450
  -0.21119   0.87681   0.25450
   0.02881   0.87681   0.25450
   0.02881   0.87681   0.01450
   0.02881   0.87681   0.01450
   0.26881   0.87681   0.01450
   0.26881   0.87681   0.01450
   0.26881   0.87681  -0.22550
   0.26881   0.87681  -0.22550
   0.26881   0.63681  -0.22550
   0.26881   0.63681  -0.22550
   0.50881   0.63681  -0.46550
   0.50881   0.63681  -0.46550
   0.50881   0.63681  -0.46550
   0.50881   0.63681  -0.46550
   0.73881   0.39681  -0.46550
   0.73881   0.39681  -0.46550
   0.73881   0.39681  -0.46550
   0.73881   0.39681  -0.70550
   0.97881   0.39681  -0.70550
   0.97881   0.39681  -0.70550
   0.97881   0.39681  -0.70550
   0.97881   0.39681  -0.70550
   0.97881   0.15681  -0.70550
   0.97881   0.39681  -0.70550
   1.21881   0.39681  -0.70550
   1.21881   0.39681  -0.70550
   1.21881   0.39681  -0.70550
   1.21881   0.39681  -0.70550
   1.45881   0.39681  -0.70550
   1.45881   0.15681  -0.70550
   1.45881   0.15681  -0.70550
   1.45881   0.15681  -0.70550
   1.45881   0.15681  -0.70550
   1.45881   0.15681  -0.46550
   1.45881   0.15681  -0.46550
   1.45881   0.15681  -0.46550
   1.45881   0.15681  -0.46550
   1.45881   0.15681  -0.46550
   1.21881   0.15681  -0.46550
   1.21881   0.15681  -0.46550
   1.21881  -0.08319  -0.46550
   1.21881  -0.08319  -0.46550
   0.97881  -0.08319  -0.46550
   0.97881  -0.08319  -0.46550
   0.97881  -0.08319  -0.46550
   0.73881  -0.08319  -0.46550
   0.73881  -0.08319  -0.46550
   0.73881  -0.08319  -0.22550
   0.50881  -0.08319  -0.46550
   0.50881  -0.08319  -0.46550
   0.26881  -0.08319  -0.46550
   0.26881  -0.08319  -0.46550
   0.26881  -0.08319  -0.46550
   0.02881  -0.32319  -0.46550
  -0.21119  -0.32319  -0.46550
  -0.21119  -0.32319  -0.46550
  -0.21119  -0.32319  -0.46550
  -0.45119  -0.32319  -0.46550
  -0.45119  -0.56319  -0.46550
  -0.45119  -0.56319  -0.46550
  -0.69119  -0.56319  -0.46550
  -0.69119  -0.56319  -0.46550
  -0.69119  -0.56319  -0.46550
  -0.69119  -0.56319  -0.70550
  -0.69119  -0.56319  -0.46550
  -0.93119  -0.56319  -0.70550
  -0.93119  -0.56319  -0.70550
  -0.93119  -0.56319  -0.70550
  -0.93119  -0.56319  -0.70550
  -0.93119  -0.56319  -0.70550
  -0.93119  -0.56319  -0.70550
  -0.93119  -0.56319  -0.70550
  -0.93119  -0.80319  -0.70550
  -0.93119  -0.56319  -0.70550
  -0.93119  -0.56319  -0.70550
  -0.93119  -0.80319  -0.70550
  -0.93119  -0.80319  -0.70550
  -0.93119  -0.80319  -0.70550
  -0.69119  -0.80319  -0.46550
  -0.69119  -0.80319  -0.46550
  -0.69119  -0.80319  -0.46550
  -0.69119  -0.80319  -0.46550
  -0.69119  -0.80319  -0.46550
  -0.45119  -0.80319  -0.22550
  -0.45119  -0.80319  -0.22550
  -0.21119  -0.56319  -0.22550
  -0.21119  -0.56319  -0.22550
  -0.21119  -0.56319   0.01450
   0.02881  -0.56319   0.01450
   0.02881  -0.56319   0.01450
   0.26881  -0.56319   0.25450
   0.26881  -0.56319   0.25450
   0.26881  -0.56319   0.25450
   0.50881  -0.56319   0.49450
   0.50881  -0.56319   0.49450
   0.50881  -0.32319   0.49450
   0.50881  -0.32319   0.73450
   0.50881  -0.32319   0.73450
   0.73881  -0.32319   0.97450
   0.73881  -0.08319   0.97450
   0.73881  -0.32319   0.97450
   0.73881  -0.08319   1.21450
   0.73881  -0.08319   1.21450
   0.97881  -0.08319   1.45450
   0.73881  -0.08319   1.45450
   0.97881   0.15681   1.69450
   0.97881   0.15681   1.69450
   0.97881   0.15681   1.69450
   0.97881   0.15681   1.93450
   0.97881   0.39681   1.93450
   0.73881   0.39681   1.93450
   0.97881   0.39681   1.93450
   0.73881   0.15681   2.17450
   0.73881   0.15681   2.17450
   0.73881   0.15681   2.17450
   0.73881   0.15681   2.17450
   0.50881   0.15681   2.17450
   0.50881   0.15681   2.17450
   0.50881   0.39681   2.41450
   0.50881   0.39681   2.17450
   0.26881   0.39681   2.41450
   0.26881   0.39681   2.17450
   0.26881   0.39681   2.17450
   0.26881   0.39681   2.17450
   0.02881   0.39681   2.17450
   0.02881   0.39681   2.17450
   0.02881   0.63681   2.17450
  -0.21119   0.63681   1.93450
  -0.21119   0.63681   1.93450
  -0.21119   0.63681   1.93450
  -0.45119   0.63681   1.69450
  -0.45119   0.63681   1.69450
  -0.45119   0.63681   1.45450
  -0.45119   0.63681   1.45450
  -0.45119   0.63681   1.45450
  -0.45119   0.87681   1.21450
  -0.69119   0.87681   1.21450
  -0.45119   0.87681   0.97450
  -0.69119   0.87681   0.97450
  -0.69119   0.87681   0.73450
  -0.69119   0.87681   0.73450
  -0.69119   0.87681   0.49450
  -0.69119   0.87681   0.49450
  -0.69119   0.87681   0.25450
  -0.69119   0.63681   0.01450
  -0.69119   0.63681   0.01450
  -0.69119   0.63681  -0.22550
  -0.69119   0.39681  -0.22550
  -0.45119   0.39681  -0.46550
  -0.45119   0.39681  -0.46550
  -0.45119   0.39681  -0.70550
  -0.45119   0.39681  -0.70550
  -0.45119   0.39681  -0.94550
  -0.45119   0.39681  -0.94550
  -0.45119   0.39681  -0.94550
  -0.21119   0.39681  -1.18550
  -0.21119   0.39681  -1.18550
  -0.21119   0.15681  -1.18550
  -0.21119   0.15681  -1.42550
  -0.21119   0.15681  -1.42550
  -0.21119   0.15681  -1.66550
  -0.21119   0.15681  -1.66550
   0.02881   0.15681  -1.66550
   0.02881   0.15681  -1.66550
   0.02881  -0.08319  -1.89550
   0.02881  -0.08319  -1.89550
   0.26881  -0.08319  -1.89550
   0.26881  -0.08319  -2.13550
   0.26881  -0.08319  -2.13550
   0.50881  -0.32319  -2.13550
   0.50881  -0.32319  -2.13550
   0.50881  -0.32319  -2.13550
   0.50881  -0.32319  -2.13550
   0.50881  -0.32319  -2.13550
   0.73881  -0.56319  -2.13550
   0.73881  -0.56319  -2.13550
   0.73881  -0.56319  -2.13550
   0.73881  -0.56319  -2.13550
   0.73881  -0.56319  -2.13550
   0.73881  -0.56319  -2.13550
   0.73881  -0.56319  -2.13550
   0.73881  -0.56319  -2.13550
   0.73881  -0.56319  -2.13550
   0.73881  -0.56319  -2.13550
   0.73881  -0.56319  -1.89550
   0.73881  -0.56319  -1.89550
   0.73881  -0.80319  -1.89550
   0.73881  -0.80319  -1.89550
   0.50881  -0.80319  -1.89550
   0.50881  -0.80319  -1.89550
   0.50881  -0.80319  -1.66550
   0.26881  -0.80319  -1.66550
   0.26881  -0.80319  -1.66550
   0.26881  -0.80319  -1.42550
   0.26881  -1.04319  -1.42550
   0.02881  -1.04319  -1.42550
   0.02881  -1.04319  -1.42550
   0.02881  -0.80319  -1.18550
  -0.21119  -0.80319  -1.18550
  -0.21119  -0.80319  -0.94550
  -0.21119  -0.80319  -0.94550
  -0.45119  -0.80319  -0.94550
  -0.45119  -0.80319  -0.94550
  -0.45119  -0.80319  -0.70550
  -0.69119  -0.80319  -0.70550
  -0.69119  -0.56319  -0.46550
  -0.69119  -0.56319  -0.46550
  -0.93119  -0.56319  -0.46550
  -0.93119  -0.56319  -0.22550
  -0.93119  -0.56319  -0.22550
  -1.17119  -0.56319  -0.22550
  -1.17119  -0.56319   0.01450
  -1.17119  -0.56319   0.01450
  -1.41119  -0.32319   0.01450
  -1.41119  -0.32319   0.01450
  -1.41119  -0.32319   0.01450
  -1.41119  -0.32319   0.25450
  -1.41119  -0.32319   0.25450
  -1.41119  -0.08319   0.25450
  -1.41119  -0.32319   0.49450
  -1.41119  -0.08319   0.49450
  -1.41119  -0.08319   0.49450
  -1.41119  -0.08319   0.49450
  -1.41119  -0.08319   0.49450
  -1.41119  -0.08319   0.49450
  -1.41119  -0.08319   0.49450
  -1.41119  -0.08319   0.49450
  -1.41119  -0.08319   0.49450
  -1.41119   0.15681   0.49450
  -1.41119   0.15681   0.49450
  -1.17119   0.15681   0.49450
  -1.17119   0.15681   0.49450
  -1.17119   0.15681   0.49450
  -1.17119   0.15681   0.49450
  -1.17119   0.15681   0.49450
  -0.93119   0.15681   0.49450
  -0.93119   0.39681   0.49450
  -0.93119   0.39681   0.49450
  -0.69119   0.39681   0.49450
  -0.69119   0.39681   0.49450
  -0.69119   0.39681   0.49450
  -0.69119   0.39681   0.49450
  -0.69119   0.39681   0.49450
  -0.45119   0.39681   0.49450
  -0.45119   0.39681   0.49450
  -0.45119   0.39681   0.49450
  -0.21119   0.39681   0.25450
  -0.21119   0.63681   0.25450
  -0.21119   0.63681   0.25450
   0.02881   0.63681   0.25450
   0.02881   0.63681   0.25450
   0.02881   0.63681   0.25450
   0.02881   0.63681   0.25450
   0.26881   0.63681   0.25450
   0.26881   0.63681   0.01450
   0.26881   0.63681   0.01450
   0.26881   0.63681   0.01450
   0.26881   0.63681   0.25450
   0.26881   0.63681   0.01450
   0.26881   0.87681   0.01450
   0.26881   0.87681   0.01450
   0.26881   0.87681   0.25450
   0.26881   0.87681   0.25450
   0.50881   0.87681   0.25450
   0.50881   0.87681   0.25450
   0.26881   0.87681   0.01450
   0.26881   0.87681   0.25450
   0.50881   0.87681   0.25450
   0.50881   0.87681   0.25450
