********************************************************************************
              CENTRO DE INSTRUMENTACION Y REGISTRO SISMICO  A.C.

    Anaxagoras 814, Col. Narvarte, Benito Juarez, C.P. 03020 Mexico, D.F.
           Tels. 5687 45 42/ 5687 45  82             Fax. 5669 25 12
********************************************************************************
ARCHIVO ESTANDAR DE ACELERACION:
VERSION DEL FORMATO                    : 2.0
NOMBRE DEL ARCHIVO                     : AL0120170919181440
FECHA Y HORA DE CREACION               : 09/FEB/18, 11:13
REF. CATALOGO ACELEROGRAMAS, SMIS 1996 : REGISTRO No.     /PAG.


================================================================================
DATOS DE LA ESTACION:
NOMBRE DE LA ESTACION                  : ALAMEDA
CLAVE DE LA ESTACION                   : AL01
LOCALIZACION DE LA ESTACION            : Del. Cuauhtémoc, Col. Centro,          
                                       : Dr. Mora entre Av. Hidalgo             
                                       : y Av. Juárez.                          
                                       :                                        
                                       : 
COORDENADAS DE LA ESTACION             : 19.4356 LAT. N
                                       : 99.1453 LONG. W
ALTITUD (msnm)                         : 2232
TIPO DE SUELO                          : Terreno blando, material compresible
                                       : (arcillas)                
                                       : 
INSTITUCION RESPONSABLE                : CIRES, A. C.
                                       : 

================================================================================
DATOS DEL ACELEROGRAFO:
MODELO DEL ACELEROGRAFO                : RAD_IO14
NUMERO DE SERIE DEL ACELEROGRAFO       : 
NUMERO DE CANALES                      : 3
ORIENTACION C1-C6 (rumbo;orientacion)  : /S00E/+V/N90W
ORIENTACION C7-C12 (rumbo;orientacion) : 
VEL. DE MUESTREO, C1-C6 (muestras/s)   : /100/100/100
VEL. DE MUESTREO, C7-C12 (muestras/s)  : 
ESC. COMPLETA DE SENSORES, C1-C6, (g)  : /2.0/2.0/2.0
ESC. COMPLETA DE SENSORES, C7-C12, (g) : 
FREC. NAT. DE SENSORES, C1-C6, (Hz)    : /51.29/51.09/53.75
FREC. NAT. DE SENSORES, C7-C12, (Hz)   : 
AMORTIGUAMIENTO DE SENSORES, C1-C6     : /0.5519/0.5670/0.5810
AMORTIGUAMIENTO DE SENSORES, C7-C12    : 
INTERVALO DE MUESTREO, C1-C6, (s)      : /0.01/0.01/0.01
INTERVALO DE MUESTREO, C7-C12, (s)     : 
UMBRAL DE DISPARO, C1-C6, (Gal)        : / / /
UMBRAL DE DISPARO, C7-C12, (Gal)       : 
MEMORIA DE PREEVENTO (s)               : 60
TIEMPO DE POSEVENTO (s)                : 90


================================================================================
DATOS DEL SISMO:
FECHA DEL SISMO (GMT)                  : 19/SEP/17
HORA EPICENTRO (GMT)                   : 18:14:40.0
MAGNITUD(ES)                           : /Mc=7.1
COORDENADAS DEL EPICENTRO              : 18.40 LAT. N
                                       : 98.72 LONG. W
PROFUNDIDAD FOCAL (km)                 : 57
FUENTE DE LOS DATOS EPICENTRALES       : SSN
                                       : INSTITUTO DE GEOFISICA, UNAM

================================================================================
DATOS DE ESTE REGISTRO:
HORA DE LA PRIMERA MUESTRA (GMT)       : 13:12:57.00
EXACTITUD DEL TIEMPO (s)               : 
DURACION DEL REGISTRO (s), C1-C6       : /329.01/329.01/329.01
DURACION DEL REGISTRO (s), C7-C12      : 
NUM. TOTAL DE MUESTRAS, C1-C6          : /32901/32901/32901
NUM. TOTAL DE MUESTRAS, C7-C12         : 
ACEL. MAX. (Gal), C1-C6                : /117.11544/40.19107/108.563
ACEL. MAX., C1-C6, EN LA MUESTRA       : /8430/8664/8702
ACEL. MAX. (Gal), C7-C12               : 
ACEL. MAX., C7-C12, EN LA MUESTRA      : 
UNIDADES DE LOS DATOS                  : Gal (cm/s/s)
FACTOR DE DECIMACION                   : 1
FORMATO DATOS (FORTRAN,10 campos/dato) : 3F10.5


================================================================================
CALIDAD DEL ACELEROGRAMA:
REGISTRO DIGITAL COMPLETO CON TIEMPO ABSOLUTO CORRECTO.


================================================================================
COMENTARIOS:














================================================================================
DATOS DE ACELERACION:
---------+---------+---------+---------+---------+---------+---------+---------+
   CANAL-1   CANAL-2   CANAL-3   CANAL-4   CANAL-5   CANAL-6   CANAL-7   CANAL-8
      N00E        +V      N90W
---------+---------+---------+---------+---------+---------+---------+---------+
[...]
 -23.78266   9.12647  -7.31580
 -19.65266  11.81987  -5.87930
 -14.68476  14.09437  -3.96390
  -9.23796  15.35137  -1.80910
  -3.67146  15.53087   0.16610
   1.65564  14.51337   1.48290
   6.68344  12.71777   1.90190
  11.23234   9.90457   1.96170
  15.30254   7.09137   2.02160
  19.01354   4.81687   2.50040
  22.12594   3.08107   3.75730
  24.99894   0.92637   5.55300
  27.33334  -2.84453   7.34860
  28.82964  -7.51313   8.48590
  29.42824 -11.16433   8.96470
  28.65014 -12.78043   9.02460
  26.31574 -12.84023   8.60560
  22.48504 -12.30153   7.88730
  17.51714 -11.10443   6.92960
  12.07034  -9.06943   6.09170
   6.44404  -5.89713   5.19390
   0.75784  -2.96423   4.17630
  -5.16786  -1.76713   2.91940
 -11.57226  -2.60513   1.48290
 -17.79716  -4.10143   0.22590
 -23.60306  -4.52043  -0.61200
 -28.39146  -3.92193  -1.09090
 -32.28206  -3.74233  -1.45000
 -34.79596  -4.93943  -1.74930
 -35.99306  -7.15403  -2.46750
 -36.23246  -9.12923  -3.12590
 -36.17256  -9.66793  -3.60480
 -35.93316  -8.59053  -3.72450
 -35.63386  -6.85473  -3.48510
 -34.85576  -4.93943  -3.30550
 -33.23966  -2.60513  -3.48510
 -30.78566   0.32777  -4.32300
 -27.85276   3.50007  -5.46030
 -24.68046   6.19357  -6.23840
 -21.26876   8.10887  -6.59750
 -18.09646   8.82717  -6.17850
 -15.64236   7.74977  -4.98140
 -14.08616   5.35557  -3.48510
 -13.12846   2.48257  -1.56970
 -12.58976   0.20807   0.82450
 -11.87156  -0.80943   3.27850
 -10.97376  -0.57003   5.61280
  -9.89636  -0.03133   7.28880
  -8.69926  -0.09123   8.30630
  -7.44226  -1.04883   8.90490
  -6.84376  -2.12623   8.84500
  -7.14306  -2.24593   8.36620
  -8.39996  -1.10873   7.64790
 -10.13576   0.92637   6.45080
 -11.75186   3.26067   4.47560
 -12.76936   4.99647   1.78210
 -13.18836   5.59497  -1.50990
 -13.30806   5.41547  -4.98140
 -13.12846   5.47527  -8.03400
 -13.00876   6.13367 -10.66760
 -13.00876   6.85197 -12.76260
 -12.35036   6.73227 -14.61810
 -10.79416   5.71477 -16.17430
  -8.22046   4.33807 -17.13200
  -4.38976   2.66217 -17.25170
   0.33884   1.04607 -16.53340
   4.94764   0.14827 -15.03700
   8.06004   0.38767 -13.12170
   9.13744   1.76427 -10.72750
   8.77834   3.08107  -8.09390
   8.06004   2.72197  -5.10120
   7.40164   0.26797  -1.56970
   6.68344  -3.14373   2.56030
   5.84544  -5.35843   6.92960
   4.94764  -6.43583  11.47860
   3.45124  -7.27373  16.38670
   0.87754  -8.23143  21.71380
  -1.27726  -9.18913  27.28030
  -1.93566  -9.96723  32.54750
  -1.69626  -9.96723  37.33590
  -2.35466  -8.94973  41.40600
  -4.26996  -7.75263  44.27900
  -6.90356  -7.51313  46.13450
  -9.83646  -7.93213  47.63090
 -12.52996  -7.87233  48.70830
 -14.56506  -6.91463  49.06740
 -15.82196  -5.35843  48.70830
 -16.95916  -3.86203  47.27170
 -18.27596  -3.14373  45.11700
 -19.83226  -2.66493  42.00450
 -21.56806  -1.46783  37.81470
 -23.06436   0.08837  32.72700
 -23.36366   0.98617  26.98100
 -22.22646   0.86647  20.93570
 -19.83226   0.20807  14.71080
 -16.60006  -0.39043   8.48590
 -13.18836  -1.16853   2.20110
 -10.43506  -1.82693  -4.02380
  -8.10066  -1.64743 -10.00920
  -5.76636   0.32777 -15.51590
  -3.37216   4.33807 -21.08240
  -1.21736   8.64757 -26.64890
   0.21914  12.17907 -32.03580
   1.05704  14.99217 -36.28550
   1.35634  17.02727 -39.03880
   1.17674  17.32657 -40.11620
   0.81764  15.65057 -40.05630
   0.63804  12.23887 -39.45780
   1.05704   8.28847 -38.61980
   1.59574   4.51767 -37.00370
   1.77534   1.46507 -34.43000
   1.59574  -0.80943 -30.71900
   1.53594  -2.60513 -26.46930
   2.19434  -3.80213 -22.33930
   3.93014  -4.40073 -19.04730
   6.02504  -4.46063 -16.77280
   8.17974  -4.46063 -15.21660
  10.57394  -4.34083 -13.72020
  12.90834  -4.40073 -11.98440
  15.42224  -4.40073 -10.24870
  18.11564  -3.86203  -8.93190
  20.80914  -2.30583  -8.03400
  23.26314  -0.27073  -7.13620
  25.17854   1.10587  -6.35810
  27.45304   1.40517  -5.63980
  30.08664   1.04607  -5.34060
  31.94214   0.38767  -5.63980
  32.54064  -0.39043  -6.35810
  32.06184  -1.34813  -7.55520
  31.16404  -1.22843  -8.75230
  29.84724   0.68697  -9.05160
  27.51284   3.73947  -8.45300
  23.80184   7.09137  -7.49530
  19.01354  10.44327  -6.53770
  14.52434  13.13667  -5.81940
  11.29224  14.75277  -5.10120
   9.07764  15.59077  -4.62230
   6.74324  14.63307  -4.38290
   2.67314  11.34107  -4.02380
  -3.25246   6.73227  -3.48510
 -10.19566   3.08107  -2.70700
 -15.40296   2.18327  -0.61200
 -17.31836   2.90157   2.62010
 -17.25846   2.96137   6.27120
 -16.71976   1.40517   9.38370
 -16.30076  -0.21093  11.23920
 -15.46286  -0.15103  11.83770
 -14.50516   0.98617  11.95740
 -13.36796   2.00377  11.05960
 -12.41026   2.60227   8.96470
 -11.39276   3.20087   5.97200
  -9.95616   4.57747   2.85950
  -7.92116   6.31327   0.22590
  -6.12546   6.55267  -1.62960
  -4.80866   5.05637  -2.46750
  -3.67146   2.60227  -2.82670
  -2.17506   0.32777  -3.12590
  -0.14006  -1.04883  -3.90410
   2.43374  -2.36563  -4.98140
   5.24694  -5.41823  -5.87930
   8.23964 -10.32633  -5.93910
  11.53164 -15.53373  -5.22090
  14.82364 -18.76583  -3.90410
  17.75654 -18.76583  -2.16830
  20.09084 -16.01253   0.04640
  22.24564 -12.12203   2.50040
  24.63984  -8.23143   4.95440
  27.39314  -4.75983   7.16910
  30.38594  -2.24593   8.84500
  33.07934  -0.98903   9.74280
  35.47354  -1.76713  10.10200
  37.56844  -4.87953  10.40120
  39.48384  -9.36863  10.58080
  41.39914 -13.61833  10.52090
  43.43424 -16.01253  10.04210
  45.46924 -16.13223   9.08440
  47.38464 -14.99503   7.52820
  49.00074 -14.09723   5.31360
  50.31754 -13.55853   2.62010
  50.91604 -12.54093   0.10620
  50.43724 -10.50593  -2.22810
  48.58174  -8.35113  -4.08360
  45.58904  -6.55553  -5.58000
  41.93784  -5.53793  -7.13620
  38.28674  -4.81973  -8.63260
  35.05454  -4.16133 -10.42820
  32.30124  -3.20363 -12.70270
  29.60774  -1.76713 -15.39620
  27.03404   0.02857 -18.44880
  24.46024   2.00377 -21.74080
  21.88654   3.02127 -25.09260
  19.85144   2.42267 -27.96570
  18.47484   0.74677 -29.94090
  17.93614  -0.98903 -30.24010
  18.41494  -1.94673 -28.86350
  19.37264  -1.64743 -26.11020
  20.56974  -0.21093 -22.45900
  21.76684   1.82417 -18.74800
  23.32304   4.21837 -15.69540
  25.71724   6.79207 -13.60050
  29.24864   8.88707 -12.46330
  33.85744   9.54547 -11.98440
  39.12464   8.88707 -12.28370
  44.57144   7.27097 -13.36110
  50.13794   4.93657 -15.03700
  55.04604   1.88407 -17.49110
  59.65484  -0.39043 -20.84290
  63.78484  -1.16853 -24.55390
  67.31624  -1.10873 -28.08540
  70.54844  -0.68973 -31.19780
  72.28424   0.92637 -33.65190
  72.52364   4.45777 -36.16580
  71.44624   8.46807 -38.02130
  68.33384  10.32357 -39.87680
  63.60524   9.36587 -41.85200
  57.79934   6.61257 -43.34830
  51.39494   3.50007 -44.60530
  44.45174   0.38767 -45.02430
  37.02974  -2.78463 -44.78480
  29.36834  -5.53793 -43.58770
  21.58724  -7.21393 -41.13370
  14.28494  -7.51313 -38.02130
   7.34184  -6.67523 -34.84900
   0.33884  -5.17883 -32.09560
  -6.30506  -3.14373 -29.94090
 -12.17086  -1.34813 -28.14520
 -16.71976  -0.09123 -26.34960
 -19.29356   0.56717 -24.13500
 -20.31106   0.68697 -20.60350
 -21.20886  -0.98903 -16.17430
 -20.73006  -4.64013 -11.14650
 -20.43076  -9.30883  -5.69970
 -20.67016 -13.07963  -0.43250
 -21.26876 -15.11473   4.95440
 -22.10676 -15.35413  10.28150
 -22.52566 -14.33663  15.48890
 -22.22646 -13.25923  20.99550
 -21.38846 -12.60083  26.68170
 -20.49066 -11.46363  32.36790
 -20.43076  -8.59053  37.63510
 -22.04686  -4.16133  42.42350
 -25.69796   0.38767  46.79290
 -31.14476   4.03877  50.44400
 -37.48936   6.73227  53.01780
 -43.83396   8.70747  54.09520
 -49.75956  10.02427  53.67620
 -55.20636  10.26367  52.35940
 -60.41376   9.72497  50.68350
 -66.09996   9.42567  48.82800
 -72.20516  10.44327  46.91260
 -78.54976  12.53817  44.57830
 -84.41546  14.63307  42.18410
 -89.80246  16.30897  39.67020
 -93.57326  17.92507  38.35340
 -96.32656  18.04477  36.31830
 -98.84046  17.86527  33.56500
-100.75586  17.68567  31.35040
-102.67116  16.60827  29.85400
-104.28726  14.93237  28.71680
-105.30476  13.37617  28.17810
-105.78366  12.05937  28.83650
-105.72376  10.08417  30.57230
-105.00556   6.67237  32.78690
-103.44926   1.94387  35.12120
-100.81566  -3.32333  37.51540
 -97.04486  -8.23143  39.67020
 -92.61556 -12.60083  41.10670
 -87.88706 -16.43153  41.82500
 -82.91916 -19.84323  42.06440
 -77.95116 -22.65643  41.82500
 -72.68396 -24.57173  41.40600
 -67.59636 -25.29003  40.50820
 -62.80796 -24.93093  38.95190
 -57.95966 -23.97323  36.67750
 -53.59026 -21.57903  33.62490
 -49.69976 -15.35413  29.73430
 -44.73176  -8.41103  25.06560
 -42.09816  -2.54523  19.49910
 -40.48216   2.66217  14.23190
 -39.34486   7.09137   9.08440
 -38.98576  10.98197   3.99680
 -39.76386  13.97467  -0.85150
 -41.55946  16.24917  -5.75960
 -43.95366  18.16447 -10.24870
 -46.46756  19.72077 -14.01950
 -49.04136  19.72077 -17.19180
 -51.43556  17.92507 -20.00500
 -53.94946  14.15427 -21.80060
 -56.58306   9.84467 -22.21960
 -59.33636   7.03157 -21.26190
 -62.44876   6.25337 -18.74800
 -65.68096   6.37317 -14.85750
 -68.85326   5.95417  -9.94940
 -71.48686   4.63737  -4.44280
 -73.16276   2.72197   1.36320
 -73.70146   0.80667   7.34860
 -73.22266  -0.51013  13.93270
 -71.90586  -1.22843  21.11520
 -69.87076  -0.98903  28.65690
 -67.11746   0.08837  36.19860
 -63.64586   1.16577  42.96220
 -59.27646   1.82417  48.22940
 -54.36846   2.60227  52.06010
 -49.10116   3.50007  54.81340
 -43.77416   4.21837  56.25000
 -38.50696   4.15847  56.54920
 -33.11996   2.84167  55.71130
 -27.37396   0.26797  53.79590
 -20.84976  -3.32333  51.16230
 -13.60736  -6.25623  47.93010
  -5.76636  -7.27373  44.57830
   2.43374  -7.03433  41.04680
  10.81344  -6.79493  37.21610
  18.65434  -7.27373  33.26570
  26.25594  -8.05183  29.61460
  33.73774  -8.82993  26.32260
  40.32174  -8.35113  23.62910
  46.72624  -6.43583  20.99550
  53.25044  -3.62263  18.36190
  59.59504  -0.80943  15.30930
  66.41844   0.86647  11.47860
  72.46374   0.38767   6.33110
  77.49154  -1.46783   1.42300
  81.80114  -4.93943  -2.82670
  84.49454  -8.59053  -6.41800
  86.11064 -10.38623  -7.97420
  86.40994  -9.84753  -7.19610
  85.57194  -8.47083  -5.16100
  84.01574  -7.27373  -3.30550
  82.27994  -6.67523  -1.21060
  81.32224  -6.67523   0.94420
  81.14274  -7.03433   2.97920
  81.08284  -7.75263   5.31360
  81.38214  -8.71023   8.06690
  82.10034  -9.24893  11.65820
  82.87854  -8.88983  16.08740
  83.53694  -7.39343  21.17510
  84.25514  -5.05913  26.20290
  86.23034  -2.54523  30.09340
  90.18074  -0.74963  32.54750
  95.50784   0.56717  33.98400
 101.37364   2.06357  33.86430
 106.94014   3.79937  32.18830
 111.36934   4.81687  29.37520
 114.54164   4.51767  25.78390
 116.63654   4.21837  21.71380
 117.11544   5.35557  16.98520
 115.49934   7.51037  10.93990
 111.24964   8.64757   3.75730
 104.78534   7.57027  -4.74200
  96.76484   5.11617 -14.01950
  88.08584   2.78187 -23.41670
  78.86824   1.28547 -32.27520
  68.69294   0.02857 -40.71470
  57.14094  -1.88683 -48.43600
  44.15244  -4.58033 -55.31930
  30.68514  -7.57303 -61.06530
  17.27774  -9.30883 -65.43470
   4.16954  -9.06943 -68.24790
  -8.34016  -6.19633 -69.08590
 -19.59286  -1.58753 -68.06830
 -28.98996   3.14097 -65.73400
 -36.23246   7.03157 -62.62160
 -41.20036   9.90457 -59.09010
 -44.55226  12.29877 -55.13970
 -46.94646  14.09437 -51.24920
 -48.50266  14.03457 -47.59800
 -49.63986  11.46077 -44.30600
 -49.40046   8.28847 -41.37310
 -47.78436   4.99647 -38.56000
 -45.62966   2.24317 -36.04610
 -42.15806   0.86647 -34.43000
 -37.54926   0.38767 -32.21530
 -31.26446  -0.39043 -30.65910
 -23.54326  -1.88683 -30.71900
 -15.28326  -3.68243 -31.01830
  -6.18536  -4.87953 -30.95840
   2.85274  -4.99923 -30.47960
  12.01044  -4.87953 -29.58170
  20.21054  -5.29853 -28.38460
  28.05154  -4.40073 -26.22990
  35.89254  -2.72483 -24.91310
  42.83564  -0.57003 -22.99770
  48.88104   2.42267 -21.32180
  54.14824   4.09867 -20.54370
  58.21834   3.85927 -20.60350
  61.03154   3.38037 -21.38160
  62.04904   4.33807 -22.21960
  60.67234   6.19357 -21.98020
  57.44024   7.92937 -20.18450
  53.13074   8.64757 -16.83270
  48.04304   8.22867 -12.58300
  42.53644   6.79207  -8.57270
  36.91004   4.57747  -5.87930
  31.10414   1.88407  -5.52010
  25.71724  -0.92913  -7.07640
  21.16824  -3.86203 -10.12900
  17.51714  -6.97443 -13.48080
  14.82364  -9.84753 -16.29400
  12.42944 -12.06213 -17.61080
   9.79584 -13.31913 -17.01220
   7.52134 -13.49863 -14.79760
   4.70824 -12.24173 -11.14650
  -0.14006  -9.30883  -6.17850
  -6.12546  -5.65763  -0.91130
 -11.93136  -2.72483   3.63760
 -17.19866  -1.34813   8.48590
 -21.08916  -1.28823  14.95020
 -22.94466  -1.58753  22.55170
 -24.08196  -1.16853  30.03360
 -25.75786  -0.09123  37.15630
 -28.98996   0.86647  43.56070
 -34.85576   2.06357  49.24690
 -41.43976   4.33807  54.33460
 -45.56976   7.03157  59.06310
 -46.52746   7.92937  63.73180
 -45.92886   6.49287  68.28080
 -45.50996   4.45777  72.17130
 -45.74936   3.79937  74.68520
 -46.40776   5.71477  75.46330
 -46.46756   8.34837  74.20640
 -44.49236   9.06657  70.97420
 -41.43976   7.57027  65.88660
 -37.07036   5.53517  59.72150
 -31.98276   4.75707  52.41920
 -27.01476   5.77457  43.68050
 -22.94466   8.04907  34.22340
 -20.78986  10.80237  24.52690
 -20.67016  13.91487  14.41150
 -21.86726  16.72797   3.93690
 -23.54326  17.98497  -6.83690
 -25.63816  16.96737 -17.49110
 -28.57106  13.91487 -27.54670
 -32.82076  10.38337 -36.40520
 -37.96826   7.57027 -43.82720
 -43.59456   5.83447 -49.63310
 -48.68226   5.17607 -53.34410
 -52.63266   5.05637 -54.84040
 -55.68526   4.93657 -54.48130
 -57.60056   4.39797 -52.44620
 -58.19916   3.67967 -49.33380
 -57.89986   2.90157 -44.78480
 -56.94216   1.94387 -38.38040
 -55.80496   0.26797 -29.94090
 -55.08666  -1.40803 -20.60350
 -54.66766  -1.76713 -11.62530
 -53.82976  -0.57003  -3.78430
 -52.15376   0.62707   2.20110
 -49.04136   0.32777   6.09170
 -44.55226  -0.62983   8.60560
 -39.34486  -0.74963  10.22170
 -34.49666   0.38767  11.71800
 -30.72576   2.06357  12.85530
 -28.03236   3.08107  13.21440
 -26.23666   2.24317  12.85530
 -25.21916  -0.39043  11.89760
 -25.39876  -4.28103  10.70050
 -26.89506  -8.88983   9.56330
 -29.46886 -13.73803   8.66540
 -32.76086 -17.86803   7.58810
 -36.35216 -19.96293   6.69020
 -39.28506 -19.60383   5.85230
 -41.37996 -17.92793   4.95440
 -43.11576 -16.79063   3.63760
 -44.85156 -17.20963   2.14130
 -46.64716 -18.82573   0.82450
 -48.08366 -21.16003  -0.49230
 -49.16106 -23.49443  -1.98870
 -49.87936 -25.11043  -3.84420
 -49.46036 -25.17033  -5.40040
 -47.06616 -23.67393  -6.41800
 -42.15806 -21.10023  -6.89680
 -35.63386 -18.04763  -7.49530
 -28.81046 -14.57603  -8.45300
 -22.28626 -10.44603  -9.88950
 -16.00156  -5.71753 -11.62530
  -9.77666  -1.10873 -13.30130
  -2.95316   2.60227 -14.61810
   5.24694   5.17607 -15.27650
  15.18274   7.09137 -15.03700
  26.97414   9.06657 -14.07940
  39.24444  11.10167 -13.06180
  50.61684  12.71777 -12.76260
  59.89424  13.43597 -13.00200
  66.65784  13.67537 -13.06180
  71.14694  14.09437 -12.16400
  73.96014  14.03457  -9.76980
  75.27694  12.71777  -6.05880
  75.81564   9.60527  -1.56970
  76.41414   5.17607   2.32080
  76.77334   0.86647   4.17630
  75.93534  -1.40803   3.57780
  73.24184  -0.86933   0.88430
  68.39364   1.46507  -3.24570
  61.57024   4.15847  -8.15370
  53.42994   6.49287 -13.66040
