********************************************************************************
               CENTRO DE INSTRUMENTACION Y REGISTRO SISMICO  A.C.  
                       Coordinacion de Servicios Tecnicos
     Anaxagoras 814, Col. Narvarte, Benito Juarez, C.P. 03020 Mexico, D.F.
            Tels. 667 45 42/ 687 45  82             Fax. 669 25 12
********************************************************************************
ARCHIVO ESTANDAR DE ACELERACION:
VERSION DEL FORMATO                    : 2.0
NOMBRE DEL ARCHIVO                     : AL010608.111
FECHA Y HORA DE CREACION               : 11/08/06, 11:00
REF. CATALOGO ACELEROGRAMAS, SMIS 1996 : REGISTRO No.     /PAG.


================================================================================
DATOS DE LA ESTACION:
NOMBRE DE LA ESTACION                  : ALAMEDA
CLAVE DE LA ESTACION                   : AL01
LOCALIZACION DE LA ESTACION            : JARDIN ALAMEDA ENTRE AV. HIDALGO Y AV.
                                       : JUAREZ, CENTRO
                                       :
                                       :
                                       :
COORDENADAS DE LA ESTACION             : 19.436 LAT. N 
                                       : 99.145 LONG. W 
ALTITUD (msnm)                         : 2232
TIPO DE SUELO                          : TERRENO BLANDO, MATERIAL COMPRESIBLE
                                       : (ARCILLAS)
                                       : 
INSTITUCION RESPONSABLE                : CIRES 
                                       :

================================================================================
DATOS DEL ACELEROGRAFO:
MODELO DEL ACELEROGRAFO                : SSA-1
NUMERO DE SERIE DEL ACELEROGRAFO       : 152
NUMERO DE CANALES                      : 3
ORIENTACION C1-C6 (rumbo;orientacion)  : /N00E/+V/N90E
ORIENTACION C7-C12 (rumbo;orientacion) :
VEL. DE MUESTREO, C1-C6 (muestras/s)   : /200/200/200
VEL. DE MUESTREO, C7-C12 (muestras/s)  :
ESC. COMPLETA DE SENSORES, C1-C6, (g)  : /2/2/2
ESC. COMPLETA DE SENSORES, C7-C12, (g) :
FREC. NAT. DE SENSORES, C1-C6, (Hz)    : /51.29/51.09/53.75
FREC. NAT. DE SENSORES, C7-C12, (Hz)   :
AMORTIGUAMIENTO DE SENSORES, C1-C6     : /.5519/.5670/.5810
AMORTIGUAMIENTO DE SENSORES, C7-C12    :
INTERVALO DE MUESTREO, C1-C6, (s)      : /0.005/0.005/0.005
INTERVALO DE MUESTREO, C7-C12, (s)     :
UMBRAL DE DISPARO, C1-C6, (Gal)        : /2/1.5/2
UMBRAL DE DISPARO, C7-C12, (Gal)       :
MEMORIA DE PREEVENTO (s)               : 15
TIEMPO DE POSEVENTO (s)                : 60


================================================================================
DATOS DEL SISMO:
FECHA DEL SISMO (GMT)                  : 21/JUL/00
HORA EPICENTRO (GMT)                   : 14:30:41,0
MAGNITUD(ES)                           : /Mc=5.9
COORDENADAS DEL EPICENTRO              : 18.32 LAT. N
                                       : -101.27 LONG. W
PROFUNDIDAD FOCAL (km)                 : 51
FUENTE DE LOS DATOS EPICENTRALES       : SSN
                                       : INSTITUTO DE GEOFISICA, UNAM 

================================================================================
DATOS DE ESTE REGISTRO:
HORA DE LA PRIMERA MUESTRA (GMT)       : 14:31:37.40
EXACTITUD DEL TIEMPO (s)               :     
DURACION DEL REGISTRO (s), C1-C6       : /162.56/162.56/162.56
DURACION DEL REGISTRO (s), C7-C12      :
NUM. TOTAL DE MUESTRAS, C1-C6          : /32512/32512/32512
NUM. TOTAL DE MUESTRAS, C7-C12         :
ACEL. MAX. (Gal), C1-C6                : /-5.42360/1.82618/6.48319
ACEL. MAX., C1-C6, EN LA MUESTRA       :
ACEL. MAX. (Gal), C7-C12               :
ACEL. MAX., C7-C12, EN LA MUESTRA      :
UNIDADES DE LOS DATOS                  : Gal (cm/s/s)
FACTOR DE DECIMACION                   : 1
FORMATO DATOS (FORTRAN,10 campos/dato) : 3F10.5


================================================================================
CALIDAD DEL ACELEROGRAMA:
REGISTRO DIGITAL COMPLETO, CARECE DE TIEMPO ABSOLUTO.


================================================================================
COMENTARIOS:














================================================================================
DATOS DE ACELERACION:
---------+---------+---------+---------+---------+---------+---------+---------+
   CANAL-1   CANAL-2   CANAL-3   CANAL-4   CANAL-5   CANAL-6   CANAL-7   CANAL-8
      N00E        +V      N90E
---------+---------+---------+---------+---------+---------+---------+---------+
[...]
  -0.15360  -0.33382   2.41319
  -0.39360  -0.33382   2.41319
  -0.39360  -0.33382   2.41319
  -0.39360  -0.33382   2.41319
  -0.39360  -0.33382   2.65319
  -0.39360  -0.33382   2.65319
  -0.39360  -0.33382   2.65319
  -0.63360  -0.33382   2.65319
  -0.63360  -0.33382   2.65319
  -0.63360  -0.33382   2.89319
  -0.63360  -0.33382   3.12319
  -0.63360  -0.33382   3.12319
  -0.87360  -0.33382   3.12319
  -0.87360  -0.33382   3.12319
  -0.87360  -0.33382   3.12319
  -0.87360  -0.33382   3.12319
  -0.87360  -0.33382   3.12319
  -0.87360  -0.33382   3.36319
  -1.35360  -0.33382   3.36319
  -0.87360  -0.09382   3.36319
  -0.87360  -0.09382   3.36319
  -0.87360  -0.09382   3.36319
  -0.87360  -0.09382   3.36319
  -0.87360  -0.33382   3.36319
  -0.87360  -0.09382   3.36319
  -0.87360  -0.09382   3.60319
  -0.87360  -0.09382   3.60319
  -0.87360  -0.09382   3.60319
  -0.87360  -0.09382   3.60319
  -0.87360  -0.09382   3.60319
  -0.87360  -0.09382   3.60319
  -0.87360  -0.09382   3.60319
  -0.87360  -0.09382   3.60319
  -0.87360  -0.09382   3.36319
  -0.87360  -0.09382   3.84319
  -0.87360   0.14618   3.84319
  -0.87360   0.14618   3.84319
  -0.63360  -0.09382   3.84319
  -0.63360   0.14618   4.08319
  -0.63360   0.14618   3.84319
  -0.39360   0.14618   4.08319
  -0.39360   0.14618   4.08319
  -0.39360   0.14618   4.08319
  -0.39360  -0.09382   4.08319
  -0.39360  -0.09382   4.08319
  -0.39360  -0.09382   4.32319
  -0.39360  -0.09382   4.32319
  -0.39360  -0.09382   4.32319
  -0.39360   0.14618   4.32319
  -0.39360   0.14618   4.32319
  -0.39360   0.14618   4.32319
  -0.39360   0.14618   4.32319
  -0.39360   0.14618   4.32319
  -0.39360   0.38618   4.08319
  -0.39360   0.38618   4.32319
  -0.63360   0.38618   4.32319
  -0.39360   0.62618   4.08319
  -0.39360   0.62618   4.08319
  -0.39360   0.62618   4.08319
  -0.39360   0.62618   4.08319
  -0.39360   0.38618   4.08319
  -0.39360   0.38618   4.08319
  -0.39360   0.38618   4.08319
  -0.15360   0.14618   4.08319
  -0.39360   0.14618   3.84319
  -0.39360  -0.09382   3.84319
  -0.39360  -0.09382   3.84319
  -0.15360  -0.09382   3.84319
  -0.15360  -0.33382   3.84319
  -0.15360  -0.33382   3.84319
  -0.15360  -0.57382   3.84319
  -0.39360  -0.57382   3.60319
  -0.39360  -0.57382   3.60319
  -0.39360  -0.57382   3.60319
  -0.39360  -0.57382   3.60319
  -0.39360  -0.57382   3.60319
  -0.39360  -0.57382   3.60319
  -0.39360  -0.57382   3.60319
  -0.63360  -0.57382   3.60319
  -0.63360  -0.57382   3.60319
  -0.39360  -0.81382   3.60319
  -0.39360  -0.81382   3.60319
  -0.39360  -0.81382   3.36319
  -0.63360  -1.05382   3.36319
  -0.63360  -1.05382   3.36319
  -0.63360  -1.05382   3.12319
  -0.63360  -1.05382   3.12319
  -0.63360  -1.05382   3.12319
  -0.63360  -1.05382   3.12319
  -0.63360  -1.05382   3.12319
  -0.63360  -1.05382   2.89319
  -0.87360  -1.05382   2.89319
  -0.87360  -0.81382   2.89319
  -0.63360  -0.81382   2.89319
  -0.63360  -0.81382   2.65319
  -0.87360  -0.81382   2.65319
  -0.63360  -0.81382   2.65319
  -0.63360  -0.81382   2.65319
  -0.63360  -0.81382   2.65319
  -0.63360  -0.57382   2.41319
  -0.63360  -0.57382   2.41319
  -0.63360  -0.81382   2.41319
  -0.63360  -0.57382   2.17319
  -0.63360  -0.57382   2.17319
  -0.87360  -0.57382   2.17319
  -0.87360  -0.81382   2.17319
  -0.87360  -0.57382   2.17319
  -0.87360  -0.57382   1.93319
  -0.87360  -0.57382   1.69319
  -0.87360  -0.57382   1.69319
  -0.87360  -0.57382   1.45319
  -0.87360  -0.57382   1.45319
  -0.87360  -0.57382   1.45319
  -0.87360  -0.33382   1.21319
  -0.87360  -0.33382   1.21319
  -1.11360  -0.33382   1.21319
  -1.11360  -0.33382   0.97319
  -1.11360  -0.33382   0.97319
  -1.11360  -0.33382   0.73319
  -1.11360  -0.09382   0.73319
  -1.11360  -0.09382   0.73319
  -1.11360  -0.09382   0.49319
  -1.11360  -0.09382   0.49319
  -1.35360  -0.09382   0.25319
  -1.35360  -0.09382   0.25319
  -1.35360  -0.09382   0.25319
  -1.35360  -0.09382   0.01319
  -1.59360  -0.09382  -0.22681
  -1.59360  -0.09382  -0.46681
  -1.59360  -0.09382  -0.70681
  -1.59360  -0.09382  -0.94681
  -1.59360  -0.09382  -1.18681
  -1.59360  -0.09382  -1.18681
  -1.59360  -0.09382  -1.42681
  -1.35360  -0.09382  -1.66681
  -1.35360  -0.09382  -1.90681
  -1.35360  -0.09382  -2.13681
  -1.35360  -0.09382  -2.13681
  -1.35360  -0.09382  -2.37681
  -1.35360  -0.09382  -2.61681
  -1.35360  -0.09382  -2.61681
  -1.83360  -0.09382  -2.85681
  -1.59360  -0.09382  -2.85681
  -1.59360  -0.09382  -3.09681
  -1.59360  -0.09382  -3.33681
  -1.35360  -0.09382  -3.33681
  -1.35360  -0.09382  -3.57681
  -1.35360  -0.09382  -3.81681
  -1.35360  -0.09382  -3.81681
  -1.11360  -0.09382  -3.81681
  -1.11360  -0.09382  -4.05681
  -1.11360  -0.09382  -4.05681
  -0.87360  -0.09382  -4.05681
  -0.87360  -0.09382  -4.29681
  -0.87360  -0.09382  -4.29681
  -0.87360  -0.09382  -4.53681
  -0.87360  -0.09382  -4.53681
  -0.87360  -0.09382  -4.53681
  -0.87360  -0.09382  -4.77681
  -0.63360  -0.09382  -4.77681
  -0.63360  -0.09382  -5.01681
  -0.39360  -0.09382  -5.01681
  -0.39360  -0.09382  -5.25681
  -0.39360  -0.09382  -5.25681
  -0.15360  -0.09382  -5.25681
   0.08640  -0.09382  -5.25681
   0.08640  -0.09382  -5.49681
   0.08640  -0.09382  -5.49681
   0.08640  -0.09382  -5.49681
   0.32640  -0.33382  -5.49681
   0.32640  -0.09382  -5.49681
   0.32640  -0.33382  -5.49681
   0.56640  -0.33382  -5.49681
   0.32640  -0.33382  -5.25681
   0.56640  -0.33382  -5.49681
   0.80640  -0.33382  -5.25681
   0.80640  -0.33382  -5.49681
   0.80640  -0.33382  -5.49681
   0.80640  -0.33382  -5.49681
   0.80640  -0.33382  -5.49681
   0.80640  -0.33382  -5.49681
   1.04640  -0.33382  -5.49681
   1.04640  -0.33382  -5.73681
   0.80640  -0.33382  -5.73681
   1.04640  -0.33382  -5.73681
   1.04640  -0.33382  -5.73681
   1.04640  -0.33382  -5.73681
   1.04640  -0.33382  -5.73681
   1.04640  -0.33382  -5.73681
   1.04640  -0.33382  -5.73681
   0.80640  -0.09382  -5.73681
   1.04640  -0.09382  -5.73681
   1.04640  -0.09382  -5.73681
   1.04640  -0.09382  -5.49681
   1.04640  -0.09382  -5.49681
   1.04640  -0.09382  -5.49681
   1.04640   0.14618  -5.49681
   1.28640   0.14618  -5.25681
   1.04640   0.14618  -5.25681
   1.28640   0.14618  -5.25681
   1.04640   0.14618  -5.25681
   1.28640   0.14618  -5.25681
   1.04640   0.14618  -5.01681
   1.04640   0.14618  -5.01681
   1.04640   0.14618  -5.01681
   1.04640   0.14618  -5.01681
   1.04640   0.14618  -5.49681
   1.04640   0.14618  -5.01681
   1.04640   0.14618  -5.01681
   1.04640   0.14618  -4.77681
   0.80640   0.14618  -4.77681
   0.80640   0.38618  -4.77681
   0.80640   0.14618  -4.53681
   0.56640   0.14618  -4.53681
   0.56640   0.38618  -4.53681
   0.56640   0.38618  -4.29681
   0.56640   0.14618  -4.29681
   0.32640   0.14618  -4.29681
   0.32640   0.14618  -4.29681
   0.08640   0.14618  -4.29681
   0.08640   0.38618  -4.05681
  -0.15360   0.38618  -4.05681
  -0.15360   0.38618  -4.05681
  -0.15360   0.38618  -4.05681
  -0.39360   0.62618  -4.05681
  -0.15360   0.62618  -4.05681
  -0.39360   0.62618  -4.05681
  -0.39360   0.62618  -4.05681
  -0.39360   0.62618  -4.05681
  -0.63360   0.62618  -3.81681
  -0.63360   0.62618  -3.81681
  -0.63360   0.62618  -3.81681
  -0.87360   0.62618  -4.05681
  -0.87360   0.38618  -4.05681
  -0.87360   0.38618  -3.81681
  -0.87360   0.38618  -4.05681
  -1.11360   0.38618  -3.81681
  -1.11360   0.38618  -3.81681
  -1.11360   0.38618  -3.81681
  -1.35360   0.14618  -3.81681
  -1.35360   0.38618  -3.81681
  -1.35360   0.38618  -3.81681
  -1.59360   0.38618  -3.81681
  -1.59360   0.38618  -3.81681
  -1.83360   0.38618  -3.81681
  -1.83360   0.38618  -3.81681
  -1.83360   0.62618  -3.81681
  -1.83360   0.62618  -3.81681
  -1.83360   0.86618  -3.57681
  -1.83360   0.62618  -3.57681
  -1.83360   0.62618  -3.57681
  -1.59360   0.86618  -3.33681
  -1.59360   0.86618  -3.33681
  -1.59360   0.62618  -3.33681
  -1.59360   0.62618  -3.09681
  -1.59360   0.62618  -3.09681
  -1.59360   0.38618  -3.09681
  -1.59360   0.38618  -3.09681
  -1.59360   0.38618  -3.09681
  -1.83360   0.14618  -3.09681
  -1.83360   0.14618  -3.09681
  -1.83360   0.38618  -3.09681
  -1.59360   0.38618  -3.09681
  -1.59360   0.38618  -2.85681
  -1.59360   0.62618  -2.85681
  -1.59360   0.62618  -2.61681
  -1.35360   0.62618  -2.61681
  -1.35360   0.62618  -2.37681
  -1.35360   0.62618  -2.13681
  -1.11360   0.62618  -2.13681
  -1.11360   0.62618  -1.90681
  -1.11360   0.62618  -1.90681
  -0.87360   0.62618  -1.90681
  -0.87360   0.38618  -1.66681
  -0.87360   0.38618  -1.66681
  -0.87360   0.62618  -1.42681
  -0.63360   0.38618  -1.42681
  -0.63360   0.38618  -1.18681
  -0.63360   0.38618  -0.94681
  -0.39360   0.62618  -1.18681
  -0.15360   0.62618  -0.70681
  -0.15360   0.62618  -0.70681
   0.08640   0.62618  -0.46681
   0.08640   0.62618  -0.46681
   0.32640   0.62618  -0.46681
   0.32640   0.62618  -0.46681
   0.56640   0.62618  -0.22681
   0.56640   0.38618  -0.22681
   0.80640   0.38618   0.01319
   1.04640   0.38618   0.01319
   1.04640   0.14618   0.25319
   1.04640   0.14618   0.25319
   1.28640   0.14618   0.25319
   1.52640   0.14618   0.25319
   1.52640  -0.09382   0.49319
   1.76640  -0.09382   0.49319
   1.99640  -0.09382   0.73319
   1.99640  -0.09382   0.73319
   1.99640  -0.09382   0.97319
   1.99640  -0.09382   0.97319
   2.23640  -0.09382   1.21319
   2.23640  -0.09382   1.21319
   2.23640  -0.09382   1.21319
   2.47640  -0.09382   1.21319
   2.47640  -0.09382   1.45319
   2.47640  -0.09382   1.45319
   2.47640  -0.09382   1.69319
   2.71640  -0.33382   1.69319
   2.71640  -0.09382   1.93319
   2.71640  -0.09382   1.93319
   2.71640  -0.33382   1.93319
   2.71640  -0.09382   2.17319
   2.95640  -0.09382   2.17319
   2.95640  -0.09382   2.41319
   2.95640  -0.09382   2.41319
   2.95640  -0.09382   2.65319
   2.95640  -0.09382   2.65319
   2.95640  -0.09382   2.65319
   2.95640  -0.09382   2.89319
   2.95640  -0.09382   3.12319
   2.95640   0.14618   3.12319
   2.95640   0.14618   3.36319
   2.95640   0.14618   3.36319
   2.95640   0.14618   3.60319
   2.95640   0.14618   3.60319
   2.95640   0.38618   3.60319
   2.95640   0.38618   3.84319
   2.95640   0.14618   3.84319
   2.95640   0.38618   4.08319
   2.95640   0.38618   4.32319
   2.95640   0.38618   4.32319
   2.95640   0.38618   4.56319
   2.71640   0.38618   4.80319
   2.95640   0.38618   4.80319
   2.71640   0.14618   4.80319
   2.71640   0.38618   5.04319
   2.71640   0.38618   5.04319
   2.71640   0.38618   5.04319
   2.23640   0.38618   5.28319
   2.47640   0.38618   5.52319
   2.47640   0.38618   5.52319
   2.23640   0.38618   5.52319
   2.23640   0.62618   5.76319
   2.23640   0.62618   5.52319
   2.23640   0.62618   6.00319
   2.23640   0.62618   6.00319
   2.23640   0.86618   6.24319
   2.23640   0.62618   6.24319
   2.23640   0.86618   6.24319
   1.99640   0.86618   6.48319
   1.99640   0.86618   6.48319
   1.99640   0.86618   6.48319
   1.99640   0.86618   6.48319
   1.99640   0.86618   6.48319
   1.76640   0.86618   6.48319
   1.76640   0.86618   6.48319
   1.76640   0.86618   6.24319
   1.76640   0.62618   6.24319
   1.52640   0.62618   6.24319
   1.52640   0.62618   6.00319
   1.52640   0.62618   6.00319
   1.52640   0.62618   6.00319
   1.52640   0.62618   6.00319
   1.52640   0.62618   5.76319
   1.04640   0.62618   5.76319
   1.52640   0.62618   5.76319
   1.52640   0.62618   5.76319
   1.52640   0.62618   5.52319
   1.28640   0.62618   5.52319
   1.52640   0.86618   5.28319
   1.28640   0.62618   5.28319
   1.28640   0.86618   5.04319
   1.28640   0.86618   5.04319
   1.28640   0.86618   4.80319
   1.28640   0.86618   4.56319
   1.28640   0.86618   4.56319
   1.28640   0.86618   4.56319
   1.28640   0.86618   4.32319
   1.28640   0.86618   4.08319
   1.04640   0.86618   3.84319
   1.28640   0.86618   3.60319
   1.04640   0.62618   3.60319
   1.28640   0.62618   3.36319
   1.04640   0.38618   3.12319
   1.28640   0.38618   2.89319
   1.28640   0.38618   2.65319
   1.04640   0.38618   2.41319
   1.28640   0.14618   2.17319
   1.28640   0.14618   1.93319
   1.04640   0.14618   1.69319
   1.04640   0.14618   1.45319
   1.04640  -0.09382   1.21319
   1.04640   0.14618   1.21319
   1.04640  -0.09382   0.97319
   1.04640   0.14618   0.73319
   0.80640   0.14618   0.49319
   0.80640   0.14618   0.49319
   0.80640   0.14618   0.25319
   0.80640   0.14618   0.25319
   0.56640   0.38618   0.01319
   0.56640   0.38618   0.01319
   0.56640   0.38618   0.01319
   0.32640   0.38618  -0.22681
   0.56640   0.38618  -0.22681
   0.56640   0.38618  -0.22681
   0.56640   0.38618  -0.22681
   0.32640   0.38618  -0.22681
   0.32640   0.14618  -0.46681
   0.32640   0.14618  -0.46681
   0.08640   0.14618  -0.46681
   0.32640  -0.09382  -0.46681
   0.08640  -0.09382  -0.70681
   0.08640  -0.09382  -0.70681
   0.08640  -0.09382  -0.70681
   0.08640  -0.09382  -0.94681
   0.08640  -0.33382  -0.94681
  -0.15360  -0.33382  -0.94681
  -0.15360  -0.57382  -0.94681
  -0.39360  -0.57382  -0.94681
  -0.15360  -0.57382  -0.94681
  -0.39360  -0.57382  -0.94681
  -0.39360  -0.57382  -0.94681
  -0.39360  -0.57382  -0.94681
  -0.39360  -0.57382  -0.94681
  -0.39360  -0.57382  -0.94681
  -0.39360  -0.57382  -0.94681
  -0.39360  -0.57382  -0.94681
  -0.39360  -0.81382  -0.94681
  -0.39360  -0.81382  -0.94681
  -0.39360  -0.81382  -1.18681
  -0.39360  -1.05382  -1.18681
  -0.39360  -1.05382  -1.18681
  -0.63360  -1.29382  -1.18681
  -0.63360  -1.05382  -1.18681
  -0.63360  -1.05382  -1.42681
  -0.87360  -1.29382  -1.42681
  -0.87360  -1.05382  -1.66681
  -0.87360  -1.05382  -1.66681
  -0.87360  -1.05382  -1.66681
  -0.87360  -1.05382  -1.66681
  -0.87360  -1.05382  -1.66681
  -0.87360  -1.05382  -1.66681
  -0.87360  -1.05382  -1.66681
  -0.87360  -0.81382  -1.66681
  -0.87360  -0.81382  -1.66681
  -0.87360  -0.81382  -1.66681
  -1.11360  -0.81382  -1.90681
  -0.87360  -0.57382  -1.90681
  -0.87360  -0.57382  -1.90681
  -0.87360  -0.57382  -1.90681
  -1.11360  -0.57382  -1.90681
  -0.87360  -0.57382  -1.90681
  -0.87360  -0.57382  -2.13681
  -0.87360  -0.57382  -2.13681
  -0.87360  -0.57382  -2.13681
  -0.87360  -0.57382  -2.13681
  -0.87360  -0.57382  -2.13681
  -0.87360  -0.57382  -2.13681
  -0.87360  -0.57382  -2.37681
  -0.87360  -0.57382  -2.37681
  -0.87360  -0.57382  -2.37681
  -0.87360  -0.57382  -2.61681
  -0.87360  -0.33382  -2.61681
  -0.87360  -0.33382  -2.61681
  -0.63360  -0.33382  -2.61681
  -0.63360  -0.33382  -2.61681
  -0.63360  -0.33382  -2.85681
  -0.63360  -0.09382  -2.85681
  -0.87360  -0.09382  -2.85681
  -0.87360  -0.09382  -2.85681
  -0.87360  -0.09382  -2.85681
  -0.87360  -0.09382  -2.85681
  -0.87360  -0.33382  -2.85681
  -0.87360  -0.09382  -2.85681
  -0.87360  -0.09382  -2.85681
  -0.87360  -0.09382  -2.85681
  -0.87360  -0.09382  -2.85681
  -0.87360  -0.09382  -2.85681
  -0.87360  -0.09382  -3.09681
  -0.87360  -0.09382  -2.85681
  -1.11360  -0.09382  -2.85681
  -1.11360   0.14618  -2.85681
  -1.11360  -0.09382  -2.85681
  -1.11360  -0.09382  -2.61681
  -1.11360  -0.09382  -2.61681
  -1.35360  -0.09382  -2.61681
  -1.35360  -0.09382  -2.61681
  -1.35360  -0.09382  -2.61681
  -1.35360  -0.09382  -2.61681
  -1.59360  -0.09382  -2.61681
  -1.59360  -0.09382  -2.61681
  -1.59360  -0.09382  -2.61681
  -1.83360  -0.09382  -2.61681
  -1.83360  -0.09382  -2.61681
  -1.83360   0.14618  -2.61681
  -1.83360   0.14618  -2.61681
  -1.83360   0.14618  -2.61681
  -1.83360   0.14618  -2.61681
  -1.83360   0.14618  -2.37681
  -1.83360   0.14618  -2.37681
