********************************************************************************
               CENTRO DE INSTRUMENTACION Y REGISTRO SISMICO  A.C.  
                       Coordinacion de Servicios Tecnicos
     Anaxagoras 814, Col. Narvarte, Benito Juarez, C.P. 03020 Mexico, D.F.
            Tels. 667 45 42/ 687 45  82             Fax. 669 25 12
********************************************************************************
ARCHIVO ESTANDAR DE ACELERACION:
VERSION DEL FORMATO                    : 2.0
NOMBRE DEL ARCHIVO                     : AL019912.291
FECHA Y HORA DE CREACION               : 31/ENERO/2000, 10:10
REF. CATALOGO ACELEROGRAMAS, SMIS 1996 : REGISTRO No.     /PAG.


================================================================================
DATOS DE LA ESTACION:
NOMBRE DE LA ESTACION                  : ALAMEDA
CLAVE DE LA ESTACION                   : AL01
LOCALIZACION DE LA ESTACION            : JARDIN ALAMEDA ENTRE AV. HIDALGO Y AV.
                                       : JUAREZ, CENTRO
                                       :
                                       :
                                       :
COORDENADAS DE LA ESTACION             : 19.436 LAT. N 
                                       : 99.145 LONG. W 
ALTITUD (msnm)                         : 2232
TIPO DE SUELO                          : TERRENO BLANDO, MATERIAL COMPRESIBLE
                                       : (ARCILLAS)
                                       : 
INSTITUCION RESPONSABLE                : CIRES 
                                       :

================================================================================
DATOS DEL ACELEROGRAFO:
MODELO DEL ACELEROGRAFO                : SSA-1
NUMERO DE SERIE DEL ACELEROGRAFO       : 152
NUMERO DE CANALES                      : 3
ORIENTACION C1-C6 (rumbo;orientacion)  : /N00E/+V/N90E
ORIENTACION C7-C12 (rumbo;orientacion) :
VEL. DE MUESTREO, C1-C6 (muestras/s)   : /200/200/200
VEL. DE MUESTREO, C7-C12 (muestras/s)  :
ESC. COMPLETA DE SENSORES, C1-C6, (g)  : /2/2/2
ESC. COMPLETA DE SENSORES, C7-C12, (g) :
FREC. NAT. DE SENSORES, C1-C6, (Hz)    : /51.29/51.09/53.75
FREC. NAT. DE SENSORES, C7-C12, (Hz)   :
AMORTIGUAMIENTO DE SENSORES, C1-C6     : /.5519/.5670/.5810
AMORTIGUAMIENTO DE SENSORES, C7-C12    :
INTERVALO DE MUESTREO, C1-C6, (s)      : /0.005/0.005/0.005
INTERVALO DE MUESTREO, C7-C12, (s)     :
UMBRAL DE DISPARO, C1-C6, (Gal)        : /2/1.5/2
UMBRAL DE DISPARO, C7-C12, (Gal)       :
MEMORIA DE PREEVENTO (s)               : 15
TIEMPO DE POSEVENTO (s)                : 60


================================================================================
DATOS DEL SISMO:
FECHA DEL SISMO (GMT)                  : 29/DIC/99
HORA EPICENTRO (GMT)                   : 05:19:46.0
MAGNITUD(ES)                           : /Mb=6.1/Ms=5.4/Mc=5.1/Ma=5.6/Me=5.9
COORDENADAS DEL EPICENTRO              : 18.02 LAT. N
                                       : 101.68 LONG. W
PROFUNDIDAD FOCAL (km)                 : 82.0
FUENTE DE LOS DATOS EPICENTRALES       : SSN
                                       : INSTITUTO DE GEOFISICA, UNAM

================================================================================
DATOS DE ESTE REGISTRO:
HORA DE LA PRIMERA MUESTRA (GMT)       : 05:21:05.00
EXACTITUD DEL TIEMPO (s)               :     
DURACION DEL REGISTRO (s), C1-C6       : /117.76/117.76/117.76
DURACION DEL REGISTRO (s), C7-C12      :
NUM. TOTAL DE MUESTRAS, C1-C6          : /23552/23552/23552
NUM. TOTAL DE MUESTRAS, C7-C12         :
ACEL. MAX. (Gal), C1-C6                : /4.13247/1.60880/5.01747
ACEL. MAX., C1-C6, EN LA MUESTRA       :
ACEL. MAX. (Gal), C7-C12               :
ACEL. MAX., C7-C12, EN LA MUESTRA      :
UNIDADES DE LOS DATOS                  : Gal (cm/s/s)
FACTOR DE DECIMACION                   : 1
FORMATO DATOS (FORTRAN,10 campos/dato) : 3F10.5


================================================================================
CALIDAD DEL ACELEROGRAMA:
REGISTRO DIGITAL COMPLETO, CARECE DE TIEMPO ABSOLUTO.


================================================================================
COMENTARIOS:














================================================================================
DATOS DE ACELERACION:
---------+---------+---------+---------+---------+---------+---------+---------+
   CANAL-1   CANAL-2   CANAL-3   CANAL-4   CANAL-5   CANAL-6   CANAL-7   CANAL-8
      N00E        +V      N90E
---------+---------+---------+---------+---------+---------+---------+---------+
[...]
   1.85753   0.31120  -2.38747
   1.85753   0.31120  -2.38747
   1.85753   0.31120  -2.38747
   1.85753   0.31120  -2.14747
   1.85753   0.31120  -2.14747
   1.85753   0.31120  -2.14747
   1.85753   0.31120  -2.14747
   1.85753   0.31120  -2.14747
   1.85753   0.31120  -1.90747
   1.85753   0.31120  -1.90747
   1.85753   0.31120  -1.90747
   1.85753   0.31120  -1.90747
   1.85753   0.31120  -1.90747
   1.85753   0.31120  -1.90747
   2.09753   0.31120  -1.66747
   1.61753   0.31120  -1.66747
   1.85753   0.31120  -1.66747
   1.85753   0.31120  -1.42747
   2.09753   0.31120  -1.42747
   2.09753   0.31120  -1.42747
   2.09753   0.31120  -1.18747
   1.85753   0.31120  -1.18747
   2.09753   0.31120  -1.18747
   1.85753   0.31120  -1.18747
   1.85753   0.31120  -1.18747
   1.85753   0.31120  -0.94747
   1.85753   0.31120  -0.94747
   1.85753   0.07120  -0.94747
   1.85753   0.07120  -0.94747
   1.85753   0.31120  -0.94747
   1.85753   0.31120  -0.70747
   1.85753   0.55120  -0.70747
   1.85753   0.55120  -0.94747
   1.85753   0.55120  -0.70747
   1.85753   0.31120  -0.70747
   1.85753   0.31120  -0.70747
   1.85753   0.55120  -0.70747
   1.85753   0.31120  -0.70747
   1.85753   0.31120  -0.70747
   1.85753   0.55120  -0.70747
   1.85753   0.31120  -0.70747
   1.85753   0.31120  -0.46747
   1.61753   0.31120  -0.46747
   1.61753   0.31120  -0.46747
   1.61753   0.31120  -0.46747
   1.61753   0.31120  -0.46747
   1.61753   0.31120  -0.22747
   1.61753   0.31120  -0.22747
   1.61753   0.31120  -0.22747
   1.61753   0.31120  -0.22747
   1.37753   0.31120  -0.22747
   1.61753   0.31120   0.01253
   1.37753   0.31120   0.01253
   1.37753   0.31120   0.01253
   1.37753   0.31120   0.25253
   1.13753   0.31120   0.25253
   1.13753   0.07120   0.25253
   1.13753   0.31120   0.25253
   1.13753   0.31120   0.25253
   1.13753   0.07120   0.25253
   1.13753   0.31120   0.25253
   1.13753   0.31120   0.49253
   1.13753   0.07120   0.49253
   0.89753   0.07120   0.49253
   0.89753   0.07120   0.49253
   0.89753   0.07120   0.49253
   0.89753   0.07120   0.73253
   0.65753   0.07120   0.73253
   0.65753   0.07120   0.73253
   0.65753   0.07120   0.73253
   0.65753   0.07120   0.73253
   0.65753   0.07120   0.73253
   0.41753   0.07120   0.73253
   0.41753  -0.16880   0.97253
   0.41753   0.07120   0.97253
   0.17753   0.07120   0.97253
   0.17753  -0.16880   0.97253
  -0.06247   0.07120   0.97253
   0.17753   0.07120   0.97253
  -0.06247   0.07120   0.97253
  -0.06247   0.07120   1.21253
  -0.06247   0.07120   1.21253
  -0.30247   0.07120   1.21253
  -0.30247   0.07120   1.21253
  -0.30247   0.07120   1.21253
  -0.30247   0.31120   1.21253
  -0.54247   0.07120   1.21253
  -0.54247   0.07120   1.21253
  -0.54247   0.31120   1.21253
  -0.54247   0.31120   1.21253
  -0.78247   0.31120   1.21253
  -0.78247   0.07120   1.21253
  -0.78247   0.31120   1.21253
  -0.78247   0.31120   1.21253
  -0.78247   0.31120   0.73253
  -0.78247   0.31120   1.21253
  -1.02247   0.31120   1.21253
  -1.02247   0.31120   1.21253
  -1.02247   0.31120   1.21253
  -1.02247   0.31120   1.21253
  -1.02247   0.31120   1.21253
  -1.25247   0.07120   1.21253
  -1.25247   0.31120   1.21253
  -1.49247   0.07120   1.21253
  -1.49247   0.07120   1.21253
  -1.49247   0.07120   1.21253
  -1.49247   0.31120   1.21253
  -1.49247   0.07120   1.21253
  -1.49247   0.07120   1.21253
  -1.49247   0.07120   1.21253
  -1.73247   0.07120   1.21253
  -1.49247   0.07120   1.45253
  -1.49247   0.07120   1.21253
  -1.49247   0.07120   1.45253
  -1.49247   0.07120   1.21253
  -1.49247   0.07120   1.21253
  -1.73247   0.07120   1.21253
  -1.73247   0.07120   1.45253
  -1.73247   0.07120   1.45253
  -1.73247   0.07120   1.45253
  -1.73247   0.07120   1.45253
  -1.73247   0.07120   1.69253
  -1.73247   0.07120   1.69253
  -1.73247   0.07120   1.45253
  -1.97247   0.07120   1.69253
  -1.97247   0.07120   1.69253
  -1.97247   0.07120   1.69253
  -1.97247  -0.16880   1.69253
  -1.97247  -0.16880   1.69253
  -1.97247  -0.16880   1.69253
  -1.97247  -0.16880   1.93253
  -1.97247  -0.16880   1.93253
  -1.97247  -0.16880   1.93253
  -1.97247  -0.16880   1.93253
  -1.97247  -0.16880   1.93253
  -1.97247  -0.16880   1.93253
  -1.97247  -0.16880   1.93253
  -1.97247  -0.40880   1.69253
  -1.97247  -0.16880   2.16253
  -2.21247  -0.16880   2.16253
  -2.21247  -0.16880   2.16253
  -2.21247  -0.16880   2.16253
  -2.21247  -0.16880   2.16253
  -2.21247  -0.16880   2.16253
  -2.21247   0.07120   1.93253
  -2.21247  -0.40880   2.40253
  -2.21247  -0.16880   2.16253
  -2.21247  -0.16880   2.40253
  -2.21247  -0.16880   2.40253
  -2.21247  -0.16880   2.40253
  -2.21247  -0.16880   2.40253
  -2.21247  -0.16880   2.64253
  -2.21247  -0.16880   2.64253
  -2.21247  -0.16880   2.64253
  -2.21247  -0.16880   2.64253
  -2.21247  -0.16880   2.64253
  -2.21247  -0.16880   2.64253
  -2.21247   0.07120   2.64253
  -2.21247   0.07120   2.88253
  -2.21247   0.07120   2.88253
  -2.21247   0.07120   2.88253
  -2.21247   0.07120   2.88253
  -2.21247   0.07120   2.88253
  -2.21247   0.07120   2.88253
  -2.21247   0.07120   2.88253
  -2.21247   0.07120   2.88253
  -2.21247   0.07120   3.12253
  -1.97247   0.07120   2.88253
  -2.21247   0.07120   2.64253
  -1.97247   0.07120   2.88253
  -1.97247   0.07120   2.88253
  -1.73247   0.07120   2.88253
  -1.73247   0.07120   2.88253
  -1.73247   0.07120   2.88253
  -1.73247   0.07120   2.88253
  -1.49247   0.07120   2.88253
  -1.49247   0.07120   2.88253
  -1.49247   0.31120   2.88253
  -1.25247   0.07120   2.88253
  -1.25247   0.07120   2.88253
  -1.25247   0.07120   2.88253
  -1.02247   0.07120   2.64253
  -1.02247   0.07120   2.64253
  -0.78247   0.07120   2.64253
  -0.78247   0.07120   2.64253
  -0.54247   0.07120   2.64253
  -0.54247   0.07120   2.40253
  -0.54247   0.07120   2.40253
  -0.30247  -0.16880   2.40253
  -0.30247  -0.16880   2.40253
  -0.30247  -0.16880   2.40253
  -0.06247  -0.16880   2.16253
  -0.06247  -0.16880   2.16253
  -0.06247  -0.16880   2.16253
   0.17753  -0.16880   2.16253
   0.17753  -0.16880   2.16253
   0.41753  -0.16880   2.16253
   0.41753  -0.40880   2.16253
   0.41753  -0.40880   1.93253
   0.65753  -0.40880   1.93253
   0.41753  -0.16880   1.93253
   0.65753  -0.16880   1.93253
   0.89753  -0.40880   1.93253
   0.89753  -0.40880   1.69253
   0.89753  -0.16880   1.93253
   1.13753  -0.16880   1.69253
   1.13753  -0.16880   1.93253
   1.13753  -0.16880   1.69253
   1.13753  -0.16880   1.69253
   1.13753  -0.16880   1.69253
   1.37753   0.07120   1.69253
   1.37753  -0.16880   1.69253
   1.37753  -0.16880   1.45253
   1.61753  -0.16880   1.45253
   1.61753  -0.16880   1.45253
   1.61753  -0.16880   1.69253
   1.61753  -0.16880   1.69253
   1.61753  -0.16880   1.69253
   1.85753  -0.16880   1.69253
   1.85753  -0.16880   1.69253
   1.85753   0.07120   1.69253
   1.85753   0.07120   1.69253
   1.85753   0.07120   1.69253
   1.85753   0.07120   1.69253
   1.85753   0.07120   1.93253
   1.85753   0.07120   1.93253
   2.09753   0.07120   1.93253
   2.09753   0.07120   2.16253
   2.09753   0.07120   2.16253
   2.09753   0.07120   2.16253
   2.09753   0.07120   2.16253
   2.09753   0.07120   2.16253
   2.09753   0.07120   2.16253
   2.09753   0.07120   2.16253
   2.09753   0.07120   2.16253
   2.09753   0.07120   2.16253
   2.09753   0.07120   2.16253
   2.09753  -0.16880   2.40253
   2.09753  -0.16880   2.40253
   2.09753  -0.16880   2.40253
   2.09753  -0.16880   2.40253
   2.09753  -0.16880   2.40253
   2.09753  -0.16880   2.40253
   2.09753  -0.16880   2.40253
   1.85753  -0.40880   2.40253
   2.09753  -0.16880   2.40253
   1.85753  -0.16880   2.16253
   1.85753  -0.16880   2.40253
   1.85753  -0.16880   2.16253
   1.61753   0.07120   2.16253
   1.61753   0.07120   2.16253
   1.61753   0.07120   2.16253
   1.61753   0.07120   1.93253
   1.61753   0.07120   1.93253
   1.61753   0.07120   1.93253
   1.37753   0.07120   1.93253
   1.37753   0.07120   1.93253
   1.37753   0.07120   1.69253
   1.37753   0.07120   1.69253
   1.13753  -0.16880   1.69253
   1.13753   0.07120   1.69253
   1.13753  -0.16880   1.69253
   1.13753  -0.16880   1.45253
   1.13753  -0.16880   1.45253
   1.13753  -0.16880   1.45253
   0.89753  -0.16880   1.45253
   0.89753  -0.16880   1.45253
   0.89753  -0.16880   1.21253
   0.65753  -0.16880   1.21253
   0.65753  -0.16880   1.21253
   0.65753  -0.40880   1.21253
   0.65753  -0.40880   1.21253
   0.65753  -0.40880   1.21253
   0.65753  -0.40880   1.21253
   0.65753  -0.40880   1.21253
   0.65753  -0.40880   1.21253
   0.65753  -0.40880   0.97253
   0.41753  -0.64880   0.97253
   0.41753  -0.64880   0.97253
   0.41753  -0.64880   0.97253
   0.41753  -0.64880   0.97253
   0.41753  -0.40880   0.97253
   0.41753  -0.40880   0.97253
   0.41753  -0.40880   0.97253
   0.41753  -0.40880   0.97253
   0.41753  -0.16880   0.97253
   0.41753  -0.16880   0.97253
   0.17753  -0.16880   0.73253
   0.17753  -0.16880   0.97253
   0.17753  -0.16880   0.97253
   0.17753  -0.16880   0.97253
   0.17753   0.07120   0.97253
   0.17753  -0.16880   0.73253
   0.17753  -0.16880   0.73253
   0.17753  -0.16880   0.73253
   0.17753   0.07120   0.73253
  -0.06247  -0.16880   0.49253
  -0.06247   0.07120   0.25253
  -0.06247   0.07120   0.49253
  -0.06247  -0.16880   0.49253
  -0.30247   0.07120   0.49253
  -0.30247   0.07120   0.25253
  -0.30247   0.07120   0.25253
  -0.30247  -0.16880   0.25253
  -0.54247  -0.16880   0.01253
  -0.54247  -0.16880   0.01253
  -0.54247   0.07120  -0.22747
  -0.54247   0.07120  -0.22747
  -0.78247   0.07120  -0.22747
  -0.78247   0.07120  -0.46747
  -0.78247   0.07120  -0.46747
  -1.02247   0.07120  -0.70747
  -1.02247   0.07120  -0.70747
  -1.02247   0.07120  -0.94747
  -1.25247   0.07120  -0.94747
  -1.25247   0.07120  -1.18747
  -1.25247   0.07120  -1.18747
  -1.25247   0.31120  -1.42747
  -1.49247   0.07120  -1.42747
  -1.49247   0.07120  -1.66747
  -1.49247   0.07120  -1.90747
  -1.73247   0.07120  -2.14747
  -1.73247   0.07120  -2.14747
  -1.73247   0.07120  -2.38747
  -1.97247   0.07120  -2.38747
  -1.97247   0.07120  -2.62747
  -1.97247   0.07120  -2.62747
  -2.21247   0.07120  -2.86747
  -2.21247   0.07120  -2.86747
  -2.21247   0.07120  -3.09747
  -2.21247   0.07120  -3.09747
  -2.21247   0.07120  -3.57747
  -2.45247   0.07120  -3.57747
  -2.45247   0.07120  -3.57747
  -2.45247   0.07120  -3.81747
  -2.45247   0.31120  -4.05747
  -2.69247   0.07120  -4.05747
  -2.69247   0.31120  -4.05747
  -2.69247   0.07120  -4.29747
  -2.69247   0.07120  -4.29747
  -2.69247   0.07120  -4.29747
  -2.69247   0.07120  -4.53747
  -2.93247   0.07120  -4.53747
  -2.93247   0.07120  -4.77747
  -2.93247   0.07120  -4.77747
  -2.93247   0.07120  -4.53747
  -2.93247   0.07120  -4.77747
  -2.93247   0.07120  -4.77747
  -2.93247   0.07120  -4.77747
  -2.93247   0.07120  -5.01747
  -2.93247   0.07120  -5.01747
  -2.93247   0.07120  -5.01747
  -2.69247   0.07120  -5.01747
  -2.93247   0.07120  -5.01747
  -2.69247   0.07120  -5.01747
  -2.69247   0.07120  -5.01747
  -2.69247   0.07120  -5.01747
  -2.69247  -0.16880  -5.01747
  -2.69247  -0.16880  -5.01747
  -2.69247  -0.40880  -5.01747
  -2.69247  -0.16880  -5.01747
  -2.69247  -0.16880  -5.01747
  -2.69247  -0.16880  -5.01747
  -2.69247  -0.16880  -4.77747
  -2.45247  -0.16880  -4.77747
  -2.45247  -0.16880  -4.77747
  -2.45247  -0.16880  -4.77747
  -2.21247  -0.16880  -4.77747
  -2.21247  -0.16880  -4.53747
  -2.21247  -0.16880  -4.53747
  -1.97247  -0.16880  -4.29747
  -1.97247  -0.40880  -4.29747
  -1.73247  -0.40880  -4.29747
  -1.73247  -0.16880  -4.29747
  -1.73247  -0.16880  -4.05747
  -1.49247  -0.40880  -4.05747
  -1.49247  -0.16880  -4.05747
  -1.25247  -0.40880  -3.81747
  -1.25247  -0.40880  -3.81747
  -1.25247  -0.40880  -3.57747
  -1.02247  -0.40880  -3.57747
  -1.02247  -0.40880  -3.57747
  -1.02247  -0.40880  -3.57747
  -0.78247  -0.40880  -3.57747
  -0.78247  -0.40880  -3.33747
  -0.54247  -0.40880  -3.33747
  -0.54247  -0.40880  -3.33747
  -0.30247  -0.16880  -3.33747
  -0.30247  -0.16880  -3.33747
  -0.30247  -0.16880  -3.33747
  -0.06247  -0.40880  -3.09747
  -0.06247  -0.40880  -3.09747
  -0.06247  -0.40880  -3.09747
   0.17753  -0.40880  -3.09747
  -0.06247  -0.40880  -2.86747
   0.17753  -0.40880  -2.86747
   0.17753  -0.40880  -2.86747
   0.41753  -0.40880  -2.62747
   0.41753  -0.40880  -2.62747
   0.65753  -0.40880  -2.62747
   0.65753  -0.40880  -2.62747
   0.65753  -0.40880  -2.62747
   0.65753  -0.40880  -2.38747
   0.89753  -0.40880  -2.38747
   0.89753  -0.40880  -2.38747
   0.89753  -0.40880  -2.38747
   0.89753  -0.40880  -2.62747
   1.13753  -0.40880  -2.14747
   1.13753  -0.40880  -2.14747
   1.13753  -0.40880  -2.14747
   1.13753  -0.40880  -2.14747
   1.13753  -0.40880  -2.14747
   1.13753  -0.40880  -2.14747
   1.13753  -0.40880  -2.14747
   1.13753  -0.40880  -1.90747
   1.13753  -0.40880  -1.90747
   1.37753  -0.40880  -1.90747
   1.37753  -0.40880  -1.90747
   1.37753  -0.40880  -1.90747
   1.37753  -0.40880  -1.90747
   1.37753  -0.16880  -1.90747
   1.37753  -0.16880  -1.90747
   1.37753  -0.16880  -1.66747
   1.37753  -0.16880  -1.66747
   1.37753  -0.16880  -1.66747
   1.37753   0.07120  -1.42747
   1.37753   0.07120  -1.42747
   1.37753   0.07120  -1.42747
   1.13753   0.07120  -1.42747
   1.13753   0.07120  -1.42747
   1.13753   0.31120  -1.18747
   1.13753   0.31120  -1.18747
   1.13753   0.31120  -1.18747
   1.13753   0.31120  -1.18747
   1.13753   0.31120  -1.18747
   1.13753   0.31120  -0.94747
   1.13753   0.55120  -0.94747
   1.13753   0.55120  -0.94747
   1.13753   0.55120  -0.70747
   1.13753   0.55120  -0.70747
   1.13753   0.55120  -0.70747
   1.13753   0.31120  -0.70747
   1.13753   0.31120  -0.70747
   1.13753   0.31120  -0.70747
   1.13753   0.31120  -0.46747
   1.13753   0.31120  -0.46747
   1.13753   0.55120  -0.22747
   1.13753   0.55120  -0.22747
   1.13753   0.31120  -0.22747
   1.13753   0.31120  -0.22747
   1.13753   0.55120  -0.22747
   1.13753   0.55120   0.01253
   1.13753   0.31120   0.01253
   1.13753   0.55120   0.01253
   1.37753   0.55120   0.25253
   1.37753   0.55120   0.25253
   1.37753   0.55120   0.25253
   1.37753   0.55120   0.49253
   1.37753   0.55120   0.25253
   1.61753   0.55120   0.49253
   1.61753   0.55120   0.49253
   1.61753   0.55120   0.49253
   1.61753   0.55120   0.73253
   1.85753   0.55120   0.73253
   1.85753   0.55120   0.73253
   1.85753   0.55120   0.73253
   2.09753   0.55120   0.73253
   2.09753   0.55120   0.73253
   2.09753   0.31120   0.49253
   2.09753   0.55120   0.49253
   2.33753   0.55120   0.73253
   2.09753   0.31120   0.97253
   2.33753   0.31120   0.97253
   2.33753   0.31120   0.97253
   2.57753   0.31120   0.97253
   2.57753   0.31120   0.97253
   2.57753   0.31120   0.97253
   2.57753   0.31120   1.21253
   2.57753   0.31120   1.21253
   2.57753   0.31120   1.21253
   2.57753   0.31120   1.21253
   2.81753   0.31120   1.21253
   2.81753   0.31120   1.45253
   2.81753   0.31120   1.45253
   2.81753   0.31120   1.45253
   2.81753   0.31120   1.45253
   2.81753   0.31120   1.45253
   2.81753   0.31120   1.45253
   2.81753   0.31120   1.45253
   2.81753   0.31120   1.45253
   2.81753   0.31120   1.69253
   2.81753   0.31120   1.69253
   2.57753   0.31120   1.45253
   2.57753   0.31120   1.69253
   2.57753   0.31120   1.69253
   2.57753   0.31120   1.69253
   2.33753   0.31120   1.69253
   2.33753   0.31120   1.69253
   2.33753   0.31120   1.69253
