********************************************************************************
              CENTRO DE INSTRUMENTACION Y REGISTRO SISMICO  A.C.

    Anaxagoras 814, Col. Narvarte, Benito Juarez, C.P. 03020 Mexico, D.F.
           Tels. 5687 45 42/ 5687 45  82             Fax. 5669 25 12
********************************************************************************
ARCHIVO ESTANDAR DE ACELERACION:
VERSION DEL FORMATO                    : 2.0
NOMBRE DEL ARCHIVO                     : AL0120130813165042
FECHA Y HORA DE CREACION               : 03/SEP/13, 13:35
REF. CATALOGO ACELEROGRAMAS, SMIS 1996 : REGISTRO No.     /PAG.


================================================================================
DATOS DE LA ESTACION:
NOMBRE DE LA ESTACION                  : ALAMEDA
CLAVE DE LA ESTACION                   : AL01
LOCALIZACION DE LA ESTACION            : Del. Cuauhtémoc, Col. Centro,          
                                       : Dr. Mora entre Av. Hidalgo             
                                       : y Av. Juárez.                          
                                       :                                        
                                       : 
COORDENADAS DE LA ESTACION             : 19.4356 LAT. N
                                       : 99.1453 LONG. W
ALTITUD (msnm)                         : 2232
TIPO DE SUELO                          : Terreno blando, material compresible
                                       : (arcillas)                
                                       : 
INSTITUCION RESPONSABLE                : CIRES
                                       : 

================================================================================
DATOS DEL ACELEROGRAFO:
MODELO DEL ACELEROGRAFO                : RADESD
NUMERO DE SERIE DEL ACELEROGRAFO       : 152
NUMERO DE CANALES                      : 3
ORIENTACION C1-C6 (rumbo;orientacion)  : /N00E/+V/N90W
ORIENTACION C7-C12 (rumbo;orientacion) : 
VEL. DE MUESTREO, C1-C6 (muestras/s)   : /100/100/100
VEL. DE MUESTREO, C7-C12 (muestras/s)  : 
ESC. COMPLETA DE SENSORES, C1-C6, (g)  : /0.5/0.5/0.5
ESC. COMPLETA DE SENSORES, C7-C12, (g) : 
FREC. NAT. DE SENSORES, C1-C6, (Hz)    : /51.29/51.09/53.75
FREC. NAT. DE SENSORES, C7-C12, (Hz)   : 
AMORTIGUAMIENTO DE SENSORES, C1-C6     : /0.5519/0.5670/0.5810
AMORTIGUAMIENTO DE SENSORES, C7-C12    : 
INTERVALO DE MUESTREO, C1-C6, (s)      : /0.01/0.01/0.01
INTERVALO DE MUESTREO, C7-C12, (s)     : 
UMBRAL DE DISPARO, C1-C6, (Gal)        : /14.37/28.73/14.37
UMBRAL DE DISPARO, C7-C12, (Gal)       : 
MEMORIA DE PREEVENTO (s)               : 56.0
TIEMPO DE POSEVENTO (s)                : 80.0


================================================================================
DATOS DEL SISMO:
FECHA DEL SISMO (GMT)                  : 13/AGO/13
HORA EPICENTRO (GMT)                   : 16:50:42.0
MAGNITUD(ES)                           : /Mc=5.0
COORDENADAS DEL EPICENTRO              : 16.56 LAT. N
                                       : 98.57 LONG. W
PROFUNDIDAD FOCAL (km)                 : 4
FUENTE DE LOS DATOS EPICENTRALES       : SSN
                                       : INSTITUTO DE GEOFISICA, UNAM

================================================================================
DATOS DE ESTE REGISTRO:
HORA DE LA PRIMERA MUESTRA (GMT)       : 16:52:28.00
EXACTITUD DEL TIEMPO (s)               : 0.01
DURACION DEL REGISTRO (s), C1-C6       : /124.8/124.8/124.8
DURACION DEL REGISTRO (s), C7-C12      : 
NUM. TOTAL DE MUESTRAS, C1-C6          : /12480/12480/12480
NUM. TOTAL DE MUESTRAS, C7-C12         : 
ACEL. MAX. (Gal), C1-C6                : /1.28077/0.85379/1.7546
ACEL. MAX., C1-C6, EN LA MUESTRA       : /3382/3953/3308
ACEL. MAX. (Gal), C7-C12               : 
ACEL. MAX., C7-C12, EN LA MUESTRA      : 
UNIDADES DE LOS DATOS                  : Gal (cm/s/s)
FACTOR DE DECIMACION                   : 1
FORMATO DATOS (FORTRAN,10 campos/dato) : 3F10.5


================================================================================
CALIDAD DEL ACELEROGRAMA:
REGISTRO DIGITAL COMPLETO CON TIEMPO ABSOLUTO CORRECTO.


================================================================================
COMENTARIOS:














================================================================================
DATOS DE ACELERACION:
---------+---------+---------+---------+---------+---------+---------+---------+
   CANAL-1   CANAL-2   CANAL-3   CANAL-4   CANAL-5   CANAL-6   CANAL-7   CANAL-8
      N00E        +V      N90W
---------+---------+---------+---------+---------+---------+---------+---------+
[...]
   0.08093   0.10561   0.03377
   0.08093   0.10561  -0.01112
   0.03604   0.07568   0.04873
   0.02108   0.13553   0.06370
   0.03604   0.13553   0.09363
   0.02108   0.13553   0.13852
   0.02108   0.03079   0.13852
   0.03604   0.10561   0.15348
   0.09590   0.03079   0.09363
   0.08093   8.6E-40   0.06370
   0.05101  -0.01410   0.07866
   0.03604  -0.05900   0.12355
   0.03604  -0.07396   0.12355
   0.02108  -0.10389   0.06370
   0.05101  -0.04403   0.12355
   0.06597  -0.02907   0.13852
   0.08093  -0.13381   0.13852
   0.11086  -0.10389   0.15348
   0.06597  -0.19367   0.12355
   0.08093  -0.07396   0.12355
   0.09590  -0.01410   0.10859
   0.15575   0.01582   0.10859
   0.21561   8.6E-40   0.06370
   0.18568  -0.16374  -0.01112
   0.26050  -0.17871   0.01881
   0.21561  -0.22360  -0.05601
   0.24553  -0.22360  -0.02608
   0.24553  -0.23856  -0.14579
   0.23057  -0.11885  -0.11587
   0.27546  -0.04403  -0.16076
   0.26050   8.6E-40  -0.16076
   0.26050   0.01582  -0.13083
   0.23057  -0.08892  -0.25054
   0.24553  -0.11885  -0.16076
   0.20064  -0.07396  -0.29543
   0.23057  -0.05900  -0.23558
   0.23057  -0.13381  -0.20565
   0.11086  -0.07396  -0.19069
   0.11086  -0.08892  -0.16076
   0.05101  -0.14878  -0.17572
   0.02108  -0.05900  -0.28047
  -0.00885  -0.07396  -0.22061
  -0.05374  -0.04403  -0.32536
  -0.11360  -0.02907  -0.35529
  -0.15849  -0.02907  -0.32536
  -0.27820   8.6E-40  -0.40018
  -0.27820   0.03079  -0.40018
  -0.30813   0.01582  -0.40018
  -0.36798  -0.01410  -0.43011
  -0.41287  -0.04403  -0.47500
  -0.44280   0.03079  -0.44507
  -0.57747   0.10561  -0.56478
  -0.54755   0.18042  -0.53485
  -0.65229   0.21035  -0.68449
  -0.68222   0.27021  -0.66953
  -0.68222   0.19539  -0.63960
  -0.63733   0.18042  -0.71442
  -0.62236   0.15050  -0.66953
  -0.57747   0.03079  -0.63960
  -0.59244   0.06071  -0.57974
  -0.66726   0.10561  -0.57974
  -0.74207   0.21035  -0.53485
  -0.74207   0.24028  -0.56478
  -0.71215   0.28517  -0.50492
  -0.57747   0.25524  -0.43011
  -0.51762   0.16546  -0.48996
  -0.41287   0.13553  -0.41514
  -0.47273   0.06071  -0.37025
  -0.44280   0.04575  -0.32536
  -0.45776   0.04575  -0.16076
  -0.42784  -0.01410  -0.11587
  -0.38294   0.09064  -0.05601
  -0.35302  -0.01410  -0.01112
  -0.30813   0.03079  -0.05601
  -0.23331   8.6E-40   0.04873
  -0.12856  -0.05900   0.12355
  -0.15849   0.03079   0.15348
  -0.09863  -0.14878   0.21334
  -0.09863  -0.04403   0.21334
  -0.03878  -0.11885   0.24326
  -0.00885  -0.07396   0.16844
   0.03604  -0.08892   0.18341
   0.05101  -0.13381   0.18341
   0.05101  -0.13381   0.21334
   0.11086   8.6E-40   0.25823
   0.14079  -0.02907   0.21334
   0.15575  -0.02907   0.21334
   0.11086   0.04575   0.18341
   0.18568   0.06071   0.13852
   0.29043   0.04575   0.06370
   0.33532   8.6E-40   0.00384
   0.41014  -0.05900   0.04873
   0.38021  -0.04403  -0.04105
   0.44006   0.03079  -0.05601
   0.39517   0.01582  -0.05601
   0.39517   0.06071  -0.04105
   0.44006   0.12057  -0.08594
   0.41014   0.12057  -0.05601
   0.32035   0.22532  -0.10090
   0.26050   0.12057  -0.11587
   0.27546   0.09064  -0.10090
   0.27546   0.03079  -0.19069
   0.27546   0.04575  -0.13083
   0.26050  -0.07396  -0.13083
   0.21561  -0.04403  -0.14579
   0.21561  -0.17871  -0.17572
   0.14079  -0.25352  -0.17572
   0.14079  -0.31338  -0.16076
   0.09590  -0.34331  -0.02608
   0.08093  -0.25352   0.06370
   0.11086  -0.22360   0.06370
   0.14079  -0.07396   0.07866
   0.09590  -0.14878   0.01881
   0.09590  -0.22360   0.06370
   0.08093  -0.23856   0.10859
   0.05101  -0.28345   0.15348
   0.05101  -0.20863   0.15348
   0.02108  -0.10389   0.16844
   0.02108  -0.08892   0.15348
   0.03604  -0.04403   0.07866
   0.03604  -0.11885   0.04873
   0.02108  -0.08892   0.04873
  -0.03878  -0.08892   0.06370
  -0.02381  -0.01410   0.10859
  -0.06871   0.03079   0.10859
  -0.05374   0.10561   0.07866
  -0.05374   0.18042   0.03377
  -0.06871   0.15050  -0.10090
   0.00611   0.15050  -0.16076
   0.09590   0.07568  -0.19069
   0.09590   0.01582  -0.28047
   0.21561  -0.10389  -0.28047
   0.23057  -0.04403  -0.19069
   0.26050  -0.04403  -0.17572
   0.27546  -0.02907  -0.07098
   0.24553   0.06071  -0.02608
   0.23057   0.04575   0.04873
   0.12582   0.10561   0.04873
   0.20064   0.07568   0.04873
   0.20064   0.10561   0.07866
   0.18568  -0.05900   0.06370
   0.24553   8.6E-40   0.18341
   0.27546  -0.05900   0.22830
   0.27546  -0.04403   0.24326
   0.20064  -0.08892   0.19837
   0.20064  -0.04403   0.19837
   0.15575  -0.05900   0.22830
   0.18568  -0.04403   0.27319
   0.17072   8.6E-40   0.37794
   0.26050   0.03079   0.46772
   0.27546   8.6E-40   0.45276
   0.24553   0.01582   0.43779
   0.20064   0.06071   0.43779
   0.18568   0.12057   0.43779
   0.17072   0.13553   0.49765
   0.20064   0.19539   0.55750
   0.21561   0.18042   0.58743
   0.20064   0.09064   0.57247
   0.18568   0.12057   0.51261
   0.23057   0.13553   0.52757
   0.21561   0.03079   0.46772
   0.27546   8.6E-40   0.49765
   0.14079  -0.04403   0.49765
   0.12582   8.6E-40   0.52757
   0.00611  -0.07396   0.45276
  -0.02381  -0.10389   0.45276
  -0.06871  -0.14878   0.36297
  -0.11360  -0.14878   0.34801
  -0.08367  -0.25352   0.33305
  -0.11360  -0.28345   0.31808
  -0.20338  -0.37323   0.19837
  -0.15849  -0.29842   0.18341
  -0.21834  -0.37323   0.13852
  -0.20338  -0.25352   0.19837
  -0.20338  -0.22360   0.18341
  -0.17345  -0.14878   0.19837
  -0.20338  -0.13381   0.16844
  -0.15849  -0.05900   0.15348
  -0.21834   8.6E-40   0.12355
  -0.11360   0.03079   0.13852
  -0.20338   0.01582   0.10859
  -0.11360   0.04575   0.19837
  -0.03878   0.04575   0.19837
   0.05101   0.09064   0.25823
   0.09590   0.16546   0.30312
   0.11086   0.21035   0.24326
   0.14079   0.25524   0.22830
   0.26050   0.30013   0.30312
   0.23057   0.22532   0.28815
   0.21561   0.27021   0.25823
   0.11086   0.27021   0.15348
   0.09590   0.27021   0.13852
   0.05101   0.22532   0.01881
   0.03604   0.21035  -0.02608
   0.02108   0.13553  -0.05601
   0.08093   0.13553  -0.05601
   0.05101   0.04575  -0.07098
   0.06597   0.10561  -0.20565
  -0.02381   0.16546  -0.22061
  -0.11360   0.06071  -0.31040
  -0.14352  -0.01410  -0.34032
  -0.20338   8.6E-40  -0.37025
  -0.33805  -0.02907  -0.44507
  -0.39791  -0.08892  -0.37025
  -0.50265  -0.04403  -0.46003
  -0.48769  -0.11885  -0.44507
  -0.51762  -0.08892  -0.44507
  -0.51762  -0.10389  -0.43011
  -0.57747  -0.11885  -0.44507
  -0.54755  -0.14878  -0.35529
  -0.65229  -0.14878  -0.37025
  -0.69718  -0.11885  -0.34032
  -0.74207  -0.02907  -0.20565
  -0.78697   8.6E-40  -0.19069
  -0.75704   0.13553  -0.08594
  -0.77200   0.18042   0.00384
  -0.77200   0.15050   0.07866
  -0.77200   0.16546   0.06370
  -0.66726   0.21035   0.13852
  -0.62236   0.16546   0.21334
  -0.54755   0.21035   0.18341
  -0.47273   0.18042   0.19837
  -0.35302   0.10561   0.28815
  -0.27820   0.09064   0.27319
  -0.18842   0.13553   0.25823
  -0.08367   0.13553   0.27319
  -0.03878   0.09064   0.33305
   0.09590   0.15050   0.40786
   0.18568   0.06071   0.37794
   0.21561   0.12057   0.30312
   0.35028   0.16546   0.33305
   0.38021   0.12057   0.30312
   0.57474   0.09064   0.36297
   0.67948  -0.04403   0.28815
   0.70941   8.6E-40   0.22830
   0.78423   0.03079   0.18341
   0.78423   0.03079   0.15348
   0.82912   0.01582   0.15348
   0.90394  -0.01410   0.04873
   0.90394  -0.13381  -0.11587
   0.96379  -0.13381  -0.10090
   0.88898  -0.19367  -0.32536
   0.85905  -0.19367  -0.40018
   0.82912  -0.16374  -0.44507
   0.76927  -0.25352  -0.56478
   0.70941  -0.25352  -0.62464
   0.66452  -0.26849  -0.74435
   0.63459  -0.28345  -0.81916
   0.63459  -0.31338  -0.90895
   0.55977  -0.29842  -0.87902
   0.51488  -0.38820  -0.95384
   0.38021  -0.29842  -0.99873
   0.24553  -0.22360  -1.05858
   0.24553  -0.14878  -0.93887
   0.18568  -0.07396  -0.95384
   0.08093  -0.01410  -0.89398
   0.05101   0.09064  -0.81916
   0.02108   0.04575  -0.80420
  -0.02381   0.13553  -0.77427
  -0.08367   0.09064  -0.77427
  -0.08367   0.06071  -0.69945
  -0.12856   0.10561  -0.68449
  -0.21834   0.09064  -0.68449
  -0.27820   0.16546  -0.69945
  -0.27820   0.21035  -0.60967
  -0.30813   0.19539  -0.56478
  -0.41287   0.25524  -0.63960
  -0.47273   0.19539  -0.63960
  -0.51762   0.24028  -0.65456
  -0.60740   0.25524  -0.69945
  -0.56251   0.28517  -0.75931
  -0.56251   0.28517  -0.77427
  -0.59244   0.24028  -0.78924
  -0.65229   0.21035  -0.83413
  -0.63733   0.25524  -0.92391
  -0.69718   0.21035  -0.81916
  -0.65229   0.19539  -0.78924
  -0.68222   0.13553  -0.78924
  -0.69718   0.06071  -0.78924
  -0.63733   0.06071  -0.68449
  -0.57747   0.09064  -0.57974
  -0.59244   0.06071  -0.44507
  -0.48769   0.10561  -0.40018
  -0.38294   0.09064  -0.19069
  -0.33805  -0.01410  -0.22061
  -0.23331  -0.02907  -0.11587
  -0.11360  -0.13381  -0.01112
  -0.05374  -0.14878   0.09363
  -0.06871  -0.13381   0.22830
   0.00611  -0.20863   0.34801
   0.06597  -0.26849   0.37794
   0.14079  -0.17871   0.46772
   0.21561  -0.08892   0.49765
   0.29043  -0.11885   0.52757
   0.33532  -0.11885   0.55750
   0.44006  -0.02907   0.60239
   0.44006  -0.11885   0.61736
   0.44006  -0.10389   0.61736
   0.51488  -0.08892   0.63232
   0.55977  -0.02907   0.63232
   0.54481  -0.01410   0.63232
   0.48495  -0.08892   0.60239
   0.48495  -0.10389   0.67721
   0.48495  -0.13381   0.69218
   0.45503  -0.10389   0.78196
   0.42510  -0.08892   0.73707
   0.41014   0.04575   0.76699
   0.35028   0.04575   0.76699
   0.27546   0.01582   0.72210
   0.27546   0.09064   0.78196
   0.23057   0.06071   0.79692
   0.15575   0.06071   0.73707
   0.12582   0.04575   0.79692
   0.03604   0.10561   0.75203
  -0.08367   0.07568   0.67721
  -0.09863   0.15050   0.60239
  -0.15849   0.18042   0.45276
  -0.26323   0.19539   0.34801
  -0.23331   0.13553   0.30312
  -0.23331   0.09064   0.16844
  -0.20338   0.03079   0.03377
  -0.18842   0.07568   0.00384
  -0.14352   8.6E-40  -0.10090
  -0.21834  -0.04403  -0.23558
  -0.11360  -0.07396  -0.28047
  -0.21834  -0.02907  -0.37025
  -0.20338  -0.13381  -0.29543
  -0.18842  -0.10389  -0.25054
  -0.20338  -0.07396  -0.34032
  -0.29316  -0.01410  -0.26550
  -0.26323  -0.05900  -0.17572
  -0.26323   0.04575  -0.11587
  -0.30813   0.03079  -0.04105
  -0.33805   0.07568   0.15348
  -0.30813   0.15050   0.25823
  -0.30813   0.12057   0.43779
  -0.29316   0.15050   0.67721
  -0.35302   0.07568   0.79692
  -0.26323   0.13553   0.99145
  -0.32309   0.10561   1.18598
  -0.36798   0.09064   1.24583
  -0.29316   0.12057   1.32065
  -0.30813   0.10561   1.42540
  -0.29316   0.16546   1.53015
  -0.24827   0.10561   1.60497
  -0.18842   0.18042   1.69475
  -0.09863   0.13553   1.75460
  -0.08367   8.6E-40   1.64986
   0.00611   0.07568   1.61993
   0.02108   0.06071   1.50022
   0.09590   0.01582   1.48526
   0.17072   8.6E-40   1.36555
   0.26050  -0.08892   1.32065
   0.32035  -0.13381   1.12612
   0.42510  -0.10389   1.00641
   0.48495  -0.20863   0.82685
   0.63459  -0.32834   0.61736
   0.67948  -0.31338   0.45276
   0.69445  -0.35827   0.22830
   0.73934  -0.38820   0.10859
   0.76927  -0.43309   0.01881
   0.76927  -0.46302  -0.13083
   0.78423  -0.56776  -0.19069
   0.85905  -0.56776  -0.25054
   0.85905  -0.52287  -0.31040
   0.69445  -0.50791  -0.50492
   0.63459  -0.37323  -0.51989
   0.54481  -0.31338  -0.59471
   0.48495  -0.25352  -0.66953
   0.42510  -0.14878  -0.68449
   0.29043  -0.16374  -0.78924
   0.14079  -0.10389  -0.90895
   0.02108  -0.05900  -0.90895
  -0.12856   0.01582  -0.92391
  -0.29316   0.04575  -0.87902
  -0.41287   0.15050  -0.75931
  -0.62236   0.24028  -0.81916
  -0.75704   0.33006  -0.84909
  -0.80193   0.33006  -0.80420
  -0.89171   0.35999  -0.89398
  -0.87675   0.35999  -0.74435
  -1.02639   0.40488  -0.87902
  -0.93660   0.33006  -0.74435
  -0.95157   0.19539  -0.80420
  -0.90668   0.18042  -0.72938
  -0.95157   0.22532  -0.77427
  -0.90668   0.16546  -0.86406
  -0.77200   0.22532  -0.77427
  -0.68222   0.16546  -0.84909
  -0.50265   0.16546  -0.77427
  -0.39791   0.07568  -0.83413
  -0.21834   0.09064  -0.80420
   0.02108   0.12057  -0.66953
   0.15575   8.6E-40  -0.59471
   0.29043  -0.04403  -0.54982
   0.55977  -0.04403  -0.47500
   0.58970  -0.14878  -0.43011
   0.75430  -0.22360  -0.28047
   0.85905  -0.17871  -0.31040
   0.94883  -0.14878  -0.20565
   0.94883  -0.08892  -0.20565
   1.03861  -0.11885  -0.10090
   0.91890  -0.11885  -0.16076
   0.90394  -0.08892  -0.05601
   0.84408  -0.11885  -0.16076
   0.76927  -0.11885  -0.02608
   0.60466  -0.14878  -0.08594
   0.51488  -0.14878  -0.05601
   0.23057  -0.11885  -0.04105
   0.14079  -0.11885  -0.05601
  -0.09863  -0.11885  -0.01112
  -0.23331  -0.11885   0.03377
  -0.53258  -0.04403   0.04873
  -0.66726  -0.08892   0.12355
  -0.83186   8.6E-40   0.10859
  -0.89171  -0.02907   0.18341
  -1.07128   0.03079   0.13852
  -1.11617   0.04575   0.21334
  -1.22091   0.04575   0.04873
  -1.25084   0.06071   0.00384
  -1.28077   8.6E-40  -0.08594
  -1.20595   0.10561  -0.05601
  -1.05631   0.09064  -0.02608
  -1.10120   0.13553  -0.25054
  -0.96653   0.18042  -0.23558
  -0.92164   0.18042  -0.40018
  -0.84682   0.22532  -0.47500
  -0.69718   0.25524  -0.57974
  -0.47273   0.22532  -0.48996
  -0.36798   0.21035  -0.65456
  -0.15849   0.27021  -0.75931
  -0.05374   0.22532  -0.81916
   0.06597   0.24028  -0.89398
   0.21561   0.27021  -0.84909
   0.30539   0.22532  -0.89398
   0.45503   0.16546  -0.74435
   0.54481   0.13553  -0.75931
   0.52985   0.09064  -0.81916
   0.54481   0.12057  -0.65456
   0.63459   0.12057  -0.59471
   0.52985   0.10561  -0.48996
   0.48495   0.04575  -0.44507
   0.36524   0.01582  -0.44507
   0.32035   0.01582  -0.26550
   0.24553   8.6E-40  -0.14579
   0.21561  -0.01410   0.01881
   0.11086  -0.08892   0.10859
   0.09590  -0.11885   0.27319
   0.06597  -0.10389   0.43779
   0.08093  -0.07396   0.60239
   0.23057  -0.17871   0.84181
   0.14079  -0.16374   0.87174
   0.14079  -0.11885   0.88670
   0.20064  -0.13381   0.97649
   0.18568  -0.10389   0.96152
   0.32035  -0.19367   1.02138
   0.42510  -0.25352   1.14109
   0.39517  -0.34331   0.96152
   0.60466  -0.29842   1.02138
   0.60466  -0.41813   0.97649
   0.72437  -0.38820   0.94656
   0.78423  -0.40316   0.93160
   0.85905  -0.37323   0.90167
   1.00869  -0.37323   0.81189
   0.99372  -0.28345   0.67721
   1.00869  -0.20863   0.51261
   1.00869  -0.14878   0.37794
   0.91890  -0.17871   0.25823
   0.93387  -0.10389   0.31808
   0.85905  -0.05900   0.21334
   0.72437  -0.02907   0.09363
   0.58970  -0.07396   0.03377
   0.46999   8.6E-40   0.03377
   0.38021  -0.01410  -0.07098
   0.23057   0.07568  -0.07098
   0.15575   0.04575  -0.05601
   0.00611   0.13553  -0.11587
  -0.14352   0.22532  -0.16076
  -0.15849   0.18042  -0.07098
  -0.23331   0.24028  -0.14579
  -0.30813   0.28517  -0.07098
  -0.42784   0.25524  -0.14579
  -0.45776   0.31510  -0.14579
  -0.59244   0.35999  -0.16076
  -0.62236   0.27021  -0.14579
  -0.69718   0.33006  -0.13083
  -0.75704   0.34503  -0.22061
  -0.75704   0.30013  -0.23558
  -0.75704   0.30013  -0.25054
  -0.75704   0.33006  -0.26550
  -0.71215   0.35999  -0.25054
  -0.57747   0.37495  -0.14579
  -0.63733   0.28517  -0.14579
  -0.56251   0.25524  -0.05601
  -0.47273   0.25524  -0.10090
  -0.44280   0.21035  -0.01112
