********************************************************************************
              CENTRO DE INSTRUMENTACION Y REGISTRO SISMICO  A.C.

    Anaxagoras 814, Col. Narvarte, Benito Juarez, C.P. 03020 Mexico, D.F.
           Tels. 5687 45 42/ 5687 45  82             Fax. 5669 25 12
********************************************************************************
ARCHIVO ESTANDAR DE ACELERACION:
VERSION DEL FORMATO                    : 2.0
NOMBRE DEL ARCHIVO                     : AL0120130816153259
FECHA Y HORA DE CREACION               : 09/SEP/13, 11:48
REF. CATALOGO ACELEROGRAMAS, SMIS 1996 : REGISTRO No.     /PAG.


================================================================================
DATOS DE LA ESTACION:
NOMBRE DE LA ESTACION                  : ALAMEDA
CLAVE DE LA ESTACION                   : AL01
LOCALIZACION DE LA ESTACION            : Del. Cuauhtémoc, Col. Centro,          
                                       : Dr. Mora entre Av. Hidalgo             
                                       : y Av. Juárez.                          
                                       :                                        
                                       : 
COORDENADAS DE LA ESTACION             : 19.4356 LAT. N
                                       : 99.1453 LONG. W
ALTITUD (msnm)                         : 2232
TIPO DE SUELO                          : Terreno blando, material compresible
                                       : (arcillas)                
                                       : 
INSTITUCION RESPONSABLE                : CIRES
                                       : 

================================================================================
DATOS DEL ACELEROGRAFO:
MODELO DEL ACELEROGRAFO                : RADESD
NUMERO DE SERIE DEL ACELEROGRAFO       : 152
NUMERO DE CANALES                      : 3
ORIENTACION C1-C6 (rumbo;orientacion)  : /N00E/+V/N90W
ORIENTACION C7-C12 (rumbo;orientacion) : 
VEL. DE MUESTREO, C1-C6 (muestras/s)   : /100/100/100
VEL. DE MUESTREO, C7-C12 (muestras/s)  : 
ESC. COMPLETA DE SENSORES, C1-C6, (g)  : /0.5/0.5/0.5
ESC. COMPLETA DE SENSORES, C7-C12, (g) : 
FREC. NAT. DE SENSORES, C1-C6, (Hz)    : /51.29/51.09/53.75
FREC. NAT. DE SENSORES, C7-C12, (Hz)   : 
AMORTIGUAMIENTO DE SENSORES, C1-C6     : /0.5519/0.5670/0.5810
AMORTIGUAMIENTO DE SENSORES, C7-C12    : 
INTERVALO DE MUESTREO, C1-C6, (s)      : /0.01/0.01/0.01
INTERVALO DE MUESTREO, C7-C12, (s)     : 
UMBRAL DE DISPARO, C1-C6, (Gal)        : /14.37/28.73/14.37
UMBRAL DE DISPARO, C7-C12, (Gal)       : 
MEMORIA DE PREEVENTO (s)               : 56.0
TIEMPO DE POSEVENTO (s)                : 80.0


================================================================================
DATOS DEL SISMO:
FECHA DEL SISMO (GMT)                  : 16/AGO/13
HORA EPICENTRO (GMT)                   : 15:32:59.0
MAGNITUD(ES)                           : /Mc=5.1
COORDENADAS DEL EPICENTRO              : 16.54 LAT. N
                                       : 98.59 LONG. W
PROFUNDIDAD FOCAL (km)                 : 20
FUENTE DE LOS DATOS EPICENTRALES       : SSN
                                       : INSTITUTO DE GEOFISICA, UNAM

================================================================================
DATOS DE ESTE REGISTRO:
HORA DE LA PRIMERA MUESTRA (GMT)       : 15:34:33.00
EXACTITUD DEL TIEMPO (s)               : 0.01
DURACION DEL REGISTRO (s), C1-C6       : /163.4/163.4/163.4
DURACION DEL REGISTRO (s), C7-C12      : 
NUM. TOTAL DE MUESTRAS, C1-C6          : /16340/16340/16340
NUM. TOTAL DE MUESTRAS, C7-C12         : 
ACEL. MAX. (Gal), C1-C6                : /1.77318/1.14352/1.71175
ACEL. MAX., C1-C6, EN LA MUESTRA       : /5521/5755/4711
ACEL. MAX. (Gal), C7-C12               : 
ACEL. MAX., C7-C12, EN LA MUESTRA      : 
UNIDADES DE LOS DATOS                  : Gal (cm/s/s)
FACTOR DE DECIMACION                   : 1
FORMATO DATOS (FORTRAN,10 campos/dato) : 3F10.5


================================================================================
CALIDAD DEL ACELEROGRAMA:
REGISTRO DIGITAL COMPLETO CON TIEMPO ABSOLUTO CORRECTO.


================================================================================
COMENTARIOS:














================================================================================
DATOS DE ACELERACION:
---------+---------+---------+---------+---------+---------+---------+---------+
   CANAL-1   CANAL-2   CANAL-3   CANAL-4   CANAL-5   CANAL-6   CANAL-7   CANAL-8
      N00E        +V      N90W
---------+---------+---------+---------+---------+---------+---------+---------+
[...]
  -0.06736   0.45519   0.48473
  -0.14218   0.41030   0.42487
  -0.21700   0.33548   0.40991
  -0.29181   0.24570   0.32012
  -0.33671   0.27563   0.23034
  -0.48634   0.26066   0.14056
  -0.51627   0.18584   0.03581
  -0.56116   0.11102  -0.06893
  -0.60605   0.05117  -0.15872
  -0.71080   0.05117  -0.26346
  -0.80058  -0.05358  -0.36821
  -0.86044  -0.05358  -0.51785
  -0.87540  -0.09847  -0.59267
  -0.92029  -0.29300  -0.66748
  -0.99511  -0.24811  -0.72734
  -1.08489  -0.35285  -0.77223
  -1.20460  -0.44264  -0.78719
  -1.26446  -0.48753  -0.77223
  -1.35424  -0.56235  -0.81712
  -1.42906  -0.63716  -0.77223
  -1.47395  -0.60724  -0.80216
  -1.53381  -0.68206  -0.80216
  -1.62359  -0.66709  -0.71238
  -1.60863  -0.69702  -0.65252
  -1.72834  -0.69702  -0.59267
  -1.69841  -0.63716  -0.56274
  -1.71337  -0.57731  -0.47296
  -1.68344  -0.50249  -0.48792
  -1.60863  -0.45760  -0.36821
  -1.65352  -0.47256  -0.36821
  -1.65352  -0.35285  -0.30835
  -1.54877  -0.32293  -0.20361
  -1.53381  -0.27803  -0.18864
  -1.44402  -0.24811  -0.12879
  -1.38417  -0.17329  -0.06893
  -1.38417  -0.11343  -0.09886
  -1.24950  -0.12840  -0.11383
  -1.14475  -0.11343  -0.11383
  -1.05497  -0.12840  -0.12879
  -0.99511  -0.11343  -0.06893
  -0.90533  -0.05358  -0.08390
  -0.87540  -0.05358  -0.12879
  -0.80058   0.02124  -0.14375
  -0.77065   0.09606  -0.17368
  -0.75569   0.00628  -0.18864
  -0.75569   0.06613  -0.23354
  -0.69584   0.21577  -0.26346
  -0.74073   0.23073  -0.29339
  -0.69584   0.36541  -0.29339
  -0.69584   0.45519  -0.36821
  -0.72576   0.47015  -0.39814
  -0.71080   0.53001  -0.41310
  -0.69584   0.53001  -0.42806
  -0.69584   0.58986  -0.38317
  -0.75569   0.48512  -0.39814
  -0.66591   0.66468  -0.44303
  -0.68087   0.66468  -0.42806
  -0.78562   0.61979  -0.41310
  -0.80058   0.69461  -0.45799
  -0.74073   0.72454  -0.44303
  -0.74073   0.67965  -0.47296
  -0.68087   0.69461  -0.44303
  -0.62102   0.61979  -0.44303
  -0.60605   0.54497  -0.48792
  -0.51627   0.53001  -0.44303
  -0.45642   0.47015  -0.50288
  -0.45642   0.45519  -0.53281
  -0.32174   0.39534  -0.50288
  -0.29181   0.36541  -0.59267
  -0.20203   0.29059  -0.59267
  -0.14218   0.14095  -0.65252
  -0.08232   0.06613  -0.74230
  -0.00750   0.02124  -0.77223
   0.08228  -0.08350  -0.84705
   0.17206  -0.20322  -0.81712
   0.21695  -0.15832  -0.84705
   0.24688  -0.21818  -0.89194
   0.30674  -0.29300  -0.92187
   0.42645  -0.41271  -0.89194
   0.44141  -0.44264  -0.93683
   0.47134  -0.42767  -0.92187
   0.50126  -0.41271  -0.87698
   0.56112  -0.42767  -0.83209
   0.59105  -0.36782  -0.75727
   0.62097  -0.36782  -0.65252
   0.60601  -0.33789  -0.54777
   0.65090  -0.30796  -0.51785
   0.66587  -0.29300  -0.39814
   0.62097  -0.20322  -0.26346
   0.63594  -0.21818  -0.17368
   0.57608  -0.18825  -0.08390
   0.57608  -0.18825   0.00588
   0.50126  -0.17329   0.08070
   0.47134  -0.08350   0.21538
   0.36659  -0.11343   0.26027
   0.39652  -0.02365   0.29020
   0.33666   0.02124   0.33509
   0.32170  -0.00869   0.46976
   0.29177  -0.00869   0.48473
   0.33666   0.03621   0.61940
   0.32170   0.02124   0.63436
   0.33666   0.05117   0.70918
   0.32170   0.08110   0.73911
   0.27681   0.12599   0.73911
   0.32170   0.09606   0.78400
   0.35163   0.12599   0.75407
   0.38155   0.18584   0.78400
   0.41148   0.14095   0.73911
   0.44141   0.17088   0.73911
   0.56112   0.21577   0.75407
   0.60601   0.23073   0.75407
   0.69579   0.26066   0.76904
   0.80054   0.32052   0.78400
   0.83047   0.45519   0.79896
   0.95018   0.42526   0.76904
   0.98011   0.45519   0.78400
   1.05492   0.47015   0.73911
   1.12974   0.51505   0.69422
   1.21953   0.55994   0.67925
   1.32427   0.50008   0.63436
   1.36916   0.57490   0.61940
   1.44398   0.45519   0.52962
   1.48887   0.42526   0.45480
   1.38413   0.48512   0.43983
   1.48887   0.39534   0.43983
   1.47391   0.33548   0.40991
   1.45895   0.35044   0.32012
   1.50384   0.26066   0.33509
   1.41405   0.27563   0.27523
   1.41405   0.26066   0.18545
   1.35420   0.21577   0.11063
   1.35420   0.15592   0.08070
   1.33924   0.17088   0.08070
   1.27938   0.17088   0.12559
   1.26442   0.09606   0.03581
   1.20456   0.02124   0.00588
   1.17463   0.02124  -0.03901
   1.15967  -0.02365   0.00588
   1.11478  -0.02365  -0.00908
   1.09982  -0.08350   0.00588
   1.02500  -0.05358  -0.00908
   0.99507  -0.14336  -0.02404
   0.96514  -0.20322   0.00588
   0.93521  -0.17329  -0.02404
   0.84543  -0.26307  -0.06893
   0.89032  -0.35285  -0.05397
   0.77061  -0.29300  -0.06893
   0.72572  -0.32293  -0.08390
   0.66587  -0.39774  -0.08390
   0.57608  -0.41271  -0.14375
   0.48630  -0.41271  -0.08390
   0.42645  -0.44264  -0.11383
   0.30674  -0.38278  -0.08390
   0.27681  -0.42767  -0.12879
   0.12717  -0.48753  -0.18864
   0.05235  -0.44264  -0.18864
  -0.05239  -0.54738  -0.30835
  -0.18707  -0.48753  -0.30835
  -0.30678  -0.48753  -0.35325
  -0.38160  -0.51745  -0.33828
  -0.45642  -0.47256  -0.35325
  -0.60605  -0.47256  -0.41310
  -0.68087  -0.47256  -0.39814
  -0.81555  -0.47256  -0.42806
  -0.90533  -0.44264  -0.48792
  -0.98015  -0.47256  -0.44303
  -1.01007  -0.30796  -0.39814
  -1.12978  -0.24811  -0.42806
  -1.15971  -0.18825  -0.39814
  -1.21957  -0.27803  -0.38317
  -1.29439  -0.20322  -0.32332
  -1.26446  -0.15832  -0.24850
  -1.33928  -0.12840  -0.24850
  -1.30935  -0.05358  -0.17368
  -1.33928  -0.05358  -0.12879
  -1.35424  -0.06854  -0.02404
  -1.35424  -0.02365  -0.06893
  -1.29439  -0.08350  -0.02404
  -1.29439   0.00628   0.08070
  -1.17468   0.05117   0.12559
  -1.06993   0.03621   0.21538
  -0.99511   0.08110   0.23034
  -0.98015   0.09606   0.24530
  -0.81555   0.12599   0.32012
  -0.78562   0.15592   0.30516
  -0.69584   0.06613   0.33509
  -0.60605   0.06613   0.37998
  -0.51627   0.14095   0.39494
  -0.50131   0.06613   0.39494
  -0.33671   0.12599   0.48473
  -0.32174   0.05117   0.45480
  -0.21700   0.12599   0.48473
  -0.20203   0.09606   0.49969
  -0.08232   0.03621   0.57451
  -0.11225   0.05117   0.58947
  -0.06736  -0.03861   0.58947
  -0.05239   0.00628   0.64933
  -0.05239  -0.05358   0.66429
  -0.00750  -0.06854   0.69422
   0.00746  -0.11343   0.73911
  -0.03743  -0.11343   0.73911
  -0.03743  -0.12840   0.72415
  -0.06736  -0.14336   0.81393
  -0.09729  -0.12840   0.81393
  -0.11225  -0.26307   0.79896
  -0.20203  -0.24811   0.82889
  -0.15714  -0.30796   0.87378
  -0.11225  -0.27803   0.90371
  -0.17210  -0.35285   0.91867
  -0.18707  -0.36782   0.94860
  -0.15714  -0.39774   0.93364
  -0.09729  -0.35285   1.00846
  -0.14218  -0.38278   0.99349
  -0.17210  -0.29300   1.00846
  -0.15714  -0.30796   0.91867
  -0.12721  -0.27803   0.93364
  -0.06736  -0.15832   0.90371
   0.00746  -0.09847   0.90371
   0.06732  -0.03861   0.82889
   0.12717  -0.03861   0.79896
   0.15710   0.09606   0.72415
   0.21695   0.17088   0.58947
   0.29177   0.26066   0.52962
   0.41148   0.24570   0.43983
   0.41148   0.30555   0.40991
   0.53119   0.33548   0.29020
   0.54616   0.44023   0.11063
   0.66587   0.45519   0.03581
   0.71076   0.47015  -0.06893
   0.78558   0.38037  -0.15872
   0.86040   0.42526  -0.32332
   0.86040   0.45519  -0.41310
   0.89032   0.44023  -0.45799
   0.93521   0.51505  -0.53281
   0.90529   0.53001  -0.69741
   1.02500   0.51505  -0.72734
   1.01003   0.42526  -0.78719
   0.95018   0.51505  -0.84705
   1.01003   0.36541  -0.83209
   0.86040   0.33548  -0.86201
   0.84543   0.30555  -0.90690
   0.77061   0.26066  -0.93683
   0.74069   0.26066  -0.96676
   0.59105   0.17088  -1.04158
   0.63594   0.09606  -0.99669
   0.53119   0.08110  -0.95180
   0.47134   0.11102  -0.98172
   0.30674   0.08110  -0.96676
   0.27681   0.02124  -0.90690
   0.15710  -0.03861  -0.87698
   0.05235  -0.02365  -0.93683
  -0.02247   0.03621  -0.86201
  -0.03743  -0.03861  -0.84705
  -0.15714  -0.03861  -0.80216
  -0.23196   0.00628  -0.72734
  -0.27685  -0.05358  -0.78719
  -0.35167  -0.03861  -0.74230
  -0.42649  -0.03861  -0.66748
  -0.57613  -0.03861  -0.62259
  -0.63598   0.00628  -0.60763
  -0.68087   0.02124  -0.56274
  -0.86044   0.02124  -0.59267
  -0.84547   0.00628  -0.54777
  -0.92029   0.05117  -0.56274
  -0.96518  -0.00869  -0.53281
  -1.04000  -0.00869  -0.51785
  -1.01007  -0.08350  -0.45799
  -1.04000  -0.02365  -0.41310
  -1.09986  -0.02365  -0.42806
  -1.11482  -0.11343  -0.41310
  -1.04000  -0.12840  -0.39814
  -1.06993  -0.18825  -0.35325
  -1.12978  -0.09847  -0.39814
  -1.09986  -0.12840  -0.35325
  -1.08489  -0.21818  -0.42806
  -1.01007  -0.27803  -0.38317
  -1.04000  -0.18825  -0.44303
  -1.04000  -0.17329  -0.41310
  -0.99511  -0.27803  -0.41310
  -1.01007  -0.24811  -0.42806
  -1.02504  -0.18825  -0.39814
  -0.98015  -0.21818  -0.39814
  -0.93526  -0.18825  -0.44303
  -0.86044  -0.23314  -0.38317
  -0.87540  -0.20322  -0.39814
  -0.84547  -0.20322  -0.35325
  -0.86044  -0.12840  -0.35325
  -0.80058  -0.11343  -0.35325
  -0.84547  -0.03861  -0.27843
  -0.81555  -0.08350  -0.30835
  -0.81555  -0.03861  -0.33828
  -0.75569   0.00628  -0.24850
  -0.78562  -0.02365  -0.18864
  -0.80058   0.05117  -0.20361
  -0.75569  -0.00869  -0.11383
  -0.83051  -0.02365  -0.03901
  -0.83051   0.03621   0.05078
  -0.71080   0.03621   0.12559
  -0.77065   0.09606   0.14056
  -0.75569   0.00628   0.29020
  -0.68087   0.03621   0.30516
  -0.68087   0.05117   0.36502
  -0.60605   0.00628   0.45480
  -0.56116   0.02124   0.55954
  -0.50131   0.03621   0.58947
  -0.47138   0.02124   0.67925
  -0.39656   0.03621   0.73911
  -0.33671  -0.00869   0.72415
  -0.24692  -0.00869   0.78400
  -0.18707   0.11102   0.78400
  -0.12721  -0.00869   0.81393
  -0.08232   0.02124   0.85882
  -0.06736   0.00628   0.79896
   0.09724  -0.05358   0.78400
   0.11221  -0.06854   0.75407
   0.15710  -0.03861   0.73911
   0.29177  -0.00869   0.75407
   0.30674  -0.05358   0.70918
   0.39652   0.00628   0.67925
   0.48630   0.03621   0.63436
   0.53119   0.06613   0.63436
   0.59105   0.09606   0.55954
   0.59105   0.09606   0.48473
   0.65090   0.12599   0.43983
   0.75565   0.15592   0.33509
   0.71076   0.17088   0.29020
   0.74069   0.18584   0.21538
   0.81550   0.09606   0.17049
   0.80054   0.17088   0.12559
   0.84543   0.11102   0.03581
   0.89032   0.15592  -0.05397
   0.93521   0.11102  -0.00908
   0.99507   0.08110  -0.08390
   0.98011   0.08110  -0.14375
   1.03996   0.03621  -0.17368
   1.11478   0.15592  -0.17368
   1.18960   0.09606  -0.20361
   1.21953   0.03621  -0.17368
   1.29434   0.06613  -0.24850
   1.33924  -0.02365  -0.17368
   1.39909  -0.03861  -0.18864
   1.45895  -0.03861  -0.17368
   1.56369  -0.11343  -0.18864
   1.53376  -0.14336  -0.15872
   1.66844  -0.05358  -0.12879
   1.68340  -0.20322  -0.15872
   1.77318  -0.24811  -0.14375
   1.72829  -0.17329  -0.15872
   1.77318  -0.11343  -0.15872
   1.74326  -0.24811  -0.18864
   1.74326  -0.27803  -0.24850
   1.72829  -0.29300  -0.27843
   1.68340  -0.20322  -0.27843
   1.68340  -0.32293  -0.27843
   1.54873  -0.32293  -0.30835
   1.50384  -0.23314  -0.35325
   1.42902  -0.26307  -0.41310
   1.29434  -0.18825  -0.44303
   1.23449  -0.15832  -0.54777
   1.06989  -0.12840  -0.56274
   0.99507  -0.05358  -0.57770
   0.83047  -0.02365  -0.57770
   0.68083   0.02124  -0.60763
   0.56112   0.08110  -0.59267
   0.42645   0.11102  -0.65252
   0.32170   0.20081  -0.60763
   0.21695   0.27563  -0.60763
   0.06732   0.15592  -0.54777
  -0.15714   0.29059  -0.54777
  -0.23196   0.32052  -0.39814
  -0.38160   0.32052  -0.35325
  -0.44145   0.33548  -0.24850
  -0.63598   0.39534  -0.20361
  -0.72576   0.36541  -0.20361
  -0.77065   0.32052  -0.05397
  -0.87540   0.35044  -0.02404
  -0.92029   0.35044   0.03581
  -1.11482   0.35044   0.06574
  -1.05497   0.38037   0.11063
  -1.12978   0.33548   0.17049
  -1.18964   0.35044   0.17049
  -1.24950   0.32052   0.23034
  -1.23453   0.27563   0.14056
  -1.21957   0.18584   0.20041
  -1.18964   0.15592   0.24530
  -1.11482   0.08110   0.27523
  -1.09986   0.02124   0.21538
  -1.04000   0.00628   0.23034
  -0.99511  -0.02365   0.29020
  -0.99511  -0.08350   0.35005
  -0.89036  -0.06854   0.32012
  -0.77065  -0.12840   0.37998
  -0.78562  -0.12840   0.40991
  -0.75569  -0.15832   0.46976
  -0.65094  -0.20322   0.49969
  -0.59109  -0.20322   0.52962
  -0.60605  -0.21818   0.52962
  -0.53123  -0.29300   0.64933
  -0.51627  -0.23314   0.66429
  -0.47138  -0.26307   0.81393
  -0.42649  -0.26307   0.84386
  -0.42649  -0.24811   0.91867
  -0.38160  -0.21818   1.02342
  -0.38160  -0.24811   1.03838
  -0.45642  -0.20322   1.03838
  -0.36663  -0.18825   1.06831
  -0.45642  -0.29300   1.02342
  -0.38160  -0.17329   1.03838
  -0.38160  -0.12840   1.09824
  -0.42649  -0.14336   1.08328
  -0.45642  -0.17329   1.02342
  -0.45642  -0.08350   1.03838
  -0.48634  -0.00869   1.05335
  -0.50131   0.03621   0.91867
  -0.47138   0.02124   0.91867
  -0.48634  -0.00869   0.84386
  -0.45642   0.12599   0.76904
  -0.38160   0.05117   0.67925
  -0.39656   0.09606   0.57451
  -0.36663   0.14095   0.48473
  -0.27685   0.15592   0.36502
  -0.21700   0.14095   0.30516
  -0.12721   0.14095   0.23034
  -0.08232   0.11102   0.06574
   0.00746   0.17088   0.00588
   0.06732   0.21577  -0.06893
   0.11221   0.21577  -0.15872
   0.14213   0.15592  -0.29339
   0.24688   0.20081  -0.32332
   0.30674   0.12599  -0.41310
   0.27681   0.14095  -0.53281
   0.36659   0.14095  -0.56274
   0.41148   0.14095  -0.65252
   0.44141   0.11102  -0.69741
   0.42645   0.05117  -0.72734
   0.45637   0.08110  -0.71238
   0.41148   0.08110  -0.71238
   0.41148   0.00628  -0.69741
   0.38155   0.00628  -0.72734
   0.38155  -0.03861  -0.66748
   0.35163  -0.09847  -0.63756
   0.30674  -0.08350  -0.59267
   0.33666  -0.06854  -0.53281
   0.35163   0.08110  -0.45799
   0.32170   0.03621  -0.38317
   0.32170   0.11102  -0.27843
   0.21695   0.02124  -0.27843
   0.21695   0.02124  -0.18864
   0.24688   0.05117  -0.09886
   0.24688   0.00628  -0.05397
   0.21695   0.03621   0.05078
   0.21695  -0.00869   0.09567
   0.26184  -0.00869   0.14056
   0.23192  -0.09847   0.20041
   0.18703  -0.06854   0.21538
   0.18703  -0.06854   0.23034
   0.24688  -0.12840   0.21538
   0.18703  -0.17329   0.27523
   0.14213  -0.23314   0.20041
   0.17206  -0.20322   0.26027
   0.09724  -0.21818   0.17049
   0.12717  -0.18825   0.15552
   0.15710  -0.20322   0.03581
   0.12717  -0.27803  -0.00908
   0.20199  -0.27803  -0.06893
   0.21695  -0.29300  -0.14375
   0.24688  -0.27803  -0.15872
   0.24688  -0.27803  -0.23354
   0.15710  -0.21818  -0.36821
   0.24688  -0.20322  -0.44303
   0.27681  -0.26307  -0.47296
   0.27681  -0.21818  -0.51785
   0.24688  -0.20322  -0.51785
   0.24688  -0.14336  -0.53281
   0.29177  -0.18825  -0.56274
   0.30674  -0.18825  -0.59267
   0.30674  -0.17329  -0.63756
   0.23192  -0.06854  -0.57770
   0.32170  -0.02365  -0.59267
   0.33666   0.06613  -0.54777
   0.29177   0.09606  -0.53281
   0.35163   0.06613  -0.50288
   0.33666   0.06613  -0.47296
   0.33666   0.12599  -0.42806
   0.36659   0.11102  -0.39814
   0.33666   0.18584  -0.44303
   0.32170   0.20081  -0.48792
   0.32170   0.21577  -0.47296
   0.32170   0.15592  -0.48792
   0.32170   0.17088  -0.45799
   0.30674   0.17088  -0.50288
   0.21695   0.17088  -0.50288
   0.18703   0.15592  -0.57770
   0.12717   0.12599  -0.54777
   0.05235   0.09606  -0.59267
   0.09724   0.08110  -0.59267
