********************************************************************************
              CENTRO DE INSTRUMENTACION Y REGISTRO SISMICO  A.C.

    Anaxagoras 814, Col. Narvarte, Benito Juarez, C.P. 03020 Mexico, D.F.
           Tels. 5687 45 42/ 5687 45  82             Fax. 5669 25 12
********************************************************************************
ARCHIVO ESTANDAR DE ACELERACION:
VERSION DEL FORMATO                    : 2.0
NOMBRE DEL ARCHIVO                     : AL0120120402173842
FECHA Y HORA DE CREACION               : 05/JUN/12, 10:39
REF. CATALOGO ACELEROGRAMAS, SMIS 1996 : REGISTRO No.     /PAG.


================================================================================
DATOS DE LA ESTACION:
NOMBRE DE LA ESTACION                  : ALAMEDA
CLAVE DE LA ESTACION                   : AL01
LOCALIZACION DE LA ESTACION            : Del. Cuauhtémoc, Col. Centro,          
                                       : Dr. Mora entre Av. Hidalgo             
                                       : y Av. Juárez.                          
                                       :                                        
                                       : 
COORDENADAS DE LA ESTACION             : 19.4356 LAT. N
                                       : 99.1453 LONG. W
ALTITUD (msnm)                         : 2232
TIPO DE SUELO                          : Terreno blando, material compresible
                                       : (arcillas)                
                                       : 
INSTITUCION RESPONSABLE                : CIRES
                                       : 

================================================================================
DATOS DEL ACELEROGRAFO:
MODELO DEL ACELEROGRAFO                : RADESD
NUMERO DE SERIE DEL ACELEROGRAFO       : 152
NUMERO DE CANALES                      : 3
ORIENTACION C1-C6 (rumbo;orientacion)  : /N00E/+V/N90W
ORIENTACION C7-C12 (rumbo;orientacion) : 
VEL. DE MUESTREO, C1-C6 (muestras/s)   : /100/100/100
VEL. DE MUESTREO, C7-C12 (muestras/s)  : 
ESC. COMPLETA DE SENSORES, C1-C6, (g)  : /0.5/0.5/0.5
ESC. COMPLETA DE SENSORES, C7-C12, (g) : 
FREC. NAT. DE SENSORES, C1-C6, (Hz)    : /51.29/51.09/53.75
FREC. NAT. DE SENSORES, C7-C12, (Hz)   : 
AMORTIGUAMIENTO DE SENSORES, C1-C6     : /0.5519/0.5670/0.5810
AMORTIGUAMIENTO DE SENSORES, C7-C12    : 
INTERVALO DE MUESTREO, C1-C6, (s)      : /0.01/0.01/0.01
INTERVALO DE MUESTREO, C7-C12, (s)     : 
UMBRAL DE DISPARO, C1-C6, (Gal)        : /71.83/83.8/83.8
UMBRAL DE DISPARO, C7-C12, (Gal)       : 
MEMORIA DE PREEVENTO (s)               : 56.0
TIEMPO DE POSEVENTO (s)                : 80.0


================================================================================
DATOS DEL SISMO:
FECHA DEL SISMO (GMT)                  : 02/ABR/12
HORA EPICENTRO (GMT)                   : 17:36:42.0
MAGNITUD(ES)                           : /Mc=6.0
COORDENADAS DEL EPICENTRO              : 16.30 LAT. N
                                       : 98.49 LONG. W
PROFUNDIDAD FOCAL (km)                 : 10
FUENTE DE LOS DATOS EPICENTRALES       : SSN
                                       : INSTITUTO DE GEOFISICA, UNAM

================================================================================
DATOS DE ESTE REGISTRO:
HORA DE LA PRIMERA MUESTRA (GMT)       : 17:38:25.00
EXACTITUD DEL TIEMPO (s)               : 0.01
DURACION DEL REGISTRO (s), C1-C6       : /127.0/127.0/127.0
DURACION DEL REGISTRO (s), C7-C12      : 
NUM. TOTAL DE MUESTRAS, C1-C6          : /12700/12700/12700
NUM. TOTAL DE MUESTRAS, C7-C12         : 
ACEL. MAX. (Gal), C1-C6                : /7.15259/3.30859/9.74656
ACEL. MAX., C1-C6, EN LA MUESTRA       : /4467/4728/4701
ACEL. MAX. (Gal), C7-C12               : 
ACEL. MAX., C7-C12, EN LA MUESTRA      : 
UNIDADES DE LOS DATOS                  : Gal (cm/s/s)
FACTOR DE DECIMACION                   : 1
FORMATO DATOS (FORTRAN,10 campos/dato) : 3F10.5


================================================================================
CALIDAD DEL ACELEROGRAMA:
REGISTRO DIGITAL COMPLETO CON TIEMPO ABSOLUTO CORRECTO.


================================================================================
COMENTARIOS:














================================================================================
DATOS DE ACELERACION:
---------+---------+---------+---------+---------+---------+---------+---------+
   CANAL-1   CANAL-2   CANAL-3   CANAL-4   CANAL-5   CANAL-6   CANAL-7   CANAL-8
      N00E        +V      N90W
---------+---------+---------+---------+---------+---------+---------+---------+
[...]
   1.43643  -1.53966  -0.22960
   1.21198  -1.39003  -0.55881
   1.04738  -1.27032  -0.75334
   0.88277  -1.06082  -0.97779
   0.62839  -0.88126  -1.21721
   0.35904  -0.64184  -1.26210
   0.05977  -0.49220  -1.29203
  -0.26943  -0.10314  -1.26210
  -0.65849   0.21110  -1.08254
  -1.04755   0.51037  -0.88801
  -1.39172   0.92936  -0.51392
  -1.85559   1.16878  -0.15479
  -2.21472   1.40820   0.21931
  -2.57385   1.63265   0.63829
  -2.90306   1.87207   0.90764
  -3.24722   1.91696   1.19195
  -3.48664   1.84215   1.26677
  -3.62132   1.73740   1.41641
  -3.65124   1.49798   1.58101
  -3.57643   1.16878   1.52116
  -3.41182   1.03410   1.59597
  -3.18737   0.88447   1.49123
  -2.79831   0.71986   1.28174
  -2.49904   0.54030   1.11713
  -2.12494   0.37570   1.02735
  -1.75085   0.13628   0.63829
  -1.39172   0.15124   0.48866
  -1.00266   0.15124   0.14449
  -0.62857   0.24102  -0.10989
  -0.32929   0.37570  -0.54384
  -0.04498   0.57023  -0.81319
   0.14955   0.63008  -1.06757
   0.38897   0.77972  -1.38181
   0.62839   0.76476  -1.72598
   0.83788   0.85454  -2.01029
   1.01745   0.76476  -2.33949
   1.16709   0.79468  -2.63877
   1.21198   0.57023  -2.95301
   1.27183   0.37570  -3.32710
   1.18205   0.18117  -3.55156
   1.27183  -0.10314  -3.82091
   1.15212  -0.28271  -4.03040
   1.03241  -0.47724  -4.22493
   0.92767  -0.52213  -4.43442
   0.83788  -0.59695  -4.62895
   0.83788  -0.67177  -4.61399
   0.82292  -0.61191  -4.59902
   0.83788  -0.52213  -4.38953
   0.88277  -0.46227  -4.15011
   0.83788  -0.28271  -3.94062
   0.82292  -0.16300  -3.52163
   0.82292  -0.02832  -3.20739
   0.80796   0.07642  -2.89315
   1.01745   0.06146  -2.53402
   1.12219   0.06146  -2.23475
   1.28680   0.12131  -1.86065
   1.48133   0.18117  -1.57634
   1.63096   0.28592  -1.21721
   1.82549   0.33081  -1.02268
   1.94520   0.40563  -0.84312
   2.15469   0.45052  -0.57377
   2.27440   0.42059  -0.51392
   2.28937   0.37570  -0.43910
   2.34922   0.39066  -0.46902
   2.22951   0.39066  -0.64859
   2.13973   0.25599  -0.82815
   1.96017   0.34577  -1.06757
   1.87038   0.10635  -1.32196
   1.67585   0.06146  -1.56138
   1.51125  -0.23782  -1.89058
   1.30176  -0.34256  -2.08511
   1.03241  -0.43235  -2.39935
   0.73314  -0.43235  -2.42928
   0.44883  -0.50716  -2.50410
   0.08970  -0.58198  -2.44424
  -0.26943  -0.47724  -2.42928
  -0.64353  -0.49220  -2.29460
  -1.04755  -0.41738  -2.20482
  -1.42164  -0.31264  -2.10007
  -1.78077  -0.17796  -1.92051
  -2.08005  -0.04329  -1.75591
  -2.39429   0.16620  -1.47160
  -2.54393   0.33081  -1.33692
  -2.75342   0.63008  -1.09750
  -2.90306   0.85454  -0.96283
  -2.97788   1.07899  -0.78326
  -3.03773   1.22863  -0.66355
  -3.02277   1.21367  -0.58873
  -2.93298   1.28849  -0.42413
  -2.82824   1.39323  -0.37924
  -2.67860   1.31841  -0.25953
  -2.48407   1.45309  -0.19968
  -2.27458   1.37827  -0.02011
  -1.99027   1.25856   0.06967
  -1.58625   1.12389   0.23427
  -1.18222   1.03410   0.56348
  -0.67346   0.91439   0.80290
  -0.17965   0.63008   1.07224
   0.28422   0.37570   1.32663
   0.82292   0.10635   1.62590
   1.34665  -0.11811   1.95510
   1.87038  -0.28271   2.38905
   2.43901  -0.41738   2.73322
   3.03756  -0.59695   3.06242
   3.60618  -0.80644   3.34673
   4.30948  -0.97104   3.69090
   4.86313  -1.13564   4.06500
   5.40183  -1.31521   4.43909
   6.01534  -1.47981   4.73836
   6.41937  -1.58456   5.15735
   6.80842  -1.64441   5.56137
   6.94310  -1.56959   5.98036
   7.15259  -1.55463   6.32452
   7.09274  -1.36010   6.71358
   6.91317  -1.27032   7.17746
   6.65879  -1.16557   7.58148
   6.37447  -1.09075   7.97054
   6.03031  -0.89622   8.40449
   5.61132  -0.74658   8.53916
   5.32701  -0.65680   8.68880
   4.96788  -0.52213   8.86836
   4.66861  -0.52213   8.95814
   4.30948  -0.50716   8.97311
   4.05509  -0.50716   8.85340
   3.86056  -0.55206   8.79354
   3.83064  -0.52213   8.61398
   3.66603  -0.67177   8.34463
   3.72589  -0.55206   8.07528
   3.69596  -0.68673   7.71615
   3.63611  -0.53709   7.49170
   3.59122  -0.62687   7.17746
   3.44158  -0.74658   6.90811
   3.32187  -0.89622   6.71358
   3.03756  -0.98600   6.38438
   2.78317  -1.13564   6.11503
   2.43901  -1.22542   5.77086
   2.12477  -1.28528   5.45662
   1.67585  -1.22542   5.05260
   1.19701  -1.22542   4.61865
   0.68825  -1.21046   4.10989
   0.22437  -1.00097   3.67594
  -0.25447  -0.85133   3.24199
  -0.82309  -0.70169   2.53869
  -1.27201  -0.49220   1.97007
  -1.75085  -0.23782   1.46130
  -2.25962  -0.02832   0.77297
  -2.78335   0.27095   0.21931
  -3.30708   0.42059  -0.40917
  -3.90563   0.85454  -0.90297
  -4.41440   1.07899  -1.42671
  -4.90820   1.36331  -1.96540
  -5.38704   1.52791  -2.50410
  -5.74617   1.94689  -2.75848
  -6.04545   2.02171  -3.01286
  -6.34472   2.12646  -3.26725
  -6.41954   2.24617  -3.47674
  -6.50932   2.29106  -3.64134
  -6.52429   2.26113  -3.68623
  -6.47940   2.23120  -3.86580
  -6.37465   2.12646  -3.98551
  -6.18012   2.12646  -3.94062
  -5.98559   1.99178  -3.91069
  -5.71624   1.82718  -3.98551
  -5.34215   1.70747  -4.04536
  -5.04287   1.51294  -4.22493
  -4.63885   1.27352  -4.26982
  -4.44432   1.13885  -4.35960
  -4.35454   0.83957  -4.47931
  -4.24980   0.66001  -4.59902
  -4.13009   0.49541  -4.76362
  -4.02534   0.27095  -5.00304
  -3.90563   0.24102  -5.07786
  -3.89066   0.25599  -5.28736
  -3.72606   0.13628  -5.34721
  -3.51657   0.04649  -5.31728
  -3.32204  -0.08818  -5.42203
  -3.11255  -0.17796  -5.34721
  -2.91802  -0.22285  -5.19757
  -2.79831  -0.32760  -5.03297
  -2.61875  -0.50716  -4.86837
  -2.48407  -0.59695  -4.68880
  -2.24465  -0.77651  -4.34464
  -2.12494  -0.89622  -4.25486
  -1.84063  -0.79148  -4.00047
  -1.72092  -0.85133  -3.73112
  -1.45157  -0.82140  -3.49170
  -1.19719  -0.80644  -3.41689
  -0.94280  -0.73162  -3.32710
  -0.74828  -0.86629  -3.38696
  -0.50886  -0.77651  -3.41689
  -0.16469  -0.65680  -3.58149
   0.04480  -0.61191  -3.82091
   0.38897  -0.67177  -4.07529
   0.73314  -0.61191  -4.46435
   1.07730  -0.47724  -4.73370
   1.25687  -0.22285  -4.97312
   1.43643  -0.11811  -5.28736
   1.60104   0.00160  -5.54174
   1.72075   0.15124  -5.79612
   1.78060   0.34577  -6.12533
   1.85542   0.51037  -6.34978
   1.93024   0.76476  -6.46949
   1.94520   0.83957  -6.67898
   1.88535   0.89943  -6.81366
   1.88535   0.88447  -7.00819
   1.84046   0.91439  -7.05308
   1.76564   0.97425  -7.05308
   1.73571   0.98921  -6.88848
   1.81053   0.97425  -6.70891
   1.78060   1.03410  -6.51438
   1.87038   1.07899  -6.28993
   2.02002   1.12389  -5.96072
   2.04995   1.09396  -5.64649
   2.16966   1.06403  -5.25743
   2.27440   1.15381  -4.68880
   2.40908   1.21367  -4.09025
   2.34922   1.27352  -3.49170
   2.28937   1.34834  -2.83330
   2.19959   1.42316  -2.18986
   2.09484   1.45309  -1.60627
   1.94520   1.42316  -1.06757
   1.88535   1.45309  -0.61866
   1.82549   1.46805  -0.19968
   1.72075   1.58776   0.24924
   1.70578   1.52791   0.69815
   1.73571   1.51294   1.02735
   1.69082   1.34834   1.23684
   1.67585   1.30345   1.53612
   1.58607   1.03410   1.67079
   1.51125   0.83957   1.95510
   1.48133   0.48044   2.23942
   1.51125   0.25599   2.41898
   1.54118   0.01657   2.58358
   1.58607  -0.13307   2.82300
   1.63096  -0.26774   2.97264
   1.73571  -0.46227   3.22702
   1.67585  -0.58198   3.31681
   1.63096  -0.80644   3.48141
   1.48133  -1.10571   3.57119
   1.37658  -1.37506   3.61608
   1.21198  -1.59952   3.66097
   1.10723  -1.73419   3.73579
   1.00248  -1.91376   3.69090
   1.00248  -2.03347   3.57119
   0.92767  -2.18311   3.55623
   0.88277  -2.33274   3.48141
   0.83788  -2.31778   3.27192
   0.68825  -2.33274   3.13724
   0.62839  -2.43749   3.01753
   0.44883  -2.36267   2.91279
   0.35904  -2.28785   2.74818
   0.17948  -2.12325   2.59855
   0.07473  -2.06340   2.49380
  -0.05994  -2.00354   2.32920
  -0.17965  -1.70427   2.34416
  -0.25447  -1.62945   2.22445
  -0.35922  -1.40499   2.19453
  -0.47893  -1.21046   2.23942
  -0.53878  -0.98600   2.19453
  -0.65849  -0.77651   2.29927
  -0.62857  -0.65680   2.52373
  -0.65849  -0.55206   2.88286
  -0.71835  -0.50716   3.21206
  -0.70338  -0.44731   3.54126
  -0.71835  -0.41738   4.00514
  -0.65849  -0.32760   4.40916
  -0.73331  -0.35753   4.81318
  -0.74828  -0.38745   5.15735
  -0.77820  -0.43235   5.62123
  -0.82309  -0.47724   6.15992
  -0.85302  -0.67177   6.54898
  -0.91288  -0.73162   7.04278
  -0.95777  -0.97104   7.47673
  -1.01762  -1.07579   7.85083
  -1.06251  -1.31521   8.13514
  -1.04755  -1.30024   8.47930
  -1.18222  -1.33017   8.67383
  -1.19719  -1.31521   8.86836
  -1.22712  -1.25535   9.03296
  -1.28697  -1.10571   9.18260
  -1.30193  -0.98600   9.24246
  -1.22712  -0.97104   9.27238
  -1.15230  -1.01593   9.25742
  -1.04755  -1.03090   9.31727
  -0.97273  -1.06082   9.28735
  -0.94280  -0.95608   9.34720
  -0.85302  -0.92615   9.25742
  -0.88295  -0.74658   9.10778
  -0.83806  -0.61191   9.07785
  -0.91288  -0.46227   8.89829
  -0.92784  -0.19293   8.76362
  -0.94280  -0.04329   8.50923
  -0.97273   0.12131   8.15010
  -1.01762   0.25599   7.80594
  -1.12237   0.37570   7.47673
  -1.28697   0.51037   7.04278
  -1.49646   0.61512   6.68365
  -1.72092   0.86950   6.24970
  -1.91545   1.06403   5.80079
  -2.02019   1.21367   5.36684
  -2.08005   1.37827   4.79822
  -2.16983   1.52791   4.27449
  -2.18480   1.69251   3.63105
  -2.19976   1.91696   3.18213
  -2.21472   2.15639   2.50876
  -2.15487   2.21624   2.05985
  -2.05012   2.30602   1.58101
  -1.84063   2.48559   0.96750
  -1.73588   2.51552   0.42880
  -1.46654   2.50055  -0.07997
  -1.16726   2.48559  -0.43910
  -0.91288   2.48559  -0.73837
  -0.64353   2.44070  -1.09750
  -0.29936   2.29106  -1.39678
  -9.0E-50   2.18631  -1.65116
   0.37401   1.99178  -2.07015
   0.62839   1.87207  -2.30957
   1.15212   1.52791  -2.68366
   1.52622   1.39323  -2.95301
   1.88535   1.12389  -3.46178
   2.30433   0.94432  -3.76105
   2.67843   0.77972  -4.18004
   2.94777   0.55526  -4.62895
   3.14230   0.36073  -5.07786
   3.30690   0.18117  -5.46692
   3.38172  -0.07322  -5.96072
   3.47151  -0.20789  -6.43956
   3.47151  -0.46227  -6.78373
   3.60618  -0.74658  -7.17279
   3.60618  -1.00097  -7.50199
   3.60618  -1.36010  -7.71148
   3.56129  -1.59952  -7.98083
   3.60618  -1.91376  -8.20529
   3.63611  -2.22800  -8.38485
   3.65107  -2.40756  -8.48960
   3.66603  -2.51231  -8.66917
   3.65107  -2.61705  -8.78888
   3.53136  -2.70684  -9.05822
   3.47151  -2.69187  -9.11808
   3.38172  -2.76669  -9.28268
   3.24705  -2.73676  -9.43232
   3.17223  -2.66195  -9.49217
   3.00763  -2.61705  -9.55203
   2.75324  -2.60209  -9.62685
   2.52879  -2.31778  -9.62685
   2.19959  -2.28785  -9.64181
   1.82549  -2.13821  -9.74656
   1.42147  -1.89879  -9.71663
   1.09227  -1.73419  -9.65677
   0.62839  -1.52470  -9.67174
   0.25430  -1.30024  -9.61188
  -0.16469  -1.00097  -9.43232
  -0.55375  -0.73162  -9.38743
  -0.86799  -0.56702  -9.32757
  -1.25704  -0.38745  -9.16297
  -1.49646  -0.17796  -9.13304
  -1.72092   0.21110  -8.87866
  -1.96034   0.37570  -8.77391
  -2.03516   0.60015  -8.63924
  -2.13990   0.79468  -8.51953
  -2.22969   0.94432  -8.38485
  -2.21472   1.12389  -8.39982
  -2.19976   1.40820  -8.26514
  -2.18480   1.69251  -8.17536
  -2.06509   1.82718  -8.08558
  -2.03516   2.02171  -7.87609
  -1.93041   2.39581  -7.66659
  -1.82567   2.48559  -7.42717
  -1.66106   2.79983  -6.97826
  -1.61617   2.85968  -6.49942
  -1.39172   2.96443  -5.94576
  -1.19719   3.09910  -5.46692
  -1.04755   3.21881  -4.82348
  -0.82309   3.30859  -4.25486
  -0.64353   3.30859  -3.62638
  -0.61360   3.23378  -3.01286
  -0.55375   3.11407  -2.54899
  -0.50886   2.79983  -2.11504
  -0.47893   2.57537  -1.59131
  -0.59864   2.21624  -1.17232
  -0.64353   1.72244  -0.81319
  -0.73331   1.46805  -0.40917
  -0.85302   0.98921  -0.02011
  -1.00266   0.55526   0.39887
  -1.27201   0.15124   0.71311
  -1.48150  -0.29767   0.98246
  -1.76581  -0.59695   1.31166
  -1.91545  -0.92615   1.58101
  -2.21472  -1.09075   1.80547
  -2.40925  -1.30024   2.07481
  -2.66364  -1.39003   2.32920
  -2.90306  -1.52470   2.70329
  -3.12751  -1.64441   2.91279
  -3.36693  -1.56959   3.24199
  -3.45672  -1.59952   3.43652
  -3.48664  -1.58456   3.67594
  -3.45672  -1.39003   3.91536
  -3.35197  -1.19550   4.13981
  -3.03773  -1.06082   4.31938
  -2.88809  -0.82140   4.43909
  -2.60378  -0.74658   4.72340
  -2.42422  -0.55206   4.84311
  -2.16983  -0.41738   5.05260
  -1.90048  -0.35753   5.29202
  -1.64610  -0.32760   5.50152
  -1.39172  -0.22285   5.74094
  -1.18222  -0.11811   5.92050
  -0.86799  -0.04329   5.99532
  -0.62857   0.01657   6.15992
  -0.41907   0.10635   6.08510
  -0.13476   0.15124   6.04021
   0.05977   0.22606   5.84568
   0.20941   0.31584   5.69604
   0.47875   0.27095   5.51648
   0.53861   0.31584   5.38181
   0.64335   0.19613   5.11246
   0.61343   0.16620   4.99275
   0.64335   0.04649   4.82815
   0.67328  -0.11811   4.58873
   0.59846  -0.16300   4.43909
   0.55357  -0.35753   4.33434
   0.47875  -0.49220   4.13981
   0.41890  -0.52213   4.06500
   0.37401  -0.61191   4.21463
   0.47875  -0.62687   4.16974
   0.56854  -0.52213   4.30442
   0.64335  -0.55206   4.39420
   0.77803  -0.40242   4.49894
   0.85285  -0.32760   4.69347
   1.00248  -0.17796   4.84311
   1.09227   0.04649   5.06757
   1.21198   0.12131   5.35188
   1.27183   0.27095   5.57633
   1.46636   0.45052   5.77086
   1.51125   0.52534   5.83072
   1.58607   0.68994   5.87561
   1.55614   0.85454   5.98036
   1.64593   0.95928   6.07014
   1.61600   1.01914   6.07014
   1.60104   1.00418   6.07014
   1.55614   0.94432   5.99532
   1.51125   0.95928   5.89057
   1.30176   0.88447   5.72597
   1.12219   0.92936   5.54641
   0.83788   0.82461   5.45662
   0.50868   0.67497   5.35188
   0.17948   0.48044   5.21720
  -0.13476   0.25599   5.06757
  -0.52382   0.25599   4.96282
  -1.00266   0.13628   4.87304
  -1.43661   0.06146   4.87304
  -1.94538  -0.05825   4.73836
  -2.37933  -0.11811   4.64858
  -2.85817  -0.08818   4.48398
  -3.35197   0.03153   4.31938
  -3.74103   0.04649   4.18471
  -3.98045   0.18117   3.97521
  -4.14505   0.30088   3.70586
  -4.27972   0.45052   3.34673
  -4.41440   0.58519   3.07739
  -4.41440   0.60015   2.85293
  -4.35454   0.57023   2.47884
  -4.20490   0.55526   2.10474
  -3.99541   0.52534   1.77554
  -3.69614   0.48044   1.41641
  -3.33701   0.36073   0.90764
  -2.99284   0.27095   0.47369
  -2.61875   0.21110   0.11456
  -2.21472   0.10635  -0.28946
  -1.82567   0.03153  -0.66355
  -1.37675  -0.11811  -1.00772
  -0.88295  -0.31264  -1.35189
  -0.43404  -0.46227  -1.68109
   0.17948  -0.65680  -1.99533
   0.62839  -0.88126  -2.21978
   1.21198  -1.13564  -2.30957
   1.79556  -1.36010  -2.44424
   2.36419  -1.55463  -2.44424
   2.84303  -1.68930  -2.41431
   3.29194  -1.76412  -2.44424
   3.69596  -1.83894  -2.36942
   4.02516  -1.86887  -2.42928
   4.29451  -1.71923  -2.48913
   4.66861  -1.70427  -2.53402
   4.90803  -1.59952  -2.63877
   5.08759  -1.52470  -2.68366
   5.34198  -1.34513  -2.66870
   5.53650  -1.28528  -2.78841
   5.64125  -1.30024  -2.90812
   5.70111  -1.18053  -3.01286
   5.73103  -1.04586  -3.11761
   5.76096  -0.88126  -3.31214
   5.71607  -0.67177  -3.46178
   5.64125  -0.44731  -3.68623
   5.56643  -0.35753  -3.80594
   5.34198  -0.16300  -3.86580
