********************************************************************************
              CENTRO DE INSTRUMENTACION Y REGISTRO SISMICO  A.C.

    Anaxagoras 814, Col. Narvarte, Benito Juarez, C.P. 03020 Mexico, D.F.
           Tels. 5687 45 42/ 5687 45  82             Fax. 5669 25 12
********************************************************************************
ARCHIVO ESTANDAR DE ACELERACION:
VERSION DEL FORMATO                    : 2.0
NOMBRE DEL ARCHIVO                     : AL0120140811010942
FECHA Y HORA DE CREACION               : 11/AGO/14, 11:48
REF. CATALOGO ACELEROGRAMAS, SMIS 1996 : REGISTRO No.     /PAG.


================================================================================
DATOS DE LA ESTACION:
NOMBRE DE LA ESTACION                  : ALAMEDA
CLAVE DE LA ESTACION                   : AL01
LOCALIZACION DE LA ESTACION            : Del. Cuauhtémoc, Col. Centro,          
                                       : Dr. Mora entre Av. Hidalgo             
                                       : y Av. Juárez.                          
                                       :                                        
                                       : 
COORDENADAS DE LA ESTACION             : 19.4356 LAT. N
                                       : 99.1453 LONG. W
ALTITUD (msnm)                         : 2232
TIPO DE SUELO                          : Terreno blando, material compresible
                                       : (arcillas)                
                                       : 
INSTITUCION RESPONSABLE                : CIRES
                                       : 

================================================================================
DATOS DEL ACELEROGRAFO:
MODELO DEL ACELEROGRAFO                : RADESD
NUMERO DE SERIE DEL ACELEROGRAFO       : 152
NUMERO DE CANALES                      : 3
ORIENTACION C1-C6 (rumbo;orientacion)  : /S00E/+V/N90W
ORIENTACION C7-C12 (rumbo;orientacion) : 
VEL. DE MUESTREO, C1-C6 (muestras/s)   : /100/100/100
VEL. DE MUESTREO, C7-C12 (muestras/s)  : 
ESC. COMPLETA DE SENSORES, C1-C6, (g)  : /0.5/0.5/0.5
ESC. COMPLETA DE SENSORES, C7-C12, (g) : 
FREC. NAT. DE SENSORES, C1-C6, (Hz)    : /51.29/51.09/53.75
FREC. NAT. DE SENSORES, C7-C12, (Hz)   : 
AMORTIGUAMIENTO DE SENSORES, C1-C6     : /0.5519/0.5670/0.5810
AMORTIGUAMIENTO DE SENSORES, C7-C12    : 
INTERVALO DE MUESTREO, C1-C6, (s)      : /0.01/0.01/0.01
INTERVALO DE MUESTREO, C7-C12, (s)     : 
UMBRAL DE DISPARO, C1-C6, (Gal)        : /0.9/1.8/0.9
UMBRAL DE DISPARO, C7-C12, (Gal)       : 
MEMORIA DE PREEVENTO (s)               : 44.0
TIEMPO DE POSEVENTO (s)                : 64.0


================================================================================
DATOS DEL SISMO:
FECHA DEL SISMO (GMT)                  : 11/AGO/14
HORA EPICENTRO (GMT)                   : 01:09:42.0
MAGNITUD(ES)                           : /Mc=5.2
COORDENADAS DEL EPICENTRO              : 16.38 LAT. N
                                       : 98.19 LONG. W
PROFUNDIDAD FOCAL (km)                 : 10
FUENTE DE LOS DATOS EPICENTRALES       : SSN
                                       : INSTITUTO DE GEOFISICA, UNAM

================================================================================
DATOS DE ESTE REGISTRO:
HORA DE LA PRIMERA MUESTRA (GMT)       : 01:11:29.00
EXACTITUD DEL TIEMPO (s)               : 0.01
DURACION DEL REGISTRO (s), C1-C6       : /111.6/111.6/111.6
DURACION DEL REGISTRO (s), C7-C12      : 
NUM. TOTAL DE MUESTRAS, C1-C6          : /11160/11160/11160
NUM. TOTAL DE MUESTRAS, C7-C12         : 
ACEL. MAX. (Gal), C1-C6                : /1.23231/0.4845/1.0643
ACEL. MAX., C1-C6, EN LA MUESTRA       : /4396/5136/4257
ACEL. MAX. (Gal), C7-C12               : 
ACEL. MAX., C7-C12, EN LA MUESTRA      : 
UNIDADES DE LOS DATOS                  : Gal (cm/s/s)
FACTOR DE DECIMACION                   : 1
FORMATO DATOS (FORTRAN,10 campos/dato) : 3F10.5


================================================================================
CALIDAD DEL ACELEROGRAMA:
REGISTRO DIGITAL COMPLETO CON TIEMPO ABSOLUTO CORRECTO.


================================================================================
COMENTARIOS:














================================================================================
DATOS DE ACELERACION:
---------+---------+---------+---------+---------+---------+---------+---------+
   CANAL-1   CANAL-2   CANAL-3   CANAL-4   CANAL-5   CANAL-6   CANAL-7   CANAL-8
      S00E        +V      N90W
---------+---------+---------+---------+---------+---------+---------+---------+
[...]
  -0.34945   0.14033  -0.34229
  -0.42427   0.18522  -0.34229
  -0.49909   0.18522  -0.29740
  -0.54398   0.20019  -0.29740
  -0.60383   0.14033  -0.17769
  -0.69362   0.12537  -0.14776
  -0.72354   0.14033  -0.04301
  -0.72354   0.09544  -0.05798
  -0.76843   0.17026   0.07670
  -0.79836   0.05055   0.07670
  -0.81333   0.08048   0.15151
  -0.78340   0.02062   0.12159
  -0.81333   0.00566   0.18144
  -0.76843  -0.08412   0.19641
  -0.70858  -0.05420   0.21137
  -0.67865  -0.08412   0.10662
  -0.57391  -0.08412   0.10662
  -0.54398  -0.12902   0.01684
  -0.42427  -0.11405  -0.02805
  -0.30456  -0.09909  -0.07294
  -0.22974  -0.08412  -0.11783
  -0.12499  -0.09909  -0.22258
  -0.00528  -0.05420  -0.32733
   0.08450  -0.03923  -0.37222
   0.26406  -0.05420  -0.43207
   0.36881  -0.03923  -0.46200
   0.44363  -0.03923  -0.52185
   0.56334  -0.05420  -0.47696
   0.57830  -0.06916  -0.50689
   0.62320  -0.08412  -0.49193
   0.69801   0.03559  -0.49193
   0.65312  -0.06916  -0.49193
   0.71298   0.03559  -0.34229
   0.66809  -0.02427  -0.32733
   0.62320   0.09544  -0.26747
   0.56334   0.03559  -0.23754
   0.45859   0.03559  -0.11783
   0.29399   0.03559  -0.07294
   0.23414   0.03559  -0.01309
   0.17428   0.09544   0.04677
   0.03961  -0.06916   0.12159
  -0.08010   0.00566   0.16648
  -0.16988   0.00566   0.22633
  -0.28959  -0.06916   0.33108
  -0.33449  -0.00931   0.37597
  -0.39434  -0.12902   0.48072
  -0.40930  -0.11405   0.52561
  -0.54398  -0.12902   0.52561
  -0.51405  -0.09909   0.58546
  -0.54398  -0.03923   0.60043
  -0.46916   0.03559   0.66028
  -0.51405   0.05055   0.70517
  -0.36441   0.09544   0.72014
  -0.36441   0.00566   0.77999
  -0.22974   0.12537   0.80992
  -0.18485   0.17026   0.92963
  -0.05017   0.14033   0.91467
  -0.00528   0.09544   0.92963
   0.02464   0.17026   0.97452
   0.12939   0.18522   0.89970
   0.23414   0.23011   0.91467
   0.29399   0.20019   0.86978
   0.32392   0.15530   0.80992
   0.38377   0.03559   0.72014
   0.42867   0.00566   0.69021
   0.42867   0.00566   0.58546
   0.44363  -0.02427   0.54057
   0.36881   0.02062   0.46575
   0.45859   0.00566   0.42086
   0.41370   0.02062   0.30115
   0.35385  -0.00931   0.24130
   0.33888  -0.05420   0.21137
   0.32392  -0.11405   0.19641
   0.29399  -0.12902   0.12159
   0.29399  -0.12902   0.12159
   0.30896  -0.12902   0.15151
   0.35385  -0.11405   0.13655
   0.23414  -0.14398   0.12159
   0.29399  -0.06916   0.15151
   0.26406  -0.02427   0.18144
   0.30896   0.00566   0.18144
   0.32392   0.05055   0.27122
   0.35385   0.12537   0.22633
   0.36881   0.14033   0.25626
   0.36881   0.15530   0.22633
   0.35385   0.20019   0.33108
   0.44363   0.09544   0.30115
   0.45859   0.11040   0.27122
   0.45859   0.14033   0.27122
   0.44363   0.02062   0.25626
   0.51845   0.08048   0.27122
   0.39874   0.00566   0.21137
   0.45859   0.02062   0.16648
   0.39874   0.03559   0.09166
   0.36881   0.00566   0.09166
   0.30896  -0.06916   0.07670
   0.23414  -0.08412   0.01684
   0.09946  -0.11405  -0.01309
   0.06954  -0.23376   0.00188
  -0.02025  -0.24873  -0.02805
  -0.12499  -0.27865  -0.02805
  -0.16988  -0.27865   0.01684
  -0.30456  -0.27865   0.00188
  -0.33449  -0.29362   0.03180
  -0.37938  -0.35347   0.04677
  -0.40930  -0.27865   0.04677
  -0.42427  -0.23376   0.04677
  -0.40930  -0.23376   0.09166
  -0.51405  -0.30858   0.06173
  -0.40930  -0.15894   0.12159
  -0.45420  -0.05420   0.04677
  -0.48412  -0.12902   0.00188
  -0.39434  -0.00931   0.00188
  -0.34945   0.06551   0.00188
  -0.33449   0.05055  -0.08791
  -0.31952   0.08048  -0.19265
  -0.22974   0.06551  -0.19265
  -0.21478   0.08048  -0.29740
  -0.12499   0.17026  -0.35725
  -0.12499   0.23011  -0.41711
  -0.00528   0.23011  -0.49193
   0.05457   0.28997  -0.58171
   0.11443   0.23011  -0.62660
   0.11443   0.20019  -0.59667
   0.11443   0.11040  -0.62660
   0.12939   0.20019  -0.68646
   0.15932   0.12537  -0.70142
   0.17428   0.18522  -0.67149
   0.17428   0.09544  -0.64156
   0.17428   0.00566  -0.67149
   0.09946  -0.00931  -0.62660
   0.11443   0.00566  -0.61164
   0.11443   0.00566  -0.53682
   0.12939  -0.00931  -0.53682
   0.03961  -0.05420  -0.49193
   0.08450  -0.00931  -0.43207
   0.08450  -0.05420  -0.43207
   0.00968  -0.06916  -0.40214
  -0.02025  -0.08412  -0.38718
   0.00968   0.00566  -0.32733
  -0.08010   0.05055  -0.40214
  -0.03521   0.06551  -0.41711
   0.02464   0.12537  -0.38718
   0.00968   0.18522  -0.37222
  -0.00528   0.14033  -0.35725
   0.03961   0.21515  -0.34229
   0.02464   0.11040  -0.40214
  -0.00528   0.20019  -0.47696
  -0.05017   0.17026  -0.49193
  -0.02025   0.20019  -0.47696
  -0.05017   0.18522  -0.55178
   0.02464   0.11040  -0.49193
  -0.03521   0.11040  -0.55178
  -0.05017   0.14033  -0.53682
  -0.06514   0.12537  -0.53682
  -0.05017  -0.00931  -0.58171
  -0.12499  -0.02427  -0.47696
  -0.11003  -0.05420  -0.46200
  -0.12499  -0.05420  -0.41711
  -0.15492  -0.02427  -0.44704
  -0.16988   0.02062  -0.37222
  -0.21478  -0.05420  -0.26747
  -0.25967  -0.03923  -0.22258
  -0.25967  -0.08412  -0.10287
  -0.31952  -0.06916  -0.11783
  -0.39434  -0.05420  -0.07294
  -0.39434  -0.02427   0.07670
  -0.43923   0.06551   0.06173
  -0.46916  -0.05420   0.04677
  -0.45420   0.00566   0.10662
  -0.46916   0.08048   0.19641
  -0.46916  -0.00931   0.18144
  -0.48412   0.03559   0.16648
  -0.48412   0.02062   0.18144
  -0.51405  -0.00931   0.22633
  -0.43923   0.11040   0.19641
  -0.39434   0.08048   0.19641
  -0.33449   0.03559   0.09166
  -0.34945   0.12537   0.07670
  -0.25967   0.17026   0.06173
  -0.18485   0.08048   0.01684
  -0.11003   0.09544  -0.01309
  -0.06514   0.15530  -0.01309
   0.03961   0.11040  -0.05798
   0.14435  -0.02427  -0.05798
   0.26406  -0.00931  -0.13280
   0.30896  -0.02427  -0.14776
   0.41370  -0.00931  -0.19265
   0.48852  -0.02427  -0.16272
   0.57830  -0.15894  -0.11783
   0.54838  -0.21880  -0.13280
   0.66809  -0.15894   0.00188
   0.71298  -0.17391   0.01684
   0.68305  -0.30858   0.04677
   0.66809  -0.35347   0.09166
   0.69801  -0.26369   0.18144
   0.65312  -0.30858   0.30115
   0.60823  -0.29362   0.36101
   0.57830  -0.24873   0.46575
   0.47356  -0.24873   0.55554
   0.45859  -0.17391   0.63036
   0.38377  -0.17391   0.69021
   0.35385  -0.08412   0.83985
   0.33888  -0.06916   0.80992
   0.29399   0.02062   0.94459
   0.18925   0.03559   0.95956
   0.15932   0.03559   1.04934
   0.08450   0.12537   1.06430
   0.05457   0.15530   0.97452
  -0.00528   0.11040   0.97452
  -0.06514   0.17026   1.00445
  -0.15492   0.17026   0.97452
  -0.18485   0.06551   0.92963
  -0.24470   0.09544   0.95956
  -0.27463   0.00566   0.85481
  -0.31952   0.05055   0.85481
  -0.30456  -0.00931   0.79496
  -0.28959   0.05055   0.67525
  -0.30456  -0.02427   0.64532
  -0.31952  -0.05420   0.54057
  -0.27463  -0.03923   0.45079
  -0.24470  -0.12902   0.39093
  -0.24470  -0.06916   0.31612
  -0.25967  -0.14398   0.24130
  -0.25967  -0.06916   0.18144
  -0.22974  -0.12902   0.12159
  -0.22974   0.00566   0.00188
  -0.24470  -0.03923  -0.10287
  -0.28959  -0.02427  -0.14776
  -0.28959   0.03559  -0.17769
  -0.28959   0.12537  -0.19265
  -0.40930   0.12537  -0.20762
  -0.43923   0.09544  -0.22258
  -0.45420   0.11040  -0.28243
  -0.48412   0.17026  -0.31236
  -0.55894   0.21515  -0.28243
  -0.54398   0.23011  -0.28243
  -0.49909   0.23011  -0.28243
  -0.48412   0.27501  -0.19265
  -0.49909   0.28997  -0.17769
  -0.45420   0.34982  -0.14776
  -0.42427   0.28997  -0.11783
  -0.31952   0.33486  -0.07294
  -0.25967   0.28997  -0.05798
  -0.25967   0.26004   0.00188
  -0.16988   0.15530  -0.01309
  -0.11003   0.28997  -0.01309
  -0.03521   0.09544   0.01684
   0.03961   0.09544  -0.01309
   0.09946   0.03559   0.00188
   0.18925  -0.00931   0.06173
   0.18925   0.02062   0.07670
   0.27903  -0.03923   0.06173
   0.27903  -0.15894   0.01684
   0.38377  -0.12902  -0.11783
   0.39874  -0.23376  -0.11783
   0.39874  -0.26369  -0.22258
   0.38377  -0.27865  -0.23754
   0.30896  -0.36844  -0.25251
   0.33888  -0.39836  -0.26747
   0.26406  -0.45822  -0.26747
   0.26406  -0.42829  -0.26747
   0.23414  -0.35347  -0.22258
   0.14435  -0.30858  -0.20762
   0.17428  -0.24873  -0.19265
   0.06954  -0.26369  -0.19265
   0.00968  -0.23376  -0.16272
  -0.05017  -0.21880  -0.08791
  -0.06514  -0.18887  -0.02805
  -0.11003  -0.15894   0.06173
  -0.13996  -0.00931   0.04677
  -0.11003  -0.03923   0.09166
  -0.09507  -0.06916   0.12159
  -0.12499   0.03559   0.19641
  -0.09507   0.09544   0.27122
  -0.00528   0.09544   0.30115
  -0.05017   0.08048   0.34604
  -0.02025   0.09544   0.37597
   0.05457   0.14033   0.36101
  -0.00528   0.17026   0.27122
   0.06954   0.14033   0.27122
   0.11443   0.12537   0.24130
   0.14435   0.21515   0.24130
   0.17428   0.26004   0.13655
   0.15932   0.24508   0.10662
   0.20421   0.24508   0.01684
   0.26406   0.24508  -0.11783
   0.26406   0.26004  -0.26747
   0.35385   0.23011  -0.32733
   0.33888   0.21515  -0.46200
   0.36881   0.18522  -0.55178
   0.38377   0.31990  -0.62660
   0.36881   0.26004  -0.65653
   0.41370   0.20019  -0.70142
   0.36881   0.24508  -0.79120
   0.35385   0.23011  -0.82113
   0.41370   0.20019  -0.79120
   0.38377   0.20019  -0.79120
   0.41370   0.27501  -0.76127
   0.42867   0.12537  -0.77624
   0.41370   0.15530  -0.76127
   0.41370   0.14033  -0.73135
   0.35385   0.09544  -0.73135
   0.36881   0.00566  -0.74631
   0.27903   0.03559  -0.67149
   0.29399  -0.02427  -0.71638
   0.24910  -0.02427  -0.65653
   0.23414  -0.03923  -0.64156
   0.20421  -0.00931  -0.65653
   0.24910   0.02062  -0.61164
   0.20421   0.02062  -0.59667
   0.23414  -0.02427  -0.53682
   0.14435  -0.09909  -0.55178
   0.17428  -0.06916  -0.55178
   0.20421  -0.12902  -0.53682
   0.20421  -0.17391  -0.47696
   0.18925  -0.15894  -0.46200
   0.23414  -0.12902  -0.43207
   0.20421  -0.18887  -0.38718
   0.24910  -0.20383  -0.31236
   0.27903  -0.21880  -0.25251
   0.26406  -0.21880  -0.25251
   0.20421  -0.26369  -0.14776
   0.17428  -0.24873  -0.05798
   0.18925  -0.26369  -0.05798
   0.21917  -0.23376   0.07670
   0.12939  -0.29362   0.09166
   0.11443  -0.21880   0.12159
   0.00968  -0.36844   0.19641
  -0.06514  -0.33851   0.19641
  -0.12499  -0.21880   0.19641
  -0.18485  -0.23376   0.28619
  -0.22974  -0.23376   0.27122
  -0.36441  -0.23376   0.27122
  -0.45420  -0.23376   0.30115
  -0.57391  -0.24873   0.34604
  -0.69362  -0.27865   0.36101
  -0.81333  -0.18887   0.37597
  -0.84325  -0.11405   0.39093
  -0.87318  -0.11405   0.48072
  -0.93304  -0.00931   0.40590
  -1.05275   0.05055   0.42086
  -1.12756   0.08048   0.36101
  -1.20238   0.17026   0.31612
  -1.14253   0.20019   0.34604
  -1.21735   0.21515   0.34604
  -1.23231   0.33486   0.39093
  -1.14253   0.31990   0.42086
  -1.15749   0.24508   0.42086
  -1.11260   0.39472   0.39093
  -1.02282   0.31990   0.42086
  -0.96296   0.37975   0.43583
  -0.90311   0.34982   0.45079
  -0.84325   0.34982   0.43583
  -0.76843   0.37975   0.37597
  -0.61880   0.34982   0.39093
  -0.55894   0.37975   0.36101
  -0.46916   0.33486   0.28619
  -0.39434   0.28997   0.27122
  -0.28959   0.31990   0.25626
  -0.18485   0.20019   0.33108
  -0.11003   0.26004   0.30115
   0.00968   0.15530   0.31612
   0.09946   0.18522   0.28619
   0.12939   0.09544   0.34604
   0.20421   0.12537   0.33108
   0.33888   0.14033   0.33108
   0.30896   0.12537   0.28619
   0.41370   0.08048   0.30115
   0.47356  -0.03923   0.33108
   0.53341  -0.02427   0.36101
   0.54838  -0.06916   0.39093
   0.60823  -0.05420   0.42086
   0.62320  -0.09909   0.42086
   0.69801  -0.11405   0.48072
   0.68305  -0.08412   0.46575
   0.68305  -0.11405   0.39093
   0.68305  -0.11405   0.40590
   0.75787  -0.17391   0.45079
   0.72794  -0.23376   0.39093
   0.63816  -0.21880   0.37597
   0.63816  -0.18887   0.37597
   0.57830  -0.26369   0.36101
   0.57830  -0.24873   0.25626
   0.53341  -0.27865   0.30115
   0.51845  -0.24873   0.31612
   0.48852  -0.21880   0.22633
   0.41370  -0.23376   0.18144
   0.33888  -0.26369   0.19641
   0.35385  -0.23376   0.09166
   0.27903  -0.18887   0.07670
   0.27903  -0.21880   0.01684
   0.26406  -0.14398   0.01684
   0.20421  -0.11405   0.01684
   0.15932  -0.11405   0.04677
   0.14435  -0.09909   0.03180
   0.09946  -0.03923   0.00188
   0.12939  -0.03923  -0.02805
   0.06954   0.08048   0.01684
   0.02464   0.09544  -0.04301
  -0.00528   0.08048  -0.04301
  -0.06514   0.14033  -0.02805
  -0.00528   0.12537  -0.01309
  -0.06514   0.11040  -0.05798
  -0.03521   0.02062  -0.07294
  -0.11003   0.08048  -0.14776
  -0.11003   0.00566  -0.10287
  -0.11003  -0.03923  -0.11783
  -0.06514  -0.02427  -0.01309
  -0.05017  -0.05420  -0.08791
  -0.05017  -0.00931  -0.05798
  -0.06514   0.00566  -0.07294
  -0.06514   0.00566  -0.07294
  -0.00528  -0.03923  -0.07294
   0.05457   0.00566  -0.07294
   0.09946   0.00566  -0.08791
   0.17428  -0.09909  -0.08791
   0.23414  -0.02427  -0.07294
   0.29399  -0.09909  -0.05798
   0.33888  -0.00931   0.00188
   0.33888  -0.02427  -0.08791
   0.38377  -0.00931  -0.05798
   0.41370   0.05055  -0.10287
   0.47356   0.02062  -0.08791
   0.45859  -0.02427  -0.16272
   0.50348  -0.06916  -0.16272
   0.51845   0.09544  -0.22258
   0.51845   0.06551  -0.19265
   0.56334   0.05055  -0.17769
   0.48852  -0.02427  -0.22258
   0.42867   0.08048  -0.25251
   0.44363   0.02062  -0.28243
   0.30896   0.06551  -0.23754
   0.24910   0.05055  -0.19265
   0.24910   0.02062  -0.16272
   0.09946   0.09544  -0.23754
   0.00968   0.17026  -0.19265
  -0.08010   0.09544  -0.20762
  -0.16988   0.17026  -0.22258
  -0.22974   0.12537  -0.22258
  -0.34945   0.09544  -0.22258
  -0.30456   0.17026  -0.23754
  -0.36441   0.09544  -0.17769
  -0.43923   0.11040  -0.19265
  -0.42427   0.09544  -0.20762
  -0.55894   0.28997  -0.28243
  -0.55894   0.23011  -0.29740
  -0.54398   0.27501  -0.29740
  -0.54398   0.24508  -0.29740
  -0.45420   0.20019  -0.28243
  -0.39434   0.23011  -0.22258
  -0.49909   0.18522  -0.29740
  -0.43923   0.17026  -0.29740
  -0.42427   0.09544  -0.28243
  -0.40930   0.15530  -0.26747
  -0.37938   0.03559  -0.25251
  -0.28959   0.03559  -0.28243
  -0.30456   0.08048  -0.26747
  -0.34945  -0.02427  -0.32733
  -0.28959  -0.03923  -0.32733
  -0.30456  -0.09909  -0.29740
  -0.28959  -0.14398  -0.29740
  -0.24470  -0.15894  -0.29740
  -0.24470  -0.15894  -0.29740
  -0.27463  -0.14398  -0.29740
  -0.24470  -0.17391  -0.22258
  -0.22974  -0.21880  -0.20762
  -0.12499  -0.18887  -0.17769
  -0.18485  -0.14398  -0.11783
  -0.08010  -0.12902  -0.08791
  -0.06514  -0.08412  -0.10287
  -0.02025  -0.08412  -0.07294
   0.03961  -0.14398  -0.05798
   0.12939  -0.14398  -0.02805
   0.23414  -0.14398   0.00188
   0.21917  -0.14398   0.03180
   0.36881  -0.03923   0.03180
   0.39874  -0.14398   0.04677
   0.45859  -0.05420  -0.05798
   0.59327  -0.08412   0.03180
   0.68305  -0.08412  -0.01309
   0.69801  -0.20383  -0.05798
   0.78780  -0.15894  -0.07294
   0.77283  -0.15894  -0.10287
   0.80276  -0.24873  -0.10287
   0.84765  -0.11405  -0.16272
   0.80276  -0.24873  -0.11783
   0.77283  -0.24873  -0.16272
   0.78780  -0.30858  -0.14776
   0.77283  -0.23376  -0.13280
   0.74291  -0.23376  -0.14776
   0.56334  -0.20383  -0.14776
   0.47356  -0.08412  -0.13280
   0.33888  -0.14398  -0.10287
   0.23414  -0.05420  -0.07294
   0.09946   0.00566  -0.05798
