********************************************************************************
               CENTRO DE INSTRUMENTACION Y REGISTRO SISMICO  A.C.  
                       Coordinacion de Servicios Tecnicos
     Anaxagoras 814, Col. Narvarte, Benito Juarez, C.P. 03020 Mexico, D.F.
            Tels. 667 45 42/ 687 45  82             Fax. 669 25 12
********************************************************************************
ARCHIVO ESTANDAR DE ACELERACION:
VERSION DEL FORMATO                    : 2.0
NOMBRE DEL ARCHIVO                     : AL010103.051
FECHA Y HORA DE CREACION               : 05/JUL/04, 10:20
REF. CATALOGO ACELEROGRAMAS, SMIS 1996 : REGISTRO No.     /PAG.


================================================================================
DATOS DE LA ESTACION:
NOMBRE DE LA ESTACION                  : ALAMEDA
CLAVE DE LA ESTACION                   : AL01
LOCALIZACION DE LA ESTACION            : JARDIN ALAMEDA ENTRE AV. HIDALGO Y AV.
                                       : JUAREZ, CENTRO
                                       :
                                       :
                                       :
COORDENADAS DE LA ESTACION             : 19.436 LAT. N 
                                       : 99.145 LONG. W 
ALTITUD (msnm)                         : 2232
TIPO DE SUELO                          : TERRENO BLANDO, MATERIAL COMPRESIBLE
                                       : (ARCILLAS)
                                       : 
INSTITUCION RESPONSABLE                : CIRES 
                                       :

================================================================================
DATOS DEL ACELEROGRAFO:
MODELO DEL ACELEROGRAFO                : SSA-1
NUMERO DE SERIE DEL ACELEROGRAFO       : 152
NUMERO DE CANALES                      : 3
ORIENTACION C1-C6 (rumbo;orientacion)  : /N00E/+V/N90E
ORIENTACION C7-C12 (rumbo;orientacion) :
VEL. DE MUESTREO, C1-C6 (muestras/s)   : /200/200/200
VEL. DE MUESTREO, C7-C12 (muestras/s)  :
ESC. COMPLETA DE SENSORES, C1-C6, (g)  : /2/2/2
ESC. COMPLETA DE SENSORES, C7-C12, (g) :
FREC. NAT. DE SENSORES, C1-C6, (Hz)    : /51.29/51.09/53.75
FREC. NAT. DE SENSORES, C7-C12, (Hz)   :
AMORTIGUAMIENTO DE SENSORES, C1-C6     : /.5519/.5670/.5810
AMORTIGUAMIENTO DE SENSORES, C7-C12    :
INTERVALO DE MUESTREO, C1-C6, (s)      : /0.005/0.005/0.005
INTERVALO DE MUESTREO, C7-C12, (s)     :
UMBRAL DE DISPARO, C1-C6, (Gal)        : /2/1.5/2
UMBRAL DE DISPARO, C7-C12, (Gal)       :
MEMORIA DE PREEVENTO (s)               : 15
TIEMPO DE POSEVENTO (s)                : 60


================================================================================
DATOS DEL SISMO:
FECHA DEL SISMO (GMT)                  : 05/MAR/01
HORA EPICENTRO (GMT)                   : 10:17:36,5
MAGNITUD(ES)                           : /Mb=5.0/Ms=4.5/Mc=4.9/Ma=5.0/Me=5.2
COORDENADAS DEL EPICENTRO              : 17.13 LAT. N
                                       : 100.06 LONG. W
PROFUNDIDAD FOCAL (km)                 : 32
FUENTE DE LOS DATOS EPICENTRALES       : SSN
                                       : INSTITUTO DE GEOFISICA, UNAM 

================================================================================
DATOS DE ESTE REGISTRO:
HORA DE LA PRIMERA MUESTRA (GMT)       : 10:18:41.00
EXACTITUD DEL TIEMPO (s)               :     
DURACION DEL REGISTRO (s), C1-C6       : /81.92/81.92/81.92
DURACION DEL REGISTRO (s), C7-C12      :
NUM. TOTAL DE MUESTRAS, C1-C6          : /16384/16384/16384
NUM. TOTAL DE MUESTRAS, C7-C12         :
ACEL. MAX. (Gal), C1-C6                : /-2.69736/-1.18489/1.98031
ACEL. MAX., C1-C6, EN LA MUESTRA       :
ACEL. MAX. (Gal), C7-C12               :
ACEL. MAX., C7-C12, EN LA MUESTRA      :
UNIDADES DE LOS DATOS                  : Gal (cm/s/s)
FACTOR DE DECIMACION                   : 1
FORMATO DATOS (FORTRAN,10 campos/dato) : 3F10.5


================================================================================
CALIDAD DEL ACELEROGRAMA:
REGISTRO DIGITAL COMPLETO, CARECE DE TIEMPO ABSOLUTO.


================================================================================
COMENTARIOS:














================================================================================
DATOS DE ACELERACION:
---------+---------+---------+---------+---------+---------+---------+---------+
   CANAL-1   CANAL-2   CANAL-3   CANAL-4   CANAL-5   CANAL-6   CANAL-7   CANAL-8
      N00E        +V      N90E
---------+---------+---------+---------+---------+---------+---------+---------+
[...]
   0.18264   0.24511   0.31031
   0.18264   0.24511   0.31031
   0.18264   0.24511   0.31031
   0.18264   0.24511   0.31031
   0.18264   0.24511   0.31031
   0.18264   0.24511   0.31031
   0.18264   0.00511   0.31031
   0.18264   0.24511   0.31031
   0.42264   0.00511   0.31031
   0.18264   0.00511   0.31031
   0.18264  -0.23489   0.31031
   0.18264   0.00511   0.31031
   0.18264   0.00511   0.31031
   0.18264   0.00511   0.31031
  -0.05736  -0.23489   0.31031
  -0.05736   0.00511   0.31031
  -0.05736  -0.23489   0.31031
  -0.05736  -0.23489   0.31031
  -0.05736  -0.23489   0.31031
  -0.05736  -0.23489   0.31031
  -0.29736  -0.23489   0.31031
  -0.29736  -0.23489   0.07031
  -0.29736  -0.23489   0.31031
  -0.29736  -0.23489   0.07031
  -0.29736  -0.23489   0.07031
  -0.29736  -0.23489   0.07031
  -0.29736  -0.47489   0.07031
  -0.29736  -0.47489   0.07031
  -0.53736  -0.23489  -0.16969
  -0.53736  -0.23489  -0.16969
  -0.53736  -0.23489  -0.16969
  -0.53736  -0.23489  -0.16969
  -0.29736  -0.23489  -0.16969
  -0.29736  -0.23489  -0.16969
  -0.29736  -0.23489  -0.16969
  -0.29736  -0.23489  -0.16969
  -0.29736  -0.23489  -0.16969
  -0.29736  -0.23489  -0.40969
  -0.29736  -0.23489  -0.40969
  -0.29736  -0.23489  -0.40969
  -0.29736  -0.23489  -0.40969
  -0.05736  -0.23489  -0.40969
  -0.05736  -0.23489  -0.40969
  -0.05736  -0.23489  -0.40969
  -0.05736  -0.23489  -0.40969
  -0.05736  -0.23489  -0.40969
  -0.05736  -0.47489  -0.40969
  -0.05736  -0.23489  -0.40969
  -0.05736  -0.23489  -0.40969
  -0.05736  -0.23489  -0.40969
  -0.05736  -0.23489  -0.40969
  -0.05736  -0.23489  -0.40969
  -0.05736  -0.23489  -0.40969
  -0.05736  -0.23489  -0.40969
  -0.05736  -0.23489  -0.40969
  -0.05736   0.00511  -0.40969
  -0.05736  -0.23489  -0.40969
  -0.05736   0.00511  -0.40969
   0.18264   0.00511  -0.40969
   0.18264   0.00511  -0.40969
   0.18264   0.00511  -0.16969
   0.18264   0.00511  -0.16969
   0.18264   0.00511  -0.16969
   0.18264   0.00511  -0.16969
   0.18264   0.00511  -0.16969
   0.18264   0.24511  -0.16969
   0.18264   0.24511  -0.16969
   0.18264   0.24511  -0.16969
   0.18264   0.00511   0.07031
   0.18264   0.24511   0.07031
   0.18264   0.24511   0.07031
  -0.05736   0.24511   0.07031
  -0.05736   0.24511   0.07031
  -0.05736   0.24511   0.07031
  -0.05736   0.24511   0.07031
  -0.05736   0.24511   0.07031
  -0.05736   0.24511  -0.16969
  -0.05736   0.24511   0.07031
  -0.05736   0.00511  -0.16969
  -0.05736   0.24511  -0.16969
  -0.29736   0.24511  -0.16969
  -0.29736   0.24511  -0.16969
  -0.29736   0.24511  -0.16969
  -0.29736   0.24511  -0.16969
  -0.29736   0.24511  -0.16969
  -0.29736   0.24511  -0.40969
  -0.53736   0.24511  -0.40969
  -0.53736   0.24511  -0.40969
  -0.53736   0.24511  -0.40969
  -0.53736   0.24511  -0.40969
  -0.53736   0.24511  -0.40969
  -0.53736   0.24511  -0.40969
  -0.53736   0.24511  -0.40969
  -0.53736   0.24511  -0.64969
  -0.53736   0.24511  -0.64969
  -0.53736   0.24511  -0.64969
  -0.53736   0.24511  -0.64969
  -0.53736   0.48511  -0.64969
  -0.53736   0.24511  -0.64969
  -0.53736   0.24511  -0.64969
  -0.53736   0.24511  -0.64969
  -0.53736   0.24511  -0.64969
  -0.53736   0.24511  -0.64969
  -0.53736   0.24511  -0.64969
  -0.53736   0.24511  -0.64969
  -0.29736   0.24511  -0.88969
  -0.29736   0.24511  -0.64969
  -0.29736   0.24511  -0.88969
  -0.29736   0.24511  -0.88969
  -0.05736   0.24511  -0.88969
  -0.05736   0.24511  -0.88969
  -0.05736   0.24511  -0.88969
  -0.05736   0.24511  -0.88969
   0.18264   0.24511  -0.88969
   0.18264   0.24511  -0.64969
   0.18264   0.24511  -0.64969
   0.42264   0.24511  -0.64969
   0.42264   0.24511  -0.64969
   0.42264   0.24511  -0.64969
   0.42264   0.24511  -0.64969
   0.66264   0.24511  -0.64969
   0.66264   0.24511  -0.64969
   0.66264   0.00511  -0.40969
   0.66264   0.24511  -0.40969
   0.66264   0.24511  -0.40969
   0.66264   0.24511  -0.40969
   0.66264   0.00511  -0.40969
   0.66264   0.00511  -0.40969
   0.66264   0.00511  -0.16969
   0.66264   0.00511  -0.16969
   0.66264   0.00511  -0.16969
   0.90264   0.00511  -0.16969
   0.66264   0.00511  -0.16969
   0.90264   0.00511  -0.16969
   0.90264   0.00511   0.07031
   0.90264   0.00511   0.07031
   0.90264   0.00511   0.07031
   0.90264   0.00511   0.07031
   0.90264   0.00511   0.07031
   0.90264  -0.23489   0.07031
   0.90264  -0.23489   0.31031
   0.90264  -0.23489   0.31031
   0.90264  -0.23489   0.31031
   0.90264  -0.23489   0.31031
   0.90264  -0.23489   0.31031
   0.90264  -0.23489   0.31031
   0.90264  -0.23489   0.55031
   0.90264  -0.47489   0.55031
   0.90264  -0.23489   0.55031
   0.90264  -0.47489   0.55031
   0.90264  -0.47489   0.55031
   0.42264  -0.47489   0.55031
   0.90264  -0.47489   0.55031
   0.90264  -0.47489   0.55031
   0.90264  -0.70489   0.55031
   0.90264  -0.47489   0.55031
   0.90264  -0.70489   0.79031
   0.90264  -0.47489   0.79031
   0.66264  -0.70489   0.79031
   0.90264  -0.70489   0.79031
   0.66264  -0.70489   0.79031
   0.66264  -0.70489   0.79031
   0.66264  -0.70489   0.79031
   0.66264  -0.70489   0.79031
   0.66264  -0.70489   1.03031
   0.66264  -0.47489   1.03031
   0.66264  -0.47489   1.03031
   0.42264  -0.70489   1.03031
   0.42264  -0.47489   1.03031
   0.42264  -0.70489   1.27031
   0.42264  -0.47489   1.27031
   0.42264  -0.47489   1.27031
   0.42264  -0.47489   1.27031
   0.18264  -0.47489   1.27031
   0.18264  -0.23489   1.27031
   0.18264  -0.23489   1.27031
  -0.05736  -0.23489   1.27031
  -0.05736  -0.23489   1.27031
  -0.05736   0.00511   1.51031
  -0.05736   0.00511   1.51031
  -0.29736   0.00511   1.51031
  -0.29736   0.00511   1.27031
  -0.29736   0.00511   1.51031
  -0.53736   0.24511   1.51031
  -0.53736   0.24511   1.51031
  -0.53736   0.24511   1.51031
  -0.53736   0.24511   1.51031
  -0.77736   0.24511   1.51031
  -0.77736   0.24511   1.51031
  -0.77736   0.24511   1.51031
  -1.01736   0.24511   1.51031
  -1.01736   0.24511   1.27031
  -1.01736   0.24511   1.27031
  -1.25736   0.24511   1.27031
  -1.01736   0.24511   1.27031
  -1.25736   0.48511   1.27031
  -1.25736   0.48511   1.27031
  -1.25736   0.48511   1.27031
  -1.25736   0.48511   1.27031
  -1.25736   0.48511   1.03031
  -1.49736   0.48511   1.03031
  -1.49736   0.72511   1.03031
  -1.49736   0.72511   1.03031
  -1.49736   0.48511   1.03031
  -1.73736   0.48511   1.03031
  -1.73736   0.48511   1.03031
  -1.73736   0.48511   1.03031
  -1.73736   0.48511   1.03031
  -1.73736   0.48511   0.79031
  -1.73736   0.48511   0.79031
  -1.97736   0.48511   0.79031
  -1.97736   0.48511   0.79031
  -1.97736   0.48511   0.79031
  -1.73736   0.48511   0.79031
  -1.97736   0.48511   0.79031
  -1.97736   0.48511   0.79031
  -1.97736   0.48511   0.79031
  -1.73736   0.24511   0.55031
  -1.73736   0.48511   0.55031
  -1.73736   0.48511   0.55031
  -1.73736   0.48511   0.55031
  -1.73736   0.48511   0.31031
  -1.49736   0.48511   0.31031
  -1.49736   0.48511   0.31031
  -1.49736   0.48511   0.31031
  -1.49736   0.48511   0.31031
  -1.25736   0.24511   0.31031
  -1.25736   0.24511   0.31031
  -1.25736   0.24511   0.31031
  -1.01736   0.24511   0.07031
  -1.01736   0.24511   0.07031
  -1.01736   0.24511   0.07031
  -1.01736   0.24511   0.07031
  -1.01736   0.24511   0.07031
  -0.77736   0.00511  -0.16969
  -0.77736   0.24511  -0.16969
  -0.53736   0.00511  -0.16969
  -0.53736   0.00511  -0.64969
  -0.53736   0.00511  -0.40969
  -0.29736   0.00511  -0.40969
  -0.05736   0.00511  -0.40969
  -0.05736   0.00511  -0.40969
  -0.05736   0.00511  -0.64969
   0.18264   0.00511  -0.64969
   0.18264   0.00511  -0.64969
   0.42264  -0.23489  -0.64969
   0.42264  -0.23489  -0.88969
   0.66264  -0.23489  -0.88969
   0.66264  -0.23489  -0.88969
   0.90264  -0.23489  -1.12969
   0.90264  -0.23489  -1.12969
   1.14264  -0.23489  -1.12969
   1.14264  -0.23489  -1.12969
   1.38264  -0.23489  -1.12969
   1.38264  -0.23489  -1.36969
   1.38264  -0.23489  -1.36969
   1.62264  -0.23489  -1.36969
   1.62264  -0.23489  -1.36969
   1.62264  -0.23489  -1.36969
   1.85264  -0.47489  -1.60969
   1.85264  -0.23489  -1.60969
   1.85264  -0.47489  -1.60969
   1.85264  -0.47489  -1.60969
   2.09264  -0.47489  -1.60969
   2.09264  -0.47489  -1.60969
   2.09264  -0.47489  -1.60969
   2.09264  -0.70489  -1.36969
   2.09264  -0.70489  -1.36969
   2.33264  -0.70489  -1.36969
   2.33264  -0.70489  -1.36969
   2.33264  -0.70489  -1.36969
   2.33264  -0.70489  -1.12969
   2.33264  -0.70489  -1.12969
   2.33264  -0.70489  -1.12969
   2.33264  -0.70489  -1.12969
   2.33264  -0.70489  -1.12969
   2.33264  -0.70489  -0.88969
   2.33264  -0.47489  -0.88969
   2.33264  -0.70489  -0.88969
   2.33264  -0.70489  -0.64969
   2.33264  -0.70489  -0.64969
   2.33264  -0.70489  -0.64969
   2.33264  -0.47489  -0.40969
   2.33264  -0.70489  -0.40969
   2.33264  -0.70489  -0.40969
   2.09264  -0.70489  -0.16969
   2.09264  -0.47489  -0.16969
   2.09264  -0.47489  -0.16969
   2.09264  -0.47489   0.07031
   1.85264  -0.47489   0.07031
   1.85264  -0.47489   0.07031
   1.85264  -0.47489   0.31031
   1.85264  -0.47489   0.31031
   1.62264  -0.23489   0.31031
   1.62264  -0.23489   0.55031
   1.62264  -0.23489   0.55031
   1.38264  -0.23489   0.55031
   1.38264  -0.23489   0.55031
   1.38264  -0.23489   0.55031
   1.38264   0.00511   0.55031
   1.38264   0.00511   0.55031
   1.14264   0.00511   0.79031
   1.14264   0.00511   0.79031
   0.90264   0.00511   0.79031
   0.90264   0.24511   0.55031
   0.90264   0.00511   0.55031
   0.66264   0.24511   0.55031
   0.66264   0.24511   0.55031
   0.42264   0.24511   0.55031
   0.42264   0.24511   0.55031
   0.18264   0.24511   0.55031
   0.18264   0.24511   0.55031
  -0.05736   0.24511   0.55031
  -0.05736   0.24511   0.55031
  -0.05736   0.24511   0.55031
  -0.29736   0.24511   0.55031
  -0.29736   0.48511   0.55031
  -0.53736   0.48511   0.55031
  -0.53736   0.48511   0.55031
  -0.77736   0.48511   0.55031
  -0.77736   0.48511   0.55031
  -0.77736   0.48511   0.55031
  -1.01736   0.24511   0.55031
  -1.01736   0.48511   0.55031
  -1.01736   0.48511   0.31031
  -1.25736   0.48511   0.55031
  -1.25736   0.48511   0.55031
  -1.25736   0.48511   0.31031
  -1.49736   0.48511   0.31031
  -1.49736   0.48511   0.31031
  -1.49736   0.48511   0.07031
  -1.73736   0.48511   0.31031
  -1.73736   0.48511   0.31031
  -1.73736   0.48511   0.31031
  -1.97736   0.48511   0.31031
  -1.97736   0.48511   0.31031
  -1.97736   0.48511   0.31031
  -1.97736   0.48511   0.31031
  -2.21736   0.48511   0.31031
  -2.21736   0.48511   0.31031
  -2.21736   0.48511   0.31031
  -2.45736   0.48511   0.31031
  -2.45736   0.48511   0.31031
  -2.45736   0.48511  -0.16969
  -2.45736   0.48511   0.31031
  -2.45736   0.48511   0.31031
  -2.45736   0.48511   0.31031
  -2.45736   0.24511   0.31031
  -2.45736   0.24511   0.31031
  -2.69736   0.24511   0.31031
  -2.69736   0.24511   0.07031
  -2.69736   0.24511   0.07031
  -2.45736   0.24511   0.07031
  -2.69736   0.24511   0.07031
  -2.45736   0.24511   0.07031
  -2.45736   0.24511   0.07031
  -2.45736   0.24511  -0.16969
  -2.45736   0.24511  -0.16969
  -2.45736   0.24511  -0.16969
  -2.45736   0.24511  -0.16969
  -2.21736   0.24511  -0.16969
  -2.21736   0.24511  -0.16969
  -2.21736   0.24511  -0.40969
  -1.97736   0.24511  -0.40969
  -1.97736   0.24511  -0.40969
  -1.73736   0.00511  -0.40969
  -1.73736   0.00511  -0.40969
  -1.73736   0.00511  -0.40969
  -1.73736   0.00511  -0.40969
  -1.49736   0.00511  -0.64969
  -1.25736   0.00511  -0.64969
  -1.01736   0.00511  -0.64969
  -1.01736  -0.23489  -0.64969
  -1.01736  -0.23489  -0.64969
  -0.77736  -0.23489  -0.64969
  -0.77736  -0.23489  -0.64969
  -0.53736  -0.23489  -0.64969
  -0.53736  -0.23489  -0.64969
  -0.29736  -0.23489  -0.88969
  -0.29736  -0.23489  -0.88969
  -0.29736  -0.23489  -0.88969
  -0.05736  -0.23489  -0.88969
  -0.05736  -0.47489  -0.88969
   0.18264  -0.23489  -0.88969
   0.18264  -0.23489  -0.88969
   0.18264  -0.47489  -0.88969
   0.42264  -0.47489  -0.88969
   0.42264  -0.47489  -0.88969
   0.42264  -0.47489  -0.88969
   0.66264  -0.47489  -0.88969
   0.66264  -0.47489  -0.88969
   0.90264  -0.47489  -0.88969
   0.90264  -0.47489  -0.88969
   0.90264  -0.47489  -0.88969
   0.90264  -0.70489  -0.88969
   1.14264  -0.47489  -0.88969
   1.14264  -0.70489  -0.64969
   1.14264  -0.70489  -0.64969
   1.38264  -0.47489  -0.64969
   1.38264  -0.70489  -0.64969
   1.38264  -0.70489  -0.64969
   1.38264  -0.70489  -0.64969
   1.38264  -0.70489  -0.64969
   1.38264  -0.70489  -0.64969
   1.38264  -0.70489  -0.64969
   1.14264  -0.70489  -0.64969
   1.38264  -0.70489  -0.64969
   1.38264  -0.47489  -0.64969
   1.38264  -0.47489  -0.40969
   1.38264  -0.47489  -0.64969
   1.38264  -0.47489  -0.64969
   1.38264  -0.47489  -0.64969
   1.38264  -0.47489  -0.64969
   1.14264  -0.47489  -0.40969
   1.14264  -0.47489  -0.40969
   1.14264  -0.23489  -0.40969
   1.14264  -0.23489  -0.40969
   1.14264  -0.23489  -0.40969
   1.14264  -0.23489  -0.40969
   1.14264  -0.23489  -0.40969
   1.14264   0.00511  -0.40969
   1.14264  -0.23489  -0.40969
   0.90264  -0.23489  -0.40969
   0.90264  -0.23489  -0.40969
   0.90264  -0.23489  -0.40969
   0.90264  -0.23489  -0.40969
   0.66264  -0.23489  -0.40969
   0.66264  -0.23489  -0.40969
   0.66264  -0.23489  -0.40969
   0.66264   0.00511  -0.40969
   0.66264   0.00511  -0.40969
   0.66264   0.00511  -0.40969
   0.42264   0.00511  -0.40969
   0.42264   0.00511  -0.64969
   0.42264   0.00511  -0.40969
   0.42264   0.00511  -0.64969
   0.42264   0.00511  -0.64969
   0.18264   0.00511  -0.64969
   0.18264   0.00511  -0.64969
   0.18264   0.24511  -0.64969
   0.18264   0.24511  -0.64969
   0.18264   0.24511  -0.64969
   0.18264   0.24511  -0.64969
  -0.05736   0.24511  -0.64969
  -0.05736   0.24511  -0.64969
  -0.05736   0.24511  -0.64969
  -0.05736   0.24511  -0.64969
  -0.05736   0.24511  -0.64969
  -0.05736   0.24511  -0.64969
  -0.05736   0.24511  -0.64969
  -0.05736   0.24511  -0.40969
  -0.05736   0.48511  -0.40969
  -0.05736   0.48511  -0.40969
  -0.05736   0.24511  -0.40969
  -0.05736   0.48511  -0.40969
  -0.05736   0.48511  -0.16969
  -0.05736   0.48511  -0.16969
  -0.29736   0.48511  -0.16969
  -0.29736   0.72511  -0.16969
  -0.29736   0.48511  -0.16969
  -0.29736   0.48511  -0.16969
  -0.29736   0.72511  -0.16969
  -0.29736   0.48511   0.07031
  -0.29736   0.48511   0.07031
  -0.29736   0.72511   0.07031
  -0.29736   0.48511   0.07031
  -0.53736   0.48511   0.07031
  -0.29736   0.72511   0.07031
  -0.53736   0.48511   0.07031
  -0.29736   0.48511   0.07031
  -0.29736   0.72511   0.07031
  -0.29736   0.72511   0.07031
  -0.29736   0.72511   0.07031
  -0.29736   0.72511   0.07031
  -0.29736   0.72511   0.07031
  -0.29736   0.72511   0.07031
  -0.29736   0.48511   0.07031
  -0.29736   0.72511   0.07031
  -0.29736   0.72511   0.31031
  -0.29736   0.48511   0.31031
  -0.29736   0.72511   0.31031
  -0.29736   0.48511   0.31031
  -0.05736   0.48511   0.31031
  -0.29736   0.48511   0.31031
  -0.29736   0.48511   0.31031
  -0.05736   0.48511   0.31031
  -0.05736   0.48511   0.31031
  -0.05736   0.24511   0.31031
  -0.05736   0.24511   0.31031
  -0.05736   0.24511   0.31031
  -0.05736   0.24511   0.55031
   0.18264   0.00511   0.55031
   0.18264   0.24511   0.55031
   0.18264   0.00511   0.55031
   0.18264   0.00511   0.55031
   0.42264  -0.23489   0.55031
   0.42264   0.00511   0.55031
   0.42264   0.00511   0.55031
   0.42264   0.00511   0.79031
