********************************************************************************
              CENTRO DE INSTRUMENTACION Y REGISTRO SISMICO  A.C.

    Anaxagoras 814, Col. Narvarte, Benito Juarez, C.P. 03020 Mexico, D.F.
           Tels. 5687 45 42/ 5687 45  82             Fax. 5669 25 12
********************************************************************************
ARCHIVO ESTANDAR DE ACELERACION:
VERSION DEL FORMATO                    : 2.0
NOMBRE DEL ARCHIVO                     : AE0220180219065657
FECHA Y HORA DE CREACION               : 07/MAR/18, 13:39
REF. CATALOGO ACELEROGRAMAS, SMIS 1996 : REGISTRO No.     /PAG.


================================================================================
DATOS DE LA ESTACION:
NOMBRE DE LA ESTACION                  : ESC. PRIM. "GONZÁLEZ GARZÓN"
CLAVE DE LA ESTACION                   : AE02
LOCALIZACION DE LA ESTACION            : Del. Venustiano Carranza,              
                                       : Col. El Arenal 4a. Sección,            
                                       : Calle Xico esq. con calle Xocoyote.    
                                       :                                        
                                       : 
COORDENADAS DE LA ESTACION             : 19.4290 LAT. N
                                       : 99.0584 LONG. W
ALTITUD (msnm)                         : 2232
TIPO DE SUELO                          : Arcilloso, zona lago                
                                       :                           
                                       : 
INSTITUCION RESPONSABLE                : CIRES
                                       : 

================================================================================
DATOS DEL ACELEROGRAFO:
MODELO DEL ACELEROGRAFO                : RADESD
NUMERO DE SERIE DEL ACELEROGRAFO       : 242
NUMERO DE CANALES                      : 3
ORIENTACION C1-C6 (rumbo;orientacion)  : /N00E/+V/N90W
ORIENTACION C7-C12 (rumbo;orientacion) : 
VEL. DE MUESTREO, C1-C6 (muestras/s)   : /100/100/100
VEL. DE MUESTREO, C7-C12 (muestras/s)  : 
ESC. COMPLETA DE SENSORES, C1-C6, (g)  : /0.5/0.5/0.5
ESC. COMPLETA DE SENSORES, C7-C12, (g) : 
FREC. NAT. DE SENSORES, C1-C6, (Hz)    : /30/30/30
FREC. NAT. DE SENSORES, C7-C12, (Hz)   : 
AMORTIGUAMIENTO DE SENSORES, C1-C6     : /0.733/0.750/0.700
AMORTIGUAMIENTO DE SENSORES, C7-C12    : 
INTERVALO DE MUESTREO, C1-C6, (s)      : /0.01/0.01/0.01
INTERVALO DE MUESTREO, C7-C12, (s)     : 
UMBRAL DE DISPARO, C1-C6, (Gal)        : /1.95/6.73/1.95
UMBRAL DE DISPARO, C7-C12, (Gal)       : 
MEMORIA DE PREEVENTO (s)               : 44.0
TIEMPO DE POSEVENTO (s)                : 64.0


================================================================================
DATOS DEL SISMO:
FECHA DEL SISMO (GMT)                  : 19/FEB/18
HORA EPICENTRO (GMT)                   : 06:56:57.0
MAGNITUD(ES)                           : /Mc=6.0
COORDENADAS DEL EPICENTRO              : 16.25 LAT. N
                                       : 97.77 LONG. W
PROFUNDIDAD FOCAL (km)                 : 10
FUENTE DE LOS DATOS EPICENTRALES       : SSN
                                       : INSTITUTO DE GEOFISICA, UNAM

================================================================================
DATOS DE ESTE REGISTRO:
HORA DE LA PRIMERA MUESTRA (GMT)       : 06:57:59.00
EXACTITUD DEL TIEMPO (s)               : 0.01
DURACION DEL REGISTRO (s), C1-C6       : /168.2/168.2/168.2
DURACION DEL REGISTRO (s), C7-C12      : 
NUM. TOTAL DE MUESTRAS, C1-C6          : /16820/16820/16820
NUM. TOTAL DE MUESTRAS, C7-C12         : 
ACEL. MAX. (Gal), C1-C6                : /7.13096/3.01706/4.33108
ACEL. MAX., C1-C6, EN LA MUESTRA       : /6519/7012/5920
ACEL. MAX. (Gal), C7-C12               : 
ACEL. MAX., C7-C12, EN LA MUESTRA      : 
UNIDADES DE LOS DATOS                  : Gal (cm/s/s)
FACTOR DE DECIMACION                   : 1
FORMATO DATOS (FORTRAN,10 campos/dato) : 3F10.5


================================================================================
CALIDAD DEL ACELEROGRAMA:
REGISTRO DIGITAL COMPLETO CON TIEMPO ABSOLUTO CORRECTO.


================================================================================
COMENTARIOS:














================================================================================
DATOS DE ACELERACION:
---------+---------+---------+---------+---------+---------+---------+---------+
   CANAL-1   CANAL-2   CANAL-3   CANAL-4   CANAL-5   CANAL-6   CANAL-7   CANAL-8
      N00E        +V      N90W
---------+---------+---------+---------+---------+---------+---------+---------+
[...]
   2.74513   0.35351  -0.60510
   2.79002   0.35351  -0.60510
   2.79002   0.41336  -0.56021
   2.70023   0.48818  -0.56021
   2.81994   0.57796  -0.47043
   2.71520   0.57796  -0.50036
   2.68527   0.71264  -0.62007
   2.62542   0.80242  -0.53029
   2.52067   0.65278  -0.45547
   2.43089   0.86228  -0.53029
   2.31118   0.72760  -0.39561
   2.22139   0.81738  -0.33576
   2.16154   0.80242  -0.41058
   1.99694   0.78746  -0.44050
   1.84730   0.83235  -0.30583
   1.84730   0.81738  -0.23101
   1.60788   0.69767  -0.27590
   1.45824   0.66775  -0.18612
   1.32357   0.68271  -0.11130
   1.18889   0.60789   0.03834
   1.05422   0.65278   0.11316
   0.96444   0.66775   0.20294
   0.69509   0.62286   0.24783
   0.60531   0.45825   0.47229
   0.54545   0.53307   0.57703
   0.36589   0.53307   0.66682
   0.11150   0.48818   0.74163
   0.08158   0.53307   0.90624
  -0.06806   0.48818   1.08580
  -0.23266   0.24876   1.19055
  -0.29252   0.33854   1.42997
  -0.41223   0.30862   1.62450
  -0.60676   0.17394   1.68435
  -0.78632   0.08416   1.83399
  -0.86114   0.14402   1.84895
  -1.01078   0.05423   1.87888
  -1.14545   0.00934   2.08837
  -1.25020  -0.03555   2.08837
  -1.31005  -0.03555   2.17816
  -1.45969  -0.06548   2.28290
  -1.60933  -0.14030   2.22305
  -1.62429  -0.11037   2.19312
  -1.83378  -0.18519   2.20808
  -2.02831  -0.30490   2.31283
  -2.10313  -0.33483   2.29787
  -2.17795  -0.39468   2.25297
  -2.32759  -0.28993   2.14823
  -2.49219  -0.43957   2.16319
  -2.58197  -0.49943   2.05844
  -2.73161  -0.49943   2.05844
  -2.86628  -0.52935   1.95370
  -2.92614  -0.63410   1.90881
  -2.98599  -0.48446   1.77413
  -3.10570  -0.52935   1.77413
  -3.09074  -0.54432   1.71428
  -3.19549  -0.48446   1.56464
  -3.33016  -0.54432   1.47486
  -3.39002  -0.60417   1.40004
  -3.36009  -0.72388   1.31026
  -3.34512  -0.58921   1.26537
  -3.39002  -0.55928   1.11573
  -3.40498  -0.66403   0.98105
  -3.44987  -0.49943   0.87631
  -3.39002  -0.57425   0.84638
  -3.40498  -0.60417   0.75660
  -3.39002  -0.60417   0.69674
  -3.19549  -0.55928   0.54711
  -3.15060  -0.61914   0.53214
  -3.01592  -0.55928   0.51718
  -2.95607  -0.55928   0.42740
  -2.73161  -0.63410   0.44236
  -2.58197  -0.48446   0.27776
  -2.37248  -0.64906   0.41243
  -2.26773  -0.58921   0.12812
  -2.13306  -0.61914   0.18797
  -1.95349  -0.79870   0.11316
  -1.69911  -0.60417  -0.12626
  -1.56444  -0.76877  -0.20108
  -1.42976  -0.70892  -0.29087
  -1.35494  -0.87352  -0.53029
  -1.13049  -0.78374  -0.62007
  -1.10056  -0.91841  -0.67992
  -0.95092  -0.96330  -0.75474
  -0.93596  -0.99323  -0.93431
  -0.95092  -1.12790  -1.02409
  -0.77136  -1.09798  -1.12884
  -0.74143  -1.02316  -1.21862
  -0.63668  -1.05309  -1.20365
  -0.66661  -0.97827  -1.44307
  -0.48705  -0.96330  -1.29344
  -0.41223  -0.93338  -1.39818
  -0.41223  -0.88848  -1.54782
  -0.35237  -0.96330  -1.48797
  -0.24763  -0.90345  -1.63760
  -0.17281  -0.84359  -1.68250
  -0.03813  -0.91841  -1.69746
   0.03669  -0.82863  -1.74235
   0.24618  -0.78374  -1.74235
   0.24618  -0.73885  -1.86206
   0.27611  -0.70892  -1.92192
   0.54545  -0.64906  -1.78724
   0.57538  -0.49943  -1.84710
   0.73998  -0.52935  -1.84710
   0.81480  -0.42461  -1.83213
   0.85969  -0.55928  -1.90695
   1.03926  -0.51439  -1.83213
   1.02429  -0.46950  -1.84710
   1.18889  -0.40964  -1.89199
   1.12904  -0.30490  -1.96681
   1.06918  -0.37972  -1.92192
   1.15897  -0.28993  -1.83213
   1.38342  -0.24504  -1.72739
   1.38342  -0.12533  -1.86206
   1.35350  -0.08044  -1.74235
   1.50313   0.02430  -1.68250
   1.51810   0.11409  -1.72739
   1.51810   0.17394  -1.53286
   1.63781   0.32358  -1.48797
   1.80241   0.36847  -1.32336
   1.77248   0.54804  -1.24855
   1.90716   0.63782  -1.23358
   2.10168   0.72760  -0.90438
   2.20643   0.81738  -0.87445
   2.44585   0.95206  -0.81460
   2.52067   0.96702  -0.51532
   2.70023   1.11666  -0.42554
   2.73016   1.08673  -0.29087
   2.92469   1.13162  -0.08137
   3.05936   1.25133  -0.05145
   3.26886   1.38601   0.12812
   3.29878   1.35608   0.15805
   3.34368   1.31119   0.41243
   3.47835   1.38601   0.51718
   3.58310   1.47579   0.66682
   3.68784   1.49075   0.63689
   3.76266   1.52068   0.74163
   3.91230   1.52068   0.98105
   3.97215   1.55061   1.05587
   4.01705   1.68528   1.04091
   3.97215   1.50572   1.14566
   4.04697   1.49075   1.25040
   4.04697   1.55061   1.26537
   4.01705   1.53564   1.35515
   3.94223   1.41593   1.35515
   3.97215   1.37104   1.42997
   3.98712   1.43090   1.48982
   3.68784   1.32615   1.53471
   3.68784   1.19148   1.57960
   3.65792   1.25133   1.48982
   3.53821   1.22141   1.51975
   3.46339   1.10170   1.57960
   3.41850   1.14659   1.65442
   3.25389   1.10170   1.51975
   2.98455   0.96702   1.53471
   2.89476   0.96702   1.56464
   2.77505   0.84731   1.53471
   2.44585   0.81738   1.40004
   2.31118   0.77249   1.44493
   2.22139   0.71264   1.54968
   1.92212   0.68271   1.35515
   1.59292   0.66775   1.37011
   1.42831   0.57796   1.40004
   1.24875   0.66775   1.19055
   0.78487   0.33854   1.19055
   0.73998   0.54804   1.02595
   0.42574   0.30862   1.05587
   0.21625   0.41336   0.80149
  -0.11295   0.38344   0.81645
  -0.32245   0.30862   0.66682
  -0.63668   0.39840   0.62192
  -0.92100   0.32358   0.48725
  -1.16042   0.45825   0.27776
  -1.50458   0.32358   0.23287
  -1.72904   0.33854   0.15805
  -1.95349   0.41336  -0.00655
  -2.22284   0.32358  -0.02152
  -2.46226   0.38344  -0.20108
  -2.68672   0.27869  -0.23101
  -2.88125   0.36847  -0.39561
  -3.25534   0.20387  -0.48539
  -3.39002   0.20387  -0.62007
  -3.58454   0.23380  -0.67992
  -3.94368   0.02430  -0.72481
  -4.00353   0.15898  -0.91934
  -4.25791  -0.02059  -0.85949
  -4.46741   0.00934  -0.97920
  -4.73675  -0.15526  -0.99416
  -4.87143  -0.03555  -1.00913
  -5.03603  -0.18519  -0.90438
  -5.11085  -0.14030  -0.97920
  -5.39516  -0.18519  -0.93431
  -5.41012  -0.21512  -0.94927
  -5.58969  -0.12533  -1.06898
  -5.69443  -0.39468  -0.90438
  -5.73933  -0.31986  -0.93431
  -5.76925  -0.37972  -0.84452
  -5.78422  -0.37972  -0.88942
  -5.87400  -0.70892  -0.73978
  -5.81415  -0.45454  -0.76971
  -5.93386  -0.67899  -0.67992
  -5.78422  -0.58921  -0.70985
  -5.91889  -0.81367  -0.59014
  -5.73933  -0.76877  -0.42554
  -5.54480  -0.82863  -0.29087
  -5.52983  -0.76877  -0.30583
  -5.46998  -0.90345  -0.23101
  -5.33530  -0.93338  -0.14123
  -5.24552  -1.00819   0.00841
  -5.20063  -1.05309  -0.02152
  -4.99114  -0.94834   0.17301
  -4.93128  -1.08301   0.23287
  -4.72179  -1.15783   0.41243
  -4.67690  -1.06805   0.30768
  -4.48237  -1.12790   0.23287
  -4.30281  -1.12790   0.33761
  -4.21302  -1.15783   0.47229
  -4.06339  -1.24761   0.39747
  -3.86886  -1.23265   0.53214
  -3.67433  -1.17280   0.47229
  -3.43491  -1.23265   0.44236
  -3.13563  -1.20272   0.53214
  -2.94110  -1.23265   0.57703
  -2.71665  -1.27754   0.57703
  -2.35752  -1.23265   0.54711
  -2.08817  -1.18776   0.60696
  -1.83378  -1.27754   0.50221
  -1.47465  -1.18776   0.66682
  -1.38487  -1.29251   0.50221
  -0.96589  -1.23265   0.56207
  -0.60676  -1.17280   0.45732
  -0.32245  -1.17280   0.57703
  -0.08302  -1.17280   0.45732
   0.23121  -1.05309   0.44236
   0.47063  -1.02316   0.38250
   0.81480  -1.06805   0.27776
   1.00933  -1.06805   0.21790
   1.30860  -1.02316   0.12812
   1.59292  -0.82863   0.02337
   1.80241  -0.81367  -0.09634
   1.96701  -0.81367  -0.24597
   2.22139  -0.79870  -0.29087
   2.41592  -0.72388  -0.51532
   2.55060  -0.73885  -0.57518
   2.74513  -0.72388  -0.70985
   2.84987  -0.69396  -0.88942
   3.02944  -0.64906  -1.03905
   3.16411  -0.33483  -1.14380
   3.20900  -0.42461  -1.32336
   3.26886  -0.43957  -1.48797
   3.44842  -0.33483  -1.53286
   3.46339  -0.26001  -1.71242
   3.55317  -0.12533  -1.81717
   3.59806  -0.09541  -1.87702
   3.65792  -0.02059  -1.99673
   3.70281  -0.12533  -2.10148
   3.80755  -0.00562  -2.26608
   3.94223   0.11409  -2.38579
   3.94223   0.03927  -2.43068
   4.00208   0.12905  -2.68507
   4.07690   0.15898  -2.77485
   4.22654   0.21883  -2.86463
   4.27143   0.30862  -2.89456
   4.13676   0.29365  -3.10405
   4.12179   0.21883  -3.16391
   4.22654   0.30862  -3.07412
   4.27143   0.42833  -3.13398
   4.18165   0.45825  -3.20880
   4.19661   0.51811  -3.11902
   4.18165   0.48818  -3.19383
   4.16668   0.59293  -3.17887
   4.12179   0.53307  -3.07412
   4.12179   0.63782  -3.07412
   3.97215   0.63782  -3.08909
   3.97215   0.66775  -3.04420
   3.97215   0.65278  -2.99931
   3.95719   0.71264  -2.90952
   3.91230   0.65278  -2.84967
   3.82252   0.62286  -2.83470
   3.70281   0.69767  -2.81974
   3.70281   0.68271  -2.74492
   3.82252   0.75753  -2.65514
   3.59806   0.74257  -2.67010
   3.74770   0.71264  -2.46061
   3.76266   0.75753  -2.50550
   3.74770   0.74257  -2.52047
   3.77763   0.66775  -2.28105
   3.83748   0.74257  -2.22119
   3.79259   0.75753  -2.16134
   3.73273   0.65278  -1.92192
   3.82252   0.81738  -1.81717
   3.73273   0.83235  -1.63760
   3.83748   0.89220  -1.66753
   3.71777   0.83235  -1.35329
   3.74770   0.87724  -1.29344
   3.73273   1.02688  -1.18869
   3.67288   1.08673  -0.94927
   3.73273   1.13162  -0.82956
   3.49331   1.17651  -0.81460
   3.47835   1.07177  -0.51532
   3.40353   1.14659  -0.48539
   3.34368   1.01191  -0.21605
   3.19404   1.05680  -0.27590
   3.07433   1.08673   0.00841
   3.04440   1.22141   0.32265
   2.87980   1.20644   0.35258
   2.65534   1.10170   0.39747
   2.52067   1.20644   0.63689
   2.07176   0.95206   0.80149
   1.93708   0.92213   1.01098
   1.89219   1.04184   1.29529
   1.62284   1.02688   1.31026
   1.39839   1.04184   1.60953
   1.02429   0.93709   1.62450
   0.85969   0.92213   1.83399
   0.45567   0.92213   1.84895
   0.24618   0.95206   2.05844
  -0.03813   0.81738   2.31283
  -0.33741   0.75753   2.31283
  -0.56187   0.92213   2.53729
  -1.04071   0.80242   2.50736
  -1.14545   0.83235   2.77671
  -1.47465   0.81738   2.97123
  -1.83378   0.74257   3.09094
  -2.17795   0.78746   3.21065
  -2.44730   0.71264   3.34533
  -2.88125   0.51811   3.42015
  -3.13563   0.50315   3.52489
  -3.41994   0.42833   3.71942
  -3.79404   0.48818   3.68949
  -4.09331   0.26373   3.83913
  -4.37762   0.36847   3.80920
  -4.67690   0.20387   3.91395
  -4.94625   0.23380   3.79424
  -5.27545   0.09912   3.73439
  -5.60465   0.05423   3.85410
  -5.70940   0.02430   3.83913
  -6.14335  -0.14030   3.73439
  -6.24809  -0.20015   3.64460
  -6.33788  -0.20015   3.58475
  -6.59226  -0.20015   3.42015
  -6.68204  -0.27497   3.28547
  -6.87657  -0.37972   3.12087
  -6.90650  -0.42461   3.07598
  -7.05614  -0.51439   2.76174
  -7.08606  -0.61914   2.68692
  -7.05614  -0.72388   2.47743
  -7.13096  -0.84359   2.26794
  -7.11599  -0.93338   2.02852
  -7.11599  -1.08301   1.86392
  -6.96635  -1.12790   1.56464
  -6.99628  -1.17280   1.32522
  -6.87657  -1.29251   1.19055
  -6.69701  -1.36732   0.99602
  -6.48751  -1.42718   0.90624
  -6.45759  -1.36732   0.57703
  -6.03860  -1.42718   0.56207
  -5.76925  -1.48703   0.27776
  -5.63458  -1.48703   0.00841
  -5.26049  -1.51696   0.06826
  -5.05099  -1.60674  -0.15619
  -4.72179  -1.59178  -0.21605
  -4.40755  -1.69653  -0.35072
  -3.92871  -1.56185  -0.50036
  -3.64440  -1.56185  -0.60510
  -3.30023  -1.71149  -0.62007
  -2.95607  -1.45711  -0.87445
  -2.62686  -1.54689  -0.76971
  -2.22284  -1.45711  -0.81460
  -1.86371  -1.38229  -0.91934
  -1.39984  -1.47207  -0.84452
  -1.07063  -1.27754  -1.06898
  -0.78632  -1.30747  -0.97920
  -0.26259  -1.23265  -0.87445
   0.11150  -1.20272  -0.87445
   0.35092  -1.09798  -1.00913
   0.73998  -1.05309  -0.96423
   1.21882  -0.88848  -0.99416
   1.35350  -0.93338  -0.97920
   1.83234  -0.88848  -0.93431
   2.11665  -0.66403  -1.05402
   2.32614  -0.76877  -0.93431
   2.70023  -0.81367  -1.00913
   2.89476  -0.64906  -1.02409
   3.19404  -0.69396  -1.05402
   3.35864  -0.54432  -1.15876
   3.50828  -0.60417  -1.12884
   3.74770  -0.49943  -1.15876
   3.91230  -0.55928  -1.17373
   4.04697  -0.46950  -1.29344
   4.18165  -0.49943  -1.23358
   4.16668  -0.39468  -1.24855
   4.16668  -0.43957  -1.15876
   4.13676  -0.30490  -1.17373
   4.12179  -0.28993  -1.00913
   4.15172  -0.20015  -1.03905
   4.01705  -0.34979  -0.99416
   3.94223  -0.24504  -1.11387
   3.86741  -0.08044  -1.14380
   3.80755  -0.18519  -0.99416
   3.76266  -0.03555  -1.06898
   3.58310   0.06920  -0.96423
   3.50828  -0.02059  -1.08394
   3.49331   0.08416  -0.97920
   3.34368   0.15898  -1.03905
   3.22397   0.14402  -1.03905
   3.14915   0.29365  -0.99416
   3.14915   0.18891  -0.97920
   3.05936   0.17394  -0.99416
   2.92469   0.15898  -0.91934
   2.90973   0.14402  -1.00913
   2.79002   0.17394  -0.99416
   2.83491   0.26373  -0.88942
   2.71520   0.03927  -0.82956
   2.62542   0.08416  -0.81460
   2.67031   0.21883  -0.79963
   2.64038   0.24876  -0.67992
   2.65534   0.21883  -0.62007
   2.59549   0.26373  -0.53029
   2.53563   0.27869  -0.44050
   2.41592   0.18891  -0.51532
   2.41592   0.29365  -0.26094
   2.35607   0.30862  -0.15619
   2.49074   0.51811   0.08323
   2.43089   0.44329   0.17301
   2.47578   0.62286   0.35258
   2.41592   0.60789   0.62192
   2.41592   0.65278   0.74163
   2.32614   0.63782   0.93616
   2.26629   0.71264   1.05587
   2.28125   0.84731   1.14566
   2.19147   0.80242   1.37011
   2.28125   0.95206   1.48982
   2.22139   0.92213   1.53471
   2.19147   1.02688   1.62450
   2.01190   0.95206   1.78910
   2.05679   0.99695   2.08837
   2.11665   0.99695   2.11830
   2.01190   1.11666   2.19312
   1.98197   1.01191   2.43254
   1.99694   1.11666   2.47743
   1.96701   1.19148   2.56721
   1.92212   1.05680   2.79167
   1.86226   1.14659   2.85152
   1.84730   1.19148   2.89642
   1.80241   1.19148   3.12087
   1.72759   0.99695   3.24058
   1.68270   1.16155   3.28547
   1.62284   1.23637   3.33036
   1.63781   1.20644   3.45007
   1.51810   1.19148   3.50993
   1.42831   1.22141   3.55482
   1.38342   1.19148   3.58475
   1.33853   1.16155   3.59971
   1.17393   1.20644   3.64460
   1.05422   1.16155   3.68949
   1.03926   1.10170   3.76431
   0.87466   1.10170   3.70446
   0.76991   1.05680   3.76431
   0.69509   1.11666   3.73439
   0.59034   1.05680   3.74935
   0.48560   1.05680   3.61468
   0.29107   0.87724   3.55482
   0.05165   0.93709   3.36029
  -0.17281   0.86228   3.39022
  -0.24763   0.80242   3.42015
  -0.42719   0.78746   3.27051
  -0.60676   0.71264   3.30044
  -0.77136   0.59293   3.22562
  -0.87610   0.69767   3.16576
  -1.31005   0.56300   3.03109
  -1.41480   0.41336   2.79167
  -1.60933   0.35351   2.70189
  -1.68415   0.35351   2.62707
  -1.86371   0.27869   2.50736
  -2.05824   0.14402   2.32779
  -2.25277   0.09912   2.11830
  -2.32759   0.08416   2.11830
  -2.56701  -0.05051   1.84895
  -2.74657  -0.11037   1.80406
  -2.70168  -0.28993   1.63946
  -2.88125  -0.21512   1.44493
  -2.92614  -0.36475   1.34018
  -3.00096  -0.40964   1.16062
  -2.94110  -0.51439   1.08580
  -3.00096  -0.54432   0.83142
  -3.03089  -0.70892   0.86134
  -2.97103  -0.82863   0.68178
  -2.98599  -0.87352   0.44236
  -2.89621  -0.99323   0.29272
  -2.80643  -1.03812   0.18797
  -2.94110  -1.27754  -0.03648
  -2.64183  -1.11294  -0.21605
  -2.62686  -1.30747  -0.32079
  -2.38744  -1.17280  -0.56021
  -2.49219  -1.35236  -0.67992
  -2.25277  -1.29251  -0.88942
