********************************************************************************
              CENTRO DE INSTRUMENTACION Y REGISTRO SISMICO  A.C.

    Anaxagoras 814, Col. Narvarte, Benito Juarez, C.P. 03020 Mexico, D.F.
           Tels. 5687 45 42/ 5687 45  82             Fax. 5669 25 12
********************************************************************************
ARCHIVO ESTANDAR DE ACELERACION:
VERSION DEL FORMATO                    : 2.0
NOMBRE DEL ARCHIVO                     : AE0220130405015848
FECHA Y HORA DE CREACION               : 14/MAY/13, 11:10
REF. CATALOGO ACELEROGRAMAS, SMIS 1996 : REGISTRO No.     /PAG.


================================================================================
DATOS DE LA ESTACION:
NOMBRE DE LA ESTACION                  : ESC. PRIM. "GONZÁLEZ GARZÓN"
CLAVE DE LA ESTACION                   : AE02
LOCALIZACION DE LA ESTACION            : Del. Venustiano Carranza,              
                                       : Col. El Arenal 4a. Sección,            
                                       : Calle Xico esq. con calle Xocoyote.    
                                       :                                        
                                       : 
COORDENADAS DE LA ESTACION             : 19.4290 LAT. N
                                       : 99.0584 LONG. W
ALTITUD (msnm)                         : 2232
TIPO DE SUELO                          : Arcilloso, zona lago                
                                       :                           
                                       : 
INSTITUCION RESPONSABLE                : CIRES
                                       : 

================================================================================
DATOS DEL ACELEROGRAFO:
MODELO DEL ACELEROGRAFO                : RADESD
NUMERO DE SERIE DEL ACELEROGRAFO       : 242
NUMERO DE CANALES                      : 3
ORIENTACION C1-C6 (rumbo;orientacion)  : /N00E/+V/N90W
ORIENTACION C7-C12 (rumbo;orientacion) : 
VEL. DE MUESTREO, C1-C6 (muestras/s)   : /100/100/100
VEL. DE MUESTREO, C7-C12 (muestras/s)  : 
ESC. COMPLETA DE SENSORES, C1-C6, (g)  : /0.5/0.5/0.5
ESC. COMPLETA DE SENSORES, C7-C12, (g) : 
FREC. NAT. DE SENSORES, C1-C6, (Hz)    : /30/30/30
FREC. NAT. DE SENSORES, C7-C12, (Hz)   : 
AMORTIGUAMIENTO DE SENSORES, C1-C6     : /0.733/0.750/0.700
AMORTIGUAMIENTO DE SENSORES, C7-C12    : 
INTERVALO DE MUESTREO, C1-C6, (s)      : /0.01/0.01/0.01
INTERVALO DE MUESTREO, C7-C12, (s)     : 
UMBRAL DE DISPARO, C1-C6, (Gal)        : /26.34/153.23/43.1
UMBRAL DE DISPARO, C7-C12, (Gal)       : 
MEMORIA DE PREEVENTO (s)               : 56.0
TIEMPO DE POSEVENTO (s)                : 80.0


================================================================================
DATOS DEL SISMO:
FECHA DEL SISMO (GMT)                  : 05/ABR/13
HORA EPICENTRO (GMT)                   : 01:58:48.0
MAGNITUD(ES)                           : /Mc=5.3
COORDENADAS DEL EPICENTRO              : 17.08 LAT. N
                                       : 100.82 LONG. W
PROFUNDIDAD FOCAL (km)                 : 17
FUENTE DE LOS DATOS EPICENTRALES       : SSN
                                       : INSTITUTO DE GEOFISICA, UNAM

================================================================================
DATOS DE ESTE REGISTRO:
HORA DE LA PRIMERA MUESTRA (GMT)       : 02:00:24.00
EXACTITUD DEL TIEMPO (s)               : 0.01
DURACION DEL REGISTRO (s), C1-C6       : /149.6/149.6/149.6
DURACION DEL REGISTRO (s), C7-C12      : 
NUM. TOTAL DE MUESTRAS, C1-C6          : /14960/14960/14960
NUM. TOTAL DE MUESTRAS, C7-C12         : 
ACEL. MAX. (Gal), C1-C6                : /2.45562/1.16672/1.82377
ACEL. MAX., C1-C6, EN LA MUESTRA       : /4468/6914/4562
ACEL. MAX. (Gal), C7-C12               : 
ACEL. MAX., C7-C12, EN LA MUESTRA      : 
UNIDADES DE LOS DATOS                  : Gal (cm/s/s)
FACTOR DE DECIMACION                   : 1
FORMATO DATOS (FORTRAN,10 campos/dato) : 3F10.5


================================================================================
CALIDAD DEL ACELEROGRAMA:
REGISTRO DIGITAL COMPLETO CON TIEMPO ABSOLUTO CORRECTO.


================================================================================
COMENTARIOS:














================================================================================
DATOS DE ACELERACION:
---------+---------+---------+---------+---------+---------+---------+---------+
   CANAL-1   CANAL-2   CANAL-3   CANAL-4   CANAL-5   CANAL-6   CANAL-7   CANAL-8
      N00E        +V      N90W
---------+---------+---------+---------+---------+---------+---------+---------+
[...]
   0.13311  -0.09023  -0.37590
   0.08822  -0.06031  -0.46569
   0.02837  -0.03038  -0.43576
   0.01340  -0.04534  -0.39087
   0.02837  -0.04534  -0.34597
   0.04333   0.07437  -0.30108
   0.01340  -0.01541  -0.25619
   0.02837   0.08933  -0.21130
  -0.03149   0.07437  -0.16641
  -0.03149   0.05940  -0.19634
  -0.03149   0.04444  -0.09159
  -0.07638   0.01451  -0.09159
  -0.16616  -0.01541  -0.03174
  -0.18113   0.02948   0.04308
  -0.25595   0.05940   0.07301
  -0.27091   0.11926   0.14783
  -0.36069   0.20904   0.23761
  -0.33076   0.17911   0.41718
  -0.33076   0.20904   0.49200
  -0.40558   0.22401   0.46207
  -0.45047   0.29882   0.46207
  -0.46544   0.28386   0.43214
  -0.42055   0.31379   0.49200
  -0.46544   0.29882   0.44710
  -0.37566   0.31379   0.43214
  -0.30084   0.37364   0.35732
  -0.28587   0.38861   0.31243
  -0.34573   0.46343   0.34236
  -0.28587   0.47839   0.31243
  -0.25595   0.47839   0.25258
  -0.22602   0.37364   0.28250
  -0.12127   0.29882   0.19272
  -0.18113   0.32875   0.13287
   0.02837   0.13422   0.26754
   0.04333   0.04444   0.04308
   0.14808   0.13422  -0.06166
   0.02837   0.20904  -0.09159
   0.05829   0.23897  -0.01677
   0.07326   0.35868  -0.09159
   0.02837   0.50832  -0.01677
   0.10318   0.35868   0.07301
   0.04333   0.32875   0.11790
   0.13311   0.37364   0.08797
   0.08822   0.34372   0.08797
   0.05829   0.26890   0.05805
   0.02837   0.29882  -0.00181
   0.07326   0.26890  -0.16641
   0.02837   0.22401   0.01316
   0.07326   0.20904  -0.09159
   0.05829   0.20904  -0.03174
   0.02837   0.10430  -0.10655
   0.01340   0.13422  -0.07663
   0.02837   0.13422  -0.16641
  -0.01653   0.13422  -0.12152
  -0.01653   0.05940  -0.12152
  -0.09134   0.10430  -0.10655
  -0.09134   0.08933  -0.07663
  -0.12127   0.07437  -0.07663
  -0.22602  -4.5E-40  -0.06166
  -0.09134  -0.04534  -0.06166
  -0.16616   0.04444  -0.09159
  -0.09134  -0.01541  -0.13648
  -0.10631   0.07437  -0.15145
  -0.10631  -0.01541  -0.06166
  -0.18113  -0.01541  -0.16641
  -0.16616  -0.04534  -0.18137
  -0.15120  -0.07527  -0.15145
  -0.24098  -0.16505  -0.09159
  -0.22602  -0.20994  -0.12152
  -0.24098  -0.25484  -0.10655
  -0.15120  -0.22491  -0.25619
  -0.13624  -0.23987  -0.27116
  -0.16616  -0.22491  -0.22626
  -0.19609  -0.22491  -0.30108
  -0.16616  -0.23987  -0.16641
  -0.28587  -0.23987  -0.13648
  -0.31580  -0.26980  -0.04670
  -0.31580  -0.40447  -0.00181
  -0.28587  -0.35958  -0.06166
  -0.39062  -0.40447   0.13287
  -0.42055  -0.67382   0.35732
  -0.42055  -0.58404   0.05805
  -0.42055  -0.44936  -0.01677
  -0.43551  -0.52418   0.02812
  -0.54026  -0.38951  -0.03174
  -0.57018  -0.29973   0.07301
  -0.55522  -0.23987   0.17776
  -0.63004  -0.26980   0.26754
  -0.65997  -0.26980   0.37229
  -0.61508  -0.32965   0.28250
  -0.68989  -0.31469   0.32739
  -0.63004  -0.26980   0.32739
  -0.51033  -0.29973   0.29747
  -0.51033  -0.18002   0.19272
  -0.46544  -0.09023   0.25258
  -0.49537  -0.19498   0.14783
  -0.58515  -0.13512   0.07301
  -0.55522  -0.10520  -0.03174
  -0.54026  -0.16505   0.05805
  -0.46544  -0.18002  -0.03174
  -0.55522  -0.19498  -0.04670
  -0.55522  -0.20994  -0.00181
  -0.49537  -0.23987   0.01316
  -0.43551  -0.23987  -0.06166
  -0.39062  -0.09023  -0.06166
  -0.37566  -0.09023  -0.07663
  -0.37566  -0.01541  -0.16641
  -0.30084   0.10430  -0.07663
  -0.34573   0.22401  -0.09159
  -0.36069   0.28386  -0.06166
  -0.37566   0.32875   0.04308
  -0.33076   0.34372  -0.01677
  -0.27091   0.37364  -0.01677
  -0.21105   0.40357  -0.15145
  -0.12127   0.28386  -0.10655
  -0.18113   0.32875  -0.21130
  -0.15120   0.25393  -0.25619
  -0.06142   0.20904  -0.34597
  -0.01653   0.14919  -0.27116
   0.01340   0.25393  -0.30108
   0.08822   0.23897  -0.28612
   0.07326   0.34372  -0.25619
   0.05829   0.29882  -0.27116
   0.07326   0.31379  -0.36094
   0.11815   0.34372  -0.28612
   0.14808   0.31379  -0.19634
   0.29771   0.04444  -0.12152
   0.26779   0.07437  -0.39087
   0.40246   0.28386  -0.54050
   0.44735   0.20904  -0.46569
   0.43239   0.35868  -0.43576
   0.46232   0.40357  -0.43576
   0.55210   0.38861  -0.31605
   0.62692   0.28386  -0.42079
   0.68677   0.23897  -0.49561
   0.79152   0.11926  -0.42079
   0.88130   0.07437  -0.52554
   0.86634   0.08933  -0.57043
   0.97108  -0.03038  -0.63029
   1.00101  -0.03038  -0.55547
   1.03094  -0.06031  -0.57043
   1.06087  -0.15009  -0.48065
   1.03094  -0.12016  -0.48065
   1.00101  -0.22491  -0.51058
   1.00101  -0.15009  -0.46569
   0.91123  -0.23987  -0.51058
   0.86634  -0.25484  -0.46569
   0.83641  -0.35958  -0.37590
   0.83641  -0.38951  -0.39087
   0.82145  -0.41944  -0.34597
   0.85137  -0.43440  -0.27116
   0.85137  -0.38951  -0.21130
   0.82145  -0.46433  -0.15145
   0.80648  -0.43440  -0.10655
   0.80648  -0.37455  -0.09159
   0.73166  -0.32965  -0.06166
   0.67181  -0.29973  -0.06166
   0.68677  -0.25484  -0.03174
   0.58203  -0.23987   0.02812
   0.53713  -0.23987   0.07301
   0.41742  -0.28476   0.13287
   0.35757  -0.34462   0.17776
   0.25282  -0.37455   0.19272
   0.20793  -0.46433   0.17776
   0.16304  -0.52418   0.25258
   0.07326  -0.61397   0.29747
  -0.01653  -0.55411   0.22265
  -0.09134  -0.67382   0.20768
  -0.15120  -0.55411   0.26754
  -0.22602  -0.50922   0.25258
  -0.39062  -0.40447   0.26754
  -0.36069  -0.28476   0.34236
  -0.46544  -0.18002   0.49200
  -0.55522  -0.20994   0.58178
  -0.64500   0.01451   0.19272
  -0.65997   0.31379   0.19272
  -0.73479   0.32875   0.32739
  -0.88442   0.43350   0.34236
  -0.89939   0.46343   0.35732
  -1.03406   0.41853   0.37229
  -0.98917   0.40357   0.55185
  -1.00413   0.28386   0.55185
  -1.06399   0.32875   0.61171
  -1.12384   0.28386   0.55185
  -1.09392   0.23897   0.65660
  -1.03406   0.13422   0.71645
  -1.07895   0.19408   0.59674
  -1.10888   0.23897   0.59674
  -0.95924   0.25393   0.65660
  -0.97421   0.28386   0.52192
  -0.95924   0.43350   0.49200
  -0.86946   0.44846   0.50696
  -0.92931   0.50832   0.38725
  -0.88442   0.58314   0.34236
  -0.82457   0.49335   0.37229
  -0.80960   0.55321   0.29747
  -0.74975   0.43350   0.25258
  -0.64500   0.41853   0.20768
  -0.60011   0.35868   0.20768
  -0.54026   0.29882   0.14783
  -0.46544   0.26890   0.05805
  -0.31580   0.14919   0.07301
  -0.27091   0.20904  -0.01677
  -0.22602   0.19408  -0.10655
  -0.12127   0.23897  -0.24123
  -0.07638   0.34372  -0.27116
  -0.07638   0.25393  -0.33101
  -0.09134   0.32875  -0.31605
  -0.03149   0.28386  -0.33101
   0.04333   0.25393  -0.37590
   0.13311   0.16415  -0.31605
   0.25282   0.19408  -0.28612
   0.34261   0.13422  -0.31605
   0.37253   0.11926  -0.36094
   0.46232   0.01451  -0.27116
   0.44735  -4.5E-40  -0.33101
   0.52217  -0.12016  -0.42079
   0.50721  -0.04534  -0.24123
   0.61195  -0.12016  -0.19634
   0.49224  -0.31469  -0.19634
   0.53713  -0.19498  -0.51058
   0.53713  -0.07527  -0.42079
   0.50721  -0.10520  -0.37590
   0.43239  -0.01541  -0.37590
   0.40246   0.01451  -0.22626
   0.34261  -0.07527  -0.10655
   0.35757  -0.12016  -0.16641
   0.29771  -0.12016  -0.03174
   0.34261  -0.19498   0.01316
   0.19297  -0.23987  -0.10655
   0.32764  -0.34462  -0.12152
   0.17800  -0.35958  -0.06166
   0.19297  -0.29973  -0.16641
   0.13311  -0.26980  -0.15145
   0.01340  -0.38951  -0.16641
  -0.03149  -0.23987  -0.19634
  -0.10631  -0.34462  -0.18137
  -0.24098  -0.32965  -0.25619
  -0.21105  -0.37455  -0.18137
  -0.22602  -0.29973  -0.13648
  -0.31580  -0.26980  -0.18137
  -0.28587  -0.40447  -0.21130
  -0.33076  -0.34462  -0.15145
  -0.36069  -0.40447  -0.13648
  -0.34573  -0.37455  -0.07663
  -0.39062  -0.34462  -0.15145
  -0.30084  -0.35958  -0.03174
  -0.33076  -0.35958   0.05805
  -0.31580  -0.28476  -0.06166
  -0.28587  -0.20994   0.02812
  -0.16616  -0.18002   0.04308
  -0.19609  -0.12016   0.11790
  -0.13624  -0.16505   0.14783
  -0.03149  -0.01541   0.17776
  -0.09134  -0.07527   0.16279
  -0.07638  -4.5E-40   0.23761
  -0.00156  -0.09023   0.31243
  -0.01653  -0.12016   0.28250
   0.01340  -0.09023   0.34236
   0.11815  -0.15009   0.31243
   0.22290  -0.13512   0.37229
   0.31268  -0.19498   0.31243
   0.35757  -0.09023   0.34236
   0.38750  -0.03038   0.25258
   0.43239   0.07437   0.22265
   0.56706   0.11926   0.38725
   0.55210  -0.06031   0.52192
   0.52217   0.05940   0.22265
   0.67181   0.20904   0.04308
   0.62692   0.20904   0.26754
   0.61195   0.28386   0.20768
   0.67181   0.34372   0.19272
   0.62692   0.32875   0.35732
   0.65684   0.17911   0.34236
   0.73166   0.22401   0.16279
   0.71670   0.26890   0.23761
   0.71670   0.20904   0.23761
   0.85137   0.14919   0.14783
   0.83641   0.23897   0.22265
   0.91123   0.26890   0.19272
   0.92619   0.22401   0.22265
   0.98605   0.28386   0.20768
   0.95612   0.29882   0.26754
   0.98605   0.23897   0.25258
   1.01597   0.32875   0.11790
   0.94116   0.28386   0.10294
   0.89626   0.22401  -0.01677
   0.89626   0.31379  -0.03174
   0.77655   0.14919  -0.00181
   0.79152   0.08933  -0.06166
   0.74663   0.11926  -0.00181
   0.79152   0.05940  -0.12152
   0.74663   0.13422  -0.12152
   0.82145   0.11926  -0.09159
   0.88130   0.16415  -0.07663
   0.74663   0.16415  -0.16641
   0.83641   0.10430  -0.24123
   0.91123   0.13422  -0.30108
   0.89626   0.08933  -0.37590
   0.94116   0.17911  -0.49561
   0.95612   0.08933  -0.43576
   1.00101   0.10430  -0.54050
   0.89626   0.11926  -0.63029
   0.92619   0.08933  -0.70511
   0.97108   0.08933  -0.73503
   0.92619   0.07437  -0.79489
   0.89626   0.05940  -0.85474
   0.92619   0.04444  -0.89963
   1.00101   0.02948  -0.88467
   1.04590  -0.03038  -0.88467
   1.04590  -0.07527  -0.75000
   0.95612  -0.37455  -0.73503
   1.04590  -0.23987  -1.03431
   1.10576  -0.26980  -0.97445
   1.03094  -0.23987  -0.97445
   0.95612  -0.19498  -1.06424
   0.85137  -0.23987  -0.97445
   0.73166  -0.29973  -1.06424
   0.74663  -0.31469  -1.01934
   0.70174  -0.29973  -1.04927
   0.52217  -0.29973  -1.01934
   0.44735  -0.32965  -1.13905
   0.38750  -0.29973  -1.09416
   0.28275  -0.35958  -1.12409
   0.05829  -0.32965  -1.06424
  -0.12127  -0.37455  -1.03431
  -0.27091  -0.41944  -1.01934
  -0.39062  -0.35958  -0.97445
  -0.58515  -0.41944  -0.95949
  -0.76471  -0.41944  -0.85474
  -0.88442  -0.38951  -0.80985
  -0.98917  -0.28476  -0.77992
  -1.16873  -0.20994  -0.66021
  -1.27348  -0.22491  -0.58540
  -1.36326  -0.16505  -0.48065
  -1.57276  -0.20994  -0.37590
  -1.63261  -0.13512  -0.36094
  -1.67750  -0.03038  -0.19634
  -1.87203  -0.12016  -0.06166
  -1.87203  -0.09023   0.05805
  -1.99174   0.13422   0.07301
  -2.06656   0.10430   0.26754
  -2.12642   0.11926   0.41718
  -2.21620   0.32875   0.50696
  -2.35087   0.29882   0.61171
  -2.42569   0.32875   0.73142
  -2.44065   0.38861   0.85113
  -2.45562   0.43350   0.95587
  -2.45562   0.37364   1.10551
  -2.33591   0.44846   1.21026
  -2.30598   0.44846   1.25515
  -2.15634   0.53824   1.37486
  -1.96181   0.52328   1.53946
  -2.00671   0.44846   1.46464
  -2.00671   0.32875   1.52450
  -1.82714   0.37364   1.59931
  -1.70743   0.32875   1.55442
  -1.70743   0.26890   1.59931
  -1.64758   0.10430   1.76392
  -1.52786   0.04444   1.73399
  -1.28844   0.10430   1.31500
  -1.28844   0.20904   1.37486
  -0.97421   0.26890   1.47960
  -0.76471   0.28386   1.52450
  -0.64500   0.40357   1.43471
  -0.45047   0.43350   1.49457
  -0.22602   0.43350   1.44968
  -0.12127   0.49335   1.49457
   0.10318   0.55321   1.37486
   0.25282   0.56817   1.35989
   0.40246   0.56817   1.18033
   0.56706   0.59810   1.04565
   0.70174   0.55321   0.97084
   0.80648   0.41853   0.85113
   0.89626   0.35868   0.74638
   1.00101   0.22401   0.55185
   1.12072   0.20904   0.46207
   1.25539   0.08933   0.32739
   1.31525   0.16415   0.22265
   1.47985   0.08933   0.13287
   1.52474   0.11926   0.08797
   1.67438   0.17911  -0.01677
   1.70431   0.22401  -0.07663
   1.76416   0.26890  -0.24123
   1.82402   0.28386  -0.30108
   1.76416   0.34372  -0.34597
   1.85394   0.23897  -0.46569
   1.85394   0.22401  -0.55547
   1.83898   0.11926  -0.67518
   1.85394   0.07437  -0.75000
   1.83898   0.02948  -0.86971
   1.79409   0.05940  -0.97445
   1.67438   0.02948  -1.00438
   1.62949  -0.03038  -1.09416
   1.55467   0.01451  -1.18395
   1.42000  -0.07527  -1.25876
   1.27036  -0.09023  -1.28869
   1.18058  -0.10520  -1.40840
   1.03094  -0.12016  -1.48322
   0.91123  -0.13512  -1.42337
   0.77655  -0.15009  -1.55804
   0.77655  -0.22491  -1.49818
   0.55210  -0.26980  -1.55804
   0.47728  -0.37455  -1.55804
   0.38750  -0.35958  -1.66279
   0.22290  -0.40447  -1.61789
   0.04333  -0.56907  -1.51315
   0.05829  -0.65886  -1.55804
   0.19297  -0.61397  -1.69271
   0.08822  -0.53915  -1.54308
   0.11815  -0.53915  -1.66279
   0.10318  -0.46433  -1.42337
  -0.01653  -0.59900  -1.28869
  -0.12127  -0.61397  -1.19891
  -0.06142  -0.59900  -1.19891
  -0.25595  -0.67382  -0.97445
  -0.19609  -0.65886  -0.91460
  -0.27091  -0.62893  -0.82482
  -0.33076  -0.64389  -0.70511
  -0.52529  -0.64389  -0.55547
  -0.43551  -0.61397  -0.45072
  -0.46544  -0.64389  -0.22626
  -0.54026  -0.56907  -0.15145
  -0.48040  -0.56907  -0.06166
  -0.55522  -0.49426   0.07301
  -0.65997  -0.47929   0.17776
  -0.68989  -0.43440   0.23761
  -0.67493  -0.34462   0.35732
  -0.71982  -0.34462   0.44710
  -0.74975  -0.22491   0.55185
  -0.76471  -0.26980   0.62667
  -0.77968  -0.28476   0.68652
  -0.80960  -0.22491   0.86609
  -0.82457  -0.26980   0.98580
  -0.83953  -0.18002   1.10551
  -0.79464  -0.13512   1.15040
  -0.77968  -0.07527   1.34493
  -0.73479  -0.04534   1.46464
  -0.68989   0.08933   1.56939
  -0.58515   0.14919   1.65917
  -0.60011   0.28386   1.80881
  -0.39062   0.35868   1.82377
  -0.36069   0.41853   1.82377
  -0.24098   0.49335   1.80881
  -0.18113   0.47839   1.80881
  -0.15120   0.55321   1.73399
  -0.06142   0.47839   1.74895
   0.04333   0.61306   1.50953
   0.14808   0.50832   1.50953
   0.14808   0.49335   1.37486
   0.22290   0.52328   1.21026
   0.31268   0.55321   1.09055
   0.34261   0.52328   0.91098
   0.41742   0.47839   0.71645
   0.37253   0.41853   0.65660
   0.44735   0.43350   0.56681
   0.55210   0.44846   0.29747
   0.59699   0.49335   0.22265
   0.65684   0.50832   0.11790
   0.86634   0.62803  -0.16641
   0.71670   0.64299  -0.22626
   0.74663   0.68788  -0.31605
   0.73166   0.59810  -0.48065
   0.62692   0.58314  -0.54050
   0.53713   0.62803  -0.69014
   0.46232   0.50832  -0.76496
   0.43239   0.38861  -0.83978
   0.34261   0.32875  -0.89963
   0.25282   0.20904  -1.06424
   0.20793   0.02948  -1.09416
   0.13311  -0.01541  -1.09416
  -0.01653  -0.07527  -1.10913
  -0.09134  -0.23987  -1.12409
  -0.25595  -0.31469  -1.03431
  -0.39062  -0.35958  -1.01934
  -0.51033  -0.32965  -1.00438
  -0.61508  -0.32965  -0.98942
  -0.74975  -0.32965  -0.88467
  -0.79464  -0.29973  -0.83978
  -0.88442  -0.38951  -0.79489
  -0.91435  -0.37455  -0.80985
  -1.00413  -0.41944  -0.70511
  -1.10888  -0.37455  -0.67518
  -1.16873  -0.46433  -0.57043
  -1.24355  -0.40447  -0.51058
  -1.39319  -0.44936  -0.48065
  -1.34830  -0.53915  -0.33101
  -1.42312  -0.49426  -0.22626
  -1.49794  -0.49426  -0.16641
  -1.54283  -0.52418  -0.06166
  -1.57276  -0.46433   0.08797
  -1.60268  -0.47929   0.17776
  -1.67750  -0.40447   0.23761
  -1.61765  -0.38951   0.37229
  -1.69247  -0.35958   0.40221
  -1.67750  -0.25484   0.47703
