********************************************************************************
               CENTRO DE INSTRUMENTACION Y REGISTRO SISMICO  A.C.  
                       Coordinacion de Servicios Tecnicos
     Anaxagoras 814, Col. Narvarte, Benito Juarez, C.P. 03020 Mexico, D.F.
            Tels. 687 45 42/ 687 45  82             Fax. 669 25 12
********************************************************************************
ARCHIVO ESTANDAR DE ACELERACION:
VERSION DEL FORMATO                    : 2.0
NOMBRE DEL ARCHIVO                     : AE020301.221
FECHA Y HORA DE CREACION               : 19/JUL/04, 9:00
REF. CATALOGO ACELEROGRAMAS, SMIS 1996 : REGISTRO No.     /PAG.


================================================================================
DATOS DE LA ESTACION:
NOMBRE DE LA ESTACION                  : AEROPUERTO
CLAVE DE LA ESTACION                   : AE02
LOCALIZACION DE LA ESTACION            : Esc Prim Gonzalez Garzon Calle Xico
                                       : s/n, Col. IV Seccion del Arenal
                                       : Venustiano Carranza
                                       :
                                       :
COORDENADAS DE LA ESTACION             : 19.429 LAT. N 
                                       : 99.058 LONG. W 
ALTITUD (msnm)                         : 2232
TIPO DE SUELO                          : ARCILLOSO, ZONA LAGO
                                       : 
                                       : 
INSTITUCION RESPONSABLE                : CIRES
                                       :

================================================================================
DATOS DEL ACELEROGRAFO:
MODELO DEL ACELEROGRAFO                : RAD-851
NUMERO DE SERIE DEL ACELEROGRAFO       : 242
NUMERO DE CANALES                      : 3
ORIENTACION C1-C6 (rumbo;orientacion)  : /N00E/+V/N90W
ORIENTACION C7-C12 (rumbo;orientacion) :
VEL. DE MUESTREO, C1-C6 (muestras/s)   : /100/100/100
VEL. DE MUESTREO, C7-C12 (muestras/s)  :
ESC. COMPLETA DE SENSORES, C1-C6, (g)  : /0.5/0.5/0.5
ESC. COMPLETA DE SENSORES, C7-C12, (g) :
FREC. NAT. DE SENSORES, C1-C6, (Hz)    : /30/30/30
FREC. NAT. DE SENSORES, C7-C12, (Hz)   :
AMORTIGUAMIENTO DE SENSORES, C1-C6     : /0.733/0.750/0.700
AMORTIGUAMIENTO DE SENSORES, C7-C12    :
INTERVALO DE MUESTREO, C1-C6, (s)      : /0.01/0.01/0.01
INTERVALO DE MUESTREO, C7-C12, (s)     :
UMBRAL DE DISPARO, C1-C6, (Gal)        : /1.99/3.91/1.99
UMBRAL DE DISPARO, C7-C12, (Gal)       :
MEMORIA DE PREEVENTO (s)               : 24
TIEMPO DE POSEVENTO (s)                : 64


================================================================================
DATOS DEL SISMO:
FECHA DEL SISMO (GMT)                  : 22/ENE/03
HORA EPICENTRO (GMT)                   : 02:06:34:5
MAGNITUD(ES)                           : /Mb=6.5/Ms=7.6/Mc=0.0/Ma=7.2/Me=7.6
COORDENADAS DEL EPICENTRO              : 18.60 LAT. N
                                       : 104.22 LONG. W
PROFUNDIDAD FOCAL (km)                 : 9.0
FUENTE DE LOS DATOS EPICENTRALES       : SSN
                                       : INSTITUTO DE GEOFISICA, UNAM

================================================================================
DATOS DE ESTE REGISTRO:
HORA DE LA PRIMERA MUESTRA (GMT)       : 02:09:01.00
EXACTITUD DEL TIEMPO (s)               : 0.01
DURACION DEL REGISTRO (s), C1-C6       : /403.25/403.25/403.25
DURACION DEL REGISTRO (s), C7-C12      :
NUM. TOTAL DE MUESTRAS, C1-C6          : /40325/40325/40325
NUM. TOTAL DE MUESTRAS, C7-C12         :
ACEL. MAX. (Gal), C1-C6                : /-28.23119/7.12137/17.57810
ACEL. MAX., C1-C6, EN LA MUESTRA       :
ACEL. MAX. (Gal), C7-C12               :
ACEL. MAX., C7-C12, EN LA MUESTRA      :
UNIDADES DE LOS DATOS                  : Gal (cm/s/s)
FACTOR DE DECIMACION                   : 1
FORMATO DATOS (FORTRAN,10 campos/dato) : 3F10.5


================================================================================
CALIDAD DEL ACELEROGRAMA:
REGISTRO DIGITAL COMPLETO CON TIEMPO ABSOLUTO CORRECTO.


================================================================================
COMENTARIOS:














================================================================================
DATOS DE ACELERACION:
---------+---------+---------+---------+---------+---------+---------+---------+
   CANAL-1   CANAL-2   CANAL-3   CANAL-4   CANAL-5   CANAL-6   CANAL-7   CANAL-8
      N00E        +V      N90W
---------+---------+---------+---------+---------+---------+---------+---------+
[...]
   2.17502   0.41764  -1.33600
   2.41444   0.65706  -1.33600
   2.41444   0.65706  -1.33600
   2.65385   0.65706  -1.33600
   2.89327   0.65706  -1.33600
   2.89327   0.65706  -1.57542
   3.37211   0.65706  -1.57542
   3.13269   0.65706  -2.05425
   3.61153   0.89647  -1.81483
   3.85095   0.65706  -1.81483
   4.09037   0.89647  -2.05425
   4.32979   0.89647  -1.81483
   4.56921   0.89647  -2.29367
   5.04804   0.89647  -2.29367
   5.28746   0.89647  -2.53309
   5.52688   0.89647  -2.53309
   5.76630   0.89647  -2.53309
   6.00572   1.13589  -2.77251
   6.48456   1.13589  -3.01193
   6.72398   1.13589  -3.25135
   6.96340   0.89647  -3.25135
   7.20281   1.13589  -3.49077
   7.44223   1.13589  -3.73019
   7.68165   1.13589  -3.73019
   8.16049   1.13589  -3.96960
   8.39991   1.13589  -3.96960
   8.63933   1.13589  -4.20902
   8.87875   1.13589  -4.44844
   9.35758   1.37531  -4.44844
   9.59700   1.13589  -4.44844
   9.59700   1.37531  -4.68786
  10.07584   1.37531  -4.68786
  10.31526   1.37531  -4.92728
  10.31526   1.61473  -5.16670
  10.79410   1.61473  -5.40612
  11.03352   1.85415  -5.64554
  11.27294   1.61473  -5.64554
  11.75177   1.85415  -5.64554
  11.99119   1.85415  -5.64554
  12.23061   1.85415  -5.64554
  12.47003   1.85415  -5.64554
  12.94887   1.85415  -5.64554
  13.42771   2.09357  -5.88496
  13.66713   2.09357  -5.64554
  14.14596   2.09357  -5.64554
  14.38538   2.09357  -5.64554
  14.62480   2.09357  -5.64554
  15.10364   2.09357  -5.64554
  15.34306   2.09357  -5.64554
  15.58248   2.09357  -5.64554
  15.82190   1.85415  -5.64554
  16.06132   1.85415  -5.40612
  16.06132   1.85415  -5.40612
  16.54015   1.85415  -5.40612
  16.54015   1.85415  -5.40612
  17.01899   1.85415  -5.16670
  17.25841   1.61473  -5.40612
  17.49783   1.61473  -5.40612
  17.25841   1.61473  -5.16670
  17.49783   1.61473  -4.92728
  17.73725   1.61473  -4.92728
  17.73725   1.61473  -4.68786
  17.97667   1.61473  -4.68786
  18.21609   1.37531  -4.44844
  18.21609   1.37531  -4.44844
  18.45550   1.13589  -3.96960
  18.45550   1.13589  -3.96960
  18.45550   1.13589  -3.73019
  18.45550   0.89647  -3.49077
  18.45550   0.89647  -3.25135
  18.21609   0.89647  -3.01193
  18.21609   0.65706  -3.01193
  18.21609   0.65706  -2.77251
  18.21609   0.65706  -2.77251
  17.97667   0.41764  -2.53309
  17.73725   0.41764  -2.29367
  17.49783   0.65706  -2.05425
  17.25841   0.41764  -2.05425
  17.01899   0.65706  -2.05425
  17.25841   0.41764  -1.57542
  16.77957   0.41764  -1.57542
  16.54015   0.41764  -1.33600
  16.30073   0.17822  -1.09658
  16.30073   0.17822  -1.09658
  16.06132  -0.06120  -0.85716
  15.58248  -0.06120  -0.85716
  15.58248  -0.30062  -0.61774
  15.10364  -0.06120  -0.61774
  14.86422  -0.30062  -0.37832
  14.62480  -0.54004  -0.37832
  14.62480  -0.30062  -0.37832
  14.14596  -0.30062  -0.13890
  14.14596  -0.54004  -0.13890
  13.90654  -0.54004   0.10052
  13.66713  -0.54004   0.10052
  13.42771  -0.54004   0.10052
  13.18829  -0.54004   0.10052
  13.18829  -0.30062   0.33994
  13.18829  -0.54004   0.33994
  12.94887  -0.54004   0.57936
  12.94887  -0.54004   0.57936
  13.18829  -0.77946   0.81877
  12.94887  -0.77946   0.57936
  13.18829  -0.77946   1.05819
  13.18829  -0.77946   0.81877
  13.18829  -0.77946   0.81877
  13.18829  -0.77946   0.81877
  13.42771  -1.01888   0.81877
  13.66713  -1.01888   1.05819
  13.66713  -1.01888   0.81877
  13.90654  -1.01888   0.81877
  14.14596  -0.77946   1.05819
  14.38538  -1.01888   0.81877
  14.62480  -1.01888   0.81877
  14.86422  -1.25830   0.81877
  15.34306  -1.01888   0.81877
  15.58248  -1.25830   0.57936
  15.82190  -1.25830   0.57936
  16.30073  -1.49771   0.57936
  16.54015  -1.25830   0.33994
  16.77957  -1.49771   0.33994
  17.01899  -1.73713   0.33994
  17.25841  -1.73713   0.10052
  17.73725  -1.73713   0.10052
  17.97667  -1.73713  -0.13890
  18.21609  -1.73713  -0.13890
  18.45550  -1.97655  -0.37832
  18.69492  -1.97655  -0.37832
  18.93434  -2.21597  -0.61774
  19.17376  -2.21597  -0.61774
  19.41318  -2.21597  -0.85716
  19.65260  -2.45539  -0.85716
  19.89202  -2.45539  -1.09658
  19.89202  -2.45539  -1.09658
  20.37086  -2.45539  -1.33600
  20.37086  -2.69481  -1.09658
  20.61028  -2.45539  -1.33600
  20.84969  -2.69481  -1.57542
  20.84969  -2.69481  -1.57542
  21.08911  -2.69481  -1.57542
  21.08911  -2.69481  -1.81483
  21.32853  -2.45539  -1.81483
  21.32853  -2.69481  -1.81483
  21.32853  -2.69481  -2.05425
  21.32853  -2.69481  -2.05425
  21.32853  -2.93423  -2.29367
  21.32853  -2.93423  -2.29367
  21.32853  -2.93423  -2.29367
  21.08911  -2.69481  -2.77251
  21.08911  -2.93423  -2.77251
  21.08911  -2.93423  -3.01193
  20.84969  -2.93423  -2.77251
  20.61028  -2.69481  -3.01193
  20.61028  -2.69481  -3.01193
  20.37086  -2.69481  -3.25135
  20.13144  -2.45539  -3.25135
  19.89202  -2.45539  -3.25135
  19.65260  -2.21597  -3.25135
  19.17376  -2.21597  -3.25135
  18.93434  -1.97655  -3.49077
  18.93434  -1.97655  -3.25135
  18.45550  -1.73713  -3.25135
  17.97667  -1.25830  -3.25135
  17.73725  -1.49771  -3.25135
  17.25841  -1.25830  -3.01193
  17.01899  -1.25830  -3.01193
  16.77957  -1.01888  -3.01193
  16.54015  -0.77946  -2.77251
  16.30073  -0.77946  -3.01193
  15.82190  -0.54004  -2.53309
  15.58248  -0.54004  -2.53309
  15.10364  -0.30062  -2.29367
  14.86422  -0.06120  -2.29367
  14.38538   0.17822  -2.05425
  14.38538   0.41764  -1.81483
  13.90654   0.41764  -1.57542
  13.66713   0.65706  -1.57542
  13.42771   0.89647  -1.33600
  13.18829   1.13589  -1.33600
  12.94887   1.13589  -1.09658
  12.47003   1.13589  -1.09658
  12.23061   1.37531  -0.85716
  11.99119   1.61473  -0.85716
  11.75177   1.61473  -0.85716
  11.99119   1.61473  -1.33600
  27.55342   1.85415  -1.33600
  24.20156  -2.69481  -1.33600
 -10.27477   1.13589  -0.85716
   0.25966   7.12137  -0.85716
  13.66713   1.61473  -0.85716
  12.23061   1.37531  -0.37832
   6.72398   2.09357   1.05819
   9.83642   1.85415   1.77645
  10.55468   2.33299  -0.13890
   9.11817   2.57241   1.29761
   7.92107   2.33299   2.01587
   9.11817   1.85415   1.05819
  10.07584   2.33299   0.33994
   8.39991   2.33299   1.53703
   7.20281   2.33299   1.05819
   8.39991   2.09357   1.29761
   8.87875   2.09357   2.01587
   7.44223   2.09357   1.53703
   7.68165   1.85415   1.53703
   7.92107   1.85415   1.53703
   6.96340   1.61473   1.77645
   6.96340   1.37531   1.77645
   7.44223   1.61473   2.01587
   6.72398   1.37531   1.77645
   6.72398   0.89647   1.77645
   6.72398   1.13589   2.01587
   6.48456   0.65706   2.01587
   6.24514   0.89647   2.01587
   6.24514   0.41764   2.25529
   5.52688   0.17822   2.49471
   5.52688   0.17822   2.25529
   6.48456   0.17822   2.25529
   6.24514  -0.06120   2.25529
   5.04804  -0.30062   2.01587
   4.80862  -0.06120   2.73413
   5.76630  -0.54004   3.45238
   5.52688  -0.77946   2.97354
   4.56921  -0.54004   2.25529
   4.80862  -0.77946   2.49471
   4.80862  -0.77946   2.25529
   4.56921  -0.77946   2.49471
   4.09037  -1.01888   2.49471
   4.09037  -1.01888   2.49471
   4.09037  -1.01888   2.25529
   4.09037  -1.25830   2.25529
   3.61153  -1.73713   2.25529
   3.13269  -1.49771   2.01587
   3.61153  -1.49771   2.01587
   3.13269  -1.73713   2.25529
   2.89327  -1.49771   2.01587
   2.89327  -1.73713   2.01587
   2.65385  -1.73713   2.01587
   2.65385  -1.73713   2.25529
   2.41444  -1.73713   2.25529
   2.17502  -1.97655   2.01587
   2.17502  -1.73713   2.25529
   2.17502  -1.73713   2.25529
   1.93560  -1.73713   2.25529
   1.69618  -1.73713   2.25529
   1.69618  -1.73713   2.25529
   1.21734  -1.73713   2.25529
   0.97792  -1.49771   2.25529
   0.97792  -1.49771   2.49471
   0.73850  -1.49771   2.49471
   0.49908  -1.49771   2.49471
   0.25966  -1.49771   2.49471
   0.25966  -1.25830   2.73413
  -0.21917  -1.49771   2.73413
  -0.45859  -1.25830   2.73413
  -0.45859  -1.25830   2.97354
  -0.69801  -1.01888   2.73413
  -0.93743  -1.01888   2.97354
  -1.17685  -1.01888   2.97354
  -1.41627  -0.77946   2.97354
  -1.41627  -0.77946   3.21296
  -1.65569  -0.54004   3.21296
  -1.89511  -0.54004   3.21296
  -2.13452  -0.54004   3.21296
  -2.37394  -0.30062   3.45238
  -2.61336  -0.30062   3.45238
  -2.85278  -0.06120   3.45238
  -3.09220  -0.06120   3.45238
  -3.33162  -0.06120   3.45238
  -3.57104   0.17822   3.69180
  -3.81046  -0.06120   3.45238
  -4.04988   0.17822   3.45238
  -4.28930   0.17822   3.69180
  -4.76813   0.41764   3.45238
  -5.00755   0.41764   3.45238
  -5.48639   0.65706   3.69180
  -5.72581   0.89647   3.69180
  -6.20465   0.89647   3.45238
  -6.44407   0.89647   3.69180
  -6.68348   0.89647   3.69180
  -7.16232   1.13589   3.69180
  -7.64116   1.13589   3.69180
  -7.88058   1.37531   3.93122
  -8.35942   1.37531   3.93122
  -8.83826   1.37531   3.93122
  -9.07767   1.37531   3.93122
  -9.55651   1.37531   3.93122
  -9.79593   1.37531   3.93122
 -10.51419   1.61473   3.93122
 -10.75361   1.61473   3.93122
 -10.99303   1.61473   3.93122
 -11.47186   1.85415   4.17064
 -11.95070   1.85415   4.17064
 -12.19012   1.85415   3.93122
 -12.66896   1.61473   3.93122
 -12.90838   1.85415   3.93122
 -13.38721   1.85415   3.93122
 -13.62663   1.85415   3.93122
 -14.10547   1.85415   3.93122
 -14.34489   1.85415   3.69180
 -14.58431   1.85415   3.45238
 -15.06315   1.85415   3.69180
 -15.30257   1.61473   3.69180
 -15.78140   1.61473   3.45238
 -16.02082   1.61473   3.45238
 -16.49966   1.61473   3.45238
 -16.97850   1.61473   3.69180
 -17.45734   1.61473   3.69180
 -17.93617   1.85415   3.69180
 -18.17559   1.61473   3.45238
 -18.65443   1.61473   3.45238
 -18.89385   1.61473   3.21296
 -19.37269   1.85415   3.21296
 -19.85153   1.61473   3.45238
 -20.09095   1.85415   3.45238
 -20.56978   1.85415   3.21296
 -21.04862   1.85415   3.21296
 -21.28804   1.61473   2.97354
 -21.76688   1.85415   3.21296
 -22.24572   1.85415   2.97354
 -22.48513   1.85415   2.97354
 -22.96397   2.09357   2.73413
 -23.20339   1.85415   2.73413
 -23.44281   1.85415   2.49471
 -23.68223   2.09357   2.49471
 -23.92165   2.09357   2.25529
 -24.40049   2.09357   2.01587
 -24.40049   2.09357   2.01587
 -24.87932   2.09357   1.77645
 -25.11874   2.09357   1.77645
 -25.35816   2.09357   1.53703
 -25.83700   2.09357   1.29761
 -25.83700   2.09357   0.81877
 -26.07642   1.85415   0.57936
 -26.07642   1.85415   0.10052
 -26.31584   1.85415  -0.13890
 -26.55526   1.85415  -0.37832
 -26.79468   1.85415  -0.61774
 -27.03409   1.85415  -0.85716
 -27.03409   1.61473  -1.09658
 -27.03409   1.61473  -1.33600
 -27.27351   1.85415  -1.81483
 -27.51293   1.61473  -2.05425
 -27.75235   1.61473  -2.53309
 -27.75235   1.61473  -2.77251
 -27.99177   1.61473  -3.01193
 -27.99177   1.37531  -3.49077
 -27.99177   1.61473  -3.73019
 -27.99177   1.61473  -4.20902
 -28.23119   1.37531  -4.44844
 -28.23119   1.61473  -4.68786
 -28.23119   1.37531  -4.92728
 -27.99177   1.61473  -5.16670
 -28.23119   1.37531  -5.40612
 -28.23119   1.37531  -5.64554
 -27.99177   1.37531  -5.88496
 -27.99177   1.13589  -5.88496
 -27.99177   1.37531  -6.12438
 -27.75235   1.13589  -6.12438
 -27.75235   1.13589  -6.60321
 -27.75235   0.89647  -6.60321
 -27.75235   0.89647  -6.60321
 -27.75235   0.89647  -7.08205
 -27.51293   0.65706  -7.32147
 -27.51293   0.89647  -7.56089
 -27.27351   0.89647  -7.56089
 -27.03409   0.65706  -7.56089
 -26.79468   0.65706  -7.80031
 -26.55526   0.41764  -7.80031
 -26.55526   0.41764  -8.03973
 -26.31584   0.41764  -8.03973
 -26.07642   0.17822  -8.03973
 -25.83700   0.17822  -8.27915
 -25.59758   0.17822  -8.27915
 -25.35816   0.17822  -8.27915
 -25.11874   0.17822  -8.27915
 -24.87932  -0.06120  -8.27915
 -24.63991   0.17822  -8.51856
 -24.40049  -0.06120  -8.51856
 -24.16107  -0.30062  -8.03973
 -23.92165  -0.30062  -8.03973
 -23.68223  -0.30062  -7.80031
 -23.20339  -0.30062  -8.03973
 -22.96397  -0.30062  -8.03973
 -22.72455  -0.30062  -7.80031
 -22.48513  -0.30062  -7.80031
 -22.24572  -0.30062  -7.80031
 -22.00630  -0.30062  -7.56089
 -21.52746  -0.30062  -8.03973
 -21.52746  -0.30062  -8.03973
 -21.52746  -0.77946  -7.32147
 -21.04862  -0.77946  -6.84263
 -20.80920  -0.54004  -6.60321
 -20.80920  -0.54004  -6.60321
 -20.56978  -0.77946  -7.08205
 -20.33036  -1.01888  -7.80031
 -20.09095  -0.54004  -8.51856
 -19.61211  -0.54004  -8.27915
 -19.37269  -0.54004  -8.03973
 -19.37269  -0.77946  -7.80031
 -18.89385  -0.77946  -7.56089
 -18.65443  -0.77946  -7.32147
 -18.41501  -0.77946  -7.08205
 -18.17559  -0.77946  -7.08205
 -17.93617  -0.77946  -6.84263
 -17.45734  -1.01888  -6.84263
 -17.45734  -1.01888  -6.84263
 -17.21792  -1.25830  -6.60321
 -16.97850  -1.01888  -6.60321
 -16.73908  -1.01888  -6.12438
 -16.73908  -1.01888  -5.88496
 -16.49966  -1.01888  -5.64554
 -16.02082  -1.01888  -5.40612
 -15.78140  -1.01888  -5.16670
 -15.54199  -1.01888  -4.68786
 -15.30257  -1.01888  -4.44844
 -14.82373  -1.01888  -4.20902
 -14.58431  -0.77946  -4.20902
 -14.34489  -1.01888  -3.96960
 -13.86605  -0.77946  -3.96960
 -13.62663  -0.77946  -3.49077
 -13.38721  -0.77946  -3.25135
 -12.90838  -0.77946  -2.77251
 -12.42954  -0.77946  -2.77251
 -11.95070  -0.77946  -2.53309
 -11.47186  -0.77946  -2.29367
 -10.99303  -0.54004  -2.05425
 -10.51419  -0.30062  -1.57542
 -10.27477  -0.30062  -1.33600
  -9.55651  -0.30062  -1.09658
  -9.31709  -0.30062  -0.85716
  -8.59884  -0.06120  -0.61774
  -8.12000  -0.06120  -0.13890
  -7.64116  -0.06120   0.10052
  -7.16232   0.17822   0.33994
  -6.68348   0.17822   0.81877
  -6.20465   0.17822   1.29761
  -5.72581   0.17822   1.29761
  -5.00755   0.17822   1.29761
  -4.76813   0.41764   1.53703
  -4.04988   0.65706   2.01587
  -3.57104   0.41764   2.25529
  -3.09220   0.65706   2.73413
  -2.61336   0.41764   2.97354
  -2.37394   0.41764   3.21296
  -1.89511   0.41764   3.69180
  -1.41627   0.41764   3.93122
  -0.93743   0.65706   3.93122
  -0.69801   0.65706   4.41006
  -0.21917   0.65706   4.64948
   0.25966   0.65706   5.12832
   0.49908   0.65706   5.12832
   0.73850   0.65706   5.60715
   1.21734   0.65706   5.84657
   1.45676   0.65706   6.08599
   1.93560   0.65706   6.32541
   2.17502   0.65706   6.56483
   2.41444   0.65706   6.80425
   2.89327   0.65706   6.80425
   3.13269   0.65706   6.80425
   3.37211   0.89647   7.04367
   3.61153   0.65706   7.28309
   4.09037   0.89647   7.28309
   4.09037   0.89647   7.52250
   4.32979   0.89647   7.76192
   4.56921   1.13589   8.00134
   4.80862   0.89647   8.00134
   5.04804   0.89647   8.24076
   5.52688   1.13589   8.24076
   5.76630   0.89647   8.24076
   6.00572   1.13589   8.48018
   6.24514   1.13589   8.48018
   6.24514   1.13589   8.71960
   6.48456   1.37531   8.71960
   6.72398   1.13589   8.95902
   6.72398   1.13589   8.95902
   7.20281   1.37531   8.95902
   7.44223   1.13589   8.95902
   7.68165   1.37531   8.95902
   7.44223   1.13589   9.19844
   7.68165   1.13589   9.19844
   7.92107   1.13589   9.19844
   8.39991   1.13589   9.19844
   8.39991   1.37531   9.19844
   8.16049   1.37531   9.43786
   8.39991   1.37531   9.43786
   8.63933   1.13589   9.43786
   9.11817   1.13589   9.43786
   9.11817   1.37531   9.19844
   9.35758   1.37531   8.95902
   9.59700   1.37531   8.95902
   9.59700   1.37531   8.95902
   9.59700   1.37531   8.95902
   9.59700   1.13589   9.19844
   9.83642   1.13589   8.95902
  10.07584   0.89647   8.95902
  10.31526   0.65706   8.71960
  10.55468   0.65706   8.48018
  10.79410   0.65706   8.24076
