********************************************************************************
              CENTRO DE INSTRUMENTACION Y REGISTRO SISMICO  A.C.

    Anaxagoras 814, Col. Narvarte, Benito Juarez, C.P. 03020 Mexico, D.F.
           Tels. 5687 45 42/ 5687 45  82             Fax. 5669 25 12
********************************************************************************
ARCHIVO ESTANDAR DE ACELERACION:
VERSION DEL FORMATO                    : 2.0
NOMBRE DEL ARCHIVO                     : AE0220170923125259
FECHA Y HORA DE CREACION               : 20/OCT/17, 12:49
REF. CATALOGO ACELEROGRAMAS, SMIS 1996 : REGISTRO No.     /PAG.


================================================================================
DATOS DE LA ESTACION:
NOMBRE DE LA ESTACION                  : ESC. PRIM. "GONZÁLEZ GARZÓN"
CLAVE DE LA ESTACION                   : AE02
LOCALIZACION DE LA ESTACION            : Del. Venustiano Carranza,              
                                       : Col. El Arenal 4a. Sección,            
                                       : Calle Xico esq. con calle Xocoyote.    
                                       :                                        
                                       : 
COORDENADAS DE LA ESTACION             : 19.4290 LAT. N
                                       : 99.0584 LONG. W
ALTITUD (msnm)                         : 2232
TIPO DE SUELO                          : Arcilloso, zona lago                
                                       :                           
                                       : 
INSTITUCION RESPONSABLE                : CIRES
                                       : 

================================================================================
DATOS DEL ACELEROGRAFO:
MODELO DEL ACELEROGRAFO                : RADESD
NUMERO DE SERIE DEL ACELEROGRAFO       : 242
NUMERO DE CANALES                      : 3
ORIENTACION C1-C6 (rumbo;orientacion)  : /N00E/+V/N90W
ORIENTACION C7-C12 (rumbo;orientacion) : 
VEL. DE MUESTREO, C1-C6 (muestras/s)   : /100/100/100
VEL. DE MUESTREO, C7-C12 (muestras/s)  : 
ESC. COMPLETA DE SENSORES, C1-C6, (g)  : /0.5/0.5/0.5
ESC. COMPLETA DE SENSORES, C7-C12, (g) : 
FREC. NAT. DE SENSORES, C1-C6, (Hz)    : /30/30/30
FREC. NAT. DE SENSORES, C7-C12, (Hz)   : 
AMORTIGUAMIENTO DE SENSORES, C1-C6     : /0.733/0.750/0.700
AMORTIGUAMIENTO DE SENSORES, C7-C12    : 
INTERVALO DE MUESTREO, C1-C6, (s)      : /0.01/0.01/0.01
INTERVALO DE MUESTREO, C7-C12, (s)     : 
UMBRAL DE DISPARO, C1-C6, (Gal)        : /1.5/6.73/1.5
UMBRAL DE DISPARO, C7-C12, (Gal)       : 
MEMORIA DE PREEVENTO (s)               : 44.0
TIEMPO DE POSEVENTO (s)                : 64.0


================================================================================
DATOS DEL SISMO:
FECHA DEL SISMO (GMT)                  : 23/SEP/17
HORA EPICENTRO (GMT)                   : 12:52:59.0
MAGNITUD(ES)                           : /Mc=6.1
COORDENADAS DEL EPICENTRO              : 16.48 LAT. N
                                       : 94.90 LONG. W
PROFUNDIDAD FOCAL (km)                 : 75
FUENTE DE LOS DATOS EPICENTRALES       : SSN
                                       : INSTITUTO DE GEOFISICA, UNAM

================================================================================
DATOS DE ESTE REGISTRO:
HORA DE LA PRIMERA MUESTRA (GMT)       : 12:55:38.00
EXACTITUD DEL TIEMPO (s)               : 0.01
DURACION DEL REGISTRO (s), C1-C6       : /207.6/207.6/207.6
DURACION DEL REGISTRO (s), C7-C12      : 
NUM. TOTAL DE MUESTRAS, C1-C6          : /20760/20760/20760
NUM. TOTAL DE MUESTRAS, C7-C12         : 
ACEL. MAX. (Gal), C1-C6                : /3.25249/1.04657/2.63638
ACEL. MAX., C1-C6, EN LA MUESTRA       : /6780/7748/7862
ACEL. MAX. (Gal), C7-C12               : 
ACEL. MAX., C7-C12, EN LA MUESTRA      : 
UNIDADES DE LOS DATOS                  : Gal (cm/s/s)
FACTOR DE DECIMACION                   : 1
FORMATO DATOS (FORTRAN,10 campos/dato) : 3F10.5


================================================================================
CALIDAD DEL ACELEROGRAMA:
REGISTRO DIGITAL COMPLETO CON TIEMPO ABSOLUTO CORRECTO.


================================================================================
COMENTARIOS:














================================================================================
DATOS DE ACELERACION:
---------+---------+---------+---------+---------+---------+---------+---------+
   CANAL-1   CANAL-2   CANAL-3   CANAL-4   CANAL-5   CANAL-6   CANAL-7   CANAL-8
      N00E        +V      N90W
---------+---------+---------+---------+---------+---------+---------+---------+
[...]
  -2.02972   0.27024  -0.82025
  -2.02972   0.24031  -0.85018
  -2.19432   0.31513  -0.73047
  -2.23921   0.30016  -0.64068
  -2.25418   0.31513  -0.65565
  -2.32899   0.12060  -0.52097
  -2.49360   0.16549  -0.43119
  -2.44870   0.19542  -0.41623
  -2.58338   0.06074  -0.31148
  -2.55345   0.10564  -0.31148
  -2.58338   0.03082  -0.19177
  -2.71805   0.18045  -0.20673
  -2.64323   0.24031  -0.16184
  -2.77791   0.06074  -0.07206
  -2.56841   0.24031  -0.10199
  -2.67316   0.01585   0.03269
  -2.79287   0.28520   0.01772
  -2.70309   0.30016  -0.02717
  -2.65820   0.16549   0.06261
  -2.70309   0.21038   0.16736
  -2.76294   0.30016   0.01772
  -2.70309   0.13556   0.03269
  -2.74798   0.16549   0.10750
  -2.71805   0.31513   0.04765
  -2.70309   0.24031  -0.01221
  -2.67316   0.37498   0.00276
  -2.61331   0.28520   0.04765
  -2.70309   0.27024  -0.04213
  -2.59834   0.28520  -0.02717
  -2.67316   0.38995  -0.16184
  -2.61331   0.21038  -0.05710
  -2.61331   0.38995  -0.13192
  -2.59834   0.25527  -0.16184
  -2.59834   0.37498  -0.28155
  -2.38885   0.40491  -0.38630
  -2.40381   0.41987  -0.55090
  -2.29907   0.28520  -0.46112
  -2.25418   0.36002  -0.58083
  -2.17936   0.40491  -0.55090
  -1.96986   0.41987  -0.73047
  -1.96986   0.22535  -0.59579
  -1.79030   0.38995  -0.77536
  -1.70052   0.37498  -0.73047
  -1.61073   0.37498  -0.88010
  -1.47606   0.41987  -0.74543
  -1.19175   0.43484  -0.96989
  -1.25160   0.21038  -0.82025
  -1.08700   0.30016  -0.89507
  -0.98226   0.33009  -0.77536
  -0.80269   0.22535  -0.89507
  -0.80269   0.33009  -0.99981
  -0.65305   0.19542  -0.88010
  -0.63809   0.27024  -0.92499
  -0.44356   0.12060  -0.82025
  -0.57823   0.16549  -0.98485
  -0.41363   0.04578  -0.96989
  -0.29392   0.19542  -1.01478
  -0.29392   8.9E-40  -0.92499
  -0.33881   0.07571  -1.11952
  -0.26400   0.07571  -1.01478
  -0.23407  -0.07393  -0.93996
  -0.17421   0.12060  -1.02974
  -0.15925  -0.01407  -0.91003
  -0.17421   0.10564  -0.98485
  -0.21910   0.04578  -0.96989
  -0.32385   8.9E-40  -0.89507
  -0.20414   0.12060  -0.93996
  -0.23407   0.13556  -0.98485
  -0.29392   0.01585  -0.92499
  -0.33881   0.15053  -1.05967
  -0.33881  -0.05897  -1.01478
  -0.35378   0.19542  -1.10456
  -0.51838   0.12060  -1.14945
  -0.53334   0.03082  -0.99981
  -0.60816   0.13556  -1.05967
  -0.56327   0.13556  -1.10456
  -0.69794   0.01585  -1.02974
  -0.65305   0.18045  -1.17938
  -0.65305   0.03082  -1.07463
  -0.69794   0.12060  -1.16441
  -0.78773   0.19542  -1.20931
  -0.81765   0.09067  -1.11952
  -0.69794   0.12060  -1.14945
  -0.77276   0.15053  -1.13449
  -0.71291   0.04578  -1.16441
  -0.66802   0.18045  -1.20931
  -0.65305   0.22535  -1.31405
  -0.68298   0.19542  -1.31405
  -0.87751   0.04578  -1.17938
  -0.86255   0.25527  -1.34398
  -0.78773   0.07571  -1.28412
  -0.89247   0.06074  -1.29909
  -0.92240   0.25527  -1.46369
  -0.84758   0.16549  -1.41880
  -0.92240   0.19542  -1.46369
  -0.99722   0.10564  -1.43376
  -0.92240   0.24031  -1.59836
  -0.98226   0.19542  -1.49362
  -0.98226   0.15053  -1.52355
  -1.10197   0.10564  -1.50858
  -1.08700   0.18045  -1.67318
  -1.20671   0.18045  -1.62829
  -1.16182   0.28520  -1.79289
  -1.16182   0.12060  -1.73304
  -1.22168   0.07571  -1.64326
  -1.25160   0.16549  -1.83778
  -1.37131   0.18045  -1.74800
  -1.26657   0.15053  -1.77793
  -1.50599   0.12060  -1.80786
  -1.35635   0.09067  -1.92757
  -1.37131  -0.04400  -1.89764
  -1.43117  -0.02904  -1.91260
  -1.50599   8.9E-40  -1.97246
  -1.40124  -0.19364  -1.92757
  -1.53591  -0.31335  -1.79289
  -1.49102  -0.13378  -1.98742
  -1.46110  -0.38817  -1.80786
  -1.46110  -0.34328  -1.83778
  -1.43117  -0.32831  -1.97246
  -1.41620  -0.44802  -1.79289
  -1.62570  -0.35824  -1.92757
  -1.47606  -0.31335  -1.85275
  -1.34139  -0.35824  -1.88268
  -1.37131  -0.49291  -1.77793
  -1.40124  -0.38817  -1.76297
  -1.28153  -0.55277  -1.61333
  -1.32642  -0.43306  -1.73304
  -1.20671  -0.47795  -1.59836
  -1.25160  -0.47795  -1.47865
  -1.34139  -0.65752  -1.34398
  -1.29649  -0.47795  -1.34398
  -1.46110  -0.52284  -1.14945
  -1.26657  -0.53781  -1.11952
  -1.34139  -0.52284  -1.02974
  -1.11693  -0.52284  -0.92499
  -1.25160  -0.52284  -1.01478
  -1.16182  -0.52284  -0.79032
  -1.02715  -0.59766  -0.70054
  -0.99722  -0.50788  -0.68557
  -1.08700  -0.65752  -0.55090
  -0.95233  -0.50788  -0.46112
  -0.89247  -0.43306  -0.38630
  -0.98226  -0.49291  -0.35637
  -0.75780  -0.43306  -0.26659
  -0.66802  -0.37320  -0.13192
  -0.60816  -0.38817   0.01772
  -0.56327  -0.41810  -0.07206
  -0.44356  -0.34328  -0.02717
  -0.39867  -0.49291   0.15240
  -0.24903  -0.53781   0.24218
  -0.33881  -0.49291   0.31700
  -0.27896  -0.56773   0.46664
  -0.14428  -0.34328   0.54145
  -0.17421  -0.49291   0.69109
  -0.00961  -0.28342   0.67613
  -0.20414  -0.49291   0.82577
  -0.03954  -0.43306   0.91555
  -0.05450  -0.26846   0.90058
  -0.14428  -0.37320   0.99037
   0.00535  -0.35824   1.06519
  -0.05450  -0.22357   1.09511
   0.08017  -0.28342   1.21482
   0.09514  -0.10386   1.22979
   0.27470  -0.25349   1.30461
   0.30463  -0.13378   1.30461
   0.36448  -0.20860   1.45424
   0.45427  -0.25349   1.42432
   0.40937  -0.11882   1.40935
   0.46923  -0.23853   1.54403
   0.52908  -0.19364   1.49913
   0.36448  -0.10386   1.51410
   0.39441  -0.05897   1.55899
   0.34952  -0.04400   1.54403
   0.34952   0.06074   1.46921
   0.28966   0.09067   1.48417
   0.25974   0.15053   1.48417
   0.49916   0.19542   1.42432
   0.43930   0.16549   1.33453
   0.58894   0.21038   1.37942
   0.60390   0.06074   1.37942
   0.55901   0.13556   1.36446
   0.46923   0.19542   1.30461
   0.45427   0.04578   1.24475
   0.42434   0.15053   1.19986
   0.46923   0.16549   1.18490
   0.42434   0.07571   1.14000
   0.43930   0.07571   1.02029
   0.33456   0.15053   0.99037
   0.34952   0.06074   0.96044
   0.49916   0.13556   0.81080
   0.54405   0.07571   0.87066
   0.36448   0.06074   0.82577
   0.42434   0.19542   0.81080
   0.36448   0.16549   0.78087
   0.37945   0.27024   0.75095
   0.61887   0.21038   0.69109
   0.45427   0.16549   0.72102
   0.43930   0.03082   0.61627
   0.48419   0.12060   0.66116
   0.40937   0.03082   0.70606
   0.43930   0.10564   0.57138
   0.34952   0.09067   0.58635
   0.28966   0.09067   0.57138
   0.31959  -0.01407   0.60131
   0.21485   0.19542   0.64620
   0.40937   0.07571   0.64620
   0.30463  -0.01407   0.60131
   0.28966   0.04578   0.61627
   0.31959   0.12060   0.55642
   0.28966  -0.02904   0.75095
   0.33456  -0.17868   0.70606
   0.27470  -0.04400   0.67613
   0.40937  -0.19364   0.69109
   0.36448  -0.22357   0.64620
   0.52908  -0.20860   0.61627
   0.52908  -0.38817   0.85569
   0.58894  -0.43306   0.75095
   0.45427  -0.46299   0.76591
   0.42434  -0.58270   0.81080
   0.39441  -0.50788   0.63124
   0.31959  -0.58270   0.82577
   0.24477  -0.44802   0.76591
   0.22981  -0.35824   0.69109
   0.19988  -0.46299   0.79584
   0.15499  -0.22357   0.73598
   0.12506  -0.41810   0.93051
   0.28966  -0.35824   0.78087
   0.21485  -0.26846   0.75095
   0.28966  -0.43306   0.82577
   0.28966  -0.29839   0.75095
   0.37945  -0.37320   0.91555
   0.31959  -0.31335   0.76591
   0.28966  -0.49291   0.90058
   0.39441  -0.38817   0.85569
   0.25974  -0.56773   0.93051
   0.19988  -0.46299   0.76591
   0.02032  -0.46299   0.76591
   0.18492  -0.41810   0.82577
   0.05024  -0.31335   0.76591
  -0.12932  -0.38817   0.81080
   0.02032  -0.19364   0.84073
  -0.15925  -0.08889   0.72102
  -0.08443  -0.14875   0.85569
  -0.12932   0.07571   0.66116
  -0.14428  -0.04400   0.79584
   0.08017   0.16549   0.79584
   0.21485   0.15053   0.76591
   0.16995   0.15053   0.79584
   0.39441   0.19542   0.60131
   0.31959  -0.02904   0.81080
   0.40937  -0.04400   0.72102
   0.31959   0.01585   0.63124
   0.34952   8.9E-40   0.58635
   0.43930  -0.11882   0.60131
   0.46923   0.12060   0.55642
   0.42434  -0.10386   0.61627
   0.48419   0.07571   0.36189
   0.40937  -0.07393   0.45167
   0.43930  -0.05897   0.34692
   0.28966  -0.11882   0.46664
   0.36448   0.10564   0.34692
   0.33456   0.07571   0.49656
   0.49916  -0.01407   0.52649
   0.40937   0.09067   0.52649
   0.58894  -0.01407   0.70606
   0.64879   0.04578   0.72102
   0.52908  -0.04400   0.72102
   0.61887  -0.04400   0.67613
   0.67872   0.13556   0.64620
   0.75354  -0.01407   0.61627
   0.79843   0.13556   0.52649
   0.85829   0.12060   0.61627
   0.87325   0.01585   0.60131
   1.00792  -0.02904   0.67613
   0.88821  -0.02904   0.69109
   0.97800  -0.04400   0.70606
   0.90318  -0.04400   0.54145
   0.93311   0.03082   0.52649
   0.85829  -0.08889   0.54145
   0.76850  -0.28342   0.51153
   0.84332  -0.13378   0.51153
   0.70865  -0.22357   0.48160
   0.87325  -0.14875   0.46664
   0.85829  -0.10386   0.37685
   0.90318  -0.01407   0.40678
   0.73858   0.07571   0.27211
   0.69369  -0.10386   0.25714
   0.82836   0.03082   0.22721
   0.79843   0.15053   0.12247
   0.91814   0.04578   0.06261
   0.84332   0.07571  -0.05710
   0.72361   0.12060  -0.05710
   0.70865   0.22535  -0.05710
   0.70865   0.21038  -0.07206
   0.73858   0.22535  -0.11695
   0.76850   0.13556  -0.08702
   0.78347   0.25527  -0.11695
   0.82836   0.09067  -0.10199
   0.90318   0.06074  -0.25163
   0.90318   0.01585  -0.25163
   0.72361   0.06074  -0.34141
   0.84332  -0.05897  -0.32644
   0.72361  -0.02904  -0.32644
   0.84332   0.06074  -0.35637
   0.90318  -0.11882  -0.28155
   0.91814   0.01585  -0.41623
   1.03785  -0.04400  -0.32644
   1.06778   0.01585  -0.40126
   1.00792  -0.05897  -0.38630
   0.91814   0.01585  -0.43119
   1.03785  -0.02904  -0.32644
   1.12763   0.12060  -0.41623
   1.32216  -0.10386  -0.29652
   1.32216  -0.07393  -0.35637
   1.50173  -0.11882  -0.34141
   1.44187  -0.11882  -0.35637
   1.56158  -0.05897  -0.41623
   1.60648  -0.23853  -0.28155
   1.50173  -0.16371  -0.31148
   1.75611  -0.05897  -0.34141
   1.63640  -0.02904  -0.35637
   1.90575  -0.07393  -0.28155
   1.87582  -0.04400  -0.29652
   2.17510   8.9E-40  -0.23666
   2.02546  -0.08889  -0.13192
   2.29481  -0.10386   0.06261
   2.21999   0.01585  -0.04213
   2.33970  -0.07393   0.03269
   2.41452  -0.01407   0.03269
   2.42948  -0.14875   0.21225
   2.51926   0.01585   0.00276
   2.50430  -0.13378   0.19729
   2.63897  -0.01407   0.18232
   2.63897   0.06074   0.24218
   2.84847   0.01585   0.25714
   2.78861  -0.04400   0.31700
   2.89336  -0.01407   0.16736
   3.01307  -0.19364   0.27211
   3.13278  -0.08889   0.25714
   3.01307  -0.14875   0.16736
   3.01307  -0.17868   0.22721
   3.07292  -0.11882   0.25714
   2.84847  -0.02904   0.25714
   2.96818  -0.10386   0.49656
   3.05796   0.06074   0.46664
   3.01307   0.07571   0.61627
   3.25249   8.9E-40   0.61627
   3.08789   0.03082   0.46664
   3.04300   0.06074   0.66116
   2.92329  -0.01407   0.58635
   2.90832   0.25527   0.57138
   2.93825   0.10564   0.72102
   3.01307   0.13556   0.72102
   2.90832   0.22535   0.66116
   3.02803   0.13556   0.76591
   2.81854   0.21038   0.69109
   2.90832   0.13556   0.96044
   2.69883   0.24031   0.78087
   2.59408   0.06074   0.99037
   2.57912   0.27024   0.90058
   2.42948   0.24031   0.97540
   2.33970   0.37498   0.87066
   2.39955   0.16549   1.03526
   2.29481   0.31513   1.00533
   2.36963   0.12060   1.16993
   2.08532   0.24031   1.03526
   2.02546   0.15053   1.24475
   1.98057   0.37498   1.31957
   1.87582   0.13556   1.22979
   1.68129   0.07571   1.22979
   1.53166   0.12060   1.14000
   1.35209   0.28520   1.12504
   1.33713   0.18045   1.08015
   1.17253   0.22535   1.08015
   1.14260   0.21038   1.15497
   1.03785   0.38995   1.11008
   0.99296   0.31513   1.11008
   0.93311   0.30016   1.03526
   0.75354   0.36002   1.09511
   0.67872   0.24031   1.14000
   0.61887   0.33009   1.16993
   0.37945   0.38995   1.14000
   0.28966   0.34506   1.11008
   0.19988   0.52462   1.06519
   0.12506   0.40491   1.05022
   0.03528   0.37498   1.03526
  -0.02457   0.37498   1.00533
   0.08017   0.37498   0.91555
  -0.17421   0.30016   0.90058
  -0.21910   0.40491   0.75095
  -0.21910   0.27024   0.87066
  -0.30889   0.43484   0.66116
  -0.45852   0.41987   0.60131
  -0.42860   0.40491   0.58635
  -0.44356   0.46477   0.36189
  -0.50342   0.34506   0.42174
  -0.54831   0.43484   0.28707
  -0.53334   0.37498   0.28707
  -0.75780   0.33009   0.28707
  -0.68298   0.37498   0.18232
  -0.80269   0.34506   0.12247
  -0.59320   0.41987  -0.01221
  -0.68298   0.28520   0.00276
  -0.65305   0.28520  -0.14688
  -0.69794   0.34506  -0.14688
  -0.71291   0.25527  -0.23666
  -0.80269   0.24031  -0.19177
  -0.80269   0.18045  -0.34141
  -0.72787   0.19542  -0.40126
  -0.65305   0.15053  -0.41623
  -0.81765   0.09067  -0.55090
  -0.83262  -0.02904  -0.58083
  -0.75780   0.12060  -0.67061
  -0.83262   0.09067  -0.68557
  -0.83262   0.18045  -0.85018
  -0.75780   0.06074  -0.79032
  -0.68298  -0.01407  -0.82025
  -0.59320   8.9E-40  -0.82025
  -0.69794  -0.25349  -0.70054
  -0.57823  -0.10386  -0.77536
  -0.57823  -0.19364  -0.70054
  -0.69794  -0.17868  -0.76039
  -0.75780  -0.20860  -0.79032
  -0.69794   0.03082  -1.02974
  -0.50342  -0.20860  -0.93996
  -0.63809  -0.08889  -1.17938
  -0.45852  -0.23853  -0.93996
  -0.44356  -0.07393  -1.08960
  -0.42860  -0.11882  -0.85018
  -0.44356  -0.19364  -0.92499
  -0.50342  -0.07393  -0.85018
  -0.44356  -0.20860  -0.86514
  -0.47349  -0.10386  -0.91003
  -0.44356  -0.23853  -0.89507
  -0.39867  -0.10386  -0.85018
  -0.62313  -0.14875  -0.83521
  -0.53334  -0.26846  -0.82025
  -0.39867  -0.07393  -0.82025
  -0.47349  -0.28342  -0.71550
  -0.30889  -0.25349  -0.73047
  -0.41363  -0.22357  -0.62572
  -0.38371  -0.26846  -0.58083
  -0.53334  -0.11882  -0.70054
  -0.71291  -0.19364  -0.47608
  -0.74284  -0.19364  -0.52097
  -0.72787   8.9E-40  -0.44615
  -0.77276  -0.20860  -0.47608
  -0.59320  -0.02904  -0.43119
  -0.77276  -0.07393  -0.47608
  -0.83262  -0.13378  -0.34141
  -0.84758  -0.04400  -0.19177
  -0.99722   0.09067  -0.13192
  -1.01218  -0.04400  -0.11695
  -1.11693   0.10564  -0.22170
  -1.04211   0.06074  -0.23666
  -0.87751   0.16549  -0.28155
  -1.07204   0.03082  -0.35637
  -0.92240   0.16549  -0.29652
  -1.02715   0.13556  -0.22170
  -1.13189   0.15053  -0.17681
  -1.08700   0.09067  -0.02717
  -0.96729   0.12060  -0.04213
  -1.13189   0.01585  -0.04213
  -1.11693   0.04578  -0.05710
  -1.35635   0.04578  -0.10199
  -1.52095   0.07571  -0.17681
  -1.50599   8.9E-40  -0.10199
  -1.53591   0.09067  -0.20673
  -1.65562   0.19542  -0.22170
  -1.62570   0.13556  -0.14688
  -1.50599   0.01585  -0.28155
  -1.67059   0.10564  -0.25163
  -1.77533   8.9E-40  -0.10199
  -1.77533   0.15053  -0.11695
  -1.91001   0.21038  -0.23666
  -1.95490   0.22535  -0.11695
  -1.96986   0.25527  -0.26659
  -1.91001   0.25527  -0.29652
  -1.95490   0.22535  -0.37134
  -1.92497   0.12060  -0.29652
  -1.98483   0.10564  -0.34141
  -1.99979   0.22535  -0.41623
  -2.08957   0.16549  -0.44615
  -2.14943   0.21038  -0.47608
  -2.20928   0.22535  -0.58083
  -2.17936   0.16549  -0.55090
  -2.17936   0.36002  -0.65565
  -2.19432   0.25527  -0.65565
  -2.28410   0.24031  -0.82025
  -2.17936   0.33009  -0.86514
  -2.20928   0.19542  -0.83521
  -2.20928   0.33009  -0.99981
  -2.23921   0.37498  -0.91003
  -2.05965   0.41987  -0.99981
  -2.05965   0.28520  -0.89507
  -2.01476   0.38995  -1.11952
