********************************************************************************
              CENTRO DE INSTRUMENTACION Y REGISTRO SISMICO  A.C.

    Anaxagoras 814, Col. Narvarte, Benito Juarez, C.P. 03020 Mexico, D.F.
           Tels. 5687 45 42/ 5687 45  82             Fax. 5669 25 12
********************************************************************************
ARCHIVO ESTANDAR DE ACELERACION:
VERSION DEL FORMATO                    : 2.0
NOMBRE DEL ARCHIVO                     : AE0220110505132407
FECHA Y HORA DE CREACION               : 01/JUL/11, 12:12
REF. CATALOGO ACELEROGRAMAS, SMIS 1996 : REGISTRO No.     /PAG.


================================================================================
DATOS DE LA ESTACION:
NOMBRE DE LA ESTACION                  : ESC. PRIM. "GONZÁLEZ GARZÓN"
CLAVE DE LA ESTACION                   : AE02
LOCALIZACION DE LA ESTACION            : Del. Venustiano Carranza,              
                                       : Col. El Arenal 4a. Sección,            
                                       : Calle Xico esq. con calle Xocoyote.    
                                       :                                        
                                       : 
COORDENADAS DE LA ESTACION             : 19.4290 LAT. N
                                       : 99.0584 LONG. W
ALTITUD (msnm)                         : 2232
TIPO DE SUELO                          : Arcilloso, zona lago                
                                       :                           
                                       : 
INSTITUCION RESPONSABLE                : CIRES
                                       : 

================================================================================
DATOS DEL ACELEROGRAFO:
MODELO DEL ACELEROGRAFO                : RADESD
NUMERO DE SERIE DEL ACELEROGRAFO       : 242
NUMERO DE CANALES                      : 3
ORIENTACION C1-C6 (rumbo;orientacion)  : /N00E/+V/N90W
ORIENTACION C7-C12 (rumbo;orientacion) : 
VEL. DE MUESTREO, C1-C6 (muestras/s)   : /100/100/100
VEL. DE MUESTREO, C7-C12 (muestras/s)  : 
ESC. COMPLETA DE SENSORES, C1-C6, (g)  : /0.5/0.5/0.5
ESC. COMPLETA DE SENSORES, C7-C12, (g) : 
FREC. NAT. DE SENSORES, C1-C6, (Hz)    : /30/30/30
FREC. NAT. DE SENSORES, C7-C12, (Hz)   : 
AMORTIGUAMIENTO DE SENSORES, C1-C6     : /0.733/0.750/0.700
AMORTIGUAMIENTO DE SENSORES, C7-C12    : 
INTERVALO DE MUESTREO, C1-C6, (s)      : /0.01/0.01/0.01
INTERVALO DE MUESTREO, C7-C12, (s)     : 
UMBRAL DE DISPARO, C1-C6, (Gal)        : /2.39/9.58/9.58
UMBRAL DE DISPARO, C7-C12, (Gal)       : 
MEMORIA DE PREEVENTO (s)               : 56.0
TIEMPO DE POSEVENTO (s)                : 64.0


================================================================================
DATOS DEL SISMO:
FECHA DEL SISMO (GMT)                  : 05/MAY/11
HORA EPICENTRO (GMT)                   : 13:24:07.0
MAGNITUD(ES)                           : /Mc=5.5
COORDENADAS DEL EPICENTRO              : 16.61 LAT. N
                                       : 98.91 LONG. W
PROFUNDIDAD FOCAL (km)                 : 11
FUENTE DE LOS DATOS EPICENTRALES       : SSN
                                       : INSTITUTO DE GEOFISICA, UNAM

================================================================================
DATOS DE ESTE REGISTRO:
HORA DE LA PRIMERA MUESTRA (GMT)       : 13:25:35.00
EXACTITUD DEL TIEMPO (s)               : 0.01
DURACION DEL REGISTRO (s), C1-C6       : /130.25/130.25/130.25
DURACION DEL REGISTRO (s), C7-C12      : 
NUM. TOTAL DE MUESTRAS, C1-C6          : /13025/13025/13025
NUM. TOTAL DE MUESTRAS, C7-C12         : 
ACEL. MAX. (Gal), C1-C6                : /4.20051/1.57534/3.4232
ACEL. MAX., C1-C6, EN LA MUESTRA       : /6944/6886/6921
ACEL. MAX. (Gal), C7-C12               : 
ACEL. MAX., C7-C12, EN LA MUESTRA      : 
UNIDADES DE LOS DATOS                  : Gal (cm/s/s)
FACTOR DE DECIMACION                   : 1
FORMATO DATOS (FORTRAN,10 campos/dato) : 3F10.5


================================================================================
CALIDAD DEL ACELEROGRAMA:
REGISTRO DIGITAL COMPLETO CON TIEMPO ABSOLUTO CORRECTO.


================================================================================
COMENTARIOS:














================================================================================
DATOS DE ACELERACION:
---------+---------+---------+---------+---------+---------+---------+---------+
   CANAL-1   CANAL-2   CANAL-3   CANAL-4   CANAL-5   CANAL-6   CANAL-7   CANAL-8
      N00E        +V      N90W
---------+---------+---------+---------+---------+---------+---------+---------+
[...]
   1.78500  -0.13882  -0.64694
   1.30616   0.10060  -0.64694
   1.78500  -0.13882  -0.64694
   1.54558   0.10060  -0.40752
   1.78500   0.34002  -0.64694
   1.78500   0.34002  -0.40752
   1.78500   0.34002  -0.64694
   2.02442   0.57944  -0.64694
   2.02442   0.57944  -0.64694
   2.26384   0.57944  -0.40752
   2.26384   0.57944  -0.64694
   2.50326   0.57944  -0.64694
   2.50326   0.57944  -0.64694
   2.50326   0.57944  -0.40752
   2.74268   0.57944  -0.64694
   2.74268   0.34002  -0.40752
   2.98210   0.34002  -0.40752
   2.74268   0.34002  -0.40752
   2.74268   0.34002  -0.16810
   2.74268   0.10060  -0.16810
   2.74268   0.34002   0.07132
   2.50326   0.10060  -0.16810
   2.50326   0.34002   0.07132
   2.50326   0.34002   0.07132
   2.50326   0.10060   0.31074
   2.26384   0.34002   0.55016
   2.26384   0.10060   0.55016
   2.02442   0.34002   0.31074
   2.02442   0.10060   0.55016
   1.78500   0.34002   0.55016
   1.78500   0.10060   0.55016
   1.54558   0.34002   0.78958
   1.30616   0.10060   0.55016
   1.30616   0.34002   0.55016
   1.06674   0.10060   0.78958
   1.06674   0.10060   0.78958
   1.06674   0.34002   0.55016
   0.58790   0.10060   0.55016
   0.58790   0.10060   0.55016
   0.34848   0.10060   0.55016
   0.34848  -0.13882   0.78958
  -0.13036  -0.13882   0.55016
  -0.13036  -0.13882   0.55016
  -0.36978  -0.13882   0.55016
  -0.84862   0.10060   0.78958
  -1.08804  -0.13882   0.78958
  -1.32746  -0.13882   0.78958
  -1.56688  -0.13882   0.78958
  -1.80630  -0.13882   0.78958
  -2.04572   0.10060   0.55016
  -2.04572  -0.13882   0.55016
  -2.28514   0.10060   0.31074
  -2.28514  -0.13882   0.31074
  -2.28514  -0.13882   0.31074
  -2.52456  -0.13882   0.07132
  -2.52456   0.10060   0.07132
  -2.52456   0.10060  -0.16810
  -2.76398  -0.13882   0.07132
  -2.52456  -0.13882  -0.40752
  -2.76398  -0.13882  -0.40752
  -2.76398   0.10060  -0.40752
  -2.76398   0.10060  -0.40752
  -2.52456  -0.13882  -0.40752
  -2.76398  -0.13882  -0.40752
  -2.76398   0.10060  -0.40752
  -2.76398   0.10060  -0.40752
  -2.28514   0.10060  -0.16810
  -2.52456   0.10060  -0.64694
  -2.28514   0.10060  -0.64694
  -2.28514   0.10060  -0.64694
  -2.28514   0.10060  -0.64694
  -1.80630   0.10060  -0.64694
  -1.56688  -0.13882  -0.64694
  -1.56688   0.34002  -0.88636
  -1.32746   0.34002  -0.88636
  -0.84862   0.34002  -0.64694
  -0.84862   0.10060  -0.88636
  -0.36978   0.10060  -0.88636
  -0.13036   0.34002  -0.88636
  -0.13036   0.10060  -0.64694
   0.34848   0.34002  -0.88636
   0.58790   0.10060  -0.88636
   0.82732  -0.13882  -0.88636
   1.06674   0.10060  -1.12578
   1.30616  -0.13882  -1.12578
   1.54558  -0.13882  -0.88636
   1.54558   0.10060  -0.64694
   1.78500  -0.13882  -0.88636
   2.02442  -0.13882  -0.64694
   2.02442  -0.13882  -0.88636
   2.26384   0.10060  -0.88636
   2.26384  -0.13882  -0.64694
   2.50326  -0.13882  -0.64694
   2.50326  -0.13882  -0.88636
   2.50326  -0.13882  -0.64694
   2.50326  -0.13882  -0.64694
   2.50326  -0.13882  -0.64694
   2.74268  -0.37824  -0.40752
   2.50326  -0.13882  -0.40752
   2.50326  -0.13882  -0.40752
   2.26384  -0.13882   0.07132
   2.26384  -0.13882  -0.16810
   2.26384  -0.13882   0.07132
   2.26384  -0.13882   0.07132
   2.02442  -0.13882   0.31074
   2.02442  -0.13882   0.31074
   2.02442  -0.13882   0.31074
   1.54558  -0.37824   0.31074
   1.78500  -0.13882   0.31074
   1.54558  -0.37824   0.31074
   1.54558  -0.61766   0.55016
   1.30616  -0.61766   0.31074
   1.06674  -0.61766   0.31074
   1.30616  -0.61766   0.31074
   0.82732  -0.61766   0.31074
   0.58790  -0.61766   0.31074
   0.34848  -0.61766   0.31074
   0.34848  -0.61766   0.31074
   0.10906  -0.61766   0.31074
   0.10906  -0.37824   0.55016
  -0.13036  -0.37824   0.31074
   0.10906  -0.61766   0.31074
  -0.13036  -0.37824   0.31074
  -0.13036  -0.61766   0.31074
  -0.13036  -0.37824   0.31074
  -0.13036  -0.37824   0.31074
  -0.13036  -0.37824   0.55016
  -0.13036  -0.37824   0.31074
  -0.13036  -0.13882   0.55016
  -0.13036  -0.13882   0.55016
  -0.36978  -0.13882   0.78958
  -0.60920  -0.13882   0.78958
  -0.60920  -0.13882   0.78958
  -0.60920   0.10060   0.78958
  -0.60920   0.10060   1.02900
  -0.60920   0.34002   1.02900
  -0.84862   0.34002   1.02900
  -0.84862   0.34002   0.78958
  -0.84862   0.34002   1.02900
  -0.84862   0.34002   1.02900
  -0.60920   0.34002   0.78958
  -0.84862   0.34002   1.02900
  -0.60920   0.57944   0.78958
  -0.60920   0.57944   0.78958
  -0.36978   0.57944   0.78958
  -0.36978   0.57944   0.55016
  -0.60920   0.81886   0.55016
  -0.60920   0.57944   0.55016
  -0.36978   0.57944   0.55016
  -0.36978   0.57944   0.31074
  -0.13036   0.81886   0.31074
  -0.60920   0.57944   0.07132
  -0.60920   0.81886   0.07132
  -0.36978   0.81886   0.07132
  -0.13036   0.57944   0.07132
  -0.36978   0.81886  -0.40752
  -0.60920   0.81886  -0.40752
  -0.60920   1.05828  -0.64694
  -1.08804   1.05828  -0.64694
  -0.84862   0.81886  -0.88636
  -1.08804   0.81886  -0.88636
  -1.08804   1.05828  -0.88636
  -0.84862   1.05828  -1.12578
  -0.84862   1.05828  -1.36520
  -0.84862   0.81886  -1.36520
  -0.84862   0.81886  -1.36520
  -0.84862   0.81886  -1.60462
  -0.60920   0.57944  -1.36520
  -0.60920   0.57944  -1.36520
  -0.60920   0.34002  -1.60462
  -0.84862   0.34002  -1.12578
  -0.60920   0.34002  -1.36520
  -0.36978   0.34002  -1.36520
  -0.36978   0.10060  -1.12578
  -0.36978   0.10060  -1.12578
  -0.13036  -0.13882  -0.88636
  -0.13036  -0.37824  -0.88636
   0.10906  -0.13882  -0.64694
   0.10906  -0.37824  -0.64694
   0.34848  -0.37824  -0.64694
   0.34848  -0.37824  -0.64694
   0.82732  -0.37824  -0.88636
   0.58790  -0.37824  -0.40752
   0.82732  -0.37824  -0.64694
   1.06674  -0.61766  -0.64694
   1.54558  -0.61766  -0.64694
   1.54558  -0.61766  -0.64694
   1.54558  -0.37824  -0.64694
   1.78500  -0.61766  -0.40752
   2.02442  -0.61766  -0.40752
   2.02442  -0.61766  -0.40752
   2.02442  -0.61766  -0.64694
   2.02442  -0.61766  -0.16810
   2.02442  -0.61766  -0.16810
   1.78500  -0.85708  -0.16810
   1.54558  -0.85708  -0.16810
   1.30616  -0.61766  -0.16810
   1.30616  -0.85708  -0.16810
   1.06674  -1.09650  -0.16810
   0.82732  -0.85708  -0.16810
   0.34848  -0.85708  -0.16810
   0.34848  -0.85708  -0.16810
   0.10906  -0.85708   0.07132
   0.10906  -0.85708  -0.16810
  -0.36978  -1.09650   0.07132
  -0.36978  -0.85708   0.07132
  -0.36978  -0.85708   0.07132
  -0.60920  -0.85708   0.07132
  -0.84862  -1.09650   0.31074
  -1.08804  -0.85708   0.55016
  -1.08804  -0.85708   0.55016
  -1.56688  -0.85708   0.31074
  -1.80630  -0.85708   0.31074
  -1.80630  -0.61766   0.55016
  -2.28514  -0.37824   0.78958
  -2.52456  -0.61766   0.31074
  -2.76398  -0.37824   0.55016
  -3.00340  -0.37824   0.31074
  -3.00340  -0.37824   0.31074
  -3.24282  -0.37824   0.31074
  -3.24282  -0.37824   0.07132
  -3.48224  -0.13882   0.31074
  -3.48224  -0.13882   0.31074
  -3.24282   0.10060   0.31074
  -3.24282  -0.13882   0.07132
  -3.24282   0.10060   0.07132
  -3.24282  -0.13882   0.31074
  -3.00340   0.10060   0.55016
  -3.00340  -0.13882   0.31074
  -2.76398   0.10060   0.31074
  -2.52456   0.10060   0.31074
  -2.28514   0.10060   0.55016
  -2.04572   0.10060   0.55016
  -1.80630   0.34002   0.78958
  -1.56688   0.34002   0.78958
  -1.32746   0.57944   1.02900
  -1.08804   0.34002   1.02900
  -0.84862   0.57944   0.78958
  -0.60920   0.57944   1.02900
  -0.36978   0.57944   1.02900
  -0.13036   0.57944   1.02900
   0.34848   0.57944   0.78958
   0.34848   0.57944   1.02900
   0.58790   0.57944   1.02900
   0.82732   0.34002   1.26842
   1.06674   0.57944   1.50784
   1.06674   0.34002   1.26842
   1.30616   0.81886   1.50784
   1.30616   0.81886   1.26842
   1.54558   0.81886   1.50784
   1.78500   0.81886   1.26842
   2.02442   0.81886   1.26842
   2.02442   1.05828   1.26842
   2.02442   0.81886   1.26842
   2.26384   1.05828   1.02900
   2.26384   1.05828   1.02900
   2.50326   0.81886   0.78958
   2.50326   1.29770   0.55016
   2.50326   1.05828   0.55016
   2.50326   1.05828   0.31074
   2.74268   1.05828   0.07132
   2.50326   1.05828   0.31074
   2.50326   1.05828   0.07132
   2.50326   1.05828  -0.40752
   2.26384   1.05828  -0.64694
   2.26384   1.05828  -0.64694
   2.02442   0.81886  -0.88636
   2.02442   0.81886  -1.12578
   1.78500   0.57944  -1.60462
   1.78500   0.57944  -1.60462
   1.78500   0.34002  -1.84404
   1.54558   0.34002  -1.84404
   1.54558   0.10060  -2.08346
   1.54558   0.10060  -2.32288
   1.30616   0.10060  -2.32288
   1.30616  -0.13882  -2.56230
   1.30616  -0.37824  -2.56230
   0.82732  -0.37824  -2.56230
   0.82732  -0.61766  -2.56230
   0.58790  -0.61766  -2.56230
   1.06674  -0.61766  -2.80172
   0.58790  -0.61766  -2.56230
   0.58790  -1.09650  -2.80172
   0.58790  -1.09650  -2.80172
   0.58790  -1.09650  -2.80172
   0.82732  -1.09650  -2.80172
   0.82732  -1.33592  -2.80172
   0.58790  -1.33592  -2.80172
   0.82732  -1.33592  -2.56230
   1.06674  -1.57534  -2.56230
   1.06674  -1.57534  -2.56230
   1.06674  -1.33592  -2.32288
   1.06674  -1.33592  -2.32288
   1.06674  -1.57534  -1.84404
   1.30616  -1.57534  -1.84404
   1.54558  -1.57534  -1.60462
   1.30616  -1.33592  -1.36520
   1.54558  -1.33592  -1.36520
   1.78500  -1.33592  -1.12578
   1.78500  -1.33592  -0.88636
   1.78500  -1.09650  -0.64694
   1.78500  -1.09650  -0.40752
   1.78500  -1.09650  -0.40752
   1.54558  -0.85708   0.07132
   1.78500  -0.85708   0.07132
   1.54558  -0.85708   0.31074
   1.54558  -0.85708   0.78958
   1.54558  -0.37824   1.02900
   1.54558  -0.61766   1.26842
   1.54558  -0.61766   1.50784
   1.30616  -0.37824   1.50784
   1.30616  -0.37824   1.74726
   1.06674  -0.37824   1.98668
   1.06674  -0.13882   2.46552
   1.06674  -0.13882   2.46552
   0.82732   0.10060   2.70494
   0.58790   0.10060   2.70494
   0.58790   0.57944   2.70494
   0.58790   0.57944   3.18378
   0.34848   0.81886   3.18378
   0.10906   1.05828   3.18378
   0.10906   0.81886   3.18378
  -0.13036   1.29770   3.18378
  -0.13036   1.05828   3.18378
  -0.36978   1.05828   3.42320
  -0.84862   1.05828   3.18378
  -1.08804   1.05828   3.18378
  -1.32746   1.05828   3.18378
  -1.56688   0.81886   3.18378
  -1.80630   1.05828   2.94436
  -2.04572   1.05828   2.94436
  -2.28514   1.05828   2.70494
  -2.76398   1.29770   2.46552
  -2.76398   1.29770   2.46552
  -3.24282   1.05828   2.70494
  -3.24282   1.29770   2.46552
  -3.48224   1.05828   2.22610
  -3.48224   1.29770   2.22610
  -3.72166   1.05828   1.98668
  -3.72166   1.05828   1.98668
  -3.72166   1.05828   1.74726
  -3.72166   1.05828   1.74726
  -3.72166   1.29770   1.50784
  -3.72166   0.81886   1.50784
  -3.96108   1.05828   1.50784
  -3.96108   0.81886   1.26842
  -3.96108   0.81886   1.02900
  -4.20051   0.57944   0.78958
  -3.96108   0.57944   0.78958
  -3.96108   0.34002   0.78958
  -4.20051   0.10060   0.55016
  -3.72166   0.10060   0.31074
  -3.96108  -0.13882   0.07132
  -3.48224  -0.13882   0.07132
  -3.48224  -0.13882  -0.40752
  -3.24282  -0.37824  -0.64694
  -3.00340  -0.37824  -0.64694
  -3.00340  -0.37824  -1.12578
  -2.76398  -0.37824  -1.12578
  -2.52456  -0.61766  -1.36520
  -2.52456  -0.37824  -1.60462
  -2.28514  -0.37824  -1.84404
  -2.28514  -0.37824  -1.84404
  -2.28514  -0.61766  -2.08346
  -2.04572  -0.61766  -2.32288
  -2.04572  -0.37824  -2.32288
  -1.80630  -0.61766  -2.32288
  -1.56688  -0.61766  -2.32288
  -1.80630  -0.61766  -2.32288
  -1.56688  -0.61766  -2.32288
  -1.32746  -0.85708  -2.08346
  -0.84862  -0.85708  -1.84404
  -0.84862  -1.09650  -1.84404
  -0.60920  -0.85708  -1.84404
  -0.60920  -0.85708  -1.60462
  -0.36978  -0.85708  -1.36520
  -0.13036  -0.85708  -1.36520
   0.10906  -1.09650  -1.36520
   0.34848  -0.85708  -1.12578
   0.58790  -0.85708  -1.12578
   1.06674  -0.85708  -0.88636
   1.30616  -1.09650  -0.88636
   1.54558  -1.09650  -0.64694
   1.78500  -0.85708  -0.64694
   2.02442  -0.85708  -0.64694
   2.26384  -0.85708  -0.64694
   2.74268  -1.09650  -0.40752
   2.74268  -0.85708  -0.16810
   2.98210  -0.61766   0.31074
   3.22152  -0.85708   0.31074
   3.22152  -0.61766   0.55016
   3.46094  -0.61766   0.78958
   3.46094  -0.61766   1.02900
   3.46094  -0.37824   1.02900
   3.46094  -0.37824   1.26842
   3.46094  -0.13882   1.02900
   3.46094  -0.13882   1.50784
   3.46094  -0.13882   1.74726
   3.46094  -0.13882   1.26842
   3.22152  -0.13882   1.26842
   2.74268  -0.13882   1.50784
   2.98210   0.10060   1.50784
   2.74268   0.10060   1.74726
   2.74268   0.10060   1.50784
   2.26384   0.34002   1.50784
   1.78500   0.10060   1.50784
   1.78500   0.34002   1.74726
   1.54558   0.10060   1.74726
   1.54558   0.34002   1.50784
   1.06674   0.34002   1.26842
   0.82732   0.57944   1.50784
   0.82732   0.34002   1.26842
   0.58790   0.10060   1.26842
   0.34848   0.10060   1.02900
   0.34848   0.34002   0.78958
   0.34848   0.34002   0.78958
  -0.13036   0.34002   0.55016
  -0.13036   0.34002   0.31074
  -0.36978   0.34002   0.31074
  -0.60920   0.34002   0.07132
  -0.60920   0.34002  -0.16810
  -0.60920   0.57944  -0.16810
  -1.08804   0.34002  -0.16810
  -1.08804   0.34002  -0.40752
  -1.08804   0.10060  -0.40752
  -1.08804   0.34002  -0.64694
  -1.32746   0.57944  -0.64694
  -1.56688   0.34002  -0.64694
  -1.80630   0.34002  -0.64694
  -2.04572   0.34002  -0.88636
  -1.80630   0.34002  -0.88636
  -2.28514   0.57944  -1.12578
  -2.04572   0.34002  -1.12578
  -2.04572   0.57944  -1.12578
  -2.04572   0.34002  -1.12578
  -2.28514   0.34002  -1.12578
  -2.28514   0.57944  -1.12578
  -2.04572   0.34002  -1.36520
  -2.04572   0.57944  -1.12578
  -1.80630   0.34002  -1.12578
  -1.80630   0.34002  -1.12578
  -1.80630   0.34002  -1.12578
  -1.80630   0.34002  -1.12578
  -1.56688   0.34002  -0.88636
  -1.32746   0.10060  -0.64694
  -1.32746   0.34002  -0.64694
  -1.08804   0.57944  -0.64694
  -0.84862   0.34002  -0.40752
  -1.08804   0.57944  -0.64694
  -0.84862   0.57944  -0.40752
  -0.60920   0.57944  -0.40752
  -0.60920   0.57944  -0.40752
  -0.36978   0.57944  -0.64694
  -0.36978   0.57944  -0.40752
  -0.13036   0.34002  -0.40752
  -0.13036   0.34002  -0.40752
   0.10906   0.57944  -0.40752
   0.10906   0.57944  -0.40752
  -0.13036   0.57944  -0.40752
  -0.13036   0.57944  -0.16810
  -0.36978   0.57944  -0.16810
  -0.13036   0.57944  -0.40752
   0.10906   0.57944  -0.40752
  -0.13036   0.81886  -0.16810
  -0.36978   0.81886   0.07132
  -0.36978   0.34002   0.07132
  -0.36978   0.34002  -0.40752
  -0.36978   0.57944  -0.16810
  -0.36978   0.34002  -0.16810
  -0.60920   0.34002   0.07132
  -0.36978   0.10060   0.07132
  -0.36978  -0.13882  -0.16810
  -0.36978  -0.13882   0.31074
  -0.36978  -0.13882   0.07132
  -0.13036  -0.13882   0.07132
  -0.13036  -0.37824   0.55016
  -0.13036  -0.13882   0.31074
  -0.13036  -0.13882   0.55016
   0.34848  -0.13882   0.55016
   0.10906  -0.13882   0.55016
   0.34848   0.10060   0.55016
   0.82732   0.10060   0.55016
   1.06674  -0.13882   0.55016
   1.30616  -0.13882   0.31074
   1.54558  -0.13882   0.31074
   1.54558   0.10060   0.55016
   1.78500  -0.13882   0.55016
   2.26384  -0.13882   0.31074
   2.26384  -0.37824   0.31074
   2.26384  -0.13882   0.31074
   2.26384  -0.37824   0.07132
   2.26384  -0.37824   0.31074
   2.50326  -0.37824   0.07132
   2.50326  -0.37824  -0.16810
   2.50326  -0.37824   0.07132
   2.26384  -0.37824  -0.40752
