********************************************************************************
              CENTRO DE INSTRUMENTACION Y REGISTRO SISMICO  A.C.

    Anaxagoras 814, Col. Narvarte, Benito Juarez, C.P. 03020 Mexico, D.F.
           Tels. 5687 45 42/ 5687 45  82             Fax. 5669 25 12
********************************************************************************
ARCHIVO ESTANDAR DE ACELERACION:
VERSION DEL FORMATO                    : 2.0
NOMBRE DEL ARCHIVO                     : AE0220080428000629
FECHA Y HORA DE CREACION               : 15/MAY/08, 11:06
REF. CATALOGO ACELEROGRAMAS, SMIS 1996 : REGISTRO No.     /PAG.


================================================================================
DATOS DE LA ESTACION:
NOMBRE DE LA ESTACION                  : ESC. PRIM. "GONZÁLEZ GARZÓN"
CLAVE DE LA ESTACION                   : AE02
LOCALIZACION DE LA ESTACION            : Del. Venustiano Carranza,              
                                       : Col. El Arenal 4a. Sección,            
                                       : Calle Xico esq. con calle Xocoyote.    
                                       :                                        
                                       : 
COORDENADAS DE LA ESTACION             : 19.4290 LAT. N
                                       : 99.0584 LONG. W
ALTITUD (msnm)                         : 2232
TIPO DE SUELO                          : Arcilloso, zona lago                
                                       :                           
                                       : 
INSTITUCION RESPONSABLE                : CIRES
                                       : 

================================================================================
DATOS DEL ACELEROGRAFO:
MODELO DEL ACELEROGRAFO                : RADESD
NUMERO DE SERIE DEL ACELEROGRAFO       : 242
NUMERO DE CANALES                      : 3
ORIENTACION C1-C6 (rumbo;orientacion)  : /N00E/+V/N90W
ORIENTACION C7-C12 (rumbo;orientacion) : 
VEL. DE MUESTREO, C1-C6 (muestras/s)   : /100/100/100
VEL. DE MUESTREO, C7-C12 (muestras/s)  : 
ESC. COMPLETA DE SENSORES, C1-C6, (g)  : /0.5/0.5/0.5
ESC. COMPLETA DE SENSORES, C7-C12, (g) : 
FREC. NAT. DE SENSORES, C1-C6, (Hz)    : /30/30/30
FREC. NAT. DE SENSORES, C7-C12, (Hz)   : 
AMORTIGUAMIENTO DE SENSORES, C1-C6     : /0.733/0.750/0.700
AMORTIGUAMIENTO DE SENSORES, C7-C12    : 
INTERVALO DE MUESTREO, C1-C6, (s)      : /0.01/0.01/0.01
INTERVALO DE MUESTREO, C7-C12, (s)     : 
UMBRAL DE DISPARO, C1-C6, (Gal)        : /2.87/9.58/9.58
UMBRAL DE DISPARO, C7-C12, (Gal)       : 
MEMORIA DE PREEVENTO (s)               : 56.0
TIEMPO DE POSEVENTO (s)                : 64.0


================================================================================
DATOS DEL SISMO:
FECHA DEL SISMO (GMT)                  : 28/ABR/08
HORA EPICENTRO (GMT)                   : 00:06:29.0
MAGNITUD(ES)                           : /Mc=5.6
COORDENADAS DEL EPICENTRO              : 18.05 LAT. N
                                       : 100.01 LONG. W
PROFUNDIDAD FOCAL (km)                 : 52
FUENTE DE LOS DATOS EPICENTRALES       : SSN
                                       : INSTITUTO DE GEOFISICA, UNAM

================================================================================
DATOS DE ESTE REGISTRO:
HORA DE LA PRIMERA MUESTRA (GMT)       : 00:07:16.00
EXACTITUD DEL TIEMPO (s)               : 0.01
DURACION DEL REGISTRO (s), C1-C6       : /149.5/149.5/149.5
DURACION DEL REGISTRO (s), C7-C12      : 
NUM. TOTAL DE MUESTRAS, C1-C6          : /14950/14950/14950
NUM. TOTAL DE MUESTRAS, C7-C12         : 
ACEL. MAX. (Gal), C1-C6                : /6.04634/3.53461/3.76791
ACEL. MAX., C1-C6, EN LA MUESTRA       : /6043/5397/5635
ACEL. MAX. (Gal), C7-C12               : 
ACEL. MAX., C7-C12, EN LA MUESTRA      : 
UNIDADES DE LOS DATOS                  : Gal (cm/s/s)
FACTOR DE DECIMACION                   : 1
FORMATO DATOS (FORTRAN,10 campos/dato) : 3F10.5


================================================================================
CALIDAD DEL ACELEROGRAMA:
REGISTRO DIGITAL COMPLETO CON TIEMPO ABSOLUTO CORRECTO.


================================================================================
COMENTARIOS:














================================================================================
DATOS DE ACELERACION:
---------+---------+---------+---------+---------+---------+---------+---------+
   CANAL-1   CANAL-2   CANAL-3   CANAL-4   CANAL-5   CANAL-6   CANAL-7   CANAL-8
      N00E        +V      N90W
---------+---------+---------+---------+---------+---------+---------+---------+
[...]
  -0.65742  -0.18273  -0.89487
  -0.41800   0.05669  -0.89487
  -0.17858   0.29611  -1.13429
   0.06084   0.29611  -1.13429
   0.30026   0.29611  -1.37371
   0.53968   0.53553  -1.61313
   0.53968   0.77495  -1.61313
   1.01852   1.01437  -1.85255
   1.25794   1.01437  -2.09197
   1.49736   1.01437  -2.09197
   1.49736   1.01437  -2.09197
   1.73678   1.25379  -2.33139
   1.73678   0.77495  -2.09197
   1.97620   1.01437  -2.09197
   1.97620   0.77495  -2.09197
   1.97620   0.53553  -2.09197
   2.21562   0.53553  -2.09197
   2.21562   0.29611  -1.85255
   2.21562   0.29611  -1.85255
   1.97620   0.29611  -1.61313
   1.97620   0.29611  -1.61313
   2.21562  -0.18273  -1.37371
   2.45504  -0.18273  -1.37371
   2.21562  -0.18273  -1.13429
   2.21562  -0.18273  -1.13429
   1.97620  -0.18273  -1.13429
   1.97620  -0.18273  -1.13429
   1.97620  -0.18273  -1.13429
   1.97620  -0.42215  -0.89487
   1.97620  -0.66157  -0.89487
   1.97620  -0.66157  -0.89487
   2.21562  -0.42215  -0.65545
   2.21562  -0.42215  -0.65545
   2.21562  -0.42215  -0.41603
   2.21562  -0.42215  -0.41603
   2.45504  -0.66157  -0.17661
   2.21562  -0.42215  -0.17661
   2.21562  -0.18273   0.06281
   2.45504  -0.18273   0.30223
   2.45504  -0.18273   0.06281
   2.21562   0.05669   0.30223
   1.97620   0.05669   0.30223
   1.97620   0.05669   0.30223
   1.73678   0.29611   0.30223
   1.73678   0.05669   0.30223
   1.73678  -0.18273   0.54165
   1.73678  -0.42215   0.54165
   1.49736  -0.42215   0.54165
   1.49736  -0.66157   0.54165
   1.49736  -0.90099   0.54165
   1.49736  -0.90099   0.54165
   1.25794  -0.66157   0.78107
   1.01852  -0.66157   0.78107
   1.01852  -0.66157   0.78107
   0.77910  -0.42215   0.78107
   0.77910  -0.18273   1.02049
   0.30026   0.05669   1.02049
   0.30026   0.29611   1.02049
   0.06084   0.53553   1.25991
   0.06084   0.53553   1.25991
  -0.17858   0.53553   1.25991
  -0.17858   0.53553   1.25991
  -0.17858   0.53553   1.49933
  -0.17858   0.53553   1.49933
  -0.17858   0.77495   1.49933
  -0.41800   0.77495   1.49933
  -0.65742   0.77495   1.73875
  -0.89684   0.77495   1.73875
  -0.89684   0.53553   1.73875
  -1.13626   0.53553   2.21759
  -1.13626   0.29611   1.97817
  -1.13626   0.29611   1.97817
  -1.13626   0.05669   2.21759
  -1.13626   0.05669   2.45701
  -1.13626   0.05669   2.21759
  -0.89684  -0.18273   2.21759
  -0.89684  -0.18273   2.21759
  -0.65742  -0.18273   2.21759
  -0.65742  -0.18273   2.21759
  -0.41800   0.05669   2.21759
  -0.41800   0.05669   1.97817
  -0.41800   0.05669   1.97817
  -0.65742   0.05669   1.97817
  -0.41800   0.05669   1.73875
  -0.65742   0.05669   1.73875
  -0.65742  -0.18273   1.49933
  -0.41800  -0.18273   1.25991
  -0.41800  -0.18273   1.25991
  -0.65742  -0.18273   1.02049
  -0.41800  -0.18273   0.78107
  -0.41800  -0.18273   0.78107
  -0.65742  -0.18273   0.54165
  -0.65742  -0.18273   0.30223
  -0.41800   0.05669   0.06281
  -0.41800   0.05669   0.06281
  -0.41800   0.29611   0.06281
  -0.41800   0.53553  -0.17661
  -0.41800   0.53553  -0.17661
  -0.17858   0.53553  -0.41603
  -0.17858   0.29611  -0.65545
  -0.17858   0.29611  -0.89487
  -0.17858   0.05669  -0.89487
   0.06084   0.05669  -1.13429
   0.30026   0.05669  -1.37371
   0.30026  -0.18273  -1.37371
   0.30026  -0.18273  -1.37371
   0.30026  -0.42215  -1.61313
   0.30026  -0.66157  -1.85255
   0.30026  -0.66157  -1.85255
   0.06084  -0.90099  -1.85255
   0.06084  -1.14041  -1.85255
  -0.17858  -1.14041  -1.85255
  -0.17858  -1.14041  -1.85255
  -0.41800  -1.14041  -1.85255
  -0.41800  -1.14041  -2.09197
  -0.41800  -0.90099  -2.09197
  -0.17858  -0.66157  -2.33139
  -0.41800  -0.66157  -2.09197
  -0.17858  -0.66157  -2.09197
  -0.17858  -0.42215  -2.09197
  -0.17858  -0.42215  -2.09197
  -0.17858  -0.42215  -2.09197
  -0.41800  -0.42215  -2.09197
  -0.41800  -0.42215  -2.09197
  -0.41800  -0.42215  -2.09197
  -0.65742  -0.42215  -2.09197
  -0.65742  -0.42215  -2.09197
  -0.89684  -0.18273  -1.85255
  -1.13626  -0.18273  -1.85255
  -1.13626   0.05669  -1.85255
  -1.37568   0.05669  -1.61313
  -1.61510   0.05669  -1.61313
  -1.61510   0.05669  -1.37371
  -1.85452   0.05669  -1.37371
  -1.85452   0.05669  -1.37371
  -2.09394   0.05669  -1.13429
  -2.09394  -0.18273  -0.89487
  -2.33336  -0.18273  -0.89487
  -2.33336  -0.18273  -0.89487
  -2.33336  -0.18273  -0.65545
  -2.33336  -0.18273  -0.65545
  -2.33336   0.05669  -0.41603
  -2.33336   0.05669  -0.17661
  -2.33336   0.29611  -0.17661
  -2.33336   0.29611  -0.17661
  -2.33336   0.29611   0.06281
  -2.57278   0.53553   0.06281
  -2.57278   0.29611   0.30223
  -2.57278   0.29611   0.54165
  -2.57278   0.05669   0.54165
  -2.81220   0.05669   0.54165
  -2.81220   0.05669   0.54165
  -2.81220   0.05669   0.54165
  -2.57278  -0.18273   0.54165
  -2.81220   0.05669   0.54165
  -2.57278   0.29611   0.78107
  -2.57278   0.29611   0.78107
  -2.09394   0.53553   1.02049
  -2.09394   0.53553   0.78107
  -2.09394   0.77495   0.78107
  -2.09394   0.77495   0.78107
  -1.85452   0.53553   1.02049
  -1.61510   0.53553   1.02049
  -1.61510   0.29611   1.02049
  -1.37568   0.29611   1.02049
  -1.13626  -0.42215   0.78107
  -1.13626  -0.18273   0.78107
  -1.13626  -0.18273   0.78107
  -1.13626  -0.42215   0.54165
  -0.89684  -0.42215   0.54165
  -0.89684  -0.42215   0.54165
  -0.65742  -0.42215   0.54165
  -0.41800  -0.42215   0.54165
  -0.41800  -0.18273   0.54165
  -0.41800  -0.18273   0.54165
  -0.17858  -0.18273   0.54165
   0.06084  -0.18273   0.54165
   0.06084   0.05669   0.54165
   0.30026   0.05669   0.30223
   0.53968   0.05669   0.30223
   0.77910   0.05669   0.30223
   1.01852  -0.18273   0.30223
   1.01852  -0.18273   0.06281
   1.01852  -0.18273   0.06281
   1.25794  -0.42215   0.06281
   1.49736  -0.42215  -0.17661
   1.49736  -0.18273  -0.17661
   1.49736  -0.18273   0.06281
   1.49736   0.05669   0.06281
   1.73678   0.05669   0.06281
   1.73678   0.29611   0.06281
   1.73678   0.53553   0.30223
   1.73678   0.53553   0.30223
   1.73678   0.53553   0.30223
   1.97620   0.53553   0.30223
   1.97620   0.53553   0.30223
   1.97620   0.29611   0.54165
   1.97620   0.29611   0.54165
   1.97620   0.29611   0.54165
   1.97620   0.29611   0.54165
   1.97620   0.05669   0.78107
   1.73678  -0.18273   1.02049
   1.73678  -0.18273   0.78107
   1.73678  -0.18273   0.78107
   1.49736   0.05669   0.78107
   1.49736   0.05669   1.02049
   1.49736   0.05669   1.02049
   1.49736   0.05669   1.02049
   1.49736  -0.18273   1.02049
   1.49736  -0.42215   1.25991
   1.49736  -0.42215   1.25991
   1.25794  -0.42215   1.25991
   1.01852  -0.18273   1.25991
   1.01852  -0.42215   1.25991
   0.77910  -0.18273   1.25991
   0.77910   0.05669   1.49933
   0.53968   0.05669   1.25991
   0.53968   0.05669   1.25991
   0.53968   0.05669   1.25991
   0.30026   0.29611   1.25991
   0.06084   0.29611   1.25991
  -0.17858   0.29611   1.25991
  -0.17858   0.53553   1.02049
  -0.41800   0.53553   1.25991
  -0.65742   0.77495   1.02049
  -0.65742   0.77495   1.02049
  -0.65742   1.01437   0.78107
  -0.65742   1.01437   0.78107
  -0.41800   1.25379   0.78107
  -0.41800   1.25379   0.78107
  -0.41800   1.49321   0.54165
  -0.41800   1.49321   0.54165
  -0.41800   1.49321   0.30223
  -0.41800   1.49321   0.30223
  -0.41800   1.25379   0.30223
  -0.41800   1.01437   0.30223
  -0.41800   0.77495   0.30223
  -0.41800   0.77495   0.30223
  -0.41800   0.53553   0.06281
  -0.41800   0.53553   0.06281
  -0.17858   0.29611   0.06281
  -0.17858   0.29611  -0.17661
   0.06084   0.05669  -0.17661
   0.06084   0.05669  -0.41603
   0.30026   0.29611  -0.41603
   0.53968   0.29611  -0.65545
   0.77910   0.29611  -0.65545
   0.77910   0.53553  -0.65545
   0.77910   0.53553  -0.89487
   1.25794   0.29611  -0.89487
   1.49736   0.53553  -0.89487
   1.49736   0.53553  -1.13429
   1.73678   0.29611  -1.13429
   1.97620   0.05669  -1.37371
   1.97620  -0.18273  -1.37371
   2.21562  -0.18273  -1.61313
   2.21562  -0.42215  -1.85255
   2.45504  -0.66157  -1.85255
   2.21562  -0.90099  -1.61313
   2.21562  -1.14041  -1.85255
   2.21562  -1.37983  -1.85255
   1.97620  -1.61925  -1.85255
   1.97620  -1.61925  -1.85255
   1.97620  -1.61925  -2.09197
   1.97620  -1.37983  -2.09197
   1.73678  -1.37983  -2.09197
   1.97620  -1.14041  -2.09197
   1.97620  -1.14041  -2.09197
   1.97620  -0.90099  -2.09197
   1.73678  -0.90099  -2.09197
   1.97620  -0.90099  -1.85255
   1.73678  -0.90099  -1.85255
   1.97620  -0.66157  -1.61313
   1.97620  -0.66157  -1.85255
   1.97620  -0.66157  -1.37371
   1.97620  -0.66157  -1.13429
   1.73678  -0.66157  -0.89487
   1.73678  -0.66157  -1.13429
   1.49736  -0.90099  -0.89487
   1.25794  -0.90099  -0.89487
   1.01852  -0.90099  -0.89487
   0.77910  -0.90099  -0.89487
   0.53968  -1.14041  -0.65545
   0.06084  -0.90099  -0.65545
  -0.17858  -0.66157  -0.65545
  -0.41800  -0.66157  -0.41603
  -0.89684  -0.42215  -0.17661
  -1.13626  -0.18273  -0.17661
  -1.37568  -0.18273  -0.17661
  -1.85452  -0.18273   0.06281
  -2.09394  -0.18273   0.06281
  -2.33336   0.05669   0.30223
  -2.57278   0.05669   0.06281
  -2.81220   0.05669   0.30223
  -3.05162  -0.18273   0.30223
  -3.05162  -0.18273   0.30223
  -3.53046  -0.18273   0.30223
  -3.76988  -0.18273   0.54165
  -4.00930  -0.18273   0.54165
  -4.24872   0.05669   0.78107
  -4.24872   0.05669   0.78107
  -4.48814   0.29611   0.78107
  -4.72756   0.29611   1.02049
  -4.72756   0.53553   1.02049
  -4.96698   0.77495   1.02049
  -5.20640   0.77495   1.02049
  -5.20640   0.53553   1.02049
  -4.96698   0.53553   1.02049
  -4.96698   0.53553   1.02049
  -4.96698   0.53553   1.02049
  -4.96698   0.53553   1.02049
  -4.72756   0.29611   1.02049
  -4.72756   0.29611   1.02049
  -4.72756   0.29611   1.25991
  -4.48814   0.05669   1.25991
  -4.24872   0.05669   1.49933
  -4.24872  -0.18273   1.49933
  -4.00930  -0.18273   1.49933
  -3.76988  -0.18273   1.49933
  -3.53046  -0.42215   1.49933
  -3.29104  -0.18273   1.49933
  -3.05162  -0.18273   1.73875
  -2.33336   0.05669   1.49933
  -2.33336   0.05669   1.49933
  -1.85452   0.29611   1.25991
  -1.61510   0.29611   1.25991
  -1.13626   0.05669   1.25991
  -0.89684   0.29611   1.49933
  -0.65742   0.29611   1.49933
  -0.41800   0.29611   1.49933
   0.06084   0.05669   1.25991
   0.53968  -0.18273   1.25991
   0.77910  -0.18273   1.25991
   1.25794  -0.18273   1.02049
   1.49736  -0.42215   0.78107
   1.97620  -0.66157   0.78107
   2.45504  -0.66157   0.54165
   2.93388  -0.18273   0.30223
   3.17330   0.05669   0.30223
   3.65214   0.05669   0.06281
   3.89156   0.53553  -0.17661
   4.37040   0.77495  -0.17661
   4.60982   0.77495  -0.17661
   4.84924   0.53553  -0.17661
   5.32808   0.53553  -0.41603
   5.56750   0.29611  -0.41603
   5.80692   0.29611  -0.41603
   6.04634   0.05669  -0.41603
   6.04634   0.05669  -0.41603
   6.04634   0.05669  -0.41603
   6.04634   0.29611  -0.41603
   6.04634   0.29611  -0.41603
   6.04634   0.29611  -0.41603
   6.04634   0.29611  -0.41603
   5.80692   0.53553  -0.41603
   5.80692   0.29611  -0.41603
   5.56750   0.29611  -0.65545
   5.32808   0.29611  -0.41603
   5.32808   0.29611  -0.41603
   5.08866   0.53553  -0.41603
   5.08866   0.29611  -0.41603
   4.60982   0.29611  -0.41603
   4.60982   0.29611  -0.41603
   4.13098   0.29611  -0.41603
   3.89156   0.29611  -0.17661
   3.89156   0.05669  -0.17661
   3.41272  -0.18273   0.06281
   3.17330  -0.42215   0.30223
   2.93388  -0.42215   0.30223
   2.69446  -0.66157   0.30223
   2.45504  -0.90099   0.30223
   2.21562  -0.90099   0.30223
   1.97620  -1.14041   0.06281
   1.73678  -1.37983   0.06281
   1.49736  -1.37983  -0.17661
   1.01852  -1.61925  -0.17661
   0.77910  -1.61925  -0.41603
   0.30026  -1.61925  -0.65545
  -0.17858  -1.61925  -0.65545
  -0.41800  -1.61925  -0.65545
  -0.89684  -1.61925  -0.65545
  -1.37568  -1.37983  -0.41603
  -1.61510  -1.14041  -0.41603
  -1.85452  -0.90099  -0.41603
  -2.09394  -0.66157  -0.17661
  -2.57278  -0.42215  -0.17661
  -2.81220   0.05669  -0.17661
  -2.81220   0.29611   0.06281
  -3.05162   0.53553   0.06281
  -3.29104   0.53553   0.30223
  -3.53046   1.01437   0.06281
  -3.76988   0.77495   0.30223
  -3.76988   0.77495   0.30223
  -4.00930   0.77495   0.30223
  -4.00930   0.77495   0.30223
  -4.24872   0.77495   0.30223
  -4.24872   0.29611   0.54165
  -4.24872   0.29611   0.30223
  -4.48814  -0.18273   0.30223
  -4.72756   0.05669   0.30223
  -4.72756  -0.18273   0.54165
  -4.72756   0.05669   0.54165
  -4.72756   0.29611   0.54165
  -4.72756   0.29611   0.54165
  -4.72756   0.53553   0.54165
  -4.48814   0.53553   0.54165
  -4.48814   0.77495   0.54165
  -4.48814   0.77495   0.54165
  -4.00930   0.77495   0.78107
  -4.00930   0.77495   0.54165
  -3.76988   1.01437   0.30223
  -3.53046   1.01437   0.30223
  -3.29104   1.01437   0.30223
  -3.29104   1.25379   0.30223
  -2.81220   1.25379   0.06281
  -2.57278   1.25379   0.06281
  -2.33336   1.25379   0.06281
  -2.09394   0.77495   0.06281
  -1.85452   0.77495   0.06281
  -1.37568   0.77495  -0.17661
  -1.13626   0.29611  -0.41603
  -0.65742   0.29611  -0.17661
  -0.41800   0.29611  -0.17661
  -0.17858   0.29611   0.06281
   0.06084   0.29611  -0.17661
   0.30026   0.29611   0.06281
   0.53968   0.29611  -0.17661
   0.77910   0.53553   0.06281
   1.01852   0.53553   0.06281
   1.01852   0.53553   0.06281
   1.25794   0.53553   0.06281
   1.25794   0.53553  -0.17661
   1.49736   0.53553  -0.17661
   1.73678   0.05669  -0.41603
   1.73678   0.05669  -0.65545
   1.73678   0.05669  -0.65545
   1.97620   0.05669  -0.89487
   2.45504   0.05669  -0.89487
   2.69446   0.05669  -0.89487
   2.93388   0.53553  -0.89487
   2.93388   0.29611  -0.89487
   3.41272   0.53553  -1.13429
   3.65214   0.29611  -1.13429
   4.13098   0.29611  -1.37371
   4.37040   0.05669  -1.37371
   4.37040   0.29611  -1.13429
   4.60982   0.05669  -1.61313
   4.84924   0.05669  -1.61313
   4.84924  -0.18273  -1.85255
   4.60982  -0.42215  -1.85255
   4.37040  -0.42215  -1.85255
   4.37040  -0.66157  -1.85255
   4.13098  -0.42215  -1.85255
   3.89156  -0.42215  -1.85255
   3.41272  -0.42215  -1.61313
   2.93388  -0.42215  -1.61313
   2.45504  -0.18273  -1.37371
   1.97620  -0.42215  -1.13429
   1.73678  -0.42215  -1.13429
   1.25794  -0.42215  -1.13429
   1.01852  -0.66157  -0.89487
   0.77910  -0.66157  -0.89487
   0.30026  -0.66157  -0.89487
   0.30026  -0.42215  -0.89487
   0.06084  -0.42215  -0.89487
  -0.17858  -0.42215  -0.89487
  -0.41800  -0.42215  -0.89487
  -0.89684  -0.42215  -0.89487
  -1.37568  -0.42215  -0.89487
  -1.37568  -0.42215  -0.89487
  -2.09394  -0.66157  -0.89487
  -2.33336  -0.90099  -0.89487
  -2.81220  -0.90099  -0.65545
  -3.05162  -0.90099  -0.65545
  -3.29104  -0.90099  -0.65545
  -3.76988  -0.90099  -0.65545
  -4.00930  -0.66157  -0.41603
  -4.00930  -0.42215  -0.41603
  -4.00930  -0.42215  -0.17661
  -4.24872  -0.66157   0.06281
  -4.24872  -0.42215   0.06281
  -4.24872  -0.42215   0.06281
  -4.24872  -0.66157   0.06281
  -4.00930  -0.42215   0.06281
  -4.00930  -0.42215   0.06281
  -4.00930  -0.18273   0.06281
  -4.00930  -0.18273   0.06281
  -4.00930  -0.42215   0.06281
  -3.76988  -0.66157   0.06281
  -3.53046  -0.66157   0.30223
  -3.53046  -0.66157   0.30223
  -3.53046  -0.66157   0.30223
  -3.29104  -0.42215   0.30223
  -3.05162  -0.18273   0.54165
  -2.81220  -0.18273   0.78107
  -2.81220  -0.18273   0.54165
