********************************************************************************
              CENTRO DE INSTRUMENTACION Y REGISTRO SISMICO  A.C.

    Anaxagoras 814, Col. Narvarte, Benito Juarez, C.P. 03020 Mexico, D.F.
           Tels. 5687 45 42/ 5687 45  82             Fax. 5669 25 12
********************************************************************************
ARCHIVO ESTANDAR DE ACELERACION:
VERSION DEL FORMATO                    : 2.0
NOMBRE DEL ARCHIVO                     : AE0220140510073601
FECHA Y HORA DE CREACION               : 23/MAY/14, 10:30
REF. CATALOGO ACELEROGRAMAS, SMIS 1996 : REGISTRO No.     /PAG.


================================================================================
DATOS DE LA ESTACION:
NOMBRE DE LA ESTACION                  : ESC. PRIM. "GONZÁLEZ GARZÓN"
CLAVE DE LA ESTACION                   : AE02
LOCALIZACION DE LA ESTACION            : Del. Venustiano Carranza,              
                                       : Col. El Arenal 4a. Sección,            
                                       : Calle Xico esq. con calle Xocoyote.    
                                       :                                        
                                       : 
COORDENADAS DE LA ESTACION             : 19.4290 LAT. N
                                       : 99.0584 LONG. W
ALTITUD (msnm)                         : 2232
TIPO DE SUELO                          : Arcilloso, zona lago                
                                       :                           
                                       : 
INSTITUCION RESPONSABLE                : CIRES
                                       : 

================================================================================
DATOS DEL ACELEROGRAFO:
MODELO DEL ACELEROGRAFO                : RADESD
NUMERO DE SERIE DEL ACELEROGRAFO       : 242
NUMERO DE CANALES                      : 3
ORIENTACION C1-C6 (rumbo;orientacion)  : /N00E/+V/N90W
ORIENTACION C7-C12 (rumbo;orientacion) : 
VEL. DE MUESTREO, C1-C6 (muestras/s)   : /100/100/100
VEL. DE MUESTREO, C7-C12 (muestras/s)  : 
ESC. COMPLETA DE SENSORES, C1-C6, (g)  : /0.5/0.5/0.5
ESC. COMPLETA DE SENSORES, C7-C12, (g) : 
FREC. NAT. DE SENSORES, C1-C6, (Hz)    : /30/30/30
FREC. NAT. DE SENSORES, C7-C12, (Hz)   : 
AMORTIGUAMIENTO DE SENSORES, C1-C6     : /0.733/0.750/0.700
AMORTIGUAMIENTO DE SENSORES, C7-C12    : 
INTERVALO DE MUESTREO, C1-C6, (s)      : /0.01/0.01/0.01
INTERVALO DE MUESTREO, C7-C12, (s)     : 
UMBRAL DE DISPARO, C1-C6, (Gal)        : /1.65/9.58/2.69
UMBRAL DE DISPARO, C7-C12, (Gal)       : 
MEMORIA DE PREEVENTO (s)               : 44.0
TIEMPO DE POSEVENTO (s)                : 64.0


================================================================================
DATOS DEL SISMO:
FECHA DEL SISMO (GMT)                  : 10/MAY/14
HORA EPICENTRO (GMT)                   : 07:36:01.0
MAGNITUD(ES)                           : /Mc=6.1
COORDENADAS DEL EPICENTRO              : 17.06 LAT. N
                                       : 100.95 LONG. W
PROFUNDIDAD FOCAL (km)                 : 12
FUENTE DE LOS DATOS EPICENTRALES       : SSN
                                       : INSTITUTO DE GEOFISICA, UNAM

================================================================================
DATOS DE ESTE REGISTRO:
HORA DE LA PRIMERA MUESTRA (GMT)       : 07:37:10.00
EXACTITUD DEL TIEMPO (s)               : 0.01
DURACION DEL REGISTRO (s), C1-C6       : /283.2/283.2/283.2
DURACION DEL REGISTRO (s), C7-C12      : 
NUM. TOTAL DE MUESTRAS, C1-C6          : /28320/28320/28320
NUM. TOTAL DE MUESTRAS, C7-C12         : 
ACEL. MAX. (Gal), C1-C6                : /15.58392/2.91538/7.52368
ACEL. MAX., C1-C6, EN LA MUESTRA       : /8648/9365/8867
ACEL. MAX. (Gal), C7-C12               : 
ACEL. MAX., C7-C12, EN LA MUESTRA      : 
UNIDADES DE LOS DATOS                  : Gal (cm/s/s)
FACTOR DE DECIMACION                   : 1
FORMATO DATOS (FORTRAN,10 campos/dato) : 3F10.5


================================================================================
CALIDAD DEL ACELEROGRAMA:
REGISTRO DIGITAL COMPLETO CON TIEMPO ABSOLUTO CORRECTO.


================================================================================
COMENTARIOS:














================================================================================
DATOS DE ACELERACION:
---------+---------+---------+---------+---------+---------+---------+---------+
   CANAL-1   CANAL-2   CANAL-3   CANAL-4   CANAL-5   CANAL-6   CANAL-7   CANAL-8
      N00E        +V      N90W
---------+---------+---------+---------+---------+---------+---------+---------+
[...]
  -4.99125  -1.13979  -4.56704
  -4.88651  -1.19965  -4.82142
  -4.73687  -1.25950  -5.06084
  -4.51241  -1.30440  -5.30026
  -4.24307  -1.36425  -5.46486
  -3.92883  -1.42411  -5.59954
  -3.58466  -1.48396  -5.67435
  -3.27042  -1.52885  -5.79406
  -2.95618  -1.51389  -5.86888
  -2.65691  -1.55878  -5.92874
  -2.38756  -1.55878  -5.92874
  -2.08828  -1.60367  -5.89881
  -1.80397  -1.63360  -5.86888
  -1.47477  -1.61863  -5.91377
  -1.17550  -1.63360  -5.97363
  -0.92111  -1.60367  -6.00356
  -0.63680  -1.52885  -6.00356
  -0.30760  -1.49892  -6.00356
   0.00664  -1.40914  -6.06341
   0.33584  -1.36425  -6.10830
   0.70994  -1.27447  -6.16816
   1.06907  -1.18469  -6.18312
   1.41324  -1.07994  -6.16816
   1.77237  -0.97519  -6.13823
   2.08660  -0.90037  -6.07838
   2.50559  -0.81059  -5.95867
   2.83479  -0.72081  -5.82399
   3.17896  -0.63103  -5.67435
   3.52313  -0.55621  -5.47983
   3.83736  -0.46642  -5.27033
   4.22642  -0.34671  -5.00099
   4.46584  -0.24197  -4.73164
   4.69030  -0.13722  -4.44733
   4.91476  -0.00255  -4.13309
   5.15418   0.13213  -3.81885
   5.33374   0.26680  -3.50461
   5.45345   0.34162  -3.19037
   5.60309   0.44636  -2.89110
   5.79762   0.52118  -2.65168
   5.91733   0.61097  -2.38233
   6.06696   0.68578  -2.12794
   6.21660   0.76060  -1.87356
   6.30638   0.83542  -1.55932
   6.35128   0.85039  -1.28997
   6.33631   0.85039  -0.97573
   6.26149   0.85039  -0.66149
   6.11186   0.85039  -0.28740
   5.93229   0.86535   0.07173
   5.67791   0.88031   0.40093
   5.48338   0.94017   0.70021
   5.22899   0.97010   1.01445
   4.97461   0.97010   1.31372
   4.67533   0.98506   1.56811
   4.36110   1.02995   1.82249
   4.03189   1.07484   2.06191
   3.62787   1.04491   2.24147
   3.26874   1.10477   2.43600
   2.84976   1.11973   2.55571
   2.46070   1.10477   2.70535
   2.04171   1.13470   2.79513
   1.62273   1.11973   2.88492
   1.21871   1.10477   2.94477
   0.82965   1.05988   2.98966
   0.41066   1.02995   3.06448
  -0.02329   0.98506   3.10937
  -0.44227   0.95513   3.16923
  -0.86126   0.89528   3.27397
  -1.26528   0.89528   3.33383
  -1.72915   0.83542   3.39368
  -2.16310   0.80549   3.42361
  -2.59705   0.79053   3.46850
  -3.03100   0.76060   3.54332
  -3.42006   0.73068   3.57325
  -3.79415   0.73068   3.57325
  -4.19817   0.73068   3.57325
  -4.55731   0.77557   3.57325
  -4.87154   0.82046   3.55829
  -5.21571   0.79053   3.54332
  -5.50002   0.80549   3.52836
  -5.70951   0.80549   3.48347
  -5.90404   0.80549   3.45354
  -6.11354   0.83542   3.39368
  -6.32303   0.85039   3.24405
  -6.50259   0.88031   3.07945
  -6.69712   0.82046   2.88492
  -6.87669   0.80549   2.72031
  -7.08618   0.79053   2.54075
  -7.31064   0.79053   2.34622
  -7.55006   0.80549   2.13673
  -7.78948   0.80549   1.91227
  -8.01393   0.83542   1.71774
  -8.19350   0.89528   1.55314
  -8.41796   0.92520   1.34365
  -8.64241   0.95513   1.16408
  -8.80701   0.94017   0.95459
  -8.97161   0.91024   0.80495
  -9.18111   0.91024   0.67028
  -9.40556   0.85039   0.56553
  -9.61506   0.76060   0.49071
  -9.77966   0.70075   0.41590
  -9.94426   0.53615   0.37100
 -10.07893   0.37155   0.37100
 -10.22857   0.16205   0.43086
 -10.31835  -0.01751   0.49071
 -10.37821  -0.22700   0.55057
 -10.43806  -0.42153   0.65532
 -10.43806  -0.58614   0.77503
 -10.45303  -0.78066   0.87977
 -10.43806  -0.87045   1.01445
 -10.40814  -0.94527   1.10423
 -10.33332  -1.03505   1.23890
 -10.22857  -1.07994   1.31372
 -10.07893  -1.10987   1.34365
 -10.00411  -1.15476   1.38854
  -9.80959  -1.18469   1.44840
  -9.60009  -1.21461   1.46336
  -9.33074  -1.25950   1.46336
  -9.03147  -1.27447   1.44840
  -8.68730  -1.36425   1.40350
  -8.34314  -1.37921   1.35861
  -7.95408  -1.42411   1.34365
  -7.53509  -1.49892   1.29876
  -7.07122  -1.52885   1.28379
  -6.60734  -1.55878   1.28379
  -6.09857  -1.63360   1.28379
  -5.55988  -1.67849   1.23890
  -5.05111  -1.75331   1.17905
  -4.55731  -1.81316   1.17905
  -4.03357  -1.85805   1.13416
  -3.52481  -1.85805   1.05934
  -3.06093  -1.88798   0.95459
  -2.58209  -1.88798   0.86481
  -2.11821  -1.93287   0.77503
  -1.65434  -1.93287   0.68524
  -1.22039  -1.91791   0.68524
  -0.83133  -1.88798   0.65532
  -0.42731  -1.79820   0.64035
  -0.06818  -1.76827   0.64035
   0.32088  -1.67849   0.67028
   0.72490  -1.55878   0.70021
   1.09900  -1.45403   0.74510
   1.47309  -1.34929   0.77503
   1.87711  -1.25950   0.78999
   2.31106  -1.16972   0.77503
   2.77494  -1.09490   0.74510
   3.22385  -1.00512   0.78999
   3.62787  -0.99016   0.78999
   4.04686  -0.94527   0.74510
   4.39102  -0.91534   0.70021
   4.75015  -0.88541   0.61042
   5.06439  -0.87045   0.55057
   5.28885  -0.90037   0.50568
   5.49834  -0.88541   0.46079
   5.61805  -0.93030   0.40093
   5.78265  -0.91534   0.38597
   5.88740  -0.87045   0.37100
   5.91733  -0.88541   0.34108
   5.90236  -0.84052   0.35604
   5.90236  -0.78066   0.35604
   5.85747  -0.69088   0.35604
   5.84251  -0.61606   0.28122
   5.79762  -0.57117   0.25129
   5.70783  -0.45146   0.16151
   5.60309  -0.39161   0.10166
   5.49834  -0.28686  -0.00309
   5.40856  -0.21204  -0.10784
   5.25892  -0.09233  -0.18265
   5.09432  -0.01751  -0.27244
   4.92972   0.08723  -0.34726
   4.69030   0.17702  -0.43704
   4.49577   0.26680  -0.48193
   4.28628   0.37155  -0.51186
   4.06182   0.46133  -0.48193
   3.83736   0.53615  -0.45200
   3.64284   0.64089  -0.40711
   3.44831   0.71571  -0.34726
   3.29867   0.77557  -0.22755
   3.19392   0.82046  -0.13776
   3.05925   0.85039   0.01187
   2.99939   0.86535   0.10166
   2.99939   0.86535   0.22137
   3.01436   0.88031   0.32611
   3.08918   0.83542   0.41590
   3.11910   0.86535   0.49071
   3.17896   0.85039   0.56553
   3.26874   0.86535   0.64035
   3.43334   0.85039   0.68524
   3.56802   0.82046   0.74510
   3.67276   0.85039   0.80495
   3.79247   0.91024   0.87977
   3.91218   0.97010   0.93963
   4.03189   1.02995   1.01445
   4.19649   1.07484   1.05934
   4.33117   1.16462   1.08927
   4.42095   1.28434   1.17905
   4.46584   1.38908   1.20898
   4.51073   1.52376   1.29876
   4.54066   1.61354   1.38854
   4.54066   1.70332   1.43343
   4.46584   1.74821   1.49329
   4.34613   1.82303   1.61300
   4.19649   1.82303   1.67285
   4.09175   1.77814   1.73271
   3.97204   1.79310   1.76263
   3.88226   1.76318   1.79256
   3.77751   1.70332   1.83745
   3.67276   1.67339   1.88234
   3.59794   1.67339   1.94220
   3.47823   1.65843   1.97213
   3.37349   1.65843   2.04695
   3.34356   1.64347   2.15169
   3.35852   1.68836   2.24147
   3.40342   1.70332   2.24147
   3.29867   1.71828   2.24147
   3.17896   1.71828   2.31629
   3.13407   1.73325   2.37615
   3.10414   1.73325   2.37615
   2.98443   1.70332   2.37615
   2.84976   1.64347   2.30133
   2.74501   1.59857   2.24147
   2.68515   1.55368   2.10680
   2.56544   1.43397   2.03198
   2.41581   1.29930   1.95716
   2.31106   1.16462   1.83745
   2.22128   1.00002   1.74767
   2.13150   0.82046   1.64292
   2.04171   0.62593   1.56811
   2.04171   0.47629   1.46336
   2.05668   0.31169   1.32869
   2.13150   0.17702   1.28379
   2.22128   0.05731   1.25387
   2.23624  -0.04744   1.25387
   2.29610  -0.16715   1.28379
   2.35595  -0.25693   1.29876
   2.38588  -0.33175   1.32869
   2.38588  -0.42153   1.32869
   2.40084  -0.49635   1.31372
   2.38588  -0.57117   1.34365
   2.37092  -0.60110   1.38854
   2.35595  -0.69088   1.46336
   2.35595  -0.69088   1.53818
   2.38588  -0.76570   1.58307
   2.37092  -0.82556   1.61300
   2.35595  -0.90037   1.61300
   2.38588  -0.93030   1.67285
   2.41581  -0.96023   1.73271
   2.46070  -0.99016   1.82249
   2.50559  -0.99016   1.85242
   2.55048  -1.02008   1.94220
   2.59537  -1.06498   2.00205
   2.56544  -1.06498   2.03198
   2.52055  -1.03505   2.10680
   2.41581  -1.03505   2.18162
   2.29610  -1.03505   2.22651
   2.13150  -1.03505   2.24147
   1.93697  -1.02008   2.25644
   1.68258  -1.00512   2.27140
   1.39827  -1.02008   2.28637
   1.11396  -0.94527   2.34622
   0.69497  -0.90037   2.39111
   0.29095  -0.85548   2.42104
  -0.09810  -0.82556   2.43600
  -0.48716  -0.73577   2.43600
  -0.95104  -0.67592   2.49586
  -1.35506  -0.58614   2.57068
  -1.75908  -0.54124   2.63053
  -2.19303  -0.42153   2.70535
  -2.62698  -0.27190   2.78017
  -2.97115  -0.19708   2.85499
  -3.39013  -0.07737   2.91484
  -3.79415   0.05731   2.98966
  -4.18321   0.16205   3.06448
  -4.51241   0.28176   3.07945
  -4.88651   0.34162   3.09441
  -5.18578   0.40147   3.09441
  -5.48506   0.47629   3.09441
  -5.76937   0.53615   3.07945
  -6.03872   0.53615   2.98966
  -6.29310   0.55111   2.89988
  -6.51756   0.53615   2.81010
  -6.75698   0.50622   2.67542
  -6.90662   0.47629   2.52579
  -7.10114   0.43140   2.30133
  -7.28071   0.38651   2.06191
  -7.49020   0.31169   1.83745
  -7.59495   0.23687   1.53818
  -7.71466   0.17702   1.26883
  -7.90919   0.07227   0.98452
  -8.04386   0.01242   0.73013
  -8.16357  -0.04744   0.43086
  -8.28328  -0.09233   0.17648
  -8.34314  -0.13722  -0.12280
  -8.34314  -0.16715  -0.43704
  -8.32817  -0.15219  -0.64653
  -8.32817  -0.19708  -0.88595
  -8.31321  -0.24197  -1.09544
  -8.25335  -0.24197  -1.28997
  -8.17854  -0.33175  -1.45457
  -8.07379  -0.37664  -1.57428
  -7.98401  -0.46642  -1.69399
  -7.80444  -0.51132  -1.78378
  -7.60991  -0.57117  -1.87356
  -7.37049  -0.60110  -1.94838
  -7.11611  -0.66095  -2.02320
  -6.78691  -0.69088  -2.08305
  -6.51756  -0.73577  -2.15787
  -6.17339  -0.76570  -2.26262
  -5.81426  -0.76570  -2.41225
  -5.42520  -0.73577  -2.59182
  -5.02118  -0.72081  -2.74146
  -4.55731  -0.73577  -2.98088
  -4.06350  -0.67592  -3.17541
  -3.47991  -0.66095  -3.36994
  -2.89633  -0.63103  -3.59439
  -2.23792  -0.60110  -3.84878
  -1.56455  -0.55621  -4.07323
  -0.84629  -0.60110  -4.32762
  -0.12803  -0.64599  -4.52215
   0.62016  -0.66095  -4.74660
   1.27856  -0.67592  -4.94113
   1.96689  -0.66095  -5.07580
   2.68515  -0.66095  -5.24041
   3.41838  -0.60110  -5.40501
   4.15160  -0.58614  -5.58457
   4.91476  -0.57117  -5.71925
   5.66294  -0.54124  -5.88385
   6.39617  -0.51132  -5.95867
   7.09946  -0.46642  -6.10830
   7.80276  -0.43650  -6.24298
   8.47613  -0.39161  -6.31780
   9.14950  -0.39161  -6.39262
   9.77798  -0.31679  -6.46743
  10.37653  -0.25693  -6.55722
  10.99004  -0.19708  -6.60211
  11.57363  -0.21204  -6.67693
  12.15722  -0.19708  -6.72182
  12.65102  -0.16715  -6.78167
  13.14482  -0.18211  -6.81160
  13.60870  -0.18211  -6.85649
  13.99776  -0.16715  -6.85649
  14.29703  -0.12226  -6.79664
  14.59631  -0.10729  -6.72182
  14.88062  -0.03248  -6.58714
  15.06018  -0.00255  -6.45247
  15.23975   0.08723  -6.30283
  15.38939   0.16205  -6.16816
  15.52406   0.20694  -6.04845
  15.58392   0.32665  -5.86888
  15.56895   0.40147  -5.67435
  15.58392   0.50622  -5.47983
  15.58392   0.55111  -5.33019
  15.52406   0.61097  -5.09077
  15.34450   0.70075  -4.89624
  15.14997   0.76060  -4.71667
  14.97040   0.82046  -4.50718
  14.74595   0.83542  -4.31265
  14.35689   0.85039  -4.10316
  13.87805   0.89528  -3.86374
  13.24957   0.88031  -3.69914
  12.63606   0.89528  -3.42979
  11.97765   0.89528  -3.23526
  11.33421   0.85039  -3.02577
  10.64588   0.86535  -2.78635
   9.83783   0.85039  -2.53196
   9.01483   0.85039  -2.27758
   8.16189   0.85039  -2.03816
   7.30896   0.88031  -1.81370
   6.47099   0.82046  -1.52939
   5.58812   0.77557  -1.26005
   4.72023   0.79053  -1.00566
   3.86729   0.76060  -0.75128
   2.99939   0.76060  -0.46697
   2.11653   0.73068  -0.21258
   1.21871   0.73068   0.10166
   0.35081   0.71571   0.43086
  -0.53205   0.70075   0.70021
  -1.39995   0.71571   0.98452
  -2.25289   0.76060   1.29876
  -3.12078   0.77557   1.58307
  -3.91386   0.80549   1.89731
  -4.73687   0.83542   2.19658
  -5.52995   0.92520   2.52579
  -6.29310   0.98506   2.81010
  -7.01136   1.02995   3.10937
  -7.68473   1.07484   3.36376
  -8.35810   1.11973   3.67800
  -9.03147   1.11973   3.94734
  -9.65995   1.14966   4.24662
 -10.28843   1.11973   4.44115
 -10.82712   1.10477   4.57582
 -11.27603   1.08981   4.68057
 -11.72495   1.05988   4.69553
 -12.15890   1.04491   4.71050
 -12.54795   1.02995   4.66560
 -12.87716   1.02995   4.54589
 -13.11658   1.02995   4.38129
 -13.32607   0.98506   4.15684
 -13.47571   0.91024   3.90245
 -13.59542   0.88031   3.63310
 -13.61038   0.89528   3.33383
 -13.53556   0.80549   3.01959
 -13.38592   0.77557   2.69039
 -13.14650   0.71571   2.37615
 -12.89212   0.65586   2.01702
 -12.56292   0.55111   1.70278
 -12.24868   0.44636   1.44840
 -11.85962   0.32665   1.22394
 -11.42567   0.25184   1.04437
 -10.97676   0.10220   0.83488
 -10.49792   0.02738   0.64035
 -10.00411  -0.04744   0.47575
  -9.51031  -0.19708   0.28122
  -9.00154  -0.28686   0.07173
  -8.52270  -0.42153  -0.12280
  -8.02890  -0.52628  -0.37718
  -7.53509  -0.69088  -0.66149
  -7.14604  -0.85548  -0.96077
  -6.74201  -1.03505  -1.27501
  -6.32303  -1.18469  -1.63414
  -5.91901  -1.33432  -2.02320
  -5.48506  -1.49892  -2.38233
  -5.09600  -1.63360  -2.80131
  -4.76680  -1.76827  -3.17541
  -4.37774  -1.82813  -3.57943
  -4.01861  -1.99273  -3.95352
  -3.71933  -2.15733  -4.28272
  -3.44999  -2.24711  -4.53711
  -3.25546  -2.36682  -4.76157
  -3.04597  -2.50150  -4.92617
  -2.91129  -2.59128  -5.07580
  -2.76165  -2.69603  -5.18055
  -2.67187  -2.75588  -5.22544
  -2.55216  -2.83070  -5.28530
  -2.47734  -2.90552  -5.33019
  -2.37260  -2.87559  -5.34515
  -2.29778  -2.90552  -5.33019
  -2.19303  -2.87559  -5.28530
  -2.05836  -2.81574  -5.22544
  -1.96857  -2.71099  -5.15062
  -1.86383  -2.62121  -5.03091
  -1.72915  -2.50150  -4.91120
  -1.56455  -2.41171  -4.76157
  -1.41492  -2.29200  -4.55207
  -1.26528  -2.20222  -4.35754
  -1.13060  -2.09747  -4.14805
  -0.98097  -2.02266  -3.89367
  -0.83133  -1.93287  -3.60936
  -0.75651  -1.84309  -3.31008
  -0.69665  -1.73834  -2.95095
  -0.66673  -1.63360  -2.60678
  -0.65176  -1.49892  -2.23269
  -0.65176  -1.37921  -1.84363
  -0.66673  -1.22958  -1.46954
  -0.74155  -1.05001  -1.17026
  -0.72658  -0.88541  -0.87099
  -0.68169  -0.70585  -0.51186
  -0.72658  -0.57117  -0.18265
  -0.71162  -0.37664  -0.10784
  -0.60687  -0.16715   0.05677
  -0.45723   0.01242   0.22137
  -0.33752   0.22191   0.44582
  -0.18789   0.41644   0.59546
  -0.06818   0.56607   0.70021
   0.11139   0.73068   0.86481
   0.26103   0.88031   1.01445
   0.35081   0.97010   1.14912
   0.48548   1.07484   1.31372
   0.59023   1.17959   1.50825
   0.63512   1.22448   1.73271
   0.68001   1.25441   1.89731
   0.76979   1.35915   2.09184
   0.82965   1.38908   2.30133
   0.88950   1.44894   2.48089
   0.91943   1.52376   2.63053
   0.91943   1.53872   2.75024
   0.93439   1.56865   2.85499
   0.90447   1.58361   2.86995
   0.90447   1.61354   2.91484
   0.88950   1.64347   2.91484
   0.88950   1.61354   2.85499
   0.91943   1.61354   2.76521
   0.96432   1.67339   2.69039
   0.96432   1.65843   2.66046
   1.00921   1.67339   2.58564
   1.05410   1.71828   2.45097
   1.08403   1.70332   2.31629
   1.12892   1.74821   2.19658
   1.18878   1.77814   2.04695
   1.26360   1.76318   1.88234
   1.35338   1.73325   1.77760
   1.45813   1.76318   1.55314
   1.57784   1.73325   1.32869
   1.68258   1.68836   1.13416
   1.78733   1.65843   0.93963
   1.89208   1.62850   0.73013
   1.99682   1.50879   0.53561
