********************************************************************************
              CENTRO DE INSTRUMENTACION Y REGISTRO SISMICO  A.C.

    Anaxagoras 814, Col. Narvarte, Benito Juarez, C.P. 03020 Mexico, D.F.
           Tels. 5687 45 42/ 5687 45  82             Fax. 5669 25 12
********************************************************************************
ARCHIVO ESTANDAR DE ACELERACION:
VERSION DEL FORMATO                    : 2.0
NOMBRE DEL ARCHIVO                     : AE0220100630072227
FECHA Y HORA DE CREACION               : 20/JUL/10, 12:41
REF. CATALOGO ACELEROGRAMAS, SMIS 1996 : REGISTRO No.     /PAG.


================================================================================
DATOS DE LA ESTACION:
NOMBRE DE LA ESTACION                  : ESC. PRIM. "GONZÁLEZ GARZÓN"
CLAVE DE LA ESTACION                   : AE02
LOCALIZACION DE LA ESTACION            : Del. Venustiano Carranza,              
                                       : Col. El Arenal 4a. Sección,            
                                       : Calle Xico esq. con calle Xocoyote.    
                                       :                                        
                                       : 
COORDENADAS DE LA ESTACION             : 19.4290 LAT. N
                                       : 99.0584 LONG. W
ALTITUD (msnm)                         : 2232
TIPO DE SUELO                          : Arcilloso, zona lago                
                                       :                           
                                       : 
INSTITUCION RESPONSABLE                : CIRES
                                       : 

================================================================================
DATOS DEL ACELEROGRAFO:
MODELO DEL ACELEROGRAFO                : RADESD
NUMERO DE SERIE DEL ACELEROGRAFO       : 242
NUMERO DE CANALES                      : 3
ORIENTACION C1-C6 (rumbo;orientacion)  : /N00E/+V/N90W
ORIENTACION C7-C12 (rumbo;orientacion) : 
VEL. DE MUESTREO, C1-C6 (muestras/s)   : /100/100/100
VEL. DE MUESTREO, C7-C12 (muestras/s)  : 
ESC. COMPLETA DE SENSORES, C1-C6, (g)  : /0.5/0.5/0.5
ESC. COMPLETA DE SENSORES, C7-C12, (g) : 
FREC. NAT. DE SENSORES, C1-C6, (Hz)    : /30/30/30
FREC. NAT. DE SENSORES, C7-C12, (Hz)   : 
AMORTIGUAMIENTO DE SENSORES, C1-C6     : /0.733/0.750/0.700
AMORTIGUAMIENTO DE SENSORES, C7-C12    : 
INTERVALO DE MUESTREO, C1-C6, (s)      : /0.01/0.01/0.01
INTERVALO DE MUESTREO, C7-C12, (s)     : 
UMBRAL DE DISPARO, C1-C6, (Gal)        : /2.39/9.58/9.58
UMBRAL DE DISPARO, C7-C12, (Gal)       : 
MEMORIA DE PREEVENTO (s)               : 56.0
TIEMPO DE POSEVENTO (s)                : 64.0


================================================================================
DATOS DEL SISMO:
FECHA DEL SISMO (GMT)                  : 30/JUN/10
HORA EPICENTRO (GMT)                   : 07:22:27.0
MAGNITUD(ES)                           : /Mc=6.0
COORDENADAS DEL EPICENTRO              : 16.22 LAT. N
                                       : 98.03 LONG. W
PROFUNDIDAD FOCAL (km)                 : 8
FUENTE DE LOS DATOS EPICENTRALES       : SSN
                                       : INSTITUTO DE GEOFISICA, UNAM

================================================================================
DATOS DE ESTE REGISTRO:
HORA DE LA PRIMERA MUESTRA (GMT)       : 07:24:14.00
EXACTITUD DEL TIEMPO (s)               : 0.01
DURACION DEL REGISTRO (s), C1-C6       : /149.75/149.75/149.75
DURACION DEL REGISTRO (s), C7-C12      : 
NUM. TOTAL DE MUESTRAS, C1-C6          : /14975/14975/14975
NUM. TOTAL DE MUESTRAS, C7-C12         : 
ACEL. MAX. (Gal), C1-C6                : /10.27948/3.63899/8.15442
ACEL. MAX., C1-C6, EN LA MUESTRA       : /6032/7744/7257
ACEL. MAX. (Gal), C7-C12               : 
ACEL. MAX., C7-C12, EN LA MUESTRA      : 
UNIDADES DE LOS DATOS                  : Gal (cm/s/s)
FACTOR DE DECIMACION                   : 1
FORMATO DATOS (FORTRAN,10 campos/dato) : 3F10.5


================================================================================
CALIDAD DEL ACELEROGRAMA:
REGISTRO DIGITAL COMPLETO CON TIEMPO ABSOLUTO CORRECTO.


================================================================================
COMENTARIOS:














================================================================================
DATOS DE ACELERACION:
---------+---------+---------+---------+---------+---------+---------+---------+
   CANAL-1   CANAL-2   CANAL-3   CANAL-4   CANAL-5   CANAL-6   CANAL-7   CANAL-8
      N00E        +V      N90W
---------+---------+---------+---------+---------+---------+---------+---------+
[...]
   2.64921  -1.14941   1.18297
   2.40979  -0.90999   1.18297
   1.93095  -1.14941   0.94355
   1.69153  -1.14941   0.94355
   1.21269  -0.90999   1.18297
   0.97327  -0.90999   0.94355
   0.49443  -0.90999   0.94355
   0.25501  -0.90999   0.70413
   0.01559  -0.90999   0.70413
   0.01559  -0.67057   0.70413
  -0.22383  -0.67057   0.70413
   0.01559  -0.67057   0.70413
  -0.22383  -0.67057   0.70413
  -0.46325  -0.67057   0.70413
  -0.46325  -0.67057   0.70413
  -0.70267  -0.67057   0.94355
  -0.70267  -0.67057   0.94355
  -0.70267  -0.67057   0.94355
  -0.94209  -0.67057   1.18297
  -0.94209  -0.67057   1.18297
  -1.18151  -0.67057   1.42239
  -1.18151  -0.43115   1.66181
  -1.18151  -0.43115   1.66181
  -1.42093  -0.19173   1.90123
  -1.18151   0.04769   2.38007
  -1.18151   0.04769   2.38007
  -0.94209   0.28711   2.85891
  -0.70267   0.28711   2.85891
  -0.94209   0.52653   3.09833
  -0.70267   0.52653   3.33775
  -0.46325   0.52653   3.57717
  -0.46325   0.76595   3.81659
  -0.22383   0.76595   3.81659
  -0.22383   0.52653   4.05601
  -0.22383   0.76595   4.05601
  -0.22383   0.76595   4.05601
   0.01559   0.52653   4.29543
  -0.22383   0.76595   4.29543
  -0.22383   0.76595   4.29543
  -0.22383   1.00537   4.29543
  -0.22383   1.00537   4.53485
  -0.22383   1.00537   4.53485
  -0.22383   1.24479   4.53485
   0.01559   1.24479   4.53485
   0.01559   1.48421   4.53485
   0.01559   1.24479   4.29543
   0.01559   1.24479   4.05601
   0.01559   1.24479   3.81659
   0.25501   1.24479   3.57717
   0.01559   1.24479   3.33775
   0.01559   1.00537   3.09833
   0.01559   1.00537   2.85891
   0.01559   1.00537   2.38007
   0.01559   0.76595   1.90123
  -0.22383   0.76595   1.66181
   0.01559   0.52653   0.94355
  -0.22383   0.28711   0.46471
  -0.22383   0.28711  -0.01413
  -0.46325   0.04769  -0.73239
  -0.70267   0.04769  -1.21123
  -0.70267  -0.19173  -1.92949
  -0.70267  -0.43115  -2.40834
  -0.70267  -0.43115  -3.12660
  -0.70267  -0.43115  -3.60544
  -0.70267  -0.67057  -4.08428
  -0.70267  -0.67057  -4.80254
  -0.70267  -0.90999  -5.04196
  -0.46325  -0.90999  -5.52080
  -0.46325  -0.90999  -5.76022
  -0.46325  -1.14941  -5.99964
  -0.46325  -1.38883  -6.23906
  -0.46325  -1.14941  -6.47848
  -0.46325  -1.38883  -6.71790
  -0.46325  -1.62825  -6.71790
  -0.46325  -1.86767  -6.71790
  -0.70267  -1.86767  -6.71790
  -0.70267  -2.10709  -6.71790
  -0.70267  -2.10709  -6.47848
  -0.94209  -2.34651  -6.47848
  -1.42093  -2.34651  -6.23906
  -1.66035  -2.34651  -6.23906
  -1.89977  -2.34651  -6.47848
  -2.13919  -2.10709  -6.23906
  -2.37861  -2.34651  -6.23906
  -2.85745  -2.34651  -6.23906
  -2.85745  -2.34651  -5.76022
  -3.09687  -2.10709  -5.52080
  -3.33629  -1.86767  -5.28138
  -3.33629  -1.86767  -5.04196
  -3.33629  -1.86767  -4.56312
  -3.81513  -1.62825  -4.32370
  -3.81513  -1.38883  -4.08428
  -3.81513  -1.14941  -3.60544
  -4.05455  -1.14941  -3.12660
  -4.05455  -1.14941  -2.88718
  -4.05455  -0.90999  -2.40834
  -4.29397  -0.90999  -2.16891
  -4.29397  -0.67057  -1.69007
  -4.29397  -0.43115  -1.45065
  -4.29397  -0.43115  -1.21123
  -4.29397  -0.43115  -0.73239
  -4.29397   0.04769  -0.49297
  -4.29397   0.04769  -0.25355
  -4.05455   0.28711  -0.25355
  -4.29397   0.52653  -0.01413
  -4.05455   0.52653   0.22529
  -3.81513   0.76595   0.46471
  -3.57571   1.00537   0.70413
  -3.33629   1.00537   0.94355
  -3.09687   1.24479   1.18297
  -2.85745   1.24479   1.42239
  -2.61803   1.48421   1.66181
  -2.61803   1.48421   1.90123
  -2.37861   1.48421   2.14065
  -1.89977   1.48421   2.14065
  -1.66035   1.48421   2.38007
  -1.42093   1.48421   2.38007
  -1.18151   1.48421   2.38007
  -0.70267   1.48421   2.61949
  -0.22383   1.24479   2.61949
   0.01559   1.24479   2.61949
   0.49443   1.24479   2.61949
   0.49443   1.00537   2.85891
   0.97327   1.00537   3.09833
   0.97327   1.00537   3.09833
   1.21269   1.24479   3.09833
   1.69153   1.00537   3.33775
   1.69153   1.24479   3.09833
   1.93095   1.24479   3.33775
   2.17037   1.00537   3.09833
   2.64921   1.00537   3.33775
   2.88863   1.00537   3.09833
   3.36747   0.76595   3.33775
   3.60689   1.00537   3.09833
   4.08573   1.00537   3.09833
   4.56457   0.76595   2.85891
   4.80399   0.76595   2.38007
   5.04341   0.76595   2.38007
   5.04341   0.76595   1.90123
   5.28283   0.52653   1.90123
   5.52225   0.28711   1.66181
   5.28283   0.28711   1.42239
   5.52225   0.04769   1.18297
   5.28283   0.04769   0.70413
   5.28283  -0.19173   0.70413
   5.28283  -0.19173   0.46471
   5.04341  -0.19173   0.22529
   5.04341  -0.19173  -0.25355
   4.80399  -0.19173  -0.49297
   4.80399  -0.19173  -0.73239
   4.56457  -0.19173  -0.73239
   4.32515  -0.19173  -0.97181
   4.32515  -0.19173  -0.97181
   4.32515  -0.19173  -1.21123
   3.84631  -0.19173  -1.21123
   3.84631   0.04769  -1.45065
   3.60689  -0.19173  -1.45065
   3.36747   0.04769  -1.45065
   3.12805  -0.19173  -1.69007
   2.88863  -0.19173  -1.69007
   2.40979   0.04769  -1.69007
   2.17037  -0.19173  -1.92949
   1.45211  -0.19173  -1.92949
   1.21269  -0.19173  -1.92949
   0.73385  -0.19173  -1.92949
   0.25501  -0.19173  -1.92949
  -0.22383  -0.19173  -1.92949
  -0.94209  -0.19173  -1.92949
  -1.18151  -0.19173  -1.92949
  -1.66035  -0.19173  -1.92949
  -2.13919  -0.19173  -1.92949
  -2.37861  -0.19173  -2.16891
  -2.85745  -0.19173  -1.92949
  -3.09687  -0.19173  -2.16891
  -3.33629  -0.19173  -1.92949
  -3.57571  -0.19173  -1.92949
  -3.81513  -0.19173  -1.92949
  -4.05455  -0.19173  -1.92949
  -4.05455  -0.19173  -1.92949
  -4.29397  -0.19173  -1.69007
  -4.29397  -0.19173  -1.69007
  -4.53339  -0.19173  -1.45065
  -4.53339  -0.19173  -1.45065
  -5.01224   0.28711  -1.45065
  -5.01224   0.04769  -1.21123
  -5.01224   0.04769  -1.21123
  -5.25166   0.04769  -1.21123
  -5.01224   0.04769  -0.97181
  -5.25166   0.28711  -0.97181
  -5.49108   0.04769  -0.97181
  -5.49108   0.28711  -0.73239
  -5.49108   0.28711  -0.73239
  -5.49108   0.28711  -0.73239
  -5.25166   0.28711  -0.73239
  -5.01224   0.28711  -0.97181
  -5.25166   0.04769  -0.97181
  -5.01224   0.04769  -0.97181
  -4.77282   0.04769  -0.97181
  -4.53339   0.04769  -0.97181
  -4.05455   0.04769  -0.97181
  -4.05455   0.04769  -0.97181
  -3.57571  -0.19173  -0.97181
  -3.33629   0.04769  -0.97181
  -3.09687   0.04769  -1.21123
  -2.61803  -0.19173  -1.45065
  -2.37861  -0.19173  -1.45065
  -2.13919  -0.19173  -1.92949
  -1.66035  -0.19173  -1.92949
  -1.18151  -0.43115  -1.92949
  -0.94209  -0.43115  -2.16891
  -0.46325  -0.43115  -2.16891
   0.25501  -0.67057  -2.40834
   0.97327  -0.67057  -2.40834
   1.69153  -0.90999  -2.40834
   2.17037  -0.90999  -2.40834
   2.88863  -0.90999  -2.16891
   3.36747  -0.90999  -2.16891
   4.08573  -0.90999  -2.40834
   4.80399  -0.90999  -2.16891
   5.28283  -0.90999  -2.16891
   5.76167  -0.90999  -2.16891
   6.47993  -0.90999  -2.16891
   7.19819  -0.90999  -2.40834
   7.19819  -0.67057  -2.40834
   7.67703  -0.67057  -2.40834
   7.67703  -0.67057  -2.40834
   7.91645  -0.67057  -2.64776
   8.15587  -0.67057  -2.40834
   8.15587  -0.67057  -2.40834
   7.91645  -0.43115  -2.40834
   7.91645  -0.43115  -2.40834
   7.43761  -0.19173  -2.16891
   7.19819  -0.19173  -2.16891
   7.19819   0.04769  -1.92949
   6.71935   0.28711  -1.92949
   6.24051   0.28711  -1.69007
   5.76167   0.52653  -1.69007
   5.52225   0.52653  -1.45065
   5.28283   0.76595  -1.45065
   4.56457   0.76595  -1.21123
   4.32515   0.76595  -0.97181
   3.84631   0.76595  -0.97181
   3.60689   0.76595  -0.73239
   3.36747   0.76595  -0.73239
   2.88863   0.52653  -0.49297
   2.40979   0.52653  -0.49297
   1.93095   0.52653  -0.49297
   1.45211   0.28711  -0.25355
   0.97327   0.28711  -0.25355
   0.49443   0.04769  -0.01413
   0.01559   0.28711  -0.01413
  -0.22383   0.04769  -0.01413
  -0.70267   0.04769   0.22529
  -1.18151   0.28711   0.22529
  -1.66035   0.04769   0.22529
  -1.89977   0.04769   0.46471
  -2.37861   0.28711   0.46471
  -2.61803   0.28711   0.70413
  -2.85745   0.28711   0.94355
  -3.33629   0.28711   0.94355
  -3.57571   0.28711   1.18297
  -4.05455   0.04769   1.42239
  -4.29397   0.28711   1.66181
  -4.53339   0.28711   1.90123
  -4.77282   0.52653   2.14065
  -5.01224   0.28711   2.61949
  -5.01224   0.52653   2.85891
  -5.25166   0.52653   3.09833
  -5.49108   0.28711   3.57717
  -5.73050   0.52653   3.57717
  -5.96992   0.52653   3.81659
  -5.96992   0.28711   4.05601
  -6.20934   0.52653   4.05601
  -6.20934   0.28711   4.29543
  -6.20934   0.28711   4.29543
  -6.20934   0.28711   4.53485
  -5.96992   0.28711   4.53485
  -5.73050   0.28711   4.77427
  -5.49108   0.28711   4.77427
  -5.01224   0.28711   4.77427
  -4.29397   0.28711   4.77427
  -4.05455   0.52653   4.77427
  -3.33629   0.76595   4.77427
  -2.61803   0.52653   4.77427
  -1.89977   0.76595   5.01369
  -1.18151   1.00537   5.01369
  -0.46325   1.00537   5.25311
   0.25501   1.00537   5.01369
   0.73385   0.76595   5.25311
   1.45211   0.76595   5.25311
   1.93095   0.76595   5.25311
   2.64921   1.00537   5.25311
   2.88863   0.76595   5.25311
   3.36747   1.00537   5.25311
   3.60689   1.24479   5.25311
   4.08573   0.76595   5.49253
   4.32515   1.24479   5.25311
   4.56457   1.24479   5.25311
   5.04341   1.48421   5.25311
   5.04341   1.48421   5.25311
   5.28283   1.48421   5.49253
   5.52225   1.72363   5.01369
   5.76167   1.72363   5.25311
   5.76167   1.72363   5.01369
   5.76167   1.72363   5.01369
   6.00109   1.72363   5.01369
   6.24051   1.72363   4.77427
   6.24051   1.48421   4.77427
   6.00109   1.24479   4.53485
   6.00109   1.24479   4.29543
   6.00109   1.00537   4.05601
   5.76167   1.00537   4.05601
   5.52225   0.76595   3.81659
   5.28283   0.52653   3.57717
   5.28283   0.52653   3.33775
   4.80399   0.28711   3.09833
   4.56457   0.28711   3.09833
   4.08573   0.04769   2.61949
   3.84631   0.28711   2.61949
   3.36747   0.28711   2.14065
   2.88863   0.28711   2.14065
   2.64921   0.28711   1.90123
   2.17037   0.28711   1.66181
   1.69153   0.04769   1.90123
   1.21269   0.04769   1.66181
   0.49443   0.04769   1.66181
   0.01559  -0.19173   1.66181
  -0.70267  -0.19173   1.66181
  -1.42093  -0.43115   1.66181
  -2.13919  -0.43115   1.42239
  -2.85745  -0.67057   1.66181
  -3.57571  -0.67057   1.66181
  -4.53339  -0.90999   1.66181
  -5.25166  -1.14941   1.66181
  -5.96992  -1.38883   1.90123
  -6.44876  -1.38883   1.66181
  -7.16702  -1.62825   1.90123
  -7.64586  -1.62825   1.66181
  -8.36412  -1.62825   1.42239
  -8.84296  -1.86767   1.42239
  -9.08238  -1.86767   1.42239
  -9.56122  -2.10709   0.94355
  -9.80064  -2.10709   0.70413
  -9.80064  -2.10709   0.70413
 -10.04006  -2.10709   0.22529
 -10.04006  -2.34651  -0.01413
 -10.04006  -2.34651  -0.01413
 -10.27948  -2.58593  -0.25355
 -10.27948  -2.34651  -0.49297
 -10.04006  -2.58593  -0.49297
  -9.80064  -2.58593  -0.49297
  -9.80064  -2.58593  -0.73239
  -9.56122  -2.34651  -0.73239
  -9.56122  -2.34651  -0.73239
  -9.32180  -2.34651  -0.97181
  -8.84296  -2.34651  -0.97181
  -8.36412  -2.10709  -1.21123
  -8.12470  -1.86767  -1.45065
  -7.40644  -1.86767  -1.69007
  -6.68818  -1.62825  -2.16891
  -6.20934  -1.86767  -2.40834
  -5.49108  -1.62825  -2.64776
  -4.77282  -1.38883  -3.12660
  -4.29397  -1.38883  -3.36602
  -3.57571  -1.14941  -3.60544
  -2.85745  -1.14941  -3.84486
  -2.37861  -1.14941  -4.32370
  -1.66035  -1.14941  -4.56312
  -0.94209  -1.14941  -4.80254
  -0.46325  -1.14941  -5.04196
   0.01559  -1.14941  -5.04196
   0.73385  -0.90999  -5.52080
   1.45211  -0.90999  -5.76022
   1.93095  -0.90999  -5.99964
   2.40979  -0.90999  -6.23906
   3.12805  -0.67057  -6.23906
   3.84631  -0.43115  -6.23906
   4.32515  -0.43115  -6.47848
   5.04341  -0.19173  -6.47848
   5.76167  -0.19173  -6.47848
   6.24051  -0.19173  -6.47848
   6.71935   0.04769  -6.47848
   7.43761   0.04769  -6.47848
   7.91645   0.04769  -6.71790
   8.39529   0.04769  -6.47848
   8.87413   0.04769  -6.71790
   9.11355   0.04769  -6.23906
   9.35297   0.04769  -6.47848
   9.59239   0.28711  -6.23906
  10.07124   0.28711  -5.99964
   9.83182   0.28711  -5.76022
  10.07124   0.52653  -5.52080
  10.07124   0.52653  -5.28138
   9.83182   0.52653  -4.80254
   9.59239   0.76595  -4.56312
   9.59239   1.00537  -4.32370
   9.35297   1.00537  -3.84486
   8.87413   1.24479  -3.60544
   8.63471   1.24479  -3.12660
   8.39529   1.24479  -2.64776
   7.91645   1.48421  -2.64776
   7.67703   1.48421  -2.16891
   7.43761   1.72363  -1.92949
   6.95877   1.72363  -1.69007
   6.47993   1.72363  -1.21123
   6.00109   1.72363  -1.21123
   5.52225   1.96305  -0.73239
   5.04341   1.96305  -0.49297
   4.80399   1.96305  -0.25355
   4.32515   1.96305  -0.01413
   3.60689   1.72363   0.22529
   3.36747   1.96305   0.46471
   2.64921   1.72363   0.46471
   2.40979   1.72363   0.70413
   1.93095   1.72363   0.70413
   1.21269   1.48421   0.94355
   0.73385   1.72363   0.94355
   0.01559   1.48421   0.94355
  -0.22383   1.24479   1.18297
  -0.94209   1.48421   1.18297
  -1.42093   1.48421   1.18297
  -1.89977   1.24479   1.42239
  -2.13919   1.24479   1.18297
  -2.61803   1.24479   1.42239
  -3.09687   1.24479   1.42239
  -3.33629   1.24479   1.18297
  -3.57571   1.24479   1.42239
  -3.81513   1.24479   1.18297
  -4.05455   1.00537   1.18297
  -4.05455   1.00537   1.42239
  -4.53339   0.76595   1.18297
  -4.77282   0.76595   0.94355
  -4.53339   0.52653   0.94355
  -5.01224   0.52653   0.94355
  -5.01224   0.28711   0.70413
  -4.77282   0.28711   0.70413
  -5.01224   0.04769   0.70413
  -4.77282  -0.19173   0.94355
  -5.01224  -0.43115   0.46471
  -4.77282  -0.67057   0.46471
  -4.77282  -0.90999   0.70413
  -4.53339  -1.14941   0.70413
  -4.05455  -1.14941   0.70413
  -3.81513  -1.14941   0.70413
  -3.57571  -1.38883   0.70413
  -3.09687  -1.62825   0.94355
  -2.61803  -1.38883   0.94355
  -2.37861  -1.38883   1.18297
  -1.89977  -1.38883   1.42239
  -1.66035  -1.38883   1.42239
  -1.18151  -1.38883   1.42239
  -0.70267  -1.38883   1.42239
  -0.22383  -1.38883   1.42239
   0.01559  -1.14941   1.66181
   0.49443  -1.14941   1.66181
   0.97327  -1.14941   1.66181
   1.45211  -1.14941   1.42239
   1.93095  -1.14941   1.42239
   2.40979  -0.90999   1.42239
   2.88863  -1.14941   1.42239
   3.36747  -1.14941   1.42239
   3.84631  -0.90999   1.42239
   4.08573  -0.90999   1.42239
   4.56457  -0.90999   1.42239
   4.80399  -0.67057   1.18297
   5.04341  -0.67057   1.18297
   5.28283  -0.67057   1.18297
   5.76167  -0.67057   0.94355
   6.00109  -0.43115   0.94355
   6.24051  -0.43115   0.94355
   6.47993  -0.43115   0.94355
   6.47993  -0.43115   0.70413
   6.71935  -0.43115   0.94355
   6.71935  -0.43115   0.94355
   6.71935  -0.19173   0.94355
   6.71935  -0.19173   0.70413
   6.47993  -0.19173   0.94355
   6.24051   0.04769   0.70413
   6.24051   0.04769   0.70413
   6.00109   0.04769   0.70413
   5.76167   0.04769   0.70413
   5.52225   0.28711   0.70413
   5.28283   0.28711   0.70413
   4.80399   0.28711   0.70413
   4.32515   0.52653   0.70413
   3.84631   0.28711   0.22529
   3.36747   0.28711   0.46471
   2.88863   0.52653   0.22529
   2.17037   0.28711  -0.01413
   1.69153   0.28711  -0.01413
   0.73385   0.28711  -0.25355
   0.25501   0.28711  -0.49297
  -0.46325   0.28711  -0.73239
  -1.18151   0.04769  -0.73239
  -1.89977   0.28711  -0.97181
  -2.61803   0.04769  -1.21123
