********************************************************************************
               CENTRO DE INSTRUMENTACION Y REGISTRO SISMICO  A.C.  
                       Coordinacion de Servicios Tecnicos
     Anaxagoras 814, Col. Narvarte, Benito Juarez, C.P. 03020 Mexico, D.F.
            Tels. 687 45 42/ 687 45  82             Fax. 669 25 12
********************************************************************************
ARCHIVO ESTANDAR DE ACELERACION:
VERSION DEL FORMATO                    : 2.0
NOMBRE DEL ARCHIVO                     : AE029906.151
FECHA Y HORA DE CREACION               : 10/FEBRERO/2000 8:55
REF. CATALOGO ACELEROGRAMAS, SMIS 1996 : REGISTRO No.     /PAG.


================================================================================
DATOS DE LA ESTACION:
NOMBRE DE LA ESTACION                  : AEROPUERTO
CLAVE DE LA ESTACION                   : AE02
LOCALIZACION DE LA ESTACION            : Esc Prim Gonzalez Garzon Calle Xico
                                       : s/n, Col. IV Seccion del Arenal
                                       : Venustiano Carranza
                                       :
                                       :
COORDENADAS DE LA ESTACION             : 19.429 LAT. N 
                                       : 99.058 LONG. W 
ALTITUD (msnm)                         : 2232
TIPO DE SUELO                          : ARCILLOSO, ZONA LAGO
                                       : 
                                       : 
INSTITUCION RESPONSABLE                : CIRES
                                       :

================================================================================
DATOS DEL ACELEROGRAFO:
MODELO DEL ACELEROGRAFO                : RAD-851
NUMERO DE SERIE DEL ACELEROGRAFO       : 242
NUMERO DE CANALES                      : 3
ORIENTACION C1-C6 (rumbo;orientacion)  : /N00E/+V/N90W
ORIENTACION C7-C12 (rumbo;orientacion) :
VEL. DE MUESTREO, C1-C6 (muestras/s)   : /100/100/100
VEL. DE MUESTREO, C7-C12 (muestras/s)  :
ESC. COMPLETA DE SENSORES, C1-C6, (g)  : /0.5/0.5/0.5
ESC. COMPLETA DE SENSORES, C7-C12, (g) :
FREC. NAT. DE SENSORES, C1-C6, (Hz)    : /30/30/30
FREC. NAT. DE SENSORES, C7-C12, (Hz)   :
AMORTIGUAMIENTO DE SENSORES, C1-C6     : /0.733/0.750/0.700
AMORTIGUAMIENTO DE SENSORES, C7-C12    :
INTERVALO DE MUESTREO, C1-C6, (s)      : /0.01/0.01/0.01
INTERVALO DE MUESTREO, C7-C12, (s)     :
UMBRAL DE DISPARO, C1-C6, (Gal)        : /2.44/3.91/2.44
UMBRAL DE DISPARO, C7-C12, (Gal)       :
MEMORIA DE PREEVENTO (s)               : 16
TIEMPO DE POSEVENTO (s)                : 48


================================================================================
DATOS DEL SISMO:
FECHA DEL SISMO (GMT)                  : 15/JUN/99
HORA EPICENTRO (GMT)                   : 20:42:07.1
MAGNITUD(ES)                           : /Mb=6.4/Ms=6.5/Me=7.0
COORDENADAS DEL EPICENTRO              : 18.18 LAT. N
                                       : 97.51 LONG. W
PROFUNDIDAD FOCAL (km)                 : 69.0
FUENTE DE LOS DATOS EPICENTRALES       : SSN
                                       : INSTITUTO DE GEOFISICA, UNAM

================================================================================
DATOS DE ESTE REGISTRO:
HORA DE LA PRIMERA MUESTRA (GMT)       : 20:43:00.00
EXACTITUD DEL TIEMPO (s)               : 0.01
DURACION DEL REGISTRO (s), C1-C6       : /273.25/273.25/273.25
DURACION DEL REGISTRO (s), C7-C12      :
NUM. TOTAL DE MUESTRAS, C1-C6          : /27325/27325/27325
NUM. TOTAL DE MUESTRAS, C7-C12         :
ACEL. MAX. (Gal), C1-C6                : /27.97266/12.22833/28.84845
ACEL. MAX., C1-C6, EN LA MUESTRA       :
ACEL. MAX. (Gal), C7-C12               :
ACEL. MAX., C7-C12, EN LA MUESTRA      :
UNIDADES DE LOS DATOS                  : Gal (cm/s/s)
FACTOR DE DECIMACION                   : 1
FORMATO DATOS (FORTRAN,10 campos/dato) : 3F10.5


================================================================================
CALIDAD DEL ACELEROGRAMA:
REGISTRO DIGITAL COMPLETO CON TIEMPO ABSOLUTO CORRECTO.


================================================================================
COMENTARIOS:














================================================================================
DATOS DE ACELERACION:
---------+---------+---------+---------+---------+---------+---------+---------+
   CANAL-1   CANAL-2   CANAL-3   CANAL-4   CANAL-5   CANAL-6   CANAL-7   CANAL-8
      N00E        +V      N90W
---------+---------+---------+---------+---------+---------+---------+---------+
[...]
   9.85554  -4.56692  -5.38539
   9.85554  -4.32750  -5.86423
   9.61612  -4.32750  -6.58248
   9.85554  -4.56692  -6.82190
   9.85554  -4.32750  -7.54016
   9.85554  -3.84867  -8.01900
   9.85554  -3.84867  -8.97667
  10.09495  -3.84867  -9.21609
   9.85554  -4.08808  -9.69493
   9.85554  -3.84867 -10.17377
   9.61612  -3.84867 -10.65261
   9.61612  -4.08808 -10.89202
   9.13728  -4.08808 -11.61028
   8.89786  -4.56692 -12.08912
   8.89786  -4.80634 -12.08912
   8.65844  -4.80634 -12.32854
   8.17960  -5.04576 -12.32854
   7.94018  -5.04576 -12.08912
   7.70076  -5.04576 -11.84970
   7.22193  -5.04576 -11.61028
   6.74309  -4.56692 -11.13144
   6.50367  -4.08808 -10.65261
   5.78541  -3.60925 -10.17377
   5.54599  -3.36983  -9.45551
   5.30658  -3.36983  -8.73725
   4.58832  -2.65157  -8.25842
   4.34890  -2.17273  -7.54016
   3.87006  -1.45448  -7.06132
   3.39122  -1.69389  -6.82190
   2.91239  -2.17273  -6.34306
   2.67297  -2.41215  -6.10365
   2.19413  -2.65157  -6.10365
   1.71529  -2.41215  -5.62481
   1.47587  -2.17273  -5.38539
   0.99703  -1.69389  -5.14597
   0.99703  -1.45448  -5.14597
   0.51820  -0.97564  -5.14597
   0.51820  -0.25738  -4.42771
   0.03936   0.46088  -4.42771
  -0.43948   1.41855  -4.42771
  -0.67890   1.65797  -3.94887
  -1.15774   2.13681  -3.70946
  -1.63657   2.13681  -3.47004
  -2.11541   1.89739  -2.99120
  -2.83367   1.89739  -2.51236
  -3.07309   1.65797  -2.27294
  -3.31251   1.17913  -1.79410
  -3.55193   1.17913  -1.31527
  -3.79134   0.70029  -1.07585
  -4.03076   0.22146  -0.59701
  -4.27018  -0.49680  -0.59701
  -4.27018  -0.97564  -0.11817
  -4.27018  -0.73622  -0.35759
  -4.27018  -0.25738  -0.35759
  -4.50960   0.93971  -0.35759
  -4.74902   1.65797  -0.59701
  -4.74902   2.37623  -0.35759
  -4.50960   3.33390  -0.35759
  -4.50960   4.05216  -0.83643
  -4.74902   4.53100  -0.59701
  -4.27018   4.77042  -0.83643
  -4.50960   5.48867  -1.07585
  -4.50960   5.96751  -1.07585
  -4.50960   5.72809  -1.07585
  -4.50960   5.96751  -1.07585
  -4.74902   5.72809  -1.07585
  -4.74902   5.24925  -1.07585
  -4.74902   4.77042  -0.59701
  -4.74902   4.05216  -0.59701
  -4.74902   3.57332  -0.11817
  -4.74902   3.09448   0.36067
  -4.74902   3.09448   0.83950
  -4.50960   2.85507   1.31834
  -4.27018   2.61565   1.79718
  -4.03076   1.89739   2.27602
  -3.07309   1.41855   2.75486
  -2.35483   1.17913   2.75486
  -1.87599   1.41855   2.99427
  -1.39716   1.41855   2.99427
  -0.43948   1.65797   2.99427
   0.27878   1.65797   3.23369
   0.51820   1.65797   3.47311
   0.75762   1.65797   3.47311
   0.75762   1.65797   3.95195
   0.75762   1.41855   3.95195
   0.75762   0.93971   3.95195
   0.75762  -0.01796   4.43079
   0.51820  -0.49680   4.67021
   0.27878  -0.73622   4.90963
  -0.20006  -0.97564   5.14905
  -0.67890  -0.49680   5.62788
  -1.15774  -0.49680   6.10672
  -1.63657   0.46088   6.34614
  -2.35483   1.41855   6.58556
  -3.31251   2.61565   6.58556
  -4.27018   2.85507   7.30382
  -4.98844   3.09448   7.78265
  -5.94612   3.09448   8.02207
  -6.90379   2.85507   8.50091
  -7.86147   2.85507   8.97975
  -9.05856   3.33390   9.21917
 -10.01624   3.09448   9.69800
 -10.97391   2.85507   9.93742
 -11.69217   2.37623  10.65568
 -12.64985   1.65797  10.89510
 -13.60752   1.17913  11.13452
 -14.80462   0.46088  11.61336
 -16.00171  -0.25738  11.85278
 -16.71997  -0.97564  12.33161
 -17.91706  -1.21506  12.33161
 -19.11416  -1.21506  12.57103
 -19.59300  -1.21506  12.57103
 -19.83241  -0.97564  12.33161
 -20.31125  -0.49680  12.09219
 -19.83241  -0.01796  11.85278
 -19.11416  -0.01796  11.61336
 -18.63532  -0.01796  11.13452
 -17.43822  -0.01796  10.65568
 -16.48055  -0.49680  10.17684
 -15.28345  -0.73622   9.93742
 -13.84694  -0.73622   9.93742
 -12.64985  -0.73622   9.93742
 -11.21333  -0.73622   9.93742
  -9.53740  -0.49680  10.17684
  -8.10089  -0.25738   9.93742
  -6.42495  -0.25738  10.41626
  -4.98844  -0.49680  10.89510
  -3.31251  -0.97564  11.37394
  -1.63657  -0.97564  12.09219
  -0.43948  -0.97564  12.33161
   0.99703  -0.49680  13.04987
   1.95471  -0.25738  13.52871
   3.39122  -0.01796  13.76813
   4.58832  -0.25738  14.00755
   6.02483  -0.73622  13.76813
   7.46135  -0.73622  13.28929
   8.65844  -0.49680  13.04987
   9.85554  -0.01796  12.57103
  11.29205   0.22146  11.85278
  12.01031  -0.25738  10.89510
  12.96798  -0.97564  10.17684
  13.68624  -0.97564   9.45859
  13.92566  -0.97564   8.74033
  14.16508  -0.25738   8.26149
  14.16508  -0.01796   7.78265
  14.40450   0.22146   7.78265
  14.40450  -0.01796   7.54323
  14.40450  -0.01796   7.78265
  13.92566  -0.01796   7.78265
  13.20740   0.70029   8.02207
  12.48914   0.93971   8.50091
  11.77089   0.93971   8.74033
  10.81321   0.93971   8.74033
   9.85554   0.70029   9.21917
   8.65844   0.70029   8.97975
   7.70076   0.93971   8.97975
   6.50367   0.93971   8.74033
   5.30658   0.93971   8.74033
   4.10948   1.17913   8.50091
   2.91239   1.17913   8.26149
   1.47587   0.93971   7.78265
   0.03936   0.46088   7.30382
  -1.15774  -0.01796   7.06440
  -2.11541  -0.73622   6.34614
  -3.31251  -0.97564   5.38846
  -4.27018  -1.21506   4.67021
  -5.46728  -1.45448   3.47311
  -6.18553  -1.69389   1.79718
  -6.90379  -2.17273   0.60009
  -7.62205  -2.65157  -1.07585
  -8.34030  -2.65157  -2.75178
  -9.29798  -2.17273  -3.94887
 -10.25566  -2.17273  -4.90655
 -11.21333  -2.17273  -5.86423
 -12.64985  -2.65157  -6.58248
 -13.60752  -3.13041  -7.54016
 -14.80462  -3.36983  -8.49783
 -16.24113  -3.60925  -9.21609
 -17.67764  -3.84867  -9.69493
 -19.11416  -4.08808 -10.17377
 -20.31125  -4.08808 -10.89202
 -21.50835  -4.56692 -11.37086
 -22.94486  -4.56692 -11.84970
 -24.14196  -4.80634 -12.08912
 -25.33905  -4.80634 -12.56796
 -25.81789  -4.80634 -12.80738
 -26.29673  -5.04576 -13.28621
 -26.53614  -5.04576 -13.52563
 -26.53614  -5.52460 -13.76505
 -26.05731  -5.28518 -13.04679
 -25.33905  -5.04576 -12.80738
 -24.14196  -4.80634 -12.80738
 -22.70544  -5.04576 -12.32854
 -21.02951  -5.04576 -11.61028
 -19.83241  -4.56692 -10.65261
 -18.15648  -4.08808  -9.93435
 -16.24113  -3.13041  -8.97667
 -14.80462  -2.41215  -8.01900
 -13.12868  -2.17273  -7.30074
 -10.97391  -1.69389  -6.58248
  -9.29798  -1.45448  -5.86423
  -7.62205  -0.49680  -5.38539
  -5.46728   0.70029  -4.90655
  -4.03076   1.17913  -4.66713
  -2.11541   1.17913  -4.18829
  -0.43948   1.17913  -3.94887
   1.47587   1.65797  -3.70946
   2.91239   2.13681  -3.47004
   4.58832   2.85507  -3.23062
   6.26425   3.33390  -2.99120
   7.70076   3.57332  -2.99120
   9.61612   3.33390  -3.23062
  11.29205   3.33390  -2.99120
  12.72856   3.81274  -2.99120
  14.16508   4.29158  -2.75178
  14.88333   4.77042  -2.03352
  15.36217   5.00984  -1.79410
  16.08043   4.77042  -0.83643
  16.55927   4.53100  -0.11817
  17.03810   4.05216   0.83950
  17.03810   3.57332   1.55776
  16.79868   3.33390   2.51544
  16.55927   2.85507   3.47311
  16.08043   2.37623   4.19137
  16.08043   1.65797   4.90963
  16.08043   0.93971   5.38846
  15.84101   0.46088   5.62788
  16.08043   0.22146   6.10672
  16.08043   0.46088   6.10672
  16.31985   0.70029   6.58556
  16.31985   0.93971   6.82498
  16.31985   1.17913   6.58556
  16.31985   0.93971   6.58556
  16.31985   0.93971   6.34614
  16.08043   1.17913   5.38846
  15.84101   1.41855   4.90963
  15.12275   1.89739   3.95195
  14.40450   2.61565   3.47311
  13.92566   3.09448   2.27602
  13.44682   3.57332   1.79718
  13.20740   4.29158   0.83950
  12.72856   4.77042  -0.11817
  12.01031   4.77042  -1.07585
  11.77089   4.77042  -1.79410
  11.53147   4.05216  -2.75178
  10.81321   3.09448  -3.70946
  10.33437   2.37623  -4.18829
   9.61612   1.41855  -4.66713
   8.89786   0.70029  -5.62481
   8.41902  -0.01796  -6.10365
   7.46135  -0.97564  -6.34306
   6.26425  -1.45448  -6.82190
   4.58832  -1.93331  -6.82190
   2.67297  -2.17273  -6.82190
   0.75762  -2.41215  -6.58248
  -1.63657  -2.17273  -6.58248
  -4.27018  -1.93331  -6.34306
  -6.90379  -1.69389  -6.10365
  -9.77682  -1.69389  -6.10365
 -12.41043  -1.93331  -5.86423
 -14.32578  -2.17273  -5.62481
 -16.48055  -2.41215  -5.62481
 -17.91706  -2.41215  -5.38539
 -19.35358  -2.41215  -5.62481
 -20.31125  -2.65157  -5.38539
 -20.79009  -3.13041  -5.62481
 -21.50835  -3.36983  -6.10365
 -21.50835  -3.36983  -6.34306
 -21.02951  -3.36983  -6.34306
 -20.31125  -2.65157  -6.58248
 -20.07183  -1.45448  -7.06132
 -19.11416  -0.73622  -6.82190
 -17.67764  -0.25738  -6.58248
 -16.48055  -0.49680  -6.10365
 -14.56520  -0.49680  -5.62481
 -12.64985  -1.21506  -5.14597
 -11.21333  -1.69389  -4.42771
  -9.29798  -2.17273  -3.47004
  -7.86147  -2.65157  -2.51236
  -6.18553  -2.65157  -1.31527
  -4.74902  -3.36983  -0.35759
  -3.55193  -3.60925   0.60009
  -2.11541  -3.84867   1.79718
  -0.91832  -3.84867   2.51544
   0.51820  -3.13041   3.23369
   1.71529  -2.65157   3.95195
   2.67297  -2.65157   4.19137
   3.63064  -2.65157   4.90963
   4.10948  -2.89099   4.90963
   4.58832  -2.41215   5.14905
   4.58832  -1.69389   4.90963
   4.10948  -0.97564   4.67021
   4.34890  -0.49680   4.67021
   4.34890  -0.25738   4.19137
   5.06716  -0.01796   4.19137
   5.78541   0.22146   4.43079
   6.26425   0.22146   4.19137
   7.22193  -0.25738   4.67021
   8.41902  -0.25738   4.67021
  10.09495   0.22146   4.67021
  11.29205   0.70029   4.67021
  12.72856   0.93971   4.43079
  13.92566   0.46088   4.19137
  15.36217   0.22146   3.95195
  16.79868  -0.01796   3.71253
  17.75636  -0.01796   3.47311
  18.71404  -0.01796   3.23369
  19.43229  -0.25738   3.47311
  19.91113  -0.73622   3.47311
  20.62939  -0.49680   3.95195
  20.38997  -0.25738   4.19137
  20.38997   0.22146   4.43079
  19.67171   0.22146   4.19137
  19.19287   0.46088   3.95195
  18.95346   0.22146   3.47311
  18.47462   0.22146   2.75486
  17.99578   0.46088   1.55776
  17.75636   0.22146   0.60009
  17.75636  -0.01796  -0.59701
  17.99578   0.46088  -1.79410
  17.75636   0.70029  -2.75178
  17.27752   0.93971  -3.94887
  16.79868   0.93971  -4.66713
  16.08043   0.93971  -6.10365
  15.36217   1.41855  -7.30074
  14.40450   1.65797  -8.25842
  12.96798   1.89739  -9.21609
  11.05263   2.13681  -9.69493
   9.13728   2.13681 -10.65261
   7.46135   2.37623 -11.13144
   5.30658   2.13681 -11.84970
   3.39122   2.37623 -12.32854
   1.23645   2.61565 -13.04679
  -1.39716   2.61565 -13.76505
  -3.55193   2.37623 -14.48331
  -5.94612   2.37623 -15.44098
  -8.34030   2.37623 -16.15924
 -10.49508   2.61565 -17.11692
 -12.41043   2.37623 -18.07459
 -13.60752   2.61565 -19.27169
 -14.80462   2.37623 -20.70820
 -15.04404   2.13681 -21.66588
 -15.04404   1.65797 -22.62355
 -15.04404   0.93971 -24.06007
 -14.56520   0.22146 -25.01774
 -14.08636  -0.73622 -26.21484
 -13.36810  -1.69389 -27.17251
 -12.41043  -3.13041 -27.65135
 -11.93159  -4.32750 -28.60903
 -11.45275  -5.04576 -28.84845
 -10.97391  -6.00344 -28.84845
 -10.25566  -6.72169 -28.36961
  -9.77682  -7.67937 -27.65135
  -9.29798  -7.91879 -26.93309
  -9.05856  -8.15821 -25.97542
  -8.81914  -7.91879 -25.01774
  -8.57972  -7.67937 -23.58123
  -8.34030  -7.20053 -22.38413
  -8.34030  -6.72169 -21.18704
  -8.10089  -6.00344 -19.75053
  -8.10089  -5.04576 -18.79285
  -8.34030  -3.84867 -17.59575
  -8.10089  -3.13041 -16.39866
  -8.34030  -2.41215 -15.20157
  -8.34030  -1.93331 -14.00447
  -8.34030  -1.69389 -12.56796
  -8.10089  -0.73622 -11.37086
  -7.86147   0.22146 -10.17377
  -7.38263   0.93971  -8.97667
  -7.14321   1.41855  -7.54016
  -6.42495   1.89739  -6.10365
  -5.46728   2.85507  -5.14597
  -4.50960   3.57332  -4.18829
  -3.55193   4.77042  -2.99120
  -2.59425   5.96751  -1.79410
  -1.39716   6.68577  -0.83643
  -0.43948   6.92519  -0.11817
   0.75762   6.44635   0.83950
   1.71529   5.72809   1.31834
   2.91239   5.00984   2.27602
   3.63064   4.05216   2.75486
   4.10948   3.33390   3.71253
   4.58832   2.37623   4.90963
   5.06716   2.13681   5.86730
   5.54599   2.13681   6.82498
   5.78541   2.61565   7.78265
   6.50367   3.09448   8.97975
   6.98251   3.57332  10.17684
   7.22193   3.57332  11.37394
   8.17960   3.81274  12.33161
   8.65844   4.05216  13.04987
   8.65844   4.77042  14.24696
   8.65844   5.24925  14.96522
   7.94018   5.96751  16.64115
   7.22193   7.16461  17.83825
   6.74309   8.12228  19.03534
   6.50367   8.36170  20.23244
   6.50367   8.36170  21.42953
   6.26425   8.36170  22.62663
   6.02483   8.36170  23.58430
   5.54599   8.60112  24.30256
   5.06716   8.84054  25.26024
   4.34890   8.84054  25.73907
   3.87006   8.84054  25.73907
   2.91239   8.36170  25.49966
   1.47587   7.88286  25.26024
   0.03936   7.40403  24.78140
  -0.91832   6.68577  24.06314
  -1.87599   5.96751  23.34488
  -2.59425   5.24925  22.62663
  -3.31251   4.53100  21.42953
  -4.27018   4.05216  20.47186
  -4.74902   3.57332  19.51418
  -4.98844   2.85507  19.03534
  -4.98844   2.13681  18.31709
  -5.22786   1.41855  17.35941
  -4.74902   0.93971  16.88057
  -4.27018   0.70029  16.40174
  -3.79134   0.46088  15.92290
  -3.07309   0.70029  15.68348
  -2.11541   0.46088  15.20464
  -1.15774   0.70029  14.72580
  -0.43948   0.46088  13.76813
   0.03936   0.46088  12.81045
   0.75762  -0.01796  12.57103
   0.99703   0.22146  11.85278
   1.47587   0.22146  11.13452
   1.95471  -0.01796  10.65568
   2.43355  -0.49680  10.41626
   3.15180  -1.21506   9.93742
   3.87006  -1.45448   9.45859
   4.34890  -1.69389   8.74033
   4.58832  -2.17273   8.02207
   4.82774  -1.93331   7.30382
   5.30658  -1.69389   6.34614
   5.54599  -1.45448   5.38846
   5.54599  -0.97564   4.67021
   5.30658  -0.49680   3.95195
   4.82774  -0.01796   2.75486
   4.58832  -0.01796   1.79718
   4.34890  -0.25738   0.36067
   4.34890  -0.97564  -0.83643
   4.58832  -1.93331  -1.79410
   5.06716  -2.89099  -2.99120
   5.78541  -4.08808  -3.70946
   6.02483  -4.80634  -4.42771
   6.50367  -4.56692  -5.38539
   6.74309  -4.56692  -6.58248
   7.46135  -4.56692  -7.54016
   7.94018  -4.80634  -8.49783
   8.65844  -5.04576  -9.93435
   9.37670  -5.52460 -11.37086
  10.09495  -6.00344 -12.32854
  11.05263  -6.48227 -12.80738
  11.77089  -6.72169 -13.28621
  11.53147  -7.20053 -14.72273
  11.29205  -8.39762 -15.68040
  11.77089  -9.35530 -15.68040
  12.48914  -9.59472 -14.96215
  13.20740  -9.83414 -13.52563
  13.20740  -9.59472 -12.56796
  13.44682  -9.59472 -11.37086
  14.40450  -9.83414 -10.17377
  15.36217 -10.07356  -9.21609
  15.84101 -10.55240  -8.25842
  15.60159 -10.79181  -7.06132
  15.84101 -10.79181  -6.58248
  15.84101 -10.79181  -6.58248
  15.84101 -10.55240  -6.58248
  15.60159 -10.31298  -6.34306
  15.12275  -9.35530  -6.34306
  14.16508  -8.15821  -5.86423
  13.20740  -7.20053  -5.86423
  12.48914  -6.24285  -5.62481
  11.53147  -5.04576  -5.38539
  10.09495  -4.08808  -5.62481
   8.89786  -2.89099  -5.38539
   8.17960  -1.93331  -4.90655
   6.98251  -0.97564  -4.66713
   5.78541  -0.97564  -4.18829
   4.34890  -0.97564  -3.94887
   3.15180  -0.97564  -3.47004
   1.23645  -0.97564  -2.27294
  -0.43948  -1.21506  -1.31527
  -0.91832  -1.69389  -0.59701
  -0.67890  -1.93331   0.12125
  -1.15774  -1.93331   1.07892
  -2.59425  -1.69389   1.55776
  -3.31251  -1.21506   1.79718
  -4.03076  -0.49680   2.51544
  -4.98844   0.22146   2.27602
  -5.46728   1.17913   2.03660
  -5.94612   1.65797   1.55776
  -6.42495   2.37623   1.07892
  -7.14321   2.85507   0.83950
  -8.10089   3.57332   0.60009
  -8.81914   4.29158   0.12125
  -9.77682   5.24925   0.12125
 -10.49508   6.20693   0.12125
