********************************************************************************
              CENTRO DE INSTRUMENTACION Y REGISTRO SISMICO  A.C.

    Anaxagoras 814, Col. Narvarte, Benito Juarez, C.P. 03020 Mexico, D.F.
           Tels. 5687 45 42/ 5687 45  82             Fax. 5669 25 12
********************************************************************************
ARCHIVO ESTANDAR DE ACELERACION:
VERSION DEL FORMATO                    : 2.0
NOMBRE DEL ARCHIVO                     : AE0219941210161740
FECHA Y HORA DE CREACION               : 05/MAR/18, 11:03
REF. CATALOGO ACELEROGRAMAS, SMIS 1996 : REGISTRO No.     /PAG.


================================================================================
DATOS DE LA ESTACION:
NOMBRE DE LA ESTACION                  : ESC. PRIM. "GONZÁLEZ GARZÓN"
CLAVE DE LA ESTACION                   : AE02
LOCALIZACION DE LA ESTACION            : Del. Venustiano Carranza,              
                                       : Col. El Arenal 4a. Sección,            
                                       : Calle Xico esq. con calle Xocoyote.    
                                       :                                        
                                       : 
COORDENADAS DE LA ESTACION             : 19.4290 LAT. N
                                       : 99.0584 LONG. W
ALTITUD (msnm)                         : 2232
TIPO DE SUELO                          : Arcilloso, zona lago                
                                       :                           
                                       : 
INSTITUCION RESPONSABLE                : CIRES
                                       : 

================================================================================
DATOS DEL ACELEROGRAFO:
MODELO DEL ACELEROGRAFO                : DCA-333
NUMERO DE SERIE DEL ACELEROGRAFO       : 242
NUMERO DE CANALES                      : 3
ORIENTACION C1-C6 (rumbo;orientacion)  : /N00E/+V/N90W
ORIENTACION C7-C12 (rumbo;orientacion) : 
VEL. DE MUESTREO, C1-C6 (muestras/s)   : /100/100/100
VEL. DE MUESTREO, C7-C12 (muestras/s)  : 
ESC. COMPLETA DE SENSORES, C1-C6, (g)  : /0.5/0.5/0.5
ESC. COMPLETA DE SENSORES, C7-C12, (g) : 
FREC. NAT. DE SENSORES, C1-C6, (Hz)    : /30/30/30
FREC. NAT. DE SENSORES, C7-C12, (Hz)   : 
AMORTIGUAMIENTO DE SENSORES, C1-C6     : /0.733/0.750/0.700
AMORTIGUAMIENTO DE SENSORES, C7-C12    : 
INTERVALO DE MUESTREO, C1-C6, (s)      : /0.01/0.01/0.01
INTERVALO DE MUESTREO, C7-C12, (s)     : 
UMBRAL DE DISPARO, C1-C6, (Gal)        : /2.93/9.77/9.77
UMBRAL DE DISPARO, C7-C12, (Gal)       : 
MEMORIA DE PREEVENTO (s)               : 4.0
TIEMPO DE POSEVENTO (s)                : 15.0


================================================================================
DATOS DEL SISMO:
FECHA DEL SISMO (GMT)                  : 10/DIC/94
HORA EPICENTRO (GMT)                   : 16:17:40.0
MAGNITUD(ES)                           : /Mc=6.6
COORDENADAS DEL EPICENTRO              : 17.98 LAT. N
                                       : 101.52 LONG. W
PROFUNDIDAD FOCAL (km)                 : 53
FUENTE DE LOS DATOS EPICENTRALES       : SSN
                                       : INSTITUTO DE GEOFISICA, UNAM

================================================================================
DATOS DE ESTE REGISTRO:
HORA DE LA PRIMERA MUESTRA (GMT)       : 16:19:05.03
EXACTITUD DEL TIEMPO (s)               : 0.01
DURACION DEL REGISTRO (s), C1-C6       : /81.25/81.25/81.25
DURACION DEL REGISTRO (s), C7-C12      : 
NUM. TOTAL DE MUESTRAS, C1-C6          : /8125/8125/8125
NUM. TOTAL DE MUESTRAS, C7-C12         : 
ACEL. MAX. (Gal), C1-C6                : /9.96831/6.78657/12.56548
ACEL. MAX., C1-C6, EN LA MUESTRA       : /1751/1869/1779
ACEL. MAX. (Gal), C7-C12               : 
ACEL. MAX., C7-C12, EN LA MUESTRA      : 
UNIDADES DE LOS DATOS                  : Gal (cm/s/s)
FACTOR DE DECIMACION                   : 1
FORMATO DATOS (FORTRAN,10 campos/dato) : 3F10.5


================================================================================
CALIDAD DEL ACELEROGRAMA:
REGISTRO DIGITAL COMPLETO CON TIEMPO ABSOLUTO CORRECTO.


================================================================================
COMENTARIOS:














================================================================================
DATOS DE ACELERACION:
---------+---------+---------+---------+---------+---------+---------+---------+
   CANAL-1   CANAL-2   CANAL-3   CANAL-4   CANAL-5   CANAL-6   CANAL-7   CANAL-8
      N00E        +V      N90W
---------+---------+---------+---------+---------+---------+---------+---------+
[...]
  -6.07284   0.39604  -0.11563
  -5.59400   0.39604  -0.35505
  -5.35458   0.15662  -0.59447
  -5.11516   0.15662  -0.83389
  -4.87574   0.15662  -1.07331
  -4.87574   0.15662  -1.31273
  -4.63632   0.15662  -1.79157
  -4.39690   0.15662  -2.03099
  -4.15748   0.15662  -2.27041
  -4.15748   0.15662  -2.50983
  -3.91806   0.39604  -2.50983
  -3.91806   0.39604  -2.98867
  -3.67864   0.63546  -3.22809
  -3.67864   0.63546  -3.46751
  -3.43922   0.87488  -3.70693
  -3.43922   0.87488  -3.94635
  -3.19980   1.11430  -4.42519
  -2.96038   1.11430  -4.90403
  -2.72096   1.11430  -5.38287
  -2.48154   1.11430  -5.86171
  -2.24212   1.11430  -6.34055
  -2.24212   1.11430  -6.81939
  -1.52386   0.87488  -7.05881
  -1.28444   0.87488  -7.53765
  -1.04502   0.63546  -8.01649
  -0.56618   0.63546  -8.25591
  -0.32676   0.39604  -8.49533
  -0.08734   0.39604  -8.73475
   0.15208   0.15662  -8.97418
   0.39150   0.15662  -8.97418
   0.87034  -0.08280  -8.97418
   1.10976  -0.32222  -8.97418
   1.34918  -0.56164  -8.73475
   1.58860  -0.56164  -8.73475
   1.82802  -0.80106  -8.49533
   2.06744  -0.80106  -8.49533
   2.30686  -0.80106  -8.49533
   2.54628  -1.04048  -8.49533
   2.78570  -1.04048  -8.73475
   3.02512  -1.04048  -8.73475
   3.26454  -1.04048  -9.21360
   3.74338  -1.04048  -9.21360
   3.74338  -1.04048  -9.45302
   4.22222  -1.04048  -9.45302
   4.46164  -0.80106  -9.45302
   4.70106  -1.04048  -9.45302
   4.94048  -1.04048  -9.45302
   5.17990  -1.27990  -9.21360
   5.41932  -1.27990  -8.97418
   5.41932  -1.27990  -8.73475
   5.65874  -1.27990  -8.49533
   5.65874  -1.04048  -8.01649
   5.65874  -1.04048  -7.77707
   5.65874  -0.80106  -7.29823
   5.41932  -0.80106  -7.05881
   5.41932  -0.80106  -6.57997
   5.17990  -0.56164  -6.34055
   5.17990  -0.32222  -5.86171
   4.94048  -0.32222  -5.62229
   4.94048  -0.08280  -5.14345
   4.70106  -0.08280  -4.90403
   4.70106   0.15662  -4.90403
   4.70106   0.15662  -4.66461
   4.70106   0.15662  -4.42519
   4.70106   0.39604  -4.42519
   4.70106   0.39604  -4.18577
   4.70106   0.63546  -3.94635
   4.70106   0.39604  -3.70693
   4.94048   0.63546  -3.46751
   4.94048   0.63546  -2.98867
   5.17990   0.63546  -2.74925
   5.17990   0.87488  -2.27041
   5.17990   0.87488  -2.03099
   5.41932   1.11430  -1.55215
   5.17990   1.35372  -1.07331
   5.41932   1.59314  -0.83389
   5.41932   2.07198  -0.59447
   5.17990   2.07198  -0.11563
   5.17990   2.55082   0.12379
   5.17990   2.79024   0.36321
   5.17990   3.02966   0.60263
   4.94048   3.26908   0.84205
   4.94048   3.26908   0.84205
   4.70106   3.74792   1.32089
   4.70106   3.74792   1.56031
   4.46164   3.74792   1.56031
   4.22222   4.22676   1.56031
   3.98280   4.46618   1.32089
   3.98280   4.46618   1.32089
   3.98280   4.46618   1.56031
   3.98280   4.46618   1.56031
   3.98280   4.46618   1.32089
   3.98280   4.70560   1.32089
   3.98280   4.70560   1.32089
   4.22222   4.46618   1.08147
   4.22222   4.46618   1.08147
   4.46164   4.22676   1.08147
   4.46164   4.22676   0.84205
   4.70106   3.74792   0.84205
   4.70106   3.74792   0.60263
   4.70106   3.26908   0.60263
   4.70106   3.02966   0.36321
   4.70106   3.02966   0.36321
   4.46164   2.55082   0.36321
   4.46164   2.07198   0.12379
   4.22222   1.83256  -0.11563
   3.98280   1.59314  -0.11563
   3.50396   1.35372  -0.35505
   3.26454   1.11430  -0.59447
   2.78570   1.11430  -0.59447
   2.54628   1.11430  -0.83389
   1.82802   0.87488  -1.07331
   1.58860   0.63546  -1.31273
   1.10976   0.39604  -1.79157
   0.63092   0.15662  -1.79157
   0.15208  -0.08280  -1.79157
  -0.32676  -0.56164  -2.03099
  -0.80560  -0.80106  -2.03099
  -1.28444  -1.04048  -2.03099
  -1.76328  -1.27990  -2.03099
  -2.24212  -1.51932  -1.79157
  -2.72096  -1.75874  -1.79157
  -3.19980  -1.99816  -1.79157
  -3.67864  -2.23758  -1.55215
  -4.39690  -2.47700  -1.55215
  -4.39690  -2.71642  -1.55215
  -4.63632  -2.71642  -1.31273
  -5.11516  -2.71642  -1.31273
  -5.59400  -2.71642  -1.31273
  -5.59400  -2.95584  -0.83389
  -5.83342  -2.95584  -0.83389
  -6.07284  -2.95584  -0.83389
  -6.31226  -2.95584  -0.83389
  -6.07284  -2.95584  -0.83389
  -6.31226  -3.19526  -0.83389
  -6.31226  -2.95584  -0.83389
  -6.07284  -2.95584  -0.83389
  -6.07284  -2.95584  -0.83389
  -5.83342  -2.95584  -0.59447
  -5.59400  -2.71642  -0.59447
  -5.59400  -2.71642  -0.35505
  -5.35458  -2.71642  -0.11563
  -5.11516  -2.71642  -0.11563
  -4.87574  -2.71642   0.12379
  -4.87574  -2.71642   0.12379
  -4.39690  -2.71642   0.12379
  -4.15748  -2.71642   0.12379
  -4.15748  -2.47700   0.36321
  -4.15748  -2.47700   0.60263
  -4.15748  -2.47700   0.60263
  -3.91806  -2.23758   0.60263
  -3.67864  -2.23758   0.60263
  -3.67864  -1.99816   0.60263
  -3.67864  -1.75874   0.60263
  -3.67864  -1.51932   0.60263
  -3.43922  -1.27990   0.60263
  -3.43922  -1.04048   0.60263
  -3.19980  -0.56164   0.84205
  -3.19980  -0.32222   0.84205
  -2.96038   0.15662   0.84205
  -2.72096   0.39604   0.84205
  -2.48154   0.63546   0.84205
  -2.24212   0.63546   0.84205
  -2.00270   0.87488   0.84205
  -1.76328   0.87488   1.08147
  -1.52386   1.11430   1.08147
  -1.52386   1.35372   1.32089
  -1.28444   1.35372   1.32089
  -1.28444   1.35372   1.56031
  -1.04502   1.59314   1.79973
  -1.04502   1.59314   1.79973
  -1.04502   1.59314   1.79973
  -1.04502   1.83256   2.03915
  -1.04502   2.07198   2.03915
  -1.04502   2.31140   2.03915
  -1.04502   2.55082   1.79973
  -1.04502   2.55082   2.27857
  -1.04502   2.79024   2.51799
  -1.04502   3.02966   2.51799
  -1.28444   3.02966   2.75741
  -1.28444   3.02966   2.75741
  -1.28444   3.02966   2.75741
  -1.28444   3.02966   2.99683
  -1.28444   3.02966   2.99683
  -1.28444   3.02966   2.99683
  -1.28444   3.02966   2.99683
  -1.28444   2.79024   2.99683
  -1.28444   2.55082   2.99683
  -1.28444   2.55082   3.23625
  -1.52386   2.31140   2.99683
  -1.52386   2.31140   2.99683
  -1.52386   2.07198   2.99683
  -1.76328   2.07198   2.99683
  -1.76328   1.83256   2.99683
  -2.00270   1.83256   2.99683
  -2.48154   1.83256   3.23625
  -2.24212   1.59314   3.23625
  -2.24212   1.59314   3.23625
  -2.24212   1.35372   3.47567
  -2.48154   1.59314   3.71509
  -2.48154   1.59314   3.71509
  -2.48154   1.59314   3.71509
  -2.48154   1.83256   3.95451
  -2.48154   1.83256   3.95451
  -2.48154   2.07198   3.95451
  -2.48154   2.07198   3.71509
  -2.24212   2.07198   3.71509
  -2.24212   1.83256   3.47567
  -2.24212   1.83256   3.47567
  -2.00270   1.83256   3.23625
  -2.00270   1.59314   2.99683
  -1.76328   1.35372   2.75741
  -1.52386   1.11430   2.75741
  -1.28444   1.11430   2.51799
  -1.04502   0.63546   2.51799
  -0.80560   0.63546   2.27857
  -0.80560   0.39604   2.27857
  -0.56618   0.15662   2.27857
  -0.32676  -0.08280   2.03915
  -0.32676  -0.32222   2.03915
  -0.32676  -0.56164   2.03915
  -0.08734  -0.56164   2.03915
  -0.08734  -0.80106   2.03915
   0.15208  -0.80106   1.79973
   0.15208  -1.04048   2.03915
   0.39150  -1.27990   2.03915
   0.39150  -1.27990   1.79973
   0.63092  -1.51932   1.79973
   0.63092  -1.75874   1.79973
   0.87034  -1.75874   1.79973
   1.10976  -1.99816   1.56031
   0.87034  -1.99816   1.32089
   1.34918  -1.99816   1.32089
   1.58860  -2.23758   1.32089
   1.82802  -2.47700   1.08147
   2.06744  -2.47700   1.08147
   2.06744  -2.47700   1.08147
   2.30686  -2.47700   1.08147
   2.30686  -2.71642   1.08147
   2.30686  -2.71642   1.32089
   2.30686  -2.71642   1.56031
   2.30686  -2.71642   1.79973
   2.30686  -2.71642   2.27857
   2.30686  -2.71642   2.51799
   2.06744  -2.71642   2.75741
   1.82802  -2.95584   2.99683
   1.82802  -2.71642   3.23625
   1.58860  -2.95584   3.47567
   1.34918  -2.95584   3.71509
   1.10976  -2.95584   4.19393
   0.87034  -2.71642   4.43335
   0.39150  -2.71642   4.67277
   0.15208  -2.71642   5.15161
  -0.08734  -2.71642   5.39103
  -0.32676  -2.71642   5.86988
  -0.32676  -2.47700   5.86988
  -0.56618  -2.47700   6.34872
  -0.80560  -2.47700   6.34872
  -0.80560  -2.47700   6.58814
  -1.04502  -2.47700   6.58814
  -1.28444  -2.47700   6.58814
  -1.28444  -2.71642   6.58814
  -1.52386  -2.47700   6.58814
  -1.52386  -2.71642   6.82756
  -1.76328  -2.95584   6.82756
  -2.00270  -3.19526   6.82756
  -2.00270  -3.19526   7.06698
  -2.24212  -3.19526   7.06698
  -2.48154  -3.19526   7.30640
  -2.48154  -3.19526   7.54582
  -2.72096  -2.95584   7.78524
  -2.72096  -2.95584   8.02466
  -2.96038  -2.71642   8.26408
  -2.96038  -2.71642   8.50350
  -3.19980  -2.71642   8.74292
  -3.19980  -2.23758   8.98234
  -3.43922  -2.23758   8.98234
  -3.19980  -1.99816   8.98234
  -2.96038  -1.99816   8.74292
  -2.96038  -1.75874   8.74292
  -2.72096  -1.51932   8.50350
  -2.48154  -1.51932   8.26408
  -2.24212  -1.27990   8.02466
  -1.76328  -1.27990   7.54582
  -1.52386  -1.04048   7.30640
  -1.28444  -1.04048   6.82756
  -0.80560  -1.27990   6.34872
  -0.56618  -1.27990   5.86988
  -0.32676  -1.27990   5.39103
  -0.08734  -1.27990   4.91219
   0.15208  -1.27990   4.19393
   0.39150  -1.27990   3.71509
   0.87034  -1.27990   2.99683
   1.10976  -1.51932   2.51799
   1.34918  -1.27990   1.56031
   1.58860  -1.27990   1.32089
   2.06744  -1.27990   0.60263
   2.30686  -1.27990  -0.11563
   2.78570  -1.27990  -0.59447
   3.02512  -1.04048  -1.07331
   3.50396  -1.04048  -1.79157
   3.98280  -1.04048  -2.74925
   4.22222  -0.80106  -3.22809
   4.70106  -0.80106  -3.94635
   5.17990  -0.80106  -4.42519
   5.65874  -0.80106  -4.90403
   6.13758  -0.80106  -5.62229
   6.61642  -0.56164  -5.86171
   7.09526  -0.56164  -6.57997
   7.57410  -0.80106  -6.81939
   7.81353  -0.80106  -7.29823
   8.29237  -1.04048  -7.53765
   8.77121  -0.80106  -8.01649
   9.01063  -1.04048  -8.25591
   9.25005  -1.04048  -8.49533
   9.48947  -1.04048  -8.73475
   9.72889  -1.04048  -8.97418
   9.72889  -0.80106  -9.21360
   9.96831  -0.80106  -9.69244
   9.96831  -0.56164  -9.93186
   9.96831  -0.56164 -10.17128
   9.96831  -0.08280 -10.41070
   9.72889  -0.08280 -10.65012
   9.72889  -0.08280 -10.88954
   9.72889   0.15662 -11.12896
   9.48947   0.15662 -11.60780
   9.48947   0.63546 -11.60780
   9.25005   0.63546 -12.08664
   9.01063   0.87488 -12.32606
   8.77121   0.87488 -12.08664
   8.53179   1.11430 -12.32606
   8.29237   1.35372 -12.32606
   7.81353   1.35372 -12.08664
   7.57410   1.35372 -11.60780
   7.09526   1.35372 -11.36838
   6.85584   1.59314 -11.12896
   6.37700   1.83256 -11.36838
   6.13758   1.83256 -11.60780
   5.65874   2.07198 -11.36838
   5.41932   2.31140 -11.60780
   5.17990   2.55082 -11.60780
   4.70106   2.55082 -11.84722
   4.46164   2.55082 -12.08664
   3.98280   2.79024 -12.08664
   3.74338   3.02966 -12.32606
   3.26454   3.26908 -12.32606
   3.02512   3.26908 -12.56548
   2.78570   3.50850 -12.56548
   2.54628   3.74792 -12.56548
   2.30686   3.74792 -12.32606
   2.06744   3.98734 -12.32606
   1.82802   3.98734 -12.08664
   1.58860   3.74792 -11.84722
   1.58860   4.22676 -11.60780
   1.34918   4.22676 -11.36838
   1.10976   3.98734 -10.88954
   0.87034   3.98734 -10.41070
   0.63092   3.98734 -10.17128
   0.39150   3.74792  -9.69244
   0.15208   3.74792  -9.45302
  -0.08734   3.50850  -9.21360
  -0.32676   3.50850  -8.49533
  -0.80560   3.50850  -8.01649
  -1.04502   3.50850  -7.29823
  -1.28444   3.50850  -6.57997
  -1.52386   3.50850  -6.10113
  -2.00270   3.50850  -5.38287
  -2.24212   3.50850  -4.90403
  -2.48154   3.74792  -4.42519
  -2.72096   3.74792  -3.94635
  -2.96038   3.98734  -3.46751
  -3.19980   3.98734  -3.22809
  -3.19980   3.98734  -2.98867
  -3.19980   3.98734  -2.74925
  -3.43922   3.98734  -2.74925
  -3.43922   3.98734  -2.74925
  -3.43922   3.98734  -2.50983
  -3.43922   3.74792  -2.27041
  -3.43922   3.26908  -2.27041
  -3.67864   3.50850  -2.03099
  -3.43922   3.26908  -1.79157
  -3.43922   3.26908  -1.55215
  -3.67864   3.26908  -0.83389
  -3.67864   3.02966  -0.59447
  -3.67864   3.02966  -0.11563
  -3.91806   3.26908   0.60263
  -3.91806   3.26908   1.08147
  -4.15748   3.26908   1.56031
  -4.39690   3.50850   2.03915
  -4.87574   3.26908   2.75741
  -4.87574   3.50850   2.99683
  -5.11516   3.50850   3.47567
  -5.11516   3.50850   3.95451
  -5.35458   3.74792   3.95451
  -5.83342   3.74792   4.67277
  -5.83342   3.74792   4.91219
  -6.31226   3.74792   5.39103
  -6.31226   3.74792   5.63046
  -6.79111   3.74792   6.10930
  -6.79111   3.74792   6.58814
  -7.03053   3.50850   6.58814
  -7.26995   3.50850   7.06698
  -7.50937   3.26908   7.06698
  -7.74879   3.26908   7.30640
  -7.98821   3.02966   7.78524
  -8.22763   3.02966   8.02466
  -8.46705   2.79024   8.26408
  -8.46705   2.55082   8.50350
  -8.70647   2.31140   8.50350
  -8.94589   1.83256   8.50350
  -8.94589   1.35372   8.50350
  -9.18531   1.11430   8.26408
  -9.42473   0.87488   8.26408
  -9.18531   0.39604   7.78524
  -9.18531   0.15662   7.78524
  -9.42473  -0.08280   7.54582
  -9.42473  -0.32222   7.30640
  -9.42473  -0.56164   7.30640
  -9.42473  -0.80106   7.06698
  -9.42473  -1.27990   7.06698
  -9.42473  -1.51932   6.82756
  -9.18531  -1.99816   6.82756
  -9.18531  -2.23758   6.58814
  -8.94589  -2.71642   6.58814
  -8.70647  -3.19526   6.34872
  -8.46705  -3.67411   5.86988
  -8.22763  -3.91353   5.63046
  -7.74879  -4.15295   5.39103
  -7.50937  -4.63179   5.15161
  -7.26995  -5.11063   5.15161
  -6.79111  -5.58947   4.91219
  -6.55168  -5.82889   4.67277
  -6.07284  -6.06831   4.43335
  -5.59400  -6.30773   4.19393
  -5.11516  -6.54715   4.19393
  -4.63632  -6.54715   3.95451
  -4.15748  -6.78657   3.95451
  -3.67864  -6.78657   3.71509
  -3.19980  -6.78657   3.71509
  -2.72096  -6.78657   3.71509
  -2.24212  -6.78657   3.47567
  -1.76328  -6.78657   3.47567
  -1.28444  -6.78657   3.47567
  -0.80560  -6.54715   3.47567
  -0.32676  -6.54715   3.47567
   0.15208  -6.30773   3.71509
   0.63092  -6.06831   3.71509
   1.10976  -5.82889   3.71509
   1.34918  -5.58947   3.71509
   1.82802  -5.35005   3.71509
   2.06744  -5.11063   3.71509
   2.30686  -4.87121   3.95451
   2.54628  -4.63179   3.95451
   2.54628  -4.15295   3.95451
   2.78570  -4.15295   3.95451
   2.78570  -3.91353   3.95451
   2.78570  -3.43468   3.95451
   2.78570  -3.19526   3.95451
   2.78570  -2.95584   3.95451
   2.78570  -2.71642   3.95451
   2.78570  -2.47700   3.95451
   2.54628  -2.23758   3.71509
   2.54628  -1.99816   3.71509
   2.54628  -1.99816   3.71509
   2.30686  -1.75874   3.71509
   2.30686  -1.51932   3.47567
   2.06744  -1.04048   3.47567
   2.30686  -0.80106   3.47567
   2.06744  -0.80106   3.23625
   2.06744  -0.56164   3.23625
   1.82802  -0.32222   2.99683
   1.82802  -0.08280   3.23625
   1.58860  -0.08280   2.99683
   1.58860  -0.08280   3.23625
   1.34918  -0.08280   3.23625
   0.87034   0.15662   3.23625
   0.63092  -0.08280   3.23625
   0.39150   0.15662   3.23625
   0.15208   0.15662   3.23625
  -0.32676   0.15662   2.99683
  -0.32676   0.15662   2.99683
  -0.80560   0.15662   2.75741
  -1.04502   0.15662   2.51799
  -1.28444   0.39604   2.27857
  -1.52386   0.39604   2.03915
  -1.52386   0.39604   1.79973
  -1.76328   0.39604   1.56031
  -1.76328   0.63546   1.32089
  -1.76328   0.63546   0.84205
  -2.00270   0.63546   0.84205
  -1.76328   0.63546   0.60263
  -1.76328   0.63546   0.36321
  -1.76328   0.63546   0.36321
  -1.76328   0.63546   0.12379
  -1.52386   0.39604  -0.11563
  -1.76328   0.39604  -0.11563
