********************************************************************************
              CENTRO DE INSTRUMENTACION Y REGISTRO SISMICO  A.C.

    Anaxagoras 814, Col. Narvarte, Benito Juarez, C.P. 03020 Mexico, D.F.
           Tels. 5687 45 42/ 5687 45  82             Fax. 5669 25 12
********************************************************************************
ARCHIVO ESTANDAR DE ACELERACION:
VERSION DEL FORMATO                    : 2.0
NOMBRE DEL ARCHIVO                     : AE0220090427164627
FECHA Y HORA DE CREACION               : 25/JUN/09, 01:10
REF. CATALOGO ACELEROGRAMAS, SMIS 1996 : REGISTRO No.     /PAG.


================================================================================
DATOS DE LA ESTACION:
NOMBRE DE LA ESTACION                  : ESC. PRIM. "GONZÁLEZ GARZÓN"
CLAVE DE LA ESTACION                   : AE02
LOCALIZACION DE LA ESTACION            : Del. Venustiano Carranza,              
                                       : Col. El Arenal 4a. Sección,            
                                       : Calle Xico esq. con calle Xocoyote.    
                                       :                                        
                                       : 
COORDENADAS DE LA ESTACION             : 19.4290 LAT. N
                                       : 99.0584 LONG. W
ALTITUD (msnm)                         : 2232
TIPO DE SUELO                          : Arcilloso, zona lago                
                                       :                           
                                       : 
INSTITUCION RESPONSABLE                : CIRES
                                       : 

================================================================================
DATOS DEL ACELEROGRAFO:
MODELO DEL ACELEROGRAFO                : RADESD
NUMERO DE SERIE DEL ACELEROGRAFO       : 242
NUMERO DE CANALES                      : 3
ORIENTACION C1-C6 (rumbo;orientacion)  : /N00E/+V/N90W
ORIENTACION C7-C12 (rumbo;orientacion) : 
VEL. DE MUESTREO, C1-C6 (muestras/s)   : /100/100/100
VEL. DE MUESTREO, C7-C12 (muestras/s)  : 
ESC. COMPLETA DE SENSORES, C1-C6, (g)  : /0.5/0.5/0.5
ESC. COMPLETA DE SENSORES, C7-C12, (g) : 
FREC. NAT. DE SENSORES, C1-C6, (Hz)    : /30/30/30
FREC. NAT. DE SENSORES, C7-C12, (Hz)   : 
AMORTIGUAMIENTO DE SENSORES, C1-C6     : /0.733/0.750/0.700
AMORTIGUAMIENTO DE SENSORES, C7-C12    : 
INTERVALO DE MUESTREO, C1-C6, (s)      : /0.01/0.01/0.01
INTERVALO DE MUESTREO, C7-C12, (s)     : 
UMBRAL DE DISPARO, C1-C6, (Gal)        : /2.87/9.58/9.58
UMBRAL DE DISPARO, C7-C12, (Gal)       : 
MEMORIA DE PREEVENTO (s)               : 56.0
TIEMPO DE POSEVENTO (s)                : 64.0


================================================================================
DATOS DEL SISMO:
FECHA DEL SISMO (GMT)                  : 27/ABR/09
HORA EPICENTRO (GMT)                   : 16:46:27.0
MAGNITUD(ES)                           : /Mc=5.7
COORDENADAS DEL EPICENTRO              : 16.90 LAT. N
                                       : 99.58 LONG. W
PROFUNDIDAD FOCAL (km)                 : 7
FUENTE DE LOS DATOS EPICENTRALES       : SSN
                                       : INSTITUTO DE GEOFISICA, UNAM

================================================================================
DATOS DE ESTE REGISTRO:
HORA DE LA PRIMERA MUESTRA (GMT)       : 16:47:52.00
EXACTITUD DEL TIEMPO (s)               : 0.01
DURACION DEL REGISTRO (s), C1-C6       : /130.25/130.25/130.25
DURACION DEL REGISTRO (s), C7-C12      : 
NUM. TOTAL DE MUESTRAS, C1-C6          : /13025/13025/13025
NUM. TOTAL DE MUESTRAS, C7-C12         : 
ACEL. MAX. (Gal), C1-C6                : /6.02771/2.18123/4.5472
ACEL. MAX., C1-C6, EN LA MUESTRA       : /6117/8062/5722
ACEL. MAX. (Gal), C7-C12               : 
ACEL. MAX., C7-C12, EN LA MUESTRA      : 
UNIDADES DE LOS DATOS                  : Gal (cm/s/s)
FACTOR DE DECIMACION                   : 1
FORMATO DATOS (FORTRAN,10 campos/dato) : 3F10.5


================================================================================
CALIDAD DEL ACELEROGRAMA:
REGISTRO DIGITAL COMPLETO CON TIEMPO ABSOLUTO CORRECTO.


================================================================================
COMENTARIOS:














================================================================================
DATOS DE ACELERACION:
---------+---------+---------+---------+---------+---------+---------+---------+
   CANAL-1   CANAL-2   CANAL-3   CANAL-4   CANAL-5   CANAL-6   CANAL-7   CANAL-8
      N00E        +V      N90W
---------+---------+---------+---------+---------+---------+---------+---------+
[...]
  -2.11258   1.17065   2.39598
  -2.11258   1.64949   2.63540
  -2.11258   1.64949   2.63540
  -2.35200   1.64949   2.87483
  -2.11258   1.41007   2.87483
  -2.11258   1.41007   3.11425
  -2.11258   1.17065   3.11425
  -1.87316   1.41007   3.11425
  -1.87316   1.17065   3.11425
  -1.63374   1.17065   3.35367
  -1.87316   1.17065   3.11425
  -1.39432   1.17065   3.11425
  -1.39432   1.17065   2.87483
  -1.15490   1.41007   2.87483
  -1.15490   1.41007   2.63540
  -1.15490   1.41007   2.39598
  -0.91548   1.41007   2.15656
  -0.67606   1.41007   2.15656
  -0.67606   1.17065   1.91714
  -0.67606   1.17065   2.15656
  -0.43664   0.93123   1.67772
  -0.43664   1.17065   1.67772
  -0.43664   0.93123   1.67772
  -0.43664   0.93123   1.67772
  -0.43664   0.93123   1.67772
  -0.43664   0.69181   1.43830
  -0.67606   0.69181   1.43830
  -0.67606   0.69181   1.43830
  -0.67606   0.45239   1.43830
  -0.67606   0.45239   1.43830
  -0.91548   0.45239   1.43830
  -0.67606   0.21297   1.19888
  -0.43664  -0.02645   1.19888
  -0.19722  -0.02645   1.19888
   0.04220  -0.02645   0.95946
   0.28162  -0.26587   0.95946
   0.76046  -0.02645   0.72004
   1.23930  -0.50529   0.48062
   1.95757  -0.50529   0.48062
   2.43641  -0.74471   0.24120
   2.91525  -0.98413   0.00178
   3.39409  -1.22355  -0.23764
   4.11235  -1.22355  -0.23764
   4.35177  -1.46297  -0.23764
   4.83061  -1.46297  -0.47706
   5.07003  -1.70239  -0.71648
   5.30945  -1.94181  -0.47706
   5.30945  -1.70239  -0.47706
   5.30945  -1.70239  -0.47706
   5.30945  -1.46297  -0.47706
   5.30945  -1.46297  -0.23764
   5.30945  -1.46297  -0.23764
   5.30945  -1.22355   0.00178
   5.07003  -1.22355  -0.23764
   4.83061  -1.22355   0.00178
   4.83061  -1.22355   0.00178
   4.59119  -0.98413   0.00178
   4.59119  -0.98413   0.00178
   4.11235  -0.74471   0.00178
   4.11235  -0.74471   0.00178
   3.87293  -0.74471  -0.23764
   3.63351  -0.74471   0.00178
   3.63351  -0.74471  -0.47706
   3.39409  -0.74471  -0.23764
   3.15467  -0.98413  -0.47706
   3.15467  -0.98413  -0.47706
   2.91525  -1.22355  -0.71648
   2.67583  -1.22355  -0.71648
   2.67583  -1.46297  -0.95590
   2.43641  -1.46297  -0.95590
   2.19699  -1.46297  -0.95590
   1.95757  -1.22355  -0.71648
   1.95757  -1.46297  -0.71648
   1.71815  -0.98413  -0.95590
   1.47873  -1.22355  -0.71648
   1.47873  -0.98413  -0.71648
   0.99988  -0.98413  -0.47706
   0.99988  -0.98413  -0.71648
   0.99988  -0.74471  -0.95590
   0.76046  -0.74471  -0.95590
   0.52104  -0.74471  -1.19532
   0.52104  -0.74471  -1.43474
   0.52104  -0.74471  -1.67416
   0.28162  -0.74471  -1.67416
   0.04220  -0.74471  -1.67416
  -0.19722  -0.74471  -1.67416
  -0.43664  -0.74471  -1.67416
  -0.91548  -0.50529  -1.67416
  -1.39432  -0.50529  -1.43474
  -1.87316  -0.26587  -1.19532
  -2.35200  -0.26587  -0.95590
  -2.59142  -0.26587  -0.71648
  -3.30968  -0.02645  -0.47706
  -3.54910  -0.26587  -0.47706
  -3.78852  -0.02645  -0.23764
  -4.02794  -0.02645   0.00178
  -4.02794  -0.02645  -0.23764
  -4.26736  -0.02645   0.00178
  -4.26736   0.21297   0.00178
  -4.50678   0.21297   0.00178
  -4.50678   0.21297   0.00178
  -4.74620   0.45239   0.00178
  -4.50678   0.45239  -0.23764
  -4.74620   0.69181  -0.23764
  -4.50678   0.69181  -0.23764
  -4.50678   0.93123  -0.47706
  -4.26736   0.93123  -0.47706
  -4.26736   0.93123  -0.71648
  -4.26736   0.93123  -0.47706
  -4.26736   0.69181  -0.47706
  -4.26736   0.93123  -0.47706
  -4.50678   0.69181  -0.47706
  -4.50678   0.69181  -0.47706
  -4.50678   0.45239  -0.23764
  -4.50678   0.45239  -0.23764
  -4.98562   0.69181   0.00178
  -4.98562   0.69181  -0.23764
  -4.98562   0.45239   0.00178
  -4.98562   0.45239   0.24120
  -4.98562   0.69181   0.00178
  -4.74620   0.69181   0.24120
  -4.74620   0.69181   0.00178
  -4.74620   0.69181   0.24120
  -4.50678   0.69181   0.24120
  -4.26736   0.69181   0.24120
  -4.26736   0.69181   0.24120
  -4.02794   0.69181   0.24120
  -3.54910   0.45239   0.24120
  -3.54910   0.45239   0.24120
  -3.30968   0.21297   0.48062
  -3.07026   0.21297   0.24120
  -2.83084   0.21297   0.72004
  -2.59142  -0.02645   0.72004
  -2.59142  -0.02645   0.72004
  -2.59142   0.21297   0.72004
  -2.35200   0.21297   0.72004
  -2.11258  -0.02645   0.72004
  -1.87316   0.21297   0.72004
  -1.63374   0.21297   0.48062
  -1.39432   0.21297   0.48062
  -1.15490   0.45239   0.48062
  -0.67606   0.45239   0.24120
  -0.67606   0.45239   0.24120
  -0.43664   0.45239   0.24120
  -0.19722   0.69181   0.24120
   0.04220   0.21297   0.24120
   0.28162   0.45239   0.00178
   0.28162   0.21297   0.24120
   0.76046  -0.02645  -0.23764
   0.76046  -0.02645   0.00178
   0.76046  -0.02645  -0.23764
   0.99988  -0.02645  -0.23764
   0.99988  -0.26587  -0.47706
   0.99988  -0.26587  -0.47706
   1.23930  -0.26587  -0.47706
   0.99988  -0.26587  -0.23764
   0.99988  -0.50529  -0.23764
   0.99988  -0.26587  -0.23764
   0.99988  -0.50529  -0.23764
   0.99988  -0.26587  -0.23764
   0.99988  -0.26587  -0.23764
   0.99988  -0.26587  -0.23764
   0.76046  -0.02645   0.00178
   0.99988   0.21297   0.00178
   0.99988   0.21297   0.00178
   1.23930   0.45239   0.00178
   0.99988   0.45239   0.00178
   1.23930   0.45239   0.00178
   1.47873   0.21297   0.00178
   1.47873   0.21297   0.00178
   1.71815   0.21297  -0.23764
   1.71815  -0.02645  -0.23764
   1.95757  -0.02645  -0.47706
   1.95757  -0.02645  -0.47706
   2.19699  -0.26587  -0.47706
   1.95757  -0.02645  -0.71648
   1.95757  -0.26587  -0.47706
   1.95757  -0.02645  -0.47706
   1.71815  -0.02645  -0.47706
   1.47873  -0.02645  -0.23764
   1.47873  -0.02645  -0.23764
   1.23930   0.21297  -0.23764
   1.23930   0.21297   0.24120
   1.47873   0.21297   0.24120
   1.23930   0.69181   0.72004
   1.47873   0.45239   0.72004
   1.47873   0.69181   1.19888
   1.47873   0.69181   1.43830
   1.71815   0.93123   1.67772
   1.71815   0.69181   1.91714
   2.19699   0.69181   1.91714
   1.95757   0.69181   2.15656
   2.19699   0.69181   2.39598
   2.19699   0.45239   2.39598
   1.95757   0.69181   2.63540
   1.95757   0.69181   2.63540
   1.95757   0.69181   2.87483
   1.95757   0.69181   3.11425
   1.71815   0.45239   3.11425
   1.47873   0.45239   3.35367
   1.23930   0.69181   3.59309
   1.23930   0.69181   3.59309
   1.23930   0.69181   3.59309
   0.99988   0.69181   3.59309
   0.76046   0.69181   3.59309
   0.99988   0.69181   3.35367
   0.76046   0.93123   3.11425
   0.76046   0.93123   2.87483
   0.76046   0.93123   2.87483
   0.52104   0.93123   2.39598
   0.28162   0.93123   2.15656
   0.28162   0.69181   1.91714
  -0.19722   0.93123   1.91714
  -0.43664   0.69181   1.67772
  -0.67606   0.69181   1.67772
  -0.91548   0.45239   1.19888
  -1.15490   0.21297   1.19888
  -1.15490   0.21297   1.19888
  -1.63374   0.21297   0.95946
  -1.87316  -0.02645   0.72004
  -1.87316  -0.02645   0.48062
  -2.11258  -0.26587   0.72004
  -2.35200  -0.50529   0.24120
  -2.35200  -0.26587   0.24120
  -2.59142  -0.50529   0.00178
  -2.59142  -0.50529  -0.23764
  -2.35200  -0.74471  -0.71648
  -2.11258  -0.74471  -0.95590
  -1.87316  -0.74471  -1.19532
  -1.63374  -0.98413  -1.43474
  -1.15490  -0.74471  -1.91358
  -0.91548  -0.98413  -1.91358
  -0.43664  -0.98413  -2.15300
  -0.19722  -1.22355  -2.15300
   0.28162  -1.22355  -2.15300
   0.52104  -1.46297  -2.39242
   0.52104  -1.70239  -2.39242
   0.76046  -1.70239  -2.15300
   0.76046  -1.94181  -2.39242
   0.99988  -1.70239  -2.15300
   0.99988  -1.94181  -2.15300
   1.23930  -1.94181  -1.91358
   0.99988  -1.70239  -1.91358
   1.47873  -1.94181  -1.91358
   1.47873  -1.70239  -1.67416
   1.23930  -1.70239  -1.67416
   0.99988  -1.22355  -1.91358
   1.23930  -1.22355  -1.19532
   1.23930  -0.98413  -1.43474
   1.71815  -0.74471  -1.67416
   1.95757  -0.74471  -1.19532
   1.95757  -0.74471  -1.19532
   2.43641  -0.50529  -0.95590
   2.43641  -0.50529  -0.71648
   2.91525  -0.50529  -0.47706
   2.91525  -0.26587  -0.23764
   3.15467  -0.26587   0.00178
   3.39409  -0.02645   0.24120
   3.63351  -0.02645   0.48062
   3.63351   0.21297   0.48062
   3.63351  -0.02645   0.95946
   3.63351   0.21297   0.95946
   3.63351   0.21297   1.19888
   4.11235   0.45239   1.19888
   3.87293   0.45239   1.19888
   3.87293   0.69181   1.43830
   4.11235   0.69181   1.43830
   3.87293   0.69181   1.43830
   3.63351   0.69181   1.67772
   3.87293   0.69181   1.43830
   3.63351   0.93123   1.43830
   3.63351   0.93123   1.43830
   3.39409   1.17065   1.43830
   3.39409   1.17065   1.43830
   3.39409   1.17065   1.43830
   2.91525   1.17065   1.43830
   2.67583   1.41007   1.19888
   2.43641   1.17065   1.19888
   1.95757   1.17065   0.95946
   1.71815   1.17065   0.95946
   1.23930   0.93123   0.48062
   0.99988   0.93123   0.48062
   0.76046   0.69181   0.24120
   0.04220   0.69181   0.24120
  -0.19722   0.21297  -0.23764
  -0.91548   0.21297  -0.23764
  -1.39432  -0.02645  -0.71648
  -1.87316   0.21297  -0.71648
  -2.35200  -0.02645  -0.71648
  -2.83084  -0.02645  -0.95590
  -3.30968  -0.02645  -0.95590
  -3.30968  -0.26587  -1.19532
  -3.78852  -0.02645  -1.19532
  -3.78852  -0.26587  -1.19532
  -3.78852   0.21297  -1.43474
  -3.78852  -0.02645  -1.43474
  -3.78852  -0.02645  -1.67416
  -3.54910   0.21297  -1.67416
  -3.30968   0.21297  -1.91358
  -3.30968   0.21297  -1.91358
  -3.07026   0.21297  -2.15300
  -2.83084  -0.02645  -2.15300
  -2.59142  -0.02645  -2.15300
  -2.59142  -0.26587  -2.15300
  -2.59142  -0.50529  -2.39242
  -2.35200  -0.74471  -2.39242
  -2.35200  -0.74471  -2.39242
  -2.35200  -0.98413  -2.63184
  -2.59142  -0.98413  -2.63184
  -2.59142  -0.98413  -2.63184
  -2.59142  -0.98413  -3.11068
  -2.59142  -0.98413  -3.11068
  -2.83084  -0.98413  -2.87126
  -2.83084  -0.98413  -3.11068
  -2.83084  -0.74471  -3.35010
  -2.83084  -0.74471  -3.11068
  -2.59142  -0.74471  -3.11068
  -2.59142  -0.74471  -2.87126
  -2.11258  -0.74471  -2.87126
  -1.87316  -0.98413  -2.87126
  -1.39432  -0.74471  -2.39242
  -1.15490  -0.98413  -2.39242
  -0.67606  -0.98413  -2.15300
  -0.43664  -0.98413  -1.67416
   0.04220  -0.98413  -1.43474
   0.04220  -1.22355  -0.95590
   0.28162  -1.22355  -0.71648
   0.28162  -1.22355  -0.71648
   0.52104  -1.46297  -0.23764
   0.76046  -1.22355   0.00178
   0.76046  -1.22355   0.48062
   0.99988  -1.22355   0.48062
   1.23930  -1.22355   0.95946
   1.23930  -0.98413   1.19888
   1.71815  -0.74471   1.43830
   1.95757  -0.74471   1.43830
   2.19699  -0.74471   1.91714
   2.43641  -0.50529   2.15656
   2.67583  -0.26587   2.15656
   3.39409  -0.26587   2.39598
   3.63351  -0.02645   2.63540
   4.11235  -0.02645   2.63540
   4.59119   0.21297   2.87483
   5.07003  -0.02645   2.87483
   5.30945  -0.02645   2.87483
   5.78829  -0.26587   3.11425
   5.78829  -0.26587   3.11425
   6.02771  -0.26587   3.11425
   6.02771  -0.26587   3.11425
   6.02771  -0.26587   3.59309
   5.78829  -0.26587   3.35367
   5.54887  -0.26587   3.35367
   5.54887  -0.02645   3.35367
   5.54887   0.21297   3.59309
   5.07003   0.45239   3.59309
   4.83061   0.45239   3.59309
   4.59119   0.93123   3.59309
   4.35177   0.93123   3.59309
   4.11235   1.41007   3.59309
   3.87293   1.41007   3.59309
   3.87293   1.88891   3.35367
   3.63351   1.88891   3.11425
   3.87293   2.12833   2.87483
   3.63351   2.12833   2.39598
   3.63351   2.12833   2.15656
   3.63351   2.12833   1.91714
   3.39409   1.88891   1.19888
   3.15467   1.88891   1.19888
   2.91525   1.64949   0.72004
   2.43641   1.64949   0.24120
   2.19699   1.41007   0.00178
   1.47873   1.64949  -0.23764
   0.99988   1.41007  -0.47706
   0.76046   1.41007  -0.71648
   0.28162   1.41007  -0.71648
   0.04220   1.41007  -0.95590
  -0.19722   1.17065  -1.19532
  -0.67606   1.41007  -1.43474
  -1.15490   1.41007  -1.43474
  -1.63374   1.17065  -1.43474
  -1.87316   1.17065  -1.67416
  -2.11258   1.17065  -1.67416
  -2.35200   1.17065  -1.91358
  -2.83084   0.93123  -2.15300
  -3.07026   0.93123  -2.15300
  -3.30968   0.93123  -2.39242
  -3.54910   0.93123  -2.39242
  -3.78852   0.69181  -2.63184
  -4.02794   0.69181  -2.63184
  -4.26736   0.69181  -2.63184
  -4.50678   0.69181  -2.63184
  -4.98562   0.69181  -2.39242
  -4.98562   0.45239  -2.39242
  -5.46446   0.45239  -2.15300
  -5.46446   0.45239  -2.15300
  -5.70388   0.69181  -2.15300
  -5.70388   0.45239  -1.91358
  -5.70388   0.45239  -1.91358
  -5.70388   0.21297  -1.67416
  -5.70388   0.21297  -1.67416
  -5.70388   0.21297  -1.43474
  -5.46446  -0.02645  -1.19532
  -5.46446  -0.02645  -1.19532
  -5.46446  -0.26587  -0.95590
  -5.22504  -0.26587  -0.95590
  -4.74620  -0.50529  -0.95590
  -4.26736  -0.50529  -0.71648
  -4.02794  -0.74471  -0.47706
  -3.54910  -0.74471  -0.47706
  -3.30968  -0.74471  -0.47706
  -2.83084  -1.22355  -0.23764
  -2.59142  -1.22355  -0.23764
  -2.35200  -1.46297  -0.23764
  -1.87316  -1.46297  -0.23764
  -1.39432  -1.70239  -0.23764
  -0.91548  -1.94181   0.00178
  -0.91548  -1.94181  -0.23764
  -0.43664  -1.94181   0.00178
  -0.19722  -1.94181   0.00178
   0.04220  -1.94181   0.24120
   0.52104  -1.94181   0.24120
   0.52104  -1.70239   0.48062
   0.99988  -1.70239   0.24120
   1.23930  -1.22355   0.48062
   1.47873  -1.46297   0.48062
   1.47873  -1.22355   0.72004
   1.95757  -0.98413   0.72004
   1.95757  -0.98413   0.48062
   2.19699  -0.74471   0.48062
   2.43641  -0.74471   0.48062
   2.67583  -0.74471   0.24120
   2.67583  -0.74471   0.24120
   2.67583  -0.74471   0.24120
   2.67583  -0.50529  -0.23764
   2.67583  -0.50529  -0.47706
   2.67583  -0.26587  -0.47706
   2.43641  -0.26587  -0.71648
   2.19699  -0.26587  -1.19532
   1.95757  -0.02645  -1.19532
   1.71815  -0.02645  -1.43474
   1.47873  -0.02645  -1.67416
   1.23930  -0.02645  -1.67416
   0.99988  -0.02645  -2.15300
   0.52104  -0.02645  -2.15300
   0.76046  -0.26587  -2.39242
   0.28162  -0.02645  -2.39242
   0.28162  -0.02645  -2.15300
   0.28162  -0.02645  -2.39242
   0.04220  -0.02645  -2.39242
   0.04220  -0.02645  -2.15300
   0.04220   0.21297  -2.39242
   0.04220  -0.02645  -2.39242
   0.28162  -0.02645  -2.39242
   0.04220   0.21297  -2.39242
   0.28162   0.21297  -2.15300
   0.04220  -0.02645  -2.15300
   0.04220   0.45239  -2.15300
   0.04220   0.21297  -2.15300
   0.04220   0.21297  -2.15300
  -0.19722   0.21297  -1.91358
  -0.19722   0.21297  -1.91358
  -0.19722   0.45239  -1.91358
   0.04220   0.45239  -1.91358
   0.04220   0.45239  -1.67416
   0.04220   0.45239  -1.67416
   0.04220   0.69181  -1.67416
   0.28162   0.69181  -1.67416
   0.52104   0.69181  -1.67416
   0.52104   0.69181  -1.67416
   0.76046   0.45239  -1.67416
   0.76046   0.45239  -1.67416
   1.23930   0.21297  -1.91358
   1.23930   0.21297  -1.91358
   1.23930  -0.26587  -1.91358
   1.23930  -0.02645  -2.15300
   1.47873  -0.26587  -1.91358
   1.47873  -0.50529  -2.15300
   1.47873  -0.50529  -2.15300
   1.47873  -0.50529  -1.67416
   1.23930  -0.74471  -1.67416
   1.23930  -0.74471  -1.43474
   1.23930  -0.98413  -1.43474
   0.76046  -0.74471  -0.95590
   0.76046  -0.74471  -0.95590
   0.52104  -0.74471  -0.71648
   0.52104  -0.74471  -0.47706
   0.28162  -0.74471  -0.23764
   0.04220  -0.50529   0.24120
   0.04220  -0.50529   0.48062
   0.04220  -0.50529   0.72004
  -0.19722  -0.26587   1.19888
  -0.43664  -0.26587   1.43830
  -0.67606  -0.02645   1.67772
  -0.67606  -0.02645   2.15656
  -0.91548  -0.02645   2.39598
  -0.91548  -0.02645   2.63540
