********************************************************************************
              CENTRO DE INSTRUMENTACION Y REGISTRO SISMICO  A.C.

    Anaxagoras 814, Col. Narvarte, Benito Juarez, C.P. 03020 Mexico, D.F.
           Tels. 5687 45 42/ 5687 45  82             Fax. 5669 25 12
********************************************************************************
ARCHIVO ESTANDAR DE ACELERACION:
VERSION DEL FORMATO                    : 2.0
NOMBRE DEL ARCHIVO                     : AE0220130616051902
FECHA Y HORA DE CREACION               : 20/OCT/17, 13:28
REF. CATALOGO ACELEROGRAMAS, SMIS 1996 : REGISTRO No.     /PAG.


================================================================================
DATOS DE LA ESTACION:
NOMBRE DE LA ESTACION                  : ESC. PRIM. "GONZÁLEZ GARZÓN"
CLAVE DE LA ESTACION                   : AE02
LOCALIZACION DE LA ESTACION            : Del. Venustiano Carranza,              
                                       : Col. El Arenal 4a. Sección,            
                                       : Calle Xico esq. con calle Xocoyote.    
                                       :                                        
                                       : 
COORDENADAS DE LA ESTACION             : 19.4290 LAT. N
                                       : 99.0584 LONG. W
ALTITUD (msnm)                         : 2232
TIPO DE SUELO                          : Arcilloso, zona lago                
                                       :                           
                                       : 
INSTITUCION RESPONSABLE                : CIRES
                                       : 

================================================================================
DATOS DEL ACELEROGRAFO:
MODELO DEL ACELEROGRAFO                : RADESD
NUMERO DE SERIE DEL ACELEROGRAFO       : 242
NUMERO DE CANALES                      : 3
ORIENTACION C1-C6 (rumbo;orientacion)  : /N00E/+V/N90W
ORIENTACION C7-C12 (rumbo;orientacion) : 
VEL. DE MUESTREO, C1-C6 (muestras/s)   : /100/100/100
VEL. DE MUESTREO, C7-C12 (muestras/s)  : 
ESC. COMPLETA DE SENSORES, C1-C6, (g)  : /0.5/0.5/0.5
ESC. COMPLETA DE SENSORES, C7-C12, (g) : 
FREC. NAT. DE SENSORES, C1-C6, (Hz)    : /30/30/30
FREC. NAT. DE SENSORES, C7-C12, (Hz)   : 
AMORTIGUAMIENTO DE SENSORES, C1-C6     : /0.733/0.750/0.700
AMORTIGUAMIENTO DE SENSORES, C7-C12    : 
INTERVALO DE MUESTREO, C1-C6, (s)      : /0.01/0.01/0.01
INTERVALO DE MUESTREO, C7-C12, (s)     : 
UMBRAL DE DISPARO, C1-C6, (Gal)        : /1.65/9.58/2.69
UMBRAL DE DISPARO, C7-C12, (Gal)       : 
MEMORIA DE PREEVENTO (s)               : 44.0
TIEMPO DE POSEVENTO (s)                : 64.0


================================================================================
DATOS DEL SISMO:
FECHA DEL SISMO (GMT)                  : 16/JUN/13
HORA EPICENTRO (GMT)                   : 05:19:02.0
MAGNITUD(ES)                           : /Mc=5.8
COORDENADAS DEL EPICENTRO              : 18.11 LAT. N
                                       : 99.22 LONG. W
PROFUNDIDAD FOCAL (km)                 : 55
FUENTE DE LOS DATOS EPICENTRALES       : SSN
                                       : INSTITUTO DE GEOFISICA, UNAM

================================================================================
DATOS DE ESTE REGISTRO:
HORA DE LA PRIMERA MUESTRA (GMT)       : 05:19:28.00
EXACTITUD DEL TIEMPO (s)               : 0.01
DURACION DEL REGISTRO (s), C1-C6       : /266.6/266.6/266.6
DURACION DEL REGISTRO (s), C7-C12      : 
NUM. TOTAL DE MUESTRAS, C1-C6          : /26660/26660/26660
NUM. TOTAL DE MUESTRAS, C7-C12         : 
ACEL. MAX. (Gal), C1-C6                : /28.90328/7.32865/14.5942
ACEL. MAX., C1-C6, EN LA MUESTRA       : /6215/7369/7680
ACEL. MAX. (Gal), C7-C12               : 
ACEL. MAX., C7-C12, EN LA MUESTRA      : 
UNIDADES DE LOS DATOS                  : Gal (cm/s/s)
FACTOR DE DECIMACION                   : 1
FORMATO DATOS (FORTRAN,10 campos/dato) : 3F10.5


================================================================================
CALIDAD DEL ACELEROGRAMA:
REGISTRO DIGITAL COMPLETO CON TIEMPO ABSOLUTO CORRECTO.


================================================================================
COMENTARIOS:














================================================================================
DATOS DE ACELERACION:
---------+---------+---------+---------+---------+---------+---------+---------+
   CANAL-1   CANAL-2   CANAL-3   CANAL-4   CANAL-5   CANAL-6   CANAL-7   CANAL-8
      N00E        +V      N90W
---------+---------+---------+---------+---------+---------+---------+---------+
[...]
  -0.20124   0.01856   0.72869
  -0.39577   0.13827   0.86336
  -0.47059   0.36273   1.05789
  -0.50051   0.49740   1.22249
  -0.39577   0.61711   1.26738
  -0.20124   0.63207   1.26738
  -0.03664   0.67696   1.22249
   0.11300   0.72186   1.11775
   0.21775   0.61711   1.07285
   0.17286   0.22805   1.01300
   0.12796  -0.19093   0.92322
   0.02322  -0.62488   0.78854
  -0.12642  -0.90919   0.57905
  -0.14138  -0.87927   0.42941
  -0.15635  -0.75956   0.23488
   0.00825  -0.65481   0.14510
   0.18782  -0.77452   0.10021
   0.32249  -1.07380   0.08525
   0.45717  -1.26832   0.10021
   0.45717  -1.37307   0.14510
   0.42724  -1.25336   0.20496
   0.36738  -0.89423   0.29474
   0.23271  -0.52014   0.36956
   0.08307  -0.11611   0.38452
  -0.03664   0.24302   0.35459
  -0.17131   0.48244   0.24985
  -0.23117   0.63207   0.13014
  -0.27606   0.64704   0.02539
  -0.30598   0.73682  -0.12425
  -0.35088   0.81164  -0.15417
  -0.47059   0.88646  -0.21403
  -0.62022   0.90142  -0.30381
  -0.69504   1.03610  -0.51330
  -0.78483   1.30544  -0.72280
  -0.88957   1.61968  -0.87243
  -1.03921   1.69450  -1.00711
  -1.08410   1.52990  -1.03704
  -1.18885   1.03610  -0.96222
  -1.24870   0.45251  -0.84251
  -1.29359   0.03352  -0.67791
  -1.35345  -0.16101  -0.45345
  -1.39834   0.04849  -0.24396
  -1.41330   0.31783   0.01043
  -1.32352   0.55725   0.07028
  -1.15892   0.63207  -0.01950
  -0.90454   0.72186  -0.16914
  -0.63519   0.57222  -0.37863
  -0.42569   0.61711  -0.51330
  -0.26109   0.72186  -0.61805
  -0.21620   0.91638  -0.70783
  -0.15635   1.12588  -0.72280
  -0.18627   1.35033  -0.75272
  -0.17131   1.39523  -0.82754
  -0.11146   1.44012  -0.91733
  -0.00671   1.35033  -1.02207
   0.15789   1.14084  -1.08193
   0.26264   0.73682  -1.14178
   0.30753   0.04849  -1.20164
   0.26264  -0.71466  -1.32135
   0.17286  -1.40300  -1.42609
   0.02322  -1.91177  -1.48595
  -0.09649  -2.04644  -1.45602
  -0.23117  -1.89680  -1.35128
  -0.24613  -1.61249  -1.26149
  -0.18627  -1.53767  -1.21660
  -0.06656  -1.56760  -1.27646
   0.03818  -1.74716  -1.41113
   0.15789  -1.70227  -1.60566
   0.26264  -1.43293  -1.69544
   0.32249  -0.95409  -1.60566
   0.32249  -0.47524  -1.59070
   0.42724  -0.14604  -1.53084
   0.57688   0.03352  -1.59070
   0.74148   0.03352  -1.69544
   0.98090   0.03352  -1.77026
   1.19039  -0.08619  -1.83012
   1.42981  -0.29568  -1.77026
   1.62434  -0.62488  -1.62062
   1.80391  -0.92416  -1.50091
   1.98347  -1.02890  -1.30638
   2.16304  -1.02890  -1.11186
   2.32764  -1.01394  -0.90236
   2.53713  -0.86430  -0.73776
   2.76159  -0.59495  -0.54323
   2.94115  -0.25079  -0.42352
   3.07583   0.07841  -0.31878
   3.18057   0.34776  -0.30381
   3.30028   0.40762  -0.25892
   3.36014   0.43754  -0.27388
   3.30028   0.55725  -0.25892
   3.22546   0.66200  -0.10928
   3.12072   0.67696   0.01043
   3.01597   0.57222   0.08525
   2.85137   0.40762   0.04035
   2.70173   0.13827   0.08525
   2.49224   0.07841   0.18999
   2.28275  -0.02633   0.38452
   2.05829  -0.10115   0.51919
   1.84880  -0.22086   0.68380
   1.69916  -0.28072   0.81847
   1.50463  -0.34057   0.90825
   1.25025  -0.16101   0.90825
   1.02579   0.25798   0.90825
   0.87615   0.72186   0.95314
   0.69659   0.97624   1.01300
   0.57688   1.14084   1.05789
   0.44220   1.02113   1.13271
   0.29257   0.93135   1.19256
   0.20278   0.87149   1.31227
   0.15789   0.85653   1.41702
   0.15789   0.76675   1.46191
   0.12796   0.66200   1.49184
   0.11300   0.63207   1.40206
   0.05315   0.73682   1.28235
  -0.03664   1.06602   1.19256
  -0.14138   1.45508   1.22249
  -0.15635   1.75436   1.28235
  -0.17131   1.85910   1.38709
  -0.21620   1.82917   1.50680
  -0.26109   1.73939   1.61155
  -0.35088   1.49997   1.62651
  -0.48555   1.21566   1.61155
  -0.69504   0.88646   1.52177
  -0.87461   0.51236   1.41702
  -1.09906   0.13827   1.29731
  -1.38338  -0.14604   1.14767
  -1.66769  -0.44532   0.99804
  -1.90711  -0.78948   0.89329
  -2.14653  -1.10372   0.66883
  -2.28120  -1.14861   0.48927
  -2.46077  -1.05883   0.30970
  -2.56551  -0.89423   0.21992
  -2.68522  -0.93912   0.11517
  -2.65530  -1.07380   0.04035
  -2.58048  -1.16358  -0.09432
  -2.47573  -1.14861  -0.16914
  -2.34106  -1.01394  -0.18410
  -2.16149  -0.83438  -0.16914
  -1.86222  -0.62488  -0.06439
  -1.56294  -0.47524   0.08525
  -1.29359  -0.20590   0.16006
  -1.00928   0.12331   0.27977
  -0.72497   0.46747   0.39948
  -0.54540   0.63207   0.48927
  -0.35088   0.67696   0.60898
  -0.21620   0.49740   0.65387
   0.02322   0.28791   0.69876
   0.15789  -0.07122   0.74365
   0.29257  -0.55006   0.80351
   0.50206  -0.93912   0.93818
   0.69659  -1.26832   1.10278
   0.89112  -1.73220   1.20753
   1.08564  -2.13622   1.35717
   1.19039  -2.51032   1.44695
   1.28017  -2.71981   1.46191
   1.35499  -2.65995   1.46191
   1.28017  -2.64499   1.47688
   1.20536  -2.43550   1.47688
   1.08564  -2.27090   1.50680
   1.04075  -2.16615   1.58162
   1.02579  -2.25593   1.55169
   1.07068  -2.43550   1.49184
   1.11557  -2.58513   1.29731
   1.16046  -2.46542   1.19256
   1.13054  -2.21104   1.07285
   1.17543  -1.88184   0.93818
   1.13054  -1.67235   0.80351
   1.11557  -1.58256   0.63890
   1.14550  -1.58256   0.39948
   1.22032  -1.41796   0.21992
   1.29514  -1.22343   0.14510
   1.39988  -1.17854   0.11517
   1.62434  -1.04387   0.11517
   1.92362  -0.81941   0.04035
   2.20793  -0.53510  -0.19907
   2.55209  -0.23582  -0.34870
   2.77655  -0.04130  -0.64798
   2.98604   0.12331  -0.97718
   3.16561   0.28791  -1.32135
   3.37510   0.39265  -1.66551
   3.56963   0.34776  -2.00968
   3.77912   0.18316  -2.35385
   4.00358  -0.11611  -2.66809
   4.21307  -0.26575  -2.99729
   4.31782  -0.22086  -3.13196
   4.42256  -0.07122  -3.25167
   4.52731   0.18316  -3.29656
   4.61709   0.27294  -3.34146
   4.67695   0.24302  -3.40131
   4.63206   0.00360  -3.40131
   4.52731  -0.07122  -3.34146
   4.34774  -0.05626  -3.17685
   4.12329   0.04849  -2.92247
   3.83898   0.27294  -2.60823
   3.52474   0.46747  -2.33888
   3.18057   0.39265  -2.18925
   2.79151   0.31783  -2.08450
   2.29771   0.21309  -2.05457
   1.78894   0.34776  -2.00968
   1.13054   0.55725  -1.91990
   0.36738   0.69193  -1.80019
  -0.35088   0.82660  -1.75530
  -1.11403   0.88646  -1.75530
  -1.86222   1.03610  -1.81515
  -2.59544   1.18573  -1.87501
  -3.31370   1.27552  -1.86004
  -4.01700   1.23062  -1.90493
  -4.67540   1.18573  -1.93486
  -5.37870   1.06602  -1.96479
  -6.14185   0.79667  -1.97975
  -6.83018   0.40762  -1.97975
  -7.51852   0.03352  -2.03961
  -8.22181  -0.29568  -2.02464
  -8.85029  -0.55006  -1.96479
  -9.43388  -0.83438  -1.96479
 -10.06236  -1.17854  -1.94983
 -10.64594  -1.35811  -1.99472
 -11.21457  -1.20847  -2.05457
 -11.88794  -0.84934  -2.06954
 -12.59123  -0.28072  -1.99472
 -13.32446   0.15323  -1.77026
 -14.13250   0.43754  -1.54580
 -14.89565   0.66200  -1.32135
 -15.70369   0.94631  -1.21660
 -16.28728   1.29048  -1.00711
 -16.96065   1.64961  -0.81258
 -17.63402   1.81421  -0.55820
 -18.09790   1.91896  -0.25892
 -18.59170   1.96385  -0.06439
 -18.89098   2.02370   0.10021
 -19.17529   1.88903   0.18999
 -19.35485   1.69450   0.29474
 -19.32492   1.41019   0.24985
 -19.11543   1.42515   0.23488
 -18.83112   1.55983   0.26481
 -18.30739   1.70946   0.24985
 -17.60409   1.66457   0.13014
 -16.76612   1.45508  -0.10928
 -15.64384   1.29048  -0.36367
 -13.95293   1.27552  -0.72280
 -12.54634   1.26055  -0.97718
 -11.03500   1.08099  -1.09689
  -9.31417   0.72186  -1.27646
  -7.51852   0.42258  -1.32135
  -5.85754   0.22805  -1.29142
  -4.28635   0.39265  -1.09689
  -2.95457   0.58718  -0.64798
  -1.66769   0.85653  -0.19907
  -0.50051   1.08099   0.32467
   0.60680   1.29048   0.80351
   1.71412   1.29048   1.22249
   2.88130   0.96128   1.49184
   4.06343   0.43754   1.67140
   5.27550  -0.17597   1.74622
   6.54742  -0.50517   1.79111
   7.80437  -0.62488   1.85097
   9.04637  -0.49021   1.86593
  10.45296  -0.22086   1.77615
  11.97926  -0.11611   1.56666
  13.53549  -0.19093   1.29731
  14.98698  -0.23582   0.99804
  16.36364  -0.17597   0.74365
  17.63556   0.09338   0.57905
  18.80274   0.61711   0.60898
  19.83524   0.99120   0.75861
  20.74803   1.21566   0.84840
  21.69074   1.21566   0.92322
  22.40900   0.99120   0.95314
  22.85792   0.64704   1.05789
  23.03748   0.21309   1.23746
  23.08237  -0.11611   1.40206
  23.08237  -0.34057   1.59659
  22.85792  -0.46028   1.79111
  22.33418  -0.63985   1.98564
  21.79549  -0.65481   1.94075
  21.36154  -0.55006   1.58162
  20.80788  -0.41539   1.25242
  20.04473  -0.07122   0.84840
  19.22172   0.43754   0.29474
  18.45857   0.93135  -0.28885
  17.74031   1.45508  -0.93229
  16.85745   1.94888  -1.48595
  15.91473   2.41276  -2.03961
  14.80741   2.59233  -2.41370
  13.41578   2.65218  -2.51845
  11.78473   2.48758  -2.63816
   9.92923   2.29305  -2.54838
   7.84926   1.91896  -2.30896
   5.79923   1.38026  -2.06954
   3.67438   0.79667  -1.90493
   1.50463   0.28791  -1.69544
  -0.59030   0.00360  -1.41113
  -2.77501  -0.13108  -1.11186
  -4.91482  -0.07122  -0.69287
  -6.97982   0.18316  -0.25892
  -9.01489   0.39265   0.21992
 -10.99011   0.60215   0.72869
 -12.87554   0.88646   1.19256
 -14.68616   1.20070   1.67140
 -16.28728   1.44012   2.13528
 -17.64898   1.38026   2.37470
 -18.66652   1.29048   2.49441
 -19.53442   1.12588   2.47945
 -20.11800   1.05106   2.46448
 -20.47713   0.69193   2.47945
 -20.62677   0.16820   2.44952
 -20.58188  -0.37050   2.52434
 -20.41728  -0.89423   2.55427
 -20.20779  -1.32818   2.58419
 -19.89355  -1.67235   2.68894
 -19.51945  -1.89680   2.92836
 -18.98076  -2.18111   3.24260
 -18.29242  -2.43550   3.69151
 -17.52927  -2.55521   4.26013
 -16.73619  -2.71981   4.96343
 -15.89822  -2.82456   5.65176
 -14.49163  -2.70485   6.14557
 -13.21971  -2.24097   6.62441
 -11.93283  -1.59753   7.11821
 -10.48134  -1.04387   7.62698
  -8.89518  -0.49021   8.01604
  -7.24917  -0.05626   8.22553
  -5.49841   0.45251   8.28539
  -3.68779   0.93135   8.28539
  -1.80236   1.06602   8.15071
   0.29257   0.94631   7.85144
   2.47727   0.76675   7.46238
   4.69191   0.54229   7.04339
   6.93648   0.31783   6.71419
   9.04637  -0.11611   6.37003
  11.12633  -0.71466   6.02586
  13.10154  -1.38803   5.54702
  14.86727  -1.94169   5.03825
  16.42350  -2.22600   4.40977
  17.84506  -2.31579   3.78129
  19.17683  -2.37564   3.19771
  20.52357  -2.40557   2.70390
  21.63089  -2.46542   2.26995
  22.55864  -2.18111   1.83601
  23.36668  -1.65738   1.53673
  24.20465  -1.07380   1.26738
  25.14737  -0.53510   0.98307
  26.12002  -0.20590   0.69876
  26.94302  -0.01137   0.39948
  27.66128  -0.02633   0.14510
  28.18501  -0.26575  -0.31878
  28.67882  -0.43035  -0.88740
  28.90328  -0.43035  -1.42609
  28.79853  -0.35553  -1.97975
  28.61896  -0.26575  -2.53341
  28.33465  -0.37050  -3.04218
  27.91567  -0.74459  -3.56591
  27.49668  -1.20847  -4.08964
  26.79339  -1.82198  -4.53856
  25.91052  -2.37564  -4.67323
  24.86306  -2.89937  -4.62834
  23.69589  -3.07894  -4.37395
  22.40900  -3.12383  -4.04475
  20.89766  -2.83952  -3.68562
  19.05712  -2.39061  -3.25167
  16.91730  -1.77709  -2.90751
  14.71763  -0.98401  -2.54838
  12.41321  -0.28072  -2.23414
  10.15368   0.19812  -1.90493
   7.98394   0.51236  -1.60566
   5.84412   0.61711  -1.20164
   3.95869   0.60215  -0.81258
   2.10318   0.43754  -0.48338
   0.29257   0.27294  -0.12425
  -1.48812   0.04849   0.18999
  -3.08924   0.07841   0.42941
  -4.61555   0.22805   0.57905
  -6.18674   0.39265   0.62394
  -7.81779   0.52733   0.47430
  -9.44884   0.51236   0.33963
 -11.16967   0.39265   0.17503
 -12.87554   0.33280   0.05532
 -14.50659   0.36273   0.02539
 -16.01793   0.30287   0.02539
 -17.39460   0.30287   0.05532
 -18.51688   0.40762   0.13014
 -19.38478   0.58718   0.16006
 -20.04318   0.69193   0.23488
 -20.47713   0.64704   0.42941
 -20.77641   0.49740   0.66883
 -20.85123   0.39265   0.96811
 -20.80634   0.42258   1.41702
 -20.61181   0.57222   1.79111
 -20.34246   0.69193   2.12032
 -19.84866   0.70689   2.35974
 -19.25011   0.61711   2.50937
 -18.60666   0.42258   2.50937
 -17.90337   0.30287   2.25499
 -17.15518   0.36273   1.95572
 -16.49677   0.49740   1.64148
 -15.73362   0.76675   1.34220
 -14.68616   0.99120   1.13271
 -14.01279   1.33537   1.01300
 -13.44417   1.60472   0.96811
 -12.92043   1.73939   0.92322
 -12.54634   1.64961   0.83343
 -12.24707   1.44012   0.65387
 -11.99268   1.23062   0.38452
 -11.76823   1.05106   0.10021
 -11.49888   0.84157  -0.13921
 -11.07989   0.42258  -0.31878
 -10.54120  -0.08619  -0.40856
  -9.85286  -0.52014  -0.45345
  -9.08971  -0.84934  -0.33374
  -8.23678  -1.16358  -0.33374
  -7.32399  -1.43293  -0.40856
  -6.27653  -1.55264  -0.70783
  -5.13928  -1.26832  -1.26149
  -3.86736  -0.44532  -1.91990
  -2.59544   0.42258  -2.51845
  -1.39834   1.29048  -2.99729
  -0.35088   1.81421  -3.35642
   0.54695   1.90399  -3.62577
   1.29514   1.73939  -3.73051
   1.84880   1.48501  -3.64073
   2.22289   1.12588  -3.34146
   2.52217   0.82660  -2.96736
   2.74662   0.58718  -2.56334
   2.82144   0.46747  -2.03961
   2.71669   0.18316  -1.65055
   2.58202  -0.29568  -1.42609
   2.50720  -0.71466  -1.27646
   2.49224  -1.07380  -1.17171
   2.56706  -1.13365  -1.17171
   2.80648  -0.99898  -1.20164
   3.07583  -0.63985  -1.24653
   3.37510  -0.16101  -1.32135
   3.67438   0.43754  -1.56077
   3.97365   0.88646  -1.93486
   4.43753   1.18573  -2.41370
   5.05104   1.06602  -2.96736
   5.79923   0.73682  -3.44620
   6.68209   0.43754  -3.77540
   7.44524   0.12331  -3.88015
   7.78941  -0.11611  -3.70059
   7.62481  -0.31064  -3.26664
   6.99633  -0.44532  -2.69801
   6.02369  -0.50517  -2.02464
   4.63206  -0.62488  -1.42609
   3.18057  -0.66977  -0.85747
   1.83383  -0.78948  -0.49834
   0.74148  -0.87927  -0.25892
  -0.26109  -0.89423  -0.25892
  -1.06914  -0.86430  -0.40856
  -1.72754  -0.83438  -0.61805
  -2.17645  -0.69970  -0.91733
  -2.44580  -0.47524  -1.32135
  -2.38595  -0.07122  -1.72537
  -2.19142   0.39265  -2.12939
  -1.66769   0.93135  -2.54838
  -0.96439   1.35033  -3.02722
  -0.05160   1.57479  -3.43124
   0.75644   1.58975  -3.70059
   1.48967   1.47004  -3.77540
   1.98347   1.21566  -3.61080
   2.19296   0.82660  -3.28160
   2.14807   0.36273  -2.74290
   1.80391  -0.22086  -2.24910
   1.22032  -0.87927  -1.81515
   0.44220  -1.35811  -1.36624
  -0.48555  -1.59753  -1.05200
  -1.47316  -1.55264  -0.79762
  -2.38595  -1.26832  -0.60309
  -3.22392  -0.87927  -0.51330
  -3.88232  -0.56503  -0.40856
  -4.33124  -0.20590  -0.36367
  -4.61555   0.24302  -0.31878
  -4.79511   0.76675  -0.33374
  -4.81008   1.36530  -0.37863
  -4.75022   1.91896  -0.55820
  -4.60058   2.29305  -0.69287
  -4.34620   2.47262  -0.81258
  -4.00203   2.38283  -0.94725
  -3.43341   2.14341  -1.03704
  -2.95457   1.72443  -1.05200
  -2.62537   1.20070  -0.91733
  -2.50566   0.79667  -0.67791
  -2.61040   0.54229  -0.40856
  -2.78997   0.58718  -0.04943
  -3.16406   0.81164   0.24985
  -3.58305   1.18573   0.41445
  -3.79254   1.58975   0.45934
  -3.89729   1.76932   0.42941
  -3.89729   1.79925   0.42941
  -3.80750   1.93392   0.51919
  -3.67283   2.29305   0.72869
  -3.50823   2.59233   1.02796
  -3.46334   2.68211   1.43198
  -3.47830   2.66714   1.83601
  -3.55312   2.45765   2.13528
  -3.55312   2.09852   2.37470
