********************************************************************************
              CENTRO DE INSTRUMENTACION Y REGISTRO SISMICO  A.C.

    Anaxagoras 814, Col. Narvarte, Benito Juarez, C.P. 03020 Mexico, D.F.
           Tels. 5687 45 42/ 5687 45  82             Fax. 5669 25 12
********************************************************************************
ARCHIVO ESTANDAR DE ACELERACION:
VERSION DEL FORMATO                    : 2.0
NOMBRE DEL ARCHIVO                     : AE0220060811143041
FECHA Y HORA DE CREACION               : 21/JUN/09, 23:40
REF. CATALOGO ACELEROGRAMAS, SMIS 1996 : REGISTRO No.     /PAG.


================================================================================
DATOS DE LA ESTACION:
NOMBRE DE LA ESTACION                  : ESC. PRIM. "GONZÁLEZ GARZÓN"
CLAVE DE LA ESTACION                   : AE02
LOCALIZACION DE LA ESTACION            : Del. Venustiano Carranza,              
                                       : Col. El Arenal 4a. Sección,            
                                       : Calle Xico esq. con calle Xocoyote.    
                                       :                                        
                                       : 
COORDENADAS DE LA ESTACION             : 19.4290 LAT. N
                                       : 99.0584 LONG. W
ALTITUD (msnm)                         : 2232
TIPO DE SUELO                          : Arcilloso, zona lago                
                                       :                           
                                       : 
INSTITUCION RESPONSABLE                : CIRES
                                       : 

================================================================================
DATOS DEL ACELEROGRAFO:
MODELO DEL ACELEROGRAFO                : RADESD
NUMERO DE SERIE DEL ACELEROGRAFO       : 242
NUMERO DE CANALES                      : 3
ORIENTACION C1-C6 (rumbo;orientacion)  : /N00E/+V/N90W
ORIENTACION C7-C12 (rumbo;orientacion) : 
VEL. DE MUESTREO, C1-C6 (muestras/s)   : /100/100/100
VEL. DE MUESTREO, C7-C12 (muestras/s)  : 
ESC. COMPLETA DE SENSORES, C1-C6, (g)  : /0.5/0.5/0.5
ESC. COMPLETA DE SENSORES, C7-C12, (g) : 
FREC. NAT. DE SENSORES, C1-C6, (Hz)    : /30/30/30
FREC. NAT. DE SENSORES, C7-C12, (Hz)   : 
AMORTIGUAMIENTO DE SENSORES, C1-C6     : /0.733/0.750/0.700
AMORTIGUAMIENTO DE SENSORES, C7-C12    : 
INTERVALO DE MUESTREO, C1-C6, (s)      : /0.01/0.01/0.01
INTERVALO DE MUESTREO, C7-C12, (s)     : 
UMBRAL DE DISPARO, C1-C6, (Gal)        : /2.87/9.58/9.58
UMBRAL DE DISPARO, C7-C12, (Gal)       : 
MEMORIA DE PREEVENTO (s)               : 56.0
TIEMPO DE POSEVENTO (s)                : 64.0


================================================================================
DATOS DEL SISMO:
FECHA DEL SISMO (GMT)                  : 11/AGO/06
HORA EPICENTRO (GMT)                   : 14:30:41.0
MAGNITUD(ES)                           : /Mc=5.9
COORDENADAS DEL EPICENTRO              : 18.32 LAT. N
                                       : 101.27 LONG. W
PROFUNDIDAD FOCAL (km)                 : 51
FUENTE DE LOS DATOS EPICENTRALES       : SSN
                                       : INSTITUTO DE GEOFISICA, UNAM

================================================================================
DATOS DE ESTE REGISTRO:
HORA DE LA PRIMERA MUESTRA (GMT)       : 14:32:00.00
EXACTITUD DEL TIEMPO (s)               : 0.01
DURACION DEL REGISTRO (s), C1-C6       : /130.25/130.25/130.25
DURACION DEL REGISTRO (s), C7-C12      : 
NUM. TOTAL DE MUESTRAS, C1-C6          : /13025/13025/13025
NUM. TOTAL DE MUESTRAS, C7-C12         : 
ACEL. MAX. (Gal), C1-C6                : /5.38762/2.59081/4.34748
ACEL. MAX., C1-C6, EN LA MUESTRA       : /6010/6722/6638
ACEL. MAX. (Gal), C7-C12               : 
ACEL. MAX., C7-C12, EN LA MUESTRA      : 
UNIDADES DE LOS DATOS                  : Gal (cm/s/s)
FACTOR DE DECIMACION                   : 1
FORMATO DATOS (FORTRAN,10 campos/dato) : 3F10.5


================================================================================
CALIDAD DEL ACELEROGRAMA:
REGISTRO DIGITAL COMPLETO CON TIEMPO ABSOLUTO CORRECTO.


================================================================================
COMENTARIOS:














================================================================================
DATOS DE ACELERACION:
---------+---------+---------+---------+---------+---------+---------+---------+
   CANAL-1   CANAL-2   CANAL-3   CANAL-4   CANAL-5   CANAL-6   CANAL-7   CANAL-8
      N00E        +V      N90W
---------+---------+---------+---------+---------+---------+---------+---------+
[...]
   0.59788  -0.67545  -0.99560
   0.59788  -0.91487  -0.99560
   0.59788  -0.67545  -1.23502
   0.35846  -0.91487  -0.99560
   0.35846  -0.67545  -0.99560
   0.35846  -0.43603  -0.99560
   0.59788  -0.43603  -1.23502
   0.35846  -0.43603  -0.99560
   0.11904  -0.43603  -0.99560
   0.11904  -0.43603  -0.99560
   0.11904  -0.43603  -1.23502
   0.11904  -0.43603  -1.23502
   0.11904  -0.43603  -1.23502
   0.11904  -0.43603  -1.23502
   0.11904  -0.43603  -1.23502
   0.11904  -0.43603  -1.23502
  -0.12038  -0.67545  -1.47444
  -0.12038  -0.43603  -1.23502
  -0.12038  -0.67545  -1.47444
  -0.35980  -0.43603  -1.47444
  -0.35980  -0.43603  -1.47444
  -0.35980  -0.43603  -1.47444
  -0.12038  -0.43603  -1.23502
  -0.35980  -0.67545  -1.47444
  -0.35980  -0.43603  -1.47444
  -0.35980  -0.43603  -1.23502
  -0.35980  -0.43603  -1.47444
  -0.35980  -0.43603  -1.47444
  -0.35980  -0.67545  -1.71386
  -0.35980  -0.67545  -1.47444
  -0.35980  -0.91487  -1.71386
  -0.35980  -0.67545  -1.23502
  -0.12038  -0.67545  -1.47444
  -0.12038  -0.67545  -1.23502
  -0.12038  -0.67545  -1.23502
  -0.12038  -0.67545  -1.23502
  -0.35980  -0.43603  -1.23502
  -0.35980  -0.43603  -0.99560
  -0.12038  -0.43603  -0.99560
  -0.12038  -0.19661  -0.75618
   0.11904  -0.19661  -0.75618
   0.11904   0.04281  -0.51676
   0.11904   0.04281  -0.51676
   0.59788   0.04281  -0.27734
   0.59788   0.04281  -0.51676
   0.35846   0.28223  -0.27734
   0.83730   0.28223  -0.51676
   0.83730   0.52165  -0.51676
   0.59788   0.52165  -0.27734
   0.83730   0.76107  -0.27734
   0.83730   0.76107  -0.27734
   0.83730   0.76107  -0.27734
   0.83730   0.76107  -0.27734
   0.83730   1.00049  -0.27734
   0.83730   1.00049  -0.27734
   1.07672   1.00049  -0.27734
   0.83730   1.00049  -0.27734
   0.83730   1.00049  -0.03792
   0.83730   1.00049  -0.27734
   0.83730   1.23991  -0.03792
   0.83730   1.00049  -0.27734
   0.59788   1.23991  -0.27734
   0.59788   1.23991  -0.03792
   0.59788   1.23991  -0.03792
   0.59788   1.47933  -0.03792
   0.59788   1.47933   0.20150
   0.35846   1.47933  -0.03792
   0.35846   1.47933   0.20150
   0.11904   1.47933   0.20150
   0.11904   1.47933  -0.03792
   0.11904   1.71875  -0.03792
   0.11904   1.47933   0.20150
   0.11904   1.47933   0.20150
   0.35846   1.71875   0.20150
   0.11904   1.47933   0.20150
   0.11904   1.47933  -0.03792
  -0.12038   1.47933  -0.03792
   0.11904   1.47933  -0.03792
   0.11904   1.47933  -0.27734
  -0.12038   1.23991  -0.03792
  -0.12038   1.23991  -0.27734
  -0.12038   1.23991  -0.51676
  -0.35980   1.00049  -0.51676
  -0.12038   1.00049  -0.51676
  -0.35980   0.76107  -0.75618
  -0.59922   0.76107  -0.99560
  -0.59922   0.76107  -0.99560
  -0.35980   0.52165  -0.99560
  -0.59922   0.52165  -1.23502
  -0.59922   0.52165  -1.23502
  -0.59922   0.52165  -1.47444
  -0.59922   0.52165  -1.47444
  -0.59922   0.28223  -1.47444
  -0.59922   0.04281  -1.71386
  -0.83864   0.04281  -1.71386
  -0.83864   0.04281  -1.95328
  -0.83864  -0.19661  -1.95328
  -0.83864  -0.19661  -1.71386
  -0.83864  -0.19661  -1.95328
  -1.07806  -0.19661  -1.95328
  -1.07806  -0.43603  -1.95328
  -1.07806  -0.43603  -1.95328
  -1.07806  -0.43603  -1.95328
  -1.07806  -0.43603  -1.95328
  -1.07806  -0.67545  -1.95328
  -1.07806  -0.67545  -1.95328
  -1.07806  -0.67545  -1.95328
  -0.83864  -0.91487  -1.95328
  -0.83864  -0.91487  -1.71386
  -0.83864  -0.91487  -1.95328
  -0.59922  -0.91487  -1.95328
  -0.83864  -1.15429  -1.71386
  -0.83864  -1.15429  -1.71386
  -0.59922  -1.39371  -1.95328
  -0.59922  -1.15429  -2.19270
  -0.59922  -1.15429  -1.71386
  -0.59922  -0.91487  -1.71386
  -0.35980  -1.15429  -1.47444
  -0.35980  -0.91487  -1.47444
  -0.35980  -1.15429  -1.23502
  -0.35980  -1.15429  -1.23502
  -0.35980  -1.15429  -0.99560
  -0.35980  -1.39371  -0.99560
  -0.59922  -1.39371  -0.75618
  -0.59922  -1.15429  -0.75618
  -0.35980  -1.15429  -0.51676
  -0.35980  -0.91487  -0.51676
  -0.35980  -1.15429  -0.27734
  -0.35980  -0.91487  -0.03792
  -0.35980  -0.91487   0.20150
  -0.35980  -0.91487  -0.03792
  -0.35980  -0.91487   0.44092
  -0.35980  -0.67545   0.20150
  -0.12038  -0.67545   0.44092
  -0.12038  -0.67545   0.68034
  -0.12038  -0.67545   0.68034
  -0.12038  -0.43603   0.91976
   0.11904  -0.67545   1.15918
  -0.12038  -0.67545   1.15918
  -0.12038  -0.43603   1.39860
   0.11904  -0.43603   1.39860
   0.11904  -0.43603   1.63802
   0.11904  -0.43603   1.63802
   0.11904  -0.43603   1.87744
   0.11904  -0.43603   1.87744
   0.11904  -0.43603   1.87744
   0.11904  -0.43603   1.87744
   0.11904  -0.43603   1.87744
   0.35846  -0.43603   2.11686
   0.35846  -0.43603   2.11686
   0.35846  -0.19661   2.35628
   0.35846  -0.43603   2.35628
   0.35846  -0.19661   2.11686
   0.35846  -0.19661   2.11686
   0.35846  -0.19661   2.11686
   0.35846  -0.19661   2.11686
   0.35846   0.04281   2.11686
   0.35846  -0.19661   2.11686
   0.35846  -0.19661   2.11686
   0.35846  -0.19661   2.11686
   0.35846  -0.19661   1.87744
   0.11904  -0.19661   1.87744
   0.11904  -0.19661   2.11686
   0.11904  -0.19661   2.11686
   0.11904  -0.19661   2.11686
   0.11904  -0.19661   2.11686
   0.11904  -0.19661   1.87744
   0.11904  -0.19661   1.87744
   0.11904  -0.19661   1.87744
   0.11904   0.04281   1.87744
   0.11904   0.04281   1.63802
   0.11904   0.04281   1.87744
   0.11904   0.04281   1.63802
  -0.12038  -0.19661   1.63802
  -0.35980   0.04281   1.63802
  -0.35980   0.04281   1.39860
  -0.35980   0.04281   1.39860
  -0.35980  -0.19661   1.39860
  -0.35980   0.04281   1.15918
  -0.35980   0.04281   1.15918
  -0.35980  -0.19661   0.91976
  -0.35980  -0.19661   0.91976
  -0.35980  -0.19661   0.68034
  -0.12038  -0.19661   0.68034
  -0.12038  -0.19661   0.44092
   0.11904  -0.19661   0.44092
  -0.12038  -0.19661   0.44092
   0.11904  -0.19661   0.44092
   0.11904  -0.19661   0.20150
   0.11904  -0.19661   0.20150
   0.11904  -0.43603  -0.03792
   0.11904  -0.19661  -0.03792
   0.35846  -0.19661  -0.03792
   0.35846  -0.19661  -0.03792
   0.11904  -0.19661  -0.03792
   0.35846  -0.19661  -0.03792
   0.35846  -0.19661  -0.03792
   0.11904  -0.19661  -0.27734
   0.35846   0.04281  -0.27734
   0.35846  -0.19661  -0.27734
   0.35846   0.04281  -0.27734
   0.59788   0.04281  -0.03792
   0.35846   0.04281  -0.03792
   0.59788   0.04281  -0.03792
   0.59788   0.04281  -0.03792
   0.59788   0.28223  -0.03792
   0.35846   0.04281  -0.27734
   0.59788   0.04281  -0.27734
   0.35846   0.28223  -0.27734
   0.35846   0.28223  -0.27734
   0.35846   0.28223  -0.27734
   0.35846   0.28223  -0.27734
   0.35846   0.28223  -0.51676
   0.11904   0.28223  -0.27734
   0.11904   0.28223  -0.27734
   0.35846   0.28223  -0.27734
   0.35846   0.28223  -0.27734
   0.35846   0.28223  -0.27734
  -0.12038   0.52165  -0.03792
  -0.12038   0.52165  -0.03792
  -0.35980   0.52165  -0.03792
  -0.35980   0.52165  -0.03792
  -0.35980   0.52165  -0.03792
  -0.59922   0.28223  -0.03792
  -0.59922   0.52165  -0.03792
  -0.59922   0.52165  -0.03792
  -0.83864   0.52165   0.20150
  -0.83864   0.52165  -0.03792
  -0.83864   0.52165   0.20150
  -0.83864   0.52165   0.20150
  -1.07806   0.52165   0.20150
  -1.07806   0.52165   0.20150
  -1.31748   0.52165   0.44092
  -1.31748   0.52165   0.44092
  -1.31748   0.52165   0.68034
  -1.55690   0.52165   0.68034
  -1.79632   0.52165   0.68034
  -1.79632   0.52165   0.68034
  -2.03574   0.52165   0.68034
  -2.27516   0.76107   0.91976
  -2.03574   0.76107   0.91976
  -2.27516   0.76107   1.15918
  -2.27516   0.52165   0.91976
  -2.51458   0.52165   1.15918
  -2.51458   0.76107   1.15918
  -2.75400   0.52165   1.15918
  -2.99342   0.52165   1.15918
  -2.75400   0.52165   1.15918
  -2.99342   0.52165   1.15918
  -3.23284   0.52165   1.15918
  -3.23284   0.52165   1.15918
  -3.23284   0.52165   1.39860
  -3.23284   0.52165   1.39860
  -3.47226   0.28223   1.39860
  -3.47226   0.04281   1.15918
  -3.47226   0.28223   1.39860
  -3.71168   0.28223   1.39860
  -3.47226   0.04281   1.39860
  -3.71168   0.04281   1.39860
  -3.71168   0.04281   1.63802
  -3.71168   0.04281   1.63802
  -3.71168  -0.19661   1.39860
  -3.95110  -0.19661   1.63802
  -3.95110  -0.19661   1.63802
  -3.95110  -0.19661   1.63802
  -3.95110  -0.19661   1.63802
  -3.95110  -0.19661   1.63802
  -3.95110  -0.19661   1.63802
  -3.95110  -0.43603   1.87744
  -3.95110  -0.43603   1.87744
  -3.95110  -0.43603   1.87744
  -4.19052  -0.43603   1.87744
  -4.19052  -0.67545   1.87744
  -4.19052  -0.67545   2.11686
  -4.42994  -0.67545   1.87744
  -4.19052  -0.43603   1.87744
  -4.42994  -0.43603   1.87744
  -4.19052  -0.67545   1.87744
  -4.19052  -0.67545   1.87744
  -4.42994  -0.91487   1.87744
  -4.42994  -0.67545   1.87744
  -4.42994  -0.91487   1.87744
  -3.95110  -0.67545   1.63802
  -4.19052  -0.67545   1.87744
  -3.95110  -0.91487   1.87744
  -4.19052  -0.91487   1.63802
  -3.95110  -0.91487   1.63802
  -3.95110  -0.91487   1.39860
  -3.71168  -0.91487   1.39860
  -3.71168  -0.91487   1.39860
  -3.47226  -0.91487   1.15918
  -3.47226  -0.67545   1.15918
  -3.23284  -0.67545   0.91976
  -2.99342  -0.67545   0.91976
  -2.75400  -0.67545   0.68034
  -2.75400  -0.67545   0.91976
  -2.75400  -0.67545   0.68034
  -2.27516  -0.43603   0.68034
  -2.27516  -0.67545   0.44092
  -2.03574  -0.67545   0.44092
  -1.79632  -0.67545   0.20150
  -1.55690  -0.67545   0.20150
  -1.07806  -0.67545   0.20150
  -0.83864  -0.67545   0.20150
  -0.83864  -0.67545  -0.03792
  -0.83864  -0.43603  -0.03792
  -0.35980  -0.43603  -0.27734
  -0.12038  -0.43603  -0.27734
   0.11904  -0.19661  -0.27734
   0.35846  -0.19661  -0.27734
   0.11904   0.04281  -0.27734
   0.59788   0.04281  -0.27734
   0.59788   0.04281  -0.27734
   0.59788   0.28223  -0.27734
   1.07672   0.04281  -0.51676
   1.31614   0.28223  -0.51676
   1.31614   0.28223  -0.75618
   1.55556   0.28223  -0.51676
   1.55556   0.28223  -0.51676
   1.79498   0.28223  -0.51676
   2.03440   0.28223  -0.75618
   2.27382   0.52165  -0.99560
   2.27382   0.28223  -0.75618
   2.51324   0.52165  -0.75618
   2.75266   0.52165  -0.75618
   2.99208   0.76107  -0.75618
   3.23150   0.52165  -0.99560
   3.23150   0.52165  -0.99560
   3.47092   0.76107  -0.99560
   3.71034   0.76107  -0.99560
   3.71034   0.76107  -0.99560
   3.71034   0.76107  -0.99560
   3.94976   0.76107  -0.99560
   4.18918   0.76107  -0.99560
   4.42860   0.76107  -1.23502
   4.42860   0.52165  -0.99560
   4.42860   0.52165  -1.23502
   4.90744   0.52165  -1.23502
   4.90744   0.52165  -0.99560
   4.90744   0.52165  -0.99560
   4.90744   0.52165  -0.99560
   5.14686   0.52165  -0.99560
   4.90744   0.52165  -0.99560
   4.90744   0.52165  -0.99560
   5.14686   0.52165  -0.99560
   5.14686   0.52165  -0.99560
   5.14686   0.52165  -0.75618
   5.38628   0.52165  -0.75618
   5.14686   0.52165  -0.75618
   5.14686   0.52165  -0.75618
   4.90744   0.28223  -0.75618
   4.90744   0.28223  -0.75618
   4.90744   0.28223  -0.75618
   4.90744   0.28223  -0.51676
   4.66802   0.28223  -0.51676
   4.90744   0.52165  -0.51676
   4.90744   0.52165  -0.51676
   4.66802   0.52165  -0.51676
   4.42860   0.28223  -0.51676
   4.42860   0.28223  -0.51676
   4.42860   0.28223  -0.51676
   4.42860   0.28223  -0.51676
   3.94976   0.28223  -0.51676
   3.94976   0.04281  -0.51676
   3.94976   0.28223  -0.75618
   3.47092   0.04281  -0.75618
   3.47092   0.04281  -0.75618
   3.23150   0.04281  -0.75618
   3.23150  -0.43603  -0.75618
   3.23150   0.04281  -0.99560
   2.99208   0.04281  -0.75618
   2.75266   0.04281  -0.99560
   2.51324   0.04281  -0.75618
   2.51324   0.04281  -0.75618
   2.27382   0.04281  -0.99560
   2.03440   0.04281  -0.99560
   2.03440   0.04281  -0.75618
   2.03440   0.04281  -0.75618
   1.79498   0.04281  -0.75618
   1.79498   0.28223  -0.75618
   1.55556   0.28223  -0.99560
   1.31614   0.04281  -0.99560
   1.31614   0.04281  -0.99560
   1.07672   0.04281  -0.99560
   1.07672   0.28223  -0.99560
   1.07672   0.28223  -0.99560
   0.83730   0.04281  -0.99560
   0.83730   0.28223  -0.99560
   0.59788   0.04281  -0.99560
   0.59788  -0.19661  -0.99560
   0.35846   0.28223  -0.99560
   0.35846   0.04281  -0.75618
   0.35846   0.04281  -0.51676
   0.35846  -0.19661  -0.75618
   0.35846   0.04281  -0.75618
   0.11904  -0.19661  -0.51676
   0.35846  -0.19661  -0.75618
   0.11904  -0.19661  -0.75618
   0.35846   0.04281  -0.75618
   0.11904   0.04281  -0.75618
   0.35846   0.04281  -0.75618
   0.11904   0.04281  -0.75618
   0.35846   0.04281  -0.51676
   0.35846   0.04281  -0.75618
   0.35846   0.04281  -0.75618
   0.11904   0.04281  -0.51676
   0.11904   0.04281  -0.75618
   0.11904  -0.43603  -0.75618
   0.11904   0.04281  -0.75618
   0.11904  -0.19661  -0.75618
   0.35846   0.28223  -0.75618
   0.11904   0.04281  -0.75618
   0.11904  -0.19661  -0.51676
   0.11904  -0.19661  -0.51676
   0.11904  -0.19661  -0.51676
  -0.12038  -0.19661  -0.51676
   0.11904   0.04281  -0.27734
   0.11904   0.04281  -0.27734
   0.11904   0.04281  -0.27734
   0.11904   0.28223  -0.03792
   0.11904   0.28223  -0.03792
   0.11904   0.28223  -0.03792
   0.11904   0.28223  -0.27734
   0.11904   0.28223  -0.27734
   0.11904   0.04281  -0.27734
   0.11904   0.04281  -0.03792
   0.11904   0.04281  -0.27734
   0.11904   0.28223  -0.03792
   0.11904  -0.19661  -0.27734
   0.11904  -0.19661  -0.27734
   0.11904   0.04281  -0.27734
   0.11904  -0.19661  -0.27734
   0.11904  -0.19661  -0.27734
  -0.12038  -0.43603  -0.27734
   0.11904  -0.19661  -0.27734
   0.11904  -0.43603  -0.27734
  -0.12038  -0.43603  -0.27734
  -0.12038  -0.19661  -0.27734
  -0.12038  -0.43603  -0.51676
  -0.35980  -0.67545  -0.51676
  -0.35980  -0.67545  -0.51676
  -0.35980  -0.43603  -0.75618
  -0.35980  -0.67545  -0.51676
  -0.35980  -0.67545  -0.51676
  -0.35980  -0.67545  -0.75618
  -0.59922  -0.67545  -0.51676
  -0.35980  -0.67545  -0.75618
  -0.59922  -0.67545  -0.51676
  -0.83864  -0.91487  -0.75618
  -0.59922  -0.91487  -0.99560
  -0.59922  -0.91487  -0.75618
  -0.59922  -0.91487  -0.99560
  -0.59922  -0.91487  -0.99560
  -0.59922  -0.91487  -0.99560
  -0.59922  -0.91487  -0.75618
  -0.59922  -1.15429  -0.99560
  -0.59922  -0.91487  -0.99560
  -0.59922  -1.15429  -1.23502
  -0.35980  -1.15429  -1.23502
  -0.35980  -0.91487  -0.99560
  -0.35980  -0.91487  -0.99560
  -0.35980  -0.91487  -1.23502
  -0.12038  -0.67545  -1.23502
  -0.12038  -0.67545  -1.23502
  -0.12038  -0.91487  -1.23502
   0.11904  -0.67545  -1.47444
   0.11904  -0.91487  -1.47444
   0.11904  -0.91487  -1.71386
   0.35846  -0.67545  -1.47444
   0.35846  -0.43603  -1.47444
   0.35846  -0.43603  -1.71386
   0.59788  -0.43603  -1.71386
   0.59788  -0.43603  -1.71386
   0.83730  -0.43603  -1.71386
   0.83730  -0.19661  -1.71386
   0.83730  -0.43603  -1.71386
   0.83730  -0.19661  -1.95328
   1.07672  -0.19661  -1.71386
   1.07672  -0.19661  -1.71386
   1.31614  -0.19661  -1.71386
   1.31614   0.04281  -1.71386
   1.31614   0.04281  -1.95328
   1.31614   0.04281  -1.71386
   1.55556   0.04281  -1.71386
   1.55556   0.28223  -1.71386
   1.55556   0.28223  -1.71386
   1.79498   0.28223  -1.71386
   2.03440   0.52165  -1.71386
   2.03440   0.52165  -1.71386
   2.27382   0.52165  -1.71386
   2.03440   0.52165  -1.71386
   2.27382   0.52165  -1.71386
   2.27382   0.52165  -1.71386
   2.27382   0.76107  -1.47444
   2.27382   0.76107  -1.47444
   2.51324   0.76107  -1.47444
