********************************************************************************
              CENTRO DE INSTRUMENTACION Y REGISTRO SISMICO  A.C.

    Anaxagoras 814, Col. Narvarte, Benito Juarez, C.P. 03020 Mexico, D.F.
           Tels. 5687 45 42/ 5687 45  82             Fax. 5669 25 12
********************************************************************************
ARCHIVO ESTANDAR DE ACELERACION:
VERSION DEL FORMATO                    : 2.0
NOMBRE DEL ARCHIVO                     : AE0220130821123830
FECHA Y HORA DE CREACION               : 13/SEP/13, 14:23
REF. CATALOGO ACELEROGRAMAS, SMIS 1996 : REGISTRO No.     /PAG.


================================================================================
DATOS DE LA ESTACION:
NOMBRE DE LA ESTACION                  : ESC. PRIM. "GONZÁLEZ GARZÓN"
CLAVE DE LA ESTACION                   : AE02
LOCALIZACION DE LA ESTACION            : Del. Venustiano Carranza,              
                                       : Col. El Arenal 4a. Sección,            
                                       : Calle Xico esq. con calle Xocoyote.    
                                       :                                        
                                       : 
COORDENADAS DE LA ESTACION             : 19.4290 LAT. N
                                       : 99.0584 LONG. W
ALTITUD (msnm)                         : 2232
TIPO DE SUELO                          : Arcilloso, zona lago                
                                       :                           
                                       : 
INSTITUCION RESPONSABLE                : CIRES
                                       : 

================================================================================
DATOS DEL ACELEROGRAFO:
MODELO DEL ACELEROGRAFO                : RADESD
NUMERO DE SERIE DEL ACELEROGRAFO       : 242
NUMERO DE CANALES                      : 3
ORIENTACION C1-C6 (rumbo;orientacion)  : /N00E/+V/N90W
ORIENTACION C7-C12 (rumbo;orientacion) : 
VEL. DE MUESTREO, C1-C6 (muestras/s)   : /100/100/100
VEL. DE MUESTREO, C7-C12 (muestras/s)  : 
ESC. COMPLETA DE SENSORES, C1-C6, (g)  : /0.5/0.5/0.5
ESC. COMPLETA DE SENSORES, C7-C12, (g) : 
FREC. NAT. DE SENSORES, C1-C6, (Hz)    : /30/30/30
FREC. NAT. DE SENSORES, C7-C12, (Hz)   : 
AMORTIGUAMIENTO DE SENSORES, C1-C6     : /0.733/0.750/0.700
AMORTIGUAMIENTO DE SENSORES, C7-C12    : 
INTERVALO DE MUESTREO, C1-C6, (s)      : /0.01/0.01/0.01
INTERVALO DE MUESTREO, C7-C12, (s)     : 
UMBRAL DE DISPARO, C1-C6, (Gal)        : /26.34/153.23/43.1
UMBRAL DE DISPARO, C7-C12, (Gal)       : 
MEMORIA DE PREEVENTO (s)               : 56.0
TIEMPO DE POSEVENTO (s)                : 80.0


================================================================================
DATOS DEL SISMO:
FECHA DEL SISMO (GMT)                  : 21/AGO/13
HORA EPICENTRO (GMT)                   : 12:38:30.0
MAGNITUD(ES)                           : /Mc=6.0
COORDENADAS DEL EPICENTRO              : 16.79 LAT. N
                                       : 99.56 LONG. W
PROFUNDIDAD FOCAL (km)                 : 20
FUENTE DE LOS DATOS EPICENTRALES       : SSN
                                       : INSTITUTO DE GEOFISICA, UNAM

================================================================================
DATOS DE ESTE REGISTRO:
HORA DE LA PRIMERA MUESTRA (GMT)       : 12:40:19.00
EXACTITUD DEL TIEMPO (s)               : 0.01
DURACION DEL REGISTRO (s), C1-C6       : /184.4/184.4/184.4
DURACION DEL REGISTRO (s), C7-C12      : 
NUM. TOTAL DE MUESTRAS, C1-C6          : /18440/18440/18440
NUM. TOTAL DE MUESTRAS, C7-C12         : 
ACEL. MAX. (Gal), C1-C6                : /8.42559/3.71284/6.75439
ACEL. MAX., C1-C6, EN LA MUESTRA       : /4449/2413/1750
ACEL. MAX. (Gal), C7-C12               : 
ACEL. MAX., C7-C12, EN LA MUESTRA      : 
UNIDADES DE LOS DATOS                  : Gal (cm/s/s)
FACTOR DE DECIMACION                   : 1
FORMATO DATOS (FORTRAN,10 campos/dato) : 3F10.5


================================================================================
CALIDAD DEL ACELEROGRAMA:
REGISTRO DIGITAL COMPLETO CON TIEMPO ABSOLUTO CORRECTO.


================================================================================
COMENTARIOS:














================================================================================
DATOS DE ACELERACION:
---------+---------+---------+---------+---------+---------+---------+---------+
   CANAL-1   CANAL-2   CANAL-3   CANAL-4   CANAL-5   CANAL-6   CANAL-7   CANAL-8
      N00E        +V      N90W
---------+---------+---------+---------+---------+---------+---------+---------+
[...]
   1.40560  -0.71644  -3.09177
   1.30085  -0.68651  -3.13666
   1.25596  -0.64162  -3.10673
   1.18114  -0.56680  -3.07680
   1.13625  -0.55184  -3.03191
   1.03151  -0.53687  -2.94213
   1.00158  -0.49198  -2.82242
   0.86690  -0.40220  -2.82242
   0.74719  -0.32738  -2.70271
   0.64245  -0.26753  -2.50818
   0.56763  -0.19271  -2.38847
   0.53770  -0.25256  -2.23883
   0.41799  -0.16278  -2.10416
   0.26835  -0.11789  -1.95452
   0.07382   0.01679  -1.81985
   0.01397   0.19635  -1.67021
  -0.16560   0.34599  -1.49065
  -0.16560   0.34599  -1.25123
  -0.19552   0.36095  -1.04173
  -0.30027   0.34599  -0.99684
  -0.36012   0.40584  -0.95195
  -0.41998   0.54052  -0.86217
  -0.59954   0.57045  -0.71253
  -0.67436   0.64526  -0.51800
  -0.68933   0.70512  -0.47311
  -0.79407   0.70512  -0.32347
  -0.91378   0.80987  -0.18880
  -1.00357   0.91461  -0.11398
  -1.15320   0.94454   0.00573
  -1.30284   0.95950   0.09551
  -1.37766   1.07921   0.08055
  -1.54226   1.13907   0.21522
  -1.60212   1.15403   0.26011
  -1.67694   1.19892   0.27508
  -1.73679   1.16900   0.26011
  -1.85650   1.21389   0.20026
  -2.00614   1.27374   0.21522
  -2.02110   1.19892   0.17033
  -2.05103   1.13907   0.12544
  -2.12585   1.01936   0.02069
  -2.11088   0.97447  -0.15887
  -2.14081   0.89965  -0.27858
  -2.21563   0.85476  -0.30851
  -2.30541   0.82483  -0.38333
  -2.32038   0.69016  -0.41326
  -2.33534   0.61534  -0.47311
  -2.39520   0.63030  -0.59282
  -2.51491   0.51059  -0.62275
  -2.54483   0.42081  -0.62275
  -2.49994   0.30110  -0.74246
  -2.54483   0.19635  -0.77239
  -2.60469   0.09161  -0.80231
  -2.57476  -0.02810  -0.87713
  -2.60469  -0.10292  -0.89210
  -2.60469  -0.28249  -0.90706
  -2.54483  -0.34234  -0.89210
  -2.48498  -0.43213  -0.96691
  -2.47001  -0.52191  -0.96691
  -2.36527  -0.64162  -1.01181
  -2.26052  -0.68651  -1.01181
  -2.26052  -0.82118  -0.98188
  -2.12585  -0.89600  -0.95195
  -1.93132  -0.97082  -0.93699
  -1.85650  -1.09053  -0.92202
  -1.75175  -1.21024  -0.90706
  -1.64701  -1.22521  -0.89210
  -1.61708  -1.19528  -0.87713
  -1.48241  -1.21024  -0.80231
  -1.28788  -1.25513  -0.72749
  -1.15320  -1.27010  -0.65268
  -1.01853  -1.31499  -0.63771
  -0.89882  -1.28506  -0.56289
  -0.76415  -1.24017  -0.50304
  -0.67436  -1.22521  -0.36836
  -0.55465  -1.15039  -0.26362
  -0.40502  -1.21024  -0.12894
  -0.28531  -1.07557  -0.08405
  -0.13567  -1.07557   0.09551
  -0.01596  -1.04564   0.23019
   0.08879  -1.01571   0.34990
   0.28332  -0.98579   0.48457
   0.40303  -0.95586   0.64917
   0.47785  -0.91097   0.81377
   0.70230  -0.94089   0.93348
   0.86690  -0.92593   1.00830
   1.03151  -0.82118   1.11305
   1.12129  -0.80622   1.21779
   1.25596  -0.67155   1.30758
   1.45049  -0.56680   1.45721
   1.60013  -0.50695   1.53203
   1.70487  -0.50695   1.62182
   1.88444  -0.47702   1.69663
   2.03408  -0.32738   1.68167
   2.09393  -0.28249   1.75649
   2.19868  -0.22263   1.92109
   2.36328  -0.22263   1.95102
   2.57277  -0.11789   1.96598
   2.75234  -0.05803   2.04080
   2.85708   0.03175   2.16051
   3.02169  -0.01314   2.26526
   3.26111   0.03175   2.29519
   3.38082   0.10657   2.37000
   3.51549   0.09161   2.41490
   3.66513   0.13650   2.41490
   3.76987   0.13650   2.38497
   3.88958   0.22628   2.42986
   3.99433   0.30110   2.39993
   4.03922   0.33103   2.44482
   4.17390   0.27117   2.47475
   4.20382   0.30110   2.44482
   4.26368   0.27117   2.41490
   4.30857   0.31606   2.35504
   4.32353   0.39088   2.31015
   4.27864   0.37592   2.41490
   4.30857   0.42081   2.47475
   4.29361   0.45074   2.54957
   4.23375   0.45074   2.57950
   4.23375   0.45074   2.50468
   4.18886   0.46570   2.39993
   4.18886   0.45074   2.29519
   4.09908   0.49563   2.13058
   3.90455   0.55548   1.99591
   3.84469   0.61534   1.81634
   3.71002   0.66023   1.63678
   3.73995   0.70512   1.53203
   3.78484   0.69016   1.36743
   3.62024   0.72008   1.21779
   3.56038   0.72008   1.14298
   3.50053   0.76497   0.94845
   3.39578   0.70512   0.81377
   3.29103   0.75001   0.75392
   3.23118   0.80987   0.60428
   3.15636   0.79490   0.51450
   2.96183   0.88468   0.46961
   2.85708   0.98943   0.34990
   2.73737   1.00439   0.31997
   2.64759   1.01936   0.29004
   2.43810   1.10914   0.17033
   2.31839   1.16900   0.05062
   2.19868   1.22885   0.06558
   2.01911   1.22885   0.06558
   1.82458   1.25878   0.03566
   1.67495   1.25878  -0.02420
   1.49538   1.31863  -0.02420
   1.34574   1.37849  -0.00923
   1.27093   1.37849  -0.00923
   1.03151   1.39345  -0.03916
   0.83698   1.34856  -0.02420
   0.74719   1.28871  -0.06909
   0.47785   1.27374  -0.11398
   0.28332   1.31863  -0.15887
   0.13368   1.33360  -0.17384
  -0.07581   1.28871  -0.24865
  -0.25538   1.27374  -0.24865
  -0.37509   1.27374  -0.33844
  -0.55465   1.21389  -0.36836
  -0.71925   1.13907  -0.42822
  -0.85393   1.09418  -0.53297
  -1.12328   1.04929  -0.51800
  -1.25795   1.01936  -0.53297
  -1.43752   0.94454  -0.51800
  -1.63204   0.83979  -0.54793
  -1.78168   0.82483  -0.57786
  -2.00614   0.72008  -0.51800
  -2.20067   0.66023  -0.53297
  -2.42512   0.66023  -0.56289
  -2.63462   0.55548  -0.50304
  -2.85907   0.48066  -0.41326
  -3.05360   0.40584  -0.44318
  -3.26309   0.25621  -0.41326
  -3.44266   0.22628  -0.41326
  -3.72697   0.24124  -0.44318
  -3.98135   0.10657  -0.47311
  -4.17588   0.00182  -0.50304
  -4.44523  -0.05803  -0.63771
  -4.57990  -0.14782  -0.69757
  -4.77443  -0.20767  -0.69757
  -5.02882  -0.31242  -0.75742
  -5.22335  -0.46205  -0.77239
  -5.31313  -0.58176  -0.80231
  -5.46277  -0.76133  -0.92202
  -5.70219  -0.83615  -1.01181
  -5.89672  -0.89600  -1.07166
  -6.03139  -0.91097  -1.14648
  -6.16606  -0.98579  -1.13152
  -6.25585  -0.98579  -1.17641
  -6.31570  -1.03068  -1.17641
  -6.40548  -1.06060  -1.16144
  -6.45037  -1.00075  -1.13152
  -6.42045  -1.00075  -1.25123
  -6.49527  -0.98579  -1.26619
  -6.54016  -0.94089  -1.25123
  -6.51023  -0.91097  -1.32604
  -6.54016  -0.86608  -1.41583
  -6.54016  -0.89600  -1.46072
  -6.48030  -0.88104  -1.50561
  -6.48030  -0.83615  -1.52057
  -6.48030  -0.74637  -1.56546
  -6.42045  -0.74637  -1.58043
  -6.30074  -0.70147  -1.56546
  -6.25585  -0.71644  -1.61036
  -6.21095  -0.67155  -1.59539
  -6.12117  -0.56680  -1.70014
  -6.06132  -0.53687  -1.67021
  -5.94161  -0.46205  -1.61036
  -5.73211  -0.37227  -1.61036
  -5.65730  -0.34234  -1.58043
  -5.49269  -0.31242  -1.49065
  -5.32809  -0.23760  -1.46072
  -5.05875  -0.25256  -1.50561
  -4.83429  -0.16278  -1.56546
  -4.59487  -0.14782  -1.58043
  -4.26567  -0.11789  -1.55050
  -3.95143  -0.08796  -1.55050
  -3.68208  -0.04307  -1.55050
  -3.35288  -0.08796  -1.55050
  -2.93389  -0.16278  -1.59539
  -2.64958  -0.14782  -1.65525
  -2.21563  -0.08796  -1.68518
  -1.82657  -0.08796  -1.70014
  -1.49737  -0.17774  -1.59539
  -1.15320  -0.17774  -1.65525
  -0.91378  -0.23760  -1.70014
  -0.46487  -0.29745  -1.64028
  -0.12070  -0.29745  -1.61036
   0.23843  -0.35731  -1.62532
   0.61252  -0.46205  -1.53554
   0.98661  -0.50695  -1.61036
   1.30085  -0.56680  -1.64028
   1.64502  -0.53687  -1.64028
   2.03408  -0.56680  -1.64028
   2.31839  -0.50695  -1.71510
   2.72241  -0.59673  -1.73007
   3.08154  -0.65658  -1.65525
   3.45563  -0.64162  -1.73007
   3.72498  -0.68651  -1.68518
   4.06915  -0.70147  -1.58043
   4.48813  -0.76133  -1.56546
   4.81734  -0.83615  -1.62532
   5.16150  -0.86608  -1.62532
   5.41589  -0.89600  -1.59539
   5.68523  -1.03068  -1.55050
   5.98451  -1.06060  -1.61036
   6.20897  -1.09053  -1.59539
   6.34364  -1.12046  -1.58043
   6.52321  -1.10550  -1.55050
   6.62795  -1.10550  -1.47568
   6.73270  -1.18031  -1.47568
   6.88234  -1.18031  -1.40086
   6.94219  -1.18031  -1.50561
   6.92723  -1.19528  -1.44575
   7.01701  -1.19528  -1.43079
   7.07686  -1.13542  -1.50561
   7.04694  -1.10550  -1.47568
   7.09183  -1.16535  -1.41583
   7.09183  -1.15039  -1.35597
   7.04694  -1.06060  -1.35597
   7.09183  -1.01571  -1.29612
   7.07686  -0.98579  -1.19137
   7.00205  -0.88104  -1.17641
   7.00205  -0.88104  -1.13152
   6.98708  -0.79126  -0.98188
   6.98708  -0.62666  -0.93699
   6.95715  -0.56680  -0.83224
   6.88234  -0.47702  -0.62275
   6.86737  -0.41716  -0.44318
   6.80752  -0.26753  -0.32347
   6.76263  -0.25256  -0.17384
   6.74766  -0.14782  -0.02420
   6.70277  -0.05803   0.08055
   6.65788  -0.02810   0.30501
   6.53817   0.09161   0.46961
   6.44839   0.10657   0.61924
   6.34364   0.18139   0.72399
   6.29875   0.19635   0.88859
   6.22393   0.22628   1.06816
   6.05933   0.28613   1.15794
   5.96955   0.28613   1.29261
   5.90969   0.31606   1.47218
   5.92466   0.31606   1.50211
   5.73013   0.31606   1.56196
   5.55056   0.40584   1.59189
   5.34107   0.54052   1.59189
   5.26625   0.61534   1.59189
   5.23632   0.70512   1.77145
   5.22136   0.73505   1.80138
   5.22136   0.67519   1.95102
   5.14654   0.66023   1.93605
   4.96697   0.67519   2.01087
   4.89216   0.67519   2.10066
   4.78741   0.64526   2.20540
   4.62281   0.70512   2.26526
   4.45821   0.69016   2.39993
   4.36842   0.61534   2.54957
   4.23375   0.69016   2.65432
   4.06915   0.66023   2.75906
   3.81476   0.72008   2.86381
   3.66513   0.73505   2.95359
   3.47060   0.76497   3.07330
   3.23118   0.80987   3.08826
   2.99176   0.80987   3.19301
   2.76730   0.82483   3.19301
   2.49795   0.88468   3.19301
   2.31839   0.85476   3.19301
   2.01911   0.89965   3.17805
   1.77969   0.92958   3.19301
   1.46545   0.94454   3.14812
   1.16618   0.92958   3.17805
   0.91180   0.88468   3.19301
   0.53770   0.94454   3.14812
   0.20850   0.83979   3.14812
  -0.12070   0.86972   3.20797
  -0.43494   0.88468   3.20797
  -0.80904   0.82483   3.22294
  -1.18313   0.75001   3.26783
  -1.52730   0.69016   3.26783
  -1.84154   0.66023   3.19301
  -2.23059   0.64526   3.13316
  -2.55980   0.66023   3.14812
  -2.90396   0.66023   3.13316
  -3.27806   0.60037   3.16308
  -3.50251   0.55548   3.05834
  -3.80179   0.60037   2.99848
  -4.13099   0.61534   2.95359
  -4.38538   0.57045   2.89374
  -4.69961   0.54052   2.83388
  -4.89414   0.46570   2.71417
  -5.17846   0.43577   2.65432
  -5.41788   0.42081   2.56453
  -5.71715   0.39088   2.41490
  -5.88175   0.24124   2.34008
  -6.09124   0.09161   2.31015
  -6.34563   0.01679   2.14555
  -6.57008  -0.05803   1.90613
  -6.88432  -0.04307   1.74153
  -7.19856   0.06168   1.50211
  -7.37813   0.03175   1.36743
  -7.54273   0.09161   1.30758
  -7.55769   0.07664   1.24772
  -7.70733  -0.04307   1.23276
  -7.84200  -0.10292   1.12801
  -7.99164  -0.13285   0.96341
  -8.05150  -0.20767   0.90356
  -8.12632  -0.14782   0.79881
  -8.26099  -0.19271   0.73895
  -8.30588  -0.31242   0.64917
  -8.35077  -0.35731   0.58932
  -8.42559  -0.31242   0.39479
  -8.38070  -0.40220   0.33493
  -8.32084  -0.40220   0.26011
  -8.20113  -0.40220   0.11048
  -8.21610  -0.43213  -0.00923
  -8.14128  -0.43213  -0.12894
  -8.03653  -0.49198  -0.15887
  -7.91682  -0.53687  -0.32347
  -7.87193  -0.50695  -0.44318
  -7.72229  -0.49198  -0.54793
  -7.57266  -0.52191  -0.60778
  -7.48287  -0.53687  -0.63771
  -7.28835  -0.58176  -0.65268
  -7.10878  -0.59673  -0.74246
  -6.98907  -0.61169  -0.80231
  -6.82447  -0.53687  -0.86217
  -6.61498  -0.49198  -0.92202
  -6.45037  -0.40220  -0.95195
  -6.24088  -0.37227  -0.99684
  -6.03139  -0.29745  -1.04173
  -5.86679  -0.29745  -1.10159
  -5.67226  -0.17774  -1.13152
  -5.38795  -0.08796  -1.20633
  -5.22335  -0.02810  -1.25123
  -5.02882   0.00182  -1.26619
  -4.80436   0.07664  -1.19137
  -4.60983   0.21132  -1.23626
  -4.47516   0.13650  -1.22130
  -4.28063   0.18139  -1.23626
  -4.13099   0.25621  -1.20633
  -3.98135   0.28613  -1.17641
  -3.83172   0.28613  -1.16144
  -3.68208   0.25621  -1.17641
  -3.41273   0.21132  -1.13152
  -3.18828   0.15146  -1.13152
  -3.12842   0.22628  -1.20633
  -3.02367   0.28613  -1.29612
  -2.88900   0.40584  -1.29612
  -2.64958   0.48066  -1.32604
  -2.45505   0.45074  -1.31108
  -2.21563   0.42081  -1.35597
  -1.97621   0.39088  -1.29612
  -1.79665   0.39088  -1.32604
  -1.61708   0.37592  -1.35597
  -1.37766   0.37592  -1.37094
  -1.16817   0.46570  -1.41583
  -0.94371   0.40584  -1.40086
  -0.70429   0.43577  -1.40086
  -0.52473   0.40584  -1.46072
  -0.36012   0.40584  -1.46072
  -0.16560   0.42081  -1.50561
   0.05886   0.37592  -1.61036
   0.22346   0.31606  -1.64028
   0.43295   0.30110  -1.65525
   0.55267   0.31606  -1.67021
   0.74719   0.19635  -1.71510
   0.94172   0.15146  -1.73007
   1.09136   0.13650  -1.80489
   1.16618   0.04671  -1.77496
   1.28589   0.03175  -1.80489
   1.48042  -0.01314  -1.83481
   1.60013  -0.07300  -1.84978
   1.70487  -0.19271  -1.77496
   1.83955  -0.19271  -1.71510
   1.95926  -0.26753  -1.74503
   2.00415  -0.35731  -1.80489
   2.03408  -0.44709  -1.81985
   2.12386  -0.41716  -1.83481
   2.18371  -0.43213  -1.83481
   2.18371  -0.53687  -1.78992
   2.21364  -0.61169  -1.68518
   2.24357  -0.67155  -1.73007
   2.19868  -0.71644  -1.67021
   2.24357  -0.73140  -1.59539
   2.25853  -0.73140  -1.61036
   2.21364  -0.80622  -1.49065
   2.27350  -0.82118  -1.38590
   2.25853  -0.82118  -1.34101
   2.28846  -0.85111  -1.19137
   2.31839  -0.86608  -1.16144
   2.28846  -0.85111  -1.13152
   2.30343  -0.86608  -1.05670
   2.28846  -0.76133  -1.01181
   2.28846  -0.79126  -0.84720
   2.31839  -0.74637  -0.68260
   2.31839  -0.64162  -0.65268
   2.28846  -0.67155  -0.47311
   2.40817  -0.68651  -0.17384
   2.49795  -0.68651  -0.05413
   2.37824  -0.70147   0.02069
   2.30343  -0.67155   0.12544
   2.16875  -0.56680   0.14040
   2.10890  -0.46205   0.12544
   2.27350  -0.43213   0.29004
   2.31839  -0.37227   0.48457
   2.27350  -0.41716   0.61924
   2.25853  -0.38724   0.73895
   2.19868  -0.25256   0.78385
   2.16875  -0.16278   0.87363
   2.13882  -0.14782   1.02327
   2.15379  -0.07300   1.06816
   2.13882  -0.04307   1.11305
   2.09393   0.01679   1.17290
   2.12386   0.07664   1.18787
   2.09393   0.21132   1.24772
   2.10890   0.28613   1.29261
   2.13882   0.39088   1.36743
   2.21364   0.39088   1.39736
   2.19868   0.46570   1.42729
   2.22861   0.43577   1.39736
   2.27350   0.48066   1.38240
   2.31839   0.54052   1.27765
   2.34832   0.57045   1.27765
   2.28846   0.64526   1.29261
   2.34832   0.73505   1.27765
   2.37824   0.73505   1.21779
   2.37824   0.72008   1.15794
   2.33335   0.79490   1.09808
   2.36328   0.77994   1.02327
   2.39321   0.83979   0.93348
   2.39321   0.80987   0.81377
   2.39321   0.75001   0.73895
   2.42314   0.80987   0.60428
   2.36328   0.86972   0.51450
   2.37824   0.85476   0.48457
   2.43810   0.91461   0.37982
   2.33335   0.89965   0.24515
   2.34832   0.89965   0.09551
   2.31839   0.89965  -0.02420
   2.22861   0.86972  -0.09902
   2.21364   0.85476  -0.20376
   2.12386   0.79490  -0.29355
   2.04904   0.79490  -0.44318
   2.03408   0.79490  -0.50304
   1.94429   0.79490  -0.63771
   1.92933   0.75001  -0.69757
   1.89940   0.72008  -0.68260
   1.85451   0.73505  -0.75742
   1.82458   0.61534  -0.78735
   1.79466   0.54052  -0.83224
   1.68991   0.52555  -0.86217
   1.57020   0.58541  -0.95195
   1.54027   0.51059  -0.98188
   1.55524   0.57045  -1.07166
   1.54027   0.55548  -1.04173
   1.52531   0.43577  -0.99684
   1.51035   0.40584  -1.05670
   1.46545   0.28613  -1.05670
   1.45049   0.22628  -1.11655
