********************************************************************************
              CENTRO DE INSTRUMENTACION Y REGISTRO SISMICO  A.C.

    Anaxagoras 814, Col. Narvarte, Benito Juarez, C.P. 03020 Mexico, D.F.
           Tels. 5687 45 42/ 5687 45  82             Fax. 5669 25 12
********************************************************************************
ARCHIVO ESTANDAR DE ACELERACION:
VERSION DEL FORMATO                    : 2.0
NOMBRE DEL ARCHIVO                     : AE0220160627205033
FECHA Y HORA DE CREACION               : 15/SEP/16, 10:43
REF. CATALOGO ACELEROGRAMAS, SMIS 1996 : REGISTRO No.     /PAG.


================================================================================
DATOS DE LA ESTACION:
NOMBRE DE LA ESTACION                  : ESC. PRIM. "GONZÁLEZ GARZÓN"
CLAVE DE LA ESTACION                   : AE02
LOCALIZACION DE LA ESTACION            : Del. Venustiano Carranza,              
                                       : Col. El Arenal 4a. Sección,            
                                       : Calle Xico esq. con calle Xocoyote.    
                                       :                                        
                                       : 
COORDENADAS DE LA ESTACION             : 19.4290 LAT. N
                                       : 99.0584 LONG. W
ALTITUD (msnm)                         : 2232
TIPO DE SUELO                          : Arcilloso, zona lago                
                                       :                           
                                       : 
INSTITUCION RESPONSABLE                : CIRES
                                       : 

================================================================================
DATOS DEL ACELEROGRAFO:
MODELO DEL ACELEROGRAFO                : RADESD
NUMERO DE SERIE DEL ACELEROGRAFO       : 242
NUMERO DE CANALES                      : 3
ORIENTACION C1-C6 (rumbo;orientacion)  : /N00E/+V/N90W
ORIENTACION C7-C12 (rumbo;orientacion) : 
VEL. DE MUESTREO, C1-C6 (muestras/s)   : /100/100/100
VEL. DE MUESTREO, C7-C12 (muestras/s)  : 
ESC. COMPLETA DE SENSORES, C1-C6, (g)  : /0.5/0.5/0.5
ESC. COMPLETA DE SENSORES, C7-C12, (g) : 
FREC. NAT. DE SENSORES, C1-C6, (Hz)    : /30/30/30
FREC. NAT. DE SENSORES, C7-C12, (Hz)   : 
AMORTIGUAMIENTO DE SENSORES, C1-C6     : /0.733/0.750/0.700
AMORTIGUAMIENTO DE SENSORES, C7-C12    : 
INTERVALO DE MUESTREO, C1-C6, (s)      : /0.01/0.01/0.01
INTERVALO DE MUESTREO, C7-C12, (s)     : 
UMBRAL DE DISPARO, C1-C6, (Gal)        : /1.65/9.56/2.69
UMBRAL DE DISPARO, C7-C12, (Gal)       : 
MEMORIA DE PREEVENTO (s)               : 44.0
TIEMPO DE POSEVENTO (s)                : 64.0


================================================================================
DATOS DEL SISMO:
FECHA DEL SISMO (GMT)                  : 27/JUN/16
HORA EPICENTRO (GMT)                   : 20:50:33.0
MAGNITUD(ES)                           : /Mc=5.7
COORDENADAS DEL EPICENTRO              : 16.20 LAT. N
                                       : 97.93 LONG. W
PROFUNDIDAD FOCAL (km)                 : 20
FUENTE DE LOS DATOS EPICENTRALES       : SSN
                                       : INSTITUTO DE GEOFISICA, UNAM

================================================================================
DATOS DE ESTE REGISTRO:
HORA DE LA PRIMERA MUESTRA (GMT)       : 20:52:18.00
EXACTITUD DEL TIEMPO (s)               : 0.01
DURACION DEL REGISTRO (s), C1-C6       : /146.2/146.2/146.2
DURACION DEL REGISTRO (s), C7-C12      : 
NUM. TOTAL DE MUESTRAS, C1-C6          : /14620/14620/14620
NUM. TOTAL DE MUESTRAS, C7-C12         : 
ACEL. MAX. (Gal), C1-C6                : /3.48785/1.47264/3.01224
ACEL. MAX., C1-C6, EN LA MUESTRA       : /4820/6195/5336
ACEL. MAX. (Gal), C7-C12               : 
ACEL. MAX., C7-C12, EN LA MUESTRA      : 
UNIDADES DE LOS DATOS                  : Gal (cm/s/s)
FACTOR DE DECIMACION                   : 1
FORMATO DATOS (FORTRAN,10 campos/dato) : 3F10.5


================================================================================
CALIDAD DEL ACELEROGRAMA:
REGISTRO DIGITAL COMPLETO CON TIEMPO ABSOLUTO CORRECTO.


================================================================================
COMENTARIOS:














================================================================================
DATOS DE ACELERACION:
---------+---------+---------+---------+---------+---------+---------+---------+
   CANAL-1   CANAL-2   CANAL-3   CANAL-4   CANAL-5   CANAL-6   CANAL-7   CANAL-8
      N00E        +V      N90W
---------+---------+---------+---------+---------+---------+---------+---------+
[...]
  -1.85421   0.21827   0.70782
  -1.83925   0.18834   0.60307
  -1.76443   0.21827   0.67789
  -1.59983   0.27812   0.81256
  -1.49508   0.26316   0.67789
  -1.40530   0.32302   0.61803
  -1.31552   0.26316   0.64796
  -1.19581   0.33798   0.55818
  -1.13595   0.27812   0.48336
  -0.98631   0.32302   0.40854
  -0.86660   0.35294   0.34869
  -0.83668   0.26316   0.31876
  -0.70200   0.29309   0.30380
  -0.64215   0.26316   0.21401
  -0.44762   0.21827   0.22898
  -0.38776   0.35294   0.07934
  -0.31294   0.27812   0.07934
  -0.25309   0.21827   0.00452
  -0.23813   0.20331  -0.02541
   0.00129   0.17338  -0.05534
   0.06115   0.23323  -0.24986
   0.12100   0.27812  -0.36957
   0.24071   0.17338  -0.23490
   0.28561   0.23323  -0.35461
   0.37539   0.20331  -0.48928
   0.40532   0.15841  -0.60899
   0.48014   0.08360  -0.59403
   0.48014   0.03870  -0.71374
   0.58488   0.05367  -0.68381
   0.71956   0.06863  -0.74367
   0.73452  -0.03611  -0.81849
   0.83927   0.00878  -0.89331
   0.83927   0.06863  -0.86338
   0.76445   0.02374  -1.04294
   0.80934   0.02374  -1.01302
   0.82430   0.05367  -1.07287
   0.83927   0.05367  -1.07287
   0.82430   0.09856  -1.01302
   0.77941   0.15841  -1.10280
   0.83927   0.06863  -1.20754
   0.85423   0.14345  -1.14769
   0.73452   0.05367  -1.20754
   0.77941   0.09856  -1.23747
   0.77941   0.18834  -1.29733
   0.67466   0.06863  -1.35718
   0.68963   0.09856  -1.38711
   0.62977   0.02374  -1.40207
   0.55495   0.03870  -1.43200
   0.59985  -0.00619  -1.49186
   0.52503  -0.02115  -1.44696
   0.56992  -0.02115  -1.58164
   0.61481  -0.08101  -1.55171
   0.53999  -0.11093  -1.70135
   0.67466  -0.00619  -1.64149
   0.56992  -0.12590  -1.74624
   0.73452  -0.06604  -1.62653
   0.83927   0.05367  -1.62653
   0.73452  -0.09597  -1.74624
   0.89912   0.00878  -1.64149
   0.80934  -0.11093  -1.71631
   0.82430  -0.11093  -1.70135
   0.80934  -0.11093  -1.64149
   0.71956  -0.06604  -1.64149
   0.76445  -0.00619  -1.49186
   0.68963   0.02374  -1.50682
   0.59985   0.06863  -1.52178
   0.56992   0.11352  -1.46193
   0.43524   0.20331  -1.46193
   0.42028   0.15841  -1.37215
   0.36042   0.12849  -1.38711
   0.39035   0.21827  -1.22251
   0.40532   0.26316  -1.20754
   0.30057   0.23323  -1.11776
   0.31553   0.24820  -1.04294
   0.27064   0.14345  -1.07287
   0.16590   0.24820  -0.83345
   0.18086   0.14345  -0.83345
   0.19582   0.18834  -0.65389
   0.13597   0.17338  -0.69878
   0.13597  -0.00619  -0.54914
  -0.01367   0.18834  -0.56410
  -0.10345   0.12849  -0.36957
   0.03122   0.20331  -0.41447
  -0.04360   0.17338  -0.23490
  -0.01367   0.27812  -0.10023
  -0.07352   0.23323  -0.08526
   0.04619   0.26316   0.06437
   0.03122   0.30805   0.04941
   0.01626   0.29309   0.12423
   0.10604   0.29309   0.31876
   0.13597   0.35294   0.33372
   0.18086   0.27812   0.36365
   0.34546   0.24820   0.55818
   0.27064   0.23323   0.49832
   0.37539   0.26316   0.52825
   0.45021   0.27812   0.67789
   0.40532   0.21827   0.63300
   0.48014   0.14345   0.55818
   0.48014   0.29309   0.61803
   0.45021   0.39783   0.66293
   0.40532   0.33798   0.60307
   0.37539   0.27812   0.57314
   0.43524   0.42776   0.63300
   0.28561   0.35294   0.55818
   0.25568   0.29309   0.61803
   0.10604   0.26316   0.64796
   0.06115   0.21827   0.58811
   0.03122   0.24820   0.58811
  -0.01367   0.27812   0.75271
  -0.19323   0.06863   0.72278
  -0.31294   0.12849   0.63300
  -0.40273   0.15841   0.58811
  -0.55236   0.12849   0.58811
  -0.49251   0.12849   0.52825
  -0.73193  -0.02115   0.58811
  -0.80675   0.08360   0.55818
  -0.95639   0.06863   0.42351
  -0.98631   0.00878   0.36365
  -1.06113   0.08360   0.31876
  -1.15091  -0.09597   0.25890
  -1.10602  -0.06604   0.22898
  -1.10602  -0.05108   0.16912
  -1.18084  -0.17079   0.15416
  -1.25566  -0.27553   0.07934
  -1.30055  -0.35035   0.03445
  -1.25566  -0.36532   0.13919
  -1.16588  -0.36532   0.03445
  -1.16588  -0.41021   0.06437
  -1.15091  -0.45510  -0.01044
  -1.09106  -0.49999  -0.01044
  -1.12099  -0.45510  -0.05534
  -0.98631  -0.54488  -0.10023
  -0.92646  -0.44014  -0.11519
  -0.83668  -0.61970  -0.13015
  -0.79178  -0.45510  -0.14512
  -0.77682  -0.42517  -0.20497
  -0.70200  -0.29050  -0.21994
  -0.56733  -0.35035  -0.08526
  -0.59726  -0.18575  -0.16008
  -0.49251  -0.12590  -0.13015
  -0.43265  -0.03611  -0.01044
  -0.38776   0.05367  -0.02541
  -0.35784  -0.02115   0.03445
  -0.20820   0.05367   0.18408
  -0.20820  -0.02115   0.25890
  -0.10345  -0.06604   0.25890
   0.00129   0.03870   0.30380
   0.15093   0.09856   0.31876
   0.18086   0.11352   0.30380
   0.30057   0.09856   0.46840
   0.30057  -0.02115   0.49832
   0.40532   0.00878   0.54322
   0.52503   0.02374   0.45343
   0.74948   0.03870   0.60307
   0.80934   0.08360   0.57314
   0.92905  -0.02115   0.69285
   1.07869   0.02374   0.87242
   1.22832   0.15841   0.79760
   1.16847   0.03870   0.88738
   1.34803   0.06863   1.02206
   1.54256   0.08360   1.09687
   1.61738   0.17338   1.29140
   1.57249   0.03870   1.30637
   1.66227   0.00878   1.42608
   1.70716   0.12849   1.60564
   1.73709   0.09856   1.74032
   1.78198   0.21827   1.68046
   1.81191   0.17338   1.97974
   1.73709   0.23323   1.86003
   1.76702   0.32302   1.94981
   1.72213   0.17338   2.14434
   1.66227   0.32302   2.05456
   1.60242   0.30805   2.08448
   1.60242   0.45769   2.20419
   1.42285   0.35294   2.14434
   1.43782   0.32302   2.32390
   1.42285   0.39783   2.27901
   1.25825   0.32302   2.33887
   1.27321   0.39783   2.36879
   1.19840   0.36791   2.36879
   1.10861   0.33798   2.38376
   1.10861   0.36791   2.32390
   1.04876   0.30805   2.39872
   1.04876   0.36791   2.26405
   0.98890   0.32302   2.26405
   0.86919   0.30805   2.12937
   0.83927   0.30805   2.11441
   0.73452   0.23323   2.11441
   0.68963   0.26316   1.97974
   0.73452   0.29309   1.99470
   0.59985   0.20331   1.86003
   0.46517   0.12849   1.78521
   0.37539   0.09856   1.60564
   0.30057   0.05367   1.63557
   0.18086   0.05367   1.47097
   0.22575  -0.11093   1.47097
   0.21079  -0.17079   1.41111
   0.06115  -0.21568   1.26148
   0.09108  -0.17079   1.23155
   0.01626  -0.12590   1.09687
  -0.04360  -0.26057   0.85745
  -0.10345  -0.26057   0.84249
  -0.28302  -0.30546   0.76767
  -0.29798  -0.26057   0.63300
  -0.49251  -0.21568   0.33372
  -0.70200  -0.35035   0.36365
  -0.82171  -0.29050   0.15416
  -0.85164  -0.20072   0.06437
  -0.94142  -0.17079   0.04941
  -1.24070  -0.33539  -0.16008
  -1.31552  -0.35035  -0.27979
  -1.43523  -0.26057  -0.35461
  -1.52501  -0.44014  -0.33965
  -1.55494  -0.42517  -0.50425
  -1.67465  -0.47006  -0.62396
  -1.64472  -0.41021  -0.87834
  -1.68961  -0.54488  -0.89331
  -1.65968  -0.57481  -1.10280
  -1.64472  -0.60474  -1.28236
  -1.71954  -0.67956  -1.43200
  -1.67465  -0.73941  -1.41704
  -1.51005  -0.70948  -1.71631
  -1.56990  -0.76934  -1.79113
  -1.55494  -0.81423  -1.95573
  -1.51005  -0.81423  -2.07544
  -1.58486  -0.96387  -2.15026
  -1.46515  -0.87409  -2.12033
  -1.42026  -0.88905  -2.15026
  -1.43523  -0.88905  -2.13530
  -1.39033  -0.84416  -2.10537
  -1.37537  -0.97883  -2.15026
  -1.33048  -0.85912  -2.21012
  -1.24070  -0.87409  -2.10537
  -1.15091  -0.93394  -2.13530
  -1.03120  -0.85912  -2.12033
  -0.92646  -0.94890  -2.06048
  -0.76186  -0.72445  -2.15026
  -0.61222  -0.72445  -2.03055
  -0.50747  -0.72445  -2.01559
  -0.44762  -0.60474  -2.04552
  -0.26805  -0.55985  -1.97070
  -0.19323  -0.57481  -1.98566
  -0.17827  -0.49999  -1.95573
   0.04619  -0.38028  -1.73128
   0.19582  -0.33539  -1.70135
   0.03122  -0.30546  -1.71631
   0.21079  -0.21568  -1.59660
   0.28561  -0.03611  -1.49186
   0.46517   0.06863  -1.35718
   0.45021   0.06863  -1.35718
   0.53999   0.15841  -1.35718
   0.53999   0.08360  -1.13273
   0.67466   0.12849  -1.13273
   0.79437   0.24820  -1.05791
   0.79437   0.29309  -0.98309
   0.91408   0.38287  -1.08783
   1.03379   0.47265  -0.80352
   0.94401   0.53251  -0.83345
   1.07869   0.59236  -0.83345
   1.03379   0.50258  -0.59403
   1.10861   0.62229  -0.65389
   1.12358   0.63725  -0.54914
   1.04876   0.68215  -0.44439
   1.01883   0.63725  -0.30972
   0.98890   0.62229  -0.23490
   0.89912   0.56244  -0.05534
   0.91408   0.57740   0.12423
   0.88416   0.66718   0.19905
   0.76445   0.57740   0.31876
   0.76445   0.68215   0.48336
   0.74948   0.77193   0.52825
   0.65970   0.77193   0.63300
   0.64474   0.80186   0.72278
   0.55495   0.87667   0.79760
   0.51006   0.90660   0.93227
   0.40532   0.89164   0.91731
   0.39035   0.98142   0.93227
   0.28561   1.05624   1.08191
   0.12100   0.93653   1.09687
   0.09108   0.95149   1.24651
  -0.11842   1.02631   1.18666
  -0.31294   1.05624   1.18666
  -0.34287   0.99638   1.30637
  -0.46258   0.92157   1.39615
  -0.62718   0.84675   1.41111
  -0.79178   0.81682   1.50090
  -1.03120   0.57740   1.47097
  -1.10602   0.68215   1.36622
  -1.18084   0.56244   1.47097
  -1.28559   0.57740   1.42608
  -1.48012   0.48762   1.35126
  -1.62976   0.51754   1.32133
  -1.73450   0.39783   1.33629
  -1.79436   0.32302   1.15673
  -1.95896   0.36791   1.20162
  -1.98889   0.33798   1.20162
  -2.07867   0.38287   1.11184
  -2.28816   0.36791   1.02206
  -2.27320   0.17338   1.14177
  -2.24327   0.21827   1.06695
  -2.22831   0.18834   1.00709
  -2.21334   0.27812   1.00709
  -2.21334   0.15841   0.87242
  -2.18341   0.15841   0.85745
  -2.01881   0.18834   0.88738
  -2.07867   0.15841   0.66293
  -1.92903   0.14345   0.73774
  -1.76443   0.26316   0.55818
  -1.67465   0.15841   0.57314
  -1.58486   0.11352   0.36365
  -1.43523   0.18834   0.12423
  -1.31552   0.15841   0.01948
  -1.28559   0.03870  -0.02541
  -1.15091  -0.03611  -0.23490
  -1.10602  -0.03611  -0.30972
  -0.98631  -0.15582  -0.57907
  -0.86660  -0.03611  -0.74367
  -0.62718  -0.08101  -0.78856
  -0.56733  -0.27553  -1.04294
  -0.37280  -0.30546  -1.10280
  -0.14834  -0.17079  -1.13273
  -0.01367  -0.41021  -1.25244
   0.19582  -0.41021  -1.34222
   0.49510  -0.36532  -1.38711
   0.65970  -0.41021  -1.52178
   0.89912  -0.41021  -1.61157
   1.04876  -0.44014  -1.67142
   1.18343  -0.51495  -1.80610
   1.30314  -0.45510  -1.97070
   1.46774  -0.47006  -1.95573
   1.72213  -0.48503  -1.94077
   1.81191  -0.51495  -2.00062
   1.94658  -0.44014  -2.01559
   1.99147  -0.47006  -1.97070
   2.21593  -0.42517  -1.98566
   2.29075  -0.51495  -1.77617
   2.50024  -0.54488  -1.67142
   2.51521  -0.60474  -1.62653
   2.69477  -0.58977  -1.62653
   2.85937  -0.60474  -1.50682
   2.96412  -0.70948  -1.47689
   2.97908  -0.61970  -1.55171
   3.18858  -0.61970  -1.58164
   3.29332  -0.66459  -1.47689
   3.36814  -0.63467  -1.46193
   3.35318  -0.64963  -1.34222
   3.48785  -0.48503  -1.41704
   3.30829  -0.58977  -1.26740
   3.39807  -0.64963  -1.25244
   3.32325  -0.51495  -1.05791
   3.27836  -0.48503  -0.99805
   3.03894  -0.51495  -1.10280
   3.02397  -0.44014  -0.86338
   2.94916  -0.51495  -0.66885
   2.73966  -0.57481  -0.56410
   2.66484  -0.51495  -0.38454
   2.59003  -0.39524  -0.27979
   2.59003  -0.38028  -0.19001
   2.33564  -0.35035   0.03445
   2.26082  -0.42517   0.16912
   2.11118  -0.35035   0.25890
   2.02140  -0.35035   0.33372
   1.81191  -0.35035   0.37861
   1.70716  -0.29050   0.49832
   1.48271  -0.29050   0.70782
   1.25825  -0.24561   0.67789
   0.94401  -0.23064   0.69285
   0.68963  -0.32043   0.78264
   0.52503  -0.18575   0.73774
   0.30057  -0.15582   0.91731
   0.07611  -0.14086   0.99213
  -0.23813  -0.17079   1.06695
  -0.53740  -0.17079   1.18666
  -0.76186  -0.12590   1.27644
  -0.95639  -0.14086   1.29140
  -1.24070  -0.17079   1.30637
  -1.31552  -0.18575   1.39615
  -1.55494  -0.23064   1.30637
  -1.61479  -0.20072   1.38119
  -1.68961  -0.12590   1.27644
  -2.00385  -0.17079   1.17169
  -2.00385  -0.15582   1.23155
  -2.12356  -0.08101   0.96220
  -2.48269  -0.20072   0.93227
  -2.51262  -0.12590   1.00709
  -2.55751  -0.08101   0.85745
  -2.67722  -0.05108   0.85745
  -2.79693   0.02374   0.84249
  -2.78196   0.05367   0.66293
  -2.90167   0.00878   0.55818
  -3.03635   0.02374   0.57314
  -2.99146   0.05367   0.51329
  -3.09620   0.05367   0.34869
  -3.23088   0.11352   0.25890
  -3.20095   0.02374   0.18408
  -3.18599   0.03870  -0.05534
  -3.08124   0.12849  -0.08526
  -3.11117   0.14345  -0.39950
  -2.99146   0.15841  -0.47432
  -3.02138   0.12849  -0.48928
  -2.88671   0.09856  -0.68381
  -2.75204   0.21827  -0.80352
  -2.70715   0.21827  -0.86338
  -2.57247   0.21827  -0.96812
  -2.27320   0.23323  -1.01302
  -2.07867   0.20331  -0.96812
  -1.82428   0.32302  -0.96812
  -1.74947   0.33798  -0.98309
  -1.40530   0.29309  -0.96812
  -1.15091   0.32302  -0.95316
  -0.89653   0.38287  -0.93820
  -0.68704   0.30805  -1.01302
  -0.37280   0.38287  -1.01302
  -0.17827   0.39783  -1.08783
   0.16590   0.33798  -0.99805
   0.30057   0.29309  -1.10280
   0.42028   0.27812  -1.07287
   0.71956   0.33798  -1.25244
   0.86919   0.35294  -1.25244
   0.88416   0.15841  -1.20754
   1.03379   0.21827  -1.13273
   1.15350   0.26316  -1.10280
   1.37796   0.23323  -0.98309
   1.42285   0.18834  -0.96812
   1.48271   0.29309  -0.84841
   1.58745   0.27812  -0.69878
   1.73709   0.39783  -0.75863
   1.84184   0.33798  -0.51921
   1.90169   0.48762  -0.63892
   2.08126   0.41280  -0.38454
   2.18600   0.42776  -0.33965
   2.20097   0.50258  -0.23490
   2.26082   0.53251  -0.19001
   2.27579   0.53251  -0.07030
   2.23090   0.62229  -0.13015
   2.17104   0.59236   0.03445
   2.09622   0.59236   0.00452
   2.00644   0.53251   0.16912
   1.93162   0.53251   0.34869
   1.79695   0.56244   0.42351
   1.66227   0.41280   0.60307
   1.58745   0.56244   0.72278
   1.49767   0.41280   0.99213
   1.34803   0.45769   1.09687
   1.25825   0.47265   1.11184
   1.16847   0.50258   1.23155
   1.12358   0.44273   1.47097
   0.95898   0.29309   1.42608
   0.85423   0.45769   1.60564
   0.65970   0.32302   1.63557
   0.62977   0.44273   1.56075
   0.52503   0.48762   1.72535
   0.33050   0.47265   1.72535
   0.19582   0.29309   1.69542
  -0.13338   0.30805   1.47097
  -0.20820   0.45769   1.53082
  -0.34287   0.44273   1.51586
  -0.61222   0.35294   1.57571
  -0.86660   0.39783   1.48593
  -1.01624   0.41280   1.48593
  -1.12099   0.39783   1.60564
  -1.27062   0.33798   1.53082
  -1.40530   0.38287   1.47097
  -1.45019   0.27812   1.53082
  -1.55494   0.17338   1.53082
  -1.53997   0.23323   1.51586
  -1.51005   0.23323   1.54579
  -1.42026   0.23323   1.47097
  -1.43523   0.20331   1.36622
  -1.48012   0.14345   1.29140
  -1.36041   0.11352   1.29140
  -1.27062   0.14345   1.26148
  -1.37537   0.05367   1.03702
  -1.33048   0.05367   1.03702
  -1.37537  -0.03611   0.93227
  -1.28559  -0.15582   0.90235
  -1.30055  -0.03611   0.88738
  -1.36041  -0.03611   0.75271
  -1.33048  -0.11093   0.75271
  -1.33048  -0.14086   0.66293
  -1.36041  -0.18575   0.67789
  -1.25566  -0.29050   0.52825
  -1.18084  -0.23064   0.60307
  -1.04617  -0.27553   0.51329
  -0.98631  -0.38028   0.43847
  -0.97135  -0.42517   0.40854
  -0.89653  -0.54488   0.28883
  -0.71697  -0.49999   0.40854
  -0.55236  -0.51495   0.36365
  -0.62718  -0.61970   0.30380
  -0.43265  -0.55985   0.25890
  -0.38776  -0.54488   0.19905
  -0.32791  -0.61970   0.25890
  -0.14834  -0.58977   0.15416
  -0.13338  -0.63467   0.16912
  -0.04360  -0.57481   0.22898
