********************************************************************************
               CENTRO DE INSTRUMENTACION Y REGISTRO SISMICO  A.C.  
                       Coordinacion de Servicios Tecnicos
     Anaxagoras 814, Col. Narvarte, Benito Juarez, C.P. 03020 Mexico, D.F.
            Tels. 687 45 42/ 687 45  82             Fax. 669 25 12
********************************************************************************
ARCHIVO ESTANDAR DE ACELERACION:
VERSION DEL FORMATO                    : 2.0
NOMBRE DEL ARCHIVO                     : AE029405.231
FECHA Y HORA DE CREACION               : 22 de enero 1996/16:23
REF. CATALOGO ACELEROGRAMAS, SMIS 1995 : REGISTRO No.     /PAG.


================================================================================
DATOS DE LA ESTACION:
NOMBRE DE LA ESTACION                  : AEROPUERTO
CLAVE DE LA ESTACION                   : AE02
LOCALIZACION DE LA ESTACION            : Esc Prim Gonzalez Garzon Calle Xico
                                       : s/n, Col. IV Seccion del Arenal
                                       : Venustiano Carranza
                                       :
                                       :
COORDENADAS DE LA ESTACION             : 19.429 LAT. N 
                                       : 99.058 LONG. W 
ALTITUD (msnm)                         : 2232
TIPO DE SUELO                          : ARCILLOSO, ZONA LAGO
                                       : 
                                       : 
INSTITUCION RESPONSABLE                : CIRES
                                       :

================================================================================
DATOS DEL ACELEROGRAFO:
MODELO DEL ACELEROGRAFO                : DCA-333
NUMERO DE SERIE DEL ACELEROGRAFO       : 243
NUMERO DE CANALES                      : 3
ORIENTACION C1-C6 (rumbo;orientacion)  : /N00E/+V/N90W
ORIENTACION C7-C12 (rumbo;orientacion) :
VEL. DE MUESTREO, C1-C6 (muestras/s)   : /100/100/100
VEL. DE MUESTREO, C7-C12 (muestras/s)  :
ESC. COMPLETA DE SENSORES, C1-C6, (g)  : /0.5/0.5/0.5
ESC. COMPLETA DE SENSORES, C7-C12, (g) :
FREC. NAT. DE SENSORES, C1-C6, (Hz)    : /30/30/30
FREC. NAT. DE SENSORES, C7-C12, (Hz)   :
AMORTIGUAMIENTO DE SENSORES, C1-C6     : /0.733/0.750/0.700
AMORTIGUAMIENTO DE SENSORES, C7-C12    :
INTERVALO DE MUESTREO, C1-C6, (s)      : /0.01/0.01/0.01
INTERVALO DE MUESTREO, C7-C12, (s)     :
UMBRAL DE DISPARO, C1-C6, (Gal)        : /3.4/3.4/3.4
UMBRAL DE DISPARO, C7-C12, (Gal)       :
MEMORIA DE PREEVENTO (s)               : 4
TIEMPO DE POSEVENTO (s)                : 15


================================================================================
DATOS DEL SISMO:
FECHA DEL SISMO (GMT)                  : 23/MAY/94
HORA EPICENTRO (GMT)                   : 01:41:46,0
MAGNITUD(ES)                           : /Mc=5.60
COORDENADAS DEL EPICENTRO              : 18.030 LAT. N
                                       : 100.570 LONG. W
PROFUNDIDAD FOCAL (km)                 : 23
FUENTE DE LOS DATOS EPICENTRALES       : SSN
                                       : INSTITUTO DE GEOFISICA, UNAM

================================================================================
DATOS DE ESTE REGISTRO:
HORA DE LA PRIMERA MUESTRA (GMT)       : 01:42:42.37
EXACTITUD DEL TIEMPO (s)               : 0.01
DURACION DEL REGISTRO (s), C1-C6       : /91.52/91.52/91.52
DURACION DEL REGISTRO (s), C7-C12      :
NUM. TOTAL DE MUESTRAS, C1-C6          : /9152/9152/9152
NUM. TOTAL DE MUESTRAS, C7-C12         :
ACEL. MAX. (Gal), C1-C6                : /-8.85/3.06/5.03
ACEL. MAX., C1-C6, EN LA MUESTRA       : /3043/3746/3644
ACEL. MAX. (Gal), C7-C12               :
ACEL. MAX., C7-C12, EN LA MUESTRA      :
UNIDADES DE LOS DATOS                  : Gal (cm/s/s)
FACTOR DE DECIMACION                   : 1
FORMATO DATOS (FORTRAN,10 campos/dato) : 3F10.2


================================================================================
CALIDAD DEL ACELEROGRAMA:
REGISTRO DIGITAL COMPLETO, CON TIEMPO ABSOLUTO CORRECTO.


================================================================================
COMENTARIOS:














================================================================================
DATOS DE ACELERACION:
---------+---------+---------+---------+---------+---------+---------+---------+
   CANAL-1   CANAL-2   CANAL-3   CANAL-4   CANAL-5   CANAL-6   CANAL-7   CANAL-8
      N00E        +V      N90W
---------+---------+---------+---------+---------+---------+---------+---------+
[...]
      1.92      0.19     -1.19
      1.68      0.43     -1.19
      1.68      0.66     -1.19
      1.68      0.66     -0.95
      1.68      0.90     -0.71
      1.44      0.90     -0.71
      1.44      0.90     -0.71
      1.20      0.90     -0.71
      0.96      0.90     -0.71
      0.72      1.14     -0.71
      0.49      1.14     -0.47
      0.25      0.90     -0.47
      0.25      0.90     -0.23
      0.01      0.90     -0.23
     -0.23      0.90      0.00
     -0.47      0.66      0.00
     -0.47      0.66      0.24
     -0.71      0.43      0.48
     -0.71      0.19      0.72
     -0.71      0.19      0.96
     -0.95      0.19      1.20
     -0.95      0.19      1.68
     -1.19      0.19      1.92
     -1.19      0.19      2.16
     -1.19      0.43      2.64
     -1.19      0.43      2.88
     -1.19      0.43      2.88
     -0.95      0.66      3.12
     -0.95      0.66      3.12
     -1.19      0.90      3.12
     -0.95      0.90      3.36
     -1.19      0.90      3.36
     -1.19      0.90      3.12
     -1.43      0.90      3.12
     -1.67      0.90      2.88
     -1.67      0.90      2.88
     -1.91      0.90      2.64
     -1.91      0.90      2.40
     -2.15      0.90      2.16
     -2.15      0.90      1.92
     -2.15      0.90      1.68
     -2.15      0.90      1.44
     -2.15      0.90      1.20
     -2.15      0.90      0.96
     -1.91      0.66      0.72
     -1.91      0.66      0.48
     -1.67      0.66      0.48
     -1.43      0.43      0.24
     -1.19      0.19      0.24
     -0.71     -0.05      0.00
     -0.47     -0.29      0.00
      0.01     -0.53     -0.23
      0.25     -0.77     -0.23
      0.49     -0.77     -0.47
      0.72     -1.01     -0.47
      0.96     -1.25     -0.71
      1.20     -1.49     -0.71
      1.20     -1.73     -1.19
      1.20     -1.73     -1.19
      1.20     -1.73     -1.43
      1.20     -1.97     -1.43
      1.20     -1.97     -1.67
      0.96     -2.21     -1.67
      0.96     -2.21     -1.67
      0.72     -1.97     -1.91
      0.72     -1.97     -1.91
      0.49     -1.73     -1.91
      0.25     -1.73     -1.91
      0.25     -1.49     -1.91
      0.01     -1.49     -1.91
      0.01     -1.25     -1.91
      0.01     -1.01     -1.67
      0.01     -1.01     -1.67
      0.01     -0.77     -1.67
      0.01     -0.77     -1.91
      0.01     -0.77     -1.91
      0.25     -0.77     -2.15
      0.49     -0.77     -2.39
      0.72     -0.53     -2.39
      0.96     -0.53     -2.39
      0.96     -0.77     -2.39
      1.20     -0.53     -2.39
      1.20     -0.77     -2.39
      1.44     -0.53     -2.15
      1.44     -0.53     -1.91
      1.44     -0.53     -1.67
      1.44     -0.53     -1.43
      1.44     -0.53     -1.19
      1.44     -0.29     -0.71
      1.44     -0.29     -0.47
      1.44     -0.53     -0.23
      1.44     -0.53      0.00
      1.44     -0.53      0.00
      1.68     -0.29      0.24
      1.68     -0.53      0.24
      1.92     -0.53      0.48
      1.92     -0.53      0.72
      2.16     -0.29      0.96
      2.40     -0.29      0.96
      2.40     -0.05      0.96
      2.64     -0.05      1.20
      2.64      0.19      1.20
      2.64      0.19      1.44
      2.64      0.19      1.68
      2.64      0.43      1.68
      2.64      0.43      1.92
      2.40      0.43      1.92
      2.16      0.66      1.92
      1.92      0.66      1.92
      1.68      0.66      1.92
      1.44      0.90      1.92
      1.20      0.90      1.68
      1.20      0.90      1.44
      0.96      0.90      1.20
      0.96      1.14      0.96
      0.96      1.14      0.96
      0.96      1.14      0.72
      0.96      1.38      0.48
      0.96      1.38      0.48
      0.96      1.38      0.48
      0.96      1.14      0.48
      0.96      1.14      0.48
      0.96      0.90      0.48
      1.20      0.90      0.72
      1.20      0.90      0.72
      1.44      0.66      0.96
      1.44      0.66      0.96
      1.68      0.66      1.20
      1.68      0.43      1.20
      1.68      0.19      1.20
      1.68      0.19      1.20
      1.68      0.19      1.44
      1.44     -0.05      1.44
      1.20     -0.05      1.44
      0.96     -0.05      1.44
      0.96     -0.05      1.44
      0.72     -0.05      1.44
      0.72     -0.05      1.20
      0.96      0.19      1.20
      0.96      0.19      0.96
      0.96      0.43      0.96
      1.20      0.43      0.72
      1.44      0.66      0.72
      1.44      0.66      0.72
      1.68      0.66      0.72
      1.68      0.66      0.72
      1.68      0.43      0.96
      1.68      0.66      0.96
      1.68      0.43      0.96
      1.68      0.43      1.20
      1.68      0.43      1.20
      1.68      0.66      1.20
      1.68      0.66      0.96
      1.92      0.66      0.96
      1.92      0.43      0.72
      1.92      0.43      0.48
      1.92      0.19      0.24
      1.92     -0.05      0.00
      1.92     -0.05     -0.47
      1.68     -0.05     -0.71
      1.68     -0.29     -1.19
      1.44     -0.29     -1.19
      1.44     -0.29     -1.43
      1.44     -0.29     -1.67
      1.44     -0.05     -1.67
      1.44     -0.05     -1.67
      1.44     -0.05     -1.91
      1.44      0.19     -1.91
      1.44      0.19     -1.91
      1.68      0.43     -1.91
      1.92      0.43     -1.91
      1.92      0.43     -1.91
      2.16      0.43     -1.67
      2.16      0.43     -1.43
      2.40      0.19     -1.19
      2.16      0.19     -0.95
      2.16     -0.05     -0.47
      1.92     -0.05     -0.23
      1.68     -0.29      0.00
      1.20     -0.29      0.48
      0.96     -0.29      0.48
      0.72     -0.29      0.72
      0.25     -0.29      0.96
      0.01     -0.29      0.96
     -0.23     -0.29      0.96
     -0.47     -0.29      0.96
     -0.71     -0.29      0.72
     -1.19     -0.05      0.72
     -1.19     -0.05      0.48
     -1.43     -0.05      0.48
     -1.67     -0.05      0.48
     -1.91     -0.29      0.72
     -2.15     -0.05      0.72
     -2.15     -0.29      0.96
     -2.39     -0.29      0.96
     -2.63     -0.29      1.20
     -2.87     -0.29      1.44
     -2.87     -0.29      1.44
     -3.11     -0.53      1.68
     -3.11     -0.29      1.92
     -3.35     -0.29      1.92
     -3.35     -0.29      1.92
     -3.35     -0.29      1.92
     -3.58     -0.29      1.92
     -3.58     -0.29      1.92
     -3.58     -0.53      1.68
     -3.58     -0.53      1.68
     -3.58     -0.53      1.44
     -3.58     -0.77      1.20
     -3.58     -0.77      0.96
     -3.58     -0.77      0.96
     -3.35     -0.77      0.96
     -3.35     -0.77      0.96
     -3.11     -0.53      0.96
     -3.11     -0.53      0.96
     -2.87     -0.53      0.96
     -2.87     -0.29      1.20
     -2.87     -0.05      0.96
     -2.87     -0.05      1.20
     -2.63      0.19      1.20
     -2.63      0.43      1.44
     -2.63      0.66      1.44
     -2.63      0.66      1.68
     -2.63      0.90      1.68
     -2.63      1.14      1.92
     -2.87      1.14      1.92
     -2.87      1.14      1.92
     -3.11      1.14      1.92
     -3.11      1.14      1.92
     -3.35      1.14      1.92
     -3.35      1.14      1.68
     -3.58      1.14      1.44
     -3.58      1.14      1.20
     -3.35      1.14      0.96
     -3.35      1.14      0.72
     -3.11      1.14      0.48
     -2.87      1.14      0.48
     -2.87      0.90      0.48
     -2.63      0.90      0.48
     -2.63      0.66      0.48
     -2.63      0.43      0.48
     -2.63      0.43      0.72
     -2.63      0.19      0.72
     -2.63     -0.05      0.96
     -2.63     -0.05      0.96
     -2.63     -0.29      0.96
     -2.39     -0.53      0.96
     -2.39     -0.53      0.96
     -2.39     -0.53      0.96
     -2.39     -0.53      0.96
     -2.15     -0.53      0.96
     -2.15     -0.53      0.96
     -1.91     -0.53      0.72
     -1.91     -0.53      0.72
     -1.67     -0.53      0.48
     -1.67     -0.53      0.24
     -1.67     -0.53      0.00
     -1.67     -0.53     -0.23
     -1.43     -0.53     -0.47
     -1.43     -0.77     -0.71
     -1.19     -0.53     -1.19
     -1.19     -0.77     -1.19
     -0.95     -0.77     -1.43
     -0.71     -0.77     -1.43
     -0.47     -0.77     -1.43
     -0.23     -0.77     -1.67
      0.01     -0.77     -1.67
      0.01     -0.77     -1.43
      0.25     -0.77     -1.43
      0.25     -0.53     -1.43
      0.25     -0.53     -1.43
      0.25     -0.53     -1.43
      0.25     -0.53     -1.67
      0.25     -0.29     -1.67
      0.25     -0.05     -1.67
      0.25     -0.05     -1.67
      0.25     -0.05     -1.91
      0.49      0.19     -1.91
      0.49      0.19     -2.15
      0.72      0.19     -2.63
      0.72      0.43     -2.63
      0.96      0.43     -2.87
      0.96      0.66     -3.11
      1.20      0.43     -3.11
      1.20      0.43     -3.11
      1.20      0.43     -3.11
      1.20      0.43     -2.87
      0.96      0.19     -2.87
      0.96     -0.05     -2.63
      0.96     -0.05     -2.39
      0.72     -0.29     -2.15
      0.72     -0.29     -1.67
      0.49     -0.53     -1.43
      0.25     -0.53     -0.95
      0.25     -0.53     -0.47
      0.01     -0.53     -0.23
      0.01     -0.53      0.00
     -0.23     -0.29      0.24
     -0.23     -0.29      0.48
     -0.23     -0.29      0.48
     -0.23     -0.29      0.48
     -0.23     -0.29      0.48
     -0.23     -0.05      0.48
     -0.23     -0.05      0.48
     -0.23     -0.05      0.24
      0.01     -0.29      0.24
      0.01     -0.29      0.00
      0.01     -0.29      0.00
     -0.23     -0.53      0.00
     -0.23     -0.53      0.00
     -0.47     -0.77      0.24
     -0.47     -0.77      0.24
     -0.71     -1.01      0.48
     -0.71     -1.01      0.72
     -1.19     -1.01      0.96
     -1.43     -1.01      1.20
     -1.43     -1.01      1.44
     -1.67     -1.01      1.68
     -1.91     -1.01      1.68
     -1.91     -1.01      1.68
     -1.91     -0.77      1.68
     -1.91     -0.77      1.44
     -1.91     -0.53      1.20
     -1.67     -0.53      0.96
     -1.67     -0.29      0.72
     -1.43     -0.05      0.48
     -1.43     -0.05      0.00
     -1.19      0.19     -0.23
     -1.19      0.19     -0.47
     -1.19      0.43     -0.71
     -1.19      0.66     -0.71
     -1.43      0.43     -0.71
     -1.67      0.66     -0.71
     -1.91      0.66     -0.71
     -2.39      0.66     -0.47
     -2.63      0.66     -0.47
     -2.87      0.90     -0.47
     -3.35      0.90     -0.23
     -3.82      1.14      0.00
     -4.30      1.14      0.24
     -4.78      1.14      0.48
     -5.26      1.38      0.72
     -5.98      1.38      0.96
     -6.70      1.38      0.96
     -7.18      1.62      0.96
     -7.66      1.62      1.20
     -7.89      1.38      0.96
     -8.37      1.38      0.96
     -8.61      1.38      0.96
     -8.85      1.38      0.72
     -8.85      1.38      0.48
     -8.85      1.14      0.24
     -8.61      1.14      0.00
     -8.61      1.38     -0.23
     -8.37      1.14     -0.47
     -8.13      1.38     -0.71
     -7.89      1.14     -1.19
     -7.66      1.14     -1.43
     -7.42      1.14     -1.43
     -6.94      0.90     -1.67
     -6.70      0.66     -1.91
     -6.22      0.43     -1.91
     -5.74      0.43     -2.15
     -5.50      0.19     -2.15
     -5.02      0.19     -1.91
     -4.78     -0.05     -1.91
     -4.30     -0.29     -1.91
     -3.82     -0.53     -1.67
     -3.35     -0.53     -1.67
     -2.87     -0.53     -1.43
     -2.39     -0.77     -1.43
     -1.91     -0.77     -1.43
     -1.43     -0.53     -1.19
     -1.19     -0.53     -1.19
     -0.47     -0.53     -1.19
     -0.23     -0.53     -1.19
      0.01     -0.53     -1.19
      0.25     -0.53     -1.19
      0.25     -0.53     -1.19
      0.49     -0.53     -1.19
      0.49     -0.77     -1.19
      0.49     -0.53     -1.19
      0.49     -0.53     -1.19
      0.49     -0.53     -1.19
      0.49     -0.29     -1.19
      0.49     -0.05     -1.43
      0.49      0.19     -1.43
      0.49      0.19     -1.43
      0.49      0.43     -1.67
      0.49      0.66     -1.67
      0.72      0.66     -1.91
      0.96      0.66     -1.91
      0.96      0.66     -2.15
      1.20      0.66     -2.15
      1.44      0.43     -2.39
      1.92      0.43     -2.39
      2.16      0.19     -2.39
      2.64     -0.05     -2.39
      3.12     -0.05     -2.39
      3.60     -0.05     -2.39
      4.08     -0.53     -2.15
      4.32     -0.53     -2.15
      4.79     -0.53     -2.15
      5.03     -0.77     -2.15
      5.27     -1.01     -2.15
      5.51     -1.01     -2.15
      5.75     -1.25     -2.15
      5.99     -1.01     -2.15
      5.99     -1.01     -2.15
      5.99     -1.01     -1.91
      5.99     -1.01     -1.91
      5.99     -1.01     -1.67
      5.99     -0.77     -1.67
      5.75     -0.77     -1.43
      5.51     -0.53     -1.19
      5.27     -0.53     -0.71
      5.03     -0.29     -0.71
      4.79     -0.05     -0.47
      4.79      0.19     -0.47
      4.56      0.19     -0.47
      4.32      0.19     -0.47
      4.08      0.19     -0.47
      3.84      0.19     -0.47
      3.60      0.19     -0.47
      3.36      0.19     -0.47
      3.36      0.19     -0.23
      3.36      0.19     -0.23
      3.36      0.19      0.00
      3.36      0.19      0.00
      3.36     -0.05      0.00
      3.60      0.19      0.00
      3.60      0.19      0.00
      3.84     -0.05      0.00
      3.84     -0.05      0.00
      4.08     -0.05      0.00
      4.08     -0.05      0.00
      4.08     -0.29      0.00
      4.08     -0.29      0.00
      4.32     -0.29      0.00
      4.32     -0.53      0.00
      4.08     -0.53      0.00
      4.08     -0.29      0.00
      4.08     -0.05      0.24
      4.08     -0.05      0.24
      3.84      0.19      0.24
      3.60      0.43      0.72
      3.36      0.66      0.96
      3.12      1.14      1.20
      2.88      1.14      1.44
      2.40      1.38      1.68
      2.16      1.38      1.92
      1.68      1.38      2.16
      1.44      1.38      2.40
      0.96      1.38      2.64
      0.72      1.38      2.64
      0.25      1.14      2.88
      0.01      1.14      2.88
     -0.23      1.14      2.88
     -0.71      1.14      2.88
     -0.95      0.90      2.88
     -1.43      0.66      2.88
     -1.43      0.66      2.88
     -1.67      0.43      2.64
     -1.67      0.43      2.40
     -1.67      0.19      2.16
     -1.91      0.19      1.68
     -1.91     -0.05      1.44
     -1.67     -0.05      0.96
     -1.67     -0.29      0.72
     -1.67     -0.53      0.48
     -1.43     -0.53      0.24
     -1.43     -0.29      0.00
     -1.43     -0.29     -0.23
     -1.19     -0.29     -0.23
     -1.19     -0.29     -0.47
     -0.95     -0.29     -0.47
     -0.71     -0.29     -0.71
     -0.71     -0.29     -0.71
     -0.47     -0.29     -0.71
     -0.23     -0.53     -0.71
     -0.23     -0.53     -0.71
     -0.23     -0.53     -0.71
      0.01     -0.53     -0.71
      0.01     -0.77     -0.47
      0.25     -0.77     -0.47
      0.49     -0.53     -0.23
      0.49     -0.53     -0.23
      0.72     -0.29      0.00
      0.72     -0.05      0.00
      0.96     -0.05      0.24
      0.96      0.19      0.48
      0.96      0.19      0.72
      0.96      0.43      0.72
      0.96      0.43      0.96
      0.96      0.66      1.20
      0.96      0.66      1.44
      0.96      0.90      1.44
      0.72      0.66      1.68
      0.72      0.66      1.68
