********************************************************************************
              CENTRO DE INSTRUMENTACION Y REGISTRO SISMICO  A.C.

    Anaxagoras 814, Col. Narvarte, Benito Juarez, C.P. 03020 Mexico, D.F.
           Tels. 5687 45 42/ 5687 45  82             Fax. 5669 25 12
********************************************************************************
ARCHIVO ESTANDAR DE ACELERACION:
VERSION DEL FORMATO                    : 2.0
NOMBRE DEL ARCHIVO                     : AE0220120411225510
FECHA Y HORA DE CREACION               : 15/MAY/12, 09:49
REF. CATALOGO ACELEROGRAMAS, SMIS 1996 : REGISTRO No.     /PAG.


================================================================================
DATOS DE LA ESTACION:
NOMBRE DE LA ESTACION                  : ESC. PRIM. "GONZÁLEZ GARZÓN"
CLAVE DE LA ESTACION                   : AE02
LOCALIZACION DE LA ESTACION            : Del. Venustiano Carranza,              
                                       : Col. El Arenal 4a. Sección,            
                                       : Calle Xico esq. con calle Xocoyote.    
                                       :                                        
                                       : 
COORDENADAS DE LA ESTACION             : 19.4290 LAT. N
                                       : 99.0584 LONG. W
ALTITUD (msnm)                         : 2232
TIPO DE SUELO                          : Arcilloso, zona lago                
                                       :                           
                                       : 
INSTITUCION RESPONSABLE                : CIRES
                                       : 

================================================================================
DATOS DEL ACELEROGRAFO:
MODELO DEL ACELEROGRAFO                : RADESD
NUMERO DE SERIE DEL ACELEROGRAFO       : 242
NUMERO DE CANALES                      : 3
ORIENTACION C1-C6 (rumbo;orientacion)  : /N00E/+V/N90W
ORIENTACION C7-C12 (rumbo;orientacion) : 
VEL. DE MUESTREO, C1-C6 (muestras/s)   : /100/100/100
VEL. DE MUESTREO, C7-C12 (muestras/s)  : 
ESC. COMPLETA DE SENSORES, C1-C6, (g)  : /0.5/0.5/0.5
ESC. COMPLETA DE SENSORES, C7-C12, (g) : 
FREC. NAT. DE SENSORES, C1-C6, (Hz)    : /30/30/30
FREC. NAT. DE SENSORES, C7-C12, (Hz)   : 
AMORTIGUAMIENTO DE SENSORES, C1-C6     : /0.733/0.750/0.700
AMORTIGUAMIENTO DE SENSORES, C7-C12    : 
INTERVALO DE MUESTREO, C1-C6, (s)      : /0.01/0.01/0.01
INTERVALO DE MUESTREO, C7-C12, (s)     : 
UMBRAL DE DISPARO, C1-C6, (Gal)        : /1.92/9.58/2.63
UMBRAL DE DISPARO, C7-C12, (Gal)       : 
MEMORIA DE PREEVENTO (s)               : 56.0
TIEMPO DE POSEVENTO (s)                : 64.0


================================================================================
DATOS DEL SISMO:
FECHA DEL SISMO (GMT)                  : 11/ABR/12
HORA EPICENTRO (GMT)                   : 22:55:10.0
MAGNITUD(ES)                           : /Mc=6.4
COORDENADAS DEL EPICENTRO              : 17.90 LAT. N
                                       : 103.06 LONG. W
PROFUNDIDAD FOCAL (km)                 : 16
FUENTE DE LOS DATOS EPICENTRALES       : SSN
                                       : INSTITUTO DE GEOFISICA, UNAM

================================================================================
DATOS DE ESTE REGISTRO:
HORA DE LA PRIMERA MUESTRA (GMT)       : 22:57:32.00
EXACTITUD DEL TIEMPO (s)               : 0.01
DURACION DEL REGISTRO (s), C1-C6       : /233.5/233.5/233.5
DURACION DEL REGISTRO (s), C7-C12      : 
NUM. TOTAL DE MUESTRAS, C1-C6          : /23350/23350/23350
NUM. TOTAL DE MUESTRAS, C7-C12         : 
ACEL. MAX. (Gal), C1-C6                : /6.76656/2.68755/4.73774
ACEL. MAX., C1-C6, EN LA MUESTRA       : /6197/7110/9661
ACEL. MAX. (Gal), C7-C12               : 
ACEL. MAX., C7-C12, EN LA MUESTRA      : 
UNIDADES DE LOS DATOS                  : Gal (cm/s/s)
FACTOR DE DECIMACION                   : 1
FORMATO DATOS (FORTRAN,10 campos/dato) : 3F10.5


================================================================================
CALIDAD DEL ACELEROGRAMA:
REGISTRO DIGITAL COMPLETO CON TIEMPO ABSOLUTO CORRECTO.


================================================================================
COMENTARIOS:














================================================================================
DATOS DE ACELERACION:
---------+---------+---------+---------+---------+---------+---------+---------+
   CANAL-1   CANAL-2   CANAL-3   CANAL-4   CANAL-5   CANAL-6   CANAL-7   CANAL-8
      N00E        +V      N90W
---------+---------+---------+---------+---------+---------+---------+---------+
[...]
   2.93583  -0.29334  -1.38586
   2.93583  -0.29334  -1.38586
   3.17525  -0.29334  -1.14644
   3.17525  -0.29334  -1.38586
   3.41468  -0.29334  -1.38586
   3.41468  -0.29334  -1.38586
   3.41468  -0.05392  -1.38586
   3.65410  -0.05392  -1.38586
   3.65410  -0.05392  -1.38586
   3.65410  -0.05392  -1.62528
   3.89352  -0.05392  -1.62528
   3.89352  -0.05392  -1.62528
   3.89352  -0.05392  -1.62528
   3.89352  -0.05392  -1.62528
   4.13294   0.18550  -1.62528
   4.13294  -0.05392  -1.62528
   4.13294  -0.05392  -1.86470
   4.13294  -0.05392  -1.62528
   4.13294  -0.05392  -1.86470
   4.13294  -0.05392  -1.86470
   4.13294  -0.05392  -1.86470
   4.37236  -0.05392  -2.10412
   4.37236  -0.05392  -2.10412
   4.37236  -0.05392  -2.34354
   4.61178  -0.05392  -2.10412
   4.61178  -0.05392  -2.34354
   4.61178  -0.05392  -2.34354
   4.85120  -0.05392  -2.34354
   4.85120  -0.29334  -2.58296
   4.85120  -0.05392  -2.58296
   4.85120  -0.05392  -2.58296
   4.85120  -0.29334  -2.34354
   5.09062  -0.29334  -2.58296
   5.09062  -0.29334  -2.34354
   5.09062  -0.05392  -2.34354
   5.09062  -0.29334  -2.34354
   5.09062  -0.29334  -2.10412
   4.85120  -0.53276  -2.10412
   4.85120  -0.29334  -2.10412
   4.61178  -0.29334  -2.10412
   4.37236  -0.29334  -2.10412
   4.37236  -0.29334  -1.86470
   4.13294  -0.29334  -1.86470
   3.89352  -0.29334  -1.62528
   3.65410  -0.05392  -1.62528
   3.17525  -0.05392  -1.38586
   2.93583  -0.05392  -1.38586
   2.69641  -0.05392  -1.38586
   2.45699   0.18550  -1.14644
   2.45699   0.18550  -1.14644
   1.97815   0.18550  -0.90702
   1.97815   0.18550  -0.90702
   1.73873   0.18550  -0.90702
   1.49931   0.18550  -0.66760
   1.49931   0.42492  -0.66760
   1.25989   0.42492  -0.66760
   1.02047   0.18550  -0.42818
   1.02047   0.18550  -0.42818
   0.78105   0.18550  -0.18876
   0.78105   0.18550  -0.18876
   0.78105   0.18550   0.05066
   0.54163  -0.05392   0.05066
   0.54163   0.18550   0.29008
   0.54163  -0.05392   0.29008
   0.54163   0.18550   0.52950
   0.54163   0.18550   0.52950
   0.54163   0.18550   0.76892
   0.54163   0.18550   0.76892
   0.54163   0.18550   0.76892
   0.54163   0.18550   0.76892
   0.54163   0.18550   1.00834
   0.54163   0.42492   1.00834
   0.54163   0.18550   0.76892
   0.54163   0.42492   1.00834
   0.78105   0.18550   1.00834
   0.78105   0.42492   0.76892
   0.78105   0.42492   0.76892
   1.02047   0.42492   0.76892
   1.02047   0.42492   0.76892
   1.25989   0.42492   0.76892
   1.25989   0.42492   0.76892
   1.49931   0.42492   0.76892
   1.49931   0.42492   0.76892
   1.73873   0.42492   0.52950
   1.73873   0.42492   0.52950
   1.97815   0.42492   0.52950
   2.21757   0.42492   0.52950
   2.21757   0.42492   0.52950
   2.21757   0.42492   0.29008
   2.45699   0.42492   0.52950
   2.45699   0.18550   0.29008
   2.45699   0.18550   0.29008
   2.45699   0.18550   0.29008
   2.45699   0.18550   0.29008
   2.21757   0.18550   0.29008
   2.21757   0.18550   0.29008
   2.21757   0.18550   0.29008
   2.21757   0.18550   0.29008
   1.97815   0.18550   0.52950
   1.73873   0.18550   0.52950
   1.49931   0.18550   0.52950
   1.25989  -0.05392   0.76892
   1.25989   0.18550   0.76892
   1.02047   0.18550   0.76892
   0.54163  -0.05392   0.76892
   0.30221  -0.05392   0.76892
   0.06279  -0.05392   0.76892
  -0.41605  -0.05392   0.76892
  -0.65547  -0.05392   0.76892
  -0.89489  -0.05392   0.76892
  -1.13431  -0.05392   0.76892
  -1.37373  -0.05392   0.76892
  -1.61315  -0.29334   0.76892
  -1.85257  -0.29334   0.76892
  -2.09199  -0.29334   0.76892
  -2.33141  -0.29334   0.52950
  -2.57083  -0.29334   0.52950
  -2.81025  -0.29334   0.52950
  -3.04967  -0.29334   0.29008
  -3.04967  -0.29334   0.52950
  -3.28909  -0.53276   0.29008
  -3.52851  -0.29334   0.29008
  -3.76793  -0.53276   0.29008
  -3.76793  -0.53276   0.29008
  -4.00735  -0.53276   0.29008
  -4.24677  -0.77218   0.29008
  -4.48619  -0.77218   0.29008
  -4.72561  -0.77218   0.05066
  -4.72561  -0.77218   0.29008
  -4.96503  -1.01160   0.29008
  -5.20445  -0.77218   0.05066
  -5.44387  -0.77218   0.29008
  -5.44387  -1.01160   0.29008
  -5.68329  -0.77218   0.29008
  -5.68329  -0.53276   0.29008
  -5.92271  -0.53276   0.29008
  -5.92271  -0.53276   0.29008
  -6.16213  -0.29334   0.29008
  -6.16213  -0.05392   0.29008
  -6.16213  -0.05392   0.52950
  -6.16213   0.18550   0.52950
  -6.16213   0.18550   0.52950
  -6.16213  -0.05392   0.52950
  -6.16213   0.18550   0.52950
  -5.92271   0.18550   0.52950
  -5.92271   0.18550   0.76892
  -5.92271   0.18550   0.76892
  -5.92271   0.18550   0.76892
  -5.68329   0.42492   0.76892
  -5.68329   0.42492   0.76892
  -5.44387   0.42492   0.76892
  -5.44387   0.42492   0.76892
  -5.20445   0.42492   0.52950
  -4.96503   0.66434   0.52950
  -4.96503   0.42492   0.52950
  -4.72561   0.66434   0.29008
  -4.48619   0.66434   0.29008
  -4.24677   0.66434   0.29008
  -4.24677   0.90376   0.29008
  -4.00735   0.90376   0.05066
  -3.76793   0.90376   0.05066
  -3.52851   0.90376   0.29008
  -3.52851   1.14318   0.29008
  -3.28909   1.14318   0.29008
  -3.28909   1.14318   0.29008
  -3.04967   1.38260   0.52950
  -3.04967   1.14318   0.29008
  -2.81025   1.38260   0.29008
  -2.81025   1.14318   0.52950
  -2.57083   1.14318   0.29008
  -2.33141   1.14318   0.29008
  -2.57083   1.14318   0.29008
  -2.33141   1.14318   0.29008
  -2.33141   0.90376   0.29008
  -2.33141   0.90376   0.05066
  -2.09199   0.90376   0.05066
  -2.09199   0.66434  -0.18876
  -2.09199   0.66434  -0.18876
  -2.09199   0.66434  -0.18876
  -2.09199   0.66434  -0.42818
  -2.09199   0.66434  -0.42818
  -1.85257   0.42492  -0.42818
  -1.85257   0.66434  -0.66760
  -2.09199   0.42492  -0.66760
  -2.09199   0.42492  -0.90702
  -2.09199   0.18550  -0.90702
  -2.09199   0.18550  -0.90702
  -2.09199   0.18550  -0.90702
  -2.33141  -0.05392  -1.14644
  -2.33141  -0.05392  -1.14644
  -2.33141  -0.29334  -1.14644
  -2.33141  -0.29334  -1.14644
  -2.57083  -0.29334  -1.38586
  -2.57083  -0.53276  -1.38586
  -2.81025  -0.53276  -1.62528
  -2.81025  -0.53276  -1.38586
  -3.04967  -0.77218  -1.38586
  -3.04967  -0.77218  -1.38586
  -3.28909  -1.01160  -1.38586
  -3.28909  -1.01160  -1.62528
  -3.52851  -1.01160  -1.62528
  -3.52851  -1.01160  -1.62528
  -3.76793  -1.01160  -1.62528
  -4.00735  -1.01160  -1.62528
  -4.00735  -1.01160  -1.62528
  -4.24677  -1.01160  -1.62528
  -4.24677  -1.01160  -1.62528
  -4.24677  -1.01160  -1.38586
  -4.24677  -1.01160  -1.62528
  -4.24677  -1.01160  -1.62528
  -4.48619  -1.01160  -1.62528
  -4.24677  -1.25102  -1.62528
  -4.24677  -1.01160  -1.62528
  -4.24677  -1.25102  -1.62528
  -4.24677  -1.25102  -1.62528
  -4.00735  -1.01160  -1.62528
  -4.00735  -1.01160  -1.62528
  -3.76793  -1.25102  -1.62528
  -3.76793  -1.25102  -1.62528
  -3.52851  -1.01160  -1.38586
  -3.28909  -1.25102  -1.38586
  -3.04967  -1.01160  -1.38586
  -2.81025  -1.01160  -1.38586
  -2.57083  -1.01160  -1.38586
  -2.33141  -1.01160  -1.38586
  -2.09199  -0.77218  -1.38586
  -1.85257  -0.77218  -1.14644
  -1.37373  -0.77218  -1.14644
  -1.13431  -0.53276  -1.14644
  -0.89489  -0.53276  -1.14644
  -0.65547  -0.53276  -1.14644
  -0.17663  -0.29334  -0.90702
   0.06279  -0.29334  -0.90702
   0.30221  -0.29334  -0.90702
   0.54163  -0.05392  -0.90702
   1.02047  -0.29334  -0.90702
   1.25989  -0.05392  -0.90702
   1.49931  -0.05392  -0.90702
   1.73873   0.18550  -0.90702
   1.97815   0.18550  -0.90702
   2.21757   0.18550  -0.90702
   2.45699   0.18550  -0.90702
   2.69641   0.18550  -0.90702
   2.93583   0.18550  -1.14644
   3.17525   0.42492  -1.14644
   3.41468   0.42492  -1.14644
   3.65410   0.42492  -1.14644
   3.65410   0.42492  -1.14644
   3.89352   0.42492  -1.14644
   3.89352   0.42492  -1.14644
   4.13294   0.42492  -1.38586
   4.13294   0.66434  -1.38586
   4.37236   0.66434  -1.38586
   4.37236   0.42492  -1.38586
   4.61178   0.42492  -1.38586
   4.61178   0.42492  -1.38586
   4.61178   0.42492  -1.38586
   4.85120   0.42492  -1.38586
   4.61178   0.42492  -1.62528
   4.85120   0.42492  -1.62528
   4.85120   0.18550  -1.62528
   4.61178   0.18550  -1.62528
   4.61178  -0.05392  -1.62528
   4.61178   0.18550  -1.62528
   4.61178   0.18550  -1.86470
   4.61178   0.18550  -1.62528
   4.37236   0.18550  -1.86470
   4.37236   0.18550  -1.86470
   4.13294   0.18550  -1.86470
   4.13294   0.18550  -1.86470
   4.13294   0.18550  -2.10412
   3.89352   0.18550  -1.86470
   3.89352   0.18550  -1.86470
   3.65410   0.18550  -1.86470
   3.65410   0.18550  -2.10412
   3.65410   0.18550  -1.86470
   3.41468   0.18550  -1.86470
   3.41468   0.18550  -1.86470
   3.41468  -0.05392  -1.86470
   3.17525  -0.05392  -1.86470
   3.17525  -0.05392  -1.86470
   3.17525  -0.29334  -1.86470
   2.93583  -0.29334  -1.86470
   2.69641  -0.53276  -1.86470
   2.69641  -0.53276  -1.86470
   2.69641  -0.53276  -1.86470
   2.45699  -0.53276  -1.62528
   2.21757  -0.77218  -1.62528
   2.21757  -0.77218  -1.62528
   1.73873  -0.77218  -1.62528
   1.73873  -0.77218  -1.62528
   1.49931  -0.77218  -1.38586
   1.25989  -0.77218  -1.38586
   1.02047  -0.77218  -1.38586
   1.02047  -0.77218  -1.14644
   0.78105  -0.77218  -1.14644
   0.54163  -0.77218  -0.90702
   0.30221  -0.77218  -0.90702
   0.06279  -0.77218  -0.90702
   0.06279  -0.77218  -0.66760
  -0.17663  -0.77218  -0.42818
  -0.17663  -0.77218  -0.42818
  -0.41605  -0.77218  -0.42818
  -0.41605  -0.77218  -0.18876
  -0.65547  -0.77218  -0.18876
  -0.65547  -0.77218   0.05066
  -0.65547  -0.77218   0.29008
  -0.65547  -0.77218   0.29008
  -0.65547  -0.77218   0.29008
  -0.65547  -0.53276   0.52950
  -0.41605  -0.53276   0.76892
  -0.41605  -0.53276   0.76892
  -0.17663  -0.53276   1.00834
  -0.17663  -0.53276   1.00834
   0.06279  -0.29334   1.00834
   0.06279  -0.29334   1.24776
   0.30221  -0.29334   1.48718
   0.54163  -0.05392   1.48718
   0.78105  -0.05392   1.48718
   1.02047   0.18550   1.72660
   1.25989   0.18550   1.72660
   1.25989   0.18550   1.96602
   1.73873   0.18550   1.96602
   1.97815   0.42492   1.96602
   2.21757   0.42492   2.20544
   2.45699   0.66434   2.20544
   2.69641   0.66434   2.20544
   2.93583   0.66434   2.20544
   3.17525   0.66434   2.20544
   3.41468   0.66434   2.20544
   3.65410   0.90376   2.20544
   4.13294   0.90376   2.20544
   4.37236   1.14318   2.20544
   4.61178   1.14318   2.20544
   4.85120   1.14318   2.20544
   4.85120   1.14318   2.20544
   5.09062   1.14318   2.20544
   5.33004   1.38260   2.44486
   5.56946   1.14318   2.44486
   5.80888   1.38260   2.44486
   6.04830   1.38260   2.68428
   6.04830   1.38260   2.68428
   6.28772   1.14318   2.92370
   6.28772   1.14318   3.16312
   6.52714   1.38260   3.16312
   6.52714   1.38260   3.40255
   6.52714   1.14318   3.40255
   6.76656   0.90376   3.64197
   6.76656   0.90376   3.64197
   6.52714   1.14318   3.64197
   6.76656   0.90376   3.64197
   6.76656   0.90376   3.64197
   6.52714   0.90376   3.64197
   6.52714   0.66434   3.64197
   6.28772   0.66434   3.88139
   6.28772   0.66434   3.88139
   6.04830   0.66434   3.88139
   5.80888   0.66434   3.64197
   5.33004   0.66434   3.64197
   5.09062   0.66434   3.40255
   4.85120   0.42492   3.64197
   4.37236   0.42492   3.64197
   4.13294   0.42492   3.40255
   3.65410   0.18550   3.64197
   3.41468   0.18550   3.40255
   2.93583   0.18550   3.40255
   2.69641   0.18550   3.40255
   2.21757   0.18550   3.16312
   1.73873  -0.05392   3.16312
   1.25989  -0.05392   2.92370
   0.78105  -0.05392   2.92370
   0.54163  -0.29334   2.92370
  -0.17663  -0.29334   2.92370
  -0.41605  -0.29334   2.68428
  -0.89489  -0.29334   2.68428
  -1.37373  -0.53276   2.68428
  -1.61315  -0.53276   2.68428
  -2.09199  -0.53276   2.44486
  -2.57083  -0.53276   2.44486
  -3.04967  -0.53276   2.44486
  -3.52851  -0.53276   2.20544
  -3.76793  -0.53276   2.20544
  -4.00735  -0.77218   2.20544
  -4.24677  -0.53276   2.20544
  -4.72561  -0.53276   1.96602
  -4.96503  -0.53276   1.96602
  -5.20445  -0.53276   1.96602
  -5.44387  -0.53276   1.72660
  -5.68329  -0.53276   1.72660
  -5.68329  -0.53276   1.48718
  -5.92271  -0.53276   1.48718
  -5.92271  -0.53276   1.24776
  -5.92271  -0.53276   1.24776
  -6.16213  -0.53276   1.00834
  -6.16213  -0.53276   1.00834
  -5.92271  -0.53276   1.00834
  -5.92271  -0.53276   0.76892
  -5.92271  -0.29334   0.76892
  -5.92271  -0.29334   0.52950
  -5.68329  -0.29334   0.52950
  -5.44387  -0.29334   0.52950
  -5.44387  -0.05392   0.52950
  -5.20445  -0.05392   0.52950
  -4.96503  -0.05392   0.52950
  -4.72561   0.18550   0.52950
  -4.48619   0.18550   0.52950
  -4.24677   0.18550   0.52950
  -4.00735   0.42492   0.76892
  -3.76793   0.42492   0.76892
  -3.52851   0.66434   0.76892
  -3.28909   0.66434   0.76892
  -3.04967   0.66434   0.76892
  -2.81025   0.66434   1.00834
  -2.57083   0.66434   1.00834
  -2.33141   0.90376   1.00834
  -2.09199   0.90376   1.24776
  -1.85257   0.90376   1.24776
  -1.61315   0.90376   1.24776
  -1.37373   0.90376   1.24776
  -1.13431   0.90376   1.24776
  -0.89489   0.90376   1.48718
  -0.65547   0.90376   1.24776
  -0.41605   0.90376   1.48718
  -0.41605   0.90376   1.48718
  -0.17663   0.90376   1.24776
  -0.17663   1.14318   1.24776
   0.06279   1.14318   1.48718
   0.06279   0.90376   1.48718
   0.30221   0.90376   1.24776
   0.54163   0.90376   1.24776
   0.54163   0.90376   1.24776
   0.54163   0.90376   1.24776
   0.54163   0.90376   1.24776
   0.54163   0.90376   1.24776
   0.54163   0.90376   1.00834
   0.54163   0.90376   1.00834
   0.30221   0.66434   1.00834
   0.30221   0.66434   1.00834
   0.30221   0.66434   1.00834
   0.06279   0.66434   1.00834
   0.06279   0.66434   0.76892
  -0.17663   0.66434   0.76892
  -0.41605   0.42492   0.76892
  -0.41605   0.42492   0.52950
  -0.65547   0.42492   0.52950
  -0.89489   0.42492   0.52950
  -0.89489   0.18550   0.29008
  -1.13431   0.18550   0.05066
  -1.37373   0.42492   0.05066
  -1.61315   0.18550   0.05066
  -1.85257  -0.05392  -0.18876
  -1.85257  -0.05392  -0.42818
  -2.09199  -0.29334  -0.42818
  -2.33141  -0.05392  -0.66760
  -2.57083  -0.29334  -0.90702
  -2.57083  -0.29334  -0.90702
  -3.04967  -0.53276  -1.14644
  -3.04967  -0.53276  -1.38586
  -3.28909  -0.29334  -1.62528
  -3.28909  -0.53276  -1.62528
  -3.52851  -0.53276  -1.86470
  -3.52851  -0.77218  -2.10412
  -3.52851  -0.77218  -2.34354
  -3.52851  -0.77218  -2.34354
  -3.76793  -0.77218  -2.34354
  -3.76793  -1.01160  -2.58296
  -3.76793  -1.01160  -2.58296
  -3.76793  -0.77218  -2.58296
  -3.52851  -1.01160  -2.58296
  -3.52851  -1.01160  -2.58296
  -3.52851  -1.01160  -2.58296
  -3.52851  -1.01160  -2.58296
  -3.28909  -1.01160  -2.58296
  -3.28909  -1.01160  -2.58296
  -3.28909  -1.01160  -2.34354
  -3.28909  -1.01160  -2.34354
  -3.04967  -0.77218  -2.34354
  -2.81025  -0.77218  -2.34354
  -2.81025  -0.77218  -2.10412
  -2.57083  -0.77218  -2.10412
  -2.57083  -0.77218  -2.10412
  -2.33141  -0.53276  -2.10412
  -2.33141  -0.53276  -1.86470
  -2.09199  -0.53276  -1.86470
  -2.09199  -0.53276  -1.86470
  -1.85257  -0.53276  -1.62528
  -1.85257  -0.53276  -1.62528
  -1.85257  -0.29334  -1.62528
  -1.85257  -0.29334  -1.62528
  -1.61315  -0.05392  -1.62528
  -1.61315  -0.29334  -1.38586
  -1.61315  -0.05392  -1.38586
  -1.85257  -0.05392  -1.38586
  -1.85257  -0.05392  -1.38586
  -1.61315  -0.05392  -1.38586
  -1.61315  -0.05392  -1.38586
