********************************************************************************
               CENTRO DE INSTRUMENTACION Y REGISTRO SISMICO  A.C.  
                       Coordinacion de Servicios Tecnicos
     Anaxagoras 814, Col. Narvarte, Benito Juarez, C.P. 03020 Mexico, D.F.
            Tels. 687 45 42/ 687 45  82             Fax. 669 25 12
********************************************************************************
ARCHIVO ESTANDAR DE ACELERACION:
VERSION DEL FORMATO                    : 2.0
NOMBRE DEL ARCHIVO                     : AE029005.311
FECHA Y HORA DE CREACION               : ABRIL 18, 1996/17:00
REF. CATALOGO ACELEROGRAMAS, SMIS 1995 : REGISTRO No. 2185 /PAG. 214


================================================================================
DATOS DE LA ESTACION:
NOMBRE DE LA ESTACION                  : AEROPUERTO
CLAVE DE LA ESTACION                   : AE02
LOCALIZACION DE LA ESTACION            : Esc Prim Gonzalez Garzon Calle Xico
                                       : s/n, Col. IV Seccion del Arenal
                                       : Venustiano Carranza
                                       :
                                       :
COORDENADAS DE LA ESTACION             : 19.429 LAT. N 
                                       : 99.058 LONG. W 
ALTITUD (msnm)                         : 2232
TIPO DE SUELO                          : ARCILLOSO, ZONA LAGO
                                       : 
                                       : 
INSTITUCION RESPONSABLE                : CIRES
                                       :

================================================================================
DATOS DEL ACELEROGRAFO:
MODELO DEL ACELEROGRAFO                : DCA-333
NUMERO DE SERIE DEL ACELEROGRAFO       : 242
NUMERO DE CANALES                      : 3
ORIENTACION C1-C6 (rumbo;orientacion)  : /N00E/+V/N90W
ORIENTACION C7-C12 (rumbo;orientacion) :
VEL. DE MUESTREO, C1-C6 (muestras/s)   : /100/100/100
VEL. DE MUESTREO, C7-C12 (muestras/s)  :
ESC. COMPLETA DE SENSORES, C1-C6, (g)  : /0.5/0.5/0.5
ESC. COMPLETA DE SENSORES, C7-C12, (g) :
FREC. NAT. DE SENSORES, C1-C6, (Hz)    : /30/30/30
FREC. NAT. DE SENSORES, C7-C12, (Hz)   :
AMORTIGUAMIENTO DE SENSORES, C1-C6     : /0.700/0.700/0.700
AMORTIGUAMIENTO DE SENSORES, C7-C12    :
INTERVALO DE MUESTREO, C1-C6, (s)      : /0.01/0.01/0.01
INTERVALO DE MUESTREO, C7-C12, (s)     :
UMBRAL DE DISPARO, C1-C6, (Gal)        : /3.4/3.4/3.4
UMBRAL DE DISPARO, C7-C12, (Gal)       :
MEMORIA DE PREEVENTO (s)               : 4
TIEMPO DE POSEVENTO (s)                : 15


================================================================================
DATOS DEL SISMO:
FECHA DEL SISMO (GMT)                  : 31/MAY/90
HORA EPICENTRO (GMT)                   : 07:35:26,9 
MAGNITUD(ES)                           : /Mb=5.80/Ms=5.90/Mc=5.50
COORDENADAS DEL EPICENTRO              : 17.106 LAT. N 
                                       : 100.893 LONG. W
PROFUNDIDAD FOCAL (km)                 : 15.8 
FUENTE DE LOS DATOS EPICENTRALES       : INSTITUTO DE INGENIERIA UNAM
                                       : 

================================================================================
DATOS DE ESTE REGISTRO:
HORA DE LA PRIMERA MUESTRA (GMT)       : 07:36:59.61
EXACTITUD DEL TIEMPO (s)               : 0.01
DURACION DEL REGISTRO (s), C1-C6       : /85.87/85.87/85.87
DURACION DEL REGISTRO (s), C7-C12      :
NUM. TOTAL DE MUESTRAS, C1-C6          : /8587/8587/8587
NUM. TOTAL DE MUESTRAS, C7-C12         :
ACEL. MAX. (Gal), C1-C6                : /9.60/3.86/7.85
ACEL. MAX., C1-C6, EN LA MUESTRA       :
ACEL. MAX. (Gal), C7-C12               :
ACEL. MAX., C7-C12, EN LA MUESTRA      :
UNIDADES DE LOS DATOS                  : Gal (cm/s/s)
FACTOR DE DECIMACION                   : 1
FORMATO DATOS (FORTRAN,10 campos/dato) : 3F10.2


================================================================================
CALIDAD DEL ACELEROGRAMA:
REGISTRO DIGITAL AL QUE FALTA UNA PARTE AL INICIO, CON TIEMPO
ABSOLUTO.

================================================================================
COMENTARIOS:














================================================================================
DATOS DE ACELERACION:
---------+---------+---------+---------+---------+---------+---------+---------+
   CANAL-1   CANAL-2   CANAL-3   CANAL-4   CANAL-5   CANAL-6   CANAL-7   CANAL-8
      N00E        +V      N90W
---------+---------+---------+---------+---------+---------+---------+---------+
[...]
     -5.05      2.66      2.10
     -5.29      2.66      1.86
     -5.53      2.66      1.86
     -5.53      2.66      1.86
     -5.53      2.42      1.62
     -5.77      2.42      1.62
     -5.77      2.42      1.38
     -5.77      2.18      1.38
     -5.77      2.18      1.14
     -5.77      2.18      0.90
     -5.77      1.94      0.90
     -5.77      1.70      0.66
     -5.77      1.70      0.42
     -5.77      1.46      0.18
     -5.77      1.46     -0.06
     -5.53      1.22     -0.53
     -5.53      1.22     -0.77
     -5.29      0.99     -1.01
     -5.29      0.75     -1.25
     -5.05      0.75     -1.73
     -4.81      0.75     -1.97
     -4.57      0.27     -2.45
     -4.57      0.27     -2.69
     -4.33      0.03     -2.93
     -4.10     -0.21     -3.17
     -3.86     -0.45     -3.41
     -3.62     -0.69     -3.41
     -3.62     -0.93     -3.41
     -3.38     -0.93     -3.41
     -2.90     -1.17     -3.41
     -2.90     -1.41     -3.41
     -2.66     -1.41     -3.41
     -2.42     -1.65     -3.17
     -2.42     -1.65     -3.17
     -2.18     -1.65     -3.17
     -2.18     -1.65     -2.69
     -1.94     -1.65     -2.45
     -1.94     -1.89     -2.21
     -1.70     -1.65     -2.21
     -1.70     -1.65     -1.97
     -1.70     -1.89     -1.73
     -1.46     -1.65     -1.73
     -1.46     -1.89     -1.73
     -1.46     -1.89     -1.49
     -1.46     -1.89     -1.49
     -1.46     -1.89     -1.49
     -1.22     -1.65     -1.49
     -1.46     -1.65     -1.49
     -1.22     -1.89     -1.73
     -1.22     -1.89     -1.73
     -1.22     -1.65     -1.73
     -1.22     -1.65     -1.73
     -1.22     -1.65     -1.73
     -0.98     -1.65     -1.97
     -0.98     -1.65     -1.73
     -0.98     -1.41     -1.73
     -0.98     -1.41     -1.49
     -0.98     -1.41     -1.25
     -0.74     -1.17     -0.77
     -0.74     -1.17     -0.77
     -0.74     -0.93     -0.53
     -0.50     -0.93     -0.06
     -0.50     -0.69      0.18
     -0.50     -0.69      0.42
     -0.50     -0.45      0.90
     -0.50     -0.45      0.90
     -0.26      0.03      1.38
     -0.26      0.03      1.86
     -0.26      0.03      1.86
     -0.26      0.51      2.10
     -0.26      0.03      2.34
     -0.03      0.75      2.34
     -0.03      0.75      2.34
     -0.03      0.75      2.34
      0.21      0.75      2.58
      0.21      0.75      2.58
      0.21      0.75      2.58
      0.21      0.75      2.58
      0.21      0.51      2.58
      0.45      0.75      2.34
      0.45      0.51      2.34
      0.45      0.51      2.34
      0.69      0.51      2.34
      0.69      0.27      2.34
      0.93      0.51      2.34
      1.17      0.27      2.10
      1.41      0.75      2.10
      1.41      0.03      2.10
      1.65      0.27      2.10
      1.65      0.03      1.86
      1.89      0.03      1.86
      2.13      0.03      1.62
      2.37      0.03      1.62
      2.37      0.03      1.38
      2.61     -0.21      1.38
      2.61     -0.21      1.14
      2.85     -0.45      0.90
      2.85     -0.45      0.90
      3.09     -0.45      0.66
      3.09     -0.69      0.42
      3.09     -0.69      0.42
      3.09     -0.69      0.42
      3.33     -0.93      0.18
      3.33     -0.93      0.18
      3.33     -0.93      0.18
      3.33     -0.93      0.18
      3.33     -0.69      0.18
      3.33     -0.69     -0.06
      3.33     -0.69      0.18
      3.33     -0.45      0.18
      3.33     -0.45      0.18
      3.33     -0.21      0.18
      3.33      0.03     -0.06
      3.09      0.03     -0.06
      3.09      0.03      0.18
      2.85      0.27     -0.06
      2.85      0.27     -0.06
      2.61      0.27     -0.06
      2.61      0.51     -0.06
      2.37      0.51     -0.53
      2.13      0.75     -0.29
      1.89      0.75     -0.29
      1.65      0.75     -0.53
      1.41      0.75     -0.53
      1.17      0.75     -0.77
      0.93      0.99     -0.77
      0.69      0.99     -0.77
      0.45      0.99     -0.77
      0.21      0.99     -0.77
      0.21      0.99     -0.77
     -0.26      0.99     -0.77
     -0.50      0.99     -0.77
     -0.50      0.75     -0.77
     -0.74      0.75     -0.53
     -0.98      0.75     -0.53
     -0.98      0.75     -0.29
     -1.46      0.75     -0.06
     -1.46      0.75     -0.06
     -1.46      0.75      0.42
     -1.70      0.75      0.66
     -1.70      0.75      0.90
     -1.94      0.75      1.14
     -1.94      0.99      1.14
     -2.18      0.99      1.38
     -2.18      0.99      1.62
     -2.42      0.99      1.62
     -2.42      1.22      1.86
     -2.42      1.22      1.86
     -2.66      1.22      1.86
     -2.66      1.46      1.86
     -2.66      1.22      1.86
     -2.90      1.46      1.86
     -2.90      1.46      1.86
     -2.90      1.22      1.86
     -3.14      1.22      1.62
     -2.90      0.99      1.62
     -2.90      0.99      1.38
     -3.14      0.99      1.38
     -2.90      0.75      1.14
     -2.66      0.75      1.14
     -2.66      0.51      0.90
     -2.42      0.27      0.66
     -2.18      0.03      0.42
     -1.94      0.03      0.42
     -1.70     -0.21      0.18
     -1.46     -0.21      0.18
     -1.22     -0.21     -0.06
     -0.74     -0.45     -0.06
     -0.50     -0.45     -0.06
     -0.50     -0.69     -0.06
     -0.03     -0.69      0.18
      0.21     -0.69      0.18
      0.21     -0.93      0.42
      0.21     -0.93      0.42
      0.45     -0.93      0.66
      0.69     -0.93      0.90
      0.69     -0.93      0.90
      0.93     -0.93      0.90
      0.93     -0.93      1.14
      1.17     -0.93      1.14
      1.17     -0.93      1.14
      1.41     -0.93      1.14
      1.41     -1.17      1.14
      1.65     -1.17      1.14
      1.65     -1.17      0.90
      1.89     -1.41      0.90
      1.89     -1.89      0.66
      2.13     -1.65      0.42
      2.13     -1.65      0.18
      2.13     -1.89      0.18
      2.37     -2.13     -0.06
      2.37     -2.13     -0.29
      2.37     -2.13     -0.29
      2.37     -2.37     -0.53
      2.61     -2.37     -0.53
      2.61     -2.37     -0.53
      2.61     -2.37     -0.77
      2.61     -2.37     -0.77
      2.61     -2.37     -0.77
      2.85     -2.13     -0.53
      2.85     -2.13     -0.53
      2.85     -2.13     -0.29
      3.09     -2.13     -0.29
      3.33     -1.89     -0.06
      3.33     -1.89      0.42
      3.33     -1.89      0.42
      3.33     -1.89      0.90
      3.57     -1.65      1.14
      3.57     -1.65      1.62
      3.81     -1.41      1.86
      3.81     -1.17      2.10
      3.81     -1.17      2.10
      4.04     -0.93      2.58
      3.81     -0.93      2.58
      3.81     -0.69      2.82
      3.81     -0.45      2.82
      3.81     -0.21      2.82
      3.81      0.03      2.82
      3.57      0.27      2.82
      3.57      0.27      2.82
      3.33      0.51      2.58
      3.33      0.75      2.58
      3.33      0.75      2.34
      3.33      0.99      2.34
      3.33      0.99      2.34
      3.09      0.99      2.10
      3.09      1.22      2.10
      3.09      1.22      2.10
      3.09      1.46      2.10
      3.09      1.46      2.10
      3.09      1.70      2.10
      3.09      1.70      2.10
      3.33      1.70      2.10
      3.33      1.70      2.10
      3.33      1.70      2.10
      3.33      1.70      2.10
      3.33      1.70      1.86
      3.33      1.46      1.86
      3.33      1.46      1.86
      3.33      1.46      1.86
      3.33      1.46      1.62
      3.33      1.46      1.62
      3.33      1.22      1.62
      3.33      1.46      1.38
      3.33      1.22      1.14
      3.33      1.46      0.90
      3.33      1.22      0.90
      3.33      1.46      0.66
      3.33      1.22      0.42
      3.33      1.22      0.42
      3.33      1.22     -0.06
      3.09      1.22     -0.06
      3.33      1.22     -0.29
      3.09      1.22     -0.53
      3.09      1.22     -0.77
      3.09      0.99     -0.77
      2.85      0.99     -1.01
      2.85      0.99     -1.25
      2.85      0.75     -1.73
      3.09      0.75     -1.97
      2.85      0.75     -2.21
      2.85      0.51     -2.21
      2.85      0.27     -2.45
      2.85      0.03     -2.69
      2.85      0.03     -2.93
      2.85     -0.21     -3.41
      2.85     -0.45     -3.41
      2.85     -0.69     -3.89
      2.85     -0.93     -3.89
      2.85     -1.17     -4.13
      3.09     -1.17     -4.36
      3.09     -1.41     -4.36
      3.33     -1.41     -4.60
      3.33     -1.65     -4.84
      3.57     -1.65     -4.84
      3.57     -1.65     -4.84
      3.81     -1.65     -4.84
      4.04     -1.65     -4.84
      4.28     -1.65     -4.60
      4.28     -1.65     -4.60
      4.28     -1.65     -4.36
      4.52     -1.41     -4.13
      4.52     -1.41     -3.89
      4.76     -1.17     -3.89
      4.76     -1.17     -3.65
      4.76     -1.17     -3.41
      4.52     -0.93     -3.17
      4.52     -0.93     -3.17
      4.52     -1.17     -2.93
      4.52     -1.17     -2.93
      4.28     -1.17     -2.69
      4.28     -1.17     -2.69
      4.04     -1.17     -2.45
      4.04     -1.17     -2.45
      3.81     -1.17     -2.21
      3.81     -1.41     -2.21
      3.57     -1.41     -1.97
      3.33     -1.41     -1.97
      3.33     -1.41     -1.73
      3.33     -1.41     -1.73
      3.09     -1.17     -1.49
      2.85     -1.41     -1.25
      2.85     -1.41     -0.77
      2.61     -1.41     -0.77
      2.61     -1.41     -0.53
      2.13     -1.41     -0.06
      2.13     -1.17     -0.06
      1.65     -1.17      0.66
      1.41     -1.17      0.90
      1.17     -0.93      1.38
      0.93     -0.93      1.62
      0.69     -0.69      2.10
      0.21     -0.45      2.34
     -0.03     -0.21      2.82
     -0.50     -0.21      3.06
     -0.98     -0.21      3.30
     -1.46     -0.45      3.78
     -1.70      0.03      3.78
     -2.18      0.03      4.02
     -2.66      0.27      4.02
     -2.90      0.51      4.02
     -3.38      0.51      4.02
     -3.62      0.75      4.02
     -4.10      0.75      4.02
     -4.33      0.51      3.78
     -4.57      0.75      3.54
     -4.81      0.75      3.54
     -5.05      0.75      3.54
     -5.29      0.75      3.30
     -5.53      0.75      3.30
     -5.77      0.75      3.06
     -6.01      0.75      3.06
     -6.25      0.75      2.82
     -6.49      0.75      2.82
     -6.73      0.75      2.58
     -7.21      0.75      2.10
     -7.21      0.75      2.34
     -7.45      0.75      2.10
     -7.69      0.75      2.10
     -7.69      0.75      1.62
     -7.93      0.99      1.62
     -8.17      0.75      1.38
     -8.41      0.75      1.14
     -8.64      0.75      0.90
     -8.88      0.99      0.90
     -9.12      0.99      0.66
     -9.36      1.22      0.18
     -9.36      0.99      0.18
     -9.36      0.99     -0.06
     -9.60      1.22     -0.29
     -9.60      1.22     -0.53
     -9.60      0.99     -0.53
     -9.60      0.99     -0.77
     -9.60      0.99     -0.77
     -9.36      0.99     -1.01
     -9.36      0.75     -1.01
     -9.36      0.75     -1.01
     -9.12      0.75     -1.01
     -8.88      0.75     -1.25
     -8.64      0.75     -1.25
     -8.41      0.75     -1.25
     -8.41      0.75     -1.25
     -7.93      0.75     -1.25
     -7.69      0.75     -1.49
     -7.21      0.75     -1.49
     -6.97      0.75     -1.49
     -6.49      0.75     -1.49
     -6.25      0.75     -1.73
     -5.53      0.75     -1.73
     -5.53      0.75     -1.97
     -5.05      0.75     -1.97
     -4.57      0.75     -2.21
     -4.10      0.75     -2.21
     -3.62      0.51     -2.21
     -3.14      0.27     -2.21
     -2.66      0.51     -2.45
     -2.42      0.51     -2.45
     -1.70      0.27     -2.21
     -1.46      0.27     -2.21
     -0.74      0.27     -2.45
     -0.26      0.03     -2.21
      0.21      0.03     -2.21
      0.45      0.03     -2.21
      0.93      0.03     -2.21
      1.41      0.03     -1.97
      1.89     -0.21     -1.97
      2.13     -0.21     -1.97
      2.61     -0.21     -1.97
      3.09     -0.45     -1.97
      3.33     -0.45     -1.73
      3.57     -0.45     -1.73
      4.04     -0.21     -1.73
      4.28     -0.21     -1.73
      4.52     -0.21     -1.49
      4.76     -0.21     -1.25
      5.00     -0.21     -1.25
      5.24     -0.45     -1.25
      5.48     -0.21     -0.77
      5.72     -0.21     -0.77
      5.96     -0.21     -0.77
      6.20     -0.21     -0.53
      6.20     -0.21     -0.29
      6.44     -0.21     -0.06
      6.44     -0.21     -0.06
      6.44     -0.21      0.18
      6.44     -0.21      0.42
      6.44      0.03      0.66
      6.44     -0.21      0.90
      6.44      0.03      0.90
      6.44      0.03      0.90
      6.20      0.03      1.14
      5.72      0.03      1.38
      5.72      0.03      1.38
      5.48      0.03      1.62
      5.24      0.03      1.62
      4.76      0.03      1.86
      4.52      0.03      1.86
      4.04      0.27      1.86
      3.81      0.27      2.10
      3.33      0.03      2.10
      2.85      0.27      2.10
      2.37      0.27      2.10
      1.89      0.27      2.10
      1.65      0.27      2.10
      1.17      0.51      2.10
      0.69      0.51      2.10
      0.21      0.75      2.10
     -0.03      0.75      2.10
     -0.50      0.75      2.10
     -0.74      0.75      2.10
     -0.98      0.75      2.34
     -1.46      0.99      2.34
     -1.70      1.22      2.34
     -1.94      1.22      2.10
     -2.18      0.99      2.34
     -2.42      1.22      2.34
     -2.66      1.22      2.34
     -2.66      1.22      2.58
     -2.90      1.22      2.58
     -2.90      1.22      2.82
     -3.14      1.22      2.82
     -3.38      1.46      2.82
     -3.38      1.46      2.82
     -3.62      1.46      2.82
     -3.62      1.46      2.82
     -3.62      1.46      2.82
     -3.86      1.46      2.82
     -3.86      1.22      2.58
     -3.86      1.46      2.58
     -4.10      1.22      2.58
     -4.10      1.22      2.34
     -4.10      1.22      2.34
     -4.10      0.99      2.10
     -4.33      0.99      1.86
     -4.33      0.75      1.62
     -4.33      0.75      1.62
     -4.57      0.75      1.38
     -4.57      0.51      0.90
     -4.57      0.51      0.90
     -4.57      0.27      0.66
     -4.57      0.03      0.42
     -4.57      0.03      0.18
     -4.57     -0.21     -0.29
     -4.57     -0.21     -0.29
     -4.57     -0.45     -0.53
     -4.57     -0.45     -0.77
     -4.33     -0.69     -0.77
     -4.57     -0.93     -0.77
     -4.57     -0.93     -1.01
     -4.57     -0.93     -1.25
     -4.33     -1.17     -1.49
     -4.57     -1.17     -1.49
     -4.33     -1.41     -1.73
     -4.33     -1.41     -1.97
     -4.33     -1.65     -2.21
     -4.33     -1.41     -2.21
     -4.33     -1.65     -2.45
     -4.33     -1.65     -2.69
     -4.33     -1.89     -2.69
     -4.33     -1.65     -2.93
     -4.33     -2.13     -3.17
     -4.33     -2.13     -3.17
     -4.33     -2.37     -3.41
     -4.33     -2.37     -3.41
     -4.10     -2.61     -3.65
     -4.10     -2.61     -3.65
     -4.10     -2.61     -3.89
     -3.86     -2.85     -3.89
     -3.86     -2.85     -4.13
     -3.86     -2.85     -4.13
     -3.62     -3.08     -4.13
     -3.62     -3.08     -4.13
     -3.38     -3.32     -4.36
     -3.14     -3.08     -4.36
     -3.14     -3.32     -4.36
     -2.90     -3.32     -4.36
     -2.66     -3.32     -4.36
     -2.66     -3.32     -4.60
     -2.42     -3.32     -4.60
