********************************************************************************
               CENTRO DE INSTRUMENTACION Y REGISTRO SISMICO  A.C.  
                       Coordinacion de Servicios Tecnicos
     Anaxagoras 814, Col. Narvarte, Benito Juarez, C.P. 03020 Mexico, D.F.
            Tels. 687 45 42/ 687 45  82             Fax. 669 25 12
********************************************************************************
ARCHIVO ESTANDAR DE ACELERACION:
VERSION DEL FORMATO                    : 2.0
NOMBRE DEL ARCHIVO                     : AE029912.291
FECHA Y HORA DE CREACION               : 10/FEBRERO/2000 10:55
REF. CATALOGO ACELEROGRAMAS, SMIS 1996 : REGISTRO No.     /PAG.


================================================================================
DATOS DE LA ESTACION:
NOMBRE DE LA ESTACION                  : AEROPUERTO
CLAVE DE LA ESTACION                   : AE02
LOCALIZACION DE LA ESTACION            : Esc Prim Gonzalez Garzon Calle Xico
                                       : s/n, Col. IV Seccion del Arenal
                                       : Venustiano Carranza
                                       :
                                       :
COORDENADAS DE LA ESTACION             : 19.429 LAT. N 
                                       : 99.058 LONG. W 
ALTITUD (msnm)                         : 2232
TIPO DE SUELO                          : ARCILLOSO, ZONA LAGO
                                       : 
                                       : 
INSTITUCION RESPONSABLE                : CIRES
                                       :

================================================================================
DATOS DEL ACELEROGRAFO:
MODELO DEL ACELEROGRAFO                : RAD-851
NUMERO DE SERIE DEL ACELEROGRAFO       : 242
NUMERO DE CANALES                      : 3
ORIENTACION C1-C6 (rumbo;orientacion)  : /N00E/+V/N90W
ORIENTACION C7-C12 (rumbo;orientacion) :
VEL. DE MUESTREO, C1-C6 (muestras/s)   : /100/100/100
VEL. DE MUESTREO, C7-C12 (muestras/s)  :
ESC. COMPLETA DE SENSORES, C1-C6, (g)  : /0.5/0.5/0.5
ESC. COMPLETA DE SENSORES, C7-C12, (g) :
FREC. NAT. DE SENSORES, C1-C6, (Hz)    : /30/30/30
FREC. NAT. DE SENSORES, C7-C12, (Hz)   :
AMORTIGUAMIENTO DE SENSORES, C1-C6     : /0.733/0.750/0.700
AMORTIGUAMIENTO DE SENSORES, C7-C12    :
INTERVALO DE MUESTREO, C1-C6, (s)      : /0.01/0.01/0.01
INTERVALO DE MUESTREO, C7-C12, (s)     :
UMBRAL DE DISPARO, C1-C6, (Gal)        : /2.44/3.91/2.44
UMBRAL DE DISPARO, C7-C12, (Gal)       :
MEMORIA DE PREEVENTO (s)               : 16
TIEMPO DE POSEVENTO (s)                : 48


================================================================================
DATOS DEL SISMO:
FECHA DEL SISMO (GMT)                  : 29/DIC/99
HORA EPICENTRO (GMT)                   : 05:19:46.0
MAGNITUD(ES)                           : /Mb=6.1/Ms=5.4/Mc=5.1/Ma=5.6/Me=5.9
COORDENADAS DEL EPICENTRO              : 18.02 LAT. N
                                       : 101.68 LONG. W
PROFUNDIDAD FOCAL (km)                 : 82.0
FUENTE DE LOS DATOS EPICENTRALES       : SSN
                                       : INSTITUTO DE GEOFISICA, UNAM

================================================================================
DATOS DE ESTE REGISTRO:
HORA DE LA PRIMERA MUESTRA (GMT)       : 05:21:44.00
EXACTITUD DEL TIEMPO (s)               : 0.01
DURACION DEL REGISTRO (s), C1-C6       : /110.75/110.75/110.75
DURACION DEL REGISTRO (s), C7-C12      :
NUM. TOTAL DE MUESTRAS, C1-C6          : /11075/11075/11075
NUM. TOTAL DE MUESTRAS, C7-C12         :
ACEL. MAX. (Gal), C1-C6                : /3.79246/1.36042/3.05341
ACEL. MAX., C1-C6, EN LA MUESTRA       :
ACEL. MAX. (Gal), C7-C12               :
ACEL. MAX., C7-C12, EN LA MUESTRA      :
UNIDADES DE LOS DATOS                  : Gal (cm/s/s)
FACTOR DE DECIMACION                   : 1
FORMATO DATOS (FORTRAN,10 campos/dato) : 3F10.5


================================================================================
CALIDAD DEL ACELEROGRAMA:
REGISTRO DIGITAL COMPLETO CON TIEMPO ABSOLUTO CORRECTO.


================================================================================
COMENTARIOS:














================================================================================
DATOS DE ACELERACION:
---------+---------+---------+---------+---------+---------+---------+---------+
   CANAL-1   CANAL-2   CANAL-3   CANAL-4   CANAL-5   CANAL-6   CANAL-7   CANAL-8
      N00E        +V      N90W
---------+---------+---------+---------+---------+---------+---------+---------+
[...]
  -0.27766   1.36042  -0.05904
  -0.51708   0.88158  -0.29846
  -0.27766   1.12100  -0.05904
  -0.51708   1.36042  -0.05904
  -0.51708   1.12100  -0.53788
  -0.51708   1.12100  -0.29846
  -0.51708   1.12100  -0.29846
  -0.51708   1.12100  -0.29846
  -0.75650   1.12100  -0.53788
  -0.75650   0.88158  -0.53788
  -0.75650   0.88158  -0.53788
  -0.75650   1.12100  -0.53788
  -0.51708   0.88158  -0.53788
  -0.51708   1.12100  -0.77730
  -0.75650   1.12100  -0.77730
  -0.51708   1.36042  -0.77730
  -0.75650   0.88158  -0.77730
  -0.75650   0.88158  -0.77730
  -0.75650   0.88158  -1.01671
  -0.75650   0.88158  -0.77730
  -0.75650   0.88158  -1.01671
  -0.75650   0.88158  -1.25613
  -0.75650   0.88158  -1.25613
  -0.75650   0.64216  -1.25613
  -0.51708   0.40274  -1.25613
  -0.75650   0.64216  -1.25613
  -0.99592   0.40274  -1.25613
  -0.99592   0.40274  -1.25613
  -0.99592   0.40274  -1.25613
  -1.23534   0.16332  -1.25613
  -1.47476   0.16332  -1.25613
  -1.47476   0.16332  -1.49555
  -1.47476   0.16332  -1.25613
  -1.71417   0.16332  -1.25613
  -1.71417   0.16332  -1.25613
  -1.71417   0.16332  -1.25613
  -1.71417   0.16332  -1.25613
  -1.95359  -0.07610  -1.25613
  -1.95359  -0.07610  -1.25613
  -2.19301  -0.07610  -1.25613
  -2.43243  -0.07610  -1.25613
  -2.43243  -0.31551  -1.25613
  -2.43243  -0.31551  -1.25613
  -2.43243  -0.31551  -1.25613
  -2.43243  -0.31551  -1.25613
  -2.67185  -0.31551  -1.25613
  -2.67185  -0.55493  -1.01671
  -2.43243  -0.55493  -1.01671
  -2.67185  -0.55493  -1.01671
  -2.43243  -0.55493  -1.01671
  -2.67185  -0.55493  -1.01671
  -2.43243  -0.55493  -1.01671
  -2.43243  -0.55493  -1.01671
  -2.43243  -0.55493  -1.01671
  -2.43243  -0.55493  -1.01671
  -2.43243  -0.55493  -1.01671
  -2.19301  -0.55493  -0.77730
  -2.19301  -0.55493  -0.77730
  -2.19301  -0.31551  -0.77730
  -2.19301  -0.31551  -0.77730
  -2.43243  -0.31551  -0.53788
  -2.19301  -0.31551  -0.53788
  -2.43243  -0.31551  -0.53788
  -2.19301  -0.31551  -0.29846
  -2.43243  -0.31551  -0.29846
  -2.43243  -0.07610  -0.29846
  -2.43243  -0.31551  -0.05904
  -2.43243  -0.31551  -0.05904
  -2.67185  -0.07610  -0.05904
  -2.67185  -0.07610   0.41980
  -2.43243  -0.07610   0.41980
  -2.67185   0.16332   0.18038
  -2.43243   0.16332   0.41980
  -2.43243   0.16332   0.65922
  -2.43243   0.16332   0.41980
  -2.43243   0.16332   0.65922
  -2.43243   0.40274   0.65922
  -2.43243   0.40274   0.65922
  -2.43243   0.40274   0.65922
  -2.19301   0.40274   0.65922
  -2.19301   0.64216   0.89864
  -2.19301   0.40274   0.65922
  -2.19301   0.64216   0.65922
  -2.19301   0.64216   1.13806
  -1.95359   0.64216   0.89864
  -1.95359   0.88158   0.89864
  -1.71417   0.88158   1.13806
  -1.71417   0.88158   1.13806
  -1.71417   0.88158   1.13806
  -1.71417   0.88158   1.13806
  -1.71417   0.88158   1.13806
  -1.71417   0.64216   1.13806
  -1.71417   0.88158   1.13806
  -1.47476   0.64216   1.13806
  -1.71417   0.88158   1.13806
  -1.71417   0.64216   1.13806
  -1.71417   0.64216   1.13806
  -1.47476   0.64216   1.13806
  -1.71417   0.64216   1.37748
  -1.47476   0.64216   1.13806
  -1.47476   0.64216   1.13806
  -1.47476   0.64216   1.37748
  -1.47476   0.64216   1.13806
  -1.47476   0.40274   1.13806
  -1.23534   0.64216   1.13806
  -1.23534   0.40274   1.13806
  -1.47476   0.64216   1.13806
  -0.99592   0.40274   1.13806
  -0.99592   0.40274   1.13806
  -0.99592   0.40274   1.13806
  -0.99592   0.16332   0.89864
  -0.99592   0.40274   0.89864
  -0.75650   0.40274   0.65922
  -0.75650   0.16332   0.65922
  -0.75650   0.16332   0.89864
  -0.51708   0.16332   0.65922
  -0.51708   0.16332   0.65922
  -0.27766   0.16332   0.65922
  -0.51708   0.16332   0.41980
  -0.27766  -0.07610   0.41980
  -0.03824  -0.07610   0.18038
  -0.27766  -0.31551   0.18038
  -0.03824  -0.07610   0.18038
   0.20118  -0.31551   0.18038
   0.20118  -0.31551   0.18038
   0.20118  -0.31551  -0.05904
   0.44060  -0.55493  -0.05904
   0.44060  -0.31551  -0.05904
   0.44060  -0.55493  -0.29846
   0.68001  -0.55493  -0.53788
   0.68001  -0.55493  -0.53788
   0.68001  -0.79435  -0.53788
   0.68001  -0.79435  -0.53788
   0.68001  -0.79435  -0.77730
   0.68001  -1.03377  -0.77730
   0.68001  -1.03377  -0.77730
   0.68001  -1.03377  -0.77730
   0.68001  -0.79435  -1.01671
   0.68001  -1.03377  -1.01671
   0.68001  -1.03377  -1.01671
   0.68001  -1.03377  -1.01671
   0.68001  -1.27319  -1.01671
   0.68001  -1.03377  -1.25613
   0.91943  -1.27319  -1.25613
   0.68001  -1.27319  -1.01671
   0.68001  -1.27319  -1.25613
   0.44060  -1.03377  -1.49555
   0.68001  -1.27319  -1.49555
   0.68001  -1.27319  -1.49555
   0.68001  -1.27319  -1.49555
   0.68001  -1.27319  -1.49555
   0.44060  -1.27319  -1.73497
   0.68001  -1.27319  -1.73497
   0.68001  -1.27319  -1.73497
   0.68001  -1.27319  -1.73497
   0.68001  -1.27319  -1.73497
   0.68001  -1.27319  -1.97439
   0.44060  -1.27319  -1.73497
   0.44060  -1.03377  -1.97439
   0.44060  -1.27319  -1.97439
   0.20118  -1.03377  -1.97439
   0.20118  -1.27319  -1.73497
   0.44060  -1.03377  -1.97439
   0.44060  -1.03377  -1.73497
   0.44060  -1.03377  -1.73497
   0.44060  -1.03377  -1.97439
   0.44060  -0.79435  -1.73497
   0.44060  -1.03377  -1.73497
   0.44060  -1.03377  -1.73497
   0.44060  -1.03377  -1.73497
   0.44060  -0.79435  -1.49555
   0.20118  -0.79435  -1.73497
   0.20118  -0.79435  -1.49555
   0.44060  -0.79435  -1.49555
   0.20118  -0.79435  -1.49555
   0.20118  -0.55493  -1.25613
  -0.03824  -0.55493  -1.25613
  -0.03824  -0.55493  -1.25613
   0.20118  -0.55493  -1.01671
  -0.03824  -0.55493  -1.01671
  -0.03824  -0.31551  -1.01671
  -0.03824  -0.31551  -1.01671
   0.20118  -0.07610  -0.77730
   0.20118  -0.07610  -0.77730
  -0.03824  -0.07610  -0.77730
   0.20118  -0.07610  -0.53788
  -0.03824   0.16332  -0.53788
   0.20118   0.16332  -0.53788
   0.20118   0.16332  -0.53788
   0.20118   0.40274  -0.29846
   0.20118   0.40274  -0.29846
   0.20118   0.40274  -0.05904
   0.44060   0.40274  -0.29846
   0.20118   0.40274  -0.29846
   0.20118   0.64216  -0.05904
   0.44060   0.64216  -0.05904
   0.44060   0.64216  -0.05904
   0.44060   0.64216  -0.05904
   0.44060   0.64216  -0.05904
   0.44060   0.64216   0.18038
   0.44060   0.88158  -0.05904
   0.68001   0.64216   0.18038
   0.68001   0.64216   0.18038
   0.68001   0.88158  -0.05904
   0.91943   0.64216   0.18038
   0.91943   0.88158   0.18038
   0.91943   0.88158   0.18038
   0.68001   0.88158   0.18038
   1.15885   0.88158   0.41980
   1.15885   0.64216   0.18038
   1.15885   0.88158   0.41980
   1.15885   0.88158   0.18038
   1.15885   0.64216   0.41980
   1.15885   0.64216   0.41980
   1.15885   0.64216   0.41980
   1.15885   0.64216   0.65922
   1.15885   0.64216   0.41980
   1.15885   0.64216   0.65922
   1.15885   0.64216   0.41980
   1.15885   0.64216   0.65922
   1.15885   0.40274   0.65922
   1.15885   0.64216   0.65922
   0.91943   0.40274   0.65922
   0.91943   0.40274   0.65922
   0.91943   0.40274   0.65922
   0.91943   0.40274   0.65922
   0.68001   0.40274   0.65922
   0.68001   0.64216   0.65922
   0.68001   0.40274   0.89864
   0.44060   0.40274   0.89864
   0.44060   0.64216   0.65922
   0.44060   0.64216   0.89864
   0.20118   0.40274   0.89864
   0.20118   0.40274   0.89864
  -0.03824   0.40274   0.89864
  -0.03824   0.64216   1.13806
  -0.03824   0.40274   1.13806
  -0.27766   0.40274   1.13806
  -0.27766   0.40274   1.13806
  -0.27766   0.40274   0.89864
  -0.51708   0.40274   0.89864
  -0.51708   0.40274   1.13806
  -0.75650   0.40274   0.89864
  -0.75650   0.40274   0.89864
  -0.75650   0.40274   0.89864
  -0.99592   0.40274   1.13806
  -0.99592   0.16332   0.89864
  -0.99592   0.40274   0.89864
  -0.99592   0.16332   0.89864
  -1.23534  -0.07610   0.89864
  -1.23534   0.16332   0.65922
  -1.23534   0.16332   1.13806
  -1.47476   0.16332   0.89864
  -1.47476  -0.07610   0.89864
  -1.47476  -0.07610   0.89864
  -1.71417   0.16332   0.89864
  -1.47476  -0.07610   0.89864
  -1.71417  -0.07610   0.89864
  -1.71417  -0.07610   0.89864
  -1.71417  -0.07610   0.89864
  -1.95359  -0.07610   0.65922
  -1.71417   0.16332   0.65922
  -1.71417   0.16332   0.65922
  -1.71417   0.16332   0.65922
  -1.95359   0.16332   0.65922
  -1.71417   0.16332   0.65922
  -1.95359   0.16332   0.65922
  -1.95359   0.16332   0.41980
  -1.71417   0.16332   0.65922
  -1.71417   0.16332   0.65922
  -1.95359  -0.07610   0.41980
  -1.71417  -0.07610   0.41980
  -1.95359   0.16332   0.41980
  -1.71417  -0.07610   0.41980
  -1.71417  -0.07610   0.41980
  -1.71417  -0.07610   0.41980
  -1.95359  -0.07610   0.18038
  -1.71417  -0.07610   0.18038
  -1.71417  -0.07610   0.18038
  -1.71417  -0.31551   0.18038
  -1.95359  -0.07610   0.18038
  -1.95359  -0.07610   0.18038
  -1.95359  -0.07610   0.18038
  -1.71417  -0.07610  -0.05904
  -1.71417   0.16332  -0.05904
  -1.71417  -0.07610  -0.05904
  -1.95359  -0.07610  -0.05904
  -1.71417  -0.07610  -0.29846
  -1.95359  -0.07610  -0.05904
  -1.95359  -0.07610  -0.29846
  -1.71417  -0.07610  -0.29846
  -1.71417   0.16332  -0.29846
  -1.71417  -0.07610  -0.29846
  -1.71417  -0.07610  -0.05904
  -1.71417  -0.07610  -0.29846
  -1.47476  -0.07610  -0.29846
  -1.47476  -0.07610  -0.05904
  -1.47476  -0.07610  -0.05904
  -1.47476  -0.31551  -0.05904
  -1.23534  -0.31551  -0.05904
  -1.23534  -0.31551  -0.05904
  -0.75650  -0.31551  -0.05904
  -1.23534  -0.31551  -0.05904
  -0.99592  -0.31551  -0.05904
  -0.99592  -0.31551  -0.29846
  -0.99592  -0.31551  -0.05904
  -0.75650  -0.31551  -0.29846
  -0.75650  -0.31551  -0.29846
  -0.51708  -0.07610  -0.29846
  -0.51708  -0.31551  -0.29846
  -0.51708  -0.55493  -0.53788
  -0.27766  -0.55493  -0.53788
  -0.03824  -0.31551  -0.53788
  -0.03824  -0.31551  -0.53788
  -0.03824  -0.55493  -0.53788
   0.20118  -0.79435  -0.53788
   0.20118  -0.55493  -1.01671
   0.44060  -0.79435  -0.77730
   0.44060  -0.79435  -0.77730
   0.44060  -0.79435  -0.77730
   0.68001  -0.79435  -0.77730
   0.91943  -1.03377  -0.77730
   0.91943  -1.03377  -0.77730
   0.91943  -1.03377  -0.77730
   1.15885  -1.03377  -0.77730
   1.39827  -1.03377  -0.77730
   1.39827  -1.03377  -0.77730
   1.39827  -0.79435  -0.77730
   1.63769  -1.03377  -0.77730
   1.87711  -1.03377  -0.77730
   1.87711  -1.03377  -0.77730
   1.87711  -1.03377  -0.77730
   2.11653  -1.03377  -0.77730
   2.11653  -1.03377  -0.77730
   2.35595  -1.03377  -0.77730
   2.35595  -1.03377  -0.77730
   2.59537  -1.03377  -0.77730
   2.83479  -0.79435  -0.77730
   2.83479  -1.03377  -0.53788
   3.07420  -0.79435  -0.53788
   3.31362  -0.79435  -0.29846
   3.07420  -0.79435  -0.29846
   3.31362  -0.79435  -0.29846
   3.31362  -0.79435  -0.05904
   3.31362  -0.79435  -0.05904
   3.55304  -0.79435   0.18038
   3.55304  -0.55493   0.18038
   3.55304  -0.55493   0.41980
   3.79246  -0.31551   0.41980
   3.55304  -0.07610   0.41980
   3.79246  -0.31551   0.41980
   3.79246  -0.31551   0.65922
   3.79246  -0.31551   0.65922
   3.55304  -0.07610   0.65922
   3.79246  -0.07610   0.89864
   3.55304   0.16332   0.89864
   3.55304   0.16332   0.89864
   3.79246   0.16332   1.13806
   3.79246   0.40274   1.13806
   3.55304   0.40274   1.37748
   3.79246   0.40274   1.13806
   3.55304   0.64216   1.37748
   3.55304   0.64216   1.37748
   3.55304   0.64216   1.37748
   3.31362   0.64216   1.37748
   3.31362   0.88158   1.37748
   3.31362   0.88158   1.37748
   3.31362   0.88158   1.61689
   3.07420   0.88158   1.61689
   3.07420   1.12100   1.61689
   3.07420   1.12100   1.37748
   3.07420   1.12100   1.61689
   2.83479   1.12100   1.61689
   2.83479   1.36042   1.61689
   2.59537   1.36042   1.37748
   2.59537   1.36042   1.61689
   2.35595   1.36042   1.37748
   2.35595   1.36042   1.61689
   2.11653   1.36042   1.37748
   2.11653   1.36042   1.37748
   2.11653   1.36042   1.37748
   1.87711   1.36042   1.37748
   1.87711   1.36042   1.37748
   1.63769   1.36042   1.37748
   1.63769   1.36042   1.13806
   1.39827   1.36042   1.13806
   1.15885   1.36042   1.13806
   0.91943   1.36042   1.13806
   0.91943   1.36042   1.13806
   0.68001   1.36042   1.13806
   0.44060   1.36042   1.13806
   0.44060   1.12100   0.89864
   0.20118   1.36042   0.65922
  -0.03824   1.12100   0.89864
  -0.03824   1.36042   0.65922
  -0.27766   1.12100   0.89864
  -0.27766   0.88158   0.65922
  -0.51708   1.12100   0.89864
  -0.51708   1.12100   0.89864
  -0.51708   1.12100   0.89864
  -0.75650   0.88158   0.89864
  -0.99592   1.12100   0.65922
  -0.99592   0.88158   0.89864
  -0.99592   0.88158   0.65922
  -0.99592   0.88158   0.65922
  -0.99592   0.88158   0.89864
  -1.23534   0.88158   0.65922
  -1.23534   0.64216   0.65922
  -1.23534   0.64216   0.65922
  -1.47476   0.40274   0.65922
  -1.47476   0.40274   0.65922
  -1.47476   0.40274   0.65922
  -1.47476   0.16332   0.65922
  -1.71417   0.16332   0.41980
  -1.71417   0.16332   0.41980
  -1.71417   0.16332   0.41980
  -1.47476   0.16332   0.18038
  -1.71417  -0.07610   0.18038
  -1.71417  -0.07610   0.18038
  -1.71417  -0.07610   0.18038
  -1.71417  -0.07610   0.18038
  -1.71417  -0.07610   0.18038
  -1.71417  -0.31551  -0.05904
  -1.71417  -0.07610   0.18038
  -1.71417  -0.31551  -0.05904
  -1.95359  -0.31551  -0.05904
  -1.71417  -0.31551  -0.05904
  -1.95359  -0.55493  -0.05904
  -1.95359  -0.55493  -0.29846
  -1.95359  -0.55493  -0.05904
  -1.95359  -0.79435  -0.29846
  -1.95359  -0.55493  -0.29846
  -1.95359  -0.79435  -0.53788
  -1.71417  -0.55493  -0.29846
  -1.95359  -0.79435  -0.53788
  -1.95359  -0.79435  -0.53788
  -1.95359  -0.79435  -0.53788
  -1.95359  -0.79435  -0.53788
  -1.71417  -0.79435  -0.77730
  -1.95359  -0.55493  -0.53788
  -1.71417  -0.79435  -0.53788
  -1.71417  -0.79435  -0.77730
  -1.71417  -0.55493  -0.77730
  -1.71417  -0.55493  -0.77730
  -1.47476  -0.79435  -1.01671
  -1.47476  -0.79435  -1.01671
  -1.23534  -0.55493  -1.01671
  -0.99592  -0.55493  -1.01671
  -1.23534  -0.79435  -1.25613
  -1.23534  -0.79435  -1.25613
  -0.99592  -0.79435  -1.25613
  -0.99592  -0.79435  -1.25613
  -0.99592  -0.79435  -1.49555
  -0.99592  -0.79435  -1.25613
  -0.75650  -0.79435  -1.49555
  -0.75650  -1.03377  -1.49555
  -0.51708  -0.79435  -1.49555
  -0.51708  -0.79435  -1.49555
  -0.51708  -0.79435  -1.49555
  -0.51708  -0.55493  -1.49555
  -0.51708  -0.55493  -1.73497
  -0.27766  -0.55493  -1.73497
  -0.27766  -0.55493  -1.73497
  -0.27766  -0.31551  -1.49555
  -0.27766  -0.55493  -1.73497
  -0.27766  -0.31551  -1.73497
  -0.27766  -0.31551  -1.73497
  -0.27766  -0.55493  -1.73497
  -0.03824  -0.31551  -1.97439
  -0.03824  -0.31551  -1.97439
  -0.27766  -0.55493  -1.97439
  -0.27766  -0.31551  -1.73497
  -0.27766  -0.31551  -1.73497
  -0.27766  -0.31551  -1.73497
  -0.27766  -0.31551  -1.73497
  -0.03824  -0.31551  -1.73497
  -0.27766  -0.31551  -1.97439
  -0.03824  -0.31551  -1.73497
  -0.27766  -0.31551  -1.97439
  -0.27766  -0.31551  -1.97439
  -0.27766  -0.31551  -1.97439
  -0.03824  -0.31551  -1.73497
  -0.03824  -0.31551  -1.73497
  -0.03824  -0.31551  -1.73497
  -0.27766  -0.31551  -1.97439
  -0.27766  -0.55493  -1.97439
  -0.27766  -0.31551  -1.73497
  -0.27766  -0.31551  -1.97439
  -0.03824  -0.55493  -1.73497
  -0.27766  -0.55493  -1.73497
  -0.27766  -0.31551  -1.73497
  -0.27766  -0.31551  -1.73497
  -0.27766  -0.55493  -1.73497
  -0.27766  -0.31551  -1.73497
  -0.27766  -0.31551  -1.49555
  -0.27766  -0.31551  -1.49555
  -0.27766  -0.31551  -1.49555
  -0.27766  -0.31551  -1.49555
