********************************************************************************
               CENTRO DE INSTRUMENTACION Y REGISTRO SISMICO  A.C.  
                       Coordinacion de Servicios Tecnicos
     Anaxagoras 814, Col. Narvarte, Benito Juarez, C.P. 03020 Mexico, D.F.
            Tels. 687 45 42/ 687 45  82             Fax. 669 25 12
********************************************************************************
ARCHIVO ESTANDAR DE ACELERACION:
VERSION DEL FORMATO                    : 2.0
NOMBRE DEL ARCHIVO                     : AE029712.221
FECHA Y HORA DE CREACION               : 18/MAR/98, 13:30
REF. CATALOGO ACELEROGRAMAS, SMIS 1996 : REGISTRO No.     /PAG.


================================================================================
DATOS DE LA ESTACION:
NOMBRE DE LA ESTACION                  : AEROPUERTO
CLAVE DE LA ESTACION                   : AE02
LOCALIZACION DE LA ESTACION            : Esc Prim Gonzalez Garzon Calle Xico
                                       : s/n, Col. IV Seccion del Arenal
                                       : Venustiano Carranza
                                       :
                                       :
COORDENADAS DE LA ESTACION             : 19.429 LAT. N 
                                       : 99.058 LONG. W 
ALTITUD (msnm)                         : 2232
TIPO DE SUELO                          : ARCILLOSO, ZONA LAGO
                                       : 
                                       : 
INSTITUCION RESPONSABLE                : CIRES
                                       :

================================================================================
DATOS DEL ACELEROGRAFO:
MODELO DEL ACELEROGRAFO                : RAD-851
NUMERO DE SERIE DEL ACELEROGRAFO       : 242
NUMERO DE CANALES                      : 3
ORIENTACION C1-C6 (rumbo;orientacion)  : /N00E/+V/N90W
ORIENTACION C7-C12 (rumbo;orientacion) :
VEL. DE MUESTREO, C1-C6 (muestras/s)   : /100/100/100
VEL. DE MUESTREO, C7-C12 (muestras/s)  :
ESC. COMPLETA DE SENSORES, C1-C6, (g)  : /0.5/0.5/0.5
ESC. COMPLETA DE SENSORES, C7-C12, (g) :
FREC. NAT. DE SENSORES, C1-C6, (Hz)    : /30/30/30
FREC. NAT. DE SENSORES, C7-C12, (Hz)   :
AMORTIGUAMIENTO DE SENSORES, C1-C6     : /0.733/0.750/0.700
AMORTIGUAMIENTO DE SENSORES, C7-C12    :
INTERVALO DE MUESTREO, C1-C6, (s)      : /0.01/0.01/0.01
INTERVALO DE MUESTREO, C7-C12, (s)     :
UMBRAL DE DISPARO, C1-C6, (Gal)        : /1.99/3.91/1.99
UMBRAL DE DISPARO, C7-C12, (Gal)       :
MEMORIA DE PREEVENTO (s)               : 24
TIEMPO DE POSEVENTO (s)                : 64


================================================================================
DATOS DEL SISMO:
FECHA DEL SISMO (GMT)                  : 22/DIC/97
HORA EPICENTRO (GMT)                   : 05:22:07:8
MAGNITUD(ES)                           : /Ms=5.0
COORDENADAS DEL EPICENTRO              : 17.1 LAT. N
                                       : 101.2 LONG. W
PROFUNDIDAD FOCAL (km)                 : 5.0
FUENTE DE LOS DATOS EPICENTRALES       : SSN
                                       : INSTITUTO DE GEOFISICA, UNAM

================================================================================
DATOS DE ESTE REGISTRO:
HORA DE LA PRIMERA MUESTRA (GMT)       : 05:24:06.00
EXACTITUD DEL TIEMPO (s)               : 0.01
DURACION DEL REGISTRO (s), C1-C6       : /97.75/97.75/97.75
DURACION DEL REGISTRO (s), C7-C12      :
NUM. TOTAL DE MUESTRAS, C1-C6          : /9775/9775/9775
NUM. TOTAL DE MUESTRAS, C7-C12         :
ACEL. MAX. (Gal), C1-C6                : /2.47695/1.13799/2.04661
ACEL. MAX., C1-C6, EN LA MUESTRA       :
ACEL. MAX. (Gal), C7-C12               :
ACEL. MAX., C7-C12, EN LA MUESTRA      :
UNIDADES DE LOS DATOS                  : Gal (cm/s/s)
FACTOR DE DECIMACION                   : 1
FORMATO DATOS (FORTRAN,10 campos/dato) : 3F10.5


================================================================================
CALIDAD DEL ACELEROGRAMA:
REGISTRO DIGITAL COMPLETO CON TIEMPO ABSOLUTO CORRECTO.


================================================================================
COMENTARIOS:














================================================================================
DATOS DE ACELERACION:
---------+---------+---------+---------+---------+---------+---------+---------+
   CANAL-1   CANAL-2   CANAL-3   CANAL-4   CANAL-5   CANAL-6   CANAL-7   CANAL-8
      N00E        +V      N90W
---------+---------+---------+---------+---------+---------+---------+---------+
[...]
   0.08276   0.29852  -0.34758
  -0.15666   0.29852  -0.58700
   0.08276   0.53794  -0.34758
  -0.15666   0.53794  -0.34758
  -0.15666   0.29852  -0.34758
  -0.15666   0.29852  -0.34758
  -0.15666   0.53794  -0.34758
  -0.15666   0.53794  -0.10816
  -0.39608   0.53794  -0.10816
  -0.39608   0.77736  -0.10816
  -0.39608   0.53794  -0.10816
  -0.39608   0.77736   0.13126
  -0.39608   0.53794   0.13126
  -0.39608   0.77736  -0.10816
  -0.63550   0.77736   0.13126
  -0.63550   0.77736  -0.10816
  -0.63550   0.77736  -0.10816
  -0.63550   0.77736   0.13126
  -0.63550   0.53794   0.13126
  -0.63550   0.77736   0.13126
  -0.63550   1.01678   0.13126
  -0.87491   0.77736   0.13126
  -0.87491   0.77736  -0.34758
  -0.87491   0.77736  -0.10816
  -0.87491   0.77736   0.13126
  -0.87491   0.77736   0.13126
  -0.87491   0.53794   0.13126
  -0.87491   0.53794   0.13126
  -0.87491   0.53794   0.13126
  -0.87491   0.53794   0.13126
  -0.87491   0.53794   0.13126
  -0.63550   0.53794   0.37068
  -0.87491   0.53794   0.37068
  -0.63550   0.53794   0.37068
  -0.87491   0.53794   0.37068
  -0.87491   0.53794   0.37068
  -0.63550   0.29852   0.37068
  -0.87491   0.53794   0.37068
  -0.87491   0.53794   0.61010
  -0.63550   0.53794   0.37068
  -0.63550   0.53794   0.61010
  -0.63550   0.53794   0.61010
  -0.63550   0.53794   0.61010
  -0.63550   0.53794   0.61010
  -0.63550   0.53794   0.61010
  -0.63550   0.53794   0.61010
  -0.87491   0.53794   0.61010
  -0.63550   0.53794   0.61010
  -0.63550   0.53794   0.61010
  -0.63550   0.53794   0.61010
  -0.63550   0.29852   0.84951
  -0.39608   0.53794   0.84951
  -0.39608   0.53794   0.61010
  -0.39608   0.53794   0.61010
  -0.39608   0.53794   0.61010
  -0.39608   0.53794   0.61010
  -0.15666   0.53794   0.61010
  -0.15666   0.53794   0.61010
  -0.15666   0.29852   0.61010
  -0.15666   0.53794   0.61010
   0.08276   0.53794   0.61010
  -0.15666   0.29852   0.61010
  -0.15666   0.29852   0.61010
  -0.15666   0.29852   0.37068
   0.08276   0.29852   0.61010
   0.08276   0.29852   0.61010
   0.08276   0.29852   0.61010
   0.08276   0.29852   0.61010
   0.32218   0.29852   0.61010
   0.08276   0.05910   0.37068
   0.08276   0.29852   0.61010
   0.32218   0.05910   0.61010
   0.08276   0.05910   0.61010
   0.32218   0.05910   0.37068
   0.32218  -0.18032   0.61010
   0.08276   0.05910   0.61010
   0.32218   0.05910   0.61010
   0.08276   0.05910   0.61010
   0.32218   0.05910   0.61010
   0.08276  -0.18032   0.61010
   0.08276  -0.18032   0.61010
   0.08276   0.05910   0.61010
   0.08276  -0.18032   0.84951
  -0.15666  -0.18032   0.61010
   0.08276  -0.18032   0.61010
   0.08276  -0.18032   0.61010
  -0.15666  -0.18032   0.84951
  -0.15666  -0.41974   0.61010
  -0.15666  -0.41974   0.61010
  -0.39608  -0.41974   0.61010
  -0.15666  -0.41974   0.84951
  -0.15666  -0.41974   0.61010
  -0.39608  -0.41974   0.84951
  -0.39608  -0.41974   0.84951
  -0.39608  -0.41974   0.84951
  -0.39608  -0.41974   0.61010
  -0.39608  -0.65916   0.84951
  -0.63550  -0.41974   0.61010
  -0.63550  -0.65916   0.84951
  -0.39608  -0.65916   0.61010
  -0.63550  -0.65916   0.84951
  -0.63550  -0.65916   0.61010
  -0.63550  -0.65916   0.61010
  -0.39608  -0.65916   0.61010
  -0.63550  -0.41974   0.61010
  -0.39608  -0.65916   0.61010
  -0.63550  -0.65916   0.61010
  -0.39608  -0.41974   0.61010
  -0.39608  -0.41974   0.61010
  -0.39608  -0.65916   0.61010
  -0.39608  -0.41974   0.61010
  -0.39608  -0.41974   0.61010
  -0.39608  -0.41974   0.37068
  -0.39608  -0.41974   0.37068
  -0.39608  -0.41974   0.61010
  -0.39608  -0.41974   0.37068
  -0.39608  -0.41974   0.37068
  -0.39608  -0.41974   0.37068
  -0.15666  -0.41974   0.37068
  -0.15666  -0.41974   0.13126
  -0.15666  -0.41974   0.13126
  -0.15666  -0.41974   0.13126
   0.08276  -0.41974   0.13126
  -0.15666  -0.41974  -0.10816
   0.08276  -0.41974  -0.10816
  -0.15666  -0.41974  -0.10816
   0.08276  -0.41974  -0.10816
   0.08276  -0.41974  -0.34758
  -0.15666  -0.41974  -0.34758
   0.08276  -0.41974  -0.58700
   0.08276  -0.41974  -0.58700
   0.08276  -0.18032  -0.58700
   0.08276  -0.41974  -0.82642
   0.32218  -0.41974  -0.82642
   0.08276  -0.41974  -0.82642
   0.32218  -0.41974  -0.82642
   0.08276  -0.41974  -0.82642
  -0.15666  -0.18032  -1.06584
   0.08276  -0.41974  -1.06584
   0.08276  -0.41974  -1.06584
   0.08276  -0.41974  -1.06584
  -0.15666  -0.41974  -1.06584
  -0.15666  -0.41974  -1.06584
   0.08276  -0.41974  -1.30526
   0.08276  -0.41974  -0.82642
  -0.15666  -0.41974  -1.06584
   0.08276  -0.18032  -1.30526
   0.08276  -0.41974  -1.06584
  -0.15666  -0.41974  -1.06584
  -0.15666  -0.18032  -1.06584
   0.08276  -0.18032  -1.06584
  -0.15666  -0.18032  -1.06584
  -0.15666  -0.18032  -1.06584
   0.08276  -0.18032  -1.06584
  -0.15666  -0.18032  -0.82642
   0.08276   0.05910  -1.06584
   0.08276  -0.18032  -1.06584
   0.08276   0.05910  -1.06584
   0.08276   0.05910  -1.06584
   0.08276   0.05910  -0.82642
   0.08276   0.05910  -1.06584
   0.08276   0.05910  -0.82642
   0.08276   0.05910  -0.82642
   0.08276   0.05910  -1.06584
   0.08276   0.05910  -0.82642
   0.08276   0.05910  -0.82642
   0.32218   0.29852  -0.82642
   0.32218   0.29852  -0.58700
   0.32218   0.29852  -0.82642
   0.32218   0.29852  -0.58700
   0.32218   0.29852  -0.82642
   0.32218   0.29852  -0.82642
   0.32218   0.29852  -0.58700
   0.56160   0.29852  -0.58700
   0.80102   0.29852  -0.58700
   0.56160   0.29852  -0.58700
   0.80102   0.53794  -0.58700
   0.56160   0.29852  -0.34758
   0.80102   0.53794  -0.34758
   0.80102   0.29852  -0.58700
   1.04044   0.53794  -0.34758
   1.04044   0.29852  -0.34758
   1.04044   0.29852  -0.34758
   1.04044   0.53794  -0.34758
   0.80102   0.53794  -0.10816
   1.04044   0.53794  -0.10816
   1.27986   0.53794  -0.34758
   1.27986   0.77736  -0.34758
   1.27986   0.53794  -0.34758
   1.27986   0.29852  -0.34758
   1.27986   0.53794  -0.34758
   1.51928   0.53794  -0.34758
   1.51928   0.29852  -0.34758
   1.51928   0.53794  -0.34758
   1.51928   0.53794  -0.34758
   1.51928   0.53794  -0.34758
   1.27986   0.53794  -0.10816
   1.51928   0.53794  -0.34758
   1.51928   0.29852  -0.34758
   1.51928   0.29852  -0.10816
   1.51928   0.53794  -0.34758
   1.51928   0.29852  -0.10816
   1.51928   0.29852  -0.10816
   1.51928   0.29852  -0.10816
   1.51928   0.29852  -0.10816
   1.51928   0.29852  -0.10816
   1.51928   0.05910  -0.10816
   1.51928   0.29852   0.13126
   1.51928   0.05910  -0.10816
   1.51928   0.05910   0.13126
   1.27986   0.05910   0.13126
   1.27986   0.05910  -0.10816
   1.27986   0.05910   0.13126
   1.27986   0.05910   0.13126
   1.27986  -0.18032   0.13126
   1.27986  -0.18032   0.13126
   1.27986   0.05910   0.37068
   1.04044   0.05910   0.37068
   1.27986   0.05910   0.37068
   1.04044  -0.18032   0.37068
   1.04044  -0.18032   0.61010
   1.04044  -0.18032   0.61010
   1.04044  -0.18032   0.61010
   0.80102  -0.18032   0.61010
   0.80102  -0.18032   0.61010
   0.80102  -0.18032   0.61010
   0.56160  -0.18032   0.61010
   0.56160  -0.18032   0.61010
   0.56160  -0.18032   0.84951
   0.32218  -0.18032   0.61010
   0.56160  -0.18032   0.61010
   0.32218  -0.18032   0.61010
   0.32218   0.05910   0.61010
   0.08276  -0.18032   0.61010
   0.08276   0.05910   0.84951
   0.08276  -0.18032   0.61010
  -0.15666  -0.18032   0.61010
  -0.39608   0.05910   0.61010
  -0.39608  -0.18032   0.61010
  -0.39608   0.05910   0.61010
  -0.87491   0.05910   0.37068
  -0.63550   0.05910   0.61010
  -0.63550   0.05910   0.61010
  -0.63550   0.05910   0.61010
  -0.87491   0.05910   0.37068
  -0.87491   0.05910   0.37068
  -0.87491   0.05910   0.37068
  -1.11433   0.05910   0.37068
  -1.11433   0.05910   0.37068
  -1.11433   0.05910   0.37068
  -1.35375   0.05910   0.37068
  -1.11433   0.29852   0.13126
  -1.35375   0.29852   0.13126
  -1.35375   0.29852   0.13126
  -1.35375   0.05910   0.13126
  -1.59317   0.29852   0.13126
  -1.35375   0.29852  -0.10816
  -1.59317   0.05910  -0.10816
  -1.59317   0.29852  -0.34758
  -1.59317   0.29852  -0.34758
  -1.59317   0.05910  -0.34758
  -1.59317   0.05910  -0.58700
  -1.59317   0.29852  -0.58700
  -1.59317   0.29852  -0.58700
  -1.83259   0.29852  -0.82642
  -1.83259   0.29852  -0.58700
  -1.59317   0.29852  -0.82642
  -1.83259   0.05910  -0.82642
  -1.83259   0.29852  -0.82642
  -1.83259   0.29852  -0.82642
  -1.83259   0.05910  -0.82642
  -1.83259   0.29852  -1.06584
  -1.83259   0.05910  -0.82642
  -2.07201   0.05910  -0.82642
  -1.83259   0.05910  -1.06584
  -2.07201   0.05910  -1.06584
  -1.83259   0.29852  -1.06584
  -1.83259   0.05910  -1.06584
  -2.07201   0.05910  -1.06584
  -1.83259   0.05910  -1.06584
  -1.83259   0.05910  -1.06584
  -1.83259   0.05910  -1.06584
  -1.83259   0.05910  -1.06584
  -1.83259   0.05910  -0.82642
  -1.83259   0.05910  -1.06584
  -1.83259   0.05910  -1.06584
  -1.83259   0.05910  -0.82642
  -1.59317   0.05910  -1.06584
  -1.59317   0.05910  -0.82642
  -1.59317   0.05910  -0.82642
  -1.35375   0.05910  -0.82642
  -1.59317   0.05910  -0.82642
  -1.59317   0.05910  -0.58700
  -1.35375   0.05910  -0.82642
  -1.35375   0.05910  -0.58700
  -1.35375   0.05910  -0.58700
  -1.35375   0.05910  -0.58700
  -1.11433   0.05910  -0.58700
  -1.11433  -0.18032  -0.34758
  -1.11433   0.05910  -0.58700
  -1.11433  -0.18032  -0.58700
  -1.11433  -0.18032  -0.34758
  -1.11433  -0.18032  -0.34758
  -0.87491  -0.18032  -0.34758
  -0.87491  -0.18032  -0.34758
  -0.87491  -0.41974  -0.34758
  -0.63550  -0.41974  -0.34758
  -0.63550  -0.41974  -0.10816
  -0.63550  -0.65916  -0.10816
  -0.63550  -0.41974  -0.10816
  -0.39608  -0.41974  -0.10816
  -0.39608  -0.65916   0.13126
  -0.39608  -0.65916   0.13126
  -0.15666  -0.65916  -0.10816
  -0.15666  -0.41974   0.13126
  -0.15666  -0.41974   0.13126
   0.08276  -0.41974   0.13126
   0.08276  -0.41974   0.37068
   0.08276  -0.41974   0.37068
   0.32218  -0.65916   0.37068
   0.56160  -0.65916   0.37068
   0.56160  -0.65916   0.37068
   0.56160  -0.65916   0.61010
   0.80102  -0.41974   0.37068
   1.04044  -0.41974   0.61010
   0.80102  -0.65916   0.61010
   1.04044  -0.65916   0.61010
   1.04044  -0.41974   0.61010
   1.27986  -0.41974   0.84951
   1.27986  -0.41974   0.61010
   1.27986  -0.41974   0.84951
   1.51928  -0.41974   0.84951
   1.51928  -0.41974   1.08893
   1.51928  -0.41974   0.84951
   1.75869  -0.41974   1.08893
   1.75869  -0.41974   0.84951
   1.75869  -0.18032   0.84951
   1.99811  -0.18032   0.84951
   1.99811  -0.18032   0.84951
   1.99811  -0.18032   0.84951
   1.99811  -0.18032   0.84951
   2.23753  -0.18032   0.84951
   2.23753  -0.18032   0.84951
   2.23753  -0.18032   0.84951
   1.99811  -0.18032   0.84951
   2.23753   0.05910   0.84951
   2.23753  -0.18032   0.84951
   2.23753   0.05910   0.84951
   2.23753  -0.18032   0.84951
   2.47695   0.05910   0.84951
   2.23753   0.05910   0.61010
   2.23753   0.05910   0.61010
   2.23753   0.05910   0.61010
   1.99811   0.29852   0.61010
   2.23753   0.29852   0.61010
   1.99811   0.29852   0.61010
   2.23753   0.29852   0.61010
   1.99811   0.05910   0.61010
   1.99811   0.29852   0.61010
   1.99811   0.05910   0.37068
   1.75869   0.05910   0.37068
   1.75869   0.29852   0.61010
   1.75869   0.29852   0.37068
   1.51928   0.29852   0.37068
   1.27986   0.05910   0.37068
   1.51928   0.05910   0.37068
   1.27986   0.29852   0.37068
   1.27986   0.29852   0.13126
   1.04044   0.29852   0.37068
   1.04044   0.29852   0.37068
   1.04044   0.29852   0.37068
   0.80102   0.05910   0.13126
   0.80102   0.29852   0.13126
   0.80102   0.05910   0.13126
   0.56160   0.05910   0.13126
   0.56160   0.05910   0.13126
   0.56160   0.05910   0.37068
   0.32218   0.05910   0.13126
   0.32218  -0.18032   0.13126
   0.56160   0.05910   0.13126
   0.32218   0.05910   0.37068
   0.32218   0.05910   0.37068
   0.32218   0.05910   0.37068
   0.08276   0.05910   0.37068
   0.08276  -0.18032   0.37068
   0.08276   0.05910   0.13126
   0.08276   0.05910   0.37068
   0.08276   0.05910   0.37068
   0.08276   0.05910   0.37068
   0.08276   0.05910   0.37068
  -0.15666   0.05910   0.61010
  -0.15666   0.05910   0.37068
  -0.15666   0.05910   0.61010
  -0.15666   0.05910   0.61010
  -0.15666   0.05910   0.61010
  -0.15666   0.05910   0.61010
  -0.39608   0.29852   0.61010
  -0.15666   0.05910   0.61010
  -0.39608   0.05910   0.61010
  -0.39608   0.05910   0.61010
  -0.39608   0.05910   0.61010
  -0.63550   0.05910   0.61010
  -0.63550   0.05910   0.61010
  -0.63550   0.29852   0.61010
  -0.63550   0.05910   0.61010
  -0.63550   0.05910   0.61010
  -0.63550   0.29852   0.61010
  -0.87491   0.05910   0.37068
  -0.87491   0.05910   0.37068
  -0.87491   0.05910   0.61010
  -0.87491   0.29852   0.37068
  -1.11433   0.29852   0.61010
  -0.87491   0.29852   0.37068
  -1.11433   0.05910   0.61010
  -1.11433   0.05910   0.37068
  -1.11433   0.05910   0.13126
  -1.11433   0.05910   0.37068
  -1.11433   0.05910   0.13126
  -1.11433   0.05910   0.37068
  -1.35375   0.05910   0.37068
  -1.11433  -0.18032   0.13126
  -1.35375  -0.18032   0.37068
  -1.35375   0.05910   0.13126
  -1.11433   0.05910   0.13126
  -1.11433  -0.18032   0.13126
  -1.35375   0.05910   0.13126
  -1.11433  -0.18032  -0.34758
  -1.35375  -0.18032   0.13126
  -1.11433  -0.18032   0.13126
  -1.11433  -0.18032   0.13126
  -1.35375  -0.18032  -0.10816
  -1.11433  -0.41974  -0.10816
  -1.11433  -0.18032  -0.10816
  -1.11433  -0.41974   0.13126
  -1.35375  -0.65916   0.13126
  -1.11433  -0.41974  -0.34758
  -1.11433  -0.41974  -0.34758
  -1.11433  -0.41974  -0.10816
  -1.11433  -0.18032  -0.10816
  -1.11433  -0.18032  -0.10816
  -1.11433  -0.18032  -0.10816
  -0.87491  -0.41974  -0.34758
  -1.11433  -0.18032  -0.10816
  -1.11433  -0.18032  -0.58700
  -0.87491  -0.18032  -0.34758
  -1.11433  -0.18032  -0.34758
  -0.87491   0.05910  -0.34758
  -0.87491  -0.18032  -0.58700
  -0.87491   0.05910  -0.58700
  -0.87491  -0.18032  -0.58700
  -0.87491  -0.18032  -0.58700
  -0.63550   0.05910  -0.58700
  -0.87491   0.05910  -0.58700
  -0.63550   0.05910  -0.58700
  -0.63550   0.05910  -0.58700
  -0.63550   0.05910  -0.58700
  -0.63550   0.05910  -0.58700
  -0.39608   0.29852  -0.58700
  -0.39608   0.29852  -0.58700
  -0.63550   0.29852  -0.58700
  -0.39608   0.05910  -0.58700
  -0.15666   0.29852  -0.58700
  -0.39608   0.29852  -0.34758
  -0.15666   0.05910  -0.34758
  -0.15666   0.53794  -0.34758
  -0.15666   0.29852  -0.34758
   0.08276   0.29852  -0.10816
   0.08276   0.29852  -0.34758
   0.08276   0.29852  -0.34758
   0.08276   0.29852  -0.10816
   0.32218   0.53794  -0.34758
   0.08276   0.29852  -0.10816
   0.08276   0.29852  -0.10816
   0.56160   0.29852  -0.34758
   0.32218   0.29852  -0.10816
   0.56160   0.53794  -0.10816
   0.56160   0.29852  -0.10816
   0.56160   0.29852  -0.10816
   0.80102   0.29852   0.13126
   0.56160   0.29852   0.13126
   0.56160   0.29852   0.13126
   0.80102   0.29852   0.13126
   0.80102   0.29852   0.13126
   0.80102   0.29852   0.13126
   1.04044   0.29852   0.13126
   0.80102   0.29852   0.13126
   1.04044   0.29852   0.13126
   1.04044   0.05910   0.13126
   1.04044   0.29852   0.37068
   1.04044   0.05910   0.13126
   1.04044   0.05910   0.13126
   1.04044   0.29852   0.37068
   1.27986   0.05910   0.37068
   1.27986   0.05910   0.13126
   1.27986   0.29852   0.37068
   1.51928   0.05910   0.37068
   1.27986  -0.18032   0.37068
   1.27986   0.05910   0.37068
   1.51928  -0.18032   0.61010
   1.27986  -0.18032   0.37068
