********************************************************************************
               CENTRO DE INSTRUMENTACION Y REGISTRO SISMICO  A.C.  
                       Coordinacion de Servicios Tecnicos
     Anaxagoras 814, Col. Narvarte, Benito Juarez, C.P. 03020 Mexico, D.F.
            Tels. 687 45 42/ 687 45  82             Fax. 669 25 12
********************************************************************************
ARCHIVO ESTANDAR DE ACELERACION:
VERSION DEL FORMATO                    : 2.0
NOMBRE DEL ARCHIVO                     : AE020007.211
FECHA Y HORA DE CREACION               : 12/JUL/04, 9:05
REF. CATALOGO ACELEROGRAMAS, SMIS 1996 : REGISTRO No.     /PAG.


================================================================================
DATOS DE LA ESTACION:
NOMBRE DE LA ESTACION                  : AEROPUERTO
CLAVE DE LA ESTACION                   : AE02
LOCALIZACION DE LA ESTACION            : Esc Prim Gonzalez Garzon Calle Xico
                                       : s/n, Col. IV Seccion del Arenal
                                       : Venustiano Carranza
                                       :
                                       :
COORDENADAS DE LA ESTACION             : 19.429 LAT. N 
                                       : 99.058 LONG. W 
ALTITUD (msnm)                         : 2232
TIPO DE SUELO                          : ARCILLOSO, ZONA LAGO
                                       : 
                                       : 
INSTITUCION RESPONSABLE                : CIRES
                                       :

================================================================================
DATOS DEL ACELEROGRAFO:
MODELO DEL ACELEROGRAFO                : RAD-851
NUMERO DE SERIE DEL ACELEROGRAFO       : 242
NUMERO DE CANALES                      : 3
ORIENTACION C1-C6 (rumbo;orientacion)  : /N00E/+V/N90W
ORIENTACION C7-C12 (rumbo;orientacion) :
VEL. DE MUESTREO, C1-C6 (muestras/s)   : /100/100/100
VEL. DE MUESTREO, C7-C12 (muestras/s)  :
ESC. COMPLETA DE SENSORES, C1-C6, (g)  : /0.5/0.5/0.5
ESC. COMPLETA DE SENSORES, C7-C12, (g) :
FREC. NAT. DE SENSORES, C1-C6, (Hz)    : /30/30/30
FREC. NAT. DE SENSORES, C7-C12, (Hz)   :
AMORTIGUAMIENTO DE SENSORES, C1-C6     : /0.733/0.750/0.700
AMORTIGUAMIENTO DE SENSORES, C7-C12    :
INTERVALO DE MUESTREO, C1-C6, (s)      : /0.01/0.01/0.01
INTERVALO DE MUESTREO, C7-C12, (s)     :
UMBRAL DE DISPARO, C1-C6, (Gal)        : /1.99/3.91/1.99
UMBRAL DE DISPARO, C7-C12, (Gal)       :
MEMORIA DE PREEVENTO (s)               : 24
TIEMPO DE POSEVENTO (s)                : 64


================================================================================
DATOS DEL SISMO:
FECHA DEL SISMO (GMT)                  : 21/JUL/00
HORA EPICENTRO (GMT)                   : 06:13:39:7
MAGNITUD(ES)                           : /Mb=5.4/Ms=5.1/Mc=5.4/Ma=5.5/Me=6.0
COORDENADAS DEL EPICENTRO              : 18.09 LAT. N
                                       : 98.97 LONG. W
PROFUNDIDAD FOCAL (km)                 : 48
FUENTE DE LOS DATOS EPICENTRALES       : SSN
                                       : INSTITUTO DE GEOFISICA, UNAM

================================================================================
DATOS DE ESTE REGISTRO:
HORA DE LA PRIMERA MUESTRA (GMT)       : 06:14:18.00
EXACTITUD DEL TIEMPO (s)               : 0.01
DURACION DEL REGISTRO (s), C1-C6       : /162.75/162.75/162.75
DURACION DEL REGISTRO (s), C7-C12      :
NUM. TOTAL DE MUESTRAS, C1-C6          : /16275/16275/16275
NUM. TOTAL DE MUESTRAS, C7-C12         :
ACEL. MAX. (Gal), C1-C6                : /-10.72926/4.40016/9.11822
ACEL. MAX., C1-C6, EN LA MUESTRA       :
ACEL. MAX. (Gal), C7-C12               :
ACEL. MAX., C7-C12, EN LA MUESTRA      :
UNIDADES DE LOS DATOS                  : Gal (cm/s/s)
FACTOR DE DECIMACION                   : 1
FORMATO DATOS (FORTRAN,10 campos/dato) : 3F10.5


================================================================================
CALIDAD DEL ACELEROGRAMA:
REGISTRO DIGITAL COMPLETO CON TIEMPO ABSOLUTO CORRECTO.


================================================================================
COMENTARIOS:














================================================================================
DATOS DE ACELERACION:
---------+---------+---------+---------+---------+---------+---------+---------+
   CANAL-1   CANAL-2   CANAL-3   CANAL-4   CANAL-5   CANAL-6   CANAL-7   CANAL-8
      N00E        +V      N90W
---------+---------+---------+---------+---------+---------+---------+---------+
[...]
   1.00226  -0.38822   0.02030
   1.00226  -0.62764   0.25972
   0.76285  -0.62764   0.49914
   0.52343  -0.62764   0.73856
   0.04459  -0.38822   1.21740
  -0.19483  -0.38822   1.45681
  -0.19483  -0.14880   1.45681
  -0.67367  -0.14880   1.69623
  -0.91309  -0.14880   2.17507
  -0.91309  -0.14880   2.17507
  -1.15251  -0.14880   2.65391
  -1.15251   0.09062   2.89333
  -1.15251   0.09062   3.13275
  -1.39193   0.09062   3.13275
  -1.39193   0.09062   3.37217
  -1.39193   0.09062   3.37217
  -1.63134   0.09062   3.37217
  -1.63134   0.33004   3.61159
  -1.63134   0.33004   3.61159
  -1.87076   0.56946   3.61159
  -1.87076   0.80888   3.85100
  -2.11018   0.80888   3.61159
  -2.11018   0.80888   3.85100
  -2.58902   0.80888   3.85100
  -2.58902   0.80888   3.61159
  -2.82844   0.80888   3.85100
  -3.06786   1.04829   3.85100
  -3.54670   1.04829   4.09042
  -3.54670   1.04829   4.09042
  -4.02553   1.04829   4.09042
  -4.02553   1.28771   4.32984
  -4.74379   1.28771   4.32984
  -4.74379   1.52713   4.32984
  -4.74379   1.52713   4.32984
  -4.98321   1.76655   4.32984
  -4.98321   1.76655   4.09042
  -4.98321   1.76655   3.85100
  -4.98321   2.00597   3.85100
  -4.74379   1.76655   3.37217
  -4.50437   1.52713   3.13275
  -4.02553   1.52713   2.65391
  -4.02553   1.04829   2.41449
  -3.54670   0.80888   1.93565
  -3.06786   0.33004   1.45681
  -2.82844   0.09062   1.21740
  -2.34960  -0.14880   0.73856
  -2.11018  -0.38822   0.25972
  -1.63134  -0.62764   0.02030
  -1.63134  -0.86706  -0.45854
  -1.15251  -1.10648  -0.69796
  -0.91309  -1.34589  -1.17679
  -0.67367  -1.10648  -1.41621
  -0.43425  -1.58531  -1.65563
  -0.19483  -1.58531  -1.65563
   0.04459  -1.82473  -1.89505
   0.04459  -2.06415  -2.13447
   0.28401  -2.30357  -2.37389
   0.52343  -2.30357  -2.61331
   0.76285  -2.54299  -2.37389
   1.00226  -2.54299  -2.85273
   1.24168  -2.78241  -2.85273
   1.24168  -2.78241  -2.85273
   1.72052  -2.78241  -2.85273
   1.72052  -3.02183  -2.85273
   1.95994  -3.02183  -2.61331
   2.19936  -2.78241  -2.37389
   2.43878  -2.78241  -2.13447
   2.67820  -2.78241  -2.13447
   2.91762  -2.54299  -1.65563
   3.15703  -2.78241  -1.65563
   3.39645  -2.54299  -1.17679
   3.63587  -2.78241  -1.17679
   3.87529  -2.54299  -0.69796
   4.35413  -2.54299  -0.45854
   4.35413  -2.54299  -0.21912
   4.59355  -2.30357   0.02030
   4.83297  -2.30357   0.02030
   5.07239  -2.30357   0.25972
   5.07239  -2.30357   0.49914
   5.31181  -2.06415   0.49914
   5.31181  -2.06415   0.49914
   5.55122  -2.06415   0.73856
   5.31181  -2.06415   0.97798
   5.31181  -1.82473   1.21740
   5.31181  -1.82473   0.97798
   5.31181  -1.82473   0.97798
   5.31181  -1.34589   1.21740
   5.31181  -1.10648   1.45681
   5.31181  -1.10648   1.21740
   5.55122  -0.86706   1.69623
   5.31181  -0.62764   1.69623
   5.31181  -0.14880   1.69623
   5.31181  -0.14880   1.93565
   5.31181   0.09062   1.93565
   5.31181   0.33004   2.17507
   5.07239   0.56946   2.65391
   4.83297   0.33004   2.65391
   4.59355   1.04829   2.89333
   4.11471   1.28771   3.13275
   4.11471   1.52713   3.37217
   3.63587   1.52713   3.61159
   3.39645   1.52713   3.85100
   3.15703   1.76655   4.09042
   2.91762   2.00597   4.32984
   2.67820   2.24539   4.32984
   2.67820   2.48481   4.56926
   2.43878   2.72423   4.56926
   2.43878   2.96365   4.56926
   2.43878   2.96365   4.56926
   2.67820   2.96365   4.32984
   2.67820   2.96365   4.32984
   2.91762   3.20307   4.32984
   3.15703   3.20307   3.85100
   2.91762   3.44248   3.61159
   3.15703   3.20307   3.37217
   3.15703   3.20307   3.13275
   3.15703   3.20307   2.89333
   3.15703   3.44248   2.41449
   3.39645   3.44248   2.17507
   3.15703   3.44248   1.93565
   3.39645   3.20307   1.69623
   3.63587   3.20307   1.21740
   3.63587   2.96365   1.21740
   3.39645   2.96365   0.73856
   3.39645   2.72423   0.49914
   3.63587   2.72423   0.25972
   3.39645   2.72423   0.25972
   3.39645   2.48481   0.25972
   3.39645   2.24539   0.02030
   3.63587   2.00597   0.02030
   3.63587   2.00597   0.25972
   3.63587   1.76655   0.25972
   4.11471   1.52713   0.02030
   4.11471   1.04829   0.25972
   4.11471   1.04829   0.49914
   4.11471   0.80888   0.49914
   4.11471   0.56946   0.49914
   4.11471   0.56946   0.73856
   3.87529   0.33004   0.97798
   3.87529   0.09062   0.73856
   4.11471   0.09062   0.73856
   3.63587  -0.14880   0.49914
   3.39645  -0.14880   0.49914
   3.39645  -0.38822   0.25972
   3.15703  -0.62764   0.02030
   2.91762  -0.62764   0.02030
   2.43878  -0.62764  -0.21912
   2.43878  -0.86706  -0.69796
   2.19936  -0.62764  -0.69796
   1.95994  -0.62764  -0.93737
   1.95994  -0.62764  -1.41621
   1.72052  -0.62764  -1.41621
   1.48110  -0.38822  -1.65563
   1.48110  -0.38822  -1.89505
   1.00226  -0.38822  -2.13447
   1.00226  -0.38822  -2.37389
   0.76285  -0.14880  -2.37389
   0.52343  -0.14880  -2.61331
   0.28401  -0.14880  -2.61331
  -0.19483  -0.14880  -2.61331
  -0.43425  -0.14880  -2.61331
  -0.91309  -0.14880  -2.61331
  -1.39193  -0.14880  -2.37389
  -1.63134  -0.14880  -2.37389
  -2.11018  -0.14880  -2.13447
  -2.34960  -0.14880  -2.13447
  -3.06786  -0.14880  -1.89505
  -3.54670  -0.38822  -1.89505
  -4.02553  -0.38822  -1.65563
  -4.50437  -0.14880  -1.41621
  -4.98321  -0.38822  -1.41621
  -5.46205  -0.38822  -1.17679
  -5.70147  -0.38822  -0.93737
  -6.18030  -0.62764  -0.93737
  -6.41972  -0.38822  -0.69796
  -6.65914  -0.38822  -0.69796
  -6.65914  -0.38822  -0.45854
  -6.89856  -0.62764  -0.45854
  -6.89856  -0.38822  -0.21912
  -6.65914  -0.38822  -0.21912
  -6.41972  -0.38822  -0.21912
  -6.41972  -0.38822  -0.21912
  -6.18030  -0.62764  -0.21912
  -5.94089  -0.62764   0.02030
  -5.46205  -0.38822   0.02030
  -5.22263  -0.62764  -0.21912
  -4.98321  -0.62764  -0.21912
  -4.74379  -0.62764  -0.45854
  -4.26495  -0.86706  -0.69796
  -4.02553  -1.10648  -0.93737
  -3.78611  -1.10648  -1.17679
  -3.54670  -1.34589  -1.41621
  -3.30728  -1.58531  -1.41621
  -2.82844  -1.82473  -1.65563
  -2.82844  -1.82473  -1.65563
  -2.58902  -1.82473  -1.65563
  -2.34960  -2.06415  -1.89505
  -2.11018  -2.06415  -1.65563
  -1.87076  -2.30357  -1.65563
  -1.63134  -2.30357  -1.89505
  -1.39193  -2.30357  -1.65563
  -1.15251  -1.82473  -1.65563
  -0.91309  -2.06415  -1.41621
  -0.67367  -1.82473  -1.65563
  -0.19483  -2.06415  -1.41621
   0.04459  -2.30357  -1.41621
   0.28401  -2.06415  -1.41621
   0.52343  -2.30357  -1.41621
   0.52343  -2.30357  -1.17679
   0.52343  -2.06415  -1.17679
   0.76285  -2.06415  -1.17679
   0.52343  -1.82473  -1.17679
   0.76285  -1.82473  -0.93737
   0.76285  -1.82473  -0.93737
   0.52343  -1.58531  -1.17679
   0.28401  -1.34589  -0.93737
   0.28401  -1.34589  -0.69796
   0.04459  -1.10648  -0.69796
  -0.19483  -0.86706  -0.69796
  -0.43425  -0.38822  -0.69796
  -0.43425  -0.38822  -0.45854
  -0.67367  -0.14880  -0.45854
  -0.67367   0.33004  -0.45854
  -0.67367   0.56946  -0.45854
  -0.91309   0.80888  -0.45854
  -0.91309   0.80888  -0.21912
  -0.91309   1.04829  -0.21912
  -1.15251   1.28771  -0.45854
  -1.15251   1.52713  -0.21912
  -1.15251   1.52713  -0.21912
  -1.39193   1.76655  -0.21912
  -1.39193   1.76655  -0.21912
  -1.63134   1.52713  -0.21912
  -1.87076   1.76655   0.02030
  -1.87076   1.76655   0.02030
  -2.11018   1.52713   0.02030
  -2.11018   1.76655   0.25972
  -2.34960   1.52713   0.49914
  -2.34960   1.52713   0.49914
  -2.58902   1.52713   0.97798
  -2.82844   1.28771   0.97798
  -2.82844   1.52713   1.21740
  -3.06786   1.28771   1.45681
  -3.06786   1.52713   1.45681
  -3.06786   1.52713   1.69623
  -3.06786   1.52713   1.69623
  -3.06786   1.52713   1.69623
  -2.82844   1.52713   1.93565
  -3.30728   1.52713   1.93565
  -2.82844   1.76655   1.69623
  -2.82844   1.52713   1.93565
  -2.58902   1.76655   1.69623
  -2.58902   1.52713   1.93565
  -2.34960   1.28771   1.69623
  -2.11018   1.28771   1.69623
  -1.87076   1.04829   1.69623
  -1.87076   0.80888   1.45681
  -1.63134   0.80888   1.45681
  -1.39193   0.56946   1.45681
  -1.39193   0.33004   1.21740
  -1.15251   0.09062   1.21740
  -1.15251  -0.14880   1.21740
  -1.15251  -0.14880   0.97798
  -0.91309  -0.14880   0.97798
  -0.67367  -0.38822   0.97798
  -0.67367  -0.38822   0.73856
  -0.67367  -0.38822   0.97798
  -0.43425  -0.62764   0.73856
  -0.19483  -0.62764   0.73856
   0.04459  -0.62764   0.73856
   0.28401  -0.62764   0.49914
   0.52343  -0.62764   0.49914
   0.76285  -0.62764   0.73856
   1.00226  -0.62764   0.49914
   1.24168  -0.62764   0.49914
   1.48110  -0.62764   0.49914
   1.72052  -0.38822   0.25972
   1.95994  -0.62764   0.49914
   1.95994  -0.62764   0.02030
   2.19936  -0.62764   0.02030
   2.43878  -0.62764  -0.21912
   2.43878  -0.62764  -0.45854
   2.67820  -0.62764  -0.69796
   2.67820  -0.62764  -0.69796
   2.67820  -0.62764  -0.93737
   2.91762  -0.86706  -1.17679
   3.15703  -0.86706  -1.17679
   3.39645  -0.62764  -1.17679
   3.15703  -0.62764  -1.17679
   3.39645  -0.62764  -1.41621
   3.39645  -0.38822  -1.41621
   3.63587  -0.14880  -1.17679
   3.63587  -0.14880  -1.41621
   4.11471  -0.14880  -1.41621
   4.35413   0.09062  -1.41621
   4.35413   0.33004  -1.41621
   4.59355   0.33004  -1.41621
   4.83297   0.56946  -1.41621
   4.83297   0.80888  -1.17679
   4.83297   0.80888  -1.17679
   5.07239   0.56946  -1.17679
   5.07239   0.80888  -1.41621
   5.07239   1.04829  -1.17679
   5.07239   1.04829  -1.41621
   5.07239   1.04829  -1.41621
   5.07239   1.28771  -1.65563
   5.07239   1.28771  -1.65563
   4.83297   1.28771  -1.65563
   5.07239   1.04829  -1.65563
   4.59355   1.04829  -1.89505
   4.59355   1.04829  -1.89505
   4.59355   1.04829  -2.13447
   4.35413   1.04829  -2.13447
   4.35413   1.04829  -2.13447
   4.35413   1.04829  -2.13447
   3.87529   1.04829  -2.13447
   3.63587   1.28771  -2.13447
   3.39645   1.28771  -2.13447
   2.91762   1.28771  -2.13447
   2.67820   1.28771  -2.13447
   1.95994   1.28771  -1.89505
   1.48110   1.52713  -2.13447
   1.24168   1.52713  -1.89505
   0.76285   1.52713  -2.13447
   0.28401   1.76655  -2.13447
  -0.19483   1.52713  -2.37389
  -0.67367   1.52713  -2.37389
  -1.39193   1.52713  -2.37389
  -1.87076   1.28771  -2.61331
  -2.34960   1.28771  -2.85273
  -2.82844   1.28771  -2.61331
  -3.54670   1.04829  -2.61331
  -4.26495   0.80888  -2.61331
  -4.74379   0.80888  -2.37389
  -5.46205   0.56946  -2.37389
  -5.94089   0.33004  -2.37389
  -6.65914   0.33004  -2.13447
  -7.37740   0.33004  -1.89505
  -7.61682   0.33004  -1.89505
  -7.85624   0.09062  -1.65563
  -8.57449   0.33004  -1.41621
  -8.57449   0.09062  -1.41621
  -9.05333  -0.14880  -1.17679
  -9.29275  -0.14880  -0.69796
  -9.53217  -0.38822  -0.45854
 -10.01101  -0.38822  -0.21912
 -10.25043  -0.38822   0.02030
 -10.25043  -0.86706   0.02030
 -10.48985  -0.86706   0.49914
 -10.72926  -1.10648   0.73856
 -10.72926  -1.34589   0.73856
 -10.72926  -1.34589   0.97798
 -10.72926  -1.34589   1.21740
 -10.72926  -1.34589   1.21740
 -10.72926  -1.34589   1.21740
 -10.72926  -1.34589   1.45681
 -10.48985  -1.34589   1.45681
 -10.48985  -1.34589   1.45681
 -10.25043  -1.58531   1.45681
 -10.01101  -1.34589   1.21740
  -9.77159  -1.34589   1.45681
  -9.53217  -1.10648   1.21740
  -9.29275  -1.10648   1.21740
  -9.05333  -1.10648   0.97798
  -8.57449  -0.86706   0.97798
  -8.33507  -1.10648   0.73856
  -7.85624  -0.86706   0.49914
  -7.61682  -0.62764   0.25972
  -6.89856  -0.62764   0.25972
  -6.41972  -0.62764  -0.21912
  -5.94089  -0.62764  -0.21912
  -5.46205  -0.62764  -0.45854
  -4.98321  -0.62764  -0.45854
  -4.26495  -0.62764  -0.45854
  -4.02553  -0.62764  -0.45854
  -3.54670  -0.62764  -0.69796
  -3.30728  -0.62764  -0.69796
  -3.06786  -0.62764  -0.69796
  -2.58902  -0.62764  -0.69796
  -2.34960  -0.62764  -0.93737
  -1.87076  -0.38822  -0.69796
  -1.63134  -0.62764  -0.93737
  -1.39193  -0.62764  -0.93737
  -0.91309  -0.62764  -0.93737
  -0.67367  -0.62764  -0.93737
  -0.43425  -0.62764  -1.17679
   0.04459  -0.38822  -1.41621
   0.28401  -0.38822  -1.41621
   0.52343  -0.14880  -1.65563
   1.00226  -0.14880  -1.41621
   1.24168  -0.14880  -1.65563
   1.48110  -0.14880  -1.65563
   1.48110  -0.38822  -1.65563
   1.72052  -0.38822  -1.89505
   2.19936  -0.38822  -1.89505
   2.19936  -0.38822  -1.65563
   2.19936  -0.38822  -1.65563
   2.43878  -0.38822  -1.65563
   2.43878  -0.62764  -1.65563
   2.43878  -0.62764  -1.65563
   2.43878  -0.86706  -1.41621
   2.43878  -0.86706  -1.41621
   2.43878  -0.62764  -1.17679
   2.43878  -0.62764  -0.93737
   2.19936  -0.62764  -1.17679
   2.19936  -0.62764  -0.93737
   1.95994  -0.62764  -0.69796
   1.72052  -0.62764  -0.69796
   1.95994  -0.62764  -0.45854
   1.72052  -0.62764  -0.45854
   1.72052  -0.62764  -0.21912
   1.72052  -0.86706   0.02030
   1.72052  -0.86706  -0.21912
   1.95994  -0.86706   0.02030
   1.95994  -0.86706   0.25972
   1.95994  -1.10648   0.25972
   2.43878  -1.10648   0.49914
   2.43878  -1.10648   0.73856
   2.67820  -1.10648   0.97798
   2.67820  -1.10648   0.97798
   2.91762  -1.10648   0.97798
   2.91762  -1.10648   0.97798
   3.15703  -1.10648   1.21740
   3.39645  -0.86706   0.97798
   3.63587  -0.86706   1.21740
   3.63587  -0.86706   1.21740
   3.87529  -0.62764   1.21740
   3.87529  -0.62764   1.21740
   3.87529  -0.38822   1.21740
   3.87529  -0.14880   1.45681
   3.87529  -0.14880   1.21740
   3.87529   0.09062   1.45681
   3.63587   0.33004   1.45681
   3.63587   0.56946   1.69623
   3.39645   0.80888   1.45681
   3.39645   0.56946   1.69623
   3.15703   0.80888   1.69623
   3.15703   1.04829   1.69623
   2.91762   0.80888   1.93565
   3.15703   0.80888   1.69623
   2.91762   0.56946   1.93565
   2.91762   0.80888   2.17507
   2.91762   0.80888   2.17507
   2.91762   0.56946   2.41449
   2.67820   0.80888   2.41449
   2.67820   0.80888   2.89333
   2.43878   0.80888   2.89333
   2.43878   0.80888   2.89333
   2.19936   0.80888   3.13275
   1.95994   1.04829   3.13275
   1.72052   1.04829   3.61159
   1.72052   0.80888   3.61159
   1.48110   1.04829   3.61159
   1.48110   1.04829   3.61159
   1.00226   1.04829   3.61159
   1.00226   1.04829   3.37217
   0.76285   1.04829   3.61159
   0.04459   0.80888   3.37217
   0.28401   0.80888   3.37217
   0.04459   0.56946   3.13275
  -0.19483   0.56946   3.13275
  -0.43425   0.56946   3.13275
  -0.67367   0.33004   2.89333
  -0.91309   0.33004   2.65391
  -0.91309   0.56946   2.65391
  -1.15251   0.33004   2.41449
  -0.91309   0.56946   2.17507
  -1.15251   0.56946   1.93565
  -0.91309   0.80888   1.69623
  -0.91309   0.80888   1.45681
  -0.67367   0.80888   0.97798
  -0.67367   0.80888   0.73856
  -0.67367   0.80888   0.49914
  -0.67367   0.80888   0.02030
  -0.43425   0.80888  -0.21912
  -0.19483   0.80888  -0.45854
  -0.19483   0.56946  -0.45854
   0.04459   0.56946  -0.93737
   0.28401   0.33004  -1.17679
   0.28401   0.33004  -1.17679
   0.52343   0.09062  -1.17679
   0.52343  -0.14880  -1.41621
   0.52343   0.09062  -1.41621
   0.52343   0.09062  -1.17679
   0.52343  -0.14880  -1.41621
   0.76285   0.09062  -1.17679
   0.52343   0.09062  -0.93737
   0.28401   0.09062  -0.93737
   0.52343   0.09062  -0.69796
   0.04459   0.33004  -0.69796
   0.04459   0.09062  -0.45854
   0.04459   0.33004  -0.45854
  -0.19483   0.09062  -0.21912
  -0.43425   0.33004   0.02030
  -0.43425   0.33004   0.02030
  -0.43425   0.33004   0.25972
  -0.67367   0.33004   0.49914
  -0.67367   0.33004   0.49914
  -0.91309   0.33004   0.49914
