********************************************************************************
              CENTRO DE INSTRUMENTACION Y REGISTRO SISMICO  A.C.

    Anaxagoras 814, Col. Narvarte, Benito Juarez, C.P. 03020 Mexico, D.F.
           Tels. 5687 45 42/ 5687 45  82             Fax. 5669 25 12
********************************************************************************
ARCHIVO ESTANDAR DE ACELERACION:
VERSION DEL FORMATO                    : 2.0
NOMBRE DEL ARCHIVO                     : AE0220150320223008
FECHA Y HORA DE CREACION               : 08/ABR/15, 11:22
REF. CATALOGO ACELEROGRAMAS, SMIS 1996 : REGISTRO No.     /PAG.


================================================================================
DATOS DE LA ESTACION:
NOMBRE DE LA ESTACION                  : ESC. PRIM. "GONZÁLEZ GARZÓN"
CLAVE DE LA ESTACION                   : AE02
LOCALIZACION DE LA ESTACION            : Del. Venustiano Carranza,              
                                       : Col. El Arenal 4a. Sección,            
                                       : Calle Xico esq. con calle Xocoyote.    
                                       :                                        
                                       : 
COORDENADAS DE LA ESTACION             : 19.4290 LAT. N
                                       : 99.0584 LONG. W
ALTITUD (msnm)                         : 2232
TIPO DE SUELO                          : Arcilloso, zona lago                
                                       :                           
                                       : 
INSTITUCION RESPONSABLE                : CIRES
                                       : 

================================================================================
DATOS DEL ACELEROGRAFO:
MODELO DEL ACELEROGRAFO                : RADESD
NUMERO DE SERIE DEL ACELEROGRAFO       : 242
NUMERO DE CANALES                      : 3
ORIENTACION C1-C6 (rumbo;orientacion)  : /N00E/+V/N90W
ORIENTACION C7-C12 (rumbo;orientacion) : 
VEL. DE MUESTREO, C1-C6 (muestras/s)   : /100/100/100
VEL. DE MUESTREO, C7-C12 (muestras/s)  : 
ESC. COMPLETA DE SENSORES, C1-C6, (g)  : /0.5/0.5/0.5
ESC. COMPLETA DE SENSORES, C7-C12, (g) : 
FREC. NAT. DE SENSORES, C1-C6, (Hz)    : /30/30/30
FREC. NAT. DE SENSORES, C7-C12, (Hz)   : 
AMORTIGUAMIENTO DE SENSORES, C1-C6     : /0.733/0.750/0.700
AMORTIGUAMIENTO DE SENSORES, C7-C12    : 
INTERVALO DE MUESTREO, C1-C6, (s)      : /0.01/0.01/0.01
INTERVALO DE MUESTREO, C7-C12, (s)     : 
UMBRAL DE DISPARO, C1-C6, (Gal)        : /1.65/9.56/2.69
UMBRAL DE DISPARO, C7-C12, (Gal)       : 
MEMORIA DE PREEVENTO (s)               : 44.0
TIEMPO DE POSEVENTO (s)                : 64.0


================================================================================
DATOS DEL SISMO:
FECHA DEL SISMO (GMT)                  : 20/MAR/15
HORA EPICENTRO (GMT)                   : 22:30:08.0
MAGNITUD(ES)                           : /Mc=5.4
COORDENADAS DEL EPICENTRO              : 17.96 LAT. N
                                       : 98.58 LONG. W
PROFUNDIDAD FOCAL (km)                 : 61
FUENTE DE LOS DATOS EPICENTRALES       : SSN
                                       : INSTITUTO DE GEOFISICA, UNAM

================================================================================
DATOS DE ESTE REGISTRO:
HORA DE LA PRIMERA MUESTRA (GMT)       : 22:30:57.00
EXACTITUD DEL TIEMPO (s)               : 0.01
DURACION DEL REGISTRO (s), C1-C6       : /135.8/135.8/135.8
DURACION DEL REGISTRO (s), C7-C12      : 
NUM. TOTAL DE MUESTRAS, C1-C6          : /13580/13580/13580
NUM. TOTAL DE MUESTRAS, C7-C12         : 
ACEL. MAX. (Gal), C1-C6                : /3.10722/1.5998/2.95851
ACEL. MAX., C1-C6, EN LA MUESTRA       : /4765/2284/4506
ACEL. MAX. (Gal), C7-C12               : 
ACEL. MAX., C7-C12, EN LA MUESTRA      : 
UNIDADES DE LOS DATOS                  : Gal (cm/s/s)
FACTOR DE DECIMACION                   : 1
FORMATO DATOS (FORTRAN,10 campos/dato) : 3F10.5


================================================================================
CALIDAD DEL ACELEROGRAMA:
REGISTRO DIGITAL COMPLETO CON TIEMPO ABSOLUTO CORRECTO.


================================================================================
COMENTARIOS:














================================================================================
DATOS DE ACELERACION:
---------+---------+---------+---------+---------+---------+---------+---------+
   CANAL-1   CANAL-2   CANAL-3   CANAL-4   CANAL-5   CANAL-6   CANAL-7   CANAL-8
      N00E        +V      N90W
---------+---------+---------+---------+---------+---------+---------+---------+
[...]
   1.02278   0.49512   0.40833
   0.75343   0.55498   0.75250
   0.52898   0.56994   0.97696
   0.39430   0.58490   1.08170
   0.24466   0.62980   1.14156
   0.15488   0.74951   1.14156
   0.08006   0.89914   1.05177
   0.05014   1.00389   0.87221
   0.05014   1.01885   0.64775
   0.05014   0.83929   0.39337
   0.12495   0.59987   0.18388
   0.18481   0.34548   0.07913
   0.30452   0.09110   0.04920
   0.43919  -0.14832   0.07913
   0.55890  -0.34285   0.22877
   0.70854  -0.44759   0.43826
   0.93300  -0.52241   0.67768
   1.17242  -0.50745   0.93206
   1.41184  -0.32788   1.17148
   1.60637  -0.08846   1.36601
   1.81586   0.15096   1.47076
   1.93557   0.37541   1.60543
   1.98046   0.59987   1.68025
   2.05528   0.79440   1.77003
   2.10017   0.91411   1.85982
   2.10017   0.94403   2.00945
   2.02535   0.86922   2.09924
   1.90564   0.77943   2.12916
   1.75600   0.73454   2.02442
   1.56148   0.61483   1.84485
   1.36695   0.48016   1.65032
   1.24724   0.36045   1.36601
   1.11256   0.24074   1.17148
   1.02278   0.16592   1.00688
   0.96292   0.06117   0.99192
   0.97789  -0.08846   1.12659
   1.00782  -0.28299   1.30616
   1.06767  -0.46256   1.47076
   1.12753  -0.59723   1.69522
   1.15745  -0.58227   1.97953
   1.17242  -0.44759   2.14413
   1.21731  -0.25307   2.21895
   1.27716   0.00132   2.15909
   1.32205   0.22577   1.96456
   1.35198   0.48016   1.74011
   1.36695   0.68965   1.51565
   1.30709   0.77943   1.35105
   1.23227   0.71958   1.21638
   1.09760   0.52505   1.11163
   0.91803   0.19585   0.99192
   0.72350  -0.04357   0.93206
   0.63372  -0.23810   0.85724
   0.61876  -0.44759   0.78243
   0.66365  -0.61220   0.67768
   0.79832  -0.68702   0.66272
   0.96292  -0.67205   0.69264
   1.12753  -0.62716   0.69264
   1.26220  -0.56731   0.72257
   1.38191  -0.56731   0.78243
   1.45673  -0.52241   0.81235
   1.50162  -0.46256   0.81235
   1.48666  -0.43263   0.76746
   1.44176  -0.44759   0.64775
   1.32205  -0.37278   0.49811
   1.21731  -0.23810   0.30359
   1.12753  -0.13336   0.12402
   1.02278   0.01628  -0.10044
   0.78336   0.13599  -0.29496
   0.48408   0.16592  -0.42964
   0.13992   0.10606  -0.57928
  -0.17432  -0.02861  -0.66906
  -0.45863  -0.25307  -0.72891
  -0.72798  -0.44759  -0.77380
  -0.90755  -0.50745  -0.81870
  -1.01229  -0.52241  -0.89352
  -1.10207  -0.50745  -0.98330
  -1.14697  -0.47752  -1.08804
  -1.08711  -0.53738  -1.22272
  -1.05718  -0.53738  -1.29754
  -0.96740  -0.46256  -1.41725
  -0.81776  -0.40270  -1.58185
  -0.71302  -0.31292  -1.79134
  -0.54842  -0.38774  -2.03076
  -0.36885  -0.44759  -2.24025
  -0.18928  -0.56731  -2.55449
   0.03517  -0.73191  -2.79391
   0.25963  -0.88154  -2.91362
   0.39430  -0.91147  -2.95851
   0.40927  -0.98629  -2.91362
   0.39430  -1.01622  -2.82384
   0.31948  -1.03118  -2.64427
   0.18481  -1.01622  -2.44975
   0.08006  -0.98629  -2.30011
   0.00524  -0.94140  -2.13551
  -0.08454  -0.86658  -1.95594
  -0.12943  -0.77680  -1.80630
  -0.15936  -0.76183  -1.65667
  -0.12943  -0.76183  -1.47710
  -0.15936  -0.80673  -1.32746
  -0.24914  -0.79176  -1.13294
  -0.27907  -0.74687  -0.99826
  -0.27907  -0.56731  -0.95337
  -0.26410  -0.25307  -0.86359
  -0.24914   0.06117  -0.78877
  -0.20425   0.24074  -0.77380
  -0.14439   0.30059  -0.80373
  -0.06957   0.36045  -0.69899
  -0.06957   0.48016  -0.53438
  -0.14439   0.55498  -0.41467
  -0.26410   0.58490  -0.28000
  -0.36885   0.52505  -0.07051
  -0.53345   0.46519   0.10906
  -0.71302   0.36045   0.27366
  -0.87762   0.25570   0.42330
  -1.02726   0.18088   0.58790
  -1.08711   0.15096   0.72257
  -1.10207   0.18088   0.75250
  -1.10207   0.16592   0.78243
  -1.11704   0.18088   0.76746
  -1.08711   0.27067   0.75250
  -1.01229   0.37541   0.73753
  -0.89258   0.51009   0.78243
  -0.77287   0.56994   0.84228
  -0.63820   0.58490   0.87221
  -0.47360   0.56994   0.87221
  -0.38381   0.54001   0.84228
  -0.32396   0.55498   0.90214
  -0.27907   0.56994   0.91710
  -0.24914   0.59987   1.03681
  -0.18928   0.65972   1.24630
  -0.18928   0.68965   1.48572
  -0.21921   0.68965   1.62040
  -0.33892   0.67469   1.69522
  -0.45863   0.64476   1.75507
  -0.59331   0.54001   1.71018
  -0.69805   0.45023   1.69522
  -0.78784   0.43527   1.66529
  -0.89258   0.40534   1.63536
  -0.84769   0.39038   1.59047
  -0.74294   0.42030   1.36601
  -0.56338   0.52505   1.00688
  -0.36885   0.61483   0.60286
  -0.15936   0.70461   0.19884
   0.09503   0.67469  -0.16029
   0.43919   0.58490  -0.41467
   0.70854   0.48016  -0.57928
   0.93300   0.36045  -0.65409
   1.09760   0.27067  -0.63913
   1.09760   0.19585  -0.54935
   0.99285   0.09110  -0.33986
   0.88811  -0.02861  -0.07051
   0.78336  -0.08846   0.10906
   0.67861  -0.13336   0.18388
   0.55890  -0.10343   0.18388
   0.39430   0.03125   0.07913
   0.30452   0.25570  -0.05554
   0.21474   0.48016  -0.17525
   0.16985   0.58490  -0.23511
   0.13992   0.62980  -0.30993
   0.09503   0.58490  -0.33986
   0.03517   0.48016  -0.36978
  -0.00972   0.43527  -0.30993
  -0.05461   0.39038  -0.19022
  -0.06957   0.39038  -0.08547
  -0.05461   0.30059   0.09409
  -0.08454   0.22577   0.27366
  -0.12943   0.12103   0.52804
  -0.20425   0.06117   0.79739
  -0.35389  -0.04357   1.00688
  -0.51849  -0.13336   1.08170
  -0.68309  -0.16328   1.05177
  -0.83273  -0.16328   0.99192
  -1.01229  -0.26803   0.84228
  -1.20682  -0.40270   0.61782
  -1.37142  -0.55234   0.34848
  -1.55099  -0.58227   0.09409
  -1.73055  -0.49249  -0.11540
  -1.89515  -0.43263  -0.30993
  -1.99990  -0.41767  -0.48949
  -1.98494  -0.46256  -0.63913
  -1.94004  -0.46256  -0.80373
  -1.83530  -0.41767  -0.89352
  -1.67070  -0.43263  -0.87855
  -1.43128  -0.47752  -0.75884
  -1.13200  -0.50745  -0.57928
  -0.83273  -0.55234  -0.41467
  -0.51849  -0.62716  -0.23511
  -0.23418  -0.68702  -0.02562
   0.03517  -0.67205   0.12402
   0.24466  -0.62716   0.27366
   0.46912  -0.43263   0.43826
   0.61876  -0.22314   0.42330
   0.75343  -0.05854   0.37840
   0.87314   0.00132   0.21380
   1.00782  -0.04357   0.01927
   1.05271  -0.16328  -0.14533
   1.12753  -0.28299  -0.22015
   1.15745  -0.34285  -0.22015
   1.14249  -0.29796  -0.19022
   1.12753  -0.08846  -0.07051
   1.08263   0.16592   0.01927
   1.06767   0.37541   0.13898
   1.08263   0.37541   0.21380
   1.12753   0.21081   0.21380
   1.17242   0.04621   0.22877
   1.17242   0.00132   0.19884
   1.15745   0.06117   0.19884
   1.21731   0.12103   0.12402
   1.26220   0.09110  -0.02562
   1.29213   0.00132  -0.32489
   1.29213  -0.11839  -0.57928
   1.18738  -0.14832  -0.74388
   1.05271  -0.11839  -0.84862
   0.93300  -0.05854  -0.93841
   0.78336   0.00132  -1.02819
   0.60379   0.00132  -1.17783
   0.43919  -0.05854  -1.31250
   0.21474  -0.16328  -1.37236
   0.05014  -0.29796  -1.31250
  -0.06957  -0.28299  -1.16286
  -0.18928  -0.29796  -0.99826
  -0.32396  -0.29796  -0.78877
  -0.44367  -0.38774  -0.63913
  -0.54842  -0.53738  -0.48949
  -0.62323  -0.62716  -0.35482
  -0.62323  -0.64212  -0.22015
  -0.57834  -0.67205  -0.11540
  -0.53345  -0.55234  -0.02562
  -0.51849  -0.34285   0.03424
  -0.59331  -0.10343   0.04920
  -0.68309   0.12103   0.03424
  -0.74294   0.21081  -0.02562
  -0.81776   0.24074  -0.14533
  -0.92251   0.22577  -0.22015
  -1.13200   0.18088  -0.29496
  -1.38639   0.03125  -0.35482
  -1.70062  -0.05854  -0.29496
  -1.85026  -0.11839  -0.30993
  -1.91012  -0.20817  -0.35482
  -1.96997  -0.11839  -0.26504
  -1.89515   0.09110  -0.14533
  -1.73055   0.25570  -0.10044
  -1.55099   0.37541  -0.08547
  -1.35646   0.40534  -0.02562
  -1.17689   0.42030  -0.04058
  -0.90755   0.40534  -0.22015
  -0.63820   0.43527  -0.36978
  -0.44367   0.49512  -0.45957
  -0.26410   0.39038  -0.54935
  -0.06957   0.22577  -0.56431
   0.08006   0.13599  -0.50446
   0.22970   0.13599  -0.38475
   0.33445   0.18088  -0.23511
   0.34941   0.28563  -0.11540
   0.27459   0.39038   0.01927
   0.19977   0.42030   0.15395
   0.08006   0.37541   0.31855
   0.06510   0.37541   0.45322
   0.13992   0.34548   0.57293
   0.25963   0.31556   0.67768
   0.46912   0.28563   0.69264
   0.63372   0.22577   0.75250
   0.81329   0.16592   0.76746
   1.02278   0.18088   0.70761
   1.24724   0.22577   0.51308
   1.44176   0.28563   0.16891
   1.59140   0.37541  -0.19022
   1.60637   0.42030  -0.51942
   1.47169   0.43527  -0.77380
   1.27716   0.30059  -0.98330
   0.96292   0.13599  -1.08804
   0.55890   0.06117  -1.10301
   0.06510   0.06117  -0.99826
  -0.42871   0.03125  -0.84862
  -0.87762  -0.01365  -0.59424
  -1.20682  -0.11839  -0.33986
  -1.38639  -0.25307  -0.08547
  -1.53602  -0.29796   0.16891
  -1.56595  -0.29796   0.24373
  -1.47617  -0.22314   0.25869
  -1.28164  -0.11839   0.24373
  -1.02726  -0.13336   0.15395
  -0.75791  -0.28299   0.01927
  -0.54842  -0.52241  -0.07051
  -0.36885  -0.73191  -0.17525
  -0.24914  -0.86658  -0.25007
  -0.15936  -0.86658  -0.30993
  -0.11447  -0.89651  -0.26504
  -0.14439  -0.86658  -0.17525
  -0.32396  -0.77680   0.01927
  -0.51849  -0.59723   0.18388
  -0.66813  -0.35781   0.37840
  -0.77287  -0.10343   0.66272
  -0.77287   0.09110   0.94703
  -0.62323   0.16592   1.17148
  -0.39878   0.24074   1.32112
  -0.15936   0.28563   1.38098
   0.08006   0.45023   1.39594
   0.30452   0.71958   1.29119
   0.63372   0.97396   1.08170
   0.99285   1.03382   0.82732
   1.33702   0.98893   0.55797
   1.65126   0.89914   0.21380
   1.92061   0.74951  -0.07051
   2.13010   0.65972  -0.33986
   2.14506   0.62980  -0.50446
   2.16003   0.61483  -0.56431
   2.07024   0.48016  -0.54935
   1.90564   0.40534  -0.38475
   1.68119   0.31556  -0.17525
   1.48666   0.18088  -0.01065
   1.29213   0.12103   0.13898
   1.12753   0.06117   0.27366
   1.14249   0.04621   0.34848
   1.23227   0.04621   0.36344
   1.41184   0.01628   0.36344
   1.68119  -0.01365   0.33351
   1.96550  -0.01365   0.27366
   2.20492  -0.04357   0.10906
   2.38448  -0.10343  -0.04058
   2.47426  -0.17825  -0.22015
   2.45930  -0.32788  -0.38475
   2.26477  -0.50745  -0.57928
   1.96550  -0.77680  -0.72891
   1.63629  -0.92644  -0.83366
   1.23227  -0.97133  -0.78877
   0.79832  -0.94140  -0.66906
   0.43919  -0.86658  -0.54935
   0.06510  -0.77680  -0.41467
  -0.32396  -0.76183  -0.32489
  -0.68309  -0.83665  -0.29496
  -0.99733  -0.89651  -0.32489
  -1.28164  -0.92644  -0.33986
  -1.59588  -0.92644  -0.29496
  -1.77544  -0.97133  -0.28000
  -1.82033  -1.09104  -0.20518
  -1.91012  -1.10600  -0.02562
  -2.05976  -0.94140   0.13898
  -2.16450  -0.79176   0.27366
  -2.23932  -0.65709   0.42330
  -2.32910  -0.52241   0.63279
  -2.43385  -0.34285   0.73753
  -2.50867  -0.23810   0.73753
  -2.61341  -0.11839   0.66272
  -2.82291   0.03125   0.57293
  -3.00247   0.19585   0.57293
  -3.10722   0.25570   0.54301
  -3.06233   0.25570   0.54301
  -3.01744   0.31556   0.54301
  -2.94262   0.36045   0.57293
  -2.77802   0.33052   0.51308
  -2.59845   0.31556   0.40833
  -2.41889   0.24074   0.30359
  -2.22436   0.18088   0.25869
  -1.96997   0.09110   0.24373
  -1.65573   0.03125   0.31855
  -1.41631   0.01628   0.45322
  -1.14697  -0.01365   0.58790
  -0.81776  -0.02861   0.72257
  -0.45863   0.06117   0.82732
  -0.21921   0.12103   0.87221
  -0.00972   0.12103   0.90214
   0.13992   0.19585   0.91710
   0.25963   0.40534   0.87221
   0.36437   0.62980   0.70761
   0.51401   0.82432   0.43826
   0.69358   0.94403   0.18388
   0.81329   1.06374  -0.04058
   0.99285   1.06374  -0.25007
   1.27716   0.94403  -0.42964
   1.48666   0.80936  -0.48949
   1.65126   0.61483  -0.45957
   1.81586   0.40534  -0.29496
   2.01039   0.24074  -0.04058
   2.16003   0.10606   0.22877
   2.17499   0.03125   0.48315
   2.13010  -0.01365   0.75250
   2.08521  -0.07350   0.97696
   1.99542  -0.07350   1.18645
   1.90564  -0.02861   1.32112
   1.74104   0.09110   1.36601
   1.48666   0.27067   1.29119
   1.18738   0.52505   1.08170
   0.94796   0.74951   0.72257
   0.66365   0.86922   0.34848
   0.43919   0.86922   0.01927
   0.30452   0.74951  -0.29496
   0.18481   0.62980  -0.54935
   0.15488   0.49512  -0.69899
   0.24466   0.39038  -0.68402
   0.31948   0.28563  -0.60920
   0.42423   0.18088  -0.44460
   0.48408   0.21081  -0.26504
   0.48408   0.24074  -0.11540
   0.49905   0.31556   0.06417
   0.42423   0.37541   0.25869
   0.27459   0.31556   0.57293
   0.03517   0.24074   0.96199
  -0.23418   0.24074   1.33609
  -0.47360   0.21081   1.56054
  -0.66813   0.16592   1.69522
  -0.83273   0.24074   1.77003
  -0.98236   0.36045   1.74011
  -0.99733   0.51009   1.63536
  -0.92251   0.64476   1.48572
  -0.84769   0.80936   1.27623
  -0.81776   0.82432   1.02185
  -0.75791   0.67469   0.76746
  -0.62323   0.42030   0.45322
  -0.36885   0.12103   0.13898
  -0.08454  -0.10343  -0.07051
   0.13992  -0.25307  -0.14533
   0.22970  -0.37278  -0.19022
   0.25963  -0.41767  -0.19022
   0.22970  -0.37278  -0.10044
   0.10999  -0.40270   0.07913
  -0.05461  -0.46256   0.24373
  -0.26410  -0.55234   0.34848
  -0.42871  -0.62716   0.46819
  -0.54842  -0.59723   0.52804
  -0.66813  -0.52241   0.57293
  -0.65316  -0.35781   0.51308
  -0.54842  -0.14832   0.39337
  -0.30900   0.06117   0.28862
   0.08006   0.16592   0.15395
   0.43919   0.21081   0.03424
   0.79832   0.12103  -0.16029
   1.11256  -0.08846  -0.25007
   1.33702  -0.29796  -0.23511
   1.56148  -0.46256  -0.17525
   1.62133  -0.59723  -0.07051
   1.60637  -0.65709   0.09409
   1.65126  -0.64212   0.12402
   1.60637  -0.55234   0.10906
   1.39687  -0.40270   0.12402
   1.09760  -0.35781   0.18388
   0.85818  -0.41767   0.25869
   0.60379  -0.56731   0.36344
   0.36437  -0.64212   0.43826
   0.18481  -0.68702   0.46819
   0.02021  -0.70198   0.46819
  -0.08454  -0.62716   0.46819
  -0.02468  -0.64212   0.43826
   0.12495  -0.70198   0.39337
   0.33445  -0.67205   0.36344
   0.46912  -0.55234   0.30359
   0.52898  -0.46256   0.19884
   0.49905  -0.35781  -0.01065
   0.37934  -0.28299  -0.20518
   0.25963  -0.23810  -0.38475
   0.13992  -0.20817  -0.54935
  -0.03965  -0.20817  -0.72891
  -0.15936  -0.22314  -0.77380
  -0.20425  -0.22314  -0.75884
  -0.23418  -0.23810  -0.71395
  -0.35389  -0.22314  -0.63913
  -0.47360  -0.19321  -0.60920
  -0.51849  -0.17825  -0.56431
  -0.60827  -0.16328  -0.48949
  -0.66813  -0.16328  -0.38475
  -0.66813  -0.05854  -0.30993
  -0.57834   0.15096  -0.29496
  -0.39878   0.22577  -0.38475
  -0.17432   0.27067  -0.44460
   0.00524   0.30059  -0.51942
   0.09503   0.30059  -0.59424
   0.16985   0.19585  -0.69899
   0.13992   0.09110  -0.80373
  -0.02468   0.00132  -0.81870
  -0.21921  -0.01365  -0.81870
  -0.35389  -0.10343  -0.86359
  -0.44367  -0.37278  -0.93841
  -0.53345  -0.65709  -1.05812
  -0.56338  -0.85162  -1.26761
  -0.56338  -0.97133  -1.44717
  -0.53345  -0.94140  -1.56688
  -0.57834  -0.89651  -1.62674
  -0.59331  -0.82169  -1.64170
  -0.53345  -0.74687  -1.59681
  -0.44367  -0.67205  -1.52199
  -0.36885  -0.59723  -1.47710
  -0.29403  -0.53738  -1.50703
  -0.17432  -0.46256  -1.52199
  -0.15936  -0.38774  -1.58185
  -0.12943  -0.38774  -1.64170
  -0.18928  -0.41767  -1.68659
  -0.21921  -0.37278  -1.62674
  -0.32396  -0.32788  -1.52199
  -0.47360  -0.19321  -1.34243
  -0.62323  -0.02861  -1.14790
  -0.72798   0.10606  -0.89352
  -0.81776   0.27067  -0.63913
  -0.83273   0.43527  -0.50446
  -0.68309   0.62980  -0.48949
  -0.38381   0.71958  -0.44460
  -0.09950   0.65972  -0.38475
