********************************************************************************
              CENTRO DE INSTRUMENTACION Y REGISTRO SISMICO  A.C.

    Anaxagoras 814, Col. Narvarte, Benito Juarez, C.P. 03020 Mexico, D.F.
           Tels. 5687 45 42/ 5687 45  82             Fax. 5669 25 12
********************************************************************************
ARCHIVO ESTANDAR DE ACELERACION:
VERSION DEL FORMATO                    : 2.0
NOMBRE DEL ARCHIVO                     : AE0220111211014725
FECHA Y HORA DE CREACION               : 04/ENE/12, 12:26
REF. CATALOGO ACELEROGRAMAS, SMIS 1996 : REGISTRO No.     /PAG.


================================================================================
DATOS DE LA ESTACION:
NOMBRE DE LA ESTACION                  : ESC. PRIM. "GONZÁLEZ GARZÓN"
CLAVE DE LA ESTACION                   : AE02
LOCALIZACION DE LA ESTACION            : Del. Venustiano Carranza,              
                                       : Col. El Arenal 4a. Sección,            
                                       : Calle Xico esq. con calle Xocoyote.    
                                       :                                        
                                       : 
COORDENADAS DE LA ESTACION             : 19.4290 LAT. N
                                       : 99.0584 LONG. W
ALTITUD (msnm)                         : 2232
TIPO DE SUELO                          : Arcilloso, zona lago                
                                       :                           
                                       : 
INSTITUCION RESPONSABLE                : CIRES
                                       : 

================================================================================
DATOS DEL ACELEROGRAFO:
MODELO DEL ACELEROGRAFO                : RADESD
NUMERO DE SERIE DEL ACELEROGRAFO       : 242
NUMERO DE CANALES                      : 3
ORIENTACION C1-C6 (rumbo;orientacion)  : /N00E/+V/N90W
ORIENTACION C7-C12 (rumbo;orientacion) : 
VEL. DE MUESTREO, C1-C6 (muestras/s)   : /100/100/100
VEL. DE MUESTREO, C7-C12 (muestras/s)  : 
ESC. COMPLETA DE SENSORES, C1-C6, (g)  : /0.5/0.5/0.5
ESC. COMPLETA DE SENSORES, C7-C12, (g) : 
FREC. NAT. DE SENSORES, C1-C6, (Hz)    : /30/30/30
FREC. NAT. DE SENSORES, C7-C12, (Hz)   : 
AMORTIGUAMIENTO DE SENSORES, C1-C6     : /0.733/0.750/0.700
AMORTIGUAMIENTO DE SENSORES, C7-C12    : 
INTERVALO DE MUESTREO, C1-C6, (s)      : /0.01/0.01/0.01
INTERVALO DE MUESTREO, C7-C12, (s)     : 
UMBRAL DE DISPARO, C1-C6, (Gal)        : /1.92/9.58/2.63
UMBRAL DE DISPARO, C7-C12, (Gal)       : 
MEMORIA DE PREEVENTO (s)               : 56.0
TIEMPO DE POSEVENTO (s)                : 64.0


================================================================================
DATOS DEL SISMO:
FECHA DEL SISMO (GMT)                  : 11/DIC/11
HORA EPICENTRO (GMT)                   : 01:47:25.0
MAGNITUD(ES)                           : /Mc=6.5
COORDENADAS DEL EPICENTRO              : 17.84 LAT. N
                                       : 99.98 LONG. W
PROFUNDIDAD FOCAL (km)                 : 58
FUENTE DE LOS DATOS EPICENTRALES       : SSN
                                       : INSTITUTO DE GEOFISICA, UNAM

================================================================================
DATOS DE ESTE REGISTRO:
HORA DE LA PRIMERA MUESTRA (GMT)       : 01:48:00.00
EXACTITUD DEL TIEMPO (s)               : 0.01
DURACION DEL REGISTRO (s), C1-C6       : /372.0/372.0/372.0
DURACION DEL REGISTRO (s), C7-C12      : 
NUM. TOTAL DE MUESTRAS, C1-C6          : /37200/37200/37200
NUM. TOTAL DE MUESTRAS, C7-C12         : 
ACEL. MAX. (Gal), C1-C6                : /27.60603/7.72215/17.21647
ACEL. MAX., C1-C6, EN LA MUESTRA       : /9185/5423/9997
ACEL. MAX. (Gal), C7-C12               : 
ACEL. MAX., C7-C12, EN LA MUESTRA      : 
UNIDADES DE LOS DATOS                  : Gal (cm/s/s)
FACTOR DE DECIMACION                   : 1
FORMATO DATOS (FORTRAN,10 campos/dato) : 3F10.5


================================================================================
CALIDAD DEL ACELEROGRAMA:
REGISTRO DIGITAL COMPLETO CON TIEMPO ABSOLUTO CORRECTO.


================================================================================
COMENTARIOS:














================================================================================
DATOS DE ACELERACION:
---------+---------+---------+---------+---------+---------+---------+---------+
   CANAL-1   CANAL-2   CANAL-3   CANAL-4   CANAL-5   CANAL-6   CANAL-7   CANAL-8
      N00E        +V      N90W
---------+---------+---------+---------+---------+---------+---------+---------+
[...]
  -1.60323  -0.30012  -2.13300
  -1.60323  -0.30012  -1.89358
  -1.60323  -0.06070  -1.41474
  -1.60323  -0.06070  -1.17532
  -2.08207   0.17872  -0.93590
  -2.32149   0.41814  -0.69648
  -2.80033   0.41814  -0.45706
  -3.03975   0.65756   0.02178
  -3.51859   0.89698   0.26120
  -3.99743   0.89698   0.50062
  -4.23685   1.13640   0.97946
  -4.95511   1.13640   1.45830
  -5.67337   1.13640   1.93714
  -6.39163   0.89698   2.41598
  -7.34931   0.89698   2.65540
  -8.54641   0.89698   3.13424
  -9.50409   0.89698   3.61308
  -9.98293   0.89698   3.85250
 -10.22235   0.65756   4.09192
 -10.70119   0.41814   4.09192
 -10.94061   0.17872   4.09192
 -10.94061  -0.06070   3.85250
 -11.18003  -0.30012   3.37366
 -11.18003  -0.53954   2.89482
 -11.18003  -0.30012   2.65540
 -10.94061  -0.53954   2.41598
 -10.94061  -0.53954   1.69772
 -10.70119  -0.77897   1.45830
 -10.46177  -1.01839   0.97946
 -10.22235  -1.25781   0.50062
  -9.74351  -1.73665  -0.21764
  -9.50409  -1.97607  -0.69648
  -9.26467  -1.97607  -0.93590
  -9.02525  -1.97607  -1.17532
  -8.30699  -1.73665  -1.17532
  -8.06757  -1.73665  -0.93590
  -7.58873  -1.49723  -0.69648
  -7.10989  -1.49723  -0.21764
  -6.39163  -1.25781   0.50062
  -5.91279  -1.25781   1.21888
  -5.19453  -1.25781   1.93714
  -4.47627  -1.01839   2.65540
  -3.99743  -0.77897   3.13424
  -2.80033  -0.30012   3.85250
  -2.08207   0.17872   4.33134
  -1.36381   0.65756   5.04960
  -0.88497   0.89698   5.52844
  -0.16671   1.13640   6.24670
   0.31213   0.89698   6.96496
   0.31213   0.89698   7.20438
   0.55155   0.89698   7.68322
   0.79097   0.41814   7.92264
   0.79097   0.41814   7.92264
   0.79097   0.41814   7.68322
   0.79097   0.17872   7.44380
   0.55155   0.41814   6.96496
   0.79097   0.41814   6.24670
   1.03039   0.89698   5.76786
   1.50924   0.89698   5.28902
   1.98808   0.89698   4.81018
   2.70634   0.89698   4.57076
   3.18518   0.89698   4.33134
   3.90344   1.13640   3.85250
   4.38228   1.61524   3.61308
   4.62170   1.61524   3.37366
   5.10054   1.61524   3.37366
   5.57938   1.85466   3.13424
   5.81880   1.61524   3.13424
   6.05822   1.61524   3.37366
   6.29764   1.13640   3.61308
   6.29764   0.89698   3.85250
   6.29764   0.89698   4.09192
   6.53706   0.65756   4.57076
   6.77648   0.65756   4.81018
   7.01590   0.41814   5.04960
   7.01590   0.41814   5.04960
   7.49474   0.41814   5.04960
   7.97358   0.65756   5.04960
   8.45242   1.13640   5.28902
   8.93126   1.37582   5.76786
   9.41010   1.61524   6.00728
   9.88894   1.61524   6.48612
   9.88894   1.61524   7.20438
  10.12836   1.61524   7.44380
  10.12836   1.61524   7.68322
  10.12836   1.85466   7.68322
   9.88894   1.85466   7.44380
   9.88894   1.85466   7.20438
   9.64952   1.85466   6.72554
   9.41010   1.61524   6.00728
   8.93126   1.85466   5.28902
   8.45242   1.85466   4.81018
   7.73416   1.85466   4.33134
   7.25532   1.85466   3.85250
   6.53706   1.61524   3.13424
   5.57938   1.61524   2.41598
   4.86112   1.37582   1.21888
   4.14286   1.37582   0.02178
   3.42460   1.13640  -1.17532
   2.94576   1.13640  -2.13300
   2.46692   0.89698  -2.85126
   1.98808   0.65756  -3.56952
   1.50924   0.65756  -3.80894
   1.03039   0.17872  -3.80894
   0.55155  -0.30012  -3.80894
  -0.16671  -0.53954  -3.80894
  -0.64555  -0.77897  -3.56952
  -1.36381  -1.01839  -3.56952
  -2.08207  -1.01839  -3.33010
  -3.03975  -1.01839  -3.09068
  -3.75801  -1.01839  -2.85126
  -4.47627  -1.01839  -2.61184
  -5.43395  -0.77897  -2.37242
  -6.39163  -0.06070  -1.89358
  -7.34931   0.41814  -1.65416
  -8.54641   0.65756  -1.41474
  -9.50409   0.89698  -1.17532
 -10.70119   0.89698  -1.17532
 -11.65887   0.89698  -1.17532
 -12.61655   1.13640  -1.17532
 -13.57424   0.89698  -1.17532
 -14.29250   0.89698  -1.17532
 -15.01076   0.65756  -1.17532
 -15.72902   0.65756  -1.41474
 -16.44728   0.65756  -1.65416
 -17.16554   0.41814  -1.89358
 -17.40496  -0.06070  -2.37242
 -17.88380  -0.53954  -2.85126
 -17.88380  -1.01839  -3.56952
 -17.64438  -1.73665  -4.28778
 -17.64438  -1.97607  -5.00604
 -17.16554  -1.97607  -5.72430
 -16.44728  -2.21549  -6.20314
 -15.72902  -2.21549  -6.68199
 -15.01076  -2.45491  -6.68199
 -14.05308  -2.69433  -6.68199
 -13.33482  -2.93375  -6.44256
 -12.85597  -2.93375  -5.96372
 -12.13771  -2.93375  -5.24546
 -11.65887  -3.17317  -4.28778
 -11.18003  -2.93375  -3.33010
 -10.70119  -2.93375  -2.61184
 -10.46177  -2.93375  -1.89358
  -9.98293  -2.69433  -1.41474
  -9.50409  -2.69433  -1.17532
  -9.02525  -2.93375  -1.17532
  -8.54641  -2.93375  -1.17532
  -8.54641  -2.69433  -1.17532
  -8.30699  -2.69433  -1.17532
  -8.06757  -2.69433  -0.93590
  -8.06757  -2.69433  -0.93590
  -8.30699  -2.45491  -0.69648
  -8.54641  -2.21549  -0.69648
  -9.02525  -1.97607  -0.69648
  -9.26467  -1.49723  -0.69648
  -9.26467  -1.01839  -0.69648
  -9.50409  -0.53954  -0.69648
  -9.50409  -0.06070  -0.93590
  -9.26467  -0.06070  -0.93590
  -9.02525   0.17872  -0.93590
  -8.78583   0.17872  -0.93590
  -8.30699  -0.06070  -0.93590
  -8.06757  -0.06070  -1.17532
  -7.34931  -0.06070  -1.41474
  -6.63105  -0.30012  -1.89358
  -5.91279  -0.30012  -2.37242
  -4.95511  -0.06070  -3.09068
  -3.99743  -0.06070  -3.80894
  -3.27917   0.41814  -4.52720
  -2.80033   0.41814  -5.00604
  -2.32149   0.41814  -5.72430
  -1.84265   0.41814  -5.72430
  -1.36381   0.17872  -5.72430
  -1.12439   0.17872  -5.72430
  -1.12439   0.41814  -5.48488
  -1.12439   0.41814  -5.24546
  -1.36381   0.65756  -5.24546
  -1.60323   0.65756  -5.24546
  -1.84265   0.65756  -5.48488
  -1.84265   0.41814  -5.48488
  -2.32149   0.17872  -5.72430
  -2.56091   0.17872  -5.96372
  -3.03975   0.17872  -6.44256
  -3.51859   0.17872  -6.44256
  -4.23685   0.41814  -6.68199
  -4.95511   0.65756  -6.92141
  -5.43395   0.89698  -6.68199
  -5.67337   1.13640  -6.92141
  -5.67337   1.37582  -6.68199
  -5.43395   1.61524  -6.44256
  -4.71569   1.61524  -5.96372
  -4.23685   1.61524  -5.48488
  -3.51859   1.37582  -5.00604
  -2.80033   1.13640  -4.28778
  -1.84265   0.89698  -4.04836
  -1.12439   0.89698  -3.56952
  -0.16671   0.89698  -3.33010
   0.79097   0.65756  -3.33010
   1.74866   0.41814  -3.56952
   3.18518   0.41814  -4.04836
   4.38228   0.17872  -4.52720
   5.81880  -0.06070  -4.76662
   6.77648   0.17872  -5.24546
   7.73416   0.17872  -5.24546
   8.21300   0.17872  -5.24546
   8.45242   0.17872  -5.24546
   8.45242   0.17872  -5.00604
   8.21300   0.41814  -4.76662
   7.97358   0.65756  -4.28778
   7.49474   1.13640  -3.80894
   6.77648   1.37582  -3.33010
   6.05822   1.61524  -2.61184
   5.33996   1.85466  -1.89358
   4.62170   1.85466  -1.17532
   4.14286   2.09408  -0.21764
   3.42460   2.09408   0.50062
   2.94576   2.33350   1.45830
   2.46692   2.57292   2.17656
   2.22750   2.81234   2.65540
   1.98808   2.81234   3.13424
   1.74866   2.33350   3.37366
   1.98808   2.33350   3.13424
   1.74866   2.09408   2.89482
   1.50924   1.85466   2.65540
   1.03039   1.85466   2.17656
   0.31213   1.37582   1.69772
  -0.16671   1.13640   1.21888
  -0.40613   0.89698   0.74004
  -0.64555   0.65756   0.50062
  -0.88497   0.65756   0.02178
  -0.88497   0.41814  -0.21764
  -0.64555  -0.06070  -0.69648
  -0.64555  -0.30012  -0.93590
  -0.40613  -0.30012  -1.41474
  -0.40613  -0.30012  -1.65416
  -0.64555  -0.06070  -1.65416
  -0.88497  -0.06070  -1.89358
  -1.36381   0.41814  -2.13300
  -1.84265   0.41814  -2.37242
  -2.08207   0.41814  -2.85126
  -2.08207   0.41814  -3.33010
  -2.08207   0.65756  -3.80894
  -2.08207   0.89698  -4.04836
  -1.60323   0.89698  -4.52720
  -1.60323   0.89698  -4.76662
  -1.60323   0.89698  -4.76662
  -1.84265   1.13640  -4.52720
  -2.08207   0.89698  -4.28778
  -2.32149   0.89698  -4.04836
  -2.56091   0.65756  -3.56952
  -2.56091   0.65756  -2.85126
  -2.56091   0.65756  -2.13300
  -2.32149   0.89698  -1.41474
  -2.08207   0.89698  -0.93590
  -1.60323   0.65756  -0.69648
  -1.36381   0.41814  -0.21764
  -1.12439   0.17872  -0.21764
  -0.88497  -0.06070  -0.21764
  -0.40613  -0.30012  -0.21764
  -0.16671  -0.77897  -0.69648
   0.31213  -1.25781  -1.17532
   0.79097  -1.49723  -1.89358
   1.03039  -1.49723  -2.37242
   1.26982  -1.49723  -2.85126
   1.26982  -1.49723  -3.09068
   1.50924  -1.25781  -3.33010
   1.74866  -1.25781  -3.09068
   1.74866  -1.01839  -3.09068
   1.74866  -1.01839  -2.61184
   1.98808  -1.01839  -2.13300
   2.46692  -1.01839  -1.65416
   2.70634  -1.25781  -1.41474
   3.18518  -1.25781  -0.93590
   3.42460  -1.25781  -0.45706
   3.90344  -1.01839   0.02178
   4.14286  -1.01839   0.50062
   3.90344  -0.53954   0.74004
   3.90344  -0.53954   0.74004
   3.66402  -0.53954   0.50062
   2.94576  -0.53954   0.26120
   1.98808  -0.77897  -0.45706
   1.03039  -1.25781  -0.93590
   0.07271  -1.73665  -1.41474
  -1.12439  -1.97607  -1.65416
  -2.32149  -2.21549  -2.13300
  -3.51859  -2.21549  -2.13300
  -4.71569  -2.21549  -1.89358
  -5.67337  -2.21549  -1.89358
  -6.87047  -2.21549  -1.89358
  -8.06757  -2.21549  -1.65416
  -9.26467  -2.21549  -1.41474
 -10.22235  -1.97607  -1.17532
 -11.18003  -1.97607  -1.17532
 -11.89829  -1.73665  -1.17532
 -12.37713  -2.21549  -0.93590
 -12.61655  -2.45491  -1.17532
 -12.61655  -2.69433  -1.17532
 -12.61655  -2.69433  -1.41474
 -12.37713  -2.69433  -1.65416
 -11.89829  -2.69433  -1.89358
 -11.18003  -2.69433  -2.13300
 -10.46177  -2.45491  -2.61184
  -9.74351  -2.45491  -2.85126
  -8.78583  -2.45491  -3.09068
  -8.30699  -2.45491  -3.33010
  -7.34931  -2.21549  -3.33010
  -6.63105  -1.97607  -3.09068
  -5.91279  -1.73665  -2.61184
  -5.67337  -1.49723  -2.13300
  -5.19453  -1.01839  -1.89358
  -4.71569  -0.77897  -1.41474
  -4.23685  -0.30012  -1.17532
  -3.99743   0.17872  -0.93590
  -3.99743   0.65756  -0.69648
  -3.75801   1.13640  -0.45706
  -3.27917   1.37582  -0.45706
  -2.80033   1.61524  -0.21764
  -2.32149   1.85466   0.26120
  -1.60323   2.09408   0.50062
  -0.88497   2.09408   0.74004
  -0.16671   2.09408   0.97946
   0.79097   2.33350   1.21888
   1.50924   2.09408   1.45830
   2.70634   1.61524   1.45830
   3.66402   1.37582   1.45830
   4.62170   1.37582   1.21888
   5.57938   1.13640   1.21888
   7.01590   1.13640   1.21888
   8.21300   0.89698   1.21888
   9.41010   0.41814   1.21888
  10.84662  -0.06070   1.21888
  12.04372  -0.30012   1.21888
  13.48024  -0.53954   1.21888
  14.91676  -0.77897   1.21888
  16.11387  -0.77897   1.21888
  17.07155  -1.01839   1.45830
  18.50807  -1.01839   1.45830
  19.70517  -0.77897   1.69772
  20.90227  -0.53954   2.17656
  22.09937  -0.30012   2.65540
  23.05705  -0.06070   3.13424
  24.01473   0.41814   3.61308
  24.97241   0.65756   4.09192
  25.93009   1.13640   4.33134
  26.40893   1.61524   4.57076
  26.88777   1.85466   4.57076
  27.36661   1.85466   4.57076
  27.60603   1.85466   4.57076
  27.60603   1.85466   4.33134
  27.12719   1.61524   4.33134
  26.16951   1.61524   4.09192
  24.97241   1.37582   4.09192
  23.77531   1.37582   4.33134
  22.33879   1.37582   4.57076
  20.66285   1.13640   4.33134
  19.22633   0.89698   3.85250
  17.78981   0.89698   3.61308
  16.35329   0.65756   3.37366
  15.15618   0.65756   3.13424
  13.95908   0.41814   2.65540
  12.76198   0.41814   2.17656
  11.80430   0.41814   1.93714
  11.08604   0.41814   1.69772
  10.60720   0.41814   1.93714
   9.88894   0.41814   1.69772
   9.64952   0.41814   1.93714
   9.17068   0.17872   1.69772
   8.69184  -0.06070   1.45830
   8.45242  -0.30012   1.45830
   7.97358  -0.77897   1.45830
   7.73416  -1.01839   1.45830
   7.49474  -1.25781   1.69772
   7.25532  -1.25781   2.17656
   7.01590  -1.25781   2.65540
   6.77648  -1.25781   3.13424
   6.53706  -0.77897   3.61308
   6.05822  -0.30012   4.09192
   5.57938   0.41814   4.33134
   5.10054   1.13640   4.57076
   4.62170   1.85466   4.57076
   4.14286   2.57292   4.81018
   3.18518   3.05176   4.81018
   2.70634   3.29118   4.81018
   1.74866   3.53060   4.57076
   1.03039   3.53060   4.33134
   0.07271   3.53060   4.09192
  -0.64555   3.29118   3.61308
  -1.60323   3.05176   3.13424
  -2.56091   2.57292   3.13424
  -3.51859   2.09408   2.65540
  -4.23685   1.85466   2.17656
  -5.19453   1.37582   2.17656
  -5.91279   1.13640   1.93714
  -6.39163   0.65756   2.17656
  -6.87047   0.17872   2.17656
  -7.10989  -0.06070   2.17656
  -7.58873  -0.06070   2.17656
  -7.82815  -0.06070   2.41598
  -8.06757   0.17872   2.41598
  -8.30699   0.17872   2.17656
  -8.54641   0.41814   2.17656
  -8.78583   0.41814   1.69772
  -8.78583   0.65756   1.21888
  -8.54641   0.89698   0.50062
  -8.30699   0.89698   0.02178
  -7.58873   0.89698  -0.45706
  -6.87047   0.89698  -0.93590
  -6.15221   1.13640  -1.41474
  -5.19453   1.13640  -1.65416
  -4.23685   1.13640  -1.65416
  -3.03975   1.37582  -1.89358
  -2.32149   0.89698  -1.89358
  -1.36381   0.65756  -2.13300
  -0.88497   0.17872  -2.61184
  -0.40613  -0.06070  -2.61184
   0.07271  -0.53954  -2.61184
   0.31213  -0.77897  -2.85126
   0.79097  -1.25781  -2.85126
   0.79097  -1.97607  -3.09068
   1.03039  -2.45491  -3.33010
   1.26982  -2.93375  -3.56952
   1.50924  -3.17317  -3.80894
   1.74866  -3.89143  -3.80894
   1.74866  -4.37027  -4.04836
   1.98808  -4.60969  -4.52720
   2.46692  -4.60969  -4.52720
   2.94576  -4.60969  -4.76662
   3.66402  -4.37027  -4.76662
   4.38228  -4.13085  -4.76662
   5.33996  -3.89143  -4.52720
   6.05822  -3.65201  -4.28778
   6.53706  -3.89143  -4.28778
   7.01590  -3.65201  -4.04836
   7.73416  -3.65201  -3.56952
   8.21300  -3.65201  -3.56952
   8.69184  -3.41259  -3.33010
   8.93126  -3.65201  -3.09068
   8.93126  -3.65201  -2.85126
   8.93126  -3.41259  -2.61184
   8.69184  -3.41259  -2.13300
   8.45242  -3.17317  -1.65416
   7.97358  -2.93375  -1.41474
   7.49474  -2.93375  -1.17532
   7.01590  -2.69433  -0.93590
   6.05822  -2.45491  -0.69648
   5.33996  -2.69433  -0.21764
   4.38228  -2.45491   0.26120
   3.66402  -2.45491   0.74004
   2.94576  -2.45491   0.97946
   2.22750  -1.97607   1.21888
   1.74866  -1.49723   1.45830
   1.26982  -1.01839   1.93714
   0.79097  -0.30012   2.41598
   0.07271   0.17872   2.65540
  -0.64555   0.89698   2.89482
  -1.36381   1.37582   2.89482
  -2.08207   1.85466   3.13424
  -2.80033   2.33350   3.61308
  -3.27917   2.81234   4.09192
  -3.51859   3.05176   4.81018
  -3.75801   3.05176   5.52844
  -3.75801   3.53060   6.00728
  -3.75801   3.53060   6.72554
  -3.75801   3.77002   7.20438
  -3.51859   3.77002   7.68322
  -3.27917   3.77002   8.16207
  -3.27917   3.53060   8.64091
  -3.03975   3.05176   8.64091
  -2.80033   3.05176   8.88033
  -2.32149   2.57292   8.40149
  -1.84265   2.57292   7.92264
  -0.88497   2.33350   7.44380
   0.07271   2.33350   6.96496
   0.79097   2.33350   6.48612
   1.74866   2.09408   5.52844
   2.70634   2.09408   4.81018
   3.18518   2.09408   3.85250
   3.66402   2.33350   2.89482
   4.14286   2.57292   2.17656
   4.86112   2.81234   1.45830
   5.57938   2.81234   0.74004
   6.05822   3.05176   0.26120
   6.53706   3.05176  -0.21764
   6.77648   3.05176  -0.21764
   7.01590   3.29118  -0.45706
   7.25532   3.05176  -0.45706
   7.73416   3.05176  -0.45706
   7.73416   2.81234  -0.21764
   7.73416   2.57292   0.02178
   7.73416   2.57292   0.26120
   7.73416   2.33350   0.50062
   7.73416   2.09408   0.74004
   7.97358   1.85466   1.21888
   7.97358   1.37582   1.45830
   7.73416   1.37582   2.17656
   7.49474   1.13640   2.65540
