********************************************************************************
              CENTRO DE INSTRUMENTACION Y REGISTRO SISMICO  A.C.

    Anaxagoras 814, Col. Narvarte, Benito Juarez, C.P. 03020 Mexico, D.F.
           Tels. 5687 45 42/ 5687 45  82             Fax. 5669 25 12
********************************************************************************
ARCHIVO ESTANDAR DE ACELERACION:
VERSION DEL FORMATO                    : 2.0
NOMBRE DEL ARCHIVO                     : AE0220090522192418
FECHA Y HORA DE CREACION               : 24/JUN/09, 01:39
REF. CATALOGO ACELEROGRAMAS, SMIS 1996 : REGISTRO No.     /PAG.


================================================================================
DATOS DE LA ESTACION:
NOMBRE DE LA ESTACION                  : ESC. PRIM. "GONZÁLEZ GARZÓN"
CLAVE DE LA ESTACION                   : AE02
LOCALIZACION DE LA ESTACION            : Del. Venustiano Carranza,              
                                       : Col. El Arenal 4a. Sección,            
                                       : Calle Xico esq. con calle Xocoyote.    
                                       :                                        
                                       : 
COORDENADAS DE LA ESTACION             : 19.4290 LAT. N
                                       : 99.0584 LONG. W
ALTITUD (msnm)                         : 2232
TIPO DE SUELO                          : Arcilloso, zona lago                
                                       :                           
                                       : 
INSTITUCION RESPONSABLE                : CIRES
                                       : 

================================================================================
DATOS DEL ACELEROGRAFO:
MODELO DEL ACELEROGRAFO                : RADESD
NUMERO DE SERIE DEL ACELEROGRAFO       : 242
NUMERO DE CANALES                      : 3
ORIENTACION C1-C6 (rumbo;orientacion)  : /N00E/+V/N90W
ORIENTACION C7-C12 (rumbo;orientacion) : 
VEL. DE MUESTREO, C1-C6 (muestras/s)   : /100/100/100
VEL. DE MUESTREO, C7-C12 (muestras/s)  : 
ESC. COMPLETA DE SENSORES, C1-C6, (g)  : /0.5/0.5/0.5
ESC. COMPLETA DE SENSORES, C7-C12, (g) : 
FREC. NAT. DE SENSORES, C1-C6, (Hz)    : /30/30/30
FREC. NAT. DE SENSORES, C7-C12, (Hz)   : 
AMORTIGUAMIENTO DE SENSORES, C1-C6     : /0.733/0.750/0.700
AMORTIGUAMIENTO DE SENSORES, C7-C12    : 
INTERVALO DE MUESTREO, C1-C6, (s)      : /0.01/0.01/0.01
INTERVALO DE MUESTREO, C7-C12, (s)     : 
UMBRAL DE DISPARO, C1-C6, (Gal)        : /2.87/9.58/9.58
UMBRAL DE DISPARO, C7-C12, (Gal)       : 
MEMORIA DE PREEVENTO (s)               : 56.0
TIEMPO DE POSEVENTO (s)                : 64.0


================================================================================
DATOS DEL SISMO:
FECHA DEL SISMO (GMT)                  : 22/MAY/09
HORA EPICENTRO (GMT)                   : 19:24:18.0
MAGNITUD(ES)                           : /Mc=5.7
COORDENADAS DEL EPICENTRO              : 18.13 LAT. N
                                       : 98.44 LONG. W
PROFUNDIDAD FOCAL (km)                 : 45
FUENTE DE LOS DATOS EPICENTRALES       : SSN
                                       : INSTITUTO DE GEOFISICA, UNAM

================================================================================
DATOS DE ESTE REGISTRO:
HORA DE LA PRIMERA MUESTRA (GMT)       : 19:25:00.00
EXACTITUD DEL TIEMPO (s)               : 0.01
DURACION DEL REGISTRO (s), C1-C6       : /130.25/130.25/130.25
DURACION DEL REGISTRO (s), C7-C12      : 
NUM. TOTAL DE MUESTRAS, C1-C6          : /13025/13025/13025
NUM. TOTAL DE MUESTRAS, C7-C12         : 
ACEL. MAX. (Gal), C1-C6                : /28.45352/7.01908/14.36795
ACEL. MAX., C1-C6, EN LA MUESTRA       : /5711/5835/5744
ACEL. MAX. (Gal), C7-C12               : 
ACEL. MAX., C7-C12, EN LA MUESTRA      : 
UNIDADES DE LOS DATOS                  : Gal (cm/s/s)
FACTOR DE DECIMACION                   : 1
FORMATO DATOS (FORTRAN,10 campos/dato) : 3F10.5


================================================================================
CALIDAD DEL ACELEROGRAMA:
REGISTRO DIGITAL COMPLETO CON TIEMPO ABSOLUTO CORRECTO.


================================================================================
COMENTARIOS:














================================================================================
DATOS DE ACELERACION:
---------+---------+---------+---------+---------+---------+---------+---------+
   CANAL-1   CANAL-2   CANAL-3   CANAL-4   CANAL-5   CANAL-6   CANAL-7   CANAL-8
      N00E        +V      N90W
---------+---------+---------+---------+---------+---------+---------+---------+
[...]
  -0.92020  -0.79416  -0.47610
  -0.92020  -0.31532  -0.23668
  -0.92020  -0.31532  -0.47610
  -0.92020  -0.07590  -0.71552
  -0.92020   0.16352  -0.47610
  -0.92020   0.16352  -0.47610
  -1.15962  -0.07590  -0.23668
  -1.15962  -0.07590  -0.47610
  -1.15962  -0.07590  -0.47610
  -1.15962  -0.07590  -0.47610
  -0.92020  -0.07590  -0.47610
  -0.92020  -0.07590  -0.47610
  -0.92020  -0.07590  -0.71552
  -0.92020   0.16352  -0.95494
  -0.68078  -0.07590  -0.71552
  -0.44136  -0.07590  -0.95494
  -0.20194   0.16352  -1.19436
  -0.20194   0.40294  -1.19436
   0.03748   0.40294  -0.95494
   0.27690   0.88178  -0.71552
   0.27690   0.64236  -0.71552
   0.27690   0.88178  -0.95494
   0.27690   0.64236  -1.19436
   0.27690   0.64236  -0.95494
   0.27690   0.64236  -0.95494
   0.51632   0.64236  -0.95494
   0.51632   0.40294  -0.95494
   0.51632  -0.07590  -0.95494
   0.51632  -0.55474  -0.71552
   0.75574  -1.03358  -0.71552
   0.75574  -1.03358  -0.71552
   0.75574  -1.03358  -0.71552
   0.75574  -1.27300  -0.71552
   0.51632  -1.27300  -0.47610
   0.75574  -1.27300  -0.23668
   0.51632  -1.75184  -0.23668
   0.51632  -1.75184  -0.23668
   0.27690  -1.75184  -0.47610
   0.27690  -1.27300   0.00274
   0.27690  -0.79416   0.00274
   0.03748  -0.31532   0.00274
   0.27690  -0.31532   0.24216
   0.27690  -0.31532   0.48158
   0.27690  -0.07590   0.48158
   0.27690   0.16352   0.48158
   0.03748   0.16352   0.48158
   0.03748   0.16352   0.72100
   0.03748   0.16352   0.72100
   0.03748   0.16352   0.48158
   0.03748  -0.07590   0.72100
   0.03748  -0.07590   0.72100
   0.27690   0.16352   0.72100
   0.27690   0.16352   0.72100
   0.51632   0.40294   0.96042
   0.51632   0.40294   1.19984
   0.75574   0.64236   1.19984
   0.51632   0.88178   1.19984
   0.51632   1.12120   1.19984
   0.75574   1.12120   1.19984
   0.75574   1.36062   1.19984
   0.75574   1.60004   1.19984
   0.75574   1.36062   1.19984
   0.75574   0.88178   1.19984
   0.75574   0.64236   1.19984
   0.75574   0.88178   1.19984
   0.75574   0.88178   1.19984
   0.51632   0.88178   1.43926
   0.27690   0.64236   1.43926
   0.27690   0.40294   1.43926
   0.27690   0.16352   1.19984
   0.03748   0.16352   0.96042
   0.03748   0.16352   0.72100
   0.03748   0.64236   0.72100
   0.03748   0.88178   0.72100
   0.03748   0.88178   0.72100
   0.03748   0.64236   0.96042
   0.03748   0.40294   0.72100
   0.03748   0.40294   0.72100
   0.03748   0.40294   0.72100
  -0.20194   0.40294   0.48158
  -0.20194   0.40294   0.48158
  -0.20194   0.40294   0.24216
  -0.20194   0.16352   0.24216
  -0.20194   0.16352   0.24216
  -0.20194   0.40294   0.24216
   0.03748   0.64236   0.00274
   0.03748   0.88178   0.24216
   0.03748   0.88178   0.48158
   0.03748   0.64236   0.24216
   0.03748   0.16352   0.48158
   0.03748  -0.31532   0.24216
   0.03748  -0.55474   0.00274
   0.03748  -1.03358  -0.23668
   0.03748  -1.27300  -0.23668
   0.03748  -1.75184   0.00274
   0.03748  -1.99126  -0.23668
   0.03748  -1.99126  -0.47610
   0.03748  -1.75184  -0.47610
  -0.20194  -1.03358  -0.47610
   0.03748  -0.55474  -0.71552
  -0.20194   0.16352  -0.71552
  -0.20194   0.64236  -0.95494
  -0.44136   0.64236  -0.71552
  -0.92020   0.40294  -0.71552
  -1.15962  -0.07590  -0.71552
  -1.15962  -0.31532  -0.95494
  -1.15962  -0.07590  -1.19436
  -0.92020  -0.07590  -1.19436
  -1.15962   0.16352  -0.95494
  -1.15962  -0.07590  -0.95494
  -0.92020  -0.31532  -0.71552
  -1.15962  -0.31532  -0.71552
  -1.15962  -0.31532  -0.47610
  -0.92020  -0.07590  -0.47610
  -0.68078   0.40294   0.00274
  -0.44136   0.88178  -0.23668
  -0.44136   1.36062   0.00274
   0.03748   1.60004   0.24216
  -0.20194   1.83946   0.24216
   0.03748   1.60004   0.24216
   0.27690   1.60004   0.00274
   0.27690   1.60004  -0.23668
   0.27690   1.36062  -0.23668
   0.27690   1.12120  -0.23668
   0.27690   0.88178  -0.23668
   0.27690   0.64236   0.00274
   0.27690  -0.07590   0.00274
   0.99516  -0.79416  -0.47610
   0.99516  -1.51242  -0.47610
   0.75574  -2.23068  -0.47610
   0.51632  -2.23068  -0.23668
   0.27690  -2.47010  -0.23668
   0.03748  -2.23068  -0.23668
  -0.20194  -1.99126   0.00274
   0.03748  -1.75184   0.24216
   0.03748  -0.79416   0.24216
   0.27690   0.16352   0.00274
   0.27690   0.88178   0.00274
   0.27690   1.36062   0.24216
   0.27690   1.36062   0.48158
   0.27690   1.12120   0.00274
   0.27690   0.64236   0.00274
   0.03748  -0.31532   0.00274
   0.27690  -1.03358   0.00274
   0.51632  -1.75184   0.00274
   0.27690  -1.99126  -0.23668
   0.27690  -2.23068  -0.23668
   0.51632  -1.99126  -0.23668
   0.51632  -1.03358   0.00274
   0.75574  -0.31532   0.00274
   0.75574   0.40294   0.00274
   0.75574   0.64236   0.00274
   0.99516   1.12120   0.24216
   1.23458   1.36062   0.00274
   1.23458   1.83946   0.24216
   0.99516   2.31830   0.72100
   0.99516   2.31830   0.48158
   1.23458   2.79714   0.72100
   1.47400   3.27598   0.00274
   1.71342   3.27598   0.00274
   1.71342   3.03656  -0.23668
   1.47400   2.55772  -0.23668
   1.23458   1.83946  -0.23668
   0.75574   1.12120  -0.47610
   0.75574   0.64236  -0.23668
   0.51632   0.16352  -0.23668
   0.51632  -0.55474   0.00274
   0.51632  -1.03358   0.00274
   0.51632  -1.27300  -0.23668
   0.27690  -1.27300  -0.23668
   0.51632  -1.03358  -0.23668
   0.51632  -0.79416  -0.47610
   0.27690  -0.55474  -0.47610
   0.27690   0.16352  -0.71552
   0.27690   0.64236  -0.71552
   0.27690   0.64236  -0.47610
   0.27690   0.64236  -0.47610
   0.51632   0.16352  -0.47610
   0.75574  -0.79416  -0.71552
   0.99516  -1.51242  -0.71552
   1.47400  -1.99126  -0.95494
   1.23458  -2.23068  -0.95494
   1.23458  -1.99126  -0.95494
   0.99516  -1.75184  -0.71552
   1.23458  -1.27300  -0.71552
   1.23458  -1.03358  -0.95494
   1.47400  -1.51242  -0.95494
   1.71342  -2.23068  -1.19436
   1.95284  -3.18836  -1.43378
   1.95284  -3.66720  -1.67320
   1.47400  -3.90662  -1.67320
   1.47400  -3.66720  -1.67320
   1.47400  -3.42778  -1.67320
   1.47400  -2.70952  -1.67320
   1.71342  -1.99126  -1.43378
   1.71342  -1.75184  -1.43378
   1.71342  -1.27300  -1.19436
   1.71342  -0.79416  -1.19436
   1.71342  -0.31532  -1.43378
   1.95284   0.64236  -1.43378
   1.71342   1.60004  -1.43378
   1.47400   2.31830  -1.43378
   1.95284   2.79714  -1.43378
   2.19226   3.03656  -1.19436
   2.67110   2.79714  -1.19436
   2.91052   2.07888  -1.19436
   2.91052   1.60004  -1.19436
   3.14994   1.83946  -1.19436
   3.14994   2.31830  -1.19436
   2.67110   3.03656  -1.19436
   2.67110   3.75483  -0.95494
   2.43168   3.99425  -0.95494
   2.43168   3.75483  -0.71552
   1.95284   2.79714  -0.23668
   1.23458   1.60004   0.00274
   0.99516   0.16352   0.48158
   0.27690  -0.79416   0.72100
  -0.44136  -1.27300   1.19984
  -1.15962  -1.51242   1.67868
  -1.63846  -1.75184   2.39694
  -2.11730  -1.75184   2.63636
  -2.35672  -1.75184   2.87578
  -3.07498  -2.23068   3.11520
  -3.55382  -2.47010   3.59404
  -4.03266  -2.70952   3.59404
  -4.27208  -2.47010   3.59404
  -4.99034  -2.47010   3.83346
  -5.46918  -2.23068   3.83346
  -5.46918  -1.75184   3.83346
  -5.70860  -1.03358   3.59404
  -5.94802  -0.07590   3.59404
  -6.42686   1.36062   3.11520
  -6.42686   1.36062   2.87578
  -6.18744   0.88178   2.63636
  -6.18744   0.16352   2.39694
  -5.94802  -0.79416   1.91810
  -5.70860  -1.51242   1.43926
  -5.46918  -2.23068   0.96042
  -4.75092  -2.47010   0.24216
  -4.03266  -2.47010  -0.23668
  -3.31440  -2.23068  -0.71552
  -2.11730  -1.51242  -1.19436
  -1.15962  -0.55474  -1.43378
  -0.20194   0.64236  -1.43378
   0.75574   1.83946  -1.43378
   1.71342   2.55772  -1.19436
   2.67110   3.03656  -1.19436
   3.62878   3.03656  -1.19436
   4.58646   2.79714  -0.95494
   5.06530   2.79714  -1.19436
   5.54414   2.55772  -1.19436
   5.78356   2.79714  -1.43378
   6.02298   2.79714  -1.43378
   5.54414   2.31830  -1.43378
   5.06530   1.36062  -1.19436
   4.58646   0.64236  -0.95494
   3.86820   0.16352  -0.95494
   2.91052  -0.31532  -0.71552
   2.19226  -0.07590  -0.23668
   1.71342  -0.07590   0.00274
   1.47400  -0.07590   0.24216
   1.47400  -0.55474   0.24216
   1.47400  -1.51242   0.00274
   1.47400  -2.23068   0.00274
   1.71342  -2.47010  -0.47610
   1.95284  -2.47010  -0.47610
   2.19226  -1.99126  -0.71552
   2.43168  -1.27300  -0.23668
   2.67110  -0.79416   0.00274
   2.67110  -0.07590   0.72100
   2.67110   0.40294   1.19984
   2.19226   0.40294   2.15752
   1.47400  -0.07590   2.87578
   0.51632  -0.31532   3.59404
  -0.68078  -1.03358   4.07288
  -2.11730  -1.51242   4.55172
  -3.55382  -2.23068   4.79114
  -4.75092  -2.47010   5.50940
  -5.70860  -2.47010   5.50940
  -6.66628  -2.47010   5.50940
  -7.38455  -2.23068   5.50940
  -7.62397  -1.75184   5.74882
  -7.38455  -1.27300   5.50940
  -7.14512  -0.79416   5.26998
  -6.42686  -0.31532   5.03056
  -5.46918   0.64236   4.79114
  -4.51150   1.60004   4.55172
  -3.31440   3.03656   4.07288
  -2.11730   3.99425   3.59404
  -0.92020   4.47309   3.11520
   0.51632   4.71251   2.15752
   1.71342   4.23367   1.19984
   2.43168   3.51540   0.72100
   2.91052   2.07888   0.48158
   2.67110   0.64236   0.48158
   2.19226  -1.03358   0.72100
   1.47400  -2.47010   1.19984
   0.27690  -3.18836   1.67868
  -0.44136  -3.42778   2.39694
  -1.15962  -2.94894   3.11520
  -1.87788  -2.23068   3.35462
  -2.11730  -1.03358   3.83346
  -2.35672   0.64236   3.83346
  -2.35672   2.07888   3.83346
  -2.11730   3.51540   3.11520
  -1.87788   4.71251   2.63636
  -1.63846   4.95193   1.43926
  -1.15962   5.19135   0.24216
  -0.20194   4.47309  -1.19436
   0.75574   3.75483  -2.87030
   1.71342   3.03656  -4.54624
   2.91052   1.83946  -5.98277
   4.10762   0.64236  -7.41929
   5.54414  -0.79416  -8.85581
   6.74124  -2.23068 -10.05291
   7.22009  -3.42778 -10.77117
   7.45951  -4.62488 -11.25001
   7.22009  -5.10372 -11.48943
   6.50182  -5.58256 -11.01059
   5.78356  -6.06140 -10.53175
   4.58646  -6.30082  -9.81349
   3.14994  -6.06140  -9.09523
   1.95284  -5.58256  -8.61639
   0.99516  -4.38546  -8.13755
   0.27690  -2.94894  -7.89813
  -0.20194  -1.75184  -7.89813
  -0.44136  -0.55474  -7.89813
  -0.44136   0.16352  -8.37697
  -0.20194   1.12120  -9.09523
  -0.20194   2.07888  -9.33465
  -0.44136   2.55772 -10.05291
  -0.68078   2.79714 -10.53175
  -1.15962   2.55772 -10.77117
  -1.63846   1.83946 -11.25001
  -2.35672   1.36062 -11.25001
  -3.07498   0.64236 -11.25001
  -4.51150  -0.07590 -10.77117
  -6.42686  -0.79416 -10.53175
  -8.10281  -1.27300  -9.81349
 -10.73643  -1.51242  -8.61639
 -13.37005  -1.75184  -7.65871
 -16.24309  -1.99126  -6.46161
 -18.87671  -2.47010  -5.26450
 -21.51033  -2.70952  -4.06740
 -23.90454  -2.94894  -2.87030
 -26.05932  -2.47010  -2.15204
 -27.49584  -1.99126  -1.67320
 -28.45352  -1.51242  -1.67320
 -28.45352  -0.55474  -1.67320
 -28.21410   0.16352  -1.67320
 -27.49584   0.64236  -2.15204
 -26.29874   0.64236  -2.39146
 -23.66512   0.16352  -2.39146
 -20.79207  -0.31532  -2.39146
 -17.67961  -0.79416  -2.15204
 -13.60947  -0.79416  -2.15204
  -9.29991  -0.55474  -2.15204
  -4.51150  -0.31532  -1.91262
  -0.20194  -0.07590  -1.67320
   3.86820  -0.07590  -1.19436
   6.98066   0.16352  -0.47610
   9.13545   0.16352   0.48158
  10.81139   0.64236   1.19984
  11.76907   0.64236   2.63636
  12.72675   0.64236   4.07288
  13.68443   0.16352   5.03056
  14.64211  -0.07590   6.22766
  15.36037  -0.55474   7.18534
  16.31805  -0.31532   8.14302
  17.51515   0.16352   8.62186
  18.23341   0.64236   9.34013
  19.19109   1.36062   9.81897
  19.90935   1.83946  10.05839
  20.14877   2.31830  10.77665
  19.90935   2.79714  11.73433
  19.66993   3.51540  12.21317
  19.43051   4.71251  12.93143
  19.43051   5.67019  13.64969
  19.19109   6.38845  14.12853
  18.95167   6.38845  14.12853
  18.47283   6.38845  14.36795
  17.75457   5.90961  14.36795
  16.55747   5.67019  13.88911
  15.12095   4.71251  13.17085
  13.44501   3.99425  12.45259
  11.52965   3.75483  11.49491
   9.61429   3.27598  10.29781
   7.69893   2.79714   9.57955
   6.02298   2.79714   8.86128
   4.82588   2.79714   8.14302
   4.34704   2.55772   7.42476
   4.10762   2.07888   6.70650
   3.86820   1.83946   5.98824
   4.10762   1.60004   5.03056
   4.10762   1.60004   4.31230
   4.10762   1.60004   3.35462
   4.34704   1.83946   2.39694
   4.58646   1.83946   1.43926
   4.82588   2.07888   0.72100
   4.82588   2.07888   0.24216
   5.06530   2.07888   0.00274
   4.82588   1.60004  -0.23668
   4.82588   1.36062  -0.47610
   4.34704   0.88178  -0.71552
   3.86820   0.64236  -0.71552
   3.38936   0.40294  -0.71552
   2.67110   0.40294  -0.47610
   1.47400  -0.55474   0.24216
   0.03748  -1.51242   0.96042
  -1.63846  -2.47010   1.67868
  -3.79324  -3.18836   2.87578
  -5.70860  -3.66720   3.35462
  -7.62397  -3.66720   4.07288
  -9.06049  -3.42778   4.55172
 -10.49701  -3.18836   5.03056
 -11.93353  -2.47010   5.26998
 -13.13063  -1.99126   5.03056
 -14.08831  -1.27300   4.79114
 -14.56715  -0.55474   4.31230
 -14.32773  -0.07590   3.59404
 -13.60947   0.64236   3.11520
 -12.17295   0.88178   2.15752
 -10.73643   1.12120   1.19984
  -8.34223   0.88178   0.24216
  -5.70860   0.40294  -0.23668
  -2.59614  -0.55474  -0.71552
   0.03748  -1.27300  -0.95494
   2.91052  -1.99126  -0.95494
   4.58646  -2.70952  -0.71552
   6.02298  -3.42778  -0.47610
   6.98066  -3.90662   0.00274
   7.69893  -4.62488   0.72100
   8.17777  -5.10372   1.19984
   8.17777  -5.34314   1.91810
   8.17777  -5.10372   2.63636
   8.17777  -5.10372   2.87578
   8.41719  -4.86430   3.11520
   8.89603  -4.86430   2.63636
   9.61429  -4.38546   2.15752
  10.33255  -3.42778   1.19984
  11.05081  -1.75184   0.48158
  11.29023  -0.07590  -0.23668
  11.76907   0.88178  -0.71552
  12.00849   1.60004  -1.19436
  12.00849   1.60004  -1.43378
  11.76907   0.88178  -2.15204
  11.05081   0.16352  -2.39146
  10.33255  -0.55474  -3.10972
   8.65661  -1.03358  -3.58856
   6.26240  -1.27300  -4.06740
   3.14994  -1.51242  -4.78566
  -0.44136  -1.51242  -5.02508
  -3.79324  -1.75184  -5.74335
  -7.14512  -1.75184  -6.22219
 -10.49701  -1.27300  -6.70103
 -13.60947  -0.79416  -7.17987
 -15.76425  -0.55474  -7.41929
 -17.44019  -0.31532  -7.41929
 -17.91903  -0.07590  -7.65871
 -17.91903  -0.07590  -8.13755
 -17.67961   0.16352  -8.61639
 -17.20077  -0.07590  -9.09523
 -16.48251  -0.79416  -9.09523
 -15.52483  -1.51242  -9.57407
 -14.08831  -2.23068  -9.57407
 -12.17295  -2.94894  -9.81349
  -9.53933  -3.66720  -9.57407
  -6.90570  -4.62488  -9.57407
  -3.31440  -5.58256  -8.85581
   0.03748  -6.30082  -8.13755
   2.91052  -6.77966  -7.17987
   5.30472  -7.01908  -5.74335
   6.74124  -7.01908  -4.54624
   7.45951  -7.01908  -3.10972
   7.45951  -6.54024  -2.15204
   6.74124  -5.82198  -0.71552
   5.30472  -5.10372   0.48158
   3.62878  -3.90662   1.67868
   1.71342  -2.70952   2.63636
   0.27690  -1.51242   3.59404
  -1.15962  -0.31532   3.83346
  -2.35672   1.12120   4.07288
  -3.55382   2.07888   3.59404
  -4.99034   3.27598   3.59404
  -5.70860   4.23367   2.87578
  -6.90570   5.19135   2.63636
  -7.62397   5.67019   2.39694
  -8.34223   5.90961   1.91810
  -8.34223   5.19135   1.67868
  -7.38455   4.47309   1.19984
  -6.18744   3.75483   0.48158
  -4.51150   2.79714  -0.23668
  -2.59614   2.07888  -0.95494
  -0.92020   1.83946  -1.43378
   0.75574   1.83946  -1.91262
   1.71342   2.31830  -1.91262
