********************************************************************************
               CENTRO DE INSTRUMENTACION Y REGISTRO SISMICO  A.C.  
                       Coordinacion de Servicios Tecnicos
     Anaxagoras 814, Col. Narvarte, Benito Juarez, C.P. 03020 Mexico, D.F.
            Tels. 687 45 42/ 687 45  82             Fax. 669 25 12
********************************************************************************
ARCHIVO ESTANDAR DE ACELERACION:
VERSION DEL FORMATO                    : 2.0
NOMBRE DEL ARCHIVO                     : AE029005.111
FECHA Y HORA DE CREACION               : ABRIL 17, 1996/18:20
REF. CATALOGO ACELEROGRAMAS, SMIS 1995 : REGISTRO No. 2029 /PAG. 201


================================================================================
DATOS DE LA ESTACION:
NOMBRE DE LA ESTACION                  : AEROPUERTO
CLAVE DE LA ESTACION                   : AE02
LOCALIZACION DE LA ESTACION            : Esc Prim Gonzalez Garzon Calle Xico
                                       : s/n, Col. IV Seccion del Arenal
                                       : Venustiano Carranza
                                       :
                                       :
COORDENADAS DE LA ESTACION             : 19.429 LAT. N 
                                       : 99.058 LONG. W 
ALTITUD (msnm)                         : 2232
TIPO DE SUELO                          : ARCILLOSO, ZONA LAGO
                                       : 
                                       : 
INSTITUCION RESPONSABLE                : CIRES
                                       :

================================================================================
DATOS DEL ACELEROGRAFO:
MODELO DEL ACELEROGRAFO                : DCA-333
NUMERO DE SERIE DEL ACELEROGRAFO       : 242
NUMERO DE CANALES                      : 3
ORIENTACION C1-C6 (rumbo;orientacion)  : /N00E/+V/N90W
ORIENTACION C7-C12 (rumbo;orientacion) :
VEL. DE MUESTREO, C1-C6 (muestras/s)   : /100/100/100
VEL. DE MUESTREO, C7-C12 (muestras/s)  :
ESC. COMPLETA DE SENSORES, C1-C6, (g)  : /0.5/0.5/0.5
ESC. COMPLETA DE SENSORES, C7-C12, (g) :
FREC. NAT. DE SENSORES, C1-C6, (Hz)    : /30/30/30
FREC. NAT. DE SENSORES, C7-C12, (Hz)   :
AMORTIGUAMIENTO DE SENSORES, C1-C6     : /0.700/0.700/0.700
AMORTIGUAMIENTO DE SENSORES, C7-C12    :
INTERVALO DE MUESTREO, C1-C6, (s)      : /0.01/0.01/0.01
INTERVALO DE MUESTREO, C7-C12, (s)     :
UMBRAL DE DISPARO, C1-C6, (Gal)        : /3.4/3.4/3.4
UMBRAL DE DISPARO, C7-C12, (Gal)       :
MEMORIA DE PREEVENTO (s)               : 4
TIEMPO DE POSEVENTO (s)                : 15


================================================================================
DATOS DEL SISMO:
FECHA DEL SISMO (GMT)                  : 11/MAY/90
HORA EPICENTRO (GMT)                   : 23:43:49,1
MAGNITUD(ES)                           : /Mb=5.30/Ms=4.90/Mc=5.30
COORDENADAS DEL EPICENTRO              : 17.046 LAT. N 
                                       : 100.840 LONG. W
PROFUNDIDAD FOCAL (km)                 : 11.7 
FUENTE DE LOS DATOS EPICENTRALES       : INSTITUTO DE INGENIERIA UNAM
                                       : 

================================================================================
DATOS DE ESTE REGISTRO:
HORA DE LA PRIMERA MUESTRA (GMT)       : 23:45:26.88
EXACTITUD DEL TIEMPO (s)               : 0.01
DURACION DEL REGISTRO (s), C1-C6       : /31.02/31.02/31.02
DURACION DEL REGISTRO (s), C7-C12      :
NUM. TOTAL DE MUESTRAS, C1-C6          : /3102/3102/3102
NUM. TOTAL DE MUESTRAS, C7-C12         :
ACEL. MAX. (Gal), C1-C6                : /4.95/2.24/4.48
ACEL. MAX., C1-C6, EN LA MUESTRA       :
ACEL. MAX. (Gal), C7-C12               :
ACEL. MAX., C7-C12, EN LA MUESTRA      :
UNIDADES DE LOS DATOS                  : Gal (cm/s/s)
FACTOR DE DECIMACION                   : 1
FORMATO DATOS (FORTRAN,10 campos/dato) : 3F10.2


================================================================================
CALIDAD DEL ACELEROGRAMA:
REGISTRO DIGITAL AL QUE FALTA UNA PARTE AL INICIO, CON TIEMPO
ABSOLUTO.

================================================================================
COMENTARIOS:














================================================================================
DATOS DE ACELERACION:
---------+---------+---------+---------+---------+---------+---------+---------+
   CANAL-1   CANAL-2   CANAL-3   CANAL-4   CANAL-5   CANAL-6   CANAL-7   CANAL-8
      N00E        +V      N90W
---------+---------+---------+---------+---------+---------+---------+---------+
[...]
     -0.88      0.87     -0.30
     -0.88      0.87     -0.30
     -1.12      0.87     -0.30
     -1.12      0.63     -0.30
     -1.12      0.63     -0.30
     -1.12      0.63     -0.30
     -1.12      0.63     -0.30
     -1.12      0.63     -0.30
     -1.12      0.39     -0.30
     -0.88      0.39     -0.30
     -1.12      0.39     -0.30
     -1.12      0.39     -0.30
     -0.88      0.39     -0.30
     -0.88      0.39     -0.30
     -0.88      0.39     -0.30
     -0.88      0.39     -0.54
     -0.64      0.39     -0.54
     -0.64      0.15     -0.54
     -0.64      0.15     -0.54
     -0.64     -0.09     -0.54
     -0.64     -0.09     -0.54
     -0.88     -0.09     -0.54
     -0.88     -0.33     -0.54
     -0.88     -0.09     -0.54
     -0.88     -0.33     -0.54
     -0.88     -0.33     -0.30
     -1.12     -0.57     -0.30
     -1.12     -0.33     -0.54
     -1.36     -0.33     -0.54
     -1.36     -0.33     -0.54
     -1.36     -0.33     -0.54
     -1.36     -0.33     -0.54
     -1.36     -0.33     -0.54
     -1.60     -0.33     -0.54
     -1.60     -0.33     -0.54
     -1.60     -0.33     -0.54
     -1.60     -0.33     -0.54
     -1.36     -0.33     -0.54
     -1.60     -0.09     -0.30
     -1.60     -0.33     -0.30
     -1.60     -0.33     -0.30
     -1.36     -0.33     -0.30
     -1.36     -0.33     -0.06
     -1.36     -0.57     -0.06
     -1.36     -0.57      0.17
     -1.36     -0.81      0.41
     -1.36     -0.57      0.17
     -1.12     -0.81      0.41
     -1.36     -0.81      0.65
     -1.12     -0.81      0.65
     -1.12     -0.81      0.65
     -1.12     -0.81      0.65
     -1.12     -0.33      0.89
     -1.12     -0.57      0.89
     -1.12     -0.57      0.89
     -1.12     -0.33      1.13
     -1.12     -0.33      1.13
     -0.88     -0.09      1.37
     -0.88     -0.09      1.37
     -1.12     -0.09      1.61
     -0.88     -0.09      1.37
     -0.88      0.15      1.61
     -0.88      0.39      1.61
     -0.88      0.39      1.61
     -0.88      0.15      1.61
     -0.88      0.39      1.61
     -0.88      0.39      1.61
     -0.64      0.39      1.61
     -0.88      0.39      1.61
     -0.88      0.39      1.85
     -0.88      0.39      1.61
     -1.12      0.39      1.61
     -1.12      0.39      1.61
     -1.12      0.39      1.37
     -1.12      0.39      1.37
     -1.12      0.39      1.37
     -1.12      0.63      1.37
     -1.12      0.63      1.13
     -1.12      0.63      0.89
     -0.88      0.63      0.89
     -1.12      0.63      0.65
     -0.88      0.39      0.65
     -0.88      0.39      0.65
     -0.88      0.39      0.65
     -0.88      0.39      0.65
     -0.64      0.15      0.41
     -0.64      0.39      0.65
     -0.64     -0.09      0.65
     -0.64     -0.09      0.65
     -0.64     -0.09      0.65
     -0.40      0.15      0.65
     -0.64     -0.09      0.65
     -0.64     -0.09      0.65
     -0.40      0.15      0.65
     -0.64      0.15      0.41
     -0.40      0.15      0.41
     -0.40      0.15      0.17
     -0.40      0.15      0.17
     -0.40      0.15     -0.06
     -0.16      0.15     -0.30
     -0.16     -0.09     -0.54
     -0.16     -0.09     -0.54
     -0.16     -0.09     -0.78
      0.08     -0.09     -1.02
      0.08     -0.09     -1.02
      0.32     -0.33     -1.02
      0.32     -0.09     -1.26
      0.32     -0.09     -1.26
      0.56     -0.33     -1.26
      0.80     -0.09     -1.26
      0.80     -0.33     -1.50
      1.04     -0.33     -1.74
      1.04     -0.33     -1.74
      1.28     -0.33     -1.74
      1.51     -0.57     -1.98
      1.51     -0.57     -1.98
      1.75     -0.81     -1.98
      1.99     -0.81     -1.98
      1.99     -1.04     -1.74
      1.99     -1.04     -1.74
      2.23     -1.04     -1.74
      2.23     -1.04     -1.50
      2.23     -1.04     -1.50
      2.47     -0.81     -1.26
      2.47     -0.81     -1.02
      2.47     -0.81     -1.02
      2.47     -0.57     -1.02
      2.71     -0.33     -1.02
      2.71     -0.33     -1.02
      2.47     -0.33     -1.02
      2.47     -0.09     -1.02
      2.47     -0.09     -1.02
      2.23     -0.09     -0.78
      2.23     -0.09     -0.78
      2.23     -0.09     -0.78
      1.99     -0.33     -0.54
      1.99     -0.09     -0.54
      1.75     -0.09     -0.30
      1.51      0.15     -0.30
      1.28      0.15     -0.06
      1.28      0.39     -0.06
      1.04      0.15      0.17
      0.80      0.39      0.17
      0.80      0.39      0.17
      0.56      0.39      0.17
      0.32      0.39      0.17
      0.32      0.39      0.17
      0.08      0.39     -0.06
      0.08      0.39     -0.06
     -0.16      0.15      0.17
     -0.16      0.39      0.17
     -0.40      0.15     -0.06
     -0.40      0.15      0.17
     -0.64      0.39      0.17
     -0.64      0.15      0.17
     -0.88      0.15      0.41
     -0.88      0.15      0.41
     -1.12      0.15      0.65
     -1.12      0.39      0.65
     -1.12      0.15      0.65
     -1.36      0.39      0.89
     -1.36      0.39      0.89
     -1.60      0.15      0.89
     -1.60      0.39      0.89
     -1.60      0.39      0.89
     -1.84      0.39      1.13
     -1.84      0.39      0.89
     -2.08      0.39      0.89
     -2.08      0.39      0.89
     -2.08      0.39      0.89
     -2.32      0.39      0.89
     -2.32      0.39      0.89
     -2.32      0.63      0.65
     -2.32      0.39      0.65
     -2.32      0.39      0.65
     -2.32      0.39      0.41
     -2.56      0.39      0.41
     -2.56      0.39      0.41
     -2.56      0.39      0.17
     -2.56      0.39      0.17
     -2.56      0.15      0.17
     -2.56      0.15      0.17
     -2.32      0.15     -0.06
     -2.56      0.15     -0.06
     -2.32      0.15     -0.30
     -2.32     -0.09     -0.30
     -2.08     -0.09     -0.30
     -1.84     -0.33     -0.54
     -1.84     -0.09     -0.54
     -1.60     -0.33     -0.54
     -1.60     -0.57     -0.54
     -1.36     -0.57     -0.54
     -1.12     -0.81     -0.78
     -0.88     -0.81     -0.78
     -1.12     -0.81     -0.78
     -0.88     -1.04     -0.78
     -0.64     -0.81     -0.78
     -0.64     -0.81     -0.78
     -0.40     -0.81     -1.02
     -0.16     -0.81     -0.78
     -0.16     -0.57     -1.02
      0.08     -0.57     -1.02
      0.32     -0.33     -1.02
      0.32     -0.09     -1.02
      0.56      0.15     -0.78
      0.80      0.15     -1.02
      1.04      0.39     -1.02
      1.51      0.39     -1.02
      1.51      0.39     -1.26
      1.99      0.15     -1.02
      1.99      0.15     -1.26
      2.47      0.15     -1.26
      2.47      0.39     -1.26
      2.71     -0.09     -1.50
      2.95     -0.33     -1.50
      2.95     -0.09     -1.50
      3.19     -0.33     -1.26
      3.19     -0.33     -1.26
      3.43     -0.57     -1.02
      3.43     -0.57     -1.02
      3.43     -0.57     -0.78
      3.43     -0.81     -0.54
      3.43     -0.57     -0.30
      3.43     -0.57     -0.30
      3.43     -0.57     -0.06
      3.19     -0.81     -0.06
      3.19     -0.81      0.17
      3.19     -0.81      0.17
      3.19     -0.57      0.41
      2.95     -0.57      0.65
      2.95     -0.57      0.65
      2.71     -0.57      0.89
      2.71     -0.33      0.89
      2.23     -0.57      1.13
      2.23     -0.33      1.13
      1.99     -0.33      1.13
      1.75     -0.09      1.37
      1.51      0.39      1.61
      1.28      0.15      1.61
      0.80      0.39      1.61
      0.56      0.39      1.61
      0.32      0.39      1.61
      0.08      0.39      1.85
     -0.16      0.39      1.61
     -0.40      0.63      1.61
     -0.88      0.63      1.61
     -1.12      0.63      1.61
     -1.36      0.63      1.61
     -1.60      0.63      1.61
     -1.84      0.87      1.61
     -2.08      0.63      1.61
     -2.32      0.87      1.61
     -2.56      0.63      1.37
     -2.79      0.63      1.61
     -2.79      0.63      1.61
     -3.03      0.39      1.61
     -3.03      0.63      1.61
     -3.27      0.39      1.61
     -3.27      0.39      1.61
     -3.27      0.39      1.85
     -3.27      0.39      1.61
     -3.27      0.15      1.85
     -3.27      0.39      1.85
     -3.27      0.39      1.85
     -3.27      0.39      2.09
     -3.27      0.39      1.85
     -3.03      0.63      2.09
     -3.03      0.63      1.85
     -3.03      0.63      1.85
     -3.03      0.63      1.85
     -2.79      0.63      1.61
     -2.79      0.63      1.61
     -2.56      0.63      1.13
     -2.56      0.39      0.89
     -2.32      0.39      0.65
     -2.08      0.39      0.41
     -2.08      0.39      0.17
     -1.84      0.39     -0.30
     -1.60      0.15     -0.54
     -1.36      0.15     -0.78
     -1.36      0.15     -1.02
     -0.88      0.15     -1.02
     -0.64      0.15     -1.26
     -0.40     -0.09     -1.26
     -0.16     -0.09     -1.26
      0.08     -0.09     -1.50
      0.32     -0.09     -1.50
      0.32     -0.09     -1.50
      0.80     -0.09     -1.50
      1.28     -0.33     -1.50
      1.51     -0.33     -1.74
      1.75     -0.33     -1.74
      1.99     -0.33     -1.50
      2.23     -0.33     -1.50
      2.47     -0.57     -1.74
      2.71     -0.57     -1.74
      2.95     -0.33     -1.74
      3.19     -0.57     -1.74
      3.43     -0.57     -1.50
      3.43     -0.57     -1.50
      3.67     -0.57     -1.50
      3.67     -0.57     -1.26
      3.91     -0.57     -1.26
      3.91     -0.33     -1.02
      3.91     -0.57     -1.02
      4.15     -0.33     -1.02
      4.15     -0.09     -1.02
      4.15     -0.09     -0.78
      3.91      0.15     -0.78
      3.91      0.39     -0.78
      3.91      0.39     -0.54
      3.67      0.39     -0.54
      3.43      0.39     -0.54
      3.43      0.39     -0.54
      3.19      0.63     -0.54
      2.95      0.63     -0.54
      2.95      0.63     -0.54
      2.71      0.87     -0.54
      2.47      0.63     -0.54
      2.23      0.63     -0.30
      1.99      0.63     -0.54
      1.75      0.39     -0.30
      1.51      0.39     -0.30
      1.28      0.39     -0.30
      1.04      0.39     -0.30
      0.80      0.15     -0.06
      0.56     -0.09     -0.06
      0.32     -0.09      0.17
      0.32     -0.09      0.17
     -0.16     -0.09      0.41
     -0.40     -0.09      0.65
     -0.64     -0.09      0.89
     -0.88     -0.09      1.13
     -1.12     -0.09      1.13
     -1.36      0.15      1.37
     -1.60     -0.09      1.37
     -2.08     -0.09      1.61
     -2.08     -0.09      1.61
     -2.56     -0.09      1.61
     -2.79     -0.09      1.61
     -3.03     -0.09      1.61
     -3.51     -0.09      1.61
     -3.51     -0.09      1.61
     -3.99     -0.09      1.61
     -4.23      0.15      1.61
     -4.47      0.39      1.61
     -4.47      0.39      1.61
     -4.71      0.39      1.61
     -4.71      0.39      1.37
     -4.95      0.39      1.61
     -4.71      0.39      1.37
     -4.71      0.39      1.37
     -4.71      0.39      1.13
     -4.71      0.15      0.89
     -4.71      0.15      0.65
     -4.71     -0.33      0.65
     -4.47     -0.57      0.41
     -4.47     -0.57      0.41
     -4.23     -0.57      0.41
     -3.99     -0.57      0.41
     -3.75     -0.81      0.41
     -3.51     -0.81      0.41
     -3.27     -0.81      0.17
     -2.79     -0.57      0.17
     -2.56     -0.57      0.41
     -2.32     -0.33      0.17
     -1.84     -0.57     -0.06
     -1.60     -0.33     -0.06
     -1.12     -0.57     -0.30
     -0.64     -0.57     -0.54
     -0.40     -0.57     -0.78
      0.32     -0.57     -0.78
      0.32     -0.57     -1.02
      0.80     -0.57     -1.02
      1.04     -0.57     -1.26
      1.28     -0.81     -1.26
      1.75     -1.04     -1.50
      1.75     -1.04     -1.50
      1.99     -1.04     -1.50
      2.47     -0.81     -1.50
      2.71     -0.81     -1.50
      2.95     -0.81     -1.50
      3.19     -0.81     -1.50
      3.19     -0.81     -1.50
      3.43     -0.57     -1.26
      3.43     -0.33     -1.26
      3.43     -0.33     -1.50
      3.67     -0.33     -1.26
      3.67     -0.33     -1.26
      3.67     -0.33     -1.26
      3.67     -0.33     -1.26
      3.67     -0.33     -1.26
      3.67     -0.33     -1.02
      3.67     -0.33     -1.02
      3.67     -0.33     -1.02
      3.67     -0.33     -1.02
      3.43     -0.33     -0.78
      3.43     -0.33     -0.78
      3.43     -0.33     -0.78
      3.43     -0.09     -0.54
      3.19     -0.33     -0.54
      3.19     -0.09     -0.30
      2.95     -0.09     -0.30
      2.95     -0.33     -0.30
      2.71     -0.09     -0.30
      2.71     -0.09     -0.30
      2.47     -0.09     -0.30
      2.23     -0.09     -0.30
      1.99     -0.09     -0.30
      1.75     -0.09     -0.30
      1.51     -0.09     -0.30
      1.28     -0.09     -0.30
      1.04      0.15     -0.06
      0.80      0.39     -0.06
      0.56      0.39     -0.06
      0.32      0.39      0.17
     -0.16      0.39      0.17
     -0.40      0.39      0.17
     -0.64      0.39      0.41
     -1.12      0.39      0.65
     -1.36      0.39      0.65
     -1.60      0.63      0.65
     -1.84      0.63      0.65
     -2.08      0.63      0.65
     -2.32      0.63      0.65
     -2.56      0.63      0.89
     -2.79      0.63      0.89
     -2.79      0.87      0.89
     -3.03      0.87      0.65
     -3.03      0.87      0.65
     -3.03      0.63      0.89
     -3.03      0.63      0.89
     -3.27      0.63      0.89
     -3.27      0.63      0.89
     -3.03      0.63      0.89
     -3.03      0.63      0.89
     -3.03      0.63      0.89
     -3.03      0.63      0.89
     -3.03      0.63      0.89
     -3.03      0.63      0.89
     -3.03      0.63      0.89
     -3.03      0.63      0.89
     -3.03      0.63      0.89
     -3.03      0.63      0.65
     -2.79      0.39      0.65
     -2.79      0.39      0.41
     -2.79      0.39      0.41
     -2.79      0.39      0.17
     -2.56      0.39     -0.06
     -2.56      0.39     -0.30
     -2.32      0.39     -0.30
     -2.32      0.15     -0.54
     -2.32      0.15     -0.78
     -2.08     -0.09     -0.78
     -1.84      0.15     -1.02
     -1.60     -0.33     -1.02
     -1.60     -0.09     -1.02
     -1.36     -0.33     -1.02
     -1.12     -0.33     -1.02
     -1.12     -0.57     -1.02
     -0.88     -0.57     -1.02
     -0.64     -0.81     -1.02
     -0.64     -0.57     -1.02
     -0.40     -0.81     -1.02
     -0.40     -0.81     -1.02
     -0.16     -0.81     -1.02
      0.08     -0.57     -0.78
      0.32     -0.57     -0.78
      0.32     -0.57     -0.54
      0.56     -0.57     -0.30
      0.80     -0.33     -0.30
      0.80     -0.57     -0.30
      1.28     -0.57     -0.30
      1.28     -0.57     -0.30
      1.51     -0.33     -0.30
      1.75     -0.33     -0.30
      1.99     -0.33     -0.30
      2.23     -0.33     -0.54
      2.71     -0.09     -0.54
      2.71     -0.33     -0.54
      2.95     -0.09     -0.78
      3.19     -0.33     -0.78
      3.43     -0.33     -1.02
      3.43     -0.33     -0.78
      3.43     -0.33     -1.02
      3.67     -0.33     -0.78
      3.67     -0.33     -0.54
      3.67     -0.33     -0.30
      3.67     -0.33     -0.30
      3.67     -0.09      0.17
      3.67     -0.09      0.17
      3.43     -0.09      0.41
      3.43     -0.09      0.65
      3.43      0.15      0.65
      3.19      0.39      0.89
      2.95      0.39      0.89
      2.95      0.39      0.89
      2.71      0.39      0.89
      2.71      0.63      1.13
