********************************************************************************
              CENTRO DE INSTRUMENTACION Y REGISTRO SISMICO  A.C.

    Anaxagoras 814, Col. Narvarte, Benito Juarez, C.P. 03020 Mexico, D.F.
           Tels. 5687 45 42/ 5687 45  82             Fax. 5669 25 12
********************************************************************************
ARCHIVO ESTANDAR DE ACELERACION:
VERSION DEL FORMATO                    : 2.0
NOMBRE DEL ARCHIVO                     : AE0220140508170016
FECHA Y HORA DE CREACION               : 22/MAY/14, 13:42
REF. CATALOGO ACELEROGRAMAS, SMIS 1996 : REGISTRO No.     /PAG.


================================================================================
DATOS DE LA ESTACION:
NOMBRE DE LA ESTACION                  : ESC. PRIM. "GONZÁLEZ GARZÓN"
CLAVE DE LA ESTACION                   : AE02
LOCALIZACION DE LA ESTACION            : Del. Venustiano Carranza,              
                                       : Col. El Arenal 4a. Sección,            
                                       : Calle Xico esq. con calle Xocoyote.    
                                       :                                        
                                       : 
COORDENADAS DE LA ESTACION             : 19.4290 LAT. N
                                       : 99.0584 LONG. W
ALTITUD (msnm)                         : 2232
TIPO DE SUELO                          : Arcilloso, zona lago                
                                       :                           
                                       : 
INSTITUCION RESPONSABLE                : CIRES
                                       : 

================================================================================
DATOS DEL ACELEROGRAFO:
MODELO DEL ACELEROGRAFO                : RADESD
NUMERO DE SERIE DEL ACELEROGRAFO       : 242
NUMERO DE CANALES                      : 3
ORIENTACION C1-C6 (rumbo;orientacion)  : /N00E/+V/N90W
ORIENTACION C7-C12 (rumbo;orientacion) : 
VEL. DE MUESTREO, C1-C6 (muestras/s)   : /100/100/100
VEL. DE MUESTREO, C7-C12 (muestras/s)  : 
ESC. COMPLETA DE SENSORES, C1-C6, (g)  : /0.5/0.5/0.5
ESC. COMPLETA DE SENSORES, C7-C12, (g) : 
FREC. NAT. DE SENSORES, C1-C6, (Hz)    : /30/30/30
FREC. NAT. DE SENSORES, C7-C12, (Hz)   : 
AMORTIGUAMIENTO DE SENSORES, C1-C6     : /0.733/0.750/0.700
AMORTIGUAMIENTO DE SENSORES, C7-C12    : 
INTERVALO DE MUESTREO, C1-C6, (s)      : /0.01/0.01/0.01
INTERVALO DE MUESTREO, C7-C12, (s)     : 
UMBRAL DE DISPARO, C1-C6, (Gal)        : /1.65/9.58/2.69
UMBRAL DE DISPARO, C7-C12, (Gal)       : 
MEMORIA DE PREEVENTO (s)               : 44.0
TIEMPO DE POSEVENTO (s)                : 64.0


================================================================================
DATOS DEL SISMO:
FECHA DEL SISMO (GMT)                  : 08/MAY/14
HORA EPICENTRO (GMT)                   : 17:00:16.0
MAGNITUD(ES)                           : /Mc=6.4
COORDENADAS DEL EPICENTRO              : 17.11 LAT. N
                                       : 100.87 LONG. W
PROFUNDIDAD FOCAL (km)                 : 17
FUENTE DE LOS DATOS EPICENTRALES       : SSN
                                       : INSTITUTO DE GEOFISICA, UNAM

================================================================================
DATOS DE ESTE REGISTRO:
HORA DE LA PRIMERA MUESTRA (GMT)       : 17:01:20.00
EXACTITUD DEL TIEMPO (s)               : 0.01
DURACION DEL REGISTRO (s), C1-C6       : /409.0/409.0/409.0
DURACION DEL REGISTRO (s), C7-C12      : 
NUM. TOTAL DE MUESTRAS, C1-C6          : /40900/40900/40900
NUM. TOTAL DE MUESTRAS, C7-C12         : 
ACEL. MAX. (Gal), C1-C6                : /31.26881/8.74933/19.25678
ACEL. MAX., C1-C6, EN LA MUESTRA       : /11762/8779/9650
ACEL. MAX. (Gal), C7-C12               : 
ACEL. MAX., C7-C12, EN LA MUESTRA      : 
UNIDADES DE LOS DATOS                  : Gal (cm/s/s)
FACTOR DE DECIMACION                   : 1
FORMATO DATOS (FORTRAN,10 campos/dato) : 3F10.5


================================================================================
CALIDAD DEL ACELEROGRAMA:
REGISTRO DIGITAL COMPLETO CON TIEMPO ABSOLUTO CORRECTO.


================================================================================
COMENTARIOS:














================================================================================
DATOS DE ACELERACION:
---------+---------+---------+---------+---------+---------+---------+---------+
   CANAL-1   CANAL-2   CANAL-3   CANAL-4   CANAL-5   CANAL-6   CANAL-7   CANAL-8
      N00E        +V      N90W
---------+---------+---------+---------+---------+---------+---------+---------+
[...]
  -5.12712   1.23150  -3.55979
  -4.64828   1.27639  -3.21563
  -3.94499   1.12675  -3.29044
  -3.36140   0.70777  -3.35030
  -2.91249   0.42346  -3.32037
  -2.37379   0.07929  -3.20066
  -1.79020  -0.17509  -3.11088
  -1.32633  -0.36962  -2.97620
  -1.01209  -0.68386  -2.90139
  -0.66792  -0.95321  -2.90139
  -0.14419  -1.11781  -2.85649
   0.40947  -1.34227  -2.55722
   0.81349  -1.49190  -2.34773
   1.09780  -1.70140  -2.24298
   1.51679  -1.82111  -2.15320
   1.98066  -1.92585  -1.94371
   2.45950  -2.06053  -1.62947
   2.96827  -2.19520  -1.44990
   3.43215  -2.24009  -1.27034
   3.91099  -2.29995  -0.97106
   4.37486  -2.41966  -0.56704
   4.82378  -2.47951  -0.25280
   5.27269  -2.44958   0.06144
   5.69168  -2.53937   0.31582
   6.12562  -2.59922   0.58517
   6.57454  -2.49448   0.91437
   6.94863  -2.58426   1.22861
   7.36762  -2.65908   1.49796
   7.75667  -2.62915   1.63263
   8.17566  -2.67404   1.91694
   8.53479  -2.68900   2.32097
   8.77421  -2.61419   2.71002
   9.02859  -2.62915   3.00930
   9.25305  -2.62915   3.21879
   9.53736  -2.62915   3.50310
   9.71693  -2.62915   3.80238
   9.85160  -2.62915   4.05676
  10.00124  -2.62915   4.38597
  10.18080  -2.59922   4.74510
  10.36037  -2.56929   5.10423
  10.53993  -2.55433   5.46336
  10.74943  -2.47951   5.80752
  10.91403  -2.41966   6.24147
  11.00381  -2.37477   6.60060
  11.06367  -2.22513   6.92980
  11.10856  -2.16527   7.18419
  11.15345  -2.07549   7.45354
  11.15345  -1.98571   7.72288
  11.15345  -1.94082   7.99223
  11.12352  -1.83607   8.24662
  11.01877  -1.73132   8.47107
  10.89906  -1.56672   8.77035
  10.79432  -1.43205   9.03969
  10.67461  -1.32730   9.30904
  10.64468  -1.17766   9.54846
  10.56986  -1.04299   9.78788
  10.49504  -0.93824   9.98241
  10.34541  -0.77364  10.14701
  10.16584  -0.60904  10.23680
   9.97131  -0.45940  10.34154
   9.71693  -0.32473  10.44629
   9.47751  -0.19006  10.52111
   9.16327  -0.02546  10.59593
   8.83407   0.13915  10.70067
   8.45997   0.34864  10.76053
   8.16070   0.51324  10.82038
   7.80157   0.70777  10.88024
   7.45740   0.94719  10.89520
   7.09827   1.11179  10.94009
   6.72418   1.29136  10.99995
   6.36505   1.47092  11.08973
   5.99095   1.62056  11.11966
   5.60189   1.87494  11.11966
   5.21284   2.02458  11.08973
   4.85371   2.24904  11.08973
   4.46465   2.41364  10.99995
   4.06063   2.62313  10.88024
   3.61171   2.86255  10.79045
   3.19273   3.11693  10.65578
   2.71389   3.37132  10.49118
   2.29490   3.55088  10.32658
   1.90584   3.76038  10.10212
   1.60657   3.96987   9.89263
   1.30729   4.16440   9.68314
   1.09780   4.34396   9.45868
   0.88831   4.52353   9.20430
   0.70874   4.65820   8.94991
   0.57407   4.79288   8.66560
   0.40947   4.89762   8.38129
   0.30472   5.01733   8.02216
   0.22990   5.09215   7.61814
   0.17005   5.16697   7.22908
   0.15508   5.24179   6.85499
   0.22990   5.24179   6.45096
   0.30472   5.24179   6.06191
   0.34961   5.28668   5.61299
   0.36458   5.30164   5.25386
   0.43940   5.28668   4.83488
   0.52918   5.19690   4.43086
   0.57407   5.15201   3.99691
   0.66385   5.06222   3.62281
   0.78356   4.97244   3.23376
   0.88831   4.88266   2.82973
   1.05291   4.73302   2.44068
   1.15766   4.58338   2.00673
   1.29233   4.46367   1.61767
   1.45693   4.31404   1.27350
   1.62153   4.16440   0.88445
   1.84599   3.99980   0.54028
   2.05548   3.85016   0.16618
   2.33979   3.70052  -0.16302
   2.62411   3.52096  -0.47726
   2.89345   3.31146  -0.80646
   3.20769   3.13190  -1.15063
   3.47704   2.89248  -1.39005
   3.82121   2.66802  -1.64443
   4.06063   2.41364  -1.86889
   4.40479   2.15925  -2.10831
   4.73400   1.87494  -2.27291
   5.00334   1.62056  -2.49736
   5.31758   1.35121  -2.66197
   5.61686   1.00704  -2.81160
   5.90117   0.78259  -2.94628
   6.15555   0.48331  -3.06599
   6.40994   0.21396  -3.15577
   6.72418  -0.05538  -3.27548
   7.00849  -0.35466  -3.39519
   7.27783  -0.65393  -3.48497
   7.57711  -0.99810  -3.54483
   7.89135  -1.31234  -3.66454
   8.10084  -1.64154  -3.72439
   8.34026  -1.95578  -3.79921
   8.57968  -2.25506  -3.90396
   8.83407  -2.59922  -3.93389
   9.01363  -2.89850  -3.97878
   9.23809  -3.24266  -4.09849
   9.40269  -3.57187  -4.23316
   9.56729  -3.85618  -4.35287
   9.73189  -4.12553  -4.47258
   9.94138  -4.43976  -4.56236
  10.09102  -4.67918  -4.59229
  10.18080  -4.94853  -4.50251
  10.19577  -5.14306  -4.45762
  10.30051  -5.36752  -4.42769
  10.33044  -5.54708  -4.33791
  10.34541  -5.69672  -4.27805
  10.39030  -5.89125  -4.26309
  10.45015  -6.08578  -4.36783
  10.48008  -6.25038  -4.42769
  10.52497  -6.42994  -4.50251
  10.52497  -6.57958  -4.54740
  10.55490  -6.75915  -4.60725
  10.56986  -6.84893  -4.63718
  10.51001  -6.99857  -4.71200
  10.43519  -7.05842  -4.74193
  10.36037  -7.07339  -4.80178
  10.24066  -7.08835  -4.81675
  10.12095  -7.05842  -4.80178
  10.01620  -7.07339  -4.84667
   9.88153  -7.05842  -4.93646
   9.77678  -7.04346  -5.01128
   9.62714  -6.98360  -5.08610
   9.46254  -6.95368  -5.19084
   9.31291  -6.89382  -5.31055
   9.14830  -6.78907  -5.46019
   8.95378  -6.68433  -5.59486
   8.80414  -6.57958  -5.77443
   8.63954  -6.41498  -6.01385
   8.53479  -6.31023  -6.17845
   8.38515  -6.17556  -6.41787
   8.26544  -5.96607  -6.58247
   8.14573  -5.81643  -6.74707
   8.02602  -5.59197  -6.95657
   7.93624  -5.36752  -7.15109
   7.84646  -5.09817  -7.31570
   7.80157  -4.82882  -7.49526
   7.75667  -4.55947  -7.67483
   7.69682  -4.23027  -7.82446
   7.72675  -3.93100  -7.95914
   7.78660  -3.63172  -8.10877
   7.86142  -3.33245  -8.22848
   7.90631  -3.03317  -8.36316
   7.99609  -2.74886  -8.48287
   8.04099  -2.43462  -8.57265
   8.13077  -2.10542  -8.72229
   8.20559  -1.76125  -8.82704
   8.32530  -1.46198  -8.94675
   8.44501  -1.16270  -9.02156
   8.54975  -0.87839  -9.15624
   8.71436  -0.60904  -9.29091
   8.87896  -0.30977  -9.45551
   9.01363  -0.05538  -9.57522
   9.17823   0.13915  -9.70990
   9.38772   0.40849  -9.84457
   9.50743   0.57310  -9.88946
   9.65707   0.81252  -9.96428
   9.85160   0.99208 -10.02414
  10.10599   1.15668 -10.09895
  10.37533   1.36617 -10.14385
  10.58483   1.50085 -10.17377
  10.86914   1.65049 -10.15881
  11.13848   1.74027 -10.14385
  11.37790   1.88991 -10.12888
  11.67718   2.02458 -10.11392
  11.97646   2.06947 -10.02414
  12.27573   2.20415  -9.93435
  12.58997   2.24904  -9.82961
  12.90421   2.33882  -9.69493
  13.20348   2.41364  -9.54530
  13.53269   2.45853  -9.44055
  13.89182   2.53335  -9.29091
  14.19109   2.57824  -9.14127
  14.49037   2.62313  -8.99164
  14.90935   2.69795  -8.79711
  15.25352   2.71291  -8.55769
  15.50790   2.78773  -8.33323
  15.88200   2.80270  -8.12374
  16.24113   2.83262  -7.88432
  16.54040   2.95233  -7.64490
  16.82471   2.98226  -7.31570
  17.22874   3.02715  -7.09124
  17.49808   3.08701  -6.76204
  17.82729   3.08701  -6.41787
  18.08167   3.05708  -6.10363
  18.38094   3.07204  -5.89414
  18.63533   3.10197  -5.60983
  18.82986   3.08701  -5.25070
  19.02439   3.07204  -4.92149
  19.12913   3.08701  -4.59229
  19.21892   3.13190  -4.27805
  19.35359   3.11693  -3.87403
  19.45834   3.13190  -3.45505
  19.42841   3.22168  -3.02110
  19.42841   3.17679  -2.66197
  19.44337   3.19175  -2.28787
  19.39848   3.22168  -1.94371
  19.35359   3.19175  -1.59954
  19.26381   3.13190  -1.18055
  19.08424   3.14686  -0.77653
  18.94957   3.14686  -0.34258
  18.78497   3.07204   0.01655
  18.60540   3.05708   0.37568
  18.39591   3.07204   0.65999
  18.18642   2.96730   0.95926
  17.90210   2.95233   1.24358
  17.72254   2.87751   1.54285
  17.39334   2.78773   1.88702
  16.94442   2.71291   2.17133
  16.69004   2.57824   2.47060
  16.33091   2.42860   2.71002
  15.94185   2.32386   2.91952
  15.68747   2.15925   3.05419
  15.25352   1.99465   3.41332
  14.64000   1.90487   3.95202
  13.96664   1.93480   4.53560
  13.41298   1.96472   4.99948
  12.97903   1.97969   5.52321
  12.44033   1.94976   5.85241
  11.90164   1.85998   6.09183
  11.27316   1.72530   6.28636
  10.68957   1.50085   6.54075
  10.07606   1.39610   6.79513
   9.49247   1.18661   6.94477
   8.77421   1.03697   7.01959
   8.02602   0.78259   7.34879
   7.35265   0.51324   7.75281
   6.64936   0.28878   8.00720
   5.88620   0.09425   8.29151
   5.15298  -0.13020   8.63567
   4.47961  -0.35466   8.93495
   3.71646  -0.50430   9.20430
   2.93834  -0.71379   9.44372
   2.20512  -0.86343   9.66817
   1.44197  -0.99810   9.90759
   0.61896  -1.08788  10.20687
  -0.27886  -1.20759  10.53607
  -1.22158  -1.22256  10.83535
  -2.17926  -1.23752  11.25433
  -3.22673  -1.22256  11.67332
  -4.12455  -1.11781  12.34669
  -4.93259  -1.16270  12.93027
  -5.81546  -1.25248  13.10984
  -6.80306  -1.25248  13.27444
  -7.71585  -1.17766  13.72335
  -8.64361  -1.16270  14.14234
  -9.46661  -1.29737  14.50147
 -10.33451  -1.34227  14.63614
 -11.32212  -1.41708  14.77081
 -12.20498  -1.44701  14.87556
 -12.99806  -1.49190  14.96534
 -13.85100  -1.55176  14.96534
 -14.70393  -1.56672  14.93542
 -15.54190  -1.58169  15.01024
 -16.30505  -1.52183  15.08505
 -17.23280  -1.52183  15.10002
 -18.01092  -1.50687  15.07009
 -18.69925  -1.40212  15.02520
 -19.37262  -1.34227  14.99527
 -19.98614  -1.32730  14.89053
 -20.55476  -1.28241  14.72592
 -21.24309  -1.25248  14.50147
 -21.48251  -1.28241  14.09745
 -22.41027  -1.08788  14.03759
 -23.41284  -0.87839  14.39672
 -23.26320  -1.46198  14.35183
 -23.95153  -1.13277  13.79817
 -24.49023  -1.16270  13.06495
 -24.96907  -1.01306  12.81056
 -25.49280  -0.96817  12.85545
 -25.74718  -1.02803  12.84049
 -26.00157  -1.02803  12.79560
 -26.28588  -1.05795  12.60107
 -26.55523  -0.99810  12.16712
 -26.65997  -1.04299  11.80799
 -26.94429  -0.98314  11.47879
 -27.24356  -1.01306  11.28426
 -27.34831  -1.07292  11.01491
 -27.46802  -1.14774  10.71564
 -27.67751  -1.10285  10.34154
 -27.85707  -1.11781   9.83277
 -27.93189  -1.17766   9.35393
 -27.94686  -1.22256   8.84517
 -27.99175  -1.26745   8.39625
 -28.09650  -1.25248   7.94734
 -28.38081  -1.23752   7.43857
 -28.65015  -1.25248   7.03455
 -28.85965  -1.19263   6.64549
 -29.05418  -1.17766   6.24147
 -29.23374  -1.19263   5.83745
 -29.41331  -1.13277   5.43343
 -29.62280  -1.11781   4.95459
 -29.80236  -1.05795   4.46078
 -29.93704  -1.01306   4.02683
 -30.26624  -0.93824   3.59289
 -30.46077  -0.78861   3.15894
 -30.56552  -0.75868   2.76988
 -30.62537  -0.81853   2.30600
 -30.77501  -0.80357   1.87205
 -30.87975  -0.75868   1.43810
 -30.99946  -0.77364   1.03408
 -31.08925  -0.81853   0.61510
 -31.05932  -0.77364   0.22604
 -30.99946  -0.80357  -0.10316
 -31.02939  -0.83350  -0.38747
 -31.08925  -0.84846  -0.55208
 -31.16407  -0.86343  -0.74660
 -31.25385  -0.77364  -0.94113
 -31.26881  -0.77364  -1.19552
 -31.10421  -0.66890  -1.39005
 -30.86479  -0.59408  -1.47983
 -30.74508  -0.51926  -1.65939
 -30.74508  -0.54919  -1.77910
 -30.52062  -0.45940  -2.04845
 -30.14653  -0.39955  -2.37765
 -29.71258  -0.38459  -2.57218
 -29.36841  -0.32473  -2.61707
 -29.15892  -0.21998  -2.67693
 -28.85965  -0.16013  -2.84153
 -28.51548  -0.02546  -2.93131
 -28.21621   0.10922  -3.00613
 -27.82715   0.19900  -3.06599
 -27.46802   0.30375  -3.23059
 -27.10889   0.48331  -3.41015
 -26.83954   0.64791  -3.55979
 -26.52530   0.75266  -3.58972
 -26.09135   0.93223  -3.70943
 -25.65740   1.14172  -3.72439
 -25.14863   1.27639  -3.76928
 -24.66979   1.41107  -3.78425
 -24.25081   1.63552  -3.79921
 -23.86175   1.80012  -3.82914
 -23.39787   1.94976  -3.82914
 -22.90407   2.08443  -3.85907
 -22.45516   2.24904  -3.97878
 -21.97632   2.35378  -4.08352
 -21.54237   2.47349  -4.05360
 -21.13835   2.59320  -3.96381
 -20.73432   2.80270  -3.90396
 -20.22556   2.95233  -3.75432
 -19.62701   3.02715  -3.67950
 -19.13320   3.17679  -3.73936
 -18.56458   3.22168  -3.73936
 -17.95107   3.17679  -3.72439
 -17.39741   3.16183  -3.67950
 -16.79886   3.25161  -3.79921
 -16.24520   3.25161  -3.85907
 -15.75139   3.07204  -3.93389
 -14.86853   2.95233  -4.30798
 -14.22509   2.80270  -4.69704
 -13.73129   2.65306  -4.86164
 -13.23748   2.45853  -5.08610
 -12.77360   2.36875  -5.44523
 -12.27980   2.27896  -5.69961
 -11.74110   2.14429  -5.89414
 -11.20241   2.08443  -5.95399
 -10.55897   1.99465  -5.90910
  -9.66114   2.09940  -6.97153
  -8.83814   1.91983  -7.62993
  -8.58375   1.14172  -6.61240
  -8.37426   1.66545  -6.50765
  -7.13227   1.72530  -6.79196
  -6.17459   1.48588  -6.53758
  -5.80049   1.53078  -6.40291
  -5.24683   1.26143  -5.78939
  -5.00741   1.29136  -5.19084
  -4.61836   2.08443  -5.10106
  -3.72053   1.72530  -5.01128
  -2.98731   1.15668  -5.14595
  -2.29897   1.02201  -4.63718
  -1.71539   1.03697  -4.59229
  -1.31136   1.30632  -4.53244
  -0.66792   1.20157  -4.14338
   0.05034   0.84244  -4.12841
   0.85838   0.66288  -3.75432
   1.23248   0.39353  -3.18570
   1.38211  -0.07035  -3.21563
   2.45950   0.09425  -3.64957
   3.61171   0.01944  -3.20066
   3.86610  -0.05538  -2.81160
   4.50954   0.04936  -2.76671
   5.49715  -0.01049  -2.57218
   5.96102  -0.19006  -2.10831
   6.66432  -0.16013  -2.21305
   7.71178   0.01944  -2.12327
   8.08588  -0.13020  -1.27034
   8.71436  -0.27984  -1.34515
   9.73189  -0.08531  -1.46487
  10.37533   0.00447  -1.00099
  11.03374   0.00447  -0.73164
  11.87171   0.18404  -0.38747
  12.47026   0.24389  -0.16302
  13.12866   0.30375  -0.14805
  13.89182   0.43842   0.10633
  14.56519   0.49828   0.46546
  15.28345   0.51324   0.73481
  16.07653   0.54317   1.00416
  16.57033   0.61799   1.16876
  17.03421   0.61799   1.25854
  17.55794   0.61799   1.25854
  18.27620   0.63295   1.37825
  18.88971   0.73770   1.81220
  19.26381   0.63295   2.06658
  20.05689   0.66288   1.82716
  21.02953   0.70777   1.85709
  21.68794   0.63295   2.03665
  22.31641   0.75266   1.94687
  22.58576   0.84244   1.94687
  22.46605   0.93223   2.00673
  22.39123   1.12675   1.94687
  22.39123   1.17165   1.76731
  22.36130   1.23150   1.55781
  22.39123   1.21654   1.34832
  22.25656   1.12675   1.10890
  22.10692   1.00704   0.76474
  22.00217   0.87237   0.46546
  21.89743   0.72273   0.01655
  21.64304   0.57310  -0.55208
  21.25399   0.46835  -1.04588
  21.01457   0.30375  -1.49479
  20.68536   0.09425  -1.89881
  20.25141  -0.02546  -2.22802
  19.80250  -0.20502  -2.55722
  19.21892  -0.32473  -2.82657
  18.74007  -0.44444  -3.12584
  18.39591  -0.65393  -3.55979
  17.91707  -0.78861  -4.15834
  17.39334  -0.96817  -4.71200
  16.88457  -1.07292  -5.20581
  16.42069  -1.23752  -5.59486
  16.00171  -1.35723  -5.89414
  15.65754  -1.56672  -6.40291
  15.29841  -1.88096  -6.85182
  14.89439  -2.15031  -7.22591
  14.52029  -2.43462  -7.51022
  14.22102  -2.76382  -7.82446
  13.81700  -2.97332  -8.13870
  13.29327  -3.13792  -8.37812
  12.78450  -3.30252  -8.49783
  12.30566  -3.40727  -8.55769
  11.90164  -3.45216  -8.69236
  11.40783  -3.58683  -8.70733
  10.80928  -3.79632  -8.75222
  10.22570  -3.90107  -8.78214
   9.68700  -3.90107  -8.93178
   9.17823  -3.81129  -8.88689
   8.51983  -3.85618  -8.81207
   7.81653  -3.88611  -8.75222
   7.20302  -3.85618  -8.79711
   6.54461  -3.70654  -8.90185
   5.87124  -3.67661  -8.93178
   5.16794  -3.60179  -8.96171
   4.43472  -3.63172  -8.88689
   3.80624  -3.52698  -8.94675
   3.08798  -3.37734  -8.93178
   2.35476  -3.28755  -8.90185
   1.57664  -3.22770  -8.87193
