********************************************************************************
              CENTRO DE INSTRUMENTACION Y REGISTRO SISMICO  A.C.

    Anaxagoras 814, Col. Narvarte, Benito Juarez, C.P. 03020 Mexico, D.F.
           Tels. 5687 45 42/ 5687 45  82             Fax. 5669 25 12
********************************************************************************
ARCHIVO ESTANDAR DE ACELERACION:
VERSION DEL FORMATO                    : 2.0
NOMBRE DEL ARCHIVO                     : AE0220121107163551
FECHA Y HORA DE CREACION               : 11/ABR/13, 13:56
REF. CATALOGO ACELEROGRAMAS, SMIS 1996 : REGISTRO No.     /PAG.


================================================================================
DATOS DE LA ESTACION:
NOMBRE DE LA ESTACION                  : ESC. PRIM. "GONZÁLEZ GARZÓN"
CLAVE DE LA ESTACION                   : AE02
LOCALIZACION DE LA ESTACION            : Del. Venustiano Carranza,              
                                       : Col. El Arenal 4a. Sección,            
                                       : Calle Xico esq. con calle Xocoyote.    
                                       :                                        
                                       : 
COORDENADAS DE LA ESTACION             : 19.4290 LAT. N
                                       : 99.0584 LONG. W
ALTITUD (msnm)                         : 2232
TIPO DE SUELO                          : Arcilloso, zona lago                
                                       :                           
                                       : 
INSTITUCION RESPONSABLE                : CIRES
                                       : 

================================================================================
DATOS DEL ACELEROGRAFO:
MODELO DEL ACELEROGRAFO                : RADESD
NUMERO DE SERIE DEL ACELEROGRAFO       : 242
NUMERO DE CANALES                      : 3
ORIENTACION C1-C6 (rumbo;orientacion)  : /N00E/+V/N90W
ORIENTACION C7-C12 (rumbo;orientacion) : 
VEL. DE MUESTREO, C1-C6 (muestras/s)   : /100/100/100
VEL. DE MUESTREO, C7-C12 (muestras/s)  : 
ESC. COMPLETA DE SENSORES, C1-C6, (g)  : /0.5/0.5/0.5
ESC. COMPLETA DE SENSORES, C7-C12, (g) : 
FREC. NAT. DE SENSORES, C1-C6, (Hz)    : /30/30/30
FREC. NAT. DE SENSORES, C7-C12, (Hz)   : 
AMORTIGUAMIENTO DE SENSORES, C1-C6     : /0.733/0.750/0.700
AMORTIGUAMIENTO DE SENSORES, C7-C12    : 
INTERVALO DE MUESTREO, C1-C6, (s)      : /0.01/0.01/0.01
INTERVALO DE MUESTREO, C7-C12, (s)     : 
UMBRAL DE DISPARO, C1-C6, (Gal)        : /26.34/153.23/43.1
UMBRAL DE DISPARO, C7-C12, (Gal)       : 
MEMORIA DE PREEVENTO (s)               : 56.0
TIEMPO DE POSEVENTO (s)                : 80.0


================================================================================
DATOS DEL SISMO:
FECHA DEL SISMO (GMT)                  : 07/NOV/12
HORA EPICENTRO (GMT)                   : 16:35:51.0
MAGNITUD(ES)                           : /Mc=7.3
COORDENADAS DEL EPICENTRO              : 14.08 LAT. N
                                       : 92.32 LONG. W
PROFUNDIDAD FOCAL (km)                 : 16
FUENTE DE LOS DATOS EPICENTRALES       : SSN
                                       : INSTITUTO DE GEOFISICA, UNAM

================================================================================
DATOS DE ESTE REGISTRO:
HORA DE LA PRIMERA MUESTRA (GMT)       : 16:40:13.00
EXACTITUD DEL TIEMPO (s)               : 0.01
DURACION DEL REGISTRO (s), C1-C6       : /314.6/314.6/314.6
DURACION DEL REGISTRO (s), C7-C12      : 
NUM. TOTAL DE MUESTRAS, C1-C6          : /31460/31460/31460
NUM. TOTAL DE MUESTRAS, C7-C12         : 
ACEL. MAX. (Gal), C1-C6                : /5.42113/1.73696/3.50774
ACEL. MAX., C1-C6, EN LA MUESTRA       : /6854/7707/7852
ACEL. MAX. (Gal), C7-C12               : 
ACEL. MAX., C7-C12, EN LA MUESTRA      : 
UNIDADES DE LOS DATOS                  : Gal (cm/s/s)
FACTOR DE DECIMACION                   : 1
FORMATO DATOS (FORTRAN,10 campos/dato) : 3F10.5


================================================================================
CALIDAD DEL ACELEROGRAMA:
REGISTRO DIGITAL COMPLETO CON TIEMPO ABSOLUTO CORRECTO.


================================================================================
COMENTARIOS:














================================================================================
DATOS DE ACELERACION:
---------+---------+---------+---------+---------+---------+---------+---------+
   CANAL-1   CANAL-2   CANAL-3   CANAL-4   CANAL-5   CANAL-6   CANAL-7   CANAL-8
      N00E        +V      N90W
---------+---------+---------+---------+---------+---------+---------+---------+
[...]
  -4.55323  -0.86907  -1.62483
  -4.52331  -0.91396  -1.63979
  -4.38863  -0.83914  -1.71461
  -4.31381  -0.95885  -1.69965
  -4.31381  -0.91396  -1.81936
  -4.16418  -0.85410  -1.81936
  -4.17914  -0.88403  -1.84928
  -4.08936  -0.97381  -1.92410
  -4.07439  -0.88403  -2.04381
  -4.02950  -1.01870  -2.07374
  -3.95468  -1.01870  -2.05878
  -3.86490  -1.01870  -2.10367
  -3.84994  -0.95885  -2.10367
  -3.80505  -0.89899  -2.11863
  -3.71526  -0.92892  -2.14856
  -3.59555  -0.92892  -2.20842
  -3.50577  -0.89899  -2.22338
  -3.37110  -0.95885  -2.23834
  -3.32620  -1.03367  -2.28323
  -3.38606  -0.95885  -2.34309
  -3.34117  -0.91396  -2.35805
  -3.28131  -0.83914  -2.43287
  -3.11671  -0.98878  -2.37302
  -2.96707  -0.94389  -2.44784
  -2.86233  -0.94389  -2.34309
  -2.81744  -0.91396  -2.38798
  -2.72765  -0.92892  -2.37302
  -2.71269  -0.92892  -2.41791
  -2.65284  -0.86907  -2.46280
  -2.57802  -0.85410  -2.28323
  -2.51816  -0.86907  -2.38798
  -2.42838  -0.80921  -2.34309
  -2.35356  -0.70447  -2.34309
  -2.23385  -0.74936  -2.28323
  -2.09918  -0.53986  -2.29820
  -1.99443  -0.50994  -2.23834
  -1.85976  -0.52490  -2.23834
  -1.74005  -0.45008  -2.19345
  -1.66523  -0.36030  -2.23834
  -1.56048  -0.28548  -2.14856
  -1.44077  -0.25555  -2.20842
  -1.33602  -0.16577  -2.22338
  -1.15646  -0.13584  -2.19345
  -1.03675  -0.19570  -2.11863
  -0.90208  -0.16577  -2.08871
  -0.76740  -0.10591  -2.01389
  -0.73747  -0.09095  -2.02885
  -0.63273  -0.06102  -1.98396
  -0.51302  -0.03110  -1.89418
  -0.34842   0.04372  -1.81936
  -0.21374   0.08861  -1.74454
  -0.21374   0.17840  -1.74454
  -0.10900   0.20832  -1.72957
  -0.00425   0.31307  -1.60986
   0.14539   0.41782  -1.57994
   0.26510   0.50760  -1.53505
   0.25013   0.50760  -1.49015
   0.38481   0.50760  -1.46023
   0.48955   0.56745  -1.53505
   0.57934   0.58242  -1.46023
   0.69905   0.56745  -1.43030
   0.78883   0.59738  -1.41534
   0.92350   0.62731  -1.37044
   0.93847   0.65724  -1.32555
   1.02825   0.68716  -1.23577
   1.10307   0.73206  -1.25073
   1.10307   0.82184  -1.19088
   1.17789   0.82184  -1.16095
   1.28263   0.77695  -1.11606
   1.28263   0.82184  -1.07117
   1.43227   0.73206  -0.98139
   1.49213   0.71709  -0.95146
   1.59687   0.73206  -0.98139
   1.62680   0.71709  -0.81679
   1.49213   0.74702  -0.84671
   1.55198   0.77695  -0.80182
   1.67169   0.85177  -0.83175
   1.68666   0.79191  -0.74197
   1.73155   0.74702  -0.69708
   1.79140   0.67220  -0.60729
   1.86622   0.59738  -0.59233
   1.83629   0.58242  -0.60729
   1.91111   0.62731  -0.60729
   1.94104   0.50760  -0.48758
   1.92608   0.56745  -0.44269
   2.03082   0.58242  -0.41276
   2.01586   0.56745  -0.39780
   2.10564   0.67220  -0.42773
   2.13557   0.59738  -0.36787
   2.13557   0.55249  -0.27809
   2.22535   0.50760  -0.23320
   2.28521   0.52256  -0.29305
   2.30017   0.49264  -0.30802
   2.36002   0.55249  -0.33795
   2.38995   0.47767  -0.30802
   2.38995   0.34300  -0.27809
   2.43484   0.34300  -0.30802
   2.52463   0.28314  -0.20327
   2.59944   0.22329  -0.18831
   2.61441   0.16343  -0.09852
   2.65930   0.25322  -0.06860
   2.67426   0.32803  -0.03867
   2.74908   0.26818   0.03615
   2.85383   0.23825   0.06608
   2.88376   0.31307   0.12593
   2.88376   0.28314   0.20075
   2.86879   0.34300   0.18579
   3.00347   0.23825   0.20075
   3.15310   0.25322   0.29053
   3.21296   0.16343   0.30550
   3.25785   0.17840   0.36535
   3.31770   0.20832   0.32046
   3.25785   0.19336   0.35039
   3.28778   0.19336   0.39528
   3.39252   0.23825   0.41024
   3.30274   0.17840   0.38032
   3.36260   0.13351   0.36535
   3.36260   0.14847   0.39528
   3.45238   0.04372   0.41024
   3.46734  -0.10591   0.44017
   3.58705  -0.01613   0.44017
   3.57209  -0.09095   0.51499
   3.55713  -0.13584   0.50003
   3.57209  -0.13584   0.55988
   3.63194  -0.01613   0.54492
   3.64691  -0.04606   0.48506
   3.60202  -0.15081   0.54492
   3.76662  -0.12088   0.52995
   3.81151  -0.21066   0.54492
   3.85640  -0.21066   0.54492
   3.78158  -0.22563   0.51499
   3.78158  -0.15081   0.48506
   3.82647  -0.00117   0.41024
   3.91626  -0.06102   0.50003
   4.00604  -0.10591   0.47010
   3.90129  -0.10591   0.45513
   3.94618  -0.07599   0.45513
   3.99107  -0.09095   0.42521
   4.02100  -0.13584   0.39528
   4.06589  -0.09095   0.26061
   4.11078  -0.15081   0.35039
   4.08086  -0.18073   0.29053
   4.08086  -0.22563   0.32046
   4.20057  -0.19570   0.35039
   4.26042  -0.21066   0.27557
   4.24546  -0.19570   0.26061
   4.35020  -0.19570   0.18579
   4.32028  -0.21066   0.14090
   4.35020  -0.21066   0.20075
   4.36517  -0.22563   0.14090
   4.42502  -0.31541   0.12593
   4.46991  -0.33037   0.17082
   4.43999  -0.42015   0.18579
   4.36517  -0.36030   0.26061
   4.46991  -0.24059   0.17082
   4.49984  -0.30044   0.20075
   4.52977  -0.31541   0.11097
   4.54473  -0.28548   0.18579
   4.57466  -0.28548   0.14090
   4.55970  -0.31541   0.17082
   4.58962  -0.27052   0.27557
   4.48488  -0.30044   0.21571
   4.51481  -0.24059   0.21571
   4.49984  -0.30044   0.14090
   4.52977  -0.30044   0.23068
   4.35020  -0.33037   0.26061
   4.39510  -0.22563   0.20075
   4.41006  -0.24059   0.27557
   4.30531  -0.34534   0.30550
   4.20057  -0.40519   0.33542
   4.27539  -0.43512   0.30550
   4.27539  -0.48001   0.32046
   4.03597  -0.40519   0.30550
   4.11078  -0.42015   0.32046
   4.08086  -0.45008   0.35039
   3.97611  -0.48001   0.39528
   3.87136  -0.50994   0.42521
   3.81151  -0.46505   0.44017
   3.66187  -0.43512   0.50003
   3.69180  -0.43512   0.54492
   3.64691  -0.40519   0.63470
   3.58705  -0.40519   0.55988
   3.49727  -0.36030   0.57484
   3.39252  -0.30044   0.52995
   3.37756  -0.30044   0.50003
   3.27281  -0.31541   0.48506
   3.19799  -0.37526   0.51499
   3.09325  -0.31541   0.44017
   3.06332  -0.33037   0.42521
   3.07828  -0.36030   0.48506
   3.06332  -0.48001   0.58981
   2.89872  -0.42015   0.51499
   2.77901  -0.43512   0.51499
   2.77901  -0.48001   0.54492
   2.70419  -0.37526   0.44017
   2.71915  -0.46505   0.54492
   2.65930  -0.40519   0.61974
   2.58448  -0.36030   0.57484
   2.55455  -0.34534   0.61974
   2.55455  -0.36030   0.60477
   2.53959  -0.37526   0.63470
   2.46477  -0.46505   0.55988
   2.41988  -0.36030   0.54492
   2.46477  -0.37526   0.48506
   2.47973  -0.40519   0.48506
   2.47973  -0.39023   0.35039
   2.47973  -0.43512   0.45513
   2.40492  -0.40519   0.45513
   2.44981  -0.40519   0.47010
   2.38995  -0.42015   0.47010
   2.25528  -0.43512   0.45513
   2.33010  -0.42015   0.57484
   2.27024  -0.36030   0.52995
   2.22535  -0.30044   0.45513
   2.19542  -0.30044   0.51499
   2.31513  -0.25555   0.54492
   2.25528  -0.27052   0.54492
   2.24031  -0.22563   0.51499
   2.25528  -0.19570   0.51499
   2.19542  -0.19570   0.61974
   2.16550  -0.19570   0.58981
   2.16550  -0.16577   0.52995
   2.22535  -0.10591   0.50003
   2.24031  -0.22563   0.50003
   2.22535  -0.31541   0.54492
   2.25528  -0.24059   0.55988
   2.22535  -0.25555   0.55988
   2.19542  -0.19570   0.61974
   2.10564  -0.19570   0.70952
   2.16550  -0.09095   0.64966
   2.18046  -0.07599   0.70952
   2.12060  -0.00117   0.70952
   2.10564  -0.04606   0.73945
   2.00089   0.02876   0.67959
   2.00089   0.07365   0.66463
   1.95600   0.05869   0.67959
   2.00089  -0.00117   0.64966
   1.95600  -0.03110   0.69455
   1.86622  -0.00117   0.69455
   1.79140   0.04372   0.78434
   1.82133   0.01380   0.82923
   1.73155   0.10358   0.84419
   1.71658   0.07365   0.82923
   1.65673   0.08861   0.84419
   1.61184   0.16343   0.81426
   1.58191   0.17840   0.82923
   1.52205   0.22329   0.90405
   1.43227   0.23825   0.81426
   1.34249   0.22329   0.93397
   1.35745   0.28314   0.99383
   1.22278   0.28314   0.94894
   1.19285   0.28314   1.00879
   1.22278   0.29811   1.08361
   1.17789   0.35796   1.06865
   1.14796   0.44774   1.05368
   1.05818   0.41782   1.00879
   1.01329   0.44774   1.02376
   0.96839   0.44774   1.11354
   0.87861   0.38789   1.14347
   0.80379   0.43278   1.12850
   0.69905   0.44774   1.11354
   0.75890   0.49264   1.09858
   0.63919   0.53753   1.11354
   0.66912   0.52256   1.23325
   0.60926   0.50760   1.21829
   0.47459   0.55249   1.23325
   0.45963   0.67220   1.23325
   0.41474   0.58242   1.21829
   0.39977   0.62731   1.11354
   0.38481   0.67220   1.12850
   0.30999   0.53753   1.17339
   0.29503   0.56745   1.14347
   0.20524   0.55249   1.06865
   0.14539   0.59738   1.03872
   0.10050   0.55249   0.99383
   0.08553   0.58242   1.05368
   0.02568   0.55249   0.94894
  -0.03418   0.52256   0.94894
   0.05561   0.49264   0.90405
  -0.12396   0.40285   0.90405
  -0.07907   0.46271   0.85916
  -0.15389   0.46271   0.87412
  -0.24367   0.41782   0.73945
  -0.33345   0.40285   0.73945
  -0.36338   0.40285   0.60477
  -0.40827   0.44774   0.54492
  -0.45316   0.46271   0.48506
  -0.48309   0.41782   0.48506
  -0.54295   0.32803   0.41024
  -0.72251   0.35796   0.30550
  -0.75244   0.29811   0.29053
  -0.79733   0.23825   0.29053
  -0.87215   0.25322   0.23068
  -0.90208   0.25322   0.11097
  -0.85718   0.26818   0.14090
  -0.97689   0.31307   0.11097
  -1.11157   0.35796  -0.00874
  -1.26121   0.44774  -0.00874
  -1.36595   0.37293  -0.08356
  -1.47070   0.38789  -0.09852
  -1.42581   0.40285  -0.21823
  -1.53055   0.34300  -0.23320
  -1.63530   0.31307  -0.33795
  -1.69515   0.29811  -0.38284
  -1.88968   0.19336  -0.39780
  -1.87472   0.22329  -0.42773
  -2.03932   0.17840  -0.45766
  -2.09918   0.23825  -0.47262
  -2.15903   0.25322  -0.48758
  -2.24881   0.22329  -0.50255
  -2.39845   0.32803  -0.51751
  -2.56305   0.34300  -0.63722
  -2.59298   0.43278  -0.60729
  -2.71269   0.38789  -0.77189
  -2.80247   0.32803  -0.77189
  -2.92218   0.28314  -0.72700
  -3.05686   0.28314  -0.74197
  -3.13168   0.28314  -0.81679
  -3.29628   0.25322  -0.89160
  -3.44591   0.10358  -0.95146
  -3.49081   0.04372  -0.93650
  -3.59555   0.05869  -0.96642
  -3.62548   0.01380  -0.96642
  -3.61052  -0.09095  -0.92153
  -3.79008  -0.10591  -1.01131
  -3.92476  -0.19570  -1.01131
  -4.05943  -0.13584  -0.98139
  -4.23899  -0.10591  -1.04124
  -4.34374  -0.10591  -1.10110
  -4.38863  -0.04606  -1.08613
  -4.44849  -0.16577  -1.07117
  -4.59812  -0.12088  -1.08613
  -4.59812  -0.10591  -1.01131
  -4.68791  -0.07599  -1.16095
  -4.82258  -0.06102  -1.08613
  -4.86747  -0.12088  -1.05621
  -4.92733  -0.13584  -1.05621
  -5.00215  -0.19570  -1.17592
  -5.09193  -0.19570  -1.16095
  -5.16675  -0.27052  -1.05621
  -5.27149  -0.27052  -1.11606
  -5.24157  -0.31541  -1.04124
  -5.31638  -0.36030  -1.02628
  -5.28646  -0.27052  -1.13102
  -5.27149  -0.37526  -1.10110
  -5.37624  -0.42015  -1.04124
  -5.40617  -0.37526  -1.14599
  -5.42113  -0.50994  -0.99635
  -5.39120  -0.52490  -0.93650
  -5.40617  -0.52490  -0.96642
  -5.42113  -0.52490  -0.95146
  -5.28646  -0.61468  -0.92153
  -5.39120  -0.53986  -0.90657
  -5.31638  -0.50994  -0.87664
  -5.24157  -0.45008  -0.98139
  -5.13682  -0.55483  -0.89160
  -5.12186  -0.52490  -0.93650
  -5.18171  -0.53986  -0.95146
  -5.03207  -0.52490  -0.89160
  -4.97222  -0.50994  -0.90657
  -5.00215  -0.48001  -0.95146
  -4.89740  -0.45008  -0.89160
  -4.82258  -0.42015  -0.84671
  -4.71783  -0.34534  -0.86168
  -4.68791  -0.40519  -0.92153
  -4.52331  -0.31541  -0.86168
  -4.38863  -0.34534  -0.89160
  -4.17914  -0.42015  -0.87664
  -4.16418  -0.43512  -0.89160
  -3.98461  -0.33037  -0.83175
  -3.86490  -0.42015  -0.86168
  -3.86490  -0.37526  -0.89160
  -3.68533  -0.34534  -0.81679
  -3.52073  -0.34534  -0.78686
  -3.44591  -0.42015  -0.78686
  -3.28131  -0.39023  -0.84671
  -3.08678  -0.40519  -0.81679
  -3.01197  -0.40519  -0.84671
  -2.93715  -0.46505  -0.84671
  -2.87729  -0.45008  -0.80182
  -2.83240  -0.48001  -0.75693
  -2.72765  -0.48001  -0.75693
  -2.62291  -0.46505  -0.74197
  -2.48823  -0.45008  -0.75693
  -2.42838  -0.53986  -0.71204
  -2.33860  -0.55483  -0.59233
  -2.27874  -0.55483  -0.60729
  -2.20392  -0.53986  -0.50255
  -2.20392  -0.50994  -0.45766
  -2.18896  -0.52490  -0.51751
  -2.20392  -0.52490  -0.48758
  -2.09918  -0.48001  -0.39780
  -2.05429  -0.50994  -0.41276
  -2.08421  -0.48001  -0.42773
  -2.00939  -0.50994  -0.38284
  -2.09918  -0.43512  -0.35291
  -2.02436  -0.42015  -0.35291
  -2.12910  -0.43512  -0.33795
  -2.06925  -0.36030  -0.29305
  -2.08421  -0.37526  -0.29305
  -2.09918  -0.42015  -0.26313
  -2.05429  -0.40519  -0.14342
  -2.14407  -0.48001  -0.17334
  -2.11414  -0.34534  -0.20327
  -2.20392  -0.37526  -0.14342
  -2.14407  -0.34534  -0.03867
  -2.29371  -0.30044   0.02119
  -2.29371  -0.27052   0.11097
  -2.33860  -0.22563   0.09600
  -2.32363  -0.10591   0.20075
  -2.32363  -0.01613   0.15586
  -2.36852  -0.06102   0.18579
  -2.44334  -0.06102   0.24564
  -2.41342  -0.04606   0.35039
  -2.45831   0.05869   0.24564
  -2.48823   0.08861   0.24564
  -2.45831   0.04372   0.33542
  -2.47327   0.11854   0.32046
  -2.59298   0.04372   0.35039
  -2.56305   0.14847   0.33542
  -2.56305   0.13351   0.39528
  -2.60794   0.17840   0.38032
  -2.60794   0.23825   0.45513
  -2.54809   0.17840   0.55988
  -2.59298   0.26818   0.55988
  -2.65284   0.46271   0.47010
  -2.54809   0.43278   0.52995
  -2.59298   0.41782   0.60477
  -2.69773   0.41782   0.61974
  -2.65284   0.52256   0.61974
  -2.65284   0.50760   0.61974
  -2.69773   0.55249   0.69455
  -2.57802   0.47767   0.72448
  -2.57802   0.53753   0.64966
  -2.48823   0.56745   0.72448
  -2.48823   0.61235   0.75441
  -2.44334   0.58242   0.73945
  -2.35356   0.53753   0.76937
  -2.33860   0.59738   0.88908
  -2.27874   0.59738   1.02376
  -2.21889   0.58242   1.03872
  -2.14407   0.65724   1.06865
  -2.09918   0.67220   1.05368
  -2.02436   0.62731   1.05368
  -1.96450   0.67220   1.11354
  -1.94954   0.64227   1.00879
  -1.87472   0.62731   1.05368
  -1.81486   0.62731   1.03872
  -1.68019   0.56745   0.97887
  -1.69515   0.59738   0.99383
  -1.63530   0.59738   0.97887
  -1.51559   0.61235   0.93397
  -1.33602   0.58242   0.93397
  -1.20135   0.56745   1.00879
  -1.23128   0.47767   1.00879
  -1.17142   0.43278   1.06865
  -1.02179   0.50760   1.03872
  -0.99186   0.52256   0.96390
  -0.99186   0.46271   0.94894
  -0.88711   0.47767   0.94894
  -0.82726   0.56745   0.94894
  -0.81229   0.40285   0.97887
  -0.66266   0.46271   0.97887
  -0.57287   0.52256   0.91901
  -0.46813   0.50760   0.78434
  -0.34842   0.46271   0.70952
  -0.33345   0.47767   0.67959
  -0.27360   0.52256   0.60477
  -0.27360   0.44774   0.51499
  -0.21374   0.44774   0.39528
  -0.16885   0.41782   0.35039
  -0.03418   0.37293   0.24564
   0.10050   0.29811   0.23068
   0.20524   0.34300   0.08104
   0.19028   0.25322  -0.02371
   0.23517   0.22329  -0.05363
   0.35488   0.20832  -0.18831
   0.44466   0.16343  -0.32298
   0.48955   0.17840  -0.42773
   0.54941   0.13351  -0.48758
   0.68408   0.10358  -0.60729
   0.71401   0.01380  -0.68211
   0.83372  -0.00117  -0.78686
   0.87861  -0.07599  -0.90657
   0.90854  -0.07599  -1.01131
   1.01329  -0.09095  -1.13102
   1.04321  -0.19570  -1.19088
   1.10307  -0.12088  -1.20584
   1.07314  -0.12088  -1.28066
   1.16292  -0.15081  -1.35548
   1.28263  -0.10591  -1.38541
   1.26767  -0.10591  -1.46023
   1.40234  -0.09095  -1.59490
   1.34249  -0.10591  -1.60986
   1.38738  -0.12088  -1.69965
   1.43227  -0.21066  -1.78943
