********************************************************************************
               CENTRO DE INSTRUMENTACION Y REGISTRO SISMICO  A.C.  
                       Coordinacion de Servicios Tecnicos
     Anaxagoras 814, Col. Narvarte, Benito Juarez, C.P. 03020 Mexico, D.F.
            Tels. 687 45 42/ 687 45  82             Fax. 669 25 12
********************************************************************************
ARCHIVO ESTANDAR DE ACELERACION:
VERSION DEL FORMATO                    : 2.0
NOMBRE DEL ARCHIVO                     : AE029906.211
FECHA Y HORA DE CREACION               : 10/FEBRERO/2000 11:55
REF. CATALOGO ACELEROGRAMAS, SMIS 1996 : REGISTRO No.     /PAG.


================================================================================
DATOS DE LA ESTACION:
NOMBRE DE LA ESTACION                  : AEROPUERTO
CLAVE DE LA ESTACION                   : AE02
LOCALIZACION DE LA ESTACION            : Esc Prim Gonzalez Garzon Calle Xico
                                       : s/n, Col. IV Seccion del Arenal
                                       : Venustiano Carranza
                                       :
                                       :
COORDENADAS DE LA ESTACION             : 19.429 LAT. N 
                                       : 99.058 LONG. W 
ALTITUD (msnm)                         : 2232
TIPO DE SUELO                          : ARCILLOSO, ZONA LAGO
                                       : 
                                       : 
INSTITUCION RESPONSABLE                : CIRES
                                       :

================================================================================
DATOS DEL ACELEROGRAFO:
MODELO DEL ACELEROGRAFO                : RAD-851
NUMERO DE SERIE DEL ACELEROGRAFO       : 242
NUMERO DE CANALES                      : 3
ORIENTACION C1-C6 (rumbo;orientacion)  : /N00E/+V/N90W
ORIENTACION C7-C12 (rumbo;orientacion) :
VEL. DE MUESTREO, C1-C6 (muestras/s)   : /100/100/100
VEL. DE MUESTREO, C7-C12 (muestras/s)  :
ESC. COMPLETA DE SENSORES, C1-C6, (g)  : /0.5/0.5/0.5
ESC. COMPLETA DE SENSORES, C7-C12, (g) :
FREC. NAT. DE SENSORES, C1-C6, (Hz)    : /30/30/30
FREC. NAT. DE SENSORES, C7-C12, (Hz)   :
AMORTIGUAMIENTO DE SENSORES, C1-C6     : /0.733/0.750/0.700
AMORTIGUAMIENTO DE SENSORES, C7-C12    :
INTERVALO DE MUESTREO, C1-C6, (s)      : /0.01/0.01/0.01
INTERVALO DE MUESTREO, C7-C12, (s)     :
UMBRAL DE DISPARO, C1-C6, (Gal)        : /2.44/3.91/2.44
UMBRAL DE DISPARO, C7-C12, (Gal)       :
MEMORIA DE PREEVENTO (s)               : 16
TIEMPO DE POSEVENTO (s)                : 48


================================================================================
DATOS DEL SISMO:
FECHA DEL SISMO (GMT)                  : 21/JUN/99
HORA EPICENTRO (GMT)                   : 17:43:05.5
MAGNITUD(ES)                           : /Mc=6.0/Ms=5.8/Mc=5.8/Me=6.2
COORDENADAS DEL EPICENTRO              : 17.99 LAT. N
                                       : 101.72 LONG. W
PROFUNDIDAD FOCAL (km)                 : 54.0
FUENTE DE LOS DATOS EPICENTRALES       : SSN
                                       : INSTITUTO DE GEOFISICA, UNAM

================================================================================
DATOS DE ESTE REGISTRO:
HORA DE LA PRIMERA MUESTRA (GMT)       : 17:44:41.00
EXACTITUD DEL TIEMPO (s)               : 0.01
DURACION DEL REGISTRO (s), C1-C6       : /110.75/110.75/110.75
DURACION DEL REGISTRO (s), C7-C12      :
NUM. TOTAL DE MUESTRAS, C1-C6          : /11075/11075/11075
NUM. TOTAL DE MUESTRAS, C7-C12         :
ACEL. MAX. (Gal), C1-C6                : /6.74506/2.22378/4.66252
ACEL. MAX., C1-C6, EN LA MUESTRA       :
ACEL. MAX. (Gal), C7-C12               :
ACEL. MAX., C7-C12, EN LA MUESTRA      :
UNIDADES DE LOS DATOS                  : Gal (cm/s/s)
FACTOR DE DECIMACION                   : 1
FORMATO DATOS (FORTRAN,10 campos/dato) : 3F10.5


================================================================================
CALIDAD DEL ACELEROGRAMA:
REGISTRO DIGITAL COMPLETO CON TIEMPO ABSOLUTO CORRECTO.


================================================================================
COMENTARIOS:














================================================================================
DATOS DE ACELERACION:
---------+---------+---------+---------+---------+---------+---------+---------+
   CANAL-1   CANAL-2   CANAL-3   CANAL-4   CANAL-5   CANAL-6   CANAL-7   CANAL-8
      N00E        +V      N90W
---------+---------+---------+---------+---------+---------+---------+---------+
[...]
  -0.52017   0.06900   0.12586
  -0.52017  -0.17041   0.12586
  -0.28075  -0.17041  -0.35298
  -0.52017   0.06900  -0.35298
  -0.75959  -0.17041  -0.11356
  -0.75959  -0.40983  -0.35298
  -0.75959  -0.64925  -0.83182
  -0.75959  -0.40983  -0.83182
  -0.99901  -0.40983  -0.83182
  -1.23843  -0.40983  -0.83182
  -0.99901  -0.40983  -1.07123
  -0.99901  -0.40983  -1.07123
  -0.99901  -0.40983  -1.31065
  -1.23843  -0.17041  -1.31065
  -1.23843  -0.64925  -1.55007
  -1.23843  -0.64925  -1.55007
  -1.47785  -0.64925  -1.55007
  -1.47785  -0.64925  -1.78949
  -1.23843  -0.88867  -1.78949
  -1.47785  -0.88867  -1.78949
  -1.47785  -1.12809  -1.55007
  -1.47785  -1.12809  -1.78949
  -1.47785  -1.12809  -1.55007
  -1.47785  -1.12809  -1.55007
  -1.23843  -0.88867  -1.55007
  -1.23843  -0.88867  -1.55007
  -1.23843  -0.88867  -1.55007
  -0.99901  -0.88867  -1.78949
  -1.23843  -0.64925  -1.55007
  -0.99901  -0.64925  -1.55007
  -0.75959  -0.88867  -1.55007
  -0.75959  -0.64925  -1.31065
  -0.75959  -0.88867  -1.55007
  -0.52017  -0.88867  -1.31065
  -0.52017  -0.88867  -1.31065
  -0.52017  -0.64925  -1.31065
  -0.28075  -0.88867  -1.31065
  -0.28075  -0.64925  -1.55007
  -0.52017  -0.40983  -1.55007
  -0.28075  -0.40983  -1.55007
  -0.28075  -0.40983  -1.55007
  -0.28075  -0.17041  -1.31065
  -0.52017   0.06900  -1.31065
  -0.04133   0.06900  -1.55007
  -0.28075   0.30842  -1.55007
  -0.28075   0.54784  -1.55007
  -0.04133   0.54784  -1.55007
  -0.28075   0.78726  -1.31065
  -0.28075   0.78726  -1.31065
  -0.04133   0.78726  -1.31065
  -0.04133   0.78726  -1.31065
  -0.04133   0.78726  -1.31065
   0.19809   0.78726  -1.31065
   0.19809   0.78726  -1.07123
   0.19809   0.78726  -1.07123
   0.43750   0.54784  -0.83182
   0.43750   0.54784  -0.83182
   0.19809   0.78726  -0.59240
   0.43750   0.54784  -0.59240
   0.67692   0.54784  -0.59240
   0.67692   0.54784  -0.35298
   0.43750   0.54784  -0.35298
   0.67692   0.54784  -0.59240
   0.67692   0.54784  -0.35298
   0.67692   0.54784  -0.35298
   0.67692   0.54784  -0.35298
   0.67692   0.54784  -0.35298
   0.67692   0.54784  -0.35298
   0.67692   0.30842  -0.35298
   0.67692   0.78726  -0.59240
   0.67692   0.78726  -0.59240
   0.67692   0.78726  -0.35298
   0.91634   0.54784  -0.35298
   0.91634   0.78726  -0.59240
   0.91634   0.78726  -0.35298
   0.91634   0.78726  -0.35298
   0.91634   0.78726  -0.35298
   0.91634   0.54784  -0.11356
   0.91634   0.54784  -0.11356
   1.15576   0.54784  -0.35298
   1.15576   0.54784  -0.35298
   0.91634   0.54784  -0.11356
   1.15576   0.30842  -0.11356
   0.91634   0.54784  -0.35298
   0.91634   0.30842  -0.11356
   1.15576   0.06900  -0.35298
   1.15576   0.06900  -0.35298
   0.91634   0.06900  -0.35298
   0.67692   0.06900  -0.11356
   0.91634   0.06900  -0.11356
   0.91634   0.06900  -0.11356
   0.91634   0.06900  -0.11356
   0.91634   0.06900  -0.11356
   0.91634   0.06900  -0.11356
   0.67692   0.30842  -0.11356
   0.91634   0.06900  -0.11356
   0.67692   0.30842  -0.35298
   0.91634   0.30842  -0.11356
   0.67692   0.30842  -0.35298
   0.67692   0.06900  -0.59240
   0.43750   0.30842  -0.35298
   0.43750   0.06900  -0.35298
   0.19809   0.06900  -0.35298
   0.19809   0.30842  -0.35298
  -0.28075   0.06900  -0.35298
  -0.28075   0.06900  -0.35298
  -0.52017   0.30842  -0.35298
  -0.75959   0.30842  -0.11356
  -0.75959   0.06900  -0.11356
  -0.99901   0.30842  -0.11356
  -1.23843   0.30842  -0.11356
  -1.23843   0.30842  -0.11356
  -1.47785   0.06900   0.12586
  -1.71727   0.06900   0.12586
  -1.71727   0.06900  -0.11356
  -1.95669   0.06900   0.12586
  -1.95669   0.06900   0.12586
  -1.95669  -0.17041   0.36528
  -1.95669  -0.17041  -0.11356
  -1.95669  -0.17041   0.12586
  -1.95669  -0.17041  -0.11356
  -1.95669   0.06900  -0.11356
  -1.71727  -0.17041   0.12586
  -1.71727  -0.40983   0.12586
  -1.47785  -0.40983   0.12586
  -1.71727  -0.40983  -0.11356
  -1.71727  -0.64925  -0.11356
  -1.47785  -0.88867  -0.11356
  -1.23843  -0.88867  -0.35298
  -1.47785  -0.64925  -0.35298
  -1.23843  -0.88867  -0.59240
  -0.99901  -0.88867  -0.59240
  -0.99901  -0.64925  -0.83182
  -1.23843  -0.64925  -0.59240
  -0.99901  -0.88867  -0.83182
  -0.75959  -0.88867  -1.07123
  -0.75959  -0.88867  -1.07123
  -0.52017  -0.88867  -1.31065
  -0.52017  -0.64925  -1.55007
  -0.52017  -0.88867  -1.55007
  -0.28075  -0.88867  -1.55007
  -0.04133  -0.88867  -1.78949
  -0.28075  -0.64925  -1.55007
  -0.04133  -0.88867  -1.55007
  -0.04133  -0.64925  -1.55007
  -0.28075  -0.64925  -1.55007
   0.19809  -0.64925  -1.31065
  -0.04133  -0.64925  -1.31065
  -0.04133  -0.64925  -1.07123
  -0.04133  -0.64925  -1.07123
  -0.04133  -0.64925  -1.07123
  -0.28075  -0.64925  -0.83182
  -0.04133  -0.64925  -0.83182
  -0.28075  -0.40983  -0.83182
  -0.04133  -0.40983  -0.83182
  -0.04133  -0.40983  -0.83182
  -0.04133  -0.40983  -0.59240
  -0.28075   0.06900  -0.59240
  -0.04133  -0.17041  -0.59240
  -0.04133  -0.17041  -0.59240
  -0.28075   0.06900  -0.35298
  -0.52017  -0.17041  -0.35298
  -0.52017  -0.17041  -0.11356
  -0.52017  -0.17041  -0.35298
  -0.52017  -0.40983  -0.11356
  -0.52017  -0.64925   0.12586
  -0.99901  -0.40983   0.12586
  -0.99901  -0.40983   0.12586
  -1.23843  -0.40983   0.36528
  -1.23843  -0.40983   0.36528
  -1.47785  -0.40983   0.60470
  -1.47785  -0.17041   0.84412
  -1.47785  -0.17041   0.84412
  -1.71727   0.06900   0.84412
  -1.71727   0.06900   1.08354
  -1.95669   0.06900   1.32295
  -1.71727   0.06900   1.08354
  -1.95669   0.30842   1.56237
  -2.19610   0.54784   1.32295
  -2.19610   0.54784   1.32295
  -2.19610   0.54784   1.32295
  -1.95669   0.78726   1.56237
  -1.95669   1.02668   1.56237
  -2.19610   0.78726   1.80179
  -2.19610   1.02668   1.56237
  -1.95669   0.78726   1.80179
  -1.71727   0.78726   1.56237
  -1.23843   0.54784   1.80179
  -1.23843   0.54784   1.80179
  -0.75959   0.30842   1.80179
  -0.52017   0.54784   1.80179
  -0.52017   0.30842   1.80179
   0.19809   0.30842   1.80179
   0.43750   0.54784   1.80179
   0.43750   0.30842   1.80179
   0.91634   0.30842   1.80179
   1.15576   0.06900   1.56237
   1.39518   0.30842   1.56237
   1.63460   0.30842   1.56237
   1.87402   0.06900   1.56237
   1.87402   0.30842   1.08354
   2.35286   0.06900   1.08354
   2.59227   0.06900   1.08354
   2.83169   0.06900   1.08354
   2.83169   0.06900   0.84412
   2.83169  -0.17041   1.08354
   2.83169  -0.17041   0.84412
   2.59227   0.30842   0.84412
   2.83169   0.30842   0.84412
   2.59227   0.06900   0.84412
   2.83169   0.30842   0.84412
   2.59227   0.30842   0.84412
   2.59227   0.30842   0.84412
   2.59227   0.78726   0.36528
   2.83169   0.78726   0.36528
   2.59227   1.02668   0.60470
   2.35286   0.78726   0.36528
   2.59227   1.02668   0.36528
   2.59227   1.02668   0.12586
   2.35286   0.78726   0.12586
   2.59227   1.02668  -0.11356
   2.59227   1.02668   0.12586
   2.35286   0.78726   0.12586
   2.35286   0.78726  -0.11356
   2.11344   0.78726  -0.35298
   1.87402   0.54784  -0.35298
   1.63460   0.30842  -0.35298
   1.63460   0.30842  -0.35298
   1.39518   0.30842  -0.59240
   1.15576   0.06900  -0.59240
   0.91634  -0.17041  -0.59240
   0.67692  -0.40983  -0.59240
   0.19809  -0.40983  -0.59240
   0.19809  -0.40983  -0.59240
  -0.04133  -0.64925  -0.83182
  -0.28075  -0.64925  -0.83182
  -0.28075  -0.88867  -0.83182
  -0.52017  -0.88867  -1.07123
  -0.99901  -0.88867  -0.83182
  -1.47785  -0.88867  -1.07123
  -1.47785  -0.88867  -1.07123
  -1.47785  -0.88867  -0.83182
  -1.95669  -1.12809  -1.07123
  -1.95669  -1.12809  -0.83182
  -2.19610  -0.88867  -1.07123
  -2.19610  -1.12809  -0.83182
  -2.43552  -0.88867  -0.83182
  -2.67494  -0.64925  -0.83182
  -2.43552  -0.64925  -0.35298
  -2.67494  -0.64925  -0.59240
  -2.67494  -0.40983  -0.35298
  -2.67494  -0.40983  -0.11356
  -2.67494  -0.40983  -0.11356
  -2.67494  -0.40983  -0.11356
  -2.67494  -0.40983  -0.11356
  -2.19610  -0.40983   0.12586
  -1.95669  -0.17041   0.36528
  -1.95669  -0.17041   0.36528
  -1.47785  -0.40983   0.12586
  -1.47785  -0.17041   0.12586
  -1.23843  -0.17041   0.36528
  -0.99901  -0.40983   0.60470
  -0.75959  -0.17041   0.36528
  -0.52017  -0.40983   0.36528
  -0.04133  -0.17041   0.12586
  -0.04133  -0.17041   0.36528
  -0.04133   0.06900   0.36528
  -0.04133   0.30842   0.60470
  -0.04133   0.30842   0.60470
   0.19809   0.54784   0.60470
   0.19809   0.54784   1.08354
  -0.04133   0.54784   1.08354
   0.19809   0.54784   1.08354
  -0.04133   0.54784   1.32295
  -0.04133   0.78726   1.32295
  -0.28075   1.02668   1.56237
  -0.28075   0.78726   1.32295
  -0.28075   1.02668   1.32295
  -0.28075   1.02668   1.56237
  -0.28075   1.26610   1.32295
  -0.28075   1.50552   1.32295
  -0.28075   1.50552   1.32295
  -0.04133   1.50552   1.56237
  -0.04133   1.74494   1.32295
   0.19809   1.50552   1.32295
   0.19809   1.50552   1.32295
   0.43750   1.74494   1.08354
   0.67692   1.98436   1.08354
   0.91634   1.74494   1.08354
   1.39518   1.74494   0.84412
   1.63460   1.74494   0.60470
   1.63460   1.74494   0.84412
   2.11344   1.50552   0.36528
   2.35286   1.50552   0.12586
   2.59227   1.26610   0.12586
   2.83169   1.26610   0.12586
   3.07111   0.78726   0.12586
   3.07111   0.54784  -0.11356
   3.54995   0.30842  -0.11356
   3.54995   0.06900  -0.59240
   3.54995   0.06900  -0.59240
   3.54995  -0.17041  -0.59240
   3.54995  -0.40983  -0.83182
   3.54995  -0.64925  -0.83182
   3.54995  -0.40983  -1.07123
   3.78937  -0.88867  -1.07123
   3.54995  -1.12809  -0.83182
   3.31053  -1.12809  -1.31065
   3.78937  -1.12809  -1.31065
   3.54995  -1.36751  -1.55007
   3.31053  -1.12809  -1.31065
   3.31053  -1.12809  -1.55007
   3.31053  -1.36751  -1.55007
   2.83169  -1.12809  -1.31065
   2.59227  -1.12809  -1.31065
   2.35286  -1.12809  -1.07123
   2.11344  -1.36751  -1.07123
   2.11344  -1.36751  -1.31065
   2.11344  -1.60693  -1.07123
   1.63460  -1.36751  -1.31065
   1.39518  -1.36751  -1.07123
   1.15576  -1.36751  -0.83182
   0.91634  -1.36751  -0.83182
   0.67692  -1.12809  -0.59240
   0.43750  -1.12809  -0.35298
   0.19809  -1.12809  -0.11356
  -0.04133  -0.88867  -0.11356
  -0.04133  -1.12809   0.36528
  -0.52017  -1.12809   0.12586
  -0.52017  -0.88867   0.12586
  -0.75959  -1.12809   0.12586
  -0.75959  -0.88867  -0.11356
  -0.99901  -0.64925  -0.11356
  -1.23843  -0.64925  -0.11356
  -1.23843  -0.40983  -0.11356
  -1.23843  -0.40983  -0.35298
  -1.71727  -0.17041   0.12586
  -1.95669  -0.17041  -0.11356
  -2.19610   0.06900  -0.11356
  -2.67494   0.30842  -0.35298
  -3.15378   0.30842   0.12586
  -3.63262   0.54784  -0.11356
  -4.11146   0.54784   0.12586
  -4.59029   0.54784   0.12586
  -5.06913   0.54784   0.12586
  -5.54797   0.78726   0.12586
  -6.02681   0.78726   0.36528
  -6.26623   0.78726   0.12586
  -6.50565   1.26610  -0.11356
  -6.74506   1.02668   0.36528
  -6.74506   1.26610  -0.11356
  -6.50565   1.26610  -0.11356
  -6.26623   1.50552  -0.59240
  -6.02681   1.74494  -0.35298
  -5.78739   1.74494  -0.83182
  -5.54797   1.50552  -0.83182
  -5.06913   1.26610  -1.07123
  -4.35087   1.26610  -1.31065
  -3.87204   1.02668  -1.31065
  -3.39320   0.78726  -1.55007
  -3.15378   0.78726  -1.78949
  -2.43552   0.30842  -1.78949
  -1.95669   0.30842  -1.78949
  -1.23843  -0.17041  -2.02891
  -0.99901  -0.17041  -2.02891
  -0.75959  -0.40983  -2.02891
  -0.52017  -0.64925  -1.78949
  -0.04133  -0.64925  -2.02891
   0.19809  -0.64925  -1.78949
   0.19809  -0.64925  -1.78949
   0.67692  -0.64925  -1.78949
   0.67692  -0.64925  -1.78949
   1.15576  -0.64925  -1.55007
   1.39518  -0.64925  -1.78949
   1.63460  -0.64925  -1.55007
   1.87402  -0.88867  -1.31065
   2.11344  -0.64925  -1.55007
   2.11344  -0.64925  -1.55007
   2.35286  -0.88867  -1.31065
   2.59227  -0.64925  -1.31065
   2.83169  -0.88867  -0.83182
   3.07111  -0.88867  -0.59240
   3.31053  -0.64925  -0.59240
   3.31053  -0.64925  -0.11356
   3.31053  -0.64925   0.12586
   3.31053  -0.64925   0.84412
   3.07111  -0.64925   0.84412
   2.83169  -0.64925   1.32295
   3.07111  -0.88867   1.80179
   3.07111  -0.64925   2.04121
   2.83169  -0.40983   2.04121
   2.83169  -0.40983   2.52005
   2.83169  -0.40983   2.52005
   3.07111  -0.17041   2.52005
   2.83169  -0.17041   2.75947
   3.07111  -0.40983   2.75947
   3.07111  -0.17041   2.75947
   3.31053   0.06900   2.75947
   3.07111   0.30842   2.75947
   3.07111   0.30842   2.99889
   3.07111   0.54784   2.75947
   2.83169   0.54784   2.75947
   2.83169   0.78726   2.28063
   2.59227   1.02668   2.04121
   2.11344   1.26610   2.04121
   1.87402   1.02668   2.04121
   1.39518   1.26610   2.04121
   1.39518   1.50552   2.04121
   0.67692   1.50552   2.04121
   0.19809   1.26610   2.04121
  -0.52017   1.50552   2.28063
  -0.99901   1.26610   2.04121
  -1.47785   1.26610   2.28063
  -1.71727   1.26610   2.28063
  -2.19610   1.26610   2.28063
  -2.67494   1.02668   2.28063
  -2.91436   0.78726   2.28063
  -3.15378   1.02668   2.28063
  -3.15378   1.02668   2.28063
  -2.91436   0.78726   2.04121
  -2.67494   0.78726   2.04121
  -2.19610   0.54784   2.04121
  -1.95669   0.54784   1.80179
  -1.47785   0.78726   1.56237
  -0.99901   0.78726   1.32295
  -0.52017   0.30842   1.08354
  -0.04133   0.54784   0.84412
   0.43750   0.54784   0.36528
   0.67692   0.06900   0.36528
   1.15576   0.06900   0.36528
   1.63460  -0.17041   0.12586
   1.63460  -0.17041   0.12586
   1.87402  -0.40983   0.12586
   2.11344  -0.64925   0.12586
   2.11344  -0.64925  -0.11356
   2.35286  -0.88867   0.12586
   2.35286  -1.12809   0.12586
   2.35286  -0.88867   0.12586
   2.35286  -0.88867   0.12586
   2.59227  -0.64925  -0.11356
   2.83169  -0.64925   0.12586
   2.59227  -0.40983   0.36528
   2.83169  -0.40983   0.36528
   3.07111  -0.17041   0.12586
   2.83169   0.06900  -0.11356
   3.31053   0.06900   0.12586
   3.31053   0.06900   0.12586
   3.31053   0.30842   0.12586
   3.31053   0.06900   0.36528
   3.31053   0.30842   0.12586
   3.54995   0.06900   0.36528
   3.54995   0.06900   0.84412
   3.54995   0.06900   0.84412
   3.54995   0.30842   1.08354
   3.31053   0.30842   1.32295
   3.54995   0.06900   1.80179
   3.54995  -0.17041   2.04121
   3.31053  -0.17041   2.04121
   3.07111  -0.17041   2.28063
   3.07111  -0.17041   2.75947
   3.07111  -0.17041   2.75947
   3.07111   0.06900   2.99889
   2.83169   0.06900   2.99889
   3.07111  -0.17041   2.99889
   3.31053   0.30842   2.99889
   3.07111   0.30842   2.75947
   3.31053   0.30842   2.99889
   3.31053   0.78726   2.75947
   3.54995   1.02668   2.52005
   3.78937   0.78726   2.52005
   3.78937   0.78726   2.04121
   3.78937   1.02668   1.80179
   3.54995   0.78726   1.80179
   3.31053   1.02668   1.56237
   3.07111   0.78726   1.80179
   2.59227   0.54784   1.32295
   2.35286   0.30842   1.32295
   1.87402   0.30842   1.08354
   1.39518   0.06900   1.08354
   0.91634  -0.17041   1.08354
   0.43750  -0.40983   0.84412
  -0.04133  -0.40983   0.84412
  -0.52017  -0.40983   0.84412
  -0.99901  -0.40983   0.84412
  -1.47785  -0.64925   0.36528
  -1.95669  -0.64925   0.36528
  -2.43552  -0.64925  -0.11356
  -2.91436  -0.64925  -0.11356
  -3.15378  -0.40983  -0.35298
  -3.39320  -0.64925  -0.59240
  -3.39320  -0.40983  -0.83182
  -3.39320  -0.40983  -1.31065
  -3.39320  -0.40983  -1.55007
  -3.15378  -0.40983  -1.78949
  -3.15378  -0.17041  -1.78949
  -3.15378  -0.40983  -2.02891
  -2.91436  -0.40983  -2.02891
  -2.43552  -0.40983  -2.26833
  -2.43552  -0.40983  -2.50775
