********************************************************************************
              CENTRO DE INSTRUMENTACION Y REGISTRO SISMICO  A.C.

    Anaxagoras 814, Col. Narvarte, Benito Juarez, C.P. 03020 Mexico, D.F.
           Tels. 5687 45 42/ 5687 45  82             Fax. 5669 25 12
********************************************************************************
ARCHIVO ESTANDAR DE ACELERACION:
VERSION DEL FORMATO                    : 2.0
NOMBRE DEL ARCHIVO                     : AE0220080212125018
FECHA Y HORA DE CREACION               : 05/MAR/08, 12:58
REF. CATALOGO ACELEROGRAMAS, SMIS 1996 : REGISTRO No.     /PAG.


================================================================================
DATOS DE LA ESTACION:
NOMBRE DE LA ESTACION                  : ESC. PRIM. "GONZÁLEZ GARZÓN"
CLAVE DE LA ESTACION                   : AE02
LOCALIZACION DE LA ESTACION            : Del. Venustiano Carranza,              
                                       : Col. El Arenal 4a. Sección,            
                                       : Calle Xico esq. con calle Xocoyote.    
                                       :                                        
                                       : 
COORDENADAS DE LA ESTACION             : 19.4290 LAT. N
                                       : 99.0584 LONG. W
ALTITUD (msnm)                         : 2232
TIPO DE SUELO                          : Arcilloso, zona lago                
                                       :                           
                                       : 
INSTITUCION RESPONSABLE                : CIRES
                                       : 

================================================================================
DATOS DEL ACELEROGRAFO:
MODELO DEL ACELEROGRAFO                : RADESD
NUMERO DE SERIE DEL ACELEROGRAFO       : 242
NUMERO DE CANALES                      : 3
ORIENTACION C1-C6 (rumbo;orientacion)  : /N00E/+V/N90W
ORIENTACION C7-C12 (rumbo;orientacion) : 
VEL. DE MUESTREO, C1-C6 (muestras/s)   : /100/100/100
VEL. DE MUESTREO, C7-C12 (muestras/s)  : 
ESC. COMPLETA DE SENSORES, C1-C6, (g)  : /0.5/0.5/0.5
ESC. COMPLETA DE SENSORES, C7-C12, (g) : 
FREC. NAT. DE SENSORES, C1-C6, (Hz)    : /30/30/30
FREC. NAT. DE SENSORES, C7-C12, (Hz)   : 
AMORTIGUAMIENTO DE SENSORES, C1-C6     : /0.733/0.750/0.700
AMORTIGUAMIENTO DE SENSORES, C7-C12    : 
INTERVALO DE MUESTREO, C1-C6, (s)      : /0.01/0.01/0.01
INTERVALO DE MUESTREO, C7-C12, (s)     : 
UMBRAL DE DISPARO, C1-C6, (Gal)        : /2.87/9.58/9.58
UMBRAL DE DISPARO, C7-C12, (Gal)       : 
MEMORIA DE PREEVENTO (s)               : 56.0
TIEMPO DE POSEVENTO (s)                : 64.0


================================================================================
DATOS DEL SISMO:
FECHA DEL SISMO (GMT)                  : 12/FEB/08
HORA EPICENTRO (GMT)                   : 12:50:18.0
MAGNITUD(ES)                           : /Mc=6.6
COORDENADAS DEL EPICENTRO              : 16.19 LAT. N
                                       : 94.54 LONG. W
PROFUNDIDAD FOCAL (km)                 : 90
FUENTE DE LOS DATOS EPICENTRALES       : SSN
                                       : INSTITUTO DE GEOFISICA, UNAM

================================================================================
DATOS DE ESTE REGISTRO:
HORA DE LA PRIMERA MUESTRA (GMT)       : 12:53:19.00
EXACTITUD DEL TIEMPO (s)               : 0.01
DURACION DEL REGISTRO (s), C1-C6       : /130.25/130.25/130.25
DURACION DEL REGISTRO (s), C7-C12      : 
NUM. TOTAL DE MUESTRAS, C1-C6          : /13025/13025/13025
NUM. TOTAL DE MUESTRAS, C7-C12         : 
ACEL. MAX. (Gal), C1-C6                : /3.54452/1.35787/2.16184
ACEL. MAX., C1-C6, EN LA MUESTRA       : /5585/11119/7037
ACEL. MAX. (Gal), C7-C12               : 
ACEL. MAX., C7-C12, EN LA MUESTRA      : 
UNIDADES DE LOS DATOS                  : Gal (cm/s/s)
FACTOR DE DECIMACION                   : 1
FORMATO DATOS (FORTRAN,10 campos/dato) : 3F10.5


================================================================================
CALIDAD DEL ACELEROGRAMA:
REGISTRO DIGITAL COMPLETO CON TIEMPO ABSOLUTO CORRECTO.


================================================================================
COMENTARIOS:














================================================================================
DATOS DE ACELERACION:
---------+---------+---------+---------+---------+---------+---------+---------+
   CANAL-1   CANAL-2   CANAL-3   CANAL-4   CANAL-5   CANAL-6   CANAL-7   CANAL-8
      N00E        +V      N90W
---------+---------+---------+---------+---------+---------+---------+---------+
[...]
   0.19264   0.40019   0.71120
  -0.04678   0.40019   0.71120
   0.19264   0.16077   0.47178
   0.19264   0.40019   0.23236
   0.19264   0.40019   0.23236
   0.19264   0.16077  -0.00706
   0.43206   0.16077  -0.24648
   0.43206   0.16077  -0.24648
   0.43206  -0.07865  -0.24648
   0.43206  -0.07865  -0.24648
   0.67148   0.16077  -0.48590
   0.91090  -0.07865  -0.48590
   0.67148  -0.07865  -0.48590
   0.91090  -0.07865  -0.72532
   1.15032  -0.31807  -0.72532
   0.91090  -0.31807  -0.72532
   1.15032  -0.31807  -0.72532
   1.15032  -0.31807  -0.72532
   1.38974  -0.55750  -0.96474
   1.15032  -0.55750  -0.96474
   1.15032  -0.55750  -0.96474
   1.38974  -0.79692  -0.96474
   1.38974  -0.79692  -0.96474
   1.38974  -0.55750  -0.96474
   1.38974  -0.79692  -0.96474
   1.38974  -0.79692  -0.72532
   1.38974  -0.79692  -0.72532
   1.62916  -0.79692  -0.96474
   1.38974  -0.79692  -0.72532
   1.38974  -0.79692  -0.72532
   1.38974  -0.79692  -0.72532
   1.38974  -0.55750  -0.72532
   1.15032  -0.55750  -0.72532
   1.15032  -0.55750  -0.48590
   1.38974  -0.79692  -0.48590
   1.15032  -0.79692  -0.48590
   1.15032  -0.55750  -0.48590
   1.15032  -0.55750  -0.48590
   0.91090  -0.31807  -0.24648
   0.91090  -0.07865  -0.00706
   0.91090  -0.31807  -0.00706
   0.91090  -0.31807  -0.00706
   0.67148  -0.31807   0.23236
   0.67148  -0.31807   0.23236
   0.67148  -0.07865   0.23236
   0.67148  -0.07865   0.47178
   0.43206  -0.07865   0.71120
   0.43206  -0.07865   0.71120
   0.43206  -0.07865   0.71120
   0.43206   0.16077   0.95062
   0.43206   0.16077   0.95062
   0.19264   0.16077   0.95062
   0.19264   0.16077   0.95062
   0.43206   0.16077   1.19004
   0.19264   0.40019   1.19004
   0.19264   0.40019   1.19004
   0.19264   0.40019   1.19004
   0.19264   0.40019   1.42946
  -0.04678   0.40019   1.42946
  -0.04678   0.63961   1.19004
  -0.04678   0.40019   1.19004
  -0.28620   0.40019   1.42946
  -0.28620   0.40019   1.42946
  -0.28620   0.40019   1.42946
  -0.52562   0.63961   1.19004
  -0.52562   0.63961   1.42946
  -0.52562   0.63961   1.19004
  -0.52562   0.63961   1.19004
  -0.52562   0.63961   1.19004
  -0.76504   0.63961   0.95062
  -1.00446   0.63961   0.95062
  -0.76504   0.40019   0.95062
  -1.00446   0.63961   0.95062
  -1.00446   0.63961   0.95062
  -1.24388   0.63961   0.71120
  -1.24388   0.40019   0.71120
  -1.24388   0.63961   0.47178
  -1.48330   0.63961   0.47178
  -1.48330   0.40019   0.23236
  -1.72272   0.40019   0.47178
  -1.72272   0.40019   0.23236
  -1.96214   0.63961   0.23236
  -1.96214   0.40019   0.23236
  -1.96214   0.63961   0.23236
  -1.96214   0.40019  -0.00706
  -1.96214   0.40019  -0.00706
  -1.96214   0.16077  -0.00706
  -1.96214   0.40019  -0.24648
  -1.96214   0.16077  -0.48590
  -1.96214   0.40019  -0.24648
  -1.96214   0.40019  -0.48590
  -1.96214   0.16077  -0.48590
  -1.96214   0.16077  -0.48590
  -1.72272   0.16077  -0.96474
  -1.96214   0.16077  -0.48590
  -1.96214   0.40019  -0.72532
  -1.72272   0.40019  -0.72532
  -1.72272   0.16077  -0.72532
  -1.72272   0.16077  -0.72532
  -1.72272   0.16077  -0.72532
  -1.48330   0.16077  -0.96474
  -1.48330  -0.07865  -0.96474
  -1.48330  -0.07865  -0.72532
  -1.24388   0.16077  -0.96474
  -1.24388  -0.07865  -0.96474
  -1.48330  -0.07865  -0.96474
  -1.24388   0.16077  -0.96474
  -1.24388  -0.07865  -0.96474
  -1.24388  -0.07865  -0.96474
  -1.24388  -0.07865  -0.96474
  -1.24388  -0.07865  -0.96474
  -1.00446  -0.07865  -0.96474
  -1.00446  -0.31807  -0.96474
  -1.00446  -0.31807  -0.96474
  -1.00446  -0.07865  -0.96474
  -0.76504  -0.31807  -0.96474
  -0.76504  -0.31807  -0.96474
  -0.52562  -0.31807  -0.96474
  -0.52562  -0.31807  -0.96474
  -0.52562  -0.31807  -0.96474
  -0.28620  -0.55750  -0.96474
  -0.28620  -0.31807  -0.96474
  -0.28620  -0.31807  -0.96474
  -0.28620  -0.55750  -0.72532
  -0.28620  -0.31807  -0.96474
  -0.04678  -0.31807  -0.72532
  -0.04678  -0.55750  -0.96474
  -0.28620  -0.31807  -0.72532
  -0.28620  -0.31807  -0.72532
  -0.04678  -0.31807  -0.72532
  -0.04678  -0.31807  -0.72532
  -0.04678  -0.31807  -0.48590
  -0.04678  -0.31807  -0.72532
  -0.04678  -0.31807  -0.72532
  -0.04678  -0.31807  -0.48590
  -0.04678  -0.07865  -0.72532
  -0.04678  -0.31807  -0.48590
  -0.04678  -0.31807  -0.48590
  -0.04678  -0.07865  -0.48590
  -0.04678  -0.07865  -0.48590
  -0.04678  -0.07865  -0.48590
  -0.04678  -0.07865  -0.24648
  -0.04678  -0.07865  -0.48590
  -0.04678   0.16077  -0.48590
  -0.04678  -0.07865  -0.24648
  -0.04678  -0.07865  -0.24648
  -0.04678   0.16077  -0.24648
  -0.04678   0.16077  -0.24648
  -0.04678  -0.07865  -0.24648
  -0.28620   0.16077  -0.00706
  -0.04678   0.16077  -0.00706
  -0.04678   0.16077  -0.00706
  -0.04678   0.16077  -0.00706
  -0.04678   0.40019   0.23236
  -0.04678   0.40019   0.23236
  -0.04678   0.40019   0.47178
  -0.04678   0.40019   0.47178
  -0.04678   0.40019   0.47178
  -0.04678   0.63961   0.47178
  -0.04678   0.40019   0.71120
   0.19264   0.40019   0.71120
   0.19264   0.40019   0.71120
   0.19264   0.63961   0.71120
   0.19264   0.63961   0.71120
   0.19264   0.63961   0.95062
   0.19264   0.63961   0.95062
   0.19264   0.40019   0.71120
   0.19264   0.63961   0.95062
   0.19264   0.63961   1.19004
   0.19264   0.63961   0.95062
  -0.04678   0.63961   1.19004
  -0.04678   0.87903   1.19004
  -0.04678   0.63961   1.19004
  -0.04678   0.87903   1.19004
  -0.04678   0.87903   1.19004
  -0.28620   0.87903   1.19004
  -0.52562   0.87903   1.19004
  -0.28620   0.87903   1.19004
  -0.52562   0.87903   1.19004
  -0.52562   0.63961   0.95062
  -0.52562   0.63961   0.95062
  -0.52562   0.63961   0.95062
  -0.52562   0.63961   0.71120
  -0.76504   0.63961   0.71120
  -0.76504   0.63961   0.47178
  -0.76504   0.63961   0.47178
  -1.00446   0.40019   0.71120
  -1.00446   0.40019   0.23236
  -1.00446   0.40019   0.47178
  -0.76504   0.40019   0.23236
  -1.00446   0.40019   0.23236
  -1.00446   0.40019  -0.00706
  -1.00446   0.40019  -0.00706
  -1.00446   0.16077  -0.00706
  -1.00446   0.16077  -0.00706
  -1.00446   0.16077  -0.24648
  -0.76504   0.16077  -0.24648
  -1.00446  -0.07865  -0.48590
  -1.00446  -0.31807  -0.48590
  -0.76504  -0.07865  -0.48590
  -0.76504  -0.31807  -0.48590
  -0.76504  -0.31807  -0.48590
  -1.00446  -0.31807  -0.72532
  -0.76504  -0.55750  -0.72532
  -0.76504  -0.55750  -0.72532
  -0.76504  -0.55750  -0.96474
  -0.76504  -0.55750  -0.96474
  -0.76504  -0.79692  -0.96474
  -0.76504  -0.55750  -0.96474
  -0.76504  -0.79692  -0.96474
  -0.52562  -0.79692  -1.20416
  -0.52562  -0.79692  -1.20416
  -0.76504  -0.79692  -1.20416
  -0.52562  -0.79692  -1.20416
  -0.52562  -1.03634  -1.44358
  -0.52562  -1.03634  -1.20416
  -0.52562  -0.79692  -1.44358
  -0.52562  -1.03634  -1.44358
  -0.52562  -0.79692  -1.20416
  -0.28620  -0.79692  -1.44358
  -0.52562  -0.79692  -1.44358
  -0.52562  -0.79692  -1.44358
  -0.52562  -1.03634  -1.44358
  -0.52562  -0.79692  -1.44358
  -0.28620  -0.79692  -1.44358
  -0.52562  -0.79692  -1.44358
  -0.52562  -0.79692  -1.44358
  -0.52562  -0.55750  -1.44358
  -0.52562  -0.55750  -1.44358
  -0.52562  -0.79692  -1.20416
  -0.76504  -0.55750  -1.20416
  -0.52562  -0.55750  -1.20416
  -0.52562  -0.55750  -1.20416
  -0.76504  -0.31807  -0.96474
  -0.76504  -0.31807  -0.96474
  -0.76504  -0.31807  -0.96474
  -1.00446  -0.31807  -0.96474
  -1.00446  -0.31807  -0.96474
  -0.76504  -0.31807  -0.72532
  -1.00446  -0.31807  -0.48590
  -1.00446  -0.31807  -0.48590
  -1.00446  -0.07865  -0.48590
  -1.00446  -0.31807  -0.48590
  -1.00446  -0.31807  -0.48590
  -1.00446  -0.07865  -0.24648
  -1.00446  -0.07865  -0.24648
  -1.00446  -0.07865  -0.24648
  -1.00446  -0.31807  -0.00706
  -1.00446  -0.07865  -0.24648
  -0.76504  -0.07865  -0.00706
  -0.76504  -0.31807  -0.00706
  -0.76504  -0.07865  -0.24648
  -0.52562  -0.07865  -0.00706
  -0.76504  -0.07865  -0.00706
  -0.28620  -0.07865  -0.00706
  -0.52562  -0.07865  -0.00706
  -0.28620  -0.07865  -0.00706
  -0.28620  -0.07865   0.23236
  -0.28620  -0.07865   0.23236
  -0.28620  -0.07865   0.23236
  -0.04678  -0.07865   0.23236
  -0.04678  -0.07865  -0.00706
  -0.04678  -0.07865   0.23236
   0.19264   0.16077   0.23236
   0.19264   0.16077   0.23236
   0.43206   0.16077   0.23236
   0.43206   0.16077   0.23236
   0.19264   0.40019   0.23236
   0.43206   0.16077   0.23236
   0.67148   0.16077   0.47178
   0.67148   0.40019   0.47178
   0.67148   0.40019   0.47178
   0.67148   0.40019   0.23236
   0.91090   0.63961   0.47178
   0.67148   0.16077   0.47178
   0.91090   0.40019   0.47178
   0.91090   0.40019   0.47178
   0.91090   0.16077   0.47178
   0.91090   0.40019   0.47178
   0.91090   0.40019   0.71120
   0.91090   0.40019   0.71120
   0.91090   0.40019   0.71120
   0.67148   0.40019   0.71120
   0.91090   0.40019   0.71120
   0.91090   0.40019   0.95062
   0.67148   0.40019   0.95062
   0.67148   0.63961   0.95062
   0.91090   0.63961   0.95062
   0.67148   0.40019   0.95062
   0.67148   0.63961   1.19004
   0.91090   0.63961   0.95062
   0.67148   0.63961   1.19004
   0.67148   0.40019   1.19004
   0.67148   0.63961   1.19004
   0.43206   0.63961   1.19004
   0.43206   0.40019   1.19004
   0.43206   0.63961   1.42946
   0.43206   0.63961   1.19004
   0.43206   0.63961   1.42946
   0.43206   0.63961   1.42946
   0.19264   0.40019   1.42946
   0.43206   0.63961   1.42946
   0.19264   0.40019   1.42946
   0.19264   0.40019   1.42946
   0.19264   0.40019   1.42946
   0.19264   0.40019   1.19004
   0.19264   0.40019   1.19004
   0.19264   0.16077   1.42946
   0.19264   0.16077   1.19004
   0.19264   0.16077   1.19004
   0.43206  -0.07865   1.19004
   0.43206   0.16077   1.19004
   0.43206  -0.07865   1.19004
   0.43206  -0.07865   1.19004
   0.43206  -0.07865   1.19004
   0.43206  -0.07865   1.19004
   0.67148  -0.07865   1.19004
   0.67148  -0.31807   0.95062
   0.67148  -0.31807   1.19004
   0.67148  -0.31807   1.19004
   0.91090  -0.31807   1.19004
   1.15032  -0.07865   0.95062
   1.15032  -0.31807   0.95062
   1.15032  -0.31807   1.19004
   1.15032  -0.31807   1.19004
   1.15032  -0.31807   0.95062
   1.38974  -0.31807   0.95062
   1.38974  -0.31807   0.95062
   1.62916  -0.31807   0.71120
   1.86858  -0.31807   0.95062
   1.86858  -0.31807   0.95062
   1.86858  -0.31807   0.95062
   1.86858  -0.31807   0.95062
   2.10800  -0.31807   0.71120
   2.58684  -0.31807   0.71120
   2.34742  -0.31807   0.71120
   2.34742  -0.07865   0.71120
   2.58684  -0.31807   0.71120
   2.58684  -0.07865   0.71120
   2.82626  -0.07865   0.71120
   2.82626  -0.07865   0.71120
   2.82626  -0.07865   0.71120
   2.82626  -0.07865   0.47178
   3.06568  -0.07865   0.47178
   3.06568   0.16077   0.47178
   3.06568   0.16077   0.47178
   3.30510   0.16077   0.47178
   3.54452   0.16077   0.47178
   3.30510   0.40019   0.47178
   3.30510   0.16077   0.47178
   3.30510   0.16077   0.23236
   3.06568   0.16077   0.23236
   3.30510   0.16077   0.23236
   3.30510   0.16077   0.23236
   3.06568   0.16077   0.23236
   3.30510   0.40019   0.23236
   3.06568   0.16077   0.47178
   3.06568   0.16077  -0.00706
   3.06568   0.40019   0.23236
   3.06568   0.16077   0.23236
   2.82626   0.16077  -0.00706
   2.82626   0.16077   0.23236
   2.82626   0.16077  -0.00706
   2.58684   0.16077  -0.00706
   2.34742   0.16077  -0.00706
   2.10800   0.16077  -0.00706
   2.34742   0.16077  -0.00706
   2.10800   0.16077  -0.00706
   1.86858   0.16077  -0.00706
   1.86858   0.16077  -0.24648
   1.62916   0.16077  -0.24648
   1.62916   0.16077  -0.24648
   1.38974  -0.07865  -0.24648
   1.15032   0.16077  -0.24648
   1.15032  -0.07865  -0.48590
   0.91090  -0.07865  -0.24648
   0.67148   0.16077  -0.48590
   0.67148  -0.07865  -0.48590
   0.67148  -0.07865  -0.48590
   0.43206  -0.07865  -0.48590
   0.43206  -0.07865  -0.72532
   0.19264  -0.07865  -0.72532
   0.19264  -0.31807  -0.72532
  -0.28620  -0.07865  -0.72532
  -0.04678  -0.07865  -0.96474
  -0.04678  -0.31807  -0.96474
  -0.28620  -0.31807  -0.96474
  -0.28620  -0.31807  -1.20416
  -0.52562  -0.31807  -0.96474
  -0.52562  -0.31807  -1.20416
  -0.76504  -0.31807  -1.20416
  -0.76504  -0.07865  -1.20416
  -1.00446  -0.31807  -1.20416
  -1.24388  -0.55750  -1.20416
  -1.00446  -0.31807  -1.20416
  -1.00446  -0.31807  -1.44358
  -1.00446  -0.55750  -1.44358
  -1.24388  -0.79692  -1.44358
  -1.48330  -0.55750  -1.44358
  -1.48330  -0.55750  -1.44358
  -1.72272  -0.55750  -1.44358
  -1.48330  -0.55750  -1.44358
  -1.72272  -0.55750  -1.44358
  -1.72272  -0.55750  -1.44358
  -1.96214  -0.31807  -1.44358
  -1.96214  -0.31807  -1.44358
  -1.96214  -0.55750  -1.68300
  -1.96214  -0.55750  -1.44358
  -1.96214  -0.31807  -1.68300
  -1.96214  -0.31807  -1.44358
  -1.96214  -0.31807  -1.44358
  -1.96214  -0.55750  -1.44358
  -1.96214  -0.31807  -1.20416
  -1.96214  -0.31807  -1.44358
  -1.96214  -0.31807  -1.20416
  -1.72272  -0.31807  -1.20416
  -1.72272  -0.31807  -1.20416
  -1.96214  -0.31807  -1.20416
  -1.72272  -0.07865  -0.96474
  -1.72272  -0.07865  -1.20416
  -1.72272  -0.07865  -1.20416
  -1.48330  -0.07865  -0.72532
  -1.48330   0.16077  -0.72532
  -1.48330   0.16077  -0.48590
  -1.48330   0.16077  -0.72532
  -1.48330   0.16077  -0.48590
  -1.24388   0.16077  -0.24648
  -1.24388   0.16077  -0.24648
  -0.76504   0.16077  -0.24648
  -1.00446   0.40019  -0.00706
  -1.00446   0.40019  -0.00706
  -0.52562   0.40019   0.23236
  -0.52562   0.40019   0.23236
  -0.52562   0.40019   0.23236
  -0.28620   0.40019   0.23236
  -0.28620   0.63961   0.47178
  -0.04678   0.63961   0.71120
  -0.04678   0.63961   0.71120
   0.19264   0.63961   0.71120
   0.19264   0.40019   0.95062
   0.19264   0.63961   0.95062
   0.43206   0.63961   0.95062
   0.67148   0.63961   0.95062
   0.43206   0.63961   1.19004
   0.67148   0.63961   1.19004
   0.67148   0.63961   1.19004
   0.91090   0.63961   1.42946
   0.91090   0.63961   1.19004
   0.67148   0.63961   1.19004
   0.91090   0.63961   1.42946
   0.91090   0.63961   1.42946
   0.91090   0.63961   1.42946
   0.67148   0.63961   1.42946
   0.91090   0.63961   1.42946
   0.91090   0.63961   1.42946
   0.67148   0.63961   1.42946
   0.67148   0.63961   1.19004
   0.67148   0.40019   1.42946
   0.43206   0.40019   1.42946
   0.43206   0.63961   1.42946
   0.43206   0.40019   0.95062
   0.43206   0.40019   1.19004
   0.19264   0.16077   1.19004
   0.19264   0.40019   0.95062
   0.19264   0.40019   0.95062
   0.19264   0.16077   0.95062
  -0.04678   0.40019   0.95062
  -0.04678   0.16077   0.71120
  -0.28620   0.16077   0.71120
  -0.28620   0.16077   0.71120
  -0.52562   0.16077   0.71120
  -0.52562   0.16077   0.47178
  -0.52562  -0.07865   0.47178
  -0.76504  -0.07865   0.23236
  -0.76504  -0.07865   0.23236
  -0.76504  -0.31807   0.23236
  -1.00446  -0.31807  -0.00706
  -1.00446  -0.55750  -0.00706
  -1.24388  -0.31807  -0.00706
  -1.24388  -0.55750  -0.24648
  -1.24388  -0.55750  -0.24648
  -1.48330  -0.55750  -0.24648
  -1.24388  -0.55750  -0.48590
  -1.72272  -0.79692  -0.24648
  -1.72272  -0.79692  -0.24648
  -1.72272  -0.79692  -0.24648
  -1.72272  -0.79692  -0.48590
  -1.96214  -0.55750  -0.48590
  -1.96214  -0.79692  -0.48590
  -1.96214  -0.55750  -0.72532
  -1.96214  -0.55750  -0.72532
  -1.72272  -0.79692  -0.72532
  -1.96214  -0.55750  -0.96474
  -1.96214  -0.55750  -0.96474
  -1.96214  -0.55750  -0.96474
  -1.96214  -0.79692  -0.96474
