********************************************************************************
              CENTRO DE INSTRUMENTACION Y REGISTRO SISMICO  A.C.

    Anaxagoras 814, Col. Narvarte, Benito Juarez, C.P. 03020 Mexico, D.F.
           Tels. 5687 45 42/ 5687 45  82             Fax. 5669 25 12
********************************************************************************
ARCHIVO ESTANDAR DE ACELERACION:
VERSION DEL FORMATO                    : 2.0
NOMBRE DEL ARCHIVO                     : AE0220120402173642
FECHA Y HORA DE CREACION               : 15/MAY/12, 09:41
REF. CATALOGO ACELEROGRAMAS, SMIS 1996 : REGISTRO No.     /PAG.


================================================================================
DATOS DE LA ESTACION:
NOMBRE DE LA ESTACION                  : ESC. PRIM. "GONZÁLEZ GARZÓN"
CLAVE DE LA ESTACION                   : AE02
LOCALIZACION DE LA ESTACION            : Del. Venustiano Carranza,              
                                       : Col. El Arenal 4a. Sección,            
                                       : Calle Xico esq. con calle Xocoyote.    
                                       :                                        
                                       : 
COORDENADAS DE LA ESTACION             : 19.4290 LAT. N
                                       : 99.0584 LONG. W
ALTITUD (msnm)                         : 2232
TIPO DE SUELO                          : Arcilloso, zona lago                
                                       :                           
                                       : 
INSTITUCION RESPONSABLE                : CIRES
                                       : 

================================================================================
DATOS DEL ACELEROGRAFO:
MODELO DEL ACELEROGRAFO                : RADESD
NUMERO DE SERIE DEL ACELEROGRAFO       : 242
NUMERO DE CANALES                      : 3
ORIENTACION C1-C6 (rumbo;orientacion)  : /N00E/+V/N90W
ORIENTACION C7-C12 (rumbo;orientacion) : 
VEL. DE MUESTREO, C1-C6 (muestras/s)   : /100/100/100
VEL. DE MUESTREO, C7-C12 (muestras/s)  : 
ESC. COMPLETA DE SENSORES, C1-C6, (g)  : /0.5/0.5/0.5
ESC. COMPLETA DE SENSORES, C7-C12, (g) : 
FREC. NAT. DE SENSORES, C1-C6, (Hz)    : /30/30/30
FREC. NAT. DE SENSORES, C7-C12, (Hz)   : 
AMORTIGUAMIENTO DE SENSORES, C1-C6     : /0.733/0.750/0.700
AMORTIGUAMIENTO DE SENSORES, C7-C12    : 
INTERVALO DE MUESTREO, C1-C6, (s)      : /0.01/0.01/0.01
INTERVALO DE MUESTREO, C7-C12, (s)     : 
UMBRAL DE DISPARO, C1-C6, (Gal)        : /1.92/9.58/2.63
UMBRAL DE DISPARO, C7-C12, (Gal)       : 
MEMORIA DE PREEVENTO (s)               : 56.0
TIEMPO DE POSEVENTO (s)                : 64.0


================================================================================
DATOS DEL SISMO:
FECHA DEL SISMO (GMT)                  : 02/ABR/12
HORA EPICENTRO (GMT)                   : 17:36:42.0
MAGNITUD(ES)                           : /Mc=6.0
COORDENADAS DEL EPICENTRO              : 16.27 LAT. N
                                       : 98.47 LONG. W
PROFUNDIDAD FOCAL (km)                 : 10
FUENTE DE LOS DATOS EPICENTRALES       : SSN
                                       : INSTITUTO DE GEOFISICA, UNAM

================================================================================
DATOS DE ESTE REGISTRO:
HORA DE LA PRIMERA MUESTRA (GMT)       : 17:38:28.00
EXACTITUD DEL TIEMPO (s)               : 0.01
DURACION DEL REGISTRO (s), C1-C6       : /350.0/350.0/350.0
DURACION DEL REGISTRO (s), C7-C12      : 
NUM. TOTAL DE MUESTRAS, C1-C6          : /35000/35000/35000
NUM. TOTAL DE MUESTRAS, C7-C12         : 
ACEL. MAX. (Gal), C1-C6                : /10.70735/3.12946/6.4183
ACEL. MAX., C1-C6, EN LA MUESTRA       : /6748/7865/11653
ACEL. MAX. (Gal), C7-C12               : 
ACEL. MAX., C7-C12, EN LA MUESTRA      : 
UNIDADES DE LOS DATOS                  : Gal (cm/s/s)
FACTOR DE DECIMACION                   : 1
FORMATO DATOS (FORTRAN,10 campos/dato) : 3F10.5


================================================================================
CALIDAD DEL ACELEROGRAMA:
REGISTRO DIGITAL COMPLETO CON TIEMPO ABSOLUTO CORRECTO.


================================================================================
COMENTARIOS:














================================================================================
DATOS DE ACELERACION:
---------+---------+---------+---------+---------+---------+---------+---------+
   CANAL-1   CANAL-2   CANAL-3   CANAL-4   CANAL-5   CANAL-6   CANAL-7   CANAL-8
      N00E        +V      N90W
---------+---------+---------+---------+---------+---------+---------+---------+
[...]
   3.52474  -1.18010  -5.55271
   3.52474  -1.18010  -5.55271
   3.28532  -1.41952  -5.55271
   3.28532  -1.65894  -5.31329
   3.04590  -1.65894  -5.31329
   2.80648  -1.65894  -5.07387
   2.56706  -1.89836  -5.31329
   2.32764  -1.89836  -5.07387
   2.08822  -2.13778  -5.07387
   1.84880  -2.13778  -4.83445
   1.13054  -2.13778  -4.59503
   0.89112  -2.13778  -4.59503
   0.41228  -2.37720  -4.35561
   0.17286  -2.37720  -4.11619
  -0.30598  -2.13778  -3.87677
  -0.54540  -2.13778  -3.63735
  -0.78482  -2.37720  -3.39793
  -1.26366  -2.13778  -3.15851
  -1.50308  -2.13778  -2.91909
  -1.98192  -2.13778  -2.44025
  -2.22134  -2.13778  -2.20083
  -2.46076  -1.89836  -1.96141
  -2.93960  -1.65894  -1.72199
  -3.17902  -1.65894  -1.72199
  -3.65786  -1.65894  -1.48256
  -3.89728  -1.65894  -1.24314
  -4.13670  -1.41952  -1.00372
  -4.37612  -1.41952  -1.00372
  -4.61554  -1.41952  -0.76430
  -4.85496  -1.41952  -0.52488
  -4.85496  -1.18010  -0.52488
  -5.09438  -1.18010  -0.28546
  -5.33380  -1.18010  -0.04604
  -5.57322  -0.94068   0.19338
  -5.57322  -0.94068   0.19338
  -5.81264  -0.94068   0.43280
  -6.05206  -0.70126   0.43280
  -6.05206  -0.70126   0.43280
  -6.05206  -0.70126   0.67222
  -6.05206  -0.46184   0.67222
  -6.29148  -0.46184   0.67222
  -6.05206  -0.22242   0.43280
  -6.05206  -0.22242   0.43280
  -5.81264  -0.22242   0.43280
  -5.57322   0.01700   0.19338
  -5.33380   0.01700  -0.04604
  -5.09438   0.01700  -0.28546
  -4.85496   0.01700  -0.28546
  -4.37612   0.25642  -0.52488
  -4.13670   0.25642  -0.76430
  -3.89728   0.25642  -0.76430
  -3.65786   0.25642  -0.76430
  -3.17902   0.25642  -1.00372
  -2.93960   0.49584  -1.00372
  -2.46076   0.49584  -1.00372
  -1.98192   0.49584  -1.00372
  -1.50308   0.49584  -1.00372
  -1.26366   0.49584  -1.00372
  -0.78482   0.73526  -1.00372
  -0.30598   0.49584  -1.00372
   0.17286   0.73526  -1.24314
   0.65170   0.73526  -1.24314
   1.13054   0.73526  -1.48256
   1.36996   0.73526  -1.48256
   1.84880   0.97468  -1.72199
   2.32764   0.97468  -1.72199
   2.80648   1.21410  -1.96141
   3.28532   1.21410  -1.96141
   3.76416   1.21410  -2.20083
   4.00358   1.21410  -2.20083
   4.48242   0.97468  -2.20083
   4.72184   1.21410  -2.20083
   5.20068   0.97468  -2.20083
   5.44011   0.97468  -1.96141
   5.67953   0.97468  -1.96141
   5.91895   0.73526  -1.72199
   5.91895   0.73526  -1.72199
   5.91895   0.73526  -1.72199
   5.91895   0.73526  -1.48256
   5.91895   0.73526  -1.48256
   5.67953   0.73526  -1.24314
   5.44011   0.73526  -1.00372
   5.20068   0.73526  -1.00372
   4.96126   0.97468  -1.00372
   4.72184   0.73526  -0.76430
   4.48242   0.73526  -0.76430
   4.00358   0.73526  -0.28546
   3.76416   0.73526  -0.28546
   3.28532   0.73526  -0.04604
   3.04590   0.73526   0.19338
   2.80648   0.73526   0.67222
   2.56706   0.73526   0.91164
   2.32764   0.73526   1.15106
   2.08822   0.97468   1.39048
   1.84880   0.73526   1.62990
   1.60938   0.73526   1.86932
   1.36996   0.73526   1.86932
   1.13054   0.49584   2.10874
   0.89112   0.49584   2.10874
   0.65170   0.49584   2.34816
   0.41228   0.49584   2.34816
  -0.06656   0.49584   2.58758
  -0.30598   0.25642   2.82700
  -0.78482   0.25642   3.06642
  -1.02424   0.25642   3.30584
  -1.26366   0.25642   3.54526
  -1.50308   0.25642   3.78468
  -1.98192   0.25642   4.02410
  -2.22134   0.25642   4.26352
  -2.22134   0.25642   4.50294
  -2.46076   0.25642   4.74236
  -2.46076   0.25642   4.98178
  -2.46076   0.25642   5.22120
  -2.46076   0.25642   5.46062
  -2.46076   0.25642   5.46062
  -2.46076   0.25642   5.70004
  -2.46076   0.25642   5.70004
  -2.46076   0.25642   5.70004
  -2.46076   0.01700   5.70004
  -2.46076   0.01700   5.46062
  -2.46076   0.01700   5.46062
  -2.46076   0.01700   5.46062
  -2.70018   0.01700   5.46062
  -2.46076  -0.22242   5.70004
  -2.46076  -0.22242   5.70004
  -2.46076  -0.22242   5.70004
  -2.46076  -0.22242   5.93946
  -2.22134  -0.22242   5.93946
  -2.22134  -0.22242   5.70004
  -1.98192  -0.22242   5.70004
  -1.74250  -0.22242   5.46062
  -1.74250  -0.22242   5.46062
  -1.50308  -0.22242   4.98178
  -1.50308  -0.22242   4.74236
  -1.26366  -0.22242   4.26352
  -1.26366  -0.22242   4.02410
  -1.26366  -0.22242   3.54526
  -1.26366  -0.46184   3.30584
  -1.26366  -0.46184   2.82700
  -1.26366  -0.46184   2.58758
  -1.26366  -0.70126   2.34816
  -1.26366  -0.70126   2.10874
  -1.26366  -0.70126   1.86932
  -1.26366  -0.70126   1.86932
  -1.50308  -0.70126   1.62990
  -1.50308  -0.70126   1.62990
  -1.50308  -0.70126   1.62990
  -1.50308  -0.70126   1.62990
  -1.50308  -0.70126   1.39048
  -1.50308  -0.70126   1.39048
  -1.50308  -0.70126   1.39048
  -1.50308  -0.70126   1.39048
  -1.50308  -0.70126   1.15106
  -1.50308  -0.70126   1.15106
  -1.50308  -0.70126   0.91164
  -1.50308  -0.46184   0.91164
  -1.26366  -0.46184   0.91164
  -1.26366  -0.22242   0.91164
  -1.26366  -0.22242   0.91164
  -1.26366  -0.22242   0.67222
  -1.26366   0.01700   0.67222
  -1.02424   0.25642   0.67222
  -1.02424   0.25642   0.67222
  -1.02424   0.25642   0.67222
  -1.02424   0.25642   0.67222
  -1.02424   0.25642   0.67222
  -1.02424   0.25642   0.67222
  -1.02424   0.25642   0.67222
  -1.02424   0.25642   0.67222
  -1.02424   0.25642   0.67222
  -1.26366   0.25642   0.67222
  -1.26366   0.25642   0.43280
  -1.26366   0.25642   0.43280
  -1.26366   0.25642   0.43280
  -1.50308   0.25642   0.43280
  -1.50308   0.25642   0.43280
  -1.50308   0.25642   0.43280
  -1.50308   0.25642   0.43280
  -1.50308   0.25642   0.43280
  -1.74250   0.25642   0.67222
  -1.50308   0.25642   0.67222
  -1.26366   0.25642   0.67222
  -1.26366   0.25642   0.91164
  -1.02424   0.01700   0.91164
  -0.78482   0.01700   0.91164
  -0.54540   0.01700   0.91164
  -0.54540   0.01700   0.91164
  -0.30598  -0.22242   0.91164
  -0.30598  -0.22242   0.67222
  -0.30598  -0.22242   0.67222
  -0.30598  -0.46184   0.43280
  -0.54540  -0.46184   0.43280
  -0.54540  -0.46184   0.43280
  -0.78482  -0.70126   0.43280
  -1.02424  -0.70126   0.43280
  -1.26366  -0.70126   0.43280
  -1.50308  -0.70126   0.43280
  -1.74250  -0.70126   0.43280
  -2.22134  -0.94068   0.43280
  -2.22134  -0.94068   0.43280
  -2.70018  -0.94068   0.43280
  -2.70018  -0.94068   0.43280
  -2.93960  -0.94068   0.43280
  -3.17902  -1.18010   0.19338
  -3.17902  -1.18010  -0.04604
  -3.41844  -1.18010  -0.04604
  -3.65786  -1.18010  -0.28546
  -3.65786  -1.18010  -0.28546
  -3.89728  -1.41952  -0.28546
  -3.89728  -1.41952  -0.52488
  -4.13670  -1.41952  -0.52488
  -4.13670  -1.41952  -0.52488
  -4.37612  -1.41952  -0.28546
  -4.37612  -1.41952  -0.28546
  -4.37612  -1.41952  -0.04604
  -4.37612  -1.18010  -0.04604
  -4.13670  -1.18010   0.19338
  -4.13670  -1.18010   0.43280
  -3.89728  -1.18010   0.43280
  -3.89728  -1.18010   0.67222
  -3.65786  -1.18010   0.67222
  -3.41844  -0.94068   0.91164
  -3.17902  -0.94068   1.15106
  -2.93960  -0.94068   1.15106
  -2.70018  -0.70126   1.39048
  -2.46076  -0.70126   1.39048
  -1.98192  -0.70126   1.62990
  -1.98192  -0.70126   1.62990
  -1.74250  -0.46184   1.62990
  -1.50308  -0.22242   1.86932
  -1.50308  -0.22242   1.86932
  -1.26366   0.01700   1.86932
  -1.02424   0.25642   1.86932
  -1.02424   0.25642   1.62990
  -0.78482   0.49584   1.62990
  -0.54540   0.49584   1.62990
  -0.54540   0.49584   1.39048
  -0.30598   0.73526   1.39048
  -0.06656   0.73526   1.39048
   0.41228   0.73526   1.15106
   0.65170   0.73526   1.15106
   1.13054   0.73526   1.15106
   1.36996   0.97468   0.91164
   1.60938   0.97468   0.91164
   1.84880   0.73526   1.15106
   2.08822   0.97468   1.15106
   2.08822   0.97468   1.15106
   2.32764   0.97468   1.39048
   2.32764   0.97468   1.39048
   2.32764   0.73526   1.62990
   2.32764   0.97468   1.62990
   2.32764   0.97468   1.39048
   2.08822   0.97468   1.62990
   2.08822   0.97468   1.39048
   2.08822   0.97468   1.39048
   1.84880   0.97468   1.15106
   1.84880   0.97468   1.15106
   1.60938   1.21410   0.67222
   1.60938   0.97468   0.67222
   1.36996   1.21410   0.43280
   1.13054   1.21410   0.43280
   1.13054   1.21410  -0.04604
   0.65170   1.45352  -0.28546
   0.41228   1.21410  -0.52488
   0.17286   1.21410  -0.76430
   0.17286   1.21410  -1.00372
  -0.30598   1.21410  -1.24314
  -0.54540   1.21410  -1.48256
  -0.78482   0.97468  -1.72199
  -1.02424   0.97468  -1.96141
  -1.26366   0.73526  -2.44025
  -1.74250   0.73526  -2.44025
  -1.98192   0.49584  -2.67967
  -2.22134   0.49584  -2.91909
  -2.46076   0.25642  -2.91909
  -2.70018   0.25642  -3.15851
  -2.93960   0.25642  -3.15851
  -2.93960   0.01700  -3.15851
  -3.17902   0.01700  -3.15851
  -3.41844   0.01700  -3.15851
  -3.41844   0.01700  -3.15851
  -3.65786   0.01700  -3.15851
  -3.89728   0.01700  -2.91909
  -4.13670  -0.22242  -2.91909
  -4.13670   0.01700  -2.91909
  -4.37612   0.01700  -3.15851
  -4.61554   0.01700  -2.91909
  -4.85496   0.01700  -2.91909
  -5.09438   0.01700  -2.91909
  -5.09438   0.01700  -2.91909
  -5.33380   0.25642  -2.91909
  -5.57322   0.01700  -2.91909
  -5.57322   0.25642  -2.67967
  -5.81264   0.01700  -2.67967
  -6.05206   0.01700  -2.67967
  -6.05206   0.01700  -2.44025
  -6.05206   0.01700  -2.20083
  -6.29148   0.01700  -1.96141
  -6.29148   0.01700  -1.72199
  -6.29148   0.01700  -1.72199
  -6.29148   0.01700  -1.48256
  -6.53090   0.01700  -1.00372
  -6.53090   0.01700  -1.00372
  -6.53090  -0.22242  -1.00372
  -6.53090   0.01700  -0.52488
  -6.53090  -0.22242  -0.52488
  -6.29148   0.01700  -0.28546
  -6.05206   0.01700  -0.28546
  -5.81264   0.01700  -0.28546
  -5.57322   0.01700  -0.04604
  -5.09438   0.01700  -0.04604
  -4.61554   0.01700   0.19338
  -4.13670   0.01700   0.19338
  -3.65786   0.25642   0.19338
  -3.17902   0.25642   0.19338
  -2.46076   0.25642   0.19338
  -1.98192   0.25642   0.19338
  -1.26366   0.25642   0.19338
  -0.78482   0.01700   0.43280
  -0.30598   0.25642   0.43280
   0.41228   0.25642   0.43280
   0.89112   0.25642   0.67222
   1.36996   0.25642   0.67222
   1.84880   0.25642   0.91164
   2.56706   0.01700   0.91164
   3.04590   0.25642   1.15106
   3.52474   0.25642   1.15106
   4.00358   0.25642   1.39048
   4.72184   0.49584   1.39048
   4.96126   0.49584   1.62990
   5.44011   0.49584   1.86932
   5.91895   0.73526   2.10874
   6.39779   0.73526   2.10874
   6.87663   0.49584   2.34816
   7.35547   0.73526   2.58758
   7.59489   0.73526   2.58758
   8.07373   0.73526   2.82700
   8.31315   0.73526   2.82700
   8.79199   0.73526   2.58758
   9.03141   0.73526   2.58758
   9.27083   0.73526   2.34816
   9.51025   0.73526   2.34816
   9.74967   0.49584   2.10874
   9.98909   0.49584   1.86932
   9.98909   0.49584   1.86932
  10.22851   0.49584   1.39048
  10.46793   0.25642   1.15106
  10.70735   0.01700   0.91164
  10.70735   0.25642   0.67222
  10.70735   0.01700   0.43280
  10.70735   0.01700   0.43280
  10.70735   0.01700   0.19338
  10.46793   0.01700  -0.04604
  10.22851   0.01700  -0.04604
  10.22851   0.01700  -0.28546
   9.98909   0.01700  -0.28546
   9.51025   0.01700  -0.52488
   9.27083   0.01700  -0.52488
   8.79199   0.01700  -0.76430
   8.31315   0.01700  -0.76430
   7.83431   0.01700  -0.76430
   7.11605  -0.22242  -1.00372
   6.39779  -0.22242  -1.00372
   5.91895  -0.46184  -1.24314
   5.44011  -0.46184  -1.24314
   4.72184  -0.46184  -1.24314
   4.24300  -0.70126  -1.24314
   3.76416  -0.70126  -1.24314
   3.28532  -0.70126  -1.24314
   2.80648  -0.70126  -1.48256
   2.32764  -0.94068  -1.48256
   1.84880  -0.70126  -1.48256
   1.60938  -0.94068  -1.72199
   1.13054  -0.94068  -1.72199
   0.89112  -0.94068  -1.72199
   0.65170  -0.94068  -1.72199
   0.41228  -0.94068  -1.72199
   0.17286  -1.18010  -1.72199
  -0.06656  -0.94068  -1.72199
  -0.30598  -1.18010  -1.72199
  -0.54540  -1.18010  -1.72199
  -0.78482  -1.18010  -1.96141
  -0.78482  -1.18010  -1.96141
  -0.78482  -0.94068  -1.72199
  -1.02424  -1.18010  -1.72199
  -1.26366  -0.94068  -1.72199
  -1.26366  -0.94068  -1.48256
  -1.26366  -0.94068  -1.48256
  -1.26366  -0.70126  -1.48256
  -1.26366  -0.70126  -1.48256
  -1.26366  -0.70126  -1.24314
  -1.26366  -0.70126  -1.24314
  -1.02424  -0.46184  -1.24314
  -1.02424  -0.46184  -1.24314
  -1.02424  -0.46184  -1.00372
  -0.78482  -0.46184  -1.00372
  -0.54540  -0.22242  -1.00372
  -0.30598  -0.46184  -1.00372
  -0.30598  -0.22242  -1.00372
  -0.06656  -0.22242  -1.00372
   0.17286  -0.22242  -1.24314
   0.41228  -0.46184  -1.24314
   0.41228  -0.46184  -1.24314
   0.65170  -0.46184  -1.24314
   0.89112  -0.46184  -1.24314
   0.89112  -0.22242  -1.24314
   1.13054  -0.46184  -1.48256
   1.36996  -0.22242  -1.48256
   1.60938  -0.22242  -1.48256
   1.60938  -0.22242  -1.48256
   1.84880  -0.22242  -1.48256
   2.08822  -0.22242  -1.72199
   2.08822   0.01700  -1.48256
   2.32764   0.01700  -1.48256
   2.56706   0.01700  -1.48256
   2.56706   0.25642  -1.24314
   2.80648   0.25642  -1.24314
   2.80648   0.49584  -1.24314
   2.80648   0.49584  -1.24314
   3.04590   0.49584  -1.24314
   3.04590   0.73526  -1.24314
   3.04590   0.73526  -1.24314
   3.04590   0.73526  -1.24314
   3.28532   0.73526  -1.24314
   3.28532   0.73526  -1.48256
   3.04590   0.49584  -1.48256
   2.80648   0.49584  -1.48256
   2.80648   0.25642  -1.48256
   2.56706   0.25642  -1.48256
   2.32764   0.25642  -1.48256
   2.08822   0.25642  -1.72199
   2.08822   0.01700  -1.96141
   1.60938   0.01700  -1.96141
   1.36996   0.01700  -2.20083
   1.13054   0.01700  -2.44025
   0.89112   0.01700  -2.67967
   0.65170   0.01700  -2.91909
   0.65170   0.01700  -3.15851
   0.41228   0.25642  -3.39793
   0.41228   0.25642  -3.63735
   0.41228   0.25642  -3.87677
   0.65170   0.01700  -3.87677
   0.41228   0.01700  -3.87677
   0.41228   0.01700  -4.11619
   0.65170  -0.22242  -4.11619
   0.65170  -0.22242  -3.87677
   0.65170  -0.22242  -3.87677
   0.65170  -0.22242  -3.63735
   0.65170  -0.22242  -3.63735
   0.65170  -0.22242  -3.39793
   0.65170  -0.22242  -3.39793
   0.65170   0.01700  -3.15851
   0.65170  -0.22242  -3.15851
   0.65170  -0.22242  -3.15851
   0.65170   0.01700  -2.91909
   0.65170  -0.22242  -2.91909
   0.65170  -0.22242  -2.91909
   0.41228  -0.22242  -2.91909
   0.41228   0.01700  -2.91909
   0.41228   0.01700  -2.67967
   0.17286   0.01700  -2.67967
   0.17286   0.25642  -2.44025
  -0.06656   0.25642  -2.20083
  -0.06656   0.25642  -2.20083
  -0.30598   0.49584  -1.96141
  -0.30598   0.49584  -1.48256
  -0.54540   0.49584  -1.48256
  -0.78482   0.49584  -1.24314
  -1.02424   0.49584  -1.00372
  -1.02424   0.73526  -0.76430
  -1.26366   0.73526  -0.52488
  -1.50308   0.73526  -0.52488
  -1.50308   0.73526  -0.28546
  -1.50308   0.73526  -0.28546
  -1.50308   0.97468  -0.04604
  -1.50308   0.97468  -0.04604
  -1.50308   1.21410  -0.04604
  -1.50308   1.21410  -0.04604
  -1.26366   1.21410  -0.04604
  -1.26366   1.21410   0.19338
  -1.02424   1.45352   0.19338
  -0.78482   1.45352   0.19338
  -0.54540   1.45352   0.19338
  -0.30598   1.45352   0.19338
  -0.30598   1.45352   0.19338
  -0.06656   1.45352   0.19338
   0.17286   1.45352   0.19338
   0.17286   1.21410   0.43280
   0.17286   1.21410   0.43280
   0.41228   1.21410   0.43280
   0.41228   0.97468   0.43280
   0.41228   0.97468   0.43280
   0.41228   0.97468   0.43280
   0.65170   0.97468   0.67222
   0.41228   0.97468   0.91164
   0.65170   0.97468   0.91164
