********************************************************************************
               CENTRO DE INSTRUMENTACION Y REGISTRO SISMICO  A.C.  
                       Coordinacion de Servicios Tecnicos
     Anaxagoras 814, Col. Narvarte, Benito Juarez, C.P. 03020 Mexico, D.F.
            Tels. 687 45 42/ 687 45  82             Fax. 669 25 12
********************************************************************************
ARCHIVO ESTANDAR DE ACELERACION:
VERSION DEL FORMATO                    : 2.0
NOMBRE DEL ARCHIVO                     : AE029305.152
FECHA Y HORA DE CREACION               : 96/01/12  14:23:48
REF. CATALOGO ACELEROGRAMAS, SMIS 1995 : REGISTRO No. 4905 /PAG. 443


================================================================================
DATOS DE LA ESTACION:
NOMBRE DE LA ESTACION                  : AEROPUERTO
CLAVE DE LA ESTACION                   : AE02
LOCALIZACION DE LA ESTACION            : Esc Prim Gonzalez Garzon Calle Xico
                                       : s/n, Col. IV Seccion del Arenal
                                       : Venustiano Carranza
                                       :
                                       :
COORDENADAS DE LA ESTACION             : 19.429 LAT. N 
                                       : 99.058 LONG. W 
ALTITUD (msnm)                         : 2232
TIPO DE SUELO                          : ARCILLOSO, ZONA LAGO
                                       : 
                                       : 
INSTITUCION RESPONSABLE                : CIRES
                                       :

================================================================================
DATOS DEL ACELEROGRAFO:
MODELO DEL ACELEROGRAFO                : DCA-333
NUMERO DE SERIE DEL ACELEROGRAFO       : 242
NUMERO DE CANALES                      : 3
ORIENTACION C1-C6 (rumbo;orientacion)  : /N00E/+V/N90W
ORIENTACION C7-C12 (rumbo;orientacion) :
VEL. DE MUESTREO, C1-C6 (muestras/s)   : /100/100/100
VEL. DE MUESTREO, C7-C12 (muestras/s)  :
ESC. COMPLETA DE SENSORES, C1-C6, (g)  : /0.5/0.5/0.5
ESC. COMPLETA DE SENSORES, C7-C12, (g) :
FREC. NAT. DE SENSORES, C1-C6, (Hz)    : /30/30/30
FREC. NAT. DE SENSORES, C7-C12, (Hz)   :
AMORTIGUAMIENTO DE SENSORES, C1-C6     : /0.733/0.750/0.700
AMORTIGUAMIENTO DE SENSORES, C7-C12    :
INTERVALO DE MUESTREO, C1-C6, (s)      : /0.01/0.01/0.01
INTERVALO DE MUESTREO, C7-C12, (s)     :
UMBRAL DE DISPARO, C1-C6, (Gal)        : /3.9/3.9/3.9
UMBRAL DE DISPARO, C7-C12, (Gal)       :
MEMORIA DE PREEVENTO (s)               : 4
TIEMPO DE POSEVENTO (s)                : 15


================================================================================
DATOS DEL SISMO:
FECHA DEL SISMO (GMT)                  : 15/MAY/93
HORA EPICENTRO (GMT)                   : 3:11:56,0 
MAGNITUD(ES)                           : /Mb=5.90/Ms=5.90/Mc=6.00
COORDENADAS DEL EPICENTRO              : 16.470 LAT. N 
                                       : 98.720 LONG. W 
PROFUNDIDAD FOCAL (km)                 : < 5
FUENTE DE LOS DATOS EPICENTRALES       : SSN
                                       : INSTITUTO DE GEOFISICA, UNAM

================================================================================
DATOS DE ESTE REGISTRO:
HORA DE LA PRIMERA MUESTRA (GMT)       : 03:14:03.70
EXACTITUD DEL TIEMPO (s)               : 0.01
DURACION DEL REGISTRO (s), C1-C6       : /82.80/82.80/82.80
DURACION DEL REGISTRO (s), C7-C12      :
NUM. TOTAL DE MUESTRAS, C1-C6          : /8280/8280/8280
NUM. TOTAL DE MUESTRAS, C7-C12         :
ACEL. MAX. (Gal), C1-C6                : /8.97/4.23/9.17
ACEL. MAX., C1-C6, EN LA MUESTRA       :
ACEL. MAX. (Gal), C7-C12               :
ACEL. MAX., C7-C12, EN LA MUESTRA      :
UNIDADES DE LOS DATOS                  : Gal (cm/s/s)
FACTOR DE DECIMACION                   : 1
FORMATO DATOS (FORTRAN,10 campos/dato) : 3F10.2


================================================================================
CALIDAD DEL ACELEROGRAMA:
REGISTRO DIGITAL COMPLETO, CON TIEMPO ABSOLUTO CORRECTO.


================================================================================
COMENTARIOS:














================================================================================
DATOS DE ACELERACION:
---------+---------+---------+---------+---------+---------+---------+---------+
   CANAL-1   CANAL-2   CANAL-3   CANAL-4   CANAL-5   CANAL-6   CANAL-7   CANAL-8
      N00E        +V      N90W
---------+---------+---------+---------+---------+---------+---------+---------+
[...]
      0.61      1.52     -3.76
      0.61      1.28     -4.00
      0.61      1.28     -4.00
      0.37      1.28     -4.00
      0.37      1.28     -4.00
      0.37      1.28     -4.00
      0.37      1.04     -4.00
      0.37      1.04     -4.00
      0.13      1.04     -4.00
      0.37      1.04     -4.00
      0.37      1.28     -4.00
      0.37      1.04     -4.00
      0.37      1.04     -4.00
      0.37      1.04     -4.00
      0.37      1.28     -4.00
      0.37      1.28     -4.00
      0.37      1.28     -4.00
      0.61      1.28     -4.00
      0.61      1.28     -3.76
      0.61      1.76     -3.76
      0.61      1.28     -3.76
      0.61      1.28     -4.00
      0.85      1.52     -3.76
      0.85      1.52     -3.76
      1.09      1.28     -3.52
      1.33      1.28     -3.52
      1.33      1.28     -3.52
      1.33      1.04     -3.52
      1.33      1.28     -3.28
      1.33      1.04     -3.28
      1.33      1.04     -3.28
      1.33      1.04     -3.28
      1.33      1.04     -3.04
      1.33      1.04     -3.04
      1.33      1.04     -3.04
      1.56      0.80     -3.04
      1.56      0.80     -2.80
      1.56      0.56     -2.80
      1.56      0.56     -2.56
      1.56      0.56     -2.56
      1.56      0.56     -2.32
      1.56      0.32     -2.32
      1.56      0.32     -2.32
      1.56      0.32     -2.08
      1.56      0.32     -2.08
      1.56      0.08     -2.08
      1.56      0.08     -2.08
      1.56      0.08     -2.08
      1.56     -0.16     -1.61
      1.56     -0.16     -1.61
      1.56     -0.40     -1.61
      1.80     -0.40     -1.37
      1.56     -0.64     -1.13
      1.80     -0.88     -1.13
      1.80     -0.88     -0.89
      1.80     -0.88     -0.89
      2.04     -1.12     -0.65
      2.04     -0.88     -0.41
      2.04     -1.12     -0.17
      2.04     -1.36      0.07
      2.04     -1.36      0.31
      2.04     -1.12      0.31
      2.04     -1.36      0.31
      2.04     -1.60      0.55
      2.04     -1.60      0.79
      2.04     -1.60      1.03
      2.04     -1.83      1.27
      2.04     -1.83      1.51
      2.04     -1.83      1.75
      2.04     -1.60      1.99
      2.04     -1.60      2.23
      2.04     -1.83      2.23
      2.04     -1.60      2.46
      2.04     -1.60      2.46
      2.28     -1.60      2.70
      2.04     -1.60      2.94
      2.04     -1.36      2.94
      2.04     -1.12      3.18
      2.28     -1.36      3.18
      2.28     -1.12      3.42
      2.04     -1.60      3.42
      2.28     -1.36      3.66
      2.28     -1.36      3.66
      2.28     -1.36      3.90
      2.28     -1.36      3.90
      2.28     -1.12      3.90
      2.52     -1.12      3.90
      2.52     -0.88      3.90
      2.52     -0.88      3.90
      2.52     -0.64      3.90
      2.76     -0.64      3.90
      2.76     -0.64      4.14
      2.76     -0.40      4.14
      3.00     -0.40      4.14
      3.00     -0.40      4.38
      3.00     -0.40      4.38
      3.00     -0.40      4.38
      3.00     -0.40      4.38
      3.00     -0.40      4.38
      3.24     -0.16      4.62
      3.00      0.08      4.62
      3.00      0.08      4.38
      3.00      0.08      4.38
      3.00      0.32      4.38
      3.00      0.32      4.14
      3.00      0.32      4.14
      3.00      0.56      4.14
      3.00      0.56      4.14
      2.76      0.56      4.14
      2.76      0.80      3.90
      2.76      0.80      3.90
      2.76      0.80      3.90
      2.52      0.80      3.90
      2.52      0.80      3.66
      2.28      0.80      3.66
      2.04      0.80      3.66
      2.04      0.80      3.42
      2.04      0.80      3.18
      1.80      0.80      2.94
      1.56      0.80      2.70
      1.56      0.80      2.46
      1.33      0.80      2.23
      1.33      0.56      2.23
      1.33      0.56      1.99
      1.33      0.56      1.75
      1.33      0.32      1.75
      1.33      0.32      1.51
      1.09      0.08      1.51
      1.09      0.08      1.27
      0.85      0.08      1.03
      0.85      0.08      0.79
      0.61      0.08      0.55
      0.61      0.08      0.55
      0.61      0.08      0.31
      0.37      0.08      0.31
      0.37      0.08      0.31
      0.37     -0.16      0.31
      0.13     -0.16     -0.17
      0.13     -0.16     -0.17
     -0.11     -0.16     -0.41
     -0.35     -0.16     -0.41
     -0.35     -0.16     -0.65
     -0.59     -0.16     -0.65
     -0.83     -0.16     -0.89
     -0.83      0.08     -0.89
     -1.07      0.08     -1.13
     -1.07      0.08     -1.13
     -1.31      0.08     -1.37
     -1.31      0.08     -1.37
     -1.55      0.08     -1.37
     -1.55      0.08     -1.37
     -1.79      0.08     -1.61
     -1.79      0.08     -1.61
     -1.79      0.08     -1.61
     -2.03      0.08     -1.61
     -2.03      0.08     -1.61
     -2.03      0.08     -1.61
     -2.27      0.08     -1.61
     -2.27      0.08     -1.61
     -2.27      0.08     -1.61
     -2.51      0.08     -1.84
     -2.51      0.08     -1.61
     -2.51      0.08     -1.61
     -2.51      0.08     -1.61
     -2.51      0.08     -1.84
     -2.75      0.08     -1.84
     -2.51      0.08     -2.08
     -2.51      0.08     -1.84
     -2.51      0.08     -2.08
     -2.51      0.08     -2.32
     -2.51      0.08     -2.08
     -2.75      0.08     -2.32
     -2.51      0.08     -2.32
     -2.51      0.08     -2.32
     -2.51      0.08     -2.32
     -2.51      0.08     -2.32
     -2.51      0.08     -2.32
     -2.51      0.08     -2.32
     -2.51      0.08     -2.32
     -2.51      0.32     -2.56
     -2.27      0.08     -2.56
     -2.27      0.08     -2.56
     -2.27      0.08     -2.56
     -2.27      0.32     -2.56
     -2.27      0.08     -2.56
     -2.27      0.08     -2.56
     -2.03      0.32     -2.56
     -2.03      0.08     -2.56
     -2.03      0.08     -2.56
     -2.03      0.08     -2.56
     -1.79      0.32     -2.56
     -1.79      0.32     -2.56
     -1.55      0.32     -2.56
     -1.55      0.32     -2.56
     -1.55      0.32     -2.56
     -1.31      0.32     -2.80
     -1.07      0.08     -2.80
     -1.07      0.08     -2.56
     -0.83      0.08     -2.80
     -0.59      0.08     -2.56
     -0.35      0.08     -2.56
     -0.35      0.08     -2.32
     -0.35      0.08     -2.32
     -0.11      0.08     -2.32
     -0.11      0.08     -2.32
     -0.11      0.08     -2.08
      0.13      0.08     -2.08
      0.13      0.08     -1.84
      0.37      0.08     -1.84
      0.37      0.08     -1.84
      0.61      0.08     -1.61
      0.61      0.08     -1.61
      0.61      0.08     -1.61
      0.61      0.08     -1.61
      0.85      0.08     -1.37
      0.85      0.08     -1.37
      0.85      0.08     -1.37
      0.85      0.08     -1.13
      0.85      0.08     -1.13
      1.09      0.08     -1.13
      1.09      0.08     -1.13
      1.33      0.08     -1.13
      1.09      0.08     -1.13
      1.33     -0.16     -0.89
      1.33     -0.40     -0.89
      1.33     -0.40     -0.89
      1.33     -0.64     -0.89
      1.33     -0.64     -0.89
      1.33     -0.64     -0.65
      1.33     -0.64     -0.65
      1.33     -0.88     -0.65
      1.56     -0.64     -0.65
      1.56     -0.88     -0.41
      1.33     -1.12     -0.41
      1.56     -0.88     -0.41
      1.56     -0.88     -0.41
      1.80     -0.88     -0.17
      1.80     -0.88     -0.41
      1.80     -0.88     -0.17
      1.80     -0.88      0.07
      2.04     -1.12     -0.17
      2.04     -0.88     -0.17
      2.04     -1.12     -0.17
      2.28     -1.36      0.07
      2.28     -1.36      0.31
      2.52     -1.12      0.31
      2.52     -1.12      0.07
      2.76     -1.12      0.31
      2.76     -0.88      0.31
      2.76     -1.12      0.31
      2.76     -0.88      0.31
      3.00     -0.88      0.31
      3.00     -0.88      0.31
      3.00     -0.88      0.31
      3.00     -0.64      0.31
      3.00     -0.64      0.31
      3.00     -0.64      0.31
      3.00     -0.64      0.31
      3.24     -0.64      0.31
      3.00     -0.40      0.31
      3.24     -0.40      0.31
      3.24     -0.16      0.31
      3.00     -0.16      0.31
      3.24      0.08      0.31
      3.00      0.08      0.31
      3.24      0.08      0.31
      3.00      0.08      0.07
      3.24      0.08      0.31
      3.24      0.08      0.31
      3.00      0.08      0.31
      3.24      0.08      0.31
      3.24      0.08      0.31
      3.24      0.32      0.31
      3.24      0.08      0.31
      3.24      0.32      0.31
      3.24      0.32      0.31
      3.24      0.32      0.31
      3.24      0.56      0.31
      3.24      0.56      0.31
      3.24      0.56      0.31
      3.00      0.56      0.55
      3.00      0.56      0.55
      3.00      0.56      0.55
      3.00      0.80      0.55
      3.00      0.56      0.55
      3.00      0.56      0.55
      3.00      0.80      0.55
      2.76      0.80      0.55
      2.76      0.56      0.79
      2.76      0.80      0.55
      2.52      0.80      0.55
      2.52      0.80      0.79
      2.28      0.80      0.55
      2.28      0.80      0.79
      2.04      0.80      0.79
      1.80      0.80      0.79
      1.80      0.56      0.79
      1.80      0.80      0.79
      1.80      0.56      0.55
      1.56      0.56      0.79
      1.56      0.32      0.79
      1.33      0.32      0.79
      1.33      0.08      0.79
      1.09      0.32      0.79
      0.85      0.08      0.55
      0.85      0.08      0.55
      0.61      0.08      0.55
      0.37      0.08      0.55
      0.13      0.08      0.55
     -0.11      0.08      0.55
     -0.35      0.08      0.55
     -0.59      0.08      0.31
     -0.83      0.08      0.31
     -1.07      0.32      0.31
     -1.31      0.08      0.31
     -1.55      0.08      0.31
     -2.03      0.08      0.31
     -2.03      0.32      0.31
     -2.51      0.32      0.31
     -2.75      0.32      0.31
     -2.98      0.32      0.31
     -3.22      0.32      0.31
     -3.46      0.32      0.31
     -3.70      0.08      0.31
     -4.18      0.32      0.31
     -4.42      0.32      0.07
     -4.66      0.32      0.31
     -4.90      0.32      0.31
     -5.14      0.32      0.07
     -5.38      0.32      0.31
     -5.62      0.56      0.31
     -5.62      0.32      0.31
     -6.10      0.32      0.31
     -6.34      0.08      0.31
     -6.58      0.08      0.31
     -6.82      0.08      0.31
     -7.05      0.08      0.31
     -7.05      0.08      0.31
     -7.29      0.08      0.31
     -7.53      0.08      0.07
     -7.77      0.08      0.31
     -8.01      0.08      0.31
     -8.01      0.08      0.31
     -8.25      0.08      0.31
     -8.49      0.08      0.55
     -8.49      0.08      0.55
     -8.49      0.08      0.55
     -8.73      0.08      0.79
     -8.73      0.08      0.79
     -8.97      0.08      0.79
     -8.97      0.08      1.03
     -8.73      0.08      1.03
     -8.97      0.08      1.27
     -8.97      0.08      1.27
     -8.73      0.08      1.51
     -8.73      0.08      1.51
     -8.73      0.08      1.51
     -8.49      0.08      1.51
     -8.49      0.08      1.51
     -8.25      0.08      1.75
     -8.25      0.32      1.75
     -8.01      0.32      1.75
     -8.01      0.32      1.75
     -7.77      0.56      1.75
     -7.77      0.32      1.75
     -7.53      0.56      1.99
     -7.29      0.56      1.99
     -7.05      0.56      1.99
     -6.58      0.80      1.99
     -6.58      0.80      1.99
     -6.34      0.80      1.99
     -6.10      0.80      1.99
     -5.62      0.80      1.99
     -5.38      0.80      1.99
     -5.14      0.80      1.99
     -4.90      0.80      2.23
     -4.66      1.04      2.23
     -4.42      0.80      2.23
     -4.18      0.80      2.23
     -3.94      0.80      2.23
     -3.70      0.80      2.23
     -3.46      0.80      2.46
     -3.22      0.56      2.46
     -2.98      0.56      2.23
     -2.75      0.56      2.23
     -2.51      0.80      2.23
     -2.51      0.56      2.23
     -2.03      0.56      2.23
     -2.03      0.56      2.23
     -1.79      0.32      2.23
     -1.55      0.32      1.99
     -1.31      0.56      1.99
     -1.07      0.32      1.75
     -0.83      0.32      1.75
     -0.59      0.08      1.51
     -0.35      0.08      1.51
     -0.11      0.08      1.51
      0.13      0.08      1.51
      0.37     -0.16      1.51
      0.61     -0.40      1.27
      0.85     -0.40      1.27
      0.85     -0.16      1.27
      1.33     -0.64      1.03
      1.33     -0.64      1.03
      1.56     -0.64      0.79
      1.80     -0.64      0.79
      2.04     -0.88      0.79
      2.28     -0.88      0.55
      2.52     -1.12      0.55
      2.76     -1.12      0.31
      2.76     -1.12      0.31
      3.00     -1.36      0.31
      3.00     -1.36      0.31
      3.48     -1.36      0.31
      3.48     -1.36      0.31
      3.72     -1.12      0.31
      3.72     -1.36      0.31
      3.96     -1.36      0.31
      3.96     -1.36      0.31
      3.96     -1.36      0.31
      4.20     -1.36      0.31
      4.20     -1.12      0.31
      4.44     -1.36      0.31
      4.44     -1.36      0.31
      4.44     -1.36      0.07
      4.44     -1.36      0.07
      4.44     -1.12      0.07
      4.68     -1.12      0.31
      4.44     -0.88      0.31
      4.44     -1.12      0.31
      4.44     -0.88      0.31
      4.44     -0.88      0.31
      4.68     -0.88      0.31
      4.44     -0.88      0.31
      4.44     -0.88      0.31
      4.44     -0.88      0.31
      4.68     -0.88      0.31
      4.68     -0.88      0.31
      4.68     -0.88      0.07
      4.68     -0.88      0.07
      4.68     -0.88     -0.17
      4.68     -0.88     -0.17
      4.68     -0.64     -0.41
      4.68     -0.64     -0.65
      4.68     -0.40     -0.65
      4.68     -0.40     -0.65
      4.68     -0.40     -0.65
      4.44     -0.16     -0.65
      4.68     -0.40     -0.65
      4.44     -0.16     -0.65
      4.44     -0.16     -0.65
      4.44      0.08     -0.89
      4.44     -0.16     -0.89
      4.44     -0.16     -1.13
      4.44      0.08     -1.13
      4.20      0.08     -1.13
      4.20      0.08     -1.13
      4.20      0.08     -1.13
      3.96      0.08     -1.13
      3.96      0.08     -1.37
      3.72      0.32     -1.13
      3.72      0.32     -1.37
      3.72      0.32     -1.37
      3.48      0.56     -1.37
      3.48      0.56     -1.37
      3.48      0.56     -1.13
      3.24      0.56     -1.37
      3.24      0.56     -1.37
      3.00      0.56     -1.37
      3.00      0.56     -1.61
      2.76      0.56     -1.37
      2.52      0.80     -1.37
      2.52      0.80     -1.37
      2.28      0.56     -1.37
      2.28      0.80     -1.37
      2.04      0.80     -1.37
      1.80      0.80     -1.37
      1.80      0.80     -1.37
      1.33      1.04     -1.37
      1.33      0.80     -1.37
      1.33      1.04     -1.37
      1.09      1.04     -1.37
      0.85      1.04     -1.37
      0.61      1.04     -1.37
      0.61      1.04     -1.37
      0.37      1.04     -1.37
      0.13      1.04     -1.37
      0.13      1.28     -1.37
     -0.35      1.04     -1.37
     -0.59      1.04     -1.37
     -0.59      1.04     -1.13
     -0.83      0.80     -1.37
     -1.07      1.04     -1.37
     -1.31      1.04     -1.37
     -1.31      1.04     -1.13
     -1.55      0.80     -1.13
     -1.79      1.04     -0.89
     -2.03      0.80     -0.89
     -2.03      0.80     -0.89
