********************************************************************************
               CENTRO DE INSTRUMENTACION Y REGISTRO SISMICO  A.C.  
                       Coordinacion de Servicios Tecnicos
     Anaxagoras 814, Col. Narvarte, Benito Juarez, C.P. 03020 Mexico, D.F.
            Tels. 687 45 42/ 687 45  82             Fax. 669 25 12
********************************************************************************
ARCHIVO ESTANDAR DE ACELERACION:
VERSION DEL FORMATO                    : 2.0
NOMBRE DEL ARCHIVO                     : AE020008.091
FECHA Y HORA DE CREACION               : 20/JUL/04, 10:00
REF. CATALOGO ACELEROGRAMAS, SMIS 1996 : REGISTRO No.     /PAG.


================================================================================
DATOS DE LA ESTACION:
NOMBRE DE LA ESTACION                  : AEROPUERTO
CLAVE DE LA ESTACION                   : AE02
LOCALIZACION DE LA ESTACION            : Esc Prim Gonzalez Garzon Calle Xico
                                       : s/n, Col. IV Seccion del Arenal
                                       : Venustiano Carranza
                                       :
                                       :
COORDENADAS DE LA ESTACION             : 19.429 LAT. N 
                                       : 99.058 LONG. W 
ALTITUD (msnm)                         : 2232
TIPO DE SUELO                          : ARCILLOSO, ZONA LAGO
                                       : 
                                       : 
INSTITUCION RESPONSABLE                : CIRES
                                       :

================================================================================
DATOS DEL ACELEROGRAFO:
MODELO DEL ACELEROGRAFO                : RAD-851
NUMERO DE SERIE DEL ACELEROGRAFO       : 242
NUMERO DE CANALES                      : 3
ORIENTACION C1-C6 (rumbo;orientacion)  : /N00E/+V/N90W
ORIENTACION C7-C12 (rumbo;orientacion) :
VEL. DE MUESTREO, C1-C6 (muestras/s)   : /100/100/100
VEL. DE MUESTREO, C7-C12 (muestras/s)  :
ESC. COMPLETA DE SENSORES, C1-C6, (g)  : /0.5/0.5/0.5
ESC. COMPLETA DE SENSORES, C7-C12, (g) :
FREC. NAT. DE SENSORES, C1-C6, (Hz)    : /30/30/30
FREC. NAT. DE SENSORES, C7-C12, (Hz)   :
AMORTIGUAMIENTO DE SENSORES, C1-C6     : /0.733/0.750/0.700
AMORTIGUAMIENTO DE SENSORES, C7-C12    :
INTERVALO DE MUESTREO, C1-C6, (s)      : /0.01/0.01/0.01
INTERVALO DE MUESTREO, C7-C12, (s)     :
UMBRAL DE DISPARO, C1-C6, (Gal)        : /1.99/3.91/1.99
UMBRAL DE DISPARO, C7-C12, (Gal)       :
MEMORIA DE PREEVENTO (s)               : 24
TIEMPO DE POSEVENTO (s)                : 64


================================================================================
DATOS DEL SISMO:
FECHA DEL SISMO (GMT)                  : 09/AGO/00
HORA EPICENTRO (GMT)                   : 11:41:47:7
MAGNITUD(ES)                           : /Mb=6.1/Ms=6.5/Mc=0.0/Ma=6.5/Me=7.0
COORDENADAS DEL EPICENTRO              : 17.99 LAT. N
                                       : 102.66 LONG. W
PROFUNDIDAD FOCAL (km)                 : 16.0
FUENTE DE LOS DATOS EPICENTRALES       : SSN
                                       : INSTITUTO DE GEOFISICA, UNAM

================================================================================
DATOS DE ESTE REGISTRO:
HORA DE LA PRIMERA MUESTRA (GMT)       : 11:43:39.00
EXACTITUD DEL TIEMPO (s)               : 0.01
DURACION DEL REGISTRO (s), C1-C6       : /286.25/286.25/286.25
DURACION DEL REGISTRO (s), C7-C12      :
NUM. TOTAL DE MUESTRAS, C1-C6          : /28625/28625/28625
NUM. TOTAL DE MUESTRAS, C7-C12         :
ACEL. MAX. (Gal), C1-C6                : /14.72257/-4.74377/14.46298
ACEL. MAX., C1-C6, EN LA MUESTRA       :
ACEL. MAX. (Gal), C7-C12               :
ACEL. MAX., C7-C12, EN LA MUESTRA      :
UNIDADES DE LOS DATOS                  : Gal (cm/s/s)
FACTOR DE DECIMACION                   : 1
FORMATO DATOS (FORTRAN,10 campos/dato) : 3F10.5


================================================================================
CALIDAD DEL ACELEROGRAMA:
REGISTRO DIGITAL COMPLETO CON TIEMPO ABSOLUTO CORRECTO.


================================================================================
COMENTARIOS:














================================================================================
DATOS DE ACELERACION:
---------+---------+---------+---------+---------+---------+---------+---------+
   CANAL-1   CANAL-2   CANAL-3   CANAL-4   CANAL-5   CANAL-6   CANAL-7   CANAL-8
      N00E        +V      N90W
---------+---------+---------+---------+---------+---------+---------+---------+
[...]
   0.11802   0.52345  -3.25402
   0.11802   0.76287  -3.01460
   0.11802   0.76287  -2.77519
   0.11802   0.52345  -2.53577
   0.35743   0.76287  -2.29635
   0.11802   0.76287  -2.05693
   0.11802   1.00229  -2.05693
   0.11802   1.00229  -1.81751
   0.11802   1.00229  -1.57809
   0.11802   1.24171  -1.33867
  -0.12140   1.24171  -1.09925
  -0.36082   1.24171  -0.62041
  -0.36082   1.24171  -0.62041
  -0.60024   1.24171  -0.14158
  -0.60024   1.24171   0.09784
  -0.60024   1.24171   0.33726
  -0.83966   1.24171   0.33726
  -0.83966   1.00229   0.57668
  -0.83966   1.24171   1.05552
  -1.07908   1.00229   1.29494
  -1.07908   1.00229   1.53436
  -1.31850   1.24171   2.01319
  -1.31850   1.00229   2.01319
  -1.31850   1.24171   2.49203
  -1.55792   1.00229   2.73145
  -1.55792   1.00229   2.97087
  -1.79734   1.00229   3.21029
  -1.79734   1.24171   3.44971
  -2.03675   1.24171   3.68913
  -2.27617   1.00229   3.92854
  -2.03675   1.00229   4.16796
  -2.27617   1.00229   4.40738
  -2.51559   1.00229   4.88622
  -2.51559   1.00229   5.12564
  -2.75501   1.00229   5.36506
  -2.99443   0.52345   5.60448
  -2.99443   0.76287   5.84390
  -3.23385   0.76287   6.08332
  -3.23385   0.52345   6.08332
  -3.47327   0.52345   6.56215
  -3.47327   0.52345   6.80157
  -3.47327   0.52345   7.04099
  -3.71269   0.28403   7.51983
  -3.95211   0.52345   7.51983
  -3.95211   0.52345   7.75925
  -3.95211   0.28403   7.99867
  -3.95211   0.28403   7.99867
  -4.19153   0.28403   8.23809
  -4.19153   0.28403   8.47750
  -4.43094   0.52345   8.47750
  -4.19153   0.52345   8.71692
  -4.67036   0.28403   8.95634
  -4.67036   0.28403   9.19576
  -4.43094   0.28403   9.19576
  -4.67036   0.28403   9.19576
  -4.67036   0.28403   9.43518
  -4.67036   0.04461   9.43518
  -4.67036   0.04461   9.43518
  -4.67036   0.04461   9.67460
  -4.90978   0.04461   9.67460
  -4.90978   0.28403   9.67460
  -4.90978   0.04461   9.67460
  -4.90978   0.28403   9.67460
  -4.90978   0.04461   9.67460
  -4.90978   0.28403   9.43518
  -5.14920   0.28403   9.67460
  -5.14920   0.28403   9.67460
  -5.38862   0.28403   9.43518
  -5.38862   0.28403   9.43518
  -5.38862   0.28403   9.43518
  -5.38862   0.28403   9.67460
  -5.14920   0.28403   9.67460
  -5.38862   0.04461   9.43518
  -5.14920   0.28403   9.67460
  -4.90978   0.04461   9.43518
  -4.90978   0.04461   9.43518
  -4.67036   0.04461   9.67460
  -4.43094   0.04461   9.43518
  -4.43094  -0.19481   9.43518
  -3.95211  -0.19481   9.43518
  -3.71269  -0.43422   9.19576
  -3.47327  -0.43422   9.19576
  -2.99443  -0.67364   9.19576
  -2.75501  -0.67364   8.95634
  -2.75501  -0.91306   8.71692
  -2.27617  -0.91306   8.71692
  -2.27617  -1.15248   8.71692
  -2.03675  -1.15248   8.47750
  -1.79734  -1.39190   8.47750
  -1.55792  -1.15248   8.23809
  -1.55792  -1.39190   8.23809
  -1.31850  -1.63132   7.99867
  -1.31850  -1.63132   7.75925
  -1.31850  -1.87074   7.75925
  -1.31850  -1.63132   7.51983
  -1.07908  -1.63132   7.51983
  -1.07908  -1.63132   7.51983
  -0.83966  -1.63132   7.28041
  -0.83966  -1.87074   7.51983
  -0.83966  -1.87074   7.28041
  -0.60024  -1.87074   7.04099
  -0.36082  -1.87074   7.04099
  -0.12140  -1.87074   6.80157
   0.11802  -1.87074   6.80157
   0.35743  -1.87074   6.56215
   0.35743  -1.87074   6.56215
   0.35743  -2.11016   6.32273
   0.59685  -2.11016   6.08332
   0.83627  -2.11016   6.08332
   0.83627  -2.11016   6.08332
   1.07569  -2.11016   5.60448
   1.31511  -2.11016   5.84390
   1.31511  -2.34958   5.60448
   1.31511  -2.34958   5.60448
   1.31511  -2.11016   5.60448
   1.55453  -2.11016   5.60448
   1.79395  -2.34958   5.60448
   1.79395  -2.11016   5.60448
   2.03337  -2.11016   5.36506
   2.03337  -1.87074   5.36506
   2.03337  -1.87074   5.12564
   2.03337  -1.63132   5.12564
   2.27279  -1.63132   5.12564
   2.51221  -1.39190   4.88622
   2.51221  -1.15248   4.88622
   2.75162  -1.39190   4.64680
   2.99104  -1.15248   4.64680
   3.23046  -0.91306   4.40738
   3.46988  -0.91306   4.40738
   3.70930  -0.67364   4.16796
   3.94872  -0.67364   4.40738
   4.18814  -0.67364   4.16796
   4.42756  -0.67364   3.92854
   4.90639  -0.67364   3.68913
   5.14581  -0.67364   3.21029
   5.62465  -0.67364   3.21029
   5.86407  -0.67364   2.73145
   6.34291  -0.67364   2.49203
   6.58233  -0.67364   2.25261
   6.82175  -0.67364   2.01319
   7.54000  -0.67364   1.77377
   7.77942  -0.67364   1.53436
   8.25826  -0.67364   1.29494
   8.97652  -0.43422   1.05552
   9.45535  -0.67364   0.81610
   9.69477  -0.43422   0.33726
  10.17361  -0.19481   0.33726
  10.65245  -0.43422   0.09784
  11.13129  -0.43422  -0.14158
  11.84954  -0.43422  -0.38100
  12.08896  -0.67364  -0.62041
  12.56780  -0.67364  -0.62041
  13.04664  -0.91306  -0.85983
  13.28606  -0.91306  -0.85983
  13.76490  -0.91306  -0.85983
  13.76490  -1.15248  -1.09925
  14.24373  -1.15248  -1.09925
  14.48315  -1.39190  -1.09925
  14.48315  -1.39190  -1.09925
  14.48315  -1.63132  -1.09925
  14.72257  -1.63132  -0.85983
  14.72257  -1.39190  -0.85983
  14.48315  -1.63132  -0.85983
  14.24373  -1.63132  -0.62041
  14.24373  -1.39190  -0.62041
  14.24373  -1.39190  -0.38100
  13.76490  -1.39190  -0.38100
  13.76490  -1.15248  -0.14158
  13.52548  -1.39190   0.09784
  13.28606  -1.39190   0.09784
  13.04664  -1.39190   0.09784
  12.80722  -1.39190   0.09784
  12.80722  -1.15248   0.33726
  12.56780  -1.15248   0.57668
  12.08896  -1.39190   0.33726
  11.84954  -1.39190   0.57668
  11.61013  -1.39190   0.81610
  11.61013  -1.39190   0.57668
  11.37071  -1.39190   0.57668
  11.13129  -1.39190   0.57668
  10.89187  -1.15248   0.57668
  10.65245  -1.15248   0.57668
  10.41303  -1.15248   0.57668
   9.93419  -1.15248   0.57668
   9.69477  -1.15248   0.57668
   9.45535  -1.15248   0.57668
   8.97652  -0.91306   0.57668
   8.73710  -1.15248   0.57668
   8.49768  -0.67364   0.81610
   8.25826  -0.43422   0.57668
   7.77942  -0.43422   0.81610
   7.54000  -0.19481   0.81610
   7.06117   0.04461   0.81610
   6.82175   0.04461   1.05552
   6.82175   0.28403   1.05552
   6.58233   0.28403   1.05552
   6.58233   0.52345   1.05552
   6.58233   0.76287   1.29494
   6.34291   1.00229   1.05552
   6.34291   1.00229   1.29494
   6.34291   1.24171   1.53436
   6.34291   1.24171   1.29494
   6.34291   1.48113   1.29494
   6.34291   1.24171   1.29494
   6.58233   1.48113   1.29494
   6.58233   1.48113   1.29494
   6.58233   1.48113   1.05552
   6.58233   1.72055   1.29494
   6.82175   1.72055   1.05552
   6.82175   1.72055   0.81610
   7.06117   1.95997   0.81610
   6.82175   1.95997   0.33726
   7.06117   1.95997   0.33726
   7.30058   1.95997   0.09784
   7.54000   1.95997   0.09784
   7.30058   2.19938  -0.62041
   7.54000   2.19938  -0.62041
   7.30058   2.19938  -1.09925
   7.54000   2.43880  -1.33867
   7.54000   2.43880  -1.57809
   7.54000   2.43880  -2.05693
   7.77942   2.43880  -2.05693
   7.54000   2.43880  -2.53577
   7.54000   2.43880  -2.77519
   7.54000   2.19938  -3.01460
   7.54000   2.43880  -3.25402
   7.30058   2.19938  -3.49344
   7.06117   2.19938  -3.49344
   6.82175   2.19938  -3.73286
   6.82175   2.19938  -3.73286
   6.34291   1.95997  -3.73286
   6.34291   1.95997  -3.73286
   5.86407   1.95997  -3.73286
   5.62465   1.95997  -3.73286
   5.62465   1.72055  -3.73286
   5.38523   1.48113  -3.73286
   5.14581   1.48113  -3.97228
   4.90639   1.48113  -3.73286
   4.90639   1.48113  -3.49344
   4.66698   1.48113  -3.73286
   4.42756   1.48113  -3.73286
   4.18814   1.48113  -3.73286
   4.18814   1.48113  -3.49344
   4.18814   1.24171  -3.49344
   3.94872   1.00229  -3.25402
   4.18814   1.00229  -3.25402
   3.94872   0.76287  -3.01460
   3.94872   0.76287  -3.01460
   3.94872   0.52345  -2.77519
   3.94872   0.52345  -2.53577
   4.18814   0.52345  -2.53577
   3.94872   0.28403  -2.29635
   4.18814   0.52345  -2.05693
   4.18814   0.52345  -1.81751
   4.18814   0.52345  -1.57809
   4.18814   0.52345  -1.57809
   4.18814   0.52345  -1.09925
   3.94872   0.52345  -1.09925
   4.18814   0.52345  -0.85983
   3.94872   0.52345  -0.62041
   3.94872   0.76287  -0.62041
   3.94872   0.76287  -0.38100
   3.70930   0.76287  -0.38100
   3.70930   1.00229  -0.38100
   3.46988   1.00229  -0.14158
   3.46988   1.00229   0.09784
   2.99104   1.24171   0.09784
   2.99104   1.00229   0.33726
   2.75162   1.24171   0.33726
   2.51221   1.24171   0.33726
   2.27279   1.00229   0.57668
   2.03337   1.24171   0.33726
   1.79395   1.48113   0.57668
   1.55453   1.24171   0.57668
   1.31511   1.48113   0.57668
   1.07569   1.48113   0.57668
   0.83627   1.48113   0.57668
   0.83627   1.48113   0.57668
   0.35743   1.48113   0.57668
   0.35743   1.48113   0.33726
   0.35743   1.48113   0.09784
  -0.12140   1.48113   0.09784
  -0.36082   1.72055  -0.14158
  -0.36082   1.72055  -0.14158
  -0.60024   1.72055  -0.14158
  -0.60024   1.95997  -0.14158
  -0.83966   1.72055  -0.14158
  -0.83966   1.72055  -0.38100
  -0.83966   1.72055  -0.38100
  -1.07908   1.72055  -0.38100
  -0.83966   1.72055  -0.38100
  -1.07908   1.72055  -0.38100
  -1.07908   1.48113  -0.62041
  -1.07908   1.72055  -0.38100
  -1.31850   1.72055  -0.62041
  -1.31850   1.72055  -0.62041
  -1.07908   1.72055  -0.38100
  -1.31850   1.72055  -0.62041
  -1.31850   1.72055  -0.38100
  -1.31850   1.72055  -0.38100
  -1.55792   1.48113  -0.62041
  -1.55792   1.72055  -0.62041
  -1.79734   1.48113  -0.62041
  -2.03675   1.48113  -0.62041
  -2.27617   1.48113  -0.85983
  -2.75501   1.24171  -0.85983
  -2.99443   1.24171  -0.85983
  -3.23385   1.24171  -0.85983
  -3.47327   1.24171  -0.85983
  -3.95211   1.00229  -1.09925
  -4.19153   1.00229  -1.09925
  -4.43094   1.00229  -1.09925
  -4.67036   0.76287  -0.85983
  -5.14920   0.76287  -0.85983
  -5.38862   0.76287  -0.85983
  -5.62804   0.52345  -0.85983
  -6.10688   0.28403  -0.85983
  -6.10688   0.28403  -0.62041
  -6.58571   0.04461  -0.62041
  -6.82513   0.04461  -0.62041
  -7.06455  -0.19481  -0.38100
  -7.06455  -0.19481  -0.14158
  -7.54339  -0.43422  -0.14158
  -7.78281  -0.67364   0.33726
  -8.02223  -0.43422   0.33726
  -8.26165  -0.67364   0.57668
  -8.74049  -0.91306   1.05552
  -8.97990  -0.91306   1.05552
  -9.21932  -1.15248   1.29494
  -9.45874  -1.39190   1.53436
  -9.69816  -1.39190   1.53436
  -9.93758  -1.63132   1.77377
 -10.41642  -1.87074   2.01319
 -10.65584  -1.87074   2.25261
 -11.13467  -1.87074   2.25261
 -11.37409  -1.87074   2.49203
 -11.37409  -2.11016   2.49203
 -11.85293  -2.11016   2.97087
 -12.09235  -2.11016   2.97087
 -12.33177  -2.11016   3.21029
 -12.81061  -2.11016   3.21029
 -12.81061  -2.11016   3.44971
 -13.28945  -2.34958   3.44971
 -13.52886  -2.34958   3.44971
 -13.52886  -2.11016   3.68913
 -13.76828  -2.34958   3.68913
 -14.00770  -2.11016   3.68913
 -14.00770  -2.58899   3.68913
 -14.48654  -2.34958   3.92854
 -14.48654  -2.11016   3.92854
 -14.48654  -2.34958   3.68913
 -14.48654  -2.34958   3.68913
 -14.48654  -2.11016   3.68913
 -14.48654  -2.11016   3.92854
 -14.48654  -2.11016   3.68913
 -14.24712  -2.11016   3.68913
 -14.24712  -2.11016   3.44971
 -14.00770  -2.11016   3.68913
 -13.76828  -2.11016   3.68913
 -13.76828  -2.11016   3.44971
 -13.28945  -2.11016   3.68913
 -13.05003  -2.11016   3.44971
 -13.05003  -1.87074   3.44971
 -12.81061  -1.87074   3.44971
 -12.81061  -1.87074   3.21029
 -12.33177  -1.87074   3.21029
 -12.33177  -1.87074   2.97087
 -11.85293  -1.63132   2.97087
 -11.85293  -1.63132   2.97087
 -11.61351  -1.63132   2.73145
 -11.37409  -1.39190   2.49203
 -11.13467  -1.39190   2.25261
 -11.13467  -1.39190   2.25261
 -10.89526  -1.15248   1.77377
 -10.65584  -0.91306   1.77377
 -10.89526  -0.91306   1.29494
 -10.65584  -0.67364   1.29494
 -10.65584  -0.43422   0.81610
 -10.89526  -0.19481   0.33726
 -10.65584  -0.19481   0.09784
 -10.65584   0.04461  -0.38100
 -10.65584   0.04461  -0.85983
 -10.89526   0.04461  -1.33867
 -10.65584   0.28403  -1.81751
 -10.65584   0.52345  -2.29635
 -10.89526   0.28403  -2.77519
 -10.65584   0.52345  -3.25402
 -10.89526   0.52345  -3.73286
 -10.65584   0.52345  -4.21170
 -10.65584   0.52345  -4.69054
 -10.65584   0.28403  -5.16937
 -10.41642   0.52345  -5.64821
 -10.17700   0.52345  -5.88763
  -9.93758   0.28403  -6.36647
  -9.93758   0.28403  -6.84531
  -9.45874   0.04461  -7.32415
  -9.21932   0.04461  -8.04240
  -8.74049   0.04461  -8.28182
  -8.50107  -0.19481  -8.52124
  -8.26165   0.04461  -9.00008
  -7.78281  -0.19481  -9.23950
  -7.78281  -0.19481  -9.47892
  -7.06455  -0.19481  -9.95775
  -7.06455  -0.67364 -10.19717
  -6.58571  -0.67364 -10.43659
  -6.58571  -0.67364 -10.91543
  -6.10688  -0.91306 -11.15485
  -5.86746  -1.15248 -11.63369
  -5.62804  -0.91306 -12.11252
  -5.62804  -1.15248 -12.35194
  -5.38862  -1.15248 -12.59136
  -5.14920  -1.15248 -12.59136
  -5.14920  -1.39190 -12.83078
  -4.90978  -1.39190 -12.83078
  -4.67036  -1.63132 -13.07020
  -4.90978  -1.63132 -13.30962
  -4.67036  -1.39190 -13.30962
  -4.67036  -1.39190 -13.54904
  -4.67036  -1.39190 -13.54904
  -4.67036  -1.15248 -13.54904
  -4.67036  -1.39190 -13.78846
  -4.43094  -0.91306 -13.78846
  -4.43094  -0.91306 -13.78846
  -4.43094  -1.15248 -14.02788
  -4.19153  -0.91306 -13.78846
  -4.19153  -0.91306 -13.78846
  -3.95211  -0.67364 -13.78846
  -3.95211  -0.67364 -13.78846
  -3.71269  -0.67364 -13.78846
  -3.71269  -0.67364 -13.78846
  -3.71269  -0.67364 -13.30962
  -3.71269  -0.67364 -13.30962
  -3.71269  -0.43422 -13.30962
  -3.71269  -0.43422 -13.07020
  -3.95211  -0.19481 -12.83078
  -3.95211  -0.19481 -12.59136
  -3.95211  -0.19481 -12.35194
  -3.95211   0.04461 -12.35194
  -3.95211   0.28403 -11.87311
  -4.19153   0.52345 -11.87311
  -3.95211   0.52345 -11.63369
  -4.19153   0.52345 -11.39427
  -4.19153   1.00229 -11.39427
  -4.19153   1.00229 -10.91543
  -4.19153   1.00229 -10.67601
  -4.19153   1.24171 -10.67601
  -4.19153   1.24171 -10.19717
  -3.95211   1.48113 -10.19717
  -3.95211   1.48113  -9.95775
  -3.95211   1.72055  -9.71833
  -3.95211   1.48113  -9.71833
  -3.71269   1.72055  -9.23950
  -3.47327   1.48113  -9.00008
  -3.23385   1.72055  -9.00008
  -2.99443   1.72055  -8.76066
  -2.75501   1.72055  -8.52124
  -2.27617   1.95997  -8.52124
  -2.03675   1.95997  -8.04240
  -1.79734   1.95997  -8.28182
  -1.31850   1.95997  -8.04240
  -1.07908   1.72055  -8.04240
  -0.83966   1.72055  -7.80298
  -0.36082   1.72055  -7.80298
   0.11802   1.48113  -7.56356
   0.59685   1.72055  -7.56356
   0.83627   1.48113  -7.32415
   1.31511   1.48113  -7.32415
   1.55453   1.24171  -7.32415
   1.79395   1.24171  -7.32415
   2.27279   1.24171  -7.08473
   2.51221   1.00229  -6.84531
   2.99104   1.00229  -6.84531
   3.23046   1.00229  -6.60589
   3.23046   0.76287  -6.36647
   3.70930   1.00229  -6.12705
   3.70930   0.76287  -6.12705
   3.94872   0.52345  -5.88763
   4.18814   0.52345  -5.40879
   4.18814   0.52345  -5.40879
   4.18814   0.28403  -5.16937
   4.42756   0.28403  -4.92996
   4.66698   0.04461  -4.69054
   4.42756   0.04461  -4.45112
   4.66698   0.04461  -4.21170
   4.66698   0.04461  -3.97228
   4.66698   0.04461  -3.49344
   4.42756   0.04461  -3.25402
   4.42756   0.28403  -3.25402
   4.42756   0.04461  -2.77519
   4.42756   0.04461  -2.53577
   4.18814   0.04461  -2.29635
   4.42756   0.04461  -1.81751
   4.18814   0.28403  -1.57809
   4.18814   0.04461  -1.33867
   4.42756   0.04461  -1.09925
   4.18814   0.04461  -0.62041
   4.18814   0.28403  -0.14158
   3.94872   0.04461   0.33726
