********************************************************************************
               CENTRO DE INSTRUMENTACION Y REGISTRO SISMICO  A.C.  
                       Coordinacion de Servicios Tecnicos
     Anaxagoras 814, Col. Narvarte, Benito Juarez, C.P. 03020 Mexico, D.F.
            Tels. 687 45 42/ 687 45  82             Fax. 669 25 12
********************************************************************************
ARCHIVO ESTANDAR DE ACELERACION:
VERSION DEL FORMATO                    : 2.0
NOMBRE DEL ARCHIVO                     : AE020406.141
FECHA Y HORA DE CREACION               : 09/NOV/04, 09:45
REF. CATALOGO ACELEROGRAMAS, SMIS 1996 : REGISTRO No.     /PAG.


================================================================================
DATOS DE LA ESTACION:
NOMBRE DE LA ESTACION                  : AEROPUERTO
CLAVE DE LA ESTACION                   : AE02
LOCALIZACION DE LA ESTACION            : Esc Prim Gonzalez Garzon Calle Xico
                                       : s/n, Col. IV Seccion del Arenal
                                       : Venustiano Carranza
				       :
                                       :
COORDENADAS DE LA ESTACION             : 19.429 LAT. N 
                                       : 99.058 LONG. W 
ALTITUD (msnm)                         : 2232
TIPO DE SUELO                          : ARCILLOSO, ZONA LAGO
                                       : 
                                       : 
INSTITUCION RESPONSABLE                : CIRES
                                       :

================================================================================
DATOS DEL ACELEROGRAFO:
MODELO DEL ACELEROGRAFO                : RAD-851
NUMERO DE SERIE DEL ACELEROGRAFO       : 242
NUMERO DE CANALES                      : 3
ORIENTACION C1-C6 (rumbo;orientacion)  : /N00E/+V/N90W
ORIENTACION C7-C12 (rumbo;orientacion) :
VEL. DE MUESTREO, C1-C6 (muestras/s)   : /100/100/100
VEL. DE MUESTREO, C7-C12 (muestras/s)  :
ESC. COMPLETA DE SENSORES, C1-C6, (g)  : /0.5/0.5/0.5
ESC. COMPLETA DE SENSORES, C7-C12, (g) :
FREC. NAT. DE SENSORES, C1-C6, (Hz)    : /30/30/30
FREC. NAT. DE SENSORES, C7-C12, (Hz)   :
AMORTIGUAMIENTO DE SENSORES, C1-C6     : /0.733/0.750/0.700
AMORTIGUAMIENTO DE SENSORES, C7-C12    :
INTERVALO DE MUESTREO, C1-C6, (s)      : /0.01/0.01/0.01
INTERVALO DE MUESTREO, C7-C12, (s)     :
UMBRAL DE DISPARO, C1-C6, (Gal)        : /1.99/3.91/1.99
UMBRAL DE DISPARO, C7-C12, (Gal)       :
MEMORIA DE PREEVENTO (s)               : 24
TIEMPO DE POSEVENTO (s)                : 64


================================================================================
DATOS DEL SISMO:
FECHA DEL SISMO (GMT)                  : 22/DIC/97
HORA EPICENTRO (GMT)                   : 05:22:07:8
MAGNITUD(ES)                           : /Ms=5.0
COORDENADAS DEL EPICENTRO              : 17.1 LAT. N
				                       : 101.2 LONG. W
PROFUNDIDAD FOCAL (km)                 : 5.0
FUENTE DE LOS DATOS EPICENTRALES       : SSN
                                       : INSTITUTO DE GEOFISICA, UNAM

================================================================================
DATOS DE ESTE REGISTRO:
HORA DE LA PRIMERA MUESTRA (GMT)       : 22:56:09.00
EXACTITUD DEL TIEMPO (s)               : 0.01
DURACION DEL REGISTRO (s), C1-C6       : /123.75/123.75/123.75
DURACION DEL REGISTRO (s), C7-C12      :
NUM. TOTAL DE MUESTRAS, C1-C6          : /12375/12375/12375
NUM. TOTAL DE MUESTRAS, C7-C12         :
ACEL. MAX. (Gal), C1-C6                : /-6.44073/1.90028/-5.35915
ACEL. MAX., C1-C6, EN LA MUESTRA       :
ACEL. MAX. (Gal), C7-C12               :
ACEL. MAX., C7-C12, EN LA MUESTRA      :
UNIDADES DE LOS DATOS                  : Gal (cm/s/s)
FACTOR DE DECIMACION                   : 1
FORMATO DATOS (FORTRAN,10 campos/dato) : 3F10.5


================================================================================
CALIDAD DEL ACELEROGRAMA:
REGISTRO DIGITAL COMPLETO CON TIEMPO ABSOLUTO CORRECTO.


================================================================================
COMENTARIOS:














================================================================================
DATOS DE ACELERACION:
---------+---------+---------+---------+---------+---------+---------+---------+
   CANAL-1   CANAL-2   CANAL-3   CANAL-4   CANAL-5   CANAL-6   CANAL-7   CANAL-8
      N00E        +V      N90W
---------+---------+---------+---------+---------+---------+---------+---------+
[...]
  -3.32828  -0.25449   2.30225
  -3.56770  -0.25449   2.30225
  -3.32828  -0.25449   2.30225
  -3.32828  -0.25449   2.30225
  -3.56770  -0.25449   2.06283
  -3.32828  -0.25449   2.30225
  -3.32828  -0.25449   2.06283
  -3.32828  -0.25449   2.30225
  -3.32828  -0.01507   2.06283
  -3.08886  -0.25449   2.06283
  -3.08886  -0.01507   2.06283
  -3.08886  -0.01507   2.06283
  -3.32828  -0.01507   2.06283
  -3.08886  -0.01507   2.06283
  -3.08886  -0.25449   1.82341
  -3.08886  -0.01507   1.82341
  -2.84944  -0.01507   1.82341
  -2.61002  -0.25449   1.82341
  -2.61002  -0.01507   1.58400
  -2.61002  -0.01507   1.82341
  -2.61002  -0.25449   1.58400
  -2.37061  -0.25449   1.58400
  -2.61002  -0.25449   1.58400
  -2.37061  -0.25449   1.34458
  -2.13119  -0.25449   1.34458
  -1.89177  -0.25449   1.34458
  -2.13119  -0.49391   1.34458
  -1.89177  -0.49391   1.34458
  -1.65235  -0.25449   1.58400
  -1.41293  -0.49391   1.34458
  -1.41293  -0.25449   1.58400
  -1.17351  -0.49391   1.58400
  -1.17351  -0.49391   1.34458
  -1.17351  -0.49391   1.34458
  -1.17351  -0.49391   1.58400
  -0.93409  -0.73333   1.58400
  -0.93409  -0.49391   1.34458
  -0.69467  -0.49391   1.58400
  -0.69467  -0.49391   1.58400
  -0.45525  -0.49391   1.58400
  -0.21583  -0.49391   1.58400
  -0.21583  -0.73333   1.58400
   0.02358  -0.73333   1.58400
   0.02358  -0.73333   1.82341
   0.26300  -0.97275   1.82341
   0.26300  -0.73333   1.82341
   0.26300  -0.73333   1.58400
   0.50242  -0.97275   1.82341
   0.74184  -0.97275   1.82341
   0.74184  -0.97275   1.82341
   0.98126  -0.97275   1.82341
   1.22068  -0.73333   1.82341
   1.22068  -0.73333   1.82341
   1.22068  -0.73333   1.82341
   1.22068  -0.73333   1.82341
   1.46010  -0.73333   1.82341
   1.69952  -0.73333   1.82341
   1.93894  -0.73333   1.82341
   1.93894  -0.73333   2.06283
   2.17835  -0.73333   1.82341
   2.17835  -0.73333   1.82341
   2.41777  -0.73333   1.58400
   2.41777  -0.73333   1.58400
   2.65719  -0.73333   1.58400
   2.65719  -0.73333   1.82341
   2.89661  -0.73333   1.58400
   3.13603  -0.73333   1.58400
   3.37545  -0.49391   1.58400
   3.37545  -0.49391   1.58400
   3.61487  -0.49391   1.34458
   3.85429  -0.49391   1.34458
   3.85429  -0.49391   1.10516
   4.09371  -0.49391   1.10516
   4.09371  -0.01507   1.10516
   4.09371  -0.25449   0.86574
   4.09371  -0.25449   0.86574
   4.33312  -0.25449   0.62632
   4.33312  -0.01507   0.62632
   4.57254  -0.25449   0.38690
   4.57254  -0.25449   0.38690
   4.81196  -0.25449   0.14748
   4.57254  -0.25449   0.14748
   4.57254  -0.01507   0.14748
   4.81196  -0.01507  -0.09194
   4.81196  -0.01507  -0.09194
   4.57254   0.22435  -0.33136
   4.81196   0.22435  -0.33136
   4.57254   0.22435  -0.57077
   4.57254   0.22435  -0.57077
   4.57254   0.22435  -0.57077
   4.57254   0.46377  -0.57077
   4.57254   0.46377  -0.81019
   4.33312   0.46377  -0.81019
   4.33312   0.46377  -1.04961
   4.09371   0.70319  -1.04961
   4.33312   0.70319  -1.04961
   4.33312   0.70319  -1.28903
   4.33312   0.70319  -1.28903
   4.09371   0.94260  -1.52845
   4.09371   0.94260  -1.52845
   4.09371   0.94260  -1.76787
   3.85429   0.94260  -1.52845
   3.85429   0.94260  -1.52845
   3.61487   1.18202  -1.76787
   3.61487   1.18202  -1.76787
   3.37545   1.18202  -1.76787
   3.37545   1.18202  -2.00729
   3.37545   1.18202  -1.76787
   3.37545   1.18202  -2.00729
   3.13603   1.18202  -2.00729
   3.13603   1.18202  -1.76787
   2.89661   1.18202  -1.76787
   2.89661   1.18202  -2.00729
   2.89661   1.18202  -1.76787
   2.65719   1.18202  -2.00729
   2.65719   1.18202  -1.76787
   2.65719   1.18202  -1.76787
   2.41777   1.18202  -2.00729
   2.17835   1.18202  -1.52845
   2.17835   1.18202  -2.00729
   2.17835   1.18202  -1.76787
   1.93894   1.18202  -1.52845
   1.93894   1.18202  -1.52845
   1.93894   1.18202  -1.28903
   1.69952   1.18202  -1.28903
   1.69952   1.18202  -1.28903
   1.22068   1.18202  -1.04961
   1.46010   1.18202  -1.04961
   1.22068   1.18202  -1.04961
   0.98126   0.94260  -1.04961
   0.98126   0.94260  -0.81019
   0.98126   0.94260  -0.81019
   0.74184   1.18202  -0.81019
   0.74184   1.18202  -0.81019
   0.50242   1.18202  -0.57077
   0.50242   0.94260  -0.57077
   0.50242   0.94260  -0.57077
   0.26300   0.94260  -0.57077
   0.02358   0.94260  -0.57077
   0.26300   0.70319  -0.57077
   0.02358   0.94260  -0.57077
   0.02358   0.70319  -0.57077
  -0.21583   0.70319  -0.33136
  -0.45525   0.46377  -0.57077
  -0.45525   0.46377  -0.57077
  -0.69467   0.46377  -0.57077
  -0.69467   0.22435  -0.57077
  -0.69467   0.22435  -0.57077
  -0.69467  -0.01507  -0.57077
  -0.93409  -0.01507  -0.57077
  -1.17351  -0.01507  -0.57077
  -1.17351  -0.25449  -0.57077
  -1.41293  -0.25449  -0.33136
  -1.65235  -0.25449  -0.33136
  -1.65235  -0.25449  -0.57077
  -1.65235  -0.49391  -0.57077
  -1.65235  -0.49391  -0.57077
  -1.89177  -0.49391  -0.33136
  -1.89177  -0.49391  -0.57077
  -1.89177  -0.73333  -0.57077
  -1.89177  -0.73333  -0.57077
  -1.89177  -0.49391  -0.57077
  -2.13119  -0.73333  -0.57077
  -2.37061  -0.73333  -0.57077
  -2.13119  -0.73333  -0.81019
  -2.13119  -0.73333  -0.57077
  -2.37061  -0.73333  -0.57077
  -2.37061  -0.97275  -0.57077
  -2.37061  -0.97275  -0.81019
  -2.61002  -0.73333  -0.81019
  -2.61002  -0.97275  -0.81019
  -2.61002  -0.97275  -0.81019
  -2.61002  -0.97275  -1.04961
  -2.84944  -0.73333  -0.81019
  -2.61002  -1.21217  -1.04961
  -2.84944  -1.21217  -1.04961
  -2.84944  -1.21217  -1.04961
  -2.84944  -1.21217  -1.28903
  -2.84944  -1.45158  -1.04961
  -2.84944  -1.21217  -1.04961
  -3.08886  -1.21217  -1.04961
  -3.08886  -1.21217  -1.04961
  -3.08886  -1.45158  -1.04961
  -3.08886  -1.45158  -1.04961
  -3.08886  -1.21217  -1.04961
  -3.32828  -1.21217  -0.81019
  -3.32828  -1.21217  -0.81019
  -3.32828  -0.97275  -0.81019
  -3.32828  -0.73333  -0.81019
  -3.32828  -0.73333  -0.81019
  -3.08886  -0.73333  -0.81019
  -3.32828  -0.49391  -0.57077
  -3.08886  -0.73333  -0.57077
  -3.08886  -0.73333  -0.81019
  -3.08886  -0.73333  -0.81019
  -3.08886  -0.73333  -0.81019
  -3.08886  -0.73333  -0.81019
  -2.84944  -0.49391  -0.57077
  -2.61002  -0.73333  -0.57077
  -2.37061  -0.49391  -0.57077
  -2.37061  -0.49391  -0.57077
  -2.37061  -0.49391  -0.57077
  -2.37061  -0.49391  -0.57077
  -2.37061  -0.25449  -0.57077
  -2.13119  -0.25449  -0.57077
  -1.89177  -0.25449  -0.57077
  -1.65235  -0.25449  -0.57077
  -1.65235  -0.25449  -0.57077
  -1.41293  -0.25449  -0.57077
  -1.41293  -0.25449  -0.57077
  -1.17351  -0.25449  -0.57077
  -0.93409  -0.25449  -0.57077
  -0.93409  -0.25449  -0.57077
  -0.69467  -0.25449  -0.33136
  -0.45525  -0.25449  -0.33136
  -0.45525  -0.25449  -0.57077
  -0.21583  -0.01507  -0.57077
   0.02358  -0.25449  -0.33136
   0.02358  -0.01507  -0.33136
   0.26300  -0.01507  -0.33136
   0.26300  -0.01507  -0.33136
   0.50242  -0.01507  -0.33136
   0.74184   0.22435  -0.33136
   0.98126   0.22435  -0.33136
   1.22068   0.46377  -0.33136
   1.22068   0.46377  -0.33136
   1.46010   0.46377  -0.33136
   1.69952   0.46377  -0.57077
   1.69952   0.70319  -0.57077
   1.93894   0.46377  -0.57077
   2.17835   0.70319  -0.57077
   2.17835   0.46377  -0.57077
   2.41777   0.70319  -0.57077
   2.41777   0.70319  -0.57077
   2.65719   0.70319  -0.57077
   2.89661   0.70319  -0.57077
   2.89661   0.46377  -0.57077
   3.13603   0.46377  -0.57077
   3.13603   0.46377  -0.57077
   3.37545   0.46377  -0.57077
   3.61487   0.46377  -0.57077
   3.61487   0.46377  -0.57077
   3.61487   0.22435  -0.57077
   3.85429   0.46377  -0.57077
   3.85429   0.22435  -0.57077
   4.09371   0.22435  -0.57077
   4.09371   0.22435  -0.57077
   4.09371   0.22435  -0.33136
   4.33312   0.22435  -0.33136
   4.33312   0.22435  -0.33136
   4.33312   0.22435  -0.33136
   4.33312   0.22435  -0.33136
   4.33312   0.22435  -0.33136
   4.33312   0.22435  -0.33136
   4.33312   0.22435  -0.33136
   4.57254  -0.01507  -0.33136
   4.33312   0.22435  -0.33136
   4.09371  -0.01507  -0.33136
   4.33312  -0.01507  -0.33136
   4.57254  -0.01507  -0.33136
   4.33312  -0.01507  -0.09194
   4.33312  -0.25449  -0.09194
   4.33312  -0.25449  -0.09194
   4.33312  -0.25449  -0.09194
   4.33312  -0.49391   0.14748
   4.09371  -0.25449   0.14748
   4.09371  -0.25449   0.14748
   4.09371  -0.25449   0.38690
   4.09371  -0.25449   0.38690
   3.85429  -0.49391   0.38690
   3.85429  -0.49391   0.38690
   3.61487  -0.49391   0.62632
   3.85429  -0.49391   0.38690
   3.61487  -0.49391   0.62632
   3.37545  -0.49391   0.62632
   3.37545  -0.49391   0.62632
   3.37545  -0.49391   0.62632
   3.37545  -0.49391   0.86574
   3.13603  -0.73333   0.86574
   2.89661  -0.49391   0.86574
   2.89661  -0.49391   0.86574
   2.65719  -0.25449   1.10516
   2.65719  -0.49391   1.10516
   2.65719  -0.49391   1.10516
   2.17835  -0.25449   1.34458
   2.41777  -0.49391   1.34458
   2.17835  -0.25449   1.34458
   1.93894  -0.01507   1.34458
   1.69952  -0.01507   1.58400
   1.69952  -0.01507   1.34458
   1.46010  -0.01507   1.58400
   1.46010  -0.01507   1.58400
   1.46010  -0.01507   1.58400
   1.22068  -0.01507   1.58400
   0.74184  -0.01507   1.58400
   0.74184   0.22435   1.82341
   0.50242   0.22435   1.58400
   0.50242   0.22435   1.82341
   0.26300   0.46377   1.82341
   0.02358   0.46377   1.82341
   0.02358   0.46377   1.82341
  -0.21583   0.46377   1.82341
  -0.45525   0.46377   1.82341
  -0.69467   0.46377   1.82341
  -0.69467   0.46377   1.58400
  -0.93409   0.70319   1.58400
  -0.93409   0.46377   1.58400
  -1.17351   0.70319   1.58400
  -1.65235   0.70319   1.58400
  -1.65235   0.70319   1.58400
  -1.89177   0.70319   1.34458
  -2.13119   0.70319   1.58400
  -2.37061   0.94260   1.58400
  -2.37061   0.70319   1.34458
  -2.61002   0.94260   1.34458
  -2.84944   0.70319   1.34458
  -2.84944   0.70319   1.10516
  -3.08886   0.46377   1.10516
  -3.08886   0.94260   1.10516
  -3.32828   0.46377   0.86574
  -3.56770   0.46377   0.86574
  -3.56770   0.70319   0.86574
  -3.80712   0.46377   0.86574
  -3.80712   0.70319   0.62632
  -3.80712   0.46377   0.62632
  -3.80712   0.46377   0.62632
  -4.28596   0.46377   0.62632
  -4.28596   0.46377   0.38690
  -4.28596   0.46377   0.38690
  -4.52538   0.46377   0.38690
  -4.76479   0.46377   0.62632
  -4.76479   0.22435   0.38690
  -5.00421   0.22435   0.38690
  -5.00421   0.22435   0.38690
  -5.00421   0.22435   0.38690
  -5.24363  -0.01507   0.14748
  -5.24363   0.22435   0.38690
  -5.48305   0.22435   0.14748
  -5.48305   0.22435  -0.09194
  -5.48305   0.22435   0.14748
  -5.72247  -0.01507   0.14748
  -5.72247  -0.01507  -0.09194
  -5.96189  -0.01507  -0.09194
  -5.96189  -0.01507  -0.09194
  -5.96189  -0.01507  -0.09194
  -5.96189  -0.25449  -0.09194
  -5.96189  -0.01507   0.14748
  -5.96189  -0.25449  -0.09194
  -5.96189  -0.25449  -0.09194
  -6.20131  -0.01507  -0.09194
  -6.44073  -0.25449  -0.09194
  -6.44073  -0.25449  -0.09194
  -6.44073  -0.01507  -0.09194
  -6.20131  -0.25449  -0.09194
  -5.96189  -0.01507  -0.09194
  -6.20131  -0.01507  -0.09194
  -5.96189  -0.01507  -0.09194
  -5.96189  -0.01507  -0.09194
  -5.96189  -0.01507  -0.09194
  -5.72247  -0.25449  -0.09194
  -5.72247  -0.01507  -0.09194
  -5.72247  -0.25449  -0.09194
  -5.48305  -0.25449  -0.09194
  -5.48305  -0.25449  -0.09194
  -5.48305  -0.25449  -0.09194
  -5.48305  -0.49391  -0.09194
  -5.24363  -0.49391  -0.33136
  -5.00421  -0.49391  -0.09194
  -5.00421  -0.49391  -0.09194
  -4.76479  -0.49391  -0.09194
  -4.76479  -0.25449  -0.09194
  -4.52538  -0.49391  -0.09194
  -4.28596  -0.49391  -0.09194
  -4.04654  -0.49391  -0.33136
  -3.80712  -0.49391  -0.33136
  -3.56770  -0.49391  -0.33136
  -3.32828  -0.49391  -0.33136
  -3.08886  -0.49391  -0.33136
  -2.84944  -0.49391  -0.33136
  -2.61002  -0.73333  -0.33136
  -2.37061  -0.73333  -0.57077
  -2.13119  -0.97275  -0.33136
  -2.13119  -0.73333  -0.33136
  -1.89177  -0.97275  -0.57077
  -1.41293  -0.97275  -0.57077
  -1.41293  -0.97275  -0.57077
  -1.17351  -0.73333  -0.57077
  -0.69467  -0.97275  -0.57077
  -0.45525  -0.73333  -0.57077
  -0.21583  -0.97275  -0.81019
   0.02358  -0.97275  -0.81019
   0.02358  -0.97275  -0.57077
   0.26300  -0.97275  -0.81019
   0.50242  -0.97275  -0.81019
   0.50242  -0.73333  -0.57077
   0.98126  -0.97275  -0.81019
   0.98126  -0.97275  -0.81019
   1.22068  -0.73333  -0.81019
   1.46010  -0.73333  -0.81019
   1.69952  -0.73333  -0.81019
   1.69952  -0.73333  -0.81019
   1.69952  -0.73333  -0.81019
   1.93894  -0.73333  -0.81019
   2.17835  -0.73333  -0.81019
   2.41777  -0.73333  -0.81019
   2.65719  -0.73333  -0.81019
   2.65719  -0.73333  -0.81019
   2.89661  -0.49391  -0.81019
   3.13603  -0.73333  -0.81019
   3.13603  -0.49391  -0.81019
   3.13603  -0.49391  -0.81019
   3.37545  -0.49391  -0.81019
   3.61487  -0.25449  -1.04961
   3.61487  -0.25449  -0.81019
   3.61487  -0.25449  -0.81019
   3.85429  -0.01507  -0.81019
   4.09371  -0.25449  -1.04961
   4.09371  -0.01507  -0.81019
   4.33312  -0.01507  -0.81019
   4.33312  -0.01507  -0.81019
   4.57254  -0.01507  -0.81019
   4.57254  -0.01507  -0.81019
   4.57254  -0.01507  -0.57077
   4.81196  -0.01507  -0.57077
   4.81196  -0.01507  -0.57077
   4.81196  -0.01507  -0.57077
   4.81196   0.22435  -0.33136
   5.05138   0.22435  -0.33136
   5.05138   0.22435  -0.33136
   5.05138   0.46377  -0.33136
   5.29080   0.46377  -0.09194
   5.05138   0.46377  -0.09194
   5.05138   0.46377  -0.09194
   5.05138   0.70319   0.14748
   4.81196   0.70319   0.14748
   5.05138   0.94260   0.38690
   5.05138   0.94260   0.38690
   4.81196   1.18202   0.38690
   5.05138   1.18202   0.38690
   4.81196   1.18202   0.38690
   5.05138   1.18202   0.38690
   4.81196   1.42144   0.62632
   4.81196   1.18202   0.86574
   4.57254   1.18202   0.86574
   4.33312   1.18202   0.86574
   4.33312   1.42144   0.62632
   4.33312   1.42144   0.86574
   4.09371   1.18202   1.10516
   4.09371   1.42144   1.10516
   4.09371   1.42144   1.10516
   3.85429   1.42144   0.86574
   3.85429   1.42144   1.10516
   3.61487   1.42144   1.10516
   3.61487   1.42144   1.10516
   3.37545   1.66086   1.34458
   3.37545   1.66086   1.10516
   3.37545   1.66086   1.10516
   2.89661   1.66086   1.10516
   2.65719   1.42144   1.10516
   2.65719   1.42144   1.10516
   2.41777   1.18202   1.10516
   2.17835   1.42144   1.10516
   2.17835   1.18202   1.10516
   1.93894   1.18202   1.10516
   1.69952   1.18202   1.10516
   1.46010   1.18202   1.10516
   1.46010   1.18202   1.10516
   1.22068   1.18202   1.10516
   0.98126   0.94260   0.86574
   0.74184   0.94260   0.86574
   0.74184   0.94260   0.86574
   0.50242   0.70319   0.86574
   0.26300   0.70319   0.86574
   0.26300   0.70319   0.86574
   0.02358   0.46377   0.86574
   0.02358   0.46377   0.86574
  -0.21583   0.46377   0.86574
  -0.45525   0.46377   0.86574
  -0.69467   0.46377   0.86574
  -0.69467   0.22435   0.86574
  -0.93409   0.22435   0.86574
  -0.93409  -0.01507   0.86574
  -1.17351  -0.01507   0.62632
  -1.17351  -0.01507   0.62632
  -1.41293  -0.01507   0.62632
  -1.41293  -0.25449   0.62632
  -1.65235  -0.01507   0.62632
  -1.65235  -0.25449   0.38690
  -1.89177  -0.25449   0.38690
  -1.89177  -0.25449   0.62632
  -2.13119  -0.25449   0.62632
  -2.13119  -0.49391   0.38690
  -2.37061  -0.49391   0.38690
  -2.61002  -0.49391   0.38690
  -2.84944  -0.73333   0.62632
  -2.84944  -0.73333   0.38690
  -3.08886  -0.49391   0.38690
  -3.08886  -0.73333   0.38690
  -3.32828  -0.73333   0.38690
  -3.32828  -0.73333   0.38690
  -3.56770  -0.73333   0.38690
