********************************************************************************
               CENTRO DE INSTRUMENTACION Y REGISTRO SISMICO  A.C.  
                       Coordinacion de Servicios Tecnicos
     Anaxagoras 814, Col. Narvarte, Benito Juarez, C.P. 03020 Mexico, D.F.
            Tels. 687 45 42/ 687 45  82             Fax. 669 25 12
********************************************************************************
ARCHIVO ESTANDAR DE ACELERACION:
VERSION DEL FORMATO                    : 2.0
NOMBRE DEL ARCHIVO                     : AE029607.151
FECHA Y HORA DE CREACION               : 27/MAR/98,10:13
REF. CATALOGO ACELEROGRAMAS, SMIS 1996 : REGISTRO No.     /PAG.


================================================================================
DATOS DE LA ESTACION:
NOMBRE DE LA ESTACION                  : AEROPUERTO
CLAVE DE LA ESTACION                   : AE02
LOCALIZACION DE LA ESTACION            : Esc Prim Gonzalez Garzon Calle Xico
                                       : s/n, Col. IV Seccion del Arenal
                                       : Venustiano Carranza
                                       :
                                       :
COORDENADAS DE LA ESTACION             : 19.429 LAT. N 
                                       : 99.058 LONG. W 
ALTITUD (msnm)                         : 2232
TIPO DE SUELO                          : ARCILLOSO, ZONA LAGO
                                       : 
                                       : 
INSTITUCION RESPONSABLE                : CIRES
                                       :

================================================================================
DATOS DEL ACELEROGRAFO:
MODELO DEL ACELEROGRAFO                : DCA-333
NUMERO DE SERIE DEL ACELEROGRAFO       : 242
NUMERO DE CANALES                      : 3
ORIENTACION C1-C6 (rumbo;orientacion)  : /N00E/+V/N90W
ORIENTACION C7-C12 (rumbo;orientacion) :
VEL. DE MUESTREO, C1-C6 (muestras/s)   : /100/100/100
VEL. DE MUESTREO, C7-C12 (muestras/s)  :
ESC. COMPLETA DE SENSORES, C1-C6, (g)  : /0.5/0.5/0.5
ESC. COMPLETA DE SENSORES, C7-C12, (g) :
FREC. NAT. DE SENSORES, C1-C6, (Hz)    : /30/30/30
FREC. NAT. DE SENSORES, C7-C12, (Hz)   :
AMORTIGUAMIENTO DE SENSORES, C1-C6     : /0.733/0.750/0.700
AMORTIGUAMIENTO DE SENSORES, C7-C12    :
INTERVALO DE MUESTREO, C1-C6, (s)      : /0.01/0.01/0.01
INTERVALO DE MUESTREO, C7-C12, (s)     :
UMBRAL DE DISPARO, C1-C6, (Gal)        : /4.9/4.9/4.9
UMBRAL DE DISPARO, C7-C12, (Gal)       :
MEMORIA DE PREEVENTO (s)               : 4
TIEMPO DE POSEVENTO (s)                : 15


================================================================================
DATOS DEL SISMO:
FECHA DEL SISMO (GMT)                  : 15/JUL/96
HORA EPICENTRO (GMT)                   : 21:23:38:5
MAGNITUD(ES)                           : /Ms=6.5
COORDENADAS DEL EPICENTRO              : 17.4 LAT. N
                                       : 101.1 LONG. W
PROFUNDIDAD FOCAL (km)                 : 20.0
FUENTE DE LOS DATOS EPICENTRALES       : SSN
                                       : INSTITUTO DE GEOFISICA, UNAM

================================================================================
DATOS DE ESTE REGISTRO:
HORA DE LA PRIMERA MUESTRA (GMT)       : 21:25:10.60
EXACTITUD DEL TIEMPO (s)               : 0.01
DURACION DEL REGISTRO (s), C1-C6       : /71.87/71.87/71.87
DURACION DEL REGISTRO (s), C7-C12      :
NUM. TOTAL DE MUESTRAS, C1-C6          : /7187/7187/7187
NUM. TOTAL DE MUESTRAS, C7-C12         :
ACEL. MAX. (Gal), C1-C6                : /9.23537/5.20769/5.57373
ACEL. MAX., C1-C6, EN LA MUESTRA       :
ACEL. MAX. (Gal), C7-C12               :
ACEL. MAX., C7-C12, EN LA MUESTRA      :
UNIDADES DE LOS DATOS                  : Gal (cm/s/s)
FACTOR DE DECIMACION                   : 1
FORMATO DATOS (FORTRAN,10 campos/dato) : 3F10.5


================================================================================
CALIDAD DEL ACELEROGRAMA:
REGISTRO DIGITAL COMPLETO CON TIEMPO ABSOLUTO CORRECTO.


================================================================================
COMENTARIOS:














================================================================================
DATOS DE ACELERACION:
---------+---------+---------+---------+---------+---------+---------+---------+
   CANAL-1   CANAL-2   CANAL-3   CANAL-4   CANAL-5   CANAL-6   CANAL-7   CANAL-8
      N00E        +V      N90W
---------+---------+---------+---------+---------+---------+---------+---------+
[...]
   0.13745  -1.01721  -1.26419
   0.37687  -1.01721  -1.26419
   0.61629  -1.25662  -1.26419
   0.85571  -1.49604  -1.50361
   1.09512  -1.49604  -1.50361
   1.33454  -1.49604  -1.74302
   1.57396  -1.49604  -1.74302
   1.57396  -1.49604  -1.74302
   1.81338  -1.25662  -1.98244
   2.05280  -1.25662  -1.98244
   2.29222  -1.01721  -1.98244
   2.53164  -1.01721  -2.22186
   2.53164  -0.53837  -2.22186
   2.53164  -0.53837  -2.22186
   2.77106  -0.29895  -2.46128
   2.77106  -0.05953  -2.46128
   2.77106  -0.05953  -2.70070
   3.01048   0.17989  -2.70070
   3.01048   0.41931  -2.70070
   3.01048   0.41931  -2.94012
   3.01048   0.65873  -2.94012
   2.77106   0.65873  -2.70070
   2.77106   0.65873  -2.46128
   2.53164   0.89815  -2.46128
   2.29222   0.89815  -2.22186
   2.05280   0.89815  -1.98244
   1.57396   1.13756  -1.74302
   1.33454   1.13756  -1.26419
   0.85571   1.13756  -1.26419
   0.61629   1.37698  -1.26419
   0.13745   1.37698  -1.26419
  -0.10197   1.13756  -1.26419
  -0.34139   0.89815  -1.26419
  -0.82023   0.89815  -1.02477
  -1.05965   0.65873  -1.02477
  -1.05965   0.41931  -1.02477
  -1.29907   0.41931  -1.26419
  -1.53848   0.17989  -1.26419
  -1.53848  -0.05953  -1.26419
  -1.53848  -0.05953  -1.26419
  -1.53848  -0.05953  -1.26419
  -1.53848  -0.53837  -1.26419
  -1.53848  -0.77779  -1.26419
  -1.53848  -0.77779  -1.26419
  -1.29907  -0.77779  -1.26419
  -1.29907  -0.77779  -1.26419
  -1.29907  -1.01721  -1.74302
  -0.82023  -1.01721  -1.74302
  -0.82023  -1.25662  -1.74302
  -0.34139  -1.25662  -1.98244
  -0.10197  -1.25662  -1.74302
  -0.10197  -1.01721  -1.74302
   0.13745  -1.25662  -1.74302
   0.37687  -1.01721  -1.98244
   0.61629  -1.25662  -1.74302
   0.61629  -1.25662  -1.74302
   0.85571  -1.25662  -1.74302
   1.09512  -1.25662  -1.50361
   1.09512  -1.25662  -1.26419
   1.09512  -1.25662  -1.26419
   1.09512  -1.25662  -1.26419
   0.85571  -1.25662  -1.02477
   0.85571  -1.25662  -1.02477
   0.85571  -1.25662  -0.54593
   0.61629  -1.49604  -0.54593
   0.37687  -1.49604  -0.54593
   0.37687  -1.49604  -0.54593
   0.13745  -1.73546  -0.30651
  -0.10197  -1.73546  -0.30651
  -0.34139  -1.97488  -0.30651
  -0.58081  -1.97488  -0.30651
  -0.58081  -1.73546  -0.30651
  -0.82023  -1.73546  -0.30651
  -0.82023  -1.73546  -0.30651
  -1.05965  -1.49604  -0.54593
  -1.05965  -1.49604  -0.54593
  -1.05965  -1.25662  -0.54593
  -1.05965  -1.25662  -0.78535
  -1.05965  -1.01721  -0.78535
  -1.05965  -0.77779  -0.78535
  -1.29907  -0.53837  -0.78535
  -1.05965  -0.29895  -0.54593
  -1.05965  -0.29895  -0.54593
  -1.05965  -0.05953  -0.30651
  -1.05965  -0.29895  -0.30651
  -1.05965  -0.29895   0.17233
  -0.82023   0.17989   0.17233
  -0.82023   0.17989   0.41175
  -0.82023   0.41931   0.65116
  -0.58081   0.41931   0.89058
  -0.58081   0.65873   0.89058
  -0.34139   0.65873   1.13000
  -0.34139   0.89815   1.13000
  -0.10197   0.89815   1.13000
   0.13745   1.13756   1.36942
   0.13745   1.13756   1.13000
   0.37687   1.37698   1.36942
   0.37687   1.37698   1.36942
   0.37687   1.61640   1.36942
   0.37687   1.61640   1.36942
   0.37687   1.61640   1.36942
   0.37687   1.85582   1.36942
   0.13745   1.85582   1.60884
   0.13745   1.85582   1.60884
   0.13745   1.85582   1.84826
  -0.10197   1.85582   1.84826
  -0.10197   1.85582   2.08768
  -0.10197   2.09524   2.08768
  -0.34139   2.09524   2.32710
  -0.34139   2.09524   2.32710
  -0.34139   1.85582   2.56652
  -0.58081   1.85582   2.56652
  -0.58081   1.85582   2.80594
  -0.58081   1.85582   2.80594
  -0.58081   1.61640   2.80594
  -0.58081   1.37698   3.04535
  -0.58081   1.13756   3.04535
  -0.58081   0.89815   2.80594
  -0.58081   0.65873   3.04535
  -0.58081   0.41931   2.80594
  -0.58081  -0.05953   2.80594
  -0.58081  -0.05953   2.80594
  -0.58081  -0.29895   2.56652
  -0.58081  -0.29895   2.56652
  -0.34139  -0.53837   2.56652
  -0.34139  -0.53837   2.56652
  -0.34139  -0.53837   2.56652
  -0.10197  -0.77779   2.56652
   0.13745  -0.53837   2.56652
   0.13745  -0.77779   2.56652
   0.37687  -0.77779   2.32710
   0.37687  -0.77779   2.32710
   0.61629  -0.77779   2.32710
   0.85571  -0.77779   2.32710
   0.85571  -0.77779   2.32710
   1.09512  -1.01721   2.32710
   1.33454  -1.25662   2.08768
   1.33454  -1.25662   2.08768
   1.33454  -1.49604   1.84826
   1.33454  -1.49604   1.60884
   1.57396  -1.49604   1.60884
   1.57396  -1.73546   1.36942
   1.57396  -1.73546   1.36942
   1.57396  -1.49604   1.36942
   1.57396  -1.49604   1.36942
   1.57396  -1.49604   1.36942
   1.81338  -1.25662   1.60884
   1.81338  -1.49604   1.36942
   1.81338  -1.49604   1.84826
   1.81338  -1.49604   1.84826
   1.81338  -1.97488   1.84826
   2.05280  -1.97488   1.84826
   2.05280  -1.97488   2.08768
   2.05280  -1.73546   1.84826
   2.05280  -1.49604   2.08768
   2.05280  -1.25662   2.08768
   2.29222  -1.01721   2.08768
   2.05280  -0.77779   2.32710
   2.29222  -0.29895   2.32710
   2.29222   0.17989   2.56652
   2.29222   0.41931   2.56652
   2.29222   0.89815   2.56652
   2.29222   1.13756   2.80594
   2.29222   1.37698   3.04535
   2.29222   1.61640   2.80594
   2.29222   1.85582   2.80594
   2.29222   1.85582   2.80594
   2.05280   1.85582   2.56652
   2.05280   1.85582   2.56652
   2.05280   1.85582   2.32710
   2.05280   1.85582   2.08768
   1.81338   1.85582   1.84826
   1.81338   1.85582   1.60884
   1.81338   1.61640   1.36942
   1.57396   1.37698   1.13000
   1.57396   1.37698   0.89058
   1.33454   1.37698   0.65116
   1.09512   1.13756   0.41175
   1.09512   1.13756   0.41175
   0.61629   0.89815   0.17233
   0.37687   0.65873  -0.06709
   0.13745   0.41931  -0.06709
  -0.10197   0.41931  -0.54593
  -0.34139   0.41931  -0.54593
  -0.82023   0.17989  -0.78535
  -1.29907  -0.05953  -1.02477
  -1.53848  -0.05953  -1.02477
  -1.53848  -0.29895  -1.26419
  -2.25674  -0.29895  -1.50361
  -2.49616  -0.53837  -1.74302
  -2.97500  -0.53837  -1.74302
  -3.21442  -1.25662  -1.98244
  -3.45384  -0.53837  -2.22186
  -3.69325  -0.53837  -2.46128
  -3.93267  -0.77779  -2.22186
  -4.17209  -0.53837  -2.22186
  -4.17209  -0.53837  -2.22186
  -4.17209  -0.53837  -2.22186
  -4.41151  -0.53837  -2.22186
  -4.41151  -0.53837  -2.46128
  -4.41151  -0.53837  -2.22186
  -4.41151  -0.53837  -2.46128
  -4.41151  -0.53837  -2.46128
  -4.17209  -0.77779  -2.46128
  -4.17209  -0.77779  -2.70070
  -3.93267  -0.77779  -2.70070
  -3.93267  -0.77779  -2.70070
  -3.69325  -0.77779  -2.70070
  -3.45384  -0.53837  -2.46128
  -3.21442  -0.77779  -2.46128
  -2.97500  -0.77779  -2.46128
  -2.73558  -0.53837  -2.46128
  -2.73558  -0.53837  -2.46128
  -2.49616  -0.53837  -2.46128
  -2.25674  -0.29895  -2.46128
  -2.25674  -0.29895  -2.46128
  -2.01732  -0.29895  -2.46128
  -1.77790  -0.29895  -2.46128
  -1.53848  -0.05953  -2.46128
  -1.53848  -0.05953  -2.46128
  -1.53848   0.17989  -2.46128
  -1.29907   0.17989  -2.22186
  -1.29907   0.17989  -2.22186
  -1.05965   0.17989  -2.22186
  -1.05965   0.17989  -1.98244
  -0.82023   0.41931  -1.74302
  -0.82023   0.17989  -1.74302
  -0.82023   0.17989  -1.50361
  -0.82023   0.17989  -1.26419
  -0.58081   0.41931  -1.26419
  -0.58081   0.17989  -1.02477
  -0.58081   0.17989  -1.02477
  -0.58081  -0.05953  -0.78535
  -0.58081  -0.05953  -0.78535
  -0.34139  -0.29895  -0.78535
  -0.34139  -0.05953  -0.54593
  -0.34139  -0.05953  -0.54593
  -0.10197  -0.05953  -0.54593
  -0.10197  -0.29895  -0.54593
   0.13745  -0.05953  -0.54593
   0.13745  -0.05953  -0.54593
   0.37687  -0.05953  -0.78535
   0.61629  -0.05953  -0.78535
   0.61629  -0.05953  -1.02477
   0.61629  -0.05953  -1.02477
   0.85571  -0.05953  -1.02477
   0.85571  -0.05953  -1.02477
   0.85571  -0.05953  -1.26419
   1.09512  -0.05953  -1.02477
   1.09512   0.17989  -0.78535
   1.33454   0.17989  -0.78535
   1.33454  -0.05953  -0.30651
   1.33454  -0.05953  -0.30651
   1.33454  -0.05953   0.17233
   1.57396  -0.05953   0.41175
   1.57396  -0.05953   0.65116
   1.57396  -0.05953   0.89058
   1.57396   0.17989   1.13000
   1.57396   0.17989   1.36942
   1.81338   0.41931   1.60884
   1.57396   0.65873   1.60884
   1.57396   0.65873   1.84826
   1.57396   0.89815   1.84826
   1.57396   1.13756   1.84826
   1.57396   1.37698   1.84826
   1.33454   1.61640   1.84826
   1.33454   1.85582   1.84826
   1.33454   1.85582   1.84826
   1.09512   2.09524   1.84826
   0.85571   2.33466   1.84826
   0.61629   2.33466   1.84826
   0.13745   2.57408   1.60884
   0.13745   2.57408   1.60884
  -0.10197   2.57408   1.60884
  -0.58081   2.57408   1.60884
  -0.82023   2.57408   1.36942
  -1.05965   2.57408   1.36942
  -1.29907   2.57408   1.13000
  -1.53848   2.57408   1.13000
  -2.01732   2.57408   1.13000
  -2.25674   2.57408   1.13000
  -2.49616   2.57408   0.89058
  -2.49616   2.33466   0.89058
  -2.73558   2.33466   0.89058
  -2.97500   2.09524   0.65116
  -2.97500   2.09524   0.65116
  -3.21442   1.85582   0.65116
  -3.45384   1.85582   0.65116
  -3.45384   1.37698   0.65116
  -3.45384   1.13756   0.65116
  -3.69325   0.89815   0.41175
  -3.93267   0.65873   0.65116
  -3.93267   0.41931   0.65116
  -4.17209  -0.05953   0.89058
  -4.41151  -0.05953   0.89058
  -4.41151  -0.29895   0.89058
  -4.65093  -0.53837   0.89058
  -4.65093  -0.53837   1.13000
  -4.89035  -0.53837   0.89058
  -5.12977  -0.77779   0.89058
  -5.12977  -1.01721   0.65116
  -5.36919  -1.01721   0.41175
  -5.60861  -1.25662   0.17233
  -5.36919  -1.49604  -0.06709
  -5.36919  -1.49604  -0.30651
  -5.36919  -1.97488  -0.54593
  -5.60861  -2.21430  -0.54593
  -5.36919  -2.45372  -0.78535
  -5.12977  -2.69314  -0.78535
  -4.89035  -2.69314  -0.54593
  -4.89035  -2.93256  -0.54593
  -4.65093  -3.17198  -0.54593
  -4.17209  -3.41140  -0.30651
  -3.93267  -3.41140  -0.06709
  -3.69325  -3.41140  -0.06709
  -3.21442  -3.41140   0.17233
  -2.97500  -3.41140   0.17233
  -2.49616  -3.41140   0.41175
  -2.25674  -3.17198   0.41175
  -1.77790  -2.93256   0.41175
  -1.53848  -2.93256   0.65116
  -1.29907  -2.45372   0.65116
  -1.05965  -2.21430   0.65116
  -0.82023  -1.97488   0.41175
  -0.58081  -1.49604   0.65116
  -0.10197  -1.25662   0.65116
   0.13745  -1.01721   0.65116
   0.61629  -0.77779   0.41175
   1.09512  -0.53837   0.41175
   1.33454  -0.29895   0.41175
   2.05280  -0.05953   0.17233
   2.53164   0.17989  -0.06709
   3.01048   0.17989  -0.54593
   3.48931   0.41931  -0.30651
   4.20757   0.41931  -0.54593
   4.44699   0.65873  -0.78535
   5.16525   0.65873  -1.02477
   5.88350   0.65873  -1.02477
   6.12292   0.65873  -1.26419
   6.60176   0.65873  -1.26419
   7.08060   0.65873  -1.26419
   7.55944   0.65873  -1.26419
   7.79885   0.41931  -1.26419
   8.03827   0.41931  -1.02477
   8.27769   0.41931  -1.02477
   8.51711   0.41931  -1.02477
   8.75653   0.41931  -1.02477
   8.75653   0.41931  -1.02477
   8.99595   0.41931  -1.26419
   9.23537   0.41931  -1.26419
   9.23537   0.41931  -1.26419
   9.23537   0.65873  -1.26419
   9.23537   0.65873  -1.50361
   9.23537   0.65873  -1.74302
   9.23537   0.65873  -1.74302
   8.99595   0.65873  -1.74302
   8.99595   0.65873  -1.98244
   8.99595   0.65873  -1.98244
   8.75653   0.65873  -1.98244
   8.75653   0.65873  -1.98244
   8.51711   0.89815  -1.98244
   8.27769   0.65873  -1.98244
   8.03827   0.89815  -1.74302
   7.79885   0.89815  -1.74302
   7.55944   0.65873  -1.74302
   7.32002   0.65873  -1.50361
   6.84118   0.41931  -1.26419
   6.60176   0.41931  -1.26419
   6.12292   0.17989  -1.26419
   5.64408  -0.05953  -1.26419
   5.16525  -0.05953  -1.26419
   4.68641  -0.29895  -1.26419
   4.20757  -0.29895  -1.02477
   3.72873  -0.05953  -1.02477
   3.24989  -0.05953  -1.02477
   3.01048  -0.05953  -1.02477
   2.53164  -0.05953  -1.02477
   1.81338   0.17989  -1.02477
   1.33454   0.17989  -1.02477
   0.85571   0.17989  -1.26419
   0.13745   0.17989  -1.26419
  -0.10197   0.17989  -1.02477
  -0.58081   0.41931  -1.02477
  -1.05965   0.41931  -1.02477
  -1.29907   0.17989  -0.54593
  -1.53848  -0.05953  -0.54593
  -2.01732  -0.05953  -0.54593
  -2.25674  -0.05953  -0.06709
  -2.49616  -0.05953  -0.06709
  -2.73558  -0.05953   0.17233
  -2.97500  -0.05953   0.41175
  -2.97500   0.17989   0.41175
  -2.97500   0.17989   0.65116
  -2.97500   0.17989   0.65116
  -2.97500   0.41931   0.89058
  -2.97500   0.65873   1.13000
  -2.97500   0.89815   1.13000
  -2.73558   0.89815   1.36942
  -2.49616   0.89815   1.36942
  -2.25674   0.89815   1.60884
  -2.25674   1.13756   1.60884
  -2.25674   1.13756   1.60884
  -1.77790   0.89815   1.84826
  -1.53848   1.13756   1.84826
  -1.53848   0.89815   1.84826
  -1.53848   0.89815   1.84826
  -1.29907   0.65873   1.84826
  -1.05965   0.41931   1.84826
  -0.82023   0.41931   1.60884
  -0.58081   0.41931   1.60884
  -0.34139   0.17989   1.36942
  -0.34139   0.17989   1.36942
  -0.10197   0.17989   1.36942
  -0.10197  -0.05953   1.13000
   0.13745  -0.05953   0.89058
   0.37687  -0.05953   1.13000
   0.37687  -0.05953   1.13000
   0.61629  -0.05953   0.89058
   0.61629  -0.05953   0.65116
   0.85571   0.17989   0.65116
   0.85571   0.17989   0.65116
   0.85571   0.41931   0.41175
   0.85571   0.41931   0.41175
   0.85571   0.41931   0.41175
   0.85571   0.89815   0.41175
   1.09512   0.89815   0.17233
   0.85571   0.89815   0.17233
   1.09512   0.65873  -0.06709
   1.09512   0.89815  -0.06709
   1.09512   0.65873  -0.06709
   1.09512   0.41931  -0.06709
   1.33454   0.41931  -0.06709
   1.33454   0.41931  -0.06709
   1.33454   0.17989  -0.06709
   1.57396  -0.05953  -0.30651
   1.57396  -0.05953  -0.06709
   1.57396  -0.29895  -0.06709
   1.57396  -0.29895  -0.06709
   1.57396  -0.53837  -0.06709
   1.81338  -0.53837   0.17233
   1.81338  -0.77779   0.17233
   1.81338  -0.53837   0.17233
   1.81338  -0.77779   0.17233
   2.05280  -0.77779   0.17233
   2.05280  -0.77779   0.17233
   2.05280  -1.01721   0.17233
   2.05280  -1.25662   0.17233
   2.05280  -1.25662   0.17233
   2.05280  -1.25662   0.17233
   2.05280  -1.49604   0.41175
   2.05280  -1.73546   0.17233
   2.05280  -1.73546   0.17233
   1.81338  -1.73546   0.41175
   1.81338  -1.73546   0.65116
   1.57396  -1.73546   0.65116
   1.33454  -1.73546   0.89058
   1.09512  -1.49604   1.13000
   0.85571  -1.49604   1.36942
   0.61629  -1.49604   1.60884
   0.61629  -1.25662   1.84826
   0.13745  -1.01721   2.08768
  -0.10197  -1.01721   2.08768
  -0.10197  -0.77779   2.32710
  -0.34139  -0.53837   2.32710
  -0.58081  -0.29895   2.32710
  -0.82023  -0.05953   2.32710
  -0.82023  -0.29895   2.08768
  -1.05965  -0.05953   1.84826
  -1.05965  -0.05953   1.60884
  -1.29907  -0.05953   1.60884
  -1.29907  -0.05953   1.36942
  -1.29907   0.17989   1.13000
  -1.29907   0.17989   0.89058
  -1.29907   0.41931   0.89058
  -1.29907   0.41931   0.65116
  -1.29907   0.41931   0.65116
  -1.29907   0.41931   0.65116
  -1.05965   0.41931   0.89058
  -1.05965   0.17989   1.13000
  -1.05965   0.17989   1.36942
  -1.05965   0.17989   1.36942
  -0.82023   0.17989   1.60884
  -0.82023   0.17989   1.60884
  -0.82023   0.17989   1.84826
  -0.82023   0.41931   1.84826
  -0.82023   0.41931   1.84826
  -0.82023   0.41931   1.60884
  -0.82023   0.65873   1.60884
  -1.05965   0.65873   1.36942
  -1.05965   0.65873   1.36942
  -1.05965   0.41931   1.13000
  -1.05965   0.41931   0.89058
  -1.05965   0.41931   0.89058
  -1.29907   0.41931   0.65116
  -1.29907   0.41931   0.41175
  -1.29907   0.41931   0.17233
  -1.53848   0.41931  -0.06709
  -1.53848   0.41931  -0.30651
  -1.53848   0.65873  -0.54593
  -1.53848   0.65873  -0.78535
