********************************************************************************
               CENTRO DE INSTRUMENTACION Y REGISTRO SISMICO  A.C.  
                       Coordinacion de Servicios Tecnicos
     Anaxagoras 814, Col. Narvarte, Benito Juarez, C.P. 03020 Mexico, D.F.
            Tels. 687 45 42/ 687 45  82             Fax. 669 25 12
********************************************************************************
ARCHIVO ESTANDAR DE ACELERACION:
VERSION DEL FORMATO                    : 2.0
NOMBRE DEL ARCHIVO                     : AE029705.221
FECHA Y HORA DE CREACION               : 18/MAR/98, 13:30
REF. CATALOGO ACELEROGRAMAS, SMIS 1996 : REGISTRO No.     /PAG.


================================================================================
DATOS DE LA ESTACION:
NOMBRE DE LA ESTACION                  : AEROPUERTO
CLAVE DE LA ESTACION                   : AE02
LOCALIZACION DE LA ESTACION            : Esc Prim Gonzalez Garzon Calle Xico
                                       : s/n, Col. IV Seccion del Arenal
                                       : Venustiano Carranza
                                       :
                                       :
COORDENADAS DE LA ESTACION             : 19.429 LAT. N 
                                       : 99.058 LONG. W 
ALTITUD (msnm)                         : 2232
TIPO DE SUELO                          : ARCILLOSO, ZONA LAGO
                                       : 
                                       : 
INSTITUCION RESPONSABLE                : CIRES
                                       :

================================================================================
DATOS DEL ACELEROGRAFO:
MODELO DEL ACELEROGRAFO                : RAD-851
NUMERO DE SERIE DEL ACELEROGRAFO       : 242
NUMERO DE CANALES                      : 3
ORIENTACION C1-C6 (rumbo;orientacion)  : /N00E/+V/N90W
ORIENTACION C7-C12 (rumbo;orientacion) :
VEL. DE MUESTREO, C1-C6 (muestras/s)   : /100/100/100
VEL. DE MUESTREO, C7-C12 (muestras/s)  :
ESC. COMPLETA DE SENSORES, C1-C6, (g)  : /0.5/0.5/0.5
ESC. COMPLETA DE SENSORES, C7-C12, (g) :
FREC. NAT. DE SENSORES, C1-C6, (Hz)    : /30/30/30
FREC. NAT. DE SENSORES, C7-C12, (Hz)   :
AMORTIGUAMIENTO DE SENSORES, C1-C6     : /0.733/0.750/0.700
AMORTIGUAMIENTO DE SENSORES, C7-C12    :
INTERVALO DE MUESTREO, C1-C6, (s)      : /0.01/0.01/0.01
INTERVALO DE MUESTREO, C7-C12, (s)     :
UMBRAL DE DISPARO, C1-C6, (Gal)        : /2.44/3.91/2.44
UMBRAL DE DISPARO, C7-C12, (Gal)       :
MEMORIA DE PREEVENTO (s)               : 16
TIEMPO DE POSEVENTO (s)                : 48


================================================================================
DATOS DEL SISMO:
FECHA DEL SISMO (GMT)                  : 22/MAY/97
HORA EPICENTRO (GMT)                   : 07:50:55:7
MAGNITUD(ES)                           : /Ms=6.0
COORDENADAS DEL EPICENTRO              : 18.4 LAT. N
                                       : 101.8 LONG. W
PROFUNDIDAD FOCAL (km)                 : 59.0
FUENTE DE LOS DATOS EPICENTRALES       : SSN
                                       : INSTITUTO DE GEOFISICA, UNAM

================================================================================
DATOS DE ESTE REGISTRO:
HORA DE LA PRIMERA MUESTRA (GMT)       : 07:52:23.00
EXACTITUD DEL TIEMPO (s)               : 0.01
DURACION DEL REGISTRO (s), C1-C6       : /149.75/149.75/149.75
DURACION DEL REGISTRO (s), C7-C12      :
NUM. TOTAL DE MUESTRAS, C1-C6          : /14975/14975/14975
NUM. TOTAL DE MUESTRAS, C7-C12         :
ACEL. MAX. (Gal), C1-C6                : /6.18903/2.80041/5.85030
ACEL. MAX., C1-C6, EN LA MUESTRA       :
ACEL. MAX. (Gal), C7-C12               :
ACEL. MAX., C7-C12, EN LA MUESTRA      :
UNIDADES DE LOS DATOS                  : Gal (cm/s/s)
FACTOR DE DECIMACION                   : 1
FORMATO DATOS (FORTRAN,10 campos/dato) : 3F10.5


================================================================================
CALIDAD DEL ACELEROGRAMA:
REGISTRO DIGITAL COMPLETO CON TIEMPO ABSOLUTO CORRECTO.


================================================================================
COMENTARIOS:














================================================================================
DATOS DE ACELERACION:
---------+---------+---------+---------+---------+---------+---------+---------+
   CANAL-1   CANAL-2   CANAL-3   CANAL-4   CANAL-5   CANAL-6   CANAL-7   CANAL-8
      N00E        +V      N90W
---------+---------+---------+---------+---------+---------+---------+---------+
[...]
  -0.68240  -0.16680  -1.57169
  -0.68240   0.07262  -1.57169
  -0.44298   0.07262  -1.57169
  -0.44298  -0.16680  -1.57169
  -0.44298   0.07262  -1.81111
  -0.44298   0.07262  -1.57169
  -0.20356   0.07262  -1.57169
  -0.44298   0.07262  -1.33227
  -0.20356  -0.16680  -1.57169
  -0.20356   0.07262  -1.33227
  -0.20356   0.07262  -1.33227
   0.03586   0.07262  -1.33227
   0.03586   0.07262  -1.33227
   0.03586   0.07262  -1.33227
   0.27528   0.07262  -1.09285
   0.27528   0.07262  -1.09285
   0.27528   0.07262  -0.85343
   0.75412  -0.16680  -0.85343
   0.75412  -0.16680  -0.61402
   0.75412  -0.16680  -0.61402
   0.99354  -0.40622  -0.61402
   0.99354  -0.40622  -0.37460
   1.23296  -0.40622  -0.37460
   1.47237  -0.16680  -0.13518
   1.47237  -0.40622  -0.13518
   1.71179  -0.40622   0.10424
   1.71179  -0.40622   0.10424
   1.95121  -0.40622   0.34366
   1.95121  -0.40622   0.10424
   1.95121  -0.40622   0.34366
   2.19063  -0.16680   0.58308
   2.43005  -0.16680   0.58308
   2.43005  -0.40622   0.82250
   2.43005  -0.40622   0.82250
   2.66947  -0.40622   0.82250
   2.66947  -0.16680   1.06192
   2.90889  -0.16680   0.82250
   2.90889  -0.16680   1.06192
   2.90889  -0.16680   1.06192
   3.14831  -0.16680   1.06192
   2.90889  -0.16680   1.30134
   2.90889  -0.16680   1.30134
   2.90889  -0.16680   1.54075
   3.14831  -0.16680   1.54075
   3.14831   0.07262   1.54075
   3.38773   0.07262   1.54075
   3.14831   0.07262   1.54075
   3.38773   0.07262   1.78017
   3.62715   0.31204   1.78017
   3.38773   0.31204   2.01959
   3.38773   0.31204   2.01959
   3.62715   0.31204   2.01959
   3.62715   0.31204   2.25901
   3.86656   0.55145   2.01959
   3.86656   0.55145   2.49843
   4.10598   0.31204   2.49843
   4.10598   0.55145   2.49843
   4.10598   0.55145   2.49843
   4.10598   0.31204   2.73785
   4.10598   0.55145   2.73785
   4.34540   0.31204   2.97727
   4.34540   0.31204   2.97727
   4.34540   0.31204   2.97727
   4.34540   0.31204   2.97727
   4.58482   0.31204   2.97727
   4.34540   0.31204   2.97727
   4.58482   0.31204   2.97727
   4.58482   0.31204   2.97727
   4.82424   0.31204   2.97727
   4.34540   0.31204   2.97727
   4.58482   0.07262   2.97727
   4.58482   0.07262   2.97727
   4.58482   0.31204   2.73785
   4.58482   0.07262   2.73785
   4.58482   0.07262   2.73785
   4.58482   0.07262   2.49843
   4.58482   0.07262   2.49843
   4.58482   0.07262   2.25901
   4.58482   0.07262   2.49843
   4.58482  -0.16680   2.25901
   4.58482  -0.16680   2.01959
   4.58482  -0.16680   2.01959
   4.34540   0.07262   1.78017
   4.58482  -0.16680   1.78017
   4.58482  -0.16680   1.54075
   4.34540  -0.16680   1.54075
   4.34540  -0.40622   1.30134
   4.58482  -0.16680   1.30134
   4.58482  -0.16680   1.06192
   4.34540  -0.16680   0.82250
   4.34540  -0.40622   0.82250
   4.34540  -0.16680   0.58308
   4.34540  -0.16680   0.58308
   4.34540  -0.16680   0.34366
   4.34540  -0.16680   0.10424
   4.58482  -0.40622   0.10424
   4.58482  -0.40622  -0.13518
   4.34540  -0.40622  -0.37460
   4.58482  -0.40622  -0.37460
   4.34540  -0.40622  -0.37460
   4.58482  -0.40622  -0.61402
   4.34540  -0.40622  -0.85343
   4.34540  -0.64564  -0.85343
   4.34540  -0.64564  -1.09285
   4.58482  -0.64564  -1.09285
   4.34540  -0.64564  -1.33227
   4.34540  -0.64564  -1.33227
   4.34540  -0.64564  -1.33227
   4.10598  -0.64564  -1.57169
   4.10598  -0.88506  -1.57169
   4.10598  -0.64564  -1.57169
   3.86656  -0.64564  -1.57169
   3.86656  -0.64564  -1.81111
   3.62715  -0.64564  -1.81111
   3.62715  -0.64564  -1.81111
   3.62715  -0.64564  -1.57169
   3.38773  -0.64564  -1.81111
   3.38773  -0.64564  -1.81111
   3.14831  -0.64564  -1.81111
   3.14831  -0.64564  -1.81111
   3.14831  -0.40622  -1.57169
   3.14831  -0.64564  -1.57169
   2.90889  -0.40622  -1.57169
   3.14831  -0.40622  -1.57169
   3.14831  -0.16680  -1.57169
   2.90889  -0.16680  -1.57169
   2.90889  -0.16680  -1.57169
   2.90889  -0.16680  -1.33227
   3.14831  -0.16680  -1.33227
   2.90889  -0.16680  -1.33227
   3.14831  -0.40622  -1.33227
   3.14831  -0.16680  -1.09285
   3.14831  -0.16680  -1.09285
   3.14831  -0.16680  -1.09285
   2.90889  -0.16680  -0.85343
   3.14831  -0.16680  -0.85343
   2.90889  -0.16680  -0.85343
   2.90889  -0.16680  -0.85343
   2.90889  -0.16680  -0.61402
   2.90889   0.07262  -0.61402
   2.90889   0.07262  -0.61402
   2.66947   0.07262  -0.37460
   2.66947   0.07262  -0.61402
   2.66947   0.31204  -0.37460
   2.66947   0.31204  -0.37460
   2.43005   0.55145  -0.37460
   2.43005   0.31204  -0.13518
   2.43005   0.55145  -0.37460
   2.19063   0.55145  -0.13518
   2.43005   0.55145  -0.13518
   2.19063   0.79087  -0.13518
   2.19063   0.79087  -0.13518
   1.95121   0.79087  -0.13518
   2.19063   0.79087   0.10424
   1.95121   0.79087   0.10424
   1.95121   0.79087   0.10424
   1.95121   0.79087   0.34366
   1.95121   1.03029   0.34366
   1.95121   1.03029   0.34366
   1.71179   0.79087   0.82250
   1.71179   0.79087   0.58308
   1.71179   1.03029   0.82250
   1.47237   0.79087   0.82250
   1.71179   0.79087   1.06192
   1.47237   0.79087   1.06192
   1.71179   0.79087   1.30134
   1.71179   0.79087   1.30134
   1.71179   0.79087   1.06192
   1.47237   0.79087   1.30134
   1.71179   0.79087   1.30134
   1.71179   0.79087   1.06192
   1.71179   0.79087   1.06192
   1.71179   0.79087   1.06192
   1.71179   0.79087   1.06192
   1.71179   0.79087   1.06192
   1.71179   0.79087   0.82250
   1.71179   0.79087   0.82250
   1.71179   0.55145   0.34366
   1.47237   0.55145   0.34366
   1.71179   0.55145   0.34366
   1.71179   0.55145   0.34366
   1.71179   0.55145   0.10424
   1.47237   0.31204  -0.13518
   1.47237   0.55145  -0.13518
   1.47237   0.31204  -0.37460
   1.23296   0.31204  -0.37460
   1.47237   0.07262  -0.37460
   1.23296   0.31204  -0.37460
   1.23296   0.31204  -0.61402
   1.23296   0.07262  -0.61402
   1.23296   0.07262  -0.61402
   1.23296   0.07262  -0.85343
   1.23296   0.07262  -0.85343
   1.47237  -0.16680  -1.09285
   1.47237  -0.16680  -1.09285
   1.23296  -0.16680  -1.09285
   1.23296  -0.40622  -1.09285
   1.47237  -0.64564  -1.33227
   1.47237  -0.64564  -1.33227
   1.47237  -0.88506  -1.33227
   1.47237  -0.88506  -1.57169
   1.47237  -1.12448  -1.57169
   1.47237  -1.12448  -1.57169
   1.23296  -1.36390  -1.57169
   1.47237  -1.36390  -1.57169
   1.23296  -1.60332  -1.57169
   1.23296  -1.60332  -1.57169
   1.23296  -1.60332  -1.81111
   1.23296  -1.60332  -1.81111
   1.23296  -1.60332  -1.81111
   1.23296  -1.84273  -1.57169
   0.99354  -1.60332  -1.81111
   0.99354  -1.60332  -1.57169
   0.99354  -1.60332  -1.81111
   0.99354  -1.60332  -1.57169
   0.99354  -1.60332  -1.81111
   0.75412  -1.36390  -1.81111
   0.99354  -1.36390  -1.57169
   0.75412  -1.36390  -1.57169
   0.75412  -1.36390  -1.57169
   0.75412  -1.36390  -1.57169
   0.51470  -1.36390  -1.57169
   0.75412  -1.36390  -1.33227
   0.75412  -1.36390  -1.57169
   0.75412  -1.12448  -1.09285
   0.51470  -1.12448  -1.33227
   0.51470  -1.12448  -1.33227
   0.75412  -1.12448  -1.33227
   0.51470  -0.88506  -1.09285
   0.51470  -0.88506  -1.09285
   0.51470  -0.88506  -1.09285
   0.51470  -0.88506  -1.09285
   0.51470  -0.64564  -0.85343
   0.51470  -0.64564  -0.85343
   0.51470  -0.40622  -0.85343
   0.75412  -0.64564  -0.85343
   0.75412  -0.40622  -0.85343
   0.75412  -0.40622  -0.85343
   0.75412  -0.40622  -0.85343
   0.99354  -0.16680  -0.85343
   0.99354  -0.16680  -0.85343
   0.99354  -0.16680  -0.85343
   1.23296  -0.40622  -0.85343
   1.23296  -0.16680  -0.85343
   1.23296  -0.16680  -0.85343
   1.23296  -0.16680  -0.85343
   1.47237  -0.16680  -0.85343
   1.47237   0.07262  -0.85343
   1.47237  -0.16680  -0.85343
   1.71179  -0.16680  -0.85343
   1.71179   0.07262  -0.85343
   1.71179  -0.16680  -0.61402
   1.71179   0.07262  -0.85343
   1.71179   0.07262  -0.61402
   1.71179   0.07262  -0.61402
   1.95121   0.07262  -0.61402
   1.95121   0.07262  -0.61402
   1.95121   0.31204  -0.37460
   1.95121   0.31204  -0.37460
   1.95121   0.55145  -0.37460
   1.95121   0.55145  -0.37460
   1.95121   0.55145  -0.13518
   1.95121   0.79087  -0.13518
   1.95121   0.79087  -0.13518
   1.95121   0.79087   0.10424
   1.95121   0.79087   0.10424
   1.95121   0.79087   0.10424
   1.95121   0.79087   0.10424
   1.71179   1.03029   0.10424
   1.71179   0.79087   0.34366
   1.71179   1.03029   0.34366
   1.47237   1.03029   0.34366
   1.23296   1.03029   0.58308
   1.23296   1.03029   0.82250
   1.23296   1.03029   0.82250
   1.23296   1.03029   0.82250
   0.99354   1.03029   0.82250
   0.75412   1.03029   1.06192
   0.75412   1.03029   1.30134
   0.51470   1.03029   1.54075
   0.51470   1.03029   1.54075
   0.27528   1.26971   1.54075
   0.27528   1.03029   1.54075
   0.03586   1.03029   1.54075
  -0.20356   1.26971   2.01959
  -0.44298   1.26971   2.01959
  -0.44298   1.26971   2.01959
  -0.68240   1.26971   2.25901
  -0.68240   1.26971   2.25901
  -0.68240   1.03029   2.49843
  -0.92181   1.03029   2.49843
  -0.92181   1.03029   2.49843
  -0.92181   1.26971   2.73785
  -1.16123   1.03029   2.73785
  -1.16123   1.03029   2.73785
  -1.16123   1.03029   2.97727
  -1.16123   0.79087   2.97727
  -1.40065   1.03029   3.21669
  -1.40065   0.79087   3.21669
  -1.64007   0.79087   3.21669
  -1.40065   0.79087   3.45611
  -1.64007   0.79087   3.45611
  -1.64007   0.55145   3.45611
  -1.87949   0.79087   3.69553
  -1.87949   0.79087   3.45611
  -1.87949   0.79087   3.69553
  -1.87949   0.79087   3.69553
  -2.11891   1.03029   3.93494
  -2.11891   0.79087   3.69553
  -2.35833   1.03029   3.69553
  -2.11891   0.79087   3.69553
  -2.35833   1.03029   3.69553
  -2.59775   1.03029   3.69553
  -2.59775   0.79087   3.93494
  -2.59775   1.03029   3.93494
  -2.59775   0.79087   3.69553
  -2.83717   0.79087   3.69553
  -2.83717   0.79087   3.45611
  -2.83717   0.55145   3.69553
  -3.07659   0.55145   3.45611
  -3.07659   0.55145   3.45611
  -3.55542   0.79087   3.45611
  -3.31600   0.55145   3.21669
  -3.55542   0.79087   3.21669
  -3.79484   0.55145   3.21669
  -3.79484   0.55145   2.97727
  -3.79484   0.55145   2.97727
  -4.27368   0.55145   2.97727
  -4.27368   0.31204   2.97727
  -4.27368   0.31204   2.73785
  -4.51310   0.31204   2.73785
  -4.51310   0.07262   2.73785
  -4.75252   0.07262   2.49843
  -4.75252   0.07262   2.49843
  -4.99194   0.07262   2.25901
  -5.23136   0.07262   2.01959
  -5.23136   0.07262   1.78017
  -5.47077  -0.16680   2.01959
  -5.47077  -0.16680   1.54075
  -5.71019  -0.16680   1.54075
  -5.47077  -0.40622   1.54075
  -5.71019  -0.40622   1.54075
  -5.71019  -0.64564   1.30134
  -5.94961  -0.64564   1.06192
  -5.71019  -0.88506   1.06192
  -5.94961  -0.64564   1.06192
  -5.94961  -0.88506   0.82250
  -5.94961  -0.88506   0.82250
  -6.18903  -0.88506   0.58308
  -5.94961  -0.88506   0.58308
  -6.18903  -0.88506   0.58308
  -6.18903  -0.88506   0.34366
  -6.18903  -0.64564   0.10424
  -6.18903  -0.88506   0.10424
  -6.18903  -0.88506   0.10424
  -6.18903  -0.88506   0.10424
  -6.18903  -0.64564  -0.13518
  -5.94961  -0.88506  -0.13518
  -5.94961  -0.88506  -0.37460
  -5.94961  -0.88506  -0.13518
  -5.71019  -0.88506  -0.37460
  -5.71019  -0.64564  -0.37460
  -5.47077  -0.88506  -0.37460
  -5.47077  -0.64564  -0.61402
  -5.47077  -0.88506  -0.61402
  -5.23136  -0.64564  -0.37460
  -5.23136  -0.88506  -0.85343
  -4.99194  -0.88506  -0.85343
  -4.99194  -0.88506  -0.85343
  -4.99194  -0.64564  -0.85343
  -4.75252  -0.64564  -0.85343
  -4.51310  -0.64564  -1.09285
  -4.75252  -0.64564  -1.09285
  -4.51310  -0.40622  -1.09285
  -4.51310  -0.40622  -1.09285
  -4.27368  -0.40622  -1.33227
  -4.27368  -0.40622  -1.09285
  -4.27368  -0.40622  -1.33227
  -4.27368  -0.40622  -1.33227
  -4.03426  -0.40622  -1.33227
  -4.03426  -0.40622  -1.33227
  -4.03426  -0.40622  -1.33227
  -4.03426  -0.40622  -1.33227
  -4.03426  -0.40622  -1.33227
  -3.79484  -0.64564  -1.57169
  -4.03426  -0.40622  -1.33227
  -3.79484  -0.40622  -1.57169
  -4.03426  -0.40622  -1.57169
  -4.03426  -0.40622  -1.33227
  -3.79484  -0.40622  -1.33227
  -4.03426  -0.40622  -1.33227
  -3.79484  -0.64564  -1.09285
  -4.03426  -0.64564  -1.33227
  -3.55542  -0.40622  -1.33227
  -3.79484  -0.40622  -1.33227
  -3.55542  -0.64564  -1.33227
  -3.55542  -0.64564  -1.33227
  -3.55542  -0.40622  -1.33227
  -3.55542  -0.40622  -1.33227
  -3.31600  -0.40622  -1.33227
  -3.31600  -0.40622  -1.33227
  -3.31600  -0.40622  -1.57169
  -3.31600  -0.64564  -1.33227
  -3.31600  -0.40622  -1.33227
  -3.31600  -0.64564  -1.33227
  -3.07659  -0.64564  -1.33227
  -3.31600  -0.64564  -1.33227
  -3.31600  -0.40622  -1.57169
  -3.31600  -0.40622  -1.33227
  -3.31600  -0.40622  -1.33227
  -3.31600  -0.40622  -1.57169
  -3.55542  -0.40622  -1.57169
  -3.55542  -0.40622  -1.81111
  -3.31600  -0.16680  -1.57169
  -3.55542  -0.40622  -1.81111
  -3.55542  -0.40622  -1.81111
  -3.79484  -0.16680  -1.81111
  -3.79484  -0.16680  -1.81111
  -3.79484  -0.16680  -1.81111
  -3.79484  -0.16680  -2.05053
  -3.79484   0.07262  -2.05053
  -3.79484   0.07262  -1.81111
  -4.03426   0.07262  -2.05053
  -3.79484   0.07262  -1.81111
  -3.79484   0.07262  -2.05053
  -4.03426   0.07262  -1.81111
  -3.79484   0.07262  -1.81111
  -3.79484   0.07262  -1.81111
  -3.79484   0.07262  -2.05053
  -3.79484   0.07262  -2.05053
  -3.79484   0.07262  -1.81111
  -3.79484   0.31204  -1.81111
  -3.55542   0.07262  -1.81111
  -3.55542   0.31204  -1.57169
  -3.31600   0.31204  -1.81111
  -3.31600   0.31204  -1.81111
  -3.31600   0.31204  -1.57169
  -3.31600   0.55145  -1.57169
  -3.07659   0.55145  -1.57169
  -2.83717   0.55145  -1.81111
  -2.83717   0.55145  -1.57169
  -2.59775   0.55145  -1.57169
  -2.59775   0.55145  -1.81111
  -2.35833   0.55145  -1.81111
  -2.35833   0.55145  -1.81111
  -2.11891   0.79087  -1.81111
  -2.11891   0.79087  -1.81111
  -1.87949   0.79087  -1.81111
  -1.87949   1.03029  -1.81111
  -1.87949   1.03029  -1.81111
  -1.64007   1.03029  -1.81111
  -1.87949   1.03029  -1.81111
  -1.40065   1.03029  -1.81111
  -1.40065   0.79087  -1.81111
  -1.40065   1.03029  -1.81111
  -1.40065   1.03029  -1.81111
  -1.16123   1.03029  -1.81111
  -1.16123   1.03029  -1.81111
  -0.92181   1.03029  -1.81111
  -0.68240   1.03029  -1.81111
  -0.92181   1.03029  -1.81111
  -0.92181   1.03029  -1.81111
  -0.44298   1.03029  -1.81111
  -0.44298   1.03029  -1.81111
  -0.20356   1.03029  -1.81111
  -0.20356   1.03029  -1.81111
   0.03586   1.03029  -1.81111
  -0.20356   1.26971  -1.81111
   0.27528   1.03029  -1.81111
   0.27528   1.03029  -1.81111
   0.51470   0.79087  -1.57169
   0.51470   0.79087  -1.81111
   0.75412   0.79087  -1.81111
   0.75412   0.79087  -1.57169
   0.99354   1.03029  -1.81111
   1.23296   1.03029  -1.57169
   1.23296   0.79087  -1.57169
   1.23296   0.79087  -1.57169
   1.23296   0.79087  -1.33227
   1.47237   0.79087  -1.33227
   1.47237   0.79087  -1.33227
   1.71179   0.79087  -1.09285
   1.71179   0.79087  -1.09285
   1.71179   0.79087  -0.85343
   1.71179   0.55145  -0.85343
   1.71179   0.55145  -0.85343
   1.95121   0.55145  -0.61402
   1.95121   0.55145  -0.37460
   1.95121   0.55145  -0.61402
   1.95121   0.55145  -0.37460
   1.71179   0.55145  -0.37460
   1.71179   0.55145  -0.13518
   1.71179   0.31204  -0.13518
   1.71179   0.31204   0.10424
   1.71179   0.31204   0.34366
   1.47237   0.31204   0.10424
   1.47237   0.31204   0.10424
   1.23296   0.07262   0.58308
   1.47237   0.07262   0.58308
