********************************************************************************
               CENTRO DE INSTRUMENTACION Y REGISTRO SISMICO  A.C.  
                       Coordinacion de Servicios Tecnicos
     Anaxagoras 814, Col. Narvarte, Benito Juarez, C.P. 03020 Mexico, D.F.
            Tels. 687 45 42/ 687 45  82             Fax. 669 25 12
********************************************************************************
ARCHIVO ESTANDAR DE ACELERACION:
VERSION DEL FORMATO                    : 2.0
NOMBRE DEL ARCHIVO                     : AE029909.301
FECHA Y HORA DE CREACION               : 10/FEBRERO/2000 10:55
REF. CATALOGO ACELEROGRAMAS, SMIS 1996 : REGISTRO No.     /PAG.


================================================================================
DATOS DE LA ESTACION:
NOMBRE DE LA ESTACION                  : AEROPUERTO
CLAVE DE LA ESTACION                   : AE02
LOCALIZACION DE LA ESTACION            : Esc Prim Gonzalez Garzon Calle Xico
                                       : s/n, Col. IV Seccion del Arenal
                                       : Venustiano Carranza
                                       :
                                       :
COORDENADAS DE LA ESTACION             : 19.429 LAT. N 
                                       : 99.058 LONG. W 
ALTITUD (msnm)                         : 2232
TIPO DE SUELO                          : ARCILLOSO, ZONA LAGO
                                       : 
                                       : 
INSTITUCION RESPONSABLE                : CIRES
                                       :

================================================================================
DATOS DEL ACELEROGRAFO:
MODELO DEL ACELEROGRAFO                : RAD-851
NUMERO DE SERIE DEL ACELEROGRAFO       : 242
NUMERO DE CANALES                      : 3
ORIENTACION C1-C6 (rumbo;orientacion)  : /N00E/+V/N90W
ORIENTACION C7-C12 (rumbo;orientacion) :
VEL. DE MUESTREO, C1-C6 (muestras/s)   : /100/100/100
VEL. DE MUESTREO, C7-C12 (muestras/s)  :
ESC. COMPLETA DE SENSORES, C1-C6, (g)  : /0.5/0.5/0.5
ESC. COMPLETA DE SENSORES, C7-C12, (g) :
FREC. NAT. DE SENSORES, C1-C6, (Hz)    : /30/30/30
FREC. NAT. DE SENSORES, C7-C12, (Hz)   :
AMORTIGUAMIENTO DE SENSORES, C1-C6     : /0.733/0.750/0.700
AMORTIGUAMIENTO DE SENSORES, C7-C12    :
INTERVALO DE MUESTREO, C1-C6, (s)      : /0.01/0.01/0.01
INTERVALO DE MUESTREO, C7-C12, (s)     :
UMBRAL DE DISPARO, C1-C6, (Gal)        : /2.44/3.91/2.44
UMBRAL DE DISPARO, C7-C12, (Gal)       :
MEMORIA DE PREEVENTO (s)               : 16
TIEMPO DE POSEVENTO (s)                : 48


================================================================================
DATOS DEL SISMO:
FECHA DEL SISMO (GMT)                  : 30/SEP/99
HORA EPICENTRO (GMT)                   : 16:31:14.8
MAGNITUD(ES)                           : /Mb=6.5/Ms=7.5/Mc=5.2/Ma=7.1/Me=7.6
COORDENADAS DEL EPICENTRO              : 15.95 LAT. N
                                       : 97.03 LONG. W
PROFUNDIDAD FOCAL (km)                 : 16.0
FUENTE DE LOS DATOS EPICENTRALES       : SSN
                                       : INSTITUTO DE GEOFISICA, UNAM

================================================================================
DATOS DE ESTE REGISTRO:
HORA DE LA PRIMERA MUESTRA (GMT)       : 16:32:43.00
EXACTITUD DEL TIEMPO (s)               : 0.01
DURACION DEL REGISTRO (s), C1-C6       : /383.75/383.75/383.75
DURACION DEL REGISTRO (s), C7-C12      :
NUM. TOTAL DE MUESTRAS, C1-C6          : /38375/38375/38375/
NUM. TOTAL DE MUESTRAS, C7-C12         :
ACEL. MAX. (Gal), C1-C6                : /24.71868/8.87095/21.43224
ACEL. MAX., C1-C6, EN LA MUESTRA       :
ACEL. MAX. (Gal), C7-C12               :
ACEL. MAX., C7-C12, EN LA MUESTRA      :
UNIDADES DE LOS DATOS                  : Gal (cm/s/s)
FACTOR DE DECIMACION                   : 1
FORMATO DATOS (FORTRAN,10 campos/dato) : 3F10.5


================================================================================
CALIDAD DEL ACELEROGRAMA:
REGISTRO DIGITAL COMPLETO CON TIEMPO ABSOLUTO CORRECTO.


================================================================================
COMENTARIOS:














================================================================================
DATOS DE ACELERACION:
---------+---------+---------+---------+---------+---------+---------+---------+
   CANAL-1   CANAL-2   CANAL-3   CANAL-4   CANAL-5   CANAL-6   CANAL-7   CANAL-8
      N00E        +V      N90W
---------+---------+---------+---------+---------+---------+---------+---------+
[...]
 -18.61615  -1.90290   8.74304
 -18.37673  -1.66348   9.22187
 -18.13731  -1.66348   9.94013
 -17.89789  -1.42406  10.41897
 -17.65847  -1.18464  10.89781
 -17.17964  -0.94522  11.13723
 -17.17964  -0.46638  11.37665
 -16.70080  -0.22697  11.61606
 -16.22196   0.01245  11.61606
 -15.74312   0.25187  11.37665
 -15.50370   0.73071  11.37665
 -14.78545   1.20955  11.37665
 -14.30661   1.20955  10.89781
 -13.82777   1.44897  10.41897
 -13.34893   1.44897  10.17955
 -13.10951   1.68839   9.70071
 -12.63068   1.92780   9.46129
 -12.63068   1.92780   9.46129
 -12.63068   2.16722   9.22187
 -12.39126   1.92780   8.74304
 -12.39126   1.92780   8.74304
 -12.63068   1.68839   8.50362
 -12.63068   1.68839   8.74304
 -12.63068   1.44897   8.50362
 -12.39126   1.20955   8.74304
 -12.87010   1.20955   8.74304
 -12.87010   1.20955   8.74304
 -12.87010   0.97013   8.50362
 -13.10951   0.97013   8.74304
 -13.10951   0.97013   8.74304
 -12.87010   0.49129   8.98246
 -12.63068   0.73071   8.98246
 -12.39126   0.97013   8.74304
 -11.91242   0.73071   8.98246
 -11.43358   0.73071   8.74304
 -10.95474   0.97013   8.74304
 -10.47591   0.97013   8.98246
  -9.75765   1.20955   8.74304
  -9.03939   1.44897   8.74304
  -8.32114   1.44897   8.50362
  -7.60288   1.44897   8.26420
  -7.12404   1.68839   8.02478
  -6.40578   1.68839   7.54594
  -6.16637   1.44897   7.06710
  -5.68753   1.44897   7.06710
  -5.68753   1.20955   6.34885
  -6.16637   1.20955   6.10943
  -6.64520   1.20955   5.63059
  -7.12404   0.97013   5.15175
  -8.08172   0.97013   4.67292
  -8.79997   0.73071   4.43350
  -9.75765   0.49129   4.19408
 -10.71533   0.49129   3.95466
 -11.43358   0.49129   3.71524
 -12.15184   0.49129   3.71524
 -12.63068   0.49129   3.47582
 -12.87010   0.49129   3.23640
 -13.10951   0.73071   3.23640
 -12.87010   0.73071   3.23640
 -12.87010   0.49129   2.75756
 -12.39126   0.73071   2.51814
 -11.67300   0.73071   2.27873
 -11.19416   0.49129   2.03931
 -10.23649   0.49129   1.56047
  -9.27881  -0.22697   1.32105
  -8.56055  -0.46638   0.84221
  -8.08172  -0.70580   0.60279
  -7.12404  -0.94522   0.36337
  -6.64520  -1.18464  -0.11546
  -5.68753  -1.42406  -0.11546
  -5.44811  -1.66348  -0.11546
  -4.96927  -1.90290  -0.11546
  -4.25101  -1.90290  -0.83372
  -3.77218  -1.90290  -1.07314
  -3.29334  -1.90290  -1.07314
  -2.57508  -2.14232  -1.31256
  -2.09624  -2.14232  -1.31256
  -1.85682  -2.14232  -1.79140
  -0.89915  -1.90290  -2.74907
   0.05853  -1.90290  -3.94617
   0.77678  -2.14232  -4.66442
   1.49504  -2.14232  -5.38268
   2.45272  -1.66348  -6.34036
   3.64981  -1.18464  -7.53745
   5.32574  -0.94522  -8.49513
   6.76226  -0.94522  -9.45280
   7.95935  -0.94522 -10.17106
   9.39587  -1.42406 -10.88932
  10.83238  -1.42406 -11.60757
  12.26889  -1.18464 -11.84699
  13.46599  -1.42406 -11.84699
  14.42366  -1.90290 -11.84699
  15.38134  -1.90290 -11.60757
  15.62076  -1.90290 -11.36815
  15.62076  -2.14232 -11.12874
  15.86018  -2.14232 -10.17106
  15.86018  -2.14232  -9.69222
  15.62076  -1.90290  -9.45280
  15.38134  -1.90290  -8.73455
  14.66308  -1.90290  -8.49513
  14.18425  -1.42406  -8.01629
  13.70541  -1.18464  -7.77687
  13.46599  -0.70580  -7.29803
  12.98715  -0.46638  -7.05861
  12.98715   0.01245  -6.81919
  12.74773   0.25187  -6.81919
  12.50831   0.25187  -6.81919
  12.26889   0.01245  -6.81919
  12.26889   0.01245  -6.81919
  12.50831  -0.22697  -6.81919
  12.74773  -0.46638  -7.29803
  12.98715  -0.46638  -7.29803
  12.74773  -0.46638  -7.05861
  12.74773  -0.70580  -7.05861
  12.98715  -0.70580  -7.29803
  12.74773  -0.94522  -7.29803
  12.74773  -0.94522  -7.05861
  12.50831  -1.42406  -7.05861
  12.02947  -1.18464  -7.05861
  11.31122  -1.18464  -7.05861
  10.83238  -0.94522  -7.05861
  10.11412  -0.94522  -7.05861
   9.39587  -0.94522  -7.29803
   8.67761  -0.46638  -7.29803
   7.71993  -0.46638  -7.05861
   6.76226  -0.22697  -6.81919
   6.28342   0.25187  -6.57978
   5.32574   0.49129  -6.34036
   5.08633   0.73071  -6.34036
   4.84691   0.97013  -6.10094
   4.36807   1.44897  -6.10094
   3.88923   1.68839  -5.86152
   4.60749   1.68839  -5.62210
   4.60749   1.92780  -6.10094
   5.08633   2.40664  -5.86152
   5.56516   2.16722  -6.10094
   6.28342   2.40664  -6.34036
   6.76226   2.40664  -6.57978
   7.48051   2.16722  -6.57978
   8.67761   1.92780  -6.81919
   9.15645   1.92780  -7.29803
   9.63529   1.68839  -7.29803
  10.35354   1.68839  -7.53745
  11.07180   1.20955  -7.77687
  11.55064   1.44897  -8.25571
  12.26889   1.44897  -8.49513
  12.74773   0.97013  -8.73455
  13.22657   0.97013  -8.97396
  13.94483   0.97013  -9.21338
  14.42366   0.97013  -9.69222
  15.14192   0.49129  -9.69222
  15.86018   0.01245 -10.41048
  16.57843   0.25187 -10.88932
  17.29669   0.01245 -11.36815
  18.01495  -0.22697 -12.08641
  18.49379  -0.22697 -12.80467
  18.97262  -0.46638 -13.52292
  19.45146  -0.70580 -14.00176
  20.16972  -0.94522 -14.72002
  20.64856  -1.18464 -15.19886
  21.12739  -1.66348 -15.67770
  21.36681  -1.66348 -16.15653
  21.36681  -1.42406 -16.63537
  21.36681  -1.42406 -16.63537
  21.36681  -1.66348 -16.87479
  21.60623  -1.66348 -16.87479
  21.60623  -1.66348 -16.87479
  21.36681  -1.90290 -16.87479
  21.12739  -1.66348 -16.63537
  21.12739  -1.90290 -16.15653
  21.12739  -1.90290 -15.67770
  20.88798  -1.90290 -15.67770
  20.64856  -1.90290 -15.19886
  20.64856  -2.14232 -14.72002
  20.64856  -2.14232 -14.24118
  20.88798  -2.38174 -13.76234
  21.12739  -1.90290 -13.52292
  21.12739  -1.90290 -13.04409
  20.88798  -1.90290 -12.56525
  20.64856  -1.90290 -12.56525
  20.88798  -1.90290 -12.32583
  20.88798  -1.66348 -12.32583
  20.88798  -1.66348 -12.08641
  20.64856  -1.66348 -11.84699
  20.40914  -1.42406 -11.84699
  19.93030  -1.42406 -11.84699
  19.45146  -1.42406 -11.84699
  18.97262  -1.66348 -11.60757
  18.73321  -1.66348 -11.36815
  18.01495  -1.66348 -11.12874
  17.05727  -1.42406 -10.88932
  15.86018  -1.18464 -10.64990
  14.90250  -0.94522 -10.17106
  13.70541  -0.94522  -9.93164
  12.50831  -1.18464  -9.45280
  11.07180  -0.94522  -8.97396
   9.87470  -0.94522  -8.49513
   8.43819  -0.94522  -8.01629
   7.00168  -0.94522  -7.29803
   6.04400  -1.18464  -6.81919
   5.08633  -1.18464  -6.10094
   3.64981  -1.18464  -5.62210
   2.69214  -1.18464  -4.90384
   1.97388  -1.18464  -4.18559
   1.01620  -0.70580  -3.22791
   0.29795  -0.46638  -2.74907
  -0.65973  -0.46638  -1.79140
  -1.85682  -0.46638  -1.31256
  -2.57508   0.01245  -0.35488
  -3.53276   0.01245   0.36337
  -4.25101   0.25187   0.84221
  -4.96927   0.25187   1.56047
  -6.16637   0.25187   2.03931
  -7.12404   0.49129   2.51814
  -7.84230   0.25187   2.99698
  -8.56055   0.25187   3.71524
  -9.27881   0.49129   3.95466
  -9.75765   0.73071   4.43350
 -10.23649   0.49129   4.91233
 -11.19416   0.49129   5.15175
 -11.43358   0.73071   5.87001
 -12.15184   0.49129   6.10943
 -12.39126   0.73071   6.82769
 -12.87010   0.73071   7.54594
 -12.87010   0.73071   7.78536
 -13.10951   0.97013   8.26420
 -13.10951   0.97013   8.74304
 -13.34893   0.73071   8.74304
 -13.34893   0.49129   9.22187
 -13.34893   0.49129   9.70071
 -13.34893   0.49129   9.94013
 -13.34893   0.25187  10.41897
 -13.34893   0.25187  10.65839
 -13.34893   0.01245  11.13723
 -13.34893  -0.22697  11.13723
 -13.10951  -0.22697  11.85548
 -13.10951  -0.46638  12.09490
 -13.82777  -0.70580  12.09490
 -13.82777  -0.46638  12.81316
 -14.30661  -0.46638  12.81316
 -14.54603  -0.22697  12.81316
 -15.02487   0.25187  13.29200
 -15.50370   0.25187  14.01025
 -15.98254   0.73071  14.24967
 -16.22196   1.20955  14.48909
 -16.70080   1.68839  14.72851
 -16.70080   1.92780  15.20735
 -16.94022   2.16722  15.92561
 -16.94022   2.64606  16.64386
 -16.70080   2.64606  17.36212
 -15.74312   2.64606  18.08038
 -15.74312   2.64606  18.55921
 -15.26429   2.64606  18.79863
 -14.54603   2.40664  19.99573
 -13.82777   2.40664  20.71398
 -12.63068   2.16722  21.19282
 -12.15184   1.92780  21.43224
 -11.43358   1.44897  21.43224
 -10.47591   0.97013  21.19282
  -9.75765   0.49129  20.71398
  -9.03939   0.01245  20.71398
  -8.32114  -0.22697  20.47457
  -7.60288  -0.70580  19.75631
  -7.12404  -0.70580  19.51689
  -6.64520  -0.94522  19.27747
  -6.16637  -1.18464  18.79863
  -5.92695  -1.18464  18.31979
  -5.68753  -1.18464  18.31979
  -5.44811  -1.42406  17.60154
  -5.20869  -1.18464  17.36212
  -5.20869  -1.42406  17.12270
  -5.20869  -1.42406  17.12270
  -4.96927  -1.18464  17.12270
  -5.20869  -0.94522  16.88328
  -5.44811  -1.18464  17.12270
  -5.44811  -0.94522  16.88328
  -5.68753  -1.18464  17.12270
  -5.68753  -0.70580  16.88328
  -5.92695  -0.70580  16.88328
  -5.92695  -0.70580  16.88328
  -5.92695  -0.70580  16.88328
  -6.16637  -0.70580  16.64386
  -6.40578  -0.22697  16.40444
  -6.64520   0.01245  16.16502
  -6.64520   0.25187  16.16502
  -6.88462   0.49129  15.92561
  -7.12404   0.97013  16.16502
  -7.12404   0.97013  15.92561
  -7.12404   1.20955  15.44677
  -7.60288   1.44897  14.96793
  -7.36346   1.44897  14.48909
  -7.36346   1.68839  14.01025
  -7.36346   1.92780  13.53142
  -7.60288   1.92780  13.29200
  -7.36346   1.68839  12.33432
  -7.36346   1.92780  11.61606
  -7.12404   1.68839  10.89781
  -6.88462   1.68839   9.94013
  -6.88462   1.44897   8.74304
  -6.64520   1.44897   8.02478
  -6.64520   1.44897   7.06710
  -6.40578   0.97013   5.87001
  -6.16637   0.97013   4.91233
  -6.40578   0.73071   3.95466
  -6.16637   0.73071   2.75756
  -6.16637   0.73071   2.03931
  -5.92695   0.25187   1.32105
  -5.92695   0.01245   0.60279
  -5.68753  -0.22697  -0.35488
  -5.68753  -0.46638  -1.31256
  -5.44811  -0.70580  -2.03082
  -4.96927  -0.46638  -2.74907
  -4.72985  -0.70580  -3.46733
  -4.25101  -0.46638  -4.42500
  -3.77218  -0.70580  -5.62210
  -2.81450  -0.70580  -6.10094
  -2.09624  -0.94522  -6.81919
  -1.37799  -0.94522  -7.53745
  -0.65973  -0.94522  -7.77687
   0.53737  -1.42406  -8.01629
   1.73446  -1.66348  -8.25571
   2.93155  -2.14232  -8.49513
   3.88923  -2.38174  -8.97396
   5.08633  -2.62116  -9.21338
   6.28342  -3.09999  -8.97396
   7.48051  -3.33941  -8.97396
   8.67761  -3.33941  -9.21338
   9.87470  -3.81825  -8.73455
  10.59296  -4.29709  -8.01629
  11.79006  -4.29709  -8.01629
  13.46599  -3.81825  -8.25571
  14.66308  -4.05767  -8.01629
  15.14192  -4.29709  -7.29803
  15.86018  -4.77593  -6.81919
  16.57843  -5.01534  -7.05861
  17.29669  -5.25476  -7.29803
  18.49379  -5.49418  -7.29803
  19.93030  -5.73360  -7.05861
  19.93030  -5.97302  -6.81919
  20.40914  -5.97302  -6.57978
  21.12739  -5.97302  -6.34036
  22.08507  -5.49418  -6.10094
  22.56391  -5.25476  -6.10094
  23.04275  -5.01534  -5.62210
  23.52158  -5.01534  -5.14326
  24.23984  -4.53651  -5.14326
  24.23984  -4.05767  -4.66442
  24.23984  -3.81825  -4.18559
  24.71868  -3.57883  -3.46733
  24.47926  -3.09999  -3.22791
  24.23984  -3.09999  -2.50965
  24.47926  -2.86057  -2.03082
  24.00042  -2.38174  -1.31256
  23.28217  -2.14232  -0.83372
  22.32449  -1.90290  -0.59430
  21.60623  -1.66348  -0.11546
  20.88798  -1.42406   0.36337
  20.16972  -0.94522   1.32105
  19.69088  -0.46638   1.79989
  18.73321  -0.22697   2.51814
  18.25437   0.25187   2.99698
  17.53611   0.49129   3.23640
  16.57843   0.73071   3.71524
  15.62076   1.20955   4.19408
  14.66308   1.20955   4.43350
  14.18425   1.68839   4.91233
  13.46599   1.92780   5.15175
  12.74773   2.40664   5.39117
  11.55064   2.64606   5.63059
  10.59296   3.12490   5.87001
   9.15645   3.60374   6.10943
   8.19877   4.08257   6.10943
   7.00168   4.32199   6.34885
   6.04400   4.80083   6.58827
   5.32574   5.27967   6.58827
   4.60749   5.51909   6.82769
   3.17097   5.51909   7.06710
   1.73446   5.75851   6.82769
   0.53737   5.99793   7.06710
  -0.18089   5.75851   7.06710
  -1.13857   5.75851   7.06710
  -2.09624   5.99793   6.82769
  -3.05392   5.99793   6.58827
  -3.77218   5.99793   6.34885
  -4.49043   6.23735   6.10943
  -5.20869   6.23735   6.10943
  -5.68753   5.99793   5.87001
  -5.92695   6.23735   5.63059
  -6.40578   6.23735   5.15175
  -6.64520   6.47676   4.91233
  -6.88462   6.47676   4.67292
  -6.88462   6.47676   4.67292
  -7.12404   6.71618   4.43350
  -7.36346   6.47676   4.19408
  -7.36346   6.71618   4.19408
  -7.36346   6.71618   4.19408
  -7.12404   6.23735   4.43350
  -6.88462   6.23735   4.43350
  -6.88462   5.99793   4.43350
  -6.88462   5.75851   4.43350
  -7.12404   5.51909   4.67292
  -7.36346   5.51909   4.91233
  -7.60288   5.27967   4.67292
  -7.36346   5.04025   4.91233
  -7.60288   4.80083   5.15175
  -7.84230   4.56141   4.91233
  -8.32114   4.08257   5.15175
  -8.56055   3.84316   4.91233
  -8.56055   3.36432   4.67292
  -8.79997   3.36432   4.19408
  -9.03939   3.12490   3.95466
  -9.03939   2.88548   3.71524
  -8.79997   2.88548   3.23640
  -8.79997   2.64606   2.75756
  -8.79997   2.40664   2.51814
  -8.56055   2.40664   2.27873
  -8.32114   2.16722   1.79989
  -8.32114   2.16722   1.32105
  -8.08172   1.92780   1.08163
  -7.84230   1.44897   0.60279
  -7.84230   0.97013   0.36337
  -7.84230   0.73071  -0.11546
  -7.84230   0.25187  -0.35488
  -7.84230  -0.22697  -0.59430
  -7.60288  -0.70580  -0.83372
  -7.84230  -0.94522  -0.83372
  -8.08172  -1.18464  -0.83372
  -8.32114  -1.66348  -1.07314
  -8.56055  -1.90290  -1.07314
  -9.03939  -1.90290  -1.07314
  -9.27881  -2.14232  -0.83372
  -9.27881  -2.62116  -0.59430
  -9.51823  -2.86057  -0.59430
  -9.75765  -3.09999  -0.59430
 -10.47591  -3.33941  -0.35488
 -10.71533  -3.33941  -0.11546
 -10.95474  -3.33941  -0.11546
 -11.19416  -3.57883  -0.11546
 -11.67300  -3.57883  -0.11546
 -11.67300  -3.57883  -0.11546
 -11.91242  -3.81825  -0.35488
 -12.15184  -3.81825  -0.59430
 -12.15184  -3.81825  -0.83372
 -12.63068  -3.81825  -1.07314
 -12.63068  -4.05767  -1.55198
 -12.63068  -4.29709  -1.79140
 -12.87010  -4.29709  -2.27023
 -12.87010  -4.53651  -2.50965
 -13.10951  -4.53651  -2.74907
 -13.34893  -5.01534  -2.98849
 -13.58835  -5.25476  -3.22791
 -13.82777  -5.25476  -3.46733
 -13.82777  -5.25476  -3.46733
 -14.06719  -5.25476  -3.94617
 -14.30661  -5.01534  -3.70675
 -14.06719  -4.77593  -3.94617
 -14.06719  -4.77593  -4.18559
 -14.06719  -4.53651  -4.66442
 -14.06719  -4.29709  -4.90384
 -13.82777  -4.05767  -5.38268
 -13.34893  -4.05767  -5.86152
 -13.10951  -4.05767  -6.34036
 -12.63068  -3.81825  -7.05861
 -12.15184  -3.57883  -7.29803
 -11.43358  -3.57883  -7.77687
 -10.47591  -3.57883  -8.25571
  -9.75765  -3.57883  -8.73455
  -9.03939  -3.33941  -8.97396
  -8.32114  -3.33941  -9.21338
  -7.60288  -3.09999  -9.21338
  -7.12404  -3.09999  -9.21338
  -6.64520  -2.86057  -8.97396
  -6.16637  -2.62116  -8.73455
  -5.68753  -2.62116  -8.49513
  -5.44811  -2.62116  -8.25571
  -4.96927  -2.62116  -7.77687
  -4.49043  -2.62116  -7.29803
  -4.25101  -2.62116  -7.29803
  -3.77218  -2.38174  -6.81919
  -3.29334  -2.38174  -7.05861
  -2.81450  -2.38174  -6.81919
  -2.33566  -2.14232  -7.29803
  -1.85682  -1.66348  -7.53745
  -1.61741  -1.66348  -8.01629
  -1.37799  -1.42406  -8.49513
  -0.89915  -0.94522  -9.21338
  -0.89915  -0.70580  -9.69222
  -0.42031  -0.46638 -10.41048
  -0.18089   0.01245 -10.88932
   0.05853   0.25187 -11.36815
   0.29795   0.49129 -11.84699
   0.77678   0.49129 -12.08641
   0.77678   0.97013 -12.08641
   0.77678   0.97013 -12.32583
   1.01620   0.97013 -12.08641
   1.01620   0.97013 -11.84699
   1.01620   0.97013 -11.36815
   0.77678   0.97013 -10.64990
