********************************************************************************
               CENTRO DE INSTRUMENTACION Y REGISTRO SISMICO  A.C.  
                       Coordinacion de Servicios Tecnicos
     Anaxagoras 814, Col. Narvarte, Benito Juarez, C.P. 03020 Mexico, D.F.
            Tels. 687 45 42/ 687 45  82             Fax. 669 25 12
********************************************************************************
ARCHIVO ESTANDAR DE ACELERACION:
VERSION DEL FORMATO                    : 2.0
NOMBRE DEL ARCHIVO                     : AE029310.241
FECHA Y HORA DE CREACION               : 96/01/12  14:23:48
REF. CATALOGO ACELEROGRAMAS, SMIS 1995 : REGISTRO No. 4905 /PAG. 443


================================================================================
DATOS DE LA ESTACION:
NOMBRE DE LA ESTACION                  : AEROPUERTO
CLAVE DE LA ESTACION                   : AE02
LOCALIZACION DE LA ESTACION            : Esc Prim Gonzalez Garzon Calle Xico
                                       : s/n, Col. IV Seccion del Arenal
                                       : Venustiano Carranza
                                       :
                                       :
COORDENADAS DE LA ESTACION             : 19.429 LAT. N 
                                       : 99.058 LONG. W 
ALTITUD (msnm)                         : 2232
TIPO DE SUELO                          : ARCILLOSO, ZONA LAGO
                                       : 
                                       : 
INSTITUCION RESPONSABLE                : CIRES
                                       :

================================================================================
DATOS DEL ACELEROGRAFO:
MODELO DEL ACELEROGRAFO                : DCA-333
NUMERO DE SERIE DEL ACELEROGRAFO       : 242
NUMERO DE CANALES                      : 3
ORIENTACION C1-C6 (rumbo;orientacion)  : /N00E/+V/N90W
ORIENTACION C7-C12 (rumbo;orientacion) :
VEL. DE MUESTREO, C1-C6 (muestras/s)   : /100/100/100
VEL. DE MUESTREO, C7-C12 (muestras/s)  :
ESC. COMPLETA DE SENSORES, C1-C6, (g)  : /0.5/0.5/0.5
ESC. COMPLETA DE SENSORES, C7-C12, (g) :
FREC. NAT. DE SENSORES, C1-C6, (Hz)    : /30/30/30
FREC. NAT. DE SENSORES, C7-C12, (Hz)   :
AMORTIGUAMIENTO DE SENSORES, C1-C6     : /0.733/0.750/0.700
AMORTIGUAMIENTO DE SENSORES, C7-C12    :
INTERVALO DE MUESTREO, C1-C6, (s)      : /0.01/0.01/0.01
INTERVALO DE MUESTREO, C7-C12, (s)     :
UMBRAL DE DISPARO, C1-C6, (Gal)        : /3.9/3.9/3.9
UMBRAL DE DISPARO, C7-C12, (Gal)       :
MEMORIA DE PREEVENTO (s)               : 4
TIEMPO DE POSEVENTO (s)                : 15


================================================================================
DATOS DEL SISMO:
FECHA DEL SISMO (GMT)                  : 24/OCT/93
HORA EPICENTRO (GMT)                   : 07:52:18,2 
MAGNITUD(ES)                           : /Mb=6.20/Ms=6.60/Mc=6.50
COORDENADAS DEL EPICENTRO              : 16.540 LAT. N 
                                       : 98.980 LONG. W 
PROFUNDIDAD FOCAL (km)                 : < 5
FUENTE DE LOS DATOS EPICENTRALES       : SSN
                                       : INSTITUTO DE GEOFISICA, UNAM

================================================================================
DATOS DE ESTE REGISTRO:
HORA DE LA PRIMERA MUESTRA (GMT)       : 07:53:41.17
EXACTITUD DEL TIEMPO (s)               : 0.01
DURACION DEL REGISTRO (s), C1-C6       : /145.81/145.81/145.81
DURACION DEL REGISTRO (s), C7-C12      :
NUM. TOTAL DE MUESTRAS, C1-C6          : /14581/14581/14581
NUM. TOTAL DE MUESTRAS, C7-C12         :
ACEL. MAX. (Gal), C1-C6                : /12.38/4.52/10.77
ACEL. MAX., C1-C6, EN LA MUESTRA       :
ACEL. MAX. (Gal), C7-C12               :
ACEL. MAX., C7-C12, EN LA MUESTRA      :
UNIDADES DE LOS DATOS                  : Gal (cm/s/s)
FACTOR DE DECIMACION                   : 1
FORMATO DATOS (FORTRAN,10 campos/dato) : 3F10.2


================================================================================
CALIDAD DEL ACELEROGRAMA:
REGISTRO DIGITAL COMPLETO, CON TIEMPO ABSOLUTO CORRECTO.


================================================================================
COMENTARIOS:














================================================================================
DATOS DE ACELERACION:
---------+---------+---------+---------+---------+---------+---------+---------+
   CANAL-1   CANAL-2   CANAL-3   CANAL-4   CANAL-5   CANAL-6   CANAL-7   CANAL-8
      N00E        +V      N90W
---------+---------+---------+---------+---------+---------+---------+---------+
[...]
      1.27     -1.17     -2.40
      1.27     -1.17     -2.16
      1.03     -0.93     -1.92
      0.79     -0.93     -1.68
      0.55     -0.93     -1.44
      0.31     -0.93     -1.20
      0.07     -0.69     -0.96
     -0.17     -0.69     -0.48
     -0.41     -0.69     -0.24
     -0.65     -0.45      0.24
     -0.89     -0.21      0.72
     -0.89     -0.21      0.96
     -1.13      0.03      1.43
     -1.36      0.27      1.91
     -1.60      0.27      2.39
     -1.84      0.51      2.87
     -1.84      0.75      3.35
     -2.08      0.75      3.59
     -2.08      0.99      3.83
     -2.32      0.99      4.31
     -2.56      0.99      4.55
     -2.56      0.99      4.79
     -2.80      1.23      4.79
     -2.80      1.23      5.03
     -3.04      1.47      5.26
     -3.04      1.23      5.26
     -3.28      1.47      5.26
     -3.52      1.47      5.26
     -3.76      1.71      5.26
     -3.76      1.71      5.26
     -4.24      1.71      5.03
     -4.24      1.71      5.03
     -4.48      1.71      5.03
     -4.72      1.95      4.79
     -4.96      2.19      4.55
     -4.96      2.43      4.31
     -5.20      2.43      4.07
     -5.20      2.43      3.83
     -5.44      2.43      3.35
     -5.44      2.19      3.11
     -5.44      2.19      2.63
     -5.44      1.95      2.39
     -5.44      1.71      1.91
     -5.20      1.47      1.67
     -5.20      1.47      0.96
     -5.20      1.23      0.72
     -4.96      0.99      0.72
     -4.96      0.75      0.24
     -4.72      0.51     -0.00
     -4.48      0.75     -0.48
     -4.24      0.27     -0.48
     -4.00      0.27     -0.72
     -3.76      0.03     -0.96
     -3.76      0.03     -1.20
     -3.52      0.03     -1.20
     -3.76      0.03     -1.44
     -3.28     -0.21     -1.44
     -3.04     -0.45     -1.68
     -2.80     -0.45     -1.92
     -2.56     -0.45     -1.92
     -2.32     -0.69     -2.16
     -2.08     -0.69     -2.40
     -1.84     -0.69     -2.40
     -1.36     -0.69     -2.64
     -1.13     -0.69     -2.64
     -0.89     -0.69     -2.64
     -0.65     -0.69     -2.64
     -0.41     -0.69     -2.88
      0.07     -0.45     -2.88
      0.31     -0.45     -2.88
      0.79     -0.69     -2.88
      1.27     -0.45     -2.88
      1.51      0.03     -2.88
      1.75      0.03     -2.88
      1.99     -0.21     -2.64
      2.47      0.03     -2.64
      2.47      0.03     -2.64
      2.71      0.03     -2.64
      2.94      0.27     -2.64
      3.18      0.27     -2.64
      3.66      0.51     -2.64
      3.90      0.51     -2.64
      4.14      0.51     -2.64
      4.38      0.51     -2.64
      4.38      0.75     -2.40
      4.62      0.75     -2.40
      4.86      0.75     -2.16
      5.10      0.75     -1.92
      5.34      0.75     -1.68
      5.34      0.99     -1.44
      5.34      0.99     -1.20
      5.58      0.99     -0.72
      5.58      0.99     -0.48
      5.58      0.99     -0.24
      5.34      0.99      0.24
      5.34      0.99      0.72
      5.10      0.75      0.72
      4.86      0.75      1.19
      4.62      0.75      1.43
      4.38      0.75      1.67
      4.14      0.75      1.91
      3.66      0.51      2.15
      3.18      0.51      2.39
      3.18      0.27      2.39
      2.71      0.27      2.63
      2.47      0.27      2.63
      2.23      0.27      2.87
      1.99      0.27      2.87
      1.75      0.51      2.87
      1.75      0.51      2.63
      1.75      0.51      2.63
      1.75      0.51      2.63
      1.51      0.75      2.39
      1.51      0.51      2.39
      1.51      0.51      2.39
      1.51      0.27      2.39
      1.51      0.27      2.39
      1.51      0.03      2.63
      1.27      0.03      2.63
      1.27     -0.21      2.87
      1.27     -0.45      3.11
      1.27     -0.45      3.35
      1.03     -0.69      3.35
      1.03     -0.69      3.59
      0.79     -0.93      3.35
      0.79     -0.69      3.59
      0.79     -0.93      3.35
      0.79     -0.93      3.35
      0.79     -0.93      3.11
      0.79     -0.93      2.87
      1.03     -0.93      2.87
      1.03     -0.93      2.63
      1.27     -0.93      2.39
      1.51     -1.17      2.15
      1.75     -1.41      1.91
      1.99     -1.41      1.67
      2.47     -1.64      1.43
      2.71     -1.88      1.43
      2.94     -2.12      1.19
      3.42     -2.12      1.19
      3.66     -2.36      1.19
      3.90     -2.36      1.43
      4.14     -2.36      1.43
      4.38     -2.36      1.43
      4.62     -2.36      1.43
      4.86     -2.36      1.67
      4.86     -2.36      1.67
      4.86     -2.12      1.67
      5.10     -2.12      1.67
      4.86     -1.88      1.67
      5.10     -1.88      1.43
      4.86     -1.64      1.67
      4.86     -1.41      1.43
      4.86     -1.17      1.19
      4.62     -0.93      0.96
      4.62     -0.93      0.72
      4.38     -0.69      0.48
      4.38     -0.45      0.24
      4.38      0.03     -0.24
      4.14      0.03     -0.72
      3.90      0.03     -0.96
      3.90      0.03     -1.20
      3.66      0.03     -1.44
      3.42      0.03     -1.68
      3.42     -0.45     -1.68
      3.18     -0.45     -1.92
      2.94     -0.69     -2.16
      2.94     -0.69     -2.16
      2.71     -0.69     -2.16
      2.71     -0.69     -2.16
      2.47     -0.69     -2.16
      2.23     -0.69     -2.16
      1.99     -0.45     -1.92
      1.99     -0.45     -1.92
      1.75     -0.45     -1.68
      1.51     -0.45     -1.44
      1.27     -0.21     -1.20
      1.27      0.03     -1.44
      0.79      0.03     -0.96
      0.55      0.03     -0.72
      0.31      0.03     -0.48
      0.07      0.03     -0.48
     -0.41      0.03     -0.24
     -0.17      0.03     -0.00
     -0.41      0.27     -0.24
     -0.65      0.51     -0.24
     -0.89      0.51     -0.24
     -0.89      0.51     -0.24
     -1.13      0.75     -0.48
     -1.36      0.75     -0.72
     -1.36      0.75     -0.72
     -1.60      0.75     -0.72
     -1.84      0.75     -0.72
     -1.84      0.75     -0.72
     -1.84      0.75     -0.48
     -2.08      0.75     -0.24
     -2.08      0.75     -0.24
     -2.08      0.99     -0.00
     -2.08      0.99      0.24
     -2.08      0.99      0.24
     -2.08      0.99      0.24
     -2.08      0.99      0.48
     -2.08      0.99      0.48
     -2.08      0.99      0.24
     -1.84      0.99      0.24
     -1.84      0.99      0.24
     -1.84      0.99     -0.00
     -1.60      0.75     -0.00
     -1.36      0.75     -0.24
     -1.36      0.51     -0.24
     -1.13      0.75     -0.24
     -0.89      0.51     -0.00
     -0.65      0.51     -0.00
     -0.41      0.51     -0.00
     -0.41      0.51     -0.00
     -0.17      0.75      0.24
      0.07      0.75      0.24
      0.07      0.99      0.48
      0.07      0.99      0.72
      0.07      0.99      0.72
      0.31      1.23      0.72
      0.31      1.23      0.72
      0.07      1.23      0.96
      0.07      1.23      0.96
     -0.17      0.99      1.19
     -0.17      0.99      1.19
     -0.41      0.99      1.43
     -0.41      0.75      1.67
     -0.41      0.75      1.67
     -0.41      0.51      1.91
     -0.41      0.51      1.91
     -0.41      0.27      1.91
     -0.41      0.03      1.91
     -0.41      0.03      1.91
     -0.17      0.03      1.91
     -0.17     -0.45      1.91
      0.07     -0.69      1.67
      0.07     -0.69      1.67
      0.31     -1.17      1.43
      0.31     -1.64      1.43
      0.31     -1.64      1.19
      0.55     -1.64      0.96
      0.31     -1.88      0.96
      0.31     -1.88      0.72
      0.31     -2.12      0.72
      0.31     -2.12      0.72
      0.07     -2.12      0.72
      0.07     -1.88      0.72
     -0.17     -1.41      0.96
     -0.17     -1.17      0.96
     -0.41     -1.17      1.19
     -0.65     -0.93      1.19
     -0.89     -0.93      1.43
     -1.13     -0.69      1.43
     -1.36     -0.69      1.67
     -1.36     -0.69      1.67
     -1.84     -0.69      1.67
     -1.84     -0.69      1.67
     -2.08     -0.69      1.91
     -2.32     -0.69      1.91
     -2.32     -0.69      1.91
     -2.56     -0.45      1.91
     -2.80     -0.69      1.67
     -2.80     -0.69      1.67
     -3.04     -0.69      1.67
     -3.04     -0.69      1.67
     -3.04     -0.45      1.67
     -3.04     -0.69      1.67
     -3.04     -0.45      1.67
     -3.04     -0.45      1.43
     -3.04     -0.45      1.43
     -3.04     -0.45      1.43
     -3.04     -0.45      1.43
     -2.80     -0.21      1.43
     -2.80      0.03      1.43
     -2.56      0.03      1.43
     -2.32      0.03      1.19
     -2.08      0.27      1.19
     -1.84      0.27      0.96
     -1.60      0.27      0.72
     -1.13      0.51      0.72
     -0.89      0.51      0.72
     -0.41      0.51      0.48
     -0.17      0.51      0.24
      0.31      0.51      0.24
      1.03      0.51      0.24
      1.27      0.51     -0.00
      1.75      0.51      0.24
      2.23      0.75      0.24
      2.71      0.75      0.24
      2.94      0.75      0.24
      3.42      0.99      0.24
      3.90      0.99      0.24
      4.38      1.23      0.24
      4.62      1.23      0.24
      4.86      1.23      0.24
      5.10      1.47      0.24
      5.34      1.23     -0.00
      5.58      1.23     -0.24
      5.82      0.99     -0.48
      5.82      0.99     -0.96
      6.06      0.75     -1.20
      6.06      0.75     -1.44
      6.30      0.51     -1.68
      6.30      0.51     -1.92
      6.30      0.51     -1.92
      6.54      0.03     -2.40
      6.54      0.03     -2.40
      6.54      0.03     -2.64
      6.54     -0.45     -2.64
      6.54     -0.45     -2.64
      6.54     -0.69     -2.64
      6.30     -0.93     -2.64
      6.30     -1.17     -2.40
      6.06     -1.17     -2.40
      5.82     -0.93     -1.92
      5.34     -1.41     -1.68
      4.86     -1.17     -1.44
      4.38     -1.41     -0.96
      3.90     -1.17     -0.48
      3.42     -1.17     -0.00
      2.94     -1.17      0.24
      2.23     -0.93      0.72
      1.51     -0.93      0.96
      1.03     -0.69      1.19
      0.31     -0.45      1.67
     -0.41     -0.21      1.91
     -0.89     -0.21      2.15
     -1.60      0.03      2.39
     -2.32      0.03      2.87
     -3.04      0.03      3.11
     -3.76      0.03      3.11
     -4.24      0.03      3.35
     -4.96      0.03      3.59
     -5.67      0.03      3.83
     -6.15      0.27      3.83
     -6.87      0.27      4.07
     -7.35      0.27      4.07
     -8.07      0.27      4.31
     -8.55      0.27      4.31
     -9.03      0.27      4.31
     -9.51      0.27      4.31
    -10.46      0.27      4.31
    -10.46      0.51      4.31
    -10.94      0.51      4.31
    -11.18      0.75      4.31
    -11.66      0.75      4.07
    -11.90      0.75      4.07
    -12.14      0.99      3.83
    -12.38      0.99      3.83
    -12.38      0.99      3.59
    -12.38      1.23      3.11
    -12.38      1.23      2.87
    -12.38      1.23      2.63
    -12.38      1.23      2.15
    -12.38      1.23      1.91
    -12.38      1.23      1.43
    -11.90      1.23      0.96
    -11.90      1.23      0.72
    -11.66      1.23      0.72
    -11.42      0.99      0.48
    -11.18      0.99      0.24
    -10.94      0.75     -0.00
    -10.94      0.75     -0.24
    -10.46      0.51     -0.24
     -9.98      0.27     -0.48
     -9.74      0.27     -0.48
     -9.51      0.27     -0.72
     -9.27      0.03     -0.96
     -9.03      0.03     -0.96
     -8.79      0.03     -0.96
     -8.55      0.03     -1.20
     -8.31      0.03     -1.44
     -8.07      0.03     -1.44
     -7.59      0.03     -1.44
     -7.35      0.03     -1.68
     -7.11      0.03     -1.68
     -6.87     -0.21     -1.92
     -6.63      0.03     -1.92
     -6.15     -0.21     -2.16
     -5.91     -0.21     -2.40
     -5.44     -0.45     -2.64
     -4.96     -0.45     -2.88
     -4.48     -0.69     -3.11
     -4.24     -0.69     -3.35
     -3.76     -0.93     -3.59
     -3.28     -0.93     -3.83
     -3.04     -0.93     -3.83
     -2.80     -1.17     -4.31
     -2.56     -1.17     -4.31
     -2.08     -1.17     -4.55
     -1.84     -1.17     -4.31
     -1.84     -0.93     -4.55
     -1.60     -0.69     -4.55
     -1.36     -0.69     -4.55
     -1.13     -0.45     -4.31
     -1.13     -0.21     -4.31
     -0.89     -0.21     -4.31
     -0.89      0.03     -4.31
     -0.89      0.03     -4.31
     -0.89      0.27     -4.31
     -0.65      0.27     -4.31
     -0.65      0.27     -4.55
     -0.41      0.03     -4.31
     -0.41      0.03     -4.31
     -0.41      0.03     -4.31
     -0.17      0.03     -4.31
     -0.17      0.27     -4.31
     -0.17      0.27     -4.31
      0.07      0.27     -4.07
      0.07      0.27     -4.07
      0.07      0.27     -3.59
      0.07      0.51     -3.59
      0.07      0.51     -3.35
      0.07      0.51     -3.35
      0.07      0.51     -3.11
     -0.17      0.51     -3.11
     -0.17      0.51     -3.11
     -0.17      0.51     -3.11
     -0.17      0.75     -3.11
     -0.41      0.75     -3.35
     -0.41      0.51     -3.11
     -0.41      0.51     -3.11
     -0.65      0.51     -3.11
     -0.65      0.75     -2.88
     -0.65      0.51     -2.88
     -0.89      0.51     -2.88
     -0.89      0.75     -2.64
     -1.13      0.51     -2.40
     -1.13      0.51     -2.40
     -1.13      0.27     -2.40
     -1.13      0.27     -2.16
     -1.36      0.27     -2.16
     -1.36      0.03     -2.16
     -1.36      0.03     -1.92
     -1.36      0.03     -1.92
     -1.13      0.03     -1.68
     -1.13      0.03     -1.68
     -1.13      0.03     -1.68
     -1.13      0.03     -1.44
     -0.89      0.03     -1.20
     -0.89      0.03     -0.96
     -0.65      0.03     -0.72
     -0.65      0.03     -0.72
     -0.41     -0.21     -0.48
     -0.17     -0.21     -0.24
      0.07     -0.21     -0.24
      0.31     -0.45     -0.00
      0.31     -0.45      0.48
      0.55     -0.69      0.72
      1.03     -0.45      0.72
      1.27     -0.93      0.96
      1.27     -0.93      0.96
      1.51     -0.93      0.96
      1.75     -0.93      1.19
      1.75     -0.69      1.19
      1.99     -0.93      1.19
      2.23     -0.93      1.19
      2.23     -0.69      1.19
      2.23     -0.45      1.43
      2.47     -0.45      1.19
      2.47     -0.45      1.43
      2.71     -0.21      1.43
      2.71      0.03      1.43
      2.71      0.03      1.43
      2.71      0.27      1.43
      2.71      0.27      1.19
      2.71      0.27      1.19
      2.71      0.51      0.96
      2.71      0.51      0.72
      2.71      0.51      0.72
      2.94      0.51      0.72
      2.94      0.51      0.48
      2.94      0.27      0.48
      2.94      0.27     -0.00
      3.18      0.27     -0.00
      3.18      0.03     -0.24
      3.42      0.03     -0.24
      3.66      0.03     -0.72
      3.66      0.03     -0.96
      3.90     -0.21     -0.96
      4.14     -0.21     -1.20
      3.90     -0.21     -1.44
      4.14     -0.45     -1.44
      4.38     -0.45     -1.68
      4.14     -0.45     -1.92
      4.38     -0.69     -2.16
      4.38     -0.69     -2.16
      4.38     -0.69     -2.40
      4.38     -0.93     -2.40
      4.14     -0.69     -2.40
      4.14     -0.69     -2.88
      3.90     -0.93     -2.64
      3.90     -0.93     -2.64
      3.90     -0.93     -2.88
      3.66     -0.69     -2.88
      3.42     -0.93     -3.11
      3.42     -0.93     -3.11
      3.18     -0.69     -3.11
