********************************************************************************
              CENTRO DE INSTRUMENTACION Y REGISTRO SISMICO  A.C.

    Anaxagoras 814, Col. Narvarte, Benito Juarez, C.P. 03020 Mexico, D.F.
           Tels. 5687 45 42/ 5687 45  82             Fax. 5669 25 12
********************************************************************************
ARCHIVO ESTANDAR DE ACELERACION:
VERSION DEL FORMATO                    : 2.0
NOMBRE DEL ARCHIVO                     : AE0220130816153259
FECHA Y HORA DE CREACION               : 09/SEP/13, 11:48
REF. CATALOGO ACELEROGRAMAS, SMIS 1996 : REGISTRO No.     /PAG.


================================================================================
DATOS DE LA ESTACION:
NOMBRE DE LA ESTACION                  : ESC. PRIM. "GONZÁLEZ GARZÓN"
CLAVE DE LA ESTACION                   : AE02
LOCALIZACION DE LA ESTACION            : Del. Venustiano Carranza,              
                                       : Col. El Arenal 4a. Sección,            
                                       : Calle Xico esq. con calle Xocoyote.    
                                       :                                        
                                       : 
COORDENADAS DE LA ESTACION             : 19.4290 LAT. N
                                       : 99.0584 LONG. W
ALTITUD (msnm)                         : 2232
TIPO DE SUELO                          : Arcilloso, zona lago                
                                       :                           
                                       : 
INSTITUCION RESPONSABLE                : CIRES
                                       : 

================================================================================
DATOS DEL ACELEROGRAFO:
MODELO DEL ACELEROGRAFO                : RADESD
NUMERO DE SERIE DEL ACELEROGRAFO       : 242
NUMERO DE CANALES                      : 3
ORIENTACION C1-C6 (rumbo;orientacion)  : /N00E/+V/N90W
ORIENTACION C7-C12 (rumbo;orientacion) : 
VEL. DE MUESTREO, C1-C6 (muestras/s)   : /100/100/100
VEL. DE MUESTREO, C7-C12 (muestras/s)  : 
ESC. COMPLETA DE SENSORES, C1-C6, (g)  : /0.5/0.5/0.5
ESC. COMPLETA DE SENSORES, C7-C12, (g) : 
FREC. NAT. DE SENSORES, C1-C6, (Hz)    : /30/30/30
FREC. NAT. DE SENSORES, C7-C12, (Hz)   : 
AMORTIGUAMIENTO DE SENSORES, C1-C6     : /0.733/0.750/0.700
AMORTIGUAMIENTO DE SENSORES, C7-C12    : 
INTERVALO DE MUESTREO, C1-C6, (s)      : /0.01/0.01/0.01
INTERVALO DE MUESTREO, C7-C12, (s)     : 
UMBRAL DE DISPARO, C1-C6, (Gal)        : /26.34/153.23/43.1
UMBRAL DE DISPARO, C7-C12, (Gal)       : 
MEMORIA DE PREEVENTO (s)               : 56.0
TIEMPO DE POSEVENTO (s)                : 80.0


================================================================================
DATOS DEL SISMO:
FECHA DEL SISMO (GMT)                  : 16/AGO/13
HORA EPICENTRO (GMT)                   : 15:32:59.0
MAGNITUD(ES)                           : /Mc=5.1
COORDENADAS DEL EPICENTRO              : 16.54 LAT. N
                                       : 98.59 LONG. W
PROFUNDIDAD FOCAL (km)                 : 20
FUENTE DE LOS DATOS EPICENTRALES       : SSN
                                       : INSTITUTO DE GEOFISICA, UNAM

================================================================================
DATOS DE ESTE REGISTRO:
HORA DE LA PRIMERA MUESTRA (GMT)       : 15:34:44.00
EXACTITUD DEL TIEMPO (s)               : 0.01
DURACION DEL REGISTRO (s), C1-C6       : /130.6/130.6/130.6
DURACION DEL REGISTRO (s), C7-C12      : 
NUM. TOTAL DE MUESTRAS, C1-C6          : /13060/13060/13060
NUM. TOTAL DE MUESTRAS, C7-C12         : 
ACEL. MAX. (Gal), C1-C6                : /2.76625/0.93921/1.83445
ACEL. MAX., C1-C6, EN LA MUESTRA       : /5469/5249/4910
ACEL. MAX. (Gal), C7-C12               : 
ACEL. MAX., C7-C12, EN LA MUESTRA      : 
UNIDADES DE LOS DATOS                  : Gal (cm/s/s)
FACTOR DE DECIMACION                   : 1
FORMATO DATOS (FORTRAN,10 campos/dato) : 3F10.5


================================================================================
CALIDAD DEL ACELEROGRAMA:
REGISTRO DIGITAL COMPLETO CON TIEMPO ABSOLUTO CORRECTO.


================================================================================
COMENTARIOS:














================================================================================
DATOS DE ACELERACION:
---------+---------+---------+---------+---------+---------+---------+---------+
   CANAL-1   CANAL-2   CANAL-3   CANAL-4   CANAL-5   CANAL-6   CANAL-7   CANAL-8
      N00E        +V      N90W
---------+---------+---------+---------+---------+---------+---------+---------+
[...]
  -1.25900   0.61702   0.29041
  -1.22907   0.55716   0.27544
  -1.16922   0.55716   0.23055
  -1.09440   0.55716   0.23055
  -0.94476   0.52724   0.18566
  -0.94476   0.54220   0.18566
  -0.86994   0.55716   0.15573
  -0.78016   0.57213   0.18566
  -0.66045   0.52724   0.15573
  -0.67541   0.48234   0.15573
  -0.54074   0.49731   0.09588
  -0.43599   0.43745   0.12581
  -0.39110   0.39256   0.12581
  -0.30132   0.37760   0.12581
  -0.21154   0.28782   0.05099
  -0.16665   0.27285   0.08092
  -0.06190   0.22796   0.00610
   0.04285   0.13818   0.02106
   0.13263   0.13818  -0.02383
   0.23738   0.13818  -0.08369
   0.28227   0.13818  -0.23332
   0.41694   0.04840  -0.26325
   0.46183   0.01847  -0.33807
   0.49176  -0.02642  -0.47274
   0.59651  -0.10124  -0.56253
   0.61147  -0.13117  -0.59245
   0.65636  -0.17606  -0.69720
   0.68629  -0.23592  -0.75706
   0.73118  -0.28081  -0.87677
   0.77607  -0.37059  -0.86180
   0.83593  -0.38555  -0.89173
   0.92571  -0.50526  -0.93662
   0.91075  -0.47534  -0.90669
   0.97060  -0.56512  -0.95158
   1.00053  -0.58008  -0.89173
   0.98556  -0.58008  -0.87677
   0.94067  -0.63994  -0.84684
   0.88082  -0.62497  -0.84684
   0.94067  -0.68483  -0.80195
   0.89578  -0.66987  -0.75706
   0.82096  -0.65490  -0.75706
   0.76111  -0.69979  -0.74209
   0.65636  -0.68483  -0.72713
   0.62643  -0.69979  -0.72713
   0.59651  -0.66987  -0.65231
   0.47680  -0.66987  -0.65231
   0.40198  -0.66987  -0.57749
   0.32716  -0.58008  -0.54756
   0.26730  -0.58008  -0.51763
   0.23738  -0.52023  -0.45778
   0.19248  -0.50526  -0.41289
   0.08774  -0.41548  -0.38296
   0.07277  -0.41548  -0.36800
   0.02788  -0.32570  -0.24829
   0.02788  -0.35563  -0.26325
  -0.09183  -0.20599  -0.24829
  -0.10679  -0.25088  -0.20340
  -0.10679  -0.22095  -0.14354
  -0.16665  -0.19103  -0.09865
  -0.21154  -0.11621  -0.09865
  -0.18161  -0.13117  -0.08369
  -0.24146  -0.05635   0.00610
  -0.28636  -0.11621   0.02106
  -0.39110  -0.01146   0.02106
  -0.39110   0.00350   0.06595
  -0.45096   0.07832   0.12581
  -0.49585   0.09329   0.21559
  -0.51081   0.21300   0.21559
  -0.54074   0.27285   0.30537
  -0.54074   0.27285   0.35026
  -0.64549   0.33271   0.41012
  -0.57067   0.42249   0.38019
  -0.61556   0.54220   0.44005
  -0.58563   0.52724   0.45501
  -0.57067   0.57213   0.41012
  -0.54074   0.60205   0.41012
  -0.48088   0.58709   0.44005
  -0.54074   0.69184   0.42508
  -0.43599   0.72176   0.35026
  -0.42103   0.76666   0.30537
  -0.31628   0.78162   0.27544
  -0.24146   0.76666   0.23055
  -0.16665   0.85644   0.11084
  -0.06190   0.88637   0.12581
   0.01292   0.82651   0.05099
   0.08774   0.87140   0.00610
   0.22241   0.87140  -0.03879
   0.34212   0.90133  -0.06872
   0.44687   0.79658  -0.09865
   0.56658   0.82651  -0.14354
   0.65636   0.82651  -0.23332
   0.77607   0.75169  -0.27821
   0.82096   0.72176  -0.32311
   0.94067   0.70680  -0.38296
   1.04542   0.66191  -0.39792
   1.13520   0.58709  -0.47274
   1.19506   0.52724  -0.47274
   1.31477   0.45242  -0.57749
   1.37462   0.46738  -0.57749
   1.40455   0.34767  -0.57749
   1.46440   0.30278  -0.63735
   1.50930   0.22796  -0.63735
   1.56915   0.16811  -0.65231
   1.55419   0.10825  -0.63735
   1.65893   0.00350  -0.75706
   1.68886   0.00350  -0.69720
   1.68886  -0.11621  -0.71216
   1.71879  -0.11621  -0.71216
   1.74872  -0.20599  -0.68224
   1.74872  -0.23592  -0.69720
   1.68886  -0.29577  -0.68224
   1.74872  -0.38555  -0.71216
   1.70382  -0.32570  -0.66727
   1.68886  -0.46037  -0.68224
   1.56915  -0.41548  -0.71216
   1.52426  -0.47534  -0.59245
   1.43448  -0.49030  -0.57749
   1.22498  -0.50526  -0.51763
   1.19506  -0.61001  -0.56253
   1.06038  -0.63994  -0.48771
   0.89578  -0.68483  -0.42785
   0.83593  -0.74468  -0.45778
   0.65636  -0.78958  -0.35303
   0.52169  -0.84943  -0.33807
   0.34212  -0.84943  -0.21836
   0.25234  -0.90929  -0.18843
   0.11767  -0.90929  -0.08369
  -0.01701  -0.93921  -0.11361
  -0.16665  -0.90929   0.00610
  -0.27139  -0.92425   0.02106
  -0.42103  -0.90929   0.11084
  -0.51081  -0.89432   0.09588
  -0.61556  -0.87936   0.20063
  -0.73527  -0.87936   0.18566
  -0.85498  -0.80454   0.32034
  -0.89987  -0.78958   0.35026
  -0.98965  -0.72972   0.42508
  -1.03454  -0.74468   0.45501
  -1.16922  -0.61001   0.48494
  -1.21411  -0.59505   0.52983
  -1.24404  -0.52023   0.57472
  -1.24404  -0.44541   0.55976
  -1.40864  -0.43045   0.67947
  -1.34878  -0.38555   0.66450
  -1.36375  -0.32570   0.72436
  -1.34878  -0.20599   0.70939
  -1.36375  -0.14613   0.75428
  -1.33382  -0.07132   0.70939
  -1.33382   0.01847   0.70939
  -1.25900  -0.01146   0.67947
  -1.27396   0.13818   0.66450
  -1.21411   0.13818   0.57472
  -1.19914   0.25789   0.54479
  -1.13929   0.28782   0.55976
  -1.10936   0.33271   0.45501
  -1.07943   0.34767   0.48494
  -1.04951   0.37760   0.38019
  -1.03454   0.39256   0.41012
  -0.94476   0.39256   0.24552
  -0.86994   0.39256   0.26048
  -0.82505   0.46738   0.24552
  -0.78016   0.43745   0.23055
  -0.69038   0.49731   0.17070
  -0.57067   0.48234   0.21559
  -0.51081   0.55716   0.20063
  -0.48088   0.52724   0.20063
  -0.31628   0.60205   0.12581
  -0.25643   0.57213   0.17070
  -0.15168   0.57213   0.14077
  -0.09183   0.57213   0.15573
  -0.01701   0.67687   0.06595
   0.02788   0.64695   0.08092
   0.08774   0.70680   0.03602
   0.10270   0.60205   0.02106
   0.08774   0.63198   0.02106
   0.17752   0.54220  -0.05376
   0.17752   0.49731  -0.08369
   0.16256   0.45242  -0.15850
   0.20745   0.37760  -0.15850
   0.17752   0.33271  -0.15850
   0.20745   0.39256  -0.27821
   0.20745   0.25789  -0.23332
   0.22241   0.22796  -0.21836
   0.25234   0.13818  -0.18843
   0.16256   0.10825  -0.18843
   0.20745   0.04840  -0.21836
   0.22241   0.03343  -0.18843
   0.25234  -0.02642  -0.20340
   0.19248  -0.01146  -0.14354
   0.22241   0.03343  -0.20340
   0.19248   0.03343  -0.08369
   0.17752   0.03343  -0.08369
   0.20745  -0.02642  -0.06872
   0.13263   0.03343  -0.02383
   0.23738   0.01847  -0.03879
   0.19248  -0.01146   0.02106
   0.19248  -0.07132   0.00610
   0.16256  -0.08628   0.03602
   0.22241  -0.19103  -0.00887
   0.22241  -0.14613   0.06595
   0.26730  -0.17606   0.03602
   0.23738  -0.14613   0.09588
   0.26730  -0.14613   0.05099
   0.28227  -0.13117   0.12581
   0.28227  -0.07132   0.14077
   0.23738  -0.07132   0.14077
   0.22241  -0.05635   0.12581
   0.22241  -0.04139   0.14077
   0.16256   0.01847   0.14077
   0.13263  -0.02642   0.15573
   0.04285   0.06336   0.18566
   0.04285   0.01847   0.14077
  -0.04694   0.01847   0.20063
  -0.10679   0.06336   0.18566
  -0.18161  -0.02642   0.18566
  -0.27139  -0.01146   0.23055
  -0.39110   0.03343   0.21559
  -0.43599   0.01847   0.20063
  -0.54074   0.04840   0.24552
  -0.54074  -0.02642   0.23055
  -0.67541  -0.02642   0.29041
  -0.72030  -0.02642   0.20063
  -0.78016   0.01847   0.24552
  -0.78016  -0.04139   0.18566
  -0.82505  -0.04139   0.21559
  -0.84001  -0.08628   0.17070
  -0.86994  -0.11621   0.18566
  -0.89987  -0.22095   0.15573
  -0.97469  -0.16110   0.20063
  -0.92980  -0.26584   0.12581
  -0.98965  -0.25088   0.12581
  -1.01958  -0.29577   0.15573
  -1.00462  -0.23592   0.09588
  -0.92980  -0.31074   0.14077
  -0.94476  -0.29577   0.17070
  -0.91483  -0.35563   0.15573
  -0.95972  -0.34066   0.20063
  -0.92980  -0.32570   0.20063
  -0.81009  -0.31074   0.20063
  -0.86994  -0.26584   0.26048
  -0.81009  -0.26584   0.23055
  -0.76520  -0.28081   0.24552
  -0.70534  -0.22095   0.17070
  -0.66045  -0.14613   0.21559
  -0.58563  -0.19103   0.20063
  -0.58563  -0.10124   0.23055
  -0.46592  -0.07132   0.15573
  -0.45096  -0.02642   0.24552
  -0.30132  -0.05635   0.23055
  -0.24146   0.03343   0.23055
  -0.09183   0.00350   0.15573
  -0.00204   0.01847   0.27544
   0.14759   0.06336   0.24552
   0.23738   0.06336   0.29041
   0.40198   0.09329   0.21559
   0.53665   0.15314   0.24552
   0.64140   0.04840   0.18566
   0.74614   0.09329   0.23055
   0.89578   0.13818   0.17070
   0.95564   0.13818   0.15573
   1.01549   0.19803   0.15573
   1.09031   0.13818   0.11084
   1.09031   0.18307   0.11084
   1.21002   0.18307   0.09588
   1.28484   0.19803   0.11084
   1.31477   0.12321   0.09588
   1.32973   0.21300   0.06595
   1.34469   0.19803   0.11084
   1.34469   0.19803   0.15573
   1.37462   0.18307   0.21559
   1.34469   0.22796   0.18566
   1.29980   0.21300   0.24552
   1.23995   0.22796   0.26048
   1.19506   0.28782   0.26048
   1.13520   0.27285   0.24552
   1.07535   0.25789   0.32034
   1.00053   0.21300   0.27544
   0.89578   0.18307   0.33530
   0.80600   0.18307   0.23055
   0.71622   0.15314   0.21559
   0.59651   0.13818   0.27544
   0.52169   0.06336   0.21559
   0.35709   0.06336   0.24552
   0.22241  -0.02642   0.21559
   0.08774  -0.01146   0.24552
  -0.03197  -0.08628   0.24552
  -0.22650  -0.10124   0.24552
  -0.36117  -0.14613   0.29041
  -0.48088  -0.28081   0.27544
  -0.64549  -0.31074   0.33530
  -0.79512  -0.37059   0.32034
  -0.95972  -0.35563   0.39515
  -1.04951  -0.43045   0.39515
  -1.19914  -0.41548   0.35026
  -1.25900  -0.43045   0.35026
  -1.37871  -0.41548   0.38019
  -1.49842  -0.47534   0.39515
  -1.60317  -0.46037   0.38019
  -1.67799  -0.40052   0.39515
  -1.72288  -0.43045   0.39515
  -1.78273  -0.47534   0.48494
  -1.84259  -0.46037   0.44005
  -1.91741  -0.47534   0.46997
  -1.93237  -0.46037   0.42508
  -1.97726  -0.38555   0.48494
  -2.00719  -0.43045   0.44005
  -1.91741  -0.40052   0.48494
  -1.94733  -0.32570   0.48494
  -1.90244  -0.40052   0.46997
  -1.88748  -0.29577   0.45501
  -1.82762  -0.31074   0.45501
  -1.82762  -0.22095   0.46997
  -1.69295  -0.28081   0.46997
  -1.66302  -0.16110   0.45501
  -1.54331  -0.17606   0.38019
  -1.40864  -0.08628   0.38019
  -1.25900  -0.08628   0.33530
  -1.18418  -0.02642   0.29041
  -0.95972  -0.01146   0.20063
  -0.84001  -0.01146   0.17070
  -0.64549   0.03343   0.11084
  -0.42103   0.00350   0.08092
  -0.28636   0.04840   0.00610
  -0.06190   0.04840  -0.06872
   0.13263   0.09329  -0.08369
   0.34212   0.12321  -0.14354
   0.52169   0.06336  -0.18843
   0.68629   0.16811  -0.20340
   0.89578   0.16811  -0.30814
   1.01549   0.19803  -0.30814
   1.23995   0.21300  -0.38296
   1.37462   0.19803  -0.41289
   1.52426   0.25789  -0.51763
   1.67390   0.24292  -0.50267
   1.82353   0.27285  -0.59245
   1.91332   0.36263  -0.62238
   2.06295   0.37760  -0.69720
   2.16770   0.43745  -0.74209
   2.31734   0.40753  -0.81691
   2.37719   0.40753  -0.83187
   2.43705   0.42249  -0.89173
   2.52683   0.36263  -0.95158
   2.61661   0.34767  -0.99648
   2.60165   0.31774  -0.98151
   2.66151   0.34767  -1.10122
   2.70640   0.30278  -1.08626
   2.73632   0.31774  -1.07129
   2.76625   0.27285  -1.08626
   2.69143   0.33271  -1.10122
   2.72136   0.24292  -1.14611
   2.72136   0.27285  -1.13115
   2.63158   0.24292  -1.16108
   2.57172   0.28782  -1.11619
   2.52683   0.30278  -1.16108
   2.43705   0.28782  -1.16108
   2.36223   0.36263  -1.17604
   2.28741   0.37760  -1.17604
   2.16770   0.34767  -1.11619
   2.04799   0.36263  -1.17604
   1.94324   0.36263  -1.14611
   1.76368   0.34767  -1.05633
   1.65893   0.30278  -1.02640
   1.47937   0.30278  -0.96655
   1.29980   0.31774  -0.93662
   1.12024   0.25789  -0.89173
   0.92571   0.22796  -0.83187
   0.74614   0.18307  -0.77202
   0.52169   0.16811  -0.69720
   0.34212   0.12321  -0.65231
   0.14759   0.06336  -0.53260
  -0.00204   0.10825  -0.45778
  -0.15168   0.03343  -0.35303
  -0.36117   0.09329  -0.23332
  -0.51081   0.04840  -0.24829
  -0.63052   0.12321  -0.09865
  -0.81009   0.07832  -0.00887
  -0.89987   0.04840   0.06595
  -1.00462   0.12321   0.09588
  -1.07943   0.00350   0.15573
  -1.19914   0.03343   0.26048
  -1.24404  -0.02642   0.30537
  -1.40864  -0.07132   0.38019
  -1.42360  -0.10124   0.35026
  -1.48346  -0.11621   0.45501
  -1.58820  -0.19103   0.49990
  -1.63309  -0.17606   0.49990
  -1.61813  -0.16110   0.54479
  -1.63309  -0.22095   0.58968
  -1.64806  -0.14613   0.64954
  -1.58820  -0.14613   0.63457
  -1.57324  -0.10124   0.73932
  -1.54331  -0.11621   0.79918
  -1.45353  -0.10124   0.76925
  -1.45353  -0.04139   0.87399
  -1.37871  -0.10124   0.90392
  -1.28893  -0.05635   0.85903
  -1.25900  -0.05635   0.93385
  -1.09440  -0.14613   0.93385
  -1.09440  -0.10124   0.91889
  -0.98965  -0.10124   0.82910
  -0.85498  -0.10124   0.84407
  -0.73527  -0.05635   0.84407
  -0.64549  -0.08628   0.84407
  -0.49585  -0.08628   0.75428
  -0.39110  -0.04139   0.76925
  -0.22650  -0.13117   0.70939
  -0.13672  -0.08628   0.67947
  -0.01701  -0.13117   0.67947
   0.11767  -0.07132   0.66450
   0.20745  -0.20599   0.63457
   0.35709  -0.22095   0.54479
   0.41694  -0.22095   0.60465
   0.50672  -0.28081   0.54479
   0.53665  -0.26584   0.55976
   0.61147  -0.29577   0.48494
   0.71622  -0.29577   0.51486
   0.82096  -0.31074   0.41012
   0.83593  -0.26584   0.39515
   0.91075  -0.26584   0.32034
   0.92571  -0.17606   0.26048
   1.01549  -0.14613   0.21559
   1.04542  -0.25088   0.17070
   1.07535  -0.20599   0.11084
   1.10527  -0.25088   0.06595
   1.12024  -0.22095   0.00610
   1.13520  -0.31074  -0.02383
   1.07535  -0.22095  -0.08369
   1.07535  -0.29577  -0.18843
   0.97060  -0.23592  -0.20340
   0.97060  -0.22095  -0.21836
   0.86585  -0.23592  -0.26325
   0.82096  -0.19103  -0.33807
   0.73118  -0.14613  -0.33807
   0.64140  -0.14613  -0.33807
   0.49176  -0.10124  -0.41289
   0.46183  -0.10124  -0.48771
   0.31219  -0.05635  -0.48771
   0.19248  -0.10124  -0.51763
   0.02788  -0.04139  -0.53260
  -0.04694  -0.01146  -0.60742
  -0.13672  -0.05635  -0.60742
  -0.25643  -0.02642  -0.59245
  -0.36117  -0.10124  -0.62238
  -0.52578  -0.10124  -0.63735
  -0.61556  -0.13117  -0.75706
  -0.75023  -0.20599  -0.71216
  -0.84001  -0.16110  -0.65231
  -0.92980  -0.19103  -0.74209
  -1.09440  -0.07132  -0.71216
  -1.15425  -0.08628  -0.71216
  -1.22907  -0.02642  -0.68224
  -1.31885  -0.01146  -0.68224
  -1.42360  -0.01146  -0.62238
  -1.45353   0.00350  -0.66727
  -1.45353   0.01847  -0.56253
  -1.45353   0.00350  -0.59245
  -1.58820   0.07832  -0.53260
  -1.57324   0.07832  -0.56253
  -1.58820   0.13818  -0.50267
  -1.55828   0.18307  -0.50267
  -1.55828   0.15314  -0.44282
  -1.52835   0.24292  -0.42785
  -1.46849   0.16811  -0.38296
  -1.43857   0.25789  -0.38296
  -1.34878   0.24292  -0.33807
  -1.33382   0.25789  -0.32311
  -1.21411   0.31774  -0.36800
  -1.10936   0.30278  -0.27821
  -1.06447   0.31774  -0.21836
  -0.92980   0.25789  -0.17347
  -0.88491   0.31774  -0.09865
  -0.76520   0.25789  -0.05376
  -0.69038   0.24292   0.05099
  -0.58563   0.22796   0.11084
  -0.46592   0.16811   0.18566
  -0.39110   0.16811   0.24552
  -0.31628   0.16811   0.32034
  -0.16665   0.13818   0.38019
  -0.13672   0.18307   0.46997
  -0.04694   0.22796   0.49990
   0.07277   0.19803   0.58968
   0.10270   0.25789   0.60465
   0.17752   0.25789   0.66450
   0.19248   0.27285   0.67947
   0.29723   0.25789   0.73932
   0.34212   0.27285   0.79918
   0.44687   0.16811   0.82910
   0.46183   0.19803   0.88896
   0.56658   0.18307   0.87399
   0.59651   0.19803   0.96378
   0.62643   0.13818   0.97874
   0.59651   0.13818   0.99370
   0.67133   0.10825   0.97874
   0.67133   0.07832   0.99370
   0.71622   0.03343   0.96378
   0.65636   0.09329   0.99370
