********************************************************************************
               CENTRO DE INSTRUMENTACION Y REGISTRO SISMICO  A.C.  
                       Coordinacion de Servicios Tecnicos
     Anaxagoras 814, Col. Narvarte, Benito Juarez, C.P. 03020 Mexico, D.F.
            Tels. 687 45 42/ 687 45  82             Fax. 669 25 12
********************************************************************************
ARCHIVO ESTANDAR DE ACELERACION:
VERSION DEL FORMATO                    : 2.0
NOMBRE DEL ARCHIVO                     : AE029804.201
FECHA Y HORA DE CREACION               : 19/ENERO/2000. 10:15 
REF. CATALOGO ACELEROGRAMAS, SMIS 1996 : REGISTRO No.     /PAG.


================================================================================
DATOS DE LA ESTACION:
NOMBRE DE LA ESTACION                  : AEROPUERTO
CLAVE DE LA ESTACION                   : AE02
LOCALIZACION DE LA ESTACION            : Esc Prim Gonzalez Garzon Calle Xico
                                       : s/n, Col. IV Seccion del Arenal
                                       : Venustiano Carranza
                                       :
                                       :
COORDENADAS DE LA ESTACION             : 19.429 LAT. N 
                                       : 99.058 LONG. W 
ALTITUD (msnm)                         : 2232
TIPO DE SUELO                          : ARCILLOSO, ZONA LAGO
                                       : 
                                       : 
INSTITUCION RESPONSABLE                : CIRES
                                       :

================================================================================
DATOS DEL ACELEROGRAFO:
MODELO DEL ACELEROGRAFO                : RAD-851
NUMERO DE SERIE DEL ACELEROGRAFO       : 242
NUMERO DE CANALES                      : 3
ORIENTACION C1-C6 (rumbo;orientacion)  : /N00E/+V/N90W
ORIENTACION C7-C12 (rumbo;orientacion) :
VEL. DE MUESTREO, C1-C6 (muestras/s)   : /100/100/100
VEL. DE MUESTREO, C7-C12 (muestras/s)  :
ESC. COMPLETA DE SENSORES, C1-C6, (g)  : /0.5/0.5/0.5
ESC. COMPLETA DE SENSORES, C7-C12, (g) :
FREC. NAT. DE SENSORES, C1-C6, (Hz)    : /30/30/30
FREC. NAT. DE SENSORES, C7-C12, (Hz)   :
AMORTIGUAMIENTO DE SENSORES, C1-C6     : /0.733/0.750/0.700
AMORTIGUAMIENTO DE SENSORES, C7-C12    :
INTERVALO DE MUESTREO, C1-C6, (s)      : /0.01/0.01/0.01
INTERVALO DE MUESTREO, C7-C12, (s)     :
UMBRAL DE DISPARO, C1-C6, (Gal)        : /2.44/3.91/2.44
UMBRAL DE DISPARO, C7-C12, (Gal)       :
MEMORIA DE PREEVENTO (s)               : 16
TIEMPO DE POSEVENTO (s)                : 48


================================================================================
DATOS DEL SISMO:
FECHA DEL SISMO (GMT)                  : 20/ABR/98
HORA EPICENTRO (GMT)                   : 22:59:17.00
MAGNITUD(ES)                           : /Mb=5.4/Mc=5.0/Ma=5.5/Me=5.7
COORDENADAS DEL EPICENTRO              : 18.37 LAT. N
                                       : 101.21 LONG. W
PROFUNDIDAD FOCAL (km)                 : 66.0
FUENTE DE LOS DATOS EPICENTRALES       : SSN
                                       : INSTITUTO DE GEOFISICA, UNAM

================================================================================
DATOS DE ESTE REGISTRO:
HORA DE LA PRIMERA MUESTRA (GMT)       : 23:00:23.00
EXACTITUD DEL TIEMPO (s)               : 0.01
DURACION DEL REGISTRO (s), C1-C6       : /136.75/136.75/136.75
DURACION DEL REGISTRO (s), C7-C12      :
NUM. TOTAL DE MUESTRAS, C1-C6          : /13675/13675/13675
NUM. TOTAL DE MUESTRAS, C7-C12         :
ACEL. MAX. (Gal), C1-C6                : /3.30200/2.07991/3.91838
ACEL. MAX., C1-C6, EN LA MUESTRA       :
ACEL. MAX. (Gal), C7-C12               :
ACEL. MAX., C7-C12, EN LA MUESTRA      :
UNIDADES DE LOS DATOS                  : Gal (cm/s/s)
FACTOR DE DECIMACION                   : 1
FORMATO DATOS (FORTRAN,10 campos/dato) : 3F10.5


================================================================================
CALIDAD DEL ACELEROGRAMA:
REGISTRO DIGITAL COMPLETO CON TIEMPO ABSOLUTO CORRECTO.


================================================================================
COMENTARIOS:














================================================================================
DATOS DE ACELERACION:
---------+---------+---------+---------+---------+---------+---------+---------+
   CANAL-1   CANAL-2   CANAL-3   CANAL-4   CANAL-5   CANAL-6   CANAL-7   CANAL-8
      N00E        +V      N90W
---------+---------+---------+---------+---------+---------+---------+---------+
[...]
   0.76812  -0.88281  -0.08768
   0.76812  -0.64339  -0.08768
   0.76812  -0.40397  -0.08768
   0.76812  -0.40397  -0.08768
   0.76812  -0.16456  -0.08768
   0.76812  -0.16456  -0.32710
   0.76812  -0.16456  -0.08768
   0.76812   0.07486  -0.56652
   0.76812   0.31428  -0.56652
   1.00754   0.55370  -0.56652
   1.00754   0.55370  -0.56652
   0.76812   0.79312  -0.56652
   0.76812   0.79312  -0.56652
   0.76812   1.03254  -0.80594
   0.76812   1.03254  -0.56652
   0.76812   1.03254  -0.56652
   1.00754   1.03254  -0.32710
   0.76812   1.03254  -0.32710
   0.52870   1.03254  -0.32710
   0.76812   1.03254  -0.32710
   0.52870   0.79312  -0.32710
   0.52870   0.79312  -0.32710
   0.28928   0.79312  -0.32710
   0.04986   1.03254  -0.08768
   0.28928   1.03254  -0.08768
  -0.18956   1.03254  -0.08768
  -0.18956   0.79312   0.15174
  -0.42898   1.03254  -0.08768
  -0.66839   1.03254  -0.08768
  -0.66839   1.27196  -0.08768
  -0.90781   1.27196  -0.08768
  -1.14723   1.27196  -0.08768
  -1.14723   0.79312   0.15174
  -1.14723   1.03254   0.15174
  -1.38665   0.79312   0.15174
  -1.62607   0.55370   0.15174
  -1.62607   0.31428   0.39116
  -1.62607   0.31428   0.39116
  -1.86549   0.07486   0.39116
  -2.10491   0.07486   0.39116
  -1.86549   0.07486   0.39116
  -2.10491   0.07486   0.63058
  -2.10491   0.07486   0.63058
  -2.10491   0.07486   0.87000
  -2.10491  -0.16456   1.10942
  -2.10491  -0.16456   1.10942
  -2.10491  -0.40397   1.10942
  -2.10491  -0.16456   1.10942
  -1.86549  -0.40397   1.10942
  -1.86549  -0.40397   1.10942
  -1.86549  -0.16456   1.10942
  -1.86549  -0.40397   1.10942
  -1.62607  -0.40397   1.10942
  -1.62607  -0.40397   1.10942
  -1.38665  -0.40397   1.10942
  -1.38665  -0.40397   1.10942
  -1.14723  -0.40397   1.10942
  -1.14723  -0.64339   1.10942
  -0.90781  -0.88281   1.34883
  -0.90781  -0.88281   1.10942
  -0.66839  -0.88281   1.10942
  -0.42898  -0.88281   1.10942
  -0.42898  -0.64339   1.10942
  -0.42898  -0.64339   1.10942
  -0.42898  -0.40397   1.34883
  -0.18956  -0.40397   1.10942
   0.04986  -0.64339   1.10942
   0.04986  -0.64339   1.10942
   0.04986  -0.64339   1.10942
   0.04986  -0.64339   1.10942
   0.28928  -0.64339   1.10942
   0.28928  -0.40397   1.10942
   0.52870  -0.40397   1.10942
   0.28928  -0.16456   1.10942
   0.52870  -0.40397   1.10942
   0.52870  -0.16456   1.10942
   0.52870  -0.16456   0.87000
   0.52870  -0.16456   0.87000
   0.76812  -0.40397   0.87000
   0.76812  -0.16456   0.63058
   0.76812  -0.16456   0.87000
   0.76812  -0.16456   0.63058
   0.76812  -0.16456   0.63058
   0.76812  -0.16456   0.63058
   0.76812  -0.16456   0.39116
   0.52870  -0.16456   0.39116
   0.52870  -0.16456   0.39116
   0.52870  -0.16456   0.15174
   0.52870   0.07486   0.15174
   0.28928   0.31428   0.15174
   0.52870   0.31428  -0.08768
   0.52870   0.31428   0.15174
   0.28928   0.31428   0.15174
   0.28928   0.55370  -0.08768
   0.28928   0.55370  -0.08768
   0.28928   0.31428  -0.08768
   0.28928   0.55370  -0.08768
   0.04986   0.55370  -0.32710
   0.28928   0.31428  -0.32710
   0.28928   0.31428  -0.32710
   0.04986   0.31428  -0.32710
   0.28928   0.55370  -0.32710
   0.28928   0.31428  -0.32710
   0.04986   0.31428  -0.32710
   0.04986   0.31428  -0.32710
  -0.18956   0.31428  -0.32710
  -0.18956   0.31428  -0.32710
  -0.18956   0.31428  -0.56652
  -0.42898   0.31428  -0.56652
  -0.18956   0.31428  -0.32710
  -0.42898   0.07486  -0.32710
  -0.42898   0.31428  -0.32710
  -0.42898   0.31428  -0.32710
  -0.42898   0.31428  -0.08768
  -0.42898   0.31428  -0.08768
  -0.66839   0.31428  -0.08768
  -0.66839   0.07486   0.15174
  -0.66839   0.07486   0.15174
  -0.66839   0.07486   0.39116
  -0.66839   0.07486   0.39116
  -0.66839   0.07486   0.63058
  -0.66839   0.31428   0.63058
  -0.66839   0.31428   0.63058
  -0.66839   0.55370   0.87000
  -0.66839   0.55370   0.87000
  -0.90781   0.55370   1.10942
  -0.90781   0.55370   1.10942
  -0.90781   0.55370   1.10942
  -0.90781   0.55370   1.10942
  -0.90781   0.31428   1.34883
  -0.90781   0.55370   1.58825
  -0.66839   0.55370   1.58825
  -0.90781   0.31428   1.58825
  -0.66839   0.55370   1.58825
  -0.66839   0.55370   1.58825
  -0.66839   0.31428   1.58825
  -0.66839   0.31428   1.82767
  -0.42898   0.55370   1.82767
  -0.42898   0.55370   1.82767
  -0.42898   0.31428   1.82767
  -0.42898   0.55370   2.06709
  -0.18956   0.31428   2.06709
  -0.18956   0.31428   2.06709
  -0.18956   0.31428   2.30651
   0.04986   0.31428   2.30651
  -0.18956   0.31428   2.06709
   0.04986   0.31428   2.30651
   0.04986   0.31428   2.30651
   0.04986   0.07486   2.30651
   0.28928   0.07486   2.54593
   0.04986   0.07486   2.54593
   0.04986  -0.16456   2.54593
   0.04986  -0.16456   2.54593
   0.04986  -0.16456   2.54593
   0.04986  -0.16456   2.54593
   0.04986  -0.16456   2.54593
   0.04986  -0.16456   2.54593
   0.04986  -0.40397   2.30651
   0.28928  -0.40397   2.30651
   0.04986  -0.16456   2.30651
   0.28928  -0.40397   2.30651
   0.28928  -0.40397   2.06709
   0.28928  -0.40397   2.30651
   0.28928  -0.16456   2.06709
   0.28928  -0.40397   2.06709
   0.28928  -0.40397   2.06709
   0.28928  -0.40397   1.82767
   0.52870  -0.40397   1.82767
   0.52870  -0.40397   1.82767
   0.52870  -0.40397   1.58825
   0.52870  -0.40397   1.58825
   0.52870  -0.40397   1.58825
   0.52870  -0.16456   1.34883
   0.52870  -0.16456   1.34883
   0.76812  -0.16456   1.34883
   0.76812  -0.16456   1.34883
   0.76812   0.07486   1.10942
   0.76812   0.07486   1.10942
   1.00754   0.07486   0.87000
   1.00754  -0.16456   0.87000
   1.00754   0.07486   0.87000
   1.00754   0.07486   0.63058
   1.24696   0.07486   0.39116
   1.24696   0.07486   0.63058
   1.24696   0.07486   0.39116
   1.24696   0.31428   0.15174
   1.24696   0.31428   0.39116
   1.24696   0.07486   0.39116
   1.24696   0.31428   0.39116
   1.24696   0.07486   0.39116
   1.00754   0.31428   0.39116
   1.00754   0.31428   0.15174
   0.76812   0.31428   0.39116
   0.76812   0.31428   0.39116
   0.52870   0.31428   0.39116
   0.52870   0.55370   0.39116
   0.52870   0.55370   0.39116
   0.28928   0.31428   0.39116
   0.04986   0.31428   0.39116
   0.04986   0.31428   0.39116
  -0.18956   0.31428   0.63058
  -0.18956   0.31428   0.39116
  -0.42898   0.31428   0.39116
  -0.66839   0.07486   0.63058
  -0.42898   0.31428   0.63058
  -0.66839   0.31428   0.63058
  -0.90781   0.07486   0.63058
  -0.66839   0.07486   0.63058
  -0.90781   0.07486   0.63058
  -1.14723  -0.16456   0.63058
  -1.14723  -0.16456   0.63058
  -1.38665  -0.40397   0.63058
  -1.38665  -0.40397   0.63058
  -1.62607  -0.40397   0.63058
  -1.62607  -0.40397   0.63058
  -1.62607  -0.16456   0.63058
  -1.86549  -0.16456   0.63058
  -1.62607  -0.16456   0.63058
  -1.86549  -0.16456   0.87000
  -1.86549  -0.16456   0.87000
  -1.86549  -0.16456   0.63058
  -1.86549  -0.16456   0.87000
  -1.86549  -0.16456   0.87000
  -1.86549  -0.40397   0.87000
  -1.86549  -0.16456   0.87000
  -1.62607  -0.16456   0.87000
  -1.62607  -0.16456   0.87000
  -1.38665  -0.16456   0.87000
  -1.38665  -0.16456   0.87000
  -1.38665  -0.16456   0.63058
  -1.14723  -0.16456   0.63058
  -1.14723  -0.40397   0.63058
  -0.90781  -0.16456   0.39116
  -0.90781  -0.40397   0.39116
  -0.66839  -0.40397   0.15174
  -0.66839  -0.40397  -0.08768
  -0.42898  -0.40397  -0.08768
  -0.42898  -0.16456  -0.08768
  -0.42898  -0.40397  -0.08768
  -0.18956  -0.40397  -0.32710
  -0.18956  -0.40397  -0.56652
   0.04986  -0.40397  -0.80594
   0.04986  -0.40397  -1.04535
   0.04986  -0.16456  -1.04535
   0.04986  -0.16456  -1.28477
   0.28928  -0.16456  -1.52419
   0.28928  -0.16456  -1.76361
   0.52870   0.07486  -1.76361
   0.52870   0.07486  -2.00303
   0.76812   0.07486  -2.24245
   1.00754   0.07486  -2.48187
   1.00754   0.07486  -2.48187
   1.24696  -0.16456  -2.72129
   1.24696   0.07486  -2.96071
   1.24696   0.07486  -2.96071
   1.48638   0.07486  -2.96071
   1.72579   0.07486  -3.20013
   1.72579  -0.16456  -3.20013
   1.72579  -0.16456  -2.96071
   1.72579  -0.16456  -3.20013
   1.72579  -0.16456  -3.43954
   1.48638  -0.40397  -3.43954
   1.72579  -0.40397  -3.67896
   1.48638  -0.40397  -3.67896
   1.48638  -0.64339  -3.67896
   1.00754  -0.64339  -3.67896
   1.00754  -0.64339  -3.67896
   0.76812  -0.64339  -3.43954
   0.52870  -0.64339  -3.43954
   0.28928  -0.64339  -3.43954
   0.28928  -0.64339  -3.20013
   0.04986  -0.64339  -2.96071
   0.04986  -0.40397  -2.96071
  -0.18956  -0.40397  -2.96071
   0.04986  -0.40397  -2.72129
  -0.18956  -0.40397  -2.72129
  -0.42898  -0.16456  -2.48187
  -0.42898  -0.16456  -2.48187
  -0.42898  -0.16456  -2.24245
  -0.42898  -0.16456  -2.00303
  -0.66839  -0.16456  -2.00303
  -0.66839  -0.40397  -1.76361
  -0.66839  -0.40397  -1.52419
  -0.90781  -0.16456  -1.28477
  -0.90781  -0.16456  -1.04535
  -1.14723  -0.16456  -0.80594
  -1.14723  -0.16456  -0.56652
  -1.14723   0.07486  -0.32710
  -1.14723   0.07486  -0.08768
  -1.38665   0.31428  -0.08768
  -1.38665   0.31428   0.15174
  -1.14723   0.55370   0.15174
  -1.14723   0.55370   0.63058
  -1.14723   0.55370   0.63058
  -1.38665   0.79312   0.87000
  -1.14723   0.55370   0.87000
  -0.90781   0.55370   1.10942
  -0.90781   0.55370   1.10942
  -0.90781   0.55370   1.34883
  -0.66839   0.31428   1.34883
  -0.42898   0.55370   1.58825
  -0.42898   0.55370   1.58825
  -0.18956   0.79312   1.58825
  -0.18956   0.79312   1.82767
   0.04986   0.79312   1.82767
   0.28928   0.79312   1.82767
   0.28928   1.03254   1.58825
   0.52870   1.03254   1.82767
   0.76812   1.27196   1.82767
   0.76812   1.51138   1.82767
   1.00754   1.51138   1.82767
   1.00754   1.27196   1.82767
   1.00754   1.27196   1.82767
   1.00754   1.27196   1.58825
   1.00754   1.27196   1.58825
   1.00754   1.27196   1.58825
   1.24696   1.27196   1.34883
   1.24696   1.27196   1.10942
   1.48638   1.27196   1.10942
   1.48638   1.27196   0.87000
   1.48638   1.27196   0.63058
   1.72579   1.27196   0.39116
   1.72579   1.27196   0.15174
   1.96521   1.27196  -0.08768
   1.96521   1.27196  -0.08768
   1.96521   1.03254  -0.32710
   1.96521   1.03254  -0.56652
   1.96521   0.79312  -0.80594
   1.96521   0.79312  -1.04535
   2.20463   0.55370  -1.04535
   1.96521   0.31428  -1.28477
   1.96521   0.31428  -1.28477
   1.96521   0.31428  -1.76361
   1.72579   0.07486  -2.00303
   1.72579   0.31428  -2.00303
   1.48638   0.31428  -2.24245
   1.72579   0.07486  -2.48187
   1.48638   0.07486  -2.72129
   1.24696   0.07486  -2.72129
   1.24696   0.07486  -2.72129
   1.00754  -0.16456  -2.96071
   0.76812  -0.16456  -2.96071
   0.76812  -0.40397  -3.20013
   0.52870  -0.40397  -3.20013
   0.28928  -0.64339  -3.20013
   0.28928  -0.64339  -3.43954
   0.04986  -0.88281  -3.43954
   0.04986  -1.12223  -3.67896
   0.04986  -1.12223  -3.67896
   0.04986  -1.36165  -3.91838
  -0.18956  -1.60107  -3.67896
  -0.18956  -1.60107  -3.67896
  -0.18956  -1.60107  -3.67896
  -0.18956  -1.60107  -3.67896
  -0.42898  -1.60107  -3.43954
  -0.42898  -1.84049  -3.20013
  -0.42898  -1.84049  -3.20013
  -0.42898  -1.60107  -3.20013
  -0.42898  -1.84049  -2.96071
  -0.66839  -1.60107  -2.72129
  -0.66839  -1.60107  -2.72129
  -0.90781  -1.60107  -2.48187
  -0.90781  -1.36165  -2.48187
  -0.90781  -1.60107  -2.24245
  -0.90781  -1.60107  -2.00303
  -0.90781  -1.60107  -2.00303
  -1.14723  -1.36165  -1.76361
  -1.14723  -1.36165  -1.52419
  -1.14723  -1.36165  -1.52419
  -1.38665  -1.36165  -1.28477
  -1.38665  -1.12223  -0.80594
  -1.38665  -0.88281  -0.80594
  -1.38665  -0.64339  -0.56652
  -1.62607  -0.64339  -0.32710
  -1.62607  -0.40397  -0.08768
  -1.86549  -0.40397   0.15174
  -1.86549  -0.16456   0.39116
  -1.86549   0.07486   0.63058
  -2.10491   0.07486   0.63058
  -2.34433   0.07486   0.63058
  -2.34433   0.31428   0.63058
  -2.58375   0.31428   0.87000
  -2.58375   0.31428   1.10942
  -2.82317   0.79312   1.10942
  -3.06258   0.79312   1.34883
  -3.06258   1.03254   1.34883
  -3.06258   1.27196   1.58825
  -3.30200   1.27196   1.82767
  -3.30200   1.27196   1.82767
  -3.30200   1.27196   1.82767
  -3.30200   1.51138   1.82767
  -3.06258   1.51138   1.58825
  -3.30200   1.51138   1.82767
  -3.06258   1.51138   1.82767
  -2.82317   1.51138   1.58825
  -2.58375   1.51138   1.58825
  -2.58375   1.27196   1.58825
  -2.34433   1.27196   1.58825
  -2.34433   1.03254   1.58825
  -2.10491   0.79312   1.34883
  -2.10491   0.79312   1.34883
  -1.86549   0.79312   1.10942
  -1.62607   0.55370   1.34883
  -1.38665   0.55370   1.10942
  -1.14723   0.55370   0.87000
  -0.90781   0.55370   0.87000
  -0.90781   0.55370   0.63058
  -0.66839   0.55370   0.39116
  -0.42898   0.55370   0.15174
  -0.18956   0.31428  -0.08768
  -0.18956   0.55370  -0.32710
   0.04986   0.55370  -0.80594
   0.28928   0.31428  -1.04535
   0.52870   0.31428  -1.04535
   0.76812   0.07486  -1.28477
   0.76812  -0.16456  -1.28477
   1.24696  -0.64339  -1.52419
   1.24696  -0.64339  -1.76361
   1.48638  -0.88281  -1.76361
   1.72579  -0.88281  -2.00303
   1.96521  -0.88281  -2.00303
   1.96521  -0.88281  -2.24245
   2.20463  -1.12223  -2.24245
   2.44405  -1.12223  -2.24245
   2.68347  -1.36165  -2.24245
   2.68347  -1.36165  -2.24245
   2.92289  -1.36165  -2.24245
   2.92289  -1.36165  -2.24245
   3.16231  -1.84049  -2.24245
   3.16231  -1.84049  -2.24245
   3.16231  -1.84049  -2.00303
   2.92289  -1.84049  -2.24245
   2.92289  -2.07991  -2.24245
   2.92289  -1.84049  -2.00303
   2.92289  -1.84049  -2.00303
   2.92289  -1.60107  -2.00303
   2.68347  -1.60107  -1.76361
   2.68347  -1.60107  -1.76361
   2.44405  -1.36165  -1.52419
   2.44405  -1.36165  -1.76361
   2.20463  -0.88281  -1.76361
   1.96521  -0.88281  -1.52419
   1.96521  -0.64339  -1.28477
   1.72579  -0.40397  -1.04535
   1.48638  -0.16456  -1.04535
   1.48638   0.07486  -0.80594
   1.24696   0.07486  -0.56652
   1.24696   0.31428  -0.56652
   1.00754   0.31428  -0.32710
   0.76812   0.31428  -0.32710
   0.52870   0.55370  -0.08768
   0.28928   0.55370  -0.08768
   0.28928   0.55370   0.15174
   0.04986   0.79312   0.39116
  -0.42898   0.79312   0.39116
  -0.42898   1.03254   0.63058
  -0.66839   1.03254   0.63058
  -0.66839   1.03254   0.87000
  -0.90781   1.03254   1.10942
  -1.14723   1.27196   1.10942
  -1.38665   1.27196   1.10942
  -1.38665   1.27196   1.10942
  -1.38665   1.51138   1.10942
  -1.62607   1.51138   1.10942
  -1.86549   1.75080   1.34883
  -1.62607   1.51138   1.34883
  -1.62607   1.51138   1.34883
  -1.62607   1.27196   1.10942
  -1.62607   1.27196   1.10942
  -1.62607   1.27196   1.10942
  -1.62607   1.27196   1.10942
  -1.38665   1.51138   1.10942
  -1.38665   1.27196   1.10942
  -1.38665   1.51138   0.87000
  -1.14723   1.27196   0.87000
  -1.14723   1.27196   0.87000
  -1.14723   1.51138   0.87000
  -0.90781   1.03254   0.87000
  -1.14723   1.27196   0.63058
  -0.90781   1.03254   0.63058
  -0.90781   0.79312   0.63058
  -0.90781   0.79312   0.63058
  -0.66839   0.31428   0.63058
  -0.66839   0.55370   0.39116
  -0.66839   0.31428   0.63058
  -0.42898   0.07486   0.39116
  -0.42898   0.07486   0.15174
  -0.42898   0.07486   0.15174
  -0.18956  -0.16456  -0.08768
   0.04986  -0.16456  -0.08768
   0.04986  -0.16456  -0.08768
   0.28928  -0.40397  -0.32710
   0.52870  -0.40397  -0.32710
   0.52870  -0.40397  -0.08768
   0.76812  -0.40397  -0.32710
   1.00754  -0.40397  -0.32710
   1.24696  -0.64339  -0.32710
   1.24696  -0.64339  -0.32710
   1.24696  -0.40397  -0.32710
