********************************************************************************
               CENTRO DE INSTRUMENTACION Y REGISTRO SISMICO  A.C.  
                       Coordinacion de Servicios Tecnicos
     Anaxagoras 814, Col. Narvarte, Benito Juarez, C.P. 03020 Mexico, D.F.
            Tels. 687 45 42/ 687 45  82             Fax. 669 25 12
********************************************************************************
ARCHIVO ESTANDAR DE ACELERACION:
VERSION DEL FORMATO                    : 2.0
NOMBRE DEL ARCHIVO                     : AE020204.181
FECHA Y HORA DE CREACION               : 09/JUL/04, 11:30
REF. CATALOGO ACELEROGRAMAS, SMIS 1996 : REGISTRO No.     /PAG.


================================================================================
DATOS DE LA ESTACION:
NOMBRE DE LA ESTACION                  : AEROPUERTO
CLAVE DE LA ESTACION                   : AE02
LOCALIZACION DE LA ESTACION            : Esc Prim Gonzalez Garzon Calle Xico
                                       : s/n, Col. IV Seccion del Arenal
                                       : Venustiano Carranza
                                       :
                                       :
COORDENADAS DE LA ESTACION             : 19.429 LAT. N 
                                       : 99.058 LONG. W 
ALTITUD (msnm)                         : 2232
TIPO DE SUELO                          : ARCILLOSO, ZONA LAGO
                                       : 
                                       : 
INSTITUCION RESPONSABLE                : CIRES
                                       :

================================================================================
DATOS DEL ACELEROGRAFO:
MODELO DEL ACELEROGRAFO                : RAD-851
NUMERO DE SERIE DEL ACELEROGRAFO       : 242
NUMERO DE CANALES                      : 3
ORIENTACION C1-C6 (rumbo;orientacion)  : /N00E/+V/N90W
ORIENTACION C7-C12 (rumbo;orientacion) :
VEL. DE MUESTREO, C1-C6 (muestras/s)   : /100/100/100
VEL. DE MUESTREO, C7-C12 (muestras/s)  :
ESC. COMPLETA DE SENSORES, C1-C6, (g)  : /0.5/0.5/0.5
ESC. COMPLETA DE SENSORES, C7-C12, (g) :
FREC. NAT. DE SENSORES, C1-C6, (Hz)    : /30/30/30
FREC. NAT. DE SENSORES, C7-C12, (Hz)   :
AMORTIGUAMIENTO DE SENSORES, C1-C6     : /0.733/0.750/0.700
AMORTIGUAMIENTO DE SENSORES, C7-C12    :
INTERVALO DE MUESTREO, C1-C6, (s)      : /0.01/0.01/0.01
INTERVALO DE MUESTREO, C7-C12, (s)     :
UMBRAL DE DISPARO, C1-C6, (Gal)        : /1.99/3.91/1.99
UMBRAL DE DISPARO, C7-C12, (Gal)       :
MEMORIA DE PREEVENTO (s)               : 24
TIEMPO DE POSEVENTO (s)                : 64


================================================================================
DATOS DEL SISMO:
FECHA DEL SISMO (GMT)                  : 18/ABR/02
HORA EPICENTRO (GMT)                   : 05:02:45:2
MAGNITUD(ES)                           : /Mb=5.4/Ms=6.0/Mc=6.3/Ma=6.2/Me=6.5
COORDENADAS DEL EPICENTRO              : 16.77 LAT. N
                                       : 101.12 LONG. W
PROFUNDIDAD FOCAL (km)                 : 22.0
FUENTE DE LOS DATOS EPICENTRALES       : SSN
                                       : INSTITUTO DE GEOFISICA, UNAM

================================================================================
DATOS DE ESTE REGISTRO:
HORA DE LA PRIMERA MUESTRA (GMT)       : 05:04:40.00
EXACTITUD DEL TIEMPO (s)               : 0.01
DURACION DEL REGISTRO (s), C1-C6       : /188.75/188.75/188.75
DURACION DEL REGISTRO (s), C7-C12      :
NUM. TOTAL DE MUESTRAS, C1-C6          : /18875/18875/18875
NUM. TOTAL DE MUESTRAS, C7-C12         :
ACEL. MAX. (Gal), C1-C6                : /5.22252/1.18048/-3.56019
ACEL. MAX., C1-C6, EN LA MUESTRA       :
ACEL. MAX. (Gal), C7-C12               :
ACEL. MAX., C7-C12, EN LA MUESTRA      :
UNIDADES DE LOS DATOS                  : Gal (cm/s/s)
FACTOR DE DECIMACION                   : 1
FORMATO DATOS (FORTRAN,10 campos/dato) : 3F10.5


================================================================================
CALIDAD DEL ACELEROGRAMA:
REGISTRO DIGITAL COMPLETO CON TIEMPO ABSOLUTO CORRECTO.


================================================================================
COMENTARIOS:














================================================================================
DATOS DE ACELERACION:
---------+---------+---------+---------+---------+---------+---------+---------+
   CANAL-1   CANAL-2   CANAL-3   CANAL-4   CANAL-5   CANAL-6   CANAL-7   CANAL-8
      N00E        +V      N90W
---------+---------+---------+---------+---------+---------+---------+---------+
[...]
   1.15239  -0.25604  -0.20833
   0.91298  -0.01662  -0.44775
   0.91298  -0.25604  -0.44775
   0.91298  -0.01662  -0.44775
   0.91298  -0.01662  -0.20833
   0.91298  -0.01662  -0.44775
   0.67356  -0.01662  -0.44775
   0.67356  -0.01662  -0.20833
   0.67356  -0.01662  -0.44775
   0.43414  -0.01662  -0.20833
   0.43414  -0.01662  -0.20833
   0.43414  -0.01662  -0.20833
   0.19472  -0.01662  -0.20833
   0.19472  -0.01662  -0.20833
   0.19472  -0.01662   0.03109
   0.19472   0.22280  -0.44775
  -0.04470  -0.01662  -0.20833
  -0.04470  -0.01662  -0.20833
  -0.04470   0.22280  -0.20833
  -0.04470  -0.01662  -0.20833
  -0.28412  -0.01662  -0.20833
  -0.28412  -0.01662  -0.20833
  -0.28412  -0.01662  -0.20833
  -0.52354  -0.01662  -0.20833
  -0.52354  -0.01662  -0.20833
  -0.76296  -0.01662  -0.20833
  -0.76296  -0.01662   0.03109
  -0.76296  -0.01662  -0.20833
  -0.76296  -0.01662   0.03109
  -0.76296  -0.01662   0.03109
  -1.00238   0.22280  -0.20833
  -1.00238  -0.01662   0.03109
  -1.00238   0.22280  -0.20833
  -1.24179  -0.01662  -0.20833
  -1.24179   0.22280  -0.20833
  -1.24179   0.22280   0.03109
  -1.48121   0.22280  -0.20833
  -1.48121   0.22280   0.03109
  -1.48121  -0.01662   0.03109
  -1.72063   0.22280  -0.20833
  -1.48121  -0.01662  -0.20833
  -1.72063   0.22280   0.03109
  -1.72063   0.22280   0.03109
  -1.72063   0.22280  -0.20833
  -1.96005   0.22280  -0.20833
  -1.96005   0.22280   0.03109
  -1.96005   0.22280  -0.20833
  -1.96005   0.22280   0.03109
  -2.19947   0.22280  -0.20833
  -2.19947   0.22280   0.03109
  -2.19947  -0.01662   0.03109
  -2.43889   0.22280  -0.20833
  -2.43889  -0.01662   0.03109
  -2.43889   0.22280   0.03109
  -2.67831  -0.01662  -0.20833
  -2.43889   0.22280   0.03109
  -2.67831   0.22280   0.03109
  -2.67831   0.22280  -0.20833
  -2.91773   0.22280  -0.20833
  -2.67831   0.22280   0.03109
  -2.91773   0.22280  -0.20833
  -2.91773   0.22280   0.03109
  -2.91773   0.22280   0.03109
  -3.15715   0.22280  -0.20833
  -3.15715   0.22280   0.03109
  -3.15715   0.22280   0.03109
  -3.15715  -0.01662   0.03109
  -3.39657   0.22280  -0.20833
  -3.15715   0.22280   0.03109
  -3.39657   0.22280  -0.20833
  -3.39657  -0.01662   0.03109
  -3.39657  -0.01662  -0.20833
  -3.39657  -0.01662  -0.20833
  -3.63598  -0.01662   0.03109
  -3.63598  -0.01662  -0.20833
  -3.63598   0.22280  -0.20833
  -3.63598  -0.01662  -0.20833
  -3.63598  -0.01662  -0.20833
  -3.63598   0.22280  -0.20833
  -3.87540  -0.01662  -0.20833
  -3.63598  -0.01662  -0.20833
  -3.87540  -0.01662  -0.20833
  -3.87540  -0.01662  -0.20833
  -4.11482   0.22280  -0.20833
  -3.87540  -0.01662  -0.20833
  -4.11482  -0.01662  -0.20833
  -4.11482  -0.01662  -0.20833
  -4.11482  -0.01662  -0.20833
  -4.11482  -0.01662  -0.44775
  -4.11482  -0.01662  -0.20833
  -4.35424  -0.01662  -0.44775
  -4.11482  -0.01662  -0.20833
  -4.11482  -0.01662  -0.44775
  -4.35424  -0.01662  -0.20833
  -4.35424  -0.01662  -0.44775
  -4.11482  -0.01662  -0.20833
  -4.35424  -0.01662  -0.44775
  -4.35424  -0.01662  -0.20833
  -4.35424  -0.01662  -0.44775
  -4.35424  -0.01662  -0.44775
  -4.35424  -0.01662  -0.20833
  -4.35424  -0.01662  -0.44775
  -4.59366  -0.01662  -0.44775
  -4.35424  -0.01662  -0.44775
  -4.59366  -0.01662  -0.44775
  -4.35424  -0.01662  -0.44775
  -4.59366  -0.01662  -0.44775
  -4.35424  -0.01662  -0.44775
  -4.59366  -0.01662  -0.44775
  -4.35424  -0.01662  -0.44775
  -4.59366  -0.01662  -0.44775
  -4.59366  -0.01662  -0.44775
  -4.35424  -0.01662  -0.44775
  -4.59366  -0.01662  -0.68717
  -4.35424  -0.25604  -0.44775
  -4.59366  -0.01662  -0.44775
  -4.35424  -0.25604  -0.44775
  -4.59366  -0.01662  -0.68717
  -4.35424  -0.01662  -0.44775
  -4.35424  -0.01662  -0.44775
  -4.59366  -0.01662  -0.44775
  -4.59366  -0.25604  -0.68717
  -4.59366   0.22280  -0.68717
  -4.59366  -0.01662  -0.68717
  -4.35424  -0.01662  -0.44775
  -4.35424  -0.01662  -0.44775
  -4.35424  -0.01662  -0.68717
  -4.35424  -0.01662  -0.44775
  -4.35424  -0.01662  -0.68717
  -4.35424  -0.01662  -0.44775
  -4.35424  -0.01662  -0.68717
  -4.35424  -0.01662  -0.68717
  -4.11482  -0.01662  -0.44775
  -4.35424  -0.01662  -0.68717
  -4.11482  -0.01662  -0.68717
  -4.35424   0.22280  -0.68717
  -4.11482  -0.01662  -0.68717
  -4.11482  -0.01662  -0.68717
  -4.11482  -0.01662  -0.68717
  -4.11482  -0.01662  -0.68717
  -4.11482  -0.01662  -0.68717
  -4.11482  -0.01662  -0.68717
  -4.11482  -0.01662  -0.68717
  -3.87540  -0.01662  -0.68717
  -4.11482  -0.01662  -0.92659
  -3.87540  -0.01662  -0.68717
  -3.87540  -0.01662  -0.92659
  -3.87540   0.22280  -0.68717
  -3.87540  -0.01662  -0.92659
  -3.63598   0.22280  -0.68717
  -3.63598  -0.01662  -0.92659
  -3.63598   0.22280  -0.92659
  -3.63598  -0.01662  -0.68717
  -3.63598   0.22280  -0.92659
  -3.63598  -0.01662  -0.92659
  -3.39657  -0.01662  -0.92659
  -3.39657  -0.01662  -0.92659
  -3.15715  -0.01662  -0.92659
  -3.39657  -0.01662  -0.92659
  -3.15715  -0.01662  -0.92659
  -3.39657  -0.01662  -0.92659
  -3.15715  -0.01662  -0.92659
  -3.15715  -0.01662  -0.92659
  -3.39657  -0.01662  -0.92659
  -3.15715  -0.01662  -0.92659
  -3.15715   0.22280  -0.92659
  -3.15715  -0.25604  -0.92659
  -3.15715  -0.01662  -0.92659
  -2.91773  -0.01662  -0.92659
  -2.91773  -0.01662  -0.92659
  -2.91773  -0.01662  -0.68717
  -2.91773  -0.01662  -0.92659
  -2.91773  -0.01662  -0.92659
  -2.91773  -0.01662  -0.68717
  -2.67831  -0.01662  -0.92659
  -2.67831  -0.01662  -0.92659
  -2.67831  -0.01662  -0.92659
  -2.67831  -0.01662  -0.92659
  -2.43889  -0.01662  -0.92659
  -2.67831  -0.25604  -0.92659
  -2.67831  -0.01662  -0.92659
  -2.67831  -0.01662  -0.68717
  -2.43889  -0.01662  -0.92659
  -2.67831  -0.01662  -0.92659
  -2.43889  -0.01662  -0.92659
  -2.43889  -0.01662  -0.92659
  -2.43889  -0.25604  -0.68717
  -2.43889  -0.01662  -0.92659
  -2.43889  -0.25604  -0.68717
  -2.43889  -0.01662  -0.68717
  -2.43889  -0.01662  -0.68717
  -2.19947  -0.25604  -0.68717
  -2.19947  -0.01662  -0.92659
  -2.43889  -0.01662  -0.68717
  -2.19947  -0.01662  -0.68717
  -2.19947  -0.01662  -0.68717
  -2.19947  -0.25604  -0.68717
  -2.19947  -0.01662  -0.68717
  -1.96005  -0.25604  -0.68717
  -2.19947  -0.25604  -0.68717
  -1.96005  -0.25604  -0.68717
  -1.96005  -0.01662  -0.68717
  -1.96005  -0.25604  -0.68717
  -1.96005  -0.25604  -0.44775
  -1.96005  -0.01662  -0.44775
  -1.96005  -0.25604  -0.44775
  -1.96005  -0.01662  -0.44775
  -1.72063  -0.01662  -0.44775
  -1.72063  -0.01662  -0.44775
  -1.96005  -0.25604  -0.44775
  -1.72063  -0.01662  -0.44775
  -1.72063  -0.25604  -0.44775
  -1.72063  -0.25604  -0.20833
  -1.72063  -0.01662  -0.44775
  -1.72063  -0.25604  -0.44775
  -1.72063  -0.01662  -0.44775
  -1.48121  -0.01662  -0.44775
  -1.72063  -0.01662  -0.20833
  -1.48121  -0.01662  -0.20833
  -1.48121  -0.25604  -0.20833
  -1.48121  -0.01662  -0.20833
  -1.48121  -0.01662  -0.20833
  -1.24179  -0.01662  -0.20833
  -1.48121  -0.01662  -0.20833
  -1.24179  -0.01662  -0.20833
  -1.48121  -0.01662  -0.20833
  -1.24179  -0.25604   0.03109
  -1.24179  -0.25604  -0.20833
  -1.24179  -0.01662   0.03109
  -1.24179  -0.01662   0.03109
  -1.24179  -0.01662   0.03109
  -1.00238  -0.01662   0.03109
  -1.24179  -0.01662  -0.20833
  -1.24179  -0.01662   0.03109
  -1.00238  -0.01662   0.03109
  -1.00238  -0.01662   0.27051
  -1.00238  -0.01662   0.03109
  -1.00238  -0.01662   0.03109
  -1.00238  -0.01662   0.03109
  -0.76296  -0.01662   0.03109
  -0.76296  -0.01662   0.03109
  -0.76296  -0.01662   0.03109
  -0.76296  -0.01662   0.03109
  -0.52354  -0.01662   0.27051
  -0.52354  -0.01662   0.03109
  -0.52354  -0.01662   0.27051
  -0.52354  -0.01662   0.27051
  -0.52354  -0.01662   0.27051
  -0.28412  -0.25604   0.27051
  -0.52354  -0.01662   0.27051
  -0.28412  -0.01662   0.27051
  -0.28412  -0.01662   0.27051
  -0.28412  -0.01662   0.27051
  -0.28412  -0.01662   0.27051
  -0.28412  -0.01662   0.50993
  -0.04470  -0.01662   0.50993
  -0.28412  -0.01662   0.27051
  -0.04470  -0.01662   0.50993
  -0.04470  -0.01662   0.50993
  -0.04470   0.22280   0.50993
   0.19472  -0.01662   0.50993
  -0.04470   0.22280   0.50993
   0.19472  -0.01662   0.50993
   0.19472   0.22280   0.50993
   0.19472  -0.01662   0.50993
   0.43414   0.22280   0.50993
   0.43414   0.22280   0.50993
   0.43414   0.22280   0.74935
   0.43414   0.22280   0.50993
   0.43414   0.22280   0.50993
   0.67356   0.22280   0.50993
   0.67356  -0.01662   0.74935
   0.67356  -0.01662   0.50993
   0.67356   0.22280   0.74935
   0.67356   0.22280   0.74935
   0.91298   0.22280   0.74935
   0.91298   0.22280   0.74935
   0.91298  -0.01662   0.74935
   1.15239  -0.01662   0.74935
   1.15239   0.22280   0.74935
   1.15239   0.22280   0.74935
   1.15239   0.22280   0.74935
   1.39181   0.22280   0.74935
   1.39181   0.22280   0.74935
   1.39181   0.22280   0.98877
   1.39181   0.22280   0.74935
   1.39181   0.22280   0.98877
   1.63123   0.22280   0.98877
   1.63123   0.22280   0.98877
   1.63123   0.22280   0.98877
   1.87065   0.22280   0.74935
   1.87065   0.22280   0.98877
   1.87065   0.22280   0.98877
   2.11007   0.22280   0.98877
   2.11007   0.22280   0.98877
   2.11007   0.22280   0.98877
   2.11007   0.22280   0.98877
   2.34949   0.22280   0.98877
   2.34949   0.22280   1.22818
   2.58891   0.22280   1.22818
   2.34949  -0.01662   0.98877
   2.58891   0.22280   1.22818
   2.58891   0.22280   0.98877
   2.82833   0.22280   0.98877
   2.82833  -0.01662   1.22818
   2.82833   0.22280   1.22818
   2.82833   0.22280   1.22818
   3.06775  -0.01662   1.22818
   3.06775  -0.01662   1.22818
   3.06775  -0.01662   1.22818
   3.06775   0.22280   1.22818
   3.30717  -0.01662   1.46760
   3.30717  -0.01662   1.22818
   3.30717   0.22280   1.22818
   3.30717  -0.01662   1.22818
   3.54658   0.22280   1.22818
   3.54658  -0.01662   1.46760
   3.54658  -0.01662   1.22818
   3.78600  -0.01662   1.22818
   3.54658  -0.01662   1.22818
   3.78600  -0.01662   1.22818
   3.78600   0.22280   1.46760
   3.78600  -0.01662   1.22818
   4.02542  -0.01662   1.46760
   4.02542  -0.01662   1.46760
   4.26484  -0.01662   1.22818
   4.26484  -0.01662   1.22818
   4.26484  -0.25604   1.22818
   4.26484  -0.01662   1.22818
   4.02542  -0.25604   1.46760
   4.26484  -0.01662   1.22818
   4.26484  -0.01662   1.46760
   4.50426  -0.25604   1.46760
   4.26484  -0.01662   1.22818
   4.50426  -0.01662   1.46760
   4.74368  -0.25604   1.22818
   4.50426  -0.01662   1.22818
   4.50426  -0.25604   1.46760
   4.50426  -0.25604   1.22818
   4.74368  -0.25604   1.22818
   4.74368  -0.25604   1.22818
   4.74368  -0.01662   1.46760
   4.74368  -0.25604   1.22818
   4.98310  -0.25604   1.22818
   4.74368  -0.01662   1.22818
   4.74368  -0.25604   1.22818
   4.98310  -0.01662   1.22818
   4.98310  -0.25604   1.22818
   5.22252  -0.25604   0.98877
   4.98310  -0.25604   1.22818
   5.22252  -0.49545   1.22818
   4.98310  -0.01662   1.22818
   4.98310  -0.25604   1.22818
   4.98310  -0.01662   0.98877
   4.98310  -0.25604   1.22818
   5.22252  -0.25604   1.22818
   4.98310  -0.25604   0.98877
   4.98310  -0.25604   0.98877
   5.22252  -0.25604   0.98877
   4.98310  -0.01662   1.22818
   4.98310  -0.25604   0.98877
   4.98310  -0.01662   0.98877
   5.22252  -0.25604   0.98877
   4.98310  -0.01662   0.98877
   4.98310  -0.01662   0.98877
   5.22252  -0.25604   1.22818
   4.98310  -0.25604   0.98877
   4.98310  -0.25604   0.98877
   4.98310  -0.25604   0.98877
   4.98310  -0.01662   0.98877
   4.98310  -0.25604   0.98877
   4.98310  -0.01662   0.98877
   4.98310  -0.25604   0.98877
   4.98310  -0.25604   0.98877
   4.98310  -0.25604   0.98877
   4.98310  -0.01662   0.98877
   4.74368  -0.01662   0.98877
   4.74368  -0.01662   0.98877
   4.98310  -0.01662   0.98877
   4.74368  -0.01662   0.98877
   4.74368  -0.01662   0.98877
   4.74368  -0.01662   0.74935
   4.74368  -0.01662   0.74935
   4.74368  -0.01662   0.74935
   4.74368  -0.01662   0.74935
   4.74368  -0.01662   0.74935
   4.74368  -0.01662   0.74935
   4.50426  -0.01662   0.74935
   4.74368  -0.25604   0.74935
   4.50426  -0.01662   0.50993
   4.74368  -0.01662   0.74935
   4.50426  -0.01662   0.74935
   4.50426  -0.01662   0.74935
   4.50426  -0.01662   0.74935
   4.26484  -0.01662   0.50993
   4.50426  -0.01662   0.74935
   4.50426   0.22280   0.74935
   4.26484  -0.01662   0.74935
   4.26484  -0.01662   0.50993
   4.26484  -0.01662   0.50993
   4.26484  -0.01662   0.74935
   4.26484  -0.01662   0.74935
   4.26484  -0.01662   0.74935
   4.26484  -0.01662   0.74935
   4.02542  -0.01662   0.50993
   4.02542   0.22280   0.74935
   4.02542  -0.01662   0.50993
   4.02542  -0.01662   0.74935
   4.02542  -0.01662   0.50993
   4.02542  -0.01662   0.74935
   3.78600  -0.01662   0.74935
   4.02542  -0.01662   0.50993
   3.78600  -0.01662   0.50993
   3.78600  -0.01662   0.50993
   3.78600  -0.01662   0.50993
   3.54658  -0.01662   0.50993
   3.78600  -0.01662   0.50993
   3.54658   0.22280   0.50993
   3.54658  -0.01662   0.50993
   3.54658   0.22280   0.50993
   3.54658  -0.01662   0.50993
   3.54658   0.22280   0.50993
   3.30717  -0.01662   0.50993
   3.54658  -0.01662   0.50993
   3.30717   0.22280   0.50993
   3.30717  -0.01662   0.50993
   3.06775  -0.01662   0.50993
   3.30717  -0.01662   0.50993
   3.06775  -0.01662   0.50993
   3.06775  -0.01662   0.50993
   3.06775  -0.01662   0.50993
   3.06775  -0.01662   0.50993
   3.06775  -0.01662   0.74935
   3.06775  -0.01662   0.50993
   2.82833  -0.01662   0.50993
   2.82833  -0.01662   0.50993
   2.82833  -0.01662   0.50993
   2.58891   0.22280   0.50993
   2.82833  -0.01662   0.50993
   2.58891  -0.01662   0.50993
   2.58891  -0.01662   0.50993
   2.58891   0.22280   0.50993
   2.34949  -0.01662   0.74935
   2.34949  -0.01662   0.50993
   2.34949   0.22280   0.50993
   2.34949  -0.01662   0.50993
   2.34949  -0.01662   0.50993
   2.11007  -0.01662   0.50993
   2.11007  -0.01662   0.50993
   2.11007  -0.01662   0.27051
   2.11007  -0.01662   0.50993
   2.11007  -0.01662   0.50993
   1.87065  -0.01662   0.50993
   1.87065  -0.01662   0.27051
   1.87065   0.22280   0.50993
   1.87065  -0.01662   0.50993
   1.63123  -0.01662   0.27051
   1.63123  -0.01662   0.50993
   1.63123  -0.01662   0.27051
   1.63123  -0.01662   0.50993
   1.39181  -0.01662   0.50993
   1.39181  -0.01662   0.27051
   1.39181  -0.01662   0.27051
   1.15239  -0.01662   0.27051
   1.15239  -0.01662   0.27051
   1.15239  -0.01662   0.27051
   0.91298  -0.01662   0.27051
   0.91298  -0.01662   0.50993
   0.91298  -0.01662   0.27051
   0.67356  -0.01662   0.27051
   0.67356  -0.01662   0.27051
   0.67356  -0.01662   0.03109
   0.67356  -0.01662   0.27051
   0.67356  -0.01662   0.03109
   0.43414  -0.25604   0.27051
   0.43414  -0.01662   0.03109
   0.19472  -0.01662   0.03109
   0.43414  -0.01662   0.03109
   0.19472  -0.01662   0.03109
   0.19472  -0.01662   0.03109
   0.19472  -0.01662   0.03109
  -0.04470  -0.01662   0.03109
  -0.04470  -0.01662   0.03109
  -0.04470  -0.01662   0.03109
  -0.04470  -0.01662   0.03109
  -0.28412  -0.01662   0.03109
  -0.28412  -0.01662   0.03109
  -0.52354  -0.01662   0.03109
  -0.52354  -0.01662   0.03109
  -0.52354  -0.01662  -0.20833
  -0.76296  -0.01662  -0.20833
  -0.76296  -0.25604  -0.20833
  -0.76296  -0.01662  -0.20833
  -0.76296  -0.01662  -0.20833
  -1.00238  -0.01662  -0.20833
  -1.24179  -0.01662  -0.20833
  -1.00238  -0.01662  -0.20833
  -1.24179  -0.01662  -0.20833
