********************************************************************************
              CENTRO DE INSTRUMENTACION Y REGISTRO SISMICO  A.C.

    Anaxagoras 814, Col. Narvarte, Benito Juarez, C.P. 03020 Mexico, D.F.
           Tels. 5687 45 42/ 5687 45  82             Fax. 5669 25 12
********************************************************************************
ARCHIVO ESTANDAR DE ACELERACION:
VERSION DEL FORMATO                    : 2.0
NOMBRE DEL ARCHIVO                     : AE0220140418142723
FECHA Y HORA DE CREACION               : 13/MAY/14, 13:00
REF. CATALOGO ACELEROGRAMAS, SMIS 1996 : REGISTRO No.     /PAG.


================================================================================
DATOS DE LA ESTACION:
NOMBRE DE LA ESTACION                  : ESC. PRIM. "GONZÁLEZ GARZÓN"
CLAVE DE LA ESTACION                   : AE02
LOCALIZACION DE LA ESTACION            : Del. Venustiano Carranza,              
                                       : Col. El Arenal 4a. Sección,            
                                       : Calle Xico esq. con calle Xocoyote.    
                                       :                                        
                                       : 
COORDENADAS DE LA ESTACION             : 19.4290 LAT. N
                                       : 99.0584 LONG. W
ALTITUD (msnm)                         : 2232
TIPO DE SUELO                          : Arcilloso, zona lago                
                                       :                           
                                       : 
INSTITUCION RESPONSABLE                : CIRES
                                       : 

================================================================================
DATOS DEL ACELEROGRAFO:
MODELO DEL ACELEROGRAFO                : RADESD
NUMERO DE SERIE DEL ACELEROGRAFO       : 242
NUMERO DE CANALES                      : 3
ORIENTACION C1-C6 (rumbo;orientacion)  : /N00E/+V/N90W
ORIENTACION C7-C12 (rumbo;orientacion) : 
VEL. DE MUESTREO, C1-C6 (muestras/s)   : /100/100/100
VEL. DE MUESTREO, C7-C12 (muestras/s)  : 
ESC. COMPLETA DE SENSORES, C1-C6, (g)  : /0.5/0.5/0.5
ESC. COMPLETA DE SENSORES, C7-C12, (g) : 
FREC. NAT. DE SENSORES, C1-C6, (Hz)    : /30/30/30
FREC. NAT. DE SENSORES, C7-C12, (Hz)   : 
AMORTIGUAMIENTO DE SENSORES, C1-C6     : /0.733/0.750/0.700
AMORTIGUAMIENTO DE SENSORES, C7-C12    : 
INTERVALO DE MUESTREO, C1-C6, (s)      : /0.01/0.01/0.01
INTERVALO DE MUESTREO, C7-C12, (s)     : 
UMBRAL DE DISPARO, C1-C6, (Gal)        : /1.65/9.58/2.69
UMBRAL DE DISPARO, C7-C12, (Gal)       : 
MEMORIA DE PREEVENTO (s)               : 44.0
TIEMPO DE POSEVENTO (s)                : 64.0


================================================================================
DATOS DEL SISMO:
FECHA DEL SISMO (GMT)                  : 18/ABR/14
HORA EPICENTRO (GMT)                   : 14:27:23.0
MAGNITUD(ES)                           : /Mc=7.2
COORDENADAS DEL EPICENTRO              : 17.18 LAT. N
                                       : 101.19 LONG. W
PROFUNDIDAD FOCAL (km)                 : 10
FUENTE DE LOS DATOS EPICENTRALES       : SSN
                                       : INSTITUTO DE GEOFISICA, UNAM

================================================================================
DATOS DE ESTE REGISTRO:
HORA DE LA PRIMERA MUESTRA (GMT)       : 14:28:30.00
EXACTITUD DEL TIEMPO (s)               : 0.01
DURACION DEL REGISTRO (s), C1-C6       : /487.6/487.6/487.6
DURACION DEL REGISTRO (s), C7-C12      : 
NUM. TOTAL DE MUESTRAS, C1-C6          : /48760/48760/48760
NUM. TOTAL DE MUESTRAS, C7-C12         : 
ACEL. MAX. (Gal), C1-C6                : /35.0611/9.9103/34.69663
ACEL. MAX., C1-C6, EN LA MUESTRA       : /9370/8785/10500
ACEL. MAX. (Gal), C7-C12               : 
ACEL. MAX., C7-C12, EN LA MUESTRA      : 
UNIDADES DE LOS DATOS                  : Gal (cm/s/s)
FACTOR DE DECIMACION                   : 1
FORMATO DATOS (FORTRAN,10 campos/dato) : 3F10.5


================================================================================
CALIDAD DEL ACELEROGRAMA:
REGISTRO DIGITAL COMPLETO CON TIEMPO ABSOLUTO CORRECTO.


================================================================================
COMENTARIOS:














================================================================================
DATOS DE ACELERACION:
---------+---------+---------+---------+---------+---------+---------+---------+
   CANAL-1   CANAL-2   CANAL-3   CANAL-4   CANAL-5   CANAL-6   CANAL-7   CANAL-8
      N00E        +V      N90W
---------+---------+---------+---------+---------+---------+---------+---------+
[...]
  -8.27597  -4.08082  -0.78875
  -8.18619  -4.48484  -0.95335
  -8.15626  -4.93375  -0.98328
  -8.23108  -5.30785  -1.02817
  -8.36575  -5.71187  -0.92342
  -8.72489  -6.01114  -0.60918
  -9.20373  -6.25056  -0.14531
  -9.77235  -6.37027   0.39339
 -10.34097  -6.40020   0.94705
 -10.93952  -6.16078   1.50071
 -11.61289  -5.65201   2.06933
 -12.27130  -4.96368   2.69781
 -12.78006  -4.06586   3.34125
 -13.19905  -3.12314   3.99965
 -13.54322  -2.03078   4.59820
 -13.76767  -0.96836   5.19676
 -13.87242   0.07911   5.82523
 -13.76767   1.03679   6.45371
 -13.54322   2.03936   7.12708
 -13.19905   2.89229   7.75556
 -12.72021   3.65545   8.39900
 -12.18151   4.34378   8.99755
 -11.64282   4.86751   9.67092
 -11.16398   5.33139  10.38918
 -10.77492   5.70548  11.21219
 -10.55046   6.00476  12.09505
 -10.41579   6.21425  12.91806
 -10.29608   6.28907  13.63632
 -10.25119   6.24418  14.26479
 -10.25119   6.12447  14.78853
 -10.11651   5.94490  15.14766
  -9.98184   5.69052  15.28233
  -9.78731   5.40621  15.29729
  -9.45811   5.18175  15.07284
  -8.99423   5.04708  14.65385
  -8.33583   5.00218  14.04034
  -7.46793   4.98722  13.29215
  -6.45039   5.10693  12.36440
  -5.28322   5.28650  11.22715
  -4.02626   5.52592  10.00012
  -2.78427   5.73541   8.75813
  -1.58717   5.85512   7.41139
  -0.47985   5.84015   6.03473
   0.49279   5.79526   4.64310
   1.22602   5.52592   3.38614
   1.82457   5.18175   2.29379
   2.21362   4.73284   1.32114
   2.42312   4.14925   0.40835
   2.43808   3.55070  -0.47451
   2.33333   2.96711  -1.32744
   2.12384   2.41345  -2.04571
   1.80960   1.91965  -2.65922
   1.37565   1.45577  -3.13806
   0.74718   0.96197  -3.33259
   0.07381   0.48313  -3.43733
  -0.40503   0.03422  -3.69172
  -0.62949  -0.56434  -3.97603
  -0.61453  -1.16289  -4.27531
  -0.44993  -1.79136  -4.94867
  -0.27036  -2.56948  -5.84650
  -0.36014  -3.60198  -6.34030
  -0.55467  -4.60455  -6.35527
  -0.28532  -5.36770  -6.28045
   0.20848  -6.11589  -6.38520
   0.41797  -6.81919  -6.40016
   0.34315  -7.52248  -6.19067
   0.29826  -8.10607  -5.92132
   0.26833  -8.49513  -5.57715
   0.08877  -8.68966  -5.23299
  -0.16561  -8.83929  -4.84393
  -0.24043  -8.97397  -4.49976
  -0.25540  -8.97397  -4.18552
  -0.25540  -8.86922  -4.03589
  -0.15065  -8.59987  -4.09574
   0.07381  -8.21082  -4.18552
   0.46286  -7.61227  -4.43991
   0.94170  -7.04364  -4.78407
   1.57018  -6.51991  -5.20306
   2.40815  -6.16078  -5.66694
   3.38080  -5.98122  -6.25052
   4.50308  -5.90640  -6.72936
   5.71514  -5.92136  -7.13338
   7.04692  -6.05604  -7.44762
   8.31884  -6.26553  -7.79179
   9.66558  -6.44509  -8.07610
  11.20684  -6.60969  -8.21077
  12.65833  -6.74437  -8.31552
  14.03499  -6.84911  -8.43523
  15.48648  -6.87904  -8.59983
  16.78833  -6.77430  -8.58487
  17.77593  -6.54984  -8.37538
  18.64383  -6.19071  -8.19581
  19.37706  -5.74180  -7.95639
  19.81101  -5.29288  -7.68704
  19.97561  -4.88886  -7.32791
  20.11028  -4.49980  -6.96878
  20.18510  -4.06586  -6.57972
  20.18510  -3.57205  -6.14578
  20.22999  -3.04832  -5.75672
  20.20006  -2.47970  -5.30780
  20.24496  -1.89611  -4.85889
  20.30481  -1.32749  -4.36509
  20.40956  -0.65412  -3.90121
  20.46941   0.12400  -3.46726
  20.52927   1.00686  -3.04828
  20.57416   1.84483  -2.55447
  20.52927   2.66784  -2.03074
  20.43948   3.41603  -1.49205
  20.12524   4.16421  -0.98328
  19.60151   4.83758  -0.32487
  18.82340   5.30146   0.43828
  17.89564   5.66059   1.18647
  16.77336   5.88505   2.00947
  15.38173   6.04965   2.77263
  13.70579   6.13943   3.52081
  11.91014   6.24418   4.28397
   9.97982   6.24418   5.04712
   8.03453   6.22921   5.81027
   5.98449   6.15439   6.60335
   3.99431   6.10950   7.41139
   2.00413   6.03468   8.11469
   0.16359   6.00476   8.77309
  -1.48243   5.94490   9.34172
  -2.82916   5.88505   9.82056
  -4.01130   5.91497  10.16472
  -5.10366   6.03468  10.35925
  -6.00148   6.12447  10.43407
  -6.52521   6.16936  10.43407
  -6.77960   6.10950  10.26947
  -6.95916   6.00476  10.07494
  -7.18362   5.87008   9.95523
  -7.49786   5.75037   9.83552
  -8.11137   5.66059   9.79063
  -8.91941   5.64563   9.80559
  -9.89206   5.84015   9.83552
 -11.01434   6.04965  10.01509
 -12.37604   6.21425  10.44903
 -13.88738   6.27410  10.82313
 -15.38376   6.30403  10.86802
 -16.59582   6.33396  10.67349
 -17.71811   6.28907  10.20961
 -18.66082   6.16936   9.44646
 -19.48383   5.97483   8.32418
 -19.94771   5.73541   6.99241
 -20.11231   5.52592   5.43618
 -20.06742   5.28650   3.76023
 -19.87289   5.00218   2.05437
 -19.51376   4.61313   0.30361
 -18.90024   4.14925  -1.29752
 -18.12213   3.58063  -2.77893
 -17.22430   2.78755  -3.99099
 -16.26662   1.94958  -4.99357
 -15.09945   1.03679  -5.66694
 -13.78264   0.07911  -5.90636
 -12.92970  -0.89354  -5.72679
 -12.06180  -1.89611  -5.30780
 -11.05923  -2.88372  -4.67933
  -9.93695  -3.78154  -3.96107
  -8.79970  -4.54470  -3.25777
  -7.63253  -5.21806  -2.61433
  -6.30076  -5.78669  -2.24023
  -4.81934  -6.22064  -2.12052
  -3.33793  -6.51991  -1.94096
  -1.73681  -6.65459  -1.88110
  -0.01598  -6.66955  -1.97089
   1.86946  -6.63962  -2.16542
   3.63518  -6.62466  -2.40484
   5.31112  -6.65459  -2.61433
   6.82246  -6.68451  -2.65922
   8.39366  -6.75933  -2.49462
  10.17434  -6.90897  -2.16542
  11.82036  -7.07357  -1.73147
  13.03242  -7.28306  -1.31248
  13.94521  -7.32795  -0.83364
  14.63354  -7.28306  -0.33984
  15.23210  -7.22321  -0.04056
  15.66604  -7.16335   0.10908
  15.96532  -7.05861   0.34850
  16.24963  -6.93890   0.57295
  16.59380  -6.89401   0.43828
  17.10257  -6.93890   0.31857
  17.37191  -6.72940   0.13900
  17.16242  -6.50495  -0.13034
  16.93796  -6.25056  -0.22013
  17.40184  -5.96625  -0.01063
  18.22485  -6.05604   0.27368
  18.65880  -6.19071   0.34850
  18.98800  -6.34035   0.45324
  19.04785  -6.43013   0.60288
  18.77851  -6.35531   0.72259
  18.80843  -6.19071   0.99194
  18.83836  -6.07100   1.44085
  18.38945  -5.74180   1.59049
  17.95550  -5.08339   1.69524
  17.73104  -4.32024   2.09926
  17.43177  -3.37752   2.62299
  17.01278  -2.18042   3.11679
  16.60876  -0.99828   3.70038
  16.12992   0.15393   4.31389
  15.53137   1.21635   4.85259
  14.91786   2.27878   5.40625
  14.30434   3.20653   5.85516
  13.64594   4.13429   6.22925
  12.89775   5.01715   6.45371
  12.16452   5.81023   6.51357
  11.44626   6.46863   6.46867
  10.83275   6.97740   6.33400
  10.24916   7.30660   6.04969
   9.78529   7.47120   5.61574
   9.23163   7.60588   5.33143
   8.60315   7.56099   5.07704
   8.09438   7.39639   4.70295
   7.67540   7.21682   4.38871
   7.37612   7.02229   4.22411
   7.24145   6.87265   4.19418
   7.33123   6.63323   4.25404
   7.67540   6.36389   4.25404
   8.04949   6.04965   4.23907
   8.61811   5.75037   4.25404
   9.35134   5.33139   4.35878
  10.12945   4.88247   4.58324
  10.95246   4.46349   4.92741
  11.73058   4.02954   5.31647
  12.41891   3.56566   5.79531
  12.97257   3.08682   6.31904
  13.31673   2.65287   6.87270
  13.57112   2.17403   7.51614
  13.63097   1.82987   8.17454
  13.52623   1.57548   8.87784
  13.30177   1.50066   9.64099
  12.88278   1.50066  10.41911
  12.43387   1.69519  11.24211
  11.88021   1.97950  12.03519
  11.07217   2.38353  12.85820
  10.08456   2.90726  13.60639
   8.99221   3.44595  14.23487
   7.88489   3.96968  14.77356
   6.67282   4.43356  15.13269
   5.31112   4.73284  15.47686
   3.79978   4.83758  15.65642
   2.07895   4.86751  15.79110
   0.29826   4.83758  15.92577
  -1.34775   4.70291  16.12030
  -2.81420   4.49342  16.31483
  -4.20583   4.22407  16.46447
  -5.40293   3.83501  16.55425
  -6.49528   3.32624  16.55425
  -7.46793   2.84740  16.35972
  -8.35079   2.50324  16.00059
  -9.09898   2.17403  15.53671
  -9.72746   1.90469  14.93816
 -10.17637   1.60541  14.26479
 -10.59536   1.32110  13.68121
 -10.87967   0.97693  13.30711
 -10.93952   0.67766  13.08266
 -10.87967   0.52802  12.97791
 -10.70010   0.52802  12.87316
 -10.38586   0.60284  12.81331
 -10.01177   0.64773  12.75345
  -9.54789   0.69262  12.82827
  -8.99423   0.69262  12.97791
  -8.47050   0.70758  13.20237
  -7.97670   0.63277  13.53157
  -7.52778   0.46816  13.99545
  -7.19858   0.19882  14.62392
  -6.92923  -0.17528  15.25240
  -6.68981  -0.60923  15.82102
  -6.28579  -1.13296  16.34476
  -5.79199  -1.68662  16.73381
  -5.23833  -2.33006  16.98820
  -4.68467  -3.00343  17.22762
  -4.26568  -3.67680  17.36229
  -3.81677  -4.32024  17.34733
  -3.21822  -4.82901  17.18273
  -2.51492  -5.23303  16.85352
  -1.79666  -5.56223  16.53929
  -1.00358  -5.81661  16.18016
  -0.19554  -6.05604  15.73124
   0.46286  -6.11589  15.20751
   1.22602  -6.05604  14.72867
   2.03406  -5.95129  14.27976
   2.91692  -5.80165  13.92063
   3.84467  -5.60712  13.57646
   4.72754  -5.39763  13.20237
   5.65529  -5.18814  12.87316
   6.58304  -4.96368  12.54396
   7.58561  -4.82901  12.06512
   8.55826  -4.75419  11.45161
   9.35134  -4.70930  10.64356
  10.20427  -4.60455   9.58114
  11.04224  -4.52973   8.14462
  11.83532  -4.52973   6.45371
  12.38898  -4.49980   4.65806
  12.77804  -4.41002   2.90730
  13.00250  -4.17060   1.29121
  13.07731  -3.73665  -0.20516
  13.06235  -3.21292  -1.49205
  13.04739  -2.59941  -2.67418
  13.01746  -2.04575  -3.70668
  12.92768  -1.49209  -4.51473
  12.58351  -0.84865  -5.06838
  12.07474  -0.19024  -5.42751
  11.46123   0.39335  -5.71183
  10.66815   0.94700  -5.95125
   9.78529   1.38095  -6.31038
   8.88746   1.60541  -6.96878
   7.84000   1.72512  -7.82172
   6.64290   1.72512  -8.77940
   5.47572   1.72512 -10.00643
   4.29359   1.60541 -11.56266
   3.09649   1.39592 -13.38824
   1.97420   1.06671 -15.22878
   0.74718   0.60284 -17.30874
  -0.46489  -0.02564 -19.04454
  -1.70688  -0.62419 -20.66062
  -2.93391  -1.28260 -22.26175
  -4.32554  -1.98589 -23.56359
  -5.85184  -2.67423 -24.52127
  -7.37815  -3.27278 -25.23953
  -8.88949  -3.75162 -25.94283
 -10.35593  -4.43995 -26.61620
 -11.82238  -5.24799 -26.97533
 -13.37861  -5.95129 -27.08008
 -15.11441  -6.56480 -27.15489
 -16.77539  -6.98379 -27.40928
 -18.66082  -7.25314 -27.49906
 -20.74078  -7.26810 -27.15489
 -22.76089  -7.02868 -26.54138
 -23.88317  -6.78926 -26.00269
 -24.01785  -6.57977 -25.49392
 -23.97296  -6.37027 -24.71580
 -24.21238  -5.93633 -23.80301
 -24.63136  -5.38267 -22.77051
 -25.12517  -4.93375 -21.19932
 -25.84343  -4.41002 -19.19417
 -26.71132  -3.85636 -17.27881
 -27.51937  -3.36256 -15.55798
 -28.28252  -2.74904 -13.68751
 -29.07560  -2.15049 -11.89186
 -29.88364  -1.73151 -10.26081
 -30.51212  -1.40231  -8.30056
 -31.14060  -1.13296  -6.34030
 -31.96360  -0.68405  -4.66436
 -32.99610  -0.10046  -3.42237
 -33.98371   0.45320  -2.94353
 -34.65708   0.90211  -3.39244
 -35.00125   1.32110  -4.39502
 -35.06110   1.77001  -5.53226
 -34.88154   2.17403  -6.66951
 -34.31292   2.51820  -7.71697
 -33.54976   2.72769  -8.80932
 -32.53223   2.83244  -9.76701
 -31.11067   2.84740 -10.29074
 -29.43473   2.87733 -10.30570
 -27.98324   2.98208 -10.14110
 -26.96571   3.11675 -10.08124
 -26.14270   3.34121 -10.03635
 -25.31970   3.56566  -9.93161
 -24.42187   3.80508  -9.67722
 -23.35944   3.99961  -9.22831
 -22.04263   4.28392  -8.43523
 -20.53129   4.67298  -7.67208
 -19.00499   4.98722  -7.17827
 -17.50861   5.21168  -7.07353
 -16.16187   5.45110  -7.10346
 -14.33630   5.73541  -7.02864
 -12.43590   6.03468  -6.95382
 -10.77492   6.34892  -7.01367
  -8.82963   6.60331  -6.89396
  -6.86938   6.84273  -6.75929
  -4.99891   7.11207  -6.48994
  -3.20326   7.27668  -5.86146
  -1.63206   7.51610  -5.09831
  -0.40503   7.95004  -4.43991
   0.55265   8.27925  -4.00596
   1.42054   8.44385  -3.76654
   2.39319   8.48874  -3.72165
   3.23116   8.36903  -3.64683
   3.87460   8.12961  -3.49719
   4.27862   7.92012  -3.31762
   4.45819   7.63581  -3.15302
   4.48812   7.35149  -3.04828
   4.60783   7.02229  -3.06324
   5.07170   6.48360  -3.10813
   5.56551   5.88505  -3.16799
   5.90967   5.31642  -3.22784
   5.99946   4.94233  -3.36252
   5.83485   4.73284  -3.55704
   5.59543   4.64305  -3.76654
   5.41587   4.76276  -3.81143
   5.47572   5.09197  -3.75157
   5.62536   5.54088  -3.69172
   5.76004   6.07957  -3.72165
   5.83485   6.63323  -3.96107
   5.90967   7.15697  -4.18552
   5.96953   7.57595  -4.36509
   5.96953   7.86026  -4.52969
   5.89471   8.00990  -4.67933
   5.76004   7.97997  -4.79904
   5.64032   7.83033  -4.93371
   5.50565   7.45624  -4.97860
   5.28119   7.05222  -4.96364
   5.07170   6.51352  -4.90378
   4.84725   5.94490  -4.75415
   4.63775   5.33139  -4.43991
   4.41330   4.64305  -4.09574
   4.14395   3.92479  -3.67675
   3.84467   3.23646  -3.27273
   3.60525   2.57805  -2.71907
   3.42569   1.97950  -2.10556
   3.15634   1.45577  -1.49205
   2.85707   0.94700  -0.83364
   2.73736   0.46816  -0.29495
   2.96181   0.00429   0.06419
   3.54540  -0.45959   0.18390
   4.44322  -0.78879   0.15397
   5.58047  -1.04318   0.01929
   6.74764  -1.22274  -0.17523
   7.95971  -1.38734  -0.41466
   9.08199  -1.55194  -0.66904
  10.17434  -1.73151  -0.84860
  11.26670  -1.94100  -0.98328
  12.34409  -2.27020  -0.98328
  13.30177  -2.62933  -0.95335
  13.99010  -2.98846  -0.83364
  14.46894  -3.37752  -0.63911
  14.91786  -3.64687  -0.50444
  15.39670  -3.93118  -0.33984
  15.65108  -4.21549   0.00433
  15.41166  -4.46988   0.31857
  15.02260  -4.60455   0.37842
  14.69340  -4.63448   0.36346
  14.27441  -4.69433   0.30361
  13.75068  -4.70930   0.09411
  13.33170  -4.79908  -0.17523
  12.94264  -4.90383  -0.56429
  12.59847  -4.90383  -0.99824
  12.40394  -4.76915  -1.52197
  12.11963  -4.63448  -2.10556
  11.80539  -4.42499  -2.62929
  11.59590  -4.14067  -3.00339
  11.16195  -3.88629  -3.27273
  10.63822  -3.79651  -3.49719
  10.08456  -3.75162  -3.63186
   9.54587  -3.88629  -3.61690
   9.05206  -4.06586  -3.51215
   8.66300  -4.14067  -3.36252
   8.42358  -4.17060  -3.22784
   8.19913  -4.08082  -3.19791
   7.98964  -3.88629  -3.22784
   7.84000  -3.82643  -3.43733
   7.69036  -3.81147  -3.78150
   7.52576  -3.87133  -4.35012
   7.30130  -3.97607  -5.09831
   7.04692  -4.02096  -5.84650
   6.71772  -4.17060  -6.56476
   6.40348  -4.36513  -7.47755
   6.05931  -4.60455  -8.64472
   5.64032  -4.84397  -9.81190
   5.13156  -5.09835 -10.69476
   4.68264  -5.41259 -11.38309
   4.11402  -5.84654 -11.93675
   3.42569  -6.32538 -12.37070
   2.57275  -6.92393 -12.52034
   1.55522  -7.52248 -12.50537
   0.38805  -8.15096 -12.32581
  -0.91380  -8.68966 -11.95171
  -2.30543  -9.06375 -11.47287
  -3.59232  -9.28821 -11.00900
  -4.78942  -9.45281 -10.44037
  -5.92666  -9.64734  -9.75204
  -7.01902  -9.76705  -9.00385
  -8.12633  -9.76705  -8.18085
  -9.14387  -9.63237  -7.35784
 -10.04170  -9.27324  -6.57972
 -10.81981  -8.74951  -5.75672
 -11.49318  -8.07614  -4.94867
 -11.97202  -7.41774  -4.32020
 -12.28626  -6.62466  -3.67675
 -12.42093  -5.81661  -3.01835
 -12.46583  -5.14325  -2.40484
 -12.52568  -4.55966  -1.85118
 -12.52568  -3.97607  -1.38730
 -12.45086  -3.49723  -0.93839
 -12.42093  -3.04832  -0.57926
 -12.39101  -2.65926  -0.22013
 -12.31619  -2.28517   0.10908
 -12.16655  -1.91107   0.30361
 -12.00195  -1.53698   0.39339
 -11.83735  -1.17785   0.37842
 -11.56800  -0.80376   0.36346
 -11.16398  -0.51944   0.28864
 -10.67017  -0.22017   0.25871
 -10.02673   0.09407   0.19886
  -9.20373   0.51306   0.28864
  -8.27597   0.99190   0.51310
