********************************************************************************
               CENTRO DE INSTRUMENTACION Y REGISTRO SISMICO  A.C.  
                       Coordinacion de Servicios Tecnicos
     Anaxagoras 814, Col. Narvarte, Benito Juarez, C.P. 03020 Mexico, D.F.
            Tels. 687 45 42/ 687 45  82             Fax. 669 25 12
********************************************************************************
ARCHIVO ESTANDAR DE ACELERACION:
VERSION DEL FORMATO                    : 2.0
NOMBRE DEL ARCHIVO                     : AE020401.011
FECHA Y HORA DE CREACION               : 08/NOV/04, 10:00
REF. CATALOGO ACELEROGRAMAS, SMIS 1996 : REGISTRO No.     /PAG.


================================================================================
DATOS DE LA ESTACION:
NOMBRE DE LA ESTACION                  : AEROPUERTO
CLAVE DE LA ESTACION                   : AE02
LOCALIZACION DE LA ESTACION            : Esc Prim Gonzalez Garzon Calle Xico
                                       : s/n, Col. IV Seccion del Arenal
                                       : Venustiano Carranza
                                       :
                                       :
COORDENADAS DE LA ESTACION             : 19.429 LAT. N 
                                       : 99.058 LONG. W 
ALTITUD (msnm)                         : 2232
TIPO DE SUELO                          : ARCILLOSO, ZONA LAGO
                                       : 
                                       : 
INSTITUCION RESPONSABLE                : CIRES
                                       :

================================================================================
DATOS DEL ACELEROGRAFO:
MODELO DEL ACELEROGRAFO                : RAD-851
NUMERO DE SERIE DEL ACELEROGRAFO       : 242
NUMERO DE CANALES                      : 3
ORIENTACION C1-C6 (rumbo;orientacion)  : /N00E/+V/N90W
ORIENTACION C7-C12 (rumbo;orientacion) :
VEL. DE MUESTREO, C1-C6 (muestras/s)   : /100/100/100
VEL. DE MUESTREO, C7-C12 (muestras/s)  :
ESC. COMPLETA DE SENSORES, C1-C6, (g)  : /0.5/0.5/0.5
ESC. COMPLETA DE SENSORES, C7-C12, (g) :
FREC. NAT. DE SENSORES, C1-C6, (Hz)    : /30/30/30
FREC. NAT. DE SENSORES, C7-C12, (Hz)   :
AMORTIGUAMIENTO DE SENSORES, C1-C6     : /0.733/0.750/0.700
AMORTIGUAMIENTO DE SENSORES, C7-C12    :
INTERVALO DE MUESTREO, C1-C6, (s)      : /0.01/0.01/0.01
INTERVALO DE MUESTREO, C7-C12, (s)     :
UMBRAL DE DISPARO, C1-C6, (Gal)        : /1.99/3.91/1.99
UMBRAL DE DISPARO, C7-C12, (Gal)       :
MEMORIA DE PREEVENTO (s)               : 24
TIEMPO DE POSEVENTO (s)                : 64


================================================================================
DATOS DEL SISMO:
FECHA DEL SISMO (GMT)                  : 01/ENE/04
HORA EPICENTRO (GMT)                   : 23:31:49:0
MAGNITUD(ES)                           : /Ms=6.3
COORDENADAS DEL EPICENTRO              : 17.31 LAT. N
                                       : -101.42 LONG. W
PROFUNDIDAD FOCAL (km)                 : 10.0
FUENTE DE LOS DATOS EPICENTRALES       : SSN
                                       : INSTITUTO DE GEOFISICA, UNAM

================================================================================
DATOS DE ESTE REGISTRO:
HORA DE LA PRIMERA MUESTRA (GMT)       : 23:33:29.00
EXACTITUD DEL TIEMPO (s)               : 0.01
DURACION DEL REGISTRO (s), C1-C6       : /169.25/169.25/169.25
DURACION DEL REGISTRO (s), C7-C12      :
NUM. TOTAL DE MUESTRAS, C1-C6          : /16925/16925/16925
NUM. TOTAL DE MUESTRAS, C7-C12         :
ACEL. MAX. (Gal), C1-C6                : /-7.68114/2.59665/6.23779
ACEL. MAX., C1-C6, EN LA MUESTRA       :
ACEL. MAX. (Gal), C7-C12               :
ACEL. MAX., C7-C12, EN LA MUESTRA      :
UNIDADES DE LOS DATOS                  : Gal (cm/s/s)
FACTOR DE DECIMACION                   : 1
FORMATO DATOS (FORTRAN,10 campos/dato) : 3F10.5


================================================================================
CALIDAD DEL ACELEROGRAMA:
REGISTRO DIGITAL COMPLETO CON TIEMPO ABSOLUTO CORRECTO.


================================================================================
COMENTARIOS:














================================================================================
DATOS DE ACELERACION:
---------+---------+---------+---------+---------+---------+---------+---------+
   CANAL-1   CANAL-2   CANAL-3   CANAL-4   CANAL-5   CANAL-6   CANAL-7   CANAL-8
      N00E        +V      N90W
---------+---------+---------+---------+---------+---------+---------+---------+
[...]
  -0.97741  -0.75522   1.21000
  -0.97741  -0.51580   0.97058
  -0.97741  -0.75522   0.73116
  -1.21683  -0.75522   0.97058
  -1.21683  -0.75522   0.97058
  -1.21683  -0.75522   0.73116
  -1.21683  -0.75522   0.73116
  -1.45625  -0.75522   0.73116
  -1.45625  -0.51580   0.49174
  -1.45625  -0.51580   0.49174
  -1.45625  -0.51580   0.49174
  -1.45625  -0.51580   0.49174
  -1.45625  -0.51580   0.49174
  -1.45625  -0.75522   0.73116
  -1.21683  -0.51580   0.49174
  -1.21683  -0.51580   0.49174
  -1.45625  -0.51580   0.49174
  -1.21683  -0.51580   0.49174
  -1.21683  -0.51580   0.25232
  -0.97741  -0.51580   0.49174
  -0.73799  -0.27638   0.49174
  -0.49857  -0.27638   0.49174
  -0.49857  -0.03696   0.49174
  -0.25915  -0.03696   0.49174
  -0.25915  -0.03696   0.49174
  -0.01973  -0.03696   0.49174
  -0.01973   0.20246   0.49174
  -0.01973   0.20246   0.49174
  -0.01973   0.20246   0.49174
   0.45910   0.20246   0.25232
   0.45910   0.20246   0.25232
   0.45910   0.20246   0.25232
   0.45910   0.20246   0.01290
   0.45910   0.20246   0.01290
   0.45910   0.20246  -0.22652
   0.45910   0.20246  -0.22652
   0.69852   0.20246  -0.22652
   0.45910   0.20246  -0.22652
   0.21969  -0.03696  -0.22652
   0.45910   0.20246  -0.46594
   0.21969   0.20246  -0.46594
   0.21969   0.20246  -0.46594
   0.21969   0.44187  -0.70536
  -0.01973   0.44187  -0.70536
  -0.01973   0.44187  -0.46594
  -0.01973   0.68129  -0.46594
  -0.25915   0.68129  -0.70536
  -0.25915   0.68129  -0.46594
  -0.25915   0.68129  -0.46594
  -0.25915   0.68129  -0.70536
  -0.25915   0.68129  -0.70536
  -0.49857   0.68129  -0.70536
  -0.49857   0.44187  -0.70536
  -0.49857   0.44187  -0.70536
  -0.49857   0.44187  -0.70536
  -0.49857   0.44187  -0.70536
  -0.73799   0.20246  -0.94477
  -0.73799   0.20246  -0.94477
  -0.97741   0.20246  -0.94477
  -0.97741   0.20246  -1.18419
  -0.97741  -0.03696  -1.18419
  -0.97741  -0.03696  -1.18419
  -1.21683   0.20246  -1.18419
  -1.21683   0.20246  -1.18419
  -0.97741   0.20246  -1.18419
  -0.73799   0.20246  -1.18419
  -0.97741   0.44187  -1.18419
  -0.97741   0.44187  -1.18419
  -0.73799   0.20246  -1.18419
  -0.73799   0.20246  -1.18419
  -0.49857   0.20246  -1.18419
  -0.49857   0.44187  -1.18419
  -0.25915   0.20246  -1.18419
  -0.25915   0.20246  -1.18419
  -0.49857   0.20246  -1.18419
  -0.25915   0.20246  -1.18419
  -0.49857  -0.03696  -1.18419
  -0.73799  -0.03696  -1.18419
  -0.73799   0.20246  -1.18419
  -0.97741  -0.03696  -1.18419
  -0.73799  -0.03696  -0.94477
  -0.97741  -0.03696  -1.18419
  -1.21683  -0.03696  -0.94477
  -1.21683  -0.03696  -0.94477
  -1.21683  -0.03696  -0.94477
  -1.21683  -0.03696  -0.94477
  -1.21683   0.20246  -0.94477
  -1.21683   0.20246  -0.94477
  -1.45625   0.20246  -0.94477
  -1.21683   0.20246  -0.94477
  -1.21683   0.44187  -0.70536
  -1.21683   0.44187  -0.46594
  -1.21683   0.44187  -0.46594
  -0.97741   0.20246  -0.46594
  -0.97741   0.44187  -0.22652
  -0.73799   0.20246  -0.22652
  -0.73799  -0.03696  -0.22652
  -0.49857  -0.03696  -0.22652
  -0.49857  -0.03696   0.01290
  -0.49857  -0.27638   0.25232
  -0.49857  -0.51580   0.25232
  -0.25915  -0.27638   0.25232
  -0.25915  -0.27638   0.25232
  -0.25915  -0.03696   0.25232
  -0.25915  -0.27638   0.49174
  -0.25915  -0.03696   0.49174
  -0.01973   0.20246   0.49174
  -0.01973  -0.03696   0.49174
  -0.01973  -0.03696   0.49174
  -0.25915  -0.03696   0.73116
  -0.25915   0.20246   0.73116
  -0.25915   0.20246   0.73116
  -0.25915   0.20246   0.73116
  -0.49857  -0.03696   0.73116
  -0.73799   0.20246   0.73116
  -0.73799   0.20246   0.73116
  -0.73799   0.20246   0.73116
  -0.97741  -0.03696   0.97058
  -1.21683   0.20246   0.97058
  -1.21683   0.20246   0.97058
  -1.21683   0.20246   0.73116
  -1.21683   0.44187   0.73116
  -1.45625   0.68129   0.73116
  -1.21683   0.44187   0.97058
  -1.21683   0.68129   0.97058
  -1.21683   0.68129   0.97058
  -1.21683   0.68129   0.97058
  -1.21683   0.68129   1.21000
  -1.21683   0.44187   1.44941
  -0.97741   0.44187   1.44941
  -1.21683   0.68129   1.44941
  -0.97741   0.44187   1.68883
  -0.73799   0.44187   1.44941
  -0.73799   0.20246   1.68883
  -0.73799   0.20246   1.68883
  -0.49857   0.44187   1.68883
  -0.49857   0.20246   1.44941
  -0.73799   0.20246   1.44941
  -0.73799   0.20246   1.44941
  -0.49857   0.44187   1.21000
  -0.49857   0.44187   1.21000
  -0.49857   0.68129   0.97058
  -0.49857   0.68129   0.73116
  -0.49857   0.44187   0.97058
  -0.49857   0.44187   0.73116
  -0.49857   0.44187   0.73116
  -0.73799   0.44187   0.73116
  -0.73799   0.20246   0.73116
  -0.97741  -0.03696   0.73116
  -1.21683   0.20246   0.73116
  -1.21683  -0.03696   0.73116
  -1.21683  -0.03696   0.49174
  -1.45625  -0.03696   0.73116
  -1.45625  -0.27638   0.73116
  -1.69567  -0.27638   0.73116
  -1.69567  -0.51580   0.49174
  -1.93509  -0.27638   0.25232
  -1.93509  -0.51580   0.25232
  -1.69567  -0.51580   0.25232
  -1.69567  -0.75522   0.01290
  -1.69567  -0.51580  -0.22652
  -1.69567  -0.51580  -0.22652
  -1.69567  -0.51580  -0.22652
  -1.45625  -0.75522  -0.46594
  -1.21683  -0.75522  -0.70536
  -1.21683  -0.75522  -0.70536
  -1.21683  -0.75522  -0.70536
  -1.21683  -0.75522  -0.94477
  -1.21683  -0.75522  -0.94477
  -1.21683  -0.75522  -0.94477
  -0.97741  -0.99464  -0.94477
  -1.21683  -0.99464  -0.94477
  -1.21683  -0.99464  -1.18419
  -1.21683  -0.99464  -1.18419
  -1.21683  -0.99464  -0.94477
  -1.21683  -0.99464  -0.94477
  -0.97741  -0.99464  -1.18419
  -0.97741  -0.99464  -1.18419
  -0.97741  -0.99464  -0.94477
  -0.97741  -0.75522  -0.94477
  -0.73799  -0.75522  -0.94477
  -0.97741  -0.51580  -1.18419
  -0.73799  -0.75522  -1.18419
  -0.97741  -0.75522  -1.18419
  -0.49857  -0.51580  -1.18419
  -0.49857  -0.51580  -1.18419
  -0.49857  -0.51580  -1.18419
  -0.25915  -0.75522  -1.18419
  -0.25915  -0.51580  -1.18419
  -0.01973  -0.75522  -1.18419
  -0.01973  -0.75522  -1.18419
   0.45910  -0.51580  -1.18419
   0.69852  -0.51580  -1.42361
   0.69852  -0.27638  -1.42361
   0.93794  -0.51580  -1.18419
   1.17736  -0.51580  -1.18419
   1.41678  -0.03696  -1.18419
   1.41678   0.20246  -1.18419
   1.65620  -0.03696  -1.18419
   1.65620   0.20246  -0.94477
   1.65620   0.20246  -0.94477
   1.89562   0.44187  -0.70536
   1.89562   0.68129  -0.70536
   1.89562   0.68129  -0.46594
   1.89562   0.68129  -0.46594
   2.13504   0.68129  -0.22652
   2.13504   0.92071  -0.22652
   2.13504   0.68129  -0.22652
   2.13504   0.68129  -0.22652
   2.37446   0.68129   0.01290
   2.37446   0.92071   0.01290
   2.61387   0.68129   0.01290
   2.37446   0.92071   0.01290
   2.61387   0.68129   0.25232
   2.61387   0.68129   0.01290
   2.61387   0.92071   0.25232
   2.61387   0.68129   0.01290
   2.85329   0.68129   0.25232
   2.85329   0.68129   0.25232
   2.85329   0.68129   0.49174
   2.61387   0.68129   0.25232
   2.61387   0.68129   0.49174
   2.61387   0.44187   0.73116
   2.61387   0.44187   0.73116
   2.37446   0.68129   0.97058
   2.13504   0.68129   0.97058
   1.89562   0.44187   0.97058
   2.13504   0.68129   1.44941
   1.89562   0.68129   1.21000
   1.89562   0.92071   1.21000
   1.89562   0.68129   1.44941
   1.89562   0.68129   1.44941
   1.89562   0.44187   1.44941
   1.89562   0.68129   1.21000
   1.65620   0.44187   1.21000
   1.65620   0.44187   0.73116
   1.65620   0.44187   0.73116
   1.41678   0.44187   0.73116
   1.41678   0.44187   0.73116
   1.17736   0.20246   0.73116
   0.93794   0.20246   0.49174
   0.69852   0.20246   0.49174
   0.45910   0.20246   0.49174
   0.21969   0.20246   0.49174
  -0.25915   0.20246   0.49174
  -0.73799   0.20246   0.49174
  -0.97741   0.20246   0.49174
  -0.97741   0.20246   0.49174
  -1.21683   0.20246   0.25232
  -1.45625   0.20246   0.49174
  -1.93509  -0.03696   0.25232
  -1.93509  -0.27638   0.25232
  -2.17450  -0.03696   0.25232
  -2.41392  -0.03696   0.01290
  -2.41392  -0.03696   0.01290
  -2.65334  -0.27638   0.01290
  -2.89276  -0.51580  -0.22652
  -2.89276  -0.51580  -0.22652
  -3.13218  -0.51580  -0.22652
  -3.13218  -0.51580  -0.46594
  -3.37160  -0.51580  -0.46594
  -3.37160  -0.75522  -0.46594
  -3.37160  -0.75522  -0.46594
  -3.37160  -0.75522  -0.70536
  -3.37160  -0.51580  -0.70536
  -3.37160  -0.75522  -0.70536
  -3.13218  -0.75522  -0.70536
  -2.89276  -0.99464  -0.70536
  -2.89276  -0.99464  -0.46594
  -2.65334  -0.99464  -0.46594
  -2.41392  -0.99464  -0.70536
  -2.17450  -0.99464  -0.70536
  -1.69567  -1.23406  -0.70536
  -1.45625  -1.23406  -0.46594
  -1.21683  -1.23406  -0.70536
  -0.73799  -1.23406  -0.70536
  -0.49857  -1.23406  -0.70536
  -0.01973  -1.23406  -0.70536
   0.21969  -1.23406  -0.70536
   0.69852  -1.23406  -0.70536
   1.17736  -0.99464  -0.70536
   1.17736  -0.99464  -0.70536
   1.65620  -0.99464  -0.70536
   2.13504  -1.23406  -0.94477
   2.61387  -0.75522  -0.70536
   2.85329  -0.99464  -0.70536
   3.09271  -0.75522  -0.70536
   3.57155  -0.75522  -0.70536
   3.81097  -0.75522  -0.70536
   4.05039  -0.75522  -0.70536
   4.28981  -0.75522  -0.70536
   4.52923  -0.75522  -0.70536
   4.76865  -0.75522  -0.70536
   5.00806  -0.75522  -0.22652
   5.00806  -0.51580  -0.46594
   5.00806  -0.75522  -0.22652
   5.00806  -0.75522  -0.22652
   5.24748  -0.51580   0.25232
   5.24748  -0.51580   0.25232
   5.48690  -0.27638   0.25232
   5.24748  -0.03696   0.49174
   5.48690  -0.03696   0.73116
   5.72632   0.20246   0.73116
   5.72632   0.20246   0.73116
   5.48690   0.20246   0.73116
   5.48690   0.20246   0.97058
   5.72632   0.20246   0.97058
   5.72632   0.20246   0.97058
   5.48690   0.44187   1.21000
   5.24748   0.20246   1.21000
   5.24748   0.20246   1.44941
   5.24748   0.20246   1.44941
   5.00806   0.44187   1.44941
   4.52923   0.44187   1.68883
   4.28981   0.20246   1.68883
   4.28981   0.44187   1.92825
   3.81097   0.68129   1.68883
   3.33213   0.68129   1.68883
   3.09271   0.68129   1.68883
   2.85329   0.92071   1.92825
   2.61387   0.92071   1.92825
   2.13504   0.92071   1.92825
   1.65620   0.92071   1.92825
   1.17736   0.92071   1.92825
   0.69852   0.92071   1.92825
   0.21969   0.92071   1.68883
  -0.25915   0.92071   1.68883
  -0.73799   0.92071   1.68883
  -1.21683   0.68129   1.68883
  -1.69567   0.68129   1.68883
  -2.41392   0.68129   1.68883
  -2.89276   0.92071   1.44941
  -3.37160   0.68129   1.68883
  -3.85044   0.68129   1.68883
  -4.32927   0.92071   1.68883
  -4.56869   0.92071   1.68883
  -5.04753   0.92071   1.44941
  -5.52637   0.92071   1.68883
  -5.76579   0.92071   1.68883
  -6.00521   0.68129   1.68883
  -6.24463   0.92071   1.68883
  -6.48405   0.92071   1.68883
  -6.72346   0.92071   1.68883
  -6.96288   0.68129   1.68883
  -6.96288   0.68129   1.68883
  -7.20230   0.68129   1.68883
  -7.20230   0.68129   1.44941
  -7.44172   0.68129   1.21000
  -7.68114   0.44187   1.21000
  -7.44172   0.44187   1.21000
  -7.44172   0.20246   0.97058
  -7.44172   0.20246   0.73116
  -7.20230   0.20246   0.49174
  -7.20230   0.20246   0.73116
  -7.20230  -0.03696   0.49174
  -6.96288  -0.27638   0.49174
  -6.72346  -0.27638   0.49174
  -6.24463  -0.27638   0.25232
  -6.00521  -0.27638   0.01290
  -6.00521  -0.27638   0.01290
  -5.52637  -0.27638   0.01290
  -5.28695  -0.27638   0.01290
  -4.80811  -0.51580   0.01290
  -4.32927  -0.03696   0.25232
  -4.08986  -0.27638   0.01290
  -3.85044  -0.27638  -0.22652
  -3.37160  -0.27638  -0.22652
  -3.13218  -0.27638  -0.22652
  -3.13218  -0.27638  -0.22652
  -2.65334  -0.03696  -0.22652
  -2.41392  -0.03696  -0.46594
  -1.93509  -0.03696  -0.46594
  -1.69567  -0.03696  -0.46594
  -1.21683  -0.03696  -0.46594
  -0.97741  -0.03696  -0.70536
  -0.49857   0.20246  -0.94477
  -0.25915  -0.03696  -0.94477
   0.45910  -0.03696  -0.94477
   0.93794  -0.03696  -1.18419
   1.17736  -0.27638  -1.18419
   1.65620  -0.03696  -1.42361
   1.89562  -0.51580  -1.42361
   2.37446  -0.51580  -1.66303
   2.37446  -0.51580  -1.66303
   2.85329  -0.51580  -1.66303
   3.09271  -0.75522  -1.66303
   3.09271  -0.75522  -1.90245
   3.33213  -0.51580  -1.66303
   3.57155  -0.75522  -1.66303
   3.57155  -0.51580  -1.42361
   3.81097  -0.51580  -1.66303
   3.81097  -0.51580  -1.66303
   3.81097  -0.51580  -1.42361
   4.05039  -0.51580  -1.18419
   4.05039  -0.51580  -1.42361
   4.05039  -0.27638  -1.42361
   4.05039  -0.51580  -0.94477
   4.05039  -0.51580  -0.94477
   4.05039  -0.03696  -0.94477
   4.05039  -0.03696  -0.70536
   3.81097  -0.03696  -0.70536
   3.57155  -0.03696  -0.46594
   3.57155  -0.03696  -0.22652
   3.33213  -0.03696  -0.22652
   3.33213   0.20246  -0.22652
   3.09271   0.20246  -0.22652
   2.85329   0.20246   0.01290
   2.61387   0.20246   0.25232
   2.61387   0.44187   0.25232
   2.13504   0.44187   0.01290
   1.89562   0.20246   0.25232
   1.41678   0.44187   0.25232
   1.41678   0.44187   0.25232
   1.17736   0.44187   0.25232
   0.93794   0.44187   0.25232
   0.45910   0.44187   0.49174
   0.45910   0.20246   0.49174
   0.21969   0.20246   0.49174
  -0.01973   0.44187   0.25232
  -0.25915   0.20246   0.49174
  -0.49857   0.20246   0.49174
  -0.73799   0.20246   0.49174
  -0.73799   0.20246   0.73116
  -0.97741   0.44187   0.73116
  -1.21683   0.44187   0.73116
  -1.21683   0.20246   0.97058
  -1.45625   0.20246   0.97058
  -1.45625   0.44187   0.97058
  -1.69567   0.44187   0.97058
  -1.45625   0.44187   0.97058
  -1.93509   0.68129   0.97058
  -1.69567   0.68129   1.21000
  -1.69567   0.68129   0.97058
  -1.93509   0.68129   0.97058
  -1.93509   0.68129   0.97058
  -1.93509   0.68129   0.97058
  -1.93509   0.20246   0.73116
  -1.69567   0.44187   0.73116
  -1.69567   0.44187   0.73116
  -1.69567   0.20246   0.49174
  -1.69567   0.20246   0.49174
  -1.45625   0.20246   0.25232
  -1.21683  -0.03696   0.25232
  -1.21683  -0.03696   0.01290
  -1.21683  -0.03696  -0.22652
  -0.97741  -0.03696  -0.22652
  -0.73799  -0.03696  -0.46594
  -0.73799  -0.27638  -0.46594
  -0.25915  -0.03696  -0.46594
  -0.25915  -0.03696  -0.70536
  -0.25915  -0.03696  -0.94477
  -0.01973  -0.03696  -0.94477
   0.21969  -0.03696  -1.18419
   0.21969  -0.03696  -1.18419
   0.45910  -0.03696  -1.42361
   0.69852  -0.27638  -1.66303
   0.69852  -0.51580  -1.66303
   0.93794  -0.51580  -1.90245
   0.93794  -0.75522  -1.90245
   0.93794  -0.75522  -1.90245
   0.93794  -0.75522  -2.14187
   1.17736  -0.75522  -2.14187
   1.17736  -0.75522  -2.38129
   1.17736  -0.99464  -2.14187
   1.17736  -0.75522  -2.38129
   1.17736  -0.51580  -2.38129
   1.17736  -0.75522  -2.38129
   0.93794  -0.75522  -2.38129
   0.93794  -0.75522  -2.14187
   0.69852  -0.75522  -2.38129
   0.45910  -0.51580  -2.14187
   0.45910  -0.51580  -2.14187
   0.45910  -0.51580  -1.90245
   0.45910  -0.51580  -1.66303
   0.21969  -0.51580  -1.66303
   0.21969  -0.27638  -1.42361
  -0.01973  -0.27638  -1.66303
  -0.01973  -0.27638  -1.42361
  -0.01973  -0.03696  -1.18419
  -0.01973  -0.03696  -0.94477
  -0.01973  -0.03696  -1.18419
  -0.25915  -0.03696  -0.94477
  -0.01973  -0.03696  -0.94477
  -0.25915  -0.03696  -0.70536
  -0.25915  -0.03696  -0.70536
  -0.25915  -0.03696  -0.70536
  -0.25915  -0.03696  -0.46594
  -0.49857  -0.03696  -0.22652
  -0.25915  -0.03696  -0.22652
  -0.49857  -0.03696   0.01290
  -0.49857   0.44187   0.01290
  -0.49857   0.44187   0.01290
  -0.73799   0.20246   0.25232
  -0.97741   0.44187   0.49174
  -0.97741   0.44187   0.49174
  -0.97741   0.44187   0.49174
  -0.97741   0.44187   0.49174
  -1.21683   0.68129   0.73116
  -1.21683   0.68129   0.73116
