********************************************************************************
               CENTRO DE INSTRUMENTACION Y REGISTRO SISMICO  A.C.  
                       Coordinacion de Servicios Tecnicos
     Anaxagoras 814, Col. Narvarte, Benito Juarez, C.P. 03020 Mexico, D.F.
            Tels. 687 45 42/ 687 45  82             Fax. 669 25 12
********************************************************************************
ARCHIVO ESTANDAR DE ACELERACION:
VERSION DEL FORMATO                    : 2.0
NOMBRE DEL ARCHIVO                     : AE029802.031
FECHA Y HORA DE CREACION               : 18/ENERO/2000
REF. CATALOGO ACELEROGRAMAS, SMIS 1996 : REGISTRO No.     /PAG.


================================================================================
DATOS DE LA ESTACION:
NOMBRE DE LA ESTACION                  : AEROPUERTO
CLAVE DE LA ESTACION                   : AE02
LOCALIZACION DE LA ESTACION            : Esc Prim Gonzalez Garzon Calle Xico
                                       : s/n, Col. IV Seccion del Arenal
                                       : Venustiano Carranza
                                       :
                                       :
COORDENADAS DE LA ESTACION             : 19.429 LAT. N 
                                       : 99.058 LONG. W 
ALTITUD (msnm)                         : 2232
TIPO DE SUELO                          : ARCILLOSO, ZONA LAGO
                                       : 
                                       : 
INSTITUCION RESPONSABLE                : CIRES
                                       :

================================================================================
DATOS DEL ACELEROGRAFO:
MODELO DEL ACELEROGRAFO                : RAD-851
NUMERO DE SERIE DEL ACELEROGRAFO       : 242
NUMERO DE CANALES                      : 3
ORIENTACION C1-C6 (rumbo;orientacion)  : /N00E/+V/N90W
ORIENTACION C7-C12 (rumbo;orientacion) :
VEL. DE MUESTREO, C1-C6 (muestras/s)   : /100/100/100
VEL. DE MUESTREO, C7-C12 (muestras/s)  :
ESC. COMPLETA DE SENSORES, C1-C6, (g)  : /0.5/0.5/0.5
ESC. COMPLETA DE SENSORES, C7-C12, (g) :
FREC. NAT. DE SENSORES, C1-C6, (Hz)    : /30/30/30
FREC. NAT. DE SENSORES, C7-C12, (Hz)   :
AMORTIGUAMIENTO DE SENSORES, C1-C6     : /0.733/0.750/0.700
AMORTIGUAMIENTO DE SENSORES, C7-C12    :
INTERVALO DE MUESTREO, C1-C6, (s)      : /0.01/0.01/0.01
INTERVALO DE MUESTREO, C7-C12, (s)     :
UMBRAL DE DISPARO, C1-C6, (Gal)        : /2.44/3.91/2.44
UMBRAL DE DISPARO, C7-C12, (Gal)       :
MEMORIA DE PREEVENTO (s)               : 16
TIEMPO DE POSEVENTO (s)                : 48


================================================================================
DATOS DEL SISMO:
FECHA DEL SISMO (GMT)                  : 03/FEB/98
HORA EPICENTRO (GMT)                   : 03:02:01.1
MAGNITUD(ES)                           : /Mb=6.0,Ms=6.2,Mc=6.4,Ma=6.4
COORDENADAS DEL EPICENTRO              : 15.69 LAT. N
                                       : 96.37 LONG. W
PROFUNDIDAD FOCAL (km)                 : 33.0
FUENTE DE LOS DATOS EPICENTRALES       : SSN
                                       : INSTITUTO DE GEOFISICA, UNAM

================================================================================
DATOS DE ESTE REGISTRO:
HORA DE LA PRIMERA MUESTRA (GMT)       : 03:04:26.00
EXACTITUD DEL TIEMPO (s)               : 0.01
DURACION DEL REGISTRO (s), C1-C6       : /175.75/175.75/175.75
DURACION DEL REGISTRO (s), C7-C12      :
NUM. TOTAL DE MUESTRAS, C1-C6          : /17575/17575/17575
NUM. TOTAL DE MUESTRAS, C7-C12         :
ACEL. MAX. (Gal), C1-C6                : /4.49499/1.68216/3.28573
ACEL. MAX., C1-C6, EN LA MUESTRA       :
ACEL. MAX. (Gal), C7-C12               :
ACEL. MAX., C7-C12, EN LA MUESTRA      :
UNIDADES DE LOS DATOS                  : Gal (cm/s/s)
FACTOR DE DECIMACION                   : 1
FORMATO DATOS (FORTRAN,10 campos/dato) : 3F10.5


================================================================================
CALIDAD DEL ACELEROGRAMA:
REGISTRO DIGITAL COMPLETO CON TIEMPO ABSOLUTO CORRECTO.


================================================================================
COMENTARIOS:














================================================================================
DATOS DE ACELERACION:
---------+---------+---------+---------+---------+---------+---------+---------+
   CANAL-1   CANAL-2   CANAL-3   CANAL-4   CANAL-5   CANAL-6   CANAL-7   CANAL-8
      N00E        +V      N90W
---------+---------+---------+---------+---------+---------+---------+---------+
[...]
   3.40584   0.23319  -0.78440
   3.40584  -0.00623  -0.78440
   3.16642  -0.00623  -0.54498
   3.16642  -0.00623  -0.54498
   3.16642  -0.00623  -0.30556
   3.16642  -0.00623  -0.06614
   3.16642  -0.24564   0.41270
   2.92700  -0.00623   0.41270
   2.92700  -0.24564   0.41270
   2.92700  -0.24564   0.65212
   2.92700  -0.24564   0.89154
   2.68758  -0.24564   0.89154
   2.44816  -0.24564   1.13096
   2.44816  -0.24564   1.13096
   2.44816  -0.24564   1.37038
   2.20874  -0.24564   1.60979
   2.20874  -0.24564   1.37038
   1.72991  -0.24564   1.60979
   1.96932  -0.48506   1.60979
   1.72991  -0.48506   1.84921
   1.25107  -0.48506   1.84921
   1.25107  -0.48506   1.84921
   1.01165  -0.48506   1.84921
   1.01165  -0.48506   1.84921
   0.77223  -0.48506   1.84921
   0.53281  -0.48506   1.84921
   0.53281  -0.48506   1.84921
   0.29339  -0.24564   1.84921
   0.29339  -0.24564   1.84921
   0.05397  -0.24564   1.60979
  -0.18545  -0.24564   1.84921
   0.05397  -0.48506   1.84921
  -0.18545  -0.24564   1.84921
  -0.66428  -0.24564   1.84921
  -0.42486  -0.24564   1.84921
  -0.90370  -0.24564   1.84921
  -0.66428  -0.24564   1.84921
  -0.90370  -0.24564   1.84921
  -0.90370  -0.24564   1.84921
  -0.90370  -0.24564   1.84921
  -1.14312  -0.00623   1.84921
  -1.14312  -0.00623   1.84921
  -1.38254  -0.00623   1.84921
  -1.14312  -0.00623   1.60979
  -1.38254  -0.00623   1.60979
  -1.38254  -0.00623   1.60979
  -1.62196   0.23319   1.37038
  -1.62196   0.23319   1.13096
  -1.14312  -0.00623   1.13096
  -1.38254  -0.00623   0.89154
  -1.62196  -0.00623   0.89154
  -1.62196  -0.00623   0.65212
  -1.38254  -0.00623   0.65212
  -1.38254  -0.00623   0.41270
  -1.38254  -0.24564   0.41270
  -1.38254  -0.00623   0.17328
  -1.14312  -0.24564   0.17328
  -1.14312  -0.00623  -0.06614
  -1.14312  -0.24564  -0.30556
  -1.14312  -0.24564  -0.30556
  -0.90370  -0.00623  -0.30556
  -0.66428  -0.24564  -0.54498
  -0.66428  -0.24564  -0.54498
  -0.66428  -0.24564  -0.78440
  -0.42486  -0.24564  -0.78440
  -0.42486  -0.24564  -0.78440
  -0.18545  -0.24564  -1.02381
  -0.18545  -0.48506  -1.02381
   0.05397  -0.48506  -1.26323
   0.29339  -0.48506  -1.26323
   0.29339  -0.48506  -1.26323
   0.53281  -0.96390  -1.26323
   0.29339  -0.72448  -1.50265
   0.53281  -0.72448  -1.50265
   0.77223  -0.72448  -1.26323
   0.77223  -0.72448  -1.26323
   1.01165  -0.72448  -1.26323
   0.77223  -0.72448  -1.02381
   1.01165  -0.72448  -1.26323
   1.01165  -0.72448  -0.78440
   1.25107  -0.96390  -0.78440
   1.01165  -0.72448  -0.78440
   1.01165  -0.48506  -0.30556
   1.25107  -0.48506  -0.06614
   1.25107  -0.48506  -0.06614
   1.25107  -0.24564   0.17328
   1.25107  -0.24564   0.17328
   1.25107  -0.00623   0.41270
   1.49049  -0.24564   0.41270
   1.25107  -0.24564   0.65212
   1.25107  -0.00623   0.41270
   1.25107  -0.00623   0.65212
   1.25107  -0.00623   0.65212
   1.25107  -0.00623   0.65212
   1.25107   0.23319   0.65212
   1.49049   0.23319   0.65212
   1.49049  -0.00623   0.65212
   1.49049   0.23319   0.65212
   1.49049   0.23319   0.65212
   1.25107   0.23319   0.65212
   1.25107   0.23319   0.65212
   1.25107   0.23319   0.65212
   1.01165   0.47261   0.65212
   1.25107   0.47261   0.41270
   1.25107   0.47261   0.41270
   1.01165   0.71203   0.65212
   1.01165   0.71203   0.41270
   1.01165   0.95145   0.41270
   0.77223   0.71203   0.65212
   0.77223   0.71203   0.41270
   0.53281   0.95145   0.65212
   0.53281   0.95145   0.65212
   0.53281   0.95145   0.65212
   0.29339   0.95145   0.65212
   0.29339   0.95145   0.65212
   0.05397   0.95145   0.89154
  -0.18545   0.95145   0.65212
  -0.18545   0.95145   0.89154
  -0.42486   0.95145   0.65212
  -0.42486   0.95145   1.13096
  -0.66428   0.71203   0.89154
  -0.66428   0.71203   0.65212
  -0.90370   0.71203   0.89154
  -0.90370   0.47261   1.13096
  -0.66428   0.23319   0.89154
  -0.90370   0.71203   1.13096
  -0.90370   0.47261   0.89154
  -0.90370  -0.00623   0.89154
  -0.90370   0.47261   1.13096
  -0.90370   0.47261   0.89154
  -0.90370   0.47261   1.13096
  -0.66428   0.47261   0.89154
  -0.66428   0.47261   0.89154
  -0.42486   0.47261   1.13096
  -0.18545   0.47261   1.13096
  -0.42486   0.47261   1.13096
  -0.18545   0.47261   0.65212
   0.05397   0.47261   0.89154
   0.05397   0.47261   0.65212
   0.29339   0.47261   0.41270
   0.29339   0.23319   0.41270
   0.53281   0.23319   0.17328
   0.77223   0.23319   0.17328
   0.77223   0.23319   0.41270
   1.01165  -0.00623  -0.06614
   1.01165  -0.00623   0.17328
   1.01165  -0.00623  -0.06614
   1.25107  -0.00623  -0.06614
   1.25107  -0.24564  -0.06614
   1.49049  -0.24564  -0.06614
   1.72991  -0.24564  -0.30556
   1.72991  -0.24564  -0.06614
   1.96932  -0.24564  -0.06614
   1.96932  -0.24564  -0.06614
   1.96932  -0.48506  -0.06614
   1.96932  -0.48506  -0.06614
   1.96932  -0.48506  -0.06614
   2.20874  -0.72448  -0.06614
   1.96932  -0.48506  -0.06614
   1.96932  -0.48506  -0.30556
   1.96932  -0.48506  -0.54498
   1.96932  -0.48506  -0.30556
   1.96932  -0.48506  -0.54498
   1.96932  -0.48506  -0.30556
   1.96932  -0.72448  -0.54498
   1.72991  -0.48506  -0.30556
   1.72991  -0.72448  -0.54498
   1.72991  -0.72448  -0.54498
   1.49049  -0.72448  -0.54498
   1.49049  -0.72448  -0.54498
   1.49049  -0.72448  -0.54498
   1.25107  -0.96390  -0.54498
   1.25107  -0.72448  -0.54498
   1.01165  -0.72448  -0.54498
   1.25107  -0.72448  -0.54498
   0.77223  -0.72448  -0.30556
   0.77223  -0.48506  -0.54498
   0.77223  -0.72448  -0.30556
   0.29339  -0.48506  -0.30556
   0.29339  -0.48506  -0.30556
   0.29339  -0.48506  -0.30556
   0.29339  -0.24564  -0.30556
   0.05397  -0.48506  -0.06614
  -0.18545  -0.24564  -0.06614
  -0.18545  -0.24564  -0.06614
  -0.42486  -0.24564  -0.06614
  -0.42486  -0.24564   0.17328
  -0.42486  -0.24564   0.17328
  -0.66428  -0.24564   0.17328
  -0.66428  -0.24564   0.41270
  -0.66428  -0.00623   0.41270
  -0.90370  -0.00623   0.41270
  -0.66428   0.23319   0.41270
  -0.90370   0.23319   0.41270
  -0.90370   0.47261   0.41270
  -0.90370   0.47261   0.65212
  -0.90370   0.47261   0.65212
  -0.90370   0.71203   0.65212
  -0.90370   0.71203   0.65212
  -0.90370   0.71203   0.65212
  -0.90370   0.71203   0.89154
  -1.14312   0.71203   0.41270
  -1.14312   0.95145   0.65212
  -0.90370   0.71203   0.65212
  -0.66428   0.71203   0.41270
  -0.90370   0.95145   0.65212
  -0.90370   0.71203   0.41270
  -0.90370   0.95145   0.65212
  -0.90370   0.71203   0.41270
  -0.66428   0.71203   0.41270
  -0.66428   0.71203   0.41270
  -0.66428   0.71203   0.17328
  -0.66428   0.47261   0.41270
  -0.66428   0.71203   0.41270
  -0.42486   0.47261   0.17328
  -0.66428   0.71203   0.17328
  -0.42486   0.47261  -0.06614
  -0.42486   0.47261   0.17328
  -0.42486   0.47261   0.17328
  -0.42486   0.23319   0.17328
  -0.42486   0.23319   0.17328
  -0.42486   0.23319   0.17328
  -0.42486  -0.00623   0.17328
  -0.18545  -0.00623  -0.06614
  -0.18545  -0.00623  -0.06614
  -0.18545  -0.00623  -0.06614
  -0.42486  -0.24564  -0.06614
  -0.18545  -0.24564  -0.06614
  -0.18545  -0.24564  -0.06614
  -0.18545  -0.48506  -0.30556
   0.05397  -0.48506  -0.30556
  -0.18545  -0.72448  -0.30556
   0.05397  -0.72448  -0.30556
   0.05397  -0.72448  -0.54498
   0.05397  -0.72448  -0.30556
  -0.18545  -0.72448  -0.54498
   0.05397  -0.96390  -0.54498
   0.05397  -0.96390  -0.54498
   0.05397  -1.20332  -0.78440
   0.29339  -0.96390  -0.78440
  -0.18545  -0.96390  -1.02381
   0.05397  -0.96390  -1.26323
   0.05397  -0.96390  -1.02381
   0.05397  -1.20332  -1.02381
   0.05397  -1.20332  -1.02381
  -0.18545  -1.20332  -1.02381
  -0.18545  -1.20332  -1.02381
  -0.42486  -1.20332  -0.78440
  -0.42486  -0.96390  -1.02381
  -0.42486  -0.96390  -0.78440
  -0.66428  -0.96390  -0.78440
  -0.66428  -0.96390  -0.78440
  -0.90370  -0.96390  -0.54498
  -0.66428  -0.96390  -0.54498
  -0.90370  -0.72448  -0.54498
  -0.90370  -0.72448  -0.54498
  -1.14312  -0.72448  -0.54498
  -1.38254  -0.72448  -0.30556
  -1.38254  -0.72448  -0.30556
  -1.38254  -0.48506  -0.30556
  -1.62196  -0.48506  -0.54498
  -1.62196  -0.24564  -0.30556
  -1.86138  -0.72448  -0.30556
  -1.86138  -0.00623  -0.30556
  -1.86138  -0.00623  -0.06614
  -1.86138  -0.00623  -0.30556
  -2.10080  -0.00623  -0.30556
  -2.10080  -0.00623  -0.30556
  -2.10080  -0.00623  -0.30556
  -2.10080   0.23319  -0.30556
  -2.34022   0.23319  -0.30556
  -2.34022   0.23319  -0.06614
  -2.34022   0.23319  -0.30556
  -2.34022   0.47261  -0.54498
  -2.57964   0.47261  -0.54498
  -2.34022   0.47261  -0.54498
  -2.34022   0.47261  -0.54498
  -2.34022   0.47261  -0.78440
  -2.34022   0.47261  -0.78440
  -2.10080   0.47261  -0.78440
  -2.10080   0.71203  -0.78440
  -2.10080   0.71203  -0.78440
  -2.10080   0.47261  -1.02381
  -1.86138   0.71203  -1.02381
  -1.86138   0.47261  -1.02381
  -1.86138   0.47261  -1.02381
  -1.62196   0.71203  -1.02381
  -1.38254   0.47261  -1.02381
  -1.38254   0.71203  -1.02381
  -1.14312   0.47261  -1.02381
  -1.14312   0.47261  -0.78440
  -0.90370   0.47261  -1.02381
  -0.66428   0.47261  -1.02381
  -0.42486   0.71203  -0.78440
  -0.18545   0.47261  -0.78440
  -0.18545   0.47261  -0.54498
   0.05397   0.47261  -0.78440
   0.53281   0.23319  -0.78440
   0.53281   0.47261  -0.54498
   0.77223   0.23319  -0.78440
   1.01165   0.47261  -0.54498
   1.25107   0.23319  -0.54498
   1.49049   0.23319  -0.54498
   1.72991   0.47261  -0.54498
   1.72991   0.23319  -0.78440
   2.20874   0.23319  -0.54498
   2.20874   0.23319  -0.78440
   2.44816   0.23319  -0.78440
   2.44816   0.23319  -0.78440
   2.44816   0.23319  -0.78440
   2.68758   0.23319  -0.78440
   2.68758   0.23319  -1.02381
   2.68758  -0.00623  -1.26323
   2.68758   0.23319  -1.02381
   2.68758  -0.00623  -1.02381
   2.68758   0.23319  -1.02381
   2.44816   0.23319  -1.26323
   2.68758   0.23319  -1.26323
   2.44816   0.23319  -1.02381
   2.20874   0.23319  -1.26323
   1.96932   0.23319  -1.02381
   1.72991  -0.00623  -1.26323
   1.49049  -0.00623  -1.02381
   1.25107   0.23319  -1.02381
   1.25107  -0.00623  -1.02381
   0.77223  -0.00623  -0.78440
   0.53281  -0.00623  -0.54498
   0.53281  -0.00623  -0.54498
   0.05397  -0.00623  -0.30556
   0.05397  -0.00623  -0.30556
  -0.42486   0.23319  -0.06614
  -0.66428  -0.00623  -0.06614
  -0.90370  -0.00623   0.17328
  -1.38254  -0.00623   0.17328
  -1.38254  -0.00623   0.41270
  -1.86138  -0.00623   0.41270
  -1.86138  -0.00623   0.41270
  -2.10080  -0.00623   0.65212
  -2.57964  -0.00623   0.65212
  -2.57964  -0.00623   0.65212
  -3.05847   0.23319   0.65212
  -3.05847   0.23319   0.65212
  -3.29789   0.23319   0.65212
  -3.53731   0.23319   0.65212
  -3.77673   0.23319   0.65212
  -3.77673   0.23319   0.65212
  -4.25557   0.23319   0.41270
  -4.25557   0.47261   0.65212
  -4.25557   0.23319   0.41270
  -4.49499   0.23319   0.65212
  -4.49499   0.23319   0.41270
  -4.49499   0.23319   0.41270
  -4.49499   0.23319   0.41270
  -4.49499   0.23319   0.41270
  -4.49499   0.23319   0.41270
  -4.49499  -0.00623   0.65212
  -4.49499   0.23319   0.65212
  -4.25557  -0.00623   0.65212
  -4.25557  -0.00623   0.65212
  -4.25557  -0.00623   0.65212
  -4.25557  -0.24564   0.41270
  -4.01615  -0.24564   0.41270
  -3.77673  -0.48506   0.65212
  -3.53731  -0.24564   0.65212
  -3.53731  -0.24564   0.41270
  -3.05847  -0.48506   0.41270
  -3.05847  -0.24564   0.41270
  -2.81905  -0.48506   0.41270
  -2.57964  -0.24564   0.17328
  -2.57964  -0.48506   0.17328
  -2.34022  -0.48506  -0.06614
  -1.86138  -0.48506  -0.06614
  -1.62196  -0.48506  -0.30556
  -1.62196  -0.48506  -0.30556
  -1.38254  -0.48506  -0.54498
  -1.14312  -0.48506  -0.78440
  -1.14312  -0.48506  -0.78440
  -0.66428  -0.48506  -0.78440
  -0.66428  -0.48506  -1.02381
  -0.42486  -0.48506  -1.02381
  -0.18545  -0.48506  -1.26323
  -0.18545  -0.48506  -1.26323
   0.29339  -0.48506  -1.50265
   0.29339  -0.48506  -1.50265
   0.53281  -0.48506  -1.50265
   0.53281  -0.48506  -1.74207
   0.77223  -0.48506  -1.74207
   1.01165  -0.48506  -1.74207
   1.01165  -0.48506  -1.74207
   1.25107  -0.24564  -1.74207
   1.25107  -0.48506  -1.74207
   1.49049  -0.24564  -1.74207
   1.49049  -0.24564  -1.50265
   1.49049  -0.24564  -1.50265
   1.72991  -0.48506  -1.26323
   1.72991  -0.24564  -1.02381
   1.72991  -0.24564  -0.78440
   1.96932  -0.24564  -0.54498
   1.72991  -0.24564  -0.54498
   1.96932  -0.24564  -0.30556
   1.96932  -0.24564   0.17328
   1.96932  -0.24564   0.17328
   1.72991  -0.00623   0.41270
   1.72991  -0.00623   0.65212
   1.72991  -0.00623   0.65212
   1.49049   0.23319   0.89154
   1.25107   0.23319   1.13096
   1.49049   0.23319   1.13096
   1.25107   0.47261   1.37038
   1.25107   0.47261   1.60979
   1.01165   0.47261   1.37038
   1.01165   0.47261   1.60979
   1.01165   0.47261   1.60979
   0.77223   0.47261   1.60979
   0.53281   0.47261   1.60979
   0.53281   0.71203   1.60979
   0.29339   0.71203   1.60979
   0.29339   0.47261   1.37038
   0.05397   0.71203   1.37038
  -0.18545   0.71203   1.37038
  -0.18545   0.71203   1.37038
  -0.18545   0.71203   1.13096
  -0.42486   0.71203   1.13096
  -0.42486   0.47261   1.13096
  -0.66428   0.71203   1.13096
  -0.66428   0.47261   1.13096
  -0.66428   0.47261   1.13096
  -0.66428   0.47261   1.13096
  -0.66428   0.47261   1.13096
  -0.66428   0.47261   1.13096
  -0.66428   0.47261   1.13096
  -0.66428   0.47261   1.37038
  -0.66428   0.47261   1.37038
  -0.66428   0.23319   1.37038
  -0.66428   0.47261   1.37038
  -0.66428   0.23319   1.37038
  -0.66428   0.23319   1.37038
  -0.66428   0.23319   1.37038
  -0.66428   0.23319   1.13096
  -0.42486  -0.00623   1.13096
  -0.42486  -0.00623   1.13096
  -0.42486   0.23319   0.89154
  -0.42486  -0.00623   0.65212
  -0.42486  -0.00623   0.65212
  -0.18545  -0.24564   0.41270
  -0.42486  -0.00623   0.17328
  -0.42486  -0.00623  -0.06614
  -0.18545  -0.00623  -0.54498
  -0.18545  -0.24564  -0.54498
  -0.18545  -0.24564  -0.78440
  -0.18545  -0.24564  -1.02381
  -0.18545  -0.48506  -1.26323
   0.05397  -0.48506  -1.50265
  -0.18545  -0.48506  -1.50265
   0.05397  -0.72448  -1.74207
  -0.18545  -0.48506  -1.98149
   0.05397  -0.48506  -1.98149
   0.05397  -0.48506  -1.74207
   0.05397  -0.48506  -2.22091
   0.29339  -0.72448  -1.98149
   0.29339  -0.48506  -1.98149
   0.29339  -0.72448  -1.98149
   0.29339  -0.72448  -1.98149
   0.29339  -0.72448  -1.98149
   0.29339  -0.72448  -1.98149
   0.53281  -0.48506  -1.50265
   0.53281  -0.48506  -1.50265
   0.53281  -0.48506  -1.50265
   0.77223  -0.48506  -1.50265
   0.77223  -0.24564  -1.26323
   0.77223  -0.24564  -1.02381
   1.01165  -0.24564  -1.02381
   0.77223  -0.24564  -0.78440
   1.01165  -0.24564  -0.78440
   1.01165  -0.00623  -0.54498
   1.01165  -0.00623  -0.30556
   1.01165  -0.00623  -0.30556
   1.01165  -0.00623  -0.06614
   1.25107  -0.00623  -0.06614
   1.25107  -0.00623  -0.06614
   1.01165  -0.00623   0.17328
   1.01165  -0.00623   0.17328
   1.01165  -0.00623   0.41270
   1.01165  -0.00623   0.17328
   1.01165  -0.00623   0.41270
   1.01165  -0.00623   0.41270
   1.01165  -0.00623   0.41270
   1.01165   0.47261   0.41270
   1.01165  -0.00623   0.41270
   0.77223   0.23319   0.41270
   0.77223   0.23319   0.41270
   0.77223   0.23319   0.41270
   0.77223   0.23319   0.41270
   0.77223   0.23319   0.41270
   0.77223   0.23319   0.41270
   0.77223   0.47261   0.65212
   0.77223   0.23319   0.41270
   0.77223   0.23319   0.65212
   0.77223   0.23319   0.65212
