********************************************************************************
               CENTRO DE INSTRUMENTACION Y REGISTRO SISMICO  A.C.  
                       Coordinacion de Servicios Tecnicos
     Anaxagoras 814, Col. Narvarte, Benito Juarez, C.P. 03020 Mexico, D.F.
            Tels. 687 45 42/ 687 45  82             Fax. 669 25 12
********************************************************************************
ARCHIVO ESTANDAR DE ACELERACION:
VERSION DEL FORMATO                    : 2.0
NOMBRE DEL ARCHIVO                     : AE029509.141
FECHA Y HORA DE CREACION               : MARZO 14, 1996/16:55
REF. CATALOGO ACELEROGRAMAS, SMIS 1995 : REGISTRO No.     /PAG.


================================================================================
DATOS DE LA ESTACION:
NOMBRE DE LA ESTACION                  : AEROPUERTO
CLAVE DE LA ESTACION                   : AE02
LOCALIZACION DE LA ESTACION            : Esc Prim Gonzalez Garzon Calle Xico
                                       : s/n, Col. IV Seccion del Arenal
                                       : Venustiano Carranza
                                       :
                                       :
COORDENADAS DE LA ESTACION             : 19.429 LAT. N 
                                       : 99.058 LONG. W 
ALTITUD (msnm)                         : 2232
TIPO DE SUELO                          : ARCILLOSO, ZONA LAGO
                                       : 
                                       : 
INSTITUCION RESPONSABLE                : CIRES
                                       :

================================================================================
DATOS DEL ACELEROGRAFO:
MODELO DEL ACELEROGRAFO                : DCA-333
NUMERO DE SERIE DEL ACELEROGRAFO       : 242
NUMERO DE CANALES                      : 3
ORIENTACION C1-C6 (rumbo;orientacion)  : /N00E/+V/N90E
ORIENTACION C7-C12 (rumbo;orientacion) :
VEL. DE MUESTREO, C1-C6 (muestras/s)   : /100/100/100
VEL. DE MUESTREO, C7-C12 (muestras/s)  :
ESC. COMPLETA DE SENSORES, C1-C6, (g)  : /0.5/0.5/0.5
ESC. COMPLETA DE SENSORES, C7-C12, (g) :
FREC. NAT. DE SENSORES, C1-C6, (Hz)    : /30/30/30
FREC. NAT. DE SENSORES, C7-C12, (Hz)   :
AMORTIGUAMIENTO DE SENSORES, C1-C6     : /0.700/0.700/0.700
AMORTIGUAMIENTO DE SENSORES, C7-C12    :
INTERVALO DE MUESTREO, C1-C6, (s)      : /0.01/0.01/0.01
INTERVALO DE MUESTREO, C7-C12, (s)     :
UMBRAL DE DISPARO, C1-C6, (Gal)        : /4.9/4.9/4.9
UMBRAL DE DISPARO, C7-C12, (Gal)       :
MEMORIA DE PREEVENTO (s)               : 4
TIEMPO DE POSEVENTO (s)                : 15


================================================================================
DATOS DEL SISMO:
FECHA DEL SISMO (GMT)                  : 14/SEP/95
HORA EPICENTRO (GMT)                   : 14:04:30.5
MAGNITUD(ES)                           : /Mc=6.4/Mb=7.2/Me=7.3
COORDENADAS DEL EPICENTRO              : 16.31 LAT. N
                                       : 98.88 LONG. W
PROFUNDIDAD FOCAL (km)                 : 22
FUENTE DE LOS DATOS EPICENTRALES       : SSN
                                       : INSTITUTO DE GEOFISICA, UNAM

================================================================================
DATOS DE ESTE REGISTRO:
HORA DE LA PRIMERA MUESTRA (GMT)       : 14:06:00.05
EXACTITUD DEL TIEMPO (s)               : 0.01
DURACION DEL REGISTRO (s), C1-C6       : /253.98/253.98/253.98
DURACION DEL REGISTRO (s), C7-C12      :
NUM. TOTAL DE MUESTRAS, C1-C6          : /25398/25398/25398
NUM. TOTAL DE MUESTRAS, C7-C12         :
ACEL. MAX. (Gal), C1-C6                : /31.17/15.71/34.29
ACEL. MAX., C1-C6, EN LA MUESTRA       :
ACEL. MAX. (Gal), C7-C12               :
ACEL. MAX., C7-C12, EN LA MUESTRA      :
UNIDADES DE LOS DATOS                  : Gal (cm/s/s)
FACTOR DE DECIMACION                   : 1
FORMATO DATOS (FORTRAN,10 campos/dato) : 3F10.2


================================================================================
CALIDAD DEL ACELEROGRAMA:
REGISTRO DIGITAL COMPLETO CON TIEMPO ABSOLUTO CORRECTO.


================================================================================
COMENTARIOS:














================================================================================
DATOS DE ACELERACION:
---------+---------+---------+---------+---------+---------+---------+---------+
   CANAL-1   CANAL-2   CANAL-3   CANAL-4   CANAL-5   CANAL-6   CANAL-7   CANAL-8
      N00E        +V      N90E
---------+---------+---------+---------+---------+---------+---------+---------+
[...]
     -1.48      0.63    -13.11
     -1.72      0.63    -13.11
     -2.20      0.15    -13.11
     -2.44     -0.09    -12.87
     -2.67     -0.33    -12.64
     -2.91     -0.57    -12.16
     -3.39     -0.81    -11.68
     -3.39     -1.29    -11.20
     -3.87     -1.29    -10.72
     -4.11     -1.53    -10.48
     -4.59     -2.24    -10.00
     -4.83     -2.48     -9.52
     -5.07     -2.72     -9.04
     -5.31     -3.20     -8.33
     -5.55     -3.44     -7.85
     -6.03     -3.68     -7.37
     -6.51     -3.92     -6.65
     -6.98     -3.68     -5.93
     -7.46     -3.68     -5.21
     -7.94     -3.44     -4.50
     -8.42     -3.20     -3.30
     -8.90     -2.96     -2.58
     -9.38     -2.48     -1.62
    -10.34     -2.24     -0.66
    -10.81     -2.00      0.05
    -11.53     -1.53      1.01
    -12.01     -1.29      2.21
    -12.73     -1.05      3.17
    -13.21     -0.81      4.12
    -14.17     -0.57      5.08
    -14.65     -0.33      6.04
    -15.36     -0.09      6.76
    -15.84      0.15      7.72
    -16.32      0.15      8.19
    -16.80      0.39      8.91
    -17.28      0.15      9.39
    -17.76      0.15      9.87
    -18.00      0.15     10.35
    -18.48      0.15     10.59
    -18.48      0.15     10.59
    -18.96      0.15     11.07
    -19.19      0.15     11.07
    -19.43      0.15     11.07
    -19.67      0.15     11.31
    -20.15      0.39     11.55
    -20.39      0.63     11.07
    -20.63      0.87     11.07
    -20.87      0.87     10.83
    -21.35      0.87     10.59
    -21.83      0.87     10.35
    -22.07      0.63      9.87
    -22.31      0.87      9.39
    -22.79      1.11      8.67
    -23.03      1.35      7.72
    -23.26      1.35      7.00
    -23.74      1.35      6.04
    -23.98      1.35      5.08
    -24.22      1.11      4.12
    -24.46      1.11      2.93
    -24.70      0.87      1.73
    -25.18      0.63      0.53
    -25.42      0.63     -0.43
    -25.66      0.63     -1.14
    -26.14      0.39     -1.86
    -26.14      0.39     -2.58
    -26.62      0.39     -3.30
    -27.10      0.15     -3.78
    -27.33      0.39     -4.26
    -27.81      0.15     -4.73
    -28.05      0.15     -4.97
    -28.53      0.39     -5.21
    -29.01      0.15     -5.21
    -29.25      0.15     -5.21
    -29.49      0.15     -4.97
    -29.97     -0.09     -4.73
    -30.21     -0.09     -4.73
    -30.45     -0.33     -4.73
    -30.69     -0.57     -4.73
    -30.93     -0.81     -4.97
    -30.93     -1.05     -5.21
    -31.17     -1.29     -5.21
    -30.93     -1.29     -5.21
    -30.69     -1.53     -5.45
    -30.45     -1.53     -5.45
    -29.97     -1.76     -5.45
    -29.49     -1.76     -5.69
    -28.77     -1.76     -5.45
    -28.29     -1.76     -5.45
    -27.57     -1.76     -5.21
    -26.62     -1.76     -5.21
    -25.66     -1.53     -4.97
    -24.70     -1.53     -4.97
    -23.74     -1.29     -4.73
    -22.79     -0.81     -4.50
    -21.83     -0.57     -4.26
    -20.39     -0.09     -4.26
    -19.43      0.63     -4.02
    -18.24      1.35     -4.02
    -17.04      2.07     -3.78
    -15.84      2.78     -3.54
    -14.65      3.26     -3.06
    -13.45      3.98     -2.34
    -12.25      4.46     -1.86
    -11.05      4.94     -1.38
     -9.86      5.42     -0.66
     -8.66      5.90      0.05
     -7.46      6.14      0.53
     -6.51      6.62      1.25
     -5.31      6.85      1.73
     -4.11      6.85      2.45
     -2.91      6.85      2.93
     -1.72      7.09      3.64
     -0.52      7.09      4.60
      0.44      7.33      5.32
      1.40      7.33      6.52
      2.35      7.57      7.72
      3.31      7.81      8.91
      4.27      7.81     10.11
      4.99      7.57     11.31
      5.70      7.57     12.50
      6.66      7.57     13.70
      7.14      7.33     15.14
      7.86      7.33     16.09
      8.58      7.33     17.29
      9.06      7.57     18.25
      9.54      7.81     19.21
     10.01      7.81     20.16
     10.73      8.05     20.64
     10.97      8.29     21.36
     11.21      8.53     21.84
     11.69      8.77     22.32
     11.69      9.01     22.80
     11.69      9.25     23.28
     11.69      9.25     23.76
     11.69      9.25     24.47
     11.69      9.01     24.71
     11.45      9.01     25.43
     10.97      8.53     25.91
     10.73      8.29     26.39
     10.73      8.05     27.11
     10.25      7.57     27.59
     10.01      7.09     28.07
      9.78      6.85     28.54
      9.30      6.14     29.02
      8.82      5.66     29.50
      8.34      5.18     29.50
      7.38      4.70     29.74
      6.90      4.22     29.74
      6.18      3.74     30.22
      5.70      3.26     30.70
      4.99      2.78     30.94
      4.51      2.07     30.70
      4.27      1.59     30.22
      4.03      1.11     29.02
      3.55      0.39     27.83
      3.31     -0.09     26.63
      3.07     -0.81     25.19
      2.83     -1.29     23.76
      2.59     -1.76     22.56
      2.35     -2.24     21.36
      2.11     -2.72     20.16
      2.11     -3.44     18.73
      2.11     -4.16     17.53
      2.11     -4.64     16.33
      2.11     -5.12     14.90
      2.35     -5.60     13.46
      2.59     -6.07     12.26
      2.83     -6.55     11.07
      3.07     -6.79      9.87
      3.31     -7.27      8.91
      4.03     -7.75      7.95
      4.51     -7.99      6.76
      4.99     -8.47      5.56
      5.47     -8.71      4.12
      6.18     -9.19      2.93
      6.90     -9.43      1.73
      7.62     -9.67      0.53
      8.10    -10.14     -0.43
      9.06    -10.38     -1.14
      9.78    -10.62     -2.10
     10.73    -10.86     -2.82
     11.45    -10.86     -3.54
     12.41    -11.10     -4.26
     13.13    -11.10     -5.21
     14.08    -11.10     -5.69
     15.04    -11.10     -6.41
     16.00    -10.86     -6.89
     16.72    -10.62     -7.37
     17.44    -10.62     -8.09
     18.15    -10.62     -8.57
     18.87    -10.62     -9.04
     19.59    -10.38     -9.28
     20.07    -10.38     -9.52
     20.55    -10.38     -9.76
     21.03    -10.38    -10.00
     21.75    -10.14     -9.76
     22.22    -10.14    -10.00
     22.46     -9.67    -10.24
     22.70     -9.43    -10.00
     22.70     -8.95    -10.00
     22.94     -8.47     -9.52
     23.18     -7.99     -9.28
     23.18     -7.75     -8.80
     23.18     -7.51     -8.57
     22.94     -7.27     -8.57
     22.94     -7.03     -8.80
     22.70     -6.79     -9.04
     22.70     -6.55     -9.28
     22.46     -6.31     -9.52
     22.22     -6.55    -10.00
     21.99     -6.31    -10.00
     21.75     -6.31    -10.24
     21.75     -6.07    -10.24
     21.27     -5.83    -10.48
     20.79     -5.36    -10.48
     20.55     -5.12    -10.72
     20.07     -4.88    -10.72
     19.59     -4.40    -10.96
     19.11     -4.16    -11.20
     18.63     -3.68    -11.68
     18.15     -3.44    -11.92
     17.20     -3.44    -12.40
     16.72     -3.44    -13.11
     16.00     -3.20    -13.59
     15.28     -3.20    -14.07
     14.56     -3.20    -14.79
     13.85     -3.44    -15.27
     13.37     -3.44    -15.75
     12.89     -3.68    -16.23
     12.17     -3.68    -16.71
     11.69     -3.92    -17.18
     11.45     -3.92    -17.42
     11.21     -4.16    -17.90
     10.97     -4.40    -18.14
     10.73     -4.64    -18.14
     10.73     -4.64    -17.66
     10.73     -4.88    -16.95
     10.73     -5.12    -16.95
     10.97     -5.60    -17.66
     10.97     -5.83    -19.10
     10.97     -6.07    -20.30
     11.21     -5.83    -21.73
     11.21     -6.07    -22.93
     11.21     -5.83    -23.89
     11.45     -5.83    -24.85
     11.69     -5.36    -25.56
     11.93     -4.64    -25.80
     12.17     -3.92    -26.28
     12.41     -3.44    -26.52
     12.65     -2.96    -26.76
     12.89     -2.72    -27.24
     13.37     -2.48    -27.24
     13.85     -2.24    -27.24
     14.32     -2.24    -27.24
     14.56     -2.24    -27.48
     15.04     -2.24    -27.48
     15.28     -2.00    -27.24
     15.76     -2.00    -27.24
     16.00     -1.76    -27.24
     16.24     -1.76    -27.24
     16.72     -1.53    -27.24
     16.72     -1.29    -27.24
     16.96     -0.81    -27.48
     16.96     -0.33    -27.48
     17.20      0.63    -26.76
     17.20      1.35    -26.28
     17.20      2.07    -25.80
     17.20      2.78    -25.56
     17.20      3.26    -25.56
     17.20      4.22    -25.32
     16.96      4.70    -24.85
     16.72      5.42    -24.37
     16.48      6.14    -23.89
     16.24      7.09    -23.17
     16.00      7.81    -22.21
     15.76      8.29    -21.73
     15.28      8.77    -21.25
     14.80      9.49    -20.54
     14.08      9.97    -19.58
     13.85     10.21    -18.62
     13.37     10.45    -17.90
     12.65     10.92    -17.18
     12.17     10.92    -16.47
     11.69     11.40    -15.27
     10.73     11.64    -14.55
     10.01     11.88    -13.59
      9.30     12.36    -12.64
      8.58     12.84    -11.92
      7.86     13.08    -10.96
      7.38     13.56    -10.00
      6.66     14.04     -9.28
      5.94     14.28     -8.57
      5.47     14.52     -7.85
      4.75     14.76     -7.13
      4.03     14.99     -6.65
      3.31     15.47     -6.41
      2.83     15.71     -5.69
      2.11     15.71     -4.73
      1.87     15.47     -4.02
      1.40     15.23     -3.54
      0.92     14.99     -2.82
      0.68     14.99     -2.34
      0.20     15.23     -1.62
     -0.28     15.47     -1.14
     -0.52     15.47     -0.43
     -1.00     15.23      0.53
     -1.48     14.52      1.73
     -1.72     13.80      2.93
     -2.20     12.84      4.36
     -2.44     12.36      5.56
     -3.15     11.88      6.52
     -3.39     11.64      6.76
     -3.87     11.16      7.00
     -4.83     10.92      6.76
     -5.07     10.45      6.52
     -5.55      9.97      6.28
     -6.27      9.73      6.04
     -6.74      9.01      5.80
     -7.22      8.53      5.80
     -7.94      8.05      6.28
     -8.42      7.81      6.52
     -9.14      7.33      7.00
     -9.38      6.62      7.48
    -10.10      5.90      8.19
    -10.58      5.18      8.91
    -11.05      4.46      9.87
    -11.53      3.98     10.59
    -12.25      3.26     11.55
    -13.21      2.78     12.26
    -13.45      2.31     12.98
    -14.17      1.59     13.94
    -14.65      0.87     15.14
    -15.12      0.39     16.09
    -15.84     -0.33     17.77
    -16.08     -0.81     19.21
    -16.80     -1.05     20.40
    -17.04     -1.29     21.60
    -17.52     -1.53     23.04
    -17.52     -1.53     24.71
    -18.00     -2.00     26.15
    -18.00     -2.48     27.59
    -18.00     -3.20     29.02
    -18.24     -3.68     30.22
    -18.00     -4.16     30.94
    -17.76     -4.40     31.66
    -17.28     -4.64     32.14
    -17.04     -5.36     32.61
    -16.56     -5.60     33.09
    -16.32     -5.83     33.81
    -15.84     -5.83     34.29
    -15.60     -5.83     34.29
    -15.36     -5.83     34.05
    -14.89     -5.83     34.05
    -14.65     -6.07     34.05
    -14.17     -6.55     34.05
    -13.93     -6.55     34.05
    -13.69     -6.79     34.05
    -13.45     -6.79     34.05
    -13.21     -6.79     34.05
    -12.97     -6.55     33.81
    -12.73     -7.03     33.57
    -12.49     -7.03     33.33
    -12.49     -7.51     33.09
    -12.25     -7.75     32.85
    -12.25     -7.99     32.38
    -12.01     -7.99     31.90
    -12.01     -8.23     31.66
    -11.77     -8.47     31.42
    -11.77     -8.47     31.42
    -11.77     -8.47     31.18
    -11.53     -8.47     31.18
    -11.53     -8.47     30.94
    -11.29     -8.47     30.70
    -11.29     -8.47     30.46
    -11.29     -8.23     29.98
    -11.29     -8.23     29.26
    -11.29     -7.99     28.54
    -11.53     -7.99     27.83
    -11.53     -7.75     26.87
    -11.53     -7.51     26.15
    -11.53     -7.51     25.67
    -11.29     -7.51     24.95
    -11.29     -7.27     24.23
    -11.53     -7.27     23.28
    -11.29     -7.27     22.56
    -11.53     -7.27     21.60
    -11.53     -7.27     20.64
    -11.77     -7.03     19.69
    -11.77     -6.79     18.97
    -12.01     -7.03     18.25
    -12.01     -6.79     17.29
    -12.25     -7.03     16.33
    -12.49     -6.79     15.38
    -12.49     -6.55     14.18
    -12.73     -6.31     13.22
    -12.97     -6.07     12.26
    -13.21     -5.83     11.31
    -13.21     -5.60     10.11
    -13.45     -5.36      8.91
    -13.69     -5.12      7.95
    -13.93     -5.36      6.76
    -14.41     -4.88      5.32
    -14.65     -4.40      3.88
    -14.65     -3.92      2.69
    -14.89     -3.44      1.49
    -15.12     -2.96      0.53
    -15.12     -2.72     -0.43
    -15.12     -2.48     -1.38
    -15.36     -2.24     -2.58
    -15.36     -2.00     -3.30
    -15.12     -2.00     -4.50
    -15.12     -1.76     -5.21
    -14.89     -1.76     -6.17
    -14.65     -1.76     -6.89
    -14.17     -2.00     -7.85
    -13.93     -2.00     -8.80
    -13.45     -2.48     -9.52
    -12.97     -2.72    -10.24
    -12.49     -2.96    -10.72
    -11.77     -3.20    -11.44
    -11.05     -3.44    -12.16
    -10.34     -3.44    -12.40
     -9.62     -3.68    -12.87
     -8.66     -3.92    -13.35
     -7.46     -4.16    -13.83
     -6.51     -4.40    -14.31
     -5.31     -4.88    -15.03
     -4.35     -5.36    -15.75
     -3.15     -5.60    -16.23
     -1.96     -6.07    -16.47
     -0.52     -6.31    -16.47
      0.44     -6.79    -16.71
      1.87     -6.79    -16.95
      3.07     -6.55    -17.42
      4.27     -6.31    -17.90
      5.47     -5.83    -18.62
      6.66     -5.36    -18.86
      7.62     -4.88    -19.10
      8.34     -4.40    -19.10
      9.54     -3.92    -19.34
     10.49     -3.44    -19.58
     11.21     -2.96    -19.34
     12.17     -2.24    -19.34
     12.89     -1.76    -19.10
     13.61     -1.05    -19.10
     14.32     -0.57    -18.86
     15.04      0.15    -18.86
     15.76      1.11    -18.62
     16.48      1.83    -18.38
     16.96      2.78    -17.90
     17.68      3.50    -17.66
     18.15      4.46    -17.42
     18.63      5.18    -16.95
     19.11      5.90    -16.95
     19.35      6.38    -16.71
     19.59      6.85    -16.71
     19.83      7.09    -16.95
     19.83      7.57    -17.18
     19.83      7.57    -17.18
     19.83      7.81    -17.18
     19.83      8.05    -17.18
     19.35      8.29    -17.18
     19.11      8.77    -16.95
     18.63      9.01    -16.95
     17.92      9.25    -16.95
     17.20      9.49    -17.18
     16.24      9.73    -17.18
     15.52      9.73    -17.18
     14.56      9.97    -17.18
     13.61     10.21    -17.66
     12.41     10.21    -17.42
     11.21     10.21    -17.42
     10.25      9.97    -17.42
      9.06     10.21    -17.42
      8.10     10.21    -17.42
      6.90      9.97    -17.18
      6.18      9.97    -16.95
      4.99     10.21    -16.71
      4.27     10.21    -16.47
      3.31      9.97    -15.75
      2.35      9.73    -15.27
      1.40      9.49    -14.55
      0.68      9.25    -13.83
     -0.04      9.01    -12.87
     -1.00      8.77    -12.16
     -1.72      8.29    -11.44
     -2.44      8.29    -10.48
     -3.39      8.05    -10.00
     -4.11      7.81     -9.28
     -4.83      7.57     -8.57
     -5.55      7.33     -7.85
     -6.03      7.09     -7.13
     -6.74      7.09     -6.65
     -7.22      6.85     -6.17
     -7.70      6.85     -5.93
     -7.70      6.38     -5.45
     -7.94      6.14     -5.21
     -7.94      5.90     -4.97
     -7.94      5.42     -4.73
