********************************************************************************
              CENTRO DE INSTRUMENTACION Y REGISTRO SISMICO  A.C.

    Anaxagoras 814, Col. Narvarte, Benito Juarez, C.P. 03020 Mexico, D.F.
           Tels. 5687 45 42/ 5687 45  82             Fax. 5669 25 12
********************************************************************************
ARCHIVO ESTANDAR DE ACELERACION:
VERSION DEL FORMATO                    : 2.0
NOMBRE DEL ARCHIVO                     : AE0220170908044918
FECHA Y HORA DE CREACION               : 27/SEP/17, 12:18
REF. CATALOGO ACELEROGRAMAS, SMIS 1996 : REGISTRO No.     /PAG.


================================================================================
DATOS DE LA ESTACION:
NOMBRE DE LA ESTACION                  : ESC. PRIM. "GONZÁLEZ GARZÓN"
CLAVE DE LA ESTACION                   : AE02
LOCALIZACION DE LA ESTACION            : Del. Venustiano Carranza,              
                                       : Col. El Arenal 4a. Sección,            
                                       : Calle Xico esq. con calle Xocoyote.    
                                       :                                        
                                       : 
COORDENADAS DE LA ESTACION             : 19.4290 LAT. N
                                       : 99.0584 LONG. W
ALTITUD (msnm)                         : 2232
TIPO DE SUELO                          : Arcilloso, zona lago                
                                       :                           
                                       : 
INSTITUCION RESPONSABLE                : CIRES
                                       : 

================================================================================
DATOS DEL ACELEROGRAFO:
MODELO DEL ACELEROGRAFO                : RADESD
NUMERO DE SERIE DEL ACELEROGRAFO       : 242
NUMERO DE CANALES                      : 3
ORIENTACION C1-C6 (rumbo;orientacion)  : /N00E/+V/N90W
ORIENTACION C7-C12 (rumbo;orientacion) : 
VEL. DE MUESTREO, C1-C6 (muestras/s)   : /100/100/100
VEL. DE MUESTREO, C7-C12 (muestras/s)  : 
ESC. COMPLETA DE SENSORES, C1-C6, (g)  : /0.5/0.5/0.5
ESC. COMPLETA DE SENSORES, C7-C12, (g) : 
FREC. NAT. DE SENSORES, C1-C6, (Hz)    : /30/30/30
FREC. NAT. DE SENSORES, C7-C12, (Hz)   : 
AMORTIGUAMIENTO DE SENSORES, C1-C6     : /0.733/0.750/0.700
AMORTIGUAMIENTO DE SENSORES, C7-C12    : 
INTERVALO DE MUESTREO, C1-C6, (s)      : /0.01/0.01/0.01
INTERVALO DE MUESTREO, C7-C12, (s)     : 
UMBRAL DE DISPARO, C1-C6, (Gal)        : /1.5/8.23/1.8
UMBRAL DE DISPARO, C7-C12, (Gal)       : 
MEMORIA DE PREEVENTO (s)               : 44.0
TIEMPO DE POSEVENTO (s)                : 64.0


================================================================================
DATOS DEL SISMO:
FECHA DEL SISMO (GMT)                  : 08/SEP/17
HORA EPICENTRO (GMT)                   : 04:49:18.0
MAGNITUD(ES)                           : /Mc=8.2
COORDENADAS DEL EPICENTRO              : 14.85 LAT. N
                                       : 94.11 LONG. W
PROFUNDIDAD FOCAL (km)                 : 58
FUENTE DE LOS DATOS EPICENTRALES       : SSN
                                       : INSTITUTO DE GEOFISICA, UNAM

================================================================================
DATOS DE ESTE REGISTRO:
HORA DE LA PRIMERA MUESTRA (GMT)       : 04:51:36.00
EXACTITUD DEL TIEMPO (s)               : 0.01
DURACION DEL REGISTRO (s), C1-C6       : /684.0/684.0/684.0
DURACION DEL REGISTRO (s), C7-C12      : 
NUM. TOTAL DE MUESTRAS, C1-C6          : /68400/68400/68400
NUM. TOTAL DE MUESTRAS, C7-C12         : 
ACEL. MAX. (Gal), C1-C6                : /41.90399/7.09008/32.47865
ACEL. MAX., C1-C6, EN LA MUESTRA       : /14396/13435/13826
ACEL. MAX. (Gal), C7-C12               : 
ACEL. MAX., C7-C12, EN LA MUESTRA      : 
UNIDADES DE LOS DATOS                  : Gal (cm/s/s)
FACTOR DE DECIMACION                   : 1
FORMATO DATOS (FORTRAN,10 campos/dato) : 3F10.5


================================================================================
CALIDAD DEL ACELEROGRAMA:
REGISTRO DIGITAL COMPLETO CON TIEMPO ABSOLUTO CORRECTO.


================================================================================
COMENTARIOS:














================================================================================
DATOS DE ACELERACION:
---------+---------+---------+---------+---------+---------+---------+---------+
   CANAL-1   CANAL-2   CANAL-3   CANAL-4   CANAL-5   CANAL-6   CANAL-7   CANAL-8
      N00E        +V      N90W
---------+---------+---------+---------+---------+---------+---------+---------+
[...]
  14.02650  -1.99292 -17.93426
  13.90679  -1.99292 -17.93426
  13.80205  -1.85825 -17.78462
  13.38306  -1.93307 -17.45542
  13.02393  -1.90314 -17.27585
  12.54509  -1.97796 -17.12621
  12.06625  -1.84328 -16.97658
  11.76698  -1.85825 -16.51270
  11.58741  -1.82832 -15.88422
  11.30310  -1.63379 -15.09114
  11.00382  -1.57394 -13.96886
  10.71951  -1.43926 -12.96629
  10.48009  -1.57394 -12.14328
  10.42024  -1.45423 -11.60459
  10.04614  -1.43926 -11.73926
   9.80672  -1.19984 -12.35277
   9.56730  -0.99035 -13.23564
   9.07350  -0.91553 -14.34295
   8.38517  -1.02028 -15.19589
   7.74172  -1.16991 -16.16853
   7.29281  -1.02028 -17.02147
   7.02346  -0.76589 -17.50031
   7.21799  -0.24216 -17.82951
   7.47238   0.38632 -18.12879
   7.45741   0.98487 -18.11382
   7.21799   1.65824 -18.20361
   6.75412   1.94255 -17.99411
   6.54462   2.10715 -17.72476
   6.55959   2.28671 -17.53024
   6.93368   2.43635 -17.12621
   7.57712   2.93016 -16.76708
   7.99611   3.37907 -16.51270
   8.14575   3.72324 -16.09371
   7.95122   4.02251 -15.88422
   7.80158   4.00755 -15.80940
   7.72676   3.81302 -15.74955
   8.11582   3.75316 -15.74955
   8.74430   3.66338 -15.62984
   9.07350   3.73820 -15.62984
   9.38774   3.82798 -15.45027
   9.08846   3.81302 -15.18093
   8.89393   4.02251 -14.82180
   8.63955   3.82798 -14.26814
   8.89393   3.82798 -13.81922
   9.38774   3.61849 -13.50498
   9.62716   3.64842 -13.51995
   9.40270   3.58856 -13.69951
   8.98372   3.69331 -13.96886
   8.38517   3.72324 -14.19332
   7.84647   3.69331 -14.35792
   7.56216   3.70827 -14.35792
   7.50230   3.81302 -14.40281
   7.38259   3.88784 -14.62727
   7.15814   3.93273 -14.88165
   6.61944   3.93273 -15.21085
   6.23038   3.97762 -15.37545
   5.97600   3.90280 -15.36049
   5.66176   3.93273 -15.36049
   5.25774   3.79805 -15.51013
   4.95846   3.61849 -15.70466
   4.91357   3.52871 -15.73458
   4.70408   3.42396 -15.74955
   4.21028   3.43892 -16.07875
   3.55187   3.16958 -16.10868
   3.23763   2.94512 -16.03386
   2.93836   2.79548 -15.98897
   2.57923   2.67577 -16.10868
   2.33981   2.48124 -16.10868
   2.13031   2.28671 -16.24335
   1.80111   2.09219 -16.43788
   1.32227   1.85277 -16.61745
   0.96314   1.68816 -16.60248
   0.63394   1.28414 -16.66234
   0.46934   1.13450 -16.49774
   0.15510   0.93998 -16.34810
  -0.14418   0.67063 -16.25832
  -0.45842   0.50603 -16.28824
  -0.96718   0.28157 -16.51270
  -1.41610  -0.09252 -16.58752
  -1.74530  -0.22720 -16.75212
  -2.17925  -0.39180 -16.70723
  -2.35881  -0.58633 -16.70723
  -2.77780  -0.75093 -16.90176
  -3.15189  -0.93049 -16.82694
  -3.37635  -0.99035 -16.79701
  -3.82526  -1.31955 -16.78205
  -4.01979  -1.42430 -16.54263
  -4.10957  -1.58890 -16.28824
  -4.22928  -1.60386 -16.27328
  -4.40885  -1.63379 -16.07875
  -4.52856  -1.54401 -15.89919
  -4.72309  -1.81336 -15.73458
  -4.79791  -1.97796 -15.64480
  -4.94754  -2.06774 -15.40538
  -5.06725  -2.44183 -14.86669
  -5.14207  -2.62140 -14.58238
  -5.38149  -2.80096 -14.20828
  -5.54609  -3.05535 -13.72944
  -5.38149  -3.29477 -13.31046
  -5.41142  -3.36959 -12.98125
  -5.54609  -3.60901 -12.29292
  -5.60595  -3.60901 -11.76919
  -5.65084  -3.74368 -11.23049
  -5.65084  -3.74368 -10.75165
  -5.78552  -3.78857 -10.09325
  -5.90523  -3.83346  -9.67426
  -5.86033  -3.84843  -9.10564
  -5.99501  -3.72872  -8.55198
  -6.15961  -3.81850  -8.20781
  -6.20450  -3.90828  -7.72897
  -6.23443  -3.86339  -7.22020
  -6.39903  -3.93821  -6.62165
  -6.54867  -4.01303  -6.12785
  -6.63845  -3.92325  -5.64901
  -6.90780  -3.96814  -5.21506
  -6.95269  -3.90828  -4.75118
  -7.07240  -3.77361  -4.31724
  -7.38664  -3.75864  -3.89825
  -7.49138  -3.71375  -3.34459
  -7.70088  -3.66886  -2.86575
  -7.86548  -3.50426  -2.32706
  -8.13483  -3.42944  -1.92303
  -8.32935  -3.20499  -1.56390
  -8.49396  -3.04038  -1.24966
  -8.73338  -2.74111  -0.86061
  -9.10747  -2.63636  -0.51644
  -9.33193  -2.47176   0.02226
  -9.54142  -2.35205   0.48613
  -9.73595  -1.97796   0.83030
  -9.97537  -1.88817   1.09965
 -10.24472  -1.76846   1.42885
 -10.52903  -1.67868   1.75805
 -11.08269  -1.67868   2.04236
 -11.48671  -1.66372   2.41646
 -11.78598  -1.37941   2.58106
 -11.99548  -1.40933   2.98508
 -11.99548  -1.13999   3.35917
 -12.10022  -1.03524   3.67341
 -12.51921  -0.99035   4.03254
 -13.08783  -0.91553   4.13729
 -13.77616  -0.88560   4.22707
 -14.26997  -0.78086   4.51138
 -14.55428  -0.48158   4.87051
 -14.71888  -0.24216   5.30446
 -15.34736  -0.22720   5.37928
 -15.94591  -0.16734   5.31943
 -16.76892  -0.01770   5.22964
 -17.39739   0.26661   5.49899
 -17.86127   0.34143   5.93294
 -18.19047   0.40128   6.23222
 -18.59449   0.46114   6.24718
 -19.04341   0.58085   6.44171
 -19.74670   0.73048   6.45667
 -20.52482   0.92501   6.44171
 -21.22812   1.01479   6.57638
 -21.75185   1.11954   6.86069
 -22.41025   0.99983   7.01033
 -23.06866   1.08961   6.95048
 -23.45772   1.08961   7.21982
 -23.72706   1.34400   7.47421
 -24.32561   1.34400   7.74356
 -24.81942   1.25421   8.16254
 -25.46286   1.13450   8.43189
 -26.25594   0.92501   8.41692
 -26.86945   0.76041   8.56656
 -27.28844   0.95494   8.50671
 -27.66253   0.86516   8.88080
 -27.69246   0.86516   9.03044
 -27.73735   0.83523   8.95562
 -27.81217   0.73048   9.12022
 -28.03663   0.67063   9.41950
 -28.15634   0.65566   9.71877
 -28.20123   0.47610  10.01805
 -28.17130   0.52099  10.07790
 -28.15634   0.26661  10.28739
 -28.00670   0.29653  10.40710
 -28.03663   0.14690  10.72134
 -27.91692   0.17682  10.85602
 -27.61764   0.25164  11.02062
 -27.48297   0.20675  11.23011
 -27.30340   0.11697  11.66406
 -27.04902   0.07208  11.93341
 -26.86945   0.10201  12.35239
 -26.86945   0.05711  12.50203
 -26.74974   0.10201  13.02576
 -26.52529   0.25164  13.48964
 -26.42054   0.28157  13.84877
 -26.34572   0.28157  14.34257
 -26.16616   0.40128  14.76156
 -26.06141   0.38632  15.13565
 -25.83695   0.47610  15.47982
 -25.62746   0.70056  15.83895
 -25.65739   0.64070  16.18312
 -25.44790   0.91005  16.60210
 -25.41797   0.88012  17.06598
 -25.22344   0.89508  17.47000
 -25.25337   0.83523  17.76927
 -25.08877   0.93998  18.06855
 -24.96906   1.07465  18.27804
 -24.96906   1.23925  18.74192
 -24.93913   1.37393  18.98134
 -24.95409   1.41882  19.40032
 -24.96906   1.53853  19.65471
 -25.02891   1.73306  19.83427
 -25.22344   1.62831  20.04377
 -25.46286   1.71809  20.17844
 -25.44790   1.71809  20.43282
 -25.47782   1.88269  20.44779
 -25.56761   1.74802  20.41786
 -25.59753   1.64327  20.40290
 -25.46286   1.62831  20.26822
 -25.41797   1.53853  20.10362
 -25.41797   1.40385  19.90909
 -25.35811   1.26918  19.78938
 -25.05884   1.31407  19.59485
 -25.05884   1.25421  19.14594
 -25.04387   1.14947  19.04119
 -24.93913   0.96990  18.81674
 -24.84935   0.93998  18.33790
 -24.69971   0.88012  17.90395
 -24.46029   0.79034  17.52985
 -24.26576   0.61077  16.97620
 -24.08619   0.47610  16.46743
 -23.89167   0.37135  16.03348
 -23.57743   0.17682  15.49478
 -23.08362   0.04215  15.09076
 -22.76938  -0.01770  14.61192
 -22.35040  -0.30202  14.34257
 -21.85659  -0.45165  13.87870
 -21.54235  -0.55640  13.25022
 -21.16826  -0.81078  12.89109
 -20.37518  -0.93049  12.65167
 -19.88138  -0.99035  12.21772
 -19.17808  -1.18488  12.00823
 -18.69924  -1.39437  11.81370
 -17.95105  -1.60386  11.66406
 -16.96344  -1.72357  11.43960
 -16.33497  -1.87321  11.36479
 -15.63167  -2.03781  11.15529
 -14.94334  -2.09767  11.17026
 -14.12033  -2.14256  11.08047
 -13.37214  -2.27723  10.94580
 -12.62395  -2.45680  10.88595
 -11.89073  -2.44183  10.78120
 -11.11261  -2.45680  10.79616
 -10.24472  -2.59147  10.91587
  -9.49653  -2.48673  10.73631
  -8.88301  -2.62140  10.87098
  -8.13483  -2.63636  10.90091
  -7.25196  -2.56154  11.14033
  -6.47385  -2.51665  11.14033
  -5.80048  -2.57651  11.40968
  -4.94754  -2.50169  11.48450
  -4.22928  -2.38198  11.52939
  -3.54095  -2.56154  11.63413
  -2.68802  -2.41191  11.67902
  -1.89494  -2.42687  11.58924
  -1.13179  -2.62140  11.63413
  -0.27885  -2.47176  11.51442
   0.43941  -2.60644  11.63413
   1.15767  -2.63636  11.60421
   1.95075  -2.68125  11.58924
   2.75879  -2.62140  11.57428
   3.40223  -2.57651  11.52939
   3.94093  -2.54658  11.61917
   4.59933  -2.41191  11.81370
   5.10810  -2.38198  11.88852
   5.60191  -2.27723  11.93341
   6.15557  -2.00788  12.23268
   6.43988  -2.00788  12.27757
   6.94865  -2.00788  12.56189
   7.38259  -1.64875  12.69656
   7.72676  -1.51408  12.80131
   8.28042  -1.34948  12.96591
   8.53480  -1.28962  13.04073
   8.75926  -1.21481  13.31007
   9.16328  -1.00531  13.31007
   9.41767  -0.90057  13.38489
   9.77680  -0.79582  13.35497
  10.06111  -0.64618  13.56446
  10.31549  -0.67611  13.60935
  10.73448  -0.58633  13.84877
  10.79433  -0.54144  13.86373
  11.06368  -0.22720  14.07323
  11.24324  -0.39180  14.38747
  11.31806  -0.25712  14.46228
  11.60237  -0.03267  14.64185
  11.70712   0.10201  14.73163
  11.94654   0.22172  14.79149
  12.09618   0.47610  14.92616
  12.33560   0.62574  15.12069
  12.36553   0.71552  15.12069
  12.64984   0.85019  15.09076
  13.00897   1.08961  14.97105
  13.20350   1.29911  14.61192
  13.68234   1.56845  14.44732
  13.90679   1.41882  14.19294
  14.20607   1.74802  14.04330
  14.65498   2.03233  13.66920
  15.20864   2.12211  13.47468
  15.68748   2.33161  13.05569
  16.21121   2.49621  12.77138
  16.79480   2.58599  12.53196
  17.52802   2.69074  12.23268
  18.15650   2.84037  11.93341
  18.90469   2.88526  11.61917
  19.36857   2.99001  11.23011
  19.98208   2.97505  10.99069
  20.83501   2.87030  10.73631
  21.59817   3.13965  10.34725
  22.24161   3.10972  10.09287
  22.88505   3.15461   9.77863
  23.51353   3.09476   9.49432
  24.38143   3.15461   9.26986
  25.03983   3.16958   8.97058
  25.71320   3.06483   8.73116
  26.52124   3.15461   8.38700
  27.16469   2.96008   7.99794
  27.98769   2.91519   7.87823
  28.79574   2.96008   7.50414
  29.61874   2.96008   7.33953
  30.39686   2.73563   7.23479
  30.96548   2.73563   7.01033
  31.71367   2.72066   6.87566
  32.44689   2.69074   6.59135
  33.13523   2.58599   6.39682
  33.74874   2.37650   6.33696
  34.40715   2.25679   6.09754
  35.05059   2.28671   5.84316
  35.70899   2.16700   5.81323
  36.29258   2.01737   5.46906
  36.74149   1.80787   5.31943
  37.29515   1.76298   4.99022
  37.86377   1.64327   4.75080
  38.31269   1.52356   4.49642
  38.64189   1.47867   4.09240
  39.01598   1.35896   3.77816
  39.37511   1.14947   3.49385
  39.77914   0.95494   3.05990
  40.06345   0.74545   2.73070
  40.37769   0.61077   2.52120
  40.61711   0.52099   2.29675
  40.85653   0.31150   2.04236
  41.29048   0.23668   1.98251
  41.49997   0.02719   1.80294
  41.67953  -0.09252   1.56352
  41.85910  -0.34691   1.35403
  41.90399  -0.55640   1.11461
  41.84413  -0.90057   0.92008
  41.72442  -0.88560   0.66570
  41.38026  -1.05020   0.38139
  41.18573  -1.25970   0.21678
  40.88645  -1.46919   0.03722
  40.72185  -1.49912  -0.08249
  40.01856  -1.64875  -0.47155
  39.55468  -1.75350  -0.74090
  39.04591  -1.67868  -0.86061
  38.37254  -1.70861  -1.18981
  37.72910  -1.64875  -1.32448
  37.02580  -1.60386  -1.48908
  36.44222  -1.63379  -1.66865
  35.75388  -1.67868  -1.81829
  34.96080  -1.73854  -1.92303
  34.04802  -1.72357  -2.19238
  33.15019  -1.79839  -2.37195
  32.17755  -1.61883  -2.49166
  31.01037  -1.55897  -2.82086
  29.94794  -1.52904  -3.03035
  28.91545  -1.52904  -3.19495
  27.68842  -1.63379  -3.37452
  26.59606  -1.67868  -3.59897
  25.42889  -1.45423  -3.83840
  24.30661  -1.51408  -4.06285
  23.10951  -1.45423  -4.25738
  21.97226  -1.30459  -4.57162
  20.84998  -1.19984  -4.88586
  19.86237  -0.97539  -5.11031
  18.77002  -0.85568  -5.15521
  17.70759  -0.69107  -5.37966
  16.54042  -0.54144  -5.61908
  15.61266  -0.33194  -5.78368
  14.64002  -0.24216  -5.93332
  13.56263   0.05711  -6.08296
  12.51516   0.31150  -6.39720
  11.52756   0.40128  -6.62165
  10.59980   0.32646  -6.92093
   9.64212   0.43121  -7.19028
   8.57969   0.38632  -7.41473
   7.77165   0.41624  -7.60926
   6.84390   0.47610  -7.81876
   6.02089   0.55092  -7.93847
   5.15299   0.50603  -8.08810
   4.49459   0.55092  -8.41731
   3.73144   0.56588  -8.71658
   2.95332   0.50603  -8.85125
   2.39966   0.32646  -9.04578
   1.71133   0.37135  -9.40491
   0.84343   0.28157  -9.79397
   0.61897   0.29653 -10.18303
   0.25984   0.11697 -10.46734
  -0.23396   0.08704 -11.06589
  -0.71280  -0.04763 -11.60459
  -0.95222  -0.21223 -12.05350
  -1.41610  -0.34691 -12.78672
  -1.58070  -0.45165 -13.29549
  -1.76026  -0.57136 -13.83419
  -2.08947  -0.82575 -14.35792
  -2.28400  -1.03524 -14.83676
  -2.41867  -1.21481 -15.24078
  -2.49349  -1.45423 -15.62984
  -2.44860  -1.46919 -16.09371
  -2.68802  -1.63379 -16.36306
  -2.86758  -1.66372 -16.61745
  -2.91247  -1.64875 -16.99154
  -3.06211  -1.64875 -17.32074
  -3.12197  -1.72357 -17.70980
  -3.06211  -1.73854 -18.06893
  -3.01722  -1.64875 -18.32332
  -3.00226  -1.67868 -18.53281
  -3.04715  -1.55897 -18.83208
  -3.01722  -1.60386 -18.98172
  -2.98729  -1.72357 -19.08647
  -2.80773  -1.60386 -19.23610
  -2.80773  -1.55897 -19.26603
  -2.74787  -1.61883 -19.25107
  -2.58327  -1.67868 -19.22114
  -2.65809  -1.67868 -19.14632
  -2.68802  -1.54401 -18.92187
  -2.56831  -1.54401 -18.84705
  -2.49349  -1.63379 -18.77223
  -2.50845  -1.52904 -18.59266
  -2.50845  -1.54401 -18.50288
  -2.40371  -1.63379 -18.36821
  -2.23910  -1.46919 -18.54777
  -2.26903  -1.49912 -18.63755
  -2.28400  -1.55897 -18.89194
  -2.22414  -1.55897 -19.10143
  -2.16429  -1.58890 -19.25107
  -2.13436  -1.61883 -19.35581
  -2.05954  -1.63379 -19.46056
  -2.22414  -1.66372 -19.55034
  -2.05954  -1.55897 -19.38574
  -2.16429  -1.66372 -19.43063
  -2.20918  -1.57394 -19.26603
  -2.37378  -1.57394 -19.02661
  -2.56831  -1.57394 -18.87697
  -2.71794  -1.57394 -18.75726
  -2.98729  -1.61883 -18.45799
  -3.18182  -1.60386 -18.06893
  -3.24168  -1.36444 -17.63498
  -3.51102  -1.33452 -17.32074
  -3.66066  -1.25970 -16.79701
  -4.03476  -1.16991 -16.51270
  -4.24425  -1.05020 -16.09371
  -4.40885  -0.69107 -15.86926
  -4.54352  -0.52647 -15.68969
  -4.76798  -0.27209 -15.36049
  -4.97747  -0.00274 -15.03129
  -5.15704   0.13193 -14.86669
  -5.33660   0.28157 -14.55245
  -5.44135   0.55092 -14.19332
  -5.72566   0.79034 -13.87908
  -5.99501   1.02976 -13.59477
  -6.05486   1.32903 -13.28053
  -6.35414   1.43378 -12.87651
  -6.54867   1.76298 -12.54730
  -6.72823   1.97248 -12.14328
  -6.95269   2.12211 -11.76919
  -7.07240   2.45132 -11.38013
  -7.38664   2.40642 -11.05093
  -7.44649   2.70570 -10.64691
  -7.64102   2.81045 -10.31770
  -7.85051   3.01994  -9.85383
  -8.03008   3.15461  -9.50966
  -8.22461   3.21447  -9.04578
  -8.47899   3.52871  -8.67169
  -8.76330   3.64842  -8.28263
  -9.01769   3.90280  -7.89357
  -9.28703   3.93273  -7.48955
  -9.46660   4.15718  -7.05560
  -9.66113   4.20208  -6.57676
  -9.93048   4.27689  -6.26252
 -10.11004   4.42653  -5.81361
 -10.36443   4.39660  -5.42455
 -10.75348   4.50135  -4.97564
 -11.03779   4.65099  -4.64644
 -11.11261   4.68092  -4.28731
 -11.33707   4.69588  -3.85336
 -11.47174   4.72581  -3.46430
 -11.50167   4.75573  -2.91064
 -11.62138   4.75573  -2.59640
 -11.69620   4.62106  -2.17742
 -11.77102   4.51631  -1.56390
 -11.78598   4.42653  -1.18981
 -12.10022   4.23200  -0.99528
 -12.44439   4.18711  -1.08506
