********************************************************************************
               CENTRO DE INSTRUMENTACION Y REGISTRO SISMICO  A.C.  
                       Coordinacion de Servicios Tecnicos
     Anaxagoras 814, Col. Narvarte, Benito Juarez, C.P. 03020 Mexico, D.F.
            Tels. 687 45 42/ 687 45  82             Fax. 669 25 12
********************************************************************************
ARCHIVO ESTANDAR DE ACELERACION:
VERSION DEL FORMATO                    : 2.0
NOMBRE DEL ARCHIVO                     : AE020110.081
FECHA Y HORA DE CREACION               : 06/JUL/04, 11:20
REF. CATALOGO ACELEROGRAMAS, SMIS 1996 : REGISTRO No.     /PAG.


================================================================================
DATOS DE LA ESTACION:
NOMBRE DE LA ESTACION                  : AEROPUERTO
CLAVE DE LA ESTACION                   : AE02
LOCALIZACION DE LA ESTACION            : Esc Prim Gonzalez Garzon Calle Xico
                                       : s/n, Col. IV Seccion del Arenal
                                       : Venustiano Carranza
                                       :
                                       :
COORDENADAS DE LA ESTACION             : 19.429 LAT. N 
                                       : 99.058 LONG. W 
ALTITUD (msnm)                         : 2232
TIPO DE SUELO                          : ARCILLOSO, ZONA LAGO
                                       : 
                                       : 
INSTITUCION RESPONSABLE                : CIRES
                                       :

================================================================================
DATOS DEL ACELEROGRAFO:
MODELO DEL ACELEROGRAFO                : RAD-851
NUMERO DE SERIE DEL ACELEROGRAFO       : 242
NUMERO DE CANALES                      : 3
ORIENTACION C1-C6 (rumbo;orientacion)  : /N00E/+V/N90W
ORIENTACION C7-C12 (rumbo;orientacion) :
VEL. DE MUESTREO, C1-C6 (muestras/s)   : /100/100/100
VEL. DE MUESTREO, C7-C12 (muestras/s)  :
ESC. COMPLETA DE SENSORES, C1-C6, (g)  : /0.5/0.5/0.5
ESC. COMPLETA DE SENSORES, C7-C12, (g) :
FREC. NAT. DE SENSORES, C1-C6, (Hz)    : /30/30/30
FREC. NAT. DE SENSORES, C7-C12, (Hz)   :
AMORTIGUAMIENTO DE SENSORES, C1-C6     : /0.733/0.750/0.700
AMORTIGUAMIENTO DE SENSORES, C7-C12    :
INTERVALO DE MUESTREO, C1-C6, (s)      : /0.01/0.01/0.01
INTERVALO DE MUESTREO, C7-C12, (s)     :
UMBRAL DE DISPARO, C1-C6, (Gal)        : /1.99/3.91/1.99
UMBRAL DE DISPARO, C7-C12, (Gal)       :
MEMORIA DE PREEVENTO (s)               : 24
TIEMPO DE POSEVENTO (s)                : 64


================================================================================
DATOS DEL SISMO:
FECHA DEL SISMO (GMT)                  : 08/OCT/01
HORA EPICENTRO (GMT)                   : 03:39:19:3
MAGNITUD(ES)                           : /Mb=5.6/Ms=5.4/Mc=5.5/Ma=7.6/Me=6.1
COORDENADAS DEL EPICENTRO              : 16.94 LAT. N
                                       : 100.14 LONG. W
PROFUNDIDAD FOCAL (km)                 : 4.0
FUENTE DE LOS DATOS EPICENTRALES       : SSN
                                       : INSTITUTO DE GEOFISICA, UNAM

================================================================================
DATOS DE ESTE REGISTRO:
HORA DE LA PRIMERA MUESTRA (GMT)       : 03:40:45.00
EXACTITUD DEL TIEMPO (s)               : 0.01
DURACION DEL REGISTRO (s), C1-C6       : /136.75/136.75/136.75
DURACION DEL REGISTRO (s), C7-C12      :
NUM. TOTAL DE MUESTRAS, C1-C6          : /13675/13675/13675
NUM. TOTAL DE MUESTRAS, C7-C12         :
ACEL. MAX. (Gal), C1-C6                : /-7.17956/2.40426/-5.03583
ACEL. MAX., C1-C6, EN LA MUESTRA       :
ACEL. MAX. (Gal), C7-C12               :
ACEL. MAX., C7-C12, EN LA MUESTRA      :
UNIDADES DE LOS DATOS                  : Gal (cm/s/s)
FACTOR DE DECIMACION                   : 1
FORMATO DATOS (FORTRAN,10 campos/dato) : 3F10.5


================================================================================
CALIDAD DEL ACELEROGRAMA:
REGISTRO DIGITAL COMPLETO CON TIEMPO ABSOLUTO CORRECTO.


================================================================================
COMENTARIOS:














================================================================================
DATOS DE ACELERACION:
---------+---------+---------+---------+---------+---------+---------+---------+
   CANAL-1   CANAL-2   CANAL-3   CANAL-4   CANAL-5   CANAL-6   CANAL-7   CANAL-8
      N00E        +V      N90W
---------+---------+---------+---------+---------+---------+---------+---------+
[...]
   1.91836   0.01007   0.23138
   1.43953   0.01007   0.47080
   0.96069   0.01007   0.23138
   0.72127   0.01007   0.23138
   0.24243   0.24949   0.47080
   0.00301   0.24949   0.47080
  -0.47583   0.72832   0.71022
  -0.95466   0.48890   0.71022
  -1.19408   0.72832   0.94964
  -1.19408   0.72832   0.71022
  -1.43350   0.96774   0.71022
  -1.67292   1.20716   0.71022
  -1.91234   1.20716   0.71022
  -1.91234   1.20716   0.47080
  -2.15176   1.20716   0.23138
  -2.39118   1.20716  -0.00804
  -2.63060   0.96774  -0.24746
  -2.39118   0.72832  -0.48687
  -2.39118   0.48890  -0.72629
  -2.63060   0.24949  -0.96571
  -2.39118   0.01007  -1.20513
  -2.39118  -0.22935  -1.44455
  -2.39118  -0.46877  -1.68397
  -2.63060  -0.70819  -1.92339
  -2.63060  -0.94761  -1.92339
  -2.63060  -1.18703  -2.16281
  -2.87002  -1.42645  -2.16281
  -2.87002  -1.66587  -2.16281
  -2.63060  -1.66587  -2.16281
  -2.63060  -1.90528  -2.16281
  -2.63060  -1.90528  -1.92339
  -2.39118  -1.90528  -1.68397
  -2.15176  -1.90528  -1.44455
  -1.91234  -1.90528  -1.44455
  -1.91234  -1.90528  -0.96571
  -1.67292  -1.66587  -0.72629
  -1.43350  -1.66587  -0.72629
  -1.43350  -1.66587  -0.48687
  -1.19408  -1.66587  -0.48687
  -1.19408  -1.66587  -0.48687
  -1.19408  -1.66587  -0.48687
  -0.95466  -1.66587  -0.24746
  -0.71525  -1.42645  -0.48687
  -0.95466  -1.66587  -0.48687
  -0.71525  -1.66587  -0.48687
  -0.47583  -1.66587  -0.72629
  -0.23641  -1.66587  -0.72629
   0.00301  -1.66587  -0.96571
   0.24243  -1.66587  -1.20513
   0.48185  -1.42645  -1.20513
   0.72127  -1.18703  -1.44455
   0.96069  -0.94761  -1.68397
   1.20011  -0.94761  -1.68397
   1.20011  -0.70819  -1.68397
   1.43953  -0.70819  -1.68397
   1.67894  -0.46877  -1.68397
   1.67894  -0.46877  -1.92339
   1.67894  -0.46877  -1.68397
   1.67894  -0.46877  -1.44455
   1.43953  -0.46877  -1.44455
   1.43953  -0.22935  -0.96571
   1.20011  -0.22935  -0.48687
   0.72127  -0.22935  -0.24746
   0.48185  -0.22935   0.23138
   0.00301  -0.22935   0.71022
  -0.47583   0.01007   1.18906
  -0.71525   0.01007   1.42848
  -0.95466   0.24949   1.66790
  -1.19408   0.24949   2.14673
  -1.43350   0.24949   2.38615
  -1.67292   0.48890   2.62557
  -1.67292   0.48890   2.86499
  -1.67292   0.24949   3.10441
  -1.67292   0.48890   3.10441
  -1.43350   0.72832   3.10441
  -1.43350   0.72832   3.10441
  -1.19408   0.72832   3.34383
  -1.19408   0.96774   2.86499
  -0.95466   0.96774   2.86499
  -0.95466   0.96774   2.62557
  -0.71525   1.20716   2.62557
  -0.47583   1.20716   2.38615
  -0.23641   1.20716   2.14673
   0.00301   1.20716   1.90732
   0.00301   1.20716   1.42848
   0.24243   1.20716   1.18906
   0.72127   1.20716   0.94964
   0.96069   1.20716   0.47080
   1.20011   1.44658   0.23138
   1.43953   1.44658  -0.24746
   1.67894   1.44658  -0.48687
   1.91836   1.20716  -0.96571
   2.15778   0.96774  -1.44455
   2.39720   0.96774  -1.68397
   2.63662   0.96774  -1.92339
   2.87604   0.72832  -2.16281
   3.11546   0.72832  -2.16281
   3.11546   0.72832  -1.92339
   3.11546   0.72832  -1.92339
   3.35488   0.72832  -1.68397
   3.11546   0.72832  -1.44455
   3.11546   0.72832  -1.44455
   3.11546   0.72832  -1.20513
   3.11546   0.96774  -1.20513
   2.87604   0.96774  -1.20513
   3.11546   1.20716  -1.20513
   2.87604   0.96774  -1.20513
   2.87604   1.20716  -1.20513
   2.87604   1.20716  -1.20513
   2.63662   1.20716  -1.20513
   2.63662   1.20716  -1.20513
   2.39720   1.20716  -1.44455
   2.39720   1.20716  -1.68397
   2.15778   0.96774  -1.92339
   1.91836   0.96774  -1.92339
   1.91836   0.96774  -2.16281
   1.67894   0.72832  -2.40223
   1.20011   0.48890  -2.64164
   0.96069   0.48890  -2.40223
   0.72127   0.48890  -2.64164
   0.48185   0.48890  -2.40223
   0.00301   0.48890  -2.40223
  -0.47583   0.48890  -2.16281
  -0.95466   0.48890  -2.16281
  -0.95466   0.24949  -1.92339
  -1.43350   0.24949  -1.68397
  -1.91234   0.01007  -1.44455
  -1.91234   0.01007  -1.20513
  -1.91234  -0.22935  -1.20513
  -2.39118  -0.22935  -1.20513
  -2.63060  -0.70819  -0.96571
  -2.87002  -0.70819  -0.96571
  -2.87002  -0.94761  -0.96571
  -2.87002  -1.18703  -0.96571
  -2.87002  -1.18703  -0.72629
  -3.10943  -1.18703  -0.72629
  -3.10943  -1.42645  -0.48687
  -3.10943  -1.42645  -0.48687
  -3.10943  -1.18703  -0.24746
  -2.87002  -1.42645  -0.24746
  -2.87002  -1.18703  -0.24746
  -2.39118  -1.18703  -0.00804
  -2.63060  -1.18703   0.23138
  -2.39118  -1.18703   0.23138
  -2.15176  -1.18703   0.71022
  -1.91234  -0.94761   0.71022
  -1.91234  -1.18703   0.94964
  -1.67292  -0.94761   1.18906
  -1.67292  -1.18703   1.18906
  -1.43350  -0.94761   1.18906
  -1.43350  -0.70819   1.42848
  -1.43350  -0.70819   1.42848
  -1.19408  -0.46877   1.66790
  -1.43350  -0.22935   1.66790
  -1.19408  -0.22935   1.90732
  -1.19408  -0.22935   2.14673
  -1.19408   0.01007   2.38615
  -1.19408   0.01007   2.38615
  -0.95466   0.01007   2.38615
  -0.95466   0.01007   2.38615
  -0.71525   0.01007   2.38615
  -0.71525   0.01007   2.14673
  -0.47583   0.01007   2.14673
  -0.47583   0.01007   1.90732
  -0.23641  -0.22935   1.66790
  -0.23641  -0.22935   1.66790
   0.00301  -0.22935   1.66790
   0.24243  -0.22935   1.66790
   0.48185   0.01007   1.66790
   0.72127  -0.22935   1.90732
   0.96069   0.01007   1.90732
   0.96069   0.01007   1.90732
   1.20011   0.01007   2.14673
   1.20011   0.01007   2.14673
   1.20011   0.48890   2.14673
   1.20011   0.48890   2.38615
   1.20011   0.48890   2.38615
   0.96069   0.48890   2.38615
   0.72127   0.72832   2.14673
   0.72127   0.72832   2.14673
   0.72127   0.72832   2.14673
   0.72127   0.48890   1.66790
   0.72127   0.48890   1.66790
   0.72127   0.48890   1.42848
   0.48185   0.24949   1.18906
   0.72127   0.24949   0.94964
   0.48185   0.01007   0.71022
   0.48185   0.01007   0.71022
   0.72127  -0.22935   0.47080
   0.72127  -0.22935   0.23138
   0.72127  -0.22935   0.23138
   0.72127  -0.22935   0.47080
   0.72127  -0.70819   0.47080
   0.96069  -0.70819   0.47080
   0.96069  -0.70819   0.47080
   0.96069  -0.70819   0.23138
   1.20011  -0.70819   0.47080
   1.20011  -0.70819   0.23138
   1.20011  -0.70819   0.23138
   1.20011  -0.46877  -0.00804
   1.20011  -0.70819  -0.00804
   0.96069  -0.70819  -0.24746
   0.96069  -0.70819  -0.48687
   0.96069  -0.70819  -0.72629
   0.72127  -0.94761  -0.96571
   0.96069  -0.94761  -1.20513
   0.72127  -0.94761  -1.68397
   0.72127  -0.94761  -1.92339
   0.72127  -0.94761  -2.16281
   0.72127  -0.94761  -2.40223
   0.72127  -0.94761  -2.64164
   0.72127  -0.70819  -2.88106
   0.72127  -0.94761  -2.64164
   0.48185  -0.70819  -2.64164
   0.48185  -0.70819  -2.88106
   0.00301  -0.46877  -2.64164
  -0.47583  -0.46877  -2.40223
  -0.95466  -0.22935  -2.40223
  -1.43350  -0.22935  -2.16281
  -1.91234   0.01007  -2.16281
  -2.63060   0.48890  -1.92339
  -3.10943   0.48890  -1.68397
  -3.58827   0.48890  -1.68397
  -4.06711   0.72832  -1.44455
  -4.78537   0.72832  -0.96571
  -5.02479   0.96774  -0.72629
  -5.26421   1.20716  -0.48687
  -5.50362   1.20716  -0.00804
  -5.74304   1.44658   0.23138
  -5.74304   1.44658   0.47080
  -5.74304   1.44658   0.71022
  -5.74304   1.44658   0.71022
  -5.50362   1.44658   0.71022
  -5.26421   1.44658   0.71022
  -5.02479   1.20716   0.71022
  -4.54595   0.96774   0.47080
  -4.30653   0.96774   0.23138
  -3.58827   0.72832  -0.00804
  -3.10943   0.72832  -0.24746
  -2.87002   0.72832  -0.48687
  -2.39118   0.48890  -0.72629
  -2.15176   0.48890  -0.72629
  -1.67292   0.48890  -0.96571
  -1.43350   0.48890  -0.96571
  -1.19408   0.48890  -1.20513
  -1.19408   0.24949  -0.96571
  -0.95466   0.24949  -0.96571
  -0.95466   0.48890  -0.96571
  -0.95466   0.48890  -0.96571
  -0.71525   0.24949  -0.72629
  -0.71525   0.24949  -0.72629
  -0.71525   0.01007  -0.48687
  -0.71525   0.01007  -0.24746
  -0.71525  -0.22935  -0.24746
  -0.47583  -0.46877  -0.00804
  -0.47583  -0.22935  -0.00804
  -0.47583  -0.22935   0.23138
  -0.23641  -0.22935   0.23138
  -0.23641  -0.22935   0.71022
   0.00301  -0.22935   0.71022
   0.00301   0.01007   0.94964
   0.24243   0.01007   0.94964
   0.48185   0.01007   1.18906
   0.72127   0.01007   0.94964
   0.72127  -0.22935   0.94964
   0.96069  -0.46877   0.94964
   1.20011  -0.46877   0.94964
   1.20011  -0.46877   0.94964
   1.43953  -0.70819   0.71022
   1.43953  -0.70819   0.71022
   1.67894  -0.94761   0.71022
   1.67894  -0.94761   0.71022
   1.67894  -0.94761   0.71022
   1.67894  -0.94761   0.71022
   1.67894  -0.94761   0.71022
   1.67894  -0.70819   0.71022
   1.67894  -0.94761   0.94964
   1.43953  -0.70819   0.71022
   1.43953  -0.46877   0.71022
   1.67894  -0.22935   0.71022
   1.67894  -0.22935   0.71022
   1.67894   0.01007   0.71022
   1.67894   0.01007   0.47080
   1.91836   0.01007   0.23138
   2.15778   0.01007   0.23138
   2.39720   0.01007   0.23138
   2.39720   0.01007   0.23138
   2.63662   0.01007  -0.00804
   3.11546  -0.22935  -0.00804
   3.11546  -0.22935   0.23138
   3.35488  -0.46877   0.23138
   3.35488  -0.22935  -0.00804
   3.59430  -0.46877   0.23138
   3.59430  -0.22935   0.23138
   3.59430  -0.22935  -0.00804
   3.59430  -0.22935   0.23138
   3.35488   0.01007  -0.00804
   3.35488   0.01007  -0.00804
   3.11546   0.01007  -0.24746
   3.11546   0.24949  -0.48687
   3.35488   0.48890  -0.48687
   3.11546   0.72832  -0.72629
   3.35488   0.96774  -0.72629
   3.11546   0.96774  -1.20513
   3.35488   1.20716  -1.44455
   3.35488   1.20716  -1.68397
   3.59430   1.44658  -1.92339
   3.83371   1.44658  -2.16281
   4.07313   1.20716  -2.40223
   4.31255   1.44658  -2.64164
   4.79139   1.44658  -2.64164
   5.03081   1.20716  -2.88106
   5.03081   1.20716  -2.88106
   5.50965   1.20716  -2.88106
   5.50965   0.96774  -2.88106
   5.50965   0.72832  -2.88106
   5.27023   0.72832  -2.64164
   5.27023   0.48890  -2.64164
   5.03081   0.48890  -2.40223
   4.79139   0.48890  -2.16281
   4.31255   0.48890  -1.92339
   4.07313   0.48890  -1.68397
   3.83371   0.72832  -1.44455
   3.35488   0.48890  -0.96571
   3.11546   0.48890  -0.72629
   2.63662   0.48890  -0.24746
   2.39720   0.48890   0.23138
   2.15778   0.48890   0.71022
   1.67894   0.48890   1.18906
   1.43953   0.48890   1.42848
   0.72127   0.72832   1.90732
   0.24243   0.72832   2.14673
  -0.23641   0.72832   2.38615
  -0.71525   0.72832   2.62557
  -1.19408   0.72832   2.62557
  -1.91234   0.48890   2.86499
  -2.39118   0.48890   2.86499
  -2.87002   0.48890   2.86499
  -3.58827   0.48890   3.10441
  -4.06711   0.48890   2.86499
  -4.54595   0.48890   2.86499
  -5.02479   0.01007   2.86499
  -5.50362   0.01007   2.86499
  -5.74304   0.24949   2.86499
  -5.98246   0.01007   2.86499
  -6.70072   0.01007   2.86499
  -6.70072   0.01007   2.86499
  -6.94014   0.01007   3.10441
  -7.17956  -0.22935   3.10441
  -7.17956  -0.22935   3.10441
  -7.17956  -0.46877   3.10441
  -7.17956  -0.46877   3.10441
  -7.17956  -0.46877   3.10441
  -6.94014  -0.46877   3.10441
  -6.46130  -0.46877   3.10441
  -6.22188  -0.46877   3.10441
  -5.98246  -0.70819   2.86499
  -5.50362  -0.70819   2.86499
  -5.26421  -0.70819   2.62557
  -5.02479  -0.94761   2.38615
  -4.78537  -0.94761   2.38615
  -4.54595  -0.94761   2.14673
  -4.30653  -1.18703   1.90732
  -4.06711  -1.18703   1.66790
  -3.82769  -1.18703   1.66790
  -3.58827  -1.42645   1.42848
  -3.34885  -1.42645   1.42848
  -3.10943  -1.66587   1.18906
  -2.87002  -1.66587   1.18906
  -2.39118  -1.66587   0.94964
  -2.15176  -1.66587   0.94964
  -1.91234  -1.66587   0.94964
  -1.67292  -1.66587   0.71022
  -0.95466  -1.66587   0.71022
  -0.71525  -1.18703   0.23138
  -0.47583  -1.18703   0.23138
   0.00301  -0.94761   0.23138
   0.24243  -0.94761  -0.00804
   0.72127  -0.70819  -0.00804
   0.96069  -0.70819  -0.24746
   1.20011  -0.46877  -0.24746
   1.43953  -0.70819  -0.24746
   1.67894  -0.46877  -0.24746
   1.91836  -0.46877  -0.24746
   1.91836  -0.22935  -0.24746
   2.39720  -0.22935  -0.24746
   2.39720  -0.22935  -0.24746
   2.63662  -0.22935  -0.24746
   2.63662  -0.22935  -0.48687
   2.87604  -0.22935  -0.24746
   3.11546  -0.22935  -0.24746
   3.11546  -0.22935  -0.24746
   3.11546  -0.22935  -0.48687
   3.35488  -0.22935  -0.24746
   3.59430   0.01007  -0.24746
   3.59430   0.01007  -0.24746
   3.83371   0.01007  -0.24746
   3.83371   0.01007  -0.24746
   4.07313   0.24949  -0.48687
   3.83371   0.24949  -0.48687
   4.07313   0.24949  -0.24746
   4.07313   0.48890  -0.72629
   4.07313   0.48890  -0.48687
   3.83371   0.48890  -0.72629
   3.59430   0.48890  -0.96571
   3.35488   0.48890  -0.96571
   3.11546   0.48890  -1.20513
   2.87604   0.48890  -1.44455
   2.39720   0.48890  -1.44455
   2.15778   0.48890  -1.68397
   1.91836   0.48890  -1.92339
   1.67894   0.72832  -2.16281
   1.67894   0.72832  -2.16281
   1.43953   0.72832  -2.16281
   1.43953   0.72832  -2.40223
   1.43953   0.96774  -2.40223
   1.43953   0.72832  -2.40223
   1.20011   0.96774  -2.40223
   1.20011   1.20716  -2.40223
   0.96069   0.96774  -2.16281
   0.96069   1.20716  -2.16281
   0.72127   0.96774  -2.16281
   0.48185   0.72832  -1.92339
   0.48185   0.72832  -1.92339
   0.24243   0.48890  -1.44455
   0.24243   0.48890  -1.44455
   0.00301   0.48890  -1.44455
   0.00301   0.24949  -1.20513
   0.00301   0.01007  -0.96571
   0.00301   0.01007  -0.96571
   0.00301  -0.22935  -0.72629
   0.00301  -0.22935  -0.72629
   0.00301  -0.22935  -0.48687
   0.00301  -0.46877  -0.48687
   0.24243  -0.46877  -0.48687
   0.00301  -0.46877  -0.48687
   0.24243  -0.70819  -0.48687
   0.48185  -0.70819  -0.48687
   0.72127  -0.70819  -0.72629
   0.72127  -0.94761  -0.72629
   0.96069  -0.94761  -0.72629
   0.96069  -0.94761  -0.72629
   1.43953  -0.94761  -0.96571
   1.43953  -0.70819  -0.96571
   1.43953  -0.70819  -0.96571
   1.67894  -0.70819  -0.72629
   1.91836  -0.46877  -0.72629
   1.91836  -0.46877  -0.72629
   1.91836  -0.22935  -0.48687
   1.67894  -0.46877  -0.24746
   1.67894  -0.22935  -0.24746
   1.43953   0.01007  -0.00804
   1.20011   0.01007   0.23138
   0.96069   0.01007  -0.00804
   0.72127   0.24949   0.23138
   0.48185   0.01007   0.47080
   0.24243   0.24949   0.71022
   0.24243   0.48890   0.71022
   0.24243   0.24949   0.71022
   0.00301   0.48890   0.94964
   0.00301   0.48890   0.94964
  -0.23641   0.48890   0.94964
  -0.47583   0.48890   0.94964
  -0.47583   0.24949   0.94964
  -0.71525   0.24949   0.71022
  -0.71525   0.01007   0.94964
  -0.71525   0.01007   0.71022
  -0.95466  -0.22935   0.71022
  -0.71525  -0.22935   0.71022
  -0.71525  -0.22935   0.47080
  -0.71525  -0.22935   0.47080
  -0.47583   0.01007   0.23138
  -0.71525   0.01007   0.23138
  -0.47583   0.24949  -0.00804
  -0.71525   0.01007  -0.00804
  -0.71525   0.48890  -0.24746
  -1.19408   0.48890  -0.24746
  -1.19408   0.48890  -0.48687
  -1.67292   0.48890  -0.24746
  -1.91234   0.24949  -0.48687
  -2.39118   0.24949  -0.48687
  -2.63060   0.01007  -0.48687
  -2.87002   0.01007  -0.48687
  -2.87002   0.01007  -0.48687
  -3.10943   0.24949  -0.48687
  -3.10943   0.48890  -0.48687
  -3.10943   0.48890  -0.48687
  -3.34885   0.48890  -0.72629
  -3.10943   0.48890  -0.72629
  -3.10943   0.72832  -0.72629
  -3.10943   0.72832  -0.72629
  -2.87002   0.72832  -0.72629
  -2.87002   0.72832  -0.72629
  -2.63060   0.72832  -0.48687
  -2.63060   0.48890  -0.48687
  -2.15176   0.01007  -0.48687
  -2.15176   0.01007  -0.24746
  -2.15176  -0.46877  -0.24746
