********************************************************************************
              CENTRO DE INSTRUMENTACION Y REGISTRO SISMICO  A.C.

    Anaxagoras 814, Col. Narvarte, Benito Juarez, C.P. 03020 Mexico, D.F.
           Tels. 5687 45 42/ 5687 45  82             Fax. 5669 25 12
********************************************************************************
ARCHIVO ESTANDAR DE ACELERACION:
VERSION DEL FORMATO                    : 2.0
NOMBRE DEL ARCHIVO                     : AE0220170919181440
FECHA Y HORA DE CREACION               : 25/SEP/17, 10:56
REF. CATALOGO ACELEROGRAMAS, SMIS 1996 : REGISTRO No.     /PAG.


================================================================================
DATOS DE LA ESTACION:
NOMBRE DE LA ESTACION                  : ESC. PRIM. "GONZÁLEZ GARZÓN"
CLAVE DE LA ESTACION                   : AE02
LOCALIZACION DE LA ESTACION            : Del. Venustiano Carranza,              
                                       : Col. El Arenal 4a. Sección,            
                                       : Calle Xico esq. con calle Xocoyote.    
                                       :                                        
                                       : 
COORDENADAS DE LA ESTACION             : 19.4290 LAT. N
                                       : 99.0584 LONG. W
ALTITUD (msnm)                         : 2232
TIPO DE SUELO                          : Arcilloso, zona lago                
                                       :                           
                                       : 
INSTITUCION RESPONSABLE                : CIRES
                                       : 

================================================================================
DATOS DEL ACELEROGRAFO:
MODELO DEL ACELEROGRAFO                : RADESD
NUMERO DE SERIE DEL ACELEROGRAFO       : 242
NUMERO DE CANALES                      : 3
ORIENTACION C1-C6 (rumbo;orientacion)  : /N00E/+V/N90W
ORIENTACION C7-C12 (rumbo;orientacion) : 
VEL. DE MUESTREO, C1-C6 (muestras/s)   : /100/100/100
VEL. DE MUESTREO, C7-C12 (muestras/s)  : 
ESC. COMPLETA DE SENSORES, C1-C6, (g)  : /0.5/0.5/0.5
ESC. COMPLETA DE SENSORES, C7-C12, (g) : 
FREC. NAT. DE SENSORES, C1-C6, (Hz)    : /30/30/30
FREC. NAT. DE SENSORES, C7-C12, (Hz)   : 
AMORTIGUAMIENTO DE SENSORES, C1-C6     : /0.733/0.750/0.700
AMORTIGUAMIENTO DE SENSORES, C7-C12    : 
INTERVALO DE MUESTREO, C1-C6, (s)      : /0.01/0.01/0.01
INTERVALO DE MUESTREO, C7-C12, (s)     : 
UMBRAL DE DISPARO, C1-C6, (Gal)        : /1.5/7.48/1.5
UMBRAL DE DISPARO, C7-C12, (Gal)       : 
MEMORIA DE PREEVENTO (s)               : 44.0
TIEMPO DE POSEVENTO (s)                : 64.0


================================================================================
DATOS DEL SISMO:
FECHA DEL SISMO (GMT)                  : 19/SEP/17
HORA EPICENTRO (GMT)                   : 18:14:40.0
MAGNITUD(ES)                           : /Mc=7.1
COORDENADAS DEL EPICENTRO              : 18.40 LAT. N
                                       : 98.72 LONG. W
PROFUNDIDAD FOCAL (km)                 : 57
FUENTE DE LOS DATOS EPICENTRALES       : SSN
                                       : INSTITUTO DE GEOFISICA, UNAM

================================================================================
DATOS DE ESTE REGISTRO:
HORA DE LA PRIMERA MUESTRA (GMT)       : 18:15:01.00
EXACTITUD DEL TIEMPO (s)               : 0.01
DURACION DEL REGISTRO (s), C1-C6       : /502.0/502.0/502.0
DURACION DEL REGISTRO (s), C7-C12      : 
NUM. TOTAL DE MUESTRAS, C1-C6          : /50200/50200/50200
NUM. TOTAL DE MUESTRAS, C7-C12         : 
ACEL. MAX. (Gal), C1-C6                : /96.18189/42.1678/114.86247
ACEL. MAX., C1-C6, EN LA MUESTRA       : /6478/8398/6557
ACEL. MAX. (Gal), C7-C12               : 
ACEL. MAX., C7-C12, EN LA MUESTRA      : 
UNIDADES DE LOS DATOS                  : Gal (cm/s/s)
FACTOR DE DECIMACION                   : 1
FORMATO DATOS (FORTRAN,10 campos/dato) : 3F10.5


================================================================================
CALIDAD DEL ACELEROGRAMA:
REGISTRO DIGITAL COMPLETO CON TIEMPO ABSOLUTO CORRECTO.


================================================================================
COMENTARIOS:














================================================================================
DATOS DE ACELERACION:
---------+---------+---------+---------+---------+---------+---------+---------+
   CANAL-1   CANAL-2   CANAL-3   CANAL-4   CANAL-5   CANAL-6   CANAL-7   CANAL-8
      N00E        +V      N90W
---------+---------+---------+---------+---------+---------+---------+---------+
[...]
 -46.84173   0.14972  -9.63602
 -48.21840   0.26943 -12.01526
 -48.95162   1.30192 -15.32225
 -48.98155   2.57384 -18.91355
 -47.55999   3.35196 -22.41507
 -45.00119   2.64866 -25.46768
 -41.61938   0.53877 -28.59510
 -37.44449  -1.75068 -31.64771
 -33.09003  -2.94778 -34.26637
 -29.10967  -3.24706 -36.13684
 -25.47348  -3.77079 -37.03467
 -22.06174  -4.99782 -37.12445
 -19.09892  -6.80843 -36.66057
 -16.33062  -9.11285 -35.11930
 -14.46015 -11.70158 -32.72510
 -13.48751 -14.43995 -29.71739
 -12.85903 -17.67212 -26.32061
 -12.48494 -21.48788 -22.62456
 -11.99113 -26.00694 -17.89602
 -11.69186 -30.16686 -12.50906
 -12.39515 -33.32422  -6.47867
 -13.78678 -34.97023  -1.22639
 -15.40287 -34.86548   2.85872
 -17.33320 -33.69831   4.99854
 -19.06899 -31.67820   4.93868
 -20.61026 -28.55078   2.94850
 -21.79240 -24.00179   0.22510
 -23.07928 -19.13857  -3.41110
 -24.17163 -14.61952  -7.61591
 -25.17421 -11.25267 -12.26964
 -25.23406  -9.02307 -17.10294
 -24.65047  -7.63144 -21.98112
 -23.39352  -7.21245 -25.66221
 -22.00189  -8.55919 -28.46043
 -20.95443 -11.17785 -30.91449
 -19.72740 -14.29031 -31.64771
 -18.39562 -16.34035 -30.76485
 -17.24341 -16.71444 -28.92431
 -17.66240 -16.54984 -26.72463
 -18.47044 -15.57720 -24.06109
 -19.18870 -14.36513 -20.85884
 -19.50294 -12.13553 -17.29747
 -19.60769  -9.56177 -13.15250
 -19.21863  -7.34713  -8.46885
 -19.06899  -5.37191  -3.87497
 -19.36827  -3.77079   0.97329
 -20.64019  -2.28938   5.53723
 -22.95957  -0.74811   9.92161
 -25.87750  -0.16452  12.83955
 -29.33413  -0.64336  13.48299
 -32.62616  -1.24191  12.31582
 -35.19993  -1.42148   9.21832
 -36.80105  -2.37916   5.19307
 -37.24996  -3.89050   0.83861
 -36.96565  -6.10514  -3.39613
 -35.14007  -6.49419  -7.51117
 -31.92286  -5.28213 -10.54881
 -28.00236  -2.64851 -12.46417
 -24.06689  -0.73315 -13.15250
 -20.13142  -0.23934 -12.70359
 -16.01638  -0.76307 -11.29700
 -12.46997  -0.67329  -9.23200
 -10.34512  -0.02985  -6.37392
  -9.02831   1.15229  -2.90233
  -8.31005   2.37932   0.43459
  -8.33998   3.33700   3.45727
  -8.45969   4.63884   5.82154
  -8.62429   5.11768   7.64712
  -8.11552   5.05783   8.69459
  -7.41222   4.93812   9.12854
  -5.99066   5.85091   8.64969
  -4.09027   7.37721   7.57230
  -1.36686   8.73891   5.92629
   1.80545   9.11301   4.28028
   5.99531   8.34986   2.43973
  10.75378   6.88341   0.85358
  15.72175   6.38960  -0.71762
  21.01892   7.30239  -1.58552
  26.37595   8.87359  -2.13918
  32.16692  10.66924  -2.10925
  38.34696  11.94116  -2.00450
  44.54195  12.36014  -1.85486
  50.00373  12.71927  -2.36363
  54.32825  12.82402  -2.42349
  56.88706  13.07840  -2.19903
  56.73742  13.60214  -1.42092
  55.24104  13.21308   0.29992
  52.68224  11.16304   2.67915
  48.05844   7.93087   5.97118
  41.98315   4.93812   9.68219
  35.71334   2.87312  13.48299
  29.80265   1.75084  16.87976
  24.41570   1.19718  19.73784
  20.82439   1.48149  21.77291
  19.02874   2.60377  22.26672
  18.71450   4.13008  22.14701
  19.28313   5.55163  21.50357
  20.92914   6.80859  20.27654
  23.87700   8.27504  18.33125
  27.73765   8.96337  15.95201
  31.68808   9.00826  13.54284
  35.26442   8.48453  10.75959
  38.07761   7.82612   7.30296
  40.18750   7.00312   2.88865
  41.56417   6.89837  -2.27385
  41.69884   7.49692  -7.70570
  40.89080   9.12797 -12.67366
  39.28967   9.77141 -16.23504
  37.56884   8.57431 -18.19529
  36.16225   6.03047 -18.07558
  34.45638   3.51656 -17.14783
  32.43627   2.30450 -14.52917
  29.99718   2.37932  -9.62106
  27.76758   2.93297  -3.56073
  26.22631   3.56145   2.88865
  25.35841   4.72863   7.79676
  26.12156   6.95823  10.38549
  28.30627   9.39732  10.35556
  31.80779  11.16304   8.18582
  36.46152  11.49225   4.04086
  41.69884  10.48967  -1.07675
  46.11315   8.46957  -6.04472
  49.55481   6.04544 -10.47399
  51.64974   4.29468 -14.11018
  52.98151   3.74102 -17.31243
  53.93920   4.18993 -20.06576
  54.55271   4.42935 -21.81652
  54.77717   2.90305 -23.16326
  54.53775  -0.46380 -24.21072
  53.74467  -4.38430 -24.64467
  52.60742  -7.82597 -24.16583
  51.41032 -10.69901 -22.71435
  50.27307 -12.16546 -20.49971
  49.07597 -13.00343 -17.74638
  48.35771 -13.10818 -15.38210
  47.92376 -12.38992 -13.30214
  47.16061 -10.14535 -12.41928
  46.35257  -6.09017 -12.58388
  45.46971  -1.58608 -14.03537
  44.30253   1.18221 -16.08540
  42.83609   1.84062 -19.66174
  40.32217   1.16725 -24.65964
  35.47392  -0.65833 -29.88199
  29.92236  -2.48391 -35.65800
  29.12928  -2.91786 -42.66104
  27.94714  -6.19492 -48.25749
  21.73718 -10.41470 -53.71926
  15.15313 -12.50963 -59.09125
  14.00092 -12.76401 -60.64748
  16.26045 -13.06329 -58.37299
  16.38016 -12.92861 -55.67951
  13.79143 -12.59941 -52.94114
  12.07059 -12.12057 -48.40712
  11.81621 -10.96836 -42.36176
  10.63407 -10.16032 -35.16420
   6.93802 -10.89354 -27.89181
   2.46386 -13.16803 -21.57710
  -1.06759 -15.09836 -16.69892
  -3.41690 -15.72683 -10.63859
  -6.26001 -14.72426  -3.80015
 -10.19548 -13.43738   2.87368
 -14.86417 -12.79394   8.72451
 -19.54783 -13.31767  13.63263
 -23.91725 -13.66184  17.94219
 -28.28667 -13.03336  23.47878
 -34.09261 -10.69901  28.61135
 -40.67666  -6.98800  33.22019
 -46.88662  -3.47151  37.26040
 -53.12651  -1.69083  41.67471
 -58.43864  -1.09228  45.49047
 -62.68835  -0.88278  49.21645
 -66.14498  -0.10467  52.46359
 -67.68625   0.74827  55.11217
 -68.10523   0.95776  56.75818
 -68.19502  -0.04481  57.73083
 -67.89574  -1.46637  57.01257
 -67.76107  -3.11238  55.56108
 -68.76364  -3.66604  53.72054
 -71.09799  -3.66604  52.94243
 -74.19548  -3.26202  53.10703
 -77.29298  -2.64851  54.24427
 -80.36055  -1.19702  54.87275
 -82.84454   0.44899  55.15706
 -84.43070   1.72091  54.87275
 -85.41830   1.33185  54.70815
 -85.22378  -0.64336  54.12456
 -84.86465  -2.13974  53.81032
 -84.59530  -1.39155  52.52344
 -82.39563  -0.43387  51.13181
 -79.23827   0.10482  50.84750
 -76.23056   0.73330  50.48837
 -73.26773   1.81069  51.38619
 -68.89831   2.25961  53.39134
 -65.50154   5.65638  53.16688
 -61.56607  10.71413  53.31652
 -56.74774  13.78170  53.33148
 -52.40825  17.86681  51.85007
 -48.74213  21.84717  50.96721
 -46.58735  23.94209  50.99714
 -46.36289  26.48593  49.09674
 -47.06619  28.89510  46.65765
 -48.26329  28.92503  44.11381
 -50.70238  27.50347  40.65718
 -53.33600  25.61804  37.39508
 -55.46086  22.98441  34.56693
 -57.54082  20.38072  31.82856
 -59.74049  19.06391  28.58142
 -62.56864  18.83945  24.76566
 -65.18730  19.70735  20.86012
 -67.77603  20.81467  16.93962
 -70.99324  21.00920  13.46803
 -72.87867  20.63510  11.07382
 -74.07577  20.03655   8.45517
 -75.54222  19.18362   6.31535
 -76.18566  16.69963   5.01350
 -75.84150  12.86891   3.54705
 -74.06081   8.29000   2.81383
 -70.39469   3.56145   2.69412
 -66.08513  -0.14956   2.24521
 -61.65585  -3.17224   2.12550
 -55.52071  -6.46427   2.64923
 -49.14615  -9.72637   3.24778
 -42.78655 -12.40488   4.31020
 -36.45688 -14.42499   5.56716
 -31.69841 -15.74180   6.95879
 -28.55602 -16.86408   8.82926
 -25.84757 -17.46263  10.93915
 -22.95957 -17.59730  13.67752
 -20.01171 -16.19071  16.90969
 -16.65983 -12.80890  20.23165
 -13.57729  -7.96064  24.30179
 -11.46740  -2.75325  28.91063
 -10.27030   0.58366  33.63917
  -9.41737   1.03258  38.32283
  -9.04327  -0.50869  41.85428
  -8.78889  -1.94521  44.72732
  -8.57940  -1.75068  46.80728
  -6.08045  -1.48133  48.37848
  -0.97781  -2.46894  49.53069
   2.89781  -2.09485  48.81243
   6.48911  -1.18206  47.27116
  10.88846   0.23950  46.14888
  17.84661   2.51399  45.46055
  26.42084   3.36692  44.02402
  33.04979   4.02533  40.97142
  39.42435   4.47424  37.76917
  45.45474   4.99797  35.31512
  49.36028   7.79620  32.69646
  52.47275  11.41743  29.94313
  55.04651  13.42257  28.49164
  58.41336  13.00359  28.34200
  61.55575  11.19297  28.01280
  63.57586   9.35243  27.75842
  65.23683   7.97576  28.53653
  66.44890   6.31478  30.70628
  66.58357   4.65381  34.47715
  65.50618   2.91801  38.74182
  63.57586   2.90305  42.27326
  62.01963   5.10272  44.53279
  61.10684   8.33489  47.03174
  62.82767  13.18315  47.16641
  71.29716  23.70267  43.94921
  80.82907  23.89720  49.90478
  86.94925  13.22804  55.50123
  88.72994   6.49435  48.33359
  87.45802   6.01551  36.30272
  89.77740   4.20489  30.69131
  93.99718   0.82308  31.82856
  96.18189  -2.24449  31.67892
  93.60812  -5.82082  26.98030
  87.84708  -8.85847  19.13929
  81.05353  -7.51173  12.88444
  73.67640  -2.34923  10.23585
  65.11712   1.07747   8.78437
  54.97169   3.50160   5.14818
  43.53938   6.38960   0.44955
  32.85526   8.61920  -3.27642
  22.64997   9.66667  -5.20675
  12.69907  10.81888  -6.94254
   4.22958  11.46232  -9.87544
  -1.71103  12.42000 -15.03794
  -5.28737  13.45250 -20.84388
  -6.00563  13.34775 -25.40782
  -4.89831  10.59442 -28.96920
  -2.50411   6.88341 -32.00684
   0.32404   2.60377 -33.21891
   3.13723  -1.31673 -33.35358
   4.88799  -5.11753 -32.69517
   4.79821  -9.41213 -32.20137
   2.32919 -13.64687 -33.33862
  -1.47161 -16.81919 -34.28133
  -5.81110 -19.36303 -35.19412
 -11.12323 -21.44299 -37.22919
 -17.84196 -21.35321 -42.01760
 -25.53334 -18.43527 -48.25749
 -32.91047 -13.90126 -54.10832
 -39.83869  -9.44205 -58.07371
 -47.44028  -6.92814 -60.37813
 -54.87727  -6.17996 -63.10154
 -59.99488  -6.09017 -66.40853
 -61.55111  -5.65622 -67.72534
 -60.30912  -4.68358 -67.24650
 -58.09448  -4.09999 -64.07418
 -56.14919  -4.65365 -56.62223
 -53.33600  -6.26974 -49.14035
 -49.22097  -8.72379 -46.47680
 -44.17818 -12.79394 -47.49433
 -39.50949 -18.94404 -48.87100
 -35.45431 -24.76495 -48.75129
 -31.72833 -28.68545 -47.91332
 -29.33413 -30.63074 -47.07535
 -28.55602 -31.40886 -45.66876
 -28.18192 -31.24425 -43.21470
 -27.34395 -29.04458 -40.47633
 -25.38370 -25.33357 -38.09709
 -22.01685 -20.51524 -37.37883
 -16.76457 -15.44252 -38.75550
  -9.65679 -11.50705 -40.61100
  -2.20483  -9.53184 -41.65847
   5.77085  -8.20006 -42.46651
  13.76150  -5.64126 -42.67600
  21.12367  -1.70579 -41.64350
  28.26138   3.95051 -38.97995
  35.36917  10.02580 -34.49083
  42.88098  15.56239 -28.77467
  49.88402  19.96173 -22.45996
  56.55785  22.64025 -16.42957
  62.94738  23.26873 -10.93787
  69.17230  21.38329  -7.06225
  74.63408  16.87920  -3.53081
  79.57212   9.89112   1.99082
  83.71708   2.06508   9.39788
  86.67990  -5.25220  18.34621
  88.35584 -10.20521  27.62374
  87.90693 -13.06329  37.46990
  86.00653 -14.87390  46.77736
  82.02617 -15.75676  55.62094
  76.35491 -14.93376  63.41706
  70.05517 -13.25781  70.46499
  63.96491 -11.98589  77.13883
  56.52793 -10.99829  83.51339
  47.71427  -9.29242  89.43904
  38.30207  -4.93796  94.19751
  29.62308   1.63113  97.71400
  21.75215   7.15276 102.18816
  14.41990  10.26522 107.48533
   9.18259  10.93859 112.54308
   5.65114   9.62178 114.86247
   3.30183   7.78123 114.00953
   0.21930   6.83852 110.64269
  -3.68625   7.37721 106.58751
  -7.38229   7.99073 103.53490
 -10.37505   6.98815 100.04834
 -13.29298   5.88084  95.60411
 -17.87189   5.82098  90.99527
 -23.64790   5.92573  87.35907
 -29.48377   7.39218  83.67799
 -33.85319  11.28275  77.81220
 -38.08793  15.33793  69.76169
 -42.84641  18.76463  60.42431
 -48.50271  21.57782  51.61065
 -54.83238  23.83735  43.69482
 -60.57846  25.96220  36.57207
 -65.11248  28.50604  29.29968
 -67.64136  31.66339  21.17436
 -67.88078  34.58133  12.85451
 -66.69864  36.33209   4.89379
 -64.84313  37.06531  -3.35124
 -62.86792  36.22734 -12.29957
 -60.53357  34.43169 -22.53478
 -57.66053  31.99260 -32.90467
 -55.01194  28.55093 -42.09242
 -52.66263  23.79246 -48.94582
 -50.74727  17.59746 -52.76158
 -48.72716  10.92362 -54.27292
 -46.60231   4.54906 -53.64444
 -44.52235  -0.41891 -51.59440
 -42.77159  -3.86057 -48.81114
 -41.30514  -5.83579 -46.68629
 -39.77884  -8.20006 -45.29466
 -38.71641 -11.62676 -44.99539
 -37.96822 -14.93376 -46.22241
 -35.73862 -17.95643 -49.26006
 -32.86558 -21.35321 -53.68933
 -29.18449 -23.91201 -59.86936
 -23.28877 -25.66277 -67.68045
 -17.22845 -26.57556 -75.73095
 -10.21045 -26.96462 -83.67671
  -3.28222 -26.05183 -94.43565
   2.59853 -21.41306-100.15181
  10.20012 -15.39763 -98.11674
  18.08603 -12.58444 -94.74989
  25.56791 -12.41984 -93.26848
  33.10964 -14.03593 -91.89181
  39.58895 -17.14839 -89.97645
  44.91605 -21.93679 -86.83406
  50.49753 -25.52810 -83.87124
  55.52535 -28.37121 -81.17776
  56.49800 -28.90991 -76.35943
  54.52278 -29.77781 -70.41881
  52.33807 -32.50121 -66.24393
  47.90880 -34.23701 -65.34610
  41.30978 -33.29429 -67.14175
  34.20200 -31.15447 -69.31150
  29.21906 -30.09204 -71.12211
  26.13653 -26.74016 -72.69331
  24.16131 -23.68755 -71.84037
  21.54265 -22.10140 -69.52099
  19.43276 -19.01886 -69.32646
  20.07621 -12.83883 -71.22686
  22.78465  -5.22227 -73.11229
  26.88472   2.12493 -74.59370
  30.70048   7.13779 -75.91051
  35.62355   8.02065 -76.04519
  40.75612   4.13008 -73.33675
  44.31750  -3.00764 -67.68045
  46.95112  -9.21760 -60.45295
  47.90880 -13.40745 -53.44991
  47.40003 -15.06843 -47.12024
  45.66424 -15.29289 -40.41648
  44.04815 -15.74180 -33.83242
  43.29996 -15.93633 -28.40058
  43.52442 -15.09836 -23.41764
  43.86858 -13.54213 -18.71902
  43.07551 -11.97093 -14.90326
  41.33971 -10.69901 -12.12000
  39.66377  -9.26249 -10.99772
  38.49659  -6.59894  -8.99258
  38.58638  -3.09742  -5.47609
  39.69370   1.24207  -2.12421
  40.77109   6.01551   0.46452
  42.05797  10.98348   1.36234
  44.70656  15.95145   0.21013
  48.34275  20.47050  -2.31874
  51.81434  23.56800  -4.62316
  55.07644  26.26148  -6.31407
  57.88963  27.56332  -8.61848
  58.45825  29.13452 -11.88058
  55.92938  31.48383 -14.99305
  51.32054  34.31198 -16.54928
  45.63431  36.15252 -16.74381
  39.93312  34.98535 -15.23247
  32.81037  32.81560 -13.03279
  24.87957  29.92760 -10.96779
  16.39512  28.61079  -8.40899
   7.41686  29.22430  -6.29910
  -2.27965  32.15720  -5.58084
 -11.55718  36.61640  -6.01479
 -19.84711  40.07303  -7.03233
 -27.92754  41.04567  -8.31921
 -34.88569  40.07303 -11.08750
 -40.88615  37.37955 -14.42442
 -46.22822  33.95285 -17.58178
 -48.92169  29.49365 -20.90373
 -49.11622  25.10927 -23.34282
 -49.68485  21.48804 -25.61732
 -50.97173  18.95916 -27.69728
 -52.61774  16.78942 -29.71739
 -53.97944  14.60471 -31.15391
 -55.13165  12.68935 -31.82728
 -56.13423  10.95355 -32.11159
 -56.11926   9.57688 -31.28858
 -54.66778   8.90352 -29.67250
 -52.54292   9.03819 -27.83195
 -50.58267   8.90352 -25.70710
 -48.39796   8.14036 -24.56985
 -45.86909   6.55420 -24.67460
 -44.97126   4.42935 -25.48264
 -45.49499   2.06508 -26.48521
 -46.13843  -0.65833 -27.62246
 -45.83916  -2.97771 -28.96920
 -44.04351  -5.25220 -30.07652
 -42.09822  -6.29967 -30.74989
 -40.37739  -6.22485 -31.25865
 -38.82116  -5.76097 -30.97434
 -37.02550  -4.77336 -31.12398
 -35.34956  -4.57883 -31.33347
 -33.68859  -4.48905 -32.12655
 -31.65351  -3.90546 -33.08423
 -29.12464  -3.09742 -33.84738
 -26.17678  -2.72333 -33.90724
 -22.70519  -3.53137 -33.24883
 -18.94928  -5.47666 -32.76999
 -14.63972  -7.55662 -31.43822
 -10.76410  -9.92090 -29.23855
  -6.55929 -12.65926 -27.20347
  -2.05520 -15.15821 -25.39286
   2.59853 -17.10350 -24.06109
   7.67125 -18.03125 -23.44757
  12.35491 -18.10607 -23.71692
  16.52979 -16.80423 -24.19576
  19.83679 -14.60455 -25.12351
  22.11128 -12.61437 -25.54250
  24.40073 -11.80633 -25.39286
  26.39091 -11.91108 -25.30308
  28.03693 -12.00086 -25.46768
