********************************************************************************
              CENTRO DE INSTRUMENTACION Y REGISTRO SISMICO  A.C.

    Anaxagoras 814, Col. Narvarte, Benito Juarez, C.P. 03020 Mexico, D.F.
           Tels. 5687 45 42/ 5687 45  82             Fax. 5669 25 12
********************************************************************************
ARCHIVO ESTANDAR DE ACELERACION:
VERSION DEL FORMATO                    : 2.0
NOMBRE DEL ARCHIVO                     : AE0220110407131122
FECHA Y HORA DE CREACION               : 15/JUN/11, 12:49
REF. CATALOGO ACELEROGRAMAS, SMIS 1996 : REGISTRO No.     /PAG.


================================================================================
DATOS DE LA ESTACION:
NOMBRE DE LA ESTACION                  : ESC. PRIM. "GONZÁLEZ GARZÓN"
CLAVE DE LA ESTACION                   : AE02
LOCALIZACION DE LA ESTACION            : Del. Venustiano Carranza,              
                                       : Col. El Arenal 4a. Sección,            
                                       : Calle Xico esq. con calle Xocoyote.    
                                       :                                        
                                       : 
COORDENADAS DE LA ESTACION             : 19.4290 LAT. N
                                       : 99.0584 LONG. W
ALTITUD (msnm)                         : 2232
TIPO DE SUELO                          : Arcilloso, zona lago                
                                       :                           
                                       : 
INSTITUCION RESPONSABLE                : CIRES
                                       : 

================================================================================
DATOS DEL ACELEROGRAFO:
MODELO DEL ACELEROGRAFO                : RADESD
NUMERO DE SERIE DEL ACELEROGRAFO       : 242
NUMERO DE CANALES                      : 3
ORIENTACION C1-C6 (rumbo;orientacion)  : /N00E/+V/N90W
ORIENTACION C7-C12 (rumbo;orientacion) : 
VEL. DE MUESTREO, C1-C6 (muestras/s)   : /100/100/100
VEL. DE MUESTREO, C7-C12 (muestras/s)  : 
ESC. COMPLETA DE SENSORES, C1-C6, (g)  : /0.5/0.5/0.5
ESC. COMPLETA DE SENSORES, C7-C12, (g) : 
FREC. NAT. DE SENSORES, C1-C6, (Hz)    : /30/30/30
FREC. NAT. DE SENSORES, C7-C12, (Hz)   : 
AMORTIGUAMIENTO DE SENSORES, C1-C6     : /0.733/0.750/0.700
AMORTIGUAMIENTO DE SENSORES, C7-C12    : 
INTERVALO DE MUESTREO, C1-C6, (s)      : /0.01/0.01/0.01
INTERVALO DE MUESTREO, C7-C12, (s)     : 
UMBRAL DE DISPARO, C1-C6, (Gal)        : /2.39/9.58/9.58
UMBRAL DE DISPARO, C7-C12, (Gal)       : 
MEMORIA DE PREEVENTO (s)               : 56.0
TIEMPO DE POSEVENTO (s)                : 64.0


================================================================================
DATOS DEL SISMO:
FECHA DEL SISMO (GMT)                  : 07/ABR/11
HORA EPICENTRO (GMT)                   : 13:11:22.0
MAGNITUD(ES)                           : /Mc=6.7
COORDENADAS DEL EPICENTRO              : 17.20 LAT. N
                                       : 94.34 LONG. W
PROFUNDIDAD FOCAL (km)                 : 167
FUENTE DE LOS DATOS EPICENTRALES       : SSN
                                       : INSTITUTO DE GEOFISICA, UNAM

================================================================================
DATOS DE ESTE REGISTRO:
HORA DE LA PRIMERA MUESTRA (GMT)       : 13:13:46.00
EXACTITUD DEL TIEMPO (s)               : 0.01
DURACION DEL REGISTRO (s), C1-C6       : /130.25/130.25/130.25
DURACION DEL REGISTRO (s), C7-C12      : 
NUM. TOTAL DE MUESTRAS, C1-C6          : /13025/13025/13025
NUM. TOTAL DE MUESTRAS, C7-C12         : 
ACEL. MAX. (Gal), C1-C6                : /3.00249/1.45887/2.76045
ACEL. MAX., C1-C6, EN LA MUESTRA       : /5587/7018/6571
ACEL. MAX. (Gal), C7-C12               : 
ACEL. MAX., C7-C12, EN LA MUESTRA      : 
UNIDADES DE LOS DATOS                  : Gal (cm/s/s)
FACTOR DE DECIMACION                   : 1
FORMATO DATOS (FORTRAN,10 campos/dato) : 3F10.5


================================================================================
CALIDAD DEL ACELEROGRAMA:
REGISTRO DIGITAL COMPLETO CON TIEMPO ABSOLUTO CORRECTO.


================================================================================
COMENTARIOS:














================================================================================
DATOS DE ACELERACION:
---------+---------+---------+---------+---------+---------+---------+---------+
   CANAL-1   CANAL-2   CANAL-3   CANAL-4   CANAL-5   CANAL-6   CANAL-7   CANAL-8
      N00E        +V      N90W
---------+---------+---------+---------+---------+---------+---------+---------+
[...]
  -0.58882   0.02235  -0.83085
  -0.58882   0.02235  -1.07027
  -0.34940   0.02235  -1.07027
  -0.34940   0.02235  -1.07027
  -0.10998   0.02235  -0.83085
  -0.10998  -0.21707  -0.83085
  -0.10998   0.02235  -0.83085
   0.36886   0.02235  -0.59143
   0.36886   0.02235  -0.83085
   0.12944  -0.21707  -0.59143
   0.60828  -0.21707  -0.83085
   0.36886   0.02235  -0.83085
   0.60828  -0.21707  -0.83085
   0.60828  -0.21707  -0.83085
   0.84770  -0.21707  -0.59143
   0.84770  -0.21707  -0.83085
   1.08712  -0.21707  -0.83085
   1.32654  -0.45649  -0.59143
   1.32654  -0.21707  -0.83085
   1.32654  -0.21707  -0.83085
   1.56596  -0.21707  -0.59143
   1.80538   0.02235  -0.59143
   1.80538   0.02235  -0.59143
   1.80538  -0.21707  -0.35201
   2.04480   0.02235  -0.35201
   2.04480   0.02235  -0.11259
   2.28422   0.02235  -0.35201
   2.04480   0.02235  -0.11259
   2.04480   0.02235  -0.11259
   2.04480   0.26177  -0.11259
   2.04480   0.26177  -0.11259
   2.04480   0.02235   0.12683
   2.04480   0.02235   0.36625
   1.80538   0.02235   0.36625
   1.80538   0.26177   0.12683
   1.56596   0.26177   0.60567
   1.56596   0.02235   0.60567
   1.32654   0.02235   0.60567
   1.32654   0.02235   0.84509
   1.08712   0.26177   0.60567
   0.84770   0.26177   0.60567
   0.84770   0.02235   0.84509
   0.60828   0.02235   0.84509
   0.36886   0.02235   0.84509
   0.60828   0.26177   0.84509
   0.12944   0.26177   0.60567
   0.12944   0.26177   0.60567
   0.12944   0.50119   0.60567
  -0.10998   0.50119   0.60567
  -0.34940   0.50119   0.60567
  -0.34940   0.26177   0.60567
  -0.58882   0.26177   0.60567
  -0.58882   0.26177   0.36625
  -0.82824   0.50119   0.60567
  -0.82824   0.26177   0.36625
  -0.82824   0.50119   0.12683
  -1.30708   0.26177   0.36625
  -1.30708   0.02235   0.36625
  -1.30708   0.50119   0.36625
  -1.30708   0.26177   0.36625
  -1.54650   0.50119   0.12683
  -1.54650   0.50119   0.12683
  -1.30708   0.26177   0.12683
  -1.78592   0.50119  -0.11259
  -1.54650   0.26177  -0.11259
  -1.54650   0.26177  -0.11259
  -1.54650   0.26177  -0.11259
  -1.54650   0.26177  -0.11259
  -1.54650   0.26177  -0.11259
  -1.54650   0.02235  -0.35201
  -1.54650   0.02235  -0.59143
  -1.54650   0.02235  -0.35201
  -1.54650  -0.21707  -0.35201
  -1.30708  -0.21707  -0.35201
  -1.30708  -0.21707  -0.35201
  -1.30708  -0.21707  -0.11259
  -1.06766   0.02235  -0.59143
  -1.06766  -0.21707  -0.59143
  -0.82824  -0.21707  -0.59143
  -0.82824  -0.21707  -0.59143
  -0.82824  -0.21707  -0.59143
  -0.82824  -0.21707  -0.59143
  -0.82824  -0.21707  -0.59143
  -0.34940  -0.45649  -0.59143
  -0.34940  -0.45649  -0.59143
  -0.34940  -0.45649  -0.59143
  -0.10998  -0.45649  -0.59143
  -0.10998  -0.21707  -0.59143
  -0.10998  -0.45649  -0.59143
   0.12944  -0.21707  -0.59143
  -0.10998  -0.45649  -0.35201
   0.36886  -0.21707  -0.59143
   0.36886  -0.21707  -0.35201
   0.36886  -0.21707  -0.35201
   0.36886   0.02235  -0.35201
   0.36886   0.02235  -0.35201
   0.36886   0.02235  -0.11259
   0.60828   0.26177  -0.11259
   0.60828   0.26177  -0.11259
   0.60828   0.02235   0.12683
   0.84770   0.02235   0.12683
   0.84770   0.26177  -0.11259
   0.84770   0.02235   0.12683
   0.84770   0.02235   0.12683
   1.08712   0.02235   0.12683
   0.84770   0.02235   0.12683
   0.84770   0.02235   0.12683
   1.08712  -0.21707  -0.11259
   1.08712  -0.21707   0.12683
   1.08712  -0.21707   0.12683
   0.84770  -0.21707   0.12683
   0.84770  -0.21707   0.36625
   1.08712   0.02235   0.12683
   0.84770   0.02235   0.60567
   0.84770  -0.21707   0.60567
   0.84770   0.26177   0.36625
   0.60828   0.26177   0.36625
   0.84770   0.02235   0.36625
   0.60828   0.26177   0.36625
   0.60828   0.26177   0.12683
   0.60828   0.26177   0.36625
   0.36886   0.02235   0.12683
   0.36886   0.50119   0.12683
   0.12944   0.02235   0.12683
   0.12944   0.26177   0.12683
  -0.10998   0.26177  -0.11259
  -0.10998   0.26177  -0.11259
  -0.10998   0.26177  -0.11259
  -0.10998   0.26177  -0.11259
  -0.34940   0.02235  -0.11259
  -0.58882   0.02235  -0.11259
  -0.58882   0.02235  -0.11259
  -0.82824   0.02235   0.12683
  -0.58882   0.02235   0.12683
  -0.58882   0.02235  -0.11259
  -0.58882   0.02235   0.12683
  -0.58882   0.02235  -0.11259
  -0.82824  -0.21707  -0.11259
  -0.58882  -0.21707  -0.11259
  -0.82824   0.02235  -0.11259
  -0.58882  -0.21707  -0.35201
  -0.58882  -0.21707  -0.35201
  -0.82824  -0.21707  -0.11259
  -0.82824   0.02235  -0.35201
  -0.58882   0.02235  -0.11259
  -0.58882  -0.21707  -0.35201
  -0.82824  -0.21707  -0.35201
  -0.82824  -0.21707  -0.35201
  -0.82824  -0.21707  -0.35201
  -0.58882   0.02235  -0.59143
  -0.58882  -0.21707  -0.59143
  -0.58882  -0.21707  -0.59143
  -0.58882  -0.21707  -0.83085
  -0.34940   0.02235  -0.59143
  -0.34940   0.02235  -0.83085
  -0.34940   0.02235  -0.83085
  -0.10998   0.02235  -0.83085
   0.12944   0.26177  -0.83085
  -0.10998   0.02235  -0.59143
   0.12944   0.02235  -0.83085
   0.12944   0.02235  -0.59143
   0.12944  -0.21707  -0.83085
   0.12944   0.02235  -0.83085
   0.36886   0.02235  -0.59143
   0.36886   0.02235  -0.59143
   0.36886   0.02235  -0.59143
   0.36886  -0.21707  -0.35201
   0.36886  -0.21707  -0.59143
   0.12944   0.02235  -0.35201
   0.36886  -0.21707  -0.11259
   0.36886  -0.21707  -0.11259
   0.60828  -0.45649  -0.11259
   0.60828  -0.21707  -0.11259
   0.60828   0.02235   0.12683
   0.84770  -0.21707  -0.11259
   0.84770  -0.21707   0.12683
   0.84770  -0.21707   0.12683
   0.84770  -0.21707   0.12683
   0.84770   0.02235   0.12683
   0.84770  -0.21707   0.12683
   1.08712   0.02235   0.36625
   1.08712  -0.21707   0.36625
   1.32654   0.26177   0.60567
   1.32654   0.02235   0.36625
   1.08712   0.02235   0.60567
   1.32654   0.26177   0.60567
   1.08712   0.26177   0.84509
   1.08712   0.26177   0.84509
   1.32654   0.26177   0.84509
   1.08712   0.50119   1.08451
   1.08712   0.26177   0.84509
   1.08712   0.50119   0.84509
   1.08712   0.26177   0.84509
   1.08712   0.26177   0.84509
   1.08712   0.26177   1.08451
   1.08712   0.26177   0.84509
   1.08712   0.26177   0.84509
   1.08712   0.02235   0.84509
   1.08712   0.26177   0.84509
   1.08712   0.26177   0.84509
   1.08712   0.50119   0.84509
   1.32654   0.50119   0.84509
   1.08712   0.50119   0.84509
   0.84770   0.50119   0.84509
   0.84770   0.50119   0.60567
   0.84770   0.50119   0.60567
   0.84770   0.50119   0.84509
   0.84770   0.50119   0.60567
   0.60828   0.26177   0.60567
   0.60828   0.50119   0.60567
   0.60828   0.26177   0.36625
   0.60828   0.50119   0.60567
   0.36886   0.26177   0.12683
   0.36886   0.50119   0.36625
   0.60828   0.26177   0.12683
   0.12944   0.50119  -0.11259
   0.12944   0.50119  -0.11259
   0.12944   0.50119   0.12683
   0.12944   0.26177   0.12683
   0.12944   0.26177  -0.11259
   0.12944   0.26177  -0.11259
  -0.10998   0.02235  -0.11259
  -0.10998   0.26177  -0.35201
  -0.34940   0.02235  -0.11259
  -0.34940   0.02235  -0.35201
  -0.34940   0.02235  -0.59143
  -0.34940  -0.21707  -0.35201
  -0.58882   0.02235  -0.35201
  -0.58882  -0.21707  -0.59143
  -0.58882  -0.21707  -0.35201
  -0.82824   0.02235  -0.59143
  -1.06766  -0.21707  -0.11259
  -0.82824  -0.21707  -0.35201
  -0.82824  -0.21707  -0.59143
  -0.82824  -0.45649  -0.35201
  -0.82824  -0.45649  -0.11259
  -1.06766  -0.21707  -0.11259
  -1.06766  -0.21707  -0.11259
  -0.82824  -0.21707  -0.11259
  -1.06766  -0.45649   0.12683
  -0.82824  -0.21707  -0.11259
  -0.82824  -0.21707   0.12683
  -0.82824  -0.21707   0.12683
  -0.58882  -0.21707   0.12683
  -0.58882  -0.21707   0.12683
  -0.58882  -0.45649   0.36625
  -0.58882  -0.21707   0.36625
  -0.34940  -0.21707   0.36625
  -0.34940  -0.21707   0.36625
  -0.34940  -0.21707   0.36625
  -0.34940  -0.21707   0.36625
  -0.34940   0.02235   0.36625
  -0.34940  -0.21707   0.36625
  -0.10998   0.02235   0.60567
  -0.10998  -0.21707   0.36625
  -0.10998  -0.21707   0.60567
  -0.10998  -0.21707   0.36625
  -0.10998  -0.21707   0.12683
  -0.10998   0.02235   0.36625
   0.12944  -0.21707   0.12683
   0.12944  -0.21707   0.36625
   0.12944  -0.21707   0.12683
   0.12944  -0.21707   0.12683
   0.36886  -0.45649   0.36625
   0.12944  -0.21707   0.36625
   0.12944  -0.21707   0.36625
   0.36886  -0.21707   0.36625
   0.36886   0.02235   0.36625
   0.36886  -0.21707   0.12683
   0.36886  -0.21707   0.36625
   0.36886  -0.21707   0.36625
   0.60828   0.02235   0.12683
   0.60828   0.02235   0.12683
   0.60828   0.02235   0.36625
   0.60828   0.02235  -0.11259
   0.60828   0.02235   0.12683
   0.60828   0.02235   0.12683
   0.84770   0.02235   0.12683
   0.84770  -0.21707  -0.11259
   0.60828  -0.21707   0.12683
   0.36886  -0.21707  -0.11259
   0.36886  -0.45649  -0.11259
   0.12944  -0.21707  -0.11259
   0.12944  -0.45649  -0.11259
   0.12944  -0.21707  -0.11259
   0.12944  -0.21707  -0.35201
   0.12944  -0.21707  -0.35201
  -0.10998  -0.21707  -0.35201
  -0.10998  -0.21707  -0.35201
  -0.34940  -0.21707  -0.35201
  -0.34940  -0.21707  -0.83085
  -0.58882   0.02235  -0.59143
  -0.58882   0.02235  -0.83085
  -1.06766   0.26177  -0.59143
  -1.06766   0.02235  -0.59143
  -1.30708   0.02235  -0.59143
  -1.30708   0.02235  -0.59143
  -1.78592  -0.21707  -0.59143
  -1.78592  -0.21707  -0.59143
  -1.78592  -0.21707  -0.59143
  -1.78592  -0.21707  -0.59143
  -2.02534  -0.21707  -0.35201
  -2.02534  -0.45649  -0.11259
  -2.26476   0.02235  -0.11259
  -2.26476  -0.21707  -0.11259
  -2.26476  -0.21707  -0.11259
  -2.26476  -0.21707  -0.11259
  -2.26476   0.02235  -0.11259
  -2.26476   0.02235  -0.35201
  -2.02534   0.02235  -0.11259
  -2.26476   0.26177  -0.11259
  -2.26476   0.02235  -0.11259
  -2.02534   0.02235  -0.11259
  -1.78592   0.02235  -0.11259
  -2.02534   0.02235  -0.35201
  -2.02534  -0.21707  -0.11259
  -1.78592  -0.21707  -0.35201
  -1.78592  -0.21707  -0.35201
  -1.54650  -0.21707  -0.11259
  -1.54650   0.02235  -0.11259
  -1.30708  -0.21707  -0.35201
  -1.06766  -0.21707  -0.35201
  -1.06766   0.26177  -0.35201
  -0.82824  -0.21707  -0.35201
  -0.58882   0.02235  -0.11259
  -0.58882   0.02235  -0.35201
  -0.34940   0.02235  -0.59143
  -0.34940   0.26177  -0.59143
  -0.10998   0.26177  -0.59143
   0.12944   0.50119  -0.59143
   0.36886   0.02235  -0.35201
   0.60828   0.26177  -0.35201
   0.60828   0.26177  -0.59143
   0.84770   0.26177  -0.59143
   1.08712   0.26177  -0.35201
   1.32654   0.26177  -0.35201
   1.08712   0.26177  -0.11259
   1.56596   0.02235  -0.35201
   1.80538   0.26177  -0.35201
   1.80538   0.02235  -0.11259
   2.04480   0.26177   0.12683
   2.04480   0.26177   0.12683
   2.04480   0.50119   0.12683
   2.28422   0.50119   0.12683
   2.76306   0.26177   0.36625
   2.52364   0.50119   0.36625
   2.52364   0.50119   0.36625
   3.00249   0.50119   0.12683
   3.00249   0.50119   0.36625
   3.00249   0.50119   0.60567
   3.00249   0.26177   0.60567
   3.00249   0.50119   0.84509
   2.76306   0.50119   0.60567
   2.76306   0.50119   0.36625
   2.76306   0.50119   0.60567
   2.76306   0.50119   0.84509
   2.52364   0.26177   0.60567
   2.52364   0.26177   0.84509
   2.28422   0.26177   0.60567
   2.28422   0.26177   0.60567
   2.04480   0.26177   0.60567
   1.80538   0.26177   0.60567
   1.56596   0.02235   0.60567
   1.32654   0.26177   0.60567
   1.08712   0.50119   0.12683
   1.08712   0.26177   0.60567
   0.84770   0.26177   0.60567
   0.60828   0.26177   0.60567
   0.36886   0.26177   0.36625
   0.36886   0.26177   0.36625
   0.12944   0.26177   0.36625
  -0.10998   0.02235   0.60567
  -0.34940   0.02235   0.60567
  -0.34940   0.02235   0.36625
  -0.58882   0.02235   0.60567
  -0.82824   0.02235   0.36625
  -0.82824  -0.21707   0.60567
  -1.06766   0.02235   0.36625
  -1.06766   0.02235   0.36625
  -0.82824  -0.21707   0.12683
  -1.06766   0.02235   0.36625
  -1.30708   0.02235   0.12683
  -1.54650   0.02235  -0.11259
  -1.54650   0.02235   0.12683
  -1.30708  -0.21707  -0.11259
  -1.54650   0.02235  -0.11259
  -1.54650  -0.21707  -0.11259
  -1.54650  -0.21707   0.12683
  -1.54650  -0.21707  -0.11259
  -1.54650  -0.45649  -0.11259
  -1.54650  -0.69591  -0.11259
  -1.54650  -0.45649   0.12683
  -1.54650  -0.45649  -0.11259
  -1.78592  -0.69591  -0.11259
  -1.78592  -0.69591  -0.11259
  -1.78592  -0.69591   0.12683
  -1.78592  -0.69591   0.12683
  -1.78592  -0.69591   0.12683
  -1.78592  -0.69591   0.12683
  -1.78592  -0.45649   0.12683
  -1.78592  -0.45649   0.12683
  -1.54650  -0.45649   0.12683
  -1.54650  -0.45649   0.12683
  -1.54650  -0.21707   0.12683
  -1.54650  -0.45649   0.12683
  -1.30708  -0.45649   0.12683
  -1.30708  -0.21707   0.12683
  -1.06766  -0.21707   0.12683
  -1.06766  -0.45649   0.12683
  -1.06766  -0.21707   0.12683
  -0.82824  -0.21707   0.12683
  -1.06766   0.02235   0.12683
  -0.82824  -0.21707   0.12683
  -0.58882   0.02235   0.12683
  -0.58882   0.02235   0.36625
  -0.34940  -0.21707   0.36625
  -0.10998   0.02235   0.36625
  -0.10998   0.02235   0.36625
  -0.10998   0.26177   0.60567
   0.12944   0.02235   0.60567
   0.36886   0.02235   0.60567
   0.12944   0.26177   0.36625
   0.36886   0.02235   0.36625
   0.60828   0.26177   0.60567
   0.60828   0.26177   0.36625
   0.84770   0.26177   0.36625
   0.84770   0.02235   0.60567
   1.08712   0.02235   0.36625
   0.84770   0.02235   0.60567
   1.08712   0.02235   0.60567
   1.08712   0.26177   0.36625
   1.08712   0.02235   0.36625
   1.32654   0.26177   0.36625
   1.32654   0.26177   0.36625
   1.32654   0.26177   0.36625
   1.32654   0.26177   0.36625
   1.32654   0.50119   0.36625
   1.32654   0.50119   0.36625
   1.08712   0.50119   0.36625
   1.08712   0.50119   0.36625
   0.84770   0.50119   0.12683
   0.84770   0.50119   0.36625
   0.60828   0.50119   0.12683
   0.84770   0.50119   0.36625
   0.84770   0.50119   0.36625
   0.60828   0.50119   0.36625
   0.60828   0.26177   0.36625
   0.60828   0.50119   0.36625
   0.36886   0.26177   0.12683
   0.60828   0.02235   0.12683
   0.36886   0.02235   0.12683
   0.36886   0.02235  -0.11259
   0.36886   0.02235   0.12683
   0.36886  -0.21707  -0.11259
   0.12944   0.02235   0.12683
  -0.10998   0.02235  -0.11259
  -0.10998   0.02235  -0.11259
  -0.10998  -0.21707  -0.35201
  -0.10998   0.02235  -0.59143
  -0.34940  -0.21707  -0.59143
  -0.34940  -0.21707  -0.59143
  -0.58882  -0.21707  -0.59143
  -0.58882  -0.21707  -0.59143
  -0.58882  -0.21707  -0.83085
  -0.58882  -0.21707  -0.59143
  -0.58882  -0.21707  -0.83085
  -1.06766  -0.21707  -0.59143
  -0.58882  -0.21707  -0.59143
  -0.82824  -0.21707  -0.83085
  -1.06766  -0.21707  -0.83085
  -1.06766  -0.69591  -0.59143
  -1.06766  -0.45649  -0.59143
  -0.82824  -0.45649  -0.35201
  -1.06766  -0.45649  -0.59143
  -1.06766  -0.45649  -0.59143
  -0.82824  -0.45649  -0.59143
  -1.06766  -0.45649  -0.59143
  -0.82824  -0.45649  -0.83085
  -0.82824  -0.45649  -0.59143
  -0.58882  -0.45649  -0.83085
  -0.82824  -0.45649  -0.83085
  -0.82824  -0.45649  -0.59143
  -0.58882  -0.45649  -0.83085
  -0.34940  -0.45649  -0.83085
  -0.34940  -0.45649  -1.07027
  -0.34940  -0.21707  -0.83085
  -0.10998  -0.21707  -0.83085
  -0.10998  -0.21707  -0.59143
   0.12944  -0.21707  -0.83085
   0.36886  -0.45649  -0.59143
   0.12944   0.02235  -0.59143
   0.36886  -0.21707  -0.83085
   0.60828  -0.21707  -0.59143
   0.60828  -0.21707  -0.83085
   0.60828   0.02235  -0.83085
   0.84770  -0.21707  -0.59143
