********************************************************************************
               CENTRO DE INSTRUMENTACION Y REGISTRO SISMICO  A.C.  
                       Coordinacion de Servicios Tecnicos
     Anaxagoras 814, Col. Narvarte, Benito Juarez, C.P. 03020 Mexico, D.F.
            Tels. 687 45 42/ 687 45  82             Fax. 669 25 12
********************************************************************************
ARCHIVO ESTANDAR DE ACELERACION:
VERSION DEL FORMATO                    : 2.0
NOMBRE DEL ARCHIVO                     : AE029707.192
FECHA Y HORA DE CREACION               : 18/MAR/98, 13:30
REF. CATALOGO ACELEROGRAMAS, SMIS 1996 : REGISTRO No.     /PAG.


================================================================================
DATOS DE LA ESTACION:
NOMBRE DE LA ESTACION                  : AEROPUERTO
CLAVE DE LA ESTACION                   : AE02
LOCALIZACION DE LA ESTACION            : Esc Prim Gonzalez Garzon Calle Xico
                                       : s/n, Col. IV Seccion del Arenal
                                       : Venustiano Carranza
                                       :
                                       :
COORDENADAS DE LA ESTACION             : 19.429 LAT. N 
                                       : 99.058 LONG. W 
ALTITUD (msnm)                         : 2232
TIPO DE SUELO                          : ARCILLOSO, ZONA LAGO
                                       : 
                                       : 
INSTITUCION RESPONSABLE                : CIRES
                                       :

================================================================================
DATOS DEL ACELEROGRAFO:
MODELO DEL ACELEROGRAFO                : RAD-851
NUMERO DE SERIE DEL ACELEROGRAFO       : 242
NUMERO DE CANALES                      : 3
ORIENTACION C1-C6 (rumbo;orientacion)  : /N00E/+V/N90W
ORIENTACION C7-C12 (rumbo;orientacion) :
VEL. DE MUESTREO, C1-C6 (muestras/s)   : /100/100/100
VEL. DE MUESTREO, C7-C12 (muestras/s)  :
ESC. COMPLETA DE SENSORES, C1-C6, (g)  : /0.5/0.5/0.5
ESC. COMPLETA DE SENSORES, C7-C12, (g) :
FREC. NAT. DE SENSORES, C1-C6, (Hz)    : /30/30/30
FREC. NAT. DE SENSORES, C7-C12, (Hz)   :
AMORTIGUAMIENTO DE SENSORES, C1-C6     : /0.733/0.750/0.700
AMORTIGUAMIENTO DE SENSORES, C7-C12    :
INTERVALO DE MUESTREO, C1-C6, (s)      : /0.01/0.01/0.01
INTERVALO DE MUESTREO, C7-C12, (s)     :
UMBRAL DE DISPARO, C1-C6, (Gal)        : /2.44/3.91/2.44
UMBRAL DE DISPARO, C7-C12, (Gal)       :
MEMORIA DE PREEVENTO (s)               : 24
TIEMPO DE POSEVENTO (s)                : 64


================================================================================
DATOS DEL SISMO:
FECHA DEL SISMO (GMT)                  : 19/JUL/97
HORA EPICENTRO (GMT)                   : 14:22:04:1
MAGNITUD(ES)                           : /Ms=6.3
COORDENADAS DEL EPICENTRO              : 15.8 LAT. N
                                       : 98.3 LONG. W
PROFUNDIDAD FOCAL (km)                 : 5.0
FUENTE DE LOS DATOS EPICENTRALES       : SSN
                                       : INSTITUTO DE GEOFISICA, UNAM

================================================================================
DATOS DE ESTE REGISTRO:
HORA DE LA PRIMERA MUESTRA (GMT)       : 14:22:00.00
EXACTITUD DEL TIEMPO (s)               : 0.01
DURACION DEL REGISTRO (s), C1-C6       : /292.50/292.50/292.50
DURACION DEL REGISTRO (s), C7-C12      :
NUM. TOTAL DE MUESTRAS, C1-C6          : /29250/29250/29250
NUM. TOTAL DE MUESTRAS, C7-C12         :
ACEL. MAX. (Gal), C1-C6                : /6.28801/1.33759/3.35566
ACEL. MAX., C1-C6, EN LA MUESTRA       :
ACEL. MAX. (Gal), C7-C12               :
ACEL. MAX., C7-C12, EN LA MUESTRA      :
UNIDADES DE LOS DATOS                  : Gal (cm/s/s)
FACTOR DE DECIMACION                   : 1
FORMATO DATOS (FORTRAN,10 campos/dato) : 3F10.5


================================================================================
CALIDAD DEL ACELEROGRAMA:
REGISTRO DIGITAL COMPLETO CON TIEMPO ABSOLUTO CORRECTO.


================================================================================
COMENTARIOS:














================================================================================
DATOS DE ACELERACION:
---------+---------+---------+---------+---------+---------+---------+---------+
   CANAL-1   CANAL-2   CANAL-3   CANAL-4   CANAL-5   CANAL-6   CANAL-7   CANAL-8
      N00E        +V      N90W
---------+---------+---------+---------+---------+---------+---------+---------+
[...]
  -1.97847   0.09893  -0.23562
  -1.97847   0.33835  -0.47504
  -1.73905   0.09893  -0.23562
  -1.73905   0.09893  -0.23562
  -1.97847   0.33835  -0.47504
  -1.73905   0.09893  -0.23562
  -1.49963   0.33835  -0.23562
  -1.49963   0.09893  -0.23562
  -1.73905   0.09893  -0.23562
  -1.73905   0.33835  -0.23562
  -1.49963   0.09893  -0.23562
  -1.49963   0.09893  -0.23562
  -1.26021   0.09893  -0.23562
  -1.49963   0.09893  -0.23562
  -1.26021  -0.14049  -0.23562
  -1.49963   0.09893  -0.23562
  -1.26021   0.09893  -0.23562
  -1.02079  -0.14049  -0.23562
  -1.26021  -0.14049   0.00380
  -1.02079  -0.14049   0.00380
  -0.78137  -0.14049  -0.23562
  -1.02079  -0.14049  -0.23562
  -1.02079  -0.14049  -0.23562
  -0.78137  -0.14049  -0.23562
  -0.78137  -0.14049   0.00380
  -0.78137  -0.37991  -0.23562
  -0.78137  -0.14049   0.00380
  -0.78137  -0.37991  -0.23562
  -0.54195  -0.14049  -0.23562
  -0.30254  -0.37991   0.00380
  -0.30254  -0.14049  -0.23562
  -0.30254  -0.14049   0.00380
  -0.54195  -0.14049   0.00380
  -0.06312  -0.37991   0.00380
  -0.06312  -0.37991   0.00380
  -0.06312  -0.37991   0.00380
   0.17630  -0.37991   0.00380
   0.17630  -0.37991   0.00380
   0.41572  -0.37991   0.24322
   0.41572  -0.61933   0.00380
   0.65514  -0.37991   0.00380
   0.65514  -0.61933   0.00380
   0.65514  -0.37991   0.00380
   0.89456  -0.37991   0.00380
   0.89456  -0.61933   0.24322
   1.13398  -0.61933   0.00380
   0.89456  -0.61933   0.00380
   1.13398  -0.61933   0.00380
   1.37340  -0.37991   0.00380
   1.37340  -0.61933   0.00380
   1.61282  -0.61933   0.00380
   1.61282  -0.37991   0.00380
   1.61282  -0.37991   0.00380
   1.61282  -0.37991   0.00380
   1.85223  -0.37991   0.00380
   1.85223  -0.61933   0.24322
   2.09165  -0.37991  -0.23562
   1.85223  -0.37991  -0.23562
   1.85223  -0.61933   0.00380
   2.09165  -0.61933   0.00380
   2.33107  -0.61933   0.24322
   2.33107  -0.61933   0.24322
   2.33107  -0.61933   0.24322
   2.57049  -0.61933  -0.23562
   2.57049  -0.37991   0.00380
   2.57049  -0.61933   0.24322
   2.57049  -0.61933   0.00380
   2.57049  -0.61933   0.00380
   2.80991  -0.61933   0.00380
   2.80991  -0.61933   0.24322
   2.80991  -0.85875  -0.23562
   2.80991  -0.61933   0.00380
   3.04933  -0.61933   0.24322
   3.28875  -0.61933   0.00380
   3.28875  -0.61933   0.00380
   3.28875  -0.61933   0.00380
   3.28875  -0.61933  -0.23562
   3.28875  -0.37991  -0.23562
   3.52817  -0.61933  -0.23562
   3.52817  -0.37991  -0.23562
   3.52817  -0.37991  -0.23562
   3.52817  -0.37991  -0.23562
   3.52817  -0.61933   0.00380
   3.52817  -0.37991  -0.23562
   3.76759  -0.37991  -0.23562
   3.76759  -0.37991  -0.23562
   3.76759  -0.37991  -0.23562
   3.76759  -0.37991  -0.23562
   3.76759  -0.37991  -0.23562
   4.00701  -0.37991  -0.47504
   4.00701  -0.37991  -0.23562
   4.00701  -0.14049  -0.23562
   4.00701  -0.37991  -0.23562
   4.00701  -0.37991  -0.47504
   4.00701  -0.37991  -0.23562
   4.24642  -0.37991  -0.47504
   4.24642  -0.14049  -0.47504
   4.24642  -0.37991  -0.47504
   4.24642  -0.14049  -0.47504
   4.24642  -0.14049  -0.47504
   4.24642  -0.14049  -0.47504
   4.24642  -0.14049  -0.71446
   4.48584  -0.14049  -0.47504
   4.72526  -0.14049  -0.47504
   4.48584  -0.14049  -0.47504
   4.96468   0.09893  -0.71446
   4.72526  -0.14049  -0.47504
   4.72526   0.09893  -0.47504
   4.72526   0.09893  -0.47504
   4.72526  -0.14049  -0.23562
   4.96468   0.09893  -0.71446
   4.96468   0.09893  -0.71446
   4.96468  -0.14049  -0.47504
   4.72526   0.09893  -0.47504
   4.96468   0.09893  -0.47504
   5.20410   0.09893  -0.47504
   5.20410   0.09893  -0.47504
   5.20410   0.09893  -0.71446
   4.96468   0.09893  -0.47504
   5.20410   0.33835  -0.71446
   5.20410   0.33835  -0.47504
   5.20410   0.33835  -0.47504
   5.20410   0.33835  -0.71446
   5.20410   0.09893  -0.47504
   5.20410   0.09893  -0.71446
   5.44352   0.33835  -0.47504
   5.20410   0.33835  -0.47504
   5.44352   0.33835  -0.47504
   5.20410   0.33835  -0.23562
   5.20410   0.33835  -0.47504
   5.44352   0.33835  -0.47504
   5.44352   0.33835  -0.47504
   5.44352   0.33835  -0.47504
   5.20410   0.33835  -0.23562
   5.20410   0.33835  -0.23562
   5.20410   0.33835  -0.23562
   5.20410   0.33835  -0.23562
   5.44352   0.33835  -0.23562
   5.44352   0.33835  -0.23562
   5.20410   0.57776  -0.23562
   5.20410   0.33835  -0.23562
   5.20410   0.33835  -0.23562
   5.20410   0.33835  -0.23562
   5.20410   0.33835  -0.23562
   5.20410   0.57776   0.00380
   4.96468   0.33835   0.00380
   4.96468   0.33835  -0.23562
   4.96468   0.57776  -0.23562
   4.96468   0.33835   0.00380
   4.96468   0.33835  -0.23562
   4.72526   0.57776  -0.23562
   4.72526   0.57776   0.00380
   4.72526   0.57776   0.00380
   4.72526   0.81718   0.00380
   4.48584   0.57776   0.24322
   4.48584   0.57776   0.24322
   4.48584   0.57776   0.24322
   4.48584   0.57776   0.24322
   4.48584   0.57776   0.24322
   4.24642   0.57776   0.24322
   4.24642   0.57776   0.24322
   4.00701   0.57776   0.24322
   4.00701   0.33835   0.24322
   4.00701   0.57776   0.24322
   4.00701   0.57776   0.24322
   4.00701   0.57776   0.24322
   3.76759   0.57776   0.24322
   3.76759   0.57776   0.48264
   3.76759   0.33835   0.48264
   3.76759   0.33835   0.48264
   3.76759   0.33835   0.48264
   3.76759   0.33835   0.48264
   3.52817   0.57776   0.24322
   3.52817   0.33835   0.48264
   3.52817   0.33835   0.48264
   3.52817   0.57776   0.72205
   3.28875   0.09893   0.72205
   3.28875   0.33835   0.48264
   3.52817   0.09893   0.72205
   3.52817   0.33835   0.48264
   3.04933   0.57776   0.48264
   3.04933   0.33835   0.48264
   2.80991   0.33835   0.48264
   3.28875   0.09893   0.48264
   3.04933   0.09893   0.48264
   3.28875   0.09893   0.48264
   3.04933   0.09893   0.24322
   3.04933   0.33835   0.48264
   3.28875   0.09893   0.48264
   3.04933   0.09893   0.48264
   3.04933  -0.14049   0.48264
   3.04933   0.09893   0.00380
   3.04933   0.09893   0.48264
   3.04933  -0.14049   0.24322
   2.80991  -0.14049   0.24322
   3.04933   0.09893   0.24322
   3.04933  -0.14049   0.24322
   3.04933  -0.14049   0.24322
   3.04933  -0.14049   0.24322
   3.28875  -0.14049   0.24322
   3.04933  -0.14049   0.24322
   3.04933   0.09893   0.48264
   3.04933  -0.14049   0.48264
   3.28875  -0.14049   0.24322
   3.04933  -0.14049   0.24322
   3.28875  -0.14049   0.24322
   3.28875  -0.37991   0.24322
   3.04933  -0.37991   0.24322
   3.04933  -0.61933   0.24322
   3.04933  -0.37991   0.24322
   3.28875  -0.37991   0.48264
   3.28875  -0.61933   0.48264
   3.04933  -0.61933   0.24322
   3.04933  -0.37991   0.24322
   3.04933  -0.37991   0.24322
   3.04933  -0.61933   0.24322
   3.04933  -0.37991   0.24322
   3.04933  -0.37991   0.24322
   3.04933  -0.37991   0.24322
   3.04933  -0.61933   0.24322
   3.04933  -0.37991   0.48264
   2.80991  -0.37991   0.48264
   2.80991  -0.37991   0.48264
   2.80991  -0.37991   0.48264
   2.80991  -0.61933   0.48264
   2.80991  -0.61933   0.24322
   2.80991  -0.61933   0.24322
   2.80991  -0.37991   0.48264
   2.57049  -0.37991   0.48264
   2.57049  -0.61933   0.48264
   2.80991  -0.37991   0.48264
   2.33107  -0.61933   0.48264
   2.57049  -0.61933   0.48264
   2.57049  -0.61933   0.48264
   2.33107  -0.61933   0.48264
   2.57049  -0.37991   0.48264
   2.33107  -0.37991   0.48264
   2.09165  -0.37991   0.48264
   2.33107  -0.61933   0.48264
   2.09165  -0.61933   0.48264
   2.09165  -0.37991   0.48264
   2.09165  -0.37991   0.48264
   1.85223  -0.37991   0.48264
   1.85223  -0.37991   0.48264
   1.85223  -0.37991   0.72205
   1.85223  -0.61933   0.48264
   1.61282  -0.37991   0.48264
   1.61282  -0.37991   0.72205
   1.61282  -0.37991   0.72205
   1.37340  -0.37991   0.72205
   1.37340  -0.37991   0.72205
   1.37340  -0.37991   0.48264
   1.37340  -0.37991   0.72205
   1.37340  -0.37991   0.48264
   1.13398  -0.37991   0.72205
   1.13398  -0.37991   0.48264
   0.89456  -0.37991   0.48264
   0.89456  -0.37991   0.48264
   1.13398  -0.61933   0.48264
   0.89456  -0.61933   0.48264
   0.65514  -0.37991   0.48264
   0.65514  -0.37991   0.48264
   0.65514  -0.14049   0.48264
   0.41572  -0.37991   0.48264
   0.41572  -0.14049   0.48264
   0.41572  -0.37991   0.48264
   0.41572  -0.37991   0.24322
   0.41572  -0.14049   0.48264
   0.17630  -0.37991   0.24322
   0.17630  -0.14049   0.48264
  -0.30254  -0.37991   0.24322
  -0.30254  -0.14049   0.24322
  -0.30254  -0.37991   0.24322
  -0.30254  -0.14049   0.24322
  -0.54195  -0.14049   0.00380
  -0.30254  -0.14049   0.24322
  -0.78137   0.09893   0.24322
  -0.78137   0.09893   0.24322
  -0.78137   0.09893   0.00380
  -0.78137   0.09893   0.24322
  -0.78137  -0.14049   0.24322
  -0.78137   0.09893   0.00380
  -1.02079   0.09893   0.00380
  -1.02079   0.09893  -0.23562
  -1.02079   0.33835   0.00380
  -1.26021   0.33835   0.24322
  -1.26021   0.09893   0.00380
  -1.49963   0.33835   0.00380
  -1.26021   0.09893   0.00380
  -1.26021   0.33835   0.00380
  -1.73905   0.09893   0.00380
  -1.49963   0.09893   0.24322
  -1.73905   0.33835   0.00380
  -1.73905   0.33835   0.00380
  -1.73905   0.33835   0.00380
  -1.97847   0.33835   0.00380
  -1.97847   0.33835   0.24322
  -1.97847   0.33835  -0.23562
  -1.97847   0.33835   0.00380
  -2.45731   0.33835   0.00380
  -2.21789   0.33835   0.00380
  -2.45731   0.33835   0.00380
  -2.45731   0.33835   0.00380
  -2.45731   0.33835   0.00380
  -2.69672   0.33835   0.24322
  -2.69672   0.33835   0.00380
  -2.69672   0.33835   0.00380
  -2.93614   0.33835   0.00380
  -2.93614   0.33835   0.00380
  -3.17556   0.33835   0.00380
  -3.17556   0.33835   0.24322
  -3.17556   0.09893   0.24322
  -3.65440   0.33835   0.00380
  -3.41498   0.33835   0.24322
  -3.41498   0.33835   0.24322
  -3.41498   0.57776   0.24322
  -3.65440   0.57776   0.48264
  -3.65440   0.33835   0.48264
  -3.65440   0.33835   0.24322
  -3.89382   0.33835   0.24322
  -4.13324   0.33835   0.24322
  -4.13324   0.33835   0.24322
  -4.13324   0.57776   0.48264
  -4.37266   0.33835   0.24322
  -4.37266   0.57776   0.24322
  -4.61208   0.33835   0.24322
  -4.61208   0.57776   0.24322
  -4.61208   0.33835   0.48264
  -4.61208   0.57776   0.72205
  -4.61208   0.57776   0.48264
  -4.85150   0.33835   0.48264
  -5.09091   0.33835   0.48264
  -5.09091   0.57776   0.48264
  -5.33033   0.33835   0.72205
  -5.33033   0.33835   0.48264
  -5.33033   0.33835   0.48264
  -5.33033   0.33835   0.48264
  -5.56975   0.33835   0.48264
  -5.56975   0.33835   0.48264
  -5.80917   0.33835   0.48264
  -5.80917   0.57776   0.48264
  -5.80917   0.33835   0.72205
  -6.04859   0.33835   0.48264
  -6.04859   0.33835   0.48264
  -5.80917   0.33835   0.72205
  -6.04859   0.09893   0.48264
  -6.04859   0.09893   0.72205
  -6.04859   0.09893   0.72205
  -6.04859   0.33835   0.72205
  -6.28801   0.33835   0.72205
  -6.04859   0.33835   0.72205
  -6.04859   0.33835   0.48264
  -6.28801   0.09893   0.72205
  -6.28801   0.09893   0.48264
  -6.28801   0.33835   0.48264
  -6.04859   0.57776   0.48264
  -6.28801   0.09893   0.72205
  -6.28801   0.33835   0.48264
  -6.04859   0.09893   0.72205
  -6.28801   0.09893   0.72205
  -6.28801   0.33835   0.72205
  -6.04859  -0.14049   0.72205
  -6.04859   0.09893   0.72205
  -6.04859   0.09893   0.72205
  -5.80917   0.09893   0.72205
  -5.80917   0.33835   0.72205
  -6.04859   0.09893   0.96147
  -5.80917   0.09893   0.72205
  -5.80917   0.09893   0.72205
  -5.80917  -0.14049   0.72205
  -5.80917  -0.14049   0.72205
  -5.56975   0.09893   0.72205
  -5.56975  -0.14049   0.72205
  -5.56975  -0.14049   0.48264
  -5.56975  -0.14049   0.72205
  -5.33033  -0.14049   0.72205
  -5.33033  -0.14049   0.72205
  -5.09091  -0.14049   0.48264
  -5.33033  -0.14049   0.72205
  -5.09091  -0.14049   0.48264
  -5.33033  -0.14049   0.24322
  -4.85150   0.09893   0.72205
  -4.85150  -0.14049   0.48264
  -4.85150  -0.14049   0.48264
  -4.61208  -0.14049   0.48264
  -4.61208  -0.14049   0.24322
  -4.61208  -0.14049   0.24322
  -4.37266  -0.14049   0.48264
  -4.61208  -0.14049   0.24322
  -4.37266  -0.14049   0.48264
  -4.37266  -0.14049   0.48264
  -4.13324  -0.14049   0.48264
  -3.89382  -0.37991   0.48264
  -3.89382  -0.14049   0.48264
  -3.65440  -0.14049   0.24322
  -3.65440  -0.14049   0.48264
  -3.65440   0.09893   0.24322
  -3.65440  -0.14049   0.24322
  -3.65440  -0.14049   0.24322
  -3.41498  -0.14049   0.48264
  -3.17556  -0.14049   0.48264
  -3.17556  -0.37991   0.24322
  -3.17556  -0.14049   0.24322
  -2.93614  -0.37991   0.48264
  -3.17556  -0.37991   0.24322
  -3.17556  -0.37991   0.48264
  -2.93614  -0.14049   0.48264
  -2.93614  -0.37991   0.24322
  -2.69672  -0.14049   0.48264
  -2.69672  -0.37991   0.48264
  -2.69672  -0.37991   0.24322
  -2.45731  -0.14049   0.24322
  -2.69672  -0.37991   0.24322
  -2.45731  -0.14049   0.48264
  -2.45731  -0.37991   0.48264
  -2.45731  -0.14049   0.24322
  -2.21789  -0.14049   0.48264
  -2.21789  -0.14049   0.48264
  -2.21789  -0.14049   0.24322
  -2.21789  -0.14049   0.48264
  -1.97847  -0.37991   0.48264
  -2.21789  -0.14049   0.24322
  -1.97847  -0.37991   0.24322
  -1.97847  -0.37991   0.24322
  -1.97847  -0.14049   0.24322
  -1.97847  -0.14049   0.48264
  -1.97847  -0.14049   0.48264
  -2.21789  -0.14049   0.48264
  -1.97847  -0.14049   0.48264
  -1.97847  -0.37991   0.48264
  -1.73905  -0.14049   0.48264
  -1.73905  -0.14049   0.48264
  -1.97847  -0.14049   0.48264
  -1.97847  -0.14049   0.24322
  -1.73905  -0.14049   0.48264
  -1.97847   0.09893   0.48264
  -1.73905   0.09893   0.48264
  -1.97847   0.09893   0.24322
  -1.73905   0.09893   0.48264
  -1.73905  -0.14049   0.48264
  -1.73905  -0.14049   0.48264
  -1.73905  -0.14049   0.48264
  -1.73905  -0.14049   0.24322
  -1.73905   0.09893   0.24322
  -1.73905   0.09893   0.48264
  -1.49963  -0.14049   0.48264
  -1.73905  -0.14049   0.24322
  -1.49963   0.09893   0.24322
  -1.73905  -0.14049   0.24322
  -1.73905  -0.14049   0.24322
  -1.73905  -0.14049   0.24322
  -1.73905   0.09893   0.00380
  -1.73905   0.09893   0.00380
  -1.49963   0.09893  -0.23562
  -1.73905   0.09893  -0.23562
  -1.49963   0.09893  -0.23562
  -1.73905   0.09893  -0.23562
  -1.49963   0.09893   0.00380
  -1.49963   0.09893  -0.23562
  -1.49963   0.33835  -0.23562
  -1.49963   0.09893  -0.23562
  -1.49963   0.09893  -0.47504
  -1.49963   0.09893  -0.23562
  -1.49963   0.09893  -0.23562
  -1.49963   0.33835  -0.23562
  -1.73905   0.09893   0.00380
  -1.49963   0.09893  -0.23562
  -1.49963   0.33835  -0.23562
  -1.49963   0.09893  -0.23562
  -1.49963   0.09893  -0.23562
  -1.49963   0.33835  -0.23562
  -1.49963   0.33835  -0.23562
  -1.49963   0.09893  -0.23562
  -1.49963   0.33835  -0.23562
  -1.26021   0.09893  -0.23562
  -1.49963   0.33835  -0.23562
  -1.26021   0.33835  -0.23562
  -1.49963   0.33835  -0.23562
  -1.73905   0.33835  -0.23562
  -1.49963   0.33835   0.00380
  -1.49963   0.33835   0.00380
  -1.49963   0.33835   0.00380
  -1.26021   0.33835   0.00380
  -1.49963   0.33835   0.00380
  -1.49963   0.33835   0.24322
  -1.26021   0.57776  -0.23562
  -1.26021   0.57776   0.00380
  -1.49963   0.57776   0.00380
  -1.26021   0.57776   0.00380
  -1.73905   0.57776   0.00380
  -1.49963   0.57776   0.00380
  -1.49963   0.57776   0.00380
  -1.49963   0.57776   0.24322
  -1.26021   0.57776   0.24322
  -1.49963   0.57776   0.24322
  -1.49963   0.57776   0.24322
  -1.26021   0.57776   0.24322
  -1.49963   0.57776   0.24322
  -1.49963   0.57776   0.24322
  -1.49963   0.57776   0.24322
