********************************************************************************
              CENTRO DE INSTRUMENTACION Y REGISTRO SISMICO  A.C.

    Anaxagoras 814, Col. Narvarte, Benito Juarez, C.P. 03020 Mexico, D.F.
           Tels. 5687 45 42/ 5687 45  82             Fax. 5669 25 12
********************************************************************************
ARCHIVO ESTANDAR DE ACELERACION:
VERSION DEL FORMATO                    : 2.0
NOMBRE DEL ARCHIVO                     : AE0220120501163759
FECHA Y HORA DE CREACION               : 04/JUL/12, 14:46
REF. CATALOGO ACELEROGRAMAS, SMIS 1996 : REGISTRO No.     /PAG.


================================================================================
DATOS DE LA ESTACION:
NOMBRE DE LA ESTACION                  : ESC. PRIM. "GONZÁLEZ GARZÓN"
CLAVE DE LA ESTACION                   : AE02
LOCALIZACION DE LA ESTACION            : Del. Venustiano Carranza,              
                                       : Col. El Arenal 4a. Sección,            
                                       : Calle Xico esq. con calle Xocoyote.    
                                       :                                        
                                       : 
COORDENADAS DE LA ESTACION             : 19.4290 LAT. N
                                       : 99.0584 LONG. W
ALTITUD (msnm)                         : 2232
TIPO DE SUELO                          : Arcilloso, zona lago                
                                       :                           
                                       : 
INSTITUCION RESPONSABLE                : CIRES
                                       : 

================================================================================
DATOS DEL ACELEROGRAFO:
MODELO DEL ACELEROGRAFO                : RADESD
NUMERO DE SERIE DEL ACELEROGRAFO       : 242
NUMERO DE CANALES                      : 3
ORIENTACION C1-C6 (rumbo;orientacion)  : /N00E/+V/N90W
ORIENTACION C7-C12 (rumbo;orientacion) : 
VEL. DE MUESTREO, C1-C6 (muestras/s)   : /100/100/100
VEL. DE MUESTREO, C7-C12 (muestras/s)  : 
ESC. COMPLETA DE SENSORES, C1-C6, (g)  : /0.5/0.5/0.5
ESC. COMPLETA DE SENSORES, C7-C12, (g) : 
FREC. NAT. DE SENSORES, C1-C6, (Hz)    : /30/30/30
FREC. NAT. DE SENSORES, C7-C12, (Hz)   : 
AMORTIGUAMIENTO DE SENSORES, C1-C6     : /0.733/0.750/0.700
AMORTIGUAMIENTO DE SENSORES, C7-C12    : 
INTERVALO DE MUESTREO, C1-C6, (s)      : /0.01/0.01/0.01
INTERVALO DE MUESTREO, C7-C12, (s)     : 
UMBRAL DE DISPARO, C1-C6, (Gal)        : /1.92/9.58/2.63
UMBRAL DE DISPARO, C7-C12, (Gal)       : 
MEMORIA DE PREEVENTO (s)               : 56.0
TIEMPO DE POSEVENTO (s)                : 64.0


================================================================================
DATOS DEL SISMO:
FECHA DEL SISMO (GMT)                  : 01/MAY/12
HORA EPICENTRO (GMT)                   : 16:37:59.0
MAGNITUD(ES)                           : /Mc=5.6
COORDENADAS DEL EPICENTRO              : 18.20 LAT. N
                                       : 101.01 LONG. W
PROFUNDIDAD FOCAL (km)                 : 51
FUENTE DE LOS DATOS EPICENTRALES       : SSN
                                       : INSTITUTO DE GEOFISICA, UNAM

================================================================================
DATOS DE ESTE REGISTRO:
HORA DE LA PRIMERA MUESTRA (GMT)       : 16:39:40.00
EXACTITUD DEL TIEMPO (s)               : 0.01
DURACION DEL REGISTRO (s), C1-C6       : /119.75/119.75/119.75
DURACION DEL REGISTRO (s), C7-C12      : 
NUM. TOTAL DE MUESTRAS, C1-C6          : /11975/11975/11975
NUM. TOTAL DE MUESTRAS, C7-C12         : 
ACEL. MAX. (Gal), C1-C6                : /2.72153/1.93066/2.5882
ACEL. MAX., C1-C6, EN LA MUESTRA       : /3778/4325/4316
ACEL. MAX. (Gal), C7-C12               : 
ACEL. MAX., C7-C12, EN LA MUESTRA      : 
UNIDADES DE LOS DATOS                  : Gal (cm/s/s)
FACTOR DE DECIMACION                   : 1
FORMATO DATOS (FORTRAN,10 campos/dato) : 3F10.5


================================================================================
CALIDAD DEL ACELEROGRAMA:
REGISTRO DIGITAL COMPLETO CON TIEMPO ABSOLUTO CORRECTO.


================================================================================
COMENTARIOS:














================================================================================
DATOS DE ACELERACION:
---------+---------+---------+---------+---------+---------+---------+---------+
   CANAL-1   CANAL-2   CANAL-3   CANAL-4   CANAL-5   CANAL-6   CANAL-7   CANAL-8
      N00E        +V      N90W
---------+---------+---------+---------+---------+---------+---------+---------+
[...]
  -0.63035  -0.46355  -0.04542
  -0.63035  -0.46355  -0.04542
  -0.63035  -0.46355  -0.28485
  -0.39093  -0.46355  -0.28485
  -0.15151  -0.46355  -0.52427
   0.08791  -0.46355  -0.52427
  -0.39093  -0.46355  -0.52427
  -0.63035  -0.22413  -0.28485
  -0.15151  -0.46355  -0.52427
  -0.15151  -0.70297  -0.76369
  -0.15151  -0.70297  -0.52427
  -0.39093  -0.46355  -0.52427
  -0.63035  -0.46355  -0.52427
  -0.63035  -0.22413  -0.28485
  -0.39093  -0.46355  -0.28485
  -0.15151  -0.70297  -0.28485
  -0.39093  -0.46355  -0.52427
  -0.39093  -0.22413  -0.28485
  -0.39093  -0.22413  -0.28485
  -0.39093  -0.22413  -0.52427
  -0.63035   0.01529  -0.28485
  -0.15151  -0.22413  -0.28485
   0.08791  -0.22413  -0.52427
  -0.39093   0.01529  -0.28485
  -0.63035   0.25472  -0.28485
  -0.39093   0.25472  -0.28485
  -0.15151   0.01529  -0.28485
  -0.39093   0.25472  -0.04542
  -0.39093   0.25472  -0.04542
  -0.39093   0.01529   0.19400
  -0.63035   0.25472   0.43342
  -0.39093   0.01529   0.43342
  -0.15151   0.01529   0.43342
  -0.15151   0.01529   0.43342
  -0.15151   0.01529   0.43342
   0.08791   0.01529   0.43342
   0.32733   0.01529   0.43342
   0.32733   0.01529   0.43342
   0.32733   0.01529   0.43342
   0.56675   0.25472   0.19400
   0.56675   0.25472   0.43342
   0.56675   0.25472   0.43342
   0.80617   0.25472   0.43342
   0.32733   0.01529   0.43342
   0.32733   0.25472   0.43342
   0.80617   0.01529   0.19400
   0.80617   0.01529   0.19400
   0.56675   0.01529   0.19400
   0.08791   0.25472   0.19400
   0.32733   0.01529   0.19400
   0.32733   0.01529   0.19400
   0.32733   0.01529   0.19400
   0.32733   0.01529   0.19400
   0.32733   0.01529  -0.04542
   0.08791   0.01529  -0.04542
   0.08791   0.01529  -0.28485
   0.32733   0.01529  -0.28485
   0.80617   0.01529  -0.76369
   0.56675   0.01529  -1.00311
   0.32733   0.01529  -1.00311
   0.32733   0.25472  -1.00311
   0.56675   0.01529  -1.00311
   0.56675   0.01529  -1.00311
   0.80617   0.01529  -1.00311
   0.80617  -0.22413  -1.00311
   0.56675  -0.22413  -0.76369
   0.32733   0.01529  -0.52427
   0.32733   0.01529  -0.52427
   0.56675   0.01529  -0.28485
   0.56675  -0.22413  -0.28485
   0.56675  -0.22413  -0.28485
   0.32733  -0.22413  -0.28485
   0.32733   0.01529  -0.28485
   0.32733   0.01529  -0.04542
   0.32733   0.01529  -0.28485
   0.32733  -0.22413  -0.28485
   0.32733  -0.22413  -0.28485
   0.32733  -0.22413  -0.52427
   0.08791   0.01529  -0.52427
  -0.15151   0.01529  -0.28485
   0.08791   0.01529  -0.28485
  -0.15151  -0.22413  -0.28485
  -0.15151   0.01529  -0.28485
  -0.15151   0.25472  -0.04542
  -0.39093   0.25472  -0.04542
  -0.39093   0.25472  -0.04542
  -0.39093   0.49414   0.19400
  -0.15151   0.49414   0.19400
  -0.15151   0.49414   0.19400
   0.08791   0.73356   0.19400
  -0.15151   0.73356   0.19400
  -0.39093   0.97298   0.43342
  -0.15151   0.73356   0.19400
  -0.15151   0.49414   0.19400
   0.08791   0.73356   0.19400
  -0.15151   0.49414   0.19400
  -0.39093   0.49414   0.19400
  -0.63035   0.73356   0.43342
  -0.39093   0.73356   0.19400
   0.08791   0.49414   0.43342
  -0.15151   0.73356   0.43342
  -0.63035   0.73356   0.67284
  -0.15151   0.73356   0.91226
   0.08791   0.49414   0.91226
  -0.15151   0.73356   1.15168
  -0.15151   0.73356   1.39110
   0.32733   0.73356   1.15168
   0.32733   0.73356   1.39110
   0.32733   0.97298   1.63052
   0.80617   0.97298   1.63052
   0.80617   0.73356   1.63052
   0.80617   0.97298   1.63052
   1.04559   0.73356   1.63052
   1.04559   0.49414   1.39110
   0.80617   0.73356   1.39110
   1.04559   0.73356   1.39110
   1.04559   0.49414   1.15168
   0.80617   0.49414   1.15168
   0.56675   0.49414   1.15168
   0.56675   0.49414   0.91226
   0.56675   0.49414   0.91226
   0.32733   0.49414   0.91226
   0.08791   0.25472   0.67284
   0.08791   0.25472   0.43342
   0.08791   0.25472   0.43342
  -0.15151   0.25472   0.19400
  -0.15151   0.25472   0.19400
  -0.15151   0.01529  -0.04542
  -0.39093   0.01529  -0.04542
  -0.63035   0.01529  -0.52427
  -0.39093   0.01529  -0.52427
  -0.39093  -0.22413  -0.76369
  -0.39093  -0.22413  -0.76369
  -0.63035  -0.22413  -1.00311
  -0.63035  -0.22413  -1.24253
  -1.10919  -0.46355  -1.24253
  -0.86977  -0.46355  -1.24253
  -0.63035  -0.70297  -1.48195
  -0.86977  -0.94239  -1.48195
  -1.10919  -0.94239  -1.72137
  -1.34861  -0.94239  -1.48195
  -1.10919  -1.18181  -1.72137
  -1.10919  -1.42123  -1.72137
  -0.86977  -1.42123  -1.96079
  -1.10919  -1.42123  -1.96079
  -1.10919  -1.42123  -1.96079
  -1.58803  -1.42123  -1.96079
  -1.34861  -1.42123  -1.96079
  -1.10919  -1.66065  -1.96079
  -1.10919  -1.90007  -2.20021
  -1.34861  -1.66065  -2.20021
  -1.34861  -1.66065  -2.20021
  -1.58803  -1.66065  -1.96079
  -1.58803  -1.42123  -1.96079
  -1.82745  -1.42123  -1.96079
  -1.82745  -1.42123  -1.96079
  -1.82745  -1.18181  -1.72137
  -2.06687  -1.18181  -1.72137
  -2.06687  -0.94239  -1.72137
  -2.06687  -0.94239  -1.72137
  -1.82745  -0.94239  -1.72137
  -1.82745  -0.70297  -1.72137
  -1.58803  -0.70297  -1.48195
  -1.34861  -0.70297  -1.72137
  -1.34861  -0.70297  -1.48195
  -1.10919  -0.46355  -1.48195
  -1.10919  -0.46355  -1.24253
  -0.86977  -0.46355  -1.24253
  -0.63035  -0.46355  -1.00311
  -0.63035  -0.46355  -0.76369
  -0.63035  -0.46355  -0.52427
  -0.39093  -0.46355  -0.28485
  -0.15151  -0.22413  -0.04542
  -0.15151  -0.22413   0.19400
  -0.15151   0.01529   0.19400
   0.08791   0.25472   0.43342
   0.56675   0.01529   0.43342
   0.32733   0.49414   0.67284
   0.32733   0.73356   0.91226
   0.80617   0.73356   0.91226
   1.04559   0.49414   0.67284
   1.04559   0.97298   0.91226
   0.80617   1.21240   0.67284
   0.80617   0.97298   0.91226
   1.04559   1.21240   0.67284
   1.04559   1.21240   0.67284
   1.76385   0.97298   0.67284
   1.52443   0.73356   0.43342
   0.80617   0.97298   0.67284
   0.80617   1.45182   0.91226
   1.28501   0.97298   0.67284
   1.28501   0.97298   0.67284
   1.04559   1.45182   0.67284
   1.28501   1.21240   0.67284
   1.28501   1.21240   0.43342
   0.80617   1.45182   0.67284
   1.04559   1.45182   0.67284
   1.52443   1.21240   0.19400
   1.52443   1.21240   0.19400
   1.52443   1.45182   0.19400
   1.76385   1.21240   0.19400
   1.52443   1.21240  -0.04542
   1.52443   1.21240   0.19400
   1.76385   0.97298  -0.04542
   2.00327   0.73356  -0.28485
   1.76385   0.49414  -0.28485
   1.76385   0.49414  -0.28485
   1.76385   0.49414  -0.52427
   1.52443   0.25472  -0.52427
   1.52443   0.25472  -0.52427
   1.52443   0.01529  -0.52427
   1.28501   0.01529  -0.76369
   1.04559   0.01529  -0.76369
   0.80617   0.01529  -0.76369
   1.04559   0.01529  -0.76369
   0.80617   0.01529  -0.76369
   0.56675   0.25472  -0.52427
   1.04559   0.01529  -0.76369
   1.04559   0.01529  -0.76369
   0.56675   0.01529  -0.76369
   0.32733   0.25472  -0.52427
   0.32733   0.01529  -0.52427
   0.08791   0.01529  -0.28485
   0.08791  -0.22413  -0.52427
   0.08791  -0.46355  -0.52427
  -0.15151  -0.46355  -0.28485
  -0.86977  -0.22413  -0.28485
  -0.86977   0.01529  -0.28485
  -0.63035  -0.46355  -0.28485
  -0.63035  -0.46355  -0.52427
  -0.86977  -0.46355  -0.52427
  -0.86977  -0.46355  -0.52427
  -0.86977  -0.46355  -0.52427
  -1.10919  -0.46355  -0.52427
  -1.10919  -0.70297  -0.52427
  -0.63035  -0.70297  -0.76369
  -0.63035  -0.70297  -0.52427
  -0.86977  -0.70297  -0.52427
  -0.86977  -0.70297  -0.52427
  -0.63035  -0.46355  -0.52427
  -0.63035  -0.46355  -0.52427
  -0.63035  -0.70297  -0.52427
  -0.63035  -0.70297  -0.52427
  -0.86977  -0.46355  -0.52427
  -1.10919  -0.46355  -0.28485
  -1.10919  -0.46355  -0.28485
  -1.10919  -0.46355  -0.28485
  -1.10919  -0.46355  -0.28485
  -1.10919  -0.46355  -0.28485
  -1.10919  -0.46355  -0.28485
  -0.86977  -0.46355  -0.28485
  -1.10919  -0.22413  -0.52427
  -0.86977  -0.22413  -0.52427
  -0.63035  -0.22413  -0.52427
  -0.39093  -0.22413  -0.52427
  -0.39093  -0.22413  -0.52427
  -0.39093  -0.22413  -0.76369
  -0.15151  -0.22413  -0.76369
  -0.15151  -0.22413  -0.76369
   0.08791  -0.22413  -0.52427
   0.08791  -0.22413  -0.76369
   0.32733  -0.22413  -0.76369
   0.32733  -0.46355  -0.52427
   0.08791  -0.46355  -0.76369
   0.08791  -0.22413  -0.76369
   0.08791  -0.22413  -0.76369
   0.56675  -0.46355  -0.76369
   0.80617  -0.22413  -1.00311
   0.32733  -0.22413  -0.76369
   0.08791   0.25472  -0.76369
   0.80617   0.01529  -0.76369
   1.04559   0.01529  -0.76369
   1.28501   0.01529  -0.76369
   1.52443  -0.22413  -0.76369
   1.52443  -0.22413  -1.00311
   1.04559   0.01529  -0.76369
   1.04559  -0.22413  -0.76369
   1.76385  -0.22413  -0.52427
   1.76385  -0.46355  -0.52427
   1.28501  -0.22413  -0.28485
   1.04559  -0.22413  -0.04542
   1.04559  -0.22413   0.19400
   0.56675  -0.22413   0.43342
   0.32733   0.01529   0.67284
   0.80617  -0.22413   0.91226
   0.56675  -0.22413   0.91226
   0.08791   0.25472   1.15168
   0.08791   0.25472   1.15168
   0.32733   0.01529   1.39110
   0.32733   0.25472   1.39110
   0.08791   0.25472   1.39110
   0.32733   0.25472   1.39110
   0.08791   0.25472   1.39110
   0.08791   0.25472   1.39110
   0.08791   0.25472   1.15168
   0.08791   0.25472   0.91226
   0.08791   0.25472   1.15168
  -0.15151   0.01529   0.91226
  -0.39093   0.01529   0.67284
  -0.39093   0.01529   0.67284
  -0.39093   0.01529   0.67284
  -0.63035  -0.22413   0.67284
  -0.86977  -0.22413   0.67284
  -0.86977  -0.22413   0.67284
  -0.63035  -0.22413   0.67284
  -0.63035  -0.22413   0.43342
  -1.10919   0.01529   0.67284
  -1.10919   0.01529   0.67284
  -0.86977   0.01529   0.43342
  -0.63035  -0.22413   0.43342
  -0.86977  -0.22413   0.43342
  -0.86977  -0.22413   0.43342
  -0.86977  -0.22413   0.43342
  -0.86977  -0.22413   0.19400
  -1.34861  -0.22413   0.19400
  -1.10919  -0.22413   0.19400
  -0.86977  -0.46355   0.19400
  -0.86977  -0.46355  -0.04542
  -1.58803  -0.22413  -0.04542
  -1.34861   0.01529  -0.04542
  -1.10919  -0.22413  -0.04542
  -1.10919  -0.22413  -0.04542
  -1.10919  -0.22413  -0.04542
  -1.10919  -0.22413  -0.04542
  -0.86977   0.01529  -0.04542
  -0.86977   0.01529  -0.04542
  -0.63035   0.01529   0.19400
  -0.15151   0.01529  -0.04542
  -0.15151   0.01529  -0.04542
  -0.15151   0.25472  -0.28485
   0.32733   0.01529  -0.28485
   0.56675   0.25472  -0.28485
   0.80617   0.25472  -0.52427
   0.80617   0.25472  -0.52427
   1.28501   0.25472  -0.52427
   1.28501   0.25472  -0.52427
   1.52443   0.25472  -0.76369
   1.76385   0.25472  -0.76369
   1.76385   0.25472  -1.00311
   1.76385   0.25472  -1.24253
   2.00327   0.25472  -1.24253
   2.24269   0.25472  -1.48195
   2.24269   0.25472  -1.48195
   2.24269   0.49414  -1.48195
   2.24269   0.49414  -1.48195
   2.24269   0.49414  -1.24253
   2.24269   0.49414  -1.24253
   2.72153   0.25472  -1.24253
   2.24269   0.49414  -1.00311
   1.76385   0.73356  -1.00311
   2.00327   0.73356  -0.76369
   2.24269   0.49414  -0.52427
   2.24269   0.25472  -0.28485
   1.76385   0.49414  -0.04542
   1.28501   0.73356   0.19400
   1.04559   0.73356   0.43342
   1.04559   0.49414   0.67284
   1.28501   0.49414   0.67284
   1.28501   0.49414   0.91226
   0.80617   0.25472   1.15168
   0.32733   0.49414   1.15168
   0.56675   0.25472   1.39110
   0.56675   0.01529   1.39110
   0.08791   0.01529   1.63052
   0.32733   0.01529   1.39110
   0.32733  -0.22413   1.39110
  -0.39093   0.01529   1.39110
  -0.63035   0.25472   1.63052
  -0.15151   0.01529   1.39110
  -0.39093  -0.22413   1.39110
  -0.63035  -0.22413   1.39110
  -0.63035   0.01529   1.39110
  -0.63035   0.01529   1.39110
  -0.86977   0.01529   1.39110
  -1.10919   0.25472   1.63052
  -0.86977   0.01529   1.63052
  -1.10919   0.01529   1.63052
  -1.10919   0.01529   1.63052
  -1.34861   0.01529   1.63052
  -1.58803   0.01529   1.63052
  -1.58803  -0.22413   1.63052
  -1.82745  -0.22413   1.63052
  -1.82745  -0.22413   1.39110
  -1.82745  -0.22413   1.39110
  -2.06687  -0.46355   1.15168
  -2.30629  -0.22413   1.15168
  -2.30629  -0.22413   1.15168
  -2.30629  -0.46355   0.91226
  -2.30629  -0.46355   0.91226
  -2.06687  -0.46355   0.91226
  -2.06687  -0.46355   0.67284
  -2.06687  -0.46355   0.91226
  -2.06687  -0.22413   0.91226
  -2.06687  -0.46355   0.91226
  -1.82745  -0.22413   0.91226
  -1.34861  -0.22413   0.67284
  -1.10919  -0.46355   0.67284
  -1.34861  -0.22413   0.67284
  -1.10919   0.01529   0.67284
  -0.63035   0.01529   0.43342
  -0.39093   0.01529   0.19400
  -0.15151   0.01529   0.19400
   0.32733   0.01529  -0.04542
   0.32733   0.01529  -0.28485
   0.08791   0.01529  -0.52427
   0.32733   0.25472  -0.76369
   0.56675   0.25472  -1.00311
   0.80617   0.01529  -1.24253
   0.80617   0.01529  -1.24253
   0.56675   0.25472  -1.24253
   0.80617   0.25472  -1.24253
   1.04559   0.01529  -1.48195
   1.04559   0.01529  -1.24253
   1.28501   0.01529  -1.48195
   1.28501  -0.22413  -1.24253
   1.28501   0.01529  -1.00311
   1.04559   0.01529  -0.76369
   1.04559   0.01529  -0.76369
   1.28501   0.01529  -0.52427
   1.28501   0.01529  -0.28485
   1.28501   0.25472  -0.04542
   1.28501   0.01529   0.19400
   1.04559   0.01529   0.19400
   1.04559   0.01529   0.19400
   1.04559   0.01529   0.43342
   1.28501   0.01529   0.67284
   1.28501   0.01529   0.67284
   1.04559   0.25472   0.67284
   1.04559   0.25472   0.67284
   1.04559   0.49414   0.67284
   1.04559   0.49414   0.91226
   1.04559   0.25472   0.91226
   1.28501   0.49414   0.91226
   1.28501   0.25472   0.91226
   1.28501   0.25472   1.15168
   1.28501   0.25472   0.91226
   0.80617   0.25472   1.15168
   0.80617   0.49414   1.15168
   1.28501   0.01529   1.39110
   1.52443  -0.22413   1.15168
   1.28501   0.01529   1.39110
   1.04559   0.01529   1.39110
   1.04559   0.01529   1.39110
   1.04559   0.01529   1.39110
   1.28501   0.01529   1.39110
   1.52443  -0.22413   1.39110
   1.04559   0.01529   1.39110
   0.80617   0.01529   1.63052
   0.80617   0.01529   1.39110
   0.80617   0.01529   1.15168
   0.56675   0.25472   1.15168
   0.80617   0.01529   1.15168
   0.80617  -0.22413   0.91226
   0.32733   0.01529   0.91226
   0.08791   0.25472   0.91226
   0.32733  -0.22413   0.91226
   0.56675  -0.46355   0.67284
  -0.15151  -0.46355   0.91226
  -0.15151  -0.22413   0.91226
  -0.39093  -0.22413   0.91226
  -0.63035  -0.22413   0.91226
  -0.86977  -0.22413   1.15168
  -0.63035  -0.46355   0.91226
  -0.86977  -0.46355   0.91226
  -1.10919  -0.22413   1.15168
  -1.34861  -0.22413   0.91226
  -1.34861   0.01529   0.91226
  -1.58803   0.25472   0.67284
  -1.58803   0.25472   0.67284
  -1.58803   0.25472   0.43342
  -1.58803   0.25472   0.19400
  -1.58803   0.49414   0.19400
  -1.58803   0.25472  -0.28485
  -1.82745   0.25472  -0.52427
  -2.06687   0.49414  -0.52427
  -1.58803   0.25472  -0.76369
  -1.34861   0.01529  -1.00311
  -1.58803   0.25472  -1.24253
  -1.82745   0.25472  -1.24253
  -1.82745   0.01529  -1.24253
  -1.34861   0.01529  -1.24253
  -1.34861  -0.22413  -1.48195
  -1.34861  -0.46355  -1.48195
  -1.58803  -0.22413  -1.48195
  -1.82745  -0.22413  -1.48195
  -1.58803  -0.22413  -1.48195
  -1.34861  -0.46355  -1.48195
  -1.10919  -0.46355  -1.48195
  -1.10919  -0.22413  -1.48195
  -1.34861  -0.22413  -1.24253
  -1.34861   0.01529  -1.24253
  -0.86977  -0.22413  -1.24253
  -0.86977   0.01529  -1.24253
  -0.63035   0.01529  -1.24253
  -0.63035   0.01529  -1.24253
  -0.39093   0.01529  -1.24253
