********************************************************************************
              CENTRO DE INSTRUMENTACION Y REGISTRO SISMICO  A.C.

    Anaxagoras 814, Col. Narvarte, Benito Juarez, C.P. 03020 Mexico, D.F.
           Tels. 5687 45 42/ 5687 45  82             Fax. 5669 25 12
********************************************************************************
ARCHIVO ESTANDAR DE ACELERACION:
VERSION DEL FORMATO                    : 2.0
NOMBRE DEL ARCHIVO                     : AE0220120320180250
FECHA Y HORA DE CREACION               : 04/ABR/12, 11:14
REF. CATALOGO ACELEROGRAMAS, SMIS 1996 : REGISTRO No.     /PAG.


================================================================================
DATOS DE LA ESTACION:
NOMBRE DE LA ESTACION                  : ESC. PRIM. "GONZÁLEZ GARZÓN"
CLAVE DE LA ESTACION                   : AE02
LOCALIZACION DE LA ESTACION            : Del. Venustiano Carranza,              
                                       : Col. El Arenal 4a. Sección,            
                                       : Calle Xico esq. con calle Xocoyote.    
                                       :                                        
                                       : 
COORDENADAS DE LA ESTACION             : 19.4290 LAT. N
                                       : 99.0584 LONG. W
ALTITUD (msnm)                         : 2232
TIPO DE SUELO                          : Arcilloso, zona lago                
                                       :                           
                                       : 
INSTITUCION RESPONSABLE                : CIRES
                                       : 

================================================================================
DATOS DEL ACELEROGRAFO:
MODELO DEL ACELEROGRAFO                : RADESD
NUMERO DE SERIE DEL ACELEROGRAFO       : 242
NUMERO DE CANALES                      : 3
ORIENTACION C1-C6 (rumbo;orientacion)  : /N00E/+V/N90W
ORIENTACION C7-C12 (rumbo;orientacion) : 
VEL. DE MUESTREO, C1-C6 (muestras/s)   : /100/100/100
VEL. DE MUESTREO, C7-C12 (muestras/s)  : 
ESC. COMPLETA DE SENSORES, C1-C6, (g)  : /0.5/0.5/0.5
ESC. COMPLETA DE SENSORES, C7-C12, (g) : 
FREC. NAT. DE SENSORES, C1-C6, (Hz)    : /30/30/30
FREC. NAT. DE SENSORES, C7-C12, (Hz)   : 
AMORTIGUAMIENTO DE SENSORES, C1-C6     : /0.733/0.750/0.700
AMORTIGUAMIENTO DE SENSORES, C7-C12    : 
INTERVALO DE MUESTREO, C1-C6, (s)      : /0.01/0.01/0.01
INTERVALO DE MUESTREO, C7-C12, (s)     : 
UMBRAL DE DISPARO, C1-C6, (Gal)        : /1.92/9.58/2.63
UMBRAL DE DISPARO, C7-C12, (Gal)       : 
MEMORIA DE PREEVENTO (s)               : 56.0
TIEMPO DE POSEVENTO (s)                : 64.0


================================================================================
DATOS DEL SISMO:
FECHA DEL SISMO (GMT)                  : 20/MAR/12
HORA EPICENTRO (GMT)                   : 18:02:50.0
MAGNITUD(ES)                           : /Mc=7.4
COORDENADAS DEL EPICENTRO              : 16.42 LAT. N
                                       : 98.36 LONG. W
PROFUNDIDAD FOCAL (km)                 : 15
FUENTE DE LOS DATOS EPICENTRALES       : SSN
                                       : INSTITUTO DE GEOFISICA, UNAM

================================================================================
DATOS DE ESTE REGISTRO:
HORA DE LA PRIMERA MUESTRA (GMT)       : 18:04:02.00
EXACTITUD DEL TIEMPO (s)               : 0.01
DURACION DEL REGISTRO (s), C1-C6       : /558.5/558.5/558.5
DURACION DEL REGISTRO (s), C7-C12      : 
NUM. TOTAL DE MUESTRAS, C1-C6          : /55850/55850/55850
NUM. TOTAL DE MUESTRAS, C7-C12         : 
ACEL. MAX. (Gal), C1-C6                : /41.86803/12.67815/51.41971
ACEL. MAX., C1-C6, EN LA MUESTRA       : /9926/9261/10137
ACEL. MAX. (Gal), C7-C12               : 
ACEL. MAX., C7-C12, EN LA MUESTRA      : 
UNIDADES DE LOS DATOS                  : Gal (cm/s/s)
FACTOR DE DECIMACION                   : 1
FORMATO DATOS (FORTRAN,10 campos/dato) : 3F10.5


================================================================================
CALIDAD DEL ACELEROGRAMA:
REGISTRO DIGITAL COMPLETO CON TIEMPO ABSOLUTO CORRECTO.


================================================================================
COMENTARIOS:














================================================================================
DATOS DE ACELERACION:
---------+---------+---------+---------+---------+---------+---------+---------+
   CANAL-1   CANAL-2   CANAL-3   CANAL-4   CANAL-5   CANAL-6   CANAL-7   CANAL-8
      N00E        +V      N90W
---------+---------+---------+---------+---------+---------+---------+---------+
[...]
   0.50934  -4.05902 -14.89968
   0.74876  -3.81960 -14.18142
   1.22760  -3.58018 -12.98432
   1.70644  -3.34076 -12.02664
   2.42470  -2.86192 -10.59012
   3.14296  -2.38308  -9.39302
   3.86122  -1.90424  -7.95650
   4.81890  -1.42540  -6.51997
   5.77658  -0.70714  -4.84403
   6.73427   0.01112  -3.40751
   7.45253   0.48996  -1.73157
   8.41021   1.20822   0.18379
   8.88905   1.44764   1.85973
   9.36789   1.92648   3.53567
  10.08615   2.16590   4.97219
  10.56499   2.64474   6.64813
  10.80441   2.64474   8.08466
  10.80441   2.64474   9.28176
  10.80441   2.64474  10.47886
  10.56499   2.40532  11.67596
  10.08615   2.40532  12.63364
   9.60731   1.92648  13.59132
   8.88905   1.68706  14.54900
   7.69195   1.68706  15.74610
   6.97369   1.44764  16.46436
   5.77658   1.20822  17.18262
   4.57948   0.96880  17.90088
   3.38238   0.72938  18.61914
   2.42470   0.25054  19.57682
   1.22760  -0.22830  20.53450
   0.26992  -0.46772  21.73160
  -0.20892  -0.94656  22.44987
  -0.68776  -1.42540  23.40755
  -0.92718  -1.66482  24.36523
  -0.92718  -1.90424  25.08349
  -0.92718  -1.90424  26.04117
  -0.92718  -1.90424  26.52001
  -0.68776  -1.90424  26.75943
  -0.44834  -1.90424  26.99885
   0.03050  -1.66482  27.23827
   0.50934  -1.66482  27.71711
   0.98818  -1.90424  27.71711
   1.22760  -1.90424  27.71711
   1.22760  -2.14366  27.47769
   1.22760  -2.38308  26.75943
   1.70644  -2.38308  26.52001
   1.94586  -2.62250  26.28059
   2.42470  -2.86192  26.28059
   2.90354  -3.10134  26.04117
   3.38238  -3.10134  25.80175
   3.86122  -3.34076  25.56233
   4.57948  -3.34076  25.32291
   5.05832  -3.34076  25.08349
   5.53716  -3.58018  25.08349
   5.77658  -3.58018  24.60465
   6.01601  -3.58018  24.36523
   6.25543  -3.58018  24.12581
   6.49485  -3.34076  23.64697
   6.73427  -3.34076  23.16813
   6.73427  -3.34076  22.44987
   6.49485  -3.10134  21.73160
   6.25543  -3.10134  20.77392
   6.01601  -3.10134  19.57682
   5.29774  -3.10134  18.61914
   4.81890  -3.10134  17.66146
   4.34006  -3.10134  16.46436
   3.62180  -3.10134  15.50668
   3.14296  -2.86192  14.54900
   2.90354  -2.62250  13.59132
   2.66412  -2.62250  12.63364
   2.66412  -2.38308  11.67596
   2.90354  -2.38308  10.95770
   3.14296  -2.14366  10.00002
   3.38238  -2.38308   9.04234
   3.86122  -2.14366   8.32408
   4.57948  -1.90424   7.60581
   5.53716  -1.66482   6.64813
   6.73427  -1.42540   5.92987
   7.69195  -1.18598   4.97219
   8.88905  -1.18598   4.25393
   9.84673  -0.94656   3.29625
  10.80441  -0.70714   2.33857
  12.00151  -0.70714   1.14147
  13.19861  -0.70714   0.18379
  13.91687  -0.70714  -1.01331
  14.87455  -0.94656  -1.73157
  15.59281  -0.94656  -2.68925
  16.07165  -1.18598  -3.40751
  16.55049  -1.18598  -3.88635
  16.78991  -1.18598  -4.60461
  17.26875  -0.94656  -5.32287
  17.50817  -0.94656  -5.80171
  17.50817  -0.46772  -6.28055
  17.98701  -0.22830  -6.75940
  17.74759   0.01112  -7.23824
  18.22643   0.48996  -7.95650
  18.22643   0.72938  -8.67476
  17.98701   1.20822  -9.39302
  18.22643   1.44764 -10.11128
  18.22643   1.68706 -10.59012
  17.98701   1.68706 -11.30838
  17.74759   1.68706 -11.78722
  17.74759   1.68706 -12.26606
  17.50817   1.44764 -12.74490
  16.78991   1.44764 -12.98432
  15.83223   1.20822 -12.98432
  15.11397   1.20822 -12.74490
  13.67745   1.20822 -12.50548
  12.00151   1.44764 -12.26606
  10.08615   1.68706 -12.26606
   8.17079   1.92648 -11.78722
   5.77658   2.16590 -11.30838
   3.38238   2.64474 -10.82954
   0.98818   3.12358 -10.35070
  -1.40602   3.60242  -9.87186
  -3.80022   4.32068  -9.39302
  -6.67326   4.56010  -9.15360
  -9.30689   5.03894  -9.87186
 -11.70109   5.51778 -11.06896
 -14.09529   5.51778 -11.54780
 -16.48949   5.51778 -11.78722
 -19.12311   5.27836 -12.02664
 -21.27789   5.03894 -12.50548
 -23.91152   4.79952 -12.74490
 -26.06630   4.79952 -13.22374
 -28.22108   4.79952 -13.22374
 -30.37586   4.56010 -12.74490
 -32.53064   4.56010 -12.50548
 -34.44600   4.08126 -12.26606
 -36.12194   3.84184 -11.78722
 -37.79789   3.60242 -11.06896
 -38.99499   3.36300 -10.11128
 -40.19209   3.12358  -9.39302
 -41.14977   2.88416  -8.91418
 -41.38919   2.64474  -8.67476
 -41.62861   2.16590  -8.43534
 -41.86803   1.92648  -7.95650
 -41.86803   1.68706  -7.47766
 -41.86803   1.44764  -6.99882
 -41.62861   0.96880  -6.75940
 -41.38919   0.72938  -6.51997
 -40.91035   0.48996  -6.28055
 -39.95267   0.25054  -5.80171
 -38.75557   0.01112  -5.56229
 -37.55847  -0.22830  -5.08345
 -36.12194  -0.22830  -5.08345
 -34.20658  -0.22830  -5.08345
 -32.29122  -0.22830  -5.32287
 -30.61528   0.01112  -5.80171
 -28.46050   0.01112  -6.28055
 -26.06630   0.25054  -7.23824
 -23.67210   0.25054  -7.95650
 -21.27789   0.48996  -8.67476
 -19.36253   0.72938  -9.63244
 -17.44717   0.96880 -10.35070
 -14.81355   0.96880 -11.30838
 -12.41935   0.72938 -12.02664
 -10.50399   0.48996 -12.50548
  -8.34920   0.25054 -13.22374
  -6.43384   0.01112 -13.70258
  -4.51848  -0.22830 -13.94200
  -2.36370  -0.70714 -14.42084
  -0.20892  -0.70714 -14.66026
   1.94586  -0.94656 -14.89968
   3.86122  -0.94656 -14.89968
   6.01601  -0.70714 -15.13910
   8.17079  -0.94656 -15.37852
  10.32557  -0.94656 -15.37852
  12.48035  -1.18598 -15.37852
  14.15629  -1.42540 -15.61794
  16.07165  -1.66482 -16.09678
  17.50817  -1.90424 -17.05446
  18.70527  -2.38308 -18.25156
  20.62064  -2.86192 -19.20924
  22.77542  -3.34076 -20.40634
  24.69078  -3.34076 -22.08229
  26.36672  -3.34076 -23.51881
  28.04266  -3.81960 -24.47649
  29.23976  -3.81960 -25.19475
  30.43686  -3.58018 -26.63127
  31.15512  -3.58018 -28.30721
  31.63396  -3.81960 -29.26489
  31.87338  -3.58018 -30.46199
  32.11280  -2.86192 -32.13793
  32.59164  -2.62250 -33.57445
  32.59164  -2.62250 -34.05329
  33.30990  -2.62250 -35.01097
  33.78874  -2.86192 -35.72924
  34.02816  -2.86192 -36.92634
  34.02816  -2.86192 -37.88402
  34.02816  -2.62250 -38.84170
  33.54932  -2.62250 -39.32054
  33.07048  -2.62250 -39.55996
  32.35222  -2.62250 -40.27822
  31.39454  -2.38308 -40.51764
  30.91570  -2.38308 -40.75706
  30.43686  -2.62250 -40.75706
  29.23976  -2.86192 -40.51764
  28.28208  -3.10134 -40.03880
  27.08498  -3.34076 -39.55996
  25.88788  -3.34076 -38.84170
  24.69078  -3.81960 -38.36286
  23.01484  -4.05902 -37.64460
  21.09948  -4.29844 -36.92634
  19.42353  -4.53786 -35.96866
  17.98701  -5.01670 -34.29271
  16.07165  -5.25612 -32.61677
  14.15629  -5.25612 -31.18025
  12.24093  -5.25612 -29.98315
  10.32557  -5.01670 -29.02547
   9.12847  -5.01670 -27.82837
   7.69195  -4.77728 -26.87069
   6.25543  -4.53786 -26.15243
   4.81890  -4.29844 -25.43417
   3.62180  -3.81960 -24.71591
   2.90354  -3.58018 -23.75823
   1.94586  -3.34076 -23.03997
   0.98818  -3.10134 -22.08229
   0.03050  -2.86192 -21.36403
  -0.68776  -2.86192 -20.40634
  -1.40602  -2.86192 -19.44866
  -2.12428  -2.86192 -18.49098
  -3.32138  -2.62250 -17.29388
  -4.27906  -2.62250 -16.09678
  -4.75790  -2.62250 -14.18142
  -5.23674  -2.38308 -12.74490
  -5.95500  -2.38308 -11.54780
  -6.91268  -2.14366  -9.87186
  -7.87036  -1.66482  -8.19592
  -8.34920  -1.18598  -6.28055
  -8.82805  -0.46772  -4.12577
  -9.30689   0.01112  -1.97099
  -9.78573   0.48996   0.18379
 -10.50399   0.96880   1.85973
 -11.46167   1.68706   3.77509
 -11.46167   2.16590   5.92987
 -11.22225   2.40532   8.08466
 -11.70109   2.64474  10.23944
 -11.94051   3.36300  12.39422
 -11.70109   3.60242  14.54900
 -11.46167   4.08126  16.70378
 -10.98283   4.32068  18.85856
 -10.50399   4.56010  20.77392
  -9.78573   4.56010  22.92871
  -8.82805   4.56010  24.36523
  -7.87036   4.79952  25.80175
  -7.15210   5.03894  26.99885
  -5.95500   5.27836  28.43537
  -4.75790   5.51778  29.39305
  -3.56080   5.99662  30.35073
  -2.36370   6.23604  31.06899
  -1.40602   6.23604  32.26609
  -0.68776   6.47546  33.22377
   0.03050   6.95430  34.18145
   1.46702   7.19373  34.89971
   2.66412   7.43315  35.13913
   3.86122   7.67257  35.13913
   4.81890   8.15141  34.89971
   6.01601   8.39083  34.66029
   6.97369   8.63025  34.42087
   7.93137   8.63025  33.70261
   9.12847   8.39083  32.98435
  10.32557   7.91199  32.26609
  11.04383   7.67257  31.54783
  11.28325   7.43315  30.59015
  11.52267   6.95430  29.39305
  11.76209   6.47546  27.95653
  12.24093   6.23604  26.99885
  12.48035   5.75720  25.80175
  12.95919   5.27836  24.84407
  13.19861   4.79952  23.64697
  13.43803   4.56010  22.21045
  13.43803   4.08126  20.77392
  13.43803   3.60242  19.09798
  13.67745   3.12358  17.18262
  13.91687   2.64474  15.02784
  14.15629   2.16590  12.87306
  14.39571   1.44764  10.71828
  14.63513   0.48996   8.80292
  14.87455  -0.46772   6.40871
  14.87455  -1.18598   3.77509
  14.39571  -1.90424   1.14147
  13.91687  -2.38308  -1.01331
  13.19861  -2.62250  -3.16809
  12.48035  -3.10134  -5.32287
  11.52267  -3.58018  -7.23824
  10.80441  -4.05902  -9.15360
   9.84673  -5.01670 -11.06896
   8.64963  -5.73496 -12.98432
   7.45253  -6.45322 -14.66026
   6.25543  -6.93206 -16.09678
   5.05832  -7.88975 -16.57562
   3.86122  -8.36859 -17.53330
   2.42470  -9.08685 -18.25156
   1.22760  -9.32627 -18.96982
   0.26992  -9.56569 -19.68808
  -0.44834  -9.80511 -20.16692
  -1.88486 -10.04453 -20.16692
  -3.32138  -9.80511 -19.92750
  -4.51848  -9.56569 -19.68808
  -6.19442  -9.32627 -19.20924
  -7.63094  -8.84743 -18.96982
  -9.06747  -8.84743 -18.73040
 -10.74341  -8.60801 -18.01214
 -12.65877  -8.36859 -17.53330
 -14.81355  -8.36859 -16.57562
 -16.72891  -8.36859 -15.61794
 -18.88369  -8.36859 -14.42084
 -21.03847  -8.36859 -13.46316
 -23.19326  -8.12917 -12.50548
 -25.34804  -7.65033 -11.30838
 -27.26340  -7.41091  -9.87186
 -28.69992  -6.93206  -8.67476
 -30.37586  -6.45322  -7.47766
 -31.81238  -6.21380  -6.04113
 -33.48832  -5.73496  -4.84403
 -34.68542  -5.25612  -3.40751
 -35.88252  -4.77728  -1.73157
 -36.84020  -4.53786  -0.05563
 -37.55847  -4.29844   1.62031
 -38.27673  -4.05902   3.53567
 -38.99499  -4.05902   5.69045
 -39.71325  -3.81960   7.60581
 -40.43151  -3.81960   9.76060
 -40.43151  -3.81960  11.67596
 -40.43151  -3.58018  13.59132
 -40.19209  -3.58018  15.74610
 -39.95267  -3.34076  17.66146
 -39.71325  -2.86192  19.81624
 -39.23441  -2.14366  21.97102
 -38.51615  -1.90424  24.60465
 -37.55847  -1.18598  26.99885
 -36.60078  -0.46772  29.15363
 -35.64310   0.25054  31.54783
 -33.96716   0.96880  33.94203
 -32.29122   1.92648  35.37855
 -30.85470   2.88416  36.33623
 -29.41818   3.60242  37.77276
 -27.98166   4.56010  39.20928
 -26.54514   5.27836  40.88522
 -24.86920   5.99662  42.32174
 -23.43268   6.71488  44.23710
 -21.75673   7.43315  45.91304
 -20.08079   8.15141  47.34956
 -18.40485   8.86967  48.30724
 -16.96833   9.34851  49.74376
 -14.81355   9.82735  50.94087
 -13.37703   9.82735  51.41971
 -11.94051  10.06677  50.94087
 -10.50399  10.30619  50.22260
  -8.82805  10.30619  49.50434
  -7.15210  10.30619  48.78608
  -5.47616  10.06677  47.82840
  -4.03964   9.82735  47.11014
  -2.84254   9.82735  45.67362
  -1.40602   9.34851  44.47652
   0.03050   9.10909  43.51884
   1.22760   8.86967  42.80058
   2.18528   8.86967  41.36406
   3.14296   8.63025  39.44870
   3.86122   8.39083  37.77276
   4.81890   8.15141  35.85739
   5.77658   7.67257  34.42087
   6.49485   7.43315  32.98435
   6.73427   6.95430  31.30841
   7.21311   6.71488  29.87189
   7.45253   6.71488  27.95653
   7.45253   6.71488  26.52001
   7.69195   6.71488  24.84407
   7.93137   6.71488  23.16813
   8.17079   6.47546  21.73160
   8.17079   6.23604  20.29508
   7.69195   5.99662  19.09798
   7.45253   5.51778  17.42204
   6.73427   5.03894  15.74610
   6.01601   4.56010  14.07016
   5.05832   3.84184  12.15480
   4.34006   3.12358  10.23944
   3.38238   2.40532   8.32408
   2.42470   1.68706   6.40871
   1.70644   0.96880   4.73277
   1.22760   0.25054   3.05683
   0.74876  -0.70714   1.62031
   0.50934  -1.18598   0.18379
   0.26992  -1.90424  -0.77389
   0.26992  -2.62250  -1.73157
  -0.20892  -3.10134  -2.92867
  -0.92718  -3.58018  -4.12577
  -1.40602  -4.05902  -5.56229
  -1.88486  -4.53786  -6.99882
  -2.36370  -5.01670  -8.19592
  -2.84254  -5.73496  -9.39302
  -3.32138  -6.45322 -10.82954
  -4.27906  -6.93206 -12.26606
  -5.47616  -7.17148 -13.70258
  -6.19442  -7.41091 -15.13910
  -7.39152  -7.88975 -16.09678
  -8.34920  -8.12917 -17.29388
  -9.54631  -8.36859 -18.49098
 -10.74341  -8.36859 -19.44866
 -12.17993  -8.60801 -19.92750
 -13.13761  -8.60801 -20.40634
 -14.09529  -8.36859 -20.88518
 -14.57413  -8.60801 -21.12460
 -14.81355  -8.36859 -20.88518
 -15.05297  -7.88975 -20.40634
 -15.29239  -7.88975 -19.92750
 -15.53181  -7.41091 -19.20924
 -15.53181  -7.17148 -18.25156
 -15.29239  -6.69264 -17.05446
 -15.29239  -6.45322 -15.61794
 -15.29239  -6.45322 -14.42084
 -15.29239  -6.21380 -12.98432
 -15.29239  -5.97438 -11.78722
 -15.53181  -5.73496 -11.06896
 -15.53181  -5.49554  -9.87186
 -15.29239  -5.49554  -8.67476
 -15.29239  -5.25612  -7.47766
 -15.29239  -5.01670  -6.28055
 -15.29239  -4.77728  -5.08345
 -14.81355  -4.77728  -4.12577
 -14.33471  -4.77728  -3.40751
 -13.61645  -4.53786  -2.68925
 -12.65877  -4.77728  -2.44983
 -12.17993  -4.53786  -1.97099
 -11.46167  -4.29844  -1.97099
 -10.74341  -4.29844  -1.49215
  -9.78573  -4.29844  -1.49215
  -9.06747  -4.05902  -1.73157
  -8.10978  -3.81960  -1.97099
  -7.39152  -3.58018  -2.21041
  -6.91268  -3.34076  -2.68925
  -6.43384  -3.10134  -3.16809
  -6.19442  -2.86192  -3.40751
  -5.95500  -2.62250  -3.64693
  -5.47616  -2.14366  -4.12577
  -5.23674  -1.66482  -4.12577
  -4.99732  -1.18598  -4.36519
  -4.99732  -0.70714  -4.60461
  -4.75790   0.01112  -4.84403
  -4.51848   0.48996  -4.84403
  -4.27906   0.96880  -5.08345
  -4.03964   1.44764  -5.08345
  -3.56080   1.92648  -5.32287
  -3.08196   2.16590  -5.56229
  -2.84254   2.64474  -6.04113
  -2.84254   2.88416  -6.51997
  -2.60312   3.12358  -6.75940
  -2.60312   3.60242  -6.99882
  -2.60312   4.08126  -7.23824
  -2.36370   4.56010  -7.71708
  -2.36370   4.79952  -7.71708
  -2.12428   5.27836  -7.95650
  -1.88486   5.75720  -8.19592
  -1.64544   6.23604  -8.19592
  -1.40602   6.71488  -8.19592
  -1.16660   7.19373  -8.19592
  -0.68776   7.43315  -8.19592
  -0.20892   7.91199  -7.95650
   0.26992   8.39083  -7.95650
   0.98818   8.63025  -7.95650
   2.18528   8.86967  -7.95650
   3.38238   9.10909  -7.95650
   4.34006   9.10909  -8.19592
   5.53716   8.86967  -8.43534
   6.73427   9.10909  -8.91418
   7.69195   8.86967  -9.15360
   8.88905   8.86967  -9.39302
   9.84673   8.63025  -9.63244
  10.80441   8.39083  -9.87186
  11.76209   8.15141 -10.11128
  12.95919   7.67257 -10.35070
  13.91687   7.43315 -10.35070
  14.87455   7.19373 -10.59012
  15.83223   6.71488 -10.35070
  17.02933   6.71488 -10.35070
  18.22643   6.47546 -10.35070
  19.42353   6.23604 -10.35070
  20.62064   6.23604 -10.59012
  21.57832   5.99662 -10.35070
  22.77542   5.99662 -10.59012
  23.49368   6.23604 -10.59012
  24.21194   6.23604 -11.06896
  24.93020   6.23604 -11.30838
  25.64846   6.47546 -11.78722
  26.36672   6.47546 -12.26606
  26.84556   6.23604 -12.74490
  27.32440   6.23604 -13.22374
  27.56382   6.23604 -13.70258
  27.80324   6.47546 -13.70258
  28.52150   6.47546 -13.94200
  29.23976   6.47546 -14.42084
  29.95802   6.47546 -14.66026
  30.43686   6.47546 -14.66026
  30.91570   6.47546 -14.18142
  31.15512   6.47546 -13.70258
