********************************************************************************
               CENTRO DE INSTRUMENTACION Y REGISTRO SISMICO  A.C.  
                       Coordinacion de Servicios Tecnicos
     Anaxagoras 814, Col. Narvarte, Benito Juarez, C.P. 03020 Mexico, D.F.
            Tels. 687 45 42/ 687 45  82             Fax. 669 25 12
********************************************************************************
ARCHIVO ESTANDAR DE ACELERACION:
VERSION DEL FORMATO                    : 2.0
NOMBRE DEL ARCHIVO                     : AE020101.131
FECHA Y HORA DE CREACION               : 02/JUL/04, 13:30
REF. CATALOGO ACELEROGRAMAS, SMIS 1996 : REGISTRO No.     /PAG.


================================================================================
DATOS DE LA ESTACION:
NOMBRE DE LA ESTACION                  : AEROPUERTO
CLAVE DE LA ESTACION                   : AE02
LOCALIZACION DE LA ESTACION            : Esc Prim Gonzalez Garzon Calle Xico
                                       : s/n, Col. IV Seccion del Arenal
                                       : Venustiano Carranza
                                       :
                                       :
COORDENADAS DE LA ESTACION             : 19.429 LAT. N 
                                       : 99.058 LONG. W 
ALTITUD (msnm)                         : 2232
TIPO DE SUELO                          : ARCILLOSO, ZONA LAGO
                                       : 
                                       : 
INSTITUCION RESPONSABLE                : CIRES
                                       :

================================================================================
DATOS DEL ACELEROGRAFO:
MODELO DEL ACELEROGRAFO                : RAD-851
NUMERO DE SERIE DEL ACELEROGRAFO       : 242
NUMERO DE CANALES                      : 3
ORIENTACION C1-C6 (rumbo;orientacion)  : /N00E/+V/N90W
ORIENTACION C7-C12 (rumbo;orientacion) :
VEL. DE MUESTREO, C1-C6 (muestras/s)   : /100/100/100
VEL. DE MUESTREO, C7-C12 (muestras/s)  :
ESC. COMPLETA DE SENSORES, C1-C6, (g)  : /0.5/0.5/0.5
ESC. COMPLETA DE SENSORES, C7-C12, (g) :
FREC. NAT. DE SENSORES, C1-C6, (Hz)    : /30/30/30
FREC. NAT. DE SENSORES, C7-C12, (Hz)   :
AMORTIGUAMIENTO DE SENSORES, C1-C6     : /0.733/0.750/0.700
AMORTIGUAMIENTO DE SENSORES, C7-C12    :
INTERVALO DE MUESTREO, C1-C6, (s)      : /0.01/0.01/0.01
INTERVALO DE MUESTREO, C7-C12, (s)     :
UMBRAL DE DISPARO, C1-C6, (Gal)        : /1.99/3.91/1.99
UMBRAL DE DISPARO, C7-C12, (Gal)       :
MEMORIA DE PREEVENTO (s)               : 24
TIEMPO DE POSEVENTO (s)                : 64


================================================================================
DATOS DEL SISMO:
FECHA DEL SISMO (GMT)                  : 13/ENE/01
HORA EPICENTRO (GMT)                   : 17:33:46:0
MAGNITUD(ES)                           : /Mc=7.6
COORDENADAS DEL EPICENTRO              : 13.15 LAT. N
                                       : 89.94 LONG. W
PROFUNDIDAD FOCAL (km)                 : 10.0
FUENTE DE LOS DATOS EPICENTRALES       : SSN
                                       : INSTITUTO DE GEOFISICA, UNAM

================================================================================
DATOS DE ESTE REGISTRO:
HORA DE LA PRIMERA MUESTRA (GMT)       : 17:39:56.00
EXACTITUD DEL TIEMPO (s)               : 0.01
DURACION DEL REGISTRO (s), C1-C6       : /123.75/123.75/123.75
DURACION DEL REGISTRO (s), C7-C12      :
NUM. TOTAL DE MUESTRAS, C1-C6          : /12375/12375/12375
NUM. TOTAL DE MUESTRAS, C7-C12         :
ACEL. MAX. (Gal), C1-C6                : /4.05495/-0.94976/2.08661
ACEL. MAX., C1-C6, EN LA MUESTRA       :
ACEL. MAX. (Gal), C7-C12               :
ACEL. MAX., C7-C12, EN LA MUESTRA      :
UNIDADES DE LOS DATOS                  : Gal (cm/s/s)
FACTOR DE DECIMACION                   : 1
FORMATO DATOS (FORTRAN,10 campos/dato) : 3F10.5


================================================================================
CALIDAD DEL ACELEROGRAMA:
REGISTRO DIGITAL COMPLETO CON TIEMPO ABSOLUTO CORRECTO.


================================================================================
COMENTARIOS:














================================================================================
DATOS DE ACELERACION:
---------+---------+---------+---------+---------+---------+---------+---------+
   CANAL-1   CANAL-2   CANAL-3   CANAL-4   CANAL-5   CANAL-6   CANAL-7   CANAL-8
      N00E        +V      N90W
---------+---------+---------+---------+---------+---------+---------+---------+
[...]
  -0.73342   0.00791   0.17126
  -0.97284   0.24733  -0.06816
  -0.97284   0.24733  -0.06816
  -0.97284   0.24733   0.17126
  -0.97284   0.24733  -0.06816
  -0.97284   0.24733  -0.06816
  -1.21226   0.24733  -0.06816
  -0.97284   0.24733  -0.30758
  -1.21226   0.24733  -0.06816
  -1.21226   0.24733  -0.06816
  -1.21226   0.24733  -0.30758
  -1.21226   0.24733  -0.30758
  -1.21226   0.24733  -0.30758
  -1.21226   0.24733  -0.30758
  -1.45168   0.24733  -0.06816
  -1.21226   0.24733  -0.30758
  -1.21226   0.24733  -0.30758
  -1.45168   0.24733  -0.30758
  -1.45168   0.24733  -0.30758
  -1.45168   0.00791  -0.30758
  -1.69110   0.48675  -0.30758
  -1.45168   0.24733  -0.30758
  -1.69110   0.24733  -0.54700
  -1.45168   0.48675  -0.30758
  -1.69110   0.24733  -0.30758
  -1.45168   0.48675  -0.54700
  -1.69110   0.24733  -0.30758
  -1.69110   0.24733  -0.54700
  -1.69110   0.48675  -0.54700
  -1.93052   0.48675  -0.54700
  -1.69110   0.24733  -0.54700
  -1.69110   0.24733  -0.54700
  -1.69110   0.24733  -0.54700
  -1.93052   0.24733  -0.54700
  -1.69110   0.24733  -0.78642
  -1.93052   0.24733  -0.78642
  -1.93052   0.48675  -0.78642
  -1.93052   0.24733  -0.78642
  -2.16994   0.24733  -0.78642
  -1.93052   0.24733  -0.78642
  -1.93052   0.24733  -0.78642
  -1.93052   0.24733  -0.78642
  -1.69110   0.24733  -1.02584
  -1.93052   0.24733  -1.02584
  -1.93052   0.00791  -0.78642
  -1.93052   0.00791  -1.02584
  -1.93052   0.00791  -1.02584
  -1.93052   0.00791  -1.02584
  -1.93052   0.00791  -1.02584
  -1.93052   0.00791  -1.02584
  -1.93052   0.00791  -1.26525
  -1.93052   0.00791  -1.02584
  -1.93052   0.00791  -1.26525
  -1.69110   0.00791  -1.02584
  -1.93052  -0.23151  -1.02584
  -1.69110   0.00791  -1.26525
  -1.69110   0.00791  -1.26525
  -1.69110   0.00791  -1.26525
  -1.69110  -0.23151  -1.26525
  -1.69110  -0.23151  -1.26525
  -1.69110  -0.23151  -1.26525
  -1.69110  -0.23151  -1.50467
  -1.45168  -0.23151  -1.26525
  -1.45168  -0.23151  -1.26525
  -1.45168   0.00791  -1.50467
  -1.45168  -0.23151  -1.26525
  -1.21226  -0.23151  -1.50467
  -1.21226  -0.23151  -1.50467
  -1.21226  -0.23151  -1.50467
  -1.21226  -0.23151  -1.50467
  -1.21226  -0.23151  -1.50467
  -1.21226  -0.23151  -1.50467
  -0.97284  -0.23151  -1.50467
  -0.97284  -0.23151  -1.50467
  -0.73342  -0.23151  -1.50467
  -0.73342  -0.47092  -1.50467
  -0.73342  -0.47092  -1.50467
  -0.97284  -0.23151  -1.50467
  -0.73342  -0.47092  -1.50467
  -0.73342  -0.23151  -1.50467
  -0.73342  -0.23151  -1.50467
  -0.73342  -0.47092  -1.26525
  -0.49401  -0.23151  -1.74409
  -0.49401  -0.23151  -1.26525
  -0.49401  -0.23151  -1.50467
  -0.49401  -0.47092  -1.50467
  -0.49401  -0.23151  -1.50467
  -0.25459   0.00791  -1.26525
  -0.49401  -0.23151  -1.26525
  -0.25459   0.00791  -1.50467
  -0.25459  -0.23151  -1.26525
  -0.25459  -0.23151  -1.26525
  -0.01517  -0.23151  -1.26525
  -0.25459   0.00791  -1.26525
  -0.01517  -0.23151  -1.26525
  -0.01517   0.00791  -1.26525
  -0.01517   0.00791  -1.26525
  -0.01517   0.00791  -1.02584
   0.22425   0.00791  -1.26525
   0.22425   0.00791  -1.02584
   0.22425  -0.23151  -1.02584
   0.46367   0.00791  -1.02584
  -0.01517   0.24733  -1.02584
   0.22425   0.24733  -1.02584
   0.46367   0.00791  -1.02584
   0.46367  -0.23151  -0.78642
   0.46367   0.00791  -0.78642
   0.46367   0.00791  -0.78642
   0.70309   0.00791  -0.78642
   0.46367   0.00791  -0.78642
   0.70309   0.00791  -0.54700
   0.46367   0.00791  -0.78642
   0.70309   0.24733  -0.78642
   0.70309   0.24733  -0.54700
   0.70309   0.24733  -0.30758
   0.70309   0.00791  -0.54700
   0.70309   0.24733  -0.54700
   0.70309   0.24733  -0.30758
   0.70309   0.24733  -0.30758
   0.70309   0.24733  -0.30758
   0.94251   0.00791  -0.30758
   0.70309   0.00791  -0.30758
   0.70309   0.24733  -0.06816
   0.94251   0.24733  -0.06816
   0.94251   0.00791  -0.30758
   0.70309   0.24733  -0.06816
   0.70309   0.24733  -0.06816
   0.70309   0.24733  -0.06816
   0.70309   0.24733  -0.06816
   0.94251   0.24733   0.17126
   0.94251   0.24733   0.17126
   0.94251   0.24733  -0.06816
   0.70309   0.24733   0.17126
   0.70309   0.00791   0.17126
   0.94251   0.00791   0.17126
   0.70309   0.00791   0.41068
   0.70309   0.00791   0.17126
   0.94251   0.00791   0.17126
   0.70309   0.00791   0.17126
   0.70309   0.00791   0.41068
   0.70309   0.00791   0.41068
   0.70309   0.24733   0.41068
   0.70309   0.00791   0.41068
   0.70309   0.00791   0.41068
   0.46367   0.00791   0.41068
   0.46367   0.00791   0.41068
   0.70309   0.24733   0.41068
   0.46367   0.00791   0.41068
   0.46367   0.00791   0.41068
   0.22425   0.00791   0.65010
   0.22425   0.00791   0.65010
   0.22425   0.00791   0.65010
   0.22425   0.00791   0.65010
   0.22425   0.00791   0.65010
  -0.01517   0.00791   0.88952
   0.22425   0.24733   0.65010
   0.22425   0.00791   0.65010
  -0.01517   0.00791   0.65010
  -0.01517   0.00791   0.88952
  -0.25459   0.24733   0.88952
  -0.25459   0.24733   0.88952
  -0.25459   0.00791   0.88952
  -0.25459   0.24733   0.88952
  -0.25459   0.00791   0.88952
  -0.25459   0.00791   0.88952
  -0.49401   0.00791   0.88952
  -0.49401   0.00791   0.88952
  -0.49401   0.00791   0.88952
  -0.73342   0.00791   1.12894
  -0.73342   0.00791   0.88952
  -0.73342   0.00791   0.88952
  -0.73342   0.00791   0.88952
  -0.97284   0.00791   1.12894
  -0.97284   0.00791   0.88952
  -1.21226   0.00791   1.12894
  -1.21226  -0.23151   1.12894
  -1.21226   0.00791   1.12894
  -1.21226   0.00791   1.12894
  -1.45168   0.00791   1.12894
  -1.45168   0.00791   1.12894
  -1.69110   0.00791   1.12894
  -1.69110   0.00791   1.12894
  -1.93052  -0.23151   1.12894
  -1.69110   0.00791   1.12894
  -1.93052   0.00791   1.12894
  -1.93052   0.00791   1.12894
  -2.16994   0.00791   1.36835
  -1.93052   0.00791   1.12894
  -2.16994   0.00791   1.12894
  -2.40936   0.00791   1.36835
  -2.40936   0.00791   1.12894
  -2.16994  -0.23151   1.12894
  -2.40936   0.00791   1.12894
  -2.64878   0.00791   1.12894
  -2.64878   0.00791   1.36835
  -2.64878   0.00791   1.36835
  -2.64878  -0.23151   1.36835
  -2.64878  -0.23151   1.12894
  -2.88820   0.00791   1.12894
  -2.88820  -0.23151   1.12894
  -2.88820  -0.23151   1.12894
  -3.12761  -0.23151   1.36835
  -2.88820   0.00791   1.36835
  -2.88820  -0.23151   1.36835
  -3.12761  -0.23151   0.88952
  -3.12761  -0.23151   1.36835
  -3.36703  -0.23151   1.12894
  -3.12761  -0.23151   1.12894
  -3.36703  -0.23151   1.36835
  -3.36703  -0.23151   1.12894
  -3.36703  -0.23151   1.12894
  -3.36703  -0.23151   1.12894
  -3.36703  -0.23151   1.12894
  -3.60645  -0.23151   0.88952
  -3.60645   0.00791   1.12894
  -3.36703   0.00791   0.88952
  -3.36703  -0.23151   1.12894
  -3.60645   0.00791   0.88952
  -3.60645  -0.23151   0.88952
  -3.36703   0.00791   0.88952
  -3.36703  -0.23151   0.88952
  -3.36703   0.00791   1.12894
  -3.36703   0.00791   0.88952
  -3.36703  -0.23151   0.88952
  -3.36703   0.00791   0.65010
  -3.36703  -0.23151   0.65010
  -3.36703  -0.23151   0.65010
  -3.12761  -0.23151   0.65010
  -3.36703  -0.23151   0.65010
  -3.36703  -0.23151   0.65010
  -3.12761  -0.47092   0.65010
  -3.12761  -0.23151   0.41068
  -3.12761  -0.23151   0.65010
  -3.12761  -0.23151   0.41068
  -2.88820  -0.23151   0.41068
  -2.88820  -0.23151   0.41068
  -2.88820  -0.23151   0.41068
  -2.88820  -0.23151   0.65010
  -2.88820  -0.23151   0.41068
  -2.64878  -0.23151   0.41068
  -2.64878  -0.23151   0.41068
  -2.64878  -0.23151   0.41068
  -2.64878   0.00791   0.41068
  -2.40936  -0.23151   0.41068
  -2.40936   0.00791   0.41068
  -2.16994   0.00791   0.17126
  -2.16994  -0.23151   0.41068
  -2.16994   0.00791   0.17126
  -2.16994  -0.23151   0.17126
  -2.16994   0.00791   0.17126
  -1.93052   0.00791   0.17126
  -1.93052  -0.23151   0.17126
  -1.69110   0.00791   0.17126
  -1.69110   0.00791   0.17126
  -1.69110   0.00791  -0.06816
  -1.45168   0.00791  -0.06816
  -1.69110   0.00791  -0.06816
  -1.45168   0.00791  -0.06816
  -1.45168   0.00791  -0.30758
  -1.21226   0.00791  -0.06816
  -1.21226   0.00791  -0.06816
  -0.97284   0.00791  -0.30758
  -0.97284   0.00791  -0.30758
  -0.97284   0.00791  -0.30758
  -0.73342   0.00791  -0.06816
  -0.97284   0.00791  -0.30758
  -0.97284  -0.23151  -0.30758
  -0.73342  -0.23151  -0.30758
  -0.49401   0.00791  -0.30758
  -0.49401   0.00791  -0.54700
  -0.49401  -0.23151  -0.30758
  -0.25459  -0.23151  -0.30758
  -0.49401  -0.23151  -0.54700
  -0.25459  -0.23151  -0.54700
  -0.25459   0.00791  -0.54700
  -0.01517   0.24733  -0.54700
  -0.01517  -0.23151  -0.30758
  -0.01517   0.00791  -0.78642
  -0.01517   0.00791  -0.54700
   0.22425   0.00791  -0.78642
   0.22425   0.00791  -0.54700
   0.22425   0.00791  -0.54700
   0.46367   0.24733  -0.78642
   0.46367   0.00791  -0.78642
   0.46367   0.24733  -0.78642
   0.70309   0.00791  -0.78642
   0.46367   0.00791  -0.78642
   0.70309   0.24733  -0.78642
   0.70309   0.00791  -0.78642
   0.94251   0.00791  -1.02584
   0.70309   0.00791  -0.78642
   0.94251   0.00791  -0.78642
   1.18193   0.00791  -1.02584
   0.94251   0.00791  -1.02584
   1.18193   0.00791  -1.02584
   1.18193   0.00791  -0.78642
   1.18193   0.00791  -1.02584
   1.42135   0.00791  -1.02584
   1.18193   0.00791  -1.02584
   1.42135   0.00791  -1.02584
   1.42135   0.00791  -1.02584
   1.42135   0.00791  -1.02584
   1.66076   0.00791  -1.02584
   1.66076   0.00791  -1.02584
   1.66076   0.00791  -1.02584
   1.90018   0.00791  -1.26525
   1.90018   0.00791  -1.26525
   1.90018   0.00791  -1.26525
   1.90018   0.00791  -1.26525
   1.90018  -0.23151  -1.26525
   1.90018   0.00791  -1.26525
   2.13960   0.00791  -1.26525
   2.13960   0.00791  -1.26525
   2.37902   0.00791  -1.26525
   2.13960   0.00791  -1.26525
   2.37902   0.24733  -1.50467
   2.61844   0.00791  -1.50467
   2.37902   0.00791  -1.50467
   2.37902   0.00791  -1.26525
   2.37902   0.00791  -1.50467
   2.61844   0.00791  -1.50467
   2.61844   0.00791  -1.50467
   2.85786   0.00791  -1.50467
   2.85786   0.00791  -1.50467
   2.85786   0.00791  -1.50467
   2.85786   0.00791  -1.50467
   2.85786   0.00791  -1.50467
   2.85786  -0.23151  -1.50467
   2.85786  -0.23151  -1.50467
   3.33670   0.00791  -1.74409
   3.09728   0.00791  -1.74409
   3.09728   0.00791  -1.50467
   3.33670   0.00791  -1.50467
   3.33670   0.00791  -1.74409
   3.57612   0.00791  -1.74409
   3.33670   0.00791  -1.74409
   3.33670   0.00791  -1.74409
   3.33670   0.00791  -1.50467
   3.33670   0.00791  -1.74409
   3.33670   0.00791  -1.74409
   3.57612   0.24733  -1.74409
   3.57612   0.00791  -1.74409
   3.57612   0.00791  -1.74409
   3.57612   0.24733  -1.98351
   3.57612   0.00791  -1.74409
   3.81554   0.24733  -1.74409
   3.81554   0.00791  -1.74409
   3.57612   0.24733  -1.98351
   4.05495   0.24733  -1.74409
   3.57612   0.00791  -1.74409
   3.81554   0.00791  -1.98351
   3.81554   0.00791  -1.74409
   3.57612   0.00791  -1.98351
   3.81554   0.00791  -1.74409
   3.81554   0.00791  -1.74409
   3.81554   0.00791  -1.98351
   3.81554   0.00791  -1.74409
   3.81554   0.00791  -1.74409
   3.81554   0.00791  -1.74409
   4.05495   0.00791  -1.74409
   3.81554   0.00791  -1.74409
   4.05495   0.24733  -1.98351
   4.05495   0.00791  -1.74409
   3.81554   0.24733  -1.74409
   4.05495   0.24733  -1.74409
   3.81554   0.00791  -1.74409
   3.81554   0.24733  -1.74409
   3.81554   0.24733  -1.74409
   3.81554   0.24733  -1.50467
   3.81554   0.24733  -1.74409
   3.81554   0.24733  -1.50467
   3.81554   0.24733  -1.50467
   3.81554   0.24733  -1.50467
   3.81554   0.24733  -1.50467
   3.81554   0.24733  -1.26525
   3.81554   0.24733  -1.50467
   3.81554   0.48675  -1.26525
   3.81554   0.48675  -1.26525
   3.81554   0.24733  -1.50467
   3.81554   0.24733  -1.26525
   3.57612   0.24733  -1.26525
   3.81554   0.24733  -1.26525
   3.57612   0.24733  -1.02584
   3.81554   0.24733  -1.26525
   3.57612   0.24733  -1.02584
   3.33670   0.24733  -1.02584
   3.57612   0.24733  -0.78642
   3.57612   0.24733  -0.78642
   3.57612   0.24733  -1.02584
   3.57612   0.24733  -0.78642
   3.57612   0.24733  -0.78642
   3.57612   0.24733  -0.78642
   3.57612   0.00791  -0.54700
   3.33670   0.00791  -0.78642
   3.33670   0.00791  -0.54700
   3.33670   0.00791  -0.54700
   3.33670   0.00791  -0.30758
   3.33670   0.00791  -0.30758
   3.33670   0.00791  -0.30758
   3.09728   0.24733  -0.30758
   3.33670   0.24733  -0.06816
   3.33670   0.00791  -0.06816
   3.33670   0.24733  -0.06816
   3.33670   0.00791  -0.06816
   3.09728   0.00791   0.17126
   3.09728   0.24733   0.17126
   3.09728   0.00791   0.41068
   3.09728   0.24733   0.17126
   3.09728   0.00791   0.41068
   2.85786   0.00791   0.41068
   3.09728   0.00791   0.41068
   3.09728   0.24733   0.41068
   2.85786   0.24733   0.41068
   2.85786   0.00791   0.65010
   2.85786   0.00791   0.65010
   2.85786   0.00791   0.41068
   2.85786   0.00791   0.65010
   2.61844   0.00791   0.65010
   2.61844   0.00791   0.65010
   2.61844   0.00791   0.65010
   2.85786  -0.23151   0.88952
   2.61844   0.00791   0.88952
   2.61844  -0.23151   0.88952
   2.37902  -0.23151   0.88952
   2.61844   0.00791   1.12894
   2.37902  -0.23151   1.12894
   2.61844   0.00791   1.12894
   2.37902  -0.23151   1.12894
   2.37902   0.00791   1.36835
   2.13960  -0.23151   1.12894
   2.13960  -0.23151   1.60777
   2.13960  -0.23151   1.36835
   2.13960   0.00791   1.36835
   1.90018  -0.23151   1.60777
   1.90018  -0.23151   1.36835
   1.90018  -0.23151   1.60777
   1.66076  -0.23151   1.60777
   1.66076  -0.23151   1.60777
   1.66076  -0.23151   1.60777
   1.66076  -0.23151   1.60777
   1.66076  -0.23151   1.60777
   1.42135  -0.23151   1.60777
   1.42135  -0.23151   1.60777
   1.18193  -0.23151   1.60777
   1.18193  -0.23151   1.84719
   1.18193  -0.23151   1.84719
   1.18193  -0.23151   1.84719
   0.94251  -0.23151   1.84719
   0.94251  -0.23151   1.84719
   0.94251  -0.23151   2.08661
   0.70309  -0.23151   1.84719
   0.94251  -0.23151   1.84719
   0.70309  -0.23151   1.84719
   0.46367  -0.23151   1.84719
   0.46367  -0.23151   2.08661
   0.46367  -0.23151   1.84719
   0.22425  -0.23151   1.84719
   0.22425  -0.47092   1.84719
   0.22425   0.00791   1.84719
   0.22425  -0.47092   1.84719
  -0.01517  -0.23151   1.84719
  -0.01517  -0.23151   1.84719
  -0.01517  -0.47092   1.84719
  -0.25459  -0.23151   1.84719
  -0.25459  -0.23151   1.84719
  -0.49401  -0.23151   1.84719
  -0.49401  -0.23151   1.84719
  -0.49401  -0.23151   1.84719
  -0.73342  -0.23151   1.84719
  -0.49401  -0.47092   1.84719
  -0.73342  -0.47092   1.84719
  -0.73342  -0.23151   1.84719
  -1.21226  -0.23151   1.60777
  -0.97284  -0.23151   1.84719
  -0.97284  -0.23151   1.84719
  -1.21226  -0.23151   1.60777
  -0.97284  -0.23151   1.84719
  -1.21226  -0.23151   1.60777
  -1.21226   0.00791   1.60777
  -1.45168  -0.23151   1.60777
  -1.45168  -0.23151   1.36835
  -1.45168  -0.23151   1.60777
  -1.69110  -0.23151   1.60777
  -1.69110  -0.47092   1.60777
  -1.93052  -0.23151   1.60777
  -1.93052  -0.23151   1.60777
  -1.93052  -0.23151   1.36835
  -1.93052  -0.23151   1.36835
  -1.93052  -0.23151   1.36835
  -1.93052  -0.23151   1.36835
  -2.16994  -0.23151   1.36835
  -2.16994  -0.23151   1.12894
  -2.16994  -0.23151   1.12894
  -2.16994  -0.23151   1.12894
  -2.16994  -0.23151   1.12894
  -2.40936  -0.23151   1.12894
  -2.64878   0.00791   1.12894
  -2.40936  -0.23151   1.12894
  -2.40936  -0.23151   1.12894
