********************************************************************************
              CENTRO DE INSTRUMENTACION Y REGISTRO SISMICO  A.C.

    Anaxagoras 814, Col. Narvarte, Benito Juarez, C.P. 03020 Mexico, D.F.
           Tels. 5687 45 42/ 5687 45  82             Fax. 5669 25 12
********************************************************************************
ARCHIVO ESTANDAR DE ACELERACION:
VERSION DEL FORMATO                    : 2.0
NOMBRE DEL ARCHIVO                     : AE0220151123204120
FECHA Y HORA DE CREACION               : 17/DIC/15, 11:55
REF. CATALOGO ACELEROGRAMAS, SMIS 1996 : REGISTRO No.     /PAG.


================================================================================
DATOS DE LA ESTACION:
NOMBRE DE LA ESTACION                  : ESC. PRIM. "GONZÁLEZ GARZÓN"
CLAVE DE LA ESTACION                   : AE02
LOCALIZACION DE LA ESTACION            : Del. Venustiano Carranza,              
                                       : Col. El Arenal 4a. Sección,            
                                       : Calle Xico esq. con calle Xocoyote.    
                                       :                                        
                                       : 
COORDENADAS DE LA ESTACION             : 19.4290 LAT. N
                                       : 99.0584 LONG. W
ALTITUD (msnm)                         : 2232
TIPO DE SUELO                          : Arcilloso, zona lago                
                                       :                           
                                       : 
INSTITUCION RESPONSABLE                : CIRES
                                       : 

================================================================================
DATOS DEL ACELEROGRAFO:
MODELO DEL ACELEROGRAFO                : RADESD
NUMERO DE SERIE DEL ACELEROGRAFO       : 242
NUMERO DE CANALES                      : 3
ORIENTACION C1-C6 (rumbo;orientacion)  : /N00E/+V/N90W
ORIENTACION C7-C12 (rumbo;orientacion) : 
VEL. DE MUESTREO, C1-C6 (muestras/s)   : /100/100/100
VEL. DE MUESTREO, C7-C12 (muestras/s)  : 
ESC. COMPLETA DE SENSORES, C1-C6, (g)  : /0.5/0.5/0.5
ESC. COMPLETA DE SENSORES, C7-C12, (g) : 
FREC. NAT. DE SENSORES, C1-C6, (Hz)    : /30/30/30
FREC. NAT. DE SENSORES, C7-C12, (Hz)   : 
AMORTIGUAMIENTO DE SENSORES, C1-C6     : /0.733/0.750/0.700
AMORTIGUAMIENTO DE SENSORES, C7-C12    : 
INTERVALO DE MUESTREO, C1-C6, (s)      : /0.01/0.01/0.01
INTERVALO DE MUESTREO, C7-C12, (s)     : 
UMBRAL DE DISPARO, C1-C6, (Gal)        : /1.65/9.56/2.69
UMBRAL DE DISPARO, C7-C12, (Gal)       : 
MEMORIA DE PREEVENTO (s)               : 44.0
TIEMPO DE POSEVENTO (s)                : 64.0


================================================================================
DATOS DEL SISMO:
FECHA DEL SISMO (GMT)                  : 23/NOV/15
HORA EPICENTRO (GMT)                   : 20:41:20.0
MAGNITUD(ES)                           : /Mc=5.6
COORDENADAS DEL EPICENTRO              : 16.86 LAT. N
                                       : 98.94 LONG. W
PROFUNDIDAD FOCAL (km)                 : 10
FUENTE DE LOS DATOS EPICENTRALES       : SSN
                                       : INSTITUTO DE GEOFISICA, UNAM

================================================================================
DATOS DE ESTE REGISTRO:
HORA DE LA PRIMERA MUESTRA (GMT)       : 20:42:41.00
EXACTITUD DEL TIEMPO (s)               : 0.01
DURACION DEL REGISTRO (s), C1-C6       : /171.4/171.4/171.4
DURACION DEL REGISTRO (s), C7-C12      : 
NUM. TOTAL DE MUESTRAS, C1-C6          : /17140/17140/17140
NUM. TOTAL DE MUESTRAS, C7-C12         : 
ACEL. MAX. (Gal), C1-C6                : /4.95094/1.77117/3.10603
ACEL. MAX., C1-C6, EN LA MUESTRA       : /6792/7738/6501
ACEL. MAX. (Gal), C7-C12               : 
ACEL. MAX., C7-C12, EN LA MUESTRA      : 
UNIDADES DE LOS DATOS                  : Gal (cm/s/s)
FACTOR DE DECIMACION                   : 1
FORMATO DATOS (FORTRAN,10 campos/dato) : 3F10.5


================================================================================
CALIDAD DEL ACELEROGRAMA:
REGISTRO DIGITAL COMPLETO CON TIEMPO ABSOLUTO CORRECTO.


================================================================================
COMENTARIOS:














================================================================================
DATOS DE ACELERACION:
---------+---------+---------+---------+---------+---------+---------+---------+
   CANAL-1   CANAL-2   CANAL-3   CANAL-4   CANAL-5   CANAL-6   CANAL-7   CANAL-8
      N00E        +V      N90W
---------+---------+---------+---------+---------+---------+---------+---------+
[...]
   2.29152  -0.61896   0.02350
   2.24663  -0.55911   0.21803
   2.38130  -0.76860   0.29285
   2.41123  -0.79853   0.30781
   2.29152  -0.88831   0.32277
   2.39627  -0.91824   0.39759
   2.54590  -0.78357   0.41256
   2.51598  -0.91824   0.57716
   2.56087  -1.08284   0.63701
   2.56087  -0.87335   0.72680
   2.54590  -0.93320   0.74176
   2.50101  -0.93320   0.74176
   2.32145  -0.78357   0.72680
   2.32145  -0.88831   0.74176
   2.29152  -0.76860   0.65198
   2.17181  -0.70875   0.62205
   2.06706  -0.55911   0.54723
   2.12692  -0.58904   0.59212
   2.00721  -0.57407   0.48738
   2.05210  -0.39451   0.41256
   2.08203  -0.31969   0.29285
   2.05210  -0.09523   0.44248
   2.08203  -0.00545   0.47241
   1.99224   0.05440   0.47241
   1.76779   0.08433   0.38263
   1.90246   0.11426   0.53227
   1.81268   0.02448   0.51730
   1.79772   0.32375   0.39759
   1.72290   0.29382   0.51730
   1.52837   0.29382   0.51730
   1.43858   0.24893   0.56219
   1.28895   0.39857   0.59212
   1.12435   0.30879   0.60709
   0.98967   0.45843   0.63701
   0.86996   0.44346   0.68190
   0.75025   0.57814   0.75672
   0.63054   0.62303   0.78665
   0.52580   0.75770   0.84651
   0.36119   0.84748   1.01111
   0.21156   0.96719   0.98118
   0.06192   1.10187   1.08593
  -0.16254   1.16172   1.22060
  -0.11765   1.23654   1.46002
  -0.34210   0.96719   1.68448
  -0.32714   1.11683   1.86404
  -0.46181   1.04201   1.95382
  -0.58152   1.20661   2.08850
  -0.79102   1.28143   2.22317
  -1.09029   1.17669   2.41770
  -1.06036   1.01209   2.59727
  -1.12022   0.92230   2.76187
  -1.07533   0.99712   2.92647
  -1.09029   0.86245   2.97136
  -1.22496   0.90734   2.89654
  -1.40453   0.86245   3.04618
  -1.28482   0.65296   3.10603
  -1.25489   0.65296   3.07611
  -1.18007   0.75770   2.83669
  -1.37460   0.75770   2.79180
  -1.31475   0.71281   2.71698
  -1.62899   0.47339   2.59727
  -1.43446   0.39857   2.53741
  -1.40453   0.42850   2.31295
  -1.55417   0.44346   2.16332
  -1.68884   0.42850   1.83411
  -1.68884   0.23397   1.87901
  -1.76366   0.26390   1.59469
  -1.92826   0.12922   1.51988
  -1.91330  -0.03538   1.43009
  -1.88337   0.00951   1.26549
  -2.04797  -0.08027   1.14578
  -2.00308  -0.27480   1.16075
  -1.92826  -0.24487   1.16075
  -1.94323  -0.22991   1.16075
  -1.92826  -0.34962   1.19067
  -1.94323  -0.54415   1.28046
  -1.92826  -0.70875   1.17571
  -1.97315  -0.66386   1.13082
  -1.91330  -0.67882   1.01111
  -2.07790  -0.90328   1.13082
  -2.04797  -0.94817   1.05600
  -2.10783  -0.87335   0.89140
  -2.24250  -1.05291   1.16075
  -2.30236  -1.21751   1.17571
  -2.30236  -1.06788   0.81658
  -2.54178  -0.99306   0.84651
  -2.60163  -1.18759   1.05600
  -2.60163  -0.99306   0.96622
  -2.78120  -0.97809   0.81658
  -2.88594  -1.12773   0.92133
  -2.73630  -1.03795   0.90636
  -2.85601  -1.05291   0.69687
  -2.84105  -1.00802   0.66694
  -2.97572  -1.18759   0.60709
  -2.91587  -0.99306   0.45745
  -2.87098  -0.94817   0.27788
  -2.94580  -1.08284   0.09832
  -2.84105  -0.99306  -0.14110
  -3.02062  -0.88831  -0.21592
  -2.87098  -1.03795  -0.36556
  -2.82609  -0.97809  -0.63491
  -2.97572  -0.85838  -0.81447
  -2.93083  -0.73867  -0.75462
  -2.85601  -0.84342  -0.82943
  -2.94580  -0.73867  -1.03893
  -2.88594  -0.81349  -0.84440
  -2.88594  -0.58904  -0.99404
  -2.82609  -0.58904  -0.88929
  -2.85601  -0.51422  -1.08382
  -2.78120  -0.42444  -1.02396
  -2.48192  -0.33465  -0.90425
  -2.55674  -0.28976  -1.03893
  -2.34725  -0.18502  -0.99404
  -2.19761  -0.15509  -0.97907
  -2.07790  -0.08027  -1.06886
  -1.98812  -0.02041  -1.05389
  -1.83848  -0.09523  -1.18857
  -1.68884  -0.09523  -0.90425
  -1.53920  -0.09523  -0.96411
  -1.52424  -0.30473  -0.87433
  -1.28482  -0.14012  -0.81447
  -1.15015  -0.21494  -0.82943
  -0.92569  -0.15509  -0.82943
  -0.80598  -0.03538  -0.75462
  -0.65634  -0.00545  -0.69476
  -0.55160   0.06937  -0.81447
  -0.31218   0.02448  -0.60498
  -0.11765  -0.24487  -0.60498
   0.25645  -0.15509  -0.63491
   0.37616  -0.15509  -0.63491
   0.61558   0.06937  -0.66483
   0.85500   0.12922  -0.94915
   1.03456   0.18908  -0.93418
   1.19916   0.21901  -0.85936
   1.31887   0.18908  -1.06886
   1.22909   0.18908  -1.09878
   1.45355   0.03944  -0.96411
   1.67801   0.24893  -1.00900
   1.82764   0.24893  -1.11375
   1.91743   0.35368  -1.18857
   1.94735   0.47339  -0.99404
   1.87253   0.50332  -1.12871
   1.97728   0.51828  -0.91922
   2.18677   0.51828  -0.81447
   2.33641   0.57814  -0.78454
   2.38130   0.75770  -0.79951
   2.41123   0.93727  -1.02396
   2.57583   0.93727  -0.81447
   2.53094   0.92230  -0.78454
   2.50101   0.92230  -0.82943
   2.53094   0.81756  -0.85936
   2.50101   0.90734  -0.97907
   2.41123   0.99712  -1.06886
   2.27656   1.10187  -1.18857
   2.15685   1.04201  -1.17360
   1.93239   1.02705  -1.27835
   1.90246   1.10187  -1.27835
   1.66304   0.96719  -1.32324
   1.72290   0.81756  -1.42799
   1.36377   1.04201  -1.60755
   1.33384   1.13180  -1.77215
   1.16924   0.89238  -1.63748
   1.03456   0.96719  -1.72726
   1.00464   0.98216  -1.83201
   0.94478   0.95223  -1.80208
   0.86996   0.87741  -1.78712
   0.84003   0.90734  -1.83201
   0.61558   0.86245  -1.81704
   0.60061   0.63799  -1.65244
   0.57069   0.74274  -1.86193
   0.39112   0.57814  -1.60755
   0.48090   0.65296  -1.54770
   0.34623   0.69785  -1.48784
   0.34623   0.48835  -1.29331
   0.28638   0.51828  -1.20353
   0.30134   0.59310  -1.18857
   0.22652   0.56317  -0.91922
   0.24148   0.57814  -1.03893
   0.21156   0.54821  -0.78454
   0.27141   0.38361  -0.76958
   0.34623   0.59310  -0.88929
   0.33127   0.54821  -0.63491
   0.16667   0.44346  -0.53016
   0.34623   0.32375  -0.39549
   0.36119   0.51828  -0.32067
   0.13674   0.30879  -0.18599
   0.39112   0.53325  -0.09621
   0.24148   0.32375  -0.03636
   0.16667   0.42850   0.03846
   0.10681   0.33872   0.30781
   0.09185   0.44346   0.30781
   0.01703   0.41353   0.42752
  -0.14757   0.27886   0.51730
   0.00206   0.20404   0.60709
  -0.05779   0.27886   0.54723
  -0.04283   0.14419   0.84651
  -0.11765  -0.03538   0.98118
  -0.08772   0.12922   0.89140
  -0.13261   0.03944   1.02607
   0.01703  -0.11020   1.10089
   0.12177  -0.12516   0.98118
   0.07688  -0.06531   1.07096
   0.16667  -0.18502   1.23556
   0.30134  -0.05034   1.34031
   0.18163  -0.12516   1.32535
   0.15170  -0.25983   1.50491
   0.34623  -0.08027   1.43009
   0.31630  -0.11020   1.41513
   0.43601  -0.08027   1.74433
   0.34623  -0.11020   1.46002
   0.36119  -0.12516   1.63959
   0.31630  -0.28976   1.54980
   0.43601  -0.18502   1.60966
   0.42105  -0.19998   1.38520
   0.46594  -0.24487   1.46002
   0.27141  -0.25983   1.31038
   0.45098  -0.28976   1.20564
   0.42105  -0.66386   1.02607
   0.36119  -0.40947   0.86147
   0.40609  -0.57407   0.63701
   0.37616  -0.37954   0.30781
   0.46594  -0.37954   0.18810
   0.33127  -0.43940   0.08335
   0.15170  -0.39451  -0.18599
   0.22652  -0.51422  -0.21592
   0.07688  -0.52918  -0.41045
   0.13674  -0.57407  -0.50023
   0.21156  -0.46933  -0.72469
   0.24148  -0.51422  -0.91922
   0.22652  -0.51422  -1.03893
   0.25645  -0.43940  -1.11375
   0.16667  -0.46933  -1.36813
   0.31630  -0.45436  -1.15864
   0.33127  -0.45436  -1.21849
   0.40609  -0.57407  -1.05389
   0.60061  -0.67882  -1.03893
   0.66047  -0.67882  -0.94915
   0.85500  -0.60400  -0.94915
   0.95974  -0.54415  -1.00900
   0.94478  -0.36458  -1.18857
   0.95974  -0.31969  -1.00900
   1.00464  -0.34962  -1.00900
   1.01960  -0.37954  -1.03893
   1.13931  -0.52918  -1.05389
   1.10938  -0.46933  -0.99404
   1.30391  -0.34962  -1.08382
   1.36377  -0.30473  -1.18857
   1.34880  -0.37954  -1.24842
   1.27398  -0.30473  -1.00900
   1.06449  -0.27480  -1.09878
   1.03456  -0.42444  -0.93418
   1.15427  -0.39451  -0.76958
   1.09442  -0.42444  -0.61994
   1.07945  -0.36458  -0.78454
   0.94478  -0.33465  -0.73965
   1.03456  -0.34962  -0.39549
   0.91485  -0.54415  -0.33563
   0.81011  -0.39451  -0.26081
   0.75025  -0.43940  -0.27578
   0.67543  -0.36458  -0.29074
   0.54076  -0.42444  -0.21592
   0.54076  -0.43940  -0.18599
   0.48090  -0.57407  -0.15607
   0.28638  -0.76860  -0.11117
   0.43601  -0.69378  -0.20096
   0.36119  -0.45436  -0.42541
   0.30134  -0.40947  -0.36556
   0.45098  -0.48429  -0.38052
   0.48090  -0.40947  -0.33563
   0.49587  -0.33465  -0.41045
   0.66047  -0.39451  -0.42541
   0.55572  -0.24487  -0.56009
   0.61558  -0.25983  -0.30570
   0.73529  -0.21494  -0.47030
   0.69040  -0.24487  -0.35059
   0.75025  -0.27480  -0.32067
   0.76522  -0.18502  -0.41045
   0.76522  -0.22991  -0.29074
   0.81011  -0.33465  -0.38052
   0.67543  -0.24487  -0.26081
   0.73529  -0.39451  -0.21592
   0.66047  -0.27480  -0.33563
   0.57069  -0.36458  -0.32067
   0.52580  -0.48429  -0.23088
   0.69040  -0.51422  -0.29074
   0.60061  -0.37954  -0.32067
   0.75025  -0.34962  -0.17103
   0.78018  -0.36458  -0.20096
   0.78018  -0.33465  -0.15607
   0.78018  -0.46933  -0.29074
   0.86996  -0.61896  -0.20096
   0.88493  -0.54415  -0.23088
   0.98967  -0.57407  -0.12614
   1.10938  -0.60400  -0.06628
   1.16924  -0.66386  -0.15607
   0.97471  -0.84342  -0.15607
   1.33384  -0.70875  -0.09621
   1.33384  -0.58904  -0.11117
   1.31887  -0.63393  -0.29074
   1.30391  -0.55911   0.06839
   1.31887  -0.63393   0.08335
   1.49844  -0.52918   0.23299
   1.30391  -0.42444   0.24796
   1.25902  -0.36458   0.32277
   1.42362  -0.25983   0.42752
   1.30391  -0.08027   0.42752
   1.46851  -0.14012   0.56219
   1.43858   0.24893   0.56219
   1.42362   0.27886   0.51730
   1.40866   0.41353   0.57716
   1.42362   0.59310   0.54723
   1.30391   0.74274   0.54723
   1.27398   0.77267   0.72680
   1.18420   0.80259   0.66694
   0.98967   0.84748   0.41256
   1.04953   0.80259   0.59212
   0.92982   0.89238   0.48738
   0.92982   0.86245   0.48738
   0.91485   0.99712   0.41256
   0.82507   1.07194   0.26292
   0.67543   1.16172   0.26292
   0.37616   1.29640   0.29285
   0.36119   1.26647   0.26292
   0.16667   1.19165   0.42752
   0.28638   1.31136   0.35270
   0.09185   1.34129   0.21803
  -0.10268   1.46100   0.38263
  -0.34210   1.46100   0.20306
  -0.55160   1.32632   0.29285
  -0.61145   1.34129   0.30781
  -0.83591   1.50589   0.15817
  -1.19504   1.49093   0.17314
  -1.46438   1.52085   0.09832
  -1.80855   1.44603   0.27788
  -2.21257   1.37122   0.24796
  -2.46696   1.32632   0.15817
  -2.91587   1.08690   0.27788
  -3.24507   1.01209   0.23299
  -3.39471   1.19165   0.17314
  -3.78377   1.26647   0.06839
  -4.17283   1.16172   0.03846
  -4.35239   0.90734   0.03846
  -4.57685   0.86245   0.05343
  -4.60677   0.78763   0.02350
  -4.68159   0.72777  -0.15607
  -4.93598   0.68288  -0.26081
  -4.95094   0.41353  -0.17103
  -4.92101   0.24893  -0.15607
  -4.71152   0.30879  -0.32067
  -4.80130   0.18908  -0.15607
  -4.80130   0.03944  -0.17103
  -4.68159  -0.14012   0.00854
  -4.47210  -0.27480   0.11328
  -4.33743  -0.39451   0.14321
  -4.18779  -0.42444   0.26292
  -3.99326  -0.55911   0.35270
  -3.82866  -0.66386   0.38263
  -3.70895  -0.96313   0.60709
  -3.42464  -0.96313   0.53227
  -3.23011  -0.84342   0.60709
  -3.14033  -0.88831   0.75672
  -2.88594  -0.90328   1.02607
  -2.61659  -0.94817   1.16075
  -2.30236  -0.93320   1.16075
  -2.18265  -0.90328   1.11585
  -1.98812  -0.73867   1.23556
  -1.85344  -0.70875   1.44506
  -1.52424  -0.81349   1.43009
  -1.28482  -0.64889   1.50491
  -1.10525  -0.58904   1.50491
  -1.07533  -0.66386   1.44506
  -0.55160  -0.63393   1.53484
  -0.31218  -0.54415   1.66951
  -0.13261  -0.55911   1.63959
   0.16667  -0.57407   1.59469
   0.36119  -0.57407   1.60966
   0.60061  -0.52918   1.57973
   0.76522  -0.55911   1.75930
   1.15427  -0.60400   1.89397
   1.37873  -0.39451   1.92390
   1.66304  -0.40947   1.96879
   1.96232  -0.49925   2.07353
   2.23166  -0.39451   2.02864
   2.45612  -0.42444   2.07353
   2.87511  -0.33465   1.99872
   2.96489  -0.37954   1.99872
   3.14445  -0.27480   2.13339
   3.23424  -0.21494   2.05857
   3.47366  -0.19998   2.14835
   3.48862  -0.14012   2.10346
   3.50358  -0.19998   2.01368
   3.62329  -0.18502   1.69944
   3.56344  -0.08027   1.72937
   3.54848  -0.11020   1.63959
   3.53351  -0.02041   1.23556
   3.41380   0.09930   1.20564
   3.36891   0.03944   0.96622
   2.99482   0.11426   0.77169
   2.84518  -0.02041   0.60709
   2.65065  -0.03538   0.38263
   2.38130   0.06937   0.29285
   2.26159  -0.08027  -0.00643
   1.91743  -0.02041  -0.23088
   1.70793  -0.03538  -0.24585
   1.57326  -0.24487  -0.33563
   1.33384  -0.14012  -0.51520
   0.98967  -0.43940  -0.53016
   0.81011  -0.21494  -0.67980
   0.79514  -0.31969  -0.81447
   0.64551  -0.51422  -0.69476
   0.70536  -0.39451  -0.79951
   0.48090  -0.51422  -0.91922
   0.39112  -0.43940  -1.00900
   0.33127  -0.49925  -1.06886
   0.15170  -0.70875  -1.14367
   0.24148  -0.67882  -1.14367
   0.27141  -0.67882  -1.18857
   0.12177  -0.63393  -1.24842
  -0.04283  -0.64889  -1.36813
  -0.01290  -0.63393  -1.23346
   0.03199  -0.67882  -1.21849
  -0.10268  -0.69378  -1.15864
  -0.34210  -0.49925  -1.27835
  -0.38699  -0.69378  -1.23346
  -0.47678  -0.51422  -1.26338
  -0.59649  -0.33465  -1.21849
  -0.70123  -0.12516  -1.26338
  -0.92569  -0.00545  -1.29331
  -1.06036  -0.03538  -1.20353
  -1.06036  -0.08027  -1.12871
  -1.25489   0.08433  -1.24842
  -1.31475   0.32375  -1.26338
  -1.44942   0.35368  -1.42799
  -1.53920   0.42850  -1.39806
  -1.56913   0.50332  -1.48784
  -1.56913   0.56317  -1.39806
  -1.68884   0.57814  -1.41302
  -1.56913   0.65296  -1.47288
  -1.61402   0.68288  -1.50280
  -1.61402   0.72777  -1.47288
  -1.47935   0.83252  -1.41302
  -1.47935   0.77267  -1.32324
  -1.29978   0.69785  -1.26338
  -1.06036   0.96719  -1.33820
  -1.07533   1.01209  -1.21849
  -1.04540   0.89238  -1.26338
  -0.76109   0.81756  -0.97907
  -0.52167   0.93727  -0.90425
  -0.29721   0.92230  -0.85936
  -0.10268   0.95223  -0.99404
  -0.16254   0.96719  -0.82943
  -0.14757   0.81756  -0.59001
   0.15170   0.72777  -0.53016
   0.28638   0.80259  -0.56009
   0.21156   0.77267  -0.42541
   0.24148   0.72777  -0.24585
   0.24148   0.66792  -0.14110
   0.28638   0.50332   0.06839
   0.34623   0.44346   0.18810
   0.37616   0.51828   0.14321
   0.28638   0.56317   0.23299
   0.24148   0.53325   0.50234
   0.21156   0.50332   0.56219
   0.12177   0.39857   0.78665
   0.24148   0.33872   0.95125
   0.33127   0.24893   0.93629
   0.22652   0.21901   0.93629
   0.18163   0.05440   1.07096
   0.40609   0.06937   1.10089
   0.34623  -0.00545   1.13082
   0.42105  -0.06531   1.16075
   0.60061  -0.02041   1.16075
   0.64551   0.00951   1.32535
   0.69040  -0.14012   1.26549
   0.75025  -0.05034   1.13082
   0.78018  -0.25983   1.29542
   0.95974  -0.24487   1.14578
   0.94478  -0.08027   1.11585
   0.95974  -0.19998   1.16075
   1.15427  -0.19998   0.98118
   1.18420  -0.08027   1.05600
   1.21413  -0.21494   1.08593
   1.34880  -0.28976   1.07096
   1.43858  -0.14012   0.86147
   1.45355  -0.09523   0.96622
   1.48348  -0.19998   0.83154
   1.48348  -0.11020   0.66694
   1.42362  -0.14012   0.62205
   1.49844  -0.22991   0.51730
   1.42362  -0.11020   0.27788
   1.18420  -0.12516   0.12825
   1.25902  -0.14012   0.15817
   1.18420  -0.18502  -0.03636
   0.95974  -0.12516  -0.06628
   0.81011  -0.24487  -0.09621
   0.69040  -0.34962  -0.18599
