********************************************************************************
              CENTRO DE INSTRUMENTACION Y REGISTRO SISMICO  A.C.

    Anaxagoras 814, Col. Narvarte, Benito Juarez, C.P. 03020 Mexico, D.F.
           Tels. 5687 45 42/ 5687 45  82             Fax. 5669 25 12
********************************************************************************
ARCHIVO ESTANDAR DE ACELERACION:
VERSION DEL FORMATO                    : 2.0
NOMBRE DEL ARCHIVO                     : AE0220130412034509
FECHA Y HORA DE CREACION               : 14/MAY/13, 12:39
REF. CATALOGO ACELEROGRAMAS, SMIS 1996 : REGISTRO No.     /PAG.


================================================================================
DATOS DE LA ESTACION:
NOMBRE DE LA ESTACION                  : ESC. PRIM. "GONZÁLEZ GARZÓN"
CLAVE DE LA ESTACION                   : AE02
LOCALIZACION DE LA ESTACION            : Del. Venustiano Carranza,              
                                       : Col. El Arenal 4a. Sección,            
                                       : Calle Xico esq. con calle Xocoyote.    
                                       :                                        
                                       : 
COORDENADAS DE LA ESTACION             : 19.4290 LAT. N
                                       : 99.0584 LONG. W
ALTITUD (msnm)                         : 2232
TIPO DE SUELO                          : Arcilloso, zona lago                
                                       :                           
                                       : 
INSTITUCION RESPONSABLE                : CIRES
                                       : 

================================================================================
DATOS DEL ACELEROGRAFO:
MODELO DEL ACELEROGRAFO                : RADESD
NUMERO DE SERIE DEL ACELEROGRAFO       : 242
NUMERO DE CANALES                      : 3
ORIENTACION C1-C6 (rumbo;orientacion)  : /N00E/+V/N90W
ORIENTACION C7-C12 (rumbo;orientacion) : 
VEL. DE MUESTREO, C1-C6 (muestras/s)   : /100/100/100
VEL. DE MUESTREO, C7-C12 (muestras/s)  : 
ESC. COMPLETA DE SENSORES, C1-C6, (g)  : /0.5/0.5/0.5
ESC. COMPLETA DE SENSORES, C7-C12, (g) : 
FREC. NAT. DE SENSORES, C1-C6, (Hz)    : /30/30/30
FREC. NAT. DE SENSORES, C7-C12, (Hz)   : 
AMORTIGUAMIENTO DE SENSORES, C1-C6     : /0.733/0.750/0.700
AMORTIGUAMIENTO DE SENSORES, C7-C12    : 
INTERVALO DE MUESTREO, C1-C6, (s)      : /0.01/0.01/0.01
INTERVALO DE MUESTREO, C7-C12, (s)     : 
UMBRAL DE DISPARO, C1-C6, (Gal)        : /26.34/153.23/43.1
UMBRAL DE DISPARO, C7-C12, (Gal)       : 
MEMORIA DE PREEVENTO (s)               : 56.0
TIEMPO DE POSEVENTO (s)                : 80.0


================================================================================
DATOS DEL SISMO:
FECHA DEL SISMO (GMT)                  : 12/ABR/13
HORA EPICENTRO (GMT)                   : 03:45:09.0
MAGNITUD(ES)                           : /Mc=5.2
COORDENADAS DEL EPICENTRO              : 17.78 LAT. N
                                       : 101.58 LONG. W
PROFUNDIDAD FOCAL (km)                 : 35
FUENTE DE LOS DATOS EPICENTRALES       : SSN
                                       : INSTITUTO DE GEOFISICA, UNAM

================================================================================
DATOS DE ESTE REGISTRO:
HORA DE LA PRIMERA MUESTRA (GMT)       : 03:47:02.00
EXACTITUD DEL TIEMPO (s)               : 0.01
DURACION DEL REGISTRO (s), C1-C6       : /119.6/119.6/119.6
DURACION DEL REGISTRO (s), C7-C12      : 
NUM. TOTAL DE MUESTRAS, C1-C6          : /11960/11960/11960
NUM. TOTAL DE MUESTRAS, C7-C12         : 
ACEL. MAX. (Gal), C1-C6                : /1.91833/0.98279/1.51014
ACEL. MAX., C1-C6, EN LA MUESTRA       : /3238/5759/3832
ACEL. MAX. (Gal), C7-C12               : 
ACEL. MAX., C7-C12, EN LA MUESTRA      : 
UNIDADES DE LOS DATOS                  : Gal (cm/s/s)
FACTOR DE DECIMACION                   : 1
FORMATO DATOS (FORTRAN,10 campos/dato) : 3F10.5


================================================================================
CALIDAD DEL ACELEROGRAMA:
REGISTRO DIGITAL COMPLETO CON TIEMPO ABSOLUTO CORRECTO.


================================================================================
COMENTARIOS:














================================================================================
DATOS DE ACELERACION:
---------+---------+---------+---------+---------+---------+---------+---------+
   CANAL-1   CANAL-2   CANAL-3   CANAL-4   CANAL-5   CANAL-6   CANAL-7   CANAL-8
      N00E        +V      N90W
---------+---------+---------+---------+---------+---------+---------+---------+
[...]
  -0.16757   0.10956   0.33040
  -0.15260   0.04971   0.30047
  -0.13764   0.04971   0.30047
  -0.15260   0.01978   0.25558
  -0.12268   0.10956   0.27055
  -0.12268   0.04971   0.25558
  -0.15260   0.12452   0.16580
  -0.10771   0.09460   0.16580
  -0.15260   0.15445   0.06105
  -0.09275   0.09460   0.00120
  -0.07778   0.16942  -0.05866
  -0.01793   0.09460  -0.08858
  -0.03289   0.12452  -0.16340
  -0.10771   0.12452  -0.16340
  -0.15260   0.13949  -0.10355
  -0.12268   0.10956  -0.16340
  -0.15260   0.16942  -0.10355
  -0.07778   0.07963  -0.14844
  -0.03289   0.10956  -0.10355
  -0.04786   0.18438  -0.11851
  -0.07778   0.13949  -0.11851
  -0.06282   0.13949  -0.02873
   0.02696   0.15445  -0.10355
  -0.00297   0.15445  -0.05866
   0.13171   0.09460  -0.05866
   0.13171   0.10956  -0.07362
   0.13171   0.04971  -0.07362
   0.14667   0.13949  -0.17837
   0.11674   0.13949  -0.19333
   0.16164   0.16942  -0.13348
   0.17660   0.03474  -0.19333
   0.14667   0.07963  -0.20829
   0.14667  -0.01015  -0.20829
   0.10178   0.00481  -0.23822
   0.11674   0.03474  -0.11851
   0.04193   0.00481  -0.22326
   0.04193   0.01978  -0.20829
   0.01200   0.01978  -0.17837
   0.02696   0.07963  -0.16340
   0.07185   0.12452  -0.14844
   0.08682   0.09460  -0.14844
   0.08682   0.01978  -0.02873
   0.14667   0.04971  -0.08858
   0.20653   0.07963  -0.08858
   0.26638   0.03474  -0.14844
   0.35617   0.09460  -0.11851
   0.32624   0.12452  -0.14844
   0.38609   0.07963  -0.22326
   0.41602   0.12452  -0.16340
   0.47588   0.01978  -0.16340
   0.41602   0.10956  -0.14844
   0.44595   0.00481  -0.14844
   0.38609  -0.01015  -0.14844
   0.37113  -0.12986  -0.05866
   0.31127  -0.17475  -0.07362
   0.28135  -0.15979  -0.07362
   0.31127  -0.14482  -0.04369
   0.29631  -0.14482  -0.01377
   0.28135  -0.14482   0.00120
   0.25142  -0.15979   0.03113
   0.26638  -0.18971   0.04609
   0.26638  -0.14482   0.01616
   0.29631  -0.12986   0.00120
   0.28135  -0.09993   0.03113
   0.26638   0.00481   0.00120
   0.23645   0.00481   0.06105
   0.23645   0.09460  -0.02873
   0.23645   0.07963  -0.07362
   0.29631  -0.02511  -0.13348
   0.22149   0.01978  -0.07362
   0.20653  -0.09993  -0.10355
   0.08682  -0.08497  -0.08858
   0.10178  -0.14482  -0.11851
   0.01200  -0.11490  -0.07362
  -0.00297  -0.12986  -0.10355
  -0.07778  -0.11490  -0.08858
  -0.12268  -0.12986  -0.10355
  -0.12268  -0.05504  -0.04369
  -0.12268  -0.07000  -0.04369
  -0.18253  -0.02511  -0.07362
  -0.15260  -0.07000  -0.04369
  -0.16757  -0.09993   0.01616
  -0.15260  -0.05504  -0.05866
  -0.15260  -0.08497  -0.02873
  -0.10771  -0.08497  -0.02873
  -0.16757  -0.04008   0.04609
  -0.15260  -0.11490   0.04609
  -0.19749  -0.04008   0.12091
  -0.18253  -0.07000   0.03113
  -0.13764  -0.11490   0.07602
  -0.09275  -0.09993   0.04609
  -0.25735  -0.18971   0.04609
  -0.15260  -0.12986   0.04609
  -0.25735  -0.04008   0.10594
  -0.19749  -0.05504   0.07602
  -0.19749   0.01978   0.10594
  -0.18253   0.03474   0.09098
  -0.21246   0.12452  -0.01377
  -0.22742   0.03474   0.04609
  -0.25735   0.13949   0.07602
  -0.31720   0.10956   0.16580
  -0.34713   0.22927   0.15084
  -0.49677   0.21431   0.25558
  -0.52670   0.24423   0.27055
  -0.55662   0.24423   0.33040
  -0.61648   0.22927   0.37529
  -0.69130   0.31905   0.39026
  -0.69130   0.22927   0.39026
  -0.78108   0.27416   0.42018
  -0.75115   0.27416   0.34537
  -0.79604   0.28913   0.39026
  -0.76612   0.22927   0.36033
  -0.73619   0.13949   0.42018
  -0.73619   0.18438   0.45011
  -0.63144   0.16942   0.42018
  -0.67633   0.07963   0.42018
  -0.69130   0.12452   0.40522
  -0.64641   0.10956   0.34537
  -0.58655   0.18438   0.39026
  -0.61648   0.16942   0.27055
  -0.60152   0.13949   0.33040
  -0.63144   0.07963   0.37529
  -0.63144   0.12452   0.33040
  -0.72123   0.15445   0.33040
  -0.76612   0.10956   0.31544
  -0.79604   0.24423   0.34537
  -0.82597   0.18438   0.37529
  -0.84094   0.10956   0.42018
  -0.79604   0.15445   0.33040
  -0.69130   0.06467   0.39026
  -0.66137   0.10956   0.34537
  -0.55662   0.09460   0.27055
  -0.45188   0.03474   0.28551
  -0.37706  -0.01015   0.16580
  -0.27231  -0.09993   0.10594
  -0.19749  -0.05504  -0.05866
  -0.12268  -0.12986   0.00120
  -0.04786  -0.12986  -0.04369
  -0.04786  -0.23461  -0.07362
  -0.06282  -0.20468  -0.04369
   0.02696  -0.30942  -0.07362
   0.08682  -0.29446  -0.01377
   0.08682  -0.33935  -0.13348
   0.13171  -0.35432  -0.01377
   0.20653  -0.32439  -0.10355
   0.26638  -0.29446  -0.07362
   0.28135  -0.27950  -0.02873
   0.40106  -0.21964  -0.05866
   0.58062  -0.24957  -0.19333
   0.71530  -0.26453  -0.13348
   0.92479  -0.26453  -0.16340
   1.01457  -0.23461  -0.14844
   1.07443  -0.20468  -0.14844
   1.20910  -0.20468  -0.25319
   1.28392  -0.17475  -0.19333
   1.40363  -0.17475  -0.31304
   1.46348  -0.23461  -0.32800
   1.44852  -0.18971  -0.38786
   1.49341  -0.21964  -0.44771
   1.40363  -0.20468  -0.44771
   1.37370  -0.24957  -0.38786
   1.31385  -0.23461  -0.46268
   1.25399  -0.20468  -0.47764
   1.16421  -0.27950  -0.49261
   1.11932  -0.24957  -0.44771
   0.98464  -0.27950  -0.40282
   0.89486  -0.23461  -0.32800
   0.83501  -0.09993  -0.32800
   0.80508  -0.12986  -0.26815
   0.79011  -0.01015  -0.20829
   0.79011   0.01978  -0.31304
   0.73026   0.00481  -0.28311
   0.74522   0.07963  -0.32800
   0.80508   0.07963  -0.38786
   0.73026   0.04971  -0.37290
   0.65544   0.00481  -0.50757
   0.64048   0.01978  -0.44771
   0.61055  -0.04008  -0.55246
   0.56566  -0.07000  -0.56742
   0.41602  -0.07000  -0.56742
   0.32624  -0.12986  -0.49261
   0.23645  -0.11490  -0.50757
   0.11674  -0.08497  -0.43275
   0.01200  -0.18971  -0.41779
  -0.07778  -0.15979  -0.38786
  -0.09275  -0.15979  -0.44771
  -0.16757  -0.09993  -0.35793
  -0.25735  -0.08497  -0.40282
  -0.31720  -0.02511  -0.35793
  -0.34713  -0.02511  -0.31304
  -0.42195   0.00481  -0.34297
  -0.51173   0.06467  -0.31304
  -0.60152   0.13949  -0.32800
  -0.66137   0.13949  -0.32800
  -0.76612   0.16942  -0.29808
  -0.81101   0.16942  -0.34297
  -0.87086   0.15445  -0.26815
  -0.93072   0.10956  -0.10355
  -0.90079   0.07963  -0.11851
  -0.88583   0.07963   0.00120
  -0.88583  -0.07000   0.04609
  -0.84094  -0.07000   0.06105
  -0.79604  -0.05504   0.15084
  -0.79604   0.00481   0.15084
  -0.70626   0.03474   0.22566
  -0.61648   0.04971   0.25558
  -0.54166  -0.01015   0.34537
  -0.51173  -0.04008   0.39026
  -0.42195   0.04971   0.31544
  -0.42195  -0.01015   0.42018
  -0.34713  -0.01015   0.39026
  -0.39202   0.00481   0.46508
  -0.42195   0.03474   0.48004
  -0.34713   0.09460   0.53989
  -0.37706   0.19934   0.59975
  -0.36210   0.30409   0.62968
  -0.37706   0.37891   0.73442
  -0.33217   0.39387   0.73442
  -0.36210   0.43876   0.80924
  -0.25735   0.45373   0.76435
  -0.24239   0.51358   0.80924
  -0.24239   0.51358   0.76435
  -0.19749   0.46869   0.76435
  -0.18253   0.58840   0.71946
  -0.18253   0.49862   0.67457
  -0.15260   0.52855   0.68953
  -0.09275   0.49862   0.74939
  -0.12268   0.40884   0.71946
  -0.10771   0.37891   0.70450
  -0.13764   0.42380   0.73442
  -0.10771   0.39387   0.76435
  -0.12268   0.36394   0.79428
  -0.04786   0.28913   0.83917
  -0.06282   0.30409   0.91399
  -0.09275   0.24423   0.97384
  -0.12268   0.22927   1.01873
  -0.04786   0.27416   0.95888
   0.08682   0.16942   0.98881
   0.13171   0.21431   0.91399
   0.26638   0.15445   0.77931
   0.37113   0.07963   0.73442
   0.44595   0.18438   0.59975
   0.52077   0.13949   0.45011
   0.56566   0.04971   0.36033
   0.49084   0.10956   0.24062
   0.52077   0.03474   0.16580
   0.46091  -0.11490   0.10594
   0.29631  -0.15979   0.10594
   0.29631  -0.24957   0.07602
   0.16164  -0.26453   0.10594
   0.05689  -0.30942   0.15084
  -0.09275  -0.24957   0.13587
  -0.16757  -0.18971   0.16580
  -0.28728  -0.11490   0.19573
  -0.39202   0.01978   0.18076
  -0.42195  -0.01015   0.21069
  -0.45188   0.01978   0.10594
  -0.55662   0.06467  -0.10355
  -0.45188  -0.01015  -0.11851
  -0.43691   0.00481  -0.29808
  -0.39202  -0.09993  -0.41779
  -0.24239  -0.14482  -0.47764
  -0.22742  -0.20468  -0.67217
  -0.18253  -0.32439  -0.80684
  -0.15260  -0.36928  -0.89663
  -0.12268  -0.36928  -0.98641
  -0.18253  -0.48899  -0.97145
  -0.21246  -0.45906  -0.98641
  -0.16757  -0.53388  -1.01634
  -0.25735  -0.51892  -0.94152
  -0.28728  -0.42913  -1.01634
  -0.33217  -0.41417  -0.94152
  -0.37706  -0.38424  -0.92655
  -0.39202  -0.27950  -0.94152
  -0.33217  -0.23461  -0.97145
  -0.37706  -0.14482  -0.94152
  -0.34713  -0.12986  -1.03130
  -0.28728  -0.09993  -1.00137
  -0.25735  -0.05504  -0.98641
  -0.16757   0.00481  -1.06123
  -0.15260  -0.07000  -1.10612
   0.01200  -0.11490  -1.12108
   0.01200  -0.17475  -1.18094
   0.08682  -0.20468  -1.19590
   0.10178  -0.27950  -1.04626
   0.16164  -0.26453  -1.04626
   0.17660  -0.24957  -1.01634
   0.31127  -0.26453  -1.01634
   0.35617  -0.26453  -1.04626
   0.40106  -0.27950  -0.98641
   0.46091  -0.21964  -0.97145
   0.59559  -0.26453  -0.86670
   0.64048  -0.29446  -0.82181
   0.80508  -0.32439  -0.82181
   0.90982  -0.36928  -0.83677
   0.99961  -0.29446  -0.86670
   1.14924  -0.27950  -0.88166
   1.22406  -0.23461  -0.89663
   1.31385  -0.17475  -0.86670
   1.41859  -0.11490  -0.89663
   1.49341  -0.09993  -0.88166
   1.59816  -0.08497  -0.89663
   1.64305   0.00481  -0.92655
   1.67298   0.00481  -0.89663
   1.80765   0.01978  -0.89663
   1.80765  -0.02511  -0.82181
   1.76276   0.01978  -0.80684
   1.85254  -0.04008  -0.74699
   1.82261   0.03474  -0.71706
   1.86750   0.00481  -0.71706
   1.88247   0.07963  -0.65721
   1.89743   0.00481  -0.53750
   1.79269   0.00481  -0.49261
   1.77772   0.03474  -0.41779
   1.71787   0.09460  -0.31304
   1.67298   0.04971  -0.28311
   1.55327   0.09460  -0.13348
   1.47845   0.01978  -0.22326
   1.35874  -0.01015  -0.11851
   1.23903  -0.05504  -0.16340
   1.11932   0.00481  -0.13348
   0.93975   0.10956  -0.14844
   0.79011   0.07963  -0.11851
   0.71530   0.24423  -0.17837
   0.59559   0.27416  -0.07362
   0.52077   0.21431  -0.16340
   0.41602   0.18438  -0.10355
   0.40106   0.22927  -0.11851
   0.31127   0.22927  -0.08858
   0.19156   0.27416   0.00120
   0.07185   0.33402   0.01616
  -0.03289   0.42380   0.18076
  -0.21246   0.42380   0.12091
  -0.36210   0.39387   0.27055
  -0.54166   0.40884   0.34537
  -0.73619   0.46869   0.42018
  -0.90079   0.42380   0.52493
  -1.12525   0.49862   0.50997
  -1.22999   0.45373   0.56982
  -1.40956   0.52855   0.56982
  -1.46941   0.46869   0.62968
  -1.58912   0.48365   0.73442
  -1.72380   0.46869   0.64464
  -1.84351   0.46869   0.77931
  -1.90336   0.45373   0.70450
  -1.90336   0.42380   0.74939
  -1.88840   0.42380   0.74939
  -1.91833   0.37891   0.76435
  -1.85847   0.33402   0.76435
  -1.81358   0.21431   0.76435
  -1.84351   0.19934   0.76435
  -1.75373   0.13949   0.71946
  -1.72380   0.09460   0.77931
  -1.67891   0.06467   0.77931
  -1.57416  -0.02511   0.79428
  -1.66394   0.03474   0.79428
  -1.60409   0.07963   0.76435
  -1.63402   0.15445   0.79428
  -1.60409   0.13949   0.79428
  -1.58912   0.22927   0.80924
  -1.51431   0.19934   0.73442
  -1.37963   0.21431   0.82421
  -1.30481   0.18438   0.80924
  -1.25992   0.21431   0.80924
  -1.11028   0.19934   0.70450
  -1.09532   0.19934   0.74939
  -0.90079   0.09460   0.71946
  -0.81101   0.07963   0.68953
  -0.75115   0.00481   0.62968
  -0.69130  -0.11490   0.64464
  -0.57159  -0.15979   0.55486
  -0.55662  -0.21964   0.50997
  -0.51173  -0.29446   0.37529
  -0.42195  -0.30942   0.25558
  -0.37706  -0.36928   0.19573
  -0.31720  -0.41417   0.10594
  -0.28728  -0.42913   0.10594
  -0.22742  -0.41417   0.07602
  -0.15260  -0.36928   0.01616
  -0.09275  -0.24957  -0.01377
   0.02696  -0.32439   0.03113
   0.16164  -0.30942   0.03113
   0.25142  -0.35432  -0.01377
   0.41602  -0.32439  -0.01377
   0.53573  -0.35432  -0.07362
   0.68537  -0.35432  -0.14844
   0.73026  -0.41417  -0.16340
   0.82004  -0.35432  -0.29808
   0.92479  -0.35432  -0.34297
   0.98464  -0.33935  -0.38786
   1.13428  -0.32439  -0.49261
   1.10435  -0.27950  -0.65721
   1.11932  -0.27950  -0.70210
   1.10435  -0.18971  -0.85174
   1.07443  -0.20468  -0.89663
   1.01457  -0.09993  -0.97145
   0.87990  -0.09993  -1.01634
   0.83501  -0.05504  -1.07619
   0.79011  -0.11490  -1.06123
   0.67040  -0.02511  -1.10612
   0.64048  -0.09993  -1.04626
   0.47588  -0.21964  -1.03130
   0.40106  -0.17475  -1.03130
   0.31127  -0.17475  -1.09116
   0.25142  -0.24957  -1.10612
   0.16164  -0.21964  -1.10612
   0.11674  -0.18971  -1.18094
   0.10178  -0.20468  -1.16597
   0.05689  -0.18971  -1.19590
   0.02696  -0.20468  -1.33058
   0.01200  -0.21964  -1.28568
   0.10178  -0.23461  -1.33058
   0.04193  -0.29446  -1.31561
  -0.03289  -0.21964  -1.33058
   0.04193  -0.21964  -1.31561
   0.11674  -0.17475  -1.16597
   0.08682  -0.11490  -1.19590
   0.11674  -0.12986  -1.16597
   0.01200  -0.12986  -1.10612
  -0.04786  -0.15979  -1.06123
  -0.12268  -0.07000  -1.03130
  -0.16757  -0.07000  -0.98641
  -0.25735  -0.11490  -1.00137
  -0.33217  -0.08497  -0.88166
  -0.48181  -0.14482  -0.83677
  -0.60152  -0.05504  -0.77692
  -0.72123  -0.04008  -0.77692
  -0.85590   0.10956  -0.71706
  -0.93072   0.04971  -0.59735
  -0.96065   0.13949  -0.55246
  -0.91575   0.13949  -0.46268
  -1.00554   0.06467  -0.41779
  -0.97561   0.00481  -0.38786
  -0.96065   0.04971  -0.25319
  -1.06539   0.00481  -0.22326
  -1.09532   0.07963  -0.14844
  -1.05043   0.10956  -0.08858
  -1.12525   0.13949   0.04609
  -0.96065   0.18438   0.06105
  -0.94568   0.07963   0.13587
  -0.90079   0.10956   0.13587
  -0.78108  -0.01015   0.24062
  -0.78108   0.06467   0.30047
  -0.67633   0.07963   0.36033
  -0.69130   0.10956   0.37529
  -0.58655   0.09460   0.43515
  -0.55662   0.16942   0.49500
  -0.42195   0.09460   0.59975
  -0.39202   0.16942   0.65960
  -0.31720   0.12452   0.64464
  -0.27231   0.25920   0.76435
  -0.19749   0.27416   0.76435
  -0.18253   0.45373   0.80924
  -0.00297   0.43876   0.82421
   0.01200   0.49862   0.80924
   0.05689   0.46869   0.89902
   0.17660   0.48365   0.80924
   0.16164   0.54351   0.89902
   0.26638   0.55847   0.85413
   0.29631   0.60336   0.80924
   0.43098   0.58840   0.79428
   0.49084   0.70811   0.79428
   0.65544   0.64826   0.80924
   0.73026   0.60336   0.83917
   0.82004   0.52855   0.82421
   0.80508   0.48365   0.80924
   0.83501   0.39387   0.82421
   0.84997   0.34898   0.85413
   0.83501   0.22927   0.85413
   0.74522   0.15445   0.92895
   0.70033   0.13949   0.88406
   0.67040   0.12452   0.92895
   0.70033   0.16942   0.95888
   0.71530   0.16942   0.85413
   0.76019   0.16942   0.74939
   0.74522   0.16942   0.79428
   0.73026   0.16942   0.77931
   0.73026   0.13949   0.82421
   0.76019   0.13949   0.73442
   0.73026   0.13949   0.73442
   0.82004   0.04971   0.67457
   0.77515   0.15445   0.58479
   0.83501   0.04971   0.56982
   0.80508   0.03474   0.52493
   0.84997  -0.02511   0.52493
   0.76019  -0.11490   0.50997
   0.62551  -0.20468   0.49500
   0.49084  -0.18971   0.43515
   0.28135  -0.23461   0.49500
   0.14667  -0.32439   0.50997
  -0.07778  -0.30942   0.55486
  -0.27231  -0.36928   0.62968
  -0.43691  -0.24957   0.67457
  -0.58655  -0.33935   0.74939
  -0.66137  -0.32439   0.85413
  -0.78108  -0.30942   0.86910
