********************************************************************************
              CENTRO DE INSTRUMENTACION Y REGISTRO SISMICO  A.C.

    Anaxagoras 814, Col. Narvarte, Benito Juarez, C.P. 03020 Mexico, D.F.
           Tels. 5687 45 42/ 5687 45  82             Fax. 5669 25 12
********************************************************************************
ARCHIVO ESTANDAR DE ACELERACION:
VERSION DEL FORMATO                    : 2.0
NOMBRE DEL ARCHIVO                     : AE0220130422011634
FECHA Y HORA DE CREACION               : 06/MAY/13, 11:44
REF. CATALOGO ACELEROGRAMAS, SMIS 1996 : REGISTRO No.     /PAG.


================================================================================
DATOS DE LA ESTACION:
NOMBRE DE LA ESTACION                  : ESC. PRIM. "GONZÁLEZ GARZÓN"
CLAVE DE LA ESTACION                   : AE02
LOCALIZACION DE LA ESTACION            : Del. Venustiano Carranza,              
                                       : Col. El Arenal 4a. Sección,            
                                       : Calle Xico esq. con calle Xocoyote.    
                                       :                                        
                                       : 
COORDENADAS DE LA ESTACION             : 19.4290 LAT. N
                                       : 99.0584 LONG. W
ALTITUD (msnm)                         : 2232
TIPO DE SUELO                          : Arcilloso, zona lago                
                                       :                           
                                       : 
INSTITUCION RESPONSABLE                : CIRES
                                       : 

================================================================================
DATOS DEL ACELEROGRAFO:
MODELO DEL ACELEROGRAFO                : RADESD
NUMERO DE SERIE DEL ACELEROGRAFO       : 242
NUMERO DE CANALES                      : 3
ORIENTACION C1-C6 (rumbo;orientacion)  : /N00E/+V/N90W
ORIENTACION C7-C12 (rumbo;orientacion) : 
VEL. DE MUESTREO, C1-C6 (muestras/s)   : /100/100/100
VEL. DE MUESTREO, C7-C12 (muestras/s)  : 
ESC. COMPLETA DE SENSORES, C1-C6, (g)  : /0.5/0.5/0.5
ESC. COMPLETA DE SENSORES, C7-C12, (g) : 
FREC. NAT. DE SENSORES, C1-C6, (Hz)    : /30/30/30
FREC. NAT. DE SENSORES, C7-C12, (Hz)   : 
AMORTIGUAMIENTO DE SENSORES, C1-C6     : /0.733/0.750/0.700
AMORTIGUAMIENTO DE SENSORES, C7-C12    : 
INTERVALO DE MUESTREO, C1-C6, (s)      : /0.01/0.01/0.01
INTERVALO DE MUESTREO, C7-C12, (s)     : 
UMBRAL DE DISPARO, C1-C6, (Gal)        : /26.34/153.23/43.1
UMBRAL DE DISPARO, C7-C12, (Gal)       : 
MEMORIA DE PREEVENTO (s)               : 56.0
TIEMPO DE POSEVENTO (s)                : 80.0


================================================================================
DATOS DEL SISMO:
FECHA DEL SISMO (GMT)                  : 22/ABR/13
HORA EPICENTRO (GMT)                   : 01:16:34.0
MAGNITUD(ES)                           : /Mc=5.8
COORDENADAS DEL EPICENTRO              : 17.87 LAT. N
                                       : 102.19 LONG. W
PROFUNDIDAD FOCAL (km)                 : 10
FUENTE DE LOS DATOS EPICENTRALES       : SSN
                                       : INSTITUTO DE GEOFISICA, UNAM

================================================================================
DATOS DE ESTE REGISTRO:
HORA DE LA PRIMERA MUESTRA (GMT)       : 01:18:18.00
EXACTITUD DEL TIEMPO (s)               : 0.01
DURACION DEL REGISTRO (s), C1-C6       : /266.0/266.0/266.0
DURACION DEL REGISTRO (s), C7-C12      : 
NUM. TOTAL DE MUESTRAS, C1-C6          : /26600/26600/26600
NUM. TOTAL DE MUESTRAS, C7-C12         : 
ACEL. MAX. (Gal), C1-C6                : /6.86246/2.21874/6.32543
ACEL. MAX., C1-C6, EN LA MUESTRA       : /7352/6619/6587
ACEL. MAX. (Gal), C7-C12               : 
ACEL. MAX., C7-C12, EN LA MUESTRA      : 
UNIDADES DE LOS DATOS                  : Gal (cm/s/s)
FACTOR DE DECIMACION                   : 1
FORMATO DATOS (FORTRAN,10 campos/dato) : 3F10.5


================================================================================
CALIDAD DEL ACELEROGRAMA:
REGISTRO DIGITAL COMPLETO CON TIEMPO ABSOLUTO CORRECTO.


================================================================================
COMENTARIOS:














================================================================================
DATOS DE ACELERACION:
---------+---------+---------+---------+---------+---------+---------+---------+
   CANAL-1   CANAL-2   CANAL-3   CANAL-4   CANAL-5   CANAL-6   CANAL-7   CANAL-8
      N00E        +V      N90W
---------+---------+---------+---------+---------+---------+---------+---------+
[...]
   0.63438   0.91690  -1.07315
   0.72417   0.84208  -1.29761
   0.78402   0.79719  -1.49214
   0.82891   0.73733  -1.67170
   0.84388   0.67748  -1.77645
   0.87380   0.55777  -1.92609
   0.87380   0.46798  -2.09069
   0.87380   0.37820  -2.24032
   0.84388   0.30338  -2.37500
   0.81395   0.18367  -2.52464
   0.78402   0.10885  -2.67427
   0.72417  -0.01086  -2.79398
   0.66431  -0.10064  -2.91369
   0.60446  -0.19042  -3.01844
   0.58949  -0.31013  -3.12319
   0.52964  -0.38495  -3.16808
   0.43986  -0.47473  -3.24290
   0.36504  -0.57948  -3.27282
   0.32015  -0.63934  -3.30275
   0.23036  -0.68423  -3.34764
   0.18547  -0.75905  -3.31772
   0.11065  -0.81890  -3.28779
   0.05080  -0.90868  -3.27282
  -0.03898  -0.96854  -3.19801
  -0.11380  -1.04336  -3.16808
  -0.18862  -1.08825  -3.09326
  -0.30833  -1.13314  -3.00348
  -0.42804  -1.17803  -2.94362
  -0.48790  -1.17803  -2.82391
  -0.60761  -1.19299  -2.74909
  -0.75725  -1.25285  -2.65931
  -0.84703  -1.25285  -2.59945
  -0.95177  -1.25285  -2.53960
  -1.07148  -1.29774  -2.50967
  -1.14630  -1.28278  -2.41989
  -1.25105  -1.28278  -2.37500
  -1.31090  -1.26781  -2.31514
  -1.37076  -1.25285  -2.27025
  -1.37076  -1.22292  -2.22536
  -1.35580  -1.17803  -2.15054
  -1.38572  -1.11818  -2.07572
  -1.35580  -1.05832  -2.00090
  -1.29594  -1.02839  -1.92609
  -1.25105  -0.98350  -1.88119
  -1.16127  -0.90868  -1.82134
  -1.05652  -0.86379  -1.73156
  -0.96674  -0.80394  -1.68667
  -0.87696  -0.75905  -1.59688
  -0.80214  -0.71415  -1.53703
  -0.72732  -0.66926  -1.49214
  -0.57768  -0.62437  -1.43228
  -0.50286  -0.59444  -1.38739
  -0.35322  -0.56452  -1.35746
  -0.20359  -0.54955  -1.31257
  -0.06891  -0.54955  -1.26768
   0.05080  -0.53459  -1.23775
   0.20044  -0.57948  -1.23775
   0.30518  -0.54955  -1.23775
   0.45482  -0.56452  -1.22279
   0.57453  -0.56452  -1.22279
   0.69424  -0.56452  -1.23775
   0.79899  -0.54955  -1.25272
   0.91870  -0.54955  -1.25272
   0.97855  -0.56452  -1.28264
   1.08330  -0.54955  -1.34250
   1.14315  -0.54955  -1.38739
   1.20301  -0.53459  -1.41732
   1.26286  -0.53459  -1.46221
   1.30775  -0.51963  -1.50710
   1.32272  -0.53459  -1.53703
   1.36761  -0.56452  -1.53703
   1.38257  -0.57948  -1.62681
   1.42746  -0.60941  -1.67170
   1.44243  -0.59444  -1.71659
   1.47236  -0.60941  -1.73156
   1.53221  -0.62437  -1.77645
   1.59207  -0.63934  -1.77645
   1.62199  -0.63934  -1.79141
   1.68185  -0.63934  -1.79141
   1.77163  -0.65430  -1.83630
   1.81652  -0.63934  -1.85127
   1.87638  -0.65430  -1.83630
   1.92127  -0.63934  -1.85127
   1.96616  -0.56452  -1.83630
   2.02601  -0.54955  -1.83630
   2.05594  -0.54955  -1.82134
   2.07091  -0.53459  -1.82134
   2.10083  -0.51963  -1.83630
   2.10083  -0.48970  -1.82134
   2.10083  -0.41488  -1.80638
   2.13076  -0.36999  -1.79141
   2.08587  -0.31013  -1.77645
   2.10083  -0.29517  -1.79141
   2.08587  -0.25028  -1.76148
   2.08587  -0.22035  -1.74652
   2.11580  -0.20539  -1.71659
   2.13076  -0.16049  -1.65674
   2.13076  -0.13057  -1.65674
   2.17565  -0.08568  -1.65674
   2.23551  -0.07071  -1.61185
   2.29536  -0.02582  -1.58192
   2.34025   0.00411  -1.53703
   2.41507   0.01907  -1.50710
   2.51982   0.04900  -1.47717
   2.57967   0.09389  -1.43228
   2.68442   0.07893  -1.41732
   2.78917   0.10885  -1.43228
   2.87895   0.12382  -1.38739
   3.01362   0.12382  -1.35746
   3.11837   0.09389  -1.31257
   3.20815   0.12382  -1.31257
   3.26801   0.12382  -1.26768
   3.37275   0.10885  -1.22279
   3.43261   0.10885  -1.13301
   3.50743   0.09389  -1.08812
   3.55232   0.09389  -1.02826
   3.62714   0.09389  -0.96841
   3.65706   0.10885  -0.90855
   3.70196   0.10885  -0.86366
   3.73188   0.09389  -0.78884
   3.73188   0.09389  -0.71402
   3.73188   0.09389  -0.62424
   3.74685   0.12382  -0.59431
   3.77677   0.12382  -0.53446
   3.77677   0.15374  -0.44467
   3.74685   0.18367  -0.35489
   3.76181   0.16871  -0.31000
   3.70196   0.18367  -0.25014
   3.70196   0.19864  -0.17533
   3.68699   0.21360  -0.11547
   3.65706   0.22856  -0.04065
   3.61217   0.24353   0.03417
   3.56728   0.25849   0.13891
   3.50743   0.27345   0.19877
   3.44757   0.25849   0.28855
   3.38772   0.22856   0.39330
   3.31290   0.21360   0.46812
   3.22312   0.19864   0.52797
   3.13333   0.16871   0.58783
   3.10341   0.12382   0.66264
   3.01362   0.09389   0.72250
   2.92384   0.09389   0.79732
   2.80413   0.06396   0.79732
   2.69938   0.03403   0.88710
   2.62456   0.01907   0.91703
   2.51982   0.01907   0.96192
   2.38514   0.00411   1.02178
   2.29536  -0.01086   1.09659
   2.17565  -0.02582   1.15645
   2.07091  -0.04078   1.24623
   1.96616  -0.02582   1.32105
   1.83149  -0.04078   1.41083
   1.77163  -0.05575   1.50062
   1.65192  -0.04078   1.63529
   1.44243  -0.04078   1.72507
   1.35265  -0.02582   1.81485
   1.27783  -0.04078   1.87471
   1.21797  -0.02582   1.97946
   1.11323  -0.01086   2.06924
   1.03841   0.00411   2.14406
   0.97855   0.01907   2.21888
   0.88877   0.07893   2.27873
   0.82891   0.10885   2.36851
   0.72417   0.16871   2.39844
   0.66431   0.15374   2.47326
   0.58949   0.16871   2.57801
   0.52964   0.21360   2.60793
   0.51467   0.21360   2.68275
   0.43986   0.22856   2.74261
   0.38000   0.24353   2.80246
   0.39496   0.25849   2.83239
   0.30518   0.24353   2.86232
   0.27525   0.24353   2.90721
   0.26029   0.24353   2.90721
   0.20044   0.24353   2.90721
   0.14058   0.27345   2.89225
   0.11065   0.28842   2.84735
   0.03583   0.31835   2.80246
  -0.00906   0.34827   2.72764
  -0.05395   0.36324   2.66779
  -0.09884   0.37820   2.60793
  -0.12877   0.40813   2.54808
  -0.17366   0.43806   2.48822
  -0.20359   0.45302   2.39844
  -0.21855   0.48295   2.35355
  -0.23351   0.48295   2.30866
  -0.23351   0.51287   2.29369
  -0.26344   0.54280   2.24880
  -0.21855   0.51287   2.24880
  -0.21855   0.54280   2.21888
  -0.18862   0.51287   2.24880
  -0.15869   0.54280   2.24880
  -0.11380   0.51287   2.23384
  -0.09884   0.49791   2.23384
  -0.05395   0.46798   2.23384
  -0.02402   0.46798   2.21888
   0.00591   0.46798   2.21888
   0.05080   0.45302   2.17398
   0.09569   0.46798   2.15902
   0.12562   0.45302   2.11413
   0.14058   0.45302   2.05427
   0.15554   0.42309   1.97946
   0.21540   0.40813   1.91960
   0.23036   0.40813   1.82982
   0.23036   0.36324   1.76996
   0.21540   0.33331   1.66522
   0.20044   0.31835   1.59040
   0.18547   0.27345   1.50062
   0.18547   0.21360   1.41083
   0.15554   0.16871   1.30609
   0.11065   0.13878   1.21630
   0.09569   0.07893   1.09659
   0.03583   0.04900   1.00681
  -0.05395   0.00411   0.88710
  -0.09884  -0.04078   0.76739
  -0.14373  -0.07071   0.66264
  -0.21855  -0.13057   0.52797
  -0.26344  -0.13057   0.42322
  -0.33826  -0.16049   0.30351
  -0.41308  -0.17546   0.21373
  -0.48790  -0.20539   0.13891
  -0.54775  -0.22035   0.07906
  -0.60761  -0.25028  -0.01072
  -0.65250  -0.28020  -0.10051
  -0.72732  -0.29517  -0.19029
  -0.75725  -0.29517  -0.22022
  -0.80214  -0.35502  -0.28007
  -0.84703  -0.35502  -0.29504
  -0.87696  -0.38495  -0.32496
  -0.89192  -0.41488  -0.36985
  -0.92185  -0.42984  -0.41475
  -0.92185  -0.41488  -0.44467
  -0.92185  -0.44481  -0.42971
  -0.96674  -0.44481  -0.44467
  -0.93681  -0.48970  -0.47460
  -0.95177  -0.50466  -0.47460
  -0.95177  -0.53459  -0.50453
  -0.95177  -0.53459  -0.51949
  -0.92185  -0.54955  -0.59431
  -0.92185  -0.56452  -0.59431
  -0.89192  -0.59444  -0.60927
  -0.84703  -0.60941  -0.60927
  -0.84703  -0.60941  -0.63920
  -0.83206  -0.62437  -0.65417
  -0.77221  -0.60941  -0.66913
  -0.74228  -0.62437  -0.65417
  -0.68243  -0.62437  -0.66913
  -0.59264  -0.62437  -0.63920
  -0.54775  -0.60941  -0.60927
  -0.50286  -0.62437  -0.60927
  -0.41308  -0.65430  -0.59431
  -0.35322  -0.65430  -0.53446
  -0.24848  -0.66926  -0.51949
  -0.12877  -0.66926  -0.50453
  -0.05395  -0.68423  -0.44467
  -0.00906  -0.69919  -0.41475
   0.09569  -0.69919  -0.35489
   0.20044  -0.69919  -0.31000
   0.26029  -0.69919  -0.22022
   0.38000  -0.72912  -0.16036
   0.46978  -0.74408  -0.11547
   0.55957  -0.74408  -0.05562
   0.61942  -0.75905   0.03417
   0.69424  -0.75905   0.12395
   0.79899  -0.74408   0.18380
   0.85884  -0.74408   0.24366
   0.90373  -0.75905   0.27359
   0.97855  -0.74408   0.30351
   1.00848  -0.71415   0.33344
   1.05337  -0.72912   0.39330
   1.08330  -0.69919   0.39330
   1.12819  -0.68423   0.39330
   1.15812  -0.68423   0.45315
   1.23294  -0.62437   0.46812
   1.29279  -0.57948   0.48308
   1.38257  -0.57948   0.51301
   1.42746  -0.56452   0.52797
   1.48732  -0.51963   0.57286
   1.54717  -0.47473   0.60279
   1.59207  -0.41488   0.69257
   1.66688  -0.34006   0.73746
   1.74170  -0.29517   0.79732
   1.80156  -0.23531   0.82725
   1.87638  -0.17546   0.88710
   1.92127  -0.13057   0.94696
   1.95120  -0.05575   0.93199
   2.04098  -0.01086   0.94696
   2.07091  -0.01086   0.97688
   2.10083   0.07893   0.97688
   2.08587   0.10885   0.99185
   2.11580   0.15374   0.96192
   2.13076   0.21360   1.00681
   2.11580   0.25849   0.99185
   2.08587   0.34827   0.96192
   2.07091   0.37820   1.00681
   2.07091   0.43806   1.00681
   2.02601   0.46798   1.03674
   1.96616   0.52784   1.12652
   1.87638   0.57273   1.14149
   1.80156   0.60266   1.20134
   1.71178   0.67748   1.26120
   1.59207   0.75229   1.33601
   1.44243   0.82711   1.39587
   1.29279   0.87200   1.47069
   1.12819   0.93186   1.53054
   0.94862   0.99171   1.59040
   0.79899   1.03661   1.63529
   0.60446   1.09646   1.62033
   0.40993   1.09646   1.66522
   0.18547   1.15632   1.66522
  -0.03898   1.18624   1.66522
  -0.26344   1.24610   1.68018
  -0.50286   1.27603   1.68018
  -0.71235   1.32092   1.68018
  -0.98170   1.35085   1.68018
  -1.23609   1.36581   1.69514
  -1.50543   1.39574   1.68018
  -1.75982   1.44063   1.69514
  -2.01420   1.45559   1.71011
  -2.29851   1.51545   1.74004
  -2.59779   1.54537   1.81485
  -2.86714   1.56034   1.84478
  -3.16641   1.60523   1.87471
  -3.42079   1.62019   1.90464
  -3.72007   1.65012   1.97946
  -3.98942   1.68005   2.02435
  -4.21387   1.68005   2.06924
  -4.48322   1.70998   2.08420
  -4.73761   1.69501   2.12909
  -4.97703   1.70998   2.15902
  -5.18652   1.73990   2.18895
  -5.42594   1.75487   2.20391
  -5.63543   1.73990   2.21888
  -5.78507   1.78479   2.24880
  -5.97960   1.79976   2.27873
  -6.12924   1.79976   2.27873
  -6.26391   1.78479   2.29369
  -6.36866   1.76983   2.29369
  -6.48837   1.73990   2.27873
  -6.57815   1.72494   2.27873
  -6.65297   1.68005   2.26377
  -6.69786   1.62019   2.21888
  -6.77268   1.59027   2.17398
  -6.78764   1.53041   2.06924
  -6.80260   1.47056   1.99442
  -6.83253   1.39574   1.90464
  -6.83253   1.36581   1.82982
  -6.86246   1.30595   1.68018
  -6.83253   1.24610   1.56047
  -6.80260   1.20121   1.41083
  -6.72779   1.12639   1.27616
  -6.65297   1.06653   1.14149
  -6.56318   0.99171   1.00681
  -6.50333   0.93186   0.84221
  -6.38362   0.84208   0.70754
  -6.26391   0.76726   0.55790
  -6.15916   0.69244   0.37833
  -6.00952   0.57273   0.21373
  -5.88981   0.49791   0.01920
  -5.75514   0.40813  -0.17533
  -5.59054   0.30338  -0.33993
  -5.44090   0.22856  -0.54942
  -5.27630   0.10885  -0.72898
  -5.08177  -0.01086  -0.90855
  -4.90221  -0.13057  -1.08812
  -4.78250  -0.25028  -1.29761
  -4.63286  -0.36999  -1.47717
  -4.43833  -0.47473  -1.68667
  -4.30366  -0.60941  -1.86623
  -4.16898  -0.71415  -2.06076
  -4.01934  -0.86379  -2.21040
  -3.89963  -1.02839  -2.27025
  -3.76496  -1.11818  -2.36003
  -3.64525  -1.14810  -2.58449
  -3.46569  -1.22292  -2.70420
  -3.36094  -1.34263  -2.80895
  -3.28612  -1.41745  -2.89873
  -3.15145  -1.50723  -3.04837
  -3.01677  -1.52220  -3.15311
  -2.92699  -1.56709  -3.27282
  -2.73246  -1.58205  -3.42246
  -2.58282  -1.61198  -3.52721
  -2.40326  -1.65687  -3.63195
  -2.29851  -1.65687  -3.73670
  -2.14887  -1.68680  -3.84145
  -1.99924  -1.70176  -3.96116
  -1.86456  -1.71673  -4.11079
  -1.69996  -1.73169  -4.20058
  -1.58025  -1.74665  -4.27540
  -1.41565  -1.73169  -4.33525
  -1.25105  -1.74665  -4.38014
  -1.14630  -1.70176  -4.45496
  -0.98170  -1.67183  -4.45496
  -0.87696  -1.61198  -4.46992
  -0.74228  -1.61198  -4.44000
  -0.65250  -1.55212  -4.39511
  -0.56272  -1.50723  -4.38014
  -0.45797  -1.44738  -4.36518
  -0.35322  -1.37256  -4.29036
  -0.26344  -1.29774  -4.23050
  -0.18862  -1.23789  -4.15569
  -0.09884  -1.19299  -4.09583
  -0.00906  -1.10321  -4.02101
   0.08073  -1.05832  -3.94619
   0.18547  -0.99847  -3.87137
   0.29022  -0.93861  -3.84145
   0.40993  -0.87876  -3.78159
   0.51467  -0.84883  -3.75166
   0.58949  -0.78897  -3.72174
   0.72417  -0.72912  -3.66188
   0.81395  -0.65430  -3.61699
   0.91870  -0.62437  -3.58706
   0.99351  -0.56452  -3.54217
   1.11323  -0.48970  -3.46735
   1.15812  -0.47473  -3.39253
   1.21797  -0.44481  -3.33268
   1.29279  -0.42984  -3.28779
   1.35265  -0.41488  -3.22793
   1.42746  -0.39991  -3.16808
   1.44243  -0.38495  -3.07830
   1.47236  -0.32510  -3.00348
   1.51725  -0.31013  -2.94362
   1.53221  -0.31013  -2.89873
   1.57710  -0.26524  -2.83888
   1.59207  -0.26524  -2.76406
   1.60703  -0.26524  -2.67427
   1.63696  -0.22035  -2.59945
   1.66688  -0.19042  -2.53960
   1.69681  -0.17546  -2.44982
   1.71178  -0.19042  -2.38996
   1.75667  -0.19042  -2.30018
   1.77163  -0.19042  -2.22536
   1.75667  -0.20539  -2.13558
   1.74170  -0.22035  -2.07572
   1.77163  -0.23531  -2.00090
   1.77163  -0.22035  -1.94105
   1.81652  -0.20539  -1.89616
   1.86141  -0.17546  -1.82134
   1.87638  -0.19042  -1.82134
   1.89134  -0.16049  -1.77645
   1.95120  -0.16049  -1.73156
   1.96616  -0.19042  -1.71659
   2.01105  -0.16049  -1.65674
   2.07091  -0.17546  -1.62681
   2.08587  -0.14553  -1.55199
   2.13076  -0.17546  -1.46221
   2.17565  -0.13057  -1.40235
   2.23551  -0.14553  -1.34250
   2.26543  -0.14553  -1.26768
   2.34025  -0.13057  -1.19286
   2.40011  -0.11560  -1.08812
   2.43004  -0.10064  -1.02826
   2.50485  -0.11560  -0.95344
   2.54975  -0.10064  -0.87862
   2.60960  -0.11560  -0.81877
   2.65449  -0.08568  -0.74395
   2.68442  -0.08568  -0.68409
   2.69938  -0.08568  -0.63920
   2.69938  -0.08568  -0.54942
   2.71435  -0.08568  -0.48956
   2.71435  -0.07071  -0.44467
   2.74427  -0.04078  -0.38482
   2.77420  -0.01086  -0.31000
   2.80413   0.04900  -0.23518
   2.80413   0.09389  -0.14540
   2.83406   0.12382  -0.05562
   2.89391   0.18367   0.01920
   2.87895   0.22856   0.09402
   2.95377   0.28842   0.16884
   3.02859   0.34827   0.27359
   3.07348   0.39316   0.33344
   3.11837   0.45302   0.40826
   3.22312   0.48295   0.46812
   3.23808   0.49791   0.54293
   3.31290   0.51287   0.63272
   3.37275   0.51287   0.67761
   3.43261   0.49791   0.76739
   3.49246   0.49791   0.84221
   3.56728   0.49791   0.93199
   3.58225   0.46798   1.02178
   3.59721   0.46798   1.08163
   3.68699   0.43806   1.17141
   3.73188   0.42309   1.23127
   3.74685   0.42309   1.32105
   3.79174   0.40813   1.39587
   3.82167   0.42309   1.45572
   3.83663   0.43806   1.50062
   3.86656   0.49791   1.56047
   3.89648   0.51287   1.59040
   3.94138   0.52784   1.63529
   3.98627   0.55777   1.68018
   3.97130   0.54280   1.68018
   4.00123   0.54280   1.69514
   3.98627   0.55777   1.71011
   3.95634   0.55777   1.71011
   3.92641   0.52784   1.71011
