********************************************************************************
               CENTRO DE INSTRUMENTACION Y REGISTRO SISMICO  A.C.  
                       Coordinacion de Servicios Tecnicos
     Anaxagoras 814, Col. Narvarte, Benito Juarez, C.P. 03020 Mexico, D.F.
            Tels. 687 45 42/ 687 45  82             Fax. 669 25 12
********************************************************************************
ARCHIVO ESTANDAR DE ACELERACION:
VERSION DEL FORMATO                    : 2.0
NOMBRE DEL ARCHIVO                     : AE029701.111
FECHA Y HORA DE CREACION               : 18/MAR/98, 13:30
REF. CATALOGO ACELEROGRAMAS, SMIS 1996 : REGISTRO No.     /PAG.


================================================================================
DATOS DE LA ESTACION:
NOMBRE DE LA ESTACION                  : AEROPUERTO
CLAVE DE LA ESTACION                   : AE02
LOCALIZACION DE LA ESTACION            : Esc Prim Gonzalez Garzon Calle Xico
                                       : s/n, Col. IV Seccion del Arenal
                                       : Venustiano Carranza
                                       :
                                       :
COORDENADAS DE LA ESTACION             : 19.429 LAT. N 
                                       : 99.058 LONG. W 
ALTITUD (msnm)                         : 2232
TIPO DE SUELO                          : ARCILLOSO, ZONA LAGO
                                       : 
                                       : 
INSTITUCION RESPONSABLE                : CIRES
                                       :

================================================================================
DATOS DEL ACELEROGRAFO:
MODELO DEL ACELEROGRAFO                : RAD-851
NUMERO DE SERIE DEL ACELEROGRAFO       : 242
NUMERO DE CANALES                      : 3
ORIENTACION C1-C6 (rumbo;orientacion)  : /N00E/+V/N90W
ORIENTACION C7-C12 (rumbo;orientacion) :
VEL. DE MUESTREO, C1-C6 (muestras/s)   : /100/100/100
VEL. DE MUESTREO, C7-C12 (muestras/s)  :
ESC. COMPLETA DE SENSORES, C1-C6, (g)  : /0.5/0.5/0.5
ESC. COMPLETA DE SENSORES, C7-C12, (g) :
FREC. NAT. DE SENSORES, C1-C6, (Hz)    : /30/30/30
FREC. NAT. DE SENSORES, C7-C12, (Hz)   :
AMORTIGUAMIENTO DE SENSORES, C1-C6     : /0.733/0.750/0.700
AMORTIGUAMIENTO DE SENSORES, C7-C12    :
INTERVALO DE MUESTREO, C1-C6, (s)      : /0.01/0.01/0.01
INTERVALO DE MUESTREO, C7-C12, (s)     :
UMBRAL DE DISPARO, C1-C6, (Gal)        : /2.44/3.91/2.44
UMBRAL DE DISPARO, C7-C12, (Gal)       :
MEMORIA DE PREEVENTO (s)               : 16
TIEMPO DE POSEVENTO (s)                : 48


================================================================================
DATOS DEL SISMO:
FECHA DEL SISMO (GMT)                  : 11/ENE/97
HORA EPICENTRO (GMT)                   : 20:28:27:2
MAGNITUD(ES)                           : /Ms=6.9
COORDENADAS DEL EPICENTRO              : 17.9 LAT. N
                                       : 103.0 LONG. W
PROFUNDIDAD FOCAL (km)                 : 16.0
FUENTE DE LOS DATOS EPICENTRALES       : SSN
                                       : INSTITUTO DE GEOFISICA, UNAM

================================================================================
DATOS DE ESTE REGISTRO:
HORA DE LA PRIMERA MUESTRA (GMT)       : 20:28:39.00
EXACTITUD DEL TIEMPO (s)               : 0.01
DURACION DEL REGISTRO (s), C1-C6       : /201.75/201.75/201.75
DURACION DEL REGISTRO (s), C7-C12      :
NUM. TOTAL DE MUESTRAS, C1-C6          : /20175/20175/20175
NUM. TOTAL DE MUESTRAS, C7-C12         :
ACEL. MAX. (Gal), C1-C6                : /20.60467/5.95360/23.05152
ACEL. MAX., C1-C6, EN LA MUESTRA       :
ACEL. MAX. (Gal), C7-C12               :
ACEL. MAX., C7-C12, EN LA MUESTRA      :
UNIDADES DE LOS DATOS                  : Gal (cm/s/s)
FACTOR DE DECIMACION                   : 1
FORMATO DATOS (FORTRAN,10 campos/dato) : 3F10.5


================================================================================
CALIDAD DEL ACELEROGRAMA:
REGISTRO DIGITAL COMPLETO CON TIEMPO ABSOLUTO CORRECTO.


================================================================================
COMENTARIOS:














================================================================================
DATOS DE ACELERACION:
---------+---------+---------+---------+---------+---------+---------+---------+
   CANAL-1   CANAL-2   CANAL-3   CANAL-4   CANAL-5   CANAL-6   CANAL-7   CANAL-8
      N00E        +V      N90W
---------+---------+---------+---------+---------+---------+---------+---------+
[...]
  -7.64676  -1.46839  -3.52399
  -7.40734  -1.70781  -3.52399
  -7.64676  -1.70781  -3.52399
  -7.40734  -1.46839  -3.28457
  -7.40734  -1.46839  -3.28457
  -7.40734  -1.46839  -3.28457
  -7.40734  -1.46839  -3.04515
  -6.92851  -1.46839  -3.28457
  -6.92851  -1.46839  -3.04515
  -6.68909  -1.46839  -2.80573
  -6.68909  -1.46839  -2.80573
  -6.44967  -1.22897  -2.80573
  -6.44967  -0.98955  -2.80573
  -5.97083  -0.75013  -2.56631
  -5.73141  -0.75013  -2.80573
  -5.49199  -0.27129  -2.80573
  -5.25257  -0.03188  -2.80573
  -5.01315   0.20754  -2.80573
  -4.77373   0.44696  -2.56631
  -4.53432   0.44696  -2.32689
  -4.29490   0.92580  -2.32689
  -3.81606   0.92580  -2.08747
  -3.33722   0.92580  -2.08747
  -3.09780   0.92580  -2.08747
  -2.85838   0.92580  -1.84805
  -2.61896   0.92580  -1.84805
  -2.37955   0.92580  -1.84805
  -1.90071   0.68638  -1.84805
  -1.90071   0.68638  -1.84805
  -1.42187   0.44696  -1.84805
  -1.18245   0.68638  -2.08747
  -0.94303   0.44696  -1.84805
  -0.70361   0.44696  -2.08747
  -0.46419   0.44696  -2.08747
   0.01464   0.44696  -2.32689
   0.25406   0.44696  -2.32689
   0.49348   0.44696  -2.56631
   0.49348   0.44696  -2.56631
   0.73290   0.44696  -2.56631
   0.97232   0.68638  -2.56631
   0.97232   0.44696  -2.56631
   1.21174   0.68638  -2.56631
   1.69058   0.44696  -2.56631
   1.69058   0.44696  -2.56631
   1.93000   0.68638  -2.56631
   1.93000   0.44696  -2.56631
   2.16941   0.44696  -2.32689
   2.40883   0.20754  -2.08747
   2.40883   0.20754  -2.32689
   2.64825  -0.03188  -2.08747
   2.88767  -0.03188  -2.08747
   3.12709  -0.03188  -2.08747
   3.12709   0.20754  -2.08747
   3.12709  -0.03188  -1.84805
   3.12709   0.20754  -1.84805
   3.12709   0.44696  -1.84805
   3.12709   0.68638  -1.60863
   3.12709   0.68638  -1.60863
   2.88767   1.16522  -1.60863
   2.88767   1.16522  -1.36922
   2.88767   1.40464  -1.36922
   2.64825   1.64406  -1.36922
   2.40883   1.40464  -1.36922
   1.93000   1.64406  -1.12980
   1.45116   1.40464  -0.89038
   1.45116   1.16522  -0.89038
   0.97232   1.16522  -0.65096
   0.49348   1.16522  -0.65096
   0.25406   0.92580  -0.41154
  -0.22477   0.92580  -0.41154
  -0.46419   0.68638  -0.41154
  -0.94303   0.92580  -0.17212
  -1.18245   0.68638   0.06730
  -1.90071   0.92580   0.06730
  -2.14013   0.68638   0.30672
  -2.61896   0.68638   0.30672
  -2.85838   0.68638   0.54614
  -3.09780   0.44696   0.54614
  -3.57664   0.68638   0.54614
  -3.57664   0.20754   0.78556
  -4.05548   0.44696   1.02497
  -4.05548   0.20754   1.26439
  -4.29490  -0.03188   1.50381
  -4.77373  -0.03188   1.74323
  -4.77373  -0.27129   1.98265
  -5.01315  -0.27129   2.22207
  -5.25257  -0.03188   2.22207
  -5.25257  -0.27129   2.46149
  -5.49199  -0.03188   2.70091
  -5.49199  -0.27129   2.94033
  -5.49199  -0.03188   2.70091
  -5.49199  -0.03188   2.70091
  -5.49199  -0.03188   2.70091
  -5.49199   0.20754   2.70091
  -5.49199   0.44696   2.46149
  -5.49199   0.44696   2.70091
  -5.25257   0.20754   2.70091
  -5.25257   0.20754   2.70091
  -5.25257   0.20754   2.46149
  -5.01315   0.20754   2.46149
  -4.77373   0.20754   2.22207
  -4.53432   0.20754   2.22207
  -4.29490  -0.03188   2.22207
  -4.29490  -0.03188   1.98265
  -3.81606  -0.03188   1.74323
  -3.57664  -0.03188   1.50381
  -3.09780  -0.27129   1.26439
  -2.85838  -0.27129   1.02497
  -2.37955  -0.75013   0.54614
  -1.90071  -0.75013   0.06730
  -1.66129  -0.98955  -0.17212
  -1.18245  -1.22897  -0.41154
  -0.94303  -1.22897  -0.89038
  -0.70361  -1.46839  -0.89038
  -0.22477  -1.70781  -1.36922
   0.01464  -1.70781  -1.60863
   0.49348  -1.94723  -1.84805
   0.49348  -1.94723  -2.08747
   0.73290  -1.94723  -2.32689
   1.21174  -1.94723  -2.32689
   1.21174  -2.18665  -2.56631
   1.69058  -2.18665  -2.32689
   1.45116  -2.18665  -2.80573
   1.69058  -2.18665  -2.08747
   1.93000  -2.18665  -2.80573
   1.69058  -1.94723  -2.56631
   1.93000  -2.18665  -2.80573
   1.93000  -2.18665  -3.04515
   1.93000  -1.94723  -3.28457
   1.93000  -1.94723  -3.52399
   1.93000  -1.70781  -3.52399
   1.93000  -1.70781  -3.76340
   1.93000  -1.70781  -4.00282
   1.69058  -1.46839  -4.24224
   1.69058  -1.46839  -4.48166
   1.93000  -1.46839  -4.72108
   1.69058  -0.98955  -5.19992
   1.93000  -0.98955  -5.43934
   1.93000  -0.98955  -5.43934
   1.93000  -0.98955  -5.67876
   1.69058  -0.98955  -5.91818
   1.93000  -0.98955  -5.91818
   1.93000  -0.98955  -5.91818
   1.69058  -0.75013  -5.91818
   1.93000  -0.98955  -6.15759
   1.69058  -0.98955  -6.15759
   1.69058  -1.22897  -6.15759
   1.45116  -1.22897  -6.63643
   1.21174  -1.46839  -6.63643
   1.21174  -1.46839  -6.87585
   0.97232  -1.46839  -7.11527
   0.73290  -1.22897  -7.11527
   0.49348  -1.46839  -7.11527
   0.25406  -1.22897  -7.11527
   0.01464  -1.22897  -7.11527
  -0.22477  -1.22897  -7.35469
  -0.46419  -0.98955  -7.35469
  -0.70361  -0.98955  -7.11527
  -0.94303  -0.75013  -7.11527
  -1.18245  -0.51071  -6.87585
  -1.42187  -0.51071  -6.87585
  -1.66129  -0.27129  -6.87585
  -1.66129  -0.03188  -6.87585
  -1.90071  -0.03188  -7.11527
  -2.14013   0.44696  -6.87585
  -1.90071   0.44696  -6.87585
  -2.14013   0.44696  -7.11527
  -2.14013   0.68638  -6.87585
  -2.61896   0.92580  -7.11527
  -2.61896   1.16522  -7.11527
  -2.61896   1.16522  -7.11527
  -2.85838   1.40464  -7.59411
  -3.33722   1.16522  -7.59411
  -3.33722   0.92580  -7.83353
  -3.57664   0.92580  -8.07295
  -3.57664   0.68638  -8.55178
  -3.81606   0.68638  -8.79120
  -4.05548   0.68638  -9.27004
  -3.81606   0.68638  -9.74888
  -4.29490   0.68638 -10.46714
  -4.05548   0.68638 -10.46714
  -4.05548   0.68638 -11.18539
  -4.05548   0.68638 -11.66423
  -4.05548   0.68638 -12.14307
  -3.81606   0.68638 -12.38249
  -3.81606   0.68638 -13.10074
  -3.57664   0.44696 -13.10074
  -3.33722   0.20754 -13.57958
  -3.57664   0.20754 -13.81900
  -3.33722  -0.03188 -14.05842
  -3.09780   0.20754 -14.29784
  -3.33722   0.20754 -14.53726
  -3.09780   0.20754 -14.53726
  -3.09780   0.20754 -14.77668
  -3.09780  -0.03188 -15.01610
  -3.09780  -0.03188 -15.01610
  -3.09780  -0.03188 -15.25551
  -2.85838  -0.03188 -15.49493
  -3.09780   0.20754 -15.73435
  -2.85838   0.20754 -15.73435
  -3.09780   0.44696 -15.97377
  -3.09780   0.44696 -16.21319
  -2.85838   0.68638 -16.45261
  -2.85838   0.20754 -16.69203
  -2.85838   0.20754 -16.93145
  -2.85838   0.44696 -17.41028
  -2.61896   0.44696 -17.41028
  -2.85838   0.44696 -17.64970
  -2.61896   0.20754 -17.88912
  -2.37955  -0.03188 -18.12854
  -2.37955  -0.03188 -18.36796
  -2.14013  -0.27129 -18.60738
  -1.90071  -0.03188 -19.08622
  -1.90071  -0.03188 -18.84680
  -1.66129  -0.03188 -19.32564
  -1.42187   0.20754 -19.32564
  -1.42187   0.20754 -19.56506
  -1.18245   0.20754 -19.56506
  -0.94303  -0.03188 -19.56506
  -0.70361  -0.03188 -19.56506
  -0.70361  -0.03188 -19.80447
  -0.46419  -0.27129 -19.32564
  -0.22477  -0.27129 -19.32564
   0.01464  -0.27129 -19.08622
   0.25406  -0.03188 -19.08622
   0.25406  -0.03188 -18.84680
   0.73290   0.20754 -18.60738
   0.49348   0.44696 -18.36796
   0.73290   0.68638 -18.12854
   0.97232   0.68638 -17.64970
   0.97232   0.68638 -17.17087
   0.97232   0.68638 -16.69203
   1.21174   0.44696 -16.21319
   0.97232   0.68638 -15.97377
   0.97232   0.92580 -15.25551
   0.97232   0.68638 -14.77668
   0.73290   0.92580 -14.29784
   0.97232   0.92580 -13.81900
   0.73290   0.92580 -13.57958
   0.49348   1.16522 -13.10074
   0.49348   1.16522 -12.62191
   0.25406   1.40464 -12.38249
   0.49348   1.64406 -12.14307
   0.01464   1.88348 -11.66423
   0.25406   1.88348 -11.18539
   0.01464   1.88348 -10.94597
  -0.22477   1.88348 -10.70655
   0.01464   1.88348 -10.22772
  -0.46419   1.64406  -9.98830
  -0.46419   1.64406  -9.27004
  -0.46419   1.40464  -9.03062
  -0.70361   1.64406  -8.55178
  -0.46419   1.40464  -8.31236
  -0.46419   1.16522  -7.83353
  -0.46419   1.40464  -7.59411
  -0.70361   1.40464  -7.11527
  -0.70361   1.16522  -6.63643
  -0.70361   1.40464  -6.39701
  -0.70361   1.40464  -5.67876
  -0.70361   1.16522  -5.19992
  -0.70361   1.40464  -4.72108
  -0.70361   1.16522  -4.24224
  -0.70361   1.40464  -3.52399
  -0.70361   1.40464  -3.04515
  -0.70361   1.40464  -2.56631
  -0.94303   1.40464  -1.84805
  -0.70361   1.16522  -1.36922
  -0.70361   1.16522  -0.89038
  -0.94303   1.40464  -0.17212
  -0.94303   1.40464   0.30672
  -0.94303   1.64406   0.54614
  -0.94303   1.64406   1.26439
  -0.46419   1.40464   1.26439
  -0.46419   1.64406   1.74323
  -0.46419   1.88348   2.22207
  -0.46419   1.88348   2.46149
  -0.46419   2.12290   3.17974
  -0.46419   1.88348   3.65858
  -0.46419   2.12290   3.89800
  -0.46419   1.88348   4.37684
  -0.22477   1.88348   4.85568
  -0.22477   1.64406   5.33452
  -0.22477   1.64406   5.81335
  -0.46419   1.40464   6.29219
  -0.22477   1.40464   6.53161
  -0.22477   1.16522   6.77103
   0.01464   0.92580   7.24987
  -0.22477   0.92580   7.72870
   0.01464   0.68638   7.96812
   0.01464   0.68638   8.44696
  -0.22477   0.44696   8.68638
   0.01464   0.20754   8.92580
   0.01464  -0.03188   9.16522
   0.01464  -0.27129   9.40464
   0.25406  -0.51071   9.64406
   0.01464  -0.51071   9.88348
   0.01464  -0.98955  10.12289
  -0.22477  -1.22897  10.36231
   0.01464  -1.46839  10.60173
   0.01464  -1.70781  10.84115
   0.01464  -1.70781  11.08057
   0.25406  -1.94723  11.31999
   0.25406  -1.94723  11.79883
   0.01464  -1.94723  12.03825
   0.01464  -1.70781  12.51708
   0.25406  -1.94723  12.75650
   0.01464  -1.94723  12.99592
   0.01464  -1.94723  13.47476
   0.01464  -1.70781  13.47476
   0.01464  -1.70781  13.71418
  -0.22477  -1.70781  14.19302
  -0.46419  -1.70781  14.43244
  -0.46419  -1.70781  14.67185
  -0.70361  -1.70781  14.91127
  -0.70361  -1.70781  15.15069
  -0.70361  -1.46839  15.39011
  -0.94303  -1.70781  15.86895
  -1.18245  -1.70781  16.10837
  -1.18245  -1.70781  16.34779
  -1.42187  -1.70781  16.58721
  -1.42187  -1.94723  16.82662
  -1.66129  -1.94723  16.82662
  -1.42187  -1.94723  17.30546
  -1.66129  -1.94723  17.30546
  -1.66129  -1.70781  17.54488
  -1.66129  -1.94723  17.54488
  -1.66129  -1.94723  17.54488
  -1.66129  -1.94723  17.30546
  -1.42187  -1.94723  17.78430
  -1.42187  -1.94723  17.78430
  -1.18245  -2.18665  17.78430
  -1.18245  -2.18665  18.02372
  -0.94303  -2.42606  18.26314
  -0.94303  -1.94723  18.26314
  -0.70361  -2.18665  18.74198
  -0.46419  -1.94723  18.74198
  -0.46419  -1.70781  19.22081
  -0.46419  -1.94723  19.46023
  -0.22477  -1.70781  20.17849
  -0.22477  -1.46839  20.41791
   0.01464  -1.22897  20.89675
   0.01464  -1.22897  21.37558
   0.25406  -0.98955  21.61500
   0.25406  -0.75013  22.09384
   0.25406  -0.75013  22.33326
   0.49348  -0.51071  22.57268
   0.49348  -0.51071  22.81210
   0.49348  -0.27129  22.81210
   0.73290  -0.51071  23.05152
   0.73290  -0.27129  23.05152
   1.21174  -0.03188  23.05152
   1.21174  -0.03188  23.05152
   1.45116  -0.03188  23.05152
   1.45116  -0.03188  22.57268
   1.45116   0.44696  22.81210
   1.45116   0.44696  22.57268
   1.69058   0.68638  22.81210
   1.69058   0.44696  22.81210
   1.69058   0.44696  22.57268
   1.69058   0.68638  22.57268
   1.93000   0.44696  22.57268
   1.69058   0.44696  22.57268
   1.69058   0.68638  22.57268
   1.93000   0.44696  22.57268
   1.69058   0.44696  22.33326
   1.69058   0.44696  22.57268
   1.69058   0.44696  22.33326
   1.45116   0.68638  22.09384
   1.45116   0.68638  22.09384
   1.21174   0.68638  21.61500
   1.21174   0.68638  21.61500
   1.45116   0.44696  21.37558
   1.45116   0.68638  21.13617
   1.45116   0.92580  20.65733
   1.21174   1.16522  20.41791
   1.45116   0.92580  20.17849
   1.21174   1.16522  19.69965
   1.45116   1.40464  19.46023
   1.45116   1.40464  18.98140
   1.69058   1.64406  18.26314
   1.45116   1.88348  18.02372
   1.69058   1.88348  17.78430
   1.93000   1.88348  17.30546
   1.93000   1.88348  16.82662
   2.16941   1.88348  16.34779
   2.16941   1.64406  15.62953
   2.64825   1.64406  15.39011
   2.40883   1.88348  14.67185
   2.40883   1.64406  14.19302
   2.64825   1.40464  13.95360
   2.64825   1.40464  13.23534
   2.88767   1.40464  12.75650
   2.88767   1.40464  12.03825
   3.12709   1.16522  11.55941
   3.12709   1.40464  10.84115
   3.36651   0.68638  10.36231
   3.60593   0.68638   9.64406
   4.08477   0.68638   9.16522
   4.08477   0.44696   8.68638
   4.56360   0.20754   8.20754
   4.80302   0.20754   7.72870
   5.04244  -0.27129   7.48929
   5.52128  -0.51071   7.01045
   6.00012  -0.51071   6.53161
   6.47896  -0.98955   6.05277
   6.95779  -0.98955   6.05277
   7.43663  -0.98955   5.81335
   7.91547  -0.98955   5.81335
   8.15489  -0.98955   5.81335
   8.63373  -1.22897   5.57393
   8.87314  -0.98955   5.57393
   9.83082  -1.22897   5.57393
  10.07024  -0.98955   5.57393
  10.30966  -0.75013   5.81335
  10.54908  -0.51071   5.81335
  10.54908  -0.51071   5.81335
  11.02792  -0.51071   5.57393
  11.02792  -0.51071   5.33452
  11.26733  -0.27129   5.33452
  11.50675  -0.03188   5.57393
  11.50675   0.44696   5.81335
  11.50675   0.20754   5.57393
  11.26733   0.44696   5.81335
  11.26733   0.44696   5.57393
  11.02792   0.68638   5.57393
  11.02792   0.68638   5.57393
  11.02792   0.92580   5.81335
  10.78850   1.16522   5.81335
  10.30966   1.16522   5.81335
  10.07024   1.16522   5.81335
   9.83082   0.92580   5.57393
   9.59140   0.68638   5.81335
   9.59140   0.68638   6.05277
   9.11256   0.92580   6.05277
   8.87314   1.16522   6.29219
   8.39431   1.16522   6.05277
   8.15489   0.92580   6.05277
   8.15489   0.68638   6.05277
   7.91547   0.92580   5.81335
   7.43663   0.92580   5.81335
   7.43663   1.16522   6.05277
   6.95779   1.40464   6.05277
   6.95779   1.40464   6.05277
   6.71837   1.16522   5.81335
   6.71837   0.92580   5.57393
   6.71837   0.92580   5.33452
   6.23954   1.40464   5.33452
   6.23954   1.64406   5.57393
   6.23954   1.88348   5.81335
   6.00012   1.64406   5.81335
   6.23954   1.64406   5.33452
   6.00012   1.88348   5.33452
   6.00012   1.88348   5.09510
   6.00012   2.36231   5.33452
   5.76070   2.84115   5.33452
   5.76070   3.08057   5.57393
   5.76070   3.31999   5.57393
   5.52128   3.08057   5.81335
   5.52128   3.08057   5.81335
   5.76070   3.08057   5.57393
   5.76070   2.84115   4.85568
   5.76070   3.08057   4.37684
   5.76070   3.08057   4.37684
   5.52128   3.08057   4.13742
   5.76070   3.31999   3.65858
   6.00012   3.31999   3.65858
   6.00012   3.55941   2.94033
   6.23954   3.55941   2.22207
   6.23954   3.79883   1.50381
   6.47896   4.03825   0.78556
   6.71837   3.79883   0.30672
   6.71837   4.03825  -0.41154
   7.19721   3.55941  -1.12980
   7.43663   3.31999  -2.32689
   7.91547   3.08057  -3.04515
   7.91547   3.31999  -3.76340
   7.91547   2.84115  -4.24224
   8.15489   2.60173  -4.72108
   8.39431   2.36231  -5.67876
   8.63373   2.12290  -6.15759
   8.87314   1.88348  -6.87585
   8.63373   1.64406  -7.35469
   9.11256   1.16522  -7.59411
   9.11256   0.92580  -8.31236
   9.35198   1.16522  -8.55178
   9.11256   1.88348  -8.79120
   9.35198   1.64406  -8.79120
   9.35198   1.16522  -9.27004
   9.59140   0.20754  -9.74888
   9.35198  -0.27129 -10.46714
   9.35198  -0.03188 -10.94597
   9.35198   0.44696 -10.70655
   9.35198   0.68638 -10.70655
   9.11256   0.68638 -10.94597
   9.11256  -0.03188 -10.70655
   8.87314  -0.51071 -11.18539
   8.63373  -0.75013 -11.18539
   8.63373  -0.75013 -11.42481
   8.15489  -0.51071 -11.42481
