********************************************************************************
              CENTRO DE INSTRUMENTACION Y REGISTRO SISMICO  A.C.

    Anaxagoras 814, Col. Narvarte, Benito Juarez, C.P. 03020 Mexico, D.F.
           Tels. 5687 45 42/ 5687 45  82             Fax. 5669 25 12
********************************************************************************
ARCHIVO ESTANDAR DE ACELERACION:
VERSION DEL FORMATO                    : 2.0
NOMBRE DEL ARCHIVO                     : AE0220120929071110
FECHA Y HORA DE CREACION               : 11/ABR/13, 12:20
REF. CATALOGO ACELEROGRAMAS, SMIS 1996 : REGISTRO No.     /PAG.


================================================================================
DATOS DE LA ESTACION:
NOMBRE DE LA ESTACION                  : ESC. PRIM. "GONZÁLEZ GARZÓN"
CLAVE DE LA ESTACION                   : AE02
LOCALIZACION DE LA ESTACION            : Del. Venustiano Carranza,              
                                       : Col. El Arenal 4a. Sección,            
                                       : Calle Xico esq. con calle Xocoyote.    
                                       :                                        
                                       : 
COORDENADAS DE LA ESTACION             : 19.4290 LAT. N
                                       : 99.0584 LONG. W
ALTITUD (msnm)                         : 2232
TIPO DE SUELO                          : Arcilloso, zona lago                
                                       :                           
                                       : 
INSTITUCION RESPONSABLE                : CIRES
                                       : 

================================================================================
DATOS DEL ACELEROGRAFO:
MODELO DEL ACELEROGRAFO                : RADESD
NUMERO DE SERIE DEL ACELEROGRAFO       : 242
NUMERO DE CANALES                      : 3
ORIENTACION C1-C6 (rumbo;orientacion)  : /N00E/+V/N90W
ORIENTACION C7-C12 (rumbo;orientacion) : 
VEL. DE MUESTREO, C1-C6 (muestras/s)   : /100/100/100
VEL. DE MUESTREO, C7-C12 (muestras/s)  : 
ESC. COMPLETA DE SENSORES, C1-C6, (g)  : /0.5/0.5/0.5
ESC. COMPLETA DE SENSORES, C7-C12, (g) : 
FREC. NAT. DE SENSORES, C1-C6, (Hz)    : /30/30/30
FREC. NAT. DE SENSORES, C7-C12, (Hz)   : 
AMORTIGUAMIENTO DE SENSORES, C1-C6     : /0.733/0.750/0.700
AMORTIGUAMIENTO DE SENSORES, C7-C12    : 
INTERVALO DE MUESTREO, C1-C6, (s)      : /0.01/0.01/0.01
INTERVALO DE MUESTREO, C7-C12, (s)     : 
UMBRAL DE DISPARO, C1-C6, (Gal)        : /26.34/153.23/43.1
UMBRAL DE DISPARO, C7-C12, (Gal)       : 
MEMORIA DE PREEVENTO (s)               : 56.0
TIEMPO DE POSEVENTO (s)                : 80.0


================================================================================
DATOS DEL SISMO:
FECHA DEL SISMO (GMT)                  : 29/SEP/12
HORA EPICENTRO (GMT)                   : 07:11:10.0
MAGNITUD(ES)                           : /Mc=5.5
COORDENADAS DEL EPICENTRO              : 15.89 LAT. N
                                       : 98.67 LONG. W
PROFUNDIDAD FOCAL (km)                 : 15
FUENTE DE LOS DATOS EPICENTRALES       : SSN
                                       : INSTITUTO DE GEOFISICA, UNAM

================================================================================
DATOS DE ESTE REGISTRO:
HORA DE LA PRIMERA MUESTRA (GMT)       : 07:13:04.00
EXACTITUD DEL TIEMPO (s)               : 0.01
DURACION DEL REGISTRO (s), C1-C6       : /131.0/131.0/131.0
DURACION DEL REGISTRO (s), C7-C12      : 
NUM. TOTAL DE MUESTRAS, C1-C6          : /13100/13100/13100
NUM. TOTAL DE MUESTRAS, C7-C12         : 
ACEL. MAX. (Gal), C1-C6                : /2.20981/1.47793/1.97081
ACEL. MAX., C1-C6, EN LA MUESTRA       : /6661/6347/4339
ACEL. MAX. (Gal), C7-C12               : 
ACEL. MAX., C7-C12, EN LA MUESTRA      : 
UNIDADES DE LOS DATOS                  : Gal (cm/s/s)
FACTOR DE DECIMACION                   : 1
FORMATO DATOS (FORTRAN,10 campos/dato) : 3F10.5


================================================================================
CALIDAD DEL ACELEROGRAMA:
REGISTRO DIGITAL COMPLETO CON TIEMPO ABSOLUTO CORRECTO.


================================================================================
COMENTARIOS:














================================================================================
DATOS DE ACELERACION:
---------+---------+---------+---------+---------+---------+---------+---------+
   CANAL-1   CANAL-2   CANAL-3   CANAL-4   CANAL-5   CANAL-6   CANAL-7   CANAL-8
      N00E        +V      N90W
---------+---------+---------+---------+---------+---------+---------+---------+
[...]
  -0.05503   0.06334  -0.38465
  -0.01014   0.25787  -0.45947
  -0.11488   0.45240  -0.22005
  -0.26452   0.49729   0.19894
  -0.44409   0.30276   0.55807
  -0.50394  -0.02644   0.63289
  -0.42912  -0.28083   0.51318
  -0.26452  -0.38557   0.16901
  -0.23459  -0.41550  -0.02552
  -0.33934  -0.47535  -0.02552
  -0.42912  -0.41550   0.01937
  -0.32438  -0.23593   0.10916
  -0.15977  -0.34068   0.22887
  -0.29445  -0.58010   0.22887
  -0.38423  -0.74470   0.19894
  -0.26452  -0.71477   0.22887
  -0.12985  -0.59506   0.42340
  -0.18970  -0.74470   0.57303
  -0.23459  -1.02901   0.49821
  -0.21963  -1.34325   0.16901
  -0.14481  -1.40311  -0.29486
   0.06468  -1.08887  -0.53429
   0.16943  -0.74470  -0.30983
   0.12454  -0.62499   0.13908
  -0.01014  -0.78959   0.27376
  -0.04006  -1.02901   0.12412
   0.04972  -1.13376   0.03434
   0.13950  -1.28340  -0.20508
   0.30410  -1.23851  -0.38465
   0.39389  -1.05894  -0.32479
   0.30410  -1.07390   0.00441
   0.16943  -1.25347   0.13908
   0.22928  -1.43303   0.10916
   0.36396  -1.47793  -0.13026
   0.58841  -1.28340  -0.50436
   0.76798  -1.08887  -0.80363
   0.82783  -0.89434  -0.89342
   0.81287  -0.74470  -0.81860
   0.64827  -0.65492  -0.48939
   0.33403  -0.63996  -0.08537
   0.19936  -0.99909   0.13908
   0.40885  -1.25347  -0.11530
   0.76798  -1.20858  -0.56421
   1.03733  -0.92427  -0.96823
   1.14207  -0.71477  -1.07298
   1.11215  -0.55017  -0.78867
   0.79791  -0.50528  -0.50436
   0.58841  -0.55017  -0.35472
   0.55849  -0.52025  -0.41457
   0.66323  -0.37061  -0.53429
   0.64827  -0.29579  -0.57918
   0.66323  -0.26586  -0.57918
   0.69316  -0.25090  -0.48939
   0.70812  -0.29579  -0.53429
   0.73805  -0.22097  -0.68392
   0.64827  -0.05637  -0.71385
   0.52856   0.12320  -0.56421
   0.49863   0.24291  -0.48939
   0.40885   0.27283  -0.35472
   0.31907   0.37758  -0.26494
   0.31907   0.40751  -0.32479
   0.33403   0.40751  -0.30983
   0.27417   0.30276  -0.26494
   0.15446   0.21298  -0.41457
   0.10957   0.34765  -0.63903
   0.13950   0.69182  -0.81860
   0.07965   1.06591  -0.83356
  -0.17474   1.23051  -0.44450
  -0.47401   0.97613  -0.02552
  -0.60869   0.61700   0.04930
  -0.57876   0.49729  -0.11530
  -0.48898   0.46736  -0.32479
  -0.33934   0.49729  -0.65400
  -0.32438   0.72175  -1.02809
  -0.45905   1.12577  -1.08794
  -0.59372   1.35022  -0.92334
  -0.86307   1.42504  -0.51932
  -1.14738   1.21555  -0.08537
  -1.37184   0.85642   0.10916
  -1.37184   0.64693   0.06427
  -1.32695   0.54218  -0.01055
  -1.29702   0.42247  -0.19012
  -1.19227   0.49729  -0.47443
  -1.08753   0.60204  -0.60910
  -1.10249   0.58707  -0.65400
  -1.10249   0.57211  -0.83356
  -0.98278   0.75167  -0.99816
  -1.02767   1.03599  -0.86349
  -1.26709   1.18562  -0.54925
  -1.46162   1.09584  -0.16019
  -1.55140   0.79657   0.15405
  -1.56637   0.40751   0.19894
  -1.38680   0.10823  -0.08537
  -1.05760   0.10823  -0.51932
  -0.75832   0.33269  -0.83356
  -0.57876   0.60204  -0.86349
  -0.59372   0.81153  -0.60910
  -0.77329   0.81153  -0.26494
  -0.95285   0.58707  -0.04048
  -0.89300   0.36262  -0.02552
  -0.80322   0.13816  -0.04048
  -0.72840  -0.07133  -0.13026
  -0.48898  -0.13119  -0.35472
  -0.32438  -0.13119  -0.36968
  -0.23459  -0.19104  -0.41457
  -0.09992  -0.08630  -0.39961
  -0.08496   0.07831  -0.17515
  -0.18970   0.09327  -0.01055
  -0.12985   0.01845   0.12412
  -0.06999  -0.05637   0.24383
  -0.01014  -0.34068   0.36354
   0.03475  -0.58010   0.37850
   0.10957  -0.77463   0.25879
   0.31907  -0.90930   0.03434
   0.49863  -0.86441  -0.13026
   0.60338  -0.63996  -0.16019
   0.55849  -0.41550   0.00441
   0.49863  -0.31075   0.34858
   0.43878  -0.40054   0.60296
   0.43878  -0.65492   0.75260
   0.45374  -0.81952   0.67778
   0.51360  -0.84945   0.57303
   0.61834  -0.89434   0.43836
   0.79791  -0.89434   0.30369
   0.93258  -0.78959   0.27376
   0.91762  -0.63996   0.39347
   0.84280  -0.50528   0.57303
   0.76798  -0.49032   0.79749
   0.73805  -0.50528   0.96209
   0.63331  -0.66988   1.06684
   0.52856  -0.78959   0.96209
   0.55849  -0.86441   0.78253
   0.66323  -0.80456   0.55807
   0.79791  -0.69981   0.42340
   0.90265  -0.52025   0.52814
   0.82783  -0.46039   0.72267
   0.73805  -0.44543   0.82742
   0.67820  -0.47535   0.82742
   0.63331  -0.40054   0.76756
   0.57345  -0.38557   0.76756
   0.52856  -0.38557   0.70771
   0.49863  -0.46039   0.64785
   0.61834  -0.44543   0.52814
   0.69316  -0.43046   0.42340
   0.69316  -0.19104   0.40843
   0.60338  -0.10126   0.48325
   0.57345  -0.04141   0.55807
   0.51360  -0.05637   0.52814
   0.45374  -0.07133   0.51318
   0.45374  -0.10126   0.42340
   0.46870  -0.04141   0.31865
   0.48367   0.03341   0.30369
   0.49863   0.10823   0.30369
   0.51360   0.15312   0.39347
   0.42381   0.22794   0.45332
   0.37892   0.31773   0.54311
   0.36396   0.33269   0.54311
   0.34899   0.33269   0.48325
   0.36396   0.36262   0.42340
   0.37892   0.40751   0.39347
   0.34899   0.45240   0.39347
   0.24425   0.49729   0.46829
   0.18439   0.51225   0.51318
   0.19936   0.49729   0.48325
   0.22928   0.60204   0.43836
   0.19936   0.67686   0.43836
   0.12454   0.73671   0.45332
  -0.01014   0.79657   0.43836
  -0.11488   0.76664   0.52814
  -0.18970   0.69182   0.58800
  -0.20467   0.67686   0.60296
  -0.24956   0.64693   0.55807
  -0.24956   0.64693   0.45332
  -0.24956   0.67686   0.40843
  -0.29445   0.69182   0.39347
  -0.45905   0.69182   0.40843
  -0.59372   0.66189   0.40843
  -0.65358   0.63196   0.37850
  -0.72840   0.60204   0.31865
  -0.78825   0.58707   0.22887
  -0.78825   0.61700   0.10916
  -0.83314   0.60204   0.13908
  -0.81818   0.55715   0.19894
  -0.87803   0.51225   0.24383
  -0.90796   0.49729   0.18398
  -0.90796   0.48233   0.07923
  -0.95285   0.46736  -0.01055
  -0.93789   0.45240  -0.08537
  -0.89300   0.40751  -0.14523
  -0.93789   0.31773  -0.08537
  -0.96782   0.24291  -0.10034
  -0.92293   0.15312  -0.20508
  -0.86307   0.12320  -0.26494
  -0.72840   0.07831  -0.38465
  -0.65358   0.04838  -0.45947
  -0.63861  -0.02644  -0.41457
  -0.62365  -0.11622  -0.38465
  -0.56380  -0.20601  -0.35472
  -0.50394  -0.28083  -0.38465
  -0.45905  -0.32572  -0.39961
  -0.38423  -0.35564  -0.41457
  -0.32438  -0.43046  -0.41457
  -0.29445  -0.49032  -0.41457
  -0.20467  -0.56514  -0.44450
  -0.14481  -0.62499  -0.47443
  -0.06999  -0.62499  -0.44450
   0.06468  -0.58010  -0.47443
   0.15446  -0.55017  -0.48939
   0.13950  -0.58010  -0.39961
   0.10957  -0.69981  -0.27990
   0.19936  -0.86441  -0.26494
   0.30410  -0.95419  -0.36968
   0.46870  -0.87938  -0.44450
   0.55849  -0.74470  -0.44450
   0.55849  -0.69981  -0.42954
   0.54352  -0.71477  -0.32479
   0.48367  -0.77463  -0.20508
   0.46870  -0.92427  -0.14523
   0.55849  -0.93923  -0.14523
   0.72309  -0.93923  -0.22005
   0.84280  -0.86441  -0.23501
   0.87273  -0.77463  -0.22005
   0.85776  -0.72974  -0.17515
   0.78294  -0.63996  -0.08537
   0.73805  -0.66988   0.04930
   0.72309  -0.69981   0.12412
   0.75302  -0.72974   0.16901
   0.81287  -0.69981   0.15405
   0.87273  -0.61003   0.09419
   0.90265  -0.50528   0.12412
   0.84280  -0.38557   0.19894
   0.76798  -0.31075   0.31865
   0.73805  -0.26586   0.39347
   0.70812  -0.28083   0.40843
   0.72309  -0.23593   0.36354
   0.72309  -0.13119   0.37850
   0.72309  -0.07133   0.45332
   0.66323  -0.04141   0.57303
   0.52856   0.00349   0.64785
   0.46870   0.00349   0.66282
   0.45374   0.06334   0.63289
   0.46870   0.18305   0.60296
   0.45374   0.28780   0.63289
   0.39389   0.31773   0.61792
   0.31907   0.43744   0.72267
   0.22928   0.40751   0.81245
   0.10957   0.34765   0.91720
   0.09461   0.34765   0.88727
   0.10957   0.33269   0.75260
   0.15446   0.42247   0.64785
   0.15446   0.54218   0.60296
   0.13950   0.67686   0.64785
   0.09461   0.76664   0.70771
   0.01979   0.75167   0.79749
  -0.05503   0.69182   0.75260
  -0.08496   0.64693   0.75260
  -0.06999   0.67686   0.76756
  -0.04006   0.67686   0.75260
  -0.02510   0.67686   0.72267
   0.07965   0.70678   0.67778
   0.12454   0.70678   0.60296
   0.10957   0.78160   0.57303
   0.04972   0.78160   0.60296
  -0.02510   0.70678   0.61792
  -0.02510   0.63196   0.63289
   0.01979   0.58707   0.60296
   0.06468   0.54218   0.55807
   0.12454   0.54218   0.45332
   0.21432   0.57211   0.31865
   0.25921   0.63196   0.22887
   0.22928   0.64693   0.24383
   0.16943   0.61700   0.30369
   0.10957   0.52722   0.36354
   0.06468   0.48233   0.36354
   0.10957   0.40751   0.28872
   0.13950   0.34765   0.21390
   0.18439   0.30276   0.13908
   0.25921   0.28780   0.04930
   0.33403   0.37758  -0.01055
   0.30410   0.39254   0.04930
   0.24425   0.33269   0.13908
   0.13950   0.15312   0.15405
   0.12454  -0.05637   0.06427
   0.22928  -0.13119  -0.05544
   0.37892  -0.07133  -0.20508
   0.46870  -0.01148  -0.29486
   0.45374   0.10823  -0.29486
   0.34899   0.07831  -0.23501
   0.27417  -0.05637  -0.17515
   0.30410  -0.22097  -0.17515
   0.33403  -0.32572  -0.26494
   0.40885  -0.40054  -0.35472
   0.49863  -0.38557  -0.41457
   0.60338  -0.38557  -0.47443
   0.64827  -0.38557  -0.48939
   0.61834  -0.38557  -0.48939
   0.60338  -0.37061  -0.45947
   0.51360  -0.43046  -0.39961
   0.51360  -0.52025  -0.36968
   0.46870  -0.66988  -0.35472
   0.51360  -0.78959  -0.41457
   0.63331  -0.78959  -0.56421
   0.73805  -0.68485  -0.63903
   0.73805  -0.56514  -0.66896
   0.69316  -0.49032  -0.57918
   0.61834  -0.50528  -0.48939
   0.49863  -0.55017  -0.41457
   0.40885  -0.65492  -0.33976
   0.39389  -0.68485  -0.36968
   0.45374  -0.69981  -0.42954
   0.48367  -0.66988  -0.47443
   0.42381  -0.65492  -0.50436
   0.39389  -0.56514  -0.48939
   0.30410  -0.56514  -0.44450
   0.30410  -0.53521  -0.41457
   0.22928  -0.52025  -0.35472
   0.13950  -0.53521  -0.32479
   0.03475  -0.49032  -0.35472
   0.00483  -0.46039  -0.35472
  -0.14481  -0.40054  -0.39961
  -0.23459  -0.34068  -0.38465
  -0.33934  -0.34068  -0.35472
  -0.35430  -0.31075  -0.30983
  -0.44409  -0.35564  -0.26494
  -0.50394  -0.34068  -0.29486
  -0.60869  -0.28083  -0.38465
  -0.69847  -0.13119  -0.41457
  -0.78825   0.01845  -0.39961
  -0.98278   0.12320  -0.35472
  -1.13242   0.12320  -0.29486
  -1.26709   0.15312  -0.26494
  -1.35687   0.19802  -0.22005
  -1.47659   0.19802  -0.19012
  -1.53644   0.18305  -0.20508
  -1.59630   0.21298  -0.23501
  -1.62622   0.34765  -0.29486
  -1.70104   0.51225  -0.32479
  -1.82075   0.61700  -0.27990
  -1.94046   0.63196  -0.23501
  -2.03024   0.64693  -0.22005
  -2.10506   0.61700  -0.17515
  -2.14995   0.66189  -0.19012
  -2.17988   0.69182  -0.17515
  -2.13499   0.70678  -0.20508
  -2.09010   0.85642  -0.24997
  -2.10506   0.96117  -0.27990
  -2.16492   0.94620  -0.23501
  -2.20981   0.93124  -0.19012
  -2.19485   0.82649  -0.19012
  -2.10506   0.76664  -0.14523
  -2.03024   0.73671  -0.20508
  -1.92550   0.79657  -0.24997
  -1.82075   0.85642  -0.26494
  -1.74593   0.85642  -0.22005
  -1.64119   0.85642  -0.19012
  -1.53644   0.78160  -0.24997
  -1.41673   0.69182  -0.27990
  -1.23716   0.64693  -0.29486
  -1.05760   0.61700  -0.30983
  -0.90796   0.57211  -0.32479
  -0.80322   0.58707  -0.38465
  -0.66854   0.55715  -0.38465
  -0.51890   0.49729  -0.41457
  -0.35430   0.48233  -0.42954
  -0.21963   0.43744  -0.42954
  -0.08496   0.37758  -0.38465
   0.04972   0.27283  -0.36968
   0.22928   0.18305  -0.41457
   0.42381   0.12320  -0.45947
   0.58841   0.09327  -0.47443
   0.73805   0.03341  -0.44450
   0.85776  -0.01148  -0.42954
   1.02236  -0.11622  -0.42954
   1.14207  -0.22097  -0.36968
   1.26178  -0.31075  -0.33976
   1.32164  -0.43046  -0.33976
   1.47128  -0.46039  -0.33976
   1.60595  -0.49032  -0.39961
   1.72566  -0.49032  -0.41457
   1.74062  -0.49032  -0.38465
   1.78551  -0.55017  -0.30983
   1.83041  -0.63996  -0.26494
   1.87530  -0.77463  -0.22005
   1.92019  -0.84945  -0.22005
   1.93515  -0.86441  -0.23501
   1.93515  -0.89434  -0.24997
   1.96508  -0.84945  -0.27990
   1.98004  -0.86441  -0.20508
   1.92019  -0.90930  -0.20508
   1.90522  -0.87938  -0.16019
   1.84537  -0.89434  -0.11530
   1.78551  -0.86441  -0.07041
   1.74062  -0.90930  -0.05544
   1.65084  -0.89434  -0.08537
   1.56106  -0.92427  -0.05544
   1.51617  -0.86441  -0.01055
   1.47128  -0.84945   0.00441
   1.41142  -0.77463   0.01937
   1.33660  -0.78959   0.03434
   1.24682  -0.68485   0.07923
   1.11215  -0.65492   0.09419
   1.03733  -0.62499   0.12412
   0.90265  -0.56514   0.18398
   0.79791  -0.49032   0.22887
   0.70812  -0.44543   0.28872
   0.63331  -0.44543   0.31865
   0.54352  -0.43046   0.37850
   0.43878  -0.46039   0.37850
   0.37892  -0.41550   0.42340
   0.33403  -0.34068   0.40843
   0.28914  -0.23593   0.37850
   0.22928  -0.11622   0.37850
   0.15446  -0.04141   0.39347
   0.03475   0.03341   0.43836
  -0.02510   0.01845   0.49821
  -0.08496   0.00349   0.51318
  -0.08496   0.07831   0.51318
  -0.09992   0.10823   0.45332
  -0.05503   0.24291   0.42340
  -0.11488   0.30276   0.40843
  -0.14481   0.39254   0.36354
  -0.21963   0.40751   0.36354
  -0.30941   0.40751   0.37850
  -0.26452   0.43744   0.40843
  -0.24956   0.48233   0.34858
  -0.23459   0.57211   0.36354
  -0.21963   0.61700   0.36354
  -0.27948   0.70678   0.34858
  -0.30941   0.66189   0.31865
  -0.27948   0.69182   0.36354
  -0.29445   0.64693   0.36354
  -0.23459   0.67686   0.30369
  -0.18970   0.66189   0.28872
  -0.15977   0.69182   0.30369
  -0.11488   0.69182   0.31865
  -0.11488   0.73671   0.30369
  -0.08496   0.67686   0.28872
  -0.06999   0.66189   0.25879
  -0.02510   0.67686   0.24383
   0.03475   0.63196   0.19894
   0.06468   0.64693   0.19894
   0.09461   0.64693   0.22887
   0.06468   0.57211   0.25879
   0.00483   0.49729   0.27376
   0.01979   0.46736   0.27376
   0.04972   0.39254   0.21390
   0.07965   0.33269   0.12412
   0.06468   0.36262   0.06427
   0.04972   0.36262   0.06427
  -0.04006   0.37758   0.06427
  -0.11488   0.33269   0.07923
  -0.24956   0.25787   0.06427
  -0.32438   0.22794   0.09419
  -0.38423   0.12320   0.06427
  -0.35430   0.07831   0.00441
  -0.33934   0.07831  -0.02552
  -0.41416   0.06334  -0.08537
  -0.47401   0.04838  -0.10034
  -0.60869   0.00349  -0.08537
  -0.68351  -0.01148  -0.13026
  -0.74336  -0.07133  -0.19012
  -0.77329  -0.01148  -0.20508
  -0.86307  -0.04141  -0.17515
  -0.95285  -0.10126  -0.14523
  -1.02767  -0.19104  -0.11530
  -1.02767  -0.31075  -0.10034
  -1.05760  -0.40054  -0.16019
  -1.07256  -0.40054  -0.22005
  -1.07256  -0.40054  -0.26494
  -1.07256  -0.35564  -0.27990
  -1.10249  -0.35564  -0.26494
  -1.16235  -0.38557  -0.19012
  -1.20724  -0.41550  -0.17515
  -1.22220  -0.46039  -0.13026
  -1.22220  -0.52025  -0.13026
  -1.17731  -0.49032  -0.13026
  -1.11745  -0.55017  -0.16019
  -1.10249  -0.55017  -0.17515
  -1.05760  -0.50528  -0.17515
  -1.04264  -0.46039  -0.17515
  -1.04264  -0.44543  -0.10034
  -1.07256  -0.52025  -0.01055
  -1.05760  -0.58010   0.06427
  -0.96782  -0.65492   0.04930
  -0.86307  -0.69981   0.00441
  -0.74336  -0.66988  -0.07041
  -0.63861  -0.63996  -0.11530
  -0.56380  -0.56514  -0.10034
  -0.48898  -0.53521  -0.07041
  -0.47401  -0.52025  -0.02552
  -0.48898  -0.50528   0.00441
  -0.51890  -0.55017   0.03434
  -0.44409  -0.55017   0.06427
  -0.35430  -0.61003   0.00441
  -0.27948  -0.56514  -0.02552
  -0.17474  -0.56514  -0.04048
