********************************************************************************
              CENTRO DE INSTRUMENTACION Y REGISTRO SISMICO  A.C.

    Anaxagoras 814, Col. Narvarte, Benito Juarez, C.P. 03020 Mexico, D.F.
           Tels. 5687 45 42/ 5687 45  82             Fax. 5669 25 12
********************************************************************************
ARCHIVO ESTANDAR DE ACELERACION:
VERSION DEL FORMATO                    : 2.0
NOMBRE DEL ARCHIVO                     : AE0220180216233938
FECHA Y HORA DE CREACION               : 07/MAR/18, 13:24
REF. CATALOGO ACELEROGRAMAS, SMIS 1996 : REGISTRO No.     /PAG.


================================================================================
DATOS DE LA ESTACION:
NOMBRE DE LA ESTACION                  : ESC. PRIM. "GONZÁLEZ GARZÓN"
CLAVE DE LA ESTACION                   : AE02
LOCALIZACION DE LA ESTACION            : Del. Venustiano Carranza,              
                                       : Col. El Arenal 4a. Sección,            
                                       : Calle Xico esq. con calle Xocoyote.    
                                       :                                        
                                       : 
COORDENADAS DE LA ESTACION             : 19.4290 LAT. N
                                       : 99.0584 LONG. W
ALTITUD (msnm)                         : 2232
TIPO DE SUELO                          : Arcilloso, zona lago                
                                       :                           
                                       : 
INSTITUCION RESPONSABLE                : CIRES
                                       : 

================================================================================
DATOS DEL ACELEROGRAFO:
MODELO DEL ACELEROGRAFO                : RADESD
NUMERO DE SERIE DEL ACELEROGRAFO       : 242
NUMERO DE CANALES                      : 3
ORIENTACION C1-C6 (rumbo;orientacion)  : /N00E/+V/N90W
ORIENTACION C7-C12 (rumbo;orientacion) : 
VEL. DE MUESTREO, C1-C6 (muestras/s)   : /100/100/100
VEL. DE MUESTREO, C7-C12 (muestras/s)  : 
ESC. COMPLETA DE SENSORES, C1-C6, (g)  : /0.5/0.5/0.5
ESC. COMPLETA DE SENSORES, C7-C12, (g) : 
FREC. NAT. DE SENSORES, C1-C6, (Hz)    : /30/30/30
FREC. NAT. DE SENSORES, C7-C12, (Hz)   : 
AMORTIGUAMIENTO DE SENSORES, C1-C6     : /0.733/0.750/0.700
AMORTIGUAMIENTO DE SENSORES, C7-C12    : 
INTERVALO DE MUESTREO, C1-C6, (s)      : /0.01/0.01/0.01
INTERVALO DE MUESTREO, C7-C12, (s)     : 
UMBRAL DE DISPARO, C1-C6, (Gal)        : /1.95/6.73/1.95
UMBRAL DE DISPARO, C7-C12, (Gal)       : 
MEMORIA DE PREEVENTO (s)               : 44.0
TIEMPO DE POSEVENTO (s)                : 64.0


================================================================================
DATOS DEL SISMO:
FECHA DEL SISMO (GMT)                  : 16/FEB/18
HORA EPICENTRO (GMT)                   : 23:39:38.0
MAGNITUD(ES)                           : /Mc=7.2
COORDENADAS DEL EPICENTRO              : 16.25 LAT. N
                                       : 98.03 LONG. W
PROFUNDIDAD FOCAL (km)                 : 12
FUENTE DE LOS DATOS EPICENTRALES       : SSN
                                       : INSTITUTO DE GEOFISICA, UNAM

================================================================================
DATOS DE ESTE REGISTRO:
HORA DE LA PRIMERA MUESTRA (GMT)       : 23:40:09.00
EXACTITUD DEL TIEMPO (s)               : 0.01
DURACION DEL REGISTRO (s), C1-C6       : /398.2/398.2/398.2
DURACION DEL REGISTRO (s), C7-C12      : 
NUM. TOTAL DE MUESTRAS, C1-C6          : /39820/39820/39820
NUM. TOTAL DE MUESTRAS, C7-C12         : 
ACEL. MAX. (Gal), C1-C6                : /29.88154/10.66249/29.90206
ACEL. MAX., C1-C6, EN LA MUESTRA       : /9901/9005/10163
ACEL. MAX. (Gal), C7-C12               : 
ACEL. MAX., C7-C12, EN LA MUESTRA      : 
UNIDADES DE LOS DATOS                  : Gal (cm/s/s)
FACTOR DE DECIMACION                   : 1
FORMATO DATOS (FORTRAN,10 campos/dato) : 3F10.5


================================================================================
CALIDAD DEL ACELEROGRAMA:
REGISTRO DIGITAL COMPLETO CON TIEMPO ABSOLUTO CORRECTO.


================================================================================
COMENTARIOS:














================================================================================
DATOS DE ACELERACION:
---------+---------+---------+---------+---------+---------+---------+---------+
   CANAL-1   CANAL-2   CANAL-3   CANAL-4   CANAL-5   CANAL-6   CANAL-7   CANAL-8
      N00E        +V      N90W
---------+---------+---------+---------+---------+---------+---------+---------+
[...]
   4.68474   2.67022  17.18286
   4.37050   2.84978  17.70659
   3.96648   2.96949  18.15551
   3.41282   3.25381  18.46975
   2.94895   3.38848  18.99348
   2.60478   3.47826  19.72670
   2.02119   3.55308  20.11576
   1.49746   3.55308  20.78913
   0.94380   3.41841  20.93877
   0.65949   3.76257  20.92380
   0.47993   3.94214  21.10337
   0.21058   4.12170  20.98366
  -0.05877   4.24141  21.05848
  -0.22337   4.39105  21.05848
  -0.35804   4.55565  21.16322
  -0.49272   4.58558  21.13330
  -0.55257   4.83996  20.95373
  -0.28323   5.00457  20.72927
  -0.29819   5.01953  20.31029
  -0.22337   5.03449  19.66685
  -0.05877   4.97464  19.08326
   0.24051   4.88486  18.60442
   0.09087   4.79507  18.27522
   0.07590   4.70529  17.79638
   0.07590   4.70529  17.24272
   0.07590   4.54069  16.86862
   0.06094   4.33120  16.41971
  -0.02884   4.36112  15.83612
   0.04598   4.28631  15.11786
   0.12080   4.15163  14.60910
   0.13576   3.97207  13.74120
   0.19561   3.86732  12.94812
   0.18065   3.68775  12.22986
   0.28540   3.71768  11.55649
   0.53978   3.67279  10.92801
   0.62956   3.47826  10.17982
   0.65949   3.37352   9.77580
   0.55474   3.08920   9.10243
   0.22554   2.80489   8.39914
  -0.02884   2.71511   7.65095
   0.06094   2.65526   6.97758
  -0.02884   2.43080   6.30421
  -0.20841   2.31109   5.70566
  -0.58250   1.99685   5.30164
  -0.98652   1.90707   4.71805
  -1.37558   1.66765   4.25417
  -2.03399   1.57786   3.65562
  -2.70736   1.33844   2.93736
  -3.35080   1.35341   2.24903
  -3.94935   1.17384   1.30631
  -4.60775   0.85960   0.72273
  -5.25119   0.59026  -0.10028
  -6.01435   0.35084  -0.92329
  -6.74757   0.12638  -1.88097
  -7.43590  -0.17290  -2.82368
  -8.24395  -0.47217  -3.57187
  -9.11184  -0.90612  -4.32006
  -9.99471  -1.23532  -5.12810
 -10.92246  -1.53460  -6.01097
 -11.89510  -1.75905  -6.87886
 -12.74804  -2.02840  -7.73180
 -13.67579  -2.41746  -8.33035
 -14.69333  -2.67184  -8.94386
 -15.56123  -3.03097  -9.55738
 -16.53387  -3.34521 -10.09607
 -17.59630  -3.67442 -10.60484
 -18.52405  -3.76420 -11.15850
 -19.33209  -4.03355 -11.39792
 -20.24488  -4.21311 -11.77201
 -21.05293  -4.46749 -11.90669
 -21.87593  -4.63210 -11.89172
 -22.84858  -4.79670 -11.95158
 -23.50698  -4.94633 -12.01143
 -24.27013  -4.87152 -11.89172
 -25.04825  -4.81166 -11.98151
 -25.54205  -4.84159 -11.47274
 -26.14060  -4.87152 -11.41288
 -26.72419  -5.02115 -10.78441
 -27.42749  -5.08101 -10.39535
 -27.95122  -5.12590  -9.87162
 -28.47495  -5.02115  -9.25810
 -28.87897  -5.00619  -8.65955
 -29.43263  -5.03612  -8.12086
 -29.52241  -5.00619  -7.47741
 -29.62716  -4.87152  -6.74419
 -29.88154  -4.72188  -6.11571
 -29.80673  -4.61713  -5.51716
 -29.55234  -4.25800  -4.85876
 -29.28299  -4.00362  -3.93100
 -29.19321  -3.71931  -3.40727
 -28.69941  -3.47989  -2.61419
 -28.43006  -3.21054  -2.15032
 -27.92129  -2.91126  -1.65651
 -27.39756  -2.64192  -1.29738
 -26.76908  -2.37257  -0.75869
 -26.15557  -2.22293  -0.29481
 -25.45227  -1.87876   0.06432
 -24.61430  -1.48971   0.30374
 -23.91100  -1.17547   0.58805
 -23.16282  -0.80137   0.81251
 -22.41463  -0.38239   0.93222
 -21.69637  -0.12800   0.96215
 -20.87336   0.38076   0.93222
 -20.21496   0.87457   0.87236
 -19.36202   1.26363   0.70776
 -18.83829   1.26363   0.31870
 -17.40177   1.98189   0.12418
 -16.59372   2.16145  -0.33970
 -15.68094   2.41584  -0.80358
 -14.97764   2.74504  -1.37220
 -14.01996   3.04431  -1.98571
 -13.27177   3.31366  -2.73390
 -12.25423   3.53812  -3.37734
 -11.38634   3.61294  -4.08064
 -10.44362   3.77754  -4.84379
  -9.48594   3.80746  -5.32263
  -8.46840   3.92718  -6.13068
  -7.42094   3.94214  -6.72923
  -6.41837   4.01696  -7.29785
  -5.53551   3.94214  -7.71683
  -4.57783   3.91221  -8.24057
  -3.60518   4.03192  -8.46502
  -2.75225   3.80746  -8.80919
  -1.71975   3.95710  -9.15336
  -0.92667   3.89725  -9.28803
  -0.05877   3.79250  -9.31796
   1.06351   3.74761  -9.40774
   2.33543   3.56804  -9.51249
   3.42779   3.77754  -9.60227
   3.95152   3.80746  -9.70701
   4.59496   3.80746  -9.85665
   5.19351   3.82243 -10.03622
   5.97163   3.71768  -9.81176
   7.01909   3.56804  -9.58730
   7.58771   3.58301  -9.54241
   8.21619   3.38848  -9.12343
   8.65014   3.23884  -9.04861
   9.02423   3.08920  -8.88401
   9.27862   3.34359  -8.80919
   9.54796   3.20891  -8.46502
   9.90709   2.81986  -8.10589
   9.95199   2.76000  -7.82158
   9.83228   2.61036  -7.59712
  10.14651   3.38848  -7.46245
  10.32608   3.38848  -6.53470
   9.57789   2.14649  -6.04089
   9.15891   1.69757  -6.72923
   9.36840   2.01181  -6.92376
   9.74249   2.16145  -6.68434
   9.41329   2.14649  -6.37010
   8.73992   2.16145  -6.40002
   7.84210   1.95196  -6.57959
   7.72239   1.68261  -6.56462
   7.66253   1.93699  -6.54966
   7.28844   2.11656  -6.35513
   6.71981   1.65268  -6.37010
   6.18112   1.60779  -6.84894
   5.85192   1.77239  -7.01354
   5.50775   1.81728  -6.98361
   5.20847   1.63772  -7.20807
   4.52014   1.65268  -7.25296
   4.05626   1.42823  -7.73180
   3.98145   1.24866  -7.80662
   3.53253   0.91946  -7.71683
   3.00880   1.15888  -7.64202
   2.63471   1.14392  -7.83654
   2.30550   0.88953  -8.03107
   1.82666   0.73989  -8.01611
   1.24308   0.82968  -8.19567
   0.95877   0.65011  -8.34531
   0.58467   0.45558  -8.28546
  -0.16352   0.54537  -8.53984
  -0.37301   0.66508  -8.47999
  -0.80696   0.38076  -7.97122
  -1.49529   0.56033  -7.95625
  -2.12377   0.81471  -8.31538
  -2.33326   0.81471  -8.36028
  -2.61757   0.63515  -8.30042
  -2.93181   0.56033  -8.12086
  -3.41065   0.54537  -8.09093
  -3.75482   0.59026  -8.42013
  -4.03913   0.51544  -8.59970
  -4.03913   0.38076  -8.58473
  -4.17380   0.41069  -8.73437
  -4.27855   0.36580  -8.77926
  -4.29351   0.00667  -8.79423
  -4.29351  -0.36742  -8.88401
  -4.24862  -0.60684  -8.98875
  -4.20373  -0.92108  -9.21321
  -4.14388  -1.28021  -9.51249
  -4.14388  -1.44481  -9.72198
  -3.93438  -1.60942 -10.06614
  -3.62014  -1.80395 -10.36542
  -3.42562  -2.10322 -10.93404
  -3.09641  -2.26782 -10.94901
  -2.88692  -2.50724 -11.12857
  -2.75225  -2.49228 -11.21835
  -2.45297  -2.56710 -11.45777
  -2.04895  -2.37257 -11.65230
  -2.03399  -2.43242 -11.83187
  -1.34565  -2.37257 -11.77201
  -1.03141  -2.32768 -12.04136
  -0.68725  -2.35760 -11.90669
  -0.17848  -2.25286 -12.11618
   0.21058  -2.17804 -11.84683
   0.70438  -2.02840 -11.75705
   1.10840  -1.90869 -11.56252
   1.55732  -1.66927 -11.23332
   1.88652  -1.44481 -11.14354
   2.38032  -1.08568 -10.88915
   2.96391  -0.92108 -10.79937
   3.29311  -0.90612 -10.47017
   3.62232  -0.89116 -10.18585
   3.87670  -0.63677 -10.03622
   4.31065  -0.42728  -9.87162
   4.98402  -0.12800  -9.60227
   5.53768  -0.00829  -9.15336
   5.98659   0.12638  -8.86904
   6.33076   0.12638  -8.55481
   6.70485   0.20120  -8.25553
   7.15376   0.14134  -7.94129
   7.70742   0.18623  -7.49238
   8.15633   0.00667  -7.13325
   8.51546   0.09645  -6.66937
   8.82970  -0.08311  -6.42995
   9.02423  -0.35246  -5.84636
   9.12898  -0.38239  -5.51716
   9.44322  -0.39735  -5.23285
   9.77242  -0.56195  -4.69415
  10.08666  -0.47217  -4.37992
  10.26622  -0.48713  -3.97589
  10.32608  -0.66670  -3.64669
  10.40090  -0.68166  -3.25763
  10.31112  -0.81634  -2.92843
  10.41586  -1.02583  -2.61419
  10.65528  -1.13058  -2.34484
  10.77499  -1.19043  -1.98571
  10.96952  -1.17547  -1.62658
  11.05930  -1.19043  -1.47695
  10.93959  -1.41489  -1.46198
  10.81988  -1.62438  -1.32731
  10.78996  -1.96855  -1.20760
  10.93959  -2.08826  -1.29738
  11.20894  -2.16308  -1.35724
  11.34362  -2.16308  -1.58169
  11.53814  -2.20797  -1.56673
  11.67282  -2.17804  -1.86600
  11.58304  -2.20797  -1.97075
  11.56807  -2.32768  -2.28499
  11.73267  -2.37257  -2.59923
  12.04691  -2.20797  -2.88354
  12.31626  -2.22293  -3.00325
  12.63050  -1.98351  -3.21274
  12.69035  -1.89373  -3.63173
  12.61554  -1.89373  -3.90108
  12.86992  -1.71416  -4.33502
  13.01956  -1.50467  -4.45473
  13.54329  -1.29518  -4.52955
  13.91738  -1.08568  -4.91861
  14.38126  -0.78641  -5.20292
  14.80024  -0.59188  -5.56205
  15.29405  -0.45721  -5.72665
  15.87764  -0.15793  -6.04089
  15.99735   0.11142  -6.13068
  16.64079   0.15631  -6.32520
  17.20941   0.21616  -6.87886
  17.98753   0.42566  -7.19310
  18.69082   0.53040  -7.47741
  19.03499   0.53040  -7.74676
  19.12477   0.69500  -8.04604
  19.58865   0.59026  -8.19567
  20.02260   0.35084  -8.49495
  20.38173   0.33587  -8.58473
  20.78575   0.24609  -8.58473
  21.14488   0.08149  -8.67452
  21.05510   0.15631  -8.68948
  21.04013   0.00667  -8.65955
  21.20473  -0.17290  -8.49495
  21.39926  -0.26268  -8.39020
  21.42919  -0.41232  -8.09093
  21.47408  -0.69663  -7.82158
  21.48905  -0.65174  -7.58216
  21.62372  -0.60684  -7.25296
  21.53394  -0.75648  -6.98361
  21.23466  -0.98094  -6.38506
  21.18977  -1.26525  -5.78651
  21.20473  -1.39992  -5.06825
  21.12991  -1.34007  -4.49963
  20.86057  -1.29518  -4.03575
  20.36676  -1.34007  -3.48209
  19.96274  -1.50467  -2.80872
  19.46894  -1.32510  -2.46455
  18.66089  -1.41489  -2.10542
  18.03242  -1.42985  -1.56673
  17.64336  -1.48971  -1.10285
  17.01488  -1.62438  -0.71379
  16.11706  -1.62438  -0.38459
  15.38383  -1.71416   0.27381
  14.91995  -1.75905   0.87236
  14.17177  -1.69920   1.44099
  13.33380  -1.59445   2.17421
  12.60057  -1.47474   2.71291
  11.85238  -1.50467   3.64066
  11.02938  -1.44481   4.50856
  10.25126  -1.37000   5.45127
   9.63775  -1.41489   6.45385
   8.76985  -1.29518   7.38160
   7.42311  -1.50467   8.83308
   6.15119  -1.16050   9.92544
   5.31322  -0.68166  10.70355
   4.77452  -0.75648  11.87073
   4.04130  -0.90612  13.17257
   2.75442  -0.98094  14.56420
   1.70695  -0.87619  15.82116
   0.62956  -1.05576  16.40475
  -0.25330  -0.89116  17.16790
  -1.21098  -0.95101  18.45478
  -2.12377  -0.92108  19.69677
  -3.03656  -1.04079  20.60956
  -3.63511  -0.98094  21.50739
  -4.48804  -1.01087  22.53989
  -5.40083  -1.08568  23.51253
  -5.90960  -1.01087  24.23079
  -6.40340  -0.84626  24.58992
  -7.07677  -0.74152  25.14358
  -8.12424  -0.63677  25.50271
  -8.81257  -0.21779  25.68228
  -9.44105   0.02163  25.96659
 -10.03960   0.26105  25.93666
 -10.98231   0.57529  25.96659
 -12.08963   1.00924  26.08630
 -12.62833   1.20377  26.13119
 -12.29913   1.35341  26.34068
 -12.23927   1.62276  26.19105
 -12.88271   1.99685  26.02645
 -13.88528   2.40087  26.13119
 -14.45391   2.80489  26.69981
 -14.42398   3.22388  26.90931
 -14.21449   3.41841  27.07391
 -14.04989   3.65783  27.28340
 -14.09478   3.82243  27.68742
 -14.31923   3.89725  28.31590
 -14.28931   4.03192  28.55532
 -13.81047   3.94214  28.73489
 -13.49623   4.04689  28.83963
 -13.42141   4.24141  29.28854
 -13.37652   4.09178  29.85717
 -13.15206   3.73265  29.90206
 -12.79293   3.55308  29.22869
 -12.32905   3.22388  28.19619
 -11.91007   2.81986  26.81952
 -11.40130   2.55051  25.29322
 -10.98231   2.25123  23.76692
 -10.63815   1.90707  22.18076
 -10.30895   1.47312  20.54971
  -9.88996   1.14392  19.15808
  -9.62061   0.91946  17.97594
  -9.45601   0.59026  16.85366
  -9.59069   0.41069  15.53685
  -9.86003   0.03660  14.20507
  -9.88996  -0.44224  13.05286
  -9.54579  -0.77145  11.75102
  -9.14177  -0.99590  10.04515
  -8.94724  -1.05576   8.36921
  -9.35126  -1.19043   7.35167
  -9.75529  -1.59445   6.64838
  -9.63558  -1.84884   6.07975
  -9.38119  -1.96855   5.18193
  -9.15674  -2.17804   3.99979
  -8.97717  -2.14811   3.10196
  -8.93228  -2.58206   2.26399
  -8.73775  -3.01601   1.83004
  -8.19906  -3.27039   1.27639
  -7.45087  -3.61456   0.72273
  -6.92714  -3.91384   0.31870
  -6.35851  -4.30289   0.27381
  -5.89464  -4.87152   0.45338
  -5.17638  -5.20072   0.67784
  -4.51797  -5.41021   0.60302
  -3.75482  -5.52992   0.54316
  -3.08145  -5.84416   0.51323
  -2.27341  -6.05365   0.90229
  -1.58507  -6.15840   1.24646
  -0.92667  -6.11351   1.62055
  -0.46279  -6.14344   2.15925
   0.25547  -6.17336   2.56327
   1.09344  -6.33796   2.96729
   1.99127  -6.51753   3.49102
   2.78434  -6.36789   4.07461
   3.17340  -6.24818   4.32899
   3.53253  -6.38286   4.67316
   4.13108  -6.57738   4.95747
   4.87927  -6.74199   5.36149
   5.40300  -6.68213   5.73559
   5.68731  -6.36789   6.07975
   5.56760  -6.09854   6.28925
   5.53768  -5.94891   6.57356
   5.59753  -5.93394   6.82794
   5.74717  -5.82920   6.94765
   5.53768  -5.49999   6.93269
   5.02891  -5.02115   6.78305
   4.50518  -4.55728   6.60348
   4.20590  -4.12333   6.46881
   3.77195  -3.83902   6.28925
   3.44275  -3.55471   6.18450
   2.93398  -3.00105   6.27428
   2.44018  -2.59702   6.46881
   1.94637  -2.04337   6.34910
   1.54235  -1.62438   6.13961
   1.18322  -1.35503   5.90019
   0.68942  -1.20539   5.66077
   0.42007  -0.78641   5.45127
   0.27043  -0.38239   4.92754
  -0.07373  -0.08311   4.41878
  -0.43286   0.11142   4.02972
  -0.49272   0.39573   3.38628
  -0.65732   0.56033   2.89247
  -0.62739   0.90450   2.41363
  -0.70221   1.17384   2.21910
  -0.62739   1.29355   1.65048
  -0.65732   1.59283   1.17164
  -0.76207   1.71254   0.70776
  -0.80696   2.01181   0.15410
  -0.82192   2.16145  -0.44445
  -0.67228   2.35598  -0.78861
  -0.61243   2.46073  -1.28242
  -0.53761   2.74504  -1.83608
  -0.55257   2.84978  -2.38974
  -0.41790   2.93957  -2.86858
  -0.08870   3.25381  -3.25763
   0.09087   3.32862  -3.55691
   0.34525   3.52315  -4.02079
   0.53978   3.50819  -4.26021
   0.74927   3.80746  -4.91861
   0.94380   4.01696  -5.15803
   1.25804   4.34616  -5.39745
   1.45257   4.24141  -5.51716
   1.73688   4.37609  -5.65184
   2.14090   4.60054  -5.77155
   2.50003   4.69033  -5.89126
   2.76938   4.92975  -5.84636
   3.14347   4.92975  -5.72665
   3.39786   5.00457  -5.63687
   3.74203   5.19909  -5.48723
   3.99641   5.31880  -5.47227
   4.20590   5.43851  -5.42738
   4.32561   5.51333  -5.53213
   4.50518   5.61808  -5.62191
   4.74460   5.73779  -5.53213
   4.90920   5.90239  -5.51716
   4.87927   5.87246  -5.63687
   4.78949   5.94728  -5.81644
   4.84934   6.17174  -5.78651
   4.86431   6.30641  -5.74162
   4.80445   6.53087  -5.95111
   4.69971   6.62065  -5.92118
   4.52014   6.89000  -6.29528
   4.20590   6.87504  -6.48981
   3.84677   7.02467  -6.66937
   3.71210   7.21920  -6.83397
   3.47268   7.35388  -7.22303
   3.21829   7.50351  -7.40260
   2.84420   7.39877  -7.70187
   2.42521   7.50351  -8.06100
   2.20076   7.42869  -8.45006
   1.87156   7.41373  -8.64459
   1.40768   7.15935  -8.83912
   0.95877   7.00971  -9.13839
   0.45000   6.74036  -9.48256
   0.09087   6.75533  -9.87162
  -0.31315   6.50094 -10.06614
  -0.94163   6.17174 -10.32053
  -1.37558   6.05203 -10.55995
  -1.83946   5.81261 -10.54499
  -2.48290   5.64801 -10.78441
  -3.18620   5.39362 -10.91908
  -3.85956   5.24399 -11.00886
  -4.42819   5.16917 -11.23332
  -4.80228   5.01953 -11.20339
  -5.50558   4.79507 -11.27821
  -6.22384   4.45091 -11.30814
  -7.01692   4.21149 -11.32310
  -7.75014   3.92718 -11.42785
  -8.43848   3.76257 -11.45777
  -8.97717   3.59797 -11.36799
  -9.66550   3.20891 -11.39792
 -10.15931   2.89468 -11.39792
 -10.75786   2.61036 -11.33806
 -11.19181   2.29613 -11.32310
 -11.35641   2.19138 -10.94901
 -11.88014   2.08663 -10.67966
 -12.14949   1.90707 -10.24571
 -12.16445   1.77239 -10.09607
 -12.41884   1.45815  -9.82672
 -12.61336   1.30852  -9.55738
 -12.80789   1.06910  -9.13839
