********************************************************************************
               CENTRO DE INSTRUMENTACION Y REGISTRO SISMICO  A.C.  
                       Coordinacion de Servicios Tecnicos
     Anaxagoras 814, Col. Narvarte, Benito Juarez, C.P. 03020 Mexico, D.F.
            Tels. 687 45 42/ 687 45  82             Fax. 669 25 12
********************************************************************************
ARCHIVO ESTANDAR DE ACELERACION:
VERSION DEL FORMATO                    : 2.0
NOMBRE DEL ARCHIVO                     : AP689802.031
FECHA Y HORA DE CREACION               : 18/ENERO/2000
REF. CATALOGO ACELEROGRAMAS, SMIS 1996 : REGISTRO No.     /PAG.


================================================================================
DATOS DE LA ESTACION:
NOMBRE DE LA ESTACION                  : APATLACO
CLAVE DE LA ESTACION                   : AP68
LOCALIZACION DE LA ESTACION            : Jardin de Ni¤os Juan Bautista de la
                                       : Salle Canal de Apatlaco y Ahuehuetes,
                                       : Col Iztacalco Infonavit, Iztacalc
                                       : 
                                       :
COORDENADAS DE LA ESTACION             : 19.381 LAT. N 
                                       : 99.107 LONG. W 
ALTITUD (msnm)                         : 2232
TIPO DE SUELO                          : ARCILLOSO, ZONA LAGO
                                       : 
                                       : 
INSTITUCION RESPONSABLE                : CIRES
                                       :

================================================================================
DATOS DEL ACELEROGRAFO:
MODELO DEL ACELEROGRAFO                : RAD-851
NUMERO DE SERIE DEL ACELEROGRAFO       : 255
NUMERO DE CANALES                      : 3
ORIENTACION C1-C6 (rumbo;orientacion)  : /N00E/+V/N90W
ORIENTACION C7-C12 (rumbo;orientacion) :
VEL. DE MUESTREO, C1-C6 (muestras/s)   : /100/100/100
VEL. DE MUESTREO, C7-C12 (muestras/s)  :
ESC. COMPLETA DE SENSORES, C1-C6, (g)  : /0.5/0.5/0.5
ESC. COMPLETA DE SENSORES, C7-C12, (g) :
FREC. NAT. DE SENSORES, C1-C6, (Hz)    : /30/30/30
FREC. NAT. DE SENSORES, C7-C12, (Hz)   :
AMORTIGUAMIENTO DE SENSORES, C1-C6     : /0.780/0.700/0.678
AMORTIGUAMIENTO DE SENSORES, C7-C12    :
INTERVALO DE MUESTREO, C1-C6, (s)      : /0.01/0.01/0.01
INTERVALO DE MUESTREO, C7-C12, (s)     :
UMBRAL DE DISPARO, C1-C6, (Gal)        : /3.42/4.15/3.42
UMBRAL DE DISPARO, C7-C12, (Gal)       :
MEMORIA DE PREEVENTO (s)               : 8
TIEMPO DE POSEVENTO (s)                : 8


================================================================================
DATOS DEL SISMO:
FECHA DEL SISMO (GMT)                  : 03/FEB/98
HORA EPICENTRO (GMT)                   : 03:02:01.1
MAGNITUD(ES)                           : /Mb=6.0,Ms=6.2,Mc=6.4,Ma=6.4
COORDENADAS DEL EPICENTRO              : 15.69 LAT. N
                                       : 96.37 LONG. W
PROFUNDIDAD FOCAL (km)                 : 33.0
FUENTE DE LOS DATOS EPICENTRALES       : SSN
                                       : INSTITUTO DE GEOFISICA, UNAM

================================================================================
DATOS DE ESTE REGISTRO:
HORA DE LA PRIMERA MUESTRA (GMT)       : 03:04:25.00
EXACTITUD DEL TIEMPO (s)               : 0.01
DURACION DEL REGISTRO (s), C1-C6       : /110.75/110.75/110.75
DURACION DEL REGISTRO (s), C7-C12      :
NUM. TOTAL DE MUESTRAS, C1-C6          : /11075/11075/11075
NUM. TOTAL DE MUESTRAS, C7-C12         :
ACEL. MAX. (Gal), C1-C6                : /3.55462/2.25648/4.99541
ACEL. MAX., C1-C6, EN LA MUESTRA       :
ACEL. MAX. (Gal), C7-C12               :
ACEL. MAX., C7-C12, EN LA MUESTRA      :
UNIDADES DE LOS DATOS                  : Gal (cm/s/s)
FACTOR DE DECIMACION                   : 1
FORMATO DATOS (FORTRAN,10 campos/dato) : 3F10.5


================================================================================
CALIDAD DEL ACELEROGRAMA:
REGISTRO DIGITAL COMPLETO CON TIEMPO ABSOLUTO CORRECTO.


================================================================================
COMENTARIOS:














================================================================================
DATOS DE ACELERACION:
---------+---------+---------+---------+---------+---------+---------+---------+
   CANAL-1   CANAL-2   CANAL-3   CANAL-4   CANAL-5   CANAL-6   CANAL-7   CANAL-8
      N00E        +V      N90W
---------+---------+---------+---------+---------+---------+---------+---------+
[...]
  -1.23376   0.58055   3.31948
  -0.99434   0.34113   3.55890
  -1.47318   0.81997   3.31948
  -0.99434   0.58055   3.55890
  -1.23376   0.34113   3.79832
  -0.99434   0.81997   3.31948
  -0.51550   0.34113   3.55890
  -0.27608   0.34113   3.55890
  -0.27608   0.58055   3.08006
  -0.27608   0.58055   3.08006
   0.20275   0.34113   3.08006
   0.44217   0.58055   3.08006
   0.44217   0.58055   2.84064
   0.68159   0.58055   2.36181
   1.16043   0.58055   2.12239
   1.39985   0.10171   2.12239
   1.63927   0.34113   1.16471
   1.87869   0.34113   0.92529
   1.87869   0.34113   0.68587
   2.35753   0.10171   0.20704
   2.35753  -0.13771  -0.27180
   2.35753  -0.13771  -0.27180
   2.59694   0.10171  -0.99006
   2.35753  -0.13771  -0.75064
   2.59694  -0.13771  -1.22948
   2.59694   0.10171  -1.70832
   2.35753  -0.37713  -1.22948
   2.35753  -0.61654  -1.94774
   2.59694  -0.37713  -1.94774
   1.87869  -0.61654  -1.70832
   1.87869  -0.85596  -2.18715
   1.63927  -0.13771  -1.94774
   1.63927  -0.85596  -1.70832
   0.92101  -0.37713  -1.70832
   1.39985  -0.85596  -1.70832
   0.92101  -0.61654  -1.46890
   0.68159  -0.85596  -1.22948
   0.92101  -0.61654  -1.22948
   0.20275  -0.61654  -0.99006
   0.20275  -0.61654  -0.51122
   0.20275  -0.61654  -0.51122
  -0.51550   0.10171  -0.51122
  -0.03666  -0.37713  -0.27180
  -0.51550  -0.37713  -0.27180
  -0.51550   0.10171  -0.51122
  -0.27608  -0.37713  -0.27180
  -0.51550  -0.13771  -0.03238
  -0.99434   0.10171  -0.03238
  -0.51550   0.10171  -0.03238
  -0.51550   0.34113  -0.03238
  -0.51550   0.34113  -0.51122
  -0.27608   0.34113   0.20704
  -0.03666   0.34113  -0.27180
  -0.03666   0.81997  -0.27180
   0.20275   0.58055  -0.27180
  -0.03666   1.29881  -0.51122
   0.44217   1.05939  -0.27180
   0.68159   1.05939  -0.51122
   0.44217   1.29881  -0.99006
   0.44217   1.05939  -0.75064
   0.44217   1.05939  -0.75064
   0.44217   1.05939  -0.75064
   0.44217   1.29881  -0.75064
   0.68159   1.29881  -0.99006
   0.44217   1.29881  -1.22948
   0.20275   1.29881  -1.22948
   0.44217   0.81997  -1.22948
   0.44217   1.29881  -1.46890
   0.20275   1.05939  -1.46890
   0.92101   0.81997  -1.46890
   0.68159   1.05939  -1.46890
   0.20275   0.81997  -1.46890
   0.44217   0.58055  -1.22948
   0.44217   0.58055  -1.22948
   0.20275   0.58055  -1.22948
   0.44217   0.10171  -0.99006
   0.44217  -0.13771  -0.99006
   0.68159  -0.37713  -0.75064
   0.68159  -0.37713  -0.51122
   0.44217  -0.37713  -0.27180
   0.68159  -0.61654   0.20704
   0.92101  -1.09538   0.20704
   0.68159  -0.85596  -0.03238
   0.68159  -0.85596   0.68587
   1.39985  -1.09538   0.44645
   0.68159  -0.85596   0.92529
   1.16043  -1.09538   1.16471
   1.39985  -1.33480   0.92529
   1.39985  -1.33480   1.16471
   1.87869  -1.81364   1.16471
   1.87869  -1.33480   0.92529
   1.87869  -1.33480   1.16471
   2.35753  -2.05306   1.16471
   2.11811  -1.33480   1.40413
   1.87869  -1.09538   1.16471
   1.87869  -1.57422   1.64355
   1.87869  -1.33480   1.16471
   2.35753  -1.57422   0.92529
   1.87869  -1.57422   1.40413
   2.35753  -1.57422   1.16471
   2.11811  -0.85596   0.44645
   1.87869  -0.61654   0.92529
   2.11811  -1.09538   0.20704
   1.87869  -0.85596  -0.03238
   1.39985  -0.85596   0.20704
   1.63927  -0.61654  -0.27180
   1.16043  -0.37713  -0.51122
   0.92101  -0.13771  -0.51122
   0.92101   0.10171  -0.75064
   0.44217   0.10171  -0.51122
   0.20275  -0.13771  -0.99006
  -0.03666   0.34113  -1.22948
  -0.27608   0.34113  -1.46890
  -0.75492   0.58055  -1.22948
  -0.27608   0.58055  -1.22948
  -0.75492   0.81997  -1.22948
  -0.99434   0.81997  -0.99006
  -1.23376   0.81997  -0.75064
  -1.47318   0.81997  -0.51122
  -1.47318   0.81997  -0.51122
  -1.47318   0.81997  -0.27180
  -1.71260   1.29881  -0.27180
  -1.47318   1.05939   0.20704
  -1.47318   1.29881  -0.03238
  -1.71260   1.05939   0.68587
  -1.71260   1.29881   0.92529
  -1.47318   1.29881   1.16471
  -1.71260   1.29881   1.16471
  -1.47318   1.05939   1.64355
  -1.23376   1.29881   1.88297
  -1.47318   1.29881   2.12239
  -1.23376   1.29881   2.36181
  -0.99434   1.29881   2.36181
  -0.51550   1.05939   2.60122
  -0.03666   0.81997   2.60122
  -0.27608   0.81997   2.36181
  -0.27608   1.05939   3.08006
  -0.03666   0.81997   2.84064
   0.20275   0.58055   2.60122
   0.20275   0.58055   2.36181
   0.44217   0.34113   2.60122
   0.68159   0.10171   1.88297
   0.68159   0.10171   2.36181
   0.92101  -0.13771   1.64355
   1.16043  -0.13771   1.64355
   0.68159   0.10171   1.40413
   0.92101  -0.13771   1.40413
   1.16043  -0.37713   1.16471
   0.20275  -0.13771   1.16471
   0.68159  -0.37713   0.68587
   0.68159  -0.61654   0.44645
   0.44217  -0.61654   0.44645
   0.44217  -0.85596   0.20704
   0.68159  -0.85596  -0.27180
   0.44217  -0.85596  -0.51122
   0.44217  -1.09538  -0.51122
   0.44217  -0.61654  -0.75064
   0.44217  -0.85596  -0.99006
   0.68159  -0.61654  -1.46890
   0.20275  -0.61654  -0.99006
  -0.03666  -0.37713  -1.22948
  -0.03666  -0.61654  -0.99006
  -0.03666  -0.37713  -1.46890
  -0.03666  -0.37713  -1.22948
   0.20275  -0.61654  -1.70832
  -0.03666  -0.13771  -1.94774
  -0.03666  -0.37713  -1.46890
   0.20275  -0.13771  -1.70832
  -0.27608   0.34113  -1.94774
  -0.51550   0.10171  -1.70832
  -0.27608   0.34113  -2.18715
  -0.75492   1.05939  -2.42657
  -0.51550   0.58055  -1.94774
  -0.51550   0.58055  -2.42657
  -0.99434   1.05939  -2.42657
  -0.51550   0.58055  -2.66599
  -0.75492   0.81997  -2.90541
  -0.51550   1.29881  -3.14483
  -0.99434   1.05939  -2.90541
  -0.99434   1.05939  -2.90541
  -1.47318   1.29881  -3.14483
  -1.47318   1.29881  -3.14483
  -1.47318   1.77765  -3.62367
  -1.47318   1.53823  -3.62367
  -1.71260   1.29881  -3.38425
  -1.47318   1.53823  -3.62367
  -1.47318   1.29881  -3.86309
  -1.95202   1.05939  -3.38425
  -1.47318   1.05939  -4.10251
  -1.95202   0.81997  -3.62367
  -1.71260   0.34113  -3.14483
  -1.95202   0.58055  -2.90541
  -1.95202   0.34113  -2.18715
  -1.47318   0.10171  -2.42657
  -1.71260   0.10171  -1.70832
  -1.95202   0.10171  -1.46890
  -0.99434  -0.37713  -1.46890
  -1.23376  -0.61654  -0.75064
  -0.99434  -0.37713  -0.27180
  -0.51550  -0.85596   0.20704
  -0.75492  -0.85596   0.20704
  -0.51550  -0.85596   0.68587
  -0.03666  -1.09538   0.92529
  -0.27608  -1.57422   1.16471
   0.20275  -1.57422   1.64355
   0.44217  -1.57422   1.88297
   0.44217  -1.81364   2.12239
   0.68159  -1.57422   2.36181
   0.68159  -1.57422   2.60122
   0.68159  -1.33480   3.08006
   0.92101  -1.57422   2.84064
   0.92101  -1.57422   2.84064
   1.16043  -1.57422   3.08006
   1.39985  -1.81364   2.84064
   1.16043  -1.57422   2.84064
   1.87869  -1.33480   2.36181
   1.63927  -1.33480   2.12239
   1.39985  -0.85596   1.88297
   1.63927  -1.09538   1.88297
   1.63927  -0.85596   1.88297
   1.39985  -1.09538   1.88297
   1.87869  -1.33480   1.40413
   1.63927  -0.61654   1.16471
   1.39985  -0.61654   1.16471
   1.63927  -0.85596   1.16471
   1.63927  -0.37713   0.68587
   1.16043  -0.61654   0.68587
   1.16043  -0.61654   0.44645
   0.92101  -0.13771   0.20704
   0.92101  -0.13771   0.20704
   0.68159   0.10171   0.20704
   0.92101   0.34113  -0.27180
   0.44217   0.34113  -0.03238
   0.20275   0.34113  -0.27180
   0.20275   0.58055  -0.51122
  -0.27608   0.58055  -0.27180
  -0.27608   0.81997  -0.75064
  -0.51550   0.81997  -0.99006
  -0.99434   1.29881  -0.27180
  -0.75492   1.29881  -1.22948
  -0.99434   1.53823  -0.99006
  -1.47318   1.29881  -0.75064
  -0.99434   1.29881  -1.22948
  -1.23376   1.77765  -1.22948
  -1.23376   1.53823  -1.22948
  -1.23376   1.53823  -1.70832
  -1.47318   2.01706  -1.22948
  -0.99434   1.77765  -1.46890
  -0.75492   1.77765  -1.46890
  -1.23376   2.25648  -1.22948
  -0.99434   2.25648  -1.46890
  -0.99434   2.01706  -1.22948
  -0.99434   2.01706  -1.22948
  -0.75492   1.77765  -1.22948
  -0.27608   1.77765  -1.46890
  -0.27608   2.01706  -1.70832
  -0.03666   1.53823  -1.22948
   0.44217   1.29881  -1.22948
   0.20275   1.29881  -0.99006
   0.44217   1.29881  -0.51122
   0.92101   1.05939  -0.75064
   0.92101   1.05939  -0.51122
   0.92101   0.58055  -0.03238
   0.92101   0.34113  -0.03238
   1.16043   0.58055  -0.03238
   1.16043  -0.13771   0.44645
   1.16043  -0.13771   0.20704
   1.16043   0.10171   0.44645
   1.39985  -1.09538   0.92529
   1.39985  -0.61654   0.68587
   1.16043  -0.61654   0.68587
   1.39985  -1.33480   0.92529
   1.39985  -1.33480   0.68587
   1.16043  -1.33480   1.40413
   1.16043  -1.57422   1.16471
   1.16043  -1.33480   0.92529
   0.92101  -1.33480   1.16471
   0.44217  -1.57422   1.40413
   0.92101  -1.33480   0.92529
   0.44217  -1.81364   1.40413
   0.20275  -1.81364   1.40413
   0.44217  -1.57422   0.68587
  -0.03666  -1.57422   1.40413
   0.20275  -1.57422   1.16471
  -0.03666  -1.33480   1.16471
  -0.27608  -0.85596   1.16471
  -0.03666  -1.57422   1.16471
   0.20275  -1.33480   0.92529
  -0.51550  -0.85596   0.92529
  -0.03666  -1.33480   0.92529
  -0.27608  -0.85596   0.92529
  -0.27608  -0.85596   0.92529
  -0.27608  -1.09538   1.16471
  -0.51550  -0.61654   1.16471
  -0.51550  -0.61654   0.92529
  -0.03666  -0.61654   1.16471
  -0.03666  -0.37713   0.92529
  -0.03666  -0.61654   0.68587
   0.20275  -0.61654   0.92529
  -0.03666  -0.13771   0.44645
  -0.27608   0.10171   0.44645
  -0.03666  -0.13771   0.44645
  -0.27608   0.34113  -0.27180
  -0.51550   0.34113   0.20704
  -0.75492  -0.13771   0.20704
  -0.75492   0.58055  -0.27180
  -0.99434   0.34113  -0.03238
  -0.99434   0.10171  -0.27180
  -0.99434   0.58055  -0.75064
  -0.99434   0.34113  -0.51122
  -0.75492   0.34113  -0.75064
  -0.99434   0.81997  -0.99006
  -1.47318   0.34113  -0.51122
  -1.23376   0.58055  -0.75064
  -1.23376   0.34113  -0.51122
  -1.47318   0.81997  -0.03238
  -1.47318   0.58055  -0.03238
  -1.23376   0.58055  -0.51122
  -1.71260   0.58055  -0.27180
  -1.47318   0.34113  -0.27180
  -0.99434   0.10171  -0.27180
  -1.23376   0.34113   0.20704
  -0.75492   0.10171  -0.03238
  -0.99434   0.34113  -0.27180
  -0.99434   0.58055   0.44645
  -0.27608  -0.13771  -0.03238
  -0.27608   0.34113   0.20704
  -0.27608   0.10171   0.44645
   0.20275  -0.13771   0.44645
  -0.03666  -0.13771   0.92529
   0.20275  -0.13771   1.16471
   0.44217  -0.37713   1.16471
   0.92101  -0.13771   1.40413
   0.92101  -0.37713   1.88297
   1.16043  -0.37713   1.88297
   0.68159  -0.37713   2.36181
   1.39985  -0.37713   2.60122
   0.92101  -0.61654   2.84064
   1.16043  -0.37713   3.08006
   1.63927  -0.85596   3.55890
   1.39985  -0.61654   3.79832
   1.39985  -0.85596   3.79832
   1.39985  -0.85596   4.27716
   1.63927  -0.85596   4.27716
   1.16043  -0.85596   4.27716
   1.16043  -0.85596   4.75600
   1.16043  -0.85596   4.51658
   0.68159  -0.61654   4.75600
   0.44217  -0.61654   4.99541
   0.92101  -0.85596   4.03774
   0.20275  -0.37713   4.51658
   0.20275  -0.61654   4.27716
   0.20275  -0.37713   4.03774
  -0.27608  -0.37713   4.03774
  -0.27608  -0.61654   3.55890
  -0.27608   0.10171   2.84064
  -0.75492  -0.13771   2.84064
  -0.75492  -0.37713   2.60122
  -0.99434   0.10171   1.88297
  -1.47318  -0.13771   1.88297
  -1.23376   0.10171   1.16471
  -1.47318   0.34113   0.68587
  -1.47318   0.58055   0.20704
  -1.23376   0.34113  -0.03238
  -0.99434   0.58055  -0.51122
  -1.71260   0.58055  -0.99006
  -1.47318   0.58055  -1.22948
  -1.47318   0.81997  -1.94774
  -1.71260   0.81997  -1.70832
  -1.23376   0.58055  -2.18715
  -0.99434   0.81997  -2.66599
  -1.23376   1.05939  -2.42657
  -0.75492   0.58055  -2.90541
  -0.75492   1.05939  -2.90541
  -0.99434   1.05939  -3.14483
  -0.75492   0.58055  -3.14483
  -0.75492   1.29881  -3.38425
  -0.75492   1.53823  -2.90541
  -0.51550   1.05939  -2.90541
  -0.75492   1.29881  -2.90541
  -0.75492   1.05939  -2.66599
  -0.51550   1.05939  -2.42657
  -0.51550   1.05939  -2.42657
  -0.51550   0.81997  -2.42657
  -0.27608   0.81997  -1.94774
  -0.27608   0.81997  -2.42657
  -0.75492   0.58055  -1.70832
  -0.51550   0.58055  -1.46890
  -0.03666   0.58055  -1.70832
  -0.75492   0.34113  -0.99006
  -0.51550   0.34113  -0.99006
  -0.51550   0.34113  -1.22948
  -0.99434   0.10171  -0.51122
  -0.75492  -0.13771  -0.51122
  -0.75492  -0.13771  -0.75064
  -0.99434  -0.37713  -0.03238
  -0.51550  -0.85596  -0.27180
  -0.51550  -0.13771  -0.03238
  -0.99434  -0.85596   0.44645
  -0.51550  -0.85596   0.20704
  -0.75492  -0.85596   0.44645
  -0.51550  -0.85596   0.44645
  -0.03666  -1.33480   0.68587
  -0.27608  -1.33480   0.92529
  -0.27608  -1.09538   0.92529
  -0.03666  -1.57422   0.92529
  -0.03666  -1.33480   0.92529
   0.20275  -1.57422   1.16471
   0.44217  -1.33480   1.16471
   0.68159  -1.09538   0.92529
   0.44217  -1.09538   1.16471
   0.92101  -1.33480   1.16471
   0.92101  -0.61654   0.92529
   0.92101  -0.85596   1.40413
   1.16043  -1.09538   0.92529
   1.39985  -0.61654   0.68587
   1.39985  -0.61654   0.92529
   1.39985  -0.61654   0.68587
   1.16043  -0.13771   0.44645
   1.39985  -0.61654   0.44645
   1.63927  -0.37713   0.20704
   1.39985  -0.13771  -0.03238
   1.16043  -0.37713  -0.03238
   1.16043  -0.13771  -0.03238
   1.16043   0.10171  -0.51122
   1.16043  -0.13771  -0.51122
   1.39985   0.10171  -0.99006
   1.16043   0.10171  -1.22948
   0.92101  -0.13771  -1.22948
   0.68159   0.10171  -1.70832
   0.44217   0.10171  -1.70832
   0.20275   0.10171  -1.94774
   0.20275   0.10171  -2.66599
  -0.03666  -0.13771  -2.90541
  -0.03666  -0.37713  -2.66599
  -0.27608  -0.13771  -3.62367
  -0.75492  -0.13771  -3.38425
  -0.75492   0.10171  -3.62367
  -0.51550  -0.37713  -3.86309
  -0.75492   0.10171  -4.10251
  -0.75492  -0.13771  -3.86309
  -0.75492   0.10171  -3.86309
  -1.47318   0.34113  -3.62367
  -0.99434   0.10171  -3.86309
  -0.75492   0.34113  -3.62367
  -1.23376   0.58055  -3.62367
  -0.99434   0.10171  -3.38425
  -1.23376   0.58055  -3.38425
  -0.99434   0.58055  -2.90541
  -1.23376   0.34113  -2.42657
  -0.99434   0.81997  -2.42657
  -0.99434   0.81997  -1.94774
  -0.75492   0.58055  -1.22948
  -0.75492   0.81997  -1.22948
  -0.75492   1.29881  -0.99006
  -0.99434   0.81997  -0.27180
  -0.51550   0.81997  -0.27180
  -0.51550   1.05939  -0.03238
  -0.03666   0.81997   0.44645
  -0.27608   1.05939   0.44645
  -0.03666   1.05939   1.16471
   0.20275   0.81997   1.16471
   0.44217   1.29881   1.16471
   0.20275   1.29881   1.88297
   0.92101   0.81997   1.88297
   0.92101   1.05939   1.88297
   0.68159   0.81997   2.36181
   0.92101   0.81997   1.88297
   1.39985   0.34113   1.88297
   0.92101   0.58055   1.64355
   0.92101   0.58055   1.88297
   1.39985   0.10171   1.64355
   1.16043   0.58055   1.16471
   1.39985   0.10171   1.16471
   1.39985   0.34113   0.92529
   1.16043   0.34113   0.92529
   1.63927   0.10171   0.68587
   1.39985   0.10171  -0.03238
   1.16043   0.10171   0.20704
   1.63927  -0.37713  -0.27180
   1.39985  -0.13771  -0.51122
   1.39985   0.10171  -0.75064
   2.11811  -0.37713  -1.22948
   1.63927   0.10171  -1.46890
   1.39985  -0.13771  -1.70832
   1.87869  -0.61654  -1.94774
   1.63927  -0.61654  -2.18715
   1.87869  -0.61654  -2.66599
   1.39985  -0.61654  -1.94774
   1.63927  -0.37713  -2.66599
   1.63927  -1.09538  -2.90541
   1.63927  -1.09538  -2.90541
   1.39985  -0.61654  -3.14483
   1.63927  -1.09538  -2.90541
   1.16043  -1.09538  -2.90541
   0.92101  -0.85596  -2.90541
   0.92101  -1.33480  -2.90541
   0.92101  -1.09538  -2.90541
