********************************************************************************
              CENTRO DE INSTRUMENTACION Y REGISTRO SISMICO  A.C.

    Anaxagoras 814, Col. Narvarte, Benito Juarez, C.P. 03020 Mexico, D.F.
           Tels. 5687 45 42/ 5687 45  82             Fax. 5669 25 12
********************************************************************************
ARCHIVO ESTANDAR DE ACELERACION:
VERSION DEL FORMATO                    : 2.0
NOMBRE DEL ARCHIVO                     : AP6820130422011634
FECHA Y HORA DE CREACION               : 03/MAY/13, 11:40
REF. CATALOGO ACELEROGRAMAS, SMIS 1996 : REGISTRO No.     /PAG.


================================================================================
DATOS DE LA ESTACION:
NOMBRE DE LA ESTACION                  : JARDÍN DE NIÑOS "JUAN B. DE LA SALLE"
CLAVE DE LA ESTACION                   : AP68
LOCALIZACION DE LA ESTACION            : Del. Iztapalapa, Col. Santa María      
                                       : Purísima Atlazolpa,  entre Canal de    
                                       : Apatlaco y Ahuehuetes.                 
                                       :                                        
                                       : 
COORDENADAS DE LA ESTACION             : 19.3809 LAT. N
                                       : 99.1068 LONG. W
ALTITUD (msnm)                         : 2232
TIPO DE SUELO                          : Arcilloso, zona lago                
                                       :                           
                                       : 
INSTITUCION RESPONSABLE                : CIRES
                                       : 

================================================================================
DATOS DEL ACELEROGRAFO:
MODELO DEL ACELEROGRAFO                : RADESD
NUMERO DE SERIE DEL ACELEROGRAFO       : 255
NUMERO DE CANALES                      : 3
ORIENTACION C1-C6 (rumbo;orientacion)  : /N00E/+V/N90W
ORIENTACION C7-C12 (rumbo;orientacion) : 
VEL. DE MUESTREO, C1-C6 (muestras/s)   : /100/100/100
VEL. DE MUESTREO, C7-C12 (muestras/s)  : 
ESC. COMPLETA DE SENSORES, C1-C6, (g)  : /0.5/0.5/0.5
ESC. COMPLETA DE SENSORES, C7-C12, (g) : 
FREC. NAT. DE SENSORES, C1-C6, (Hz)    : /30/30/30
FREC. NAT. DE SENSORES, C7-C12, (Hz)   : 
AMORTIGUAMIENTO DE SENSORES, C1-C6     : /0.780/0.700/0.678
AMORTIGUAMIENTO DE SENSORES, C7-C12    : 
INTERVALO DE MUESTREO, C1-C6, (s)      : /0.01/0.01/0.01
INTERVALO DE MUESTREO, C7-C12, (s)     : 
UMBRAL DE DISPARO, C1-C6, (Gal)        : /55.78/107.74/75.18
UMBRAL DE DISPARO, C7-C12, (Gal)       : 
MEMORIA DE PREEVENTO (s)               : 56.0
TIEMPO DE POSEVENTO (s)                : 80.0


================================================================================
DATOS DEL SISMO:
FECHA DEL SISMO (GMT)                  : 22/ABR/13
HORA EPICENTRO (GMT)                   : 01:16:34.0
MAGNITUD(ES)                           : /Mc=5.8
COORDENADAS DEL EPICENTRO              : 17.87 LAT. N
                                       : 102.19 LONG. W
PROFUNDIDAD FOCAL (km)                 : 10
FUENTE DE LOS DATOS EPICENTRALES       : SSN
                                       : INSTITUTO DE GEOFISICA, UNAM

================================================================================
DATOS DE ESTE REGISTRO:
HORA DE LA PRIMERA MUESTRA (GMT)       : 01:18:22.00
EXACTITUD DEL TIEMPO (s)               : 0.01
DURACION DEL REGISTRO (s), C1-C6       : /149.6/149.6/149.6
DURACION DEL REGISTRO (s), C7-C12      : 
NUM. TOTAL DE MUESTRAS, C1-C6          : /14960/14960/14960
NUM. TOTAL DE MUESTRAS, C7-C12         : 
ACEL. MAX. (Gal), C1-C6                : /5.12764/1.85478/5.84543
ACEL. MAX., C1-C6, EN LA MUESTRA       : /7191/3576/3530
ACEL. MAX. (Gal), C7-C12               : 
ACEL. MAX., C7-C12, EN LA MUESTRA      : 
UNIDADES DE LOS DATOS                  : Gal (cm/s/s)
FACTOR DE DECIMACION                   : 1
FORMATO DATOS (FORTRAN,10 campos/dato) : 3F10.5


================================================================================
CALIDAD DEL ACELEROGRAMA:
REGISTRO DIGITAL COMPLETO CON TIEMPO ABSOLUTO CORRECTO.


================================================================================
COMENTARIOS:














================================================================================
DATOS DE ACELERACION:
---------+---------+---------+---------+---------+---------+---------+---------+
   CANAL-1   CANAL-2   CANAL-3   CANAL-4   CANAL-5   CANAL-6   CANAL-7   CANAL-8
      N00E        +V      N90W
---------+---------+---------+---------+---------+---------+---------+---------+
[...]
   1.58123   0.22518  -1.61068
   1.44655   0.10547  -1.68550
   1.35677   0.03065  -1.77528
   1.31188  -0.05913  -1.89499
   1.29692  -0.13395  -2.01470
   1.22210  -0.14892  -2.10449
   1.20713  -0.20877  -2.22420
   1.22210  -0.25366  -2.32894
   1.22210  -0.31352  -2.40376
   1.22210  -0.38834  -2.50851
   1.25202  -0.44819  -2.64318
   1.28195  -0.46315  -2.77786
   1.26699  -0.41826  -2.88260
   1.32684  -0.44819  -2.97238
   1.41663  -0.41826  -3.10706
   1.52137  -0.38834  -3.16691
   1.62612  -0.34344  -3.18188
   1.71590  -0.35841  -3.16691
   1.74583  -0.41826  -3.13699
   1.79072  -0.43323  -3.07713
   1.88050  -0.43323  -2.97238
   1.97029  -0.44819  -2.80778
   2.09000  -0.35841  -2.73296
   2.19474  -0.23870  -2.61325
   2.25460  -0.20877  -2.50851
   2.35934  -0.19381  -2.43369
   2.41920  -0.14892  -2.32894
   2.46409  -0.13395  -2.25412
   2.47905  -0.05913  -2.23916
   2.52394  -0.01424  -2.23916
   2.59876   0.07554  -2.28405
   2.71847   0.10547  -2.35887
   2.83818   0.12043  -2.44865
   2.89804   0.16532  -2.56836
   2.91300   0.25511  -2.62822
   2.85315   0.25511  -2.71800
   2.70351   0.32992  -2.77786
   2.59876   0.32992  -2.80778
   2.49402   0.37482  -2.85267
   2.35934   0.38978  -2.82275
   2.19474   0.43467  -2.77786
   2.09000   0.49453  -2.74793
   1.92539   0.53942  -2.73296
   1.77576   0.53942  -2.73296
   1.64108   0.56935  -2.77786
   1.49144   0.58431  -2.79282
   1.35677   0.59927  -2.83771
   1.20713   0.61424  -2.88260
   1.11735   0.59927  -2.92749
   0.99764   0.56935  -2.88260
   0.83304   0.52445  -2.86764
   0.74326   0.49453  -2.85267
   0.66844   0.46460  -2.86764
   0.69837   0.38978  -2.92749
   0.74326   0.37482  -2.91253
   0.74326   0.32992  -2.89757
   0.78815   0.22518  -2.89757
   0.77318   0.18029  -2.85267
   0.75822   0.18029  -2.83771
   0.63851   0.13540  -2.77786
   0.48887   0.06058  -2.68807
   0.32427  -0.02921  -2.58333
   0.20456  -0.13395  -2.49354
   0.08485  -0.25366  -2.38880
  -0.01989  -0.34344  -2.38880
  -0.01989  -0.40330  -2.34391
  -0.06479  -0.38834  -2.35887
  -0.04982  -0.35841  -2.31398
  -0.04982  -0.32848  -2.38880
  -0.12464  -0.32848  -2.44865
  -0.12464  -0.29855  -2.55340
  -0.10968  -0.32848  -2.68807
  -0.06479  -0.32848  -2.77786
  -0.03486  -0.38834  -2.92749
  -0.01989  -0.43323  -3.10706
  -0.00493  -0.44819  -3.24173
   0.05492  -0.46315  -3.37641
   0.12974  -0.50805  -3.49612
   0.21953  -0.55294  -3.60086
   0.29434  -0.68761  -3.72057
   0.39909  -0.79236  -3.79539
   0.38413  -0.89710  -3.90014
   0.33924  -0.97192  -3.88517
   0.27938  -1.03178  -3.87021
   0.21953  -1.13652  -3.82532
   0.21953  -1.18141  -3.79539
   0.20456  -1.25623  -3.76546
   0.23449  -1.33105  -3.73554
   0.26442  -1.40587  -3.67568
   0.30931  -1.39091  -3.57094
   0.36916  -1.43580  -3.46619
   0.41405  -1.40587  -3.37641
   0.44398  -1.36098  -3.36144
   0.45895  -1.31609  -3.34648
   0.39909  -1.31609  -3.37641
   0.39909  -1.27120  -3.39137
   0.33924  -1.21134  -3.39137
   0.30931  -1.18141  -3.37641
   0.24945  -1.16645  -3.36144
   0.17463  -1.16645  -3.34648
   0.11478  -1.15149  -3.22677
  -0.07975  -1.09163  -3.21181
  -0.25932  -0.97192  -3.13699
  -0.46881  -0.83725  -2.98735
  -0.66334  -0.74747  -2.86764
  -0.97758  -0.79236  -2.71800
  -1.17210  -0.76243  -2.47858
  -1.41152  -0.73250  -2.22420
  -1.56116  -0.64272  -1.96981
  -1.63598  -0.50805  -1.70047
  -1.69584  -0.47812  -1.47601
  -1.69584  -0.44819  -1.29644
  -1.60605  -0.47812  -1.10191
  -1.53123  -0.49308  -0.86249
  -1.45642  -0.43323  -0.65300
  -1.41152  -0.37337  -0.45847
  -1.35167  -0.35841  -0.32380
  -1.27685  -0.37337  -0.27891
  -1.21700  -0.43323  -0.24898
  -1.17210  -0.44819  -0.21905
  -1.17210  -0.47812  -0.15920
  -1.14218  -0.44819  -0.11431
  -1.17210  -0.38834  -0.02452
  -1.15714  -0.40330   0.00540
  -1.18707  -0.37337  -0.00956
  -1.21700  -0.46315   0.02037
  -1.24692  -0.50805   0.11015
  -1.24692  -0.49308   0.18497
  -1.32174  -0.52301   0.25979
  -1.30678  -0.46315   0.31964
  -1.32174  -0.49308   0.40942
  -1.30678  -0.53797   0.51417
  -1.29181  -0.52301   0.57403
  -1.32174  -0.47812   0.60395
  -1.35167  -0.43323   0.66381
  -1.39656  -0.37337   0.70870
  -1.35167  -0.35841   0.76856
  -1.36663  -0.34344   0.76856
  -1.41152  -0.20877   0.76856
  -1.45642  -0.04417   0.82841
  -1.50131   0.06058   0.96308
  -1.50131   0.10547   1.14265
  -1.53123   0.09050   1.26236
  -1.54620   0.07554   1.35214
  -1.50131   0.09050   1.41200
  -1.45642   0.10547   1.53171
  -1.42649   0.04561   1.65142
  -1.36663   7.2E-40   1.75616
  -1.27685  -0.04417   1.89084
  -1.14218   7.2E-40   1.92076
  -1.08232   0.09050   2.02551
  -1.06736   0.16532   2.10033
  -1.03743   0.24014   2.17515
  -1.03743   0.25511   2.26493
  -1.05239   0.27007   2.35471
  -1.03743   0.31496   2.36968
  -1.08232   0.37482   2.35471
  -1.15714   0.43467   2.41457
  -1.20203   0.49453   2.45946
  -1.23196   0.55438   2.51932
  -1.29181   0.58431   2.56421
  -1.32174   0.64416   2.57917
  -1.45642   0.62920   2.60910
  -1.66591   0.62920   2.68392
  -1.87540   0.59927   2.81859
  -2.05497   0.52445   2.90837
  -2.20460   0.44963   3.08794
  -2.41410   0.41971   3.20765
  -2.60863   0.41971   3.32736
  -2.80315   0.40474   3.35729
  -2.99768   0.40474   3.46203
  -3.17725   0.32992   3.55181
  -3.32689   0.25511   3.62663
  -3.41667   0.21021   3.70145
  -3.52141   0.27007   3.79123
  -3.64113   0.34489   3.86605
  -3.79076   0.37482   3.98576
  -3.92544   0.35985   4.19526
  -4.07507   0.31496   4.34489
  -4.17982   0.32992   4.43468
  -4.17982   0.37482   4.50950
  -4.16486   0.46460   4.61424
  -4.16486   0.41971   4.71899
  -4.17982   0.31496   4.82373
  -4.14989   0.18029   4.97337
  -4.06011   0.06058   5.04819
  -3.95536   0.01569   5.13797
  -3.88055  -0.01424   5.25768
  -3.80573  -0.08906   5.37739
  -3.71594  -0.16388   5.43725
  -3.58127  -0.11899   5.60185
  -3.59623  -0.22373   5.51207
  -3.65609  -0.29855   5.39236
  -3.64113  -0.28359   5.36243
  -3.62616  -0.29855   5.39236
  -3.68602  -0.31352   5.36243
  -3.70098  -0.35841   5.28761
  -3.71594  -0.40330   5.19783
  -3.85062  -0.47812   4.92848
  -3.97033  -0.56790   4.71899
  -3.95536  -0.47812   4.70402
  -3.94040  -0.46315   4.67410
  -4.01522  -0.40330   4.49453
  -4.01522  -0.40330   4.27008
  -4.00026  -0.34344   4.07555
  -3.91047  -0.32848   3.95584
  -3.80573  -0.25366   3.88102
  -3.76084  -0.20877   3.82116
  -3.73091  -0.14892   3.74634
  -3.65609  -0.14892   3.70145
  -3.53638  -0.13395   3.68649
  -3.35681  -0.05913   3.67152
  -3.11739   7.2E-40   3.68649
  -2.92286   0.06058   3.73138
  -2.72834   0.15036   3.83613
  -2.54877   0.16532   3.97080
  -2.32431   0.25511   3.94087
  -2.14475   0.32992   3.91094
  -1.96518   0.38978   3.85109
  -1.78562   0.35985   3.74634
  -1.65094   0.40474   3.65656
  -1.51627   0.35985   3.55181
  -1.41152   0.38978   3.43210
  -1.30678   0.37482   3.26750
  -1.20203   0.43467   3.13283
  -1.06736   0.47956   2.98319
  -0.94765   0.46460   2.84852
  -0.76808   0.50949   2.69888
  -0.63341   0.50949   2.53428
  -0.49874   0.53942   2.39961
  -0.37903   0.58431   2.20508
  -0.25932   0.64416   2.01055
  -0.24435   0.71898   1.72624
  -0.22939   0.71898   1.45689
  -0.22939   0.73395   1.23243
  -0.28924   0.73395   1.03790
  -0.27428   0.76387   0.79848
  -0.27428   0.77884   0.64885
  -0.28924   0.82373   0.48424
  -0.33413   0.82373   0.36453
  -0.39399   0.79380   0.25979
  -0.46881   0.77884   0.18497
  -0.51370   0.68906   0.14008
  -0.57355   0.67409   0.02037
  -0.64837   0.67409  -0.02452
  -0.72319   0.68906  -0.09934
  -0.75312   0.70402  -0.05445
  -0.72319   0.65913   0.08022
  -0.61845   0.61424   0.17000
  -0.55859   0.59927   0.22986
  -0.36406   0.52445   0.31964
  -0.16953   0.44963   0.40942
  -0.00493   0.32992   0.48424
   0.20456   0.24014   0.49921
   0.41405   0.15036   0.46928
   0.59362   0.10547   0.42439
   0.78815   0.03065   0.34957
   0.93779   0.01569   0.17000
   1.11735  -0.05913   0.00540
   1.25202  -0.04417  -0.14423
   1.43159  -0.02921  -0.32380
   1.58123   0.04561  -0.47344
   1.70094   0.13540  -0.59315
   1.76079   0.22518  -0.75775
   1.82065   0.31496  -0.92235
   1.92539   0.49453  -1.08695
   2.07503   0.59927  -1.17673
   2.22467   0.74891  -1.32637
   2.32942   0.83869  -1.38623
   2.37431   0.88358  -1.41615
   2.40423   0.88358  -1.40119
   2.37431   0.86862  -1.28148
   2.38927   0.86862  -1.10191
   2.46409   0.79380  -0.93731
   2.47905   0.76387  -0.75775
   2.49402   0.73395  -0.62307
   2.46409   0.70402  -0.51833
   2.35934   0.59927  -0.30884
   2.34438   0.49453  -0.12927
   2.31445   0.40474   0.11015
   2.34438   0.32992   0.28971
   2.35934   0.25511   0.42439
   2.35934   0.25511   0.51417
   2.35934   0.22518   0.64885
   2.25460   0.19525   0.78352
   2.23963   0.21021   0.87330
   2.17978   0.15036   0.96308
   2.19474   0.12043   0.99301
   2.16481   0.16532   0.85834
   2.17978   0.19525   0.75359
   2.17978   0.12043   0.70870
   2.16481   0.03065   0.64885
   2.13489   0.06058   0.60395
   2.10496   0.07554   0.51417
   2.09000   0.12043   0.43935
   2.00021   0.16532   0.37950
   1.97029   0.16532   0.33461
   1.94036   0.22518   0.33461
   1.89547   0.27007   0.30468
   1.86554   0.37482   0.27475
   1.85058   0.38978   0.24482
   1.86554   0.40474   0.24482
   1.95532   0.43467   0.18497
   2.10496   0.47956   0.15504
   2.22467   0.55438   0.06526
   2.29949   0.67409  -0.06942
   2.32942   0.74891  -0.20409
   2.41920   0.74891  -0.35373
   2.47905   0.74891  -0.53329
   2.49402   0.70402  -0.68293
   2.50898   0.64416  -0.80264
   2.55387   0.59927  -0.99717
   2.65862   0.56935  -1.11688
   2.71847   0.50949  -1.23659
   2.76336   0.49453  -1.32637
   2.82322   0.46460  -1.44608
   2.85315   0.41971  -1.53586
   2.89804   0.38978  -1.64061
   2.91300   0.32992  -1.80521
   2.89804   0.27007  -2.01470
   2.82322   0.25511  -2.29902
   2.80826   0.22518  -2.52347
   2.76336   0.24014  -2.79282
   2.74840   0.21021  -3.01728
   2.79329   0.21021  -3.24173
   2.85315   0.21021  -3.48115
   2.89804   0.16532  -3.81036
   2.97286   0.18029  -4.09467
   3.10753   0.15036  -4.31912
   3.21228   0.10547  -4.51365
   3.28710   0.10547  -4.64833
   3.36191   0.04561  -4.85782
   3.40681   7.2E-40  -5.08228
   3.43673  -0.13395  -5.27680
   3.49659  -0.26863  -5.42644
   3.60134  -0.35841  -5.54615
   3.69112  -0.35841  -5.54615
   3.76594  -0.37337  -5.54615
   3.84076  -0.38834  -5.53119
   3.85572  -0.41826  -5.56112
   3.85572  -0.46315  -5.60601
   3.84076  -0.47812  -5.66586
   3.79586  -0.50805  -5.69579
   3.75097  -0.52301  -5.68083
   3.60134  -0.50805  -5.66586
   3.48162  -0.53797  -5.74068
   3.28710  -0.61279  -5.78557
   3.16739  -0.67265  -5.84543
   3.06264  -0.67265  -5.80054
   2.97286  -0.70257  -5.65090
   2.88307  -0.68761  -5.53119
   2.73344  -0.65768  -5.48630
   2.58380  -0.62776  -5.44141
   2.46409  -0.55294  -5.36659
   2.35934  -0.49308  -5.32170
   2.25460  -0.46315  -5.29177
   2.16481  -0.40330  -5.23191
   2.07503  -0.34344  -5.09724
   1.94036  -0.19381  -5.06731
   1.85058  -0.10402  -5.03738
   1.68597  -0.05913  -4.94760
   1.58123  -0.02921  -4.81293
   1.46152   0.01569  -4.63336
   1.29692   0.06058  -4.42387
   1.17721   0.07554  -4.18445
   1.05750   0.01569  -3.94503
   0.89289  -0.02921  -3.75050
   0.69837  -0.11899  -3.57094
   0.50384  -0.14892  -3.34648
   0.33924  -0.19381  -3.10706
   0.18960  -0.17884  -2.92749
  -0.00493  -0.14892  -2.71800
  -0.13961  -0.10402  -2.52347
  -0.27428  -0.02921  -2.34391
  -0.34910   7.2E-40  -2.10449
  -0.42392  -0.01424  -1.89499
  -0.49874   7.2E-40  -1.67054
  -0.52866  -0.05913  -1.43112
  -0.54363  -0.14892  -1.20666
  -0.55859  -0.19381  -0.96724
  -0.49874  -0.28359  -0.72782
  -0.46881  -0.34344  -0.47344
  -0.49874  -0.40330  -0.27891
  -0.49874  -0.47812  -0.15920
  -0.49874  -0.59783  -0.05445
  -0.45384  -0.71754   0.09519
  -0.39399  -0.86718   0.18497
  -0.34910  -1.04674   0.25979
  -0.30421  -1.16645   0.28971
  -0.24435  -1.34602   0.24482
  -0.22939  -1.54055   0.19993
  -0.22939  -1.66026   0.08022
  -0.22939  -1.79493  -0.11431
  -0.21442  -1.85478  -0.23402
  -0.22939  -1.79493  -0.38365
  -0.25932  -1.73507  -0.53329
  -0.30421  -1.66026  -0.66797
  -0.37903  -1.64529  -0.81760
  -0.43888  -1.61536  -0.96724
  -0.46881  -1.48069  -1.04206
  -0.54363  -1.37594  -1.04206
  -0.55859  -1.24127  -1.02710
  -0.54363  -1.04674  -0.95228
  -0.51370  -0.92703  -0.93731
  -0.51370  -0.79236  -0.90739
  -0.52866  -0.65768  -0.89242
  -0.51370  -0.50805  -0.83257
  -0.45384  -0.37337  -0.68293
  -0.42392  -0.23870  -0.51833
  -0.37903  -0.07410  -0.33876
  -0.39399   0.04561  -0.21905
  -0.39399   0.18029  -0.11431
  -0.36406   0.30000  -0.03949
  -0.34910   0.40474   0.02037
  -0.31917   0.46460   0.05029
  -0.25932   0.56935   0.09519
  -0.25932   0.64416   0.11015
  -0.22939   0.74891   0.08022
  -0.24435   0.82373   0.03533
  -0.27428   0.86862  -0.03949
  -0.36406   0.85366  -0.09934
  -0.48377   0.85366  -0.14423
  -0.55859   0.79380  -0.17416
  -0.66334   0.77884  -0.21905
  -0.78305   0.80877  -0.24898
  -0.87283   0.76387  -0.23402
  -1.00750   0.68906  -0.21905
  -1.06736   0.59927  -0.23402
  -1.12721   0.49453  -0.21905
  -1.12721   0.43467  -0.20409
  -1.12721   0.35985  -0.21905
  -1.12721   0.24014  -0.15920
  -1.11225   0.15036  -0.08438
  -1.09729   0.07554   0.09519
  -1.08232  -0.01424   0.21490
  -1.06736  -0.07410   0.37950
  -0.97758  -0.11899   0.52913
  -0.88779  -0.19381   0.63388
  -0.76808  -0.22373   0.78352
  -0.57355  -0.26863   0.96308
  -0.40895  -0.31352   1.17258
  -0.21442  -0.31352   1.36711
  -0.03486  -0.37337   1.60653
   0.11478  -0.37337   1.86091
   0.23449  -0.41826   2.13026
   0.33924  -0.47812   2.32479
   0.39909  -0.55294   2.53428
   0.41405  -0.61279   2.68392
   0.47391  -0.71754   2.83355
   0.50384  -0.80732   2.93830
   0.44398  -0.91207   3.01312
   0.45895  -0.95696   3.02808
   0.41405  -1.01681   3.04305
   0.32427  -1.01681   2.98319
   0.18960  -1.03178   2.96823
   0.01003  -1.07667   2.87845
  -0.18450  -1.09163   2.75874
  -0.39399  -1.10660   2.66895
  -0.60348  -1.06170   2.51932
  -0.84290  -1.03178   2.38464
  -1.05239  -1.03178   2.24997
  -1.23196  -1.06170   2.08537
  -1.35167  -1.01681   1.95069
  -1.38160  -0.95696   1.86091
  -1.42649  -0.88214   1.71127
  -1.41152  -0.77739   1.65142
  -1.45642  -0.71754   1.54667
  -1.50131  -0.68761   1.47185
  -1.56116  -0.65768   1.42696
  -1.63598  -0.65768   1.38207
  -1.69584  -0.64272   1.33718
  -1.71080  -0.61279   1.36711
  -1.69584  -0.59783   1.41200
  -1.72576  -0.49308   1.48682
  -1.69584  -0.38834   1.59156
  -1.69584  -0.28359   1.65142
  -1.71080  -0.19381   1.72624
  -1.68087  -0.05913   1.78609
  -1.63598   0.10547   1.90580
  -1.62102   0.28503   1.96566
  -1.63598   0.43467   2.02551
  -1.69584   0.56935   2.08537
  -1.77065   0.62920   2.10033
  -1.89037   0.73395   2.14522
  -2.01008   0.80877   2.17515
  -2.06993   0.86862   2.16018
  -2.23453   0.98833   2.20508
  -2.35424   1.09308   2.19011
  -2.50388   1.18286   2.14522
  -2.63855   1.18286   2.11529
  -2.78819   1.18286   2.16018
  -2.87797   1.12300   2.16018
  -2.93783   1.10804   2.11529
  -2.93783   1.07811   2.13026
  -2.92286   1.01826   2.16018
  -2.86301   0.94344   2.16018
