********************************************************************************
              CENTRO DE INSTRUMENTACION Y REGISTRO SISMICO  A.C.

    Anaxagoras 814, Col. Narvarte, Benito Juarez, C.P. 03020 Mexico, D.F.
           Tels. 5687 45 42/ 5687 45  82             Fax. 5669 25 12
********************************************************************************
ARCHIVO ESTANDAR DE ACELERACION:
VERSION DEL FORMATO                    : 2.0
NOMBRE DEL ARCHIVO                     : AP6820120411225510
FECHA Y HORA DE CREACION               : 15/MAY/12, 09:49
REF. CATALOGO ACELEROGRAMAS, SMIS 1996 : REGISTRO No.     /PAG.


================================================================================
DATOS DE LA ESTACION:
NOMBRE DE LA ESTACION                  : JARDÍN DE NIÑOS "JUAN B. DE LA SALLE"
CLAVE DE LA ESTACION                   : AP68
LOCALIZACION DE LA ESTACION            : Del. Iztapalapa, Col. Santa María      
                                       : Purísima Atlazolpa,  entre Canal de    
                                       : Apatlaco y Ahuehuetes.                 
                                       :                                        
                                       : 
COORDENADAS DE LA ESTACION             : 19.3809 LAT. N
                                       : 99.1068 LONG. W
ALTITUD (msnm)                         : 2232
TIPO DE SUELO                          : Arcilloso, zona lago                
                                       :                           
                                       : 
INSTITUCION RESPONSABLE                : CIRES
                                       : 

================================================================================
DATOS DEL ACELEROGRAFO:
MODELO DEL ACELEROGRAFO                : RADESD
NUMERO DE SERIE DEL ACELEROGRAFO       : 255
NUMERO DE CANALES                      : 3
ORIENTACION C1-C6 (rumbo;orientacion)  : /N00E/+V/N90W
ORIENTACION C7-C12 (rumbo;orientacion) : 
VEL. DE MUESTREO, C1-C6 (muestras/s)   : /100/100/100
VEL. DE MUESTREO, C7-C12 (muestras/s)  : 
ESC. COMPLETA DE SENSORES, C1-C6, (g)  : /0.5/0.5/0.5
ESC. COMPLETA DE SENSORES, C7-C12, (g) : 
FREC. NAT. DE SENSORES, C1-C6, (Hz)    : /30/30/30
FREC. NAT. DE SENSORES, C7-C12, (Hz)   : 
AMORTIGUAMIENTO DE SENSORES, C1-C6     : /0.780/0.700/0.678
AMORTIGUAMIENTO DE SENSORES, C7-C12    : 
INTERVALO DE MUESTREO, C1-C6, (s)      : /0.01/0.01/0.01
INTERVALO DE MUESTREO, C7-C12, (s)     : 
UMBRAL DE DISPARO, C1-C6, (Gal)        : /3.11/5.03/4.55
UMBRAL DE DISPARO, C7-C12, (Gal)       : 
MEMORIA DE PREEVENTO (s)               : 56.0
TIEMPO DE POSEVENTO (s)                : 64.0


================================================================================
DATOS DEL SISMO:
FECHA DEL SISMO (GMT)                  : 11/ABR/12
HORA EPICENTRO (GMT)                   : 22:55:10.0
MAGNITUD(ES)                           : /Mc=6.4
COORDENADAS DEL EPICENTRO              : 17.90 LAT. N
                                       : 103.06 LONG. W
PROFUNDIDAD FOCAL (km)                 : 16
FUENTE DE LOS DATOS EPICENTRALES       : SSN
                                       : INSTITUTO DE GEOFISICA, UNAM

================================================================================
DATOS DE ESTE REGISTRO:
HORA DE LA PRIMERA MUESTRA (GMT)       : 22:57:28.00
EXACTITUD DEL TIEMPO (s)               : 0.01
DURACION DEL REGISTRO (s), C1-C6       : /199.5/199.5/199.5
DURACION DEL REGISTRO (s), C7-C12      : 
NUM. TOTAL DE MUESTRAS, C1-C6          : /19950/19950/19950
NUM. TOTAL DE MUESTRAS, C7-C12         : 
ACEL. MAX. (Gal), C1-C6                : /9.80287/2.67829/6.84859
ACEL. MAX., C1-C6, EN LA MUESTRA       : /6257/6338/6647
ACEL. MAX. (Gal), C7-C12               : 
ACEL. MAX., C7-C12, EN LA MUESTRA      : 
UNIDADES DE LOS DATOS                  : Gal (cm/s/s)
FACTOR DE DECIMACION                   : 1
FORMATO DATOS (FORTRAN,10 campos/dato) : 3F10.5


================================================================================
CALIDAD DEL ACELEROGRAMA:
REGISTRO DIGITAL COMPLETO CON TIEMPO ABSOLUTO CORRECTO.


================================================================================
COMENTARIOS:














================================================================================
DATOS DE ACELERACION:
---------+---------+---------+---------+---------+---------+---------+---------+
   CANAL-1   CANAL-2   CANAL-3   CANAL-4   CANAL-5   CANAL-6   CANAL-7   CANAL-8
      N00E        +V      N90W
---------+---------+---------+---------+---------+---------+---------+---------+
[...]
   1.18374   0.43417  -2.96763
   1.18374   0.43417  -2.96763
   1.42316   0.19475  -2.96763
   1.66258   0.19475  -2.96763
   1.90200   0.19475  -2.72821
   2.14142   0.43417  -2.48879
   2.14142   0.19475  -2.24937
   2.38084   0.19475  -2.24937
   2.38084  -0.04467  -2.24937
   2.38084  -0.04467  -2.48879
   2.62026  -0.52351  -2.48879
   2.85968  -0.52351  -2.48879
   3.33853  -0.52351  -2.48879
   3.81737  -0.28409  -2.00995
   4.05679  -0.28409  -2.00995
   4.53563  -0.28409  -1.77053
   4.77505  -0.28409  -1.77053
   5.01447  -0.28409  -1.77053
   5.25389  -0.28409  -2.00995
   5.49331  -0.28409  -2.00995
   5.73273  -0.28409  -2.00995
   5.73273  -0.04467  -2.00995
   5.97215   0.19475  -2.24937
   5.97215   0.19475  -2.24937
   5.97215   0.43417  -2.48879
   5.97215   0.43417  -2.48879
   5.73273   0.43417  -2.48879
   5.73273   0.43417  -2.48879
   5.73273   0.19475  -2.48879
   5.73273   0.19475  -2.72821
   5.73273   0.19475  -2.96763
   5.73273  -0.04467  -3.20705
   6.21157  -0.04467  -3.44647
   6.21157  -0.04467  -3.68589
   6.45099  -0.04467  -3.68589
   6.45099  -0.28409  -3.92531
   6.45099  -0.28409  -3.92531
   6.69041  -0.04467  -4.16473
   6.92983  -0.04467  -4.16473
   7.16925   0.19475  -4.40415
   7.40867   0.19475  -4.40415
   7.64809   0.43417  -4.64358
   7.64809   0.67359  -4.64358
   7.64809   0.67359  -4.40415
   7.88751   0.91301  -4.40415
   7.64809   0.91301  -4.40415
   7.40867   1.15243  -4.16473
   7.16925   1.15243  -4.16473
   6.92983   1.15243  -4.40415
   6.69041   1.15243  -4.40415
   6.69041   1.39185  -4.16473
   6.69041   1.15243  -4.16473
   6.69041   1.15243  -4.16473
   6.45099   1.15243  -3.92531
   6.45099   0.91301  -3.92531
   6.45099   0.91301  -3.92531
   6.69041   0.91301  -3.92531
   6.69041   0.91301  -3.68589
   6.92983   0.91301  -3.68589
   7.16925   0.91301  -3.68589
   7.16925   1.15243  -3.44647
   7.16925   0.91301  -3.44647
   6.92983   0.91301  -3.20705
   6.69041   1.15243  -3.20705
   6.69041   1.15243  -3.20705
   6.45099   1.15243  -3.20705
   6.45099   1.15243  -2.96763
   6.45099   0.91301  -3.20705
   6.45099   1.15243  -2.96763
   6.21157   0.91301  -3.20705
   5.97215   0.67359  -3.20705
   5.97215   0.43417  -3.44647
   5.97215   0.19475  -3.44647
   5.97215  -0.04467  -3.68589
   5.97215  -0.04467  -3.44647
   5.97215  -0.04467  -3.44647
   5.73273  -0.28409  -3.20705
   5.73273  -0.52351  -3.20705
   5.73273  -0.52351  -2.96763
   5.97215  -0.52351  -2.72821
   6.21157  -0.52351  -2.96763
   6.45099  -0.28409  -2.72821
   6.45099  -0.28409  -2.72821
   6.45099  -0.28409  -2.48879
   6.21157  -0.28409  -2.48879
   6.21157  -0.28409  -2.24937
   6.21157  -0.28409  -2.00995
   6.21157  -0.28409  -1.77053
   5.97215  -0.28409  -1.53111
   5.97215  -0.28409  -1.53111
   5.97215  -0.52351  -1.29169
   5.97215  -0.52351  -1.05227
   5.97215  -0.52351  -0.81285
   5.97215  -0.52351  -0.81285
   5.97215  -0.52351  -0.57343
   5.73273  -0.52351  -0.33401
   5.73273  -0.52351  -0.09459
   5.49331  -0.76293  -0.09459
   5.49331  -0.76293  -0.09459
   5.49331  -0.76293   0.14483
   5.49331  -0.76293  -0.09459
   5.73273  -0.76293  -0.09459
   5.49331  -0.76293   0.14483
   5.49331  -0.76293   0.38425
   5.49331  -0.52351   0.38425
   5.49331  -0.28409   0.62367
   5.49331  -0.28409   0.62367
   5.49331  -0.28409   0.86309
   5.49331  -0.04467   0.86309
   5.49331  -0.04467   0.86309
   5.25389  -0.04467   0.86309
   5.25389   0.19475   0.86309
   5.25389   0.19475   0.86309
   5.25389   0.19475   0.86309
   5.25389   0.43417   1.10251
   5.01447   0.43417   1.34193
   4.77505   0.43417   1.34193
   4.53563   0.43417   1.34193
   4.53563   0.43417   1.34193
   4.29621   0.43417   1.34193
   4.29621   0.19475   1.34193
   4.29621  -0.04467   1.34193
   4.29621  -0.04467   1.34193
   4.05679   0.19475   1.34193
   4.05679   0.19475   1.34193
   3.57795   0.19475   1.34193
   3.33853  -0.04467   1.34193
   3.09911  -0.04467   1.34193
   2.85968  -0.04467   1.58135
   2.62026  -0.28409   1.58135
   2.38084  -0.28409   1.58135
   2.38084  -0.52351   1.58135
   2.14142  -0.52351   1.58135
   1.90200  -0.52351   1.58135
   1.90200  -0.52351   1.82077
   1.66258  -0.52351   2.06019
   1.42316  -0.52351   2.29961
   0.94432  -0.52351   2.77845
   0.70490  -0.76293   2.77845
   0.22606  -0.76293   3.01787
  -0.01336  -1.00235   3.25729
  -0.25278  -1.24177   3.25729
  -0.25278  -1.48119   3.25729
  -0.49220  -1.48119   3.25729
  -0.49220  -1.48119   3.25729
  -0.73162  -1.48119   3.25729
  -0.73162  -1.48119   3.25729
  -0.97104  -1.24177   3.01787
  -1.21046  -1.48119   3.25729
  -1.44988  -1.24177   3.25729
  -1.68930  -1.24177   3.25729
  -2.16814  -1.24177   3.25729
  -2.16814  -1.24177   3.01787
  -2.40756  -1.24177   3.01787
  -2.64698  -1.24177   2.77845
  -2.88640  -1.24177   2.77845
  -2.88640  -1.24177   2.77845
  -3.12582  -1.00235   2.53903
  -3.36524  -1.24177   2.77845
  -3.60466  -1.00235   2.77845
  -3.84408  -1.00235   2.77845
  -4.08350  -1.00235   2.77845
  -4.32292  -0.76293   2.77845
  -4.32292  -1.00235   2.53903
  -4.56234  -1.00235   2.29961
  -4.80176  -1.00235   2.29961
  -4.56234  -1.00235   2.06019
  -4.56234  -1.00235   2.06019
  -4.56234  -0.76293   2.06019
  -4.56234  -0.76293   2.53903
  -4.56234  -0.52351   2.53903
  -4.80176  -0.52351   2.77845
  -5.04118  -0.52351   2.77845
  -5.28060  -0.52351   2.53903
  -5.52002  -0.52351   2.53903
  -5.52002  -0.52351   2.53903
  -5.28060  -0.52351   2.53903
  -5.28060  -0.28409   2.53903
  -5.52002  -0.28409   2.77845
  -5.75944  -0.04467   2.77845
  -5.99886  -0.28409   2.77845
  -6.47770  -0.28409   2.53903
  -6.71712  -0.52351   2.77845
  -6.95654  -0.52351   2.53903
  -6.95654  -0.76293   2.53903
  -7.19596  -0.76293   2.29961
  -6.95654  -0.76293   2.29961
  -7.19596  -0.76293   2.29961
  -7.19596  -0.76293   2.06019
  -7.19596  -0.52351   2.06019
  -7.43538  -0.52351   2.06019
  -7.43538  -0.52351   2.06019
  -7.91422  -0.52351   2.06019
  -8.15364  -0.52351   2.06019
  -8.39306  -0.52351   1.82077
  -8.39306  -0.28409   1.82077
  -8.63248  -0.28409   1.82077
  -8.63248  -0.28409   2.06019
  -8.63248  -0.28409   2.06019
  -8.87190  -0.28409   2.06019
  -8.87190  -0.52351   2.29961
  -9.11132  -0.28409   2.29961
  -9.11132  -0.28409   2.29961
  -9.11132  -0.28409   2.29961
  -9.35074  -0.28409   2.29961
  -9.11132  -0.28409   2.29961
  -9.11132  -0.52351   2.29961
  -8.87190  -0.28409   2.53903
  -8.63248  -0.28409   2.53903
  -8.63248  -0.28409   2.53903
  -8.39306  -0.04467   2.53903
  -8.15364  -0.04467   2.29961
  -7.91422  -0.04467   2.29961
  -7.91422  -0.04467   2.53903
  -7.91422  -0.04467   2.53903
  -7.67480  -0.52351   2.53903
  -7.67480  -0.28409   2.77845
  -7.67480  -0.28409   2.77845
  -7.43538  -0.28409   2.77845
  -6.95654  -0.28409   2.77845
  -6.95654  -0.28409   2.77845
  -6.71712  -0.28409   2.77845
  -6.71712  -0.28409   2.77845
  -6.71712  -0.52351   2.77845
  -6.47770  -0.52351   2.77845
  -6.23828  -0.52351   2.77845
  -6.23828  -0.52351   3.01787
  -6.23828  -0.28409   2.77845
  -5.99886  -0.52351   3.01787
  -5.99886  -0.52351   2.77845
  -5.99886  -0.52351   2.77845
  -5.99886  -0.52351   2.77845
  -5.99886  -0.52351   2.77845
  -5.99886  -0.28409   2.77845
  -6.23828  -0.52351   2.77845
  -6.23828  -0.28409   2.53903
  -6.23828  -0.28409   2.53903
  -6.23828  -0.28409   2.06019
  -6.23828  -0.28409   2.06019
  -6.23828  -0.28409   1.82077
  -6.23828  -0.04467   1.82077
  -6.47770  -0.04467   1.82077
  -6.47770  -0.04467   2.06019
  -6.47770  -0.04467   2.06019
  -6.47770  -0.04467   2.06019
  -6.47770   0.19475   2.06019
  -6.47770  -0.04467   1.82077
  -6.47770   0.43417   2.06019
  -6.47770   0.43417   2.06019
  -6.47770   0.43417   2.29961
  -6.47770   0.67359   2.29961
  -6.23828   0.43417   2.53903
  -6.23828   0.43417   2.53903
  -6.23828   0.67359   2.53903
  -5.99886   0.67359   2.53903
  -5.75944   0.67359   2.53903
  -5.52002   0.91301   2.29961
  -5.28060   0.91301   2.29961
  -5.28060   1.15243   2.29961
  -5.04118   1.15243   2.06019
  -5.04118   1.15243   2.06019
  -5.04118   1.39185   1.82077
  -5.04118   1.39185   1.58135
  -5.04118   1.39185   1.82077
  -4.80176   1.15243   1.58135
  -4.80176   1.15243   1.58135
  -4.56234   1.15243   1.34193
  -4.56234   1.15243   0.86309
  -4.32292   1.15243   0.62367
  -4.08350   1.15243   0.14483
  -4.08350   1.15243  -0.09459
  -3.84408   1.15243  -0.33401
  -3.60466   1.15243  -0.57343
  -3.36524   1.15243  -1.05227
  -3.12582   1.15243  -1.29169
  -2.88640   1.15243  -1.77053
  -2.64698   1.15243  -2.00995
  -2.40756   1.15243  -2.24937
  -2.16814   1.15243  -2.72821
  -2.16814   1.15243  -2.72821
  -1.92872   1.39185  -3.20705
  -1.44988   1.39185  -3.44647
  -1.44988   1.15243  -3.68589
  -0.97104   1.15243  -3.92531
  -0.49220   0.91301  -4.40415
  -0.25278   0.91301  -4.64358
   0.22606   0.91301  -4.88300
   0.70490   0.91301  -5.12242
   1.18374   0.91301  -4.88300
   1.42316   0.67359  -5.12242
   1.90200   0.67359  -5.12242
   2.38084   0.67359  -5.12242
   2.62026   0.67359  -5.36184
   2.85968   0.67359  -5.36184
   3.33853   0.43417  -5.36184
   3.57795   0.43417  -5.36184
   4.05679   0.43417  -5.36184
   4.53563   0.67359  -5.36184
   4.77505   0.67359  -5.12242
   4.77505   0.67359  -4.88300
   4.77505   0.67359  -4.88300
   4.77505   0.67359  -4.88300
   5.01447   0.67359  -4.88300
   5.25389   0.67359  -4.88300
   5.49331   0.67359  -4.88300
   5.73273   0.67359  -4.88300
   5.73273   0.67359  -4.64358
   5.73273   0.91301  -4.40415
   5.73273   0.91301  -4.16473
   5.49331   0.91301  -3.92531
   5.25389   1.15243  -3.92531
   5.25389   0.91301  -3.92531
   5.25389   0.91301  -3.68589
   5.49331   0.91301  -3.44647
   5.73273   1.15243  -3.44647
   5.73273   1.39185  -3.68589
   5.73273   1.39185  -3.68589
   5.73273   1.63127  -3.68589
   5.49331   1.63127  -3.68589
   5.25389   1.63127  -3.44647
   5.25389   1.39185  -3.44647
   5.73273   1.39185  -3.44647
   6.21157   1.63127  -3.44647
   6.45099   1.87069  -3.44647
   6.69041   2.11011  -3.68589
   6.45099   2.11011  -3.68589
   6.45099   2.11011  -3.68589
   6.21157   2.11011  -3.68589
   6.21157   1.87069  -3.44647
   6.45099   1.63127  -3.44647
   6.69041   1.63127  -3.44647
   6.92983   1.63127  -3.44647
   7.40867   1.87069  -3.44647
   7.40867   1.87069  -3.44647
   7.40867   1.87069  -3.44647
   7.16925   1.63127  -3.20705
   7.16925   1.39185  -3.20705
   7.16925   0.91301  -2.96763
   7.16925   0.67359  -2.72821
   7.64809   0.67359  -2.72821
   7.88751   0.43417  -2.48879
   8.12693   0.19475  -2.48879
   8.36635   0.19475  -2.24937
   8.84519  -0.04467  -2.24937
   9.08461  -0.28409  -2.00995
   9.56345  -0.28409  -2.00995
   9.56345  -0.28409  -1.77053
   9.80287  -0.28409  -1.77053
   9.80287  -0.28409  -1.53111
   9.56345  -0.04467  -1.53111
   9.56345  -0.04467  -1.29169
   9.32403  -0.04467  -1.05227
   9.32403  -0.04467  -1.05227
   9.08461  -0.28409  -1.05227
   9.08461  -0.28409  -1.29169
   8.84519  -0.28409  -1.29169
   8.84519  -0.52351  -1.53111
   8.84519  -0.52351  -1.53111
   9.08461  -0.76293  -1.53111
   9.32403  -0.76293  -1.77053
   9.32403  -0.76293  -1.77053
   9.32403  -0.76293  -2.00995
   9.32403  -0.76293  -2.24937
   9.56345  -0.76293  -2.24937
   9.56345  -0.76293  -2.48879
   9.80287  -0.52351  -2.72821
   9.80287  -0.28409  -2.96763
   9.80287  -0.28409  -2.72821
   9.32403  -0.04467  -2.72821
   8.84519  -0.28409  -2.72821
   8.60577  -0.52351  -2.72821
   8.60577  -0.52351  -2.72821
   8.60577  -0.52351  -2.96763
   8.84519  -0.28409  -3.20705
   8.84519  -0.04467  -3.20705
   8.60577  -0.04467  -3.20705
   8.12693  -0.04467  -3.20705
   7.64809  -0.04467  -2.72821
   7.40867  -0.04467  -2.48879
   7.40867  -0.28409  -2.48879
   7.40867  -0.52351  -2.24937
   7.16925  -0.52351  -2.24937
   7.16925  -0.28409  -2.00995
   6.92983  -0.28409  -2.00995
   6.69041  -0.28409  -1.77053
   6.45099  -0.28409  -1.53111
   6.21157  -0.52351  -1.53111
   5.97215  -0.52351  -1.05227
   5.73273  -0.28409  -0.81285
   5.49331  -0.52351  -0.81285
   5.25389  -0.28409  -0.57343
   4.77505  -0.28409  -0.33401
   4.53563  -0.28409  -0.33401
   4.05679  -0.52351  -0.09459
   3.81737  -0.52351   0.38425
   3.33853  -0.76293   0.62367
   3.09911  -0.76293   0.86309
   2.62026  -1.00235   1.10251
   2.62026  -1.24177   1.10251
   2.62026  -1.48119   1.34193
   2.62026  -1.48119   1.34193
   2.85968  -1.48119   1.34193
   2.85968  -1.24177   1.34193
   2.62026  -1.48119   1.34193
   2.62026  -1.48119   1.34193
   2.38084  -1.48119   1.34193
   2.14142  -1.48119   1.34193
   1.90200  -1.48119   1.34193
   1.66258  -1.48119   1.34193
   1.42316  -1.48119   1.34193
   1.18374  -1.72061   1.34193
   0.94432  -1.96003   1.58135
   0.94432  -1.96003   1.58135
   0.70490  -2.19945   1.58135
   0.70490  -2.43887   1.58135
   0.70490  -2.43887   1.58135
   0.70490  -2.19945   1.58135
   0.46548  -2.19945   1.58135
   0.46548  -2.19945   1.58135
   0.22606  -2.19945   1.82077
   0.22606  -2.19945   1.82077
  -0.01336  -2.19945   2.06019
  -0.25278  -2.19945   2.29961
  -0.73162  -1.96003   2.29961
  -0.97104  -1.96003   2.77845
  -1.44988  -1.96003   3.01787
  -1.92872  -2.19945   3.01787
  -2.16814  -2.43887   3.25729
  -2.16814  -2.67829   3.49671
  -1.92872  -2.67829   3.49671
  -1.68930  -2.67829   3.73613
  -1.68930  -2.67829   3.73613
  -1.44988  -2.67829   3.97555
  -1.68930  -2.43887   3.97555
  -1.92872  -1.96003   3.73613
  -2.16814  -1.72061   3.97555
  -2.64698  -1.48119   4.21497
  -3.12582  -1.48119   4.45439
  -3.36524  -1.48119   4.69381
  -3.60466  -1.72061   4.69381
  -3.84408  -1.48119   4.69381
  -3.60466  -1.24177   4.69381
  -3.84408  -1.24177   4.69381
  -4.08350  -1.00235   4.69381
  -4.32292  -1.00235   4.93323
  -4.56234  -1.00235   4.93323
  -4.80176  -1.24177   5.17265
  -4.80176  -1.24177   5.17265
  -4.56234  -1.24177   4.93323
  -4.08350  -1.00235   4.69381
  -4.08350  -0.76293   4.45439
  -4.32292  -0.76293   4.21497
  -4.56234  -0.52351   3.97555
  -4.56234  -0.28409   3.97555
  -5.04118  -0.52351   3.97555
  -5.28060  -0.28409   3.73613
  -5.52002  -0.28409   3.73613
  -5.75944  -0.28409   3.73613
  -6.23828  -0.28409   3.73613
  -6.23828  -0.28409   3.73613
  -6.47770  -0.28409   3.49671
  -6.47770  -0.28409   3.25729
  -6.47770  -0.28409   3.25729
  -6.71712  -0.28409   3.01787
  -6.95654  -0.28409   3.01787
  -7.43538  -0.28409   3.01787
  -7.43538  -0.52351   3.01787
  -7.67480  -0.28409   2.77845
  -7.43538  -0.28409   2.77845
  -7.43538  -0.28409   2.53903
  -7.43538  -0.04467   2.53903
  -7.67480  -0.04467   2.53903
  -7.91422  -0.04467   2.53903
  -8.15364  -0.28409   2.53903
  -8.15364  -0.28409   2.77845
  -8.39306  -0.28409   2.77845
  -8.15364  -0.28409   3.01787
  -8.15364  -0.04467   3.01787
  -8.63248  -0.04467   3.25729
  -9.11132  -0.04467   3.49671
  -9.35074  -0.28409   3.73613
  -9.35074  -0.52351   3.97555
  -9.35074  -0.52351   4.21497
  -9.11132  -0.52351   4.45439
  -9.11132  -0.76293   4.69381
  -8.87190  -0.76293   4.69381
  -8.63248  -1.00235   4.69381
  -8.15364  -1.00235   4.69381
  -7.91422  -0.76293   4.69381
  -7.43538  -0.52351   4.45439
  -7.43538  -0.52351   4.21497
  -7.19596  -0.28409   4.21497
  -7.19596  -0.28409   3.97555
  -7.43538  -0.04467   3.97555
  -7.43538  -0.04467   3.97555
  -7.43538   0.19475   4.21497
