********************************************************************************
               CENTRO DE INSTRUMENTACION Y REGISTRO SISMICO  A.C.  
                       Coordinacion de Servicios Tecnicos
     Anaxagoras 814, Col. Narvarte, Benito Juarez, C.P. 03020 Mexico, D.F.
            Tels. 687 45 42/ 687 45  82             Fax. 669 25 12
********************************************************************************
ARCHIVO ESTANDAR DE ACELERACION:
VERSION DEL FORMATO                    : 2.0
NOMBRE DEL ARCHIVO                     : AP689510.091
FECHA Y HORA DE CREACION               : MARZO 14, 1996/17:18
REF. CATALOGO ACELEROGRAMAS, SMIS 1995 : REGISTRO No.     /PAG.


================================================================================
DATOS DE LA ESTACION:
NOMBRE DE LA ESTACION                  : APATLACO
CLAVE DE LA ESTACION                   : AP68
LOCALIZACION DE LA ESTACION            : Jardin de Ni¤os Juan Bautista de la
                                       : Salle Canal de Apatlaco y Ahuehuetes,
                                       : Col Iztacalco Infonavit, Iztacalco
                                       : 
                                       :
COORDENADAS DE LA ESTACION             : 19.381 LAT. N 
                                       : 99.107 LONG. W 
ALTITUD (msnm)                         : 2232
TIPO DE SUELO                          : ARCILLOSO, ZONA LAGO
                                       : 
                                       : 
INSTITUCION RESPONSABLE                : CIRES
                                       :

================================================================================
DATOS DEL ACELEROGRAFO:
MODELO DEL ACELEROGRAFO                : DCA-333
NUMERO DE SERIE DEL ACELEROGRAFO       : 255
NUMERO DE CANALES                      : 3
ORIENTACION C1-C6 (rumbo;orientacion)  : /N00E/+V/N90W
ORIENTACION C7-C12 (rumbo;orientacion) :
VEL. DE MUESTREO, C1-C6 (muestras/s)   : /100/100/100
VEL. DE MUESTREO, C7-C12 (muestras/s)  :
ESC. COMPLETA DE SENSORES, C1-C6, (g)  : /0.5/0.5/0.5
ESC. COMPLETA DE SENSORES, C7-C12, (g) :
FREC. NAT. DE SENSORES, C1-C6, (Hz)    : /30/30/30
FREC. NAT. DE SENSORES, C7-C12, (Hz)   :
AMORTIGUAMIENTO DE SENSORES, C1-C6     : /0.700/0.700/0.700
AMORTIGUAMIENTO DE SENSORES, C7-C12    :
INTERVALO DE MUESTREO, C1-C6, (s)      : /0.01/0.01/0.01
INTERVALO DE MUESTREO, C7-C12, (s)     :
UMBRAL DE DISPARO, C1-C6, (Gal)        : /3.9/3.9/3.9
UMBRAL DE DISPARO, C7-C12, (Gal)       :
MEMORIA DE PREEVENTO (s)               : 4
TIEMPO DE POSEVENTO (s)                : 15


================================================================================
DATOS DEL SISMO:
FECHA DEL SISMO (GMT)                  : 09/OCT/95
HORA EPICENTRO (GMT)                   : 15:35:51.0
MAGNITUD(ES)                           : /Mc=6.5/Mb=7.3/Me=7.5
COORDENADAS DEL EPICENTRO              : 18.74 
                                       : 104.67
PROFUNDIDAD FOCAL (km)                 : 5
FUENTE DE LOS DATOS EPICENTRALES       : INSTITUTO DE INGENIERIA UNAM
                                       : INSTITUTO DE GEOFISICA, UNAM

================================================================================
DATOS DE ESTE REGISTRO:
HORA DE LA PRIMERA MUESTRA (GMT)       : 15:38:41.25
EXACTITUD DEL TIEMPO (s)               : 0.01
DURACION DEL REGISTRO (s), C1-C6       : /183.11/183.11/183.11
DURACION DEL REGISTRO (s), C7-C12      :
NUM. TOTAL DE MUESTRAS, C1-C6          : /18311/18311/18311
NUM. TOTAL DE MUESTRAS, C7-C12         :
ACEL. MAX. (Gal), C1-C6                : /13.00/2.70/13.51
ACEL. MAX., C1-C6, EN LA MUESTRA       :
ACEL. MAX. (Gal), C7-C12               :
ACEL. MAX., C7-C12, EN LA MUESTRA      :
UNIDADES DE LOS DATOS                  : Gal (cm/s/s)
FACTOR DE DECIMACION                   : 1
FORMATO DATOS (FORTRAN,10 campos/dato) : 3F10.2


================================================================================
CALIDAD DEL ACELEROGRAMA:
REGISTRO DIGITAL COMPLETO CON TIEMPO ABSOLUTO CORRECTO.


================================================================================
COMENTARIOS:














================================================================================
DATOS DE ACELERACION:
---------+---------+---------+---------+---------+---------+---------+---------+
   CANAL-1   CANAL-2   CANAL-3   CANAL-4   CANAL-5   CANAL-6   CANAL-7   CANAL-8
      N00E        +V      N90W
---------+---------+---------+---------+---------+---------+---------+---------+
[...]
      6.54      0.65      6.33
      6.30      0.65      6.57
      6.06      0.65      6.57
      6.06      0.65      6.81
      5.82      0.65      7.05
      5.82      0.65      7.05
      5.58      0.65      7.29
      5.34      0.65      7.53
      5.34      0.65      7.53
      5.10      0.65      7.77
      4.86      0.65      8.01
      4.62      0.42      8.25
      4.62      0.42      8.25
      4.39      0.42      8.49
      4.39      0.42      8.49
      4.15      0.42      8.73
      3.91      0.42      8.73
      3.91      0.42      8.97
      3.67      0.42      8.97
      3.67      0.42      9.20
      3.67      0.42      9.20
      3.43      0.42      9.44
      3.19      0.42      9.44
      2.95      0.42      9.68
      2.95      0.18      9.92
      2.95      0.18      9.92
      2.95      0.18     10.16
      2.71      0.18     10.16
      2.47      0.18     10.40
      2.47      0.18     10.40
      2.47      0.18     10.40
      2.23      0.18     10.64
      2.23      0.18     10.64
      1.99      0.18     10.88
      1.99      0.18     11.12
      1.99     -0.06     11.12
      1.99     -0.06     11.12
      1.75     -0.06     11.36
      1.75     -0.06     11.36
      1.51     -0.06     11.60
      1.51     -0.06     11.60
      1.51     -0.06     11.60
      1.51     -0.06     11.84
      1.27     -0.06     11.84
      1.27     -0.06     11.84
      1.27     -0.06     11.84
      1.03     -0.06     12.08
      1.03     -0.06     12.08
      0.79     -0.06     12.08
      0.79     -0.30     12.08
      0.79     -0.06     12.08
      0.79     -0.06     12.08
      0.55     -0.06     12.08
      0.55     -0.06     12.08
      0.55     -0.06     12.08
      0.55     -0.06     12.08
      0.55     -0.06     12.08
      0.32      0.18     11.84
      0.08      0.18     11.84
      0.08     -0.06     11.84
      0.08     -0.06     11.84
      0.08     -0.06     11.84
      0.08     -0.06     11.84
      0.08     -0.06     11.60
      0.08     -0.06     11.60
      0.08     -0.06     11.36
      0.08     -0.06     11.36
      0.08     -0.06     11.12
     -0.16     -0.06     11.12
     -0.40     -0.06     10.88
     -0.40      0.18     10.88
     -0.40      0.18     10.64
     -0.40      0.18     10.40
     -0.64      0.18     10.40
     -0.88      0.18     10.16
     -0.88      0.18      9.92
     -0.88      0.18      9.68
     -0.88      0.18      9.44
     -1.12      0.18      9.44
     -1.36      0.18      9.20
     -1.36      0.18      8.97
     -1.36      0.42      8.73
     -1.36      0.42      8.49
     -1.60      0.42      8.49
     -1.84      0.42      8.25
     -2.08      0.42      8.01
     -2.08      0.42      7.53
     -2.32      0.42      7.29
     -2.32      0.42      7.29
     -2.32      0.42      7.05
     -2.56      0.42      6.81
     -2.80      0.65      6.57
     -3.04      0.42      6.33
     -3.28      0.42      6.09
     -3.28      0.65      5.85
     -3.28      0.65      5.61
     -3.52      0.42      5.37
     -3.99      0.65      5.13
     -3.99      0.65      4.90
     -3.99      0.42      4.66
     -4.23      0.42      4.42
     -4.23      0.42      4.18
     -4.47      0.42      3.94
     -4.71      0.42      3.70
     -4.95      0.42      3.46
     -4.95      0.42      3.22
     -4.95      0.65      2.98
     -5.19      0.42      2.98
     -5.19      0.42      2.74
     -5.43      0.42      2.50
     -5.67      0.42      2.26
     -5.91      0.42      2.02
     -5.91      0.42      1.78
     -5.91      0.42      1.54
     -5.91      0.42      1.30
     -6.15      0.42      1.06
     -6.39      0.42      0.83
     -6.39      0.42      0.83
     -6.39      0.42      0.83
     -6.39      0.42      0.59
     -6.39      0.42      0.35
     -6.63      0.42      0.35
     -6.63      0.42      0.11
     -6.63      0.42     -0.13
     -6.63      0.42     -0.37
     -6.87      0.42     -0.61
     -6.87      0.42     -0.85
     -6.87      0.42     -1.09
     -6.87      0.42     -1.33
     -6.87      0.42     -1.33
     -6.87      0.42     -1.57
     -6.87      0.42     -1.81
     -7.11      0.42     -2.05
     -6.87      0.18     -2.29
     -6.87      0.18     -2.53
     -6.87      0.18     -2.53
     -6.87      0.18     -2.77
     -6.87      0.18     -3.01
     -6.87      0.18     -3.25
     -6.87      0.18     -3.48
     -6.87      0.18     -3.48
     -7.11      0.18     -3.72
     -6.87      0.18     -3.96
     -6.87      0.18     -4.20
     -6.87      0.18     -4.44
     -7.11      0.18     -4.68
     -6.87     -0.06     -4.92
     -6.63     -0.06     -4.92
     -6.63     -0.06     -5.16
     -6.63     -0.06     -5.40
     -6.39     -0.06     -5.64
     -6.63      0.18     -5.64
     -6.63      0.18     -5.88
     -6.63     -0.06     -6.12
     -6.63     -0.06     -6.36
     -6.39      0.18     -6.36
     -6.39      0.18     -6.60
     -6.15      0.18     -6.84
     -6.15      0.18     -7.08
     -6.15      0.18     -7.32
     -6.15      0.18     -7.32
     -6.15     -0.06     -7.55
     -6.15     -0.06     -7.79
     -5.91     -0.06     -8.03
     -5.91     -0.06     -8.03
     -5.91      0.18     -8.27
     -5.67      0.18     -8.51
     -5.67      0.18     -8.51
     -5.43      0.18     -8.99
     -5.43      0.18     -8.99
     -5.43      0.18     -9.23
     -5.43      0.18     -9.47
     -5.19      0.18     -9.47
     -5.19      0.18     -9.71
     -5.19      0.42     -9.71
     -5.19      0.42     -9.95
     -5.19      0.42     -9.95
     -5.19      0.42    -10.19
     -4.95      0.42    -10.43
     -4.95      0.42    -10.43
     -4.95      0.42    -10.67
     -4.95      0.42    -10.67
     -4.95      0.42    -10.67
     -4.95      0.42    -10.91
     -4.95      0.42    -10.91
     -4.71      0.42    -11.15
     -4.47      0.42    -11.15
     -4.23      0.65    -11.39
     -4.47      0.65    -11.39
     -4.47      0.42    -11.39
     -4.23      0.42    -11.62
     -4.23      0.42    -11.62
     -4.23      0.65    -11.86
     -4.23      0.42    -11.86
     -3.99      0.42    -11.86
     -3.99      0.42    -11.86
     -3.99      0.42    -11.86
     -3.75      0.42    -11.86
     -3.75      0.42    -12.10
     -3.52      0.65    -12.10
     -3.52      0.42    -12.10
     -3.28      0.42    -12.10
     -3.04      0.42    -12.34
     -3.04      0.65    -12.34
     -3.04      0.65    -12.34
     -3.04      0.42    -12.10
     -3.04      0.42    -12.10
     -2.80      0.42    -12.10
     -2.56      0.42    -12.34
     -2.56      0.42    -12.34
     -2.56      0.42    -12.34
     -2.32      0.42    -12.10
     -2.32      0.42    -12.10
     -2.08      0.42    -12.10
     -2.08      0.42    -12.10
     -2.08      0.42    -12.10
     -2.08      0.42    -12.10
     -1.84      0.42    -12.10
     -1.84      0.42    -11.86
     -1.84      0.42    -11.86
     -1.60      0.42    -11.86
     -1.60      0.42    -11.62
     -1.60      0.18    -11.62
     -1.36      0.42    -11.62
     -1.36      0.18    -11.39
     -1.12      0.18    -11.39
     -1.12      0.18    -11.15
     -1.12      0.18    -11.15
     -1.12      0.18    -10.91
     -0.88      0.18    -10.91
     -0.88      0.18    -10.91
     -0.64      0.18    -10.67
     -0.40      0.18    -10.67
     -0.40      0.18    -10.43
     -0.40      0.18    -10.19
     -0.16      0.18    -10.19
     -0.16     -0.06     -9.95
      0.08     -0.06     -9.95
      0.08      0.18     -9.71
      0.08     -0.06     -9.47
      0.08     -0.06     -9.47
      0.08     -0.06     -9.23
      0.32     -0.06     -8.99
      0.55     -0.06     -8.99
      0.55     -0.06     -8.75
      0.55     -0.06     -8.51
      0.79     -0.06     -8.27
      0.79     -0.06     -8.03
      1.03     -0.30     -7.79
      1.03     -0.06     -7.79
      1.27     -0.30     -7.55
      1.51     -0.30     -7.32
      1.51     -0.30     -7.08
      1.51     -0.30     -6.84
      1.75     -0.30     -6.60
      1.75     -0.30     -6.36
      1.99     -0.54     -6.12
      2.23     -0.30     -5.88
      2.23     -0.54     -5.64
      2.23     -0.54     -5.40
      2.47     -0.54     -5.16
      2.71     -0.54     -4.92
      2.95     -0.54     -4.68
      2.95     -0.78     -4.44
      3.19     -0.78     -4.20
      3.19     -0.78     -3.96
      3.43     -0.78     -3.72
      3.67     -0.78     -3.25
      3.67     -0.78     -3.01
      3.91     -1.02     -2.77
      4.15     -0.78     -2.53
      4.15     -0.78     -2.29
      4.39     -1.02     -2.05
      4.62     -1.02     -1.81
      4.62     -1.02     -1.57
      4.62     -1.02     -1.09
      4.86     -1.02     -0.85
      4.86     -1.26     -0.61
      5.10     -1.02     -0.37
      5.10     -1.26     -0.13
      5.34     -1.26      0.11
      5.34     -1.26      0.35
      5.58     -1.26      0.59
      5.58     -1.26      0.83
      5.82     -1.26      0.83
      5.82     -1.26      1.06
      5.82     -1.26      1.30
      6.06     -1.26      1.54
      6.06     -1.02      1.78
      6.06     -1.26      2.02
      6.06     -1.26      2.26
      6.06     -1.26      2.50
      6.30     -1.26      2.74
      6.30     -1.02      2.98
      6.30     -1.02      3.22
      6.30     -1.02      3.46
      6.30     -1.02      3.70
      6.54     -1.02      3.94
      6.54     -1.02      4.18
      6.54     -0.78      4.42
      6.54     -0.78      4.66
      6.54     -0.78      4.90
      6.54     -0.78      5.13
      6.54     -0.78      5.37
      6.54     -0.54      5.61
      6.54     -0.54      5.61
      6.54     -0.54      5.85
      6.54     -0.54      6.09
      6.54     -0.54      6.33
      6.54     -0.30      6.57
      6.54     -0.30      6.81
      6.30     -0.30      7.05
      6.30     -0.30      7.29
      6.30     -0.30      7.53
      6.30     -0.06      7.53
      6.30     -0.06      7.77
      6.30     -0.06      8.01
      6.30     -0.06      8.25
      6.30     -0.06      8.49
      6.06      0.18      8.49
      6.06      0.18      8.73
      6.06      0.18      8.97
      6.06      0.18      9.20
      6.06      0.42      9.44
      6.06      0.42      9.68
      6.06      0.18      9.92
      5.82      0.42     10.16
      6.06      0.42     10.40
      5.82      0.42     10.40
      5.82      0.42     10.64
      5.82      0.42     10.88
      5.82      0.42     10.88
      5.58      0.42     11.12
      5.58      0.42     11.36
      5.58      0.42     11.60
      5.34      0.42     11.84
      5.58      0.42     11.84
      5.34      0.42     12.08
      5.10      0.42     12.08
      5.10      0.42     12.32
      5.10      0.42     12.56
      4.86      0.42     12.80
      5.10      0.42     12.80
      4.86      0.42     13.04
      4.86      0.42     13.04
      4.62      0.18     13.04
      4.39      0.42     13.27
      4.39      0.18     13.27
      4.39      0.18     13.51
      4.15      0.18     13.51
      3.91      0.18     13.51
      3.91     -0.06     13.51
      3.91     -0.06     13.51
      3.67     -0.06     13.51
      3.43     -0.06     13.51
      3.19     -0.06     13.51
      2.95     -0.06     13.51
      2.95     -0.06     13.51
      2.95     -0.06     13.51
      2.71     -0.06     13.51
      2.47     -0.06     13.51
      2.23     -0.06     13.51
      2.23     -0.06     13.27
      1.99     -0.06     13.27
      1.99     -0.06     13.04
      1.75     -0.30     13.04
      1.51     -0.30     12.80
      1.27     -0.30     12.80
      1.27     -0.30     12.56
      1.03     -0.30     12.56
      1.03     -0.06     12.32
      0.79     -0.30     12.32
      0.55     -0.30     12.32
      0.55     -0.30     12.08
      0.32     -0.06     11.84
      0.08     -0.06     11.84
      0.08     -0.30     11.60
      0.08     -0.30     11.60
      0.08     -0.06     11.36
      0.08     -0.06     11.12
     -0.16     -0.06     11.12
     -0.16     -0.06     10.88
     -0.40     -0.06     10.64
     -0.64     -0.06     10.64
     -0.64     -0.06     10.40
     -0.88     -0.06     10.40
     -0.88     -0.06     10.16
     -0.88     -0.06      9.92
     -1.12     -0.06      9.92
     -1.12     -0.06      9.68
     -1.36     -0.06      9.44
     -1.36     -0.06      9.44
     -1.36     -0.06      9.20
     -1.60     -0.06      8.97
     -1.60     -0.06      8.97
     -1.84     -0.06      8.73
     -1.84      0.18      8.49
     -1.84     -0.06      8.49
     -1.84     -0.06      8.25
     -1.84     -0.06      8.25
     -2.08     -0.06      8.01
     -2.32     -0.06      7.77
     -2.32     -0.06      7.53
     -2.32     -0.06      7.29
     -2.32      0.18      7.29
     -2.32      0.18      7.05
     -2.56     -0.06      6.81
     -2.56      0.18      6.57
     -2.80      0.18      6.57
     -2.80      0.18      6.33
     -2.80     -0.06      6.09
     -2.80     -0.06      5.85
     -2.80     -0.06      5.61
     -2.80     -0.06      5.37
     -2.80     -0.06      5.13
     -3.04     -0.06      4.90
     -3.04     -0.06      4.66
     -3.28     -0.06      4.42
     -3.28     -0.06      4.18
     -3.28     -0.06      3.94
     -3.28     -0.06      3.70
     -3.28     -0.06      3.46
     -3.28     -0.06      3.22
     -3.28     -0.06      2.98
     -3.52     -0.06      2.74
     -3.52     -0.06      2.50
     -3.75     -0.06      2.26
     -3.75     -0.30      2.02
     -3.75     -0.30      1.78
     -3.75     -0.06      1.78
     -3.75     -0.06      1.54
     -3.75     -0.06      1.30
     -3.99     -0.06      1.06
     -4.23     -0.06      0.83
     -4.23     -0.06      0.83
     -4.23     -0.06      0.83
     -4.23     -0.06      0.59
     -4.47     -0.06      0.35
     -4.47     -0.06      0.11
     -4.47     -0.06     -0.13
     -4.47     -0.06     -0.37
     -4.71      0.18     -0.61
     -4.95      0.18     -0.61
     -4.95      0.18     -0.61
     -5.19      0.18     -0.85
     -4.95      0.18     -1.09
     -4.95      0.18     -1.33
     -5.19      0.18     -1.57
     -5.19      0.42     -1.81
     -5.43      0.42     -1.81
     -5.67      0.18     -2.05
     -5.67      0.42     -2.29
     -5.67      0.42     -2.29
     -5.91      0.42     -2.53
     -5.91      0.42     -2.77
     -5.91      0.42     -2.77
     -6.15      0.42     -3.01
     -6.15      0.42     -3.25
     -6.15      0.42     -3.48
     -6.15      0.42     -3.48
     -6.15      0.18     -3.72
     -6.39      0.18     -3.96
     -6.39      0.42     -4.20
     -6.39      0.42     -4.20
     -6.39      0.18     -4.44
     -6.39      0.18     -4.68
     -6.63      0.18     -4.92
     -6.63      0.18     -4.92
     -6.63      0.18     -5.16
     -6.63      0.18     -5.40
     -6.39      0.18     -5.64
     -6.39      0.18     -5.64
     -6.39      0.18     -5.88
     -6.39     -0.06     -6.12
     -6.39     -0.06     -6.12
     -6.39     -0.06     -6.36
     -6.39     -0.06     -6.60
     -6.39     -0.06     -6.60
     -6.39     -0.06     -6.84
     -6.15     -0.06     -7.08
     -6.15     -0.06     -7.08
     -6.15      0.18     -7.32
     -6.15     -0.06     -7.32
     -6.15     -0.06     -7.55
     -6.15     -0.06     -7.79
     -6.15     -0.06     -7.79
     -6.15     -0.06     -8.03
     -5.91      0.18     -8.03
     -5.91      0.18     -8.27
     -5.91     -0.06     -8.51
     -5.67     -0.06     -8.51
     -5.67     -0.06     -8.75
     -5.67     -0.06     -8.75
     -5.67      0.18     -8.75
     -5.67      0.18     -8.75
     -5.67      0.18     -8.99
     -5.67      0.18     -9.23
     -5.19      0.18     -9.23
