********************************************************************************
               CENTRO DE INSTRUMENTACION Y REGISTRO SISMICO  A.C.  
                       Coordinacion de Servicios Tecnicos
     Anaxagoras 814, Col. Narvarte, Benito Juarez, C.P. 03020 Mexico, D.F.
            Tels. 687 45 42/ 687 45  82             Fax. 669 25 12
********************************************************************************
ARCHIVO ESTANDAR DE ACELERACION:
VERSION DEL FORMATO                    : 2.0
NOMBRE DEL ARCHIVO                     : AP680101.131
FECHA Y HORA DE CREACION               : 02/JUL/04, 13:30
REF. CATALOGO ACELEROGRAMAS, SMIS 1996 : REGISTRO No.     /PAG.


================================================================================
DATOS DE LA ESTACION:
NOMBRE DE LA ESTACION                  : APATLACO
CLAVE DE LA ESTACION                   : AP68
LOCALIZACION DE LA ESTACION            : Jardin de Ni¤os Juan Bautista de la
                                       : Salle Canal de Apatlaco y Ahuehuetes,
                                       : Col Iztacalco Infonavit, Iztacalc
                                       : 
                                       :
COORDENADAS DE LA ESTACION             : 19.381 LAT. N 
                                       : 99.107 LONG. W 
ALTITUD (msnm)                         : 2232
TIPO DE SUELO                          : ARCILLOSO, ZONA LAGO
                                       : 
                                       : 
INSTITUCION RESPONSABLE                : CIRES
                                       :

================================================================================
DATOS DEL ACELEROGRAFO:
MODELO DEL ACELEROGRAFO                : RAD-851
NUMERO DE SERIE DEL ACELEROGRAFO       : 255
NUMERO DE CANALES                      : 3
ORIENTACION C1-C6 (rumbo;orientacion)  : /N00E/+V/N90W
ORIENTACION C7-C12 (rumbo;orientacion) :
VEL. DE MUESTREO, C1-C6 (muestras/s)   : /100/100/100
VEL. DE MUESTREO, C7-C12 (muestras/s)  :
ESC. COMPLETA DE SENSORES, C1-C6, (g)  : /0.5/0.5/0.5
ESC. COMPLETA DE SENSORES, C7-C12, (g) :
FREC. NAT. DE SENSORES, C1-C6, (Hz)    : /30/30/30
FREC. NAT. DE SENSORES, C7-C12, (Hz)   :
AMORTIGUAMIENTO DE SENSORES, C1-C6     : /0.780/0.700/0.678
AMORTIGUAMIENTO DE SENSORES, C7-C12    :
INTERVALO DE MUESTREO, C1-C6, (s)      : /0.01/0.01/0.01
INTERVALO DE MUESTREO, C7-C12, (s)     :
UMBRAL DE DISPARO, C1-C6, (Gal)        : /2.69/5.62/3.17
UMBRAL DE DISPARO, C7-C12, (Gal)       :
MEMORIA DE PREEVENTO (s)               : 24
TIEMPO DE POSEVENTO (s)                : 64


================================================================================
DATOS DEL SISMO:
FECHA DEL SISMO (GMT)                  : 13/ENE/01
HORA EPICENTRO (GMT)                   : 17:33:46:0
MAGNITUD(ES)                           : /Mc=7.6
COORDENADAS DEL EPICENTRO              : 13.15 LAT. N
                                       : 89.94 LONG. W
PROFUNDIDAD FOCAL (km)                 : 10.0
FUENTE DE LOS DATOS EPICENTRALES       : SSN
                                       : INSTITUTO DE GEOFISICA, UNAM

================================================================================
DATOS DE ESTE REGISTRO:
HORA DE LA PRIMERA MUESTRA (GMT)       : 17:40:18.00
EXACTITUD DEL TIEMPO (s)               : 0.01
DURACION DEL REGISTRO (s), C1-C6       : /110.75/110.75/110.75
DURACION DEL REGISTRO (s), C7-C12      :
NUM. TOTAL DE MUESTRAS, C1-C6          : /11075/11075/11075
NUM. TOTAL DE MUESTRAS, C7-C12         :
ACEL. MAX. (Gal), C1-C6                : /-3.91415/1.19859/-3.21180
ACEL. MAX., C1-C6, EN LA MUESTRA       :
ACEL. MAX. (Gal), C7-C12               :
ACEL. MAX., C7-C12, EN LA MUESTRA      :
UNIDADES DE LOS DATOS                  : Gal (cm/s/s)
FACTOR DE DECIMACION                   : 1
FORMATO DATOS (FORTRAN,10 campos/dato) : 3F10.5


================================================================================
CALIDAD DEL ACELEROGRAMA:
REGISTRO DIGITAL COMPLETO CON TIEMPO ABSOLUTO CORRECTO.


================================================================================
COMENTARIOS:














================================================================================
DATOS DE ACELERACION:
---------+---------+---------+---------+---------+---------+---------+---------+
   CANAL-1   CANAL-2   CANAL-3   CANAL-4   CANAL-5   CANAL-6   CANAL-7   CANAL-8
      N00E        +V      N90W
---------+---------+---------+---------+---------+---------+---------+---------+
[...]
  -0.32286  -0.23793  -1.05703
  -0.80170  -0.23793  -1.05703
  -0.08345  -0.23793  -1.29645
   0.39539   0.00149  -1.53587
  -0.32286   0.00149  -1.05703
  -0.56228   0.00149  -0.81761
  -0.08345  -0.23793  -0.81761
  -0.32286   0.24091  -0.81761
  -0.32286   0.00149  -0.81761
  -0.08345  -0.23793  -0.33878
  -0.08345  -0.23793  -0.81761
  -0.32286   0.24091  -0.33878
  -0.08345  -0.23793  -0.57819
   0.39539  -0.23793  -0.57819
   0.63481  -0.47735  -0.81761
  -0.08345  -0.47735  -0.09936
   0.15597   0.00149  -0.09936
   0.39539   0.24091  -0.57819
   0.15597   0.24091  -0.09936
   0.63481  -0.71677   0.14006
   0.39539  -0.47735   0.14006
   0.15597   0.24091  -0.33878
   0.63481   0.00149   0.14006
   0.63481  -0.23793   0.14006
   0.15597  -0.23793   0.37948
   0.15597  -0.23793   0.85832
   0.63481  -0.23793   0.37948
   0.87423   0.00149   0.37948
   0.87423   0.00149   0.14006
   0.63481  -0.23793   0.61890
   0.87423  -0.47735   1.09774
   1.35307  -0.23793   0.61890
   1.11365  -0.23793   0.61890
   1.35307  -0.71677   1.33716
   1.11365  -0.47735   0.85832
   0.87423   0.00149   0.85832
   1.11365  -0.23793   0.85832
   1.11365  -0.23793   1.33716
   1.83191  -0.71677   1.09774
   0.87423  -0.71677   1.81600
   1.83191  -0.71677   1.57658
   1.83191   0.00149   1.57658
   1.83191  -0.23793   1.33716
   1.59249   0.00149   1.57658
   1.83191  -0.47735   1.81600
   1.59249  -0.23793   1.57658
   1.83191   0.24091   1.09774
   1.59249   0.00149   1.81600
   1.35307  -0.23793   2.29483
   1.59249  -0.47735   1.81600
   1.59249   0.00149   2.05541
   2.31074  -0.23793   1.57658
   2.55016  -0.23793   2.05541
   2.07133  -0.23793   2.05541
   2.31074  -0.23793   2.05541
   2.07133   0.00149   2.05541
   2.31074   0.00149   2.29483
   2.07133  -0.47735   2.53425
   2.55016  -0.71677   2.29483
   2.55016  -0.23793   2.05541
   2.31074   0.00149   2.05541
   2.55016   0.24091   2.05541
   2.78958   0.00149   2.29483
   2.31074  -0.23793   2.29483
   1.83191   0.24091   2.29483
   2.31074   0.00149   2.53425
   2.78958  -0.23793   2.53425
   2.78958   0.00149   2.53425
   2.55016   0.00149   2.77367
   2.78958   0.00149   2.77367
   3.02900   0.00149   2.05541
   2.31074   0.24091   2.29483
   2.55016  -0.23793   2.05541
   2.07133   0.00149   2.05541
   2.31074   0.00149   2.29483
   2.55016  -0.23793   2.53425
   3.26842   0.00149   2.05541
   3.26842   0.00149   2.29483
   2.78958   0.71975   2.29483
   2.55016   0.24091   2.29483
   2.78958   0.24091   2.05541
   2.07133   0.48033   2.29483
   2.07133  -0.23793   2.77367
   1.59249   0.00149   2.53425
   2.31074   0.24091   1.81600
   2.55016   0.48033   2.05541
   3.50784  -0.23793   2.29483
   3.26842   0.24091   2.05541
   2.78958   0.48033   2.05541
   2.78958   0.48033   2.05541
   2.78958   0.48033   2.05541
   2.31074   0.48033   2.05541
   2.07133  -0.23793   2.53425
   2.31074   0.00149   2.29483
   2.78958   0.24091   1.81600
   2.78958   0.48033   1.57658
   2.31074   0.48033   2.29483
   2.78958  -0.23793   2.05541
   1.83191   0.48033   1.33716
   1.83191   0.24091   1.81600
   2.55016  -0.23793   1.81600
   2.55016   0.24091   1.81600
   2.31074   0.00149   1.81600
   2.07133   0.24091   2.05541
   2.31074   0.48033   1.57658
   2.07133   0.71975   1.33716
   1.35307   0.24091   1.81600
   1.83191  -0.23793   1.81600
   2.07133   0.24091   1.33716
   2.07133   0.24091   1.09774
   2.07133  -0.23793   1.33716
   2.55016  -0.47735   1.57658
   2.31074   0.00149   1.09774
   2.07133   0.24091   1.57658
   2.31074   0.00149   1.33716
   1.83191   0.24091   1.09774
   1.35307  -0.23793   1.33716
   1.11365  -0.23793   1.57658
   1.83191   0.00149   1.09774
   1.83191   0.00149   1.09774
   2.07133  -0.23793   1.57658
   2.07133  -0.23793   1.33716
   2.07133   0.48033   1.09774
   1.59249   0.48033   1.09774
   1.59249   0.00149   1.57658
   1.35307  -0.47735   1.33716
   1.35307   0.00149   1.33716
   1.35307   0.24091   0.85832
   1.35307   0.00149   0.85832
   1.83191  -0.95618   1.33716
   1.59249   0.00149   0.37948
   1.35307   0.24091   1.09774
   1.35307   0.00149   1.09774
   1.83191   0.00149   0.61890
   1.35307   0.00149   0.61890
   1.35307  -0.23793   1.09774
   1.35307  -0.23793   1.09774
   1.11365   0.00149   0.61890
   1.11365  -0.23793   1.09774
   1.59249  -0.23793   0.61890
   1.11365   0.24091   0.61890
   0.63481   0.00149   0.85832
   0.39539   0.48033   0.61890
   0.87423   0.24091   0.37948
   0.87423  -0.23793   0.37948
   0.15597   0.24091   0.61890
   0.63481  -0.23793   0.61890
   0.87423   0.24091   0.37948
   0.87423   0.00149  -0.09936
   0.39539   0.00149   0.37948
   0.39539   0.00149   0.14006
   0.39539   0.24091  -0.09936
   0.39539   0.00149   0.14006
   0.63481  -0.23793  -0.09936
   0.15597   0.00149  -0.09936
   0.15597  -0.23793  -0.09936
   0.39539   0.00149  -0.33878
   0.39539  -0.23793  -0.33878
   0.15597   0.24091  -0.81761
  -0.32286  -0.23793   0.14006
   0.15597  -0.23793  -0.57819
  -0.80170  -0.23793  -0.09936
  -0.32286   0.00149  -0.33878
  -0.08345  -0.23793  -0.81761
  -0.08345  -0.47735  -0.57819
  -0.80170   0.00149  -0.57819
  -0.80170   0.00149  -0.33878
  -0.56228   0.24091  -1.05703
  -0.80170   0.00149  -0.81761
  -1.28054  -0.47735  -0.57819
  -1.04112  -0.23793  -0.81761
  -0.56228   0.48033  -1.53587
  -0.80170   0.24091  -1.53587
  -0.80170   0.00149  -1.29645
  -0.80170  -0.47735  -1.05703
  -1.28054   0.00149  -1.29645
  -1.51996  -0.23793  -1.05703
  -1.04112  -0.23793  -1.53587
  -1.04112  -0.23793  -1.53587
  -1.28054  -0.23793  -1.29645
  -1.28054  -0.23793  -1.29645
  -1.04112   0.00149  -1.77529
  -1.99880   0.48033  -1.53587
  -2.23822  -0.23793  -1.29645
  -1.99880  -0.23793  -1.53587
  -1.99880   0.24091  -2.01471
  -2.23822   0.24091  -2.01471
  -1.75938   0.00149  -2.01471
  -1.28054  -0.71677  -1.77529
  -1.51996  -0.23793  -2.25413
  -1.75938   0.24091  -2.73296
  -2.23822   0.00149  -2.01471
  -1.51996   0.24091  -2.73296
  -2.47763   0.00149  -2.01471
  -3.19589  -0.23793  -2.01471
  -2.71705   0.00149  -2.25413
  -2.23822   0.24091  -2.49355
  -1.99880  -0.47735  -2.25413
  -2.23822  -0.47735  -2.01471
  -2.71705   0.24091  -2.97238
  -2.95647   0.48033  -2.73296
  -2.47763   0.00149  -2.49355
  -2.71705   0.00149  -2.25413
  -2.71705   0.24091  -2.49355
  -2.71705   0.24091  -2.73296
  -2.47763  -0.23793  -2.25413
  -1.99880  -0.23793  -2.49355
  -2.23822   0.24091  -2.73296
  -2.23822  -0.23793  -2.49355
  -2.71705   0.24091  -2.97238
  -2.95647   0.71975  -2.97238
  -2.47763   0.48033  -2.73296
  -2.71705  -0.23793  -2.25413
  -2.47763  -0.47735  -2.49355
  -2.95647   0.24091  -2.01471
  -2.47763  -0.23793  -2.49355
  -2.23822   0.00149  -2.73296
  -2.47763   0.24091  -2.49355
  -3.43531   0.00149  -2.49355
  -3.19589   0.00149  -1.77529
  -2.71705  -0.23793  -2.25413
  -2.95647   0.24091  -2.49355
  -2.47763  -0.23793  -2.01471
  -2.95647  -0.23793  -1.77529
  -2.95647   0.48033  -2.73296
  -2.95647   0.24091  -2.25413
  -2.47763   0.24091  -2.25413
  -2.95647   0.24091  -2.25413
  -2.95647   0.00149  -2.01471
  -2.95647   0.24091  -2.49355
  -2.71705   0.00149  -2.49355
  -2.23822   0.00149  -2.25413
  -2.71705   0.24091  -2.25413
  -2.47763   0.00149  -2.01471
  -2.47763   0.24091  -2.01471
  -3.43531   0.24091  -1.77529
  -2.95647   0.00149  -1.77529
  -2.71705  -0.23793  -1.77529
  -2.95647  -0.23793  -1.77529
  -2.71705   0.48033  -2.49355
  -2.47763   0.00149  -2.01471
  -2.47763   0.00149  -2.01471
  -2.95647   0.24091  -1.53587
  -2.71705   0.00149  -1.77529
  -2.47763   0.48033  -1.77529
  -2.23822   0.00149  -2.01471
  -2.71705  -0.23793  -1.05703
  -2.47763  -0.47735  -1.53587
  -2.23822   0.24091  -1.77529
  -2.47763   0.00149  -1.29645
  -2.23822  -0.47735  -1.05703
  -2.71705   0.00149  -1.53587
  -2.23822  -0.23793  -1.29645
  -2.71705   0.48033  -1.29645
  -2.47763   0.00149  -1.53587
  -1.75938  -0.47735  -1.29645
  -2.71705   0.00149  -1.05703
  -2.23822  -0.23793  -1.05703
  -2.23822   0.48033  -1.29645
  -2.23822   0.48033  -1.29645
  -1.99880   0.00149  -1.05703
  -1.75938  -0.23793  -0.81761
  -1.75938   0.24091  -1.53587
  -2.23822   0.48033  -1.29645
  -2.23822   0.00149  -0.81761
  -1.51996  -0.23793  -0.57819
  -1.99880   0.00149  -1.05703
  -1.99880   0.00149  -0.57819
  -1.75938   0.24091  -0.81761
  -1.51996   0.24091  -1.05703
  -1.28054   0.24091  -1.05703
  -1.75938   0.00149  -0.57819
  -1.75938   0.24091  -0.81761
  -1.75938   0.48033  -1.05703
  -1.75938   0.00149  -0.33878
  -1.28054  -0.71677  -0.09936
  -1.28054   0.00149  -0.57819
  -1.51996   0.48033  -0.57819
  -1.04112   0.24091  -0.57819
  -1.04112   0.00149  -0.09936
  -1.28054   0.00149  -0.33878
  -1.75938   0.00149   0.14006
  -1.04112  -0.23793  -0.09936
  -0.80170   0.00149  -0.09936
  -0.32286  -0.47735  -0.33878
  -0.56228   0.00149   0.14006
  -0.56228  -0.23793   0.14006
  -0.56228   0.00149  -0.57819
  -0.80170   0.00149   0.37948
  -0.32286  -0.23793  -0.33878
  -0.80170   0.00149   0.14006
  -0.80170   0.00149   0.37948
  -0.56228   0.00149   0.37948
   0.15597   0.00149   0.14006
  -0.08345   0.00149  -0.09936
  -0.56228  -0.23793   0.85832
   0.15597  -0.23793   0.61890
   0.15597   0.48033   0.37948
   0.15597  -0.23793   0.61890
   0.15597   0.00149   1.09774
   0.87423  -0.23793   0.61890
   0.63481   0.24091   0.37948
   0.39539   0.71975   0.37948
   0.63481   0.00149   0.61890
   0.87423   0.00149   0.85832
   0.63481   0.24091   0.61890
   0.15597   0.00149   1.09774
   0.87423  -0.23793   1.09774
   1.11365  -0.23793   0.85832
   1.11365   0.24091   0.61890
   0.87423  -0.23793   1.33716
   0.87423   0.24091   0.85832
   1.35307   0.00149   1.09774
   1.11365  -0.23793   1.57658
   1.59249  -0.23793   1.33716
   1.59249   0.24091   1.33716
   1.59249   0.24091   1.33716
   2.07133   0.00149   1.09774
   1.83191   0.00149   1.33716
   1.59249   0.00149   1.57658
   1.35307   0.71975   1.57658
   1.83191   0.00149   1.33716
   2.07133   0.24091   1.33716
   2.07133   0.00149   1.81600
   2.07133   0.00149   1.81600
   2.07133   0.24091   1.57658
   1.83191   0.24091   1.33716
   1.35307   0.00149   2.05541
   2.07133  -0.47735   1.57658
   1.83191   0.48033   1.81600
   2.55016  -0.23793   2.05541
   3.26842  -0.23793   1.81600
   2.78958   0.24091   1.57658
   2.78958   0.00149   1.81600
   2.07133   0.00149   2.29483
   2.31074   0.00149   2.53425
   2.55016   0.00149   2.05541
   2.78958   0.00149   2.29483
   3.02900  -0.47735   2.53425
   2.55016   0.00149   2.53425
   2.31074   0.48033   2.53425
   2.78958   0.24091   2.29483
   3.50784   0.00149   2.05541
   2.78958   0.48033   2.05541
   2.55016   0.00149   2.29483
   2.78958   0.24091   2.29483
   3.02900   0.48033   2.29483
   3.02900   0.00149   2.29483
   3.02900  -0.23793   2.77367
   3.74726  -0.47735   2.53425
   3.50784   0.24091   2.29483
   3.50784   0.00149   2.53425
   3.74726  -0.23793   2.53425
   3.26842   0.24091   2.53425
   2.55016   0.71975   2.29483
   2.78958   0.24091   2.53425
   3.74726   0.00149   2.05541
   3.02900   0.48033   2.29483
   3.26842   0.00149   2.77367
   2.78958   0.24091   2.53425
   2.78958   0.71975   2.29483
   2.78958   0.00149   2.53425
   2.78958  -0.23793   3.01309
   3.26842   0.00149   2.53425
   3.02900   0.24091   2.05541
   2.78958   0.24091   2.05541
   3.26842   0.24091   2.29483
   3.26842   0.24091   2.05541
   2.78958   0.24091   2.29483
   3.02900   0.24091   2.05541
   3.02900   0.00149   2.53425
   3.26842  -0.23793   2.05541
   2.78958   0.71975   1.81600
   2.78958   0.24091   1.81600
   3.50784   0.00149   2.05541
   3.50784   0.00149   1.81600
   3.50784   0.24091   1.57658
   3.02900  -0.23793   2.77367
   2.78958   0.24091   1.81600
   2.78958   0.24091   1.81600
   2.78958   0.48033   1.57658
   2.55016   0.24091   2.29483
   2.78958   0.00149   1.81600
   2.78958   0.48033   1.81600
   3.02900   0.24091   1.81600
   3.26842   0.24091   1.33716
   2.55016   0.24091   1.57658
   2.07133   0.48033   1.57658
   2.78958   0.24091   1.57658
   2.78958   0.48033   1.33716
   2.55016   0.00149   1.33716
   2.55016   0.00149   1.33716
   2.55016  -0.23793   1.33716
   2.55016   0.24091   1.33716
   3.02900   0.00149   1.33716
   2.31074   0.00149   1.57658
   2.55016   0.00149   1.57658
   2.55016   0.24091   1.09774
   2.07133   0.00149   1.57658
   2.55016   0.00149   0.85832
   2.07133   0.00149   1.33716
   1.83191  -0.23793   1.33716
   2.07133   0.24091   1.09774
   2.31074   0.24091   0.61890
   2.31074   0.24091   1.09774
   2.07133   0.00149   1.09774
   2.31074   0.24091   0.37948
   1.83191   0.48033   0.37948
   1.35307   0.24091   0.37948
   2.07133  -0.23793   0.61890
   2.07133  -0.47735   0.61890
   1.83191   0.24091   0.37948
   1.59249   0.24091   0.14006
   1.83191  -0.23793   0.61890
   2.31074   0.00149  -0.33878
   1.59249   0.24091  -0.09936
   1.35307   0.48033   0.14006
   1.59249   0.24091  -0.09936
   1.59249   0.24091  -0.09936
   1.35307   0.00149   0.37948
   1.35307  -0.23793   0.37948
   1.35307   0.00149   0.14006
   0.87423   0.00149  -0.33878
   1.35307   0.00149  -0.33878
   1.11365   0.00149  -0.57819
   0.39539   0.24091  -0.33878
   0.63481   0.71975  -0.57819
   0.63481   0.00149  -0.57819
   1.11365  -0.23793  -0.57819
   0.63481  -0.23793  -0.57819
   0.63481  -0.23793  -0.33878
   0.63481   0.00149  -1.05703
   0.63481   0.24091  -1.05703
   0.87423  -0.23793  -0.81761
   0.39539  -0.23793  -1.05703
  -0.08345  -0.23793  -0.81761
  -0.32286   0.00149  -0.81761
  -0.32286   0.00149  -0.57819
   0.15597   0.00149  -1.05703
  -0.56228   0.00149  -1.05703
  -0.32286  -0.47735  -1.05703
  -0.08345   0.00149  -1.29645
  -0.32286   0.24091  -1.53587
  -0.56228   0.00149  -1.29645
  -1.04112  -0.23793  -0.81761
  -0.80170  -0.23793  -1.29645
  -0.80170   0.24091  -1.53587
  -0.56228  -0.47735  -1.29645
  -0.56228  -0.23793  -1.05703
  -0.80170   0.00149  -1.53587
  -1.04112   0.24091  -1.53587
  -1.04112  -0.23793  -1.29645
  -0.80170  -0.23793  -1.77529
  -1.28054  -0.23793  -1.29645
  -1.28054  -0.47735  -1.05703
  -1.28054   0.24091  -1.77529
  -1.28054   0.24091  -1.77529
  -1.51996   0.24091  -1.53587
  -1.75938  -0.23793  -1.05703
  -1.75938  -0.23793  -1.29645
  -1.75938   0.24091  -1.53587
  -1.99880   0.24091  -2.01471
  -1.51996   0.00149  -1.77529
  -2.23822   0.00149  -1.53587
  -2.47763  -0.23793  -1.29645
  -2.23822   0.00149  -1.77529
  -1.75938   0.24091  -2.25413
  -2.23822   0.00149  -1.77529
  -1.99880  -0.47735  -1.53587
  -1.99880  -0.23793  -1.77529
  -2.47763   0.71975  -2.25413
  -2.47763   0.00149  -2.25413
  -2.47763   0.24091  -2.01471
  -2.23822  -0.23793  -2.01471
  -2.71705  -0.23793  -1.77529
  -2.47763   0.24091  -2.25413
  -2.47763   0.00149  -2.01471
  -2.23822   0.00149  -2.97238
  -2.71705  -0.23793  -1.77529
  -2.23822   0.00149  -2.01471
  -2.47763   0.24091  -2.49355
  -2.71705   0.00149  -1.77529
  -2.47763  -0.23793  -1.77529
  -2.95647  -0.23793  -1.77529
  -3.19589   0.48033  -2.25413
  -2.95647   0.00149  -1.77529
  -2.71705   0.00149  -1.53587
  -2.71705   0.00149  -2.25413
  -3.43531   0.24091  -2.01471
  -2.95647   0.24091  -2.01471
  -2.95647  -0.23793  -2.25413
  -2.71705   0.00149  -2.01471
  -3.19589   0.00149  -2.01471
  -2.95647  -0.71677  -1.53587
  -2.95647   0.00149  -2.25413
  -2.95647   0.48033  -2.01471
  -2.23822  -0.47735  -2.01471
  -2.71705  -0.23793  -1.77529
  -2.71705   0.00149  -2.25413
