********************************************************************************
               CENTRO DE INSTRUMENTACION Y REGISTRO SISMICO  A.C.  
                       Coordinacion de Servicios Tecnicos
     Anaxagoras 814, Col. Narvarte, Benito Juarez, C.P. 03020 Mexico, D.F.
            Tels. 687 45 42/ 687 45  82             Fax. 669 25 12
********************************************************************************
ARCHIVO ESTANDAR DE ACELERACION:
VERSION DEL FORMATO                    : 2.0
NOMBRE DEL ARCHIVO                     : AP689305.152
FECHA Y HORA DE CREACION               : 96/01/10  13:18:21
REF. CATALOGO ACELEROGRAMAS, SMIS 1995 : REGISTRO No. 4226 /PAG. 386


================================================================================
DATOS DE LA ESTACION:
NOMBRE DE LA ESTACION                  : APATLACO
CLAVE DE LA ESTACION                   : AP68
LOCALIZACION DE LA ESTACION            : Jardin de Ni¤os Juan Bautista de la
                                       : Salle Canal de Apatlaco y Ahuehuetes,
                                       : Col. Iztacalco Infonavit, Iztacalco
                                       : 
                                       :
COORDENADAS DE LA ESTACION             : 19.381 LAT. N 
                                       : 99.107 LONG. W 
ALTITUD (msnm)                         : 2232
TIPO DE SUELO                          : ARCILLOSO, ZONA LAGO
                                       : 
                                       : 
INSTITUCION RESPONSABLE                : CIRES
                                       :

================================================================================
DATOS DEL ACELEROGRAFO:
MODELO DEL ACELEROGRAFO                : DCA-333
NUMERO DE SERIE DEL ACELEROGRAFO       : 255
NUMERO DE CANALES                      : 3
ORIENTACION C1-C6 (rumbo;orientacion)  : /N00E/+V/N90W
ORIENTACION C7-C12 (rumbo;orientacion) :
VEL. DE MUESTREO, C1-C6 (muestras/s)   : /100/100/100
VEL. DE MUESTREO, C7-C12 (muestras/s)  :
ESC. COMPLETA DE SENSORES, C1-C6, (g)  : /0.5/0.5/0.5
ESC. COMPLETA DE SENSORES, C7-C12, (g) :
FREC. NAT. DE SENSORES, C1-C6, (Hz)    : /30/30/30
FREC. NAT. DE SENSORES, C7-C12, (Hz)   :
AMORTIGUAMIENTO DE SENSORES, C1-C6     : /0.780/0.700/0.678
AMORTIGUAMIENTO DE SENSORES, C7-C12    :
INTERVALO DE MUESTREO, C1-C6, (s)      : /0.01/0.01/0.01
INTERVALO DE MUESTREO, C7-C12, (s)     :
UMBRAL DE DISPARO, C1-C6, (Gal)        : /3.4/3.4/3.4
UMBRAL DE DISPARO, C7-C12, (Gal)       :
MEMORIA DE PREEVENTO (s)               : 4 
TIEMPO DE POSEVENTO (s)                : 15


================================================================================
DATOS DEL SISMO:
FECHA DEL SISMO (GMT)                  : 15/MAY/93
HORA EPICENTRO (GMT)                   : 3:11:56,0 
MAGNITUD(ES)                           : /Mb=5.90/Ms=5.90/Mc=6.00
COORDENADAS DEL EPICENTRO              : 16.470 LAT. N 
                                       : 98.720 LONG. W 
PROFUNDIDAD FOCAL (km)                 : < 5
FUENTE DE LOS DATOS EPICENTRALES       : SSN
                                       : INSTITUTO DE GEOFISICA, UNAM

================================================================================
DATOS DE ESTE REGISTRO:
HORA DE LA PRIMERA MUESTRA (GMT)       : 03:13:33.93
EXACTITUD DEL TIEMPO (s)               : 0.01
DURACION DEL REGISTRO (s), C1-C6       : /98.61/98.61/98.61
DURACION DEL REGISTRO (s), C7-C12      :
NUM. TOTAL DE MUESTRAS, C1-C6          : /9861/9861/9861
NUM. TOTAL DE MUESTRAS, C7-C12         :
ACEL. MAX. (Gal), C1-C6                : /10.57/2.66/7.22
ACEL. MAX., C1-C6, EN LA MUESTRA       :
ACEL. MAX. (Gal), C7-C12               :
ACEL. MAX., C7-C12, EN LA MUESTRA      :
UNIDADES DE LOS DATOS                  : Gal (cm/s/s)
FACTOR DE DECIMACION                   : 1
FORMATO DATOS (FORTRAN,10 campos/dato) : 3F10.2


================================================================================
CALIDAD DEL ACELEROGRAMA:
REGISTRO DIGITAL COMPLETO, CON TIEMPO ABSOLUTO CORRECTO.


================================================================================
COMENTARIOS:














================================================================================
DATOS DE ACELERACION:
---------+---------+---------+---------+---------+---------+---------+---------+
   CANAL-1   CANAL-2   CANAL-3   CANAL-4   CANAL-5   CANAL-6   CANAL-7   CANAL-8
      N00E        +V      N90W
---------+---------+---------+---------+---------+---------+---------+---------+
[...]
     -3.39     -1.65      0.04
     -3.63     -1.65      0.04
     -3.87     -1.89     -0.20
     -4.10     -1.89     -0.20
     -4.10     -1.89     -0.44
     -4.34     -1.89     -0.44
     -4.34     -1.89     -0.68
     -4.58     -1.89     -0.68
     -4.58     -1.89     -0.68
     -4.82     -1.89     -0.68
     -4.82     -1.89     -0.68
     -4.82     -1.89     -0.68
     -4.82     -1.89     -0.68
     -4.82     -1.65     -0.68
     -4.82     -1.65     -0.68
     -4.82     -1.41     -0.68
     -4.58     -1.17     -0.44
     -4.58     -0.93     -0.44
     -4.58     -0.93     -0.44
     -4.58     -0.69     -0.44
     -4.58     -0.45     -0.44
     -4.58     -0.22     -0.44
     -4.34     -0.22     -0.44
     -4.34      0.02     -0.44
     -4.34      0.02     -0.44
     -4.34      0.26     -0.68
     -4.34      0.26     -0.68
     -4.34      0.50     -0.92
     -4.34      0.50     -0.92
     -4.34      0.74     -0.92
     -4.34      0.98     -1.16
     -4.58      1.22     -1.16
     -4.58      1.22     -1.40
     -4.82      1.46     -1.64
     -5.06      1.46     -1.88
     -5.06      1.70     -2.12
     -5.30      1.70     -2.36
     -5.54      1.70     -2.59
     -5.54      1.94     -2.83
     -5.78      1.94     -2.83
     -5.78      2.18     -3.07
     -6.02      2.18     -3.07
     -6.02      2.18     -3.07
     -6.02      2.18     -3.07
     -6.26      2.18     -3.07
     -6.50      2.18     -2.83
     -6.50      2.42     -2.83
     -6.74      2.42     -2.59
     -6.74      2.42     -2.59
     -6.98      2.66     -2.36
     -6.98      2.66     -2.36
     -7.22      2.66     -2.12
     -7.22      2.66     -1.88
     -7.46      2.66     -1.64
     -7.70      2.42     -1.40
     -7.70      2.42     -1.16
     -7.94      2.42     -0.92
     -7.94      2.18     -0.68
     -8.17      2.18     -0.44
     -8.41      1.94     -0.20
     -8.65      1.70     -0.20
     -8.65      1.70     -0.20
     -8.89      1.46      0.04
     -9.13      1.22      0.04
     -9.13      0.98      0.04
     -9.13      0.74      0.04
     -9.37      0.50      0.04
     -9.37      0.50      0.04
     -9.37      0.02      0.04
     -9.37     -0.22      0.04
     -9.37     -0.22      0.04
     -9.37     -0.69      0.04
     -9.37     -0.69      0.04
     -9.37     -0.93      0.28
     -9.37     -1.17      0.28
     -9.13     -1.41      0.52
     -8.89     -1.41      0.76
     -8.65     -1.65      0.76
     -8.41     -1.65      1.00
     -8.17     -1.65      1.24
     -7.70     -1.89      1.24
     -7.46     -1.89      1.48
     -6.98     -1.89      1.48
     -6.50     -1.89      1.72
     -6.26     -1.89      1.95
     -5.78     -2.13      1.95
     -5.06     -2.13      1.95
     -4.58     -2.13      1.95
     -3.87     -1.89      1.95
     -3.39     -2.13      1.95
     -2.67     -1.89      1.95
     -1.95     -1.89      1.95
     -1.47     -1.89      1.95
     -0.75     -1.89      1.95
     -0.51     -1.65      1.95
     -0.03     -1.65      1.95
      0.44     -1.41      1.95
      0.92     -1.41      1.95
      1.40     -1.17      1.72
      1.64     -1.17      1.72
      1.88     -0.93      1.48
      2.12     -0.69      1.48
      2.36     -0.69      1.24
      2.36     -0.45      1.24
      2.60     -0.45      1.00
      2.60     -0.22      1.00
      2.60      0.02      0.76
      2.60      0.02      0.76
      2.36      0.26      0.52
      2.36      0.26      0.28
      2.12      0.50      0.04
      1.88      0.74      0.04
      1.88      0.74      0.04
      1.40      0.74     -0.20
      1.40      0.98     -0.44
      0.92      1.22     -0.68
      0.68      1.22     -0.68
      0.44      1.46     -0.92
      0.20      1.46     -0.92
     -0.03      1.46     -0.92
     -0.51      1.70     -1.16
     -0.51      1.70     -1.16
     -0.75      1.70     -1.16
     -0.75      1.70     -1.16
     -0.99      1.94     -1.16
     -1.23      1.94     -1.16
     -1.23      1.94     -1.40
     -1.23      1.94     -1.40
     -1.47      1.94     -1.40
     -1.47      1.94     -1.64
     -1.47      1.94     -1.64
     -1.23      1.94     -1.64
     -1.23      2.18     -1.88
     -1.23      2.18     -1.88
     -0.99      2.18     -2.12
     -0.99      2.18     -2.12
     -0.75      2.18     -2.12
     -0.75      1.94     -2.36
     -0.51      1.94     -2.36
     -0.51      1.70     -2.36
     -0.27      1.70     -2.36
     -0.03      1.46     -2.36
      0.20      1.46     -2.36
      0.44      1.22     -2.12
      0.68      1.22     -2.12
      0.92      0.98     -1.88
      1.16      0.74     -1.88
      1.64      0.74     -1.64
      1.88      0.50     -1.40
      2.12      0.26     -1.16
      2.36      0.26     -0.92
      2.84      0.02     -0.92
      2.84     -0.22     -0.68
      3.08     -0.22     -0.44
      3.32     -0.45     -0.20
      3.56     -0.45      0.04
      3.56     -0.69      0.04
      3.80     -0.69      0.28
      3.80     -0.93      0.52
      4.04     -0.93      0.52
      4.04     -0.93      0.76
      4.27     -1.17      1.00
      4.27     -1.17      1.00
      4.51     -1.41      1.24
      4.51     -1.41      1.48
      4.51     -1.41      1.48
      4.51     -1.41      1.72
      4.51     -1.41      1.95
      4.51     -1.41      2.19
      4.75     -1.41      2.19
      4.75     -1.41      2.43
      4.75     -1.41      2.43
      4.75     -1.17      2.67
      4.75     -1.17      2.91
      4.99     -1.17      2.91
      4.99     -0.93      2.91
      5.23     -0.93      3.15
      5.23     -0.69      3.15
      5.23     -0.69      3.15
      5.47     -0.45      3.15
      5.47     -0.45      3.15
      5.71     -0.22      3.15
      5.71      0.02      3.15
      5.95      0.02      2.91
      5.95      0.26      3.15
      5.95      0.26      2.91
      6.19      0.50      2.91
      6.19      0.50      2.91
      6.19      0.50      2.67
      6.19      0.74      2.67
      6.43      0.74      2.43
      6.43      0.74      2.19
      6.43      0.74      2.19
      6.43      0.74      1.95
      6.43      0.50      1.72
      6.43      0.50      1.48
      6.67      0.50      1.24
      6.67      0.50      1.00
      6.67      0.50      0.76
      6.67      0.26      0.52
      6.43      0.26      0.52
      6.43      0.02      0.28
      6.67      0.02      0.28
      6.43      0.02      0.04
      6.43     -0.22      0.04
      6.43     -0.22      0.04
      6.43     -0.45      0.04
      6.43     -0.45      0.04
      6.67     -0.69     -0.20
      6.67     -0.69     -0.20
      6.67     -0.69     -0.20
      6.67     -0.93     -0.20
      6.67     -0.93      0.04
      6.67     -0.93      0.04
      6.67     -0.93      0.04
      6.67     -0.93      0.04
      6.43     -0.93     -0.20
      6.43     -0.93     -0.20
      6.67     -0.93     -0.20
      6.67     -0.93     -0.20
      7.15     -1.17     -0.20
      7.39     -1.17     -0.20
      7.39     -1.17     -0.44
      7.63     -0.93     -0.44
      7.63     -0.93     -0.44
      7.39     -0.69     -0.68
      7.63     -0.69     -0.92
      7.63     -0.45     -1.16
      7.87     -0.45     -1.16
      7.87     -0.45     -1.40
      8.11     -0.22     -1.64
      8.11     -0.22     -1.88
      8.34      0.02     -2.12
      8.34      0.02     -2.12
      8.34      0.26     -2.36
      8.34      0.26     -2.36
      8.11      0.50     -2.36
      8.11      0.50     -2.12
      7.87      0.74     -2.12
      7.87      0.74     -2.12
      7.63      0.98     -1.88
      7.39      0.98     -1.88
      7.15      1.22     -1.88
      6.91      1.46     -1.88
      6.67      1.46     -1.88
      6.43      1.46     -1.64
      5.95      1.70     -1.64
      5.71      1.70     -1.64
      5.47      1.70     -1.40
      4.99      1.70     -1.16
      4.75      1.70     -1.16
      4.51      1.70     -0.92
      4.27      1.70     -0.68
      4.27      1.70     -0.68
      3.80      1.70     -0.44
      3.80      1.46     -0.44
      3.56      1.46     -0.44
      3.32      1.22     -0.20
      3.08      0.98     -0.20
      2.84      0.98     -0.20
      2.84      0.74      0.04
      2.60      0.74      0.04
      2.36      0.50      0.04
      2.36      0.26      0.04
      2.36      0.26      0.04
      2.12      0.02      0.04
      2.12     -0.22      0.04
      1.88     -0.45      0.04
      1.88     -0.69      0.04
      1.64     -0.93      0.04
      1.64     -0.93      0.04
      1.40     -1.17      0.04
      1.40     -1.41      0.04
      1.16     -1.65      0.04
      0.92     -1.65      0.04
      0.68     -1.89      0.04
      0.68     -2.13      0.04
      0.44     -2.13      0.04
      0.20     -2.37      0.28
     -0.03     -2.37      0.52
     -0.27     -2.37      0.52
     -0.51     -2.61      0.76
     -0.75     -2.61      1.00
     -0.99     -2.61      1.48
     -1.23     -2.61      1.72
     -1.47     -2.61      1.95
     -1.71     -2.61      2.43
     -1.95     -2.61      2.91
     -2.19     -2.61      3.15
     -2.43     -2.61      3.63
     -2.67     -2.37      3.87
     -2.91     -2.37      4.35
     -3.15     -2.37      4.59
     -3.15     -2.13      4.83
     -3.39     -2.13      5.07
     -3.39     -1.89      5.07
     -3.39     -1.89      5.31
     -3.63     -1.65      5.31
     -3.63     -1.65      5.31
     -3.63     -1.41      5.31
     -3.63     -1.17      5.07
     -3.63     -0.93      4.83
     -3.63     -0.93      4.59
     -3.63     -0.69      4.35
     -3.39     -0.45      3.87
     -3.39     -0.45      3.63
     -3.39     -0.22      3.15
     -3.39      0.02      2.67
     -3.15      0.26      1.95
     -3.15      0.26      1.48
     -3.15      0.50      1.00
     -3.15      0.50      0.52
     -3.15      0.74      0.04
     -3.39      0.98     -0.20
     -3.39      0.98     -0.68
     -3.63      0.98     -1.16
     -3.63      0.98     -1.64
     -3.87      0.98     -1.88
     -3.87      0.98     -2.12
     -4.10      0.98     -2.59
     -4.34      0.98     -2.83
     -4.34      0.98     -3.07
     -4.58      0.98     -3.31
     -4.82      0.74     -3.55
     -5.06      0.74     -3.55
     -5.30      0.74     -3.79
     -5.54      0.74     -3.79
     -5.78      0.74     -3.79
     -6.26      0.74     -3.79
     -6.50      0.74     -4.03
     -6.74      0.98     -4.03
     -6.98      0.98     -4.03
     -7.46      0.98     -4.27
     -7.70      0.98     -4.27
     -7.94      0.98     -4.27
     -8.17      0.98     -4.27
     -8.41      0.98     -4.27
     -8.65      1.22     -4.51
     -8.89      0.98     -4.51
     -9.13      0.98     -4.51
     -9.37      0.98     -4.51
     -9.61      0.98     -4.51
     -9.61      0.98     -4.75
     -9.85      0.98     -4.75
    -10.09      0.98     -4.75
    -10.33      1.22     -4.75
    -10.33      0.98     -4.99
    -10.33      1.22     -4.99
    -10.57      1.22     -4.75
    -10.57      1.22     -4.75
    -10.33      1.22     -4.51
    -10.57      0.98     -4.27
    -10.33      0.98     -4.03
    -10.33      0.98     -3.79
    -10.33      0.98     -3.31
    -10.09      0.74     -3.07
     -9.85      0.74     -2.59
     -9.85      0.50     -2.12
     -9.61      0.50     -1.88
     -9.37      0.26     -1.40
     -9.13      0.26     -0.92
     -8.89      0.26     -0.68
     -8.65      0.02     -0.20
     -8.41      0.02      0.04
     -8.17      0.02      0.52
     -7.94      0.02      1.00
     -7.70      0.02      1.24
     -7.46      0.02      1.72
     -7.22     -0.22      1.95
     -6.98     -0.22      2.19
     -6.74     -0.45      2.43
     -6.26     -0.45      2.67
     -6.02     -0.45      2.91
     -5.78     -0.45      2.91
     -5.54     -0.45      2.91
     -5.54     -0.45      3.15
     -5.30     -0.45      3.15
     -5.30     -0.45      3.15
     -5.06     -0.45      3.15
     -5.06     -0.45      3.15
     -4.82     -0.69      3.15
     -4.82     -0.45      3.15
     -4.82     -0.69      3.15
     -4.82     -0.69      2.91
     -4.82     -0.69      2.91
     -4.82     -0.69      2.91
     -4.82     -0.69      2.91
     -4.82     -0.69      2.67
     -4.82     -0.69      2.67
     -4.82     -0.93      2.43
     -4.82     -0.93      2.43
     -4.82     -0.93      2.43
     -4.82     -0.93      2.43
     -4.82     -0.93      2.43
     -4.82     -0.93      2.19
     -4.58     -0.93      2.19
     -4.58     -0.93      1.95
     -4.58     -0.93      1.95
     -4.58     -0.93      1.72
     -4.58     -0.69      1.72
     -4.58     -0.69      1.72
     -4.58     -0.69      1.48
     -4.58     -0.69      1.24
     -4.58     -0.45      1.00
     -4.58     -0.45      0.76
     -4.58     -0.22      0.52
     -4.34     -0.22      0.28
     -4.34     -0.22      0.04
     -4.34      0.02      0.04
     -4.34      0.02     -0.20
     -4.10      0.26     -0.44
     -4.10      0.26     -0.92
     -4.10      0.26     -1.16
     -4.10      0.50     -1.16
     -3.87      0.50     -1.40
     -3.87      0.74     -1.64
     -3.63      0.74     -1.88
     -3.63      0.74     -2.12
     -3.39      0.98     -2.12
     -3.15      0.98     -2.36
     -2.91      1.22     -2.36
     -2.67      1.22     -2.59
     -2.43      1.22     -2.59
     -2.19      1.22     -2.59
     -1.95      1.46     -2.59
     -1.71      1.46     -2.59
     -1.47      1.22     -2.83
     -1.23      1.46     -2.83
     -0.99      1.22     -2.83
     -0.75      1.22     -2.59
     -0.51      1.22     -2.59
     -0.51      1.22     -2.59
     -0.27      1.22     -2.36
     -0.03      0.98     -2.36
      0.20      0.98     -2.36
      0.44      0.98     -2.12
      0.68      0.74     -2.12
      0.92      0.50     -1.88
      1.16      0.50     -1.64
      1.40      0.26     -1.64
      1.64      0.02     -1.40
      1.88      0.02     -1.40
      2.12      0.02     -1.16
      2.36     -0.22     -0.92
      2.36     -0.22     -0.92
      2.60     -0.45     -0.68
      2.84     -0.45     -0.68
      2.84     -0.45     -0.68
      3.08     -0.45     -0.68
      3.32     -0.69     -0.68
      3.32     -0.69     -0.68
      3.56     -0.69     -0.68
      3.56     -0.69     -0.68
      3.56     -0.69     -0.68
      3.56     -0.69     -0.68
      3.80     -0.69     -0.92
      3.80     -0.45     -0.92
      4.04     -0.45     -1.16
      4.04     -0.45     -1.16
      4.27     -0.22     -1.40
      4.27     -0.22     -1.40
      4.27      0.02     -1.40
      4.27      0.02     -1.40
      4.27      0.26     -1.40
      4.51      0.50     -1.40
      4.75      0.50     -1.16
      4.75      0.74     -1.16
      4.75      0.98     -0.92
      4.75      0.98     -0.68
      4.99      1.22     -0.44
      4.99      1.22     -0.20
      5.23      1.22      0.04
      5.23      1.46      0.28
      5.23      1.46      0.76
      5.23      1.46      1.24
      5.47      1.70      1.72
      5.71      1.70      1.95
      5.71      1.70      2.43
      5.95      1.46      2.91
      5.95      1.46      3.39
      6.19      1.46      3.87
      6.19      1.46      4.11
      6.19      1.46      4.59
      6.43      1.46      4.83
      6.43      1.22      4.83
      6.67      1.22      5.07
      6.67      1.22      5.07
      6.67      0.98      5.31
      6.67      0.98      5.31
      6.67      0.74      5.31
      6.67      0.50      5.31
      6.67      0.50      5.31
      6.67      0.26      5.07
      6.67      0.26      4.83
      6.67      0.26      4.83
      6.67      0.02      4.59
      6.67      0.02      4.35
      6.67      0.02      4.11
