********************************************************************************
               CENTRO DE INSTRUMENTACION Y REGISTRO SISMICO  A.C.  
                       Coordinacion de Servicios Tecnicos
     Anaxagoras 814, Col. Narvarte, Benito Juarez, C.P. 03020 Mexico, D.F.
            Tels. 687 45 42/ 687 45  82             Fax. 669 25 12
********************************************************************************
ARCHIVO ESTANDAR DE ACELERACION:
VERSION DEL FORMATO                    : 2.0
NOMBRE DEL ARCHIVO                     : AP689906.151
FECHA Y HORA DE CREACION               : 10/FEBRERO/2000 8:55
REF. CATALOGO ACELEROGRAMAS, SMIS 1996 : REGISTRO No.     /PAG.


================================================================================
DATOS DE LA ESTACION:
NOMBRE DE LA ESTACION                  : APATLACO
CLAVE DE LA ESTACION                   : AP68
LOCALIZACION DE LA ESTACION            : Jardin de Ni¤os Juan Bautista de la
                                       : Salle Canal de Apatlaco y Ahuehuetes,
                                       : Col Iztacalco Infonavit, Iztacalc
                                       : 
                                       :
COORDENADAS DE LA ESTACION             : 19.381 LAT. N 
                                       : 99.107 LONG. W 
ALTITUD (msnm)                         : 2232
TIPO DE SUELO                          : ARCILLOSO, ZONA LAGO
                                       : 
                                       : 
INSTITUCION RESPONSABLE                : CIRES
                                       :

================================================================================
DATOS DEL ACELEROGRAFO:
MODELO DEL ACELEROGRAFO                : RAD-851
NUMERO DE SERIE DEL ACELEROGRAFO       : 255
NUMERO DE CANALES                      : 3
ORIENTACION C1-C6 (rumbo;orientacion)  : /N00E/+V/N90W
ORIENTACION C7-C12 (rumbo;orientacion) :
VEL. DE MUESTREO, C1-C6 (muestras/s)   : /100/100/100
VEL. DE MUESTREO, C7-C12 (muestras/s)  :
ESC. COMPLETA DE SENSORES, C1-C6, (g)  : /0.5/0.5/0.5
ESC. COMPLETA DE SENSORES, C7-C12, (g) :
FREC. NAT. DE SENSORES, C1-C6, (Hz)    : /30/30/30
FREC. NAT. DE SENSORES, C7-C12, (Hz)   :
AMORTIGUAMIENTO DE SENSORES, C1-C6     : /0.780/0.700/0.678
AMORTIGUAMIENTO DE SENSORES, C7-C12    :
INTERVALO DE MUESTREO, C1-C6, (s)      : /0.01/0.01/0.01
INTERVALO DE MUESTREO, C7-C12, (s)     :
UMBRAL DE DISPARO, C1-C6, (Gal)        : /3.42/4.15/3.42
UMBRAL DE DISPARO, C7-C12, (Gal)       :
MEMORIA DE PREEVENTO (s)               : 8
TIEMPO DE POSEVENTO (s)                : 8


================================================================================
DATOS DEL SISMO:
FECHA DEL SISMO (GMT)                  : 15/JUN/99
HORA EPICENTRO (GMT)                   : 20:42:07.1
MAGNITUD(ES)                           : /Mb=6.4/Ms=6.5/Me=7.0
COORDENADAS DEL EPICENTRO              : 18.18 LAT. N
                                       : 97.51 LONG. W
PROFUNDIDAD FOCAL (km)                 : 69.0
FUENTE DE LOS DATOS EPICENTRALES       : SSN
                                       : INSTITUTO DE GEOFISICA, UNAM

================================================================================
DATOS DE ESTE REGISTRO:
HORA DE LA PRIMERA MUESTRA (GMT)       : 20:42:54.00
EXACTITUD DEL TIEMPO (s)               : 0.01
DURACION DEL REGISTRO (s), C1-C6       : /305.75/305.75/305.75
DURACION DEL REGISTRO (s), C7-C12      :
NUM. TOTAL DE MUESTRAS, C1-C6          : /30575/30575/30575
NUM. TOTAL DE MUESTRAS, C7-C12         :
ACEL. MAX. (Gal), C1-C6                : /27.45597/14.55342/29.76924
ACEL. MAX., C1-C6, EN LA MUESTRA       :
ACEL. MAX. (Gal), C7-C12               :
ACEL. MAX., C7-C12, EN LA MUESTRA      :
UNIDADES DE LOS DATOS                  : Gal (cm/s/s)
FACTOR DE DECIMACION                   : 1
FORMATO DATOS (FORTRAN,10 campos/dato) : 3F10.5


================================================================================
CALIDAD DEL ACELEROGRAMA:
REGISTRO DIGITAL COMPLETO CON TIEMPO ABSOLUTO CORRECTO.


================================================================================
COMENTARIOS:














================================================================================
DATOS DE ACELERACION:
---------+---------+---------+---------+---------+---------+---------+---------+
   CANAL-1   CANAL-2   CANAL-3   CANAL-4   CANAL-5   CANAL-6   CANAL-7   CANAL-8
      N00E        +V      N90W
---------+---------+---------+---------+---------+---------+---------+---------+
[...]
 -17.31537   1.24823   1.11581
 -17.55479   1.24823   1.11581
 -17.31537   1.96649   0.87639
 -17.31537   2.92416   1.11581
 -17.31537   3.40300   1.83406
 -17.55479   2.44532   1.83406
 -17.31537   1.24823   1.35522
 -17.31537   0.29055   1.11581
 -17.07595  -0.66712   0.63697
 -16.59712  -1.14596   0.63697
 -15.63944  -1.86422   0.15813
 -14.44235  -2.34306   0.39755
 -14.20293  -2.82189   0.63697
 -13.00583  -3.06131   1.11581
 -11.09048  -4.49783   0.87639
  -9.65397  -4.97666   0.87639
  -7.97803  -5.45550   0.63697
  -6.06268  -5.93434   1.35522
  -3.90791  -6.41318   1.83406
  -1.99256  -7.37085   2.07348
  -1.03488  -8.08911   2.55232
  -0.07721  -8.80737   3.03116
   0.64105  -9.76504   3.74941
   1.83814 -10.72272   4.46767
   2.31698 -10.48330   4.94651
   3.99291 -10.24388   5.18593
   5.66885  -9.76504   5.18593
   7.34478  -8.56795   5.66477
   9.49955  -8.08911   6.38302
  11.41490  -8.08911   5.90418
  13.80909  -7.61027   5.42535
  15.24560  -6.41318   4.94651
  17.40037  -5.45550   3.74941
  19.07631  -4.49783   2.79174
  20.27340  -4.25841   1.11581
  20.03398  -3.06131   0.15813
  20.03398  -2.34306  -1.51780
  20.03398  -1.14596  -3.43315
  19.31573   0.52997  -5.82734
  18.11863   2.92416  -8.46095
  16.92154   4.12126 -10.85514
  15.00618   6.27603 -12.53107
  14.28793   6.51544 -14.92526
  13.09083   7.23370 -17.31945
  10.69664   6.03661 -19.47422
   8.78129   5.07893 -20.19248
   6.62652   3.16358 -22.34725
   4.47175   2.20590 -23.54435
   2.07756   2.68474 -24.26260
   0.16221   3.64242 -24.26260
  -1.75314   3.88184 -23.78376
  -3.18966   4.36067 -22.34725
  -3.90791   4.12126 -20.91074
  -4.62617   5.07893 -18.75597
  -4.38675   6.27603 -16.12236
  -3.90791   7.23370 -13.72817
  -3.42907   8.19138 -11.81282
  -1.99256   7.71254 -10.13688
  -1.03488   7.23370  -9.41863
  -0.31663   6.99428  -7.98211
   1.59872   6.27603  -6.78502
   3.03524   6.03661  -5.58792
   4.71117   5.79719  -4.39083
   6.14768   4.83951  -3.19374
   6.86594   3.88184  -2.23606
   7.82362   2.92416  -1.99664
   8.78129   1.96649  -1.99664
   8.30245   1.96649  -1.75722
   7.10536   1.48765  -1.99664
   6.38710   0.76939  -2.47548
   5.42943  -0.42770  -2.47548
   3.75349  -1.62480  -2.47548
   2.31698  -2.58247  -2.23606
   0.40163  -3.30073  -1.27838
  -1.27430  -4.01899   0.15813
  -2.47140  -4.73725   1.11581
  -3.66849  -5.69492   1.83406
  -5.10501  -6.41318   3.27058
  -6.54152  -7.13143   4.70709
  -7.73862  -6.41318   5.90418
  -9.17513  -4.97666   6.86186
 -10.85106  -2.82189   7.81954
 -12.76641  -1.62480   8.53779
 -13.96351  -1.86422   9.49547
 -15.16060  -3.54015  10.45314
 -16.35770  -4.97666  11.17140
 -16.59712  -5.93434  11.88966
 -16.83654  -5.93434  12.60792
 -17.07595  -4.97666  12.60792
 -17.07595  -4.49783  12.36850
 -17.07595  -4.25841  11.65024
 -16.83654  -4.97666  10.45314
 -14.68176  -5.21608   9.97431
 -12.28758  -5.45550   9.25605
 -10.13280  -4.97666   7.81954
  -7.97803  -4.01899   6.86186
  -5.58384  -3.54015   5.42535
  -2.95024  -2.82189   3.98883
  -0.07721  -1.62480   2.07348
   2.31698  -0.90654   0.15813
   4.23233   0.05113  -1.27838
   6.38710   1.00881  -2.47548
   9.02071   0.76939  -4.39083
  10.69664   0.76939  -5.58792
  12.61199   1.48765  -6.78502
  13.56967   1.72707  -7.98211
  15.00618   1.96649  -8.70037
  16.20328   1.72707  -9.65805
  17.16095   0.29055 -10.37630
  17.40037  -0.66712 -10.37630
  17.40037  -1.62480  -9.89747
  17.40037  -2.34306  -9.17921
  17.40037  -3.30073  -8.22153
  17.16095  -3.77957  -7.02444
  17.16095  -3.77957  -5.82734
  17.40037  -4.25841  -4.39083
  18.11863  -4.73725  -3.19374
  18.11863  -4.97666  -2.23606
  18.11863  -4.73725  -1.27838
  18.35805  -3.30073   0.39755
  17.40037  -1.14596   1.59464
  17.40037  -0.18829   2.79174
  16.44270   0.76939   3.98883
  14.52735   2.20590   5.42535
  12.61199   3.64242   6.86186
  10.93606   4.60009   7.81954
   9.26013   6.27603   9.25605
   7.10536   7.71254  10.45314
   5.19001   8.67022  10.45314
   3.75349   8.43080  10.45314
   3.03524   8.90963   9.97431
   1.59872   8.90963   9.49547
  -0.31663   8.90963   9.25605
  -2.71082   8.19138   9.25605
  -5.34443   6.75486   8.77721
  -8.69629   5.31835   8.29837
 -11.32990   4.60009   7.34070
 -14.20293   4.12126   7.10128
 -16.59712   4.36067   7.58012
 -18.03363   3.40300   7.58012
 -19.70956   2.92416   7.58012
 -20.42782   3.16358   7.81954
 -21.14608   2.92416   6.86186
 -21.62491   2.92416   6.14360
 -22.58259   2.44532   5.18593
 -23.30085   1.24823   4.46767
 -24.73736   0.29055   4.22825
 -25.69504  -0.90654   4.22825
 -26.41329  -1.86422   3.98883
 -26.65271  -2.34306   3.74941
 -26.65271  -2.34306   3.27058
 -25.45562  -3.06131   2.55232
 -23.77968  -4.01899   1.59464
 -21.14608  -5.21608   0.63697
 -17.31537  -5.69492  -0.32071
 -14.20293  -4.97666  -1.51780
 -11.09048  -4.25841  -2.47548
  -7.73862  -2.82189  -3.43315
  -4.38675  -1.62480  -4.63025
  -1.99256  -0.90654  -4.86967
  -0.07721  -1.38538  -5.82734
   1.59872  -2.82189  -6.78502
   3.75349  -4.49783  -7.50328
   5.42943  -5.45550  -8.46095
   6.86594  -5.21608  -9.41863
   8.30245  -4.01899  -9.65805
   9.97839  -3.30073 -10.85514
  11.17548  -3.06131 -12.05224
  12.37258  -4.01899 -12.53107
  12.85141  -4.01899 -13.00991
  13.33025  -2.58247 -12.77049
  14.28793  -1.38538 -11.57340
  14.52735   0.52997 -10.61572
  14.76677   0.52997 -10.13688
  14.28793   0.52997  -8.70037
  14.04851   0.52997  -7.26386
  13.80909  -0.18829  -6.06676
  13.33025   0.05113  -4.39083
  12.85141   1.00881  -2.47548
  12.37258   1.72707  -0.08129
  12.61199   2.20590   2.07348
  12.37258   2.44532   3.74941
  12.37258   2.68474   5.18593
  12.61199   2.68474   6.86186
  12.13316   3.88184   8.53779
  11.17548   5.55777  10.45314
  10.69664   6.27603  11.17140
   9.97839   6.03661  11.88966
   9.02071   6.27603  11.88966
   8.30245   6.27603  12.36850
   6.86594   6.03661  12.36850
   5.19001   5.55777  12.12908
   3.03524   5.31835  11.41082
   0.40163   5.55777  11.17140
  -1.99256   5.79719  10.45314
  -3.90791   6.99428  10.45314
  -5.82326   8.19138   9.97431
  -7.73862   9.14905  10.69256
  -8.93571   8.90963  11.41082
 -10.61164   8.19138  11.88966
 -11.80874   7.47312  13.08675
 -13.00583   6.99428  14.28385
 -13.72409   7.23370  15.72036
 -13.72409   7.23370  18.35397
 -13.48467   6.75486  20.02990
 -13.72409   6.51544  22.66351
 -13.48467   5.79719  24.81828
 -13.24525   4.83951  26.49421
 -11.80874   4.36067  27.93073
 -11.56932   3.88184  28.88840
 -11.80874   2.20590  29.12782
 -12.04816   0.52997  29.36724
 -12.28758  -1.14596  28.88840
 -11.80874  -1.86422  28.17015
 -11.56932  -2.10364  27.45189
 -11.32990  -1.62480  26.97305
 -10.85106  -1.62480  26.25480
  -9.65397  -2.10364  26.01538
  -8.21745  -3.30073  25.05770
  -7.02036  -3.54015  23.38177
  -5.34443  -3.54015  21.70584
  -3.66849  -3.54015  19.55106
  -1.75314  -3.54015  16.67804
  -0.55605  -3.54015  14.28385
   1.35930  -4.73725  11.41082
   3.51407  -5.69492   9.01663
   6.14768  -6.89202   5.90418
   8.78129  -8.08911   3.27058
  11.17548  -8.56795   0.87639
  13.33025  -8.56795  -1.51780
  15.48502  -7.84969  -3.43315
  16.44270  -6.41318  -4.63025
  16.92154  -4.73725  -6.30618
  16.68212  -3.30073  -7.02444
  15.48502  -2.58247  -7.74270
  13.80909  -2.58247  -7.50328
  11.41490  -2.82189  -7.02444
   9.49955  -4.01899  -6.78502
   7.34478  -4.97666  -6.54560
   5.90826  -5.45550  -6.06676
   4.47175  -5.93434  -6.06676
   3.51407  -6.65260  -5.58792
   2.07756  -7.13143  -5.58792
   0.88047  -8.56795  -5.82734
   1.11989  -9.28621  -6.78502
   0.64105  -8.56795  -7.74270
   1.35930  -7.37085  -9.89747
   2.07756  -6.17376 -10.85514
   2.55640  -4.97666 -12.29166
   3.27466  -4.97666 -13.00991
   4.23233  -4.49783 -13.96759
   4.95059  -4.01899 -15.16468
   5.42943  -2.58247 -16.12236
   5.66885  -1.14596 -16.36178
   5.42943   1.00881 -16.84062
   5.66885   2.92416 -17.31945
   5.66885   4.12126 -16.60120
   4.95059   5.07893 -16.12236
   3.99291   6.75486 -15.40410
   3.03524   8.43080 -13.96759
   1.59872  10.34615 -12.77049
  -0.31663  12.74034 -10.85514
  -1.75314  13.21918  -8.22153
  -2.47140  13.45859  -6.54560
  -3.18966  13.45859  -4.63025
  -3.18966  12.74034  -2.95432
  -3.18966  12.50092  -1.51780
  -3.42907  12.02208  -0.08129
  -3.42907  11.30382   0.87639
  -3.90791  10.82499   2.07348
  -3.90791  10.10673   2.79174
  -4.38675   9.14905   3.98883
  -4.14733   8.19138   4.94651
  -4.86559   7.71254   6.14360
  -5.82326   7.71254   6.86186
  -7.25978   7.47312   7.58012
  -8.45687   6.27603   7.34070
  -9.41455   5.07893   7.10128
 -10.13280   3.64242   6.62244
 -10.37222   2.20590   6.86186
 -10.37222   1.00881   6.86186
 -10.13280   0.05113   6.86186
 -10.13280  -0.90654   6.38302
  -9.41455  -2.58247   5.18593
  -8.93571  -4.01899   3.27058
  -8.45687  -5.69492   1.83406
  -8.21745  -7.13143  -0.32071
  -8.21745  -8.32853  -2.23606
  -8.45687  -9.28621  -3.91199
  -8.21745 -10.24388  -5.58792
  -7.97803 -11.20156  -7.26386
  -7.97803 -11.91981  -8.46095
  -7.97803 -11.68039  -9.89747
  -7.73862 -12.15923 -10.13688
  -7.73862 -12.87749 -10.61572
  -7.25978 -13.83517 -10.85514
  -6.30210 -14.31400 -10.37630
  -4.86559 -13.83517  -9.17921
  -2.71082 -13.83517  -7.50328
  -1.03488 -13.35633  -5.58792
   0.88047 -13.11691  -3.43315
   2.79582 -12.39865  -2.23606
   4.95059 -11.91981  -1.03896
   7.10536 -11.44098  -0.32071
   9.02071 -11.20156   1.11581
  10.69664 -10.24388   1.59464
  12.13316  -8.80737   1.83406
  13.56967  -7.37085   1.35522
  15.00618  -5.45550   0.63697
  16.20328  -3.77957   0.15813
  16.68212  -2.10364   0.15813
  16.92154  -1.14596  -0.08129
  17.16095  -0.18829  -0.08129
  16.92154   1.24823  -0.08129
  17.16095   2.68474  -0.56013
  17.16095   3.64242  -1.27838
  17.40037   4.83951  -1.99664
  17.63979   5.55777  -3.19374
  17.87921   6.51544  -4.15141
  18.59747   6.99428  -4.63025
  19.07631   7.47312  -4.63025
  19.79456   7.47312  -4.15141
  20.51282   7.23370  -3.43315
  20.03398   7.23370  -2.23606
  20.03398   7.23370  -1.75722
  19.31573   7.47312  -1.03896
  17.87921   8.19138  -0.56013
  16.20328   8.67022  -0.32071
  13.80909   9.14905  -0.32071
  10.93606   9.86731  -0.79955
   7.58420  10.10673  -0.56013
   4.47175  10.34615  -0.56013
   1.35930  10.10673  -0.08129
  -2.47140  10.34615   0.87639
  -5.82326  10.34615   1.59464
  -9.41455   9.38847   1.83406
 -12.76641   8.43080   1.11581
 -15.87886   7.23370  -0.56013
 -18.99131   6.03661  -3.19374
 -20.90666   5.07893  -6.30618
 -23.06143   4.60009  -9.41863
 -23.77968   4.83951 -13.00991
 -24.73736   5.55777 -16.60120
 -24.49794   5.55777 -20.67132
 -23.54027   5.55777 -23.54435
 -21.14608   5.55777 -26.17795
 -19.23072   5.31835 -27.85389
 -17.07595   5.31835 -29.05098
 -14.92118   5.07893 -29.76924
 -13.72409   3.88184 -29.52982
 -12.28758   1.96649 -29.76924
 -11.09048  -0.66712 -29.52982
 -10.37222  -3.30073 -28.57214
  -9.17513  -5.69492 -26.89621
  -7.73862  -6.41318 -24.50202
  -6.30210  -7.13143 -21.62899
  -4.38675  -7.61027 -17.55887
  -3.18966  -8.08911 -13.96759
  -1.51372  -9.52562  -9.89747
  -0.55605 -10.24388  -6.06676
   0.40163 -10.72272  -2.47548
   1.11989 -10.96214   0.39755
   1.11989 -10.96214   2.79174
   1.11989 -10.24388   3.74941
   0.40163  -9.28621   3.98883
  -0.31663  -9.04679   3.74941
  -1.27430  -8.80737   3.27058
  -2.23198  -8.08911   2.31290
  -2.47140  -8.32853   1.35522
  -3.18966  -7.84969   0.63697
  -3.90791  -6.89202  -0.08129
  -4.38675  -6.17376  -1.03896
  -4.86559  -4.49783  -1.03896
  -5.82326  -2.34306  -1.27838
  -6.54152  -0.42770  -1.03896
  -7.25978   1.48765  -1.03896
  -7.49920   3.40300  -1.03896
  -7.49920   4.83951  -0.79955
  -7.25978   6.51544  -0.32071
  -6.30210   6.99428  -0.56013
  -4.62617   6.51544  -0.56013
  -2.95024   5.55777  -0.56013
  -1.51372   4.36067  -0.79955
   0.16221   3.16358  -0.79955
   1.35930   2.92416  -0.79955
   2.07756   3.16358  -0.79955
   2.31698   3.88184  -0.08129
   2.31698   4.60009   0.63697
   2.55640   5.07893   1.83406
   3.27466   5.79719   3.98883
   4.23233   6.27603   6.38302
   5.42943   6.99428   9.25605
   5.42943   7.71254  12.60792
   5.66885   6.51544  15.00210
   5.42943   5.07893  17.15688
   4.95059   3.40300  19.31165
   3.99291   1.96649  20.50874
   3.75349   0.76939  21.70584
   3.27466   0.76939  22.66351
   2.31698   0.29055  23.38177
   1.59872  -0.18829  24.33944
   1.11989  -1.38538  25.05770
   0.64105  -2.10364  25.53654
   0.40163  -2.10364  25.53654
   0.40163  -1.62480  25.29712
   0.16221  -0.90654  24.81828
  -0.79547  -1.38538  23.62119
  -2.23198  -1.86422  21.94525
  -3.90791  -3.30073  19.55106
  -5.58384  -4.49783  16.19920
  -7.02036  -4.97666  13.56559
  -7.73862  -5.45550  10.93198
  -8.21745  -4.73725   8.29837
  -7.97803  -3.54015   6.62244
  -7.97803  -3.06131   4.94651
  -7.25978  -3.30073   3.27058
  -7.02036  -3.54015   1.11581
  -6.30210  -4.49783  -1.03896
  -5.82326  -4.01899  -3.43315
  -5.58384  -3.77957  -6.06676
  -4.86559  -3.54015  -7.50328
  -3.90791  -3.77957  -8.93979
  -3.18966  -3.30073  -9.41863
  -1.27430  -3.54015  -9.89747
   0.16221  -2.58247  -9.41863
   1.59872  -2.10364  -8.93979
   3.27466  -1.38538  -7.74270
   4.23233  -0.66712  -6.78502
   5.42943  -0.42770  -5.10909
   6.62652   0.05113  -3.43315
   8.06303   0.76939  -1.75722
   9.49955   1.72707  -0.56013
  10.93606   2.44532   0.63697
  12.85141   2.92416   1.59464
  14.52735   3.64242   2.31290
  16.20328   4.12126   2.55232
  17.87921   4.36067   2.31290
  19.07631   4.12126   1.59464
  19.55514   5.07893   1.11581
  20.03398   5.79719  -0.32071
  20.51282   7.23370  -1.27838
  20.51282   8.67022  -2.23606
  19.79456   9.14905  -3.19374
  19.07631   8.19138  -3.91199
  17.63979   6.51544  -4.63025
  15.96386   4.36067  -5.58792
  13.80909   2.68474  -5.82734
  11.65432   1.24823  -6.06676
   9.26013  -0.42770  -5.58792
   6.62652  -2.82189  -4.86967
   3.99291  -4.97666  -3.67257
   1.83814  -6.17376  -2.95432
  -0.07721  -6.89202  -2.71490
  -1.99256  -6.65260  -2.71490
  -3.90791  -5.45550  -3.19374
  -4.86559  -4.25841  -4.63025
  -5.58384  -3.54015  -5.82734
  -6.30210  -2.82189  -6.78502
  -6.78094  -1.62480  -7.74270
  -7.25978  -0.42770  -8.22153
  -7.97803   0.52997  -8.46095
  -8.93571   0.76939  -8.22153
 -10.13280   1.72707  -8.70037
 -10.85106   2.20590  -8.22153
 -11.56932   4.12126  -7.98211
 -12.52699   5.79719  -6.78502
 -13.24525   6.99428  -5.82734
 -14.68176   7.71254  -4.15141
 -16.35770   7.71254  -2.23606
 -17.79421   7.95196   0.39755
 -18.75189   8.19138   2.79174
 -19.47014   7.47312   5.42535
 -19.94898   6.27603   8.53779
 -20.18840   4.83951  11.41082
 -20.90666   3.16358  13.80501
 -20.90666   1.24823  15.95978
 -19.94898   0.05113  16.91746
 -19.23072  -1.62480  17.63571
 -18.27305  -3.30073  18.11455
 -17.07595  -6.41318  18.11455
 -15.16060 -10.00446  18.35397
 -13.24525 -12.39865  18.35397
 -11.09048 -12.63807  18.83281
  -8.69629 -12.87749  18.59339
  -6.54152 -12.63807  18.35397
  -4.38675 -12.63807  17.15688
  -2.71082 -12.39865  15.72036
  -0.31663 -13.11691  13.56559
   1.83814 -13.59575  10.93198
   3.75349 -14.31400   7.58012
   5.66885 -14.55342   3.74941
   7.58420 -14.31400  -0.08129
   8.54187 -13.83517  -3.19374
   9.02071 -13.59575  -5.58792
   9.49955 -13.35633  -6.78502
  10.69664 -12.63807  -8.70037
  11.65432 -11.68039  -9.89747
  13.33025 -10.24388 -11.33398
