********************************************************************************
               CENTRO DE INSTRUMENTACION Y REGISTRO SISMICO  A.C.  
                       Coordinacion de Servicios Tecnicos
     Anaxagoras 814, Col. Narvarte, Benito Juarez, C.P. 03020 Mexico, D.F.
            Tels. 687 45 42/ 687 45  82             Fax. 669 25 12
********************************************************************************
ARCHIVO ESTANDAR DE ACELERACION:
VERSION DEL FORMATO                    : 2.0
NOMBRE DEL ARCHIVO                     : AP680301.221
FECHA Y HORA DE CREACION               : 19/JUL/04, 9:00
REF. CATALOGO ACELEROGRAMAS, SMIS 1996 : REGISTRO No.     /PAG.


================================================================================
DATOS DE LA ESTACION:
NOMBRE DE LA ESTACION                  : APATLACO
CLAVE DE LA ESTACION                   : AP68
LOCALIZACION DE LA ESTACION            : Jardin de Ni¤os Juan Bautista de la
                                       : Salle Canal de Apatlaco y Ahuehuetes,
                                       : Col Iztacalco Infonavit, Iztacalc
                                       : 
                                       :
COORDENADAS DE LA ESTACION             : 19.381 LAT. N 
                                       : 99.107 LONG. W 
ALTITUD (msnm)                         : 2232
TIPO DE SUELO                          : ARCILLOSO, ZONA LAGO
                                       : 
                                       : 
INSTITUCION RESPONSABLE                : CIRES
                                       :

================================================================================
DATOS DEL ACELEROGRAFO:
MODELO DEL ACELEROGRAFO                : RAD-851
NUMERO DE SERIE DEL ACELEROGRAFO       : 255
NUMERO DE CANALES                      : 3
ORIENTACION C1-C6 (rumbo;orientacion)  : /N00E/+V/N90W
ORIENTACION C7-C12 (rumbo;orientacion) :
VEL. DE MUESTREO, C1-C6 (muestras/s)   : /100/100/100
VEL. DE MUESTREO, C7-C12 (muestras/s)  :
ESC. COMPLETA DE SENSORES, C1-C6, (g)  : /0.5/0.5/0.5
ESC. COMPLETA DE SENSORES, C7-C12, (g) :
FREC. NAT. DE SENSORES, C1-C6, (Hz)    : /30/30/30
FREC. NAT. DE SENSORES, C7-C12, (Hz)   :
AMORTIGUAMIENTO DE SENSORES, C1-C6     : /0.780/0.700/0.678
AMORTIGUAMIENTO DE SENSORES, C7-C12    :
INTERVALO DE MUESTREO, C1-C6, (s)      : /0.01/0.01/0.01
INTERVALO DE MUESTREO, C7-C12, (s)     :
UMBRAL DE DISPARO, C1-C6, (Gal)        : /2.69/5.62/3.17
UMBRAL DE DISPARO, C7-C12, (Gal)       :
MEMORIA DE PREEVENTO (s)               : 24
TIEMPO DE POSEVENTO (s)                : 64


================================================================================
DATOS DEL SISMO:
FECHA DEL SISMO (GMT)                  : 22/ENE/03
HORA EPICENTRO (GMT)                   : 02:06:34:5
MAGNITUD(ES)                           : /Mb=6.5/Ms=7.6/Mc=0.0/Ma=7.2/Me=7.6
COORDENADAS DEL EPICENTRO              : 18.60 LAT. N
                                       : 104.22 LONG. W
PROFUNDIDAD FOCAL (km)                 : 9.0
FUENTE DE LOS DATOS EPICENTRALES       : SSN
                                       : INSTITUTO DE GEOFISICA, UNAM

================================================================================
DATOS DE ESTE REGISTRO:
HORA DE LA PRIMERA MUESTRA (GMT)       : 02:09:07.00
EXACTITUD DEL TIEMPO (s)               : 0.01
DURACION DEL REGISTRO (s), C1-C6       : /266.75/266.75/266.75
DURACION DEL REGISTRO (s), C7-C12      :
NUM. TOTAL DE MUESTRAS, C1-C6          : /26675/26675/26675
NUM. TOTAL DE MUESTRAS, C7-C12         :
ACEL. MAX. (Gal), C1-C6                : /19.88944/-3.99560/17.30760
ACEL. MAX., C1-C6, EN LA MUESTRA       :
ACEL. MAX. (Gal), C7-C12               :
ACEL. MAX., C7-C12, EN LA MUESTRA      :
UNIDADES DE LOS DATOS                  : Gal (cm/s/s)
FACTOR DE DECIMACION                   : 1
FORMATO DATOS (FORTRAN,10 campos/dato) : 3F10.5


================================================================================
CALIDAD DEL ACELEROGRAMA:
REGISTRO DIGITAL COMPLETO CON TIEMPO ABSOLUTO CORRECTO.


================================================================================
COMENTARIOS:














================================================================================
DATOS DE ACELERACION:
---------+---------+---------+---------+---------+---------+---------+---------+
   CANAL-1   CANAL-2   CANAL-3   CANAL-4   CANAL-5   CANAL-6   CANAL-7   CANAL-8
      N00E        +V      N90W
---------+---------+---------+---------+---------+---------+---------+---------+
[...]
   6.96081  -0.40432   1.74537
   7.43965  -0.64373   2.46362
   8.15791  -0.64373   2.70304
   9.11558   0.07452   2.94246
   9.59442   0.55336   3.18188
  11.03094  -0.40432   3.66072
  11.50977  -0.40432   4.13956
  12.22803   0.07452   4.13956
  12.70687   0.55336   4.37897
  13.90396   0.07452   4.85781
  14.38280   0.07452   5.33665
  14.86164   0.55336   5.57607
  15.57990   0.55336   5.57607
  16.05873   0.07452   5.57607
  16.77699   0.31394   6.05491
  17.01641   0.31394   6.29433
  17.73467   0.07452   6.05491
  17.97408   0.31394   6.05491
  18.45292   0.31394   6.53375
  18.45292  -0.16490   6.53375
  18.21350   0.31394   6.77316
  18.93176   0.31394   6.05491
  19.17118   0.55336   6.29433
  19.17118  -0.16490   6.53375
  18.93176  -0.16490   6.77316
  18.93176  -0.16490   6.53375
  18.69234   0.31394   6.29433
  18.93176  -0.40432   6.53375
  18.69234  -0.40432   6.77316
  18.45292   0.07452   6.77316
  18.45292   0.55336   6.53375
  18.69234   0.07452   7.01258
  18.45292   0.07452   6.53375
  17.97408   0.55336   6.77316
  18.21350   0.55336   6.53375
  18.21350   0.31394   6.05491
  18.45292   0.31394   6.29433
  17.97408   0.55336   6.29433
  17.49525   1.03220   6.53375
  17.97408   0.79278   6.05491
  17.49525   1.27162   6.05491
  17.25583   1.03220   6.53375
  17.25583   1.27162   6.29433
  17.25583   1.03220   5.81549
  17.49525   1.03220   6.05491
  17.01641   0.79278   6.29433
  16.53757   1.03220   6.77316
  16.53757   1.27162   6.53375
  16.77699   1.27162   6.53375
  16.77699   1.03220   7.25200
  16.29815   0.55336   7.49142
  15.81931   1.03220   7.49142
  16.53757   1.03220   7.49142
  16.29815   0.55336   7.73084
  16.29815   0.07452   8.20968
  16.05873   0.31394   8.44910
  16.05873   0.55336   8.68852
  16.53757   0.07452   8.92793
  16.29815  -0.16490   9.40677
  15.81931   0.07452   9.88561
  15.81931   0.07452   9.88561
  16.05873  -0.40432   9.88561
  16.29815  -0.64373   9.64619
  15.81931  -0.40432  10.12503
  15.34048  -0.64373   9.88561
  15.57990  -0.64373   9.64619
  15.34048  -0.64373   9.40677
  15.10106  -0.88315   9.88561
  15.10106  -1.12257   9.64619
  14.62222  -0.88315   9.40677
  14.86164  -0.88315   8.44910
  14.14338  -1.12257   8.92793
  14.14338  -1.36199   8.44910
  13.42512  -1.12257   7.73084
  13.42512  -1.12257   7.49142
  13.42512  -1.60141   7.01258
  12.94629  -1.84083   6.77316
  12.22803  -1.36199   6.53375
  12.22803  -0.88315   5.81549
  12.22803  -1.84083   5.09723
  11.74919  -1.84083   5.09723
  11.27035  -1.60141   4.37897
  11.03094  -1.60141   3.90014
  11.03094  -1.84083   3.18188
  11.27035  -2.31967   2.46362
  11.03094  -2.08025   2.46362
  10.55210  -1.84083   1.98479
  10.31268  -1.84083   1.50595
  10.55210  -2.08025   0.54827
  10.31268  -2.08025   0.54827
  10.07326  -2.55909   0.06943
  10.07326  -2.08025  -0.64882
   9.83384  -2.08025  -1.36708
  10.31268  -2.79850  -1.36708
   9.83384  -2.55909  -1.60650
  10.07326  -2.79850  -2.80359
   9.59442  -2.31967  -3.04301
  10.07326  -2.55909  -3.28243
  10.07326  -3.03792  -3.52185
   9.83384  -2.79850  -4.00069
   9.59442  -2.79850  -4.71895
   9.59442  -2.55909  -4.95836
   9.83384  -3.03792  -5.67662
   9.35500  -2.55909  -5.67662
   8.87616  -2.55909  -5.91604
   8.87616  -2.31967  -6.15546
   9.11558  -2.79850  -6.39488
   8.63675  -2.55909  -6.63430
   8.39733  -2.31967  -6.63430
   8.39733  -2.08025  -7.11313
   8.39733  -1.84083  -7.11313
   7.91849  -1.84083  -7.35255
   7.43965  -1.60141  -6.87372
   7.20023  -1.60141  -7.35255
   7.43965  -1.12257  -7.59197
   7.20023  -1.36199  -7.11313
   6.72139  -0.88315  -6.87372
   6.48198  -0.64373  -7.35255
   6.24256  -0.40432  -8.07081
   6.24256  -0.16490  -7.59197
   6.00314  -0.40432  -7.59197
   5.52430   0.31394  -7.83139
   5.52430   0.31394  -8.31023
   5.52430   1.03220  -8.07081
   5.28488   0.31394  -8.07081
   4.80604   1.03220  -8.07081
   4.32720   1.03220  -8.31023
   4.32720   1.27162  -8.54965
   4.08779   1.51104  -8.54965
   3.84837   1.51104  -9.02849
   3.13011   1.75046  -8.54965
   2.89069   1.75046  -9.26791
   2.89069   1.51104  -9.74674
   2.41185   1.51104  -9.26791
   1.21476   1.98987  -9.02849
   0.97534   1.98987  -9.50732
   0.73592   1.98987 -10.22558
   0.01766   1.98987  -9.74674
  -0.94001   1.98987  -9.50732
  -1.17943   1.98987  -9.74674
  -1.41885   1.98987 -10.22558
  -1.89769   2.22929  -9.74674
  -2.85536   1.98987  -9.50732
  -3.57362   1.75046  -9.98616
  -3.81304   1.98987  -9.98616
  -4.29188   2.22929  -9.74674
  -4.77072   1.51104  -9.50732
  -5.01013   1.51104  -9.74674
  -5.96781   1.98987  -9.74674
  -5.96781   1.75046  -9.74674
  -6.20723   1.51104  -9.74674
  -6.92549   1.27162  -9.74674
  -7.64374   1.75046  -9.50732
  -8.12258   1.98987  -9.50732
  -8.12258   1.51104 -10.22558
  -8.60142   1.51104  -9.50732
  -9.55909   1.51104  -9.26791
  -9.79851   1.51104  -9.74674
  -9.79851   1.27162 -10.22558
 -10.51677   1.27162  -9.74674
 -11.71386   1.03220  -9.50732
 -12.19270   1.51104  -9.98616
 -12.19270   1.75046 -10.22558
 -12.67154   1.51104  -9.98616
 -13.38980   1.51104  -9.50732
 -13.38980   1.51104  -9.74674
 -14.10805   1.75046  -9.98616
 -14.34747   1.27162 -10.22558
 -14.82631   1.03220  -9.98616
 -15.30515   0.79278  -9.98616
 -15.78399   1.27162  -9.98616
 -16.02341   1.03220  -9.98616
 -15.78399   0.55336 -10.22558
 -16.74166   0.55336  -9.26791
 -17.45992   1.03220  -9.02849
 -17.45992   1.27162  -9.02849
 -16.98108   0.55336  -9.50732
 -17.45992   0.55336  -8.78907
 -18.17818   0.79278  -8.07081
 -17.93876   0.79278  -8.07081
 -17.69934   0.07452  -8.31023
 -17.45992  -0.16490  -7.83139
 -18.17818   0.31394  -6.87372
 -17.69934   0.31394  -7.11313
 -17.45992   0.31394  -7.35255
 -17.45992   0.07452  -6.87372
 -17.45992   0.31394  -6.15546
 -17.22050   0.07452  -6.15546
 -17.22050   0.31394  -6.15546
 -16.98108   0.55336  -5.91604
 -16.50224  -0.16490  -5.67662
 -16.50224   0.07452  -5.19778
 -16.50224   0.31394  -5.43720
 -16.50224   0.79278  -4.71895
 -15.78399   0.07452  -4.95836
 -15.78399   0.07452  -4.47953
 -15.54457   0.55336  -4.24011
 -15.78399   0.79278  -4.00069
 -15.06573   0.31394  -4.00069
 -14.82631   0.07452  -3.76127
 -15.06573   0.55336  -3.04301
 -15.06573   0.55336  -2.80359
 -14.58689   0.31394  -2.80359
 -14.58689   0.31394  -2.08534
 -14.82631   0.55336  -1.60650
 -14.58689   0.07452  -1.12766
 -14.10805   0.79278  -1.36708
 -14.10805   0.31394  -1.12766
 -13.86864   0.07452  -0.40940
 -14.10805   0.07452   0.06943
 -14.10805   0.31394   0.30885
 -14.10805   0.07452   0.54827
 -14.10805   0.31394   1.50595
 -14.34747  -0.40432   1.50595
 -14.10805  -0.16490   1.74537
 -14.10805   0.07452   1.98479
 -13.86864  -0.16490   2.46362
 -13.62922  -0.88315   2.46362
 -13.62922  -0.40432   2.94246
 -13.62922  -0.16490   2.94246
 -13.38980  -0.64373   3.18188
 -13.15038  -1.12257   3.42130
 -13.38980  -0.40432   4.13956
 -13.38980  -0.64373   4.13956
 -12.91096  -0.64373   3.90014
 -12.67154  -0.88315   3.90014
 -12.43212  -0.88315   4.37897
 -12.19270  -0.64373   4.61839
 -11.47445  -0.64373   4.13956
 -11.23503  -0.64373   4.37897
 -10.99561  -0.88315   4.85781
 -11.23503  -0.64373   4.85781
 -10.51677  -0.40432   4.85781
 -10.27735  -0.16490   4.61839
 -10.03793  -0.64373   5.09723
  -9.55909  -0.88315   4.85781
  -9.31968  -0.16490   5.09723
  -9.55909  -0.16490   4.85781
  -8.84084  -0.64373   4.85781
  -9.08026  -0.64373   5.57607
  -8.60142  -0.16490   5.57607
  -8.60142   0.31394   5.57607
  -7.88316   0.07452   5.57607
  -7.40432  -0.16490   5.81549
  -7.40432   0.07452   6.05491
  -7.40432   0.55336   6.29433
  -6.68607  -0.16490   6.05491
  -6.20723   0.07452   6.53375
  -5.96781   0.31394   6.77316
  -6.44665   0.55336   7.49142
  -5.48897   0.31394   7.49142
  -5.24955   0.55336   7.49142
  -5.24955   0.55336   7.97026
  -5.01013   0.55336   8.20968
  -4.77072   0.79278   8.20968
  -4.05246   0.79278   8.44910
  -4.05246   0.79278   8.68852
  -3.81304   0.55336   8.92793
  -3.57362   1.03220   9.16735
  -2.61594   1.03220   8.92793
  -2.61594   1.27162   9.16735
  -2.37653   0.79278   9.40677
  -2.13711   1.27162   9.40677
  -2.13711   1.51104   9.40677
  -1.17943   1.51104   9.16735
  -0.94001   1.03220   9.40677
  -0.94001   1.03220   9.64619
  -0.70059   1.51104   9.40677
   0.01766   1.03220   9.16735
   0.25708   0.79278   9.40677
   0.01766   1.27162   9.40677
   0.49650   1.51104   9.40677
   0.97534   1.51104   9.16735
   1.45418   1.03220   8.92793
   1.45418   0.79278   9.16735
   1.21476   1.03220   9.40677
   1.69360   1.03220   9.16735
   1.69360   1.03220   9.16735
   1.93302   0.07452   9.16735
   1.93302   0.55336   9.64619
   1.93302   0.79278   9.16735
   2.41185   1.27162   9.16735
   2.17243   1.03220   8.92793
   1.93302   0.55336   9.16735
   2.17243   0.79278   9.16735
   1.93302   1.27162   9.16735
   1.93302   0.79278   9.40677
   1.93302   0.55336   9.64619
   1.69360   0.79278   9.64619
   1.45418   1.27162   9.64619
   1.45418   1.03220   9.64619
   1.93302   0.55336   9.64619
   1.21476   0.79278  10.12503
   1.45418   1.03220  10.12503
   0.97534   1.03220  10.36445
   1.45418   0.31394  10.36445
   1.93302   0.31394  10.60387
   1.21476   0.55336  11.08271
   1.69360   0.31394  10.84329
   1.93302   0.55336  10.84329
   1.93302   0.31394  11.32212
   1.69360   0.07452  11.80096
   2.65127  -0.16490  11.56154
   2.65127  -0.16490  11.32212
   3.36953  -0.40432  11.80096
   3.60895  -0.64373  12.27980
   4.08779  -0.64373  12.51922
   4.80604  -0.64373  12.04038
   5.52430  -0.64373  12.51922
   6.24256  -1.36199  12.51922
   6.48198  -1.36199  12.75864
   6.96081  -1.60141  12.99806
   7.91849  -1.60141  12.75864
   8.87616  -2.31967  12.99806
   9.35500  -2.31967  12.99806
   9.59442  -2.55909  13.23748
  10.79152  -2.79850  13.47689
  11.03094  -3.03792  13.47689
  12.22803  -3.03792  13.47689
  12.22803  -3.03792  13.95573
  12.94629  -3.27734  13.71631
  14.14338  -3.51676  13.23748
  14.86164  -3.75618  13.47689
  14.86164  -3.99560  13.47689
  15.10106  -3.99560  13.47689
  16.29815  -3.99560  12.75864
  16.53757  -3.75618  12.75864
  16.77699  -3.99560  12.75864
  17.25583  -3.99560  12.51922
  17.97408  -3.75618  11.56154
  17.97408  -3.51676  11.32212
  18.21350  -3.75618  10.84329
  18.69234  -3.75618  10.36445
  18.21350  -2.79850   9.88561
  18.69234  -2.79850   9.40677
  18.93176  -2.79850   8.44910
  18.93176  -2.55909   7.73084
  18.69234  -1.84083   7.49142
  18.93176  -1.84083   6.53375
  19.41060  -1.84083   5.81549
  19.41060  -1.36199   5.09723
  19.41060  -0.88315   4.37897
  19.41060  -1.12257   4.13956
  19.65002  -0.64373   3.18188
  19.65002  -0.40432   2.46362
  19.41060  -0.16490   2.46362
  19.41060   0.07452   1.74537
  19.41060   0.55336   0.78769
  19.88944   0.55336   0.30885
  19.41060   0.55336   0.30885
  19.65002   0.79278  -0.88824
  19.65002   1.51104  -1.36708
  19.65002   1.75046  -1.84592
  19.41060   1.27162  -1.60650
  18.93176   1.75046  -2.32476
  18.69234   2.22929  -2.80359
  18.45292   2.46871  -3.28243
  18.45292   2.22929  -3.52185
  17.73467   2.22929  -4.00069
  17.01641   2.70813  -4.24011
  17.01641   2.94755  -4.71895
  17.25583   2.46871  -5.43720
  16.29815   2.46871  -5.91604
  15.57990   2.46871  -5.67662
  14.86164   3.18697  -6.15546
  14.62222   2.70813  -6.63430
  14.14338   2.94755  -7.35255
  12.94629   2.94755  -6.87372
  12.46745   2.94755  -7.11313
  12.22803   2.70813  -7.83139
  11.74919   2.70813  -8.31023
  10.79152   2.70813  -7.83139
  10.07326   2.70813  -7.83139
   9.59442   2.94755  -8.31023
   9.11558   2.46871  -8.07081
   8.15791   2.46871  -7.59197
   7.67907   1.98987  -7.59197
   7.43965   1.98987  -8.07081
   6.72139   2.22929  -7.83139
   6.24256   1.51104  -7.59197
   6.24256   1.27162  -7.59197
   5.52430   1.03220  -7.59197
   4.80604   1.27162  -7.35255
   5.04546   0.79278  -7.11313
   5.04546   0.31394  -6.87372
   4.32720   0.31394  -6.39488
   4.32720   0.55336  -6.15546
   4.32720   0.07452  -6.39488
   4.08779  -0.40432  -6.39488
   4.08779  -0.40432  -5.91604
   3.84837  -0.64373  -5.91604
   3.84837  -0.88315  -6.15546
   4.32720  -1.60141  -5.91604
   3.60895  -1.60141  -5.43720
   3.36953  -1.60141  -5.67662
   3.84837  -1.60141  -6.15546
   3.60895  -1.84083  -5.91604
   3.36953  -2.08025  -5.91604
   3.13011  -2.31967  -5.91604
   3.13011  -2.31967  -6.39488
   2.89069  -2.55909  -6.63430
   2.89069  -3.03792  -6.63430
   2.65127  -3.27734  -6.87372
   2.17243  -3.27734  -7.11313
   1.69360  -3.27734  -7.35255
   1.69360  -3.03792  -7.35255
   1.45418  -3.99560  -8.07081
   0.73592  -3.75618  -8.07081
   0.49650  -3.27734  -8.31023
   0.49650  -3.75618  -8.78907
   0.49650  -3.75618  -9.26791
  -0.22176  -3.75618  -8.78907
  -0.70059  -3.27734  -9.02849
  -0.46117  -3.51676  -9.50732
  -1.17943  -3.51676  -9.50732
  -1.41885  -3.51676  -9.50732
  -2.13711  -3.27734  -9.74674
  -2.13711  -3.27734 -10.46500
  -2.37653  -3.27734 -10.70442
  -2.61594  -3.03792 -10.22558
  -3.09478  -2.79850 -10.46500
  -3.09478  -2.55909 -10.70442
  -3.33420  -2.31967 -10.94384
  -3.81304  -1.84083 -10.22558
  -3.57362  -2.08025 -10.70442
  -4.05246  -1.84083 -10.46500
  -4.29188  -1.36199 -10.70442
  -4.05246  -1.36199 -10.70442
  -3.81304  -1.36199 -10.70442
  -4.29188  -1.36199 -10.46500
  -4.77072  -0.64373 -10.46500
  -4.53130  -1.12257 -10.70442
  -4.53130  -0.88315 -10.70442
  -5.01013  -0.64373 -10.70442
  -5.72839  -0.16490 -10.46500
  -5.24955  -0.64373 -10.94384
  -5.01013  -0.40432 -11.18326
  -5.48897  -0.40432 -10.70442
  -5.72839   0.07452 -10.70442
  -5.72839  -0.16490 -11.18326
  -5.48897  -0.16490 -11.18326
  -5.96781   0.31394 -11.18326
  -6.44665   0.07452 -10.94384
  -6.68607   0.31394 -11.18326
  -6.44665   0.31394 -11.42268
  -7.16490   0.55336 -10.94384
  -7.16490   0.31394 -11.18326
  -7.16490   0.55336 -11.18326
  -7.88316   0.55336 -10.94384
  -7.64374   0.31394 -11.18326
  -8.36200   0.07452 -10.94384
  -8.84084   0.31394 -10.70442
  -9.08026   1.03220 -10.46500
  -9.08026   0.55336 -10.46500
  -9.08026   0.07452 -10.22558
  -9.79851   0.55336  -9.98616
 -10.51677   0.79278  -9.98616
 -10.27735   0.55336  -9.98616
 -10.03793   0.31394  -9.98616
 -10.99561   0.55336  -9.02849
 -11.47445   0.79278  -8.78907
 -11.71386   0.79278  -8.78907
 -11.47445   0.79278  -8.78907
 -11.95328   1.03220  -8.31023
 -12.43212   1.03220  -7.83139
 -12.43212   1.03220  -7.83139
 -12.91096   1.27162  -7.59197
 -12.91096   1.03220  -7.35255
 -12.91096   1.03220  -7.11313
 -12.91096   1.03220  -7.11313
 -13.86864   1.27162  -6.87372
 -13.38980   1.27162  -6.87372
 -13.38980   1.03220  -6.63430
 -14.34747   0.79278  -5.91604
 -14.82631   1.27162  -6.39488
 -14.82631   1.03220  -6.15546
 -14.58689   0.55336  -6.39488
 -14.82631   0.55336  -5.67662
 -15.30515   0.79278  -5.67662
 -15.30515   1.03220  -5.67662
 -14.82631   0.31394  -5.91604
 -15.78399   0.55336  -5.19778
 -16.02341   0.79278  -4.71895
 -16.26282   0.31394  -5.19778
 -16.02341   0.07452  -5.43720
 -16.50224   0.07452  -4.95836
 -16.98108  -0.16490  -4.71895
 -17.22050   0.07452  -4.71895
 -17.22050  -0.16490  -4.47953
 -16.98108  -0.40432  -4.24011
 -17.22050  -0.16490  -3.76127
 -17.45992  -0.40432  -3.52185
 -17.22050   0.07452  -3.28243
 -17.22050   0.07452  -3.04301
 -16.98108  -0.40432  -3.04301
 -17.45992  -0.16490  -2.80359
 -16.74166   0.07452  -3.04301
 -16.50224   0.31394  -2.80359
