********************************************************************************
              CENTRO DE INSTRUMENTACION Y REGISTRO SISMICO  A.C.

    Anaxagoras 814, Col. Narvarte, Benito Juarez, C.P. 03020 Mexico, D.F.
           Tels. 5687 45 42/ 5687 45  82             Fax. 5669 25 12
********************************************************************************
ARCHIVO ESTANDAR DE ACELERACION:
VERSION DEL FORMATO                    : 2.0
NOMBRE DEL ARCHIVO                     : AP6820130616051902
FECHA Y HORA DE CREACION               : 20/OCT/17, 13:29
REF. CATALOGO ACELEROGRAMAS, SMIS 1996 : REGISTRO No.     /PAG.


================================================================================
DATOS DE LA ESTACION:
NOMBRE DE LA ESTACION                  : JARDÍN DE NIÑOS "JUAN B. DE LA SALLE"
CLAVE DE LA ESTACION                   : AP68
LOCALIZACION DE LA ESTACION            : Del. Iztapalapa, Col. Santa María      
                                       : Purísima Atlazolpa,  entre Canal de    
                                       : Apatlaco y Ahuehuetes.                 
                                       :                                        
                                       : 
COORDENADAS DE LA ESTACION             : 19.3809 LAT. N
                                       : 99.1068 LONG. W
ALTITUD (msnm)                         : 2232
TIPO DE SUELO                          : Arcilloso, zona lago                
                                       :                           
                                       : 
INSTITUCION RESPONSABLE                : CIRES
                                       : 

================================================================================
DATOS DEL ACELEROGRAFO:
MODELO DEL ACELEROGRAFO                : RADESD
NUMERO DE SERIE DEL ACELEROGRAFO       : 255
NUMERO DE CANALES                      : 3
ORIENTACION C1-C6 (rumbo;orientacion)  : /N00E/+V/N90W
ORIENTACION C7-C12 (rumbo;orientacion) : 
VEL. DE MUESTREO, C1-C6 (muestras/s)   : /100/100/100
VEL. DE MUESTREO, C7-C12 (muestras/s)  : 
ESC. COMPLETA DE SENSORES, C1-C6, (g)  : /0.5/0.5/0.5
ESC. COMPLETA DE SENSORES, C7-C12, (g) : 
FREC. NAT. DE SENSORES, C1-C6, (Hz)    : /30/30/30
FREC. NAT. DE SENSORES, C7-C12, (Hz)   : 
AMORTIGUAMIENTO DE SENSORES, C1-C6     : /0.780/0.700/0.678
AMORTIGUAMIENTO DE SENSORES, C7-C12    : 
INTERVALO DE MUESTREO, C1-C6, (s)      : /0.01/0.01/0.01
INTERVALO DE MUESTREO, C7-C12, (s)     : 
UMBRAL DE DISPARO, C1-C6, (Gal)        : /3.49/6.73/4.7
UMBRAL DE DISPARO, C7-C12, (Gal)       : 
MEMORIA DE PREEVENTO (s)               : 44.0
TIEMPO DE POSEVENTO (s)                : 226.0


================================================================================
DATOS DEL SISMO:
FECHA DEL SISMO (GMT)                  : 16/JUN/13
HORA EPICENTRO (GMT)                   : 05:19:02.0
MAGNITUD(ES)                           : /Mc=5.8
COORDENADAS DEL EPICENTRO              : 18.11 LAT. N
                                       : 99.22 LONG. W
PROFUNDIDAD FOCAL (km)                 : 55
FUENTE DE LOS DATOS EPICENTRALES       : SSN
                                       : INSTITUTO DE GEOFISICA, UNAM

================================================================================
DATOS DE ESTE REGISTRO:
HORA DE LA PRIMERA MUESTRA (GMT)       : 05:19:39.00
EXACTITUD DEL TIEMPO (s)               : 0.01
DURACION DEL REGISTRO (s), C1-C6       : /104.4/104.4/104.4
DURACION DEL REGISTRO (s), C7-C12      : 
NUM. TOTAL DE MUESTRAS, C1-C6          : /10440/10440/10440
NUM. TOTAL DE MUESTRAS, C7-C12         : 
ACEL. MAX. (Gal), C1-C6                : /28.53679/12.94396/20.7606
ACEL. MAX., C1-C6, EN LA MUESTRA       : /4652/4642/4725
ACEL. MAX. (Gal), C7-C12               : 
ACEL. MAX., C7-C12, EN LA MUESTRA      : 
UNIDADES DE LOS DATOS                  : Gal (cm/s/s)
FACTOR DE DECIMACION                   : 1
FORMATO DATOS (FORTRAN,10 campos/dato) : 3F10.5


================================================================================
CALIDAD DEL ACELEROGRAMA:
REGISTRO DIGITAL COMPLETO CON TIEMPO ABSOLUTO CORRECTO.


================================================================================
COMENTARIOS:














================================================================================
DATOS DE ACELERACION:
---------+---------+---------+---------+---------+---------+---------+---------+
   CANAL-1   CANAL-2   CANAL-3   CANAL-4   CANAL-5   CANAL-6   CANAL-7   CANAL-8
      N00E        +V      N90W
---------+---------+---------+---------+---------+---------+---------+---------+
[...]
  -2.01921   1.27161   0.56276
  -2.16885   1.82527   0.60765
  -2.22871   2.36396   0.63758
  -2.24367   2.81288   0.68247
  -2.10900   3.14208   0.78721
  -1.86958   3.11215   0.95181
  -1.52541   2.84280   1.19123
  -1.18124   2.52857   1.37080
  -0.79218   2.46871   1.44562
  -0.46298   2.60338   1.44562
  -0.19363   2.75302   1.46058
  -0.02903   2.67820   1.55036
  -0.02903   2.30411   1.67007
  -0.05896   1.75045   1.71497
  -0.05896   1.27161   1.61022
  -0.01407   0.88255   1.43065
   0.09068   0.55335   1.41569
   0.22535   0.22415   1.53540
   0.34506  -0.03024   1.67007
   0.43484  -0.12002   1.71497
   0.53959  -0.13498   1.55036
   0.62937  -0.14995   1.28102
   0.68923  -0.25469   1.10145
   0.77901  -0.46419   1.04160
   0.88376  -0.59886   1.01167
   0.97354  -0.44922   0.90692
   0.98850  -0.07513   0.80218
   0.97354   0.38875   0.66750
   0.82390   0.74788   0.53283
   0.56952   0.92744   0.29341
   0.25528   1.01723  -0.05076
  -0.04400   1.00226  -0.42485
  -0.40313   0.92744  -0.67924
  -0.77722   0.91248  -0.67924
  -1.15132   0.77781  -0.49967
  -1.45059   0.44860  -0.21536
  -1.64512  -0.14995  -0.00587
  -1.74987  -0.92806   0.09888
  -1.73490  -1.67625   0.12881
  -1.49548  -2.17005   0.11384
  -1.06153  -2.21495   0.00910
  -0.49291  -1.82589   0.00910
   0.24031  -1.33208  -0.06572
   0.95858  -1.09266  -0.21536
   1.63194  -0.91310  -0.35003
   2.24546  -0.62879  -0.52960
   2.73926  -0.12002  -0.72413
   3.06847   0.37378  -0.93362
   3.24803   0.58328  -1.20297
   3.27796   0.46357  -1.47232
   3.26299   0.10444  -1.75663
   3.23307  -0.13498  -2.01101
   3.17321  -0.19484  -2.20554
   3.00861  -0.37440  -2.29532
   2.60459  -0.74850  -2.40007
   1.97611  -1.03281  -2.40007
   1.40749  -0.94303  -2.32525
   0.94361  -0.50908  -2.17561
   0.70419  -0.06016  -1.98108
   0.61441  -3.1E-40  -1.81648
   0.61441  -0.32951  -1.65188
   0.77901  -0.74850  -1.47232
   1.10821  -0.89814  -1.30771
   1.48231  -0.53900  -1.11318
   1.81151   0.10444  -0.93362
   2.05093   0.65810  -0.81391
   2.08086   0.74788  -0.82887
   2.03597   0.47853  -0.82887
   1.94618   0.14933  -0.88873
   1.82647  -0.10506  -0.97851
   1.61698  -0.29958  -1.05333
   1.22792  -0.67368  -1.12815
   0.68923  -1.24230  -1.24786
   0.12060  -1.73611  -1.33764
  -0.29838  -1.79596  -1.44239
  -0.44802  -1.24230  -1.59203
  -0.46298  -0.46419  -1.69677
  -0.41809  -3.1E-40  -1.80152
  -0.38816  -0.09009  -1.96612
  -0.41809  -0.52404  -2.19058
  -0.40313  -0.62879  -2.48985
  -0.22356  -0.14995  -2.66942
  -0.10385   0.55335  -2.60956
  -0.08889   1.00226  -2.38510
  -0.08889   1.03219  -2.02597
   8.9E-40   0.77781  -1.62195
   0.25528   0.61320  -1.32268
   0.65930   0.41868  -1.11318
   1.04836   0.01465  -1.02340
   1.33267  -0.49411  -0.94858
   1.46734  -0.79339  -0.88873
   1.60202  -0.55397  -0.82887
   1.63194  -0.01527  -0.79895
   1.40749   0.41868  -0.70916
   0.91368   0.25407  -0.40989
   0.25528  -0.50908   0.02406
  -0.32831  -1.87078   0.50290
  -0.70240  -3.06788   0.96678
  -0.95679  -3.72629   1.31094
  -1.10642  -3.62154   1.56533
  -1.25606  -2.72371   1.83468
  -1.48052  -1.39194   2.05913
  -1.85461   0.05955   2.19381
  -2.12396   1.22672   2.20877
  -2.18381   1.82527   2.04417
  -2.04914   1.81031   1.93942
  -1.70497   1.37636   1.98431
  -1.19621   0.98730   2.16388
  -0.68744   0.98730   2.32848
  -0.26845   1.40628   2.35841
   0.09068   1.97491   2.31352
   0.33010   2.39389   2.14891
   0.40492   2.46871   1.98431
   0.38995   2.24425   1.80475
   0.41988   1.87016   1.67007
   0.43484   1.36139   1.62518
   0.38995   0.76284   1.68504
   0.27024   0.13436   1.68504
   0.06075  -0.17987   1.64015
  -0.20860   0.05955   1.52044
  -0.38816   0.73291   1.34087
  -0.53780   1.43621   1.22116
  -0.61262   1.61578   1.04160
  -0.56773   1.10701   0.93685
  -0.32831   0.19422   0.83210
   0.07571  -0.62879   0.78721
   0.44981  -1.01785   0.72736
   0.70419  -0.85324   0.60765
   0.80894  -0.20980   0.53283
   0.83886   0.61320   0.51787
   0.80894   1.31650   0.62261
   0.76405   1.60081   0.71239
   0.74908   1.28657   0.74232
   0.83886   0.41868   0.66750
   0.86879  -0.91310   0.56276
   0.95858  -2.19998   0.51787
   0.95858  -3.20255   0.41312
   0.86879  -3.83103   0.39815
   0.73412  -4.08542   0.42808
   0.52463  -4.23505   0.42808
   0.38995  -4.39966   0.42808
   0.36002  -4.53433   0.35326
   0.46477  -4.50440   0.14377
   0.71915  -4.27995  -0.03579
   1.03339  -4.01060  -0.18543
   1.34763  -3.84600  -0.23032
   1.66187  -3.62154  -0.20040
   2.05093  -3.11277  -0.12558
   2.43999  -2.22991  -0.00587
   2.66444  -1.09266   0.15873
   2.73926  -0.03024   0.38319
   2.64948   0.61320   0.60765
   2.49984   0.70299   0.71239
   2.42502   0.61320   0.78721
   2.42502   0.56831   0.75729
   2.58962   0.55335   0.66750
   2.84401   0.34386   0.60765
   3.03854   0.05955   0.41312
   3.27796  -0.07513   0.12881
   3.50241  -0.04520  -0.27521
   3.71191   0.01465  -0.72413
   3.78673  -0.04520  -1.12815
   3.83162   0.01465  -1.41246
   4.02615   0.37378  -1.59203
   4.47506   1.12197  -1.68181
   4.96886   1.94498  -1.81648
   5.44770   2.75302  -1.92123
   5.79187   3.36654  -2.01101
   5.92654   3.81545  -2.13072
   5.73201   4.15962  -2.26539
   5.26814   4.47385  -2.34021
   4.47506   4.71327  -2.31029
   3.14328   4.59356  -2.45992
   1.66187   4.35414  -2.66942
   0.22535   3.93516  -2.80409
  -1.28599   3.36654  -3.11833
  -3.23128   1.94498  -3.85155
  -4.23385   0.94241  -4.39025
  -5.26635  -0.06016  -4.71945
  -6.19410  -0.85324  -4.89902
  -7.15178  -1.57150  -5.07858
  -8.07954  -2.14013  -5.24318
  -9.02225  -2.42444  -5.46764
  -9.90511  -2.51422  -5.75195
 -10.74309  -2.37955  -5.96144
 -11.61098  -2.12516  -5.93152
 -12.56866  -1.96056  -5.54246
 -13.63109  -2.02042  -4.71945
 -14.75337  -2.40948  -3.61213
 -15.92055  -2.64890  -2.31029
 -16.87823  -2.70875  -0.85880
 -17.83591  -2.60400   0.57772
 -18.50928  -2.19998   1.98431
 -18.82352  -1.42187   3.12156
 -18.95819  -0.07513   3.88471
 -18.82352   1.33147   4.24384
 -18.43446   2.45375   4.31866
 -17.89576   2.88770   4.19895
 -17.37203   2.64828   4.00442
 -16.75852   2.00483   3.70515
 -15.77091   1.06212   3.42083
 -15.08258   0.29897   3.18141
 -14.60374  -0.10506   3.01681
 -14.08000  -0.01527   2.91207
 -13.63109   0.32889   2.65768
 -13.31685   0.92744   2.38834
 -13.03254   1.45118   2.01424
 -12.77816   1.55592   1.74489
 -12.55370   0.92744   1.78978
 -12.23946  -0.12002   2.16388
 -11.82048  -1.21237   2.80732
 -11.08725  -1.97553   3.58544
 -10.23432  -2.52919   4.30370
  -9.24671  -2.87335   5.02196
  -8.13939  -3.06788   5.66540
  -6.80762  -2.99306   6.03949
  -5.22146  -2.52919   6.02453
  -3.23128  -1.93063   5.50080
  -0.97175  -1.33208   4.37852
   1.36260  -0.85324   2.65768
   3.77176  -0.29958   0.48794
   6.07618   0.29897  -1.98108
   8.18607   0.94241  -4.56981
   9.89194   1.31650  -7.15854
  11.08904   1.31650  -9.61260
  11.82227   1.00226 -11.61774
  12.24125   0.37378 -13.08419
  12.48067  -0.31455 -14.01195
  12.60038  -0.89814 -14.44590
  12.57045  -1.30216 -14.59553
  12.45074  -1.48172 -14.34115
  12.25621  -1.39194 -13.54807
  11.98687  -0.88317 -12.18637
  11.74745  -0.32951 -10.43561
  11.68759   0.04458  -8.44543
  11.86716  -0.13498  -6.48517
  12.30111  -0.74850  -4.56981
  12.91462  -1.52661  -2.78913
  13.54310  -2.00545  -1.17304
  13.94712  -1.97553   0.05399
  14.05187  -1.46676   0.83210
  13.82741  -0.76346   1.29598
  13.31864   0.04458   1.72993
  12.51060   1.03219   2.29855
  11.59781   2.19936   3.07667
  10.64013   3.26179   3.80989
   9.69741   4.02494   4.69275
   8.54520   4.23443   5.56065
   7.25832   4.00998   6.45848
   5.91158   3.69574   7.40119
   4.75937   3.45632   8.43369
   3.78673   3.24683   9.55598
   3.20314   2.78295  10.73811
   2.99365   2.21433  11.99507
   3.23307   1.76541  13.20713
   3.93636   1.66067  14.09000
   5.05865   1.76541  14.49402
   6.39042   1.85520  14.22467
   7.73716   1.73549  13.38670
   8.87440   1.39132  12.11478
   9.71237   0.89752  10.55855
  10.16129   0.43364   8.94246
  10.20618  -0.01527   7.38623
   9.93683  -0.25469   6.03949
   9.39814  -0.14995   4.88728
   8.53024   0.40371   3.97449
   7.18350   1.25665   3.07667
   5.38785   2.27418   2.28359
   3.35278   3.17201   1.68504
   1.28778   3.66581   1.41569
  -0.44802   3.57603   1.52044
  -1.70497   2.90266   1.95439
  -2.48309   1.79534   2.55294
  -2.82726   0.62817   3.18141
  -2.90208  -0.29958   3.92960
  -2.69258  -1.07770   4.82743
  -2.39331  -1.78100   5.78511
  -2.09403  -2.42444   6.53330
  -1.80972  -3.00803   6.95228
  -1.43563  -3.54672   7.11688
  -0.88197  -3.93578   7.08696
  -0.23853  -4.26498   6.96725
   0.37499  -4.65404   6.63804
   1.01843  -5.07302   5.97964
   1.63194  -5.49201   5.00699
   2.26042  -5.55186   3.89967
   2.72430  -5.17777   2.64272
   2.73926  -4.47447   1.43065
   1.97611  -3.69636   0.20363
   0.37499  -3.18759  -0.94858
  -2.10900  -2.84342  -2.05590
  -5.20649  -2.61897  -2.99862
  -8.48356  -2.37955  -3.73184
 -11.46135  -2.12516  -4.24061
 -13.85555  -1.78100  -4.62967
 -15.47163  -1.28719  -5.00376
 -16.11508  -0.56893  -5.18333
 -15.87566   0.38875  -5.01873
 -15.05265   1.36139  -4.52492
 -13.96029   2.13951  -3.94134
 -12.85298   2.54353  -3.37271
 -11.91026   2.40886  -2.92380
 -11.26682   1.87016  -2.53474
 -10.92265   1.27161  -2.28036
 -10.72812   0.95737  -2.31029
 -10.59345   1.04715  -2.60956
 -10.41388   1.28657  -3.35775
 -10.20439   1.52599  -4.42018
 -10.20439   1.69060  -5.60231
 -10.30914   2.13951  -6.70963
 -10.59345   3.18697  -7.71220
 -10.92265   4.68335  -8.40054
 -11.34164   6.20965  -8.75967
 -11.95515   7.27208  -8.66988
 -12.64348   7.78085  -8.31075
 -13.12232   8.09508  -7.74213
 -12.95772   8.54400  -7.02387
 -11.97011   9.27722  -6.29065
 -10.18943  10.11519  -5.31800
  -7.63062  10.78856  -4.03112
  -4.23385  11.13273  -2.40007
  -0.17867  10.98309  -0.63434
   4.17578  10.45936   1.04160
   8.35067   9.36700   2.56790
  11.94198   7.76588   3.85478
  14.68034   5.65599   4.93217
  16.61067   3.32165   5.60554
  17.98733   1.09204   5.72525
  19.04976  -0.95799   5.17159
  19.75306  -2.96313   3.98946
  20.11219  -4.84857   2.64272
  20.30672  -6.58436   1.64015
  20.51621  -8.05081   1.32591
  20.69577  -9.17309   1.75986
  20.69577 -10.11581   2.62776
  20.68081 -11.13335   3.75004
  20.78556 -12.19577   4.96210
  20.86038 -12.94396   6.12928
  20.63592 -12.92900   7.23659
  20.33664 -12.30052   7.99975
  20.35161 -11.53737   8.26909
  21.11476 -10.59465   7.86507
  22.65603  -9.39755   7.01214
  24.42175  -8.06578   6.23402
  25.93309  -6.70407   5.53072
  27.20501  -5.23763   4.72268
  28.19262  -3.78614   3.67522
  28.53679  -2.66386   2.71754
  27.92327  -1.99049   2.04417
  26.41193  -1.78100   1.38576
  24.15240  -1.93063   0.44305
  21.27936  -2.19998  -0.79895
  18.00230  -2.55911  -1.99605
  14.69531  -2.69379  -2.87891
  11.77737  -2.37955  -3.31286
   9.39814  -1.73611  -3.20811
   7.45285  -0.95799  -2.60956
   5.92654  -0.29958  -1.84641
   4.68455   0.31393  -1.03837
   3.57723   0.97233  -0.51463
   2.58962   1.91505  -0.35003
   1.87136   2.82784  -0.48471
   1.51223   3.66581  -0.93362
   1.25785   4.57860  -1.57706
   1.09325   5.53628  -2.41503
   1.00347   6.32936  -3.38768
   0.83886   7.01769  -4.16579
   0.59944   7.54143  -4.46507
  -0.05896   7.72099  -4.19572
  -1.31592   7.51150  -3.46250
  -3.21631   7.12244  -2.53474
  -5.67037   6.49396  -1.47232
  -8.31896   5.67096  -0.40989
 -11.02740   4.81802   0.65254
 -13.58620   3.99501   1.64015
 -15.80084   3.42639   2.47812
 -17.43189   2.90266   3.30112
 -18.41949   2.42382   4.06428
 -18.53920   2.24425   4.81246
 -18.01547   2.09462   5.59058
 -17.16254   1.87016   6.36870
 -15.93551   1.55592   7.08696
 -14.46906   1.37636   7.55083
 -13.19714   1.54096   7.82018
 -11.85040   2.13951   7.85011
 -10.59345   3.02237   7.49098
  -9.63577   3.60596   6.71286
  -8.93247   3.51617   5.77014
  -8.45363   2.60338   4.90225
  -8.12443   1.22672   4.34859
  -8.07954  -0.22477   3.97449
  -8.30399  -1.51165   3.67522
  -8.75291  -2.57408   3.34602
  -9.39635  -3.44197   2.97192
  -9.96497  -4.20513   2.56790
 -10.33906  -4.92339   1.98431
 -10.47374  -5.43215   0.99671
 -10.12957  -5.71647  -0.36500
  -9.44124  -5.79128  -2.14568
  -8.52845  -5.71647  -4.13586
  -7.39120  -5.55186  -6.11108
  -6.02950  -5.32741  -8.02644
  -4.53313  -5.02813  -9.86698
  -3.11157  -4.41462 -11.31847
  -1.91447  -3.54672 -12.18637
  -0.85204  -2.81350 -12.74003
   0.06075  -2.46933 -13.05427
   0.62937  -2.46933 -13.35354
   0.94361  -2.64890 -13.68274
   1.18303  -2.85839 -14.32619
   1.37756  -2.78357 -14.99955
   1.45238  -2.57408 -15.56818
   1.46734  -2.33466 -15.77767
   1.43742  -2.11020 -15.94227
   1.55713  -1.94560 -16.36126
   1.82647  -1.76603 -17.13937
   2.23049  -1.66129 -18.14194
   2.70934  -1.54158 -19.09962
   3.17321  -1.52661 -19.89270
   3.62212  -1.34705 -20.44636
   4.04111  -0.88317 -20.76060
   4.41520  -0.06016 -20.71571
   4.62470   0.91248 -20.26680
   4.54988   1.79534 -19.26423
   4.16082   2.40886 -17.70800
   3.53234   2.76799 -15.70285
   2.73926   3.03733 -13.26376
   1.87136   3.17201 -10.42064
   0.97354   3.24683  -7.29322
   0.10564   3.33661  -4.10594
  -0.79218   3.45632  -1.08326
  -1.58526   3.39646   1.41569
  -2.21374   3.23186   3.24127
  -2.57287   2.94755   4.48326
  -2.67762   2.78295   5.33620
  -2.48309   2.81288   6.02453
  -2.19878   3.11215   6.56322
  -1.88454   3.50121   6.92235
  -1.64512   3.63588   6.98221
  -1.36081   3.72567   6.87746
  -0.97175   3.89027   6.81761
  -0.59766   4.06983   6.81761
  -0.34327   3.90523   6.98221
  -0.44802   3.36654   7.41616
  -1.03161   2.61835   8.10449
  -2.03418   1.94498   9.19685
  -3.26121   1.21175  10.63337
  -4.51816   0.26904  12.35420
  -5.68533  -0.97295  14.17978
  -6.58316  -2.31969  15.97543
  -7.13682  -3.42701  17.51670
  -7.09193  -4.17520  18.63898
  -6.49338  -4.50440  19.25249
  -5.62548  -4.81864  19.11782
  -4.68276  -5.32741  18.14517
  -3.74005  -6.01574  16.42434
  -2.81229  -6.61429  14.07503
  -1.86958  -6.71904  11.59105
  -0.85204  -6.47962   9.19685
   0.03082  -6.19531   7.23659
   0.50966  -6.06063   5.94971
   0.61441  -6.12049   5.41101
   0.55455  -6.25516   5.26138
   0.41988  -6.34494   5.23145
   0.15053  -6.40480   4.85736
  -0.35824  -6.46465   4.19895
  -1.27103  -6.24020   3.30112
  -2.45316  -5.64165   2.38834
  -3.59041  -4.68397   1.46058
  -4.72765  -3.41205   0.44305
  -5.73023  -2.06531  -0.64931
  -6.65798  -0.88317  -1.77159
  -7.57077  -0.04520  -2.60956
  -8.27407   0.58328  -3.10336
  -8.61823   1.36139  -3.43257
  -8.69305   2.30411  -3.62710
  -8.43867   3.27675  -3.61213
  -8.01968   4.06983  -3.43257
  -7.52588   4.51875  -3.13329
  -6.86747   4.56364  -2.83402
  -6.25396   4.15962  -2.66942
  -5.62548   3.72567  -2.69934
  -5.25139   3.62092  -2.80409
  -5.01197   4.02494  -2.92380
  -5.14664   4.84795  -3.08840
  -5.73023   5.89541  -3.40264
  -6.76273   6.80820  -3.95630
  -8.03464   7.31697  -4.76434
  -9.27664   7.43668  -5.63224
 -10.44381   7.21222  -6.55999
 -11.34164   6.64360  -7.38300
 -12.02997   5.79067  -8.14615
 -12.56866   5.04248  -8.65492
 -13.06247   4.63846  -8.92427
 -13.37671   4.71327  -8.72974
 -13.37671   5.11730  -8.04141
