********************************************************************************
               CENTRO DE INSTRUMENTACION Y REGISTRO SISMICO  A.C.  
                       Coordinacion de Servicios Tecnicos
     Anaxagoras 814, Col. Narvarte, Benito Juarez, C.P. 03020 Mexico, D.F.
            Tels. 687 45 42/ 687 45  82             Fax. 669 25 12
********************************************************************************
ARCHIVO ESTANDAR DE ACELERACION:
VERSION DEL FORMATO                    : 2.0
NOMBRE DEL ARCHIVO                     : AP680406.141
FECHA Y HORA DE CREACION               : 09/NOV/04, 09:45
REF. CATALOGO ACELEROGRAMAS, SMIS 1996 : REGISTRO No.     /PAG.


================================================================================
DATOS DE LA ESTACION:
NOMBRE DE LA ESTACION                  : APATLACO
CLAVE DE LA ESTACION                   : AP68
LOCALIZACION DE LA ESTACION            : Jardin de Ni¤os Juan Bautista de la
                                       : Salle Canal de Apatlaco y Ahuehuetes,
                                       : Col Iztacalco Infonavit, Iztacalc
                                       : 
                                       :
COORDENADAS DE LA ESTACION             : 19.381 LAT. N 
                                       : 99.107 LONG. W 
ALTITUD (msnm)                         : 2232
TIPO DE SUELO                          : ARCILLOSO, ZONA LAGO
                                       : 
                                       : 
INSTITUCION RESPONSABLE                : CIRES
                                       :

================================================================================
DATOS DEL ACELEROGRAFO:
MODELO DEL ACELEROGRAFO                : RAD-851
NUMERO DE SERIE DEL ACELEROGRAFO       : 255
NUMERO DE CANALES                      : 3
ORIENTACION C1-C6 (rumbo;orientacion)  : /N00E/+V/N90W
ORIENTACION C7-C12 (rumbo;orientacion) :
VEL. DE MUESTREO, C1-C6 (muestras/s)   : /100/100/100
VEL. DE MUESTREO, C7-C12 (muestras/s)  :
ESC. COMPLETA DE SENSORES, C1-C6, (g)  : /0.5/0.5/0.5
ESC. COMPLETA DE SENSORES, C7-C12, (g) :
FREC. NAT. DE SENSORES, C1-C6, (Hz)    : /30/30/30
FREC. NAT. DE SENSORES, C7-C12, (Hz)   :
AMORTIGUAMIENTO DE SENSORES, C1-C6     : /0.780/0.700/0.678
AMORTIGUAMIENTO DE SENSORES, C7-C12    :
INTERVALO DE MUESTREO, C1-C6, (s)      : /0.01/0.01/0.01
INTERVALO DE MUESTREO, C7-C12, (s)     :
UMBRAL DE DISPARO, C1-C6, (Gal)        : /2.69/5.62/3.17
UMBRAL DE DISPARO, C7-C12, (Gal)       :
MEMORIA DE PREEVENTO (s)               : 24
TIEMPO DE POSEVENTO (s)                : 64


================================================================================
DATOS DEL SISMO:
FECHA DEL SISMO (GMT)                  : 22/DIC/97
HORA EPICENTRO (GMT)                   : 05:22:07:8
MAGNITUD(ES)                           : /Ms=5.0
COORDENADAS DEL EPICENTRO              : 17.1 LAT. N
                                       : 101.2 LONG. W
PROFUNDIDAD FOCAL (km)                 : 5.0
FUENTE DE LOS DATOS EPICENTRALES       : SSN
                                       : INSTITUTO DE GEOFISICA, UNAM

================================================================================
DATOS DE ESTE REGISTRO:
HORA DE LA PRIMERA MUESTRA (GMT)       : 22:56:12.00
EXACTITUD DEL TIEMPO (s)               : 0.01
DURACION DEL REGISTRO (s), C1-C6       : /110.75/110.75/110.75
DURACION DEL REGISTRO (s), C7-C12      :
NUM. TOTAL DE MUESTRAS, C1-C6          : /11075/11075/11075
NUM. TOTAL DE MUESTRAS, C7-C12         :
ACEL. MAX. (Gal), C1-C6                : /5.66060/2.21811/5.52944
ACEL. MAX., C1-C6, EN LA MUESTRA       :
ACEL. MAX. (Gal), C7-C12               :
ACEL. MAX., C7-C12, EN LA MUESTRA      :
UNIDADES DE LOS DATOS                  : Gal (cm/s/s)
FACTOR DE DECIMACION                   : 1
FORMATO DATOS (FORTRAN,10 campos/dato) : 3F10.5


================================================================================
CALIDAD DEL ACELEROGRAMA:
REGISTRO DIGITAL COMPLETO CON TIEMPO ABSOLUTO CORRECTO.


================================================================================
COMENTARIOS:














================================================================================
DATOS DE ACELERACION:
---------+---------+---------+---------+---------+---------+---------+---------+
   CANAL-1   CANAL-2   CANAL-3   CANAL-4   CANAL-5   CANAL-6   CANAL-7   CANAL-8
      N00E        +V      N90W
---------+---------+---------+---------+---------+---------+---------+---------+
[...]
  -1.28255   1.97869  -0.93487
  -0.80371   1.97869  -0.45603
  -1.28255   1.97869  -0.45603
  -0.32487   1.73927  -0.45603
  -0.56429   1.97869  -0.45603
  -0.80371   1.73927  -0.45603
  -0.08546   1.26044   0.02281
  -0.56429   1.02102   0.02281
  -0.80371   1.49985   0.26223
  -0.08546   1.26044   0.26223
   0.39338   1.02102   0.26223
   0.63280   0.54218   0.26223
   0.87222   1.02102   0.50164
   0.63280   0.78160   0.98048
   0.63280   0.54218   1.45932
   0.63280   0.30276   1.45932
   1.11164   1.02102   1.21990
   1.11164   0.30276   0.98048
   1.35106   0.06334   0.98048
   1.59048  -0.65492   1.45932
   1.11164  -0.17608   2.17758
   1.35106  -0.89434   2.17758
   0.87222  -0.17608   1.93816
   1.59048  -0.65492   1.69874
   1.82990  -0.17608   0.98048
   2.06931  -0.65492   1.21990
   1.82990  -0.41550   1.21990
   2.06931  -0.65492   1.45932
   2.06931  -0.17608   0.74106
   2.06931  -0.17608   1.21990
   2.54815   0.06334   0.26223
   3.02699  -0.41550   0.26223
   3.50583  -0.17608  -0.69545
   2.78757   0.06334  -0.21661
   2.78757   0.06334  -0.93487
   3.02699  -0.17608  -0.21661
   3.26641  -0.65492  -0.69545
   3.50583  -0.89434  -0.93487
   3.26641  -0.65492  -1.17429
   3.74525  -0.41550  -1.41371
   3.02699  -0.65492  -1.89254
   3.02699  -0.41550  -2.13196
   3.02699  -0.89434  -1.89254
   3.26641  -1.13375  -1.89254
   3.74525  -1.37317  -2.61080
   3.50583  -1.13375  -2.37138
   3.50583  -1.37317  -2.61080
   2.78757  -0.65492  -2.85022
   3.02699  -0.89434  -3.08964
   3.26641  -0.65492  -3.32906
   3.74525  -1.13375  -3.08964
   4.22409  -1.37317  -3.08964
   3.74525  -1.37317  -3.32906
   3.74525  -1.13375  -3.08964
   3.50583  -0.89434  -3.32906
   3.50583  -0.65492  -3.32906
   3.98467  -0.65492  -3.08964
   4.46350  -1.13375  -2.85022
   4.22409  -1.37317  -2.37138
   4.46350  -1.13375  -2.13196
   4.46350  -0.89434  -2.13196
   3.74525  -1.13375  -2.13196
   4.46350  -0.65492  -1.89254
   4.22409  -1.13375  -1.41371
   4.22409  -0.89434  -0.93487
   4.46350  -0.89434  -0.69545
   3.98467  -1.13375  -0.45603
   3.74525  -0.65492  -0.21661
   3.50583  -0.41550  -0.21661
   3.74525  -0.41550   0.26223
   3.50583   0.06334   0.98048
   3.50583  -0.65492   0.98048
   3.50583   0.30276   0.98048
   3.02699  -0.65492   0.74106
   3.26641   0.54218   0.74106
   3.02699   0.06334   0.74106
   3.02699   0.06334   1.21990
   2.78757  -0.89434   1.45932
   2.78757  -0.17608   1.69874
   2.78757   0.06334   0.98048
   2.54815   0.06334   1.21990
   3.02699   0.06334   0.74106
   3.02699   0.30276   0.74106
   2.54815   0.06334   1.45932
   2.54815   0.30276   1.45932
   2.30873   0.06334   1.45932
   1.82990   0.30276   1.69874
   2.30873   0.78160   0.98048
   1.82990   0.54218   1.21990
   1.82990   0.30276   1.45932
   1.35106   0.30276   1.69874
   1.11164   0.30276   1.93816
   0.87222   0.54218   1.93816
   0.87222   0.30276   1.69874
   0.87222   0.78160   1.21990
   1.11164   0.78160   1.45932
   1.11164   0.30276   1.45932
   0.87222   0.30276   1.93816
   1.11164   0.06334   1.93816
   0.39338   0.54218   1.69874
   1.11164   0.54218   1.21990
   1.11164   0.78160   1.45932
   0.87222   0.30276   1.45932
   1.11164  -0.17608   1.69874
   0.63280   0.54218   1.69874
  -0.08546   1.02102   1.93816
   0.63280   0.78160   1.21990
   0.63280   0.78160   1.21990
   0.15396   0.54218   0.98048
  -0.32487   0.54218   0.98048
  -0.56429   0.54218   0.98048
  -0.80371   0.30276   0.74106
  -0.80371   0.30276   0.26223
  -0.32487   0.54218   0.02281
   0.63280   0.06334  -0.69545
   0.15396   0.30276  -0.93487
   0.39338   0.06334  -1.41371
  -0.32487   0.30276  -1.17429
  -1.04313   0.30276  -1.41371
  -1.04313   0.30276  -2.13196
  -0.08546  -0.17608  -2.37138
  -0.32487  -0.65492  -2.13196
   0.63280  -0.89434  -2.37138
   0.63280  -0.65492  -2.37138
   0.87222   0.06334  -2.13196
   1.11164   0.30276  -2.13196
   0.87222   0.30276  -1.65313
   0.87222   0.06334  -1.41371
   1.59048   0.30276  -0.93487
   1.35106   0.30276  -0.21661
   1.59048   0.78160   0.02281
   1.11164   0.54218   0.50164
   0.39338   0.54218   1.45932
   0.15396   1.26044   1.45932
   0.39338   0.30276   2.41700
   0.87222   0.06334   1.93816
   0.87222   0.30276   2.41700
   0.87222   0.54218   2.65642
   0.39338   0.06334   3.61409
   0.87222   0.30276   3.37467
   0.39338   0.06334   4.09293
   0.87222  -0.41550   3.85351
   0.63280  -0.41550   3.85351
   0.63280  -0.17608   3.61409
   0.39338  -0.65492   3.85351
   0.15396  -0.41550   3.85351
   0.15396  -0.41550   3.61409
   0.63280  -1.13375   3.61409
   0.63280  -0.89434   3.37467
   0.63280  -1.37317   3.13525
   0.15396  -0.65492   2.89583
   0.63280  -0.65492   2.41700
  -0.08546  -0.89434   2.41700
   0.15396  -1.85201   2.41700
   0.63280  -1.85201   2.41700
   0.63280  -2.09143   2.17758
   0.39338  -1.85201   2.17758
   0.63280  -1.37317   1.21990
   0.87222  -1.61259   1.21990
   0.39338  -1.13375   0.98048
   0.63280  -1.61259   1.21990
  -0.08546  -1.37317   1.21990
   0.87222  -1.85201   0.98048
   0.15396  -1.37317   0.74106
   0.39338  -1.13375   0.74106
   0.39338  -1.37317   0.74106
   0.39338  -1.37317   0.74106
  -0.32487  -0.65492   0.98048
  -0.56429  -0.89434   1.21990
  -0.08546  -0.65492   0.98048
   0.15396  -0.41550   0.98048
  -0.32487  -0.41550   1.45932
  -0.32487   0.06334   1.45932
  -0.56429   0.30276   1.45932
  -0.80371  -0.17608   2.17758
  -1.28255   0.30276   2.41700
  -1.28255   0.78160   2.17758
  -1.28255   0.78160   2.17758
  -1.04313   0.54218   2.17758
  -0.80371   0.30276   2.17758
  -1.76139   0.54218   2.65642
  -2.00081   0.78160   2.65642
  -1.76139   1.02102   1.93816
  -2.24023   1.49985   2.17758
  -2.00081   1.26044   1.21990
  -2.24023   0.78160   1.69874
  -2.00081   0.78160   1.45932
  -2.47965   0.78160   1.45932
  -2.71906   1.02102   1.21990
  -2.71906   1.26044   1.21990
  -2.95848   1.02102   0.50164
  -3.19790   1.49985   0.50164
  -2.95848   1.02102   0.26223
  -3.43732   1.49985   0.50164
  -3.43732   1.26044   0.50164
  -4.15558   1.26044   0.98048
  -4.39500   1.49985   0.74106
  -4.39500   1.73927   0.26223
  -4.15558   1.97869  -0.21661
  -4.63442   1.49985   0.26223
  -5.35267   1.97869   0.02281
  -5.11325   1.49985   0.02281
  -5.35267   1.26044   0.50164
  -5.35267   1.73927  -0.45603
  -5.11325   1.73927  -0.69545
  -4.63442   1.26044  -1.17429
  -4.87383   1.49985  -1.17429
  -4.87383   1.02102  -1.17429
  -4.87383   1.26044  -0.93487
  -4.87383   1.02102  -1.41371
  -4.39500   1.02102  -1.41371
  -3.67674   0.54218  -1.65313
  -3.43732   0.54218  -1.41371
  -2.71906   0.06334  -1.89254
  -3.19790   0.30276  -1.65313
  -2.95848   0.30276  -1.89254
  -2.71906   0.54218  -1.65313
  -2.00081  -0.41550  -1.89254
  -2.00081  -0.41550  -1.65313
  -2.24023  -0.41550  -1.65313
  -2.95848  -0.17608  -1.65313
  -2.71906  -0.65492  -1.41371
  -3.19790  -0.41550  -1.65313
  -2.47965  -0.89434  -2.13196
  -1.76139  -1.13375  -2.37138
  -2.00081  -1.13375  -2.37138
  -1.76139  -0.65492  -2.61080
  -2.24023  -0.89434  -2.61080
  -2.47965  -0.17608  -2.61080
  -2.47965  -0.41550  -2.37138
  -2.24023  -0.65492  -2.37138
  -2.00081  -0.41550  -2.61080
  -2.00081  -0.41550  -2.61080
  -2.00081  -0.65492  -3.08964
  -2.47965  -0.41550  -3.08964
  -2.71906  -0.41550  -2.85022
  -2.47965  -0.89434  -2.61080
  -2.71906  -0.89434  -2.37138
  -1.76139  -0.89434  -2.85022
  -2.24023  -1.13375  -2.37138
  -1.76139  -0.89434  -2.37138
  -1.52197  -0.41550  -2.37138
  -1.76139  -0.65492  -1.89254
  -2.00081   0.06334  -1.41371
  -1.28255  -0.89434  -1.65313
  -1.04313   0.06334  -1.89254
  -1.04313  -0.41550  -1.89254
  -0.80371   0.06334  -2.13196
  -1.04313   0.06334  -1.89254
  -0.56429   0.06334  -1.89254
  -0.32487  -0.17608  -1.89254
  -0.80371   0.30276  -1.65313
  -0.32487   0.30276  -2.13196
  -0.56429   0.30276  -1.89254
  -0.56429   0.54218  -2.37138
  -0.32487   0.30276  -2.61080
  -0.56429   0.78160  -2.37138
  -0.80371   1.26044  -1.89254
  -0.80371   0.30276  -2.13196
  -1.52197   0.54218  -1.65313
  -1.52197   0.78160  -2.13196
  -1.04313   0.78160  -2.37138
  -1.52197   0.78160  -1.89254
  -1.28255   1.26044  -1.41371
  -0.80371   0.30276  -1.41371
  -1.52197   0.78160  -0.93487
  -1.04313   0.54218  -1.89254
  -1.04313   0.54218  -1.65313
  -1.28255   0.78160  -1.41371
  -1.28255   0.30276  -1.41371
  -0.80371  -0.17608  -1.17429
  -1.28255  -0.17608  -0.69545
  -1.04313   0.06334  -0.93487
  -0.80371  -0.17608  -0.69545
  -1.04313  -0.17608  -0.93487
  -0.80371  -0.17608  -1.17429
  -0.80371  -0.17608  -1.17429
  -1.04313  -0.41550  -0.93487
  -1.28255  -0.41550  -0.69545
  -1.28255  -0.65492  -1.17429
  -1.04313  -0.41550  -0.93487
  -1.04313   0.06334  -1.17429
  -1.04313  -0.17608  -1.17429
  -0.56429  -0.41550  -1.17429
  -1.04313  -0.65492  -0.69545
  -1.28255  -0.89434  -1.41371
  -0.80371  -0.17608  -1.17429
  -1.04313  -0.65492  -1.41371
  -1.04313  -0.17608  -1.65313
  -0.80371  -0.41550  -1.65313
  -0.80371  -0.41550  -1.17429
  -0.80371  -0.17608  -1.41371
  -1.04313  -0.17608  -1.41371
  -0.80371  -0.41550  -1.41371
  -0.80371   0.06334  -1.41371
  -0.80371  -0.17608  -1.89254
  -0.56429   0.06334  -1.17429
  -0.56429  -0.17608  -1.17429
  -1.04313   0.30276  -0.93487
  -0.56429   0.06334  -0.93487
  -0.32487   0.54218  -1.17429
  -0.08546   0.06334  -0.93487
  -0.32487   0.54218  -1.17429
  -0.08546  -0.17608  -1.17429
  -0.08546   0.78160  -0.69545
  -0.32487   0.54218  -0.21661
  -0.32487   0.30276  -0.21661
  -0.08546   0.78160  -0.45603
   0.15396   0.78160  -0.93487
  -0.08546   0.30276  -0.21661
  -0.08546   0.78160   0.02281
  -0.56429   0.54218   0.26223
  -0.56429   0.78160   0.02281
  -0.56429   1.26044   0.26223
   0.15396   0.54218   0.26223
  -0.32487   0.78160   0.50164
  -0.56429   1.02102   0.02281
  -0.08546   0.54218   0.26223
  -0.56429   1.02102   0.50164
  -0.08546   1.26044   0.26223
  -0.08546   0.78160   0.50164
  -0.56429   0.78160   0.98048
  -0.08546   0.30276   0.74106
   0.39338   0.54218   0.50164
  -0.08546   0.78160   0.98048
   0.15396   0.78160   0.98048
   0.39338   0.78160   0.98048
   0.15396   0.54218   1.21990
   0.87222   0.06334   0.98048
   1.11164  -0.17608   1.21990
   2.06931  -0.41550   0.98048
   1.82990  -0.17608   1.21990
   2.30873  -0.17608   0.98048
   2.30873  -0.17608   1.21990
   2.78757  -0.65492   1.21990
   3.02699  -0.65492   1.45932
   3.50583  -0.65492   0.98048
   3.26641  -0.41550   1.45932
   3.74525  -0.89434   1.69874
   3.98467  -0.65492   1.45932
   4.70292  -0.89434   1.69874
   4.46350  -0.89434   1.93816
   4.94234  -1.37317   1.93816
   4.94234  -0.65492   1.69874
   5.18176  -1.13375   1.93816
   4.70292  -1.13375   1.69874
   5.42118  -0.89434   1.93816
   5.42118  -1.37317   1.93816
   5.42118  -1.13375   1.93816
   5.66060  -1.37317   1.45932
   5.18176  -1.13375   1.69874
   5.42118  -1.37317   1.69874
   5.18176  -1.37317   1.45932
   5.18176  -1.37317   1.45932
   4.94234  -1.37317   1.93816
   5.18176  -1.37317   1.21990
   5.18176  -1.37317   1.45932
   5.18176  -1.37317   0.98048
   5.18176  -1.13375   0.98048
   5.18176  -1.37317   1.45932
   5.18176  -1.61259   1.69874
   4.94234  -1.61259   1.45932
   5.18176  -1.37317   1.45932
   5.18176  -0.89434   0.74106
   4.94234  -0.89434   0.26223
   5.18176  -0.17608   0.50164
   4.46350  -0.41550   0.74106
   4.46350  -0.41550   0.74106
   3.50583   0.06334   0.98048
   3.26641   0.06334   0.74106
   3.50583   0.54218   0.50164
   3.74525   0.54218   0.02281
   3.50583   0.78160   0.26223
   3.50583   0.54218   0.26223
   2.78757   0.54218   0.50164
   2.78757   0.06334   1.21990
   2.54815   0.78160   0.98048
   2.30873   0.78160   0.98048
   2.30873   0.78160   1.21990
   2.30873   1.02102   1.21990
   2.30873   1.02102   0.98048
   2.54815   0.30276   1.93816
   1.82990   1.26044   1.45932
   2.30873   1.02102   1.45932
   1.82990   0.78160   1.45932
   1.59048   1.02102   1.45932
   1.82990   0.78160   0.98048
   2.06931   0.30276   1.45932
   1.82990   0.30276   1.21990
   1.11164   1.02102   1.21990
   1.82990   0.30276   0.74106
   1.35106   0.54218   0.50164
   1.82990   0.30276   0.02281
   1.35106   0.30276   0.26223
   1.11164   0.06334   0.02281
   1.11164   0.30276   0.26223
   1.35106  -0.17608  -0.45603
   0.87222   0.06334  -0.21661
   1.59048  -0.17608  -0.45603
   1.59048   0.06334  -0.45603
   1.35106  -0.41550  -0.45603
   0.63280   0.06334   0.02281
   0.87222   0.06334  -0.21661
   0.63280   0.30276  -0.21661
   0.87222   0.30276  -0.69545
   1.11164   0.54218  -0.69545
   1.35106  -0.17608  -0.69545
   0.63280   0.30276  -0.45603
   0.63280   0.30276  -0.45603
   0.63280  -0.17608  -0.21661
   0.87222   0.30276  -0.45603
   0.87222   0.06334  -0.69545
   1.11164  -0.41550  -0.45603
   1.11164   0.30276   0.02281
   0.63280   0.06334   0.26223
   0.63280   0.06334   0.02281
   0.63280  -0.41550   0.74106
   0.63280  -0.17608   0.26223
   1.11164  -0.65492   0.26223
   0.87222  -0.41550   0.98048
   0.87222  -0.17608   0.50164
   0.63280   0.06334   0.98048
   0.63280   0.54218   0.98048
   0.87222   0.30276   1.21990
   0.87222   0.06334   1.21990
   1.11164  -0.17608   1.21990
   1.35106   0.30276   0.74106
   0.63280   1.02102   0.74106
   0.63280   1.02102   0.74106
   1.35106   0.78160   0.50164
   0.63280   0.78160   0.98048
   0.87222   0.30276   0.50164
   0.87222   0.30276   0.98048
   1.11164   0.30276   0.50164
   0.39338   0.78160   0.74106
   0.63280   0.78160   0.02281
  -0.08546   1.02102   0.26223
   0.39338   0.30276   0.26223
   0.15396   0.06334   0.26223
  -0.32487  -0.17608   0.26223
  -0.08546   0.30276   0.26223
  -0.80371   0.06334  -0.21661
  -1.04313   0.78160   0.02281
  -0.80371   0.30276   0.50164
  -1.28255  -0.17608   0.74106
  -1.28255  -0.17608   0.26223
  -0.80371  -0.41550   0.50164
  -1.52197  -0.17608   0.50164
  -1.52197   0.30276   0.26223
  -1.28255   0.30276   0.50164
  -1.04313  -0.41550   0.74106
  -1.28255  -0.17608   0.74106
  -1.76139   0.06334   0.74106
  -1.76139   0.06334   0.74106
  -1.28255  -0.65492   0.74106
  -1.04313  -1.13375   0.74106
  -1.28255  -1.13375   0.74106
  -1.04313  -1.61259   0.98048
  -1.04313  -1.13375   0.26223
  -1.28255  -0.89434   0.50164
  -1.28255  -1.13375   0.02281
  -1.52197  -0.65492   0.02281
  -1.04313  -0.41550  -0.93487
  -1.52197  -0.65492   0.50164
  -1.52197  -1.37317   0.26223
  -1.52197  -1.13375   0.50164
  -1.76139  -1.13375   0.02281
  -1.52197  -0.89434   0.02281
  -1.52197  -0.89434  -0.21661
  -1.04313  -0.65492   0.02281
  -1.04313  -1.61259   0.74106
  -1.52197  -0.89434   0.98048
  -1.76139  -0.65492   1.21990
  -1.76139  -0.65492   1.21990
  -1.04313  -1.13375   0.26223
  -1.52197  -0.65492   0.74106
  -1.28255  -0.89434   0.98048
  -1.52197  -1.13375   0.98048
  -1.52197  -0.89434   1.21990
  -1.76139  -0.41550   1.21990
  -1.28255  -0.65492   1.21990
  -1.28255  -0.89434   0.98048
  -0.80371  -1.13375   0.74106
  -1.04313  -0.89434   0.50164
  -1.52197  -0.89434   0.74106
  -1.76139  -0.17608   0.74106
  -1.52197  -0.89434   1.21990
  -0.80371  -0.65492   0.26223
  -1.28255  -0.41550  -0.21661
  -1.28255  -0.17608  -0.21661
  -1.52197  -0.89434  -0.21661
  -1.76139  -0.65492  -0.21661
  -2.24023  -0.17608  -0.21661
  -2.24023  -0.17608  -0.93487
  -2.71906  -0.17608  -0.93487
  -2.47965  -0.41550  -1.17429
  -2.47965  -0.41550  -1.41371
  -2.95848  -0.41550  -1.17429
  -3.43732   0.06334  -0.93487
