********************************************************************************
               CENTRO DE INSTRUMENTACION Y REGISTRO SISMICO  A.C.  
                       Coordinacion de Servicios Tecnicos
     Anaxagoras 814, Col. Narvarte, Benito Juarez, C.P. 03020 Mexico, D.F.
            Tels. 687 45 42/ 687 45  82             Fax. 669 25 12
********************************************************************************
ARCHIVO ESTANDAR DE ACELERACION:
VERSION DEL FORMATO                    : 2.0
NOMBRE DEL ARCHIVO                     : AP689906.211
FECHA Y HORA DE CREACION               : 10/FEBRERO/2000 11:55
REF. CATALOGO ACELEROGRAMAS, SMIS 1996 : REGISTRO No.     /PAG.


================================================================================
DATOS DE LA ESTACION:
NOMBRE DE LA ESTACION                  : APATLACO
CLAVE DE LA ESTACION                   : AP68
LOCALIZACION DE LA ESTACION            : Jardin de Ni¤os Juan Bautista de la
                                       : Salle Canal de Apatlaco y Ahuehuetes,
                                       : Col Iztacalco Infonavit, Iztacalc
                                       : 
                                       :
COORDENADAS DE LA ESTACION             : 19.381 LAT. N 
                                       : 99.107 LONG. W 
ALTITUD (msnm)                         : 2232
TIPO DE SUELO                          : ARCILLOSO, ZONA LAGO
                                       : 
                                       : 
INSTITUCION RESPONSABLE                : CIRES
                                       :

================================================================================
DATOS DEL ACELEROGRAFO:
MODELO DEL ACELEROGRAFO                : RAD-851
NUMERO DE SERIE DEL ACELEROGRAFO       : 255
NUMERO DE CANALES                      : 3
ORIENTACION C1-C6 (rumbo;orientacion)  : /N00E/+V/N90W
ORIENTACION C7-C12 (rumbo;orientacion) :
VEL. DE MUESTREO, C1-C6 (muestras/s)   : /100/100/100
VEL. DE MUESTREO, C7-C12 (muestras/s)  :
ESC. COMPLETA DE SENSORES, C1-C6, (g)  : /0.5/0.5/0.5
ESC. COMPLETA DE SENSORES, C7-C12, (g) :
FREC. NAT. DE SENSORES, C1-C6, (Hz)    : /30/30/30
FREC. NAT. DE SENSORES, C7-C12, (Hz)   :
AMORTIGUAMIENTO DE SENSORES, C1-C6     : /0.780/0.700/0.678
AMORTIGUAMIENTO DE SENSORES, C7-C12    :
INTERVALO DE MUESTREO, C1-C6, (s)      : /0.01/0.01/0.01
INTERVALO DE MUESTREO, C7-C12, (s)     :
UMBRAL DE DISPARO, C1-C6, (Gal)        : /3.42/4.15/3.42
UMBRAL DE DISPARO, C7-C12, (Gal)       :
MEMORIA DE PREEVENTO (s)               : 8
TIEMPO DE POSEVENTO (s)                : 8


================================================================================
DATOS DEL SISMO:
FECHA DEL SISMO (GMT)                  : 21/JUN/99
HORA EPICENTRO (GMT)                   : 17:43:05.5
MAGNITUD(ES)                           : /Mc=6.0/Ms=5.8/Mc=5.8/Me=6.2
COORDENADAS DEL EPICENTRO              : 17.99 LAT. N
                                       : 101.72 LONG. W
PROFUNDIDAD FOCAL (km)                 : 54.0
FUENTE DE LOS DATOS EPICENTRALES       : SSN
                                       : INSTITUTO DE GEOFISICA, UNAM

================================================================================
DATOS DE ESTE REGISTRO:
HORA DE LA PRIMERA MUESTRA (GMT)       : 17:44:35.00
EXACTITUD DEL TIEMPO (s)               : 0.01
DURACION DEL REGISTRO (s), C1-C6       : /123.75/123.75/123.75
DURACION DEL REGISTRO (s), C7-C12      :
NUM. TOTAL DE MUESTRAS, C1-C6          : /12375/12375/12375
NUM. TOTAL DE MUESTRAS, C7-C12         :
ACEL. MAX. (Gal), C1-C6                : /6.93736/2.81222/6.23606
ACEL. MAX., C1-C6, EN LA MUESTRA       :
ACEL. MAX. (Gal), C7-C12               :
ACEL. MAX., C7-C12, EN LA MUESTRA      :
UNIDADES DE LOS DATOS                  : Gal (cm/s/s)
FACTOR DE DECIMACION                   : 1
FORMATO DATOS (FORTRAN,10 campos/dato) : 3F10.5


================================================================================
CALIDAD DEL ACELEROGRAMA:
REGISTRO DIGITAL COMPLETO CON TIEMPO ABSOLUTO CORRECTO.


================================================================================
COMENTARIOS:














================================================================================
DATOS DE ACELERACION:
---------+---------+---------+---------+---------+---------+---------+---------+
   CANAL-1   CANAL-2   CANAL-3   CANAL-4   CANAL-5   CANAL-6   CANAL-7   CANAL-8
      N00E        +V      N90W
---------+---------+---------+---------+---------+---------+---------+---------+
[...]
  -0.72404  -1.49732  -2.38303
  -0.48462  -1.25790  -3.10128
  -0.00578  -1.01848  -3.58012
  -0.00578  -1.01848  -3.58012
   0.47305  -0.77906  -3.34070
   0.71247  -0.53965  -3.58012
   0.95189  -0.30023  -4.29838
   1.19131   0.17861  -4.05896
   1.43073  -0.30023  -4.05896
   1.67015  -0.53965  -4.05896
   1.67015  -0.30023  -4.29838
   1.90957  -0.77906  -3.81954
   2.14899  -0.77906  -3.58012
   2.38840  -0.30023  -4.05896
   2.14899  -0.30023  -4.05896
   2.62782  -0.06081  -4.05896
   2.38840  -0.53965  -3.81954
   2.86724  -0.30023  -3.81954
   3.10666   0.17861  -4.05896
   3.10666   0.41803  -4.29838
   2.86724   0.41803  -4.05896
   3.10666   0.65745  -3.58012
   2.86724   0.89687  -3.34070
   2.62782   1.37571  -3.10128
   2.62782   1.61513  -2.86186
   2.86724   1.37571  -2.86186
   2.86724   1.85454  -2.86186
   2.38840   1.61513  -2.62245
   2.14899   2.09396  -2.38303
   2.14899   2.33338  -2.14361
   1.43073   2.57280  -2.14361
   1.19131   2.33338  -1.42535
   1.19131   2.09396  -0.94651
   0.71247   2.09396  -0.46767
  -0.00578   1.85454  -0.22826
  -0.24520   1.85454   0.49000
  -0.24520   1.37571   0.72942
  -0.48462   0.89687   1.20826
  -0.96346   0.65745   1.44768
  -1.20288   0.17861   1.92651
  -0.72404   0.17861   2.16593
  -0.96346  -0.30023   2.16593
  -1.44230  -0.53965   2.64477
  -1.44230  -1.49732   2.88419
  -1.44230  -1.73674   3.36303
  -1.44230  -1.97616   3.36303
  -1.20288  -1.49732   3.12361
  -1.20288  -2.21558   3.36303
  -0.96346  -2.21558   3.60245
  -0.48462  -2.21558   3.36303
  -0.72404  -1.73674   3.36303
  -0.48462  -1.73674   3.12361
  -0.48462  -1.25790   2.88419
  -0.24520  -1.01848   2.64477
  -0.24520  -1.01848   2.64477
  -0.48462  -0.77906   2.88419
  -0.00578  -0.53965   2.40535
  -0.24520   0.17861   1.92651
  -0.72404   0.41803   1.68710
  -0.48462   0.17861   1.68710
  -0.24520   0.41803   1.44768
  -0.24520   0.41803   1.44768
  -0.24520   0.89687   1.20826
   0.23363   1.37571   1.20826
   0.95189   1.13629   0.96884
   1.43073   1.61513   0.49000
   1.67015   1.85454   0.49000
   1.67015   1.61513   0.49000
   2.38840   1.85454   0.01116
   2.86724   1.85454  -0.22826
   3.10666   1.61513   0.01116
   3.34608   1.13629   0.01116
   4.06434   0.89687  -0.22826
   4.30376   1.13629  -0.70709
   4.30376   0.89687  -0.70709
   4.78259   0.17861  -0.70709
   4.78259   0.17861  -1.42535
   5.02201  -0.30023  -1.66477
   4.78259  -0.53965  -1.90419
   5.02201  -0.53965  -2.38303
   5.50085  -0.77906  -2.62245
   5.26143  -1.01848  -2.86186
   4.78259  -0.77906  -2.86186
   4.30376  -0.77906  -2.86186
   4.30376  -0.77906  -3.10128
   4.30376  -0.53965  -2.86186
   4.30376  -0.77906  -2.62245
   3.58550  -0.77906  -2.14361
   3.58550  -0.77906  -1.66477
   2.62782  -0.06081  -0.94651
   2.14899   0.41803   0.01116
   1.90957  -0.06081   0.49000
   1.90957   0.17861   0.72942
   0.95189  -0.06081   1.92651
   0.47305  -0.06081   2.88419
  -0.00578   0.41803   3.36303
  -0.00578   0.17861   3.84187
   0.23363  -0.06081   4.32070
  -0.00578   0.41803   4.79954
   0.23363   0.17861   5.27838
  -0.00578   0.17861   5.03896
   0.47305   0.17861   4.56012
   0.95189  -0.06081   5.03896
   0.47305  -0.06081   5.03896
   0.47305  -0.77906   5.27838
   0.71247  -0.30023   4.32070
   0.71247  -0.53965   4.08129
   1.19131  -0.53965   3.60245
   1.67015  -0.53965   2.64477
   1.90957  -0.53965   2.64477
   2.14899  -0.77906   2.16593
   2.38840  -0.53965   1.44768
   3.10666  -1.01848   0.49000
   3.34608  -0.53965  -0.22826
   3.34608  -1.25790  -0.46767
   3.82492  -1.01848  -0.70709
   3.82492  -1.01848  -1.66477
   3.34608  -1.25790  -1.90419
   3.10666  -1.49732  -2.14361
   3.58550  -1.73674  -2.62245
   3.10666  -1.01848  -3.10128
   2.62782  -1.01848  -3.58012
   2.38840  -1.25790  -3.58012
   2.62782  -1.01848  -5.01663
   2.38840  -0.53965  -5.25605
   2.14899  -1.01848  -5.25605
   1.67015  -1.25790  -5.01663
   1.67015  -1.01848  -5.01663
   1.43073  -0.77906  -5.49547
   1.19131  -1.01848  -5.25605
   0.71247  -1.25790  -4.53780
   0.95189  -1.49732  -4.77722
   0.71247  -1.01848  -4.53780
   0.95189  -1.49732  -4.05896
   0.71247  -1.49732  -3.81954
   0.95189  -1.01848  -3.58012
   1.90957  -1.01848  -3.34070
   1.43073  -0.77906  -2.38303
   1.67015  -0.53965  -2.38303
   2.14899  -0.77906  -1.90419
   2.86724  -0.53965  -2.14361
   2.86724  -0.77906  -1.18593
   3.58550  -0.30023  -1.90419
   3.34608  -0.30023  -1.18593
   3.58550  -0.06081  -1.90419
   3.58550   0.89687  -2.38303
   3.58550   0.65745  -2.14361
   4.30376   0.89687  -2.62245
   4.30376   0.89687  -2.86186
   3.58550   1.61513  -3.34070
   3.58550   1.61513  -3.34070
   3.58550   1.13629  -3.58012
   3.58550   1.13629  -3.58012
   3.34608   1.13629  -3.34070
   2.62782   1.13629  -3.34070
   2.38840   1.13629  -3.58012
   2.14899   1.13629  -3.58012
   1.67015   0.65745  -3.10128
   1.43073   0.41803  -2.62245
   1.19131   0.17861  -2.14361
   0.95189   0.41803  -2.38303
   1.19131  -0.30023  -2.14361
   0.95189  -0.30023  -1.42535
   0.47305  -0.53965  -0.70709
   0.23363  -0.30023   0.01116
  -0.24520  -0.30023   0.96884
  -0.24520  -0.30023   1.44768
  -0.24520  -0.30023   2.16593
  -0.00578  -0.06081   2.16593
  -0.48462   0.65745   2.64477
  -0.00578  -0.06081   2.88419
  -0.24520   0.41803   3.12361
  -0.48462   0.41803   3.60245
  -0.24520   0.41803   3.60245
  -0.00578   0.89687   4.08129
  -0.00578   0.89687   3.84187
  -0.24520   1.13629   3.84187
  -0.24520   0.89687   3.84187
  -1.20288   1.13629   4.32070
  -1.44230   1.37571   4.08129
  -1.92114   1.61513   4.32070
  -2.16056   1.61513   4.32070
  -2.39997   1.85454   4.79954
  -2.63939   1.37571   4.32070
  -2.63939   2.09396   4.32070
  -3.35765   1.61513   4.32070
  -3.35765   1.13629   4.79954
  -3.83649   1.37571   4.56012
  -4.07591   1.61513   4.32070
  -4.07591   1.13629   4.56012
  -4.31533   0.65745   4.32070
  -4.79416   0.65745   3.84187
  -5.03358   0.41803   3.60245
  -5.27300   0.41803   3.84187
  -4.55474  -0.30023   3.60245
  -4.31533  -0.06081   3.12361
  -4.55474  -0.30023   3.12361
  -4.31533  -1.25790   2.88419
  -4.07591  -0.77906   2.16593
  -3.83649  -0.53965   1.44768
  -3.35765  -1.25790   1.20826
  -3.59707  -1.25790   1.20826
  -3.59707  -1.25790   0.72942
  -3.35765  -1.25790   0.01116
  -3.59707  -1.01848   0.25058
  -3.35765  -1.73674  -0.22826
  -2.63939  -1.01848  -0.22826
  -2.39997  -1.49732  -0.70709
  -2.16056  -1.25790  -0.94651
  -1.92114  -1.01848  -0.70709
  -1.44230  -1.01848  -0.94651
  -1.44230  -1.01848  -1.42535
  -1.20288  -0.06081  -1.90419
  -0.96346  -0.30023  -1.66477
  -0.48462  -0.30023  -1.42535
  -0.48462  -0.30023  -1.42535
  -0.00578  -0.06081  -1.42535
  -0.48462  -0.06081  -0.70709
   0.23363   0.17861  -0.94651
   0.23363   0.17861  -0.22826
   0.47305   0.41803   0.01116
   0.23363   0.65745   0.25058
   0.47305   0.17861   0.96884
   0.47305   0.65745   0.96884
   0.23363   1.13629   0.49000
  -0.24520   1.13629   0.96884
  -0.48462   0.65745   1.20826
  -0.24520   0.65745   0.72942
  -0.72404   0.65745   0.96884
  -0.24520  -0.06081   1.20826
  -0.48462   0.17861   1.20826
  -0.72404   0.17861   1.20826
  -1.68172   0.41803   0.96884
  -1.44230  -0.06081   0.96884
  -1.68172  -0.30023   0.72942
  -1.68172  -0.53965   0.96884
  -1.92114  -0.30023   0.49000
  -2.39997  -0.77906   0.25058
  -2.63939  -0.06081  -0.22826
  -2.63939  -0.53965  -0.22826
  -2.87881  -1.01848  -0.22826
  -3.35765  -0.77906  -0.22826
  -3.59707  -0.77906  -0.46767
  -4.07591  -0.77906  -0.94651
  -3.83649  -1.01848  -1.66477
  -4.07591  -1.01848  -1.18593
  -4.07591  -1.01848  -0.94651
  -4.55474  -1.01848  -1.18593
  -5.03358  -1.01848  -1.18593
  -5.03358  -1.01848  -0.94651
  -4.79416  -0.77906  -1.18593
  -4.79416  -1.01848  -0.70709
  -4.79416  -1.25790  -0.22826
  -5.03358  -0.77906  -0.22826
  -4.79416  -1.25790  -0.22826
  -4.79416  -1.01848  -0.22826
  -4.79416  -1.25790  -0.22826
  -4.55474  -1.01848  -0.46767
  -4.79416  -0.77906  -0.46767
  -4.31533  -0.53965  -0.94651
  -4.31533  -0.53965  -0.70709
  -3.83649  -0.77906  -1.18593
  -3.35765  -0.30023  -1.90419
  -3.11823  -0.53965  -1.90419
  -2.63939  -0.77906  -1.66477
  -2.63939  -0.06081  -2.14361
  -2.16056   0.17861  -2.86186
  -1.68172   0.41803  -2.38303
  -1.44230   0.41803  -2.62245
  -1.44230   0.41803  -2.62245
  -0.72404   0.41803  -2.86186
  -0.72404   0.65745  -2.62245
  -0.24520   0.65745  -2.38303
  -0.00578   0.41803  -1.42535
  -0.00578  -0.06081  -0.94651
   0.23363   0.65745  -1.18593
   0.23363   0.89687  -0.70709
   0.47305   0.65745   0.01116
   1.19131   0.65745   0.72942
   1.43073   0.41803   1.20826
   1.19131   0.89687   1.44768
   1.43073   0.41803   2.40535
   1.90957   0.17861   2.16593
   2.14899   0.41803   2.40535
   2.14899   0.41803   2.88419
   2.38840   0.17861   3.12361
   2.14899  -0.06081   3.36303
   1.67015   0.41803   3.12361
   1.43073  -0.06081   3.60245
   1.67015  -0.30023   4.08129
   0.95189  -0.06081   3.84187
   0.47305   0.41803   4.08129
   0.23363   0.17861   4.32070
   0.23363   0.65745   4.56012
  -0.24520   0.65745   4.32070
  -0.72404   0.89687   4.56012
  -0.96346   0.89687   4.56012
  -1.68172   1.13629   4.32070
  -1.92114   1.61513   3.60245
  -2.16056   1.85454   3.84187
  -2.16056   1.37571   3.60245
  -2.39997   1.37571   3.36303
  -2.16056   1.61513   3.12361
  -2.63939   2.09396   2.16593
  -2.39997   2.33338   1.68710
  -2.39997   1.85454   1.44768
  -2.39997   1.61513   1.20826
  -2.16056   1.61513   0.49000
  -2.63939   1.61513   0.49000
  -1.92114   1.37571   0.01116
  -1.68172   1.85454  -0.22826
  -1.68172   1.13629  -0.46767
  -1.68172   1.61513  -0.46767
  -1.20288   0.89687  -0.70709
  -1.20288   1.13629  -0.70709
  -1.20288   0.65745  -0.70709
  -1.20288   0.17861  -0.46767
  -0.72404   0.17861  -0.94651
  -1.44230  -0.30023  -0.94651
  -1.68172  -0.53965  -0.94651
  -1.92114  -0.53965  -1.18593
  -1.68172  -0.77906  -1.42535
  -1.92114  -0.77906  -1.66477
  -1.92114  -1.49732  -1.18593
  -1.68172  -1.49732  -1.66477
  -1.92114  -1.25790  -2.38303
  -2.16056  -1.25790  -2.38303
  -1.68172  -1.25790  -1.90419
  -1.44230  -1.73674  -2.14361
  -1.44230  -1.25790  -2.62245
  -1.44230  -0.77906  -2.86186
  -1.20288  -0.77906  -3.10128
  -0.48462  -1.49732  -2.62245
   0.47305  -1.25790  -2.86186
   1.19131  -1.49732  -2.62245
   1.19131  -1.49732  -2.86186
   1.67015  -1.25790  -2.62245
   2.62782  -1.01848  -2.62245
   3.58550  -0.77906  -2.86186
   3.82492  -1.01848  -2.62245
   4.30376  -1.25790  -2.38303
   5.02201  -1.25790  -1.90419
   5.50085  -0.77906  -2.38303
   5.74027  -0.77906  -2.14361
   6.45853  -0.77906  -1.66477
   6.69795  -0.77906  -1.42535
   6.45853  -0.53965  -1.18593
   6.69795  -0.30023  -0.70709
   6.93736  -0.06081  -0.70709
   6.69795   0.17861  -0.22826
   6.93736  -0.06081  -0.22826
   5.97969   0.41803   0.01116
   5.74027   0.17861   0.01116
   5.74027   0.65745  -0.22826
   5.74027   0.89687  -0.22826
   5.74027   0.65745   0.01116
   5.97969   0.65745   0.25058
   5.26143   1.13629   0.01116
   4.30376   1.61513  -0.22826
   4.54318   1.85454  -0.46767
   4.78259   1.37571  -0.22826
   4.06434   1.37571  -0.46767
   3.34608   1.37571  -0.70709
   3.10666   1.13629  -0.46767
   3.10666   1.13629  -0.70709
   3.10666   1.13629  -1.18593
   2.86724   1.13629  -0.94651
   1.90957   0.89687  -1.42535
   1.67015   0.89687  -0.94651
   2.14899   0.41803  -1.42535
   1.67015   0.65745  -1.42535
   1.67015  -0.06081  -1.18593
   1.43073  -0.06081  -1.18593
   1.43073  -0.06081  -1.66477
   1.19131  -0.06081  -1.66477
   0.95189  -0.06081  -1.66477
   1.43073  -0.53965  -1.66477
   1.19131   0.17861  -1.90419
   0.95189  -0.30023  -1.66477
   0.71247  -0.30023  -0.94651
   0.47305  -0.30023  -1.18593
   0.95189  -0.06081  -1.18593
   0.71247  -0.06081  -1.18593
  -0.00578   0.17861  -0.94651
  -0.48462   0.17861  -0.70709
  -0.48462   0.41803  -0.46767
  -0.96346   0.65745   0.01116
  -0.72404   0.41803   0.25058
  -0.72404   0.65745   0.01116
  -0.96346   0.17861   0.25058
  -1.44230   0.17861   0.25058
  -1.20288  -0.06081   0.01116
  -1.20288  -0.06081   0.01116
  -1.20288  -0.30023  -0.22826
  -1.44230  -0.77906   0.01116
  -1.20288  -1.25790   0.25058
  -1.20288  -1.49732   0.25058
  -0.72404  -1.49732   0.01116
  -0.96346  -1.49732   0.01116
  -0.48462  -1.97616   0.96884
  -0.24520  -2.45500   0.72942
  -0.72404  -1.97616   0.96884
  -0.48462  -1.97616   0.96884
   0.23363  -1.73674   0.96884
   0.71247  -1.97616   0.96884
   0.71247  -1.25790   1.20826
   0.95189  -1.73674   1.92651
   1.19131  -1.01848   1.68710
   1.43073  -1.01848   1.44768
   0.95189  -0.53965   1.44768
   1.43073  -0.30023   1.68710
   1.90957  -0.53965   1.68710
   1.90957  -0.30023   1.44768
   1.67015   0.17861   1.20826
   1.90957   0.41803   1.20826
   1.90957  -0.30023   1.44768
   2.14899   0.17861   1.20826
   2.38840   0.89687   0.72942
   2.14899   1.13629   0.72942
   2.14899   1.13629   0.49000
   2.86724   1.61513  -0.22826
   2.86724   1.85454  -0.22826
   2.62782   1.61513   0.01116
   2.62782   1.61513   0.01116
   2.86724   1.85454  -0.46767
   2.86724   2.09396  -0.22826
   3.34608   1.85454  -0.70709
   3.34608   1.61513  -0.22826
   3.34608   1.85454  -0.46767
   2.86724   1.85454  -0.46767
   2.62782   1.37571  -0.22826
   2.38840   0.89687   0.01116
   2.86724   0.65745   0.01116
   1.90957   0.65745   0.01116
   1.90957   0.41803   0.25058
   1.43073   0.41803   0.01116
   1.43073   0.41803  -0.22826
   1.67015   0.17861  -0.22826
   1.19131  -0.30023  -0.22826
   1.43073  -0.30023  -0.22826
   0.71247  -0.53965   0.01116
   0.47305  -0.30023  -0.46767
   0.23363  -0.53965  -0.22826
   0.47305  -0.30023  -0.94651
  -0.00578  -0.06081  -1.18593
  -0.24520  -1.01848  -1.66477
  -0.48462  -0.53965  -1.66477
  -0.48462  -1.01848  -1.66477
  -0.24520  -1.01848  -2.14361
  -0.48462  -1.49732  -1.90419
  -0.24520  -1.49732  -2.14361
  -0.24520  -1.25790  -2.62245
  -0.48462  -1.49732  -2.62245
  -0.48462  -1.49732  -2.62245
  -0.24520  -1.73674  -2.62245
   0.23363  -1.49732  -2.86186
   0.23363  -1.49732  -2.86186
  -0.00578  -1.49732  -2.62245
   0.47305  -1.97616  -2.62245
   0.95189  -1.97616  -2.86186
   0.71247  -1.49732  -2.38303
   0.47305  -1.73674  -1.90419
   0.47305  -1.97616  -1.66477
   1.19131  -1.49732  -1.66477
   0.71247  -1.49732  -1.42535
   0.71247  -1.49732  -0.94651
   0.95189  -1.25790  -0.70709
   0.95189  -1.01848  -0.70709
   0.71247  -0.77906   0.01116
   0.95189  -1.01848   0.49000
   0.95189  -0.53965   0.49000
   1.19131  -0.53965   0.72942
   0.71247  -0.06081   1.44768
   0.23363  -0.06081   1.68710
   0.47305   0.17861   1.20826
   0.71247   0.41803   1.44768
   0.23363   0.17861   1.20826
   0.23363   0.41803   1.68710
   0.23363   0.17861   1.20826
  -0.24520   0.41803   1.20826
  -0.24520   0.41803   0.72942
  -0.96346  -0.06081   1.20826
  -0.24520  -0.30023   0.72942
  -0.96346  -0.06081   0.72942
  -1.68172  -0.06081   0.49000
  -1.92114  -0.06081   0.01116
  -1.68172  -0.53965  -0.22826
  -1.92114  -0.06081  -0.70709
  -2.39997  -0.06081  -0.94651
  -3.11823  -0.06081  -1.18593
  -2.39997  -0.30023  -1.42535
  -2.63939  -0.30023  -1.66477
  -3.11823  -0.06081  -2.14361
  -2.87881  -0.77906  -1.66477
  -3.35765  -0.53965  -1.42535
  -3.35765   0.17861  -1.90419
  -3.59707   0.41803  -1.66477
  -3.35765  -0.06081  -1.18593
