********************************************************************************
               CENTRO DE INSTRUMENTACION Y REGISTRO SISMICO  A.C.  
                       Coordinacion de Servicios Tecnicos
     Anaxagoras 814, Col. Narvarte, Benito Juarez, C.P. 03020 Mexico, D.F.
            Tels. 687 45 42/ 687 45  82             Fax. 669 25 12
********************************************************************************
ARCHIVO ESTANDAR DE ACELERACION:
VERSION DEL FORMATO                    : 2.0
NOMBRE DEL ARCHIVO                     : AP689607.151
FECHA Y HORA DE CREACION               : 27/MAR/98, 13:56
REF. CATALOGO ACELEROGRAMAS, SMIS 1996 : REGISTRO No.     /PAG.


================================================================================
DATOS DE LA ESTACION:
NOMBRE DE LA ESTACION                  : APATLACO
CLAVE DE LA ESTACION                   : AP68
LOCALIZACION DE LA ESTACION            : Jardin de Ni¤os Juan Bautista de la
                                       : Salle Canal de Apatlaco y Ahuehuetes,
                                       : Col Iztacalco Infonavit, Iztacalc
                                       : 
                                       :
COORDENADAS DE LA ESTACION             : 19.381 LAT. N 
                                       : 99.107 LONG. W 
ALTITUD (msnm)                         : 2232
TIPO DE SUELO                          : ARCILLOSO, ZONA LAGO
                                       : 
                                       : 
INSTITUCION RESPONSABLE                : CIRES
                                       :

================================================================================
DATOS DEL ACELEROGRAFO:
MODELO DEL ACELEROGRAFO                : DCA-333
NUMERO DE SERIE DEL ACELEROGRAFO       : 255
NUMERO DE CANALES                      : 3
ORIENTACION C1-C6 (rumbo;orientacion)  : /N00E/+V/N90W
ORIENTACION C7-C12 (rumbo;orientacion) :
VEL. DE MUESTREO, C1-C6 (muestras/s)   : /100/100/100
VEL. DE MUESTREO, C7-C12 (muestras/s)  :
ESC. COMPLETA DE SENSORES, C1-C6, (g)  : /0.5/0.5/0.5
ESC. COMPLETA DE SENSORES, C7-C12, (g) :
FREC. NAT. DE SENSORES, C1-C6, (Hz)    : /30/30/30
FREC. NAT. DE SENSORES, C7-C12, (Hz)   :
AMORTIGUAMIENTO DE SENSORES, C1-C6     : /0.780/0.700/0.678
AMORTIGUAMIENTO DE SENSORES, C7-C12    :
INTERVALO DE MUESTREO, C1-C6, (s)      : /0.01/0.01/0.01
INTERVALO DE MUESTREO, C7-C12, (s)     :
UMBRAL DE DISPARO, C1-C6, (Gal)        : /3.9/3.9/3.9
UMBRAL DE DISPARO, C7-C12, (Gal)       :
MEMORIA DE PREEVENTO (s)               : 4
TIEMPO DE POSEVENTO (s)                : 15


================================================================================
DATOS DEL SISMO:
FECHA DEL SISMO (GMT)                  : 15/JUL/96
HORA EPICENTRO (GMT)                   : 21:23:38:5
MAGNITUD(ES)                           : /Ms=6.5
COORDENADAS DEL EPICENTRO              : 17.4 LAT. N
                                       : 101.1 LONG. W
PROFUNDIDAD FOCAL (km)                 : 20.0
FUENTE DE LOS DATOS EPICENTRALES       : SSN
                                       : INSTITUTO DE GEOFISICA, UNAM

================================================================================
DATOS DE ESTE REGISTRO:
HORA DE LA PRIMERA MUESTRA (GMT)       : 21:25:04.26
EXACTITUD DEL TIEMPO (s)               : 0.01
DURACION DEL REGISTRO (s), C1-C6       : /100.92/100.92/100.92
DURACION DEL REGISTRO (s), C7-C12      :
NUM. TOTAL DE MUESTRAS, C1-C6          : /10092/10092/10092
NUM. TOTAL DE MUESTRAS, C7-C12         :
ACEL. MAX. (Gal), C1-C6                : /17.51749/4.89198/12.89759
ACEL. MAX., C1-C6, EN LA MUESTRA       :
ACEL. MAX. (Gal), C7-C12               :
ACEL. MAX., C7-C12, EN LA MUESTRA      :
UNIDADES DE LOS DATOS                  : Gal (cm/s/s)
FACTOR DE DECIMACION                   : 1
FORMATO DATOS (FORTRAN,10 campos/dato) : 3F10.5


================================================================================
CALIDAD DEL ACELEROGRAMA:
REGISTRO DIGITAL COMPLETO CON TIEMPO ABSOLUTO CORRECTO.


================================================================================
COMENTARIOS:














================================================================================
DATOS DE ACELERACION:
---------+---------+---------+---------+---------+---------+---------+---------+
   CANAL-1   CANAL-2   CANAL-3   CANAL-4   CANAL-5   CANAL-6   CANAL-7   CANAL-8
      N00E        +V      N90W
---------+---------+---------+---------+---------+---------+---------+---------+
[...]
  -0.51874   1.33291   6.43328
  -1.23700   1.57233   6.43328
  -2.19467   2.05117   6.43328
  -2.91293   2.53001   6.43328
  -3.87061   2.76943   6.43328
  -4.82828   3.00885   6.43328
  -6.02538   3.24826   6.43328
  -6.98305   3.24826   6.43328
  -7.94073   3.24826   6.43328
  -8.89840   3.24826   6.19386
  -9.85608   3.48768   6.19386
 -10.57434   3.48768   6.19386
 -11.29259   3.48768   5.95444
 -12.01085   3.48768   5.95444
 -12.48969   3.24826   5.71502
 -12.96853   3.24826   5.71502
 -13.20795   3.24826   5.47561
 -13.44736   3.24826   5.47561
 -13.44736   3.24826   5.23619
 -13.44736   3.24826   4.99677
 -13.44736   3.24826   4.75735
 -13.44736   3.00885   4.51793
 -13.44736   3.00885   4.27851
 -13.20795   2.76943   4.03909
 -13.20795   2.76943   3.79967
 -12.96853   2.53001   3.32083
 -12.72911   2.53001   3.08142
 -12.48969   2.29059   2.84200
 -12.25027   2.05117   2.36316
 -12.01085   2.05117   2.12374
 -11.77143   1.57233   1.64490
 -11.53201   1.33291   1.16606
 -11.29259   1.09349   0.68723
 -11.29259   1.09349   0.44781
 -11.05317   0.85407  -0.03103
 -10.81376   0.61466  -0.50987
 -10.81376   0.37524  -0.74929
 -10.57434   0.37524  -1.22813
 -10.33492   0.13582  -1.22813
  -9.85608   0.13582  -1.46754
  -9.37724   0.13582  -1.70696
  -8.89840  -0.10360  -1.70696
  -8.41957  -0.10360  -1.70696
  -7.94073  -0.34302  -1.70696
  -7.46189  -0.34302  -1.46754
  -6.98305  -0.34302  -1.22813
  -6.50421  -0.34302  -1.22813
  -6.26480  -0.58244  -0.98871
  -6.26480  -0.58244  -0.74929
  -6.02538  -0.82186  -0.50987
  -5.78596  -0.82186  -0.27045
  -5.78596  -0.82186   0.20839
  -5.78596  -1.06128   0.44781
  -5.78596  -1.06128   0.68723
  -6.02538  -1.06128   0.92665
  -6.26480  -1.06128   1.40548
  -6.50421  -1.30070   1.64490
  -6.74363  -1.30070   2.12374
  -7.22247  -1.30070   2.36316
  -7.46189  -1.30070   2.60258
  -7.94073  -1.54011   2.84200
  -8.41957  -1.54011   3.32083
  -8.89840  -1.54011   3.56025
  -9.37724  -1.77953   3.79967
  -9.85608  -1.77953   4.03909
 -10.09550  -1.77953   4.27851
 -10.33492  -1.77953   4.27851
 -10.57434  -1.77953   4.51793
 -11.05317  -1.77953   4.51793
 -11.29259  -1.77953   4.51793
 -11.53201  -1.77953   4.75735
 -11.77143  -1.54011   4.51793
 -11.77143  -1.54011   4.27851
 -12.01085  -1.30070   4.03909
 -12.01085  -1.06128   3.56025
 -12.01085  -1.06128   3.32083
 -12.01085  -0.82186   2.84200
 -12.25027  -0.58244   2.60258
 -12.25027  -0.34302   2.36316
 -12.01085  -0.10360   2.12374
 -12.01085  -0.10360   1.64490
 -11.77143   0.13582   1.40548
 -11.77143   0.13582   1.16606
 -11.53201   0.13582   0.68723
 -11.53201   0.37524   0.44781
 -11.29259   0.37524   0.44781
 -11.05317   0.37524   0.20839
 -10.57434   0.37524   0.20839
 -10.33492   0.37524  -0.03103
 -10.09550   0.37524  -0.03103
  -9.61666   0.37524   0.20839
  -9.37724   0.13582   0.20839
  -9.13782  -0.10360   0.44781
  -8.65899  -0.34302   0.44781
  -8.41957  -0.58244   0.68723
  -7.94073  -0.82186   1.16606
  -7.46189  -1.06128   1.40548
  -6.98305  -1.30070   1.64490
  -6.50421  -1.54011   1.88432
  -6.02538  -1.77953   2.36316
  -5.54654  -2.01895   2.36316
  -4.82828  -2.25837   2.60258
  -4.11003  -2.49779   2.84200
  -3.63119  -2.73721   3.08142
  -2.91293  -2.73721   3.08142
  -2.19467  -2.97663   3.08142
  -1.71584  -2.97663   3.08142
  -0.99758  -2.97663   2.84200
  -0.51874  -2.97663   2.60258
  -0.03990  -2.73721   2.36316
   0.43893  -2.49779   1.88432
   0.91777  -2.25837   1.40548
   1.39661  -2.01895   0.92665
   1.63603  -1.54011   0.44781
   1.63603  -1.30070  -0.03103
   1.87545  -0.82186  -0.74929
   1.87545  -0.34302  -1.46754
   1.87545   0.13582  -2.18580
   1.87545   0.37524  -3.14348
   1.63603   0.85407  -3.86173
   1.15719   1.09349  -4.81941
   0.91777   1.57233  -5.53767
   0.67835   1.81175  -6.25592
   0.19952   2.05117  -6.97418
  -0.27932   2.29059  -7.45302
  -0.75816   2.53001  -7.93186
  -1.47642   2.76943  -8.17127
  -2.19467   3.00885  -8.65011
  -2.91293   3.24826  -8.65011
  -3.39177   3.48768  -8.88953
  -3.87061   3.72710  -8.88953
  -4.34944   3.72710  -8.65011
  -4.82828   4.20594  -8.41069
  -5.06770   4.44536  -8.41069
  -5.30712   4.44536  -8.17127
  -5.54654   4.68478  -7.69244
  -5.78596   4.68478  -7.45302
  -5.78596   4.68478  -6.97418
  -5.54654   4.68478  -6.49534
  -5.54654   4.68478  -6.01650
  -5.30712   4.68478  -5.29825
  -5.06770   4.44536  -4.81941
  -4.82828   4.44536  -4.34057
  -4.34944   4.44536  -4.10115
  -4.11003   4.20594  -3.62231
  -3.87061   4.20594  -3.14348
  -3.39177   4.20594  -2.90406
  -3.15235   4.20594  -2.42522
  -2.67351   4.20594  -2.18580
  -2.43409   4.20594  -1.94638
  -2.19467   3.96652  -1.94638
  -1.95525   3.96652  -1.94638
  -1.71584   3.72710  -1.94638
  -1.47642   3.72710  -1.70696
  -0.99758   3.72710  -1.70696
  -0.99758   3.48768  -1.70696
  -0.75816   3.24826  -1.70696
  -0.51874   3.00885  -1.70696
  -0.27932   2.76943  -1.46754
  -0.27932   2.29059  -1.22813
  -0.03990   1.81175  -0.98871
   0.43893   1.33291  -0.74929
   0.91777   0.85407  -0.50987
   1.39661   0.61466  -0.27045
   1.87545   0.13582  -0.03103
   2.59371  -0.34302   0.44781
   3.31196  -0.58244   0.44781
   4.03022  -1.06128   0.92665
   4.98789  -1.30070   1.40548
   5.94557  -1.77953   1.64490
   6.90325  -2.01895   1.88432
   7.86092  -2.49779   2.12374
   8.81860  -2.73721   2.36316
   9.77627  -2.97663   2.36316
  10.97337  -3.21605   2.60258
  11.69163  -3.45547   2.60258
  12.88872  -3.69489   2.84200
  13.84640  -3.93430   2.84200
  14.56465  -3.93430   2.60258
  15.28291  -4.17372   2.60258
  16.00117  -4.17372   2.36316
  16.48000  -4.17372   1.88432
  16.71942  -4.41314   1.40548
  16.95884  -4.41314   0.92665
  17.19826  -4.41314   0.44781
  17.19826  -4.17372   0.20839
  17.19826  -4.17372  -0.27045
  17.19826  -3.93430  -0.74929
  16.95884  -3.93430  -1.46754
  16.71942  -3.69489  -1.94638
  16.48000  -3.45547  -2.66464
  16.00117  -3.21605  -3.14348
  15.28291  -2.97663  -3.86173
  14.56465  -2.49779  -4.34057
  13.84640  -2.25837  -4.81941
  13.36756  -2.01895  -5.29825
  12.64930  -1.77953  -5.77709
  11.93104  -1.54011  -6.25592
  11.21279  -1.30070  -6.73476
  10.49453  -1.06128  -7.21360
   9.77627  -0.58244  -7.45302
   8.81860  -0.34302  -7.69244
   8.10034  -0.10360  -7.93186
   7.38208   0.37524  -8.17127
   6.66383   0.61466  -8.41069
   5.94557   0.85407  -8.65011
   5.46673   1.09349  -8.65011
   4.98789   1.57233  -8.88953
   4.50906   1.81175  -8.88953
   4.26964   2.05117  -8.88953
   4.03022   2.29059  -8.65011
   3.79080   2.76943  -8.65011
   3.79080   3.00885  -8.41069
   3.79080   3.24826  -8.41069
   3.79080   3.24826  -8.17127
   3.79080   3.24826  -7.93186
   4.03022   3.48768  -7.45302
   4.50906   3.48768  -7.21360
   4.74848   3.48768  -6.97418
   5.22731   3.48768  -6.49534
   5.46673   3.24826  -5.77709
   5.70615   3.24826  -5.29825
   6.18499   3.00885  -4.57999
   6.42441   2.76943  -3.86173
   6.66383   2.53001  -3.14348
   7.14267   2.05117  -2.66464
   7.38208   1.81175  -1.94638
   7.62150   1.33291  -1.22813
   7.86092   0.85407  -0.74929
   8.10034   0.37524  -0.50987
   8.33976   0.13582  -0.03103
   8.33976  -0.34302   0.20839
   8.57918  -0.58244   0.44781
   8.81860  -1.06128   0.44781
   9.05802  -1.54011   0.44781
   9.05802  -2.01895   0.68723
   9.29744  -2.25837   0.68723
   9.29744  -2.73721   0.44781
   9.53685  -2.97663   0.44781
   9.53685  -3.21605   0.44781
   9.53685  -3.45547   0.44781
   9.77627  -3.69489   0.44781
   9.77627  -3.69489   0.20839
   9.77627  -3.93430  -0.03103
   9.77627  -3.93430  -0.27045
   9.77627  -3.93430  -0.74929
   9.53685  -3.69489  -0.98871
   9.29744  -3.69489  -1.22813
   9.29744  -3.69489  -1.46754
   9.05802  -3.69489  -1.94638
   9.05802  -3.45547  -2.18580
   8.81860  -3.45547  -2.18580
   8.81860  -3.21605  -2.42522
   8.57918  -2.97663  -2.42522
   8.57918  -2.73721  -2.18580
   8.57918  -2.25837  -2.18580
   8.57918  -2.01895  -1.94638
   8.33976  -1.77953  -1.70696
   8.33976  -1.54011  -1.46754
   8.10034  -1.30070  -1.22813
   8.10034  -1.06128  -0.98871
   8.10034  -0.82186  -0.50987
   7.86092  -0.34302  -0.27045
   7.38208  -0.10360  -0.03103
   7.14267   0.13582   0.20839
   6.66383   0.37524   0.44781
   6.18499   0.61466   0.44781
   5.94557   0.85407   0.44781
   5.94557   1.33291   0.44781
   5.46673   1.81175   0.44781
   5.22731   2.29059   0.44781
   4.50906   2.53001   0.44781
   3.79080   2.76943   0.44781
   3.31196   3.00885   0.44781
   3.07254   3.00885   0.44781
   3.07254   3.24826   0.44781
   2.83312   3.24826   0.44781
   2.59371   3.24826   0.44781
   2.11487   3.24826   0.44781
   1.63603   3.00885   0.44781
   1.39661   2.53001   0.44781
   1.15719   2.29059   0.44781
   1.15719   2.05117   0.68723
   1.15719   1.81175   0.92665
   0.91777   1.57233   1.16606
   0.67835   1.09349   1.40548
   0.19952   0.61466   1.88432
  -0.03990   0.13582   2.12374
  -0.03990  -0.34302   2.36316
  -0.03990  -0.82186   2.84200
  -0.03990  -1.30070   3.08142
  -0.27932  -1.54011   3.56025
  -0.27932  -1.77953   4.03909
  -0.51874  -2.25837   4.27851
  -0.99758  -2.49779   4.75735
  -1.23700  -2.97663   4.99677
  -1.71584  -3.21605   5.23619
  -1.71584  -3.45547   5.47561
  -1.71584  -3.69489   5.71502
  -1.71584  -3.93430   5.95444
  -1.71584  -3.93430   6.19386
  -1.71584  -3.69489   6.19386
  -1.71584  -3.69489   6.19386
  -1.71584  -3.69489   6.19386
  -1.71584  -3.45547   6.43328
  -1.71584  -3.45547   6.43328
  -1.47642  -3.45547   6.43328
  -1.23700  -3.45547   6.43328
  -0.75816  -3.21605   6.43328
  -0.51874  -2.97663   6.43328
  -0.51874  -2.73721   6.19386
  -0.51874  -2.73721   5.95444
  -0.51874  -2.73721   5.95444
  -0.27932  -2.49779   5.71502
  -0.27932  -2.25837   5.47561
  -0.03990  -2.25837   5.23619
   0.19952  -1.77953   4.75735
  -0.03990  -1.54011   4.51793
  -0.27932  -1.54011   4.03909
  -0.51874  -1.30070   3.79967
  -0.75816  -1.30070   3.56025
  -0.75816  -1.06128   3.08142
  -0.75816  -0.82186   2.60258
  -0.75816  -0.58244   2.12374
  -0.75816  -0.34302   1.88432
  -0.99758   0.13582   1.64490
  -1.47642   0.61466   1.40548
  -1.95525   0.85407   1.40548
  -2.43409   0.85407   1.16606
  -3.15235   1.09349   0.92665
  -3.87061   1.09349   0.92665
  -4.34944   1.33291   0.92665
  -5.06770   1.57233   0.92665
  -6.02538   1.57233   0.92665
  -6.74363   1.81175   0.92665
  -7.70131   1.81175   0.92665
  -8.65899   2.05117   1.16606
  -9.61666   2.05117   1.16606
 -10.57434   2.29059   1.40548
 -11.29259   2.29059   1.40548
 -12.25027   2.53001   1.64490
 -12.96853   2.76943   1.88432
 -13.92620   3.00885   2.12374
 -14.88388   3.00885   2.12374
 -15.60213   3.00885   2.12374
 -16.32039   3.00885   2.36316
 -16.79923   3.00885   2.60258
 -17.27807   2.76943   2.84200
 -17.27807   2.53001   3.32083
 -17.51749   2.29059   3.56025
 -17.51749   2.05117   3.79967
 -17.51749   1.81175   4.03909
 -17.03865   1.57233   4.27851
 -16.55981   1.33291   4.51793
 -16.08097   1.33291   4.75735
 -15.84155   1.33291   4.99677
 -15.60213   1.33291   5.23619
 -15.36272   1.09349   5.71502
 -15.12330   0.61466   5.95444
 -14.88388   0.13582   6.19386
 -14.16562  -0.34302   6.19386
 -12.96853  -0.58244   6.19386
 -11.77143  -1.06128   5.95444
 -10.81376  -1.06128   5.71502
 -10.09550  -1.30070   5.47561
  -9.37724  -1.54011   5.47561
  -8.89840  -1.77953   5.23619
  -8.18015  -1.77953   4.99677
  -7.46189  -2.01895   4.75735
  -6.74363  -2.01895   4.75735
  -6.26480  -2.25837   4.27851
  -5.78596  -2.25837   4.03909
  -5.06770  -2.25837   3.79967
  -4.58886  -2.25837   3.56025
  -3.87061  -2.25837   3.32083
  -3.15235  -2.25837   3.08142
  -2.67351  -2.01895   2.84200
  -2.43409  -2.01895   2.60258
  -2.19467  -1.77953   2.36316
  -2.19467  -1.54011   2.36316
  -2.19467  -1.54011   2.36316
  -1.95525  -1.30070   2.12374
  -1.95525  -1.30070   2.12374
  -1.71584  -1.06128   1.88432
  -1.71584  -1.06128   1.64490
  -1.71584  -0.82186   1.40548
  -1.71584  -0.58244   1.16606
  -1.95525  -0.34302   1.16606
  -1.95525  -0.10360   0.92665
  -1.95525   0.13582   0.92665
  -1.95525   0.37524   0.68723
  -2.19467   0.61466   0.44781
  -2.19467   0.61466   0.44781
  -2.43409   0.85407   0.44781
  -2.43409   0.85407   0.20839
  -2.43409   1.09349  -0.03103
  -2.43409   1.33291  -0.27045
  -2.43409   1.33291  -0.50987
  -2.67351   1.33291  -0.50987
  -3.15235   1.33291  -0.74929
  -3.39177   1.33291  -0.74929
  -3.87061   1.33291  -0.74929
  -4.34944   1.33291  -0.50987
  -4.58886   1.09349  -0.50987
  -5.06770   1.09349  -0.27045
  -5.54654   1.09349   0.20839
  -5.78596   0.85407   0.44781
  -6.26480   0.85407   0.44781
  -6.50421   0.85407   0.68723
  -6.74363   0.85407   0.68723
  -7.22247   0.85407   1.16606
  -7.70131   0.85407   1.40548
  -8.18015   1.09349   1.64490
  -8.89840   0.85407   1.88432
  -9.37724   0.85407   2.12374
  -9.61666   0.85407   2.36316
  -9.85608   1.09349   2.36316
 -10.09550   1.09349   2.36316
 -10.33492   1.33291   2.36316
 -10.57434   1.33291   2.36316
 -10.81376   1.57233   2.36316
 -11.05317   1.57233   2.12374
 -11.05317   1.57233   2.12374
 -11.05317   1.81175   1.88432
 -11.05317   1.81175   1.64490
 -10.81376   1.81175   1.40548
 -10.81376   1.81175   1.40548
 -10.33492   1.81175   1.16606
 -10.09550   1.81175   0.92665
  -9.61666   1.81175   0.68723
  -9.13782   1.81175   0.68723
  -8.65899   1.57233   0.44781
  -8.41957   1.57233   0.44781
  -7.94073   1.33291   0.44781
  -7.22247   1.09349   0.44781
  -6.50421   1.09349   0.44781
  -5.78596   0.85407   0.44781
  -5.06770   0.85407   0.20839
  -4.34944   0.61466   0.20839
  -3.63119   0.61466   0.20839
  -2.91293   0.37524   0.20839
  -2.19467   0.13582  -0.03103
  -1.47642   0.13582  -0.03103
  -0.99758  -0.10360  -0.27045
  -0.51874  -0.10360  -0.50987
  -0.27932  -0.34302  -0.50987
  -0.03990  -0.58244  -0.74929
   0.19952  -0.58244  -0.98871
   0.43893  -0.58244  -1.22813
   0.67835  -0.58244  -1.22813
   0.67835  -0.58244  -1.46754
   0.67835  -0.82186  -1.70696
   0.67835  -0.82186  -2.18580
   0.67835  -0.82186  -2.42522
   0.67835  -0.82186  -2.66464
   0.67835  -0.58244  -2.90406
   0.67835  -0.58244  -3.14348
   0.67835  -0.34302  -3.62231
   0.43893  -0.10360  -4.10115
   0.43893   0.13582  -4.57999
   0.19952   0.13582  -5.05883
   0.19952   0.37524  -5.53767
   0.19952   0.61466  -6.01650
   0.19952   1.09349  -6.49534
   0.43893   1.09349  -6.97418
   0.43893   1.57233  -7.45302
   0.43893   1.57233  -7.93186
   0.67835   1.81175  -8.17127
   0.67835   2.05117  -8.41069
   0.67835   2.29059  -8.65011
   0.67835   2.29059  -8.65011
   0.91777   2.53001  -8.65011
   0.91777   2.76943  -8.41069
   1.15719   2.76943  -8.17127
   1.39661   3.00885  -7.93186
   1.87545   3.00885  -7.45302
   2.35429   3.24826  -6.97418
   2.59371   3.48768  -6.49534
   3.07254   3.72710  -6.01650
   3.31196   3.72710  -5.53767
   3.79080   3.72710  -4.81941
   4.26964   3.72710  -4.10115
   4.50906   3.72710  -3.38290
   4.98789   3.72710  -2.90406
   5.46673   3.72710  -2.18580
   5.70615   3.72710  -1.70696
   5.94557   3.48768  -1.22813
   6.18499   3.48768  -0.74929
   6.66383   3.24826  -0.50987
   6.90325   3.00885  -0.27045
   7.14267   2.53001  -0.03103
   7.14267   2.53001   0.20839
   7.14267   2.05117   0.20839
   7.38208   1.81175   0.20839
   7.38208   1.33291   0.20839
   7.38208   0.85407   0.20839
   7.62150   0.37524  -0.03103
   7.86092   0.13582  -0.03103
   7.86092  -0.34302  -0.27045
