********************************************************************************
               CENTRO DE INSTRUMENTACION Y REGISTRO SISMICO  A.C.  
                       Coordinacion de Servicios Tecnicos
     Anaxagoras 814, Col. Narvarte, Benito Juarez, C.P. 03020 Mexico, D.F.
            Tels. 687 45 42/ 687 45  82             Fax. 669 25 12
********************************************************************************
ARCHIVO ESTANDAR DE ACELERACION:
VERSION DEL FORMATO                    : 2.0
NOMBRE DEL ARCHIVO                     : AP689005.311
FECHA Y HORA DE CREACION               : ABRIL 18, 1996/17:05
REF. CATALOGO ACELEROGRAMAS, SMIS 1995 : REGISTRO No. 2187 /PAG. 214


================================================================================
DATOS DE LA ESTACION:
NOMBRE DE LA ESTACION                  : APATLACO
CLAVE DE LA ESTACION                   : AP68
LOCALIZACION DE LA ESTACION            : Jardin de Ni¤os Juan Bautista de la
                                       : Salle Canal de Apatlaco y Ahuehuetes,
                                       : Col Iztacalco Infonavit, Iztacalco
                                       : 
                                       :
COORDENADAS DE LA ESTACION             : 19.381 LAT. N 
                                       : 99.107 LONG. W 
ALTITUD (msnm)                         : 2232
TIPO DE SUELO                          : ARCILLOSO, ZONA LAGO
                                       : 
                                       : 
INSTITUCION RESPONSABLE                : CIRES
                                       :

================================================================================
DATOS DEL ACELEROGRAFO:
MODELO DEL ACELEROGRAFO                : DCA-333
NUMERO DE SERIE DEL ACELEROGRAFO       : 255
NUMERO DE CANALES                      : 3
ORIENTACION C1-C6 (rumbo;orientacion)  : /N00E/+V/N90W
ORIENTACION C7-C12 (rumbo;orientacion) :
VEL. DE MUESTREO, C1-C6 (muestras/s)   : /100/100/100
VEL. DE MUESTREO, C7-C12 (muestras/s)  :
ESC. COMPLETA DE SENSORES, C1-C6, (g)  : /0.5/0.5/0.5
ESC. COMPLETA DE SENSORES, C7-C12, (g) :
FREC. NAT. DE SENSORES, C1-C6, (Hz)    : /30/30/30
FREC. NAT. DE SENSORES, C7-C12, (Hz)   :
AMORTIGUAMIENTO DE SENSORES, C1-C6     : /0.700/0.700/0.700
AMORTIGUAMIENTO DE SENSORES, C7-C12    :
INTERVALO DE MUESTREO, C1-C6, (s)      : /0.01/0.01/0.01
INTERVALO DE MUESTREO, C7-C12, (s)     :
UMBRAL DE DISPARO, C1-C6, (Gal)        : /2.5/2.5/2.5
UMBRAL DE DISPARO, C7-C12, (Gal)       :
MEMORIA DE PREEVENTO (s)               : 4
TIEMPO DE POSEVENTO (s)                : 15


================================================================================
DATOS DEL SISMO:
FECHA DEL SISMO (GMT)                  : 31/MAY/90
HORA EPICENTRO (GMT)                   : 07:35:26,9 
MAGNITUD(ES)                           : /Mb=5.80/Ms=5.90/Mc=5.50
COORDENADAS DEL EPICENTRO              : 17.106 LAT. N 
                                       : 100.893 LONG. W
PROFUNDIDAD FOCAL (km)                 : 15.8 
FUENTE DE LOS DATOS EPICENTRALES       : INSTITUTO DE INGENIERIA UNAM
                                       : 

================================================================================
DATOS DE ESTE REGISTRO:
HORA DE LA PRIMERA MUESTRA (GMT)       : 07:36:39.20
EXACTITUD DEL TIEMPO (s)               : 0.01
DURACION DEL REGISTRO (s), C1-C6       : /122.46/122.46/122.46
DURACION DEL REGISTRO (s), C7-C12      :
NUM. TOTAL DE MUESTRAS, C1-C6          : /12246/12246/12246
NUM. TOTAL DE MUESTRAS, C7-C12         :
ACEL. MAX. (Gal), C1-C6                : /10.06/3.79/9.32
ACEL. MAX., C1-C6, EN LA MUESTRA       :
ACEL. MAX. (Gal), C7-C12               :
ACEL. MAX., C7-C12, EN LA MUESTRA      :
UNIDADES DE LOS DATOS                  : Gal (cm/s/s)
FACTOR DE DECIMACION                   : 1
FORMATO DATOS (FORTRAN,10 campos/dato) : 3F10.2


================================================================================
CALIDAD DEL ACELEROGRAMA:
REGISTRO DIGITAL AL QUE FALTA UNA PARTE AL INICIO, CON TIEMPO
ABSOLUTO.

================================================================================
COMENTARIOS:














================================================================================
DATOS DE ACELERACION:
---------+---------+---------+---------+---------+---------+---------+---------+
   CANAL-1   CANAL-2   CANAL-3   CANAL-4   CANAL-5   CANAL-6   CANAL-7   CANAL-8
      N00E        +V      N90W
---------+---------+---------+---------+---------+---------+---------+---------+
[...]
      5.03     -1.72     -0.22
      5.03     -1.72     -0.22
      5.27     -1.48     -0.22
      5.27     -1.24     -0.22
      5.27     -1.24     -0.22
      5.51     -1.00     -0.22
      5.51     -1.00     -0.22
      5.51     -0.76     -0.22
      5.51     -0.76     -0.22
      5.51     -0.52     -0.22
      5.51     -0.28     -0.22
      5.51     -0.04     -0.22
      5.51      0.19     -0.22
      5.27      0.43     -0.22
      5.27      0.43     -0.22
      5.27      0.67     -0.22
      5.27      0.91     -0.22
      5.27      1.15     -0.22
      5.27      1.39     -0.22
      5.03      1.63     -0.22
      4.80      1.87     -0.22
      4.56      1.87     -0.22
      4.56      2.11     -0.22
      4.32      2.11     -0.22
      4.08      2.11      0.02
      4.08      2.11      0.26
      3.84      2.11      0.26
      3.60      2.11      0.26
      3.36      2.11      0.49
      3.36      2.11      0.49
      3.12      2.11      0.73
      2.88      2.11      0.73
      2.88      2.11      0.97
      2.64      2.11      1.21
      2.40      2.11      1.45
      2.40      2.11      1.69
      2.40      1.87      1.93
      2.16      1.87      2.17
      2.16      1.87      2.41
      2.16      1.63      2.65
      2.16      1.63      2.89
      2.40      1.39      3.13
      2.40      1.39      3.13
      2.40      1.39      3.37
      2.64      1.15      3.61
      2.64      1.15      3.61
      2.88      0.91      3.61
      2.88      0.91      3.85
      2.88      0.67      3.61
      3.12      0.43      3.61
      3.36      0.43      3.61
      3.36      0.19      3.61
      3.60      0.19      3.37
      3.60     -0.04      3.13
      3.84     -0.04      2.89
      3.84     -0.28      2.65
      3.84     -0.28      2.41
      4.08     -0.52      2.17
      4.32     -0.52      1.69
      4.32     -0.52      1.45
      4.32     -0.52      1.21
      4.32     -0.52      0.73
      4.32     -0.76      0.49
      4.56     -0.76      0.26
      4.32     -0.76     -0.22
      4.32     -0.76     -0.22
      4.32     -1.00     -0.22
      4.32     -1.00     -0.46
      4.08     -1.00     -0.70
      4.08     -1.00     -0.70
      3.84     -1.00     -0.94
      3.84     -1.00     -0.94
      3.60     -1.00     -0.94
      3.60     -1.24     -0.70
      3.36     -1.00     -0.70
      3.12     -1.24     -0.70
      3.12     -1.24     -0.46
      2.88     -1.24     -0.22
      2.64     -1.24     -0.22
      2.64     -1.48     -0.22
      2.40     -1.48     -0.22
      2.40     -1.48     -0.22
      2.16     -1.48     -0.22
      1.92     -1.48     -0.22
      1.68     -1.48     -0.22
      1.68     -1.48     -0.22
      1.44     -1.48     -0.46
      1.20     -1.48     -0.46
      0.96     -1.48     -0.70
      0.96     -1.24     -0.94
      0.73     -1.48     -1.18
      0.73     -1.24     -1.42
      0.49     -1.24     -1.66
      0.49     -1.24     -1.90
      0.25     -1.24     -2.14
      0.01     -1.24     -2.38
      0.01     -1.24     -2.86
      0.01     -1.24     -3.10
      0.01     -1.24     -3.10
      0.01     -1.24     -3.34
     -0.23     -1.24     -3.58
     -0.23     -1.24     -3.58
     -0.23     -1.24     -3.58
     -0.23     -1.24     -3.58
     -0.23     -1.24     -3.58
     -0.23     -1.24     -3.58
     -0.23     -1.00     -3.34
     -0.23     -1.00     -3.34
     -0.23     -1.00     -3.10
     -0.23     -1.00     -2.86
     -0.23     -1.00     -2.86
     -0.23     -1.00     -2.62
     -0.23     -1.00     -2.38
     -0.23     -1.00     -2.14
     -0.23     -1.00     -1.90
      0.01     -1.00     -1.66
      0.01     -0.76     -1.66
      0.01     -0.76     -1.42
      0.01     -0.76     -1.42
      0.01     -0.76     -1.18
      0.01     -0.76     -1.18
      0.01     -0.76     -0.94
      0.01     -0.76     -0.94
      0.01     -0.76     -0.70
      0.25     -0.76     -0.70
      0.49     -0.52     -0.46
      0.49     -0.52     -0.46
      0.73     -0.52     -0.22
      0.73     -0.52     -0.22
      0.96     -0.28     -0.22
      0.96     -0.28     -0.22
      1.20     -0.28     -0.22
      1.20     -0.28     -0.22
      1.44     -0.28     -0.22
      1.44     -0.28      0.02
      1.68     -0.28      0.02
      1.68     -0.04      0.02
      1.92     -0.04      0.02
      1.92     -0.04      0.02
      1.92     -0.04      0.02
      1.92      0.19     -0.22
      1.92      0.19     -0.22
      1.92      0.19     -0.22
      1.92      0.43     -0.22
      1.68      0.43     -0.22
      1.68      0.67     -0.22
      1.44      0.67     -0.46
      1.44      0.91     -0.46
      1.20      0.91     -0.70
      1.20      1.15     -0.70
      0.96      1.15     -0.70
      0.73      1.15     -0.70
      0.49      1.39     -0.70
      0.25      1.39     -0.70
      0.01      1.39     -0.94
      0.01      1.39     -0.70
      0.01      1.63     -0.70
     -0.47      1.63     -0.70
     -0.71      1.63     -0.70
     -0.95      1.87     -0.46
     -1.19      1.87     -0.46
     -1.67      2.11     -0.46
     -1.91      2.11     -0.46
     -2.39      2.35     -0.22
     -2.63      2.35     -0.22
     -3.11      2.35     -0.22
     -3.35      2.35     -0.22
     -3.58      2.35     -0.22
     -4.06      2.35     -0.22
     -4.54      2.11     -0.22
     -4.78      2.11     -0.22
     -5.26      2.11     -0.22
     -5.50      2.11     -0.22
     -5.74      1.87      0.02
     -6.22      1.87      0.02
     -6.46      1.63      0.02
     -6.70      1.63      0.02
     -6.94      1.39      0.02
     -7.18      1.15      0.02
     -7.42      1.15      0.02
     -7.65      0.91      0.02
     -7.89      0.67      0.02
     -7.89      0.43      0.02
     -8.13      0.43     -0.22
     -8.13      0.19     -0.22
     -8.13     -0.04     -0.22
     -7.89     -0.04     -0.22
     -7.89     -0.28     -0.22
     -7.65     -0.52     -0.22
     -7.65     -0.76     -0.22
     -7.42     -0.76     -0.22
     -7.42     -1.00      0.02
     -7.18     -1.24     -0.22
     -6.94     -1.48     -0.22
     -6.46     -1.48     -0.22
     -6.22     -1.72     -0.22
     -5.98     -1.72      0.02
     -5.74     -1.72      0.02
     -5.26     -1.96     -0.22
     -5.02     -1.96     -0.22
     -4.78     -1.96     -0.22
     -4.54     -1.96     -0.22
     -4.30     -1.96     -0.22
     -3.82     -1.96     -0.22
     -3.58     -1.96     -0.22
     -3.35     -1.96     -0.22
     -3.35     -1.72     -0.46
     -3.11     -1.72     -0.46
     -2.87     -1.72     -0.70
     -2.63     -1.48     -0.70
     -2.39     -1.48     -0.94
     -2.39     -1.24     -1.18
     -2.15     -1.24     -1.18
     -2.15     -1.24     -1.42
     -1.91     -1.00     -1.42
     -1.91     -1.00     -1.66
     -1.67     -1.00     -1.66
     -1.67     -1.00     -1.66
     -1.43     -0.76     -1.90
     -1.43     -0.76     -1.90
     -1.19     -0.76     -2.14
     -1.19     -0.76     -2.14
     -0.95     -0.76     -2.14
     -0.71     -0.76     -2.38
     -0.71     -0.52     -2.38
     -0.47     -0.52     -2.38
     -0.47     -0.52     -2.38
     -0.23     -0.52     -2.38
     -0.23     -0.52     -2.14
     -0.23     -0.52     -2.14
     -0.23     -0.28     -1.90
      0.01     -0.28     -1.66
      0.01     -0.28     -1.66
      0.01     -0.28     -1.42
      0.01     -0.28     -1.18
      0.01     -0.28     -0.94
      0.01     -0.28     -0.70
      0.01     -0.28     -0.46
      0.01     -0.28     -0.22
      0.01     -0.28     -0.22
     -0.23     -0.28      0.02
     -0.23     -0.28      0.02
     -0.23     -0.28      0.26
     -0.23     -0.04      0.49
     -0.47     -0.04      0.49
     -0.47     -0.04      0.73
     -0.47     -0.04      0.73
     -0.47     -0.04      0.73
     -0.71      0.19      0.97
     -0.71      0.19      0.97
     -0.71      0.43      1.21
     -0.71      0.43      1.21
     -0.71      0.43      1.21
     -0.71      0.67      1.45
     -0.71      0.67      1.45
     -0.71      0.67      1.69
     -0.71      0.67      1.69
     -0.71      0.91      1.69
     -0.71      0.91      1.69
     -0.71      0.91      1.93
     -0.71      1.15      1.93
     -0.47      1.15      1.93
     -0.47      1.15      1.93
     -0.47      1.39      1.93
     -0.47      1.39      1.93
     -0.23      1.39      2.17
     -0.23      1.39      2.17
     -0.23      1.39      2.17
      0.01      1.39      2.17
      0.01      1.39      2.17
      0.01      1.39      2.17
      0.01      1.39      2.17
      0.01      1.39      2.17
      0.01      1.15      1.93
      0.01      1.15      1.93
      0.01      1.15      1.93
      0.01      1.15      1.93
     -0.23      0.91      1.93
     -0.23      0.91      1.93
     -0.47      0.91      1.69
     -0.71      0.91      1.69
     -0.95      0.67      1.69
     -1.19      0.67      1.69
     -1.19      0.67      1.45
     -1.43      0.67      1.45
     -1.67      0.67      1.45
     -1.67      0.67      1.21
     -1.91      0.67      1.21
     -1.91      0.43      1.21
     -1.91      0.67      1.21
     -2.15      0.67      1.21
     -2.15      0.67      0.97
     -2.15      0.67      0.97
     -2.15      0.67      0.97
     -2.15      0.67      0.97
     -2.15      0.67      0.97
     -2.15      0.67      0.73
     -1.91      0.91      0.73
     -1.91      0.91      0.73
     -1.91      0.91      0.73
     -1.91      0.91      0.97
     -1.91      1.15      0.97
     -2.15      1.15      0.97
     -2.15      1.15      0.97
     -2.15      1.39      0.97
     -2.15      1.39      0.97
     -2.39      1.39      0.97
     -2.39      1.39      0.97
     -2.39      1.39      0.97
     -2.15      1.39      0.97
     -2.15      1.39      0.97
     -2.15      1.39      0.97
     -2.15      1.39      0.97
     -1.91      1.39      0.97
     -1.91      1.39      0.73
     -1.91      1.39      0.73
     -1.67      1.15      0.73
     -1.43      1.15      0.97
     -1.43      1.15      0.97
     -1.19      0.91      0.97
     -0.95      0.91      0.97
     -0.71      0.67      0.97
     -0.23      0.43      0.97
      0.01      0.43      0.97
      0.25      0.19      0.97
      0.49     -0.04      0.97
      0.96     -0.28      1.21
      1.44     -0.52      1.21
      1.92     -0.76      1.21
      2.40     -1.00      1.45
      2.88     -1.24      1.45
      3.36     -1.48      1.45
      3.84     -1.48      1.69
      4.56     -1.72      1.69
      5.03     -1.96      1.93
      5.51     -1.96      2.17
      5.99     -2.20      2.17
      6.47     -2.44      2.17
      6.95     -2.44      2.41
      7.43     -2.68      2.41
      7.91     -2.68      2.41
      8.39     -2.68      2.41
      8.63     -2.68      2.41
      9.10     -2.92      2.65
      9.34     -2.92      2.65
      9.58     -2.92      2.41
      9.82     -2.92      2.41
      9.82     -2.92      2.41
     10.06     -2.68      2.17
     10.06     -2.68      2.17
     10.06     -2.44      2.17
      9.82     -2.44      1.93
      9.82     -2.44      1.69
      9.58     -2.20      1.69
      9.34     -1.96      1.45
      9.10     -1.72      1.45
      8.87     -1.72      1.21
      8.39     -1.48      1.21
      8.15     -1.24      0.97
      7.67     -1.24      0.73
      7.43     -1.00      0.73
      6.95     -0.76      0.49
      6.47     -0.76      0.26
      6.23     -0.52      0.26
      5.75     -0.28      0.02
      5.27     -0.28      0.02
      5.03     -0.04     -0.22
      4.56     -0.04     -0.22
      4.08      0.19     -0.22
      3.84      0.19     -0.22
      3.36      0.19     -0.46
      3.12      0.43     -0.46
      2.88      0.43     -0.70
      2.64      0.43     -0.94
      2.16      0.43     -0.94
      1.92      0.43     -1.18
      1.68      0.67     -1.42
      1.44      0.67     -1.42
      1.20      0.67     -1.66
      0.96      0.67     -1.90
      0.73      0.91     -1.90
      0.49      0.91     -1.90
      0.25      0.91     -2.14
      0.01      0.91     -2.14
      0.01      0.91     -2.14
      0.01      1.15     -2.14
     -0.23      1.15     -2.14
     -0.47      1.15     -2.14
     -0.47      1.15     -2.14
     -0.71      1.15     -2.14
     -0.71      1.15     -2.14
     -0.71      1.15     -2.14
     -0.95      1.15     -1.90
     -0.95      1.15     -1.90
     -0.95      1.15     -1.66
     -0.95      0.91     -1.66
     -0.95      0.91     -1.42
     -0.95      0.91     -1.42
     -0.95      0.91     -1.42
     -0.95      0.91     -1.18
     -0.71      0.91     -1.18
     -0.71      0.67     -1.18
     -0.71      0.67     -0.94
     -0.47      0.67     -0.94
     -0.23      0.43     -0.94
     -0.23      0.43     -0.70
      0.01      0.19     -0.70
      0.01      0.19     -0.70
      0.01      0.19     -0.70
      0.01     -0.04     -0.70
      0.01     -0.04     -0.46
      0.01     -0.28     -0.46
      0.01     -0.52     -0.46
      0.25     -0.52     -0.46
      0.25     -0.76     -0.22
      0.25     -1.00     -0.22
      0.01     -1.00     -0.22
      0.01     -1.00     -0.22
      0.01     -1.24     -0.22
      0.01     -1.24      0.02
      0.01     -1.48      0.02
     -0.23     -1.48      0.02
     -0.23     -1.48      0.02
     -0.47     -1.48      0.02
     -0.47     -1.48      0.02
     -0.71     -1.72      0.02
     -0.95     -1.48      0.02
     -0.95     -1.48      0.02
     -0.95     -1.48      0.02
     -1.19     -1.48      0.02
     -1.19     -1.24      0.02
     -1.19     -1.24      0.02
     -1.19     -1.00     -0.22
     -1.19     -1.00     -0.22
     -1.19     -0.76     -0.22
     -1.19     -0.76     -0.22
     -1.19     -0.52     -0.22
     -0.95     -0.52     -0.22
     -0.95     -0.28     -0.46
     -0.95     -0.28     -0.46
     -0.71     -0.04     -0.70
     -0.71      0.19     -0.70
     -0.71      0.19     -0.94
     -0.47      0.43     -0.94
     -0.47      0.43     -0.94
     -0.47      0.67     -1.18
     -0.23      0.67     -1.18
     -0.23      0.67     -1.18
     -0.23      0.67     -1.18
     -0.23      0.91     -1.42
      0.01      0.91     -1.42
      0.01      0.67     -1.42
      0.01      0.67     -1.18
      0.01      0.67     -1.18
      0.01      0.67     -1.18
      0.01      0.67     -1.18
      0.01      0.43     -0.94
      0.01      0.43     -0.94
      0.25      0.43     -0.70
      0.25      0.19     -0.70
      0.49      0.19     -0.46
      0.49      0.19     -0.46
      0.49     -0.04     -0.22
      0.73     -0.04     -0.22
      0.73     -0.28     -0.22
      0.96     -0.28     -0.22
      0.96     -0.28     -0.22
      0.96     -0.28     -0.22
      1.20     -0.28      0.02
      1.20     -0.28      0.02
      1.20     -0.28      0.02
      1.20     -0.52      0.02
      1.20     -0.52      0.02
      1.20     -0.52     -0.22
      1.44     -0.52     -0.22
      1.20     -0.52     -0.22
      1.44     -0.52     -0.22
      1.20     -0.52     -0.22
      1.44     -0.52     -0.22
      1.44     -0.52     -0.22
      1.44     -0.52     -0.46
      1.44     -0.28     -0.46
      1.44     -0.28     -0.70
      1.20     -0.28     -0.70
      1.20     -0.28     -0.94
      0.96     -0.28     -0.94
      0.96     -0.28     -1.18
      0.96     -0.28     -1.18
      0.73     -0.04     -1.42
      0.49     -0.04     -1.42
      0.49     -0.04     -1.42
      0.25     -0.04     -1.66
      0.01      0.19     -1.66
      0.01      0.19     -1.90
      0.01      0.19     -1.90
     -0.23      0.19     -1.90
     -0.71      0.19     -1.90
     -0.95      0.43     -2.14
