********************************************************************************
               CENTRO DE INSTRUMENTACION Y REGISTRO SISMICO  A.C.  
                       Coordinacion de Servicios Tecnicos
     Anaxagoras 814, Col. Narvarte, Benito Juarez, C.P. 03020 Mexico, D.F.
            Tels. 687 45 42/ 687 45  82             Fax. 669 25 12
********************************************************************************
ARCHIVO ESTANDAR DE ACELERACION:
VERSION DEL FORMATO                    : 2.0
NOMBRE DEL ARCHIVO                     : AP680401.011
FECHA Y HORA DE CREACION               : 08/NOV/04, 10:00
REF. CATALOGO ACELEROGRAMAS, SMIS 1996 : REGISTRO No.     /PAG.


================================================================================
DATOS DE LA ESTACION:
NOMBRE DE LA ESTACION                  : APATLACO
CLAVE DE LA ESTACION                   : AP68
LOCALIZACION DE LA ESTACION            : Jardin de Ni¤os Juan Bautista de la
                                       : Salle Canal de Apatlaco y Ahuehuetes,
                                       : Col Iztacalco Infonavit, Iztacalc
                                       : 
                                       :
COORDENADAS DE LA ESTACION             : 19.381 LAT. N 
                                       : 99.107 LONG. W 
ALTITUD (msnm)                         : 2232
TIPO DE SUELO                          : ARCILLOSO, ZONA LAGO
                                       : 
                                       : 
INSTITUCION RESPONSABLE                : CIRES
                                       :

================================================================================
DATOS DEL ACELEROGRAFO:
MODELO DEL ACELEROGRAFO                : RAD-851
NUMERO DE SERIE DEL ACELEROGRAFO       : 255
NUMERO DE CANALES                      : 3
ORIENTACION C1-C6 (rumbo;orientacion)  : /N00E/+V/N90W
ORIENTACION C7-C12 (rumbo;orientacion) :
VEL. DE MUESTREO, C1-C6 (muestras/s)   : /100/100/100
VEL. DE MUESTREO, C7-C12 (muestras/s)  :
ESC. COMPLETA DE SENSORES, C1-C6, (g)  : /0.5/0.5/0.5
ESC. COMPLETA DE SENSORES, C7-C12, (g) :
FREC. NAT. DE SENSORES, C1-C6, (Hz)    : /30/30/30
FREC. NAT. DE SENSORES, C7-C12, (Hz)   :
AMORTIGUAMIENTO DE SENSORES, C1-C6     : /0.780/0.700/0.678
AMORTIGUAMIENTO DE SENSORES, C7-C12    :
INTERVALO DE MUESTREO, C1-C6, (s)      : /0.01/0.01/0.01
INTERVALO DE MUESTREO, C7-C12, (s)     :
UMBRAL DE DISPARO, C1-C6, (Gal)        : /2.69/5.62/3.17
UMBRAL DE DISPARO, C7-C12, (Gal)       :
MEMORIA DE PREEVENTO (s)               : 24
TIEMPO DE POSEVENTO (s)                : 64


================================================================================
DATOS DEL SISMO:
FECHA DEL SISMO (GMT)                  : 01/ENE/04
HORA EPICENTRO (GMT)                   : 23:31:49:0
MAGNITUD(ES)                           : /Ms=6.3
COORDENADAS DEL EPICENTRO              : 17.31 LAT. N
                                       : -101.42 LONG. W
PROFUNDIDAD FOCAL (km)                 : 10.0
FUENTE DE LOS DATOS EPICENTRALES       : SSN
                                       : INSTITUTO DE GEOFISICA, UNAM

================================================================================
DATOS DE ESTE REGISTRO:
HORA DE LA PRIMERA MUESTRA (GMT)       : 23:33:27.00
EXACTITUD DEL TIEMPO (s)               : 0.01
DURACION DEL REGISTRO (s), C1-C6       : /143.25/143.25/143.25
DURACION DEL REGISTRO (s), C7-C12      :
NUM. TOTAL DE MUESTRAS, C1-C6          : /14325/14325/14325
NUM. TOTAL DE MUESTRAS, C7-C12         :
ACEL. MAX. (Gal), C1-C6                : /8.26646/2.69289/6.72263
ACEL. MAX., C1-C6, EN LA MUESTRA       :
ACEL. MAX. (Gal), C7-C12               :
ACEL. MAX., C7-C12, EN LA MUESTRA      :
UNIDADES DE LOS DATOS                  : Gal (cm/s/s)
FACTOR DE DECIMACION                   : 1
FORMATO DATOS (FORTRAN,10 campos/dato) : 3F10.5


================================================================================
CALIDAD DEL ACELEROGRAMA:
REGISTRO DIGITAL COMPLETO CON TIEMPO ABSOLUTO CORRECTO.


================================================================================
COMENTARIOS:














================================================================================
DATOS DE ACELERACION:
---------+---------+---------+---------+---------+---------+---------+---------+
   CANAL-1   CANAL-2   CANAL-3   CANAL-4   CANAL-5   CANAL-6   CANAL-7   CANAL-8
      N00E        +V      N90W
---------+---------+---------+---------+---------+---------+---------+---------+
[...]
   2.28099  -0.65897  -0.45994
   2.99925  -0.89839  -0.22052
   2.99925  -1.13781   0.25832
   3.23867  -1.61665   0.25832
   3.23867  -1.13781   0.49774
   2.99925  -0.65897   0.49774
   2.75983  -0.41956   0.49774
   2.75983  -0.65897   0.49774
   3.95692  -1.37723   0.97658
   2.75983  -1.13781   1.45542
   3.71750  -1.13781   1.21600
   3.47808  -0.41956   0.97658
   3.71750  -0.18014   0.73716
   2.75983  -0.18014   1.45542
   3.23867  -0.41956   1.45542
   2.52041  -0.41956   1.69484
   3.47808  -0.65897   1.21600
   2.99925   0.05928   0.73716
   3.23867  -0.18014   0.49774
   3.23867   0.05928   0.73716
   2.99925  -0.18014   0.73716
   2.75983  -0.41956   0.97658
   2.52041  -0.41956   0.73716
   2.28099   0.05928   0.49774
   2.99925  -0.41956   0.25832
   2.52041   0.05928  -0.22052
   2.52041   0.05928  -0.22052
   2.28099  -0.65897   0.01890
   1.80215  -0.65897   0.49774
   1.56273  -0.41956   0.01890
   2.04157  -0.41956   0.01890
   2.28099  -0.41956  -0.22052
   2.28099  -0.65897   0.49774
   2.52041  -0.65897   0.25832
   2.28099  -0.41956   0.97658
   2.99925  -1.37723   0.73716
   2.99925  -0.65897   0.73716
   3.71750  -1.13781   1.21600
   3.23867  -0.89839   0.97658
   3.47808  -0.89839   1.21600
   3.71750  -0.89839   1.45542
   4.43576  -1.61665   1.69484
   4.67518  -1.13781   1.45542
   5.15402  -1.37723   1.69484
   4.91460  -1.37723   2.17367
   4.19634  -1.13781   2.17367
   5.15402  -1.13781   1.45542
   4.91460  -0.89839   1.69484
   4.91460  -1.37723   1.45542
   4.91460  -1.37723   1.21600
   5.63286  -1.37723   0.97658
   5.15402  -1.37723   1.21600
   4.43576  -0.65897   0.49774
   3.95692  -0.65897   0.49774
   4.43576  -1.37723   0.49774
   3.95692  -1.37723   0.73716
   3.95692  -1.85607   0.73716
   4.19634  -0.89839   0.01890
   3.71750  -0.65897   0.01890
   3.95692  -1.13781   0.49774
   3.47808  -0.41956   0.01890
   2.75983  -0.65897   0.73716
   2.99925  -0.89839   0.25832
   2.75983   0.05928   0.49774
   2.52041   0.05928   0.25832
   2.75983   0.53812   0.01890
   2.52041   0.05928   0.25832
   2.52041  -0.18014   0.73716
   2.52041  -0.41956   0.97658
   2.28099   0.05928   0.97658
   2.28099   0.77754   0.01890
   2.28099   1.01696  -0.45994
   2.04157   1.01696  -0.69935
   2.04157   0.53812  -0.69935
   1.56273   0.77754  -0.45994
   1.80215   0.29870  -0.45994
   1.56273   0.29870  -0.69935
   1.80215   0.29870  -1.41761
   1.32331   0.77754  -1.41761
   1.80215   0.05928  -1.65703
   1.08390   0.29870  -1.17819
   1.32331   0.29870  -1.89645
   1.80215   0.05928  -1.89645
   1.56273   0.05928  -2.13587
   1.56273   0.29870  -2.37529
   1.08390   0.05928  -2.13587
   0.84448  -0.18014  -1.65703
   0.60506  -0.18014  -2.37529
   0.60506   0.29870  -2.37529
   0.84448  -0.41956  -2.61471
   0.36564  -0.18014  -2.61471
   0.12622   0.05928  -2.37529
  -0.11320  -0.18014  -1.89645
  -1.07088  -0.18014  -1.89645
  -0.83146   0.05928  -2.13587
  -0.35262  -0.18014  -2.37529
  -1.07088  -0.18014  -1.89645
  -1.54971   0.05928  -1.89645
  -1.54971   0.53812  -2.13587
  -2.02855   0.77754  -1.89645
  -2.26797   0.29870  -1.89645
  -2.02855   0.29870  -1.65703
  -1.54971  -0.18014  -1.89645
  -2.02855  -0.18014  -1.65703
  -2.50739   0.77754  -2.13587
  -2.98623   1.25638  -2.13587
  -2.74681   1.01696  -1.89645
  -2.74681   0.77754  -1.89645
  -2.02855   0.29870  -1.65703
  -2.50739   0.29870  -1.17819
  -2.50739   0.53812  -1.41761
  -2.50739   1.01696  -1.41761
  -2.50739   1.25638  -1.17819
  -2.50739   1.01696  -0.93877
  -1.78913   0.29870  -0.69935
  -1.54971   0.05928  -0.22052
  -1.54971   0.05928   0.01890
  -1.54971   0.29870  -0.22052
  -1.07088   0.29870  -0.22052
  -0.59204   0.05928   0.01890
  -0.35262   0.05928   0.49774
  -0.35262  -0.41956   0.73716
  -0.35262  -0.41956   0.73716
   0.36564  -0.41956   0.49774
   0.36564  -0.18014   0.49774
   0.36564  -0.65897   0.73716
  -0.11320  -0.65897   0.97658
   0.36564  -1.13781   0.97658
  -0.11320  -1.13781   1.45542
   0.12622  -0.65897   0.73716
   0.36564  -0.41956   0.73716
   0.36564  -0.65897   0.49774
  -0.59204  -0.41956   1.45542
  -0.83146  -0.89839   1.45542
  -1.31029  -0.89839   1.93425
  -1.78913  -0.65897   1.93425
  -1.78913  -0.41956   1.21600
  -1.78913  -0.41956   1.21600
  -2.50739  -0.41956   1.45542
  -2.50739  -0.41956   1.69484
  -2.74681  -0.18014   1.69484
  -2.74681  -0.18014   1.69484
  -2.50739  -0.18014   0.97658
  -2.74681   0.05928   1.21600
  -2.26797  -0.41956   1.45542
  -3.46506   0.53812   1.69484
  -2.98623   0.53812   0.97658
  -2.98623   0.77754   0.97658
  -2.74681   0.53812   0.73716
  -2.74681   0.29870   0.73716
  -2.50739  -0.18014   0.97658
  -3.22565   0.77754   1.21600
  -3.22565   0.77754   0.97658
  -3.46506   1.25638   0.97658
  -2.74681   0.53812   1.21600
  -2.74681   0.53812   0.97658
  -2.74681   0.29870   0.97658
  -3.22565   0.29870   1.93425
  -3.70448   0.77754   1.69484
  -3.94390   0.77754   1.69484
  -3.94390   0.53812   2.17367
  -3.70448   0.05928   2.41309
  -3.46506   0.29870   2.41309
  -3.94390   0.05928   2.65251
  -4.42274   0.77754   3.13135
  -4.42274   1.01696   2.41309
  -4.42274   1.01696   3.13135
  -4.18332   0.29870   3.37077
  -4.42274   0.53812   3.61019
  -4.66216   0.05928   3.37077
  -5.14100   0.53812   3.37077
  -4.42274   0.77754   3.13135
  -4.66216   1.01696   3.37077
  -4.66216   0.53812   3.84961
  -4.90158   0.29870   4.08902
  -5.14100   0.77754   3.84961
  -5.38042   1.01696   3.61019
  -4.66216   0.53812   3.37077
  -5.14100   1.25638   3.13135
  -4.66216   0.53812   3.61019
  -4.90158   0.05928   4.08902
  -5.14100   1.01696   3.61019
  -5.61984   1.49580   3.37077
  -4.66216   0.53812   3.37077
  -4.66216   1.01696   2.65251
  -4.66216   0.53812   2.65251
  -4.90158   0.29870   3.13135
  -5.38042   1.01696   3.13135
  -5.38042   1.01696   2.17367
  -5.38042   0.53812   2.41309
  -5.14100  -0.18014   1.93425
  -5.38042  -0.18014   1.93425
  -5.85925  -0.18014   2.17367
  -6.33809   0.05928   2.17367
  -6.33809   0.05928   1.69484
  -6.33809   0.29870   1.69484
  -6.33809  -0.41956   1.21600
  -6.33809   0.05928   1.45542
  -6.81693  -0.18014   1.45542
  -7.05635   0.05928   1.93425
  -6.81693  -0.41956   1.45542
  -6.81693   0.05928   0.73716
  -6.33809  -0.18014   0.97658
  -6.81693   0.05928   1.21600
  -6.81693  -0.18014   1.45542
  -7.05635   0.53812   1.21600
  -6.57751   0.05928   1.21600
  -6.09867   0.05928   0.49774
  -5.85925   0.29870   0.73716
  -5.85925   0.29870   0.97658
  -5.85925   0.29870   0.49774
  -6.33809   0.53812   0.25832
  -6.33809   0.77754   0.25832
  -5.85925   0.05928   0.01890
  -6.09867   0.29870   0.25832
  -5.61984  -0.18014   0.25832
  -6.09867   0.53812   0.25832
  -6.09867   0.29870  -0.22052
  -5.61984   0.77754  -0.69935
  -5.38042   0.77754  -0.69935
  -5.85925   0.77754  -0.22052
  -5.61984   0.77754  -0.22052
  -5.85925   1.25638   0.01890
  -4.66216   1.01696  -0.69935
  -4.42274   1.25638  -0.93877
  -4.90158   1.25638  -0.93877
  -4.42274   1.49580  -0.93877
  -4.18332   1.01696  -0.45994
  -3.70448   0.77754  -0.45994
  -3.22565   1.49580  -0.93877
  -2.98623   1.73521  -1.17819
  -2.50739   1.49580  -1.17819
  -2.50739   1.25638  -1.17819
  -2.50739   1.01696  -0.45994
  -2.02855   0.53812  -0.45994
  -2.02855   0.77754   0.01890
  -1.54971   1.01696  -0.45994
  -1.07088   1.01696  -0.22052
  -1.07088   0.53812   0.01890
  -1.54971   0.29870   0.73716
  -0.83146   0.05928   0.49774
  -0.83146  -0.18014   0.49774
  -0.35262  -0.18014   0.25832
  -0.11320   0.29870  -0.22052
   0.12622  -0.41956   0.25832
  -0.35262  -0.89839   0.49774
  -0.59204  -0.89839   0.49774
   0.12622  -1.13781   0.49774
   0.60506  -1.61665   0.25832
   0.84448  -1.61665   0.49774
   1.32331  -1.37723   0.01890
   1.08390  -1.61665   0.73716
   1.08390  -1.13781   0.49774
   2.04157  -1.37723   0.49774
   2.28099  -1.37723   0.49774
   2.99925  -1.85607   0.49774
   2.99925  -1.13781   0.49774
   3.23867  -1.61665   1.21600
   3.23867  -1.13781   1.21600
   3.47808  -0.89839   0.97658
   3.71750  -0.65897   1.45542
   4.91460  -1.37723   1.45542
   5.15402  -1.13781   1.21600
   5.15402  -1.13781   1.45542
   4.67518  -0.18014   1.45542
   4.43576  -0.18014   1.45542
   4.91460  -0.18014   1.69484
   5.39344  -0.41956   1.45542
   5.63286  -0.41956   1.45542
   5.39344  -0.65897   1.45542
   4.91460  -0.18014   0.97658
   4.91460   0.53812   0.73716
   4.43576   0.29870   0.97658
   4.43576   0.29870   0.97658
   4.19634   0.05928   0.73716
   4.91460   0.05928   0.01890
   4.91460   0.29870  -0.45994
   4.43576   0.77754  -1.17819
   4.43576   0.53812  -1.17819
   4.67518   0.29870  -0.93877
   4.91460  -0.41956  -1.17819
   4.67518   0.29870  -1.89645
   4.91460   0.29870  -2.37529
   4.67518   0.77754  -3.09354
   4.91460   0.77754  -3.81180
   4.91460   1.01696  -3.81180
   5.39344   0.29870  -3.57238
   4.67518   0.05928  -3.57238
   5.15402  -0.18014  -4.29064
   4.91460   0.29870  -4.29064
   4.91460   0.53812  -5.00890
   4.67518   0.53812  -4.76948
   4.67518   0.05928  -4.53006
   4.67518  -0.41956  -4.05122
   4.67518  -0.18014  -5.00890
   4.43576   0.29870  -5.00890
   4.91460   0.05928  -4.76948
   3.95692   0.29870  -5.00890
   3.71750  -0.18014  -4.29064
   3.23867   0.29870  -4.29064
   3.47808   0.05928  -4.05122
   3.47808   0.05928  -4.76948
   3.95692  -0.41956  -4.53006
   3.23867  -0.41956  -4.29064
   2.52041  -0.18014  -3.81180
   2.28099  -0.41956  -3.81180
   1.80215   0.29870  -3.57238
   2.52041   0.05928  -4.05122
   2.28099  -0.41956  -3.57238
   2.99925  -0.41956  -4.05122
   2.28099   0.05928  -4.05122
   1.80215   0.29870  -3.81180
   1.56273   0.29870  -3.57238
   1.80215   0.29870  -4.05122
   2.04157   0.05928  -4.05122
   2.28099  -0.41956  -4.29064
   2.52041   0.29870  -4.53006
   2.28099   0.77754  -5.24831
   2.28099   0.29870  -5.24831
   2.28099   0.53812  -5.24831
   2.52041   0.29870  -5.24831
   2.99925  -0.41956  -5.00890
   2.99925   0.05928  -5.24831
   2.75983   0.53812  -5.48773
   2.99925   0.29870  -5.72715
   2.52041   0.29870  -5.24831
   3.23867  -0.41956  -5.48773
   3.47808  -0.41956  -4.76948
   3.47808  -0.89839  -4.76948
   3.23867  -0.18014  -4.76948
   3.47808   0.05928  -5.00890
   3.23867   0.29870  -4.05122
   3.71750  -0.65897  -3.81180
   3.71750  -0.41956  -3.57238
   4.67518  -0.89839  -2.85412
   4.67518  -0.89839  -2.61471
   4.91460  -0.18014  -2.61471
   4.91460   0.05928  -2.37529
   5.15402  -0.65897  -1.41761
   5.39344  -0.41956  -1.17819
   6.35111  -0.65897  -0.93877
   6.59053  -0.89839  -0.45994
   6.59053  -0.18014   0.01890
   7.30879  -0.41956   0.01890
   6.82995  -0.41956   0.97658
   7.06937  -1.13781   1.45542
   7.30879  -0.89839   1.69484
   7.78763  -0.65897   1.21600
   7.78763  -0.65897   1.45542
   8.26646  -0.65897   0.73716
   8.26646  -0.65897   1.21600
   8.02704  -1.37723   1.69484
   7.30879  -0.89839   1.69484
   7.78763  -1.13781   1.21600
   7.78763  -0.89839   0.97658
   7.78763  -1.37723   0.49774
   7.78763  -1.37723   0.73716
   7.54821  -1.13781   0.49774
   6.59053  -0.65897   0.25832
   6.59053  -1.37723   0.01890
   6.82995  -1.13781  -0.45994
   6.59053  -1.37723  -0.69935
   6.59053  -1.13781  -1.17819
   6.11169  -0.89839  -1.17819
   5.39344  -0.65897  -1.17819
   5.15402  -0.18014  -1.65703
   5.39344  -0.65897  -1.65703
   5.39344  -0.41956  -1.41761
   5.39344  -0.65897  -1.89645
   4.67518  -0.18014  -1.41761
   4.67518  -0.18014  -1.65703
   3.47808   0.53812  -1.17819
   3.71750   0.05928  -0.93877
   3.47808   0.53812  -0.69935
   3.47808   0.29870  -0.45994
   3.23867   0.53812   0.25832
   2.75983   0.53812   0.49774
   1.80215   1.25638   0.73716
   1.56273   1.25638   0.97658
   1.56273   1.01696   1.45542
   1.08390   0.53812   2.17367
   1.32331   1.01696   2.17367
   0.36564   1.25638   2.65251
   0.60506   1.73521   2.65251
  -0.11320   1.49580   2.89193
  -0.11320   1.73521   3.13135
  -0.35262   1.01696   3.61019
  -0.35262   1.25638   3.13135
  -0.83146   1.73521   2.89193
  -0.35262   1.25638   2.89193
  -0.59204   1.25638   2.41309
  -1.07088   1.25638   2.65251
  -0.59204   0.53812   2.65251
  -0.83146   0.53812   2.41309
  -1.31029   0.77754   1.69484
  -0.35262   0.29870   0.97658
  -0.59204   0.53812   1.21600
  -0.59204   0.29870   0.73716
  -0.83146   0.05928   0.73716
  -0.83146  -0.41956   0.73716
  -0.59204  -0.41956   0.49774
  -0.35262  -0.41956  -0.22052
  -0.35262  -0.65897  -0.22052
  -0.35262  -1.13781  -0.22052
  -1.07088  -0.89839  -0.22052
  -1.07088  -1.13781   0.25832
  -1.31029  -0.89839   0.01890
  -1.31029  -0.89839  -0.22052
  -0.83146  -1.61665  -0.22052
  -0.83146  -1.37723   0.25832
  -1.54971  -1.13781   0.73716
  -2.02855  -1.13781   1.21600
  -2.50739  -1.13781   1.21600
  -2.26797  -0.89839   1.21600
  -1.31029  -1.37723   1.21600
  -1.07088  -1.37723   1.69484
  -1.07088  -1.37723   1.93425
  -1.78913  -0.89839   2.65251
  -1.78913  -1.13781   2.89193
  -1.78913  -0.65897   3.13135
  -1.31029  -0.89839   2.65251
  -0.83146  -0.89839   3.37077
  -0.83146  -0.89839   3.13135
  -1.07088  -0.18014   3.61019
  -1.07088  -0.65897   3.61019
  -1.78913  -0.41956   3.61019
  -1.78913  -0.41956   3.61019
  -1.31029  -0.89839   3.84961
  -1.31029  -0.65897   3.61019
  -1.54971  -0.18014   3.84961
  -1.78913   0.29870   3.37077
  -1.78913  -0.18014   3.84961
  -2.26797   0.29870   3.37077
  -2.02855  -0.18014   3.37077
  -2.26797  -0.41956   3.61019
  -2.50739  -0.41956   3.37077
  -3.22565   0.53812   2.89193
  -3.22565   0.53812   2.65251
  -3.70448   0.05928   3.37077
  -3.70448   0.05928   2.89193
  -4.18332  -0.18014   3.61019
  -3.94390  -0.18014   3.13135
  -4.42274   0.77754   2.89193
  -4.42274   0.53812   2.65251
  -4.66216   0.77754   3.13135
  -4.66216   0.53812   3.37077
  -5.14100   0.77754   3.13135
  -4.90158   0.29870   2.89193
  -5.61984   1.01696   3.13135
  -4.42274   0.29870   2.41309
  -4.66216   0.77754   2.65251
  -5.14100   0.53812   3.37077
  -4.90158   0.53812   3.37077
  -4.66216   0.77754   3.13135
  -4.42274   0.53812   2.65251
  -4.18332   0.53812   2.41309
  -3.70448   0.29870   2.17367
  -4.18332  -0.18014   3.13135
  -4.18332  -0.41956   3.37077
  -4.42274   0.29870   3.13135
  -3.94390  -0.65897   3.37077
  -3.46506   0.05928   2.65251
  -3.22565  -0.18014   2.41309
  -3.70448   0.05928   2.65251
  -3.46506  -0.41956   2.89193
  -3.94390  -0.41956   3.37077
  -3.70448  -0.41956   2.65251
  -3.94390  -0.18014   2.65251
  -3.46506  -0.65897   2.17367
  -3.46506  -0.89839   2.65251
  -4.18332  -0.41956   2.17367
  -4.42274  -0.89839   2.65251
  -4.18332   0.05928   1.93425
  -3.94390  -0.41956   1.93425
  -3.94390  -0.65897   1.93425
  -3.94390  -0.41956   1.45542
  -4.42274  -0.18014   1.21600
  -4.90158  -0.18014   1.21600
  -5.14100   0.53812   0.73716
  -4.66216   0.05928   0.73716
  -4.42274  -0.41956   0.49774
  -4.42274  -0.18014   0.25832
  -4.42274   0.29870  -0.22052
  -5.38042   0.53812  -0.22052
  -5.61984   0.53812  -0.22052
  -4.90158   0.53812  -0.69935
  -5.38042   0.29870  -0.22052
  -5.38042   0.53812  -0.69935
  -5.61984   0.77754  -0.69935
  -5.85925   0.77754  -1.17819
  -6.33809   1.49580  -1.41761
  -5.85925   0.53812  -1.89645
  -6.81693   1.25638  -1.41761
  -7.05635   1.25638  -1.41761
  -7.05635   1.25638  -2.13587
  -7.29577   1.25638  -2.37529
  -7.53519   1.49580  -2.37529
  -7.29577   1.73521  -2.13587
  -7.29577   1.25638  -2.37529
