********************************************************************************
               CENTRO DE INSTRUMENTACION Y REGISTRO SISMICO  A.C.  
                       Coordinacion de Servicios Tecnicos
     Anaxagoras 814, Col. Narvarte, Benito Juarez, C.P. 03020 Mexico, D.F.
            Tels. 687 45 42/ 687 45  82             Fax. 669 25 12
********************************************************************************
ARCHIVO ESTANDAR DE ACELERACION:
VERSION DEL FORMATO                    : 2.0
NOMBRE DEL ARCHIVO                     : AP680204.181
FECHA Y HORA DE CREACION               : 09/JUL/04, 11:30
REF. CATALOGO ACELEROGRAMAS, SMIS 1996 : REGISTRO No.     /PAG.


================================================================================
DATOS DE LA ESTACION:
NOMBRE DE LA ESTACION                  : APATLACO
CLAVE DE LA ESTACION                   : AP68
LOCALIZACION DE LA ESTACION            : Jardin de Ni¤os Juan Bautista de la
                                       : Salle Canal de Apatlaco y Ahuehuetes,
                                       : Col Iztacalco Infonavit, Iztacalc
                                       : 
                                       :
COORDENADAS DE LA ESTACION             : 19.381 LAT. N 
                                       : 99.107 LONG. W 
ALTITUD (msnm)                         : 2232
TIPO DE SUELO                          : ARCILLOSO, ZONA LAGO
                                       : 
                                       : 
INSTITUCION RESPONSABLE                : CIRES
                                       :

================================================================================
DATOS DEL ACELEROGRAFO:
MODELO DEL ACELEROGRAFO                : RAD-851
NUMERO DE SERIE DEL ACELEROGRAFO       : 255
NUMERO DE CANALES                      : 3
ORIENTACION C1-C6 (rumbo;orientacion)  : /N00E/+V/N90W
ORIENTACION C7-C12 (rumbo;orientacion) :
VEL. DE MUESTREO, C1-C6 (muestras/s)   : /100/100/100
VEL. DE MUESTREO, C7-C12 (muestras/s)  :
ESC. COMPLETA DE SENSORES, C1-C6, (g)  : /0.5/0.5/0.5
ESC. COMPLETA DE SENSORES, C7-C12, (g) :
FREC. NAT. DE SENSORES, C1-C6, (Hz)    : /30/30/30
FREC. NAT. DE SENSORES, C7-C12, (Hz)   :
AMORTIGUAMIENTO DE SENSORES, C1-C6     : /0.780/0.700/0.678
AMORTIGUAMIENTO DE SENSORES, C7-C12    :
INTERVALO DE MUESTREO, C1-C6, (s)      : /0.01/0.01/0.01
INTERVALO DE MUESTREO, C7-C12, (s)     :
UMBRAL DE DISPARO, C1-C6, (Gal)        : /2.69/5.62/3.17
UMBRAL DE DISPARO, C7-C12, (Gal)       :
MEMORIA DE PREEVENTO (s)               : 24
TIEMPO DE POSEVENTO (s)                : 64


================================================================================
DATOS DEL SISMO:
FECHA DEL SISMO (GMT)                  : 18/ABR/02
HORA EPICENTRO (GMT)                   : 05:02:45:2
MAGNITUD(ES)                           : /Mb=5.4/Ms=6.0/Mc=6.3/Ma=6.2/Me=6.5
COORDENADAS DEL EPICENTRO              : 16.77 LAT. N
                                       : 101.12 LONG. W
PROFUNDIDAD FOCAL (km)                 : 22.0
FUENTE DE LOS DATOS EPICENTRALES       : SSN
                                       : INSTITUTO DE GEOFISICA, UNAM

================================================================================
DATOS DE ESTE REGISTRO:
HORA DE LA PRIMERA MUESTRA (GMT)       : 05:05:06.00
EXACTITUD DEL TIEMPO (s)               : 0.01
DURACION DEL REGISTRO (s), C1-C6       : /175.75/175.75/175.75
DURACION DEL REGISTRO (s), C7-C12      :
NUM. TOTAL DE MUESTRAS, C1-C6          : /17575/17575/17575
NUM. TOTAL DE MUESTRAS, C7-C12         :
ACEL. MAX. (Gal), C1-C6                : /-4.87491/-1.49201/3.57821
ACEL. MAX., C1-C6, EN LA MUESTRA       :
ACEL. MAX. (Gal), C7-C12               :
ACEL. MAX., C7-C12, EN LA MUESTRA      :
UNIDADES DE LOS DATOS                  : Gal (cm/s/s)
FACTOR DE DECIMACION                   : 1
FORMATO DATOS (FORTRAN,10 campos/dato) : 3F10.5


================================================================================
CALIDAD DEL ACELEROGRAMA:
REGISTRO DIGITAL COMPLETO CON TIEMPO ABSOLUTO CORRECTO.


================================================================================
COMENTARIOS:














================================================================================
DATOS DE ACELERACION:
---------+---------+---------+---------+---------+---------+---------+---------+
   CANAL-1   CANAL-2   CANAL-3   CANAL-4   CANAL-5   CANAL-6   CANAL-7   CANAL-8
      N00E        +V      N90W
---------+---------+---------+---------+---------+---------+---------+---------+
[...]
  -0.80479  -0.29492   0.70518
  -0.80479  -0.05550   0.46576
  -0.80479   0.42334   0.22634
  -0.56537   0.18392   0.22634
  -0.80479   0.18392   0.94460
  -0.80479  -0.05550   0.46576
  -1.28363   0.66276   0.22634
  -1.28363   0.42334  -0.01308
  -1.28363   0.42334  -0.01308
  -1.04421  -0.05550   0.22634
  -1.28363   0.18392   0.22634
  -1.76246   0.18392   0.22634
  -1.52305  -0.05550   0.46576
  -1.52305  -0.05550   0.22634
  -1.76246  -0.05550   0.22634
  -2.24130   0.18392   0.70518
  -1.76246  -0.05550   0.22634
  -1.52305  -0.29492  -0.01308
  -1.76246  -0.29492  -0.01308
  -1.76246  -0.29492  -0.01308
  -1.76246  -0.29492   0.22634
  -1.76246  -0.29492  -0.01308
  -2.00188   0.18392  -0.01308
  -1.76246  -0.05550  -0.25250
  -2.00188  -0.29492   0.22634
  -2.24130  -0.29492  -0.25250
  -2.95956   0.18392  -0.01308
  -2.48072  -0.05550  -0.25250
  -2.24130  -0.29492   0.22634
  -2.24130  -0.53434  -0.25250
  -2.72014  -0.05550   0.22634
  -2.72014  -0.05550  -0.01308
  -2.48072  -0.29492  -0.25250
  -2.48072  -0.29492  -0.49192
  -2.48072  -0.53434  -0.01308
  -2.48072  -0.77376   0.22634
  -2.72014  -0.29492  -0.25250
  -2.72014  -0.05550  -0.49192
  -2.72014  -0.29492  -0.01308
  -3.19898  -0.53434   0.22634
  -2.95956  -0.53434  -0.25250
  -2.95956  -0.05550  -0.49192
  -3.19898  -0.29492  -0.25250
  -2.48072  -0.53434  -0.25250
  -2.48072  -1.01317  -0.01308
  -2.72014  -0.53434  -0.01308
  -2.95956  -0.53434   0.22634
  -2.72014  -0.29492  -0.01308
  -2.48072  -0.53434   0.22634
  -3.19898  -0.53434   0.46576
  -3.19898  -0.29492   0.70518
  -2.95956  -0.53434   0.46576
  -2.72014  -0.53434  -0.01308
  -2.72014  -0.53434   0.46576
  -2.72014  -0.77376   0.70518
  -2.72014  -0.77376   0.46576
  -2.72014  -0.53434   0.22634
  -2.72014  -0.53434   0.22634
  -2.48072  -0.77376   0.46576
  -2.24130  -0.77376   0.70518
  -2.72014  -0.53434   0.46576
  -2.95956  -0.05550   0.46576
  -2.48072  -0.77376   0.46576
  -2.24130  -0.53434   0.70518
  -2.72014  -0.77376   0.70518
  -2.95956  -0.53434   0.94460
  -2.72014  -0.53434   0.70518
  -2.24130  -0.53434   0.46576
  -2.24130  -0.77376   0.46576
  -2.00188  -0.77376   0.70518
  -2.24130  -0.77376   0.70518
  -2.00188  -0.53434   0.46576
  -2.24130  -0.29492   0.46576
  -2.00188  -0.53434   0.70518
  -2.48072  -0.53434   1.18402
  -2.48072  -0.29492   0.70518
  -2.24130  -0.05550   0.46576
  -2.24130  -0.29492   0.46576
  -2.00188  -0.53434   0.70518
  -2.00188  -0.29492   0.46576
  -2.48072  -0.05550   0.70518
  -2.48072  -0.05550   0.46576
  -2.00188  -0.29492   0.46576
  -2.00188  -0.05550   0.46576
  -2.48072  -0.05550   0.46576
  -2.72014  -0.05550   0.70518
  -2.24130  -0.05550   0.46576
  -2.24130  -0.05550   0.46576
  -2.48072  -0.29492   0.70518
  -2.24130  -0.53434   0.70518
  -2.48072  -0.05550   0.94460
  -2.48072  -0.05550   0.46576
  -2.24130  -0.05550   0.22634
  -1.52305  -0.29492   0.22634
  -1.76246  -0.29492   0.46576
  -2.00188  -0.05550  -0.01308
  -1.76246   0.18392   0.22634
  -1.28363   0.42334  -0.01308
  -1.04421  -0.05550  -0.25250
  -1.52305   0.42334  -0.25250
  -1.28363   0.66276  -0.01308
  -1.52305   0.66276  -0.25250
  -1.52305   0.66276  -0.49192
  -1.76246   0.66276  -0.25250
  -1.76246   0.18392   0.22634
  -2.48072   0.42334   0.22634
  -2.24130   0.66276  -0.25250
  -2.24130   0.66276  -0.25250
  -2.24130   0.18392   0.22634
  -2.00188   0.18392  -0.01308
  -2.00188   0.66276   0.22634
  -2.00188   0.66276  -0.01308
  -1.76246   0.42334  -0.01308
  -1.28363   0.18392  -0.49192
  -1.52305   0.18392  -0.01308
  -1.52305   0.66276  -0.01308
  -1.28363   0.66276  -0.25250
  -0.80479   0.66276  -0.73133
  -1.28363   0.66276  -0.73133
  -1.76246   1.14160  -0.25250
  -1.52305   0.90218  -0.01308
  -1.76246   1.14160  -0.25250
  -1.52305   0.90218  -0.49192
  -1.76246   0.90218  -0.01308
  -1.52305   0.42334  -0.01308
  -1.76246   0.90218  -0.25250
  -1.76246   0.90218  -0.49192
  -1.52305   0.90218  -0.25250
  -1.28363   0.18392   0.22634
  -1.04421   0.18392  -0.01308
  -1.52305   0.90218  -0.01308
  -1.28363   0.90218  -0.25250
  -1.04421   0.66276  -0.25250
  -1.04421   0.66276  -0.49192
  -1.28363   0.90218  -0.25250
  -1.28363   0.66276  -0.25250
  -1.04421   0.90218  -0.49192
  -0.80479   0.90218  -0.73133
  -1.04421   0.66276  -0.25250
  -1.28363   0.66276   0.22634
  -1.04421   0.66276  -0.25250
  -1.04421   0.66276  -0.25250
  -0.80479   0.66276  -0.25250
  -1.04421   0.18392   0.22634
  -0.56537   0.18392   0.22634
  -0.56537   0.66276   0.22634
  -0.32595   0.66276  -0.01308
  -0.08653   0.18392  -0.01308
   0.39231  -0.05550  -0.01308
   0.15289   0.18392  -0.01308
  -0.08653   0.66276   0.22634
   0.39231   0.42334  -0.25250
   0.63173   0.18392  -0.01308
   0.63173   0.18392   0.22634
   0.15289   0.42334   0.46576
   0.63173   0.18392   0.46576
   0.63173   0.66276   0.70518
   0.87114   0.18392  -0.01308
   1.11056   0.18392   0.70518
   1.34998   0.18392   0.22634
   1.34998   0.42334   0.22634
   1.34998   0.42334   0.22634
   1.58940  -0.05550   0.46576
   1.82882  -0.29492   0.70518
   1.58940  -0.05550   0.70518
   1.58940   0.18392   0.70518
   1.82882   0.18392   0.94460
   2.06824  -0.05550   0.70518
   2.30766  -0.29492   0.70518
   2.06824  -0.29492   1.18402
   2.30766  -0.05550   0.94460
   2.54708   0.42334   0.46576
   2.54708   0.18392   0.46576
   2.78650  -0.05550   0.70518
   2.54708  -0.05550   0.94460
   3.02591   0.18392   0.46576
   3.02591   0.18392   0.70518
   3.02591   0.18392   0.94460
   3.26533  -0.29492   1.18402
   3.02591  -0.29492   0.94460
   2.78650   0.18392   0.70518
   3.26533   0.42334   0.46576
   3.50475  -0.53434   0.46576
   3.50475  -0.05550   0.46576
   3.26533  -0.05550   0.46576
   3.26533   0.18392   0.70518
   3.98359  -0.05550   0.46576
   3.74417   0.18392   0.70518
   3.50475  -0.05550   0.70518
   3.50475   0.18392   0.94460
   3.74417   0.18392   0.70518
   3.74417   0.18392   0.22634
   3.74417   0.18392   0.22634
   4.22301  -0.29492  -0.01308
   3.98359  -0.05550   0.22634
   3.98359   0.18392  -0.25250
   3.98359  -0.05550  -0.01308
   4.46243  -0.05550  -0.01308
   4.22301  -0.05550  -0.01308
   3.98359  -0.05550  -0.25250
   3.74417   0.66276  -0.01308
   3.98359   0.42334  -0.25250
   4.46243   0.18392  -0.73133
   3.98359  -0.05550  -0.25250
   3.98359   0.42334  -0.01308
   3.74417   0.42334  -0.49192
   4.22301   0.18392  -0.97075
   4.22301   0.18392  -0.73133
   4.22301  -0.05550  -0.49192
   4.22301  -0.05550  -0.73133
   4.22301   0.42334  -0.97075
   4.22301   0.42334  -0.97075
   3.98359  -0.05550  -0.49192
   4.22301   0.18392  -0.73133
   3.74417   0.42334  -0.73133
   3.50475   0.18392  -0.97075
   3.74417   0.42334  -0.97075
   3.98359  -0.53434  -1.21017
   3.50475  -0.05550  -0.49192
   3.50475   0.18392  -0.73133
   3.74417  -0.29492  -0.73133
   4.22301  -0.05550  -0.49192
   3.98359  -0.05550  -0.97075
   3.74417   0.18392  -0.25250
   3.98359  -0.29492  -0.49192
   3.98359  -0.05550  -0.73133
   4.22301  -0.29492  -0.97075
   4.22301  -0.29492  -0.49192
   3.98359  -0.29492  -0.25250
   3.98359  -0.05550  -0.49192
   3.98359   0.18392  -0.49192
   4.22301   0.18392  -0.25250
   4.22301  -0.05550  -0.25250
   3.98359  -0.05550  -0.25250
   3.50475   0.18392   0.22634
   3.98359  -0.05550   0.22634
   3.98359  -0.05550  -0.01308
   4.22301  -0.29492  -0.25250
   3.50475  -0.05550   0.70518
   3.50475  -0.05550   0.46576
   3.50475  -0.05550   0.22634
   3.98359  -0.53434  -0.01308
   3.74417  -0.29492   0.46576
   3.74417  -0.29492   0.70518
   3.74417  -0.29492   0.70518
   3.74417  -0.05550   0.94460
   3.74417  -0.05550   0.94460
   3.74417  -0.05550   1.18402
   3.74417  -0.29492   1.18402
   3.26533  -0.29492   0.94460
   3.26533  -0.05550   0.94460
   3.74417  -0.29492   1.18402
   3.98359  -0.53434   1.18402
   3.26533  -0.29492   1.42344
   3.02591   0.18392   1.90227
   3.50475  -0.05550   1.42344
   3.50475  -0.05550   1.18402
   3.02591  -0.29492   1.42344
   3.02591  -0.29492   1.66285
   3.02591  -0.05550   1.90227
   3.02591  -0.05550   1.42344
   3.02591  -0.05550   1.42344
   3.26533  -0.53434   1.90227
   2.78650  -1.01317   2.14169
   2.78650  -0.29492   1.42344
   2.78650  -0.53434   1.66285
   2.78650  -0.29492   1.90227
   2.78650  -0.77376   1.90227
   2.30766  -0.77376   1.90227
   2.06824  -0.29492   1.90227
   2.30766  -0.53434   1.90227
   2.30766  -0.53434   1.42344
   2.06824  -0.77376   1.66285
   1.58940  -0.53434   1.90227
   1.82882  -0.53434   1.66285
   2.06824  -0.29492   1.18402
   1.82882  -0.29492   1.42344
   1.82882  -0.53434   1.66285
   1.34998  -0.53434   1.90227
   1.34998  -0.53434   1.90227
   1.34998  -0.29492   1.42344
   1.11056  -0.29492   1.66285
   1.34998  -1.01317   1.66285
   1.11056  -0.77376   1.42344
   0.87114  -0.29492   1.18402
   0.87114  -0.53434   1.18402
   1.58940  -0.77376   1.18402
   0.87114  -0.77376   1.18402
   0.63173  -0.53434   1.42344
   0.39231  -0.53434   1.18402
   0.39231  -0.29492   0.94460
   0.39231  -0.29492   0.94460
  -0.08653  -0.29492   1.18402
  -0.32595  -0.53434   1.42344
  -0.08653  -0.29492   0.94460
  -0.08653  -0.29492   0.94460
  -0.32595  -0.29492   0.94460
  -0.56537  -0.53434   1.42344
  -0.56537  -0.29492   0.94460
  -1.04421   0.18392   0.70518
  -0.80479  -0.05550   0.70518
  -0.80479  -0.05550   0.94460
  -1.04421  -0.29492   0.94460
  -1.52305  -0.29492   0.70518
  -1.76246   0.18392   0.70518
  -1.52305  -0.05550   0.94460
  -1.04421  -0.53434   0.46576
  -1.52305  -0.29492   0.70518
  -1.52305  -0.05550   0.94460
  -1.76246   0.18392   0.22634
  -1.76246  -0.29492  -0.01308
  -2.24130  -0.05550   0.46576
  -2.24130  -0.05550   0.70518
  -2.24130  -0.05550   0.46576
  -2.24130   0.18392   0.22634
  -2.72014   0.42334  -0.01308
  -2.72014   0.18392   0.22634
  -2.72014  -0.05550   0.22634
  -3.19898   0.18392   0.22634
  -3.67782  -0.05550   0.22634
  -3.19898  -0.05550  -0.01308
  -3.19898  -0.29492   0.22634
  -3.91723   0.18392  -0.01308
  -4.15665  -0.05550   0.22634
  -4.15665   0.42334  -0.01308
  -3.91723  -0.29492  -0.49192
  -4.15665  -0.29492  -0.25250
  -4.15665  -0.29492   0.22634
  -4.15665  -0.05550  -0.01308
  -3.91723  -0.05550  -0.49192
  -3.91723  -0.05550  -0.25250
  -3.67782  -0.29492  -0.25250
  -4.15665  -0.53434   0.22634
  -4.39607   0.18392  -0.01308
  -4.15665  -0.05550  -0.25250
  -4.39607  -0.05550  -0.25250
  -4.15665  -0.29492  -0.01308
  -4.15665  -0.29492  -0.25250
  -4.63549  -0.05550  -0.01308
  -4.15665   0.42334  -0.49192
  -3.91723  -0.05550  -0.49192
  -4.15665   0.18392  -0.49192
  -4.39607  -0.05550  -0.01308
  -4.39607  -0.05550  -0.25250
  -4.15665  -0.05550  -0.25250
  -4.15665  -0.05550  -0.25250
  -4.63549   0.18392   0.22634
  -4.39607  -0.05550   0.22634
  -4.87491   0.18392  -0.25250
  -4.87491   0.42334   0.22634
  -4.87491  -0.05550  -0.01308
  -4.39607  -0.05550   0.22634
  -4.39607  -0.29492   0.22634
  -4.63549  -0.05550  -0.01308
  -4.63549  -0.05550  -0.01308
  -4.15665  -0.05550  -0.01308
  -4.39607  -0.29492  -0.01308
  -4.87491  -0.05550   0.22634
  -4.39607   0.18392   0.46576
  -4.15665  -0.05550   0.22634
  -3.91723   0.42334   0.22634
  -4.39607   0.18392   0.22634
  -4.15665  -0.29492   0.46576
  -4.15665  -0.05550  -0.01308
  -4.39607   0.18392  -0.25250
  -4.15665  -0.05550  -0.01308
  -3.67782  -0.29492   0.46576
  -4.15665  -0.05550   0.22634
  -4.15665   0.42334  -0.25250
  -4.15665   0.18392  -0.01308
  -3.91723  -0.05550  -0.01308
  -4.15665  -0.05550  -0.01308
  -4.39607   0.18392   0.22634
  -4.39607   0.42334   0.22634
  -4.39607   0.18392   0.22634
  -3.91723   0.18392  -0.25250
  -4.39607  -0.05550  -0.01308
  -4.39607   0.42334   0.22634
  -4.15665   0.42334  -0.25250
  -3.67782   0.18392  -0.97075
  -3.91723   0.42334  -0.25250
  -4.15665   0.42334  -0.01308
  -4.15665   0.66276  -0.25250
  -3.91723   0.90218  -0.73133
  -4.15665   0.42334  -0.73133
  -3.91723   0.18392  -0.49192
  -3.43840   0.18392  -0.73133
  -3.91723   0.42334  -0.73133
  -3.91723   0.66276  -0.97075
  -3.67782   0.42334  -0.97075
  -3.19898   0.42334  -1.44959
  -3.67782   0.42334  -1.21017
  -3.67782   0.66276  -1.44959
  -3.67782   0.66276  -1.44959
  -3.19898   0.42334  -2.16785
  -3.43840   0.66276  -1.92843
  -3.67782   0.66276  -1.44959
  -3.43840   0.66276  -1.68901
  -3.43840   0.90218  -2.16785
  -3.91723   1.14160  -1.92843
  -3.43840   0.66276  -1.68901
  -3.43840   0.66276  -1.92843
  -3.67782   1.14160  -1.92843
  -3.67782   0.90218  -2.40727
  -4.15665   0.90218  -1.92843
  -3.43840   0.18392  -2.16785
  -3.43840   0.90218  -2.16785
  -3.43840   0.66276  -2.40727
  -3.67782   0.66276  -2.40727
  -3.19898   0.66276  -2.64669
  -2.95956   0.42334  -2.64669
  -3.19898   0.42334  -2.16785
  -3.43840   0.42334  -2.16785
  -2.95956   0.42334  -2.40727
  -2.48072   0.42334  -2.88611
  -2.48072  -0.05550  -2.40727
  -2.72014   0.18392  -2.40727
  -2.72014   0.42334  -2.88611
  -2.48072   0.90218  -3.36494
  -2.24130   0.18392  -2.64669
  -1.76246   0.42334  -2.40727
  -2.00188   0.66276  -2.64669
  -2.48072   0.90218  -2.64669
  -2.24130   0.90218  -2.64669
  -2.00188   0.66276  -2.40727
  -2.00188   0.66276  -2.64669
  -2.00188   0.66276  -2.16785
  -2.00188   0.66276  -2.16785
  -1.28363   0.66276  -2.64669
  -1.52305   0.66276  -2.64669
  -1.76246   0.42334  -2.16785
  -1.76246   0.42334  -2.16785
  -1.52305   0.66276  -2.16785
  -1.76246   0.66276  -2.40727
  -1.52305   0.42334  -2.16785
  -1.04421  -0.05550  -1.92843
  -1.28363  -0.05550  -1.92843
  -1.04421   0.42334  -2.16785
  -1.04421   0.42334  -1.92843
  -0.80479  -0.05550  -1.68901
  -1.04421  -0.05550  -1.68901
  -1.04421   0.18392  -1.68901
  -1.04421   0.18392  -1.21017
  -0.56537  -0.05550  -1.44959
  -0.08653  -0.05550  -1.44959
   0.15289   0.18392  -1.44959
  -0.32595   0.18392  -0.97075
  -0.08653  -0.05550  -1.44959
   0.15289   0.42334  -1.68901
   0.15289   0.18392  -1.44959
   0.15289   0.18392  -1.21017
   0.39231   0.18392  -1.21017
   0.63173   0.42334  -1.44959
   0.63173   0.18392  -0.73133
   0.87114  -0.05550  -0.97075
   0.87114  -0.29492  -0.73133
   1.11056  -0.05550  -0.97075
   0.87114   0.18392  -0.73133
   1.34998  -0.05550  -1.44959
   1.58940  -0.05550  -0.97075
   1.58940  -0.29492  -1.21017
   1.34998   0.18392  -1.21017
   1.82882   0.18392  -0.97075
   2.06824  -0.29492  -1.21017
   1.82882  -0.05550  -0.97075
   1.82882  -0.29492  -0.97075
   2.06824  -0.29492  -0.49192
   2.30766  -0.05550  -0.97075
   2.78650  -0.05550  -1.21017
   3.02591  -0.05550  -1.21017
   3.26533  -0.05550  -0.97075
   2.78650  -0.05550  -1.21017
   3.02591   0.18392  -1.21017
   3.26533  -0.05550  -1.21017
   3.50475  -0.05550  -0.97075
   3.02591   0.18392  -0.97075
   3.02591  -0.05550  -0.73133
   3.02591   0.42334  -0.97075
   3.74417   0.18392  -1.44959
   3.98359  -0.29492  -1.21017
   3.74417  -0.05550  -0.73133
   3.74417  -0.05550  -0.73133
   3.74417   0.18392  -0.97075
   3.98359  -0.05550  -1.21017
   3.98359   0.18392  -0.73133
   3.74417  -0.05550  -0.73133
   3.98359  -0.05550  -0.73133
   3.98359   0.18392  -0.73133
   3.74417   0.18392  -0.73133
   4.22301  -0.05550  -0.73133
   3.98359  -0.05550  -0.49192
   3.50475   0.42334  -0.49192
   3.74417   0.18392  -0.73133
   4.22301   0.18392  -0.73133
   4.22301  -0.05550  -0.73133
   3.74417   0.18392  -0.25250
   3.98359  -0.05550  -0.25250
   3.98359  -0.05550  -0.25250
