********************************************************************************
              CENTRO DE INSTRUMENTACION Y REGISTRO SISMICO  A.C.

    Anaxagoras 814, Col. Narvarte, Benito Juarez, C.P. 03020 Mexico, D.F.
           Tels. 5687 45 42/ 5687 45  82             Fax. 5669 25 12
********************************************************************************
ARCHIVO ESTANDAR DE ACELERACION:
VERSION DEL FORMATO                    : 2.0
NOMBRE DEL ARCHIVO                     : AP6819890425142900
FECHA Y HORA DE CREACION               : 08/MAY/18, 11:12
REF. CATALOGO ACELEROGRAMAS, SMIS 1996 : REGISTRO No.     /PAG.


================================================================================
DATOS DE LA ESTACION:
NOMBRE DE LA ESTACION                  : JARD�N DE NI�OS "JUAN B. DE LA SALLE"
CLAVE DE LA ESTACION                   : AP68
LOCALIZACION DE LA ESTACION            : Del. Iztapalapa, Col. Santa Mar�a      
                                       : Pur�sima Atlazolpa,  entre Canal de    
                                       : Apatlaco y Ahuehuetes.                 
                                       :                                        
                                       : 
COORDENADAS DE LA ESTACION             : 19.3809 LAT. N
                                       : 99.1068 LONG. W
ALTITUD (msnm)                         : 2232
TIPO DE SUELO                          : Arcilloso, zona lago                
                                       :                           
                                       : 
INSTITUCION RESPONSABLE                : CIRES
                                       : 

================================================================================
DATOS DEL ACELEROGRAFO:
MODELO DEL ACELEROGRAFO                : DCA-333
NUMERO DE SERIE DEL ACELEROGRAFO       : 255
NUMERO DE CANALES                      : 3
ORIENTACION C1-C6 (rumbo;orientacion)  : /N00E/+V/N90W
ORIENTACION C7-C12 (rumbo;orientacion) : 
VEL. DE MUESTREO, C1-C6 (muestras/s)   : /100/100/100
VEL. DE MUESTREO, C7-C12 (muestras/s)  : 
ESC. COMPLETA DE SENSORES, C1-C6, (g)  : /0.5/0.5/0.5
ESC. COMPLETA DE SENSORES, C7-C12, (g) : 
FREC. NAT. DE SENSORES, C1-C6, (Hz)    : /30/30/30
FREC. NAT. DE SENSORES, C7-C12, (Hz)   : 
AMORTIGUAMIENTO DE SENSORES, C1-C6     : /0.780/0.700/0.678
AMORTIGUAMIENTO DE SENSORES, C7-C12    : 
INTERVALO DE MUESTREO, C1-C6, (s)      : /0.01/0.01/0.01
INTERVALO DE MUESTREO, C7-C12, (s)     : 
UMBRAL DE DISPARO, C1-C6, (Gal)        : /3.42/7.32/7.32
UMBRAL DE DISPARO, C7-C12, (Gal)       : 
MEMORIA DE PREEVENTO (s)               : 3.0
TIEMPO DE POSEVENTO (s)                : 15.0


================================================================================
DATOS DEL SISMO:
FECHA DEL SISMO (GMT)                  : 25/ABR/89
HORA EPICENTRO (GMT)                   : 14:29:00.0
MAGNITUD(ES)                           : /Mc=6.5
COORDENADAS DEL EPICENTRO              : 16.60 LAT. N
                                       : 99.40 LONG. W
PROFUNDIDAD FOCAL (km)                 : 19
FUENTE DE LOS DATOS EPICENTRALES       : SSN
                                       : INSTITUTO DE GEOFISICA, UNAM

================================================================================
DATOS DE ESTE REGISTRO:
HORA DE LA PRIMERA MUESTRA (GMT)       : 14:30:02.42
EXACTITUD DEL TIEMPO (s)               : 0.01
DURACION DEL REGISTRO (s), C1-C6       : /190.23/190.23/190.23
DURACION DEL REGISTRO (s), C7-C12      : 
NUM. TOTAL DE MUESTRAS, C1-C6          : /19023/19023/19023
NUM. TOTAL DE MUESTRAS, C7-C12         : 
ACEL. MAX. (Gal), C1-C6                : /32.96996/248.95731/33.29999
ACEL. MAX., C1-C6, EN LA MUESTRA       : /3941/5444/3286
ACEL. MAX. (Gal), C7-C12               : 
ACEL. MAX., C7-C12, EN LA MUESTRA      : 
UNIDADES DE LOS DATOS                  : Gal (cm/s/s)
FACTOR DE DECIMACION                   : 1
FORMATO DATOS (FORTRAN,10 campos/dato) : 3F10.5


================================================================================
CALIDAD DEL ACELEROGRAMA:
REGISTRO DIGITAL COMPLETO CON TIEMPO ABSOLUTO CORRECTO.


================================================================================
COMENTARIOS:














================================================================================
DATOS DE ACELERACION:
---------+---------+---------+---------+---------+---------+---------+---------+
   CANAL-1   CANAL-2   CANAL-3   CANAL-4   CANAL-5   CANAL-6   CANAL-7   CANAL-8
      N00E        +V      N90W
---------+---------+---------+---------+---------+---------+---------+---------+
[...]
  10.22504  -3.87038  -6.92259
  11.18272  -3.87038  -6.68317
  11.90098  -3.87038  -6.68317
  12.61924  -3.87038  -6.44375
  13.57692  -3.87038  -6.44375
  14.29518  -3.63096  -6.20433
  15.01344  -3.63096  -5.96491
  15.49228  -3.39154  -5.72549
  16.21054  -3.15212  -5.48607
  16.68938  -3.15212  -5.48607
  17.16822  -2.91270  -5.00723
  17.40764  -2.91270  -4.76781
  17.64706  -2.67328  -4.52839
  17.88648  -2.43386  -4.04955
  18.12591  -2.19444  -3.81013
  18.12591  -1.95502  -3.57071
  18.12591  -1.71560  -3.09187
  17.88648  -1.47618  -2.85245
  17.40764  -1.23676  -2.37361
  16.92880  -0.99734  -2.13419
  16.44996  -0.75792  -1.89477
  16.21054  -0.51850  -1.65535
  15.25286  -0.03966  -1.41593
  15.01344   0.19976  -1.41593
  14.77402   0.43918  -1.41593
  14.53460   0.67860  -1.41593
  14.05576   1.15744  -1.65535
  13.57692   1.63628  -1.89477
  13.09808   2.11512  -2.37361
  12.85866   2.59396  -3.09187
  12.37982   3.07280  -3.57071
  12.14040   3.55164  -4.04955
  11.90098   3.79106  -4.52839
  11.66156   4.03048  -5.00723
  11.66156   4.50933  -5.48607
  11.42214   4.74875  -6.20433
  11.42214   4.98817  -6.68317
  11.18272   5.22759  -7.16201
  10.94330   5.46701  -7.64085
  10.70388   5.70643  -8.11970
  10.22504   5.70643  -8.59854
   9.74620   5.94585  -9.07738
   9.26736   6.18527  -9.55622
   8.78852   6.18527  -9.79564
   8.30968   6.18527 -10.03506
   7.83084   6.18527 -10.27448
   7.35200   6.42469 -10.51390
   6.87316   6.42469 -10.75332
   6.39432   6.42469 -10.99274
   5.67606   6.42469 -11.23216
   4.95780   6.42469 -11.23216
   4.47896   6.42469 -11.23216
   3.52127   6.42469 -10.99274
   2.80301   6.42469 -10.99274
   2.08475   6.42469 -10.51390
   1.36649   6.42469 -10.27448
   0.64823   6.42469  -9.79564
  -0.30945   6.42469  -9.55622
  -1.26713   6.42469  -9.07738
  -2.22481   6.42469  -8.83796
  -2.94307   6.42469  -8.35912
  -4.14017   6.42469  -8.11970
  -5.09785   6.18527  -7.64085
  -6.05553   6.18527  -7.40143
  -7.01321   5.94585  -6.92259
  -7.73147   5.70643  -6.68317
  -8.44973   5.46701  -6.20433
  -9.16799   5.22759  -5.96491
  -9.88625   4.98817  -5.96491
 -10.36509   4.74875  -5.48607
 -10.84394   4.26991  -5.48607
 -11.32278   3.79106  -5.48607
 -11.56220   3.55164  -5.24665
 -11.80162   3.31222  -5.48607
 -12.04104   2.83338  -5.48607
 -12.04104   2.35454  -5.72549
 -12.28046   1.87570  -5.72549
 -12.28046   1.15744  -5.72549
 -12.28046   0.67860  -5.96491
 -12.04104   0.19976  -5.96491
 -11.80162  -0.27908  -5.96491
 -11.56220  -0.75792  -6.20433
 -11.32278  -1.47618  -6.20433
 -10.84394  -1.95502  -6.44375
 -10.36509  -2.43386  -6.44375
 -10.12567  -2.67328  -6.44375
  -9.40741  -3.15212  -6.68317
  -8.68915  -3.63096  -6.68317
  -7.97089  -3.87038  -6.68317
  -7.25263  -4.34922  -6.92259
  -6.53437  -4.58864  -6.92259
  -5.57669  -5.06748  -7.16201
  -4.85843  -5.30690  -7.40143
  -3.90075  -5.54632  -7.64085
  -2.94307  -5.78574  -7.64085
  -1.98539  -6.02516  -7.64085
  -1.02771  -6.26458  -7.88028
  -0.30945  -6.50400  -7.88028
   0.40881  -6.50400  -8.11970
   1.12707  -6.74342  -8.11970
   1.60591  -6.98284  -8.11970
   2.32417  -6.98284  -8.35912
   3.04243  -6.98284  -8.35912
   4.00012  -6.98284  -8.35912
   4.71838  -7.22226  -8.59854
   5.43664  -7.22226  -8.59854
   5.91548  -7.46168  -8.59854
   6.87316  -7.70110  -8.83796
   7.59142  -7.70110  -9.07738
   8.07026  -7.94052  -9.07738
   8.78852  -7.94052  -8.83796
   9.50678  -8.17994  -8.83796
   9.98562  -8.41936  -8.59854
  10.22504  -8.41936  -8.35912
  10.70388  -8.65878  -8.11970
  10.94330  -8.89820  -7.88028
  11.42214  -8.89820  -7.64085
  11.66156  -8.89820  -7.40143
  12.14040  -8.89820  -7.16201
  12.14040  -8.89820  -6.68317
  12.37982  -8.89820  -6.44375
  12.14040  -9.13762  -5.72549
  12.37982  -9.13762  -5.24665
  12.14040  -8.89820  -4.76781
  12.14040  -8.89820  -4.28897
  12.37982  -8.89820  -3.81013
  12.37982  -8.65878  -3.09187
  12.37982  -8.65878  -2.61303
  12.37982  -8.41936  -2.13419
  12.14040  -8.17994  -1.65535
  11.90098  -8.17994  -1.17651
  11.66156  -7.94052  -0.69767
  11.42214  -7.94052   0.02059
  11.42214  -7.70110   0.49943
  11.18272  -7.46168   0.97827
  10.70388  -7.46168   1.45711
  10.46446  -7.22226   1.69653
  10.22504  -6.98284   1.93595
   9.74620  -6.74342   2.17537
   9.26736  -6.50400   2.65421
   9.02794  -6.26458   2.89363
   8.30968  -6.02516   2.89363
   7.83084  -5.54632   3.13305
   7.11258  -5.30690   3.37247
   6.63374  -5.06748   3.61189
   5.91548  -4.58864   3.61189
   4.95780  -4.10980   3.61189
   4.47896  -3.63096   3.61189
   3.52127  -3.39154   3.61189
   2.56359  -3.15212   3.61189
   1.60591  -2.91270   3.61189
   0.88765  -2.43386   3.37247
  -0.30945  -1.95502   3.13305
  -1.26713  -1.71560   2.89363
  -2.22481  -1.47618   2.89363
  -3.42191  -1.23676   2.65421
  -4.37959  -0.75792   2.41479
  -5.57669  -0.51850   2.17537
  -6.53437  -0.03966   1.93595
  -7.49205   0.19976   1.93595
  -8.68915   0.43918   1.93595
  -9.64683   0.91802   1.93595
 -10.84394   1.15744   1.69653
 -11.56220   1.39686   1.69653
 -12.51988   1.87570   1.45711
 -13.47756   2.11512   1.69653
 -14.67466   2.35454   1.69653
 -15.63234   2.59396   1.45711
 -16.59002   2.83338   1.45711
 -17.30828   3.07280   1.45711
 -18.02654   3.07280   1.21769
 -18.74480   3.31222   1.21769
 -19.46306   3.79106   1.21769
 -19.70248   3.79106   1.21769
 -20.42074   4.03048   0.97827
 -20.66016   4.26991   0.97827
 -21.13900   4.26991   1.21769
 -21.61784   4.50933   1.21769
 -21.85726   4.50933   1.21769
 -22.09668   4.74875   1.21769
 -22.33610   4.74875   1.45711
 -22.57552   4.98817   1.45711
 -22.57552   4.98817   1.45711
 -22.57552   5.22759   1.45711
 -22.57552   5.22759   1.69653
 -22.57552   5.46701   1.69653
 -22.57552   5.70643   1.45711
 -22.57552   5.70643   1.45711
 -22.33610   5.70643   1.45711
 -21.85726   5.94585   1.69653
 -21.61784   6.18527   1.69653
 -21.37842   6.18527   1.93595
 -20.89958   6.18527   1.93595
 -20.66016   6.42469   1.93595
 -20.18132   6.42469   1.93595
 -19.94190   6.42469   2.17537
 -19.46306   6.42469   2.41479
 -18.74480   6.42469   2.65421
 -18.26596   6.42469   3.13305
 -17.54770   6.42469   3.37247
 -17.06886   6.42469   3.85131
 -16.59002   6.18527   4.33015
 -16.11118   5.94585   4.80899
 -15.39292   5.70643   5.28783
 -14.43524   5.46701   6.00609
 -13.71698   5.22759   6.48493
 -12.75930   4.98817   7.20320
 -12.04104   4.50933   7.68204
 -11.08336   4.26991   8.40030
 -10.36509   3.79106   9.11856
  -9.40741   3.55164   9.59740
  -8.44973   3.07280  10.31566
  -7.49205   2.83338  11.03392
  -6.77379   2.35454  11.51276
  -5.81611   1.87570  11.75218
  -5.09785   1.63628  12.23102
  -4.14017   1.15744  12.47044
  -3.42191   0.67860  12.70986
  -2.46423   0.19976  12.94928
  -1.74597  -0.27908  12.94928
  -1.02771  -0.51850  13.18870
  -0.07003  -0.75792  13.18870
   0.64823  -1.23676  13.42812
   1.12707  -1.47618  13.18870
   1.84533  -1.95502  13.18870
   2.56359  -2.19444  12.94928
   3.04243  -2.43386  12.94928
   3.76070  -2.67328  12.70986
   4.47896  -3.15212  12.47044
   5.19722  -3.15212  12.23102
   5.67606  -3.39154  11.99160
   6.39432  -3.63096  11.75218
   7.11258  -3.87038  11.51276
   7.59142  -4.10980  11.27334
   8.30968  -4.34922  11.03392
   9.02794  -4.34922  10.79450
   9.74620  -4.34922  10.55508
  10.22504  -4.58864  10.31566
  10.94330  -4.58864  10.07624
  11.66156  -4.82806  10.07624
  12.14040  -5.06748  10.07624
  12.85866  -5.06748  10.07624
  13.57692  -5.06748   9.83682
  14.29518  -5.06748   9.83682
  14.77402  -4.82806   9.83682
  15.25286  -4.82806  10.07624
  15.73170  -4.82806  10.07624
  15.97112  -4.58864  10.07624
  16.21054  -4.58864  10.07624
  16.44996  -4.10980  10.07624
  16.68938  -3.87038  10.07624
  16.68938  -3.63096  10.07624
  16.68938  -3.15212  10.31566
  16.44996  -2.67328  10.31566
  16.21054  -2.43386  10.31566
  15.97112  -1.95502  10.07624
  15.49228  -1.47618  10.07624
  15.01344  -0.99734  10.07624
  14.29518  -0.51850  10.07624
  13.81634  -0.27908   9.83682
  13.33750   0.43918   9.83682
  12.85866   0.67860   9.59740
  12.37982   1.15744   9.59740
  11.42214   1.63628   9.35798
  10.22504   2.11512   9.11856
   9.02794   2.11512   8.87914
   7.83084   2.35454   8.40030
   6.87316   2.35454   7.92146
   6.39432   2.59396   7.68204
   5.67606   3.07280   7.20320
   5.19722   3.07280   6.72436
   4.71838   3.31222   6.48493
   4.23954   3.31222   6.24551
   4.00012   3.31222   6.00609
   3.52127   3.31222   5.76667
   2.80301   3.31222   5.76667
   2.32417   3.55164   5.76667
   1.84533   3.55164   5.52725
   1.36649   3.55164   5.28783
   1.12707   3.79106   5.28783
   0.88765   3.79106   5.04841
   0.40881   3.79106   4.80899
  -0.07003   3.79106   4.80899
  -0.54887   3.79106   4.80899
  -1.26713   3.79106   4.80899
  -1.50655   3.79106   4.56957
  -1.98539   3.79106   4.56957
  -2.22481   3.79106   4.56957
  -2.22481   3.79106   4.33015
  -2.46423   3.79106   4.09073
  -2.94307   3.79106   3.85131
  -3.18249   3.79106   3.61189
  -3.66133   3.79106   3.13305
  -3.90075   3.79106   2.65421
  -5.33727   3.55164   0.97827
  -5.57669   3.55164   0.49943
  -5.57669   3.55164   0.26001
  -5.81611   3.31222  -0.21883
  -5.81611   3.31222  -0.69767
  -5.81611   3.07280  -0.93709
  -5.81611   3.07280  -1.41593
  -5.81611   2.83338  -1.89477
  -5.81611   2.83338  -2.37361
  -5.81611   2.59396  -2.85245
  -5.81611   2.35454  -3.09187
  -5.57669   2.11512  -3.33129
  -5.33727   2.11512  -3.57071
  -5.09785   1.87570  -3.81013
  -4.85843   1.63628  -4.04955
  -4.37959   1.15744  -4.28897
  -4.14017   0.91802  -4.28897
  -3.90075   0.43918  -4.52839
  -3.66133  -0.03966  -4.52839
  -2.94307  -0.27908  -4.76781
  -2.46423  -0.75792  -4.52839
  -1.98539  -1.23676  -4.52839
  -1.50655  -1.47618  -4.52839
  -0.78829  -1.95502  -4.28897
  -0.30945  -2.43386  -4.28897
   0.16939  -2.91270  -4.28897
   0.88765  -3.15212  -4.04955
   1.12707  -3.63096  -4.04955
   1.60591  -4.10980  -4.04955
   2.08475  -4.34922  -3.81013
   2.56359  -4.82806  -3.57071
   3.04243  -5.06748  -3.57071
   3.52127  -5.54632  -3.57071
   4.00012  -5.78574  -3.33129
   4.47896  -6.02516  -3.33129
   4.95780  -6.26458  -3.33129
   5.19722  -6.74342  -3.33129
   5.67606  -6.98284  -3.33129
   6.15490  -7.22226  -3.57071
   6.63374  -7.70110  -3.81013
   7.11258  -7.70110  -4.28897
   7.59142  -7.94052  -4.52839
   8.07026  -8.17994  -5.00723
   8.54910  -8.17994  -5.48607
   8.78852  -8.41936  -5.96491
   9.26736  -8.41936  -6.44375
   9.74620  -8.41936  -7.16201
  10.22504  -8.41936  -7.64085
  10.22504  -8.41936  -8.35912
  10.70388  -8.17994  -9.07738
  10.70388  -8.17994  -9.79564
  10.94330  -8.17994 -10.51390
  -4.37959 248.95731   2.17537
  -4.85843   3.55164   1.93595
  -5.09785   3.55164   1.45711
  11.18272  -8.17994 -11.23216
  11.18272  -7.94052 -11.95042
  11.42214  -7.94052 -12.66868
  11.42214  -7.70110 -13.38694
  11.42214  -7.46168 -14.10520
  11.18272  -7.22226 -14.82346
  11.18272  -6.98284 -15.30230
  10.94330  -6.74342 -15.78114
  10.70388  -6.50400 -16.25998
  10.46446  -6.02516 -16.73882
  10.22504  -5.78574 -16.97824
   9.74620  -5.30690 -17.21766
   9.50678  -5.06748 -17.45708
   9.02794  -4.58864 -17.69650
   8.54910  -4.10980 -17.93592
   8.07026  -3.87038 -17.93592
   7.59142  -3.63096 -17.93592
   6.87316  -3.15212 -17.93592
   6.39432  -2.67328 -17.93592
   5.67606  -2.19444 -17.69650
   5.19722  -1.71560 -17.69650
   4.47896  -1.23676 -17.45708
   4.00012  -0.75792 -17.21766
   3.52127  -0.27908 -17.21766
   3.04243   0.19976 -17.21766
   2.32417   0.67860 -16.97824
   1.84533   1.15744 -16.73882
   1.12707   1.63628 -16.49940
   0.88765   2.11512 -16.02056
   0.40881   2.35454 -15.78114
  -0.30945   2.83338 -15.54172
  -0.78829   3.07280 -15.06288
  -1.26713   3.55164 -14.58404
  -1.74597   3.79106 -13.86578
  -2.22481   3.79106 -13.14752
  -2.94307   4.03048 -12.66868
  -3.42191   4.26991 -11.95042
  -3.90075   4.50933 -11.47158
  -4.37959   4.74875 -10.75332
  -4.85843   4.98817 -10.27448
  -5.33727   5.22759  -9.55622
  -5.81611   5.46701  -8.83796
  -6.29495   5.70643  -8.11970
  -6.53437   5.94585  -7.40143
  -6.77379   6.18527  -6.68317
  -7.49205   6.42469  -5.96491
  -7.73147   6.42469  -5.48607
  -8.21031   6.66411  -4.76781
  -8.44973   6.66411  -4.28897
  -8.68915   6.66411  -3.57071
  -8.92857   6.66411  -3.09187
  -9.16799   6.66411  -2.37361
  -9.40741   6.66411  -1.65535
  -9.40741   6.66411  -1.17651
  -9.64683   6.90353  -0.69767
  -9.88625   6.90353   0.02059
 -10.36509   6.66411   0.73885
 -10.60451   6.66411   1.45711
 -10.60451   6.42469   1.93595
 -10.84394   6.42469   2.17537
 -10.84394   6.18527   2.65421
 -10.84394   6.18527   3.13305
 -10.84394   5.94585   3.61189
 -10.84394   5.70643   4.09073
 -10.84394   5.70643   4.33015
 -10.60451   5.70643   4.56957
 -10.60451   5.46701   4.80899
 -10.60451   5.22759   4.80899
 -10.36509   5.22759   4.80899
 -10.12567   5.22759   5.04841
 -10.12567   5.22759   5.04841
 -10.12567   5.22759   5.04841
 -10.12567   4.98817   4.80899
  -9.88625   4.74875   4.56957
  -9.64683   4.50933   4.33015
  -9.40741   4.26991   4.09073
  -9.16799   4.03048   3.61189
  -8.92857   3.79106   3.13305
  -8.44973   3.79106   2.65421
  -8.21031   3.79106   2.41479
  -7.73147   3.31222   1.93595
  -7.25263   3.07280   1.93595
  -6.77379   2.83338   1.93595
  -6.29495   2.83338   1.69653
  -5.81611   2.59396   1.69653
  -5.09785   2.35454   1.45711
  -4.37959   2.35454   1.21769
  -3.66133   2.11512   1.21769
  -2.94307   1.87570   0.97827
  -2.22481   1.63628   0.97827
  -1.26713   1.39686   0.97827
  -0.54887   1.15744   0.73885
   0.40881   0.91802   0.73885
   1.12707   0.67860   0.73885
   1.84533   0.43918   0.73885
   2.56359   0.19976   0.73885
   3.28185  -0.03966   0.73885
   4.00012  -0.27908   0.73885
   4.71838  -0.27908   0.97827
   5.43664  -0.75792   0.97827
   5.91548  -0.99734   0.97827
   6.39432  -1.23676   0.97827
   6.87316  -1.47618   0.97827
   7.35200  -1.71560   0.73885
   7.83084  -1.71560   0.73885
   8.07026  -1.95502   0.49943
   8.54910  -2.19444   0.26001
   8.78852  -2.43386   0.02059
   9.02794  -2.67328  -0.21883
   9.26736  -2.67328  -0.45825
   9.26736  -2.91270  -0.69767
   9.26736  -3.15212  -0.93709
   9.26736  -3.39154  -0.93709
   9.26736  -3.63096  -1.17651
   9.02794  -3.63096  -1.17651
   9.02794  -3.87038  -1.41593
   8.78852  -3.87038  -1.65535
   8.54910  -3.87038  -1.89477
   8.30968  -4.10980  -1.89477
   8.07026  -4.10980  -1.89477
   7.83084  -4.34922  -1.89477
   7.59142  -4.34922  -1.89477
   7.35200  -4.34922  -1.89477
   7.35200  -4.34922  -1.89477
   7.11258  -4.34922  -1.89477
   6.87316  -4.34922  -1.89477
   6.87316  -4.34922  -1.89477
   6.39432  -4.10980  -2.13419
   6.15490  -4.10980  -1.89477
   5.67606  -3.87038  -1.89477
   5.43664  -3.87038  -1.65535
   5.19722  -3.63096  -1.65535
   4.95780  -3.63096  -1.65535
   4.95780  -3.39154  -1.65535
   4.71838  -3.39154  -1.17651
   4.47896  -3.15212  -1.17651
   4.23954  -2.91270  -0.93709
   4.00012  -2.67328  -0.93709
   3.76070  -2.43386  -0.69767
   3.76070  -2.19444  -0.69767
   3.52127  -1.95502  -0.45825
   3.28185  -1.47618  -0.21883
   3.04243  -1.47618   0.02059
   3.04243  -0.99734   0.02059
   2.80301  -0.75792   0.26001
   2.80301  -0.51850   0.26001
