********************************************************************************
              CENTRO DE INSTRUMENTACION Y REGISTRO SISMICO  A.C.

    Anaxagoras 814, Col. Narvarte, Benito Juarez, C.P. 03020 Mexico, D.F.
           Tels. 5687 45 42/ 5687 45  82             Fax. 5669 25 12
********************************************************************************
ARCHIVO ESTANDAR DE ACELERACION:
VERSION DEL FORMATO                    : 2.0
NOMBRE DEL ARCHIVO                     : AP6820170908044918
FECHA Y HORA DE CREACION               : 19/SEP/17, 12:35
REF. CATALOGO ACELEROGRAMAS, SMIS 1996 : REGISTRO No.     /PAG.


================================================================================
DATOS DE LA ESTACION:
NOMBRE DE LA ESTACION                  : JARDÍN DE NIÑOS "JUAN B. DE LA SALLE"
CLAVE DE LA ESTACION                   : AP68
LOCALIZACION DE LA ESTACION            : Del. Iztapalapa, Col. Santa María      
                                       : Purísima Atlazolpa,  entre Canal de    
                                       : Apatlaco y Ahuehuetes.                 
                                       :                                        
                                       : 
COORDENADAS DE LA ESTACION             : 19.3809 LAT. N
                                       : 99.1068 LONG. W
ALTITUD (msnm)                         : 2232
TIPO DE SUELO                          : Arcilloso, zona lago                
                                       :                           
                                       : 
INSTITUCION RESPONSABLE                : CIRES
                                       : 

================================================================================
DATOS DEL ACELEROGRAFO:
MODELO DEL ACELEROGRAFO                : RADESD
NUMERO DE SERIE DEL ACELEROGRAFO       : 255
NUMERO DE CANALES                      : 3
ORIENTACION C1-C6 (rumbo;orientacion)  : /N00E/+V/N90W
ORIENTACION C7-C12 (rumbo;orientacion) : 
VEL. DE MUESTREO, C1-C6 (muestras/s)   : /100/100/100
VEL. DE MUESTREO, C7-C12 (muestras/s)  : 
ESC. COMPLETA DE SENSORES, C1-C6, (g)  : /0.5/0.5/0.5
ESC. COMPLETA DE SENSORES, C7-C12, (g) : 
FREC. NAT. DE SENSORES, C1-C6, (Hz)    : /30/30/30
FREC. NAT. DE SENSORES, C7-C12, (Hz)   : 
AMORTIGUAMIENTO DE SENSORES, C1-C6     : /0.780/0.700/0.678
AMORTIGUAMIENTO DE SENSORES, C7-C12    : 
INTERVALO DE MUESTREO, C1-C6, (s)      : /0.01/0.01/0.01
INTERVALO DE MUESTREO, C7-C12, (s)     : 
UMBRAL DE DISPARO, C1-C6, (Gal)        : /2.24/5.24/3.89
UMBRAL DE DISPARO, C7-C12, (Gal)       : 
MEMORIA DE PREEVENTO (s)               : 44.0
TIEMPO DE POSEVENTO (s)                : 64.0


================================================================================
DATOS DEL SISMO:
FECHA DEL SISMO (GMT)                  : 08/SEP/17
HORA EPICENTRO (GMT)                   : 04:49:18.0
MAGNITUD(ES)                           : /Mc=8.2
COORDENADAS DEL EPICENTRO              : 14.85 LAT. N
                                       : 94.11 LONG. W
PROFUNDIDAD FOCAL (km)                 : 58
FUENTE DE LOS DATOS EPICENTRALES       : SSN
                                       : INSTITUTO DE GEOFISICA, UNAM

================================================================================
DATOS DE ESTE REGISTRO:
HORA DE LA PRIMERA MUESTRA (GMT)       : 04:51:46.00
EXACTITUD DEL TIEMPO (s)               : 0.01
DURACION DEL REGISTRO (s), C1-C6       : /332.6/332.6/332.6
DURACION DEL REGISTRO (s), C7-C12      : 
NUM. TOTAL DE MUESTRAS, C1-C6          : /33260/33260/33260
NUM. TOTAL DE MUESTRAS, C7-C12         : 
ACEL. MAX. (Gal), C1-C6                : /37.93656/10.16993/29.07475
ACEL. MAX., C1-C6, EN LA MUESTRA       : /13999/10872/10272
ACEL. MAX. (Gal), C7-C12               : 
ACEL. MAX., C7-C12, EN LA MUESTRA      : 
UNIDADES DE LOS DATOS                  : Gal (cm/s/s)
FACTOR DE DECIMACION                   : 1
FORMATO DATOS (FORTRAN,10 campos/dato) : 3F10.5


================================================================================
CALIDAD DEL ACELEROGRAMA:
REGISTRO DIGITAL COMPLETO CON TIEMPO ABSOLUTO CORRECTO.


================================================================================
COMENTARIOS:














================================================================================
DATOS DE ACELERACION:
---------+---------+---------+---------+---------+---------+---------+---------+
   CANAL-1   CANAL-2   CANAL-3   CANAL-4   CANAL-5   CANAL-6   CANAL-7   CANAL-8
      N00E        +V      N90W
---------+---------+---------+---------+---------+---------+---------+---------+
[...]
   4.58234   1.73037  -1.21190
   5.06118   1.89497  -1.28672
   5.76448   2.13439  -1.42139
   6.34806   1.99972  -0.92758
   6.43785   2.19425  -1.04729
   6.67727   2.65813  -0.74802
   6.91669   2.55338  -0.67320
   7.29078   2.71798  -0.86773
   7.30575   2.86762  -0.38889
   7.45538   3.27164  -0.23925
   7.51524   3.10704  -0.55349
   7.54517   3.10704  -0.47867
   7.69480   3.13697  -0.02976
   7.90430   3.18186   0.19470
   8.27839   3.37639   0.29944
   8.09882   3.34646   0.31441
   8.02401   3.40631   0.86807
   8.54774   3.34646   0.40419
   8.66745   3.49610   0.91296
   8.48788   3.37639   1.22720
   8.62256   3.15193   1.03267
   8.93680   3.12200   1.10749
   8.86198   3.22675   1.61625
   9.08643   3.45120   2.09509
   9.53535   2.97236   1.85567
   9.58024   3.16689   2.25970
   9.69995   2.83769   2.22977
   9.86455   3.19682   2.24473
  10.32843   2.91251   2.13999
  10.44814   3.07711   2.05020
  11.25618   3.09207   1.99035
  11.28611   2.98733   2.00531
  11.80984   2.98733   1.67611
  11.97444   2.70302   1.51151
  12.12408   3.22675   1.30202
  12.39342   3.27164   1.07756
  13.03687   3.43624   1.07756
  13.42592   3.28660   1.09252
  13.93469   3.19682   0.82318
  14.50331   3.16689   0.74836
  15.01208   3.06215   0.38923
  14.92230   3.09207   0.34433
  15.44603   3.36142   0.07499
  16.43364   3.55595  -0.38889
  16.32889   3.07711  -0.55349
  16.67306   2.85265  -0.56845
  17.09204   2.52345  -0.56845
  17.16686   2.70302  -0.49364
  17.81031   2.76287  -0.89766
  18.16944   2.79280  -0.86773
  18.48367   2.55338  -1.16701
  18.85777   2.11943  -1.13708
  19.20194   1.77526  -1.06226
  19.27675   1.83512  -0.20932
  19.66581   1.61066  -1.24182
  20.11472   1.67052  -0.97248
  20.63846   1.26650  -0.44874
  20.77313   1.01211  -0.44874
  21.01255   0.77269  -0.11954
  21.19212   0.57816  -0.38889
  21.50635   0.77269   0.01513
  21.67096   0.56320   1.00274
  21.86548   0.14421   0.98778
  22.23958  -0.12513   1.27209
  22.76331  -0.05032   2.12502
  22.55382   0.03947   1.93049
  23.22719  -0.24484   1.99035
  22.95784  -0.36455   2.52904
  22.77827  -0.78354   2.85825
  23.19726  -0.93318   2.99292
  23.01769  -0.88829   3.44183
  23.01769  -1.30727   3.93564
  23.12244  -1.24742   4.20498
  22.86806  -1.56166   4.62397
  23.13740  -1.50180   5.01303
  23.09251  -1.63647   5.47690
  23.06259  -1.84597   5.50683
  22.29943  -2.02553   5.64151
  22.06001  -2.07042   6.01560
  22.07498  -1.98064   6.22509
  22.00016  -2.39963   6.59919
  21.58117  -2.32481   6.65904
  21.80563  -2.47444   6.95832
  20.99759  -2.47444   7.30248
  20.98262  -2.48941   7.55687
  20.59356  -2.96825   8.17038
  20.41400  -2.75876   8.64922
  19.77056  -2.84854   8.58937
  19.23186  -2.24999   9.18792
  18.61835  -2.75876   8.88864
  18.06469  -2.80365   9.21784
  17.28657  -2.98321   9.72661
  17.15190  -3.20767   9.63683
  16.32889  -3.29745  10.08574
  15.93984  -2.47444  10.69926
  15.07194  -2.42955  10.23538
  14.36864  -2.62408  10.42991
  14.08433  -2.63905  10.59451
  13.02190  -2.69890  10.92371
  12.45328  -2.54926  10.75911
  11.27114  -2.22006  11.25292
  11.37589  -2.32481  11.28284
  10.23864  -2.19013  11.71679
   9.53535  -2.26495  11.74672
   8.59263  -2.29488  11.43248
   7.63495  -2.29488  11.53723
   6.94662  -2.07042  11.97118
   5.86922  -2.16021  11.79161
   5.07615  -1.96568  12.21060
   3.78926  -1.78611  11.74672
   2.92136  -1.95071  11.67190
   2.02354  -1.69633  11.61205
   0.88629  -1.96568  11.64197
   0.01839  -2.23502  11.37263
  -0.93929  -2.26495  11.56716
  -1.70244  -2.33977  11.16313
  -2.30099  -2.32481  11.32773
  -3.12400  -2.72883  11.16313
  -3.75247  -3.28249  10.87882
  -4.08168  -3.35731  10.23538
  -4.51563  -3.32738  10.01092
  -5.17403  -3.58176  10.19049
  -5.48827  -3.49198   9.83136
  -5.74265  -4.27010   9.53208
  -6.22149  -4.18031  10.05582
  -6.73026  -4.32995   9.23281
  -7.28392  -3.83615   9.24777
  -7.86751  -4.25513   8.61929
  -8.15182  -3.85111   8.34995
  -9.00475  -3.82118   8.18535
  -9.52848  -3.83615   8.12549
  -9.82776  -3.94089   8.29009
 -10.47120  -3.47702   8.11053
 -10.29164  -3.40220   7.82621
 -10.80040  -2.90839   7.87111
 -11.32414  -2.38466   7.81125
 -11.81794  -2.45948   8.20031
 -11.92269  -2.04050   7.75140
 -11.74312  -2.17517   7.49701
 -11.75809  -1.69633   7.69154
 -12.11722  -1.63647   7.13788
 -12.32671  -1.05289   6.67401
 -12.73073  -1.11274   6.31488
 -12.67087  -0.51419   5.82107
 -13.04497  -0.48426   5.97071
 -13.07490  -0.60397   5.29734
 -13.14971  -0.52916   4.90828
 -13.70337  -0.46930   4.89332
 -13.74827  -0.28974   4.42944
 -13.89790  -0.18499   4.35462
 -14.19718  -0.11017   3.93564
 -14.54134   0.33874   4.14513
 -14.57127   0.68291   2.93307
 -14.33185   0.98218   3.00788
 -14.33185   0.63802   2.49912
 -14.42163   0.54824   2.25970
 -14.49645   0.78766   2.27466
 -14.64609   0.78766   1.57136
 -14.58624   0.90737   1.07756
 -15.08004   0.80262   0.85310
 -14.88551   0.95226   0.34433
 -14.97529   0.90737   0.71843
 -15.60377   0.89240   0.11988
 -15.52895   0.74276  -0.32903
 -15.79830   0.72780  -0.25422
 -16.06765   0.75773  -0.35896
 -16.56145   0.81758  -0.38889
 -17.07022   0.57816  -0.70313
 -17.39942   0.56320  -0.77795
 -18.19250   0.30881  -1.04729
 -18.83594   0.47342  -1.34657
 -19.40457   0.66795  -1.00240
 -19.56917   0.62305  -1.40643
 -20.15275   0.71284  -1.64585
 -20.67649   0.50334  -1.58599
 -21.33489   0.39860  -1.76556
 -21.87359   0.33874  -1.88527
 -22.08308   0.27889  -2.33418
 -22.26264   0.23400  -2.39403
 -23.10062   0.36867  -2.58856
 -23.19040   0.17414  -2.76813
 -23.86377   0.41356  -2.90280
 -23.87873   0.32378  -3.08237
 -24.28275   0.23400  -3.08237
 -24.64188   0.48838  -3.39661
 -25.10576   0.23400  -3.44150
 -25.04590   0.39860  -3.54624
 -25.59956   0.66795  -3.69588
 -25.97366   0.12925  -3.74077
 -26.34775   0.54824  -4.17472
 -26.58717   0.65298  -3.95026
 -26.78170   0.69787  -4.57874
 -26.48243   0.90737  -4.56378
 -26.96127   1.46102  -4.54881
 -27.14083   1.25153  -4.92291
 -27.09594   1.92490  -5.10247
 -27.36529   2.22418  -5.41671
 -27.39521   2.35885  -5.56635
 -27.69449   1.98476  -5.55139
 -27.66456   2.19425  -5.70102
 -27.27550   2.58331  -5.85066
 -27.41018   2.52345  -5.74592
 -27.44011   2.70302  -6.12001
 -27.47003   3.15193  -6.34447
 -27.27550   3.37639  -6.19483
 -27.11090   2.88258  -6.35943
 -26.99119   3.24171  -6.31454
 -26.46746   3.03222  -6.68863
 -26.31782   3.03222  -6.85323
 -26.07840   3.33149  -6.82331
 -25.88387   3.25668  -7.03280
 -25.46489   3.64573  -6.89813
 -25.01598   3.33149  -7.07769
 -24.88130   3.33149  -7.28718
 -24.26779   3.42128  -7.15251
 -23.98348   3.27164  -7.27222
 -23.34004   3.25668  -7.01784
 -22.50207   3.31653  -7.40689
 -22.18783   3.30157  -7.60142
 -22.02322   2.98733  -7.57149
 -21.43964   3.03222  -7.49668
 -21.43964   2.55338  -7.69120
 -20.85605   2.94244  -7.96055
 -20.13779   2.95740  -8.06530
 -19.80859   2.79280  -8.12515
 -19.29982   2.65813  -8.48428
 -18.62645   2.52345  -8.57407
 -18.32718   2.35885  -8.46932
 -17.54906   2.37381  -8.87334
 -16.98044   2.20921  -9.12773
 -16.11254   2.23914  -9.14269
 -15.25961   2.37381  -9.45693
 -14.84062   2.04461  -9.54671
 -13.74827   1.74534  -9.74124
 -13.19461   2.35885  -9.84599
 -12.65591   2.04461 -10.22008
 -11.78801   2.08950 -10.17519
 -11.03982   1.73037 -10.45950
 -10.12704   1.90994 -10.63907
  -9.63323   2.04461 -10.66899
  -9.09454   2.05957 -11.19272
  -8.42117   2.19425 -11.29747
  -7.82262   1.90994 -11.25258
  -7.19414   1.90994 -11.11791
  -6.62552   2.19425 -10.95330
  -5.84740   2.56834 -10.92338
  -4.75505   2.53842 -11.05805
  -4.15649   2.94244 -11.10294
  -3.58787   2.43367 -11.26754
  -2.51048   2.62820 -11.14783
  -1.85208   2.52345 -10.83359
  -1.05900   2.67309 -10.66899
  -0.29584   2.53842 -10.66899
   0.58702   2.47856 -10.60914
   1.18557   2.44863 -10.44454
   2.11332   2.31396 -10.39965
   2.66698   2.19425 -10.29490
   3.10093   2.20921 -10.01059
   3.63962   2.01468  -9.47189
   4.49256   2.13439  -9.26240
   5.16593   2.05957  -9.30729
   5.51009   1.98476  -9.33722
   6.19843   2.20921  -8.94816
   6.63238   2.10447  -8.97809
   7.30575   1.90994  -8.85838
   7.70977   1.71541  -8.72370
   8.39810   1.89497  -8.43939
   8.90687   1.53584  -8.24486
   9.20614   1.59570  -8.02041
   9.72987   1.55081  -8.14012
  10.01419   1.20664  -7.90070
  10.65763   1.59570  -7.54157
  11.16640   1.53584  -7.54157
  11.36092   1.31139  -7.43682
  12.00437   1.40117  -7.31711
  12.57299   1.31139  -7.01784
  12.52810   1.16175  -6.79338
  12.99197   1.13182  -6.35943
  13.06679   1.17671  -6.31454
  13.62045   0.93729  -6.00030
  13.99455   0.86247  -5.43168
  14.23397   0.63802  -5.37182
  14.29382   1.01211  -5.25211
  14.78763   0.69787  -4.84809
  14.99712   0.83255  -4.39918
  15.08690   1.07197  -4.39918
  15.34128   1.02708  -3.89041
  15.86502   1.35628  -3.81559
  15.87998   1.26650  -3.56121
  16.32889   1.49095  -3.54624
  16.52342   1.40117  -3.26193
  16.91248   1.53584  -3.35171
  17.12197   1.61066  -3.12726
  17.15190   1.65555  -2.70827
  17.34643   1.99972  -2.43892
  17.28657   1.85008  -1.99001
  17.81031   2.19425  -2.25936
  17.90009   2.07454  -1.90023
  18.18440   2.23914  -1.82541
  18.46871   2.20921  -1.52614
  18.91762   2.46360  -1.69074
  19.30668   2.31396  -1.46628
  19.30668   2.23914  -1.37650
  19.62092   2.22418  -1.04729
  20.00998   2.14936  -0.79291
  20.32422   2.44863  -0.95751
  20.92277   2.19425  -0.89766
  21.13226   2.40374  -0.98744
  21.61110   2.32892  -0.64327
  21.91038   2.29900  -0.40385
  22.16476   2.14936  -0.35896
  22.70345   2.14936  -0.35896
  23.42172   1.68548  -0.16443
  23.66114   2.08950  -0.14947
  24.02027   1.29642  -0.05969
  24.34947   1.25153   0.11988
  24.97795   1.20664   0.13484
  25.33708   0.99715   0.41915
  25.74110   0.72780   1.06260
  26.26483   0.66795   0.97281
  26.75863   0.63802   1.27209
  27.26740   0.45845   1.21223
  27.92581   0.14421   1.46662
  28.40465  -0.12513   1.37683
  28.92838  -0.15506   1.39180
  29.34736  -0.43937   1.90057
  29.73642  -0.52916   2.11006
  30.18534  -0.45434   2.45422
  30.81381  -1.03792   2.54401
  31.32258  -1.08281   2.82832
  32.10070  -1.06785   2.79839
  32.44486  -1.27734   2.63379
  33.05838  -1.39705   2.63379
  33.71678  -1.51676   2.99292
  34.19562  -1.60655   3.29220
  34.80914  -1.81604   3.26227
  35.18323  -2.13028   3.56154
  35.70696  -2.11531   3.60643
  36.23069  -2.36970   3.86082
  36.54493  -2.13028   3.86082
  36.54493  -2.35473   3.86082
  36.81428  -2.41459   3.99549
  37.23327  -2.54926   4.16009
  37.18838  -2.53430   4.63893
  37.53254  -2.59415   4.89332
  37.71211  -2.59415   4.77361
  37.77196  -2.42955   4.99806
  37.93656  -2.53430   5.32727
  37.63729  -2.51934   5.56669
  37.15845  -2.53430   5.88093
  36.85917  -2.30984   5.98567
  36.88910  -2.36970   6.40466
  36.48508  -2.42955   6.92839
  36.26062  -2.33977   6.97328
  35.84164  -2.10035   7.10795
  35.10841  -1.80108   7.42219
  34.67446  -1.89086   7.99082
  34.28541  -1.86093   7.93096
  33.23794  -1.80108   8.33498
  32.48975  -1.77115   8.64922
  31.92113  -1.83100   8.72404
  31.11309  -1.47187   8.54448
  30.73899  -1.42698   8.66419
  29.84117  -1.50180   9.08317
  28.95831  -1.48684   8.88864
  28.46450  -1.35216   9.20288
  27.68639  -1.20252   9.38245
  26.80353  -1.32223   9.51712
  25.66628  -1.27734   9.57697
  24.63378  -1.36713   9.71165
  23.46661  -1.15763   9.90618
  22.35929  -1.42698   9.77150
  21.52132  -1.23245   9.78647
  20.59356  -1.50180   9.84632
  20.00998  -1.45691   9.84632
  19.42639  -1.69633   9.96603
  18.58842  -2.01057  10.08574
  17.60081  -2.22006   9.78647
  16.83766  -2.45948   9.99596
  16.14933  -2.42955   9.80143
  15.25150  -2.81861   9.69668
  14.45842  -2.59415   9.81640
  14.00951  -3.20767   9.32259
  12.87226  -3.01314   9.56201
  12.33357  -2.80365   9.26274
  11.54049  -2.86350   9.02332
  10.56785  -2.77372   8.70908
   9.69995  -2.50437   8.66419
   8.83205  -2.47444   8.32002
   7.94919  -2.36970   8.18535
   7.29078  -1.72626   8.18535
   6.75209  -1.63647   8.18535
   5.67470  -1.57662   8.32002
   5.13600  -1.36713   8.63426
   4.02868  -1.44195   8.45469
   3.40020  -1.42698   8.70908
   2.71187  -1.15763   8.34995
   1.93376  -0.64887   8.08060
   1.15564  -0.36455   8.11053
   0.45234  -0.30470   7.91600
  -0.34074   0.00954   8.29009
  -1.08892   0.33874   7.93096
  -1.82215   0.53327   7.69154
  -2.57034   0.81758   7.37730
  -3.16889   0.98218   7.45212
  -4.02182   1.32635   7.69154
  -4.78497   1.53584   7.75140
  -5.20396   1.50592   7.85614
  -5.81747   1.67052   7.67658
  -6.41602   1.77526   7.72147
  -6.90983   1.47599   7.52694
  -7.55327   1.70044   7.40723
  -7.83758   1.76030   7.84118
  -8.60073   2.07454   7.55687
  -9.07957   1.90994   7.30248
  -9.78287   2.07454   7.06306
 -10.21682   1.67052   6.97328
 -10.54602   1.62563   7.10795
 -10.95004   1.53584   6.98824
 -11.14457   1.26650   7.06306
 -11.44385   1.41613   6.79372
 -11.89276   1.28146   6.55430
 -12.31174   1.01211   6.09042
 -12.65591   0.72780   5.88093
 -13.08986   0.89240   5.56669
 -13.23950   0.56320   5.47690
 -13.53877   0.48838   5.62654
 -14.06250   0.08436   5.50683
 -14.64609  -0.18499   5.32727
 -15.12493  -0.30470   5.17763
 -15.49903  -0.21492   4.93821
 -16.23225  -0.21492   4.68383
 -16.45671  -0.51419   4.30973
 -16.93555  -0.37952   4.33966
 -17.41439  -0.87332   4.04038
 -18.17754  -0.70872   3.56154
 -18.50674  -0.97807   3.20241
 -19.10529  -0.87332   2.82832
 -19.50931  -0.82843   2.66372
 -20.28743  -0.84339   2.21480
 -20.97576  -0.79850   1.73596
 -21.31993  -0.99303   1.25712
 -21.33489  -1.15763   1.25712
 -21.91848  -1.08281   0.50894
 -22.30754  -1.20252   0.35930
 -22.56192  -0.90325   0.10491
 -23.26522  -0.73865  -0.28414
 -23.59442  -1.18756  -0.68816
 -23.56449  -0.94814  -0.98744
 -24.19297  -0.69376  -1.30168
 -24.47728  -0.75361  -1.61592
 -24.71670  -0.51419  -1.55606
 -24.73167  -0.54412  -1.70570
 -24.89627  -0.55908  -1.97505
 -25.21051  -0.66383  -2.25936
 -25.49482  -0.61894  -2.63345
 -25.91380  -0.75361  -2.75316
 -26.13826  -0.57405  -3.14222
 -26.04848  -0.43937  -3.41157
 -26.34775  -0.48426  -3.66595
 -26.42257  -0.48426  -3.98019
 -26.51235  -0.43937  -4.05501
 -26.75177  -0.70872  -4.27947
 -26.79666  -0.81347  -4.39918
 -27.05105  -0.69376  -4.32436
 -27.17076  -1.00800  -4.60867
 -27.48500  -1.26238  -4.83313
 -27.66456  -0.78354  -4.96780
 -28.05362  -0.70872  -4.83313
 -28.20326  -1.00800  -5.14737
 -28.36786  -1.09778  -5.65613
 -28.80181  -1.12771  -5.86563
 -28.92152  -1.02296  -6.49410
 -28.99634  -1.00800  -6.55396
 -28.99634  -0.99303  -6.64374
 -29.10108  -0.91821  -7.16747
 -29.25072  -0.79850  -6.86820
 -30.04380  -0.85836  -7.16747
 -30.32811  -0.55908  -7.52660
 -30.62739  -0.52916  -7.78099
 -30.71717  -0.51419  -8.24486
 -30.88177  -0.18499  -8.43939
 -30.88177  -0.05032  -8.36457
 -30.98652  -0.09521  -8.82845
 -31.10623   0.44349  -9.06787
 -31.10623   0.17414  -9.38211
 -31.34565   0.38363  -9.71131
 -31.34565   0.14421  -9.83102
 -31.36061   0.35371 -10.41461
 -31.21097   0.36867 -10.87849
 -31.12119   0.59313 -11.70149
 -31.04637   0.89240 -12.16537
 -30.64235   0.48838 -12.30004
 -30.28322   0.75773 -12.64421
 -30.41789   0.75773 -12.88363
 -30.10366   0.54824 -13.22780
