********************************************************************************
              CENTRO DE INSTRUMENTACION Y REGISTRO SISMICO  A.C.

    Anaxagoras 814, Col. Narvarte, Benito Juarez, C.P. 03020 Mexico, D.F.
           Tels. 5687 45 42/ 5687 45  82             Fax. 5669 25 12
********************************************************************************
ARCHIVO ESTANDAR DE ACELERACION:
VERSION DEL FORMATO                    : 2.0
NOMBRE DEL ARCHIVO                     : AP6819880208135129
FECHA Y HORA DE CREACION               : 30/ABR/18, 12:26
REF. CATALOGO ACELEROGRAMAS, SMIS 1996 : REGISTRO No.     /PAG.


================================================================================
DATOS DE LA ESTACION:
NOMBRE DE LA ESTACION                  : JARD�N DE NI�OS "JUAN B. DE LA SALLE"
CLAVE DE LA ESTACION                   : AP68
LOCALIZACION DE LA ESTACION            : Del. Iztapalapa, Col. Santa Mar�a      
                                       : Pur�sima Atlazolpa,  entre Canal de    
                                       : Apatlaco y Ahuehuetes.                 
                                       :                                        
                                       : 
COORDENADAS DE LA ESTACION             : 19.3809 LAT. N
                                       : 99.1068 LONG. W
ALTITUD (msnm)                         : 2232
TIPO DE SUELO                          : Arcilloso, zona lago                
                                       :                           
                                       : 
INSTITUCION RESPONSABLE                : CIRES
                                       : 

================================================================================
DATOS DEL ACELEROGRAFO:
MODELO DEL ACELEROGRAFO                : DCA-333
NUMERO DE SERIE DEL ACELEROGRAFO       : 255
NUMERO DE CANALES                      : 3
ORIENTACION C1-C6 (rumbo;orientacion)  : /N00E/+V/N90W
ORIENTACION C7-C12 (rumbo;orientacion) : 
VEL. DE MUESTREO, C1-C6 (muestras/s)   : /100/100/100
VEL. DE MUESTREO, C7-C12 (muestras/s)  : 
ESC. COMPLETA DE SENSORES, C1-C6, (g)  : /0.5/0.5/0.5
ESC. COMPLETA DE SENSORES, C7-C12, (g) : 
FREC. NAT. DE SENSORES, C1-C6, (Hz)    : /30/30/30
FREC. NAT. DE SENSORES, C7-C12, (Hz)   : 
AMORTIGUAMIENTO DE SENSORES, C1-C6     : /0.780/0.700/0.678
AMORTIGUAMIENTO DE SENSORES, C7-C12    : 
INTERVALO DE MUESTREO, C1-C6, (s)      : /0.01/0.01/0.01
INTERVALO DE MUESTREO, C7-C12, (s)     : 
UMBRAL DE DISPARO, C1-C6, (Gal)        : /3.42/7.32/7.32
UMBRAL DE DISPARO, C7-C12, (Gal)       : 
MEMORIA DE PREEVENTO (s)               : 4.0
TIEMPO DE POSEVENTO (s)                : 0.0


================================================================================
DATOS DEL SISMO:
FECHA DEL SISMO (GMT)                  : 08/FEB/88
HORA EPICENTRO (GMT)                   : 13:51:29.0
MAGNITUD(ES)                           : /Mc=5.0
COORDENADAS DEL EPICENTRO              : 17.49 LAT. N
                                       : 101.15 LONG. W
PROFUNDIDAD FOCAL (km)                 : 19
FUENTE DE LOS DATOS EPICENTRALES       : SSN
                                       : INSTITUTO DE GEOFISICA, UNAM

================================================================================
DATOS DE ESTE REGISTRO:
HORA DE LA PRIMERA MUESTRA (GMT)       : 13:48:56.03
EXACTITUD DEL TIEMPO (s)               : 0.01
DURACION DEL REGISTRO (s), C1-C6       : /58.98/58.98/58.98
DURACION DEL REGISTRO (s), C7-C12      : 
NUM. TOTAL DE MUESTRAS, C1-C6          : /5898/5898/5898
NUM. TOTAL DE MUESTRAS, C7-C12         : 
ACEL. MAX. (Gal), C1-C6                : /5.23448/3.08125/5.05616
ACEL. MAX., C1-C6, EN LA MUESTRA       : /1524/1684/1065
ACEL. MAX. (Gal), C7-C12               : 
ACEL. MAX., C7-C12, EN LA MUESTRA      : 
UNIDADES DE LOS DATOS                  : Gal (cm/s/s)
FACTOR DE DECIMACION                   : 1
FORMATO DATOS (FORTRAN,10 campos/dato) : 3F10.5


================================================================================
CALIDAD DEL ACELEROGRAMA:
REGISTRO DIGITAL COMPLETO CON TIEMPO ABSOLUTO CORRECTO.


================================================================================
COMENTARIOS:














================================================================================
DATOS DE ACELERACION:
---------+---------+---------+---------+---------+---------+---------+---------+
   CANAL-1   CANAL-2   CANAL-3   CANAL-4   CANAL-5   CANAL-6   CANAL-7   CANAL-8
      N00E        +V      N90W
---------+---------+---------+---------+---------+---------+---------+---------+
[...]
  -2.12202   1.22832   2.66196
  -1.64318   1.46774   2.90138
  -1.40376   1.46774   3.38022
  -1.16434   1.70716   3.61964
  -0.68550   1.94658   3.85906
  -0.68550   1.94658   4.33790
  -0.44608   1.94658   4.57732
  -0.20666   1.70716   4.57732
  -0.20666   1.46774   4.81674
   0.03276   1.22832   4.81674
   0.27218   0.98890   4.81674
   0.51160   0.74948   4.81674
   0.75102   0.74948   4.81674
   0.99044   0.27064   4.81674
   1.22986   0.03122   4.57732
   1.46928  -0.20820   4.33790
   1.70870  -0.44762   4.09848
   1.70870  -0.68704   4.09848
   1.70870  -0.68704   3.61964
   1.70870  -0.92646   3.38022
   1.46928  -0.92646   2.90138
   1.46928  -1.16588   2.66196
   1.22986  -1.16588   2.18312
   0.99044  -1.16588   1.94370
   0.99044  -1.40530   1.46486
   0.99044  -1.40530   0.98601
   0.99044  -1.64472   0.74659
   0.75102  -1.64472   0.50717
   0.75102  -1.64472   0.02833
   0.51160  -1.64472  -0.21109
   0.27218  -1.64472  -0.45051
   0.03276  -1.40530  -0.92935
  -0.20666  -1.16588  -1.16877
  -0.44608  -1.16588  -1.16877
  -0.44608  -0.92646  -1.40819
  -0.44608  -0.68704  -1.40819
  -0.44608  -0.68704  -1.64761
  -0.20666  -0.44762  -1.64761
  -0.20666  -0.44762  -1.64761
   0.03276  -0.20820  -1.64761
   0.03276  -0.20820  -1.40819
   0.03276   0.03122  -1.16877
   0.27218   0.03122  -1.16877
   0.27218   0.27064  -0.92935
   0.27218   0.51006  -0.68993
   0.27218   0.74948  -0.68993
   0.03276   0.98890  -0.68993
   0.03276   0.98890  -0.68993
  -0.20666   1.22832  -0.68993
  -0.44608   1.46774  -0.92935
  -0.68550   1.46774  -1.16877
  -0.92492   1.70716  -1.16877
  -1.16434   1.94658  -1.40819
  -1.40376   1.94658  -1.64761
  -1.64318   2.18600  -1.64761
  -2.12202   2.18600  -1.64761
  -2.36144   1.94658  -1.88703
  -2.60086   1.94658  -1.88703
  -3.07970   1.94658  -1.88703
  -3.31912   1.94658  -2.12645
  -3.55854   1.70716  -2.12645
  -3.79796   1.70716  -2.12645
  -3.79796   1.70716  -2.12645
  -3.79796   1.70716  -2.12645
  -4.03738   1.70716  -1.88703
  -4.03738   1.46774  -1.88703
  -4.03738   1.46774  -1.64761
  -4.03738   1.22832  -1.40819
  -4.03738   0.98890  -0.92935
  -4.03738   0.98890  -0.68993
  -3.79796   0.74948  -0.45051
  -3.79796   0.74948   0.02833
  -3.31912   0.51006   0.50717
  -3.07970   0.51006   0.98601
  -2.84028   0.27064   1.46486
  -2.36144   0.27064   1.94370
  -2.12202   0.03122   2.18312
  -1.64318   0.03122   2.66196
  -1.40376   0.03122   2.90138
  -1.16434  -0.20820   3.38022
  -0.68550  -0.20820   3.38022
  -0.44608   0.03122   3.61964
   0.03276   0.03122   3.61964
   0.27218   0.03122   3.61964
   0.75102   0.03122   3.61964
   0.99044   0.03122   3.61964
   0.99044   0.03122   3.38022
   1.22986   0.03122   3.38022
   1.46928   0.27064   3.14080
   1.70870   0.27064   2.90138
   1.94812   0.27064   2.66196
   1.94812   0.27064   2.42254
   2.18754   0.03122   2.18312
   2.42696   0.03122   1.94370
   2.42696   0.03122   1.46486
   2.66638   0.03122   0.98601
   2.66638  -0.20820   0.74659
   2.66638  -0.20820   0.26775
   2.66638  -0.44762   0.02833
   2.66638  -0.44762  -0.45051
   2.42696  -0.68704  -0.68993
   2.42696  -0.92646  -1.16877
   2.18754  -1.16588  -1.40819
   1.94812  -1.40530  -1.64761
   1.46928  -1.64472  -1.88703
   0.99044  -1.64472  -2.12645
   0.75102  -1.64472  -2.12645
   0.51160  -1.64472  -2.12645
   0.03276  -1.88414  -1.88703
  -0.44608  -1.88414  -1.64761
  -0.68550  -1.88414  -1.40819
  -1.16434  -1.88414  -1.16877
  -1.40376  -1.88414  -0.92935
  -1.64318  -1.88414  -0.92935
  -1.64318  -1.88414  -0.68993
  -1.88260  -1.64472  -0.68993
  -2.12202  -1.64472  -0.68993
  -2.12202  -1.40530  -0.68993
  -2.36144  -1.16588  -0.68993
  -2.36144  -0.92646  -0.68993
  -2.36144  -0.68704  -0.92935
  -2.60086  -0.68704  -1.16877
  -2.60086  -0.44762  -1.16877
  -2.60086  -0.20820  -1.40819
  -2.36144  -0.20820  -1.40819
  -2.36144   0.03122  -1.64761
  -2.36144   0.03122  -1.88703
  -2.36144   0.27064  -2.12645
  -2.36144   0.27064  -2.36587
  -2.60086   0.51006  -2.36587
  -2.60086   0.51006  -2.60529
  -2.60086   0.51006  -2.60529
  -2.60086   0.74948  -2.60529
  -2.60086   0.74948  -2.60529
  -2.84028   0.74948  -2.36587
  -2.84028   0.98890  -2.12645
  -2.84028   0.98890  -2.12645
  -2.84028   1.22832  -1.88703
  -2.60086   1.22832  -1.64761
  -2.60086   1.22832  -1.64761
  -2.36144   1.22832  -1.40819
  -2.12202   1.46774  -1.16877
  -2.12202   1.46774  -1.16877
  -1.88260   1.46774  -0.92935
  -1.64318   1.46774  -0.68993
  -1.40376   1.46774  -0.68993
  -1.40376   1.22832  -0.45051
  -1.16434   1.22832  -0.21109
  -0.92492   0.98890  -0.21109
  -0.68550   0.74948  -0.21109
  -0.44608   0.51006  -0.21109
  -0.44608   0.27064  -0.21109
  -0.20666   0.03122  -0.21109
  -0.20666   0.03122  -0.45051
   0.03276  -0.20820  -0.68993
   0.03276  -0.44762  -0.92935
   0.27218  -0.68704  -0.92935
   0.51160  -0.68704  -0.92935
   0.75102  -0.92646  -1.16877
   0.99044  -0.92646  -1.16877
   0.99044  -1.16588  -1.16877
   1.46928  -1.16588  -1.16877
   1.70870  -1.16588  -1.16877
   1.94812  -1.16588  -1.16877
   2.18754  -1.40530  -1.40819
   2.42696  -1.40530  -1.40819
   2.90580  -1.40530  -1.64761
   2.90580  -1.16588  -1.64761
   3.38464  -1.40530  -1.64761
   3.38464  -1.40530  -1.64761
   3.62406  -1.16588  -1.64761
   3.86348  -1.16588  -1.88703
   3.86348  -1.16588  -1.88703
   3.86348  -0.92646  -1.88703
   3.86348  -0.92646  -1.88703
   3.86348  -0.44762  -2.12645
   3.86348  -0.44762  -2.12645
   3.62406  -0.20820  -2.12645
   3.38464   0.03122  -2.12645
   3.14522   0.27064  -2.12645
   2.90580   0.27064  -1.88703
   2.90580   0.51006  -1.88703
   2.42696   0.51006  -1.64761
   2.18754   0.51006  -1.64761
   1.94812   0.74948  -1.40819
   1.70870   0.74948  -1.40819
   1.22986   0.74948  -1.40819
   0.99044   0.74948  -1.40819
   0.75102   0.74948  -1.40819
   0.51160   0.74948  -1.16877
   0.03276   0.74948  -1.16877
  -0.20666   0.51006  -0.92935
  -0.44608   0.51006  -0.92935
  -0.68550   0.51006  -0.68993
  -0.92492   0.51006  -0.21109
  -1.16434   0.51006   0.02833
  -1.16434   0.51006   0.26775
  -1.16434   0.51006   0.50717
  -0.92492   0.51006   0.50717
  -0.92492   0.51006   0.74659
  -0.68550   0.51006   0.74659
  -0.44608   0.51006   0.74659
  -0.20666   0.27064   0.74659
   0.03276   0.51006   0.98601
   0.27218   0.51006   0.98601
   0.27218   0.51006   0.98601
   0.51160   0.51006   0.98601
   0.75102   0.51006   0.98601
   0.99044   0.74948   0.98601
   0.99044   0.51006   0.98601
   0.99044   0.51006   0.98601
   1.22986   0.51006   0.74659
   1.46928   0.74948   0.74659
   1.70870   0.74948   0.74659
   1.70870   0.74948   0.74659
   1.94812   0.74948   0.74659
   1.94812   0.74948   0.74659
   2.18754   0.51006   0.98601
   2.18754   0.51006   0.98601
   2.42696   0.51006   0.98601
   2.42696   0.27064   0.98601
   2.66638   0.27064   0.98601
   2.66638   0.03122   0.98601
   2.66638  -0.20820   0.74659
   2.66638  -0.44762   0.74659
   2.66638  -0.68704   0.50717
   2.42696  -0.92646   0.50717
   2.18754  -1.16588   0.26775
   1.94812  -1.16588   0.26775
   1.70870  -1.40530   0.26775
   1.46928  -1.40530   0.50717
   0.99044  -1.40530   0.50717
   0.99044  -1.64472   0.74659
   0.75102  -1.64472   0.74659
   0.51160  -1.40530   0.74659
   0.51160  -1.16588   0.74659
   0.27218  -1.16588   0.74659
   0.27218  -1.16588   0.74659
   0.03276  -1.16588   0.50717
   0.03276  -0.92646   0.50717
  -0.20666  -1.16588   0.26775
  -0.20666  -0.92646   0.26775
  -0.20666  -0.92646   0.02833
  -0.20666  -0.92646   0.02833
  -0.20666  -0.68704  -0.21109
   0.03276  -0.68704  -0.21109
   0.03276  -0.44762  -0.45051
   0.27218  -0.44762  -0.68993
   0.27218  -0.44762  -0.68993
   0.27218  -0.20820  -0.92935
   0.51160  -0.20820  -0.92935
   0.27218  -0.20820  -1.16877
   0.51160  -0.44762  -1.16877
   0.27218  -0.20820  -1.16877
   0.27218  -0.20820  -1.16877
   0.27218  -0.20820  -1.16877
   0.27218  -0.20820  -1.16877
   0.27218   0.03122  -1.16877
   0.51160   0.03122  -1.40819
   0.51160   0.27064  -1.40819
   0.51160   0.27064  -1.64761
   0.27218   0.51006  -1.64761
   0.27218   0.74948  -1.88703
   0.27218   0.98890  -2.12645
   0.03276   0.98890  -2.12645
  -0.20666   1.22832  -2.36587
  -0.44608   1.46774  -2.36587
  -0.68550   1.46774  -2.36587
  -1.16434   1.46774  -2.36587
  -1.40376   1.46774  -2.36587
  -1.64318   1.46774  -2.36587
  -2.12202   1.46774  -2.36587
  -2.12202   1.22832  -2.36587
  -2.36144   0.98890  -2.36587
  -2.60086   0.98890  -2.36587
  -2.60086   0.74948  -2.36587
  -2.60086   0.51006  -2.12645
  -2.36144   0.51006  -1.88703
  -2.12202   0.51006  -1.64761
  -1.88260   0.27064  -1.40819
  -1.64318   0.27064  -1.16877
  -1.16434   0.03122  -0.68993
  -0.68550   0.03122  -0.21109
   0.03276  -0.20820   0.02833
   0.51160  -0.44762   0.50717
   0.99044  -0.44762   0.98601
   1.46928  -0.44762   0.98601
   1.94812  -0.44762   1.46486
   2.42696  -0.44762   1.70428
   2.66638  -0.44762   1.94370
   2.90580  -0.20820   1.94370
   2.90580  -0.20820   2.18312
   2.90580  -0.20820   2.18312
   2.90580  -0.20820   2.42254
   2.90580   0.03122   2.42254
   2.66638   0.03122   2.42254
   2.42696   0.27064   2.42254
   2.42696   0.51006   2.42254
   2.18754   0.51006   2.42254
   1.94812   0.51006   2.42254
   1.70870   0.74948   2.42254
   1.46928   0.74948   2.42254
   1.22986   0.74948   2.18312
   0.99044   0.51006   2.18312
   0.99044   0.27064   1.94370
   0.99044   0.27064   1.70428
   0.99044   0.03122   1.46486
   0.99044  -0.20820   1.22544
   0.99044  -0.20820   0.98601
   0.99044  -0.44762   0.98601
   0.99044  -0.68704   0.74659
   1.22986  -0.68704   0.50717
   1.46928  -0.68704   0.26775
   1.70870  -0.68704   0.02833
   1.94812  -0.92646  -0.21109
   1.94812  -0.92646  -0.45051
   1.94812  -0.92646  -0.45051
   2.18754  -1.16588  -0.45051
   2.18754  -1.16588  -0.45051
   2.18754  -1.16588  -0.45051
   1.94812  -1.16588  -0.21109
   1.94812  -1.16588   0.02833
   1.94812  -1.16588   0.26775
   1.94812  -1.16588   0.50717
   1.94812  -0.92646   0.74659
   1.94812  -0.68704   0.98601
   1.70870  -0.68704   0.98601
   1.70870  -0.44762   1.22544
   1.22986  -0.20820   1.46486
   0.99044   0.03122   1.70428
   0.75102   0.03122   1.70428
   0.27218   0.03122   1.94370
  -0.20666   0.27064   2.18312
  -0.68550   0.27064   2.42254
  -1.16434   0.27064   2.66196
  -1.64318   0.51006   2.90138
  -2.12202   0.74948   2.90138
  -2.60086   0.74948   3.14080
  -3.07970   0.74948   3.38022
  -3.55854   0.74948   3.38022
  -3.79796   0.74948   3.38022
  -4.27680   0.74948   3.61964
  -4.51622   0.51006   3.61964
  -4.75564   0.51006   3.61964
  -4.75564   0.51006   3.61964
  -4.99506   0.51006   3.61964
  -4.99506   0.51006   3.61964
  -5.23448   0.51006   3.61964
  -5.23448   0.51006   3.61964
  -4.99506   0.51006   3.61964
  -4.99506   0.51006   3.38022
  -4.75564   0.51006   3.38022
  -4.75564   0.51006   3.14080
  -4.51622   0.74948   2.90138
  -4.27680   0.51006   2.66196
  -4.27680   0.74948   2.18312
  -3.79796   0.74948   1.94370
  -3.55854   0.74948   1.46486
  -3.55854   0.74948   1.22544
  -3.31912   0.74948   0.98601
  -2.84028   0.74948   0.50717
  -2.60086   0.74948   0.26775
  -2.36144   0.74948   0.02833
  -2.12202   0.74948  -0.21109
  -1.64318   0.74948  -0.68993
  -1.40376   0.51006  -0.92935
  -1.16434   0.51006  -1.16877
  -0.92492   0.51006  -1.40819
  -0.68550   0.27064  -1.64761
  -0.44608   0.27064  -1.64761
  -0.44608   0.27064  -1.64761
  -0.20666   0.27064  -1.64761
   0.03276   0.03122  -1.64761
   0.27218   0.03122  -1.64761
   0.27218  -0.20820  -1.40819
   0.51160  -0.20820  -1.40819
   0.51160  -0.44762  -1.40819
   0.75102  -0.68704  -1.40819
   0.75102  -0.68704  -1.40819
   0.75102  -0.92646  -1.40819
   0.99044  -0.92646  -1.40819
   0.99044  -1.16588  -1.40819
   0.99044  -1.16588  -1.40819
   0.99044  -1.40530  -1.40819
   0.75102  -1.40530  -1.16877
   0.75102  -1.40530  -1.16877
   0.51160  -1.64472  -1.16877
   0.27218  -1.64472  -1.16877
   0.03276  -1.64472  -1.16877
  -0.20666  -1.64472  -1.16877
  -0.44608  -1.64472  -0.92935
  -0.68550  -1.64472  -0.92935
  -0.92492  -1.64472  -0.92935
  -1.16434  -1.40530  -0.92935
  -1.64318  -1.40530  -0.68993
  -1.88260  -1.16588  -0.68993
  -2.12202  -0.92646  -0.45051
  -2.36144  -0.68704  -0.21109
  -2.60086  -0.68704  -0.21109
  -2.84028  -0.44762   0.02833
  -2.84028  -0.20820   0.26775
  -3.07970  -0.20820   0.50717
  -3.07970   0.03122   0.50717
  -3.07970   0.27064   0.74659
  -2.84028   0.27064   0.74659
  -2.84028   0.51006   0.98601
  -2.60086   0.74948   0.98601
  -2.36144   0.74948   0.98601
  -2.12202   0.98890   0.98601
  -1.88260   1.22832   0.98601
  -1.64318   1.22832   1.22544
  -1.16434   1.46774   1.22544
  -0.44608   1.46774   1.22544
  -0.20666   1.70716   1.22544
   0.51160   1.70716   1.22544
   0.99044   1.70716   1.22544
   1.22986   1.70716   1.22544
   1.46928   1.70716   0.98601
   1.70870   1.70716   0.98601
   1.94812   1.70716   0.98601
   2.18754   1.70716   0.74659
   2.18754   1.46774   0.74659
   2.18754   1.46774   0.74659
   2.18754   1.46774   0.74659
   1.94812   1.22832   0.74659
   1.94812   1.22832   0.74659
   1.94812   0.98890   0.98601
   1.70870   0.74948   0.98601
   1.46928   0.51006   0.98601
   1.22986   0.27064   1.46486
   0.99044   0.03122   1.46486
   0.99044  -0.20820   1.70428
   0.75102  -0.44762   1.94370
   0.27218  -0.68704   2.18312
   0.03276  -0.92646   2.18312
  -0.20666  -0.92646   2.18312
  -0.44608  -1.16588   2.18312
  -0.68550  -1.16588   2.18312
  -0.92492  -1.16588   1.94370
  -1.40376  -1.40530   1.94370
  -1.64318  -1.16588   1.70428
  -1.64318  -1.40530   1.70428
  -1.88260  -1.40530   1.46486
  -2.12202  -1.40530   1.46486
  -2.12202  -1.64472   1.22544
  -2.12202  -1.64472   0.98601
  -2.36144  -1.64472   0.98601
  -2.36144  -1.64472   0.98601
  -2.12202  -1.64472   0.74659
  -2.12202  -1.64472   0.50717
  -2.12202  -1.40530   0.26775
  -1.88260  -1.40530   0.02833
  -1.64318  -1.16588  -0.45051
  -1.40376  -1.16588  -0.68993
  -1.40376  -0.92646  -0.92935
  -1.16434  -0.68704  -1.16877
  -0.92492  -0.44762  -1.64761
  -0.92492  -0.20820  -1.88703
  -0.92492   0.03122  -2.12645
  -0.92492   0.27064  -2.36587
  -0.92492   0.51006  -2.60529
  -0.92492   0.51006  -2.84471
  -0.92492   0.74948  -3.08413
  -0.92492   0.98890  -3.32355
  -0.92492   0.98890  -3.32355
  -0.92492   1.22832  -3.32355
  -0.92492   1.22832  -3.56297
  -1.16434   1.22832  -3.56297
  -1.16434   1.22832  -3.56297
  -1.16434   1.22832  -3.80239
  -1.40376   1.22832  -3.56297
  -1.40376   1.46774  -3.56297
  -1.40376   1.46774  -3.56297
  -1.64318   1.46774  -3.56297
  -1.64318   1.70716  -3.32355
  -1.64318   1.70716  -3.08413
  -1.64318   1.70716  -2.84471
  -1.64318   1.70716  -2.60529
  -1.40376   1.46774  -2.36587
  -1.16434   1.46774  -2.12645
  -1.16434   1.46774  -1.64761
  -0.92492   1.46774  -1.40819
  -0.68550   1.46774  -1.16877
  -0.68550   1.46774  -0.92935
  -0.44608   1.46774  -0.68993
  -0.20666   1.46774  -0.68993
   0.03276   1.46774  -0.45051
   0.51160   1.46774  -0.45051
   0.75102   1.22832  -0.21109
   0.99044   0.98890  -0.21109
   1.46928   0.74948  -0.21109
   1.70870   0.74948  -0.21109
   1.94812   0.51006  -0.21109
   2.18754   0.51006  -0.21109
   2.42696   0.27064  -0.21109
   2.66638   0.03122  -0.21109
