********************************************************************************
               CENTRO DE INSTRUMENTACION Y REGISTRO SISMICO  A.C.  
                       Coordinacion de Servicios Tecnicos
     Anaxagoras 814, Col. Narvarte, Benito Juarez, C.P. 03020 Mexico, D.F.
            Tels. 687 45 42/ 687 45  82             Fax. 669 25 12
********************************************************************************
ARCHIVO ESTANDAR DE ACELERACION:
VERSION DEL FORMATO                    : 2.0
NOMBRE DEL ARCHIVO                     : AP689909.301
FECHA Y HORA DE CREACION               : 10/FEBRERO/2000 10:55
REF. CATALOGO ACELEROGRAMAS, SMIS 1996 : REGISTRO No.     /PAG.


================================================================================
DATOS DE LA ESTACION:
NOMBRE DE LA ESTACION                  : APATLACO
CLAVE DE LA ESTACION                   : AP68
LOCALIZACION DE LA ESTACION            : Jardin de Ni¤os Juan Bautista de la
                                       : Salle Canal de Apatlaco y Ahuehuetes,
                                       : Col Iztacalco Infonavit, Iztacalc
                                       : 
                                       :
COORDENADAS DE LA ESTACION             : 19.381 LAT. N 
                                       : 99.107 LONG. W 
ALTITUD (msnm)                         : 2232
TIPO DE SUELO                          : ARCILLOSO, ZONA LAGO
                                       : 
                                       : 
INSTITUCION RESPONSABLE                : CIRES
                                       :

================================================================================
DATOS DEL ACELEROGRAFO:
MODELO DEL ACELEROGRAFO                : RAD-851
NUMERO DE SERIE DEL ACELEROGRAFO       : 255
NUMERO DE CANALES                      : 3
ORIENTACION C1-C6 (rumbo;orientacion)  : /N00E/+V/N90W
ORIENTACION C7-C12 (rumbo;orientacion) :
VEL. DE MUESTREO, C1-C6 (muestras/s)   : /100/100/100
VEL. DE MUESTREO, C7-C12 (muestras/s)  :
ESC. COMPLETA DE SENSORES, C1-C6, (g)  : /0.5/0.5/0.5
ESC. COMPLETA DE SENSORES, C7-C12, (g) :
FREC. NAT. DE SENSORES, C1-C6, (Hz)    : /30/30/30
FREC. NAT. DE SENSORES, C7-C12, (Hz)   :
AMORTIGUAMIENTO DE SENSORES, C1-C6     : /0.780/0.700/0.678
AMORTIGUAMIENTO DE SENSORES, C7-C12    :
INTERVALO DE MUESTREO, C1-C6, (s)      : /0.01/0.01/0.01
INTERVALO DE MUESTREO, C7-C12, (s)     :
UMBRAL DE DISPARO, C1-C6, (Gal)        : /3.42/4.15/3.42
UMBRAL DE DISPARO, C7-C12, (Gal)       :
MEMORIA DE PREEVENTO (s)               : 8
TIEMPO DE POSEVENTO (s)                : 8


================================================================================
DATOS DEL SISMO:
FECHA DEL SISMO (GMT)                  : 30/SEP/99
HORA EPICENTRO (GMT)                   : 16:31:14.8
MAGNITUD(ES)                           : /Mb=6.5/Ms=7.5/Mc=5.2/Ma=7.1/Me=7.6
COORDENADAS DEL EPICENTRO              : 15.95 LAT. N
                                       : 97.03 LONG. W
PROFUNDIDAD FOCAL (km)                 : 16.0
FUENTE DE LOS DATOS EPICENTRALES       : SSN
                                       : INSTITUTO DE GEOFISICA, UNAM

================================================================================
DATOS DE ESTE REGISTRO:
HORA DE LA PRIMERA MUESTRA (GMT)       : 16:32:46.00
EXACTITUD DEL TIEMPO (s)               : 0.01
DURACION DEL REGISTRO (s), C1-C6       : /266.75/266.75/266.75
DURACION DEL REGISTRO (s), C7-C12      :
NUM. TOTAL DE MUESTRAS, C1-C6          : /26675/26675/26675
NUM. TOTAL DE MUESTRAS, C7-C12         :
ACEL. MAX. (Gal), C1-C6                : /29.90897/10.43795/29.40549
ACEL. MAX., C1-C6, EN LA MUESTRA       :
ACEL. MAX. (Gal), C7-C12               :
ACEL. MAX., C7-C12, EN LA MUESTRA      :
UNIDADES DE LOS DATOS                  : Gal (cm/s/s)
FACTOR DE DECIMACION                   : 1
FORMATO DATOS (FORTRAN,10 campos/dato) : 3F10.5


================================================================================
CALIDAD DEL ACELEROGRAMA:
REGISTRO DIGITAL COMPLETO CON TIEMPO ABSOLUTO CORRECTO.


================================================================================
COMENTARIOS:














================================================================================
DATOS DE ACELERACION:
---------+---------+---------+---------+---------+---------+---------+---------+
   CANAL-1   CANAL-2   CANAL-3   CANAL-4   CANAL-5   CANAL-6   CANAL-7   CANAL-8
      N00E        +V      N90W
---------+---------+---------+---------+---------+---------+---------+---------+
[...]
   0.25782  -2.49068  -7.94386
  -0.69986  -2.25126  -8.18328
  -1.41811  -2.01184  -8.18328
  -2.85463  -1.53300  -7.70444
  -3.81230  -0.81474  -7.70444
  -4.53056  -0.57532  -7.22561
  -5.00940  -0.33590  -6.74677
  -6.20649   0.14293  -6.26793
  -6.92475   0.86119  -5.31025
  -7.40359   1.34003  -4.83142
  -7.88243   1.34003  -4.11316
  -8.60068   1.57945  -3.15548
  -9.31894   2.29770  -2.19781
  -9.31894   2.77654  -1.95839
  -9.31894   3.01596  -1.24013
  -9.55836   2.77654  -0.76129
  -9.55836   3.01596  -0.04304
  -9.55836   3.49480  -0.04304
  -9.31894   3.49480   0.19638
  -9.07952   3.25538   0.43580
  -8.84010   3.25538   0.43580
  -8.84010   3.25538   0.19638
  -8.60068   3.01596  -0.04304
  -8.12184   2.29770  -0.76129
  -7.88243   2.05828  -0.76129
  -6.68533   1.81887  -1.95839
  -5.96707   1.81887  -2.43723
  -5.48824   1.10061  -3.63432
  -5.00940   1.10061  -4.11316
  -4.53056   0.86119  -4.83142
  -3.57288   0.14293  -6.02851
  -2.85463  -0.57532  -6.98619
  -2.37579  -1.05416  -7.70444
  -1.89695  -1.53300  -8.42270
  -0.93928  -2.01184  -9.14096
  -0.46044  -2.49068  -9.61979
  -0.22102  -2.73009 -10.33805
   0.25782  -3.44835 -11.05631
   0.73666  -3.44835 -11.05631
   1.69433  -3.92719 -11.77457
   1.69433  -4.16661 -11.77457
   1.93375  -4.40603 -11.77457
   1.93375  -4.40603 -11.53515
   2.41259  -4.64545 -11.29573
   2.65201  -4.64545 -11.05631
   2.17317  -4.64545 -10.57747
   2.65201  -4.64545 -10.57747
   2.41259  -4.64545  -9.61979
   2.41259  -4.64545  -8.90154
   2.41259  -4.64545  -8.18328
   2.17317  -4.64545  -7.46502
   1.93375  -4.40603  -6.98619
   1.45491  -4.16661  -5.54967
   1.21549  -4.16661  -4.59200
   0.49724  -3.44835  -3.63432
   0.25782  -3.44835  -2.67665
  -0.22102  -3.44835  -1.95839
  -1.41811  -3.20893  -1.00071
  -2.13637  -2.73009  -0.52187
  -3.09405  -2.25126   0.43580
  -3.81230  -2.25126   0.91464
  -4.53056  -2.01184   1.63290
  -5.48824  -1.53300   1.87231
  -6.20649  -1.05416   1.87231
  -7.16417  -1.05416   2.59057
  -7.88243  -1.05416   2.82999
  -8.60068  -0.81474   3.06941
 -10.03720  -0.33590   3.06941
 -10.99487  -0.09649   2.82999
 -11.47371  -0.09649   3.06941
 -12.19197  -0.09649   3.06941
 -12.91022   0.14293   3.30883
 -13.14964   0.14293   3.06941
 -13.86790   0.14293   3.06941
 -14.58616   0.38235   3.30883
 -15.30441   0.86119   3.30883
 -15.54383   0.62177   3.54825
 -16.26209   0.86119   3.54825
 -17.21976   1.10061   4.26650
 -17.69860   1.10061   4.50592
 -18.41686   1.34003   4.74534
 -19.13512   0.86119   5.46360
 -19.37453   0.38235   6.18186
 -20.33221   0.38235   7.13953
 -21.05047   0.38235   8.33663
 -21.28989   0.38235   9.29430
 -21.76872  -0.09649  10.49140
 -22.24756  -0.09649  11.68849
 -22.72640  -0.33590  12.64617
 -22.48698  -0.57532  13.60384
 -22.72640  -1.05416  14.80094
 -22.96582  -1.29358  15.75861
 -22.24756  -1.29358  16.47687
 -22.24756  -1.05416  17.43455
 -21.52931  -1.29358  18.39222
 -21.28989  -1.53300  19.34990
 -20.57163  -1.53300  19.82874
 -19.61395  -1.29358  20.54699
 -18.41686  -1.53300  20.78641
 -17.69860  -1.77242  21.26525
 -16.98035  -1.53300  21.74409
 -16.02267  -1.53300  21.50467
 -15.54383  -1.53300  21.50467
 -14.34674  -1.53300  21.26525
 -13.62848  -1.29358  21.26525
 -12.43139  -1.05416  20.78641
 -11.23429  -1.53300  20.06815
 -10.51603  -1.53300  19.82874
  -9.55836  -1.29358  19.34990
  -8.36126  -1.05416  18.39222
  -6.92475  -1.29358  17.67396
  -5.96707  -1.05416  17.19513
  -5.48824  -0.81474  16.47687
  -4.76998  -0.33590  15.27978
  -4.05172   0.14293  14.56152
  -3.81230   0.14293  13.84326
  -3.81230   0.62177  12.88559
  -3.33347   1.10061  12.16733
  -2.85463   1.34003  11.20965
  -2.37579   1.10061  10.25198
  -2.13637   1.57945   9.77314
  -2.13637   2.29770   9.29430
  -1.65753   2.53712   8.57604
  -1.89695   2.53712   8.09721
  -1.65753   2.77654   7.61837
  -1.89695   3.01596   7.13953
  -1.65753   3.49480   6.42127
  -1.89695   3.97364   5.94244
  -1.89695   4.21306   5.94244
  -2.13637   4.45247   5.46360
  -2.61521   5.17073   5.46360
  -2.37579   5.17073   5.22418
  -2.37579   5.41015   5.22418
  -2.37579   5.64957   5.46360
  -2.37579   6.12841   5.22418
  -2.37579   5.88899   4.98476
  -2.13637   5.64957   5.22418
  -2.61521   6.12841   5.70302
  -2.85463   6.36783   6.18186
  -2.37579   6.12841   6.42127
  -1.89695   5.64957   6.90011
  -2.13637   5.64957   7.61837
  -2.61521   5.88899   8.09721
  -1.89695   5.41015   8.33663
  -1.89695   5.64957   9.29430
  -1.89695   5.17073   9.77314
  -1.41811   5.17073  10.25198
  -0.93928   5.17073  10.73082
  -0.46044   4.69189  10.97023
  -0.22102   4.45247  11.92791
   0.01840   3.97364  12.64617
   0.73666   3.97364  13.36442
   1.45491   3.97364  13.84326
   1.93375   3.73422  14.32210
   2.17317   3.73422  15.04036
   3.13085   3.01596  15.27978
   3.84910   2.77654  15.51919
   4.32794   2.29770  15.75861
   5.04620   1.81887  15.99803
   5.76445   1.57945  15.75861
   6.72213   0.62177  15.27978
   7.91922  -0.09649  14.80094
   8.87690  -0.81474  14.32210
   9.35574  -1.29358  13.84326
  10.55283  -1.77242  13.12500
  11.74993  -2.25126  12.40675
  12.46818  -2.73009  12.40675
  13.66528  -3.20893  11.68849
  14.14412  -3.20893  11.20965
  15.10179  -3.92719  10.49140
  15.34121  -3.68777  10.01256
  15.82005  -4.16661   9.53372
  16.53831  -4.16661   8.57604
  17.01714  -4.40603   8.09721
  17.97482  -4.64545   7.37895
  18.45366  -4.64545   6.90011
  18.93250  -4.40603   6.18186
  19.17192  -4.16661   5.70302
  19.89017  -4.88486   4.98476
  19.41133  -4.64545   4.98476
  19.65075  -4.16661   4.98476
  20.36901  -4.16661   4.50592
  21.08727  -4.16661   4.50592
  20.84785  -3.92719   4.74534
  20.60843  -3.44835   4.74534
  20.84785  -3.20893   4.74534
  21.08727  -2.73009   4.98476
  20.84785  -2.25126   5.70302
  20.84785  -1.77242   6.18186
  20.60843  -1.53300   6.18186
  20.36901  -1.53300   6.66069
  20.36901  -1.29358   7.37895
  20.36901  -0.81474   8.09721
  20.12959  -0.09649   8.09721
  19.41133   0.38235   9.29430
  18.93250  -0.09649   9.29430
  18.21424   0.14293  10.01256
  17.73540   0.62177  10.25198
  17.49598   0.62177  10.49140
  17.01714   0.62177  10.73082
  16.53831   0.86119  11.20965
  15.58063   1.10061  11.68849
  15.82005   1.34003  11.44907
  15.34121   1.34003  11.68849
  14.38354   1.34003  11.68849
  13.42586   1.57945  11.44907
  13.18644   2.05828  10.97023
  13.18644   1.81887  10.25198
  12.94702   1.81887   9.77314
  12.70760   1.81887   8.81546
  11.98935   2.05828   7.85779
  11.74993   2.05828   6.42127
  11.51051   2.29770   5.22418
  11.27109   2.29770   4.02709
  11.51051   2.05828   2.82999
  11.27109   2.05828   1.63290
  11.03167   1.57945   0.19638
  11.03167   1.34003  -1.00071
  11.03167   1.34003  -2.67665
  11.98935   1.10061  -4.83142
  11.74993   1.34003  -5.54967
  12.22877   0.86119  -6.74677
  12.46818   1.34003  -8.18328
  13.42586   0.86119  -9.85921
  13.66528   0.86119 -11.05631
  14.62296   0.62177 -12.01398
  15.10179   1.10061 -13.21108
  15.82005   1.10061 -14.16875
  16.53831   0.86119 -15.36585
  17.25656   0.86119 -16.08411
  17.49598   1.10061 -16.80236
  18.21424   1.10061 -17.99946
  18.93250   1.34003 -18.47830
  19.41133   1.34003 -19.19655
  19.41133   1.81887 -19.19655
  20.12959   1.81887 -20.15423
  20.12959   2.53712 -20.63307
  20.36901   2.29770 -21.11190
  19.89017   2.29770 -21.59074
  19.89017   2.53712 -22.06958
  20.12959   2.29770 -22.30900
  20.36901   1.81887 -22.78784
  20.36901   1.81887 -23.02726
  20.12959   1.81887 -23.26667
  19.89017   1.57945 -23.26667
  19.65075   1.34003 -23.26667
  18.69308   1.10061 -23.02726
  18.21424   0.86119 -23.02726
  18.69308   0.38235 -23.26667
  17.97482  -0.09649 -23.02726
  17.49598  -0.33590 -22.78784
  17.01714  -0.81474 -22.54842
  16.29889  -0.81474 -22.54842
  15.58063  -1.05416 -22.06958
  15.34121  -1.29358 -22.06958
  14.62296  -1.29358 -21.59074
  14.14412  -1.29358 -21.35132
  13.66528  -1.29358 -21.35132
  12.94702  -1.29358 -20.87249
  12.22877  -0.57532 -20.39365
  10.79225  -0.09649 -19.91481
  10.31341   0.14293 -19.91481
   9.59516   0.38235 -19.67539
   8.63748   0.86119 -18.95713
   7.91922   1.10061 -18.71771
   7.44039   1.34003 -17.99946
   6.72213   1.57945 -17.52062
   5.76445   2.05828 -16.32353
   5.52504   2.05828 -16.08411
   4.56736   2.29770 -15.60527
   4.32794   2.29770 -14.64759
   3.84910   1.81887 -14.16875
   3.13085   2.29770 -12.97166
   2.65201   2.05828 -12.25340
   2.41259   1.57945 -11.53515
   2.17317   1.34003 -10.57747
   1.69433   0.86119  -9.85921
   1.45491   0.38235  -9.38038
   1.45491  -0.09649  -9.14096
   1.21549  -0.57532  -7.94386
   0.97608  -1.29358  -7.70444
   0.97608  -1.29358  -7.22561
   1.21549  -2.25126  -6.98619
   0.97608  -2.73009  -6.50735
   0.49724  -3.20893  -5.78909
   0.73666  -3.92719  -6.02851
   1.21549  -4.40603  -5.54967
   1.45491  -4.88486  -5.07083
   0.97608  -5.12428  -4.59200
   0.73666  -5.36370  -4.11316
   0.73666  -6.08196  -4.11316
   0.97608  -5.84254  -3.63432
   0.73666  -6.32138  -3.15548
   0.25782  -6.56080  -2.67665
   0.25782  -6.56080  -2.67665
   0.01840  -6.56080  -2.43723
  -0.46044  -6.80022  -1.71897
  -0.69986  -6.32138  -1.47955
  -1.41811  -6.08196  -1.24013
  -1.89695  -6.08196  -1.00071
  -2.61521  -5.84254  -0.52187
  -3.33347  -5.60312  -0.52187
  -3.81230  -4.40603  -0.28246
  -4.53056  -3.92719  -0.04304
  -5.00940  -4.16661   0.19638
  -5.96707  -3.92719   0.43580
  -6.92475  -3.20893   0.19638
  -7.88243  -2.25126   0.19638
  -8.60068  -2.01184   0.19638
  -9.31894  -1.29358   0.43580
 -10.51603  -0.81474   0.43580
 -11.23429  -0.57532  -0.28246
 -12.19197  -0.33590   0.19638
 -13.14964   0.14293   0.43580
 -14.34674   0.62177   0.19638
 -15.06499   1.10061   0.19638
 -16.02267   1.10061  -0.28246
 -16.50151   1.34003  -0.28246
 -17.69860   2.05828  -0.52187
 -18.89570   2.53712  -1.00071
 -19.13512   2.53712  -1.47955
 -20.09279   2.53712  -1.71897
 -21.52931   2.77654  -1.24013
 -22.00814   2.53712  -1.71897
 -22.48698   2.77654  -2.19781
 -23.20524   3.01596  -2.43723
 -23.92349   3.01596  -2.43723
 -24.64175   2.53712  -2.67665
 -25.12059   2.77654  -3.15548
 -25.36001   2.77654  -3.15548
 -26.07827   2.29770  -3.39490
 -26.31768   2.05828  -3.63432
 -27.03594   2.05828  -4.11316
 -27.27536   2.05828  -4.11316
 -27.51478   1.81887  -4.59200
 -27.75420   1.57945  -5.07083
 -28.47245   1.34003  -4.83142
 -28.95129   1.10061  -5.07083
 -28.95129   1.10061  -5.07083
 -28.71187   1.10061  -5.31025
 -28.71187   0.38235  -5.54967
 -28.71187   0.62177  -5.78909
 -29.43013   0.38235  -5.78909
 -29.66955   0.62177  -5.78909
 -29.43013   0.14293  -6.02851
 -29.66955   0.14293  -6.02851
 -29.66955  -0.33590  -6.02851
 -29.43013  -0.33590  -6.02851
 -29.90897  -0.57532  -6.02851
 -29.90897  -1.29358  -6.02851
 -29.90897  -1.53300  -6.02851
 -28.95129  -1.77242  -6.26793
 -28.95129  -1.77242  -5.78909
 -28.47245  -2.01184  -5.78909
 -28.23304  -2.01184  -5.78909
 -27.51478  -2.01184  -5.31025
 -26.55710  -2.49068  -5.31025
 -26.07827  -2.49068  -5.07083
 -25.12059  -2.73009  -4.83142
 -24.64175  -2.73009  -4.35258
 -23.44466  -2.96951  -3.87374
 -22.24756  -2.73009  -3.63432
 -21.05047  -2.96951  -3.15548
 -20.33221  -2.96951  -2.91606
 -19.85337  -2.96951  -2.67665
 -19.13512  -3.20893  -2.19781
 -18.65628  -3.44835  -1.71897
 -17.93802  -3.92719  -1.47955
 -17.21976  -3.92719  -1.00071
 -16.26209  -3.92719  -0.28246
 -15.78325  -4.40603  -0.28246
 -15.30441  -3.92719   0.19638
 -14.34674  -4.40603   0.43580
 -13.62848  -4.40603   0.67522
 -12.67080  -4.64545   1.15406
 -12.19197  -4.88486   0.91464
 -11.95255  -4.88486   1.63290
 -11.47371  -4.64545   1.63290
 -11.23429  -4.40603   2.11173
 -10.51603  -4.64545   2.82999
 -10.03720  -4.40603   2.82999
 -10.03720  -4.16661   3.30883
  -9.79778  -3.92719   3.78767
  -9.55836  -3.44835   3.78767
  -9.31894  -3.44835   3.78767
  -9.07952  -2.96951   4.26650
  -9.07952  -2.73009   4.50592
  -9.55836  -2.01184   4.50592
 -10.27662  -1.77242   5.22418
 -10.75545  -1.53300   5.46360
 -10.99487  -0.81474   6.18186
 -10.99487  -0.57532   6.66069
 -11.95255   0.14293   7.61837
 -12.19197   0.62177   8.09721
 -12.67080   0.86119   8.81546
 -13.14964   1.57945   9.29430
 -13.62848   1.81887  10.01256
 -13.86790   2.05828  10.49140
 -13.86790   2.29770  11.20965
 -14.34674   3.01596  12.16733
 -14.58616   3.49480  13.12500
 -15.06499   3.73422  13.60384
 -15.30441   3.97364  14.56152
 -15.06499   3.97364  15.04036
 -15.30441   4.21306  16.23745
 -15.30441   4.45247  16.95571
 -14.82558   4.69189  17.19513
 -14.82558   4.69189  18.15280
 -14.34674   4.93131  18.39222
 -13.86790   5.17073  19.34990
 -13.14964   4.69189  19.82874
 -12.91022   5.17073  20.30757
 -12.43139   4.93131  21.02583
 -11.71313   4.93131  21.50467
 -10.99487   5.17073  21.26525
 -10.03720   4.93131  21.50467
  -9.07952   5.17073  21.98351
  -8.12184   4.69189  21.74409
  -7.40359   4.69189  21.98351
  -6.20649   4.21306  21.50467
  -5.24882   4.21306  21.02583
  -4.29114   4.21306  21.02583
  -3.33347   3.73422  20.54699
  -2.13637   3.25538  20.06815
  -1.17870   2.77654  19.34990
   0.01840   2.77654  18.87106
   1.21549   2.53712  18.39222
   2.65201   2.29770  17.91338
   3.37026   2.05828  17.43455
   4.80678   1.57945  16.71629
   5.76445   1.57945  16.23745
   7.20097   1.34003  15.51919
   7.91922   1.10061  15.27978
   9.11632   0.86119  14.80094
   9.83458   0.62177  14.32210
  10.55283   0.62177  14.08268
  11.51051   0.14293  13.36442
  12.22877  -0.09649  12.40675
  12.70760  -0.09649  12.16733
  13.42586  -0.09649  11.44907
  14.38354  -0.57532  10.49140
  15.34121  -0.57532   9.77314
  16.05947  -0.57532   9.53372
  16.77773  -0.57532   8.33663
  17.73540  -0.33590   7.85779
  18.21424  -0.33590   7.37895
  18.93250  -0.33590   6.66069
  18.93250  -0.09649   5.94244
  19.41133   0.14293   4.98476
  19.65075  -0.09649   4.50592
  20.36901  -0.33590   3.54825
  20.60843  -0.09649   3.06941
  21.08727  -0.09649   2.11173
  21.56610   0.14293   1.15406
  21.32669   0.14293   0.67522
  21.32669   0.14293  -0.04304
  21.56610   0.14293  -0.76129
  22.52378  -0.09649  -1.71897
  22.28436   0.14293  -2.19781
  22.04494   0.14293  -2.67665
  22.04494  -0.09649  -3.63432
  22.28436   0.14293  -4.11316
  22.04494   0.38235  -4.11316
  22.04494   0.14293  -4.35258
  22.04494   0.14293  -5.07083
  21.80552   0.38235  -5.07083
  22.04494   0.14293  -5.31025
  21.80552   0.38235  -5.31025
  21.32669   0.62177  -5.31025
  21.08727   0.86119  -5.31025
  20.84785   0.86119  -5.07083
  20.36901   0.86119  -5.07083
  19.89017   1.10061  -4.59200
  19.89017   1.10061  -4.83142
  19.89017   1.10061  -4.83142
  19.41133   1.34003  -4.35258
  19.41133   1.34003  -4.35258
  19.65075   1.34003  -4.59200
  19.41133   1.57945  -4.35258
  19.17192   1.81887  -4.11316
  19.41133   1.57945  -4.11316
  19.17192   1.57945  -4.59200
  18.45366   1.81887  -4.59200
  18.21424   1.81887  -4.83142
  17.49598   2.05828  -4.59200
  17.73540   1.81887  -4.59200
  17.49598   1.57945  -5.07083
  17.49598   1.81887  -5.31025
  17.73540   1.81887  -5.31025
  17.01714   1.57945  -5.07083
  16.77773   1.57945  -5.31025
  17.01714   1.57945  -5.07083
  16.77773   1.57945  -4.83142
  16.77773   1.34003  -4.83142
  16.53831   1.57945  -4.59200
  16.53831   1.34003  -4.35258
  16.53831   1.10061  -4.35258
  17.01714   0.62177  -4.35258
