********************************************************************************
               CENTRO DE INSTRUMENTACION Y REGISTRO SISMICO  A.C.  
                       Coordinacion de Servicios Tecnicos
     Anaxagoras 814, Col. Narvarte, Benito Juarez, C.P. 03020 Mexico, D.F.
            Tels. 687 45 42/ 687 45  82             Fax. 669 25 12
********************************************************************************
ARCHIVO ESTANDAR DE ACELERACION:
VERSION DEL FORMATO                    : 2.0
NOMBRE DEL ARCHIVO                     : AP680008.091
FECHA Y HORA DE CREACION               : 20/JUL/04, 10:00
REF. CATALOGO ACELEROGRAMAS, SMIS 1996 : REGISTRO No.     /PAG.


================================================================================
DATOS DE LA ESTACION:
NOMBRE DE LA ESTACION                  : APATLACO
CLAVE DE LA ESTACION                   : AP68
LOCALIZACION DE LA ESTACION            : Jardin de Ni¤os Juan Bautista de la
                                       : Salle Canal de Apatlaco y Ahuehuetes,
                                       : Col Iztacalco Infonavit, Iztacalc
                                       : 
                                       :
COORDENADAS DE LA ESTACION             : 19.381 LAT. N 
                                       : 99.107 LONG. W 
ALTITUD (msnm)                         : 2232
TIPO DE SUELO                          : ARCILLOSO, ZONA LAGO
                                       : 
                                       : 
INSTITUCION RESPONSABLE                : CIRES
                                       :

================================================================================
DATOS DEL ACELEROGRAFO:
MODELO DEL ACELEROGRAFO                : RAD-851
NUMERO DE SERIE DEL ACELEROGRAFO       : 255
NUMERO DE CANALES                      : 3
ORIENTACION C1-C6 (rumbo;orientacion)  : /N00E/+V/N90W
ORIENTACION C7-C12 (rumbo;orientacion) :
VEL. DE MUESTREO, C1-C6 (muestras/s)   : /100/100/100
VEL. DE MUESTREO, C7-C12 (muestras/s)  :
ESC. COMPLETA DE SENSORES, C1-C6, (g)  : /0.5/0.5/0.5
ESC. COMPLETA DE SENSORES, C7-C12, (g) :
FREC. NAT. DE SENSORES, C1-C6, (Hz)    : /30/30/30
FREC. NAT. DE SENSORES, C7-C12, (Hz)   :
AMORTIGUAMIENTO DE SENSORES, C1-C6     : /0.780/0.700/0.678
AMORTIGUAMIENTO DE SENSORES, C7-C12    :
INTERVALO DE MUESTREO, C1-C6, (s)      : /0.01/0.01/0.01
INTERVALO DE MUESTREO, C7-C12, (s)     :
UMBRAL DE DISPARO, C1-C6, (Gal)        : /2.69/5.62/3.17
UMBRAL DE DISPARO, C7-C12, (Gal)       :
MEMORIA DE PREEVENTO (s)               : 24
TIEMPO DE POSEVENTO (s)                : 64


================================================================================
DATOS DEL SISMO:
FECHA DEL SISMO (GMT)                  : 09/AGO/00
HORA EPICENTRO (GMT)                   : 11:41:47:7
MAGNITUD(ES)                           : /Mb=6.1/Ms=6.5/Mc=0.0/Ma=6.5/Me=7.0
COORDENADAS DEL EPICENTRO              : 17.99 LAT. N
                                       : 102.66 LONG. W
PROFUNDIDAD FOCAL (km)                 : 16.0
FUENTE DE LOS DATOS EPICENTRALES       : SSN
                                       : INSTITUTO DE GEOFISICA, UNAM

================================================================================
DATOS DE ESTE REGISTRO:
HORA DE LA PRIMERA MUESTRA (GMT)       : 11:43:37.00
EXACTITUD DEL TIEMPO (s)               : 0.01
DURACION DEL REGISTRO (s), C1-C6       : /208.25/208.25/208.25
DURACION DEL REGISTRO (s), C7-C12      :
NUM. TOTAL DE MUESTRAS, C1-C6          : /20825/20825/20825
NUM. TOTAL DE MUESTRAS, C7-C12         :
ACEL. MAX. (Gal), C1-C6                : /-13.73397/3.34806/-17.74212
ACEL. MAX., C1-C6, EN LA MUESTRA       :
ACEL. MAX. (Gal), C7-C12               :
ACEL. MAX., C7-C12, EN LA MUESTRA      :
UNIDADES DE LOS DATOS                  : Gal (cm/s/s)
FACTOR DE DECIMACION                   : 1
FORMATO DATOS (FORTRAN,10 campos/dato) : 3F10.5


================================================================================
CALIDAD DEL ACELEROGRAMA:
REGISTRO DIGITAL COMPLETO CON TIEMPO ABSOLUTO CORRECTO.


================================================================================
COMENTARIOS:














================================================================================
DATOS DE ACELERACION:
---------+---------+---------+---------+---------+---------+---------+---------+
   CANAL-1   CANAL-2   CANAL-3   CANAL-4   CANAL-5   CANAL-6   CANAL-7   CANAL-8
      N00E        +V      N90W
---------+---------+---------+---------+---------+---------+---------+---------+
[...]
   3.26478  -1.67974   2.12965
   3.02536  -1.67974   1.89023
   3.02536  -1.67974   2.36907
   2.78594  -1.44032   2.60849
   3.50420  -1.44032   2.36907
   3.74362  -1.20090   2.60849
   3.50420  -1.44032   3.08733
   3.50420  -1.44032   3.08733
   3.50420  -0.96148   2.84791
   3.98303  -1.20090   3.32674
   4.22245  -1.44032   3.80558
   3.98303  -1.44032   3.80558
   4.22245  -1.44032   4.04500
   4.22245  -1.20090   4.04500
   4.46187  -1.44032   4.52384
   4.46187  -1.20090   4.28442
   4.70129  -1.44032   4.76326
   4.94071  -1.20090   5.24210
   4.94071  -1.67974   5.72093
   5.18013  -1.67974   5.48152
   4.94071  -1.20090   5.96035
   5.41955  -1.44032   6.19977
   5.65897  -1.67974   6.67861
   5.65897  -1.91916   6.91803
   5.65897  -1.67974   7.15745
   5.89839  -1.67974   7.15745
   6.13781  -1.91916   7.39687
   6.37722  -2.15858   7.87570
   6.13781  -2.15858   8.59396
   6.37722  -2.15858   8.35454
   6.13781  -1.67974   8.11512
   6.13781  -2.15858   8.83338
   6.13781  -2.15858   8.83338
   5.89839  -1.91916   8.59396
   5.89839  -2.39799   9.07280
   5.89839  -2.39799   9.07280
   5.65897  -2.63741   9.31222
   5.18013  -2.39799   9.07280
   4.94071  -1.91916   8.59396
   5.18013  -1.91916   8.35454
   4.70129  -1.91916   9.07280
   4.46187  -1.91916   8.83338
   4.22245  -1.67974   8.59396
   4.22245  -1.44032   8.59396
   3.98303  -1.91916   8.83338
   3.74362  -1.44032   9.07280
   3.74362  -1.44032   9.07280
   3.26478  -1.20090   8.83338
   2.78594  -1.44032   9.07280
   3.02536  -1.20090   8.83338
   2.30710  -0.96148   8.83338
   2.30710  -1.20090   9.07280
   2.54652  -0.96148   8.83338
   2.30710  -1.20090   9.07280
   2.06768  -0.96148   9.07280
   1.58885  -0.48264   8.83338
   1.82826  -0.72206   8.59396
   1.11001  -0.72206   8.59396
   1.11001  -0.48264   8.11512
   0.63117  -0.48264   7.87570
   0.63117  -0.24322   7.39687
   0.39175  -0.72206   7.15745
  -0.56593  -0.72206   7.39687
  -0.56593  -0.48264   6.91803
  -1.04476  -0.24322   6.91803
  -1.28418  -0.48264   6.67861
  -1.52360  -0.48264   6.43919
  -1.76302  -0.00381   5.96035
  -2.24186  -0.00381   5.96035
  -2.00244  -0.24322   5.96035
  -2.72070  -0.00381   5.72093
  -3.43895  -0.24322   5.48152
  -3.43895  -0.00381   5.48152
  -3.43895  -0.00381   5.24210
  -3.43895  -0.00381   5.24210
  -3.91779  -0.24322   5.24210
  -4.15721  -0.00381   5.24210
  -3.91779  -0.24322   5.24210
  -3.91779  -0.00381   4.76326
  -4.15721  -0.24322   5.24210
  -4.15721  -0.48264   5.24210
  -4.15721  -0.24322   5.00268
  -4.63605  -0.48264   5.24210
  -4.39663  -0.48264   5.00268
  -4.39663  -0.72206   5.00268
  -4.39663  -0.24322   4.76326
  -4.63605  -0.48264   4.76326
  -4.63605  -0.72206   5.00268
  -4.63605  -0.96148   4.76326
  -4.63605  -0.48264   5.24210
  -5.11489  -0.72206   5.00268
  -4.87547  -0.72206   4.52384
  -4.87547  -0.72206   4.52384
  -5.11489  -0.48264   4.76326
  -5.11489  -0.72206   5.00268
  -5.11489  -0.48264   4.76326
  -5.35430  -0.24322   4.28442
  -5.83314  -0.00381   4.52384
  -5.83314  -0.00381   4.28442
  -6.07256  -0.00381   4.28442
  -6.07256  -0.24322   4.28442
  -6.55140   0.23561   4.04500
  -6.79082   0.47503   4.04500
  -7.03024   0.71445   3.80558
  -6.79082   0.47503   4.28442
  -7.26966   0.71445   4.04500
  -7.74849   0.71445   4.04500
  -7.98791   0.95387   4.04500
  -7.98791   0.95387   4.04500
  -8.46675   1.67213   3.56616
  -8.94559   1.43271   4.04500
  -8.94559   1.91155   3.56616
  -9.18501   1.91155   4.04500
  -9.18501   1.91155   3.80558
  -9.42443   2.15097   4.04500
  -9.66385   2.39038   3.56616
  -9.90326   2.62980   3.80558
  -9.90326   2.62980   3.80558
 -10.14268   2.86922   3.56616
 -10.38210   2.62980   3.80558
 -10.38210   3.10864   3.80558
 -10.38210   3.10864   3.80558
 -10.62152   2.86922   3.56616
 -10.86094   2.86922   3.80558
 -11.10036   3.10864   4.04500
 -10.62152   3.10864   3.56616
 -10.38210   3.10864   3.32674
 -10.86094   3.10864   3.80558
 -10.86094   3.10864   3.56616
 -11.10036   3.34806   3.56616
 -11.10036   3.34806   3.56616
 -10.62152   2.86922   3.80558
 -10.38210   2.62980   3.56616
 -10.38210   3.10864   4.04500
  -9.90326   2.86922   3.80558
  -9.90326   2.62980   4.04500
  -9.66385   2.86922   4.04500
  -9.66385   2.39038   4.28442
  -9.18501   2.39038   4.28442
  -8.94559   1.91155   5.00268
  -8.46675   1.67213   4.76326
  -8.94559   1.91155   5.48152
  -8.46675   1.91155   5.48152
  -8.46675   1.43271   5.96035
  -7.98791   1.19329   6.43919
  -7.74849   1.67213   6.43919
  -7.50907   1.43271   6.67861
  -7.03024   1.67213   6.67861
  -6.79082   1.19329   7.15745
  -6.55140   1.19329   6.91803
  -6.55140   1.43271   6.91803
  -6.07256   1.67213   6.91803
  -5.83314   1.19329   6.67861
  -5.59372   1.43271   6.91803
  -5.35430   1.43271   6.67861
  -5.11489   1.67213   6.43919
  -4.87547   1.67213   6.43919
  -4.39663   1.67213   5.72093
  -4.87547   1.67213   5.96035
  -4.39663   1.43271   5.24210
  -4.15721   2.15097   4.76326
  -3.91779   1.91155   4.52384
  -3.91779   1.91155   3.80558
  -3.91779   2.15097   3.56616
  -3.91779   2.15097   2.84791
  -3.67837   2.15097   2.36907
  -3.67837   2.15097   1.89023
  -3.91779   2.39038   1.17197
  -4.15721   2.15097   0.69314
  -4.15721   1.91155  -0.02512
  -3.91779   1.91155  -0.74338
  -4.15721   2.15097  -1.22222
  -4.87547   2.15097  -1.46163
  -4.63605   2.15097  -1.94047
  -4.63605   2.15097  -2.89815
  -4.63605   1.91155  -3.13757
  -4.87547   1.91155  -3.85582
  -5.11489   1.91155  -3.85582
  -5.11489   2.15097  -4.57408
  -4.87547   1.43271  -4.81350
  -5.11489   1.43271  -5.29234
  -5.35430   1.91155  -6.01059
  -5.11489   1.67213  -6.25001
  -4.63605   1.43271  -6.96827
  -4.63605   1.19329  -6.96827
  -4.87547   1.43271  -7.44711
  -4.15721   0.95387  -8.16536
  -3.91779   0.71445  -8.40478
  -3.91779   0.71445  -8.64420
  -3.67837   0.95387  -8.88362
  -3.19953   0.47503  -9.12304
  -2.96011   0.71445  -9.60188
  -2.72070   0.47503  -9.84130
  -2.24186   0.23561  -9.60188
  -2.00244   0.23561 -10.55955
  -1.52360   0.47503 -10.79897
  -1.04476  -0.00381 -10.79897
  -1.04476  -0.24322 -10.79897
  -0.56593   0.23561 -10.79897
  -0.56593   0.23561 -11.27781
   0.15233  -0.00381 -11.27781
   0.39175  -0.00381 -11.51723
   0.63117   0.23561 -11.75665
   0.63117   0.23561 -11.75665
   0.63117   0.23561 -11.75665
   1.11001  -0.00381 -11.75665
   1.34943   0.47503 -11.75665
   1.11001   0.47503 -11.99607
   1.58885   0.47503 -11.99607
   1.11001   0.23561 -12.23549
   1.58885  -0.24322 -11.99607
   1.34943  -0.24322 -12.23549
   1.58885  -0.00381 -11.75665
   1.58885  -0.24322 -11.51723
   1.82826  -0.48264 -11.51723
   1.58885  -0.48264 -11.27781
   1.82826  -0.24322 -11.51723
   1.82826  -0.48264 -11.27781
   2.06768  -0.72206 -10.79897
   2.06768  -0.72206 -10.79897
   2.06768  -0.72206 -10.32013
   2.30710  -1.44032 -10.08072
   2.54652  -1.20090  -9.84130
   2.54652  -1.67974  -9.36246
   2.78594  -1.44032  -9.60188
   2.54652  -1.67974  -9.12304
   3.50420  -1.91916  -9.12304
   3.02536  -1.91916  -8.64420
   3.50420  -2.15858  -8.64420
   4.22245  -2.39799  -8.64420
   3.98303  -2.39799  -8.64420
   4.70129  -2.63741  -8.40478
   4.46187  -2.63741  -8.16536
   4.70129  -2.39799  -8.64420
   4.70129  -2.63741  -8.64420
   4.94071  -2.63741  -8.64420
   4.94071  -2.63741  -8.88362
   4.94071  -2.39799  -8.88362
   5.41955  -2.63741  -8.88362
   5.18013  -2.39799  -9.36246
   5.18013  -2.15858  -9.36246
   4.70129  -2.39799  -9.36246
   4.94071  -1.91916 -10.08072
   5.18013  -2.15858 -10.32013
   4.70129  -2.15858 -10.32013
   4.22245  -1.91916 -10.32013
   4.46187  -1.91916 -10.55955
   4.46187  -1.44032 -10.79897
   4.22245  -1.67974 -10.55955
   3.98303  -1.67974 -10.79897
   3.74362  -1.44032 -10.79897
   3.98303  -1.44032 -11.03839
   3.74362  -1.44032 -11.03839
   3.74362  -1.20090 -10.79897
   3.50420  -1.20090 -10.32013
   3.50420  -0.96148 -10.79897
   3.74362  -0.72206 -10.79897
   3.50420  -0.96148 -10.32013
   3.50420  -0.72206 -10.32013
   3.50420  -0.48264 -10.55955
   3.50420  -0.72206 -10.55955
   3.50420  -0.48264 -10.08072
   3.74362  -0.48264 -10.08072
   3.98303  -0.24322 -10.32013
   3.98303  -0.00381 -10.08072
   4.22245  -0.48264 -10.08072
   4.46187  -0.24322  -9.84130
   4.22245   0.23561 -10.08072
   4.70129  -0.00381 -10.08072
   4.46187  -0.00381  -9.84130
   4.70129  -0.00381  -9.84130
   4.46187   0.23561  -9.84130
   4.94071  -0.00381  -9.84130
   5.41955  -0.00381 -10.08072
   4.94071   0.23561 -10.08072
   5.18013  -0.24322 -10.08072
   5.65897  -0.00381 -10.32013
   5.65897  -0.00381 -10.08072
   5.89839  -0.48264 -10.08072
   5.89839  -0.48264  -9.84130
   6.37722  -0.48264 -10.08072
   6.37722  -0.00381 -10.08072
   6.61664  -0.72206  -9.60188
   6.61664  -0.96148  -9.36246
   6.61664  -0.72206  -9.36246
   6.61664  -0.72206  -9.12304
   6.61664  -0.96148  -9.12304
   7.09548  -1.20090  -8.88362
   7.33490  -0.72206  -8.64420
   6.85606  -0.72206  -8.16536
   7.33490  -1.20090  -8.16536
   7.57432  -0.96148  -8.16536
   7.57432  -1.20090  -7.68653
   7.81374  -1.20090  -6.96827
   7.57432  -1.20090  -6.72885
   7.81374  -1.20090  -6.72885
   7.57432  -1.20090  -6.01059
   7.57432  -1.20090  -6.01059
   7.33490  -1.20090  -5.53176
   7.33490  -0.72206  -5.05292
   7.33490  -1.20090  -4.57408
   7.33490  -0.96148  -4.33466
   7.09548  -0.96148  -4.09524
   7.09548  -0.72206  -3.85582
   7.09548  -0.96148  -3.13757
   6.85606  -0.72206  -2.89815
   6.61664  -0.72206  -2.17989
   6.61664  -0.72206  -1.70105
   7.09548  -0.72206  -1.22222
   6.61664  -0.72206  -0.26454
   6.37722  -0.96148   0.45372
   6.37722  -0.72206   1.17197
   5.89839  -0.72206   1.65081
   5.65897  -0.96148   2.36907
   5.65897  -0.96148   3.32674
   5.89839  -0.72206   3.80558
   5.18013  -0.72206   4.52384
   5.41955  -1.20090   5.24210
   5.18013  -0.72206   5.72093
   5.18013  -0.96148   6.91803
   4.94071  -0.96148   7.39687
   5.41955  -0.96148   8.11512
   5.18013  -1.20090   8.59396
   4.94071  -0.96148   9.31222
   5.41955  -1.20090  10.26989
   5.41955  -0.96148  10.50931
   5.41955  -0.72206  11.22757
   5.41955  -0.96148  11.70641
   5.41955  -0.72206  12.18525
   5.18013  -0.48264  12.66408
   5.18013  -0.48264  13.14292
   5.41955  -0.72206  14.10060
   5.65897  -0.72206  14.34002
   5.18013  -0.24322  14.81885
   5.41955  -0.24322  15.05827
   5.41955  -0.48264  15.29769
   5.18013  -0.24322  15.53711
   5.18013  -0.00381  15.77653
   5.18013   0.23561  16.25537
   5.65897  -0.00381  16.49479
   4.94071   0.47503  16.49479
   4.94071   0.23561  16.73421
   5.41955   0.23561  16.97362
   4.94071   0.23561  16.97362
   4.94071  -0.00381  17.21304
   4.94071   0.23561  17.45246
   4.70129   0.47503  17.21304
   4.46187   0.23561  16.97362
   4.46187   0.23561  17.69188
   4.22245   0.47503  17.45246
   3.98303   0.71445  17.45246
   3.98303   0.71445  17.21304
   4.22245   0.71445  16.97362
   3.74362   0.71445  17.21304
   3.26478   0.71445  17.21304
   3.50420   0.71445  17.21304
   3.26478   1.19329  16.97362
   2.78594   0.47503  16.97362
   2.78594   0.71445  16.97362
   2.54652   0.71445  16.49479
   2.30710   1.19329  16.49479
   2.06768   0.71445  16.25537
   1.58885   0.71445  16.25537
   1.58885   0.95387  16.01595
   1.82826   0.47503  15.29769
   1.82826   0.71445  15.29769
   1.58885   0.71445  15.05827
   1.58885   1.19329  14.57944
   1.34943   0.95387  14.57944
   1.34943   0.71445  14.34002
   1.11001   0.95387  14.10060
   0.87059   0.95387  13.86118
   0.87059   1.43271  13.38234
   1.11001   1.19329  12.90350
   0.87059   1.43271  12.90350
   1.11001   1.19329  12.90350
   1.34943   0.95387  12.66408
   1.34943   1.67213  12.18525
   1.11001   1.67213  12.18525
   1.11001   1.43271  11.94583
   1.34943   1.67213  11.46699
   1.34943   1.67213  11.22757
   1.58885   1.67213  10.98815
   1.58885   1.67213  10.98815
   1.34943   1.67213  10.98815
   1.34943   1.67213  10.98815
   1.82826   1.43271  10.50931
   1.82826   1.67213  10.26989
   1.58885   1.43271  10.50931
   1.82826   1.43271  10.26989
   1.82826   2.15097  10.03048
   2.06768   1.19329  10.03048
   1.58885   1.19329  10.03048
   1.58885   1.19329  10.03048
   1.34943   1.43271   9.55164
   1.34943   0.71445   9.55164
   0.87059   0.71445   9.55164
   0.87059   0.71445   9.31222
   0.39175   0.95387   8.83338
   0.15233   0.71445   8.83338
  -0.32651   0.47503   9.07280
  -0.08709   0.23561   8.59396
  -0.80534   0.47503   8.35454
  -1.04476  -0.00381   8.11512
  -1.52360  -0.00381   7.87570
  -2.24186  -0.00381   7.87570
  -2.48128  -0.24322   7.39687
  -2.96011  -0.24322   6.91803
  -2.72070  -0.24322   6.43919
  -3.43895  -0.24322   6.67861
  -4.15721  -0.24322   6.67861
  -3.91779  -0.48264   5.96035
  -4.15721  -0.24322   6.19977
  -4.15721  -0.48264   6.19977
  -4.39663  -0.72206   6.19977
  -4.63605  -0.48264   6.43919
  -4.39663  -0.24322   6.19977
  -4.15721  -0.72206   6.19977
  -4.39663  -0.48264   5.72093
  -4.87547  -0.48264   6.19977
  -4.87547  -0.72206   6.19977
  -4.39663  -0.72206   5.96035
  -4.87547  -0.24322   5.72093
  -4.87547  -0.48264   5.72093
  -4.87547  -0.48264   5.48152
  -4.39663  -0.24322   5.24210
  -4.39663  -0.48264   5.48152
  -4.63605  -0.48264   5.48152
  -4.39663  -0.48264   5.24210
  -4.39663  -0.48264   4.52384
  -4.39663  -0.48264   4.76326
  -4.63605  -0.48264   4.76326
  -4.63605  -0.24322   4.52384
  -4.63605  -0.00381   4.28442
  -4.87547   0.23561   4.04500
  -4.87547  -0.00381   3.80558
  -5.11489   0.23561   3.56616
  -5.35430   0.23561   3.56616
  -5.35430  -0.00381   3.08733
  -5.83314   0.47503   2.84791
  -6.07256   0.23561   3.32674
  -6.31198   0.23561   2.60849
  -6.07256   0.23561   2.36907
  -6.31198  -0.00381   2.12965
  -6.79082   0.23561   2.12965
  -6.79082   0.47503   1.65081
  -7.03024   0.47503   1.65081
  -7.03024   0.23561   1.17197
  -7.26966  -0.00381   1.17197
  -7.26966   0.71445   0.45372
  -7.50907   0.95387   0.93256
  -7.26966   0.23561  -0.02512
  -7.50907   0.47503   0.21430
  -7.50907   0.47503  -0.50396
  -7.74849   0.47503  -0.26454
  -7.50907   0.71445  -0.98280
  -7.26966   0.47503  -1.22222
  -7.26966   0.95387  -1.46163
  -7.26966   0.47503  -1.94047
  -7.50907   0.71445  -2.65873
  -6.79082   0.47503  -3.13757
  -7.26966   0.71445  -3.37699
  -7.03024   0.71445  -4.09524
  -6.55140   0.95387  -4.57408
  -6.31198   1.19329  -5.05292
  -6.55140   0.95387  -5.77117
  -6.31198   1.19329  -6.25001
  -6.55140   0.95387  -6.48943
  -6.07256   0.95387  -7.20769
  -6.07256   1.19329  -7.68653
  -5.83314   1.19329  -8.40478
  -6.31198   1.19329  -9.12304
  -6.07256   1.19329  -9.60188
  -6.07256   1.43271 -10.08072
  -5.83314   1.43271 -10.55955
  -5.83314   1.67213 -11.03839
  -6.31198   1.19329 -11.51723
  -5.59372   1.43271 -12.23549
  -5.59372   1.67213 -12.47491
  -6.07256   1.67213 -12.95374
  -5.83314   1.67213 -13.43258
  -5.83314   1.91155 -13.91142
  -6.07256   1.43271 -14.15084
  -6.07256   1.67213 -14.62968
  -6.07256   1.67213 -15.10851
  -5.83314   1.67213 -15.34793
  -6.07256   1.91155 -15.82677
  -5.59372   1.91155 -16.30561
  -5.83314   1.67213 -16.06619
  -5.59372   1.91155 -16.78445
  -5.83314   1.91155 -17.02387
  -5.35430   1.91155 -17.50270
  -5.35430   1.67213 -17.50270
  -5.59372   1.67213 -17.50270
  -5.35430   1.43271 -17.50270
  -5.35430   0.95387 -17.50270
  -5.35430   0.71445 -17.74212
  -5.35430   0.71445 -17.74212
