********************************************************************************
              CENTRO DE INSTRUMENTACION Y REGISTRO SISMICO  A.C.

    Anaxagoras 814, Col. Narvarte, Benito Juarez, C.P. 03020 Mexico, D.F.
           Tels. 5687 45 42/ 5687 45  82             Fax. 5669 25 12
********************************************************************************
ARCHIVO ESTANDAR DE ACELERACION:
VERSION DEL FORMATO                    : 2.0
NOMBRE DEL ARCHIVO                     : AP6820130821123830
FECHA Y HORA DE CREACION               : 11/SEP/13, 15:00
REF. CATALOGO ACELEROGRAMAS, SMIS 1996 : REGISTRO No.     /PAG.


================================================================================
DATOS DE LA ESTACION:
NOMBRE DE LA ESTACION                  : JARDÍN DE NIÑOS "JUAN B. DE LA SALLE"
CLAVE DE LA ESTACION                   : AP68
LOCALIZACION DE LA ESTACION            : Del. Iztapalapa, Col. Santa María      
                                       : Purísima Atlazolpa,  entre Canal de    
                                       : Apatlaco y Ahuehuetes.                 
                                       :                                        
                                       : 
COORDENADAS DE LA ESTACION             : 19.3809 LAT. N
                                       : 99.1068 LONG. W
ALTITUD (msnm)                         : 2232
TIPO DE SUELO                          : Arcilloso, zona lago                
                                       :                           
                                       : 
INSTITUCION RESPONSABLE                : CIRES
                                       : 

================================================================================
DATOS DEL ACELEROGRAFO:
MODELO DEL ACELEROGRAFO                : RADESD
NUMERO DE SERIE DEL ACELEROGRAFO       : 255
NUMERO DE CANALES                      : 3
ORIENTACION C1-C6 (rumbo;orientacion)  : /N00E/+V/N90W
ORIENTACION C7-C12 (rumbo;orientacion) : 
VEL. DE MUESTREO, C1-C6 (muestras/s)   : /100/100/100
VEL. DE MUESTREO, C7-C12 (muestras/s)  : 
ESC. COMPLETA DE SENSORES, C1-C6, (g)  : /0.5/0.5/0.5
ESC. COMPLETA DE SENSORES, C7-C12, (g) : 
FREC. NAT. DE SENSORES, C1-C6, (Hz)    : /30/30/30
FREC. NAT. DE SENSORES, C7-C12, (Hz)   : 
AMORTIGUAMIENTO DE SENSORES, C1-C6     : /0.780/0.700/0.678
AMORTIGUAMIENTO DE SENSORES, C7-C12    : 
INTERVALO DE MUESTREO, C1-C6, (s)      : /0.01/0.01/0.01
INTERVALO DE MUESTREO, C7-C12, (s)     : 
UMBRAL DE DISPARO, C1-C6, (Gal)        : /58.66/107.74/80.21
UMBRAL DE DISPARO, C7-C12, (Gal)       : 
MEMORIA DE PREEVENTO (s)               : 56.0
TIEMPO DE POSEVENTO (s)                : 80.0


================================================================================
DATOS DEL SISMO:
FECHA DEL SISMO (GMT)                  : 21/AGO/13
HORA EPICENTRO (GMT)                   : 12:38:30.0
MAGNITUD(ES)                           : /Mc=6.0
COORDENADAS DEL EPICENTRO              : 16.79 LAT. N
                                       : 99.56 LONG. W
PROFUNDIDAD FOCAL (km)                 : 20
FUENTE DE LOS DATOS EPICENTRALES       : SSN
                                       : INSTITUTO DE GEOFISICA, UNAM

================================================================================
DATOS DE ESTE REGISTRO:
HORA DE LA PRIMERA MUESTRA (GMT)       : 12:39:57.00
EXACTITUD DEL TIEMPO (s)               : 0.01
DURACION DEL REGISTRO (s), C1-C6       : /175.2/175.2/175.2
DURACION DEL REGISTRO (s), C7-C12      : 
NUM. TOTAL DE MUESTRAS, C1-C6          : /17520/17520/17520
NUM. TOTAL DE MUESTRAS, C7-C12         : 
ACEL. MAX. (Gal), C1-C6                : /9.49092/3.48673/8.81765
ACEL. MAX., C1-C6, EN LA MUESTRA       : /6318/5183/6119
ACEL. MAX. (Gal), C7-C12               : 
ACEL. MAX., C7-C12, EN LA MUESTRA      : 
UNIDADES DE LOS DATOS                  : Gal (cm/s/s)
FACTOR DE DECIMACION                   : 1
FORMATO DATOS (FORTRAN,10 campos/dato) : 3F10.5


================================================================================
CALIDAD DEL ACELEROGRAMA:
REGISTRO DIGITAL COMPLETO CON TIEMPO ABSOLUTO CORRECTO.


================================================================================
COMENTARIOS:














================================================================================
DATOS DE ACELERACION:
---------+---------+---------+---------+---------+---------+---------+---------+
   CANAL-1   CANAL-2   CANAL-3   CANAL-4   CANAL-5   CANAL-6   CANAL-7   CANAL-8
      N00E        +V      N90W
---------+---------+---------+---------+---------+---------+---------+---------+
[...]
   1.90429  -0.89766  -4.15593
   1.54516  -0.82284  -4.24571
   1.23092  -0.82284  -4.33549
   0.90172  -0.77795  -4.51506
   0.58748  -0.70313  -4.69462
   0.27324  -0.61335  -4.90412
  -0.11582  -0.59838  -5.20339
  -0.45998  -0.47867  -5.47274
  -0.75926  -0.38889  -5.78698
  -1.11839  -0.37392  -6.22093
  -1.35781  -0.28414  -6.55013
  -1.61219  -0.32903  -6.81948
  -1.82169  -0.23925  -6.99904
  -2.03118  -0.13450  -7.14868
  -2.25564  -0.10458  -7.25343
  -2.42024  -0.01479  -7.40307
  -2.52498   0.11988  -7.49285
  -2.58484   0.23959  -7.47788
  -2.64469   0.28448  -7.50781
  -2.70455   0.31441  -7.52278
  -2.68958   0.31441  -7.49285
  -2.56987   0.35930  -7.37314
  -2.46513   0.41915  -7.17861
  -2.39031   0.50894  -6.86437
  -2.42024   0.49397  -6.47531
  -2.37535   0.46405  -5.98151
  -2.33045   0.46405  -5.41288
  -2.19578   0.50894  -4.79937
  -2.04614   0.52390  -4.23075
  -1.88154   0.56879  -3.60227
  -1.73190   0.55383  -2.94386
  -1.67205   0.44908  -2.34531
  -1.59723   0.46405  -1.68691
  -1.50745   0.44908  -1.05843
  -1.31292   0.47901  -0.47484
  -1.07350   0.53886   0.07882
  -0.75926   0.53886   0.52773
  -0.54977   0.41915   0.87189
  -0.37020   0.37426   1.17117
  -0.17567   0.26952   1.42555
   0.07871   0.17973   1.62008
   0.36302   0.08995   1.72483
   0.67726   0.14981   1.75476
   0.88675   0.08995   1.69490
   1.09625   1.7E-40   1.69490
   1.24588  -0.14947   1.54526
   1.33567  -0.26918   1.39563
   1.51523  -0.41882   1.23102
   1.76962  -0.52356   0.97664
   2.09882  -0.55349   0.69233
   2.29335  -0.67320   0.37809
   2.57766  -0.76298   0.15363
   2.78715  -0.85277  -0.08579
   2.98168  -0.92758  -0.28032
   3.22110  -0.97248  -0.45988
   3.44556  -0.98744  -0.63945
   3.62512  -1.00240  -0.84894
   3.77476  -1.06226  -0.95368
   3.95432  -0.98744  -1.01354
   4.05907  -0.92758  -0.96865
   4.13389  -0.82284  -0.87887
   4.23864  -0.79291  -0.72923
   4.29849  -0.77795  -0.56463
   4.34338  -0.74802  -0.35513
   4.46309  -0.62831  -0.10075
   4.50798  -0.46371   0.16860
   4.47806  -0.32903   0.40802
   4.41820  -0.19436   0.67737
   4.35835  -0.05969   0.97664
   4.19375   0.01513   1.24599
   3.99922   0.13484   1.54526
   3.83461   0.31441   1.85950
   3.58023   0.44908   2.14381
   3.32585   0.50894   2.39820
   3.16125   0.71843   2.77229
   2.92183   0.94289   3.02668
   2.60759   1.10749   3.26610
   2.18860   1.22720   3.47559
   1.79954   1.30202   3.67012
   1.50027   1.34691   3.80479
   1.35063   1.43669   3.93947
   1.38056   1.54144   4.07414
   1.42545   1.78086   4.25370
   1.38056   2.00531   4.49312
   1.14114   2.03524   4.65773
   0.84186   1.99035   4.86722
   0.57252   1.94546   5.09167
   0.34806   1.87064   5.16649
   0.28820   1.70604   5.24131
   0.24331   1.60129   5.22635
   0.13857   1.43669   5.19642
  -0.01107   1.30202   5.13657
  -0.22056   1.12245   5.07671
  -0.48991   0.77828   4.94204
  -0.60962   0.56879   4.86722
  -0.65451   0.38923   4.77744
  -0.59466   0.17973   4.59787
  -0.50488   0.11988   4.41831
  -0.47495   0.04506   4.16392
  -0.53480  -0.04472   3.86465
  -0.60962  -0.19436   3.65515
  -0.66948  -0.38889   3.46062
  -0.74430  -0.61335   3.28106
  -0.68444  -0.79291   3.16135
  -0.56473  -0.88269   3.01171
  -0.48991  -0.83780   2.84711
  -0.53480  -0.79291   2.68251
  -0.77422  -0.71809   2.44309
  -1.02861  -0.79291   2.30842
  -1.19321  -0.91262   2.18871
  -1.22314  -1.00240   2.12885
  -1.07350  -1.09219   1.96425
  -0.90890  -1.13708   1.73979
  -0.77422  -1.09219   1.50037
  -0.69940  -0.89766   1.36570
  -0.74430  -0.80787   1.26095
  -0.86401  -0.76298   1.24599
  -0.84904  -0.76298   1.33577
  -0.74430  -0.77795   1.35073
  -0.48991  -0.76298   1.38066
  -0.22056  -0.74802   1.38066
   0.13857  -0.67320   1.41059
   0.33309  -0.64327   1.42555
   0.57252  -0.50860   1.57519
   0.67726  -0.40385   1.76972
   0.75208  -0.44874   1.97921
   0.91668  -0.34400   2.29345
   1.00646  -0.31407   2.50294
   1.02143  -0.22429   2.71244
   1.06632  -0.07465   2.98178
   1.02143   0.04506   3.28106
   0.93165   0.16477   3.56537
   0.85683   0.29944   3.90954
   0.75208   0.41915   4.32852
   0.58748   0.49397   4.65773
   0.49770   0.61368   5.00189
   0.42288   0.64361   5.37599
   0.42288   0.79325   5.79497
   0.42288   0.82318   6.19899
   0.34806   0.85310   6.60301
   0.36302   0.92792   7.05193
   0.36302   1.03267   7.45595
   0.25828   1.01770   7.72530
   0.19842   0.92792   8.02457
   0.27324   0.82318   8.29392
   0.42288   0.68850   8.51838
   0.63237   0.53886   8.63809
   0.85683   0.38923   8.69794
   1.14114   0.34434   8.81765
   1.30574   0.23959   8.77276
   1.41049  -0.02976   8.65305
   1.57509  -0.26918   8.48845
   1.84443  -0.53853   8.27896
   2.21853  -0.71809   8.00961
   2.54773  -1.01737   7.69537
   2.98168  -1.13708   7.42602
   3.23606  -1.22686   7.09682
   3.38570  -1.27175   6.81251
   3.49045  -1.39146   6.58805
   3.62512  -1.42139   6.33367
   3.67001  -1.54110   6.01943
   3.86454  -1.55606   5.80994
   4.04411  -1.51117   5.51066
   4.08900  -1.42139   5.13657
   3.98425  -1.45132   4.70262
   3.78972  -1.43635   4.28363
   3.61016  -1.42139   3.90954
   3.44556  -1.36153   3.55041
   3.22110  -1.36153   3.11646
   3.07146  -1.25679   2.74236
   2.78715  -1.10715   2.26352
   2.42802  -1.00240   1.79965
   2.11378  -0.85277   1.39563
   1.76962  -0.76298   0.88686
   1.44041  -0.65824   0.43795
   1.03639  -0.61335  -0.02593
   0.69223  -0.56845  -0.40003
   0.36302  -0.40385  -0.80405
  -0.05596  -0.31407  -1.23800
  -0.51984  -0.22429  -1.67194
  -0.90890  -0.17940  -2.10589
  -1.34285  -0.10458  -2.52488
  -1.76183  -0.05969  -2.98876
  -2.18082  -0.08961  -3.42270
  -2.53995  -0.11954  -3.78184
  -2.83922  -0.11954  -4.18586
  -3.04872  -0.10458  -4.60484
  -3.22828   0.07499  -5.00886
  -3.49763   0.11988  -5.38296
  -3.78194   0.17973  -5.78698
  -4.14107   0.16477  -6.14611
  -4.48524   0.13484  -6.49028
  -4.63487   0.22463  -6.75962
  -4.79947   0.34434  -7.01401
  -4.88926   0.52390  -7.23846
  -5.05386   0.64361  -7.41803
  -5.20350   0.82318  -7.52278
  -5.38306   1.01770  -7.55270
  -5.59255   1.21223  -7.52278
  -5.84694   1.24216  -7.47788
  -5.92176   1.33194  -7.35817
  -5.86190   1.43669  -7.23846
  -5.75716   1.48158  -7.20854
  -5.59255   1.49655  -7.14868
  -5.41299   1.66115  -7.02897
  -5.35313   1.73597  -6.92422
  -5.38306   1.82575  -6.72970
  -5.36810   1.90057  -6.41546
  -5.35313   1.87064  -6.14611
  -5.15861   1.87064  -5.78698
  -4.97904   1.79582  -5.48770
  -4.75458   1.82575  -5.17346
  -4.50020   1.88560  -4.82930
  -4.35056   1.87064  -4.45520
  -4.24582   1.82575  -4.03622
  -4.15603   1.73597  -3.72198
  -4.02136   1.64618  -3.33292
  -3.82683   1.63122  -3.01868
  -3.72208   1.49655  -2.70444
  -3.48266   1.33194  -2.40517
  -3.15346   1.30202  -2.10589
  -2.83922   1.13741  -1.86647
  -2.51002   1.00274  -1.58216
  -2.18082   0.94289  -1.38763
  -1.89651   0.76332  -1.17814
  -1.71694   0.67354  -1.10332
  -1.53738   0.44908  -1.02850
  -1.29796   0.26952  -1.01354
  -1.02861   0.17973  -0.99858
  -0.74430   0.01513  -0.90879
  -0.48991  -0.13450  -0.81901
  -0.28042  -0.28414  -0.81901
  -0.05596  -0.35896  -0.77412
   0.10864  -0.47867  -0.78908
   0.30317  -0.61335  -0.83397
   0.54259  -0.65824  -0.81901
   0.73712  -0.64327  -0.86390
   0.82690  -0.62831  -0.78908
   0.90172  -0.52356  -0.77412
   0.81194  -0.61335  -0.80405
   0.85683  -0.68816  -0.90879
   0.97654  -0.67320  -0.98361
   1.12617  -0.73306  -1.17814
   1.35063  -0.71809  -1.31281
   1.51523  -0.71809  -1.38763
   1.61998  -0.68816  -1.43252
   1.69480  -0.65824  -1.49238
   1.76962  -0.68816  -1.59713
   1.85940  -0.71809  -1.79165
   2.00904  -0.71809  -1.97122
   2.14371  -0.64327  -2.15079
   2.15867  -0.53853  -2.34531
   2.17364  -0.34400  -2.58473
   2.14371  -0.23925  -2.80919
   2.21853  -0.22429  -3.03365
   2.33824  -0.13450  -3.21321
   2.45795   0.01513  -3.39278
   2.54773   0.07499  -3.49752
   2.62255   0.32937  -3.46760
   2.60759   0.41915  -3.43767
   2.56270   0.52390  -3.25810
   2.53277   0.64361  -3.04861
   2.56270   0.80821  -2.80919
   2.53277   1.06260  -2.55481
   2.41306   1.24216  -2.37524
   2.18860   1.34691  -2.10589
   1.88933   1.39180  -1.91137
   1.60501   1.43669  -1.68691
   1.35063   1.45165  -1.43252
   1.09625   1.58633  -1.23800
   0.81194   1.79582  -1.07339
   0.46777   1.81078  -0.99858
   0.15353   1.79582  -1.04347
  -0.07093   1.84071  -1.13325
  -0.28042   1.73597  -1.32778
  -0.47495   1.64618  -1.56720
  -0.60962   1.60129  -1.82158
  -0.83408   1.54144  -2.13582
  -1.13335   1.45165  -2.42013
  -1.44759   1.34691  -2.77926
  -1.71694   1.25712  -3.19825
  -2.04614   1.03267  -3.72198
  -2.33045   0.79325  -4.21578
  -2.55491   0.61368  -4.57491
  -2.85419   0.43412  -4.93404
  -3.15346   0.17973  -5.27821
  -3.45274  -0.05969  -5.63734
  -3.69216  -0.22429  -5.89173
  -3.93158  -0.41882  -6.17604
  -4.11114  -0.58342  -6.37057
  -4.32063  -0.71809  -6.53517
  -4.50020  -0.83780  -6.56509
  -4.75458  -1.04729  -6.59502
  -4.97904  -1.25679  -6.58006
  -5.05386  -1.36153  -6.59502
  -5.12868  -1.49621  -6.63991
  -5.15861  -1.58599  -6.63991
  -5.20350  -1.60095  -6.60999
  -5.26335  -1.69074  -6.43042
  -5.29328  -1.76555  -6.22093
  -5.26335  -1.85534  -5.95158
  -5.15861  -1.85534  -5.69720
  -5.12868  -1.97505  -5.47274
  -4.93415  -2.01994  -5.08368
  -4.78451  -2.03490  -4.73952
  -4.63487  -2.09476  -4.32053
  -4.45531  -2.09476  -3.87162
  -4.35056  -2.12468  -3.43767
  -4.30567  -2.15461  -3.04861
  -4.21589  -2.06483  -2.65955
  -4.14107  -2.03490  -2.24057
  -4.11114  -2.06483  -1.83655
  -4.06625  -2.10972  -1.40260
  -3.91661  -2.06483  -0.96865
  -3.81187  -1.99001  -0.59455
  -3.78194  -1.96008  -0.23542
  -3.66223  -1.88526   0.15363
  -3.51259  -1.91519   0.49780
  -3.31806  -1.96008   0.88686
  -3.00382  -1.81045   1.32081
  -2.71951  -1.76555   1.76972
  -2.37535  -1.70570   2.24856
  -1.94140  -1.58599   2.78726
  -1.56730  -1.46628   3.25113
  -1.19321  -1.37650   3.72997
  -0.72933  -1.24182   4.26867
  -0.16071  -1.03233   4.76247
   0.46777  -0.86773   5.18146
   1.08128  -0.73306   5.60044
   1.73969  -0.58342   6.04936
   2.48788  -0.41882   6.51323
   3.22110  -0.25421   6.93222
   3.99922  -0.04472   7.29135
   4.62769   0.13484   7.56070
   5.22624   0.25455   7.80012
   5.82479   0.40419   7.99464
   6.28867   0.47901   7.99464
   6.75255   0.44908   7.97968
   7.26132   0.47901   8.00961
   7.65037   0.58376   7.91983
   7.96461   0.50894   7.87493
   8.26389   0.56879   7.77019
   8.53324   0.65857   7.56070
   8.77266   0.71843   7.35120
   9.01208   0.80821   7.17164
   9.23653   0.85310   6.94718
   9.41610   0.92792   6.76762
   9.49092   0.94289   6.63294
   9.49092   0.92792   6.46834
   9.46099   1.00274   6.40849
   9.31135   0.97281   6.22892
   9.23653   0.83814   6.18403
   9.23653   0.79325   6.04936
   9.20660   0.70347   5.92965
   9.11682   0.73339   5.85483
   8.89237   0.79325   5.70519
   8.60805   0.76332   5.55555
   8.23396   0.64361   5.37599
   7.88979   0.61368   5.18146
   7.54563   0.65857   4.92707
   7.15657   0.74836   4.70262
   6.70766   0.83814   4.41831
   6.19889   0.80821   4.05918
   5.63027   0.85310   3.71501
   4.98682   0.92792   3.37084
   4.35835   0.98778   3.04164
   3.74483   1.04763   2.78726
   3.11635   1.00274   2.54784
   2.51780   0.92792   2.32338
   1.91925   0.86807   2.08396
   1.36559   0.85310   1.79965
   0.81194   0.77828   1.56023
   0.27324   0.77828   1.29088
  -0.28042   0.68850   1.03650
  -0.69940   0.73339   0.82700
  -1.22314   0.70347   0.55766
  -1.68701   0.61368   0.34816
  -2.15089   0.52390   0.18356
  -2.48009   0.47901   0.00400
  -2.76440   0.52390  -0.16061
  -3.00382   0.56879  -0.34017
  -3.28814   0.53886  -0.40003
  -3.61734   0.44908  -0.41499
  -3.82683   0.49397  -0.38506
  -4.14107   0.46405  -0.29528
  -4.41042   0.44908  -0.10075
  -4.64984   0.38923   0.12371
  -4.84437   0.28448   0.39305
  -4.96408   0.14981   0.69233
  -5.02393   0.16477   0.99160
  -5.06882   0.16477   1.29088
  -5.09875   0.20966   1.63505
  -5.12868   0.14981   1.88943
  -5.05386   0.10492   2.15878
  -4.96408   0.10492   2.48798
  -4.84437  -0.08961   2.75733
  -4.63487  -0.14947   3.01171
  -4.41042  -0.14947   3.20624
  -4.15603  -0.20932   3.32595
  -3.78194  -0.14947   3.44566
  -3.39288  -0.10458   3.55041
  -3.00382  -0.13450   3.61026
  -2.55491  -0.14947   3.71501
  -2.13593  -0.26918   3.67012
  -1.64212  -0.34400   3.64019
  -1.19321  -0.46371   3.50552
  -0.72933  -0.58342   3.31099
  -0.22056  -0.67320   3.13142
   0.25828  -0.85277   2.90697
   0.72215  -1.07722   2.68251
   1.29078  -1.19693   2.41316
   1.84443  -1.30168   2.08396
   2.33824  -1.52613   1.66497
   2.89190  -1.57103   1.35073
   3.32585  -1.67577   1.02153
   3.78972  -1.79548   0.73722
   4.22367  -1.88526   0.45291
   4.58280  -1.93016   0.16860
   4.95690  -1.97505  -0.05586
   5.27114  -1.93016  -0.31024
   5.60034  -1.81045  -0.45988
   5.80983  -1.76555  -0.66937
   6.06422  -1.79548  -0.81901
   6.27371  -1.81045  -1.01354
   6.49816  -1.75059  -1.11829
   6.69269  -1.66081  -1.19310
   6.88722  -1.48124  -1.14821
   7.06679  -1.16700  -1.10332
   7.12664  -0.92758  -1.02850
   7.12664  -0.77795  -0.93872
   7.12664  -0.59838  -0.87887
   7.09671  -0.37392  -0.90879
   7.05182  -0.11954  -0.95368
   6.99197   0.16477  -0.99858
   6.87226   0.38923  -1.04347
   6.72262   0.61368  -1.08836
   6.51313   0.88303  -1.11829
   6.19889   1.09252  -1.13325
   5.89961   1.34691  -1.11829
   5.49559   1.52647  -1.14821
   5.06164   1.67611  -1.11829
   4.64266   1.85568  -1.19310
   4.23864   1.99035  -1.28289
   3.81965   2.13999  -1.34274
   3.34081   2.16991  -1.41756
   2.90686   2.19984  -1.41756
   2.48788   2.25970  -1.44749
   2.12875   2.22977  -1.53727
   1.76962   2.22977  -1.64202
   1.38056   2.24473  -1.74676
   1.00646   2.19984  -1.82158
   0.64733   2.09510  -1.77669
   0.39295   1.97539  -1.59713
   0.15353   1.96042  -1.43252
  -0.16071   1.84071  -1.22303
  -0.32531   1.82575  -1.05843
  -0.53480   1.72100  -0.99858
  -0.74430   1.61626  -0.89383
  -0.93882   1.63122  -0.72923
  -1.16328   1.51151  -0.56463
  -1.40270   1.39180  -0.37010
  -1.62716   1.27209  -0.17557
  -1.85161   1.13741  -0.13068
  -1.98629   1.03267  -0.05586
  -2.15089   0.86807  -0.04089
  -2.27060   0.79325   0.00400
  -2.48009   0.53886   0.03392
  -2.55491   0.38923   0.13867
  -2.74944   0.22463   0.13867
  -2.86915   0.07499   0.19853
  -3.04872  -0.02976   0.18356
  -3.25821  -0.19436   0.12371
  -3.54252  -0.26918  -0.02593
  -3.87172  -0.32903  -0.19053
  -4.23085  -0.32903  -0.35513
  -4.66480  -0.49363  -0.53470
  -5.03890  -0.53853  -0.71426
  -5.44292  -0.56845  -0.90879
  -5.83197  -0.62831  -1.10332
  -6.14621  -0.62831  -1.20807
  -6.53527  -0.67320  -1.41756
  -6.95426  -0.70313  -1.59713
  -7.37324  -0.74802  -1.77669
  -7.79223  -0.80787  -1.98618
  -8.13639  -0.82284  -2.15079
  -8.39078  -0.86773  -2.36028
  -8.55538  -0.86773  -2.52488
  -8.74991  -0.88269  -2.61466
  -8.83969  -0.88269  -2.65955
  -8.91451  -0.88269  -2.82415
  -8.95940  -0.91262  -2.98876
  -8.88458  -0.92758  -3.13839
  -8.70502  -0.80787  -3.21321
  -8.52545  -0.79291  -3.28803
  -8.34589  -0.85277  -3.31796
  -8.10647  -0.73306  -3.27307
