********************************************************************************
               CENTRO DE INSTRUMENTACION Y REGISTRO SISMICO  A.C.  
                       Coordinacion de Servicios Tecnicos
     Anaxagoras 814, Col. Narvarte, Benito Juarez, C.P. 03020 Mexico, D.F.
            Tels. 687 45 42/ 687 45  82             Fax. 669 25 12
********************************************************************************
ARCHIVO ESTANDAR DE ACELERACION:
VERSION DEL FORMATO                    : 2.0
NOMBRE DEL ARCHIVO                     : AP689405.231
FECHA Y HORA DE CREACION               : 22 de enero 1996/16:53
REF. CATALOGO ACELEROGRAMAS, SMIS 1995 : REGISTRO No.     /PAG.


================================================================================
DATOS DE LA ESTACION:
NOMBRE DE LA ESTACION                  : APATLACO
CLAVE DE LA ESTACION                   : AP68
LOCALIZACION DE LA ESTACION            : Jardin de Ni¤os Juan Bautista de la
                                       : Salle Canal de Apatlaco y Ahuehuetes,
                                       : Col Iztacalco Infonavit, Iztacalco
                                       : 
                                       :
COORDENADAS DE LA ESTACION             : 19.381 LAT. N 
                                       : 99.107 LONG. W 
ALTITUD (msnm)                         : 2232
TIPO DE SUELO                          : ARCILLOSO, ZONA LAGO
                                       : 
                                       : 
INSTITUCION RESPONSABLE                : CIRES
                                       :

================================================================================
DATOS DEL ACELEROGRAFO:
MODELO DEL ACELEROGRAFO                : DCA-333
NUMERO DE SERIE DEL ACELEROGRAFO       : 255
NUMERO DE CANALES                      : 3
ORIENTACION C1-C6 (rumbo;orientacion)  : /N00E/+V/N90W
ORIENTACION C7-C12 (rumbo;orientacion) :
VEL. DE MUESTREO, C1-C6 (muestras/s)   : /100/100/100
VEL. DE MUESTREO, C7-C12 (muestras/s)  :
ESC. COMPLETA DE SENSORES, C1-C6, (g)  : /0.5/0.5/0.5
ESC. COMPLETA DE SENSORES, C7-C12, (g) :
FREC. NAT. DE SENSORES, C1-C6, (Hz)    : /30/30/30
FREC. NAT. DE SENSORES, C7-C12, (Hz)   :
AMORTIGUAMIENTO DE SENSORES, C1-C6     : /0.780/0.700/0.678
AMORTIGUAMIENTO DE SENSORES, C7-C12    :
INTERVALO DE MUESTREO, C1-C6, (s)      : /0.01/0.01/0.01
INTERVALO DE MUESTREO, C7-C12, (s)     :
UMBRAL DE DISPARO, C1-C6, (Gal)        : /3.4/3.4/3.4
UMBRAL DE DISPARO, C7-C12, (Gal)       :
MEMORIA DE PREEVENTO (s)               : 4
TIEMPO DE POSEVENTO (s)                : 15


================================================================================
DATOS DEL SISMO:
FECHA DEL SISMO (GMT)                  : 23/MAY/94
HORA EPICENTRO (GMT)                   : 01:41:46,0
MAGNITUD(ES)                           : /Mc=5.60
COORDENADAS DEL EPICENTRO              : 18.030 LAT. N
                                       : 100.570 LONG. W
PROFUNDIDAD FOCAL (km)                 : 23
FUENTE DE LOS DATOS EPICENTRALES       : SSN
                                       : INSTITUTO DE GEOFISICA, UNAM

================================================================================
DATOS DE ESTE REGISTRO:
HORA DE LA PRIMERA MUESTRA (GMT)       : 01:42:39.43
EXACTITUD DEL TIEMPO (s)               : 0.01
DURACION DEL REGISTRO (s), C1-C6       : /69.14/69.14/69.14
DURACION DEL REGISTRO (s), C7-C12      :
NUM. TOTAL DE MUESTRAS, C1-C6          : /6914/6914/6914
NUM. TOTAL DE MUESTRAS, C7-C12         :
ACEL. MAX. (Gal), C1-C6                : /9.20/5.20/8.52
ACEL. MAX., C1-C6, EN LA MUESTRA       :
ACEL. MAX. (Gal), C7-C12               :
ACEL. MAX., C7-C12, EN LA MUESTRA      :
UNIDADES DE LOS DATOS                  : Gal (cm/s/s)
FACTOR DE DECIMACION                   : 1
FORMATO DATOS (FORTRAN,10 campos/dato) : 3F10.2


================================================================================
CALIDAD DEL ACELEROGRAMA:
REGISTRO DIGITAL COMPLETO, CON TIEMPO ABSOLUTO CORRECTO.


================================================================================
COMENTARIOS:














================================================================================
DATOS DE ACELERACION:
---------+---------+---------+---------+---------+---------+---------+---------+
   CANAL-1   CANAL-2   CANAL-3   CANAL-4   CANAL-5   CANAL-6   CANAL-7   CANAL-8
      N00E        +V      N90W
---------+---------+---------+---------+---------+---------+---------+---------+
[...]
      3.48     -0.31      3.74
      2.77     -0.31      4.22
      2.05     -0.79      4.69
      1.33     -1.03      5.17
      0.85     -1.51      5.65
      0.13     -1.51      6.13
     -0.35     -1.51      6.37
     -0.83     -1.27      6.61
     -1.30     -1.27      6.61
     -1.78     -1.27      6.37
     -2.26     -1.27      6.37
     -2.50     -1.27      6.13
     -2.74     -1.27      5.89
     -2.98     -1.03      5.65
     -2.98     -0.79      5.41
     -2.98     -0.79      4.93
     -2.74     -0.79      4.45
     -2.26     -0.55      3.98
     -1.78     -0.31      3.50
     -1.30     -0.31      3.26
     -1.06     -0.31      3.02
     -0.83     -0.55      2.78
     -0.83     -0.55      2.54
     -0.59     -0.79      2.06
     -0.59     -0.79      1.82
     -0.35     -0.79      1.10
     -0.35     -0.79      0.62
     -0.11     -0.79     -0.09
      0.13     -0.79     -0.81
      0.37     -0.55     -1.53
      0.37     -0.07     -2.01
      0.37     -0.07     -2.73
      0.37     -0.07     -2.97
      0.37     -0.31     -3.21
      0.13     -0.31     -3.21
      0.13     -0.31     -3.21
      0.13     -0.07     -2.97
      0.37     -0.07     -2.73
      0.37     -0.07     -2.49
      0.61     -0.07     -2.25
      0.61     -0.07     -1.77
      0.85      0.17     -1.29
      1.09      0.41     -1.05
      1.33      0.89     -0.81
      1.33      1.37     -0.57
      1.33      1.84     -0.33
      1.57      1.84     -0.09
      1.81      1.84     -0.09
      2.05      1.84     -0.09
      2.29      1.37     -0.09
      2.77      1.13     -0.09
      3.01      0.89      0.15
      3.01      0.89      0.15
      3.01      0.89      0.15
      3.01      1.13     -0.09
      2.77      1.37     -0.09
      2.53      1.60     -0.33
      2.29      1.60     -0.57
      2.05      1.60     -0.81
      1.81      1.37     -1.29
      1.57      1.13     -1.53
      1.57      1.13     -2.01
      1.57      0.89     -2.49
      1.33      0.65     -2.73
      1.33      0.41     -3.21
      1.09     -0.07     -3.21
      0.85     -0.55     -3.21
      0.61     -0.79     -3.21
      0.13     -1.27     -2.97
     -0.11     -1.27     -2.73
     -0.35     -1.27     -2.49
     -0.35     -1.03     -2.01
     -0.59     -1.03     -1.77
     -0.59     -0.79     -1.29
     -0.35     -1.03     -1.05
     -0.35     -1.03     -0.57
     -0.35     -1.03     -0.33
     -0.35     -0.79      0.15
     -0.35     -0.55      0.38
     -0.83     -0.07      0.86
     -1.06      0.17      1.10
     -1.06      0.17      1.34
     -1.30      0.41      1.34
     -1.30      0.65      1.10
     -1.06      0.65      1.10
     -0.83      0.89      0.86
     -0.83      1.13      0.62
     -0.59      1.37      0.15
     -0.59      1.37      0.15
     -0.59      1.60     -0.09
     -0.83      1.60     -0.33
     -1.06      1.37     -0.81
     -1.06      1.13     -1.05
     -1.54      0.65     -1.77
     -1.54      0.41     -2.25
     -2.02      0.17     -2.97
     -2.26     -0.07     -3.69
     -2.74     -0.55     -4.16
     -3.22     -0.79     -4.40
     -3.46     -1.27     -4.40
     -3.94     -1.51     -4.16
     -3.94     -1.99     -3.92
     -3.94     -2.23     -3.45
     -3.70     -2.23     -3.21
     -3.46     -2.23     -2.97
     -3.46     -1.99     -2.73
     -2.98     -1.75     -2.73
     -2.74     -1.51     -2.73
     -2.50     -1.51     -2.73
     -2.26     -1.51     -2.49
     -2.02     -1.75     -2.01
     -1.78     -1.75     -1.53
     -1.54     -1.99     -0.81
     -1.54     -1.99     -0.33
     -1.30     -2.23      0.15
     -1.30     -2.23      0.38
     -1.06     -1.99      0.62
     -0.59     -1.51      0.62
     -0.35     -1.03      0.62
      0.13     -0.31      0.86
      0.61      0.17      0.86
      0.85      0.65      1.10
      1.09      0.89      1.34
      1.33      1.13      1.82
      1.57      1.13      1.82
      1.57      1.13      2.06
      1.81      1.13      1.82
      2.05      1.13      1.82
      2.53      1.13      1.34
      2.53      1.37      1.10
      2.53      1.84      0.62
      2.53      1.84      0.38
      2.77      1.84      0.15
      2.53      1.84      0.15
      2.53      1.84      0.15
      2.77      1.84      0.15
      2.77      1.60      0.15
      2.77      1.13      0.15
      2.77      0.89      0.15
      2.53      0.41     -0.09
      2.29     -0.07     -0.33
      1.81     -0.55     -0.33
      1.09     -0.79     -0.33
      0.61     -1.27     -0.09
      0.13     -1.51      0.15
     -0.35     -1.51      0.86
     -0.59     -1.27      1.34
     -0.83     -1.03      1.82
     -0.83     -1.03      2.30
     -0.59     -0.79      2.54
     -0.35     -0.79      2.54
     -0.35     -1.03      2.54
     -0.35     -1.03      2.30
     -0.59     -1.27      2.06
     -0.83     -1.51      2.06
     -1.54     -1.99      1.82
     -2.02     -1.99      1.82
     -2.50     -2.23      1.82
     -2.98     -2.23      1.58
     -3.22     -1.75      1.34
     -3.22     -1.51      1.10
     -2.98     -1.03      0.86
     -2.74     -0.31      0.62
     -2.50      0.17      0.15
     -2.26      0.41      0.15
     -2.02      0.89     -0.09
     -1.78      1.13     -0.33
     -1.54      1.37     -0.33
     -1.30      1.60     -0.57
     -0.83      1.84     -0.81
     -0.35      1.84     -0.81
      0.13      1.84     -1.05
      0.61      1.84     -1.05
      1.33      1.84     -1.05
      1.81      1.60     -1.05
      2.53      1.37     -1.05
      2.77      1.13     -0.81
      3.24      1.13     -0.81
      3.48      1.13     -0.57
      3.96      1.37     -0.57
      3.96      1.60     -0.57
      3.96      1.84     -0.57
      4.20      2.32     -0.57
      4.20      2.56     -0.81
      4.20      2.80     -0.81
      4.20      2.80     -1.05
      4.20      3.04     -1.05
      3.72      3.04     -0.81
      3.24      3.04     -0.57
      2.53      2.80     -0.33
      1.81      2.32     -0.09
      1.09      2.08      0.15
      0.37      1.60      0.38
     -0.11      1.13      0.62
     -0.35      1.13      0.62
     -0.35      1.13      0.62
     -0.59      0.89      0.62
     -0.59      0.89      0.86
     -0.83      0.41      0.86
     -1.06      0.17      1.10
     -1.54     -0.31      1.58
     -1.78     -0.79      1.82
     -2.02     -1.03      2.06
     -2.50     -1.51      2.06
     -2.98     -1.75      2.06
     -3.46     -1.75      1.82
     -3.94     -1.99      1.58
     -4.42     -2.23      1.34
     -4.66     -2.47      1.10
     -4.90     -2.70      1.10
     -5.13     -2.94      0.86
     -5.37     -2.94      0.62
     -5.37     -2.70      0.62
     -5.61     -2.47      0.62
     -6.09     -2.23      0.38
     -6.33     -1.99      0.38
     -6.57     -1.75      0.15
     -6.81     -1.27      0.15
     -6.81     -0.79      0.15
     -6.81     -0.07     -0.09
     -6.57      0.41     -0.09
     -6.33      0.65      0.15
     -6.09      0.65      0.15
     -5.85      0.65      0.38
     -5.61      0.41      0.62
     -5.37      0.41      0.86
     -5.37      0.17      1.10
     -5.13      0.17      1.10
     -5.13      0.17      1.10
     -4.90     -0.07      1.10
     -4.42     -0.31      1.10
     -4.18     -0.31      1.10
     -3.70     -0.55      1.10
     -3.22     -0.31      1.10
     -2.50     -0.31      1.34
     -1.54     -0.55      1.58
     -0.59     -0.55      1.58
      0.13     -0.79      1.34
      1.09     -1.03      1.10
      2.05     -1.27      0.86
      3.01     -1.51      0.38
      3.72     -1.51      0.15
      4.44     -1.51     -0.09
      5.40     -1.27     -0.33
      5.88     -1.03     -0.33
      6.36     -0.79     -0.57
      6.84     -0.55     -0.57
      7.31     -0.55     -0.57
      7.55     -0.55     -0.33
      7.79     -0.31     -0.33
      8.03     -0.31     -0.33
      8.03     -0.31     -0.09
      8.03     -0.55     -0.09
      7.79     -0.79     -0.09
      7.55     -1.27      0.15
      7.31     -1.51      0.15
      7.08     -1.99      0.15
      6.84     -2.23      0.15
      6.12     -2.47      0.15
      5.64     -2.47      0.15
      5.16     -2.47      0.15
      4.68     -2.23      0.15
      4.20     -1.99     -0.09
      3.48     -1.75     -0.09
      3.01     -1.75     -0.33
      2.29     -1.51     -0.33
      1.57     -1.75     -0.33
      0.85     -1.51     -0.33
      0.13     -1.51     -0.09
     -0.35     -1.03     -0.09
     -0.83     -0.79      0.15
     -1.54     -0.55     -0.09
     -2.02     -0.31     -0.09
     -2.26      0.17     -0.33
     -2.26      0.65     -0.33
     -2.26      1.37     -0.57
     -2.26      1.60     -0.81
     -2.02      2.08     -1.05
     -2.02      2.08     -1.29
     -2.02      2.08     -1.53
     -1.78      2.08     -1.77
     -2.02      2.08     -2.01
     -1.78      2.32     -2.25
     -1.78      2.80     -2.49
     -1.78      3.28     -2.49
     -1.54      3.52     -2.49
     -1.30      3.76     -2.01
     -0.83      3.76     -1.53
     -0.59      3.76     -0.81
     -0.35      3.76     -0.09
     -0.11      3.76      0.15
      0.13      3.76      0.86
      0.13      3.76      1.10
      0.37      3.52      1.34
      0.37      3.04      1.58
      0.61      2.80      1.58
      1.09      2.56      1.58
      1.33      2.56      1.34
      1.81      2.56      1.34
      2.29      2.32      1.10
      2.77      2.32      1.10
      3.24      1.84      0.86
      3.48      1.60      0.86
      3.96      1.13      0.86
      4.20      0.65      0.62
      4.20      0.41      0.62
      4.20      0.17      0.38
      4.20     -0.07      0.38
      3.96     -0.31      0.38
      3.72     -0.79      0.38
      3.48     -1.27      0.38
      3.48     -1.51      0.62
      3.48     -1.75      0.86
      3.48     -1.75      1.10
      3.24     -1.99      1.58
      3.01     -1.99      1.82
      2.77     -2.47      2.06
      2.29     -2.94      2.30
      2.05     -3.66      2.30
      1.81     -4.14      2.06
      1.57     -4.14      2.06
      1.09     -4.14      2.30
      0.61     -3.90      2.30
      0.37     -3.66      2.54
      0.13     -2.94      2.54
     -0.11     -2.47      2.78
     -0.35     -1.99      3.02
     -0.59     -1.75      3.02
     -1.06     -1.51      3.02
     -1.54     -1.03      3.02
     -2.02     -0.79      3.02
     -2.50     -0.55      2.78
     -3.22     -0.55      2.78
     -3.46     -0.55      2.54
     -3.94     -0.31      2.54
     -4.18      0.17      2.06
     -4.42      0.89      1.82
     -4.66      1.84      1.34
     -5.13      2.56      0.86
     -5.37      3.28      0.38
     -5.85      3.76      0.15
     -6.09      4.48     -0.09
     -6.57      4.96     -0.33
     -6.81      5.20     -0.57
     -7.29      4.96     -0.81
     -8.01      4.72     -1.05
     -8.49      4.24     -1.53
     -8.73      3.76     -2.25
     -8.97      3.28     -2.73
     -9.20      3.04     -3.21
     -9.20      2.80     -3.69
     -9.20      2.32     -3.92
     -8.97      1.84     -3.69
     -8.49      1.37     -3.69
     -8.01      0.89     -3.45
     -7.53      0.41     -3.21
     -6.81     -0.07     -2.97
     -6.33     -0.79     -2.73
     -5.61     -1.51     -2.25
     -4.90     -1.99     -2.25
     -4.18     -2.23     -2.01
     -3.22     -2.47     -2.01
     -2.02     -2.70     -1.77
     -0.83     -2.70     -1.77
      0.37     -2.70     -1.53
      1.57     -2.70     -1.29
      2.77     -2.70     -1.29
      3.72     -2.94     -1.29
      4.92     -3.18     -1.29
      5.64     -3.42     -1.53
      6.36     -3.66     -1.77
      7.08     -3.66     -2.01
      7.31     -3.66     -2.49
      7.55     -3.66     -2.97
      7.55     -3.66     -3.21
      7.55     -3.66     -3.21
      7.31     -3.66     -3.21
      7.31     -3.42     -2.97
      7.08     -3.18     -2.49
      6.60     -2.94     -2.01
      6.12     -2.70     -1.53
      5.64     -2.47     -1.05
      4.92     -2.23     -1.05
      4.44     -1.99     -1.05
      3.72     -1.75     -1.05
      3.01     -1.75     -1.29
      2.53     -1.51     -1.29
      2.05     -1.27     -1.05
      1.81     -1.03     -0.81
      1.81     -0.55     -0.33
      1.57     -0.31     -0.09
      1.57     -0.07      0.15
      1.57      0.41      0.15
      1.33      0.89      0.15
      1.09      1.13     -0.09
      0.61      1.60     -0.09
      0.37      1.84     -0.33
      0.13      2.08     -0.57
     -0.11      2.32     -0.57
     -0.11      2.32     -0.33
     -0.11      2.56     -0.09
      0.13      2.80      0.15
      0.37      2.80      0.15
      0.61      2.80      0.62
      0.61      2.56      0.86
      0.85      2.56      0.86
      1.09      2.56      0.86
      1.09      3.04      0.62
      1.09      3.04      0.15
      1.09      3.52      0.15
      0.85      3.52     -0.09
      0.61      3.52     -0.09
      0.37      3.28     -0.09
      0.37      3.04     -0.09
      0.13      3.04      0.15
      0.13      2.80      0.15
      0.13      2.56     -0.09
     -0.11      2.32     -0.33
     -0.35      2.08     -0.57
     -0.35      1.84     -0.81
     -0.35      1.37     -1.05
     -0.35      1.13     -1.05
     -0.35      0.41     -1.29
     -0.35     -0.07     -1.05
     -0.11     -0.55     -1.05
      0.13     -0.79     -0.81
      0.37     -1.27     -0.33
      0.61     -1.51     -0.09
      1.09     -1.99      0.15
      1.33     -2.47      0.15
      2.05     -2.94      0.15
      2.29     -3.42      0.15
      2.77     -3.66      0.15
      3.24     -3.66      0.15
      3.48     -3.66      0.15
      3.72     -3.66      0.38
      3.72     -3.42      0.62
      3.96     -2.94      1.10
      3.96     -2.70      1.34
      3.96     -2.47      1.58
      3.72     -2.23      1.82
      3.48     -1.99      1.82
      3.48     -1.75      1.58
      3.24     -1.27      1.34
      3.01     -0.55      1.10
      2.53     -0.07      0.62
      2.05      0.41      0.38
      1.33      0.89      0.38
      0.61      1.13      0.38
      0.13      1.37      0.38
     -0.35      1.37      0.38
     -0.83      1.60      0.62
     -1.30      1.60      0.86
     -1.78      1.60      1.10
     -2.26      1.60      1.10
     -2.26      1.37      1.34
     -2.26      1.13      1.34
     -2.26      1.13      1.34
     -2.02      1.13      1.34
     -2.02      0.89      1.58
     -2.02      0.89      1.58
     -2.02      0.65      1.34
     -2.02      0.65      1.34
     -2.26      0.65      1.10
     -2.26      0.41      1.10
     -2.50      0.17      0.62
     -2.50      0.17      0.15
     -2.50     -0.07     -0.09
     -2.50     -0.07     -0.57
     -2.50      0.17     -1.05
     -2.50      0.17     -1.53
     -2.50      0.17     -2.25
     -2.50      0.17     -2.73
     -2.50      0.17     -3.21
     -2.74      0.17     -3.45
     -2.98      0.17     -3.92
     -3.22     -0.07     -4.16
     -3.46     -0.31     -4.40
     -3.94     -0.55     -4.40
     -4.18     -0.55     -4.16
     -4.66     -0.79     -3.92
     -4.90     -0.79     -3.45
     -4.90     -1.03     -3.21
     -4.66     -0.79     -2.73
     -4.42     -1.03     -2.25
     -4.18     -0.79     -1.77
     -3.94     -0.79     -1.29
     -3.46     -0.79     -0.81
     -2.98     -0.79     -0.09
     -2.26     -0.79      0.38
     -1.54     -0.79      0.86
     -0.83     -0.79      1.10
     -0.35     -0.79      1.58
      0.13     -0.79      1.58
      0.61     -0.79      1.58
      1.09     -0.79      1.82
      1.81     -0.79      1.82
      2.53     -0.79      1.82
      3.01     -0.79      1.58
