********************************************************************************
               CENTRO DE INSTRUMENTACION Y REGISTRO SISMICO  A.C.  
                       Coordinacion de Servicios Tecnicos
     Anaxagoras 814, Col. Narvarte, Benito Juarez, C.P. 03020 Mexico, D.F.
            Tels. 687 45 42/ 687 45  82             Fax. 669 25 12
********************************************************************************
ARCHIVO ESTANDAR DE ACELERACION:
VERSION DEL FORMATO                    : 2.0
NOMBRE DEL ARCHIVO                     : AP689509.141
FECHA Y HORA DE CREACION               : MARZO 14, 1996/17:13
REF. CATALOGO ACELEROGRAMAS, SMIS 1995 : REGISTRO No.     /PAG.


================================================================================
DATOS DE LA ESTACION:
NOMBRE DE LA ESTACION                  : APATLACO
CLAVE DE LA ESTACION                   : AP68
LOCALIZACION DE LA ESTACION            : Jardin de Ni¤os Juan Bautista de la
                                       : Salle Canal de Apatlaco y Ahuehuetes,
                                       : Col Iztacalco Infonavit, Iztacalco
                                       : 
                                       :
COORDENADAS DE LA ESTACION             : 19.381 LAT. N 
                                       : 99.107 LONG. W 
ALTITUD (msnm)                         : 2232
TIPO DE SUELO                          : ARCILLOSO, ZONA LAGO
                                       : 
                                       : 
INSTITUCION RESPONSABLE                : CIRES
                                       :

================================================================================
DATOS DEL ACELEROGRAFO:
MODELO DEL ACELEROGRAFO                : DCA-333
NUMERO DE SERIE DEL ACELEROGRAFO       : 255
NUMERO DE CANALES                      : 3
ORIENTACION C1-C6 (rumbo;orientacion)  : /N00E/+V/N90E
ORIENTACION C7-C12 (rumbo;orientacion) :
VEL. DE MUESTREO, C1-C6 (muestras/s)   : /100/100/100
VEL. DE MUESTREO, C7-C12 (muestras/s)  :
ESC. COMPLETA DE SENSORES, C1-C6, (g)  : /0.5/0.5/0.5
ESC. COMPLETA DE SENSORES, C7-C12, (g) :
FREC. NAT. DE SENSORES, C1-C6, (Hz)    : /30/30/30
FREC. NAT. DE SENSORES, C7-C12, (Hz)   :
AMORTIGUAMIENTO DE SENSORES, C1-C6     : /0.700/0.700/0.700
AMORTIGUAMIENTO DE SENSORES, C7-C12    :
INTERVALO DE MUESTREO, C1-C6, (s)      : /0.01/0.01/0.01
INTERVALO DE MUESTREO, C7-C12, (s)     :
UMBRAL DE DISPARO, C1-C6, (Gal)        : /3.9/3.9/3.9
UMBRAL DE DISPARO, C7-C12, (Gal)       :
MEMORIA DE PREEVENTO (s)               : 4
TIEMPO DE POSEVENTO (s)                : 15


================================================================================
DATOS DEL SISMO:
FECHA DEL SISMO (GMT)                  : 14/SEP/95
HORA EPICENTRO (GMT)                   : 14:04:30.5
MAGNITUD(ES)                           : /Mc=6.4/Mb=7.2/Me=7.3
COORDENADAS DEL EPICENTRO              : 16.31 LAT. N
                                       : 98.88 LONG. W
PROFUNDIDAD FOCAL (km)                 : 22
FUENTE DE LOS DATOS EPICENTRALES       : SSN
                                       : INSTITUTO DE GEOFISICA, UNAM

================================================================================
DATOS DE ESTE REGISTRO:
HORA DE LA PRIMERA MUESTRA (GMT)       : 14:05:53.00
EXACTITUD DEL TIEMPO (s)               : 0.01
DURACION DEL REGISTRO (s), C1-C6       : /185.02/185.02/185.02
DURACION DEL REGISTRO (s), C7-C12      :
NUM. TOTAL DE MUESTRAS, C1-C6          : /18502/18502/18502
NUM. TOTAL DE MUESTRAS, C7-C12         :
ACEL. MAX. (Gal), C1-C6                : /51.73/12.19/23.61
ACEL. MAX., C1-C6, EN LA MUESTRA       :
ACEL. MAX. (Gal), C7-C12               :
ACEL. MAX., C7-C12, EN LA MUESTRA      :
UNIDADES DE LOS DATOS                  : Gal (cm/s/s)
FACTOR DE DECIMACION                   : 1
FORMATO DATOS (FORTRAN,10 campos/dato) : 3F10.2


================================================================================
CALIDAD DEL ACELEROGRAMA:
REGISTRO DIGITAL COMPLETO CON TIEMPO ABSOLUTO CORRECTO.


================================================================================
COMENTARIOS:














================================================================================
DATOS DE ACELERACION:
---------+---------+---------+---------+---------+---------+---------+---------+
   CANAL-1   CANAL-2   CANAL-3   CANAL-4   CANAL-5   CANAL-6   CANAL-7   CANAL-8
      N00E        +V      N90E
---------+---------+---------+---------+---------+---------+---------+---------+
[...]
     39.52     -2.90     -2.25
     39.28     -3.13     -2.49
     39.04     -3.13     -2.73
     38.56     -3.37     -2.97
     37.84     -3.61     -2.97
     36.89     -3.61     -3.21
     35.69     -3.61     -3.21
     34.73     -3.61     -3.21
     33.77     -3.61     -2.97
     33.29     -3.61     -2.73
     32.10     -3.61     -2.25
     30.66     -3.37     -1.77
     28.75     -3.61     -1.05
     26.83     -3.61     -0.34
     24.91     -3.61      0.38
     23.72     -3.61      0.86
     22.76     -3.61      1.34
     21.80     -3.85      2.06
     20.84     -3.85      2.54
     19.89     -3.85      3.50
     18.93     -3.61      4.21
     18.45     -3.13      4.93
     18.21     -2.90      5.65
     18.21     -2.42      6.13
     18.45     -1.94      6.61
     18.69     -1.46      7.09
     18.93     -0.98      7.33
     19.17     -0.50      7.57
     19.17     -0.02      7.80
     18.93      0.22      8.28
     19.17      0.46      8.76
     19.17      0.70      9.00
     19.65      0.94      9.48
     20.37      0.94      9.96
     20.84      1.18     10.68
     21.56      1.18     11.40
     22.04      1.18     12.35
     22.52      0.94     13.07
     23.00      0.94     13.79
     23.48      0.94     14.27
     23.96      0.94     14.75
     24.44      0.94     15.47
     24.68      0.70     15.95
     25.15      0.46     16.66
     25.39      0.46     17.14
     25.87      0.46     17.38
     26.35      0.22     17.86
     26.59     -0.02     18.10
     26.83     -0.26     18.34
     26.83     -0.74     18.58
     27.07     -0.98     18.58
     27.31     -1.46     18.34
     27.55     -1.70     18.10
     27.55     -2.18     17.86
     27.55     -2.66     17.62
     27.79     -2.90     17.14
     27.79     -3.13     16.66
     28.03     -3.61     16.18
     28.27     -3.85     15.47
     28.75     -4.09     14.75
     28.75     -4.09     13.79
     28.75     -4.33     12.83
     28.75     -4.33     11.87
     28.75     -4.33     10.92
     28.75     -4.33      9.96
     28.75     -4.57      9.00
     28.75     -4.57      8.04
     28.51     -4.57      7.33
     28.03     -4.33      6.85
     27.79     -4.09      6.13
     27.31     -3.85      5.65
     27.07     -3.37      4.69
     26.59     -3.13      3.73
     26.35     -3.13      3.02
     25.87     -2.66      2.06
     25.15     -2.42      1.34
     24.44     -1.94      0.86
     23.96     -1.70      0.38
     23.24     -1.46      0.14
     22.76     -1.22     -0.34
     22.04     -0.98     -1.05
     21.56     -0.98     -1.53
     21.08     -0.74     -2.25
     20.37     -0.26     -2.73
     19.65     -0.02     -3.45
     18.93      0.22     -3.93
     18.45      0.46     -4.64
     17.73      0.70     -5.12
     17.01      0.70     -5.60
     16.30      0.70     -5.84
     15.58      0.94     -6.08
     14.62      0.94     -6.08
     13.66      0.94     -6.32
     12.70      1.18     -6.32
     11.75      1.65     -6.08
     10.55      1.89     -6.08
      9.59      1.89     -5.84
      8.39      1.89     -5.84
      7.44      1.89     -5.60
      6.24      1.89     -5.36
      5.04      1.65     -5.12
      3.61      1.65     -4.64
      2.41      1.65     -4.17
      0.97      1.65     -3.93
     -0.22      1.41     -3.45
     -1.42      1.41     -3.21
     -2.62      1.18     -2.97
     -3.82      0.94     -2.73
     -5.01      0.94     -2.49
     -6.21      0.70     -2.25
     -7.17      0.46     -2.01
     -8.36      0.46     -1.77
     -9.32      0.22     -1.53
    -10.04     -0.02     -1.29
    -10.76     -0.26     -1.29
    -11.72     -0.50     -1.29
    -12.43     -0.74     -1.05
    -13.15     -0.74     -1.05
    -13.63     -0.98     -1.05
    -14.11     -0.98     -1.05
    -14.59     -1.22     -1.29
    -14.59     -1.70     -1.77
    -14.83     -1.94     -2.25
    -14.83     -2.18     -2.49
    -15.07     -2.18     -2.97
    -15.07     -2.18     -3.21
    -15.31     -2.18     -3.69
    -15.07     -2.18     -4.17
    -14.83     -2.18     -4.88
    -14.83     -2.18     -5.36
    -14.83     -1.94     -5.84
    -15.07     -1.94     -6.56
    -15.31     -1.70     -7.04
    -15.79     -1.70     -7.52
    -16.27     -1.46     -8.00
    -16.74     -1.22     -8.48
    -17.22     -0.98     -8.95
    -17.70     -0.98     -9.43
    -18.42     -0.74     -9.91
    -19.14     -0.74    -10.15
    -20.34     -0.50    -10.15
    -21.29     -0.26    -10.15
    -22.25     -0.02    -10.15
    -22.97      0.22    -10.15
    -23.69      0.46    -10.39
    -24.64      0.22    -10.39
    -25.84      0.22    -10.15
    -27.04      0.46     -9.91
    -28.24      0.46     -9.43
    -29.19      0.70     -8.95
    -29.67      0.70     -8.48
    -30.39      0.70     -8.24
    -31.11      0.46     -7.76
    -31.83      0.22     -7.28
    -32.79      0.46     -6.56
    -33.74      0.46     -5.84
    -34.22      0.70     -5.12
    -34.46      0.46     -4.64
    -34.94      0.22     -4.41
    -35.42     -0.26     -3.93
    -35.90     -0.26     -3.69
    -36.62     -0.02     -3.21
    -37.09     -0.02     -2.73
    -37.33      0.22     -2.25
    -37.33     -0.02     -2.01
    -37.57     -0.02     -2.01
    -37.81     -0.02     -2.01
    -38.05     -0.02     -2.01
    -38.29     -0.02     -2.01
    -38.77     -0.02     -1.53
    -39.01     -0.02     -1.29
    -39.01     -0.26     -1.05
    -39.01     -0.26     -0.81
    -39.01     -0.26     -0.57
    -39.01     -0.26     -0.57
    -39.25     -0.50     -0.34
    -39.25     -0.50     -0.34
    -39.49     -0.50     -0.34
    -39.73     -0.50     -0.34
    -39.73     -0.74     -0.57
    -39.49     -0.98     -0.81
    -39.49     -1.46     -1.29
    -39.25     -1.70     -1.53
    -39.25     -2.18     -2.01
    -39.25     -2.18     -2.25
    -39.01     -2.42     -2.49
    -38.77     -2.18     -2.97
    -38.29     -2.18     -3.45
    -37.81     -2.42     -4.17
    -37.33     -2.42     -4.64
    -36.86     -2.42     -4.88
    -36.62     -2.18     -5.36
    -36.38     -2.18     -5.60
    -36.14     -1.94     -6.08
    -35.42     -1.70     -6.56
    -34.94     -1.46     -7.28
    -34.22     -1.46     -7.52
    -33.74     -1.22     -8.00
    -33.02     -0.74     -8.24
    -32.55     -0.26     -8.48
    -32.07      0.22     -8.72
    -31.83      0.46     -9.19
    -31.35      0.94     -9.43
    -30.87      1.18     -9.91
    -30.39      1.41    -10.15
    -29.67      1.65    -10.39
    -29.19      1.89    -10.63
    -28.72      2.13    -10.63
    -28.48      2.13    -10.39
    -28.00      2.37     -9.91
    -27.76      2.61     -9.43
    -27.52      2.85     -8.95
    -27.52      3.09     -8.48
    -27.52      3.09     -8.00
    -27.76      3.33     -7.52
    -28.00      3.57     -6.80
    -28.24      3.57     -6.08
    -28.24      3.81     -5.12
    -28.48      3.81     -4.41
    -28.48      3.81     -3.93
    -28.48      3.81     -3.45
    -28.72      3.81     -2.73
    -28.72      4.05     -2.01
    -28.95      4.05     -1.29
    -29.19      4.05     -0.57
    -29.19      4.05     -0.10
    -29.43      4.05      0.38
    -29.67      4.29      0.38
    -29.91      4.29      0.38
    -30.15      4.53      0.86
    -30.39      4.53      1.10
    -30.63      4.77      1.58
    -30.63      4.77      1.82
    -30.39      4.77      2.06
    -30.15      4.77      2.06
    -29.91      4.53      2.06
    -29.67      4.05      2.30
    -29.43      4.05      2.54
    -29.19      4.05      3.26
    -28.72      4.05      3.73
    -28.00      4.05      3.97
    -27.28      4.05      4.21
    -26.32      3.81      4.21
    -25.36      3.81      4.69
    -24.41      3.81      5.17
    -23.21      3.81      5.89
    -22.01      4.05      6.37
    -20.81      3.57      6.85
    -19.62      3.33      7.33
    -18.42      3.09      7.80
    -16.98      2.61      8.04
    -15.07      2.37      8.52
    -13.63      1.89      8.76
    -11.96      1.65      9.00
    -11.00      1.18      9.24
     -9.80      0.70      9.48
     -8.13      0.22      9.48
     -6.45     -0.02      9.48
     -5.01     -0.26      9.00
     -3.34     -0.74      8.28
     -2.14     -0.98      7.33
     -0.70     -1.22      6.61
      0.25     -1.46      5.89
      1.69     -1.46      4.93
      2.89     -1.70      4.21
      4.09     -1.70      3.26
      5.28     -1.46      2.54
      6.72     -1.22      1.58
      8.16     -1.22      0.62
      9.35     -1.22     -0.10
     10.55     -1.22     -0.81
     11.51     -1.22     -1.29
     12.70     -1.22     -1.77
     14.14     -0.98     -2.25
     15.34     -0.98     -2.25
     16.54     -0.98     -2.49
     17.73     -0.98     -2.49
     18.93     -0.98     -2.49
     20.37     -0.74     -2.49
     21.32     -0.50     -2.49
     22.28     -0.02     -2.25
     23.48      0.22     -2.01
     24.44      0.46     -1.77
     25.39      0.70     -1.53
     26.35      0.70     -1.53
     27.07      0.94     -1.53
     27.55      0.94     -1.05
     27.55      1.41     -0.81
     27.79      1.65     -0.34
     27.79      1.65      0.14
     28.03      1.89      0.38
     28.03      1.89      0.38
     28.03      2.13      0.38
     27.79      2.37      0.38
     27.79      2.61      0.38
     27.31      2.85      0.38
     26.83      3.09      0.38
     26.59      3.33      0.38
     26.11      3.57      0.38
     26.11      3.81      0.14
     25.87      4.05     -0.10
     25.39      4.05     -0.34
     25.15      4.05     -0.57
     25.15      4.05     -1.05
     25.15      4.05     -1.53
     25.39      4.05     -2.01
     25.39      4.05     -2.73
     25.63      4.05     -2.97
     25.63      3.81     -3.21
     25.63      3.81     -3.21
     25.87      3.57     -3.45
     26.11      3.33     -3.93
     26.59      3.09     -4.17
     27.31      2.61     -4.17
     28.03      2.37     -4.17
     28.98      2.13     -4.17
     29.70      1.89     -4.17
     30.66      1.65     -3.93
     31.62      1.18     -3.69
     32.82      0.70     -3.45
     34.01      0.46     -3.21
     34.97      0.22     -2.73
     35.93     -0.02     -2.49
     36.89     -0.02     -2.01
     37.84     -0.02     -1.53
     39.04     -0.26     -0.81
     40.00     -0.50     -0.34
     40.72     -0.74      0.14
     41.67     -0.98      0.38
     42.39     -0.98      1.10
     43.35     -0.74      1.58
     44.07     -0.74      1.82
     45.03     -1.22      2.30
     45.98     -1.46      2.30
     46.94     -1.70      2.78
     47.66     -1.94      3.02
     47.90     -1.94      3.50
     48.14     -1.94      3.97
     48.14     -1.94      4.69
     48.38     -1.94      4.93
     48.62     -2.18      5.17
     49.34     -2.42      5.17
     49.81     -2.42      5.17
     50.05     -2.66      5.41
     50.05     -2.66      5.89
     50.29     -2.90      6.37
     50.53     -2.90      6.85
     51.01     -3.13      7.09
     51.49     -3.37      7.09
     51.73     -3.61      6.85
     51.73     -3.61      6.85
     51.49     -3.61      7.09
     51.01     -3.37      7.57
     50.77     -3.13      8.04
     50.77     -2.90      8.28
     50.77     -2.66      8.04
     50.77     -2.66      8.04
     50.53     -2.42      8.04
     50.05     -1.94      8.28
     49.57     -1.22      9.00
     49.34     -0.74      9.48
     49.10     -0.26      9.96
     48.86     -0.02     10.20
     48.38      0.22     10.20
     47.66      0.46     10.44
     46.94      0.94     10.68
     46.46      1.18     10.92
     45.74      1.41     11.16
     45.03      1.41     11.40
     44.07      1.65     11.40
     43.11      1.65     11.16
     41.91      1.65     11.16
     40.96      1.65     10.92
     40.00      1.41     10.68
     39.28      1.18     10.44
     38.32      0.94     10.20
     37.36      0.70      9.96
     36.41      0.46      9.48
     35.69      0.22      9.00
     34.73     -0.26      8.52
     33.53     -0.74      8.04
     32.34     -1.22      7.33
     31.14     -1.46      6.85
     29.94     -1.70      6.13
     28.98     -1.94      5.41
     28.03     -2.42      4.69
     27.07     -2.90      4.21
     26.11     -3.13      3.50
     25.39     -3.13      2.78
     24.44     -3.37      2.30
     23.72     -3.85      1.58
     22.76     -4.09      0.86
     22.04     -4.57      0.38
     21.56     -4.81     -0.10
     21.08     -5.29     -0.57
     20.13     -5.53     -0.81
     19.41     -5.53     -1.05
     18.69     -5.77     -1.05
     18.21     -6.01     -1.05
     17.49     -6.01     -1.29
     17.01     -6.01     -1.29
     16.54     -6.49     -1.53
     15.82     -6.49     -1.53
     15.34     -6.49     -1.53
     14.86     -6.49     -1.53
     14.14     -6.25     -1.29
     13.42     -6.25     -1.05
     13.18     -6.25     -1.05
     12.46     -6.01     -1.29
     11.99     -5.77     -1.53
     11.03     -5.53     -1.77
     10.07     -5.29     -2.01
      9.11     -5.29     -2.25
      8.16     -4.81     -2.25
      7.20     -4.57     -2.73
      6.24     -4.33     -3.21
      5.04     -4.09     -3.69
      3.85     -3.85     -3.69
      2.65     -3.61     -3.93
      1.45     -3.37     -4.17
      0.25     -2.90     -4.17
     -0.46     -2.18     -4.64
     -1.42     -1.46     -5.12
     -2.38     -1.22     -5.60
     -3.58     -0.74     -6.32
     -5.01     -0.50     -7.04
     -6.45      0.22     -7.04
     -7.41      0.94     -6.80
     -7.89      1.41     -6.56
     -8.60      1.89     -6.32
     -9.56      2.37     -6.56
    -10.76      2.85     -6.56
    -11.96      3.09     -6.80
    -13.15      3.33     -6.32
    -14.11      4.05     -5.36
    -15.31      4.53     -4.64
    -16.27      5.01     -4.64
    -16.98      5.25     -5.12
    -18.18      5.01     -5.36
    -19.38      5.25     -5.12
    -20.81      5.72     -4.41
    -22.01      5.96     -4.17
    -23.69      5.96     -4.17
    -24.88      5.96     -4.17
    -26.08      5.96     -4.17
    -27.28      5.72     -4.41
    -28.00      5.48     -4.88
    -28.72      5.25     -5.36
    -29.43      5.25     -5.60
    -30.63      5.25     -5.36
    -31.83      5.01     -5.12
    -33.02      4.77     -4.88
    -33.98      4.77     -4.88
    -34.46      4.05     -5.12
    -34.94      3.81     -5.84
    -35.18      3.33     -6.32
    -35.90      2.37     -6.56
    -36.14      1.89     -6.32
    -36.62      1.41     -5.84
    -36.86      0.70     -5.60
    -37.09      0.22     -5.36
    -37.33     -0.26     -5.36
    -37.57     -0.98     -5.36
    -37.81     -1.70     -5.36
    -38.05     -2.18     -5.36
    -38.29     -2.66     -5.36
    -38.53     -3.13     -5.12
    -39.01     -3.61     -4.88
    -39.49     -3.85     -5.12
    -40.21     -3.85     -5.12
    -40.69     -4.09     -5.36
    -41.16     -4.33     -5.60
    -41.64     -4.81     -5.36
    -42.12     -5.05     -4.88
    -42.36     -5.05     -4.17
    -42.36     -5.29     -3.69
    -42.36     -5.77     -3.45
    -42.12     -6.01     -3.21
    -42.12     -6.01     -3.21
    -42.36     -6.01     -3.21
    -42.60     -6.01     -2.97
    -43.08     -5.77     -2.49
    -43.56     -5.77     -2.01
    -43.80     -5.53     -1.29
    -44.28     -5.53     -0.81
    -44.52     -5.53     -0.34
    -44.76     -5.53      0.14
    -44.76     -5.53      0.38
    -44.76     -5.53      0.86
    -44.76     -5.53      1.10
    -44.76     -5.29      1.34
    -44.52     -5.29      1.34
    -44.28     -5.05      1.82
    -44.28     -4.81      2.30
    -44.28     -4.81      2.78
    -44.28     -4.81      2.78
    -44.04     -4.57      2.78
    -44.04     -4.33      2.78
    -43.80     -4.09      3.02
