********************************************************************************
               CENTRO DE INSTRUMENTACION Y REGISTRO SISMICO  A.C.  
                       Coordinacion de Servicios Tecnicos
     Anaxagoras 814, Col. Narvarte, Benito Juarez, C.P. 03020 Mexico, D.F.
            Tels. 687 45 42/ 687 45  82             Fax. 669 25 12
********************************************************************************
ARCHIVO ESTANDAR DE ACELERACION:
VERSION DEL FORMATO                    : 2.0
NOMBRE DEL ARCHIVO                     : AP689701.111
FECHA Y HORA DE CREACION               : 19/MAR/98, 13:16
REF. CATALOGO ACELEROGRAMAS, SMIS 1996 : REGISTRO No.     /PAG.


================================================================================
DATOS DE LA ESTACION:
NOMBRE DE LA ESTACION                  : APATLACO
CLAVE DE LA ESTACION                   : AP68
LOCALIZACION DE LA ESTACION            : Jardin de Ni¤os Juan Bautista de la
                                       : Salle Canal de Apatlaco y Ahuehuetes,
                                       : Col Iztacalco Infonavit, Iztacalc
                                       : 
                                       :
COORDENADAS DE LA ESTACION             : 19.381 LAT. N 
                                       : 99.107 LONG. W 
ALTITUD (msnm)                         : 2232
TIPO DE SUELO                          : ARCILLOSO, ZONA LAGO
                                       : 
                                       : 
INSTITUCION RESPONSABLE                : CIRES
                                       :

================================================================================
DATOS DEL ACELEROGRAFO:
MODELO DEL ACELEROGRAFO                : RAD-851
NUMERO DE SERIE DEL ACELEROGRAFO       : 255
NUMERO DE CANALES                      : 3
ORIENTACION C1-C6 (rumbo;orientacion)  : /N00E/+V/N90W
ORIENTACION C7-C12 (rumbo;orientacion) :
VEL. DE MUESTREO, C1-C6 (muestras/s)   : /100/100/100
VEL. DE MUESTREO, C7-C12 (muestras/s)  :
ESC. COMPLETA DE SENSORES, C1-C6, (g)  : /0.5/0.5/0.5
ESC. COMPLETA DE SENSORES, C7-C12, (g) :
FREC. NAT. DE SENSORES, C1-C6, (Hz)    : /30/30/30
FREC. NAT. DE SENSORES, C7-C12, (Hz)   :
AMORTIGUAMIENTO DE SENSORES, C1-C6     : /0.780/0.700/0.678
AMORTIGUAMIENTO DE SENSORES, C7-C12    :
INTERVALO DE MUESTREO, C1-C6, (s)      : /0.01/0.01/0.01
INTERVALO DE MUESTREO, C7-C12, (s)     :
UMBRAL DE DISPARO, C1-C6, (Gal)        : /3.42/4.15/3.42
UMBRAL DE DISPARO, C7-C12, (Gal)       :
MEMORIA DE PREEVENTO (s)               : 8
TIEMPO DE POSEVENTO (s)                : 8


================================================================================
DATOS DEL SISMO:
FECHA DEL SISMO (GMT)                  : 11/ENE/97
HORA EPICENTRO (GMT)                   : 20:28:27:2
MAGNITUD(ES)                           : /Ms=6.9
COORDENADAS DEL EPICENTRO              : 17.9 LAT. N
                                       : 103.0 LONG. W
PROFUNDIDAD FOCAL (km)                 : 16.0
FUENTE DE LOS DATOS EPICENTRALES       : SSN
                                       : INSTITUTO DE GEOFISICA, UNAM

================================================================================
DATOS DE ESTE REGISTRO:
HORA DE LA PRIMERA MUESTRA (GMT)       : 20:28:35.00
EXACTITUD DEL TIEMPO (s)               : 0.01
DURACION DEL REGISTRO (s), C1-C6       : /149.75/149.75/149.75
DURACION DEL REGISTRO (s), C7-C12      :
NUM. TOTAL DE MUESTRAS, C1-C6          : /14975/14975/14975
NUM. TOTAL DE MUESTRAS, C7-C12         :
ACEL. MAX. (Gal), C1-C6                : /22.61447/6.78719/21.69487
ACEL. MAX., C1-C6, EN LA MUESTRA       :
ACEL. MAX. (Gal), C7-C12               :
ACEL. MAX., C7-C12, EN LA MUESTRA      :
UNIDADES DE LOS DATOS                  : Gal (cm/s/s)
FACTOR DE DECIMACION                   : 1
FORMATO DATOS (FORTRAN,10 campos/dato) : 3F10.5


================================================================================
CALIDAD DEL ACELEROGRAMA:
REGISTRO DIGITAL COMPLETO CON TIEMPO ABSOLUTO CORRECTO.


================================================================================
COMENTARIOS:














================================================================================
DATOS DE ACELERACION:
---------+---------+---------+---------+---------+---------+---------+---------+
   CANAL-1   CANAL-2   CANAL-3   CANAL-4   CANAL-5   CANAL-6   CANAL-7   CANAL-8
      N00E        +V      N90W
---------+---------+---------+---------+---------+---------+---------+---------+
[...]
 -16.62899   1.28055  15.70940
 -17.34725   1.28055  16.42766
 -16.86841   1.04113  16.42766
 -17.10783   0.80171  16.66708
 -17.82609   0.80171  16.90649
 -18.06551   1.28055  17.14591
 -18.06551   1.51997  16.90649
 -18.06551   1.04113  16.90649
 -18.06551   1.04113  16.66708
 -18.54434   1.04113  16.90649
 -18.54434   0.80171  16.90649
 -18.54434   0.80171  16.42766
 -18.54434   1.28055  15.94882
 -19.02318   0.80171  16.18824
 -19.26260   1.28055  15.23056
 -19.98086   1.04113  15.23056
 -19.50202   1.28055  14.03347
 -19.98086   1.51997  13.79405
 -20.45970   1.28055  13.31521
 -19.98086   1.04113  12.59695
 -20.69911   1.51997  11.63928
 -20.93853   0.56229  11.63928
 -20.69911   0.80171  10.44218
 -21.65679   0.56229  10.20276
 -21.65679   0.56229   9.48451
 -20.93853   0.56229   8.76625
 -20.93853   0.32288   8.04799
 -21.17795   0.80171   7.56916
 -20.69911   0.08346   7.09032
 -20.22028   0.80171   5.65380
 -20.22028   0.32288   5.65380
 -19.50202   0.08346   4.45671
 -19.26260   0.56229   4.21729
 -19.02318   0.08346   3.49903
 -18.30493   1.04113   2.30194
 -18.06551   0.56229   1.82310
 -16.86841   0.08346   0.86543
 -16.38957   0.56229  -0.09225
 -16.15015   0.32288  -0.33167
 -15.43190   0.56229  -1.28934
 -15.19248   0.32288  -1.76818
 -14.47422  -0.39538  -2.24702
 -14.23480  -0.39538  -2.96528
 -13.75597  -0.15596  -3.68353
 -13.51655  -0.39538  -3.68353
 -12.55887  -0.87422  -4.40179
 -12.55887  -0.87422  -3.92295
 -12.08003  -1.11364  -3.92295
 -11.12236  -0.87422  -4.64121
 -11.12236  -1.35306  -4.16237
  -9.92526  -1.11364  -4.88063
 -10.16468  -1.11364  -4.64121
  -9.68584  -1.59248  -4.64121
  -9.44642  -1.11364  -5.59889
  -9.20701  -1.11364  -5.35947
  -8.96759  -1.59248  -5.59889
  -8.24933  -1.35306  -5.59889
  -8.48875  -1.11364  -5.59889
  -7.77049  -1.11364  -5.83830
  -7.53107  -1.59248  -6.07772
  -7.77049  -1.59248  -6.07772
  -7.77049  -1.59248  -5.83830
  -7.29165  -1.35306  -6.07772
  -7.53107  -1.11364  -6.31714
  -6.81282  -1.59248  -6.31714
  -7.05223  -0.87422  -6.79598
  -7.29165  -1.35306  -6.55656
  -7.05223  -0.87422  -7.27482
  -7.29165  -1.11364  -7.51424
  -6.81282  -1.83189  -7.51424
  -6.81282  -1.83189  -7.75366
  -6.81282  -1.11364  -8.23249
  -6.57340  -1.59248  -8.23249
  -6.09456  -1.11364  -9.19017
  -5.61572  -1.11364  -9.66901
  -5.61572  -1.11364  -9.90843
  -5.13688  -1.11364 -10.38726
  -4.41863  -0.63480 -11.10552
  -4.17921  -0.63480 -11.58436
  -3.70037  -0.39538 -12.30262
  -3.93979   0.32288 -12.78145
  -3.46095   0.32288 -13.26029
  -3.22153   0.56229 -13.97855
  -2.98211   0.80171 -13.97855
  -2.26386   0.56229 -14.21797
  -2.26386   1.04113 -14.45739
  -2.50327   1.28055 -14.21797
  -1.54560   0.80171 -13.73913
  -1.78502   1.28055 -13.73913
  -2.02444   0.80171 -13.02087
  -1.78502   1.04113 -13.02087
  -1.06676   1.04113 -12.30262
  -1.30618   1.28055 -11.82378
  -1.78502   1.04113 -10.14785
  -1.06676   1.28055  -9.66901
  -1.54560   1.99881  -9.19017
  -1.30618   1.99881  -7.99308
  -1.06676   2.23823  -7.75366
  -1.54560   2.23823  -6.55656
  -1.30618   2.47765  -5.83830
  -1.54560   3.19590  -5.59889
  -1.54560   3.19590  -5.12005
  -1.06676   3.19590  -5.35947
  -1.54560   3.43532  -4.64121
  -1.30618   3.19590  -4.16237
  -1.30618   3.67474  -4.40179
  -1.30618   3.91416  -4.16237
  -1.06676   3.43532  -3.92295
  -0.34850   3.91416  -4.16237
  -0.58792   3.43532  -3.68353
  -0.34850   3.91416  -4.64121
  -0.10909   3.91416  -4.88063
   0.36975   3.67474  -4.88063
   1.08801   3.43532  -5.83830
   1.32743   3.43532  -6.31714
   2.28510   2.95648  -6.55656
   2.76394   2.71707  -7.51424
   3.24278   2.47765  -7.51424
   4.20046   1.99881  -7.99308
   4.43987   2.47765  -8.71133
   5.39755   1.75939  -8.95075
   6.11581   1.99881  -9.90843
   6.83406   1.75939  -9.90843
   7.55232   1.28055  -9.66901
   8.98883   1.04113 -10.14785
   8.98883   1.28055 -10.62668
  10.18593   0.56229 -10.62668
  10.66477   0.56229 -10.86610
  10.42535   0.56229 -10.62668
  11.86186   0.32288 -11.10552
  11.62244   0.32288 -11.34494
  11.86186  -0.15596 -10.62668
  12.34070  -0.39538 -10.62668
  11.62244  -0.15596 -10.62668
  12.10128  -0.39538 -10.14785
  11.86186  -0.39538 -10.38726
  11.86186  -0.87422 -10.14785
  11.86186  -1.11364  -9.90843
  11.62244  -1.35306  -9.66901
  11.62244  -0.63480  -9.66901
  11.38302  -1.11364  -9.42959
  11.38302  -0.87422  -9.42959
  11.38302  -1.35306  -8.71133
  11.14360  -1.11364  -9.19017
  11.14360  -0.87422  -8.95075
  11.14360  -1.59248  -8.47191
  10.66477  -0.87422  -8.95075
  10.42535  -1.11364  -8.23249
  10.90419  -1.35306  -8.47191
  10.66477  -0.87422  -8.71133
  10.90419  -1.11364  -8.71133
  11.14360  -1.11364  -8.95075
  11.14360  -0.63480  -9.19017
  10.90419  -0.87422  -9.19017
  11.86186  -1.11364  -9.19017
  12.34070  -1.11364  -9.90843
  12.10128  -1.11364  -9.66901
  12.81954  -1.11364 -10.38726
  13.29838  -0.87422 -10.62668
  14.01663  -1.35306 -11.10552
  14.25605  -1.11364 -11.58436
  15.21373  -1.83189 -11.58436
  15.69256  -1.59248 -12.54204
  15.93198  -1.83189 -12.54204
  16.88966  -2.31073 -13.02087
  16.88966  -2.07131 -13.49971
  17.60792  -3.02899 -13.02087
  18.08675  -2.78957 -13.73913
  18.08675  -2.78957 -13.73913
  18.80501  -3.26841 -14.21797
  19.28385  -3.50783 -14.21797
  19.28385  -3.50783 -14.21797
  19.76269  -3.74725 -13.97855
  20.00211  -3.50783 -14.69681
  20.48094  -3.98667 -14.21797
  21.19920  -4.46550 -14.21797
  20.95978  -3.74725 -14.21797
  20.72036  -3.98667 -13.49971
  21.43862  -3.98667 -13.73913
  21.19920  -4.22608 -13.26029
  21.43862  -4.22608 -12.30262
  21.43862  -4.46550 -12.06320
  21.67804  -3.98667 -11.82378
  21.43862  -4.46550 -10.62668
  21.91746  -4.22608 -10.38726
  20.95978  -4.22608  -9.19017
  20.72036  -3.98667  -8.71133
  20.72036  -3.74725  -7.99308
  20.95978  -3.98667  -7.51424
  20.95978  -3.98667  -6.31714
  20.95978  -4.22608  -6.07772
  20.48094  -3.74725  -5.12005
  20.48094  -3.74725  -4.40179
  20.48094  -3.74725  -4.16237
  20.00211  -3.50783  -3.68353
  20.24152  -3.74725  -2.72586
  20.24152  -3.02899  -2.72586
  19.76269  -2.55015  -2.00760
  20.00211  -2.78957  -1.28934
  19.76269  -2.07131  -1.04993
  19.52327  -1.83189  -0.33167
  19.28385  -1.83189   0.38659
  19.28385  -1.35306   0.62601
  19.28385  -0.39538   1.10484
  18.56559  -0.87422   2.30194
  18.32617   0.08346   2.30194
  18.08675   0.08346   3.02020
  18.32617   0.56229   3.49903
  17.36850   0.80171   4.45671
  17.60792   0.80171   5.41439
  17.12908   1.28055   6.13264
  16.65024   1.75939   6.37206
  16.41082   1.51997   7.32974
  16.41082   1.99881   7.56916
  15.45315   1.99881   8.28741
  15.69256   1.99881   8.52683
  15.21373   2.71707   8.28741
  14.97431   2.47765   9.24509
  14.73489   2.23823   9.72393
  14.25605   2.47765   9.72393
  13.77721   2.95648  10.20276
  13.29838   2.71707  10.92102
  13.29838   2.95648  10.68160
  12.58012   3.19590  11.39986
  12.34070   2.95648  11.63928
  12.10128   3.43532  11.63928
  11.62244   3.67474  12.35753
  10.90419   3.43532  12.59695
  10.42535   3.67474  12.59695
   9.46767   3.19590  13.31521
   9.22825   3.67474  12.83637
   8.03116   3.43532  13.55463
   8.03116   2.95648  13.55463
   7.79174   3.19590  13.55463
   7.07348   3.43532  13.79405
   6.83406   2.71707  14.27289
   7.07348   3.19590  13.79405
   6.59464   2.47765  14.27289
   6.83406   2.47765  14.27289
   6.35523   2.71707  14.27289
   6.59464   2.47765  14.27289
   7.07348   2.47765  14.03347
   6.83406   2.23823  14.27289
   7.07348   1.75939  14.27289
   7.79174   1.99881  14.03347
   8.03116   1.75939  14.03347
   8.51000   1.28055  14.51231
   9.22825   1.28055  14.27289
   8.74942   1.28055  14.75172
   9.22825   0.80171  14.51231
   9.94651   0.56229  14.51231
   9.70709   0.32288  14.51231
   9.94651   0.08346  14.75172
   9.94651  -0.15596  14.75172
  10.18593   0.08346  14.03347
  10.18593  -0.63480  14.27289
  10.18593  -0.63480  14.03347
   9.46767  -0.15596  13.31521
   9.46767  -0.15596  12.83637
   9.70709  -0.87422  12.59695
   9.46767  -0.87422  11.63928
   9.46767  -1.35306  11.39986
   8.74942  -0.63480  10.44218
   8.51000  -1.11364  10.20276
   8.27058  -1.11364   9.24509
   8.03116  -1.11364   8.52683
   7.07348  -1.11364   8.04799
   6.35523  -0.87422   7.56916
   6.59464  -0.87422   6.37206
   5.63697  -0.87422   6.37206
   4.91871  -1.11364   5.41439
   3.96104  -0.39538   4.93555
   3.24278  -0.39538   4.45671
   2.52452  -0.15596   3.73845
   1.80627  -0.15596   3.25961
   1.08801  -0.15596   2.78078
   0.13033   0.32288   2.30194
  -0.82734   0.32288   2.30194
  -1.54560   0.32288   1.82310
  -2.74269   0.56229   1.82310
  -3.70037   0.56229   2.78078
  -4.17921   0.56229   2.54136
  -4.89746   1.04113   2.30194
  -5.85514   0.56229   3.02020
  -6.33398   0.56229   3.25961
  -7.05223   0.56229   3.49903
  -7.77049   0.80171   3.73845
  -7.77049   0.32288   3.73845
  -8.00991   0.32288   4.45671
  -8.72817   0.08346   5.17497
  -8.48875   0.08346   5.41439
  -9.20701   0.08346   5.65380
  -9.20701  -0.39538   6.61148
  -9.20701  -0.63480   6.85090
  -9.92526  -0.87422   7.80857
  -9.92526  -1.11364   8.04799
 -10.40410  -1.11364   8.28741
 -10.16468  -1.59248   8.52683
 -10.40410  -1.59248   9.00567
 -10.40410  -2.07131   9.48451
 -10.88294  -1.59248   9.24509
 -10.88294  -2.31073   9.48451
 -11.60119  -2.55015   9.24509
 -11.84061  -2.55015   9.48451
 -12.08003  -3.26841   9.96335
 -12.31945  -3.02899   9.48451
 -13.27713  -3.26841   9.96335
 -13.03771  -3.74725   9.48451
 -13.75597  -3.50783   9.72393
 -14.47422  -3.74725   9.72393
 -14.71364  -3.74725   9.24509
 -14.95306  -3.50783   9.24509
 -15.67132  -3.98667   9.48451
 -15.91074  -3.74725   9.48451
 -15.67132  -3.26841   8.76625
 -16.38957  -2.78957   8.76625
 -16.62899  -3.26841   8.76625
 -17.10783  -2.78957   8.28741
 -17.58667  -2.31073   8.52683
 -17.58667  -2.31073   8.04799
 -17.58667  -1.59248   7.32974
 -18.06551  -1.11364   7.56916
 -17.82609  -1.59248   7.56916
 -18.30493  -0.63480   6.61148
 -18.30493  -0.39538   6.85090
 -18.30493  -0.39538   6.61148
 -18.78376   0.08346   6.85090
 -19.02318  -0.15596   6.85090
 -19.02318   0.80171   6.37206
 -19.50202   1.28055   5.89322
 -19.50202   1.04113   6.61148
 -19.50202   1.28055   6.61148
 -19.98086   2.23823   6.13264
 -19.98086   2.47765   6.37206
 -19.98086   3.19590   6.13264
 -20.22028   2.71707   6.85090
 -19.98086   2.47765   6.85090
 -20.45970   2.95648   7.09032
 -20.69911   2.71707   7.56916
 -20.93853   2.95648   7.32974
 -21.17795   3.19590   7.56916
 -21.17795   2.71707   8.04799
 -21.65679   3.19590   7.80857
 -22.13563   2.95648   8.04799
 -21.65679   2.95648   7.56916
 -21.89621   3.19590   7.56916
 -22.37505   2.95648   8.04799
 -22.37505   2.95648   8.28741
 -22.37505   2.95648   7.32974
 -22.61447   2.71707   7.56916
 -22.37505   2.95648   6.61148
 -22.61447   2.95648   6.37206
 -22.61447   2.47765   6.13264
 -22.37505   2.71707   5.41439
 -21.89621   2.47765   4.93555
 -21.89621   1.75939   5.41439
 -21.41737   2.23823   4.21729
 -21.41737   2.23823   3.73845
 -20.93853   1.99881   3.49903
 -20.22028   1.75939   2.54136
 -20.22028   2.23823   2.54136
 -19.50202   2.23823   1.82310
 -18.78376   1.75939   1.34426
 -17.82609   1.99881   0.38659
 -17.82609   1.51997   0.38659
 -16.62899   1.75939  -0.33167
 -15.91074   1.75939  -1.28934
 -15.67132   1.75939  -2.00760
 -14.47422   1.04113  -2.24702
 -14.23480   1.28055  -2.96528
 -13.99538   1.04113  -3.20470
 -13.03771   1.04113  -3.92295
 -12.79829   1.28055  -4.40179
 -12.08003   0.32288  -4.64121
 -11.84061   0.56229  -5.59889
 -11.84061   0.08346  -5.59889
 -10.88294   0.08346  -6.07772
 -10.40410  -0.15596  -6.79598
 -10.64352  -0.39538  -7.03540
 -10.16468  -0.87422  -7.27482
  -9.92526  -0.87422  -7.51424
 -10.16468  -1.11364  -7.51424
  -9.20701  -1.11364  -7.99308
  -9.68584  -0.87422  -8.23249
  -9.20701  -1.59248  -7.99308
  -8.96759  -1.59248  -8.71133
  -9.20701  -1.83189  -8.47191
  -8.48875  -2.07131  -8.47191
  -8.96759  -2.55015  -8.47191
  -8.96759  -2.31073  -8.71133
  -8.48875  -2.78957  -8.47191
  -8.24933  -2.55015  -8.71133
  -8.72817  -3.02899  -8.23249
  -8.72817  -3.26841  -7.99308
  -8.00991  -3.02899  -8.47191
  -8.00991  -2.78957  -8.47191
  -7.77049  -3.02899  -8.23249
  -7.29165  -3.02899  -8.23249
  -7.29165  -2.78957  -8.23249
  -6.33398  -2.55015  -8.47191
  -6.57340  -2.07131  -8.71133
  -5.85514  -2.31073  -8.71133
  -5.61572  -2.31073  -9.19017
  -5.85514  -2.07131  -9.19017
  -5.61572  -2.07131  -9.42959
  -4.65805  -1.83189 -10.14785
  -4.65805  -1.11364 -10.38726
  -4.41863  -1.59248 -10.38726
  -3.93979  -1.35306 -10.86610
  -3.93979  -0.63480 -11.58436
  -3.93979  -0.63480 -11.58436
  -3.22153  -0.63480 -12.30262
  -3.70037   0.08346 -12.78145
  -3.46095   0.08346 -12.78145
  -3.22153   0.80171 -13.73913
  -3.46095   0.56229 -13.26029
  -3.22153   0.32288 -13.49971
  -2.98211   0.56229 -13.73913
  -3.46095   1.04113 -13.26029
  -3.22153   0.80171 -13.26029
  -2.98211   1.28055 -13.26029
  -3.46095   1.04113 -12.30262
  -2.98211   1.04113 -12.06320
  -2.74269   1.51997 -12.06320
  -2.74269   1.75939 -11.10552
  -2.50327   1.28055 -10.14785
  -2.50327   1.75939  -9.66901
  -2.74269   1.51997  -8.23249
  -2.02444   1.04113  -7.75366
  -1.54560   1.28055  -7.03540
  -1.78502   1.51997  -5.83830
  -1.30618   1.04113  -5.35947
  -1.30618   1.99881  -5.12005
  -1.06676   1.51997  -3.92295
  -0.34850   1.28055  -3.68353
  -0.82734   1.28055  -2.72586
  -0.58792   1.28055  -1.76818
  -0.34850   1.28055  -1.76818
  -0.34850   1.51997  -1.28934
   0.13033   1.04113  -0.81051
   0.84859   1.04113  -0.81051
   0.36975   1.51997  -0.09225
   1.08801   1.28055  -0.33167
   1.56685   1.51997  -0.57109
   2.04569   1.51997  -0.33167
   2.04569   1.51997  -0.33167
   2.04569   1.75939  -0.81051
   2.04569   1.99881  -1.04993
   2.76394   1.28055  -0.81051
   2.76394   1.99881  -1.28934
   2.76394   1.75939  -1.28934
   3.24278   1.99881  -1.52876
   3.48220   2.23823  -2.24702
   3.48220   2.23823  -2.00760
   3.96104   1.75939  -2.24702
   3.96104   2.47765  -3.20470
   3.96104   2.23823  -2.96528
   4.67929   2.23823  -3.92295
   4.43987   2.47765  -4.16237
   4.43987   2.47765  -3.92295
   4.67929   2.47765  -4.40179
   4.67929   2.23823  -4.40179
   5.15813   1.99881  -4.64121
   5.15813   1.99881  -4.88063
   5.15813   1.75939  -4.40179
   5.63697   1.75939  -4.64121
   5.63697   1.99881  -4.64121
   6.59464   1.51997  -4.40179
   7.07348   1.28055  -4.64121
   7.55232   1.04113  -4.16237
   7.79174   1.04113  -4.16237
   8.27058   1.28055  -4.64121
   8.74942   1.04113  -3.92295
   9.94651   0.32288  -3.92295
   9.70709   1.04113  -4.64121
   9.94651   0.80171  -4.16237
  11.14360   0.56229  -4.64121
  11.14360   0.80171  -5.12005
  11.86186   0.56229  -5.35947
  12.34070   0.56229  -6.07772
  12.10128   1.04113  -6.79598
  12.81954   0.56229  -7.03540
  13.77721   0.56229  -7.75366
  13.29838   0.56229  -8.23249
  14.25605   0.08346  -8.47191
  14.73489   0.32288  -9.42959
  14.97431   0.32288  -9.90843
  15.69256  -0.39538 -10.14785
  15.93198   0.08346 -10.86610
  15.69256   0.08346 -11.58436
  16.41082  -0.15596 -12.06320
  16.88966  -0.15596 -12.30262
  16.65024  -0.15596 -12.30262
  16.88966  -0.39538 -12.06320
  16.88966  -0.15596 -13.02087
  16.88966  -0.15596 -12.54204
  17.12908  -0.39538 -12.78145
  17.12908  -0.39538 -12.78145
  16.65024  -0.39538 -12.30262
