********************************************************************************
               CENTRO DE INSTRUMENTACION Y REGISTRO SISMICO  A.C.  
                       Coordinacion de Servicios Tecnicos
     Anaxagoras 814, Col. Narvarte, Benito Juarez, C.P. 03020 Mexico, D.F.
            Tels. 687 45 42/ 687 45  82             Fax. 669 25 12
********************************************************************************
ARCHIVO ESTANDAR DE ACELERACION:
VERSION DEL FORMATO                    : 2.0
NOMBRE DEL ARCHIVO                     : AP689705.221
FECHA Y HORA DE CREACION               : 19/MAR/98, 13:16
REF. CATALOGO ACELEROGRAMAS, SMIS 1996 : REGISTRO No.     /PAG.


================================================================================
DATOS DE LA ESTACION:
NOMBRE DE LA ESTACION                  : APATLACO
CLAVE DE LA ESTACION                   : AP68
LOCALIZACION DE LA ESTACION            : Jardin de Ni¤os Juan Bautista de la
                                       : Salle Canal de Apatlaco y Ahuehuetes,
                                       : Col Iztacalco Infonavit, Iztacalc
                                       : 
                                       :
COORDENADAS DE LA ESTACION             : 19.381 LAT. N 
                                       : 99.107 LONG. W 
ALTITUD (msnm)                         : 2232
TIPO DE SUELO                          : ARCILLOSO, ZONA LAGO
                                       : 
                                       : 
INSTITUCION RESPONSABLE                : CIRES
                                       :

================================================================================
DATOS DEL ACELEROGRAFO:
MODELO DEL ACELEROGRAFO                : RAD-851
NUMERO DE SERIE DEL ACELEROGRAFO       : 255
NUMERO DE CANALES                      : 3
ORIENTACION C1-C6 (rumbo;orientacion)  : /N00E/+V/N90W
ORIENTACION C7-C12 (rumbo;orientacion) :
VEL. DE MUESTREO, C1-C6 (muestras/s)   : /100/100/100
VEL. DE MUESTREO, C7-C12 (muestras/s)  :
ESC. COMPLETA DE SENSORES, C1-C6, (g)  : /0.5/0.5/0.5
ESC. COMPLETA DE SENSORES, C7-C12, (g) :
FREC. NAT. DE SENSORES, C1-C6, (Hz)    : /30/30/30
FREC. NAT. DE SENSORES, C7-C12, (Hz)   :
AMORTIGUAMIENTO DE SENSORES, C1-C6     : /0.780/0.700/0.678
AMORTIGUAMIENTO DE SENSORES, C7-C12    :
INTERVALO DE MUESTREO, C1-C6, (s)      : /0.01/0.01/0.01
INTERVALO DE MUESTREO, C7-C12, (s)     :
UMBRAL DE DISPARO, C1-C6, (Gal)        : /2.93/4.15/2.93
UMBRAL DE DISPARO, C7-C12, (Gal)       :
MEMORIA DE PREEVENTO (s)               : 16
TIEMPO DE POSEVENTO (s)                : 48


================================================================================
DATOS DEL SISMO:
FECHA DEL SISMO (GMT)                  : 22/MAY/97
HORA EPICENTRO (GMT)                   : 07:50:55:7
MAGNITUD(ES)                           : /Ms=6.0
COORDENADAS DEL EPICENTRO              : 18.4 LAT. N
                                       : 101.8 LONG. W
PROFUNDIDAD FOCAL (km)                 : 59.0
FUENTE DE LOS DATOS EPICENTRALES       : SSN
                                       : INSTITUTO DE GEOFISICA, UNAM

================================================================================
DATOS DE ESTE REGISTRO:
HORA DE LA PRIMERA MUESTRA (GMT)       : 07:52:08.00
EXACTITUD DEL TIEMPO (s)               : 0.01
DURACION DEL REGISTRO (s), C1-C6       : /136.75/136.75/136.75
DURACION DEL REGISTRO (s), C7-C12      :
NUM. TOTAL DE MUESTRAS, C1-C6          : /13675/13675/13675
NUM. TOTAL DE MUESTRAS, C7-C12         :
ACEL. MAX. (Gal), C1-C6                : /5.08277/2.81539/7.07194
ACEL. MAX., C1-C6, EN LA MUESTRA       :
ACEL. MAX. (Gal), C7-C12               :
ACEL. MAX., C7-C12, EN LA MUESTRA      :
UNIDADES DE LOS DATOS                  : Gal (cm/s/s)
FACTOR DE DECIMACION                   : 1
FORMATO DATOS (FORTRAN,10 campos/dato) : 3F10.5


================================================================================
CALIDAD DEL ACELEROGRAMA:
REGISTRO DIGITAL COMPLETO CON TIEMPO ABSOLUTO CORRECTO.


================================================================================
COMENTARIOS:














================================================================================
DATOS DE ACELERACION:
---------+---------+---------+---------+---------+---------+---------+---------+
   CANAL-1   CANAL-2   CANAL-3   CANAL-4   CANAL-5   CANAL-6   CANAL-7   CANAL-8
      N00E        +V      N90W
---------+---------+---------+---------+---------+---------+---------+---------+
[...]
  -1.25207   0.66062  -1.56530
  -0.77323   0.66062  -1.56530
  -0.77323   0.42120  -1.56530
  -0.77323   0.42120  -1.32588
  -0.53381   0.18178  -1.80472
  -0.53381   0.42120  -1.80472
  -0.53381   0.18178  -1.80472
  -0.29439   0.18178  -2.28356
  -0.53381   0.42120  -2.52298
  -0.29439   0.18178  -2.52298
  -0.53381   0.18178  -3.00181
  -0.53381  -0.05764  -3.24123
  -0.53381   0.18178  -3.48065
  -0.77323  -0.29705  -3.24123
  -1.01265  -0.05764  -3.72007
  -1.01265  -0.05764  -3.72007
  -1.25207   0.18178  -3.95949
  -1.49149   0.18178  -3.95949
  -1.73091   0.42120  -4.19891
  -2.20974   0.18178  -3.95949
  -2.20974   0.42120  -3.95949
  -2.68858   0.66062  -3.95949
  -2.68858   0.66062  -3.72007
  -2.92800   0.42120  -3.48065
  -2.92800   0.42120  -3.48065
  -2.92800   0.42120  -3.48065
  -3.16742   0.42120  -3.24123
  -3.16742   0.18178  -3.24123
  -3.40684   0.66062  -3.24123
  -3.16742   0.18178  -3.00181
  -3.40684   0.42120  -3.00181
  -3.16742   0.18178  -2.52298
  -2.92800   0.42120  -2.52298
  -2.92800   0.42120  -2.04414
  -2.44916   0.66062  -2.04414
  -2.68858   0.42120  -1.80472
  -2.20974   0.66062  -1.80472
  -1.97033   0.66062  -1.32588
  -1.97033   0.66062  -1.32588
  -1.49149   0.66062  -1.32588
  -1.49149   0.66062  -1.08646
  -1.25207   0.42120  -1.08646
  -1.25207   0.66062  -1.08646
  -0.77323   0.42120  -0.84704
  -1.01265   0.66062  -0.84704
  -0.53381   0.66062  -0.84704
  -0.53381   0.66062  -0.84704
  -0.05497   0.18178  -0.84704
  -0.05497   0.42120  -0.84704
   0.42386   0.18178  -1.08646
   0.90270  -0.05764  -1.08646
   1.14212  -0.05764  -1.32588
   1.62096  -0.53647  -1.08646
   1.86038  -0.05764  -1.56530
   1.86038  -0.53647  -2.04414
   2.57863  -1.01531  -1.80472
   2.33922  -0.77589  -2.04414
   2.57863  -1.25473  -2.28356
   2.57863  -1.25473  -2.52298
   2.57863  -1.73357  -2.28356
   2.57863  -1.49415  -2.76240
   2.57863  -1.73357  -2.76240
   2.81805  -1.97299  -3.00181
   2.33922  -1.97299  -2.52298
   2.57863  -1.97299  -2.76240
   2.57863  -1.97299  -2.52298
   2.57863  -1.97299  -2.52298
   2.33922  -1.73357  -2.52298
   2.57863  -1.97299  -2.52298
   2.33922  -1.25473  -2.76240
   2.33922  -1.01531  -2.76240
   2.57863  -1.25473  -2.76240
   2.33922  -0.53647  -2.76240
   2.33922  -0.53647  -2.52298
   2.33922  -0.29705  -2.76240
   2.33922  -0.53647  -2.28356
   2.33922  -0.05764  -2.76240
   1.86038  -0.05764  -2.52298
   1.86038   0.18178  -2.76240
   1.62096  -0.05764  -2.76240
   1.38154  -0.29705  -2.76240
   1.14212  -0.05764  -2.76240
   1.14212  -0.29705  -2.76240
   1.14212  -0.29705  -3.00181
   0.42386  -0.05764  -3.00181
   0.42386  -0.29705  -2.76240
   0.18444   0.18178  -2.76240
  -0.05497   0.18178  -2.52298
  -0.29439   0.18178  -2.52298
  -0.53381   0.42120  -2.28356
  -0.53381   0.18178  -2.28356
  -1.01265   0.42120  -2.04414
  -1.25207   0.18178  -1.56530
  -1.25207   0.42120  -1.56530
  -1.73091   0.42120  -1.32588
  -1.73091   0.66062  -1.08646
  -1.97033   0.66062  -0.84704
  -1.73091   0.66062  -0.36821
  -1.97033   0.90004  -0.12879
  -1.49149   0.66062   0.35005
  -1.25207   0.90004   0.11063
  -1.49149   0.66062   0.58947
  -0.77323   0.90004   0.82889
  -1.01265   1.37888   0.58947
  -0.77323   1.13946   0.58947
  -0.53381   1.13946   0.58947
  -0.53381   1.13946   1.06831
  -0.05497   1.13946   0.58947
  -0.05497   0.90004   0.82889
   0.42386   0.90004   0.58947
   0.42386   0.66062   1.06831
   0.90270   0.66062   0.82889
   1.14212   0.66062   0.82889
   1.38154   0.42120   0.82889
   1.86038   0.42120   0.58947
   1.62096   0.42120   0.35005
   2.57863   0.18178   0.35005
   2.09980   0.18178   0.11063
   2.57863   0.18178   0.11063
   3.05747  -0.05764   0.11063
   3.29689  -0.53647   0.11063
   3.53631  -0.29705   0.11063
   4.01515  -0.53647   0.11063
   4.01515  -0.53647   0.11063
   4.25457  -0.29705   0.35005
   4.25457  -0.77589   0.58947
   4.49399  -0.53647   0.58947
   4.25457  -0.77589   0.82889
   4.25457  -0.53647   0.58947
   4.01515  -0.29705   1.06831
   3.77573  -0.29705   1.06831
   3.53631  -0.05764   1.30773
   3.53631  -0.29705   1.78656
   3.53631  -0.05764   1.54715
   3.05747  -0.05764   1.54715
   3.29689   0.18178   1.78656
   2.81805  -0.05764   1.78656
   2.81805  -0.05764   1.78656
   2.81805   0.18178   1.54715
   2.57863   0.18178   1.54715
   2.81805   0.18178   1.30773
   2.33922   0.42120   1.30773
   2.57863   0.42120   1.30773
   2.33922   0.66062   1.30773
   2.33922   0.66062   1.06831
   2.33922   0.90004   1.06831
   2.57863   0.42120   1.30773
   2.57863   0.66062   0.58947
   2.57863   0.66062   0.58947
   3.05747   0.66062   0.11063
   2.81805   0.66062   0.11063
   2.81805   0.42120  -0.12879
   3.05747   0.66062  -0.60763
   3.05747   0.42120  -0.60763
   3.05747   0.66062  -1.08646
   2.57863   0.66062  -1.08646
   2.57863   0.90004  -1.32588
   2.33922   1.13946  -1.56530
   2.81805   0.90004  -1.80472
   2.57863   1.13946  -1.80472
   2.57863   0.90004  -1.80472
   2.81805   0.90004  -2.04414
   2.57863   0.90004  -1.80472
   2.57863   1.13946  -1.80472
   3.05747   0.90004  -1.56530
   3.05747   0.90004  -1.56530
   3.05747   1.13946  -1.32588
   3.29689   0.66062  -0.84704
   3.29689   0.90004  -0.60763
   3.05747   0.66062   0.11063
   3.05747   0.42120   0.35005
   3.05747   0.18178   0.82889
   3.29689   0.18178   1.30773
   2.81805  -0.05764   1.78656
   2.81805  -0.53647   2.26540
   2.81805  -0.53647   2.74424
   2.81805  -0.77589   2.98366
   2.81805  -1.01531   3.22308
   2.81805  -1.01531   3.46250
   2.57863  -1.25473   3.46250
   2.33922  -1.25473   3.70192
   2.57863  -1.73357   3.94133
   2.33922  -1.49415   3.94133
   1.86038  -1.73357   3.70192
   2.09980  -1.73357   3.70192
   1.62096  -1.49415   3.70192
   1.86038  -1.73357   3.70192
   1.86038  -1.73357   3.70192
   1.86038  -1.73357   3.70192
   1.86038  -1.73357   3.46250
   1.86038  -1.73357   3.70192
   1.86038  -1.25473   3.22308
   1.62096  -1.73357   3.22308
   1.62096  -1.49415   2.98366
   1.14212  -1.01531   2.74424
   1.38154  -1.25473   2.50482
   1.14212  -0.77589   2.02598
   0.90270  -1.01531   2.02598
   0.90270  -0.53647   1.54715
   0.42386  -0.53647   1.54715
   0.18444  -0.29705   1.30773
  -0.29439  -0.05764   1.30773
  -0.53381  -0.29705   1.30773
  -1.01265  -0.05764   1.30773
  -1.25207  -0.05764   1.30773
  -1.49149  -0.05764   1.54715
  -1.97033   0.42120   1.78656
  -1.97033   0.18178   2.02598
  -2.20974   0.42120   1.78656
  -2.44916   0.42120   2.02598
  -2.68858   0.90004   2.26540
  -2.44916   0.66062   2.50482
  -2.44916   0.90004   2.26540
  -2.44916   0.66062   2.74424
  -2.44916   0.90004   2.98366
  -2.44916   1.37888   2.74424
  -2.68858   1.13946   3.22308
  -2.44916   1.13946   2.74424
  -2.44916   1.13946   2.98366
  -2.44916   0.66062   3.46250
  -2.20974   1.13946   3.22308
  -2.20974   0.90004   3.46250
  -2.20974   0.90004   3.22308
  -2.20974   0.66062   3.22308
  -2.20974   0.90004   2.98366
  -1.97033   0.90004   2.74424
  -1.73091   0.66062   2.98366
  -1.97033   0.66062   2.50482
  -1.73091   0.42120   2.50482
  -1.73091   0.66062   2.26540
  -1.73091   0.42120   2.02598
  -1.25207   0.18178   2.26540
  -1.25207   0.42120   2.02598
  -1.01265   0.18178   1.78656
  -1.01265   0.42120   1.54715
  -0.53381  -0.05764   1.54715
  -0.29439  -0.29705   1.54715
  -0.29439  -0.05764   1.54715
   0.18444  -0.53647   1.78656
   0.18444  -0.29705   1.78656
   0.18444  -0.29705   2.26540
   0.42386  -0.05764   2.26540
   0.18444  -0.53647   2.98366
   0.18444  -0.29705   3.22308
   0.18444  -0.29705   3.46250
   0.18444  -0.05764   3.70192
   0.66328   0.18178   3.94133
   0.42386  -0.05764   4.18075
   0.42386   0.18178   4.18075
   0.42386   0.18178   4.42017
   0.42386   0.18178   4.65959
   0.42386   0.18178   4.42017
   0.42386   0.18178   4.65959
  -0.05497   0.18178   4.65959
   0.18444  -0.05764   4.65959
  -0.05497   0.18178   4.18075
  -0.05497  -0.29705   4.42017
  -0.29439  -0.29705   3.94133
  -0.05497  -0.29705   3.94133
  -0.29439  -0.05764   3.46250
  -0.53381   0.18178   3.22308
  -0.53381  -0.53647   2.98366
  -0.77323  -0.29705   2.50482
  -1.01265  -0.05764   1.78656
  -0.77323  -0.53647   1.54715
  -0.77323  -0.29705   1.30773
  -1.01265  -0.29705   0.82889
  -1.01265  -0.29705   0.35005
  -1.25207  -0.29705   0.11063
  -1.01265  -0.53647  -0.36821
  -1.01265  -0.29705  -0.84704
  -1.01265  -0.53647  -1.08646
  -1.01265  -0.29705  -1.32588
  -0.53381  -0.53647  -1.80472
  -0.77323  -0.05764  -2.04414
  -0.53381  -0.53647  -2.04414
  -1.01265  -0.29705  -2.52298
  -1.01265  -0.53647  -2.28356
  -0.77323  -0.29705  -2.52298
  -1.25207  -0.05764  -2.28356
  -1.01265  -0.29705  -2.28356
  -1.49149  -0.05764  -2.04414
  -1.49149   0.18178  -2.04414
  -1.49149   0.42120  -2.04414
  -1.73091   0.66062  -1.80472
  -1.73091   0.66062  -1.56530
  -2.20974   0.90004  -1.32588
  -1.97033   0.90004  -1.08646
  -2.20974   1.13946  -0.84704
  -2.20974   0.66062  -0.60763
  -2.44916   0.90004  -0.12879
  -2.44916   0.90004   0.11063
  -2.92800   0.90004   0.35005
  -3.16742   0.90004   0.35005
  -2.68858   0.66062   0.58947
  -2.92800   0.66062   0.58947
  -2.92800   0.42120   0.58947
  -3.16742   0.66062   0.58947
  -2.92800   0.18178   0.82889
  -2.92800  -0.05764   0.58947
  -2.92800  -0.29705   0.82889
  -3.16742  -0.29705   0.82889
  -2.92800  -0.29705   0.82889
  -2.68858  -0.29705   0.82889
  -2.44916  -0.05764   0.58947
  -2.44916  -0.53647   0.58947
  -2.20974  -0.29705   0.11063
  -1.97033  -0.29705   0.11063
  -1.73091  -0.53647  -0.12879
  -1.49149  -0.29705  -0.36821
  -1.73091  -0.29705  -0.60763
  -1.49149  -0.29705  -1.08646
  -1.49149  -0.29705  -1.08646
  -1.25207  -0.53647  -1.32588
  -1.73091  -0.29705  -1.56530
  -1.25207  -0.53647  -1.80472
  -1.49149  -0.53647  -1.80472
  -1.73091  -0.29705  -2.04414
  -1.49149  -0.05764  -2.04414
  -2.20974  -0.05764  -2.04414
  -1.97033  -0.05764  -2.28356
  -2.20974   0.66062  -2.28356
  -2.20974   0.42120  -2.28356
  -2.44916   0.66062  -2.28356
  -2.44916   0.90004  -2.28356
  -2.44916   0.90004  -2.28356
  -2.44916   0.66062  -2.28356
  -2.68858   0.90004  -2.28356
  -2.44916   0.66062  -2.28356
  -2.68858   0.66062  -2.28356
  -2.68858   0.90004  -2.76240
  -2.92800   0.66062  -2.52298
  -2.68858   0.90004  -3.00181
  -3.16742   0.66062  -2.76240
  -2.68858   0.66062  -3.24123
  -2.68858   0.90004  -3.72007
  -2.92800   0.42120  -3.72007
  -2.68858   0.66062  -3.95949
  -3.16742   0.66062  -3.95949
  -2.68858   0.42120  -4.43833
  -3.16742   0.90004  -4.67775
  -2.92800   0.66062  -4.91717
  -2.92800   0.42120  -5.39600
  -2.92800   0.66062  -5.87484
  -2.92800   0.66062  -5.63542
  -2.92800   0.42120  -6.35368
  -3.16742   0.42120  -6.35368
  -3.16742   0.42120  -6.59310
  -3.16742   0.42120  -6.83252
  -2.68858  -0.05764  -7.07194
  -2.92800  -0.05764  -7.07194
  -2.68858  -0.05764  -7.07194
  -2.44916  -0.05764  -6.83252
  -2.44916  -0.05764  -6.35368
  -2.44916   0.18178  -6.35368
  -2.20974  -0.29705  -6.11426
  -1.97033  -0.29705  -5.63542
  -1.97033  -0.05764  -5.39600
  -1.49149  -0.05764  -5.15659
  -1.25207  -0.29705  -4.91717
  -1.25207   0.18178  -4.43833
  -1.01265   0.18178  -4.19891
  -0.77323  -0.05764  -3.48065
  -0.29439  -0.29705  -3.00181
  -0.29439  -0.29705  -2.28356
  -0.05497  -0.53647  -1.80472
   0.42386  -0.05764  -1.80472
   0.18444  -0.29705  -0.84704
   0.90270  -0.29705  -0.84704
   0.90270  -0.53647  -0.60763
   1.38154  -0.05764  -0.36821
   1.38154  -0.05764  -0.12879
   2.09980  -0.29705   0.11063
   2.09980  -0.05764   0.11063
   2.33922  -0.29705   0.35005
   2.81805  -0.29705   0.35005
   2.33922  -0.05764   0.82889
   2.57863   0.42120   0.58947
   2.57863   0.42120   0.35005
   2.57863   0.18178   0.58947
   2.57863   0.42120   0.35005
   2.81805  -0.05764   0.58947
   2.81805   0.18178  -0.12879
   2.81805   0.18178  -0.12879
   2.81805  -0.05764  -0.12879
   3.05747  -0.29705  -0.36821
   3.29689  -0.29705  -0.36821
   3.05747  -0.29705  -0.36821
   3.29689  -0.29705  -0.60763
   3.29689  -0.53647  -0.60763
   3.05747  -0.53647  -0.60763
   3.29689  -0.53647  -0.60763
   3.29689  -0.77589  -0.84704
   3.53631  -0.77589  -0.60763
   3.53631  -0.53647  -1.08646
   3.77573  -0.77589  -0.84704
   3.53631  -0.53647  -1.32588
   3.53631  -0.77589  -0.84704
   3.53631  -0.77589  -1.08646
   3.53631  -0.77589  -1.08646
   3.29689  -0.53647  -1.32588
   3.05747  -0.53647  -1.56530
   2.57863  -0.77589  -1.56530
   2.57863  -0.29705  -2.04414
   2.33922  -0.53647  -2.04414
   2.57863  -0.77589  -2.28356
   2.09980  -0.53647  -2.52298
   1.86038  -0.77589  -2.52298
   2.09980  -0.53647  -3.24123
   1.86038  -1.01531  -3.24123
   1.38154  -0.77589  -3.48065
   1.14212  -0.53647  -3.72007
   1.14212  -0.77589  -3.95949
   0.90270  -0.77589  -4.19891
   1.14212  -1.01531  -4.43833
   0.42386  -0.53647  -4.67775
   0.66328  -1.01531  -4.67775
   0.18444  -0.05764  -5.15659
   0.42386  -0.29705  -5.39600
   0.42386  -0.05764  -5.39600
   0.18444  -0.05764  -5.39600
   0.18444   0.18178  -5.39600
   0.18444   0.18178  -4.91717
  -0.05497   0.66062  -4.91717
   0.18444   0.90004  -4.67775
  -0.05497   0.90004  -4.43833
  -0.29439   1.13946  -3.95949
  -0.05497   1.13946  -3.48065
  -0.29439   1.37888  -3.24123
  -0.29439   1.13946  -2.76240
  -0.53381   1.61830  -2.52298
  -0.29439   1.37888  -2.04414
  -0.29439   1.61830  -1.80472
  -0.29439   1.37888  -1.32588
  -0.29439   1.61830  -1.08646
   0.18444   1.37888  -0.60763
  -0.05497   1.37888  -0.36821
  -0.05497   1.37888   0.35005
   0.42386   0.90004   0.58947
   0.18444   0.90004   0.82889
   0.42386   0.66062   1.06831
   0.66328   0.42120   1.06831
   0.90270  -0.05764   1.30773
   0.66328   0.18178   1.30773
   1.14212  -0.53647   2.02598
   0.90270  -0.53647   1.78656
   0.90270  -1.01531   2.02598
   1.14212  -0.77589   2.02598
   0.90270  -1.25473   2.02598
   0.66328  -1.49415   2.26540
   0.90270  -1.25473   2.02598
   0.66328  -1.73357   2.50482
   0.66328  -1.73357   2.26540
   0.42386  -1.73357   2.26540
   0.66328  -1.97299   2.50482
   0.66328  -1.97299   2.02598
   0.42386  -1.97299   2.50482
   0.66328  -2.21241   2.26540
   0.66328  -1.97299   2.02598
   0.42386  -2.21241   2.26540
   0.66328  -1.97299   2.02598
   0.42386  -2.45183   2.50482
   0.66328  -2.45183   2.26540
   0.42386  -2.21241   2.26540
   0.42386  -1.97299   2.26540
   0.42386  -1.97299   2.26540
   0.18444  -1.73357   2.02598
   0.42386  -1.01531   2.02598
   0.66328  -1.01531   2.02598
   0.66328  -0.77589   1.78656
   0.66328  -0.29705   1.54715
   1.14212  -0.29705   1.78656
   1.14212  -0.05764   1.54715
   1.38154   0.18178   1.78656
   1.38154   0.66062   1.30773
   1.62096   0.42120   1.78656
   1.38154   0.66062   1.78656
   1.62096   0.66062   1.78656
   1.86038   0.42120   1.78656
   1.62096   0.66062   2.02598
   1.62096   0.66062   1.78656
   1.86038   0.90004   1.78656
   1.62096   0.90004   2.02598
   1.86038   1.13946   2.26540
   1.62096   0.90004   2.50482
   1.62096   0.66062   2.74424
   1.62096   1.13946   2.98366
   1.38154   1.13946   3.22308
   1.38154   0.66062   3.70192
   0.90270   0.90004   3.70192
   1.38154   0.90004   3.94133
   0.90270   0.90004   4.18075
   1.14212   0.42120   4.42017
   0.66328   0.90004   4.65959
   0.90270   0.66062   4.89901
   0.66328   0.42120   5.13843
   0.66328   0.66062   5.37785
   0.90270   0.42120   5.13843
   0.90270   0.42120   5.37785
