********************************************************************************
               CENTRO DE INSTRUMENTACION Y REGISTRO SISMICO  A.C.  
                       Coordinacion de Servicios Tecnicos
     Anaxagoras 814, Col. Narvarte, Benito Juarez, C.P. 03020 Mexico, D.F.
            Tels. 687 45 42/ 687 45  82             Fax. 669 25 12
********************************************************************************
ARCHIVO ESTANDAR DE ACELERACION:
VERSION DEL FORMATO                    : 2.0
NOMBRE DEL ARCHIVO                     : AP689305.151
FECHA Y HORA DE CREACION               : 96/01/10  13:18:21
REF. CATALOGO ACELEROGRAMAS, SMIS 1995 : REGISTRO No. 4226 /PAG. 386


================================================================================
DATOS DE LA ESTACION:
NOMBRE DE LA ESTACION                  : APATLACO
CLAVE DE LA ESTACION                   : AP68
LOCALIZACION DE LA ESTACION            : Jardin de Ni¤os Juan Bautista de la
                                       : Salle Canal de Apatlaco y Ahuehuetes,
                                       : Col. Iztacalco Infonavit, Iztacalco
                                       : 
                                       :
COORDENADAS DE LA ESTACION             : 19.381 LAT. N 
                                       : 99.107 LONG. W 
ALTITUD (msnm)                         : 2232
TIPO DE SUELO                          : ARCILLOSO, ZONA LAGO
                                       : 
                                       : 
INSTITUCION RESPONSABLE                : CIRES
                                       :

================================================================================
DATOS DEL ACELEROGRAFO:
MODELO DEL ACELEROGRAFO                : DCA-333
NUMERO DE SERIE DEL ACELEROGRAFO       : 255
NUMERO DE CANALES                      : 3
ORIENTACION C1-C6 (rumbo;orientacion)  : /N00E/+V/N90W
ORIENTACION C7-C12 (rumbo;orientacion) :
VEL. DE MUESTREO, C1-C6 (muestras/s)   : /100/100/100
VEL. DE MUESTREO, C7-C12 (muestras/s)  :
ESC. COMPLETA DE SENSORES, C1-C6, (g)  : /0.5/0.5/0.5
ESC. COMPLETA DE SENSORES, C7-C12, (g) :
FREC. NAT. DE SENSORES, C1-C6, (Hz)    : /30/30/30
FREC. NAT. DE SENSORES, C7-C12, (Hz)   :
AMORTIGUAMIENTO DE SENSORES, C1-C6     : /0.780/0.700/0.678
AMORTIGUAMIENTO DE SENSORES, C7-C12    :
INTERVALO DE MUESTREO, C1-C6, (s)      : /0.01/0.01/0.01
INTERVALO DE MUESTREO, C7-C12, (s)     :
UMBRAL DE DISPARO, C1-C6, (Gal)        : /3.4/3.4/3.4
UMBRAL DE DISPARO, C7-C12, (Gal)       :
MEMORIA DE PREEVENTO (s)               : 4 
TIEMPO DE POSEVENTO (s)                : 15


================================================================================
DATOS DEL SISMO:
FECHA DEL SISMO (GMT)                  : 15/MAY/93
HORA EPICENTRO (GMT)                   : 03:09:39,4 
MAGNITUD(ES)                           : /Mb=5.80/Ms=5.80/Mc=5.80
COORDENADAS DEL EPICENTRO              : 16.430 LAT. N 
                                       : 98.740 LONG. W 
PROFUNDIDAD FOCAL (km)                 : < 5
FUENTE DE LOS DATOS EPICENTRALES       : INSTITUTO DE INGENIERIA UNAM
                                       : INSTITUTO DE GEOFISICA, UNAM

================================================================================
DATOS DE ESTE REGISTRO:
HORA DE LA PRIMERA MUESTRA (GMT)       : 03:14:36.81
EXACTITUD DEL TIEMPO (s)               : 0.01
DURACION DEL REGISTRO (s), C1-C6       : /37.60/37.60/37.60
DURACION DEL REGISTRO (s), C7-C12      :
NUM. TOTAL DE MUESTRAS, C1-C6          : /3760/3760/3760
NUM. TOTAL DE MUESTRAS, C7-C12         :
ACEL. MAX. (Gal), C1-C6                : /4.31/1.46/3.62
ACEL. MAX., C1-C6, EN LA MUESTRA       :
ACEL. MAX. (Gal), C7-C12               :
ACEL. MAX., C7-C12, EN LA MUESTRA      :
UNIDADES DE LOS DATOS                  : Gal (cm/s/s)
FACTOR DE DECIMACION                   : 1
FORMATO DATOS (FORTRAN,10 campos/dato) : 3F10.2


================================================================================
CALIDAD DEL ACELEROGRAMA:
REGISTRO DIGITAL COMPLETO, CON TIEMPO ABSOLUTO CORRECTO.


================================================================================
COMENTARIOS:














================================================================================
DATOS DE ACELERACION:
---------+---------+---------+---------+---------+---------+---------+---------+
   CANAL-1   CANAL-2   CANAL-3   CANAL-4   CANAL-5   CANAL-6   CANAL-7   CANAL-8
      N00E        +V      N90W
---------+---------+---------+---------+---------+---------+---------+---------+
[...]
     -2.16      0.74      0.51
     -2.16      0.74      0.51
     -2.16      0.74      0.51
     -2.16      0.74      0.51
     -2.16      0.74      0.51
     -2.16      0.74      0.75
     -2.16      0.74      0.75
     -2.16      0.50      0.51
     -2.16      0.50      0.51
     -2.40      0.50      0.51
     -2.40      0.50      0.51
     -2.64      0.26      0.51
     -2.64      0.26      0.51
     -2.64      0.26      0.51
     -2.88      0.26      0.51
     -2.88      0.02      0.51
     -2.88      0.02      0.51
     -3.12      0.02      0.51
     -3.36     -0.22      0.27
     -3.36     -0.22      0.27
     -3.60     -0.22      0.27
     -3.60     -0.22      0.27
     -3.60     -0.22      0.27
     -3.84     -0.22      0.03
     -3.84     -0.22      0.03
     -3.84     -0.22      0.03
     -3.84     -0.22      0.03
     -3.84     -0.22      0.03
     -3.84     -0.22      0.03
     -3.84     -0.22      0.03
     -3.84     -0.22      0.03
     -3.60     -0.22     -0.21
     -3.60     -0.22     -0.21
     -3.60      0.02     -0.21
     -3.36     -0.22     -0.21
     -3.36      0.02     -0.45
     -3.12      0.02     -0.45
     -3.12      0.02     -0.45
     -2.88      0.02     -0.69
     -2.88      0.02     -0.69
     -2.64      0.26     -0.69
     -2.64      0.26     -0.69
     -2.64      0.26     -0.69
     -2.40      0.26     -0.93
     -2.40      0.50     -0.93
     -2.40      0.50     -0.93
     -2.16      0.50     -0.93
     -2.16      0.50     -0.93
     -2.16      0.50     -0.93
     -2.16      0.50     -0.93
     -2.16      0.50     -0.93
     -2.16      0.50     -0.93
     -2.16      0.26     -0.69
     -2.16      0.26     -0.69
     -2.16      0.26     -0.69
     -2.16      0.26     -0.45
     -2.16      0.26     -0.45
     -2.16      0.26     -0.21
     -2.16      0.26     -0.21
     -2.16      0.02     -0.21
     -2.16      0.02      0.03
     -2.16      0.02      0.03
     -2.16      0.02      0.03
     -1.92      0.02      0.03
     -1.92      0.02      0.03
     -1.92     -0.22      0.03
     -1.92     -0.22      0.27
     -1.68     -0.22      0.27
     -1.68     -0.22      0.27
     -1.68     -0.22      0.27
     -1.44     -0.22      0.27
     -1.44     -0.22      0.27
     -1.44     -0.22      0.27
     -1.44     -0.22      0.27
     -1.44     -0.22      0.27
     -1.44     -0.22      0.27
     -1.44     -0.22      0.27
     -1.44     -0.22      0.03
     -1.44     -0.22      0.03
     -1.20     -0.22      0.03
     -1.20     -0.22      0.03
     -1.20      0.02      0.03
     -1.20      0.02      0.03
     -1.20      0.02      0.03
     -1.20      0.02      0.03
     -1.20      0.02      0.03
     -1.20      0.02      0.03
     -0.96      0.02     -0.21
     -0.96      0.02     -0.21
     -0.96      0.02     -0.21
     -1.20      0.02     -0.21
     -0.96      0.02     -0.21
     -1.20      0.02     -0.21
     -0.96      0.02     -0.21
     -0.96      0.26     -0.21
     -0.96      0.26     -0.21
     -0.96      0.26      0.03
     -0.96      0.26      0.03
     -0.96      0.26      0.03
     -0.96      0.26      0.03
     -0.96      0.26      0.03
     -0.96      0.26      0.03
     -0.96      0.26      0.03
     -0.96      0.50      0.27
     -0.72      0.50      0.27
     -0.72      0.50      0.27
     -0.72      0.50      0.51
     -0.48      0.50      0.51
     -0.48      0.50      0.51
     -0.48      0.50      0.51
     -0.48      0.50      0.51
     -0.24      0.26      0.51
     -0.01      0.26      0.51
     -0.01      0.26      0.27
      0.23      0.26      0.27
      0.47      0.02      0.27
      0.47      0.02      0.03
      0.71      0.02      0.03
      0.95     -0.22      0.03
      0.95     -0.22      0.03
      0.95     -0.22     -0.21
      1.19     -0.22     -0.21
      1.19     -0.22     -0.21
      1.19     -0.22     -0.45
      1.19     -0.22     -0.45
      1.43     -0.22     -0.45
      1.43     -0.22     -0.45
      1.43     -0.22     -0.45
      1.43     -0.22     -0.45
      1.43     -0.22     -0.45
      1.43      0.02     -0.45
      1.43      0.02     -0.45
      1.43      0.02     -0.45
      1.43      0.02     -0.45
      1.43      0.02     -0.45
      1.43      0.02     -0.45
      1.43      0.02     -0.45
      1.43      0.02     -0.69
      1.43      0.02     -0.69
      1.43      0.26     -0.69
      1.43      0.26     -0.69
      1.43      0.26     -0.93
      1.43      0.26     -0.93
      1.43      0.26     -0.93
      1.43      0.50     -0.93
      1.43      0.50     -0.93
      1.43      0.50     -0.93
      1.67      0.50     -0.93
      1.67      0.74     -0.69
      1.67      0.74     -0.69
      1.67      0.74     -0.69
      1.67      0.74     -0.69
      1.67      0.74     -0.69
      1.91      0.98     -0.69
      1.91      0.98     -0.45
      1.91      0.98     -0.45
      2.15      0.98     -0.45
      2.15      0.98     -0.45
      2.15      0.98     -0.21
      2.39      0.98     -0.21
      2.39      0.98     -0.21
      2.39      0.98     -0.21
      2.39      0.98      0.03
      2.63      0.98      0.03
      2.63      0.98      0.03
      2.63      0.74      0.03
      2.63      0.74      0.03
      2.63      0.50      0.03
      2.63      0.50      0.03
      2.63      0.26      0.03
      2.63      0.26      0.03
      2.63      0.02      0.27
      2.63      0.02      0.27
      2.39     -0.22      0.27
      2.39     -0.22      0.27
      2.39     -0.46      0.27
      2.39     -0.69      0.27
      2.39     -0.69      0.51
      2.63     -0.93      0.51
      2.63     -0.93      0.51
      2.63     -1.17      0.51
      2.87     -1.17      0.75
      2.87     -1.41      0.75
      2.87     -1.41      0.75
      2.87     -1.41      0.75
      3.11     -1.41      0.75
      3.11     -1.41      0.75
      3.11     -1.41      0.75
      3.11     -1.41      0.75
      3.11     -1.41      0.75
      3.11     -1.41      0.75
      3.11     -1.17      0.51
      3.11     -1.17      0.51
      3.11     -1.17      0.27
      3.11     -0.93      0.27
      3.11     -0.93      0.27
      3.11     -0.69      0.03
      3.11     -0.46      0.03
      3.11     -0.46      0.03
      3.35     -0.22      0.03
      3.35     -0.22      0.03
      3.35      0.02     -0.21
      3.11      0.02     -0.21
      3.11      0.26     -0.21
      3.11      0.26     -0.45
      3.35      0.26     -0.45
      3.11      0.50     -0.69
      3.11      0.50     -0.69
      3.11      0.50     -0.69
      3.11      0.74     -0.69
      3.11      0.74     -0.93
      3.11      0.74     -0.93
      2.87      0.74     -0.93
      2.87      0.74     -0.93
      2.63      0.74     -0.93
      2.39      0.74     -0.93
      2.39      0.74     -0.69
      2.15      0.74     -0.69
      1.91      0.50     -0.69
      1.91      0.50     -0.45
      1.67      0.50     -0.45
      1.43      0.26     -0.21
      1.43      0.26      0.03
      1.19      0.26      0.03
      1.19      0.26      0.03
      0.95      0.02      0.27
      0.95      0.02      0.51
      0.71     -0.22      0.75
      0.71     -0.22      0.75
      0.71     -0.22      0.99
      0.71     -0.46      1.23
      0.71     -0.46      1.23
      0.71     -0.46      1.23
      0.71     -0.46      1.23
      0.71     -0.69      1.23
      0.71     -0.69      1.23
      0.71     -0.69      1.23
      0.95     -0.69      1.23
      0.95     -0.69      0.99
      0.95     -0.69      0.75
      1.19     -0.69      0.75
      1.19     -0.69      0.51
      1.43     -0.69      0.51
      1.43     -0.69      0.27
      1.67     -0.69      0.27
      1.67     -0.69      0.03
      1.91     -0.69      0.03
      1.91     -0.69      0.03
      1.91     -0.46     -0.21
      2.15     -0.46     -0.21
      2.15     -0.46     -0.45
      2.39     -0.46     -0.45
      2.15     -0.46     -0.69
      2.39     -0.46     -0.69
      2.39     -0.22     -0.69
      2.15     -0.22     -0.69
      2.15     -0.22     -0.93
      2.15     -0.22     -0.93
      1.91     -0.22     -0.93
      1.67      0.02     -0.93
      1.67      0.02     -0.69
      1.43      0.02     -0.69
      1.43      0.02     -0.69
      1.19      0.02     -0.69
      1.19      0.02     -0.45
      0.95      0.26     -0.45
      0.71      0.26     -0.21
      0.47      0.26     -0.21
      0.47      0.26     -0.21
      0.23      0.26     -0.21
     -0.01      0.26     -0.21
     -0.01      0.26      0.03
     -0.24      0.26      0.03
     -0.24      0.50      0.03
     -0.48      0.26      0.03
     -0.48      0.26     -0.21
     -0.48      0.26     -0.21
     -0.48      0.26     -0.21
     -0.48      0.26     -0.21
     -0.72      0.26     -0.21
     -0.96      0.02     -0.21
     -0.96      0.02     -0.21
     -0.96      0.02     -0.21
     -1.20      0.02     -0.21
     -1.20      0.02     -0.21
     -1.20      0.02     -0.45
     -1.44      0.02     -0.45
     -1.44      0.02     -0.45
     -1.68      0.02     -0.45
     -1.68      0.02     -0.45
     -1.68      0.02     -0.45
     -1.92      0.02     -0.45
     -1.92      0.02     -0.45
     -2.16      0.02     -0.45
     -2.16      0.02     -0.45
     -2.16      0.02     -0.45
     -2.16      0.02     -0.45
     -2.16      0.02     -0.45
     -2.16      0.26     -0.45
     -2.40      0.26     -0.45
     -2.40      0.26     -0.45
     -2.40      0.26     -0.21
     -2.40      0.26     -0.21
     -2.40      0.02     -0.21
     -2.40      0.02      0.03
     -2.40      0.02      0.03
     -2.40      0.02      0.03
     -2.40      0.02      0.03
     -2.16      0.02      0.03
     -2.16      0.02      0.27
     -2.16      0.02      0.27
     -2.16      0.02      0.27
     -2.16      0.02      0.51
     -2.16      0.02      0.51
     -2.16      0.02      0.51
     -2.16     -0.22      0.51
     -2.16     -0.22      0.75
     -2.16     -0.22      0.75
     -2.16     -0.22      0.75
     -2.16     -0.22      0.75
     -2.16     -0.22      0.75
     -2.16     -0.22      0.75
     -2.16     -0.22      0.75
     -2.16     -0.22      0.75
     -2.16     -0.22      0.51
     -2.16     -0.22      0.51
     -2.16     -0.22      0.51
     -2.16     -0.22      0.51
     -2.16     -0.22      0.51
     -2.16     -0.22      0.51
     -2.40     -0.22      0.51
     -2.40     -0.22      0.27
     -2.64     -0.46      0.27
     -2.64     -0.46      0.27
     -2.64     -0.46      0.03
     -2.88     -0.46      0.03
     -2.88     -0.46      0.03
     -3.12     -0.46      0.03
     -3.12     -0.46      0.03
     -3.36     -0.46     -0.21
     -3.36     -0.46     -0.21
     -3.60     -0.46     -0.45
     -3.84     -0.46     -0.45
     -3.84     -0.46     -0.69
     -3.84     -0.22     -0.69
     -4.08     -0.22     -0.93
     -4.08     -0.22     -0.93
     -4.08     -0.22     -1.17
     -4.31      0.02     -1.17
     -4.31      0.02     -1.17
     -4.31      0.02     -1.17
     -4.31      0.02     -1.17
     -4.31      0.26     -1.17
     -4.08      0.26     -1.17
     -4.08      0.26     -1.17
     -4.08      0.26     -0.93
     -4.08      0.26     -0.93
     -3.84      0.50     -0.93
     -3.84      0.50     -0.69
     -3.60      0.50     -0.69
     -3.36      0.50     -0.45
     -3.12      0.50     -0.45
     -2.88      0.50     -0.45
     -2.64      0.50     -0.21
     -2.40      0.50     -0.21
     -2.16      0.50     -0.21
     -2.16      0.50      0.03
     -1.92      0.50      0.03
     -1.68      0.50      0.03
     -1.68      0.26      0.03
     -1.44      0.26      0.03
     -1.44      0.26      0.03
     -1.44      0.26      0.03
     -1.44      0.26      0.27
     -1.44      0.26      0.27
     -1.44      0.02      0.27
     -1.44      0.02      0.27
     -1.44      0.02      0.51
     -1.44     -0.22      0.51
     -1.44     -0.22      0.51
     -1.44     -0.22      0.75
     -1.44     -0.46      0.75
     -1.44     -0.46      0.75
     -1.44     -0.69      0.75
     -1.44     -0.69      0.99
     -1.44     -0.69      0.99
     -1.44     -0.93      0.99
     -1.20     -0.93      1.23
     -1.20     -0.93      1.23
     -1.20     -0.93      1.23
     -1.20     -0.93      1.23
     -1.20     -0.93      1.23
     -0.96     -0.93      1.23
     -0.96     -0.93      1.23
     -0.72     -0.93      1.23
     -0.72     -0.93      0.99
     -0.72     -0.93      0.99
     -0.48     -0.69      0.99
     -0.48     -0.69      0.99
     -0.48     -0.69      0.99
     -0.48     -0.46      0.75
     -0.48     -0.46      0.75
     -0.48     -0.22      0.75
     -0.48     -0.22      0.75
     -0.48     -0.22      0.75
     -0.24      0.02      0.51
     -0.24      0.02      0.51
     -0.24      0.26      0.51
     -0.24      0.26      0.51
     -0.24      0.50      0.51
     -0.01      0.50      0.51
     -0.01      0.50      0.51
     -0.24      0.74      0.27
     -0.01      0.74      0.27
     -0.01      0.74      0.27
      0.23      0.74      0.27
      0.23      0.74      0.03
      0.23      0.74      0.27
      0.23      0.74      0.03
      0.23      0.74      0.03
      0.23      0.74      0.03
      0.23      0.74      0.03
      0.47      0.74      0.03
      0.47      0.74      0.03
      0.47      0.74      0.03
      0.71      0.74      0.03
      0.71      0.74      0.03
      0.71      0.74      0.03
      0.95      0.74      0.03
      0.95      0.50      0.03
      0.95      0.50      0.03
      1.19      0.50      0.03
      1.19      0.50      0.03
      1.19      0.50      0.03
      1.43      0.50      0.03
      1.43      0.50      0.03
      1.43      0.26      0.03
      1.43      0.50      0.03
      1.67      0.50      0.03
      1.67      0.50      0.03
      1.67      0.50      0.03
      1.67      0.50      0.03
      1.91      0.50      0.03
      1.91      0.50      0.03
      1.91      0.50      0.03
      1.91      0.50      0.03
      1.91      0.50      0.03
      1.91      0.50      0.03
      1.91      0.50      0.03
      1.91      0.50      0.03
      2.15      0.26      0.03
      2.15      0.26      0.03
      2.15      0.26      0.27
      2.15      0.26      0.27
      2.15      0.26      0.27
      2.15      0.02      0.27
      2.15      0.02      0.51
      2.15      0.02      0.51
      2.15      0.02      0.51
      2.15      0.02      0.51
      2.15      0.02      0.27
      2.15     -0.22      0.27
      2.15     -0.22      0.27
      2.15     -0.22      0.27
      2.15     -0.22      0.27
      2.15     -0.22      0.27
      2.15     -0.22      0.27
      2.15     -0.22      0.27
      2.15     -0.22      0.03
      2.15     -0.22      0.03
      2.15     -0.46      0.03
      2.15     -0.22      0.03
      2.15     -0.22      0.03
      2.15     -0.22      0.03
      2.15     -0.22      0.03
      2.15     -0.22     -0.21
      2.15      0.02     -0.21
      2.15     -0.22     -0.21
      2.15      0.02     -0.21
      2.15      0.02     -0.21
      2.15      0.02     -0.21
      2.15      0.02     -0.21
      2.15      0.02     -0.21
      2.15      0.26     -0.21
      2.15      0.26      0.03
      2.15      0.26      0.03
      2.15      0.26      0.03
      2.15      0.26      0.03
      2.15      0.26      0.27
      2.15      0.50      0.27
      2.15      0.50      0.51
      1.91      0.50      0.51
      1.91      0.50      0.75
      1.91      0.50      0.75
      1.91      0.50      0.99
      1.91      0.50      0.99
      1.67      0.50      0.99
      1.67      0.26      1.23
