********************************************************************************
               CENTRO DE INSTRUMENTACION Y REGISTRO SISMICO  A.C.  
                       Coordinacion de Servicios Tecnicos
     Anaxagoras 814, Col. Narvarte, Benito Juarez, C.P. 03020 Mexico, D.F.
            Tels. 687 45 42/ 687 45  82             Fax. 669 25 12
********************************************************************************
ARCHIVO ESTANDAR DE ACELERACION:
VERSION DEL FORMATO                    : 2.0
NOMBRE DEL ARCHIVO                     : AP680007.211
FECHA Y HORA DE CREACION               : 12/JUL/04, 9:05
REF. CATALOGO ACELEROGRAMAS, SMIS 1996 : REGISTRO No.     /PAG.


================================================================================
DATOS DE LA ESTACION:
NOMBRE DE LA ESTACION                  : APATLACO
CLAVE DE LA ESTACION                   : AP68
LOCALIZACION DE LA ESTACION            : Jardin de Ni¤os Juan Bautista de la
                                       : Salle Canal de Apatlaco y Ahuehuetes,
                                       : Col Iztacalco Infonavit, Iztacalc
                                       : 
                                       :
COORDENADAS DE LA ESTACION             : 19.381 LAT. N 
                                       : 99.107 LONG. W 
ALTITUD (msnm)                         : 2232
TIPO DE SUELO                          : ARCILLOSO, ZONA LAGO
                                       : 
                                       : 
INSTITUCION RESPONSABLE                : CIRES
                                       :

================================================================================
DATOS DEL ACELEROGRAFO:
MODELO DEL ACELEROGRAFO                : RAD-851
NUMERO DE SERIE DEL ACELEROGRAFO       : 255
NUMERO DE CANALES                      : 3
ORIENTACION C1-C6 (rumbo;orientacion)  : /N00E/+V/N90W
ORIENTACION C7-C12 (rumbo;orientacion) :
VEL. DE MUESTREO, C1-C6 (muestras/s)   : /100/100/100
VEL. DE MUESTREO, C7-C12 (muestras/s)  :
ESC. COMPLETA DE SENSORES, C1-C6, (g)  : /0.5/0.5/0.5
ESC. COMPLETA DE SENSORES, C7-C12, (g) :
FREC. NAT. DE SENSORES, C1-C6, (Hz)    : /30/30/30
FREC. NAT. DE SENSORES, C7-C12, (Hz)   :
AMORTIGUAMIENTO DE SENSORES, C1-C6     : /0.780/0.700/0.678
AMORTIGUAMIENTO DE SENSORES, C7-C12    :
INTERVALO DE MUESTREO, C1-C6, (s)      : /0.01/0.01/0.01
INTERVALO DE MUESTREO, C7-C12, (s)     :
UMBRAL DE DISPARO, C1-C6, (Gal)        : /2.69/5.62/3.17
UMBRAL DE DISPARO, C7-C12, (Gal)       :
MEMORIA DE PREEVENTO (s)               : 24
TIEMPO DE POSEVENTO (s)                : 64


================================================================================
DATOS DEL SISMO:
FECHA DEL SISMO (GMT)                  : 21/JUL/00
HORA EPICENTRO (GMT)                   : 06:13:39:7
MAGNITUD(ES)                           : /Mb=5.4/Ms=5.1/Mc=5.4/Ma=5.5/Me=6.0
COORDENADAS DEL EPICENTRO              : 18.09 LAT. N
                                       : 98.97 LONG. W
PROFUNDIDAD FOCAL (km)                 : 48
FUENTE DE LOS DATOS EPICENTRALES       : SSN
                                       : INSTITUTO DE GEOFISICA, UNAM

================================================================================
DATOS DE ESTE REGISTRO:
HORA DE LA PRIMERA MUESTRA (GMT)       : 06:14:16.00
EXACTITUD DEL TIEMPO (s)               : 0.01
DURACION DEL REGISTRO (s), C1-C6       : /117.25/117.25/117.25
DURACION DEL REGISTRO (s), C7-C12      :
NUM. TOTAL DE MUESTRAS, C1-C6          : /11725/11725/11725
NUM. TOTAL DE MUESTRAS, C7-C12         :
ACEL. MAX. (Gal), C1-C6                : /23.16003/-10.19684/19.55380
ACEL. MAX., C1-C6, EN LA MUESTRA       :
ACEL. MAX. (Gal), C7-C12               :
ACEL. MAX., C7-C12, EN LA MUESTRA      :
UNIDADES DE LOS DATOS                  : Gal (cm/s/s)
FACTOR DE DECIMACION                   : 1
FORMATO DATOS (FORTRAN,10 campos/dato) : 3F10.5


================================================================================
CALIDAD DEL ACELEROGRAMA:
REGISTRO DIGITAL COMPLETO CON TIEMPO ABSOLUTO CORRECTO.


================================================================================
COMENTARIOS:














================================================================================
DATOS DE ACELERACION:
---------+---------+---------+---------+---------+---------+---------+---------+
   CANAL-1   CANAL-2   CANAL-3   CANAL-4   CANAL-5   CANAL-6   CANAL-7   CANAL-8
      N00E        +V      N90W
---------+---------+---------+---------+---------+---------+---------+---------+
[...]
  -1.73954  -0.85950  -1.75449
  -1.97896  -0.38066  -1.27565
  -1.73954  -0.14124  -1.03623
  -1.26070   0.33760  -1.27565
  -0.78186   0.57701  -1.27565
  -0.54244   0.57701  -1.27565
  -0.30303   0.33760  -1.27565
   0.17581  -0.85950  -1.27565
   0.17581  -1.33834  -1.03623
  -0.06361  -2.29601  -0.31797
   0.17581  -2.29601   0.16087
  -0.06361  -2.05659   0.40028
  -0.06361  -2.29601   0.63970
  -0.06361  -1.81717   0.63970
   0.89407  -1.57776   0.40028
   1.13349  -0.85950   0.63970
   1.37291   0.57701   1.11854
   1.85174   1.29527   1.35796
   1.37291   1.77411   1.11854
   1.37291   1.05585   0.87912
   0.89407   0.09818   1.11854
   0.89407  -1.57776   0.63970
   1.13349  -1.81717   0.40028
   0.89407  -1.33834   0.63970
   0.89407  -0.62008   0.87912
   0.89407   0.33760   0.87912
   1.37291   1.05585   0.40028
   1.13349   1.53469   0.87912
   1.37291   0.81643   0.63970
   1.61233   0.09818   0.40028
   1.85174  -0.85950   0.16087
   1.61233  -1.81717   0.40028
   1.61233  -2.05659   0.40028
   1.13349  -1.57776  -0.07855
   0.89407   0.09818  -0.31797
   0.89407   1.29527  -0.55739
   1.37291   2.25295  -1.03623
   1.61233   3.21062  -1.03623
   1.85174   3.68946  -1.03623
   2.33058   3.45004  -1.03623
   2.57000   2.49237  -1.27565
   2.33058   2.01353  -1.75449
   0.89407   1.77411  -1.75449
   0.65465   1.05585  -2.47274
   0.41523   0.33760  -2.71216
  -0.06361  -0.62008  -2.23332
  -0.30303  -1.33834  -1.99391
  -0.06361  -2.05659  -1.75449
  -0.06361  -1.33834  -1.75449
   0.41523  -0.14124  -1.03623
   0.17581   1.05585  -0.79681
   0.17581   1.53469  -1.03623
  -0.30303   1.77411  -1.03623
  -0.78186   1.29527  -0.79681
  -0.78186   0.81643  -1.03623
  -0.78186   0.81643  -0.55739
  -1.50012   0.33760  -0.07855
  -1.50012  -0.14124   0.16087
  -1.26070  -0.38066   0.63970
  -0.54244   0.09818   0.63970
  -0.06361   1.05585   0.87912
   0.41523   1.53469   0.63970
   0.65465   1.77411   0.16087
   0.65465   2.01353   0.40028
   1.13349   1.53469   0.40028
   1.37291   0.33760   0.40028
   1.13349  -1.33834   0.40028
   0.89407  -2.05659   0.63970
   0.65465  -2.77485   0.87912
   0.65465  -2.77485   0.40028
   0.65465  -2.05659   0.40028
   0.65465  -1.33834   0.63970
   0.65465  -0.85950   0.63970
   1.37291  -0.85950   0.63970
   1.61233  -0.62008   0.63970
   1.61233  -1.09892   0.87912
   1.37291  -1.81717   0.63970
   0.65465  -1.57776   0.63970
   0.41523  -2.05659   0.40028
   0.17581  -2.29601   0.63970
  -0.06361  -2.29601   0.40028
  -0.30303  -1.33834   0.40028
  -0.30303  -0.38066   0.16087
  -0.06361   0.81643   0.16087
   0.17581   1.53469  -0.07855
   0.17581   2.25295  -0.07855
  -0.06361   2.73179   0.16087
  -0.06361   2.73179   0.16087
  -0.06361   2.73179   0.16087
  -1.02128   2.73179   0.40028
  -1.02128   2.01353   0.63970
  -1.26070   1.29527   0.40028
  -1.50012   1.77411   0.63970
  -1.02128   2.49237   0.87912
  -1.02128   2.97120   0.40028
  -0.78186   2.97120  -0.31797
  -1.02128   2.01353  -0.07855
  -0.54244   0.33760  -0.07855
  -0.30303  -1.09892  -0.07855
   0.65465  -2.29601  -0.07855
   0.65465  -2.29601   0.16087
   0.65465  -3.25369   0.40028
   1.13349  -3.49311   0.16087
   1.13349  -2.53543   0.16087
   1.37291  -1.09892  -0.07855
   1.85174   1.05585  -0.07855
   2.57000   2.73179  -0.31797
   3.28826   3.92888  -0.55739
   3.76710   3.21062  -0.79681
   4.24593   2.01353  -1.27565
   4.24593  -0.14124  -1.75449
   4.00652  -2.77485  -2.23332
   3.76710  -4.21136  -2.71216
   3.52768  -5.16904  -3.19100
   3.28826  -5.40846  -2.95158
   3.04884  -4.21136  -2.71216
   3.04884  -3.01427  -3.19100
   2.80942  -2.53543  -3.19100
   2.80942  -3.01427  -2.95158
   3.04884  -3.01427  -2.47274
   3.52768  -2.77485  -2.47274
   3.04884  -1.81717  -2.71216
   2.33058  -1.33834  -1.99391
   1.85174  -1.57776  -1.51507
   0.41523  -2.05659  -1.27565
  -0.30303  -2.77485  -0.55739
  -1.26070  -3.25369   0.87912
  -1.73954  -3.25369   2.07622
  -2.45780  -2.53543   2.79447
  -3.41547  -1.33834   3.99157
  -3.89431  -0.85950   4.47041
  -4.37315  -0.14124   4.70982
  -5.09140   0.81643   4.47041
  -5.80966   2.73179   4.23099
  -5.80966   2.97120   3.99157
  -6.04908   2.73179   4.23099
  -5.80966   1.77411   3.99157
  -5.80966   1.53469   4.23099
  -5.80966   1.29527   3.75215
  -5.09140   1.05585   2.55505
  -4.61257   1.77411   1.59738
  -3.65489   2.73179   0.87912
  -2.93663   2.73179  -0.79681
  -1.50012   2.01353  -1.99391
  -0.30303   1.53469  -3.43042
   0.89407   1.29527  -3.90926
   2.57000   1.05585  -4.62751
   4.48535   0.09818  -4.86693
   5.44303   1.05585  -5.10635
   6.16129   2.01353  -5.58519
   7.59780   2.73179  -6.78228
   9.03431   2.73179  -7.97938
   9.75257   2.01353  -8.69764
  10.47083   0.57701  -9.41589
  11.18908  -0.62008 -10.61299
  12.14676  -1.81717 -11.09183
  12.62560  -2.29601 -10.61299
  12.86502  -1.81717 -10.37357
  12.14676  -1.09892 -10.13415
  11.42850   0.57701  -9.41589
  10.23141   1.77411  -8.45822
   9.27373   1.77411  -7.50054
   8.07664   0.57701  -6.78228
   7.35838  -1.09892  -5.34577
   6.40070  -3.49311  -3.90926
   5.44303  -5.16904  -2.71216
   4.00652  -5.64788  -1.27565
   2.80942  -5.40846   0.16087
   1.37291  -4.69020   1.83680
   0.41523  -3.25369   3.27331
  -0.54244  -1.33834   5.66750
  -1.26070  -0.62008   7.58285
  -1.50012  -0.62008   9.49820
  -1.97896  -1.09892  10.69530
  -2.93663  -1.33834  11.41356
  -3.89431  -0.85950  11.89239
  -4.37315  -0.85950  11.41356
  -5.57024  -0.38066  11.41356
  -7.48559  -0.38066  11.89239
  -8.92211  -0.14124  11.89239
  -9.16153   0.81643  12.13181
  -9.16153   2.01353  12.85007
  -9.40095   2.97120  13.80774
  -9.64036   2.97120  14.04716
 -10.83746   2.25295  13.80774
 -12.03455   0.81643  12.61065
 -13.23165  -0.14124  10.45588
 -13.94991  -0.38066   7.82227
 -14.90758   0.33760   5.18866
 -15.62584   0.57701   3.03389
 -15.62584  -0.38066   0.63970
 -15.62584  -0.85950  -1.03623
 -14.90758  -0.85950  -2.71216
 -13.71049   0.09818  -3.90926
 -12.51339   0.57701  -5.34577
 -11.55572   2.25295  -6.30345
 -10.59804   3.92888  -7.50054
  -9.40095   4.16830  -9.17647
  -7.72501   5.84423 -10.85241
  -6.28850   6.80191 -11.81008
  -4.61257   7.28075 -12.76776
  -3.65489   6.08365 -13.48601
  -2.45780   3.92888 -14.20427
  -2.21838   2.25295 -13.72543
  -2.45780   1.29527 -13.48601
  -1.97896   1.05585 -13.24660
  -1.97896   1.29527 -12.04950
  -1.50012   1.29527 -10.61299
  -0.78186   1.05585  -9.17647
   0.65465   0.81643  -7.73996
   1.85174   1.29527  -5.34577
   2.80942   1.05585  -2.71216
   3.04884  -0.14124  -0.07855
   2.57000  -0.85950   3.03389
   3.04884  -2.29601   6.38576
   3.28826  -3.01427   9.97704
   4.00652  -3.01427  13.08949
   4.24593  -1.57776  15.48368
   5.44303  -0.85950  17.63845
   6.16129  -0.85950  19.07496
   6.64012  -0.85950  19.55380
   7.11896  -1.57776  19.55380
   7.11896  -2.29601  19.07496
   7.59780  -3.49311  17.87787
   7.35838  -3.97194  17.39903
   7.11896  -4.21136  17.39903
   6.64012  -4.45078  16.92019
   6.40070  -4.45078  16.44135
   5.44303  -4.45078  15.24426
   4.96419  -4.21136  13.80774
   4.72477  -4.21136  11.41356
   4.72477  -3.73253   9.25878
   4.72477  -2.77485   7.58285
   4.72477  -2.29601   4.94924
   4.00652  -1.57776   2.55505
   3.28826  -1.09892   0.16087
   2.57000  -0.85950  -2.23332
   1.37291  -1.33834  -4.38809
  -0.78186  -2.77485  -6.78228
  -2.69722  -3.73253  -9.41589
  -5.09140  -4.45078 -12.28892
  -6.76734  -3.97194 -14.68311
  -7.48559  -2.29601 -16.83788
  -8.68269  -0.14124 -17.79556
  -9.40095   1.29527 -18.27439
  -9.64036   1.53469 -18.03497
 -10.11920   1.05585 -17.07730
 -11.07688   0.81643 -16.11962
 -11.31630   0.33760 -15.16195
 -11.55572   1.05585 -13.96485
 -12.03455   2.25295 -12.28892
 -12.99223   3.68946 -10.85241
 -12.99223   4.16830  -9.89473
 -12.75281   4.40772  -8.21880
 -11.55572   4.64714  -6.54287
  -9.40095   5.84423  -4.38809
  -6.52792   6.80191  -2.47274
  -3.89431   8.23842  -0.79681
  -1.73954   8.71726   1.59738
   0.65465   7.99900   3.03389
   2.33058   7.28075   4.47041
   4.72477   4.88656   5.66750
   5.68245   2.73179   7.10401
   6.64012   1.53469   8.06169
   7.11896   1.53469   9.25878
   7.83722   2.49237   9.97704
   9.27373   2.97120   9.97704
  10.23141   3.21062  10.21646
  10.71025   2.49237  10.21646
  11.18908   1.29527   9.01937
  11.42850  -0.14124   8.06169
  11.66792  -0.62008   6.62518
  10.71025  -0.38066   4.94924
   9.75257  -0.14124   3.27331
   8.55548  -0.85950   1.59738
   7.35838  -1.81717   0.40028
   6.40070  -3.01427  -0.55739
   6.16129  -4.21136  -1.75449
   5.68245  -4.92962  -2.23332
   4.96419  -5.40846  -2.95158
   4.24593  -6.12672  -2.95158
   3.76710  -6.36613  -4.14868
   3.04884  -6.12672  -5.10635
   2.33058  -6.12672  -6.30345
   1.61233  -5.88730  -7.73996
   1.13349  -5.88730  -9.41589
   0.41523  -5.88730 -10.85241
  -0.06361  -5.16904 -11.09183
  -0.30303  -4.92962 -11.09183
  -0.30303  -3.49311 -10.37357
   0.17581  -2.29601  -9.89473
   0.89407  -1.33834  -8.45822
   2.09116  -1.57776  -7.50054
   2.33058  -1.33834  -5.82461
   2.57000  -1.33834  -3.66984
   2.80942  -0.85950  -1.99391
   2.57000  -0.38066  -0.07855
   1.85174  -0.14124   2.55505
   1.13349  -0.14124   4.94924
   0.89407  -0.14124   7.34343
   1.13349  -0.14124   9.73762
   1.13349   0.09818  12.13181
   0.89407   1.29527  13.56833
   0.65465   1.77411  14.52600
   0.41523   2.49237  14.04716
   0.17581   2.73179  14.04716
  -0.30303   3.45004  13.56833
  -1.02128   4.64714  12.85007
  -2.21838   6.08365  13.08949
  -3.41547   6.32307  13.32891
  -5.09140   6.08365  13.32891
  -7.00676   5.84423  13.08949
  -8.68269   5.84423  12.13181
 -10.11920   5.12597  10.45588
 -10.83746   5.12597   8.30111
 -11.79514   5.84423   6.62518
 -12.27397   6.32307   4.70982
 -12.75281   6.32307   2.55505
 -13.23165   5.60481   1.11854
 -13.71049   4.40772  -0.31797
 -13.94991   3.21062  -1.75449
 -13.71049   1.77411  -2.71216
 -12.99223   1.29527  -3.43042
 -12.03455   1.05585  -4.38809
 -11.31630   1.29527  -5.34577
 -10.35862   1.77411  -6.78228
  -9.40095   2.01353  -7.50054
  -8.68269   2.01353  -7.50054
  -7.96443   2.01353  -7.97938
  -7.24618   2.73179  -8.45822
  -6.52792   2.73179  -8.69764
  -5.80966   1.05585  -8.69764
  -5.57024  -1.33834  -8.93705
  -4.85199  -3.01427  -9.17647
  -3.65489  -4.45078  -8.93705
  -2.45780  -5.40846  -8.45822
  -1.26070  -6.12672  -7.97938
   0.41523  -6.84497  -7.02170
   2.80942  -8.04207  -6.06403
   6.16129  -9.71800  -5.10635
   9.51315 -10.19684  -4.62751
  13.10444 -10.19684  -3.66984
  15.49862  -8.76032  -2.23332
  17.41398  -7.56323  -1.03623
  19.08991  -5.88730  -0.07855
  20.28700  -4.69020   1.11854
  21.24468  -3.49311   1.59738
  22.44177  -2.05659   2.07622
  23.16003  -0.14124   2.31564
  23.16003   1.53469   2.07622
  23.16003   2.97120   2.07622
  23.16003   3.45004   1.35796
  21.72352   3.21062   1.59738
  20.28700   2.01353   2.07622
  18.37165   0.57701   1.59738
  15.97746  -0.38066   1.83680
  14.54095  -1.57776   1.35796
  13.10444  -2.53543   1.35796
  11.90734  -3.01427   1.59738
  10.94966  -3.01427   1.83680
   9.51315  -3.01427   2.07622
   9.27373  -2.77485   2.31564
   8.31606  -1.09892   2.55505
   7.83722  -0.38066   2.55505
   7.83722   0.33760   2.55505
   7.35838   0.57701   2.79447
   6.64012   1.05585   2.55505
   5.92187   2.49237   2.79447
   5.44303   4.16830   2.79447
   4.24593   5.60481   2.55505
   2.80942   7.28075   2.31564
   1.13349   7.52016   2.55505
  -0.06361   7.28075   2.31564
  -1.02128   6.56249   2.55505
  -2.21838   5.36539   2.31564
  -3.17605   4.16830   1.59738
  -4.85199   2.97120   1.11854
  -6.04908   2.01353   0.87912
  -7.24618   1.05585   0.87912
  -8.68269   0.81643  -0.07855
  -9.16153   1.29527  -0.79681
  -8.68269   1.29527  -1.51507
  -7.72501   1.05585  -1.51507
  -6.52792   0.81643  -1.27565
  -5.09140   0.57701  -1.51507
  -4.13373   0.33760  -1.75449
  -3.65489   0.57701  -1.99391
  -2.93663   1.05585  -2.71216
  -2.69722   1.29527  -3.19100
  -2.69722   0.81643  -3.66984
  -1.97896  -0.38066  -4.14868
  -1.26070  -1.57776  -4.86693
  -0.78186  -1.33834  -4.86693
   0.41523  -1.57776  -5.58519
   1.13349  -2.05659  -5.82461
   0.89407  -2.53543  -6.54287
   0.41523  -3.25369  -7.73996
  -0.30303  -3.01427  -9.17647
  -0.30303  -2.77485 -10.85241
   0.17581  -2.29601 -11.81008
   0.17581  -2.05659 -11.57066
   0.89407  -1.81717 -11.33124
   1.37291  -0.85950 -10.13415
   2.57000  -0.62008  -9.17647
   3.28826  -0.38066  -7.97938
   3.52768  -0.62008  -6.54287
   3.76710  -0.85950  -4.86693
   3.76710  -1.09892  -2.71216
   3.76710  -1.33834  -1.03623
   3.04884  -1.57776   0.40028
   1.61233  -2.29601   1.11854
   0.41523  -3.49311   1.83680
  -0.78186  -4.21136   2.79447
  -1.50012  -4.21136   3.99157
  -3.41547  -3.49311   5.66750
  -4.37315  -3.01427   7.58285
  -5.80966  -2.77485   9.01937
  -7.24618  -2.05659  10.45588
  -8.20385  -1.57776  10.93472
  -8.68269   0.09818  10.93472
  -9.16153   1.77411  10.93472
  -9.64036   3.68946  10.93472
  -9.16153   4.16830   9.97704
  -8.68269   3.92888   8.77995
  -7.72501   3.45004   8.30111
  -6.52792   2.97120   7.58285
  -5.33082   2.25295   6.86460
  -4.37315   1.53469   6.38576
  -3.65489   0.81643   6.14634
  -2.93663   0.33760   5.18866
  -1.97896   0.09818   4.47041
  -1.02128   0.33760   3.51273
  -0.30303   0.81643   2.31564
   0.65465   0.33760   1.11854
   0.65465   0.33760   0.16087
   0.89407   0.33760  -0.55739
   1.61233   0.09818  -0.79681
   2.33058   0.09818  -1.03623
   2.57000   0.57701  -0.31797
   2.80942   0.57701   0.40028
   2.80942   0.81643   0.87912
   2.57000   0.81643   0.40028
   2.09116   0.57701  -0.55739
   1.37291   0.09818  -2.47274
   0.89407  -0.38066  -5.10635
  -0.06361  -1.09892  -7.50054
  -1.02128  -0.85950  -9.41589
  -2.21838  -0.85950 -10.61299
  -2.69722  -1.81717 -11.81008
  -3.89431  -2.77485 -12.28892
  -5.09140  -3.25369 -11.81008
  -5.80966  -3.49311 -11.33124
  -6.52792  -3.01427 -10.85241
  -6.52792  -2.05659 -10.85241
  -7.00676  -0.85950 -10.37357
  -7.48559  -0.38066  -9.89473
  -7.72501   0.33760  -9.41589
  -7.96443   1.05585  -8.69764
  -7.96443   1.29527  -7.97938
  -7.96443   1.05585  -6.54287
  -7.72501   1.77411  -5.34577
  -6.76734   2.49237  -3.66984
  -5.33082   2.25295  -2.71216
  -2.93663   2.01353  -1.99391
  -1.26070   1.77411  -2.23332
   0.41523   1.77411  -1.99391
   2.09116   1.53469  -2.47274
   3.52768   1.53469  -2.47274
   4.48535   1.77411  -1.51507
   5.44303   1.77411  -0.31797
   6.64012   1.53469   0.87912
   7.11896   0.81643   3.03389
   8.07664  -0.62008   5.42808
   9.03431  -2.29601   7.34343
   9.75257  -3.25369   8.54053
   9.99199  -3.49311   9.49820
  10.47083  -3.73253   9.73762
  10.47083  -3.97194   9.97704
   9.75257  -3.01427   9.97704
   9.27373  -2.77485  10.69530
   8.79489  -2.05659  11.89239
   8.31606  -2.29601  12.61065
   7.83722  -2.05659  13.32891
   7.59780  -3.01427  13.80774
   7.11896  -3.73253  13.32891
   6.40070  -3.49311  12.61065
   5.68245  -2.77485  10.69530
   4.96419  -2.29601   8.30111
   3.76710  -1.09892   5.42808
   2.57000  -0.14124   3.27331
   0.89407   0.09818   1.35796
  -0.54244   0.33760  -0.07855
  -2.45780   0.09818  -1.03623
  -4.13373  -0.85950  -1.27565
  -6.28850  -1.09892  -1.27565
  -7.96443  -1.09892  -1.75449
  -9.40095  -0.85950  -2.71216
 -10.35862   0.09818  -3.19100
