********************************************************************************
              CENTRO DE INSTRUMENTACION Y REGISTRO SISMICO  A.C.

    Anaxagoras 814, Col. Narvarte, Benito Juarez, C.P. 03020 Mexico, D.F.
           Tels. 5687 45 42/ 5687 45  82             Fax. 5669 25 12
********************************************************************************
ARCHIVO ESTANDAR DE ACELERACION:
VERSION DEL FORMATO                    : 2.0
NOMBRE DEL ARCHIVO                     : AP6819890310051951
FECHA Y HORA DE CREACION               : 30/ABR/18, 13:12
REF. CATALOGO ACELEROGRAMAS, SMIS 1996 : REGISTRO No.     /PAG.


================================================================================
DATOS DE LA ESTACION:
NOMBRE DE LA ESTACION                  : JARD�N DE NI�OS "JUAN B. DE LA SALLE"
CLAVE DE LA ESTACION                   : AP68
LOCALIZACION DE LA ESTACION            : Del. Iztapalapa, Col. Santa Mar�a      
                                       : Pur�sima Atlazolpa,  entre Canal de    
                                       : Apatlaco y Ahuehuetes.                 
                                       :                                        
                                       : 
COORDENADAS DE LA ESTACION             : 19.3809 LAT. N
                                       : 99.1068 LONG. W
ALTITUD (msnm)                         : 2232
TIPO DE SUELO                          : Arcilloso, zona lago                
                                       :                           
                                       : 
INSTITUCION RESPONSABLE                : CIRES
                                       : 

================================================================================
DATOS DEL ACELEROGRAFO:
MODELO DEL ACELEROGRAFO                : DCA-333
NUMERO DE SERIE DEL ACELEROGRAFO       : 255
NUMERO DE CANALES                      : 3
ORIENTACION C1-C6 (rumbo;orientacion)  : /N00E/+V/N90W
ORIENTACION C7-C12 (rumbo;orientacion) : 
VEL. DE MUESTREO, C1-C6 (muestras/s)   : /100/100/100
VEL. DE MUESTREO, C7-C12 (muestras/s)  : 
ESC. COMPLETA DE SENSORES, C1-C6, (g)  : /0.5/0.5/0.5
ESC. COMPLETA DE SENSORES, C7-C12, (g) : 
FREC. NAT. DE SENSORES, C1-C6, (Hz)    : /30/30/30
FREC. NAT. DE SENSORES, C7-C12, (Hz)   : 
AMORTIGUAMIENTO DE SENSORES, C1-C6     : /0.780/0.700/0.678
AMORTIGUAMIENTO DE SENSORES, C7-C12    : 
INTERVALO DE MUESTREO, C1-C6, (s)      : /0.01/0.01/0.01
INTERVALO DE MUESTREO, C7-C12, (s)     : 
UMBRAL DE DISPARO, C1-C6, (Gal)        : /3.42/7.32/7.32
UMBRAL DE DISPARO, C7-C12, (Gal)       : 
MEMORIA DE PREEVENTO (s)               : 4.0
TIEMPO DE POSEVENTO (s)                : 15.0


================================================================================
DATOS DEL SISMO:
FECHA DEL SISMO (GMT)                  : 10/MAR/89
HORA EPICENTRO (GMT)                   : 05:19:51.0
MAGNITUD(ES)                           : /Mc=5.0
COORDENADAS DEL EPICENTRO              : 17.44 LAT. N
                                       : 101.08 LONG. W
PROFUNDIDAD FOCAL (km)                 : 17
FUENTE DE LOS DATOS EPICENTRALES       : SSN
                                       : INSTITUTO DE GEOFISICA, UNAM

================================================================================
DATOS DE ESTE REGISTRO:
HORA DE LA PRIMERA MUESTRA (GMT)       : 05:21:33.03
EXACTITUD DEL TIEMPO (s)               : 0.01
DURACION DEL REGISTRO (s), C1-C6       : /15.59/15.59/15.59
DURACION DEL REGISTRO (s), C7-C12      : 
NUM. TOTAL DE MUESTRAS, C1-C6          : /1559/1559/1559
NUM. TOTAL DE MUESTRAS, C7-C12         : 
ACEL. MAX. (Gal), C1-C6                : /2.53902/1.30568/2.29515
ACEL. MAX., C1-C6, EN LA MUESTRA       : /132/330/860
ACEL. MAX. (Gal), C7-C12               : 
ACEL. MAX., C7-C12, EN LA MUESTRA      : 
UNIDADES DE LOS DATOS                  : Gal (cm/s/s)
FACTOR DE DECIMACION                   : 1
FORMATO DATOS (FORTRAN,10 campos/dato) : 3F10.5


================================================================================
CALIDAD DEL ACELEROGRAMA:
REGISTRO DIGITAL COMPLETO CON TIEMPO ABSOLUTO CORRECTO.


================================================================================
COMENTARIOS:














================================================================================
DATOS DE ACELERACION:
---------+---------+---------+---------+---------+---------+---------+---------+
   CANAL-1   CANAL-2   CANAL-3   CANAL-4   CANAL-5   CANAL-6   CANAL-7   CANAL-8
      N00E        +V      N90W
---------+---------+---------+---------+---------+---------+---------+---------+
  -1.34192   0.34800   0.57789
  -1.10250   0.34800   0.57789
  -1.10250   0.34800   0.57789
  -0.86308   0.34800   0.57789
  -0.86308   0.34800   0.33847
  -0.62366   0.58742   0.33847
  -0.62366   0.58742   0.09905
  -0.38424   0.58742   0.09905
  -0.38424   0.34800   0.09905
  -0.38424   0.34800  -0.14037
  -0.14482   0.10858  -0.14037
  -0.14482   0.10858  -0.14037
   0.09460   0.10858  -0.37979
   0.09460  -0.13084  -0.37979
   0.33402  -0.13084  -0.37979
   0.33402  -0.13084  -0.37979
   0.57344  -0.13084  -0.37979
   0.57344  -0.13084  -0.37979
   0.57344  -0.13084  -0.14037
   0.57344  -0.13084  -0.14037
   0.57344  -0.13084  -0.14037
   0.57344  -0.13084   0.09905
   0.57344  -0.37026   0.09905
   0.57344  -0.37026   0.33847
   0.57344  -0.37026   0.33847
   0.57344  -0.60968   0.33847
   0.81286  -0.60968   0.33847
   0.57344  -0.60968   0.57789
   0.57344  -0.60968   0.57789
   0.81286  -0.60968   0.57789
   0.81286  -0.60968   0.57789
   0.81286  -0.60968   0.81732
   0.81286  -0.60968   0.81732
   0.81286  -0.60968   0.81732
   0.81286  -0.60968   0.81732
   0.57344  -0.60968   0.57789
   0.57344  -0.60968   0.57789
   0.57344  -0.60968   0.33847
   0.57344  -0.60968   0.33847
   0.33402  -0.60968   0.33847
   0.33402  -0.60968   0.09905
   0.09460  -0.60968   0.09905
   0.09460  -0.60968  -0.14037
  -0.14482  -0.60968  -0.14037
  -0.14482  -0.37026  -0.14037
  -0.38424  -0.37026  -0.37979
  -0.38424  -0.37026  -0.61921
  -0.38424  -0.37026  -0.61921
  -0.38424  -0.37026  -0.61921
  -0.62366  -0.13084  -0.85863
  -0.62366  -0.13084  -0.85863
  -0.62366   0.10858  -0.85863
  -0.86308   0.10858  -0.85863
  -0.62366   0.10858  -0.85863
  -0.62366   0.34800  -0.85863
  -0.62366   0.34800  -0.85863
  -0.86308   0.58742  -0.85863
  -0.86308   0.58742  -0.85863
  -0.86308   0.58742  -0.85863
  -1.10250   0.58742  -0.61921
  -1.10250   0.58742  -0.61921
  -1.34192   0.58742  -0.37979
  -1.34192   0.58742  -0.37979
  -1.34192   0.58742  -0.37979
  -1.58134   0.58742  -0.14037
  -1.58134   0.58742  -0.14037
  -1.58134   0.34800   0.09905
  -1.58134   0.34800   0.09905
  -1.58134   0.34800   0.09905
  -1.58134   0.34800   0.33847
  -1.58134   0.10858   0.33847
  -1.34192   0.10858   0.33847
  -1.34192   0.10858   0.33847
  -1.34192  -0.13084   0.33847
  -1.10250  -0.13084   0.33847
  -1.10250  -0.13084   0.33847
  -0.86308  -0.37026   0.33847
  -0.86308  -0.37026   0.33847
  -0.62366  -0.37026   0.33847
  -0.62366  -0.37026   0.33847
  -0.38424  -0.37026   0.57789
  -0.38424  -0.60968   0.57789
  -0.14482  -0.60968   0.57789
  -0.14482  -0.60968   0.57789
   0.09460  -0.60968   0.57789
   0.09460  -0.60968   0.57789
   0.33402  -0.60968   0.57789
   0.33402  -0.60968   0.57789
   0.33402  -0.37026   0.57789
   0.33402  -0.37026   0.57789
   0.33402  -0.37026   0.57789
   0.33402  -0.37026   0.57789
   0.33402  -0.37026   0.57789
   0.33402  -0.37026   0.57789
   0.33402  -0.37026   0.81732
   0.33402  -0.37026   0.81732
   0.09460  -0.37026   0.81732
  -1.58134   0.34800   0.33847
  -1.58134   0.34800   0.33847
  -1.34192   0.34800   0.57789
   0.33402  -0.37026   0.81732
   0.09460  -0.13084   0.81732
   0.09460  -0.13084   0.81732
   0.09460  -0.13084   0.81732
   0.09460  -0.13084   0.81732
   0.33402   0.10858   0.81732
   0.09460   0.10858   0.81732
   0.09460   0.10858   0.81732
   0.09460   0.10858   0.81732
   0.09460   0.34800   1.05674
   0.09460   0.34800   0.81732
   0.09460   0.34800   0.81732
   0.09460   0.34800   0.81732
  -0.14482   0.34800   0.81732
  -0.14482   0.34800   0.81732
  -0.14482   0.58742   0.81732
  -0.38424   0.58742   0.57789
  -0.38424   0.58742   0.57789
  -0.62366   0.58742   0.57789
  -0.86308   0.58742   0.57789
  -0.86308   0.58742   0.57789
  -1.10250   0.58742   0.33847
  -1.34192   0.58742   0.33847
  -1.34192   0.58742   0.09905
  -1.58134   0.58742   0.09905
  -1.82076   0.58742  -0.14037
  -1.82076   0.58742  -0.14037
  -2.06018   0.58742  -0.14037
  -2.06018   0.58742  -0.37979
  -2.29960   0.58742  -0.37979
  -2.29960   0.58742  -0.37979
  -2.53902   0.34800  -0.37979
  -2.53902   0.58742  -0.14037
  -2.53902   0.34800  -0.14037
  -2.53902   0.34800  -0.14037
  -2.53902   0.34800  -0.14037
  -2.53902   0.34800  -0.14037
  -2.53902   0.34800  -0.14037
  -2.29960   0.34800  -0.14037
  -2.29960   0.10858  -0.14037
  -2.06018   0.10858  -0.14037
  -1.82076   0.10858  -0.14037
  -1.58134   0.10858  -0.14037
  -1.34192  -0.13084  -0.14037
  -1.10250  -0.13084  -0.37979
  -1.10250  -0.13084  -0.14037
  -0.86308  -0.13084  -0.14037
  -0.62366  -0.13084  -0.14037
  -0.14482  -0.37026  -0.14037
   0.09460  -0.37026  -0.14037
   0.33402  -0.37026  -0.14037
   0.57344  -0.37026  -0.14037
   0.81286  -0.37026  -0.14037
   1.05228  -0.37026  -0.14037
   1.29170  -0.37026  -0.14037
   1.29170  -0.37026  -0.14037
   1.53112  -0.37026  -0.14037
   1.77054  -0.37026  -0.14037
   1.77054  -0.37026  -0.14037
   2.00996  -0.37026  -0.14037
   2.00996  -0.37026  -0.14037
   2.24938  -0.37026  -0.14037
   2.24938  -0.37026  -0.14037
   2.24938  -0.60968  -0.14037
   2.24938  -0.37026  -0.14037
   2.00996  -0.60968  -0.37979
   2.00996  -0.60968  -0.37979
   2.00996  -0.60968  -0.37979
   2.00996  -0.60968  -0.37979
   1.77054  -0.37026  -0.37979
   1.77054  -0.37026  -0.37979
   1.77054  -0.37026  -0.37979
   1.77054  -0.37026  -0.61921
   1.53112  -0.37026  -0.61921
   1.53112  -0.37026  -0.61921
   1.53112  -0.37026  -0.61921
   1.29170  -0.37026  -0.61921
   1.29170  -0.37026  -0.61921
   1.29170  -0.37026  -0.85863
   1.29170  -0.37026  -0.85863
   1.29170  -0.37026  -0.85863
   1.05228  -0.37026  -0.85863
   1.05228  -0.13084  -0.85863
   0.81286  -0.37026  -0.85863
   0.81286  -0.13084  -0.85863
   0.57344  -0.13084  -0.85863
   0.57344   0.10858  -0.85863
   0.33402   0.10858  -0.85863
   0.09460   0.10858  -0.85863
  -0.14482   0.10858  -0.85863
  -0.38424   0.34800  -0.85863
  -0.62366   0.34800  -0.85863
  -0.86308   0.34800  -0.85863
  -1.10250   0.34800  -0.85863
  -1.34192   0.58742  -0.85863
  -1.34192   0.58742  -0.85863
  -1.58134   0.58742  -0.85863
  -1.82076   0.58742  -0.85863
  -1.82076   0.82684  -0.85863
  -2.06018   0.82684  -0.85863
  -2.06018   0.82684  -0.61921
  -2.06018   0.82684  -0.61921
  -2.06018   0.82684  -0.61921
  -2.06018   0.58742  -0.61921
  -1.82076   0.58742  -0.61921
  -1.82076   0.58742  -0.61921
  -1.58134   0.58742  -0.61921
  -1.58134   0.34800  -0.37979
  -1.34192   0.34800  -0.37979
  -1.10250   0.34800  -0.37979
  -0.86308   0.10858  -0.37979
  -0.86308   0.10858  -0.14037
  -0.62366   0.10858  -0.14037
  -0.38424   0.10858  -0.14037
  -0.38424  -0.13084   0.09905
  -0.14482  -0.13084   0.09905
   0.09460  -0.13084   0.09905
   0.09460  -0.13084   0.33847
   0.33402  -0.13084   0.33847
   0.33402  -0.13084   0.33847
   0.33402  -0.13084   0.33847
   0.33402  -0.13084   0.33847
   0.57344  -0.13084   0.57789
   0.57344  -0.13084   0.57789
   0.57344  -0.13084   0.57789
   0.57344  -0.37026   0.57789
   0.57344  -0.37026   0.57789
   0.57344  -0.37026   0.57789
   0.81286  -0.37026   0.57789
   0.81286  -0.37026   0.57789
   0.81286  -0.37026   0.57789
   0.81286  -0.37026   0.57789
   0.81286  -0.37026   0.57789
   1.05228  -0.37026   0.57789
   1.05228  -0.37026   0.57789
   1.05228  -0.37026   0.33847
   1.05228  -0.37026   0.33847
   1.29170  -0.37026   0.33847
   1.29170  -0.37026   0.33847
   1.29170  -0.37026   0.33847
   1.29170  -0.37026   0.33847
   1.29170  -0.37026   0.33847
   1.29170  -0.13084   0.33847
   1.29170  -0.13084   0.09905
   1.29170  -0.13084   0.09905
   1.29170  -0.13084  -0.14037
   1.29170  -0.13084  -0.14037
   1.29170   0.10858  -0.37979
   1.29170   0.10858  -0.37979
   1.29170   0.10858  -0.61921
   1.29170   0.34800  -0.61921
   1.29170   0.34800  -0.85863
   1.29170   0.34800  -0.85863
   1.29170   0.58742  -1.09805
   1.29170   0.58742  -1.33747
   1.05228   0.58742  -1.33747
   0.81286   0.82684  -1.33747
   0.57344   0.82684  -1.33747
   0.57344   0.82684  -1.33747
   0.33402   0.82684  -1.33747
   0.09460   0.82684  -1.33747
   0.09460   0.82684  -1.33747
  -0.14482   0.82684  -1.09805
  -0.38424   0.82684  -1.09805
  -0.38424   0.82684  -1.09805
  -0.38424   0.82684  -1.09805
  -0.62366   0.82684  -0.85863
  -0.62366   0.82684  -0.85863
  -0.62366   0.82684  -0.85863
  -0.62366   0.58742  -0.85863
  -0.62366   0.58742  -0.61921
  -0.62366   0.58742  -0.37979
  -0.38424   0.34800  -0.37979
  -0.38424   0.34800  -0.14037
  -0.38424   0.10858   0.09905
  -0.14482   0.10858   0.09905
  -0.14482  -0.13084   0.33847
   0.09460  -0.37026   0.33847
   0.09460  -0.37026   0.57789
   0.33402  -0.60968   0.57789
   0.57344  -0.60968   0.57789
   0.57344  -0.84910   0.81732
   0.81286  -0.84910   0.81732
   0.81286  -0.84910   0.81732
   1.05228  -0.84910   0.81732
   1.05228  -0.84910   0.81732
   1.29170  -0.84910   0.81732
   1.29170  -0.84910   0.81732
   1.29170  -1.08852   0.81732
   1.29170  -1.08852   0.81732
   1.29170  -1.08852   0.57789
   1.29170  -1.08852   0.57789
   1.29170  -1.08852   0.57789
   1.53112  -1.08852   0.33847
   1.53112  -1.08852   0.33847
   1.53112  -1.08852   0.09905
   1.77054  -1.08852   0.09905
   1.77054  -1.08852  -0.14037
   1.77054  -1.08852  -0.14037
   2.00996  -1.08852  -0.14037
   2.00996  -1.08852  -0.37979
   2.00996  -1.08852  -0.37979
   2.24938  -0.84910  -0.37979
   2.24938  -0.84910  -0.37979
   2.24938  -0.84910  -0.37979
   2.24938  -0.84910  -0.37979
   2.24938  -0.84910  -0.37979
   2.24938  -0.84910  -0.37979
   2.00996  -0.84910  -0.37979
   2.00996  -0.60968  -0.37979
   2.00996  -0.60968  -0.37979
   1.77054  -0.60968  -0.37979
   1.53112  -0.37026  -0.37979
   1.53112  -0.37026  -0.37979
   1.29170  -0.13084  -0.37979
   1.29170  -0.13084  -0.37979
   1.29170   0.10858  -0.37979
   1.05228   0.10858  -0.37979
   0.81286   0.34800  -0.37979
   0.57344   0.34800  -0.37979
   0.33402   0.34800  -0.37979
   0.09460   0.58742  -0.37979
  -0.14482   0.82684  -0.37979
  -0.38424   0.82684  -0.37979
  -0.62366   0.82684  -0.37979
  -0.86308   1.06626  -0.37979
  -1.10250   1.06626  -0.37979
  -1.34192   1.06626  -0.37979
  -1.34192   1.06626  -0.37979
  -1.58134   1.30568  -0.37979
  -1.82076   1.30568  -0.37979
  -2.06018   1.30568  -0.14037
  -2.06018   1.06626  -0.14037
  -2.29960   1.06626  -0.14037
  -2.29960   1.06626   0.09905
  -2.53902   0.82684   0.09905
  -2.53902   0.82684   0.09905
  -2.53902   0.82684   0.09905
  -2.53902   0.58742   0.09905
  -2.53902   0.58742   0.09905
  -2.53902   0.58742   0.09905
  -2.53902   0.58742   0.33847
  -2.29960   0.34800   0.33847
  -2.29960   0.34800   0.33847
  -2.29960   0.34800   0.33847
  -2.06018   0.34800   0.33847
  -2.06018   0.34800   0.33847
  -2.06018   0.10858   0.33847
  -1.82076   0.10858   0.57789
  -1.58134   0.10858   0.57789
  -1.58134   0.10858   0.57789
  -1.34192   0.10858   0.57789
  -1.10250   0.10858   0.81732
  -1.10250  -0.13084   0.81732
  -0.86308  -0.13084   1.05674
  -0.86308  -0.13084   1.05674
  -0.62366  -0.37026   1.29616
  -0.38424  -0.37026   1.29616
  -0.38424  -0.37026   1.29616
  -0.14482  -0.37026   1.29616
  -0.14482  -0.60968   1.29616
   0.09460  -0.60968   1.29616
   0.09460  -0.60968   1.29616
   0.09460  -0.60968   1.05674
   0.33402  -0.60968   1.05674
   0.33402  -0.60968   1.05674
   0.33402  -0.60968   0.81732
   0.33402  -0.60968   0.81732
   0.57344  -0.84910   0.57789
   0.57344  -0.60968   0.57789
   0.57344  -0.60968   0.33847
   0.57344  -0.60968   0.09905
   0.57344  -0.60968   0.09905
   0.33402  -0.60968  -0.14037
   0.33402  -0.60968  -0.14037
   0.33402  -0.60968  -0.37979
   0.33402  -0.37026  -0.37979
   0.09460  -0.37026  -0.37979
   0.09460  -0.37026  -0.61921
   0.09460  -0.37026  -0.61921
  -0.14482  -0.13084  -0.61921
  -0.14482  -0.13084  -0.61921
  -0.14482  -0.13084  -0.61921
  -0.14482  -0.13084  -0.61921
  -0.38424   0.10858  -0.61921
  -0.38424   0.10858  -0.61921
  -0.38424   0.10858  -0.61921
  -0.38424   0.10858  -0.61921
  -0.62366   0.10858  -0.61921
  -0.62366   0.10858  -0.61921
  -0.62366   0.34800  -0.37979
  -0.62366   0.34800  -0.37979
  -0.62366   0.34800  -0.37979
  -0.62366   0.34800  -0.14037
  -0.86308   0.34800  -0.14037
  -0.86308   0.34800  -0.14037
  -0.86308   0.34800   0.09905
  -0.86308   0.34800   0.09905
  -0.86308   0.34800   0.09905
  -1.10250   0.34800   0.09905
  -1.10250   0.34800   0.33847
  -1.10250   0.34800   0.33847
  -1.34192   0.10858   0.33847
  -1.34192   0.10858   0.33847
  -1.34192   0.10858   0.57789
  -1.34192   0.10858   0.57789
  -1.34192   0.10858   0.57789
  -1.34192   0.10858   0.57789
  -1.34192   0.10858   0.57789
  -1.34192   0.10858   0.57789
  -1.34192   0.10858   0.33847
  -1.10250   0.10858   0.57789
  -1.10250  -0.13084   0.57789
  -0.86308  -0.13084   0.33847
  -0.86308  -0.13084   0.33847
  -0.86308  -0.13084   0.33847
  -0.62366  -0.13084   0.33847
  -0.38424  -0.13084   0.33847
  -0.38424  -0.13084   0.33847
  -0.14482  -0.13084   0.33847
  -0.14482  -0.13084   0.33847
  -0.14482  -0.13084   0.33847
   0.09460  -0.37026   0.33847
   0.09460  -0.37026   0.33847
   0.09460  -0.37026   0.09905
   0.09460  -0.37026   0.09905
   0.09460  -0.37026  -0.14037
   0.09460  -0.37026  -0.14037
   0.09460  -0.37026  -0.14037
   0.33402  -0.37026  -0.14037
   0.33402  -0.37026  -0.14037
   0.33402  -0.37026   0.09905
   0.33402  -0.37026   0.09905
   0.33402  -0.13084   0.09905
   0.33402  -0.37026   0.09905
   0.33402  -0.37026   0.09905
   0.33402  -0.37026   0.09905
   0.09460  -0.13084   0.09905
   0.09460  -0.13084   0.09905
   0.09460  -0.13084   0.09905
   0.09460  -0.13084   0.09905
   0.09460  -0.13084   0.09905
   0.33402  -0.13084   0.09905
   0.09460   0.10858   0.09905
   0.09460   0.10858   0.33847
   0.09460   0.10858   0.09905
   0.09460   0.10858   0.33847
   0.09460   0.34800   0.09905
   0.09460   0.10858   0.09905
   0.09460   0.10858   0.33847
   0.33402   0.34800   0.33847
   0.33402   0.34800   0.33847
   0.33402   0.34800   0.33847
   0.33402   0.34800   0.33847
   0.33402   0.58742   0.33847
   0.33402   0.58742   0.33847
   0.33402   0.58742   0.33847
   0.33402   0.82684   0.33847
   0.09460   0.82684   0.33847
   0.09460   0.82684   0.33847
  -0.14482   0.82684   0.33847
  -0.14482   0.82684   0.57789
  -0.38424   0.82684   0.57789
  -0.62366   0.82684   0.57789
  -0.86308   0.82684   0.57789
  -1.10250   0.82684   0.57789
  -1.10250   0.82684   0.57789
  -1.34192   0.82684   0.57789
  -1.58134   0.58742   0.57789
  -1.58134   0.58742   0.81732
  -1.58134   0.58742   0.81732
  -1.58134   0.58742   0.81732
  -1.58134   0.58742   0.81732
  -1.58134   0.34800   0.81732
  -1.34192   0.34800   0.81732
  -1.34192   0.34800   0.81732
  -1.34192   0.34800   0.81732
  -1.10250   0.34800   0.57789
  -1.10250   0.34800   0.57789
  -0.86308   0.34800   0.57789
  -0.86308   0.34800   0.33847
  -0.62366   0.10858   0.33847
  -0.62366   0.10858   0.09905
  -0.38424   0.10858   0.09905
  -0.38424   0.10858  -0.14037
  -0.38424  -0.13084  -0.14037
  -0.14482  -0.13084  -0.14037
   0.09460  -0.13084  -0.37979
   0.09460  -0.13084  -0.37979
   0.33402  -0.13084  -0.37979
   0.33402  -0.13084  -0.37979
   0.33402  -0.13084  -0.37979
   0.33402  -0.37026  -0.37979
   0.57344  -0.37026  -0.37979
   0.57344  -0.37026  -0.37979
   0.57344  -0.37026  -0.37979
