********************************************************************************
              CENTRO DE INSTRUMENTACION Y REGISTRO SISMICO  A.C.

    Anaxagoras 814, Col. Narvarte, Benito Juarez, C.P. 03020 Mexico, D.F.
           Tels. 5687 45 42/ 5687 45  82             Fax. 5669 25 12
********************************************************************************
ARCHIVO ESTANDAR DE ACELERACION:
VERSION DEL FORMATO                    : 2.0
NOMBRE DEL ARCHIVO                     : AP6820140418142723
FECHA Y HORA DE CREACION               : 13/MAY/14, 13:00
REF. CATALOGO ACELEROGRAMAS, SMIS 1996 : REGISTRO No.     /PAG.


================================================================================
DATOS DE LA ESTACION:
NOMBRE DE LA ESTACION                  : JARDÍN DE NIÑOS "JUAN B. DE LA SALLE"
CLAVE DE LA ESTACION                   : AP68
LOCALIZACION DE LA ESTACION            : Del. Iztapalapa, Col. Santa María      
                                       : Purísima Atlazolpa,  entre Canal de    
                                       : Apatlaco y Ahuehuetes.                 
                                       :                                        
                                       : 
COORDENADAS DE LA ESTACION             : 19.3809 LAT. N
                                       : 99.1068 LONG. W
ALTITUD (msnm)                         : 2232
TIPO DE SUELO                          : Arcilloso, zona lago                
                                       :                           
                                       : 
INSTITUCION RESPONSABLE                : CIRES
                                       : 

================================================================================
DATOS DEL ACELEROGRAFO:
MODELO DEL ACELEROGRAFO                : RADESD
NUMERO DE SERIE DEL ACELEROGRAFO       : 255
NUMERO DE CANALES                      : 3
ORIENTACION C1-C6 (rumbo;orientacion)  : /N00E/+V/N90W
ORIENTACION C7-C12 (rumbo;orientacion) : 
VEL. DE MUESTREO, C1-C6 (muestras/s)   : /100/100/100
VEL. DE MUESTREO, C7-C12 (muestras/s)  : 
ESC. COMPLETA DE SENSORES, C1-C6, (g)  : /0.5/0.5/0.5
ESC. COMPLETA DE SENSORES, C7-C12, (g) : 
FREC. NAT. DE SENSORES, C1-C6, (Hz)    : /30/30/30
FREC. NAT. DE SENSORES, C7-C12, (Hz)   : 
AMORTIGUAMIENTO DE SENSORES, C1-C6     : /0.780/0.700/0.678
AMORTIGUAMIENTO DE SENSORES, C7-C12    : 
INTERVALO DE MUESTREO, C1-C6, (s)      : /0.01/0.01/0.01
INTERVALO DE MUESTREO, C7-C12, (s)     : 
UMBRAL DE DISPARO, C1-C6, (Gal)        : /3.67/6.73/5.01
UMBRAL DE DISPARO, C7-C12, (Gal)       : 
MEMORIA DE PREEVENTO (s)               : 44.0
TIEMPO DE POSEVENTO (s)                : 64.0


================================================================================
DATOS DEL SISMO:
FECHA DEL SISMO (GMT)                  : 18/ABR/14
HORA EPICENTRO (GMT)                   : 14:27:23.0
MAGNITUD(ES)                           : /Mc=7.2
COORDENADAS DEL EPICENTRO              : 17.18 LAT. N
                                       : 101.19 LONG. W
PROFUNDIDAD FOCAL (km)                 : 10
FUENTE DE LOS DATOS EPICENTRALES       : SSN
                                       : INSTITUTO DE GEOFISICA, UNAM

================================================================================
DATOS DE ESTE REGISTRO:
HORA DE LA PRIMERA MUESTRA (GMT)       : 14:28:46.00
EXACTITUD DEL TIEMPO (s)               : 0.01
DURACION DEL REGISTRO (s), C1-C6       : /303.2/303.2/303.2
DURACION DEL REGISTRO (s), C7-C12      : 
NUM. TOTAL DE MUESTRAS, C1-C6          : /30320/30320/30320
NUM. TOTAL DE MUESTRAS, C7-C12         : 
ACEL. MAX. (Gal), C1-C6                : /45.91747/15.20594/35.02185
ACEL. MAX., C1-C6, EN LA MUESTRA       : /8013/7558/7739
ACEL. MAX. (Gal), C7-C12               : 
ACEL. MAX., C7-C12, EN LA MUESTRA      : 
UNIDADES DE LOS DATOS                  : Gal (cm/s/s)
FACTOR DE DECIMACION                   : 1
FORMATO DATOS (FORTRAN,10 campos/dato) : 3F10.5


================================================================================
CALIDAD DEL ACELEROGRAMA:
REGISTRO DIGITAL COMPLETO CON TIEMPO ABSOLUTO CORRECTO.


================================================================================
COMENTARIOS:














================================================================================
DATOS DE ACELERACION:
---------+---------+---------+---------+---------+---------+---------+---------+
   CANAL-1   CANAL-2   CANAL-3   CANAL-4   CANAL-5   CANAL-6   CANAL-7   CANAL-8
      N00E        +V      N90W
---------+---------+---------+---------+---------+---------+---------+---------+
[...]
  24.65397  -1.40383 -21.76562
  24.89339  -0.58083 -22.12475
  24.90835   0.16736 -22.24446
  24.71382   0.82577 -22.30431
  24.17513   1.48417 -22.48388
  23.41197   2.15754 -22.48388
  22.51415   2.87580 -22.36417
  21.66121   3.44443 -22.48388
  20.59879   4.02801 -23.05250
  19.29694   4.76124 -24.01018
  17.99509   5.53935 -24.83319
  16.55857   6.37732 -25.26714
  14.77788   7.11055 -25.40181
  13.01216   7.76895 -25.59634
  11.47089   8.27772 -26.00036
  10.18401   8.77152 -26.15000
   8.95698   9.11569 -25.76094
   7.75988   9.45986 -25.28210
   6.44307   9.66935 -24.90801
   5.09633   9.68431 -24.66859
   3.97405   9.51971 -24.15982
   3.10615   9.37007 -23.32185
   2.37293   9.19051 -22.43899
   1.72948   8.69671 -21.55612
   1.43021   7.93355 -20.56852
   1.22072   7.21529 -19.44623
   1.34043   6.43718 -18.15935
   2.01380   5.47950 -16.72283
   3.24082   4.40211 -15.27135
   4.76713   3.30975 -13.78993
   6.35329   2.09769 -12.36838
   8.11901   0.79584 -11.02164
   9.97452  -0.47608 -10.07892
  11.74024  -1.74800  -9.49533
  13.50596  -2.98999  -9.13620
  15.07716  -3.96264  -8.80700
  16.39397  -4.87543  -8.52269
  17.75567  -5.63858  -8.50773
  19.08745  -6.35684  -8.46283
  20.37433  -7.09006  -8.43291
  21.55647  -7.89811  -8.40298
  22.58897  -8.60140  -8.56758
  23.44190  -9.15506  -8.97160
  24.10031  -9.39448  -9.51030
  24.75871  -9.46930 -10.27345
  25.43208  -9.45434 -11.21617
  25.98574  -9.37952 -12.14392
  26.34487  -9.12513 -12.77240
  26.46458  -8.76600 -13.11656
  26.41969  -8.52658 -13.17642
  26.18027  -8.16745 -12.86218
  25.82114  -7.79336 -12.20377
  25.49194  -7.40430 -11.18624
  25.20763  -7.09006  -9.73475
  24.81857  -6.70100  -7.92414
  24.22002  -6.25209  -5.75439
  23.57658  -5.93785  -3.44997
  22.87328  -5.68347  -0.95103
  22.14005  -5.39916   1.53296
  21.48165  -5.20463   4.06183
  20.73346  -5.05499   6.68049
  20.04513  -4.84550   9.52361
  19.55132  -4.57615  12.47147
  19.40169  -4.33673  15.55400
  19.59621  -3.87285  18.65150
  20.06009  -3.39401  21.74900
  20.79332  -2.97503  24.57715
  21.58639  -2.67575  27.06113
  22.25976  -2.40641  29.39548
  22.72364  -2.00238  31.41559
  23.15759  -1.65822  32.92693
  23.33715  -1.53851  33.94446
  23.24737  -1.50858  34.64776
  22.97802  -1.77793  35.02185
  22.55904  -2.27173  35.02185
  21.96049  -2.93014  34.73754
  21.24223  -3.70825  34.31856
  20.34440  -4.39659  33.82475
  19.34183  -5.14477  33.13642
  18.33926  -5.75829  32.25356
  17.32172  -6.23713  31.37070
  16.36404  -6.59626  30.20352
  15.46622  -6.88057  28.82686
  14.55343  -6.92546  27.40530
  13.79028  -6.92546  26.01367
  12.98223  -6.80575  24.68190
  12.08441  -6.64115  23.51472
  11.12673  -6.35684  22.63186
  10.09423  -5.84807  21.86871
   8.80734  -5.27945  21.35994
   7.50550  -4.69586  21.03074
   6.11387  -3.94767  20.86614
   4.64742  -3.16956  20.65664
   3.03133  -2.33159  20.46211
   1.38532  -1.64325  20.22269
  -0.30559  -1.02974  19.98327
  -1.92167  -0.56586  19.86356
  -3.40308  -0.05709  19.90846
  -4.66004   0.42175  20.04313
  -5.78232   1.09511  20.13291
  -6.74000   1.87323  20.11795
  -7.60790   2.56156  19.98327
  -8.37105   3.19004  19.74385
  -8.93968   3.72874  19.47451
  -9.40355   4.14772  19.22012
  -9.77765   4.58167  18.86099
 -10.09189   5.04555  18.53179
 -10.43605   5.35979  18.06791
 -10.63058   5.70395  17.37958
 -10.66051   5.92841  16.43686
 -10.75029   6.25761  15.37444
 -10.88497   6.69156  14.34194
 -11.10942   7.03573  13.24958
 -11.34884   7.14047  12.21708
 -11.78279   6.96091  11.25940
 -12.39630   6.69156  10.21194
 -13.23428   6.33243   8.98491
 -14.38648   5.91345   7.59328
 -15.64344   5.40468   6.03705
 -16.93032   4.76124   4.52571
 -18.50152   4.16269   3.05926
 -19.96797   3.62399   1.81727
 -21.47931   3.23493   0.87455
 -22.90086   3.02544  -0.11306
 -24.20271   2.75609  -1.04081
 -25.39981   2.51667  -1.75907
 -26.53706   2.38200  -2.37258
 -27.52467   2.15754  -2.74668
 -28.43746   1.99294  -3.01603
 -29.18564   1.75352  -3.18063
 -29.82909   1.49914  -3.21055
 -30.41267   1.30461  -3.13574
 -31.02619   1.14001  -2.94121
 -31.56488   0.90059  -2.67186
 -32.04372   0.55642  -2.37258
 -32.43278   0.25714  -1.66929
 -32.55249   0.21225  -0.65175
 -32.41782   0.28707   0.48549
 -31.96890   0.31700   1.60778
 -31.28057   0.28707   2.75999
 -30.51742   0.04765   3.97205
 -29.87398  -0.31148   5.24397
 -29.32032  -0.77536   6.59071
 -28.76666  -1.22427   8.02723
 -28.03343  -1.67318   9.52361
 -27.30021  -1.98742  11.12473
 -26.44728  -2.19691  12.69592
 -25.45967  -2.39144  14.37186
 -24.42717  -2.57101  15.97299
 -23.42460  -2.84035  17.42447
 -22.43699  -3.22941  18.72632
 -21.50923  -3.73818  19.90846
 -20.59645  -4.26191  21.04570
 -19.78840  -4.83053  22.07820
 -18.92050  -5.12981  22.91617
 -18.05261  -5.30937  23.61947
 -17.31938  -5.32434  24.14320
 -16.66098  -5.21959  24.42751
 -15.56862  -5.14477  24.47240
 -14.76058  -5.04003  24.56219
 -14.11714  -4.86046  24.50233
 -13.32406  -4.69586  24.27787
 -12.42623  -4.39659  23.99356
 -11.66308  -4.03746  23.42494
 -10.91489  -3.72322  22.46726
 -10.18167  -3.46883  21.18038
  -9.50830  -3.13963  19.68400
  -8.95464  -2.82539  18.06791
  -8.50573  -2.61590  16.34708
  -8.31120  -2.45130  14.59632
  -8.17652  -2.37648  12.68096
  -8.13163  -2.36151  10.61596
  -8.11667  -2.45130   8.40132
  -8.13163  -2.49619   6.20165
  -8.25134  -2.37648   3.73263
  -8.47580  -2.24180   1.29354
  -8.64040  -1.95749  -1.11563
  -8.76011  -1.64325  -3.37516
  -8.87982  -1.22427  -5.51497
  -9.10428  -0.71550  -7.53508
  -9.44844  -0.13191  -9.40555
  -9.92728   0.51153 -11.11142
 -10.73533   1.08015 -12.48809
 -11.94739   1.69367 -13.46073
 -13.45873   2.21740 -14.13410
 -15.29927   2.68127 -14.49323
 -17.24456   3.05537 -14.59798
 -19.54898   3.42946 -14.35856
 -21.68880   3.69881 -13.81986
 -23.69394   4.02801 -12.98189
 -25.60931   4.28240 -11.91946
 -27.30021   4.46196 -10.61762
 -28.81155   4.67145  -9.16613
 -30.12836   4.89591  -7.56501
 -31.26561   5.04555  -5.73943
 -32.28314   5.07548  -3.76421
 -33.25579   5.06051  -1.86382
 -34.16858   4.98569  -0.32255
 -34.96166   4.92584   0.72491
 -35.62006   4.83605   1.48807
 -36.15876   4.80613   2.10158
 -36.59271   4.85102   2.64028
 -36.80220   4.92584   2.77495
 -36.80220   5.06051   2.68517
 -36.72738   5.38971   2.55049
 -36.41314   5.79374   2.38589
 -36.11387   6.19776   2.13151
 -35.63502   6.67660   1.59281
 -35.11129   7.14047   0.72491
 -34.60253   7.67917  -0.45722
 -34.06383   8.24779  -1.81892
 -33.54010   8.75656  -3.33026
 -33.19593   9.26533  -4.82664
 -33.04629   9.74417  -6.27813
 -32.85177  10.25294  -7.77450
 -32.61235  10.73178  -9.22599
 -32.31307  10.98616 -10.72236
 -31.92401  11.13580 -12.18881
 -31.41524  11.09091 -13.55051
 -30.84662  10.92631 -14.71769
 -30.08347  10.61207 -15.78011
 -29.12579  10.35768 -16.90239
 -28.00351  10.20804 -17.90497
 -26.74655  10.01352 -18.80279
 -25.48960   9.75913 -19.56594
 -24.15782   9.34015 -20.22435
 -22.70634   8.75656 -20.74808
 -21.19500   8.00837 -21.04736
 -19.68366   7.21529 -21.15210
 -18.21721   6.39229 -21.13714
 -16.85551   5.59921 -21.09225
 -15.11971   4.62656 -20.98750
 -13.48866   3.56414 -20.67326
 -12.23170   2.65135 -20.10464
 -10.92986   1.79841 -19.28163
  -9.55319   0.85569 -18.50352
  -8.38602  -0.10199 -17.77029
  -7.29366  -0.99981 -17.00714
  -6.26116  -1.77793 -16.00457
  -5.07903  -2.37648 -14.91221
  -3.77718  -2.91517 -13.87972
  -2.40051  -3.49876 -12.83225
  -0.94903  -4.08235 -11.68004
   0.50246  -4.65097 -10.45301
   2.10358  -5.08492  -9.22599
   3.83938  -5.51887  -8.08874
   5.51532  -5.86303  -7.17595
   6.84709  -6.17727  -6.17338
   7.81974  -6.49151  -5.15584
   8.68763  -6.80575  -4.06349
   9.52560  -7.11999  -3.01603
  10.34861  -7.20977  -1.90871
  11.09680  -7.10503  -0.57693
  11.87491  -6.83568   0.99426
  12.54828  -6.49151   2.65524
  13.20669  -6.04260   4.34614
  13.73042  -5.45901   5.85748
  14.08955  -4.87543   7.17430
  14.32897  -4.35169   8.40132
  14.61328  -3.72322   9.58346
  14.89759  -3.06481  10.64589
  15.22680  -2.27173  11.46889
  15.60089  -1.55347  12.20212
  15.94506  -0.95492  12.75578
  16.42390  -0.41622  12.99520
  17.00748   0.06262  12.87549
  17.50129   0.58635  12.48643
  17.98013   1.06519  11.75321
  18.47393   1.46921  10.73567
  18.80314   1.73856   9.53857
  18.86299   1.85827   8.14694
  18.80314   2.00790   6.72538
  18.65350   2.20243   5.43850
  18.47393   2.39696   4.33118
  18.24948   2.60645   3.43336
  18.03998   2.75609   2.62531
  17.98013   2.80098   2.04173
  18.01006   2.92069   1.66763
  18.15969   2.90573   1.29354
  18.44401   2.81595   1.11397
  18.89292   2.60645   0.99426
  19.44658   2.45682   0.90448
  20.14987   2.21740   0.82966
  20.94295   1.91812   0.79973
  21.78092   1.48417   0.66506
  22.63386   1.08015   0.38075
  23.51672   0.63124  -0.09809
  24.29484   0.18233  -0.66671
  25.02806  -0.26659  -1.38498
  25.68647  -0.77536  -2.17805
  26.29998  -1.35894  -3.09084
  26.71896  -1.94253  -4.04852
  26.91349  -2.42137  -4.94635
  26.95838  -2.97503  -5.75439
  26.71896  -3.58854  -6.36791
  26.12041  -4.17213  -6.80186
  25.40215  -4.78564  -7.20588
  24.53426  -5.32434  -7.55004
  23.60650  -5.66850  -7.72961
  22.57400  -6.04260  -7.68472
  21.49661  -6.38677  -7.65479
  20.29951  -6.64115  -7.71465
  19.08745  -6.91050  -7.81939
  17.83049  -7.00028  -7.84932
  16.39397  -6.97035  -7.74457
  14.86767  -6.74590  -7.65479
  13.53589  -6.38677  -7.72961
  12.24901  -6.04260  -8.02889
  11.05191  -5.66850  -8.47780
  10.04934  -5.04003  -8.98657
   9.30115  -4.30680  -9.68986
   8.67267  -3.43890 -10.39316
   8.31354  -2.51115 -11.15631
   8.43325  -1.65822 -11.76983
   8.80734  -0.73046 -12.24867
   9.43582   0.25714 -12.60780
  10.19897   0.99037 -12.98189
  11.03694   1.51410 -13.23627
  11.88988   1.99294 -13.28116
  12.80267   2.33711 -13.19138
  13.86509   2.66631 -12.96693
  15.07716   2.90573 -12.72751
  16.27426   2.96558 -12.17385
  17.53122   3.01048 -11.51544
  18.95277   2.96558 -10.81214
  20.34440   2.93566 -10.00410
  21.82582   2.89077  -9.01649
  23.48679   2.90573  -7.93910
  25.28244   2.80098  -6.86171
  27.12299   2.69624  -5.70950
  29.02338   2.53164  -4.55729
  30.83400   2.30718  -3.36019
  32.59972   2.05280  -2.22295
  34.21581   1.75352  -1.10066
  35.72715   1.28964  -0.14298
  37.26842   0.76591   0.66506
  38.73486   0.19729   1.39828
  40.14146  -0.28155   1.96691
  41.48820  -0.70054   2.32604
  42.61048  -1.05967   2.49064
  43.47838  -1.41880   2.49064
  44.10685  -1.70311   2.43078
  44.61562  -2.03231   2.17640
  44.95979  -2.40641   1.83223
  45.28899  -2.82539   1.24865
  45.57330  -3.39401   0.56031
  45.76783  -3.96264  -0.09809
  45.91747  -4.60608  -0.81635
  45.90251  -5.33930  -1.56454
  45.64812  -5.98274  -2.34266
  45.27403  -6.59626  -3.22552
  44.73533  -7.28459  -4.22809
  43.98714  -7.89811  -5.38030
  43.07435  -8.37695  -6.56244
  42.04186  -8.90068  -7.80443
  40.79986  -9.28973  -8.97160
  39.43816  -9.55908 -10.01907
  37.92682  -9.76858 -10.85704
  36.35563  -9.97807 -11.56033
  34.72458 -10.18756 -12.08406
  33.00374 -10.29231 -12.42823
  31.35773 -10.24742 -12.66765
  29.71172 -10.00800 -12.81729
  28.06570  -9.60397 -12.95196
  26.40473  -8.96053 -12.96693
  24.80360  -8.18242 -12.92203
  23.18752  -7.20977 -12.71254
  21.60136  -5.92289 -12.33845
  20.10498  -4.47140 -11.84464
  18.53379  -3.01992 -11.05156
  16.81296  -1.56843  -9.98914
  15.03227  -0.05709  -8.67233
  13.25158   1.33453  -7.29566
  11.50082   2.59149  -5.78432
   9.67524   3.77363  -4.25802
   7.93945   4.82109  -2.74668
   6.27847   5.76381  -1.25030
   4.79706   6.60178   0.12636
   3.52514   7.34997   1.33843
   2.49264   7.85873   2.34100
   1.43021   8.26276   3.07423
   0.35282   8.45728   3.65781
  -0.73954   8.59196   4.06183
  -1.77203   8.63685   4.27133
  -2.80453   8.74160   4.42096
  -3.74725   8.89123   4.45089
  -4.57026   8.90620   4.30125
  -5.40823   8.80145   3.97205
  -6.24620   8.69671   3.46328
  -7.00935   8.42736   2.81984
  -7.71265   8.06823   2.10158
  -8.29623   7.66421   1.32347
  -8.90975   7.21529   0.33586
  -9.53823   6.63171  -0.84628
 -10.06196   5.91345  -2.07331
 -10.48094   5.01562  -3.31530
 -10.69044   3.98312  -4.45255
 -10.73533   2.77106  -5.51497
 -10.60065   1.42432  -6.57740
 -10.33131   0.06262  -7.55004
  -9.83750  -1.34398  -8.40298
  -9.22399  -2.69072  -9.00153
  -8.44587  -3.90278  -9.55519
  -7.68272  -5.06995 -10.03403
  -6.88964  -6.11742 -10.42309
  -6.18634  -7.03021 -10.73733
  -5.58779  -7.77840 -10.76725
  -5.12392  -8.43680 -10.58769
  -4.85457  -8.78097 -10.60265
  -4.63011  -8.93060 -10.88696
  -4.27098  -8.85579 -10.87200
  -3.85200  -8.70615 -10.46798
  -3.41805  -8.51162  -9.83950
  -2.98410  -8.19738  -9.12124
  -2.65490  -7.76343  -8.17852
  -2.32569  -7.32948  -7.13106
  -2.11620  -6.76086  -6.03870
  -1.86182  -6.02764  -5.05110
  -1.44283  -5.30937  -4.30291
  -0.99392  -4.65097  -3.64450
  -0.55997  -3.91774  -2.89632
  -0.09609  -3.21445  -2.01345
   0.11340  -2.57101  -1.01088
   0.09844  -1.85275  -0.02327
  -0.00631  -1.14945   0.96433
  -0.08113  -0.46112   1.99683
  -0.11106   0.09254   3.08919
  -0.23077   0.61627   4.22643
  -0.39537   1.09511   5.37864
  -0.61983   1.61885   6.48596
  -0.94903   2.03783   7.59328
  -1.48772   2.42689   8.80535
  -2.10124   2.84587   9.85281
  -2.74468   3.23493  10.76560
  -3.44798   3.56414  11.64846
  -4.25602   3.96816  12.57621
  -5.09399   4.29736  13.39922
  -6.02174   4.65649  14.20726
  -7.00935   4.86598  15.04523
  -7.93710   5.12037  15.82335
  -8.68529   5.22511  16.67628
  -9.37363   5.31490  17.64893
 -10.09189   5.31490  18.75625
 -10.76525   5.25504  19.84860
 -11.43862   5.04555  20.91103
 -12.09703   4.83605  21.92856
 -12.72551   4.55174  22.84135
 -13.35399   4.23750  23.61947
 -14.02735   3.86341  24.35269
 -14.89525   3.38457  24.99613
 -15.89782   2.92069  25.63958
 -16.97522   2.39696  26.29798
 -18.32195   1.96301  26.85164
 -19.47416   1.57396  27.34544
 -20.47674   1.33453  27.71954
 -21.49427   1.25972  27.74947
 -22.55670   1.09511  27.61479
 -23.69394   0.84073  27.39034
 -24.66659   0.64620  27.24070
 -25.23521   0.34693  27.21077
 -25.77391   0.03269  27.19581
 -26.37246  -0.38630  26.98631
 -26.88122  -0.91003  26.68704
 -27.12065  -1.38887  26.01367
 -27.10568  -1.91260  25.04103
 -27.06079  -2.37648  24.18809
 -27.18050  -2.79546  23.57458
 -27.31517  -3.19948  22.85632
 -27.33014  -3.54365  21.95849
 -27.46481  -3.70825  20.95592
 -27.71920  -3.66336  19.86356
 -27.92869  -3.46883  18.65150
 -28.22796  -3.27430  17.37958
 -28.46738  -2.90021  16.10766
 -28.76666  -2.43633  14.94049
 -28.99112  -1.86771  13.65360
 -29.20061  -1.40383  12.23205
 -29.38017  -0.95492  10.76560
 -29.58967  -0.53594   9.20937
 -29.81412  -0.07206   7.60824
 -30.03858   0.30204   6.05201
 -30.29296   0.58635   4.51075
 -30.48749   0.87066   3.05926
 -30.71195   1.03526   1.84720
 -30.83166   1.25972   0.85959
 -30.98130   1.42432   0.08147
 -31.16086   1.67870  -0.60686
 -31.31050   1.91812  -1.11563
 -31.44517   2.12761  -1.56454
 -31.60977   2.18747  -1.78900
 -31.90905   2.30718  -1.87878
 -32.29811   2.38200  -1.84885
 -32.79191   2.50171  -1.68425
 -33.36053   2.62142  -1.39994
 -33.95908   2.75609  -0.99592
 -34.58756   2.96558  -0.57693
