********************************************************************************
              CENTRO DE INSTRUMENTACION Y REGISTRO SISMICO  A.C.

    Anaxagoras 814, Col. Narvarte, Benito Juarez, C.P. 03020 Mexico, D.F.
           Tels. 5687 45 42/ 5687 45  82             Fax. 5669 25 12
********************************************************************************
ARCHIVO ESTANDAR DE ACELERACION:
VERSION DEL FORMATO                    : 2.0
NOMBRE DEL ARCHIVO                     : AP6820120402173642
FECHA Y HORA DE CREACION               : 15/MAY/12, 09:41
REF. CATALOGO ACELEROGRAMAS, SMIS 1996 : REGISTRO No.     /PAG.


================================================================================
DATOS DE LA ESTACION:
NOMBRE DE LA ESTACION                  : JARDÍN DE NIÑOS "JUAN B. DE LA SALLE"
CLAVE DE LA ESTACION                   : AP68
LOCALIZACION DE LA ESTACION            : Del. Iztapalapa, Col. Santa María      
                                       : Purísima Atlazolpa,  entre Canal de    
                                       : Apatlaco y Ahuehuetes.                 
                                       :                                        
                                       : 
COORDENADAS DE LA ESTACION             : 19.3809 LAT. N
                                       : 99.1068 LONG. W
ALTITUD (msnm)                         : 2232
TIPO DE SUELO                          : Arcilloso, zona lago                
                                       :                           
                                       : 
INSTITUCION RESPONSABLE                : CIRES
                                       : 

================================================================================
DATOS DEL ACELEROGRAFO:
MODELO DEL ACELEROGRAFO                : RADESD
NUMERO DE SERIE DEL ACELEROGRAFO       : 255
NUMERO DE CANALES                      : 3
ORIENTACION C1-C6 (rumbo;orientacion)  : /N00E/+V/N90W
ORIENTACION C7-C12 (rumbo;orientacion) : 
VEL. DE MUESTREO, C1-C6 (muestras/s)   : /100/100/100
VEL. DE MUESTREO, C7-C12 (muestras/s)  : 
ESC. COMPLETA DE SENSORES, C1-C6, (g)  : /0.5/0.5/0.5
ESC. COMPLETA DE SENSORES, C7-C12, (g) : 
FREC. NAT. DE SENSORES, C1-C6, (Hz)    : /30/30/30
FREC. NAT. DE SENSORES, C7-C12, (Hz)   : 
AMORTIGUAMIENTO DE SENSORES, C1-C6     : /0.780/0.700/0.678
AMORTIGUAMIENTO DE SENSORES, C7-C12    : 
INTERVALO DE MUESTREO, C1-C6, (s)      : /0.01/0.01/0.01
INTERVALO DE MUESTREO, C7-C12, (s)     : 
UMBRAL DE DISPARO, C1-C6, (Gal)        : /3.11/5.03/4.55
UMBRAL DE DISPARO, C7-C12, (Gal)       : 
MEMORIA DE PREEVENTO (s)               : 56.0
TIEMPO DE POSEVENTO (s)                : 64.0


================================================================================
DATOS DEL SISMO:
FECHA DEL SISMO (GMT)                  : 02/ABR/12
HORA EPICENTRO (GMT)                   : 17:36:42.0
MAGNITUD(ES)                           : /Mc=6.0
COORDENADAS DEL EPICENTRO              : 16.27 LAT. N
                                       : 98.47 LONG. W
PROFUNDIDAD FOCAL (km)                 : 10
FUENTE DE LOS DATOS EPICENTRALES       : SSN
                                       : INSTITUTO DE GEOFISICA, UNAM

================================================================================
DATOS DE ESTE REGISTRO:
HORA DE LA PRIMERA MUESTRA (GMT)       : 17:38:27.00
EXACTITUD DEL TIEMPO (s)               : 0.01
DURACION DEL REGISTRO (s), C1-C6       : /188.5/188.5/188.5
DURACION DEL REGISTRO (s), C7-C12      : 
NUM. TOTAL DE MUESTRAS, C1-C6          : /18850/18850/18850
NUM. TOTAL DE MUESTRAS, C7-C12         : 
ACEL. MAX. (Gal), C1-C6                : /7.98242/2.10671/6.48873
ACEL. MAX., C1-C6, EN LA MUESTRA       : /9003/8112/5584
ACEL. MAX. (Gal), C7-C12               : 
ACEL. MAX., C7-C12, EN LA MUESTRA      : 
UNIDADES DE LOS DATOS                  : Gal (cm/s/s)
FACTOR DE DECIMACION                   : 1
FORMATO DATOS (FORTRAN,10 campos/dato) : 3F10.5


================================================================================
CALIDAD DEL ACELEROGRAMA:
REGISTRO DIGITAL COMPLETO CON TIEMPO ABSOLUTO CORRECTO.


================================================================================
COMENTARIOS:














================================================================================
DATOS DE ACELERACION:
---------+---------+---------+---------+---------+---------+---------+---------+
   CANAL-1   CANAL-2   CANAL-3   CANAL-4   CANAL-5   CANAL-6   CANAL-7   CANAL-8
      N00E        +V      N90W
---------+---------+---------+---------+---------+---------+---------+---------+
[...]
  -4.63054   0.52691  -1.70033
  -4.86996   0.52691  -1.70033
  -4.86996   0.52691  -1.70033
  -4.86996   0.52691  -1.70033
  -4.86996   0.52691  -1.70033
  -4.63054   0.52691  -1.70033
  -4.63054   0.52691  -1.70033
  -4.39112   0.52691  -1.93975
  -4.39112   0.52691  -2.17917
  -4.15170   0.76634  -2.17917
  -4.15170   0.76634  -2.17917
  -4.15170   0.76634  -2.17917
  -4.15170   0.76634  -2.17917
  -4.15170   0.76634  -1.93975
  -3.91228   1.00576  -1.93975
  -3.91228   1.00576  -1.70033
  -3.67286   1.24518  -1.70033
  -3.67286   1.00576  -1.93975
  -3.67286   1.24518  -2.17917
  -3.67286   1.24518  -2.17917
  -3.67286   1.24518  -2.17917
  -3.67286   1.24518  -2.41859
  -3.67286   1.24518  -2.17917
  -3.67286   1.00576  -2.41859
  -3.67286   1.00576  -2.41859
  -3.67286   1.00576  -2.65801
  -3.43344   0.76634  -2.65801
  -3.43344   0.76634  -2.89743
  -3.19402   0.52691  -2.89743
  -2.95460   0.52691  -2.65801
  -2.95460   0.52691  -2.89743
  -2.95460   0.28749  -2.89743
  -2.95460   0.28749  -2.89743
  -2.71518   0.04807  -2.89743
  -2.47576  -0.19135  -2.89743
  -2.47576  -0.19135  -2.89743
  -1.99692   0.04807  -2.89743
  -1.99692   0.04807  -2.89743
  -1.99692   0.04807  -3.13685
  -1.99692   0.04807  -2.89743
  -2.23634  -0.19135  -2.89743
  -2.23634  -0.19135  -2.89743
  -2.23634  -0.19135  -2.89743
  -2.23634  -0.19135  -3.13685
  -1.99692  -0.43077  -2.89743
  -1.99692  -0.43077  -2.89743
  -1.99692  -0.43077  -2.89743
  -1.99692  -0.19135  -3.13685
  -2.23634  -0.43077  -2.89743
  -2.47576  -0.19135  -3.13685
  -2.47576  -0.19135  -3.37627
  -2.71518  -0.19135  -3.37627
  -2.71518  -0.43077  -3.37627
  -2.71518  -0.43077  -3.37627
  -2.71518  -0.43077  -3.37627
  -2.71518  -0.43077  -3.37627
  -2.71518  -0.43077  -3.37627
  -2.95460  -0.19135  -3.37627
  -2.95460  -0.19135  -3.61569
  -3.19402  -0.19135  -3.61569
  -3.19402  -0.19135  -3.61569
  -3.43344   0.04807  -3.61569
  -3.43344   0.04807  -3.61569
  -3.43344   0.04807  -3.61569
  -3.67286   0.04807  -3.85511
  -3.67286  -0.19135  -3.85511
  -3.67286  -0.19135  -3.61569
  -3.67286  -0.19135  -3.61569
  -3.67286  -0.19135  -3.61569
  -3.67286  -0.19135  -3.37627
  -3.43344   0.04807  -3.37627
  -3.67286   0.04807  -3.13685
  -3.91228   0.28749  -3.13685
  -4.15170   0.04807  -3.13685
  -4.15170   0.04807  -3.13685
  -4.15170   0.04807  -3.13685
  -4.15170   0.04807  -2.89743
  -4.15170   0.04807  -2.89743
  -4.15170   0.28749  -2.65801
  -4.39112   0.28749  -2.65801
  -4.39112   0.28749  -2.41859
  -4.39112   0.04807  -2.41859
  -4.39112   0.04807  -2.41859
  -4.39112   0.04807  -2.17917
  -4.15170   0.04807  -2.17917
  -3.91228   0.04807  -2.17917
  -3.91228   0.04807  -2.17917
  -3.67286   0.04807  -2.17917
  -3.43344   0.04807  -2.17917
  -3.19402   0.28749  -1.93975
  -3.19402   0.28749  -1.93975
  -2.95460   0.04807  -1.70033
  -2.71518   0.28749  -1.70033
  -2.71518   0.28749  -1.93975
  -2.47576   0.28749  -1.70033
  -2.47576   0.28749  -1.70033
  -2.23634   0.28749  -1.93975
  -1.99692   0.28749  -1.93975
  -1.99692   0.28749  -1.70033
  -1.75750   0.28749  -1.70033
  -1.51808   0.28749  -1.70033
  -1.27866   0.28749  -1.70033
  -1.03924   0.52691  -1.46091
  -1.03924   0.52691  -1.46091
  -1.03924   0.28749  -1.70033
  -1.03924   0.28749  -1.93975
  -0.79982   0.28749  -1.93975
  -0.56040   0.28749  -1.93975
  -0.32098   0.28749  -1.70033
  -0.08156   0.28749  -1.46091
   0.15786   0.28749  -1.22149
   0.15786   0.28749  -1.22149
   0.39729   0.28749  -0.98207
   0.63671   0.28749  -0.98207
   1.11555   0.28749  -0.98207
   1.35497   0.28749  -0.74265
   1.59439   0.28749  -0.74265
   1.83381   0.28749  -0.50323
   2.07323   0.52691  -0.26381
   2.31265   0.52691  -0.26381
   2.31265   0.76634  -0.26381
   2.55207   0.76634  -0.26381
   2.55207   0.76634  -0.02439
   2.79149   0.76634  -0.26381
   2.79149   0.76634  -0.02439
   2.79149   0.76634  -0.02439
   2.79149   0.76634   0.21503
   2.79149   0.52691   0.21503
   3.03091   0.28749   0.21503
   3.27033   0.28749   0.21503
   3.50975   0.28749   0.21503
   3.74917   0.28749   0.45445
   3.74917   0.28749   0.45445
   3.98859   0.04807   0.69387
   3.98859   0.04807   0.69387
   3.98859  -0.19135   0.69387
   3.98859  -0.19135   0.69387
   4.46743   0.04807   0.93329
   4.46743   0.04807   0.93329
   4.70685  -0.19135   0.93329
   4.94627  -0.43077   0.93329
   4.94627  -0.19135   0.93329
   4.94627  -0.19135   0.93329
   4.94627  -0.19135   0.93329
   5.18569  -0.19135   0.93329
   5.18569  -0.19135   0.93329
   5.18569  -0.19135   0.93329
   5.18569  -0.19135   0.93329
   5.18569  -0.19135   0.93329
   4.94627   0.04807   1.17271
   5.18569  -0.19135   1.17271
   4.94627   0.04807   1.17271
   4.94627   0.04807   1.17271
   4.94627   0.04807   1.17271
   4.94627  -0.19135   1.17271
   4.70685   0.04807   1.17271
   4.70685   0.04807   1.17271
   4.70685  -0.19135   1.41213
   4.46743  -0.19135   1.41213
   4.46743  -0.43077   1.41213
   4.22801  -0.43077   1.41213
   4.22801  -0.43077   1.65155
   4.46743  -0.43077   1.65155
   4.22801  -0.43077   1.89097
   4.46743  -0.43077   1.89097
   4.46743  -0.43077   1.89097
   4.46743  -0.43077   2.13039
   4.46743  -0.43077   2.13039
   4.46743  -0.43077   2.13039
   4.70685  -0.67019   2.13039
   4.70685  -0.43077   2.36982
   4.94627  -0.43077   2.36982
   4.94627  -0.19135   2.36982
   4.94627   0.04807   2.36982
   4.94627   0.04807   2.36982
   4.70685   0.04807   2.36982
   4.70685   0.04807   2.36982
   4.70685   0.04807   2.36982
   4.70685   0.28749   2.60924
   4.70685   0.28749   2.60924
   4.70685   0.28749   2.60924
   4.94627   0.28749   2.84866
   4.94627   0.28749   2.84866
   4.94627   0.28749   2.84866
   4.94627   0.28749   3.08808
   4.70685   0.28749   3.08808
   4.70685   0.04807   3.08808
   4.94627   0.28749   3.08808
   4.70685   0.28749   3.32750
   4.94627   0.28749   3.32750
   4.94627   0.28749   3.56692
   4.94627   0.28749   3.56692
   4.94627   0.28749   3.32750
   4.94627   0.52691   3.32750
   5.18569   0.52691   3.32750
   4.94627   0.28749   3.56692
   4.94627   0.52691   3.56692
   4.94627   0.52691   3.56692
   4.70685   0.28749   3.56692
   4.94627   0.28749   3.56692
   4.94627   0.28749   3.56692
   4.94627   0.04807   3.56692
   4.94627   0.04807   3.56692
   4.94627   0.04807   3.56692
   4.94627   0.04807   3.56692
   4.94627   0.04807   3.56692
   5.18569  -0.19135   3.56692
   5.18569  -0.19135   3.56692
   5.18569  -0.19135   3.56692
   5.42511  -0.19135   3.56692
   5.42511  -0.19135   3.56692
   5.66453  -0.19135   3.56692
   5.66453  -0.19135   3.56692
   5.90395  -0.19135   3.56692
   5.90395  -0.19135   3.56692
   5.90395  -0.19135   3.56692
   5.90395  -0.19135   3.56692
   6.14337  -0.19135   3.56692
   5.90395  -0.19135   3.32750
   5.90395  -0.19135   3.08808
   6.14337  -0.19135   3.08808
   5.90395  -0.19135   3.08808
   6.14337  -0.19135   3.32750
   6.14337  -0.19135   3.32750
   6.14337  -0.19135   3.08808
   5.90395  -0.19135   2.84866
   5.90395  -0.19135   2.84866
   5.66453  -0.19135   2.60924
   5.66453  -0.19135   2.84866
   5.66453  -0.19135   2.84866
   5.66453   0.04807   2.84866
   5.42511   0.04807   2.84866
   5.18569   0.04807   2.84866
   5.18569  -0.19135   2.60924
   5.18569  -0.19135   2.60924
   5.18569   0.04807   2.36982
   5.18569   0.04807   2.60924
   4.94627  -0.19135   2.60924
   4.70685   0.04807   2.60924
   4.46743   0.04807   2.60924
   4.46743   0.04807   2.60924
   4.22801   0.04807   2.60924
   3.98859   0.04807   2.60924
   3.74917   0.04807   2.36982
   3.50975   0.04807   2.60924
   3.27033   0.04807   2.60924
   3.03091   0.04807   2.60924
   2.79149   0.04807   2.60924
   2.55207   0.04807   2.60924
   2.55207  -0.19135   2.60924
   2.31265   0.04807   2.60924
   2.31265   0.04807   2.36982
   2.07323   0.04807   2.36982
   2.07323   0.04807   2.36982
   1.83381   0.04807   2.36982
   1.59439   0.04807   2.36982
   1.35497  -0.19135   2.36982
   1.11555  -0.19135   2.13039
   0.87613  -0.19135   2.13039
   0.63671  -0.19135   2.13039
   0.63671  -0.19135   2.13039
   0.39729  -0.19135   1.89097
   0.15786  -0.19135   1.89097
  -0.08156  -0.19135   1.89097
  -0.32098  -0.19135   1.65155
  -0.56040  -0.19135   1.41213
  -0.79982  -0.43077   1.41213
  -1.03924  -0.19135   1.17271
  -1.03924  -0.19135   1.17271
  -1.27866  -0.19135   0.93329
  -1.27866  -0.43077   1.17271
  -1.51808  -0.43077   0.93329
  -1.75750  -0.43077   0.93329
  -1.75750  -0.43077   0.93329
  -1.99692  -0.43077   0.93329
  -1.99692  -0.43077   0.93329
  -2.23634  -0.43077   0.93329
  -2.23634  -0.67019   0.93329
  -2.23634  -0.43077   0.69387
  -2.23634  -0.67019   0.93329
  -2.23634  -0.67019   0.93329
  -2.47576  -0.43077   0.93329
  -2.47576  -0.43077   0.93329
  -2.47576  -0.43077   0.93329
  -2.47576  -0.43077   0.93329
  -2.71518  -0.19135   0.93329
  -2.71518  -0.19135   0.93329
  -2.71518  -0.19135   0.93329
  -2.95460   0.04807   0.93329
  -2.95460   0.04807   0.69387
  -2.95460   0.04807   0.69387
  -3.19402   0.04807   0.45445
  -3.19402   0.04807   0.45445
  -3.19402   0.28749   0.45445
  -3.19402   0.04807   0.21503
  -3.19402   0.28749   0.21503
  -3.19402   0.28749   0.21503
  -3.43344   0.28749  -0.02439
  -3.43344   0.28749  -0.02439
  -3.67286   0.04807  -0.26381
  -3.67286   0.04807  -0.26381
  -3.67286   0.04807  -0.50323
  -3.91228   0.04807  -0.50323
  -3.91228   0.04807  -0.50323
  -3.91228   0.04807  -0.74265
  -3.91228   0.04807  -0.74265
  -3.91228  -0.19135  -0.98207
  -3.91228   0.04807  -0.98207
  -4.15170   0.04807  -0.98207
  -4.15170   0.04807  -0.98207
  -4.39112   0.04807  -1.22149
  -4.39112   0.04807  -1.46091
  -4.39112   0.04807  -1.70033
  -4.39112   0.04807  -1.70033
  -4.39112   0.04807  -1.93975
  -4.63054   0.04807  -1.93975
  -4.63054   0.04807  -1.93975
  -4.63054   0.04807  -1.93975
  -4.86996   0.04807  -2.17917
  -4.86996   0.28749  -2.41859
  -4.86996   0.28749  -2.41859
  -5.10938   0.28749  -2.41859
  -5.34880   0.28749  -2.65801
  -5.34880   0.28749  -2.65801
  -5.58822   0.28749  -2.65801
  -5.82764   0.04807  -2.89743
  -6.06706   0.28749  -2.89743
  -6.30648   0.28749  -2.65801
  -6.30648   0.28749  -2.65801
  -6.54590   0.04807  -2.65801
  -6.54590   0.28749  -2.65801
  -6.78532   0.28749  -2.89743
  -6.78532   0.04807  -2.89743
  -7.02474   0.04807  -2.89743
  -7.26416   0.04807  -2.89743
  -7.26416   0.04807  -3.13685
  -7.50358   0.04807  -3.13685
  -7.50358   0.04807  -3.13685
  -7.50358  -0.19135  -3.13685
  -7.50358  -0.19135  -3.13685
  -7.74300  -0.19135  -3.13685
  -7.74300  -0.19135  -3.13685
  -7.74300  -0.19135  -2.89743
  -7.74300  -0.19135  -2.89743
  -7.74300  -0.43077  -2.89743
  -7.74300  -0.43077  -2.89743
  -7.74300  -0.19135  -3.13685
  -7.98242  -0.19135  -3.13685
  -7.74300  -0.43077  -3.13685
  -7.98242  -0.19135  -3.37627
  -7.98242  -0.19135  -3.13685
  -7.98242  -0.43077  -3.13685
  -7.98242  -0.19135  -3.13685
  -7.98242  -0.19135  -3.13685
  -7.74300  -0.43077  -3.13685
  -7.74300  -0.43077  -2.89743
  -7.74300  -0.19135  -2.89743
  -7.74300  -0.19135  -2.89743
  -7.74300  -0.19135  -2.89743
  -7.74300  -0.19135  -2.65801
  -7.74300  -0.43077  -2.65801
  -7.50358  -0.43077  -2.65801
  -7.26416  -0.43077  -2.65801
  -7.26416  -0.19135  -2.41859
  -7.26416  -0.19135  -2.41859
  -7.02474  -0.19135  -2.17917
  -7.02474  -0.43077  -2.17917
  -6.78532  -0.43077  -2.17917
  -6.54590  -0.43077  -2.17917
  -6.30648  -0.19135  -2.17917
  -6.06706  -0.19135  -1.93975
  -6.06706  -0.19135  -1.70033
  -5.82764  -0.43077  -1.70033
  -5.82764  -0.43077  -1.70033
  -5.34880  -0.43077  -1.70033
  -5.10938  -0.43077  -1.46091
  -4.86996  -0.19135  -1.46091
  -4.63054  -0.19135  -1.46091
  -4.39112  -0.19135  -1.46091
  -4.15170  -0.19135  -1.46091
  -4.15170  -0.19135  -1.46091
  -3.91228  -0.19135  -1.46091
  -3.67286  -0.19135  -1.46091
  -3.43344  -0.19135  -1.46091
  -3.19402   0.04807  -1.46091
  -2.95460  -0.19135  -1.22149
  -2.71518   0.04807  -1.22149
  -2.71518   0.04807  -1.22149
  -2.47576   0.28749  -1.22149
  -1.99692   0.28749  -1.22149
  -1.75750   0.28749  -1.22149
  -1.75750   0.28749  -1.46091
  -1.51808   0.28749  -1.46091
  -1.27866   0.52691  -1.46091
  -1.27866   0.52691  -1.46091
  -1.03924   0.52691  -1.46091
  -1.03924   0.52691  -1.46091
  -1.03924   0.52691  -1.46091
  -0.79982   0.28749  -1.70033
  -0.79982   0.52691  -1.70033
  -0.56040   0.52691  -1.70033
  -0.56040   0.52691  -1.70033
  -0.56040   0.28749  -1.93975
  -0.32098   0.28749  -1.70033
  -0.32098   0.28749  -1.70033
  -0.08156   0.28749  -1.46091
  -0.08156   0.28749  -1.46091
  -0.08156   0.28749  -1.46091
  -0.08156   0.28749  -1.46091
  -0.08156   0.28749  -1.46091
   0.15786   0.28749  -1.46091
   0.15786   0.28749  -1.46091
   0.15786   0.28749  -1.22149
   0.39729   0.04807  -1.22149
   0.39729   0.04807  -1.22149
   0.39729   0.04807  -1.22149
   0.63671   0.04807  -1.22149
   0.63671   0.04807  -1.22149
   0.63671   0.04807  -1.22149
   0.63671   0.04807  -1.22149
   0.63671   0.04807  -1.22149
   0.87613   0.04807  -1.22149
   0.87613   0.04807  -1.22149
   1.11555   0.04807  -1.22149
   1.11555   0.04807  -0.98207
   0.87613   0.04807  -0.98207
   0.87613   0.04807  -0.98207
   1.11555   0.04807  -0.98207
   1.11555   0.04807  -0.98207
   1.35497   0.28749  -0.98207
   1.35497   0.04807  -0.98207
   1.35497   0.04807  -0.98207
   1.35497   0.04807  -0.98207
   1.35497   0.04807  -0.98207
   1.59439   0.04807  -0.74265
   1.59439   0.04807  -0.74265
   1.83381   0.04807  -0.74265
   1.83381   0.04807  -0.50323
   1.83381   0.04807  -0.50323
   1.83381   0.04807  -0.50323
   2.07323  -0.19135  -0.50323
   2.07323   0.04807  -0.50323
   2.31265  -0.19135  -0.74265
   2.31265   0.04807  -0.74265
   2.55207   0.04807  -0.50323
   2.31265   0.04807  -0.50323
   2.31265   0.04807  -0.50323
   2.55207   0.04807  -0.50323
   2.55207   0.04807  -0.50323
   2.79149   0.04807  -0.26381
   2.79149   0.04807  -0.26381
   3.03091   0.04807  -0.26381
   3.03091   0.04807  -0.26381
   3.03091   0.04807  -0.26381
   3.03091   0.04807  -0.26381
   3.03091  -0.19135  -0.26381
   3.27033  -0.19135  -0.02439
   3.27033  -0.19135  -0.02439
   3.50975  -0.19135  -0.02439
   3.50975   0.04807   0.21503
   3.50975  -0.19135   0.45445
   3.74917  -0.19135   0.45445
   3.50975  -0.19135   0.45445
   3.98859  -0.19135   0.45445
   3.98859  -0.19135   0.69387
   4.22801  -0.19135   0.93329
   4.22801  -0.19135   0.93329
   4.22801  -0.19135   1.17271
   4.46743   0.04807   1.17271
   4.70685  -0.19135   1.41213
   4.94627  -0.19135   1.65155
   4.94627   0.04807   1.65155
   5.18569   0.04807   1.65155
   5.42511   0.04807   1.65155
   5.42511   0.04807   1.65155
   5.66453  -0.19135   1.89097
   5.90395   0.04807   2.13039
   6.14337   0.04807   2.13039
   6.14337   0.04807   2.13039
   6.38279   0.04807   2.13039
   6.38279   0.04807   2.13039
   6.38279   0.04807   2.13039
   6.38279   0.04807   2.13039
   6.62221   0.04807   2.36982
   6.86163   0.04807   2.36982
   7.10105   0.04807   2.36982
   7.10105   0.04807   2.36982
   7.34047   0.28749   2.13039
   7.10105   0.28749   2.36982
   7.10105   0.28749   2.36982
   7.34047   0.28749   2.36982
   7.34047   0.04807   2.36982
   7.34047   0.04807   2.36982
   7.34047   0.28749   2.36982
   7.57989   0.04807   2.36982
   7.34047   0.28749   2.36982
