********************************************************************************
              CENTRO DE INSTRUMENTACION Y REGISTRO SISMICO  A.C.

    Anaxagoras 814, Col. Narvarte, Benito Juarez, C.P. 03020 Mexico, D.F.
           Tels. 5687 45 42/ 5687 45  82             Fax. 5669 25 12
********************************************************************************
ARCHIVO ESTANDAR DE ACELERACION:
VERSION DEL FORMATO                    : 2.0
NOMBRE DEL ARCHIVO                     : AP6820111211014725
FECHA Y HORA DE CREACION               : 04/ENE/12, 12:26
REF. CATALOGO ACELEROGRAMAS, SMIS 1996 : REGISTRO No.     /PAG.


================================================================================
DATOS DE LA ESTACION:
NOMBRE DE LA ESTACION                  : JARDÍN DE NIÑOS "JUAN B. DE LA SALLE"
CLAVE DE LA ESTACION                   : AP68
LOCALIZACION DE LA ESTACION            : Del. Iztapalapa, Col. Santa María      
                                       : Purísima Atlazolpa,  entre Canal de    
                                       : Apatlaco y Ahuehuetes.                 
                                       :                                        
                                       : 
COORDENADAS DE LA ESTACION             : 19.3809 LAT. N
                                       : 99.1068 LONG. W
ALTITUD (msnm)                         : 2232
TIPO DE SUELO                          : Arcilloso, zona lago                
                                       :                           
                                       : 
INSTITUCION RESPONSABLE                : CIRES
                                       : 

================================================================================
DATOS DEL ACELEROGRAFO:
MODELO DEL ACELEROGRAFO                : RADESD
NUMERO DE SERIE DEL ACELEROGRAFO       : 255
NUMERO DE CANALES                      : 3
ORIENTACION C1-C6 (rumbo;orientacion)  : /N00E/+V/N90W
ORIENTACION C7-C12 (rumbo;orientacion) : 
VEL. DE MUESTREO, C1-C6 (muestras/s)   : /100/100/100
VEL. DE MUESTREO, C7-C12 (muestras/s)  : 
ESC. COMPLETA DE SENSORES, C1-C6, (g)  : /0.5/0.5/0.5
ESC. COMPLETA DE SENSORES, C7-C12, (g) : 
FREC. NAT. DE SENSORES, C1-C6, (Hz)    : /30/30/30
FREC. NAT. DE SENSORES, C7-C12, (Hz)   : 
AMORTIGUAMIENTO DE SENSORES, C1-C6     : /0.780/0.700/0.678
AMORTIGUAMIENTO DE SENSORES, C7-C12    : 
INTERVALO DE MUESTREO, C1-C6, (s)      : /0.01/0.01/0.01
INTERVALO DE MUESTREO, C7-C12, (s)     : 
UMBRAL DE DISPARO, C1-C6, (Gal)        : /4.55/5.03/4.55
UMBRAL DE DISPARO, C7-C12, (Gal)       : 
MEMORIA DE PREEVENTO (s)               : 56.0
TIEMPO DE POSEVENTO (s)                : 64.0


================================================================================
DATOS DEL SISMO:
FECHA DEL SISMO (GMT)                  : 11/DIC/11
HORA EPICENTRO (GMT)                   : 01:47:25.0
MAGNITUD(ES)                           : /Mc=6.5
COORDENADAS DEL EPICENTRO              : 17.84 LAT. N
                                       : 99.98 LONG. W
PROFUNDIDAD FOCAL (km)                 : 58
FUENTE DE LOS DATOS EPICENTRALES       : SSN
                                       : INSTITUTO DE GEOFISICA, UNAM

================================================================================
DATOS DE ESTE REGISTRO:
HORA DE LA PRIMERA MUESTRA (GMT)       : 01:47:58.00
EXACTITUD DEL TIEMPO (s)               : 0.01
DURACION DEL REGISTRO (s), C1-C6       : /223.25/223.25/223.25
DURACION DEL REGISTRO (s), C7-C12      : 
NUM. TOTAL DE MUESTRAS, C1-C6          : /22325/22325/22325
NUM. TOTAL DE MUESTRAS, C7-C12         : 
ACEL. MAX. (Gal), C1-C6                : /19.71483/12.38314/21.45731
ACEL. MAX., C1-C6, EN LA MUESTRA       : /8557/5609/8401
ACEL. MAX. (Gal), C7-C12               : 
ACEL. MAX., C7-C12, EN LA MUESTRA      : 
UNIDADES DE LOS DATOS                  : Gal (cm/s/s)
FACTOR DE DECIMACION                   : 1
FORMATO DATOS (FORTRAN,10 campos/dato) : 3F10.5


================================================================================
CALIDAD DEL ACELEROGRAMA:
REGISTRO DIGITAL COMPLETO CON TIEMPO ABSOLUTO CORRECTO.


================================================================================
COMENTARIOS:














================================================================================
DATOS DE ACELERACION:
---------+---------+---------+---------+---------+---------+---------+---------+
   CANAL-1   CANAL-2   CANAL-3   CANAL-4   CANAL-5   CANAL-6   CANAL-7   CANAL-8
      N00E        +V      N90W
---------+---------+---------+---------+---------+---------+---------+---------+
[...]
  -2.95542   7.48873  -2.54312
  -2.47658   7.24931  -4.45848
  -1.51889   6.29163  -6.13442
  -0.80063   4.85511  -7.09210
  -0.08237   3.89743  -7.09210
   0.15705   2.46091  -6.13442
  -0.08237   1.26381  -4.69790
  -0.56121   0.30613  -3.50080
  -1.27947  -0.41214  -2.78254
  -1.99773  -1.13040  -2.30370
  -2.47658  -1.84866  -2.54312
  -2.95542  -2.80634  -2.78254
  -3.43426  -3.76402  -3.26138
  -4.15252  -4.72170  -3.97964
  -5.58904  -5.20054  -4.93732
  -7.26498  -5.43996  -5.89500
  -9.18034  -4.96112  -6.85268
 -11.09570  -4.24286  -7.57094
 -13.01106  -3.52460  -8.04978
 -14.44758  -2.56692  -7.81036
 -15.64468  -1.13040  -7.33152
 -15.40526   0.30613  -6.85268
 -14.20816   1.98207  -6.37384
 -12.53222   3.65801  -6.37384
 -10.13802   5.33395  -6.13442
  -7.98324   6.29163  -5.65558
  -6.30730   7.00989  -4.93732
  -5.11020   7.24931  -3.97964
  -4.63136   7.24931  -3.26138
  -4.15252   7.72815  -2.54312
  -4.39194   8.20699  -2.06428
  -4.87078   8.68583  -1.82486
  -5.58904   8.68583  -1.82486
  -6.54672   8.20699  -1.34602
  -7.74382   7.72815  -0.62776
  -8.46208   6.77047   0.56934
  -8.46208   6.05221   2.48470
  -7.98324   5.57337   4.87891
  -6.78614   5.33395   7.75195
  -5.58904   4.85511   9.66731
  -4.15252   3.89743  11.10383
  -2.95542   2.70033  11.82209
  -1.99773   1.02439  11.82209
  -0.32179  -1.13040  11.58267
   1.35415  -3.28518  11.10383
   3.26951  -5.43996  10.14615
   4.94545  -6.87648   8.70963
   6.38197  -7.59474   6.55485
   7.81849  -7.35532   4.63949
   9.01559  -7.11590   3.20296
   9.49443  -6.63706   2.24528
   9.73385  -6.39764   1.52702
   9.97327  -5.91880   1.28760
  10.45211  -5.67938   1.28760
  11.17037  -5.91880   1.76644
  11.64921  -5.67938   2.24528
  11.64921  -5.20054   2.72412
  11.40979  -4.72170   2.72412
  10.69153  -4.24286   2.24528
   9.49443  -4.24286   1.52702
   8.05791  -4.96112   0.32992
   6.38197  -5.91880  -0.62776
   5.18487  -6.15822  -1.10660
   4.22719  -5.43996  -1.10660
   3.50893  -4.00344  -1.10660
   2.79067  -2.80634  -1.10660
   1.35415  -1.60924  -1.34602
  -1.04005  -0.65156  -2.06428
  -3.67368   0.06671  -3.26138
  -6.78614   1.02439  -4.69790
  -9.89860   1.74265  -6.13442
 -13.01106   2.70033  -7.33152
 -15.40526   3.41859  -8.52862
 -17.08121   4.61569  -9.24688
 -17.56005   5.81279  -9.24688
 -17.32063   7.00989  -9.00746
 -16.36294   7.48873  -8.04978
 -15.16584   7.72815  -7.09210
 -13.48990   7.24931  -6.37384
 -12.05338   6.53105  -5.89500
 -10.61686   5.81279  -5.89500
  -9.18034   4.85511  -6.13442
  -7.74382   4.61569  -6.85268
  -5.58904   4.61569  -8.28920
  -2.95542   4.61569 -10.20456
  -0.08237   4.61569 -12.35935
   2.31183   3.89743 -14.27471
   4.46661   3.65801 -15.71123
   6.38197   3.89743 -16.90833
   7.81849   4.61569 -17.38717
   8.05791   5.33395 -17.38717
   7.57907   6.29163 -17.38717
   6.38197   6.53105 -16.90833
   5.18487   6.29163 -16.66891
   3.98777   5.81279 -15.95065
   2.79067   4.37627 -15.47181
   1.35415   2.22149 -14.51413
   0.15705  -0.41214 -13.07761
  -0.56121  -3.04576 -11.16225
  -1.04005  -5.20054  -8.52862
  -1.04005  -7.11590  -5.41616
  -0.32179  -8.79184  -1.58544
   0.63589 -10.22836   2.72412
   1.59357 -10.46778   6.55485
   2.79067  -9.98894  10.38557
   3.74835  -8.79184  13.73745
   4.70603  -7.35532  16.13165
   5.66371  -6.15822  17.80759
   6.38197  -4.72170  18.28644
   7.33965  -2.80634  18.04701
   7.81849  -0.65156  17.32875
   7.81849   1.26381  16.13165
   7.33965   2.46091  14.69513
   6.38197   2.70033  13.01919
   5.66371   1.98207  11.10383
   4.94545   0.78497   9.18847
   3.98777  -0.41214   7.03369
   3.03009  -1.84866   4.63949
   1.83299  -3.28518   2.00586
   0.63589  -4.96112  -0.86718
  -0.32179  -6.39764  -3.26138
  -0.80063  -6.87648  -4.93732
  -0.80063  -7.11590  -5.65558
  -0.56121  -7.11590  -5.65558
  -0.56121  -7.59474  -4.21906
  -0.80063  -7.83416  -1.82486
  -0.80063  -8.07358   1.28760
  -0.56121  -7.59474   4.87891
  -0.56121  -6.39764   7.99137
   0.15705  -5.20054  10.62499
   1.11473  -4.00344  12.30093
   2.55125  -2.80634  13.73745
   4.22719  -1.60924  14.21629
   5.42429  -0.17271  14.45571
   6.38197   1.26381  14.69513
   6.86081   2.46091  14.93455
   6.86081   2.93975  14.93455
   6.38197   3.17917  14.69513
   6.14255   3.17917  14.21629
   6.14255   3.41859  13.01919
   6.38197   3.41859  10.86441
   6.86081   3.65801   7.51253
   7.10023   3.65801   3.44238
   6.38197   4.13685  -1.10660
   5.66371   4.37627  -5.17674
   4.46661   4.85511  -8.28920
   3.26951   4.85511 -10.20456
   2.07241   4.85511 -10.44398
   0.63589   4.61569  -9.96514
  -0.80063   4.13685  -9.24688
  -2.23715   4.13685  -8.04978
  -3.43426   4.61569  -6.85268
  -4.63136   4.61569  -5.89500
  -5.82846   5.09453  -4.93732
  -7.02556   5.33395  -4.21906
  -7.50440   5.57337  -3.97964
  -7.50440   5.09453  -3.97964
  -7.02556   3.89743  -3.97964
  -6.30730   2.46091  -3.74022
  -5.58904   0.78497  -3.50080
  -4.87078  -0.17271  -3.50080
  -4.63136  -0.41214  -3.26138
  -4.15252  -0.17271  -3.02196
  -3.67368  -0.41214  -3.26138
  -2.47658  -1.36982  -3.26138
  -0.08237  -2.56692  -3.26138
   3.74835  -3.04576  -3.74022
   8.29733  -2.80634  -4.45848
  12.84632  -2.08808  -5.65558
  15.95878  -1.84866  -7.33152
  17.15588  -2.08808  -9.24688
  17.15588  -2.56692 -11.64109
  15.95878  -2.56692 -13.79587
  13.56458  -2.32750 -15.23239
   9.97327  -2.56692 -15.71123
   5.18487  -3.04576 -15.23239
  -0.08237  -3.04576 -13.79587
  -4.63136  -3.04576 -11.64109
  -7.74382  -2.32750  -9.00746
  -9.41976  -1.60924  -5.89500
 -10.13802  -0.89098  -2.54312
 -10.37744  -0.17271   0.32992
 -10.61686   0.30613   2.00586
 -10.85628   0.78497   2.96354
 -10.37744   1.26381   3.44238
 -10.13802   1.50323   4.16065
  -9.18034   1.98207   5.11833
  -7.98324   2.46091   6.07601
  -6.06788   2.70033   7.03369
  -3.67368   2.70033   8.23079
  -1.27947   2.93975   8.94905
   0.63589   2.70033   9.42789
   1.83299   2.46091   9.90673
   2.31183   1.98207  10.38557
   2.79067   1.26381  10.14615
   3.03009   1.02439   9.90673
   2.79067   0.78497   9.18847
   1.59357   0.78497   8.47021
  -0.08237   0.78497   7.27311
  -1.75831   0.30613   6.31543
  -2.47658   0.30613   5.11833
  -2.71600   0.78497   3.68180
  -1.99773   1.26381   2.72412
  -1.04005   1.26381   1.52702
  -0.08237   1.26381   0.32992
   1.11473   0.78497  -1.34602
   2.07241   0.54555  -3.02196
   2.31183   0.06671  -4.93732
   2.55125  -0.17271  -6.85268
   2.55125   0.06671  -8.76804
   2.79067   0.54555 -10.44398
   3.26951   1.02439 -11.64109
   3.74835   1.02439 -12.35935
   4.46661   0.78497 -12.35935
   4.70603   0.06671 -11.16225
   4.22719  -0.89098  -9.48630
   3.26951  -2.08808  -7.09210
   1.35415  -3.28518  -3.97964
  -0.80063  -3.76402  -1.10660
  -2.95542  -3.04576   1.04818
  -4.87078  -2.32750   3.20296
  -6.30730  -1.36982   4.63949
  -6.78614  -0.65156   5.83659
  -6.78614  -0.65156   7.03369
  -6.54672  -0.65156   7.99137
  -5.58904  -0.89098   8.70963
  -4.15252  -0.65156   9.18847
  -2.71600  -0.41214   9.42789
  -1.51889   0.30613   8.70963
  -0.80063   1.02439   7.51253
  -0.32179   1.26381   5.59717
  -0.32179   1.50323   3.68180
  -1.04005   1.50323   1.76644
  -2.71600   1.98207   0.80876
  -4.63136   2.70033   0.80876
  -6.78614   3.65801   2.00586
  -8.94092   4.61569   4.40007
 -10.13802   4.85511   7.75195
 -11.09570   4.61569  11.10383
 -11.33512   3.65801  13.97687
 -11.57454   2.93975  15.41339
 -11.33512   2.46091  15.65281
 -10.85628   2.70033  15.17397
 -10.37744   3.17917  13.97687
  -9.41976   3.41859  11.82209
  -8.46208   3.41859   9.18847
  -7.02556   2.93975   6.79427
  -5.34962   2.70033   4.40007
  -4.15252   2.46091   2.72412
  -3.19484   2.22149   1.28760
  -2.47658   1.74265   0.09050
  -2.23715   1.26381  -1.10660
  -2.23715   0.30613  -1.82486
  -2.71600  -0.65156  -2.30370
  -3.43426  -1.60924  -2.54312
  -4.63136  -2.32750  -2.54312
  -5.82846  -3.04576  -1.82486
  -7.02556  -3.28518  -0.38834
  -7.50440  -2.80634   1.28760
  -7.50440  -2.56692   2.72412
  -7.02556  -2.08808   3.92123
  -6.06788  -1.84866   4.63949
  -4.63136  -1.84866   4.87891
  -2.47658  -1.60924   4.63949
  -0.32179  -1.60924   3.92123
   2.07241  -1.36982   3.20296
   4.22719  -1.36982   2.24528
   6.38197  -0.89098   1.28760
   8.77617  -0.65156  -0.14892
  10.93095  -0.17271  -2.06428
  13.32516   0.06671  -3.74022
  15.47994   0.54555  -5.41616
  17.15588   1.02439  -6.85268
  18.35298   1.02439  -8.28920
  18.35298   1.02439  -9.00746
  17.39530   0.78497  -9.48630
  15.24052   0.30613  -9.72572
  12.36748  -0.41214  -9.48630
   9.01559  -1.13040  -8.52862
   5.42429  -1.84866  -7.33152
   1.83299  -2.56692  -5.65558
  -1.27947  -3.28518  -3.97964
  -3.91310  -3.76402  -2.78254
  -5.58904  -3.76402  -2.06428
  -7.02556  -3.76402  -1.58544
  -8.46208  -3.52460  -1.82486
  -9.89860  -3.76402  -2.54312
 -10.85628  -4.00344  -3.26138
 -11.33512  -4.00344  -3.50080
 -10.85628  -3.52460  -3.26138
 -10.13802  -2.80634  -2.30370
  -8.94092  -1.84866  -0.86718
  -7.26498  -1.13040   1.04818
  -5.11020  -0.17271   3.20296
  -2.71600   0.54555   5.35775
  -0.32179   0.78497   7.03369
   1.83299   0.78497   8.94905
   3.50893   0.54555  10.38557
   4.46661   0.78497  12.06151
   4.94545   1.26381  13.01919
   5.18487   1.98207  13.97687
   5.42429   2.70033  14.69513
   5.66371   3.17917  14.93455
   5.66371   3.41859  14.69513
   5.66371   3.41859  13.97687
   5.66371   3.17917  13.01919
   6.14255   2.70033  11.58267
   6.62139   1.74265  10.14615
   7.33965   1.02439   8.47021
   7.33965   0.78497   6.31543
   6.86081   0.78497   3.92123
   6.14255   1.26381   1.52702
   5.66371   1.98207  -1.10660
   5.42429   2.70033  -3.02196
   5.42429   2.46091  -4.69790
   5.66371   1.74265  -5.41616
   5.66371   0.78497  -5.65558
   6.38197   0.06671  -5.17674
   7.57907  -0.89098  -4.21906
   9.01559  -1.60924  -3.02196
  10.93095  -2.56692  -1.82486
  13.08574  -3.52460  -0.62776
  15.00110  -4.00344   0.09050
  16.43762  -4.48228   0.56934
  17.63472  -5.20054   0.80876
  18.11356  -6.15822   0.80876
  18.11356  -7.35532   0.80876
  17.87414  -8.55242   0.56934
  17.63472  -8.79184   0.56934
  17.39530  -8.79184   0.56934
  16.91646  -8.07358   0.32992
  16.43762  -7.11590  -0.14892
  15.71936  -6.39764  -0.86718
  14.76168  -5.67938  -2.06428
  13.08574  -4.96112  -3.74022
  11.17037  -4.72170  -5.41616
   8.77617  -4.72170  -7.57094
   6.62139  -4.48228  -9.24688
   4.70603  -3.52460 -10.44398
   3.50893  -2.08808 -11.40167
   2.31183  -0.65156 -12.35935
   1.35415   0.54555 -13.31703
   0.39647   1.26381 -14.99297
  -0.56121   2.46091 -16.42949
  -1.51889   3.89743 -17.86601
  -2.47658   5.57337 -19.30253
  -3.43426   6.77047 -20.49963
  -4.39194   7.96757 -21.45731
  -5.34962   8.44641 -20.97847
  -5.34962   9.16467 -19.54195
  -4.63136   9.64351 -17.86601
  -3.67368   9.64351 -16.42949
  -2.95542   9.40409 -14.99297
  -2.23715   9.16467 -13.31703
  -1.99773   8.44641 -11.40167
  -1.99773   7.72815  -9.96514
  -1.99773   6.77047  -9.24688
  -2.47658   6.05221  -9.00746
  -2.71600   5.57337  -9.00746
  -3.19484   5.57337  -9.00746
  -4.15252   5.57337  -8.76804
  -4.87078   5.33395  -7.81036
  -5.82846   5.33395  -6.85268
  -6.06788   5.33395  -6.13442
  -5.82846   5.81279  -5.65558
  -5.34962   7.00989  -5.41616
  -4.87078   7.72815  -5.65558
  -4.63136   8.68583  -5.65558
  -4.39194   8.68583  -5.41616
  -4.63136   8.20699  -4.45848
  -4.63136   7.48873  -3.26138
  -4.63136   6.77047  -1.58544
  -4.87078   5.81279   0.09050
  -4.87078   4.85511   1.28760
  -4.87078   3.17917   2.72412
  -4.87078   1.26381   3.92123
  -4.87078  -0.65156   4.63949
  -4.87078  -2.56692   4.63949
  -4.87078  -4.48228   4.63949
  -4.63136  -6.15822   4.16065
  -3.91310  -7.83416   3.92123
  -3.19484  -9.03126   3.44238
  -1.75831 -10.22836   2.72412
  -0.32179 -11.42546   1.52702
   1.35415 -11.66488   0.56934
   2.31183 -11.42546  -0.62776
   3.26951 -10.94662  -1.58544
   4.46661  -9.98894  -2.54312
   5.66371  -8.55242  -2.78254
   6.38197  -7.11590  -2.54312
   6.62139  -6.63706  -1.82486
   6.38197  -6.63706  -0.14892
   6.14255  -6.15822   1.76644
   6.38197  -5.91880   2.72412
   6.14255  -5.43996   2.72412
   5.42429  -5.20054   2.24528
   4.22719  -5.67938   1.76644
   3.26951  -6.15822   1.52702
   3.03009  -6.15822   1.28760
   3.03009  -5.67938   0.56934
   2.79067  -5.43996  -0.86718
   2.79067  -5.43996  -2.30370
   3.98777  -5.20054  -3.50080
   5.42429  -4.24286  -4.45848
   7.10023  -3.28518  -4.93732
   8.29733  -2.08808  -4.69790
   9.25501  -1.36982  -4.45848
   9.73385  -1.13040  -3.97964
   9.97327  -1.13040  -3.26138
  10.21269  -0.89098  -2.30370
  10.21269  -0.89098  -1.10660
   9.49443  -0.65156   0.56934
   8.29733  -0.89098   2.24528
   6.62139  -0.65156   3.44238
   5.18487  -0.65156   3.92123
   3.26951   0.30613   4.16065
   1.59357   1.26381   3.92123
  -0.32179   2.22149   3.44238
  -2.71600   2.93975   2.24528
  -5.11020   3.41859   0.80876
  -7.50440   3.89743  -0.38834
  -9.41976   4.85511  -1.58544
 -10.37744   5.81279  -2.06428
 -10.61686   6.05221  -2.30370
  -9.89860   6.29163  -2.06428
  -8.94092   6.29163  -1.58544
  -7.74382   6.53105  -0.62776
  -6.30730   7.00989   0.80876
  -5.34962   7.48873   2.48470
  -4.87078   7.48873   4.16065
  -4.87078   6.77047   5.83659
  -4.87078   5.57337   7.75195
  -5.34962   4.37627   9.18847
  -5.82846   2.70033  10.62499
  -6.78614   1.74265  11.82209
  -7.98324   1.26381  12.54035
  -9.41976   1.26381  12.77977
 -10.85628   1.02439  12.30093
 -12.29280   0.78497  11.34325
 -13.72932   0.06671  10.38557
 -15.16584  -0.65156   8.70963
 -16.36294  -1.84866   7.27311
 -17.56005  -2.56692   6.31543
 -18.27831  -3.28518   5.59717
 -18.75715  -3.52460   5.35775
 -18.51773  -3.28518   4.87891
 -17.56005  -2.32750   4.16065
 -16.60236  -1.60924   3.44238
 -14.92642  -1.36982   2.24528
 -13.01106  -1.60924   1.04818
 -11.57454  -2.08808   0.56934
 -10.13802  -2.08808   0.56934
  -8.70150  -1.60924   0.32992
  -7.26498  -0.89098   0.09050
  -6.06788  -0.65156   0.09050
  -4.87078  -0.65156   0.32992
  -3.67368  -0.65156   1.28760
  -1.75831  -0.65156   1.76644
   0.87531  -0.41214   2.48470
   3.26951  -0.41214   3.20296
   5.66371  -0.65156   4.16065
   7.81849  -0.41214   5.35775
   9.73385   0.06671   6.55485
  11.40979   0.78497   6.79427
  12.36748   1.02439   6.79427
  13.08574   0.78497   6.55485
  13.56458   0.06671   6.31543
  14.28284  -0.89098   6.31543
  15.00110  -1.60924   6.31543
  16.19820  -2.32750   6.31543
  17.63472  -2.80634   6.31543
  18.83182  -3.52460   7.03369
  19.55008  -4.00344   7.99137
  19.31066  -4.48228   8.70963
  18.35298  -5.20054   9.66731
  16.67704  -5.91880  10.38557
  14.52226  -6.39764  11.10383
  12.36748  -6.15822  12.06151
   9.97327  -5.67938  12.77977
   7.57907  -5.20054  12.54035
   5.18487  -4.96112  12.06151
   3.26951  -4.96112  11.58267
   1.83299  -4.72170  11.10383
   0.87531  -4.24286  10.38557
  -0.08237  -4.00344   9.42789
  -0.80063  -4.00344   7.99137
  -1.27947  -4.00344   6.79427
  -1.99773  -4.00344   5.59717
  -2.71600  -4.00344   4.40007
  -3.67368  -3.76402   2.96354
  -4.63136  -3.76402   1.52702
  -5.82846  -3.76402   0.09050
  -7.26498  -3.04576  -1.34602
  -8.70150  -2.08808  -2.54312
 -10.13802  -0.41214  -3.74022
 -11.81396   1.50323  -4.93732
