********************************************************************************
               CENTRO DE INSTRUMENTACION Y REGISTRO SISMICO  A.C.  
                       Coordinacion de Servicios Tecnicos
     Anaxagoras 814, Col. Narvarte, Benito Juarez, C.P. 03020 Mexico, D.F.
            Tels. 687 45 42/ 687 45  82             Fax. 669 25 12
********************************************************************************
ARCHIVO ESTANDAR DE ACELERACION:
VERSION DEL FORMATO                    : 2.0
NOMBRE DEL ARCHIVO                     : AP689912.291
FECHA Y HORA DE CREACION               : 10/FEBRERO/2000 10:55
REF. CATALOGO ACELEROGRAMAS, SMIS 1996 : REGISTRO No.     /PAG.


================================================================================
DATOS DE LA ESTACION:
NOMBRE DE LA ESTACION                  : APATLACO
CLAVE DE LA ESTACION                   : AP68
LOCALIZACION DE LA ESTACION            : Jardin de Ni¤os Juan Bautista de la
                                       : Salle Canal de Apatlaco y Ahuehuetes,
                                       : Col Iztacalco Infonavit, Iztacalc
                                       : 
                                       :
COORDENADAS DE LA ESTACION             : 19.381 LAT. N 
                                       : 99.107 LONG. W 
ALTITUD (msnm)                         : 2232
TIPO DE SUELO                          : ARCILLOSO, ZONA LAGO
                                       : 
                                       : 
INSTITUCION RESPONSABLE                : CIRES
                                       :

================================================================================
DATOS DEL ACELEROGRAFO:
MODELO DEL ACELEROGRAFO                : RAD-851
NUMERO DE SERIE DEL ACELEROGRAFO       : 255
NUMERO DE CANALES                      : 3
ORIENTACION C1-C6 (rumbo;orientacion)  : /N00E/+V/N90W
ORIENTACION C7-C12 (rumbo;orientacion) :
VEL. DE MUESTREO, C1-C6 (muestras/s)   : /100/100/100
VEL. DE MUESTREO, C7-C12 (muestras/s)  :
ESC. COMPLETA DE SENSORES, C1-C6, (g)  : /0.5/0.5/0.5
ESC. COMPLETA DE SENSORES, C7-C12, (g) :
FREC. NAT. DE SENSORES, C1-C6, (Hz)    : /30/30/30
FREC. NAT. DE SENSORES, C7-C12, (Hz)   :
AMORTIGUAMIENTO DE SENSORES, C1-C6     : /0.780/0.700/0.678
AMORTIGUAMIENTO DE SENSORES, C7-C12    :
INTERVALO DE MUESTREO, C1-C6, (s)      : /0.01/0.01/0.01
INTERVALO DE MUESTREO, C7-C12, (s)     :
UMBRAL DE DISPARO, C1-C6, (Gal)        : /3.42/4.15/3.42
UMBRAL DE DISPARO, C7-C12, (Gal)       :
MEMORIA DE PREEVENTO (s)               : 8
TIEMPO DE POSEVENTO (s)                : 8


================================================================================
DATOS DEL SISMO:
FECHA DEL SISMO (GMT)                  : 29/DIC/99
HORA EPICENTRO (GMT)                   : 05:19:46.0
MAGNITUD(ES)                           : /Mb=6.1/Ms=5.4/Mc=5.1/Ma=5.6/Me=5.9
COORDENADAS DEL EPICENTRO              : 18.02 LAT. N
                                       : 101.68 LONG. W
PROFUNDIDAD FOCAL (km)                 : 82.0
FUENTE DE LOS DATOS EPICENTRALES       : SSN
                                       : INSTITUTO DE GEOFISICA, UNAM

================================================================================
DATOS DE ESTE REGISTRO:
HORA DE LA PRIMERA MUESTRA (GMT)       : 05:21:29.00
EXACTITUD DEL TIEMPO (s)               : 0.01
DURACION DEL REGISTRO (s), C1-C6       : /110.75/110.75/110.75
DURACION DEL REGISTRO (s), C7-C12      :
NUM. TOTAL DE MUESTRAS, C1-C6          : /11075/11075/11075
NUM. TOTAL DE MUESTRAS, C7-C12         :
ACEL. MAX. (Gal), C1-C6                : /5.25440/1.83921/4.85520
ACEL. MAX., C1-C6, EN LA MUESTRA       :
ACEL. MAX. (Gal), C7-C12               :
ACEL. MAX., C7-C12, EN LA MUESTRA      :
UNIDADES DE LOS DATOS                  : Gal (cm/s/s)
FACTOR DE DECIMACION                   : 1
FORMATO DATOS (FORTRAN,10 campos/dato) : 3F10.5


================================================================================
CALIDAD DEL ACELEROGRAMA:
REGISTRO DIGITAL COMPLETO CON TIEMPO ABSOLUTO CORRECTO.


================================================================================
COMENTARIOS:














================================================================================
DATOS DE ACELERACION:
---------+---------+---------+---------+---------+---------+---------+---------+
   CANAL-1   CANAL-2   CANAL-3   CANAL-4   CANAL-5   CANAL-6   CANAL-7   CANAL-8
      N00E        +V      N90W
---------+---------+---------+---------+---------+---------+---------+---------+
[...]
  -0.73108   0.64212  -0.89085
  -0.73108   0.88154  -0.89085
  -0.01282   0.40270  -1.13027
  -0.25224   0.64212  -0.65144
  -0.73108   0.88154  -0.89085
  -0.01282   0.64212  -0.89085
   0.22660   0.64212  -0.65144
   0.46602   0.64212  -0.89085
   0.22660   0.40270  -0.65144
   0.46602   0.88154  -1.13027
   0.70544   0.40270  -0.89085
   0.94486   0.40270  -0.65144
   0.94486   0.88154  -0.65144
   1.18428   0.64212  -1.13027
   1.90253   0.16328  -0.89085
   2.14195   0.16328  -1.13027
   1.66311   0.40270  -0.65144
   1.90253   0.16328  -0.89085
   2.14195   0.16328  -1.13027
   1.90253   0.40270  -0.89085
   1.90253   0.16328  -0.89085
   1.90253   0.40270  -0.89085
   2.14195   0.40270  -1.13027
   2.14195   0.16328  -0.89085
   2.38137   0.40270  -1.13027
   2.38137   0.40270  -1.13027
   2.86021  -0.07614  -0.89085
   2.62079  -0.07614  -1.13027
   2.62079   0.16328  -0.89085
   2.86021   0.40270  -1.13027
   3.09963  -0.07614  -0.65144
   2.86021  -0.07614  -0.65144
   2.62079  -0.31556  -0.17260
   2.86021   0.16328  -0.65144
   2.62079  -0.07614  -0.41202
   2.86021  -0.07614  -0.17260
   2.86021  -0.55498  -0.17260
   3.09963  -0.07614  -0.41202
   2.86021  -0.31556   0.06682
   3.09963  -1.03381   0.30624
   2.62079  -0.55498   0.30624
   3.09963  -0.31556   0.06682
   3.33905  -0.55498   0.30624
   3.09963  -0.55498   0.54566
   2.62079  -0.31556   0.54566
   2.62079  -0.79440   0.78508
   2.86021  -0.79440   0.30624
   2.86021  -0.79440   0.54566
   3.09963  -0.79440   0.54566
   3.57846  -0.55498   0.06682
   3.57846  -0.55498   0.30624
   3.81788  -0.55498   0.54566
   3.33905  -0.31556   0.06682
   3.09963   0.40270   0.30624
   3.09963  -0.07614   0.06682
   3.33905  -0.31556   0.06682
   2.86021   0.16328  -0.17260
   3.09963   0.16328  -0.65144
   3.33905   0.16328  -0.89085
   3.33905   0.16328  -0.89085
   3.09963   0.16328  -0.89085
   2.86021   0.64212  -1.36969
   2.86021   0.40270  -1.36969
   2.62079   0.16328  -1.36969
   2.86021   0.40270  -1.36969
   2.86021   0.40270  -1.60911
   2.38137   0.40270  -1.60911
   2.62079   0.40270  -1.60911
   2.38137   0.40270  -1.60911
   2.14195   0.16328  -1.36969
   2.38137   0.16328  -1.60911
   1.90253   0.16328  -1.36969
   1.90253   0.16328  -1.36969
   2.14195   0.16328  -1.84853
   2.14195   0.16328  -1.60911
   2.14195  -0.31556  -1.13027
   1.90253  -0.07614  -1.36969
   1.42369   0.64212  -1.13027
   1.90253   0.16328  -1.36969
   1.90253   0.16328  -1.36969
   1.66311   0.16328  -1.36969
   1.42369  -0.07614  -1.36969
   2.14195  -0.07614  -1.84853
   1.90253   0.16328  -1.36969
   1.90253  -0.31556  -1.13027
   1.90253  -0.07614  -1.36969
   1.66311   0.16328  -1.60911
   1.18428  -0.07614  -0.89085
   1.90253  -0.31556  -1.13027
   1.18428   0.16328  -1.13027
   1.42369  -0.07614  -0.89085
   1.90253  -0.31556  -0.89085
   1.42369   0.40270  -0.65144
   1.42369   0.40270  -0.89085
   1.66311   0.16328  -0.89085
   1.42369   0.16328  -0.65144
   1.42369  -0.07614  -0.41202
   1.66311   0.40270  -0.65144
   1.90253   0.64212  -0.89085
   1.90253   0.16328  -0.41202
   1.66311  -0.07614  -0.17260
   1.90253   0.16328  -0.65144
   1.90253   0.40270  -0.65144
   2.38137   0.16328  -0.65144
   2.14195   0.16328  -0.65144
   2.38137   0.40270  -0.65144
   2.86021   0.16328  -1.13027
   2.86021   0.40270  -0.89085
   2.62079   0.16328  -0.65144
   2.62079   0.16328  -0.89085
   2.62079   0.16328  -1.13027
   2.86021  -0.31556  -0.89085
   3.33905  -0.07614  -1.13027
   3.09963   0.16328  -1.13027
   2.86021   0.16328  -1.13027
   2.86021  -0.07614  -0.89085
   2.86021  -0.31556  -0.89085
   2.38137  -0.07614  -1.13027
   2.86021   0.16328  -1.13027
   3.09963  -0.31556  -1.36969
   2.62079  -0.07614  -1.13027
   2.38137  -0.07614  -1.13027
   2.38137  -0.07614  -1.60911
   2.38137  -0.07614  -1.36969
   1.90253  -0.55498  -0.89085
   1.90253  -0.07614  -1.13027
   1.66311   0.16328  -1.36969
   1.90253  -0.79440  -0.89085
   1.66311  -0.55498  -0.65144
   0.94486  -0.55498  -0.65144
   0.94486  -0.55498  -0.89085
   0.94486  -0.55498  -0.65144
   0.46602  -0.79440   0.06682
   0.22660  -0.79440   0.06682
   0.46602  -0.79440  -0.17260
   0.22660  -0.79440   0.30624
  -0.25224  -0.55498   0.78508
  -0.25224  -0.79440   0.54566
  -0.25224  -0.55498   0.54566
  -0.49166  -0.79440   0.78508
  -0.49166  -0.79440   0.78508
  -0.97050  -0.55498   1.02450
  -0.73108  -0.31556   0.54566
  -0.97050  -0.55498   0.78508
  -1.20991  -0.55498   0.78508
  -1.44933  -0.31556   1.02450
  -1.20991  -0.07614   0.78508
  -1.20991  -0.31556   0.78508
  -1.44933  -0.31556   1.02450
  -1.20991  -0.31556   0.78508
  -1.68875  -0.07614   0.30624
  -1.44933  -0.07614   0.30624
  -1.68875  -0.07614   0.78508
  -1.44933  -0.31556   0.30624
  -1.92817  -0.07614   0.54566
  -1.68875  -0.55498   0.54566
  -1.92817  -0.07614   0.78508
  -2.16759   0.16328   1.02450
  -2.16759   0.16328   0.78508
  -1.92817  -0.31556   0.30624
  -2.40701  -0.07614   1.02450
  -1.68875  -0.31556   0.78508
  -2.16759  -0.07614   0.30624
  -2.64643  -0.07614   0.54566
  -2.40701  -0.31556   0.78508
  -2.64643  -0.07614   0.30624
  -2.64643  -0.07614   0.54566
  -2.40701  -0.55498   0.78508
  -2.64643  -0.31556   0.54566
  -2.88585  -0.31556   0.30624
  -2.88585  -0.07614   0.54566
  -2.64643  -0.31556   0.06682
  -2.88585  -0.31556   0.54566
  -3.36468  -0.55498   0.78508
  -3.12527  -0.07614   0.06682
  -3.12527  -0.07614   0.30624
  -3.12527  -0.31556   0.78508
  -3.12527  -0.31556   0.30624
  -3.84352   0.16328   0.30624
  -3.36468  -0.07614   0.54566
  -3.36468  -0.07614   0.54566
  -3.84352   0.16328   0.78508
  -3.84352   0.40270   0.78508
  -3.84352  -0.07614   0.54566
  -4.08294   0.16328   1.02450
  -4.08294   0.16328   0.78508
  -3.84352   0.16328   0.78508
  -3.60410  -0.07614   0.54566
  -4.08294   0.16328   1.02450
  -3.84352   0.16328   0.78508
  -4.08294   0.64212   0.54566
  -3.60410   0.40270   0.54566
  -3.60410   0.40270   0.54566
  -4.32236   0.64212   0.78508
  -3.84352   0.64212   0.30624
  -3.36468   0.40270   0.30624
  -3.84352   0.40270   1.02450
  -3.84352   0.40270   1.02450
  -3.84352   0.64212   1.02450
  -3.60410   0.64212   1.02450
  -3.36468  -0.07614   1.26392
  -3.12527   0.64212   1.02450
  -3.12527   0.40270   0.78508
  -3.12527   0.16328   1.26392
  -3.36468   0.16328   1.02450
  -2.88585   0.16328   1.26392
  -2.64643   0.40270   1.02450
  -2.64643  -0.07614   1.26392
  -2.40701  -0.07614   1.50333
  -2.40701   0.40270   1.26392
  -2.16759   0.16328   1.26392
  -1.92817   0.16328   1.50333
  -1.68875  -0.31556   1.50333
  -2.16759   0.40270   1.74275
  -1.92817  -0.07614   1.74275
  -1.92817  -0.31556   1.50333
  -1.92817  -0.07614   1.74275
  -1.68875  -0.31556   1.74275
  -1.44933  -0.31556   1.74275
  -1.68875  -0.31556   2.22159
  -1.68875  -0.31556   2.46101
  -1.68875  -0.31556   2.46101
  -1.68875  -0.07614   2.70043
  -1.20991  -0.31556   2.70043
  -1.44933  -0.55498   2.93985
  -1.92817  -0.07614   2.93985
  -1.44933  -0.07614   2.70043
  -1.44933  -0.31556   2.70043
  -1.44933  -0.31556   3.17927
  -1.44933  -0.31556   3.17927
  -1.20991  -0.07614   2.70043
  -1.20991   0.16328   2.93985
  -1.20991  -0.07614   3.41869
  -1.20991  -0.07614   3.17927
  -1.20991   0.40270   2.93985
  -0.97050  -0.07614   3.17927
  -0.49166  -0.07614   2.70043
  -1.20991   0.16328   2.70043
  -0.73108   0.40270   2.46101
  -0.49166  -0.07614   2.22159
  -0.97050   0.16328   2.46101
  -0.49166  -0.31556   2.22159
  -0.25224  -0.07614   2.22159
  -0.25224   0.16328   2.22159
  -0.25224   0.16328   2.22159
  -0.49166   0.16328   1.98217
  -0.25224  -0.07614   1.26392
  -0.49166   0.40270   2.22159
  -0.25224  -0.31556   1.50333
  -0.49166   0.16328   1.02450
  -0.73108   0.16328   1.02450
  -0.49166  -0.07614   1.02450
  -0.73108   0.16328   1.02450
  -1.44933   0.16328   1.26392
  -0.73108   0.40270   0.54566
  -0.97050   0.16328   0.54566
  -1.20991   0.16328   1.02450
  -1.20991  -0.07614   0.78508
  -1.44933   0.64212   0.54566
  -1.68875   0.40270   0.54566
  -1.44933   0.40270   0.30624
  -1.92817   0.40270   0.30624
  -1.68875   0.64212  -0.17260
  -1.92817   0.40270   0.30624
  -1.92817   0.16328   0.06682
  -2.64643   0.64212   0.06682
  -2.16759   0.40270   0.06682
  -2.16759   0.40270  -0.41202
  -2.40701   0.40270   0.54566
  -2.40701   0.40270  -0.17260
  -2.40701   0.88154  -0.65144
  -2.40701   0.40270  -0.17260
  -2.40701   0.16328   0.06682
  -2.40701   0.40270  -0.17260
  -2.40701   0.40270  -0.17260
  -1.68875   0.16328  -0.41202
  -2.16759   0.40270  -0.41202
  -2.40701   0.40270   0.06682
  -1.92817   0.16328   0.06682
  -1.68875   0.40270  -0.17260
  -1.92817   0.16328   0.30624
  -1.68875   0.16328   0.30624
  -1.44933   0.16328   0.06682
  -1.20991   0.16328   0.30624
  -0.97050  -0.31556   0.78508
  -0.73108  -0.07614   0.30624
  -0.49166   0.16328   0.78508
  -0.25224  -0.07614   1.26392
  -0.25224  -0.31556   1.02450
  -0.25224   0.16328   1.26392
  -0.01282  -0.07614   1.26392
   0.46602  -0.07614   1.02450
  -0.01282   0.16328   1.98217
   0.46602  -0.07614   1.74275
   0.70544   0.16328   1.26392
   1.18428  -0.07614   1.26392
   1.42369  -0.55498   1.50333
   1.42369  -0.07614   1.26392
   1.18428  -0.07614   0.78508
   1.42369  -0.31556   0.78508
   1.18428  -0.07614   0.78508
   1.18428  -0.07614   0.30624
   1.42369   0.16328   0.06682
   1.66311  -0.31556  -0.17260
   1.42369   0.16328  -0.41202
   1.18428  -0.07614  -0.41202
   1.66311   0.16328  -1.13027
   1.66311   0.16328  -1.60911
   1.18428   0.16328  -1.36969
   1.42369  -0.07614  -1.13027
   1.66311   0.16328  -1.60911
   1.66311  -0.07614  -1.84853
   1.42369  -0.07614  -2.08795
   0.94486   0.40270  -2.32737
   1.18428   0.16328  -2.56679
   1.42369   0.40270  -2.80621
   1.18428   0.16328  -2.56679
   0.94486   0.16328  -2.80621
   1.42369   0.16328  -3.04563
   1.66311   0.16328  -3.52446
   1.66311  -0.31556  -3.28504
   1.66311  -0.31556  -3.28504
   1.66311   0.40270  -3.76388
   1.90253   0.16328  -3.76388
   1.90253  -0.31556  -3.52446
   2.14195  -0.07614  -3.76388
   1.90253   0.40270  -3.76388
   2.62079  -0.07614  -3.76388
   2.38137  -0.07614  -3.76388
   2.14195  -0.07614  -3.76388
   2.86021  -0.55498  -3.76388
   3.09963  -0.07614  -3.76388
   3.09963  -0.55498  -3.04563
   3.33905  -0.31556  -3.04563
   3.57846   0.16328  -3.52446
   3.57846  -0.07614  -3.04563
   3.33905  -0.55498  -2.32737
   3.81788  -0.31556  -2.56679
   3.81788  -0.07614  -2.56679
   4.05730  -0.31556  -2.08795
   4.53614  -0.79440  -1.84853
   4.29672   0.16328  -2.32737
   4.29672  -0.07614  -2.32737
   4.77556  -0.07614  -2.56679
   4.53614  -0.07614  -2.08795
   4.77556  -0.31556  -2.08795
   5.01498  -0.07614  -2.56679
   4.77556  -0.07614  -2.32737
   5.25440  -0.55498  -2.08795
   5.01498  -0.07614  -2.08795
   4.77556  -0.07614  -2.32737
   5.01498  -0.31556  -2.08795
   5.01498  -0.07614  -2.08795
   4.77556  -0.07614  -1.84853
   5.01498  -0.07614  -2.08795
   5.25440  -0.31556  -2.08795
   5.25440  -0.31556  -2.08795
   5.01498   0.16328  -2.08795
   5.01498  -0.07614  -2.08795
   5.01498   0.16328  -2.08795
   4.77556  -0.31556  -1.36969
   4.77556  -0.31556  -1.84853
   4.29672   0.16328  -1.84853
   4.77556  -0.07614  -1.84853
   4.77556  -0.07614  -1.84853
   4.53614   0.40270  -1.84853
   4.53614   0.16328  -2.08795
   4.29672   0.40270  -2.08795
   4.05730   0.16328  -1.84853
   4.05730   0.16328  -1.60911
   3.57846   0.40270  -1.84853
   3.57846   0.40270  -2.08795
   3.33905   0.40270  -1.60911
   2.62079   0.16328  -1.36969
   2.86021   0.40270  -1.60911
   2.38137   0.40270  -1.36969
   2.38137  -0.07614  -1.36969
   2.38137   0.16328  -1.36969
   1.90253   0.40270  -1.36969
   1.90253   0.16328  -1.13027
   1.66311   0.16328  -1.13027
   1.18428   0.64212  -0.89085
   1.18428   0.64212  -0.89085
   1.42369   0.64212  -1.13027
   0.94486   0.16328  -0.65144
   0.94486  -0.07614  -0.65144
   0.70544   0.40270  -0.65144
   0.70544   0.16328  -0.65144
   0.46602   0.16328   0.30624
   0.46602  -0.07614   0.30624
   0.46602  -0.07614   0.30624
   0.46602  -0.07614   0.54566
   0.70544  -0.55498   0.54566
   0.22660   0.16328   1.02450
   0.46602   0.16328   1.02450
   0.46602  -0.07614   0.78508
   0.22660  -0.07614   1.26392
   0.70544  -0.31556   1.26392
   0.70544  -0.07614   1.02450
   0.46602   0.16328   1.26392
   0.94486  -0.31556   1.50333
   0.94486  -0.07614   1.26392
   0.70544   0.16328   1.26392
   0.94486   0.16328   1.02450
   1.18428  -0.07614   1.50333
   0.94486  -0.31556   0.78508
   0.94486   0.16328   1.02450
   1.18428   0.16328   0.54566
   1.42369  -0.07614   0.30624
   1.18428  -0.55498   0.30624
   1.18428  -0.31556   0.06682
   0.94486  -0.07614  -0.17260
   0.94486  -0.31556  -0.17260
   1.18428  -0.79440  -0.17260
   0.94486  -0.31556  -0.41202
   0.94486  -0.07614  -0.17260
   1.18428  -0.55498  -0.41202
   0.94486  -0.31556  -0.17260
   0.94486  -0.31556   0.06682
   1.18428  -0.55498  -0.17260
   1.18428  -0.31556  -0.17260
   0.70544  -0.55498  -0.17260
   0.94486  -0.55498   0.30624
   0.94486  -0.31556   0.06682
   0.94486  -0.79440   0.54566
   0.46602  -0.55498   0.30624
   0.70544  -0.55498   0.06682
   0.70544  -0.55498   0.30624
   0.94486  -0.79440   0.54566
   0.46602  -0.31556   0.30624
   0.22660  -0.07614   0.54566
   0.94486  -0.31556   0.30624
   0.70544  -0.31556   0.06682
  -0.01282  -0.31556   0.54566
  -0.01282  -0.07614   0.06682
   0.22660  -0.07614   0.06682
   0.22660  -0.31556   0.30624
  -0.49166   0.40270   0.06682
  -0.73108   0.16328   0.06682
  -0.73108   0.16328  -0.41202
  -1.20991   0.16328   0.06682
  -1.20991   0.16328  -0.17260
  -1.20991   0.40270  -0.17260
  -1.44933   0.64212  -0.17260
  -1.20991   0.16328  -0.17260
  -1.68875   0.64212  -0.41202
  -1.68875   0.64212  -0.65144
  -1.44933   1.12096  -0.89085
  -1.92817   0.64212  -0.17260
  -2.40701   0.88154  -0.17260
  -2.16759   1.12096  -0.65144
  -2.16759   1.12096  -0.41202
  -2.40701   0.88154  -0.17260
  -2.40701   0.64212  -0.17260
  -2.64643   0.88154   0.06682
  -2.16759   0.40270  -0.17260
  -2.16759   0.64212   0.06682
  -2.40701   0.40270   0.30624
  -2.16759   0.64212   0.78508
  -2.40701   0.16328   0.30624
  -2.16759   0.16328   0.78508
  -2.16759   0.16328   1.02450
  -2.16759  -0.07614   1.02450
  -2.40701  -0.07614   1.02450
  -2.64643  -0.31556   1.74275
  -2.88585  -0.79440   1.50333
  -2.64643  -0.55498   1.50333
  -2.88585  -0.55498   1.74275
  -2.64643  -1.27323   2.22159
  -2.64643  -1.03381   2.22159
  -3.12527  -1.03381   2.46101
  -2.88585  -1.27323   2.93985
  -2.88585  -1.27323   3.17927
  -3.36468  -1.27323   3.17927
  -3.36468  -1.03381   3.41869
  -2.88585  -1.27323   3.41869
  -3.12527  -1.27323   3.89752
  -3.60410  -1.27323   4.37636
  -3.60410  -1.03381   4.13694
  -3.60410  -0.79440   4.13694
  -3.60410  -1.03381   4.13694
  -3.84352  -1.03381   4.37636
  -3.84352  -0.55498   4.85520
  -3.60410  -0.79440   4.61578
  -3.36468  -1.27323   4.37636
  -4.08294  -0.55498   4.61578
  -3.60410  -0.79440   4.61578
  -4.08294  -0.55498   4.13694
  -3.84352  -0.55498   4.13694
  -4.08294  -0.79440   3.89752
  -4.08294  -0.31556   3.65811
  -3.84352  -0.31556   3.65811
  -3.60410  -0.55498   3.41869
  -4.08294  -0.07614   3.17927
  -4.32236  -0.31556   3.17927
  -3.84352  -0.31556   2.46101
  -4.08294  -0.55498   2.22159
  -4.08294  -0.07614   2.22159
