********************************************************************************
              CENTRO DE INSTRUMENTACION Y REGISTRO SISMICO  A.C.

    Anaxagoras 814, Col. Narvarte, Benito Juarez, C.P. 03020 Mexico, D.F.
           Tels. 5687 45 42/ 5687 45  82             Fax. 5669 25 12
********************************************************************************
ARCHIVO ESTANDAR DE ACELERACION:
VERSION DEL FORMATO                    : 2.0
NOMBRE DEL ARCHIVO                     : AP6820100630072227
FECHA Y HORA DE CREACION               : 20/JUL/10, 12:41
REF. CATALOGO ACELEROGRAMAS, SMIS 1996 : REGISTRO No.     /PAG.


================================================================================
DATOS DE LA ESTACION:
NOMBRE DE LA ESTACION                  : JARDÍN DE NIÑOS "JUAN B. DE LA SALLE"
CLAVE DE LA ESTACION                   : AP68
LOCALIZACION DE LA ESTACION            : Del. Iztapalapa, Col. Santa María      
                                       : Purísima Atlazolpa,  entre Canal de    
                                       : Apatlaco y Ahuehuetes.                 
                                       :                                        
                                       : 
COORDENADAS DE LA ESTACION             : 19.3809 LAT. N
                                       : 99.1068 LONG. W
ALTITUD (msnm)                         : 2232
TIPO DE SUELO                          : Arcilloso, zona lago                
                                       :                           
                                       : 
INSTITUCION RESPONSABLE                : CIRES
                                       : 

================================================================================
DATOS DEL ACELEROGRAFO:
MODELO DEL ACELEROGRAFO                : RADESD
NUMERO DE SERIE DEL ACELEROGRAFO       : 255
NUMERO DE CANALES                      : 3
ORIENTACION C1-C6 (rumbo;orientacion)  : /N00E/+V/N90W
ORIENTACION C7-C12 (rumbo;orientacion) : 
VEL. DE MUESTREO, C1-C6 (muestras/s)   : /100/100/100
VEL. DE MUESTREO, C7-C12 (muestras/s)  : 
ESC. COMPLETA DE SENSORES, C1-C6, (g)  : /0.5/0.5/0.5
ESC. COMPLETA DE SENSORES, C7-C12, (g) : 
FREC. NAT. DE SENSORES, C1-C6, (Hz)    : /30/30/30
FREC. NAT. DE SENSORES, C7-C12, (Hz)   : 
AMORTIGUAMIENTO DE SENSORES, C1-C6     : /0.780/0.700/0.678
AMORTIGUAMIENTO DE SENSORES, C7-C12    : 
INTERVALO DE MUESTREO, C1-C6, (s)      : /0.01/0.01/0.01
INTERVALO DE MUESTREO, C7-C12, (s)     : 
UMBRAL DE DISPARO, C1-C6, (Gal)        : /4.07/5.03/4.07
UMBRAL DE DISPARO, C7-C12, (Gal)       : 
MEMORIA DE PREEVENTO (s)               : 56.0
TIEMPO DE POSEVENTO (s)                : 64.0


================================================================================
DATOS DEL SISMO:
FECHA DEL SISMO (GMT)                  : 30/JUN/10
HORA EPICENTRO (GMT)                   : 07:22:27.0
MAGNITUD(ES)                           : /Mc=6.0
COORDENADAS DEL EPICENTRO              : 16.22 LAT. N
                                       : 98.03 LONG. W
PROFUNDIDAD FOCAL (km)                 : 8
FUENTE DE LOS DATOS EPICENTRALES       : SSN
                                       : INSTITUTO DE GEOFISICA, UNAM

================================================================================
DATOS DE ESTE REGISTRO:
HORA DE LA PRIMERA MUESTRA (GMT)       : 07:24:11.00
EXACTITUD DEL TIEMPO (s)               : 0.01
DURACION DEL REGISTRO (s), C1-C6       : /136.5/136.5/136.5
DURACION DEL REGISTRO (s), C7-C12      : 
NUM. TOTAL DE MUESTRAS, C1-C6          : /13650/13650/13650
NUM. TOTAL DE MUESTRAS, C7-C12         : 
ACEL. MAX. (Gal), C1-C6                : /8.08398/3.03095/10.66009
ACEL. MAX., C1-C6, EN LA MUESTRA       : /5980/6688/6030
ACEL. MAX. (Gal), C7-C12               : 
ACEL. MAX., C7-C12, EN LA MUESTRA      : 
UNIDADES DE LOS DATOS                  : Gal (cm/s/s)
FACTOR DE DECIMACION                   : 1
FORMATO DATOS (FORTRAN,10 campos/dato) : 3F10.5


================================================================================
CALIDAD DEL ACELEROGRAMA:
REGISTRO DIGITAL COMPLETO CON TIEMPO ABSOLUTO CORRECTO.


================================================================================
COMENTARIOS:














================================================================================
DATOS DE ACELERACION:
---------+---------+---------+---------+---------+---------+---------+---------+
   CANAL-1   CANAL-2   CANAL-3   CANAL-4   CANAL-5   CANAL-6   CANAL-7   CANAL-8
      N00E        +V      N90W
---------+---------+---------+---------+---------+---------+---------+---------+
[...]
   1.38022  -0.79977  -3.46570
   0.90138  -0.79977  -3.46570
   0.42254  -1.03919  -3.46570
   0.18312  -0.79977  -3.70512
  -0.05630  -0.79977  -3.70512
  -0.29572  -1.03919  -3.22628
  -0.53514  -0.56035  -3.22628
  -0.77456  -0.32093  -2.98686
  -1.01398  -0.56035  -2.74744
  -1.25340  -0.32093  -2.26860
  -1.25340  -0.32093  -2.26860
  -1.73224  -0.08151  -1.78976
  -1.49282  -0.08151  -1.78976
  -1.49282  -0.08151  -1.31092
  -1.73224   0.15791  -0.83208
  -1.97166   0.39733  -0.59266
  -1.97166   0.39733  -0.59266
  -1.73224   0.39733  -0.35324
  -1.97166   0.63675   0.12560
  -1.97166   0.63675   0.36502
  -1.49282   0.87617   0.12560
  -1.49282   0.87617   0.36502
  -1.25340   0.87617   0.84386
  -1.25340   1.11559   0.84386
  -1.25340   1.35501   1.32270
  -1.01398   1.35501   1.56212
  -1.01398   1.59443   1.56212
  -1.01398   1.59443   1.56212
  -0.77456   1.59443   2.04096
  -0.53514   1.83385   2.04096
  -0.29572   1.83385   2.04096
   0.18312   1.83385   2.28038
   0.42254   1.83385   2.51981
   0.90138   2.07327   2.51981
   1.38022   1.83385   2.51981
   1.61964   1.83385   2.75923
   2.09848   1.59443   2.75923
   2.09848   1.35501   2.75923
   2.33790   1.11559   2.75923
   2.81674   1.11559   2.51981
   3.05616   0.63675   2.51981
   3.05616   0.39733   2.75923
   3.05616   0.39733   2.75923
   3.29558  -0.08151   2.75923
   3.53500  -0.32093   2.51981
   3.29558  -0.56035   2.51981
   3.53500  -0.79977   2.75923
   3.29558  -1.03919   2.51981
   3.29558  -1.03919   2.28038
   3.29558  -1.51803   2.51981
   3.05616  -1.51803   2.75923
   2.81674  -1.75745   2.75923
   2.81674  -1.75745   2.75923
   2.81674  -1.75745   2.99865
   2.81674  -1.75745   2.75923
   2.57732  -1.99687   2.99865
   2.57732  -1.75745   3.23807
   2.57732  -1.75745   2.99865
   2.57732  -1.75745   2.99865
   2.57732  -1.75745   3.23807
   2.57732  -1.51803   2.99865
   2.33790  -1.27861   2.75923
   2.33790  -1.27861   2.75923
   2.33790  -1.27861   2.28038
   2.33790  -1.51803   2.04096
   2.33790  -1.03919   1.80154
   2.09848  -0.79977   1.56212
   2.09848  -0.56035   1.08328
   2.09848  -0.32093   0.84386
   1.85906  -0.32093   0.60444
   1.61964   0.15791   0.12560
   1.61964   0.39733  -0.59266
   1.61964   0.39733  -0.83208
   1.14080   0.15791  -1.07150
   1.14080   0.63675  -1.31092
   1.14080   0.87617  -1.78976
   0.90138   1.11559  -1.78976
   0.66196   1.11559  -2.02918
   0.18312   1.35501  -2.50802
   0.18312   1.59443  -2.74744
   0.18312   1.59443  -2.74744
  -0.05630   1.59443  -2.98686
  -0.05630   1.59443  -2.98686
  -0.29572   1.59443  -2.50802
  -0.53514   1.83385  -2.74744
  -0.53514   1.83385  -2.98686
  -1.01398   1.59443  -2.50802
  -1.01398   1.59443  -2.26860
  -1.25340   1.59443  -1.78976
  -1.73224   1.83385  -1.55034
  -1.97166   1.59443  -0.83208
  -1.97166   1.35501  -0.59266
  -2.45050   1.35501   0.36502
  -2.68993   1.35501   1.08328
  -2.92935   1.35501   1.80154
  -2.68993   1.11559   2.51981
  -2.92935   0.87617   3.23807
  -3.16877   0.63675   4.19575
  -3.16877   0.39733   4.43517
  -3.40819  -0.08151   5.39285
  -3.16877  -0.32093   5.87169
  -3.16877  -0.79977   6.82937
  -3.16877  -0.79977   7.30821
  -2.92935  -1.27861   7.78705
  -2.45050  -1.51803   8.02647
  -2.21108  -1.99687   8.26589
  -1.97166  -1.99687   8.50531
  -1.49282  -1.99687   8.74473
  -1.25340  -2.23629   8.74473
  -1.01398  -2.23629   8.74473
  -0.53514  -2.47571   8.74473
  -0.29572  -2.23629   8.50531
   0.18312  -2.23629   8.26589
   0.66196  -2.47571   7.78705
   1.14080  -2.23629   7.54763
   1.61964  -2.47571   6.82937
   1.61964  -2.23629   6.35053
   2.33790  -2.47571   5.39285
   2.57732  -1.99687   4.91401
   2.81674  -1.99687   3.95633
   2.81674  -1.99687   3.23807
   3.29558  -1.75745   2.28038
   3.53500  -1.51803   1.32270
   3.53500  -1.75745   0.60444
   3.77442  -1.27861  -0.11382
   3.53500  -1.03919  -0.83208
   3.77442  -1.03919  -1.78976
   3.53500  -1.03919  -2.26860
   3.53500  -0.56035  -2.74744
   3.05616  -0.56035  -3.22628
   3.29558  -0.08151  -3.70512
   3.05616  -0.08151  -3.94454
   2.81674  -0.08151  -4.42338
   2.33790   0.39733  -4.66280
   2.09848   0.63675  -4.66280
   1.85906   0.15791  -4.90222
   1.38022   0.39733  -4.90222
   0.90138   0.39733  -4.42338
   0.66196   0.63675  -4.42338
   0.42254   0.63675  -4.42338
   0.18312   0.63675  -4.18396
  -0.05630   0.39733  -3.94454
  -0.53514   0.63675  -3.46570
  -0.77456   0.63675  -3.22628
  -1.01398   0.87617  -2.98686
  -1.01398   0.87617  -2.98686
  -1.25340   0.87617  -2.02918
  -1.49282   0.87617  -1.78976
  -1.97166   1.11559  -1.31092
  -1.73224   1.11559  -0.83208
  -2.21108   0.87617  -0.59266
  -2.21108   0.87617  -0.11382
  -2.45050   1.11559   0.36502
  -2.68993   1.11559   0.60444
  -2.92935   1.11559   0.84386
  -2.92935   1.11559   1.08328
  -3.40819   1.11559   1.56212
  -3.40819   1.11559   1.32270
  -3.64761   0.87617   1.56212
  -3.88703   1.11559   1.80154
  -4.12645   0.63675   1.80154
  -4.60529   0.87617   1.80154
  -4.60529   0.87617   1.80154
  -4.60529   0.87617   1.56212
  -4.84471   0.87617   1.56212
  -4.84471   0.63675   1.56212
  -4.60529   0.87617   1.32270
  -4.60529   0.87617   0.84386
  -4.36587   0.39733   0.84386
  -4.12645   0.63675   0.60444
  -4.12645   0.63675   0.12560
  -3.88703   0.63675  -0.11382
  -3.64761   0.39733  -0.35324
  -3.16877   0.39733  -0.35324
  -3.16877   0.15791  -0.59266
  -3.16877   0.15791  -0.83208
  -2.68993   0.15791  -1.07150
  -2.21108  -0.08151  -1.07150
  -2.21108  -0.32093  -1.07150
  -1.97166  -0.56035  -1.31092
  -1.73224  -0.32093  -1.31092
  -1.25340  -0.79977  -1.78976
  -0.77456  -1.03919  -1.55034
  -0.77456  -1.03919  -1.55034
  -0.77456  -1.03919  -1.78976
  -0.53514  -1.27861  -1.78976
  -0.05630  -1.27861  -2.02918
  -0.05630  -1.27861  -1.78976
   0.18312  -1.75745  -1.78976
   0.42254  -1.75745  -1.78976
   0.90138  -1.75745  -2.02918
   0.90138  -1.99687  -2.26860
   0.90138  -1.99687  -1.78976
   0.90138  -1.75745  -2.02918
   1.14080  -1.75745  -1.78976
   1.14080  -1.75745  -1.78976
   1.38022  -1.75745  -1.55034
   1.14080  -1.75745  -1.31092
   1.14080  -1.51803  -1.31092
   1.14080  -1.51803  -1.07150
   0.90138  -1.27861  -0.83208
   0.90138  -1.27861  -0.59266
   0.66196  -1.27861  -0.59266
   0.66196  -0.56035  -1.07150
   0.66196  -0.56035  -1.07150
   1.14080  -0.56035  -1.31092
   0.66196  -0.08151  -1.55034
   0.66196   0.39733  -2.02918
   1.14080   0.63675  -2.50802
   1.38022   0.63675  -3.22628
   1.38022   0.87617  -3.46570
   1.61964   1.11559  -3.94454
   1.38022   1.35501  -4.66280
   1.61964   1.59443  -5.14164
   1.61964   1.83385  -5.38106
   1.38022   1.83385  -6.09932
   1.38022   1.83385  -6.33874
   1.38022   2.07327  -6.81758
   1.38022   1.59443  -7.05700
   1.14080   1.59443  -7.05700
   1.14080   1.59443  -7.05700
   1.14080   1.83385  -7.05700
   1.14080   1.83385  -6.81758
   1.14080   1.59443  -6.57816
   1.14080   1.59443  -6.09932
   0.90138   1.35501  -5.85990
   1.14080   1.35501  -5.62048
   1.14080   1.11559  -5.38106
   1.14080   0.87617  -4.66280
   1.14080   0.63675  -4.42338
   1.38022   0.87617  -4.18396
   1.38022   0.63675  -3.94454
   1.38022   0.39733  -3.22628
   1.38022   0.39733  -3.22628
   1.14080   0.15791  -2.98686
   0.90138   0.15791  -2.98686
   0.90138   0.15791  -2.74744
   0.42254  -0.32093  -2.50802
  -0.05630  -0.32093  -2.02918
  -0.53514  -0.32093  -2.02918
  -0.77456  -0.32093  -1.78976
  -1.25340  -0.56035  -1.55034
  -1.73224  -0.56035  -1.31092
  -1.97166  -0.56035  -1.55034
  -2.21108  -0.79977  -1.31092
  -2.68993  -1.27861  -1.31092
  -2.92935  -1.51803  -1.07150
  -3.40819  -1.51803  -0.83208
  -3.40819  -1.27861  -0.83208
  -3.88703  -1.51803  -0.83208
  -4.12645  -1.51803  -0.83208
  -4.12645  -1.03919  -0.83208
  -4.60529  -1.27861  -0.83208
  -4.60529  -0.79977  -1.31092
  -4.60529  -0.56035  -1.31092
  -4.60529  -0.56035  -1.31092
  -4.84471  -0.32093  -1.31092
  -5.08413  -0.08151  -1.78976
  -4.84471   0.15791  -1.78976
  -5.08413   0.15791  -1.78976
  -5.08413   0.15791  -2.26860
  -5.32355   0.39733  -2.26860
  -5.32355   0.63675  -2.26860
  -5.32355   0.87617  -2.74744
  -5.32355   0.63675  -2.98686
  -5.56297   0.63675  -2.74744
  -5.56297   1.11559  -2.98686
  -5.32355   1.11559  -2.98686
  -4.84471   1.11559  -2.98686
  -4.60529   1.11559  -2.98686
  -4.36587   1.11559  -2.74744
  -4.12645   1.59443  -2.74744
  -3.64761   1.35501  -2.50802
  -2.92935   1.35501  -2.26860
  -2.45050   1.35501  -2.02918
  -1.97166   1.59443  -1.78976
  -1.49282   1.35501  -1.55034
  -1.01398   1.35501  -1.55034
  -0.29572   1.11559  -1.07150
   0.18312   0.87617  -0.83208
   0.66196   0.87617  -0.35324
   1.38022   0.87617  -0.35324
   1.85906   0.63675   0.36502
   2.33790   0.39733   0.84386
   2.81674   0.39733   1.08328
   3.53500   0.39733   1.32270
   4.25326  -0.08151   1.56212
   4.49268  -0.32093   2.04096
   4.73210  -0.32093   2.51981
   5.45036  -0.32093   2.75923
   5.68978  -0.32093   2.99865
   6.40804  -0.56035   2.99865
   6.64746  -0.79977   3.23807
   6.88688  -0.79977   3.47749
   7.12630  -0.79977   3.23807
   7.36572  -1.03919   3.23807
   7.84456  -1.27861   3.23807
   8.08398  -1.27861   2.99865
   7.84456  -1.27861   2.75923
   7.84456  -1.51803   2.51981
   7.84456  -1.75745   2.28038
   7.60514  -1.75745   2.28038
   7.12630  -1.75745   2.28038
   6.88688  -1.99687   1.80154
   6.64746  -1.99687   1.56212
   6.64746  -2.23629   1.32270
   6.16862  -2.23629   1.32270
   5.92920  -2.23629   1.08328
   5.92920  -1.99687   0.84386
   5.45036  -1.99687   0.84386
   5.68978  -1.99687   0.84386
   5.45036  -1.75745   0.60444
   5.45036  -1.75745   0.36502
   5.21094  -1.51803  -0.11382
   5.45036  -1.51803  -0.11382
   5.21094  -1.03919  -0.35324
   4.97152  -0.79977  -0.35324
   4.73210  -0.56035  -0.59266
   4.73210  -0.32093  -1.07150
   4.49268  -0.08151  -0.83208
   4.01384   0.39733  -0.83208
   3.53500   0.63675  -0.83208
   2.81674   0.87617  -0.83208
   2.57732   0.87617  -0.59266
   1.85906   0.87617  -0.35324
   1.38022   1.11559  -0.35324
   0.66196   1.59443   0.12560
   0.42254   1.59443   0.36502
  -0.05630   1.83385   0.60444
  -0.77456   1.59443   1.32270
  -1.01398   1.83385   1.56212
  -1.49282   2.07327   2.04096
  -1.73224   2.07327   2.51981
  -2.21108   2.31269   3.23807
  -2.68993   2.07327   3.71691
  -2.92935   2.55211   4.67459
  -3.16877   2.31269   4.91401
  -3.88703   2.31269   5.63227
  -3.88703   2.07327   6.11111
  -4.60529   2.31269   6.58995
  -4.84471   2.07327   7.30821
  -5.08413   1.59443   7.78705
  -5.56297   1.35501   8.26589
  -6.04181   1.11559   8.98415
  -6.04181   0.63675   9.46299
  -6.28123   0.39733   9.70241
  -6.28123  -0.08151  10.18125
  -6.52065  -0.32093  10.66009
  -6.52065  -0.56035  10.66009
  -6.28123  -0.56035  10.66009
  -6.04181  -1.03919  10.66009
  -5.80239  -1.27861  10.66009
  -5.56297  -1.51803  10.66009
  -5.32355  -1.51803  10.66009
  -4.84471  -1.51803   9.94183
  -4.12645  -1.75745   9.70241
  -4.12645  -1.75745   9.22357
  -3.64761  -1.99687   8.50531
  -3.40819  -1.99687   8.02647
  -2.92935  -1.99687   7.30821
  -2.21108  -2.23629   6.82937
  -1.97166  -2.23629   6.58995
  -1.49282  -2.23629   5.87169
  -1.01398  -1.99687   5.39285
  -0.29572  -2.47571   4.91401
  -0.05630  -2.47571   4.43517
   0.42254  -2.23629   4.19575
   0.90138  -2.23629   3.71691
   1.61964  -2.23629   3.23807
   1.85906  -1.99687   2.99865
   2.57732  -1.99687   2.75923
   2.81674  -1.75745   2.28038
   3.29558  -1.27861   2.04096
   4.01384  -1.03919   1.80154
   4.73210  -1.03919   1.80154
   4.97152  -0.79977   1.32270
   5.45036  -0.32093   1.32270
   5.68978  -0.32093   1.08328
   5.92920  -0.08151   0.84386
   6.16862  -0.08151   0.84386
   6.40804   0.39733   0.60444
   6.40804   0.39733   0.36502
   6.64746   0.15791  -0.11382
   6.16862   0.39733  -0.11382
   6.16862   0.15791  -0.35324
   6.40804   0.39733  -0.59266
   6.16862   0.63675  -0.83208
   6.16862   0.63675  -0.83208
   5.92920   0.63675  -0.83208
   5.45036   0.87617  -1.07150
   5.21094   0.87617  -1.07150
   5.21094   0.87617  -1.55034
   4.73210   0.87617  -1.55034
   4.25326   0.87617  -1.78976
   3.77442   1.11559  -1.55034
   3.53500   1.11559  -2.02918
   3.05616   1.11559  -2.26860
   2.81674   1.11559  -2.02918
   2.33790   1.11559  -2.02918
   1.85906   1.11559  -2.50802
   1.38022   1.11559  -2.74744
   1.14080   1.11559  -2.74744
   0.66196   1.11559  -2.74744
   0.18312   1.11559  -2.98686
  -0.29572   1.11559  -2.98686
  -0.53514   0.87617  -2.98686
  -1.01398   0.87617  -2.74744
  -1.49282   0.87617  -2.74744
  -1.73224   0.63675  -2.74744
  -1.97166   1.11559  -2.98686
  -1.97166   0.87617  -2.74744
  -2.45050   0.87617  -2.50802
  -2.92935   1.11559  -2.26860
  -2.92935   1.11559  -2.26860
  -2.92935   1.11559  -2.02918
  -3.16877   1.11559  -1.78976
  -3.40819   1.11559  -1.78976
  -3.40819   1.11559  -1.31092
  -3.40819   1.11559  -1.07150
  -3.64761   0.87617  -0.59266
  -3.64761   0.87617  -0.11382
  -3.88703   0.87617   0.60444
  -3.88703   0.87617   1.08328
  -3.88703   0.87617   1.32270
  -3.88703   0.63675   1.80154
  -4.12645   0.39733   2.04096
  -4.12645   0.39733   2.51981
  -4.36587   0.39733   2.99865
  -4.36587  -0.08151   3.23807
  -4.36587  -0.08151   3.47749
  -4.60529  -0.08151   3.47749
  -4.84471  -0.08151   3.71691
  -4.60529  -0.32093   3.71691
  -4.84471  -0.32093   3.47749
  -4.84471  -0.56035   3.47749
  -4.84471  -0.56035   3.47749
  -5.08413  -0.08151   2.99865
  -4.84471  -0.32093   2.99865
  -4.84471  -0.56035   2.75923
  -4.84471  -0.56035   2.28038
  -5.08413  -0.32093   2.04096
  -4.60529  -0.32093   1.32270
  -4.84471  -0.56035   1.32270
  -4.84471  -0.56035   0.60444
  -5.08413  -0.56035   0.12560
  -4.84471  -0.56035  -0.35324
  -4.84471  -0.56035  -0.59266
  -4.84471  -0.79977  -1.07150
  -4.60529  -0.79977  -1.31092
  -4.36587  -0.79977  -1.78976
  -3.88703  -0.79977  -2.50802
  -3.40819  -1.03919  -2.74744
  -3.16877  -1.03919  -3.22628
  -2.45050  -1.03919  -3.70512
  -1.97166  -0.79977  -3.94454
  -1.25340  -1.03919  -4.42338
  -0.53514  -1.27861  -4.66280
   0.18312  -1.03919  -4.90222
   0.66196  -0.79977  -5.14164
   1.14080  -0.79977  -5.62048
   1.85906  -0.56035  -5.85990
   2.33790  -0.56035  -6.09932
   3.05616  -0.32093  -6.33874
   3.29558   0.15791  -6.33874
   4.25326   0.15791  -6.81758
   4.49268   0.39733  -6.81758
   4.97152   0.39733  -7.05700
   5.21094   0.87617  -7.53584
   5.45036   1.11559  -7.77526
   5.68978   1.11559  -7.77526
   5.92920   1.59443  -8.01468
   6.40804   1.83385  -7.77526
   6.40804   2.07327  -8.01468
   6.64746   2.31269  -7.77526
   7.12630   2.31269  -7.77526
   6.64746   2.31269  -7.53584
   6.64746   2.31269  -7.53584
   6.64746   2.55211  -7.29642
   6.40804   2.55211  -7.29642
   5.92920   2.31269  -6.81758
   5.45036   2.31269  -6.33874
   4.73210   2.31269  -5.85990
   4.25326   2.31269  -5.62048
   3.53500   2.07327  -5.14164
   2.81674   2.07327  -4.66280
   2.09848   2.07327  -3.94454
   1.14080   1.59443  -3.70512
   0.66196   1.59443  -3.22628
  -0.05630   1.11559  -2.26860
  -0.77456   1.11559  -1.55034
  -1.49282   1.11559  -1.31092
  -2.21108   0.63675  -0.83208
  -2.45050   0.15791  -0.35324
  -3.16877  -0.08151   0.36502
  -3.40819  -0.08151   1.08328
  -3.88703  -0.32093   1.32270
