********************************************************************************
              CENTRO DE INSTRUMENTACION Y REGISTRO SISMICO  A.C.

    Anaxagoras 814, Col. Narvarte, Benito Juarez, C.P. 03020 Mexico, D.F.
           Tels. 5687 45 42/ 5687 45  82             Fax. 5669 25 12
********************************************************************************
ARCHIVO ESTANDAR DE ACELERACION:
VERSION DEL FORMATO                    : 2.0
NOMBRE DEL ARCHIVO                     : AP6820121115092022
FECHA Y HORA DE CREACION               : 09/JUL/14, 10:42
REF. CATALOGO ACELEROGRAMAS, SMIS 1996 : REGISTRO No.     /PAG.


================================================================================
DATOS DE LA ESTACION:
NOMBRE DE LA ESTACION                  : JARDÍN DE NIÑOS "JUAN B. DE LA SALLE"
CLAVE DE LA ESTACION                   : AP68
LOCALIZACION DE LA ESTACION            : Del. Iztapalapa, Col. Santa María      
                                       : Purísima Atlazolpa,  entre Canal de    
                                       : Apatlaco y Ahuehuetes.                 
                                       :                                        
                                       : 
COORDENADAS DE LA ESTACION             : 19.3809 LAT. N
                                       : 99.1068 LONG. W
ALTITUD (msnm)                         : 2232
TIPO DE SUELO                          : Arcilloso, zona lago                
                                       :                           
                                       : 
INSTITUCION RESPONSABLE                : CIRES
                                       : 

================================================================================
DATOS DEL ACELEROGRAFO:
MODELO DEL ACELEROGRAFO                : RADESD
NUMERO DE SERIE DEL ACELEROGRAFO       : 255
NUMERO DE CANALES                      : 3
ORIENTACION C1-C6 (rumbo;orientacion)  : /N00E/+V/N90W
ORIENTACION C7-C12 (rumbo;orientacion) : 
VEL. DE MUESTREO, C1-C6 (muestras/s)   : /100/100/100
VEL. DE MUESTREO, C7-C12 (muestras/s)  : 
ESC. COMPLETA DE SENSORES, C1-C6, (g)  : /0.5/0.5/0.5
ESC. COMPLETA DE SENSORES, C7-C12, (g) : 
FREC. NAT. DE SENSORES, C1-C6, (Hz)    : /30/30/30
FREC. NAT. DE SENSORES, C7-C12, (Hz)   : 
AMORTIGUAMIENTO DE SENSORES, C1-C6     : /0.780/0.700/0.678
AMORTIGUAMIENTO DE SENSORES, C7-C12    : 
INTERVALO DE MUESTREO, C1-C6, (s)      : /0.01/0.01/0.01
INTERVALO DE MUESTREO, C7-C12, (s)     : 
UMBRAL DE DISPARO, C1-C6, (Gal)        : /3.11/5.03/4.56
UMBRAL DE DISPARO, C7-C12, (Gal)       : 
MEMORIA DE PREEVENTO (s)               : 44.0
TIEMPO DE POSEVENTO (s)                : 45.0


================================================================================
DATOS DEL SISMO:
FECHA DEL SISMO (GMT)                  : 15/NOV/12
HORA EPICENTRO (GMT)                   : 09:20:22.0
MAGNITUD(ES)                           : /Mc=6.1
COORDENADAS DEL EPICENTRO              : 18.17 LAT. N
                                       : 100.52 LONG. W
PROFUNDIDAD FOCAL (km)                 : 40
FUENTE DE LOS DATOS EPICENTRALES       : SSN
                                       : INSTITUTO DE GEOFISICA, UNAM

================================================================================
DATOS DE ESTE REGISTRO:
HORA DE LA PRIMERA MUESTRA (GMT)       : 09:21:17.00
EXACTITUD DEL TIEMPO (s)               : 0.01
DURACION DEL REGISTRO (s), C1-C6       : /168.4/168.4/168.4
DURACION DEL REGISTRO (s), C7-C12      : 
NUM. TOTAL DE MUESTRAS, C1-C6          : /16840/16840/16840
NUM. TOTAL DE MUESTRAS, C7-C12         : 
ACEL. MAX. (Gal), C1-C6                : /8.29154/5.59616/8.98839
ACEL. MAX., C1-C6, EN LA MUESTRA       : /6098/6139/6346
ACEL. MAX. (Gal), C7-C12               : 
ACEL. MAX., C7-C12, EN LA MUESTRA      : 
UNIDADES DE LOS DATOS                  : Gal (cm/s/s)
FACTOR DE DECIMACION                   : 1
FORMATO DATOS (FORTRAN,10 campos/dato) : 3F10.5


================================================================================
CALIDAD DEL ACELEROGRAMA:
REGISTRO DIGITAL COMPLETO CON TIEMPO ABSOLUTO CORRECTO.


================================================================================
COMENTARIOS:














================================================================================
DATOS DE ACELERACION:
---------+---------+---------+---------+---------+---------+---------+---------+
   CANAL-1   CANAL-2   CANAL-3   CANAL-4   CANAL-5   CANAL-6   CANAL-7   CANAL-8
      N00E        +V      N90W
---------+---------+---------+---------+---------+---------+---------+---------+
[...]
   2.06662  -0.49352  -0.36396
   2.17136  -0.35885  -0.49863
   2.38085  -0.20921  -0.69316
   2.45567  -0.08950  -0.97747
   2.51553  -0.04461  -1.39646
   2.65020   0.13496  -1.95012
   2.85969   0.25467  -2.54867
   2.96444   0.40431  -3.19211
   2.84473   0.50905  -3.74577
   2.50056   0.67365  -4.17972
   1.97683   0.88315  -4.47899
   1.30346   1.10760  -4.56878
   0.66002   1.27220  -4.43410
   0.07644   1.31710  -4.10490
  -0.49219   1.33206  -3.55124
  -1.12067   1.30213  -2.89284
  -1.65936   1.30213  -2.15961
  -2.16813   1.31710  -1.42639
  -2.58711   1.28717  -0.73805
  -2.96121   1.25724  -0.13950
  -3.35027   1.13753   0.23459
  -3.79918   0.95797   0.45905
  -4.21816   0.74847   0.62365
  -4.63715   0.56891   0.66854
  -4.98132   0.32949   0.66854
  -5.25066   0.19481   0.60868
  -5.43023   0.28460   0.60868
  -5.56490   0.46416   0.63861
  -5.69958   0.47913   0.68350
  -5.72950   0.43423   0.59372
  -5.86418   0.28460   0.35430
  -6.08863   0.10503   0.01013
  -6.29813  -0.02964  -0.43878
  -6.52258  -0.28403  -0.85776
  -6.79193  -0.50848  -1.24682
  -7.03135  -0.83769  -1.71070
  -7.15106  -1.18185  -2.12968
  -7.22588  -1.33149  -2.42896
  -7.18099  -1.39134  -2.56363
  -6.98646  -1.48113  -2.50378
  -6.67222  -1.61580  -2.33918
  -6.32805  -1.69062  -2.03990
  -5.93900  -1.78040  -1.74063
  -5.47512  -1.84026  -1.54610
  -4.93642  -1.90011  -1.42639
  -4.42766  -1.81033  -1.29171
  -3.81414  -1.58587  -1.08222
  -3.08092  -1.24171  -0.81287
  -2.22798  -0.83769  -0.30410
  -1.33016  -0.43366   0.39919
  -0.32759  -0.17928   1.26709
   0.60017  -0.14935   2.13499
   1.55785  -0.11942   3.04778
   2.42575  -0.10446   3.90071
   3.24875  -0.04461   4.78357
   3.95205   2.9E-40   5.57665
   4.53564   0.06014   6.22009
   5.08929   0.12000   6.56426
   5.53821   0.22474   6.69894
   6.01705   0.40431   6.69894
   6.48092   0.49409   6.53433
   6.73531   0.37438   6.29491
   6.79516   0.16489   6.04053
   6.64553  -0.07453   5.75622
   6.18165  -0.26906   5.35220
   5.58310  -0.35885   4.91825
   4.90973  -0.31395   4.36459
   4.25132  -0.19424   3.79597
   3.63781  -0.07453   3.27223
   3.11408   0.01525   2.80836
   2.68013  -0.01468   2.41930
   2.35093   2.9E-40   2.12002
   1.99180   0.06014   1.86564
   1.55785   0.07510   1.70104
   0.98922   0.01525   1.49155
   0.10636   0.12000   1.29702
  -0.85132   0.28460   1.13242
  -1.76411   0.34445   0.98278
  -2.52726   0.37438   0.90796
  -3.03603   0.35942   0.90796
  -3.26048   0.23971   1.04263
  -3.18566   0.13496   1.23716
  -2.96121   0.13496   1.59629
  -2.60208   0.23971   1.94046
  -2.19806   0.47913   2.25470
  -1.89878   0.64373   2.58390
  -1.59951   0.79336   2.80836
  -1.15059   0.85322   2.83829
  -0.58197   0.91307   2.79339
   0.12133   0.97293   2.68865
   1.00419   0.92804   2.56894
   2.02172   0.73351   2.53901
   3.06919   0.53898   2.52405
   4.19147   0.41927   2.52405
   5.35864   0.35942   2.43426
   6.34625   0.28460   2.41930
   7.22911   0.16489   2.37441
   7.87255   0.06014   2.22477
   8.23168   0.09007   2.03024
   8.29154   0.17985   1.77586
   8.03716   0.23971   1.61126
   7.45357   0.20978   1.49155
   6.58567   0.17985   1.50651
   5.74770   0.23971   1.62622
   4.93966   0.41927   1.73097
   4.20643   0.73351   1.91053
   3.50314   1.21235   2.04521
   2.76991   1.61637   2.17988
   1.96187   1.84083   2.25470
   0.98922   1.94557   2.14995
  -0.11809   2.03536   1.98535
  -1.22541   2.17003   1.97039
  -2.39259   2.22989   2.03024
  -3.54479   2.30470   2.25470
  -4.48751   2.42441   2.49412
  -5.19081   2.39449   2.65872
  -5.78936   2.37952   2.85325
  -6.20834   2.37952   3.06274
  -6.44776   2.30470   3.21238
  -6.62733   2.14010   3.33209
  -6.73208   1.90068   3.36202
  -6.73208   1.52659   3.28720
  -6.67222   1.06271   3.24231
  -6.44776   0.71855   3.27223
  -6.08863   0.38934   3.28720
  -5.62476   0.14992   3.36202
  -5.02621  -0.20921   3.48173
  -4.38277  -0.64316   3.63136
  -3.58969  -1.19682   3.72115
  -2.67690  -1.72055   3.73611
  -1.73418  -2.19939   3.70618
  -0.80643  -2.63334   3.57151
   0.09140  -2.99247   3.34705
   0.91441  -3.35160   3.04778
   1.69252  -3.72569   2.65872
   2.38085  -4.08482   2.07513
   2.97940  -4.48884   1.37184
   3.41335  -4.95272   0.59372
   3.60788  -5.35674  -0.30410
   3.65277  -5.58120  -1.21689
   3.60788  -5.59616  -2.21947
   3.47321  -5.41660  -3.13226
   3.20386  -5.16221  -3.88044
   2.90459  -4.78812  -4.41914
   2.54546  -4.35417  -4.77827
   2.23122  -3.77058  -4.98776
   1.88705  -3.09721  -5.03265
   1.48303  -2.39392  -4.89798
   1.04908  -1.70558  -4.59870
   0.60017  -1.01725  -4.23957
   0.21111  -0.31395  -3.68591
  -0.13306   0.43423  -3.04247
  -0.28270   1.24228  -2.20450
  -0.28270   1.99047  -1.21689
  -0.07320   2.60398  -0.12454
   0.31586   3.12771   1.16234
   0.76477   3.38210   2.41930
   1.31843   3.54670   3.58647
   1.81223   3.53173   4.55912
   2.30604   3.48684   5.48687
   2.81480   3.36713   6.23506
   3.26372   3.09778   6.83361
   3.69767   2.82844   7.28252
   4.05680   2.60398   7.64165
   4.34111   2.45434   7.80625
   4.58053   2.30470   7.86611
   4.74513   2.11018   7.88107
   4.68527   1.79594   7.74640
   4.47578   1.48170   7.43216
   4.13161   1.15249   6.98325
   3.74256   0.86818   6.39966
   3.14401   0.59884   5.71133
   2.54546   0.35942   4.93321
   1.94691   0.17985   4.09524
   1.40821   0.04518   3.22734
   0.98922  -0.08950   2.41930
   0.73484  -0.31395   1.59629
   0.61513  -0.43366   0.93789
   0.57024  -0.47856   0.36926
   0.58520  -0.68805  -0.22929
   0.64506  -0.76287  -0.70813
   0.67499  -0.83769  -1.18697
   0.80966  -0.92747  -1.66581
   0.95930  -0.91250  -2.09976
   1.06404  -0.97236  -2.53370
   1.13886  -1.00229  -3.04247
   1.37828  -1.06214  -3.59613
   1.70749  -1.12200  -4.13483
   2.05165  -1.07711  -4.62863
   2.48560  -1.07711  -5.04762
   2.88962  -1.06214  -5.39178
   3.14401  -1.13696  -5.63120
   3.29364  -1.22674  -5.75091
   3.26372  -1.28660  -5.75091
   3.14401  -1.22674  -5.76588
   2.94948  -0.92747  -5.66113
   2.73998  -0.58330  -5.52646
   2.53049  -0.04461  -5.40675
   2.21625   0.46416  -5.31696
   1.93194   0.95797  -5.19725
   1.49799   1.39191  -5.10747
   1.04908   1.87076  -5.03265
   0.48046   2.25981  -4.85309
  -0.07320   2.61894  -4.61367
  -0.73161   2.79851  -4.34432
  -1.44987   2.96311  -4.08994
  -2.10827   3.03793  -3.80562
  -2.61704   2.94815  -3.52131
  -3.05099   2.81347  -3.23700
  -3.46998   2.55909  -2.93773
  -3.69443   2.24485  -2.60852
  -3.85903   1.93061  -2.21947
  -3.88896   1.57148  -1.65084
  -3.84407   1.21235  -0.94755
  -3.69443   0.85322  -0.10958
  -3.49990   0.62876   0.74336
  -3.21559   0.41927   1.53644
  -2.87143   0.29956   2.23973
  -2.49733   0.17985   2.83829
  -2.18309  -0.01468   3.19742
  -1.83893  -0.17928   3.37698
  -1.52469  -0.35885   3.36202
  -1.22541  -0.35885   3.24231
  -0.91117  -0.31395   3.07771
  -0.67175  -0.26906   2.82332
  -0.53708  -0.28403   2.56894
  -0.50715  -0.20921   2.14995
  -0.46226  -0.13439   1.74593
  -0.52212  -0.04461   1.34191
  -0.68672   0.01525   0.86307
  -0.86628   0.03021   0.32437
  -1.01592  -0.07453  -0.27418
  -1.19548  -0.17928  -0.93258
  -1.33016  -0.34388  -1.54610
  -1.40498  -0.41870  -2.08479
  -1.41994  -0.44863  -2.59356
  -1.50972  -0.40374  -2.99758
  -1.53965  -0.37381  -3.32678
  -1.58454  -0.35885  -3.65599
  -1.68929  -0.49352  -3.92533
  -1.82396  -0.68805  -4.28446
  -1.89878  -0.77783  -4.65856
  -1.94367  -0.82272  -5.09251
  -1.86885  -0.82272  -5.46660
  -1.65936  -0.77783  -5.76588
  -1.34512  -0.82272  -6.02026
  -0.88125  -1.06214  -6.15493
  -0.32759  -1.33149  -6.09508
   0.21111  -1.64573  -6.00530
   0.70491  -1.95997  -5.81077
   1.15383  -2.25924  -5.64617
   1.58777  -2.51363  -5.34689
   1.93194  -2.72312  -4.94287
   2.24618  -2.93261  -4.41914
   2.53049  -3.24685  -3.89541
   2.81480  -3.54613  -3.49139
   3.17393  -3.69576  -3.22204
   3.63781  -3.86036  -3.11729
   4.17651  -3.93518  -3.07240
   4.53564  -3.75562  -3.02751
   4.84987  -3.33663  -2.99758
   5.16411  -2.78297  -2.98262
   5.44843  -2.18442  -3.05744
   5.58310  -1.54098  -3.20707
   5.65792  -1.03221  -3.44649
   5.64295  -0.59827  -3.64102
   5.44843  -0.23913  -3.89541
   5.10426   0.17985  -4.11986
   4.65535   0.56891  -4.28446
   4.25132   1.00286  -4.44907
   3.65277   1.63134  -4.47899
   2.97940   2.30470  -4.35928
   2.26114   2.75362  -4.19468
   1.39325   3.03793  -3.95526
   0.42060   3.18757  -3.70088
  -0.52212   3.18757  -3.43153
  -1.37505   3.20253  -3.26693
  -2.15317   3.32224  -3.20707
  -2.91632   3.47188  -3.14722
  -3.44005   3.59159  -3.19211
  -3.82911   3.62152  -3.20707
  -4.14335   3.62152  -3.17715
  -4.35284   3.51677  -3.02751
  -4.51744   3.24742  -2.81802
  -4.62219   2.81347  -2.45889
  -4.69700   2.39449  -2.00997
  -4.69700   2.03536  -1.51617
  -4.63715   1.70615  -1.14208
  -4.53240   1.45177  -0.76798
  -4.44262   1.21235  -0.42381
  -4.24809   0.88315  -0.15447
  -4.09845   0.38934   0.06999
  -3.93385  -0.10446   0.36926
  -3.75429  -0.67308   0.72839
  -3.51487  -1.06214   1.08753
  -3.33530  -1.34645   1.46162
  -3.18566  -1.52602   1.79082
  -3.12581  -1.60084   1.94046
  -3.11085  -1.73551   2.00031
  -3.05099  -1.85522   2.06017
  -2.96121  -2.03479   2.06017
  -2.82653  -2.16946   2.01528
  -2.51230  -2.30413   2.04521
  -2.09331  -2.37895   2.10506
  -1.71922  -2.43881   2.25470
  -1.40498  -2.46874   2.31455
  -1.27030  -2.42384   2.31455
  -1.22541  -2.37895   2.26966
  -1.37505  -2.36399   2.14995
  -1.50972  -2.36399   1.97039
  -1.65936  -2.39392   1.77586
  -1.86885  -2.39392   1.55140
  -2.06338  -2.46874   1.26709
  -2.12324  -2.55852   0.96781
  -2.22798  -2.54355   0.66854
  -2.36266  -2.43881   0.38423
  -2.43748  -2.21435   0.09992
  -2.40755  -1.94500  -0.19936
  -2.36266  -1.72055  -0.48367
  -2.33273  -1.57091  -0.72309
  -2.21302  -1.48113  -0.82784
  -2.07835  -1.36142  -0.90266
  -1.77907  -1.15192  -0.93258
  -1.37505  -0.82272  -0.94755
  -0.88125  -0.44863  -0.97747
  -0.31262  -0.13439  -0.99244
   0.33082   0.20978  -0.99244
   0.83959   0.46416  -1.03733
   1.16879   0.71855  -1.02237
   1.30346   1.00286  -0.94755
   1.22864   1.24228  -0.87273
   0.98922   1.51163  -0.75302
   0.64506   1.72112  -0.49863
   0.39067   1.97550  -0.06468
   0.15125   2.24485   0.50394
  -0.07320   2.51420   1.20724
  -0.26773   2.78354   2.03024
  -0.32759   2.93318   2.89814
  -0.50715   2.90325   3.78100
  -0.76154   2.81347   4.57408
  -1.00096   2.73865   5.41205
  -1.22541   2.54412   6.17520
  -1.39001   2.45434   6.86354
  -1.46483   2.27478   7.50698
  -1.37505   2.18499   8.10553
  -1.13563   2.11018   8.59933
  -0.85132   1.93061   8.92854
  -0.53708   1.67623   8.98839
  -0.23780   1.37695   8.80883
  -0.04327   1.13753   8.47962
   0.12133   0.97293   8.03071
   0.25600   0.83826   7.43216
   0.31586   0.59884   6.81865
   0.30089   0.32949   6.22009
   0.31586  -0.02964   5.60658
   0.28593  -0.35885   4.88832
   0.25600  -0.65812   4.14013
   0.19615  -0.94243   3.25727
   0.16622  -1.07711   2.25470
   0.16622  -1.12200   1.31198
   0.13629  -0.97236   0.29445
   0.12133  -0.71798  -0.64827
   0.03154  -0.53841  -1.56106
  -0.14802  -0.40374  -2.32421
  -0.37248  -0.35885  -2.96765
  -0.56701  -0.41870  -3.41657
  -0.74657  -0.49352  -3.74577
  -0.89621  -0.47856  -3.89541
  -1.06081  -0.44863  -4.00015
  -1.24038  -0.29899  -4.13483
  -1.43490  -0.11942  -4.14979
  -1.53965   0.10503  -4.04504
  -1.70425   0.26963  -3.92533
  -1.91374   0.28460  -3.71584
  -2.12324   0.20978  -3.38664
  -2.36266   0.10503  -3.05744
  -2.55719   2.9E-40  -2.57860
  -2.81157  -0.16432  -2.05486
  -3.05099  -0.28403  -1.59099
  -3.38019  -0.34388  -1.20193
  -3.55976  -0.40374  -0.73805
  -3.66450  -0.38877  -0.27418
  -3.72436  -0.43366   0.23459
  -3.70940  -0.58330   0.69847
  -3.64954  -0.67308   1.20724
  -3.55976  -0.68805   1.71600
  -3.42508  -0.53841   2.16492
  -3.26048  -0.47856   2.55397
  -3.15574  -0.41870   2.89814
  -3.18566  -0.32892   3.13756
  -3.27545  -0.29899   3.31713
  -3.27545  -0.29899   3.40691
  -3.23056  -0.16432   3.57151
  -3.24552   0.07510   3.73611
  -3.15574   0.26963   3.96057
  -3.02106   0.35942   4.15510
  -2.96121   0.49409   4.22991
  -2.88639   0.55394   4.09524
  -2.79661   0.55394   3.93064
  -2.73675   0.47913   3.67626
  -2.60208   0.50905   3.45180
  -2.54222   0.46416   3.25727
  -2.37762   0.40431   3.07771
  -2.27288   0.26963   2.88318
  -2.10827   0.16489   2.67368
  -1.95864  -0.04461   2.46419
  -1.79403  -0.17928   2.29959
  -1.59951  -0.23913   2.16492
  -1.44987  -0.13439   2.06017
  -1.24038  -0.11942   2.03024
  -0.92614  -0.04461   1.97039
  -0.55204  -0.01468   1.89557
  -0.05824   2.9E-40   1.86564
   0.57024  -0.07453   1.73097
   1.31843  -0.13439   1.46162
   2.11151  -0.19424   1.16234
   3.03926  -0.20921   0.78825
   3.98198  -0.10446   0.36926
   4.86484   0.07510  -0.19936
   5.49332   0.29956  -0.79791
   5.92727   0.49409  -1.38150
   6.16669   0.58387  -1.93515
   6.28640   0.62876  -2.33918
   6.30136   0.68862  -2.56363
   6.16669   0.67365  -2.56363
   5.88237   0.67365  -2.48881
   5.49332   0.58387  -2.42896
   5.05937   0.47913  -2.41399
   4.65535   0.31452  -2.44392
   4.25132   0.13496  -2.50378
   3.89219   0.03021  -2.51874
   3.56299   0.01525  -2.33918
   3.30861   0.01525  -1.98005
   3.11408   0.03021  -1.50121
   2.99437   0.12000  -0.88769
   2.90459   0.23971  -0.22929
   2.75495   0.26963   0.38423
   2.44071   0.29956   0.95285
   2.09654   0.25467   1.29702
   1.76734   0.14992   1.49155
   1.45310   0.22474   1.65615
   1.28850   0.34445   1.83571
   1.12390   0.50905   1.97039
   0.97426   0.74847   2.13499
   0.88448   0.95797   2.29959
   0.77973   1.15249   2.49412
   0.66002   1.39191   2.62879
   0.60017   1.57148   2.70361
   0.64506   1.70615   2.65872
   0.73484   1.84083   2.52405
   0.85455   1.94557   2.26966
   1.07901   2.09521   1.91053
   1.28850   2.15507   1.49155
   1.57281   2.18499   1.11745
   1.88705   2.14010   0.81818
   2.15640   1.96054   0.51890
   2.54546   1.70615   0.18970
   3.03926   1.43681  -0.21432
   3.48817   1.12257  -0.61834
   3.84730   0.88315  -1.12711
   4.11665   0.68862  -1.63588
   4.32614   0.50905  -2.03990
   4.35607   0.41927  -2.36910
   4.28125   0.22474  -2.66838
   4.05680   0.01525  -2.69831
   3.65277  -0.28403  -2.62349
   3.12904  -0.52345  -2.47385
   2.53049  -0.77783  -2.15961
   1.81223  -0.95740  -1.84537
   1.10893  -1.09207  -1.50121
   0.45053  -1.21178  -1.18697
  -0.11809  -1.18185  -0.91762
  -0.61190  -1.01725  -0.70813
  -1.03088  -0.86761  -0.51360
  -1.28527  -0.71798  -0.39389
  -1.47980  -0.68805  -0.31907
  -1.55461  -0.71798  -0.24425
  -1.53965  -0.76287  -0.21432
  -1.47980  -0.74790  -0.12454
  -1.37505  -0.70301  -0.06468
  -1.24038  -0.52345  -0.01979
  -1.13563  -0.35885  -0.06468
  -0.98599  -0.22417  -0.12454
  -0.74657  -0.10446  -0.25921
  -0.46226  -0.07453  -0.43878
  -0.16299  -0.11942  -0.61834
   0.06147  -0.22417  -0.75302
   0.33082  -0.37381  -0.81287
   0.48046  -0.55337  -0.97747
   0.58520  -0.64316  -1.09718
   0.68995  -0.73294  -1.21689
   0.80966  -0.71798  -1.27675
   0.97426  -0.74790  -1.38150
   1.07901  -0.77783  -1.48624
   1.22864  -0.88258  -1.54610
   1.33339  -0.98732  -1.63588
