********************************************************************************
              CENTRO DE INSTRUMENTACION Y REGISTRO SISMICO  A.C.

    Anaxagoras 814, Col. Narvarte, Benito Juarez, C.P. 03020 Mexico, D.F.
           Tels. 5687 45 42/ 5687 45  82             Fax. 5669 25 12
********************************************************************************
ARCHIVO ESTANDAR DE ACELERACION:
VERSION DEL FORMATO                    : 2.0
NOMBRE DEL ARCHIVO                     : AP6819941210161740
FECHA Y HORA DE CREACION               : 05/MAR/18, 11:03
REF. CATALOGO ACELEROGRAMAS, SMIS 1996 : REGISTRO No.     /PAG.


================================================================================
DATOS DE LA ESTACION:
NOMBRE DE LA ESTACION                  : JARDÍN DE NIÑOS "JUAN B. DE LA SALLE"
CLAVE DE LA ESTACION                   : AP68
LOCALIZACION DE LA ESTACION            : Del. Iztapalapa, Col. Santa María      
                                       : Purísima Atlazolpa,  entre Canal de    
                                       : Apatlaco y Ahuehuetes.                 
                                       :                                        
                                       : 
COORDENADAS DE LA ESTACION             : 19.3809 LAT. N
                                       : 99.1068 LONG. W
ALTITUD (msnm)                         : 2232
TIPO DE SUELO                          : Arcilloso, zona lago                
                                       :                           
                                       : 
INSTITUCION RESPONSABLE                : CIRES
                                       : 

================================================================================
DATOS DEL ACELEROGRAFO:
MODELO DEL ACELEROGRAFO                : DCA-333
NUMERO DE SERIE DEL ACELEROGRAFO       : 255
NUMERO DE CANALES                      : 3
ORIENTACION C1-C6 (rumbo;orientacion)  : /N00E/+V/N90W
ORIENTACION C7-C12 (rumbo;orientacion) : 
VEL. DE MUESTREO, C1-C6 (muestras/s)   : /100/100/100
VEL. DE MUESTREO, C7-C12 (muestras/s)  : 
ESC. COMPLETA DE SENSORES, C1-C6, (g)  : /0.5/0.5/0.5
ESC. COMPLETA DE SENSORES, C7-C12, (g) : 
FREC. NAT. DE SENSORES, C1-C6, (Hz)    : /30/30/30
FREC. NAT. DE SENSORES, C7-C12, (Hz)   : 
AMORTIGUAMIENTO DE SENSORES, C1-C6     : /0.780/0.700/0.678
AMORTIGUAMIENTO DE SENSORES, C7-C12    : 
INTERVALO DE MUESTREO, C1-C6, (s)      : /0.01/0.01/0.01
INTERVALO DE MUESTREO, C7-C12, (s)     : 
UMBRAL DE DISPARO, C1-C6, (Gal)        : /3.42/7.32/7.32
UMBRAL DE DISPARO, C7-C12, (Gal)       : 
MEMORIA DE PREEVENTO (s)               : 4.0
TIEMPO DE POSEVENTO (s)                : 0.0


================================================================================
DATOS DEL SISMO:
FECHA DEL SISMO (GMT)                  : 10/DIC/94
HORA EPICENTRO (GMT)                   : 16:17:40.0
MAGNITUD(ES)                           : /Mc=6.6
COORDENADAS DEL EPICENTRO              : 17.98 LAT. N
                                       : 101.52 LONG. W
PROFUNDIDAD FOCAL (km)                 : 53
FUENTE DE LOS DATOS EPICENTRALES       : SSN
                                       : INSTITUTO DE GEOFISICA, UNAM

================================================================================
DATOS DE ESTE REGISTRO:
HORA DE LA PRIMERA MUESTRA (GMT)       : 16:18:50.03
EXACTITUD DEL TIEMPO (s)               : 0.01
DURACION DEL REGISTRO (s), C1-C6       : /131.78/131.78/131.78
DURACION DEL REGISTRO (s), C7-C12      : 
NUM. TOTAL DE MUESTRAS, C1-C6          : /13178/13178/13178
NUM. TOTAL DE MUESTRAS, C7-C12         : 
ACEL. MAX. (Gal), C1-C6                : /12.03478/5.43455/11.5662
ACEL. MAX., C1-C6, EN LA MUESTRA       : /5247/2406/4303
ACEL. MAX. (Gal), C7-C12               : 
ACEL. MAX., C7-C12, EN LA MUESTRA      : 
UNIDADES DE LOS DATOS                  : Gal (cm/s/s)
FACTOR DE DECIMACION                   : 1
FORMATO DATOS (FORTRAN,10 campos/dato) : 3F10.5


================================================================================
CALIDAD DEL ACELEROGRAMA:
REGISTRO DIGITAL COMPLETO CON TIEMPO ABSOLUTO CORRECTO.


================================================================================
COMENTARIOS:














================================================================================
DATOS DE ACELERACION:
---------+---------+---------+---------+---------+---------+---------+---------+
   CANAL-1   CANAL-2   CANAL-3   CANAL-4   CANAL-5   CANAL-6   CANAL-7   CANAL-8
      N00E        +V      N90W
---------+---------+---------+---------+---------+---------+---------+---------+
[...]
  -5.33101  -1.60383  -1.27114
  -5.33101  -1.60383  -1.27114
  -5.57043  -1.60383  -1.27114
  -5.80985  -1.84325  -1.27114
  -5.80985  -1.84325  -1.27114
  -5.80985  -1.84325  -1.27114
  -6.04927  -1.84325  -1.51056
  -6.04927  -1.84325  -1.51056
  -6.04927  -1.84325  -1.74998
  -6.28869  -1.84325  -1.98940
  -6.28869  -1.84325  -2.22882
  -6.28869  -1.84325  -2.46824
  -6.28869  -1.84325  -2.70766
  -6.52811  -1.84325  -3.18650
  -6.52811  -1.84325  -3.42592
  -6.76753  -2.08267  -3.66534
  -6.76753  -2.08267  -3.90476
  -7.00696  -2.08267  -4.38360
  -7.00696  -2.08267  -4.62302
  -7.24638  -2.08267  -5.10186
  -7.24638  -2.08267  -5.34128
  -7.48580  -1.84325  -5.58070
  -7.48580  -1.84325  -5.82012
  -7.48580  -1.60383  -5.82012
  -7.72522  -1.60383  -6.05954
  -7.72522  -1.36441  -6.05954
  -7.96464  -1.36441  -6.05954
  -7.96464  -1.12499  -5.82012
  -8.20406  -1.12499  -5.82012
  -8.20406  -1.12499  -5.34128
  -8.20406  -1.12499  -5.10186
  -8.44348  -0.88557  -4.62302
  -8.44348  -0.88557  -4.38360
  -8.44348  -0.64615  -3.90476
  -8.44348  -0.40673  -3.42592
  -8.44348  -0.40673  -2.94708
  -8.20406  -0.16731  -2.46824
  -8.20406   0.07211  -1.98940
  -8.20406   0.07211  -1.51056
  -7.96464   0.31153  -1.03172
  -7.96464   0.55095  -0.79230
  -7.72522   0.55095  -0.31346
  -7.72522   0.79037  -0.31346
  -7.48580   1.02979  -0.07404
  -7.48580   1.26921  -0.07404
  -7.24638   1.50863  -0.31346
  -7.24638   1.74805  -0.31346
  -7.24638   1.74805  -0.55288
  -7.24638   1.98747  -0.79230
  -7.24638   1.98747  -1.03172
  -7.24638   2.22689  -1.51056
  -7.48580   2.22689  -1.74998
  -7.48580   2.22689  -2.22882
  -7.72522   2.46631  -2.46824
  -7.72522   2.46631  -2.94708
  -7.96464   2.46631  -3.42592
  -8.20406   2.46631  -3.66534
  -8.44348   2.46631  -3.90476
  -8.44348   2.22689  -4.14418
  -8.68290   2.22689  -4.38360
  -8.92232   2.22689  -4.62302
  -8.92232   2.22689  -4.62302
  -9.16174   2.22689  -4.62302
  -9.16174   1.98747  -4.86244
  -9.16174   1.98747  -4.86244
  -9.16174   1.74805  -4.86244
  -9.16174   1.74805  -4.62302
  -9.16174   1.74805  -4.62302
  -9.16174   1.74805  -4.38360
  -9.16174   1.74805  -4.14418
  -9.16174   1.50863  -3.90476
  -8.92232   1.50863  -3.66534
  -8.92232   1.50863  -3.18650
  -8.68290   1.50863  -2.94708
  -8.68290   1.50863  -2.70766
  -8.68290   1.50863  -2.22882
  -8.68290   1.26921  -1.98940
  -8.68290   1.26921  -1.74998
  -8.44348   1.26921  -1.27114
  -8.44348   1.26921  -0.79230
  -8.44348   1.26921  -0.55288
  -8.20406   1.26921  -0.07404
  -8.20406   1.02979   0.16538
  -7.96464   1.02979   0.40481
  -7.72522   1.02979   0.64423
  -7.48580   0.79037   0.88365
  -7.24638   0.79037   1.12307
  -7.00696   0.79037   1.36249
  -6.76753   0.79037   1.60191
  -6.52811   0.79037   1.60191
  -6.28869   0.79037   1.60191
  -6.04927   0.79037   1.60191
  -5.80985   0.79037   1.60191
  -5.57043   0.79037   1.36249
  -5.57043   0.79037   1.36249
  -5.33101   0.79037   1.36249
  -5.09159   0.79037   1.36249
  -4.85217   0.55095   1.12307
  -4.85217   0.55095   0.88365
  -4.61275   0.31153   0.88365
  -4.37333   0.31153   0.64423
  -4.37333   0.07211   0.40481
  -4.13391   0.07211   0.40481
  -4.13391   0.07211   0.40481
  -3.89449   0.07211   0.40481
  -3.65507   0.31153   0.40481
  -3.65507   0.31153   0.40481
  -3.41565   0.31153   0.40481
  -3.17623   0.31153   0.40481
  -2.93681   0.55095   0.64423
  -2.69739   0.55095   0.64423
  -2.69739   0.55095   0.88365
  -2.45797   0.79037   1.12307
  -2.21855   0.55095   1.60191
  -2.21855   0.55095   1.84133
  -2.21855   0.55095   2.08075
  -1.97913   0.79037   2.55959
  -1.73971   0.79037   3.03843
  -1.73971   0.79037   3.27785
  -1.50029   0.79037   3.75669
  -1.26087   0.79037   3.99611
  -1.26087   0.79037   4.23553
  -0.78203   0.79037   4.71437
  -0.54261   1.02979   4.95379
  -0.30319   0.79037   4.95379
  -0.06377   1.02979   5.19321
  -0.06377   0.79037   5.43263
   0.17565   0.79037   5.43263
   0.41507   0.79037   5.43263
   0.65449   0.55095   5.43263
   0.89391   0.55095   5.19321
   1.13333   0.31153   5.19321
   1.37275   0.31153   5.19321
   1.61217   0.07211   4.95379
   1.85159  -0.16731   4.95379
   1.85159  -0.16731   4.95379
   2.33043  -0.16731   4.71437
   2.56985  -0.40673   4.47495
   2.80927  -0.40673   4.23553
   3.04869  -0.40673   4.23553
   3.52753  -0.40673   3.99611
   3.76695  -0.64615   3.75669
   4.00637  -0.40673   3.51727
   4.48521  -0.40673   3.51727
   4.72463  -0.40673   3.27785
   5.20347  -0.40673   3.03843
   5.44289  -0.16731   3.03843
   5.92173  -0.16731   2.79901
   6.40057  -0.16731   2.55959
   6.63999   0.07211   2.55959
   7.11883   0.31153   2.32017
   7.35825   0.55095   2.08075
   7.59768   0.55095   2.08075
   7.83710   0.79037   1.84133
   8.31594   1.02979   1.84133
   8.55536   1.02979   1.60191
   8.79478   1.26921   1.60191
   9.03420   1.26921   1.60191
   9.27362   1.50863   1.36249
   9.51304   1.50863   1.36249
   9.51304   1.74805   1.12307
   9.75246   1.74805   1.12307
   9.99188   1.74805   0.88365
   9.99188   1.98747   0.88365
  10.23130   1.74805   0.88365
  10.23130   1.74805   0.64423
   9.99188   1.74805   0.64423
   9.99188   1.74805   0.64423
   9.99188   1.74805   0.64423
   9.75246   1.74805   0.64423
   9.75246   1.50863   0.88365
   9.75246   1.50863   0.88365
   9.51304   1.26921   0.88365
   9.51304   1.26921   0.88365
   9.51304   1.02979   0.88365
   9.51304   1.02979   1.12307
   9.27362   0.79037   1.12307
   9.27362   0.55095   1.36249
   9.03420   0.31153   1.36249
   9.03420   0.07211   1.60191
   9.03420   0.07211   1.60191
   8.79478  -0.16731   1.84133
   8.55536  -0.16731   1.84133
   8.31594  -0.16731   1.84133
   8.07652  -0.40673   2.08075
   8.07652  -0.40673   2.08075
   7.83710  -0.40673   2.08075
   7.59768  -0.40673   2.08075
   7.59768  -0.40673   2.08075
   7.35825  -0.40673   2.32017
   7.35825  -0.40673   2.32017
   7.35825  -0.40673   2.32017
   7.11883  -0.64615   2.32017
   7.11883  -0.64615   2.32017
   7.11883  -0.64615   2.32017
   6.87941  -0.64615   2.08075
   6.87941  -0.64615   2.08075
   6.87941  -0.64615   2.08075
   6.87941  -0.64615   2.08075
   6.87941  -0.64615   2.08075
   6.63999  -0.64615   1.84133
   6.63999  -0.64615   1.84133
   6.63999  -0.64615   1.60191
   6.40057  -0.64615   1.60191
   6.40057  -0.64615   1.36249
   6.16115  -0.64615   1.36249
   6.16115  -0.64615   1.36249
   6.16115  -0.64615   1.36249
   6.16115  -0.64615   1.36249
   6.16115  -0.64615   1.36249
   5.92173  -0.88557   1.36249
   5.92173  -0.88557   1.36249
   5.92173  -1.12499   1.60191
   5.68231  -1.60383   1.60191
   5.68231  -1.12499   1.84133
   5.44289  -1.36441   2.08075
   5.44289  -1.36441   2.32017
   5.44289  -1.36441   2.55959
   5.44289  -1.36441   2.79901
   5.44289  -1.36441   3.27785
   5.20347  -1.36441   3.51727
   5.20347  -1.60383   3.75669
   5.44289  -1.60383   3.99611
   5.44289  -1.60383   4.23553
   5.44289  -1.84325   4.71437
   5.44289  -1.84325   4.95379
   5.44289  -1.84325   5.19321
   5.44289  -2.08267   5.43263
   5.68231  -2.08267   5.43263
   5.68231  -2.08267   5.67205
   5.68231  -2.08267   5.67205
   5.68231  -2.32209   5.67205
   5.68231  -2.32209   5.67205
   5.68231  -2.08267   5.43263
   5.92173  -2.08267   5.43263
   5.92173  -2.08267   5.19321
   5.92173  -2.08267   4.95379
   5.92173  -2.08267   4.71437
   5.92173  -2.08267   4.47495
   5.92173  -1.84325   4.23553
   5.92173  -1.60383   3.99611
   5.92173  -1.60383   3.51727
   5.92173  -1.36441   3.27785
   5.92173  -1.36441   3.03843
   5.92173  -1.12499   2.55959
   5.92173  -0.88557   2.08075
   5.92173  -0.88557   1.60191
   5.68231  -0.64615   1.36249
   5.68231  -0.64615   0.88365
   5.44289  -0.40673   0.40481
   5.44289  -0.40673   0.40481
   5.20347  -0.40673   0.16538
   4.96405  -0.16731  -0.07404
   4.72463  -0.16731  -0.31346
   4.48521   0.07211  -0.55288
   4.24579   0.31153  -0.79230
   4.00637   0.31153  -1.27114
   3.76695   0.55095  -1.51056
   3.28811   0.55095  -1.74998
   3.04869   0.79037  -1.98940
   2.80927   0.79037  -2.22882
   2.56985   1.02979  -2.46824
   2.33043   1.02979  -2.70766
   2.09101   1.26921  -2.94708
   1.85159   1.02979  -3.18650
   1.37275   1.26921  -3.42592
   1.13333   1.26921  -3.66534
   1.13333   1.26921  -3.90476
   0.89391   1.02979  -4.14418
   0.65449   1.02979  -4.38360
   0.41507   0.79037  -4.62302
   0.41507   0.55095  -4.62302
   0.41507   0.31153  -4.86244
   0.17565   0.31153  -5.10186
   0.17565   0.07211  -5.34128
  -0.06377  -0.16731  -5.34128
  -0.06377  -0.40673  -5.34128
  -0.06377  -0.64615  -5.58070
  -0.06377  -0.88557  -5.58070
  -0.06377  -0.88557  -5.82012
  -0.06377  -1.12499  -5.82012
  -0.06377  -1.36441  -5.82012
  -0.06377  -1.60383  -5.58070
  -0.06377  -1.60383  -5.58070
  -0.06377  -1.84325  -5.58070
  -0.06377  -1.84325  -5.34128
  -0.06377  -2.08267  -5.10186
  -0.30319  -2.08267  -4.86244
  -0.30319  -2.08267  -4.86244
  -0.30319  -2.08267  -4.62302
  -0.54261  -2.08267  -4.38360
  -0.54261  -1.84325  -4.14418
  -0.78203  -1.84325  -3.90476
  -0.78203  -1.84325  -3.90476
  -0.78203  -1.60383  -3.66534
  -1.02145  -1.60383  -3.42592
  -1.26087  -1.36441  -3.42592
  -1.26087  -1.36441  -3.18650
  -1.50029  -1.12499  -3.18650
  -1.50029  -1.12499  -2.94708
  -1.73971  -0.88557  -2.94708
  -1.97913  -0.88557  -2.94708
  -2.21855  -0.88557  -2.70766
  -2.45797  -0.64615  -2.70766
  -2.69739  -0.64615  -2.70766
  -2.93681  -0.64615  -2.46824
  -3.41565  -0.64615  -2.46824
  -3.65507  -0.40673  -2.46824
  -3.89449  -0.40673  -2.46824
  -4.37333  -0.40673  -2.46824
  -4.61275  -0.40673  -2.46824
  -5.09159  -0.40673  -2.22882
  -5.33101  -0.40673  -2.22882
  -5.57043  -0.40673  -2.22882
  -5.80985  -0.40673  -1.98940
  -6.04927  -0.40673  -1.98940
  -6.28869  -0.40673  -1.98940
  -6.52811  -0.16731  -1.98940
  -6.76753  -0.16731  -1.74998
  -7.00696  -0.16731  -1.74998
  -7.48580  -0.16731  -1.51056
  -7.48580  -0.16731  -1.27114
  -7.96464  -0.16731  -1.03172
  -8.20406  -0.16731  -1.03172
  -8.44348   0.07211  -0.79230
  -8.44348   0.07211  -0.55288
  -8.68290   0.31153  -0.31346
  -8.92232   0.31153  -0.31346
  -9.16174   0.55095  -0.07404
  -9.40116   0.55095  -0.07404
  -9.40116   0.79037   0.16538
  -9.64058   0.79037   0.16538
  -9.88000   0.79037   0.16538
  -9.88000   1.02979   0.40481
 -10.11942   1.02979   0.40481
 -10.35884   1.02979   0.40481
 -10.35884   0.79037   0.40481
 -10.59826   1.02979   0.40481
 -10.83768   1.02979   0.40481
 -11.07710   1.02979   0.40481
 -11.07710   1.02979   0.40481
 -11.31652   1.02979   0.40481
 -11.55594   1.26921   0.40481
 -11.55594   1.26921   0.40481
 -11.55594   1.26921   0.40481
 -11.79536   1.26921   0.16538
 -11.79536   1.26921   0.16538
 -12.03478   1.26921   0.16538
 -12.03478   1.26921  -0.07404
 -12.03478   1.26921  -0.07404
 -12.03478   1.26921  -0.31346
 -12.03478   1.26921  -0.31346
 -11.79536   1.26921  -0.55288
 -11.79536   1.26921  -0.55288
 -11.55594   1.26921  -0.55288
 -11.55594   1.26921  -0.79230
 -11.31652   1.26921  -0.79230
 -11.07710   1.26921  -1.03172
 -11.07710   1.26921  -1.27114
 -10.83768   1.26921  -1.51056
 -10.59826   1.26921  -1.51056
 -10.35884   1.26921  -1.74998
 -10.11942   1.26921  -1.98940
  -9.88000   1.26921  -1.98940
  -9.40116   1.50863  -2.22882
  -9.16174   1.26921  -2.46824
  -8.92232   1.50863  -2.46824
  -8.68290   1.50863  -2.70766
  -8.44348   1.50863  -2.70766
  -8.20406   1.50863  -2.94708
  -7.72522   1.50863  -2.94708
  -7.48580   1.50863  -2.94708
  -7.24638   1.50863  -3.18650
  -7.00696   1.50863  -3.18650
  -6.52811   1.50863  -3.18650
  -6.28869   1.50863  -3.18650
  -6.04927   1.50863  -3.42592
  -5.80985   1.50863  -3.42592
  -5.80985   1.50863  -3.66534
  -5.57043   1.26921  -3.66534
  -5.33101   1.26921  -3.90476
  -5.09159   1.02979  -3.90476
  -5.09159   1.02979  -4.14418
  -4.85217   1.02979  -4.14418
  -4.61275   0.79037  -4.38360
  -4.37333   0.79037  -4.38360
  -4.13391   0.55095  -4.38360
  -4.13391   0.55095  -4.38360
  -3.89449   0.55095  -4.38360
  -3.65507   0.31153  -4.38360
  -3.65507   0.31153  -4.14418
  -3.65507   0.31153  -4.14418
  -3.65507   0.07211  -3.90476
  -3.41565   0.07211  -3.66534
  -3.41565  -0.16731  -3.66534
  -3.41565  -0.40673  -3.42592
  -3.17623  -0.40673  -3.18650
  -3.17623  -0.40673  -2.94708
  -2.93681  -0.40673  -2.70766
  -2.93681  -0.40673  -2.46824
  -2.69739  -0.64615  -2.22882
  -2.69739  -0.64615  -1.98940
  -2.69739  -0.64615  -1.98940
  -2.45797  -0.64615  -1.74998
  -2.45797  -0.64615  -1.51056
  -2.45797  -0.64615  -1.51056
  -2.45797  -0.64615  -1.27114
  -2.45797  -0.64615  -1.03172
  -2.45797  -0.64615  -1.03172
  -2.45797  -0.64615  -0.79230
  -2.21855  -0.64615  -0.55288
  -2.21855  -0.64615  -0.55288
  -1.97913  -0.64615  -0.31346
  -1.97913  -0.64615  -0.31346
  -1.73971  -0.64615  -0.07404
  -1.73971  -0.40673  -0.07404
  -1.50029  -0.40673   0.16538
  -1.26087  -0.16731   0.16538
  -1.26087  -0.40673   0.40481
  -1.02145  -0.16731   0.40481
  -0.78203  -0.16731   0.40481
  -0.78203   0.07211   0.40481
  -0.54261   0.07211   0.40481
  -0.30319   0.31153   0.40481
  -0.06377   0.31153   0.40481
  -0.06377   0.31153   0.40481
  -0.06377   0.55095   0.40481
   0.17565   0.55095   0.40481
   0.41507   0.55095   0.40481
   0.65449   0.55095   0.40481
   0.89391   0.55095   0.40481
   1.13333   0.55095   0.40481
   1.37275   0.55095   0.40481
   1.85159   0.55095   0.40481
   2.09101   0.55095   0.40481
   2.33043   0.55095   0.16538
   2.80927   0.55095   0.16538
   3.04869   0.55095   0.16538
   3.28811   0.55095   0.16538
   3.52753   0.55095   0.16538
   3.76695   0.55095   0.16538
   4.00637   0.55095   0.16538
   4.24579   0.55095  -0.07404
   4.72463   0.79037  -0.07404
   4.96405   0.79037  -0.07404
   5.20347   0.79037  -0.07404
   5.44289   1.02979  -0.07404
   5.68231   1.02979  -0.07404
   6.16115   1.02979  -0.31346
   6.40057   1.26921  -0.31346
   6.63999   1.26921  -0.31346
   6.87941   1.26921  -0.31346
   7.11883   1.26921  -0.31346
   7.35825   1.26921  -0.31346
   7.35825   1.26921  -0.31346
   7.59768   1.02979  -0.07404
   7.59768   1.02979  -0.07404
   7.59768   1.02979   0.16538
   7.59768   0.79037   0.40481
   7.59768   0.79037   0.40481
   7.59768   0.79037   0.64423
   7.59768   0.79037   0.88365
   7.35825   0.55095   1.12307
   7.35825   0.55095   1.36249
   7.35825   0.55095   1.60191
   7.11883   0.55095   1.84133
   7.11883   0.55095   2.08075
   7.11883   0.79037   2.32017
   6.87941   0.55095   2.55959
   6.87941   0.55095   2.79901
   6.63999   0.55095   3.03843
   6.63999   0.55095   3.27785
   6.40057   0.55095   3.51727
   6.16115   0.31153   3.51727
   6.16115   0.31153   3.75669
   5.92173   0.31153   3.75669
   5.92173   0.07211   3.99611
   5.92173   0.07211   3.99611
   5.68231   0.07211   3.99611
   5.68231   0.07211   3.99611
   5.44289   0.07211   4.23553
   5.44289  -0.16731   4.23553
   5.20347  -0.16731   4.23553
   5.20347  -0.16731   4.47495
   4.96405  -0.16731   4.71437
   4.96405  -0.16731   4.71437
   4.96405  -0.40673   4.95379
   4.96405  -0.40673   5.19321
   4.96405  -0.40673   5.19321
   4.96405  -0.40673   5.43263
   4.96405  -0.64615   5.43263
   4.96405  -0.64615   5.67205
   5.20347  -0.64615   5.91147
   5.20347  -0.88557   5.91147
   5.44289  -0.88557   6.15089
   5.68231  -1.12499   6.15089
