********************************************************************************
               CENTRO DE INSTRUMENTACION Y REGISTRO SISMICO  A.C.  
                       Coordinacion de Servicios Tecnicos
     Anaxagoras 814, Col. Narvarte, Benito Juarez, C.P. 03020 Mexico, D.F.
            Tels. 687 45 42/ 687 45  82             Fax. 669 25 12
********************************************************************************
ARCHIVO ESTANDAR DE ACELERACION:
VERSION DEL FORMATO                    : 2.0
NOMBRE DEL ARCHIVO                     : AP689804.201
FECHA Y HORA DE CREACION               : 19/ENERO/2000. 10:15 
REF. CATALOGO ACELEROGRAMAS, SMIS 1996 : REGISTRO No.     /PAG.


================================================================================
DATOS DE LA ESTACION:
NOMBRE DE LA ESTACION                  : APATLACO
CLAVE DE LA ESTACION                   : AP68
LOCALIZACION DE LA ESTACION            : Jardin de Ni¤os Juan Bautista de la
                                       : Salle Canal de Apatlaco y Ahuehuetes,
                                       : Col Iztacalco Infonavit, Iztacalc
                                       : 
                                       :
COORDENADAS DE LA ESTACION             : 19.381 LAT. N 
                                       : 99.107 LONG. W 
ALTITUD (msnm)                         : 2232
TIPO DE SUELO                          : ARCILLOSO, ZONA LAGO
                                       : 
                                       : 
INSTITUCION RESPONSABLE                : CIRES
                                       :

================================================================================
DATOS DEL ACELEROGRAFO:
MODELO DEL ACELEROGRAFO                : RAD-851
NUMERO DE SERIE DEL ACELEROGRAFO       : 255
NUMERO DE CANALES                      : 3
ORIENTACION C1-C6 (rumbo;orientacion)  : /N00E/+V/N90W
ORIENTACION C7-C12 (rumbo;orientacion) :
VEL. DE MUESTREO, C1-C6 (muestras/s)   : /100/100/100
VEL. DE MUESTREO, C7-C12 (muestras/s)  :
ESC. COMPLETA DE SENSORES, C1-C6, (g)  : /0.5/0.5/0.5
ESC. COMPLETA DE SENSORES, C7-C12, (g) :
FREC. NAT. DE SENSORES, C1-C6, (Hz)    : /30/30/30
FREC. NAT. DE SENSORES, C7-C12, (Hz)   :
AMORTIGUAMIENTO DE SENSORES, C1-C6     : /0.780/0.700/0.678
AMORTIGUAMIENTO DE SENSORES, C7-C12    :
INTERVALO DE MUESTREO, C1-C6, (s)      : /0.01/0.01/0.01
INTERVALO DE MUESTREO, C7-C12, (s)     :
UMBRAL DE DISPARO, C1-C6, (Gal)        : /3.42/4.15/3.42
UMBRAL DE DISPARO, C7-C12, (Gal)       :
MEMORIA DE PREEVENTO (s)               : 8
TIEMPO DE POSEVENTO (s)                : 8


================================================================================
DATOS DEL SISMO:
FECHA DEL SISMO (GMT)                  : 20/ABR/98
HORA EPICENTRO (GMT)                   : 22:59:17.00
MAGNITUD(ES)                           : /Mb=5.4/Mc=5.0/Ma=5.5/Me=5.7
COORDENADAS DEL EPICENTRO              : 18.37 LAT. N
                                       : 101.21 LONG. W
PROFUNDIDAD FOCAL (km)                 : 66.0
FUENTE DE LOS DATOS EPICENTRALES       : SSN
                                       : INSTITUTO DE GEOFISICA, UNAM

================================================================================
DATOS DE ESTE REGISTRO:
HORA DE LA PRIMERA MUESTRA (GMT)       : 23:00:40.00
EXACTITUD DEL TIEMPO (s)               : 0.01
DURACION DEL REGISTRO (s), C1-C6       : /110.75/110.75/110.75
DURACION DEL REGISTRO (s), C7-C12      :
NUM. TOTAL DE MUESTRAS, C1-C6          : /11075/11075/11075
NUM. TOTAL DE MUESTRAS, C7-C12         :
ACEL. MAX. (Gal), C1-C6                : /4.35096/2.64865/4.77318
ACEL. MAX., C1-C6, EN LA MUESTRA       :
ACEL. MAX. (Gal), C7-C12               :
ACEL. MAX., C7-C12, EN LA MUESTRA      :
UNIDADES DE LOS DATOS                  : Gal (cm/s/s)
FACTOR DE DECIMACION                   : 1
FORMATO DATOS (FORTRAN,10 campos/dato) : 3F10.5


================================================================================
CALIDAD DEL ACELEROGRAMA:
REGISTRO DIGITAL COMPLETO CON TIEMPO ABSOLUTO CORRECTO.


================================================================================
COMENTARIOS:














================================================================================
DATOS DE ACELERACION:
---------+---------+---------+---------+---------+---------+---------+---------+
   CANAL-1   CANAL-2   CANAL-3   CANAL-4   CANAL-5   CANAL-6   CANAL-7   CANAL-8
      N00E        +V      N90W
---------+---------+---------+---------+---------+---------+---------+---------+
[...]
  -0.75968  -1.18205   1.69113
  -0.52026  -1.66089   1.69113
  -0.75968  -1.18205   1.69113
  -1.47793  -1.18205   1.69113
  -1.23851  -1.42147   2.40939
  -0.75968  -1.66089   2.40939
  -0.99910  -1.42147   2.40939
  -1.47793  -1.18205   2.88822
  -1.47793  -1.42147   3.12764
  -1.23851  -1.18205   2.40939
  -1.71735  -0.70321   2.40939
  -1.47793  -0.70321   2.64881
  -0.99910  -1.42147   2.88822
  -0.99910  -0.94263   2.64881
  -1.47793  -0.46379   2.64881
  -0.75968  -0.46379   2.40939
  -0.75968  -0.94263   2.40939
  -0.52026  -0.46379   1.93055
  -0.28084  -0.46379   1.45171
  -0.28084   0.01505   0.73345
  -0.04142  -0.22437   0.73345
  -0.04142  -0.22437   0.73345
   0.19800  -0.22437   0.01520
   0.43742   0.01505  -0.94248
   0.43742   0.49388  -0.94248
   0.67684   0.25447  -1.42132
   1.15567   0.01505  -1.42132
   1.63451   0.25447  -2.13957
   1.15567   0.49388  -1.90015
   1.39509   0.25447  -2.13957
   1.63451   0.25447  -2.37899
   1.39509   0.25447  -2.13957
   1.15567   0.49388  -2.13957
   1.15567   0.25447  -2.37899
   1.63451   0.49388  -2.37899
   1.15567   0.73330  -2.13957
   0.91626   0.97272  -2.61841
   1.15567   0.01505  -1.90015
   1.87393   0.25447  -2.61841
   1.39509   0.73330  -2.37899
   1.39509   0.49388  -2.85783
   1.63451   0.01505  -2.61841
   2.11335   0.01505  -2.61841
   1.87393   0.73330  -2.85783
   1.39509   0.25447  -2.61841
   1.39509   0.25447  -2.13957
   1.87393   0.25447  -2.61841
   1.87393   0.97272  -2.85783
   1.39509   1.21214  -2.85783
   1.63451   0.73330  -2.61841
   1.39509   0.49388  -2.85783
   0.67684   0.49388  -2.85783
   0.19800   0.73330  -3.09725
  -0.52026   0.73330  -2.61841
  -0.28084   0.25447  -2.37899
  -0.75968   0.73330  -2.37899
  -1.95677   0.97272  -2.37899
  -2.19619   0.25447  -2.13957
  -2.67503   0.49388  -1.66074
  -2.19619   0.49388  -1.90015
  -2.91445   0.49388  -1.42132
  -2.67503   0.01505  -0.94248
  -2.67503   0.49388  -1.42132
  -2.19619   0.49388  -1.66074
  -2.91445   0.73330  -1.18190
  -2.67503   0.73330  -1.18190
  -2.67503   0.49388  -0.70306
  -1.71735   0.25447  -0.22422
  -1.71735   0.73330  -0.22422
  -2.19619   1.21214  -0.46364
  -1.23851   0.73330   0.49404
  -0.99910   0.25447   0.49404
  -1.95677   0.73330   0.01520
  -1.95677   0.73330   0.73345
  -1.23851   0.01505   0.73345
  -1.23851   0.01505   0.49404
  -1.23851   0.25447   0.73345
  -1.47793   0.01505   1.45171
  -0.75968  -0.70321   1.45171
  -0.99910  -0.22437   1.45171
  -1.23851  -0.46379   1.21229
  -1.47793  -0.22437   1.45171
  -1.95677   0.01505   1.21229
  -1.71735  -0.70321   1.93055
  -1.47793  -0.46379   1.45171
  -1.95677   0.01505   1.21229
  -2.43561  -0.22437   1.21229
  -2.43561   0.01505   1.45171
  -1.95677   0.01505   0.97287
  -2.19619   0.01505   0.49404
  -2.43561   0.01505   0.73345
  -1.95677  -0.46379   1.21229
  -1.95677  -0.46379   0.73345
  -1.71735  -0.46379   0.49404
  -1.95677  -0.70321   0.73345
  -1.71735  -0.70321   0.49404
  -1.23851  -0.46379  -0.22422
  -1.71735  -0.46379  -0.22422
  -1.71735  -0.22437   0.01520
  -0.75968  -0.70321   0.25462
  -0.75968  -0.70321   0.25462
  -0.04142  -0.70321  -0.46364
  -0.52026  -0.70321   0.25462
   0.43742  -0.94263  -0.46364
   0.67684  -0.46379  -0.70306
   0.67684  -0.46379  -0.94248
   0.91626  -0.70321  -0.46364
   1.63451  -0.94263  -0.94248
   1.63451  -0.70321  -1.42132
   1.39509  -0.46379  -1.18190
   1.63451  -0.46379  -1.18190
   1.87393  -0.94263  -1.42132
   2.11335  -0.94263  -1.42132
   2.35277   0.01505  -1.18190
   2.59219  -0.22437  -1.42132
   2.35277  -0.22437  -0.94248
   2.59219  -0.70321  -1.18190
   2.83161  -0.22437  -0.70306
   2.59219  -0.22437  -1.18190
   2.35277  -0.46379  -0.46364
   2.35277  -0.94263  -0.22422
   2.59219  -0.46379  -0.70306
   2.59219  -0.22437  -0.94248
   1.63451  -0.22437   0.01520
   2.11335  -0.70321  -0.22422
   2.35277  -0.46379  -0.70306
   1.87393  -0.22437  -0.46364
   1.39509   0.01505   0.01520
   2.11335   0.01505  -0.46364
   1.87393   0.01505  -0.46364
   1.87393   0.25447  -0.46364
   1.63451   0.01505  -0.22422
   1.39509   0.49388  -0.22422
   1.63451   0.25447  -0.70306
   0.91626   0.49388  -0.46364
   0.91626   0.49388  -0.94248
   0.91626   0.49388  -0.94248
   1.39509   0.49388  -1.18190
   0.19800   0.97272  -1.18190
   0.19800   0.73330  -0.70306
   0.19800   0.73330  -0.70306
   0.43742   0.97272  -1.18190
   0.19800   0.97272  -0.70306
   0.19800   1.21214  -0.94248
   0.43742   0.73330  -0.22422
   0.19800   0.49388  -0.22422
  -0.04142   0.49388  -0.22422
   0.19800   0.97272  -1.18190
  -0.52026   0.73330  -0.22422
  -0.04142   0.01505  -0.46364
  -0.28084   0.49388  -0.70306
  -0.04142   0.49388  -0.70306
  -0.75968   0.25447  -0.46364
  -0.75968   0.25447  -0.46364
  -0.28084   0.25447  -0.94248
  -0.52026   0.25447  -0.94248
  -0.75968  -0.22437  -0.70306
  -0.75968  -0.22437  -0.46364
  -0.75968  -0.22437  -0.94248
  -0.52026  -0.22437  -0.70306
  -0.52026  -0.70321  -0.46364
  -0.99910  -0.46379  -0.70306
  -0.52026  -0.94263  -0.94248
  -0.99910  -0.22437  -1.18190
  -0.99910  -0.70321  -1.18190
  -0.75968  -0.46379  -1.18190
  -0.52026  -0.46379  -1.42132
  -0.52026  -0.22437  -1.66074
  -0.52026  -0.70321  -1.18190
   0.19800  -0.94263  -1.90015
  -0.04142  -0.46379  -2.13957
  -0.28084  -0.46379  -1.90015
  -0.28084  -0.22437  -1.90015
  -0.04142  -0.94263  -1.90015
  -0.28084   0.01505  -2.37899
  -0.75968  -0.22437  -2.13957
  -0.52026  -0.46379  -1.66074
  -0.04142  -0.70321  -1.66074
  -0.28084  -0.46379  -0.94248
   0.19800  -0.22437  -1.66074
  -0.04142  -0.22437  -0.94248
  -0.04142  -0.46379  -0.46364
  -0.28084   0.01505   0.01520
   0.19800  -0.46379   0.01520
  -0.04142   0.25447   0.49404
   0.43742  -0.22437   1.45171
   0.19800   0.01505   2.16997
   1.15567   0.25447   1.93055
   0.67684   0.73330   2.16997
   0.67684   0.97272   2.88822
   0.91626   0.73330   3.12764
   0.67684   1.45156   3.12764
   0.67684   0.73330   3.84590
   0.67684   0.73330   4.32474
   0.91626   1.21214   3.84590
   1.39509   0.49388   3.84590
   1.39509   0.97272   3.12764
   0.67684   0.97272   3.84590
   1.63451   0.97272   3.12764
   1.39509   1.21214   3.12764
   1.15567   0.25447   3.60648
   0.91626   0.49388   3.36706
   1.63451   0.25447   2.88822
   1.63451   0.49388   2.64881
   1.63451   0.49388   2.40939
   1.39509   0.01505   2.64881
   2.35277   0.01505   1.93055
   2.35277   0.25447   1.93055
   1.87393   0.01505   1.69113
   1.87393   0.01505   1.93055
   2.11335  -0.70321   1.69113
   2.35277  -0.94263   1.93055
   3.07103  -1.18205   1.21229
   2.83161  -0.94263   1.45171
   2.59219  -1.18205   2.16997
   2.59219  -1.42147   1.69113
   2.35277  -0.70321   1.21229
   2.35277  -0.70321   1.69113
   2.11335  -1.42147   1.69113
   2.83161  -1.42147   1.45171
   2.83161  -0.70321   1.21229
   2.35277  -0.94263   1.45171
   2.11335  -1.18205   1.45171
   2.35277  -0.70321   0.97287
   2.11335  -0.22437   0.73345
   2.11335  -0.70321   0.73345
   2.11335  -0.70321   0.97287
   2.35277  -0.22437   0.25462
   2.35277   0.01505   0.25462
   1.63451   0.01505   0.25462
   1.63451   0.01505   0.25462
   1.87393   0.49388  -0.46364
   1.63451   0.49388  -0.70306
   1.15567   0.49388  -0.46364
   1.39509   0.25447  -0.46364
   1.63451   0.25447  -0.70306
   1.63451   0.01505  -1.42132
   1.15567   0.25447  -0.46364
   1.15567  -0.22437  -0.46364
   1.39509  -0.22437  -0.46364
   1.15567   0.01505  -0.70306
   0.43742   0.49388  -0.46364
  -0.04142   0.49388  -0.22422
  -0.04142   0.01505  -0.22422
  -0.04142  -0.46379  -0.22422
  -0.52026   0.25447  -0.46364
  -0.99910   0.49388  -0.70306
  -0.99910   0.01505  -0.22422
  -0.75968   0.25447  -0.46364
  -0.52026   0.49388  -0.70306
  -1.47793   0.49388  -0.70306
  -1.47793   0.49388  -0.70306
  -1.71735   0.25447  -0.22422
  -1.95677   0.73330  -0.94248
  -2.19619   0.49388  -0.94248
  -2.19619   0.25447  -0.46364
  -2.67503   0.73330  -1.42132
  -2.19619   0.73330  -1.66074
  -2.43561   0.73330  -1.66074
  -2.67503   0.73330  -1.66074
  -2.67503   0.01505  -0.94248
  -2.43561   0.73330  -1.90015
  -2.43561   0.49388  -1.18190
  -2.19619  -0.22437  -0.94248
  -2.19619   0.25447  -1.42132
  -1.95677   0.49388  -1.42132
  -2.19619   0.73330  -0.94248
  -2.43561   0.01505  -0.46364
  -1.95677  -0.46379  -0.70306
  -2.19619  -0.22437  -0.46364
  -2.19619  -0.22437  -0.22422
  -2.19619  -0.46379   0.25462
  -1.71735  -0.46379   0.01520
  -1.47793  -0.46379   0.25462
  -1.71735  -0.46379   0.01520
  -1.95677  -0.22437   0.49404
  -1.71735  -0.70321   0.73345
  -1.47793  -0.46379   0.97287
  -1.71735  -0.46379   1.21229
  -1.47793  -0.70321   1.69113
  -0.99910  -0.94263   1.45171
  -1.23851  -0.46379   1.69113
  -1.47793  -0.46379   1.93055
  -1.23851  -0.46379   2.16997
  -0.99910  -0.94263   2.64881
  -0.52026  -0.22437   2.40939
  -0.99910   0.01505   2.40939
  -0.75968  -0.22437   2.88822
  -0.04142  -0.46379   2.64881
  -0.28084  -0.46379   2.88822
  -0.04142  -0.22437   2.40939
  -0.04142  -0.22437   2.88822
  -0.52026  -0.22437   3.12764
   0.43742   0.01505   2.64881
  -0.04142   0.01505   2.88822
   0.43742   0.49388   2.40939
   0.43742   0.49388   2.64881
   0.67684   0.25447   2.40939
   0.91626   0.73330   1.93055
   1.15567   0.49388   1.93055
   0.43742   0.73330   1.69113
   1.15567   0.73330   0.97287
   0.91626   0.49388   0.73345
   0.67684   0.49388   0.97287
   0.67684   0.97272   0.73345
   0.91626   0.49388   0.49404
   1.39509   0.49388   0.01520
   1.15567   0.97272   0.01520
   0.91626   0.97272   0.01520
   1.39509   1.21214  -0.22422
   0.91626   1.21214  -0.70306
   0.19800   1.45156  -0.22422
   0.43742   1.21214  -0.22422
   0.91626   0.97272  -0.46364
   0.67684   0.97272  -0.46364
  -0.04142   1.21214  -0.70306
  -0.04142   0.97272  -0.22422
   0.19800   0.49388   0.25462
   0.19800   0.73330   0.01520
  -0.28084   0.97272   0.01520
  -0.52026   0.25447   0.73345
  -0.75968   0.49388   0.73345
  -0.75968   0.25447   0.49404
  -0.52026   0.25447   0.73345
  -1.23851   0.01505   0.97287
  -1.23851   0.01505   0.97287
  -0.99910  -0.22437   0.97287
  -1.23851  -0.22437   0.97287
  -0.99910  -0.22437   1.21229
  -1.23851  -0.94263   1.69113
  -1.23851  -0.70321   1.21229
  -1.23851  -0.70321   0.97287
  -1.47793  -0.70321   1.45171
  -1.47793  -1.18205   1.21229
  -1.23851  -1.18205   0.97287
  -1.23851  -0.94263   0.01520
  -1.71735  -0.46379   0.25462
  -1.47793  -1.18205  -0.22422
  -1.47793  -0.94263  -0.70306
  -1.47793  -0.70321  -1.42132
  -1.71735  -1.18205  -1.18190
  -1.71735  -1.18205  -1.42132
  -1.71735  -0.70321  -2.61841
  -1.95677  -0.70321  -2.85783
  -2.43561  -0.22437  -3.33667
  -1.71735  -0.70321  -3.33667
  -1.47793  -0.94263  -4.05492
  -1.47793  -0.46379  -3.81551
  -1.95677   0.01505  -4.77318
  -2.19619  -0.22437  -4.05492
  -1.71735  -0.94263  -3.81551
  -1.47793  -0.46379  -4.05492
  -1.71735   0.25447  -4.05492
  -1.71735  -0.22437  -3.57609
  -0.99910  -0.22437  -3.57609
  -0.75968   0.25447  -3.57609
  -0.99910   0.49388  -3.09725
  -0.52026   0.49388  -2.85783
  -0.75968   0.01505  -2.13957
  -0.28084   0.01505  -2.37899
  -0.28084   0.49388  -2.13957
  -0.52026   0.01505  -1.18190
   0.19800   0.25447  -1.18190
   0.19800   0.49388  -1.18190
  -0.52026   0.73330  -0.46364
  -0.28084   0.49388  -0.22422
  -0.75968   0.25447   0.25462
  -0.28084   0.49388   0.01520
  -0.04142   0.73330   0.25462
  -0.28084   0.49388   0.73345
  -0.52026   0.73330   0.49404
  -0.04142   0.73330   0.49404
  -0.52026   1.21214   0.49404
  -0.52026   0.49388   0.73345
  -0.75968   0.49388   1.21229
  -0.28084   0.73330   0.73345
  -0.52026   0.97272   0.73345
  -1.23851   0.73330   0.97287
  -0.99910   0.73330   0.73345
  -0.75968   0.49388   0.49404
  -0.75968   0.97272   0.25462
  -0.99910   0.73330   0.25462
  -0.52026   0.49388   0.49404
  -0.04142   0.73330   0.01520
  -0.28084   0.49388   0.01520
  -0.99910   0.49388   0.25462
  -0.52026   0.25447   0.01520
  -0.04142  -0.22437   0.25462
   0.19800   0.49388  -0.22422
  -0.75968   0.49388  -0.46364
  -0.04142   0.01505   0.01520
  -0.04142   0.25447   0.01520
  -0.04142   0.25447  -0.22422
  -0.52026   0.49388  -0.22422
  -0.28084   0.01505   0.25462
  -0.04142  -0.46379   0.25462
  -0.28084   0.01505   0.25462
  -0.04142  -0.22437   0.01520
  -0.28084  -0.22437   0.25462
   0.43742  -0.22437   0.01520
   0.43742  -0.46379  -0.22422
   0.19800   0.01505  -0.46364
  -0.04142  -0.46379  -0.22422
   0.43742  -1.18205   0.01520
   0.67684  -0.46379  -0.22422
   0.43742  -0.46379  -0.94248
  -0.04142  -0.46379  -0.46364
   0.43742  -0.70321  -0.94248
   0.91626  -0.70321  -0.94248
   0.67684  -0.46379  -1.42132
   0.43742  -0.70321  -1.18190
   1.15567  -1.42147  -0.94248
   1.15567  -0.94263  -1.18190
   1.39509  -1.18205  -1.42132
   0.43742  -0.94263  -0.70306
   1.15567  -1.18205  -0.94248
   1.39509  -0.94263  -1.18190
   0.91626  -0.70321  -1.18190
   0.91626  -0.46379  -0.94248
   0.91626  -0.70321  -0.70306
   1.63451  -0.94263  -0.70306
   1.39509  -0.70321  -0.70306
   1.15567  -0.22437  -0.70306
   0.91626  -0.22437  -0.22422
   0.91626  -0.94263   0.01520
   0.67684  -0.22437   0.01520
   0.19800   0.01505   0.01520
   0.19800  -0.22437   0.73345
   0.19800  -0.22437   0.25462
  -0.04142   0.49388   0.01520
  -0.04142   0.73330  -0.46364
  -0.28084   0.25447   0.49404
  -0.52026   0.01505   0.49404
  -0.75968   0.49388   0.01520
  -1.23851   0.73330  -0.22422
  -1.47793   0.73330   0.25462
  -1.23851   0.73330  -0.70306
  -1.23851   0.73330  -0.94248
  -1.23851   0.97272  -1.42132
  -1.23851   0.49388  -0.94248
  -1.47793   0.49388  -0.94248
  -0.99910   0.73330  -1.66074
  -1.47793   0.97272  -1.90015
  -1.47793   0.73330  -1.66074
  -1.23851   0.49388  -2.13957
  -0.28084   0.49388  -2.37899
  -0.52026   0.73330  -2.61841
  -0.52026   0.49388  -2.61841
  -0.52026   0.25447  -2.13957
   0.43742   0.01505  -2.61841
   0.19800  -0.22437  -2.61841
  -0.04142   0.01505  -2.61841
   0.19800  -0.22437  -2.61841
   0.91626  -0.46379  -2.85783
   0.67684   0.01505  -2.61841
   0.67684  -0.22437  -2.61841
   0.91626  -0.46379  -2.13957
   1.15567  -0.70321  -2.37899
   1.63451  -0.22437  -2.13957
   0.91626  -0.46379  -1.66074
   1.39509  -0.70321  -1.66074
   1.15567  -0.70321  -1.42132
   1.15567  -0.22437  -1.90015
   1.15567  -0.22437  -1.42132
   1.15567  -0.22437  -1.18190
   1.15567  -0.22437  -1.18190
   1.15567  -0.46379  -1.18190
   0.43742  -0.46379  -0.70306
   0.67684  -0.70321  -0.46364
   0.43742  -0.46379   0.01520
   0.67684  -0.70321  -0.22422
  -0.04142  -0.22437   0.25462
  -0.28084  -0.70321   0.97287
  -0.04142  -0.70321   0.97287
   0.19800  -0.70321   0.97287
  -0.28084  -0.22437   1.21229
  -0.52026  -0.46379   1.45171
   0.19800  -0.70321   1.93055
   0.43742  -0.46379   1.93055
   0.19800  -0.22437   1.93055
  -0.04142  -0.22437   2.40939
   0.67684  -0.46379   2.16997
   0.67684  -0.46379   2.16997
   0.91626  -0.22437   1.69113
   0.43742   0.01505   1.93055
   0.91626  -0.22437   1.93055
   1.39509   0.01505   1.69113
   1.15567   0.25447   0.73345
   1.15567   0.01505   1.21229
   1.63451   0.01505   0.73345
   1.87393   0.01505   0.97287
   1.63451   0.49388   0.01520
   1.63451   0.73330   0.73345
   2.11335   0.49388   0.73345
   2.11335   0.49388   0.73345
   2.35277   0.25447   0.49404
   1.87393   0.73330   0.73345
   1.87393   0.49388   0.97287
