********************************************************************************
               CENTRO DE INSTRUMENTACION Y REGISTRO SISMICO  A.C.  
                       Coordinacion de Servicios Tecnicos
     Anaxagoras 814, Col. Narvarte, Benito Juarez, C.P. 03020 Mexico, D.F.
            Tels. 687 45 42/ 687 45  82             Fax. 669 25 12
********************************************************************************
ARCHIVO ESTANDAR DE ACELERACION:
VERSION DEL FORMATO                    : 2.0
NOMBRE DEL ARCHIVO                     : AP689712.221
FECHA Y HORA DE CREACION               : 19/MAR/98, 13:16
REF. CATALOGO ACELEROGRAMAS, SMIS 1996 : REGISTRO No.     /PAG.


================================================================================
DATOS DE LA ESTACION:
NOMBRE DE LA ESTACION                  : APATLACO
CLAVE DE LA ESTACION                   : AP68
LOCALIZACION DE LA ESTACION            : Jardin de Ni¤os Juan Bautista de la
                                       : Salle Canal de Apatlaco y Ahuehuetes,
                                       : Col Iztacalco Infonavit, Iztacalc
                                       : 
                                       :
COORDENADAS DE LA ESTACION             : 19.381 LAT. N 
                                       : 99.107 LONG. W 
ALTITUD (msnm)                         : 2232
TIPO DE SUELO                          : ARCILLOSO, ZONA LAGO
                                       : 
                                       : 
INSTITUCION RESPONSABLE                : CIRES
                                       :

================================================================================
DATOS DEL ACELEROGRAFO:
MODELO DEL ACELEROGRAFO                : RAD-851
NUMERO DE SERIE DEL ACELEROGRAFO       : 255
NUMERO DE CANALES                      : 3
ORIENTACION C1-C6 (rumbo;orientacion)  : /N00E/+V/N90W
ORIENTACION C7-C12 (rumbo;orientacion) :
VEL. DE MUESTREO, C1-C6 (muestras/s)   : /100/100/100
VEL. DE MUESTREO, C7-C12 (muestras/s)  :
ESC. COMPLETA DE SENSORES, C1-C6, (g)  : /0.5/0.5/0.5
ESC. COMPLETA DE SENSORES, C7-C12, (g) :
FREC. NAT. DE SENSORES, C1-C6, (Hz)    : /30/30/30
FREC. NAT. DE SENSORES, C7-C12, (Hz)   :
AMORTIGUAMIENTO DE SENSORES, C1-C6     : /0.780/0.700/0.678
AMORTIGUAMIENTO DE SENSORES, C7-C12    :
INTERVALO DE MUESTREO, C1-C6, (s)      : /0.01/0.01/0.01
INTERVALO DE MUESTREO, C7-C12, (s)     :
UMBRAL DE DISPARO, C1-C6, (Gal)        : /2.69/5.62/3.17
UMBRAL DE DISPARO, C7-C12, (Gal)       :
MEMORIA DE PREEVENTO (s)               : 24
TIEMPO DE POSEVENTO (s)                : 64


================================================================================
DATOS DEL SISMO:
FECHA DEL SISMO (GMT)                  : 22/DIC/97
HORA EPICENTRO (GMT)                   : 05:22:07:8
MAGNITUD(ES)                           : /Ms=5.0
COORDENADAS DEL EPICENTRO              : 17.1 LAT. N
                                       : 101.2 LONG. W
PROFUNDIDAD FOCAL (km)                 : 5.0
FUENTE DE LOS DATOS EPICENTRALES       : SSN
                                       : INSTITUTO DE GEOFISICA, UNAM

================================================================================
DATOS DE ESTE REGISTRO:
HORA DE LA PRIMERA MUESTRA (GMT)       : 05:23:49.00
EXACTITUD DEL TIEMPO (s)               : 0.01
DURACION DEL REGISTRO (s), C1-C6       : /97.75/97.75/97.75
DURACION DEL REGISTRO (s), C7-C12      :
NUM. TOTAL DE MUESTRAS, C1-C6          : /9775/9775/9775
NUM. TOTAL DE MUESTRAS, C7-C12         :
ACEL. MAX. (Gal), C1-C6                : /3.26619/1.45167/2.32164
ACEL. MAX., C1-C6, EN LA MUESTRA       :
ACEL. MAX. (Gal), C7-C12               :
ACEL. MAX., C7-C12, EN LA MUESTRA      :
UNIDADES DE LOS DATOS                  : Gal (cm/s/s)
FACTOR DE DECIMACION                   : 1
FORMATO DATOS (FORTRAN,10 campos/dato) : 3F10.5


================================================================================
CALIDAD DEL ACELEROGRAMA:
REGISTRO DIGITAL COMPLETO CON TIEMPO ABSOLUTO CORRECTO.


================================================================================
COMENTARIOS:














================================================================================
DATOS DE ACELERACION:
---------+---------+---------+---------+---------+---------+---------+---------+
   CANAL-1   CANAL-2   CANAL-3   CANAL-4   CANAL-5   CANAL-6   CANAL-7   CANAL-8
      N00E        +V      N90W
---------+---------+---------+---------+---------+---------+---------+---------+
[...]
  -0.56451  -0.01516  -0.31197
  -0.56451   0.22426  -0.31197
  -0.32510  -0.01516  -0.07255
  -0.32510   0.22426  -0.07255
  -0.32510   0.46368  -0.55139
  -0.56451   0.22426  -0.31197
  -0.56451   0.22426  -0.31197
  -0.32510   0.46368  -0.79081
  -0.56451   0.46368  -0.79081
  -0.56451   0.46368  -0.55139
  -0.08568   0.46368  -0.79081
  -0.32510   0.70310  -0.79081
  -0.32510   0.46368  -0.55139
  -0.08568   0.46368  -0.79081
  -0.32510   0.46368  -0.31197
  -0.08568   0.46368  -0.55139
  -0.08568   0.70310  -0.55139
  -0.08568   0.46368  -0.55139
  -0.32510   0.70310  -0.31197
  -0.08568   0.46368  -0.31197
   0.39316   0.46368  -0.31197
  -0.32510   0.70310  -0.07255
   0.15374   0.46368  -0.07255
   0.39316   0.46368  -0.07255
   0.15374   0.22426  -0.07255
   0.39316  -0.01516   0.16687
   0.63258  -0.01516   0.16687
   0.63258  -0.01516  -0.07255
   0.63258   0.22426   0.16687
   1.11142  -0.25458   0.16687
   1.11142  -0.01516   0.16687
   0.87200  -0.01516   0.40629
   0.87200  -0.25458   0.16687
   1.11142   0.22426  -0.31197
   1.11142  -0.25458  -0.31197
   1.11142  -0.25458  -0.31197
   1.35084  -0.01516  -0.55139
   1.35084  -0.49400  -0.79081
   1.11142  -0.25458  -0.55139
   1.59026  -0.49400  -1.26964
   1.82968  -0.49400  -1.26964
   1.35084  -0.73342  -1.03022
   1.59026  -0.73342  -1.74848
   1.59026  -0.49400  -1.74848
   1.35084  -0.49400  -1.74848
   1.59026  -0.49400  -1.98790
   1.59026  -0.49400  -1.98790
   1.35084  -0.73342  -1.50906
   1.35084  -0.49400  -1.74848
   1.59026  -0.73342  -1.74848
   1.35084  -0.49400  -1.50906
   1.35084  -0.49400  -1.50906
   1.82968  -0.25458  -1.50906
   1.35084  -0.25458  -1.50906
   1.82968  -0.25458  -1.50906
   1.82968  -0.49400  -1.03022
   2.06909  -0.01516  -1.03022
   2.06909  -0.01516  -1.03022
   2.06909  -0.01516  -0.79081
   2.54793  -0.01516  -0.79081
   2.54793   0.22426  -0.07255
   2.54793  -0.25458   0.16687
   2.54793   0.22426   0.16687
   2.54793   0.22426   0.40629
   2.78735  -0.01516   0.64571
   2.78735   0.46368   0.40629
   2.78735   0.22426   0.40629
   2.54793  -0.25458   0.64571
   2.30851   0.22426   0.40629
   2.54793   0.22426   0.40629
   2.30851   0.46368   0.64571
   2.30851   0.22426   0.40629
   2.30851  -0.01516   0.64571
   1.82968  -0.01516   0.64571
   1.82968  -0.01516   0.40629
   1.82968  -0.01516   0.40629
   1.35084  -0.01516   0.40629
   1.59026   0.22426   0.40629
   1.35084  -0.25458   0.16687
   1.35084  -0.25458  -0.07255
   0.87200  -0.25458   0.16687
   1.11142  -0.25458  -0.31197
   1.11142  -0.25458  -0.07255
   1.11142  -0.49400   0.16687
   1.11142  -0.49400  -0.07255
   0.87200  -0.25458  -0.07255
   0.87200  -0.25458  -0.31197
   0.87200  -0.49400  -0.31197
   1.11142  -0.49400  -0.07255
   0.87200  -0.49400  -0.07255
   0.63258  -0.49400  -0.07255
   0.87200  -0.25458  -0.07255
   0.63258  -0.25458  -0.07255
   0.87200  -0.49400   0.16687
   0.87200  -0.49400  -0.07255
   1.11142  -0.25458  -0.07255
   0.87200  -0.49400   0.16687
   0.87200  -0.25458   0.16687
   0.87200  -0.25458  -0.07255
   0.87200  -0.49400   0.16687
   0.87200  -0.25458   0.16687
   0.87200  -0.25458   0.16687
   0.63258  -0.01516   0.40629
   0.87200  -0.01516   0.16687
   1.11142  -0.01516   0.40629
   0.87200  -0.01516   0.40629
   1.11142  -0.01516   0.16687
   1.11142   0.46368   0.16687
   0.87200  -0.01516   0.16687
   1.11142   0.22426   0.16687
   1.11142   0.22426  -0.07255
   0.87200   0.22426  -0.07255
   0.63258   0.46368  -0.07255
   1.11142   0.22426  -0.07255
   0.63258   0.46368  -0.07255
   0.63258   0.46368  -0.07255
   0.87200   0.22426  -0.07255
   0.63258   0.22426   0.16687
   0.39316   0.46368  -0.07255
   0.15374   0.46368   0.16687
   0.63258   0.70310   0.16687
   0.39316   0.46368   0.16687
   0.15374   0.46368   0.40629
  -0.08568   0.70310   0.40629
   0.15374   0.94251   0.40629
   0.15374   0.22426   0.88513
   0.15374   0.70310   0.88513
  -0.08568   0.70310   1.12455
   0.15374   0.22426   1.12455
  -0.32510   0.46368   1.36397
  -0.08568   0.46368   0.88513
  -0.08568   0.46368   1.36397
  -0.32510   0.22426   1.60338
   0.15374  -0.01516   1.36397
  -0.56451  -0.01516   1.60338
  -0.56451   0.22426   1.36397
  -0.32510  -0.25458   1.60338
  -0.56451  -0.25458   1.60338
  -0.32510  -0.73342   1.60338
  -0.32510  -0.25458   1.36397
  -0.32510  -0.25458   1.36397
  -0.56451  -0.25458   1.60338
  -0.32510  -0.25458   1.36397
  -0.32510  -0.25458   1.36397
  -0.32510  -0.25458   1.12455
  -0.08568  -0.49400   1.12455
  -0.32510  -0.01516   1.12455
  -0.08568  -0.25458   0.88513
   0.15374  -0.49400   1.12455
   0.15374  -0.25458   0.88513
   0.63258  -0.25458   0.64571
   0.39316  -0.49400   0.88513
   0.63258  -0.49400   0.64571
   0.87200  -0.25458   0.16687
   0.87200  -0.49400   0.64571
   0.87200  -0.73342   0.40629
   0.87200  -0.25458   0.16687
   0.87200  -0.49400   0.16687
   0.63258  -0.49400   0.40629
   0.87200  -0.25458   0.16687
   0.87200  -0.49400   0.16687
   0.87200  -0.73342   0.16687
   0.87200  -0.25458  -0.07255
   0.87200  -0.25458  -0.07255
   1.11142  -0.25458  -0.07255
   1.11142  -0.25458  -0.55139
   0.87200  -0.01516  -0.31197
   0.87200  -0.01516  -1.03022
   0.87200  -0.01516  -0.79081
   0.63258   0.22426  -0.79081
   0.63258  -0.01516  -0.79081
   0.39316   0.22426  -0.79081
   0.15374  -0.01516  -1.03022
   0.15374   0.46368  -0.55139
  -0.08568  -0.01516  -0.55139
  -0.08568   0.46368  -0.55139
  -0.32510   0.70310  -0.55139
   0.15374   0.22426  -0.31197
  -0.32510   0.46368  -0.31197
  -0.32510   0.46368  -0.07255
  -0.32510  -0.01516   0.16687
  -0.32510   0.22426   0.64571
  -0.32510   0.22426   0.40629
  -0.56451   0.22426   0.64571
  -0.32510   0.22426   0.88513
  -0.08568   0.46368   0.64571
  -0.32510  -0.01516   1.12455
  -0.56451   0.22426   0.64571
  -0.32510   0.22426   0.64571
  -0.32510  -0.01516   0.88513
  -0.80393  -0.01516   0.88513
  -0.56451  -0.01516   0.64571
  -0.56451  -0.01516   0.40629
  -0.80393  -0.25458   0.64571
  -1.04335  -0.25458   0.40629
  -1.28277  -0.01516   0.40629
  -1.28277  -0.01516   0.40629
  -1.28277  -0.25458   0.16687
  -1.28277  -0.25458   0.16687
  -1.76161  -0.25458   0.16687
  -2.00103  -0.01516   0.16687
  -1.76161  -0.25458   0.16687
  -2.00103  -0.01516  -0.07255
  -2.00103  -0.01516  -0.07255
  -1.76161  -0.01516   0.16687
  -2.00103   0.22426   0.16687
  -1.76161  -0.25458   0.16687
  -1.52219  -0.01516   0.40629
  -1.76161   0.22426   0.16687
  -1.52219  -0.25458   0.40629
  -1.76161  -0.01516   0.40629
  -1.52219  -0.01516   0.40629
  -1.28277  -0.25458   0.40629
  -1.52219  -0.25458   0.40629
  -1.04335  -0.01516   0.40629
  -1.04335  -0.01516   0.64571
  -1.28277  -0.49400   0.88513
  -1.52219   0.22426   0.40629
  -1.28277   0.22426   0.88513
  -1.28277  -0.25458   0.64571
  -1.52219   0.22426   0.88513
  -1.52219  -0.01516   0.64571
  -1.52219  -0.01516   0.88513
  -1.52219   0.46368   0.64571
  -1.52219   0.22426   0.64571
  -1.52219   0.22426   0.88513
  -1.52219   0.22426   0.64571
  -1.76161   0.46368   0.64571
  -1.52219   0.46368   0.88513
  -1.52219   0.46368   0.40629
  -1.52219   0.46368   0.16687
  -1.76161   0.70310   0.16687
  -1.52219   0.70310   0.16687
  -1.52219   0.70310   0.16687
  -1.52219   0.70310  -0.31197
  -1.28277   0.70310  -0.31197
  -1.28277   0.22426  -0.55139
  -1.52219   0.70310  -0.31197
  -1.04335   0.22426  -0.55139
  -1.04335   0.46368  -0.55139
  -1.52219   0.70310  -0.31197
  -1.04335  -0.01516  -0.31197
  -1.04335  -0.01516  -0.07255
  -1.28277   0.22426  -0.07255
  -1.28277   0.22426  -0.31197
  -1.76161  -0.01516   0.16687
  -1.52219   0.22426  -0.31197
  -1.52219   0.22426  -0.31197
  -1.76161  -0.01516   0.16687
  -1.52219  -0.01516  -0.07255
  -1.76161   0.22426  -0.07255
  -1.76161  -0.25458  -0.07255
  -2.00103  -0.01516  -0.07255
  -2.00103  -0.01516  -0.07255
  -2.24045  -0.01516   0.16687
  -2.24045  -0.01516   0.16687
  -2.47987   0.22426   0.16687
  -2.47987   0.22426   0.40629
  -2.47987   0.22426   0.40629
  -2.47987   0.22426   0.64571
  -2.71928   0.46368   0.64571
  -2.47987   0.70310   0.64571
  -2.24045   0.46368   0.88513
  -2.24045   0.46368   1.12455
  -2.24045   0.70310   1.36397
  -2.24045   0.22426   1.36397
  -2.00103   0.70310   1.12455
  -2.00103   0.46368   1.60338
  -1.52219  -0.01516   1.60338
  -1.52219   0.22426   1.60338
  -1.52219   0.22426   1.60338
  -1.52219  -0.01516   1.84280
  -1.28277   0.22426   1.84280
  -1.28277  -0.01516   1.36397
  -0.80393  -0.01516   1.60338
  -0.56451  -0.25458   1.36397
  -0.56451  -0.25458   1.36397
  -0.56451  -0.49400   1.36397
  -0.32510  -0.49400   1.12455
  -0.08568  -0.25458   0.88513
  -0.08568  -0.73342   0.88513
  -0.08568  -0.73342   0.40629
  -0.32510  -0.49400   0.40629
  -0.08568  -0.97284   0.16687
  -0.08568  -0.49400   0.16687
  -0.08568  -0.73342  -0.31197
  -0.08568  -0.73342  -0.07255
   0.15374  -0.49400  -0.31197
  -0.08568  -0.49400  -0.55139
  -0.32510  -0.49400  -0.31197
   0.15374  -0.49400  -0.79081
   0.15374  -0.49400  -0.55139
  -0.32510  -0.49400  -0.79081
  -0.08568  -0.49400  -1.03022
  -0.08568  -0.49400  -0.79081
  -0.08568  -0.49400  -1.26964
  -0.08568  -0.25458  -1.03022
   0.15374  -0.49400  -1.26964
  -0.08568  -0.25458  -1.03022
  -0.08568  -0.01516  -1.03022
  -0.08568  -0.25458  -1.03022
  -0.32510  -0.01516  -1.03022
  -0.32510   0.22426  -1.03022
   0.15374   0.22426  -1.03022
  -0.08568   0.22426  -0.79081
   0.15374   0.46368  -1.03022
   0.15374   0.22426  -0.79081
   0.15374   0.70310  -0.79081
  -0.08568   0.94251  -0.79081
   0.15374   0.46368  -0.31197
   0.15374   0.70310  -0.79081
  -0.08568   0.94251  -0.31197
  -0.08568   0.70310  -0.55139
  -0.08568   0.94251  -0.07255
  -0.08568   0.70310  -0.31197
  -0.32510   0.94251  -0.31197
  -0.56451   0.94251  -0.31197
  -0.56451   0.70310  -0.55139
  -0.80393   0.94251  -0.55139
  -0.80393   0.94251  -0.55139
  -0.56451   0.46368  -1.03022
  -1.04335   0.46368  -0.79081
  -0.80393   0.46368  -1.50906
  -0.80393   0.46368  -1.26964
  -1.04335   0.22426  -1.26964
  -1.04335   0.46368  -1.50906
  -1.04335  -0.01516  -1.50906
  -1.04335   0.22426  -1.50906
  -1.28277   0.22426  -1.26964
  -0.80393  -0.01516  -1.50906
  -0.80393  -0.01516  -1.26964
  -0.80393  -0.25458  -1.26964
  -0.08568  -0.49400  -1.50906
  -0.32510  -0.25458  -1.26964
  -0.08568  -0.25458  -1.50906
   0.15374  -0.49400  -1.26964
   0.63258  -0.49400  -1.03022
   0.63258  -0.25458  -1.03022
   0.87200  -0.49400  -0.79081
   1.35084  -0.49400  -1.03022
   1.59026  -0.25458  -1.03022
   1.59026  -0.49400  -0.79081
   1.82968  -0.49400  -0.55139
   2.06909  -0.25458  -0.79081
   2.54793  -0.25458  -0.79081
   2.54793  -0.49400  -0.55139
   2.54793  -0.25458  -0.79081
   2.78735  -0.49400  -1.03022
   2.78735  -0.49400  -0.79081
   3.26619  -0.49400  -1.03022
   3.02677  -0.49400  -1.03022
   3.02677  -0.25458  -1.03022
   3.26619  -0.25458  -1.26964
   2.78735  -0.25458  -0.79081
   2.78735  -0.25458  -1.03022
   2.78735  -0.49400  -0.79081
   2.54793  -0.25458  -0.79081
   2.30851  -0.25458  -0.79081
   2.30851  -0.25458  -0.79081
   2.06909  -0.25458  -0.31197
   2.06909  -0.25458  -0.31197
   1.82968  -0.49400  -0.07255
   1.59026  -0.25458  -0.07255
   2.06909  -0.25458  -0.31197
   1.35084  -0.25458  -0.07255
   1.35084  -0.25458  -0.07255
   1.59026  -0.25458  -0.31197
   1.11142  -0.01516  -0.07255
   1.11142  -0.01516  -0.31197
   1.35084   0.22426  -0.55139
   1.35084  -0.01516  -0.31197
   1.11142   0.22426  -0.55139
   1.35084  -0.25458  -0.55139
   1.35084   0.22426  -0.79081
   1.11142   0.22426  -0.55139
   1.59026   0.22426  -1.03022
   1.59026   0.22426  -0.79081
   1.35084   0.22426  -1.03022
   1.35084   0.46368  -1.03022
   1.35084   0.46368  -0.79081
   1.35084   0.70310  -1.26964
   1.59026   0.46368  -1.03022
   1.59026   0.70310  -1.26964
   1.59026   0.70310  -1.26964
   1.11142   0.46368  -1.26964
   1.35084   0.46368  -1.26964
   1.35084   0.70310  -1.26964
   1.35084   0.46368  -1.03022
   1.35084   0.46368  -1.03022
   1.35084   0.22426  -0.79081
   1.35084  -0.01516  -0.79081
   1.35084   0.46368  -0.55139
   1.59026   0.22426  -0.79081
   1.35084   0.22426  -0.31197
   1.35084   0.22426  -0.31197
   1.82968   0.22426  -0.79081
   1.59026  -0.01516  -0.07255
   1.59026  -0.25458  -0.07255
   1.82968  -0.25458  -0.07255
   1.82968  -0.25458   0.40629
   1.82968  -0.49400   0.40629
   1.82968  -0.49400   0.40629
   1.82968  -0.49400   0.64571
   1.59026  -0.25458   0.64571
   2.06909  -0.49400   0.88513
   2.06909  -0.49400   0.88513
   1.59026  -0.49400   0.88513
   1.82968  -0.97284   1.12455
   1.82968  -0.49400   0.88513
   1.82968  -0.49400   0.64571
   1.82968  -0.73342   0.64571
   1.59026  -0.49400   0.64571
   1.59026  -0.49400   0.64571
   1.35084  -0.97284   0.64571
   1.11142  -0.49400   0.40629
   1.11142  -0.49400  -0.07255
   0.87200  -0.49400   0.40629
   0.87200  -0.49400  -0.07255
   0.87200  -0.25458  -0.07255
   0.63258  -0.25458  -0.31197
   0.39316  -0.01516  -0.31197
   0.63258  -0.01516  -0.55139
   0.39316  -0.01516  -0.79081
   0.15374  -0.01516  -0.79081
   0.39316   0.22426  -1.26964
   0.15374   0.22426  -1.26964
   0.15374  -0.01516  -1.03022
   0.39316   0.22426  -1.50906
   0.15374   0.22426  -1.03022
   0.15374   0.46368  -1.26964
   0.39316   0.46368  -1.50906
  -0.08568   0.46368  -1.03022
   0.15374   0.46368  -1.03022
  -0.08568   0.46368  -0.55139
   0.39316   0.22426  -0.55139
   0.39316   0.70310  -0.31197
   0.15374   0.46368  -0.31197
   0.39316   0.46368  -0.07255
   0.15374   0.70310   0.16687
   0.63258   0.22426   0.40629
   0.63258   0.22426   0.40629
   0.63258   0.46368   0.40629
   0.63258  -0.01516   0.64571
   0.39316   0.46368   0.88513
   0.39316   0.46368   0.88513
   0.39316   0.22426   1.12455
   0.15374   0.22426   1.12455
   0.15374   0.46368   0.88513
   0.15374   0.22426   1.36397
   0.15374  -0.01516   1.36397
   0.15374   0.22426   1.12455
   0.15374  -0.01516   1.36397
  -0.08568  -0.01516   1.36397
   0.15374   0.22426   1.12455
   0.39316  -0.25458   1.12455
  -0.08568   0.46368   1.36397
   0.39316  -0.01516   1.12455
   0.39316  -0.01516   1.12455
  -0.08568   0.22426   1.12455
   0.15374  -0.01516   1.12455
   0.15374   0.22426   1.12455
  -0.08568   0.22426   0.88513
  -0.08568  -0.25458   1.12455
  -0.08568  -0.01516   1.12455
  -0.08568  -0.01516   0.88513
  -0.08568  -0.25458   1.12455
   0.15374  -0.49400   0.88513
   0.15374  -0.25458   0.88513
   0.15374  -0.49400   0.88513
   0.15374  -0.49400   0.88513
   0.39316  -0.49400   0.88513
  -0.08568  -0.97284   1.12455
   0.15374  -0.73342   1.12455
   0.39316  -0.73342   0.64571
   0.39316  -1.21226   1.12455
   0.15374  -1.21226   1.36397
   0.63258  -1.45167   1.12455
   0.39316  -0.97284   1.36397
   0.63258  -1.45167   1.36397
   0.63258  -1.21226   0.88513
   0.15374  -1.21226   1.12455
   0.87200  -1.45167   0.64571
   0.87200  -1.21226   0.64571
   0.63258  -0.97284   0.64571
   0.63258  -0.97284   0.64571
   0.63258  -0.73342   0.40629
   0.63258  -0.73342   0.40629
   0.15374  -0.73342   0.40629
   0.39316  -0.49400  -0.07255
   0.39316  -0.49400  -0.31197
   0.39316  -0.25458  -0.31197
   0.39316  -0.25458  -0.79081
   0.15374  -0.49400  -0.55139
  -0.08568  -0.01516  -0.79081
  -0.08568  -0.25458  -1.03022
  -0.08568  -0.01516  -0.79081
  -0.08568   0.22426  -1.03022
  -0.32510   0.22426  -1.03022
  -0.32510  -0.01516  -1.03022
