********************************************************************************
               CENTRO DE INSTRUMENTACION Y REGISTRO SISMICO  A.C.  
                       Coordinacion de Servicios Tecnicos
     Anaxagoras 814, Col. Narvarte, Benito Juarez, C.P. 03020 Mexico, D.F.
            Tels. 687 45 42/ 687 45  82             Fax. 669 25 12
********************************************************************************
ARCHIVO ESTANDAR DE ACELERACION:
VERSION DEL FORMATO                    : 2.0
NOMBRE DEL ARCHIVO                     : AP680110.081
FECHA Y HORA DE CREACION               : 06/JUL/04, 11:20
REF. CATALOGO ACELEROGRAMAS, SMIS 1996 : REGISTRO No.     /PAG.


================================================================================
DATOS DE LA ESTACION:
NOMBRE DE LA ESTACION                  : APATLACO
CLAVE DE LA ESTACION                   : AP68
LOCALIZACION DE LA ESTACION            : Jardin de Ni¤os Juan Bautista de la
                                       : Salle Canal de Apatlaco y Ahuehuetes,
                                       : Col Iztacalco Infonavit, Iztacalc
                                       : 
                                       :
COORDENADAS DE LA ESTACION             : 19.381 LAT. N 
                                       : 99.107 LONG. W 
ALTITUD (msnm)                         : 2232
TIPO DE SUELO                          : ARCILLOSO, ZONA LAGO
                                       : 
                                       : 
INSTITUCION RESPONSABLE                : CIRES
                                       :

================================================================================
DATOS DEL ACELEROGRAFO:
MODELO DEL ACELEROGRAFO                : RAD-851
NUMERO DE SERIE DEL ACELEROGRAFO       : 255
NUMERO DE CANALES                      : 3
ORIENTACION C1-C6 (rumbo;orientacion)  : /N00E/+V/N90W
ORIENTACION C7-C12 (rumbo;orientacion) :
VEL. DE MUESTREO, C1-C6 (muestras/s)   : /100/100/100
VEL. DE MUESTREO, C7-C12 (muestras/s)  :
ESC. COMPLETA DE SENSORES, C1-C6, (g)  : /0.5/0.5/0.5
ESC. COMPLETA DE SENSORES, C7-C12, (g) :
FREC. NAT. DE SENSORES, C1-C6, (Hz)    : /30/30/30
FREC. NAT. DE SENSORES, C7-C12, (Hz)   :
AMORTIGUAMIENTO DE SENSORES, C1-C6     : /0.780/0.700/0.678
AMORTIGUAMIENTO DE SENSORES, C7-C12    :
INTERVALO DE MUESTREO, C1-C6, (s)      : /0.01/0.01/0.01
INTERVALO DE MUESTREO, C7-C12, (s)     :
UMBRAL DE DISPARO, C1-C6, (Gal)        : /2.69/5.62/3.17
UMBRAL DE DISPARO, C7-C12, (Gal)       :
MEMORIA DE PREEVENTO (s)               : 24
TIEMPO DE POSEVENTO (s)                : 64


================================================================================
DATOS DEL SISMO:
FECHA DEL SISMO (GMT)                  : 08/OCT/01
HORA EPICENTRO (GMT)                   : 03:39:19:3
MAGNITUD(ES)                           : /Mb=5.6/Ms=5.4/Mc=5.5/Ma=7.6/Me=6.1
COORDENADAS DEL EPICENTRO              : 16.94 LAT. N
                                       : 100.14 LONG. W
PROFUNDIDAD FOCAL (km)                 : 4.0
FUENTE DE LOS DATOS EPICENTRALES       : SSN
                                       : INSTITUTO DE GEOFISICA, UNAM

================================================================================
DATOS DE ESTE REGISTRO:
HORA DE LA PRIMERA MUESTRA (GMT)       : 03:40:42.00
EXACTITUD DEL TIEMPO (s)               : 0.01
DURACION DEL REGISTRO (s), C1-C6       : /110.75/110.75/110.75
DURACION DEL REGISTRO (s), C7-C12      :
NUM. TOTAL DE MUESTRAS, C1-C6          : /11075/11075/11075
NUM. TOTAL DE MUESTRAS, C7-C12         :
ACEL. MAX. (Gal), C1-C6                : /-6.32952/3.19913/-7.20637
ACEL. MAX., C1-C6, EN LA MUESTRA       :
ACEL. MAX. (Gal), C7-C12               :
ACEL. MAX., C7-C12, EN LA MUESTRA      :
UNIDADES DE LOS DATOS                  : Gal (cm/s/s)
FACTOR DE DECIMACION                   : 1
FORMATO DATOS (FORTRAN,10 campos/dato) : 3F10.5


================================================================================
CALIDAD DEL ACELEROGRAMA:
REGISTRO DIGITAL COMPLETO CON TIEMPO ABSOLUTO CORRECTO.


================================================================================
COMENTARIOS:














================================================================================
DATOS DE ACELERACION:
---------+---------+---------+---------+---------+---------+---------+---------+
   CANAL-1   CANAL-2   CANAL-3   CANAL-4   CANAL-5   CANAL-6   CANAL-7   CANAL-8
      N00E        +V      N90W
---------+---------+---------+---------+---------+---------+---------+---------+
[...]
   1.09246  -0.63157  -2.41799
   1.09246  -0.87099  -2.65741
   1.09246  -1.34983  -3.13625
   0.85304  -1.11041  -3.37567
   1.09246  -1.34983  -3.85450
   0.85304  -1.82866  -4.09392
   0.61363  -1.58924  -4.09392
   0.37421  -1.82866  -3.85450
   0.13479  -1.82866  -4.09392
  -0.34405  -1.58924  -4.09392
  -0.34405  -1.58924  -3.85450
  -0.82289  -1.82866  -3.37567
  -0.58347  -1.82866  -3.13625
  -0.82289  -1.82866  -3.13625
  -0.10463  -1.58924  -2.65741
  -0.34405  -1.58924  -1.93915
   0.13479  -1.58924  -1.93915
   0.13479  -0.87099  -1.46032
   0.37421  -0.39215  -0.98148
   0.85304  -0.39215  -0.98148
   1.33188  -0.39215  -0.50264
   1.33188   0.08669  -0.26322
   0.85304   0.56553   0.21562
   1.57130   0.32611   0.45504
   1.33188   0.56553   0.93387
   1.09246   0.56553   1.41271
   0.61363   0.80494   2.13097
   0.85304   1.04436   1.89155
   0.37421   1.28378   1.89155
   0.61363   1.28378   2.13097
  -0.34405   1.52320   2.37039
  -1.06231   1.52320   2.37039
  -1.30173   1.28378   1.89155
  -1.30173   1.28378   2.13097
  -1.54114   0.80494   1.89155
  -2.25940   1.04436   1.65213
  -2.73824   1.28378   1.65213
  -2.49882   1.28378   0.93387
  -2.01998   0.56553   0.45504
  -2.01998   0.56553   0.45504
  -2.25940   0.56553   0.45504
  -1.78056  -0.15273   0.21562
  -1.78056   0.08669  -0.50264
  -1.54114  -0.15273  -0.50264
  -1.78056  -0.15273  -0.26322
  -1.54114  -0.39215  -0.74206
  -1.30173  -0.87099  -1.22090
  -1.06231  -0.63157  -0.74206
  -0.58347  -0.87099  -1.22090
  -0.58347  -1.11041  -1.69973
  -0.34405  -0.87099  -1.69973
  -0.34405  -0.39215  -1.93915
   0.13479  -0.87099  -2.41799
   0.61363  -1.11041  -2.41799
   0.61363  -0.87099  -2.41799
   0.61363  -0.63157  -2.65741
   0.85304  -0.87099  -2.89683
   1.33188  -0.63157  -3.37567
   0.85304  -0.39215  -2.89683
   1.09246  -0.39215  -2.89683
   1.09246  -0.39215  -3.13625
   1.81072  -0.39215  -3.13625
   1.57130  -0.63157  -2.65741
   1.57130  -0.87099  -2.17857
   1.81072  -0.63157  -1.93915
   1.57130  -0.63157  -1.69973
   1.57130  -0.39215  -0.98148
   1.57130  -0.63157  -0.50264
   1.57130  -0.63157   0.21562
   1.33188  -0.39215   0.93387
   1.33188  -0.63157   1.17329
   1.33188  -0.87099   1.41271
   1.09246  -0.87099   2.13097
   0.61363  -0.15273   2.84923
   0.85304   0.08669   2.84923
   0.61363   0.08669   2.84923
   0.37421   0.32611   3.32806
   0.13479   0.32611   4.04632
  -0.10463   0.08669   3.80690
  -0.34405   0.56553   3.80690
  -0.34405   0.80494   4.28574
  -0.58347   0.32611   4.76458
  -0.58347   0.08669   4.52516
  -1.30173   0.56553   4.28574
  -1.54114   0.80494   4.28574
  -1.30173   0.56553   4.28574
  -1.78056   0.32611   4.04632
  -2.01998   0.56553   4.28574
  -2.01998   1.04436   4.04632
  -1.06231   0.80494   3.56748
  -1.78056   1.28378   3.80690
  -2.01998   0.80494   4.04632
  -2.25940   1.04436   3.80690
  -2.25940   1.04436   3.32806
  -2.73824   1.04436   3.08864
  -2.97766   0.80494   2.84923
  -2.73824   0.32611   2.60981
  -2.49882   0.80494   2.60981
  -2.49882   1.04436   2.37039
  -2.25940   0.80494   2.37039
  -2.01998   0.56553   2.13097
  -1.78056   0.56553   2.84923
  -1.54114   1.04436   2.84923
  -0.58347   0.56553   2.37039
   0.13479   0.32611   2.13097
   0.85304   0.32611   2.13097
   1.09246   0.08669   1.89155
   1.81072   0.08669   0.93387
   2.76840  -0.15273   0.45504
   2.76840  -0.15273   0.45504
   3.48665  -0.63157  -0.02380
   3.72607  -0.63157  -0.02380
   4.20491  -0.63157  -0.74206
   4.20491  -0.63157  -0.50264
   4.68375  -0.63157  -0.98148
   4.68375  -0.63157  -1.46032
   4.20491  -0.63157  -1.69973
   4.20491  -0.39215  -1.93915
   4.44433  -1.11041  -1.93915
   4.44433  -1.11041  -2.65741
   3.96549  -0.87099  -2.65741
   3.96549  -1.11041  -2.89683
   3.72607  -0.87099  -2.89683
   3.48665  -0.87099  -2.65741
   3.00782  -0.87099  -2.17857
   2.28956  -1.11041  -2.17857
   2.28956  -0.87099  -1.93915
   1.57130  -0.63157  -1.69973
   1.33188  -0.87099  -1.22090
   0.85304  -0.87099  -0.74206
   0.61363  -0.63157  -0.26322
   0.13479  -0.39215  -0.02380
   0.13479  -0.87099   0.45504
  -0.34405  -0.87099   0.69446
  -1.06231  -0.39215   1.41271
  -1.78056  -0.15273   1.41271
  -1.78056  -0.15273   1.17329
  -2.01998   0.56553   1.41271
  -2.49882   0.56553   1.89155
  -2.97766   0.32611   1.89155
  -2.97766   0.32611   1.41271
  -3.21708   0.56553   1.89155
  -3.21708   0.32611   1.65213
  -3.69592   0.08669   1.65213
  -3.21708   0.08669   1.41271
  -3.69592   0.56553   1.41271
  -3.69592   0.08669   1.17329
  -3.69592  -0.39215   1.17329
  -3.69592  -0.15273   0.93387
  -3.69592   0.08669   0.45504
  -3.69592   0.08669  -0.26322
  -3.45650  -0.15273  -0.74206
  -3.69592   0.08669  -0.74206
  -3.93533   0.32611  -1.46032
  -4.17475   0.08669  -1.69973
  -3.93533  -0.15273  -2.41799
  -4.17475   0.08669  -2.65741
  -4.65359  -0.15273  -2.65741
  -4.89301  -0.39215  -3.37567
  -5.13243   0.08669  -3.61509
  -4.89301  -0.39215  -3.85450
  -5.37185  -0.87099  -4.09392
  -5.13243  -0.87099  -4.09392
  -5.37185  -0.63157  -3.85450
  -4.65359  -0.87099  -3.85450
  -4.17475  -1.11041  -4.57276
  -3.93533  -1.11041  -4.09392
  -3.93533  -0.63157  -3.85450
  -3.21708  -0.63157  -4.09392
  -2.49882  -0.63157  -4.09392
  -2.25940  -0.63157  -4.09392
  -2.25940  -0.63157  -3.85450
  -2.49882  -0.15273  -3.13625
  -1.78056  -0.15273  -3.13625
  -1.06231  -0.15273  -3.13625
  -1.30173   0.08669  -2.17857
  -1.06231  -0.15273  -1.93915
  -1.54114   0.56553  -1.69973
  -0.82289   0.56553  -1.22090
  -1.06231   0.56553  -0.50264
  -0.82289   0.08669  -0.26322
  -1.06231   0.56553  -0.02380
  -1.06231   0.80494   0.21562
  -1.06231   0.32611   0.21562
  -1.06231   0.32611   0.45504
  -1.06231   0.56553   1.17329
  -1.30173   0.80494   1.65213
  -1.06231   0.32611   1.41271
  -0.82289   0.32611   1.65213
  -0.34405   0.56553   2.37039
  -0.10463   0.32611   2.37039
   0.13479  -0.15273   2.37039
   0.37421   0.32611   2.37039
   0.61363   0.08669   2.60981
   1.33188  -0.15273   2.84923
   1.33188  -0.15273   2.84923
   1.81072  -0.15273   2.84923
   2.52898  -0.15273   3.08864
   2.52898  -0.15273   3.32806
   2.52898  -0.15273   3.56748
   2.52898   0.56553   4.04632
   3.00782   0.56553   3.32806
   3.24723   0.80494   3.08864
   3.48665   0.56553   2.60981
   3.00782   0.56553   2.60981
   2.52898   1.04436   2.60981
   2.52898   1.28378   1.65213
   2.05014   1.52320   1.65213
   2.05014   1.04436   1.41271
   1.81072   1.28378   1.17329
   1.57130   1.28378   0.69446
   1.57130   1.28378   0.21562
   1.09246   0.56553  -0.02380
   1.33188   0.80494  -0.26322
   0.85304   1.04436  -0.26322
   0.85304   1.04436  -0.50264
   0.61363   0.56553  -0.74206
   0.61363   0.08669  -0.98148
   0.13479   0.32611  -0.74206
  -0.10463  -0.15273  -0.74206
  -0.34405  -0.39215  -0.50264
  -0.34405  -0.87099  -0.74206
  -0.58347  -1.11041  -0.26322
  -1.06231  -1.11041  -0.02380
  -1.54114  -0.87099  -0.26322
  -1.78056  -1.11041  -0.02380
  -1.54114  -1.11041   0.21562
  -2.25940  -1.34983   0.69446
  -2.25940  -0.87099   0.69446
  -2.25940  -0.87099   0.45504
  -2.01998  -0.87099   0.69446
  -1.78056  -1.34983   0.45504
  -2.01998  -0.87099   0.21562
  -1.30173  -0.87099  -0.02380
  -1.30173  -0.87099  -0.26322
  -0.58347  -0.87099  -0.98148
  -0.82289  -0.63157  -0.74206
  -1.06231  -0.63157  -0.74206
  -0.58347  -0.63157  -1.46032
  -0.10463   0.08669  -1.46032
  -0.34405  -0.15273  -1.69973
  -0.58347  -0.39215  -1.22090
  -0.10463  -0.15273  -1.22090
  -0.58347   0.32611  -1.69973
  -0.58347   0.80494  -1.46032
  -0.34405   0.80494  -1.46032
  -0.82289   0.80494  -1.46032
  -0.58347   1.28378  -0.98148
  -0.58347   1.52320  -0.98148
  -0.34405   1.28378  -0.98148
  -0.34405   1.76262  -0.50264
  -0.10463   1.52320  -0.26322
  -0.10463   1.28378  -0.50264
   0.13479   1.52320  -0.50264
   0.85304   1.04436  -0.50264
   0.37421   0.80494   0.21562
   0.61363   0.80494   0.69446
   0.37421   0.80494   0.21562
   0.61363   0.56553   0.45504
   0.85304   0.32611   0.69446
   0.61363   0.32611   0.93387
   0.85304   0.56553   0.93387
   0.61363   0.56553   1.17329
   1.33188   0.32611   1.65213
   1.33188   0.08669   1.65213
   1.33188  -0.15273   1.65213
   1.57130   0.08669   1.41271
   1.57130  -0.15273   1.41271
   1.57130  -0.39215   1.17329
   1.33188  -0.39215   1.89155
   1.09246  -0.87099   1.89155
   0.85304  -0.87099   2.13097
   0.61363  -0.63157   2.37039
   0.85304  -1.11041   2.84923
   1.09246  -1.34983   3.08864
   0.61363  -1.11041   2.84923
   0.37421  -1.11041   2.84923
   0.37421  -1.11041   3.08864
   0.37421  -1.34983   3.08864
  -0.34405  -1.34983   3.08864
  -0.58347  -0.87099   3.32806
  -0.58347  -1.11041   2.84923
  -0.58347  -1.34983   2.60981
  -0.58347  -1.11041   2.84923
  -0.58347  -1.34983   2.84923
  -0.82289  -0.87099   2.60981
  -0.10463  -0.87099   1.65213
   0.37421  -1.11041   1.17329
   0.37421  -1.34983   1.17329
   0.85304  -1.34983   0.69446
   1.33188  -0.87099  -0.02380
   1.33188  -1.11041  -0.26322
   1.57130  -1.34983  -0.26322
   2.28956  -0.87099  -0.50264
   2.28956  -0.63157  -0.74206
   2.76840  -0.15273  -0.98148
   3.24723  -0.15273  -1.46032
   3.72607   0.08669  -1.69973
   4.20491   0.56553  -1.46032
   4.44433   0.56553  -1.46032
   4.68375   0.80494  -1.69973
   4.44433   1.04436  -1.22090
   4.44433   0.80494  -1.22090
   3.96549   1.52320  -0.50264
   3.96549   1.52320  -0.98148
   3.72607   1.76262  -0.74206
   3.48665   1.76262  -0.02380
   3.24723   1.76262  -0.02380
   2.76840   1.76262   0.21562
   2.76840   2.00204   0.45504
   2.76840   2.00204   0.93387
   2.76840   1.76262   0.69446
   2.52898   1.52320   1.17329
   2.28956   1.76262   1.65213
   1.81072   1.52320   1.89155
   2.05014   0.80494   1.89155
   1.57130   0.56553   2.13097
   1.33188   0.32611   2.37039
   1.57130   0.08669   2.13097
   1.57130  -0.15273   1.89155
   1.57130  -0.63157   1.89155
   1.33188  -0.63157   1.89155
   1.33188  -1.11041   1.41271
   1.33188  -1.11041   1.17329
   1.33188  -1.34983   0.93387
   1.09246  -1.82866   0.93387
   1.09246  -1.82866   0.45504
   1.09246  -1.82866   0.45504
   0.85304  -1.82866   0.45504
   1.57130  -2.06808  -0.26322
   1.33188  -2.06808  -0.50264
   0.85304  -1.82866  -0.74206
   0.85304  -1.58924  -1.46032
   1.33188  -1.34983  -2.17857
   0.85304  -1.58924  -2.17857
   1.09246  -1.34983  -2.17857
   0.85304  -0.87099  -2.89683
   0.85304  -0.63157  -3.61509
   0.61363  -0.39215  -3.61509
   1.09246  -0.39215  -4.09392
   0.85304  -0.39215  -4.33334
   0.85304   0.08669  -4.81218
   0.61363   0.56553  -5.05160
   1.09246   0.56553  -5.53044
   1.33188   0.80494  -6.00928
   0.85304   0.56553  -6.24869
   0.61363   1.04436  -6.24869
   0.61363   0.80494  -6.72753
   1.09246   0.80494  -7.20637
   0.85304   0.80494  -6.72753
   0.37421   1.04436  -6.96695
   0.61363   1.04436  -6.72753
   0.13479   1.28378  -6.72753
  -0.10463   1.28378  -6.24869
  -0.34405   1.04436  -6.00928
  -0.10463   1.28378  -5.76986
  -0.82289   1.52320  -5.29102
  -0.34405   1.28378  -5.05160
  -0.34405   0.80494  -4.57276
  -0.58347   0.80494  -3.85450
  -0.82289   1.28378  -3.37567
  -0.34405   1.28378  -2.89683
  -0.34405   0.80494  -2.41799
  -0.58347   0.56553  -1.69973
  -0.82289   0.80494  -0.98148
  -0.58347   0.56553  -0.74206
  -0.34405   0.32611  -0.98148
  -0.58347   0.80494   0.45504
  -0.58347   0.80494   0.93387
  -0.58347   1.04436   0.93387
  -0.34405   1.04436   1.41271
  -0.10463   0.80494   1.65213
  -0.10463   0.56553   2.13097
   0.37421   0.32611   2.37039
  -0.10463   0.56553   2.13097
  -0.10463   0.80494   2.13097
  -0.34405   0.32611   2.37039
  -0.10463  -0.15273   2.13097
  -0.34405  -0.15273   2.37039
  -0.34405  -0.15273   2.37039
   0.37421  -0.63157   1.65213
   0.37421  -0.87099   1.41271
   0.13479  -0.87099   1.65213
  -0.34405  -0.87099   1.89155
   0.13479  -1.11041   1.41271
   0.37421  -1.58924   1.65213
   0.37421  -1.82866   1.89155
   0.61363  -2.30750   1.41271
   0.85304  -2.30750   1.41271
   0.61363  -1.82866   1.89155
   0.85304  -2.06808   1.89155
   0.85304  -2.54692   2.13097
   0.61363  -2.30750   2.37039
   0.61363  -2.06808   2.84923
   0.85304  -2.30750   2.60981
   1.09246  -2.54692   2.60981
   0.85304  -2.30750   3.32806
   0.85304  -1.82866   3.80690
   0.85304  -1.82866   3.32806
   1.09246  -1.58924   3.56748
   1.33188  -1.34983   3.80690
   1.33188  -1.34983   4.28574
   1.57130  -1.11041   4.04632
   1.57130  -0.87099   3.80690
   1.57130  -0.63157   4.04632
   1.81072  -0.63157   3.56748
   1.57130  -0.39215   3.56748
   1.33188  -0.39215   3.32806
   1.09246  -0.15273   3.08864
   1.33188  -0.39215   2.37039
   1.09246   0.08669   2.37039
   0.61363   0.56553   2.13097
   0.37421   0.80494   1.41271
   0.85304   0.80494   0.93387
   0.61363   0.32611   0.45504
   0.13479   0.80494   0.21562
  -0.10463   0.32611  -0.50264
  -0.58347   0.56553  -1.22090
  -0.82289   0.56553  -1.46032
  -1.30173   0.80494  -1.69973
  -1.54114   0.32611  -2.41799
  -1.78056   0.56553  -2.17857
  -2.25940   0.56553  -2.17857
  -2.49882   0.08669  -2.41799
  -2.73824  -0.15273  -2.41799
  -3.69592   0.56553  -2.17857
  -4.65359   1.04436  -1.69973
  -4.41417   0.56553  -1.93915
  -4.41417   0.32611  -1.93915
  -4.89301   0.56553  -1.46032
  -5.37185   0.56553  -1.46032
  -5.13243   0.32611  -1.46032
  -5.37185   0.56553  -1.22090
  -5.85069   0.56553  -0.74206
  -6.32952   0.56553  -0.50264
  -5.85069   0.56553  -0.50264
  -5.61127   0.56553  -0.50264
  -5.61127   0.56553  -0.26322
  -5.61127   0.32611  -0.02380
  -5.61127   0.08669  -0.02380
  -5.85069   1.04436  -0.02380
  -5.13243   0.56553  -0.26322
  -4.41417   0.56553  -0.26322
  -4.41417   0.56553  -0.26322
  -4.65359   0.80494  -0.02380
  -4.17475   1.04436  -0.26322
  -3.69592   1.52320  -0.50264
  -3.69592   1.52320  -0.26322
  -3.93533   1.52320  -0.26322
  -3.45650   1.76262  -0.50264
  -2.97766   1.52320  -0.50264
  -2.73824   2.00204  -0.74206
  -2.97766   1.76262  -0.74206
  -2.97766   1.76262  -0.98148
  -3.21708   2.00204  -1.22090
  -2.97766   2.24146  -0.98148
  -2.97766   2.00204  -0.74206
  -3.21708   1.52320  -0.98148
  -3.69592   1.52320  -0.98148
  -3.45650   1.52320  -0.98148
  -3.21708   1.04436  -1.69973
  -2.97766   0.80494  -1.46032
  -3.45650   0.80494  -1.46032
  -3.45650   0.80494  -1.22090
  -2.97766   0.32611  -1.46032
  -3.21708   0.08669  -1.69973
  -3.21708  -0.39215  -1.22090
  -3.21708  -1.11041  -1.22090
  -3.21708  -0.87099  -1.22090
  -3.21708  -0.63157  -1.22090
  -3.21708  -1.11041  -1.22090
  -2.73824  -1.58924  -0.98148
  -2.97766  -1.58924  -0.50264
  -3.21708  -1.82866  -0.50264
  -2.97766  -1.58924  -0.50264
  -2.49882  -1.82866  -0.26322
  -2.25940  -1.82866   0.21562
  -2.01998  -1.82866   0.45504
  -1.54114  -1.82866   0.45504
  -0.58347  -1.58924   0.69446
  -0.58347  -1.82866   0.93387
  -0.82289  -1.58924   1.41271
  -0.34405  -1.58924   1.41271
  -0.34405  -0.87099   1.41271
   0.13479  -0.87099   1.89155
   0.61363  -0.87099   1.89155
   0.61363  -0.87099   2.13097
   0.85304  -0.63157   2.13097
   0.85304  -0.63157   2.13097
   0.85304  -0.87099   2.37039
   0.61363  -0.87099   2.13097
   0.85304  -0.63157   2.37039
   1.09246  -0.63157   1.89155
   1.57130  -0.63157   2.13097
   1.33188  -0.63157   1.65213
   1.09246  -0.63157   2.13097
   1.33188  -0.39215   1.89155
   1.57130  -0.15273   1.17329
