********************************************************************************
              CENTRO DE INSTRUMENTACION Y REGISTRO SISMICO  A.C.

    Anaxagoras 814, Col. Narvarte, Benito Juarez, C.P. 03020 Mexico, D.F.
           Tels. 5687 45 42/ 5687 45  82             Fax. 5669 25 12
********************************************************************************
ARCHIVO ESTANDAR DE ACELERACION:
VERSION DEL FORMATO                    : 2.0
NOMBRE DEL ARCHIVO                     : AP6820170919181440
FECHA Y HORA DE CREACION               : 27/SEP/17, 17:26
REF. CATALOGO ACELEROGRAMAS, SMIS 1996 : REGISTRO No.     /PAG.


================================================================================
DATOS DE LA ESTACION:
NOMBRE DE LA ESTACION                  : JARDÍN DE NIÑOS "JUAN B. DE LA SALLE"
CLAVE DE LA ESTACION                   : AP68
LOCALIZACION DE LA ESTACION            : Del. Iztapalapa, Col. Santa María      
                                       : Purísima Atlazolpa,  entre Canal de    
                                       : Apatlaco y Ahuehuetes.                 
                                       :                                        
                                       : 
COORDENADAS DE LA ESTACION             : 19.3809 LAT. N
                                       : 99.1068 LONG. W
ALTITUD (msnm)                         : 2232
TIPO DE SUELO                          : Arcilloso, zona lago                
                                       :                           
                                       : 
INSTITUCION RESPONSABLE                : CIRES
                                       : 

================================================================================
DATOS DEL ACELEROGRAFO:
MODELO DEL ACELEROGRAFO                : RADESD
NUMERO DE SERIE DEL ACELEROGRAFO       : 255
NUMERO DE CANALES                      : 3
ORIENTACION C1-C6 (rumbo;orientacion)  : /N00E/+V/N90W
ORIENTACION C7-C12 (rumbo;orientacion) : 
VEL. DE MUESTREO, C1-C6 (muestras/s)   : /100/100/100
VEL. DE MUESTREO, C7-C12 (muestras/s)  : 
ESC. COMPLETA DE SENSORES, C1-C6, (g)  : /0.5/0.5/0.5
ESC. COMPLETA DE SENSORES, C7-C12, (g) : 
FREC. NAT. DE SENSORES, C1-C6, (Hz)    : /30/30/30
FREC. NAT. DE SENSORES, C7-C12, (Hz)   : 
AMORTIGUAMIENTO DE SENSORES, C1-C6     : /0.780/0.700/0.678
AMORTIGUAMIENTO DE SENSORES, C7-C12    : 
INTERVALO DE MUESTREO, C1-C6, (s)      : /0.01/0.01/0.01
INTERVALO DE MUESTREO, C7-C12, (s)     : 
UMBRAL DE DISPARO, C1-C6, (Gal)        : /3.44/6.43/4.64
UMBRAL DE DISPARO, C7-C12, (Gal)       : 
MEMORIA DE PREEVENTO (s)               : 44.0
TIEMPO DE POSEVENTO (s)                : 64.0


================================================================================
DATOS DEL SISMO:
FECHA DEL SISMO (GMT)                  : 19/SEP/17
HORA EPICENTRO (GMT)                   : 18:14:40.0
MAGNITUD(ES)                           : /Mc=7.1
COORDENADAS DEL EPICENTRO              : 18.40 LAT. N
                                       : 98.72 LONG. W
PROFUNDIDAD FOCAL (km)                 : 57
FUENTE DE LOS DATOS EPICENTRALES       : SSN
                                       : INSTITUTO DE GEOFISICA, UNAM

================================================================================
DATOS DE ESTE REGISTRO:
HORA DE LA PRIMERA MUESTRA (GMT)       : 18:15:00.00
EXACTITUD DEL TIEMPO (s)               : 0.01
DURACION DEL REGISTRO (s), C1-C6       : /349.0/349.0/349.0
DURACION DEL REGISTRO (s), C7-C12      : 
NUM. TOTAL DE MUESTRAS, C1-C6          : /34900/34900/34900
NUM. TOTAL DE MUESTRAS, C7-C12         : 
ACEL. MAX. (Gal), C1-C6                : /115.22773/81.39642/133.94893
ACEL. MAX., C1-C6, EN LA MUESTRA       : /6522/6605/6656
ACEL. MAX. (Gal), C7-C12               : 
ACEL. MAX., C7-C12, EN LA MUESTRA      : 
UNIDADES DE LOS DATOS                  : Gal (cm/s/s)
FACTOR DE DECIMACION                   : 1
FORMATO DATOS (FORTRAN,10 campos/dato) : 3F10.5


================================================================================
CALIDAD DEL ACELEROGRAMA:
REGISTRO DIGITAL COMPLETO CON TIEMPO ABSOLUTO CORRECTO.


================================================================================
COMENTARIOS:














================================================================================
DATOS DE ACELERACION:
---------+---------+---------+---------+---------+---------+---------+---------+
   CANAL-1   CANAL-2   CANAL-3   CANAL-4   CANAL-5   CANAL-6   CANAL-7   CANAL-8
      N00E        +V      N90W
---------+---------+---------+---------+---------+---------+---------+---------+
[...]
  -5.64953  -6.50280  19.07214
   3.16413  -6.06885  23.32185
  13.68365  -7.19113  26.50913
  24.20318  -9.27110  28.55917
  33.57049 -10.00432  28.79859
  43.10241  -8.52291  27.78105
  51.36240  -4.01882  25.41678
  58.03624   1.12872  21.37656
  61.70236   4.64520  15.95968
  63.61772   5.79741   9.25592
  64.32102   6.44085   2.26784
  65.53308   7.62299  -4.63045
  66.47580   9.08944 -10.60099
  67.44844   9.88252 -15.03027
  67.52326   8.44600 -17.76863
  66.10171   4.64520 -18.54675
  63.52794   0.26082 -17.61900
  59.57751  -3.49508 -15.74853
  55.28291  -5.96411 -12.86052
  51.43722  -8.26852 -10.46632
  47.36708 -11.00689  -9.02980
  43.97030 -13.93979  -8.07212
  42.89291 -14.68798  -7.71299
  45.31704 -11.96457  -8.29657
  50.89852  -6.86193  -9.26922
  57.88660  -0.69686 -10.96012
  64.99439   4.63024 -13.99777
  70.08207   9.02958 -19.54932
  73.70330  13.32418 -27.24069
  75.45406  17.03519 -37.43102
  74.70587  19.29472 -49.49181
  70.83025  17.64871 -60.63981
  64.35095  13.29425 -70.80020
  55.94131   9.29893 -78.08755
  46.70867   8.77520 -83.14530
  38.47860  11.39386 -85.43476
  31.08651  14.44646 -85.64425
  23.63455  16.04759 -83.44458
  15.58405  15.34429 -79.26969
   7.86275  13.63842 -73.19440
   1.89221  11.28911 -66.29611
  -1.68413   7.53321 -58.44013
  -3.89877   1.14368 -50.79365
  -5.49989  -6.27834 -43.31177
  -5.78420 -12.17407 -35.68026
  -3.67431 -14.91243 -27.37537
   0.90460 -14.91243 -18.42704
   7.81786 -13.73030  -9.67324
  15.15010 -13.82008  -1.81727
  21.95861 -14.14928   4.99125
  28.00397 -14.44856  10.24353
  33.33107 -15.94493  14.07425
  38.17933 -17.99497  16.10932
  40.70820 -21.13736  17.29146
  40.03483 -22.91805  17.63562
  36.48842 -18.75812  15.66041
  32.62777 -11.29120  12.47313
  28.19850  -1.46001   9.43548
  22.51227   9.05951   6.63726
  16.27238  16.33190   4.43759
  11.00514  19.27976   2.88136
   6.42623  19.27976   1.22038
   0.79986  18.83085  -0.44060
  -6.30793  18.53157  -1.89208
 -14.67267  19.21990  -3.04429
 -24.95278  19.92320  -4.34614
 -35.36755  19.27976  -6.05201
 -45.03414  18.03777  -6.29143
 -54.25182  17.93302  -4.25636
 -61.10522  18.74106  -0.62016
 -64.92098  19.84838   3.68940
 -66.34254  18.06769   8.11867
 -65.63924  12.71067  12.44320
 -65.05565   6.14158  16.12428
 -63.43957  -0.18809  19.04222
 -61.28479  -3.83925  20.89772
 -59.42928  -4.24327  22.22950
 -57.45406  -3.95896  22.52877
 -54.68577  -3.37537  22.96272
 -50.85505  -4.00385  24.05508
 -46.05168  -3.67465  25.77591
 -40.57494  -3.39034  28.55917
 -34.91864  -4.31809  30.87855
 -31.14777  -7.47544  33.00340
 -29.80103 -11.23135  35.06840
 -30.16017 -12.78758  37.22319
 -29.41198 -11.60544  39.13855
 -26.71850  -8.44809  39.52760
 -23.83049  -3.22574  38.80934
 -21.46622   0.85937  37.50750
 -18.80267   3.10393  35.03848
 -15.51064   3.55285  33.16801
 -10.70728   3.62767  32.86873
  -6.18822   3.40321  34.14065
  -2.50714   2.46049  36.78924
   0.02174  -0.36766  40.84442
   1.00935  -6.24842  46.14159
   0.90460 -13.32628  51.55847
   1.32359 -19.07236  56.21220
   2.53565 -20.53881  58.44180
   4.12181 -17.87526  57.91807
   4.45101 -11.71019  54.71582
   4.72036  -5.14110  49.74785
   3.85246   1.84698  44.27112
   2.05681   8.05694  39.99148
  -0.32243  13.06980  37.14837
  -2.91116  15.41911  34.69431
  -5.85902  14.73078  32.03076
  -8.16344  11.72306  29.26246
  -9.76456   7.66788  27.00294
  -9.92916   6.44085  24.09997
  -8.22329  10.16683  21.18203
  -4.58710  16.64614  18.27906
  -0.86112  24.69664  15.67537
   2.13163  31.04127  13.34102
   5.13935  33.31577  11.60523
   9.25438  31.31062   9.36066
  14.82090  24.60686   6.39784
  20.80640  14.49136   2.14813
  26.22328   3.25357  -3.58299
  29.99415  -7.08639  -9.88273
  32.43324 -15.43617 -16.00291
  34.06429 -20.77823 -22.16798
  34.07926 -23.18739 -25.92388
  32.71756 -22.51402 -26.59725
  29.72480 -20.92787 -22.45229
  25.26560 -19.95522 -13.81820
  20.05821 -20.85305  -1.83223
  15.25485 -23.48667  10.79718
  11.30441 -26.35971  22.52877
   8.07224 -26.65899  33.42239
   4.84007 -23.44178  43.29847
   2.10170 -16.96247  53.18952
   0.08159  -8.71744  61.74879
  -0.47206  -1.32534  69.35038
  -1.22025   4.98937  75.33588
  -2.01333  11.27415  80.01954
  -1.65420  16.76585  83.17689
  -0.65163  21.43454  85.91526
  -0.05308  23.00573  87.78573
  -0.08301  21.16519  89.52153
  -0.75638  15.92788  90.15001
  -1.75895   9.28397  90.28468
  -1.80384   2.95430  89.56642
  -0.81623  -2.86661  88.08501
   1.06920  -7.04150  85.99008
   2.29623  -8.74736  83.70063
   2.76011  -7.58019  80.55824
   2.47580  -5.81447  76.62277
   1.36848  -5.54512  71.74458
  -0.98083  -9.33095  65.99850
  -3.98855 -16.06464  61.01556
  -7.69956 -23.50163  57.49908
 -10.49778 -28.31996  54.56618
 -12.86206 -27.28746  51.28912
 -14.53800 -21.55634  46.53064
 -15.69021 -13.10182  39.07869
 -16.73767  -4.49766  29.71138
 -17.94974   3.05904  19.26667
 -19.13187   7.71277   8.22342
 -20.50854   9.50842  -2.43078
 -22.73814   8.19161 -12.69592
 -25.67104   3.92694 -21.98841
 -29.15759  -0.32277 -29.32066
 -32.79379  -3.62976 -35.99449
 -36.81904  -5.64987 -40.84275
 -41.78701  -7.01157 -41.00735
 -47.21885  -9.61526 -38.11935
 -52.63573 -12.45838 -33.46562
 -58.14240 -15.18178 -28.57247
 -62.67642 -15.70551 -22.16798
 -66.13305 -13.32628 -14.35690
 -69.21558  -9.51052  -6.45603
 -72.76199  -7.34077  -0.09643
 -77.20623  -9.43570   3.91385
 -81.81507 -13.70037   5.72447
 -85.19688 -17.60591   5.90403
 -86.12463 -18.27928   4.07846
 -86.27427 -15.92997   0.62183
 -87.24691 -12.29378  -4.51074
 -88.95278  -8.95686  -9.88273
 -90.49405  -5.60497 -15.06019
 -91.09260  -1.07096 -20.41722
 -89.85061   4.49556 -25.69943
 -85.91514  11.51357 -29.36555
 -80.48329  17.69360 -31.31084
 -73.98902  21.80863 -31.34076
 -66.68670  22.78128 -28.69218
 -59.15993  20.64146 -24.35269
 -51.67805  18.12755 -19.42961
 -45.21371  16.97534 -15.07516
 -39.49755  16.99030 -11.42400
 -34.30513  16.24212  -8.79038
 -28.31962  14.01251  -6.77027
 -22.42390  10.21172  -5.69288
 -16.55811   7.60803  -5.33375
 -10.07880   8.11679  -5.84252
  -3.98855  11.27415  -6.84509
   2.08674  14.23697  -8.05715
   7.71311  14.91034  -9.41886
  12.80079  13.35411 -11.69335
  17.00561  10.60078 -15.98795
  21.86883   9.46353 -23.23041
  28.90180   9.77777 -31.68493
  38.28407  11.90262 -40.76793
  48.93827  13.80302 -47.26221
  59.59247  14.34172 -50.94329
  70.32149  12.68074 -53.30756
  80.73626   8.99966 -54.23532
  91.10615   5.90216 -54.29517
 100.74281   5.36346 -53.12800
 109.24223   7.17408 -50.55423
 114.01567   9.85259 -46.21474
 115.22773  10.52596 -40.63326
 112.26491   6.36603 -35.44084
 105.84545  -0.68190 -31.46047
  97.09165  -7.19113 -27.03120
  89.02619 -11.63537 -21.68914
  82.59177 -16.16939 -15.71860
  77.44424 -22.76841  -7.74291
  72.70072 -30.34007   2.19302
  68.55576 -35.59235  13.77497
  66.37105 -36.90916  25.70109
  66.64040 -34.21568  35.83156
  67.64297 -28.00572  42.56525
  68.60065 -19.68587  47.26387
  68.72036 -10.57294  50.33144
  68.91489  -3.61479  53.00995
  69.31891  -0.68190  55.14977
  68.00210  -2.56733  57.05017
  63.90203  -7.86450  59.36955
  57.13841 -13.16167  61.10535
  47.74117 -16.18435  63.03567
  36.60813 -16.30406  63.66415
  24.36778 -14.43359  62.54187
  12.63619 -10.76747  59.10020
   1.50315  -6.26338  54.76071
  -7.08605  -0.54722  50.12195
 -13.29601   5.43828  45.55800
 -18.47347  10.97487  41.59260
 -24.36919  15.13480  37.65713
 -29.12767  15.85306  31.05812
 -32.83868  13.78806  21.82548
 -37.68694  12.48621  11.12639
 -43.44798  15.13480  -0.33585
 -49.53823  20.74621 -10.61596
 -54.95512  27.19559 -20.56686
 -59.01030  32.76211 -29.81446
 -60.70120  35.78479 -39.78033
 -59.71359  35.26105 -48.18996
 -55.49381  32.20845 -54.02583
 -50.25650  25.78899 -57.04851
 -45.52795  20.50679 -57.97626
 -40.79940  14.59610 -54.57948
 -38.68951   9.55331 -49.05786
 -41.00889  10.31647 -43.76069
 -43.25346  12.41139 -37.10181
 -43.29835  15.04501 -30.32323
 -44.03157  19.69874 -24.09830
 -44.85458  24.78642 -18.45697
 -43.53777  27.88392 -12.65103
 -39.18331  29.48504  -7.59328
 -33.21277  30.27812  -4.01694
 -26.44915  30.54747  -1.36835
 -22.07973  32.80700  -0.60520
 -21.27169  37.23627  -3.11911
 -21.37644  41.17174  -8.91009
 -20.73300  40.82757 -15.85327
 -20.68810  36.98189 -22.25776
 -23.35165  32.22341 -25.83410
 -25.62615  29.70950 -27.40530
 -24.69839  29.81425 -27.48011
 -21.97499  30.90660 -26.17827
 -19.98481  31.07120 -25.07095
 -19.13187  27.80910 -23.64939
 -20.05963  21.52432 -22.81142
 -22.64836  14.92530 -24.06838
 -26.95792   9.76281 -26.74689
 -32.09049   6.03683 -30.71229
 -37.71686   2.84955 -35.56055
 -42.29577  -2.13338 -41.11210
 -46.03671  -9.57037 -47.09760
 -50.98972 -16.45370 -52.79880
 -56.82559 -20.80816 -57.09340
 -59.96798 -23.98047 -59.71205
 -59.36943 -28.45464 -60.07118
 -56.57120 -34.17079 -59.56242
 -53.56349 -39.79717 -59.51753
 -49.68787 -44.06184 -60.98397
 -44.06150 -47.08452 -64.75484
 -35.89129 -50.60100 -69.64799
 -26.04513 -57.51426 -75.31926
 -18.11434 -65.89397 -81.55914
 -11.57517 -73.28606 -88.35269
  -3.71920 -78.82265 -94.20352
   5.57329 -81.38146 -97.03167
  14.56651 -81.39642 -96.43312
  20.76151 -79.07704 -92.81189
  24.18821 -73.57037 -88.72679
  26.95651 -64.81657 -84.85117
  29.32078 -51.81307 -81.28980
  30.95183 -37.20844 -78.10252
  31.90951 -24.10018 -76.62110
  30.30839 -14.35877 -76.65103
  26.40285  -6.71229 -78.40179
  21.61445   1.42799 -80.96059
  19.22024  11.13947 -83.80371
  19.10053  20.77613 -86.27273
  19.08557  27.74925 -87.96363
  18.83119  31.62486 -88.80160
  18.08300  31.62486 -88.03845
  16.85597  31.99895 -86.01835
  17.88847  33.48037 -82.90588
  22.55716  35.90450 -79.23976
  29.56020  38.08921 -75.49882
  36.09937  38.92718 -71.81774
  41.92027  39.45091 -68.70527
  48.33972  39.63047 -65.77238
  54.72925  40.87246 -62.74970
  60.37059  42.17431 -58.38028
  63.72247  40.66297 -52.40974
  63.61772  35.57529 -45.64612
  61.77718  28.72189 -38.98725
  59.05377  22.78128 -33.40576
  56.58475  19.62393 -28.55751
  55.04349  19.07027 -23.58954
  53.35258  18.11259 -20.25262
  50.18026  14.65596 -18.20258
  45.72106   9.05951 -16.48175
  40.75310   3.40321 -15.00034
  37.76034  -0.84650 -11.75320
  36.21908  -2.85164  -6.57574
  34.75263  -2.04360   1.51965
  32.98690  -0.03846  11.29099
  29.90437   2.38567  22.39410
  27.18096   5.27368  34.70927
  25.53495   7.06933  47.89235
  24.93640   6.63538  61.82361
  23.67944   3.26854  75.56034
  21.19546  -3.21077  87.89048
  15.77858 -11.24631  99.26294
   9.14963 -17.80044 109.36347
   2.19148 -21.03261 118.20706
  -4.97616 -20.52384 124.98564
 -12.30840 -17.06722 129.37002
 -21.78046 -12.29378 132.31788
 -32.49451  -7.41559 133.84419
 -41.84686  -4.57248 133.94893
 -48.61048  -5.15606 131.74926
 -52.17186  -9.91454 127.33495
 -51.34885 -16.55845 121.55894
 -46.32103 -23.45674 114.63072
 -39.64719 -28.40975 106.46050
 -33.33248 -28.67909  96.64428
 -27.24223 -25.38707  85.10722
 -20.59832 -21.54138  72.62744
 -15.88474 -16.60334  57.81332
 -12.99673 -11.56055  42.08641
 -11.26094  -7.92436  26.03029
  -7.75942  -7.58019  11.72494
  -3.16554 -10.01928  -2.25121
   1.02431 -14.19417 -16.48175
   4.31634 -18.84790 -29.87432
   7.54851 -20.91290 -44.79319
  10.58615 -16.88765 -59.12847
  13.53402  -9.94447 -72.31154
  14.92564  -0.72679 -84.80628
  13.10007   8.29636 -95.16120
  10.06242  14.43150-103.46609
   8.59597  17.33447-108.88297
   9.85293  18.05273-110.73848
  12.06757  19.32465-109.88554
  15.67383  21.34476-106.02489
  20.47720  23.63421-100.42845
  26.32803  25.53461 -94.48783
  31.98433  26.86639 -88.17313
  37.59574  28.06349 -80.76607
  42.53378  30.71207 -74.76560
  47.69628  31.63982 -71.21919
  52.69418  27.94378 -69.88741
  54.53472  21.43454 -69.79763
  53.20294  14.10230 -68.61549
  50.61421  10.10697 -64.99426
  48.71382   9.26900 -59.11350
  47.81599   9.22411 -50.03050
  44.83820   7.72774 -38.50841
  39.76549   3.34335 -26.17827
  34.45335  -3.01624 -13.86309
  30.81716  -8.31342  -3.17897
  30.24854 -10.69265   6.74201
  31.72995 -11.21639  15.86990
  32.82230 -12.35363  24.96787
  32.23872 -14.44856  33.49721
  31.84966 -17.30664  41.11376
  31.78980 -18.45885  48.05695
  32.74748 -17.38145  54.22202
  35.44096 -14.89747  59.54912
  40.60346 -12.81751  63.36487
  47.72621 -10.82733  64.60687
  57.16834  -8.62765  61.95828
  67.92728  -5.69476  57.34944
  78.34206  -2.40273  51.87271
  86.58709  -0.44248  47.66789
  89.68459  -1.04103  44.91456
  88.09843  -2.98632  44.31601
  83.02572  -3.42027  44.52550
  76.47159  -1.01110  45.45325
  68.66051   2.49042  48.25148
  60.01145   4.37585  53.54865
  50.83867   2.92437  61.07542
  41.45639   0.47031  68.51241
  33.42085   0.60499  73.37563
  28.49778   2.43056  74.72237
  26.38789   3.62767  71.92415
  24.27800   4.48060  64.14299
  21.01590   3.40321  52.59097
  15.71872   1.45792  38.67467
   9.77811   0.78455  25.17736
   3.89735   2.75977  12.86218
  -1.44471   5.28864   3.58465
  -7.07108   7.18904  -1.99683
 -12.90695   6.81495  -3.77752
 -18.05448   4.33096  -3.25379
 -21.84031  -0.27788  -0.09643
 -22.45383  -3.56990   4.18320
 -20.47861  -5.75461   8.95664
 -17.20155  -5.99403  13.11657
 -14.16391  -5.17103  15.98961
 -12.18869  -4.27320  18.00972
 -10.91677  -4.27320  20.11961
  -9.89923  -6.42798  22.93279
  -9.04630 -10.52805  27.22739
  -9.31565 -17.26174  32.01580
 -10.30326 -25.61152  36.38521
 -11.48539 -34.88905  40.12615
 -11.51532 -44.83995  42.95431
 -10.00398 -53.30944  45.33354
  -6.80174 -57.36462  46.68028
  -1.60931 -56.60147  47.21898
   5.04956 -51.30430  47.47336
  10.70586 -43.59796  47.26387
  13.47416 -35.69710  47.32372
  12.72597 -30.13058  48.80514
   8.20692 -25.97065  52.14205
  -1.31004 -21.25707  58.18741
 -13.52046 -14.83762  65.02585
 -25.58125  -6.50280  70.18835
 -35.95114   2.58020  73.16614
 -43.23849   9.25404  73.83951
 -48.67034  13.42893  72.37306
 -52.94997  15.56875  69.42520
 -56.43653  17.25965  64.98096
 -59.44424  18.84581  59.63890
 -62.09283  20.37211  53.98260
 -64.65163  20.94074  50.06209
 -66.20786  22.13784  49.26901
 -66.76152  23.90356  51.42379
 -65.98341  26.22294  54.59611
 -63.78373  27.40508  58.81589
 -60.50667  26.80653  63.69408
 -56.33178  24.33751  68.45255
 -52.81530  20.92577  72.20846
 -49.71780  17.06512  73.73476
 -47.45827  15.98773  73.19607
 -46.08161  17.70856  70.81683
 -45.39327  20.68635  67.65947
 -46.39585  23.36487  64.12803
 -49.08932  24.20284  60.08781
 -51.85762  22.57179  56.22716
 -52.94997  20.11773  52.92017
 -51.13936  19.14508  51.00481
 -46.88965  19.92320  51.33401
 -40.58991  20.92577  53.86289
 -33.84125  21.09037  57.94799
 -26.55390  20.38708  61.74879
 -18.75778  17.48411  64.00832
 -11.32079  14.82056  64.47219
  -5.24550  11.31904  63.67911
  -0.83119   6.54560  59.93817
   1.38344   1.50281  53.41397
   1.05424  -1.56476  44.82478
   0.06663  -0.86146  36.31040
  -0.74141   3.94190  29.18765
  -0.87609   9.97230  23.29192
  -0.75638  13.59353  17.36628
  -1.35493  13.62346  10.28842
  -2.47721   9.88252   1.28023
  -4.81156   5.82734  -8.40132
  -7.38532   2.11633 -17.36461
  -9.85434  -0.93628 -25.19066
 -13.64017  -4.36298 -31.89442
 -18.05448  -8.37327 -38.44855
 -23.30676 -11.54559 -43.16214
 -26.77836 -13.86497 -46.82826
 -28.81343 -15.28653 -49.13268
 -29.95067 -16.87269 -50.46445
