********************************************************************************
              CENTRO DE INSTRUMENTACION Y REGISTRO SISMICO  A.C.

    Anaxagoras 814, Col. Narvarte, Benito Juarez, C.P. 03020 Mexico, D.F.
           Tels. 5687 45 42/ 5687 45  82             Fax. 5669 25 12
********************************************************************************
ARCHIVO ESTANDAR DE ACELERACION:
VERSION DEL FORMATO                    : 2.0
NOMBRE DEL ARCHIVO                     : AP6820060811143041
FECHA Y HORA DE CREACION               : 21/JUN/09, 23:40
REF. CATALOGO ACELEROGRAMAS, SMIS 1996 : REGISTRO No.     /PAG.


================================================================================
DATOS DE LA ESTACION:
NOMBRE DE LA ESTACION                  : JARDÍN DE NIÑOS "JUAN B. DE LA SALLE"
CLAVE DE LA ESTACION                   : AP68
LOCALIZACION DE LA ESTACION            : Del. Iztapalapa, Col. Santa María      
                                       : Purísima Atlazolpa,  entre Canal de    
                                       : Apatlaco y Ahuehuetes.                 
                                       :                                        
                                       : 
COORDENADAS DE LA ESTACION             : 19.3809 LAT. N
                                       : 99.1068 LONG. W
ALTITUD (msnm)                         : 2232
TIPO DE SUELO                          : Arcilloso, zona lago                
                                       :                           
                                       : 
INSTITUCION RESPONSABLE                : CIRES
                                       : 

================================================================================
DATOS DEL ACELEROGRAFO:
MODELO DEL ACELEROGRAFO                : RADESD
NUMERO DE SERIE DEL ACELEROGRAFO       : 255
NUMERO DE CANALES                      : 3
ORIENTACION C1-C6 (rumbo;orientacion)  : /N00E/+V/N90W
ORIENTACION C7-C12 (rumbo;orientacion) : 
VEL. DE MUESTREO, C1-C6 (muestras/s)   : /100/100/100
VEL. DE MUESTREO, C7-C12 (muestras/s)  : 
ESC. COMPLETA DE SENSORES, C1-C6, (g)  : /0.5/0.5/0.5
ESC. COMPLETA DE SENSORES, C7-C12, (g) : 
FREC. NAT. DE SENSORES, C1-C6, (Hz)    : /30/30/30
FREC. NAT. DE SENSORES, C7-C12, (Hz)   : 
AMORTIGUAMIENTO DE SENSORES, C1-C6     : /0.780/0.700/0.678
AMORTIGUAMIENTO DE SENSORES, C7-C12    : 
INTERVALO DE MUESTREO, C1-C6, (s)      : /0.01/0.01/0.01
INTERVALO DE MUESTREO, C7-C12, (s)     : 
UMBRAL DE DISPARO, C1-C6, (Gal)        : /3.35/7.18/7.18
UMBRAL DE DISPARO, C7-C12, (Gal)       : 
MEMORIA DE PREEVENTO (s)               : 56.0
TIEMPO DE POSEVENTO (s)                : 64.0


================================================================================
DATOS DEL SISMO:
FECHA DEL SISMO (GMT)                  : 11/AGO/06
HORA EPICENTRO (GMT)                   : 14:30:41.0
MAGNITUD(ES)                           : /Mc=5.9
COORDENADAS DEL EPICENTRO              : 18.32 LAT. N
                                       : 101.27 LONG. W
PROFUNDIDAD FOCAL (km)                 : 51
FUENTE DE LOS DATOS EPICENTRALES       : SSN
                                       : INSTITUTO DE GEOFISICA, UNAM

================================================================================
DATOS DE ESTE REGISTRO:
HORA DE LA PRIMERA MUESTRA (GMT)       : 14:31:58.00
EXACTITUD DEL TIEMPO (s)               : 0.01
DURACION DEL REGISTRO (s), C1-C6       : /130.25/130.25/130.25
DURACION DEL REGISTRO (s), C7-C12      : 
NUM. TOTAL DE MUESTRAS, C1-C6          : /13025/13025/13025
NUM. TOTAL DE MUESTRAS, C7-C12         : 
ACEL. MAX. (Gal), C1-C6                : /5.47067/2.15554/6.26564
ACEL. MAX., C1-C6, EN LA MUESTRA       : /5580/6294/6815
ACEL. MAX. (Gal), C7-C12               : 
ACEL. MAX., C7-C12, EN LA MUESTRA      : 
UNIDADES DE LOS DATOS                  : Gal (cm/s/s)
FACTOR DE DECIMACION                   : 1
FORMATO DATOS (FORTRAN,10 campos/dato) : 3F10.5


================================================================================
CALIDAD DEL ACELEROGRAMA:
REGISTRO DIGITAL COMPLETO CON TIEMPO ABSOLUTO CORRECTO.


================================================================================
COMENTARIOS:














================================================================================
DATOS DE ACELERACION:
---------+---------+---------+---------+---------+---------+---------+---------+
   CANAL-1   CANAL-2   CANAL-3   CANAL-4   CANAL-5   CANAL-6   CANAL-7   CANAL-8
      N00E        +V      N90W
---------+---------+---------+---------+---------+---------+---------+---------+
[...]
  -0.20343  -0.23867   1.87465
   0.03599   7.5E-40   1.63523
  -0.20343   0.95843   1.15639
  -0.20343   0.71901   1.15639
  -0.20343   0.24017   1.39581
  -0.44285   0.95843   0.91697
  -0.68227   1.19785   0.67755
   0.03599   0.71901   0.67755
   0.51483   7.5E-40   0.67755
   0.27541   0.47959   0.19870
   0.03599   0.71901  -0.28014
   0.75425   0.71901  -0.51956
   0.03599   0.47959  -0.28014
  -0.20343   0.71901  -0.04072
   0.03599   0.47959  -0.75898
   0.27541   0.71901  -0.99840
   0.51483   0.24017  -0.99840
   0.27541   0.24017  -0.99840
   0.03599   0.47959  -1.47724
  -0.20343   0.47959  -1.95608
  -0.44285   0.24017  -1.71666
  -0.44285   7.5E-40  -1.95608
  -1.16111   0.47959  -2.19550
  -0.92169   7.5E-40  -2.67434
  -0.68227   7.5E-40  -2.91376
  -1.40053   0.24017  -3.39260
  -2.11879   0.71901  -3.63202
  -1.87937   0.47959  -3.63202
  -2.35821   0.47959  -4.35028
  -2.59763   0.71901  -4.11086
  -3.07647   0.95843  -4.35028
  -2.35821   0.47959  -4.82912
  -2.59763   0.71901  -5.06854
  -3.31589   0.71901  -4.82912
  -3.31589   0.47959  -5.06854
  -3.55531   0.95843  -5.30796
  -3.55531   0.24017  -4.58970
  -3.31589   0.24017  -4.58970
  -3.55531   0.47959  -5.06854
  -3.55531   0.47959  -5.06854
  -3.55531  -0.23867  -4.58970
  -2.83705   7.5E-40  -4.82912
  -3.07647   0.24017  -5.06854
  -2.35821   7.5E-40  -4.82912
  -2.11879  -0.47809  -4.58970
  -2.35821  -0.23867  -4.82912
  -2.59763  -0.23867  -4.35028
  -1.63995  -0.47809  -4.58970
  -1.63995  -0.23867  -4.82912
  -1.87937  -0.47809  -3.87144
  -1.63995  -0.95693  -4.11086
  -1.16111  -0.47809  -4.35028
  -1.63995  -0.71751  -3.87144
  -1.87937  -0.71751  -3.63202
  -1.63995  -1.43577  -3.39260
  -0.44285  -1.19635  -3.87144
  -0.20343  -0.95693  -3.39260
  -0.44285  -1.43577  -3.15318
  -0.20343  -1.19635  -3.39260
  -0.44285  -0.95693  -3.15318
  -0.20343  -1.19635  -2.43492
  -0.20343  -1.19635  -2.43492
  -0.44285  -0.47809  -2.43492
   0.03599  -0.71751  -2.19550
   0.75425  -1.19635  -1.71666
   0.51483  -0.47809  -1.71666
   0.03599  -0.71751  -1.23782
   0.99367  -0.71751  -0.99840
   1.23309  -0.71751  -0.28014
   1.47251  -0.47809   0.19870
   1.95135  -0.47809   0.43813
   2.90903  -0.71751  -0.04072
   2.43019   7.5E-40   0.67755
   2.66961  -0.23867   1.63523
   2.66961  -0.47809   1.15639
   2.90903   7.5E-40   1.15639
   3.38787  -0.47809   1.39581
   3.14845  -0.23867   1.87465
   3.86671   7.5E-40   1.63523
   3.62729   0.47959   1.63523
   3.86671  -0.23867   1.63523
   3.62729   7.5E-40   1.63523
   3.38787   0.24017   1.63523
   3.86671   7.5E-40   1.39581
   4.10613  -0.23867   1.39581
   3.38787   7.5E-40   1.39581
   2.90903   0.24017   1.39581
   3.62729  -0.23867   0.91697
   2.90903   7.5E-40   1.15639
   2.43019   7.5E-40   1.15639
   2.43019  -0.23867   0.91697
   2.66961  -0.23867   0.43813
   1.95135  -0.23867   0.19870
   0.99367  -0.23867   0.67755
   0.99367   7.5E-40  -0.04072
   0.99367   0.47959  -0.28014
   1.23309  -0.23867  -0.28014
   1.23309   0.47959   0.19870
   1.71193  -0.23867  -0.75898
   0.99367   0.47959  -0.75898
   1.71193   7.5E-40  -0.75898
   1.23309  -0.23867  -0.51956
   1.23309   0.47959  -0.75898
   1.71193   0.24017  -0.99840
   1.95135   0.24017  -0.75898
   1.95135   0.47959  -1.47724
   1.71193   0.47959  -0.99840
   2.19077  -0.23867  -1.47724
   2.43019   0.24017  -1.47724
   2.19077   7.5E-40  -1.23782
   2.19077   0.47959  -1.71666
   2.43019   0.47959  -2.19550
   1.95135   0.71901  -2.19550
   1.23309   0.47959  -1.47724
   0.75425   0.47959  -1.95608
   0.99367   0.95843  -2.43492
   0.75425   0.47959  -1.95608
   0.51483   0.71901  -1.95608
   0.27541   0.95843  -2.43492
   0.27541   1.67669  -2.67434
  -0.20343   0.95843  -2.19550
  -0.20343   0.95843  -2.43492
  -1.40053   1.67669  -2.43492
  -0.92169   1.19785  -2.91376
  -0.92169   1.19785  -2.43492
  -0.92169   1.19785  -2.91376
  -1.63995   1.67669  -2.91376
  -0.68227   1.67669  -3.39260
  -1.16111   1.43727  -3.15318
  -1.40053   1.19785  -2.91376
  -1.16111   1.19785  -3.63202
  -0.92169   1.19785  -3.87144
  -1.16111   0.71901  -3.63202
  -1.63995   0.47959  -2.91376
  -1.40053   0.71901  -3.87144
  -1.63995   0.95843  -3.39260
  -1.63995   0.24017  -3.15318
  -1.16111   7.5E-40  -2.91376
  -1.40053   7.5E-40  -3.39260
  -1.16111   7.5E-40  -3.15318
  -0.68227  -0.71751  -2.67434
  -0.20343  -0.47809  -2.43492
  -0.68227  -0.23867  -2.43492
  -0.20343  -0.47809  -2.43492
   0.27541  -0.71751  -1.95608
   0.03599  -0.71751  -1.47724
   0.27541  -0.47809  -1.47724
   0.75425  -1.19635  -1.47724
   0.75425  -0.71751  -1.47724
   0.27541  -0.47809  -0.75898
   0.75425  -0.71751  -0.51956
   0.51483  -0.47809  -0.51956
   0.27541  -0.71751  -0.28014
   0.03599  -0.95693   0.67755
   0.51483  -0.95693  -0.04072
   0.03599  -0.95693   0.19870
   0.27541  -1.19635   0.19870
   0.27541  -1.43577   0.67755
  -0.20343  -0.95693   0.43813
  -0.20343  -0.95693   0.43813
   0.03599  -1.19635   0.91697
   0.03599  -1.19635   0.67755
  -0.20343  -0.71751   0.91697
  -0.20343  -1.19635   0.91697
   0.03599  -1.19635   1.15639
   0.03599  -0.95693   1.15639
   0.27541  -0.95693   1.15639
   0.51483  -1.43577   0.91697
   0.51483  -1.43577   1.15639
   0.51483  -1.19635   1.15639
   0.75425  -1.43577   1.39581
   0.99367  -1.19635   1.39581
   0.75425  -1.43577   1.63523
   0.51483  -1.43577   2.11407
   1.23309  -1.43577   2.11407
   1.23309  -1.19635   2.83233
   1.95135  -1.67519   3.31117
   1.95135  -1.19635   3.55059
   1.95135  -0.95693   3.79001
   2.19077  -1.19635   4.02943
   2.90903  -1.43577   4.74769
   2.90903  -0.95693   4.50827
   2.43019  -0.23867   4.98711
   2.90903  -0.71751   4.98711
   3.14845  -0.71751   4.98711
   3.14845  -0.23867   5.22653
   2.43019  -0.23867   5.46595
   2.43019  -0.23867   5.22653
   2.43019  -0.71751   5.46595
   2.19077  -0.23867   5.70537
   2.19077  -0.71751   5.46595
   2.66961  -0.71751   4.98711
   1.71193  -0.23867   4.98711
   1.23309  -0.23867   4.98711
   0.99367  -0.23867   4.50827
   1.47251  -0.23867   4.50827
   0.75425  -0.23867   5.22653
   0.99367   0.24017   4.74769
   1.23309   0.24017   4.02943
   0.75425   0.47959   4.50827
   0.75425   0.47959   4.50827
   0.51483   0.71901   3.79001
   0.03599   0.95843   4.02943
   0.75425   0.47959   3.55059
   0.75425   0.95843   2.83233
   0.51483   0.95843   2.83233
   0.27541   0.71901   2.83233
   0.75425   0.95843   1.87465
   0.03599   1.19785   2.11407
   0.03599   0.95843   1.87465
   0.03599   0.95843   2.11407
   0.27541   0.95843   1.87465
  -0.20343   0.95843   2.11407
  -0.68227   0.95843   1.63523
  -0.92169   1.43727   1.15639
  -1.16111   1.43727   1.39581
  -1.16111   1.19785   1.63523
  -1.63995   1.19785   1.39581
  -1.87937   1.43727   0.91697
  -2.11879   1.43727   1.15639
  -1.87937   0.71901   1.39581
  -2.83705   1.67669   1.15639
  -2.35821   1.67669   0.91697
  -2.59763   1.43727   0.91697
  -2.59763   1.67669   0.67755
  -2.59763   1.43727   0.43813
  -2.83705   1.43727   0.67755
  -2.59763   1.19785   0.43813
  -3.07647   1.43727   0.43813
  -3.31589   0.95843   0.67755
  -2.83705   0.95843   0.43813
  -2.35821   0.47959   0.19870
  -2.59763   1.19785   0.43813
  -2.35821   0.71901   0.91697
  -1.87937   0.95843   0.43813
  -1.87937   0.71901   0.43813
  -1.63995   0.71901   0.91697
  -1.40053   0.95843   0.91697
  -1.16111   0.71901   0.91697
  -0.92169   0.95843   1.15639
  -0.20343   0.24017   1.39581
  -0.44285   0.71901   1.39581
   0.03599   7.5E-40   1.63523
   0.75425   7.5E-40   1.39581
   0.99367  -0.23867   1.39581
   0.75425   7.5E-40   2.11407
   0.99367  -0.23867   2.35349
   1.47251  -0.23867   1.63523
   1.47251   7.5E-40   1.87465
   1.23309  -0.23867   2.11407
   1.47251  -0.47809   2.11407
   1.47251  -0.23867   1.63523
   1.23309  -0.71751   2.11407
   1.47251  -1.19635   2.11407
   1.95135  -0.71751   1.63523
   1.71193  -0.95693   1.87465
   1.95135  -1.19635   1.87465
   2.43019  -0.71751   1.87465
   2.66961  -0.95693   2.11407
   2.43019  -0.95693   2.59291
   2.66961  -1.19635   2.35349
   2.43019  -0.95693   2.35349
   2.66961  -0.95693   2.59291
   2.66961  -0.95693   2.59291
   2.66961  -0.71751   2.83233
   2.66961  -0.71751   3.07175
   2.66961  -0.71751   3.31117
   2.43019  -0.95693   2.83233
   1.95135  -0.47809   3.31117
   1.71193  -1.19635   3.79001
   1.95135  -1.19635   3.79001
   2.19077  -0.95693   3.55059
   1.95135  -0.95693   3.79001
   1.71193  -0.71751   3.79001
   1.95135  -0.71751   3.31117
   1.23309  -0.71751   3.79001
   0.99367  -1.19635   3.79001
   0.51483  -0.47809   3.79001
   0.51483  -0.71751   3.55059
   0.51483  -0.95693   3.79001
   0.51483  -0.95693   3.31117
   0.03599  -0.23867   3.07175
  -0.20343  -0.23867   3.07175
   0.03599  -0.71751   2.83233
  -0.44285  -0.47809   2.83233
  -0.92169  -0.47809   2.11407
  -0.44285  -0.23867   2.11407
  -0.68227  -0.23867   1.63523
  -1.16111   0.24017   1.63523
  -1.40053  -0.23867   1.87465
  -1.16111   7.5E-40   0.91697
  -1.40053   0.24017   0.91697
  -1.87937   7.5E-40   1.15639
  -1.63995   7.5E-40   0.67755
  -1.63995   0.24017   0.19870
  -2.35821   7.5E-40   0.91697
  -2.35821   0.24017   0.43813
  -2.83705   0.24017   0.19870
  -2.59763   7.5E-40  -0.04072
  -3.07647   0.24017   0.19870
  -2.59763   0.24017   0.19870
  -3.07647   0.47959  -0.04072
  -3.31589   0.95843  -0.28014
  -2.83705   0.47959  -0.04072
  -2.83705   0.95843  -0.28014
  -2.83705   1.19785  -0.28014
  -2.59763   1.19785  -0.51956
  -2.11879   1.19785  -0.99840
  -2.35821   1.19785  -0.75898
  -2.59763   1.19785  -0.51956
  -2.35821   1.43727  -1.23782
  -2.59763   1.19785  -1.23782
  -2.59763   1.19785  -0.75898
  -1.87937   0.95843  -1.23782
  -2.11879   1.67669  -2.19550
  -2.35821   1.19785  -2.19550
  -2.11879   0.95843  -1.95608
  -2.11879   1.43727  -2.67434
  -1.87937   1.19785  -2.91376
  -1.87937   0.95843  -2.67434
  -1.63995   0.95843  -2.91376
  -1.63995   0.95843  -3.15318
  -1.87937   0.95843  -2.91376
  -1.63995   0.47959  -3.39260
  -1.87937   0.95843  -3.63202
  -2.11879   0.71901  -3.87144
  -2.35821   0.47959  -4.11086
  -1.87937   7.5E-40  -4.82912
  -2.35821   0.71901  -4.58970
  -2.11879   7.5E-40  -4.58970
  -2.11879   0.24017  -5.30796
  -2.11879   7.5E-40  -5.54738
  -2.59763   0.24017  -5.06854
  -2.59763   7.5E-40  -5.54738
  -2.59763   0.24017  -5.54738
  -2.59763   7.5E-40  -5.30796
  -2.59763   7.5E-40  -5.54738
  -2.35821   0.24017  -5.78680
  -2.35821   0.24017  -5.78680
  -2.35821   7.5E-40  -5.54738
  -1.63995   0.24017  -6.02622
  -1.63995   0.47959  -5.78680
  -1.63995   0.24017  -5.54738
  -1.63995   7.5E-40  -5.54738
  -1.16111   0.24017  -5.78680
  -1.16111   0.71901  -5.78680
  -0.44285   0.24017  -5.78680
  -0.44285   0.71901  -6.26564
  -0.68227   0.47959  -5.54738
  -0.20343   0.47959  -5.78680
  -0.20343   0.24017  -5.54738
  -0.44285   0.24017  -5.30796
   0.03599   0.24017  -5.06854
   0.51483   0.47959  -5.30796
   0.27541   0.24017  -5.06854
   0.27541  -0.23867  -4.58970
   0.51483  -0.47809  -4.82912
   0.03599  -0.23867  -4.82912
   0.27541   7.5E-40  -4.35028
   0.27541  -0.71751  -3.87144
   0.27541  -0.23867  -3.87144
   0.27541   0.24017  -3.87144
   0.27541  -0.23867  -3.15318
   0.27541  -0.47809  -2.91376
   0.27541  -0.23867  -3.15318
  -0.20343   0.24017  -2.91376
   0.03599   7.5E-40  -2.43492
   0.03599  -0.47809  -2.43492
  -0.68227   0.24017  -1.95608
  -0.44285   7.5E-40  -1.95608
  -0.68227  -0.23867  -1.71666
  -0.44285   7.5E-40  -1.23782
  -1.16111  -0.47809  -0.99840
  -1.16111  -0.23867  -1.23782
  -0.92169  -0.23867  -1.23782
  -0.68227  -0.71751  -0.28014
  -0.44285  -0.95693  -0.51956
  -0.44285  -0.23867  -0.75898
   0.03599  -0.95693  -0.75898
   0.27541  -1.19635  -0.28014
   0.75425  -1.19635  -0.75898
   0.51483  -0.71751  -0.51956
   0.99367  -1.19635  -0.51956
   0.51483  -1.43577  -0.51956
   0.75425  -0.95693  -0.51956
   0.51483  -0.95693  -0.51956
   1.23309  -1.19635  -0.99840
   1.23309  -1.19635  -1.47724
   0.51483  -0.71751  -1.23782
   0.75425  -1.19635  -1.71666
   0.75425  -0.71751  -1.95608
   0.51483  -0.95693  -1.95608
   0.27541  -0.47809  -1.95608
   0.75425  -0.71751  -1.95608
   0.75425  -0.23867  -2.19550
   0.03599  -0.23867  -1.95608
   0.03599  -0.95693  -1.95608
  -0.20343   7.5E-40  -2.67434
  -0.44285  -0.47809  -2.67434
  -0.44285  -0.71751  -2.43492
  -0.20343  -0.47809  -3.15318
  -0.68227  -0.23867  -3.15318
  -0.20343  -0.71751  -2.67434
  -0.20343  -0.71751  -2.67434
  -0.20343   7.5E-40  -2.91376
  -0.68227   0.24017  -2.91376
  -0.44285  -0.23867  -2.43492
  -0.44285  -0.23867  -2.91376
  -0.92169   0.24017  -2.19550
  -0.68227   7.5E-40  -2.43492
  -0.68227   0.71901  -2.67434
  -0.92169   0.24017  -2.43492
  -1.16111   0.47959  -1.95608
  -0.68227   7.5E-40  -1.47724
  -0.44285   0.24017  -1.71666
  -0.68227   7.5E-40  -0.75898
  -0.20343   7.5E-40  -0.99840
   0.03599   0.47959  -0.75898
   0.27541   7.5E-40  -0.28014
   0.27541  -0.23867  -0.04072
   0.51483   7.5E-40  -0.04072
   0.27541   7.5E-40   0.43813
   1.23309  -0.47809   0.43813
   1.23309  -0.71751   0.43813
   1.47251   0.24017   0.43813
   1.71193  -0.23867   0.91697
   1.95135  -0.23867   0.91697
   1.95135  -0.23867   0.67755
   1.47251   0.24017   0.67755
   1.71193  -0.23867   0.91697
   1.71193  -0.23867   0.91697
   1.71193  -0.47809   0.91697
   1.47251  -0.23867   0.91697
   1.47251   0.47959   0.43813
   1.23309   0.24017   0.19870
   1.47251  -0.23867   0.67755
   1.71193  -0.23867  -0.04072
   2.19077   0.24017  -0.51956
   2.19077   0.24017  -0.51956
   1.95135   0.24017  -0.75898
   2.43019   0.47959  -0.99840
   2.43019   0.47959  -1.47724
   2.90903   0.24017  -1.23782
   3.14845   0.24017  -1.47724
   2.43019   0.71901  -1.47724
   2.90903   0.47959  -1.23782
   3.62729   0.47959  -0.99840
   3.86671   7.5E-40  -0.75898
   3.14845   0.47959  -0.51956
   3.86671   0.47959  -0.51956
   4.34555   0.24017  -0.51956
   3.86671   7.5E-40  -0.04072
   3.86671  -0.23867   0.43813
   4.10613   7.5E-40   0.19870
   4.34555   0.24017   0.43813
   3.86671   0.24017   1.15639
   3.86671   0.47959   0.91697
   3.38787   0.24017   1.15639
   3.62729   0.71901   0.91697
   3.62729   7.5E-40   1.63523
   3.14845   7.5E-40   1.87465
   2.90903   0.71901   1.63523
   3.38787   0.24017   1.87465
   2.90903  -0.23867   2.11407
   1.95135   0.24017   2.11407
   2.19077   0.24017   2.11407
   2.19077   0.47959   1.87465
   1.47251   7.5E-40   2.11407
   0.75425   7.5E-40   2.59291
   0.75425  -0.23867   2.59291
   0.99367  -0.47809   1.87465
   0.03599  -0.23867   2.59291
  -0.44285  -0.23867   2.83233
  -0.68227   0.24017   1.63523
  -0.44285  -0.23867   1.87465
  -0.92169  -0.71751   2.35349
  -0.92169  -0.95693   1.87465
  -1.16111  -0.23867   1.63523
  -1.40053  -0.95693   2.11407
  -0.92169  -1.43577   2.11407
  -1.40053  -0.95693   2.11407
  -1.87937  -0.95693   2.35349
  -1.40053  -1.19635   2.11407
  -1.87937  -1.43577   2.83233
  -2.35821  -1.19635   2.59291
  -2.59763  -1.19635   2.59291
  -2.11879  -1.43577   2.59291
  -2.35821  -1.43577   3.07175
  -2.59763  -0.95693   3.07175
  -1.87937  -1.19635   3.07175
  -2.11879  -0.71751   3.07175
  -2.11879  -0.95693   4.02943
  -2.59763  -0.47809   4.02943
  -2.35821  -0.47809   3.79001
  -2.59763  -0.23867   3.79001
  -2.59763  -0.95693   4.26885
