********************************************************************************
              CENTRO DE INSTRUMENTACION Y REGISTRO SISMICO  A.C.

    Anaxagoras 814, Col. Narvarte, Benito Juarez, C.P. 03020 Mexico, D.F.
           Tels. 5687 45 42/ 5687 45  82             Fax. 5669 25 12
********************************************************************************
ARCHIVO ESTANDAR DE ACELERACION:
VERSION DEL FORMATO                    : 2.0
NOMBRE DEL ARCHIVO                     : AP6820080428000629
FECHA Y HORA DE CREACION               : 15/MAY/08, 11:06
REF. CATALOGO ACELEROGRAMAS, SMIS 1996 : REGISTRO No.     /PAG.


================================================================================
DATOS DE LA ESTACION:
NOMBRE DE LA ESTACION                  : JARDÍN DE NIÑOS "JUAN B. DE LA SALLE"
CLAVE DE LA ESTACION                   : AP68
LOCALIZACION DE LA ESTACION            : Del. Iztapalapa, Col. Santa María      
                                       : Purísima Atlazolpa,  entre Canal de    
                                       : Apatlaco y Ahuehuetes.                 
                                       :                                        
                                       : 
COORDENADAS DE LA ESTACION             : 19.3809 LAT. N
                                       : 99.1068 LONG. W
ALTITUD (msnm)                         : 2232
TIPO DE SUELO                          : Arcilloso, zona lago                
                                       :                           
                                       : 
INSTITUCION RESPONSABLE                : CIRES
                                       : 

================================================================================
DATOS DEL ACELEROGRAFO:
MODELO DEL ACELEROGRAFO                : RADESD
NUMERO DE SERIE DEL ACELEROGRAFO       : 255
NUMERO DE CANALES                      : 3
ORIENTACION C1-C6 (rumbo;orientacion)  : /N00E/+V/N90W
ORIENTACION C7-C12 (rumbo;orientacion) : 
VEL. DE MUESTREO, C1-C6 (muestras/s)   : /100/100/100
VEL. DE MUESTREO, C7-C12 (muestras/s)  : 
ESC. COMPLETA DE SENSORES, C1-C6, (g)  : /0.5/0.5/0.5
ESC. COMPLETA DE SENSORES, C7-C12, (g) : 
FREC. NAT. DE SENSORES, C1-C6, (Hz)    : /30/30/30
FREC. NAT. DE SENSORES, C7-C12, (Hz)   : 
AMORTIGUAMIENTO DE SENSORES, C1-C6     : /0.780/0.700/0.678
AMORTIGUAMIENTO DE SENSORES, C7-C12    : 
INTERVALO DE MUESTREO, C1-C6, (s)      : /0.01/0.01/0.01
INTERVALO DE MUESTREO, C7-C12, (s)     : 
UMBRAL DE DISPARO, C1-C6, (Gal)        : /3.83/7.18/7.18
UMBRAL DE DISPARO, C7-C12, (Gal)       : 
MEMORIA DE PREEVENTO (s)               : 56.0
TIEMPO DE POSEVENTO (s)                : 64.0


================================================================================
DATOS DEL SISMO:
FECHA DEL SISMO (GMT)                  : 28/ABR/08
HORA EPICENTRO (GMT)                   : 00:06:29.0
MAGNITUD(ES)                           : /Mc=5.6
COORDENADAS DEL EPICENTRO              : 18.05 LAT. N
                                       : 100.01 LONG. W
PROFUNDIDAD FOCAL (km)                 : 52
FUENTE DE LOS DATOS EPICENTRALES       : SSN
                                       : INSTITUTO DE GEOFISICA, UNAM

================================================================================
DATOS DE ESTE REGISTRO:
HORA DE LA PRIMERA MUESTRA (GMT)       : 00:07:25.00
EXACTITUD DEL TIEMPO (s)               : 0.01
DURACION DEL REGISTRO (s), C1-C6       : /130.0/130.0/130.0
DURACION DEL REGISTRO (s), C7-C12      : 
NUM. TOTAL DE MUESTRAS, C1-C6          : /13000/13000/13000
NUM. TOTAL DE MUESTRAS, C7-C12         : 
ACEL. MAX. (Gal), C1-C6                : /6.05693/3.13462/5.66345
ACEL. MAX., C1-C6, EN LA MUESTRA       : /6887/4384/7203
ACEL. MAX. (Gal), C7-C12               : 
ACEL. MAX., C7-C12, EN LA MUESTRA      : 
UNIDADES DE LOS DATOS                  : Gal (cm/s/s)
FACTOR DE DECIMACION                   : 1
FORMATO DATOS (FORTRAN,10 campos/dato) : 3F10.5


================================================================================
CALIDAD DEL ACELEROGRAMA:
REGISTRO DIGITAL COMPLETO CON TIEMPO ABSOLUTO CORRECTO.


================================================================================
COMENTARIOS:














================================================================================
DATOS DE ACELERACION:
---------+---------+---------+---------+---------+---------+---------+---------+
   CANAL-1   CANAL-2   CANAL-3   CANAL-4   CANAL-5   CANAL-6   CANAL-7   CANAL-8
      N00E        +V      N90W
---------+---------+---------+---------+---------+---------+---------+---------+
[...]
  -1.60452   0.45668  -2.71626
  -1.60452   0.45668  -2.23742
  -1.36510   0.45668  -1.51916
  -1.36510   0.21726  -1.75858
  -1.84394   0.45668  -1.27974
  -1.84394   0.21726  -0.56148
  -1.36510  -0.26158  -0.56148
  -1.84394  -0.26158  -0.08264
  -1.60452  -0.02216  -0.08264
  -1.84394  -0.26158   0.15678
  -1.84394  -0.26158   0.15678
  -2.32278  -0.50100   0.39620
  -2.56220  -0.50100   0.63562
  -1.84394  -0.97984   0.39620
  -1.60452  -0.97984   0.39620
  -1.60452  -0.97984  -0.08264
  -1.36510  -0.97984   0.15678
  -1.12568  -1.45868   0.39620
  -1.36510  -0.97984   0.15678
  -0.88626  -1.21926   0.39620
  -0.16800  -0.97984  -0.08264
   0.31084  -0.50100  -0.56148
  -0.16800  -0.02216  -0.08264
  -0.64684   0.21726  -0.08264
   0.07142  -0.26158  -0.32206
   0.31084  -0.02216  -0.08264
   0.31084  -0.02216   0.15678
   0.78968  -0.02216  -0.08264
   1.02910  -0.02216  -0.56148
   0.78968   0.45668  -0.32206
   0.55026   0.45668  -0.56148
   0.07142   0.45668  -0.80090
   0.07142   0.21726  -1.04032
  -0.16800  -0.02216  -1.27974
  -0.40742   0.21726  -1.51916
  -0.16800   0.21726  -1.75858
  -1.12568   0.21726  -1.51916
  -0.88626  -0.02216  -1.27974
  -1.12568  -0.50100  -1.75858
  -1.36510  -0.26158  -1.75858
  -1.60452  -0.26158  -1.51916
  -0.88626  -0.74042  -1.75858
  -1.60452  -0.74042  -1.75858
  -1.12568  -0.74042  -1.27974
  -1.12568  -0.97984  -1.27974
  -1.12568  -0.74042  -1.27974
  -1.36510  -0.97984  -1.27974
  -1.12568  -0.74042  -0.80090
  -0.64684  -0.97984  -0.56148
  -0.64684  -0.50100  -0.32206
  -0.88626  -0.26158   0.15678
  -0.40742  -0.26158   0.87504
  -0.64684   0.21726   0.87504
  -0.64684   0.21726   1.11446
  -0.40742   0.93553   1.11446
  -0.16800   0.69610   1.11446
  -0.16800   1.17495   0.87504
  -0.40742   0.93553   1.59330
   0.07142   0.93553   1.11446
  -0.40742   1.41437   1.11446
  -0.64684   1.41437   1.11446
  -0.40742   1.41437   0.87504
  -0.40742   1.41437   0.39620
   0.07142   0.93553   0.15678
  -0.40742   1.41437   0.39620
  -0.64684   1.17495  -0.08264
  -0.64684   0.45668  -0.08264
  -0.64684   0.45668  -0.32206
  -0.64684   0.21726   0.15678
  -0.64684   0.21726  -0.08264
  -0.40742  -0.26158   0.39620
  -0.40742   0.21726   0.15678
  -0.64684   0.21726   0.39620
  -0.64684  -0.02216   0.15678
  -1.12568  -0.26158   0.87504
  -1.60452  -0.26158   0.87504
  -0.88626  -0.26158   0.39620
  -1.12568  -0.50100   0.39620
  -0.88626  -0.50100   0.39620
  -0.64684  -0.74042   0.39620
  -0.64684  -0.26158   0.39620
  -0.64684  -0.26158   0.15678
  -0.40742  -0.26158   0.39620
   0.55026  -0.97984   0.39620
   0.78968  -0.74042   0.63562
   1.02910  -0.50100   0.87504
   1.74736  -0.50100   0.63562
   1.50794  -0.26158   0.87504
   1.98678   0.21726   0.63562
   2.22620  -0.02216   0.87504
   2.46562  -0.02216   1.11446
   2.70504  -0.26158   1.11446
   2.94446  -0.26158   1.11446
   3.18388  -0.26158   1.35388
   2.94446  -0.02216   1.35388
   3.18388  -0.26158   1.59330
   3.18388  -0.50100   1.83272
   3.66272  -0.50100   1.59330
   3.66272  -0.50100   1.59330
   3.90214  -0.26158   1.59330
   3.42330  -0.50100   1.35388
   3.42330  -0.26158   0.63562
   3.18388  -0.97984   0.87504
   2.94446  -0.74042   0.63562
   3.18388  -0.74042   0.39620
   3.18388  -0.50100  -0.08264
   2.46562  -0.50100  -0.08264
   1.98678  -0.26158  -0.32206
   1.74736  -0.26158  -0.32206
   1.26852  -0.02216  -0.08264
   0.78968   0.21726   0.15678
   0.55026   0.21726   0.15678
  -0.40742   0.45668   0.15678
  -0.88626   0.69610   0.15678
  -1.36510   0.45668  -0.32206
  -2.56220   0.93553  -0.32206
  -2.80162   0.69610  -0.32206
  -3.28046   0.45668  -0.08264
  -3.75930   0.69610  -0.08264
  -3.99872   0.45668   0.15678
  -4.47756   0.21726   0.15678
  -4.71698  -0.02216   0.15678
  -5.19582   0.21726   0.15678
  -5.43524   0.21726   0.39620
  -5.43524   0.21726   0.39620
  -5.19582  -0.02216   0.15678
  -4.71698  -0.02216   0.39620
  -4.23814  -0.02216   0.63562
  -3.99872   0.21726   0.39620
  -3.99872  -0.02216   0.63562
  -4.47756  -0.02216   0.87504
  -3.75930  -0.02216   0.87504
  -3.51988  -0.02216   1.35388
  -2.80162  -0.02216   1.59330
  -2.56220   0.21726   2.07214
  -2.56220   0.45668   2.07214
  -2.80162   0.21726   2.07214
  -2.80162   0.21726   2.55099
  -2.56220   0.21726   2.79041
  -1.84394  -0.50100   2.55099
  -1.84394  -0.02216   2.79041
  -1.36510   0.69610   2.07214
  -1.12568   0.45668   2.07214
  -1.12568   0.69610   1.83272
  -0.88626   0.21726   2.31156
  -0.40742   0.21726   2.07214
  -0.16800   0.21726   1.83272
   0.55026   0.21726   1.59330
   0.55026   0.21726   1.11446
   1.02910   0.45668   0.39620
   0.78968   0.45668   0.39620
   1.02910   0.45668  -0.08264
   1.74736   0.21726  -0.56148
   1.50794   0.21726  -0.32206
   1.74736   0.21726  -0.32206
   1.98678   0.21726  -0.32206
   2.70504  -0.26158  -0.56148
   2.46562  -0.02216  -0.08264
   2.70504  -0.50100   0.15678
   3.42330  -0.50100  -0.08264
   3.42330  -0.74042   0.15678
   4.14156  -0.50100   0.15678
   4.14156  -0.26158   0.39620
   4.38098  -0.26158   0.39620
   4.14156  -0.02216   0.15678
   3.90214  -0.26158   0.63562
   3.90214  -0.50100   0.39620
   3.42330   0.45668   0.15678
   3.66272  -0.02216   0.63562
   3.66272  -0.02216   0.63562
   3.18388  -0.02216   0.39620
   2.46562  -0.02216   0.39620
   2.22620  -0.26158   0.39620
   1.98678   0.21726   0.39620
   1.26852   0.45668  -0.32206
   1.02910  -0.02216  -0.08264
   0.31084  -0.26158   0.15678
   0.07142   0.21726  -0.56148
  -0.40742   0.45668  -0.56148
  -0.64684  -0.02216  -0.08264
  -1.12568   0.21726  -0.32206
  -1.84394   0.69610  -0.32206
  -2.32278   0.21726   0.15678
  -2.56220  -0.02216   0.15678
  -2.80162  -0.02216  -0.08264
  -3.04104  -0.02216   0.15678
  -3.28046  -0.02216   0.15678
  -3.75930   0.21726  -0.32206
  -3.99872   0.21726  -0.32206
  -4.47756  -0.02216   0.15678
  -4.47756  -0.02216  -0.08264
  -4.71698  -0.02216   0.39620
  -4.95640   0.21726   0.39620
  -5.19582   0.21726   0.63562
  -5.19582   0.21726   0.39620
  -5.43524   0.69610   0.39620
  -5.67466   0.69610   0.87504
  -4.95640   0.21726   0.87504
  -4.95640   0.69610   0.63562
  -4.71698   0.21726   0.87504
  -5.19582   0.45668   1.11446
  -4.71698  -0.02216   0.63562
  -4.47756   0.45668   0.15678
  -4.71698   0.45668   0.15678
  -3.99872   0.45668  -0.08264
  -3.99872   0.45668  -0.80090
  -3.51988   0.69610  -0.80090
  -3.28046   0.21726  -0.80090
  -2.80162   0.45668  -1.51916
  -2.56220   0.21726  -1.51916
  -2.32278   0.45668  -1.51916
  -1.84394   0.45668  -1.99800
  -1.36510   0.69610  -2.23742
  -1.12568   0.21726  -2.47684
  -1.12568   0.21726  -1.99800
  -0.88626  -0.26158  -1.99800
  -0.64684  -0.02216  -1.99800
  -0.88626  -0.26158  -1.27974
  -0.64684  -0.74042  -1.04032
   0.07142  -0.97984  -0.80090
  -0.40742  -0.97984   0.15678
  -0.40742  -1.45868   0.63562
   0.07142  -1.45868   0.39620
   0.07142  -1.69810   1.11446
   0.07142  -1.45868   1.35388
   0.31084  -1.69810   1.35388
   0.78968  -1.45868   1.59330
   1.02910  -1.69810   1.59330
   1.26852  -0.97984   1.83272
   1.50794  -0.74042   1.35388
   1.50794  -0.97984   1.35388
   1.50794  -0.74042   1.35388
   1.74736  -0.74042   0.87504
   1.50794  -0.74042   0.63562
   1.50794  -0.74042   0.15678
   1.50794  -0.50100  -0.32206
   1.26852  -0.74042  -0.56148
   0.78968   0.45668  -1.51916
   0.55026   0.21726  -1.51916
   0.55026   0.21726  -1.75858
   0.07142  -0.02216  -2.47684
  -0.64684   0.21726  -1.99800
  -1.12568  -0.02216  -1.99800
  -2.08336   0.93553  -2.23742
  -2.56220   1.17495  -2.47684
  -2.80162   1.41437  -2.23742
  -2.56220   0.93553  -2.23742
  -3.04104   1.41437  -2.71626
  -3.28046   1.41437  -2.71626
  -3.04104   1.17495  -2.47684
  -3.04104   1.65379  -2.95568
  -2.80162   1.65379  -2.23742
  -2.56220   1.65379  -1.75858
  -1.84394   1.89321  -1.51916
  -1.36510   2.13263  -2.23742
  -1.36510   2.13263  -1.75858
  -0.88626   2.13263  -1.51916
   0.07142   1.65379  -1.99800
   0.31084   1.17495  -1.75858
   0.55026   0.69610  -1.27974
   1.26852   0.45668  -1.27974
   1.74736   0.45668  -1.04032
   1.74736   0.69610  -0.56148
   1.98678   0.45668  -0.80090
   2.46562   0.21726  -0.80090
   2.46562  -0.02216  -0.56148
   2.22620   0.21726  -0.32206
   3.18388  -0.50100  -0.08264
   2.94446  -0.26158  -0.08264
   2.94446  -0.50100   0.15678
   3.42330  -0.74042   0.15678
   3.42330  -0.74042   0.15678
   3.42330  -0.74042   0.15678
   3.66272  -0.50100   0.39620
   4.14156  -0.97984   0.39620
   3.66272  -1.21926   0.39620
   3.66272  -1.69810   1.11446
   4.14156  -1.93752   0.87504
   3.66272  -2.17694   1.11446
   3.66272  -1.93752   1.11446
   3.42330  -1.93752   1.35388
   3.18388  -1.93752   1.11446
   3.18388  -1.93752   0.87504
   2.70504  -1.45868   0.39620
   2.46562  -1.45868   0.63562
   2.46562  -1.45868   0.39620
   2.22620  -0.97984   0.15678
   1.98678  -0.74042  -0.08264
   1.98678  -0.74042  -0.56148
   2.70504  -0.97984  -1.04032
   2.46562  -0.02216  -1.27974
   2.70504  -0.02216  -1.75858
   2.94446  -0.02216  -2.23742
   3.18388  -0.02216  -2.23742
   2.94446   0.45668  -2.95568
   2.94446   0.21726  -3.19510
   2.70504   0.21726  -3.19510
   2.70504   0.21726  -3.43452
   2.46562   0.21726  -3.43452
   2.22620  -0.02216  -3.19510
   2.22620  -0.02216  -2.95568
   1.74736   0.21726  -2.47684
   1.50794  -0.50100  -1.99800
   1.02910  -0.02216  -1.75858
   0.31084  -0.02216  -1.51916
   0.31084  -0.02216  -1.04032
   0.31084  -0.02216  -0.80090
   0.55026  -0.02216  -0.56148
   0.07142  -0.02216  -0.08264
  -0.40742   0.45668   0.15678
  -0.64684   0.21726   0.63562
  -1.12568   0.93553   1.35388
  -0.88626   0.69610   1.11446
  -1.12568   0.93553   1.35388
  -1.36510   0.93553   1.11446
  -1.36510   1.41437   1.11446
  -1.36510   1.17495   1.35388
  -1.12568   1.65379   1.11446
  -1.36510   1.89321   1.35388
  -1.84394   2.37205   1.35388
  -1.60452   2.13263   0.63562
  -2.08336   1.41437   1.11446
  -2.32278   0.93553   0.87504
  -2.56220   1.17495   0.87504
  -2.80162   1.41437   0.39620
  -2.80162   0.93553   0.39620
  -2.08336   0.93553   0.39620
  -2.08336   0.21726   0.15678
  -2.32278   0.21726  -0.08264
  -2.56220   0.45668  -0.08264
  -2.08336   0.21726  -0.56148
  -2.08336  -0.02216  -0.56148
  -1.12568  -0.74042  -0.56148
  -0.16800  -0.97984  -0.80090
   0.31084  -0.74042  -0.80090
   0.78968  -0.97984  -0.80090
   1.02910  -0.74042  -0.32206
   2.22620  -1.21926  -0.80090
   2.70504  -0.97984  -0.80090
   2.94446  -1.45868  -0.80090
   3.66272  -1.45868  -0.56148
   3.90214  -1.21926  -0.32206
   3.90214  -1.45868  -0.32206
   4.62040  -1.45868  -0.56148
   5.09924  -1.45868  -1.04032
   5.57808  -1.69810  -1.51916
   5.33866  -1.45868  -1.04032
   6.05693  -1.45868  -1.27974
   5.57808  -1.21926  -1.51916
   5.57808  -0.97984  -1.75858
   5.33866  -0.74042  -1.75858
   5.09924  -0.74042  -1.75858
   4.62040  -0.74042  -1.75858
   4.62040  -0.74042  -1.75858
   3.90214  -0.26158  -1.51916
   4.14156  -0.26158  -1.75858
   3.18388  -0.26158  -1.51916
   2.70504  -0.02216  -1.51916
   2.46562   0.45668  -1.04032
   2.46562  -0.02216  -1.04032
   2.22620   0.21726  -1.27974
   1.98678   0.69610  -1.04032
   1.26852   0.93553  -0.56148
   1.02910   1.17495  -0.32206
   1.02910   1.17495  -0.08264
   1.26852   0.93553  -0.32206
   1.26852   0.69610   0.39620
   0.55026   0.69610   0.39620
   0.55026   1.17495   0.39620
   0.55026   0.93553   0.39620
  -0.16800   1.17495   1.11446
  -0.16800   1.17495   0.87504
  -0.40742   0.93553   1.11446
  -1.12568   1.17495   1.59330
  -1.60452   1.17495   1.59330
  -1.60452   1.41437   1.11446
  -1.84394   0.93553   1.11446
  -2.56220   0.93553   1.35388
  -2.08336   0.45668   0.87504
  -2.56220   0.69610   0.87504
  -2.32278   0.45668   0.87504
  -2.32278   0.21726   0.87504
  -1.60452  -0.02216   0.63562
  -1.84394  -0.26158   0.87504
  -1.36510  -0.26158   0.87504
  -0.88626  -0.74042   0.63562
  -0.40742  -0.02216  -0.08264
  -0.16800  -0.50100   0.63562
   0.55026  -0.26158   0.15678
   1.50794  -0.74042   0.63562
   1.98678  -0.50100   0.63562
   2.22620  -1.21926   1.35388
   2.70504  -1.45868   1.59330
   2.94446  -1.45868   1.59330
   3.18388  -1.21926   1.59330
   3.66272  -1.69810   1.83272
   3.66272  -1.45868   1.59330
   3.66272  -1.45868   1.59330
   3.66272  -1.69810   1.83272
   3.90214  -1.93752   1.83272
   3.66272  -1.69810   1.11446
   3.66272  -1.93752   1.59330
   3.42330  -1.93752   1.35388
   3.42330  -1.69810   0.87504
   3.42330  -1.69810   0.87504
   3.42330  -1.69810   1.11446
   3.18388  -1.45868   0.63562
   2.94446  -1.21926   0.15678
   2.94446  -1.45868   0.63562
   2.94446  -1.45868   0.39620
   2.94446  -1.45868   0.39620
   2.22620  -1.21926   0.39620
   1.50794  -0.97984   0.39620
   1.26852  -1.21926   0.63562
   0.31084  -0.97984   1.11446
   0.07142  -1.21926   1.83272
  -0.40742  -1.21926   1.83272
  -0.16800  -0.97984   1.83272
  -1.12568  -0.74042   2.07214
  -1.60452  -0.74042   2.31156
  -1.60452  -0.26158   2.07214
  -1.84394   0.21726   2.31156
  -2.56220   0.21726   2.55099
  -2.80162   0.45668   2.55099
  -2.56220   0.45668   2.55099
  -3.04104   0.21726   2.55099
  -3.51988   0.21726   2.31156
  -3.75930   0.45668   1.83272
  -3.75930   0.69610   1.59330
  -3.99872   0.21726   1.35388
  -3.99872   0.45668   0.63562
  -4.23814   0.45668   0.39620
  -4.47756   0.45668   0.63562
  -4.47756   0.45668   0.63562
  -4.23814   0.45668   0.87504
  -4.23814   0.45668   0.63562
  -4.71698   0.45668   0.63562
  -4.23814   0.45668   0.87504
  -4.71698   0.93553   0.15678
  -4.47756   0.93553   0.39620
  -3.99872   0.93553   0.39620
  -3.99872   1.41437   0.15678
  -3.51988   1.17495   0.63562
  -3.75930   1.65379   0.87504
  -3.28046   1.17495   1.35388
  -3.04104   1.65379   0.87504
  -2.32278   1.41437   1.11446
  -2.08336   1.17495   1.59330
  -1.36510   0.93553   1.35388
  -0.64684   0.69610   1.11446
   0.07142   0.45668   1.11446
   0.31084   0.21726   0.87504
   1.26852  -0.02216   0.63562
   1.26852  -0.02216   0.63562
   1.74736  -0.50100   0.87504
   2.22620  -0.50100   0.63562
   2.46562  -0.02216  -0.08264
   2.46562   0.21726   0.63562
   2.94446  -0.50100  -0.08264
   2.70504  -0.26158   0.15678
   2.46562  -0.50100   0.15678
   1.98678  -0.02216   0.39620
   2.22620  -0.26158   0.39620
   1.74736  -0.02216  -0.08264
   2.22620  -0.26158  -0.32206
   1.98678  -0.26158  -0.32206
   1.50794  -0.26158  -0.56148
   0.78968  -0.02216  -0.08264
   0.55026  -0.26158   0.15678
   0.55026  -0.26158  -0.08264
   0.07142  -0.50100  -0.56148
  -0.88626  -0.26158  -0.56148
  -0.88626  -0.50100  -0.32206
  -0.88626  -0.50100  -0.80090
  -2.08336  -0.02216  -0.32206
  -1.84394  -0.50100   0.15678
  -2.32278  -0.26158   0.39620
  -2.80162  -0.50100   0.87504
  -2.56220  -0.74042   1.35388
  -3.04104  -0.74042   1.59330
  -2.80162  -0.97984   1.83272
  -3.51988  -0.74042   2.31156
  -3.75930  -0.02216   3.02983
  -3.75930  -0.26158   3.02983
  -3.75930  -0.02216   3.26925
  -3.75930  -0.26158   3.98751
  -3.75930  -0.50100   4.22693
  -3.51988  -0.02216   3.50867
  -3.99872   0.45668   3.26925
  -3.99872   0.45668   3.02983
  -3.99872   0.93553   2.07214
  -3.75930   0.93553   1.83272
  -4.23814   1.17495   2.07214
  -4.23814   1.17495   1.11446
  -3.99872   1.17495   0.63562
  -3.75930   1.41437   0.39620
