********************************************************************************
              CENTRO DE INSTRUMENTACION Y REGISTRO SISMICO  A.C.

    Anaxagoras 814, Col. Narvarte, Benito Juarez, C.P. 03020 Mexico, D.F.
           Tels. 5687 45 42/ 5687 45  82             Fax. 5669 25 12
********************************************************************************
ARCHIVO ESTANDAR DE ACELERACION:
VERSION DEL FORMATO                    : 2.0
NOMBRE DEL ARCHIVO                     : AU4620120411225510
FECHA Y HORA DE CREACION               : 15/MAY/12, 09:49
REF. CATALOGO ACELEROGRAMAS, SMIS 1996 : REGISTRO No.     /PAG.


================================================================================
DATOS DE LA ESTACION:
NOMBRE DE LA ESTACION                  : ESC. SEC. TÉC. NO. 14
CLAVE DE LA ESTACION                   : AU46
LOCALIZACION DE LA ESTACION            : Del. Benito Juárez, Col. del Valle,    
                                       : Entre Angel Urraza y Coyoacán.         
                                       :                                        
                                       :                                        
                                       : 
COORDENADAS DE LA ESTACION             : 19.3832 LAT. N
                                       : 99.1681 LONG. W
ALTITUD (msnm)                         : 2233
TIPO DE SUELO                          : Transición                          
                                       :                           
                                       : 
INSTITUCION RESPONSABLE                : CIRES
                                       : 

================================================================================
DATOS DEL ACELEROGRAFO:
MODELO DEL ACELEROGRAFO                : RADESD
NUMERO DE SERIE DEL ACELEROGRAFO       : 236
NUMERO DE CANALES                      : 3
ORIENTACION C1-C6 (rumbo;orientacion)  : /N00E/+V/N90W
ORIENTACION C7-C12 (rumbo;orientacion) : 
VEL. DE MUESTREO, C1-C6 (muestras/s)   : /100/100/100
VEL. DE MUESTREO, C7-C12 (muestras/s)  : 
ESC. COMPLETA DE SENSORES, C1-C6, (g)  : /0.5/0.5/0.5
ESC. COMPLETA DE SENSORES, C7-C12, (g) : 
FREC. NAT. DE SENSORES, C1-C6, (Hz)    : /33/30/30
FREC. NAT. DE SENSORES, C7-C12, (Hz)   : 
AMORTIGUAMIENTO DE SENSORES, C1-C6     : /0.735/0.733/0.730
AMORTIGUAMIENTO DE SENSORES, C7-C12    : 
INTERVALO DE MUESTREO, C1-C6, (s)      : /0.01/0.01/0.01
INTERVALO DE MUESTREO, C7-C12, (s)     : 
UMBRAL DE DISPARO, C1-C6, (Gal)        : /1.68/4.31/1.92
UMBRAL DE DISPARO, C7-C12, (Gal)       : 
MEMORIA DE PREEVENTO (s)               : 56.0
TIEMPO DE POSEVENTO (s)                : 64.0


================================================================================
DATOS DEL SISMO:
FECHA DEL SISMO (GMT)                  : 11/ABR/12
HORA EPICENTRO (GMT)                   : 22:55:10.0
MAGNITUD(ES)                           : /Mc=6.4
COORDENADAS DEL EPICENTRO              : 17.90 LAT. N
                                       : 103.06 LONG. W
PROFUNDIDAD FOCAL (km)                 : 16
FUENTE DE LOS DATOS EPICENTRALES       : SSN
                                       : INSTITUTO DE GEOFISICA, UNAM

================================================================================
DATOS DE ESTE REGISTRO:
HORA DE LA PRIMERA MUESTRA (GMT)       : 22:57:14.00
EXACTITUD DEL TIEMPO (s)               : 0.01
DURACION DEL REGISTRO (s), C1-C6       : /153.5/153.5/153.5
DURACION DEL REGISTRO (s), C7-C12      : 
NUM. TOTAL DE MUESTRAS, C1-C6          : /15350/15350/15350
NUM. TOTAL DE MUESTRAS, C7-C12         : 
ACEL. MAX. (Gal), C1-C6                : /4.01264/1.06607/3.4632
ACEL. MAX., C1-C6, EN LA MUESTRA       : /5709/6834/6441
ACEL. MAX. (Gal), C7-C12               : 
ACEL. MAX., C7-C12, EN LA MUESTRA      : 
UNIDADES DE LOS DATOS                  : Gal (cm/s/s)
FACTOR DE DECIMACION                   : 1
FORMATO DATOS (FORTRAN,10 campos/dato) : 3F10.5


================================================================================
CALIDAD DEL ACELEROGRAMA:
REGISTRO DIGITAL COMPLETO CON TIEMPO ABSOLUTO CORRECTO.


================================================================================
COMENTARIOS:














================================================================================
DATOS DE ACELERACION:
---------+---------+---------+---------+---------+---------+---------+---------+
   CANAL-1   CANAL-2   CANAL-3   CANAL-4   CANAL-5   CANAL-6   CANAL-7   CANAL-8
      N00E        +V      N90W
---------+---------+---------+---------+---------+---------+---------+---------+
[...]
  -1.25461   0.84929  -0.11132
  -1.01519   0.60987  -0.11132
  -1.01519   0.84929  -0.35074
  -0.77577   0.84929  -0.35074
  -0.53635   0.84929  -0.35074
  -0.77577   0.84929  -0.35074
  -0.53635   0.84929  -0.82958
  -0.53635   0.60987  -0.82958
  -0.29693   0.60987  -0.82958
  -0.05751   0.60987  -1.06900
  -0.05751   0.60987  -1.30842
  -0.05751   0.37045  -1.30842
  -0.05751   0.60987  -1.78726
  -0.05751   0.37045  -1.78726
  -0.05751   0.60987  -1.78726
   0.42133   0.37045  -2.02668
   0.42133   0.60987  -2.02668
   0.42133   0.37045  -2.26610
   0.66075   0.37045  -2.02668
   0.66075   0.37045  -2.02668
   0.90017   0.37045  -2.26610
   0.90017   0.37045  -2.26610
   0.90017   0.37045  -2.26610
   0.66075   0.37045  -2.26610
   0.90017   0.37045  -2.02668
   0.90017   0.60987  -1.78726
   1.13959   0.60987  -2.26610
   0.90017   0.60987  -2.02668
   0.90017   0.60987  -2.02668
   1.13959   0.37045  -2.26610
   0.90017   0.60987  -2.26610
   1.13959   0.37045  -2.02668
   0.90017   0.13103  -2.02668
   0.90017   0.13103  -2.02668
   1.13959   0.13103  -2.02668
   1.13959   0.13103  -1.78726
   0.90017   0.13103  -1.78726
   0.90017  -0.10839  -1.78726
   0.66075  -0.10839  -1.54784
   0.66075  -0.10839  -1.78726
   0.90017  -0.10839  -1.78726
   0.42133  -0.10839  -1.54784
   0.66075  -0.34781  -1.54784
   0.42133   0.13103  -1.30842
   0.42133  -0.10839  -1.30842
   0.42133  -0.34781  -1.30842
   0.66075  -0.10839  -1.30842
   0.90017  -0.10839  -0.82958
   0.90017  -0.10839  -0.82958
   0.66075   0.13103  -0.59016
   0.66075   0.13103  -0.82958
   0.90017  -0.10839  -0.59016
   0.66075   0.13103  -0.35074
   0.90017   0.37045  -0.35074
   0.66075   0.37045  -0.11132
   0.42133   0.13103   0.12810
   0.66075   0.37045   0.12810
   0.90017   0.13103   0.12810
   0.66075   0.37045   0.36752
   0.66075   0.37045   0.60694
   0.66075   0.84929   0.60694
   0.90017   0.37045   0.60694
   1.13959   0.60987   0.84636
   0.66075   0.60987   0.84636
   0.90017   0.60987   0.84636
   0.66075   0.37045   1.08578
   0.66075   0.60987   1.08578
   0.90017   0.37045   1.08578
   1.13959   0.37045   1.08578
   0.90017   0.37045   1.32520
   0.90017   0.37045   1.32520
   0.90017   0.37045   1.08578
   0.90017   0.37045   1.32520
   1.13959   0.13103   1.08578
   0.90017   0.13103   1.08578
   1.13959   0.13103   1.08578
   0.90017   0.37045   0.84636
   0.90017   0.13103   1.08578
   0.90017   0.13103   1.08578
   0.90017   0.37045   1.08578
   0.90017   0.13103   0.84636
   1.13959   0.13103   1.08578
   0.90017  -0.10839   1.32520
   0.90017  -0.10839   1.08578
   0.90017  -0.10839   0.84636
   0.66075   0.13103   0.84636
   0.90017   0.13103   0.60694
   0.90017   0.13103   0.60694
   0.90017   0.13103   0.36752
   0.90017   0.13103   0.36752
   0.90017   0.13103   0.36752
   0.66075  -0.10839   0.12810
   0.66075   0.13103   0.12810
   0.66075   0.13103  -0.11132
   0.66075   0.13103  -0.11132
   0.90017   0.13103   0.12810
   0.66075   0.13103  -0.11132
   0.66075   0.13103  -0.35074
   0.66075   0.13103  -0.59016
   0.66075   0.13103  -0.35074
   0.42133  -0.10839  -0.35074
   0.66075   0.13103  -0.59016
   0.66075   0.13103  -0.59016
   0.42133   0.13103  -1.06900
   0.42133   0.13103  -0.82958
   0.42133  -0.10839  -0.82958
   0.42133  -0.34781  -0.82958
   0.42133  -0.10839  -1.06900
   0.42133  -0.10839  -1.30842
   0.42133  -0.34781  -1.54784
   0.42133  -0.10839  -1.30842
   0.18191  -0.34781  -1.54784
  -0.05751  -0.34781  -1.30842
  -0.05751  -0.58723  -1.54784
   0.18191  -0.82665  -1.54784
   0.18191  -0.82665  -1.54784
  -0.05751  -0.58723  -1.54784
  -0.05751  -0.34781  -1.54784
  -0.29693  -0.58723  -1.54784
  -0.05751  -0.58723  -1.54784
  -0.29693  -0.58723  -1.78726
  -0.53635  -0.58723  -1.78726
  -0.53635  -0.58723  -2.02668
  -0.77577  -0.58723  -1.54784
  -0.53635  -0.34781  -1.54784
  -0.53635  -0.34781  -1.54784
  -0.53635  -0.34781  -1.30842
  -0.77577  -0.10839  -1.30842
  -0.77577  -0.58723  -1.30842
  -1.01519  -0.58723  -0.82958
  -0.77577  -0.34781  -0.82958
  -0.77577  -0.10839  -1.06900
  -1.01519  -0.10839  -0.59016
  -1.01519  -0.34781  -0.82958
  -1.25461  -0.10839  -0.59016
  -1.01519  -0.34781  -0.35074
  -1.01519  -0.58723  -0.11132
  -1.01519  -0.34781  -0.11132
  -1.01519  -0.58723   0.12810
  -1.25461  -0.34781   0.36752
  -1.25461  -0.34781   0.36752
  -1.25461  -0.34781   0.36752
  -1.25461  -0.58723   0.60694
  -1.25461  -0.58723   1.08578
  -1.01519  -0.58723   0.84636
  -1.01519  -0.58723   1.08578
  -1.01519  -0.58723   1.32520
  -0.77577  -0.34781   0.84636
  -0.77577  -0.34781   1.08578
  -0.77577  -0.58723   0.84636
  -1.01519  -0.34781   1.08578
  -0.77577  -0.58723   1.08578
  -0.77577  -0.58723   1.56462
  -0.53635  -0.58723   1.32520
  -0.53635  -0.10839   1.32520
  -0.53635  -0.34781   1.32520
  -0.53635  -0.34781   1.08578
  -0.53635  -0.34781   1.08578
  -0.29693  -0.34781   1.08578
  -0.29693  -0.10839   1.32520
  -0.29693  -0.34781   1.08578
  -0.05751  -0.10839   1.08578
  -0.05751  -0.34781   1.08578
  -0.05751  -0.34781   1.32520
  -0.05751  -0.10839   1.32520
   0.18191  -0.10839   1.56462
   0.42133  -0.34781   1.08578
   0.18191   0.13103   1.08578
   0.18191  -0.10839   1.08578
   0.42133  -0.10839   1.08578
   0.42133  -0.34781   1.08578
   0.66075  -0.10839   0.84636
   0.66075  -0.34781   1.08578
   0.90017  -0.34781   1.08578
   0.66075  -0.34781   1.08578
   0.90017  -0.34781   0.84636
   0.66075  -0.10839   0.84636
   0.66075  -0.10839   0.84636
   0.90017  -0.10839   0.84636
   1.13959  -0.10839   1.08578
   1.13959  -0.34781   1.08578
   0.90017  -0.10839   0.84636
   0.90017  -0.10839   0.60694
   0.90017  -0.34781   0.60694
   1.13959  -0.34781   0.60694
   1.13959  -0.10839   0.84636
   1.13959  -0.10839   0.60694
   0.90017  -0.34781   0.84636
   0.90017  -0.34781   0.60694
   1.13959  -0.58723   0.60694
   0.90017  -0.10839   0.36752
   0.66075  -0.34781   0.36752
   0.42133  -0.34781   0.84636
   0.42133  -0.34781   0.84636
   0.42133  -0.10839   0.36752
   0.42133  -0.10839   0.12810
   0.18191  -0.10839   0.60694
  -0.05751  -0.10839   0.60694
  -0.05751  -0.10839   0.60694
  -0.29693  -0.10839   0.84636
  -0.29693  -0.10839   0.84636
  -0.53635  -0.10839   0.84636
  -0.53635  -0.10839   0.60694
  -0.77577  -0.10839   0.84636
  -1.01519   0.13103   0.84636
  -1.01519  -0.10839   0.84636
  -1.49403  -0.10839   1.08578
  -1.49403   0.13103   0.84636
  -1.73345  -0.10839   0.84636
  -1.73345  -0.10839   0.84636
  -1.97287   0.13103   0.84636
  -1.97287   0.13103   0.60694
  -2.21229   0.13103   0.84636
  -2.21229   0.37045   0.60694
  -2.21229   0.37045   0.60694
  -2.45171   0.37045   0.36752
  -2.45171   0.13103   0.36752
  -2.69113   0.60987   0.36752
  -2.69113   0.13103   0.12810
  -2.45171   0.37045   0.12810
  -2.69113   0.13103  -0.11132
  -2.69113   0.37045  -0.11132
  -2.69113   0.13103  -0.35074
  -2.45171   0.13103   0.12810
  -2.45171   0.37045  -0.35074
  -2.69113  -0.10839  -0.59016
  -2.21229   0.37045  -0.59016
  -2.21229   0.13103  -0.59016
  -2.21229   0.37045  -0.82958
  -1.97287   0.13103  -0.82958
  -1.97287   0.37045  -0.82958
  -1.97287   0.37045  -1.06900
  -1.73345   0.13103  -1.30842
  -1.49403   0.13103  -1.06900
  -1.25461   0.13103  -0.82958
  -1.01519   0.37045  -0.82958
  -0.53635   0.37045  -0.82958
  -1.01519   0.13103  -0.82958
  -0.53635   0.37045  -1.06900
  -0.29693   0.37045  -0.82958
  -0.05751   0.37045  -0.82958
  -0.05751   0.60987  -1.06900
   0.18191   0.60987  -0.82958
   0.18191   0.37045  -0.82958
   0.18191   0.37045  -0.82958
   0.42133   0.60987  -0.82958
   0.42133   0.37045  -0.82958
   0.42133   0.13103  -0.59016
   0.66075   0.37045  -0.59016
   0.90017   0.13103  -0.35074
   0.66075   0.37045  -0.59016
   0.90017   0.37045  -0.35074
   0.90017   0.37045  -0.11132
   0.90017   0.13103   0.12810
   0.90017   0.13103   0.12810
   0.90017   0.13103   0.12810
   1.13959   0.13103   0.12810
   1.37901   0.37045   0.12810
   1.13959   0.37045   0.12810
   0.90017   0.37045   0.36752
   0.90017   0.37045   0.36752
   0.90017   0.13103   0.84636
   1.13959   0.13103   0.84636
   0.90017   0.37045   0.60694
   0.90017   0.60987   0.84636
   0.66075   0.37045   0.84636
   0.90017   0.60987   1.08578
   0.90017   0.37045   0.84636
   0.66075   0.60987   0.84636
   0.42133   0.60987   1.08578
   0.42133   0.37045   1.08578
   0.42133   0.37045   1.32520
   0.18191   0.37045   1.32520
   0.18191   0.37045   1.08578
  -0.05751   0.37045   1.08578
   0.18191   0.37045   1.08578
  -0.05751   0.37045   1.08578
  -0.05751   0.60987   1.32520
  -0.05751   0.60987   1.08578
  -0.53635   0.60987   1.08578
  -0.53635   0.37045   1.08578
  -0.53635   0.37045   0.84636
  -0.77577   0.60987   0.84636
  -0.77577   0.60987   0.84636
  -0.77577   0.37045   0.84636
  -1.01519   0.60987   0.60694
  -1.01519   0.60987   0.60694
  -1.49403   0.60987   0.60694
  -1.25461   0.60987   0.60694
  -1.49403   0.60987   0.60694
  -1.49403   0.60987   0.60694
  -1.49403   0.60987   0.36752
  -1.73345   0.84929   0.36752
  -1.73345   0.60987   0.36752
  -1.73345   0.60987   0.60694
  -1.97287   0.60987   0.12810
  -1.97287   0.60987   0.12810
  -2.21229   0.37045   0.12810
  -2.21229   0.60987   0.36752
  -1.97287   0.37045  -0.11132
  -1.73345   0.37045  -0.35074
  -1.97287   0.60987  -0.11132
  -1.73345   0.60987  -0.35074
  -1.97287   0.60987  -0.35074
  -1.97287   0.37045  -0.35074
  -1.73345   0.60987  -0.59016
  -1.73345   0.60987  -0.59016
  -1.49403   0.37045  -0.59016
  -1.49403   0.37045  -0.82958
  -1.25461   0.60987  -0.82958
  -1.49403   0.37045  -0.82958
  -1.01519   0.37045  -0.82958
  -1.01519   0.13103  -0.59016
  -0.77577   0.13103  -1.06900
  -0.53635   0.13103  -1.06900
  -0.53635   0.37045  -1.54784
  -0.29693  -0.10839  -1.54784
  -0.05751   0.13103  -1.30842
   0.18191  -0.10839  -1.54784
   0.42133  -0.10839  -1.54784
   0.42133  -0.10839  -1.54784
   0.90017  -0.34781  -1.54784
   1.13959  -0.34781  -1.78726
   1.13959  -0.34781  -1.78726
   1.61843  -0.10839  -2.02668
   1.61843  -0.10839  -2.02668
   1.61843  -0.10839  -1.78726
   1.85785  -0.10839  -2.02668
   2.09727   0.13103  -1.78726
   2.33669  -0.10839  -2.26610
   2.33669  -0.10839  -2.26610
   2.57611   0.13103  -2.26610
   2.81553  -0.10839  -2.26610
   2.81553  -0.10839  -2.02668
   3.05495  -0.10839  -2.02668
   3.29437  -0.10839  -2.02668
   3.29437  -0.34781  -2.02668
   3.53379  -0.34781  -1.78726
   3.53379  -0.34781  -1.78726
   3.53379  -0.34781  -1.54784
   3.77322  -0.58723  -2.02668
   3.77322  -0.58723  -1.78726
   3.77322  -0.58723  -1.78726
   3.77322  -0.34781  -1.78726
   3.77322  -0.34781  -1.78726
   3.77322  -0.34781  -1.54784
   4.01264  -0.58723  -1.54784
   4.01264  -0.10839  -1.54784
   4.01264  -0.34781  -1.30842
   4.01264  -0.34781  -1.30842
   4.01264  -0.34781  -1.30842
   3.77322  -0.34781  -1.06900
   3.77322  -0.34781  -1.06900
   3.77322  -0.10839  -1.06900
   3.77322  -0.10839  -1.06900
   3.77322   0.13103  -0.59016
   3.77322   0.13103  -0.35074
   3.53379   0.13103  -0.35074
   3.29437   0.13103  -0.35074
   3.29437  -0.10839  -0.59016
   3.05495  -0.10839  -0.35074
   3.05495   0.13103  -0.35074
   2.81553   0.37045  -0.35074
   2.57611   0.37045  -0.11132
   2.33669  -0.10839  -0.11132
   2.09727  -0.10839  -0.11132
   2.09727  -0.10839   0.12810
   1.85785  -0.10839   0.12810
   1.37901  -0.34781   0.36752
   1.37901  -0.34781   0.36752
   1.13959  -0.34781   0.36752
   0.66075  -0.34781   0.60694
   0.42133  -0.34781   0.36752
  -0.05751  -0.58723   0.84636
  -0.29693  -0.34781   0.60694
  -0.53635  -0.58723   0.60694
  -0.77577  -0.10839   0.84636
  -1.01519  -0.58723   0.60694
  -1.25461  -0.34781   0.84636
  -1.49403  -0.34781   0.60694
  -1.73345  -0.34781   0.60694
  -1.97287  -0.34781   0.60694
  -2.21229  -0.34781   0.84636
  -2.21229  -0.34781   0.84636
  -2.45171  -0.34781   0.84636
  -2.93055  -0.34781   0.60694
  -2.93055  -0.34781   0.36752
  -3.40939  -0.34781   0.36752
  -3.16997  -0.34781   0.36752
  -3.16997  -0.34781   0.36752
  -3.40939  -0.34781   0.36752
  -3.40939  -0.58723   0.12810
  -3.64881  -0.34781   0.12810
  -3.64881  -0.58723  -0.11132
  -3.64881  -0.58723  -0.35074
  -3.64881  -0.34781  -0.35074
  -3.40939  -0.58723  -0.35074
  -3.16997  -0.58723  -0.35074
  -3.16997  -0.58723  -0.59016
  -2.93055  -0.58723  -0.59016
  -2.93055  -0.82665  -0.59016
  -2.93055  -0.58723  -0.82958
  -2.45171  -0.58723  -0.82958
  -2.45171  -0.58723  -0.82958
  -2.21229  -0.58723  -1.06900
  -2.21229  -0.58723  -0.82958
  -1.97287  -0.82665  -0.59016
  -1.73345  -0.82665  -0.82958
  -1.49403  -0.58723  -0.59016
  -1.49403  -0.58723  -0.82958
  -1.25461  -0.34781  -0.82958
  -0.77577  -0.34781  -0.59016
  -0.53635  -0.34781  -0.82958
  -0.53635  -0.10839  -1.06900
  -0.29693  -0.10839  -0.82958
  -0.29693  -0.34781  -0.82958
  -0.05751  -0.10839  -0.59016
   0.18191  -0.10839  -0.59016
   0.66075  -0.10839  -0.59016
   0.66075  -0.10839  -0.35074
   0.90017  -0.10839  -0.35074
   1.13959  -0.10839  -0.35074
   1.13959   0.13103   0.12810
   1.61843   0.13103   0.12810
   1.37901   0.13103   0.12810
   1.61843   0.13103   0.36752
   1.85785   0.13103   0.12810
   1.85785   0.13103   0.36752
   1.85785   0.13103   0.60694
   2.09727  -0.10839   0.84636
   2.09727   0.13103   0.84636
   2.09727  -0.10839   0.84636
   2.09727   0.13103   0.84636
   2.09727   0.37045   1.32520
   2.33669  -0.10839   1.08578
   2.09727   0.13103   1.32520
   2.09727  -0.10839   1.32520
   1.85785  -0.10839   1.56462
   1.85785   0.13103   1.80404
   1.85785  -0.10839   1.56462
   1.61843   0.13103   2.04346
   1.61843  -0.10839   1.80404
   1.37901  -0.34781   1.80404
   1.13959  -0.34781   1.80404
   0.66075  -0.34781   2.04346
   0.42133  -0.10839   2.04346
   0.42133  -0.10839   2.04346
   0.18191  -0.10839   2.04346
  -0.05751  -0.34781   2.04346
  -0.29693  -0.34781   1.80404
  -0.29693  -0.34781   1.80404
  -1.25461  -0.34781   2.04346
  -1.25461  -0.58723   2.04346
  -1.49403  -0.82665   2.04346
  -1.73345  -0.58723   2.04346
  -1.97287  -0.58723   1.56462
  -2.21229  -0.34781   1.80404
  -2.69113  -0.82665   1.80404
  -2.93055  -0.82665   2.04346
  -2.93055  -0.58723   1.80404
  -2.93055  -0.34781   1.80404
  -2.93055  -0.58723   1.32520
  -3.40939  -0.34781   1.32520
  -3.40939  -0.34781   1.32520
  -3.40939  -0.34781   1.32520
  -3.64881  -0.34781   1.32520
  -3.64881  -0.34781   1.56462
  -3.40939  -0.34781   1.32520
  -3.40939  -0.34781   1.08578
  -3.40939  -0.10839   1.08578
  -3.16997  -0.34781   1.08578
  -3.40939  -0.34781   0.84636
  -3.16997  -0.34781   0.60694
  -3.16997  -0.34781   0.84636
  -2.93055  -0.58723   1.08578
  -2.93055  -0.58723   0.84636
  -2.93055  -0.34781   0.60694
  -2.69113  -0.34781   0.60694
  -2.69113  -0.10839   0.60694
  -2.69113  -0.10839   0.60694
  -2.45171  -0.58723   0.84636
  -2.21229  -0.10839   0.60694
  -1.73345  -0.10839   0.60694
  -1.73345  -0.10839   0.36752
  -1.49403  -0.10839   0.36752
  -1.49403   0.13103   0.36752
  -1.25461  -0.10839   0.12810
  -1.49403  -0.10839   0.60694
  -1.01519  -0.10839   0.36752
  -1.01519   0.37045   0.60694
  -0.77577   0.37045   0.60694
  -0.53635   0.60987   0.36752
  -0.29693   0.60987   0.12810
  -0.29693   0.37045  -0.11132
  -0.29693   0.60987  -0.11132
  -0.05751   0.60987  -0.35074
