********************************************************************************
              CENTRO DE INSTRUMENTACION Y REGISTRO SISMICO  A.C.

    Anaxagoras 814, Col. Narvarte, Benito Juarez, C.P. 03020 Mexico, D.F.
           Tels. 5687 45 42/ 5687 45  82             Fax. 5669 25 12
********************************************************************************
ARCHIVO ESTANDAR DE ACELERACION:
VERSION DEL FORMATO                    : 2.0
NOMBRE DEL ARCHIVO                     : AU4620120320180250
FECHA Y HORA DE CREACION               : 04/ABR/12, 11:14
REF. CATALOGO ACELEROGRAMAS, SMIS 1996 : REGISTRO No.     /PAG.


================================================================================
DATOS DE LA ESTACION:
NOMBRE DE LA ESTACION                  : ESC. SEC. TÉC. NO. 14
CLAVE DE LA ESTACION                   : AU46
LOCALIZACION DE LA ESTACION            : Del. Benito Juárez, Col. del Valle,    
                                       : Entre Angel Urraza y Coyoacán.         
                                       :                                        
                                       :                                        
                                       : 
COORDENADAS DE LA ESTACION             : 19.3832 LAT. N
                                       : 99.1681 LONG. W
ALTITUD (msnm)                         : 2233
TIPO DE SUELO                          : Transición                          
                                       :                           
                                       : 
INSTITUCION RESPONSABLE                : CIRES
                                       : 

================================================================================
DATOS DEL ACELEROGRAFO:
MODELO DEL ACELEROGRAFO                : RADESD
NUMERO DE SERIE DEL ACELEROGRAFO       : 236
NUMERO DE CANALES                      : 3
ORIENTACION C1-C6 (rumbo;orientacion)  : /N00E/+V/N90W
ORIENTACION C7-C12 (rumbo;orientacion) : 
VEL. DE MUESTREO, C1-C6 (muestras/s)   : /100/100/100
VEL. DE MUESTREO, C7-C12 (muestras/s)  : 
ESC. COMPLETA DE SENSORES, C1-C6, (g)  : /0.5/0.5/0.5
ESC. COMPLETA DE SENSORES, C7-C12, (g) : 
FREC. NAT. DE SENSORES, C1-C6, (Hz)    : /33/30/30
FREC. NAT. DE SENSORES, C7-C12, (Hz)   : 
AMORTIGUAMIENTO DE SENSORES, C1-C6     : /0.735/0.733/0.730
AMORTIGUAMIENTO DE SENSORES, C7-C12    : 
INTERVALO DE MUESTREO, C1-C6, (s)      : /0.01/0.01/0.01
INTERVALO DE MUESTREO, C7-C12, (s)     : 
UMBRAL DE DISPARO, C1-C6, (Gal)        : /1.68/4.31/1.92
UMBRAL DE DISPARO, C7-C12, (Gal)       : 
MEMORIA DE PREEVENTO (s)               : 56.0
TIEMPO DE POSEVENTO (s)                : 64.0


================================================================================
DATOS DEL SISMO:
FECHA DEL SISMO (GMT)                  : 20/MAR/12
HORA EPICENTRO (GMT)                   : 18:02:50.0
MAGNITUD(ES)                           : /Mc=7.4
COORDENADAS DEL EPICENTRO              : 16.42 LAT. N
                                       : 98.36 LONG. W
PROFUNDIDAD FOCAL (km)                 : 15
FUENTE DE LOS DATOS EPICENTRALES       : SSN
                                       : INSTITUTO DE GEOFISICA, UNAM

================================================================================
DATOS DE ESTE REGISTRO:
HORA DE LA PRIMERA MUESTRA (GMT)       : 18:03:53.00
EXACTITUD DEL TIEMPO (s)               : 0.01
DURACION DEL REGISTRO (s), C1-C6       : /290.0/290.0/290.0
DURACION DEL REGISTRO (s), C7-C12      : 
NUM. TOTAL DE MUESTRAS, C1-C6          : /29000/29000/29000
NUM. TOTAL DE MUESTRAS, C7-C12         : 
ACEL. MAX. (Gal), C1-C6                : /16.30768/6.19563/25.56988
ACEL. MAX., C1-C6, EN LA MUESTRA       : /9309/8710/9474
ACEL. MAX. (Gal), C7-C12               : 
ACEL. MAX., C7-C12, EN LA MUESTRA      : 
UNIDADES DE LOS DATOS                  : Gal (cm/s/s)
FACTOR DE DECIMACION                   : 1
FORMATO DATOS (FORTRAN,10 campos/dato) : 3F10.5


================================================================================
CALIDAD DEL ACELEROGRAMA:
REGISTRO DIGITAL COMPLETO CON TIEMPO ABSOLUTO CORRECTO.


================================================================================
COMENTARIOS:














================================================================================
DATOS DE ACELERACION:
---------+---------+---------+---------+---------+---------+---------+---------+
   CANAL-1   CANAL-2   CANAL-3   CANAL-4   CANAL-5   CANAL-6   CANAL-7   CANAL-8
      N00E        +V      N90W
---------+---------+---------+---------+---------+---------+---------+---------+
[...]
  11.27985   0.26871  13.12004
  11.75869   0.26871  14.07772
  12.23753   0.02929  15.27482
  12.71637   0.02929  15.99308
  12.95579   0.02929  16.47192
  13.19521  -0.21013  17.19018
  13.43463  -0.21013  17.90844
  13.67405  -0.21013  18.62670
  13.43463   0.26871  19.10554
  13.67405   0.50813  19.58438
  13.91347   0.74755  20.06322
  13.91347   0.74755  20.78148
  13.91347   1.46581  21.02090
  14.15289   1.70523  21.26032
  14.39231   2.18407  21.73916
  14.39231   2.42349  21.73916
  14.39231   2.66291  21.73916
  14.39231   2.90233  21.49974
  14.15289   3.14175  21.26032
  13.91347   3.14175  20.78148
  13.43463   3.62059  20.30264
  12.71637   3.38117  19.34496
  11.99811   3.38117  18.62670
  11.27985   3.86001  17.90844
  10.08275   4.09943  16.95076
   9.12507   4.09943  15.99308
   7.92797   4.09943  15.03540
   6.97029   4.09943  14.07772
   5.77319   4.33885  12.88062
   4.81551   4.33885  11.92293
   4.09725   4.09943  11.20467
   3.37899   3.86001  10.24699
   2.42131   3.62059   9.28931
   1.94247   3.38117   8.57105
   0.98478   3.14175   7.85279
   0.02710   2.66291   7.13453
  -0.93058   1.94465   6.41627
  -1.64884   1.70523   5.45859
  -2.60652   1.22639   4.50091
  -3.80362   0.98697   3.54323
  -4.76130   0.50813   2.58555
  -5.71898   0.02929   1.62787
  -6.43724  -0.21013   0.43077
  -7.15550  -0.44955  -0.28749
  -7.87376  -0.92839  -1.24517
  -8.59202  -1.16781  -2.20286
  -8.59202  -1.16781  -3.16054
  -9.07086  -1.16781  -3.87880
  -9.54970  -1.16781  -4.11822
 -10.02854  -0.92839  -4.83648
 -10.26796  -0.68897  -5.31532
 -10.98622  -0.44955  -5.55474
 -11.46506  -0.44955  -5.79416
 -11.70448  -0.21013  -6.03358
 -12.42274  -0.21013  -6.27300
 -12.66216  -0.68897  -6.51242
 -13.14101  -0.92839  -6.27300
 -13.14101  -0.92839  -6.51242
 -13.85927  -1.16781  -6.75184
 -13.85927  -1.40723  -6.99126
 -14.09869  -1.64665  -6.99126
 -14.09869  -1.88607  -7.23068
 -14.09869  -2.12549  -7.23068
 -14.33811  -2.60433  -7.47010
 -14.33811  -2.60433  -7.70952
 -14.09869  -2.60433  -7.70952
 -14.09869  -2.84375  -7.94894
 -14.09869  -2.84375  -7.94894
 -13.85927  -2.60433  -7.94894
 -13.38043  -2.36491  -7.70952
 -13.14101  -2.36491  -7.23068
 -12.66216  -2.12549  -6.75184
 -12.18332  -1.88607  -6.03358
 -11.22564  -1.64665  -5.55474
 -10.50738  -1.40723  -4.59706
  -9.54970  -1.40723  -4.11822
  -8.35260  -0.92839  -3.63938
  -7.39492  -1.16781  -3.16054
  -6.19782  -0.92839  -2.20286
  -5.00072  -0.92839  -1.72402
  -3.80362  -0.92839  -1.24517
  -2.84594  -0.92839  -0.52691
  -1.88826  -0.68897   0.19135
  -0.93058  -0.92839   0.67019
   0.02710  -0.92839   1.14903
   0.74536  -0.68897   1.86729
   1.94247  -0.68897   2.10671
   2.90015  -0.21013   2.58555
   3.61841  -0.21013   2.82497
   4.57609   0.02929   3.30381
   5.53377   0.26871   3.30381
   6.73087   0.50813   3.78265
   7.44913   0.74755   3.78265
   8.40681   0.74755   3.54323
   9.12507   0.98697   3.54323
   9.84333   0.98697   3.54323
  10.32217   0.98697   3.54323
  11.04043   1.22639   3.30381
  11.27985   0.98697   3.30381
  11.27985   0.74755   3.06439
  11.27985   0.74755   3.06439
  11.51927   0.98697   3.06439
  11.27985   0.74755   2.82497
  10.80101   0.98697   2.58555
  10.80101   0.74755   2.34613
  10.56159   0.74755   1.86729
  10.32217   0.74755   1.62787
  10.08275   0.98697   1.38845
   9.84333   0.74755   0.90961
   9.36449   0.50813   0.43077
   9.12507   0.50813  -0.04807
   8.88565   0.50813  -0.28749
   8.40681   0.50813  -0.76633
   8.16739   0.26871  -1.00575
   7.44913   0.26871  -1.24517
   6.97029   0.26871  -1.72402
   6.01261   0.26871  -1.96344
   5.29435   0.02929  -2.20286
   4.57609   0.26871  -2.20286
   3.61841   0.26871  -2.44228
   2.42131   0.02929  -2.20286
   1.22420  -0.21013  -2.20286
   0.26652  -0.21013  -1.96344
  -0.93058  -0.68897  -1.96344
  -2.12768  -0.92839  -1.96344
  -3.32478  -1.16781  -1.96344
  -4.04304  -1.64665  -1.96344
  -5.00072  -1.64665  -1.96344
  -5.71898  -1.88607  -2.20286
  -6.43724  -1.64665  -2.20286
  -6.91608  -1.64665  -2.44228
  -7.39492  -1.64665  -2.44228
  -8.11318  -0.92839  -2.68170
  -8.83144  -0.68897  -2.68170
  -9.31028   0.02929  -2.92112
 -10.02854   0.26871  -3.16054
 -10.74680   0.74755  -3.39996
 -11.22564   0.98697  -3.87880
 -11.94390   1.70523  -4.11822
 -12.18332   1.94465  -4.11822
 -12.90158   2.18407  -4.11822
 -12.90158   2.42349  -4.59706
 -13.14101   2.66291  -4.59706
 -13.38043   2.90233  -4.83648
 -13.14101   2.90233  -4.59706
 -12.90158   2.66291  -4.59706
 -12.66216   2.42349  -4.59706
 -12.18332   2.18407  -4.59706
 -11.70448   1.94465  -4.35764
 -10.74680   1.94465  -4.11822
 -10.02854   1.94465  -4.35764
  -9.54970   1.70523  -4.35764
  -8.83144   1.22639  -4.11822
  -7.87376   0.98697  -3.87880
  -6.67666   0.98697  -3.87880
  -5.95840   1.22639  -3.87880
  -5.00072   1.22639  -3.63938
  -4.04304   0.98697  -3.63938
  -3.08536   0.74755  -3.16054
  -1.88826   0.98697  -2.92112
  -0.93058   1.22639  -2.68170
   0.02710   1.22639  -2.20286
   0.98478   0.74755  -1.48459
   2.18189   0.98697  -1.00575
   3.37899   0.98697  -0.52691
   4.33667   1.22639  -0.04807
   5.53377   0.74755   0.43077
   6.73087   0.74755   0.90961
   7.92797   0.98697   1.14903
   8.88565   0.98697   1.38845
   9.84333   0.74755   1.38845
  11.04043   0.26871   1.62787
  12.23753   0.50813   1.62787
  13.43463   0.02929   1.62787
  13.91347   0.26871   1.62787
  14.63173   0.02929   1.86729
  15.11057   0.02929   1.86729
  15.82883  -0.21013   1.86729
  15.82883   0.02929   2.10671
  15.82883  -0.21013   2.34613
  16.06826   0.02929   2.82497
  16.30768  -0.21013   3.06439
  15.82883   0.02929   3.54323
  15.82883  -0.21013   4.02207
  16.06826  -0.21013   4.26149
  15.58941  -0.21013   4.26149
  15.34999  -0.21013   4.26149
  15.34999   0.02929   4.26149
  15.11057   0.02929   4.26149
  15.11057  -0.21013   4.50091
  14.63173  -0.21013   4.50091
  14.39231  -0.21013   4.26149
  14.15289  -0.21013   4.26149
  13.91347  -0.68897   4.50091
  13.67405  -0.44955   4.26149
  13.43463  -0.44955   4.26149
  12.95579  -0.21013   4.50091
  12.95579  -0.44955   4.26149
  12.71637  -0.68897   4.26149
  12.71637  -0.68897   3.78265
  12.47695  -0.92839   3.30381
  12.23753  -1.40723   3.06439
  11.99811  -1.88607   2.82497
  11.75869  -2.12549   2.34613
  11.51927  -2.60433   2.10671
  11.27985  -3.08317   1.62787
  10.80101  -3.32259   1.38845
  10.32217  -3.32259   0.90961
   9.84333  -3.56201   0.43077
   9.60391  -3.56201   0.19135
   9.12507  -3.56201  -0.76633
   8.64623  -3.56201  -1.24517
   8.64623  -3.56201  -1.96344
   8.16739  -3.08317  -2.20286
   7.92797  -3.08317  -2.92112
   7.44913  -2.84375  -3.63938
   7.20971  -2.84375  -4.35764
   6.97029  -2.84375  -4.83648
   6.25203  -2.60433  -5.55474
   5.29435  -2.36491  -6.27300
   4.33667  -2.36491  -6.99126
   3.37899  -2.60433  -7.94894
   2.42131  -2.60433  -8.66720
   1.46363  -2.84375  -9.38546
   0.02710  -2.84375  -9.86430
  -0.93058  -3.32259 -10.58256
  -1.88826  -3.80143 -11.06140
  -2.84594  -3.80143 -11.54024
  -4.04304  -4.04085 -11.77966
  -5.00072  -4.28027 -12.01908
  -5.71898  -4.51969 -12.01908
  -6.43724  -4.75911 -12.01908
  -7.15550  -4.51969 -12.01908
  -8.11318  -4.51969 -12.01908
  -8.83144  -4.99853 -11.77966
  -9.54970  -4.99853 -11.77966
 -10.26796  -4.99853 -11.77966
 -10.98622  -4.99853 -11.54024
 -11.46506  -4.75911 -11.30082
 -11.94390  -4.75911 -10.82198
 -12.42274  -4.51969 -10.58256
 -12.90158  -4.28027 -10.10372
 -12.90158  -3.80143  -9.62488
 -12.90158  -3.32259  -9.14604
 -13.14101  -3.08317  -8.18836
 -12.66216  -2.36491  -7.47010
 -12.90158  -1.64665  -6.75184
 -12.90158  -1.16781  -6.03358
 -12.66216  -0.68897  -4.83648
 -12.66216  -0.21013  -4.35764
 -12.42274   0.26871  -3.39996
 -12.42274   0.74755  -2.44228
 -12.42274   0.98697  -1.48459
 -12.42274   1.46581  -0.52691
 -11.94390   1.22639   0.19135
 -11.70448   1.46581   1.14903
 -10.98622   1.46581   1.86729
 -10.26796   1.46581   2.82497
  -9.31028   1.46581   3.54323
  -8.59202   1.46581   4.02207
  -7.87376   1.46581   4.50091
  -7.15550   1.46581   4.97975
  -6.19782   1.70523   5.21917
  -5.47956   1.94465   5.21917
  -5.24014   1.94465   5.21917
  -4.76130   2.18407   4.97975
  -4.28246   2.18407   4.74033
  -4.28246   2.42349   4.02207
  -4.04304   2.42349   3.30381
  -4.04304   2.18407   2.58555
  -3.56420   1.70523   2.10671
  -3.32478   1.70523   1.62787
  -3.08536   1.46581   0.67019
  -3.08536   1.46581   0.19135
  -2.60652   1.22639  -0.28749
  -2.60652   0.98697  -0.52691
  -2.60652   0.74755  -1.24517
  -2.36710   0.74755  -1.72402
  -2.60652   0.50813  -2.20286
  -3.08536   0.26871  -2.68170
  -3.08536   0.02929  -3.16054
  -3.08536   0.02929  -3.87880
  -3.56420   0.02929  -4.59706
  -4.04304  -0.21013  -5.31532
  -4.28246  -0.44955  -6.03358
  -4.28246  -0.44955  -6.99126
  -4.76130  -0.44955  -7.70952
  -5.00072  -0.44955  -8.18836
  -5.24014  -0.21013  -8.42778
  -5.24014  -0.44955  -9.14604
  -5.47956   0.02929  -9.62488
  -5.71898   0.26871 -10.10372
  -6.19782   0.02929 -10.34314
  -6.43724   0.02929 -11.06140
  -6.43724   0.50813 -11.06140
  -6.67666   0.74755 -11.54024
  -7.15550   0.74755 -12.01908
  -7.15550   0.74755 -12.25850
  -6.91608   0.98697 -12.49792
  -6.91608   1.22639 -12.49792
  -6.91608   1.46581 -12.25850
  -6.67666   1.46581 -12.25850
  -6.43724   1.70523 -11.77966
  -5.95840   1.70523 -11.30082
  -5.47956   1.94465 -10.58256
  -5.47956   1.70523 -10.10372
  -5.24014   1.70523  -9.62488
  -5.00072   1.70523  -8.90662
  -4.52188   1.70523  -8.42778
  -4.52188   1.46581  -7.94894
  -4.52188   1.46581  -7.23068
  -4.04304   1.22639  -6.75184
  -3.56420   1.22639  -6.27300
  -3.08536   1.22639  -5.55474
  -2.36710   0.98697  -4.83648
  -1.40942   0.98697  -4.35764
  -0.45174   0.50813  -3.63938
   0.26652   0.26871  -2.44228
   0.74536   0.26871  -1.48459
   1.46363   0.50813  -0.52691
   1.94247   0.26871   0.67019
   2.18189   0.26871   2.34613
   2.18189   0.26871   3.78265
   2.42131   0.50813   4.97975
   2.18189   0.98697   6.65569
   1.70305   1.22639   7.85279
   1.46363   1.22639   9.28931
   1.22420   1.22639  10.72583
   1.22420   1.70523  11.92293
   1.22420   2.18407  13.12004
   1.22420   2.42349  14.31714
   1.22420   2.42349  15.51424
   1.46363   2.42349  16.47192
   1.70305   2.66291  17.66902
   1.94247   2.42349  18.38728
   2.18189   2.42349  19.34496
   2.42131   2.42349  20.30264
   2.42131   2.42349  21.26032
   2.42131   2.18407  21.97858
   2.42131   2.42349  22.93626
   2.42131   2.42349  23.41510
   2.18189   2.18407  23.89394
   1.70305   2.18407  24.37278
   1.70305   2.18407  24.85162
   0.98478   2.18407  25.09104
   0.74536   1.70523  25.09104
   0.50594   1.94465  25.56988
   0.02710   1.94465  25.56988
  -0.45174   1.70523  25.56988
  -0.93058   1.70523  25.56988
  -1.17000   1.70523  25.33046
  -1.64884   1.70523  25.33046
  -2.12768   1.94465  24.85162
  -2.84594   2.18407  24.37278
  -3.32478   2.42349  23.89394
  -3.80362   2.90233  23.17568
  -4.28246   2.90233  22.21800
  -4.76130   2.90233  21.26032
  -5.24014   2.90233  20.06322
  -5.47956   2.90233  18.86612
  -5.71898   2.90233  17.66902
  -5.71898   2.90233  16.47192
  -5.71898   2.90233  15.27482
  -5.71898   2.66291  13.59888
  -5.71898   2.66291  12.40177
  -5.47956   2.90233  10.72583
  -5.47956   2.90233   9.28931
  -5.24014   2.66291   7.61337
  -5.00072   2.66291   6.17685
  -4.52188   2.42349   4.74033
  -4.04304   2.66291   3.54323
  -3.32478   2.42349   2.10671
  -2.84594   2.66291   0.67019
  -2.60652   2.18407  -0.76633
  -1.64884   2.18407  -2.20286
  -1.17000   2.42349  -3.39996
  -0.69116   2.42349  -4.59706
   0.02710   2.18407  -5.79416
   0.50594   1.94465  -6.75184
   0.74536   1.70523  -7.70952
   0.98478   1.46581  -8.66720
   1.22420   1.22639  -9.62488
   1.22420   0.98697 -10.58256
   1.22420   0.50813 -11.06140
   1.22420   0.26871 -11.54024
   0.98478  -0.21013 -12.01908
   0.98478  -0.68897 -12.49792
   1.22420  -0.92839 -12.97676
   1.46363  -0.68897 -13.21618
   1.70305  -0.44955 -13.45560
   1.94247  -0.68897 -13.45560
   2.42131  -0.68897 -13.45560
   2.90015  -0.68897 -13.21618
   3.37899  -0.21013 -12.97676
   3.85783   0.02929 -12.73734
   3.85783   0.02929 -12.25850
   4.09725  -0.21013 -11.77966
   4.09725  -0.21013 -10.82198
   4.09725  -0.21013 -10.58256
   4.09725  -0.21013  -9.86430
   3.61841  -0.44955  -9.14604
   3.13957  -0.44955  -8.90662
   2.90015  -0.92839  -8.18836
   2.42131  -1.16781  -7.70952
   2.18189  -1.16781  -6.99126
   1.70305  -1.40723  -6.51242
   1.46363  -1.64665  -5.79416
   1.46363  -1.64665  -5.31532
   1.46363  -1.64665  -4.35764
   1.46363  -1.64665  -3.63938
   1.46363  -1.88607  -2.68170
   1.70305  -1.88607  -1.72402
   1.94247  -1.88607  -0.76633
   1.70305  -1.64665   0.19135
   1.94247  -1.88607   1.14903
   2.42131  -1.88607   2.34613
   2.90015  -1.88607   3.06439
   2.90015  -1.64665   3.78265
   3.37899  -1.88607   4.50091
   3.61841  -1.88607   5.45859
   4.09725  -1.88607   5.93743
   4.33667  -1.64665   6.41627
   5.05493  -1.64665   6.89511
   5.29435  -1.64665   7.61337
   5.77319  -1.64665   7.85279
   6.01261  -1.40723   8.57105
   6.01261  -1.40723   9.04989
   6.73087  -1.40723   9.52873
   6.97029  -1.16781  10.24699
   7.20971  -1.16781  10.72583
   7.20971  -1.16781  11.44409
   7.44913  -1.40723  11.68351
   7.92797  -1.16781  12.16235
   8.40681  -1.40723  12.64119
   8.40681  -1.40723  13.12004
   8.16739  -1.64665  13.35946
   8.16739  -2.12549  13.59888
   7.68855  -2.36491  13.59888
   7.44913  -2.84375  13.35946
   7.20971  -3.08317  13.59888
   6.73087  -3.32259  13.35946
   5.77319  -3.56201  13.12004
   4.81551  -4.04085  12.64119
   3.85783  -4.51969  12.40177
   3.13957  -4.28027  11.92293
   2.42131  -4.28027  11.44409
   1.46363  -4.28027  10.96525
   0.74536  -4.28027  10.48641
   0.02710  -3.80143  10.00757
  -0.21232  -3.32259   9.52873
  -0.93058  -2.84375   9.28931
  -1.40942  -2.60433   8.57105
  -1.64884  -2.12549   8.33163
  -1.88826  -1.88607   7.85279
  -2.36710  -1.40723   7.13453
  -2.60652  -1.16781   6.65569
  -3.08536  -1.16781   6.17685
  -3.32478  -1.40723   5.45859
  -3.80362  -1.40723   4.97975
  -4.04304  -1.16781   4.26149
  -4.04304  -1.16781   3.78265
  -4.52188  -1.16781   3.30381
  -4.76130  -1.40723   2.34613
  -4.76130  -1.40723   1.86729
  -4.52188  -1.16781   1.38845
  -4.28246  -0.68897   0.90961
  -4.04304  -0.44955   0.43077
  -3.80362  -0.21013  -0.04807
  -3.32478   0.02929  -0.52691
  -2.60652   0.26871  -0.76633
  -2.12768   0.74755  -0.76633
  -1.88826   0.98697  -1.00575
  -1.17000   1.22639  -1.24517
  -0.69116   0.98697  -1.48459
  -0.21232   1.22639  -1.96344
   0.26652   1.22639  -2.44228
   0.74536   1.46581  -2.68170
   0.98478   1.22639  -3.16054
   1.46363   1.22639  -3.63938
   1.70305   0.98697  -4.11822
   1.70305   0.98697  -4.59706
   1.70305   0.98697  -5.07590
   2.18189   0.98697  -5.55474
   2.18189   1.22639  -5.79416
   2.18189   1.22639  -6.51242
   2.42131   0.98697  -6.99126
   2.42131   0.98697  -7.47010
   2.66073   1.22639  -7.94894
   2.90015   0.98697  -8.66720
   3.13957   0.74755  -9.38546
   3.61841   0.50813 -10.10372
   4.09725   0.26871 -10.82198
   4.33667   0.50813 -11.30082
   4.57609   0.26871 -11.77966
   4.81551   0.26871 -12.49792
   4.81551   0.02929 -12.97676
