********************************************************************************
              CENTRO DE INSTRUMENTACION Y REGISTRO SISMICO  A.C.

    Anaxagoras 814, Col. Narvarte, Benito Juarez, C.P. 03020 Mexico, D.F.
           Tels. 5687 45 42/ 5687 45  82             Fax. 5669 25 12
********************************************************************************
ARCHIVO ESTANDAR DE ACELERACION:
VERSION DEL FORMATO                    : 2.0
NOMBRE DEL ARCHIVO                     : AU4620130405015848
FECHA Y HORA DE CREACION               : 02/JUL/14, 14:09
REF. CATALOGO ACELEROGRAMAS, SMIS 1996 : REGISTRO No.     /PAG.


================================================================================
DATOS DE LA ESTACION:
NOMBRE DE LA ESTACION                  : ESC. SEC. TÉC. NO. 14
CLAVE DE LA ESTACION                   : AU46
LOCALIZACION DE LA ESTACION            : Del. Benito Juárez, Col. del Valle,    
                                       : Entre Angel Urraza y Coyoacán.         
                                       :                                        
                                       :                                        
                                       : 
COORDENADAS DE LA ESTACION             : 19.3832 LAT. N
                                       : 99.1681 LONG. W
ALTITUD (msnm)                         : 2233
TIPO DE SUELO                          : Transición                          
                                       :                           
                                       : 
INSTITUCION RESPONSABLE                : CIRES
                                       : 

================================================================================
DATOS DEL ACELEROGRAFO:
MODELO DEL ACELEROGRAFO                : RADESD
NUMERO DE SERIE DEL ACELEROGRAFO       : 236
NUMERO DE CANALES                      : 3
ORIENTACION C1-C6 (rumbo;orientacion)  : /N00E/+V/N90W
ORIENTACION C7-C12 (rumbo;orientacion) : 
VEL. DE MUESTREO, C1-C6 (muestras/s)   : /100/100/100
VEL. DE MUESTREO, C7-C12 (muestras/s)  : 
ESC. COMPLETA DE SENSORES, C1-C6, (g)  : /0.5/0.5/0.5
ESC. COMPLETA DE SENSORES, C7-C12, (g) : 
FREC. NAT. DE SENSORES, C1-C6, (Hz)    : /33/30/30
FREC. NAT. DE SENSORES, C7-C12, (Hz)   : 
AMORTIGUAMIENTO DE SENSORES, C1-C6     : /0.735/0.733/0.730
AMORTIGUAMIENTO DE SENSORES, C7-C12    : 
INTERVALO DE MUESTREO, C1-C6, (s)      : /0.01/0.01/0.01
INTERVALO DE MUESTREO, C7-C12, (s)     : 
UMBRAL DE DISPARO, C1-C6, (Gal)        : /1.65/4.49/1.8
UMBRAL DE DISPARO, C7-C12, (Gal)       : 
MEMORIA DE PREEVENTO (s)               : 41.0
TIEMPO DE POSEVENTO (s)                : 64.0


================================================================================
DATOS DEL SISMO:
FECHA DEL SISMO (GMT)                  : 05/ABR/13
HORA EPICENTRO (GMT)                   : 01:58:48.0
MAGNITUD(ES)                           : /Mc=5.3
COORDENADAS DEL EPICENTRO              : 17.08 LAT. N
                                       : 100.82 LONG. W
PROFUNDIDAD FOCAL (km)                 : 17
FUENTE DE LOS DATOS EPICENTRALES       : SSN
                                       : INSTITUTO DE GEOFISICA, UNAM

================================================================================
DATOS DE ESTE REGISTRO:
HORA DE LA PRIMERA MUESTRA (GMT)       : 02:00:26.00
EXACTITUD DEL TIEMPO (s)               : 0.01
DURACION DEL REGISTRO (s), C1-C6       : /116.8/116.8/116.8
DURACION DEL REGISTRO (s), C7-C12      : 
NUM. TOTAL DE MUESTRAS, C1-C6          : /11680/11680/11680
NUM. TOTAL DE MUESTRAS, C7-C12         : 
ACEL. MAX. (Gal), C1-C6                : /1.97148/1.62587/1.59641
ACEL. MAX., C1-C6, EN LA MUESTRA       : /4087/1694/3942
ACEL. MAX. (Gal), C7-C12               : 
ACEL. MAX., C7-C12, EN LA MUESTRA      : 
UNIDADES DE LOS DATOS                  : Gal (cm/s/s)
FACTOR DE DECIMACION                   : 1
FORMATO DATOS (FORTRAN,10 campos/dato) : 3F10.5


================================================================================
CALIDAD DEL ACELEROGRAMA:
REGISTRO DIGITAL COMPLETO CON TIEMPO ABSOLUTO CORRECTO.


================================================================================
COMENTARIOS:














================================================================================
DATOS DE ACELERACION:
---------+---------+---------+---------+---------+---------+---------+---------+
   CANAL-1   CANAL-2   CANAL-3   CANAL-4   CANAL-5   CANAL-6   CANAL-7   CANAL-8
      N00E        +V      N90W
---------+---------+---------+---------+---------+---------+---------+---------+
[...]
  -0.56489  -0.30906  -0.65369
  -0.68460  -0.26416  -0.62376
  -0.66964  -0.15942  -0.60880
  -0.74446  -0.09956  -0.56391
  -0.81927  -0.06964  -0.39931
  -0.81927  -0.05467  -0.27960
  -0.81927  -0.05467  -0.12996
  -0.86417   0.02015  -0.04018
  -0.81927   0.05007  -0.02521
  -0.78935   0.05007   0.00471
  -0.78935   0.09497   0.01968
  -0.78935   0.16978   0.01968
  -0.74446   0.16978   0.10946
  -0.69956   0.19971   0.22917
  -0.62475   0.16978   0.24413
  -0.49007   0.18475   0.21421
  -0.35540   0.22964   0.21421
  -0.26562   0.24460   0.25910
  -0.17583   0.31942   0.30399
  -0.05612   0.39424   0.34888
   0.10848   0.39424   0.31895
   0.21322   0.34935   0.25910
   0.31797   0.33439   0.28902
   0.45264   0.39424   0.21421
   0.55739   0.43913   0.30399
   0.66214   0.37928   0.34888
   0.67710   0.36431   0.37881
   0.84170   0.28949   0.46859
   0.99134   0.21468   0.52844
   1.06616   0.10993   0.55837
   1.21580   0.06504   0.60326
   1.36543  -0.03971   0.66312
   1.45522  -0.11453   0.72297
   1.51507  -0.20431   0.75290
   1.53004  -0.26416   0.76787
   1.54500  -0.32402   0.78283
   1.54500  -0.30906   0.82772
   1.45522  -0.26416   0.81276
   1.41033  -0.17438   0.79779
   1.30558  -0.17438   0.76787
   1.24572  -0.11453   0.72297
   1.17091  -0.02474   0.72297
   1.08112  -0.02474   0.73794
   1.06616   0.00518   0.67808
   0.96141   0.03511   0.63319
   0.97638   0.08000   0.63319
   0.96141   0.15482   0.58830
   0.85667   0.21468   0.55837
   0.78185   0.24460   0.55837
   0.70703   0.21468   0.58830
   0.60228   0.21468   0.60326
   0.51250   0.19971   0.58830
   0.34790   0.18475   0.61823
   0.19826   0.10993   0.61823
   0.01870   0.08000   0.58830
  -0.10101   0.00518   0.61823
  -0.23569  -0.08460   0.69305
  -0.40029  -0.08460   0.66312
  -0.52000  -0.11453   0.69305
  -0.72949  -0.11453   0.58830
  -0.86417  -0.17438   0.46859
  -0.95395  -0.21927   0.39377
  -1.01380  -0.24920   0.27406
  -1.04373  -0.24920   0.19924
  -1.04373  -0.23424   0.03464
  -1.14848  -0.24920  -0.07011
  -1.13351  -0.26416  -0.11500
  -1.13351  -0.26416  -0.17485
  -1.10359  -0.20431  -0.26463
  -1.04373  -0.12949  -0.32449
  -1.05870  -0.05467  -0.42924
  -1.02877   0.06504  -0.44420
  -1.01380   0.09497  -0.48909
  -0.98388   0.13986  -0.53398
  -0.93898   0.15482  -0.62376
  -0.90906   0.19971  -0.63873
  -0.95395   0.24460  -0.63873
  -0.87913   0.36431  -0.68362
  -0.87913   0.39424  -0.69858
  -0.83424   0.34935  -0.66866
  -0.80431   0.30446  -0.62376
  -0.75942   0.30446  -0.54895
  -0.74446   0.31942  -0.48909
  -0.74446   0.27453  -0.48909
  -0.74446   0.16978  -0.50405
  -0.69956   0.12489  -0.51902
  -0.69956   0.06504  -0.45916
  -0.68460  -0.00978  -0.44420
  -0.69956  -0.11453  -0.35442
  -0.71453  -0.18935  -0.30953
  -0.71453  -0.21927  -0.29456
  -0.75942  -0.24920  -0.36938
  -0.80431  -0.23424  -0.41427
  -0.77438  -0.27913  -0.38434
  -0.75942  -0.21927  -0.38434
  -0.69956  -0.17438  -0.36938
  -0.65467  -0.17438  -0.27960
  -0.71453  -0.20431  -0.24967
  -0.60978  -0.14445  -0.18982
  -0.54993  -0.09956  -0.15989
  -0.47511   0.05007  -0.17485
  -0.38533   0.05007  -0.14492
  -0.32547   0.09497  -0.12996
  -0.23569   0.10993  -0.12996
  -0.22072   0.05007  -0.18982
  -0.20576  -0.00978  -0.29456
  -0.17583  -0.06964  -0.45916
  -0.10101  -0.09956  -0.50405
  -0.07109  -0.09956  -0.51902
  -0.04116  -0.14445  -0.50405
   0.00373  -0.23424  -0.51902
   0.06359  -0.24920  -0.53398
   0.13841  -0.29409  -0.53398
   0.13841  -0.32402  -0.60880
   0.15337  -0.29409  -0.66866
   0.15337  -0.18935  -0.68362
   0.27308  -0.14445  -0.69858
   0.39279  -0.05467  -0.72851
   0.46761   0.00518  -0.71355
   0.51250   0.03511  -0.66866
   0.57235   0.12489  -0.60880
   0.70703   0.22964  -0.53398
   0.84170   0.27453  -0.54895
   0.97638   0.28949  -0.51902
   1.14098   0.30446  -0.45916
   1.29062   0.27453  -0.24967
   1.38040   0.28949  -0.11500
   1.44025   0.30446  -0.01025
   1.48514   0.24460   0.03464
   1.51507   0.21468   0.01968
   1.55996   0.18475   0.00471
   1.57493   0.27453   0.00471
   1.55996   0.33439   0.03464
   1.53004   0.34935   0.04960
   1.51507   0.30446   0.12442
   1.48514   0.25957   0.13939
   1.47018   0.21468   0.22917
   1.45522   0.19971   0.33392
   1.42529   0.22964   0.43866
   1.33551   0.22964   0.57334
   1.24572   0.12489   0.58830
   1.17091   0.13986   0.57334
   1.18587   0.05007   0.55837
   1.12601  -0.00978   0.51348
   1.05120  -0.00978   0.55837
   0.88659  -0.00978   0.67808
   0.63221  -0.08460   0.72297
   0.49754  -0.12949   0.69305
   0.37783  -0.11453   0.66312
   0.30301  -0.05467   0.63319
   0.12344   0.02015   0.73794
   0.01870  -0.02474   0.84268
  -0.14591  -0.03971   0.93247
  -0.26562  -0.09956   0.94743
  -0.37036  -0.14445   1.00729
  -0.49007  -0.15942   1.03721
  -0.54993  -0.02474   1.05218
  -0.65467   0.02015   1.05218
  -0.78935  -0.02474   0.94743
  -0.89409  -0.08460   0.87261
  -0.96891  -0.12949   0.84268
  -0.98388  -0.15942   0.84268
  -1.01380  -0.08460   0.75290
  -1.10359  -0.08460   0.73794
  -1.10359  -0.08460   0.72297
  -1.17841  -0.09956   0.69305
  -1.13351  -0.15942   0.67808
  -1.14848  -0.17438   0.72297
  -1.19337  -0.15942   0.67808
  -1.23826  -0.09956   0.70801
  -1.25322  -0.09956   0.67808
  -1.20833  -0.02474   0.69305
  -1.16344   0.05007   0.61823
  -1.13351   0.08000   0.46859
  -1.14848   0.09497   0.37881
  -1.16344   0.16978   0.34888
  -1.11855   0.16978   0.24413
  -0.96891   0.19971   0.13939
  -0.81927   0.18475   0.04960
  -0.69956   0.18475  -0.02521
  -0.57985   0.18475  -0.07011
  -0.44518   0.12489  -0.11500
  -0.26562   0.13986  -0.14492
  -0.13094   0.15482  -0.27960
   0.01870   0.15482  -0.35442
   0.10848   0.22964  -0.47413
   0.22819   0.21468  -0.56391
   0.28804   0.19971  -0.68362
   0.37783   0.21468  -0.78837
   0.49754   0.18475  -0.78837
   0.49754   0.16978  -0.92304
   0.52746   0.16978  -1.05771
   0.63221   0.12489  -1.16246
   0.66214   0.05007  -1.25224
   0.73696  -0.02474  -1.29713
   0.87163  -0.11453  -1.34203
   0.88659  -0.20431  -1.38692
   0.99134  -0.26416  -1.40188
   1.00630  -0.27913  -1.46174
   1.00630  -0.30906  -1.53655
   0.99134  -0.29409  -1.58145
   0.90156  -0.33898  -1.59641
   0.85667  -0.38387  -1.47670
   0.76688  -0.38387  -1.37195
   0.61725  -0.32402  -1.28217
   0.45264  -0.26416  -1.19239
   0.33293  -0.27913  -1.13253
   0.16833  -0.30906  -1.04275
   0.03366  -0.30906  -0.92304
  -0.08605  -0.27913  -0.83326
  -0.22072  -0.21927  -0.72851
  -0.32547  -0.18935  -0.68362
  -0.47511  -0.18935  -0.56391
  -0.57985  -0.20431  -0.47413
  -0.68460  -0.26416  -0.36938
  -0.78935  -0.26416  -0.27960
  -0.83424  -0.24920  -0.26463
  -0.87913  -0.24920  -0.20478
  -0.90906  -0.26416  -0.17485
  -0.93898  -0.24920  -0.08507
  -0.99884  -0.17438   0.01968
  -1.07366  -0.09956   0.18428
  -1.10359  -0.06964   0.37881
  -1.08862  -0.00978   0.51348
  -1.07366   0.02015   0.55837
  -1.04373   0.00518   0.64816
  -1.01380   0.09497   0.64816
  -0.98388   0.12489   0.70801
  -0.95395   0.12489   0.82772
  -0.84920   0.15482   0.81276
  -0.74446   0.12489   0.84268
  -0.69956   0.10993   0.79779
  -0.62475   0.16978   0.70801
  -0.56489   0.19971   0.70801
  -0.56489   0.18475   0.60326
  -0.47511   0.13986   0.49852
  -0.40029   0.06504   0.36384
  -0.28058   0.06504   0.19924
  -0.13094   0.13986   0.09450
  -0.07109   0.13986   0.06457
  -0.04116   0.13986  -0.02521
  -0.02620   0.15482   0.01968
   0.06359   0.09497   0.01968
   0.25812   0.15482   0.07953
   0.30301   0.13986   0.13939
   0.33293   0.13986   0.16931
   0.39279   0.10993   0.21421
   0.37783   0.03511   0.21421
   0.46761   0.00518   0.13939
   0.54243  -0.02474   0.06457
   0.57235   0.02015   0.12442
   0.57235   0.03511   0.16931
   0.52746  -0.00978   0.22917
   0.58732  -0.05467   0.21421
   0.57235  -0.09956   0.09450
   0.58732  -0.18935   0.03464
   0.60228  -0.21927   0.13939
   0.57235  -0.17438   0.25910
   0.52746  -0.11453   0.36384
   0.46761  -0.15942   0.39377
   0.34790  -0.18935   0.46859
   0.30301  -0.21927   0.54341
   0.22819  -0.20431   0.60326
   0.18330  -0.20431   0.73794
   0.04862  -0.12949   0.72297
  -0.07109  -0.14445   0.69305
  -0.10101  -0.09956   0.79779
  -0.22072  -0.05467   0.88758
  -0.26562  -0.06964   0.97736
  -0.28058  -0.14445   0.94743
  -0.32547  -0.14445   0.96239
  -0.31051  -0.17438   0.97736
  -0.37036  -0.17438   0.91750
  -0.41525  -0.14445   0.81276
  -0.46014  -0.15942   0.66312
  -0.56489  -0.08460   0.49852
  -0.59482  -0.02474   0.46859
  -0.60978   0.05007   0.48355
  -0.60978   0.13986   0.43866
  -0.63971   0.22964   0.36384
  -0.60978   0.27453   0.25910
  -0.56489   0.42417   0.21421
  -0.52000   0.46906   0.09450
  -0.44518   0.54388   0.03464
  -0.32547   0.54388  -0.04018
  -0.16087   0.67855  -0.10003
   0.00373   0.63366  -0.18982
   0.13841   0.67855  -0.23471
   0.25812   0.67855  -0.29456
   0.39279   0.57381  -0.33945
   0.48257   0.61870  -0.50405
   0.57235   0.66359  -0.62376
   0.61725   0.61870  -0.63873
   0.69206   0.63366  -0.71355
   0.76688   0.60373  -0.71355
   0.90156   0.55884  -0.75844
   0.88659   0.54388  -0.72851
   0.91652   0.45410  -0.66866
   0.94645   0.36431  -0.68362
   1.02127   0.22964  -0.78837
   1.18587   0.12489  -0.86318
   1.21580   0.12489  -0.90808
   1.23076   0.06504  -0.84822
   1.29062   0.02015  -0.84822
   1.29062  -0.06964  -0.90808
   1.33551  -0.09956  -1.01282
   1.42529  -0.08460  -1.02779
   1.44025  -0.06964  -1.08764
   1.50011   0.02015  -1.05771
   1.55996   0.03511  -1.14750
   1.47018   0.02015  -1.26721
   1.47018  -0.00978  -1.32706
   1.47018  -0.05467  -1.23728
   1.45522  -0.02474  -1.13253
   1.39536   0.02015  -1.04275
   1.26069  -0.00978  -0.98289
   1.12601   0.02015  -1.04275
   1.02127  -0.09956  -0.99786
   0.94645  -0.06964  -0.93800
   0.84170  -0.02474  -0.78837
   0.70703  -0.08460  -0.66866
   0.60228  -0.17438  -0.50405
   0.45264  -0.27913  -0.32449
   0.28804  -0.36891  -0.24967
   0.21322  -0.36891  -0.18982
   0.13841  -0.38387  -0.02521
   0.06359  -0.27913   0.12442
  -0.11598  -0.21927   0.30399
  -0.34043  -0.24920   0.45363
  -0.47511  -0.27913   0.45363
  -0.52000  -0.24920   0.46859
  -0.60978  -0.21927   0.55837
  -0.78935  -0.20431   0.66312
  -0.96891  -0.21927   0.87261
  -1.07366  -0.24920   1.00729
  -1.25322  -0.18935   1.06714
  -1.25322  -0.20431   1.12700
  -1.41783  -0.20431   1.17189
  -1.50761  -0.26416   1.24671
  -1.59739  -0.26416   1.35145
  -1.67221  -0.23424   1.30656
  -1.71710  -0.20431   1.27663
  -1.76199  -0.26416   1.27663
  -1.79192  -0.32402   1.21678
  -1.83681  -0.29409   1.14196
  -1.92659  -0.24920   0.96239
  -1.97148  -0.21927   0.85765
  -1.88170  -0.14445   0.85765
  -1.86674  -0.20431   0.88758
  -1.86674  -0.23424   0.81276
  -1.76199  -0.29409   0.64816
  -1.68717  -0.27913   0.48355
  -1.49264  -0.18935   0.49852
  -1.29812  -0.05467   0.40873
  -1.22330  -0.09956   0.28902
  -1.16344  -0.09956   0.18428
  -1.11855  -0.14445   0.06457
  -0.98388  -0.09956  -0.02521
  -0.78935  -0.00978  -0.11500
  -0.71453  -0.00978  -0.12996
  -0.68460  -0.05467  -0.27960
  -0.54993  -0.00978  -0.29456
  -0.38533   0.13986  -0.21974
  -0.29554   0.18475  -0.17485
  -0.22072   0.19971  -0.11500
  -0.16087   0.13986  -0.01025
  -0.07109   0.06504   0.01968
   0.04862   0.05007   0.00471
   0.10848   0.02015   0.04960
   0.13841   0.06504   0.01968
   0.22819   0.09497   0.04960
   0.25812   0.10993  -0.01025
   0.30301  -0.02474  -0.01025
   0.37783   0.00518  -0.01025
   0.34790   0.02015  -0.08507
   0.34790   0.00518  -0.02521
   0.33293  -0.02474  -0.10003
   0.36286  -0.05467  -0.14492
   0.40775  -0.05467  -0.29456
   0.46761   0.03511  -0.33945
   0.51250   0.05007  -0.35442
   0.42272   0.03511  -0.48909
   0.49754  -0.00978  -0.47413
   0.54243  -0.03971  -0.56391
   0.55739  -0.05467  -0.65369
   0.64717  -0.00978  -0.74347
   0.70703  -0.05467  -0.87815
   0.73696  -0.09956  -0.98289
   0.78185  -0.06964  -1.01282
   0.78185  -0.03971  -0.90808
   0.82674   0.05007  -0.92304
   0.81178  -0.00978  -1.01282
   0.82674  -0.08460  -1.04275
   0.91652  -0.08460  -1.04275
   0.79681   0.00518  -1.04275
   0.81178   0.13986  -1.05771
   0.76688   0.22964  -1.19239
   0.78185   0.19971  -1.31210
   0.78185   0.19971  -1.37195
   0.73696   0.16978  -1.31210
   0.70703   0.22964  -1.23728
   0.67710   0.30446  -1.16246
   0.67710   0.25957  -1.05771
   0.75192   0.19971  -1.07268
   0.75192   0.06504  -1.05771
   0.82674   0.08000  -0.95297
   0.88659   0.12489  -0.92304
   0.94645   0.13986  -0.86318
   0.99134   0.12489  -0.75844
   0.99134   0.13986  -0.62376
   0.99134   0.15482  -0.48909
   0.90156   0.10993  -0.39931
   0.88659   0.06504  -0.27960
   0.88659   0.10993  -0.21974
   0.76688   0.08000  -0.12996
   0.70703   0.08000   0.04960
   0.63221   0.13986   0.13939
   0.58732   0.12489   0.21421
   0.54243   0.09497   0.27406
   0.46761   0.08000   0.39377
   0.36286   0.06504   0.51348
   0.24315   0.03511   0.64816
   0.18330  -0.05467   0.75290
   0.12344  -0.05467   0.79779
   0.03366  -0.17438   0.75290
   0.01870  -0.15942   0.88758
  -0.01123  -0.18935   0.93247
  -0.14591  -0.20431   1.06714
  -0.17583  -0.26416   1.18685
  -0.17583  -0.26416   1.24671
  -0.14591  -0.21927   1.27663
  -0.26562  -0.21927   1.30656
  -0.25065  -0.14445   1.35145
  -0.31051  -0.05467   1.47116
  -0.35540  -0.00978   1.51605
  -0.35540   0.03511   1.50109
  -0.40029   0.05007   1.51605
  -0.38533   0.06504   1.53102
  -0.40029   0.08000   1.53102
  -0.35540   0.09497   1.59087
  -0.37036   0.12489   1.57591
  -0.35540   0.16978   1.50109
  -0.38533   0.22964   1.38138
  -0.37036   0.22964   1.29160
  -0.40029   0.15482   1.23174
  -0.32547   0.16978   1.18685
  -0.26562   0.15482   1.08210
  -0.28058   0.13986   0.97736
  -0.32547   0.12489   0.87261
  -0.28058   0.10993   0.78283
  -0.25065   0.10993   0.67808
  -0.22072   0.06504   0.61823
  -0.19080   0.06504   0.54341
  -0.14591   0.06504   0.46859
  -0.19080   0.06504   0.33392
  -0.22072   0.03511   0.12442
  -0.22072   0.05007  -0.02521
  -0.17583   0.06504  -0.27960
  -0.16087   0.08000  -0.42924
  -0.13094   0.02015  -0.53398
  -0.22072  -0.03971  -0.65369
  -0.26562  -0.05467  -0.65369
  -0.22072  -0.06964  -0.63873
  -0.31051  -0.06964  -0.69858
  -0.23569  -0.05467  -0.77340
  -0.32547  -0.09956  -0.90808
  -0.37036  -0.15942  -0.95297
  -0.43022  -0.18935  -0.93800
  -0.43022  -0.26416  -1.04275
  -0.43022  -0.32402  -1.07268
  -0.43022  -0.38387  -1.14750
  -0.43022  -0.38387  -1.13253
  -0.49007  -0.44373  -1.10260
  -0.53496  -0.56344  -1.01282
  -0.54993  -0.57840  -1.01282
  -0.63971  -0.60833  -0.96793
  -0.68460  -0.65322  -0.93800
  -0.74446  -0.60833  -0.86318
  -0.77438  -0.53351  -0.74347
  -0.83424  -0.50358  -0.68362
  -0.81927  -0.42877  -0.51902
  -0.80431  -0.33898  -0.41427
  -0.77438  -0.23424  -0.36938
  -0.75942  -0.12949  -0.36938
  -0.69956  -0.00978  -0.36938
  -0.62475   0.06504  -0.35442
  -0.49007   0.13986  -0.20478
  -0.40029   0.16978  -0.05514
  -0.37036   0.12489   0.03464
  -0.34043   0.05007   0.15435
  -0.29554   0.06504   0.19924
  -0.19080   0.06504   0.24413
  -0.10101   0.08000   0.31895
  -0.02620   0.08000   0.27406
   0.01870   0.22964   0.28902
   0.00373   0.24460   0.21421
