********************************************************************************
               CENTRO DE INSTRUMENTACION Y REGISTRO SISMICO  A.C.  
                       Coordinacion de Servicios Tecnicos
     Anaxagoras 814, Col. Narvarte, Benito Juarez, C.P. 03020 Mexico, D.F.
            Tels. 687 45 42/ 687 45  82             Fax. 669 25 12
********************************************************************************
ARCHIVO ESTANDAR DE ACELERACION:
VERSION DEL FORMATO                    : 2.0
NOMBRE DEL ARCHIVO                     : AU460409.131
FECHA Y HORA DE CREACION               : 13/MAY/04, 11:51
REF. CATALOGO ACELEROGRAMAS, SMIS 1996 : REGISTRO No.     /PAG.


================================================================================
DATOS DE LA ESTACION:
NOMBRE DE LA ESTACION                  : ANGEL URRAZA
CLAVE DE LA ESTACION                   : AU46
LOCALIZACION DE LA ESTACION            : Esc Sec Tec # 14, 5 de Mayo Av
                                       : Coyoacan y Angel Urraza, Col de
                                       : Valle, Benito Juarez
                                       :
                                       :
COORDENADAS DE LA ESTACION             : 19.383 LAT. N 
                                       : 99.168 LONG. W 
ALTITUD (msnm)                         : 2233
TIPO DE SUELO                          : TRANSICION
                                       : 
                                       : 
INSTITUCION RESPONSABLE                : CIRES
                                       :

================================================================================
DATOS DEL ACELEROGRAFO:
MODELO DEL ACELEROGRAFO                : RAD-851
NUMERO DE SERIE DEL ACELEROGRAFO       : 236
NUMERO DE CANALES                      : 3
ORIENTACION C1-C6 (rumbo;orientacion)  : /N00E/+V/N90W
ORIENTACION C7-C12 (rumbo;orientacion) :
VEL. DE MUESTREO, C1-C6 (muestras/s)   : /100/100/100
VEL. DE MUESTREO, C7-C12 (muestras/s)  :
ESC. COMPLETA DE SENSORES, C1-C6, (g)  : /0.5/0.5/0.5
ESC. COMPLETA DE SENSORES, C7-C12, (g) :
FREC. NAT. DE SENSORES, C1-C6, (Hz)    : /33/30/30
FREC. NAT. DE SENSORES, C7-C12, (Hz)   :
AMORTIGUAMIENTO DE SENSORES, C1-C6     : /0.735/0.733/0.730
AMORTIGUAMIENTO DE SENSORES, C7-C12    :
INTERVALO DE MUESTREO, C1-C6, (s)      : /0.01/0.01/0.01
INTERVALO DE MUESTREO, C7-C12, (s)     :
UMBRAL DE DISPARO, C1-C6, (Gal)        : /1.71/2.44/1.71
UMBRAL DE DISPARO, C7-C12, (Gal)       :
MEMORIA DE PREEVENTO (s)               : 24
TIEMPO DE POSEVENTO (s)                : 64


================================================================================
DATOS DEL SISMO:
FECHA DEL SISMO (GMT)                  : 13/SEP/04
HORA EPICENTRO (GMT)                   : 20:58:34:0
MAGNITUD(ES)                           : /Ms=3.1
COORDENADAS DEL EPICENTRO              : 19.37 LAT. N
                                       : -99.11 LONG. W
PROFUNDIDAD FOCAL (km)                 : 10.0
FUENTE DE LOS DATOS EPICENTRALES       : SSN
                                       : INSTITUTO DE GEOFISICA, UNAM

================================================================================
DATOS DE ESTE REGISTRO:
HORA DE LA PRIMERA MUESTRA (GMT)       : 20:58:36.00
EXACTITUD DEL TIEMPO (s)               : 0.01
DURACION DEL REGISTRO (s), C1-C6       : /130.25/130.25/130.25
DURACION DEL REGISTRO (s), C7-C12      :
NUM. TOTAL DE MUESTRAS, C1-C6          : /13025/13025/13025
NUM. TOTAL DE MUESTRAS, C7-C12         :
ACEL. MAX. (Gal), C1-C6                : /7.37480/8.37977/11.82402
ACEL. MAX., C1-C6, EN LA MUESTRA       :
ACEL. MAX. (Gal), C7-C12               :
ACEL. MAX., C7-C12, EN LA MUESTRA      :
UNIDADES DE LOS DATOS                  : Gal (cm/s/s)
FACTOR DE DECIMACION                   : 1
FORMATO DATOS (FORTRAN,10 campos/dato) : 3F10.5


================================================================================
CALIDAD DEL ACELEROGRAMA:
REGISTRO DIGITAL COMPLETO CON TIEMPO ABSOLUTO CORRECTO.


================================================================================
COMENTARIOS:














================================================================================
DATOS DE ACELERACION:
---------+---------+---------+---------+---------+---------+---------+---------+
   CANAL-1   CANAL-2   CANAL-3   CANAL-4   CANAL-5   CANAL-6   CANAL-7   CANAL-8
      N00E        +V      N90W
---------+---------+---------+---------+---------+---------+---------+---------+
[...]
   0.19223   0.00011  -0.14692
  -0.04719   0.00011  -0.14692
  -0.04719   0.00011   0.09250
  -0.04719   0.23953   0.09250
  -0.04719   0.23953   0.09250
  -0.04719   0.23953   0.09250
   0.19223   0.00011   0.09250
   0.19223   0.00011  -0.14692
  -0.04719   0.00011   0.09250
   0.19223  -0.23931   0.09250
  -0.04719   0.00011   0.09250
  -0.04719   0.00011   0.09250
  -0.04719   0.00011   0.09250
   0.19223   0.00011   0.09250
  -0.04719   0.00011  -0.14692
  -0.04719   0.00011   0.09250
   0.19223   0.00011  -0.14692
  -0.04719   0.00011   0.09250
  -0.04719   0.00011   0.09250
  -0.04719   0.23953   0.09250
  -0.04719   0.00011  -0.14692
  -0.04719   0.00011   0.09250
   0.19223  -0.23931   0.09250
  -0.04719   0.00011  -0.14692
  -0.04719   0.00011  -0.14692
  -0.04719   0.00011   0.09250
  -0.04719   0.00011   0.09250
  -0.04719   0.23953   0.09250
  -0.04719   0.00011   0.09250
  -0.04719   0.00011   0.09250
  -0.04719   0.00011   0.09250
  -0.04719   0.23953  -0.14692
   0.19223   0.00011   0.09250
  -0.04719   0.00011   0.09250
  -0.04719   0.00011   0.09250
  -0.04719   0.00011   0.09250
  -0.04719   0.00011   0.09250
  -0.04719   0.00011  -0.14692
   0.19223   0.00011   0.09250
  -0.04719   0.00011   0.09250
  -0.04719   0.00011  -0.14692
  -0.04719   0.00011   0.09250
  -0.04719   0.00011   0.09250
  -0.04719   0.00011  -0.14692
   0.19223   0.00011  -0.14692
  -0.04719   0.00011   0.09250
   0.19223   0.00011  -0.14692
  -0.04719   0.00011  -0.14692
  -0.04719   0.00011  -0.14692
  -0.04719   0.00011  -0.14692
   0.19223   0.00011  -0.14692
   0.19223   0.00011   0.09250
  -0.04719   0.00011  -0.14692
  -0.04719  -0.23931   0.09250
  -0.04719   0.00011   0.09250
  -0.04719   0.00011   0.09250
  -0.04719   0.00011  -0.14692
  -0.04719   0.00011   0.09250
  -0.04719   0.00011   0.09250
  -0.04719   0.00011   0.09250
   0.19223   0.00011   0.09250
  -0.04719   0.00011  -0.14692
  -0.04719   0.00011  -0.14692
  -0.04719   0.00011   0.09250
  -0.04719   0.00011  -0.14692
   0.19223   0.00011   0.09250
  -0.04719   0.00011   0.09250
  -0.04719  -0.23931   0.09250
  -0.04719   0.00011  -0.14692
   0.19223   0.00011  -0.14692
  -0.04719   0.00011   0.09250
   0.19223   0.00011  -0.14692
  -0.04719   0.00011   0.09250
  -0.04719   0.00011   0.09250
   0.19223   0.00011   0.09250
  -0.04719   0.00011   0.09250
   0.19223   0.00011   0.09250
  -0.04719   0.23953   0.33191
  -0.04719   0.23953   0.09250
  -0.04719   0.00011  -0.14692
  -0.04719   0.00011  -0.14692
   0.19223   0.00011  -0.14692
  -0.04719   0.00011  -0.14692
  -0.04719   0.00011  -0.14692
   0.19223   0.00011   0.09250
  -0.04719   0.00011   0.09250
  -0.04719  -0.23931   0.09250
  -0.04719   0.00011   0.09250
  -0.04719   0.00011  -0.14692
  -0.04719   0.00011   0.09250
  -0.04719   0.00011   0.09250
  -0.04719   0.00011   0.09250
   0.19223   0.00011   0.09250
   0.19223   0.00011   0.09250
   0.19223   0.00011   0.09250
   0.19223   0.23953   0.09250
   0.19223   0.00011   0.09250
   0.19223   0.00011  -0.14692
  -0.04719   0.00011  -0.14692
  -0.04719   0.00011   0.09250
  -0.04719   0.23953   0.09250
  -0.04719   0.00011   0.09250
   0.19223   0.00011  -0.14692
   0.19223   0.00011  -0.14692
  -0.04719  -0.23931   0.09250
  -0.04719   0.00011   0.09250
   0.19223  -0.23931  -0.14692
  -0.04719  -0.23931   0.09250
  -0.04719   0.00011   0.09250
  -0.04719   0.00011   0.09250
  -0.04719   0.00011   0.09250
   0.19223   0.00011  -0.14692
   0.19223   0.00011   0.09250
   0.19223   0.23953   0.09250
  -0.04719   0.23953   0.09250
  -0.04719   0.23953  -0.14692
  -0.04719   0.00011  -0.14692
  -0.04719   0.00011  -0.14692
  -0.04719   0.00011   0.09250
   0.19223   0.00011   0.09250
  -0.04719   0.00011   0.09250
  -0.04719   0.23953   0.09250
  -0.04719   0.00011   0.09250
  -0.04719   0.00011   0.09250
  -0.04719  -0.23931   0.09250
   0.19223   0.00011  -0.14692
  -0.04719  -0.23931   0.09250
  -0.04719  -0.23931  -0.14692
   0.19223   0.00011  -0.14692
  -0.04719   0.00011  -0.14692
  -0.04719   0.23953   0.09250
  -0.04719   0.00011   0.09250
   0.19223   0.00011  -0.14692
  -0.04719   0.00011   0.09250
  -0.04719   0.00011   0.09250
   0.19223   0.00011   0.09250
  -0.04719   0.00011  -0.14692
  -0.04719   0.00011   0.09250
  -0.04719   0.23953   0.09250
  -0.04719   0.00011   0.09250
  -0.04719  -0.23931  -0.14692
   0.19223   0.00011  -0.14692
  -0.04719   0.00011  -0.14692
  -0.04719   0.00011  -0.14692
  -0.04719   0.23953   0.09250
  -0.04719   0.23953   0.09250
  -0.04719   0.00011   0.09250
  -0.04719  -0.23931   0.09250
   0.19223   0.00011   0.09250
  -0.04719   0.00011  -0.14692
  -0.04719   0.00011   0.09250
  -0.04719   0.00011   0.09250
  -0.04719   0.00011   0.09250
  -0.04719   0.00011  -0.14692
  -0.04719   0.00011   0.09250
  -0.04719   0.00011   0.09250
  -0.04719   0.00011   0.09250
  -0.04719   0.00011   0.09250
  -0.04719   0.00011  -0.14692
  -0.04719   0.00011  -0.14692
  -0.04719   0.00011   0.09250
  -0.04719   0.00011   0.09250
   0.19223   0.00011  -0.14692
   0.19223   0.00011   0.09250
  -0.04719   0.00011   0.09250
   0.19223  -0.23931   0.09250
   0.19223   0.00011   0.09250
  -0.04719   0.00011   0.09250
  -0.04719   0.00011  -0.14692
   0.19223   0.00011  -0.14692
  -0.04719   0.00011   0.09250
   0.19223   0.00011   0.09250
   0.19223   0.00011   0.09250
  -0.04719   0.00011   0.09250
  -0.04719   0.23953   0.09250
  -0.04719   0.00011  -0.14692
  -0.04719   0.23953  -0.14692
  -0.04719  -0.23931   0.09250
  -0.04719  -0.23931   0.09250
  -0.04719   0.00011   0.09250
   0.19223   0.23953   0.09250
  -0.04719   0.23953   0.33191
  -0.04719   0.00011  -0.14692
   0.19223   0.00011   0.09250
  -0.04719   0.00011  -0.14692
  -0.04719   0.00011  -0.14692
  -0.04719   0.00011  -0.14692
  -0.04719   0.00011  -0.14692
   0.19223   0.00011  -0.14692
  -0.04719   0.00011   0.09250
  -0.04719   0.00011   0.09250
  -0.04719   0.00011  -0.14692
  -0.04719   0.00011   0.09250
  -0.04719   0.00011  -0.14692
  -0.04719   0.00011   0.09250
  -0.04719   0.00011   0.09250
  -0.04719   0.00011  -0.14692
  -0.04719   0.00011   0.09250
  -0.04719   0.00011  -0.14692
  -0.04719   0.00011   0.09250
  -0.04719   0.00011   0.09250
  -0.04719   0.00011   0.09250
  -0.04719   0.00011   0.09250
  -0.04719   0.00011   0.09250
  -0.04719   0.00011   0.09250
  -0.04719   0.00011   0.09250
   0.19223   0.00011  -0.14692
   0.19223   0.00011  -0.14692
  -0.04719   0.00011   0.09250
   0.19223  -0.23931  -0.14692
  -0.04719   0.00011   0.09250
  -0.04719   0.00011   0.09250
  -0.04719   0.23953   0.09250
   0.19223   0.00011   0.09250
  -0.04719  -0.23931  -0.14692
   0.19223   0.00011  -0.14692
  -0.04719   0.00011   0.09250
  -0.04719   0.23953   0.09250
   0.19223   0.23953  -0.14692
   0.19223   0.00011   0.09250
   0.19223   0.00011   0.09250
   0.19223   0.00011  -0.14692
   0.19223   0.00011   0.09250
  -0.04719   0.23953   0.09250
  -0.04719   0.00011   0.09250
  -0.04719   0.00011   0.09250
   0.19223   0.00011   0.09250
  -0.04719   0.00011   0.09250
  -0.04719   0.00011   0.09250
  -0.04719   0.00011   0.09250
  -0.04719   0.00011   0.09250
  -0.04719   0.00011   0.09250
  -0.04719   0.00011  -0.14692
  -0.04719   0.00011   0.09250
   0.19223   0.00011  -0.14692
  -0.04719   0.00011  -0.14692
  -0.04719   0.00011  -0.14692
  -0.04719   0.00011   0.09250
  -0.04719   0.00011   0.09250
  -0.04719   0.00011   0.09250
   0.19223   0.00011   0.09250
  -0.04719   0.00011   0.09250
  -0.04719   0.00011   0.09250
  -0.04719   0.23953   0.09250
  -0.04719   0.00011   0.09250
   0.19223   0.00011   0.09250
  -0.04719   0.00011  -0.14692
  -0.04719   0.00011  -0.14692
  -0.04719  -0.23931   0.09250
  -0.04719   0.47895   0.09250
  -0.04719   0.71837   0.09250
  -0.04719  -0.23931  -0.14692
   0.19223  -1.43640  -0.38634
  -0.04719  -0.23931   0.09250
  -0.04719   1.91546   0.81075
   0.19223   1.67604   0.33191
  -0.04719  -1.67582  -0.86518
  -0.28660  -2.39408  -0.62576
  -0.04719   0.23953   0.57133
   0.43165   0.71837   1.05017
   0.19223   0.47895  -0.38634
  -0.28660   0.95779  -1.10460
  -0.52602  -0.23931  -0.14692
   0.43165   0.00011   0.57133
   0.43165  -0.23931   0.57133
  -0.04719  -0.47873   0.09250
  -0.28660   1.19721  -0.14692
  -0.28660   2.15488  -0.14692
   0.19223  -1.43640  -0.62576
   0.67107  -2.15466  -0.86518
  -0.28660   0.95779   1.28959
  -0.52602   3.11256   1.52901
   0.19223   1.19721  -1.10460
   0.43165  -2.87292  -2.06227
  -0.04719  -0.95757   0.33191
   0.19223   1.67604   1.76843
   0.67107   0.00011   0.57133
   0.43165  -3.59117  -1.34402
  -1.00486  -0.47873  -1.10460
  -0.52602   2.15488   0.81075
   1.38933   2.39430   0.81075
   0.91049   0.23953  -0.62576
  -1.00486  -2.39408  -1.10460
  -0.76544  -0.95757   0.33191
   0.43165   1.91546   1.52901
   0.91049   0.23953  -0.38634
   0.19223  -1.67582  -1.58344
  -0.76544   0.23953   0.33191
  -0.52602   1.91546   1.05017
   0.67107   1.19721  -0.62576
   0.91049  -1.19698   0.33191
  -0.52602  -3.11234   0.57133
  -0.76544  -0.47873  -0.62576
   0.91049   3.11256  -0.14692
   1.14991   0.95779   1.05017
  -0.04719  -2.63350  -0.86518
  -0.76544  -3.11234  -0.86518
   0.43165   1.19721   1.05017
   0.91049   3.83081   1.05017
  -0.28660  -0.23931  -1.34402
  -0.28660  -2.39408  -1.34402
  -0.04719  -0.71815   1.05017
   0.67107   0.95779   0.57133
   1.14991  -1.19698  -0.86518
  -0.52602  -2.15466  -0.62576
  -0.76544   2.87314  -0.62576
   0.43165   5.02791   0.81075
   1.14991   0.47895   0.57133
   0.43165  -0.71815  -1.82286
  -0.52602  -1.91524  -0.62576
   0.67107  -4.07001   2.00785
   1.14991  -2.15466  -0.38634
   0.19223  -1.19698  -1.34402
  -0.04719  -3.35175   1.05017
  -0.04719  -3.11234   1.05017
  -0.76544   3.11256  -0.62576
  -0.28660   5.50675   1.28959
  -1.00486   2.63372   3.44436
  -3.39905   1.19721   1.76843
  -2.92021   3.35198  -0.62576
   0.43165   4.54907   0.09250
   3.06526   0.47895  -0.62576
   1.38933  -5.02769  -3.49879
  -0.52602  -6.94304  -2.54111
  -1.00486  -5.74594   2.48669
  -0.28660  -3.83059   3.44436
   0.43165  -0.71815   0.33191
  -0.28660   1.91546  -0.14692
  -1.48370   0.95779   2.00785
  -1.48370  -1.91524   2.24727
  -1.48370   0.47895   1.52901
  -1.96254   6.22500   3.20494
  -2.68079   8.37977   3.20494
  -1.24428   6.46442  -2.78053
   0.43165   2.87314  -6.61123
  -0.28660   1.43662  -4.93530
  -0.04719  -0.47873  -1.10460
   1.86817  -5.26711   0.09250
   0.43165  -6.70362  -2.30169
  -2.68079  -3.59117  -0.14692
  -0.76544  -0.23931   4.16262
   1.14991   2.39430   1.05017
  -0.52602   2.39430  -0.14692
   0.67107  -0.71815   3.68378
   2.58642  -1.91524   2.48669
  -1.48370  -0.95757   1.52901
  -2.92021  -0.71815   2.72610
   1.86817  -0.23931   0.33191
   2.10759   2.39430  -6.37182
   2.10759   3.83081 -11.63903
   5.93829   0.23953  -9.48426
   2.82584  -2.39408  -4.45646
  -5.31440   0.23953   1.28959
  -6.27208   1.19721   6.55681
  -1.00486  -0.71815   3.20494
   0.91049  -0.71815  -2.06227
   2.34700   0.71837   1.28959
   6.41713  -0.23931   4.16262
   5.69887  -2.15466   0.57133
  -0.28660  -1.91524  -0.62576
  -0.52602   0.47895   2.48669
   1.86817   2.63372   3.92320
  -0.04719   0.95779  -0.62576
   1.14991   1.67604  -3.73821
  -3.39905   3.11256  -3.97763
  -3.87789   0.23953  -3.49879
   3.06526  -3.59117  -0.14692
   4.50177  -4.30943   7.75390
  -0.76544  -4.30943   8.23274
  -1.48370  -4.07001  -2.06227
   0.91049  -1.19698  -6.61123
   2.10759   0.95779  -1.82286
   2.34700   1.67604  -2.78053
   0.19223   3.11256  -4.45646
  -3.39905   2.87314   2.24727
  -2.20196  -0.47873   5.83855
   4.02294  -1.19698   2.00785
   5.45945   1.43662   0.57133
  -0.76544   1.67604   4.16262
  -5.31440  -0.47873   3.20494
  -4.83556  -0.95757  -0.86518
  -2.68079   0.23953  -2.54111
  -0.04719   1.43662  -3.01995
   2.82584   2.39430  -3.25937
   3.30468  -0.47873  -0.62576
   0.67107  -4.30943   1.05017
  -0.28660  -5.50653  -0.38634
   1.14991  -1.19698  -3.25937
  -0.04719   3.59139  -4.21705
  -2.68079   2.63372   1.28959
  -2.44137   0.71837   9.19042
  -0.52602   0.71837   6.79623
   1.14991  -1.43640  -0.62576
   3.30468  -4.07001  -3.49879
   2.82584  -1.91524  -3.97763
  -0.52602   0.71837  -2.30169
  -3.87789  -1.43640   2.48669
  -5.31440  -1.91524   5.12029
  -3.63847   2.87314   4.40204
  -1.00486   4.54907  -0.62576
  -1.24428   0.23953  -6.85065
  -2.20196  -1.67582  -9.24484
  -1.72312   1.43662  -6.61123
   0.43165   1.67604   1.05017
   1.62875  -2.39408   8.95100
   2.58642  -2.87292  11.82402
   6.65655  -1.19698   9.42983
   7.37480  -0.23931   0.57133
   2.82584   0.95779  -8.52659
  -0.28660   1.43662  -7.80833
   0.19223   0.95779  -2.78053
  -1.00486   0.47895  -0.38634
  -4.83556   0.95779   1.52901
  -5.55382   1.43662   1.76843
  -3.15963   1.19721  -4.45646
  -1.96254   1.43662  -8.76601
  -1.96254   1.19721  -3.25937
   0.91049  -0.95757   3.92320
   4.50177  -3.11234   5.59913
   3.06526  -3.11234   4.40204
   1.86817  -3.35175   1.28959
   4.02294  -4.07001  -2.54111
   3.78352  -2.87292  -0.86518
  -0.04719   1.19721   2.48669
  -3.39905   4.78849   0.57133
  -3.15963   4.30965  -2.06227
  -1.96254   2.39430  -0.62576
  -1.96254   1.43662   0.57133
  -1.24428   0.00011  -1.10460
  -0.52602  -1.43640  -3.01995
   0.67107  -3.11234  -2.78053
   1.62875  -2.39408  -2.06227
   0.91049   0.00011  -0.38634
   0.67107   0.71837   1.76843
   1.38933   0.23953   1.76843
   0.19223   0.00011  -0.86518
  -1.96254   0.47895  -2.30169
  -2.68079  -0.47873  -2.30169
  -2.68079  -2.39408  -0.38634
  -2.20196  -2.39408   2.96552
  -0.28660   1.19721   3.44436
   0.91049   4.78849   0.57133
   0.67107   5.02791  -1.58344
  -0.04719   2.39430  -1.34402
   0.67107   0.23953  -1.10460
   2.10759  -1.19698   0.09250
   2.58642  -1.67582   1.05017
   2.82584  -1.91524   0.57133
   3.30468  -2.39408  -0.86518
   1.14991  -1.67582   0.09250
  -1.24428  -0.23931   3.20494
  -2.20196   0.71837   4.16262
  -2.92021   0.95779  -0.14692
  -3.15963   0.47895  -3.73821
  -2.44137  -0.47873  -2.78053
  -1.48370  -0.47873  -1.10460
  -1.96254   0.95779  -0.62576
  -1.24428   2.87314   0.81075
   1.86817   2.15488   3.20494
   4.50177   0.00011   3.44436
   5.69887  -1.67582   1.05017
   3.78352  -1.67582   1.05017
  -0.76544  -1.43640   2.00785
  -3.87789  -0.71815   0.09250
  -2.68079   0.00011  -2.30169
  -0.52602   0.00011  -1.34402
   0.19223  -0.23931   0.33191
   0.91049  -0.95757   1.05017
   1.86817  -1.19698   1.28959
   0.91049  -0.47873   0.57133
  -1.48370   0.47895  -1.58344
  -2.68079   1.19721  -3.25937
  -1.00486   1.43662  -2.78053
   1.38933   0.95779   0.57133
   2.34700   0.47895   3.20494
   1.62875   0.00011   4.16262
   0.67107  -0.23931   4.64146
  -0.28660  -0.23931   3.20494
  -0.76544  -0.47873  -0.38634
  -0.52602  -1.43640  -3.01995
  -0.04719  -1.43640  -3.25937
  -0.28660   0.47895  -2.54111
  -0.52602   2.87314  -1.34402
  -0.52602   3.11256  -1.10460
  -1.00486   1.19721  -0.86518
  -0.52602  -0.71815   0.09250
   1.38933  -1.43640   0.81075
   3.30468  -1.43640   0.57133
   3.54410  -0.71815   1.05017
   1.86817   0.00011   1.52901
  -1.24428   0.00011   1.52901
  -3.39905   0.23953   1.28959
  -4.35673   0.71837   1.05017
  -3.39905   0.00011  -0.38634
  -1.24428  -1.67582  -3.73821
   1.62875  -1.67582  -4.93530
   3.06526  -0.47873  -2.78053
   2.58642   0.23953   0.09250
   0.43165  -0.23931   1.28959
  -0.76544  -0.23931   1.52901
