********************************************************************************
               CENTRO DE INSTRUMENTACION Y REGISTRO SISMICO  A.C.  
                       Coordinacion de Servicios Tecnicos
     Anaxagoras 814, Col. Narvarte, Benito Juarez, C.P. 03020 Mexico, D.F.
            Tels. 687 45 42/ 687 45  82             Fax. 669 25 12
********************************************************************************
ARCHIVO ESTANDAR DE ACELERACION:
VERSION DEL FORMATO                    : 2.0
NOMBRE DEL ARCHIVO                     : AU469707.192
FECHA Y HORA DE CREACION               : 19/MAR/98, 11:30
REF. CATALOGO ACELEROGRAMAS, SMIS 1996 : REGISTRO No.     /PAG.


================================================================================
DATOS DE LA ESTACION:
NOMBRE DE LA ESTACION                  : ANGEL URRAZA
CLAVE DE LA ESTACION                   : AU46
LOCALIZACION DE LA ESTACION            : Esc Sec Tec # 14, 5 de Mayo Av
                                       : Coyoacan y Angel Urraza, Col de
                                       : Valle, Benito Juarez
                                       :
                                       :
COORDENADAS DE LA ESTACION             : 19.383 LAT. N 
                                       : 99.168 LONG. W 
ALTITUD (msnm)                         : 2233
TIPO DE SUELO                          : TRANSICION
                                       : 
                                       : 
INSTITUCION RESPONSABLE                : CIRES
                                       :

================================================================================
DATOS DEL ACELEROGRAFO:
MODELO DEL ACELEROGRAFO                : RAD-851
NUMERO DE SERIE DEL ACELEROGRAFO       : 236
NUMERO DE CANALES                      : 3
ORIENTACION C1-C6 (rumbo;orientacion)  : /N00E/+V/N90W
ORIENTACION C7-C12 (rumbo;orientacion) :
VEL. DE MUESTREO, C1-C6 (muestras/s)   : /100/100/100
VEL. DE MUESTREO, C7-C12 (muestras/s)  :
ESC. COMPLETA DE SENSORES, C1-C6, (g)  : /0.5/0.5/0.5
ESC. COMPLETA DE SENSORES, C7-C12, (g) :
FREC. NAT. DE SENSORES, C1-C6, (Hz)    : /33/30/30
FREC. NAT. DE SENSORES, C7-C12, (Hz)   :
AMORTIGUAMIENTO DE SENSORES, C1-C6     : /0.735/0.733/0.730
AMORTIGUAMIENTO DE SENSORES, C7-C12    :
INTERVALO DE MUESTREO, C1-C6, (s)      : /0.01/0.01/0.01
INTERVALO DE MUESTREO, C7-C12, (s)     :
UMBRAL DE DISPARO, C1-C6, (Gal)        : /1.71/2.44/1.71
UMBRAL DE DISPARO, C7-C12, (Gal)       :
MEMORIA DE PREEVENTO (s)               : 24
TIEMPO DE POSEVENTO (s)                : 64


================================================================================
DATOS DEL SISMO:
FECHA DEL SISMO (GMT)                  : 19/JUL/97
HORA EPICENTRO (GMT)                   : 14:22:04:1
MAGNITUD(ES)                           : /Ms=6.3
COORDENADAS DEL EPICENTRO              : 15.8 LAT. N
                                       : 98.3 LONG. W
PROFUNDIDAD FOCAL (km)                 : 5.0
FUENTE DE LOS DATOS EPICENTRALES       : SSN
                                       : INSTITUTO DE GEOFISICA, UNAM

================================================================================
DATOS DE ESTE REGISTRO:
HORA DE LA PRIMERA MUESTRA (GMT)       : 14:24:16.00
EXACTITUD DEL TIEMPO (s)               : 0.01
DURACION DEL REGISTRO (s), C1-C6       : /97.75/97.75/97.75
DURACION DEL REGISTRO (s), C7-C12      :
NUM. TOTAL DE MUESTRAS, C1-C6          : /9775/9775/9775
NUM. TOTAL DE MUESTRAS, C7-C12         :
ACEL. MAX. (Gal), C1-C6                : /2.26087/0.63025/2.42831
ACEL. MAX., C1-C6, EN LA MUESTRA       :
ACEL. MAX. (Gal), C7-C12               :
ACEL. MAX., C7-C12, EN LA MUESTRA      :
UNIDADES DE LOS DATOS                  : Gal (cm/s/s)
FACTOR DE DECIMACION                   : 1
FORMATO DATOS (FORTRAN,10 campos/dato) : 3F10.5


================================================================================
CALIDAD DEL ACELEROGRAMA:
REGISTRO DIGITAL COMPLETO CON TIEMPO ABSOLUTO CORRECTO.


================================================================================
COMENTARIOS:














================================================================================
DATOS DE ACELERACION:
---------+---------+---------+---------+---------+---------+---------+---------+
   CANAL-1   CANAL-2   CANAL-3   CANAL-4   CANAL-5   CANAL-6   CANAL-7   CANAL-8
      N00E        +V      N90W
---------+---------+---------+---------+---------+---------+---------+---------+
[...]
  -0.82436   0.15142   0.03412
  -0.82436   0.15142   0.03412
  -0.82436  -0.08800   0.03412
  -0.82436  -0.08800   0.03412
  -0.58494   0.15142  -0.20530
  -0.58494   0.15142  -0.20530
  -0.34552   0.15142  -0.20530
  -0.82436   0.15142  -0.20530
  -0.82436  -0.08800  -0.20530
  -0.82436   0.15142  -0.20530
  -0.82436   0.15142  -0.20530
  -0.58494  -0.08800  -0.20530
  -0.58494  -0.08800  -0.44472
  -0.58494  -0.08800  -0.44472
  -0.58494  -0.08800  -0.44472
  -0.58494  -0.08800  -0.44472
  -0.58494  -0.08800  -0.44472
  -0.82436  -0.08800  -0.44472
  -0.82436   0.15142  -0.68414
  -0.58494  -0.08800  -0.68414
  -0.82436  -0.08800  -0.68414
  -0.82436  -0.08800  -0.68414
  -0.82436  -0.08800  -0.44472
  -0.82436  -0.08800  -0.68414
  -0.58494  -0.08800  -0.68414
  -0.58494  -0.08800  -0.68414
  -0.58494  -0.32742  -0.92356
  -0.58494  -0.32742  -0.92356
  -0.58494  -0.32742  -0.92356
  -0.58494  -0.08800  -0.68414
  -0.34552  -0.32742  -0.68414
  -0.34552  -0.32742  -0.92356
  -0.34552  -0.32742  -0.68414
  -0.34552  -0.32742  -0.68414
  -0.34552  -0.32742  -0.92356
  -0.34552  -0.08800  -0.68414
  -0.10610  -0.32742  -0.68414
  -0.34552  -0.08800  -0.68414
  -0.10610  -0.08800  -0.68414
  -0.10610  -0.08800  -0.68414
  -0.10610  -0.08800  -0.68414
  -0.10610  -0.08800  -0.92356
  -0.10610  -0.08800  -0.68414
  -0.10610   0.15142  -0.68414
  -0.10610  -0.08800  -0.44472
   0.13332  -0.08800  -0.20530
   0.13332  -0.08800  -0.20530
   0.13332  -0.08800  -0.20530
   0.13332  -0.08800  -0.20530
   0.13332  -0.32742  -0.20530
  -0.10610  -0.32742  -0.44472
   0.13332  -0.32742  -0.44472
  -0.10610  -0.32742  -0.20530
  -0.10610  -0.32742   0.03412
  -0.10610  -0.32742   0.03412
   0.13332  -0.32742   0.27354
   0.13332  -0.56684   0.27354
   0.37273  -0.56684   0.27354
   0.37273  -0.32742   0.27354
   0.13332  -0.32742   0.27354
   0.13332  -0.32742   0.27354
  -0.10610  -0.32742   0.27354
  -0.10610  -0.32742   0.51296
   0.13332  -0.08800   0.51296
   0.13332  -0.32742   0.51296
   0.13332  -0.08800   0.51296
   0.13332  -0.32742   0.51296
   0.13332  -0.08800   0.75238
   0.13332  -0.08800   0.75238
  -0.10610  -0.08800   0.75238
   0.13332  -0.08800   0.75238
   0.13332  -0.08800   0.75238
   0.37273  -0.08800   0.75238
   0.37273  -0.32742   0.75238
   0.37273  -0.08800   0.75238
   0.13332  -0.08800   0.75238
   0.13332  -0.32742   0.51296
   0.37273  -0.08800   0.51296
   0.13332  -0.08800   0.51296
   0.37273  -0.32742   0.99179
   0.37273  -0.32742   0.75238
   0.37273  -0.08800   0.99179
   0.37273  -0.32742   0.75238
   0.37273  -0.32742   0.75238
   0.37273  -0.08800   0.75238
   0.37273  -0.08800   0.75238
   0.37273  -0.32742   0.75238
   0.61215  -0.08800   0.75238
   0.61215  -0.08800   0.51296
   0.13332  -0.08800   0.51296
   0.13332  -0.08800   0.51296
   0.13332  -0.08800   0.51296
   0.37273  -0.08800   0.51296
   0.61215   0.15142   0.75238
   0.61215   0.15142   0.51296
   0.61215   0.15142   0.51296
   0.37273  -0.08800   0.51296
   0.13332   0.15142   0.27354
   0.13332  -0.08800   0.27354
   0.37273  -0.08800   0.27354
   0.37273  -0.08800   0.27354
   0.37273  -0.08800   0.03412
   0.37273  -0.32742   0.03412
   0.37273  -0.08800   0.27354
   0.37273  -0.32742   0.03412
   0.13332  -0.08800   0.03412
   0.37273  -0.08800  -0.20530
   0.37273   0.15142  -0.20530
   0.13332   0.15142  -0.20530
  -0.10610   0.15142  -0.20530
   0.37273   0.15142  -0.20530
   0.13332  -0.08800  -0.20530
   0.37273  -0.08800  -0.20530
   0.37273   0.15142  -0.44472
   0.37273   0.15142  -0.68414
   0.13332   0.39083  -0.68414
   0.13332   0.15142  -0.68414
   0.13332   0.15142  -0.20530
   0.37273   0.15142  -0.44472
   0.37273   0.15142  -0.44472
   0.37273   0.15142  -0.68414
   0.13332  -0.08800  -0.68414
   0.13332   0.15142  -0.68414
   0.13332   0.15142  -0.68414
   0.13332  -0.08800  -0.68414
   0.37273   0.15142  -0.68414
   0.37273   0.15142  -0.92356
   0.37273   0.15142  -0.92356
   0.37273   0.15142  -0.92356
   0.13332   0.15142  -0.68414
   0.13332   0.15142  -0.92356
   0.13332   0.15142  -0.92356
   0.37273   0.15142  -0.92356
   0.37273   0.15142  -1.16298
   0.37273   0.15142  -1.16298
   0.13332   0.15142  -1.16298
   0.13332   0.15142  -0.92356
   0.13332   0.15142  -0.92356
   0.13332   0.15142  -0.92356
   0.13332  -0.08800  -0.92356
   0.13332  -0.08800  -0.92356
   0.13332  -0.08800  -0.92356
   0.13332  -0.08800  -0.92356
   0.13332  -0.08800  -1.16298
  -0.10610  -0.08800  -0.92356
   0.13332   0.15142  -0.92356
   0.13332   0.15142  -0.92356
   0.13332   0.15142  -0.68414
   0.13332  -0.08800  -0.68414
   0.13332   0.15142  -0.68414
   0.13332   0.15142  -0.92356
   0.13332   0.15142  -0.92356
  -0.10610   0.15142  -0.68414
  -0.10610   0.15142  -0.68414
  -0.10610   0.39083  -0.68414
  -0.34552   0.39083  -0.44472
   0.13332   0.39083  -0.20530
   0.13332   0.39083  -0.20530
  -0.10610   0.39083  -0.20530
  -0.10610   0.15142  -0.44472
   0.13332   0.39083  -0.44472
   0.13332   0.15142  -0.20530
  -0.10610   0.15142  -0.20530
   0.13332   0.15142  -0.44472
   0.13332   0.39083  -0.20530
   0.13332   0.15142  -0.20530
   0.37273   0.15142  -0.20530
   0.37273   0.15142   0.03412
   0.37273   0.15142   0.03412
   0.37273   0.15142   0.03412
   0.37273   0.39083   0.03412
   0.37273   0.39083   0.03412
   0.61215   0.39083   0.03412
   0.61215   0.63025   0.03412
   0.61215   0.39083   0.03412
   0.61215   0.39083   0.03412
   0.61215   0.39083   0.27354
   0.37273   0.39083   0.27354
   0.61215   0.39083   0.27354
   0.61215   0.39083   0.27354
   0.85157   0.15142   0.27354
   0.85157   0.39083   0.51296
   0.85157   0.15142   0.51296
   0.61215   0.15142   0.75238
   0.37273   0.15142   0.75238
   0.37273   0.15142   0.51296
   0.61215  -0.08800   0.51296
   0.61215  -0.08800   0.51296
   0.61215  -0.08800   0.51296
   0.61215   0.15142   0.51296
   0.37273  -0.08800   0.75238
   0.37273   0.15142   0.75238
   0.37273  -0.08800   0.51296
   0.37273  -0.08800   0.51296
   0.37273  -0.08800   0.51296
   0.37273   0.15142   0.75238
   0.37273  -0.08800   0.51296
   0.13332  -0.08800   0.51296
   0.13332  -0.32742   0.51296
   0.13332  -0.32742   0.51296
  -0.10610  -0.08800   0.51296
   0.13332   0.15142   0.27354
  -0.10610   0.15142   0.27354
  -0.10610   0.15142   0.27354
   0.13332   0.15142   0.27354
  -0.10610  -0.08800   0.27354
  -0.34552  -0.08800   0.03412
  -0.34552  -0.08800   0.03412
  -0.58494  -0.08800   0.03412
  -0.34552  -0.08800   0.03412
   0.13332  -0.32742  -0.20530
   0.13332  -0.08800   0.03412
   0.13332   0.15142   0.03412
  -0.10610   0.15142   0.03412
  -0.10610   0.39083   0.03412
  -0.34552   0.15142  -0.20530
  -0.34552   0.15142  -0.44472
  -0.10610   0.15142  -0.44472
   0.13332   0.39083  -0.20530
   0.13332   0.39083  -0.44472
  -0.34552   0.39083  -0.20530
  -0.10610   0.15142  -0.20530
   0.13332  -0.08800  -0.20530
   0.37273   0.15142  -0.20530
   0.37273   0.15142  -0.44472
   0.13332   0.39083  -0.44472
   0.13332   0.39083  -0.68414
  -0.10610   0.15142  -0.44472
  -0.10610   0.15142  -0.44472
   0.13332  -0.08800  -0.44472
   0.13332   0.15142  -0.44472
   0.13332   0.15142  -0.44472
   0.13332   0.15142  -0.44472
   0.13332   0.15142  -0.68414
   0.13332  -0.08800  -0.68414
   0.37273  -0.32742  -0.44472
   0.37273  -0.08800  -0.20530
   0.37273   0.15142  -0.20530
   0.13332   0.15142  -0.20530
   0.13332   0.15142  -0.20530
   0.13332  -0.08800  -0.20530
   0.13332   0.15142   0.03412
   0.13332   0.15142   0.27354
   0.13332   0.15142   0.51296
   0.37273   0.15142   0.27354
   0.37273   0.15142   0.27354
   0.37273  -0.08800   0.27354
   0.13332   0.15142   0.27354
   0.13332  -0.08800   0.27354
   0.13332   0.15142   0.51296
   0.13332   0.15142   0.75238
   0.13332  -0.08800   0.75238
   0.13332   0.15142   0.99179
   0.13332  -0.08800   0.75238
   0.37273  -0.08800   0.75238
  -0.10610  -0.08800   0.51296
  -0.34552  -0.08800   0.51296
  -0.34552   0.15142   0.75238
  -0.34552   0.15142   0.99179
  -0.10610  -0.08800   1.23121
  -0.10610  -0.08800   1.23121
  -0.10610  -0.32742   1.23121
  -0.10610  -0.08800   0.99179
  -0.34552  -0.08800   0.99179
  -0.34552  -0.08800   0.75238
  -0.34552  -0.08800   0.75238
  -0.58494  -0.08800   0.75238
  -0.58494  -0.08800   0.99179
  -0.58494  -0.08800   0.99179
  -0.58494  -0.08800   0.99179
  -0.34552   0.15142   0.99179
  -0.34552   0.15142   0.99179
  -0.58494   0.15142   0.99179
  -0.58494   0.15142   0.75238
  -0.58494  -0.08800   0.75238
  -0.34552  -0.08800   0.75238
  -0.58494  -0.08800   0.75238
  -0.34552  -0.08800   0.99179
  -0.34552  -0.08800   0.51296
  -0.34552  -0.08800   0.51296
  -0.34552  -0.08800   0.27354
  -0.34552  -0.08800   0.27354
  -0.58494  -0.08800   0.27354
  -0.58494  -0.08800   0.51296
  -0.34552  -0.08800   0.27354
  -0.10610  -0.08800   0.03412
  -0.10610  -0.08800   0.03412
  -0.10610  -0.08800   0.03412
  -0.34552  -0.08800  -0.20530
  -0.58494   0.15142  -0.44472
  -0.34552   0.15142  -0.20530
  -0.10610   0.15142  -0.20530
  -0.10610   0.15142  -0.20530
   0.13332  -0.08800  -0.44472
   0.13332   0.15142  -0.68414
   0.37273   0.15142  -0.68414
   0.13332   0.15142  -0.68414
   0.13332   0.15142  -0.92356
   0.13332  -0.08800  -0.92356
   0.37273  -0.08800  -0.92356
   0.37273  -0.08800  -0.92356
   0.37273  -0.32742  -0.92356
   0.61215  -0.08800  -1.16298
   0.61215  -0.08800  -1.64181
   0.61215  -0.08800  -1.88123
   0.61215   0.15142  -1.88123
   0.37273  -0.08800  -1.64181
   0.37273  -0.08800  -1.64181
   0.37273  -0.08800  -1.64181
   0.37273  -0.32742  -1.64181
   0.61215  -0.32742  -1.64181
   0.61215  -0.32742  -1.64181
   0.61215  -0.08800  -1.88123
   0.37273  -0.08800  -1.88123
   0.13332  -0.08800  -1.64181
  -0.10610  -0.32742  -1.64181
  -0.10610  -0.32742  -1.40239
   0.13332  -0.32742  -1.40239
   0.37273  -0.32742  -1.40239
   0.61215  -0.32742  -1.64181
   0.13332  -0.08800  -1.64181
  -0.10610  -0.08800  -1.40239
  -0.34552  -0.08800  -1.40239
  -0.34552  -0.08800  -0.92356
  -0.10610  -0.08800  -0.92356
  -0.10610  -0.32742  -0.68414
  -0.34552  -0.32742  -0.68414
  -0.34552  -0.32742  -0.68414
  -0.34552  -0.08800  -0.68414
  -0.34552  -0.08800  -0.68414
  -0.34552  -0.32742  -0.44472
  -0.34552  -0.08800  -0.20530
  -0.58494  -0.32742   0.03412
  -0.58494  -0.08800   0.51296
  -0.34552  -0.32742   0.51296
  -0.34552  -0.32742   0.51296
  -0.10610  -0.32742   0.27354
  -0.34552  -0.08800   0.27354
  -0.58494  -0.08800   0.51296
  -0.58494  -0.08800   0.99179
  -0.58494   0.15142   1.23121
  -0.58494  -0.08800   1.71005
  -0.58494  -0.08800   1.47063
  -0.34552  -0.08800   1.47063
  -0.10610   0.15142   1.23121
  -0.34552   0.15142   0.99179
  -0.34552  -0.08800   0.75238
  -0.58494  -0.08800   1.23121
  -0.58494  -0.08800   1.94947
  -0.82436  -0.08800   2.42831
  -0.82436  -0.08800   2.42831
  -0.58494  -0.08800   2.42831
  -0.34552  -0.08800   1.94947
  -0.10610  -0.08800   1.71005
  -0.10610   0.15142   1.71005
  -0.34552   0.15142   1.94947
  -0.58494  -0.32742   2.42831
  -0.58494   0.15142   2.42831
  -0.34552   0.15142   2.42831
  -0.34552   0.39083   1.94947
  -0.10610   0.15142   1.71005
  -0.34552   0.15142   1.71005
  -0.34552   0.15142   1.71005
  -0.34552  -0.08800   1.94947
  -0.34552   0.15142   1.94947
  -0.34552  -0.08800   1.71005
  -0.34552   0.15142   1.71005
  -0.10610  -0.08800   1.23121
   0.13332   0.15142   0.99179
   0.13332  -0.08800   0.99179
  -0.10610   0.15142   1.23121
  -0.34552   0.15142   0.99179
  -0.58494   0.39083   0.99179
  -0.34552   0.39083   0.75238
   0.13332   0.15142   0.51296
   0.37273   0.39083   0.27354
   0.37273   0.63025   0.03412
   0.37273   0.39083   0.03412
  -0.10610   0.39083   0.27354
  -0.10610   0.15142   0.27354
   0.13332   0.15142   0.27354
   0.13332   0.15142   0.27354
   0.37273   0.15142  -0.20530
   0.37273   0.15142  -0.68414
   0.13332   0.15142  -0.68414
   0.37273   0.15142  -0.92356
   0.37273   0.15142  -0.68414
   0.37273   0.15142  -0.44472
   0.37273  -0.08800  -0.44472
   0.13332  -0.08800  -0.44472
  -0.10610  -0.08800  -0.68414
   0.13332   0.15142  -0.92356
   0.13332   0.39083  -1.16298
   0.37273   0.15142  -1.40239
   0.37273   0.15142  -1.40239
   0.61215   0.15142  -1.16298
   0.37273  -0.08800  -0.68414
   0.37273  -0.08800  -0.68414
   0.13332  -0.08800  -0.92356
   0.13332  -0.08800  -1.16298
   0.37273   0.15142  -1.16298
   0.37273   0.15142  -1.40239
   0.37273  -0.08800  -1.40239
   0.37273  -0.08800  -1.16298
   0.37273  -0.08800  -1.16298
   0.37273  -0.08800  -0.92356
   0.13332   0.15142  -0.92356
   0.37273  -0.08800  -1.16298
   0.37273  -0.08800  -0.92356
   0.61215   0.15142  -1.16298
   0.37273  -0.08800  -1.16298
   0.13332  -0.08800  -0.92356
   0.13332  -0.08800  -0.44472
   0.13332  -0.08800  -0.44472
   0.13332  -0.08800  -0.44472
   0.13332   0.15142  -0.44472
   0.13332   0.15142  -0.68414
  -0.10610   0.15142  -0.92356
  -0.10610   0.15142  -0.92356
  -0.34552   0.15142  -0.44472
  -0.34552   0.15142   0.03412
  -0.10610   0.15142   0.27354
  -0.10610   0.15142   0.27354
  -0.10610   0.15142   0.27354
  -0.10610   0.39083   0.27354
  -0.10610   0.39083   0.03412
  -0.34552   0.15142   0.03412
  -0.34552   0.15142   0.27354
  -0.34552   0.15142   0.27354
  -0.34552   0.15142   0.51296
  -0.34552   0.15142   0.51296
  -0.58494   0.15142   0.51296
  -0.34552   0.15142   0.51296
  -0.58494   0.39083   0.51296
  -0.58494   0.39083   0.51296
  -0.58494   0.15142   0.51296
  -0.58494   0.15142   0.75238
  -0.58494   0.15142   0.75238
  -0.34552  -0.08800   0.75238
  -0.34552   0.15142   0.75238
  -0.58494   0.39083   0.75238
  -0.82436   0.15142   0.51296
  -0.82436   0.39083   0.75238
  -0.82436   0.15142   0.75238
  -0.82436   0.15142   0.75238
  -0.58494  -0.08800   0.75238
  -0.58494  -0.08800   0.75238
  -0.58494   0.15142   0.75238
  -0.58494   0.15142   0.51296
  -0.58494   0.15142   0.51296
  -0.58494   0.15142   0.27354
  -0.58494   0.15142   0.27354
  -0.58494  -0.08800   0.27354
  -0.82436   0.15142   0.27354
  -0.58494  -0.08800   0.27354
  -0.58494   0.15142   0.27354
  -0.58494   0.15142   0.27354
  -0.58494   0.15142   0.03412
  -0.58494   0.15142   0.03412
  -0.34552   0.15142   0.03412
  -0.34552   0.15142   0.03412
  -0.34552   0.15142   0.03412
  -0.34552   0.15142   0.03412
  -0.10610  -0.08800   0.03412
  -0.10610  -0.08800   0.03412
  -0.34552  -0.08800  -0.20530
  -0.10610  -0.08800  -0.20530
   0.13332  -0.08800  -0.20530
   0.13332  -0.32742  -0.20530
   0.13332  -0.32742  -0.20530
   0.13332  -0.32742  -0.20530
   0.13332  -0.08800  -0.44472
   0.13332  -0.08800  -0.44472
   0.13332  -0.08800  -0.44472
   0.37273  -0.08800  -0.20530
   0.37273  -0.08800  -0.20530
   0.37273  -0.08800  -0.20530
   0.37273  -0.32742  -0.20530
   0.37273  -0.08800  -0.20530
   0.37273  -0.08800  -0.44472
   0.61215  -0.08800  -0.44472
   0.61215  -0.08800  -0.44472
   0.61215  -0.08800  -0.20530
   0.61215  -0.08800  -0.20530
   0.61215   0.15142  -0.20530
   0.61215  -0.08800  -0.20530
   0.61215  -0.08800  -0.44472
   0.61215   0.15142  -0.44472
   0.37273  -0.08800  -0.44472
   0.37273   0.15142  -0.20530
   0.37273   0.15142   0.03412
   0.37273   0.15142   0.03412
   0.61215  -0.08800   0.03412
   0.61215  -0.08800  -0.20530
   0.61215  -0.08800  -0.44472
   0.61215  -0.08800  -0.44472
   0.37273  -0.08800  -0.44472
   0.37273   0.15142  -0.44472
   0.13332   0.15142  -0.20530
   0.37273   0.15142  -0.20530
