********************************************************************************
               CENTRO DE INSTRUMENTACION Y REGISTRO SISMICO  A.C.  
                       Coordinacion de Servicios Tecnicos
     Anaxagoras 814, Col. Narvarte, Benito Juarez, C.P. 03020 Mexico, D.F.
            Tels. 687 45 42/ 687 45  82             Fax. 669 25 12
********************************************************************************
ARCHIVO ESTANDAR DE ACELERACION:
VERSION DEL FORMATO                    : 2.0
NOMBRE DEL ARCHIVO                     : AU469509.141
FECHA Y HORA DE CREACION               : MARZO 14, 1996/17:25
REF. CATALOGO ACELEROGRAMAS, SMIS 1995 : REGISTRO No.     /PAG.


================================================================================
DATOS DE LA ESTACION:
NOMBRE DE LA ESTACION                  : ANGEL URRAZA
CLAVE DE LA ESTACION                   : AU46
LOCALIZACION DE LA ESTACION            : Esc Sec Tec # 14, 5 de Mayo Av
                                       : Coyoacan y Angel Urraza, Col de
                                       : Valle, Benito Juarez
                                       :
                                       :
COORDENADAS DE LA ESTACION             : 19.383 LAT. N 
                                       : 99.168 LONG. W 
ALTITUD (msnm)                         : 2233
TIPO DE SUELO                          : TRANSICION
                                       : 
                                       : 
INSTITUCION RESPONSABLE                : CIRES
                                       :

================================================================================
DATOS DEL ACELEROGRAFO:
MODELO DEL ACELEROGRAFO                : DCA-333
NUMERO DE SERIE DEL ACELEROGRAFO       : 236
NUMERO DE CANALES                      : 3
ORIENTACION C1-C6 (rumbo;orientacion)  : /N00E/+V/N90W
ORIENTACION C7-C12 (rumbo;orientacion) :
VEL. DE MUESTREO, C1-C6 (muestras/s)   : /100/100/100
VEL. DE MUESTREO, C7-C12 (muestras/s)  :
ESC. COMPLETA DE SENSORES, C1-C6, (g)  : /0.5/0.5/0.5
ESC. COMPLETA DE SENSORES, C7-C12, (g) :
FREC. NAT. DE SENSORES, C1-C6, (Hz)    : /30/30/30
FREC. NAT. DE SENSORES, C7-C12, (Hz)   :
AMORTIGUAMIENTO DE SENSORES, C1-C6     : /0.700/0.700/0.700
AMORTIGUAMIENTO DE SENSORES, C7-C12    :
INTERVALO DE MUESTREO, C1-C6, (s)      : /0.01/0.01/0.01
INTERVALO DE MUESTREO, C7-C12, (s)     :
UMBRAL DE DISPARO, C1-C6, (Gal)        : /1.5/1.5/1.5
UMBRAL DE DISPARO, C7-C12, (Gal)       :
MEMORIA DE PREEVENTO (s)               : 4
TIEMPO DE POSEVENTO (s)                : 15


================================================================================
DATOS DEL SISMO:
FECHA DEL SISMO (GMT)                  : 14/SEP/95
HORA EPICENTRO (GMT)                   : 14:04:30.5
MAGNITUD(ES)                           : /Mc=6.4/Mb=7.2/Me=7.3
COORDENADAS DEL EPICENTRO              : 16.31 LAT. N
                                       : 98.88 LONG. W
PROFUNDIDAD FOCAL (km)                 : 22
FUENTE DE LOS DATOS EPICENTRALES       : SSN
                                       : INSTITUTO DE GEOFISICA, UNAM

================================================================================
DATOS DE ESTE REGISTRO:
HORA DE LA PRIMERA MUESTRA (GMT)       : 14:05:33.59
EXACTITUD DEL TIEMPO (s)               : 0.01
DURACION DEL REGISTRO (s), C1-C6       : /170.65/170.65/170.65
DURACION DEL REGISTRO (s), C7-C12      :
NUM. TOTAL DE MUESTRAS, C1-C6          : /17065/17065/17065
NUM. TOTAL DE MUESTRAS, C7-C12         :
ACEL. MAX. (Gal), C1-C6                : /21.01/4.90/18.14
ACEL. MAX., C1-C6, EN LA MUESTRA       :
ACEL. MAX. (Gal), C7-C12               :
ACEL. MAX., C7-C12, EN LA MUESTRA      :
UNIDADES DE LOS DATOS                  : Gal (cm/s/s)
FACTOR DE DECIMACION                   : 1
FORMATO DATOS (FORTRAN,10 campos/dato) : 3F10.2


================================================================================
CALIDAD DEL ACELEROGRAMA:
REGISTRO DIGITAL COMPLETO CON TIEMPO ABSOLUTO CORRECTO.


================================================================================
COMENTARIOS:














================================================================================
DATOS DE ACELERACION:
---------+---------+---------+---------+---------+---------+---------+---------+
   CANAL-1   CANAL-2   CANAL-3   CANAL-4   CANAL-5   CANAL-6   CANAL-7   CANAL-8
      N00E        +V      N90E
---------+---------+---------+---------+---------+---------+---------+---------+
[...]
     -0.42     -0.13     10.83
     -0.42      0.35     10.59
     -0.42      0.59     10.11
     -0.18      1.07      9.63
      0.06      1.55      8.91
      0.06      2.03      8.20
      0.06      2.27      7.48
     -0.18      2.51      6.52
     -0.42      2.51      5.56
     -0.90      2.27      4.84
     -0.90      2.27      4.13
     -0.90      2.03      3.41
     -0.90      1.55      2.69
     -1.14      1.31      1.73
     -1.38      1.07      0.77
     -1.38      0.83     -0.18
     -1.38      0.59     -0.90
     -1.38      0.59     -1.62
     -1.38      0.35     -2.34
     -1.38      0.11     -3.06
     -1.62     -0.37     -3.78
     -1.62     -0.61     -4.25
     -1.62     -0.84     -4.73
     -1.86     -0.61     -5.45
     -1.86     -0.37     -6.17
     -1.86     -0.37     -6.89
     -2.10      0.11     -7.37
     -2.10      0.35     -7.61
     -2.34      0.59     -7.85
     -2.58      0.59     -8.08
     -2.58      0.59     -8.32
     -2.82      0.35     -8.32
     -2.58      0.35     -8.56
     -2.58      0.59     -8.80
     -2.82      0.35     -9.04
     -3.29      0.59     -9.28
     -3.53      0.11     -9.04
     -4.25      0.11     -8.80
     -4.73     -0.13     -8.56
     -5.45     -0.61     -8.56
     -5.93     -0.84     -8.56
     -6.17     -1.32     -8.80
     -5.93     -1.56     -9.04
     -5.93     -1.56     -9.04
     -5.45     -1.56     -9.04
     -4.97     -1.32     -9.04
     -4.49     -1.56     -9.04
     -4.25     -1.56     -9.04
     -3.77     -1.32     -9.28
     -3.06     -1.32     -9.28
     -2.34     -1.08     -9.28
     -2.10     -0.61     -9.52
     -1.86     -0.37     -9.76
     -1.86     -0.13     -9.52
     -1.86      0.11     -9.28
     -1.62      0.59     -9.04
     -1.62      0.83     -8.56
     -1.38      0.83     -8.32
     -1.38      0.83     -7.85
     -1.14      0.83     -7.61
     -0.90      0.83     -7.37
     -0.66      0.83     -7.37
     -0.42      0.83     -7.13
     -0.18      0.83     -6.65
      0.06      0.83     -6.41
      0.06      0.59     -6.17
      0.30      0.59     -5.93
      0.54      0.59     -5.45
      0.78      0.59     -4.97
      1.25      0.35     -4.49
      1.97      0.35     -3.78
      2.45      0.35     -3.30
      3.17      0.11     -2.82
      3.89      0.11     -2.34
      4.37     -0.37     -1.86
      4.85     -0.37     -1.62
      4.85     -0.84     -1.38
      4.61     -0.84     -1.14
      4.37     -0.84     -0.66
      4.13     -0.84     -0.18
      3.89     -0.84      0.29
      3.89     -0.37      0.77
      3.65     -0.37      1.25
      3.65     -0.13      1.97
      3.65     -0.13      2.45
      3.65     -0.13      2.93
      3.89      0.11      3.65
      4.37      0.11      4.13
      4.61     -0.13      4.60
      5.08     -0.13      4.84
      5.32     -0.37      5.32
      5.56     -0.61      5.56
      5.56     -1.32      5.32
      5.32     -1.80      5.56
      5.32     -2.28      5.56
      4.85     -2.52      5.80
      4.61     -3.24      6.04
      4.13     -3.24      6.28
      3.65     -3.72      6.52
      3.41     -3.72      6.76
      2.93     -3.72      7.00
      2.21     -3.24      7.24
      1.73     -3.00      7.24
      1.25     -2.52      7.24
      0.54     -2.04      7.00
      0.06     -1.32      7.00
     -0.42     -0.61      6.76
     -0.90     -0.37      6.76
     -1.62     -0.13      6.52
     -2.10     -0.13      6.52
     -2.58      0.11      6.04
     -3.53     -0.13      5.80
     -4.01     -0.37      5.56
     -4.73     -0.84      5.32
     -5.45     -1.56      5.08
     -5.93     -2.04      4.84
     -6.41     -2.52      4.60
     -6.89     -3.00      4.36
     -7.13     -3.00      3.89
     -7.60     -3.24      3.65
     -8.32     -3.00      3.17
     -8.56     -2.76      2.93
     -8.80     -2.52      2.45
     -9.04     -2.28      2.21
     -9.28     -1.80      1.97
     -9.28     -1.32      1.73
     -9.28     -1.08      1.73
     -9.52     -0.61      1.73
     -9.52     -0.37      1.73
     -9.76     -0.13      1.73
     -9.52      0.11      1.73
     -9.52      0.35      1.73
     -9.04      0.83      1.49
     -8.80      0.83      1.25
     -8.80      1.07      1.01
     -8.32      1.31      0.53
     -8.08      1.31      0.53
     -7.60      1.55      0.29
     -7.37      1.55      0.06
     -7.37      1.79      0.06
     -7.13      1.79     -0.42
     -6.89      2.03     -0.90
     -6.65      1.79     -1.38
     -6.17      1.79     -1.38
     -5.69      1.79     -1.86
     -5.69      1.79     -2.34
     -5.45      1.79     -2.58
     -4.97      1.79     -2.82
     -4.49      1.55     -3.30
     -3.77      1.55     -3.54
     -3.29      1.55     -3.78
     -2.58      1.55     -4.25
     -2.10      1.31     -4.25
     -1.62      1.07     -4.25
     -1.14      0.83     -3.78
     -0.66      0.59     -3.54
     -0.18      0.59     -3.06
      0.06      0.35     -3.06
      0.30      0.11     -2.82
      0.54     -0.13     -2.82
      1.01     -0.61     -2.58
      1.25     -0.84     -2.58
      1.49     -1.08     -2.58
      1.73     -1.32     -2.58
      2.21     -1.56     -2.58
      2.45     -1.80     -2.58
      2.93     -2.04     -2.58
      2.93     -2.04     -2.58
      3.17     -2.04     -2.58
      3.41     -2.04     -2.34
      3.41     -2.04     -2.10
      3.41     -1.80     -1.62
      3.41     -1.56     -1.14
      3.41     -1.32     -1.14
      3.41     -1.08     -0.90
      3.41     -0.84     -0.90
      3.41     -0.37     -0.90
      3.89      0.11     -0.66
      4.37      0.35     -0.66
      4.85      0.83     -0.42
      5.56      1.07     -0.42
      6.28      1.31     -0.18
      7.00      1.55      0.06
      7.48      1.79      0.29
      7.72      1.79      0.53
      7.96      1.55      0.53
      7.96      1.55      0.77
      7.72      1.55      0.77
      7.24      1.31      0.53
      6.76      1.31      0.29
      6.28      1.31      0.06
      5.80      1.07     -0.42
      5.08      0.59     -0.90
      4.85      0.35     -1.38
      4.85     -0.13     -1.86
      4.85     -0.37     -2.10
      5.08     -0.37     -2.10
      5.08     -0.84     -1.86
      5.08     -1.08     -1.86
      5.32     -1.08     -2.10
      5.32     -1.08     -2.34
      5.32     -1.08     -2.58
      5.32     -1.08     -2.82
      5.08     -1.08     -3.06
      4.85     -0.84     -3.54
      4.61     -0.84     -3.78
      4.85     -0.84     -4.25
      4.85     -0.61     -4.49
      5.08     -0.61     -4.73
      5.32     -0.37     -4.73
      5.56     -0.37     -4.97
      5.80     -0.37     -4.97
      6.04     -0.13     -4.97
      6.28     -0.13     -5.21
      6.28      0.11     -5.21
      6.28      0.11     -4.97
      6.04      0.35     -4.73
      5.80      0.35     -4.49
      5.32      0.35     -4.49
      5.08      0.35     -4.25
      4.85      0.35     -4.01
      5.08      0.59     -3.78
      5.32      0.83     -3.78
      5.80      0.83     -3.78
      6.28      1.07     -3.54
      7.00      1.31     -3.30
      7.72      1.55     -2.82
      8.44      1.79     -2.34
      8.92      1.79     -1.86
      9.15      1.79     -1.14
      9.39      1.79     -0.66
      9.39      1.79      0.06
      9.15      1.79      0.53
      8.92      1.79      1.01
      8.92      1.79      1.49
      8.68      2.03      1.97
      8.68      2.03      2.45
      8.68      1.79      2.93
      8.68      2.03      3.17
      8.92      1.55      3.65
      8.92      1.55      3.89
      8.44      1.55      3.89
      8.20      1.31      4.36
      7.96      1.31      4.84
      7.48      1.31      5.56
      6.76      1.55      5.80
      6.28      1.31      6.28
      6.04      1.55      7.00
      5.80      1.31      7.48
      5.32      1.55      7.48
      4.85      1.55      7.72
      4.85      1.55      8.20
      4.85      1.79      8.44
      4.61      2.03      8.44
      4.61      1.79      8.67
      4.61      1.79      9.15
      4.37      2.03      9.39
      3.89      2.03      9.63
      3.41      1.79     10.11
      3.17      1.55     10.59
      2.45      1.55     11.31
      1.97      1.79     11.79
      1.25      1.55     12.03
      0.54      1.55     12.51
      0.06      1.31     12.98
     -0.18      1.55     13.22
     -0.66      1.31     13.22
     -0.66      1.31     13.22
     -0.66      1.31     13.22
     -0.66      1.55     13.22
     -0.66      1.55     13.22
     -0.66      1.79     13.22
     -0.90      2.03     13.46
     -1.14      2.27     13.22
     -1.62      2.27     13.22
     -1.86      2.51     13.22
     -2.34      2.51     13.22
     -2.82      2.75     13.22
     -3.29      2.51     12.98
     -3.77      2.75     12.51
     -4.01      2.75     12.03
     -4.01      2.99     11.31
     -4.01      3.23     10.83
     -4.01      3.23      9.87
     -3.53      3.23      9.15
     -3.29      3.23      8.67
     -3.06      2.99      7.72
     -2.58      2.99      7.48
     -2.10      2.99      7.00
     -1.62      2.99      6.28
     -0.90      2.99      5.56
     -0.42      2.99      4.84
     -0.18      3.23      4.13
     -0.18      2.99      3.41
      0.06      2.75      2.69
      0.30      2.27      1.97
      0.54      2.03      1.25
      1.01      1.31      0.53
      1.49      0.83      0.06
      1.97      0.59     -0.66
      2.21      0.35     -1.62
      1.97      0.11     -2.34
      1.97     -0.13     -3.30
      1.97     -0.13     -3.78
      1.73     -0.13     -4.73
      1.49      0.11     -5.45
      1.01      0.35     -6.41
      0.78      0.59     -7.37
      0.30      0.83     -8.32
      0.30      1.07     -9.52
      0.30      1.07    -10.96
      0.06      0.83    -11.92
      0.06      1.07    -12.87
     -0.42      0.83    -13.59
     -0.66      0.59    -14.31
     -0.90      0.59    -14.79
     -1.14      0.35    -15.03
     -1.62      0.35    -15.51
     -2.34      0.11    -15.99
     -3.06      0.11    -16.46
     -3.77      0.11    -16.70
     -4.49      0.11    -16.94
     -5.21      0.35    -17.42
     -5.93      0.35    -17.66
     -6.65      0.59    -18.14
     -7.37      0.59    -18.14
     -8.08      0.83    -18.14
     -8.80      1.07    -18.14
     -9.52      1.55    -18.14
    -10.00      1.55    -17.90
    -10.96      1.79    -17.90
    -11.44      2.03    -17.42
    -12.15      2.27    -16.70
    -12.87      2.03    -15.99
    -13.35      2.03    -15.51
    -14.07      2.27    -14.79
    -14.55      2.03    -14.07
    -15.03      2.03    -13.59
    -15.51      1.79    -12.87
    -15.98      1.55    -12.15
    -16.46      1.31    -11.68
    -16.94      1.07    -10.96
    -17.66      1.07    -10.48
    -18.14      0.83    -10.00
    -18.86      0.83     -9.28
    -19.58      0.83     -8.56
    -20.05      1.07     -7.85
    -20.53      1.07     -7.37
    -20.77      1.07     -6.41
    -21.01      1.07     -5.69
    -21.01      1.31     -4.73
    -20.77      1.31     -3.78
    -20.29      1.31     -3.06
    -19.58      1.31     -2.34
    -18.86      1.07     -1.62
    -17.90      0.83     -0.90
    -16.70      0.35     -0.18
    -15.74     -0.13      0.29
    -15.03     -0.84      1.01
    -14.07     -1.56      1.73
    -13.35     -2.28      2.21
    -12.15     -3.00      3.17
    -11.20     -3.24      3.89
    -10.24     -3.72      4.84
     -9.28     -3.96      5.56
     -8.32     -4.20      6.52
     -7.13     -4.20      7.48
     -5.69     -4.20      8.44
     -4.01     -3.96      9.63
     -2.58     -3.72     10.35
     -1.14     -3.48     11.07
      0.06     -3.24     11.79
      1.01     -3.00     12.27
      1.97     -3.00     12.98
      2.93     -2.76     13.46
      3.65     -2.76     13.94
      4.37     -2.76     14.42
      4.85     -3.00     14.66
      5.56     -3.00     14.66
      6.04     -3.48     14.90
      6.52     -3.72     14.90
      7.00     -3.96     14.90
      7.48     -3.96     14.66
      8.20     -3.96     14.90
      9.15     -3.96     14.90
      9.63     -3.96     14.90
     10.35     -4.20     14.66
     10.59     -3.96     14.42
     11.07     -3.48     13.94
     11.31     -3.24     13.46
     11.31     -3.00     12.98
     11.55     -3.00     12.27
     11.55     -3.00     11.31
     11.55     -2.76     10.35
     11.55     -2.76      9.39
     11.31     -2.76      8.44
     11.31     -3.00      7.48
     11.07     -3.24      6.28
     10.83     -3.24      5.32
     10.59     -3.48      4.36
     10.11     -3.48      3.65
      9.63     -3.72      2.45
      9.15     -3.72      1.73
      8.68     -3.96      0.77
      7.72     -3.72      0.06
      7.24     -3.72     -0.42
      6.52     -3.72     -1.14
      5.80     -3.72     -2.10
      4.85     -3.72     -3.54
      4.13     -3.72     -4.73
      3.65     -3.48     -5.69
      2.93     -3.72     -6.65
      2.45     -3.48     -7.37
      1.73     -3.48     -8.08
      0.78     -3.48     -8.80
     -0.18     -3.48     -9.76
     -0.90     -3.48    -10.48
     -2.10     -3.24    -11.20
     -3.06     -3.00    -11.92
     -4.01     -2.52    -12.39
     -4.97     -2.28    -12.87
     -5.93     -2.04    -13.11
     -6.65     -1.80    -13.35
     -7.37     -1.56    -13.59
     -8.08     -1.32    -13.83
     -8.80     -1.32    -13.59
     -9.28     -1.08    -13.35
     -9.76     -0.84    -12.87
    -10.24     -0.84    -12.63
    -10.72     -1.08    -12.39
    -11.44     -1.08    -11.92
    -11.91     -1.32    -11.44
    -12.63     -1.56    -10.72
    -13.11     -1.32     -9.76
    -13.83     -1.32     -8.80
    -14.31     -1.32     -7.85
    -14.79     -1.32     -6.89
    -15.03     -1.32     -5.69
    -15.03     -1.08     -4.73
    -15.03     -1.08     -3.54
    -14.79     -1.08     -2.58
    -14.55     -0.84     -1.38
    -13.83     -0.84     -0.18
    -12.87     -0.61      0.77
    -12.15     -0.13      1.73
    -11.44      0.11      2.45
    -10.72      0.35      3.17
    -10.00      0.35      3.89
     -9.28      0.59      4.84
     -8.32      0.83      5.56
     -7.60      1.07      6.28
     -6.89      1.31      6.76
     -5.93      1.55      7.48
     -4.97      1.79      7.96
     -3.77      1.79      8.44
     -2.34      1.79      8.91
     -1.14      1.55      8.91
      0.06      1.55      8.91
      1.01      1.31      8.91
      2.21      1.07      8.67
      3.17      0.83      8.44
      4.13      0.59      8.20
      4.85      0.35      8.20
      5.80      0.11      7.96
      6.28     -0.37      7.96
      7.00     -0.61      7.96
      7.48     -0.84      7.96
      7.72     -0.84      8.20
      8.44     -1.08      8.44
      9.15     -1.32      8.67
      9.87     -1.32      8.91
     11.07     -1.32      9.15
     12.03     -1.32      8.91
     12.75     -1.32      8.91
     13.70     -1.08      8.91
     14.42     -0.84      8.67
     14.66     -0.61      8.20
     14.90     -0.84      7.72
     14.90     -0.61      7.24
     14.90     -0.37      6.76
     14.66     -0.13      6.04
     14.42      0.11      5.32
     14.18      0.11      4.84
     13.70     -0.13      3.89
     13.46     -0.13      3.17
     13.22     -0.13      2.69
     13.22      0.11      1.97
     13.22      0.35      1.25
     13.46      0.35      0.53
     13.46      0.35     -0.18
     13.46      0.59     -0.90
     13.70      0.59     -1.62
     13.70      0.83     -2.58
     13.46      1.07     -3.30
     13.22      1.31     -4.25
     12.75      1.55     -4.97
     12.03      1.55     -5.69
     11.31      1.79     -6.41
     10.83      1.79     -7.13
     10.11      1.79     -7.61
